{"0000":[{"zip_code":"0040000","prefecture":"北海道","prefecture_kana":"ホッカイドウ","city":"札幌市厚別区","city_kana":"サッポロシアツベツク","town":"以下に掲載がない場合","town_kana":"イカニケイサイガナイバアイ","prefecture_code":1},{"zip_code":"0040000","prefecture":"北海道","prefecture_kana":"ホッカイドウ","city":"札幌市清田区","city_kana":"サッポロシキヨタク","town":"以下に掲載がない場合","town_kana":"イカニケイサイガナイバアイ","prefecture_code":1}],"0021":{"zip_code":"0040021","prefecture":"北海道","prefecture_kana":"ホッカイドウ","city":"札幌市厚別区","city_kana":"サッポロシアツベツク","town":"青葉町","town_kana":"アオバチョウ","prefecture_code":1},"0071":{"zip_code":"0040071","prefecture":"北海道","prefecture_kana":"ホッカイドウ","city":"札幌市厚別区","city_kana":"サッポロシアツベツク","town":"厚別北一条","town_kana":"アツベツキタ1ジョウ","prefecture_code":1},"0072":{"zip_code":"0040072","prefecture":"北海道","prefecture_kana":"ホッカイドウ","city":"札幌市厚別区","city_kana":"サッポロシアツベツク","town":"厚別北二条","town_kana":"アツベツキタ2ジョウ","prefecture_code":1},"0073":{"zip_code":"0040073","prefecture":"北海道","prefecture_kana":"ホッカイドウ","city":"札幌市厚別区","city_kana":"サッポロシアツベツク","town":"厚別北三条","town_kana":"アツベツキタ3ジョウ","prefecture_code":1},"0074":{"zip_code":"0040074","prefecture":"北海道","prefecture_kana":"ホッカイドウ","city":"札幌市厚別区","city_kana":"サッポロシアツベツク","town":"厚別北四条","town_kana":"アツベツキタ4ジョウ","prefecture_code":1},"0075":{"zip_code":"0040075","prefecture":"北海道","prefecture_kana":"ホッカイドウ","city":"札幌市厚別区","city_kana":"サッポロシアツベツク","town":"厚別北五条","town_kana":"アツベツキタ5ジョウ","prefecture_code":1},"0076":{"zip_code":"0040076","prefecture":"北海道","prefecture_kana":"ホッカイドウ","city":"札幌市厚別区","city_kana":"サッポロシアツベツク","town":"厚別北六条","town_kana":"アツベツキタ6ジョウ","prefecture_code":1},"0051":{"zip_code":"0040051","prefecture":"北海道","prefecture_kana":"ホッカイドウ","city":"札幌市厚別区","city_kana":"サッポロシアツベツク","town":"厚別中央一条","town_kana":"アツベツチュウオウ1ジョウ","prefecture_code":1},"0052":{"zip_code":"0040052","prefecture":"北海道","prefecture_kana":"ホッカイドウ","city":"札幌市厚別区","city_kana":"サッポロシアツベツク","town":"厚別中央二条","town_kana":"アツベツチュウオウ2ジョウ","prefecture_code":1},"0053":{"zip_code":"0040053","prefecture":"北海道","prefecture_kana":"ホッカイドウ","city":"札幌市厚別区","city_kana":"サッポロシアツベツク","town":"厚別中央三条","town_kana":"アツベツチュウオウ3ジョウ","prefecture_code":1},"0054":{"zip_code":"0040054","prefecture":"北海道","prefecture_kana":"ホッカイドウ","city":"札幌市厚別区","city_kana":"サッポロシアツベツク","town":"厚別中央四条","town_kana":"アツベツチュウオウ4ジョウ","prefecture_code":1},"0055":{"zip_code":"0040055","prefecture":"北海道","prefecture_kana":"ホッカイドウ","city":"札幌市厚別区","city_kana":"サッポロシアツベツク","town":"厚別中央五条","town_kana":"アツベツチュウオウ5ジョウ","prefecture_code":1},"0039":{"zip_code":"0040039","prefecture":"北海道","prefecture_kana":"ホッカイドウ","city":"札幌市厚別区","city_kana":"サッポロシアツベツク","town":"厚別町上野幌","town_kana":"アツベツチョウカミノッポロ","prefecture_code":1},"0007":{"zip_code":"0040007","prefecture":"北海道","prefecture_kana":"ホッカイドウ","city":"札幌市厚別区","city_kana":"サッポロシアツベツク","town":"厚別町下野幌","town_kana":"アツベツチョウシモノッポロ","prefecture_code":1},"0006":{"zip_code":"0040006","prefecture":"北海道","prefecture_kana":"ホッカイドウ","city":"札幌市厚別区","city_kana":"サッポロシアツベツク","town":"厚別町小野幌","town_kana":"アツベツチョウコノッポロ","prefecture_code":1},"0069":{"zip_code":"0040069","prefecture":"北海道","prefecture_kana":"ホッカイドウ","city":"札幌市厚別区","city_kana":"サッポロシアツベツク","town":"厚別町山本","town_kana":"アツベツチョウヤマモト","prefecture_code":1},"0068":{"zip_code":"0040068","prefecture":"北海道","prefecture_kana":"ホッカイドウ","city":"札幌市厚別区","city_kana":"サッポロシアツベツク","town":"厚別西","town_kana":"アツベツニシ","prefecture_code":1},"0061":{"zip_code":"0040061","prefecture":"北海道","prefecture_kana":"ホッカイドウ","city":"札幌市厚別区","city_kana":"サッポロシアツベツク","town":"厚別西一条","town_kana":"アツベツニシ1ジョウ","prefecture_code":1},"0062":{"zip_code":"0040062","prefecture":"北海道","prefecture_kana":"ホッカイドウ","city":"札幌市厚別区","city_kana":"サッポロシアツベツク","town":"厚別西二条","town_kana":"アツベツニシ2ジョウ","prefecture_code":1},"0063":{"zip_code":"0040063","prefecture":"北海道","prefecture_kana":"ホッカイドウ","city":"札幌市厚別区","city_kana":"サッポロシアツベツク","town":"厚別西三条","town_kana":"アツベツニシ3ジョウ","prefecture_code":1},"0064":{"zip_code":"0040064","prefecture":"北海道","prefecture_kana":"ホッカイドウ","city":"札幌市厚別区","city_kana":"サッポロシアツベツク","town":"厚別西四条","town_kana":"アツベツニシ4ジョウ","prefecture_code":1},"0065":{"zip_code":"0040065","prefecture":"北海道","prefecture_kana":"ホッカイドウ","city":"札幌市厚別区","city_kana":"サッポロシアツベツク","town":"厚別西五条","town_kana":"アツベツニシ5ジョウ","prefecture_code":1},"0001":{"zip_code":"0040001","prefecture":"北海道","prefecture_kana":"ホッカイドウ","city":"札幌市厚別区","city_kana":"サッポロシアツベツク","town":"厚別東一条","town_kana":"アツベツヒガシ1ジョウ","prefecture_code":1},"0002":{"zip_code":"0040002","prefecture":"北海道","prefecture_kana":"ホッカイドウ","city":"札幌市厚別区","city_kana":"サッポロシアツベツク","town":"厚別東二条","town_kana":"アツベツヒガシ2ジョウ","prefecture_code":1},"0003":{"zip_code":"0040003","prefecture":"北海道","prefecture_kana":"ホッカイドウ","city":"札幌市厚別区","city_kana":"サッポロシアツベツク","town":"厚別東三条","town_kana":"アツベツヒガシ3ジョウ","prefecture_code":1},"0004":{"zip_code":"0040004","prefecture":"北海道","prefecture_kana":"ホッカイドウ","city":"札幌市厚別区","city_kana":"サッポロシアツベツク","town":"厚別東四条","town_kana":"アツベツヒガシ4ジョウ","prefecture_code":1},"0005":{"zip_code":"0040005","prefecture":"北海道","prefecture_kana":"ホッカイドウ","city":"札幌市厚別区","city_kana":"サッポロシアツベツク","town":"厚別東五条","town_kana":"アツベツヒガシ5ジョウ","prefecture_code":1},"0022":{"zip_code":"0040022","prefecture":"北海道","prefecture_kana":"ホッカイドウ","city":"札幌市厚別区","city_kana":"サッポロシアツベツク","town":"厚別南","town_kana":"アツベツミナミ","prefecture_code":1},"0041":{"zip_code":"0040041","prefecture":"北海道","prefecture_kana":"ホッカイドウ","city":"札幌市厚別区","city_kana":"サッポロシアツベツク","town":"大谷地東","town_kana":"オオヤチヒガシ","prefecture_code":1},"0042":{"zip_code":"0040042","prefecture":"北海道","prefecture_kana":"ホッカイドウ","city":"札幌市厚別区","city_kana":"サッポロシアツベツク","town":"大谷地西","town_kana":"オオヤチニシ","prefecture_code":1},"0031":{"zip_code":"0040031","prefecture":"北海道","prefecture_kana":"ホッカイドウ","city":"札幌市厚別区","city_kana":"サッポロシアツベツク","town":"上野幌一条","town_kana":"カミノッポロ1ジョウ","prefecture_code":1},"0032":{"zip_code":"0040032","prefecture":"北海道","prefecture_kana":"ホッカイドウ","city":"札幌市厚別区","city_kana":"サッポロシアツベツク","town":"上野幌二条","town_kana":"カミノッポロ2ジョウ","prefecture_code":1},"0033":{"zip_code":"0040033","prefecture":"北海道","prefecture_kana":"ホッカイドウ","city":"札幌市厚別区","city_kana":"サッポロシアツベツク","town":"上野幌三条","town_kana":"カミノッポロ3ジョウ","prefecture_code":1},"0015":{"zip_code":"0040015","prefecture":"北海道","prefecture_kana":"ホッカイドウ","city":"札幌市厚別区","city_kana":"サッポロシアツベツク","town":"下野幌テクノパーク","town_kana":"シモノッポロテクノパーク","prefecture_code":1},"0011":{"zip_code":"0040011","prefecture":"北海道","prefecture_kana":"ホッカイドウ","city":"札幌市厚別区","city_kana":"サッポロシアツベツク","town":"もみじ台東","town_kana":"モミジダイヒガシ","prefecture_code":1},"0013":{"zip_code":"0040013","prefecture":"北海道","prefecture_kana":"ホッカイドウ","city":"札幌市厚別区","city_kana":"サッポロシアツベツク","town":"もみじ台西","town_kana":"モミジダイニシ","prefecture_code":1},"0012":{"zip_code":"0040012","prefecture":"北海道","prefecture_kana":"ホッカイドウ","city":"札幌市厚別区","city_kana":"サッポロシアツベツク","town":"もみじ台南","town_kana":"モミジダイミナミ","prefecture_code":1},"0014":{"zip_code":"0040014","prefecture":"北海道","prefecture_kana":"ホッカイドウ","city":"札幌市厚別区","city_kana":"サッポロシアツベツク","town":"もみじ台北","town_kana":"モミジダイキタ","prefecture_code":1},"0821":{"zip_code":"0040821","prefecture":"北海道","prefecture_kana":"ホッカイドウ","city":"札幌市清田区","city_kana":"サッポロシキヨタク","town":"有明","town_kana":"アリアケ","prefecture_code":1},"0811":{"zip_code":"0040811","prefecture":"北海道","prefecture_kana":"ホッカイドウ","city":"札幌市清田区","city_kana":"サッポロシキヨタク","town":"美しが丘一条","town_kana":"ウツクシガオカ1ジョウ","prefecture_code":1},"0812":{"zip_code":"0040812","prefecture":"北海道","prefecture_kana":"ホッカイドウ","city":"札幌市清田区","city_kana":"サッポロシキヨタク","town":"美しが丘二条","town_kana":"ウツクシガオカ2ジョウ","prefecture_code":1},"0813":{"zip_code":"0040813","prefecture":"北海道","prefecture_kana":"ホッカイドウ","city":"札幌市清田区","city_kana":"サッポロシキヨタク","town":"美しが丘三条","town_kana":"ウツクシガオカ3ジョウ","prefecture_code":1},"0814":{"zip_code":"0040814","prefecture":"北海道","prefecture_kana":"ホッカイドウ","city":"札幌市清田区","city_kana":"サッポロシキヨタク","town":"美しが丘四条","town_kana":"ウツクシガオカ4ジョウ","prefecture_code":1},"0815":{"zip_code":"0040815","prefecture":"北海道","prefecture_kana":"ホッカイドウ","city":"札幌市清田区","city_kana":"サッポロシキヨタク","town":"美しが丘五条","town_kana":"ウツクシガオカ5ジョウ","prefecture_code":1},"0861":{"zip_code":"0040861","prefecture":"北海道","prefecture_kana":"ホッカイドウ","city":"札幌市清田区","city_kana":"サッポロシキヨタク","town":"北野一条","town_kana":"キタノ1ジョウ","prefecture_code":1},"0862":{"zip_code":"0040862","prefecture":"北海道","prefecture_kana":"ホッカイドウ","city":"札幌市清田区","city_kana":"サッポロシキヨタク","town":"北野二条","town_kana":"キタノ2ジョウ","prefecture_code":1},"0863":{"zip_code":"0040863","prefecture":"北海道","prefecture_kana":"ホッカイドウ","city":"札幌市清田区","city_kana":"サッポロシキヨタク","town":"北野三条","town_kana":"キタノ3ジョウ","prefecture_code":1},"0864":{"zip_code":"0040864","prefecture":"北海道","prefecture_kana":"ホッカイドウ","city":"札幌市清田区","city_kana":"サッポロシキヨタク","town":"北野四条","town_kana":"キタノ4ジョウ","prefecture_code":1},"0865":{"zip_code":"0040865","prefecture":"北海道","prefecture_kana":"ホッカイドウ","city":"札幌市清田区","city_kana":"サッポロシキヨタク","town":"北野五条","town_kana":"キタノ5ジョウ","prefecture_code":1},"0866":{"zip_code":"0040866","prefecture":"北海道","prefecture_kana":"ホッカイドウ","city":"札幌市清田区","city_kana":"サッポロシキヨタク","town":"北野六条","town_kana":"キタノ6ジョウ","prefecture_code":1},"0867":{"zip_code":"0040867","prefecture":"北海道","prefecture_kana":"ホッカイドウ","city":"札幌市清田区","city_kana":"サッポロシキヨタク","town":"北野七条","town_kana":"キタノ7ジョウ","prefecture_code":1},"0859":{"zip_code":"0040859","prefecture":"北海道","prefecture_kana":"ホッカイドウ","city":"札幌市清田区","city_kana":"サッポロシキヨタク","town":"清田","town_kana":"キヨタ","prefecture_code":1},"0841":{"zip_code":"0040841","prefecture":"北海道","prefecture_kana":"ホッカイドウ","city":"札幌市清田区","city_kana":"サッポロシキヨタク","town":"清田一条","town_kana":"キヨタ1ジョウ","prefecture_code":1},"0842":{"zip_code":"0040842","prefecture":"北海道","prefecture_kana":"ホッカイドウ","city":"札幌市清田区","city_kana":"サッポロシキヨタク","town":"清田二条","town_kana":"キヨタ2ジョウ","prefecture_code":1},"0843":{"zip_code":"0040843","prefecture":"北海道","prefecture_kana":"ホッカイドウ","city":"札幌市清田区","city_kana":"サッポロシキヨタク","town":"清田三条","town_kana":"キヨタ3ジョウ","prefecture_code":1},"0844":{"zip_code":"0040844","prefecture":"北海道","prefecture_kana":"ホッカイドウ","city":"札幌市清田区","city_kana":"サッポロシキヨタク","town":"清田四条","town_kana":"キヨタ4ジョウ","prefecture_code":1},"0845":{"zip_code":"0040845","prefecture":"北海道","prefecture_kana":"ホッカイドウ","city":"札幌市清田区","city_kana":"サッポロシキヨタク","town":"清田五条","town_kana":"キヨタ5ジョウ","prefecture_code":1},"0846":{"zip_code":"0040846","prefecture":"北海道","prefecture_kana":"ホッカイドウ","city":"札幌市清田区","city_kana":"サッポロシキヨタク","town":"清田六条","town_kana":"キヨタ6ジョウ","prefecture_code":1},"0847":{"zip_code":"0040847","prefecture":"北海道","prefecture_kana":"ホッカイドウ","city":"札幌市清田区","city_kana":"サッポロシキヨタク","town":"清田七条","town_kana":"キヨタ7ジョウ","prefecture_code":1},"0848":{"zip_code":"0040848","prefecture":"北海道","prefecture_kana":"ホッカイドウ","city":"札幌市清田区","city_kana":"サッポロシキヨタク","town":"清田八条","town_kana":"キヨタ8ジョウ","prefecture_code":1},"0849":{"zip_code":"0040849","prefecture":"北海道","prefecture_kana":"ホッカイドウ","city":"札幌市清田区","city_kana":"サッポロシキヨタク","town":"清田九条","town_kana":"キヨタ9ジョウ","prefecture_code":1},"0840":{"zip_code":"0040840","prefecture":"北海道","prefecture_kana":"ホッカイドウ","city":"札幌市清田区","city_kana":"サッポロシキヨタク","town":"清田十条","town_kana":"キヨタ10ジョウ","prefecture_code":1},"0809":{"zip_code":"0040809","prefecture":"北海道","prefecture_kana":"ホッカイドウ","city":"札幌市清田区","city_kana":"サッポロシキヨタク","town":"里塚","town_kana":"サトヅカ","prefecture_code":1},"0801":{"zip_code":"0040801","prefecture":"北海道","prefecture_kana":"ホッカイドウ","city":"札幌市清田区","city_kana":"サッポロシキヨタク","town":"里塚一条","town_kana":"サトヅカ1ジョウ","prefecture_code":1},"0802":{"zip_code":"0040802","prefecture":"北海道","prefecture_kana":"ホッカイドウ","city":"札幌市清田区","city_kana":"サッポロシキヨタク","town":"里塚二条","town_kana":"サトヅカ2ジョウ","prefecture_code":1},"0803":{"zip_code":"0040803","prefecture":"北海道","prefecture_kana":"ホッカイドウ","city":"札幌市清田区","city_kana":"サッポロシキヨタク","town":"里塚三条","town_kana":"サトヅカ3ジョウ","prefecture_code":1},"0804":{"zip_code":"0040804","prefecture":"北海道","prefecture_kana":"ホッカイドウ","city":"札幌市清田区","city_kana":"サッポロシキヨタク","town":"里塚四条","town_kana":"サトヅカ4ジョウ","prefecture_code":1},"0805":{"zip_code":"0040805","prefecture":"北海道","prefecture_kana":"ホッカイドウ","city":"札幌市清田区","city_kana":"サッポロシキヨタク","town":"里塚緑ケ丘","town_kana":"サトヅカミドリガオカ","prefecture_code":1},"0839":{"zip_code":"0040839","prefecture":"北海道","prefecture_kana":"ホッカイドウ","city":"札幌市清田区","city_kana":"サッポロシキヨタク","town":"真栄","town_kana":"シンエイ","prefecture_code":1},"0831":{"zip_code":"0040831","prefecture":"北海道","prefecture_kana":"ホッカイドウ","city":"札幌市清田区","city_kana":"サッポロシキヨタク","town":"真栄一条","town_kana":"シンエイ1ジョウ","prefecture_code":1},"0832":{"zip_code":"0040832","prefecture":"北海道","prefecture_kana":"ホッカイドウ","city":"札幌市清田区","city_kana":"サッポロシキヨタク","town":"真栄二条","town_kana":"シンエイ2ジョウ","prefecture_code":1},"0833":{"zip_code":"0040833","prefecture":"北海道","prefecture_kana":"ホッカイドウ","city":"札幌市清田区","city_kana":"サッポロシキヨタク","town":"真栄三条","town_kana":"シンエイ3ジョウ","prefecture_code":1},"0834":{"zip_code":"0040834","prefecture":"北海道","prefecture_kana":"ホッカイドウ","city":"札幌市清田区","city_kana":"サッポロシキヨタク","town":"真栄四条","town_kana":"シンエイ4ジョウ","prefecture_code":1},"0835":{"zip_code":"0040835","prefecture":"北海道","prefecture_kana":"ホッカイドウ","city":"札幌市清田区","city_kana":"サッポロシキヨタク","town":"真栄五条","town_kana":"シンエイ5ジョウ","prefecture_code":1},"0836":{"zip_code":"0040836","prefecture":"北海道","prefecture_kana":"ホッカイドウ","city":"札幌市清田区","city_kana":"サッポロシキヨタク","town":"真栄六条","town_kana":"シンエイ6ジョウ","prefecture_code":1},"0889":{"zip_code":"0040889","prefecture":"北海道","prefecture_kana":"ホッカイドウ","city":"札幌市清田区","city_kana":"サッポロシキヨタク","town":"平岡","town_kana":"ヒラオカ","prefecture_code":1},"0871":{"zip_code":"0040871","prefecture":"北海道","prefecture_kana":"ホッカイドウ","city":"札幌市清田区","city_kana":"サッポロシキヨタク","town":"平岡一条","town_kana":"ヒラオカ1ジョウ","prefecture_code":1},"0872":{"zip_code":"0040872","prefecture":"北海道","prefecture_kana":"ホッカイドウ","city":"札幌市清田区","city_kana":"サッポロシキヨタク","town":"平岡二条","town_kana":"ヒラオカ2ジョウ","prefecture_code":1},"0873":{"zip_code":"0040873","prefecture":"北海道","prefecture_kana":"ホッカイドウ","city":"札幌市清田区","city_kana":"サッポロシキヨタク","town":"平岡三条","town_kana":"ヒラオカ3ジョウ","prefecture_code":1},"0874":{"zip_code":"0040874","prefecture":"北海道","prefecture_kana":"ホッカイドウ","city":"札幌市清田区","city_kana":"サッポロシキヨタク","town":"平岡四条","town_kana":"ヒラオカ4ジョウ","prefecture_code":1},"0875":{"zip_code":"0040875","prefecture":"北海道","prefecture_kana":"ホッカイドウ","city":"札幌市清田区","city_kana":"サッポロシキヨタク","town":"平岡五条","town_kana":"ヒラオカ5ジョウ","prefecture_code":1},"0876":{"zip_code":"0040876","prefecture":"北海道","prefecture_kana":"ホッカイドウ","city":"札幌市清田区","city_kana":"サッポロシキヨタク","town":"平岡六条","town_kana":"ヒラオカ6ジョウ","prefecture_code":1},"0877":{"zip_code":"0040877","prefecture":"北海道","prefecture_kana":"ホッカイドウ","city":"札幌市清田区","city_kana":"サッポロシキヨタク","town":"平岡七条","town_kana":"ヒラオカ7ジョウ","prefecture_code":1},"0878":{"zip_code":"0040878","prefecture":"北海道","prefecture_kana":"ホッカイドウ","city":"札幌市清田区","city_kana":"サッポロシキヨタク","town":"平岡八条","town_kana":"ヒラオカ8ジョウ","prefecture_code":1},"0879":{"zip_code":"0040879","prefecture":"北海道","prefecture_kana":"ホッカイドウ","city":"札幌市清田区","city_kana":"サッポロシキヨタク","town":"平岡九条","town_kana":"ヒラオカ9ジョウ","prefecture_code":1},"0880":{"zip_code":"0040880","prefecture":"北海道","prefecture_kana":"ホッカイドウ","city":"札幌市清田区","city_kana":"サッポロシキヨタク","town":"平岡十条","town_kana":"ヒラオカ10ジョウ","prefecture_code":1},"0881":{"zip_code":"0040881","prefecture":"北海道","prefecture_kana":"ホッカイドウ","city":"札幌市清田区","city_kana":"サッポロシキヨタク","town":"平岡公園","town_kana":"ヒラオカコウエン","prefecture_code":1},"0882":{"zip_code":"0040882","prefecture":"北海道","prefecture_kana":"ホッカイドウ","city":"札幌市清田区","city_kana":"サッポロシキヨタク","town":"平岡公園東","town_kana":"ヒラオカコウエンヒガシ","prefecture_code":1}}