{"0000":{"zip_code":"0050000","prefecture":"北海道","prefecture_kana":"ホッカイドウ","city":"札幌市南区","city_kana":"サッポロシミナミク","town":"","town_kana":"","prefecture_code":1},"0849":{"zip_code":"0050849","prefecture":"北海道","prefecture_kana":"ホッカイドウ","city":"札幌市南区","city_kana":"サッポロシミナミク","town":"石山","town_kana":"イシヤマ","prefecture_code":1},"0850":{"zip_code":"0050850","prefecture":"北海道","prefecture_kana":"ホッカイドウ","city":"札幌市南区","city_kana":"サッポロシミナミク","town":"石山東","town_kana":"イシヤマヒガシ","prefecture_code":1},"0841":{"zip_code":"0050841","prefecture":"北海道","prefecture_kana":"ホッカイドウ","city":"札幌市南区","city_kana":"サッポロシミナミク","town":"石山一条","town_kana":"イシヤマ1ジョウ","prefecture_code":1},"0842":{"zip_code":"0050842","prefecture":"北海道","prefecture_kana":"ホッカイドウ","city":"札幌市南区","city_kana":"サッポロシミナミク","town":"石山二条","town_kana":"イシヤマ2ジョウ","prefecture_code":1},"0843":{"zip_code":"0050843","prefecture":"北海道","prefecture_kana":"ホッカイドウ","city":"札幌市南区","city_kana":"サッポロシミナミク","town":"石山三条","town_kana":"イシヤマ3ジョウ","prefecture_code":1},"0844":{"zip_code":"0050844","prefecture":"北海道","prefecture_kana":"ホッカイドウ","city":"札幌市南区","city_kana":"サッポロシミナミク","town":"石山四条","town_kana":"イシヤマ4ジョウ","prefecture_code":1},"0801":{"zip_code":"0050801","prefecture":"北海道","prefecture_kana":"ホッカイドウ","city":"札幌市南区","city_kana":"サッポロシミナミク","town":"川沿一条","town_kana":"カワゾエ1ジョウ","prefecture_code":1},"0802":{"zip_code":"0050802","prefecture":"北海道","prefecture_kana":"ホッカイドウ","city":"札幌市南区","city_kana":"サッポロシミナミク","town":"川沿二条","town_kana":"カワゾエ2ジョウ","prefecture_code":1},"0803":{"zip_code":"0050803","prefecture":"北海道","prefecture_kana":"ホッカイドウ","city":"札幌市南区","city_kana":"サッポロシミナミク","town":"川沿三条","town_kana":"カワゾエ3ジョウ","prefecture_code":1},"0804":{"zip_code":"0050804","prefecture":"北海道","prefecture_kana":"ホッカイドウ","city":"札幌市南区","city_kana":"サッポロシミナミク","town":"川沿四条","town_kana":"カワゾエ4ジョウ","prefecture_code":1},"0805":{"zip_code":"0050805","prefecture":"北海道","prefecture_kana":"ホッカイドウ","city":"札幌市南区","city_kana":"サッポロシミナミク","town":"川沿五条","town_kana":"カワゾエ5ジョウ","prefecture_code":1},"0806":{"zip_code":"0050806","prefecture":"北海道","prefecture_kana":"ホッカイドウ","city":"札幌市南区","city_kana":"サッポロシミナミク","town":"川沿六条","town_kana":"カワゾエ6ジョウ","prefecture_code":1},"0807":{"zip_code":"0050807","prefecture":"北海道","prefecture_kana":"ホッカイドウ","city":"札幌市南区","city_kana":"サッポロシミナミク","town":"川沿七条","town_kana":"カワゾエ7ジョウ","prefecture_code":1},"0808":{"zip_code":"0050808","prefecture":"北海道","prefecture_kana":"ホッカイドウ","city":"札幌市南区","city_kana":"サッポロシミナミク","town":"川沿八条","town_kana":"カワゾエ8ジョウ","prefecture_code":1},"0809":{"zip_code":"0050809","prefecture":"北海道","prefecture_kana":"ホッカイドウ","city":"札幌市南区","city_kana":"サッポロシミナミク","town":"川沿九条","town_kana":"カワゾエ9ジョウ","prefecture_code":1},"0810":{"zip_code":"0050810","prefecture":"北海道","prefecture_kana":"ホッカイドウ","city":"札幌市南区","city_kana":"サッポロシミナミク","town":"川沿十条","town_kana":"カワゾエ10ジョウ","prefecture_code":1},"0811":{"zip_code":"0050811","prefecture":"北海道","prefecture_kana":"ホッカイドウ","city":"札幌市南区","city_kana":"サッポロシミナミク","town":"川沿十一条","town_kana":"カワゾエ11ジョウ","prefecture_code":1},"0812":{"zip_code":"0050812","prefecture":"北海道","prefecture_kana":"ホッカイドウ","city":"札幌市南区","city_kana":"サッポロシミナミク","town":"川沿十二条","town_kana":"カワゾエ12ジョウ","prefecture_code":1},"0813":{"zip_code":"0050813","prefecture":"北海道","prefecture_kana":"ホッカイドウ","city":"札幌市南区","city_kana":"サッポロシミナミク","town":"川沿十三条","town_kana":"カワゾエ13ジョウ","prefecture_code":1},"0814":{"zip_code":"0050814","prefecture":"北海道","prefecture_kana":"ホッカイドウ","city":"札幌市南区","city_kana":"サッポロシミナミク","town":"川沿十四条","town_kana":"カワゾエ14ジョウ","prefecture_code":1},"0815":{"zip_code":"0050815","prefecture":"北海道","prefecture_kana":"ホッカイドウ","city":"札幌市南区","city_kana":"サッポロシミナミク","town":"川沿十五条","town_kana":"カワゾエ15ジョウ","prefecture_code":1},"0816":{"zip_code":"0050816","prefecture":"北海道","prefecture_kana":"ホッカイドウ","city":"札幌市南区","city_kana":"サッポロシミナミク","town":"川沿十六条","town_kana":"カワゾエ16ジョウ","prefecture_code":1},"0817":{"zip_code":"0050817","prefecture":"北海道","prefecture_kana":"ホッカイドウ","city":"札幌市南区","city_kana":"サッポロシミナミク","town":"川沿十七条","town_kana":"カワゾエ17ジョウ","prefecture_code":1},"0818":{"zip_code":"0050818","prefecture":"北海道","prefecture_kana":"ホッカイドウ","city":"札幌市南区","city_kana":"サッポロシミナミク","town":"川沿十八条","town_kana":"カワゾエ18ジョウ","prefecture_code":1},"0832":{"zip_code":"0050832","prefecture":"北海道","prefecture_kana":"ホッカイドウ","city":"札幌市南区","city_kana":"サッポロシミナミク","town":"北ノ沢","town_kana":"キタノサワ","prefecture_code":1},"0864":{"zip_code":"0050864","prefecture":"北海道","prefecture_kana":"ホッカイドウ","city":"札幌市南区","city_kana":"サッポロシミナミク","town":"芸術の森","town_kana":"ゲイジュツノモリ","prefecture_code":1},"0007":{"zip_code":"0050007","prefecture":"北海道","prefecture_kana":"ホッカイドウ","city":"札幌市南区","city_kana":"サッポロシミナミク","town":"澄川","town_kana":"スミカワ","prefecture_code":1},"0001":{"zip_code":"0050001","prefecture":"北海道","prefecture_kana":"ホッカイドウ","city":"札幌市南区","city_kana":"サッポロシミナミク","town":"澄川一条","town_kana":"スミカワ1ジョウ","prefecture_code":1},"0002":{"zip_code":"0050002","prefecture":"北海道","prefecture_kana":"ホッカイドウ","city":"札幌市南区","city_kana":"サッポロシミナミク","town":"澄川二条","town_kana":"スミカワ2ジョウ","prefecture_code":1},"0003":{"zip_code":"0050003","prefecture":"北海道","prefecture_kana":"ホッカイドウ","city":"札幌市南区","city_kana":"サッポロシミナミク","town":"澄川三条","town_kana":"スミカワ3ジョウ","prefecture_code":1},"0004":{"zip_code":"0050004","prefecture":"北海道","prefecture_kana":"ホッカイドウ","city":"札幌市南区","city_kana":"サッポロシミナミク","town":"澄川四条","town_kana":"スミカワ4ジョウ","prefecture_code":1},"0005":{"zip_code":"0050005","prefecture":"北海道","prefecture_kana":"ホッカイドウ","city":"札幌市南区","city_kana":"サッポロシミナミク","town":"澄川五条","town_kana":"スミカワ5ジョウ","prefecture_code":1},"0006":{"zip_code":"0050006","prefecture":"北海道","prefecture_kana":"ホッカイドウ","city":"札幌市南区","city_kana":"サッポロシミナミク","town":"澄川六条","town_kana":"スミカワ6ジョウ","prefecture_code":1},"0862":{"zip_code":"0050862","prefecture":"北海道","prefecture_kana":"ホッカイドウ","city":"札幌市南区","city_kana":"サッポロシミナミク","town":"滝野","town_kana":"タキノ","prefecture_code":1},"0830":{"zip_code":"0050830","prefecture":"北海道","prefecture_kana":"ホッカイドウ","city":"札幌市南区","city_kana":"サッポロシミナミク","town":"砥石山","town_kana":"トイシヤマ","prefecture_code":1},"0865":{"zip_code":"0050865","prefecture":"北海道","prefecture_kana":"ホッカイドウ","city":"札幌市南区","city_kana":"サッポロシミナミク","town":"常盤","town_kana":"トキワ","prefecture_code":1},"0863":{"zip_code":"0050863","prefecture":"北海道","prefecture_kana":"ホッカイドウ","city":"札幌市南区","city_kana":"サッポロシミナミク","town":"常盤","town_kana":"トキワ","prefecture_code":1},"0851":{"zip_code":"0050851","prefecture":"北海道","prefecture_kana":"ホッカイドウ","city":"札幌市南区","city_kana":"サッポロシミナミク","town":"常盤一条","town_kana":"トキワ1ジョウ","prefecture_code":1},"0852":{"zip_code":"0050852","prefecture":"北海道","prefecture_kana":"ホッカイドウ","city":"札幌市南区","city_kana":"サッポロシミナミク","town":"常盤二条","town_kana":"トキワ2ジョウ","prefecture_code":1},"0853":{"zip_code":"0050853","prefecture":"北海道","prefecture_kana":"ホッカイドウ","city":"札幌市南区","city_kana":"サッポロシミナミク","town":"常盤三条","town_kana":"トキワ3ジョウ","prefecture_code":1},"0854":{"zip_code":"0050854","prefecture":"北海道","prefecture_kana":"ホッカイドウ","city":"札幌市南区","city_kana":"サッポロシミナミク","town":"常盤四条","town_kana":"トキワ4ジョウ","prefecture_code":1},"0855":{"zip_code":"0050855","prefecture":"北海道","prefecture_kana":"ホッカイドウ","city":"札幌市南区","city_kana":"サッポロシミナミク","town":"常盤五条","town_kana":"トキワ5ジョウ","prefecture_code":1},"0856":{"zip_code":"0050856","prefecture":"北海道","prefecture_kana":"ホッカイドウ","city":"札幌市南区","city_kana":"サッポロシミナミク","town":"常盤六条","town_kana":"トキワ6ジョウ","prefecture_code":1},"0831":{"zip_code":"0050831","prefecture":"北海道","prefecture_kana":"ホッカイドウ","city":"札幌市南区","city_kana":"サッポロシミナミク","town":"中ノ沢","town_kana":"ナカノサワ","prefecture_code":1},"0840":{"zip_code":"0050840","prefecture":"北海道","prefecture_kana":"ホッカイドウ","city":"札幌市南区","city_kana":"サッポロシミナミク","town":"藤野","town_kana":"フジノ","prefecture_code":1},"0008":{"zip_code":"0050008","prefecture":"北海道","prefecture_kana":"ホッカイドウ","city":"札幌市南区","city_kana":"サッポロシミナミク","town":"真駒内","town_kana":"マコマナイ","prefecture_code":1},"0861":{"zip_code":"0050861","prefecture":"北海道","prefecture_kana":"ホッカイドウ","city":"札幌市南区","city_kana":"サッポロシミナミク","town":"真駒内","town_kana":"マコマナイ","prefecture_code":1},"0018":{"zip_code":"0050018","prefecture":"北海道","prefecture_kana":"ホッカイドウ","city":"札幌市南区","city_kana":"サッポロシミナミク","town":"真駒内曙町","town_kana":"マコマナイアケボノチョウ","prefecture_code":1},"0015":{"zip_code":"0050015","prefecture":"北海道","prefecture_kana":"ホッカイドウ","city":"札幌市南区","city_kana":"サッポロシミナミク","town":"真駒内泉町","town_kana":"マコマナイイズミマチ","prefecture_code":1},"0022":{"zip_code":"0050022","prefecture":"北海道","prefecture_kana":"ホッカイドウ","city":"札幌市南区","city_kana":"サッポロシミナミク","town":"真駒内柏丘","town_kana":"マコマナイカシワオカ","prefecture_code":1},"0012":{"zip_code":"0050012","prefecture":"北海道","prefecture_kana":"ホッカイドウ","city":"札幌市南区","city_kana":"サッポロシミナミク","town":"真駒内上町","town_kana":"マコマナイカミマチ","prefecture_code":1},"0014":{"zip_code":"0050014","prefecture":"北海道","prefecture_kana":"ホッカイドウ","city":"札幌市南区","city_kana":"サッポロシミナミク","town":"真駒内幸町","town_kana":"マコマナイサイワイマチ","prefecture_code":1},"0011":{"zip_code":"0050011","prefecture":"北海道","prefecture_kana":"ホッカイドウ","city":"札幌市南区","city_kana":"サッポロシミナミク","town":"真駒内東町","town_kana":"マコマナイヒガシマチ","prefecture_code":1},"0021":{"zip_code":"0050021","prefecture":"北海道","prefecture_kana":"ホッカイドウ","city":"札幌市南区","city_kana":"サッポロシミナミク","town":"真駒内本町","town_kana":"マコマナイホンチョウ","prefecture_code":1},"0013":{"zip_code":"0050013","prefecture":"北海道","prefecture_kana":"ホッカイドウ","city":"札幌市南区","city_kana":"サッポロシミナミク","town":"真駒内緑町","town_kana":"マコマナイミドリマチ","prefecture_code":1},"0016":{"zip_code":"0050016","prefecture":"北海道","prefecture_kana":"ホッカイドウ","city":"札幌市南区","city_kana":"サッポロシミナミク","town":"真駒内南町","town_kana":"マコマナイミナミマチ","prefecture_code":1},"0017":{"zip_code":"0050017","prefecture":"北海道","prefecture_kana":"ホッカイドウ","city":"札幌市南区","city_kana":"サッポロシミナミク","town":"真駒内公園","town_kana":"マコマナイコウエン","prefecture_code":1},"0827":{"zip_code":"0050827","prefecture":"北海道","prefecture_kana":"ホッカイドウ","city":"札幌市南区","city_kana":"サッポロシミナミク","town":"南沢","town_kana":"ミナミサワ","prefecture_code":1},"0821":{"zip_code":"0050821","prefecture":"北海道","prefecture_kana":"ホッカイドウ","city":"札幌市南区","city_kana":"サッポロシミナミク","town":"南沢一条","town_kana":"ミナミサワ1ジョウ","prefecture_code":1},"0822":{"zip_code":"0050822","prefecture":"北海道","prefecture_kana":"ホッカイドウ","city":"札幌市南区","city_kana":"サッポロシミナミク","town":"南沢二条","town_kana":"ミナミサワ2ジョウ","prefecture_code":1},"0823":{"zip_code":"0050823","prefecture":"北海道","prefecture_kana":"ホッカイドウ","city":"札幌市南区","city_kana":"サッポロシミナミク","town":"南沢三条","town_kana":"ミナミサワ3ジョウ","prefecture_code":1},"0824":{"zip_code":"0050824","prefecture":"北海道","prefecture_kana":"ホッカイドウ","city":"札幌市南区","city_kana":"サッポロシミナミク","town":"南沢四条","town_kana":"ミナミサワ4ジョウ","prefecture_code":1},"0825":{"zip_code":"0050825","prefecture":"北海道","prefecture_kana":"ホッカイドウ","city":"札幌市南区","city_kana":"サッポロシミナミク","town":"南沢五条","town_kana":"ミナミサワ5ジョウ","prefecture_code":1},"0826":{"zip_code":"0050826","prefecture":"北海道","prefecture_kana":"ホッカイドウ","city":"札幌市南区","city_kana":"サッポロシミナミク","town":"南沢六条","town_kana":"ミナミサワ6ジョウ","prefecture_code":1},"0030":{"zip_code":"0050030","prefecture":"北海道","prefecture_kana":"ホッカイドウ","city":"札幌市南区","city_kana":"サッポロシミナミク","town":"南三十条西","town_kana":"ミナミ30ジョウニシ","prefecture_code":1},"0031":{"zip_code":"0050031","prefecture":"北海道","prefecture_kana":"ホッカイドウ","city":"札幌市南区","city_kana":"サッポロシミナミク","town":"南三十一条西","town_kana":"ミナミ31ジョウニシ","prefecture_code":1},"0032":{"zip_code":"0050032","prefecture":"北海道","prefecture_kana":"ホッカイドウ","city":"札幌市南区","city_kana":"サッポロシミナミク","town":"南三十二条西","town_kana":"ミナミ32ジョウニシ","prefecture_code":1},"0033":{"zip_code":"0050033","prefecture":"北海道","prefecture_kana":"ホッカイドウ","city":"札幌市南区","city_kana":"サッポロシミナミク","town":"南三十三条西","town_kana":"ミナミ33ジョウニシ","prefecture_code":1},"0034":{"zip_code":"0050034","prefecture":"北海道","prefecture_kana":"ホッカイドウ","city":"札幌市南区","city_kana":"サッポロシミナミク","town":"南三十四条西","town_kana":"ミナミ34ジョウニシ","prefecture_code":1},"0035":{"zip_code":"0050035","prefecture":"北海道","prefecture_kana":"ホッカイドウ","city":"札幌市南区","city_kana":"サッポロシミナミク","town":"南三十五条西","town_kana":"ミナミ35ジョウニシ","prefecture_code":1},"0036":{"zip_code":"0050036","prefecture":"北海道","prefecture_kana":"ホッカイドウ","city":"札幌市南区","city_kana":"サッポロシミナミク","town":"南三十六条西","town_kana":"ミナミ36ジョウニシ","prefecture_code":1},"0037":{"zip_code":"0050037","prefecture":"北海道","prefecture_kana":"ホッカイドウ","city":"札幌市南区","city_kana":"サッポロシミナミク","town":"南三十七条西","town_kana":"ミナミ37ジョウニシ","prefecture_code":1},"0038":{"zip_code":"0050038","prefecture":"北海道","prefecture_kana":"ホッカイドウ","city":"札幌市南区","city_kana":"サッポロシミナミク","town":"南三十八条西","town_kana":"ミナミ38ジョウニシ","prefecture_code":1},"0039":{"zip_code":"0050039","prefecture":"北海道","prefecture_kana":"ホッカイドウ","city":"札幌市南区","city_kana":"サッポロシミナミク","town":"南三十九条西","town_kana":"ミナミ39ジョウニシ","prefecture_code":1},"0040":{"zip_code":"0050040","prefecture":"北海道","prefecture_kana":"ホッカイドウ","city":"札幌市南区","city_kana":"サッポロシミナミク","town":"藻岩下","town_kana":"モイワシタ","prefecture_code":1},"0041":{"zip_code":"0050041","prefecture":"北海道","prefecture_kana":"ホッカイドウ","city":"札幌市南区","city_kana":"サッポロシミナミク","town":"藻岩山","town_kana":"モイワヤマ","prefecture_code":1}}