{"0000":{"zip_code":"0100000","prefecture":"秋田県","prefecture_kana":"アキタケン","city":"秋田市","city_kana":"アキタシ","town":"以下に掲載がない場合","town_kana":"イカニケイサイガナイバアイ","prefecture_code":5},"0831":{"zip_code":"0100831","prefecture":"秋田県","prefecture_kana":"アキタケン","city":"秋田市","city_kana":"アキタシ","town":"旭川清澄町","town_kana":"アサヒカワキヨスミマチ","prefecture_code":5},"0833":{"zip_code":"0100833","prefecture":"秋田県","prefecture_kana":"アキタケン","city":"秋田市","city_kana":"アキタシ","town":"旭川新藤田東町","town_kana":"アサヒカワシントウダヒガシマチ","prefecture_code":5},"0832":{"zip_code":"0100832","prefecture":"秋田県","prefecture_kana":"アキタケン","city":"秋田市","city_kana":"アキタシ","town":"旭川新藤田西町","town_kana":"アサヒカワシントウダニシマチ","prefecture_code":5},"0834":{"zip_code":"0100834","prefecture":"秋田県","prefecture_kana":"アキタケン","city":"秋田市","city_kana":"アキタシ","town":"旭川南町","town_kana":"アサヒカワミナミマチ","prefecture_code":5},"1613":{"zip_code":"0101613","prefecture":"秋田県","prefecture_kana":"アキタケン","city":"秋田市","city_kana":"アキタシ","town":"新屋朝日町","town_kana":"アラヤアサヒマチ","prefecture_code":5},"1632":{"zip_code":"0101632","prefecture":"秋田県","prefecture_kana":"アキタケン","city":"秋田市","city_kana":"アキタシ","town":"新屋大川町","town_kana":"アラヤオオカワマチ","prefecture_code":5},"1637":{"zip_code":"0101637","prefecture":"秋田県","prefecture_kana":"アキタケン","city":"秋田市","city_kana":"アキタシ","town":"新屋扇町","town_kana":"アラヤオオギマチ","prefecture_code":5},"1634":{"zip_code":"0101634","prefecture":"秋田県","prefecture_kana":"アキタケン","city":"秋田市","city_kana":"アキタシ","town":"新屋沖田町","town_kana":"アラヤオキタマチ","prefecture_code":5},"1638":{"zip_code":"0101638","prefecture":"秋田県","prefecture_kana":"アキタケン","city":"秋田市","city_kana":"アキタシ","town":"新屋表町","town_kana":"アラヤオモテマチ","prefecture_code":5},"1603":{"zip_code":"0101603","prefecture":"秋田県","prefecture_kana":"アキタケン","city":"秋田市","city_kana":"アキタシ","town":"新屋勝平台","town_kana":"アラヤカツヒラダイ","prefecture_code":5},"1605":{"zip_code":"0101605","prefecture":"秋田県","prefecture_kana":"アキタケン","city":"秋田市","city_kana":"アキタシ","town":"新屋勝平町","town_kana":"アラヤカツヒラマチ","prefecture_code":5},"1608":{"zip_code":"0101608","prefecture":"秋田県","prefecture_kana":"アキタケン","city":"秋田市","city_kana":"アキタシ","town":"新屋北浜町","town_kana":"アラヤキタハマチョウ","prefecture_code":5},"1621":{"zip_code":"0101621","prefecture":"秋田県","prefecture_kana":"アキタケン","city":"秋田市","city_kana":"アキタシ","town":"新屋栗田町","town_kana":"アラヤクリタマチ","prefecture_code":5},"1606":{"zip_code":"0101606","prefecture":"秋田県","prefecture_kana":"アキタケン","city":"秋田市","city_kana":"アキタシ","town":"新屋寿町","town_kana":"アラヤコトブキマチ","prefecture_code":5},"1602":{"zip_code":"0101602","prefecture":"秋田県","prefecture_kana":"アキタケン","city":"秋田市","city_kana":"アキタシ","town":"新屋下川原町","town_kana":"アラヤシタカワラマチ","prefecture_code":5},"1642":{"zip_code":"0101642","prefecture":"秋田県","prefecture_kana":"アキタケン","city":"秋田市","city_kana":"アキタシ","town":"新屋渋谷町","town_kana":"アラヤシブヤマチ","prefecture_code":5},"1641":{"zip_code":"0101641","prefecture":"秋田県","prefecture_kana":"アキタケン","city":"秋田市","city_kana":"アキタシ","town":"新屋高美町","town_kana":"アラヤタカミマチ","prefecture_code":5},"1644":{"zip_code":"0101644","prefecture":"秋田県","prefecture_kana":"アキタケン","city":"秋田市","city_kana":"アキタシ","town":"新屋田尻沢中町","town_kana":"アラヤタジリザワナカマチ","prefecture_code":5},"1643":{"zip_code":"0101643","prefecture":"秋田県","prefecture_kana":"アキタケン","city":"秋田市","city_kana":"アキタシ","town":"新屋田尻沢東町","town_kana":"アラヤタジリザワヒガシマチ","prefecture_code":5},"1645":{"zip_code":"0101645","prefecture":"秋田県","prefecture_kana":"アキタケン","city":"秋田市","city_kana":"アキタシ","town":"新屋田尻沢西町","town_kana":"アラヤタジリザワニシマチ","prefecture_code":5},"1611":{"zip_code":"0101611","prefecture":"秋田県","prefecture_kana":"アキタケン","city":"秋田市","city_kana":"アキタシ","town":"新屋天秤野","town_kana":"アラヤテンビンノ","prefecture_code":5},"1633":{"zip_code":"0101633","prefecture":"秋田県","prefecture_kana":"アキタケン","city":"秋田市","city_kana":"アキタシ","town":"新屋鳥木町","town_kana":"アラヤトリキマチ","prefecture_code":5},"1636":{"zip_code":"0101636","prefecture":"秋田県","prefecture_kana":"アキタケン","city":"秋田市","city_kana":"アキタシ","town":"新屋比内町","town_kana":"アラヤヒナイマチ","prefecture_code":5},"1622":{"zip_code":"0101622","prefecture":"秋田県","prefecture_kana":"アキタケン","city":"秋田市","city_kana":"アキタシ","town":"新屋日吉町","town_kana":"アラヤヒヨシマチ","prefecture_code":5},"1615":{"zip_code":"0101615","prefecture":"秋田県","prefecture_kana":"アキタケン","city":"秋田市","city_kana":"アキタシ","town":"新屋船場町","town_kana":"アラヤフナバマチ","prefecture_code":5},"1635":{"zip_code":"0101635","prefecture":"秋田県","prefecture_kana":"アキタケン","city":"秋田市","city_kana":"アキタシ","town":"新屋前野町","town_kana":"アラヤマエノマチ","prefecture_code":5},"1617":{"zip_code":"0101617","prefecture":"秋田県","prefecture_kana":"アキタケン","city":"秋田市","city_kana":"アキタシ","town":"新屋松美ガ丘東町","town_kana":"アラヤマツミガオカヒガシチョウ","prefecture_code":5},"1616":{"zip_code":"0101616","prefecture":"秋田県","prefecture_kana":"アキタケン","city":"秋田市","city_kana":"アキタシ","town":"新屋松美ガ丘南町","town_kana":"アラヤマツミガオカミナミチョウ","prefecture_code":5},"1618":{"zip_code":"0101618","prefecture":"秋田県","prefecture_kana":"アキタケン","city":"秋田市","city_kana":"アキタシ","town":"新屋松美ガ丘北町","town_kana":"アラヤマツミガオカキタチョウ","prefecture_code":5},"1604":{"zip_code":"0101604","prefecture":"秋田県","prefecture_kana":"アキタケン","city":"秋田市","city_kana":"アキタシ","town":"新屋松美町","town_kana":"アラヤマツミマチ","prefecture_code":5},"1607":{"zip_code":"0101607","prefecture":"秋田県","prefecture_kana":"アキタケン","city":"秋田市","city_kana":"アキタシ","town":"新屋南浜町","town_kana":"アラヤミナミハママチ","prefecture_code":5},"1631":{"zip_code":"0101631","prefecture":"秋田県","prefecture_kana":"アキタケン","city":"秋田市","city_kana":"アキタシ","town":"新屋元町","town_kana":"アラヤモトマチ","prefecture_code":5},"1612":{"zip_code":"0101612","prefecture":"秋田県","prefecture_kana":"アキタケン","city":"秋田市","city_kana":"アキタシ","town":"新屋豊町","town_kana":"アラヤユタカマチ","prefecture_code":5},"1614":{"zip_code":"0101614","prefecture":"秋田県","prefecture_kana":"アキタケン","city":"秋田市","city_kana":"アキタシ","town":"新屋割山町","town_kana":"アラヤワリヤママチ","prefecture_code":5},"1623":{"zip_code":"0101623","prefecture":"秋田県","prefecture_kana":"アキタケン","city":"秋田市","city_kana":"アキタシ","town":"新屋町","town_kana":"アラヤマチ","prefecture_code":5},"0816":{"zip_code":"0100816","prefecture":"秋田県","prefecture_kana":"アキタケン","city":"秋田市","city_kana":"アキタシ","town":"泉","town_kana":"イズミ","prefecture_code":5},"0813":{"zip_code":"0100813","prefecture":"秋田県","prefecture_kana":"アキタケン","city":"秋田市","city_kana":"アキタシ","town":"泉一ノ坪","town_kana":"イズミイチノツボ","prefecture_code":5},"0811":{"zip_code":"0100811","prefecture":"秋田県","prefecture_kana":"アキタケン","city":"秋田市","city_kana":"アキタシ","town":"泉釜ノ町","town_kana":"イズミカマノマチ","prefecture_code":5},"0916":{"zip_code":"0100916","prefecture":"秋田県","prefecture_kana":"アキタケン","city":"秋田市","city_kana":"アキタシ","town":"泉北","town_kana":"イズミキタ","prefecture_code":5},"0817":{"zip_code":"0100817","prefecture":"秋田県","prefecture_kana":"アキタケン","city":"秋田市","city_kana":"アキタシ","town":"泉菅野（丁目）","town_kana":"イズミスガノ(チョウメ)","prefecture_code":5},"0917":{"zip_code":"0100917","prefecture":"秋田県","prefecture_kana":"アキタケン","city":"秋田市","city_kana":"アキタシ","town":"泉中央","town_kana":"イズミチュウオウ","prefecture_code":5},"0815":{"zip_code":"0100815","prefecture":"秋田県","prefecture_kana":"アキタケン","city":"秋田市","city_kana":"アキタシ","town":"泉馬場","town_kana":"イズミババ","prefecture_code":5},"0814":{"zip_code":"0100814","prefecture":"秋田県","prefecture_kana":"アキタケン","city":"秋田市","city_kana":"アキタシ","town":"泉東町","town_kana":"イズミヒガシマチ","prefecture_code":5},"0812":{"zip_code":"0100812","prefecture":"秋田県","prefecture_kana":"アキタケン","city":"秋田市","city_kana":"アキタシ","town":"泉三嶽根","town_kana":"イズミミタケネ","prefecture_code":5},"0918":{"zip_code":"0100918","prefecture":"秋田県","prefecture_kana":"アキタケン","city":"秋田市","city_kana":"アキタシ","town":"泉南","town_kana":"イズミミナミ","prefecture_code":5},"0064":{"zip_code":"0100064","prefecture":"秋田県","prefecture_kana":"アキタケン","city":"秋田市","city_kana":"アキタシ","town":"牛島","town_kana":"ウシジマ","prefecture_code":5},"0062":{"zip_code":"0100062","prefecture":"秋田県","prefecture_kana":"アキタケン","city":"秋田市","city_kana":"アキタシ","town":"牛島東","town_kana":"ウシジマヒガシ","prefecture_code":5},"0063":{"zip_code":"0100063","prefecture":"秋田県","prefecture_kana":"アキタケン","city":"秋田市","city_kana":"アキタシ","town":"牛島西","town_kana":"ウシジマニシ","prefecture_code":5},"0066":{"zip_code":"0100066","prefecture":"秋田県","prefecture_kana":"アキタケン","city":"秋田市","city_kana":"アキタシ","town":"牛島南","town_kana":"ウシジマミナミ","prefecture_code":5},"1436":{"zip_code":"0101436","prefecture":"秋田県","prefecture_kana":"アキタケン","city":"秋田市","city_kana":"アキタシ","town":"大住","town_kana":"オオスミ","prefecture_code":5},"0921":{"zip_code":"0100921","prefecture":"秋田県","prefecture_kana":"アキタケン","city":"秋田市","city_kana":"アキタシ","town":"大町","town_kana":"オオマチ","prefecture_code":5},"1428":{"zip_code":"0101428","prefecture":"秋田県","prefecture_kana":"アキタケン","city":"秋田市","city_kana":"アキタシ","town":"大平台","town_kana":"オオヒラダイ","prefecture_code":5},"1424":{"zip_code":"0101424","prefecture":"秋田県","prefecture_kana":"アキタケン","city":"秋田市","city_kana":"アキタシ","town":"御野場","town_kana":"オノバ","prefecture_code":5},"1425":{"zip_code":"0101425","prefecture":"秋田県","prefecture_kana":"アキタケン","city":"秋田市","city_kana":"アキタシ","town":"御野場新町","town_kana":"オノバシンマチ","prefecture_code":5},"0061":{"zip_code":"0100061","prefecture":"秋田県","prefecture_kana":"アキタケン","city":"秋田市","city_kana":"アキタシ","town":"卸町","town_kana":"オロシマチ","prefecture_code":5},"0111":{"zip_code":"0100111","prefecture":"秋田県","prefecture_kana":"アキタケン","city":"秋田市","city_kana":"アキタシ","town":"金足岩瀬","town_kana":"カナアシイワセ","prefecture_code":5},"0113":{"zip_code":"0100113","prefecture":"秋田県","prefecture_kana":"アキタケン","city":"秋田市","city_kana":"アキタシ","town":"金足浦山","town_kana":"カナアシウラヤマ","prefecture_code":5},"0126":{"zip_code":"0100126","prefecture":"秋田県","prefecture_kana":"アキタケン","city":"秋田市","city_kana":"アキタシ","town":"金足追分","town_kana":"カナアシオイワケ","prefecture_code":5},"0115":{"zip_code":"0100115","prefecture":"秋田県","prefecture_kana":"アキタケン","city":"秋田市","city_kana":"アキタシ","town":"金足大清水","town_kana":"カナアシオオシミズ","prefecture_code":5},"0123":{"zip_code":"0100123","prefecture":"秋田県","prefecture_kana":"アキタケン","city":"秋田市","city_kana":"アキタシ","town":"金足片田","town_kana":"カナアシカタダ","prefecture_code":5},"0121":{"zip_code":"0100121","prefecture":"秋田県","prefecture_kana":"アキタケン","city":"秋田市","city_kana":"アキタシ","town":"金足黒川","town_kana":"カナアシクロカワ","prefecture_code":5},"0116":{"zip_code":"0100116","prefecture":"秋田県","prefecture_kana":"アキタケン","city":"秋田市","city_kana":"アキタシ","town":"金足小泉","town_kana":"カナアシコイズミ","prefecture_code":5},"0114":{"zip_code":"0100114","prefecture":"秋田県","prefecture_kana":"アキタケン","city":"秋田市","city_kana":"アキタシ","town":"金足下刈","town_kana":"カナアシシタカリ","prefecture_code":5},"0125":{"zip_code":"0100125","prefecture":"秋田県","prefecture_kana":"アキタケン","city":"秋田市","city_kana":"アキタシ","town":"金足高岡","town_kana":"カナアシタカオカ","prefecture_code":5},"0124":{"zip_code":"0100124","prefecture":"秋田県","prefecture_kana":"アキタケン","city":"秋田市","city_kana":"アキタシ","town":"金足鳰崎","town_kana":"カナアシニオザキ","prefecture_code":5},"0112":{"zip_code":"0100112","prefecture":"秋田県","prefecture_kana":"アキタケン","city":"秋田市","city_kana":"アキタシ","town":"金足堀内","town_kana":"カナアシホリウチ","prefecture_code":5},"0122":{"zip_code":"0100122","prefecture":"秋田県","prefecture_kana":"アキタケン","city":"秋田市","city_kana":"アキタシ","town":"金足吉田","town_kana":"カナアシヨシダ","prefecture_code":5},"1403":{"zip_code":"0101403","prefecture":"秋田県","prefecture_kana":"アキタケン","city":"秋田市","city_kana":"アキタシ","town":"上北手荒巻","town_kana":"カミキタテアラマキ","prefecture_code":5},"1401":{"zip_code":"0101401","prefecture":"秋田県","prefecture_kana":"アキタケン","city":"秋田市","city_kana":"アキタシ","town":"上北手大杉沢","town_kana":"カミキタテオオスギサワ","prefecture_code":5},"1408":{"zip_code":"0101408","prefecture":"秋田県","prefecture_kana":"アキタケン","city":"秋田市","city_kana":"アキタシ","town":"上北手大戸","town_kana":"カミキタテオオド","prefecture_code":5},"1405":{"zip_code":"0101405","prefecture":"秋田県","prefecture_kana":"アキタケン","city":"秋田市","city_kana":"アキタシ","town":"上北手大山田","town_kana":"カミキタテオオヤマダ","prefecture_code":5},"1402":{"zip_code":"0101402","prefecture":"秋田県","prefecture_kana":"アキタケン","city":"秋田市","city_kana":"アキタシ","town":"上北手小山田","town_kana":"カミキタテオヤマダ","prefecture_code":5},"1404":{"zip_code":"0101404","prefecture":"秋田県","prefecture_kana":"アキタケン","city":"秋田市","city_kana":"アキタシ","town":"上北手古野","town_kana":"カミキタテコノ","prefecture_code":5},"1411":{"zip_code":"0101411","prefecture":"秋田県","prefecture_kana":"アキタケン","city":"秋田市","city_kana":"アキタシ","town":"上北手御所野","town_kana":"カミキタテゴショノ","prefecture_code":5},"1406":{"zip_code":"0101406","prefecture":"秋田県","prefecture_kana":"アキタケン","city":"秋田市","city_kana":"アキタシ","town":"上北手猿田","town_kana":"カミキタテサルタ","prefecture_code":5},"1407":{"zip_code":"0101407","prefecture":"秋田県","prefecture_kana":"アキタケン","city":"秋田市","city_kana":"アキタシ","town":"上北手百崎","town_kana":"カミキタテモモザキ","prefecture_code":5},"0137":{"zip_code":"0100137","prefecture":"秋田県","prefecture_kana":"アキタケン","city":"秋田市","city_kana":"アキタシ","town":"上新城石名坂","town_kana":"カミシンジョウイシナザカ","prefecture_code":5},"0132":{"zip_code":"0100132","prefecture":"秋田県","prefecture_kana":"アキタケン","city":"秋田市","city_kana":"アキタシ","town":"上新城小又","town_kana":"カミシンジョウオマタ","prefecture_code":5},"0135":{"zip_code":"0100135","prefecture":"秋田県","prefecture_kana":"アキタケン","city":"秋田市","city_kana":"アキタシ","town":"上新城五十丁","town_kana":"カミシンジョウゴジッチョウ","prefecture_code":5},"0131":{"zip_code":"0100131","prefecture":"秋田県","prefecture_kana":"アキタケン","city":"秋田市","city_kana":"アキタシ","town":"上新城白山","town_kana":"カミシンジョウシラヤマ","prefecture_code":5},"0136":{"zip_code":"0100136","prefecture":"秋田県","prefecture_kana":"アキタケン","city":"秋田市","city_kana":"アキタシ","town":"上新城中","town_kana":"カミシンジョウナカ","prefecture_code":5},"0138":{"zip_code":"0100138","prefecture":"秋田県","prefecture_kana":"アキタケン","city":"秋田市","city_kana":"アキタシ","town":"上新城保多野","town_kana":"カミシンジョウホタノ","prefecture_code":5},"0134":{"zip_code":"0100134","prefecture":"秋田県","prefecture_kana":"アキタケン","city":"秋田市","city_kana":"アキタシ","town":"上新城道川","town_kana":"カミシンジョウミチカワ","prefecture_code":5},"0133":{"zip_code":"0100133","prefecture":"秋田県","prefecture_kana":"アキタケン","city":"秋田市","city_kana":"アキタシ","town":"上新城湯ノ里","town_kana":"カミシンジョウユノサト","prefecture_code":5},"0947":{"zip_code":"0100947","prefecture":"秋田県","prefecture_kana":"アキタケン","city":"秋田市","city_kana":"アキタシ","town":"川尻上野町","town_kana":"カワシリウエノマチ","prefecture_code":5},"0942":{"zip_code":"0100942","prefecture":"秋田県","prefecture_kana":"アキタケン","city":"秋田市","city_kana":"アキタシ","town":"川尻大川町","town_kana":"カワシリオオカワマチ","prefecture_code":5},"0943":{"zip_code":"0100943","prefecture":"秋田県","prefecture_kana":"アキタケン","city":"秋田市","city_kana":"アキタシ","town":"川尻御休町","town_kana":"カワシリオヤスミマチ","prefecture_code":5},"0948":{"zip_code":"0100948","prefecture":"秋田県","prefecture_kana":"アキタケン","city":"秋田市","city_kana":"アキタシ","town":"川尻新川町","town_kana":"カワシリシンカワマチ","prefecture_code":5},"0946":{"zip_code":"0100946","prefecture":"秋田県","prefecture_kana":"アキタケン","city":"秋田市","city_kana":"アキタシ","town":"川尻総社町","town_kana":"カワシリソウシャマチ","prefecture_code":5},"0945":{"zip_code":"0100945","prefecture":"秋田県","prefecture_kana":"アキタケン","city":"秋田市","city_kana":"アキタシ","town":"川尻みよし町","town_kana":"カワシリミヨシマチ","prefecture_code":5},"0944":{"zip_code":"0100944","prefecture":"秋田県","prefecture_kana":"アキタケン","city":"秋田市","city_kana":"アキタシ","town":"川尻若葉町","town_kana":"カワシリワカバマチ","prefecture_code":5},"0941":{"zip_code":"0100941","prefecture":"秋田県","prefecture_kana":"アキタケン","city":"秋田市","city_kana":"アキタシ","town":"川尻町","town_kana":"カワシリマチ","prefecture_code":5},"0935":{"zip_code":"0100935","prefecture":"秋田県","prefecture_kana":"アキタケン","city":"秋田市","city_kana":"アキタシ","town":"川元小川町","town_kana":"カワモトオガワマチ","prefecture_code":5},"0932":{"zip_code":"0100932","prefecture":"秋田県","prefecture_kana":"アキタケン","city":"秋田市","city_kana":"アキタシ","town":"川元開和町","town_kana":"カワモトカイワマチ","prefecture_code":5},"0933":{"zip_code":"0100933","prefecture":"秋田県","prefecture_kana":"アキタケン","city":"秋田市","city_kana":"アキタシ","town":"川元松丘町","town_kana":"カワモトマツオカマチ","prefecture_code":5},"0934":{"zip_code":"0100934","prefecture":"秋田県","prefecture_kana":"アキタケン","city":"秋田市","city_kana":"アキタシ","town":"川元むつみ町","town_kana":"カワモトムツミマチ","prefecture_code":5},"0931":{"zip_code":"0100931","prefecture":"秋田県","prefecture_kana":"アキタケン","city":"秋田市","city_kana":"アキタシ","town":"川元山下町","town_kana":"カワモトヤマシタマチ","prefecture_code":5},"0925":{"zip_code":"0100925","prefecture":"秋田県","prefecture_kana":"アキタケン","city":"秋田市","city_kana":"アキタシ","town":"旭南","town_kana":"キョクナン","prefecture_code":5},"0922":{"zip_code":"0100922","prefecture":"秋田県","prefecture_kana":"アキタケン","city":"秋田市","city_kana":"アキタシ","town":"旭北栄町","town_kana":"キョクホクサカエマチ","prefecture_code":5},"0924":{"zip_code":"0100924","prefecture":"秋田県","prefecture_kana":"アキタケン","city":"秋田市","city_kana":"アキタシ","town":"旭北寺町","town_kana":"キョクホクテラマチ","prefecture_code":5},"0923":{"zip_code":"0100923","prefecture":"秋田県","prefecture_kana":"アキタケン","city":"秋田市","city_kana":"アキタシ","town":"旭北錦町","town_kana":"キョクホクニシキマチ","prefecture_code":5},"0966":{"zip_code":"0100966","prefecture":"秋田県","prefecture_kana":"アキタケン","city":"秋田市","city_kana":"アキタシ","town":"高陽青柳町","town_kana":"コウヨウアオヤギチョウ","prefecture_code":5},"0967":{"zip_code":"0100967","prefecture":"秋田県","prefecture_kana":"アキタケン","city":"秋田市","city_kana":"アキタシ","town":"高陽幸町","town_kana":"コウヨウサイワイチョウ","prefecture_code":5},"1412":{"zip_code":"0101412","prefecture":"秋田県","prefecture_kana":"アキタケン","city":"秋田市","city_kana":"アキタシ","town":"御所野下堤","town_kana":"ゴショノシモツツミ","prefecture_code":5},"1413":{"zip_code":"0101413","prefecture":"秋田県","prefecture_kana":"アキタケン","city":"秋田市","city_kana":"アキタシ","town":"御所野地蔵田","town_kana":"ゴショノジゾウデン","prefecture_code":5},"1419":{"zip_code":"0101419","prefecture":"秋田県","prefecture_kana":"アキタケン","city":"秋田市","city_kana":"アキタシ","town":"御所野堤台","town_kana":"ゴショノツツミダイ","prefecture_code":5},"1414":{"zip_code":"0101414","prefecture":"秋田県","prefecture_kana":"アキタケン","city":"秋田市","city_kana":"アキタシ","town":"御所野元町","town_kana":"ゴショノモトマチ","prefecture_code":5},"1415":{"zip_code":"0101415","prefecture":"秋田県","prefecture_kana":"アキタケン","city":"秋田市","city_kana":"アキタシ","town":"御所野湯本","town_kana":"ゴショノユモト","prefecture_code":5},"0042":{"zip_code":"0100042","prefecture":"秋田県","prefecture_kana":"アキタケン","city":"秋田市","city_kana":"アキタシ","town":"桜","town_kana":"サクラ","prefecture_code":5},"0043":{"zip_code":"0100043","prefecture":"秋田県","prefecture_kana":"アキタケン","city":"秋田市","city_kana":"アキタシ","town":"桜ガ丘","town_kana":"サクラガオカ","prefecture_code":5},"0059":{"zip_code":"0100059","prefecture":"秋田県","prefecture_kana":"アキタケン","city":"秋田市","city_kana":"アキタシ","town":"桜台","town_kana":"サクラダイ","prefecture_code":5},"0823":{"zip_code":"0100823","prefecture":"秋田県","prefecture_kana":"アキタケン","city":"秋田市","city_kana":"アキタシ","town":"山内","town_kana":"サンナイ","prefecture_code":5},"0951":{"zip_code":"0100951","prefecture":"秋田県","prefecture_kana":"アキタケン","city":"秋田市","city_kana":"アキタシ","town":"山王","town_kana":"サンノウ","prefecture_code":5},"0952":{"zip_code":"0100952","prefecture":"秋田県","prefecture_kana":"アキタケン","city":"秋田市","city_kana":"アキタシ","town":"山王新町","town_kana":"サンノウシンマチ","prefecture_code":5},"0955":{"zip_code":"0100955","prefecture":"秋田県","prefecture_kana":"アキタケン","city":"秋田市","city_kana":"アキタシ","town":"山王中島町","town_kana":"サンノウナカジママチ","prefecture_code":5},"0953":{"zip_code":"0100953","prefecture":"秋田県","prefecture_kana":"アキタケン","city":"秋田市","city_kana":"アキタシ","town":"山王中園町","town_kana":"サンノウナカゾノマチ","prefecture_code":5},"0954":{"zip_code":"0100954","prefecture":"秋田県","prefecture_kana":"アキタケン","city":"秋田市","city_kana":"アキタシ","town":"山王沼田町","town_kana":"サンノウヌマタマチ","prefecture_code":5},"0956":{"zip_code":"0100956","prefecture":"秋田県","prefecture_kana":"アキタケン","city":"秋田市","city_kana":"アキタシ","town":"山王臨海町","town_kana":"サンノウリンカイマチ","prefecture_code":5},"0056":{"zip_code":"0100056","prefecture":"秋田県","prefecture_kana":"アキタケン","city":"秋田市","city_kana":"アキタシ","town":"下北手黒川","town_kana":"シモキタテクロカワ","prefecture_code":5},"0058":{"zip_code":"0100058","prefecture":"秋田県","prefecture_kana":"アキタケン","city":"秋田市","city_kana":"アキタシ","town":"下北手桜","town_kana":"シモキタテサクラ","prefecture_code":5},"0053":{"zip_code":"0100053","prefecture":"秋田県","prefecture_kana":"アキタケン","city":"秋田市","city_kana":"アキタシ","town":"下北手寒川","town_kana":"シモキタテサムカワ","prefecture_code":5},"0054":{"zip_code":"0100054","prefecture":"秋田県","prefecture_kana":"アキタケン","city":"秋田市","city_kana":"アキタシ","town":"下北手宝川","town_kana":"シモキタテタカラカワ","prefecture_code":5},"0055":{"zip_code":"0100055","prefecture":"秋田県","prefecture_kana":"アキタケン","city":"秋田市","city_kana":"アキタシ","town":"下北手通沢","town_kana":"シモキタテトオリサワ","prefecture_code":5},"0057":{"zip_code":"0100057","prefecture":"秋田県","prefecture_kana":"アキタケン","city":"秋田市","city_kana":"アキタシ","town":"下北手梨平","town_kana":"シモキタテナシヒラ","prefecture_code":5},"0051":{"zip_code":"0100051","prefecture":"秋田県","prefecture_kana":"アキタケン","city":"秋田市","city_kana":"アキタシ","town":"下北手松崎","town_kana":"シモキタテマツサキ","prefecture_code":5},"0052":{"zip_code":"0100052","prefecture":"秋田県","prefecture_kana":"アキタケン","city":"秋田市","city_kana":"アキタシ","town":"下北手柳舘","town_kana":"シモキタテヤナギタテ","prefecture_code":5},"0142":{"zip_code":"0100142","prefecture":"秋田県","prefecture_kana":"アキタケン","city":"秋田市","city_kana":"アキタシ","town":"下新城青崎","town_kana":"シモシンジョウアオザキ","prefecture_code":5},"0144":{"zip_code":"0100144","prefecture":"秋田県","prefecture_kana":"アキタケン","city":"秋田市","city_kana":"アキタシ","town":"下新城岩城","town_kana":"シモシンジョウイワキ","prefecture_code":5},"0143":{"zip_code":"0100143","prefecture":"秋田県","prefecture_kana":"アキタケン","city":"秋田市","city_kana":"アキタシ","town":"下新城小友","town_kana":"シモシンジョウオトモ","prefecture_code":5},"0145":{"zip_code":"0100145","prefecture":"秋田県","prefecture_kana":"アキタケン","city":"秋田市","city_kana":"アキタシ","town":"下新城笠岡","town_kana":"シモシンジョウカサオカ","prefecture_code":5},"0146":{"zip_code":"0100146","prefecture":"秋田県","prefecture_kana":"アキタケン","city":"秋田市","city_kana":"アキタシ","town":"下新城中野","town_kana":"シモシンジョウナカノ","prefecture_code":5},"0141":{"zip_code":"0100141","prefecture":"秋田県","prefecture_kana":"アキタケン","city":"秋田市","city_kana":"アキタシ","town":"下新城長岡","town_kana":"シモシンジョウナガオカ","prefecture_code":5},"1501":{"zip_code":"0101501","prefecture":"秋田県","prefecture_kana":"アキタケン","city":"秋田市","city_kana":"アキタシ","town":"下浜桂根","town_kana":"シモハマカツラネ","prefecture_code":5},"1502":{"zip_code":"0101502","prefecture":"秋田県","prefecture_kana":"アキタケン","city":"秋田市","city_kana":"アキタシ","town":"下浜長浜","town_kana":"シモハマナガハマ","prefecture_code":5},"1506":{"zip_code":"0101506","prefecture":"秋田県","prefecture_kana":"アキタケン","city":"秋田市","city_kana":"アキタシ","town":"下浜楢田","town_kana":"シモハマナラダ","prefecture_code":5},"1505":{"zip_code":"0101505","prefecture":"秋田県","prefecture_kana":"アキタケン","city":"秋田市","city_kana":"アキタシ","town":"下浜八田","town_kana":"シモハマハッタ","prefecture_code":5},"1503":{"zip_code":"0101503","prefecture":"秋田県","prefecture_kana":"アキタケン","city":"秋田市","city_kana":"アキタシ","town":"下浜羽川","town_kana":"シモハマハネカワ","prefecture_code":5},"1504":{"zip_code":"0101504","prefecture":"秋田県","prefecture_kana":"アキタケン","city":"秋田市","city_kana":"アキタシ","town":"下浜名ケ沢","town_kana":"シモハマミョウガサワ","prefecture_code":5},"0826":{"zip_code":"0100826","prefecture":"秋田県","prefecture_kana":"アキタケン","city":"秋田市","city_kana":"アキタシ","town":"新藤田","town_kana":"シントウダ","prefecture_code":5},"0872":{"zip_code":"0100872","prefecture":"秋田県","prefecture_kana":"アキタケン","city":"秋田市","city_kana":"アキタシ","town":"千秋北の丸","town_kana":"センシュウキタノマル","prefecture_code":5},"0874":{"zip_code":"0100874","prefecture":"秋田県","prefecture_kana":"アキタケン","city":"秋田市","city_kana":"アキタシ","town":"千秋久保田町","town_kana":"センシュウクボタマチ","prefecture_code":5},"0876":{"zip_code":"0100876","prefecture":"秋田県","prefecture_kana":"アキタケン","city":"秋田市","city_kana":"アキタシ","town":"千秋公園","town_kana":"センシュウコウエン","prefecture_code":5},"0873":{"zip_code":"0100873","prefecture":"秋田県","prefecture_kana":"アキタケン","city":"秋田市","city_kana":"アキタシ","town":"千秋城下町","town_kana":"センシュウジョウカマチ","prefecture_code":5},"0871":{"zip_code":"0100871","prefecture":"秋田県","prefecture_kana":"アキタケン","city":"秋田市","city_kana":"アキタシ","town":"千秋中島町","town_kana":"センシュウナカジママチ","prefecture_code":5},"0875":{"zip_code":"0100875","prefecture":"秋田県","prefecture_kana":"アキタケン","city":"秋田市","city_kana":"アキタシ","town":"千秋明徳町","town_kana":"センシュウメイトクマチ","prefecture_code":5},"0877":{"zip_code":"0100877","prefecture":"秋田県","prefecture_kana":"アキタケン","city":"秋田市","city_kana":"アキタシ","town":"千秋矢留町","town_kana":"センシュウヤドメマチ","prefecture_code":5},"0822":{"zip_code":"0100822","prefecture":"秋田県","prefecture_kana":"アキタケン","city":"秋田市","city_kana":"アキタシ","town":"添川","town_kana":"ソエガワ","prefecture_code":5},"0802":{"zip_code":"0100802","prefecture":"秋田県","prefecture_kana":"アキタケン","city":"秋田市","city_kana":"アキタシ","town":"外旭川","town_kana":"ソトアサヒカワ","prefecture_code":5},"0804":{"zip_code":"0100804","prefecture":"秋田県","prefecture_kana":"アキタケン","city":"秋田市","city_kana":"アキタシ","town":"外旭川八幡田（丁目）","town_kana":"ソトアサヒカワハチマンデン(チョウメ)","prefecture_code":5},"0803":{"zip_code":"0100803","prefecture":"秋田県","prefecture_kana":"アキタケン","city":"秋田市","city_kana":"アキタシ","town":"外旭川八柳","town_kana":"ソトアサヒカワヤツヤナギ","prefecture_code":5},"1105":{"zip_code":"0101105","prefecture":"秋田県","prefecture_kana":"アキタケン","city":"秋田市","city_kana":"アキタシ","town":"太平黒沢","town_kana":"タイヘイクロサワ","prefecture_code":5},"1104":{"zip_code":"0101104","prefecture":"秋田県","prefecture_kana":"アキタケン","city":"秋田市","city_kana":"アキタシ","town":"太平寺庭","town_kana":"タイヘイテラニワ","prefecture_code":5},"1103":{"zip_code":"0101103","prefecture":"秋田県","prefecture_kana":"アキタケン","city":"秋田市","city_kana":"アキタシ","town":"太平中関","town_kana":"タイヘイナカゼキ","prefecture_code":5},"1101":{"zip_code":"0101101","prefecture":"秋田県","prefecture_kana":"アキタケン","city":"秋田市","city_kana":"アキタシ","town":"太平八田","town_kana":"タイヘイハッタ","prefecture_code":5},"1102":{"zip_code":"0101102","prefecture":"秋田県","prefecture_kana":"アキタケン","city":"秋田市","city_kana":"アキタシ","town":"太平目長崎","town_kana":"タイヘイメナガサキ","prefecture_code":5},"1106":{"zip_code":"0101106","prefecture":"秋田県","prefecture_kana":"アキタケン","city":"秋田市","city_kana":"アキタシ","town":"太平山谷","town_kana":"タイヘイヤマヤ","prefecture_code":5},"0851":{"zip_code":"0100851","prefecture":"秋田県","prefecture_kana":"アキタケン","city":"秋田市","city_kana":"アキタシ","town":"手形","town_kana":"テガタ","prefecture_code":5},"0861":{"zip_code":"0100861","prefecture":"秋田県","prefecture_kana":"アキタケン","city":"秋田市","city_kana":"アキタシ","town":"手形からみでん","town_kana":"テガタカラミデン","prefecture_code":5},"0852":{"zip_code":"0100852","prefecture":"秋田県","prefecture_kana":"アキタケン","city":"秋田市","city_kana":"アキタシ","town":"手形学園町","town_kana":"テガタガクエンマチ","prefecture_code":5},"0863":{"zip_code":"0100863","prefecture":"秋田県","prefecture_kana":"アキタケン","city":"秋田市","city_kana":"アキタシ","town":"手形休下町","town_kana":"テガタキュウカマチ","prefecture_code":5},"0865":{"zip_code":"0100865","prefecture":"秋田県","prefecture_kana":"アキタケン","city":"秋田市","city_kana":"アキタシ","town":"手形新栄町","town_kana":"テガタシンサカエマチ","prefecture_code":5},"0864":{"zip_code":"0100864","prefecture":"秋田県","prefecture_kana":"アキタケン","city":"秋田市","city_kana":"アキタシ","town":"手形住吉町","town_kana":"テガタスミヨシチョウ","prefecture_code":5},"0862":{"zip_code":"0100862","prefecture":"秋田県","prefecture_kana":"アキタケン","city":"秋田市","city_kana":"アキタシ","town":"手形田中","town_kana":"テガタタナカ","prefecture_code":5},"0854":{"zip_code":"0100854","prefecture":"秋田県","prefecture_kana":"アキタケン","city":"秋田市","city_kana":"アキタシ","town":"手形山崎町","town_kana":"テガタヤマザキチョウ","prefecture_code":5},"0844":{"zip_code":"0100844","prefecture":"秋田県","prefecture_kana":"アキタケン","city":"秋田市","city_kana":"アキタシ","town":"手形山中町","town_kana":"テガタヤマナカマチ","prefecture_code":5},"0843":{"zip_code":"0100843","prefecture":"秋田県","prefecture_kana":"アキタケン","city":"秋田市","city_kana":"アキタシ","town":"手形山東町","town_kana":"テガタヤマヒガシマチ","prefecture_code":5},"0841":{"zip_code":"0100841","prefecture":"秋田県","prefecture_kana":"アキタケン","city":"秋田市","city_kana":"アキタシ","town":"手形山西町","town_kana":"テガタヤマニシマチ","prefecture_code":5},"0845":{"zip_code":"0100845","prefecture":"秋田県","prefecture_kana":"アキタケン","city":"秋田市","city_kana":"アキタシ","town":"手形山南町","town_kana":"テガタヤマミナミマチ","prefecture_code":5},"0842":{"zip_code":"0100842","prefecture":"秋田県","prefecture_kana":"アキタケン","city":"秋田市","city_kana":"アキタシ","town":"手形山北町","town_kana":"テガタヤマキタマチ","prefecture_code":5},"1651":{"zip_code":"0101651","prefecture":"秋田県","prefecture_kana":"アキタケン","city":"秋田市","city_kana":"アキタシ","town":"豊岩石田坂","town_kana":"トヨイワイシダザカ","prefecture_code":5},"1653":{"zip_code":"0101653","prefecture":"秋田県","prefecture_kana":"アキタケン","city":"秋田市","city_kana":"アキタシ","town":"豊岩小山","town_kana":"トヨイワオヤマ","prefecture_code":5},"1652":{"zip_code":"0101652","prefecture":"秋田県","prefecture_kana":"アキタケン","city":"秋田市","city_kana":"アキタシ","town":"豊岩豊巻","town_kana":"トヨイワトヨマキ","prefecture_code":5},"0001":{"zip_code":"0100001","prefecture":"秋田県","prefecture_kana":"アキタケン","city":"秋田市","city_kana":"アキタシ","town":"中通","town_kana":"ナカドオリ","prefecture_code":5},"0034":{"zip_code":"0100034","prefecture":"秋田県","prefecture_kana":"アキタケン","city":"秋田市","city_kana":"アキタシ","town":"楢山","town_kana":"ナラヤマ","prefecture_code":5},"0037":{"zip_code":"0100037","prefecture":"秋田県","prefecture_kana":"アキタケン","city":"秋田市","city_kana":"アキタシ","town":"楢山愛宕下","town_kana":"ナラヤマアタゴシタ","prefecture_code":5},"0033":{"zip_code":"0100033","prefecture":"秋田県","prefecture_kana":"アキタケン","city":"秋田市","city_kana":"アキタシ","town":"楢山石塚町","town_kana":"ナラヤマイシヅカチョウ","prefecture_code":5},"0032":{"zip_code":"0100032","prefecture":"秋田県","prefecture_kana":"アキタケン","city":"秋田市","city_kana":"アキタシ","town":"楢山太田町","town_kana":"ナラヤマオオタマチ","prefecture_code":5},"0031":{"zip_code":"0100031","prefecture":"秋田県","prefecture_kana":"アキタケン","city":"秋田市","city_kana":"アキタシ","town":"楢山大元町","town_kana":"ナラヤマオオモトマチ","prefecture_code":5},"0029":{"zip_code":"0100029","prefecture":"秋田県","prefecture_kana":"アキタケン","city":"秋田市","city_kana":"アキタシ","town":"楢山川口境","town_kana":"ナラヤマカワグチサカイ","prefecture_code":5},"0028":{"zip_code":"0100028","prefecture":"秋田県","prefecture_kana":"アキタケン","city":"秋田市","city_kana":"アキタシ","town":"楢山共和町","town_kana":"ナラヤマキョウワマチ","prefecture_code":5},"0036":{"zip_code":"0100036","prefecture":"秋田県","prefecture_kana":"アキタケン","city":"秋田市","city_kana":"アキタシ","town":"楢山金照町","town_kana":"ナラヤマキンショウマチ","prefecture_code":5},"0025":{"zip_code":"0100025","prefecture":"秋田県","prefecture_kana":"アキタケン","city":"秋田市","city_kana":"アキタシ","town":"楢山佐竹町","town_kana":"ナラヤマサタケマチ","prefecture_code":5},"0038":{"zip_code":"0100038","prefecture":"秋田県","prefecture_kana":"アキタケン","city":"秋田市","city_kana":"アキタシ","town":"楢山城南新町","town_kana":"ナラヤマジョウナンシンマチ","prefecture_code":5},"0035":{"zip_code":"0100035","prefecture":"秋田県","prefecture_kana":"アキタケン","city":"秋田市","city_kana":"アキタシ","town":"楢山城南町","town_kana":"ナラヤマジョウナンマチ","prefecture_code":5},"0021":{"zip_code":"0100021","prefecture":"秋田県","prefecture_kana":"アキタケン","city":"秋田市","city_kana":"アキタシ","town":"楢山登町","town_kana":"ナラヤマノボリマチ","prefecture_code":5},"0026":{"zip_code":"0100026","prefecture":"秋田県","prefecture_kana":"アキタケン","city":"秋田市","city_kana":"アキタシ","town":"楢山古川新町","town_kana":"ナラヤマフルカワシンマチ","prefecture_code":5},"0023":{"zip_code":"0100023","prefecture":"秋田県","prefecture_kana":"アキタケン","city":"秋田市","city_kana":"アキタシ","town":"楢山本町","town_kana":"ナラヤマホンチョウ","prefecture_code":5},"0024":{"zip_code":"0100024","prefecture":"秋田県","prefecture_kana":"アキタケン","city":"秋田市","city_kana":"アキタシ","town":"楢山南新町上丁","town_kana":"ナラヤマミナミシンマチカミチョウ","prefecture_code":5},"0027":{"zip_code":"0100027","prefecture":"秋田県","prefecture_kana":"アキタケン","city":"秋田市","city_kana":"アキタシ","town":"楢山南新町下丁","town_kana":"ナラヤマミナミシンマチシモチョウ","prefecture_code":5},"0022":{"zip_code":"0100022","prefecture":"秋田県","prefecture_kana":"アキタケン","city":"秋田市","city_kana":"アキタシ","town":"楢山南中町","town_kana":"ナラヤマミナミナカチョウ","prefecture_code":5},"1423":{"zip_code":"0101423","prefecture":"秋田県","prefecture_kana":"アキタケン","city":"秋田市","city_kana":"アキタシ","town":"仁井田","town_kana":"ニイダ","prefecture_code":5},"1435":{"zip_code":"0101435","prefecture":"秋田県","prefecture_kana":"アキタケン","city":"秋田市","city_kana":"アキタシ","town":"仁井田潟中町","town_kana":"ニイダカタナカチョウ","prefecture_code":5},"1426":{"zip_code":"0101426","prefecture":"秋田県","prefecture_kana":"アキタケン","city":"秋田市","city_kana":"アキタシ","town":"仁井田小中島","town_kana":"ニイダコナカジマ","prefecture_code":5},"1433":{"zip_code":"0101433","prefecture":"秋田県","prefecture_kana":"アキタケン","city":"秋田市","city_kana":"アキタシ","town":"仁井田栄町","town_kana":"ニイダサカエチョウ","prefecture_code":5},"1427":{"zip_code":"0101427","prefecture":"秋田県","prefecture_kana":"アキタケン","city":"秋田市","city_kana":"アキタシ","town":"仁井田新田","town_kana":"ニイダシンデン","prefecture_code":5},"1434":{"zip_code":"0101434","prefecture":"秋田県","prefecture_kana":"アキタケン","city":"秋田市","city_kana":"アキタシ","town":"仁井田蕗見町","town_kana":"ニイダフキミチョウ","prefecture_code":5},"1432":{"zip_code":"0101432","prefecture":"秋田県","prefecture_kana":"アキタケン","city":"秋田市","city_kana":"アキタシ","town":"仁井田福島","town_kana":"ニイダフクシマ","prefecture_code":5},"1431":{"zip_code":"0101431","prefecture":"秋田県","prefecture_kana":"アキタケン","city":"秋田市","city_kana":"アキタシ","town":"仁井田二ツ屋","town_kana":"ニイダフタツヤ","prefecture_code":5},"1421":{"zip_code":"0101421","prefecture":"秋田県","prefecture_kana":"アキタケン","city":"秋田市","city_kana":"アキタシ","town":"仁井田本町","town_kana":"ニイダホンチョウ","prefecture_code":5},"1437":{"zip_code":"0101437","prefecture":"秋田県","prefecture_kana":"アキタケン","city":"秋田市","city_kana":"アキタシ","town":"仁井田緑町","town_kana":"ニイダミドリチョウ","prefecture_code":5},"1422":{"zip_code":"0101422","prefecture":"秋田県","prefecture_kana":"アキタケン","city":"秋田市","city_kana":"アキタシ","town":"仁井田目長田","town_kana":"ニイダメナガタ","prefecture_code":5},"0821":{"zip_code":"0100821","prefecture":"秋田県","prefecture_kana":"アキタケン","city":"秋田市","city_kana":"アキタシ","town":"濁川","town_kana":"ニゴリカワ","prefecture_code":5},"0824":{"zip_code":"0100824","prefecture":"秋田県","prefecture_kana":"アキタケン","city":"秋田市","city_kana":"アキタシ","town":"仁別","town_kana":"ニベツ","prefecture_code":5},"1654":{"zip_code":"0101654","prefecture":"秋田県","prefecture_kana":"アキタケン","city":"秋田市","city_kana":"アキタシ","town":"浜田","town_kana":"ハマダ","prefecture_code":5},"0065":{"zip_code":"0100065","prefecture":"秋田県","prefecture_kana":"アキタケン","city":"秋田市","city_kana":"アキタシ","town":"茨島","town_kana":"バラジマ","prefecture_code":5},"0003":{"zip_code":"0100003","prefecture":"秋田県","prefecture_kana":"アキタケン","city":"秋田市","city_kana":"アキタシ","town":"東通","town_kana":"ヒガシドオリ","prefecture_code":5},"0004":{"zip_code":"0100004","prefecture":"秋田県","prefecture_kana":"アキタケン","city":"秋田市","city_kana":"アキタシ","town":"東通観音前","town_kana":"ヒガシドオリカンノンマエ","prefecture_code":5},"0006":{"zip_code":"0100006","prefecture":"秋田県","prefecture_kana":"アキタケン","city":"秋田市","city_kana":"アキタシ","town":"東通館ノ越","town_kana":"ヒガシドオリタテノコシ","prefecture_code":5},"0002":{"zip_code":"0100002","prefecture":"秋田県","prefecture_kana":"アキタケン","city":"秋田市","city_kana":"アキタシ","town":"東通仲町","town_kana":"ヒガシドオリナカマチ","prefecture_code":5},"0005":{"zip_code":"0100005","prefecture":"秋田県","prefecture_kana":"アキタケン","city":"秋田市","city_kana":"アキタシ","town":"東通明田","town_kana":"ヒガシドオリミョウデン","prefecture_code":5},"0041":{"zip_code":"0100041","prefecture":"秋田県","prefecture_kana":"アキタケン","city":"秋田市","city_kana":"アキタシ","town":"広面","town_kana":"ヒロオモテ","prefecture_code":5},"0853":{"zip_code":"0100853","prefecture":"秋田県","prefecture_kana":"アキタケン","city":"秋田市","city_kana":"アキタシ","town":"蛇野","town_kana":"ヘビノ","prefecture_code":5},"0915":{"zip_code":"0100915","prefecture":"秋田県","prefecture_kana":"アキタケン","city":"秋田市","city_kana":"アキタシ","town":"保戸野","town_kana":"ホドノ","prefecture_code":5},"0902":{"zip_code":"0100902","prefecture":"秋田県","prefecture_kana":"アキタケン","city":"秋田市","city_kana":"アキタシ","town":"保戸野金砂町","town_kana":"ホドノカナサマチ","prefecture_code":5},"0901":{"zip_code":"0100901","prefecture":"秋田県","prefecture_kana":"アキタケン","city":"秋田市","city_kana":"アキタシ","town":"保戸野桜町","town_kana":"ホドノサクラマチ","prefecture_code":5},"0911":{"zip_code":"0100911","prefecture":"秋田県","prefecture_kana":"アキタケン","city":"秋田市","city_kana":"アキタシ","town":"保戸野すわ町","town_kana":"ホドノスワチョウ","prefecture_code":5},"0914":{"zip_code":"0100914","prefecture":"秋田県","prefecture_kana":"アキタケン","city":"秋田市","city_kana":"アキタシ","town":"保戸野千代田町","town_kana":"ホドノチヨダマチ","prefecture_code":5},"0913":{"zip_code":"0100913","prefecture":"秋田県","prefecture_kana":"アキタケン","city":"秋田市","city_kana":"アキタシ","town":"保戸野鉄砲町","town_kana":"ホドノテッポウマチ","prefecture_code":5},"0912":{"zip_code":"0100912","prefecture":"秋田県","prefecture_kana":"アキタケン","city":"秋田市","city_kana":"アキタシ","town":"保戸野通町","town_kana":"ホドノトオリマチ","prefecture_code":5},"0905":{"zip_code":"0100905","prefecture":"秋田県","prefecture_kana":"アキタケン","city":"秋田市","city_kana":"アキタシ","town":"保戸野中町","town_kana":"ホドノナカチョウ","prefecture_code":5},"0903":{"zip_code":"0100903","prefecture":"秋田県","prefecture_kana":"アキタケン","city":"秋田市","city_kana":"アキタシ","town":"保戸野八丁","town_kana":"ホドノハッチョウ","prefecture_code":5},"0904":{"zip_code":"0100904","prefecture":"秋田県","prefecture_kana":"アキタケン","city":"秋田市","city_kana":"アキタシ","town":"保戸野原の町","town_kana":"ホドノハラノマチ","prefecture_code":5},"0011":{"zip_code":"0100011","prefecture":"秋田県","prefecture_kana":"アキタケン","city":"秋田市","city_kana":"アキタシ","town":"南通亀の町","town_kana":"ミナミドオリカメノチョウ","prefecture_code":5},"0013":{"zip_code":"0100013","prefecture":"秋田県","prefecture_kana":"アキタケン","city":"秋田市","city_kana":"アキタシ","town":"南通築地","town_kana":"ミナミドオリツキジ","prefecture_code":5},"0012":{"zip_code":"0100012","prefecture":"秋田県","prefecture_kana":"アキタケン","city":"秋田市","city_kana":"アキタシ","town":"南通みその町","town_kana":"ミナミドオリミソノマチ","prefecture_code":5},"0014":{"zip_code":"0100014","prefecture":"秋田県","prefecture_kana":"アキタケン","city":"秋田市","city_kana":"アキタシ","town":"南通宮田","town_kana":"ミナミドオリミヤタ","prefecture_code":5},"1601":{"zip_code":"0101601","prefecture":"秋田県","prefecture_kana":"アキタケン","city":"秋田市","city_kana":"アキタシ","town":"向浜","town_kana":"ムカイハマ","prefecture_code":5},"0825":{"zip_code":"0100825","prefecture":"秋田県","prefecture_kana":"アキタケン","city":"秋田市","city_kana":"アキタシ","town":"柳田","town_kana":"ヤナギダ","prefecture_code":5},"0975":{"zip_code":"0100975","prefecture":"秋田県","prefecture_kana":"アキタケン","city":"秋田市","city_kana":"アキタシ","town":"八橋","town_kana":"ヤバセ","prefecture_code":5},"0961":{"zip_code":"0100961","prefecture":"秋田県","prefecture_kana":"アキタケン","city":"秋田市","city_kana":"アキタシ","town":"八橋イサノ","town_kana":"ヤバセイサノ","prefecture_code":5},"0974":{"zip_code":"0100974","prefecture":"秋田県","prefecture_kana":"アキタケン","city":"秋田市","city_kana":"アキタシ","town":"八橋運動公園","town_kana":"ヤバセウンドウコウエン","prefecture_code":5},"0963":{"zip_code":"0100963","prefecture":"秋田県","prefecture_kana":"アキタケン","city":"秋田市","city_kana":"アキタシ","town":"八橋大沼町","town_kana":"ヤバセオオヌマチョウ","prefecture_code":5},"0962":{"zip_code":"0100962","prefecture":"秋田県","prefecture_kana":"アキタケン","city":"秋田市","city_kana":"アキタシ","town":"八橋大畑","town_kana":"ヤバセオオハタ","prefecture_code":5},"0965":{"zip_code":"0100965","prefecture":"秋田県","prefecture_kana":"アキタケン","city":"秋田市","city_kana":"アキタシ","town":"八橋新川向","town_kana":"ヤバセシンカワムカイ","prefecture_code":5},"0977":{"zip_code":"0100977","prefecture":"秋田県","prefecture_kana":"アキタケン","city":"秋田市","city_kana":"アキタシ","town":"八橋大道東","town_kana":"ヤバセダイドウヒガシ","prefecture_code":5},"0972":{"zip_code":"0100972","prefecture":"秋田県","prefecture_kana":"アキタケン","city":"秋田市","city_kana":"アキタシ","town":"八橋田五郎","town_kana":"ヤバセタゴロウ","prefecture_code":5},"0964":{"zip_code":"0100964","prefecture":"秋田県","prefecture_kana":"アキタケン","city":"秋田市","city_kana":"アキタシ","town":"八橋鯲沼町","town_kana":"ヤバセドジョウヌママチ","prefecture_code":5},"0973":{"zip_code":"0100973","prefecture":"秋田県","prefecture_kana":"アキタケン","city":"秋田市","city_kana":"アキタシ","town":"八橋本町","town_kana":"ヤバセホンチョウ","prefecture_code":5},"0976":{"zip_code":"0100976","prefecture":"秋田県","prefecture_kana":"アキタケン","city":"秋田市","city_kana":"アキタシ","town":"八橋南","town_kana":"ヤバセミナミ","prefecture_code":5},"0971":{"zip_code":"0100971","prefecture":"秋田県","prefecture_kana":"アキタケン","city":"秋田市","city_kana":"アキタシ","town":"八橋三和町","town_kana":"ヤバセミワチョウ","prefecture_code":5},"1429":{"zip_code":"0101429","prefecture":"秋田県","prefecture_kana":"アキタケン","city":"秋田市","city_kana":"アキタシ","town":"山手台","town_kana":"ヤマテダイ","prefecture_code":5},"1231":{"zip_code":"0101231","prefecture":"秋田県","prefecture_kana":"アキタケン","city":"秋田市","city_kana":"アキタシ","town":"雄和相川","town_kana":"ユウワアイカワ","prefecture_code":5},"1341":{"zip_code":"0101341","prefecture":"秋田県","prefecture_kana":"アキタケン","city":"秋田市","city_kana":"アキタシ","town":"雄和新波","town_kana":"ユウワアラワ","prefecture_code":5},"1351":{"zip_code":"0101351","prefecture":"秋田県","prefecture_kana":"アキタケン","city":"秋田市","city_kana":"アキタシ","town":"雄和碇田","town_kana":"ユウワイカリダ","prefecture_code":5},"1222":{"zip_code":"0101222","prefecture":"秋田県","prefecture_kana":"アキタケン","city":"秋田市","city_kana":"アキタシ","town":"雄和石田","town_kana":"ユウワイシダ","prefecture_code":5},"1352":{"zip_code":"0101352","prefecture":"秋田県","prefecture_kana":"アキタケン","city":"秋田市","city_kana":"アキタシ","town":"雄和萱ケ沢","town_kana":"ユウワカヤガサワ","prefecture_code":5},"1225":{"zip_code":"0101225","prefecture":"秋田県","prefecture_kana":"アキタケン","city":"秋田市","city_kana":"アキタシ","town":"雄和左手子","town_kana":"ユウワサデコ","prefecture_code":5},"1202":{"zip_code":"0101202","prefecture":"秋田県","prefecture_kana":"アキタケン","city":"秋田市","city_kana":"アキタシ","town":"雄和芝野新田","town_kana":"ユウワシバノシンデン","prefecture_code":5},"1203":{"zip_code":"0101203","prefecture":"秋田県","prefecture_kana":"アキタケン","city":"秋田市","city_kana":"アキタシ","town":"雄和下黒瀬","town_kana":"ユウワシモクロセ","prefecture_code":5},"1342":{"zip_code":"0101342","prefecture":"秋田県","prefecture_kana":"アキタケン","city":"秋田市","city_kana":"アキタシ","town":"雄和神ケ村","town_kana":"ユウワジンガムラ","prefecture_code":5},"1201":{"zip_code":"0101201","prefecture":"秋田県","prefecture_kana":"アキタケン","city":"秋田市","city_kana":"アキタシ","town":"雄和田草川","town_kana":"ユウワタクサガワ","prefecture_code":5},"1224":{"zip_code":"0101224","prefecture":"秋田県","prefecture_kana":"アキタケン","city":"秋田市","city_kana":"アキタシ","town":"雄和種沢","town_kana":"ユウワタネザワ","prefecture_code":5},"1343":{"zip_code":"0101343","prefecture":"秋田県","prefecture_kana":"アキタケン","city":"秋田市","city_kana":"アキタシ","town":"雄和繋","town_kana":"ユウワツナギ","prefecture_code":5},"1211":{"zip_code":"0101211","prefecture":"秋田県","prefecture_kana":"アキタケン","city":"秋田市","city_kana":"アキタシ","town":"雄和椿川","town_kana":"ユウワツバキカワ","prefecture_code":5},"1232":{"zip_code":"0101232","prefecture":"秋田県","prefecture_kana":"アキタケン","city":"秋田市","city_kana":"アキタシ","town":"雄和戸賀沢","town_kana":"ユウワトガザワ","prefecture_code":5},"1212":{"zip_code":"0101212","prefecture":"秋田県","prefecture_kana":"アキタケン","city":"秋田市","city_kana":"アキタシ","town":"雄和平尾鳥","town_kana":"ユウワヒラオトリ","prefecture_code":5},"1221":{"zip_code":"0101221","prefecture":"秋田県","prefecture_kana":"アキタケン","city":"秋田市","city_kana":"アキタシ","town":"雄和平沢","town_kana":"ユウワヒラサワ","prefecture_code":5},"1223":{"zip_code":"0101223","prefecture":"秋田県","prefecture_kana":"アキタケン","city":"秋田市","city_kana":"アキタシ","town":"雄和妙法","town_kana":"ユウワミョウホウ","prefecture_code":5},"1344":{"zip_code":"0101344","prefecture":"秋田県","prefecture_kana":"アキタケン","city":"秋田市","city_kana":"アキタシ","town":"雄和向野","town_kana":"ユウワムカイノ","prefecture_code":5},"1233":{"zip_code":"0101233","prefecture":"秋田県","prefecture_kana":"アキタケン","city":"秋田市","city_kana":"アキタシ","town":"雄和女米木","town_kana":"ユウワメメキ","prefecture_code":5},"0044":{"zip_code":"0100044","prefecture":"秋田県","prefecture_kana":"アキタケン","city":"秋田市","city_kana":"アキタシ","town":"横森","town_kana":"ヨコモリ","prefecture_code":5},"1417":{"zip_code":"0101417","prefecture":"秋田県","prefecture_kana":"アキタケン","city":"秋田市","city_kana":"アキタシ","town":"四ツ小屋","town_kana":"ヨツゴヤ","prefecture_code":5},"1418":{"zip_code":"0101418","prefecture":"秋田県","prefecture_kana":"アキタケン","city":"秋田市","city_kana":"アキタシ","town":"四ツ小屋小阿地","town_kana":"ヨツゴヤコアジ","prefecture_code":5},"1416":{"zip_code":"0101416","prefecture":"秋田県","prefecture_kana":"アキタケン","city":"秋田市","city_kana":"アキタシ","town":"四ツ小屋末戸松本","town_kana":"ヨツゴヤスエドマツモト","prefecture_code":5},"0500":{"zip_code":"0100500","prefecture":"秋田県","prefecture_kana":"アキタケン","city":"男鹿市","city_kana":"オガシ","town":"以下に掲載がない場合","town_kana":"イカニケイサイガナイバアイ","prefecture_code":5},"0353":{"zip_code":"0100353","prefecture":"秋田県","prefecture_kana":"アキタケン","city":"男鹿市","city_kana":"オガシ","town":"五里合神谷","town_kana":"イリアイカミヤ","prefecture_code":5},"0352":{"zip_code":"0100352","prefecture":"秋田県","prefecture_kana":"アキタケン","city":"男鹿市","city_kana":"オガシ","town":"五里合琴川","town_kana":"イリアイコトガワ","prefecture_code":5},"0355":{"zip_code":"0100355","prefecture":"秋田県","prefecture_kana":"アキタケン","city":"男鹿市","city_kana":"オガシ","town":"五里合鮪川","town_kana":"イリアイシビカワ","prefecture_code":5},"0354":{"zip_code":"0100354","prefecture":"秋田県","prefecture_kana":"アキタケン","city":"男鹿市","city_kana":"オガシ","town":"五里合中石","town_kana":"イリアイチュウイシ","prefecture_code":5},"0351":{"zip_code":"0100351","prefecture":"秋田県","prefecture_kana":"アキタケン","city":"男鹿市","city_kana":"オガシ","town":"五里合箱井","town_kana":"イリアイハコイ","prefecture_code":5},"0421":{"zip_code":"0100421","prefecture":"秋田県","prefecture_kana":"アキタケン","city":"男鹿市","city_kana":"オガシ","town":"鵜木","town_kana":"ウノキ","prefecture_code":5},"0664":{"zip_code":"0100664","prefecture":"秋田県","prefecture_kana":"アキタケン","city":"男鹿市","city_kana":"オガシ","town":"男鹿中国有地内","town_kana":"オガナカコクユウチナイ","prefecture_code":5},"0663":{"zip_code":"0100663","prefecture":"秋田県","prefecture_kana":"アキタケン","city":"男鹿市","city_kana":"オガシ","town":"男鹿中滝川","town_kana":"オガナカタキガワ","prefecture_code":5},"0662":{"zip_code":"0100662","prefecture":"秋田県","prefecture_kana":"アキタケン","city":"男鹿市","city_kana":"オガシ","town":"男鹿中中間口","town_kana":"オガナカナカマグチ","prefecture_code":5},"0661":{"zip_code":"0100661","prefecture":"秋田県","prefecture_kana":"アキタケン","city":"男鹿市","city_kana":"オガシ","town":"男鹿中浜間口","town_kana":"オガナカハママグチ","prefecture_code":5},"0665":{"zip_code":"0100665","prefecture":"秋田県","prefecture_kana":"アキタケン","city":"男鹿市","city_kana":"オガシ","town":"男鹿中山町","town_kana":"オガナカヤママチ","prefecture_code":5},"0422":{"zip_code":"0100422","prefecture":"秋田県","prefecture_kana":"アキタケン","city":"男鹿市","city_kana":"オガシ","town":"角間崎","town_kana":"カクマザキ","prefecture_code":5},"0681":{"zip_code":"0100681","prefecture":"秋田県","prefecture_kana":"アキタケン","city":"男鹿市","city_kana":"オガシ","town":"北浦相川","town_kana":"キタウラアイカワ","prefecture_code":5},"0684":{"zip_code":"0100684","prefecture":"秋田県","prefecture_kana":"アキタケン","city":"男鹿市","city_kana":"オガシ","town":"北浦安全寺","town_kana":"キタウラアンゼンジ","prefecture_code":5},"0682":{"zip_code":"0100682","prefecture":"秋田県","prefecture_kana":"アキタケン","city":"男鹿市","city_kana":"オガシ","town":"北浦表町","town_kana":"キタウラオモテマチ","prefecture_code":5},"0683":{"zip_code":"0100683","prefecture":"秋田県","prefecture_kana":"アキタケン","city":"男鹿市","city_kana":"オガシ","town":"北浦北浦","town_kana":"キタウラキタウラ","prefecture_code":5},"0685":{"zip_code":"0100685","prefecture":"秋田県","prefecture_kana":"アキタケン","city":"男鹿市","city_kana":"オガシ","town":"北浦真山","town_kana":"キタウラシンザン","prefecture_code":5},"0676":{"zip_code":"0100676","prefecture":"秋田県","prefecture_kana":"アキタケン","city":"男鹿市","city_kana":"オガシ","town":"北浦西黒沢","town_kana":"キタウラニシクロサワ","prefecture_code":5},"0686":{"zip_code":"0100686","prefecture":"秋田県","prefecture_kana":"アキタケン","city":"男鹿市","city_kana":"オガシ","town":"北浦西水口","town_kana":"キタウラニシミズグチ","prefecture_code":5},"0675":{"zip_code":"0100675","prefecture":"秋田県","prefecture_kana":"アキタケン","city":"男鹿市","city_kana":"オガシ","town":"北浦入道崎","town_kana":"キタウラニュウドウザキ","prefecture_code":5},"0688":{"zip_code":"0100688","prefecture":"秋田県","prefecture_kana":"アキタケン","city":"男鹿市","city_kana":"オガシ","town":"北浦野村","town_kana":"キタウラノムラ","prefecture_code":5},"0687":{"zip_code":"0100687","prefecture":"秋田県","prefecture_kana":"アキタケン","city":"男鹿市","city_kana":"オガシ","town":"北浦湯本","town_kana":"キタウラユモト","prefecture_code":5},"0671":{"zip_code":"0100671","prefecture":"秋田県","prefecture_kana":"アキタケン","city":"男鹿市","city_kana":"オガシ","town":"戸賀加茂青砂","town_kana":"トガカモアオサ","prefecture_code":5},"0673":{"zip_code":"0100673","prefecture":"秋田県","prefecture_kana":"アキタケン","city":"男鹿市","city_kana":"オガシ","town":"戸賀塩浜","town_kana":"トガシオハマ","prefecture_code":5},"0674":{"zip_code":"0100674","prefecture":"秋田県","prefecture_kana":"アキタケン","city":"男鹿市","city_kana":"オガシ","town":"戸賀戸賀","town_kana":"トガトガ","prefecture_code":5},"0672":{"zip_code":"0100672","prefecture":"秋田県","prefecture_kana":"アキタケン","city":"男鹿市","city_kana":"オガシ","town":"戸賀浜塩谷","town_kana":"トガハマシオヤ","prefecture_code":5},"0401":{"zip_code":"0100401","prefecture":"秋田県","prefecture_kana":"アキタケン","city":"男鹿市","city_kana":"オガシ","town":"野石","town_kana":"ノイシ","prefecture_code":5},"0423":{"zip_code":"0100423","prefecture":"秋田県","prefecture_kana":"アキタケン","city":"男鹿市","city_kana":"オガシ","town":"福川","town_kana":"フクガワ","prefecture_code":5},"0411":{"zip_code":"0100411","prefecture":"秋田県","prefecture_kana":"アキタケン","city":"男鹿市","city_kana":"オガシ","town":"福米沢","town_kana":"フクメザワ","prefecture_code":5},"0431":{"zip_code":"0100431","prefecture":"秋田県","prefecture_kana":"アキタケン","city":"男鹿市","city_kana":"オガシ","town":"払戸","town_kana":"フット","prefecture_code":5},"0523":{"zip_code":"0100523","prefecture":"秋田県","prefecture_kana":"アキタケン","city":"男鹿市","city_kana":"オガシ","town":"船川港女川","town_kana":"フナガワミナトオンナガワ","prefecture_code":5},"0503":{"zip_code":"0100503","prefecture":"秋田県","prefecture_kana":"アキタケン","city":"男鹿市","city_kana":"オガシ","town":"船川港金川","town_kana":"フナガワミナトカネガワ","prefecture_code":5},"0534":{"zip_code":"0100534","prefecture":"秋田県","prefecture_kana":"アキタケン","city":"男鹿市","city_kana":"オガシ","town":"船川港小浜","town_kana":"フナガワミナトコハマ","prefecture_code":5},"0533":{"zip_code":"0100533","prefecture":"秋田県","prefecture_kana":"アキタケン","city":"男鹿市","city_kana":"オガシ","town":"船川港双六","town_kana":"フナガワミナトスゴロク","prefecture_code":5},"0531":{"zip_code":"0100531","prefecture":"秋田県","prefecture_kana":"アキタケン","city":"男鹿市","city_kana":"オガシ","town":"船川港台島","town_kana":"フナガワミナトダイシマ","prefecture_code":5},"0532":{"zip_code":"0100532","prefecture":"秋田県","prefecture_kana":"アキタケン","city":"男鹿市","city_kana":"オガシ","town":"船川港椿","town_kana":"フナガワミナトツバキ","prefecture_code":5},"0501":{"zip_code":"0100501","prefecture":"秋田県","prefecture_kana":"アキタケン","city":"男鹿市","city_kana":"オガシ","town":"船川港仁井山","town_kana":"フナガワミナトニイヤマ","prefecture_code":5},"0502":{"zip_code":"0100502","prefecture":"秋田県","prefecture_kana":"アキタケン","city":"男鹿市","city_kana":"オガシ","town":"船川港比詰","town_kana":"フナガワミナトヒヅメ","prefecture_code":5},"0511":{"zip_code":"0100511","prefecture":"秋田県","prefecture_kana":"アキタケン","city":"男鹿市","city_kana":"オガシ","town":"船川港船川","town_kana":"フナガワミナトフナガワ","prefecture_code":5},"0535":{"zip_code":"0100535","prefecture":"秋田県","prefecture_kana":"アキタケン","city":"男鹿市","city_kana":"オガシ","town":"船川港本山門前","town_kana":"フナガワミナトホンザンモンゼン","prefecture_code":5},"0522":{"zip_code":"0100522","prefecture":"秋田県","prefecture_kana":"アキタケン","city":"男鹿市","city_kana":"オガシ","town":"船川港増川","town_kana":"フナガワミナトマスガワ","prefecture_code":5},"0521":{"zip_code":"0100521","prefecture":"秋田県","prefecture_kana":"アキタケン","city":"男鹿市","city_kana":"オガシ","town":"船川港南平沢","town_kana":"フナガワミナトミナミヒラサワ","prefecture_code":5},"0341":{"zip_code":"0100341","prefecture":"秋田県","prefecture_kana":"アキタケン","city":"男鹿市","city_kana":"オガシ","town":"船越","town_kana":"フナコシ","prefecture_code":5},"0412":{"zip_code":"0100412","prefecture":"秋田県","prefecture_kana":"アキタケン","city":"男鹿市","city_kana":"オガシ","town":"本内","town_kana":"ホンナイ","prefecture_code":5},"0413":{"zip_code":"0100413","prefecture":"秋田県","prefecture_kana":"アキタケン","city":"男鹿市","city_kana":"オガシ","town":"松木沢","town_kana":"マツキサワ","prefecture_code":5},"0345":{"zip_code":"0100345","prefecture":"秋田県","prefecture_kana":"アキタケン","city":"男鹿市","city_kana":"オガシ","town":"脇本浦田","town_kana":"ワキモトウラダ","prefecture_code":5},"0343":{"zip_code":"0100343","prefecture":"秋田県","prefecture_kana":"アキタケン","city":"男鹿市","city_kana":"オガシ","town":"脇本田谷沢","town_kana":"ワキモトタヤザワ","prefecture_code":5},"0346":{"zip_code":"0100346","prefecture":"秋田県","prefecture_kana":"アキタケン","city":"男鹿市","city_kana":"オガシ","town":"脇本樽沢","town_kana":"ワキモトタルザワ","prefecture_code":5},"0344":{"zip_code":"0100344","prefecture":"秋田県","prefecture_kana":"アキタケン","city":"男鹿市","city_kana":"オガシ","town":"脇本富永","town_kana":"ワキモトトミナガ","prefecture_code":5},"0347":{"zip_code":"0100347","prefecture":"秋田県","prefecture_kana":"アキタケン","city":"男鹿市","city_kana":"オガシ","town":"脇本百川","town_kana":"ワキモトモモカワ","prefecture_code":5},"0342":{"zip_code":"0100342","prefecture":"秋田県","prefecture_kana":"アキタケン","city":"男鹿市","city_kana":"オガシ","town":"脇本脇本","town_kana":"ワキモトワキモト","prefecture_code":5},"0202":{"zip_code":"0100202","prefecture":"秋田県","prefecture_kana":"アキタケン","city":"潟上市","city_kana":"カタガミシ","town":"天王大崎","town_kana":"テンノウオオサキ","prefecture_code":5},"0101":{"zip_code":"0100101","prefecture":"秋田県","prefecture_kana":"アキタケン","city":"潟上市","city_kana":"カタガミシ","town":"天王（追分、追分西、上北野、長沼）","town_kana":"テンノウ(オイワケ、オイワケニシ、カミキタノ、ナガヌマ)","prefecture_code":5},"0201":{"zip_code":"0100201","prefecture":"秋田県","prefecture_kana":"アキタケン","city":"潟上市","city_kana":"カタガミシ","town":"天王（その他）","town_kana":"テンノウ(ソノタ)","prefecture_code":5},"0400":{"zip_code":"0100400","prefecture":"秋田県","prefecture_kana":"アキタケン","city":"南秋田郡大潟村","city_kana":"ミナミアキタグンオオガタムラ","town":"以下に掲載がない場合","town_kana":"イカニケイサイガナイバアイ","prefecture_code":5},"0451":{"zip_code":"0100451","prefecture":"秋田県","prefecture_kana":"アキタケン","city":"南秋田郡大潟村","city_kana":"ミナミアキタグンオオガタムラ","town":"大潟","town_kana":"オオガタ","prefecture_code":5},"0452":{"zip_code":"0100452","prefecture":"秋田県","prefecture_kana":"アキタケン","city":"南秋田郡大潟村","city_kana":"ミナミアキタグンオオガタムラ","town":"方上","town_kana":"カタガミ","prefecture_code":5},"0453":{"zip_code":"0100453","prefecture":"秋田県","prefecture_kana":"アキタケン","city":"南秋田郡大潟村","city_kana":"ミナミアキタグンオオガタムラ","town":"方口","town_kana":"カタグチ","prefecture_code":5},"0441":{"zip_code":"0100441","prefecture":"秋田県","prefecture_kana":"アキタケン","city":"南秋田郡大潟村","city_kana":"ミナミアキタグンオオガタムラ","town":"北","town_kana":"キタ","prefecture_code":5},"0443":{"zip_code":"0100443","prefecture":"秋田県","prefecture_kana":"アキタケン","city":"南秋田郡大潟村","city_kana":"ミナミアキタグンオオガタムラ","town":"中央","town_kana":"チュウオウ","prefecture_code":5},"0454":{"zip_code":"0100454","prefecture":"秋田県","prefecture_kana":"アキタケン","city":"南秋田郡大潟村","city_kana":"ミナミアキタグンオオガタムラ","town":"中野","town_kana":"ナカノ","prefecture_code":5},"0445":{"zip_code":"0100445","prefecture":"秋田県","prefecture_kana":"アキタケン","city":"南秋田郡大潟村","city_kana":"ミナミアキタグンオオガタムラ","town":"西","town_kana":"ニシ","prefecture_code":5},"0455":{"zip_code":"0100455","prefecture":"秋田県","prefecture_kana":"アキタケン","city":"南秋田郡大潟村","city_kana":"ミナミアキタグンオオガタムラ","town":"西野","town_kana":"ニシノ","prefecture_code":5},"0442":{"zip_code":"0100442","prefecture":"秋田県","prefecture_kana":"アキタケン","city":"南秋田郡大潟村","city_kana":"ミナミアキタグンオオガタムラ","town":"東","town_kana":"ヒガシ","prefecture_code":5},"0456":{"zip_code":"0100456","prefecture":"秋田県","prefecture_kana":"アキタケン","city":"南秋田郡大潟村","city_kana":"ミナミアキタグンオオガタムラ","town":"東野","town_kana":"ヒガシノ","prefecture_code":5},"0444":{"zip_code":"0100444","prefecture":"秋田県","prefecture_kana":"アキタケン","city":"南秋田郡大潟村","city_kana":"ミナミアキタグンオオガタムラ","town":"南","town_kana":"ミナミ","prefecture_code":5}}