{"0000":{"zip_code":"0120000","prefecture":"秋田県","prefecture_kana":"アキタケン","city":"湯沢市","city_kana":"ユザワシ","town":"","town_kana":"","prefecture_code":5},"0024":{"zip_code":"0120024","prefecture":"秋田県","prefecture_kana":"アキタケン","city":"湯沢市","city_kana":"ユザワシ","town":"赤土","town_kana":"アカツチ","prefecture_code":5},"0855":{"zip_code":"0120855","prefecture":"秋田県","prefecture_kana":"アキタケン","city":"湯沢市","city_kana":"ユザワシ","town":"愛宕町","town_kana":"アタゴチョウ","prefecture_code":5},"0042":{"zip_code":"0120042","prefecture":"秋田県","prefecture_kana":"アキタケン","city":"湯沢市","city_kana":"ユザワシ","town":"小豆田","town_kana":"アヅキタ","prefecture_code":5},"0852":{"zip_code":"0120852","prefecture":"秋田県","prefecture_kana":"アキタケン","city":"湯沢市","city_kana":"ユザワシ","town":"荒町","town_kana":"アラマチ","prefecture_code":5},"0062":{"zip_code":"0120062","prefecture":"秋田県","prefecture_kana":"アキタケン","city":"湯沢市","city_kana":"ユザワシ","town":"石塚","town_kana":"イシヅカ","prefecture_code":5},"0107":{"zip_code":"0120107","prefecture":"秋田県","prefecture_kana":"アキタケン","city":"湯沢市","city_kana":"ユザワシ","town":"稲庭町","town_kana":"イナニワチョウ","prefecture_code":5},"0022":{"zip_code":"0120022","prefecture":"秋田県","prefecture_kana":"アキタケン","city":"湯沢市","city_kana":"ユザワシ","town":"祝田","town_kana":"イワイダ","prefecture_code":5},"0801":{"zip_code":"0120801","prefecture":"秋田県","prefecture_kana":"アキタケン","city":"湯沢市","city_kana":"ユザワシ","town":"岩崎","town_kana":"イワサキ","prefecture_code":5},"0834":{"zip_code":"0120834","prefecture":"秋田県","prefecture_kana":"アキタケン","city":"湯沢市","city_kana":"ユザワシ","town":"岩ノ沢山","town_kana":"イワノサワヤマ","prefecture_code":5},"0842":{"zip_code":"0120842","prefecture":"秋田県","prefecture_kana":"アキタケン","city":"湯沢市","city_kana":"ユザワシ","town":"内舘町","town_kana":"ウチダテマチ","prefecture_code":5},"0843":{"zip_code":"0120843","prefecture":"秋田県","prefecture_kana":"アキタケン","city":"湯沢市","city_kana":"ユザワシ","town":"内町","town_kana":"ウチマチ","prefecture_code":5},"0824":[{"zip_code":"0120824","prefecture":"秋田県","prefecture_kana":"アキタケン","city":"湯沢市","city_kana":"ユザワシ","town":"裏門","town_kana":"ウラモン","prefecture_code":5},{"zip_code":"0120824","prefecture":"秋田県","prefecture_kana":"アキタケン","city":"湯沢市","city_kana":"ユザワシ","town":"佐竹町","town_kana":"サタケチョウ","prefecture_code":5}],"0014":{"zip_code":"0120014","prefecture":"秋田県","prefecture_kana":"アキタケン","city":"湯沢市","city_kana":"ユザワシ","town":"大倉谷地","town_kana":"オオクラヤチ","prefecture_code":5},"0026":{"zip_code":"0120026","prefecture":"秋田県","prefecture_kana":"アキタケン","city":"湯沢市","city_kana":"ユザワシ","town":"大島","town_kana":"オオシマ","prefecture_code":5},"0841":{"zip_code":"0120841","prefecture":"秋田県","prefecture_kana":"アキタケン","city":"湯沢市","city_kana":"ユザワシ","town":"大町","town_kana":"オオマチ","prefecture_code":5},"0012":{"zip_code":"0120012","prefecture":"秋田県","prefecture_kana":"アキタケン","city":"湯沢市","city_kana":"ユザワシ","town":"大森","town_kana":"オオモリ","prefecture_code":5},"0045":{"zip_code":"0120045","prefecture":"秋田県","prefecture_kana":"アキタケン","city":"湯沢市","city_kana":"ユザワシ","town":"岡田町","town_kana":"オカダマチ","prefecture_code":5},"0057":{"zip_code":"0120057","prefecture":"秋田県","prefecture_kana":"アキタケン","city":"湯沢市","city_kana":"ユザワシ","town":"雄勝田","town_kana":"オガチタ","prefecture_code":5},"0856":{"zip_code":"0120856","prefecture":"秋田県","prefecture_kana":"アキタケン","city":"湯沢市","city_kana":"ユザワシ","town":"御囲地町","town_kana":"オカチマチ","prefecture_code":5},"0023":{"zip_code":"0120023","prefecture":"秋田県","prefecture_kana":"アキタケン","city":"湯沢市","city_kana":"ユザワシ","town":"沖田","town_kana":"オキタ","prefecture_code":5},"0037":{"zip_code":"0120037","prefecture":"秋田県","prefecture_kana":"アキタケン","city":"湯沢市","city_kana":"ユザワシ","town":"沖鶴","town_kana":"オキツル","prefecture_code":5},"0827":{"zip_code":"0120827","prefecture":"秋田県","prefecture_kana":"アキタケン","city":"湯沢市","city_kana":"ユザワシ","town":"表町","town_kana":"オモテマチ","prefecture_code":5},"0001":{"zip_code":"0120001","prefecture":"秋田県","prefecture_kana":"アキタケン","city":"湯沢市","city_kana":"ユザワシ","town":"角間","town_kana":"カクマ","prefecture_code":5},"0831":{"zip_code":"0120831","prefecture":"秋田県","prefecture_kana":"アキタケン","city":"湯沢市","city_kana":"ユザワシ","town":"角間沢","town_kana":"カクマザワ","prefecture_code":5},"0833":{"zip_code":"0120833","prefecture":"秋田県","prefecture_kana":"アキタケン","city":"湯沢市","city_kana":"ユザワシ","town":"カツクイ沢山","town_kana":"カックイサワヤマ","prefecture_code":5},"0005":{"zip_code":"0120005","prefecture":"秋田県","prefecture_kana":"アキタケン","city":"湯沢市","city_kana":"ユザワシ","town":"金谷","town_kana":"カナヤ","prefecture_code":5},"0835":{"zip_code":"0120835","prefecture":"秋田県","prefecture_kana":"アキタケン","city":"湯沢市","city_kana":"ユザワシ","town":"鉦打沢","town_kana":"カネウチザワ","prefecture_code":5},"0836":{"zip_code":"0120836","prefecture":"秋田県","prefecture_kana":"アキタケン","city":"湯沢市","city_kana":"ユザワシ","town":"金堀沢山","town_kana":"カネホリザワヤマ","prefecture_code":5},"0864":{"zip_code":"0120864","prefecture":"秋田県","prefecture_kana":"アキタケン","city":"湯沢市","city_kana":"ユザワシ","town":"上関","town_kana":"カミセキ","prefecture_code":5},"0003":{"zip_code":"0120003","prefecture":"秋田県","prefecture_kana":"アキタケン","city":"湯沢市","city_kana":"ユザワシ","town":"上二井田","town_kana":"カミニイダ","prefecture_code":5},"0105":{"zip_code":"0120105","prefecture":"秋田県","prefecture_kana":"アキタケン","city":"湯沢市","city_kana":"ユザワシ","town":"川連町","town_kana":"カワツラチョウ","prefecture_code":5},"0825":{"zip_code":"0120825","prefecture":"秋田県","prefecture_kana":"アキタケン","city":"湯沢市","city_kana":"ユザワシ","town":"北荒町","town_kana":"キタアラマチ","prefecture_code":5},"0015":{"zip_code":"0120015","prefecture":"秋田県","prefecture_kana":"アキタケン","city":"湯沢市","city_kana":"ユザワシ","town":"倉内","town_kana":"クラウチ","prefecture_code":5},"0021":{"zip_code":"0120021","prefecture":"秋田県","prefecture_kana":"アキタケン","city":"湯沢市","city_kana":"ユザワシ","town":"黄金原","town_kana":"コガネハラ","prefecture_code":5},"0104":{"zip_code":"0120104","prefecture":"秋田県","prefecture_kana":"アキタケン","city":"湯沢市","city_kana":"ユザワシ","town":"駒形町","town_kana":"コマガタチョウ","prefecture_code":5},"0845":{"zip_code":"0120845","prefecture":"秋田県","prefecture_kana":"アキタケン","city":"湯沢市","city_kana":"ユザワシ","town":"材木町","town_kana":"ザイモクチョウ","prefecture_code":5},"0035":{"zip_code":"0120035","prefecture":"秋田県","prefecture_kana":"アキタケン","city":"湯沢市","city_kana":"ユザワシ","town":"幸町","town_kana":"サイワイチョウ","prefecture_code":5},"0013":{"zip_code":"0120013","prefecture":"秋田県","prefecture_kana":"アキタケン","city":"湯沢市","city_kana":"ユザワシ","town":"栄田","town_kana":"サカエダ","prefecture_code":5},"0811":{"zip_code":"0120811","prefecture":"秋田県","prefecture_kana":"アキタケン","city":"湯沢市","city_kana":"ユザワシ","town":"桜通り","town_kana":"サクラドオリ","prefecture_code":5},"0033":{"zip_code":"0120033","prefecture":"秋田県","prefecture_kana":"アキタケン","city":"湯沢市","city_kana":"ユザワシ","town":"清水町","town_kana":"シミズチョウ","prefecture_code":5},"0863":{"zip_code":"0120863","prefecture":"秋田県","prefecture_kana":"アキタケン","city":"湯沢市","city_kana":"ユザワシ","town":"下関","town_kana":"シモセキ","prefecture_code":5},"0052":{"zip_code":"0120052","prefecture":"秋田県","prefecture_kana":"アキタケン","city":"湯沢市","city_kana":"ユザワシ","town":"下中川原","town_kana":"シモナカガワラ","prefecture_code":5},"0002":{"zip_code":"0120002","prefecture":"秋田県","prefecture_kana":"アキタケン","city":"湯沢市","city_kana":"ユザワシ","town":"下二井田","town_kana":"シモニイダ","prefecture_code":5},"0822":{"zip_code":"0120822","prefecture":"秋田県","prefecture_kana":"アキタケン","city":"湯沢市","city_kana":"ユザワシ","town":"下山谷","town_kana":"シモヤマヤ","prefecture_code":5},"0853":{"zip_code":"0120853","prefecture":"秋田県","prefecture_kana":"アキタケン","city":"湯沢市","city_kana":"ユザワシ","town":"新町","town_kana":"シンチョウ","prefecture_code":5},"0804":{"zip_code":"0120804","prefecture":"秋田県","prefecture_kana":"アキタケン","city":"湯沢市","city_kana":"ユザワシ","town":"杉沢","town_kana":"スギサワ","prefecture_code":5},"0803":{"zip_code":"0120803","prefecture":"秋田県","prefecture_kana":"アキタケン","city":"湯沢市","city_kana":"ユザワシ","town":"杉沢新所","town_kana":"スギサワアラトコロ","prefecture_code":5},"0862":{"zip_code":"0120862","prefecture":"秋田県","prefecture_kana":"アキタケン","city":"湯沢市","city_kana":"ユザワシ","town":"関口","town_kana":"セキグチ","prefecture_code":5},"0016":{"zip_code":"0120016","prefecture":"秋田県","prefecture_kana":"アキタケン","city":"湯沢市","city_kana":"ユザワシ","town":"千刈","town_kana":"センガリ","prefecture_code":5},"0857":{"zip_code":"0120857","prefecture":"秋田県","prefecture_kana":"アキタケン","city":"湯沢市","city_kana":"ユザワシ","town":"千石町","town_kana":"センゴクチョウ","prefecture_code":5},"0814":{"zip_code":"0120814","prefecture":"秋田県","prefecture_kana":"アキタケン","city":"湯沢市","city_kana":"ユザワシ","town":"大工町","town_kana":"ダイクマチ","prefecture_code":5},"0008":{"zip_code":"0120008","prefecture":"秋田県","prefecture_kana":"アキタケン","city":"湯沢市","city_kana":"ユザワシ","town":"高前","town_kana":"タカマエ","prefecture_code":5},"0844":{"zip_code":"0120844","prefecture":"秋田県","prefecture_kana":"アキタケン","city":"湯沢市","city_kana":"ユザワシ","town":"田町","town_kana":"タマチ","prefecture_code":5},"0031":{"zip_code":"0120031","prefecture":"秋田県","prefecture_kana":"アキタケン","city":"湯沢市","city_kana":"ユザワシ","town":"鶴館","town_kana":"ツルダテ","prefecture_code":5},"0854":{"zip_code":"0120854","prefecture":"秋田県","prefecture_kana":"アキタケン","city":"湯沢市","city_kana":"ユザワシ","town":"鳶ケ沢山","town_kana":"トビガサワヤマ","prefecture_code":5},"0053":{"zip_code":"0120053","prefecture":"秋田県","prefecture_kana":"アキタケン","city":"湯沢市","city_kana":"ユザワシ","town":"中川原","town_kana":"ナカガワラ","prefecture_code":5},"0041":{"zip_code":"0120041","prefecture":"秋田県","prefecture_kana":"アキタケン","city":"湯沢市","city_kana":"ユザワシ","town":"中野","town_kana":"ナカノ","prefecture_code":5},"0044":{"zip_code":"0120044","prefecture":"秋田県","prefecture_kana":"アキタケン","city":"湯沢市","city_kana":"ユザワシ","town":"中野々目","town_kana":"ナカノノメ","prefecture_code":5},"0802":{"zip_code":"0120802","prefecture":"秋田県","prefecture_kana":"アキタケン","city":"湯沢市","city_kana":"ユザワシ","town":"成沢","town_kana":"ナリサワ","prefecture_code":5},"0004":{"zip_code":"0120004","prefecture":"秋田県","prefecture_kana":"アキタケン","city":"湯沢市","city_kana":"ユザワシ","town":"二井田","town_kana":"ニイダ","prefecture_code":5},"0868":{"zip_code":"0120868","prefecture":"秋田県","prefecture_kana":"アキタケン","city":"湯沢市","city_kana":"ユザワシ","town":"西愛宕町","town_kana":"ニシアタゴチョウ","prefecture_code":5},"0837":{"zip_code":"0120837","prefecture":"秋田県","prefecture_kana":"アキタケン","city":"湯沢市","city_kana":"ユザワシ","town":"西金堀沢山","town_kana":"ニシカネホリザワヤマ","prefecture_code":5},"0034":{"zip_code":"0120034","prefecture":"秋田県","prefecture_kana":"アキタケン","city":"湯沢市","city_kana":"ユザワシ","town":"西新町","town_kana":"ニシシンマチ","prefecture_code":5},"0054":{"zip_code":"0120054","prefecture":"秋田県","prefecture_kana":"アキタケン","city":"湯沢市","city_kana":"ユザワシ","town":"西中川原","town_kana":"ニシナカガワラ","prefecture_code":5},"0866":{"zip_code":"0120866","prefecture":"秋田県","prefecture_kana":"アキタケン","city":"湯沢市","city_kana":"ユザワシ","town":"西松沢","town_kana":"ニシマツザワ","prefecture_code":5},"0865":{"zip_code":"0120865","prefecture":"秋田県","prefecture_kana":"アキタケン","city":"湯沢市","city_kana":"ユザワシ","town":"沼樋","town_kana":"ヌマドイ","prefecture_code":5},"0812":{"zip_code":"0120812","prefecture":"秋田県","prefecture_kana":"アキタケン","city":"湯沢市","city_kana":"ユザワシ","town":"東赤土山","town_kana":"ヒガシアカツチヤマ","prefecture_code":5},"0861":{"zip_code":"0120861","prefecture":"秋田県","prefecture_kana":"アキタケン","city":"湯沢市","city_kana":"ユザワシ","town":"東松沢","town_kana":"ヒガシマツザワ","prefecture_code":5},"0832":{"zip_code":"0120832","prefecture":"秋田県","prefecture_kana":"アキタケン","city":"湯沢市","city_kana":"ユザワシ","town":"広沢山","town_kana":"ヒロサワヤマ","prefecture_code":5},"0051":{"zip_code":"0120051","prefecture":"秋田県","prefecture_kana":"アキタケン","city":"湯沢市","city_kana":"ユザワシ","town":"深堀","town_kana":"フカボリ","prefecture_code":5},"0056":{"zip_code":"0120056","prefecture":"秋田県","prefecture_kana":"アキタケン","city":"湯沢市","city_kana":"ユザワシ","town":"藤花","town_kana":"フジハナ","prefecture_code":5},"0017":{"zip_code":"0120017","prefecture":"秋田県","prefecture_kana":"アキタケン","city":"湯沢市","city_kana":"ユザワシ","town":"富士見","town_kana":"フジミ","prefecture_code":5},"0851":{"zip_code":"0120851","prefecture":"秋田県","prefecture_kana":"アキタケン","city":"湯沢市","city_kana":"ユザワシ","town":"吹張","town_kana":"フッパリ","prefecture_code":5},"0815":{"zip_code":"0120815","prefecture":"秋田県","prefecture_kana":"アキタケン","city":"湯沢市","city_kana":"ユザワシ","town":"古館町","town_kana":"フルダテマチ","prefecture_code":5},"0838":{"zip_code":"0120838","prefecture":"秋田県","prefecture_kana":"アキタケン","city":"湯沢市","city_kana":"ユザワシ","town":"蛇野","town_kana":"ヘビノ","prefecture_code":5},"0025":{"zip_code":"0120025","prefecture":"秋田県","prefecture_kana":"アキタケン","city":"湯沢市","city_kana":"ユザワシ","town":"前島","town_kana":"マエジマ","prefecture_code":5},"0813":{"zip_code":"0120813","prefecture":"秋田県","prefecture_kana":"アキタケン","city":"湯沢市","city_kana":"ユザワシ","town":"前森","town_kana":"マエモリ","prefecture_code":5},"0061":{"zip_code":"0120061","prefecture":"秋田県","prefecture_kana":"アキタケン","city":"湯沢市","city_kana":"ユザワシ","town":"松岡","town_kana":"マツオカ","prefecture_code":5},"0043":{"zip_code":"0120043","prefecture":"秋田県","prefecture_kana":"アキタケン","city":"湯沢市","city_kana":"ユザワシ","town":"万石","town_kana":"マンゴク","prefecture_code":5},"0106":{"zip_code":"0120106","prefecture":"秋田県","prefecture_kana":"アキタケン","city":"湯沢市","city_kana":"ユザワシ","town":"三梨町","town_kana":"ミツナシチョウ","prefecture_code":5},"0183":{"zip_code":"0120183","prefecture":"秋田県","prefecture_kana":"アキタケン","city":"湯沢市","city_kana":"ユザワシ","town":"皆瀬","town_kana":"ミナセ","prefecture_code":5},"0867":{"zip_code":"0120867","prefecture":"秋田県","prefecture_kana":"アキタケン","city":"湯沢市","city_kana":"ユザワシ","town":"南台","town_kana":"ミナミダイ","prefecture_code":5},"0032":{"zip_code":"0120032","prefecture":"秋田県","prefecture_kana":"アキタケン","city":"湯沢市","city_kana":"ユザワシ","town":"元清水","town_kana":"モトシミズ","prefecture_code":5},"0011":{"zip_code":"0120011","prefecture":"秋田県","prefecture_kana":"アキタケン","city":"湯沢市","city_kana":"ユザワシ","town":"森","town_kana":"モリ","prefecture_code":5},"0006":{"zip_code":"0120006","prefecture":"秋田県","prefecture_kana":"アキタケン","city":"湯沢市","city_kana":"ユザワシ","town":"柳田","town_kana":"ヤナギダ","prefecture_code":5},"0826":{"zip_code":"0120826","prefecture":"秋田県","prefecture_kana":"アキタケン","city":"湯沢市","city_kana":"ユザワシ","town":"柳町","town_kana":"ヤナギマチ","prefecture_code":5},"0055":{"zip_code":"0120055","prefecture":"秋田県","prefecture_kana":"アキタケン","city":"湯沢市","city_kana":"ユザワシ","town":"山田","town_kana":"ヤマダ","prefecture_code":5},"0821":{"zip_code":"0120821","prefecture":"秋田県","prefecture_kana":"アキタケン","city":"湯沢市","city_kana":"ユザワシ","town":"山谷","town_kana":"ヤマヤ","prefecture_code":5},"0007":{"zip_code":"0120007","prefecture":"秋田県","prefecture_kana":"アキタケン","city":"湯沢市","city_kana":"ユザワシ","town":"八幡","town_kana":"ヤワタ","prefecture_code":5},"0823":[{"zip_code":"0120823","prefecture":"秋田県","prefecture_kana":"アキタケン","city":"湯沢市","city_kana":"ユザワシ","town":"湯ノ上山","town_kana":"ユノカミヤマ","prefecture_code":5},{"zip_code":"0120823","prefecture":"秋田県","prefecture_kana":"アキタケン","city":"湯沢市","city_kana":"ユザワシ","town":"湯ノ原","town_kana":"ユノハラ","prefecture_code":5}],"0036":{"zip_code":"0120036","prefecture":"秋田県","prefecture_kana":"アキタケン","city":"湯沢市","city_kana":"ユザワシ","town":"両神","town_kana":"リョウジン","prefecture_code":5},"0869":{"zip_code":"0120869","prefecture":"秋田県","prefecture_kana":"アキタケン","city":"湯沢市","city_kana":"ユザワシ","town":"若葉町","town_kana":"ワカバマチ","prefecture_code":5},"1100":{"zip_code":"0121100","prefecture":"秋田県","prefecture_kana":"アキタケン","city":"雄勝郡羽後町","city_kana":"オガチグンウゴマチ","town":"","town_kana":"","prefecture_code":5},"1124":{"zip_code":"0121124","prefecture":"秋田県","prefecture_kana":"アキタケン","city":"雄勝郡羽後町","city_kana":"オガチグンウゴマチ","town":"赤袴","town_kana":"アカバカマ","prefecture_code":5},"1136":{"zip_code":"0121136","prefecture":"秋田県","prefecture_kana":"アキタケン","city":"雄勝郡羽後町","city_kana":"オガチグンウゴマチ","town":"飯沢","town_kana":"イイザワ","prefecture_code":5},"1121":{"zip_code":"0121121","prefecture":"秋田県","prefecture_kana":"アキタケン","city":"雄勝郡羽後町","city_kana":"オガチグンウゴマチ","town":"大久保","town_kana":"オオクボ","prefecture_code":5},"1101":{"zip_code":"0121101","prefecture":"秋田県","prefecture_kana":"アキタケン","city":"雄勝郡羽後町","city_kana":"オガチグンウゴマチ","town":"大沢","town_kana":"オオサワ","prefecture_code":5},"1132":{"zip_code":"0121132","prefecture":"秋田県","prefecture_kana":"アキタケン","city":"雄勝郡羽後町","city_kana":"オガチグンウゴマチ","town":"大戸","town_kana":"オオド","prefecture_code":5},"1123":{"zip_code":"0121123","prefecture":"秋田県","prefecture_kana":"アキタケン","city":"雄勝郡羽後町","city_kana":"オガチグンウゴマチ","town":"貝沢","town_kana":"カイザワ","prefecture_code":5},"1122":{"zip_code":"0121122","prefecture":"秋田県","prefecture_kana":"アキタケン","city":"雄勝郡羽後町","city_kana":"オガチグンウゴマチ","town":"柏原","town_kana":"カシワバラ","prefecture_code":5},"1353":{"zip_code":"0121353","prefecture":"秋田県","prefecture_kana":"アキタケン","city":"雄勝郡羽後町","city_kana":"オガチグンウゴマチ","town":"上仙道","town_kana":"カミセンドウ","prefecture_code":5},"1242":{"zip_code":"0121242","prefecture":"秋田県","prefecture_kana":"アキタケン","city":"雄勝郡羽後町","city_kana":"オガチグンウゴマチ","town":"上到米","town_kana":"カミトウマイ","prefecture_code":5},"1243":{"zip_code":"0121243","prefecture":"秋田県","prefecture_kana":"アキタケン","city":"雄勝郡羽後町","city_kana":"オガチグンウゴマチ","town":"軽井沢","town_kana":"カルイザワ","prefecture_code":5},"1113":{"zip_code":"0121113","prefecture":"秋田県","prefecture_kana":"アキタケン","city":"雄勝郡羽後町","city_kana":"オガチグンウゴマチ","town":"郡山","town_kana":"コオリヤマ","prefecture_code":5},"1135":{"zip_code":"0121135","prefecture":"秋田県","prefecture_kana":"アキタケン","city":"雄勝郡羽後町","city_kana":"オガチグンウゴマチ","town":"鹿内","town_kana":"シカナイ","prefecture_code":5},"1111":{"zip_code":"0121111","prefecture":"秋田県","prefecture_kana":"アキタケン","city":"雄勝郡羽後町","city_kana":"オガチグンウゴマチ","town":"嶋田新田","town_kana":"シマダシンデン","prefecture_code":5},"1351":{"zip_code":"0121351","prefecture":"秋田県","prefecture_kana":"アキタケン","city":"雄勝郡羽後町","city_kana":"オガチグンウゴマチ","town":"下仙道","town_kana":"シモセンドウ","prefecture_code":5},"1102":{"zip_code":"0121102","prefecture":"秋田県","prefecture_kana":"アキタケン","city":"雄勝郡羽後町","city_kana":"オガチグンウゴマチ","town":"新町","town_kana":"シンマチ","prefecture_code":5},"1126":{"zip_code":"0121126","prefecture":"秋田県","prefecture_kana":"アキタケン","city":"雄勝郡羽後町","city_kana":"オガチグンウゴマチ","town":"杉宮","town_kana":"スギノミヤ","prefecture_code":5},"1116":{"zip_code":"0121116","prefecture":"秋田県","prefecture_kana":"アキタケン","city":"雄勝郡羽後町","city_kana":"オガチグンウゴマチ","town":"高尾田","town_kana":"タコウダ","prefecture_code":5},"1134":{"zip_code":"0121134","prefecture":"秋田県","prefecture_kana":"アキタケン","city":"雄勝郡羽後町","city_kana":"オガチグンウゴマチ","town":"田沢","town_kana":"タザワ","prefecture_code":5},"1241":{"zip_code":"0121241","prefecture":"秋田県","prefecture_kana":"アキタケン","city":"雄勝郡羽後町","city_kana":"オガチグンウゴマチ","town":"田代","town_kana":"タシロ","prefecture_code":5},"1115":{"zip_code":"0121115","prefecture":"秋田県","prefecture_kana":"アキタケン","city":"雄勝郡羽後町","city_kana":"オガチグンウゴマチ","town":"足田","town_kana":"タラダ","prefecture_code":5},"1133":{"zip_code":"0121133","prefecture":"秋田県","prefecture_kana":"アキタケン","city":"雄勝郡羽後町","city_kana":"オガチグンウゴマチ","town":"床舞","town_kana":"トコマイ","prefecture_code":5},"1352":{"zip_code":"0121352","prefecture":"秋田県","prefecture_kana":"アキタケン","city":"雄勝郡羽後町","city_kana":"オガチグンウゴマチ","town":"中仙道","town_kana":"ナカセンドウ","prefecture_code":5},"1131":{"zip_code":"0121131","prefecture":"秋田県","prefecture_kana":"アキタケン","city":"雄勝郡羽後町","city_kana":"オガチグンウゴマチ","town":"西馬音内","town_kana":"ニシモナイ","prefecture_code":5},"1137":{"zip_code":"0121137","prefecture":"秋田県","prefecture_kana":"アキタケン","city":"雄勝郡羽後町","city_kana":"オガチグンウゴマチ","town":"西馬音内堀回","town_kana":"ニシモナイホリマワリ","prefecture_code":5},"1114":{"zip_code":"0121114","prefecture":"秋田県","prefecture_kana":"アキタケン","city":"雄勝郡羽後町","city_kana":"オガチグンウゴマチ","town":"糠塚","town_kana":"ヌカヅカ","prefecture_code":5},"1125":{"zip_code":"0121125","prefecture":"秋田県","prefecture_kana":"アキタケン","city":"雄勝郡羽後町","city_kana":"オガチグンウゴマチ","town":"野中","town_kana":"ノナカ","prefecture_code":5},"1103":{"zip_code":"0121103","prefecture":"秋田県","prefecture_kana":"アキタケン","city":"雄勝郡羽後町","city_kana":"オガチグンウゴマチ","town":"林崎","town_kana":"ハヤシザキ","prefecture_code":5},"1106":{"zip_code":"0121106","prefecture":"秋田県","prefecture_kana":"アキタケン","city":"雄勝郡羽後町","city_kana":"オガチグンウゴマチ","town":"払体","town_kana":"ホッタイ","prefecture_code":5},"1104":{"zip_code":"0121104","prefecture":"秋田県","prefecture_kana":"アキタケン","city":"雄勝郡羽後町","city_kana":"オガチグンウゴマチ","town":"堀内","town_kana":"ホリウチ","prefecture_code":5},"1105":{"zip_code":"0121105","prefecture":"秋田県","prefecture_kana":"アキタケン","city":"雄勝郡羽後町","city_kana":"オガチグンウゴマチ","town":"水沢","town_kana":"ミズサワ","prefecture_code":5},"1112":{"zip_code":"0121112","prefecture":"秋田県","prefecture_kana":"アキタケン","city":"雄勝郡羽後町","city_kana":"オガチグンウゴマチ","town":"睦合","town_kana":"ムツアイ","prefecture_code":5}}