{"0000":{"zip_code":"0130000","prefecture":"秋田県","prefecture_kana":"アキタケン","city":"横手市","city_kana":"ヨコテシ","town":"","town_kana":"","prefecture_code":5},"0073":{"zip_code":"0130073","prefecture":"秋田県","prefecture_kana":"アキタケン","city":"横手市","city_kana":"ヨコテシ","town":"赤川","town_kana":"アカガワ","prefecture_code":5},"0064":{"zip_code":"0130064","prefecture":"秋田県","prefecture_kana":"アキタケン","city":"横手市","city_kana":"ヨコテシ","town":"赤坂","town_kana":"アカサカ","prefecture_code":5},"0028":{"zip_code":"0130028","prefecture":"秋田県","prefecture_kana":"アキタケン","city":"横手市","city_kana":"ヨコテシ","town":"朝倉町","town_kana":"アサクラチョウ","prefecture_code":5},"0033":{"zip_code":"0130033","prefecture":"秋田県","prefecture_kana":"アキタケン","city":"横手市","city_kana":"ヨコテシ","town":"旭川","town_kana":"アサヒカワ","prefecture_code":5},"0055":{"zip_code":"0130055","prefecture":"秋田県","prefecture_kana":"アキタケン","city":"横手市","city_kana":"ヨコテシ","town":"朝日が丘","town_kana":"アサヒガオカ","prefecture_code":5},"0065":{"zip_code":"0130065","prefecture":"秋田県","prefecture_kana":"アキタケン","city":"横手市","city_kana":"ヨコテシ","town":"猪岡","town_kana":"イノオカ","prefecture_code":5},"0068":{"zip_code":"0130068","prefecture":"秋田県","prefecture_kana":"アキタケン","city":"横手市","city_kana":"ヨコテシ","town":"梅の木町","town_kana":"ウメノキマチ","prefecture_code":5},"0036":{"zip_code":"0130036","prefecture":"秋田県","prefecture_kana":"アキタケン","city":"横手市","city_kana":"ヨコテシ","town":"駅前町","town_kana":"エキマエチョウ","prefecture_code":5},"0062":{"zip_code":"0130062","prefecture":"秋田県","prefecture_kana":"アキタケン","city":"横手市","city_kana":"ヨコテシ","town":"駅南","town_kana":"エキミナミ","prefecture_code":5},"0002":{"zip_code":"0130002","prefecture":"秋田県","prefecture_kana":"アキタケン","city":"横手市","city_kana":"ヨコテシ","town":"追廻","town_kana":"オイマワシ","prefecture_code":5},"0041":{"zip_code":"0130041","prefecture":"秋田県","prefecture_kana":"アキタケン","city":"横手市","city_kana":"ヨコテシ","town":"大沢","town_kana":"オオサワ","prefecture_code":5},"0007":{"zip_code":"0130007","prefecture":"秋田県","prefecture_kana":"アキタケン","city":"横手市","city_kana":"ヨコテシ","town":"大鳥町","town_kana":"オオトリマチ","prefecture_code":5},"0021":{"zip_code":"0130021","prefecture":"秋田県","prefecture_kana":"アキタケン","city":"横手市","city_kana":"ヨコテシ","town":"大町","town_kana":"オオマチ","prefecture_code":5},"0026":{"zip_code":"0130026","prefecture":"秋田県","prefecture_kana":"アキタケン","city":"横手市","city_kana":"ヨコテシ","town":"大水戸町","town_kana":"オオミドマチ","prefecture_code":5},"0501":{"zip_code":"0130501","prefecture":"秋田県","prefecture_kana":"アキタケン","city":"横手市","city_kana":"ヨコテシ","town":"大森町板井田","town_kana":"オオモリマチイタイダ","prefecture_code":5},"0546":{"zip_code":"0130546","prefecture":"秋田県","prefecture_kana":"アキタケン","city":"横手市","city_kana":"ヨコテシ","town":"大森町牛ケ沢","town_kana":"オオモリマチウシガサワ","prefecture_code":5},"0511":{"zip_code":"0130511","prefecture":"秋田県","prefecture_kana":"アキタケン","city":"横手市","city_kana":"ヨコテシ","town":"大森町牛中島","town_kana":"オオモリマチウシナカジマ","prefecture_code":5},"0552":{"zip_code":"0130552","prefecture":"秋田県","prefecture_kana":"アキタケン","city":"横手市","city_kana":"ヨコテシ","town":"大森町上溝","town_kana":"オオモリマチウワミゾ","prefecture_code":5},"0514":{"zip_code":"0130514","prefecture":"秋田県","prefecture_kana":"アキタケン","city":"横手市","city_kana":"ヨコテシ","town":"大森町大中島","town_kana":"オオモリマチオオナカジマ","prefecture_code":5},"0521":{"zip_code":"0130521","prefecture":"秋田県","prefecture_kana":"アキタケン","city":"横手市","city_kana":"ヨコテシ","town":"大森町大森","town_kana":"オオモリマチオオモリ","prefecture_code":5},"0532":{"zip_code":"0130532","prefecture":"秋田県","prefecture_kana":"アキタケン","city":"横手市","city_kana":"ヨコテシ","town":"大森町久保","town_kana":"オオモリマチクボ","prefecture_code":5},"0562":{"zip_code":"0130562","prefecture":"秋田県","prefecture_kana":"アキタケン","city":"横手市","city_kana":"ヨコテシ","town":"大森町坂部","town_kana":"オオモリマチサカベ","prefecture_code":5},"0531":{"zip_code":"0130531","prefecture":"秋田県","prefecture_kana":"アキタケン","city":"横手市","city_kana":"ヨコテシ","town":"大森町佐渡","town_kana":"オオモリマチサド","prefecture_code":5},"0551":{"zip_code":"0130551","prefecture":"秋田県","prefecture_kana":"アキタケン","city":"横手市","city_kana":"ヨコテシ","town":"大森町猿田","town_kana":"オオモリマチサルタ","prefecture_code":5},"0524":{"zip_code":"0130524","prefecture":"秋田県","prefecture_kana":"アキタケン","city":"横手市","city_kana":"ヨコテシ","town":"大森町清水上","town_kana":"オオモリマチシミズノウエ","prefecture_code":5},"0536":{"zip_code":"0130536","prefecture":"秋田県","prefecture_kana":"アキタケン","city":"横手市","city_kana":"ヨコテシ","town":"大森町真山","town_kana":"オオモリマチシンザン","prefecture_code":5},"0525":{"zip_code":"0130525","prefecture":"秋田県","prefecture_kana":"アキタケン","city":"横手市","city_kana":"ヨコテシ","town":"大森町菅生田","town_kana":"オオモリマチスゴウタ","prefecture_code":5},"0517":{"zip_code":"0130517","prefecture":"秋田県","prefecture_kana":"アキタケン","city":"横手市","city_kana":"ヨコテシ","town":"大森町高口下水戸堤","town_kana":"オオモリマチタカクチシタミトツツミ","prefecture_code":5},"0542":{"zip_code":"0130542","prefecture":"秋田県","prefecture_kana":"アキタケン","city":"横手市","city_kana":"ヨコテシ","town":"大森町高野中島","town_kana":"オオモリマチタカノナカジマ","prefecture_code":5},"0544":{"zip_code":"0130544","prefecture":"秋田県","prefecture_kana":"アキタケン","city":"横手市","city_kana":"ヨコテシ","town":"大森町長助巻","town_kana":"オオモリマチチョウスケマキ","prefecture_code":5},"0534":{"zip_code":"0130534","prefecture":"秋田県","prefecture_kana":"アキタケン","city":"横手市","city_kana":"ヨコテシ","town":"大森町峠町頭","town_kana":"オオモリマチトウゲマチガシラ","prefecture_code":5},"0523":{"zip_code":"0130523","prefecture":"秋田県","prefecture_kana":"アキタケン","city":"横手市","city_kana":"ヨコテシ","town":"大森町堂林","town_kana":"オオモリマチドウバヤシ","prefecture_code":5},"0503":{"zip_code":"0130503","prefecture":"秋田県","prefecture_kana":"アキタケン","city":"横手市","city_kana":"ヨコテシ","town":"大森町十日町","town_kana":"オオモリマチトオカマチ","prefecture_code":5},"0545":{"zip_code":"0130545","prefecture":"秋田県","prefecture_kana":"アキタケン","city":"横手市","city_kana":"ヨコテシ","town":"大森町鯲沼","town_kana":"オオモリマチドジョウヌマ","prefecture_code":5},"0541":{"zip_code":"0130541","prefecture":"秋田県","prefecture_kana":"アキタケン","city":"横手市","city_kana":"ヨコテシ","town":"大森町中嶋","town_kana":"オオモリマチナカジマ","prefecture_code":5},"0533":{"zip_code":"0130533","prefecture":"秋田県","prefecture_kana":"アキタケン","city":"横手市","city_kana":"ヨコテシ","town":"大森町中田","town_kana":"オオモリマチナカタ","prefecture_code":5},"0515":{"zip_code":"0130515","prefecture":"秋田県","prefecture_kana":"アキタケン","city":"横手市","city_kana":"ヨコテシ","town":"大森町西中島","town_kana":"オオモリマチニシナカジマ","prefecture_code":5},"0526":{"zip_code":"0130526","prefecture":"秋田県","prefecture_kana":"アキタケン","city":"横手市","city_kana":"ヨコテシ","town":"大森町西野","town_kana":"オオモリマチニシノ","prefecture_code":5},"0502":{"zip_code":"0130502","prefecture":"秋田県","prefecture_kana":"アキタケン","city":"横手市","city_kana":"ヨコテシ","town":"大森町袴形","town_kana":"オオモリマチハカマガタ","prefecture_code":5},"0516":{"zip_code":"0130516","prefecture":"秋田県","prefecture_kana":"アキタケン","city":"横手市","city_kana":"ヨコテシ","town":"大森町東中島","town_kana":"オオモリマチヒガシナカジマ","prefecture_code":5},"0543":{"zip_code":"0130543","prefecture":"秋田県","prefecture_kana":"アキタケン","city":"横手市","city_kana":"ヨコテシ","town":"大森町本郷","town_kana":"オオモリマチホンゴウ","prefecture_code":5},"0535":{"zip_code":"0130535","prefecture":"秋田県","prefecture_kana":"アキタケン","city":"横手市","city_kana":"ヨコテシ","town":"大森町町田","town_kana":"オオモリマチマチダ","prefecture_code":5},"0522":{"zip_code":"0130522","prefecture":"秋田県","prefecture_kana":"アキタケン","city":"横手市","city_kana":"ヨコテシ","town":"大森町町回","town_kana":"オオモリマチマチマワリ","prefecture_code":5},"0519":{"zip_code":"0130519","prefecture":"秋田県","prefecture_kana":"アキタケン","city":"横手市","city_kana":"ヨコテシ","town":"大森町持向","town_kana":"オオモリマチモチムカイ","prefecture_code":5},"0518":{"zip_code":"0130518","prefecture":"秋田県","prefecture_kana":"アキタケン","city":"横手市","city_kana":"ヨコテシ","town":"大森町文天鏡田","town_kana":"オオモリマチモンテンカガミダ","prefecture_code":5},"0561":{"zip_code":"0130561","prefecture":"秋田県","prefecture_kana":"アキタケン","city":"横手市","city_kana":"ヨコテシ","town":"大森町八沢木","town_kana":"オオモリマチヤサワギ","prefecture_code":5},"0512":{"zip_code":"0130512","prefecture":"秋田県","prefecture_kana":"アキタケン","city":"横手市","city_kana":"ヨコテシ","town":"大森町湯ノ沢","town_kana":"オオモリマチユノサワ","prefecture_code":5},"0513":{"zip_code":"0130513","prefecture":"秋田県","prefecture_kana":"アキタケン","city":"横手市","city_kana":"ヨコテシ","town":"大森町湯ノ島","town_kana":"オオモリマチユノシマ","prefecture_code":5},"0051":{"zip_code":"0130051","prefecture":"秋田県","prefecture_kana":"アキタケン","city":"横手市","city_kana":"ヨコテシ","town":"大屋新町","town_kana":"オオヤシンマチ","prefecture_code":5},"0052":{"zip_code":"0130052","prefecture":"秋田県","prefecture_kana":"アキタケン","city":"横手市","city_kana":"ヨコテシ","town":"大屋寺内","town_kana":"オオヤテラウチ","prefecture_code":5},"0201":{"zip_code":"0130201","prefecture":"秋田県","prefecture_kana":"アキタケン","city":"横手市","city_kana":"ヨコテシ","town":"雄物川町会塚","town_kana":"オモノガワマチアイヅカ","prefecture_code":5},"0205":{"zip_code":"0130205","prefecture":"秋田県","prefecture_kana":"アキタケン","city":"横手市","city_kana":"ヨコテシ","town":"雄物川町今宿","town_kana":"オモノガワマチイマシュク","prefecture_code":5},"0481":{"zip_code":"0130481","prefecture":"秋田県","prefecture_kana":"アキタケン","city":"横手市","city_kana":"ヨコテシ","town":"雄物川町薄井","town_kana":"オモノガワマチウスイ","prefecture_code":5},"0218":{"zip_code":"0130218","prefecture":"秋田県","prefecture_kana":"アキタケン","city":"横手市","city_kana":"ヨコテシ","town":"雄物川町大沢","town_kana":"オモノガワマチオオサワ","prefecture_code":5},"0214":{"zip_code":"0130214","prefecture":"秋田県","prefecture_kana":"アキタケン","city":"横手市","city_kana":"ヨコテシ","town":"雄物川町柏木","town_kana":"オモノガワマチカシワギ","prefecture_code":5},"0215":{"zip_code":"0130215","prefecture":"秋田県","prefecture_kana":"アキタケン","city":"横手市","city_kana":"ヨコテシ","town":"雄物川町常野","town_kana":"オモノガワマチジョウノ","prefecture_code":5},"0202":{"zip_code":"0130202","prefecture":"秋田県","prefecture_kana":"アキタケン","city":"横手市","city_kana":"ヨコテシ","town":"雄物川町砂子田","town_kana":"オモノガワマチスナゴタ","prefecture_code":5},"0212":{"zip_code":"0130212","prefecture":"秋田県","prefecture_kana":"アキタケン","city":"横手市","city_kana":"ヨコテシ","town":"雄物川町造山","town_kana":"オモノガワマチツクリヤマ","prefecture_code":5},"0203":{"zip_code":"0130203","prefecture":"秋田県","prefecture_kana":"アキタケン","city":"横手市","city_kana":"ヨコテシ","town":"雄物川町東里","town_kana":"オモノガワマチトウサト","prefecture_code":5},"0217":{"zip_code":"0130217","prefecture":"秋田県","prefecture_kana":"アキタケン","city":"横手市","city_kana":"ヨコテシ","town":"雄物川町道地","town_kana":"オモノガワマチドウジ","prefecture_code":5},"0213":{"zip_code":"0130213","prefecture":"秋田県","prefecture_kana":"アキタケン","city":"横手市","city_kana":"ヨコテシ","town":"雄物川町南形","town_kana":"オモノガワマチナンカタ","prefecture_code":5},"0206":{"zip_code":"0130206","prefecture":"秋田県","prefecture_kana":"アキタケン","city":"横手市","city_kana":"ヨコテシ","town":"雄物川町二井山","town_kana":"オモノガワマチニイヤマ","prefecture_code":5},"0216":{"zip_code":"0130216","prefecture":"秋田県","prefecture_kana":"アキタケン","city":"横手市","city_kana":"ヨコテシ","town":"雄物川町西野","town_kana":"オモノガワマチニシノ","prefecture_code":5},"0208":{"zip_code":"0130208","prefecture":"秋田県","prefecture_kana":"アキタケン","city":"横手市","city_kana":"ヨコテシ","town":"雄物川町沼館","town_kana":"オモノガワマチヌマダテ","prefecture_code":5},"0211":{"zip_code":"0130211","prefecture":"秋田県","prefecture_kana":"アキタケン","city":"横手市","city_kana":"ヨコテシ","town":"雄物川町深井","town_kana":"オモノガワマチフカイ","prefecture_code":5},"0207":{"zip_code":"0130207","prefecture":"秋田県","prefecture_kana":"アキタケン","city":"横手市","city_kana":"ヨコテシ","town":"雄物川町矢神","town_kana":"オモノガワマチヤガミ","prefecture_code":5},"0204":{"zip_code":"0130204","prefecture":"秋田県","prefecture_kana":"アキタケン","city":"横手市","city_kana":"ヨコテシ","town":"雄物川町谷地新田","town_kana":"オモノガワマチヤチシンデン","prefecture_code":5},"0072":{"zip_code":"0130072","prefecture":"秋田県","prefecture_kana":"アキタケン","city":"横手市","city_kana":"ヨコテシ","town":"卸町","town_kana":"オロシマチ","prefecture_code":5},"0031":{"zip_code":"0130031","prefecture":"秋田県","prefecture_kana":"アキタケン","city":"横手市","city_kana":"ヨコテシ","town":"鍛冶町","town_kana":"カジマチ","prefecture_code":5},"0813":{"zip_code":"0130813","prefecture":"秋田県","prefecture_kana":"アキタケン","city":"横手市","city_kana":"ヨコテシ","town":"金沢","town_kana":"カネザワ","prefecture_code":5},"0814":{"zip_code":"0130814","prefecture":"秋田県","prefecture_kana":"アキタケン","city":"横手市","city_kana":"ヨコテシ","town":"金沢中野","town_kana":"カネザワナカノ","prefecture_code":5},"0812":{"zip_code":"0130812","prefecture":"秋田県","prefecture_kana":"アキタケン","city":"横手市","city_kana":"ヨコテシ","town":"金沢本町","town_kana":"カネザワモトマチ","prefecture_code":5},"0014":{"zip_code":"0130014","prefecture":"秋田県","prefecture_kana":"アキタケン","city":"横手市","city_kana":"ヨコテシ","town":"上内町","town_kana":"カミウチマチ","prefecture_code":5},"0821":{"zip_code":"0130821","prefecture":"秋田県","prefecture_kana":"アキタケン","city":"横手市","city_kana":"ヨコテシ","town":"上境","town_kana":"カミザカイ","prefecture_code":5},"0822":{"zip_code":"0130822","prefecture":"秋田県","prefecture_kana":"アキタケン","city":"横手市","city_kana":"ヨコテシ","town":"上八丁","town_kana":"カミハッチョウ","prefecture_code":5},"0032":{"zip_code":"0130032","prefecture":"秋田県","prefecture_kana":"アキタケン","city":"横手市","city_kana":"ヨコテシ","town":"清川町","town_kana":"キヨカワチョウ","prefecture_code":5},"0826":{"zip_code":"0130826","prefecture":"秋田県","prefecture_kana":"アキタケン","city":"横手市","city_kana":"ヨコテシ","town":"黒川","town_kana":"クロカワ","prefecture_code":5},"0025":{"zip_code":"0130025","prefecture":"秋田県","prefecture_kana":"アキタケン","city":"横手市","city_kana":"ヨコテシ","town":"寿町","town_kana":"コトブキチョウ","prefecture_code":5},"0005":{"zip_code":"0130005","prefecture":"秋田県","prefecture_kana":"アキタケン","city":"横手市","city_kana":"ヨコテシ","town":"幸町","town_kana":"サイワイチョウ","prefecture_code":5},"0074":{"zip_code":"0130074","prefecture":"秋田県","prefecture_kana":"アキタケン","city":"横手市","city_kana":"ヨコテシ","town":"三本柳","town_kana":"サンボンヤナギ","prefecture_code":5},"0069":{"zip_code":"0130069","prefecture":"秋田県","prefecture_kana":"アキタケン","city":"横手市","city_kana":"ヨコテシ","town":"三枚橋","town_kana":"サンマイバシ","prefecture_code":5},"0075":{"zip_code":"0130075","prefecture":"秋田県","prefecture_kana":"アキタケン","city":"横手市","city_kana":"ヨコテシ","town":"静町","town_kana":"シズカマチ","prefecture_code":5},"0056":{"zip_code":"0130056","prefecture":"秋田県","prefecture_kana":"アキタケン","city":"横手市","city_kana":"ヨコテシ","town":"清水町新田","town_kana":"シミズマチシンデン","prefecture_code":5},"0824":{"zip_code":"0130824","prefecture":"秋田県","prefecture_kana":"アキタケン","city":"横手市","city_kana":"ヨコテシ","town":"下境","town_kana":"シモザカイ","prefecture_code":5},"0823":{"zip_code":"0130823","prefecture":"秋田県","prefecture_kana":"アキタケン","city":"横手市","city_kana":"ヨコテシ","town":"下八丁","town_kana":"シモハッチョウ","prefecture_code":5},"0017":{"zip_code":"0130017","prefecture":"秋田県","prefecture_kana":"アキタケン","city":"横手市","city_kana":"ヨコテシ","town":"蛇の崎町","town_kana":"ジャノサキマチ","prefecture_code":5},"0060":{"zip_code":"0130060","prefecture":"秋田県","prefecture_kana":"アキタケン","city":"横手市","city_kana":"ヨコテシ","town":"条里","town_kana":"ジョウリ","prefecture_code":5},"0011":{"zip_code":"0130011","prefecture":"秋田県","prefecture_kana":"アキタケン","city":"横手市","city_kana":"ヨコテシ","town":"城西町","town_kana":"シロニシマチ","prefecture_code":5},"0013":{"zip_code":"0130013","prefecture":"秋田県","prefecture_kana":"アキタケン","city":"横手市","city_kana":"ヨコテシ","town":"城南町","town_kana":"シロミナミマチ","prefecture_code":5},"0012":{"zip_code":"0130012","prefecture":"秋田県","prefecture_kana":"アキタケン","city":"横手市","city_kana":"ヨコテシ","town":"城山町","town_kana":"シロヤママチ","prefecture_code":5},"0006":{"zip_code":"0130006","prefecture":"秋田県","prefecture_kana":"アキタケン","city":"横手市","city_kana":"ヨコテシ","town":"新坂町","town_kana":"シンザカチョウ","prefecture_code":5},"0046":{"zip_code":"0130046","prefecture":"秋田県","prefecture_kana":"アキタケン","city":"横手市","city_kana":"ヨコテシ","town":"神明町","town_kana":"シンメイチョウ","prefecture_code":5},"0001":{"zip_code":"0130001","prefecture":"秋田県","prefecture_kana":"アキタケン","city":"横手市","city_kana":"ヨコテシ","town":"杉沢","town_kana":"スギサワ","prefecture_code":5},"0076":{"zip_code":"0130076","prefecture":"秋田県","prefecture_kana":"アキタケン","city":"横手市","city_kana":"ヨコテシ","town":"杉目","town_kana":"スギメ","prefecture_code":5},"0053":{"zip_code":"0130053","prefecture":"秋田県","prefecture_kana":"アキタケン","city":"横手市","city_kana":"ヨコテシ","town":"外目","town_kana":"ソトノメ","prefecture_code":5},"0003":{"zip_code":"0130003","prefecture":"秋田県","prefecture_kana":"アキタケン","city":"横手市","city_kana":"ヨコテシ","town":"台所町","town_kana":"ダイドコロマチ","prefecture_code":5},"0459":{"zip_code":"0130459","prefecture":"秋田県","prefecture_kana":"アキタケン","city":"横手市","city_kana":"ヨコテシ","town":"大雄赤沼","town_kana":"タイユウアカヌマ","prefecture_code":5},"0447":{"zip_code":"0130447","prefecture":"秋田県","prefecture_kana":"アキタケン","city":"横手市","city_kana":"ヨコテシ","town":"大雄阿久戸","town_kana":"タイユウアクド","prefecture_code":5},"0427":{"zip_code":"0130427","prefecture":"秋田県","prefecture_kana":"アキタケン","city":"横手市","city_kana":"ヨコテシ","town":"大雄阿気","town_kana":"タイユウアゲ","prefecture_code":5},"0484":{"zip_code":"0130484","prefecture":"秋田県","prefecture_kana":"アキタケン","city":"横手市","city_kana":"ヨコテシ","town":"大雄新処","town_kana":"タイユウアラトコロ","prefecture_code":5},"0464":{"zip_code":"0130464","prefecture":"秋田県","prefecture_kana":"アキタケン","city":"横手市","city_kana":"ヨコテシ","town":"大雄石持","town_kana":"タイユウイシモチ","prefecture_code":5},"0465":{"zip_code":"0130465","prefecture":"秋田県","prefecture_kana":"アキタケン","city":"横手市","city_kana":"ヨコテシ","town":"大雄石持下","town_kana":"タイユウイシモチシタ","prefecture_code":5},"0463":{"zip_code":"0130463","prefecture":"秋田県","prefecture_kana":"アキタケン","city":"横手市","city_kana":"ヨコテシ","town":"大雄石持前","town_kana":"タイユウイシモチマエ","prefecture_code":5},"0471":{"zip_code":"0130471","prefecture":"秋田県","prefecture_kana":"アキタケン","city":"横手市","city_kana":"ヨコテシ","town":"大雄板橋堰添","town_kana":"タイユウイタバシセキゾイ","prefecture_code":5},"0353":{"zip_code":"0130353","prefecture":"秋田県","prefecture_kana":"アキタケン","city":"横手市","city_kana":"ヨコテシ","town":"大雄一ノ関","town_kana":"タイユウイチノセキ","prefecture_code":5},"0352":{"zip_code":"0130352","prefecture":"秋田県","prefecture_kana":"アキタケン","city":"横手市","city_kana":"ヨコテシ","town":"大雄一ノ関東","town_kana":"タイユウイチノセキヒガシ","prefecture_code":5},"0356":{"zip_code":"0130356","prefecture":"秋田県","prefecture_kana":"アキタケン","city":"横手市","city_kana":"ヨコテシ","town":"大雄一ノ関南","town_kana":"タイユウイチノセキミナミ","prefecture_code":5},"0431":{"zip_code":"0130431","prefecture":"秋田県","prefecture_kana":"アキタケン","city":"横手市","city_kana":"ヨコテシ","town":"大雄牛中島","town_kana":"タイユウウシナカジマ","prefecture_code":5},"0316":{"zip_code":"0130316","prefecture":"秋田県","prefecture_kana":"アキタケン","city":"横手市","city_kana":"ヨコテシ","town":"大雄潤井谷地","town_kana":"タイユウウルイヤチ","prefecture_code":5},"0382":{"zip_code":"0130382","prefecture":"秋田県","prefecture_kana":"アキタケン","city":"横手市","city_kana":"ヨコテシ","town":"大雄上堰東","town_kana":"タイユウウワセキヒガシ","prefecture_code":5},"0421":{"zip_code":"0130421","prefecture":"秋田県","prefecture_kana":"アキタケン","city":"横手市","city_kana":"ヨコテシ","town":"大雄江原","town_kana":"タイユウエバラ","prefecture_code":5},"0452":{"zip_code":"0130452","prefecture":"秋田県","prefecture_kana":"アキタケン","city":"横手市","city_kana":"ヨコテシ","town":"大雄大関","town_kana":"タイユウオオゼキ","prefecture_code":5},"0317":{"zip_code":"0130317","prefecture":"秋田県","prefecture_kana":"アキタケン","city":"横手市","city_kana":"ヨコテシ","town":"大雄大戸川端","town_kana":"タイユウオオドカワバタ","prefecture_code":5},"0313":{"zip_code":"0130313","prefecture":"秋田県","prefecture_kana":"アキタケン","city":"横手市","city_kana":"ヨコテシ","town":"大雄大森道北","town_kana":"タイユウオオモリミチキタ","prefecture_code":5},"0454":{"zip_code":"0130454","prefecture":"秋田県","prefecture_kana":"アキタケン","city":"横手市","city_kana":"ヨコテシ","town":"大雄大谷地","town_kana":"タイユウオオヤチ","prefecture_code":5},"0455":{"zip_code":"0130455","prefecture":"秋田県","prefecture_kana":"アキタケン","city":"横手市","city_kana":"ヨコテシ","town":"大雄大谷地西","town_kana":"タイユウオオヤチニシ","prefecture_code":5},"0335":{"zip_code":"0130335","prefecture":"秋田県","prefecture_kana":"アキタケン","city":"横手市","city_kana":"ヨコテシ","town":"大雄折橋","town_kana":"タイユウオリハシ","prefecture_code":5},"0451":{"zip_code":"0130451","prefecture":"秋田県","prefecture_kana":"アキタケン","city":"横手市","city_kana":"ヨコテシ","town":"大雄折橋西","town_kana":"タイユウオリハシニシ","prefecture_code":5},"0337":{"zip_code":"0130337","prefecture":"秋田県","prefecture_kana":"アキタケン","city":"横手市","city_kana":"ヨコテシ","town":"大雄折橋南","town_kana":"タイユウオリハシミナミ","prefecture_code":5},"0365":{"zip_code":"0130365","prefecture":"秋田県","prefecture_kana":"アキタケン","city":"横手市","city_kana":"ヨコテシ","town":"大雄鍛治村","town_kana":"タイユウカジムラ","prefecture_code":5},"0359":{"zip_code":"0130359","prefecture":"秋田県","prefecture_kana":"アキタケン","city":"横手市","city_kana":"ヨコテシ","town":"大雄柏木","town_kana":"タイユウカシワギ","prefecture_code":5},"0362":{"zip_code":"0130362","prefecture":"秋田県","prefecture_kana":"アキタケン","city":"横手市","city_kana":"ヨコテシ","town":"大雄柏木下","town_kana":"タイユウカシワギシタ","prefecture_code":5},"0361":{"zip_code":"0130361","prefecture":"秋田県","prefecture_kana":"アキタケン","city":"横手市","city_kana":"ヨコテシ","town":"大雄柏木西","town_kana":"タイユウカシワギニシ","prefecture_code":5},"0305":{"zip_code":"0130305","prefecture":"秋田県","prefecture_kana":"アキタケン","city":"横手市","city_kana":"ヨコテシ","town":"大雄柏木南","town_kana":"タイユウカシワギミナミ","prefecture_code":5},"0404":{"zip_code":"0130404","prefecture":"秋田県","prefecture_kana":"アキタケン","city":"横手市","city_kana":"ヨコテシ","town":"大雄上柏木","town_kana":"タイユウカミカシワギ","prefecture_code":5},"0355":{"zip_code":"0130355","prefecture":"秋田県","prefecture_kana":"アキタケン","city":"横手市","city_kana":"ヨコテシ","town":"大雄上桜森","town_kana":"タイユウカミサクラモリ","prefecture_code":5},"0351":{"zip_code":"0130351","prefecture":"秋田県","prefecture_kana":"アキタケン","city":"横手市","city_kana":"ヨコテシ","town":"大雄上田村","town_kana":"タイユウカミタムラ","prefecture_code":5},"0349":{"zip_code":"0130349","prefecture":"秋田県","prefecture_kana":"アキタケン","city":"横手市","city_kana":"ヨコテシ","town":"大雄上田村西","town_kana":"タイユウカミタムラニシ","prefecture_code":5},"0326":{"zip_code":"0130326","prefecture":"秋田県","prefecture_kana":"アキタケン","city":"横手市","city_kana":"ヨコテシ","town":"大雄上田村東","town_kana":"タイユウカミタムラヒガシ","prefecture_code":5},"0372":{"zip_code":"0130372","prefecture":"秋田県","prefecture_kana":"アキタケン","city":"横手市","city_kana":"ヨコテシ","town":"大雄上田村南","town_kana":"タイユウカミタムラミナミ","prefecture_code":5},"0408":{"zip_code":"0130408","prefecture":"秋田県","prefecture_kana":"アキタケン","city":"横手市","city_kana":"ヨコテシ","town":"大雄北四津屋","town_kana":"タイユウキタヨツヤ","prefecture_code":5},"0354":{"zip_code":"0130354","prefecture":"秋田県","prefecture_kana":"アキタケン","city":"横手市","city_kana":"ヨコテシ","town":"大雄狐塚","town_kana":"タイユウキツネヅカ","prefecture_code":5},"0426":{"zip_code":"0130426","prefecture":"秋田県","prefecture_kana":"アキタケン","city":"横手市","city_kana":"ヨコテシ","town":"大雄木戸口","town_kana":"タイユウキドグチ","prefecture_code":5},"0438":{"zip_code":"0130438","prefecture":"秋田県","prefecture_kana":"アキタケン","city":"横手市","city_kana":"ヨコテシ","town":"大雄木戸口下","town_kana":"タイユウキドグチシタ","prefecture_code":5},"0435":{"zip_code":"0130435","prefecture":"秋田県","prefecture_kana":"アキタケン","city":"横手市","city_kana":"ヨコテシ","town":"大雄木戸口西","town_kana":"タイユウキドグチニシ","prefecture_code":5},"0314":{"zip_code":"0130314","prefecture":"秋田県","prefecture_kana":"アキタケン","city":"横手市","city_kana":"ヨコテシ","town":"大雄傾城塚","town_kana":"タイユウケイセイヅカ","prefecture_code":5},"0336":{"zip_code":"0130336","prefecture":"秋田県","prefecture_kana":"アキタケン","city":"横手市","city_kana":"ヨコテシ","town":"大雄傾城塚南","town_kana":"タイユウケイセイヅカミナミ","prefecture_code":5},"0437":{"zip_code":"0130437","prefecture":"秋田県","prefecture_kana":"アキタケン","city":"横手市","city_kana":"ヨコテシ","town":"大雄小林","town_kana":"タイユウコバヤシ","prefecture_code":5},"0436":{"zip_code":"0130436","prefecture":"秋田県","prefecture_kana":"アキタケン","city":"横手市","city_kana":"ヨコテシ","town":"大雄小林西","town_kana":"タイユウコバヤシニシ","prefecture_code":5},"0324":{"zip_code":"0130324","prefecture":"秋田県","prefecture_kana":"アキタケン","city":"横手市","city_kana":"ヨコテシ","town":"大雄根田谷地","town_kana":"タイユウコンダヤチ","prefecture_code":5},"0321":{"zip_code":"0130321","prefecture":"秋田県","prefecture_kana":"アキタケン","city":"横手市","city_kana":"ヨコテシ","town":"大雄根田谷地西","town_kana":"タイユウコンダヤチニシ","prefecture_code":5},"0323":{"zip_code":"0130323","prefecture":"秋田県","prefecture_kana":"アキタケン","city":"横手市","city_kana":"ヨコテシ","town":"大雄根田谷地東","town_kana":"タイユウコンダヤチヒガシ","prefecture_code":5},"0318":{"zip_code":"0130318","prefecture":"秋田県","prefecture_kana":"アキタケン","city":"横手市","city_kana":"ヨコテシ","town":"大雄根田谷地南","town_kana":"タイユウコンダヤチミナミ","prefecture_code":5},"0308":{"zip_code":"0130308","prefecture":"秋田県","prefecture_kana":"アキタケン","city":"横手市","city_kana":"ヨコテシ","town":"大雄佐加里","town_kana":"タイユウサガリ","prefecture_code":5},"0309":{"zip_code":"0130309","prefecture":"秋田県","prefecture_kana":"アキタケン","city":"横手市","city_kana":"ヨコテシ","town":"大雄佐加里南","town_kana":"タイユウサガリミナミ","prefecture_code":5},"0474":{"zip_code":"0130474","prefecture":"秋田県","prefecture_kana":"アキタケン","city":"横手市","city_kana":"ヨコテシ","town":"大雄桜森","town_kana":"タイユウサクラモリ","prefecture_code":5},"0363":{"zip_code":"0130363","prefecture":"秋田県","prefecture_kana":"アキタケン","city":"横手市","city_kana":"ヨコテシ","town":"大雄桜森西","town_kana":"タイユウサクラモリニシ","prefecture_code":5},"0477":{"zip_code":"0130477","prefecture":"秋田県","prefecture_kana":"アキタケン","city":"横手市","city_kana":"ヨコテシ","town":"大雄桜森東","town_kana":"タイユウサクラモリヒガシ","prefecture_code":5},"0475":{"zip_code":"0130475","prefecture":"秋田県","prefecture_kana":"アキタケン","city":"横手市","city_kana":"ヨコテシ","town":"大雄桜森前","town_kana":"タイユウサクラモリマエ","prefecture_code":5},"0434":{"zip_code":"0130434","prefecture":"秋田県","prefecture_kana":"アキタケン","city":"横手市","city_kana":"ヨコテシ","town":"大雄山王","town_kana":"タイユウサンノウ","prefecture_code":5},"0439":{"zip_code":"0130439","prefecture":"秋田県","prefecture_kana":"アキタケン","city":"横手市","city_kana":"ヨコテシ","town":"大雄山王西","town_kana":"タイユウサンノウニシ","prefecture_code":5},"0315":{"zip_code":"0130315","prefecture":"秋田県","prefecture_kana":"アキタケン","city":"横手市","city_kana":"ヨコテシ","town":"大雄下根田谷地","town_kana":"タイユウシタコンダヤチ","prefecture_code":5},"0483":{"zip_code":"0130483","prefecture":"秋田県","prefecture_kana":"アキタケン","city":"横手市","city_kana":"ヨコテシ","town":"大雄島田","town_kana":"タイユウシマダ","prefecture_code":5},"0485":{"zip_code":"0130485","prefecture":"秋田県","prefecture_kana":"アキタケン","city":"横手市","city_kana":"ヨコテシ","town":"大雄下新処","town_kana":"タイユウシモアラトコロ","prefecture_code":5},"0487":{"zip_code":"0130487","prefecture":"秋田県","prefecture_kana":"アキタケン","city":"横手市","city_kana":"ヨコテシ","town":"大雄下田町","town_kana":"タイユウシモタマチ","prefecture_code":5},"0334":{"zip_code":"0130334","prefecture":"秋田県","prefecture_kana":"アキタケン","city":"横手市","city_kana":"ヨコテシ","town":"大雄新町","town_kana":"タイユウシンマチ","prefecture_code":5},"0302":{"zip_code":"0130302","prefecture":"秋田県","prefecture_kana":"アキタケン","city":"横手市","city_kana":"ヨコテシ","town":"大雄新町北","town_kana":"タイユウシンマチキタ","prefecture_code":5},"0333":{"zip_code":"0130333","prefecture":"秋田県","prefecture_kana":"アキタケン","city":"横手市","city_kana":"ヨコテシ","town":"大雄新町西","town_kana":"タイユウシンマチニシ","prefecture_code":5},"0332":{"zip_code":"0130332","prefecture":"秋田県","prefecture_kana":"アキタケン","city":"横手市","city_kana":"ヨコテシ","town":"大雄新町西野添","town_kana":"タイユウシンマチニシノゾイ","prefecture_code":5},"0307":{"zip_code":"0130307","prefecture":"秋田県","prefecture_kana":"アキタケン","city":"横手市","city_kana":"ヨコテシ","town":"大雄新町東","town_kana":"タイユウシンマチヒガシ","prefecture_code":5},"0304":{"zip_code":"0130304","prefecture":"秋田県","prefecture_kana":"アキタケン","city":"横手市","city_kana":"ヨコテシ","town":"大雄新町南","town_kana":"タイユウシンマチミナミ","prefecture_code":5},"0344":{"zip_code":"0130344","prefecture":"秋田県","prefecture_kana":"アキタケン","city":"横手市","city_kana":"ヨコテシ","town":"大雄精兵西","town_kana":"タイユウセイベイニシ","prefecture_code":5},"0342":{"zip_code":"0130342","prefecture":"秋田県","prefecture_kana":"アキタケン","city":"横手市","city_kana":"ヨコテシ","town":"大雄精兵村","town_kana":"タイユウセイベイムラ","prefecture_code":5},"0412":{"zip_code":"0130412","prefecture":"秋田県","prefecture_kana":"アキタケン","city":"横手市","city_kana":"ヨコテシ","town":"大雄剰水","town_kana":"タイユウセセナギ","prefecture_code":5},"0411":{"zip_code":"0130411","prefecture":"秋田県","prefecture_kana":"アキタケン","city":"横手市","city_kana":"ヨコテシ","town":"大雄剰水東","town_kana":"タイユウセセナギヒガシ","prefecture_code":5},"0457":{"zip_code":"0130457","prefecture":"秋田県","prefecture_kana":"アキタケン","city":"横手市","city_kana":"ヨコテシ","town":"大雄大慈寺東","town_kana":"タイユウダイジジヒガシ","prefecture_code":5},"0456":{"zip_code":"0130456","prefecture":"秋田県","prefecture_kana":"アキタケン","city":"横手市","city_kana":"ヨコテシ","town":"大雄大慈寺前","town_kana":"タイユウダイジジマエ","prefecture_code":5},"0458":{"zip_code":"0130458","prefecture":"秋田県","prefecture_kana":"アキタケン","city":"横手市","city_kana":"ヨコテシ","town":"大雄大慈寺谷地","town_kana":"タイユウダイジジヤチ","prefecture_code":5},"0443":{"zip_code":"0130443","prefecture":"秋田県","prefecture_kana":"アキタケン","city":"横手市","city_kana":"ヨコテシ","town":"大雄高津野","town_kana":"タイユウタカヅノ","prefecture_code":5},"0442":{"zip_code":"0130442","prefecture":"秋田県","prefecture_kana":"アキタケン","city":"横手市","city_kana":"ヨコテシ","town":"大雄高津野下","town_kana":"タイユウタカヅノシタ","prefecture_code":5},"0348":{"zip_code":"0130348","prefecture":"秋田県","prefecture_kana":"アキタケン","city":"横手市","city_kana":"ヨコテシ","town":"大雄田根森","town_kana":"タイユウタネモリ","prefecture_code":5},"0343":{"zip_code":"0130343","prefecture":"秋田県","prefecture_kana":"アキタケン","city":"横手市","city_kana":"ヨコテシ","town":"大雄田根森西","town_kana":"タイユウタネモリニシ","prefecture_code":5},"0325":{"zip_code":"0130325","prefecture":"秋田県","prefecture_kana":"アキタケン","city":"横手市","city_kana":"ヨコテシ","town":"大雄田根森東","town_kana":"タイユウタネモリヒガシ","prefecture_code":5},"0486":{"zip_code":"0130486","prefecture":"秋田県","prefecture_kana":"アキタケン","city":"横手市","city_kana":"ヨコテシ","town":"大雄田町","town_kana":"タイユウタマチ","prefecture_code":5},"0306":{"zip_code":"0130306","prefecture":"秋田県","prefecture_kana":"アキタケン","city":"横手市","city_kana":"ヨコテシ","town":"大雄田村","town_kana":"タイユウタムラ","prefecture_code":5},"0428":{"zip_code":"0130428","prefecture":"秋田県","prefecture_kana":"アキタケン","city":"横手市","city_kana":"ヨコテシ","town":"大雄鶴巻田","town_kana":"タイユウツルマキダ","prefecture_code":5},"0322":{"zip_code":"0130322","prefecture":"秋田県","prefecture_kana":"アキタケン","city":"横手市","city_kana":"ヨコテシ","town":"大雄伝蔵村","town_kana":"タイユウデンゾウムラ","prefecture_code":5},"0423":{"zip_code":"0130423","prefecture":"秋田県","prefecture_kana":"アキタケン","city":"横手市","city_kana":"ヨコテシ","town":"大雄土井尻","town_kana":"タイユウドイジリ","prefecture_code":5},"0462":{"zip_code":"0130462","prefecture":"秋田県","prefecture_kana":"アキタケン","city":"横手市","city_kana":"ヨコテシ","town":"大雄樋脇","town_kana":"タイユウトヨワキ","prefecture_code":5},"0424":{"zip_code":"0130424","prefecture":"秋田県","prefecture_kana":"アキタケン","city":"横手市","city_kana":"ヨコテシ","town":"大雄中館合","town_kana":"タイユウナカタテアイ","prefecture_code":5},"0312":{"zip_code":"0130312","prefecture":"秋田県","prefecture_kana":"アキタケン","city":"横手市","city_kana":"ヨコテシ","town":"大雄中野","town_kana":"タイユウナカノ","prefecture_code":5},"0311":{"zip_code":"0130311","prefecture":"秋田県","prefecture_kana":"アキタケン","city":"横手市","city_kana":"ヨコテシ","town":"大雄中野東","town_kana":"タイユウナカノヒガシ","prefecture_code":5},"0468":{"zip_code":"0130468","prefecture":"秋田県","prefecture_kana":"アキタケン","city":"横手市","city_kana":"ヨコテシ","town":"大雄中谷地","town_kana":"タイユウナカヤチ","prefecture_code":5},"0476":{"zip_code":"0130476","prefecture":"秋田県","prefecture_kana":"アキタケン","city":"横手市","city_kana":"ヨコテシ","town":"大雄西桜森","town_kana":"タイユウニシサクラモリ","prefecture_code":5},"0425":{"zip_code":"0130425","prefecture":"秋田県","prefecture_kana":"アキタケン","city":"横手市","city_kana":"ヨコテシ","town":"大雄西館合","town_kana":"タイユウニシタテアイ","prefecture_code":5},"0433":{"zip_code":"0130433","prefecture":"秋田県","prefecture_kana":"アキタケン","city":"横手市","city_kana":"ヨコテシ","town":"大雄西中島","town_kana":"タイユウニシナカジマ","prefecture_code":5},"0406":{"zip_code":"0130406","prefecture":"秋田県","prefecture_kana":"アキタケン","city":"横手市","city_kana":"ヨコテシ","town":"大雄西四津屋","town_kana":"タイユウニシヨツヤ","prefecture_code":5},"0441":{"zip_code":"0130441","prefecture":"秋田県","prefecture_kana":"アキタケン","city":"横手市","city_kana":"ヨコテシ","town":"大雄野中","town_kana":"タイユウノナカ","prefecture_code":5},"0446":{"zip_code":"0130446","prefecture":"秋田県","prefecture_kana":"アキタケン","city":"横手市","city_kana":"ヨコテシ","town":"大雄乗阿気","town_kana":"タイユウノリアゲ","prefecture_code":5},"0448":{"zip_code":"0130448","prefecture":"秋田県","prefecture_kana":"アキタケン","city":"横手市","city_kana":"ヨコテシ","town":"大雄乗阿気下","town_kana":"タイユウノリアゲシタ","prefecture_code":5},"0472":{"zip_code":"0130472","prefecture":"秋田県","prefecture_kana":"アキタケン","city":"横手市","city_kana":"ヨコテシ","town":"大雄東阿気","town_kana":"タイユウヒガシアゲ","prefecture_code":5},"0473":{"zip_code":"0130473","prefecture":"秋田県","prefecture_kana":"アキタケン","city":"横手市","city_kana":"ヨコテシ","town":"大雄東桜森","town_kana":"タイユウヒガシサクラモリ","prefecture_code":5},"0331":{"zip_code":"0130331","prefecture":"秋田県","prefecture_kana":"アキタケン","city":"横手市","city_kana":"ヨコテシ","town":"大雄東高津野","town_kana":"タイユウヒガシタカヅノ","prefecture_code":5},"0488":{"zip_code":"0130488","prefecture":"秋田県","prefecture_kana":"アキタケン","city":"横手市","city_kana":"ヨコテシ","town":"大雄東館合","town_kana":"タイユウヒガシタテアイ","prefecture_code":5},"0432":{"zip_code":"0130432","prefecture":"秋田県","prefecture_kana":"アキタケン","city":"横手市","city_kana":"ヨコテシ","town":"大雄東中島","town_kana":"タイユウヒガシナカジマ","prefecture_code":5},"0409":{"zip_code":"0130409","prefecture":"秋田県","prefecture_kana":"アキタケン","city":"横手市","city_kana":"ヨコテシ","town":"大雄東四津屋","town_kana":"タイユウヒガシヨツヤ","prefecture_code":5},"0482":{"zip_code":"0130482","prefecture":"秋田県","prefecture_kana":"アキタケン","city":"横手市","city_kana":"ヨコテシ","town":"大雄平柳","town_kana":"タイユウヒラヤナギ","prefecture_code":5},"0301":{"zip_code":"0130301","prefecture":"秋田県","prefecture_kana":"アキタケン","city":"横手市","city_kana":"ヨコテシ","town":"大雄福島","town_kana":"タイユウフクジマ","prefecture_code":5},"0303":{"zip_code":"0130303","prefecture":"秋田県","prefecture_kana":"アキタケン","city":"横手市","city_kana":"ヨコテシ","town":"大雄福島南","town_kana":"タイユウフクジマミナミ","prefecture_code":5},"0364":{"zip_code":"0130364","prefecture":"秋田県","prefecture_kana":"アキタケン","city":"横手市","city_kana":"ヨコテシ","town":"大雄袋谷地","town_kana":"タイユウフクロヤチ","prefecture_code":5},"0414":{"zip_code":"0130414","prefecture":"秋田県","prefecture_kana":"アキタケン","city":"横手市","city_kana":"ヨコテシ","town":"大雄藤巻","town_kana":"タイユウフジマキ","prefecture_code":5},"0416":{"zip_code":"0130416","prefecture":"秋田県","prefecture_kana":"アキタケン","city":"横手市","city_kana":"ヨコテシ","town":"大雄藤巻中島","town_kana":"タイユウフジマキナカジマ","prefecture_code":5},"0415":{"zip_code":"0130415","prefecture":"秋田県","prefecture_kana":"アキタケン","city":"横手市","city_kana":"ヨコテシ","town":"大雄藤巻西","town_kana":"タイユウフジマキニシ","prefecture_code":5},"0371":{"zip_code":"0130371","prefecture":"秋田県","prefecture_kana":"アキタケン","city":"横手市","city_kana":"ヨコテシ","town":"大雄文蔵開","town_kana":"タイユウブンゾウビラキ","prefecture_code":5},"0345":{"zip_code":"0130345","prefecture":"秋田県","prefecture_kana":"アキタケン","city":"横手市","city_kana":"ヨコテシ","town":"大雄本庄道北堰間","town_kana":"タイユウホンジョウミチキタセキマ","prefecture_code":5},"0347":{"zip_code":"0130347","prefecture":"秋田県","prefecture_kana":"アキタケン","city":"横手市","city_kana":"ヨコテシ","town":"大雄本庄道南","town_kana":"タイユウホンジョウミチミナミ","prefecture_code":5},"0385":{"zip_code":"0130385","prefecture":"秋田県","prefecture_kana":"アキタケン","city":"横手市","city_kana":"ヨコテシ","town":"大雄万貝","town_kana":"タイユウマンカイ","prefecture_code":5},"0422":{"zip_code":"0130422","prefecture":"秋田県","prefecture_kana":"アキタケン","city":"横手市","city_kana":"ヨコテシ","town":"大雄南阿気","town_kana":"タイユウミナミアゲ","prefecture_code":5},"0405":{"zip_code":"0130405","prefecture":"秋田県","prefecture_kana":"アキタケン","city":"横手市","city_kana":"ヨコテシ","town":"大雄南四津屋","town_kana":"タイユウミナミヨツヤ","prefecture_code":5},"0339":{"zip_code":"0130339","prefecture":"秋田県","prefecture_kana":"アキタケン","city":"横手市","city_kana":"ヨコテシ","town":"大雄耳取","town_kana":"タイユウミミドリ","prefecture_code":5},"0338":{"zip_code":"0130338","prefecture":"秋田県","prefecture_kana":"アキタケン","city":"横手市","city_kana":"ヨコテシ","town":"大雄耳取西","town_kana":"タイユウミミドリニシ","prefecture_code":5},"0466":{"zip_code":"0130466","prefecture":"秋田県","prefecture_kana":"アキタケン","city":"横手市","city_kana":"ヨコテシ","town":"大雄三村","town_kana":"タイユウミムラ","prefecture_code":5},"0453":{"zip_code":"0130453","prefecture":"秋田県","prefecture_kana":"アキタケン","city":"横手市","city_kana":"ヨコテシ","town":"大雄三村北","town_kana":"タイユウミムラキタ","prefecture_code":5},"0467":{"zip_code":"0130467","prefecture":"秋田県","prefecture_kana":"アキタケン","city":"横手市","city_kana":"ヨコテシ","town":"大雄三村西","town_kana":"タイユウミムラニシ","prefecture_code":5},"0461":{"zip_code":"0130461","prefecture":"秋田県","prefecture_kana":"アキタケン","city":"横手市","city_kana":"ヨコテシ","town":"大雄三村東","town_kana":"タイユウミムラヒガシ","prefecture_code":5},"0429":{"zip_code":"0130429","prefecture":"秋田県","prefecture_kana":"アキタケン","city":"横手市","city_kana":"ヨコテシ","town":"大雄宮小路","town_kana":"タイユウミヤコウジ","prefecture_code":5},"0413":{"zip_code":"0130413","prefecture":"秋田県","prefecture_kana":"アキタケン","city":"横手市","city_kana":"ヨコテシ","town":"大雄宮田","town_kana":"タイユウミヤタ","prefecture_code":5},"0358":{"zip_code":"0130358","prefecture":"秋田県","prefecture_kana":"アキタケン","city":"横手市","city_kana":"ヨコテシ","town":"大雄向","town_kana":"タイユウムカイ","prefecture_code":5},"0445":{"zip_code":"0130445","prefecture":"秋田県","prefecture_kana":"アキタケン","city":"横手市","city_kana":"ヨコテシ","town":"大雄向田","town_kana":"タイユウムカイダ","prefecture_code":5},"0444":{"zip_code":"0130444","prefecture":"秋田県","prefecture_kana":"アキタケン","city":"横手市","city_kana":"ヨコテシ","town":"大雄向田東","town_kana":"タイユウムカイダヒガシ","prefecture_code":5},"0357":{"zip_code":"0130357","prefecture":"秋田県","prefecture_kana":"アキタケン","city":"横手市","city_kana":"ヨコテシ","town":"大雄向東","town_kana":"タイユウムカイヒガシ","prefecture_code":5},"0402":{"zip_code":"0130402","prefecture":"秋田県","prefecture_kana":"アキタケン","city":"横手市","city_kana":"ヨコテシ","town":"大雄八柏","town_kana":"タイユウヤガシワ","prefecture_code":5},"0379":{"zip_code":"0130379","prefecture":"秋田県","prefecture_kana":"アキタケン","city":"横手市","city_kana":"ヨコテシ","town":"大雄八柏家間","town_kana":"タイユウヤガシワイエマ","prefecture_code":5},"0376":{"zip_code":"0130376","prefecture":"秋田県","prefecture_kana":"アキタケン","city":"横手市","city_kana":"ヨコテシ","town":"大雄八柏馬道添","town_kana":"タイユウヤガシワウマミチゾイ","prefecture_code":5},"0378":{"zip_code":"0130378","prefecture":"秋田県","prefecture_kana":"アキタケン","city":"横手市","city_kana":"ヨコテシ","town":"大雄八柏街道添","town_kana":"タイユウヤガシワカイドウゾイ","prefecture_code":5},"0375":{"zip_code":"0130375","prefecture":"秋田県","prefecture_kana":"アキタケン","city":"横手市","city_kana":"ヨコテシ","town":"大雄八柏釜蓋","town_kana":"タイユウヤガシワカマブタ","prefecture_code":5},"0381":{"zip_code":"0130381","prefecture":"秋田県","prefecture_kana":"アキタケン","city":"横手市","city_kana":"ヨコテシ","town":"大雄八柏下村","town_kana":"タイユウヤガシワシモムラ","prefecture_code":5},"0377":{"zip_code":"0130377","prefecture":"秋田県","prefecture_kana":"アキタケン","city":"横手市","city_kana":"ヨコテシ","town":"大雄八柏中村","town_kana":"タイユウヤガシワナカムラ","prefecture_code":5},"0374":{"zip_code":"0130374","prefecture":"秋田県","prefecture_kana":"アキタケン","city":"横手市","city_kana":"ヨコテシ","town":"大雄八柏中村東","town_kana":"タイユウヤガシワナカムラヒガシ","prefecture_code":5},"0384":{"zip_code":"0130384","prefecture":"秋田県","prefecture_kana":"アキタケン","city":"横手市","city_kana":"ヨコテシ","town":"大雄八柏村表","town_kana":"タイユウヤガシワムラオモテ","prefecture_code":5},"0383":{"zip_code":"0130383","prefecture":"秋田県","prefecture_kana":"アキタケン","city":"横手市","city_kana":"ヨコテシ","town":"大雄八柏村西","town_kana":"タイユウヤガシワムラニシ","prefecture_code":5},"0373":{"zip_code":"0130373","prefecture":"秋田県","prefecture_kana":"アキタケン","city":"横手市","city_kana":"ヨコテシ","town":"大雄八柏谷地","town_kana":"タイユウヤガシワヤチ","prefecture_code":5},"0327":{"zip_code":"0130327","prefecture":"秋田県","prefecture_kana":"アキタケン","city":"横手市","city_kana":"ヨコテシ","town":"大雄焼野","town_kana":"タイユウヤケノ","prefecture_code":5},"0341":{"zip_code":"0130341","prefecture":"秋田県","prefecture_kana":"アキタケン","city":"横手市","city_kana":"ヨコテシ","town":"大雄四ッ屋","town_kana":"タイユウヨツヤ","prefecture_code":5},"0407":{"zip_code":"0130407","prefecture":"秋田県","prefecture_kana":"アキタケン","city":"横手市","city_kana":"ヨコテシ","town":"大雄四津屋下","town_kana":"タイユウヨツヤシタ","prefecture_code":5},"0346":{"zip_code":"0130346","prefecture":"秋田県","prefecture_kana":"アキタケン","city":"横手市","city_kana":"ヨコテシ","town":"大雄四ツ屋西","town_kana":"タイユウヨツヤニシ","prefecture_code":5},"0319":{"zip_code":"0130319","prefecture":"秋田県","prefecture_kana":"アキタケン","city":"横手市","city_kana":"ヨコテシ","town":"大雄四ツ屋東","town_kana":"タイユウヨツヤヒガシ","prefecture_code":5},"0419":{"zip_code":"0130419","prefecture":"秋田県","prefecture_kana":"アキタケン","city":"横手市","city_kana":"ヨコテシ","town":"大雄六町","town_kana":"タイユウロクチョウ","prefecture_code":5},"0417":{"zip_code":"0130417","prefecture":"秋田県","prefecture_kana":"アキタケン","city":"横手市","city_kana":"ヨコテシ","town":"大雄六町下","town_kana":"タイユウロクチョウシタ","prefecture_code":5},"0418":{"zip_code":"0130418","prefecture":"秋田県","prefecture_kana":"アキタケン","city":"横手市","city_kana":"ヨコテシ","town":"大雄六町東","town_kana":"タイユウロクチョウヒガシ","prefecture_code":5},"0024":{"zip_code":"0130024","prefecture":"秋田県","prefecture_kana":"アキタケン","city":"横手市","city_kana":"ヨコテシ","town":"田中町","town_kana":"タナカマチ","prefecture_code":5},"0023":{"zip_code":"0130023","prefecture":"秋田県","prefecture_kana":"アキタケン","city":"横手市","city_kana":"ヨコテシ","town":"中央町","town_kana":"チュウオウマチ","prefecture_code":5},"0066":{"zip_code":"0130066","prefecture":"秋田県","prefecture_kana":"アキタケン","city":"横手市","city_kana":"ヨコテシ","town":"塚堀","town_kana":"ツカボリ","prefecture_code":5},"0016":{"zip_code":"0130016","prefecture":"秋田県","prefecture_kana":"アキタケン","city":"横手市","city_kana":"ヨコテシ","town":"根岸町","town_kana":"ネギシチョウ","prefecture_code":5},"0015":{"zip_code":"0130015","prefecture":"秋田県","prefecture_kana":"アキタケン","city":"横手市","city_kana":"ヨコテシ","town":"羽黒町","town_kana":"ハグロチョウ","prefecture_code":5},"0825":{"zip_code":"0130825","prefecture":"秋田県","prefecture_kana":"アキタケン","city":"横手市","city_kana":"ヨコテシ","town":"百万刈","town_kana":"ヒャクマンガリ","prefecture_code":5},"0105":{"zip_code":"0130105","prefecture":"秋田県","prefecture_kana":"アキタケン","city":"横手市","city_kana":"ヨコテシ","town":"平鹿町浅舞","town_kana":"ヒラカマチアサマイ","prefecture_code":5},"0101":{"zip_code":"0130101","prefecture":"秋田県","prefecture_kana":"アキタケン","city":"横手市","city_kana":"ヨコテシ","town":"平鹿町上吉田","town_kana":"ヒラカマチカミヨシダ","prefecture_code":5},"0103":{"zip_code":"0130103","prefecture":"秋田県","prefecture_kana":"アキタケン","city":"横手市","city_kana":"ヨコテシ","town":"平鹿町下鍋倉","town_kana":"ヒラカマチシモナベクラ","prefecture_code":5},"0107":{"zip_code":"0130107","prefecture":"秋田県","prefecture_kana":"アキタケン","city":"横手市","city_kana":"ヨコテシ","town":"平鹿町下吉田","town_kana":"ヒラカマチシモヨシダ","prefecture_code":5},"0102":{"zip_code":"0130102","prefecture":"秋田県","prefecture_kana":"アキタケン","city":"横手市","city_kana":"ヨコテシ","town":"平鹿町醍醐","town_kana":"ヒラカマチダイゴ","prefecture_code":5},"0104":{"zip_code":"0130104","prefecture":"秋田県","prefecture_kana":"アキタケン","city":"横手市","city_kana":"ヨコテシ","town":"平鹿町樽見内","town_kana":"ヒラカマチタルミナイ","prefecture_code":5},"0106":{"zip_code":"0130106","prefecture":"秋田県","prefecture_kana":"アキタケン","city":"横手市","city_kana":"ヨコテシ","town":"平鹿町中吉田","town_kana":"ヒラカマチナカヨシダ","prefecture_code":5},"0027":{"zip_code":"0130027","prefecture":"秋田県","prefecture_kana":"アキタケン","city":"横手市","city_kana":"ヨコテシ","town":"平城町","town_kana":"ヒラジョウマチ","prefecture_code":5},"0063":{"zip_code":"0130063","prefecture":"秋田県","prefecture_kana":"アキタケン","city":"横手市","city_kana":"ヨコテシ","town":"婦気大堤","town_kana":"フケオオヅツミ","prefecture_code":5},"0019":{"zip_code":"0130019","prefecture":"秋田県","prefecture_kana":"アキタケン","city":"横手市","city_kana":"ヨコテシ","town":"二葉町","town_kana":"フタバチョウ","prefecture_code":5},"0035":{"zip_code":"0130035","prefecture":"秋田県","prefecture_kana":"アキタケン","city":"横手市","city_kana":"ヨコテシ","town":"平和町","town_kana":"ヘイワチョウ","prefecture_code":5},"0034":{"zip_code":"0130034","prefecture":"秋田県","prefecture_kana":"アキタケン","city":"横手市","city_kana":"ヨコテシ","town":"本郷町","town_kana":"ホンゴウチョウ","prefecture_code":5},"0042":{"zip_code":"0130042","prefecture":"秋田県","prefecture_kana":"アキタケン","city":"横手市","city_kana":"ヨコテシ","town":"前郷","town_kana":"マエゴウ","prefecture_code":5},"0038":{"zip_code":"0130038","prefecture":"秋田県","prefecture_kana":"アキタケン","city":"横手市","city_kana":"ヨコテシ","town":"前郷一番町","town_kana":"マエゴウイチバンチョウ","prefecture_code":5},"0037":{"zip_code":"0130037","prefecture":"秋田県","prefecture_kana":"アキタケン","city":"横手市","city_kana":"ヨコテシ","town":"前郷二番町","town_kana":"マエゴウニバンチョウ","prefecture_code":5},"0047":{"zip_code":"0130047","prefecture":"秋田県","prefecture_kana":"アキタケン","city":"横手市","city_kana":"ヨコテシ","town":"松原町","town_kana":"マツバラマチ","prefecture_code":5},"0045":{"zip_code":"0130045","prefecture":"秋田県","prefecture_kana":"アキタケン","city":"横手市","city_kana":"ヨコテシ","town":"南町","town_kana":"ミナミマチ","prefecture_code":5},"0004":{"zip_code":"0130004","prefecture":"秋田県","prefecture_kana":"アキタケン","city":"横手市","city_kana":"ヨコテシ","town":"明永町","town_kana":"ミョウエイチョウ","prefecture_code":5},"0008":{"zip_code":"0130008","prefecture":"秋田県","prefecture_kana":"アキタケン","city":"横手市","city_kana":"ヨコテシ","town":"睦成","town_kana":"ムツナリ","prefecture_code":5},"0018":{"zip_code":"0130018","prefecture":"秋田県","prefecture_kana":"アキタケン","city":"横手市","city_kana":"ヨコテシ","town":"本町","town_kana":"モトマチ","prefecture_code":5},"0043":{"zip_code":"0130043","prefecture":"秋田県","prefecture_kana":"アキタケン","city":"横手市","city_kana":"ヨコテシ","town":"安田","town_kana":"ヤスダ","prefecture_code":5},"0048":{"zip_code":"0130048","prefecture":"秋田県","prefecture_kana":"アキタケン","city":"横手市","city_kana":"ヨコテシ","town":"安田原町","town_kana":"ヤスダハラマチ","prefecture_code":5},"0811":{"zip_code":"0130811","prefecture":"秋田県","prefecture_kana":"アキタケン","city":"横手市","city_kana":"ヨコテシ","town":"安本","town_kana":"ヤスモト","prefecture_code":5},"0054":{"zip_code":"0130054","prefecture":"秋田県","prefecture_kana":"アキタケン","city":"横手市","city_kana":"ヨコテシ","town":"柳田","town_kana":"ヤナギダ","prefecture_code":5},"0071":{"zip_code":"0130071","prefecture":"秋田県","prefecture_kana":"アキタケン","city":"横手市","city_kana":"ヨコテシ","town":"八幡","town_kana":"ヤワタ","prefecture_code":5},"0061":{"zip_code":"0130061","prefecture":"秋田県","prefecture_kana":"アキタケン","city":"横手市","city_kana":"ヨコテシ","town":"横手町","town_kana":"ヨコテマチ","prefecture_code":5},"0044":{"zip_code":"0130044","prefecture":"秋田県","prefecture_kana":"アキタケン","city":"横手市","city_kana":"ヨコテシ","town":"横山町","town_kana":"ヨコヤマチョウ","prefecture_code":5},"0022":{"zip_code":"0130022","prefecture":"秋田県","prefecture_kana":"アキタケン","city":"横手市","city_kana":"ヨコテシ","town":"四日町","town_kana":"ヨッカマチ","prefecture_code":5}}