{"0000":{"zip_code":"0140000","prefecture":"秋田県","prefecture_kana":"アキタケン","city":"大仙市","city_kana":"ダイセンシ","town":"","town_kana":"","prefecture_code":5},"0013":{"zip_code":"0140013","prefecture":"秋田県","prefecture_kana":"アキタケン","city":"大仙市","city_kana":"ダイセンシ","town":"朝日町","town_kana":"アサヒマチ","prefecture_code":5},"0067":{"zip_code":"0140067","prefecture":"秋田県","prefecture_kana":"アキタケン","city":"大仙市","city_kana":"ダイセンシ","town":"飯田","town_kana":"イイダ","prefecture_code":5},"0004":{"zip_code":"0140004","prefecture":"秋田県","prefecture_kana":"アキタケン","city":"大仙市","city_kana":"ダイセンシ","town":"泉町","town_kana":"イズミチョウ","prefecture_code":5},"0112":{"zip_code":"0140112","prefecture":"秋田県","prefecture_kana":"アキタケン","city":"大仙市","city_kana":"ダイセンシ","town":"板見内","town_kana":"イタミナイ","prefecture_code":5},"0073":{"zip_code":"0140073","prefecture":"秋田県","prefecture_kana":"アキタケン","city":"大仙市","city_kana":"ダイセンシ","town":"内小友","town_kana":"ウチオトモ","prefecture_code":5},"0714":{"zip_code":"0140714","prefecture":"秋田県","prefecture_kana":"アキタケン","city":"大仙市","city_kana":"ダイセンシ","town":"大神成","town_kana":"オオカンナリ","prefecture_code":5},"0022":{"zip_code":"0140022","prefecture":"秋田県","prefecture_kana":"アキタケン","city":"大仙市","city_kana":"ダイセンシ","town":"大花町","town_kana":"オオハナチョウ","prefecture_code":5},"0031":{"zip_code":"0140031","prefecture":"秋田県","prefecture_kana":"アキタケン","city":"大仙市","city_kana":"ダイセンシ","town":"大曲","town_kana":"オオマガリ","prefecture_code":5},"0055":{"zip_code":"0140055","prefecture":"秋田県","prefecture_kana":"アキタケン","city":"大仙市","city_kana":"ダイセンシ","town":"大曲あけぼの町","town_kana":"オオマガリアケボノチョウ","prefecture_code":5},"0068":{"zip_code":"0140068","prefecture":"秋田県","prefecture_kana":"アキタケン","city":"大仙市","city_kana":"ダイセンシ","town":"大曲飯田町","town_kana":"オオマガリイイダチョウ","prefecture_code":5},"0025":{"zip_code":"0140025","prefecture":"秋田県","prefecture_kana":"アキタケン","city":"大仙市","city_kana":"ダイセンシ","town":"大曲大町","town_kana":"オオマガリオオマチ","prefecture_code":5},"0054":{"zip_code":"0140054","prefecture":"秋田県","prefecture_kana":"アキタケン","city":"大仙市","city_kana":"ダイセンシ","town":"大曲金谷町","town_kana":"オオマガリカナヤチョウ","prefecture_code":5},"0048":{"zip_code":"0140048","prefecture":"秋田県","prefecture_kana":"アキタケン","city":"大仙市","city_kana":"ダイセンシ","town":"大曲上大町","town_kana":"オオマガリカミオオマチ","prefecture_code":5},"0062":{"zip_code":"0140062","prefecture":"秋田県","prefecture_kana":"アキタケン","city":"大仙市","city_kana":"ダイセンシ","town":"大曲上栄町","town_kana":"オオマガリカミサカエチョウ","prefecture_code":5},"0052":{"zip_code":"0140052","prefecture":"秋田県","prefecture_kana":"アキタケン","city":"大仙市","city_kana":"ダイセンシ","town":"大曲川原町","town_kana":"オオマガリカワラチョウ","prefecture_code":5},"0023":{"zip_code":"0140023","prefecture":"秋田県","prefecture_kana":"アキタケン","city":"大仙市","city_kana":"ダイセンシ","town":"大曲黒瀬町","town_kana":"オオマガリクロセチョウ","prefecture_code":5},"0061":{"zip_code":"0140061","prefecture":"秋田県","prefecture_kana":"アキタケン","city":"大仙市","city_kana":"ダイセンシ","town":"大曲栄町","town_kana":"オオマガリサカエチョウ","prefecture_code":5},"0015":{"zip_code":"0140015","prefecture":"秋田県","prefecture_kana":"アキタケン","city":"大仙市","city_kana":"ダイセンシ","town":"大曲白金町","town_kana":"オオマガリシロガネチョウ","prefecture_code":5},"0034":{"zip_code":"0140034","prefecture":"秋田県","prefecture_kana":"アキタケン","city":"大仙市","city_kana":"ダイセンシ","town":"大曲住吉町","town_kana":"オオマガリスミヨシチョウ","prefecture_code":5},"0047":{"zip_code":"0140047","prefecture":"秋田県","prefecture_kana":"アキタケン","city":"大仙市","city_kana":"ダイセンシ","town":"大曲須和町","town_kana":"オオマガリスワチョウ","prefecture_code":5},"0046":{"zip_code":"0140046","prefecture":"秋田県","prefecture_kana":"アキタケン","city":"大仙市","city_kana":"ダイセンシ","town":"大曲田町","town_kana":"オオマガリタマチ","prefecture_code":5},"0027":{"zip_code":"0140027","prefecture":"秋田県","prefecture_kana":"アキタケン","city":"大仙市","city_kana":"ダイセンシ","town":"大曲通町","town_kana":"オオマガリトオリマチ","prefecture_code":5},"0043":{"zip_code":"0140043","prefecture":"秋田県","prefecture_kana":"アキタケン","city":"大仙市","city_kana":"ダイセンシ","town":"大曲戸巻町","town_kana":"オオマガリトマキチョウ","prefecture_code":5},"0024":{"zip_code":"0140024","prefecture":"秋田県","prefecture_kana":"アキタケン","city":"大仙市","city_kana":"ダイセンシ","town":"大曲中通町","town_kana":"オオマガリナカドオリマチ","prefecture_code":5},"0053":{"zip_code":"0140053","prefecture":"秋田県","prefecture_kana":"アキタケン","city":"大仙市","city_kana":"ダイセンシ","town":"大曲花園町","town_kana":"オオマガリハナゾノチョウ","prefecture_code":5},"0051":{"zip_code":"0140051","prefecture":"秋田県","prefecture_kana":"アキタケン","city":"大仙市","city_kana":"ダイセンシ","town":"大曲浜町","town_kana":"オオマガリハマチョウ","prefecture_code":5},"0063":{"zip_code":"0140063","prefecture":"秋田県","prefecture_kana":"アキタケン","city":"大仙市","city_kana":"ダイセンシ","town":"大曲日の出町","town_kana":"オオマガリヒノデチョウ","prefecture_code":5},"0014":{"zip_code":"0140014","prefecture":"秋田県","prefecture_kana":"アキタケン","city":"大仙市","city_kana":"ダイセンシ","town":"大曲福住町","town_kana":"オオマガリフクズミチョウ","prefecture_code":5},"0042":{"zip_code":"0140042","prefecture":"秋田県","prefecture_kana":"アキタケン","city":"大仙市","city_kana":"ダイセンシ","town":"大曲福見町","town_kana":"オオマガリフクミチョウ","prefecture_code":5},"0057":{"zip_code":"0140057","prefecture":"秋田県","prefecture_kana":"アキタケン","city":"大仙市","city_kana":"ダイセンシ","town":"大曲船場町","town_kana":"オオマガリフナバチョウ","prefecture_code":5},"0041":{"zip_code":"0140041","prefecture":"秋田県","prefecture_kana":"アキタケン","city":"大仙市","city_kana":"ダイセンシ","town":"大曲丸子町","town_kana":"オオマガリマルコチョウ","prefecture_code":5},"0026":{"zip_code":"0140026","prefecture":"秋田県","prefecture_kana":"アキタケン","city":"大仙市","city_kana":"ダイセンシ","town":"大曲丸の内町","town_kana":"オオマガリマルノウチマチ","prefecture_code":5},"0056":{"zip_code":"0140056","prefecture":"秋田県","prefecture_kana":"アキタケン","city":"大仙市","city_kana":"ダイセンシ","town":"大曲緑町","town_kana":"オオマガリミドリチョウ","prefecture_code":5},"0045":{"zip_code":"0140045","prefecture":"秋田県","prefecture_kana":"アキタケン","city":"大仙市","city_kana":"ダイセンシ","town":"大曲若葉町","town_kana":"オオマガリワカバチョウ","prefecture_code":5},"0072":{"zip_code":"0140072","prefecture":"秋田県","prefecture_kana":"アキタケン","city":"大仙市","city_kana":"ダイセンシ","town":"大曲西根","town_kana":"オオマガリニシネ","prefecture_code":5},"0064":{"zip_code":"0140064","prefecture":"秋田県","prefecture_kana":"アキタケン","city":"大仙市","city_kana":"ダイセンシ","town":"小貫高畑","town_kana":"オヌキタカバタケ","prefecture_code":5},"1413":{"zip_code":"0141413","prefecture":"秋田県","prefecture_kana":"アキタケン","city":"大仙市","city_kana":"ダイセンシ","town":"角間川町","town_kana":"カクマガワマチ","prefecture_code":5},"0202":{"zip_code":"0140202","prefecture":"秋田県","prefecture_kana":"アキタケン","city":"大仙市","city_kana":"ダイセンシ","town":"上鶯野","town_kana":"カミウグイスノ","prefecture_code":5},"0066":{"zip_code":"0140066","prefecture":"秋田県","prefecture_kana":"アキタケン","city":"大仙市","city_kana":"ダイセンシ","town":"川目","town_kana":"カワノメ","prefecture_code":5},"0203":{"zip_code":"0140203","prefecture":"秋田県","prefecture_kana":"アキタケン","city":"大仙市","city_kana":"ダイセンシ","town":"北長野","town_kana":"キタナガノ","prefecture_code":5},"0713":{"zip_code":"0140713","prefecture":"秋田県","prefecture_kana":"アキタケン","city":"大仙市","city_kana":"ダイセンシ","town":"栗沢","town_kana":"クリサワ","prefecture_code":5},"0803":{"zip_code":"0140803","prefecture":"秋田県","prefecture_kana":"アキタケン","city":"大仙市","city_kana":"ダイセンシ","town":"上野田","town_kana":"コウズケタ","prefecture_code":5},"0012":{"zip_code":"0140012","prefecture":"秋田県","prefecture_kana":"アキタケン","city":"大仙市","city_kana":"ダイセンシ","town":"幸町","town_kana":"サイワイチョウ","prefecture_code":5},"0017":{"zip_code":"0140017","prefecture":"秋田県","prefecture_kana":"アキタケン","city":"大仙市","city_kana":"ダイセンシ","town":"佐野町","town_kana":"サノチョウ","prefecture_code":5},"0204":{"zip_code":"0140204","prefecture":"秋田県","prefecture_kana":"アキタケン","city":"大仙市","city_kana":"ダイセンシ","town":"清水","town_kana":"シミズ","prefecture_code":5},"0201":{"zip_code":"0140201","prefecture":"秋田県","prefecture_kana":"アキタケン","city":"大仙市","city_kana":"ダイセンシ","town":"下鶯野","town_kana":"シモウグイスノ","prefecture_code":5},"0065":{"zip_code":"0140065","prefecture":"秋田県","prefecture_kana":"アキタケン","city":"大仙市","city_kana":"ダイセンシ","town":"下深井","town_kana":"シモフカイ","prefecture_code":5},"0103":{"zip_code":"0140103","prefecture":"秋田県","prefecture_kana":"アキタケン","city":"大仙市","city_kana":"ダイセンシ","town":"高関上郷","town_kana":"タカゼキカミゴウ","prefecture_code":5},"0805":{"zip_code":"0140805","prefecture":"秋田県","prefecture_kana":"アキタケン","city":"大仙市","city_kana":"ダイセンシ","town":"高梨","town_kana":"タカナシ","prefecture_code":5},"0801":{"zip_code":"0140801","prefecture":"秋田県","prefecture_kana":"アキタケン","city":"大仙市","city_kana":"ダイセンシ","town":"戸地谷","town_kana":"トチヤ","prefecture_code":5},"0044":{"zip_code":"0140044","prefecture":"秋田県","prefecture_kana":"アキタケン","city":"大仙市","city_kana":"ダイセンシ","town":"戸蒔","town_kana":"トマキ","prefecture_code":5},"0712":{"zip_code":"0140712","prefecture":"秋田県","prefecture_kana":"アキタケン","city":"大仙市","city_kana":"ダイセンシ","town":"豊岡","town_kana":"トヨオカ","prefecture_code":5},"0711":{"zip_code":"0140711","prefecture":"秋田県","prefecture_kana":"アキタケン","city":"大仙市","city_kana":"ダイセンシ","town":"豊川","town_kana":"トヨカワ","prefecture_code":5},"0206":{"zip_code":"0140206","prefecture":"秋田県","prefecture_kana":"アキタケン","city":"大仙市","city_kana":"ダイセンシ","town":"長戸呂","town_kana":"ナガトロ","prefecture_code":5},"0207":{"zip_code":"0140207","prefecture":"秋田県","prefecture_kana":"アキタケン","city":"大仙市","city_kana":"ダイセンシ","town":"長野","town_kana":"ナガノ","prefecture_code":5},"0104":{"zip_code":"0140104","prefecture":"秋田県","prefecture_kana":"アキタケン","city":"大仙市","city_kana":"ダイセンシ","town":"新谷地","town_kana":"ニイヤジ","prefecture_code":5},"0804":{"zip_code":"0140804","prefecture":"秋田県","prefecture_kana":"アキタケン","city":"大仙市","city_kana":"ダイセンシ","town":"橋本","town_kana":"ハシモト","prefecture_code":5},"0001":{"zip_code":"0140001","prefecture":"秋田県","prefecture_kana":"アキタケン","city":"大仙市","city_kana":"ダイセンシ","town":"花館","town_kana":"ハナダテ","prefecture_code":5},"0002":{"zip_code":"0140002","prefecture":"秋田県","prefecture_kana":"アキタケン","city":"大仙市","city_kana":"ダイセンシ","town":"花館上町","town_kana":"ハナダテカミチョウ","prefecture_code":5},"0006":{"zip_code":"0140006","prefecture":"秋田県","prefecture_kana":"アキタケン","city":"大仙市","city_kana":"ダイセンシ","town":"花館中町","town_kana":"ハナダテナカマチ","prefecture_code":5},"0005":{"zip_code":"0140005","prefecture":"秋田県","prefecture_kana":"アキタケン","city":"大仙市","city_kana":"ダイセンシ","town":"花館柳町","town_kana":"ハナダテヤナギマチ","prefecture_code":5},"0032":{"zip_code":"0140032","prefecture":"秋田県","prefecture_kana":"アキタケン","city":"大仙市","city_kana":"ダイセンシ","town":"東川","town_kana":"ヒガシカワ","prefecture_code":5},"0071":{"zip_code":"0140071","prefecture":"秋田県","prefecture_kana":"アキタケン","city":"大仙市","city_kana":"ダイセンシ","town":"蛭川","town_kana":"ヒルガワ","prefecture_code":5},"0114":{"zip_code":"0140114","prefecture":"秋田県","prefecture_kana":"アキタケン","city":"大仙市","city_kana":"ダイセンシ","town":"福田","town_kana":"フクダ","prefecture_code":5},"0021":{"zip_code":"0140021","prefecture":"秋田県","prefecture_kana":"アキタケン","city":"大仙市","city_kana":"ダイセンシ","town":"福田町","town_kana":"フクダチョウ","prefecture_code":5},"1412":{"zip_code":"0141412","prefecture":"秋田県","prefecture_kana":"アキタケン","city":"大仙市","city_kana":"ダイセンシ","town":"藤木","town_kana":"フジキ","prefecture_code":5},"0011":{"zip_code":"0140011","prefecture":"秋田県","prefecture_kana":"アキタケン","city":"大仙市","city_kana":"ダイセンシ","town":"富士見町","town_kana":"フジミチョウ","prefecture_code":5},"0802":{"zip_code":"0140802","prefecture":"秋田県","prefecture_kana":"アキタケン","city":"大仙市","city_kana":"ダイセンシ","town":"払田","town_kana":"ホッタ","prefecture_code":5},"0113":{"zip_code":"0140113","prefecture":"秋田県","prefecture_kana":"アキタケン","city":"大仙市","city_kana":"ダイセンシ","town":"堀見内","town_kana":"ホリミナイ","prefecture_code":5},"0101":{"zip_code":"0140101","prefecture":"秋田県","prefecture_kana":"アキタケン","city":"大仙市","city_kana":"ダイセンシ","town":"松倉","town_kana":"マツクラ","prefecture_code":5},"0003":{"zip_code":"0140003","prefecture":"秋田県","prefecture_kana":"アキタケン","city":"大仙市","city_kana":"ダイセンシ","town":"美原町","town_kana":"ミハラチョウ","prefecture_code":5},"0205":{"zip_code":"0140205","prefecture":"秋田県","prefecture_kana":"アキタケン","city":"大仙市","city_kana":"ダイセンシ","town":"鑓見内","town_kana":"ヤリミナイ","prefecture_code":5},"0111":{"zip_code":"0140111","prefecture":"秋田県","prefecture_kana":"アキタケン","city":"大仙市","city_kana":"ダイセンシ","town":"横堀","town_kana":"ヨコボリ","prefecture_code":5},"0102":{"zip_code":"0140102","prefecture":"秋田県","prefecture_kana":"アキタケン","city":"大仙市","city_kana":"ダイセンシ","town":"四ツ屋","town_kana":"ヨツヤ","prefecture_code":5},"1411":{"zip_code":"0141411","prefecture":"秋田県","prefecture_kana":"アキタケン","city":"大仙市","city_kana":"ダイセンシ","town":"六郷西根","town_kana":"ロクゴウニシネ","prefecture_code":5},"0016":{"zip_code":"0140016","prefecture":"秋田県","prefecture_kana":"アキタケン","city":"大仙市","city_kana":"ダイセンシ","town":"若竹町","town_kana":"ワカタケチョウ","prefecture_code":5},"0033":{"zip_code":"0140033","prefecture":"秋田県","prefecture_kana":"アキタケン","city":"大仙市","city_kana":"ダイセンシ","town":"和合","town_kana":"ワゴウ","prefecture_code":5},"0300":{"zip_code":"0140300","prefecture":"秋田県","prefecture_kana":"アキタケン","city":"仙北市","city_kana":"センボクシ","town":"","town_kana":"","prefecture_code":5},"0373":{"zip_code":"0140373","prefecture":"秋田県","prefecture_kana":"アキタケン","city":"仙北市","city_kana":"センボクシ","town":"角館町岩瀬","town_kana":"カクノダテマチイワセ","prefecture_code":5},"0375":{"zip_code":"0140375","prefecture":"秋田県","prefecture_kana":"アキタケン","city":"仙北市","city_kana":"センボクシ","town":"角館町岩瀬下タ野","town_kana":"カクノダテマチイワセシタノ","prefecture_code":5},"0316":{"zip_code":"0140316","prefecture":"秋田県","prefecture_kana":"アキタケン","city":"仙北市","city_kana":"センボクシ","town":"角館町岩瀬町","town_kana":"カクノダテマチイワセマチ","prefecture_code":5},"0374":{"zip_code":"0140374","prefecture":"秋田県","prefecture_kana":"アキタケン","city":"仙北市","city_kana":"センボクシ","town":"角館町上野","town_kana":"カクノダテマチウワノ","prefecture_code":5},"0336":{"zip_code":"0140336","prefecture":"秋田県","prefecture_kana":"アキタケン","city":"仙北市","city_kana":"センボクシ","town":"角館町裏町","town_kana":"カクノダテマチウラマチ","prefecture_code":5},"0364":{"zip_code":"0140364","prefecture":"秋田県","prefecture_kana":"アキタケン","city":"仙北市","city_kana":"センボクシ","town":"角館町大中嶋","town_kana":"カクノダテマチオオナカジマ","prefecture_code":5},"0371":{"zip_code":"0140371","prefecture":"秋田県","prefecture_kana":"アキタケン","city":"仙北市","city_kana":"センボクシ","town":"角館町大風呂","town_kana":"カクノダテマチオオフロ","prefecture_code":5},"0347":{"zip_code":"0140347","prefecture":"秋田県","prefecture_kana":"アキタケン","city":"仙北市","city_kana":"センボクシ","town":"角館町小勝田","town_kana":"カクノダテマチオガタ","prefecture_code":5},"0332":{"zip_code":"0140332","prefecture":"秋田県","prefecture_kana":"アキタケン","city":"仙北市","city_kana":"センボクシ","town":"角館町歩行町","town_kana":"カクノダテマチオカチマチ","prefecture_code":5},"0334":{"zip_code":"0140334","prefecture":"秋田県","prefecture_kana":"アキタケン","city":"仙北市","city_kana":"センボクシ","town":"角館町表町上丁","town_kana":"カクノダテマチオモテマチカミチョウ","prefecture_code":5},"0331":{"zip_code":"0140331","prefecture":"秋田県","prefecture_kana":"アキタケン","city":"仙北市","city_kana":"センボクシ","town":"角館町表町下丁","town_kana":"カクノダテマチオモテマチシモチョウ","prefecture_code":5},"0367":{"zip_code":"0140367","prefecture":"秋田県","prefecture_kana":"アキタケン","city":"仙北市","city_kana":"センボクシ","town":"角館町勝楽","town_kana":"カクノダテマチカツラク","prefecture_code":5},"0362":{"zip_code":"0140362","prefecture":"秋田県","prefecture_kana":"アキタケン","city":"仙北市","city_kana":"センボクシ","town":"角館町金山下","town_kana":"カクノダテマチカナヤマシタ","prefecture_code":5},"0327":{"zip_code":"0140327","prefecture":"秋田県","prefecture_kana":"アキタケン","city":"仙北市","city_kana":"センボクシ","town":"角館町上新町","town_kana":"カクノダテマチカミシンマチ","prefecture_code":5},"0369":{"zip_code":"0140369","prefecture":"秋田県","prefecture_kana":"アキタケン","city":"仙北市","city_kana":"センボクシ","town":"角館町上菅沢","town_kana":"カクノダテマチカミスガザワ","prefecture_code":5},"0346":{"zip_code":"0140346","prefecture":"秋田県","prefecture_kana":"アキタケン","city":"仙北市","city_kana":"センボクシ","town":"角館町川原","town_kana":"カクノダテマチカワラ","prefecture_code":5},"0333":{"zip_code":"0140333","prefecture":"秋田県","prefecture_kana":"アキタケン","city":"仙北市","city_kana":"センボクシ","town":"角館町川原町","town_kana":"カクノダテマチカワラマチ","prefecture_code":5},"0358":{"zip_code":"0140358","prefecture":"秋田県","prefecture_kana":"アキタケン","city":"仙北市","city_kana":"センボクシ","town":"角館町川原町後","town_kana":"カクノダテマチカワラマチウシロ","prefecture_code":5},"0359":{"zip_code":"0140359","prefecture":"秋田県","prefecture_kana":"アキタケン","city":"仙北市","city_kana":"センボクシ","town":"角館町北野","town_kana":"カクノダテマチキタノ","prefecture_code":5},"0341":{"zip_code":"0140341","prefecture":"秋田県","prefecture_kana":"アキタケン","city":"仙北市","city_kana":"センボクシ","town":"角館町雲然","town_kana":"カクノダテマチクモシカリ","prefecture_code":5},"0372":{"zip_code":"0140372","prefecture":"秋田県","prefecture_kana":"アキタケン","city":"仙北市","city_kana":"センボクシ","town":"角館町小館","town_kana":"カクノダテマチコダテ","prefecture_code":5},"0324":{"zip_code":"0140324","prefecture":"秋田県","prefecture_kana":"アキタケン","city":"仙北市","city_kana":"センボクシ","town":"角館町小人町","town_kana":"カクノダテマチコビトマチ","prefecture_code":5},"0363":{"zip_code":"0140363","prefecture":"秋田県","prefecture_kana":"アキタケン","city":"仙北市","city_kana":"センボクシ","town":"角館町下川原","town_kana":"カクノダテマチシタガワラ","prefecture_code":5},"0313":{"zip_code":"0140313","prefecture":"秋田県","prefecture_kana":"アキタケン","city":"仙北市","city_kana":"センボクシ","town":"角館町下岩瀬町","town_kana":"カクノダテマチシモイワセマチ","prefecture_code":5},"0315":{"zip_code":"0140315","prefecture":"秋田県","prefecture_kana":"アキタケン","city":"仙北市","city_kana":"センボクシ","town":"角館町下新町","town_kana":"カクノダテマチシモシンマチ","prefecture_code":5},"0366":{"zip_code":"0140366","prefecture":"秋田県","prefecture_kana":"アキタケン","city":"仙北市","city_kana":"センボクシ","town":"角館町下菅沢","town_kana":"カクノダテマチシモスガザワ","prefecture_code":5},"0317":{"zip_code":"0140317","prefecture":"秋田県","prefecture_kana":"アキタケン","city":"仙北市","city_kana":"センボクシ","town":"角館町下中町","town_kana":"カクノダテマチシモナカマチ","prefecture_code":5},"0343":{"zip_code":"0140343","prefecture":"秋田県","prefecture_kana":"アキタケン","city":"仙北市","city_kana":"センボクシ","town":"角館町下延","town_kana":"カクノダテマチシモノブ","prefecture_code":5},"0302":{"zip_code":"0140302","prefecture":"秋田県","prefecture_kana":"アキタケン","city":"仙北市","city_kana":"センボクシ","town":"角館町白岩","town_kana":"カクノダテマチシライワ","prefecture_code":5},"0365":{"zip_code":"0140365","prefecture":"秋田県","prefecture_kana":"アキタケン","city":"仙北市","city_kana":"センボクシ","town":"角館町菅沢","town_kana":"カクノダテマチスガザワ","prefecture_code":5},"0303":{"zip_code":"0140303","prefecture":"秋田県","prefecture_kana":"アキタケン","city":"仙北市","city_kana":"センボクシ","town":"角館町薗田","town_kana":"カクノダテマチソノダ","prefecture_code":5},"0328":{"zip_code":"0140328","prefecture":"秋田県","prefecture_kana":"アキタケン","city":"仙北市","city_kana":"センボクシ","town":"角館町竹原町","town_kana":"カクノダテマチタケワラマチ","prefecture_code":5},"0311":{"zip_code":"0140311","prefecture":"秋田県","prefecture_kana":"アキタケン","city":"仙北市","city_kana":"センボクシ","town":"角館町田町上丁","town_kana":"カクノダテマチタマチカミチョウ","prefecture_code":5},"0312":{"zip_code":"0140312","prefecture":"秋田県","prefecture_kana":"アキタケン","city":"仙北市","city_kana":"センボクシ","town":"角館町田町下丁","town_kana":"カクノダテマチタマチシモチョウ","prefecture_code":5},"0352":{"zip_code":"0140352","prefecture":"秋田県","prefecture_kana":"アキタケン","city":"仙北市","city_kana":"センボクシ","town":"角館町外ノ山","town_kana":"カクノダテマチトノヤマ","prefecture_code":5},"0355":{"zip_code":"0140355","prefecture":"秋田県","prefecture_kana":"アキタケン","city":"仙北市","city_kana":"センボクシ","town":"角館町外ノ山官有地","town_kana":"カクノダテマチトノヤマカンユウチ","prefecture_code":5},"0361":{"zip_code":"0140361","prefecture":"秋田県","prefecture_kana":"アキタケン","city":"仙北市","city_kana":"センボクシ","town":"角館町鳥木沢","town_kana":"カクノダテマチトリキザワ","prefecture_code":5},"0368":{"zip_code":"0140368","prefecture":"秋田県","prefecture_kana":"アキタケン","city":"仙北市","city_kana":"センボクシ","town":"角館町中菅沢","town_kana":"カクノダテマチナカスガザワ","prefecture_code":5},"0318":{"zip_code":"0140318","prefecture":"秋田県","prefecture_kana":"アキタケン","city":"仙北市","city_kana":"センボクシ","town":"角館町中町","town_kana":"カクノダテマチナカマチ","prefecture_code":5},"0322":{"zip_code":"0140322","prefecture":"秋田県","prefecture_kana":"アキタケン","city":"仙北市","city_kana":"センボクシ","town":"角館町七日町","town_kana":"カクノダテマチナノカマチ","prefecture_code":5},"0321":{"zip_code":"0140321","prefecture":"秋田県","prefecture_kana":"アキタケン","city":"仙北市","city_kana":"センボクシ","town":"角館町西勝楽町","town_kana":"カクノダテマチニシカツラクマチ","prefecture_code":5},"0379":{"zip_code":"0140379","prefecture":"秋田県","prefecture_kana":"アキタケン","city":"仙北市","city_kana":"センボクシ","town":"角館町西北野","town_kana":"カクノダテマチニシキタノ","prefecture_code":5},"0376":{"zip_code":"0140376","prefecture":"秋田県","prefecture_kana":"アキタケン","city":"仙北市","city_kana":"センボクシ","town":"角館町西下タ野","town_kana":"カクノダテマチニシシタノ","prefecture_code":5},"0353":{"zip_code":"0140353","prefecture":"秋田県","prefecture_kana":"アキタケン","city":"仙北市","city_kana":"センボクシ","town":"角館町西菅沢","town_kana":"カクノダテマチニシスガザワ","prefecture_code":5},"0377":{"zip_code":"0140377","prefecture":"秋田県","prefecture_kana":"アキタケン","city":"仙北市","city_kana":"センボクシ","town":"角館町西田","town_kana":"カクノダテマチニシタ","prefecture_code":5},"0344":{"zip_code":"0140344","prefecture":"秋田県","prefecture_kana":"アキタケン","city":"仙北市","city_kana":"センボクシ","town":"角館町西長野","town_kana":"カクノダテマチニシナガノ","prefecture_code":5},"0378":{"zip_code":"0140378","prefecture":"秋田県","prefecture_kana":"アキタケン","city":"仙北市","city_kana":"センボクシ","town":"角館町西野川原","town_kana":"カクノダテマチニシノカワラ","prefecture_code":5},"0342":{"zip_code":"0140342","prefecture":"秋田県","prefecture_kana":"アキタケン","city":"仙北市","city_kana":"センボクシ","town":"角館町八割","town_kana":"カクノダテマチハチワリ","prefecture_code":5},"0356":{"zip_code":"0140356","prefecture":"秋田県","prefecture_kana":"アキタケン","city":"仙北市","city_kana":"センボクシ","town":"角館町花場","town_kana":"カクノダテマチハナバ","prefecture_code":5},"0357":{"zip_code":"0140357","prefecture":"秋田県","prefecture_kana":"アキタケン","city":"仙北市","city_kana":"センボクシ","town":"角館町花場下","town_kana":"カクノダテマチハナバシタ","prefecture_code":5},"0325":{"zip_code":"0140325","prefecture":"秋田県","prefecture_kana":"アキタケン","city":"仙北市","city_kana":"センボクシ","town":"角館町東勝楽丁","town_kana":"カクノダテマチヒガシカツラクチョウ","prefecture_code":5},"0301":{"zip_code":"0140301","prefecture":"秋田県","prefecture_kana":"アキタケン","city":"仙北市","city_kana":"センボクシ","town":"角館町広久内","town_kana":"カクノダテマチヒロクナイ","prefecture_code":5},"0337":{"zip_code":"0140337","prefecture":"秋田県","prefecture_kana":"アキタケン","city":"仙北市","city_kana":"センボクシ","town":"角館町古城","town_kana":"カクノダテマチフルシロ","prefecture_code":5},"0351":{"zip_code":"0140351","prefecture":"秋田県","prefecture_kana":"アキタケン","city":"仙北市","city_kana":"センボクシ","town":"角館町古城山","town_kana":"カクノダテマチフルシロヤマ","prefecture_code":5},"0335":{"zip_code":"0140335","prefecture":"秋田県","prefecture_kana":"アキタケン","city":"仙北市","city_kana":"センボクシ","town":"角館町細越町","town_kana":"カクノダテマチホソゴエマチ","prefecture_code":5},"0354":{"zip_code":"0140354","prefecture":"秋田県","prefecture_kana":"アキタケン","city":"仙北市","city_kana":"センボクシ","town":"角館町水ノ目沢","town_kana":"カクノダテマチミズノメサワ","prefecture_code":5},"0326":{"zip_code":"0140326","prefecture":"秋田県","prefecture_kana":"アキタケン","city":"仙北市","city_kana":"センボクシ","town":"角館町山根町","town_kana":"カクノダテマチヤマネマチ","prefecture_code":5},"0345":{"zip_code":"0140345","prefecture":"秋田県","prefecture_kana":"アキタケン","city":"仙北市","city_kana":"センボクシ","town":"角館町山谷川崎","town_kana":"カクノダテマチヤマヤカワサキ","prefecture_code":5},"0323":{"zip_code":"0140323","prefecture":"秋田県","prefecture_kana":"アキタケン","city":"仙北市","city_kana":"センボクシ","town":"角館町横町","town_kana":"カクノダテマチヨコマチ","prefecture_code":5},"1112":{"zip_code":"0141112","prefecture":"秋田県","prefecture_kana":"アキタケン","city":"仙北市","city_kana":"センボクシ","town":"田沢湖梅沢","town_kana":"タザワコウメザワ","prefecture_code":5},"1111":{"zip_code":"0141111","prefecture":"秋田県","prefecture_kana":"アキタケン","city":"仙北市","city_kana":"センボクシ","town":"田沢湖岡崎","town_kana":"タザワコオカザキ","prefecture_code":5},"1201":{"zip_code":"0141201","prefecture":"秋田県","prefecture_kana":"アキタケン","city":"仙北市","city_kana":"センボクシ","town":"田沢湖生保内","town_kana":"タザワコオボナイ","prefecture_code":5},"1116":{"zip_code":"0141116","prefecture":"秋田県","prefecture_kana":"アキタケン","city":"仙北市","city_kana":"センボクシ","town":"田沢湖角館東前郷","town_kana":"タザワコカクノダテヒガシマエゴウ","prefecture_code":5},"1203":{"zip_code":"0141203","prefecture":"秋田県","prefecture_kana":"アキタケン","city":"仙北市","city_kana":"センボクシ","town":"田沢湖潟","town_kana":"タザワコカタ","prefecture_code":5},"1115":{"zip_code":"0141115","prefecture":"秋田県","prefecture_kana":"アキタケン","city":"仙北市","city_kana":"センボクシ","town":"田沢湖小松","town_kana":"タザワココマツ","prefecture_code":5},"1202":{"zip_code":"0141202","prefecture":"秋田県","prefecture_kana":"アキタケン","city":"仙北市","city_kana":"センボクシ","town":"田沢湖刺巻","town_kana":"タザワコサシマキ","prefecture_code":5},"1114":{"zip_code":"0141114","prefecture":"秋田県","prefecture_kana":"アキタケン","city":"仙北市","city_kana":"センボクシ","town":"田沢湖神代","town_kana":"タザワコジンダイ","prefecture_code":5},"1113":{"zip_code":"0141113","prefecture":"秋田県","prefecture_kana":"アキタケン","city":"仙北市","city_kana":"センボクシ","town":"田沢湖卒田","town_kana":"タザワコソツダ","prefecture_code":5},"1204":{"zip_code":"0141204","prefecture":"秋田県","prefecture_kana":"アキタケン","city":"仙北市","city_kana":"センボクシ","town":"田沢湖田沢","town_kana":"タザワコタザワ","prefecture_code":5},"1205":{"zip_code":"0141205","prefecture":"秋田県","prefecture_kana":"アキタケン","city":"仙北市","city_kana":"センボクシ","town":"田沢湖玉川","town_kana":"タザワコタマガワ","prefecture_code":5},"0515":{"zip_code":"0140515","prefecture":"秋田県","prefecture_kana":"アキタケン","city":"仙北市","city_kana":"センボクシ","town":"西木町門屋","town_kana":"ニシキチョウカドヤ","prefecture_code":5},"0512":{"zip_code":"0140512","prefecture":"秋田県","prefecture_kana":"アキタケン","city":"仙北市","city_kana":"センボクシ","town":"西木町上荒井","town_kana":"ニシキチョウカミアライ","prefecture_code":5},"0601":{"zip_code":"0140601","prefecture":"秋田県","prefecture_kana":"アキタケン","city":"仙北市","city_kana":"センボクシ","town":"西木町上桧木内","town_kana":"ニシキチョウカミヒノキナイ","prefecture_code":5},"0513":{"zip_code":"0140513","prefecture":"秋田県","prefecture_kana":"アキタケン","city":"仙北市","city_kana":"センボクシ","town":"西木町小渕野","town_kana":"ニシキチョウコブチノ","prefecture_code":5},"0516":{"zip_code":"0140516","prefecture":"秋田県","prefecture_kana":"アキタケン","city":"仙北市","city_kana":"センボクシ","town":"西木町小山田","town_kana":"ニシキチョウコヤマダ","prefecture_code":5},"0511":{"zip_code":"0140511","prefecture":"秋田県","prefecture_kana":"アキタケン","city":"仙北市","city_kana":"センボクシ","town":"西木町西明寺","town_kana":"ニシキチョウサイミョウジ","prefecture_code":5},"0514":{"zip_code":"0140514","prefecture":"秋田県","prefecture_kana":"アキタケン","city":"仙北市","city_kana":"センボクシ","town":"西木町西荒井","town_kana":"ニシキチョウニシアライ","prefecture_code":5},"0602":{"zip_code":"0140602","prefecture":"秋田県","prefecture_kana":"アキタケン","city":"仙北市","city_kana":"センボクシ","town":"西木町桧木内","town_kana":"ニシキチョウヒノキナイ","prefecture_code":5}}