{"0000":{"zip_code":"0150000","prefecture":"秋田県","prefecture_kana":"アキタケン","city":"由利本荘市","city_kana":"ユリホンジョウシ","town":"","town_kana":"","prefecture_code":5},"0023":{"zip_code":"0150023","prefecture":"秋田県","prefecture_kana":"アキタケン","city":"由利本荘市","city_kana":"ユリホンジョウシ","town":"赤田","town_kana":"アカタ","prefecture_code":5},"0836":{"zip_code":"0150836","prefecture":"秋田県","prefecture_kana":"アキタケン","city":"由利本荘市","city_kana":"ユリホンジョウシ","town":"赤沼下","town_kana":"アカヌマシタ","prefecture_code":5},"0079":{"zip_code":"0150079","prefecture":"秋田県","prefecture_kana":"アキタケン","city":"由利本荘市","city_kana":"ユリホンジョウシ","town":"赤沼下道","town_kana":"アカヌマシタミチ","prefecture_code":5},"0071":{"zip_code":"0150071","prefecture":"秋田県","prefecture_kana":"アキタケン","city":"由利本荘市","city_kana":"ユリホンジョウシ","town":"赤沼町","town_kana":"アカヌママチ","prefecture_code":5},"0034":{"zip_code":"0150034","prefecture":"秋田県","prefecture_kana":"アキタケン","city":"由利本荘市","city_kana":"ユリホンジョウシ","town":"芦川","town_kana":"アシカワ","prefecture_code":5},"0084":{"zip_code":"0150084","prefecture":"秋田県","prefecture_kana":"アキタケン","city":"由利本荘市","city_kana":"ユリホンジョウシ","town":"鮎瀬","town_kana":"アユセ","prefecture_code":5},"0065":{"zip_code":"0150065","prefecture":"秋田県","prefecture_kana":"アキタケン","city":"由利本荘市","city_kana":"ユリホンジョウシ","town":"荒町","town_kana":"アラマチ","prefecture_code":5},"0892":{"zip_code":"0150892","prefecture":"秋田県","prefecture_kana":"アキタケン","city":"由利本荘市","city_kana":"ユリホンジョウシ","town":"蟻山","town_kana":"アリヤマ","prefecture_code":5},"0301":{"zip_code":"0150301","prefecture":"秋田県","prefecture_kana":"アキタケン","city":"由利本荘市","city_kana":"ユリホンジョウシ","town":"飯沢","town_kana":"イイザワ","prefecture_code":5},"0311":{"zip_code":"0150311","prefecture":"秋田県","prefecture_kana":"アキタケン","city":"由利本荘市","city_kana":"ユリホンジョウシ","town":"五十土","town_kana":"イカヅチ","prefecture_code":5},"0012":{"zip_code":"0150012","prefecture":"秋田県","prefecture_kana":"アキタケン","city":"由利本荘市","city_kana":"ユリホンジョウシ","town":"石脇田尻","town_kana":"イシワキタジリ","prefecture_code":5},"0013":{"zip_code":"0150013","prefecture":"秋田県","prefecture_kana":"アキタケン","city":"由利本荘市","city_kana":"ユリホンジョウシ","town":"石脇田尻野","town_kana":"イシワキタジリノ","prefecture_code":5},"0014":{"zip_code":"0150014","prefecture":"秋田県","prefecture_kana":"アキタケン","city":"由利本荘市","city_kana":"ユリホンジョウシ","town":"石脇山ノ神","town_kana":"イシワキヤマノカミ","prefecture_code":5},"0011":{"zip_code":"0150011","prefecture":"秋田県","prefecture_kana":"アキタケン","city":"由利本荘市","city_kana":"ユリホンジョウシ","town":"石脇","town_kana":"イシワキ","prefecture_code":5},"0823":{"zip_code":"0150823","prefecture":"秋田県","prefecture_kana":"アキタケン","city":"由利本荘市","city_kana":"ユリホンジョウシ","town":"和泉町","town_kana":"イズミマチ","prefecture_code":5},"0852":{"zip_code":"0150852","prefecture":"秋田県","prefecture_kana":"アキタケン","city":"由利本荘市","city_kana":"ユリホンジョウシ","town":"一番堰","town_kana":"イチバンゼキ","prefecture_code":5},"0876":{"zip_code":"0150876","prefecture":"秋田県","prefecture_kana":"アキタケン","city":"由利本荘市","city_kana":"ユリホンジョウシ","town":"井戸尻","town_kana":"イドジリ","prefecture_code":5},"0834":{"zip_code":"0150834","prefecture":"秋田県","prefecture_kana":"アキタケン","city":"由利本荘市","city_kana":"ユリホンジョウシ","town":"岩渕下","town_kana":"イワブチシタ","prefecture_code":5},"0814":{"zip_code":"0150814","prefecture":"秋田県","prefecture_kana":"アキタケン","city":"由利本荘市","city_kana":"ユリホンジョウシ","town":"後町","town_kana":"ウシロマチ","prefecture_code":5},"0022":{"zip_code":"0150022","prefecture":"秋田県","prefecture_kana":"アキタケン","city":"由利本荘市","city_kana":"ユリホンジョウシ","town":"内黒瀬","town_kana":"ウチクロセ","prefecture_code":5},"0024":{"zip_code":"0150024","prefecture":"秋田県","prefecture_kana":"アキタケン","city":"由利本荘市","city_kana":"ユリホンジョウシ","town":"内越","town_kana":"ウテツ","prefecture_code":5},"0042":{"zip_code":"0150042","prefecture":"秋田県","prefecture_kana":"アキタケン","city":"由利本荘市","city_kana":"ユリホンジョウシ","town":"埋田","town_kana":"ウメダ","prefecture_code":5},"0072":{"zip_code":"0150072","prefecture":"秋田県","prefecture_kana":"アキタケン","city":"由利本荘市","city_kana":"ユリホンジョウシ","town":"裏尾崎町","town_kana":"ウラオザキマチ","prefecture_code":5},"0094":{"zip_code":"0150094","prefecture":"秋田県","prefecture_kana":"アキタケン","city":"由利本荘市","city_kana":"ユリホンジョウシ","town":"上野","town_kana":"ウワノ","prefecture_code":5},"0856":{"zip_code":"0150856","prefecture":"秋田県","prefecture_kana":"アキタケン","city":"由利本荘市","city_kana":"ユリホンジョウシ","town":"円正脇","town_kana":"エンショウワキ","prefecture_code":5},"0864":{"zip_code":"0150864","prefecture":"秋田県","prefecture_kana":"アキタケン","city":"由利本荘市","city_kana":"ユリホンジョウシ","town":"大鍬町","town_kana":"オオクワマチ","prefecture_code":5},"0093":{"zip_code":"0150093","prefecture":"秋田県","prefecture_kana":"アキタケン","city":"由利本荘市","city_kana":"ユリホンジョウシ","town":"大沢","town_kana":"オオサワ","prefecture_code":5},"0868":{"zip_code":"0150868","prefecture":"秋田県","prefecture_kana":"アキタケン","city":"由利本荘市","city_kana":"ユリホンジョウシ","town":"大堤下","town_kana":"オオヅツミシタ","prefecture_code":5},"0062":{"zip_code":"0150062","prefecture":"秋田県","prefecture_kana":"アキタケン","city":"由利本荘市","city_kana":"ユリホンジョウシ","town":"大中ノ沢","town_kana":"オオナカノサワ","prefecture_code":5},"0816":{"zip_code":"0150816","prefecture":"秋田県","prefecture_kana":"アキタケン","city":"由利本荘市","city_kana":"ユリホンジョウシ","town":"大町","town_kana":"オオマチ","prefecture_code":5},"0312":{"zip_code":"0150312","prefecture":"秋田県","prefecture_kana":"アキタケン","city":"由利本荘市","city_kana":"ユリホンジョウシ","town":"大水口","town_kana":"オオミナクチ","prefecture_code":5},"0091":{"zip_code":"0150091","prefecture":"秋田県","prefecture_kana":"アキタケン","city":"由利本荘市","city_kana":"ユリホンジョウシ","town":"大簗","town_kana":"オオヤナ","prefecture_code":5},"0021":{"zip_code":"0150021","prefecture":"秋田県","prefecture_kana":"アキタケン","city":"由利本荘市","city_kana":"ユリホンジョウシ","town":"大浦","town_kana":"オオラ","prefecture_code":5},"0811":{"zip_code":"0150811","prefecture":"秋田県","prefecture_kana":"アキタケン","city":"由利本荘市","city_kana":"ユリホンジョウシ","town":"桶屋町","town_kana":"オケヤマチ","prefecture_code":5},"0871":{"zip_code":"0150871","prefecture":"秋田県","prefecture_kana":"アキタケン","city":"由利本荘市","city_kana":"ユリホンジョウシ","town":"尾崎","town_kana":"オザキ","prefecture_code":5},"0802":{"zip_code":"0150802","prefecture":"秋田県","prefecture_kana":"アキタケン","city":"由利本荘市","city_kana":"ユリホンジョウシ","town":"表尾崎町","town_kana":"オモテオザキマチ","prefecture_code":5},"0035":{"zip_code":"0150035","prefecture":"秋田県","prefecture_kana":"アキタケン","city":"由利本荘市","city_kana":"ユリホンジョウシ","town":"親川","town_kana":"オヤカワ","prefecture_code":5},"0812":{"zip_code":"0150812","prefecture":"秋田県","prefecture_kana":"アキタケン","city":"由利本荘市","city_kana":"ユリホンジョウシ","town":"鍛治町","town_kana":"カジマチ","prefecture_code":5},"0826":{"zip_code":"0150826","prefecture":"秋田県","prefecture_kana":"アキタケン","city":"由利本荘市","city_kana":"ユリホンジョウシ","town":"片町","town_kana":"カタマチ","prefecture_code":5},"0321":{"zip_code":"0150321","prefecture":"秋田県","prefecture_kana":"アキタケン","city":"由利本荘市","city_kana":"ユリホンジョウシ","town":"蟹沢","town_kana":"カニザワ","prefecture_code":5},"0066":{"zip_code":"0150066","prefecture":"秋田県","prefecture_kana":"アキタケン","city":"由利本荘市","city_kana":"ユリホンジョウシ","town":"金山","town_kana":"カネヤマ","prefecture_code":5},"0854":{"zip_code":"0150854","prefecture":"秋田県","prefecture_kana":"アキタケン","city":"由利本荘市","city_kana":"ユリホンジョウシ","town":"上大野","town_kana":"カミオオノ","prefecture_code":5},"0085":{"zip_code":"0150085","prefecture":"秋田県","prefecture_kana":"アキタケン","city":"由利本荘市","city_kana":"ユリホンジョウシ","town":"烏川","town_kana":"カラスカワ","prefecture_code":5},"0051":{"zip_code":"0150051","prefecture":"秋田県","prefecture_kana":"アキタケン","city":"由利本荘市","city_kana":"ユリホンジョウシ","town":"川口","town_kana":"カワグチ","prefecture_code":5},"0331":{"zip_code":"0150331","prefecture":"秋田県","prefecture_kana":"アキタケン","city":"由利本荘市","city_kana":"ユリホンジョウシ","town":"川西","town_kana":"カワニシ","prefecture_code":5},"0872":{"zip_code":"0150872","prefecture":"秋田県","prefecture_kana":"アキタケン","city":"由利本荘市","city_kana":"ユリホンジョウシ","town":"瓦谷地","town_kana":"カワラヤチ","prefecture_code":5},"0825":{"zip_code":"0150825","prefecture":"秋田県","prefecture_kana":"アキタケン","city":"由利本荘市","city_kana":"ユリホンジョウシ","town":"観音町","town_kana":"カンノンマチ","prefecture_code":5},"0878":{"zip_code":"0150878","prefecture":"秋田県","prefecture_kana":"アキタケン","city":"由利本荘市","city_kana":"ユリホンジョウシ","town":"観音森","town_kana":"カンノンモリ","prefecture_code":5},"0831":{"zip_code":"0150831","prefecture":"秋田県","prefecture_kana":"アキタケン","city":"由利本荘市","city_kana":"ユリホンジョウシ","town":"北裏地","town_kana":"キタウラジ","prefecture_code":5},"0069":{"zip_code":"0150069","prefecture":"秋田県","prefecture_kana":"アキタケン","city":"由利本荘市","city_kana":"ユリホンジョウシ","town":"北ノ股","town_kana":"キタノマタ","prefecture_code":5},"0884":{"zip_code":"0150884","prefecture":"秋田県","prefecture_kana":"アキタケン","city":"由利本荘市","city_kana":"ユリホンジョウシ","town":"狐森","town_kana":"キツネモリ","prefecture_code":5},"0874":{"zip_code":"0150874","prefecture":"秋田県","prefecture_kana":"アキタケン","city":"由利本荘市","city_kana":"ユリホンジョウシ","town":"給人町","town_kana":"キュウジンチョウ","prefecture_code":5},"0881":{"zip_code":"0150881","prefecture":"秋田県","prefecture_kana":"アキタケン","city":"由利本荘市","city_kana":"ユリホンジョウシ","town":"切通","town_kana":"キリドオシ","prefecture_code":5},"0045":{"zip_code":"0150045","prefecture":"秋田県","prefecture_kana":"アキタケン","city":"由利本荘市","city_kana":"ユリホンジョウシ","town":"葛法","town_kana":"クズノリ","prefecture_code":5},"0302":{"zip_code":"0150302","prefecture":"秋田県","prefecture_kana":"アキタケン","city":"由利本荘市","city_kana":"ユリホンジョウシ","town":"久保田","town_kana":"クボタ","prefecture_code":5},"0361":{"zip_code":"0150361","prefecture":"秋田県","prefecture_kana":"アキタケン","city":"由利本荘市","city_kana":"ユリホンジョウシ","town":"黒沢","town_kana":"クロサワ","prefecture_code":5},"0883":{"zip_code":"0150883","prefecture":"秋田県","prefecture_kana":"アキタケン","city":"由利本荘市","city_kana":"ユリホンジョウシ","town":"下地ケ沢","town_kana":"ゲチガサワ","prefecture_code":5},"0313":{"zip_code":"0150313","prefecture":"秋田県","prefecture_kana":"アキタケン","city":"由利本荘市","city_kana":"ユリホンジョウシ","town":"小菅野","town_kana":"コスガノ","prefecture_code":5},"0862":{"zip_code":"0150862","prefecture":"秋田県","prefecture_kana":"アキタケン","city":"由利本荘市","city_kana":"ユリホンジョウシ","town":"小人町","town_kana":"コビトマチ","prefecture_code":5},"0891":{"zip_code":"0150891","prefecture":"秋田県","prefecture_kana":"アキタケン","city":"由利本荘市","city_kana":"ユリホンジョウシ","town":"小防ケ沢","town_kana":"コボウガサワ","prefecture_code":5},"0861":{"zip_code":"0150861","prefecture":"秋田県","prefecture_kana":"アキタケン","city":"由利本荘市","city_kana":"ユリホンジョウシ","town":"御門","town_kana":"ゴモン","prefecture_code":5},"0887":{"zip_code":"0150887","prefecture":"秋田県","prefecture_kana":"アキタケン","city":"由利本荘市","city_kana":"ユリホンジョウシ","town":"今野谷地","town_kana":"コンノヤチ","prefecture_code":5},"0821":{"zip_code":"0150821","prefecture":"秋田県","prefecture_kana":"アキタケン","city":"由利本荘市","city_kana":"ユリホンジョウシ","town":"肴町","town_kana":"サカナマチ","prefecture_code":5},"0074":{"zip_code":"0150074","prefecture":"秋田県","prefecture_kana":"アキタケン","city":"由利本荘市","city_kana":"ユリホンジョウシ","town":"桜小路","town_kana":"サクラコウジ","prefecture_code":5},"0073":{"zip_code":"0150073","prefecture":"秋田県","prefecture_kana":"アキタケン","city":"由利本荘市","city_kana":"ユリホンジョウシ","town":"笹道","town_kana":"ササミチ","prefecture_code":5},"0889":{"zip_code":"0150889","prefecture":"秋田県","prefecture_kana":"アキタケン","city":"由利本荘市","city_kana":"ユリホンジョウシ","town":"砂糖畑","town_kana":"サトウバタケ","prefecture_code":5},"0067":{"zip_code":"0150067","prefecture":"秋田県","prefecture_kana":"アキタケン","city":"由利本荘市","city_kana":"ユリホンジョウシ","town":"三条","town_kana":"サンジョウ","prefecture_code":5},"0841":{"zip_code":"0150841","prefecture":"秋田県","prefecture_kana":"アキタケン","city":"由利本荘市","city_kana":"ユリホンジョウシ","town":"下大野","town_kana":"シモオオノ","prefecture_code":5},"0832":{"zip_code":"0150832","prefecture":"秋田県","prefecture_kana":"アキタケン","city":"由利本荘市","city_kana":"ユリホンジョウシ","town":"下川原中島","town_kana":"シモカワハラナカジマ","prefecture_code":5},"0322":{"zip_code":"0150322","prefecture":"秋田県","prefecture_kana":"アキタケン","city":"由利本荘市","city_kana":"ユリホンジョウシ","town":"新上条","town_kana":"シンカミジョウ","prefecture_code":5},"0303":{"zip_code":"0150303","prefecture":"秋田県","prefecture_kana":"アキタケン","city":"由利本荘市","city_kana":"ユリホンジョウシ","town":"陳ケ森","town_kana":"ジンガモリ","prefecture_code":5},"0888":{"zip_code":"0150888","prefecture":"秋田県","prefecture_kana":"アキタケン","city":"由利本荘市","city_kana":"ユリホンジョウシ","town":"新組町","town_kana":"シンクミチョウ","prefecture_code":5},"0033":{"zip_code":"0150033","prefecture":"秋田県","prefecture_kana":"アキタケン","city":"由利本荘市","city_kana":"ユリホンジョウシ","town":"神沢","town_kana":"シンノサワ","prefecture_code":5},"0869":{"zip_code":"0150869","prefecture":"秋田県","prefecture_kana":"アキタケン","city":"由利本荘市","city_kana":"ユリホンジョウシ","town":"陣場岱","town_kana":"ジンバダイ","prefecture_code":5},"0833":{"zip_code":"0150833","prefecture":"秋田県","prefecture_kana":"アキタケン","city":"由利本荘市","city_kana":"ユリホンジョウシ","town":"巣組","town_kana":"スグミ","prefecture_code":5},"0875":{"zip_code":"0150875","prefecture":"秋田県","prefecture_kana":"アキタケン","city":"由利本荘市","city_kana":"ユリホンジョウシ","town":"砂子下","town_kana":"スナゴシタ","prefecture_code":5},"0351":{"zip_code":"0150351","prefecture":"秋田県","prefecture_kana":"アキタケン","city":"由利本荘市","city_kana":"ユリホンジョウシ","town":"堰口","town_kana":"セキグチ","prefecture_code":5},"0840":{"zip_code":"0150840","prefecture":"秋田県","prefecture_kana":"アキタケン","city":"由利本荘市","city_kana":"ユリホンジョウシ","town":"瀬越場","town_kana":"セゴシバ","prefecture_code":5},"0867":{"zip_code":"0150867","prefecture":"秋田県","prefecture_kana":"アキタケン","city":"由利本荘市","city_kana":"ユリホンジョウシ","town":"千刈","town_kana":"センガリ","prefecture_code":5},"0081":{"zip_code":"0150081","prefecture":"秋田県","prefecture_kana":"アキタケン","city":"由利本荘市","city_kana":"ユリホンジョウシ","town":"雪車町","town_kana":"ソリマチ","prefecture_code":5},"0808":{"zip_code":"0150808","prefecture":"秋田県","prefecture_kana":"アキタケン","city":"由利本荘市","city_kana":"ユリホンジョウシ","town":"大門","town_kana":"ダイモン","prefecture_code":5},"0083":{"zip_code":"0150083","prefecture":"秋田県","prefecture_kana":"アキタケン","city":"由利本荘市","city_kana":"ユリホンジョウシ","town":"滝ノ沢","town_kana":"タキノサワ","prefecture_code":5},"0086":{"zip_code":"0150086","prefecture":"秋田県","prefecture_kana":"アキタケン","city":"由利本荘市","city_kana":"ユリホンジョウシ","town":"舘","town_kana":"タテ","prefecture_code":5},"0063":{"zip_code":"0150063","prefecture":"秋田県","prefecture_kana":"アキタケン","city":"由利本荘市","city_kana":"ユリホンジョウシ","town":"舘前","town_kana":"タテマエ","prefecture_code":5},"0804":{"zip_code":"0150804","prefecture":"秋田県","prefecture_kana":"アキタケン","city":"由利本荘市","city_kana":"ユリホンジョウシ","town":"谷山小路","town_kana":"タニヤマコウジ","prefecture_code":5},"0822":{"zip_code":"0150822","prefecture":"秋田県","prefecture_kana":"アキタケン","city":"由利本荘市","city_kana":"ユリホンジョウシ","town":"田町","town_kana":"タマチ","prefecture_code":5},"0044":{"zip_code":"0150044","prefecture":"秋田県","prefecture_kana":"アキタケン","city":"由利本荘市","city_kana":"ユリホンジョウシ","town":"玉ノ池","town_kana":"タマノイケ","prefecture_code":5},"0504":{"zip_code":"0150504","prefecture":"秋田県","prefecture_kana":"アキタケン","city":"由利本荘市","city_kana":"ユリホンジョウシ","town":"鳥海町上川内","town_kana":"チョウカイマチカミカワウチ","prefecture_code":5},"0721":{"zip_code":"0150721","prefecture":"秋田県","prefecture_kana":"アキタケン","city":"由利本荘市","city_kana":"ユリホンジョウシ","town":"鳥海町上笹子","town_kana":"チョウカイマチカミジネゴ","prefecture_code":5},"0515":{"zip_code":"0150515","prefecture":"秋田県","prefecture_kana":"アキタケン","city":"由利本荘市","city_kana":"ユリホンジョウシ","town":"鳥海町上直根","town_kana":"チョウカイマチカミヒタネ","prefecture_code":5},"0503":{"zip_code":"0150503","prefecture":"秋田県","prefecture_kana":"アキタケン","city":"由利本荘市","city_kana":"ユリホンジョウシ","town":"鳥海町栗沢","town_kana":"チョウカイマチクリサワ","prefecture_code":5},"0505":{"zip_code":"0150505","prefecture":"秋田県","prefecture_kana":"アキタケン","city":"由利本荘市","city_kana":"ユリホンジョウシ","town":"鳥海町小川","town_kana":"チョウカイマチコガワ","prefecture_code":5},"0511":{"zip_code":"0150511","prefecture":"秋田県","prefecture_kana":"アキタケン","city":"由利本荘市","city_kana":"ユリホンジョウシ","town":"鳥海町戈之神","town_kana":"チョウカイマチサイノカミ","prefecture_code":5},"0512":{"zip_code":"0150512","prefecture":"秋田県","prefecture_kana":"アキタケン","city":"由利本荘市","city_kana":"ユリホンジョウシ","town":"鳥海町猿倉","town_kana":"チョウカイマチサルクラ","prefecture_code":5},"0502":{"zip_code":"0150502","prefecture":"秋田県","prefecture_kana":"アキタケン","city":"由利本荘市","city_kana":"ユリホンジョウシ","town":"鳥海町下川内","town_kana":"チョウカイマチシモカワウチ","prefecture_code":5},"0722":{"zip_code":"0150722","prefecture":"秋田県","prefecture_kana":"アキタケン","city":"由利本荘市","city_kana":"ユリホンジョウシ","town":"鳥海町下笹子","town_kana":"チョウカイマチシモジネゴ","prefecture_code":5},"0513":{"zip_code":"0150513","prefecture":"秋田県","prefecture_kana":"アキタケン","city":"由利本荘市","city_kana":"ユリホンジョウシ","town":"鳥海町下直根","town_kana":"チョウカイマチシモヒタネ","prefecture_code":5},"0514":{"zip_code":"0150514","prefecture":"秋田県","prefecture_kana":"アキタケン","city":"由利本荘市","city_kana":"ユリホンジョウシ","town":"鳥海町中直根","town_kana":"チョウカイマチナカヒタネ","prefecture_code":5},"0501":{"zip_code":"0150501","prefecture":"秋田県","prefecture_kana":"アキタケン","city":"由利本荘市","city_kana":"ユリホンジョウシ","town":"鳥海町伏見","town_kana":"チョウカイマチフシミ","prefecture_code":5},"0516":{"zip_code":"0150516","prefecture":"秋田県","prefecture_kana":"アキタケン","city":"由利本荘市","city_kana":"ユリホンジョウシ","town":"鳥海町百宅","town_kana":"チョウカイマチモモヤケ","prefecture_code":5},"0886":{"zip_code":"0150886","prefecture":"秋田県","prefecture_kana":"アキタケン","city":"由利本荘市","city_kana":"ユリホンジョウシ","town":"調練場","town_kana":"チョウレンバ","prefecture_code":5},"0323":{"zip_code":"0150323","prefecture":"秋田県","prefecture_kana":"アキタケン","city":"由利本荘市","city_kana":"ユリホンジョウシ","town":"土倉","town_kana":"ツチクラ","prefecture_code":5},"0054":{"zip_code":"0150054","prefecture":"秋田県","prefecture_kana":"アキタケン","city":"由利本荘市","city_kana":"ユリホンジョウシ","town":"土谷谷地","town_kana":"ツチヤヤチ","prefecture_code":5},"0055":{"zip_code":"0150055","prefecture":"秋田県","prefecture_kana":"アキタケン","city":"由利本荘市","city_kana":"ユリホンジョウシ","town":"土谷","town_kana":"ツチヤ","prefecture_code":5},"0866":{"zip_code":"0150866","prefecture":"秋田県","prefecture_kana":"アキタケン","city":"由利本荘市","city_kana":"ユリホンジョウシ","town":"堤脇","town_kana":"ツツミワキ","prefecture_code":5},"0873":{"zip_code":"0150873","prefecture":"秋田県","prefecture_kana":"アキタケン","city":"由利本荘市","city_kana":"ユリホンジョウシ","town":"鶴沼","town_kana":"ツルヌマ","prefecture_code":5},"0842":{"zip_code":"0150842","prefecture":"秋田県","prefecture_kana":"アキタケン","city":"由利本荘市","city_kana":"ユリホンジョウシ","town":"出戸上野","town_kana":"デトウエノ","prefecture_code":5},"0837":{"zip_code":"0150837","prefecture":"秋田県","prefecture_kana":"アキタケン","city":"由利本荘市","city_kana":"ユリホンジョウシ","town":"出戸町赤沼下道","town_kana":"デトマチアカヌマシタミチ","prefecture_code":5},"0857":{"zip_code":"0150857","prefecture":"秋田県","prefecture_kana":"アキタケン","city":"由利本荘市","city_kana":"ユリホンジョウシ","town":"寺後","town_kana":"テラウシロ","prefecture_code":5},"0061":{"zip_code":"0150061","prefecture":"秋田県","prefecture_kana":"アキタケン","city":"由利本荘市","city_kana":"ユリホンジョウシ","town":"二十六木","town_kana":"トドロキ","prefecture_code":5},"0089":{"zip_code":"0150089","prefecture":"秋田県","prefecture_kana":"アキタケン","city":"由利本荘市","city_kana":"ユリホンジョウシ","town":"鳥田目","town_kana":"トリタメ","prefecture_code":5},"0803":{"zip_code":"0150803","prefecture":"秋田県","prefecture_kana":"アキタケン","city":"由利本荘市","city_kana":"ユリホンジョウシ","town":"中竪町","town_kana":"ナカダテマチ","prefecture_code":5},"0851":{"zip_code":"0150851","prefecture":"秋田県","prefecture_kana":"アキタケン","city":"由利本荘市","city_kana":"ユリホンジョウシ","town":"中梵天","town_kana":"ナカボンテン","prefecture_code":5},"0817":{"zip_code":"0150817","prefecture":"秋田県","prefecture_kana":"アキタケン","city":"由利本荘市","city_kana":"ユリホンジョウシ","town":"中町","town_kana":"ナカマチ","prefecture_code":5},"0807":{"zip_code":"0150807","prefecture":"秋田県","prefecture_kana":"アキタケン","city":"由利本荘市","city_kana":"ユリホンジョウシ","town":"中横町","town_kana":"ナカヨコマチ","prefecture_code":5},"0865":{"zip_code":"0150865","prefecture":"秋田県","prefecture_kana":"アキタケン","city":"由利本荘市","city_kana":"ユリホンジョウシ","town":"西大鍬町","town_kana":"ニシオオクワマチ","prefecture_code":5},"0882":{"zip_code":"0150882","prefecture":"秋田県","prefecture_kana":"アキタケン","city":"由利本荘市","city_kana":"ユリホンジョウシ","town":"西小人町","town_kana":"ニシコビトマチ","prefecture_code":5},"0352":{"zip_code":"0150352","prefecture":"秋田県","prefecture_kana":"アキタケン","city":"由利本荘市","city_kana":"ユリホンジョウシ","town":"西沢","town_kana":"ニシサワ","prefecture_code":5},"0858":{"zip_code":"0150858","prefecture":"秋田県","prefecture_kana":"アキタケン","city":"由利本荘市","city_kana":"ユリホンジョウシ","town":"西梵天","town_kana":"ニシボンテン","prefecture_code":5},"0855":{"zip_code":"0150855","prefecture":"秋田県","prefecture_kana":"アキタケン","city":"由利本荘市","city_kana":"ユリホンジョウシ","town":"二番堰","town_kana":"ニバンゼキ","prefecture_code":5},"0877":{"zip_code":"0150877","prefecture":"秋田県","prefecture_kana":"アキタケン","city":"由利本荘市","city_kana":"ユリホンジョウシ","town":"濡浜北","town_kana":"ヌレハマキタ","prefecture_code":5},"0052":{"zip_code":"0150052","prefecture":"秋田県","prefecture_kana":"アキタケン","city":"由利本荘市","city_kana":"ユリホンジョウシ","town":"畑谷","town_kana":"ハタヤ","prefecture_code":5},"0835":{"zip_code":"0150835","prefecture":"秋田県","prefecture_kana":"アキタケン","city":"由利本荘市","city_kana":"ユリホンジョウシ","town":"八幡下","town_kana":"ハチマンシタ","prefecture_code":5},"0075":{"zip_code":"0150075","prefecture":"秋田県","prefecture_kana":"アキタケン","city":"由利本荘市","city_kana":"ユリホンジョウシ","town":"花畑町","town_kana":"ハナバタマチ","prefecture_code":5},"0031":{"zip_code":"0150031","prefecture":"秋田県","prefecture_kana":"アキタケン","city":"由利本荘市","city_kana":"ユリホンジョウシ","town":"浜三川","town_kana":"ハマサンカワ","prefecture_code":5},"0827":{"zip_code":"0150827","prefecture":"秋田県","prefecture_kana":"アキタケン","city":"由利本荘市","city_kana":"ユリホンジョウシ","town":"浜ノ町","town_kana":"ハマノマチ","prefecture_code":5},"0362":{"zip_code":"0150362","prefecture":"秋田県","prefecture_kana":"アキタケン","city":"由利本荘市","city_kana":"ユリホンジョウシ","town":"東鮎川","town_kana":"ヒガシアユカワ","prefecture_code":5},"0314":{"zip_code":"0150314","prefecture":"秋田県","prefecture_kana":"アキタケン","city":"由利本荘市","city_kana":"ユリホンジョウシ","town":"東中沢","town_kana":"ヒガシナカザワ","prefecture_code":5},"0843":{"zip_code":"0150843","prefecture":"秋田県","prefecture_kana":"アキタケン","city":"由利本荘市","city_kana":"ユリホンジョウシ","town":"東梵天","town_kana":"ヒガシボンテン","prefecture_code":5},"0076":{"zip_code":"0150076","prefecture":"秋田県","prefecture_kana":"アキタケン","city":"由利本荘市","city_kana":"ユリホンジョウシ","town":"東町","town_kana":"ヒガシマチ","prefecture_code":5},"0211":{"zip_code":"0150211","prefecture":"秋田県","prefecture_kana":"アキタケン","city":"由利本荘市","city_kana":"ユリホンジョウシ","town":"東由利老方","town_kana":"ヒガシユリオイカタ","prefecture_code":5},"0202":{"zip_code":"0150202","prefecture":"秋田県","prefecture_kana":"アキタケン","city":"由利本荘市","city_kana":"ユリホンジョウシ","town":"東由利蔵","town_kana":"ヒガシユリクラ","prefecture_code":5},"0231":{"zip_code":"0150231","prefecture":"秋田県","prefecture_kana":"アキタケン","city":"由利本荘市","city_kana":"ユリホンジョウシ","town":"東由利黒渕","town_kana":"ヒガシユリクロブチ","prefecture_code":5},"0241":{"zip_code":"0150241","prefecture":"秋田県","prefecture_kana":"アキタケン","city":"由利本荘市","city_kana":"ユリホンジョウシ","town":"東由利宿","town_kana":"ヒガシユリシュク","prefecture_code":5},"0242":{"zip_code":"0150242","prefecture":"秋田県","prefecture_kana":"アキタケン","city":"由利本荘市","city_kana":"ユリホンジョウシ","town":"東由利杉森","town_kana":"ヒガシユリスギモリ","prefecture_code":5},"0232":{"zip_code":"0150232","prefecture":"秋田県","prefecture_kana":"アキタケン","city":"由利本荘市","city_kana":"ユリホンジョウシ","town":"東由利田代","town_kana":"ヒガシユリタシロ","prefecture_code":5},"0221":{"zip_code":"0150221","prefecture":"秋田県","prefecture_kana":"アキタケン","city":"由利本荘市","city_kana":"ユリホンジョウシ","town":"東由利舘合","town_kana":"ヒガシユリタテアイ","prefecture_code":5},"0201":{"zip_code":"0150201","prefecture":"秋田県","prefecture_kana":"アキタケン","city":"由利本荘市","city_kana":"ユリホンジョウシ","town":"東由利法内","town_kana":"ヒガシユリホウナイ","prefecture_code":5},"0813":{"zip_code":"0150813","prefecture":"秋田県","prefecture_kana":"アキタケン","city":"由利本荘市","city_kana":"ユリホンジョウシ","town":"日役町","town_kana":"ヒキジマチ","prefecture_code":5},"0353":{"zip_code":"0150353","prefecture":"秋田県","prefecture_kana":"アキタケン","city":"由利本荘市","city_kana":"ユリホンジョウシ","town":"平石","town_kana":"ヒライシ","prefecture_code":5},"0053":{"zip_code":"0150053","prefecture":"秋田県","prefecture_kana":"アキタケン","city":"由利本荘市","city_kana":"ユリホンジョウシ","town":"福山","town_kana":"フクヤマ","prefecture_code":5},"0047":{"zip_code":"0150047","prefecture":"秋田県","prefecture_kana":"アキタケン","city":"由利本荘市","city_kana":"ユリホンジョウシ","town":"藤崎","town_kana":"フジサキ","prefecture_code":5},"0046":{"zip_code":"0150046","prefecture":"秋田県","prefecture_kana":"アキタケン","city":"由利本荘市","city_kana":"ユリホンジョウシ","town":"船岡","town_kana":"フナオカ","prefecture_code":5},"0890":{"zip_code":"0150890","prefecture":"秋田県","prefecture_kana":"アキタケン","city":"由利本荘市","city_kana":"ユリホンジョウシ","town":"船ケ台","town_kana":"フナガダイ","prefecture_code":5},"0863":{"zip_code":"0150863","prefecture":"秋田県","prefecture_kana":"アキタケン","city":"由利本荘市","city_kana":"ユリホンジョウシ","town":"不戻沢","town_kana":"フモドリサワ","prefecture_code":5},"0839":{"zip_code":"0150839","prefecture":"秋田県","prefecture_kana":"アキタケン","city":"由利本荘市","city_kana":"ユリホンジョウシ","town":"古川端","town_kana":"フルカワバタ","prefecture_code":5},"0824":{"zip_code":"0150824","prefecture":"秋田県","prefecture_kana":"アキタケン","city":"由利本荘市","city_kana":"ユリホンジョウシ","town":"古雪町","town_kana":"フルユキマチ","prefecture_code":5},"0809":{"zip_code":"0150809","prefecture":"秋田県","prefecture_kana":"アキタケン","city":"由利本荘市","city_kana":"ユリホンジョウシ","town":"本荘","town_kana":"ホンジョウ","prefecture_code":5},"0077":{"zip_code":"0150077","prefecture":"秋田県","prefecture_kana":"アキタケン","city":"由利本荘市","city_kana":"ユリホンジョウシ","town":"本田仲町","town_kana":"ホンタナカマチ","prefecture_code":5},"0838":{"zip_code":"0150838","prefecture":"秋田県","prefecture_kana":"アキタケン","city":"由利本荘市","city_kana":"ユリホンジョウシ","town":"梵天谷地","town_kana":"ボンテンヤチ","prefecture_code":5},"0341":{"zip_code":"0150341","prefecture":"秋田県","prefecture_kana":"アキタケン","city":"由利本荘市","city_kana":"ユリホンジョウシ","town":"前郷","town_kana":"マエゴウ","prefecture_code":5},"0304":{"zip_code":"0150304","prefecture":"秋田県","prefecture_kana":"アキタケン","city":"由利本荘市","city_kana":"ユリホンジョウシ","town":"曲沢","town_kana":"マガリサワ","prefecture_code":5},"0363":{"zip_code":"0150363","prefecture":"秋田県","prefecture_kana":"アキタケン","city":"由利本荘市","city_kana":"ユリホンジョウシ","town":"町村","town_kana":"マチムラ","prefecture_code":5},"0853":{"zip_code":"0150853","prefecture":"秋田県","prefecture_kana":"アキタケン","city":"由利本荘市","city_kana":"ユリホンジョウシ","town":"松街道","town_kana":"マツカイドウ","prefecture_code":5},"0032":{"zip_code":"0150032","prefecture":"秋田県","prefecture_kana":"アキタケン","city":"由利本荘市","city_kana":"ユリホンジョウシ","town":"松ケ崎","town_kana":"マツガサキ","prefecture_code":5},"0064":{"zip_code":"0150064","prefecture":"秋田県","prefecture_kana":"アキタケン","city":"由利本荘市","city_kana":"ユリホンジョウシ","town":"万願寺","town_kana":"マンガンジ","prefecture_code":5},"0801":{"zip_code":"0150801","prefecture":"秋田県","prefecture_kana":"アキタケン","city":"由利本荘市","city_kana":"ユリホンジョウシ","town":"美倉町","town_kana":"ミクラマチ","prefecture_code":5},"0885":{"zip_code":"0150885","prefecture":"秋田県","prefecture_kana":"アキタケン","city":"由利本荘市","city_kana":"ユリホンジョウシ","town":"水林","town_kana":"ミズバヤシ","prefecture_code":5},"0068":{"zip_code":"0150068","prefecture":"秋田県","prefecture_kana":"アキタケン","city":"由利本荘市","city_kana":"ユリホンジョウシ","town":"南ノ股","town_kana":"ミナミノマタ","prefecture_code":5},"0364":{"zip_code":"0150364","prefecture":"秋田県","prefecture_kana":"アキタケン","city":"由利本荘市","city_kana":"ユリホンジョウシ","town":"南福田","town_kana":"ミナミフクダ","prefecture_code":5},"0043":{"zip_code":"0150043","prefecture":"秋田県","prefecture_kana":"アキタケン","city":"由利本荘市","city_kana":"ユリホンジョウシ","town":"宮内","town_kana":"ミヤウチ","prefecture_code":5},"0082":{"zip_code":"0150082","prefecture":"秋田県","prefecture_kana":"アキタケン","city":"由利本荘市","city_kana":"ユリホンジョウシ","town":"宮沢","town_kana":"ミヤザワ","prefecture_code":5},"0332":{"zip_code":"0150332","prefecture":"秋田県","prefecture_kana":"アキタケン","city":"由利本荘市","city_kana":"ユリホンジョウシ","town":"森子","town_kana":"モリコ","prefecture_code":5},"0088":{"zip_code":"0150088","prefecture":"秋田県","prefecture_kana":"アキタケン","city":"由利本荘市","city_kana":"ユリホンジョウシ","town":"柳生","town_kana":"ヤギュウ","prefecture_code":5},"0041":{"zip_code":"0150041","prefecture":"秋田県","prefecture_kana":"アキタケン","city":"由利本荘市","city_kana":"ユリホンジョウシ","town":"薬師堂","town_kana":"ヤクシドウ","prefecture_code":5},"0418":{"zip_code":"0150418","prefecture":"秋田県","prefecture_kana":"アキタケン","city":"由利本荘市","city_kana":"ユリホンジョウシ","town":"矢島町荒沢","town_kana":"ヤシママチアラサワ","prefecture_code":5},"0412":{"zip_code":"0150412","prefecture":"秋田県","prefecture_kana":"アキタケン","city":"由利本荘市","city_kana":"ユリホンジョウシ","town":"矢島町川辺","town_kana":"ヤシママチカワベ","prefecture_code":5},"0413":{"zip_code":"0150413","prefecture":"秋田県","prefecture_kana":"アキタケン","city":"由利本荘市","city_kana":"ユリホンジョウシ","town":"矢島町木在","town_kana":"ヤシママチキサラ","prefecture_code":5},"0416":{"zip_code":"0150416","prefecture":"秋田県","prefecture_kana":"アキタケン","city":"由利本荘市","city_kana":"ユリホンジョウシ","town":"矢島町坂之下","town_kana":"ヤシママチサカノシタ","prefecture_code":5},"0411":{"zip_code":"0150411","prefecture":"秋田県","prefecture_kana":"アキタケン","city":"由利本荘市","city_kana":"ユリホンジョウシ","town":"矢島町城内","town_kana":"ヤシママチジョウナイ","prefecture_code":5},"0415":{"zip_code":"0150415","prefecture":"秋田県","prefecture_kana":"アキタケン","city":"由利本荘市","city_kana":"ユリホンジョウシ","town":"矢島町新荘","town_kana":"ヤシママチシンジョウ","prefecture_code":5},"0414":{"zip_code":"0150414","prefecture":"秋田県","prefecture_kana":"アキタケン","city":"由利本荘市","city_kana":"ユリホンジョウシ","town":"矢島町立石","town_kana":"ヤシママチタテイシ","prefecture_code":5},"0403":{"zip_code":"0150403","prefecture":"秋田県","prefecture_kana":"アキタケン","city":"由利本荘市","city_kana":"ユリホンジョウシ","town":"矢島町舘町","town_kana":"ヤシママチタテマチ","prefecture_code":5},"0401":{"zip_code":"0150401","prefecture":"秋田県","prefecture_kana":"アキタケン","city":"由利本荘市","city_kana":"ユリホンジョウシ","town":"矢島町田中町","town_kana":"ヤシママチタナカマチ","prefecture_code":5},"0404":{"zip_code":"0150404","prefecture":"秋田県","prefecture_kana":"アキタケン","city":"由利本荘市","city_kana":"ユリホンジョウシ","town":"矢島町七日町","town_kana":"ヤシママチナノカマチ","prefecture_code":5},"0417":{"zip_code":"0150417","prefecture":"秋田県","prefecture_kana":"アキタケン","city":"由利本荘市","city_kana":"ユリホンジョウシ","town":"矢島町元町","town_kana":"ヤシママチモトマチ","prefecture_code":5},"0402":{"zip_code":"0150402","prefecture":"秋田県","prefecture_kana":"アキタケン","city":"由利本荘市","city_kana":"ユリホンジョウシ","town":"矢島町矢島町","town_kana":"ヤシママチヤシママチ","prefecture_code":5},"0078":{"zip_code":"0150078","prefecture":"秋田県","prefecture_kana":"アキタケン","city":"由利本荘市","city_kana":"ユリホンジョウシ","town":"谷地町","town_kana":"ヤチマチ","prefecture_code":5},"0243":{"zip_code":"0150243","prefecture":"秋田県","prefecture_kana":"アキタケン","city":"由利本荘市","city_kana":"ユリホンジョウシ","town":"山内三ツ方森","town_kana":"ヤマウチミツカタモリ","prefecture_code":5},"0092":{"zip_code":"0150092","prefecture":"秋田県","prefecture_kana":"アキタケン","city":"由利本荘市","city_kana":"ユリホンジョウシ","town":"山内","town_kana":"ヤマウチ","prefecture_code":5},"0025":{"zip_code":"0150025","prefecture":"秋田県","prefecture_kana":"アキタケン","city":"由利本荘市","city_kana":"ユリホンジョウシ","town":"山田","town_kana":"ヤマダ","prefecture_code":5},"0333":{"zip_code":"0150333","prefecture":"秋田県","prefecture_kana":"アキタケン","city":"由利本荘市","city_kana":"ユリホンジョウシ","town":"山本","town_kana":"ヤマモト","prefecture_code":5},"0087":{"zip_code":"0150087","prefecture":"秋田県","prefecture_kana":"アキタケン","city":"由利本荘市","city_kana":"ユリホンジョウシ","town":"湯沢","town_kana":"ユザワ","prefecture_code":5},"0324":{"zip_code":"0150324","prefecture":"秋田県","prefecture_kana":"アキタケン","city":"由利本荘市","city_kana":"ユリホンジョウシ","town":"吉沢","town_kana":"ヨシザワ","prefecture_code":5},"0815":{"zip_code":"0150815","prefecture":"秋田県","prefecture_kana":"アキタケン","city":"由利本荘市","city_kana":"ユリホンジョウシ","town":"猟師町","town_kana":"リョウシマチ","prefecture_code":5}}