{"0000":{"zip_code":"0160000","prefecture":"秋田県","prefecture_kana":"アキタケン","city":"能代市","city_kana":"ノシロシ","town":"","town_kana":"","prefecture_code":5},"0865":{"zip_code":"0160865","prefecture":"秋田県","prefecture_kana":"アキタケン","city":"能代市","city_kana":"ノシロシ","town":"青葉町","town_kana":"アオバマチ","prefecture_code":5},"0835":{"zip_code":"0160835","prefecture":"秋田県","prefecture_kana":"アキタケン","city":"能代市","city_kana":"ノシロシ","town":"赤沼","town_kana":"アカヌマ","prefecture_code":5},"0115":{"zip_code":"0160115","prefecture":"秋田県","prefecture_kana":"アキタケン","city":"能代市","city_kana":"ノシロシ","town":"悪戸","town_kana":"アクド","prefecture_code":5},"0179":{"zip_code":"0160179","prefecture":"秋田県","prefecture_kana":"アキタケン","city":"能代市","city_kana":"ノシロシ","town":"浅内","town_kana":"アサナイ","prefecture_code":5},"0804":{"zip_code":"0160804","prefecture":"秋田県","prefecture_kana":"アキタケン","city":"能代市","city_kana":"ノシロシ","town":"万町","town_kana":"アラマチ","prefecture_code":5},"0102":{"zip_code":"0160102","prefecture":"秋田県","prefecture_kana":"アキタケン","city":"能代市","city_kana":"ノシロシ","town":"一本木","town_kana":"イッポンギ","prefecture_code":5},"0017":{"zip_code":"0160017","prefecture":"秋田県","prefecture_kana":"アキタケン","city":"能代市","city_kana":"ノシロシ","town":"磐","town_kana":"イワオ","prefecture_code":5},"0143":{"zip_code":"0160143","prefecture":"秋田県","prefecture_kana":"アキタケン","city":"能代市","city_kana":"ノシロシ","town":"上ノ山","town_kana":"ウエノヤマ","prefecture_code":5},"0144":{"zip_code":"0160144","prefecture":"秋田県","prefecture_kana":"アキタケン","city":"能代市","city_kana":"ノシロシ","town":"上ノ山台","town_kana":"ウエノヤマダイ","prefecture_code":5},"0863":{"zip_code":"0160863","prefecture":"秋田県","prefecture_kana":"アキタケン","city":"能代市","city_kana":"ノシロシ","town":"後谷地","town_kana":"ウシロヤチ","prefecture_code":5},"0136":{"zip_code":"0160136","prefecture":"秋田県","prefecture_kana":"アキタケン","city":"能代市","city_kana":"ノシロシ","town":"鵜鳥","town_kana":"ウトリ","prefecture_code":5},"0137":{"zip_code":"0160137","prefecture":"秋田県","prefecture_kana":"アキタケン","city":"能代市","city_kana":"ノシロシ","town":"鵜鳥悪戸","town_kana":"ウドリアクド","prefecture_code":5},"0138":{"zip_code":"0160138","prefecture":"秋田県","prefecture_kana":"アキタケン","city":"能代市","city_kana":"ノシロシ","town":"鵜鳥川原","town_kana":"ウドリガワラ","prefecture_code":5},"0141":{"zip_code":"0160141","prefecture":"秋田県","prefecture_kana":"アキタケン","city":"能代市","city_kana":"ノシロシ","town":"鵜ノ沢","town_kana":"ウノサワ","prefecture_code":5},"0135":{"zip_code":"0160135","prefecture":"秋田県","prefecture_kana":"アキタケン","city":"能代市","city_kana":"ノシロシ","town":"姥懐","town_kana":"ウバフトコロ","prefecture_code":5},"0842":{"zip_code":"0160842","prefecture":"秋田県","prefecture_kana":"アキタケン","city":"能代市","city_kana":"ノシロシ","town":"追分町","town_kana":"オイワケマチ","prefecture_code":5},"0122":{"zip_code":"0160122","prefecture":"秋田県","prefecture_kana":"アキタケン","city":"能代市","city_kana":"ノシロシ","town":"扇田","town_kana":"オウギダ","prefecture_code":5},"0162":{"zip_code":"0160162","prefecture":"秋田県","prefecture_kana":"アキタケン","city":"能代市","city_kana":"ノシロシ","town":"大内田","town_kana":"オオウチダ","prefecture_code":5},"0181":{"zip_code":"0160181","prefecture":"秋田県","prefecture_kana":"アキタケン","city":"能代市","city_kana":"ノシロシ","town":"大瀬儘下","town_kana":"オオセママシタ","prefecture_code":5},"0164":{"zip_code":"0160164","prefecture":"秋田県","prefecture_kana":"アキタケン","city":"能代市","city_kana":"ノシロシ","town":"大塚","town_kana":"オオツカ","prefecture_code":5},"0805":{"zip_code":"0160805","prefecture":"秋田県","prefecture_kana":"アキタケン","city":"能代市","city_kana":"ノシロシ","town":"大手町","town_kana":"オオテマチ","prefecture_code":5},"0803":{"zip_code":"0160803","prefecture":"秋田県","prefecture_kana":"アキタケン","city":"能代市","city_kana":"ノシロシ","town":"大町","town_kana":"オオマチ","prefecture_code":5},"0155":{"zip_code":"0160155","prefecture":"秋田県","prefecture_kana":"アキタケン","city":"能代市","city_kana":"ノシロシ","town":"大森","town_kana":"オオモリ","prefecture_code":5},"0807":{"zip_code":"0160807","prefecture":"秋田県","prefecture_kana":"アキタケン","city":"能代市","city_kana":"ノシロシ","town":"大森山","town_kana":"オオモリヤマ","prefecture_code":5},"0014":{"zip_code":"0160014","prefecture":"秋田県","prefecture_kana":"アキタケン","city":"能代市","city_kana":"ノシロシ","town":"落合","town_kana":"オチアイ","prefecture_code":5},"0884":{"zip_code":"0160884","prefecture":"秋田県","prefecture_kana":"アキタケン","city":"能代市","city_kana":"ノシロシ","town":"卸町","town_kana":"オロシマチ","prefecture_code":5},"0876":{"zip_code":"0160876","prefecture":"秋田県","prefecture_kana":"アキタケン","city":"能代市","city_kana":"ノシロシ","town":"海詠坂","town_kana":"カイエイザカ","prefecture_code":5},"0121":{"zip_code":"0160121","prefecture":"秋田県","prefecture_kana":"アキタケン","city":"能代市","city_kana":"ノシロシ","town":"鰄渕","town_kana":"カイラゲフチ","prefecture_code":5},"0166":{"zip_code":"0160166","prefecture":"秋田県","prefecture_kana":"アキタケン","city":"能代市","city_kana":"ノシロシ","town":"柏子所","town_kana":"カシコドコロ","prefecture_code":5},"0153":{"zip_code":"0160153","prefecture":"秋田県","prefecture_kana":"アキタケン","city":"能代市","city_kana":"ノシロシ","town":"上関","town_kana":"カミセキ","prefecture_code":5},"0172":{"zip_code":"0160172","prefecture":"秋田県","prefecture_kana":"アキタケン","city":"能代市","city_kana":"ノシロシ","town":"上古川布","town_kana":"カミフルカワシキ","prefecture_code":5},"0154":{"zip_code":"0160154","prefecture":"秋田県","prefecture_kana":"アキタケン","city":"能代市","city_kana":"ノシロシ","town":"上谷地","town_kana":"カミヤチ","prefecture_code":5},"0182":{"zip_code":"0160182","prefecture":"秋田県","prefecture_kana":"アキタケン","city":"能代市","city_kana":"ノシロシ","town":"上柳","town_kana":"カミヤナギ","prefecture_code":5},"0878":{"zip_code":"0160878","prefecture":"秋田県","prefecture_kana":"アキタケン","city":"能代市","city_kana":"ノシロシ","town":"臥竜山","town_kana":"ガリュウザン","prefecture_code":5},"0171":{"zip_code":"0160171","prefecture":"秋田県","prefecture_kana":"アキタケン","city":"能代市","city_kana":"ノシロシ","town":"河戸川","town_kana":"カワトガワ","prefecture_code":5},"0802":{"zip_code":"0160802","prefecture":"秋田県","prefecture_kana":"アキタケン","city":"能代市","city_kana":"ノシロシ","town":"川反町","town_kana":"カワバタマチ","prefecture_code":5},"0817":{"zip_code":"0160817","prefecture":"秋田県","prefecture_kana":"アキタケン","city":"能代市","city_kana":"ノシロシ","town":"上町","town_kana":"カンマチ","prefecture_code":5},"0178":{"zip_code":"0160178","prefecture":"秋田県","prefecture_kana":"アキタケン","city":"能代市","city_kana":"ノシロシ","town":"九郎左衛門笹台","town_kana":"クロウザエモンササダイ","prefecture_code":5},"0892":{"zip_code":"0160892","prefecture":"秋田県","prefecture_kana":"アキタケン","city":"能代市","city_kana":"ノシロシ","town":"景林町","town_kana":"ケイリンマチ","prefecture_code":5},"0834":{"zip_code":"0160834","prefecture":"秋田県","prefecture_kana":"アキタケン","city":"能代市","city_kana":"ノシロシ","town":"下内崎","town_kana":"ゲナイザキ","prefecture_code":5},"0883":{"zip_code":"0160883","prefecture":"秋田県","prefecture_kana":"アキタケン","city":"能代市","city_kana":"ノシロシ","town":"五雲岱","town_kana":"ゴウンダイ","prefecture_code":5},"0815":{"zip_code":"0160815","prefecture":"秋田県","prefecture_kana":"アキタケン","city":"能代市","city_kana":"ノシロシ","town":"御指南町","town_kana":"ゴシナンマチ","prefecture_code":5},"0177":{"zip_code":"0160177","prefecture":"秋田県","prefecture_kana":"アキタケン","city":"能代市","city_kana":"ノシロシ","town":"権現台","town_kana":"ゴンゲンダイ","prefecture_code":5},"0861":{"zip_code":"0160861","prefecture":"秋田県","prefecture_kana":"アキタケン","city":"能代市","city_kana":"ノシロシ","town":"彩霞長根","town_kana":"サイカナガネ","prefecture_code":5},"0846":{"zip_code":"0160846","prefecture":"秋田県","prefecture_kana":"アキタケン","city":"能代市","city_kana":"ノシロシ","town":"栄町","town_kana":"サカエマチ","prefecture_code":5},"0011":{"zip_code":"0160011","prefecture":"秋田県","prefecture_kana":"アキタケン","city":"能代市","city_kana":"ノシロシ","town":"坂形","town_kana":"サカガタ","prefecture_code":5},"0167":{"zip_code":"0160167","prefecture":"秋田県","prefecture_kana":"アキタケン","city":"能代市","city_kana":"ノシロシ","town":"塩干田前","town_kana":"シオカラダマエ","prefecture_code":5},"0168":{"zip_code":"0160168","prefecture":"秋田県","prefecture_kana":"アキタケン","city":"能代市","city_kana":"ノシロシ","town":"十洲崎","town_kana":"ジッシュウザキ","prefecture_code":5},"0872":{"zip_code":"0160872","prefecture":"秋田県","prefecture_kana":"アキタケン","city":"能代市","city_kana":"ノシロシ","town":"芝童森","town_kana":"シドウモリ","prefecture_code":5},"0113":{"zip_code":"0160113","prefecture":"秋田県","prefecture_kana":"アキタケン","city":"能代市","city_kana":"ノシロシ","town":"下悪戸","town_kana":"シモアクド","prefecture_code":5},"0185":{"zip_code":"0160185","prefecture":"秋田県","prefecture_kana":"アキタケン","city":"能代市","city_kana":"ノシロシ","town":"下瀬","town_kana":"シモセ","prefecture_code":5},"0104":{"zip_code":"0160104","prefecture":"秋田県","prefecture_kana":"アキタケン","city":"能代市","city_kana":"ノシロシ","town":"下関","town_kana":"シモセキ","prefecture_code":5},"0186":{"zip_code":"0160186","prefecture":"秋田県","prefecture_kana":"アキタケン","city":"能代市","city_kana":"ノシロシ","town":"下野","town_kana":"シモノ","prefecture_code":5},"0173":{"zip_code":"0160173","prefecture":"秋田県","prefecture_kana":"アキタケン","city":"能代市","city_kana":"ノシロシ","town":"下古川布","town_kana":"シモフルカワシキ","prefecture_code":5},"0187":{"zip_code":"0160187","prefecture":"秋田県","prefecture_kana":"アキタケン","city":"能代市","city_kana":"ノシロシ","town":"下柳","town_kana":"シモヤナギ","prefecture_code":5},"0862":{"zip_code":"0160862","prefecture":"秋田県","prefecture_kana":"アキタケン","city":"能代市","city_kana":"ノシロシ","town":"寿域長根","town_kana":"ジュイキナガネ","prefecture_code":5},"0897":{"zip_code":"0160897","prefecture":"秋田県","prefecture_kana":"アキタケン","city":"能代市","city_kana":"ノシロシ","town":"昭南町","town_kana":"ショウナンマチ","prefecture_code":5},"0871":{"zip_code":"0160871","prefecture":"秋田県","prefecture_kana":"アキタケン","city":"能代市","city_kana":"ノシロシ","town":"昇平岱","town_kana":"ショウヘイダイ","prefecture_code":5},"0174":{"zip_code":"0160174","prefecture":"秋田県","prefecture_kana":"アキタケン","city":"能代市","city_kana":"ノシロシ","town":"新山前","town_kana":"シンザンマエ","prefecture_code":5},"0895":{"zip_code":"0160895","prefecture":"秋田県","prefecture_kana":"アキタケン","city":"能代市","city_kana":"ノシロシ","town":"末広町","town_kana":"スエヒロマチ","prefecture_code":5},"0015":{"zip_code":"0160015","prefecture":"秋田県","prefecture_kana":"アキタケン","city":"能代市","city_kana":"ノシロシ","town":"須田","town_kana":"スダ","prefecture_code":5},"0881":{"zip_code":"0160881","prefecture":"秋田県","prefecture_kana":"アキタケン","city":"能代市","city_kana":"ノシロシ","town":"砂留山","town_kana":"スナドメヤマ","prefecture_code":5},"0824":{"zip_code":"0160824","prefecture":"秋田県","prefecture_kana":"アキタケン","city":"能代市","city_kana":"ノシロシ","town":"住吉町","town_kana":"スミヨシマチ","prefecture_code":5},"0806":{"zip_code":"0160806","prefecture":"秋田県","prefecture_kana":"アキタケン","city":"能代市","city_kana":"ノシロシ","town":"清助町","town_kana":"セイスケマチ","prefecture_code":5},"0877":{"zip_code":"0160877","prefecture":"秋田県","prefecture_kana":"アキタケン","city":"能代市","city_kana":"ノシロシ","town":"仙遊長根","town_kana":"センユウナガネ","prefecture_code":5},"0163":{"zip_code":"0160163","prefecture":"秋田県","prefecture_kana":"アキタケン","city":"能代市","city_kana":"ノシロシ","town":"袖又","town_kana":"ソデマタ","prefecture_code":5},"0001":{"zip_code":"0160001","prefecture":"秋田県","prefecture_kana":"アキタケン","city":"能代市","city_kana":"ノシロシ","town":"外荒巻","town_kana":"ソトアラマキ","prefecture_code":5},"0146":{"zip_code":"0160146","prefecture":"秋田県","prefecture_kana":"アキタケン","city":"能代市","city_kana":"ノシロシ","town":"外堤","town_kana":"ソトツツミ","prefecture_code":5},"0184":{"zip_code":"0160184","prefecture":"秋田県","prefecture_kana":"アキタケン","city":"能代市","city_kana":"ノシロシ","town":"高塙","town_kana":"タカハナ","prefecture_code":5},"0016":{"zip_code":"0160016","prefecture":"秋田県","prefecture_kana":"アキタケン","city":"能代市","city_kana":"ノシロシ","town":"竹生","town_kana":"タコウ","prefecture_code":5},"0857":{"zip_code":"0160857","prefecture":"秋田県","prefecture_kana":"アキタケン","city":"能代市","city_kana":"ノシロシ","town":"田子向","town_kana":"タコムカイ","prefecture_code":5},"0123":{"zip_code":"0160123","prefecture":"秋田県","prefecture_kana":"アキタケン","city":"能代市","city_kana":"ノシロシ","town":"田床内","town_kana":"タドコナイ","prefecture_code":5},"0149":{"zip_code":"0160149","prefecture":"秋田県","prefecture_kana":"アキタケン","city":"能代市","city_kana":"ノシロシ","town":"田中谷地","town_kana":"タナカヤチ","prefecture_code":5},"0165":{"zip_code":"0160165","prefecture":"秋田県","prefecture_kana":"アキタケン","city":"能代市","city_kana":"ノシロシ","town":"田屋","town_kana":"タヤ","prefecture_code":5},"0843":{"zip_code":"0160843","prefecture":"秋田県","prefecture_kana":"アキタケン","city":"能代市","city_kana":"ノシロシ","town":"中和","town_kana":"チュウワ","prefecture_code":5},"0131":{"zip_code":"0160131","prefecture":"秋田県","prefecture_kana":"アキタケン","city":"能代市","city_kana":"ノシロシ","town":"鶴形","town_kana":"ツルガタ","prefecture_code":5},"0853":{"zip_code":"0160853","prefecture":"秋田県","prefecture_kana":"アキタケン","city":"能代市","city_kana":"ノシロシ","town":"出戸後","town_kana":"デトウシロ","prefecture_code":5},"0852":{"zip_code":"0160852","prefecture":"秋田県","prefecture_kana":"アキタケン","city":"能代市","city_kana":"ノシロシ","town":"出戸本町","town_kana":"デトホンマチ","prefecture_code":5},"0188":{"zip_code":"0160188","prefecture":"秋田県","prefecture_kana":"アキタケン","city":"能代市","city_kana":"ノシロシ","town":"寺向","town_kana":"テラムカイ","prefecture_code":5},"0845":{"zip_code":"0160845","prefecture":"秋田県","prefecture_kana":"アキタケン","city":"能代市","city_kana":"ノシロシ","town":"通町","town_kana":"トオリマチ","prefecture_code":5},"0176":{"zip_code":"0160176","prefecture":"秋田県","prefecture_kana":"アキタケン","city":"能代市","city_kana":"ノシロシ","town":"戸川向","town_kana":"トガワムカイ","prefecture_code":5},"0134":{"zip_code":"0160134","prefecture":"秋田県","prefecture_kana":"アキタケン","city":"能代市","city_kana":"ノシロシ","town":"戸草沢","town_kana":"トクサザワ","prefecture_code":5},"0816":{"zip_code":"0160816","prefecture":"秋田県","prefecture_kana":"アキタケン","city":"能代市","city_kana":"ノシロシ","town":"富町","town_kana":"トミマチ","prefecture_code":5},"0147":{"zip_code":"0160147","prefecture":"秋田県","prefecture_kana":"アキタケン","city":"能代市","city_kana":"ノシロシ","town":"鳥矢場","town_kana":"トヤバ","prefecture_code":5},"0864":{"zip_code":"0160864","prefecture":"秋田県","prefecture_kana":"アキタケン","city":"能代市","city_kana":"ノシロシ","town":"鳥小屋","town_kana":"トリゴヤ","prefecture_code":5},"0114":{"zip_code":"0160114","prefecture":"秋田県","prefecture_kana":"アキタケン","city":"能代市","city_kana":"ノシロシ","town":"中悪戸","town_kana":"ナカアクド","prefecture_code":5},"0814":{"zip_code":"0160814","prefecture":"秋田県","prefecture_kana":"アキタケン","city":"能代市","city_kana":"ノシロシ","town":"中川原","town_kana":"ナカガワラ","prefecture_code":5},"0156":{"zip_code":"0160156","prefecture":"秋田県","prefecture_kana":"アキタケン","city":"能代市","city_kana":"ノシロシ","town":"中沢","town_kana":"ナカザワ","prefecture_code":5},"0812":{"zip_code":"0160812","prefecture":"秋田県","prefecture_kana":"アキタケン","city":"能代市","city_kana":"ノシロシ","town":"中嶋","town_kana":"ナカジマ","prefecture_code":5},"0112":{"zip_code":"0160112","prefecture":"秋田県","prefecture_kana":"アキタケン","city":"能代市","city_kana":"ノシロシ","town":"中嶋","town_kana":"ナカジマ","prefecture_code":5},"0101":{"zip_code":"0160101","prefecture":"秋田県","prefecture_kana":"アキタケン","city":"能代市","city_kana":"ノシロシ","town":"中関","town_kana":"ナカセキ","prefecture_code":5},"0183":{"zip_code":"0160183","prefecture":"秋田県","prefecture_kana":"アキタケン","city":"能代市","city_kana":"ノシロシ","town":"中柳","town_kana":"ナカヤナギ","prefecture_code":5},"0873":{"zip_code":"0160873","prefecture":"秋田県","prefecture_kana":"アキタケン","city":"能代市","city_kana":"ノシロシ","town":"長崎","town_kana":"ナガサキ","prefecture_code":5},"0875":{"zip_code":"0160875","prefecture":"秋田県","prefecture_kana":"アキタケン","city":"能代市","city_kana":"ノシロシ","town":"南陽崎","town_kana":"ナンヨウザキ","prefecture_code":5},"0111":{"zip_code":"0160111","prefecture":"秋田県","prefecture_kana":"アキタケン","city":"能代市","city_kana":"ノシロシ","town":"仁井田白山","town_kana":"ニイダシロヤマ","prefecture_code":5},"0837":{"zip_code":"0160837","prefecture":"秋田県","prefecture_kana":"アキタケン","city":"能代市","city_kana":"ノシロシ","town":"西赤沼","town_kana":"ニシアカヌマ","prefecture_code":5},"0855":{"zip_code":"0160855","prefecture":"秋田県","prefecture_kana":"アキタケン","city":"能代市","city_kana":"ノシロシ","town":"西大瀬","town_kana":"ニシオオセ","prefecture_code":5},"0891":{"zip_code":"0160891","prefecture":"秋田県","prefecture_kana":"アキタケン","city":"能代市","city_kana":"ノシロシ","town":"西通町","town_kana":"ニシドオリマチ","prefecture_code":5},"0003":{"zip_code":"0160003","prefecture":"秋田県","prefecture_kana":"アキタケン","city":"能代市","city_kana":"ノシロシ","town":"荷八田","town_kana":"ニハタ","prefecture_code":5},"0874":{"zip_code":"0160874","prefecture":"秋田県","prefecture_kana":"アキタケン","city":"能代市","city_kana":"ノシロシ","town":"沼ノ上","town_kana":"ヌマノウエ","prefecture_code":5},"0813":{"zip_code":"0160813","prefecture":"秋田県","prefecture_kana":"アキタケン","city":"能代市","city_kana":"ノシロシ","town":"能代町","town_kana":"ノシロマチ","prefecture_code":5},"0894":{"zip_code":"0160894","prefecture":"秋田県","prefecture_kana":"アキタケン","city":"能代市","city_kana":"ノシロシ","town":"萩の台","town_kana":"ハギノダイ","prefecture_code":5},"0116":{"zip_code":"0160116","prefecture":"秋田県","prefecture_kana":"アキタケン","city":"能代市","city_kana":"ノシロシ","town":"機織轌ノ目","town_kana":"ハタオリソリノメ","prefecture_code":5},"0821":{"zip_code":"0160821","prefecture":"秋田県","prefecture_kana":"アキタケン","city":"能代市","city_kana":"ノシロシ","town":"畠町","town_kana":"ハタマチ","prefecture_code":5},"0844":{"zip_code":"0160844","prefecture":"秋田県","prefecture_kana":"アキタケン","city":"能代市","city_kana":"ノシロシ","town":"花園町","town_kana":"ハナゾノマチ","prefecture_code":5},"0801":{"zip_code":"0160801","prefecture":"秋田県","prefecture_kana":"アキタケン","city":"能代市","city_kana":"ノシロシ","town":"浜通町","town_kana":"ハマドオリマチ","prefecture_code":5},"0157":{"zip_code":"0160157","prefecture":"秋田県","prefecture_kana":"アキタケン","city":"能代市","city_kana":"ノシロシ","town":"腹鞁ノ沢","town_kana":"ハラガイノサワ","prefecture_code":5},"0142":{"zip_code":"0160142","prefecture":"秋田県","prefecture_kana":"アキタケン","city":"能代市","city_kana":"ノシロシ","town":"半戸沢","town_kana":"ハントザワ","prefecture_code":5},"0896":{"zip_code":"0160896","prefecture":"秋田県","prefecture_kana":"アキタケン","city":"能代市","city_kana":"ノシロシ","town":"盤若町","town_kana":"ハンニャマチ","prefecture_code":5},"0836":{"zip_code":"0160836","prefecture":"秋田県","prefecture_kana":"アキタケン","city":"能代市","city_kana":"ノシロシ","town":"東赤沼","town_kana":"ヒガシアカヌマ","prefecture_code":5},"0839":{"zip_code":"0160839","prefecture":"秋田県","prefecture_kana":"アキタケン","city":"能代市","city_kana":"ノシロシ","town":"東大瀬","town_kana":"ヒガシオオセ","prefecture_code":5},"0822":{"zip_code":"0160822","prefecture":"秋田県","prefecture_kana":"アキタケン","city":"能代市","city_kana":"ノシロシ","town":"東町","town_kana":"ヒガシマチ","prefecture_code":5},"0012":{"zip_code":"0160012","prefecture":"秋田県","prefecture_kana":"アキタケン","city":"能代市","city_kana":"ノシロシ","town":"比八田","town_kana":"ヒハタ","prefecture_code":5},"0148":{"zip_code":"0160148","prefecture":"秋田県","prefecture_kana":"アキタケン","city":"能代市","city_kana":"ノシロシ","town":"冷清水","town_kana":"ヒヤシミズ","prefecture_code":5},"0151":{"zip_code":"0160151","prefecture":"秋田県","prefecture_kana":"アキタケン","city":"能代市","city_kana":"ノシロシ","town":"檜山","town_kana":"ヒヤマ","prefecture_code":5},"0811":{"zip_code":"0160811","prefecture":"秋田県","prefecture_kana":"アキタケン","city":"能代市","city_kana":"ノシロシ","town":"日吉町","town_kana":"ヒヨシマチ","prefecture_code":5},"0808":{"zip_code":"0160808","prefecture":"秋田県","prefecture_kana":"アキタケン","city":"能代市","city_kana":"ノシロシ","town":"日和山下","town_kana":"ヒヨリヤマシタ","prefecture_code":5},"0856":{"zip_code":"0160856","prefecture":"秋田県","prefecture_kana":"アキタケン","city":"能代市","city_kana":"ノシロシ","town":"藤山","town_kana":"フジヤマ","prefecture_code":5},"0004":{"zip_code":"0160004","prefecture":"秋田県","prefecture_kana":"アキタケン","city":"能代市","city_kana":"ノシロシ","town":"吹越","town_kana":"フッコシ","prefecture_code":5},"0175":{"zip_code":"0160175","prefecture":"秋田県","prefecture_kana":"アキタケン","city":"能代市","city_kana":"ノシロシ","town":"古屋布","town_kana":"フルヤシキ","prefecture_code":5},"0879":{"zip_code":"0160879","prefecture":"秋田県","prefecture_kana":"アキタケン","city":"能代市","city_kana":"ノシロシ","town":"不老岱","town_kana":"フロウダイ","prefecture_code":5},"0882":{"zip_code":"0160882","prefecture":"秋田県","prefecture_kana":"アキタケン","city":"能代市","city_kana":"ノシロシ","town":"鳳凰岱","town_kana":"ホウオウダイ","prefecture_code":5},"0169":{"zip_code":"0160169","prefecture":"秋田県","prefecture_kana":"アキタケン","city":"能代市","city_kana":"ノシロシ","town":"坊ケ崎","town_kana":"ボウガサキ","prefecture_code":5},"0854":{"zip_code":"0160854","prefecture":"秋田県","prefecture_kana":"アキタケン","city":"能代市","city_kana":"ノシロシ","town":"豊祥岱","town_kana":"ホウショウダイ","prefecture_code":5},"0002":{"zip_code":"0160002","prefecture":"秋田県","prefecture_kana":"アキタケン","city":"能代市","city_kana":"ノシロシ","town":"朴瀬","town_kana":"ホノキセ","prefecture_code":5},"0005":{"zip_code":"0160005","prefecture":"秋田県","prefecture_kana":"アキタケン","city":"能代市","city_kana":"ノシロシ","town":"真壁地","town_kana":"マカベチ","prefecture_code":5},"0132":{"zip_code":"0160132","prefecture":"秋田県","prefecture_kana":"アキタケン","city":"能代市","city_kana":"ノシロシ","town":"町後","town_kana":"マチウシロ","prefecture_code":5},"0161":{"zip_code":"0160161","prefecture":"秋田県","prefecture_kana":"アキタケン","city":"能代市","city_kana":"ノシロシ","town":"松長布","town_kana":"マツナガシキ","prefecture_code":5},"0893":{"zip_code":"0160893","prefecture":"秋田県","prefecture_kana":"アキタケン","city":"能代市","city_kana":"ノシロシ","town":"松美町","town_kana":"マツミマチ","prefecture_code":5},"0851":{"zip_code":"0160851","prefecture":"秋田県","prefecture_kana":"アキタケン","city":"能代市","city_kana":"ノシロシ","town":"緑町","town_kana":"ミドリマチ","prefecture_code":5},"0832":{"zip_code":"0160832","prefecture":"秋田県","prefecture_kana":"アキタケン","city":"能代市","city_kana":"ノシロシ","town":"南元町","town_kana":"ミナミモトマチ","prefecture_code":5},"0103":{"zip_code":"0160103","prefecture":"秋田県","prefecture_kana":"アキタケン","city":"能代市","city_kana":"ノシロシ","town":"宮ノ前","town_kana":"ミヤノマエ","prefecture_code":5},"0133":{"zip_code":"0160133","prefecture":"秋田県","prefecture_kana":"アキタケン","city":"能代市","city_kana":"ノシロシ","town":"向田表","town_kana":"ムカイタオモテ","prefecture_code":5},"0013":{"zip_code":"0160013","prefecture":"秋田県","prefecture_kana":"アキタケン","city":"能代市","city_kana":"ノシロシ","town":"向能代","town_kana":"ムカイノシロ","prefecture_code":5},"0833":{"zip_code":"0160833","prefecture":"秋田県","prefecture_kana":"アキタケン","city":"能代市","city_kana":"ノシロシ","town":"明治町","town_kana":"メイジマチ","prefecture_code":5},"0152":{"zip_code":"0160152","prefecture":"秋田県","prefecture_kana":"アキタケン","city":"能代市","city_kana":"ノシロシ","town":"母体","town_kana":"モタイ","prefecture_code":5},"0831":{"zip_code":"0160831","prefecture":"秋田県","prefecture_kana":"アキタケン","city":"能代市","city_kana":"ノシロシ","town":"元町","town_kana":"モトマチ","prefecture_code":5},"0139":{"zip_code":"0160139","prefecture":"秋田県","prefecture_kana":"アキタケン","city":"能代市","city_kana":"ノシロシ","town":"谷地上","town_kana":"ヤチウエ","prefecture_code":5},"0825":{"zip_code":"0160825","prefecture":"秋田県","prefecture_kana":"アキタケン","city":"能代市","city_kana":"ノシロシ","town":"柳町","town_kana":"ヤナギマチ","prefecture_code":5},"0841":{"zip_code":"0160841","prefecture":"秋田県","prefecture_kana":"アキタケン","city":"能代市","city_kana":"ノシロシ","town":"養蚕","town_kana":"ヨウサン","prefecture_code":5},"0838":{"zip_code":"0160838","prefecture":"秋田県","prefecture_kana":"アキタケン","city":"能代市","city_kana":"ノシロシ","town":"養蚕脇","town_kana":"ヨウサンワキ","prefecture_code":5},"0145":{"zip_code":"0160145","prefecture":"秋田県","prefecture_kana":"アキタケン","city":"能代市","city_kana":"ノシロシ","town":"若田","town_kana":"ワカタ","prefecture_code":5},"0823":{"zip_code":"0160823","prefecture":"秋田県","prefecture_kana":"アキタケン","city":"能代市","city_kana":"ノシロシ","town":"若松町","town_kana":"ワカマツチョウ","prefecture_code":5}}