{"0000":{"zip_code":"0170000","prefecture":"秋田県","prefecture_kana":"アキタケン","city":"大館市","city_kana":"オオダテシ","town":"","town_kana":"","prefecture_code":5},"0806":{"zip_code":"0170806","prefecture":"秋田県","prefecture_kana":"アキタケン","city":"大館市","city_kana":"オオダテシ","town":"相染沢中岱","town_kana":"アイゾメサワナカタイ","prefecture_code":5},"0831":{"zip_code":"0170831","prefecture":"秋田県","prefecture_kana":"アキタケン","city":"大館市","city_kana":"オオダテシ","town":"青葉町","town_kana":"アオバチョウ","prefecture_code":5},"0854":{"zip_code":"0170854","prefecture":"秋田県","prefecture_kana":"アキタケン","city":"大館市","city_kana":"オオダテシ","town":"赤石","town_kana":"アカイシ","prefecture_code":5},"0816":{"zip_code":"0170816","prefecture":"秋田県","prefecture_kana":"アキタケン","city":"大館市","city_kana":"オオダテシ","town":"赤館","town_kana":"アカダテ","prefecture_code":5},"0814":{"zip_code":"0170814","prefecture":"秋田県","prefecture_kana":"アキタケン","city":"大館市","city_kana":"オオダテシ","town":"赤館町","town_kana":"アカダテチョウ","prefecture_code":5},"0011":{"zip_code":"0170011","prefecture":"秋田県","prefecture_kana":"アキタケン","city":"大館市","city_kana":"オオダテシ","town":"商人留","town_kana":"アキヒトドメ","prefecture_code":5},"0025":{"zip_code":"0170025","prefecture":"秋田県","prefecture_kana":"アキタケン","city":"大館市","city_kana":"オオダテシ","town":"芦田子","town_kana":"アシダコ","prefecture_code":5},"0023":{"zip_code":"0170023","prefecture":"秋田県","prefecture_kana":"アキタケン","city":"大館市","city_kana":"オオダテシ","town":"東","town_kana":"アズマ","prefecture_code":5},"0043":{"zip_code":"0170043","prefecture":"秋田県","prefecture_kana":"アキタケン","city":"大館市","city_kana":"オオダテシ","town":"有浦","town_kana":"アリウラ","prefecture_code":5},"0836":{"zip_code":"0170836","prefecture":"秋田県","prefecture_kana":"アキタケン","city":"大館市","city_kana":"オオダテシ","town":"池内","town_kana":"イケナイ","prefecture_code":5},"0834":{"zip_code":"0170834","prefecture":"秋田県","prefecture_kana":"アキタケン","city":"大館市","city_kana":"オオダテシ","town":"池内道上","town_kana":"イケナイミチウエ","prefecture_code":5},"0832":{"zip_code":"0170832","prefecture":"秋田県","prefecture_kana":"アキタケン","city":"大館市","city_kana":"オオダテシ","town":"池内道下","town_kana":"イケナイミチシタ","prefecture_code":5},"0845":{"zip_code":"0170845","prefecture":"秋田県","prefecture_kana":"アキタケン","city":"大館市","city_kana":"オオダテシ","town":"泉町","town_kana":"イズミチョウ","prefecture_code":5},"0053":{"zip_code":"0170053","prefecture":"秋田県","prefecture_kana":"アキタケン","city":"大館市","city_kana":"オオダテシ","town":"板子石境","town_kana":"イタコイシザカイ","prefecture_code":5},"0853":{"zip_code":"0170853","prefecture":"秋田県","prefecture_kana":"アキタケン","city":"大館市","city_kana":"オオダテシ","town":"板沢","town_kana":"イタザワ","prefecture_code":5},"0825":{"zip_code":"0170825","prefecture":"秋田県","prefecture_kana":"アキタケン","city":"大館市","city_kana":"オオダテシ","town":"一心院南","town_kana":"イッシンインミナミ","prefecture_code":5},"0801":{"zip_code":"0170801","prefecture":"秋田県","prefecture_kana":"アキタケン","city":"大館市","city_kana":"オオダテシ","town":"一本杉","town_kana":"イッポンスギ","prefecture_code":5},"0857":{"zip_code":"0170857","prefecture":"秋田県","prefecture_kana":"アキタケン","city":"大館市","city_kana":"オオダテシ","town":"出川","town_kana":"イデガワ","prefecture_code":5},"0894":{"zip_code":"0170894","prefecture":"秋田県","prefecture_kana":"アキタケン","city":"大館市","city_kana":"オオダテシ","town":"裏町","town_kana":"ウラマチ","prefecture_code":5},"0817":{"zip_code":"0170817","prefecture":"秋田県","prefecture_kana":"アキタケン","city":"大館市","city_kana":"オオダテシ","town":"上町","town_kana":"ウワマチ","prefecture_code":5},"0837":{"zip_code":"0170837","prefecture":"秋田県","prefecture_kana":"アキタケン","city":"大館市","city_kana":"オオダテシ","town":"餌釣","town_kana":"エツリ","prefecture_code":5},"0805":{"zip_code":"0170805","prefecture":"秋田県","prefecture_kana":"アキタケン","city":"大館市","city_kana":"オオダテシ","town":"扇田道下","town_kana":"オウギダミチシタ","prefecture_code":5},"0024":{"zip_code":"0170024","prefecture":"秋田県","prefecture_kana":"アキタケン","city":"大館市","city_kana":"オオダテシ","town":"大茂内","town_kana":"オオシゲナイ","prefecture_code":5},"0041":{"zip_code":"0170041","prefecture":"秋田県","prefecture_kana":"アキタケン","city":"大館市","city_kana":"オオダテシ","town":"大田面","town_kana":"オオタオモテ","prefecture_code":5},"0896":{"zip_code":"0170896","prefecture":"秋田県","prefecture_kana":"アキタケン","city":"大館市","city_kana":"オオダテシ","town":"大館","town_kana":"オオダテ","prefecture_code":5},"0851":{"zip_code":"0170851","prefecture":"秋田県","prefecture_kana":"アキタケン","city":"大館市","city_kana":"オオダテシ","town":"大披","town_kana":"オオビラキ","prefecture_code":5},"0841":{"zip_code":"0170841","prefecture":"秋田県","prefecture_kana":"アキタケン","city":"大館市","city_kana":"オオダテシ","town":"大町","town_kana":"オオマチ","prefecture_code":5},"0044":{"zip_code":"0170044","prefecture":"秋田県","prefecture_kana":"アキタケン","city":"大館市","city_kana":"オオダテシ","town":"御成町","town_kana":"オナリチョウ","prefecture_code":5},"0004":{"zip_code":"0170004","prefecture":"秋田県","prefecture_kana":"アキタケン","city":"大館市","city_kana":"オオダテシ","town":"粕田","town_kana":"カスダ","prefecture_code":5},"0892":{"zip_code":"0170892","prefecture":"秋田県","prefecture_kana":"アキタケン","city":"大館市","city_kana":"オオダテシ","town":"片町","town_kana":"カタマチ","prefecture_code":5},"0871":{"zip_code":"0170871","prefecture":"秋田県","prefecture_kana":"アキタケン","city":"大館市","city_kana":"オオダテシ","town":"片山","town_kana":"カタヤマ","prefecture_code":5},"0872":{"zip_code":"0170872","prefecture":"秋田県","prefecture_kana":"アキタケン","city":"大館市","city_kana":"オオダテシ","town":"片山町","town_kana":"カタヤマチョウ","prefecture_code":5},"0812":{"zip_code":"0170812","prefecture":"秋田県","prefecture_kana":"アキタケン","city":"大館市","city_kana":"オオダテシ","town":"金坂","town_kana":"カネザカ","prefecture_code":5},"0813":{"zip_code":"0170813","prefecture":"秋田県","prefecture_kana":"アキタケン","city":"大館市","city_kana":"オオダテシ","town":"金坂後","town_kana":"カネザカウシロ","prefecture_code":5},"0031":{"zip_code":"0170031","prefecture":"秋田県","prefecture_kana":"アキタケン","city":"大館市","city_kana":"オオダテシ","town":"上代野","town_kana":"カミダイノ","prefecture_code":5},"0804":{"zip_code":"0170804","prefecture":"秋田県","prefecture_kana":"アキタケン","city":"大館市","city_kana":"オオダテシ","town":"柄沢","town_kana":"カラサワ","prefecture_code":5},"0878":{"zip_code":"0170878","prefecture":"秋田県","prefecture_kana":"アキタケン","city":"大館市","city_kana":"オオダテシ","town":"川口","town_kana":"カワグチ","prefecture_code":5},"0042":{"zip_code":"0170042","prefecture":"秋田県","prefecture_kana":"アキタケン","city":"大館市","city_kana":"オオダテシ","town":"観音堂","town_kana":"カンノンドウ","prefecture_code":5},"0866":{"zip_code":"0170866","prefecture":"秋田県","prefecture_kana":"アキタケン","city":"大館市","city_kana":"オオダテシ","town":"北神明町","town_kana":"キタシンメイチョウ","prefecture_code":5},"0893":{"zip_code":"0170893","prefecture":"秋田県","prefecture_kana":"アキタケン","city":"大館市","city_kana":"オオダテシ","town":"桂城","town_kana":"ケイジョウ","prefecture_code":5},"0014":{"zip_code":"0170014","prefecture":"秋田県","prefecture_kana":"アキタケン","city":"大館市","city_kana":"オオダテシ","town":"小釈迦内道上","town_kana":"コシャカナイミチウエ","prefecture_code":5},"0015":{"zip_code":"0170015","prefecture":"秋田県","prefecture_kana":"アキタケン","city":"大館市","city_kana":"オオダテシ","town":"小釈迦内道下","town_kana":"コシャカナイミチシタ","prefecture_code":5},"0861":{"zip_code":"0170861","prefecture":"秋田県","prefecture_kana":"アキタケン","city":"大館市","city_kana":"オオダテシ","town":"小館町","town_kana":"コタテチョウ","prefecture_code":5},"0835":{"zip_code":"0170835","prefecture":"秋田県","prefecture_kana":"アキタケン","city":"大館市","city_kana":"オオダテシ","town":"小館花","town_kana":"コダテハナ","prefecture_code":5},"0852":{"zip_code":"0170852","prefecture":"秋田県","prefecture_kana":"アキタケン","city":"大館市","city_kana":"オオダテシ","town":"小袴","town_kana":"コハカマ","prefecture_code":5},"0847":{"zip_code":"0170847","prefecture":"秋田県","prefecture_kana":"アキタケン","city":"大館市","city_kana":"オオダテシ","town":"幸町","town_kana":"サイワイチョウ","prefecture_code":5},"0821":{"zip_code":"0170821","prefecture":"秋田県","prefecture_kana":"アキタケン","city":"大館市","city_kana":"オオダテシ","town":"桜町","town_kana":"サクラチョウ","prefecture_code":5},"0822":{"zip_code":"0170822","prefecture":"秋田県","prefecture_kana":"アキタケン","city":"大館市","city_kana":"オオダテシ","town":"桜町南","town_kana":"サクラチョウミナミ","prefecture_code":5},"0897":{"zip_code":"0170897","prefecture":"秋田県","prefecture_kana":"アキタケン","city":"大館市","city_kana":"オオダテシ","town":"三ノ丸","town_kana":"サンノマル","prefecture_code":5},"0022":{"zip_code":"0170022","prefecture":"秋田県","prefecture_kana":"アキタケン","city":"大館市","city_kana":"オオダテシ","town":"茂内","town_kana":"シゲナイ","prefecture_code":5},"0046":{"zip_code":"0170046","prefecture":"秋田県","prefecture_kana":"アキタケン","city":"大館市","city_kana":"オオダテシ","town":"清水","town_kana":"シミズ","prefecture_code":5},"0037":{"zip_code":"0170037","prefecture":"秋田県","prefecture_kana":"アキタケン","city":"大館市","city_kana":"オオダテシ","town":"清水堰合","town_kana":"シミズセキアイ","prefecture_code":5},"0034":{"zip_code":"0170034","prefecture":"秋田県","prefecture_kana":"アキタケン","city":"大館市","city_kana":"オオダテシ","town":"下代野","town_kana":"シモダイノ","prefecture_code":5},"0033":{"zip_code":"0170033","prefecture":"秋田県","prefecture_kana":"アキタケン","city":"大館市","city_kana":"オオダテシ","town":"下綱","town_kana":"シモツナ","prefecture_code":5},"0012":{"zip_code":"0170012","prefecture":"秋田県","prefecture_kana":"アキタケン","city":"大館市","city_kana":"オオダテシ","town":"釈迦内","town_kana":"シャカナイ","prefecture_code":5},"0865":{"zip_code":"0170865","prefecture":"秋田県","prefecture_kana":"アキタケン","city":"大館市","city_kana":"オオダテシ","town":"城西町","town_kana":"ジョウセイチョウ","prefecture_code":5},"0002":{"zip_code":"0170002","prefecture":"秋田県","prefecture_kana":"アキタケン","city":"大館市","city_kana":"オオダテシ","town":"白沢","town_kana":"シラサワ","prefecture_code":5},"0844":{"zip_code":"0170844","prefecture":"秋田県","prefecture_kana":"アキタケン","city":"大館市","city_kana":"オオダテシ","town":"新町","town_kana":"シンマチ","prefecture_code":5},"0887":{"zip_code":"0170887","prefecture":"秋田県","prefecture_kana":"アキタケン","city":"大館市","city_kana":"オオダテシ","town":"水門町","town_kana":"スイモンチョウ","prefecture_code":5},"0888":{"zip_code":"0170888","prefecture":"秋田県","prefecture_kana":"アキタケン","city":"大館市","city_kana":"オオダテシ","town":"水門前","town_kana":"スイモンマエ","prefecture_code":5},"0875":{"zip_code":"0170875","prefecture":"秋田県","prefecture_kana":"アキタケン","city":"大館市","city_kana":"オオダテシ","town":"住吉町","town_kana":"スミヨシチョウ","prefecture_code":5},"0833":{"zip_code":"0170833","prefecture":"秋田県","prefecture_kana":"アキタケン","city":"大館市","city_kana":"オオダテシ","town":"象ケ鼻","town_kana":"ゾウガハナ","prefecture_code":5},"0035":{"zip_code":"0170035","prefecture":"秋田県","prefecture_kana":"アキタケン","city":"大館市","city_kana":"オオダテシ","town":"代野","town_kana":"ダイノ","prefecture_code":5},"0886":{"zip_code":"0170886","prefecture":"秋田県","prefecture_kana":"アキタケン","city":"大館市","city_kana":"オオダテシ","town":"館下","town_kana":"タテシタ","prefecture_code":5},"0877":{"zip_code":"0170877","prefecture":"秋田県","prefecture_kana":"アキタケン","city":"大館市","city_kana":"オオダテシ","town":"立花","town_kana":"タテバナ","prefecture_code":5},"0882":{"zip_code":"0170882","prefecture":"秋田県","prefecture_kana":"アキタケン","city":"大館市","city_kana":"オオダテシ","town":"鉄砲場","town_kana":"テッポウバ","prefecture_code":5},"0846":{"zip_code":"0170846","prefecture":"秋田県","prefecture_kana":"アキタケン","city":"大館市","city_kana":"オオダテシ","town":"常盤木町","town_kana":"トキワギチョウ","prefecture_code":5},"0884":{"zip_code":"0170884","prefecture":"秋田県","prefecture_kana":"アキタケン","city":"大館市","city_kana":"オオダテシ","town":"土飛山下","town_kana":"ドビヤマシタ","prefecture_code":5},"0867":{"zip_code":"0170867","prefecture":"秋田県","prefecture_kana":"アキタケン","city":"大館市","city_kana":"オオダテシ","town":"中神明町","town_kana":"ナカシンメイチョウ","prefecture_code":5},"0891":{"zip_code":"0170891","prefecture":"秋田県","prefecture_kana":"アキタケン","city":"大館市","city_kana":"オオダテシ","town":"中城","town_kana":"ナカジョウ","prefecture_code":5},"0843":{"zip_code":"0170843","prefecture":"秋田県","prefecture_kana":"アキタケン","city":"大館市","city_kana":"オオダテシ","town":"中町","town_kana":"ナカマチ","prefecture_code":5},"0045":{"zip_code":"0170045","prefecture":"秋田県","prefecture_kana":"アキタケン","city":"大館市","city_kana":"オオダテシ","town":"中道","town_kana":"ナカミチ","prefecture_code":5},"0839":{"zip_code":"0170839","prefecture":"秋田県","prefecture_kana":"アキタケン","city":"大館市","city_kana":"オオダテシ","town":"中山","town_kana":"ナカヤマ","prefecture_code":5},"0881":{"zip_code":"0170881","prefecture":"秋田県","prefecture_kana":"アキタケン","city":"大館市","city_kana":"オオダテシ","town":"長木川南","town_kana":"ナガキカワミナミ","prefecture_code":5},"0895":{"zip_code":"0170895","prefecture":"秋田県","prefecture_kana":"アキタケン","city":"大館市","city_kana":"オオダテシ","town":"長倉","town_kana":"ナガクラ","prefecture_code":5},"0802":{"zip_code":"0170802","prefecture":"秋田県","prefecture_kana":"アキタケン","city":"大館市","city_kana":"オオダテシ","town":"長根山下","town_kana":"ナガネヤマシタ","prefecture_code":5},"0001":{"zip_code":"0170001","prefecture":"秋田県","prefecture_kana":"アキタケン","city":"大館市","city_kana":"オオダテシ","town":"長走","town_kana":"ナガバシリ","prefecture_code":5},"0824":{"zip_code":"0170824","prefecture":"秋田県","prefecture_kana":"アキタケン","city":"大館市","city_kana":"オオダテシ","town":"七曲岱","town_kana":"ナナマガリタイ","prefecture_code":5},"0032":{"zip_code":"0170032","prefecture":"秋田県","prefecture_kana":"アキタケン","city":"大館市","city_kana":"オオダテシ","town":"新綱","town_kana":"ニイヅナ","prefecture_code":5},"0036":{"zip_code":"0170036","prefecture":"秋田県","prefecture_kana":"アキタケン","city":"大館市","city_kana":"オオダテシ","town":"二本杉後","town_kana":"ニホンスギウシロ","prefecture_code":5},"0055":{"zip_code":"0170055","prefecture":"秋田県","prefecture_kana":"アキタケン","city":"大館市","city_kana":"オオダテシ","town":"沼館道上","town_kana":"ヌマタテミチウエ","prefecture_code":5},"0056":{"zip_code":"0170056","prefecture":"秋田県","prefecture_kana":"アキタケン","city":"大館市","city_kana":"オオダテシ","town":"沼館道南","town_kana":"ヌマタテミチミナミ","prefecture_code":5},"0057":{"zip_code":"0170057","prefecture":"秋田県","prefecture_kana":"アキタケン","city":"大館市","city_kana":"オオダテシ","town":"沼館","town_kana":"ヌマダテ","prefecture_code":5},"0862":{"zip_code":"0170862","prefecture":"秋田県","prefecture_kana":"アキタケン","city":"大館市","city_kana":"オオダテシ","town":"根下戸","town_kana":"ネゲト","prefecture_code":5},"0864":{"zip_code":"0170864","prefecture":"秋田県","prefecture_kana":"アキタケン","city":"大館市","city_kana":"オオダテシ","town":"根下戸新町","town_kana":"ネゲトシンマチ","prefecture_code":5},"0863":{"zip_code":"0170863","prefecture":"秋田県","prefecture_kana":"アキタケン","city":"大館市","city_kana":"オオダテシ","town":"根下戸町","town_kana":"ネゲトチョウ","prefecture_code":5},"0842":{"zip_code":"0170842","prefecture":"秋田県","prefecture_kana":"アキタケン","city":"大館市","city_kana":"オオダテシ","town":"馬喰町","town_kana":"バクロウマチ","prefecture_code":5},"0003":{"zip_code":"0170003","prefecture":"秋田県","prefecture_kana":"アキタケン","city":"大館市","city_kana":"オオダテシ","town":"橋桁","town_kana":"ハシゲタ","prefecture_code":5},"0811":{"zip_code":"0170811","prefecture":"秋田県","prefecture_kana":"アキタケン","city":"大館市","city_kana":"オオダテシ","town":"八幡","town_kana":"ハチマン","prefecture_code":5},"0823":{"zip_code":"0170823","prefecture":"秋田県","prefecture_kana":"アキタケン","city":"大館市","city_kana":"オオダテシ","town":"八幡沢岱","town_kana":"ハチマンサワタイ","prefecture_code":5},"0005":{"zip_code":"0170005","prefecture":"秋田県","prefecture_kana":"アキタケン","city":"大館市","city_kana":"オオダテシ","town":"花岡町","town_kana":"ハナオカマチ","prefecture_code":5},"0803":{"zip_code":"0170803","prefecture":"秋田県","prefecture_kana":"アキタケン","city":"大館市","city_kana":"オオダテシ","town":"東台","town_kana":"ヒガシダイ","prefecture_code":5},"0855":{"zip_code":"0170855","prefecture":"秋田県","prefecture_kana":"アキタケン","city":"大館市","city_kana":"オオダテシ","town":"櫃崎","town_kana":"ヒツザキ","prefecture_code":5},"0026":{"zip_code":"0170026","prefecture":"秋田県","prefecture_kana":"アキタケン","city":"大館市","city_kana":"オオダテシ","town":"二ツ屋境","town_kana":"フタツヤサカイ","prefecture_code":5},"0883":{"zip_code":"0170883","prefecture":"秋田県","prefecture_kana":"アキタケン","city":"大館市","city_kana":"オオダテシ","town":"古川町","town_kana":"フルカワマチ","prefecture_code":5},"0815":{"zip_code":"0170815","prefecture":"秋田県","prefecture_kana":"アキタケン","city":"大館市","city_kana":"オオダテシ","town":"部垂町","town_kana":"ヘダレマチ","prefecture_code":5},"0052":{"zip_code":"0170052","prefecture":"秋田県","prefecture_kana":"アキタケン","city":"大館市","city_kana":"オオダテシ","town":"松木","town_kana":"マツキ","prefecture_code":5},"0054":{"zip_code":"0170054","prefecture":"秋田県","prefecture_kana":"アキタケン","city":"大館市","city_kana":"オオダテシ","town":"松館","town_kana":"マツダテ","prefecture_code":5},"0051":{"zip_code":"0170051","prefecture":"秋田県","prefecture_kana":"アキタケン","city":"大館市","city_kana":"オオダテシ","town":"松峰","town_kana":"マツミネ","prefecture_code":5},"0873":{"zip_code":"0170873","prefecture":"秋田県","prefecture_kana":"アキタケン","city":"大館市","city_kana":"オオダテシ","town":"御坂","town_kana":"ミサカ","prefecture_code":5},"0874":{"zip_code":"0170874","prefecture":"秋田県","prefecture_kana":"アキタケン","city":"大館市","city_kana":"オオダテシ","town":"美園町","town_kana":"ミソノチョウ","prefecture_code":5},"0868":{"zip_code":"0170868","prefecture":"秋田県","prefecture_kana":"アキタケン","city":"大館市","city_kana":"オオダテシ","town":"南神明町","town_kana":"ミナミシンメイチョウ","prefecture_code":5},"0828":{"zip_code":"0170828","prefecture":"秋田県","prefecture_kana":"アキタケン","city":"大館市","city_kana":"オオダテシ","town":"向町","town_kana":"ムカイマチ","prefecture_code":5},"0876":{"zip_code":"0170876","prefecture":"秋田県","prefecture_kana":"アキタケン","city":"大館市","city_kana":"オオダテシ","town":"餅田","town_kana":"モチタ","prefecture_code":5},"0827":{"zip_code":"0170827","prefecture":"秋田県","prefecture_kana":"アキタケン","city":"大館市","city_kana":"オオダテシ","town":"谷地町","town_kana":"ヤチマチ","prefecture_code":5},"0826":{"zip_code":"0170826","prefecture":"秋田県","prefecture_kana":"アキタケン","city":"大館市","city_kana":"オオダテシ","town":"谷地町後","town_kana":"ヤチマチウシロ","prefecture_code":5},"0838":{"zip_code":"0170838","prefecture":"秋田県","prefecture_kana":"アキタケン","city":"大館市","city_kana":"オオダテシ","town":"山館","town_kana":"ヤマダテ","prefecture_code":5},"0021":{"zip_code":"0170021","prefecture":"秋田県","prefecture_kana":"アキタケン","city":"大館市","city_kana":"オオダテシ","town":"雪沢","town_kana":"ユキサワ","prefecture_code":5},"0885":{"zip_code":"0170885","prefecture":"秋田県","prefecture_kana":"アキタケン","city":"大館市","city_kana":"オオダテシ","town":"豊町","town_kana":"ユタカチョウ","prefecture_code":5},"0200":{"zip_code":"0170200","prefecture":"秋田県","prefecture_kana":"アキタケン","city":"鹿角郡小坂町","city_kana":"カヅノグンコサカマチ","town":"","town_kana":"","prefecture_code":5},"0204":{"zip_code":"0170204","prefecture":"秋田県","prefecture_kana":"アキタケン","city":"鹿角郡小坂町","city_kana":"カヅノグンコサカマチ","town":"荒谷","town_kana":"アラヤ","prefecture_code":5},"0203":{"zip_code":"0170203","prefecture":"秋田県","prefecture_kana":"アキタケン","city":"鹿角郡小坂町","city_kana":"カヅノグンコサカマチ","town":"上向","town_kana":"ウワムキ","prefecture_code":5},"0201":{"zip_code":"0170201","prefecture":"秋田県","prefecture_kana":"アキタケン","city":"鹿角郡小坂町","city_kana":"カヅノグンコサカマチ","town":"小坂","town_kana":"コサカ","prefecture_code":5},"0202":{"zip_code":"0170202","prefecture":"秋田県","prefecture_kana":"アキタケン","city":"鹿角郡小坂町","city_kana":"カヅノグンコサカマチ","town":"小坂鉱山","town_kana":"コサカコウザン","prefecture_code":5},"0205":{"zip_code":"0170205","prefecture":"秋田県","prefecture_kana":"アキタケン","city":"鹿角郡小坂町","city_kana":"カヅノグンコサカマチ","town":"大地","town_kana":"ダイチ","prefecture_code":5}}