{"5501":[{"zip_code":"0185501","prefecture":"青森県","prefecture_kana":"アオモリケン","city":"十和田市","city_kana":"トワダシ","town":"奥瀬青撫","town_kana":"オクセアオブナ","prefecture_code":2},{"zip_code":"0185501","prefecture":"青森県","prefecture_kana":"アオモリケン","city":"十和田市","city_kana":"トワダシ","town":"奥瀬小畳石","town_kana":"オクセコタタミイシ","prefecture_code":2},{"zip_code":"0185501","prefecture":"青森県","prefecture_kana":"アオモリケン","city":"十和田市","city_kana":"トワダシ","town":"奥瀬十和田","town_kana":"オクセトワダ","prefecture_code":2},{"zip_code":"0185501","prefecture":"青森県","prefecture_kana":"アオモリケン","city":"十和田市","city_kana":"トワダシ","town":"奥瀬十和田湖畔宇樽部","town_kana":"オクセトワダコハンウタルベ","prefecture_code":2},{"zip_code":"0185501","prefecture":"青森県","prefecture_kana":"アオモリケン","city":"十和田市","city_kana":"トワダシ","town":"奥瀬十和田湖畔子ノ口","town_kana":"オクセトワダコハンネノクチ","prefecture_code":2},{"zip_code":"0185501","prefecture":"青森県","prefecture_kana":"アオモリケン","city":"十和田市","city_kana":"トワダシ","town":"奥瀬十和田湖畔休屋","town_kana":"オクセトワダコハンヤスミヤ","prefecture_code":2}],"2802":{"zip_code":"0182802","prefecture":"秋田県","prefecture_kana":"アキタケン","city":"能代市","city_kana":"ノシロシ","town":"天内","town_kana":"アマナイ","prefecture_code":5},"2812":{"zip_code":"0182812","prefecture":"秋田県","prefecture_kana":"アキタケン","city":"能代市","city_kana":"ノシロシ","town":"大曲","town_kana":"オオマガリ","prefecture_code":5},"2813":{"zip_code":"0182813","prefecture":"秋田県","prefecture_kana":"アキタケン","city":"能代市","city_kana":"ノシロシ","town":"上悪土","town_kana":"カミアクド","prefecture_code":5},"2814":{"zip_code":"0182814","prefecture":"秋田県","prefecture_kana":"アキタケン","city":"能代市","city_kana":"ノシロシ","town":"狐森","town_kana":"キツネモリ","prefecture_code":5},"2806":{"zip_code":"0182806","prefecture":"秋田県","prefecture_kana":"アキタケン","city":"能代市","city_kana":"ノシロシ","town":"久喜沢","town_kana":"クキサワ","prefecture_code":5},"2804":{"zip_code":"0182804","prefecture":"秋田県","prefecture_kana":"アキタケン","city":"能代市","city_kana":"ノシロシ","town":"槐","town_kana":"サイカチ","prefecture_code":5},"2811":{"zip_code":"0182811","prefecture":"秋田県","prefecture_kana":"アキタケン","city":"能代市","city_kana":"ノシロシ","town":"産物","town_kana":"サンブツ","prefecture_code":5},"2815":{"zip_code":"0182815","prefecture":"秋田県","prefecture_kana":"アキタケン","city":"能代市","city_kana":"ノシロシ","town":"東面","town_kana":"トウメン","prefecture_code":5},"2801":{"zip_code":"0182801","prefecture":"秋田県","prefecture_kana":"アキタケン","city":"能代市","city_kana":"ノシロシ","town":"常盤","town_kana":"トキワ","prefecture_code":5},"2805":{"zip_code":"0182805","prefecture":"秋田県","prefecture_kana":"アキタケン","city":"能代市","city_kana":"ノシロシ","town":"轟","town_kana":"トドロキ","prefecture_code":5},"2803":{"zip_code":"0182803","prefecture":"秋田県","prefecture_kana":"アキタケン","city":"能代市","city_kana":"ノシロシ","town":"外割田","town_kana":"トワリダ","prefecture_code":5},"3101":{"zip_code":"0183101","prefecture":"秋田県","prefecture_kana":"アキタケン","city":"能代市","city_kana":"ノシロシ","town":"二ツ井町麻生","town_kana":"フタツイマチアソウ","prefecture_code":5},"3116":{"zip_code":"0183116","prefecture":"秋田県","prefecture_kana":"アキタケン","city":"能代市","city_kana":"ノシロシ","town":"二ツ井町家後","town_kana":"フタツイマチイエウシロ","prefecture_code":5},"3119":{"zip_code":"0183119","prefecture":"秋田県","prefecture_kana":"アキタケン","city":"能代市","city_kana":"ノシロシ","town":"二ツ井町薄井","town_kana":"フタツイマチウスイ","prefecture_code":5},"3131":{"zip_code":"0183131","prefecture":"秋田県","prefecture_kana":"アキタケン","city":"能代市","city_kana":"ノシロシ","town":"二ツ井町梅内","town_kana":"フタツイマチウメナイ","prefecture_code":5},"3118":{"zip_code":"0183118","prefecture":"秋田県","prefecture_kana":"アキタケン","city":"能代市","city_kana":"ノシロシ","town":"二ツ井町上台","town_kana":"フタツイマチウワダイ","prefecture_code":5},"3142":{"zip_code":"0183142","prefecture":"秋田県","prefecture_kana":"アキタケン","city":"能代市","city_kana":"ノシロシ","town":"二ツ井町上野","town_kana":"フタツイマチウワノ","prefecture_code":5},"3143":{"zip_code":"0183143","prefecture":"秋田県","prefecture_kana":"アキタケン","city":"能代市","city_kana":"ノシロシ","town":"二ツ井町太田面","town_kana":"フタツイマチオオタモテ","prefecture_code":5},"3115":{"zip_code":"0183115","prefecture":"秋田県","prefecture_kana":"アキタケン","city":"能代市","city_kana":"ノシロシ","town":"二ツ井町海道上","town_kana":"フタツイマチカイドウウエ","prefecture_code":5},"3105":{"zip_code":"0183105","prefecture":"秋田県","prefecture_kana":"アキタケン","city":"能代市","city_kana":"ノシロシ","town":"二ツ井町上山崎","town_kana":"フタツイマチカミヤマザキ","prefecture_code":5},"3107":{"zip_code":"0183107","prefecture":"秋田県","prefecture_kana":"アキタケン","city":"能代市","city_kana":"ノシロシ","town":"二ツ井町苅又石","town_kana":"フタツイマチカリマタイシ","prefecture_code":5},"3126":{"zip_code":"0183126","prefecture":"秋田県","prefecture_kana":"アキタケン","city":"能代市","city_kana":"ノシロシ","town":"二ツ井町狐台","town_kana":"フタツイマチキツネダイ","prefecture_code":5},"3124":{"zip_code":"0183124","prefecture":"秋田県","prefecture_kana":"アキタケン","city":"能代市","city_kana":"ノシロシ","town":"二ツ井町切石","town_kana":"フタツイマチキリイシ","prefecture_code":5},"3112":{"zip_code":"0183112","prefecture":"秋田県","prefecture_kana":"アキタケン","city":"能代市","city_kana":"ノシロシ","town":"二ツ井町小掛","town_kana":"フタツイマチコガケ","prefecture_code":5},"3141":{"zip_code":"0183141","prefecture":"秋田県","prefecture_kana":"アキタケン","city":"能代市","city_kana":"ノシロシ","town":"二ツ井町五千苅","town_kana":"フタツイマチゴセンガリ","prefecture_code":5},"3147":{"zip_code":"0183147","prefecture":"秋田県","prefecture_kana":"アキタケン","city":"能代市","city_kana":"ノシロシ","town":"二ツ井町小槻木","town_kana":"フタツイマチコツキノキ","prefecture_code":5},"3102":{"zip_code":"0183102","prefecture":"秋田県","prefecture_kana":"アキタケン","city":"能代市","city_kana":"ノシロシ","town":"二ツ井町小繋","town_kana":"フタツイマチコツナギ","prefecture_code":5},"3123":{"zip_code":"0183123","prefecture":"秋田県","prefecture_kana":"アキタケン","city":"能代市","city_kana":"ノシロシ","town":"二ツ井町駒形","town_kana":"フタツイマチコマガタ","prefecture_code":5},"3114":{"zip_code":"0183114","prefecture":"秋田県","prefecture_kana":"アキタケン","city":"能代市","city_kana":"ノシロシ","town":"二ツ井町桜台","town_kana":"フタツイマチサクラダイ","prefecture_code":5},"3104":{"zip_code":"0183104","prefecture":"秋田県","prefecture_kana":"アキタケン","city":"能代市","city_kana":"ノシロシ","town":"二ツ井町沢口","town_kana":"フタツイマチサワグチ","prefecture_code":5},"3151":{"zip_code":"0183151","prefecture":"秋田県","prefecture_kana":"アキタケン","city":"能代市","city_kana":"ノシロシ","town":"二ツ井町三千苅","town_kana":"フタツイマチサンゼンガリ","prefecture_code":5},"3157":{"zip_code":"0183157","prefecture":"秋田県","prefecture_kana":"アキタケン","city":"能代市","city_kana":"ノシロシ","town":"二ツ井町下野","town_kana":"フタツイマチシモノ","prefecture_code":5},"3152":{"zip_code":"0183152","prefecture":"秋田県","prefecture_kana":"アキタケン","city":"能代市","city_kana":"ノシロシ","town":"二ツ井町下野家後","town_kana":"フタツイマチシモノイエウシロ","prefecture_code":5},"3156":{"zip_code":"0183156","prefecture":"秋田県","prefecture_kana":"アキタケン","city":"能代市","city_kana":"ノシロシ","town":"二ツ井町下野川端","town_kana":"フタツイマチシモノカワバタ","prefecture_code":5},"3128":{"zip_code":"0183128","prefecture":"秋田県","prefecture_kana":"アキタケン","city":"能代市","city_kana":"ノシロシ","town":"二ツ井町下稗柄","town_kana":"フタツイマチシモヒエガラ","prefecture_code":5},"3134":{"zip_code":"0183134","prefecture":"秋田県","prefecture_kana":"アキタケン","city":"能代市","city_kana":"ノシロシ","town":"二ツ井町高関","town_kana":"フタツイマチタカセキ","prefecture_code":5},"3111":{"zip_code":"0183111","prefecture":"秋田県","prefecture_kana":"アキタケン","city":"能代市","city_kana":"ノシロシ","town":"二ツ井町田代","town_kana":"フタツイマチタシロ","prefecture_code":5},"3133":{"zip_code":"0183133","prefecture":"秋田県","prefecture_kana":"アキタケン","city":"能代市","city_kana":"ノシロシ","town":"二ツ井町種竹原","town_kana":"フタツイマチタネタケハラ","prefecture_code":5},"3132":{"zip_code":"0183132","prefecture":"秋田県","prefecture_kana":"アキタケン","city":"能代市","city_kana":"ノシロシ","town":"二ツ井町種","town_kana":"フタツイマチタネ","prefecture_code":5},"3125":{"zip_code":"0183125","prefecture":"秋田県","prefecture_kana":"アキタケン","city":"能代市","city_kana":"ノシロシ","town":"二ツ井町茶屋下","town_kana":"フタツイマチチャヤシタ","prefecture_code":5},"3117":{"zip_code":"0183117","prefecture":"秋田県","prefecture_kana":"アキタケン","city":"能代市","city_kana":"ノシロシ","town":"二ツ井町塚台","town_kana":"フタツイマチツカノダイ","prefecture_code":5},"3148":{"zip_code":"0183148","prefecture":"秋田県","prefecture_kana":"アキタケン","city":"能代市","city_kana":"ノシロシ","town":"二ツ井町槻ノ木","town_kana":"フタツイマチツキノキ","prefecture_code":5},"3121":{"zip_code":"0183121","prefecture":"秋田県","prefecture_kana":"アキタケン","city":"能代市","city_kana":"ノシロシ","town":"二ツ井町飛根富根","town_kana":"フタツイマチトブネトミネ","prefecture_code":5},"3122":{"zip_code":"0183122","prefecture":"秋田県","prefecture_kana":"アキタケン","city":"能代市","city_kana":"ノシロシ","town":"二ツ井町飛根","town_kana":"フタツイマチトブネ","prefecture_code":5},"3144":{"zip_code":"0183144","prefecture":"秋田県","prefecture_kana":"アキタケン","city":"能代市","city_kana":"ノシロシ","town":"二ツ井町中坪","town_kana":"フタツイマチナカツボ","prefecture_code":5},"3146":{"zip_code":"0183146","prefecture":"秋田県","prefecture_kana":"アキタケン","city":"能代市","city_kana":"ノシロシ","town":"二ツ井町中坪道下","town_kana":"フタツイマチナカツボミチシタ","prefecture_code":5},"3153":{"zip_code":"0183153","prefecture":"秋田県","prefecture_kana":"アキタケン","city":"能代市","city_kana":"ノシロシ","town":"二ツ井町滑良子川端","town_kana":"フタツイマチナメラコカワバタ","prefecture_code":5},"3103":{"zip_code":"0183103","prefecture":"秋田県","prefecture_kana":"アキタケン","city":"能代市","city_kana":"ノシロシ","town":"二ツ井町荷上場","town_kana":"フタツイマチニアゲバ","prefecture_code":5},"3106":{"zip_code":"0183106","prefecture":"秋田県","prefecture_kana":"アキタケン","city":"能代市","city_kana":"ノシロシ","town":"二ツ井町濁川","town_kana":"フタツイマチニゴリカワ","prefecture_code":5},"3113":{"zip_code":"0183113","prefecture":"秋田県","prefecture_kana":"アキタケン","city":"能代市","city_kana":"ノシロシ","town":"二ツ井町仁鮒","town_kana":"フタツイマチニブナ","prefecture_code":5},"3155":{"zip_code":"0183155","prefecture":"秋田県","prefecture_kana":"アキタケン","city":"能代市","city_kana":"ノシロシ","town":"二ツ井町比井野","town_kana":"フタツイマチヒイノ","prefecture_code":5},"3129":{"zip_code":"0183129","prefecture":"秋田県","prefecture_kana":"アキタケン","city":"能代市","city_kana":"ノシロシ","town":"二ツ井町稗柄","town_kana":"フタツイマチヒエガラ","prefecture_code":5},"3127":{"zip_code":"0183127","prefecture":"秋田県","prefecture_kana":"アキタケン","city":"能代市","city_kana":"ノシロシ","town":"二ツ井町稗川原","town_kana":"フタツイマチヒエカワハラ","prefecture_code":5},"3154":{"zip_code":"0183154","prefecture":"秋田県","prefecture_kana":"アキタケン","city":"能代市","city_kana":"ノシロシ","town":"二ツ井町町尻","town_kana":"フタツイマチマチジリ","prefecture_code":5},"3145":{"zip_code":"0183145","prefecture":"秋田県","prefecture_kana":"アキタケン","city":"能代市","city_kana":"ノシロシ","town":"二ツ井町道上中坪","town_kana":"フタツイマチミチカミナカツボ","prefecture_code":5},"3135":{"zip_code":"0183135","prefecture":"秋田県","prefecture_kana":"アキタケン","city":"能代市","city_kana":"ノシロシ","town":"二ツ井町山根","town_kana":"フタツイマチヤマネ","prefecture_code":5},"3501":{"zip_code":"0183501","prefecture":"秋田県","prefecture_kana":"アキタケン","city":"大館市","city_kana":"オオダテシ","town":"岩瀬","town_kana":"イワセ","prefecture_code":5},"5754":{"zip_code":"0185754","prefecture":"秋田県","prefecture_kana":"アキタケン","city":"大館市","city_kana":"オオダテシ","town":"大子内","town_kana":"オオシナイ","prefecture_code":5},"5604":{"zip_code":"0185604","prefecture":"秋田県","prefecture_kana":"アキタケン","city":"大館市","city_kana":"オオダテシ","town":"軽井沢","town_kana":"カルイザワ","prefecture_code":5},"5606":{"zip_code":"0185606","prefecture":"秋田県","prefecture_kana":"アキタケン","city":"大館市","city_kana":"オオダテシ","town":"葛原","town_kana":"クズワラ","prefecture_code":5},"5605":{"zip_code":"0185605","prefecture":"秋田県","prefecture_kana":"アキタケン","city":"大館市","city_kana":"オオダテシ","town":"猿間","town_kana":"サルマ","prefecture_code":5},"5756":{"zip_code":"0185756","prefecture":"秋田県","prefecture_kana":"アキタケン","city":"大館市","city_kana":"オオダテシ","town":"下川原","town_kana":"シタカワラ","prefecture_code":5},"5601":{"zip_code":"0185601","prefecture":"秋田県","prefecture_kana":"アキタケン","city":"大館市","city_kana":"オオダテシ","town":"十二所","town_kana":"ジュウニショ","prefecture_code":5},"5755":{"zip_code":"0185755","prefecture":"秋田県","prefecture_kana":"アキタケン","city":"大館市","city_kana":"オオダテシ","town":"杉沢","town_kana":"スギサワ","prefecture_code":5},"3503":{"zip_code":"0183503","prefecture":"秋田県","prefecture_kana":"アキタケン","city":"大館市","city_kana":"オオダテシ","town":"外川原","town_kana":"ソトカワラ","prefecture_code":5},"5602":{"zip_code":"0185602","prefecture":"秋田県","prefecture_kana":"アキタケン","city":"大館市","city_kana":"オオダテシ","town":"道目木","town_kana":"ドウメキ","prefecture_code":5},"3504":{"zip_code":"0183504","prefecture":"秋田県","prefecture_kana":"アキタケン","city":"大館市","city_kana":"オオダテシ","town":"長坂","town_kana":"ナガサカ","prefecture_code":5},"5751":{"zip_code":"0185751","prefecture":"秋田県","prefecture_kana":"アキタケン","city":"大館市","city_kana":"オオダテシ","town":"二井田","town_kana":"ニイダ","prefecture_code":5},"3505":{"zip_code":"0183505","prefecture":"秋田県","prefecture_kana":"アキタケン","city":"大館市","city_kana":"オオダテシ","town":"早口","town_kana":"ハヤグチ","prefecture_code":5},"5753":{"zip_code":"0185753","prefecture":"秋田県","prefecture_kana":"アキタケン","city":"大館市","city_kana":"オオダテシ","town":"比内前田","town_kana":"ヒナイマエダ","prefecture_code":5},"5701":{"zip_code":"0185701","prefecture":"秋田県","prefecture_kana":"アキタケン","city":"大館市","city_kana":"オオダテシ","town":"比内町扇田","town_kana":"ヒナイマチオウギタ","prefecture_code":5},"5851":{"zip_code":"0185851","prefecture":"秋田県","prefecture_kana":"アキタケン","city":"大館市","city_kana":"オオダテシ","town":"比内町大葛","town_kana":"ヒナイマチオオクゾ","prefecture_code":5},"5743":{"zip_code":"0185743","prefecture":"秋田県","prefecture_kana":"アキタケン","city":"大館市","city_kana":"オオダテシ","town":"比内町小坪沢","town_kana":"ヒナイマチオツボザワ","prefecture_code":5},"5745":{"zip_code":"0185745","prefecture":"秋田県","prefecture_kana":"アキタケン","city":"大館市","city_kana":"オオダテシ","town":"比内町片貝","town_kana":"ヒナイマチカタガイ","prefecture_code":5},"5731":{"zip_code":"0185731","prefecture":"秋田県","prefecture_kana":"アキタケン","city":"大館市","city_kana":"オオダテシ","town":"比内町笹館","town_kana":"ヒナイマチササダテ","prefecture_code":5},"5742":{"zip_code":"0185742","prefecture":"秋田県","prefecture_kana":"アキタケン","city":"大館市","city_kana":"オオダテシ","town":"比内町白沢水沢","town_kana":"ヒナイマチシラサワミズサワ","prefecture_code":5},"5741":{"zip_code":"0185741","prefecture":"秋田県","prefecture_kana":"アキタケン","city":"大館市","city_kana":"オオダテシ","town":"比内町達子","town_kana":"ヒナイマチタッコ","prefecture_code":5},"5721":{"zip_code":"0185721","prefecture":"秋田県","prefecture_kana":"アキタケン","city":"大館市","city_kana":"オオダテシ","town":"比内町独鈷","town_kana":"ヒナイマチトッコ","prefecture_code":5},"5722":{"zip_code":"0185722","prefecture":"秋田県","prefecture_kana":"アキタケン","city":"大館市","city_kana":"オオダテシ","town":"比内町中野","town_kana":"ヒナイマチナカノ","prefecture_code":5},"5712":{"zip_code":"0185712","prefecture":"秋田県","prefecture_kana":"アキタケン","city":"大館市","city_kana":"オオダテシ","town":"比内町新館","town_kana":"ヒナイマチニイダテ","prefecture_code":5},"5711":{"zip_code":"0185711","prefecture":"秋田県","prefecture_kana":"アキタケン","city":"大館市","city_kana":"オオダテシ","town":"比内町味噌内","town_kana":"ヒナイマチミソナイ","prefecture_code":5},"5744":{"zip_code":"0185744","prefecture":"秋田県","prefecture_kana":"アキタケン","city":"大館市","city_kana":"オオダテシ","town":"比内町八木橋","town_kana":"ヒナイマチヤギハシ","prefecture_code":5},"5732":{"zip_code":"0185732","prefecture":"秋田県","prefecture_kana":"アキタケン","city":"大館市","city_kana":"オオダテシ","town":"比内町谷地中","town_kana":"ヒナイマチヤチナカ","prefecture_code":5},"5603":{"zip_code":"0185603","prefecture":"秋田県","prefecture_kana":"アキタケン","city":"大館市","city_kana":"オオダテシ","town":"曲田","town_kana":"マガタ","prefecture_code":5},"5752":{"zip_code":"0185752","prefecture":"秋田県","prefecture_kana":"アキタケン","city":"大館市","city_kana":"オオダテシ","town":"本宮","town_kana":"モトミヤ","prefecture_code":5},"3506":{"zip_code":"0183506","prefecture":"秋田県","prefecture_kana":"アキタケン","city":"大館市","city_kana":"オオダテシ","town":"山瀬","town_kana":"ヤマセ","prefecture_code":5},"3502":{"zip_code":"0183502","prefecture":"秋田県","prefecture_kana":"アキタケン","city":"大館市","city_kana":"オオダテシ","town":"山田","town_kana":"ヤマダ","prefecture_code":5},"5200":{"zip_code":"0185200","prefecture":"秋田県","prefecture_kana":"アキタケン","city":"鹿角市","city_kana":"カヅノシ","town":"","town_kana":"","prefecture_code":5},"5202":{"zip_code":"0185202","prefecture":"秋田県","prefecture_kana":"アキタケン","city":"鹿角市","city_kana":"カヅノシ","town":"尾去沢","town_kana":"オサリザワ","prefecture_code":5},"5332":{"zip_code":"0185332","prefecture":"秋田県","prefecture_kana":"アキタケン","city":"鹿角市","city_kana":"カヅノシ","town":"十和田上向","town_kana":"トワダウワムカイ","prefecture_code":5},"5421":{"zip_code":"0185421","prefecture":"秋田県","prefecture_kana":"アキタケン","city":"鹿角市","city_kana":"カヅノシ","town":"十和田大湯","town_kana":"トワダオオユ","prefecture_code":5},"5333":{"zip_code":"0185333","prefecture":"秋田県","prefecture_kana":"アキタケン","city":"鹿角市","city_kana":"カヅノシ","town":"十和田岡田","town_kana":"トワダオカダ","prefecture_code":5},"5422":{"zip_code":"0185422","prefecture":"秋田県","prefecture_kana":"アキタケン","city":"鹿角市","city_kana":"カヅノシ","town":"十和田草木","town_kana":"トワダクサギ","prefecture_code":5},"5334":{"zip_code":"0185334","prefecture":"秋田県","prefecture_kana":"アキタケン","city":"鹿角市","city_kana":"カヅノシ","town":"十和田毛馬内","town_kana":"トワダケマナイ","prefecture_code":5},"5337":{"zip_code":"0185337","prefecture":"秋田県","prefecture_kana":"アキタケン","city":"鹿角市","city_kana":"カヅノシ","town":"十和田末広","town_kana":"トワダスエヒロ","prefecture_code":5},"5335":{"zip_code":"0185335","prefecture":"秋田県","prefecture_kana":"アキタケン","city":"鹿角市","city_kana":"カヅノシ","town":"十和田瀬田石","town_kana":"トワダセタイシ","prefecture_code":5},"5336":{"zip_code":"0185336","prefecture":"秋田県","prefecture_kana":"アキタケン","city":"鹿角市","city_kana":"カヅノシ","town":"十和田錦木","town_kana":"トワダニシキギ","prefecture_code":5},"5331":{"zip_code":"0185331","prefecture":"秋田県","prefecture_kana":"アキタケン","city":"鹿角市","city_kana":"カヅノシ","town":"十和田山根","town_kana":"トワダヤマネ","prefecture_code":5},"5141":{"zip_code":"0185141","prefecture":"秋田県","prefecture_kana":"アキタケン","city":"鹿角市","city_kana":"カヅノシ","town":"八幡平","town_kana":"ハチマンタイ","prefecture_code":5},"5201":{"zip_code":"0185201","prefecture":"秋田県","prefecture_kana":"アキタケン","city":"鹿角市","city_kana":"カヅノシ","town":"花輪","town_kana":"ハナワ","prefecture_code":5},"1215":{"zip_code":"0181215","prefecture":"秋田県","prefecture_kana":"アキタケン","city":"由利本荘市","city_kana":"ユリホンジョウシ","town":"岩城赤平","town_kana":"イワキアカヒラ","prefecture_code":5},"1213":{"zip_code":"0181213","prefecture":"秋田県","prefecture_kana":"アキタケン","city":"由利本荘市","city_kana":"ユリホンジョウシ","town":"岩城泉田","town_kana":"イワキイズミタ","prefecture_code":5},"1301":{"zip_code":"0181301","prefecture":"秋田県","prefecture_kana":"アキタケン","city":"由利本荘市","city_kana":"ユリホンジョウシ","town":"岩城内道川","town_kana":"イワキウチミチカワ","prefecture_code":5},"1302":{"zip_code":"0181302","prefecture":"秋田県","prefecture_kana":"アキタケン","city":"由利本荘市","city_kana":"ユリホンジョウシ","town":"岩城勝手","town_kana":"イワキカッテ","prefecture_code":5},"1225":{"zip_code":"0181225","prefecture":"秋田県","prefecture_kana":"アキタケン","city":"由利本荘市","city_kana":"ユリホンジョウシ","town":"岩城上黒川","town_kana":"イワキカミクロカワ","prefecture_code":5},"1222":{"zip_code":"0181222","prefecture":"秋田県","prefecture_kana":"アキタケン","city":"由利本荘市","city_kana":"ユリホンジョウシ","town":"岩城上蛇田","town_kana":"イワキカミヘビタ","prefecture_code":5},"1216":{"zip_code":"0181216","prefecture":"秋田県","prefecture_kana":"アキタケン","city":"由利本荘市","city_kana":"ユリホンジョウシ","town":"岩城亀田愛宕町","town_kana":"イワキカメダアタゴマチ","prefecture_code":5},"1218":{"zip_code":"0181218","prefecture":"秋田県","prefecture_kana":"アキタケン","city":"由利本荘市","city_kana":"ユリホンジョウシ","town":"岩城亀田大町","town_kana":"イワキカメダオオマチ","prefecture_code":5},"1217":{"zip_code":"0181217","prefecture":"秋田県","prefecture_kana":"アキタケン","city":"由利本荘市","city_kana":"ユリホンジョウシ","town":"岩城亀田亀田町","town_kana":"イワキカメダカメダマチ","prefecture_code":5},"1221":{"zip_code":"0181221","prefecture":"秋田県","prefecture_kana":"アキタケン","city":"由利本荘市","city_kana":"ユリホンジョウシ","town":"岩城亀田最上町","town_kana":"イワキカメダモガミマチ","prefecture_code":5},"1303":{"zip_code":"0181303","prefecture":"秋田県","prefecture_kana":"アキタケン","city":"由利本荘市","city_kana":"ユリホンジョウシ","town":"岩城君ケ野","town_kana":"イワキキミガノ","prefecture_code":5},"1226":{"zip_code":"0181226","prefecture":"秋田県","prefecture_kana":"アキタケン","city":"由利本荘市","city_kana":"ユリホンジョウシ","town":"岩城下黒川","town_kana":"イワキシモクロカワ","prefecture_code":5},"1223":{"zip_code":"0181223","prefecture":"秋田県","prefecture_kana":"アキタケン","city":"由利本荘市","city_kana":"ユリホンジョウシ","town":"岩城下蛇田","town_kana":"イワキシモヘビタ","prefecture_code":5},"1211":{"zip_code":"0181211","prefecture":"秋田県","prefecture_kana":"アキタケン","city":"由利本荘市","city_kana":"ユリホンジョウシ","town":"岩城滝俣","town_kana":"イワキタキノマタ","prefecture_code":5},"1214":{"zip_code":"0181214","prefecture":"秋田県","prefecture_kana":"アキタケン","city":"由利本荘市","city_kana":"ユリホンジョウシ","town":"岩城富田","town_kana":"イワキトミタ","prefecture_code":5},"1212":{"zip_code":"0181212","prefecture":"秋田県","prefecture_kana":"アキタケン","city":"由利本荘市","city_kana":"ユリホンジョウシ","town":"岩城福俣","town_kana":"イワキフクノマタ","prefecture_code":5},"1305":{"zip_code":"0181305","prefecture":"秋田県","prefecture_kana":"アキタケン","city":"由利本荘市","city_kana":"ユリホンジョウシ","town":"岩城二古","town_kana":"イワキフタゴ","prefecture_code":5},"1304":{"zip_code":"0181304","prefecture":"秋田県","prefecture_kana":"アキタケン","city":"由利本荘市","city_kana":"ユリホンジョウシ","town":"岩城道川","town_kana":"イワキミチカワ","prefecture_code":5},"1224":{"zip_code":"0181224","prefecture":"秋田県","prefecture_kana":"アキタケン","city":"由利本荘市","city_kana":"ユリホンジョウシ","town":"岩城六呂田","town_kana":"イワキロクロダ","prefecture_code":5},"0904":{"zip_code":"0180904","prefecture":"秋田県","prefecture_kana":"アキタケン","city":"由利本荘市","city_kana":"ユリホンジョウシ","town":"岩野目沢","town_kana":"イワノメザワ","prefecture_code":5},"0726":{"zip_code":"0180726","prefecture":"秋田県","prefecture_kana":"アキタケン","city":"由利本荘市","city_kana":"ユリホンジョウシ","town":"岩谷麓","town_kana":"イワヤフモト","prefecture_code":5},"0711":{"zip_code":"0180711","prefecture":"秋田県","prefecture_kana":"アキタケン","city":"由利本荘市","city_kana":"ユリホンジョウシ","town":"岩谷町","town_kana":"イワヤマチ","prefecture_code":5},"0723":{"zip_code":"0180723","prefecture":"秋田県","prefecture_kana":"アキタケン","city":"由利本荘市","city_kana":"ユリホンジョウシ","town":"牛寺","town_kana":"ウシデラ","prefecture_code":5},"0731":{"zip_code":"0180731","prefecture":"秋田県","prefecture_kana":"アキタケン","city":"由利本荘市","city_kana":"ユリホンジョウシ","town":"大内三川","town_kana":"オオウチサンカワ","prefecture_code":5},"0733":{"zip_code":"0180733","prefecture":"秋田県","prefecture_kana":"アキタケン","city":"由利本荘市","city_kana":"ユリホンジョウシ","town":"大倉沢","town_kana":"オオクラザワ","prefecture_code":5},"0721":{"zip_code":"0180721","prefecture":"秋田県","prefecture_kana":"アキタケン","city":"由利本荘市","city_kana":"ユリホンジョウシ","town":"大谷","town_kana":"オオタニ","prefecture_code":5},"0841":{"zip_code":"0180841","prefecture":"秋田県","prefecture_kana":"アキタケン","city":"由利本荘市","city_kana":"ユリホンジョウシ","town":"加賀沢","town_kana":"カガサワ","prefecture_code":5},"0734":{"zip_code":"0180734","prefecture":"秋田県","prefecture_kana":"アキタケン","city":"由利本荘市","city_kana":"ユリホンジョウシ","town":"北福田","town_kana":"キタフクダ","prefecture_code":5},"0852":{"zip_code":"0180852","prefecture":"秋田県","prefecture_kana":"アキタケン","city":"由利本荘市","city_kana":"ユリホンジョウシ","town":"葛岡","town_kana":"クズオカ","prefecture_code":5},"0903":{"zip_code":"0180903","prefecture":"秋田県","prefecture_kana":"アキタケン","city":"由利本荘市","city_kana":"ユリホンジョウシ","town":"小栗山","town_kana":"コグリヤマ","prefecture_code":5},"0907":{"zip_code":"0180907","prefecture":"秋田県","prefecture_kana":"アキタケン","city":"由利本荘市","city_kana":"ユリホンジョウシ","town":"坂部","town_kana":"サカベ","prefecture_code":5},"0842":{"zip_code":"0180842","prefecture":"秋田県","prefecture_kana":"アキタケン","city":"由利本荘市","city_kana":"ユリホンジョウシ","town":"新沢","town_kana":"シンサワ","prefecture_code":5},"0902":{"zip_code":"0180902","prefecture":"秋田県","prefecture_kana":"アキタケン","city":"由利本荘市","city_kana":"ユリホンジョウシ","town":"新田","town_kana":"シンデン","prefecture_code":5},"0844":{"zip_code":"0180844","prefecture":"秋田県","prefecture_kana":"アキタケン","city":"由利本荘市","city_kana":"ユリホンジョウシ","town":"高尾","town_kana":"タカオ","prefecture_code":5},"0905":{"zip_code":"0180905","prefecture":"秋田県","prefecture_kana":"アキタケン","city":"由利本荘市","city_kana":"ユリホンジョウシ","town":"滝","town_kana":"タキ","prefecture_code":5},"0732":{"zip_code":"0180732","prefecture":"秋田県","prefecture_kana":"アキタケン","city":"由利本荘市","city_kana":"ユリホンジョウシ","town":"徳沢","town_kana":"トクサワ","prefecture_code":5},"0853":{"zip_code":"0180853","prefecture":"秋田県","prefecture_kana":"アキタケン","city":"由利本荘市","city_kana":"ユリホンジョウシ","town":"長坂","town_kana":"ナガサカ","prefecture_code":5},"0901":{"zip_code":"0180901","prefecture":"秋田県","prefecture_kana":"アキタケン","city":"由利本荘市","city_kana":"ユリホンジョウシ","town":"中田代","town_kana":"ナカタシロ","prefecture_code":5},"0722":{"zip_code":"0180722","prefecture":"秋田県","prefecture_kana":"アキタケン","city":"由利本荘市","city_kana":"ユリホンジョウシ","town":"中館","town_kana":"ナカダテ","prefecture_code":5},"0843":{"zip_code":"0180843","prefecture":"秋田県","prefecture_kana":"アキタケン","city":"由利本荘市","city_kana":"ユリホンジョウシ","town":"中帳","town_kana":"ナカチョウ","prefecture_code":5},"0845":{"zip_code":"0180845","prefecture":"秋田県","prefecture_kana":"アキタケン","city":"由利本荘市","city_kana":"ユリホンジョウシ","town":"中俣","town_kana":"ナカノマタ","prefecture_code":5},"0601":{"zip_code":"0180601","prefecture":"秋田県","prefecture_kana":"アキタケン","city":"由利本荘市","city_kana":"ユリホンジョウシ","town":"西目町海士剥","town_kana":"ニシメマチアマハギ","prefecture_code":5},"0602":{"zip_code":"0180602","prefecture":"秋田県","prefecture_kana":"アキタケン","city":"由利本荘市","city_kana":"ユリホンジョウシ","town":"西目町出戸","town_kana":"ニシメマチデト","prefecture_code":5},"0603":{"zip_code":"0180603","prefecture":"秋田県","prefecture_kana":"アキタケン","city":"由利本荘市","city_kana":"ユリホンジョウシ","town":"西目町西目","town_kana":"ニシメマチニシメ","prefecture_code":5},"0604":{"zip_code":"0180604","prefecture":"秋田県","prefecture_kana":"アキタケン","city":"由利本荘市","city_kana":"ユリホンジョウシ","town":"西目町沼田","town_kana":"ニシメマチヌマタ","prefecture_code":5},"0854":{"zip_code":"0180854","prefecture":"秋田県","prefecture_kana":"アキタケン","city":"由利本荘市","city_kana":"ユリホンジョウシ","town":"及位","town_kana":"ノゾキ","prefecture_code":5},"0906":{"zip_code":"0180906","prefecture":"秋田県","prefecture_kana":"アキタケン","city":"由利本荘市","city_kana":"ユリホンジョウシ","town":"羽広","town_kana":"ハビロ","prefecture_code":5},"0851":{"zip_code":"0180851","prefecture":"秋田県","prefecture_kana":"アキタケン","city":"由利本荘市","city_kana":"ユリホンジョウシ","town":"平岫","town_kana":"ヒラグキ","prefecture_code":5},"0724":{"zip_code":"0180724","prefecture":"秋田県","prefecture_kana":"アキタケン","city":"由利本荘市","city_kana":"ユリホンジョウシ","town":"深沢","town_kana":"フカサワ","prefecture_code":5},"0855":{"zip_code":"0180855","prefecture":"秋田県","prefecture_kana":"アキタケン","city":"由利本荘市","city_kana":"ユリホンジョウシ","town":"松本","town_kana":"マツモト","prefecture_code":5},"0725":{"zip_code":"0180725","prefecture":"秋田県","prefecture_kana":"アキタケン","city":"由利本荘市","city_kana":"ユリホンジョウシ","town":"米坂","town_kana":"ヨネザカ","prefecture_code":5},"1400":{"zip_code":"0181400","prefecture":"秋田県","prefecture_kana":"アキタケン","city":"潟上市","city_kana":"カタガミシ","town":"","town_kana":"","prefecture_code":5},"1504":{"zip_code":"0181504","prefecture":"秋田県","prefecture_kana":"アキタケン","city":"潟上市","city_kana":"カタガミシ","town":"飯田川飯塚","town_kana":"イイタガワイイヅカ","prefecture_code":5},"1501":{"zip_code":"0181501","prefecture":"秋田県","prefecture_kana":"アキタケン","city":"潟上市","city_kana":"カタガミシ","town":"飯田川金山","town_kana":"イイタガワカネヤマ","prefecture_code":5},"1502":{"zip_code":"0181502","prefecture":"秋田県","prefecture_kana":"アキタケン","city":"潟上市","city_kana":"カタガミシ","town":"飯田川下虻川","town_kana":"イイタガワシモアブカワ","prefecture_code":5},"1503":{"zip_code":"0181503","prefecture":"秋田県","prefecture_kana":"アキタケン","city":"潟上市","city_kana":"カタガミシ","town":"飯田川和田妹川","town_kana":"イイタガワワダイモカワ","prefecture_code":5},"1401":{"zip_code":"0181401","prefecture":"秋田県","prefecture_kana":"アキタケン","city":"潟上市","city_kana":"カタガミシ","town":"昭和大久保","town_kana":"ショウワオオクボ","prefecture_code":5},"1412":{"zip_code":"0181412","prefecture":"秋田県","prefecture_kana":"アキタケン","city":"潟上市","city_kana":"カタガミシ","town":"昭和豊川岡井戸","town_kana":"ショウワトヨカワオカイド","prefecture_code":5},"1411":{"zip_code":"0181411","prefecture":"秋田県","prefecture_kana":"アキタケン","city":"潟上市","city_kana":"カタガミシ","town":"昭和豊川上虻川","town_kana":"ショウワトヨカワカミアブカワ","prefecture_code":5},"1414":{"zip_code":"0181414","prefecture":"秋田県","prefecture_kana":"アキタケン","city":"潟上市","city_kana":"カタガミシ","town":"昭和豊川槻木","town_kana":"ショウワトヨカワツキノキ","prefecture_code":5},"1413":{"zip_code":"0181413","prefecture":"秋田県","prefecture_kana":"アキタケン","city":"潟上市","city_kana":"カタガミシ","town":"昭和豊川船橋","town_kana":"ショウワトヨカワフナバシ","prefecture_code":5},"1416":{"zip_code":"0181416","prefecture":"秋田県","prefecture_kana":"アキタケン","city":"潟上市","city_kana":"カタガミシ","town":"昭和豊川山田","town_kana":"ショウワトヨカワヤマダ","prefecture_code":5},"1415":{"zip_code":"0181415","prefecture":"秋田県","prefecture_kana":"アキタケン","city":"潟上市","city_kana":"カタガミシ","town":"昭和豊川竜毛","town_kana":"ショウワトヨカワリュウゲ","prefecture_code":5},"1403":{"zip_code":"0181403","prefecture":"秋田県","prefecture_kana":"アキタケン","city":"潟上市","city_kana":"カタガミシ","town":"昭和八丁目","town_kana":"ショウワハッチョウメ","prefecture_code":5},"1402":{"zip_code":"0181402","prefecture":"秋田県","prefecture_kana":"アキタケン","city":"潟上市","city_kana":"カタガミシ","town":"昭和乱橋","town_kana":"ショウワミダレバシ","prefecture_code":5},"3300":{"zip_code":"0183300","prefecture":"秋田県","prefecture_kana":"アキタケン","city":"北秋田市","city_kana":"キタアキタシ","town":"","town_kana":"","prefecture_code":5},"3313":{"zip_code":"0183313","prefecture":"秋田県","prefecture_kana":"アキタケン","city":"北秋田市","city_kana":"キタアキタシ","town":"旭町","town_kana":"アサヒチョウ","prefecture_code":5},"4621":{"zip_code":"0184621","prefecture":"秋田県","prefecture_kana":"アキタケン","city":"北秋田市","city_kana":"キタアキタシ","town":"阿仁荒瀬","town_kana":"アニアラセ","prefecture_code":5},"4623":{"zip_code":"0184623","prefecture":"秋田県","prefecture_kana":"アキタケン","city":"北秋田市","city_kana":"キタアキタシ","town":"阿仁荒瀬川櫃畑","town_kana":"アニアラセガワヒツハタ","prefecture_code":5},"4731":{"zip_code":"0184731","prefecture":"秋田県","prefecture_kana":"アキタケン","city":"北秋田市","city_kana":"キタアキタシ","town":"阿仁打当","town_kana":"アニウットウ","prefecture_code":5},"4743":{"zip_code":"0184743","prefecture":"秋田県","prefecture_kana":"アキタケン","city":"北秋田市","city_kana":"キタアキタシ","town":"阿仁笑内","town_kana":"アニオカシナイ","prefecture_code":5},"4624":{"zip_code":"0184624","prefecture":"秋田県","prefecture_kana":"アキタケン","city":"北秋田市","city_kana":"キタアキタシ","town":"阿仁鍵ノ滝","town_kana":"アニカギノタキ","prefecture_code":5},"4745":{"zip_code":"0184745","prefecture":"秋田県","prefecture_kana":"アキタケン","city":"北秋田市","city_kana":"キタアキタシ","town":"阿仁萱草","town_kana":"アニカヤクサ","prefecture_code":5},"4613":{"zip_code":"0184613","prefecture":"秋田県","prefecture_kana":"アキタケン","city":"北秋田市","city_kana":"キタアキタシ","town":"阿仁銀山","town_kana":"アニギンザン","prefecture_code":5},"4741":{"zip_code":"0184741","prefecture":"秋田県","prefecture_kana":"アキタケン","city":"北秋田市","city_kana":"キタアキタシ","town":"阿仁幸屋","town_kana":"アニコウヤ","prefecture_code":5},"4742":{"zip_code":"0184742","prefecture":"秋田県","prefecture_kana":"アキタケン","city":"北秋田市","city_kana":"キタアキタシ","town":"阿仁幸屋渡","town_kana":"アニコウヤワタリ","prefecture_code":5},"4603":{"zip_code":"0184603","prefecture":"秋田県","prefecture_kana":"アキタケン","city":"北秋田市","city_kana":"キタアキタシ","town":"阿仁小様","town_kana":"アニコザマ","prefecture_code":5},"4622":{"zip_code":"0184622","prefecture":"秋田県","prefecture_kana":"アキタケン","city":"北秋田市","city_kana":"キタアキタシ","town":"阿仁小沢鉱山","town_kana":"アニコサワコウザン","prefecture_code":5},"4602":{"zip_code":"0184602","prefecture":"秋田県","prefecture_kana":"アキタケン","city":"北秋田市","city_kana":"キタアキタシ","town":"阿仁小渕","town_kana":"アニコブチ","prefecture_code":5},"4604":{"zip_code":"0184604","prefecture":"秋田県","prefecture_kana":"アキタケン","city":"北秋田市","city_kana":"キタアキタシ","town":"阿仁三枚鉱山","town_kana":"アニサンマイコウザン","prefecture_code":5},"4733":{"zip_code":"0184733","prefecture":"秋田県","prefecture_kana":"アキタケン","city":"北秋田市","city_kana":"キタアキタシ","town":"阿仁戸鳥内","town_kana":"アニトトリナイ","prefecture_code":5},"4734":{"zip_code":"0184734","prefecture":"秋田県","prefecture_kana":"アキタケン","city":"北秋田市","city_kana":"キタアキタシ","town":"阿仁長畑","town_kana":"アニナガハタケ","prefecture_code":5},"4732":{"zip_code":"0184732","prefecture":"秋田県","prefecture_kana":"アキタケン","city":"北秋田市","city_kana":"キタアキタシ","town":"阿仁中村","town_kana":"アニナカムラ","prefecture_code":5},"4744":{"zip_code":"0184744","prefecture":"秋田県","prefecture_kana":"アキタケン","city":"北秋田市","city_kana":"キタアキタシ","town":"阿仁根子","town_kana":"アニネッコ","prefecture_code":5},"4735":{"zip_code":"0184735","prefecture":"秋田県","prefecture_kana":"アキタケン","city":"北秋田市","city_kana":"キタアキタシ","town":"阿仁比立内","town_kana":"アニヒタチナイ","prefecture_code":5},"4746":{"zip_code":"0184746","prefecture":"秋田県","prefecture_kana":"アキタケン","city":"北秋田市","city_kana":"キタアキタシ","town":"阿仁伏影","town_kana":"アニフシカゲ","prefecture_code":5},"4515":{"zip_code":"0184515","prefecture":"秋田県","prefecture_kana":"アキタケン","city":"北秋田市","city_kana":"キタアキタシ","town":"阿仁前田","town_kana":"アニマエダ","prefecture_code":5},"4612":{"zip_code":"0184612","prefecture":"秋田県","prefecture_kana":"アキタケン","city":"北秋田市","city_kana":"キタアキタシ","town":"阿仁真木沢鉱山","town_kana":"アニマギサワコウザン","prefecture_code":5},"4611":{"zip_code":"0184611","prefecture":"秋田県","prefecture_kana":"アキタケン","city":"北秋田市","city_kana":"キタアキタシ","town":"阿仁水無","town_kana":"アニミズナシ","prefecture_code":5},"4601":{"zip_code":"0184601","prefecture":"秋田県","prefecture_kana":"アキタケン","city":"北秋田市","city_kana":"キタアキタシ","town":"阿仁吉田","town_kana":"アニヨシダ","prefecture_code":5},"3314":{"zip_code":"0183314","prefecture":"秋田県","prefecture_kana":"アキタケン","city":"北秋田市","city_kana":"キタアキタシ","town":"伊勢町","town_kana":"イセチョウ","prefecture_code":5},"3343":{"zip_code":"0183343","prefecture":"秋田県","prefecture_kana":"アキタケン","city":"北秋田市","city_kana":"キタアキタシ","town":"今泉","town_kana":"イマイズミ","prefecture_code":5},"4302":{"zip_code":"0184302","prefecture":"秋田県","prefecture_kana":"アキタケン","city":"北秋田市","city_kana":"キタアキタシ","town":"浦田","town_kana":"ウラタ","prefecture_code":5},"3324":{"zip_code":"0183324","prefecture":"秋田県","prefecture_kana":"アキタケン","city":"北秋田市","city_kana":"キタアキタシ","town":"大町","town_kana":"オオマチ","prefecture_code":5},"4516":{"zip_code":"0184516","prefecture":"秋田県","prefecture_kana":"アキタケン","city":"北秋田市","city_kana":"キタアキタシ","town":"桂瀬","town_kana":"カツラセ","prefecture_code":5},"4251":{"zip_code":"0184251","prefecture":"秋田県","prefecture_kana":"アキタケン","city":"北秋田市","city_kana":"キタアキタシ","town":"鎌沢","town_kana":"カマノサワ","prefecture_code":5},"4231":{"zip_code":"0184231","prefecture":"秋田県","prefecture_kana":"アキタケン","city":"北秋田市","city_kana":"キタアキタシ","town":"上杉","town_kana":"カミスギ","prefecture_code":5},"4211":{"zip_code":"0184211","prefecture":"秋田県","prefecture_kana":"アキタケン","city":"北秋田市","city_kana":"キタアキタシ","town":"川井","town_kana":"カワイ","prefecture_code":5},"4203":{"zip_code":"0184203","prefecture":"秋田県","prefecture_kana":"アキタケン","city":"北秋田市","city_kana":"キタアキタシ","town":"木戸石","town_kana":"キドイシ","prefecture_code":5},"3341":{"zip_code":"0183341","prefecture":"秋田県","prefecture_kana":"アキタケン","city":"北秋田市","city_kana":"キタアキタシ","town":"黒沢","town_kana":"クロサワ","prefecture_code":5},"4513":{"zip_code":"0184513","prefecture":"秋田県","prefecture_kana":"アキタケン","city":"北秋田市","city_kana":"キタアキタシ","town":"小又","town_kana":"コマタ","prefecture_code":5},"4514":{"zip_code":"0184514","prefecture":"秋田県","prefecture_kana":"アキタケン","city":"北秋田市","city_kana":"キタアキタシ","town":"五味堀","town_kana":"ゴミホリ","prefecture_code":5},"3451":{"zip_code":"0183451","prefecture":"秋田県","prefecture_kana":"アキタケン","city":"北秋田市","city_kana":"キタアキタシ","town":"小森","town_kana":"コモリ","prefecture_code":5},"4273":{"zip_code":"0184273","prefecture":"秋田県","prefecture_kana":"アキタケン","city":"北秋田市","city_kana":"キタアキタシ","town":"根田","town_kana":"コンダ","prefecture_code":5},"3311":{"zip_code":"0183311","prefecture":"秋田県","prefecture_kana":"アキタケン","city":"北秋田市","city_kana":"キタアキタシ","town":"材木町","town_kana":"ザイモクチョウ","prefecture_code":5},"3302":{"zip_code":"0183302","prefecture":"秋田県","prefecture_kana":"アキタケン","city":"北秋田市","city_kana":"キタアキタシ","town":"栄","town_kana":"サカエ","prefecture_code":5},"4221":{"zip_code":"0184221","prefecture":"秋田県","prefecture_kana":"アキタケン","city":"北秋田市","city_kana":"キタアキタシ","town":"下杉","town_kana":"シモスギ","prefecture_code":5},"3322":{"zip_code":"0183322","prefecture":"秋田県","prefecture_kana":"アキタケン","city":"北秋田市","city_kana":"キタアキタシ","town":"住吉町","town_kana":"スミヨシチョウ","prefecture_code":5},"4282":{"zip_code":"0184282","prefecture":"秋田県","prefecture_kana":"アキタケン","city":"北秋田市","city_kana":"キタアキタシ","town":"李岱","town_kana":"スモモダイ","prefecture_code":5},"4261":{"zip_code":"0184261","prefecture":"秋田県","prefecture_kana":"アキタケン","city":"北秋田市","city_kana":"キタアキタシ","town":"芹沢","town_kana":"セリサワ","prefecture_code":5},"3332":{"zip_code":"0183332","prefecture":"秋田県","prefecture_kana":"アキタケン","city":"北秋田市","city_kana":"キタアキタシ","town":"鷹巣平崎上岱","town_kana":"タカノスヒラサキカミタイ","prefecture_code":5},"3331":{"zip_code":"0183331","prefecture":"秋田県","prefecture_kana":"アキタケン","city":"北秋田市","city_kana":"キタアキタシ","town":"鷹巣","town_kana":"タカノス","prefecture_code":5},"3301":{"zip_code":"0183301","prefecture":"秋田県","prefecture_kana":"アキタケン","city":"北秋田市","city_kana":"キタアキタシ","town":"綴子","town_kana":"ツヅレコ","prefecture_code":5},"4241":{"zip_code":"0184241","prefecture":"秋田県","prefecture_kana":"アキタケン","city":"北秋田市","city_kana":"キタアキタシ","town":"道城","town_kana":"ドウジョウ","prefecture_code":5},"3453":{"zip_code":"0183453","prefecture":"秋田県","prefecture_kana":"アキタケン","city":"北秋田市","city_kana":"キタアキタシ","town":"中屋敷","town_kana":"ナカヤシキ","prefecture_code":5},"3452":{"zip_code":"0183452","prefecture":"秋田県","prefecture_kana":"アキタケン","city":"北秋田市","city_kana":"キタアキタシ","town":"七日市","town_kana":"ナヌカイチ","prefecture_code":5},"4272":{"zip_code":"0184272","prefecture":"秋田県","prefecture_kana":"アキタケン","city":"北秋田市","city_kana":"キタアキタシ","town":"新田目","town_kana":"ニイダメ","prefecture_code":5},"4512":{"zip_code":"0184512","prefecture":"秋田県","prefecture_kana":"アキタケン","city":"北秋田市","city_kana":"キタアキタシ","town":"根森田","town_kana":"ネモリタ","prefecture_code":5},"4202":{"zip_code":"0184202","prefecture":"秋田県","prefecture_kana":"アキタケン","city":"北秋田市","city_kana":"キタアキタシ","town":"八幡岱新田","town_kana":"ハチマンタイシンデン","prefecture_code":5},"3312":{"zip_code":"0183312","prefecture":"秋田県","prefecture_kana":"アキタケン","city":"北秋田市","city_kana":"キタアキタシ","town":"花園町","town_kana":"ハナゾノチョウ","prefecture_code":5},"4281":{"zip_code":"0184281","prefecture":"秋田県","prefecture_kana":"アキタケン","city":"北秋田市","city_kana":"キタアキタシ","town":"羽根山","town_kana":"ハネヤマ","prefecture_code":5},"3316":{"zip_code":"0183316","prefecture":"秋田県","prefecture_kana":"アキタケン","city":"北秋田市","city_kana":"キタアキタシ","town":"東横町","town_kana":"ヒガシヨコマチ","prefecture_code":5},"4271":{"zip_code":"0184271","prefecture":"秋田県","prefecture_kana":"アキタケン","city":"北秋田市","city_kana":"キタアキタシ","town":"福田","town_kana":"フクダ","prefecture_code":5},"3333":{"zip_code":"0183333","prefecture":"秋田県","prefecture_kana":"アキタケン","city":"北秋田市","city_kana":"キタアキタシ","town":"坊沢","town_kana":"ボウザワ","prefecture_code":5},"4303":{"zip_code":"0184303","prefecture":"秋田県","prefecture_kana":"アキタケン","city":"北秋田市","city_kana":"キタアキタシ","town":"本城","town_kana":"ホンジョウ","prefecture_code":5},"3342":{"zip_code":"0183342","prefecture":"秋田県","prefecture_kana":"アキタケン","city":"北秋田市","city_kana":"キタアキタシ","town":"前山","town_kana":"マエヤマ","prefecture_code":5},"4201":{"zip_code":"0184201","prefecture":"秋田県","prefecture_kana":"アキタケン","city":"北秋田市","city_kana":"キタアキタシ","town":"増沢","town_kana":"マスザワ","prefecture_code":5},"3321":{"zip_code":"0183321","prefecture":"秋田県","prefecture_kana":"アキタケン","city":"北秋田市","city_kana":"キタアキタシ","town":"松葉町","town_kana":"マツバチョウ","prefecture_code":5},"4263":{"zip_code":"0184263","prefecture":"秋田県","prefecture_kana":"アキタケン","city":"北秋田市","city_kana":"キタアキタシ","town":"三木田","town_kana":"ミツキタ","prefecture_code":5},"4262":{"zip_code":"0184262","prefecture":"秋田県","prefecture_kana":"アキタケン","city":"北秋田市","city_kana":"キタアキタシ","town":"三里","town_kana":"ミッサト","prefecture_code":5},"3315":{"zip_code":"0183315","prefecture":"秋田県","prefecture_kana":"アキタケン","city":"北秋田市","city_kana":"キタアキタシ","town":"宮前町","town_kana":"ミヤマエチョウ","prefecture_code":5},"3325":{"zip_code":"0183325","prefecture":"秋田県","prefecture_kana":"アキタケン","city":"北秋田市","city_kana":"キタアキタシ","town":"元町","town_kana":"モトマチ","prefecture_code":5},"4511":{"zip_code":"0184511","prefecture":"秋田県","prefecture_kana":"アキタケン","city":"北秋田市","city_kana":"キタアキタシ","town":"森吉","town_kana":"モリヨシ","prefecture_code":5},"4301":{"zip_code":"0184301","prefecture":"秋田県","prefecture_kana":"アキタケン","city":"北秋田市","city_kana":"キタアキタシ","town":"米内沢","town_kana":"ヨナイザワ","prefecture_code":5},"3323":{"zip_code":"0183323","prefecture":"秋田県","prefecture_kana":"アキタケン","city":"北秋田市","city_kana":"キタアキタシ","town":"米代町","town_kana":"ヨネシロチョウ","prefecture_code":5},"3454":{"zip_code":"0183454","prefecture":"秋田県","prefecture_kana":"アキタケン","city":"北秋田市","city_kana":"キタアキタシ","town":"脇神","town_kana":"ワキガミ","prefecture_code":5},"0400":{"zip_code":"0180400","prefecture":"秋田県","prefecture_kana":"アキタケン","city":"にかほ市","city_kana":"ニカホシ","town":"","town_kana":"","prefecture_code":5},"0431":{"zip_code":"0180431","prefecture":"秋田県","prefecture_kana":"アキタケン","city":"にかほ市","city_kana":"ニカホシ","town":"伊勢居地","town_kana":"イセイジ","prefecture_code":5},"0411":{"zip_code":"0180411","prefecture":"秋田県","prefecture_kana":"アキタケン","city":"にかほ市","city_kana":"ニカホシ","town":"院内","town_kana":"インナイ","prefecture_code":5},"0322":{"zip_code":"0180322","prefecture":"秋田県","prefecture_kana":"アキタケン","city":"にかほ市","city_kana":"ニカホシ","town":"大竹","town_kana":"オオタケ","prefecture_code":5},"0412":{"zip_code":"0180412","prefecture":"秋田県","prefecture_kana":"アキタケン","city":"にかほ市","city_kana":"ニカホシ","town":"小国","town_kana":"オグニ","prefecture_code":5},"0421":{"zip_code":"0180421","prefecture":"秋田県","prefecture_kana":"アキタケン","city":"にかほ市","city_kana":"ニカホシ","town":"釜ケ台","town_kana":"カマガタイ","prefecture_code":5},"0126":{"zip_code":"0180126","prefecture":"秋田県","prefecture_kana":"アキタケン","city":"にかほ市","city_kana":"ニカホシ","town":"象潟町１丁目塩越","town_kana":"キサカタマチ1チョウメシオコシ","prefecture_code":5},"0118":{"zip_code":"0180118","prefecture":"秋田県","prefecture_kana":"アキタケン","city":"にかほ市","city_kana":"ニカホシ","town":"象潟町２丁目塩越","town_kana":"キサカタマチ2チョウメシオコシ","prefecture_code":5},"0119":{"zip_code":"0180119","prefecture":"秋田県","prefecture_kana":"アキタケン","city":"にかほ市","city_kana":"ニカホシ","town":"象潟町３丁目塩越","town_kana":"キサカタマチ3チョウメシオコシ","prefecture_code":5},"0116":{"zip_code":"0180116","prefecture":"秋田県","prefecture_kana":"アキタケン","city":"にかほ市","city_kana":"ニカホシ","town":"象潟町４丁目塩越","town_kana":"キサカタマチ4チョウメシオコシ","prefecture_code":5},"0106":{"zip_code":"0180106","prefecture":"秋田県","prefecture_kana":"アキタケン","city":"にかほ市","city_kana":"ニカホシ","town":"象潟町５丁目塩越","town_kana":"キサカタマチ5チョウメシオコシ","prefecture_code":5},"0135":{"zip_code":"0180135","prefecture":"秋田県","prefecture_kana":"アキタケン","city":"にかほ市","city_kana":"ニカホシ","town":"象潟町洗釜","town_kana":"キサカタマチアライガマ","prefecture_code":5},"0107":{"zip_code":"0180107","prefecture":"秋田県","prefecture_kana":"アキタケン","city":"にかほ市","city_kana":"ニカホシ","town":"象潟町荒屋下","town_kana":"キサカタマチアラヤシタ","prefecture_code":5},"0105":{"zip_code":"0180105","prefecture":"秋田県","prefecture_kana":"アキタケン","city":"にかほ市","city_kana":"ニカホシ","town":"象潟町荒屋妻","town_kana":"キサカタマチアラヤヅマ","prefecture_code":5},"0112":{"zip_code":"0180112","prefecture":"秋田県","prefecture_kana":"アキタケン","city":"にかほ市","city_kana":"ニカホシ","town":"象潟町家の後","town_kana":"キサカタマチイエノウシロ","prefecture_code":5},"0108":{"zip_code":"0180108","prefecture":"秋田県","prefecture_kana":"アキタケン","city":"にかほ市","city_kana":"ニカホシ","town":"象潟町入湖の澗","town_kana":"キサカタマチイリコノマ","prefecture_code":5},"0115":{"zip_code":"0180115","prefecture":"秋田県","prefecture_kana":"アキタケン","city":"にかほ市","city_kana":"ニカホシ","town":"象潟町後田","town_kana":"キサカタマチウシロダ","prefecture_code":5},"0136":{"zip_code":"0180136","prefecture":"秋田県","prefecture_kana":"アキタケン","city":"にかほ市","city_kana":"ニカホシ","town":"象潟町大砂川","town_kana":"キサカタマチオオサガワ","prefecture_code":5},"0121":{"zip_code":"0180121","prefecture":"秋田県","prefecture_kana":"アキタケン","city":"にかほ市","city_kana":"ニカホシ","town":"象潟町大塩越","town_kana":"キサカタマチオオシオコシ","prefecture_code":5},"0142":{"zip_code":"0180142","prefecture":"秋田県","prefecture_kana":"アキタケン","city":"にかほ市","city_kana":"ニカホシ","town":"象潟町大須郷","town_kana":"キサカタマチオオスゴウ","prefecture_code":5},"0162":{"zip_code":"0180162","prefecture":"秋田県","prefecture_kana":"アキタケン","city":"にかほ市","city_kana":"ニカホシ","town":"象潟町大森","town_kana":"キサカタマチオオモリ","prefecture_code":5},"0131":{"zip_code":"0180131","prefecture":"秋田県","prefecture_kana":"アキタケン","city":"にかほ市","city_kana":"ニカホシ","town":"象潟町大谷地","town_kana":"キサカタマチオオヤチ","prefecture_code":5},"0114":{"zip_code":"0180114","prefecture":"秋田県","prefecture_kana":"アキタケン","city":"にかほ市","city_kana":"ニカホシ","town":"象潟町沖の田","town_kana":"キサカタマチオキノタ","prefecture_code":5},"0146":{"zip_code":"0180146","prefecture":"秋田県","prefecture_kana":"アキタケン","city":"にかほ市","city_kana":"ニカホシ","town":"象潟町蒲谷池","town_kana":"キサカタマチカバヤチ","prefecture_code":5},"0103":{"zip_code":"0180103","prefecture":"秋田県","prefecture_kana":"アキタケン","city":"にかほ市","city_kana":"ニカホシ","town":"象潟町上狐森","town_kana":"キサカタマチカミキツネモリ","prefecture_code":5},"0184":{"zip_code":"0180184","prefecture":"秋田県","prefecture_kana":"アキタケン","city":"にかほ市","city_kana":"ニカホシ","town":"象潟町上小坂","town_kana":"キサカタマチカミコサカ","prefecture_code":5},"0188":{"zip_code":"0180188","prefecture":"秋田県","prefecture_kana":"アキタケン","city":"にかほ市","city_kana":"ニカホシ","town":"象潟町烏島","town_kana":"キサカタマチカラスジマ","prefecture_code":5},"0141":{"zip_code":"0180141","prefecture":"秋田県","prefecture_kana":"アキタケン","city":"にかほ市","city_kana":"ニカホシ","town":"象潟町川袋","town_kana":"キサカタマチカワフクロ","prefecture_code":5},"0109":{"zip_code":"0180109","prefecture":"秋田県","prefecture_kana":"アキタケン","city":"にかほ市","city_kana":"ニカホシ","town":"象潟町冠石下","town_kana":"キサカタマチカンムリイシシタ","prefecture_code":5},"0122":{"zip_code":"0180122","prefecture":"秋田県","prefecture_kana":"アキタケン","city":"にかほ市","city_kana":"ニカホシ","town":"象潟町象潟島","town_kana":"キサカタマチキサカタジマ","prefecture_code":5},"0104":{"zip_code":"0180104","prefecture":"秋田県","prefecture_kana":"アキタケン","city":"にかほ市","city_kana":"ニカホシ","town":"象潟町狐森","town_kana":"キサカタマチキツネモリ","prefecture_code":5},"0102":{"zip_code":"0180102","prefecture":"秋田県","prefecture_kana":"アキタケン","city":"にかほ市","city_kana":"ニカホシ","town":"象潟町木戸口","town_kana":"キサカタマチキドグチ","prefecture_code":5},"0145":{"zip_code":"0180145","prefecture":"秋田県","prefecture_kana":"アキタケン","city":"にかほ市","city_kana":"ニカホシ","town":"象潟町源蔵潟","town_kana":"キサカタマチゲンゾウガタ","prefecture_code":5},"0187":{"zip_code":"0180187","prefecture":"秋田県","prefecture_kana":"アキタケン","city":"にかほ市","city_kana":"ニカホシ","town":"象潟町小烏島","town_kana":"キサカタマチコガラスジマ","prefecture_code":5},"0172":{"zip_code":"0180172","prefecture":"秋田県","prefecture_kana":"アキタケン","city":"にかほ市","city_kana":"ニカホシ","town":"象潟町小才の神","town_kana":"キサカタマチコサイノカミ","prefecture_code":5},"0183":{"zip_code":"0180183","prefecture":"秋田県","prefecture_kana":"アキタケン","city":"にかほ市","city_kana":"ニカホシ","town":"象潟町小坂","town_kana":"キサカタマチコサカ","prefecture_code":5},"0143":{"zip_code":"0180143","prefecture":"秋田県","prefecture_kana":"アキタケン","city":"にかほ市","city_kana":"ニカホシ","town":"象潟町小砂川","town_kana":"キサカタマチコサガワ","prefecture_code":5},"0153":{"zip_code":"0180153","prefecture":"秋田県","prefecture_kana":"アキタケン","city":"にかほ市","city_kana":"ニカホシ","town":"象潟町小滝","town_kana":"キサカタマチコダキ","prefecture_code":5},"0158":{"zip_code":"0180158","prefecture":"秋田県","prefecture_kana":"アキタケン","city":"にかほ市","city_kana":"ニカホシ","town":"象潟町琴和喜","town_kana":"キサカタマチコトワキ","prefecture_code":5},"0129":{"zip_code":"0180129","prefecture":"秋田県","prefecture_kana":"アキタケン","city":"にかほ市","city_kana":"ニカホシ","town":"象潟町才の神","town_kana":"キサカタマチサイノカミ","prefecture_code":5},"0175":{"zip_code":"0180175","prefecture":"秋田県","prefecture_kana":"アキタケン","city":"にかほ市","city_kana":"ニカホシ","town":"象潟町坂の下","town_kana":"キサカタマチサカノシタ","prefecture_code":5},"0148":{"zip_code":"0180148","prefecture":"秋田県","prefecture_kana":"アキタケン","city":"にかほ市","city_kana":"ニカホシ","town":"象潟町下浜山","town_kana":"キサカタマチシモハマヤマ","prefecture_code":5},"0181":{"zip_code":"0180181","prefecture":"秋田県","prefecture_kana":"アキタケン","city":"にかほ市","city_kana":"ニカホシ","town":"象潟町白山堂","town_kana":"キサカタマチシラヤマドウ","prefecture_code":5},"0133":{"zip_code":"0180133","prefecture":"秋田県","prefecture_kana":"アキタケン","city":"にかほ市","city_kana":"ニカホシ","town":"象潟町関","town_kana":"キサカタマチセキ","prefecture_code":5},"0161":{"zip_code":"0180161","prefecture":"秋田県","prefecture_kana":"アキタケン","city":"にかほ市","city_kana":"ニカホシ","town":"象潟町大飯郷","town_kana":"キサカタマチダイハンゴウ","prefecture_code":5},"0156":{"zip_code":"0180156","prefecture":"秋田県","prefecture_kana":"アキタケン","city":"にかほ市","city_kana":"ニカホシ","town":"象潟町大門先","town_kana":"キサカタマチダイモンザキ","prefecture_code":5},"0166":{"zip_code":"0180166","prefecture":"秋田県","prefecture_kana":"アキタケン","city":"にかほ市","city_kana":"ニカホシ","town":"象潟町高田","town_kana":"キサカタマチタカダ","prefecture_code":5},"0157":{"zip_code":"0180157","prefecture":"秋田県","prefecture_kana":"アキタケン","city":"にかほ市","city_kana":"ニカホシ","town":"象潟町鷹放","town_kana":"キサカタマチタカハナシ","prefecture_code":5},"0147":{"zip_code":"0180147","prefecture":"秋田県","prefecture_kana":"アキタケン","city":"にかほ市","city_kana":"ニカホシ","town":"象潟町立石","town_kana":"キサカタマチタテイシ","prefecture_code":5},"0165":{"zip_code":"0180165","prefecture":"秋田県","prefecture_kana":"アキタケン","city":"にかほ市","city_kana":"ニカホシ","town":"象潟町狸森","town_kana":"キサカタマチタヌキモリ","prefecture_code":5},"0167":{"zip_code":"0180167","prefecture":"秋田県","prefecture_kana":"アキタケン","city":"にかほ市","city_kana":"ニカホシ","town":"象潟町田の神","town_kana":"キサカタマチタノカミ","prefecture_code":5},"0128":{"zip_code":"0180128","prefecture":"秋田県","prefecture_kana":"アキタケン","city":"にかほ市","city_kana":"ニカホシ","town":"象潟町太郎島","town_kana":"キサカタマチタロウジマ","prefecture_code":5},"0171":{"zip_code":"0180171","prefecture":"秋田県","prefecture_kana":"アキタケン","city":"にかほ市","city_kana":"ニカホシ","town":"象潟町続島","town_kana":"キサカタマチツヅキジマ","prefecture_code":5},"0132":{"zip_code":"0180132","prefecture":"秋田県","prefecture_kana":"アキタケン","city":"にかほ市","city_kana":"ニカホシ","town":"象潟町鳥の海","town_kana":"キサカタマチトリノウミ","prefecture_code":5},"0163":{"zip_code":"0180163","prefecture":"秋田県","prefecture_kana":"アキタケン","city":"にかほ市","city_kana":"ニカホシ","town":"象潟町長岡","town_kana":"キサカタマチナガオカ","prefecture_code":5},"0127":{"zip_code":"0180127","prefecture":"秋田県","prefecture_kana":"アキタケン","city":"にかほ市","city_kana":"ニカホシ","town":"象潟町中橋町","town_kana":"キサカタマチナカバシマチ","prefecture_code":5},"0144":{"zip_code":"0180144","prefecture":"秋田県","prefecture_kana":"アキタケン","city":"にかほ市","city_kana":"ニカホシ","town":"象潟町中谷地","town_kana":"キサカタマチナカヤチ","prefecture_code":5},"0154":{"zip_code":"0180154","prefecture":"秋田県","prefecture_kana":"アキタケン","city":"にかほ市","city_kana":"ニカホシ","town":"象潟町二階谷地","town_kana":"キサカタマチニカイヤチ","prefecture_code":5},"0134":{"zip_code":"0180134","prefecture":"秋田県","prefecture_kana":"アキタケン","city":"にかほ市","city_kana":"ニカホシ","town":"象潟町西中野沢","town_kana":"キサカタマチニシナカノサワ","prefecture_code":5},"0125":{"zip_code":"0180125","prefecture":"秋田県","prefecture_kana":"アキタケン","city":"にかほ市","city_kana":"ニカホシ","town":"象潟町二の丸","town_kana":"キサカタマチニノマル","prefecture_code":5},"0124":{"zip_code":"0180124","prefecture":"秋田県","prefecture_kana":"アキタケン","city":"にかほ市","city_kana":"ニカホシ","town":"象潟町入道島","town_kana":"キサカタマチニュウドウジマ","prefecture_code":5},"0186":{"zip_code":"0180186","prefecture":"秋田県","prefecture_kana":"アキタケン","city":"にかほ市","city_kana":"ニカホシ","town":"象潟町能因島","town_kana":"キサカタマチノウインジマ","prefecture_code":5},"0113":{"zip_code":"0180113","prefecture":"秋田県","prefecture_kana":"アキタケン","city":"にかほ市","city_kana":"ニカホシ","town":"象潟町浜の田","town_kana":"キサカタマチハマノタ","prefecture_code":5},"0117":{"zip_code":"0180117","prefecture":"秋田県","prefecture_kana":"アキタケン","city":"にかほ市","city_kana":"ニカホシ","town":"象潟町浜畑","town_kana":"キサカタマチハマハタ","prefecture_code":5},"0101":{"zip_code":"0180101","prefecture":"秋田県","prefecture_kana":"アキタケン","city":"にかほ市","city_kana":"ニカホシ","town":"象潟町浜山","town_kana":"キサカタマチハマヤマ","prefecture_code":5},"0174":{"zip_code":"0180174","prefecture":"秋田県","prefecture_kana":"アキタケン","city":"にかほ市","city_kana":"ニカホシ","town":"象潟町林の下","town_kana":"キサカタマチハヤシノシタ","prefecture_code":5},"0182":{"zip_code":"0180182","prefecture":"秋田県","prefecture_kana":"アキタケン","city":"にかほ市","city_kana":"ニカホシ","town":"象潟町不動沢","town_kana":"キサカタマチフドウサワ","prefecture_code":5},"0111":{"zip_code":"0180111","prefecture":"秋田県","prefecture_kana":"アキタケン","city":"にかほ市","city_kana":"ニカホシ","town":"象潟町武道島","town_kana":"キサカタマチブドウジマ","prefecture_code":5},"0155":{"zip_code":"0180155","prefecture":"秋田県","prefecture_kana":"アキタケン","city":"にかほ市","city_kana":"ニカホシ","town":"象潟町弁天島","town_kana":"キサカタマチベンテンジマ","prefecture_code":5},"0152":{"zip_code":"0180152","prefecture":"秋田県","prefecture_kana":"アキタケン","city":"にかほ市","city_kana":"ニカホシ","town":"象潟町本郷","town_kana":"キサカタマチホンゴウ","prefecture_code":5},"0164":{"zip_code":"0180164","prefecture":"秋田県","prefecture_kana":"アキタケン","city":"にかほ市","city_kana":"ニカホシ","town":"象潟町丸山","town_kana":"キサカタマチマルヤマ","prefecture_code":5},"0123":{"zip_code":"0180123","prefecture":"秋田県","prefecture_kana":"アキタケン","city":"にかほ市","city_kana":"ニカホシ","town":"象潟町妙見下","town_kana":"キサカタマチミョウケンシタ","prefecture_code":5},"0185":{"zip_code":"0180185","prefecture":"秋田県","prefecture_kana":"アキタケン","city":"にかほ市","city_kana":"ニカホシ","town":"象潟町屋敷田","town_kana":"キサカタマチヤシキダ","prefecture_code":5},"0151":{"zip_code":"0180151","prefecture":"秋田県","prefecture_kana":"アキタケン","city":"にかほ市","city_kana":"ニカホシ","town":"象潟町横岡","town_kana":"キサカタマチヨコオカ","prefecture_code":5},"0176":{"zip_code":"0180176","prefecture":"秋田県","prefecture_kana":"アキタケン","city":"にかほ市","city_kana":"ニカホシ","town":"象潟町横山","town_kana":"キサカタマチヨコヤマ","prefecture_code":5},"0173":{"zip_code":"0180173","prefecture":"秋田県","prefecture_kana":"アキタケン","city":"にかほ市","city_kana":"ニカホシ","town":"象潟町四隅池","town_kana":"キサカタマチヨスミイケ","prefecture_code":5},"0302":{"zip_code":"0180302","prefecture":"秋田県","prefecture_kana":"アキタケン","city":"にかほ市","city_kana":"ニカホシ","town":"黒川","town_kana":"クロカワ","prefecture_code":5},"0311":{"zip_code":"0180311","prefecture":"秋田県","prefecture_kana":"アキタケン","city":"にかほ市","city_kana":"ニカホシ","town":"金浦","town_kana":"コノウラ","prefecture_code":5},"0404":{"zip_code":"0180404","prefecture":"秋田県","prefecture_kana":"アキタケン","city":"にかほ市","city_kana":"ニカホシ","town":"芹田","town_kana":"セリダ","prefecture_code":5},"0414":{"zip_code":"0180414","prefecture":"秋田県","prefecture_kana":"アキタケン","city":"にかほ市","city_kana":"ニカホシ","town":"田抓","town_kana":"タヅカミ","prefecture_code":5},"0434":{"zip_code":"0180434","prefecture":"秋田県","prefecture_kana":"アキタケン","city":"にかほ市","city_kana":"ニカホシ","town":"寺田","town_kana":"テラダ","prefecture_code":5},"0422":{"zip_code":"0180422","prefecture":"秋田県","prefecture_kana":"アキタケン","city":"にかほ市","city_kana":"ニカホシ","town":"冬師","town_kana":"トウシ","prefecture_code":5},"0301":{"zip_code":"0180301","prefecture":"秋田県","prefecture_kana":"アキタケン","city":"にかほ市","city_kana":"ニカホシ","town":"飛","town_kana":"トビ","prefecture_code":5},"0435":{"zip_code":"0180435","prefecture":"秋田県","prefecture_kana":"アキタケン","city":"にかほ市","city_kana":"ニカホシ","town":"中三地","town_kana":"ナカサンチ","prefecture_code":5},"0433":{"zip_code":"0180433","prefecture":"秋田県","prefecture_kana":"アキタケン","city":"にかほ市","city_kana":"ニカホシ","town":"畑","town_kana":"ハタ","prefecture_code":5},"0413":{"zip_code":"0180413","prefecture":"秋田県","prefecture_kana":"アキタケン","city":"にかほ市","city_kana":"ニカホシ","town":"馬場","town_kana":"ババ","prefecture_code":5},"0436":{"zip_code":"0180436","prefecture":"秋田県","prefecture_kana":"アキタケン","city":"にかほ市","city_kana":"ニカホシ","town":"樋目野","town_kana":"ヒメノ","prefecture_code":5},"0402":{"zip_code":"0180402","prefecture":"秋田県","prefecture_kana":"アキタケン","city":"にかほ市","city_kana":"ニカホシ","town":"平沢","town_kana":"ヒラサワ","prefecture_code":5},"0321":{"zip_code":"0180321","prefecture":"秋田県","prefecture_kana":"アキタケン","city":"にかほ市","city_kana":"ニカホシ","town":"前川","town_kana":"マエカワ","prefecture_code":5},"0432":{"zip_code":"0180432","prefecture":"秋田県","prefecture_kana":"アキタケン","city":"にかほ市","city_kana":"ニカホシ","town":"水沢","town_kana":"ミズサワ","prefecture_code":5},"0403":{"zip_code":"0180403","prefecture":"秋田県","prefecture_kana":"アキタケン","city":"にかほ市","city_kana":"ニカホシ","town":"三森","town_kana":"ミツモリ","prefecture_code":5},"0401":{"zip_code":"0180401","prefecture":"秋田県","prefecture_kana":"アキタケン","city":"にかほ市","city_kana":"ニカホシ","town":"両前寺","town_kana":"リョウゼンジ","prefecture_code":5},"5511":{"zip_code":"0185511","prefecture":"秋田県","prefecture_kana":"アキタケン","city":"鹿角郡小坂町","city_kana":"カヅノグンコサカマチ","town":"十和田湖","town_kana":"トワダコ","prefecture_code":5},"4400":{"zip_code":"0184400","prefecture":"秋田県","prefecture_kana":"アキタケン","city":"北秋田郡上小阿仁村","city_kana":"キタアキタグンカミコアニムラ","town":"","town_kana":"","prefecture_code":5},"4431":{"zip_code":"0184431","prefecture":"秋田県","prefecture_kana":"アキタケン","city":"北秋田郡上小阿仁村","city_kana":"キタアキタグンカミコアニムラ","town":"大林","town_kana":"オオバヤシ","prefecture_code":5},"4401":{"zip_code":"0184401","prefecture":"秋田県","prefecture_kana":"アキタケン","city":"北秋田郡上小阿仁村","city_kana":"キタアキタグンカミコアニムラ","town":"沖田面","town_kana":"オキタオモテ","prefecture_code":5},"4421":{"zip_code":"0184421","prefecture":"秋田県","prefecture_kana":"アキタケン","city":"北秋田郡上小阿仁村","city_kana":"キタアキタグンカミコアニムラ","town":"小沢田","town_kana":"コサワダ","prefecture_code":5},"4412":{"zip_code":"0184412","prefecture":"秋田県","prefecture_kana":"アキタケン","city":"北秋田郡上小阿仁村","city_kana":"キタアキタグンカミコアニムラ","town":"五反沢","town_kana":"ゴタンザワ","prefecture_code":5},"4413":{"zip_code":"0184413","prefecture":"秋田県","prefecture_kana":"アキタケン","city":"北秋田郡上小阿仁村","city_kana":"キタアキタグンカミコアニムラ","town":"杉花","town_kana":"スギハナ","prefecture_code":5},"4422":{"zip_code":"0184422","prefecture":"秋田県","prefecture_kana":"アキタケン","city":"北秋田郡上小阿仁村","city_kana":"キタアキタグンカミコアニムラ","town":"堂川","town_kana":"ドウガワ","prefecture_code":5},"4411":{"zip_code":"0184411","prefecture":"秋田県","prefecture_kana":"アキタケン","city":"北秋田郡上小阿仁村","city_kana":"キタアキタグンカミコアニムラ","town":"福舘","town_kana":"フクダテ","prefecture_code":5},"4423":{"zip_code":"0184423","prefecture":"秋田県","prefecture_kana":"アキタケン","city":"北秋田郡上小阿仁村","city_kana":"キタアキタグンカミコアニムラ","town":"仏社","town_kana":"ブッシャ","prefecture_code":5},"4432":{"zip_code":"0184432","prefecture":"秋田県","prefecture_kana":"アキタケン","city":"北秋田郡上小阿仁村","city_kana":"キタアキタグンカミコアニムラ","town":"南沢","town_kana":"ミナミザワ","prefecture_code":5},"3200":{"zip_code":"0183200","prefecture":"秋田県","prefecture_kana":"アキタケン","city":"山本郡藤里町","city_kana":"ヤマモトグンフジサトマチ","town":"","town_kana":"","prefecture_code":5},"3203":{"zip_code":"0183203","prefecture":"秋田県","prefecture_kana":"アキタケン","city":"山本郡藤里町","city_kana":"ヤマモトグンフジサトマチ","town":"大沢","town_kana":"オオサワ","prefecture_code":5},"3205":{"zip_code":"0183205","prefecture":"秋田県","prefecture_kana":"アキタケン","city":"山本郡藤里町","city_kana":"ヤマモトグンフジサトマチ","town":"粕毛","town_kana":"カスゲ","prefecture_code":5},"3202":{"zip_code":"0183202","prefecture":"秋田県","prefecture_kana":"アキタケン","city":"山本郡藤里町","city_kana":"ヤマモトグンフジサトマチ","town":"太良","town_kana":"ダイラ","prefecture_code":5},"3201":{"zip_code":"0183201","prefecture":"秋田県","prefecture_kana":"アキタケン","city":"山本郡藤里町","city_kana":"ヤマモトグンフジサトマチ","town":"藤琴","town_kana":"フジコト","prefecture_code":5},"3204":{"zip_code":"0183204","prefecture":"秋田県","prefecture_kana":"アキタケン","city":"山本郡藤里町","city_kana":"ヤマモトグンフジサトマチ","town":"矢坂","town_kana":"ヤサカ","prefecture_code":5},"2400":{"zip_code":"0182400","prefecture":"秋田県","prefecture_kana":"アキタケン","city":"山本郡三種町","city_kana":"ヤマモトグンミタネチョウ","town":"","town_kana":"","prefecture_code":5},"2405":{"zip_code":"0182405","prefecture":"秋田県","prefecture_kana":"アキタケン","city":"山本郡三種町","city_kana":"ヤマモトグンミタネチョウ","town":"芦崎","town_kana":"アシザキ","prefecture_code":5},"2102":{"zip_code":"0182102","prefecture":"秋田県","prefecture_kana":"アキタケン","city":"山本郡三種町","city_kana":"ヤマモトグンミタネチョウ","town":"天瀬川","town_kana":"アマセガワ","prefecture_code":5},"2401":{"zip_code":"0182401","prefecture":"秋田県","prefecture_kana":"アキタケン","city":"山本郡三種町","city_kana":"ヤマモトグンミタネチョウ","town":"鵜川","town_kana":"ウカワ","prefecture_code":5},"2406":{"zip_code":"0182406","prefecture":"秋田県","prefecture_kana":"アキタケン","city":"山本郡三種町","city_kana":"ヤマモトグンミタネチョウ","town":"大口","town_kana":"オオクチ","prefecture_code":5},"2104":{"zip_code":"0182104","prefecture":"秋田県","prefecture_kana":"アキタケン","city":"山本郡三種町","city_kana":"ヤマモトグンミタネチョウ","town":"鹿渡","town_kana":"カド","prefecture_code":5},"2101":{"zip_code":"0182101","prefecture":"秋田県","prefecture_kana":"アキタケン","city":"山本郡三種町","city_kana":"ヤマモトグンミタネチョウ","town":"上岩川","town_kana":"カミイワカワ","prefecture_code":5},"2402":{"zip_code":"0182402","prefecture":"秋田県","prefecture_kana":"アキタケン","city":"山本郡三種町","city_kana":"ヤマモトグンミタネチョウ","town":"川尻","town_kana":"カワシリ","prefecture_code":5},"2403":{"zip_code":"0182403","prefecture":"秋田県","prefecture_kana":"アキタケン","city":"山本郡三種町","city_kana":"ヤマモトグンミタネチョウ","town":"久米岡新田","town_kana":"クメオカシンデン","prefecture_code":5},"2103":{"zip_code":"0182103","prefecture":"秋田県","prefecture_kana":"アキタケン","city":"山本郡三種町","city_kana":"ヤマモトグンミタネチョウ","town":"鯉川","town_kana":"コイカワ","prefecture_code":5},"2301":{"zip_code":"0182301","prefecture":"秋田県","prefecture_kana":"アキタケン","city":"山本郡三種町","city_kana":"ヤマモトグンミタネチョウ","town":"志戸橋","town_kana":"シトバシ","prefecture_code":5},"2302":{"zip_code":"0182302","prefecture":"秋田県","prefecture_kana":"アキタケン","city":"山本郡三種町","city_kana":"ヤマモトグンミタネチョウ","town":"下岩川","town_kana":"シモイワカワ","prefecture_code":5},"2305":{"zip_code":"0182305","prefecture":"秋田県","prefecture_kana":"アキタケン","city":"山本郡三種町","city_kana":"ヤマモトグンミタネチョウ","town":"外岡","town_kana":"ソトオカ","prefecture_code":5},"2404":{"zip_code":"0182404","prefecture":"秋田県","prefecture_kana":"アキタケン","city":"山本郡三種町","city_kana":"ヤマモトグンミタネチョウ","town":"富岡新田","town_kana":"トミオカシンデン","prefecture_code":5},"2304":{"zip_code":"0182304","prefecture":"秋田県","prefecture_kana":"アキタケン","city":"山本郡三種町","city_kana":"ヤマモトグンミタネチョウ","town":"豊岡金田","town_kana":"トヨオカキンデン","prefecture_code":5},"2407":{"zip_code":"0182407","prefecture":"秋田県","prefecture_kana":"アキタケン","city":"山本郡三種町","city_kana":"ヤマモトグンミタネチョウ","town":"浜田","town_kana":"ハマダ","prefecture_code":5},"2303":{"zip_code":"0182303","prefecture":"秋田県","prefecture_kana":"アキタケン","city":"山本郡三種町","city_kana":"ヤマモトグンミタネチョウ","town":"森岳","town_kana":"モリタケ","prefecture_code":5},"2500":{"zip_code":"0182500","prefecture":"秋田県","prefecture_kana":"アキタケン","city":"山本郡八峰町","city_kana":"ヤマモトグンハッポウチョウ","town":"","town_kana":"","prefecture_code":5},"2637":{"zip_code":"0182637","prefecture":"秋田県","prefecture_kana":"アキタケン","city":"山本郡八峰町","city_kana":"ヤマモトグンハッポウチョウ","town":"八森家の後","town_kana":"ハチモリイエノウシロ","prefecture_code":5},"2643":{"zip_code":"0182643","prefecture":"秋田県","prefecture_kana":"アキタケン","city":"山本郡八峰町","city_kana":"ヤマモトグンハッポウチョウ","town":"八森家の上","town_kana":"ハチモリイエノカミ","prefecture_code":5},"2622":{"zip_code":"0182622","prefecture":"秋田県","prefecture_kana":"アキタケン","city":"山本郡八峰町","city_kana":"ヤマモトグンハッポウチョウ","town":"八森家の向","town_kana":"ハチモリイエノムカイ","prefecture_code":5},"2615":{"zip_code":"0182615","prefecture":"秋田県","prefecture_kana":"アキタケン","city":"山本郡八峰町","city_kana":"ヤマモトグンハッポウチョウ","town":"八森伊勢鉢台","town_kana":"ハチモリイセバチダイ","prefecture_code":5},"2676":{"zip_code":"0182676","prefecture":"秋田県","prefecture_kana":"アキタケン","city":"山本郡八峰町","city_kana":"ヤマモトグンハッポウチョウ","town":"八森磯村","town_kana":"ハチモリイソムラ","prefecture_code":5},"2611":{"zip_code":"0182611","prefecture":"秋田県","prefecture_kana":"アキタケン","city":"山本郡八峰町","city_kana":"ヤマモトグンハッポウチョウ","town":"八森岩館","town_kana":"ハチモリイワダテ","prefecture_code":5},"2605":{"zip_code":"0182605","prefecture":"秋田県","prefecture_kana":"アキタケン","city":"山本郡八峰町","city_kana":"ヤマモトグンハッポウチョウ","town":"八森岩館塚の台","town_kana":"ハチモリイワダテツカノダイ","prefecture_code":5},"2608":{"zip_code":"0182608","prefecture":"秋田県","prefecture_kana":"アキタケン","city":"山本郡八峰町","city_kana":"ヤマモトグンハッポウチョウ","town":"八森岩館向台","town_kana":"ハチモリイワダテムカイダイ","prefecture_code":5},"2601":{"zip_code":"0182601","prefecture":"秋田県","prefecture_kana":"アキタケン","city":"山本郡八峰町","city_kana":"ヤマモトグンハッポウチョウ","town":"八森乙の水","town_kana":"ハチモリオトノミズ","prefecture_code":5},"2675":{"zip_code":"0182675","prefecture":"秋田県","prefecture_kana":"アキタケン","city":"山本郡八峰町","city_kana":"ヤマモトグンハッポウチョウ","town":"八森篭田","town_kana":"ハチモリカゴタ","prefecture_code":5},"2609":{"zip_code":"0182609","prefecture":"秋田県","prefecture_kana":"アキタケン","city":"山本郡八峰町","city_kana":"ヤマモトグンハッポウチョウ","town":"八森門の沢","town_kana":"ハチモリカドノサワ","prefecture_code":5},"2647":{"zip_code":"0182647","prefecture":"秋田県","prefecture_kana":"アキタケン","city":"山本郡八峰町","city_kana":"ヤマモトグンハッポウチョウ","town":"八森鹿の浦","town_kana":"ハチモリカノウラ","prefecture_code":5},"2606":{"zip_code":"0182606","prefecture":"秋田県","prefecture_kana":"アキタケン","city":"山本郡八峰町","city_kana":"ヤマモトグンハッポウチョウ","town":"八森釜の上","town_kana":"ハチモリカマノウエ","prefecture_code":5},"2674":{"zip_code":"0182674","prefecture":"秋田県","prefecture_kana":"アキタケン","city":"山本郡八峰町","city_kana":"ヤマモトグンハッポウチョウ","town":"八森上家後","town_kana":"ハチモリカミイエウシロ","prefecture_code":5},"2636":{"zip_code":"0182636","prefecture":"秋田県","prefecture_kana":"アキタケン","city":"山本郡八峰町","city_kana":"ヤマモトグンハッポウチョウ","town":"八森上嘉治助台","town_kana":"ハチモリカミカジスケダイ","prefecture_code":5},"2618":{"zip_code":"0182618","prefecture":"秋田県","prefecture_kana":"アキタケン","city":"山本郡八峰町","city_kana":"ヤマモトグンハッポウチョウ","town":"八森木戸の沢","town_kana":"ハチモリキドノサワ","prefecture_code":5},"2653":{"zip_code":"0182653","prefecture":"秋田県","prefecture_kana":"アキタケン","city":"山本郡八峰町","city_kana":"ヤマモトグンハッポウチョウ","town":"八森倉の沢","town_kana":"ハチモリクラノサワ","prefecture_code":5},"2614":{"zip_code":"0182614","prefecture":"秋田県","prefecture_kana":"アキタケン","city":"山本郡八峰町","city_kana":"ヤマモトグンハッポウチョウ","town":"八森小入川家の上","town_kana":"ハチモリコイリカワイエノカミ","prefecture_code":5},"2613":{"zip_code":"0182613","prefecture":"秋田県","prefecture_kana":"アキタケン","city":"山本郡八峰町","city_kana":"ヤマモトグンハッポウチョウ","town":"八森鉱山","town_kana":"ハチモリコウザン","prefecture_code":5},"2617":{"zip_code":"0182617","prefecture":"秋田県","prefecture_kana":"アキタケン","city":"山本郡八峰町","city_kana":"ヤマモトグンハッポウチョウ","town":"八森御所の台","town_kana":"ハチモリゴショノダイ","prefecture_code":5},"2631":{"zip_code":"0182631","prefecture":"秋田県","prefecture_kana":"アキタケン","city":"山本郡八峰町","city_kana":"ヤマモトグンハッポウチョウ","town":"八森五輪台下段","town_kana":"ハチモリゴリンダイゲダン","prefecture_code":5},"2633":{"zip_code":"0182633","prefecture":"秋田県","prefecture_kana":"アキタケン","city":"山本郡八峰町","city_kana":"ヤマモトグンハッポウチョウ","town":"八森五輪台上段","town_kana":"ハチモリゴリンダイジョウダン","prefecture_code":5},"2632":{"zip_code":"0182632","prefecture":"秋田県","prefecture_kana":"アキタケン","city":"山本郡八峰町","city_kana":"ヤマモトグンハッポウチョウ","town":"八森三十釜","town_kana":"ハチモリサンジュウガマ","prefecture_code":5},"2627":{"zip_code":"0182627","prefecture":"秋田県","prefecture_kana":"アキタケン","city":"山本郡八峰町","city_kana":"ヤマモトグンハッポウチョウ","town":"八森山内","town_kana":"ハチモリサンナイ","prefecture_code":5},"2625":{"zip_code":"0182625","prefecture":"秋田県","prefecture_kana":"アキタケン","city":"山本郡八峰町","city_kana":"ヤマモトグンハッポウチョウ","town":"八森山内台","town_kana":"ハチモリサンナイダイ","prefecture_code":5},"2672":{"zip_code":"0182672","prefecture":"秋田県","prefecture_kana":"アキタケン","city":"山本郡八峰町","city_kana":"ヤマモトグンハッポウチョウ","town":"八森下家後","town_kana":"ハチモリシモイエウシロ","prefecture_code":5},"2635":{"zip_code":"0182635","prefecture":"秋田県","prefecture_kana":"アキタケン","city":"山本郡八峰町","city_kana":"ヤマモトグンハッポウチョウ","town":"八森下嘉治助台","town_kana":"ハチモリシモカジスケダイ","prefecture_code":5},"2651":{"zip_code":"0182651","prefecture":"秋田県","prefecture_kana":"アキタケン","city":"山本郡八峰町","city_kana":"ヤマモトグンハッポウチョウ","town":"八森下館下","town_kana":"ハチモリシモタテシタ","prefecture_code":5},"2662":{"zip_code":"0182662","prefecture":"秋田県","prefecture_kana":"アキタケン","city":"山本郡八峰町","city_kana":"ヤマモトグンハッポウチョウ","town":"八森新浜田","town_kana":"ハチモリシンハマダ","prefecture_code":5},"2634":{"zip_code":"0182634","prefecture":"秋田県","prefecture_kana":"アキタケン","city":"山本郡八峰町","city_kana":"ヤマモトグンハッポウチョウ","town":"八森滝の上","town_kana":"ハチモリタキノウエ","prefecture_code":5},"2623":{"zip_code":"0182623","prefecture":"秋田県","prefecture_kana":"アキタケン","city":"山本郡八峰町","city_kana":"ヤマモトグンハッポウチョウ","town":"八森滝ノ間","town_kana":"ハチモリタキノマ","prefecture_code":5},"2628":{"zip_code":"0182628","prefecture":"秋田県","prefecture_kana":"アキタケン","city":"山本郡八峰町","city_kana":"ヤマモトグンハッポウチョウ","town":"八森立石","town_kana":"ハチモリタテイシ","prefecture_code":5},"2602":{"zip_code":"0182602","prefecture":"秋田県","prefecture_kana":"アキタケン","city":"山本郡八峰町","city_kana":"ヤマモトグンハッポウチョウ","town":"八森チゴキ","town_kana":"ハチモリチゴキ","prefecture_code":5},"2621":{"zip_code":"0182621","prefecture":"秋田県","prefecture_kana":"アキタケン","city":"山本郡八峰町","city_kana":"ヤマモトグンハッポウチョウ","town":"八森茶の沢","town_kana":"ハチモリチャノサワ","prefecture_code":5},"2646":{"zip_code":"0182646","prefecture":"秋田県","prefecture_kana":"アキタケン","city":"山本郡八峰町","city_kana":"ヤマモトグンハッポウチョウ","town":"八森塚の台","town_kana":"ハチモリツカノダイ","prefecture_code":5},"2642":{"zip_code":"0182642","prefecture":"秋田県","prefecture_kana":"アキタケン","city":"山本郡八峰町","city_kana":"ヤマモトグンハッポウチョウ","town":"八森椿","town_kana":"ハチモリツバキ","prefecture_code":5},"2644":{"zip_code":"0182644","prefecture":"秋田県","prefecture_kana":"アキタケン","city":"山本郡八峰町","city_kana":"ヤマモトグンハッポウチョウ","town":"八森椿台","town_kana":"ハチモリツバキダイ","prefecture_code":5},"2666":{"zip_code":"0182666","prefecture":"秋田県","prefecture_kana":"アキタケン","city":"山本郡八峰町","city_kana":"ヤマモトグンハッポウチョウ","town":"八森寺の後","town_kana":"ハチモリテラノウシロ","prefecture_code":5},"2665":{"zip_code":"0182665","prefecture":"秋田県","prefecture_kana":"アキタケン","city":"山本郡八峰町","city_kana":"ヤマモトグンハッポウチョウ","town":"八森寺の後川向","town_kana":"ハチモリテラノウシロカワムカイ","prefecture_code":5},"2648":{"zip_code":"0182648","prefecture":"秋田県","prefecture_kana":"アキタケン","city":"山本郡八峰町","city_kana":"ヤマモトグンハッポウチョウ","town":"八森泊台","town_kana":"ハチモリトマリダイ","prefecture_code":5},"2663":{"zip_code":"0182663","prefecture":"秋田県","prefecture_kana":"アキタケン","city":"山本郡八峰町","city_kana":"ヤマモトグンハッポウチョウ","town":"八森樋長","town_kana":"ハチモリトヨナガ","prefecture_code":5},"2673":{"zip_code":"0182673","prefecture":"秋田県","prefecture_kana":"アキタケン","city":"山本郡八峰町","city_kana":"ヤマモトグンハッポウチョウ","town":"八森中家後","town_kana":"ハチモリナカイエウシロ","prefecture_code":5},"2619":{"zip_code":"0182619","prefecture":"秋田県","prefecture_kana":"アキタケン","city":"山本郡八峰町","city_kana":"ヤマモトグンハッポウチョウ","town":"八森長坂","town_kana":"ハチモリナガサカ","prefecture_code":5},"2645":{"zip_code":"0182645","prefecture":"秋田県","prefecture_kana":"アキタケン","city":"山本郡八峰町","city_kana":"ヤマモトグンハッポウチョウ","town":"八森中嶋","town_kana":"ハチモリナカジマ","prefecture_code":5},"2641":{"zip_code":"0182641","prefecture":"秋田県","prefecture_kana":"アキタケン","city":"山本郡八峰町","city_kana":"ヤマモトグンハッポウチョウ","town":"八森中浜","town_kana":"ハチモリナカハマ","prefecture_code":5},"2612":{"zip_code":"0182612","prefecture":"秋田県","prefecture_kana":"アキタケン","city":"山本郡八峰町","city_kana":"ヤマモトグンハッポウチョウ","town":"八森ノケソリ","town_kana":"ハチモリノケソリ","prefecture_code":5},"2678":{"zip_code":"0182678","prefecture":"秋田県","prefecture_kana":"アキタケン","city":"山本郡八峰町","city_kana":"ヤマモトグンハッポウチョウ","town":"八森八森","town_kana":"ハチモリハチモリ","prefecture_code":5},"2667":{"zip_code":"0182667","prefecture":"秋田県","prefecture_kana":"アキタケン","city":"山本郡八峰町","city_kana":"ヤマモトグンハッポウチョウ","town":"八森八森家後","town_kana":"ハチモリハチモリイエウシロ","prefecture_code":5},"2677":{"zip_code":"0182677","prefecture":"秋田県","prefecture_kana":"アキタケン","city":"山本郡八峰町","city_kana":"ヤマモトグンハッポウチョウ","town":"八森八森後","town_kana":"ハチモリハチモリウシロ","prefecture_code":5},"2661":{"zip_code":"0182661","prefecture":"秋田県","prefecture_kana":"アキタケン","city":"山本郡八峰町","city_kana":"ヤマモトグンハッポウチョウ","town":"八森浜田","town_kana":"ハチモリハマダ","prefecture_code":5},"2607":{"zip_code":"0182607","prefecture":"秋田県","prefecture_kana":"アキタケン","city":"山本郡八峰町","city_kana":"ヤマモトグンハッポウチョウ","town":"八森林の沢","town_kana":"ハチモリハヤシノサワ","prefecture_code":5},"2664":{"zip_code":"0182664","prefecture":"秋田県","prefecture_kana":"アキタケン","city":"山本郡八峰町","city_kana":"ヤマモトグンハッポウチョウ","town":"八森古屋敷","town_kana":"ハチモリフルヤシキ","prefecture_code":5},"2616":{"zip_code":"0182616","prefecture":"秋田県","prefecture_kana":"アキタケン","city":"山本郡八峰町","city_kana":"ヤマモトグンハッポウチョウ","town":"八森三沢","town_kana":"ハチモリミサワ","prefecture_code":5},"2638":{"zip_code":"0182638","prefecture":"秋田県","prefecture_kana":"アキタケン","city":"山本郡八峰町","city_kana":"ヤマモトグンハッポウチョウ","town":"八森茂浦","town_kana":"ハチモリモウラ","prefecture_code":5},"2655":{"zip_code":"0182655","prefecture":"秋田県","prefecture_kana":"アキタケン","city":"山本郡八峰町","city_kana":"ヤマモトグンハッポウチョウ","town":"八森本館","town_kana":"ハチモリモトダテ","prefecture_code":5},"2652":{"zip_code":"0182652","prefecture":"秋田県","prefecture_kana":"アキタケン","city":"山本郡八峰町","city_kana":"ヤマモトグンハッポウチョウ","town":"八森本館中台","town_kana":"ハチモリモトダテナカダイ","prefecture_code":5},"2603":{"zip_code":"0182603","prefecture":"秋田県","prefecture_kana":"アキタケン","city":"山本郡八峰町","city_kana":"ヤマモトグンハッポウチョウ","town":"八森物見","town_kana":"ハチモリモノミ","prefecture_code":5},"2654":{"zip_code":"0182654","prefecture":"秋田県","prefecture_kana":"アキタケン","city":"山本郡八峰町","city_kana":"ヤマモトグンハッポウチョウ","town":"八森諸沢口","town_kana":"ハチモリモロサワグチ","prefecture_code":5},"2656":{"zip_code":"0182656","prefecture":"秋田県","prefecture_kana":"アキタケン","city":"山本郡八峰町","city_kana":"ヤマモトグンハッポウチョウ","town":"八森諸沢下脇","town_kana":"ハチモリモロサワシモワキ","prefecture_code":5},"2671":{"zip_code":"0182671","prefecture":"秋田県","prefecture_kana":"アキタケン","city":"山本郡八峰町","city_kana":"ヤマモトグンハッポウチョウ","town":"八森湯の尻","town_kana":"ハチモリユノシリ","prefecture_code":5},"2626":{"zip_code":"0182626","prefecture":"秋田県","prefecture_kana":"アキタケン","city":"山本郡八峰町","city_kana":"ヤマモトグンハッポウチョウ","town":"八森横間","town_kana":"ハチモリヨコマ","prefecture_code":5},"2624":{"zip_code":"0182624","prefecture":"秋田県","prefecture_kana":"アキタケン","city":"山本郡八峰町","city_kana":"ヤマモトグンハッポウチョウ","town":"八森横間台","town_kana":"ハチモリヨコマダイ","prefecture_code":5},"2604":{"zip_code":"0182604","prefecture":"秋田県","prefecture_kana":"アキタケン","city":"山本郡八峰町","city_kana":"ヤマモトグンハッポウチョウ","town":"八森和田表","town_kana":"ハチモリワダオモテ","prefecture_code":5},"2504":{"zip_code":"0182504","prefecture":"秋田県","prefecture_kana":"アキタケン","city":"山本郡八峰町","city_kana":"ヤマモトグンハッポウチョウ","town":"峰浜石川","town_kana":"ミネハマイシカワ","prefecture_code":5},"2505":{"zip_code":"0182505","prefecture":"秋田県","prefecture_kana":"アキタケン","city":"山本郡八峰町","city_kana":"ヤマモトグンハッポウチョウ","town":"峰浜内荒巻","town_kana":"ミネハマウチアラマキ","prefecture_code":5},"2511":{"zip_code":"0182511","prefecture":"秋田県","prefecture_kana":"アキタケン","city":"山本郡八峰町","city_kana":"ヤマモトグンハッポウチョウ","town":"峰浜高野々","town_kana":"ミネハマコウヤノ","prefecture_code":5},"2506":{"zip_code":"0182506","prefecture":"秋田県","prefecture_kana":"アキタケン","city":"山本郡八峰町","city_kana":"ヤマモトグンハッポウチョウ","town":"峰浜小手萩","town_kana":"ミネハマコテハギ","prefecture_code":5},"2508":{"zip_code":"0182508","prefecture":"秋田県","prefecture_kana":"アキタケン","city":"山本郡八峰町","city_kana":"ヤマモトグンハッポウチョウ","town":"峰浜坂形","town_kana":"ミネハマサカガタ","prefecture_code":5},"2507":{"zip_code":"0182507","prefecture":"秋田県","prefecture_kana":"アキタケン","city":"山本郡八峰町","city_kana":"ヤマモトグンハッポウチョウ","town":"峰浜田中","town_kana":"ミネハマタナカ","prefecture_code":5},"2509":{"zip_code":"0182509","prefecture":"秋田県","prefecture_kana":"アキタケン","city":"山本郡八峰町","city_kana":"ヤマモトグンハッポウチョウ","town":"峰浜沼田","town_kana":"ミネハマヌマタ","prefecture_code":5},"2512":{"zip_code":"0182512","prefecture":"秋田県","prefecture_kana":"アキタケン","city":"山本郡八峰町","city_kana":"ヤマモトグンハッポウチョウ","town":"峰浜畑谷","town_kana":"ミネハマハタヤ","prefecture_code":5},"2503":{"zip_code":"0182503","prefecture":"秋田県","prefecture_kana":"アキタケン","city":"山本郡八峰町","city_kana":"ヤマモトグンハッポウチョウ","town":"峰浜塙","town_kana":"ミネハマハナワ","prefecture_code":5},"2501":{"zip_code":"0182501","prefecture":"秋田県","prefecture_kana":"アキタケン","city":"山本郡八峰町","city_kana":"ヤマモトグンハッポウチョウ","town":"峰浜水沢","town_kana":"ミネハマミズサワ","prefecture_code":5},"2502":{"zip_code":"0182502","prefecture":"秋田県","prefecture_kana":"アキタケン","city":"山本郡八峰町","city_kana":"ヤマモトグンハッポウチョウ","town":"峰浜目名潟","town_kana":"ミネハマメナガタ","prefecture_code":5},"1700":{"zip_code":"0181700","prefecture":"秋田県","prefecture_kana":"アキタケン","city":"南秋田郡五城目町","city_kana":"ミナミアキタグンゴジョウメマチ","town":"","town_kana":"","prefecture_code":5},"1704":{"zip_code":"0181704","prefecture":"秋田県","prefecture_kana":"アキタケン","city":"南秋田郡五城目町","city_kana":"ミナミアキタグンゴジョウメマチ","town":"石田六ケ村堰添","town_kana":"イシダロッカソンセキゾイ","prefecture_code":5},"1743":{"zip_code":"0181743","prefecture":"秋田県","prefecture_kana":"アキタケン","city":"南秋田郡五城目町","city_kana":"ミナミアキタグンゴジョウメマチ","town":"稲荷前","town_kana":"イナリマエ","prefecture_code":5},"1851":{"zip_code":"0181851","prefecture":"秋田県","prefecture_kana":"アキタケン","city":"南秋田郡五城目町","city_kana":"ミナミアキタグンゴジョウメマチ","town":"内川浅見内","town_kana":"ウチカワアサミナイ","prefecture_code":5},"1857":{"zip_code":"0181857","prefecture":"秋田県","prefecture_kana":"アキタケン","city":"南秋田郡五城目町","city_kana":"ミナミアキタグンゴジョウメマチ","town":"内川小倉","town_kana":"ウチカワオグラ","prefecture_code":5},"1854":{"zip_code":"0181854","prefecture":"秋田県","prefecture_kana":"アキタケン","city":"南秋田郡五城目町","city_kana":"ミナミアキタグンゴジョウメマチ","town":"内川黒土","town_kana":"ウチカワクロツチ","prefecture_code":5},"1852":{"zip_code":"0181852","prefecture":"秋田県","prefecture_kana":"アキタケン","city":"南秋田郡五城目町","city_kana":"ミナミアキタグンゴジョウメマチ","town":"内川湯ノ又","town_kana":"ウチカワユノマタ","prefecture_code":5},"1722":{"zip_code":"0181722","prefecture":"秋田県","prefecture_kana":"アキタケン","city":"南秋田郡五城目町","city_kana":"ミナミアキタグンゴジョウメマチ","town":"鵜ノ木","town_kana":"ウノキ","prefecture_code":5},"1741":{"zip_code":"0181741","prefecture":"秋田県","prefecture_kana":"アキタケン","city":"南秋田郡五城目町","city_kana":"ミナミアキタグンゴジョウメマチ","town":"浦大町","town_kana":"ウラオオマチ","prefecture_code":5},"1742":{"zip_code":"0181742","prefecture":"秋田県","prefecture_kana":"アキタケン","city":"南秋田郡五城目町","city_kana":"ミナミアキタグンゴジョウメマチ","town":"浦横町","town_kana":"ウラヨコマチ","prefecture_code":5},"1705":{"zip_code":"0181705","prefecture":"秋田県","prefecture_kana":"アキタケン","city":"南秋田郡五城目町","city_kana":"ミナミアキタグンゴジョウメマチ","town":"上町","town_kana":"ウワマチ","prefecture_code":5},"1731":{"zip_code":"0181731","prefecture":"秋田県","prefecture_kana":"アキタケン","city":"南秋田郡五城目町","city_kana":"ミナミアキタグンゴジョウメマチ","town":"大川石崎","town_kana":"オオカワイシザキ","prefecture_code":5},"1734":{"zip_code":"0181734","prefecture":"秋田県","prefecture_kana":"アキタケン","city":"南秋田郡五城目町","city_kana":"ミナミアキタグンゴジョウメマチ","town":"大川大川","town_kana":"オオカワオオカワ","prefecture_code":5},"1735":{"zip_code":"0181735","prefecture":"秋田県","prefecture_kana":"アキタケン","city":"南秋田郡五城目町","city_kana":"ミナミアキタグンゴジョウメマチ","town":"大川下樋口","town_kana":"オオカワシモトヨグチ","prefecture_code":5},"1732":{"zip_code":"0181732","prefecture":"秋田県","prefecture_kana":"アキタケン","city":"南秋田郡五城目町","city_kana":"ミナミアキタグンゴジョウメマチ","town":"大川西野","town_kana":"オオカワニシノ","prefecture_code":5},"1733":{"zip_code":"0181733","prefecture":"秋田県","prefecture_kana":"アキタケン","city":"南秋田郡五城目町","city_kana":"ミナミアキタグンゴジョウメマチ","town":"大川谷地中","town_kana":"オオカワヤチナカ","prefecture_code":5},"1723":{"zip_code":"0181723","prefecture":"秋田県","prefecture_kana":"アキタケン","city":"南秋田郡五城目町","city_kana":"ミナミアキタグンゴジョウメマチ","town":"上樋口","town_kana":"カミヒグチ","prefecture_code":5},"1745":{"zip_code":"0181745","prefecture":"秋田県","prefecture_kana":"アキタケン","city":"南秋田郡五城目町","city_kana":"ミナミアキタグンゴジョウメマチ","town":"川崎","town_kana":"カワサキ","prefecture_code":5},"1712":{"zip_code":"0181712","prefecture":"秋田県","prefecture_kana":"アキタケン","city":"南秋田郡五城目町","city_kana":"ミナミアキタグンゴジョウメマチ","town":"久保","town_kana":"クボ","prefecture_code":5},"1746":{"zip_code":"0181746","prefecture":"秋田県","prefecture_kana":"アキタケン","city":"南秋田郡五城目町","city_kana":"ミナミアキタグンゴジョウメマチ","town":"小池","town_kana":"コイケ","prefecture_code":5},"1706":{"zip_code":"0181706","prefecture":"秋田県","prefecture_kana":"アキタケン","city":"南秋田郡五城目町","city_kana":"ミナミアキタグンゴジョウメマチ","town":"下タ町","town_kana":"シタマチ","prefecture_code":5},"1744":{"zip_code":"0181744","prefecture":"秋田県","prefecture_kana":"アキタケン","city":"南秋田郡五城目町","city_kana":"ミナミアキタグンゴジョウメマチ","town":"神明前","town_kana":"シンメイマエ","prefecture_code":5},"1702":{"zip_code":"0181702","prefecture":"秋田県","prefecture_kana":"アキタケン","city":"南秋田郡五城目町","city_kana":"ミナミアキタグンゴジョウメマチ","town":"杉ケ崎","town_kana":"スギガサキ","prefecture_code":5},"1711":{"zip_code":"0181711","prefecture":"秋田県","prefecture_kana":"アキタケン","city":"南秋田郡五城目町","city_kana":"ミナミアキタグンゴジョウメマチ","town":"高崎","town_kana":"タカサキ","prefecture_code":5},"1714":{"zip_code":"0181714","prefecture":"秋田県","prefecture_kana":"アキタケン","city":"南秋田郡五城目町","city_kana":"ミナミアキタグンゴジョウメマチ","town":"舘越","town_kana":"タテゴシ","prefecture_code":5},"1701":{"zip_code":"0181701","prefecture":"秋田県","prefecture_kana":"アキタケン","city":"南秋田郡五城目町","city_kana":"ミナミアキタグンゴジョウメマチ","town":"兎品沢","town_kana":"トヒンザワ","prefecture_code":5},"1721":{"zip_code":"0181721","prefecture":"秋田県","prefecture_kana":"アキタケン","city":"南秋田郡五城目町","city_kana":"ミナミアキタグンゴジョウメマチ","town":"七倉","town_kana":"ナナクラ","prefecture_code":5},"1725":{"zip_code":"0181725","prefecture":"秋田県","prefecture_kana":"アキタケン","city":"南秋田郡五城目町","city_kana":"ミナミアキタグンゴジョウメマチ","town":"西磯ノ目","town_kana":"ニシイソノメ","prefecture_code":5},"1747":{"zip_code":"0181747","prefecture":"秋田県","prefecture_kana":"アキタケン","city":"南秋田郡五城目町","city_kana":"ミナミアキタグンゴジョウメマチ","town":"野田","town_kana":"ノダ","prefecture_code":5},"1703":{"zip_code":"0181703","prefecture":"秋田県","prefecture_kana":"アキタケン","city":"南秋田郡五城目町","city_kana":"ミナミアキタグンゴジョウメマチ","town":"羽黒前","town_kana":"ハグロマエ","prefecture_code":5},"1713":{"zip_code":"0181713","prefecture":"秋田県","prefecture_kana":"アキタケン","city":"南秋田郡五城目町","city_kana":"ミナミアキタグンゴジョウメマチ","town":"馬場目","town_kana":"ババメ","prefecture_code":5},"1724":{"zip_code":"0181724","prefecture":"秋田県","prefecture_kana":"アキタケン","city":"南秋田郡五城目町","city_kana":"ミナミアキタグンゴジョウメマチ","town":"東磯ノ目","town_kana":"ヒガシイソノメ","prefecture_code":5},"1856":{"zip_code":"0181856","prefecture":"秋田県","prefecture_kana":"アキタケン","city":"南秋田郡五城目町","city_kana":"ミナミアキタグンゴジョウメマチ","town":"富津内下山内","town_kana":"フツナイシモサンナイ","prefecture_code":5},"1855":{"zip_code":"0181855","prefecture":"秋田県","prefecture_kana":"アキタケン","city":"南秋田郡五城目町","city_kana":"ミナミアキタグンゴジョウメマチ","town":"富津内富田","town_kana":"フツナイトミタ","prefecture_code":5},"1853":{"zip_code":"0181853","prefecture":"秋田県","prefecture_kana":"アキタケン","city":"南秋田郡五城目町","city_kana":"ミナミアキタグンゴジョウメマチ","town":"富津内中津又","town_kana":"フツナイナカツマタ","prefecture_code":5},"1600":{"zip_code":"0181600","prefecture":"秋田県","prefecture_kana":"アキタケン","city":"南秋田郡八郎潟町","city_kana":"ミナミアキタグンハチロウガタマチ","town":"","town_kana":"","prefecture_code":5},"1621":{"zip_code":"0181621","prefecture":"秋田県","prefecture_kana":"アキタケン","city":"南秋田郡八郎潟町","city_kana":"ミナミアキタグンハチロウガタマチ","town":"家の後","town_kana":"イエノウシロ","prefecture_code":5},"1617":{"zip_code":"0181617","prefecture":"秋田県","prefecture_kana":"アキタケン","city":"南秋田郡八郎潟町","city_kana":"ミナミアキタグンハチロウガタマチ","town":"イカリ","town_kana":"イカリ","prefecture_code":5},"1602":{"zip_code":"0181602","prefecture":"秋田県","prefecture_kana":"アキタケン","city":"南秋田郡八郎潟町","city_kana":"ミナミアキタグンハチロウガタマチ","town":"浦大町","town_kana":"ウラオオマチ","prefecture_code":5},"1616":{"zip_code":"0181616","prefecture":"秋田県","prefecture_kana":"アキタケン","city":"南秋田郡八郎潟町","city_kana":"ミナミアキタグンハチロウガタマチ","town":"大道","town_kana":"オオミチ","prefecture_code":5},"1627":{"zip_code":"0181627","prefecture":"秋田県","prefecture_kana":"アキタケン","city":"南秋田郡八郎潟町","city_kana":"ミナミアキタグンハチロウガタマチ","town":"押切","town_kana":"オシキリ","prefecture_code":5},"1615":{"zip_code":"0181615","prefecture":"秋田県","prefecture_kana":"アキタケン","city":"南秋田郡八郎潟町","city_kana":"ミナミアキタグンハチロウガタマチ","town":"蒲沼","town_kana":"ガマヌマ","prefecture_code":5},"1611":{"zip_code":"0181611","prefecture":"秋田県","prefecture_kana":"アキタケン","city":"南秋田郡八郎潟町","city_kana":"ミナミアキタグンハチロウガタマチ","town":"上沖谷地","town_kana":"カミオキヤチ","prefecture_code":5},"1613":{"zip_code":"0181613","prefecture":"秋田県","prefecture_kana":"アキタケン","city":"南秋田郡八郎潟町","city_kana":"ミナミアキタグンハチロウガタマチ","town":"上昼根","town_kana":"カミヒルネ","prefecture_code":5},"1618":{"zip_code":"0181618","prefecture":"秋田県","prefecture_kana":"アキタケン","city":"南秋田郡八郎潟町","city_kana":"ミナミアキタグンハチロウガタマチ","town":"川口","town_kana":"カワグチ","prefecture_code":5},"1605":{"zip_code":"0181605","prefecture":"秋田県","prefecture_kana":"アキタケン","city":"南秋田郡八郎潟町","city_kana":"ミナミアキタグンハチロウガタマチ","town":"川崎","town_kana":"カワサキ","prefecture_code":5},"1625":{"zip_code":"0181625","prefecture":"秋田県","prefecture_kana":"アキタケン","city":"南秋田郡八郎潟町","city_kana":"ミナミアキタグンハチロウガタマチ","town":"久保見","town_kana":"クボミ","prefecture_code":5},"1603":{"zip_code":"0181603","prefecture":"秋田県","prefecture_kana":"アキタケン","city":"南秋田郡八郎潟町","city_kana":"ミナミアキタグンハチロウガタマチ","town":"小池","town_kana":"コイケ","prefecture_code":5},"1628":{"zip_code":"0181628","prefecture":"秋田県","prefecture_kana":"アキタケン","city":"南秋田郡八郎潟町","city_kana":"ミナミアキタグンハチロウガタマチ","town":"島ノ内","town_kana":"シマノウチ","prefecture_code":5},"1623":{"zip_code":"0181623","prefecture":"秋田県","prefecture_kana":"アキタケン","city":"南秋田郡八郎潟町","city_kana":"ミナミアキタグンハチロウガタマチ","town":"下川原","town_kana":"シモカワラ","prefecture_code":5},"1635":{"zip_code":"0181635","prefecture":"秋田県","prefecture_kana":"アキタケン","city":"南秋田郡八郎潟町","city_kana":"ミナミアキタグンハチロウガタマチ","town":"洲先","town_kana":"スサキ","prefecture_code":5},"1624":{"zip_code":"0181624","prefecture":"秋田県","prefecture_kana":"アキタケン","city":"南秋田郡八郎潟町","city_kana":"ミナミアキタグンハチロウガタマチ","town":"中久保","town_kana":"ナカクボ","prefecture_code":5},"1629":{"zip_code":"0181629","prefecture":"秋田県","prefecture_kana":"アキタケン","city":"南秋田郡八郎潟町","city_kana":"ミナミアキタグンハチロウガタマチ","town":"中嶋","town_kana":"ナカジマ","prefecture_code":5},"1614":{"zip_code":"0181614","prefecture":"秋田県","prefecture_kana":"アキタケン","city":"南秋田郡八郎潟町","city_kana":"ミナミアキタグンハチロウガタマチ","town":"中田","town_kana":"ナカダ","prefecture_code":5},"1633":{"zip_code":"0181633","prefecture":"秋田県","prefecture_kana":"アキタケン","city":"南秋田郡八郎潟町","city_kana":"ミナミアキタグンハチロウガタマチ","town":"中谷地","town_kana":"ナカヤチ","prefecture_code":5},"1632":{"zip_code":"0181632","prefecture":"秋田県","prefecture_kana":"アキタケン","city":"南秋田郡八郎潟町","city_kana":"ミナミアキタグンハチロウガタマチ","town":"長沼","town_kana":"ナガヌマ","prefecture_code":5},"1634":{"zip_code":"0181634","prefecture":"秋田県","prefecture_kana":"アキタケン","city":"南秋田郡八郎潟町","city_kana":"ミナミアキタグンハチロウガタマチ","town":"軒嶋","town_kana":"ノキシマ","prefecture_code":5},"1604":{"zip_code":"0181604","prefecture":"秋田県","prefecture_kana":"アキタケン","city":"南秋田郡八郎潟町","city_kana":"ミナミアキタグンハチロウガタマチ","town":"野田","town_kana":"ノダ","prefecture_code":5},"1631":{"zip_code":"0181631","prefecture":"秋田県","prefecture_kana":"アキタケン","city":"南秋田郡八郎潟町","city_kana":"ミナミアキタグンハチロウガタマチ","town":"八幡沼","town_kana":"ハチマヌマ","prefecture_code":5},"1622":{"zip_code":"0181622","prefecture":"秋田県","prefecture_kana":"アキタケン","city":"南秋田郡八郎潟町","city_kana":"ミナミアキタグンハチロウガタマチ","town":"一日市","town_kana":"ヒトイチ","prefecture_code":5},"1612":{"zip_code":"0181612","prefecture":"秋田県","prefecture_kana":"アキタケン","city":"南秋田郡八郎潟町","city_kana":"ミナミアキタグンハチロウガタマチ","town":"昼根下","town_kana":"ヒルネシタ","prefecture_code":5},"1626":{"zip_code":"0181626","prefecture":"秋田県","prefecture_kana":"アキタケン","city":"南秋田郡八郎潟町","city_kana":"ミナミアキタグンハチロウガタマチ","town":"細川","town_kana":"ホソカワ","prefecture_code":5},"1601":{"zip_code":"0181601","prefecture":"秋田県","prefecture_kana":"アキタケン","city":"南秋田郡八郎潟町","city_kana":"ミナミアキタグンハチロウガタマチ","town":"真坂","town_kana":"マサカ","prefecture_code":5},"1606":{"zip_code":"0181606","prefecture":"秋田県","prefecture_kana":"アキタケン","city":"南秋田郡八郎潟町","city_kana":"ミナミアキタグンハチロウガタマチ","town":"夜叉袋","town_kana":"ヤシャフクロ","prefecture_code":5},"1500":{"zip_code":"0181500","prefecture":"秋田県","prefecture_kana":"アキタケン","city":"南秋田郡井川町","city_kana":"ミナミアキタグンイカワマチ","town":"","town_kana":"","prefecture_code":5},"1525":{"zip_code":"0181525","prefecture":"秋田県","prefecture_kana":"アキタケン","city":"南秋田郡井川町","city_kana":"ミナミアキタグンイカワマチ","town":"赤沢","town_kana":"アカサワ","prefecture_code":5},"1527":{"zip_code":"0181527","prefecture":"秋田県","prefecture_kana":"アキタケン","city":"南秋田郡井川町","city_kana":"ミナミアキタグンイカワマチ","town":"井内","town_kana":"イナイ","prefecture_code":5},"1511":{"zip_code":"0181511","prefecture":"秋田県","prefecture_kana":"アキタケン","city":"南秋田郡井川町","city_kana":"ミナミアキタグンイカワマチ","town":"今戸","town_kana":"イマド","prefecture_code":5},"1514":{"zip_code":"0181514","prefecture":"秋田県","prefecture_kana":"アキタケン","city":"南秋田郡井川町","city_kana":"ミナミアキタグンイカワマチ","town":"宇治木","town_kana":"ウジキ","prefecture_code":5},"1524":{"zip_code":"0181524","prefecture":"秋田県","prefecture_kana":"アキタケン","city":"南秋田郡井川町","city_kana":"ミナミアキタグンイカワマチ","town":"大麦","town_kana":"オオムギ","prefecture_code":5},"1512":{"zip_code":"0181512","prefecture":"秋田県","prefecture_kana":"アキタケン","city":"南秋田郡井川町","city_kana":"ミナミアキタグンイカワマチ","town":"北川尻","town_kana":"キタカワシリ","prefecture_code":5},"1513":{"zip_code":"0181513","prefecture":"秋田県","prefecture_kana":"アキタケン","city":"南秋田郡井川町","city_kana":"ミナミアキタグンイカワマチ","town":"黒坪","town_kana":"クロツボ","prefecture_code":5},"1515":{"zip_code":"0181515","prefecture":"秋田県","prefecture_kana":"アキタケン","city":"南秋田郡井川町","city_kana":"ミナミアキタグンイカワマチ","town":"小竹花","town_kana":"コダケハナ","prefecture_code":5},"1523":{"zip_code":"0181523","prefecture":"秋田県","prefecture_kana":"アキタケン","city":"南秋田郡井川町","city_kana":"ミナミアキタグンイカワマチ","town":"坂本","town_kana":"サカモト","prefecture_code":5},"1526":{"zip_code":"0181526","prefecture":"秋田県","prefecture_kana":"アキタケン","city":"南秋田郡井川町","city_kana":"ミナミアキタグンイカワマチ","town":"寺沢","town_kana":"テラサワ","prefecture_code":5},"1528":{"zip_code":"0181528","prefecture":"秋田県","prefecture_kana":"アキタケン","city":"南秋田郡井川町","city_kana":"ミナミアキタグンイカワマチ","town":"葹田","town_kana":"ナモミダ","prefecture_code":5},"1521":{"zip_code":"0181521","prefecture":"秋田県","prefecture_kana":"アキタケン","city":"南秋田郡井川町","city_kana":"ミナミアキタグンイカワマチ","town":"八田大倉","town_kana":"ハッタオオクラ","prefecture_code":5},"1516":{"zip_code":"0181516","prefecture":"秋田県","prefecture_kana":"アキタケン","city":"南秋田郡井川町","city_kana":"ミナミアキタグンイカワマチ","town":"浜井川","town_kana":"ハマイカワ","prefecture_code":5},"1522":{"zip_code":"0181522","prefecture":"秋田県","prefecture_kana":"アキタケン","city":"南秋田郡井川町","city_kana":"ミナミアキタグンイカワマチ","town":"保野子","town_kana":"ホノコ","prefecture_code":5}}