{"2623":{"zip_code":"0192623","prefecture":"秋田県","prefecture_kana":"アキタケン","city":"秋田市","city_kana":"アキタシ","town":"河辺赤平","town_kana":"カワベアカヒラ","prefecture_code":5},"2741":{"zip_code":"0192741","prefecture":"秋田県","prefecture_kana":"アキタケン","city":"秋田市","city_kana":"アキタシ","town":"河辺岩見","town_kana":"カワベイワミ","prefecture_code":5},"2624":{"zip_code":"0192624","prefecture":"秋田県","prefecture_kana":"アキタケン","city":"秋田市","city_kana":"アキタシ","town":"河辺大沢","town_kana":"カワベオオサワ","prefecture_code":5},"2632":{"zip_code":"0192632","prefecture":"秋田県","prefecture_kana":"アキタケン","city":"秋田市","city_kana":"アキタシ","town":"河辺大張野","town_kana":"カワベオオバリノ","prefecture_code":5},"2625":{"zip_code":"0192625","prefecture":"秋田県","prefecture_kana":"アキタケン","city":"秋田市","city_kana":"アキタシ","town":"河辺北野田高屋","town_kana":"カワベキタノダコウヤ","prefecture_code":5},"2742":{"zip_code":"0192742","prefecture":"秋田県","prefecture_kana":"アキタケン","city":"秋田市","city_kana":"アキタシ","town":"河辺三内","town_kana":"カワベサンナイ","prefecture_code":5},"2631":{"zip_code":"0192631","prefecture":"秋田県","prefecture_kana":"アキタケン","city":"秋田市","city_kana":"アキタシ","town":"河辺神内","town_kana":"カワベジンナイ","prefecture_code":5},"2622":{"zip_code":"0192622","prefecture":"秋田県","prefecture_kana":"アキタケン","city":"秋田市","city_kana":"アキタシ","town":"河辺高岡","town_kana":"カワベタカオカ","prefecture_code":5},"2611":{"zip_code":"0192611","prefecture":"秋田県","prefecture_kana":"アキタケン","city":"秋田市","city_kana":"アキタシ","town":"河辺戸島","town_kana":"カワベトシマ","prefecture_code":5},"2614":{"zip_code":"0192614","prefecture":"秋田県","prefecture_kana":"アキタケン","city":"秋田市","city_kana":"アキタシ","town":"河辺豊成","town_kana":"カワベトヨナリ","prefecture_code":5},"2612":{"zip_code":"0192612","prefecture":"秋田県","prefecture_kana":"アキタケン","city":"秋田市","city_kana":"アキタシ","town":"河辺畑谷","town_kana":"カワベハタヤ","prefecture_code":5},"2613":{"zip_code":"0192613","prefecture":"秋田県","prefecture_kana":"アキタケン","city":"秋田市","city_kana":"アキタシ","town":"河辺松渕","town_kana":"カワベマツブチ","prefecture_code":5},"2621":{"zip_code":"0192621","prefecture":"秋田県","prefecture_kana":"アキタケン","city":"秋田市","city_kana":"アキタシ","town":"河辺諸井","town_kana":"カワベモロイ","prefecture_code":5},"2601":{"zip_code":"0192601","prefecture":"秋田県","prefecture_kana":"アキタケン","city":"秋田市","city_kana":"アキタシ","town":"河辺和田","town_kana":"カワベワダ","prefecture_code":5},"1107":{"zip_code":"0191107","prefecture":"秋田県","prefecture_kana":"アキタケン","city":"横手市","city_kana":"ヨコテシ","town":"山内筏","town_kana":"サンナイイカダ","prefecture_code":5},"1109":{"zip_code":"0191109","prefecture":"秋田県","prefecture_kana":"アキタケン","city":"横手市","city_kana":"ヨコテシ","town":"山内大沢","town_kana":"サンナイオオサワ","prefecture_code":5},"1101":{"zip_code":"0191101","prefecture":"秋田県","prefecture_kana":"アキタケン","city":"横手市","city_kana":"ヨコテシ","town":"山内大松川","town_kana":"サンナイオオマツカワ","prefecture_code":5},"1103":{"zip_code":"0191103","prefecture":"秋田県","prefecture_kana":"アキタケン","city":"横手市","city_kana":"ヨコテシ","town":"山内黒沢","town_kana":"サンナイクロサワ","prefecture_code":5},"1102":{"zip_code":"0191102","prefecture":"秋田県","prefecture_kana":"アキタケン","city":"横手市","city_kana":"ヨコテシ","town":"山内小松川","town_kana":"サンナイコマツカワ","prefecture_code":5},"1108":{"zip_code":"0191108","prefecture":"秋田県","prefecture_kana":"アキタケン","city":"横手市","city_kana":"ヨコテシ","town":"山内土渕","town_kana":"サンナイツチブチ","prefecture_code":5},"1105":{"zip_code":"0191105","prefecture":"秋田県","prefecture_kana":"アキタケン","city":"横手市","city_kana":"ヨコテシ","town":"山内南郷","town_kana":"サンナイナンゴウ","prefecture_code":5},"1106":{"zip_code":"0191106","prefecture":"秋田県","prefecture_kana":"アキタケン","city":"横手市","city_kana":"ヨコテシ","town":"山内平野沢","town_kana":"サンナイヒラノサワ","prefecture_code":5},"1104":{"zip_code":"0191104","prefecture":"秋田県","prefecture_kana":"アキタケン","city":"横手市","city_kana":"ヨコテシ","town":"山内三又","town_kana":"サンナイミツマタ","prefecture_code":5},"0525":{"zip_code":"0190525","prefecture":"秋田県","prefecture_kana":"アキタケン","city":"横手市","city_kana":"ヨコテシ","town":"十文字町曙町","town_kana":"ジュウモンジマチアケボノチョウ","prefecture_code":5},"0513":{"zip_code":"0190513","prefecture":"秋田県","prefecture_kana":"アキタケン","city":"横手市","city_kana":"ヨコテシ","town":"十文字町植田","town_kana":"ジュウモンジマチウエダ","prefecture_code":5},"0501":{"zip_code":"0190501","prefecture":"秋田県","prefecture_kana":"アキタケン","city":"横手市","city_kana":"ヨコテシ","town":"十文字町腕越","town_kana":"ジュウモンジマチウデコシ","prefecture_code":5},"0512":{"zip_code":"0190512","prefecture":"秋田県","prefecture_kana":"アキタケン","city":"横手市","city_kana":"ヨコテシ","town":"十文字町越前","town_kana":"ジュウモンジマチエツゼン","prefecture_code":5},"0529":{"zip_code":"0190529","prefecture":"秋田県","prefecture_kana":"アキタケン","city":"横手市","city_kana":"ヨコテシ","town":"十文字町海道下","town_kana":"ジュウモンジマチカイドウシタ","prefecture_code":5},"0511":{"zip_code":"0190511","prefecture":"秋田県","prefecture_kana":"アキタケン","city":"横手市","city_kana":"ヨコテシ","town":"十文字町鼎","town_kana":"ジュウモンジマチカナエ","prefecture_code":5},"0531":{"zip_code":"0190531","prefecture":"秋田県","prefecture_kana":"アキタケン","city":"横手市","city_kana":"ヨコテシ","town":"十文字町上佐吉開","town_kana":"ジュウモンジマチカミサキチビラキ","prefecture_code":5},"0507":{"zip_code":"0190507","prefecture":"秋田県","prefecture_kana":"アキタケン","city":"横手市","city_kana":"ヨコテシ","town":"十文字町上鍋倉","town_kana":"ジュウモンジマチカミナベクラ","prefecture_code":5},"0517":{"zip_code":"0190517","prefecture":"秋田県","prefecture_kana":"アキタケン","city":"横手市","city_kana":"ヨコテシ","town":"十文字町木下","town_kana":"ジュウモンジマチキジタ","prefecture_code":5},"0516":{"zip_code":"0190516","prefecture":"秋田県","prefecture_kana":"アキタケン","city":"横手市","city_kana":"ヨコテシ","town":"十文字町源太左馬","town_kana":"ジュウモンジマチゲンダサマ","prefecture_code":5},"0506":{"zip_code":"0190506","prefecture":"秋田県","prefecture_kana":"アキタケン","city":"横手市","city_kana":"ヨコテシ","town":"十文字町佐賀会","town_kana":"ジュウモンジマチサガエ","prefecture_code":5},"0528":{"zip_code":"0190528","prefecture":"秋田県","prefecture_kana":"アキタケン","city":"横手市","city_kana":"ヨコテシ","town":"十文字町栄町","town_kana":"ジュウモンジマチサカエチョウ","prefecture_code":5},"0533":{"zip_code":"0190533","prefecture":"秋田県","prefecture_kana":"アキタケン","city":"横手市","city_kana":"ヨコテシ","town":"十文字町下佐吉開","town_kana":"ジュウモンジマチシモサキチビラキ","prefecture_code":5},"0508":{"zip_code":"0190508","prefecture":"秋田県","prefecture_kana":"アキタケン","city":"横手市","city_kana":"ヨコテシ","town":"十文字町十五野新田","town_kana":"ジュウモンジマチジュウゴノシンデン","prefecture_code":5},"0523":{"zip_code":"0190523","prefecture":"秋田県","prefecture_kana":"アキタケン","city":"横手市","city_kana":"ヨコテシ","town":"十文字町十文字","town_kana":"ジュウモンジマチジュウモンジ","prefecture_code":5},"0527":{"zip_code":"0190527","prefecture":"秋田県","prefecture_kana":"アキタケン","city":"横手市","city_kana":"ヨコテシ","town":"十文字町大道東","town_kana":"ジュウモンジマチダイドウヒガシ","prefecture_code":5},"0526":{"zip_code":"0190526","prefecture":"秋田県","prefecture_kana":"アキタケン","city":"横手市","city_kana":"ヨコテシ","town":"十文字町通町","town_kana":"ジュウモンジマチトオリマチ","prefecture_code":5},"0509":{"zip_code":"0190509","prefecture":"秋田県","prefecture_kana":"アキタケン","city":"横手市","city_kana":"ヨコテシ","town":"十文字町梨木","town_kana":"ジュウモンジマチナシノキ","prefecture_code":5},"0505":{"zip_code":"0190505","prefecture":"秋田県","prefecture_kana":"アキタケン","city":"横手市","city_kana":"ヨコテシ","town":"十文字町仁井田","town_kana":"ジュウモンジマチニイダ","prefecture_code":5},"0522":{"zip_code":"0190522","prefecture":"秋田県","prefecture_kana":"アキタケン","city":"横手市","city_kana":"ヨコテシ","town":"十文字町西上","town_kana":"ジュウモンジマチニシカミ","prefecture_code":5},"0521":{"zip_code":"0190521","prefecture":"秋田県","prefecture_kana":"アキタケン","city":"横手市","city_kana":"ヨコテシ","town":"十文字町西下","town_kana":"ジュウモンジマチニシシタ","prefecture_code":5},"0503":{"zip_code":"0190503","prefecture":"秋田県","prefecture_kana":"アキタケン","city":"横手市","city_kana":"ヨコテシ","town":"十文字町西原１番町","town_kana":"ジュウモンジマチニシハラ1バンチョウ","prefecture_code":5},"0502":{"zip_code":"0190502","prefecture":"秋田県","prefecture_kana":"アキタケン","city":"横手市","city_kana":"ヨコテシ","town":"十文字町西原２番町","town_kana":"ジュウモンジマチニシハラ2バンチョウ","prefecture_code":5},"0518":{"zip_code":"0190518","prefecture":"秋田県","prefecture_kana":"アキタケン","city":"横手市","city_kana":"ヨコテシ","town":"十文字町宝竜","town_kana":"ジュウモンジマチホウリュウ","prefecture_code":5},"0532":{"zip_code":"0190532","prefecture":"秋田県","prefecture_kana":"アキタケン","city":"横手市","city_kana":"ヨコテシ","town":"十文字町麻当","town_kana":"ジュウモンジマチマトウ","prefecture_code":5},"0514":{"zip_code":"0190514","prefecture":"秋田県","prefecture_kana":"アキタケン","city":"横手市","city_kana":"ヨコテシ","town":"十文字町睦合","town_kana":"ジュウモンジマチムツアイ","prefecture_code":5},"0524":{"zip_code":"0190524","prefecture":"秋田県","prefecture_kana":"アキタケン","city":"横手市","city_kana":"ヨコテシ","town":"十文字町本町","town_kana":"ジュウモンジマチモトマチ","prefecture_code":5},"0515":{"zip_code":"0190515","prefecture":"秋田県","prefecture_kana":"アキタケン","city":"横手市","city_kana":"ヨコテシ","town":"十文字町谷地新田","town_kana":"ジュウモンジマチヤチシンデン","prefecture_code":5},"0711":{"zip_code":"0190711","prefecture":"秋田県","prefecture_kana":"アキタケン","city":"横手市","city_kana":"ヨコテシ","town":"増田町荻袋","town_kana":"マスダマチオギノフクロ","prefecture_code":5},"0702":{"zip_code":"0190702","prefecture":"秋田県","prefecture_kana":"アキタケン","city":"横手市","city_kana":"ヨコテシ","town":"増田町亀田","town_kana":"マスダマチカメダ","prefecture_code":5},"0712":{"zip_code":"0190712","prefecture":"秋田県","prefecture_kana":"アキタケン","city":"横手市","city_kana":"ヨコテシ","town":"増田町熊渕","town_kana":"マスダマチクマノフチ","prefecture_code":5},"0705":{"zip_code":"0190705","prefecture":"秋田県","prefecture_kana":"アキタケン","city":"横手市","city_kana":"ヨコテシ","town":"増田町狙半内","town_kana":"マスダマチサルハンナイ","prefecture_code":5},"0714":{"zip_code":"0190714","prefecture":"秋田県","prefecture_kana":"アキタケン","city":"横手市","city_kana":"ヨコテシ","town":"増田町戸波","town_kana":"マスダマチトナミ","prefecture_code":5},"0701":{"zip_code":"0190701","prefecture":"秋田県","prefecture_kana":"アキタケン","city":"横手市","city_kana":"ヨコテシ","town":"増田町増田","town_kana":"マスダマチマスダ","prefecture_code":5},"0713":{"zip_code":"0190713","prefecture":"秋田県","prefecture_kana":"アキタケン","city":"横手市","city_kana":"ヨコテシ","town":"増田町三又","town_kana":"マスダマチミツマタ","prefecture_code":5},"0715":{"zip_code":"0190715","prefecture":"秋田県","prefecture_kana":"アキタケン","city":"横手市","city_kana":"ヨコテシ","town":"増田町八木","town_kana":"マスダマチヤギ","prefecture_code":5},"0704":{"zip_code":"0190704","prefecture":"秋田県","prefecture_kana":"アキタケン","city":"横手市","city_kana":"ヨコテシ","town":"増田町湯野沢","town_kana":"マスダマチユノサワ","prefecture_code":5},"0703":{"zip_code":"0190703","prefecture":"秋田県","prefecture_kana":"アキタケン","city":"横手市","city_kana":"ヨコテシ","town":"増田町吉野","town_kana":"マスダマチヨシノ","prefecture_code":5},"0402":{"zip_code":"0190402","prefecture":"秋田県","prefecture_kana":"アキタケン","city":"湯沢市","city_kana":"ユザワシ","town":"相川","town_kana":"アイカワ","prefecture_code":5},"0321":{"zip_code":"0190321","prefecture":"秋田県","prefecture_kana":"アキタケン","city":"湯沢市","city_kana":"ユザワシ","town":"秋ノ宮","town_kana":"アキノミヤ","prefecture_code":5},"0201":{"zip_code":"0190201","prefecture":"秋田県","prefecture_kana":"アキタケン","city":"湯沢市","city_kana":"ユザワシ","town":"泉沢","town_kana":"イズミサワ","prefecture_code":5},"0113":{"zip_code":"0190113","prefecture":"秋田県","prefecture_kana":"アキタケン","city":"湯沢市","city_kana":"ユザワシ","town":"院内銀山町","town_kana":"インナイギンザンマチ","prefecture_code":5},"0403":{"zip_code":"0190403","prefecture":"秋田県","prefecture_kana":"アキタケン","city":"湯沢市","city_kana":"ユザワシ","town":"宇留院内","town_kana":"ウルインナイ","prefecture_code":5},"0205":{"zip_code":"0190205","prefecture":"秋田県","prefecture_kana":"アキタケン","city":"湯沢市","city_kana":"ユザワシ","town":"小野","town_kana":"オノ","prefecture_code":5},"0111":{"zip_code":"0190111","prefecture":"秋田県","prefecture_kana":"アキタケン","city":"湯沢市","city_kana":"ユザワシ","town":"上院内","town_kana":"カミインナイ","prefecture_code":5},"0202":{"zip_code":"0190202","prefecture":"秋田県","prefecture_kana":"アキタケン","city":"湯沢市","city_kana":"ユザワシ","town":"桑崎","town_kana":"クワガサキ","prefecture_code":5},"0401":{"zip_code":"0190401","prefecture":"秋田県","prefecture_kana":"アキタケン","city":"湯沢市","city_kana":"ユザワシ","town":"酒蒔","town_kana":"サカマキ","prefecture_code":5},"0112":{"zip_code":"0190112","prefecture":"秋田県","prefecture_kana":"アキタケン","city":"湯沢市","city_kana":"ユザワシ","town":"下院内","town_kana":"シモインナイ","prefecture_code":5},"0404":{"zip_code":"0190404","prefecture":"秋田県","prefecture_kana":"アキタケン","city":"湯沢市","city_kana":"ユザワシ","town":"高松","town_kana":"タカマツ","prefecture_code":5},"0203":{"zip_code":"0190203","prefecture":"秋田県","prefecture_kana":"アキタケン","city":"湯沢市","city_kana":"ユザワシ","town":"寺沢","town_kana":"テラサワ","prefecture_code":5},"0481":[{"zip_code":"0190481","prefecture":"秋田県","prefecture_kana":"アキタケン","city":"湯沢市","city_kana":"ユザワシ","town":"皆瀬","town_kana":"ミナセ","prefecture_code":5},{"zip_code":"0190481","prefecture":"秋田県","prefecture_kana":"アキタケン","city":"湯沢市","city_kana":"ユザワシ","town":"皆瀬水上沢","town_kana":"ミナセミズカミサワ","prefecture_code":5}],"0204":{"zip_code":"0190204","prefecture":"秋田県","prefecture_kana":"アキタケン","city":"湯沢市","city_kana":"ユザワシ","town":"横堀","town_kana":"ヨコボリ","prefecture_code":5},"2201":{"zip_code":"0192201","prefecture":"秋田県","prefecture_kana":"アキタケン","city":"大仙市","city_kana":"ダイセンシ","town":"円行寺","town_kana":"エンギョウジ","prefecture_code":5},"2202":{"zip_code":"0192202","prefecture":"秋田県","prefecture_kana":"アキタケン","city":"大仙市","city_kana":"ダイセンシ","town":"大沢郷宿","town_kana":"オオサワゴウシュク","prefecture_code":5},"2103":{"zip_code":"0192103","prefecture":"秋田県","prefecture_kana":"アキタケン","city":"大仙市","city_kana":"ダイセンシ","town":"大沢郷寺","town_kana":"オオサワゴウテラ","prefecture_code":5},"1616":{"zip_code":"0191616","prefecture":"秋田県","prefecture_kana":"アキタケン","city":"大仙市","city_kana":"ダイセンシ","town":"太田町永代","town_kana":"オオタチョウエイダイ","prefecture_code":5},"1613":{"zip_code":"0191613","prefecture":"秋田県","prefecture_kana":"アキタケン","city":"大仙市","city_kana":"ダイセンシ","town":"太田町太田","town_kana":"オオタチョウオオタ","prefecture_code":5},"1615":{"zip_code":"0191615","prefecture":"秋田県","prefecture_kana":"アキタケン","city":"大仙市","city_kana":"ダイセンシ","town":"太田町川口","town_kana":"オオタチョウカワグチ","prefecture_code":5},"1605":{"zip_code":"0191605","prefecture":"秋田県","prefecture_kana":"アキタケン","city":"大仙市","city_kana":"ダイセンシ","town":"太田町国見","town_kana":"オオタチョウクニミ","prefecture_code":5},"1612":{"zip_code":"0191612","prefecture":"秋田県","prefecture_kana":"アキタケン","city":"大仙市","city_kana":"ダイセンシ","town":"太田町小神成","town_kana":"オオタチョウコガナリ","prefecture_code":5},"1604":{"zip_code":"0191604","prefecture":"秋田県","prefecture_kana":"アキタケン","city":"大仙市","city_kana":"ダイセンシ","town":"太田町駒場","town_kana":"オオタチョウコマバ","prefecture_code":5},"1611":{"zip_code":"0191611","prefecture":"秋田県","prefecture_kana":"アキタケン","city":"大仙市","city_kana":"ダイセンシ","town":"太田町斉内","town_kana":"オオタチョウサイナイ","prefecture_code":5},"1602":{"zip_code":"0191602","prefecture":"秋田県","prefecture_kana":"アキタケン","city":"大仙市","city_kana":"ダイセンシ","town":"太田町三本扇","town_kana":"オオタチョウサンボンオウギ","prefecture_code":5},"1603":{"zip_code":"0191603","prefecture":"秋田県","prefecture_kana":"アキタケン","city":"大仙市","city_kana":"ダイセンシ","town":"太田町中里","town_kana":"オオタチョウナカサト","prefecture_code":5},"1614":{"zip_code":"0191614","prefecture":"秋田県","prefecture_kana":"アキタケン","city":"大仙市","city_kana":"ダイセンシ","town":"太田町東今泉","town_kana":"オオタチョウヒガシイマイズミ","prefecture_code":5},"1601":{"zip_code":"0191601","prefecture":"秋田県","prefecture_kana":"アキタケン","city":"大仙市","city_kana":"ダイセンシ","town":"太田町横沢","town_kana":"オオタチョウヨコサワ","prefecture_code":5},"2331":{"zip_code":"0192331","prefecture":"秋田県","prefecture_kana":"アキタケン","city":"大仙市","city_kana":"ダイセンシ","town":"大巻","town_kana":"オオマキ","prefecture_code":5},"2333":{"zip_code":"0192333","prefecture":"秋田県","prefecture_kana":"アキタケン","city":"大仙市","city_kana":"ダイセンシ","town":"金山沢","town_kana":"カネヤマサワ","prefecture_code":5},"2112":{"zip_code":"0192112","prefecture":"秋田県","prefecture_kana":"アキタケン","city":"大仙市","city_kana":"ダイセンシ","town":"刈和野","town_kana":"カリワノ","prefecture_code":5},"1702":{"zip_code":"0191702","prefecture":"秋田県","prefecture_kana":"アキタケン","city":"大仙市","city_kana":"ダイセンシ","town":"北楢岡","town_kana":"キタナラオカ","prefecture_code":5},"2121":{"zip_code":"0192121","prefecture":"秋田県","prefecture_kana":"アキタケン","city":"大仙市","city_kana":"ダイセンシ","town":"北野目","town_kana":"キタノメ","prefecture_code":5},"2334":{"zip_code":"0192334","prefecture":"秋田県","prefecture_kana":"アキタケン","city":"大仙市","city_kana":"ダイセンシ","town":"木原田","town_kana":"キハラダ","prefecture_code":5},"2412":{"zip_code":"0192412","prefecture":"秋田県","prefecture_kana":"アキタケン","city":"大仙市","city_kana":"ダイセンシ","town":"協和荒川","town_kana":"キョウワアラカワ","prefecture_code":5},"2521":{"zip_code":"0192521","prefecture":"秋田県","prefecture_kana":"アキタケン","city":"大仙市","city_kana":"ダイセンシ","town":"協和稲沢","town_kana":"キョウワイナザワ","prefecture_code":5},"2413":{"zip_code":"0192413","prefecture":"秋田県","prefecture_kana":"アキタケン","city":"大仙市","city_kana":"ダイセンシ","town":"協和上淀川","town_kana":"キョウワカミヨドカワ","prefecture_code":5},"2441":{"zip_code":"0192441","prefecture":"秋田県","prefecture_kana":"アキタケン","city":"大仙市","city_kana":"ダイセンシ","town":"協和小種","town_kana":"キョウワコタネ","prefecture_code":5},"2411":{"zip_code":"0192411","prefecture":"秋田県","prefecture_kana":"アキタケン","city":"大仙市","city_kana":"ダイセンシ","town":"協和境","town_kana":"キョウワサカイ","prefecture_code":5},"2442":{"zip_code":"0192442","prefecture":"秋田県","prefecture_kana":"アキタケン","city":"大仙市","city_kana":"ダイセンシ","town":"協和下淀川","town_kana":"キョウワシモヨドカワ","prefecture_code":5},"2443":{"zip_code":"0192443","prefecture":"秋田県","prefecture_kana":"アキタケン","city":"大仙市","city_kana":"ダイセンシ","town":"協和中淀川","town_kana":"キョウワナカヨドカワ","prefecture_code":5},"2401":{"zip_code":"0192401","prefecture":"秋田県","prefecture_kana":"アキタケン","city":"大仙市","city_kana":"ダイセンシ","town":"協和船岡","town_kana":"キョウワフナオカ","prefecture_code":5},"2402":{"zip_code":"0192402","prefecture":"秋田県","prefecture_kana":"アキタケン","city":"大仙市","city_kana":"ダイセンシ","town":"協和船沢","town_kana":"キョウワフネサワ","prefecture_code":5},"2431":{"zip_code":"0192431","prefecture":"秋田県","prefecture_kana":"アキタケン","city":"大仙市","city_kana":"ダイセンシ","town":"協和峰吉川","town_kana":"キョウワミネヨシカワ","prefecture_code":5},"2332":{"zip_code":"0192332","prefecture":"秋田県","prefecture_kana":"アキタケン","city":"大仙市","city_kana":"ダイセンシ","town":"九升田","town_kana":"クショウダ","prefecture_code":5},"2335":{"zip_code":"0192335","prefecture":"秋田県","prefecture_kana":"アキタケン","city":"大仙市","city_kana":"ダイセンシ","town":"強首","town_kana":"コワクビ","prefecture_code":5},"2204":{"zip_code":"0192204","prefecture":"秋田県","prefecture_kana":"アキタケン","city":"大仙市","city_kana":"ダイセンシ","town":"正手沢","town_kana":"ショウテザワ","prefecture_code":5},"1701":{"zip_code":"0191701","prefecture":"秋田県","prefecture_kana":"アキタケン","city":"大仙市","city_kana":"ダイセンシ","town":"神宮寺","town_kana":"ジングウジ","prefecture_code":5},"2205":{"zip_code":"0192205","prefecture":"秋田県","prefecture_kana":"アキタケン","city":"大仙市","city_kana":"ダイセンシ","town":"杉山田","town_kana":"スギヤマダ","prefecture_code":5},"2122":{"zip_code":"0192122","prefecture":"秋田県","prefecture_kana":"アキタケン","city":"大仙市","city_kana":"ダイセンシ","town":"高城","town_kana":"タカジョウ","prefecture_code":5},"2111":{"zip_code":"0192111","prefecture":"秋田県","prefecture_kana":"アキタケン","city":"大仙市","city_kana":"ダイセンシ","town":"土川","town_kana":"ツチカワ","prefecture_code":5},"2123":{"zip_code":"0192123","prefecture":"秋田県","prefecture_kana":"アキタケン","city":"大仙市","city_kana":"ダイセンシ","town":"寺館","town_kana":"テラダテ","prefecture_code":5},"1949":{"zip_code":"0191949","prefecture":"秋田県","prefecture_kana":"アキタケン","city":"大仙市","city_kana":"ダイセンシ","town":"南外赤畑","town_kana":"ナンガイアカハタ","prefecture_code":5},"1865":{"zip_code":"0191865","prefecture":"秋田県","prefecture_kana":"アキタケン","city":"大仙市","city_kana":"ダイセンシ","town":"南外赤平後野","town_kana":"ナンガイアカヒラウシロノ","prefecture_code":5},"1863":{"zip_code":"0191863","prefecture":"秋田県","prefecture_kana":"アキタケン","city":"大仙市","city_kana":"ダイセンシ","town":"南外赤平貝沼","town_kana":"ナンガイアカヒラカイヌマ","prefecture_code":5},"1864":{"zip_code":"0191864","prefecture":"秋田県","prefecture_kana":"アキタケン","city":"大仙市","city_kana":"ダイセンシ","town":"南外赤平大道東","town_kana":"ナンガイアカヒラダイドウヒガシ","prefecture_code":5},"1866":{"zip_code":"0191866","prefecture":"秋田県","prefecture_kana":"アキタケン","city":"大仙市","city_kana":"ダイセンシ","town":"南外赤平台野","town_kana":"ナンガイアカヒラダイノ","prefecture_code":5},"1868":{"zip_code":"0191868","prefecture":"秋田県","prefecture_kana":"アキタケン","city":"大仙市","city_kana":"ダイセンシ","town":"南外赤平平家","town_kana":"ナンガイアカヒラヘイケ","prefecture_code":5},"1858":{"zip_code":"0191858","prefecture":"秋田県","prefecture_kana":"アキタケン","city":"大仙市","city_kana":"ダイセンシ","town":"南外赤平六郎沢","town_kana":"ナンガイアカヒラロクロウサワ","prefecture_code":5},"1901":{"zip_code":"0191901","prefecture":"秋田県","prefecture_kana":"アキタケン","city":"大仙市","city_kana":"ダイセンシ","town":"南外悪戸野","town_kana":"ナンガイアクトノ","prefecture_code":5},"1835":{"zip_code":"0191835","prefecture":"秋田県","prefecture_kana":"アキタケン","city":"大仙市","city_kana":"ダイセンシ","town":"南外揚土","town_kana":"ナンガイアゲツチ","prefecture_code":5},"1834":[{"zip_code":"0191834","prefecture":"秋田県","prefecture_kana":"アキタケン","city":"大仙市","city_kana":"ダイセンシ","town":"南外揚土山","town_kana":"ナンガイアゲツチヤマ","prefecture_code":5},{"zip_code":"0191834","prefecture":"秋田県","prefecture_kana":"アキタケン","city":"大仙市","city_kana":"ダイセンシ","town":"南外北田黒瀬","town_kana":"ナンガイキタダクロセ","prefecture_code":5}],"1876":{"zip_code":"0191876","prefecture":"秋田県","prefecture_kana":"アキタケン","city":"大仙市","city_kana":"ダイセンシ","town":"南外新屋布","town_kana":"ナンガイアラヤシキ","prefecture_code":5},"1916":{"zip_code":"0191916","prefecture":"秋田県","prefecture_kana":"アキタケン","city":"大仙市","city_kana":"ダイセンシ","town":"南外石仏","town_kana":"ナンガイイシボトケ","prefecture_code":5},"1942":{"zip_code":"0191942","prefecture":"秋田県","prefecture_kana":"アキタケン","city":"大仙市","city_kana":"ダイセンシ","town":"南外岩倉","town_kana":"ナンガイイワクラ","prefecture_code":5},"1945":{"zip_code":"0191945","prefecture":"秋田県","prefecture_kana":"アキタケン","city":"大仙市","city_kana":"ダイセンシ","town":"南外岩瀬","town_kana":"ナンガイイワセ","prefecture_code":5},"1908":{"zip_code":"0191908","prefecture":"秋田県","prefecture_kana":"アキタケン","city":"大仙市","city_kana":"ダイセンシ","town":"南外上野","town_kana":"ナンガイウエノ","prefecture_code":5},"1932":{"zip_code":"0191932","prefecture":"秋田県","prefecture_kana":"アキタケン","city":"大仙市","city_kana":"ダイセンシ","town":"南外大黒森","town_kana":"ナンガイオオクロモリ","prefecture_code":5},"1842":{"zip_code":"0191842","prefecture":"秋田県","prefecture_kana":"アキタケン","city":"大仙市","city_kana":"ダイセンシ","town":"南外大杉","town_kana":"ナンガイオオスギ","prefecture_code":5},"1843":{"zip_code":"0191843","prefecture":"秋田県","prefecture_kana":"アキタケン","city":"大仙市","city_kana":"ダイセンシ","town":"南外大杉二タ又杉","town_kana":"ナンガイオオスギフタマタスギ","prefecture_code":5},"1841":{"zip_code":"0191841","prefecture":"秋田県","prefecture_kana":"アキタケン","city":"大仙市","city_kana":"ダイセンシ","town":"南外大杉山岸","town_kana":"ナンガイオオスギヤマギシ","prefecture_code":5},"1852":{"zip_code":"0191852","prefecture":"秋田県","prefecture_kana":"アキタケン","city":"大仙市","city_kana":"ダイセンシ","town":"南外太田","town_kana":"ナンガイオオタ","prefecture_code":5},"1855":{"zip_code":"0191855","prefecture":"秋田県","prefecture_kana":"アキタケン","city":"大仙市","city_kana":"ダイセンシ","town":"南外大畑","town_kana":"ナンガイオオバタ","prefecture_code":5},"1857":{"zip_code":"0191857","prefecture":"秋田県","prefecture_kana":"アキタケン","city":"大仙市","city_kana":"ダイセンシ","town":"南外大畑潜沢","town_kana":"ナンガイオオバタクグリサワ","prefecture_code":5},"1856":{"zip_code":"0191856","prefecture":"秋田県","prefecture_kana":"アキタケン","city":"大仙市","city_kana":"ダイセンシ","town":"南外大畑深山","town_kana":"ナンガイオオバタミヤマ","prefecture_code":5},"1935":{"zip_code":"0191935","prefecture":"秋田県","prefecture_kana":"アキタケン","city":"大仙市","city_kana":"ダイセンシ","town":"南外大平","town_kana":"ナンガイオオヒラ","prefecture_code":5},"1905":{"zip_code":"0191905","prefecture":"秋田県","prefecture_kana":"アキタケン","city":"大仙市","city_kana":"ダイセンシ","town":"南外大向","town_kana":"ナンガイオオムカイ","prefecture_code":5},"1961":{"zip_code":"0191961","prefecture":"秋田県","prefecture_kana":"アキタケン","city":"大仙市","city_kana":"ダイセンシ","town":"南外大柳","town_kana":"ナンガイオオヤナギ","prefecture_code":5},"1882":{"zip_code":"0191882","prefecture":"秋田県","prefecture_kana":"アキタケン","city":"大仙市","city_kana":"ダイセンシ","town":"南外大和野","town_kana":"ナンガイオオワノ","prefecture_code":5},"1812":{"zip_code":"0191812","prefecture":"秋田県","prefecture_kana":"アキタケン","city":"大仙市","city_kana":"ダイセンシ","town":"南外沖田","town_kana":"ナンガイオキダ","prefecture_code":5},"1875":{"zip_code":"0191875","prefecture":"秋田県","prefecture_kana":"アキタケン","city":"大仙市","city_kana":"ダイセンシ","town":"南外落合","town_kana":"ナンガイオチアイ","prefecture_code":5},"1906":{"zip_code":"0191906","prefecture":"秋田県","prefecture_kana":"アキタケン","city":"大仙市","city_kana":"ダイセンシ","town":"南外金屋","town_kana":"ナンガイカナヤ","prefecture_code":5},"1956":{"zip_code":"0191956","prefecture":"秋田県","prefecture_kana":"アキタケン","city":"大仙市","city_kana":"ダイセンシ","town":"南外上荒又","town_kana":"ナンガイカミアラマタ","prefecture_code":5},"1948":{"zip_code":"0191948","prefecture":"秋田県","prefecture_kana":"アキタケン","city":"大仙市","city_kana":"ダイセンシ","town":"南外上釜坂","town_kana":"ナンガイカミカマサカ","prefecture_code":5},"1907":{"zip_code":"0191907","prefecture":"秋田県","prefecture_kana":"アキタケン","city":"大仙市","city_kana":"ダイセンシ","town":"南外上鎌田","town_kana":"ナンガイカミカマタ","prefecture_code":5},"1816":{"zip_code":"0191816","prefecture":"秋田県","prefecture_kana":"アキタケン","city":"大仙市","city_kana":"ダイセンシ","town":"南外上木直","town_kana":"ナンガイカミキジキ","prefecture_code":5},"1926":{"zip_code":"0191926","prefecture":"秋田県","prefecture_kana":"アキタケン","city":"大仙市","city_kana":"ダイセンシ","town":"南外上桑台","town_kana":"ナンガイカミクワダイ","prefecture_code":5},"1925":{"zip_code":"0191925","prefecture":"秋田県","prefecture_kana":"アキタケン","city":"大仙市","city_kana":"ダイセンシ","town":"南外上巣ノ沢","town_kana":"ナンガイカミスノサワ","prefecture_code":5},"1872":{"zip_code":"0191872","prefecture":"秋田県","prefecture_kana":"アキタケン","city":"大仙市","city_kana":"ダイセンシ","town":"南外上中宿","town_kana":"ナンガイカミナカシュク","prefecture_code":5},"1922":{"zip_code":"0191922","prefecture":"秋田県","prefecture_kana":"アキタケン","city":"大仙市","city_kana":"ダイセンシ","town":"南外上中野","town_kana":"ナンガイカミナカノ","prefecture_code":5},"1808":{"zip_code":"0191808","prefecture":"秋田県","prefecture_kana":"アキタケン","city":"大仙市","city_kana":"ダイセンシ","town":"南外川口","town_kana":"ナンガイカワグチ","prefecture_code":5},"1807":{"zip_code":"0191807","prefecture":"秋田県","prefecture_kana":"アキタケン","city":"大仙市","city_kana":"ダイセンシ","town":"南外川口本町","town_kana":"ナンガイカワグチホンチョウ","prefecture_code":5},"1817":{"zip_code":"0191817","prefecture":"秋田県","prefecture_kana":"アキタケン","city":"大仙市","city_kana":"ダイセンシ","town":"南外木直沢","town_kana":"ナンガイキジキザワ","prefecture_code":5},"1832":{"zip_code":"0191832","prefecture":"秋田県","prefecture_kana":"アキタケン","city":"大仙市","city_kana":"ダイセンシ","town":"南外北田山田ケ沢","town_kana":"ナンガイキタダヤマダガサワ","prefecture_code":5},"1951":{"zip_code":"0191951","prefecture":"秋田県","prefecture_kana":"アキタケン","city":"大仙市","city_kana":"ダイセンシ","town":"南外黒滝","town_kana":"ナンガイクロタキ","prefecture_code":5},"1937":{"zip_code":"0191937","prefecture":"秋田県","prefecture_kana":"アキタケン","city":"大仙市","city_kana":"ダイセンシ","town":"南外小荒沢","town_kana":"ナンガイコアラサワ","prefecture_code":5},"1847":{"zip_code":"0191847","prefecture":"秋田県","prefecture_kana":"アキタケン","city":"大仙市","city_kana":"ダイセンシ","town":"南外小出","town_kana":"ナンガイコイデ","prefecture_code":5},"1802":{"zip_code":"0191802","prefecture":"秋田県","prefecture_kana":"アキタケン","city":"大仙市","city_kana":"ダイセンシ","town":"南外小春木沢","town_kana":"ナンガイコハルキザワ","prefecture_code":5},"1813":{"zip_code":"0191813","prefecture":"秋田県","prefecture_kana":"アキタケン","city":"大仙市","city_kana":"ダイセンシ","town":"南外猿ケ瀬出野","town_kana":"ナンガイサルガセデノ","prefecture_code":5},"1851":{"zip_code":"0191851","prefecture":"秋田県","prefecture_kana":"アキタケン","city":"大仙市","city_kana":"ダイセンシ","town":"南外山王台","town_kana":"ナンガイサンオウダイ","prefecture_code":5},"1957":{"zip_code":"0191957","prefecture":"秋田県","prefecture_kana":"アキタケン","city":"大仙市","city_kana":"ダイセンシ","town":"南外小浪滝","town_kana":"ナンガイザンザラ","prefecture_code":5},"1938":{"zip_code":"0191938","prefecture":"秋田県","prefecture_kana":"アキタケン","city":"大仙市","city_kana":"ダイセンシ","town":"南外下荒沢","town_kana":"ナンガイシモアラサワ","prefecture_code":5},"1952":{"zip_code":"0191952","prefecture":"秋田県","prefecture_kana":"アキタケン","city":"大仙市","city_kana":"ダイセンシ","town":"南外下荒又","town_kana":"ナンガイシモアラマタ","prefecture_code":5},"1947":{"zip_code":"0191947","prefecture":"秋田県","prefecture_kana":"アキタケン","city":"大仙市","city_kana":"ダイセンシ","town":"南外下釜坂","town_kana":"ナンガイシモカマサカ","prefecture_code":5},"1903":{"zip_code":"0191903","prefecture":"秋田県","prefecture_kana":"アキタケン","city":"大仙市","city_kana":"ダイセンシ","town":"南外下鎌田","town_kana":"ナンガイシモカマタ","prefecture_code":5},"1814":{"zip_code":"0191814","prefecture":"秋田県","prefecture_kana":"アキタケン","city":"大仙市","city_kana":"ダイセンシ","town":"南外下木直","town_kana":"ナンガイシモキジキ","prefecture_code":5},"1931":{"zip_code":"0191931","prefecture":"秋田県","prefecture_kana":"アキタケン","city":"大仙市","city_kana":"ダイセンシ","town":"南外下滝","town_kana":"ナンガイシモタキ","prefecture_code":5},"1902":{"zip_code":"0191902","prefecture":"秋田県","prefecture_kana":"アキタケン","city":"大仙市","city_kana":"ダイセンシ","town":"南外下袋","town_kana":"ナンガイシモブクロ","prefecture_code":5},"1915":{"zip_code":"0191915","prefecture":"秋田県","prefecture_kana":"アキタケン","city":"大仙市","city_kana":"ダイセンシ","town":"南外下湯ノ又","town_kana":"ナンガイシモユノマタ","prefecture_code":5},"1946":{"zip_code":"0191946","prefecture":"秋田県","prefecture_kana":"アキタケン","city":"大仙市","city_kana":"ダイセンシ","town":"南外十二ノ前","town_kana":"ナンガイジュウニノマエ","prefecture_code":5},"1806":{"zip_code":"0191806","prefecture":"秋田県","prefecture_kana":"アキタケン","city":"大仙市","city_kana":"ダイセンシ","town":"南外十二袋","town_kana":"ナンガイジュウニフクロ","prefecture_code":5},"1848":{"zip_code":"0191848","prefecture":"秋田県","prefecture_kana":"アキタケン","city":"大仙市","city_kana":"ダイセンシ","town":"南外鞦田","town_kana":"ナンガイシリガイダ","prefecture_code":5},"1909":{"zip_code":"0191909","prefecture":"秋田県","prefecture_kana":"アキタケン","city":"大仙市","city_kana":"ダイセンシ","town":"南外杉橋","town_kana":"ナンガイスギハシ","prefecture_code":5},"1923":{"zip_code":"0191923","prefecture":"秋田県","prefecture_kana":"アキタケン","city":"大仙市","city_kana":"ダイセンシ","town":"南外巣ノ沢","town_kana":"ナンガイスノサワ","prefecture_code":5},"1924":{"zip_code":"0191924","prefecture":"秋田県","prefecture_kana":"アキタケン","city":"大仙市","city_kana":"ダイセンシ","town":"南外巣ノ沢石切場","town_kana":"ナンガイスノサワイシキリバ","prefecture_code":5},"1953":{"zip_code":"0191953","prefecture":"秋田県","prefecture_kana":"アキタケン","city":"大仙市","city_kana":"ダイセンシ","town":"南外外小友","town_kana":"ナンガイソトオトモ","prefecture_code":5},"1955":{"zip_code":"0191955","prefecture":"秋田県","prefecture_kana":"アキタケン","city":"大仙市","city_kana":"ダイセンシ","town":"南外外山","town_kana":"ナンガイソトヤマ","prefecture_code":5},"1928":{"zip_code":"0191928","prefecture":"秋田県","prefecture_kana":"アキタケン","city":"大仙市","city_kana":"ダイセンシ","town":"南外滝中田表","town_kana":"ナンガイタキナカタオモテ","prefecture_code":5},"1933":{"zip_code":"0191933","prefecture":"秋田県","prefecture_kana":"アキタケン","city":"大仙市","city_kana":"ダイセンシ","town":"南外滝ノ沢","town_kana":"ナンガイタキノサワ","prefecture_code":5},"1934":{"zip_code":"0191934","prefecture":"秋田県","prefecture_kana":"アキタケン","city":"大仙市","city_kana":"ダイセンシ","town":"南外田尻","town_kana":"ナンガイタジリ","prefecture_code":5},"1873":{"zip_code":"0191873","prefecture":"秋田県","prefecture_kana":"アキタケン","city":"大仙市","city_kana":"ダイセンシ","town":"南外田中","town_kana":"ナンガイタナカ","prefecture_code":5},"1826":{"zip_code":"0191826","prefecture":"秋田県","prefecture_kana":"アキタケン","city":"大仙市","city_kana":"ダイセンシ","town":"南外田中田","town_kana":"ナンガイタナカタ","prefecture_code":5},"1827":{"zip_code":"0191827","prefecture":"秋田県","prefecture_kana":"アキタケン","city":"大仙市","city_kana":"ダイセンシ","town":"南外田中田山根","town_kana":"ナンガイタナカタヤマネ","prefecture_code":5},"1822":{"zip_code":"0191822","prefecture":"秋田県","prefecture_kana":"アキタケン","city":"大仙市","city_kana":"ダイセンシ","town":"南外田屋村","town_kana":"ナンガイタヤムラ","prefecture_code":5},"1831":{"zip_code":"0191831","prefecture":"秋田県","prefecture_kana":"アキタケン","city":"大仙市","city_kana":"ダイセンシ","town":"南外壇ノ平山","town_kana":"ナンガイダンノヒラヤマ","prefecture_code":5},"1861":{"zip_code":"0191861","prefecture":"秋田県","prefecture_kana":"アキタケン","city":"大仙市","city_kana":"ダイセンシ","town":"南外寺沢","town_kana":"ナンガイテラサワ","prefecture_code":5},"1888":{"zip_code":"0191888","prefecture":"秋田県","prefecture_kana":"アキタケン","city":"大仙市","city_kana":"ダイセンシ","town":"南外土場","town_kana":"ナンガイドバ","prefecture_code":5},"1936":{"zip_code":"0191936","prefecture":"秋田県","prefecture_kana":"アキタケン","city":"大仙市","city_kana":"ダイセンシ","town":"南外中荒沢","town_kana":"ナンガイナカアラサワ","prefecture_code":5},"1954":{"zip_code":"0191954","prefecture":"秋田県","prefecture_kana":"アキタケン","city":"大仙市","city_kana":"ダイセンシ","town":"南外中荒又","town_kana":"ナンガイナカアラマタ","prefecture_code":5},"1927":{"zip_code":"0191927","prefecture":"秋田県","prefecture_kana":"アキタケン","city":"大仙市","city_kana":"ダイセンシ","town":"南外中桑台","town_kana":"ナンガイナカクワダイ","prefecture_code":5},"1874":{"zip_code":"0191874","prefecture":"秋田県","prefecture_kana":"アキタケン","city":"大仙市","city_kana":"ダイセンシ","town":"南外中宿","town_kana":"ナンガイナカシュク","prefecture_code":5},"1921":{"zip_code":"0191921","prefecture":"秋田県","prefecture_kana":"アキタケン","city":"大仙市","city_kana":"ダイセンシ","town":"南外中野","town_kana":"ナンガイナカノ","prefecture_code":5},"1929":{"zip_code":"0191929","prefecture":"秋田県","prefecture_kana":"アキタケン","city":"大仙市","city_kana":"ダイセンシ","town":"南外中野山","town_kana":"ナンガイナカノヤマ","prefecture_code":5},"1904":{"zip_code":"0191904","prefecture":"秋田県","prefecture_kana":"アキタケン","city":"大仙市","city_kana":"ダイセンシ","town":"南外中袋","town_kana":"ナンガイナカブクロ","prefecture_code":5},"1887":{"zip_code":"0191887","prefecture":"秋田県","prefecture_kana":"アキタケン","city":"大仙市","city_kana":"ダイセンシ","town":"南外中渡","town_kana":"ナンガイナカワタリ","prefecture_code":5},"1846":{"zip_code":"0191846","prefecture":"秋田県","prefecture_kana":"アキタケン","city":"大仙市","city_kana":"ダイセンシ","town":"南外梨木田","town_kana":"ナンガイナシキダ","prefecture_code":5},"1805":{"zip_code":"0191805","prefecture":"秋田県","prefecture_kana":"アキタケン","city":"大仙市","city_kana":"ダイセンシ","town":"南外西板戸","town_kana":"ナンガイニシイタド","prefecture_code":5},"1804":{"zip_code":"0191804","prefecture":"秋田県","prefecture_kana":"アキタケン","city":"大仙市","city_kana":"ダイセンシ","town":"南外西野","town_kana":"ナンガイニシノ","prefecture_code":5},"1886":{"zip_code":"0191886","prefecture":"秋田県","prefecture_kana":"アキタケン","city":"大仙市","city_kana":"ダイセンシ","town":"南外西ノ又","town_kana":"ナンガイニシノマタ","prefecture_code":5},"1963":{"zip_code":"0191963","prefecture":"秋田県","prefecture_kana":"アキタケン","city":"大仙市","city_kana":"ダイセンシ","town":"南外西ノ又滝ノ沢","town_kana":"ナンガイニシノマタタキノサワ","prefecture_code":5},"1878":{"zip_code":"0191878","prefecture":"秋田県","prefecture_kana":"アキタケン","city":"大仙市","city_kana":"ダイセンシ","town":"南外及位","town_kana":"ナンガイノゾキ","prefecture_code":5},"1884":{"zip_code":"0191884","prefecture":"秋田県","prefecture_kana":"アキタケン","city":"大仙市","city_kana":"ダイセンシ","town":"南外林ノ沢","town_kana":"ナンガイハヤシノサワ","prefecture_code":5},"1943":{"zip_code":"0191943","prefecture":"秋田県","prefecture_kana":"アキタケン","city":"大仙市","city_kana":"ダイセンシ","town":"南外一ト刎","town_kana":"ナンガイヒトハネ","prefecture_code":5},"1815":{"zip_code":"0191815","prefecture":"秋田県","prefecture_kana":"アキタケン","city":"大仙市","city_kana":"ダイセンシ","town":"南外平形","town_kana":"ナンガイヒラカタ","prefecture_code":5},"1883":{"zip_code":"0191883","prefecture":"秋田県","prefecture_kana":"アキタケン","city":"大仙市","city_kana":"ダイセンシ","town":"南外平沢","town_kana":"ナンガイヒラサワ","prefecture_code":5},"1918":{"zip_code":"0191918","prefecture":"秋田県","prefecture_kana":"アキタケン","city":"大仙市","city_kana":"ダイセンシ","town":"南外広表","town_kana":"ナンガイヒロオモテ","prefecture_code":5},"1801":{"zip_code":"0191801","prefecture":"秋田県","prefecture_kana":"アキタケン","city":"大仙市","city_kana":"ダイセンシ","town":"南外物渡台","town_kana":"ナンガイブツドダイ","prefecture_code":5},"1825":{"zip_code":"0191825","prefecture":"秋田県","prefecture_kana":"アキタケン","city":"大仙市","city_kana":"ダイセンシ","town":"南外坊田","town_kana":"ナンガイボウダ","prefecture_code":5},"1803":{"zip_code":"0191803","prefecture":"秋田県","prefecture_kana":"アキタケン","city":"大仙市","city_kana":"ダイセンシ","town":"南外坊田石兀ノ下","town_kana":"ナンガイボウダイシハゲノシタ","prefecture_code":5},"1853":{"zip_code":"0191853","prefecture":"秋田県","prefecture_kana":"アキタケン","city":"大仙市","city_kana":"ダイセンシ","town":"南外坊田黒沢","town_kana":"ナンガイボウダクロサワ","prefecture_code":5},"1911":{"zip_code":"0191911","prefecture":"秋田県","prefecture_kana":"アキタケン","city":"大仙市","city_kana":"ダイセンシ","town":"南外坊村","town_kana":"ナンガイボウムラ","prefecture_code":5},"1941":{"zip_code":"0191941","prefecture":"秋田県","prefecture_kana":"アキタケン","city":"大仙市","city_kana":"ダイセンシ","town":"南外松木田","town_kana":"ナンガイマツキダ","prefecture_code":5},"1912":{"zip_code":"0191912","prefecture":"秋田県","prefecture_kana":"アキタケン","city":"大仙市","city_kana":"ダイセンシ","town":"南外丸木橋","town_kana":"ナンガイマルキバシ","prefecture_code":5},"1939":{"zip_code":"0191939","prefecture":"秋田県","prefecture_kana":"アキタケン","city":"大仙市","city_kana":"ダイセンシ","town":"南外水上沢","town_kana":"ナンガイミズカミザワ","prefecture_code":5},"1877":{"zip_code":"0191877","prefecture":"秋田県","prefecture_kana":"アキタケン","city":"大仙市","city_kana":"ダイセンシ","town":"南外水沢","town_kana":"ナンガイミズサワ","prefecture_code":5},"1824":{"zip_code":"0191824","prefecture":"秋田県","prefecture_kana":"アキタケン","city":"大仙市","city_kana":"ダイセンシ","town":"南外宮田","town_kana":"ナンガイミヤタ","prefecture_code":5},"1958":{"zip_code":"0191958","prefecture":"秋田県","prefecture_kana":"アキタケン","city":"大仙市","city_kana":"ダイセンシ","town":"南外向ノ沢","town_kana":"ナンガイムカイノサワ","prefecture_code":5},"1881":{"zip_code":"0191881","prefecture":"秋田県","prefecture_kana":"アキタケン","city":"大仙市","city_kana":"ダイセンシ","town":"南外葎沢","town_kana":"ナンガイムグラサワ","prefecture_code":5},"1885":{"zip_code":"0191885","prefecture":"秋田県","prefecture_kana":"アキタケン","city":"大仙市","city_kana":"ダイセンシ","town":"南外無尻橋","town_kana":"ナンガイムジリバシ","prefecture_code":5},"1811":{"zip_code":"0191811","prefecture":"秋田県","prefecture_kana":"アキタケン","city":"大仙市","city_kana":"ダイセンシ","town":"南外本宿","town_kana":"ナンガイモトシュク","prefecture_code":5},"1917":{"zip_code":"0191917","prefecture":"秋田県","prefecture_kana":"アキタケン","city":"大仙市","city_kana":"ダイセンシ","town":"南外薬師堂","town_kana":"ナンガイヤクシドウ","prefecture_code":5},"1871":{"zip_code":"0191871","prefecture":"秋田県","prefecture_kana":"アキタケン","city":"大仙市","city_kana":"ダイセンシ","town":"南外谷地田","town_kana":"ナンガイヤチダ","prefecture_code":5},"1913":{"zip_code":"0191913","prefecture":"秋田県","prefecture_kana":"アキタケン","city":"大仙市","city_kana":"ダイセンシ","town":"南外湯神台","town_kana":"ナンガイユガミダイ","prefecture_code":5},"1914":{"zip_code":"0191914","prefecture":"秋田県","prefecture_kana":"アキタケン","city":"大仙市","city_kana":"ダイセンシ","town":"南外湯ノ又","town_kana":"ナンガイユノマタ","prefecture_code":5},"1944":{"zip_code":"0191944","prefecture":"秋田県","prefecture_kana":"アキタケン","city":"大仙市","city_kana":"ダイセンシ","town":"南外湯元","town_kana":"ナンガイユモト","prefecture_code":5},"1962":{"zip_code":"0191962","prefecture":"秋田県","prefecture_kana":"アキタケン","city":"大仙市","city_kana":"ダイセンシ","town":"南外若林","town_kana":"ナンガイワカバヤシ","prefecture_code":5},"1862":{"zip_code":"0191862","prefecture":"秋田県","prefecture_kana":"アキタケン","city":"大仙市","city_kana":"ダイセンシ","town":"南外和合","town_kana":"ナンガイワゴウ","prefecture_code":5},"1400":{"zip_code":"0191400","prefecture":"秋田県","prefecture_kana":"アキタケン","city":"仙北郡美郷町","city_kana":"センボクグンミサトチョウ","town":"","town_kana":"","prefecture_code":5},"1533":{"zip_code":"0191533","prefecture":"秋田県","prefecture_kana":"アキタケン","city":"仙北郡美郷町","city_kana":"センボクグンミサトチョウ","town":"安城寺","town_kana":"アンジョウジ","prefecture_code":5},"1234":{"zip_code":"0191234","prefecture":"秋田県","prefecture_kana":"アキタケン","city":"仙北郡美郷町","city_kana":"センボクグンミサトチョウ","town":"飯詰","town_kana":"イイヅメ","prefecture_code":5},"1302":{"zip_code":"0191302","prefecture":"秋田県","prefecture_kana":"アキタケン","city":"仙北郡美郷町","city_kana":"センボクグンミサトチョウ","town":"金沢","town_kana":"カネザワ","prefecture_code":5},"1235":{"zip_code":"0191235","prefecture":"秋田県","prefecture_kana":"アキタケン","city":"仙北郡美郷町","city_kana":"センボクグンミサトチョウ","town":"金沢西根","town_kana":"カネザワニシネ","prefecture_code":5},"1522":{"zip_code":"0191522","prefecture":"秋田県","prefecture_kana":"アキタケン","city":"仙北郡美郷町","city_kana":"センボクグンミサトチョウ","town":"金沢東根","town_kana":"カネザワヒガシネ","prefecture_code":5},"1236":{"zip_code":"0191236","prefecture":"秋田県","prefecture_kana":"アキタケン","city":"仙北郡美郷町","city_kana":"センボクグンミサトチョウ","town":"上深井","town_kana":"カミフカイ","prefecture_code":5},"1511":{"zip_code":"0191511","prefecture":"秋田県","prefecture_kana":"アキタケン","city":"仙北郡美郷町","city_kana":"センボクグンミサトチョウ","town":"黒沢","town_kana":"クロサワ","prefecture_code":5},"1542":{"zip_code":"0191542","prefecture":"秋田県","prefecture_kana":"アキタケン","city":"仙北郡美郷町","city_kana":"センボクグンミサトチョウ","town":"小荒川","town_kana":"コアラカワ","prefecture_code":5},"1233":{"zip_code":"0191233","prefecture":"秋田県","prefecture_kana":"アキタケン","city":"仙北郡美郷町","city_kana":"センボクグンミサトチョウ","town":"境田","town_kana":"サカイダ","prefecture_code":5},"1237":{"zip_code":"0191237","prefecture":"秋田県","prefecture_kana":"アキタケン","city":"仙北郡美郷町","city_kana":"センボクグンミサトチョウ","town":"佐野","town_kana":"サノ","prefecture_code":5},"1502":{"zip_code":"0191502","prefecture":"秋田県","prefecture_kana":"アキタケン","city":"仙北郡美郷町","city_kana":"センボクグンミサトチョウ","town":"千屋","town_kana":"センヤ","prefecture_code":5},"1541":{"zip_code":"0191541","prefecture":"秋田県","prefecture_kana":"アキタケン","city":"仙北郡美郷町","city_kana":"センボクグンミサトチョウ","town":"土崎","town_kana":"ツチザキ","prefecture_code":5},"1232":{"zip_code":"0191232","prefecture":"秋田県","prefecture_kana":"アキタケン","city":"仙北郡美郷町","city_kana":"センボクグンミサトチョウ","town":"天神堂","town_kana":"テンジンドウ","prefecture_code":5},"1521":{"zip_code":"0191521","prefecture":"秋田県","prefecture_kana":"アキタケン","city":"仙北郡美郷町","city_kana":"センボクグンミサトチョウ","town":"中野","town_kana":"ナカノ","prefecture_code":5},"1501":{"zip_code":"0191501","prefecture":"秋田県","prefecture_kana":"アキタケン","city":"仙北郡美郷町","city_kana":"センボクグンミサトチョウ","town":"浪花","town_kana":"ナニワ","prefecture_code":5},"1301":{"zip_code":"0191301","prefecture":"秋田県","prefecture_kana":"アキタケン","city":"仙北郡美郷町","city_kana":"センボクグンミサトチョウ","town":"野荒町","town_kana":"ノアラマチ","prefecture_code":5},"1402":{"zip_code":"0191402","prefecture":"秋田県","prefecture_kana":"アキタケン","city":"仙北郡美郷町","city_kana":"センボクグンミサトチョウ","town":"野中","town_kana":"ノナカ","prefecture_code":5},"1531":{"zip_code":"0191531","prefecture":"秋田県","prefecture_kana":"アキタケン","city":"仙北郡美郷町","city_kana":"センボクグンミサトチョウ","town":"畑屋","town_kana":"ハタヤ","prefecture_code":5},"1532":{"zip_code":"0191532","prefecture":"秋田県","prefecture_kana":"アキタケン","city":"仙北郡美郷町","city_kana":"センボクグンミサトチョウ","town":"羽貫谷地","town_kana":"ハヌキヤチ","prefecture_code":5},"1512":{"zip_code":"0191512","prefecture":"秋田県","prefecture_kana":"アキタケン","city":"仙北郡美郷町","city_kana":"センボクグンミサトチョウ","town":"本堂城回","town_kana":"ホンドウシロマワリ","prefecture_code":5},"1231":{"zip_code":"0191231","prefecture":"秋田県","prefecture_kana":"アキタケン","city":"仙北郡美郷町","city_kana":"センボクグンミサトチョウ","town":"南町","town_kana":"ミナミマチ","prefecture_code":5},"1401":{"zip_code":"0191401","prefecture":"秋田県","prefecture_kana":"アキタケン","city":"仙北郡美郷町","city_kana":"センボクグンミサトチョウ","town":"鑓田","town_kana":"ヤリダ","prefecture_code":5},"1404":{"zip_code":"0191404","prefecture":"秋田県","prefecture_kana":"アキタケン","city":"仙北郡美郷町","city_kana":"センボクグンミサトチョウ","town":"六郷","town_kana":"ロクゴウ","prefecture_code":5},"1403":{"zip_code":"0191403","prefecture":"秋田県","prefecture_kana":"アキタケン","city":"仙北郡美郷町","city_kana":"センボクグンミサトチョウ","town":"六郷東根","town_kana":"ロクゴウヒガシネ","prefecture_code":5},"0800":{"zip_code":"0190800","prefecture":"秋田県","prefecture_kana":"アキタケン","city":"雄勝郡東成瀬村","city_kana":"オガチグンヒガシナルセムラ","town":"","town_kana":"","prefecture_code":5},"0802":{"zip_code":"0190802","prefecture":"秋田県","prefecture_kana":"アキタケン","city":"雄勝郡東成瀬村","city_kana":"オガチグンヒガシナルセムラ","town":"岩井川","town_kana":"イワイカワ","prefecture_code":5},"0801":{"zip_code":"0190801","prefecture":"秋田県","prefecture_kana":"アキタケン","city":"雄勝郡東成瀬村","city_kana":"オガチグンヒガシナルセムラ","town":"田子内","town_kana":"タゴナイ","prefecture_code":5},"0803":{"zip_code":"0190803","prefecture":"秋田県","prefecture_kana":"アキタケン","city":"雄勝郡東成瀬村","city_kana":"オガチグンヒガシナルセムラ","town":"椿川","town_kana":"ツバキカワ","prefecture_code":5}}