{"0000":{"zip_code":"0210000","prefecture":"岩手県","prefecture_kana":"イワテケン","city":"一関市","city_kana":"イチノセキシ","town":"","town_kana":"","prefecture_code":3},"0853":{"zip_code":"0210853","prefecture":"岩手県","prefecture_kana":"イワテケン","city":"一関市","city_kana":"イチノセキシ","town":"相去","town_kana":"アイサリ","prefecture_code":3},"0031":{"zip_code":"0210031","prefecture":"岩手県","prefecture_kana":"イワテケン","city":"一関市","city_kana":"イチノセキシ","town":"青葉","town_kana":"アオバ","prefecture_code":3},"0041":{"zip_code":"0210041","prefecture":"岩手県","prefecture_kana":"イワテケン","city":"一関市","city_kana":"イチノセキシ","town":"赤荻","town_kana":"アコオギ","prefecture_code":3},"0864":{"zip_code":"0210864","prefecture":"岩手県","prefecture_kana":"イワテケン","city":"一関市","city_kana":"イチノセキシ","town":"旭町","town_kana":"アサヒチョウ","prefecture_code":3},"0008":{"zip_code":"0210008","prefecture":"岩手県","prefecture_kana":"イワテケン","city":"一関市","city_kana":"イチノセキシ","town":"石畑","town_kana":"イシバタケ","prefecture_code":3},"0894":{"zip_code":"0210894","prefecture":"岩手県","prefecture_kana":"イワテケン","city":"一関市","city_kana":"イチノセキシ","town":"磐井町","town_kana":"イワイチョウ","prefecture_code":3},"0834":{"zip_code":"0210834","prefecture":"岩手県","prefecture_kana":"イワテケン","city":"一関市","city_kana":"イチノセキシ","town":"宇南","town_kana":"ウナン","prefecture_code":3},"0867":{"zip_code":"0210867","prefecture":"岩手県","prefecture_kana":"イワテケン","city":"一関市","city_kana":"イチノセキシ","town":"駅前","town_kana":"エキマエ","prefecture_code":3},"0884":{"zip_code":"0210884","prefecture":"岩手県","prefecture_kana":"イワテケン","city":"一関市","city_kana":"イチノセキシ","town":"大手町","town_kana":"オオテマチ","prefecture_code":3},"0881":{"zip_code":"0210881","prefecture":"岩手県","prefecture_kana":"イワテケン","city":"一関市","city_kana":"イチノセキシ","town":"大町","town_kana":"オオマチ","prefecture_code":3},"0882":{"zip_code":"0210882","prefecture":"岩手県","prefecture_kana":"イワテケン","city":"一関市","city_kana":"イチノセキシ","town":"上大槻街","town_kana":"カミオオツキコウジ","prefecture_code":3},"0007":{"zip_code":"0210007","prefecture":"岩手県","prefecture_kana":"イワテケン","city":"一関市","city_kana":"イチノセキシ","town":"上日照","town_kana":"カミヒデリ","prefecture_code":3},"0833":{"zip_code":"0210833","prefecture":"岩手県","prefecture_kana":"イワテケン","city":"一関市","city_kana":"イチノセキシ","town":"柄貝","town_kana":"カラカイ","prefecture_code":3},"0802":{"zip_code":"0210802","prefecture":"岩手県","prefecture_kana":"イワテケン","city":"一関市","city_kana":"イチノセキシ","town":"北十軒街","town_kana":"キタジュッケンコウジ","prefecture_code":3},"0814":{"zip_code":"0210814","prefecture":"岩手県","prefecture_kana":"イワテケン","city":"一関市","city_kana":"イチノセキシ","town":"北ほうりょう","town_kana":"キタホウリョウ","prefecture_code":3},"0811":{"zip_code":"0210811","prefecture":"岩手県","prefecture_kana":"イワテケン","city":"一関市","city_kana":"イチノセキシ","town":"久保","town_kana":"クボ","prefecture_code":3},"0101":{"zip_code":"0210101","prefecture":"岩手県","prefecture_kana":"イワテケン","city":"一関市","city_kana":"イチノセキシ","town":"厳美町","town_kana":"ゲンビチョウ","prefecture_code":3},"0804":{"zip_code":"0210804","prefecture":"岩手県","prefecture_kana":"イワテケン","city":"一関市","city_kana":"イチノセキシ","town":"五十人町","town_kana":"ゴジュウニンマチ","prefecture_code":3},"0022":{"zip_code":"0210022","prefecture":"岩手県","prefecture_kana":"イワテケン","city":"一関市","city_kana":"イチノセキシ","town":"五代町","town_kana":"ゴダイチョウ","prefecture_code":3},"0052":{"zip_code":"0210052","prefecture":"岩手県","prefecture_kana":"イワテケン","city":"一関市","city_kana":"イチノセキシ","town":"寿町","town_kana":"コトブキチョウ","prefecture_code":3},"0024":{"zip_code":"0210024","prefecture":"岩手県","prefecture_kana":"イワテケン","city":"一関市","city_kana":"イチノセキシ","town":"幸町","town_kana":"サイワイチョウ","prefecture_code":3},"0891":{"zip_code":"0210891","prefecture":"岩手県","prefecture_kana":"イワテケン","city":"一関市","city_kana":"イチノセキシ","town":"桜木町","town_kana":"サクラギチョウ","prefecture_code":3},"0801":{"zip_code":"0210801","prefecture":"岩手県","prefecture_kana":"イワテケン","city":"一関市","city_kana":"イチノセキシ","town":"桜街","town_kana":"サクラコウジ","prefecture_code":3},"0852":{"zip_code":"0210852","prefecture":"岩手県","prefecture_kana":"イワテケン","city":"一関市","city_kana":"イチノセキシ","town":"沢","town_kana":"サワ","prefecture_code":3},"0832":{"zip_code":"0210832","prefecture":"岩手県","prefecture_kana":"イワテケン","city":"一関市","city_kana":"イチノセキシ","town":"散田","town_kana":"サンタ","prefecture_code":3},"0821":{"zip_code":"0210821","prefecture":"岩手県","prefecture_kana":"イワテケン","city":"一関市","city_kana":"イチノセキシ","town":"三関","town_kana":"サンノセキ","prefecture_code":3},"0893":{"zip_code":"0210893","prefecture":"岩手県","prefecture_kana":"イワテケン","city":"一関市","city_kana":"イチノセキシ","town":"地主町","town_kana":"ジシュマチ","prefecture_code":3},"0806":{"zip_code":"0210806","prefecture":"岩手県","prefecture_kana":"イワテケン","city":"一関市","city_kana":"イチノセキシ","town":"下大槻街","town_kana":"シモオオツキコウジ","prefecture_code":3},"0877":{"zip_code":"0210877","prefecture":"岩手県","prefecture_kana":"イワテケン","city":"一関市","city_kana":"イチノセキシ","town":"城内","town_kana":"ジョウナイ","prefecture_code":3},"0006":{"zip_code":"0210006","prefecture":"岩手県","prefecture_kana":"イワテケン","city":"一関市","city_kana":"イチノセキシ","town":"上坊","town_kana":"ジョウボウ","prefecture_code":3},"0883":{"zip_code":"0210883","prefecture":"岩手県","prefecture_kana":"イワテケン","city":"一関市","city_kana":"イチノセキシ","town":"新大町","town_kana":"シンオオマチ","prefecture_code":3},"0001":{"zip_code":"0210001","prefecture":"岩手県","prefecture_kana":"イワテケン","city":"一関市","city_kana":"イチノセキシ","town":"新町","town_kana":"シンマチ","prefecture_code":3},"0841":{"zip_code":"0210841","prefecture":"岩手県","prefecture_kana":"イワテケン","city":"一関市","city_kana":"イチノセキシ","town":"吸川街","town_kana":"スイカワコウジ","prefecture_code":3},"0032":{"zip_code":"0210032","prefecture":"岩手県","prefecture_kana":"イワテケン","city":"一関市","city_kana":"イチノセキシ","town":"末広","town_kana":"スエヒロ","prefecture_code":3},"0851":{"zip_code":"0210851","prefecture":"岩手県","prefecture_kana":"イワテケン","city":"一関市","city_kana":"イチノセキシ","town":"関が丘","town_kana":"セキガオカ","prefecture_code":3},"0873":{"zip_code":"0210873","prefecture":"岩手県","prefecture_kana":"イワテケン","city":"一関市","city_kana":"イチノセキシ","town":"台町","town_kana":"ダイマチ","prefecture_code":3},"0875":{"zip_code":"0210875","prefecture":"岩手県","prefecture_kana":"イワテケン","city":"一関市","city_kana":"イチノセキシ","town":"高崎町","town_kana":"タカサキチョウ","prefecture_code":3},"0027":{"zip_code":"0210027","prefecture":"岩手県","prefecture_kana":"イワテケン","city":"一関市","city_kana":"イチノセキシ","town":"竹山町","town_kana":"タケヤマチョウ","prefecture_code":3},"0885":{"zip_code":"0210885","prefecture":"岩手県","prefecture_kana":"イワテケン","city":"一関市","city_kana":"イチノセキシ","town":"田村町","town_kana":"タムラチョウ","prefecture_code":3},"0844":{"zip_code":"0210844","prefecture":"岩手県","prefecture_kana":"イワテケン","city":"一関市","city_kana":"イチノセキシ","town":"反町","town_kana":"タンマチ","prefecture_code":3},"0021":{"zip_code":"0210021","prefecture":"岩手県","prefecture_kana":"イワテケン","city":"一関市","city_kana":"イチノセキシ","town":"中央町","town_kana":"チュウオウチョウ","prefecture_code":3},"0862":{"zip_code":"0210862","prefecture":"岩手県","prefecture_kana":"イワテケン","city":"一関市","city_kana":"イチノセキシ","town":"千代田町","town_kana":"チヨダチョウ","prefecture_code":3},"0874":{"zip_code":"0210874","prefecture":"岩手県","prefecture_kana":"イワテケン","city":"一関市","city_kana":"イチノセキシ","town":"釣山","town_kana":"ツリヤマ","prefecture_code":3},"0023":{"zip_code":"0210023","prefecture":"岩手県","prefecture_kana":"イワテケン","city":"一関市","city_kana":"イチノセキシ","town":"銅谷町","town_kana":"ドウヤチョウ","prefecture_code":3},"0005":{"zip_code":"0210005","prefecture":"岩手県","prefecture_kana":"イワテケン","city":"一関市","city_kana":"イチノセキシ","town":"中里沢田","town_kana":"ナカサトサワダ","prefecture_code":3},"0002":{"zip_code":"0210002","prefecture":"岩手県","prefecture_kana":"イワテケン","city":"一関市","city_kana":"イチノセキシ","town":"中里","town_kana":"ナカサト","prefecture_code":3},"0836":{"zip_code":"0210836","prefecture":"岩手県","prefecture_kana":"イワテケン","city":"一関市","city_kana":"イチノセキシ","town":"鳴神","town_kana":"ナルガミ","prefecture_code":3},"0865":{"zip_code":"0210865","prefecture":"岩手県","prefecture_kana":"イワテケン","city":"一関市","city_kana":"イチノセキシ","town":"新山","town_kana":"ニイヤマ","prefecture_code":3},"0854":{"zip_code":"0210854","prefecture":"岩手県","prefecture_kana":"イワテケン","city":"一関市","city_kana":"イチノセキシ","town":"西沢","town_kana":"ニシザワ","prefecture_code":3},"0835":{"zip_code":"0210835","prefecture":"岩手県","prefecture_kana":"イワテケン","city":"一関市","city_kana":"イチノセキシ","town":"二本木","town_kana":"ニホンギ","prefecture_code":3},"0831":{"zip_code":"0210831","prefecture":"岩手県","prefecture_kana":"イワテケン","city":"一関市","city_kana":"イチノセキシ","town":"沼田","town_kana":"ヌマタ","prefecture_code":3},"0102":[{"zip_code":"0210102","prefecture":"岩手県","prefecture_kana":"イワテケン","city":"一関市","city_kana":"イチノセキシ","town":"萩荘赤猪子","town_kana":"ハギショウアカイノコ","prefecture_code":3},{"zip_code":"0210102","prefecture":"岩手県","prefecture_kana":"イワテケン","city":"一関市","city_kana":"イチノセキシ","town":"萩荘芦ノ口","town_kana":"ハギショウアシノクチ","prefecture_code":3},{"zip_code":"0210102","prefecture":"岩手県","prefecture_kana":"イワテケン","city":"一関市","city_kana":"イチノセキシ","town":"萩荘甘蕨","town_kana":"ハギショウアマワラビ","prefecture_code":3},{"zip_code":"0210102","prefecture":"岩手県","prefecture_kana":"イワテケン","city":"一関市","city_kana":"イチノセキシ","town":"萩荘老流","town_kana":"ハギショウオイナガレ","prefecture_code":3},{"zip_code":"0210102","prefecture":"岩手県","prefecture_kana":"イワテケン","city":"一関市","city_kana":"イチノセキシ","town":"萩荘大沢","town_kana":"ハギショウオオサワ","prefecture_code":3},{"zip_code":"0210102","prefecture":"岩手県","prefecture_kana":"イワテケン","city":"一関市","city_kana":"イチノセキシ","town":"萩荘上宇津野","town_kana":"ハギショウカミウツノ","prefecture_code":3},{"zip_code":"0210102","prefecture":"岩手県","prefecture_kana":"イワテケン","city":"一関市","city_kana":"イチノセキシ","town":"萩荘上本郷","town_kana":"ハギショウカミホンゴウ","prefecture_code":3},{"zip_code":"0210102","prefecture":"岩手県","prefecture_kana":"イワテケン","city":"一関市","city_kana":"イチノセキシ","town":"萩荘上要害","town_kana":"ハギショウカミヨウガイ","prefecture_code":3},{"zip_code":"0210102","prefecture":"岩手県","prefecture_kana":"イワテケン","city":"一関市","city_kana":"イチノセキシ","town":"萩荘化粧坂","town_kana":"ハギショウケショウザカ","prefecture_code":3},{"zip_code":"0210102","prefecture":"岩手県","prefecture_kana":"イワテケン","city":"一関市","city_kana":"イチノセキシ","town":"萩荘三月田","town_kana":"ハギショウサンガツダ","prefecture_code":3},{"zip_code":"0210102","prefecture":"岩手県","prefecture_kana":"イワテケン","city":"一関市","city_kana":"イチノセキシ","town":"萩荘下宇津野","town_kana":"ハギショウシモウツノ","prefecture_code":3},{"zip_code":"0210102","prefecture":"岩手県","prefecture_kana":"イワテケン","city":"一関市","city_kana":"イチノセキシ","town":"萩荘下本郷","town_kana":"ハギショウシモホンゴウ","prefecture_code":3},{"zip_code":"0210102","prefecture":"岩手県","prefecture_kana":"イワテケン","city":"一関市","city_kana":"イチノセキシ","town":"萩荘外山","town_kana":"ハギショウソデヤマ","prefecture_code":3},{"zip_code":"0210102","prefecture":"岩手県","prefecture_kana":"イワテケン","city":"一関市","city_kana":"イチノセキシ","town":"萩荘堂の沢","town_kana":"ハギショウドウノサワ","prefecture_code":3},{"zip_code":"0210102","prefecture":"岩手県","prefecture_kana":"イワテケン","city":"一関市","city_kana":"イチノセキシ","town":"萩荘栃倉","town_kana":"ハギショウトチクラ","prefecture_code":3},{"zip_code":"0210102","prefecture":"岩手県","prefecture_kana":"イワテケン","city":"一関市","city_kana":"イチノセキシ","town":"萩荘栃倉南","town_kana":"ハギショウトチクラミナミ","prefecture_code":3},{"zip_code":"0210102","prefecture":"岩手県","prefecture_kana":"イワテケン","city":"一関市","city_kana":"イチノセキシ","town":"萩荘長倉","town_kana":"ハギショウナガクラ","prefecture_code":3},{"zip_code":"0210102","prefecture":"岩手県","prefecture_kana":"イワテケン","city":"一関市","city_kana":"イチノセキシ","town":"萩荘中沢","town_kana":"ハギショウナカザワ","prefecture_code":3},{"zip_code":"0210102","prefecture":"岩手県","prefecture_kana":"イワテケン","city":"一関市","city_kana":"イチノセキシ","town":"萩荘八森","town_kana":"ハギショウハチモリ","prefecture_code":3},{"zip_code":"0210102","prefecture":"岩手県","prefecture_kana":"イワテケン","city":"一関市","city_kana":"イチノセキシ","town":"萩荘馬場","town_kana":"ハギショウババ","prefecture_code":3},{"zip_code":"0210102","prefecture":"岩手県","prefecture_kana":"イワテケン","city":"一関市","city_kana":"イチノセキシ","town":"萩荘広面","town_kana":"ハギショウヒロオモテ","prefecture_code":3},{"zip_code":"0210102","prefecture":"岩手県","prefecture_kana":"イワテケン","city":"一関市","city_kana":"イチノセキシ","town":"萩荘平場","town_kana":"ハギショウヒラバ","prefecture_code":3},{"zip_code":"0210102","prefecture":"岩手県","prefecture_kana":"イワテケン","city":"一関市","city_kana":"イチノセキシ","town":"萩荘古釜場","town_kana":"ハギショウフルカマバ","prefecture_code":3},{"zip_code":"0210102","prefecture":"岩手県","prefecture_kana":"イワテケン","city":"一関市","city_kana":"イチノセキシ","town":"萩荘曲淵","town_kana":"ハギショウマガリフチ","prefecture_code":3},{"zip_code":"0210102","prefecture":"岩手県","prefecture_kana":"イワテケン","city":"一関市","city_kana":"イチノセキシ","town":"萩荘松原","town_kana":"ハギショウマツバラ","prefecture_code":3},{"zip_code":"0210102","prefecture":"岩手県","prefecture_kana":"イワテケン","city":"一関市","city_kana":"イチノセキシ","town":"萩荘南沢","town_kana":"ハギショウミナミザワ","prefecture_code":3},{"zip_code":"0210102","prefecture":"岩手県","prefecture_kana":"イワテケン","city":"一関市","city_kana":"イチノセキシ","town":"萩荘谷起","town_kana":"ハギショウヤギ","prefecture_code":3},{"zip_code":"0210102","prefecture":"岩手県","prefecture_kana":"イワテケン","city":"一関市","city_kana":"イチノセキシ","town":"萩荘焼切","town_kana":"ハギショウヤッキリ","prefecture_code":3},{"zip_code":"0210102","prefecture":"岩手県","prefecture_kana":"イワテケン","city":"一関市","city_kana":"イチノセキシ","town":"萩荘八瀬","town_kana":"ハギショウヤセ","prefecture_code":3},{"zip_code":"0210102","prefecture":"岩手県","prefecture_kana":"イワテケン","city":"一関市","city_kana":"イチノセキシ","town":"萩荘八幡","town_kana":"ハギショウヤハタ","prefecture_code":3},{"zip_code":"0210102","prefecture":"岩手県","prefecture_kana":"イワテケン","city":"一関市","city_kana":"イチノセキシ","town":"萩荘山ノ沢","town_kana":"ハギショウヤマノサワ","prefecture_code":3}],"0902":{"zip_code":"0210902","prefecture":"岩手県","prefecture_kana":"イワテケン","city":"一関市","city_kana":"イチノセキシ","town":"萩荘","town_kana":"ハギショウ","prefecture_code":3},"0861":{"zip_code":"0210861","prefecture":"岩手県","prefecture_kana":"イワテケン","city":"一関市","city_kana":"イチノセキシ","town":"機織山","town_kana":"ハタオリヤマ","prefecture_code":3},"0871":{"zip_code":"0210871","prefecture":"岩手県","prefecture_kana":"イワテケン","city":"一関市","city_kana":"イチノセキシ","town":"八幡町","town_kana":"ハチマンチョウ","prefecture_code":3},"0807":{"zip_code":"0210807","prefecture":"岩手県","prefecture_kana":"イワテケン","city":"一関市","city_kana":"イチノセキシ","town":"東花王町","town_kana":"ヒガシカオウチョウ","prefecture_code":3},"0003":{"zip_code":"0210003","prefecture":"岩手県","prefecture_kana":"イワテケン","city":"一関市","city_kana":"イチノセキシ","town":"東五代","town_kana":"ヒガシゴダイ","prefecture_code":3},"0892":{"zip_code":"0210892","prefecture":"岩手県","prefecture_kana":"イワテケン","city":"一関市","city_kana":"イチノセキシ","town":"東地主町","town_kana":"ヒガシジシュマチ","prefecture_code":3},"0822":{"zip_code":"0210822","prefecture":"岩手県","prefecture_kana":"イワテケン","city":"一関市","city_kana":"イチノセキシ","town":"東台","town_kana":"ヒガシダイ","prefecture_code":3},"0876":{"zip_code":"0210876","prefecture":"岩手県","prefecture_kana":"イワテケン","city":"一関市","city_kana":"イチノセキシ","town":"広街","town_kana":"ヒロコウジ","prefecture_code":3},"0812":{"zip_code":"0210812","prefecture":"岩手県","prefecture_kana":"イワテケン","city":"一関市","city_kana":"イチノセキシ","town":"樋渡","town_kana":"ヒワタシ","prefecture_code":3},"0843":{"zip_code":"0210843","prefecture":"岩手県","prefecture_kana":"イワテケン","city":"一関市","city_kana":"イチノセキシ","town":"深町","town_kana":"フカマチ","prefecture_code":3},"0221":{"zip_code":"0210221","prefecture":"岩手県","prefecture_kana":"イワテケン","city":"一関市","city_kana":"イチノセキシ","town":"舞川","town_kana":"マイカワ","prefecture_code":3},"0901":{"zip_code":"0210901","prefecture":"岩手県","prefecture_kana":"イワテケン","city":"一関市","city_kana":"イチノセキシ","town":"真柴","town_kana":"マシバ","prefecture_code":3},"0004":{"zip_code":"0210004","prefecture":"岩手県","prefecture_kana":"イワテケン","city":"一関市","city_kana":"イチノセキシ","town":"町浦","town_kana":"マチウラ","prefecture_code":3},"0803":{"zip_code":"0210803","prefecture":"岩手県","prefecture_kana":"イワテケン","city":"一関市","city_kana":"イチノセキシ","town":"南十軒街","town_kana":"ミナミジュッケンコウジ","prefecture_code":3},"0866":{"zip_code":"0210866","prefecture":"岩手県","prefecture_kana":"イワテケン","city":"一関市","city_kana":"イチノセキシ","town":"南新町","town_kana":"ミナミシンマチ","prefecture_code":3},"0813":{"zip_code":"0210813","prefecture":"岩手県","prefecture_kana":"イワテケン","city":"一関市","city_kana":"イチノセキシ","town":"南ほうりょう","town_kana":"ミナミホウリョウ","prefecture_code":3},"0863":{"zip_code":"0210863","prefecture":"岩手県","prefecture_kana":"イワテケン","city":"一関市","city_kana":"イチノセキシ","town":"南町","town_kana":"ミナミマチ","prefecture_code":3},"0872":{"zip_code":"0210872","prefecture":"岩手県","prefecture_kana":"イワテケン","city":"一関市","city_kana":"イチノセキシ","town":"宮坂町","town_kana":"ミヤサカチョウ","prefecture_code":3},"0013":{"zip_code":"0210013","prefecture":"岩手県","prefecture_kana":"イワテケン","city":"一関市","city_kana":"イチノセキシ","town":"宮下町","town_kana":"ミヤシタチョウ","prefecture_code":3},"0012":{"zip_code":"0210012","prefecture":"岩手県","prefecture_kana":"イワテケン","city":"一関市","city_kana":"イチノセキシ","town":"宮前町","town_kana":"ミヤマエチョウ","prefecture_code":3},"0842":{"zip_code":"0210842","prefecture":"岩手県","prefecture_kana":"イワテケン","city":"一関市","city_kana":"イチノセキシ","town":"柳町","town_kana":"ヤナギマチ","prefecture_code":3},"0063":{"zip_code":"0210063","prefecture":"岩手県","prefecture_kana":"イワテケン","city":"一関市","city_kana":"イチノセキシ","town":"山目大槻","town_kana":"ヤマノメオオツキ","prefecture_code":3},"0035":{"zip_code":"0210035","prefecture":"岩手県","prefecture_kana":"イワテケン","city":"一関市","city_kana":"イチノセキシ","town":"山目才天","town_kana":"ヤマノメサイテン","prefecture_code":3},"0054":{"zip_code":"0210054","prefecture":"岩手県","prefecture_kana":"イワテケン","city":"一関市","city_kana":"イチノセキシ","town":"山目境","town_kana":"ヤマノメサカイ","prefecture_code":3},"0033":{"zip_code":"0210033","prefecture":"岩手県","prefecture_kana":"イワテケン","city":"一関市","city_kana":"イチノセキシ","town":"山目里前","town_kana":"ヤマノメサトマエ","prefecture_code":3},"0064":{"zip_code":"0210064","prefecture":"岩手県","prefecture_kana":"イワテケン","city":"一関市","city_kana":"イチノセキシ","town":"山目沢内","town_kana":"ヤマノメサワウチ","prefecture_code":3},"0051":{"zip_code":"0210051","prefecture":"岩手県","prefecture_kana":"イワテケン","city":"一関市","city_kana":"イチノセキシ","town":"山目三反田","town_kana":"ヤマノメサンタンダ","prefecture_code":3},"0036":{"zip_code":"0210036","prefecture":"岩手県","prefecture_kana":"イワテケン","city":"一関市","city_kana":"イチノセキシ","town":"山目十二神","town_kana":"ヤマノメジュウニジン","prefecture_code":3},"0034":{"zip_code":"0210034","prefecture":"岩手県","prefecture_kana":"イワテケン","city":"一関市","city_kana":"イチノセキシ","town":"山目立沢","town_kana":"ヤマノメタチザワ","prefecture_code":3},"0061":{"zip_code":"0210061","prefecture":"岩手県","prefecture_kana":"イワテケン","city":"一関市","city_kana":"イチノセキシ","town":"山目館","town_kana":"ヤマノメタテ","prefecture_code":3},"0062":{"zip_code":"0210062","prefecture":"岩手県","prefecture_kana":"イワテケン","city":"一関市","city_kana":"イチノセキシ","town":"山目寺前","town_kana":"ヤマノメテラマエ","prefecture_code":3},"0055":{"zip_code":"0210055","prefecture":"岩手県","prefecture_kana":"イワテケン","city":"一関市","city_kana":"イチノセキシ","town":"山目泥田","town_kana":"ヤマノメドロタ","prefecture_code":3},"0056":{"zip_code":"0210056","prefecture":"岩手県","prefecture_kana":"イワテケン","city":"一関市","city_kana":"イチノセキシ","town":"山目泥田山下","town_kana":"ヤマノメドロタヤマシタ","prefecture_code":3},"0053":{"zip_code":"0210053","prefecture":"岩手県","prefecture_kana":"イワテケン","city":"一関市","city_kana":"イチノセキシ","town":"山目中野","town_kana":"ヤマノメナカノ","prefecture_code":3},"0026":{"zip_code":"0210026","prefecture":"岩手県","prefecture_kana":"イワテケン","city":"一関市","city_kana":"イチノセキシ","town":"山目前田","town_kana":"ヤマノメマエダ","prefecture_code":3},"0025":{"zip_code":"0210025","prefecture":"岩手県","prefecture_kana":"イワテケン","city":"一関市","city_kana":"イチノセキシ","town":"山目向野","town_kana":"ヤマノメムカイノ","prefecture_code":3},"0011":{"zip_code":"0210011","prefecture":"岩手県","prefecture_kana":"イワテケン","city":"一関市","city_kana":"イチノセキシ","town":"山目町","town_kana":"ヤマノメマチ","prefecture_code":3},"0805":{"zip_code":"0210805","prefecture":"岩手県","prefecture_kana":"イワテケン","city":"一関市","city_kana":"イチノセキシ","town":"豊町","town_kana":"ユタカマチ","prefecture_code":3},"0815":{"zip_code":"0210815","prefecture":"岩手県","prefecture_kana":"イワテケン","city":"一関市","city_kana":"イチノセキシ","town":"要害","town_kana":"ヨウガイ","prefecture_code":3},"0014":{"zip_code":"0210014","prefecture":"岩手県","prefecture_kana":"イワテケン","city":"一関市","city_kana":"イチノセキシ","town":"蘭梅町","town_kana":"ランバイチョウ","prefecture_code":3}}