{"0000":{"zip_code":"0220000","prefecture":"岩手県","prefecture_kana":"イワテケン","city":"大船渡市","city_kana":"オオフナトシ","town":"","town_kana":"","prefecture_code":3},"0007":{"zip_code":"0220007","prefecture":"岩手県","prefecture_kana":"イワテケン","city":"大船渡市","city_kana":"オオフナトシ","town":"赤崎町","town_kana":"アカサキチョウ","prefecture_code":3},"0004":{"zip_code":"0220004","prefecture":"岩手県","prefecture_kana":"イワテケン","city":"大船渡市","city_kana":"オオフナトシ","town":"猪川町","town_kana":"イカワチョウ","prefecture_code":3},"0002":{"zip_code":"0220002","prefecture":"岩手県","prefecture_kana":"イワテケン","city":"大船渡市","city_kana":"オオフナトシ","town":"大船渡町","town_kana":"オオフナトチョウ","prefecture_code":3},"0003":{"zip_code":"0220003","prefecture":"岩手県","prefecture_kana":"イワテケン","city":"大船渡市","city_kana":"オオフナトシ","town":"盛町","town_kana":"サカリチョウ","prefecture_code":3},"0101":{"zip_code":"0220101","prefecture":"岩手県","prefecture_kana":"イワテケン","city":"大船渡市","city_kana":"オオフナトシ","town":"三陸町越喜来","town_kana":"サンリクチョウオキライ","prefecture_code":3},"0102":{"zip_code":"0220102","prefecture":"岩手県","prefecture_kana":"イワテケン","city":"大船渡市","city_kana":"オオフナトシ","town":"三陸町吉浜","town_kana":"サンリクチョウヨシハマ","prefecture_code":3},"0211":{"zip_code":"0220211","prefecture":"岩手県","prefecture_kana":"イワテケン","city":"大船渡市","city_kana":"オオフナトシ","town":"三陸町綾里","town_kana":"サンリクチョウリョウリ","prefecture_code":3},"0006":{"zip_code":"0220006","prefecture":"岩手県","prefecture_kana":"イワテケン","city":"大船渡市","city_kana":"オオフナトシ","town":"立根町","town_kana":"タッコンチョウ","prefecture_code":3},"0005":{"zip_code":"0220005","prefecture":"岩手県","prefecture_kana":"イワテケン","city":"大船渡市","city_kana":"オオフナトシ","town":"日頃市町","town_kana":"ヒコロイチチョウ","prefecture_code":3},"0001":{"zip_code":"0220001","prefecture":"岩手県","prefecture_kana":"イワテケン","city":"大船渡市","city_kana":"オオフナトシ","town":"末崎町","town_kana":"マッサキチョウ","prefecture_code":3}}