{"0000":{"zip_code":"0230000","prefecture":"岩手県","prefecture_kana":"イワテケン","city":"奥州市","city_kana":"オウシュウシ","town":"","town_kana":"","prefecture_code":3},"0402":{"zip_code":"0230402","prefecture":"岩手県","prefecture_kana":"イワテケン","city":"奥州市","city_kana":"オウシュウシ","town":"胆沢区小山","town_kana":"イサワクオヤマ","prefecture_code":3},"0401":{"zip_code":"0230401","prefecture":"岩手県","prefecture_kana":"イワテケン","city":"奥州市","city_kana":"オウシュウシ","town":"胆沢区南都田","town_kana":"イサワクナツタ","prefecture_code":3},"0403":{"zip_code":"0230403","prefecture":"岩手県","prefecture_kana":"イワテケン","city":"奥州市","city_kana":"オウシュウシ","town":"胆沢区若柳","town_kana":"イサワクワカヤナギ","prefecture_code":3},"1761":{"zip_code":"0231761","prefecture":"岩手県","prefecture_kana":"イワテケン","city":"奥州市","city_kana":"オウシュウシ","town":"江刺区伊手","town_kana":"エサシクイデ","prefecture_code":3},"1132":{"zip_code":"0231132","prefecture":"岩手県","prefecture_kana":"イワテケン","city":"奥州市","city_kana":"オウシュウシ","town":"江刺区稲瀬","town_kana":"エサシクイナセ","prefecture_code":3},"1101":{"zip_code":"0231101","prefecture":"岩手県","prefecture_kana":"イワテケン","city":"奥州市","city_kana":"オウシュウシ","town":"江刺区岩谷堂","town_kana":"エサシクイワヤドウ","prefecture_code":3},"1111":{"zip_code":"0231111","prefecture":"岩手県","prefecture_kana":"イワテケン","city":"奥州市","city_kana":"オウシュウシ","town":"江刺区大通り","town_kana":"エサシクオオドオリ","prefecture_code":3},"1131":{"zip_code":"0231131","prefecture":"岩手県","prefecture_kana":"イワテケン","city":"奥州市","city_kana":"オウシュウシ","town":"江刺区愛宕","town_kana":"エサシクオダキ","prefecture_code":3},"1121":{"zip_code":"0231121","prefecture":"岩手県","prefecture_kana":"イワテケン","city":"奥州市","city_kana":"オウシュウシ","town":"江刺区男石","town_kana":"エサシクオトコイシ","prefecture_code":3},"1114":{"zip_code":"0231114","prefecture":"岩手県","prefecture_kana":"イワテケン","city":"奥州市","city_kana":"オウシュウシ","town":"江刺区川原町","town_kana":"エサシクカワラマチ","prefecture_code":3},"1118":{"zip_code":"0231118","prefecture":"岩手県","prefecture_kana":"イワテケン","city":"奥州市","city_kana":"オウシュウシ","town":"江刺区栄町","town_kana":"エサシクサカエチョウ","prefecture_code":3},"1105":{"zip_code":"0231105","prefecture":"岩手県","prefecture_kana":"イワテケン","city":"奥州市","city_kana":"オウシュウシ","town":"江刺区杉ノ町","town_kana":"エサシクスギノマチ","prefecture_code":3},"1125":{"zip_code":"0231125","prefecture":"岩手県","prefecture_kana":"イワテケン","city":"奥州市","city_kana":"オウシュウシ","town":"江刺区銭町","town_kana":"エサシクゼニマチ","prefecture_code":3},"1122":{"zip_code":"0231122","prefecture":"岩手県","prefecture_kana":"イワテケン","city":"奥州市","city_kana":"オウシュウシ","town":"江刺区舘山","town_kana":"エサシクタテヤマ","prefecture_code":3},"1134":{"zip_code":"0231134","prefecture":"岩手県","prefecture_kana":"イワテケン","city":"奥州市","city_kana":"オウシュウシ","town":"江刺区玉里","town_kana":"エサシクタマサト","prefecture_code":3},"0171":{"zip_code":"0230171","prefecture":"岩手県","prefecture_kana":"イワテケン","city":"奥州市","city_kana":"オウシュウシ","town":"江刺区田原","town_kana":"エサシクタワラ","prefecture_code":3},"1116":{"zip_code":"0231116","prefecture":"岩手県","prefecture_kana":"イワテケン","city":"奥州市","city_kana":"オウシュウシ","town":"江刺区重染寺","town_kana":"エサシクチョウゼンジ","prefecture_code":3},"1104":{"zip_code":"0231104","prefecture":"岩手県","prefecture_kana":"イワテケン","city":"奥州市","city_kana":"オウシュウシ","town":"江刺区豊田町","town_kana":"エサシクトヨタチョウ","prefecture_code":3},"1113":{"zip_code":"0231113","prefecture":"岩手県","prefecture_kana":"イワテケン","city":"奥州市","city_kana":"オウシュウシ","town":"江刺区中町","town_kana":"エサシクナカマチ","prefecture_code":3},"1103":{"zip_code":"0231103","prefecture":"岩手県","prefecture_kana":"イワテケン","city":"奥州市","city_kana":"オウシュウシ","town":"江刺区西大通り","town_kana":"エサシクニシオオドオリ","prefecture_code":3},"1133":{"zip_code":"0231133","prefecture":"岩手県","prefecture_kana":"イワテケン","city":"奥州市","city_kana":"オウシュウシ","town":"江刺区広瀬","town_kana":"エサシクヒロセ","prefecture_code":3},"1762":{"zip_code":"0231762","prefecture":"岩手県","prefecture_kana":"イワテケン","city":"奥州市","city_kana":"オウシュウシ","town":"江刺区藤里","town_kana":"エサシクフジサト","prefecture_code":3},"1115":{"zip_code":"0231115","prefecture":"岩手県","prefecture_kana":"イワテケン","city":"奥州市","city_kana":"オウシュウシ","town":"江刺区本町","town_kana":"エサシクホンチョウ","prefecture_code":3},"1123":{"zip_code":"0231123","prefecture":"岩手県","prefecture_kana":"イワテケン","city":"奥州市","city_kana":"オウシュウシ","town":"江刺区前田町","town_kana":"エサシクマエダチョウ","prefecture_code":3},"1112":{"zip_code":"0231112","prefecture":"岩手県","prefecture_kana":"イワテケン","city":"奥州市","city_kana":"オウシュウシ","town":"江刺区南大通り","town_kana":"エサシクミナミオオドオリ","prefecture_code":3},"1117":{"zip_code":"0231117","prefecture":"岩手県","prefecture_kana":"イワテケン","city":"奥州市","city_kana":"オウシュウシ","town":"江刺区南町","town_kana":"エサシクミナミマチ","prefecture_code":3},"1124":{"zip_code":"0231124","prefecture":"岩手県","prefecture_kana":"イワテケン","city":"奥州市","city_kana":"オウシュウシ","town":"江刺区六日町","town_kana":"エサシクムイカマチ","prefecture_code":3},"1341":{"zip_code":"0231341","prefecture":"岩手県","prefecture_kana":"イワテケン","city":"奥州市","city_kana":"オウシュウシ","town":"江刺区梁川","town_kana":"エサシクヤナガワ","prefecture_code":3},"1102":{"zip_code":"0231102","prefecture":"岩手県","prefecture_kana":"イワテケン","city":"奥州市","city_kana":"オウシュウシ","town":"江刺区八日町","town_kana":"エサシクヨウカマチ","prefecture_code":3},"1551":{"zip_code":"0231551","prefecture":"岩手県","prefecture_kana":"イワテケン","city":"奥州市","city_kana":"オウシュウシ","town":"江刺区米里","town_kana":"エサシクヨネサト","prefecture_code":3},"0035":{"zip_code":"0230035","prefecture":"岩手県","prefecture_kana":"イワテケン","city":"奥州市","city_kana":"オウシュウシ","town":"水沢区赤土田","town_kana":"ミズサワクアカツチダ","prefecture_code":3},"0041":{"zip_code":"0230041","prefecture":"岩手県","prefecture_kana":"イワテケン","city":"奥州市","city_kana":"オウシュウシ","town":"水沢区秋葉町","town_kana":"ミズサワクアキバチョウ","prefecture_code":3},"0823":{"zip_code":"0230823","prefecture":"岩手県","prefecture_kana":"イワテケン","city":"奥州市","city_kana":"オウシュウシ","town":"水沢区朝日町","town_kana":"ミズサワクアサヒチョウ","prefecture_code":3},"0818":{"zip_code":"0230818","prefecture":"岩手県","prefecture_kana":"イワテケン","city":"奥州市","city_kana":"オウシュウシ","town":"水沢区東町","town_kana":"ミズサワクアズマチョウ","prefecture_code":3},"0831":{"zip_code":"0230831","prefecture":"岩手県","prefecture_kana":"イワテケン","city":"奥州市","city_kana":"オウシュウシ","town":"水沢区姉体町","town_kana":"ミズサワクアネタイチョウ","prefecture_code":3},"0824":{"zip_code":"0230824","prefecture":"岩手県","prefecture_kana":"イワテケン","city":"奥州市","city_kana":"オウシュウシ","town":"水沢区泉町","town_kana":"ミズサワクイズミチョウ","prefecture_code":3},"0013":{"zip_code":"0230013","prefecture":"岩手県","prefecture_kana":"イワテケン","city":"奥州市","city_kana":"オウシュウシ","town":"水沢区一本柳","town_kana":"ミズサワクイッポンヤナギ","prefecture_code":3},"0011":{"zip_code":"0230011","prefecture":"岩手県","prefecture_kana":"イワテケン","city":"奥州市","city_kana":"オウシュウシ","town":"水沢区稲荷田","town_kana":"ミズサワクイナリダ","prefecture_code":3},"0898":{"zip_code":"0230898","prefecture":"岩手県","prefecture_kana":"イワテケン","city":"奥州市","city_kana":"オウシュウシ","town":"水沢区後田","town_kana":"ミズサワクウシロダ","prefecture_code":3},"0057":{"zip_code":"0230057","prefecture":"岩手県","prefecture_kana":"イワテケン","city":"奥州市","city_kana":"オウシュウシ","town":"水沢区上町","town_kana":"ミズサワクウワマチ","prefecture_code":3},"0854":{"zip_code":"0230854","prefecture":"岩手県","prefecture_kana":"イワテケン","city":"奥州市","city_kana":"オウシュウシ","town":"水沢区大鐘町","town_kana":"ミズサワクオオガネチョウ","prefecture_code":3},"0084":{"zip_code":"0230084","prefecture":"岩手県","prefecture_kana":"イワテケン","city":"奥州市","city_kana":"オウシュウシ","town":"水沢区大上","town_kana":"ミズサワクオオガミ","prefecture_code":3},"0053":{"zip_code":"0230053","prefecture":"岩手県","prefecture_kana":"イワテケン","city":"奥州市","city_kana":"オウシュウシ","town":"水沢区大手町","town_kana":"ミズサワクオオテマチ","prefecture_code":3},"0867":{"zip_code":"0230867","prefecture":"岩手県","prefecture_kana":"イワテケン","city":"奥州市","city_kana":"オウシュウシ","town":"水沢区大橋","town_kana":"ミズサワクオオハシ","prefecture_code":3},"0802":{"zip_code":"0230802","prefecture":"岩手県","prefecture_kana":"イワテケン","city":"奥州市","city_kana":"オウシュウシ","town":"水沢区大畑小路","town_kana":"ミズサワクオオバタケコウジ","prefecture_code":3},"0045":{"zip_code":"0230045","prefecture":"岩手県","prefecture_kana":"イワテケン","city":"奥州市","city_kana":"オウシュウシ","town":"水沢区大町","town_kana":"ミズサワクオオマチ","prefecture_code":3},"0085":{"zip_code":"0230085","prefecture":"岩手県","prefecture_kana":"イワテケン","city":"奥州市","city_kana":"オウシュウシ","town":"水沢区踊子","town_kana":"ミズサワクオドリコ","prefecture_code":3},"0001":{"zip_code":"0230001","prefecture":"岩手県","prefecture_kana":"イワテケン","city":"奥州市","city_kana":"オウシュウシ","town":"水沢区卸町","town_kana":"ミズサワクオロシマチ","prefecture_code":3},"0021":{"zip_code":"0230021","prefecture":"岩手県","prefecture_kana":"イワテケン","city":"奥州市","city_kana":"オウシュウシ","town":"水沢区欠ノ下","town_kana":"ミズサワクカケノシタ","prefecture_code":3},"0051":{"zip_code":"0230051","prefecture":"岩手県","prefecture_kana":"イワテケン","city":"奥州市","city_kana":"オウシュウシ","town":"水沢区勝手町","town_kana":"ミズサワクカッテチョウ","prefecture_code":3},"0892":{"zip_code":"0230892","prefecture":"岩手県","prefecture_kana":"イワテケン","city":"奥州市","city_kana":"オウシュウシ","town":"水沢区釜田","town_kana":"ミズサワクカマタ","prefecture_code":3},"0833":{"zip_code":"0230833","prefecture":"岩手県","prefecture_kana":"イワテケン","city":"奥州市","city_kana":"オウシュウシ","town":"水沢区上姉体","town_kana":"ミズサワクカミアネタイ","prefecture_code":3},"0052":{"zip_code":"0230052","prefecture":"岩手県","prefecture_kana":"イワテケン","city":"奥州市","city_kana":"オウシュウシ","town":"水沢区搦手丁","town_kana":"ミズサワクカラメテチョウ","prefecture_code":3},"0034":{"zip_code":"0230034","prefecture":"岩手県","prefecture_kana":"イワテケン","city":"奥州市","city_kana":"オウシュウシ","town":"水沢区川口町","town_kana":"ミズサワクカワグチマチ","prefecture_code":3},"0863":{"zip_code":"0230863","prefecture":"岩手県","prefecture_kana":"イワテケン","city":"奥州市","city_kana":"オウシュウシ","town":"水沢区川端","town_kana":"ミズサワクカワバタ","prefecture_code":3},"0046":{"zip_code":"0230046","prefecture":"岩手県","prefecture_kana":"イワテケン","city":"奥州市","city_kana":"オウシュウシ","town":"水沢区川原小路","town_kana":"ミズサワクカワラコウジ","prefecture_code":3},"0031":{"zip_code":"0230031","prefecture":"岩手県","prefecture_kana":"イワテケン","city":"奥州市","city_kana":"オウシュウシ","town":"水沢区北丑沢","town_kana":"ミズサワクキタウシザワ","prefecture_code":3},"0036":{"zip_code":"0230036","prefecture":"岩手県","prefecture_kana":"イワテケン","city":"奥州市","city_kana":"オウシュウシ","town":"水沢区北栗林","town_kana":"ミズサワクキタクリバヤシ","prefecture_code":3},"0881":{"zip_code":"0230881","prefecture":"岩手県","prefecture_kana":"イワテケン","city":"奥州市","city_kana":"オウシュウシ","town":"水沢区北田","town_kana":"ミズサワクキタダ","prefecture_code":3},"0092":{"zip_code":"0230092","prefecture":"岩手県","prefecture_kana":"イワテケン","city":"奥州市","city_kana":"オウシュウシ","town":"水沢区北半郷","town_kana":"ミズサワクキタハンゴウ","prefecture_code":3},"0054":{"zip_code":"0230054","prefecture":"岩手県","prefecture_kana":"イワテケン","city":"奥州市","city_kana":"オウシュウシ","town":"水沢区吉小路","town_kana":"ミズサワクキチコウジ","prefecture_code":3},"0056":{"zip_code":"0230056","prefecture":"岩手県","prefecture_kana":"イワテケン","city":"奥州市","city_kana":"オウシュウシ","town":"水沢区久田","town_kana":"ミズサワクキュウデン","prefecture_code":3},"0101":{"zip_code":"0230101","prefecture":"岩手県","prefecture_kana":"イワテケン","city":"奥州市","city_kana":"オウシュウシ","town":"水沢区黒石町","town_kana":"ミズサワククロイシチョウ","prefecture_code":3},"0071":{"zip_code":"0230071","prefecture":"岩手県","prefecture_kana":"イワテケン","city":"奥州市","city_kana":"オウシュウシ","town":"水沢区黒子","town_kana":"ミズサワククロコ","prefecture_code":3},"0077":{"zip_code":"0230077","prefecture":"岩手県","prefecture_kana":"イワテケン","city":"奥州市","city_kana":"オウシュウシ","town":"水沢区桑畑","town_kana":"ミズサワククワバタ","prefecture_code":3},"0062":{"zip_code":"0230062","prefecture":"岩手県","prefecture_kana":"イワテケン","city":"奥州市","city_kana":"オウシュウシ","town":"水沢区小石田","town_kana":"ミズサワクコイシダ","prefecture_code":3},"0025":{"zip_code":"0230025","prefecture":"岩手県","prefecture_kana":"イワテケン","city":"奥州市","city_kana":"オウシュウシ","town":"水沢区高網","town_kana":"ミズサワクコウアミ","prefecture_code":3},"0087":{"zip_code":"0230087","prefecture":"岩手県","prefecture_kana":"イワテケン","city":"奥州市","city_kana":"オウシュウシ","town":"水沢区高谷宿","town_kana":"ミズサワクコウヤシュク","prefecture_code":3},"0055":{"zip_code":"0230055","prefecture":"岩手県","prefecture_kana":"イワテケン","city":"奥州市","city_kana":"オウシュウシ","town":"水沢区虚空蔵小路","town_kana":"ミズサワクコクゾウコウジ","prefecture_code":3},"0074":{"zip_code":"0230074","prefecture":"岩手県","prefecture_kana":"イワテケン","city":"奥州市","city_kana":"オウシュウシ","town":"水沢区極楽","town_kana":"ミズサワクゴクラク","prefecture_code":3},"0015":{"zip_code":"0230015","prefecture":"岩手県","prefecture_kana":"イワテケン","city":"奥州市","city_kana":"オウシュウシ","town":"水沢区五千刈","town_kana":"ミズサワクゴセンガリ","prefecture_code":3},"0018":{"zip_code":"0230018","prefecture":"岩手県","prefecture_kana":"イワテケン","city":"奥州市","city_kana":"オウシュウシ","town":"水沢区小中","town_kana":"ミズサワクコナカ","prefecture_code":3},"0094":{"zip_code":"0230094","prefecture":"岩手県","prefecture_kana":"イワテケン","city":"奥州市","city_kana":"オウシュウシ","town":"水沢区五輪","town_kana":"ミズサワクゴリン","prefecture_code":3},"0012":{"zip_code":"0230012","prefecture":"岩手県","prefecture_kana":"イワテケン","city":"奥州市","city_kana":"オウシュウシ","town":"水沢区斉勝田","town_kana":"ミズサワクサイカツダ","prefecture_code":3},"0805":{"zip_code":"0230805","prefecture":"岩手県","prefecture_kana":"イワテケン","city":"奥州市","city_kana":"オウシュウシ","town":"水沢区斉の神","town_kana":"ミズサワクサイノカミ","prefecture_code":3},"0897":{"zip_code":"0230897","prefecture":"岩手県","prefecture_kana":"イワテケン","city":"奥州市","city_kana":"オウシュウシ","town":"水沢区桜川","town_kana":"ミズサワクサクラカワ","prefecture_code":3},"0003":{"zip_code":"0230003","prefecture":"岩手県","prefecture_kana":"イワテケン","city":"奥州市","city_kana":"オウシュウシ","town":"水沢区佐倉河","town_kana":"ミズサワクサクラカワ","prefecture_code":3},"0865":{"zip_code":"0230865","prefecture":"岩手県","prefecture_kana":"イワテケン","city":"奥州市","city_kana":"オウシュウシ","town":"水沢区桜屋敷","town_kana":"ミズサワクサクラヤシキ","prefecture_code":3},"0872":{"zip_code":"0230872","prefecture":"岩手県","prefecture_kana":"イワテケン","city":"奥州市","city_kana":"オウシュウシ","town":"水沢区桜屋敷西","town_kana":"ミズサワクサクラヤシキニシ","prefecture_code":3},"0873":{"zip_code":"0230873","prefecture":"岩手県","prefecture_kana":"イワテケン","city":"奥州市","city_kana":"オウシュウシ","town":"水沢区笹森谷地","town_kana":"ミズサワクササモリヤチ","prefecture_code":3},"0026":{"zip_code":"0230026","prefecture":"岩手県","prefecture_kana":"イワテケン","city":"奥州市","city_kana":"オウシュウシ","town":"水沢区里鎗","town_kana":"ミズサワクサトヤリ","prefecture_code":3},"0044":{"zip_code":"0230044","prefecture":"岩手県","prefecture_kana":"イワテケン","city":"奥州市","city_kana":"オウシュウシ","town":"水沢区三本木","town_kana":"ミズサワクサンボンギ","prefecture_code":3},"0014":{"zip_code":"0230014","prefecture":"岩手県","prefecture_kana":"イワテケン","city":"奥州市","city_kana":"オウシュウシ","town":"水沢区地蔵田","town_kana":"ミズサワクジゾウデン","prefecture_code":3},"0017":{"zip_code":"0230017","prefecture":"岩手県","prefecture_kana":"イワテケン","city":"奥州市","city_kana":"オウシュウシ","town":"水沢区渋田","town_kana":"ミズサワクシブタ","prefecture_code":3},"0063":{"zip_code":"0230063","prefecture":"岩手県","prefecture_kana":"イワテケン","city":"奥州市","city_kana":"オウシュウシ","town":"水沢区聖天","town_kana":"ミズサワクショウテン","prefecture_code":3},"0073":{"zip_code":"0230073","prefecture":"岩手県","prefecture_kana":"イワテケン","city":"奥州市","city_kana":"オウシュウシ","town":"水沢区寺領","town_kana":"ミズサワクジリョウ","prefecture_code":3},"0807":{"zip_code":"0230807","prefecture":"岩手県","prefecture_kana":"イワテケン","city":"奥州市","city_kana":"オウシュウシ","town":"水沢区新小路","town_kana":"ミズサワクシンコウジ","prefecture_code":3},"0841":{"zip_code":"0230841","prefecture":"岩手県","prefecture_kana":"イワテケン","city":"奥州市","city_kana":"オウシュウシ","town":"水沢区真城","town_kana":"ミズサワクシンジョウ","prefecture_code":3},"0842":{"zip_code":"0230842","prefecture":"岩手県","prefecture_kana":"イワテケン","city":"奥州市","city_kana":"オウシュウシ","town":"水沢区真城が丘","town_kana":"ミズサワクシンジョウガオカ","prefecture_code":3},"0821":{"zip_code":"0230821","prefecture":"岩手県","prefecture_kana":"イワテケン","city":"奥州市","city_kana":"オウシュウシ","town":"水沢区神明町","town_kana":"ミズサワクシンメイチョウ","prefecture_code":3},"0095":{"zip_code":"0230095","prefecture":"岩手県","prefecture_kana":"イワテケン","city":"奥州市","city_kana":"オウシュウシ","town":"水沢区雀田","town_kana":"ミズサワクスズメダ","prefecture_code":3},"0866":{"zip_code":"0230866","prefecture":"岩手県","prefecture_kana":"イワテケン","city":"奥州市","city_kana":"オウシュウシ","town":"水沢区堰合","town_kana":"ミズサワクセキアイ","prefecture_code":3},"0083":{"zip_code":"0230083","prefecture":"岩手県","prefecture_kana":"イワテケン","city":"奥州市","city_kana":"オウシュウシ","town":"水沢区前郷","town_kana":"ミズサワクゼンゴウ","prefecture_code":3},"0877":{"zip_code":"0230877","prefecture":"岩手県","prefecture_kana":"イワテケン","city":"奥州市","city_kana":"オウシュウシ","town":"水沢区袖谷地","town_kana":"ミズサワクソデヤチ","prefecture_code":3},"0871":{"zip_code":"0230871","prefecture":"岩手県","prefecture_kana":"イワテケン","city":"奥州市","city_kana":"オウシュウシ","town":"水沢区外谷地","town_kana":"ミズサワクソトヤチ","prefecture_code":3},"0081":{"zip_code":"0230081","prefecture":"岩手県","prefecture_kana":"イワテケン","city":"奥州市","city_kana":"オウシュウシ","town":"水沢区橇町","town_kana":"ミズサワクソリマチ","prefecture_code":3},"0827":{"zip_code":"0230827","prefecture":"岩手県","prefecture_kana":"イワテケン","city":"奥州市","city_kana":"オウシュウシ","town":"水沢区太日通り","town_kana":"ミズサワクタイニチドオリ","prefecture_code":3},"0825":{"zip_code":"0230825","prefecture":"岩手県","prefecture_kana":"イワテケン","city":"奥州市","city_kana":"オウシュウシ","town":"水沢区台町","town_kana":"ミズサワクダイマチ","prefecture_code":3},"0894":{"zip_code":"0230894","prefecture":"岩手県","prefecture_kana":"イワテケン","city":"奥州市","city_kana":"オウシュウシ","town":"水沢区大明神","town_kana":"ミズサワクダイミョウジン","prefecture_code":3},"0032":{"zip_code":"0230032","prefecture":"岩手県","prefecture_kana":"イワテケン","city":"奥州市","city_kana":"オウシュウシ","town":"水沢区多賀","town_kana":"ミズサワクタガ","prefecture_code":3},"0889":{"zip_code":"0230889","prefecture":"岩手県","prefecture_kana":"イワテケン","city":"奥州市","city_kana":"オウシュウシ","town":"水沢区高屋敷","town_kana":"ミズサワクタカヤシキ","prefecture_code":3},"0091":{"zip_code":"0230091","prefecture":"岩手県","prefecture_kana":"イワテケン","city":"奥州市","city_kana":"オウシュウシ","town":"水沢区高山","town_kana":"ミズサワクタカヤマ","prefecture_code":3},"0891":{"zip_code":"0230891","prefecture":"岩手県","prefecture_kana":"イワテケン","city":"奥州市","city_kana":"オウシュウシ","town":"水沢区内匠田","town_kana":"ミズサワクタクミダ","prefecture_code":3},"0803":{"zip_code":"0230803","prefecture":"岩手県","prefecture_kana":"イワテケン","city":"奥州市","city_kana":"オウシュウシ","town":"水沢区田小路","town_kana":"ミズサワクタコウジ","prefecture_code":3},"0047":{"zip_code":"0230047","prefecture":"岩手県","prefecture_kana":"イワテケン","city":"奥州市","city_kana":"オウシュウシ","town":"水沢区立町","town_kana":"ミズサワクタチマチ","prefecture_code":3},"0895":{"zip_code":"0230895","prefecture":"岩手県","prefecture_kana":"イワテケン","city":"奥州市","city_kana":"オウシュウシ","town":"水沢区足袋針","town_kana":"ミズサワクタビハリ","prefecture_code":3},"0019":{"zip_code":"0230019","prefecture":"岩手県","prefecture_kana":"イワテケン","city":"奥州市","city_kana":"オウシュウシ","town":"水沢区築舘","town_kana":"ミズサワクツキダテ","prefecture_code":3},"0076":{"zip_code":"0230076","prefecture":"岩手県","prefecture_kana":"イワテケン","city":"奥州市","city_kana":"オウシュウシ","town":"水沢区造道","town_kana":"ミズサワクツクリミチ","prefecture_code":3},"0876":{"zip_code":"0230876","prefecture":"岩手県","prefecture_kana":"イワテケン","city":"奥州市","city_kana":"オウシュウシ","town":"水沢区鶴淵","town_kana":"ミズサワクツルブチ","prefecture_code":3},"0811":{"zip_code":"0230811","prefecture":"岩手県","prefecture_kana":"イワテケン","city":"奥州市","city_kana":"オウシュウシ","town":"水沢区寺小路","town_kana":"ミズサワクテラコウジ","prefecture_code":3},"0812":{"zip_code":"0230812","prefecture":"岩手県","prefecture_kana":"イワテケン","city":"奥州市","city_kana":"オウシュウシ","town":"水沢区寺脇","town_kana":"ミズサワクテラワキ","prefecture_code":3},"0815":{"zip_code":"0230815","prefecture":"岩手県","prefecture_kana":"イワテケン","city":"奥州市","city_kana":"オウシュウシ","town":"水沢区天文台通り","town_kana":"ミズサワクテンモンダイドオリ","prefecture_code":3},"0064":{"zip_code":"0230064","prefecture":"岩手県","prefecture_kana":"イワテケン","city":"奥州市","city_kana":"オウシュウシ","town":"水沢区土器田","town_kana":"ミズサワクドキタ","prefecture_code":3},"0857":{"zip_code":"0230857","prefecture":"岩手県","prefecture_kana":"イワテケン","city":"奥州市","city_kana":"オウシュウシ","town":"水沢区中上野町","town_kana":"ミズサワクナカウワノチョウ","prefecture_code":3},"0022":{"zip_code":"0230022","prefecture":"岩手県","prefecture_kana":"イワテケン","city":"奥州市","city_kana":"オウシュウシ","town":"水沢区中城","town_kana":"ミズサワクナカシロ","prefecture_code":3},"0826":{"zip_code":"0230826","prefecture":"岩手県","prefecture_kana":"イワテケン","city":"奥州市","city_kana":"オウシュウシ","town":"水沢区中田町","town_kana":"ミズサワクナカダチョウ","prefecture_code":3},"0813":{"zip_code":"0230813","prefecture":"岩手県","prefecture_kana":"イワテケン","city":"奥州市","city_kana":"オウシュウシ","town":"水沢区中町","town_kana":"ミズサワクナカマチ","prefecture_code":3},"0061":{"zip_code":"0230061","prefecture":"岩手県","prefecture_kana":"イワテケン","city":"奥州市","city_kana":"オウシュウシ","town":"水沢区長町","town_kana":"ミズサワクナガマチ","prefecture_code":3},"0024":{"zip_code":"0230024","prefecture":"岩手県","prefecture_kana":"イワテケン","city":"奥州市","city_kana":"オウシュウシ","town":"水沢区名残","town_kana":"ミズサワクナゴリ","prefecture_code":3},"0856":{"zip_code":"0230856","prefecture":"岩手県","prefecture_kana":"イワテケン","city":"奥州市","city_kana":"オウシュウシ","town":"水沢区西上野町","town_kana":"ミズサワクニシウワノチョウ","prefecture_code":3},"0896":{"zip_code":"0230896","prefecture":"岩手県","prefecture_kana":"イワテケン","city":"奥州市","city_kana":"オウシュウシ","town":"水沢区西光田","town_kana":"ミズサワクニシコウデン","prefecture_code":3},"0885":{"zip_code":"0230885","prefecture":"岩手県","prefecture_kana":"イワテケン","city":"奥州市","city_kana":"オウシュウシ","town":"水沢区西田","town_kana":"ミズサワクニシダ","prefecture_code":3},"0816":{"zip_code":"0230816","prefecture":"岩手県","prefecture_kana":"イワテケン","city":"奥州市","city_kana":"オウシュウシ","town":"水沢区西町","town_kana":"ミズサワクニシマチ","prefecture_code":3},"0067":{"zip_code":"0230067","prefecture":"岩手県","prefecture_kana":"イワテケン","city":"奥州市","city_kana":"オウシュウシ","town":"水沢区二反田","town_kana":"ミズサワクニタンダ","prefecture_code":3},"0102":{"zip_code":"0230102","prefecture":"岩手県","prefecture_kana":"イワテケン","city":"奥州市","city_kana":"オウシュウシ","town":"水沢区羽田町駅東","town_kana":"ミズサワクハダチョウエキヒガシ","prefecture_code":3},"0104":{"zip_code":"0230104","prefecture":"岩手県","prefecture_kana":"イワテケン","city":"奥州市","city_kana":"オウシュウシ","town":"水沢区羽田町駅前","town_kana":"ミズサワクハダチョウエキマエ","prefecture_code":3},"0103":{"zip_code":"0230103","prefecture":"岩手県","prefecture_kana":"イワテケン","city":"奥州市","city_kana":"オウシュウシ","town":"水沢区羽田町駅南","town_kana":"ミズサワクハダチョウエキミナミ","prefecture_code":3},"0106":{"zip_code":"0230106","prefecture":"岩手県","prefecture_kana":"イワテケン","city":"奥州市","city_kana":"オウシュウシ","town":"水沢区羽田町久保","town_kana":"ミズサワクハダチョウクボ","prefecture_code":3},"0105":{"zip_code":"0230105","prefecture":"岩手県","prefecture_kana":"イワテケン","city":"奥州市","city_kana":"オウシュウシ","town":"水沢区羽田町宝生","town_kana":"ミズサワクハダチョウホウショウ","prefecture_code":3},"0107":{"zip_code":"0230107","prefecture":"岩手県","prefecture_kana":"イワテケン","city":"奥州市","city_kana":"オウシュウシ","town":"水沢区羽田町宝柳木","town_kana":"ミズサワクハダチョウホウリュウギ","prefecture_code":3},"0108":{"zip_code":"0230108","prefecture":"岩手県","prefecture_kana":"イワテケン","city":"奥州市","city_kana":"オウシュウシ","town":"水沢区羽田町向畑","town_kana":"ミズサワクハダチョウムカイハタ","prefecture_code":3},"0832":{"zip_code":"0230832","prefecture":"岩手県","prefecture_kana":"イワテケン","city":"奥州市","city_kana":"オウシュウシ","town":"水沢区羽田町","town_kana":"ミズサワクハダチョウ","prefecture_code":3},"0132":{"zip_code":"0230132","prefecture":"岩手県","prefecture_kana":"イワテケン","city":"奥州市","city_kana":"オウシュウシ","town":"水沢区羽田町","town_kana":"ミズサワクハダチョウ","prefecture_code":3},"0888":{"zip_code":"0230888","prefecture":"岩手県","prefecture_kana":"イワテケン","city":"奥州市","city_kana":"オウシュウシ","town":"水沢区八反田","town_kana":"ミズサワクハッタンダ","prefecture_code":3},"0023":{"zip_code":"0230023","prefecture":"岩手県","prefecture_kana":"イワテケン","city":"奥州市","city_kana":"オウシュウシ","town":"水沢区八反町","town_kana":"ミズサワクハッタンマチ","prefecture_code":3},"0829":{"zip_code":"0230829","prefecture":"岩手県","prefecture_kana":"イワテケン","city":"奥州市","city_kana":"オウシュウシ","town":"水沢区花園町","town_kana":"ミズサワクハナゾノチョウ","prefecture_code":3},"0027":{"zip_code":"0230027","prefecture":"岩手県","prefecture_kana":"イワテケン","city":"奥州市","city_kana":"オウシュウシ","town":"水沢区幅下","town_kana":"ミズサワクハバシタ","prefecture_code":3},"0853":{"zip_code":"0230853","prefecture":"岩手県","prefecture_kana":"イワテケン","city":"奥州市","city_kana":"オウシュウシ","town":"水沢区東上野町","town_kana":"ミズサワクヒガシウワノチョウ","prefecture_code":3},"0828":{"zip_code":"0230828","prefecture":"岩手県","prefecture_kana":"イワテケン","city":"奥州市","city_kana":"オウシュウシ","town":"水沢区東大通り","town_kana":"ミズサワクヒガシオオドオリ","prefecture_code":3},"0822":{"zip_code":"0230822","prefecture":"岩手県","prefecture_kana":"イワテケン","city":"奥州市","city_kana":"オウシュウシ","town":"水沢区東中通り","town_kana":"ミズサワクヒガシナカドオリ","prefecture_code":3},"0082":{"zip_code":"0230082","prefecture":"岩手県","prefecture_kana":"イワテケン","city":"奥州市","city_kana":"オウシュウシ","town":"水沢区東半郷","town_kana":"ミズサワクヒガシハンゴウ","prefecture_code":3},"0808":{"zip_code":"0230808","prefecture":"岩手県","prefecture_kana":"イワテケン","city":"奥州市","city_kana":"オウシュウシ","town":"水沢区日高小路","town_kana":"ミズサワクヒタカコウジ","prefecture_code":3},"0806":{"zip_code":"0230806","prefecture":"岩手県","prefecture_kana":"イワテケン","city":"奥州市","city_kana":"オウシュウシ","town":"水沢区日高西","town_kana":"ミズサワクヒタカニシ","prefecture_code":3},"0016":{"zip_code":"0230016","prefecture":"岩手県","prefecture_kana":"イワテケン","city":"奥州市","city_kana":"オウシュウシ","town":"水沢区平沢","town_kana":"ミズサワクヒラサワ","prefecture_code":3},"0072":{"zip_code":"0230072","prefecture":"岩手県","prefecture_kana":"イワテケン","city":"奥州市","city_kana":"オウシュウシ","town":"水沢区樋渡","town_kana":"ミズサワクヒワタシ","prefecture_code":3},"0862":{"zip_code":"0230862","prefecture":"岩手県","prefecture_kana":"イワテケン","city":"奥州市","city_kana":"オウシュウシ","town":"水沢区福吉町","town_kana":"ミズサワクフクヨシチョウ","prefecture_code":3},"0814":{"zip_code":"0230814","prefecture":"岩手県","prefecture_kana":"イワテケン","city":"奥州市","city_kana":"オウシュウシ","town":"水沢区袋町","town_kana":"ミズサワクフクロマチ","prefecture_code":3},"0882":{"zip_code":"0230882","prefecture":"岩手県","prefecture_kana":"イワテケン","city":"奥州市","city_kana":"オウシュウシ","town":"水沢区福原","town_kana":"ミズサワクフクワラ","prefecture_code":3},"0033":{"zip_code":"0230033","prefecture":"岩手県","prefecture_kana":"イワテケン","city":"奥州市","city_kana":"オウシュウシ","town":"水沢区不断町","town_kana":"ミズサワクフダンチョウ","prefecture_code":3},"0861":{"zip_code":"0230861","prefecture":"岩手県","prefecture_kana":"イワテケン","city":"奥州市","city_kana":"オウシュウシ","town":"水沢区星ガ丘町","town_kana":"ミズサワクホシガオカチョウ","prefecture_code":3},"0058":{"zip_code":"0230058","prefecture":"岩手県","prefecture_kana":"イワテケン","city":"奥州市","city_kana":"オウシュウシ","town":"水沢区堀ノ内","town_kana":"ミズサワクホリノウチ","prefecture_code":3},"0066":{"zip_code":"0230066","prefecture":"岩手県","prefecture_kana":"イワテケン","city":"奥州市","city_kana":"オウシュウシ","town":"水沢区前田袋","town_kana":"ミズサワクマエタブクロ","prefecture_code":3},"0884":{"zip_code":"0230884","prefecture":"岩手県","prefecture_kana":"イワテケン","city":"奥州市","city_kana":"オウシュウシ","town":"水沢区前谷地","town_kana":"ミズサワクマエヤチ","prefecture_code":3},"0883":{"zip_code":"0230883","prefecture":"岩手県","prefecture_kana":"イワテケン","city":"奥州市","city_kana":"オウシュウシ","town":"水沢区町裏","town_kana":"ミズサワクマチウラ","prefecture_code":3},"0093":{"zip_code":"0230093","prefecture":"岩手県","prefecture_kana":"イワテケン","city":"奥州市","city_kana":"オウシュウシ","town":"水沢区水神","town_kana":"ミズサワクミズガミ","prefecture_code":3},"0002":{"zip_code":"0230002","prefecture":"岩手県","prefecture_kana":"イワテケン","city":"奥州市","city_kana":"オウシュウシ","town":"水沢区水沢工業団地","town_kana":"ミズサワクミズサワコウギョウダンチ","prefecture_code":3},"0065":{"zip_code":"0230065","prefecture":"岩手県","prefecture_kana":"イワテケン","city":"奥州市","city_kana":"オウシュウシ","town":"水沢区水山","town_kana":"ミズサワクミズヤマ","prefecture_code":3},"0043":{"zip_code":"0230043","prefecture":"岩手県","prefecture_kana":"イワテケン","city":"奥州市","city_kana":"オウシュウシ","town":"水沢区道合","town_kana":"ミズサワクミチアイ","prefecture_code":3},"0037":{"zip_code":"0230037","prefecture":"岩手県","prefecture_kana":"イワテケン","city":"奥州市","city_kana":"オウシュウシ","town":"水沢区南丑沢","town_kana":"ミズサワクミナミウシザワ","prefecture_code":3},"0855":{"zip_code":"0230855","prefecture":"岩手県","prefecture_kana":"イワテケン","city":"奥州市","city_kana":"オウシュウシ","town":"水沢区南大鐘","town_kana":"ミズサワクミナミオオガネ","prefecture_code":3},"0851":{"zip_code":"0230851","prefecture":"岩手県","prefecture_kana":"イワテケン","city":"奥州市","city_kana":"オウシュウシ","town":"水沢区南町","town_kana":"ミズサワクミナミマチ","prefecture_code":3},"0886":{"zip_code":"0230886","prefecture":"岩手県","prefecture_kana":"イワテケン","city":"奥州市","city_kana":"オウシュウシ","town":"水沢区南矢中","town_kana":"ミズサワクミナミヤナカ","prefecture_code":3},"0075":{"zip_code":"0230075","prefecture":"岩手県","prefecture_kana":"イワテケン","city":"奥州市","city_kana":"オウシュウシ","town":"水沢区水ノ口","town_kana":"ミズサワクミノクチ","prefecture_code":3},"0817":{"zip_code":"0230817","prefecture":"岩手県","prefecture_kana":"イワテケン","city":"奥州市","city_kana":"オウシュウシ","town":"水沢区宮下町","town_kana":"ミズサワクミヤシタチョウ","prefecture_code":3},"0874":{"zip_code":"0230874","prefecture":"岩手県","prefecture_kana":"イワテケン","city":"奥州市","city_kana":"オウシュウシ","town":"水沢区見分森","town_kana":"ミズサワクミワケモリ","prefecture_code":3},"0096":{"zip_code":"0230096","prefecture":"岩手県","prefecture_kana":"イワテケン","city":"奥州市","city_kana":"オウシュウシ","town":"水沢区向田","town_kana":"ミズサワクムカイダ","prefecture_code":3},"0875":{"zip_code":"0230875","prefecture":"岩手県","prefecture_kana":"イワテケン","city":"奥州市","city_kana":"オウシュウシ","town":"水沢区森下","town_kana":"ミズサワクモリシタ","prefecture_code":3},"0086":{"zip_code":"0230086","prefecture":"岩手県","prefecture_kana":"イワテケン","city":"奥州市","city_kana":"オウシュウシ","town":"水沢区谷地中","town_kana":"ミズサワクヤチナカ","prefecture_code":3},"0804":{"zip_code":"0230804","prefecture":"岩手県","prefecture_kana":"イワテケン","city":"奥州市","city_kana":"オウシュウシ","town":"水沢区谷地明円","town_kana":"ミズサワクヤチミョウエン","prefecture_code":3},"0887":{"zip_code":"0230887","prefecture":"岩手県","prefecture_kana":"イワテケン","city":"奥州市","city_kana":"オウシュウシ","town":"水沢区矢中","town_kana":"ミズサワクヤナカ","prefecture_code":3},"0042":{"zip_code":"0230042","prefecture":"岩手県","prefecture_kana":"イワテケン","city":"奥州市","city_kana":"オウシュウシ","town":"水沢区柳町","town_kana":"ミズサワクヤナギマチ","prefecture_code":3},"0852":{"zip_code":"0230852","prefecture":"岩手県","prefecture_kana":"イワテケン","city":"奥州市","city_kana":"オウシュウシ","town":"水沢区山崎町","town_kana":"ミズサワクヤマザキチョウ","prefecture_code":3},"0801":{"zip_code":"0230801","prefecture":"岩手県","prefecture_kana":"イワテケン","city":"奥州市","city_kana":"オウシュウシ","town":"水沢区横町","town_kana":"ミズサワクヨコマチ","prefecture_code":3},"0893":{"zip_code":"0230893","prefecture":"岩手県","prefecture_kana":"イワテケン","city":"奥州市","city_kana":"オウシュウシ","town":"水沢区蓬田","town_kana":"ミズサワクヨモギダ","prefecture_code":3},"0864":{"zip_code":"0230864","prefecture":"岩手県","prefecture_kana":"イワテケン","city":"奥州市","city_kana":"オウシュウシ","town":"水沢区龍ケ馬場","town_kana":"ミズサワクリュウガババ","prefecture_code":3}}