{"0000":{"zip_code":"0260000","prefecture":"岩手県","prefecture_kana":"イワテケン","city":"釜石市","city_kana":"カマイシシ","town":"以下に掲載がない場合","town_kana":"イカニケイサイガナイバアイ","prefecture_code":3},"0012":{"zip_code":"0260012","prefecture":"岩手県","prefecture_kana":"イワテケン","city":"釜石市","city_kana":"カマイシシ","town":"魚河岸","town_kana":"ウオガシ","prefecture_code":3},"0301":{"zip_code":"0260301","prefecture":"岩手県","prefecture_kana":"イワテケン","city":"釜石市","city_kana":"カマイシシ","town":"鵜住居町","town_kana":"ウノスマイチョウ","prefecture_code":3},"0003":{"zip_code":"0260003","prefecture":"岩手県","prefecture_kana":"イワテケン","city":"釜石市","city_kana":"カマイシシ","town":"嬉石町","town_kana":"ウレイシチョウ","prefecture_code":3},"0022":{"zip_code":"0260022","prefecture":"岩手県","prefecture_kana":"イワテケン","city":"釜石市","city_kana":"カマイシシ","town":"大只越町","town_kana":"オオタダコエチョウ","prefecture_code":3},"0002":{"zip_code":"0260002","prefecture":"岩手県","prefecture_kana":"イワテケン","city":"釜石市","city_kana":"カマイシシ","town":"大平町","town_kana":"オオダイラチョウ","prefecture_code":3},"0024":{"zip_code":"0260024","prefecture":"岩手県","prefecture_kana":"イワテケン","city":"釜石市","city_kana":"カマイシシ","town":"大町","town_kana":"オオマチ","prefecture_code":3},"0025":{"zip_code":"0260025","prefecture":"岩手県","prefecture_kana":"イワテケン","city":"釜石市","city_kana":"カマイシシ","town":"大渡町","town_kana":"オオワタリチョウ","prefecture_code":3},"0302":{"zip_code":"0260302","prefecture":"岩手県","prefecture_kana":"イワテケン","city":"釜石市","city_kana":"カマイシシ","town":"片岸町","town_kana":"カタギシチョウ","prefecture_code":3},"0055":{"zip_code":"0260055","prefecture":"岩手県","prefecture_kana":"イワテケン","city":"釜石市","city_kana":"カマイシシ","town":"甲子町","town_kana":"カッシチョウ","prefecture_code":3},"0026":{"zip_code":"0260026","prefecture":"岩手県","prefecture_kana":"イワテケン","city":"釜石市","city_kana":"カマイシシ","town":"釜石","town_kana":"カマイシ","prefecture_code":3},"0041":{"zip_code":"0260041","prefecture":"岩手県","prefecture_kana":"イワテケン","city":"釜石市","city_kana":"カマイシシ","town":"上中島町","town_kana":"カミナカシマチョウ","prefecture_code":3},"0412":{"zip_code":"0260412","prefecture":"岩手県","prefecture_kana":"イワテケン","city":"釜石市","city_kana":"カマイシシ","town":"栗林町","town_kana":"クリバヤシチョウ","prefecture_code":3},"0042":{"zip_code":"0260042","prefecture":"岩手県","prefecture_kana":"イワテケン","city":"釜石市","city_kana":"カマイシシ","town":"源太沢町","town_kana":"ゲンタサワチョウ","prefecture_code":3},"0045":{"zip_code":"0260045","prefecture":"岩手県","prefecture_kana":"イワテケン","city":"釜石市","city_kana":"カマイシシ","town":"小川町","town_kana":"コガワチョウ","prefecture_code":3},"0052":{"zip_code":"0260052","prefecture":"岩手県","prefecture_kana":"イワテケン","city":"釜石市","city_kana":"カマイシシ","town":"小佐野町","town_kana":"コサノチョウ","prefecture_code":3},"0033":{"zip_code":"0260033","prefecture":"岩手県","prefecture_kana":"イワテケン","city":"釜石市","city_kana":"カマイシシ","town":"駒木町","town_kana":"コマギチョウ","prefecture_code":3},"0046":{"zip_code":"0260046","prefecture":"岩手県","prefecture_kana":"イワテケン","city":"釜石市","city_kana":"カマイシシ","town":"桜木町","town_kana":"サクラギチョウ","prefecture_code":3},"0053":{"zip_code":"0260053","prefecture":"岩手県","prefecture_kana":"イワテケン","city":"釜石市","city_kana":"カマイシシ","town":"定内町","town_kana":"サダナイチョウ","prefecture_code":3},"0015":{"zip_code":"0260015","prefecture":"岩手県","prefecture_kana":"イワテケン","city":"釜石市","city_kana":"カマイシシ","town":"新浜町","town_kana":"シンハマチョウ","prefecture_code":3},"0043":{"zip_code":"0260043","prefecture":"岩手県","prefecture_kana":"イワテケン","city":"釜石市","city_kana":"カマイシシ","town":"新町","town_kana":"シンマチ","prefecture_code":3},"0031":{"zip_code":"0260031","prefecture":"岩手県","prefecture_kana":"イワテケン","city":"釜石市","city_kana":"カマイシシ","town":"鈴子町","town_kana":"スズコチョウ","prefecture_code":3},"0044":{"zip_code":"0260044","prefecture":"岩手県","prefecture_kana":"イワテケン","city":"釜石市","city_kana":"カマイシシ","town":"住吉町","town_kana":"スミヨシチョウ","prefecture_code":3},"0021":{"zip_code":"0260021","prefecture":"岩手県","prefecture_kana":"イワテケン","city":"釜石市","city_kana":"カマイシシ","town":"只越町","town_kana":"タダコエチョウ","prefecture_code":3},"0032":{"zip_code":"0260032","prefecture":"岩手県","prefecture_kana":"イワテケン","city":"釜石市","city_kana":"カマイシシ","town":"千鳥町","town_kana":"チドリチョウ","prefecture_code":3},"0023":{"zip_code":"0260023","prefecture":"岩手県","prefecture_kana":"イワテケン","city":"釜石市","city_kana":"カマイシシ","town":"天神町","town_kana":"テンジンチョウ","prefecture_code":3},"0061":{"zip_code":"0260061","prefecture":"岩手県","prefecture_kana":"イワテケン","city":"釜石市","city_kana":"カマイシシ","town":"唐丹町（鍋倉）","town_kana":"トウニチョウ(ナベクラ)","prefecture_code":3},"0121":{"zip_code":"0260121","prefecture":"岩手県","prefecture_kana":"イワテケン","city":"釜石市","city_kana":"カマイシシ","town":"唐丹町（その他）","town_kana":"トウニチョウ(ソノタ)","prefecture_code":3},"0034":{"zip_code":"0260034","prefecture":"岩手県","prefecture_kana":"イワテケン","city":"釜石市","city_kana":"カマイシシ","town":"中妻町","town_kana":"ナカヅマチョウ","prefecture_code":3},"0054":{"zip_code":"0260054","prefecture":"岩手県","prefecture_kana":"イワテケン","city":"釜石市","city_kana":"カマイシシ","town":"野田町","town_kana":"ノダチョウ","prefecture_code":3},"0303":{"zip_code":"0260303","prefecture":"岩手県","prefecture_kana":"イワテケン","city":"釜石市","city_kana":"カマイシシ","town":"箱崎町","town_kana":"ハコザキチョウ","prefecture_code":3},"0411":{"zip_code":"0260411","prefecture":"岩手県","prefecture_kana":"イワテケン","city":"釜石市","city_kana":"カマイシシ","town":"橋野町","town_kana":"ハシノチョウ","prefecture_code":3},"0013":{"zip_code":"0260013","prefecture":"岩手県","prefecture_kana":"イワテケン","city":"釜石市","city_kana":"カマイシシ","town":"浜町","town_kana":"ハマチョウ","prefecture_code":3},"0014":{"zip_code":"0260014","prefecture":"岩手県","prefecture_kana":"イワテケン","city":"釜石市","city_kana":"カマイシシ","town":"東前町","town_kana":"ヒガシマエチョウ","prefecture_code":3},"0001":{"zip_code":"0260001","prefecture":"岩手県","prefecture_kana":"イワテケン","city":"釜石市","city_kana":"カマイシシ","town":"平田","town_kana":"ヘイタ","prefecture_code":3},"0004":{"zip_code":"0260004","prefecture":"岩手県","prefecture_kana":"イワテケン","city":"釜石市","city_kana":"カマイシシ","town":"松原町","town_kana":"マツバラチョウ","prefecture_code":3},"0011":{"zip_code":"0260011","prefecture":"岩手県","prefecture_kana":"イワテケン","city":"釜石市","city_kana":"カマイシシ","town":"港町","town_kana":"ミナトマチ","prefecture_code":3},"0035":{"zip_code":"0260035","prefecture":"岩手県","prefecture_kana":"イワテケン","city":"釜石市","city_kana":"カマイシシ","town":"八雲町","town_kana":"ヤグモチョウ","prefecture_code":3},"0304":{"zip_code":"0260304","prefecture":"岩手県","prefecture_kana":"イワテケン","city":"釜石市","city_kana":"カマイシシ","town":"両石町","town_kana":"リョウイシチョウ","prefecture_code":3},"0051":{"zip_code":"0260051","prefecture":"岩手県","prefecture_kana":"イワテケン","city":"釜石市","city_kana":"カマイシシ","town":"礼ケ口町","town_kana":"レイガグチチョウ","prefecture_code":3}}