{"4131":{"zip_code":"0284131","prefecture":"岩手県","prefecture_kana":"イワテケン","city":"盛岡市","city_kana":"モリオカシ","town":"玉山区芋田","town_kana":"タマヤマクイモダ","prefecture_code":3},"4135":{"zip_code":"0284135","prefecture":"岩手県","prefecture_kana":"イワテケン","city":"盛岡市","city_kana":"モリオカシ","town":"玉山区川崎","town_kana":"タマヤマクカワサキ","prefecture_code":3},"4125":{"zip_code":"0284125","prefecture":"岩手県","prefecture_kana":"イワテケン","city":"盛岡市","city_kana":"モリオカシ","town":"玉山区好摩","town_kana":"タマヤマクコウマ","prefecture_code":3},"4132":{"zip_code":"0284132","prefecture":"岩手県","prefecture_kana":"イワテケン","city":"盛岡市","city_kana":"モリオカシ","town":"玉山区渋民","town_kana":"タマヤマクシブタミ","prefecture_code":3},"4134":{"zip_code":"0284134","prefecture":"岩手県","prefecture_kana":"イワテケン","city":"盛岡市","city_kana":"モリオカシ","town":"玉山区下田","town_kana":"タマヤマクシモダ","prefecture_code":3},"4122":{"zip_code":"0284122","prefecture":"岩手県","prefecture_kana":"イワテケン","city":"盛岡市","city_kana":"モリオカシ","town":"玉山区寺林","town_kana":"タマヤマクテラバヤシ","prefecture_code":3},"4121":{"zip_code":"0284121","prefecture":"岩手県","prefecture_kana":"イワテケン","city":"盛岡市","city_kana":"モリオカシ","town":"玉山区永井","town_kana":"タマヤマクナガイ","prefecture_code":3},"4124":{"zip_code":"0284124","prefecture":"岩手県","prefecture_kana":"イワテケン","city":"盛岡市","city_kana":"モリオカシ","town":"玉山区馬場","town_kana":"タマヤマクババ","prefecture_code":3},"4123":{"zip_code":"0284123","prefecture":"岩手県","prefecture_kana":"イワテケン","city":"盛岡市","city_kana":"モリオカシ","town":"玉山区巻堀","town_kana":"タマヤマクマキボリ","prefecture_code":3},"4136":{"zip_code":"0284136","prefecture":"岩手県","prefecture_kana":"イワテケン","city":"盛岡市","city_kana":"モリオカシ","town":"玉山区松内","town_kana":"タマヤマクマツナイ","prefecture_code":3},"4133":{"zip_code":"0284133","prefecture":"岩手県","prefecture_kana":"イワテケン","city":"盛岡市","city_kana":"モリオカシ","town":"玉山区門前寺","town_kana":"タマヤマクモンゼンジ","prefecture_code":3},"2711":{"zip_code":"0282711","prefecture":"岩手県","prefecture_kana":"イワテケン","city":"盛岡市","city_kana":"モリオカシ","town":"玉山区薮川","town_kana":"タマヤマクヤブカワ","prefecture_code":3},"2421":{"zip_code":"0282421","prefecture":"岩手県","prefecture_kana":"イワテケン","city":"宮古市","city_kana":"ミヤコシ","town":"江繋","town_kana":"エツナギ","prefecture_code":3},"2422":{"zip_code":"0282422","prefecture":"岩手県","prefecture_kana":"イワテケン","city":"宮古市","city_kana":"ミヤコシ","town":"小国","town_kana":"オグニ","prefecture_code":3},"2303":{"zip_code":"0282303","prefecture":"岩手県","prefecture_kana":"イワテケン","city":"宮古市","city_kana":"ミヤコシ","town":"片巣","town_kana":"カタス","prefecture_code":3},"2632":{"zip_code":"0282632","prefecture":"岩手県","prefecture_kana":"イワテケン","city":"宮古市","city_kana":"ミヤコシ","town":"門馬","town_kana":"カドマ","prefecture_code":3},"2104":{"zip_code":"0282104","prefecture":"岩手県","prefecture_kana":"イワテケン","city":"宮古市","city_kana":"ミヤコシ","town":"刈屋","town_kana":"カリヤ","prefecture_code":3},"2402":{"zip_code":"0282402","prefecture":"岩手県","prefecture_kana":"イワテケン","city":"宮古市","city_kana":"ミヤコシ","town":"川井","town_kana":"カワイ","prefecture_code":3},"2302":{"zip_code":"0282302","prefecture":"岩手県","prefecture_kana":"イワテケン","city":"宮古市","city_kana":"ミヤコシ","town":"川井","town_kana":"カワイ","prefecture_code":3},"2513":{"zip_code":"0282513","prefecture":"岩手県","prefecture_kana":"イワテケン","city":"宮古市","city_kana":"ミヤコシ","town":"川内","town_kana":"カワウチ","prefecture_code":3},"2631":{"zip_code":"0282631","prefecture":"岩手県","prefecture_kana":"イワテケン","city":"宮古市","city_kana":"ミヤコシ","town":"区界","town_kana":"クザカイ","prefecture_code":3},"2512":{"zip_code":"0282512","prefecture":"岩手県","prefecture_kana":"イワテケン","city":"宮古市","city_kana":"ミヤコシ","town":"鈴久名","town_kana":"スズクナ","prefecture_code":3},"2511":{"zip_code":"0282511","prefecture":"岩手県","prefecture_kana":"イワテケン","city":"宮古市","city_kana":"ミヤコシ","town":"夏屋","town_kana":"ナツヤ","prefecture_code":3},"2504":{"zip_code":"0282504","prefecture":"岩手県","prefecture_kana":"イワテケン","city":"宮古市","city_kana":"ミヤコシ","town":"箱石","town_kana":"ハコイシ","prefecture_code":3},"2304":{"zip_code":"0282304","prefecture":"岩手県","prefecture_kana":"イワテケン","city":"宮古市","city_kana":"ミヤコシ","town":"箱石","town_kana":"ハコイシ","prefecture_code":3},"2103":{"zip_code":"0282103","prefecture":"岩手県","prefecture_kana":"イワテケン","city":"宮古市","city_kana":"ミヤコシ","town":"腹帯","town_kana":"ハラタイ","prefecture_code":3},"2102":{"zip_code":"0282102","prefecture":"岩手県","prefecture_kana":"イワテケン","city":"宮古市","city_kana":"ミヤコシ","town":"蟇目","town_kana":"ヒキメ","prefecture_code":3},"2633":{"zip_code":"0282633","prefecture":"岩手県","prefecture_kana":"イワテケン","city":"宮古市","city_kana":"ミヤコシ","town":"平津戸","town_kana":"ヒラツト","prefecture_code":3},"2301":{"zip_code":"0282301","prefecture":"岩手県","prefecture_kana":"イワテケン","city":"宮古市","city_kana":"ミヤコシ","town":"古田","town_kana":"フッタ","prefecture_code":3},"2101":{"zip_code":"0282101","prefecture":"岩手県","prefecture_kana":"イワテケン","city":"宮古市","city_kana":"ミヤコシ","town":"茂市","town_kana":"モイチ","prefecture_code":3},"2105":{"zip_code":"0282105","prefecture":"岩手県","prefecture_kana":"イワテケン","city":"宮古市","city_kana":"ミヤコシ","town":"和井内","town_kana":"ワイナイ","prefecture_code":3},"3131":{"zip_code":"0283131","prefecture":"岩手県","prefecture_kana":"イワテケン","city":"花巻市","city_kana":"ハナマキシ","town":"石鳥谷町猪鼻","town_kana":"イシドリヤチョウイノハナ","prefecture_code":3},"3151":{"zip_code":"0283151","prefecture":"岩手県","prefecture_kana":"イワテケン","city":"花巻市","city_kana":"ハナマキシ","town":"石鳥谷町江曽","town_kana":"イシドリヤチョウエソ","prefecture_code":3},"3185":{"zip_code":"0283185","prefecture":"岩手県","prefecture_kana":"イワテケン","city":"花巻市","city_kana":"ハナマキシ","town":"石鳥谷町大瀬川","town_kana":"イシドリヤチョウオオセガワ","prefecture_code":3},"3102":{"zip_code":"0283102","prefecture":"岩手県","prefecture_kana":"イワテケン","city":"花巻市","city_kana":"ハナマキシ","town":"石鳥谷町上口","town_kana":"イシドリヤチョウカミグチ","prefecture_code":3},"3172":{"zip_code":"0283172","prefecture":"岩手県","prefecture_kana":"イワテケン","city":"花巻市","city_kana":"ハナマキシ","town":"石鳥谷町北寺林","town_kana":"イシドリヤチョウキタテラバヤシ","prefecture_code":3},"3161":{"zip_code":"0283161","prefecture":"岩手県","prefecture_kana":"イワテケン","city":"花巻市","city_kana":"ハナマキシ","town":"石鳥谷町黒沼","town_kana":"イシドリヤチョウクロヌマ","prefecture_code":3},"3101":{"zip_code":"0283101","prefecture":"岩手県","prefecture_kana":"イワテケン","city":"花巻市","city_kana":"ハナマキシ","town":"石鳥谷町好地","town_kana":"イシドリヤチョウコウチ","prefecture_code":3},"3141":{"zip_code":"0283141","prefecture":"岩手県","prefecture_kana":"イワテケン","city":"花巻市","city_kana":"ハナマキシ","town":"石鳥谷町五大堂","town_kana":"イシドリヤチョウゴダイドウ","prefecture_code":3},"3153":{"zip_code":"0283153","prefecture":"岩手県","prefecture_kana":"イワテケン","city":"花巻市","city_kana":"ハナマキシ","town":"石鳥谷町小森林","town_kana":"イシドリヤチョウコモリバヤシ","prefecture_code":3},"3182":{"zip_code":"0283182","prefecture":"岩手県","prefecture_kana":"イワテケン","city":"花巻市","city_kana":"ハナマキシ","town":"石鳥谷町松林寺","town_kana":"イシドリヤチョウショウリンジ","prefecture_code":3},"3133":{"zip_code":"0283133","prefecture":"岩手県","prefecture_kana":"イワテケン","city":"花巻市","city_kana":"ハナマキシ","town":"石鳥谷町関口","town_kana":"イシドリヤチョウセキグチ","prefecture_code":3},"3181":{"zip_code":"0283181","prefecture":"岩手県","prefecture_kana":"イワテケン","city":"花巻市","city_kana":"ハナマキシ","town":"石鳥谷町大興寺","town_kana":"イシドリヤチョウダイコウジ","prefecture_code":3},"3122":{"zip_code":"0283122","prefecture":"岩手県","prefecture_kana":"イワテケン","city":"花巻市","city_kana":"ハナマキシ","town":"石鳥谷町滝田","town_kana":"イシドリヤチョウタキタ","prefecture_code":3},"3121":{"zip_code":"0283121","prefecture":"岩手県","prefecture_kana":"イワテケン","city":"花巻市","city_kana":"ハナマキシ","town":"石鳥谷町戸塚","town_kana":"イシドリヤチョウトヅカ","prefecture_code":3},"3184":{"zip_code":"0283184","prefecture":"岩手県","prefecture_kana":"イワテケン","city":"花巻市","city_kana":"ハナマキシ","town":"石鳥谷町富沢","town_kana":"イシドリヤチョウトミサワ","prefecture_code":3},"3171":{"zip_code":"0283171","prefecture":"岩手県","prefecture_kana":"イワテケン","city":"花巻市","city_kana":"ハナマキシ","town":"石鳥谷町中寺林","town_kana":"イシドリヤチョウナカテラバヤシ","prefecture_code":3},"3111":{"zip_code":"0283111","prefecture":"岩手県","prefecture_kana":"イワテケン","city":"花巻市","city_kana":"ハナマキシ","town":"石鳥谷町新堀","town_kana":"イシドリヤチョウニイボリ","prefecture_code":3},"3162":{"zip_code":"0283162","prefecture":"岩手県","prefecture_kana":"イワテケン","city":"花巻市","city_kana":"ハナマキシ","town":"石鳥谷町西中島","town_kana":"イシドリヤチョウニシナカジマ","prefecture_code":3},"3183":{"zip_code":"0283183","prefecture":"岩手県","prefecture_kana":"イワテケン","city":"花巻市","city_kana":"ハナマキシ","town":"石鳥谷町長谷堂","town_kana":"イシドリヤチョウハセドウ","prefecture_code":3},"3163":{"zip_code":"0283163","prefecture":"岩手県","prefecture_kana":"イワテケン","city":"花巻市","city_kana":"ハナマキシ","town":"石鳥谷町八幡","town_kana":"イシドリヤチョウハチマン","prefecture_code":3},"3132":{"zip_code":"0283132","prefecture":"岩手県","prefecture_kana":"イワテケン","city":"花巻市","city_kana":"ハナマキシ","town":"石鳥谷町東中島","town_kana":"イシドリヤチョウヒガシナカシマ","prefecture_code":3},"3152":{"zip_code":"0283152","prefecture":"岩手県","prefecture_kana":"イワテケン","city":"花巻市","city_kana":"ハナマキシ","town":"石鳥谷町南寺林","town_kana":"イシドリヤチョウミナミテラバヤシ","prefecture_code":3},"3142":{"zip_code":"0283142","prefecture":"岩手県","prefecture_kana":"イワテケン","city":"花巻市","city_kana":"ハナマキシ","town":"石鳥谷町八重畑","town_kana":"イシドリヤチョウヤエハタ","prefecture_code":3},"3201":{"zip_code":"0283201","prefecture":"岩手県","prefecture_kana":"イワテケン","city":"花巻市","city_kana":"ハナマキシ","town":"大迫町内川目","town_kana":"オオハサママチウチカワメ","prefecture_code":3},"3203":{"zip_code":"0283203","prefecture":"岩手県","prefecture_kana":"イワテケン","city":"花巻市","city_kana":"ハナマキシ","town":"大迫町大迫","town_kana":"オオハサママチオオハサマ","prefecture_code":3},"3204":{"zip_code":"0283204","prefecture":"岩手県","prefecture_kana":"イワテケン","city":"花巻市","city_kana":"ハナマキシ","town":"大迫町亀ケ森","town_kana":"オオハサママチカメガモリ","prefecture_code":3},"3202":{"zip_code":"0283202","prefecture":"岩手県","prefecture_kana":"イワテケン","city":"花巻市","city_kana":"ハナマキシ","town":"大迫町外川目","town_kana":"オオハサママチソトカワメ","prefecture_code":3},"0115":{"zip_code":"0280115","prefecture":"岩手県","prefecture_kana":"イワテケン","city":"花巻市","city_kana":"ハナマキシ","town":"東和町安俵","town_kana":"トウワチョウアヒョウ","prefecture_code":3},"0134":{"zip_code":"0280134","prefecture":"岩手県","prefecture_kana":"イワテケン","city":"花巻市","city_kana":"ハナマキシ","town":"東和町砂子","town_kana":"トウワチョウイサゴ","prefecture_code":3},"0103":{"zip_code":"0280103","prefecture":"岩手県","prefecture_kana":"イワテケン","city":"花巻市","city_kana":"ハナマキシ","town":"東和町石鳩岡","town_kana":"トウワチョウイシハトオカ","prefecture_code":3},"0154":{"zip_code":"0280154","prefecture":"岩手県","prefecture_kana":"イワテケン","city":"花巻市","city_kana":"ハナマキシ","town":"東和町石持","town_kana":"トウワチョウイシモチ","prefecture_code":3},"0151":{"zip_code":"0280151","prefecture":"岩手県","prefecture_kana":"イワテケン","city":"花巻市","city_kana":"ハナマキシ","town":"東和町落合","town_kana":"トウワチョウオチアイ","prefecture_code":3},"0121":{"zip_code":"0280121","prefecture":"岩手県","prefecture_kana":"イワテケン","city":"花巻市","city_kana":"ハナマキシ","town":"東和町小友","town_kana":"トウワチョウオトモ","prefecture_code":3},"0136":{"zip_code":"0280136","prefecture":"岩手県","prefecture_kana":"イワテケン","city":"花巻市","city_kana":"ハナマキシ","town":"東和町小原","town_kana":"トウワチョウオバラ","prefecture_code":3},"0143":{"zip_code":"0280143","prefecture":"岩手県","prefecture_kana":"イワテケン","city":"花巻市","city_kana":"ハナマキシ","town":"東和町上浮田","town_kana":"トウワチョウカミウキタ","prefecture_code":3},"0107":{"zip_code":"0280107","prefecture":"岩手県","prefecture_kana":"イワテケン","city":"花巻市","city_kana":"ハナマキシ","town":"東和町北小山田","town_kana":"トウワチョウキタオヤマダ","prefecture_code":3},"0102":{"zip_code":"0280102","prefecture":"岩手県","prefecture_kana":"イワテケン","city":"花巻市","city_kana":"ハナマキシ","town":"東和町北川目","town_kana":"トウワチョウキタカワメ","prefecture_code":3},"0116":{"zip_code":"0280116","prefecture":"岩手県","prefecture_kana":"イワテケン","city":"花巻市","city_kana":"ハナマキシ","town":"東和町北成島","town_kana":"トウワチョウキタナルシマ","prefecture_code":3},"0101":{"zip_code":"0280101","prefecture":"岩手県","prefecture_kana":"イワテケン","city":"花巻市","city_kana":"ハナマキシ","town":"東和町北前田","town_kana":"トウワチョウキタマエダ","prefecture_code":3},"0135":{"zip_code":"0280135","prefecture":"岩手県","prefecture_kana":"イワテケン","city":"花巻市","city_kana":"ハナマキシ","town":"東和町倉沢","town_kana":"トウワチョウクラザワ","prefecture_code":3},"0156":{"zip_code":"0280156","prefecture":"岩手県","prefecture_kana":"イワテケン","city":"花巻市","city_kana":"ハナマキシ","town":"東和町小通","town_kana":"トウワチョウコガヨウ","prefecture_code":3},"0142":{"zip_code":"0280142","prefecture":"岩手県","prefecture_kana":"イワテケン","city":"花巻市","city_kana":"ハナマキシ","town":"東和町駒籠","town_kana":"トウワチョウコマゴメ","prefecture_code":3},"0141":{"zip_code":"0280141","prefecture":"岩手県","prefecture_kana":"イワテケン","city":"花巻市","city_kana":"ハナマキシ","town":"東和町下浮田","town_kana":"トウワチョウシモウキタ","prefecture_code":3},"0112":{"zip_code":"0280112","prefecture":"岩手県","prefecture_kana":"イワテケン","city":"花巻市","city_kana":"ハナマキシ","town":"東和町新地","town_kana":"トウワチョウシンジ","prefecture_code":3},"0106":{"zip_code":"0280106","prefecture":"岩手県","prefecture_kana":"イワテケン","city":"花巻市","city_kana":"ハナマキシ","town":"東和町外谷地","town_kana":"トウワチョウソトヤチ","prefecture_code":3},"0133":{"zip_code":"0280133","prefecture":"岩手県","prefecture_kana":"イワテケン","city":"花巻市","city_kana":"ハナマキシ","town":"東和町鷹巣堂","town_kana":"トウワチョウタカスドウ","prefecture_code":3},"0123":{"zip_code":"0280123","prefecture":"岩手県","prefecture_kana":"イワテケン","city":"花巻市","city_kana":"ハナマキシ","town":"東和町田瀬","town_kana":"トウワチョウタセ","prefecture_code":3},"0132":{"zip_code":"0280132","prefecture":"岩手県","prefecture_kana":"イワテケン","city":"花巻市","city_kana":"ハナマキシ","town":"東和町舘迫","town_kana":"トウワチョウタテハサマ","prefecture_code":3},"0122":{"zip_code":"0280122","prefecture":"岩手県","prefecture_kana":"イワテケン","city":"花巻市","city_kana":"ハナマキシ","town":"東和町谷内","town_kana":"トウワチョウタニナイ","prefecture_code":3},"0114":{"zip_code":"0280114","prefecture":"岩手県","prefecture_kana":"イワテケン","city":"花巻市","city_kana":"ハナマキシ","town":"東和町土沢","town_kana":"トウワチョウツチザワ","prefecture_code":3},"0152":{"zip_code":"0280152","prefecture":"岩手県","prefecture_kana":"イワテケン","city":"花巻市","city_kana":"ハナマキシ","town":"東和町毒沢","town_kana":"トウワチョウドクサワ","prefecture_code":3},"0153":{"zip_code":"0280153","prefecture":"岩手県","prefecture_kana":"イワテケン","city":"花巻市","city_kana":"ハナマキシ","town":"東和町中内","town_kana":"トウワチョウナカナイ","prefecture_code":3},"0113":{"zip_code":"0280113","prefecture":"岩手県","prefecture_kana":"イワテケン","city":"花巻市","city_kana":"ハナマキシ","town":"東和町東晴山","town_kana":"トウワチョウヒガシハルヤマ","prefecture_code":3},"0105":{"zip_code":"0280105","prefecture":"岩手県","prefecture_kana":"イワテケン","city":"花巻市","city_kana":"ハナマキシ","town":"東和町前田","town_kana":"トウワチョウマエダ","prefecture_code":3},"0131":{"zip_code":"0280131","prefecture":"岩手県","prefecture_kana":"イワテケン","city":"花巻市","city_kana":"ハナマキシ","town":"東和町町井","town_kana":"トウワチョウマチイ","prefecture_code":3},"0104":{"zip_code":"0280104","prefecture":"岩手県","prefecture_kana":"イワテケン","city":"花巻市","city_kana":"ハナマキシ","town":"東和町南川目","town_kana":"トウワチョウミナミカワメ","prefecture_code":3},"0155":{"zip_code":"0280155","prefecture":"岩手県","prefecture_kana":"イワテケン","city":"花巻市","city_kana":"ハナマキシ","town":"東和町南成島","town_kana":"トウワチョウミナミナルシマ","prefecture_code":3},"0144":{"zip_code":"0280144","prefecture":"岩手県","prefecture_kana":"イワテケン","city":"花巻市","city_kana":"ハナマキシ","town":"東和町宮田","town_kana":"トウワチョウミヤダ","prefecture_code":3},"0111":{"zip_code":"0280111","prefecture":"岩手県","prefecture_kana":"イワテケン","city":"花巻市","city_kana":"ハナマキシ","town":"東和町百ノ沢","town_kana":"トウワチョウモモノサワ","prefecture_code":3},"0000":{"zip_code":"0280000","prefecture":"岩手県","prefecture_kana":"イワテケン","city":"久慈市","city_kana":"クジシ","town":"","town_kana":"","prefecture_code":3},"0014":{"zip_code":"0280014","prefecture":"岩手県","prefecture_kana":"イワテケン","city":"久慈市","city_kana":"クジシ","town":"旭町","town_kana":"アサヒチョウ","prefecture_code":3},"0063":{"zip_code":"0280063","prefecture":"岩手県","prefecture_kana":"イワテケン","city":"久慈市","city_kana":"クジシ","town":"荒町","town_kana":"アラマチ","prefecture_code":3},"8111":{"zip_code":"0288111","prefecture":"岩手県","prefecture_kana":"イワテケン","city":"久慈市","city_kana":"クジシ","town":"宇部町","town_kana":"ウベチョウ","prefecture_code":3},"0034":{"zip_code":"0280034","prefecture":"岩手県","prefecture_kana":"イワテケン","city":"久慈市","city_kana":"クジシ","town":"枝成沢","town_kana":"エダナリサワ","prefecture_code":3},"0091":{"zip_code":"0280091","prefecture":"岩手県","prefecture_kana":"イワテケン","city":"久慈市","city_kana":"クジシ","town":"大川目町","town_kana":"オオカワメチョウ","prefecture_code":3},"0083":{"zip_code":"0280083","prefecture":"岩手県","prefecture_kana":"イワテケン","city":"久慈市","city_kana":"クジシ","town":"大沢","town_kana":"オオサワ","prefecture_code":3},"0041":{"zip_code":"0280041","prefecture":"岩手県","prefecture_kana":"イワテケン","city":"久慈市","city_kana":"クジシ","town":"長内町","town_kana":"オサナイチョウ","prefecture_code":3},"0054":{"zip_code":"0280054","prefecture":"岩手県","prefecture_kana":"イワテケン","city":"久慈市","city_kana":"クジシ","town":"柏崎","town_kana":"カシワザキ","prefecture_code":3},"0051":{"zip_code":"0280051","prefecture":"岩手県","prefecture_kana":"イワテケン","city":"久慈市","city_kana":"クジシ","town":"川崎町","town_kana":"カワサキチョウ","prefecture_code":3},"0082":{"zip_code":"0280082","prefecture":"岩手県","prefecture_kana":"イワテケン","city":"久慈市","city_kana":"クジシ","town":"川貫","town_kana":"カワヌキ","prefecture_code":3},"0013":{"zip_code":"0280013","prefecture":"岩手県","prefecture_kana":"イワテケン","city":"久慈市","city_kana":"クジシ","town":"京の森","town_kana":"キョウノモリ","prefecture_code":3},"0015":{"zip_code":"0280015","prefecture":"岩手県","prefecture_kana":"イワテケン","city":"久慈市","city_kana":"クジシ","town":"源道","town_kana":"ゲンドウ","prefecture_code":3},"0071":{"zip_code":"0280071","prefecture":"岩手県","prefecture_kana":"イワテケン","city":"久慈市","city_kana":"クジシ","town":"小久慈町","town_kana":"コクジチョウ","prefecture_code":3},"0024":{"zip_code":"0280024","prefecture":"岩手県","prefecture_kana":"イワテケン","city":"久慈市","city_kana":"クジシ","town":"栄町","town_kana":"サカエチョウ","prefecture_code":3},"7801":{"zip_code":"0287801","prefecture":"岩手県","prefecture_kana":"イワテケン","city":"久慈市","city_kana":"クジシ","town":"侍浜町","town_kana":"サムライハマチョウ","prefecture_code":3},"0035":{"zip_code":"0280035","prefecture":"岩手県","prefecture_kana":"イワテケン","city":"久慈市","city_kana":"クジシ","town":"沢里","town_kana":"サワサト","prefecture_code":3},"0065":{"zip_code":"0280065","prefecture":"岩手県","prefecture_kana":"イワテケン","city":"久慈市","city_kana":"クジシ","town":"十八日町","town_kana":"ジュウハチニチマチ","prefecture_code":3},"0023":{"zip_code":"0280023","prefecture":"岩手県","prefecture_kana":"イワテケン","city":"久慈市","city_kana":"クジシ","town":"新中の橋","town_kana":"シンナカノハシ","prefecture_code":3},"0053":{"zip_code":"0280053","prefecture":"岩手県","prefecture_kana":"イワテケン","city":"久慈市","city_kana":"クジシ","town":"田高","town_kana":"タコウ","prefecture_code":3},"0055":{"zip_code":"0280055","prefecture":"岩手県","prefecture_kana":"イワテケン","city":"久慈市","city_kana":"クジシ","town":"巽町","town_kana":"タツミチョウ","prefecture_code":3},"0022":{"zip_code":"0280022","prefecture":"岩手県","prefecture_kana":"イワテケン","city":"久慈市","city_kana":"クジシ","town":"田屋町","town_kana":"タヤチョウ","prefecture_code":3},"0061":{"zip_code":"0280061","prefecture":"岩手県","prefecture_kana":"イワテケン","city":"久慈市","city_kana":"クジシ","town":"中央","town_kana":"チュウオウ","prefecture_code":3},"0032":{"zip_code":"0280032","prefecture":"岩手県","prefecture_kana":"イワテケン","city":"久慈市","city_kana":"クジシ","town":"寺里","town_kana":"テラサト","prefecture_code":3},"0031":{"zip_code":"0280031","prefecture":"岩手県","prefecture_kana":"イワテケン","city":"久慈市","city_kana":"クジシ","town":"天神堂","town_kana":"テンジンドウ","prefecture_code":3},"0066":{"zip_code":"0280066","prefecture":"岩手県","prefecture_kana":"イワテケン","city":"久慈市","city_kana":"クジシ","town":"中の橋","town_kana":"ナカノハシ","prefecture_code":3},"0056":{"zip_code":"0280056","prefecture":"岩手県","prefecture_kana":"イワテケン","city":"久慈市","city_kana":"クジシ","town":"中町","town_kana":"ナカマチ","prefecture_code":3},"0001":{"zip_code":"0280001","prefecture":"岩手県","prefecture_kana":"イワテケン","city":"久慈市","city_kana":"クジシ","town":"夏井町","town_kana":"ナツイチョウ","prefecture_code":3},"0012":{"zip_code":"0280012","prefecture":"岩手県","prefecture_kana":"イワテケン","city":"久慈市","city_kana":"クジシ","town":"新井田","town_kana":"ニイダ","prefecture_code":3},"0081":{"zip_code":"0280081","prefecture":"岩手県","prefecture_kana":"イワテケン","city":"久慈市","city_kana":"クジシ","town":"西の沢","town_kana":"ニシノサワ","prefecture_code":3},"0062":{"zip_code":"0280062","prefecture":"岩手県","prefecture_kana":"イワテケン","city":"久慈市","city_kana":"クジシ","town":"二十八日町","town_kana":"ニジュウハチニチマチ","prefecture_code":3},"0033":{"zip_code":"0280033","prefecture":"岩手県","prefecture_kana":"イワテケン","city":"久慈市","city_kana":"クジシ","town":"畑田","town_kana":"ハタケダ","prefecture_code":3},"0052":{"zip_code":"0280052","prefecture":"岩手県","prefecture_kana":"イワテケン","city":"久慈市","city_kana":"クジシ","town":"本町","town_kana":"ホンチョウ","prefecture_code":3},"0011":{"zip_code":"0280011","prefecture":"岩手県","prefecture_kana":"イワテケン","city":"久慈市","city_kana":"クジシ","town":"湊町","town_kana":"ミナトチョウ","prefecture_code":3},"0021":{"zip_code":"0280021","prefecture":"岩手県","prefecture_kana":"イワテケン","city":"久慈市","city_kana":"クジシ","town":"門前","town_kana":"モンゼン","prefecture_code":3},"8712":{"zip_code":"0288712","prefecture":"岩手県","prefecture_kana":"イワテケン","city":"久慈市","city_kana":"クジシ","town":"山形町小国","town_kana":"ヤマガタチョウオグニ","prefecture_code":3},"8602":{"zip_code":"0288602","prefecture":"岩手県","prefecture_kana":"イワテケン","city":"久慈市","city_kana":"クジシ","town":"山形町川井","town_kana":"ヤマガタチョウカワイ","prefecture_code":3},"8713":{"zip_code":"0288713","prefecture":"岩手県","prefecture_kana":"イワテケン","city":"久慈市","city_kana":"クジシ","town":"山形町霜畑","town_kana":"ヤマガタチョウシモハタ","prefecture_code":3},"8711":{"zip_code":"0288711","prefecture":"岩手県","prefecture_kana":"イワテケン","city":"久慈市","city_kana":"クジシ","town":"山形町繋","town_kana":"ヤマガタチョウツナギ","prefecture_code":3},"8603":{"zip_code":"0288603","prefecture":"岩手県","prefecture_kana":"イワテケン","city":"久慈市","city_kana":"クジシ","town":"山形町荷軽部","town_kana":"ヤマガタチョウニカルベ","prefecture_code":3},"8604":{"zip_code":"0288604","prefecture":"岩手県","prefecture_kana":"イワテケン","city":"久慈市","city_kana":"クジシ","town":"山形町日野沢","town_kana":"ヤマガタチョウヒノサワ","prefecture_code":3},"8601":{"zip_code":"0288601","prefecture":"岩手県","prefecture_kana":"イワテケン","city":"久慈市","city_kana":"クジシ","town":"山形町戸呂町","town_kana":"ヤマガタチョウヘロマチ","prefecture_code":3},"8605":{"zip_code":"0288605","prefecture":"岩手県","prefecture_kana":"イワテケン","city":"久慈市","city_kana":"クジシ","town":"山形町来内","town_kana":"ヤマガタチョウライナイ","prefecture_code":3},"8521":{"zip_code":"0288521","prefecture":"岩手県","prefecture_kana":"イワテケン","city":"久慈市","city_kana":"クジシ","town":"山根町","town_kana":"ヤマネチョウ","prefecture_code":3},"0064":{"zip_code":"0280064","prefecture":"岩手県","prefecture_kana":"イワテケン","city":"久慈市","city_kana":"クジシ","town":"八日町","town_kana":"ヨウカチョウ","prefecture_code":3},"0500":{"zip_code":"0280500","prefecture":"岩手県","prefecture_kana":"イワテケン","city":"遠野市","city_kana":"トオノシ","town":"","town_kana":"","prefecture_code":3},"0503":{"zip_code":"0280503","prefecture":"岩手県","prefecture_kana":"イワテケン","city":"遠野市","city_kana":"トオノシ","town":"青笹町青笹","town_kana":"アオザサチョウアオザサ","prefecture_code":3},"0502":{"zip_code":"0280502","prefecture":"岩手県","prefecture_kana":"イワテケン","city":"遠野市","city_kana":"トオノシ","town":"青笹町中沢","town_kana":"アオザサチョウナカザワ","prefecture_code":3},"0501":{"zip_code":"0280501","prefecture":"岩手県","prefecture_kana":"イワテケン","city":"遠野市","city_kana":"トオノシ","town":"青笹町糠前","town_kana":"アオザサチョウヌカマエ","prefecture_code":3},"0533":{"zip_code":"0280533","prefecture":"岩手県","prefecture_kana":"イワテケン","city":"遠野市","city_kana":"トオノシ","town":"綾織町上綾織","town_kana":"アヤオリチョウカミアヤオリ","prefecture_code":3},"0532":{"zip_code":"0280532","prefecture":"岩手県","prefecture_kana":"イワテケン","city":"遠野市","city_kana":"トオノシ","town":"綾織町下綾織","town_kana":"アヤオリチョウシモアヤオリ","prefecture_code":3},"0531":{"zip_code":"0280531","prefecture":"岩手県","prefecture_kana":"イワテケン","city":"遠野市","city_kana":"トオノシ","town":"綾織町新里","town_kana":"アヤオリチョウニッサト","prefecture_code":3},"0534":{"zip_code":"0280534","prefecture":"岩手県","prefecture_kana":"イワテケン","city":"遠野市","city_kana":"トオノシ","town":"綾織町みさ崎","town_kana":"アヤオリチョウミサザキ","prefecture_code":3},"0511":{"zip_code":"0280511","prefecture":"岩手県","prefecture_kana":"イワテケン","city":"遠野市","city_kana":"トオノシ","town":"鶯崎町","town_kana":"ウグイスザキチョウ","prefecture_code":3},"0481":{"zip_code":"0280481","prefecture":"岩手県","prefecture_kana":"イワテケン","city":"遠野市","city_kana":"トオノシ","town":"小友町","town_kana":"オトモチョウ","prefecture_code":3},"0517":{"zip_code":"0280517","prefecture":"岩手県","prefecture_kana":"イワテケン","city":"遠野市","city_kana":"トオノシ","town":"上組町","town_kana":"カミクミチョウ","prefecture_code":3},"0776":{"zip_code":"0280776","prefecture":"岩手県","prefecture_kana":"イワテケン","city":"遠野市","city_kana":"トオノシ","town":"上郷町板沢","town_kana":"カミゴウチョウイタザワ","prefecture_code":3},"0771":{"zip_code":"0280771","prefecture":"岩手県","prefecture_kana":"イワテケン","city":"遠野市","city_kana":"トオノシ","town":"上郷町佐比内","town_kana":"カミゴウチョウサヒナイ","prefecture_code":3},"0775":{"zip_code":"0280775","prefecture":"岩手県","prefecture_kana":"イワテケン","city":"遠野市","city_kana":"トオノシ","town":"上郷町平倉","town_kana":"カミゴウチョウヒラクラ","prefecture_code":3},"0773":{"zip_code":"0280773","prefecture":"岩手県","prefecture_kana":"イワテケン","city":"遠野市","city_kana":"トオノシ","town":"上郷町平野原","town_kana":"カミゴウチョウヒラノハラ","prefecture_code":3},"0772":{"zip_code":"0280772","prefecture":"岩手県","prefecture_kana":"イワテケン","city":"遠野市","city_kana":"トオノシ","town":"上郷町細越","town_kana":"カミゴウチョウホソゴエ","prefecture_code":3},"0774":{"zip_code":"0280774","prefecture":"岩手県","prefecture_kana":"イワテケン","city":"遠野市","city_kana":"トオノシ","town":"上郷町来内","town_kana":"カミゴウチョウライナイ","prefecture_code":3},"0516":{"zip_code":"0280516","prefecture":"岩手県","prefecture_kana":"イワテケン","city":"遠野市","city_kana":"トオノシ","town":"穀町","town_kana":"コクチョウ","prefecture_code":3},"0521":{"zip_code":"0280521","prefecture":"岩手県","prefecture_kana":"イワテケン","city":"遠野市","city_kana":"トオノシ","town":"材木町","town_kana":"ザイモクチョウ","prefecture_code":3},"0526":{"zip_code":"0280526","prefecture":"岩手県","prefecture_kana":"イワテケン","city":"遠野市","city_kana":"トオノシ","town":"下組町","town_kana":"シモクミチョウ","prefecture_code":3},"0522":{"zip_code":"0280522","prefecture":"岩手県","prefecture_kana":"イワテケン","city":"遠野市","city_kana":"トオノシ","town":"新穀町","town_kana":"シンコクチョウ","prefecture_code":3},"0524":{"zip_code":"0280524","prefecture":"岩手県","prefecture_kana":"イワテケン","city":"遠野市","city_kana":"トオノシ","town":"新町","town_kana":"シンマチ","prefecture_code":3},"0527":{"zip_code":"0280527","prefecture":"岩手県","prefecture_kana":"イワテケン","city":"遠野市","city_kana":"トオノシ","town":"大工町","town_kana":"ダイクチョウ","prefecture_code":3},"0523":{"zip_code":"0280523","prefecture":"岩手県","prefecture_kana":"イワテケン","city":"遠野市","city_kana":"トオノシ","town":"中央通り","town_kana":"チュウオウドオリ","prefecture_code":3},"0662":{"zip_code":"0280662","prefecture":"岩手県","prefecture_kana":"イワテケン","city":"遠野市","city_kana":"トオノシ","town":"附馬牛町安居台","town_kana":"ツキモウシチョウアオダイ","prefecture_code":3},"0661":{"zip_code":"0280661","prefecture":"岩手県","prefecture_kana":"イワテケン","city":"遠野市","city_kana":"トオノシ","town":"附馬牛町上附馬牛","town_kana":"ツキモウシチョウカミツキモウシ","prefecture_code":3},"0663":{"zip_code":"0280663","prefecture":"岩手県","prefecture_kana":"イワテケン","city":"遠野市","city_kana":"トオノシ","town":"附馬牛町下附馬牛","town_kana":"ツキモウシチョウシモツキモウシ","prefecture_code":3},"0664":{"zip_code":"0280664","prefecture":"岩手県","prefecture_kana":"イワテケン","city":"遠野市","city_kana":"トオノシ","town":"附馬牛町東禅寺","town_kana":"ツキモウシチョウトウゼンジ","prefecture_code":3},"0554":{"zip_code":"0280554","prefecture":"岩手県","prefecture_kana":"イワテケン","city":"遠野市","city_kana":"トオノシ","town":"土淵町飯豊","town_kana":"ツチブチチョウイイトヨ","prefecture_code":3},"0553":{"zip_code":"0280553","prefecture":"岩手県","prefecture_kana":"イワテケン","city":"遠野市","city_kana":"トオノシ","town":"土淵町柏崎","town_kana":"ツチブチチョウカシワザキ","prefecture_code":3},"0555":{"zip_code":"0280555","prefecture":"岩手県","prefecture_kana":"イワテケン","city":"遠野市","city_kana":"トオノシ","town":"土淵町土淵","town_kana":"ツチブチチョウツチブチ","prefecture_code":3},"0551":{"zip_code":"0280551","prefecture":"岩手県","prefecture_kana":"イワテケン","city":"遠野市","city_kana":"トオノシ","town":"土淵町栃内","town_kana":"ツチブチチョウトチナイ","prefecture_code":3},"0552":{"zip_code":"0280552","prefecture":"岩手県","prefecture_kana":"イワテケン","city":"遠野市","city_kana":"トオノシ","town":"土淵町山口","town_kana":"ツチブチチョウヤマグチ","prefecture_code":3},"0514":{"zip_code":"0280514","prefecture":"岩手県","prefecture_kana":"イワテケン","city":"遠野市","city_kana":"トオノシ","town":"遠野町","town_kana":"トオノチョウ","prefecture_code":3},"0542":{"zip_code":"0280542","prefecture":"岩手県","prefecture_kana":"イワテケン","city":"遠野市","city_kana":"トオノシ","town":"早瀬町","town_kana":"ハヤセチョウ","prefecture_code":3},"0512":{"zip_code":"0280512","prefecture":"岩手県","prefecture_kana":"イワテケン","city":"遠野市","city_kana":"トオノシ","town":"東上組町","town_kana":"ヒガシカミクミチョウ","prefecture_code":3},"0513":{"zip_code":"0280513","prefecture":"岩手県","prefecture_kana":"イワテケン","city":"遠野市","city_kana":"トオノシ","town":"東穀町","town_kana":"ヒガシコクチョウ","prefecture_code":3},"0515":{"zip_code":"0280515","prefecture":"岩手県","prefecture_kana":"イワテケン","city":"遠野市","city_kana":"トオノシ","town":"東舘町","town_kana":"ヒガシダテチョウ","prefecture_code":3},"0543":{"zip_code":"0280543","prefecture":"岩手県","prefecture_kana":"イワテケン","city":"遠野市","city_kana":"トオノシ","town":"松崎町光興寺","town_kana":"マツザキチョウコウコウジ","prefecture_code":3},"0545":{"zip_code":"0280545","prefecture":"岩手県","prefecture_kana":"イワテケン","city":"遠野市","city_kana":"トオノシ","town":"松崎町駒木","town_kana":"マツザキチョウコマギ","prefecture_code":3},"0541":{"zip_code":"0280541","prefecture":"岩手県","prefecture_kana":"イワテケン","city":"遠野市","city_kana":"トオノシ","town":"松崎町白岩","town_kana":"マツザキチョウシライワ","prefecture_code":3},"0544":{"zip_code":"0280544","prefecture":"岩手県","prefecture_kana":"イワテケン","city":"遠野市","city_kana":"トオノシ","town":"松崎町松崎","town_kana":"マツザキチョウマツザキ","prefecture_code":3},"0302":{"zip_code":"0280302","prefecture":"岩手県","prefecture_kana":"イワテケン","city":"遠野市","city_kana":"トオノシ","town":"宮守町上鱒沢","town_kana":"ミヤモリチョウカミマスザワ","prefecture_code":3},"0301":{"zip_code":"0280301","prefecture":"岩手県","prefecture_kana":"イワテケン","city":"遠野市","city_kana":"トオノシ","town":"宮守町上宮守","town_kana":"ミヤモリチョウカミミヤモリ","prefecture_code":3},"0303":{"zip_code":"0280303","prefecture":"岩手県","prefecture_kana":"イワテケン","city":"遠野市","city_kana":"トオノシ","town":"宮守町下鱒沢","town_kana":"ミヤモリチョウシモマスザワ","prefecture_code":3},"0304":{"zip_code":"0280304","prefecture":"岩手県","prefecture_kana":"イワテケン","city":"遠野市","city_kana":"トオノシ","town":"宮守町下宮守","town_kana":"ミヤモリチョウシモミヤモリ","prefecture_code":3},"0305":{"zip_code":"0280305","prefecture":"岩手県","prefecture_kana":"イワテケン","city":"遠野市","city_kana":"トオノシ","town":"宮守町達曽部","town_kana":"ミヤモリチョウタッソベ","prefecture_code":3},"0525":{"zip_code":"0280525","prefecture":"岩手県","prefecture_kana":"イワテケン","city":"遠野市","city_kana":"トオノシ","town":"六日町","town_kana":"ムイカマチ","prefecture_code":3},"6100":{"zip_code":"0286100","prefecture":"岩手県","prefecture_kana":"イワテケン","city":"二戸市","city_kana":"ニノヘシ","town":"","town_kana":"","prefecture_code":3},"6723":{"zip_code":"0286723","prefecture":"岩手県","prefecture_kana":"イワテケン","city":"二戸市","city_kana":"ニノヘシ","town":"安比","town_kana":"アッピ","prefecture_code":3},"6103":{"zip_code":"0286103","prefecture":"岩手県","prefecture_kana":"イワテケン","city":"二戸市","city_kana":"ニノヘシ","town":"石切所","town_kana":"イシキリドコロ","prefecture_code":3},"5713":{"zip_code":"0285713","prefecture":"岩手県","prefecture_kana":"イワテケン","city":"二戸市","city_kana":"ニノヘシ","town":"釜沢","town_kana":"カマザワ","prefecture_code":3},"6108":{"zip_code":"0286108","prefecture":"岩手県","prefecture_kana":"イワテケン","city":"二戸市","city_kana":"ニノヘシ","town":"上斗米","town_kana":"カミトマイ","prefecture_code":3},"5711":{"zip_code":"0285711","prefecture":"岩手県","prefecture_kana":"イワテケン","city":"二戸市","city_kana":"ニノヘシ","town":"金田一","town_kana":"キンタイチ","prefecture_code":3},"5702":[{"zip_code":"0285702","prefecture":"岩手県","prefecture_kana":"イワテケン","city":"二戸市","city_kana":"ニノヘシ","town":"下斗米外芹沢","town_kana":"シモトマイソトセリサワ","prefecture_code":3},{"zip_code":"0285702","prefecture":"岩手県","prefecture_kana":"イワテケン","city":"二戸市","city_kana":"ニノヘシ","town":"下斗米月折","town_kana":"シモトマイツキオリ","prefecture_code":3},{"zip_code":"0285702","prefecture":"岩手県","prefecture_kana":"イワテケン","city":"二戸市","city_kana":"ニノヘシ","town":"下斗米土橋","town_kana":"シモトマイツチバシ","prefecture_code":3}],"6102":{"zip_code":"0286102","prefecture":"岩手県","prefecture_kana":"イワテケン","city":"二戸市","city_kana":"ニノヘシ","town":"下斗米","town_kana":"シモトマイ","prefecture_code":3},"6857":{"zip_code":"0286857","prefecture":"岩手県","prefecture_kana":"イワテケン","city":"二戸市","city_kana":"ニノヘシ","town":"浄法寺町合名沢","town_kana":"ジョウボウジマチアイナザワ","prefecture_code":3},"6944":{"zip_code":"0286944","prefecture":"岩手県","prefecture_kana":"イワテケン","city":"二戸市","city_kana":"ニノヘシ","town":"浄法寺町飛鳥","town_kana":"ジョウボウジマチアスカ","prefecture_code":3},"6945":{"zip_code":"0286945","prefecture":"岩手県","prefecture_kana":"イワテケン","city":"二戸市","city_kana":"ニノヘシ","town":"浄法寺町飛鳥谷地","town_kana":"ジョウボウジマチアスカヤチ","prefecture_code":3},"6946":{"zip_code":"0286946","prefecture":"岩手県","prefecture_kana":"イワテケン","city":"二戸市","city_kana":"ニノヘシ","town":"浄法寺町安比内","town_kana":"ジョウボウジマチアッピナイ","prefecture_code":3},"6947":{"zip_code":"0286947","prefecture":"岩手県","prefecture_kana":"イワテケン","city":"二戸市","city_kana":"ニノヘシ","town":"浄法寺町安比内沢","town_kana":"ジョウボウジマチアッピナイザワ","prefecture_code":3},"6883":{"zip_code":"0286883","prefecture":"岩手県","prefecture_kana":"イワテケン","city":"二戸市","city_kana":"ニノヘシ","town":"浄法寺町荒谷","town_kana":"ジョウボウジマチアラヤ","prefecture_code":3},"6837":{"zip_code":"0286837","prefecture":"岩手県","prefecture_kana":"イワテケン","city":"二戸市","city_kana":"ニノヘシ","town":"浄法寺町荒屋敷","town_kana":"ジョウボウジマチアラヤシキ","prefecture_code":3},"6866":{"zip_code":"0286866","prefecture":"岩手県","prefecture_kana":"イワテケン","city":"二戸市","city_kana":"ニノヘシ","town":"浄法寺町飯近","town_kana":"ジョウボウジマチイイヅカ","prefecture_code":3},"6924":{"zip_code":"0286924","prefecture":"岩手県","prefecture_kana":"イワテケン","city":"二戸市","city_kana":"ニノヘシ","town":"浄法寺町家ノ上","town_kana":"ジョウボウジマチイエノウエ","prefecture_code":3},"6877":{"zip_code":"0286877","prefecture":"岩手県","prefecture_kana":"イワテケン","city":"二戸市","city_kana":"ニノヘシ","town":"浄法寺町伊崎沢","town_kana":"ジョウボウジマチイサキザワ","prefecture_code":3},"6874":{"zip_code":"0286874","prefecture":"岩手県","prefecture_kana":"イワテケン","city":"二戸市","city_kana":"ニノヘシ","town":"浄法寺町一反田","town_kana":"ジョウボウジマチイツタンダ","prefecture_code":3},"6847":{"zip_code":"0286847","prefecture":"岩手県","prefecture_kana":"イワテケン","city":"二戸市","city_kana":"ニノヘシ","town":"浄法寺町岩渕","town_kana":"ジョウボウジマチイワブチ","prefecture_code":3},"6943":{"zip_code":"0286943","prefecture":"岩手県","prefecture_kana":"イワテケン","city":"二戸市","city_kana":"ニノヘシ","town":"浄法寺町後久保","town_kana":"ジョウボウジマチウシロクボ","prefecture_code":3},"6848":{"zip_code":"0286848","prefecture":"岩手県","prefecture_kana":"イワテケン","city":"二戸市","city_kana":"ニノヘシ","town":"浄法寺町ウト坂","town_kana":"ジョウボウジマチウトザカ","prefecture_code":3},"6819":{"zip_code":"0286819","prefecture":"岩手県","prefecture_kana":"イワテケン","city":"二戸市","city_kana":"ニノヘシ","town":"浄法寺町馬洗場","town_kana":"ジョウボウジマチウマアライバ","prefecture_code":3},"6879":{"zip_code":"0286879","prefecture":"岩手県","prefecture_kana":"イワテケン","city":"二戸市","city_kana":"ニノヘシ","town":"浄法寺町梅ノ木","town_kana":"ジョウボウジマチウメノキ","prefecture_code":3},"6833":{"zip_code":"0286833","prefecture":"岩手県","prefecture_kana":"イワテケン","city":"二戸市","city_kana":"ニノヘシ","town":"浄法寺町漆沢","town_kana":"ジョウボウジマチウルシザワ","prefecture_code":3},"6817":{"zip_code":"0286817","prefecture":"岩手県","prefecture_kana":"イワテケン","city":"二戸市","city_kana":"ニノヘシ","town":"浄法寺町漆沢大久保","town_kana":"ジョウボウジマチウルシザワオオクボ","prefecture_code":3},"6832":{"zip_code":"0286832","prefecture":"岩手県","prefecture_kana":"イワテケン","city":"二戸市","city_kana":"ニノヘシ","town":"浄法寺町漆沢上平","town_kana":"ジョウボウジマチウルシザワカミタイラ","prefecture_code":3},"6845":{"zip_code":"0286845","prefecture":"岩手県","prefecture_kana":"イワテケン","city":"二戸市","city_kana":"ニノヘシ","town":"浄法寺町漆沢上前田","town_kana":"ジョウボウジマチウルシザワカミマエタ","prefecture_code":3},"6831":{"zip_code":"0286831","prefecture":"岩手県","prefecture_kana":"イワテケン","city":"二戸市","city_kana":"ニノヘシ","town":"浄法寺町漆沢下平","town_kana":"ジョウボウジマチウルシザワシモタイラ","prefecture_code":3},"6835":{"zip_code":"0286835","prefecture":"岩手県","prefecture_kana":"イワテケン","city":"二戸市","city_kana":"ニノヘシ","town":"浄法寺町漆沢下モ前田","town_kana":"ジョウボウジマチウルシザワシモマエタ","prefecture_code":3},"6822":{"zip_code":"0286822","prefecture":"岩手県","prefecture_kana":"イワテケン","city":"二戸市","city_kana":"ニノヘシ","town":"浄法寺町漆沢舘","town_kana":"ジョウボウジマチウルシザワタテ","prefecture_code":3},"6842":{"zip_code":"0286842","prefecture":"岩手県","prefecture_kana":"イワテケン","city":"二戸市","city_kana":"ニノヘシ","town":"浄法寺町漆沢中前田","town_kana":"ジョウボウジマチウルシザワナカマエタ","prefecture_code":3},"6985":{"zip_code":"0286985","prefecture":"岩手県","prefecture_kana":"イワテケン","city":"二戸市","city_kana":"ニノヘシ","town":"浄法寺町漆畑","town_kana":"ジョウボウジマチウルシバタ","prefecture_code":3},"6878":{"zip_code":"0286878","prefecture":"岩手県","prefecture_kana":"イワテケン","city":"二戸市","city_kana":"ニノヘシ","town":"浄法寺町漆原","town_kana":"ジョウボウジマチウルシバラ","prefecture_code":3},"6861":{"zip_code":"0286861","prefecture":"岩手県","prefecture_kana":"イワテケン","city":"二戸市","city_kana":"ニノヘシ","town":"浄法寺町上野","town_kana":"ジョウボウジマチウワノ","prefecture_code":3},"6873":{"zip_code":"0286873","prefecture":"岩手県","prefecture_kana":"イワテケン","city":"二戸市","city_kana":"ニノヘシ","town":"浄法寺町大志田","town_kana":"ジョウボウジマチオオシタ","prefecture_code":3},"6919":{"zip_code":"0286919","prefecture":"岩手県","prefecture_kana":"イワテケン","city":"二戸市","city_kana":"ニノヘシ","town":"浄法寺町大清水荒屋","town_kana":"ジョウボウジマチオオシミズアラヤ","prefecture_code":3},"6916":{"zip_code":"0286916","prefecture":"岩手県","prefecture_kana":"イワテケン","city":"二戸市","city_kana":"ニノヘシ","town":"浄法寺町大清水下モ平","town_kana":"ジョウボウジマチオオシミズシモタイラ","prefecture_code":3},"6929":{"zip_code":"0286929","prefecture":"岩手県","prefecture_kana":"イワテケン","city":"二戸市","city_kana":"ニノヘシ","town":"浄法寺町大清水空久保","town_kana":"ジョウボウジマチオオシミズソラクボ","prefecture_code":3},"6917":{"zip_code":"0286917","prefecture":"岩手県","prefecture_kana":"イワテケン","city":"二戸市","city_kana":"ニノヘシ","town":"浄法寺町大清水前田","town_kana":"ジョウボウジマチオオシミズマエタ","prefecture_code":3},"6813":{"zip_code":"0286813","prefecture":"岩手県","prefecture_kana":"イワテケン","city":"二戸市","city_kana":"ニノヘシ","town":"浄法寺町大平","town_kana":"ジョウボウジマチオオダイラ","prefecture_code":3},"6958":{"zip_code":"0286958","prefecture":"岩手県","prefecture_kana":"イワテケン","city":"二戸市","city_kana":"ニノヘシ","town":"浄法寺町大手","town_kana":"ジョウボウジマチオオテ","prefecture_code":3},"6937":{"zip_code":"0286937","prefecture":"岩手県","prefecture_kana":"イワテケン","city":"二戸市","city_kana":"ニノヘシ","town":"浄法寺町大畑","town_kana":"ジョウボウジマチオオハタ","prefecture_code":3},"6849":{"zip_code":"0286849","prefecture":"岩手県","prefecture_kana":"イワテケン","city":"二戸市","city_kana":"ニノヘシ","town":"浄法寺町岡本","town_kana":"ジョウボウジマチオカモト","prefecture_code":3},"6844":{"zip_code":"0286844","prefecture":"岩手県","prefecture_kana":"イワテケン","city":"二戸市","city_kana":"ニノヘシ","town":"浄法寺町岡本前田","town_kana":"ジョウボウジマチオカモトマエタ","prefecture_code":3},"6939":{"zip_code":"0286939","prefecture":"岩手県","prefecture_kana":"イワテケン","city":"二戸市","city_kana":"ニノヘシ","town":"浄法寺町長流部","town_kana":"ジョウボウジマチオサルベ","prefecture_code":3},"6942":{"zip_code":"0286942","prefecture":"岩手県","prefecture_kana":"イワテケン","city":"二戸市","city_kana":"ニノヘシ","town":"浄法寺町御山久保","town_kana":"ジョウボウジマチオヤマクボ","prefecture_code":3},"6938":{"zip_code":"0286938","prefecture":"岩手県","prefecture_kana":"イワテケン","city":"二戸市","city_kana":"ニノヘシ","town":"浄法寺町御山上平","town_kana":"ジョウボウジマチオンヤマウワダイ","prefecture_code":3},"6933":{"zip_code":"0286933","prefecture":"岩手県","prefecture_kana":"イワテケン","city":"二戸市","city_kana":"ニノヘシ","town":"浄法寺町御山上野","town_kana":"ジョウボウジマチオンヤマウワノ","prefecture_code":3},"6952":{"zip_code":"0286952","prefecture":"岩手県","prefecture_kana":"イワテケン","city":"二戸市","city_kana":"ニノヘシ","town":"浄法寺町御山大久保","town_kana":"ジョウボウジマチオンヤマオオクボ","prefecture_code":3},"6935":{"zip_code":"0286935","prefecture":"岩手県","prefecture_kana":"イワテケン","city":"二戸市","city_kana":"ニノヘシ","town":"浄法寺町御山下前田","town_kana":"ジョウボウジマチオンヤマシモマエタ","prefecture_code":3},"6948":{"zip_code":"0286948","prefecture":"岩手県","prefecture_kana":"イワテケン","city":"二戸市","city_kana":"ニノヘシ","town":"浄法寺町御山舘","town_kana":"ジョウボウジマチオンヤマタテ","prefecture_code":3},"6941":{"zip_code":"0286941","prefecture":"岩手県","prefecture_kana":"イワテケン","city":"二戸市","city_kana":"ニノヘシ","town":"浄法寺町御山中前田","town_kana":"ジョウボウジマチオンヤマナカマエタ","prefecture_code":3},"6949":{"zip_code":"0286949","prefecture":"岩手県","prefecture_kana":"イワテケン","city":"二戸市","city_kana":"ニノヘシ","town":"浄法寺町御山前田","town_kana":"ジョウボウジマチオンヤママエタ","prefecture_code":3},"6966":{"zip_code":"0286966","prefecture":"岩手県","prefecture_kana":"イワテケン","city":"二戸市","city_kana":"ニノヘシ","town":"浄法寺町海上","town_kana":"ジョウボウジマチカイショウ","prefecture_code":3},"6957":{"zip_code":"0286957","prefecture":"岩手県","prefecture_kana":"イワテケン","city":"二戸市","city_kana":"ニノヘシ","town":"浄法寺町海上田","town_kana":"ジョウボウジマチカイショウダ","prefecture_code":3},"6968":{"zip_code":"0286968","prefecture":"岩手県","prefecture_kana":"イワテケン","city":"二戸市","city_kana":"ニノヘシ","town":"浄法寺町海上前田","town_kana":"ジョウボウジマチカイショウマエタ","prefecture_code":3},"6818":{"zip_code":"0286818","prefecture":"岩手県","prefecture_kana":"イワテケン","city":"二戸市","city_kana":"ニノヘシ","town":"浄法寺町鏡田","town_kana":"ジョウボウジマチカガミタ","prefecture_code":3},"6984":{"zip_code":"0286984","prefecture":"岩手県","prefecture_kana":"イワテケン","city":"二戸市","city_kana":"ニノヘシ","town":"浄法寺町柿ノ木平","town_kana":"ジョウボウジマチカキノキタイラ","prefecture_code":3},"6955":{"zip_code":"0286955","prefecture":"岩手県","prefecture_kana":"イワテケン","city":"二戸市","city_kana":"ニノヘシ","town":"浄法寺町桂平","town_kana":"ジョウボウジマチカツラダイ","prefecture_code":3},"6906":{"zip_code":"0286906","prefecture":"岩手県","prefecture_kana":"イワテケン","city":"二戸市","city_kana":"ニノヘシ","town":"浄法寺町上杉沢","town_kana":"ジョウボウジマチカミスギサワ","prefecture_code":3},"6856":{"zip_code":"0286856","prefecture":"岩手県","prefecture_kana":"イワテケン","city":"二戸市","city_kana":"ニノヘシ","town":"浄法寺町上外野","town_kana":"ジョウボウジマチカミソトノ","prefecture_code":3},"6911":{"zip_code":"0286911","prefecture":"岩手県","prefecture_kana":"イワテケン","city":"二戸市","city_kana":"ニノヘシ","town":"浄法寺町上前田","town_kana":"ジョウボウジマチカミマエタ","prefecture_code":3},"6816":{"zip_code":"0286816","prefecture":"岩手県","prefecture_kana":"イワテケン","city":"二戸市","city_kana":"ニノヘシ","town":"浄法寺町上谷地","town_kana":"ジョウボウジマチカミヤチ","prefecture_code":3},"6826":{"zip_code":"0286826","prefecture":"岩手県","prefecture_kana":"イワテケン","city":"二戸市","city_kana":"ニノヘシ","town":"浄法寺町川又","town_kana":"ジョウボウジマチカワマタ","prefecture_code":3},"6926":{"zip_code":"0286926","prefecture":"岩手県","prefecture_kana":"イワテケン","city":"二戸市","city_kana":"ニノヘシ","town":"浄法寺町門崎","town_kana":"ジョウボウジマチカンザキ","prefecture_code":3},"6953":{"zip_code":"0286953","prefecture":"岩手県","prefecture_kana":"イワテケン","city":"二戸市","city_kana":"ニノヘシ","town":"浄法寺町木沢畑向","town_kana":"ジョウボウジマチキサワバタムカイ","prefecture_code":3},"6814":{"zip_code":"0286814","prefecture":"岩手県","prefecture_kana":"イワテケン","city":"二戸市","city_kana":"ニノヘシ","town":"浄法寺町北村","town_kana":"ジョウボウジマチキタムラ","prefecture_code":3},"6981":{"zip_code":"0286981","prefecture":"岩手県","prefecture_kana":"イワテケン","city":"二戸市","city_kana":"ニノヘシ","town":"浄法寺町五庵","town_kana":"ジョウボウジマチゴアン","prefecture_code":3},"6851":{"zip_code":"0286851","prefecture":"岩手県","prefecture_kana":"イワテケン","city":"二戸市","city_kana":"ニノヘシ","town":"浄法寺町小池","town_kana":"ジョウボウジマチコイケ","prefecture_code":3},"6921":{"zip_code":"0286921","prefecture":"岩手県","prefecture_kana":"イワテケン","city":"二戸市","city_kana":"ニノヘシ","town":"浄法寺町小泉","town_kana":"ジョウボウジマチコイズミ","prefecture_code":3},"6821":{"zip_code":"0286821","prefecture":"岩手県","prefecture_kana":"イワテケン","city":"二戸市","city_kana":"ニノヘシ","town":"浄法寺町小平","town_kana":"ジョウボウジマチコダイラ","prefecture_code":3},"6977":{"zip_code":"0286977","prefecture":"岩手県","prefecture_kana":"イワテケン","city":"二戸市","city_kana":"ニノヘシ","town":"浄法寺町駒ケ嶺","town_kana":"ジョウボウジマチコマガミネ","prefecture_code":3},"6973":{"zip_code":"0286973","prefecture":"岩手県","prefecture_kana":"イワテケン","city":"二戸市","city_kana":"ニノヘシ","town":"浄法寺町駒ケ嶺舘","town_kana":"ジョウボウジマチコマガミネタテ","prefecture_code":3},"6979":{"zip_code":"0286979","prefecture":"岩手県","prefecture_kana":"イワテケン","city":"二戸市","city_kana":"ニノヘシ","town":"浄法寺町駒ケ嶺野田","town_kana":"ジョウボウジマチコマガミネノダ","prefecture_code":3},"6978":{"zip_code":"0286978","prefecture":"岩手県","prefecture_kana":"イワテケン","city":"二戸市","city_kana":"ニノヘシ","town":"浄法寺町駒ケ嶺前田","town_kana":"ジョウボウジマチコマガミネマエタ","prefecture_code":3},"6963":{"zip_code":"0286963","prefecture":"岩手県","prefecture_kana":"イワテケン","city":"二戸市","city_kana":"ニノヘシ","town":"浄法寺町小又","town_kana":"ジョウボウジマチコマタ","prefecture_code":3},"6853":{"zip_code":"0286853","prefecture":"岩手県","prefecture_kana":"イワテケン","city":"二戸市","city_kana":"ニノヘシ","town":"浄法寺町サイカツ田","town_kana":"ジョウボウジマチサイカツタ","prefecture_code":3},"6918":{"zip_code":"0286918","prefecture":"岩手県","prefecture_kana":"イワテケン","city":"二戸市","city_kana":"ニノヘシ","town":"浄法寺町サイカツ平","town_kana":"ジョウボウジマチサイカツタイラ","prefecture_code":3},"6903":{"zip_code":"0286903","prefecture":"岩手県","prefecture_kana":"イワテケン","city":"二戸市","city_kana":"ニノヘシ","town":"浄法寺町坂本","town_kana":"ジョウボウジマチサカモト","prefecture_code":3},"6972":{"zip_code":"0286972","prefecture":"岩手県","prefecture_kana":"イワテケン","city":"二戸市","city_kana":"ニノヘシ","town":"浄法寺町桜田","town_kana":"ジョウボウジマチサクラダ","prefecture_code":3},"6872":{"zip_code":"0286872","prefecture":"岩手県","prefecture_kana":"イワテケン","city":"二戸市","city_kana":"ニノヘシ","town":"浄法寺町里川目","town_kana":"ジョウボウジマチサトカワメ","prefecture_code":3},"6904":{"zip_code":"0286904","prefecture":"岩手県","prefecture_kana":"イワテケン","city":"二戸市","city_kana":"ニノヘシ","town":"浄法寺町里代","town_kana":"ジョウボウジマチサトシロ","prefecture_code":3},"6934":{"zip_code":"0286934","prefecture":"岩手県","prefecture_kana":"イワテケン","city":"二戸市","city_kana":"ニノヘシ","town":"浄法寺町沢田","town_kana":"ジョウボウジマチサワダ","prefecture_code":3},"6928":{"zip_code":"0286928","prefecture":"岩手県","prefecture_kana":"イワテケン","city":"二戸市","city_kana":"ニノヘシ","town":"浄法寺町山内","town_kana":"ジョウボウジマチサンナイ","prefecture_code":3},"6846":{"zip_code":"0286846","prefecture":"岩手県","prefecture_kana":"イワテケン","city":"二戸市","city_kana":"ニノヘシ","town":"浄法寺町下タ前田","town_kana":"ジョウボウジマチシタマエタ","prefecture_code":3},"6923":{"zip_code":"0286923","prefecture":"岩手県","prefecture_kana":"イワテケン","city":"二戸市","city_kana":"ニノヘシ","town":"浄法寺町下村","town_kana":"ジョウボウジマチシタムラ","prefecture_code":3},"6931":{"zip_code":"0286931","prefecture":"岩手県","prefecture_kana":"イワテケン","city":"二戸市","city_kana":"ニノヘシ","town":"浄法寺町尻平","town_kana":"ジョウボウジマチシッペイ","prefecture_code":3},"6951":{"zip_code":"0286951","prefecture":"岩手県","prefecture_kana":"イワテケン","city":"二戸市","city_kana":"ニノヘシ","town":"浄法寺町清水尻","town_kana":"ジョウボウジマチシミズジリ","prefecture_code":3},"6907":{"zip_code":"0286907","prefecture":"岩手県","prefecture_kana":"イワテケン","city":"二戸市","city_kana":"ニノヘシ","town":"浄法寺町季ケ平","town_kana":"ジョウボウジマチシモガタイラ","prefecture_code":3},"6812":{"zip_code":"0286812","prefecture":"岩手県","prefecture_kana":"イワテケン","city":"二戸市","city_kana":"ニノヘシ","town":"浄法寺町下沢","town_kana":"ジョウボウジマチシモサワ","prefecture_code":3},"6913":{"zip_code":"0286913","prefecture":"岩手県","prefecture_kana":"イワテケン","city":"二戸市","city_kana":"ニノヘシ","town":"浄法寺町下ノ沢","town_kana":"ジョウボウジマチシモノサワ","prefecture_code":3},"6983":{"zip_code":"0286983","prefecture":"岩手県","prefecture_kana":"イワテケン","city":"二戸市","city_kana":"ニノヘシ","town":"浄法寺町下藤","town_kana":"ジョウボウジマチシモフジ","prefecture_code":3},"6854":{"zip_code":"0286854","prefecture":"岩手県","prefecture_kana":"イワテケン","city":"二戸市","city_kana":"ニノヘシ","town":"浄法寺町下前田","town_kana":"ジョウボウジマチシモマエタ","prefecture_code":3},"6915":{"zip_code":"0286915","prefecture":"岩手県","prefecture_kana":"イワテケン","city":"二戸市","city_kana":"ニノヘシ","town":"浄法寺町霜屋敷","town_kana":"ジョウボウジマチシモヤシキ","prefecture_code":3},"6922":{"zip_code":"0286922","prefecture":"岩手県","prefecture_kana":"イワテケン","city":"二戸市","city_kana":"ニノヘシ","town":"浄法寺町下谷地","town_kana":"ジョウボウジマチシモヤチ","prefecture_code":3},"6855":{"zip_code":"0286855","prefecture":"岩手県","prefecture_kana":"イワテケン","city":"二戸市","city_kana":"ニノヘシ","town":"浄法寺町浄法寺","town_kana":"ジョウボウジマチジョウホウジ","prefecture_code":3},"6884":{"zip_code":"0286884","prefecture":"岩手県","prefecture_kana":"イワテケン","city":"二戸市","city_kana":"ニノヘシ","town":"浄法寺町新山","town_kana":"ジョウボウジマチシンザン","prefecture_code":3},"6836":{"zip_code":"0286836","prefecture":"岩手県","prefecture_kana":"イワテケン","city":"二戸市","city_kana":"ニノヘシ","town":"浄法寺町関田","town_kana":"ジョウボウジマチセキタ","prefecture_code":3},"6967":{"zip_code":"0286967","prefecture":"岩手県","prefecture_kana":"イワテケン","city":"二戸市","city_kana":"ニノヘシ","town":"浄法寺町惣川原田","town_kana":"ジョウボウジマチソウガワラダ","prefecture_code":3},"6905":{"zip_code":"0286905","prefecture":"岩手県","prefecture_kana":"イワテケン","city":"二戸市","city_kana":"ニノヘシ","town":"浄法寺町空久保","town_kana":"ジョウボウジマチソラクボ","prefecture_code":3},"6956":{"zip_code":"0286956","prefecture":"岩手県","prefecture_kana":"イワテケン","city":"二戸市","city_kana":"ニノヘシ","town":"浄法寺町大坊","town_kana":"ジョウボウジマチダイボウ","prefecture_code":3},"6961":{"zip_code":"0286961","prefecture":"岩手県","prefecture_kana":"イワテケン","city":"二戸市","city_kana":"ニノヘシ","town":"浄法寺町滝見橋","town_kana":"ジョウボウジマチタキミバシ","prefecture_code":3},"6876":{"zip_code":"0286876","prefecture":"岩手県","prefecture_kana":"イワテケン","city":"二戸市","city_kana":"ニノヘシ","town":"浄法寺町田子内沢","town_kana":"ジョウボウジマチタコナイザワ","prefecture_code":3},"6875":{"zip_code":"0286875","prefecture":"岩手県","prefecture_kana":"イワテケン","city":"二戸市","city_kana":"ニノヘシ","town":"浄法寺町舘","town_kana":"ジョウボウジマチタテ","prefecture_code":3},"6975":{"zip_code":"0286975","prefecture":"岩手県","prefecture_kana":"イワテケン","city":"二戸市","city_kana":"ニノヘシ","town":"浄法寺町田余内","town_kana":"ジョウボウジマチタヨナイ","prefecture_code":3},"6868":{"zip_code":"0286868","prefecture":"岩手県","prefecture_kana":"イワテケン","city":"二戸市","city_kana":"ニノヘシ","town":"浄法寺町長者花","town_kana":"ジョウボウジマチチョウジャバナ","prefecture_code":3},"6843":{"zip_code":"0286843","prefecture":"岩手県","prefecture_kana":"イワテケン","city":"二戸市","city_kana":"ニノヘシ","town":"浄法寺町堤口","town_kana":"ジョウボウジマチツツミグチ","prefecture_code":3},"6811":{"zip_code":"0286811","prefecture":"岩手県","prefecture_kana":"イワテケン","city":"二戸市","city_kana":"ニノヘシ","town":"浄法寺町手倉森","town_kana":"ジョウボウジマチテグラモリ","prefecture_code":3},"6862":{"zip_code":"0286862","prefecture":"岩手県","prefecture_kana":"イワテケン","city":"二戸市","city_kana":"ニノヘシ","town":"浄法寺町寺ノ上","town_kana":"ジョウボウジマチテラノウエ","prefecture_code":3},"6976":{"zip_code":"0286976","prefecture":"岩手県","prefecture_kana":"イワテケン","city":"二戸市","city_kana":"ニノヘシ","town":"浄法寺町樋口","town_kana":"ジョウボウジマチトイグチ","prefecture_code":3},"6852":{"zip_code":"0286852","prefecture":"岩手県","prefecture_kana":"イワテケン","city":"二戸市","city_kana":"ニノヘシ","town":"浄法寺町樋田","town_kana":"ジョウボウジマチトイダ","prefecture_code":3},"6825":{"zip_code":"0286825","prefecture":"岩手県","prefecture_kana":"イワテケン","city":"二戸市","city_kana":"ニノヘシ","town":"浄法寺町長坂","town_kana":"ジョウボウジマチナガサカ","prefecture_code":3},"6936":{"zip_code":"0286936","prefecture":"岩手県","prefecture_kana":"イワテケン","city":"二戸市","city_kana":"ニノヘシ","town":"浄法寺町長渡路","town_kana":"ジョウボウジマチナガドロ","prefecture_code":3},"6974":{"zip_code":"0286974","prefecture":"岩手県","prefecture_kana":"イワテケン","city":"二戸市","city_kana":"ニノヘシ","town":"浄法寺町中畑","town_kana":"ジョウボウジマチナカハタ","prefecture_code":3},"6912":{"zip_code":"0286912","prefecture":"岩手県","prefecture_kana":"イワテケン","city":"二戸市","city_kana":"ニノヘシ","town":"浄法寺町中前田","town_kana":"ジョウボウジマチナカマエタ","prefecture_code":3},"6824":{"zip_code":"0286824","prefecture":"岩手県","prefecture_kana":"イワテケン","city":"二戸市","city_kana":"ニノヘシ","town":"浄法寺町西ノ沢","town_kana":"ジョウボウジマチニシノサワ","prefecture_code":3},"6964":{"zip_code":"0286964","prefecture":"岩手県","prefecture_kana":"イワテケン","city":"二戸市","city_kana":"ニノヘシ","town":"浄法寺町沼久保","town_kana":"ジョウボウジマチヌマクボ","prefecture_code":3},"6908":{"zip_code":"0286908","prefecture":"岩手県","prefecture_kana":"イワテケン","city":"二戸市","city_kana":"ニノヘシ","town":"浄法寺町野黒沢","town_kana":"ジョウボウジマチノグロサワ","prefecture_code":3},"6865":{"zip_code":"0286865","prefecture":"岩手県","prefecture_kana":"イワテケン","city":"二戸市","city_kana":"ニノヘシ","town":"浄法寺町野田","town_kana":"ジョウボウジマチノダ","prefecture_code":3},"6925":{"zip_code":"0286925","prefecture":"岩手県","prefecture_kana":"イワテケン","city":"二戸市","city_kana":"ニノヘシ","town":"浄法寺町梅田","town_kana":"ジョウボウジマチバイタ","prefecture_code":3},"6863":{"zip_code":"0286863","prefecture":"岩手県","prefecture_kana":"イワテケン","city":"二戸市","city_kana":"ニノヘシ","town":"浄法寺町八幡舘","town_kana":"ジョウボウジマチハチマンダテ","prefecture_code":3},"6815":{"zip_code":"0286815","prefecture":"岩手県","prefecture_kana":"イワテケン","city":"二戸市","city_kana":"ニノヘシ","town":"浄法寺町八方口","town_kana":"ジョウボウジマチハッポウグチ","prefecture_code":3},"6962":{"zip_code":"0286962","prefecture":"岩手県","prefecture_kana":"イワテケン","city":"二戸市","city_kana":"ニノヘシ","town":"浄法寺町馬場向","town_kana":"ジョウボウジマチババムカイ","prefecture_code":3},"6969":{"zip_code":"0286969","prefecture":"岩手県","prefecture_kana":"イワテケン","city":"二戸市","city_kana":"ニノヘシ","town":"浄法寺町端保口","town_kana":"ジョウボウジマチハホグチ","prefecture_code":3},"6954":{"zip_code":"0286954","prefecture":"岩手県","prefecture_kana":"イワテケン","city":"二戸市","city_kana":"ニノヘシ","town":"浄法寺町早坂","town_kana":"ジョウボウジマチハヤサカ","prefecture_code":3},"6882":{"zip_code":"0286882","prefecture":"岩手県","prefecture_kana":"イワテケン","city":"二戸市","city_kana":"ニノヘシ","town":"浄法寺町羽余内","town_kana":"ジョウボウジマチハヨナイ","prefecture_code":3},"6901":{"zip_code":"0286901","prefecture":"岩手県","prefecture_kana":"イワテケン","city":"二戸市","city_kana":"ニノヘシ","town":"浄法寺町深堀","town_kana":"ジョウボウジマチフカボリ","prefecture_code":3},"6834":{"zip_code":"0286834","prefecture":"岩手県","prefecture_kana":"イワテケン","city":"二戸市","city_kana":"ニノヘシ","town":"浄法寺町細田","town_kana":"ジョウボウジマチホソダ","prefecture_code":3},"6841":{"zip_code":"0286841","prefecture":"岩手県","prefecture_kana":"イワテケン","city":"二戸市","city_kana":"ニノヘシ","town":"浄法寺町松岡","town_kana":"ジョウボウジマチマツオカ","prefecture_code":3},"6932":{"zip_code":"0286932","prefecture":"岩手県","prefecture_kana":"イワテケン","city":"二戸市","city_kana":"ニノヘシ","town":"浄法寺町松畑","town_kana":"ジョウボウジマチマツハタ","prefecture_code":3},"6823":{"zip_code":"0286823","prefecture":"岩手県","prefecture_kana":"イワテケン","city":"二戸市","city_kana":"ニノヘシ","town":"浄法寺町宮沢","town_kana":"ジョウボウジマチミヤザワ","prefecture_code":3},"6902":{"zip_code":"0286902","prefecture":"岩手県","prefecture_kana":"イワテケン","city":"二戸市","city_kana":"ニノヘシ","town":"浄法寺町明神沢","town_kana":"ジョウボウジマチミョウジンザワ","prefecture_code":3},"6971":{"zip_code":"0286971","prefecture":"岩手県","prefecture_kana":"イワテケン","city":"二戸市","city_kana":"ニノヘシ","town":"浄法寺町向川原","town_kana":"ジョウボウジマチムカイガワラ","prefecture_code":3},"6838":{"zip_code":"0286838","prefecture":"岩手県","prefecture_kana":"イワテケン","city":"二戸市","city_kana":"ニノヘシ","town":"浄法寺町向田","town_kana":"ジョウボウジマチムカイダ","prefecture_code":3},"6885":{"zip_code":"0286885","prefecture":"岩手県","prefecture_kana":"イワテケン","city":"二戸市","city_kana":"ニノヘシ","town":"浄法寺町森越","town_kana":"ジョウボウジマチモリコシ","prefecture_code":3},"6864":{"zip_code":"0286864","prefecture":"岩手県","prefecture_kana":"イワテケン","city":"二戸市","city_kana":"ニノヘシ","town":"浄法寺町門前向","town_kana":"ジョウボウジマチモンゼンムカイ","prefecture_code":3},"6867":{"zip_code":"0286867","prefecture":"岩手県","prefecture_kana":"イワテケン","city":"二戸市","city_kana":"ニノヘシ","town":"浄法寺町焼場","town_kana":"ジョウボウジマチヤキバ","prefecture_code":3},"6871":{"zip_code":"0286871","prefecture":"岩手県","prefecture_kana":"イワテケン","city":"二戸市","city_kana":"ニノヘシ","town":"浄法寺町安戸","town_kana":"ジョウボウジマチヤスド","prefecture_code":3},"6965":{"zip_code":"0286965","prefecture":"岩手県","prefecture_kana":"イワテケン","city":"二戸市","city_kana":"ニノヘシ","town":"浄法寺町谷地屋敷","town_kana":"ジョウボウジマチヤチヤシキ","prefecture_code":3},"6982":{"zip_code":"0286982","prefecture":"岩手県","prefecture_kana":"イワテケン","city":"二戸市","city_kana":"ニノヘシ","town":"浄法寺町焼切","town_kana":"ジョウボウジマチヤッキリ","prefecture_code":3},"6927":{"zip_code":"0286927","prefecture":"岩手県","prefecture_kana":"イワテケン","city":"二戸市","city_kana":"ニノヘシ","town":"浄法寺町湯沢","town_kana":"ジョウボウジマチユザワ","prefecture_code":3},"6914":{"zip_code":"0286914","prefecture":"岩手県","prefecture_kana":"イワテケン","city":"二戸市","city_kana":"ニノヘシ","town":"浄法寺町和泉田","town_kana":"ジョウボウジマチワイズミタ","prefecture_code":3},"6881":{"zip_code":"0286881","prefecture":"岩手県","prefecture_kana":"イワテケン","city":"二戸市","city_kana":"ニノヘシ","town":"浄法寺町渡ノ羽","town_kana":"ジョウボウジマチワタノハ","prefecture_code":3},"6107":{"zip_code":"0286107","prefecture":"岩手県","prefecture_kana":"イワテケン","city":"二戸市","city_kana":"ニノヘシ","town":"白鳥","town_kana":"シラトリ","prefecture_code":3},"6724":{"zip_code":"0286724","prefecture":"岩手県","prefecture_kana":"イワテケン","city":"二戸市","city_kana":"ニノヘシ","town":"足沢","town_kana":"タルサワ","prefecture_code":3},"6106":{"zip_code":"0286106","prefecture":"岩手県","prefecture_kana":"イワテケン","city":"二戸市","city_kana":"ニノヘシ","town":"仁左平","town_kana":"ニサタイ","prefecture_code":3},"6721":{"zip_code":"0286721","prefecture":"岩手県","prefecture_kana":"イワテケン","city":"二戸市","city_kana":"ニノヘシ","town":"似鳥","town_kana":"ニタドリ","prefecture_code":3},"5712":{"zip_code":"0285712","prefecture":"岩手県","prefecture_kana":"イワテケン","city":"二戸市","city_kana":"ニノヘシ","town":"野々上","town_kana":"ノノウエ","prefecture_code":3},"6101":{"zip_code":"0286101","prefecture":"岩手県","prefecture_kana":"イワテケン","city":"二戸市","city_kana":"ニノヘシ","town":"福岡","town_kana":"フクオカ","prefecture_code":3},"6722":{"zip_code":"0286722","prefecture":"岩手県","prefecture_kana":"イワテケン","city":"二戸市","city_kana":"ニノヘシ","town":"福田","town_kana":"フクダ","prefecture_code":3},"6105":{"zip_code":"0286105","prefecture":"岩手県","prefecture_kana":"イワテケン","city":"二戸市","city_kana":"ニノヘシ","town":"堀野","town_kana":"ホリノ","prefecture_code":3},"6104":{"zip_code":"0286104","prefecture":"岩手県","prefecture_kana":"イワテケン","city":"二戸市","city_kana":"ニノヘシ","town":"米沢","town_kana":"マイサワ","prefecture_code":3},"7100":{"zip_code":"0287100","prefecture":"岩手県","prefecture_kana":"イワテケン","city":"八幡平市","city_kana":"ハチマンタイシ","town":"","town_kana":"","prefecture_code":3},"7619":{"zip_code":"0287619","prefecture":"岩手県","prefecture_kana":"イワテケン","city":"八幡平市","city_kana":"ハチマンタイシ","town":"相沢","town_kana":"アイザワ","prefecture_code":3},"7635":{"zip_code":"0287635","prefecture":"岩手県","prefecture_kana":"イワテケン","city":"八幡平市","city_kana":"ハチマンタイシ","town":"愛の山","town_kana":"アイノヤマ","prefecture_code":3},"7526":{"zip_code":"0287526","prefecture":"岩手県","prefecture_kana":"イワテケン","city":"八幡平市","city_kana":"ハチマンタイシ","town":"赤子平","town_kana":"アカコタイ","prefecture_code":3},"7554":{"zip_code":"0287554","prefecture":"岩手県","prefecture_kana":"イワテケン","city":"八幡平市","city_kana":"ハチマンタイシ","town":"赤坂田","town_kana":"アカサカタ","prefecture_code":3},"7679":{"zip_code":"0287679","prefecture":"岩手県","prefecture_kana":"イワテケン","city":"八幡平市","city_kana":"ハチマンタイシ","town":"足深","town_kana":"アシブカ","prefecture_code":3},"7506":{"zip_code":"0287506","prefecture":"岩手県","prefecture_kana":"イワテケン","city":"八幡平市","city_kana":"ハチマンタイシ","town":"安代寺田","town_kana":"アシロテラダ","prefecture_code":3},"7552":{"zip_code":"0287552","prefecture":"岩手県","prefecture_kana":"イワテケン","city":"八幡平市","city_kana":"ハチマンタイシ","town":"安代寄木","town_kana":"アシロヨリキ","prefecture_code":3},"7306":{"zip_code":"0287306","prefecture":"岩手県","prefecture_kana":"イワテケン","city":"八幡平市","city_kana":"ハチマンタイシ","town":"安比高原","town_kana":"アッピコウゲン","prefecture_code":3},"7621":[{"zip_code":"0287621","prefecture":"岩手県","prefecture_kana":"イワテケン","city":"八幡平市","city_kana":"ハチマンタイシ","town":"兄川","town_kana":"アニカワ","prefecture_code":3},{"zip_code":"0287621","prefecture":"岩手県","prefecture_kana":"イワテケン","city":"八幡平市","city_kana":"ハチマンタイシ","town":"作平","town_kana":"サクヒラ","prefecture_code":3}],"7622":{"zip_code":"0287622","prefecture":"岩手県","prefecture_kana":"イワテケン","city":"八幡平市","city_kana":"ハチマンタイシ","town":"兄畑中川原","town_kana":"アニハタナカカワラ","prefecture_code":3},"7406":{"zip_code":"0287406","prefecture":"岩手県","prefecture_kana":"イワテケン","city":"八幡平市","city_kana":"ハチマンタイシ","town":"荒木田","town_kana":"アラキダ","prefecture_code":3},"7534":{"zip_code":"0287534","prefecture":"岩手県","prefecture_kana":"イワテケン","city":"八幡平市","city_kana":"ハチマンタイシ","town":"荒屋新町","town_kana":"アラヤシンマチ","prefecture_code":3},"7674":{"zip_code":"0287674","prefecture":"岩手県","prefecture_kana":"イワテケン","city":"八幡平市","city_kana":"ハチマンタイシ","town":"家ノ裏","town_kana":"イエノウラ","prefecture_code":3},"7521":{"zip_code":"0287521","prefecture":"岩手県","prefecture_kana":"イワテケン","city":"八幡平市","city_kana":"ハチマンタイシ","town":"石神","town_kana":"イシガミ","prefecture_code":3},"7615":{"zip_code":"0287615","prefecture":"岩手県","prefecture_kana":"イワテケン","city":"八幡平市","city_kana":"ハチマンタイシ","town":"石名坂","town_kana":"イシナザカ","prefecture_code":3},"7614":{"zip_code":"0287614","prefecture":"岩手県","prefecture_kana":"イワテケン","city":"八幡平市","city_kana":"ハチマンタイシ","town":"石名坂下タ","town_kana":"イシナザカシタ","prefecture_code":3},"7663":{"zip_code":"0287663","prefecture":"岩手県","prefecture_kana":"イワテケン","city":"八幡平市","city_kana":"ハチマンタイシ","town":"石森","town_kana":"イシモリ","prefecture_code":3},"7562":{"zip_code":"0287562","prefecture":"岩手県","prefecture_kana":"イワテケン","city":"八幡平市","city_kana":"ハチマンタイシ","town":"五日市","town_kana":"イツカイチ","prefecture_code":3},"7501":{"zip_code":"0287501","prefecture":"岩手県","prefecture_kana":"イワテケン","city":"八幡平市","city_kana":"ハチマンタイシ","town":"岩木向","town_kana":"イワキムカイ","prefecture_code":3},"7505":{"zip_code":"0287505","prefecture":"岩手県","prefecture_kana":"イワテケン","city":"八幡平市","city_kana":"ハチマンタイシ","town":"岩屋","town_kana":"イワヤ","prefecture_code":3},"7531":{"zip_code":"0287531","prefecture":"岩手県","prefecture_kana":"イワテケン","city":"八幡平市","city_kana":"ハチマンタイシ","town":"上の山","town_kana":"ウエノヤマ","prefecture_code":3},"7602":{"zip_code":"0287602","prefecture":"岩手県","prefecture_kana":"イワテケン","city":"八幡平市","city_kana":"ハチマンタイシ","town":"丑山","town_kana":"ウシヤマ","prefecture_code":3},"7604":{"zip_code":"0287604","prefecture":"岩手県","prefecture_kana":"イワテケン","city":"八幡平市","city_kana":"ハチマンタイシ","town":"丑山口","town_kana":"ウシヤマグチ","prefecture_code":3},"7536":{"zip_code":"0287536","prefecture":"岩手県","prefecture_kana":"イワテケン","city":"八幡平市","city_kana":"ハチマンタイシ","town":"打田内","town_kana":"ウツタナイ","prefecture_code":3},"7605":{"zip_code":"0287605","prefecture":"岩手県","prefecture_kana":"イワテケン","city":"八幡平市","city_kana":"ハチマンタイシ","town":"鵜谷地","town_kana":"ウノドリヤチ","prefecture_code":3},"7606":{"zip_code":"0287606","prefecture":"岩手県","prefecture_kana":"イワテケン","city":"八幡平市","city_kana":"ハチマンタイシ","town":"姥子石","town_kana":"ウバコイシ","prefecture_code":3},"7655":{"zip_code":"0287655","prefecture":"岩手県","prefecture_kana":"イワテケン","city":"八幡平市","city_kana":"ハチマンタイシ","town":"馬揚沢","town_kana":"ウマアゲサワ","prefecture_code":3},"7403":{"zip_code":"0287403","prefecture":"岩手県","prefecture_kana":"イワテケン","city":"八幡平市","city_kana":"ハチマンタイシ","town":"上関","town_kana":"ウワセキ","prefecture_code":3},"7553":{"zip_code":"0287553","prefecture":"岩手県","prefecture_kana":"イワテケン","city":"八幡平市","city_kana":"ハチマンタイシ","town":"扇畑","town_kana":"オウギハタ","prefecture_code":3},"7661":{"zip_code":"0287661","prefecture":"岩手県","prefecture_kana":"イワテケン","city":"八幡平市","city_kana":"ハチマンタイシ","town":"大沢","town_kana":"オオサワ","prefecture_code":3},"7664":{"zip_code":"0287664","prefecture":"岩手県","prefecture_kana":"イワテケン","city":"八幡平市","city_kana":"ハチマンタイシ","town":"大沢田","town_kana":"オオサワダ","prefecture_code":3},"7607":{"zip_code":"0287607","prefecture":"岩手県","prefecture_kana":"イワテケン","city":"八幡平市","city_kana":"ハチマンタイシ","town":"大面平","town_kana":"オオツラタイラ","prefecture_code":3},"7111":{"zip_code":"0287111","prefecture":"岩手県","prefecture_kana":"イワテケン","city":"八幡平市","city_kana":"ハチマンタイシ","town":"大更","town_kana":"オオブケ","prefecture_code":3},"7624":{"zip_code":"0287624","prefecture":"岩手県","prefecture_kana":"イワテケン","city":"八幡平市","city_kana":"ハチマンタイシ","town":"大又沢口","town_kana":"オオマタサワグチ","prefecture_code":3},"7611":{"zip_code":"0287611","prefecture":"岩手県","prefecture_kana":"イワテケン","city":"八幡平市","city_kana":"ハチマンタイシ","town":"沖田表","town_kana":"オキタオモテ","prefecture_code":3},"7625":{"zip_code":"0287625","prefecture":"岩手県","prefecture_kana":"イワテケン","city":"八幡平市","city_kana":"ハチマンタイシ","town":"沖ノ平","town_kana":"オキノタイラ","prefecture_code":3},"7617":{"zip_code":"0287617","prefecture":"岩手県","prefecture_kana":"イワテケン","city":"八幡平市","city_kana":"ハチマンタイシ","town":"折壁","town_kana":"オリカベ","prefecture_code":3},"7612":{"zip_code":"0287612","prefecture":"岩手県","prefecture_kana":"イワテケン","city":"八幡平市","city_kana":"ハチマンタイシ","town":"欠田","town_kana":"カケタ","prefecture_code":3},"7303":[{"zip_code":"0287303","prefecture":"岩手県","prefecture_kana":"イワテケン","city":"八幡平市","city_kana":"ハチマンタイシ","town":"柏台","town_kana":"カシワダイ","prefecture_code":3},{"zip_code":"0287303","prefecture":"岩手県","prefecture_kana":"イワテケン","city":"八幡平市","city_kana":"ハチマンタイシ","town":"藤七温泉","town_kana":"トウシチオンセン","prefecture_code":3}],"7402":{"zip_code":"0287402","prefecture":"岩手県","prefecture_kana":"イワテケン","city":"八幡平市","city_kana":"ハチマンタイシ","town":"帷子","town_kana":"カタビラ","prefecture_code":3},"7533":{"zip_code":"0287533","prefecture":"岩手県","prefecture_kana":"イワテケン","city":"八幡平市","city_kana":"ハチマンタイシ","town":"叺田","town_kana":"カマスダ","prefecture_code":3},"7502":{"zip_code":"0287502","prefecture":"岩手県","prefecture_kana":"イワテケン","city":"八幡平市","city_kana":"ハチマンタイシ","town":"上岩木","town_kana":"カミイワキ","prefecture_code":3},"7527":{"zip_code":"0287527","prefecture":"岩手県","prefecture_kana":"イワテケン","city":"八幡平市","city_kana":"ハチマンタイシ","town":"川原","town_kana":"カワラ","prefecture_code":3},"7643":{"zip_code":"0287643","prefecture":"岩手県","prefecture_kana":"イワテケン","city":"八幡平市","city_kana":"ハチマンタイシ","town":"切通","town_kana":"キリトオシ","prefecture_code":3},"7657":{"zip_code":"0287657","prefecture":"岩手県","prefecture_kana":"イワテケン","city":"八幡平市","city_kana":"ハチマンタイシ","town":"栗木田","town_kana":"クリキダ","prefecture_code":3},"7555":{"zip_code":"0287555","prefecture":"岩手県","prefecture_kana":"イワテケン","city":"八幡平市","city_kana":"ハチマンタイシ","town":"黒沢","town_kana":"クロサワ","prefecture_code":3},"7628":{"zip_code":"0287628","prefecture":"岩手県","prefecture_kana":"イワテケン","city":"八幡平市","city_kana":"ハチマンタイシ","town":"小岩井","town_kana":"コイワイ","prefecture_code":3},"7654":{"zip_code":"0287654","prefecture":"岩手県","prefecture_kana":"イワテケン","city":"八幡平市","city_kana":"ハチマンタイシ","town":"小峠","town_kana":"コトウゲ","prefecture_code":3},"7632":{"zip_code":"0287632","prefecture":"岩手県","prefecture_kana":"イワテケン","city":"八幡平市","city_kana":"ハチマンタイシ","town":"小原道ノ上","town_kana":"コハラミチノウエ","prefecture_code":3},"7638":{"zip_code":"0287638","prefecture":"岩手県","prefecture_kana":"イワテケン","city":"八幡平市","city_kana":"ハチマンタイシ","town":"小原道ノ下","town_kana":"コハラミチノシタ","prefecture_code":3},"7678":{"zip_code":"0287678","prefecture":"岩手県","prefecture_kana":"イワテケン","city":"八幡平市","city_kana":"ハチマンタイシ","town":"小森","town_kana":"コモリ","prefecture_code":3},"7532":{"zip_code":"0287532","prefecture":"岩手県","prefecture_kana":"イワテケン","city":"八幡平市","city_kana":"ハチマンタイシ","town":"小柳田","town_kana":"コヤナギダ","prefecture_code":3},"7543":{"zip_code":"0287543","prefecture":"岩手県","prefecture_kana":"イワテケン","city":"八幡平市","city_kana":"ハチマンタイシ","town":"小屋畑","town_kana":"コヤノハタ","prefecture_code":3},"7656":{"zip_code":"0287656","prefecture":"岩手県","prefecture_kana":"イワテケン","city":"八幡平市","city_kana":"ハチマンタイシ","town":"左妻","town_kana":"サヅマ","prefecture_code":3},"7627":{"zip_code":"0287627","prefecture":"岩手県","prefecture_kana":"イワテケン","city":"八幡平市","city_kana":"ハチマンタイシ","town":"佐比内","town_kana":"サヒナイ","prefecture_code":3},"7676":{"zip_code":"0287676","prefecture":"岩手県","prefecture_kana":"イワテケン","city":"八幡平市","city_kana":"ハチマンタイシ","town":"沢口","town_kana":"サワグチ","prefecture_code":3},"7645":{"zip_code":"0287645","prefecture":"岩手県","prefecture_kana":"イワテケン","city":"八幡平市","city_kana":"ハチマンタイシ","town":"下タ川原","town_kana":"シタカワラ","prefecture_code":3},"7561":{"zip_code":"0287561","prefecture":"岩手県","prefecture_kana":"イワテケン","city":"八幡平市","city_kana":"ハチマンタイシ","town":"下町","town_kana":"シタマチ","prefecture_code":3},"7535":{"zip_code":"0287535","prefecture":"岩手県","prefecture_kana":"イワテケン","city":"八幡平市","city_kana":"ハチマンタイシ","town":"清水","town_kana":"シミズ","prefecture_code":3},"7675":{"zip_code":"0287675","prefecture":"岩手県","prefecture_kana":"イワテケン","city":"八幡平市","city_kana":"ハチマンタイシ","town":"下モ川原","town_kana":"シモカワラ","prefecture_code":3},"7511":{"zip_code":"0287511","prefecture":"岩手県","prefecture_kana":"イワテケン","city":"八幡平市","city_kana":"ハチマンタイシ","town":"下の田","town_kana":"シモノタ","prefecture_code":3},"7618":{"zip_code":"0287618","prefecture":"岩手県","prefecture_kana":"イワテケン","city":"八幡平市","city_kana":"ハチマンタイシ","town":"蛇石","town_kana":"ジャイシ","prefecture_code":3},"7642":{"zip_code":"0287642","prefecture":"岩手県","prefecture_kana":"イワテケン","city":"八幡平市","city_kana":"ハチマンタイシ","town":"勝善川原","town_kana":"ショウゼンカワラ","prefecture_code":3},"7629":{"zip_code":"0287629","prefecture":"岩手県","prefecture_kana":"イワテケン","city":"八幡平市","city_kana":"ハチマンタイシ","town":"白沢口","town_kana":"シラサワグチ","prefecture_code":3},"7551":{"zip_code":"0287551","prefecture":"岩手県","prefecture_kana":"イワテケン","city":"八幡平市","city_kana":"ハチマンタイシ","town":"新田","town_kana":"シンデン","prefecture_code":3},"7662":{"zip_code":"0287662","prefecture":"岩手県","prefecture_kana":"イワテケン","city":"八幡平市","city_kana":"ハチマンタイシ","town":"杉沢","town_kana":"スギサワ","prefecture_code":3},"7644":{"zip_code":"0287644","prefecture":"岩手県","prefecture_kana":"イワテケン","city":"八幡平市","city_kana":"ハチマンタイシ","town":"雀長根","town_kana":"スズメナガネ","prefecture_code":3},"7516":{"zip_code":"0287516","prefecture":"岩手県","prefecture_kana":"イワテケン","city":"八幡平市","city_kana":"ハチマンタイシ","town":"関沢口","town_kana":"セキサワグチ","prefecture_code":3},"7631":{"zip_code":"0287631","prefecture":"岩手県","prefecture_kana":"イワテケン","city":"八幡平市","city_kana":"ハチマンタイシ","town":"瀬ノ沢","town_kana":"セノサワ","prefecture_code":3},"7405":{"zip_code":"0287405","prefecture":"岩手県","prefecture_kana":"イワテケン","city":"八幡平市","city_kana":"ハチマンタイシ","town":"平舘","town_kana":"タイラダテ","prefecture_code":3},"7542":{"zip_code":"0287542","prefecture":"岩手県","prefecture_kana":"イワテケン","city":"八幡平市","city_kana":"ハチマンタイシ","town":"高畑","town_kana":"タカハタ","prefecture_code":3},"7566":{"zip_code":"0287566","prefecture":"岩手県","prefecture_kana":"イワテケン","city":"八幡平市","city_kana":"ハチマンタイシ","town":"滝沢","town_kana":"タキザワ","prefecture_code":3},"7601":{"zip_code":"0287601","prefecture":"岩手県","prefecture_kana":"イワテケン","city":"八幡平市","city_kana":"ハチマンタイシ","town":"田沢","town_kana":"タザワ","prefecture_code":3},"7623":{"zip_code":"0287623","prefecture":"岩手県","prefecture_kana":"イワテケン","city":"八幡平市","city_kana":"ハチマンタイシ","town":"舘市","town_kana":"タテイチ","prefecture_code":3},"7672":{"zip_code":"0287672","prefecture":"岩手県","prefecture_kana":"イワテケン","city":"八幡平市","city_kana":"ハチマンタイシ","town":"田中下タ","town_kana":"タナカシタ","prefecture_code":3},"7563":{"zip_code":"0287563","prefecture":"岩手県","prefecture_kana":"イワテケン","city":"八幡平市","city_kana":"ハチマンタイシ","town":"田の沢","town_kana":"タノサワ","prefecture_code":3},"7677":{"zip_code":"0287677","prefecture":"岩手県","prefecture_kana":"イワテケン","city":"八幡平市","city_kana":"ハチマンタイシ","town":"田山","town_kana":"タヤマ","prefecture_code":3},"7651":{"zip_code":"0287651","prefecture":"岩手県","prefecture_kana":"イワテケン","city":"八幡平市","city_kana":"ハチマンタイシ","town":"長者前","town_kana":"チョウジャマエ","prefecture_code":3},"7513":{"zip_code":"0287513","prefecture":"岩手県","prefecture_kana":"イワテケン","city":"八幡平市","city_kana":"ハチマンタイシ","town":"土沢","town_kana":"ツチザワ","prefecture_code":3},"7523":{"zip_code":"0287523","prefecture":"岩手県","prefecture_kana":"イワテケン","city":"八幡平市","city_kana":"ハチマンタイシ","town":"繋沢","town_kana":"ツナギサワ","prefecture_code":3},"7541":{"zip_code":"0287541","prefecture":"岩手県","prefecture_kana":"イワテケン","city":"八幡平市","city_kana":"ハチマンタイシ","town":"寺志田","town_kana":"テラシダ","prefecture_code":3},"7112":{"zip_code":"0287112","prefecture":"岩手県","prefecture_kana":"イワテケン","city":"八幡平市","city_kana":"ハチマンタイシ","town":"田頭","town_kana":"デンドウ","prefecture_code":3},"7626":{"zip_code":"0287626","prefecture":"岩手県","prefecture_kana":"イワテケン","city":"八幡平市","city_kana":"ハチマンタイシ","town":"戸鎖","town_kana":"トクサリ","prefecture_code":3},"7567":{"zip_code":"0287567","prefecture":"岩手県","prefecture_kana":"イワテケン","city":"八幡平市","city_kana":"ハチマンタイシ","town":"戸沢","town_kana":"トザワ","prefecture_code":3},"7673":{"zip_code":"0287673","prefecture":"岩手県","prefecture_kana":"イワテケン","city":"八幡平市","city_kana":"ハチマンタイシ","town":"殿坂下タ","town_kana":"トノサカシタ","prefecture_code":3},"7514":{"zip_code":"0287514","prefecture":"岩手県","prefecture_kana":"イワテケン","city":"八幡平市","city_kana":"ハチマンタイシ","town":"中佐井","town_kana":"ナカサイ","prefecture_code":3},"7503":{"zip_code":"0287503","prefecture":"岩手県","prefecture_kana":"イワテケン","city":"八幡平市","city_kana":"ハチマンタイシ","town":"中田","town_kana":"ナカダ","prefecture_code":3},"7401":{"zip_code":"0287401","prefecture":"岩手県","prefecture_kana":"イワテケン","city":"八幡平市","city_kana":"ハチマンタイシ","town":"西根寺田","town_kana":"ニシネテラダ","prefecture_code":3},"7652":{"zip_code":"0287652","prefecture":"岩手県","prefecture_kana":"イワテケン","city":"八幡平市","city_kana":"ハチマンタイシ","town":"根石","town_kana":"ネイシ","prefecture_code":3},"7301":{"zip_code":"0287301","prefecture":"岩手県","prefecture_kana":"イワテケン","city":"八幡平市","city_kana":"ハチマンタイシ","town":"野駄","town_kana":"ノダ","prefecture_code":3},"7302":[{"zip_code":"0287302","prefecture":"岩手県","prefecture_kana":"イワテケン","city":"八幡平市","city_kana":"ハチマンタイシ","town":"八幡平温泉郷","town_kana":"ハチマンタイオンセンキョウ","prefecture_code":3},{"zip_code":"0287302","prefecture":"岩手県","prefecture_kana":"イワテケン","city":"八幡平市","city_kana":"ハチマンタイシ","town":"松尾寄木","town_kana":"マツオヨリキ","prefecture_code":3},{"zip_code":"0287302","prefecture":"岩手県","prefecture_kana":"イワテケン","city":"八幡平市","city_kana":"ハチマンタイシ","town":"松川温泉","town_kana":"マツカワオンセン","prefecture_code":3}],"7671":{"zip_code":"0287671","prefecture":"岩手県","prefecture_kana":"イワテケン","city":"八幡平市","city_kana":"ハチマンタイシ","town":"馬場下","town_kana":"ババシタ","prefecture_code":3},"7525":{"zip_code":"0287525","prefecture":"岩手県","prefecture_kana":"イワテケン","city":"八幡平市","city_kana":"ハチマンタイシ","town":"日影","town_kana":"ヒカゲ","prefecture_code":3},"7633":{"zip_code":"0287633","prefecture":"岩手県","prefecture_kana":"イワテケン","city":"八幡平市","city_kana":"ハチマンタイシ","town":"日泥道ノ上","town_kana":"ヒドロミチノウエ","prefecture_code":3},"7637":{"zip_code":"0287637","prefecture":"岩手県","prefecture_kana":"イワテケン","city":"八幡平市","city_kana":"ハチマンタイシ","town":"日泥道ノ下","town_kana":"ヒドロミチノシタ","prefecture_code":3},"7113":{"zip_code":"0287113","prefecture":"岩手県","prefecture_kana":"イワテケン","city":"八幡平市","city_kana":"ハチマンタイシ","town":"平笠","town_kana":"ヒラカサ","prefecture_code":3},"7653":{"zip_code":"0287653","prefecture":"岩手県","prefecture_kana":"イワテケン","city":"八幡平市","city_kana":"ハチマンタイシ","town":"平又","town_kana":"ヒラマタ","prefecture_code":3},"7641":{"zip_code":"0287641","prefecture":"岩手県","prefecture_kana":"イワテケン","city":"八幡平市","city_kana":"ハチマンタイシ","town":"比路平","town_kana":"ヒロビラ","prefecture_code":3},"7616":{"zip_code":"0287616","prefecture":"岩手県","prefecture_kana":"イワテケン","city":"八幡平市","city_kana":"ハチマンタイシ","town":"二タ子","town_kana":"フタゴ","prefecture_code":3},"7515":{"zip_code":"0287515","prefecture":"岩手県","prefecture_kana":"イワテケン","city":"八幡平市","city_kana":"ハチマンタイシ","town":"古屋敷","town_kana":"フルヤシキ","prefecture_code":3},"7556":{"zip_code":"0287556","prefecture":"岩手県","prefecture_kana":"イワテケン","city":"八幡平市","city_kana":"ハチマンタイシ","town":"星沢","town_kana":"ホシザワ","prefecture_code":3},"7557":{"zip_code":"0287557","prefecture":"岩手県","prefecture_kana":"イワテケン","city":"八幡平市","city_kana":"ハチマンタイシ","town":"細野","town_kana":"ホソノ","prefecture_code":3},"7544":{"zip_code":"0287544","prefecture":"岩手県","prefecture_kana":"イワテケン","city":"八幡平市","city_kana":"ハチマンタイシ","town":"保戸坂","town_kana":"ホトザカ","prefecture_code":3},"7404":{"zip_code":"0287404","prefecture":"岩手県","prefecture_kana":"イワテケン","city":"八幡平市","city_kana":"ハチマンタイシ","town":"堀切","town_kana":"ホリキリ","prefecture_code":3},"7504":{"zip_code":"0287504","prefecture":"岩手県","prefecture_kana":"イワテケン","city":"八幡平市","city_kana":"ハチマンタイシ","town":"前田","town_kana":"マエダ","prefecture_code":3},"7537":{"zip_code":"0287537","prefecture":"岩手県","prefecture_kana":"イワテケン","city":"八幡平市","city_kana":"ハチマンタイシ","town":"曲田","town_kana":"マガタ","prefecture_code":3},"7613":{"zip_code":"0287613","prefecture":"岩手県","prefecture_kana":"イワテケン","city":"八幡平市","city_kana":"ハチマンタイシ","town":"亦戸川原","town_kana":"マタトカワラ","prefecture_code":3},"7305":{"zip_code":"0287305","prefecture":"岩手県","prefecture_kana":"イワテケン","city":"八幡平市","city_kana":"ハチマンタイシ","town":"松尾","town_kana":"マツオ","prefecture_code":3},"7545":{"zip_code":"0287545","prefecture":"岩手県","prefecture_kana":"イワテケン","city":"八幡平市","city_kana":"ハチマンタイシ","town":"松木田","town_kana":"マツキダ","prefecture_code":3},"7304":{"zip_code":"0287304","prefecture":"岩手県","prefecture_kana":"イワテケン","city":"八幡平市","city_kana":"ハチマンタイシ","town":"緑ガ丘","town_kana":"ミドリガオカ","prefecture_code":3},"7565":{"zip_code":"0287565","prefecture":"岩手県","prefecture_kana":"イワテケン","city":"八幡平市","city_kana":"ハチマンタイシ","town":"目名市","town_kana":"メナイチ","prefecture_code":3},"7603":{"zip_code":"0287603","prefecture":"岩手県","prefecture_kana":"イワテケン","city":"八幡平市","city_kana":"ハチマンタイシ","town":"矢神","town_kana":"ヤガミ","prefecture_code":3},"7564":{"zip_code":"0287564","prefecture":"岩手県","prefecture_kana":"イワテケン","city":"八幡平市","city_kana":"ハチマンタイシ","town":"谷地田","town_kana":"ヤチタ","prefecture_code":3},"7608":{"zip_code":"0287608","prefecture":"岩手県","prefecture_kana":"イワテケン","city":"八幡平市","city_kana":"ハチマンタイシ","town":"谷地中","town_kana":"ヤチナカ","prefecture_code":3},"7512":{"zip_code":"0287512","prefecture":"岩手県","prefecture_kana":"イワテケン","city":"八幡平市","city_kana":"ハチマンタイシ","town":"山岸","town_kana":"ヤマギシ","prefecture_code":3},"7522":{"zip_code":"0287522","prefecture":"岩手県","prefecture_kana":"イワテケン","city":"八幡平市","city_kana":"ハチマンタイシ","town":"山口","town_kana":"ヤマグチ","prefecture_code":3},"7524":{"zip_code":"0287524","prefecture":"岩手県","prefecture_kana":"イワテケン","city":"八幡平市","city_kana":"ハチマンタイシ","town":"湯の沢","town_kana":"ユノサワ","prefecture_code":3},"7634":{"zip_code":"0287634","prefecture":"岩手県","prefecture_kana":"イワテケン","city":"八幡平市","city_kana":"ハチマンタイシ","town":"和屋敷道ノ上","town_kana":"ワヤシキミチノウエ","prefecture_code":3},"7636":{"zip_code":"0287636","prefecture":"岩手県","prefecture_kana":"イワテケン","city":"八幡平市","city_kana":"ハチマンタイシ","town":"和屋敷道ノ下","town_kana":"ワヤシキミチノシタ","prefecture_code":3},"5400":{"zip_code":"0285400","prefecture":"岩手県","prefecture_kana":"イワテケン","city":"岩手郡葛巻町","city_kana":"イワテグンクズマキマチ","town":"","town_kana":"","prefecture_code":3},"5403":{"zip_code":"0285403","prefecture":"岩手県","prefecture_kana":"イワテケン","city":"岩手郡葛巻町","city_kana":"イワテグンクズマキマチ","town":"江刈","town_kana":"エカリ","prefecture_code":3},"5102":{"zip_code":"0285102","prefecture":"岩手県","prefecture_kana":"イワテケン","city":"岩手郡葛巻町","city_kana":"イワテグンクズマキマチ","town":"葛巻","town_kana":"クズマキ","prefecture_code":3},"5402":{"zip_code":"0285402","prefecture":"岩手県","prefecture_kana":"イワテケン","city":"岩手郡葛巻町","city_kana":"イワテグンクズマキマチ","town":"葛巻","town_kana":"クズマキ","prefecture_code":3},"5401":{"zip_code":"0285401","prefecture":"岩手県","prefecture_kana":"イワテケン","city":"岩手郡葛巻町","city_kana":"イワテグンクズマキマチ","town":"田部","town_kana":"タベ","prefecture_code":3},"4300":{"zip_code":"0284300","prefecture":"岩手県","prefecture_kana":"イワテケン","city":"岩手郡岩手町","city_kana":"イワテグンイワテマチ","town":"","town_kana":"","prefecture_code":3},"4307":{"zip_code":"0284307","prefecture":"岩手県","prefecture_kana":"イワテケン","city":"岩手郡岩手町","city_kana":"イワテグンイワテマチ","town":"五日市","town_kana":"イツカイチ","prefecture_code":3},"4421":{"zip_code":"0284421","prefecture":"岩手県","prefecture_kana":"イワテケン","city":"岩手郡岩手町","city_kana":"イワテグンイワテマチ","town":"一方井","town_kana":"イッカタイ","prefecture_code":3},"4303":{"zip_code":"0284303","prefecture":"岩手県","prefecture_kana":"イワテケン","city":"岩手郡岩手町","city_kana":"イワテグンイワテマチ","town":"江刈内","town_kana":"エカリナイ","prefecture_code":3},"4211":{"zip_code":"0284211","prefecture":"岩手県","prefecture_kana":"イワテケン","city":"岩手郡岩手町","city_kana":"イワテグンイワテマチ","town":"川口","town_kana":"カワグチ","prefecture_code":3},"4305":{"zip_code":"0284305","prefecture":"岩手県","prefecture_kana":"イワテケン","city":"岩手郡岩手町","city_kana":"イワテグンイワテマチ","town":"久保","town_kana":"クボ","prefecture_code":3},"4424":{"zip_code":"0284424","prefecture":"岩手県","prefecture_kana":"イワテケン","city":"岩手郡岩手町","city_kana":"イワテグンイワテマチ","town":"黒石","town_kana":"クロイシ","prefecture_code":3},"4426":{"zip_code":"0284426","prefecture":"岩手県","prefecture_kana":"イワテケン","city":"岩手郡岩手町","city_kana":"イワテグンイワテマチ","town":"黒内","town_kana":"クロナイ","prefecture_code":3},"4304":{"zip_code":"0284304","prefecture":"岩手県","prefecture_kana":"イワテケン","city":"岩手郡岩手町","city_kana":"イワテグンイワテマチ","town":"子抱","town_kana":"コダキ","prefecture_code":3},"4302":{"zip_code":"0284302","prefecture":"岩手県","prefecture_kana":"イワテケン","city":"岩手郡岩手町","city_kana":"イワテグンイワテマチ","town":"大坊","town_kana":"ダイボウ","prefecture_code":3},"4423":{"zip_code":"0284423","prefecture":"岩手県","prefecture_kana":"イワテケン","city":"岩手郡岩手町","city_kana":"イワテグンイワテマチ","town":"土川","town_kana":"ツチカワ","prefecture_code":3},"4301":{"zip_code":"0284301","prefecture":"岩手県","prefecture_kana":"イワテケン","city":"岩手郡岩手町","city_kana":"イワテグンイワテマチ","town":"沼宮内","town_kana":"ヌマクナイ","prefecture_code":3},"4425":{"zip_code":"0284425","prefecture":"岩手県","prefecture_kana":"イワテケン","city":"岩手郡岩手町","city_kana":"イワテグンイワテマチ","town":"葉木田","town_kana":"ハキタ","prefecture_code":3},"4422":{"zip_code":"0284422","prefecture":"岩手県","prefecture_kana":"イワテケン","city":"岩手郡岩手町","city_kana":"イワテグンイワテマチ","town":"坊","town_kana":"ボウ","prefecture_code":3},"4306":{"zip_code":"0284306","prefecture":"岩手県","prefecture_kana":"イワテケン","city":"岩手郡岩手町","city_kana":"イワテグンイワテマチ","town":"御堂","town_kana":"ミドウ","prefecture_code":3},"3300":{"zip_code":"0283300","prefecture":"岩手県","prefecture_kana":"イワテケン","city":"紫波郡紫波町","city_kana":"シワグンシワチョウ","town":"","town_kana":"","prefecture_code":3},"3533":{"zip_code":"0283533","prefecture":"岩手県","prefecture_kana":"イワテケン","city":"紫波郡紫波町","city_kana":"シワグンシワチョウ","town":"赤沢","town_kana":"アカザワ","prefecture_code":3},"3451":{"zip_code":"0283451","prefecture":"岩手県","prefecture_kana":"イワテケン","city":"紫波郡紫波町","city_kana":"シワグンシワチョウ","town":"稲藤","town_kana":"イナフジ","prefecture_code":3},"3311":{"zip_code":"0283311","prefecture":"岩手県","prefecture_kana":"イワテケン","city":"紫波郡紫波町","city_kana":"シワグンシワチョウ","town":"犬渕","town_kana":"イヌブチ","prefecture_code":3},"3312":{"zip_code":"0283312","prefecture":"岩手県","prefecture_kana":"イワテケン","city":"紫波郡紫波町","city_kana":"シワグンシワチョウ","town":"犬吠森","town_kana":"イヌホエモリ","prefecture_code":3},"3321":{"zip_code":"0283321","prefecture":"岩手県","prefecture_kana":"イワテケン","city":"紫波郡紫波町","city_kana":"シワグンシワチョウ","town":"江柄","town_kana":"エガラ","prefecture_code":3},"3314":{"zip_code":"0283314","prefecture":"岩手県","prefecture_kana":"イワテケン","city":"紫波郡紫波町","city_kana":"シワグンシワチョウ","town":"大巻","town_kana":"オオマキ","prefecture_code":3},"3452":{"zip_code":"0283452","prefecture":"岩手県","prefecture_kana":"イワテケン","city":"紫波郡紫波町","city_kana":"シワグンシワチョウ","town":"片寄","town_kana":"カタヨセ","prefecture_code":3},"3441":{"zip_code":"0283441","prefecture":"岩手県","prefecture_kana":"イワテケン","city":"紫波郡紫波町","city_kana":"シワグンシワチョウ","town":"上平沢","town_kana":"カミヒラサワ","prefecture_code":3},"3443":{"zip_code":"0283443","prefecture":"岩手県","prefecture_kana":"イワテケン","city":"紫波郡紫波町","city_kana":"シワグンシワチョウ","town":"上松本","town_kana":"カミマツモト","prefecture_code":3},"3323":{"zip_code":"0283323","prefecture":"岩手県","prefecture_kana":"イワテケン","city":"紫波郡紫波町","city_kana":"シワグンシワチョウ","town":"北沢","town_kana":"キタザワ","prefecture_code":3},"3536":{"zip_code":"0283536","prefecture":"岩手県","prefecture_kana":"イワテケン","city":"紫波郡紫波町","city_kana":"シワグンシワチョウ","town":"北田","town_kana":"キタダ","prefecture_code":3},"3309":{"zip_code":"0283309","prefecture":"岩手県","prefecture_kana":"イワテケン","city":"紫波郡紫波町","city_kana":"シワグンシワチョウ","town":"北日詰","town_kana":"キタヒヅメ","prefecture_code":3},"3325":{"zip_code":"0283325","prefecture":"岩手県","prefecture_kana":"イワテケン","city":"紫波郡紫波町","city_kana":"シワグンシワチョウ","town":"草刈","town_kana":"クサカリ","prefecture_code":3},"3303":{"zip_code":"0283303","prefecture":"岩手県","prefecture_kana":"イワテケン","city":"紫波郡紫波町","city_kana":"シワグンシワチョウ","town":"高水寺","town_kana":"コウスイジ","prefecture_code":3},"3444":{"zip_code":"0283444","prefecture":"岩手県","prefecture_kana":"イワテケン","city":"紫波郡紫波町","city_kana":"シワグンシワチョウ","town":"小屋敷","town_kana":"コヤシキ","prefecture_code":3},"3307":{"zip_code":"0283307","prefecture":"岩手県","prefecture_kana":"イワテケン","city":"紫波郡紫波町","city_kana":"シワグンシワチョウ","town":"桜町","town_kana":"サクラマチ","prefecture_code":3},"3316":{"zip_code":"0283316","prefecture":"岩手県","prefecture_kana":"イワテケン","city":"紫波郡紫波町","city_kana":"シワグンシワチョウ","town":"佐比内","town_kana":"サヒナイ","prefecture_code":3},"3446":{"zip_code":"0283446","prefecture":"岩手県","prefecture_kana":"イワテケン","city":"紫波郡紫波町","city_kana":"シワグンシワチョウ","town":"下松本","town_kana":"シモマツモト","prefecture_code":3},"3318":{"zip_code":"0283318","prefecture":"岩手県","prefecture_kana":"イワテケン","city":"紫波郡紫波町","city_kana":"シワグンシワチョウ","town":"紫波中央駅前","town_kana":"シワチュウオウエキマエ","prefecture_code":3},"3302":{"zip_code":"0283302","prefecture":"岩手県","prefecture_kana":"イワテケン","city":"紫波郡紫波町","city_kana":"シワグンシワチョウ","town":"陣ケ岡","town_kana":"ジンガオカ","prefecture_code":3},"3453":{"zip_code":"0283453","prefecture":"岩手県","prefecture_kana":"イワテケン","city":"紫波郡紫波町","city_kana":"シワグンシワチョウ","town":"土舘","town_kana":"ツチダテ","prefecture_code":3},"3535":{"zip_code":"0283535","prefecture":"岩手県","prefecture_kana":"イワテケン","city":"紫波郡紫波町","city_kana":"シワグンシワチョウ","town":"遠山","town_kana":"トオヤマ","prefecture_code":3},"3322":{"zip_code":"0283322","prefecture":"岩手県","prefecture_kana":"イワテケン","city":"紫波郡紫波町","city_kana":"シワグンシワチョウ","town":"栃内","town_kana":"トチナイ","prefecture_code":3},"3301":{"zip_code":"0283301","prefecture":"岩手県","prefecture_kana":"イワテケン","city":"紫波郡紫波町","city_kana":"シワグンシワチョウ","town":"中島","town_kana":"ナカジマ","prefecture_code":3},"3326":{"zip_code":"0283326","prefecture":"岩手県","prefecture_kana":"イワテケン","city":"紫波郡紫波町","city_kana":"シワグンシワチョウ","town":"西長岡","town_kana":"ニシナガオカ","prefecture_code":3},"3324":{"zip_code":"0283324","prefecture":"岩手県","prefecture_kana":"イワテケン","city":"紫波郡紫波町","city_kana":"シワグンシワチョウ","town":"東長岡","town_kana":"ヒガシナガオカ","prefecture_code":3},"3315":{"zip_code":"0283315","prefecture":"岩手県","prefecture_kana":"イワテケン","city":"紫波郡紫波町","city_kana":"シワグンシワチョウ","town":"彦部","town_kana":"ヒコベ","prefecture_code":3},"3305":{"zip_code":"0283305","prefecture":"岩手県","prefecture_kana":"イワテケン","city":"紫波郡紫波町","city_kana":"シワグンシワチョウ","town":"日詰","town_kana":"ヒヅメ","prefecture_code":3},"3310":{"zip_code":"0283310","prefecture":"岩手県","prefecture_kana":"イワテケン","city":"紫波郡紫波町","city_kana":"シワグンシワチョウ","town":"日詰駅前","town_kana":"ヒヅメエキマエ","prefecture_code":3},"3306":{"zip_code":"0283306","prefecture":"岩手県","prefecture_kana":"イワテケン","city":"紫波郡紫波町","city_kana":"シワグンシワチョウ","town":"日詰西","town_kana":"ヒヅメニシ","prefecture_code":3},"3308":{"zip_code":"0283308","prefecture":"岩手県","prefecture_kana":"イワテケン","city":"紫波郡紫波町","city_kana":"シワグンシワチョウ","town":"平沢","town_kana":"ヒラサワ","prefecture_code":3},"3304":{"zip_code":"0283304","prefecture":"岩手県","prefecture_kana":"イワテケン","city":"紫波郡紫波町","city_kana":"シワグンシワチョウ","town":"二日町","town_kana":"フツカマチ","prefecture_code":3},"3532":{"zip_code":"0283532","prefecture":"岩手県","prefecture_kana":"イワテケン","city":"紫波郡紫波町","city_kana":"シワグンシワチョウ","town":"船久保","town_kana":"フナクボ","prefecture_code":3},"3313":{"zip_code":"0283313","prefecture":"岩手県","prefecture_kana":"イワテケン","city":"紫波郡紫波町","city_kana":"シワグンシワチョウ","town":"星山","town_kana":"ホシヤマ","prefecture_code":3},"3442":{"zip_code":"0283442","prefecture":"岩手県","prefecture_kana":"イワテケン","city":"紫波郡紫波町","city_kana":"シワグンシワチョウ","town":"升沢","town_kana":"マスザワ","prefecture_code":3},"3445":{"zip_code":"0283445","prefecture":"岩手県","prefecture_kana":"イワテケン","city":"紫波郡紫波町","city_kana":"シワグンシワチョウ","town":"南伝法寺","town_kana":"ミナミデンボウジ","prefecture_code":3},"3317":{"zip_code":"0283317","prefecture":"岩手県","prefecture_kana":"イワテケン","city":"紫波郡紫波町","city_kana":"シワグンシワチョウ","town":"南日詰","town_kana":"ミナミヒヅメ","prefecture_code":3},"3447":{"zip_code":"0283447","prefecture":"岩手県","prefecture_kana":"イワテケン","city":"紫波郡紫波町","city_kana":"シワグンシワチョウ","town":"宮手","town_kana":"ミヤデ","prefecture_code":3},"3534":{"zip_code":"0283534","prefecture":"岩手県","prefecture_kana":"イワテケン","city":"紫波郡紫波町","city_kana":"シワグンシワチョウ","town":"紫野","town_kana":"ムラサキノ","prefecture_code":3},"3531":{"zip_code":"0283531","prefecture":"岩手県","prefecture_kana":"イワテケン","city":"紫波郡紫波町","city_kana":"シワグンシワチョウ","town":"山屋","town_kana":"ヤマヤ","prefecture_code":3},"3448":{"zip_code":"0283448","prefecture":"岩手県","prefecture_kana":"イワテケン","city":"紫波郡紫波町","city_kana":"シワグンシワチョウ","town":"吉水","town_kana":"ヨシミズ","prefecture_code":3},"3600":{"zip_code":"0283600","prefecture":"岩手県","prefecture_kana":"イワテケン","city":"紫波郡矢巾町","city_kana":"シワグンヤハバチョウ","town":"","town_kana":"","prefecture_code":3},"3605":{"zip_code":"0283605","prefecture":"岩手県","prefecture_kana":"イワテケン","city":"紫波郡矢巾町","city_kana":"シワグンヤハバチョウ","town":"間野々","town_kana":"アイノノ","prefecture_code":3},"3611":{"zip_code":"0283611","prefecture":"岩手県","prefecture_kana":"イワテケン","city":"紫波郡矢巾町","city_kana":"シワグンヤハバチョウ","town":"赤林","town_kana":"アカバヤシ","prefecture_code":3},"3626":{"zip_code":"0283626","prefecture":"岩手県","prefecture_kana":"イワテケン","city":"紫波郡矢巾町","city_kana":"シワグンヤハバチョウ","town":"岩清水","town_kana":"イワシミズ","prefecture_code":3},"3617":{"zip_code":"0283617","prefecture":"岩手県","prefecture_kana":"イワテケン","city":"紫波郡矢巾町","city_kana":"シワグンヤハバチョウ","town":"太田","town_kana":"オオタ","prefecture_code":3},"3622":{"zip_code":"0283622","prefecture":"岩手県","prefecture_kana":"イワテケン","city":"紫波郡矢巾町","city_kana":"シワグンヤハバチョウ","town":"上矢次","town_kana":"カミヤツギ","prefecture_code":3},"3608":{"zip_code":"0283608","prefecture":"岩手県","prefecture_kana":"イワテケン","city":"紫波郡矢巾町","city_kana":"シワグンヤハバチョウ","town":"北郡山","town_kana":"キタコオリヤマ","prefecture_code":3},"3624":{"zip_code":"0283624","prefecture":"岩手県","prefecture_kana":"イワテケン","city":"紫波郡矢巾町","city_kana":"シワグンヤハバチョウ","town":"北伝法寺","town_kana":"キタデンポウジ","prefecture_code":3},"3613":{"zip_code":"0283613","prefecture":"岩手県","prefecture_kana":"イワテケン","city":"紫波郡矢巾町","city_kana":"シワグンヤハバチョウ","town":"北矢幅","town_kana":"キタヤハバ","prefecture_code":3},"3623":{"zip_code":"0283623","prefecture":"岩手県","prefecture_kana":"イワテケン","city":"紫波郡矢巾町","city_kana":"シワグンヤハバチョウ","town":"煙山","town_kana":"ケムヤマ","prefecture_code":3},"3607":{"zip_code":"0283607","prefecture":"岩手県","prefecture_kana":"イワテケン","city":"紫波郡矢巾町","city_kana":"シワグンヤハバチョウ","town":"高水寺","town_kana":"コウスイジ","prefecture_code":3},"3612":{"zip_code":"0283612","prefecture":"岩手県","prefecture_kana":"イワテケン","city":"紫波郡矢巾町","city_kana":"シワグンヤハバチョウ","town":"下矢次","town_kana":"シモヤツギ","prefecture_code":3},"3616":{"zip_code":"0283616","prefecture":"岩手県","prefecture_kana":"イワテケン","city":"紫波郡矢巾町","city_kana":"シワグンヤハバチョウ","town":"白沢","town_kana":"シラサワ","prefecture_code":3},"3601":{"zip_code":"0283601","prefecture":"岩手県","prefecture_kana":"イワテケン","city":"紫波郡矢巾町","city_kana":"シワグンヤハバチョウ","town":"高田","town_kana":"タカタ","prefecture_code":3},"3606":{"zip_code":"0283606","prefecture":"岩手県","prefecture_kana":"イワテケン","city":"紫波郡矢巾町","city_kana":"シワグンヤハバチョウ","town":"土橋","town_kana":"ツチハシ","prefecture_code":3},"3603":{"zip_code":"0283603","prefecture":"岩手県","prefecture_kana":"イワテケン","city":"紫波郡矢巾町","city_kana":"シワグンヤハバチョウ","town":"西徳田","town_kana":"ニシトクタ","prefecture_code":3},"3604":{"zip_code":"0283604","prefecture":"岩手県","prefecture_kana":"イワテケン","city":"紫波郡矢巾町","city_kana":"シワグンヤハバチョウ","town":"東徳田","town_kana":"ヒガシトクタ","prefecture_code":3},"3621":{"zip_code":"0283621","prefecture":"岩手県","prefecture_kana":"イワテケン","city":"紫波郡矢巾町","city_kana":"シワグンヤハバチョウ","town":"広宮沢","town_kana":"ヒロミヤサワ","prefecture_code":3},"3602":{"zip_code":"0283602","prefecture":"岩手県","prefecture_kana":"イワテケン","city":"紫波郡矢巾町","city_kana":"シワグンヤハバチョウ","town":"藤沢","town_kana":"フジサワ","prefecture_code":3},"3614":{"zip_code":"0283614","prefecture":"岩手県","prefecture_kana":"イワテケン","city":"紫波郡矢巾町","city_kana":"シワグンヤハバチョウ","town":"又兵エ新田","town_kana":"マタベエシンデン","prefecture_code":3},"3615":{"zip_code":"0283615","prefecture":"岩手県","prefecture_kana":"イワテケン","city":"紫波郡矢巾町","city_kana":"シワグンヤハバチョウ","town":"南矢幅","town_kana":"ミナミヤハバ","prefecture_code":3},"3625":{"zip_code":"0283625","prefecture":"岩手県","prefecture_kana":"イワテケン","city":"紫波郡矢巾町","city_kana":"シワグンヤハバチョウ","town":"室岡","town_kana":"ムロオカ","prefecture_code":3},"3627":{"zip_code":"0283627","prefecture":"岩手県","prefecture_kana":"イワテケン","city":"紫波郡矢巾町","city_kana":"シワグンヤハバチョウ","town":"和味","town_kana":"ワミ","prefecture_code":3},"1100":{"zip_code":"0281100","prefecture":"岩手県","prefecture_kana":"イワテケン","city":"上閉伊郡大槌町","city_kana":"カミヘイグンオオツチチョウ","town":"","town_kana":"","prefecture_code":3},"1102":{"zip_code":"0281102","prefecture":"岩手県","prefecture_kana":"イワテケン","city":"上閉伊郡大槌町","city_kana":"カミヘイグンオオツチチョウ","town":"赤浜","town_kana":"アカハマ","prefecture_code":3},"1105":{"zip_code":"0281105","prefecture":"岩手県","prefecture_kana":"イワテケン","city":"上閉伊郡大槌町","city_kana":"カミヘイグンオオツチチョウ","town":"安渡","town_kana":"アンド","prefecture_code":3},"1131":{"zip_code":"0281131","prefecture":"岩手県","prefecture_kana":"イワテケン","city":"上閉伊郡大槌町","city_kana":"カミヘイグンオオツチチョウ","town":"大槌","town_kana":"オオツチ","prefecture_code":3},"1112":{"zip_code":"0281112","prefecture":"岩手県","prefecture_kana":"イワテケン","city":"上閉伊郡大槌町","city_kana":"カミヘイグンオオツチチョウ","town":"大町","town_kana":"オオマチ","prefecture_code":3},"1132":{"zip_code":"0281132","prefecture":"岩手県","prefecture_kana":"イワテケン","city":"上閉伊郡大槌町","city_kana":"カミヘイグンオオツチチョウ","town":"大ケ口","town_kana":"オガクチ","prefecture_code":3},"1133":{"zip_code":"0281133","prefecture":"岩手県","prefecture_kana":"イワテケン","city":"上閉伊郡大槌町","city_kana":"カミヘイグンオオツチチョウ","town":"金沢","town_kana":"カネザワ","prefecture_code":3},"1115":{"zip_code":"0281115","prefecture":"岩手県","prefecture_kana":"イワテケン","city":"上閉伊郡大槌町","city_kana":"カミヘイグンオオツチチョウ","town":"上町","town_kana":"カミチョウ","prefecture_code":3},"1101":{"zip_code":"0281101","prefecture":"岩手県","prefecture_kana":"イワテケン","city":"上閉伊郡大槌町","city_kana":"カミヘイグンオオツチチョウ","town":"吉里吉里","town_kana":"キリキリ","prefecture_code":3},"1121":{"zip_code":"0281121","prefecture":"岩手県","prefecture_kana":"イワテケン","city":"上閉伊郡大槌町","city_kana":"カミヘイグンオオツチチョウ","town":"小鎚","town_kana":"コヅチ","prefecture_code":3},"1114":{"zip_code":"0281114","prefecture":"岩手県","prefecture_kana":"イワテケン","city":"上閉伊郡大槌町","city_kana":"カミヘイグンオオツチチョウ","town":"栄町","town_kana":"サカエチョウ","prefecture_code":3},"1122":{"zip_code":"0281122","prefecture":"岩手県","prefecture_kana":"イワテケン","city":"上閉伊郡大槌町","city_kana":"カミヘイグンオオツチチョウ","town":"桜木町","town_kana":"サクラギチョウ","prefecture_code":3},"1111":{"zip_code":"0281111","prefecture":"岩手県","prefecture_kana":"イワテケン","city":"上閉伊郡大槌町","city_kana":"カミヘイグンオオツチチョウ","town":"新町","town_kana":"シンチョウ","prefecture_code":3},"1104":{"zip_code":"0281104","prefecture":"岩手県","prefecture_kana":"イワテケン","city":"上閉伊郡大槌町","city_kana":"カミヘイグンオオツチチョウ","town":"新港町","town_kana":"シンミナトマチ","prefecture_code":3},"1117":{"zip_code":"0281117","prefecture":"岩手県","prefecture_kana":"イワテケン","city":"上閉伊郡大槌町","city_kana":"カミヘイグンオオツチチョウ","town":"末広町","town_kana":"スエヒロチョウ","prefecture_code":3},"1113":{"zip_code":"0281113","prefecture":"岩手県","prefecture_kana":"イワテケン","city":"上閉伊郡大槌町","city_kana":"カミヘイグンオオツチチョウ","town":"須賀町","town_kana":"スカチョウ","prefecture_code":3},"1116":{"zip_code":"0281116","prefecture":"岩手県","prefecture_kana":"イワテケン","city":"上閉伊郡大槌町","city_kana":"カミヘイグンオオツチチョウ","town":"本町","town_kana":"ホンチョウ","prefecture_code":3},"1103":{"zip_code":"0281103","prefecture":"岩手県","prefecture_kana":"イワテケン","city":"上閉伊郡大槌町","city_kana":"カミヘイグンオオツチチョウ","town":"港町","town_kana":"ミナトマチ","prefecture_code":3},"1300":{"zip_code":"0281300","prefecture":"岩手県","prefecture_kana":"イワテケン","city":"下閉伊郡山田町","city_kana":"シモヘイグンヤマダマチ","town":"","town_kana":"","prefecture_code":3},"1303":{"zip_code":"0281303","prefecture":"岩手県","prefecture_kana":"イワテケン","city":"下閉伊郡山田町","city_kana":"シモヘイグンヤマダマチ","town":"荒川","town_kana":"アラカワ","prefecture_code":3},"1352":{"zip_code":"0281352","prefecture":"岩手県","prefecture_kana":"イワテケン","city":"下閉伊郡山田町","city_kana":"シモヘイグンヤマダマチ","town":"飯岡","town_kana":"イイオカ","prefecture_code":3},"1301":{"zip_code":"0281301","prefecture":"岩手県","prefecture_kana":"イワテケン","city":"下閉伊郡山田町","city_kana":"シモヘイグンヤマダマチ","town":"石峠","town_kana":"イシトウゲ","prefecture_code":3},"1311":{"zip_code":"0281311","prefecture":"岩手県","prefecture_kana":"イワテケン","city":"下閉伊郡山田町","city_kana":"シモヘイグンヤマダマチ","town":"大沢","town_kana":"オオサワ","prefecture_code":3},"1361":{"zip_code":"0281361","prefecture":"岩手県","prefecture_kana":"イワテケン","city":"下閉伊郡山田町","city_kana":"シモヘイグンヤマダマチ","town":"織笠","town_kana":"オリカサ","prefecture_code":3},"1342":{"zip_code":"0281342","prefecture":"岩手県","prefecture_kana":"イワテケン","city":"下閉伊郡山田町","city_kana":"シモヘイグンヤマダマチ","town":"川向町","town_kana":"カワムカイチョウ","prefecture_code":3},"1331":{"zip_code":"0281331","prefecture":"岩手県","prefecture_kana":"イワテケン","city":"下閉伊郡山田町","city_kana":"シモヘイグンヤマダマチ","town":"北浜町","town_kana":"キタハマチョウ","prefecture_code":3},"1333":{"zip_code":"0281333","prefecture":"岩手県","prefecture_kana":"イワテケン","city":"下閉伊郡山田町","city_kana":"シモヘイグンヤマダマチ","town":"後楽町","town_kana":"コウラクチョウ","prefecture_code":3},"1343":{"zip_code":"0281343","prefecture":"岩手県","prefecture_kana":"イワテケン","city":"下閉伊郡山田町","city_kana":"シモヘイグンヤマダマチ","town":"境田町","town_kana":"サカイダチョウ","prefecture_code":3},"1332":{"zip_code":"0281332","prefecture":"岩手県","prefecture_kana":"イワテケン","city":"下閉伊郡山田町","city_kana":"シモヘイグンヤマダマチ","town":"中央町","town_kana":"チュウオウチョウ","prefecture_code":3},"1302":{"zip_code":"0281302","prefecture":"岩手県","prefecture_kana":"イワテケン","city":"下閉伊郡山田町","city_kana":"シモヘイグンヤマダマチ","town":"豊間根","town_kana":"トヨマネ","prefecture_code":3},"1351":{"zip_code":"0281351","prefecture":"岩手県","prefecture_kana":"イワテケン","city":"下閉伊郡山田町","city_kana":"シモヘイグンヤマダマチ","town":"長崎","town_kana":"ナガサキ","prefecture_code":3},"1341":{"zip_code":"0281341","prefecture":"岩手県","prefecture_kana":"イワテケン","city":"下閉伊郡山田町","city_kana":"シモヘイグンヤマダマチ","town":"八幡町","town_kana":"ハチマンチョウ","prefecture_code":3},"1371":{"zip_code":"0281371","prefecture":"岩手県","prefecture_kana":"イワテケン","city":"下閉伊郡山田町","city_kana":"シモヘイグンヤマダマチ","town":"船越","town_kana":"フナコシ","prefecture_code":3},"1321":{"zip_code":"0281321","prefecture":"岩手県","prefecture_kana":"イワテケン","city":"下閉伊郡山田町","city_kana":"シモヘイグンヤマダマチ","town":"山田","town_kana":"ヤマダ","prefecture_code":3},"2231":{"zip_code":"0282231","prefecture":"岩手県","prefecture_kana":"イワテケン","city":"下閉伊郡岩泉町","city_kana":"シモヘイグンイワイズミチョウ","town":"浅内","town_kana":"アサナイ","prefecture_code":3},"5642":{"zip_code":"0285642","prefecture":"岩手県","prefecture_kana":"イワテケン","city":"下閉伊郡岩泉町","city_kana":"シモヘイグンイワイズミチョウ","town":"穴沢","town_kana":"アナザワ","prefecture_code":3},"2232":{"zip_code":"0282232","prefecture":"岩手県","prefecture_kana":"イワテケン","city":"下閉伊郡岩泉町","city_kana":"シモヘイグンイワイズミチョウ","town":"大川","town_kana":"オオカワ","prefecture_code":3},"5641":{"zip_code":"0285641","prefecture":"岩手県","prefecture_kana":"イワテケン","city":"下閉伊郡岩泉町","city_kana":"シモヘイグンイワイズミチョウ","town":"門","town_kana":"カド","prefecture_code":3},"5633":[{"zip_code":"0285633","prefecture":"岩手県","prefecture_kana":"イワテケン","city":"下閉伊郡岩泉町","city_kana":"シモヘイグンイワイズミチョウ","town":"釜津田上栗宿","town_kana":"カマツタカミクリヤド","prefecture_code":3},{"zip_code":"0285633","prefecture":"岩手県","prefecture_kana":"イワテケン","city":"下閉伊郡岩泉町","city_kana":"シモヘイグンイワイズミチョウ","town":"釜津田栗宿","town_kana":"カマツタクリヤド","prefecture_code":3},{"zip_code":"0285633","prefecture":"岩手県","prefecture_kana":"イワテケン","city":"下閉伊郡岩泉町","city_kana":"シモヘイグンイワイズミチョウ","town":"釜津田権現","town_kana":"カマツタゴンゲン","prefecture_code":3}],"2233":{"zip_code":"0282233","prefecture":"岩手県","prefecture_kana":"イワテケン","city":"下閉伊郡岩泉町","city_kana":"シモヘイグンイワイズミチョウ","town":"釜津田","town_kana":"カマツタ","prefecture_code":3},"5643":{"zip_code":"0285643","prefecture":"岩手県","prefecture_kana":"イワテケン","city":"下閉伊郡岩泉町","city_kana":"シモヘイグンイワイズミチョウ","town":"袰綿","town_kana":"ホロワタ","prefecture_code":3},"8400":{"zip_code":"0288400","prefecture":"岩手県","prefecture_kana":"イワテケン","city":"下閉伊郡田野畑村","city_kana":"シモヘイグンタノハタムラ","town":"","town_kana":"","prefecture_code":3},"8402":[{"zip_code":"0288402","prefecture":"岩手県","prefecture_kana":"イワテケン","city":"下閉伊郡田野畑村","city_kana":"シモヘイグンタノハタムラ","town":"明戸","town_kana":"アケト","prefecture_code":3},{"zip_code":"0288402","prefecture":"岩手県","prefecture_kana":"イワテケン","city":"下閉伊郡田野畑村","city_kana":"シモヘイグンタノハタムラ","town":"北山","town_kana":"キタヤマ","prefecture_code":3},{"zip_code":"0288402","prefecture":"岩手県","prefecture_kana":"イワテケン","city":"下閉伊郡田野畑村","city_kana":"シモヘイグンタノハタムラ","town":"机","town_kana":"ツクエ","prefecture_code":3}],"8401":[{"zip_code":"0288401","prefecture":"岩手県","prefecture_kana":"イワテケン","city":"下閉伊郡田野畑村","city_kana":"シモヘイグンタノハタムラ","town":"一の渡","town_kana":"イチノワタリ","prefecture_code":3},{"zip_code":"0288401","prefecture":"岩手県","prefecture_kana":"イワテケン","city":"下閉伊郡田野畑村","city_kana":"シモヘイグンタノハタムラ","town":"蝦夷森","town_kana":"エゾモリ","prefecture_code":3},{"zip_code":"0288401","prefecture":"岩手県","prefecture_kana":"イワテケン","city":"下閉伊郡田野畑村","city_kana":"シモヘイグンタノハタムラ","town":"大森","town_kana":"オオモリ","prefecture_code":3},{"zip_code":"0288401","prefecture":"岩手県","prefecture_kana":"イワテケン","city":"下閉伊郡田野畑村","city_kana":"シモヘイグンタノハタムラ","town":"尾肝要","town_kana":"オカンヨウ","prefecture_code":3},{"zip_code":"0288401","prefecture":"岩手県","prefecture_kana":"イワテケン","city":"下閉伊郡田野畑村","city_kana":"シモヘイグンタノハタムラ","town":"奥地","town_kana":"オクチ","prefecture_code":3},{"zip_code":"0288401","prefecture":"岩手県","prefecture_kana":"イワテケン","city":"下閉伊郡田野畑村","city_kana":"シモヘイグンタノハタムラ","town":"奥地向","town_kana":"オクチムカイ","prefecture_code":3},{"zip_code":"0288401","prefecture":"岩手県","prefecture_kana":"イワテケン","city":"下閉伊郡田野畑村","city_kana":"シモヘイグンタノハタムラ","town":"茅刈沢","town_kana":"カヤカリサワ","prefecture_code":3},{"zip_code":"0288401","prefecture":"岩手県","prefecture_kana":"イワテケン","city":"下閉伊郡田野畑村","city_kana":"シモヘイグンタノハタムラ","town":"巣合","town_kana":"スゴウ","prefecture_code":3},{"zip_code":"0288401","prefecture":"岩手県","prefecture_kana":"イワテケン","city":"下閉伊郡田野畑村","city_kana":"シモヘイグンタノハタムラ","town":"千丈","town_kana":"センジョウ","prefecture_code":3},{"zip_code":"0288401","prefecture":"岩手県","prefecture_kana":"イワテケン","city":"下閉伊郡田野畑村","city_kana":"シモヘイグンタノハタムラ","town":"千足","town_kana":"センゾク","prefecture_code":3},{"zip_code":"0288401","prefecture":"岩手県","prefecture_kana":"イワテケン","city":"下閉伊郡田野畑村","city_kana":"シモヘイグンタノハタムラ","town":"滝ノ沢","town_kana":"タキノサワ","prefecture_code":3},{"zip_code":"0288401","prefecture":"岩手県","prefecture_kana":"イワテケン","city":"下閉伊郡田野畑村","city_kana":"シモヘイグンタノハタムラ","town":"田代","town_kana":"タシロ","prefecture_code":3},{"zip_code":"0288401","prefecture":"岩手県","prefecture_kana":"イワテケン","city":"下閉伊郡田野畑村","city_kana":"シモヘイグンタノハタムラ","town":"長根","town_kana":"ナガネ","prefecture_code":3},{"zip_code":"0288401","prefecture":"岩手県","prefecture_kana":"イワテケン","city":"下閉伊郡田野畑村","city_kana":"シモヘイグンタノハタムラ","town":"沼袋","town_kana":"ヌマブクロ","prefecture_code":3},{"zip_code":"0288401","prefecture":"岩手県","prefecture_kana":"イワテケン","city":"下閉伊郡田野畑村","city_kana":"シモヘイグンタノハタムラ","town":"子木地","town_kana":"ネギチ","prefecture_code":3},{"zip_code":"0288401","prefecture":"岩手県","prefecture_kana":"イワテケン","city":"下閉伊郡田野畑村","city_kana":"シモヘイグンタノハタムラ","town":"子木屋敷","town_kana":"ネギヤシキ","prefecture_code":3},{"zip_code":"0288401","prefecture":"岩手県","prefecture_kana":"イワテケン","city":"下閉伊郡田野畑村","city_kana":"シモヘイグンタノハタムラ","town":"萩牛","town_kana":"ハギュウ","prefecture_code":3},{"zip_code":"0288401","prefecture":"岩手県","prefecture_kana":"イワテケン","city":"下閉伊郡田野畑村","city_kana":"シモヘイグンタノハタムラ","town":"日蔭","town_kana":"ヒカゲ","prefecture_code":3},{"zip_code":"0288401","prefecture":"岩手県","prefecture_kana":"イワテケン","city":"下閉伊郡田野畑村","city_kana":"シモヘイグンタノハタムラ","town":"姫松","town_kana":"ヒメマツ","prefecture_code":3},{"zip_code":"0288401","prefecture":"岩手県","prefecture_kana":"イワテケン","city":"下閉伊郡田野畑村","city_kana":"シモヘイグンタノハタムラ","town":"三沢","town_kana":"ミサワ","prefecture_code":3}],"8405":[{"zip_code":"0288405","prefecture":"岩手県","prefecture_kana":"イワテケン","city":"下閉伊郡田野畑村","city_kana":"シモヘイグンタノハタムラ","town":"大芦","town_kana":"オオアシ","prefecture_code":3},{"zip_code":"0288405","prefecture":"岩手県","prefecture_kana":"イワテケン","city":"下閉伊郡田野畑村","city_kana":"シモヘイグンタノハタムラ","town":"切牛","town_kana":"キリウシ","prefecture_code":3},{"zip_code":"0288405","prefecture":"岩手県","prefecture_kana":"イワテケン","city":"下閉伊郡田野畑村","city_kana":"シモヘイグンタノハタムラ","town":"浜岩泉","town_kana":"ハマイワイズミ","prefecture_code":3},{"zip_code":"0288405","prefecture":"岩手県","prefecture_kana":"イワテケン","city":"下閉伊郡田野畑村","city_kana":"シモヘイグンタノハタムラ","town":"真木沢","town_kana":"マギサワ","prefecture_code":3},{"zip_code":"0288405","prefecture":"岩手県","prefecture_kana":"イワテケン","city":"下閉伊郡田野畑村","city_kana":"シモヘイグンタノハタムラ","town":"南大芦","town_kana":"ミナミオオアシ","prefecture_code":3}],"8407":[{"zip_code":"0288407","prefecture":"岩手県","prefecture_kana":"イワテケン","city":"下閉伊郡田野畑村","city_kana":"シモヘイグンタノハタムラ","town":"川平","town_kana":"カワダイ","prefecture_code":3},{"zip_code":"0288407","prefecture":"岩手県","prefecture_kana":"イワテケン","city":"下閉伊郡田野畑村","city_kana":"シモヘイグンタノハタムラ","town":"菅窪","town_kana":"スゲノクボ","prefecture_code":3},{"zip_code":"0288407","prefecture":"岩手県","prefecture_kana":"イワテケン","city":"下閉伊郡田野畑村","city_kana":"シモヘイグンタノハタムラ","town":"田野畑","town_kana":"タノハタ","prefecture_code":3},{"zip_code":"0288407","prefecture":"岩手県","prefecture_kana":"イワテケン","city":"下閉伊郡田野畑村","city_kana":"シモヘイグンタノハタムラ","town":"和野","town_kana":"ワノ","prefecture_code":3}],"8406":[{"zip_code":"0288406","prefecture":"岩手県","prefecture_kana":"イワテケン","city":"下閉伊郡田野畑村","city_kana":"シモヘイグンタノハタムラ","town":"猿山","town_kana":"サルヤマ","prefecture_code":3},{"zip_code":"0288406","prefecture":"岩手県","prefecture_kana":"イワテケン","city":"下閉伊郡田野畑村","city_kana":"シモヘイグンタノハタムラ","town":"年呂部","town_kana":"トシロベ","prefecture_code":3},{"zip_code":"0288406","prefecture":"岩手県","prefecture_kana":"イワテケン","city":"下閉伊郡田野畑村","city_kana":"シモヘイグンタノハタムラ","town":"七滝","town_kana":"ナナタキ","prefecture_code":3},{"zip_code":"0288406","prefecture":"岩手県","prefecture_kana":"イワテケン","city":"下閉伊郡田野畑村","city_kana":"シモヘイグンタノハタムラ","town":"室場","town_kana":"ムロバ","prefecture_code":3},{"zip_code":"0288406","prefecture":"岩手県","prefecture_kana":"イワテケン","city":"下閉伊郡田野畑村","city_kana":"シモヘイグンタノハタムラ","town":"目名","town_kana":"メナ","prefecture_code":3}],"8404":[{"zip_code":"0288404","prefecture":"岩手県","prefecture_kana":"イワテケン","city":"下閉伊郡田野畑村","city_kana":"シモヘイグンタノハタムラ","town":"島越","town_kana":"シマノコシ","prefecture_code":3},{"zip_code":"0288404","prefecture":"岩手県","prefecture_kana":"イワテケン","city":"下閉伊郡田野畑村","city_kana":"シモヘイグンタノハタムラ","town":"松前沢","town_kana":"マツマエサワ","prefecture_code":3}],"8403":{"zip_code":"0288403","prefecture":"岩手県","prefecture_kana":"イワテケン","city":"下閉伊郡田野畑村","city_kana":"シモヘイグンタノハタムラ","town":"羅賀","town_kana":"ラガ","prefecture_code":3},"8300":{"zip_code":"0288300","prefecture":"岩手県","prefecture_kana":"イワテケン","city":"下閉伊郡普代村","city_kana":"シモヘイグンフダイムラ","town":"","town_kana":"","prefecture_code":3},"8366":{"zip_code":"0288366","prefecture":"岩手県","prefecture_kana":"イワテケン","city":"下閉伊郡普代村","city_kana":"シモヘイグンフダイムラ","town":"芦生","town_kana":"アシオイ","prefecture_code":3},"8365":{"zip_code":"0288365","prefecture":"岩手県","prefecture_kana":"イワテケン","city":"下閉伊郡普代村","city_kana":"シモヘイグンフダイムラ","town":"芦渡","town_kana":"アシワタリ","prefecture_code":3},"8343":{"zip_code":"0288343","prefecture":"岩手県","prefecture_kana":"イワテケン","city":"下閉伊郡普代村","city_kana":"シモヘイグンフダイムラ","town":"上の山","town_kana":"ウエノヤマ","prefecture_code":3},"8362":{"zip_code":"0288362","prefecture":"岩手県","prefecture_kana":"イワテケン","city":"下閉伊郡普代村","city_kana":"シモヘイグンフダイムラ","town":"卯子酉","town_kana":"ウネドリ","prefecture_code":3},"8331":{"zip_code":"0288331","prefecture":"岩手県","prefecture_kana":"イワテケン","city":"下閉伊郡普代村","city_kana":"シモヘイグンフダイムラ","town":"宇留部","town_kana":"ウルベ","prefecture_code":3},"8345":{"zip_code":"0288345","prefecture":"岩手県","prefecture_kana":"イワテケン","city":"下閉伊郡普代村","city_kana":"シモヘイグンフダイムラ","town":"太田名部","town_kana":"オオタナベ","prefecture_code":3},"8368":{"zip_code":"0288368","prefecture":"岩手県","prefecture_kana":"イワテケン","city":"下閉伊郡普代村","city_kana":"シモヘイグンフダイムラ","town":"柏木平","town_kana":"カシワギダイラ","prefecture_code":3},"8352":{"zip_code":"0288352","prefecture":"岩手県","prefecture_kana":"イワテケン","city":"下閉伊郡普代村","city_kana":"シモヘイグンフダイムラ","town":"上村","town_kana":"カミムラ","prefecture_code":3},"8361":{"zip_code":"0288361","prefecture":"岩手県","prefecture_kana":"イワテケン","city":"下閉伊郡普代村","city_kana":"シモヘイグンフダイムラ","town":"北ノ股","town_kana":"キタノマタ","prefecture_code":3},"8353":{"zip_code":"0288353","prefecture":"岩手県","prefecture_kana":"イワテケン","city":"下閉伊郡普代村","city_kana":"シモヘイグンフダイムラ","town":"黒崎","town_kana":"クロサキ","prefecture_code":3},"8312":{"zip_code":"0288312","prefecture":"岩手県","prefecture_kana":"イワテケン","city":"下閉伊郡普代村","city_kana":"シモヘイグンフダイムラ","town":"小谷地","town_kana":"コヤチ","prefecture_code":3},"8303":{"zip_code":"0288303","prefecture":"岩手県","prefecture_kana":"イワテケン","city":"下閉伊郡普代村","city_kana":"シモヘイグンフダイムラ","town":"沢向","town_kana":"サワムカイ","prefecture_code":3},"8351":{"zip_code":"0288351","prefecture":"岩手県","prefecture_kana":"イワテケン","city":"下閉伊郡普代村","city_kana":"シモヘイグンフダイムラ","town":"下村","town_kana":"シモムラ","prefecture_code":3},"8311":{"zip_code":"0288311","prefecture":"岩手県","prefecture_kana":"イワテケン","city":"下閉伊郡普代村","city_kana":"シモヘイグンフダイムラ","town":"白井","town_kana":"シライ","prefecture_code":3},"8313":{"zip_code":"0288313","prefecture":"岩手県","prefecture_kana":"イワテケン","city":"下閉伊郡普代村","city_kana":"シモヘイグンフダイムラ","town":"土取場","town_kana":"ツチトリバ","prefecture_code":3},"8336":{"zip_code":"0288336","prefecture":"岩手県","prefecture_kana":"イワテケン","city":"下閉伊郡普代村","city_kana":"シモヘイグンフダイムラ","town":"堤","town_kana":"ツツミ","prefecture_code":3},"8322":{"zip_code":"0288322","prefecture":"岩手県","prefecture_kana":"イワテケン","city":"下閉伊郡普代村","city_kana":"シモヘイグンフダイムラ","town":"天拝坂","town_kana":"テンバイザカ","prefecture_code":3},"8332":{"zip_code":"0288332","prefecture":"岩手県","prefecture_kana":"イワテケン","city":"下閉伊郡普代村","city_kana":"シモヘイグンフダイムラ","town":"銅屋","town_kana":"ドウヤ","prefecture_code":3},"8323":{"zip_code":"0288323","prefecture":"岩手県","prefecture_kana":"イワテケン","city":"下閉伊郡普代村","city_kana":"シモヘイグンフダイムラ","town":"鳥居","town_kana":"トリイ","prefecture_code":3},"8334":{"zip_code":"0288334","prefecture":"岩手県","prefecture_kana":"イワテケン","city":"下閉伊郡普代村","city_kana":"シモヘイグンフダイムラ","town":"中村","town_kana":"ナカムラ","prefecture_code":3},"8344":{"zip_code":"0288344","prefecture":"岩手県","prefecture_kana":"イワテケン","city":"下閉伊郡普代村","city_kana":"シモヘイグンフダイムラ","town":"中山","town_kana":"ナカヤマ","prefecture_code":3},"8321":{"zip_code":"0288321","prefecture":"岩手県","prefecture_kana":"イワテケン","city":"下閉伊郡普代村","city_kana":"シモヘイグンフダイムラ","town":"野胡桃","town_kana":"ノグルミ","prefecture_code":3},"8367":{"zip_code":"0288367","prefecture":"岩手県","prefecture_kana":"イワテケン","city":"下閉伊郡普代村","city_kana":"シモヘイグンフダイムラ","town":"萩牛","town_kana":"ハギュウ","prefecture_code":3},"8301":{"zip_code":"0288301","prefecture":"岩手県","prefecture_kana":"イワテケン","city":"下閉伊郡普代村","city_kana":"シモヘイグンフダイムラ","town":"馬場野","town_kana":"ババノ","prefecture_code":3},"8335":{"zip_code":"0288335","prefecture":"岩手県","prefecture_kana":"イワテケン","city":"下閉伊郡普代村","city_kana":"シモヘイグンフダイムラ","town":"普代","town_kana":"フダイ","prefecture_code":3},"8302":{"zip_code":"0288302","prefecture":"岩手県","prefecture_kana":"イワテケン","city":"下閉伊郡普代村","city_kana":"シモヘイグンフダイムラ","town":"堀内","town_kana":"ホリナイ","prefecture_code":3},"8364":{"zip_code":"0288364","prefecture":"岩手県","prefecture_kana":"イワテケン","city":"下閉伊郡普代村","city_kana":"シモヘイグンフダイムラ","town":"南股","town_kana":"ミナミノマタ","prefecture_code":3},"8341":{"zip_code":"0288341","prefecture":"岩手県","prefecture_kana":"イワテケン","city":"下閉伊郡普代村","city_kana":"シモヘイグンフダイムラ","town":"明神","town_kana":"ミョウジン","prefecture_code":3},"8363":{"zip_code":"0288363","prefecture":"岩手県","prefecture_kana":"イワテケン","city":"下閉伊郡普代村","city_kana":"シモヘイグンフダイムラ","town":"茂市","town_kana":"モイチ","prefecture_code":3},"8333":{"zip_code":"0288333","prefecture":"岩手県","prefecture_kana":"イワテケン","city":"下閉伊郡普代村","city_kana":"シモヘイグンフダイムラ","town":"羅賀","town_kana":"ラガ","prefecture_code":3},"8342":{"zip_code":"0288342","prefecture":"岩手県","prefecture_kana":"イワテケン","city":"下閉伊郡普代村","city_kana":"シモヘイグンフダイムラ","town":"和野山","town_kana":"ワノヤマ","prefecture_code":3},"6300":{"zip_code":"0286300","prefecture":"岩手県","prefecture_kana":"イワテケン","city":"九戸郡軽米町","city_kana":"クノヘグンカルマイマチ","town":"","town_kana":"","prefecture_code":3},"6223":{"zip_code":"0286223","prefecture":"岩手県","prefecture_kana":"イワテケン","city":"九戸郡軽米町","city_kana":"クノヘグンカルマイマチ","town":"狄塚","town_kana":"エヅカ","prefecture_code":3},"6301":{"zip_code":"0286301","prefecture":"岩手県","prefecture_kana":"イワテケン","city":"九戸郡軽米町","city_kana":"クノヘグンカルマイマチ","town":"上舘","town_kana":"カミダテ","prefecture_code":3},"6302":{"zip_code":"0286302","prefecture":"岩手県","prefecture_kana":"イワテケン","city":"九戸郡軽米町","city_kana":"クノヘグンカルマイマチ","town":"軽米","town_kana":"カルマイ","prefecture_code":3},"6303":{"zip_code":"0286303","prefecture":"岩手県","prefecture_kana":"イワテケン","city":"九戸郡軽米町","city_kana":"クノヘグンカルマイマチ","town":"高家","town_kana":"コウケ","prefecture_code":3},"6411":{"zip_code":"0286411","prefecture":"岩手県","prefecture_kana":"イワテケン","city":"九戸郡軽米町","city_kana":"クノヘグンカルマイマチ","town":"小軽米","town_kana":"コカルマイ","prefecture_code":3},"6222":{"zip_code":"0286222","prefecture":"岩手県","prefecture_kana":"イワテケン","city":"九戸郡軽米町","city_kana":"クノヘグンカルマイマチ","town":"山内","town_kana":"サンナイ","prefecture_code":3},"6304":{"zip_code":"0286304","prefecture":"岩手県","prefecture_kana":"イワテケン","city":"九戸郡軽米町","city_kana":"クノヘグンカルマイマチ","town":"長倉","town_kana":"ナガクラ","prefecture_code":3},"6221":{"zip_code":"0286221","prefecture":"岩手県","prefecture_kana":"イワテケン","city":"九戸郡軽米町","city_kana":"クノヘグンカルマイマチ","town":"晴山","town_kana":"ハレヤマ","prefecture_code":3},"6412":{"zip_code":"0286412","prefecture":"岩手県","prefecture_kana":"イワテケン","city":"九戸郡軽米町","city_kana":"クノヘグンカルマイマチ","town":"蛇口","town_kana":"ヘビクチ","prefecture_code":3},"6413":{"zip_code":"0286413","prefecture":"岩手県","prefecture_kana":"イワテケン","city":"九戸郡軽米町","city_kana":"クノヘグンカルマイマチ","town":"円子","town_kana":"マルコ","prefecture_code":3},"8200":{"zip_code":"0288200","prefecture":"岩手県","prefecture_kana":"イワテケン","city":"九戸郡野田村","city_kana":"クノヘグンノダムラ","town":"","town_kana":"","prefecture_code":3},"8202":{"zip_code":"0288202","prefecture":"岩手県","prefecture_kana":"イワテケン","city":"九戸郡野田村","city_kana":"クノヘグンノダムラ","town":"玉川","town_kana":"タマガワ","prefecture_code":3},"8201":{"zip_code":"0288201","prefecture":"岩手県","prefecture_kana":"イワテケン","city":"九戸郡野田村","city_kana":"クノヘグンノダムラ","town":"野田","town_kana":"ノダ","prefecture_code":3},"6500":{"zip_code":"0286500","prefecture":"岩手県","prefecture_kana":"イワテケン","city":"九戸郡九戸村","city_kana":"クノヘグンクノヘムラ","town":"","town_kana":"","prefecture_code":3},"6501":{"zip_code":"0286501","prefecture":"岩手県","prefecture_kana":"イワテケン","city":"九戸郡九戸村","city_kana":"クノヘグンクノヘムラ","town":"荒谷","town_kana":"アラヤ","prefecture_code":3},"6502":{"zip_code":"0286502","prefecture":"岩手県","prefecture_kana":"イワテケン","city":"九戸郡九戸村","city_kana":"クノヘグンクノヘムラ","town":"伊保内","town_kana":"イボナイ","prefecture_code":3},"6505":{"zip_code":"0286505","prefecture":"岩手県","prefecture_kana":"イワテケン","city":"九戸郡九戸村","city_kana":"クノヘグンクノヘムラ","town":"江刺家","town_kana":"エサシカ","prefecture_code":3},"6503":{"zip_code":"0286503","prefecture":"岩手県","prefecture_kana":"イワテケン","city":"九戸郡九戸村","city_kana":"クノヘグンクノヘムラ","town":"小倉","town_kana":"コグラ","prefecture_code":3},"6611":{"zip_code":"0286611","prefecture":"岩手県","prefecture_kana":"イワテケン","city":"九戸郡九戸村","city_kana":"クノヘグンクノヘムラ","town":"山根","town_kana":"サンネ","prefecture_code":3},"6504":{"zip_code":"0286504","prefecture":"岩手県","prefecture_kana":"イワテケン","city":"九戸郡九戸村","city_kana":"クノヘグンクノヘムラ","town":"長興寺","town_kana":"チョウコウジ","prefecture_code":3},"6612":{"zip_code":"0286612","prefecture":"岩手県","prefecture_kana":"イワテケン","city":"九戸郡九戸村","city_kana":"クノヘグンクノヘムラ","town":"戸田","town_kana":"トダ","prefecture_code":3},"6506":{"zip_code":"0286506","prefecture":"岩手県","prefecture_kana":"イワテケン","city":"九戸郡九戸村","city_kana":"クノヘグンクノヘムラ","town":"山屋","town_kana":"ヤマヤ","prefecture_code":3},"6507":{"zip_code":"0286507","prefecture":"岩手県","prefecture_kana":"イワテケン","city":"九戸郡九戸村","city_kana":"クノヘグンクノヘムラ","town":"雪屋","town_kana":"ユキヤ","prefecture_code":3},"7900":{"zip_code":"0287900","prefecture":"岩手県","prefecture_kana":"イワテケン","city":"九戸郡洋野町","city_kana":"クノヘグンヒロノチョウ","town":"","town_kana":"","prefecture_code":3},"8803":{"zip_code":"0288803","prefecture":"岩手県","prefecture_kana":"イワテケン","city":"九戸郡洋野町","city_kana":"クノヘグンヒロノチョウ","town":"阿子木","town_kana":"アコギ","prefecture_code":3},"7905":{"zip_code":"0287905","prefecture":"岩手県","prefecture_kana":"イワテケン","city":"九戸郡洋野町","city_kana":"クノヘグンヒロノチョウ","town":"有家","town_kana":"ウゲ","prefecture_code":3},"8802":{"zip_code":"0288802","prefecture":"岩手県","prefecture_kana":"イワテケン","city":"九戸郡洋野町","city_kana":"クノヘグンヒロノチョウ","town":"大野","town_kana":"オオノ","prefecture_code":3},"7904":{"zip_code":"0287904","prefecture":"岩手県","prefecture_kana":"イワテケン","city":"九戸郡洋野町","city_kana":"クノヘグンヒロノチョウ","town":"小子内","town_kana":"オコナイ","prefecture_code":3},"8801":{"zip_code":"0288801","prefecture":"岩手県","prefecture_kana":"イワテケン","city":"九戸郡洋野町","city_kana":"クノヘグンヒロノチョウ","town":"上館","town_kana":"カミダテ","prefecture_code":3},"8804":{"zip_code":"0288804","prefecture":"岩手県","prefecture_kana":"イワテケン","city":"九戸郡洋野町","city_kana":"クノヘグンヒロノチョウ","town":"帯島","town_kana":"タイシマ","prefecture_code":3},"7915":{"zip_code":"0287915","prefecture":"岩手県","prefecture_kana":"イワテケン","city":"九戸郡洋野町","city_kana":"クノヘグンヒロノチョウ","town":"種市","town_kana":"タネイチ","prefecture_code":3},"7903":{"zip_code":"0287903","prefecture":"岩手県","prefecture_kana":"イワテケン","city":"九戸郡洋野町","city_kana":"クノヘグンヒロノチョウ","town":"種市","town_kana":"タネイチ","prefecture_code":3},"7914":{"zip_code":"0287914","prefecture":"岩手県","prefecture_kana":"イワテケン","city":"九戸郡洋野町","city_kana":"クノヘグンヒロノチョウ","town":"種市","town_kana":"タネイチ","prefecture_code":3},"7913":{"zip_code":"0287913","prefecture":"岩手県","prefecture_kana":"イワテケン","city":"九戸郡洋野町","city_kana":"クノヘグンヒロノチョウ","town":"種市","town_kana":"タネイチ","prefecture_code":3},"7912":{"zip_code":"0287912","prefecture":"岩手県","prefecture_kana":"イワテケン","city":"九戸郡洋野町","city_kana":"クノヘグンヒロノチョウ","town":"種市","town_kana":"タネイチ","prefecture_code":3},"7911":{"zip_code":"0287911","prefecture":"岩手県","prefecture_kana":"イワテケン","city":"九戸郡洋野町","city_kana":"クノヘグンヒロノチョウ","town":"種市","town_kana":"タネイチ","prefecture_code":3},"7918":{"zip_code":"0287918","prefecture":"岩手県","prefecture_kana":"イワテケン","city":"九戸郡洋野町","city_kana":"クノヘグンヒロノチョウ","town":"種市","town_kana":"タネイチ","prefecture_code":3},"7902":{"zip_code":"0287902","prefecture":"岩手県","prefecture_kana":"イワテケン","city":"九戸郡洋野町","city_kana":"クノヘグンヒロノチョウ","town":"種市","town_kana":"タネイチ","prefecture_code":3},"7917":{"zip_code":"0287917","prefecture":"岩手県","prefecture_kana":"イワテケン","city":"九戸郡洋野町","city_kana":"クノヘグンヒロノチョウ","town":"種市","town_kana":"タネイチ","prefecture_code":3},"7916":{"zip_code":"0287916","prefecture":"岩手県","prefecture_kana":"イワテケン","city":"九戸郡洋野町","city_kana":"クノヘグンヒロノチョウ","town":"種市","town_kana":"タネイチ","prefecture_code":3},"7901":{"zip_code":"0287901","prefecture":"岩手県","prefecture_kana":"イワテケン","city":"九戸郡洋野町","city_kana":"クノヘグンヒロノチョウ","town":"種市","town_kana":"タネイチ","prefecture_code":3},"7906":{"zip_code":"0287906","prefecture":"岩手県","prefecture_kana":"イワテケン","city":"九戸郡洋野町","city_kana":"クノヘグンヒロノチョウ","town":"中野","town_kana":"ナカノ","prefecture_code":3},"8805":{"zip_code":"0288805","prefecture":"岩手県","prefecture_kana":"イワテケン","city":"九戸郡洋野町","city_kana":"クノヘグンヒロノチョウ","town":"水沢","town_kana":"ミズサワ","prefecture_code":3},"5300":{"zip_code":"0285300","prefecture":"岩手県","prefecture_kana":"イワテケン","city":"二戸郡一戸町","city_kana":"ニノヘグンイチノヘマチ","town":"","town_kana":"","prefecture_code":3},"5222":{"zip_code":"0285222","prefecture":"岩手県","prefecture_kana":"イワテケン","city":"二戸郡一戸町","city_kana":"ニノヘグンイチノヘマチ","town":"姉帯","town_kana":"アネタイ","prefecture_code":3},"5304":{"zip_code":"0285304","prefecture":"岩手県","prefecture_kana":"イワテケン","city":"二戸郡一戸町","city_kana":"ニノヘグンイチノヘマチ","town":"出ル町","town_kana":"イズルマチ","prefecture_code":3},"5312":{"zip_code":"0285312","prefecture":"岩手県","prefecture_kana":"イワテケン","city":"二戸郡一戸町","city_kana":"ニノヘグンイチノヘマチ","town":"一戸","town_kana":"イチノヘ","prefecture_code":3},"5316":{"zip_code":"0285316","prefecture":"岩手県","prefecture_kana":"イワテケン","city":"二戸郡一戸町","city_kana":"ニノヘグンイチノヘマチ","town":"岩舘","town_kana":"イワダテ","prefecture_code":3},"5131":{"zip_code":"0285131","prefecture":"岩手県","prefecture_kana":"イワテケン","city":"二戸郡一戸町","city_kana":"ニノヘグンイチノヘマチ","town":"宇別","town_kana":"ウベツ","prefecture_code":3},"5134":{"zip_code":"0285134","prefecture":"岩手県","prefecture_kana":"イワテケン","city":"二戸郡一戸町","city_kana":"ニノヘグンイチノヘマチ","town":"奥中山","town_kana":"オクナカヤマ","prefecture_code":3},"5303":{"zip_code":"0285303","prefecture":"岩手県","prefecture_kana":"イワテケン","city":"二戸郡一戸町","city_kana":"ニノヘグンイチノヘマチ","town":"小友","town_kana":"オトモ","prefecture_code":3},"5223":{"zip_code":"0285223","prefecture":"岩手県","prefecture_kana":"イワテケン","city":"二戸郡一戸町","city_kana":"ニノヘグンイチノヘマチ","town":"面岸","town_kana":"オモギシ","prefecture_code":3},"5311":{"zip_code":"0285311","prefecture":"岩手県","prefecture_kana":"イワテケン","city":"二戸郡一戸町","city_kana":"ニノヘグンイチノヘマチ","town":"高善寺","town_kana":"コウゼンジ","prefecture_code":3},"5221":{"zip_code":"0285221","prefecture":"岩手県","prefecture_kana":"イワテケン","city":"二戸郡一戸町","city_kana":"ニノヘグンイチノヘマチ","town":"小鳥谷","town_kana":"コズヤ","prefecture_code":3},"5132":{"zip_code":"0285132","prefecture":"岩手県","prefecture_kana":"イワテケン","city":"二戸郡一戸町","city_kana":"ニノヘグンイチノヘマチ","town":"小繋","town_kana":"コツナギ","prefecture_code":3},"5301":{"zip_code":"0285301","prefecture":"岩手県","prefecture_kana":"イワテケン","city":"二戸郡一戸町","city_kana":"ニノヘグンイチノヘマチ","town":"西法寺","town_kana":"サイホウジ","prefecture_code":3},"5305":{"zip_code":"0285305","prefecture":"岩手県","prefecture_kana":"イワテケン","city":"二戸郡一戸町","city_kana":"ニノヘグンイチノヘマチ","town":"月舘","town_kana":"ツキダテ","prefecture_code":3},"5313":{"zip_code":"0285313","prefecture":"岩手県","prefecture_kana":"イワテケン","city":"二戸郡一戸町","city_kana":"ニノヘグンイチノヘマチ","town":"鳥越","town_kana":"トリゴエ","prefecture_code":3},"5306":{"zip_code":"0285306","prefecture":"岩手県","prefecture_kana":"イワテケン","city":"二戸郡一戸町","city_kana":"ニノヘグンイチノヘマチ","town":"中里","town_kana":"ナカサト","prefecture_code":3},"5233":{"zip_code":"0285233","prefecture":"岩手県","prefecture_kana":"イワテケン","city":"二戸郡一戸町","city_kana":"ニノヘグンイチノヘマチ","town":"中山","town_kana":"ナカヤマ","prefecture_code":3},"5133":{"zip_code":"0285133","prefecture":"岩手県","prefecture_kana":"イワテケン","city":"二戸郡一戸町","city_kana":"ニノヘグンイチノヘマチ","town":"中山","town_kana":"ナカヤマ","prefecture_code":3},"5314":{"zip_code":"0285314","prefecture":"岩手県","prefecture_kana":"イワテケン","city":"二戸郡一戸町","city_kana":"ニノヘグンイチノヘマチ","town":"楢山","town_kana":"ナラヤマ","prefecture_code":3},"5315":{"zip_code":"0285315","prefecture":"岩手県","prefecture_kana":"イワテケン","city":"二戸郡一戸町","city_kana":"ニノヘグンイチノヘマチ","town":"根反","town_kana":"ネソリ","prefecture_code":3},"5224":{"zip_code":"0285224","prefecture":"岩手県","prefecture_kana":"イワテケン","city":"二戸郡一戸町","city_kana":"ニノヘグンイチノヘマチ","town":"平糠","town_kana":"ヒラヌカ","prefecture_code":3},"5302":{"zip_code":"0285302","prefecture":"岩手県","prefecture_kana":"イワテケン","city":"二戸郡一戸町","city_kana":"ニノヘグンイチノヘマチ","town":"女鹿","town_kana":"メガ","prefecture_code":3}}