{"0846":{"zip_code":"0300846","prefecture":"青森県","prefecture_kana":"アオモリケン","city":"青森市","city_kana":"アオモリシ","town":"青葉","town_kana":"アオバ","prefecture_code":2},"0811":{"zip_code":"0300811","prefecture":"青森県","prefecture_kana":"アオモリケン","city":"青森市","city_kana":"アオモリシ","town":"青柳","town_kana":"アオヤギ","prefecture_code":2},"0956":{"zip_code":"0300956","prefecture":"青森県","prefecture_kana":"アオモリケン","city":"青森市","city_kana":"アオモリシ","town":"赤坂","town_kana":"アカサカ","prefecture_code":2},"0851":{"zip_code":"0300851","prefecture":"青森県","prefecture_kana":"アオモリケン","city":"青森市","city_kana":"アオモリシ","town":"旭町","town_kana":"アサヒチョウ","prefecture_code":2},"0111":{"zip_code":"0300111","prefecture":"青森県","prefecture_kana":"アオモリケン","city":"青森市","city_kana":"アオモリシ","town":"荒川","town_kana":"アラカワ","prefecture_code":2},"0922":{"zip_code":"0300922","prefecture":"青森県","prefecture_kana":"アオモリケン","city":"青森市","city_kana":"アオモリシ","town":"泉野","town_kana":"イズミノ","prefecture_code":2},"0136":{"zip_code":"0300136","prefecture":"青森県","prefecture_kana":"アオモリケン","city":"青森市","city_kana":"アオモリシ","town":"牛館","town_kana":"ウシタテ","prefecture_code":2},"1262":{"zip_code":"0301262","prefecture":"青森県","prefecture_kana":"アオモリケン","city":"青森市","city_kana":"アオモリシ","town":"後潟","town_kana":"ウシロガタ","prefecture_code":2},"0932":{"zip_code":"0300932","prefecture":"青森県","prefecture_kana":"アオモリケン","city":"青森市","city_kana":"アオモリシ","town":"後萢","town_kana":"ウシロヤチ","prefecture_code":2},"0842":{"zip_code":"0300842","prefecture":"青森県","prefecture_kana":"アオモリケン","city":"青森市","city_kana":"アオモリシ","town":"浦町","town_kana":"ウラマチ","prefecture_code":2},"0141":{"zip_code":"0300141","prefecture":"青森県","prefecture_kana":"アオモリケン","city":"青森市","city_kana":"アオモリシ","town":"上野","town_kana":"ウワノ","prefecture_code":2},"0155":{"zip_code":"0300155","prefecture":"青森県","prefecture_kana":"アオモリケン","city":"青森市","city_kana":"アオモリシ","town":"大谷","town_kana":"オオタニ","prefecture_code":2},"0852":{"zip_code":"0300852","prefecture":"青森県","prefecture_kana":"アオモリケン","city":"青森市","city_kana":"アオモリシ","town":"大野","town_kana":"オオノ","prefecture_code":2},"0144":{"zip_code":"0300144","prefecture":"青森県","prefecture_kana":"アオモリケン","city":"青森市","city_kana":"アオモリシ","town":"大別内","town_kana":"オオベツナイ","prefecture_code":2},"0123":{"zip_code":"0300123","prefecture":"青森県","prefecture_kana":"アオモリケン","city":"青森市","city_kana":"アオモリシ","town":"大矢沢","town_kana":"オオヤサワ","prefecture_code":2},"0914":{"zip_code":"0300914","prefecture":"青森県","prefecture_kana":"アオモリケン","city":"青森市","city_kana":"アオモリシ","town":"岡造道","town_kana":"オカツクリミチ","prefecture_code":2},"0841":{"zip_code":"0300841","prefecture":"青森県","prefecture_kana":"アオモリケン","city":"青森市","city_kana":"アオモリシ","town":"奥野","town_kana":"オクノ","prefecture_code":2},"0143":{"zip_code":"0300143","prefecture":"青森県","prefecture_kana":"アオモリケン","city":"青森市","city_kana":"アオモリシ","town":"小畑沢","town_kana":"オバタケザワ","prefecture_code":2},"0137":{"zip_code":"0300137","prefecture":"青森県","prefecture_kana":"アオモリケン","city":"青森市","city_kana":"アオモリシ","town":"卸町","town_kana":"オロシマチ","prefecture_code":2},"0821":{"zip_code":"0300821","prefecture":"青森県","prefecture_kana":"アオモリケン","city":"青森市","city_kana":"アオモリシ","town":"勝田","town_kana":"カッタ","prefecture_code":2},"0902":{"zip_code":"0300902","prefecture":"青森県","prefecture_kana":"アオモリケン","city":"青森市","city_kana":"アオモリシ","town":"合浦","town_kana":"ガッポ","prefecture_code":2},"0844":{"zip_code":"0300844","prefecture":"青森県","prefecture_kana":"アオモリケン","city":"青森市","city_kana":"アオモリシ","town":"桂木","town_kana":"カツラギ","prefecture_code":2},"0853":{"zip_code":"0300853","prefecture":"青森県","prefecture_kana":"アオモリケン","city":"青森市","city_kana":"アオモリシ","town":"金沢","town_kana":"カナザワ","prefecture_code":2},"0145":{"zip_code":"0300145","prefecture":"青森県","prefecture_kana":"アオモリケン","city":"青森市","city_kana":"アオモリシ","town":"金浜","town_kana":"カネハマ","prefecture_code":2},"0855":{"zip_code":"0300855","prefecture":"青森県","prefecture_kana":"アオモリケン","city":"青森市","city_kana":"アオモリシ","town":"北金沢","town_kana":"キタカナザワ","prefecture_code":2},"0935":{"zip_code":"0300935","prefecture":"青森県","prefecture_kana":"アオモリケン","city":"青森市","city_kana":"アオモリシ","town":"桑原","town_kana":"クワバラ","prefecture_code":2},"0918":{"zip_code":"0300918","prefecture":"青森県","prefecture_kana":"アオモリケン","city":"青森市","city_kana":"アオモリシ","town":"けやき","town_kana":"ケヤキ","prefecture_code":2},"0134":{"zip_code":"0300134","prefecture":"青森県","prefecture_kana":"アオモリケン","city":"青森市","city_kana":"アオモリシ","town":"合子沢","town_kana":"ゴウシザワ","prefecture_code":2},"0943":{"zip_code":"0300943","prefecture":"青森県","prefecture_kana":"アオモリケン","city":"青森市","city_kana":"アオモリシ","town":"幸畑","town_kana":"コウバタ","prefecture_code":2},"0153":{"zip_code":"0300153","prefecture":"青森県","prefecture_kana":"アオモリケン","city":"青森市","city_kana":"アオモリシ","town":"小館","town_kana":"コダテ","prefecture_code":2},"1272":{"zip_code":"0301272","prefecture":"青森県","prefecture_kana":"アオモリケン","city":"青森市","city_kana":"アオモリシ","town":"小橋","town_kana":"コバシ","prefecture_code":2},"0954":[{"zip_code":"0300954","prefecture":"青森県","prefecture_kana":"アオモリケン","city":"青森市","city_kana":"アオモリシ","town":"駒込","town_kana":"コマゴメ","prefecture_code":2},{"zip_code":"0300954","prefecture":"青森県","prefecture_kana":"アオモリケン","city":"青森市","city_kana":"アオモリシ","town":"駒込月見野","town_kana":"コマゴメツキミノ","prefecture_code":2}],"0953":[{"zip_code":"0300953","prefecture":"青森県","prefecture_kana":"アオモリケン","city":"青森市","city_kana":"アオモリシ","town":"駒込","town_kana":"コマゴメ","prefecture_code":2},{"zip_code":"0300953","prefecture":"青森県","prefecture_kana":"アオモリケン","city":"青森市","city_kana":"アオモリシ","town":"駒込蛍沢","town_kana":"コマゴメホタルザワ","prefecture_code":2}],"0955":{"zip_code":"0300955","prefecture":"青森県","prefecture_kana":"アオモリケン","city":"青森市","city_kana":"アオモリシ","town":"駒込","town_kana":"コマゴメ","prefecture_code":2},"0915":{"zip_code":"0300915","prefecture":"青森県","prefecture_kana":"アオモリケン","city":"青森市","city_kana":"アオモリシ","town":"小柳","town_kana":"コヤナギ","prefecture_code":2},"0903":{"zip_code":"0300903","prefecture":"青森県","prefecture_kana":"アオモリケン","city":"青森市","city_kana":"アオモリシ","town":"栄町","town_kana":"サカエマチ","prefecture_code":2},"0945":{"zip_code":"0300945","prefecture":"青森県","prefecture_kana":"アオモリケン","city":"青森市","city_kana":"アオモリシ","town":"桜川","town_kana":"サクラガワ","prefecture_code":2},"0942":{"zip_code":"0300942","prefecture":"青森県","prefecture_kana":"アオモリケン","city":"青森市","city_kana":"アオモリシ","town":"沢山","town_kana":"サワヤマ","prefecture_code":2},"1261":{"zip_code":"0301261","prefecture":"青森県","prefecture_kana":"アオモリケン","city":"青森市","city_kana":"アオモリシ","town":"四戸橋","town_kana":"シトバシ","prefecture_code":2},"0941":{"zip_code":"0300941","prefecture":"青森県","prefecture_kana":"アオモリケン","city":"青森市","city_kana":"アオモリシ","town":"自由ケ丘","town_kana":"ジユウガオカ","prefecture_code":2},"0801":{"zip_code":"0300801","prefecture":"青森県","prefecture_kana":"アオモリケン","city":"青森市","city_kana":"アオモリシ","town":"新町","town_kana":"シンマチ","prefecture_code":2},"0135":{"zip_code":"0300135","prefecture":"青森県","prefecture_kana":"アオモリケン","city":"青森市","city_kana":"アオモリシ","town":"新町野","town_kana":"シンマチノ","prefecture_code":2},"0933":{"zip_code":"0300933","prefecture":"青森県","prefecture_kana":"アオモリケン","city":"青森市","city_kana":"アオモリシ","town":"諏訪沢","town_kana":"スワノサワ","prefecture_code":2},"0854":{"zip_code":"0300854","prefecture":"青森県","prefecture_kana":"アオモリケン","city":"青森市","city_kana":"アオモリシ","town":"千富町","town_kana":"セントミチョウ","prefecture_code":2},"0113":{"zip_code":"0300113","prefecture":"青森県","prefecture_kana":"アオモリケン","city":"青森市","city_kana":"アオモリシ","town":"第二問屋町","town_kana":"ダイニトンヤマチ","prefecture_code":2},"0931":{"zip_code":"0300931","prefecture":"青森県","prefecture_kana":"アオモリケン","city":"青森市","city_kana":"アオモリシ","town":"平新田","town_kana":"タイラシンデン","prefecture_code":2},"0151":{"zip_code":"0300151","prefecture":"青森県","prefecture_kana":"アオモリケン","city":"青森市","city_kana":"アオモリシ","town":"高田","town_kana":"タカダ","prefecture_code":2},"0924":{"zip_code":"0300924","prefecture":"青森県","prefecture_kana":"アオモリケン","city":"青森市","city_kana":"アオモリシ","town":"滝沢","town_kana":"タキサワ","prefecture_code":2},"0124":{"zip_code":"0300124","prefecture":"青森県","prefecture_kana":"アオモリケン","city":"青森市","city_kana":"アオモリシ","town":"田茂木野","town_kana":"タモギノ","prefecture_code":2},"0916":{"zip_code":"0300916","prefecture":"青森県","prefecture_kana":"アオモリケン","city":"青森市","city_kana":"アオモリシ","town":"田屋敷","town_kana":"タヤシキ","prefecture_code":2},"0904":{"zip_code":"0300904","prefecture":"青森県","prefecture_kana":"アオモリケン","city":"青森市","city_kana":"アオモリシ","town":"茶屋町","town_kana":"チャヤマチ","prefecture_code":2},"0822":{"zip_code":"0300822","prefecture":"青森県","prefecture_kana":"アオモリケン","city":"青森市","city_kana":"アオモリシ","town":"中央","town_kana":"チュウオウ","prefecture_code":2},"0925":{"zip_code":"0300925","prefecture":"青森県","prefecture_kana":"アオモリケン","city":"青森市","city_kana":"アオモリシ","town":"築木館","town_kana":"ツキノキダテ","prefecture_code":2},"0958":{"zip_code":"0300958","prefecture":"青森県","prefecture_kana":"アオモリケン","city":"青森市","city_kana":"アオモリシ","town":"月見野","town_kana":"ツキミノ","prefecture_code":2},"0962":{"zip_code":"0300962","prefecture":"青森県","prefecture_kana":"アオモリケン","city":"青森市","city_kana":"アオモリシ","town":"佃","town_kana":"ツクダ","prefecture_code":2},"0911":{"zip_code":"0300911","prefecture":"青森県","prefecture_kana":"アオモリケン","city":"青森市","city_kana":"アオモリシ","town":"造道","town_kana":"ツクリミチ","prefecture_code":2},"0944":{"zip_code":"0300944","prefecture":"青森県","prefecture_kana":"アオモリケン","city":"青森市","city_kana":"アオモリシ","town":"筒井","town_kana":"ツツイ","prefecture_code":2},"0812":{"zip_code":"0300812","prefecture":"青森県","prefecture_kana":"アオモリケン","city":"青森市","city_kana":"アオモリシ","town":"堤町","town_kana":"ツツミマチ","prefecture_code":2},"0934":{"zip_code":"0300934","prefecture":"青森県","prefecture_kana":"アオモリケン","city":"青森市","city_kana":"アオモリシ","town":"戸崎","town_kana":"トザキ","prefecture_code":2},"0952":[{"zip_code":"0300952","prefecture":"青森県","prefecture_kana":"アオモリケン","city":"青森市","city_kana":"アオモリシ","town":"戸山","town_kana":"トヤマ","prefecture_code":2},{"zip_code":"0300952","prefecture":"青森県","prefecture_kana":"アオモリケン","city":"青森市","city_kana":"アオモリシ","town":"戸山赤坂","town_kana":"トヤマアカサカ","prefecture_code":2}],"0951":{"zip_code":"0300951","prefecture":"青森県","prefecture_kana":"アオモリケン","city":"青森市","city_kana":"アオモリシ","town":"戸山","town_kana":"トヤマ","prefecture_code":2},"0131":{"zip_code":"0300131","prefecture":"青森県","prefecture_kana":"アオモリケン","city":"青森市","city_kana":"アオモリシ","town":"問屋町","town_kana":"トンヤマチ","prefecture_code":2},"0861":{"zip_code":"0300861","prefecture":"青森県","prefecture_kana":"アオモリケン","city":"青森市","city_kana":"アオモリシ","town":"長島","town_kana":"ナガシマ","prefecture_code":2},"0963":{"zip_code":"0300963","prefecture":"青森県","prefecture_kana":"アオモリケン","city":"青森市","city_kana":"アオモリシ","town":"中佃","town_kana":"ナカツクダ","prefecture_code":2},"0961":{"zip_code":"0300961","prefecture":"青森県","prefecture_kana":"アオモリケン","city":"青森市","city_kana":"アオモリシ","town":"浪打","town_kana":"ナミウチ","prefecture_code":2},"0856":{"zip_code":"0300856","prefecture":"青森県","prefecture_kana":"アオモリケン","city":"青森市","city_kana":"アオモリシ","town":"西大野","town_kana":"ニシオオノ","prefecture_code":2},"0948":{"zip_code":"0300948","prefecture":"青森県","prefecture_kana":"アオモリケン","city":"青森市","city_kana":"アオモリシ","town":"虹ケ丘","town_kana":"ニジガオカ","prefecture_code":2},"0154":{"zip_code":"0300154","prefecture":"青森県","prefecture_kana":"アオモリケン","city":"青森市","city_kana":"アオモリシ","town":"入内","town_kana":"ニュウナイ","prefecture_code":2},"0142":{"zip_code":"0300142","prefecture":"青森県","prefecture_kana":"アオモリケン","city":"青森市","city_kana":"アオモリシ","town":"野木","town_kana":"ノギ","prefecture_code":2},"0152":{"zip_code":"0300152","prefecture":"青森県","prefecture_kana":"アオモリケン","city":"青森市","city_kana":"アオモリシ","town":"野沢","town_kana":"ノザワ","prefecture_code":2},"0122":{"zip_code":"0300122","prefecture":"青森県","prefecture_kana":"アオモリケン","city":"青森市","city_kana":"アオモリシ","town":"野尻","town_kana":"ノジリ","prefecture_code":2},"0823":{"zip_code":"0300823","prefecture":"青森県","prefecture_kana":"アオモリケン","city":"青森市","city_kana":"アオモリシ","town":"橋本","town_kana":"ハシモト","prefecture_code":2},"0966":{"zip_code":"0300966","prefecture":"青森県","prefecture_kana":"アオモリケン","city":"青森市","city_kana":"アオモリシ","town":"花園","town_kana":"ハナゾノ","prefecture_code":2},"0843":{"zip_code":"0300843","prefecture":"青森県","prefecture_kana":"アオモリケン","city":"青森市","city_kana":"アオモリシ","town":"浜田","town_kana":"ハマダ","prefecture_code":2},"0947":{"zip_code":"0300947","prefecture":"青森県","prefecture_kana":"アオモリケン","city":"青森市","city_kana":"アオモリシ","town":"浜館","town_kana":"ハマダテ","prefecture_code":2},"0919":{"zip_code":"0300919","prefecture":"青森県","prefecture_kana":"アオモリケン","city":"青森市","city_kana":"アオモリシ","town":"はまなす","town_kana":"ハマナス","prefecture_code":2},"0921":{"zip_code":"0300921","prefecture":"青森県","prefecture_kana":"アオモリケン","city":"青森市","city_kana":"アオモリシ","town":"原別","town_kana":"ハラベツ","prefecture_code":2},"0847":{"zip_code":"0300847","prefecture":"青森県","prefecture_kana":"アオモリケン","city":"青森市","city_kana":"アオモリシ","town":"東大野","town_kana":"ヒガシオオノ","prefecture_code":2},"0913":{"zip_code":"0300913","prefecture":"青森県","prefecture_kana":"アオモリケン","city":"青森市","city_kana":"アオモリシ","town":"東造道","town_kana":"ヒガシツクリミチ","prefecture_code":2},"1273":{"zip_code":"0301273","prefecture":"青森県","prefecture_kana":"アオモリケン","city":"青森市","city_kana":"アオモリシ","town":"左堰","town_kana":"ヒダリゼキ","prefecture_code":2},"0862":{"zip_code":"0300862","prefecture":"青森県","prefecture_kana":"アオモリケン","city":"青森市","city_kana":"アオモリシ","town":"古川","town_kana":"フルカワ","prefecture_code":2},"0946":{"zip_code":"0300946","prefecture":"青森県","prefecture_kana":"アオモリケン","city":"青森市","city_kana":"アオモリシ","town":"古館","town_kana":"フルダテ","prefecture_code":2},"0957":{"zip_code":"0300957","prefecture":"青森県","prefecture_kana":"アオモリケン","city":"青森市","city_kana":"アオモリシ","town":"蛍沢","town_kana":"ホタルザワ","prefecture_code":2},"0802":{"zip_code":"0300802","prefecture":"青森県","prefecture_kana":"アオモリケン","city":"青森市","city_kana":"アオモリシ","town":"本町","town_kana":"ホンチョウ","prefecture_code":2},"0813":{"zip_code":"0300813","prefecture":"青森県","prefecture_kana":"アオモリケン","city":"青森市","city_kana":"アオモリシ","town":"松原","town_kana":"マツバラ","prefecture_code":2},"0965":{"zip_code":"0300965","prefecture":"青森県","prefecture_kana":"アオモリケン","city":"青森市","city_kana":"アオモリシ","town":"松森","town_kana":"マツモリ","prefecture_code":2},"0845":{"zip_code":"0300845","prefecture":"青森県","prefecture_kana":"アオモリケン","city":"青森市","city_kana":"アオモリシ","town":"緑","town_kana":"ミドリ","prefecture_code":2},"0901":{"zip_code":"0300901","prefecture":"青森県","prefecture_kana":"アオモリケン","city":"青森市","city_kana":"アオモリシ","town":"港町","town_kana":"ミナトマチ","prefecture_code":2},"0964":{"zip_code":"0300964","prefecture":"青森県","prefecture_kana":"アオモリケン","city":"青森市","city_kana":"アオモリシ","town":"南佃","town_kana":"ミナミツクダ","prefecture_code":2},"0121":{"zip_code":"0300121","prefecture":"青森県","prefecture_kana":"アオモリケン","city":"青森市","city_kana":"アオモリシ","town":"妙見","town_kana":"ミョウケン","prefecture_code":2},"0937":{"zip_code":"0300937","prefecture":"青森県","prefecture_kana":"アオモリケン","city":"青森市","city_kana":"アオモリシ","town":"本泉","town_kana":"モトイズミ","prefecture_code":2},"0133":{"zip_code":"0300133","prefecture":"青森県","prefecture_kana":"アオモリケン","city":"青森市","city_kana":"アオモリシ","town":"雲谷","town_kana":"モヤ","prefecture_code":2},"0912":{"zip_code":"0300912","prefecture":"青森県","prefecture_kana":"アオモリケン","city":"青森市","city_kana":"アオモリシ","town":"八重田","town_kana":"ヤエダ","prefecture_code":2},"0917":{"zip_code":"0300917","prefecture":"青森県","prefecture_kana":"アオモリケン","city":"青森市","city_kana":"アオモリシ","town":"矢作","town_kana":"ヤサク","prefecture_code":2},"0803":{"zip_code":"0300803","prefecture":"青森県","prefecture_kana":"アオモリケン","city":"青森市","city_kana":"アオモリシ","town":"安方","town_kana":"ヤスカタ","prefecture_code":2},"0936":{"zip_code":"0300936","prefecture":"青森県","prefecture_kana":"アオモリケン","city":"青森市","city_kana":"アオモリシ","town":"矢田前","town_kana":"ヤダマエ","prefecture_code":2},"0112":{"zip_code":"0300112","prefecture":"青森県","prefecture_kana":"アオモリケン","city":"青森市","city_kana":"アオモリシ","town":"八ツ役","town_kana":"ヤツヤク","prefecture_code":2},"0923":{"zip_code":"0300923","prefecture":"青森県","prefecture_kana":"アオモリケン","city":"青森市","city_kana":"アオモリシ","town":"八幡林","town_kana":"ヤハタバヤシ","prefecture_code":2},"0132":{"zip_code":"0300132","prefecture":"青森県","prefecture_kana":"アオモリケン","city":"青森市","city_kana":"アオモリシ","town":"横内","town_kana":"ヨコウチ","prefecture_code":2},"0125":{"zip_code":"0300125","prefecture":"青森県","prefecture_kana":"アオモリケン","city":"青森市","city_kana":"アオモリシ","town":"四ツ石","town_kana":"ヨツイシ","prefecture_code":2},"1271":{"zip_code":"0301271","prefecture":"青森県","prefecture_kana":"アオモリケン","city":"青森市","city_kana":"アオモリシ","town":"六枚橋","town_kana":"ロクマエバシ","prefecture_code":2},"1500":{"zip_code":"0301500","prefecture":"青森県","prefecture_kana":"アオモリケン","city":"東津軽郡今別町","city_kana":"ヒガシツガルグンイマベツマチ","town":"","town_kana":"","prefecture_code":2},"1502":{"zip_code":"0301502","prefecture":"青森県","prefecture_kana":"アオモリケン","city":"東津軽郡今別町","city_kana":"ヒガシツガルグンイマベツマチ","town":"今別","town_kana":"イマベツ","prefecture_code":2},"1505":{"zip_code":"0301505","prefecture":"青森県","prefecture_kana":"アオモリケン","city":"東津軽郡今別町","city_kana":"ヒガシツガルグンイマベツマチ","town":"大川平","town_kana":"オオカワダイ","prefecture_code":2},"1512":{"zip_code":"0301512","prefecture":"青森県","prefecture_kana":"アオモリケン","city":"東津軽郡今別町","city_kana":"ヒガシツガルグンイマベツマチ","town":"大泊","town_kana":"オオドマリ","prefecture_code":2},"1515":{"zip_code":"0301515","prefecture":"青森県","prefecture_kana":"アオモリケン","city":"東津軽郡今別町","city_kana":"ヒガシツガルグンイマベツマチ","town":"奥平部","town_kana":"オクタイラヘ","prefecture_code":2},"1514":{"zip_code":"0301514","prefecture":"青森県","prefecture_kana":"アオモリケン","city":"東津軽郡今別町","city_kana":"ヒガシツガルグンイマベツマチ","town":"砂ケ森","town_kana":"スナガモリ","prefecture_code":2},"1504":{"zip_code":"0301504","prefecture":"青森県","prefecture_kana":"アオモリケン","city":"東津軽郡今別町","city_kana":"ヒガシツガルグンイマベツマチ","town":"鍋田","town_kana":"ナベタ","prefecture_code":2},"1501":{"zip_code":"0301501","prefecture":"青森県","prefecture_kana":"アオモリケン","city":"東津軽郡今別町","city_kana":"ヒガシツガルグンイマベツマチ","town":"浜名","town_kana":"ハマナ","prefecture_code":2},"1513":{"zip_code":"0301513","prefecture":"青森県","prefecture_kana":"アオモリケン","city":"東津軽郡今別町","city_kana":"ヒガシツガルグンイマベツマチ","town":"袰月","town_kana":"ホロヅキ","prefecture_code":2},"1503":{"zip_code":"0301503","prefecture":"青森県","prefecture_kana":"アオモリケン","city":"東津軽郡今別町","city_kana":"ヒガシツガルグンイマベツマチ","town":"村元","town_kana":"ムラモト","prefecture_code":2},"1511":{"zip_code":"0301511","prefecture":"青森県","prefecture_kana":"アオモリケン","city":"東津軽郡今別町","city_kana":"ヒガシツガルグンイマベツマチ","town":"山崎","town_kana":"ヤマザキ","prefecture_code":2},"1200":{"zip_code":"0301200","prefecture":"青森県","prefecture_kana":"アオモリケン","city":"東津軽郡蓬田村","city_kana":"ヒガシツガルグンヨモギタムラ","town":"","town_kana":"","prefecture_code":2},"1212":{"zip_code":"0301212","prefecture":"青森県","prefecture_kana":"アオモリケン","city":"東津軽郡蓬田村","city_kana":"ヒガシツガルグンヨモギタムラ","town":"阿弥陀川","town_kana":"アミダガワ","prefecture_code":2},"1203":{"zip_code":"0301203","prefecture":"青森県","prefecture_kana":"アオモリケン","city":"東津軽郡蓬田村","city_kana":"ヒガシツガルグンヨモギタムラ","town":"郷沢","town_kana":"ゴウサワ","prefecture_code":2},"1202":{"zip_code":"0301202","prefecture":"青森県","prefecture_kana":"アオモリケン","city":"東津軽郡蓬田村","city_kana":"ヒガシツガルグンヨモギタムラ","town":"瀬辺地","town_kana":"セヘジ","prefecture_code":2},"1214":{"zip_code":"0301214","prefecture":"青森県","prefecture_kana":"アオモリケン","city":"東津軽郡蓬田村","city_kana":"ヒガシツガルグンヨモギタムラ","town":"中沢","town_kana":"ナカザワ","prefecture_code":2},"1213":{"zip_code":"0301213","prefecture":"青森県","prefecture_kana":"アオモリケン","city":"東津軽郡蓬田村","city_kana":"ヒガシツガルグンヨモギタムラ","town":"長科","town_kana":"ナガシナ","prefecture_code":2},"1201":{"zip_code":"0301201","prefecture":"青森県","prefecture_kana":"アオモリケン","city":"東津軽郡蓬田村","city_kana":"ヒガシツガルグンヨモギタムラ","town":"広瀬","town_kana":"ヒロセ","prefecture_code":2},"1211":{"zip_code":"0301211","prefecture":"青森県","prefecture_kana":"アオモリケン","city":"東津軽郡蓬田村","city_kana":"ヒガシツガルグンヨモギタムラ","town":"蓬田","town_kana":"ヨモギダ","prefecture_code":2},"1400":{"zip_code":"0301400","prefecture":"青森県","prefecture_kana":"アオモリケン","city":"東津軽郡外ヶ浜町","city_kana":"ヒガシツガルグンソトガハママチ","town":"","town_kana":"","prefecture_code":2},"1309":{"zip_code":"0301309","prefecture":"青森県","prefecture_kana":"アオモリケン","city":"東津軽郡外ヶ浜町","city_kana":"ヒガシツガルグンソトガハママチ","town":"上蟹田","town_kana":"ウエカニタ","prefecture_code":2},"1303":{"zip_code":"0301303","prefecture":"青森県","prefecture_kana":"アオモリケン","city":"東津軽郡外ヶ浜町","city_kana":"ヒガシツガルグンソトガハママチ","town":"蟹田","town_kana":"カニタ","prefecture_code":2},"1301":{"zip_code":"0301301","prefecture":"青森県","prefecture_kana":"アオモリケン","city":"東津軽郡外ヶ浜町","city_kana":"ヒガシツガルグンソトガハママチ","town":"蟹田石浜","town_kana":"カニタイシハマ","prefecture_code":2},"1307":{"zip_code":"0301307","prefecture":"青森県","prefecture_kana":"アオモリケン","city":"東津軽郡外ヶ浜町","city_kana":"ヒガシツガルグンソトガハママチ","town":"蟹田大平","town_kana":"カニタオオダイ","prefecture_code":2},"1305":{"zip_code":"0301305","prefecture":"青森県","prefecture_kana":"アオモリケン","city":"東津軽郡外ヶ浜町","city_kana":"ヒガシツガルグンソトガハママチ","town":"蟹田小国","town_kana":"カニタオグニ","prefecture_code":2},"1311":{"zip_code":"0301311","prefecture":"青森県","prefecture_kana":"アオモリケン","city":"東津軽郡外ヶ浜町","city_kana":"ヒガシツガルグンソトガハママチ","town":"蟹田塩越","town_kana":"カニタシオコシ","prefecture_code":2},"1302":{"zip_code":"0301302","prefecture":"青森県","prefecture_kana":"アオモリケン","city":"東津軽郡外ヶ浜町","city_kana":"ヒガシツガルグンソトガハママチ","town":"蟹田中師","town_kana":"カニタチュウシ","prefecture_code":2},"1304":{"zip_code":"0301304","prefecture":"青森県","prefecture_kana":"アオモリケン","city":"東津軽郡外ヶ浜町","city_kana":"ヒガシツガルグンソトガハママチ","town":"蟹田南沢","town_kana":"カニタミナミザワ","prefecture_code":2},"1306":{"zip_code":"0301306","prefecture":"青森県","prefecture_kana":"アオモリケン","city":"東津軽郡外ヶ浜町","city_kana":"ヒガシツガルグンソトガハママチ","town":"蟹田山本","town_kana":"カニタヤマモト","prefecture_code":2},"1308":{"zip_code":"0301308","prefecture":"青森県","prefecture_kana":"アオモリケン","city":"東津軽郡外ヶ浜町","city_kana":"ヒガシツガルグンソトガハママチ","town":"下蟹田","town_kana":"シタカニタ","prefecture_code":2},"1402":{"zip_code":"0301402","prefecture":"青森県","prefecture_kana":"アオモリケン","city":"東津軽郡外ヶ浜町","city_kana":"ヒガシツガルグンソトガハママチ","town":"平舘","town_kana":"タイラダテ","prefecture_code":2},"1405":{"zip_code":"0301405","prefecture":"青森県","prefecture_kana":"アオモリケン","city":"東津軽郡外ヶ浜町","city_kana":"ヒガシツガルグンソトガハママチ","town":"平舘石崎沢","town_kana":"タイラダテイシザキサワ","prefecture_code":2},"1416":{"zip_code":"0301416","prefecture":"青森県","prefecture_kana":"アオモリケン","city":"東津軽郡外ヶ浜町","city_kana":"ヒガシツガルグンソトガハママチ","town":"平舘磯山","town_kana":"タイラダテイソヤマ","prefecture_code":2},"1413":{"zip_code":"0301413","prefecture":"青森県","prefecture_kana":"アオモリケン","city":"東津軽郡外ヶ浜町","city_kana":"ヒガシツガルグンソトガハママチ","town":"平舘今津","town_kana":"タイラダテイマヅ","prefecture_code":2},"1411":{"zip_code":"0301411","prefecture":"青森県","prefecture_kana":"アオモリケン","city":"東津軽郡外ヶ浜町","city_kana":"ヒガシツガルグンソトガハママチ","town":"平舘根岸","town_kana":"タイラダテネギシ","prefecture_code":2},"1412":{"zip_code":"0301412","prefecture":"青森県","prefecture_kana":"アオモリケン","city":"東津軽郡外ヶ浜町","city_kana":"ヒガシツガルグンソトガハママチ","town":"平舘野田","town_kana":"タイラダテノダ","prefecture_code":2},"1415":{"zip_code":"0301415","prefecture":"青森県","prefecture_kana":"アオモリケン","city":"東津軽郡外ヶ浜町","city_kana":"ヒガシツガルグンソトガハママチ","town":"平舘舟岡","town_kana":"タイラダテフナオカ","prefecture_code":2},"1403":{"zip_code":"0301403","prefecture":"青森県","prefecture_kana":"アオモリケン","city":"東津軽郡外ヶ浜町","city_kana":"ヒガシツガルグンソトガハママチ","town":"平舘元宇田","town_kana":"タイラダテモトウダ","prefecture_code":2},"1404":{"zip_code":"0301404","prefecture":"青森県","prefecture_kana":"アオモリケン","city":"東津軽郡外ヶ浜町","city_kana":"ヒガシツガルグンソトガハママチ","town":"平舘弥蔵釜","town_kana":"タイラダテヤゾウカマ","prefecture_code":2},"1732":{"zip_code":"0301732","prefecture":"青森県","prefecture_kana":"アオモリケン","city":"東津軽郡外ヶ浜町","city_kana":"ヒガシツガルグンソトガハママチ","town":"三厩家ノ上","town_kana":"ミンマヤイエノウエ","prefecture_code":2},"1719":{"zip_code":"0301719","prefecture":"青森県","prefecture_kana":"アオモリケン","city":"東津軽郡外ヶ浜町","city_kana":"ヒガシツガルグンソトガハママチ","town":"三厩宇鉄山","town_kana":"ミンマヤウテツヤマ","prefecture_code":2},"1724":{"zip_code":"0301724","prefecture":"青森県","prefecture_kana":"アオモリケン","city":"東津軽郡外ヶ浜町","city_kana":"ヒガシツガルグンソトガハママチ","town":"三厩釜野澤","town_kana":"ミンマヤカマノサワ","prefecture_code":2},"1722":{"zip_code":"0301722","prefecture":"青森県","prefecture_kana":"アオモリケン","city":"東津軽郡外ヶ浜町","city_kana":"ヒガシツガルグンソトガハママチ","town":"三厩上宇鉄","town_kana":"ミンマヤカミウテツ","prefecture_code":2},"1717":{"zip_code":"0301717","prefecture":"青森県","prefecture_kana":"アオモリケン","city":"東津軽郡外ヶ浜町","city_kana":"ヒガシツガルグンソトガハママチ","town":"三厩川柱","town_kana":"ミンマヤカワシラ","prefecture_code":2},"1712":{"zip_code":"0301712","prefecture":"青森県","prefecture_kana":"アオモリケン","city":"東津軽郡外ヶ浜町","city_kana":"ヒガシツガルグンソトガハママチ","town":"三厩木落","town_kana":"ミンマヤキオトシ","prefecture_code":2},"1711":[{"zip_code":"0301711","prefecture":"青森県","prefecture_kana":"アオモリケン","city":"東津軽郡外ヶ浜町","city_kana":"ヒガシツガルグンソトガハママチ","town":"三厩源兵衛間","town_kana":"ミンマヤゲンベイマ","prefecture_code":2},{"zip_code":"0301711","prefecture":"青森県","prefecture_kana":"アオモリケン","city":"東津軽郡外ヶ浜町","city_kana":"ヒガシツガルグンソトガハママチ","town":"三厩龍浜","town_kana":"ミンマヤタツハマ","prefecture_code":2}],"1727":{"zip_code":"0301727","prefecture":"青森県","prefecture_kana":"アオモリケン","city":"東津軽郡外ヶ浜町","city_kana":"ヒガシツガルグンソトガハママチ","town":"三厩算用師","town_kana":"ミンマヤサンヨウシ","prefecture_code":2},"1720":{"zip_code":"0301720","prefecture":"青森県","prefecture_kana":"アオモリケン","city":"東津軽郡外ヶ浜町","city_kana":"ヒガシツガルグンソトガハママチ","town":"三厩四枚橋","town_kana":"ミンマヤシマイバシ","prefecture_code":2},"1729":{"zip_code":"0301729","prefecture":"青森県","prefecture_kana":"アオモリケン","city":"東津軽郡外ヶ浜町","city_kana":"ヒガシツガルグンソトガハママチ","town":"三厩下平","town_kana":"ミンマヤシモタイラ","prefecture_code":2},"1716":{"zip_code":"0301716","prefecture":"青森県","prefecture_kana":"アオモリケン","city":"東津軽郡外ヶ浜町","city_kana":"ヒガシツガルグンソトガハママチ","town":"三厩尻神","town_kana":"ミンマヤシリカミ","prefecture_code":2},"1733":{"zip_code":"0301733","prefecture":"青森県","prefecture_kana":"アオモリケン","city":"東津軽郡外ヶ浜町","city_kana":"ヒガシツガルグンソトガハママチ","town":"三厩新町","town_kana":"ミンマヤシンチョウ","prefecture_code":2},"1728":{"zip_code":"0301728","prefecture":"青森県","prefecture_kana":"アオモリケン","city":"東津軽郡外ヶ浜町","city_kana":"ヒガシツガルグンソトガハママチ","town":"三厩中浜","town_kana":"ミンマヤナカハマ","prefecture_code":2},"1718":{"zip_code":"0301718","prefecture":"青森県","prefecture_kana":"アオモリケン","city":"東津軽郡外ヶ浜町","city_kana":"ヒガシツガルグンソトガハママチ","town":"三厩梨ノ木間","town_kana":"ミンマヤナシノキマ","prefecture_code":2},"1715":{"zip_code":"0301715","prefecture":"青森県","prefecture_kana":"アオモリケン","city":"東津軽郡外ヶ浜町","city_kana":"ヒガシツガルグンソトガハママチ","town":"三厩鳴神","town_kana":"ミンマヤナルカミ","prefecture_code":2},"1737":{"zip_code":"0301737","prefecture":"青森県","prefecture_kana":"アオモリケン","city":"東津軽郡外ヶ浜町","city_kana":"ヒガシツガルグンソトガハママチ","town":"三厩東町","town_kana":"ミンマヤヒガシマチ","prefecture_code":2},"1714":{"zip_code":"0301714","prefecture":"青森県","prefecture_kana":"アオモリケン","city":"東津軽郡外ヶ浜町","city_kana":"ヒガシツガルグンソトガハママチ","town":"三厩梹榔","town_kana":"ミンマヤヒョウロウ","prefecture_code":2},"1725":{"zip_code":"0301725","prefecture":"青森県","prefecture_kana":"アオモリケン","city":"東津軽郡外ヶ浜町","city_kana":"ヒガシツガルグンソトガハママチ","town":"三厩藤嶋","town_kana":"ミンマヤフジシマ","prefecture_code":2},"1731":{"zip_code":"0301731","prefecture":"青森県","prefecture_kana":"アオモリケン","city":"東津軽郡外ヶ浜町","city_kana":"ヒガシツガルグンソトガハママチ","town":"三厩本町","town_kana":"ミンマヤホンチョウ","prefecture_code":2},"1721":{"zip_code":"0301721","prefecture":"青森県","prefecture_kana":"アオモリケン","city":"東津軽郡外ヶ浜町","city_kana":"ヒガシツガルグンソトガハママチ","town":"三厩鐇泊","town_kana":"ミンマヤマサカリドマリ","prefecture_code":2},"1734":{"zip_code":"0301734","prefecture":"青森県","prefecture_kana":"アオモリケン","city":"東津軽郡外ヶ浜町","city_kana":"ヒガシツガルグンソトガハママチ","town":"三厩増川","town_kana":"ミンマヤマスカワ","prefecture_code":2},"1735":{"zip_code":"0301735","prefecture":"青森県","prefecture_kana":"アオモリケン","city":"東津軽郡外ヶ浜町","city_kana":"ヒガシツガルグンソトガハママチ","town":"三厩緑ケ丘","town_kana":"ミンマヤミドリガオカ","prefecture_code":2},"1723":{"zip_code":"0301723","prefecture":"青森県","prefecture_kana":"アオモリケン","city":"東津軽郡外ヶ浜町","city_kana":"ヒガシツガルグンソトガハママチ","town":"三厩元宇鉄","town_kana":"ミンマヤモトウテツ","prefecture_code":2},"1736":{"zip_code":"0301736","prefecture":"青森県","prefecture_kana":"アオモリケン","city":"東津軽郡外ヶ浜町","city_kana":"ヒガシツガルグンソトガハママチ","town":"三厩桃ケ丘","town_kana":"ミンマヤモモガオカ","prefecture_code":2},"1713":{"zip_code":"0301713","prefecture":"青森県","prefecture_kana":"アオモリケン","city":"東津軽郡外ヶ浜町","city_kana":"ヒガシツガルグンソトガハママチ","town":"三厩鎧嶋","town_kana":"ミンマヤヨロイジマ","prefecture_code":2},"1726":{"zip_code":"0301726","prefecture":"青森県","prefecture_kana":"アオモリケン","city":"東津軽郡外ヶ浜町","city_kana":"ヒガシツガルグンソトガハママチ","town":"三厩六條間","town_kana":"ミンマヤロクジョウマ","prefecture_code":2},"1701":{"zip_code":"0301701","prefecture":"青森県","prefecture_kana":"アオモリケン","city":"北津軽郡中泊町","city_kana":"キタツガルグンナカドマリマチ","town":"小泊袰内","town_kana":"コドマリホロナイ","prefecture_code":2}}