{"0000":{"zip_code":"0330000","prefecture":"青森県","prefecture_kana":"アオモリケン","city":"三沢市","city_kana":"ミサワシ","town":"","town_kana":"","prefecture_code":2},"0166":{"zip_code":"0330166","prefecture":"青森県","prefecture_kana":"アオモリケン","city":"三沢市","city_kana":"ミサワシ","town":"朝日","town_kana":"アサヒ","prefecture_code":2},"0101":{"zip_code":"0330101","prefecture":"青森県","prefecture_kana":"アオモリケン","city":"三沢市","city_kana":"ミサワシ","town":"天ケ森","town_kana":"アマガモリ","prefecture_code":2},"0153":{"zip_code":"0330153","prefecture":"青森県","prefecture_kana":"アオモリケン","city":"三沢市","city_kana":"ミサワシ","town":"泉町","town_kana":"イズミチョウ","prefecture_code":2},"0131":{"zip_code":"0330131","prefecture":"青森県","prefecture_kana":"アオモリケン","city":"三沢市","city_kana":"ミサワシ","town":"五川目","town_kana":"イツカワメ","prefecture_code":2},"0134":{"zip_code":"0330134","prefecture":"青森県","prefecture_kana":"アオモリケン","city":"三沢市","city_kana":"ミサワシ","town":"大津","town_kana":"オオツ","prefecture_code":2},"0041":{"zip_code":"0330041","prefecture":"青森県","prefecture_kana":"アオモリケン","city":"三沢市","city_kana":"ミサワシ","town":"大町","town_kana":"オオマチ","prefecture_code":2},"0021":{"zip_code":"0330021","prefecture":"青森県","prefecture_kana":"アオモリケン","city":"三沢市","city_kana":"ミサワシ","town":"岡三沢","town_kana":"オカミサワ","prefecture_code":2},"0104":{"zip_code":"0330104","prefecture":"青森県","prefecture_kana":"アオモリケン","city":"三沢市","city_kana":"ミサワシ","town":"織笠","town_kana":"オリカサ","prefecture_code":2},"0053":{"zip_code":"0330053","prefecture":"青森県","prefecture_kana":"アオモリケン","city":"三沢市","city_kana":"ミサワシ","town":"春日台","town_kana":"カスガダイ","prefecture_code":2},"0063":{"zip_code":"0330063","prefecture":"青森県","prefecture_kana":"アオモリケン","city":"三沢市","city_kana":"ミサワシ","town":"上久保","town_kana":"カミクボ","prefecture_code":2},"0162":{"zip_code":"0330162","prefecture":"青森県","prefecture_kana":"アオモリケン","city":"三沢市","city_kana":"ミサワシ","town":"越下","town_kana":"コシシタ","prefecture_code":2},"0011":{"zip_code":"0330011","prefecture":"青森県","prefecture_kana":"アオモリケン","city":"三沢市","city_kana":"ミサワシ","town":"幸町","town_kana":"サイワイチョウ","prefecture_code":2},"0042":{"zip_code":"0330042","prefecture":"青森県","prefecture_kana":"アオモリケン","city":"三沢市","city_kana":"ミサワシ","town":"栄町","town_kana":"サカエチョウ","prefecture_code":2},"0031":{"zip_code":"0330031","prefecture":"青森県","prefecture_kana":"アオモリケン","city":"三沢市","city_kana":"ミサワシ","town":"桜町","town_kana":"サクラチョウ","prefecture_code":2},"0155":{"zip_code":"0330155","prefecture":"青森県","prefecture_kana":"アオモリケン","city":"三沢市","city_kana":"ミサワシ","town":"さつきヶ丘","town_kana":"サツキガオカ","prefecture_code":2},"0113":{"zip_code":"0330113","prefecture":"青森県","prefecture_kana":"アオモリケン","city":"三沢市","city_kana":"ミサワシ","town":"淋代","town_kana":"サビシロ","prefecture_code":2},"0103":{"zip_code":"0330103","prefecture":"青森県","prefecture_kana":"アオモリケン","city":"三沢市","city_kana":"ミサワシ","town":"塩釜","town_kana":"シオガマ","prefecture_code":2},"0133":{"zip_code":"0330133","prefecture":"青森県","prefecture_kana":"アオモリケン","city":"三沢市","city_kana":"ミサワシ","town":"鹿中","town_kana":"シカナカ","prefecture_code":2},"0023":{"zip_code":"0330023","prefecture":"青森県","prefecture_kana":"アオモリケン","city":"三沢市","city_kana":"ミサワシ","town":"下久保","town_kana":"シモクボ","prefecture_code":2},"0062":{"zip_code":"0330062","prefecture":"青森県","prefecture_kana":"アオモリケン","city":"三沢市","city_kana":"ミサワシ","town":"新町","town_kana":"シンチョウ","prefecture_code":2},"0105":{"zip_code":"0330105","prefecture":"青森県","prefecture_kana":"アオモリケン","city":"三沢市","city_kana":"ミサワシ","town":"新森","town_kana":"シンモリ","prefecture_code":2},"0102":{"zip_code":"0330102","prefecture":"青森県","prefecture_kana":"アオモリケン","city":"三沢市","city_kana":"ミサワシ","town":"砂森","town_kana":"スナモリ","prefecture_code":2},"0165":{"zip_code":"0330165","prefecture":"青森県","prefecture_kana":"アオモリケン","city":"三沢市","city_kana":"ミサワシ","town":"高野沢","town_kana":"タカノサワ","prefecture_code":2},"0001":{"zip_code":"0330001","prefecture":"青森県","prefecture_kana":"アオモリケン","city":"三沢市","city_kana":"ミサワシ","town":"中央町","town_kana":"チュウオウチョウ","prefecture_code":2},"0043":{"zip_code":"0330043","prefecture":"青森県","prefecture_kana":"アオモリケン","city":"三沢市","city_kana":"ミサワシ","town":"千代田町","town_kana":"チヨダチョウ","prefecture_code":2},"0163":{"zip_code":"0330163","prefecture":"青森県","prefecture_kana":"アオモリケン","city":"三沢市","city_kana":"ミサワシ","town":"富崎","town_kana":"トミサキ","prefecture_code":2},"0167":{"zip_code":"0330167","prefecture":"青森県","prefecture_kana":"アオモリケン","city":"三沢市","city_kana":"ミサワシ","town":"根井","town_kana":"ネイ","prefecture_code":2},"0061":{"zip_code":"0330061","prefecture":"青森県","prefecture_kana":"アオモリケン","city":"三沢市","city_kana":"ミサワシ","town":"花園町","town_kana":"ハナゾノチョウ","prefecture_code":2},"0024":{"zip_code":"0330024","prefecture":"青森県","prefecture_kana":"アオモリケン","city":"三沢市","city_kana":"ミサワシ","town":"東岡三沢","town_kana":"ヒガシオカミサワ","prefecture_code":2},"0034":{"zip_code":"0330034","prefecture":"青森県","prefecture_kana":"アオモリケン","city":"三沢市","city_kana":"ミサワシ","town":"東町","town_kana":"ヒガシチョウ","prefecture_code":2},"0154":{"zip_code":"0330154","prefecture":"青森県","prefecture_kana":"アオモリケン","city":"三沢市","city_kana":"ミサワシ","town":"日の出","town_kana":"ヒノデ","prefecture_code":2},"0012":{"zip_code":"0330012","prefecture":"青森県","prefecture_kana":"アオモリケン","city":"三沢市","city_kana":"ミサワシ","town":"平畑","town_kana":"ヒラハタ","prefecture_code":2},"0152":{"zip_code":"0330152","prefecture":"青森県","prefecture_kana":"アオモリケン","city":"三沢市","city_kana":"ミサワシ","town":"深谷","town_kana":"フカヤ","prefecture_code":2},"0051":{"zip_code":"0330051","prefecture":"青森県","prefecture_kana":"アオモリケン","city":"三沢市","city_kana":"ミサワシ","town":"古間木","town_kana":"フルマキ","prefecture_code":2},"0044":{"zip_code":"0330044","prefecture":"青森県","prefecture_kana":"アオモリケン","city":"三沢市","city_kana":"ミサワシ","town":"古間木山","town_kana":"フルマキヤマ","prefecture_code":2},"0112":{"zip_code":"0330112","prefecture":"青森県","prefecture_kana":"アオモリケン","city":"三沢市","city_kana":"ミサワシ","town":"細谷","town_kana":"ホソヤ","prefecture_code":2},"0123":{"zip_code":"0330123","prefecture":"青森県","prefecture_kana":"アオモリケン","city":"三沢市","city_kana":"ミサワシ","town":"堀口","town_kana":"ホリグチ","prefecture_code":2},"0052":{"zip_code":"0330052","prefecture":"青森県","prefecture_kana":"アオモリケン","city":"三沢市","city_kana":"ミサワシ","town":"本町","town_kana":"ホンチョウ","prefecture_code":2},"0143":{"zip_code":"0330143","prefecture":"青森県","prefecture_kana":"アオモリケン","city":"三沢市","city_kana":"ミサワシ","town":"前平","town_kana":"マエタイ","prefecture_code":2},"0037":{"zip_code":"0330037","prefecture":"青森県","prefecture_kana":"アオモリケン","city":"三沢市","city_kana":"ミサワシ","town":"松園町","town_kana":"マツゾノチョウ","prefecture_code":2},"0035":{"zip_code":"0330035","prefecture":"青森県","prefecture_kana":"アオモリケン","city":"三沢市","city_kana":"ミサワシ","town":"松原町","town_kana":"マツバラチョウ","prefecture_code":2},"0142":{"zip_code":"0330142","prefecture":"青森県","prefecture_kana":"アオモリケン","city":"三沢市","city_kana":"ミサワシ","town":"三川目","town_kana":"ミカワメ","prefecture_code":2},"0022":{"zip_code":"0330022","prefecture":"青森県","prefecture_kana":"アオモリケン","city":"三沢市","city_kana":"ミサワシ","town":"三沢","town_kana":"ミサワ","prefecture_code":2},"0032":{"zip_code":"0330032","prefecture":"青森県","prefecture_kana":"アオモリケン","city":"三沢市","city_kana":"ミサワシ","town":"緑町","town_kana":"ミドリチョウ","prefecture_code":2},"0141":{"zip_code":"0330141","prefecture":"青森県","prefecture_kana":"アオモリケン","city":"三沢市","city_kana":"ミサワシ","town":"港町","town_kana":"ミナトマチ","prefecture_code":2},"0036":{"zip_code":"0330036","prefecture":"青森県","prefecture_kana":"アオモリケン","city":"三沢市","city_kana":"ミサワシ","town":"南町","town_kana":"ミナミチョウ","prefecture_code":2},"0151":{"zip_code":"0330151","prefecture":"青森県","prefecture_kana":"アオモリケン","city":"三沢市","city_kana":"ミサワシ","town":"南山","town_kana":"ミナミヤマ","prefecture_code":2},"0033":{"zip_code":"0330033","prefecture":"青森県","prefecture_kana":"アオモリケン","city":"三沢市","city_kana":"ミサワシ","town":"美野原","town_kana":"ミノハラ","prefecture_code":2},"0111":{"zip_code":"0330111","prefecture":"青森県","prefecture_kana":"アオモリケン","city":"三沢市","city_kana":"ミサワシ","town":"六川目","town_kana":"ムカワメ","prefecture_code":2},"0045":{"zip_code":"0330045","prefecture":"青森県","prefecture_kana":"アオモリケン","city":"三沢市","city_kana":"ミサワシ","town":"薬師町","town_kana":"ヤクシチョウ","prefecture_code":2},"0164":{"zip_code":"0330164","prefecture":"青森県","prefecture_kana":"アオモリケン","city":"三沢市","city_kana":"ミサワシ","town":"谷地頭","town_kana":"ヤチガシラ","prefecture_code":2},"0161":{"zip_code":"0330161","prefecture":"青森県","prefecture_kana":"アオモリケン","city":"三沢市","city_kana":"ミサワシ","town":"八幡","town_kana":"ヤワタ","prefecture_code":2},"0132":{"zip_code":"0330132","prefecture":"青森県","prefecture_kana":"アオモリケン","city":"三沢市","city_kana":"ミサワシ","town":"四川目","town_kana":"ヨカワメ","prefecture_code":2},"0071":[{"zip_code":"0330071","prefecture":"青森県","prefecture_kana":"アオモリケン","city":"上北郡六戸町","city_kana":"カミキタグンロクノヘマチ","town":"犬落瀬内金矢","town_kana":"イヌオトセウチカナヤ","prefecture_code":2},{"zip_code":"0330071","prefecture":"青森県","prefecture_kana":"アオモリケン","city":"上北郡六戸町","city_kana":"カミキタグンロクノヘマチ","town":"犬落瀬内山","town_kana":"イヌオトセウチヤマ","prefecture_code":2},{"zip_code":"0330071","prefecture":"青森県","prefecture_kana":"アオモリケン","city":"上北郡六戸町","city_kana":"カミキタグンロクノヘマチ","town":"犬落瀬岡沼","town_kana":"イヌオトセオカヌマ","prefecture_code":2},{"zip_code":"0330071","prefecture":"青森県","prefecture_kana":"アオモリケン","city":"上北郡六戸町","city_kana":"カミキタグンロクノヘマチ","town":"犬落瀬金沢","town_kana":"イヌオトセカナザワ","prefecture_code":2},{"zip_code":"0330071","prefecture":"青森県","prefecture_kana":"アオモリケン","city":"上北郡六戸町","city_kana":"カミキタグンロクノヘマチ","town":"犬落瀬金矢","town_kana":"イヌオトセカナヤ","prefecture_code":2},{"zip_code":"0330071","prefecture":"青森県","prefecture_kana":"アオモリケン","city":"上北郡六戸町","city_kana":"カミキタグンロクノヘマチ","town":"犬落瀬上淋代","town_kana":"イヌオトセカミサビシロ","prefecture_code":2},{"zip_code":"0330071","prefecture":"青森県","prefecture_kana":"アオモリケン","city":"上北郡六戸町","city_kana":"カミキタグンロクノヘマチ","town":"犬落瀬木越","town_kana":"イヌオトセキコシ","prefecture_code":2},{"zip_code":"0330071","prefecture":"青森県","prefecture_kana":"アオモリケン","city":"上北郡六戸町","city_kana":"カミキタグンロクノヘマチ","town":"犬落瀬権現沢","town_kana":"イヌオトセゴンゲンサワ","prefecture_code":2},{"zip_code":"0330071","prefecture":"青森県","prefecture_kana":"アオモリケン","city":"上北郡六戸町","city_kana":"カミキタグンロクノヘマチ","town":"犬落瀬四木","town_kana":"イヌオトセシキ","prefecture_code":2},{"zip_code":"0330071","prefecture":"青森県","prefecture_kana":"アオモリケン","city":"上北郡六戸町","city_kana":"カミキタグンロクノヘマチ","town":"犬落瀬七百","town_kana":"イヌオトセシチヒャク","prefecture_code":2},{"zip_code":"0330071","prefecture":"青森県","prefecture_kana":"アオモリケン","city":"上北郡六戸町","city_kana":"カミキタグンロクノヘマチ","town":"犬落瀬","town_kana":"イヌオトセ","prefecture_code":2},{"zip_code":"0330071","prefecture":"青森県","prefecture_kana":"アオモリケン","city":"上北郡六戸町","city_kana":"カミキタグンロクノヘマチ","town":"犬落瀬下淋代","town_kana":"イヌオトセシモサビシロ","prefecture_code":2},{"zip_code":"0330071","prefecture":"青森県","prefecture_kana":"アオモリケン","city":"上北郡六戸町","city_kana":"カミキタグンロクノヘマチ","town":"犬落瀬高森","town_kana":"イヌオトセタカモリ","prefecture_code":2},{"zip_code":"0330071","prefecture":"青森県","prefecture_kana":"アオモリケン","city":"上北郡六戸町","city_kana":"カミキタグンロクノヘマチ","town":"犬落瀬通目木","town_kana":"イヌオトセヅメキ","prefecture_code":2},{"zip_code":"0330071","prefecture":"青森県","prefecture_kana":"アオモリケン","city":"上北郡六戸町","city_kana":"カミキタグンロクノヘマチ","town":"犬落瀬中屋敷","town_kana":"イヌオトセナカヤシキ","prefecture_code":2},{"zip_code":"0330071","prefecture":"青森県","prefecture_kana":"アオモリケン","city":"上北郡六戸町","city_kana":"カミキタグンロクノヘマチ","town":"犬落瀬沼久保","town_kana":"イヌオトセヌマクボ","prefecture_code":2},{"zip_code":"0330071","prefecture":"青森県","prefecture_kana":"アオモリケン","city":"上北郡六戸町","city_kana":"カミキタグンロクノヘマチ","town":"犬落瀬根古橋","town_kana":"イヌオトセネコハシ","prefecture_code":2},{"zip_code":"0330071","prefecture":"青森県","prefecture_kana":"アオモリケン","city":"上北郡六戸町","city_kana":"カミキタグンロクノヘマチ","town":"犬落瀬堀切沢","town_kana":"イヌオトセホリキリサワ","prefecture_code":2},{"zip_code":"0330071","prefecture":"青森県","prefecture_kana":"アオモリケン","city":"上北郡六戸町","city_kana":"カミキタグンロクノヘマチ","town":"犬落瀬南平","town_kana":"イヌオトセミナミタイ","prefecture_code":2},{"zip_code":"0330071","prefecture":"青森県","prefecture_kana":"アオモリケン","city":"上北郡六戸町","city_kana":"カミキタグンロクノヘマチ","town":"犬落瀬柳沢","town_kana":"イヌオトセヤナギサワ","prefecture_code":2},{"zip_code":"0330071","prefecture":"青森県","prefecture_kana":"アオモリケン","city":"上北郡六戸町","city_kana":"カミキタグンロクノヘマチ","town":"犬落瀬大曲","town_kana":"イヌオトセオオマガリ","prefecture_code":2}],"0072":[{"zip_code":"0330072","prefecture":"青森県","prefecture_kana":"アオモリケン","city":"上北郡六戸町","city_kana":"カミキタグンロクノヘマチ","town":"折茂","town_kana":"オリモ","prefecture_code":2},{"zip_code":"0330072","prefecture":"青森県","prefecture_kana":"アオモリケン","city":"上北郡六戸町","city_kana":"カミキタグンロクノヘマチ","town":"折茂大原","town_kana":"オリモオオハラ","prefecture_code":2},{"zip_code":"0330072","prefecture":"青森県","prefecture_kana":"アオモリケン","city":"上北郡六戸町","city_kana":"カミキタグンロクノヘマチ","town":"折茂沖山","town_kana":"オリモオキヤマ","prefecture_code":2}],"0073":{"zip_code":"0330073","prefecture":"青森県","prefecture_kana":"アオモリケン","city":"上北郡六戸町","city_kana":"カミキタグンロクノヘマチ","town":"金矢","town_kana":"カナヤ","prefecture_code":2},"0074":{"zip_code":"0330074","prefecture":"青森県","prefecture_kana":"アオモリケン","city":"上北郡六戸町","city_kana":"カミキタグンロクノヘマチ","town":"小松ケ丘","town_kana":"コマツガオカ","prefecture_code":2}}