{"0000":{"zip_code":"0340000","prefecture":"青森県","prefecture_kana":"アオモリケン","city":"十和田市","city_kana":"トワダシ","town":"以下に掲載がない場合","town_kana":"イカニケイサイガナイバアイ","prefecture_code":2},"0071":{"zip_code":"0340071","prefecture":"青森県","prefecture_kana":"アオモリケン","city":"十和田市","city_kana":"トワダシ","town":"赤沼","town_kana":"アカヌマ","prefecture_code":2},"0005":{"zip_code":"0340005","prefecture":"青森県","prefecture_kana":"アオモリケン","city":"十和田市","city_kana":"トワダシ","town":"一本木沢","town_kana":"イッポンギサワ","prefecture_code":2},"0011":{"zip_code":"0340011","prefecture":"青森県","prefecture_kana":"アオモリケン","city":"十和田市","city_kana":"トワダシ","town":"稲生町","town_kana":"イナオイチョウ","prefecture_code":2},"0101":{"zip_code":"0340101","prefecture":"青森県","prefecture_kana":"アオモリケン","city":"十和田市","city_kana":"トワダシ","town":"馬洗場","town_kana":"ウマアライバ","prefecture_code":2},"0041":{"zip_code":"0340041","prefecture":"青森県","prefecture_kana":"アオモリケン","city":"十和田市","city_kana":"トワダシ","town":"相坂","town_kana":"オウサカ","prefecture_code":2},"0102":{"zip_code":"0340102","prefecture":"青森県","prefecture_kana":"アオモリケン","city":"十和田市","city_kana":"トワダシ","town":"大沢田","town_kana":"オオサワダ","prefecture_code":2},"0211":{"zip_code":"0340211","prefecture":"青森県","prefecture_kana":"アオモリケン","city":"十和田市","city_kana":"トワダシ","town":"大不動","town_kana":"オオフドウ","prefecture_code":2},"0301":{"zip_code":"0340301","prefecture":"青森県","prefecture_kana":"アオモリケン","city":"十和田市","city_kana":"トワダシ","town":"奥瀬（その他）","town_kana":"オクセ(ソノタ)","prefecture_code":2},"0061":{"zip_code":"0340061","prefecture":"青森県","prefecture_kana":"アオモリケン","city":"十和田市","city_kana":"トワダシ","town":"切田","town_kana":"キリダ","prefecture_code":2},"0302":{"zip_code":"0340302","prefecture":"青森県","prefecture_kana":"アオモリケン","city":"十和田市","city_kana":"トワダシ","town":"沢田","town_kana":"サワダ","prefecture_code":2},"0001":{"zip_code":"0340001","prefecture":"青森県","prefecture_kana":"アオモリケン","city":"十和田市","city_kana":"トワダシ","town":"三本木","town_kana":"サンボンギ","prefecture_code":2},"0213":{"zip_code":"0340213","prefecture":"青森県","prefecture_kana":"アオモリケン","city":"十和田市","city_kana":"トワダシ","town":"滝沢","town_kana":"タキサワ","prefecture_code":2},"0103":{"zip_code":"0340103","prefecture":"青森県","prefecture_kana":"アオモリケン","city":"十和田市","city_kana":"トワダシ","town":"立崎","town_kana":"タチザキ","prefecture_code":2},"0051":{"zip_code":"0340051","prefecture":"青森県","prefecture_kana":"アオモリケン","city":"十和田市","city_kana":"トワダシ","town":"伝法寺","town_kana":"デンポウジ","prefecture_code":2},"0104":{"zip_code":"0340104","prefecture":"青森県","prefecture_kana":"アオモリケン","city":"十和田市","city_kana":"トワダシ","town":"豊ケ岡","town_kana":"トヨガオカ","prefecture_code":2},"0092":{"zip_code":"0340092","prefecture":"青森県","prefecture_kana":"アオモリケン","city":"十和田市","city_kana":"トワダシ","town":"西一番町","town_kana":"ニシ1バンチョウ","prefecture_code":2},"0082":{"zip_code":"0340082","prefecture":"青森県","prefecture_kana":"アオモリケン","city":"十和田市","city_kana":"トワダシ","town":"西二番町","town_kana":"ニシ2バンチョウ","prefecture_code":2},"0083":{"zip_code":"0340083","prefecture":"青森県","prefecture_kana":"アオモリケン","city":"十和田市","city_kana":"トワダシ","town":"西三番町","town_kana":"ニシ3バンチョウ","prefecture_code":2},"0084":{"zip_code":"0340084","prefecture":"青森県","prefecture_kana":"アオモリケン","city":"十和田市","city_kana":"トワダシ","town":"西四番町","town_kana":"ニシ4バンチョウ","prefecture_code":2},"0085":{"zip_code":"0340085","prefecture":"青森県","prefecture_kana":"アオモリケン","city":"十和田市","city_kana":"トワダシ","town":"西五番町","town_kana":"ニシ5バンチョウ","prefecture_code":2},"0038":{"zip_code":"0340038","prefecture":"青森県","prefecture_kana":"アオモリケン","city":"十和田市","city_kana":"トワダシ","town":"西六番町","town_kana":"ニシ6バンチョウ","prefecture_code":2},"0091":{"zip_code":"0340091","prefecture":"青森県","prefecture_kana":"アオモリケン","city":"十和田市","city_kana":"トワダシ","town":"西十一番町","town_kana":"ニシ11バンチョウ","prefecture_code":2},"0093":{"zip_code":"0340093","prefecture":"青森県","prefecture_kana":"アオモリケン","city":"十和田市","city_kana":"トワダシ","town":"西十二番町","town_kana":"ニシ12バンチョウ","prefecture_code":2},"0081":{"zip_code":"0340081","prefecture":"青森県","prefecture_kana":"アオモリケン","city":"十和田市","city_kana":"トワダシ","town":"西十三番町","town_kana":"ニシ13バンチョウ","prefecture_code":2},"0088":{"zip_code":"0340088","prefecture":"青森県","prefecture_kana":"アオモリケン","city":"十和田市","city_kana":"トワダシ","town":"西十四番町","town_kana":"ニシ14バンチョウ","prefecture_code":2},"0087":{"zip_code":"0340087","prefecture":"青森県","prefecture_kana":"アオモリケン","city":"十和田市","city_kana":"トワダシ","town":"西十五番町","town_kana":"ニシ15バンチョウ","prefecture_code":2},"0086":{"zip_code":"0340086","prefecture":"青森県","prefecture_kana":"アオモリケン","city":"十和田市","city_kana":"トワダシ","town":"西十六番町","town_kana":"ニシ16バンチョウ","prefecture_code":2},"0095":{"zip_code":"0340095","prefecture":"青森県","prefecture_kana":"アオモリケン","city":"十和田市","city_kana":"トワダシ","town":"西二十一番町","town_kana":"ニシ21バンチョウ","prefecture_code":2},"0094":{"zip_code":"0340094","prefecture":"青森県","prefecture_kana":"アオモリケン","city":"十和田市","city_kana":"トワダシ","town":"西二十二番町","town_kana":"ニシ22バンチョウ","prefecture_code":2},"0089":{"zip_code":"0340089","prefecture":"青森県","prefecture_kana":"アオモリケン","city":"十和田市","city_kana":"トワダシ","town":"西二十三番町","town_kana":"ニシ23バンチョウ","prefecture_code":2},"0105":{"zip_code":"0340105","prefecture":"青森県","prefecture_kana":"アオモリケン","city":"十和田市","city_kana":"トワダシ","town":"八斗沢","town_kana":"ハットザワ","prefecture_code":2},"0012":{"zip_code":"0340012","prefecture":"青森県","prefecture_kana":"アオモリケン","city":"十和田市","city_kana":"トワダシ","town":"東一番町","town_kana":"ヒガシ1バンチョウ","prefecture_code":2},"0017":{"zip_code":"0340017","prefecture":"青森県","prefecture_kana":"アオモリケン","city":"十和田市","city_kana":"トワダシ","town":"東二番町","town_kana":"ヒガシ2バンチョウ","prefecture_code":2},"0031":{"zip_code":"0340031","prefecture":"青森県","prefecture_kana":"アオモリケン","city":"十和田市","city_kana":"トワダシ","town":"東三番町","town_kana":"ヒガシ3バンチョウ","prefecture_code":2},"0032":{"zip_code":"0340032","prefecture":"青森県","prefecture_kana":"アオモリケン","city":"十和田市","city_kana":"トワダシ","town":"東四番町","town_kana":"ヒガシ4バンチョウ","prefecture_code":2},"0033":{"zip_code":"0340033","prefecture":"青森県","prefecture_kana":"アオモリケン","city":"十和田市","city_kana":"トワダシ","town":"東五番町","town_kana":"ヒガシ5バンチョウ","prefecture_code":2},"0036":{"zip_code":"0340036","prefecture":"青森県","prefecture_kana":"アオモリケン","city":"十和田市","city_kana":"トワダシ","town":"東六番町","town_kana":"ヒガシ6バンチョウ","prefecture_code":2},"0013":{"zip_code":"0340013","prefecture":"青森県","prefecture_kana":"アオモリケン","city":"十和田市","city_kana":"トワダシ","town":"東十一番町","town_kana":"ヒガシ11バンチョウ","prefecture_code":2},"0016":{"zip_code":"0340016","prefecture":"青森県","prefecture_kana":"アオモリケン","city":"十和田市","city_kana":"トワダシ","town":"東十二番町","town_kana":"ヒガシ12バンチョウ","prefecture_code":2},"0023":{"zip_code":"0340023","prefecture":"青森県","prefecture_kana":"アオモリケン","city":"十和田市","city_kana":"トワダシ","town":"東十三番町","town_kana":"ヒガシ13バンチョウ","prefecture_code":2},"0024":{"zip_code":"0340024","prefecture":"青森県","prefecture_kana":"アオモリケン","city":"十和田市","city_kana":"トワダシ","town":"東十四番町","town_kana":"ヒガシ14バンチョウ","prefecture_code":2},"0034":{"zip_code":"0340034","prefecture":"青森県","prefecture_kana":"アオモリケン","city":"十和田市","city_kana":"トワダシ","town":"東十五番町","town_kana":"ヒガシ15バンチョウ","prefecture_code":2},"0035":{"zip_code":"0340035","prefecture":"青森県","prefecture_kana":"アオモリケン","city":"十和田市","city_kana":"トワダシ","town":"東十六番町","town_kana":"ヒガシ16バンチョウ","prefecture_code":2},"0014":{"zip_code":"0340014","prefecture":"青森県","prefecture_kana":"アオモリケン","city":"十和田市","city_kana":"トワダシ","town":"東二十一番町","town_kana":"ヒガシ21バンチョウ","prefecture_code":2},"0015":{"zip_code":"0340015","prefecture":"青森県","prefecture_kana":"アオモリケン","city":"十和田市","city_kana":"トワダシ","town":"東二十二番町","town_kana":"ヒガシ22バンチョウ","prefecture_code":2},"0021":{"zip_code":"0340021","prefecture":"青森県","prefecture_kana":"アオモリケン","city":"十和田市","city_kana":"トワダシ","town":"東二十三番町","town_kana":"ヒガシ23バンチョウ","prefecture_code":2},"0022":{"zip_code":"0340022","prefecture":"青森県","prefecture_kana":"アオモリケン","city":"十和田市","city_kana":"トワダシ","town":"東二十四番町","town_kana":"ヒガシ24バンチョウ","prefecture_code":2},"0004":{"zip_code":"0340004","prefecture":"青森県","prefecture_kana":"アオモリケン","city":"十和田市","city_kana":"トワダシ","town":"ひがしの","town_kana":"ヒガシノ","prefecture_code":2},"0106":{"zip_code":"0340106","prefecture":"青森県","prefecture_kana":"アオモリケン","city":"十和田市","city_kana":"トワダシ","town":"深持","town_kana":"フカモチ","prefecture_code":2},"0052":{"zip_code":"0340052","prefecture":"青森県","prefecture_kana":"アオモリケン","city":"十和田市","city_kana":"トワダシ","town":"藤島","town_kana":"フジシマ","prefecture_code":2},"0303":{"zip_code":"0340303","prefecture":"青森県","prefecture_kana":"アオモリケン","city":"十和田市","city_kana":"トワダシ","town":"法量","town_kana":"ホウリョウ","prefecture_code":2},"0037":{"zip_code":"0340037","prefecture":"青森県","prefecture_kana":"アオモリケン","city":"十和田市","city_kana":"トワダシ","town":"穂並町","town_kana":"ホナミチョウ","prefecture_code":2},"0107":{"zip_code":"0340107","prefecture":"青森県","prefecture_kana":"アオモリケン","city":"十和田市","city_kana":"トワダシ","town":"洞内","town_kana":"ホラナイ","prefecture_code":2},"0212":{"zip_code":"0340212","prefecture":"青森県","prefecture_kana":"アオモリケン","city":"十和田市","city_kana":"トワダシ","town":"米田","town_kana":"マイタ","prefecture_code":2},"0002":{"zip_code":"0340002","prefecture":"青森県","prefecture_kana":"アオモリケン","city":"十和田市","city_kana":"トワダシ","town":"元町西","town_kana":"モトマチニシ","prefecture_code":2},"0003":{"zip_code":"0340003","prefecture":"青森県","prefecture_kana":"アオモリケン","city":"十和田市","city_kana":"トワダシ","town":"元町東","town_kana":"モトマチヒガシ","prefecture_code":2}}