{"0000":{"zip_code":"0360000","prefecture":"青森県","prefecture_kana":"アオモリケン","city":"弘前市","city_kana":"ヒロサキシ","town":"","town_kana":"","prefecture_code":2},"1516":{"zip_code":"0361516","prefecture":"青森県","prefecture_kana":"アオモリケン","city":"弘前市","city_kana":"ヒロサキシ","town":"藍内","town_kana":"アイナイ","prefecture_code":2},"8246":{"zip_code":"0368246","prefecture":"青森県","prefecture_kana":"アオモリケン","city":"弘前市","city_kana":"ヒロサキシ","town":"青樹町","town_kana":"アオキチョウ","prefecture_code":2},"8062":{"zip_code":"0368062","prefecture":"青森県","prefecture_kana":"アオモリケン","city":"弘前市","city_kana":"ヒロサキシ","town":"青山","town_kana":"アオヤマ","prefecture_code":2},"8279":{"zip_code":"0368279","prefecture":"青森県","prefecture_kana":"アオモリケン","city":"弘前市","city_kana":"ヒロサキシ","town":"茜町","town_kana":"アカネチョウ","prefecture_code":2},"8264":{"zip_code":"0368264","prefecture":"青森県","prefecture_kana":"アオモリケン","city":"弘前市","city_kana":"ヒロサキシ","town":"悪戸","town_kana":"アクド","prefecture_code":2},"8252":{"zip_code":"0368252","prefecture":"青森県","prefecture_kana":"アオモリケン","city":"弘前市","city_kana":"ヒロサキシ","town":"旭ケ丘","town_kana":"アサヒガオカ","prefecture_code":2},"1302":{"zip_code":"0361302","prefecture":"青森県","prefecture_kana":"アオモリケン","city":"弘前市","city_kana":"ヒロサキシ","town":"愛宕","town_kana":"アタゴ","prefecture_code":2},"8364":{"zip_code":"0368364","prefecture":"青森県","prefecture_kana":"アオモリケン","city":"弘前市","city_kana":"ヒロサキシ","town":"新町","town_kana":"アラマチ","prefecture_code":2},"8124":{"zip_code":"0368124","prefecture":"青森県","prefecture_kana":"アオモリケン","city":"弘前市","city_kana":"ヒロサキシ","town":"石川","town_kana":"イシカワ","prefecture_code":2},"8316":{"zip_code":"0368316","prefecture":"青森県","prefecture_kana":"アオモリケン","city":"弘前市","city_kana":"ヒロサキシ","town":"石渡","town_kana":"イシワタリ","prefecture_code":2},"8164":{"zip_code":"0368164","prefecture":"青森県","prefecture_kana":"アオモリケン","city":"弘前市","city_kana":"ヒロサキシ","town":"泉野","town_kana":"イズミノ","prefecture_code":2},"8134":{"zip_code":"0368134","prefecture":"青森県","prefecture_kana":"アオモリケン","city":"弘前市","city_kana":"ヒロサキシ","town":"一野渡","town_kana":"イチノワタリ","prefecture_code":2},"8201":{"zip_code":"0368201","prefecture":"青森県","prefecture_kana":"アオモリケン","city":"弘前市","city_kana":"ヒロサキシ","town":"一番町","town_kana":"イチバンチョウ","prefecture_code":2},"1325":{"zip_code":"0361325","prefecture":"青森県","prefecture_kana":"アオモリケン","city":"弘前市","city_kana":"ヒロサキシ","town":"一町田","town_kana":"イッチョウダ","prefecture_code":2},"8097":{"zip_code":"0368097","prefecture":"青森県","prefecture_kana":"アオモリケン","city":"弘前市","city_kana":"ヒロサキシ","town":"稲田","town_kana":"イナダ","prefecture_code":2},"8073":{"zip_code":"0368073","prefecture":"青森県","prefecture_kana":"アオモリケン","city":"弘前市","city_kana":"ヒロサキシ","town":"岩賀","town_kana":"イワカ","prefecture_code":2},"8023":{"zip_code":"0368023","prefecture":"青森県","prefecture_kana":"アオモリケン","city":"弘前市","city_kana":"ヒロサキシ","town":"植田町","town_kana":"ウエダチョウ","prefecture_code":2},"8002":{"zip_code":"0368002","prefecture":"青森県","prefecture_kana":"アオモリケン","city":"弘前市","city_kana":"ヒロサキシ","town":"駅前","town_kana":"エキマエ","prefecture_code":2},"8003":{"zip_code":"0368003","prefecture":"青森県","prefecture_kana":"アオモリケン","city":"弘前市","city_kana":"ヒロサキシ","town":"駅前町","town_kana":"エキマエチョウ","prefecture_code":2},"8132":{"zip_code":"0368132","prefecture":"青森県","prefecture_kana":"アオモリケン","city":"弘前市","city_kana":"ヒロサキシ","town":"狼森","town_kana":"オイノモリ","prefecture_code":2},"8104":{"zip_code":"0368104","prefecture":"青森県","prefecture_kana":"アオモリケン","city":"弘前市","city_kana":"ヒロサキシ","town":"扇町","town_kana":"オウギマチ","prefecture_code":2},"8346":{"zip_code":"0368346","prefecture":"青森県","prefecture_kana":"アオモリケン","city":"弘前市","city_kana":"ヒロサキシ","town":"大浦町","town_kana":"オオウラマチ","prefecture_code":2},"8311":{"zip_code":"0368311","prefecture":"青森県","prefecture_kana":"アオモリケン","city":"弘前市","city_kana":"ヒロサキシ","town":"大川","town_kana":"オオカワ","prefecture_code":2},"8071":{"zip_code":"0368071","prefecture":"青森県","prefecture_kana":"アオモリケン","city":"弘前市","city_kana":"ヒロサキシ","town":"大久保","town_kana":"オオクボ","prefecture_code":2},"8125":{"zip_code":"0368125","prefecture":"青森県","prefecture_kana":"アオモリケン","city":"弘前市","city_kana":"ヒロサキシ","town":"大沢","town_kana":"オオサワ","prefecture_code":2},"8161":{"zip_code":"0368161","prefecture":"青森県","prefecture_kana":"アオモリケン","city":"弘前市","city_kana":"ヒロサキシ","town":"大清水","town_kana":"オオシミズ","prefecture_code":2},"1513":{"zip_code":"0361513","prefecture":"青森県","prefecture_kana":"アオモリケン","city":"弘前市","city_kana":"ヒロサキシ","town":"大助","town_kana":"オオスケ","prefecture_code":2},"8175":{"zip_code":"0368175","prefecture":"青森県","prefecture_kana":"アオモリケン","city":"弘前市","city_kana":"ヒロサキシ","town":"大富町","town_kana":"オオトミチョウ","prefecture_code":2},"8242":{"zip_code":"0368242","prefecture":"青森県","prefecture_kana":"アオモリケン","city":"弘前市","city_kana":"ヒロサキシ","town":"大原","town_kana":"オオハラ","prefecture_code":2},"8247":{"zip_code":"0368247","prefecture":"青森県","prefecture_kana":"アオモリケン","city":"弘前市","city_kana":"ヒロサキシ","town":"大開","town_kana":"オオビラキ","prefecture_code":2},"8004":{"zip_code":"0368004","prefecture":"青森県","prefecture_kana":"アオモリケン","city":"弘前市","city_kana":"ヒロサキシ","town":"大町","town_kana":"オオマチ","prefecture_code":2},"1203":{"zip_code":"0361203","prefecture":"青森県","prefecture_kana":"アオモリケン","city":"弘前市","city_kana":"ヒロサキシ","town":"大森","town_kana":"オオモリ","prefecture_code":2},"8133":{"zip_code":"0368133","prefecture":"青森県","prefecture_kana":"アオモリケン","city":"弘前市","city_kana":"ヒロサキシ","town":"大和沢","town_kana":"オオワサワ","prefecture_code":2},"8034":{"zip_code":"0368034","prefecture":"青森県","prefecture_kana":"アオモリケン","city":"弘前市","city_kana":"ヒロサキシ","town":"徒町","town_kana":"オカチマチ","prefecture_code":2},"8033":{"zip_code":"0368033","prefecture":"青森県","prefecture_kana":"アオモリケン","city":"弘前市","city_kana":"ヒロサキシ","town":"徒町川端町","town_kana":"オカチマチカワバタチョウ","prefecture_code":2},"8197":{"zip_code":"0368197","prefecture":"青森県","prefecture_kana":"アオモリケン","city":"弘前市","city_kana":"ヒロサキシ","town":"桶屋町","town_kana":"オケヤマチ","prefecture_code":2},"1205":{"zip_code":"0361205","prefecture":"青森県","prefecture_kana":"アオモリケン","city":"弘前市","city_kana":"ヒロサキシ","town":"鬼沢","town_kana":"オニザワ","prefecture_code":2},"8096":{"zip_code":"0368096","prefecture":"青森県","prefecture_kana":"アオモリケン","city":"弘前市","city_kana":"ヒロサキシ","town":"表町","town_kana":"オモテマチ","prefecture_code":2},"8191":{"zip_code":"0368191","prefecture":"青森県","prefecture_kana":"アオモリケン","city":"弘前市","city_kana":"ヒロサキシ","town":"親方町","town_kana":"オヤカタマチ","prefecture_code":2},"8383":{"zip_code":"0368383","prefecture":"青森県","prefecture_kana":"アオモリケン","city":"弘前市","city_kana":"ヒロサキシ","town":"折笠","town_kana":"オリカサ","prefecture_code":2},"1204":{"zip_code":"0361204","prefecture":"青森県","prefecture_kana":"アオモリケン","city":"弘前市","city_kana":"ヒロサキシ","town":"貝沢","town_kana":"カイザワ","prefecture_code":2},"8152":{"zip_code":"0368152","prefecture":"青森県","prefecture_kana":"アオモリケン","city":"弘前市","city_kana":"ヒロサキシ","town":"学園町","town_kana":"ガクエンチョウ","prefecture_code":2},"8204":{"zip_code":"0368204","prefecture":"青森県","prefecture_kana":"アオモリケン","city":"弘前市","city_kana":"ヒロサキシ","town":"覚仙町","town_kana":"カクセンチョウ","prefecture_code":2},"8192":{"zip_code":"0368192","prefecture":"青森県","prefecture_kana":"アオモリケン","city":"弘前市","city_kana":"ヒロサキシ","town":"鍛冶町","town_kana":"カジマチ","prefecture_code":2},"8335":{"zip_code":"0368335","prefecture":"青森県","prefecture_kana":"アオモリケン","city":"弘前市","city_kana":"ヒロサキシ","town":"春日町","town_kana":"カスガチョウ","prefecture_code":2},"8052":{"zip_code":"0368052","prefecture":"青森県","prefecture_kana":"アオモリケン","city":"弘前市","city_kana":"ヒロサキシ","town":"堅田","town_kana":"カタダ","prefecture_code":2},"8111":{"zip_code":"0368111","prefecture":"青森県","prefecture_kana":"アオモリケン","city":"弘前市","city_kana":"ヒロサキシ","town":"門外","town_kana":"カドケ","prefecture_code":2},"1332":{"zip_code":"0361332","prefecture":"青森県","prefecture_kana":"アオモリケン","city":"弘前市","city_kana":"ヒロサキシ","town":"兼平","town_kana":"カネヒラ","prefecture_code":2},"8013":{"zip_code":"0368013","prefecture":"青森県","prefecture_kana":"アオモリケン","city":"弘前市","city_kana":"ヒロサキシ","town":"上瓦ケ町","town_kana":"カミカワラケチョウ","prefecture_code":2},"8354":{"zip_code":"0368354","prefecture":"青森県","prefecture_kana":"アオモリケン","city":"弘前市","city_kana":"ヒロサキシ","town":"上鞘師町","town_kana":"カミサヤシマチ","prefecture_code":2},"8207":{"zip_code":"0368207","prefecture":"青森県","prefecture_kana":"アオモリケン","city":"弘前市","city_kana":"ヒロサキシ","town":"上白銀町","town_kana":"カミシロガネチョウ","prefecture_code":2},"1504":{"zip_code":"0361504","prefecture":"青森県","prefecture_kana":"アオモリケン","city":"弘前市","city_kana":"ヒロサキシ","town":"紙漉沢","town_kana":"カミスキサワ","prefecture_code":2},"8221":{"zip_code":"0368221","prefecture":"青森県","prefecture_kana":"アオモリケン","city":"弘前市","city_kana":"ヒロサキシ","town":"紙漉町","town_kana":"カミスキマチ","prefecture_code":2},"8332":{"zip_code":"0368332","prefecture":"青森県","prefecture_kana":"アオモリケン","city":"弘前市","city_kana":"ヒロサキシ","town":"亀甲町","town_kana":"カメノコウマチ","prefecture_code":2},"8022":{"zip_code":"0368022","prefecture":"青森県","prefecture_kana":"アオモリケン","city":"弘前市","city_kana":"ヒロサキシ","town":"萱町","town_kana":"カヤチョウ","prefecture_code":2},"8114":{"zip_code":"0368114","prefecture":"青森県","prefecture_kana":"アオモリケン","city":"弘前市","city_kana":"ヒロサキシ","town":"川合","town_kana":"カワイ","prefecture_code":2},"8103":{"zip_code":"0368103","prefecture":"青森県","prefecture_kana":"アオモリケン","city":"弘前市","city_kana":"ヒロサキシ","town":"川先","town_kana":"カワサキ","prefecture_code":2},"8277":{"zip_code":"0368277","prefecture":"青森県","prefecture_kana":"アオモリケン","city":"弘前市","city_kana":"ヒロサキシ","town":"河原町","town_kana":"カワハラチョウ","prefecture_code":2},"8226":{"zip_code":"0368226","prefecture":"青森県","prefecture_kana":"アオモリケン","city":"弘前市","city_kana":"ヒロサキシ","town":"寒沢町","town_kana":"カンザワチョウ","prefecture_code":2},"8061":{"zip_code":"0368061","prefecture":"青森県","prefecture_kana":"アオモリケン","city":"弘前市","city_kana":"ヒロサキシ","town":"神田","town_kana":"カンダ","prefecture_code":2},"8227":{"zip_code":"0368227","prefecture":"青森県","prefecture_kana":"アオモリケン","city":"弘前市","city_kana":"ヒロサキシ","town":"桔梗野","town_kana":"キキョウノ","prefecture_code":2},"8194":{"zip_code":"0368194","prefecture":"青森県","prefecture_kana":"アオモリケン","city":"弘前市","city_kana":"ヒロサキシ","town":"北川端町","town_kana":"キタカワバタチョウ","prefecture_code":2},"8012":{"zip_code":"0368012","prefecture":"青森県","prefecture_kana":"アオモリケン","city":"弘前市","city_kana":"ヒロサキシ","town":"北瓦ケ町","town_kana":"キタカワラケチョウ","prefecture_code":2},"8213":{"zip_code":"0368213","prefecture":"青森県","prefecture_kana":"アオモリケン","city":"弘前市","city_kana":"ヒロサキシ","town":"北新寺町","town_kana":"キタシンテラマチ","prefecture_code":2},"8151":{"zip_code":"0368151","prefecture":"青森県","prefecture_kana":"アオモリケン","city":"弘前市","city_kana":"ヒロサキシ","town":"北園","town_kana":"キタゾノ","prefecture_code":2},"8031":{"zip_code":"0368031","prefecture":"青森県","prefecture_kana":"アオモリケン","city":"弘前市","city_kana":"ヒロサキシ","town":"北柳町","town_kana":"キタヤナギチョウ","prefecture_code":2},"8046":{"zip_code":"0368046","prefecture":"青森県","prefecture_kana":"アオモリケン","city":"弘前市","city_kana":"ヒロサキシ","town":"北横町","town_kana":"キタヨコチョウ","prefecture_code":2},"8251":{"zip_code":"0368251","prefecture":"青森県","prefecture_kana":"アオモリケン","city":"弘前市","city_kana":"ヒロサキシ","town":"清富町","town_kana":"キヨトミチョウ","prefecture_code":2},"8163":{"zip_code":"0368163","prefecture":"青森県","prefecture_kana":"アオモリケン","city":"弘前市","city_kana":"ヒロサキシ","town":"清原","town_kana":"キヨハラ","prefecture_code":2},"8245":{"zip_code":"0368245","prefecture":"青森県","prefecture_kana":"アオモリケン","city":"弘前市","city_kana":"ヒロサキシ","town":"金属町","town_kana":"キンゾクチョウ","prefecture_code":2},"1303":{"zip_code":"0361303","prefecture":"青森県","prefecture_kana":"アオモリケン","city":"弘前市","city_kana":"ヒロサキシ","town":"葛原","town_kana":"クズハラ","prefecture_code":2},"1433":{"zip_code":"0361433","prefecture":"青森県","prefecture_kana":"アオモリケン","city":"弘前市","city_kana":"ヒロサキシ","town":"国吉","town_kana":"クニヨシ","prefecture_code":2},"1321":{"zip_code":"0361321","prefecture":"青森県","prefecture_kana":"アオモリケン","city":"弘前市","city_kana":"ヒロサキシ","town":"熊嶋","town_kana":"クマジマ","prefecture_code":2},"8345":{"zip_code":"0368345","prefecture":"青森県","prefecture_kana":"アオモリケン","city":"弘前市","city_kana":"ヒロサキシ","town":"蔵主町","town_kana":"クラヌシチョウ","prefecture_code":2},"1502":{"zip_code":"0361502","prefecture":"青森県","prefecture_kana":"アオモリケン","city":"弘前市","city_kana":"ヒロサキシ","town":"黒滝","town_kana":"クロタキ","prefecture_code":2},"1434":{"zip_code":"0361434","prefecture":"青森県","prefecture_kana":"アオモリケン","city":"弘前市","city_kana":"ヒロサキシ","town":"黒土","town_kana":"クロツチ","prefecture_code":2},"8005":{"zip_code":"0368005","prefecture":"青森県","prefecture_kana":"アオモリケン","city":"弘前市","city_kana":"ヒロサキシ","town":"楮町","town_kana":"コウジマチ","prefecture_code":2},"1431":{"zip_code":"0361431","prefecture":"青森県","prefecture_kana":"アオモリケン","city":"弘前市","city_kana":"ヒロサキシ","town":"高野","town_kana":"コウヤ","prefecture_code":2},"8123":{"zip_code":"0368123","prefecture":"青森県","prefecture_kana":"アオモリケン","city":"弘前市","city_kana":"ヒロサキシ","town":"小金崎","town_kana":"コガネザキ","prefecture_code":2},"8127":{"zip_code":"0368127","prefecture":"青森県","prefecture_kana":"アオモリケン","city":"弘前市","city_kana":"ヒロサキシ","town":"小栗山","town_kana":"コグリヤマ","prefecture_code":2},"8243":{"zip_code":"0368243","prefecture":"青森県","prefecture_kana":"アオモリケン","city":"弘前市","city_kana":"ヒロサキシ","town":"小沢","town_kana":"コザワ","prefecture_code":2},"8362":{"zip_code":"0368362","prefecture":"青森県","prefecture_kana":"アオモリケン","city":"弘前市","city_kana":"ヒロサキシ","town":"五十石町","town_kana":"ゴジツコクマチ","prefecture_code":2},"1503":{"zip_code":"0361503","prefecture":"青森県","prefecture_kana":"アオモリケン","city":"弘前市","city_kana":"ヒロサキシ","town":"五所","town_kana":"ゴショ","prefecture_code":2},"1331":{"zip_code":"0361331","prefecture":"青森県","prefecture_kana":"アオモリケン","city":"弘前市","city_kana":"ヒロサキシ","town":"五代","town_kana":"ゴダイ","prefecture_code":2},"8331":{"zip_code":"0368331","prefecture":"青森県","prefecture_kana":"アオモリケン","city":"弘前市","city_kana":"ヒロサキシ","town":"小人町","town_kana":"コビトチョウ","prefecture_code":2},"1322":{"zip_code":"0361322","prefecture":"青森県","prefecture_kana":"アオモリケン","city":"弘前市","city_kana":"ヒロサキシ","town":"駒越","town_kana":"コマゴシ","prefecture_code":2},"8366":{"zip_code":"0368366","prefecture":"青森県","prefecture_kana":"アオモリケン","city":"弘前市","city_kana":"ヒロサキシ","town":"駒越町","town_kana":"コマゴシマチ","prefecture_code":2},"8361":{"zip_code":"0368361","prefecture":"青森県","prefecture_kana":"アオモリケン","city":"弘前市","city_kana":"ヒロサキシ","town":"紺屋町","town_kana":"コンヤマチ","prefecture_code":2},"8216":{"zip_code":"0368216","prefecture":"青森県","prefecture_kana":"アオモリケン","city":"弘前市","city_kana":"ヒロサキシ","town":"在府町","town_kana":"ザイフチョウ","prefecture_code":2},"8076":{"zip_code":"0368076","prefecture":"青森県","prefecture_kana":"アオモリケン","city":"弘前市","city_kana":"ヒロサキシ","town":"境関","town_kana":"サカイゼキ","prefecture_code":2},"1511":{"zip_code":"0361511","prefecture":"青森県","prefecture_kana":"アオモリケン","city":"弘前市","city_kana":"ヒロサキシ","town":"坂市","town_kana":"サカイチ","prefecture_code":2},"8336":{"zip_code":"0368336","prefecture":"青森県","prefecture_kana":"アオモリケン","city":"弘前市","city_kana":"ヒロサキシ","town":"栄町","town_kana":"サカエマチ","prefecture_code":2},"8244":{"zip_code":"0368244","prefecture":"青森県","prefecture_kana":"アオモリケン","city":"弘前市","city_kana":"ヒロサキシ","town":"坂元","town_kana":"サカモト","prefecture_code":2},"8016":{"zip_code":"0368016","prefecture":"青森県","prefecture_kana":"アオモリケン","city":"弘前市","city_kana":"ヒロサキシ","town":"坂本町","town_kana":"サカモトチョウ","prefecture_code":2},"8211":{"zip_code":"0368211","prefecture":"青森県","prefecture_kana":"アオモリケン","city":"弘前市","city_kana":"ヒロサキシ","town":"相良町","town_kana":"サガラチョウ","prefecture_code":2},"8241":{"zip_code":"0368241","prefecture":"青森県","prefecture_kana":"アオモリケン","city":"弘前市","city_kana":"ヒロサキシ","town":"桜ケ丘","town_kana":"サクラガオカ","prefecture_code":2},"1441":{"zip_code":"0361441","prefecture":"青森県","prefecture_kana":"アオモリケン","city":"弘前市","city_kana":"ヒロサキシ","town":"桜庭","town_kana":"サクラバ","prefecture_code":2},"8222":{"zip_code":"0368222","prefecture":"青森県","prefecture_kana":"アオモリケン","city":"弘前市","city_kana":"ヒロサキシ","town":"桜林町","town_kana":"サクラバヤシチョウ","prefecture_code":2},"8342":{"zip_code":"0368342","prefecture":"青森県","prefecture_kana":"アオモリケン","city":"弘前市","city_kana":"ヒロサキシ","town":"笹森町","town_kana":"ササモリチョウ","prefecture_code":2},"1514":{"zip_code":"0361514","prefecture":"青森県","prefecture_kana":"アオモリケン","city":"弘前市","city_kana":"ヒロサキシ","town":"沢田","town_kana":"サワダ","prefecture_code":2},"8312":{"zip_code":"0368312","prefecture":"青森県","prefecture_kana":"アオモリケン","city":"弘前市","city_kana":"ヒロサキシ","town":"三世寺","town_kana":"サンゼジ","prefecture_code":2},"8341":{"zip_code":"0368341","prefecture":"青森県","prefecture_kana":"アオモリケン","city":"弘前市","city_kana":"ヒロサキシ","town":"山王町","town_kana":"サンノウチョウ","prefecture_code":2},"8102":{"zip_code":"0368102","prefecture":"青森県","prefecture_kana":"アオモリケン","city":"弘前市","city_kana":"ヒロサキシ","town":"小比内","town_kana":"サンピナイ","prefecture_code":2},"8206":{"zip_code":"0368206","prefecture":"青森県","prefecture_kana":"アオモリケン","city":"弘前市","city_kana":"ヒロサキシ","town":"塩分町","town_kana":"シオワケマチ","prefecture_code":2},"8261":{"zip_code":"0368261","prefecture":"青森県","prefecture_kana":"アオモリケン","city":"弘前市","city_kana":"ヒロサキシ","town":"茂森新町","town_kana":"シゲモリシンチョウ","prefecture_code":2},"8217":{"zip_code":"0368217","prefecture":"青森県","prefecture_kana":"アオモリケン","city":"弘前市","city_kana":"ヒロサキシ","town":"茂森町","town_kana":"シゲモリマチ","prefecture_code":2},"8183":{"zip_code":"0368183","prefecture":"青森県","prefecture_kana":"アオモリケン","city":"弘前市","city_kana":"ヒロサキシ","town":"品川町","town_kana":"シナカワマチ","prefecture_code":2},"8254":{"zip_code":"0368254","prefecture":"青森県","prefecture_kana":"アオモリケン","city":"弘前市","city_kana":"ヒロサキシ","town":"清水","town_kana":"シミズ","prefecture_code":2},"8262":{"zip_code":"0368262","prefecture":"青森県","prefecture_kana":"アオモリケン","city":"弘前市","city_kana":"ヒロサキシ","town":"清水富田","town_kana":"シミズトミタ","prefecture_code":2},"8113":{"zip_code":"0368113","prefecture":"青森県","prefecture_kana":"アオモリケン","city":"弘前市","city_kana":"ヒロサキシ","town":"清水森","town_kana":"シミズモリ","prefecture_code":2},"8353":{"zip_code":"0368353","prefecture":"青森県","prefecture_kana":"アオモリケン","city":"弘前市","city_kana":"ヒロサキシ","town":"下鞘師町","town_kana":"シモサヤシマチ","prefecture_code":2},"8356":{"zip_code":"0368356","prefecture":"青森県","prefecture_kana":"アオモリケン","city":"弘前市","city_kana":"ヒロサキシ","town":"下白銀町","town_kana":"シモシロガネチョウ","prefecture_code":2},"8265":{"zip_code":"0368265","prefecture":"青森県","prefecture_kana":"アオモリケン","city":"弘前市","city_kana":"ヒロサキシ","town":"下湯口","town_kana":"シモユグチ","prefecture_code":2},"8266":{"zip_code":"0368266","prefecture":"青森県","prefecture_kana":"アオモリケン","city":"弘前市","city_kana":"ヒロサキシ","town":"自由ケ丘","town_kana":"ジユウガオカ","prefecture_code":2},"8228":{"zip_code":"0368228","prefecture":"青森県","prefecture_kana":"アオモリケン","city":"弘前市","city_kana":"ヒロサキシ","town":"樹木","town_kana":"ジュモク","prefecture_code":2},"8275":{"zip_code":"0368275","prefecture":"青森県","prefecture_kana":"アオモリケン","city":"弘前市","city_kana":"ヒロサキシ","town":"城西","town_kana":"ジョウセイ","prefecture_code":2},"8095":{"zip_code":"0368095","prefecture":"青森県","prefecture_kana":"アオモリケン","city":"弘前市","city_kana":"ヒロサキシ","town":"城東","town_kana":"ジョウトウ","prefecture_code":2},"8093":{"zip_code":"0368093","prefecture":"青森県","prefecture_kana":"アオモリケン","city":"弘前市","city_kana":"ヒロサキシ","town":"城東中央","town_kana":"ジョウトウチュウオウ","prefecture_code":2},"8092":{"zip_code":"0368092","prefecture":"青森県","prefecture_kana":"アオモリケン","city":"弘前市","city_kana":"ヒロサキシ","town":"城東北","town_kana":"ジョウトウキタ","prefecture_code":2},"8232":{"zip_code":"0368232","prefecture":"青森県","prefecture_kana":"アオモリケン","city":"弘前市","city_kana":"ヒロサキシ","town":"城南","town_kana":"ジョウナン","prefecture_code":2},"8193":{"zip_code":"0368193","prefecture":"青森県","prefecture_kana":"アオモリケン","city":"弘前市","city_kana":"ヒロサキシ","town":"新鍛冶町","town_kana":"シンカジマチ","prefecture_code":2},"8214":{"zip_code":"0368214","prefecture":"青森県","prefecture_kana":"アオモリケン","city":"弘前市","city_kana":"ヒロサキシ","town":"新寺町","town_kana":"シンテラマチ","prefecture_code":2},"8215":{"zip_code":"0368215","prefecture":"青森県","prefecture_kana":"アオモリケン","city":"弘前市","city_kana":"ヒロサキシ","town":"新寺町新割町","town_kana":"シンテラマチシンワリチョウ","prefecture_code":2},"1342":{"zip_code":"0361342","prefecture":"青森県","prefecture_kana":"アオモリケン","city":"弘前市","city_kana":"ヒロサキシ","town":"新法師","town_kana":"シンボウシ","prefecture_code":2},"8085":{"zip_code":"0368085","prefecture":"青森県","prefecture_kana":"アオモリケン","city":"弘前市","city_kana":"ヒロサキシ","town":"末広","town_kana":"スエヒロ","prefecture_code":2},"1506":{"zip_code":"0361506","prefecture":"青森県","prefecture_kana":"アオモリケン","city":"弘前市","city_kana":"ヒロサキシ","town":"昴","town_kana":"スバル","prefecture_code":2},"8187":{"zip_code":"0368187","prefecture":"青森県","prefecture_kana":"アオモリケン","city":"弘前市","city_kana":"ヒロサキシ","town":"住吉町","town_kana":"スミヨシチョウ","prefecture_code":2},"8072":{"zip_code":"0368072","prefecture":"青森県","prefecture_kana":"アオモリケン","city":"弘前市","city_kana":"ヒロサキシ","town":"清野袋","town_kana":"セイノフクロ","prefecture_code":2},"1515":{"zip_code":"0361515","prefecture":"青森県","prefecture_kana":"アオモリケン","city":"弘前市","city_kana":"ヒロサキシ","town":"相馬","town_kana":"ソウマ","prefecture_code":2},"8001":{"zip_code":"0368001","prefecture":"青森県","prefecture_kana":"アオモリケン","city":"弘前市","city_kana":"ヒロサキシ","town":"代官町","town_kana":"ダイカンチョウ","prefecture_code":2},"1344":{"zip_code":"0361344","prefecture":"青森県","prefecture_kana":"アオモリケン","city":"弘前市","city_kana":"ヒロサキシ","town":"高岡","town_kana":"タカオカ","prefecture_code":2},"8091":{"zip_code":"0368091","prefecture":"青森県","prefecture_kana":"アオモリケン","city":"弘前市","city_kana":"ヒロサキシ","town":"高崎","town_kana":"タカサキ","prefecture_code":2},"8271":{"zip_code":"0368271","prefecture":"青森県","prefecture_kana":"アオモリケン","city":"弘前市","city_kana":"ヒロサキシ","town":"鷹匠町","town_kana":"タカジョウマチ","prefecture_code":2},"8302":{"zip_code":"0368302","prefecture":"青森県","prefecture_kana":"アオモリケン","city":"弘前市","city_kana":"ヒロサキシ","town":"高杉","town_kana":"タカスギ","prefecture_code":2},"8084":{"zip_code":"0368084","prefecture":"青森県","prefecture_kana":"アオモリケン","city":"弘前市","city_kana":"ヒロサキシ","town":"高田","town_kana":"タカダ","prefecture_code":2},"1312":{"zip_code":"0361312","prefecture":"青森県","prefecture_kana":"アオモリケン","city":"弘前市","city_kana":"ヒロサキシ","town":"高屋","town_kana":"タカヤ","prefecture_code":2},"8018":{"zip_code":"0368018","prefecture":"青森県","prefecture_kana":"アオモリケン","city":"弘前市","city_kana":"ヒロサキシ","town":"田代町","town_kana":"タシロチョウ","prefecture_code":2},"1324":{"zip_code":"0361324","prefecture":"青森県","prefecture_kana":"アオモリケン","city":"弘前市","city_kana":"ヒロサキシ","town":"龍ノ口","town_kana":"タツノクチ","prefecture_code":2},"1432":{"zip_code":"0361432","prefecture":"青森県","prefecture_kana":"アオモリケン","city":"弘前市","city_kana":"ヒロサキシ","town":"館後","town_kana":"タテウシロ","prefecture_code":2},"8234":{"zip_code":"0368234","prefecture":"青森県","prefecture_kana":"アオモリケン","city":"弘前市","city_kana":"ヒロサキシ","town":"館野","town_kana":"タテノ","prefecture_code":2},"8054":{"zip_code":"0368054","prefecture":"青森県","prefecture_kana":"アオモリケン","city":"弘前市","city_kana":"ヒロサキシ","town":"田町","town_kana":"タマチ","prefecture_code":2},"8055":{"zip_code":"0368055","prefecture":"青森県","prefecture_kana":"アオモリケン","city":"弘前市","city_kana":"ヒロサキシ","town":"田茂木町","town_kana":"タモギマチ","prefecture_code":2},"8041":{"zip_code":"0368041","prefecture":"青森県","prefecture_kana":"アオモリケン","city":"弘前市","city_kana":"ヒロサキシ","town":"俵元","town_kana":"タワラモト","prefecture_code":2},"8131":{"zip_code":"0368131","prefecture":"青森県","prefecture_kana":"アオモリケン","city":"弘前市","city_kana":"ヒロサキシ","town":"千年","town_kana":"チトセ","prefecture_code":2},"8044":{"zip_code":"0368044","prefecture":"青森県","prefecture_kana":"アオモリケン","city":"弘前市","city_kana":"ヒロサキシ","town":"茶畑町","town_kana":"チャバタケチョウ","prefecture_code":2},"8074":{"zip_code":"0368074","prefecture":"青森県","prefecture_kana":"アオモリケン","city":"弘前市","city_kana":"ヒロサキシ","town":"津賀野瀬ノ上","town_kana":"ツカノセノウエ","prefecture_code":2},"8374":{"zip_code":"0368374","prefecture":"青森県","prefecture_kana":"アオモリケン","city":"弘前市","city_kana":"ヒロサキシ","town":"土堂","town_kana":"ツチドウ","prefecture_code":2},"8036":{"zip_code":"0368036","prefecture":"青森県","prefecture_kana":"アオモリケン","city":"弘前市","city_kana":"ヒロサキシ","town":"鉄砲町","town_kana":"テッポウマチ","prefecture_code":2},"8086":{"zip_code":"0368086","prefecture":"青森県","prefecture_kana":"アオモリケン","city":"弘前市","city_kana":"ヒロサキシ","town":"田園","town_kana":"デンエン","prefecture_code":2},"8319":{"zip_code":"0368319","prefecture":"青森県","prefecture_kana":"アオモリケン","city":"弘前市","city_kana":"ヒロサキシ","town":"藤内町","town_kana":"トウナイマチ","prefecture_code":2},"8196":{"zip_code":"0368196","prefecture":"青森県","prefecture_kana":"アオモリケン","city":"弘前市","city_kana":"ヒロサキシ","town":"銅屋町","town_kana":"ドウヤマチ","prefecture_code":2},"8263":{"zip_code":"0368263","prefecture":"青森県","prefecture_kana":"アオモリケン","city":"弘前市","city_kana":"ヒロサキシ","town":"常盤坂","town_kana":"トキワザカ","prefecture_code":2},"1345":{"zip_code":"0361345","prefecture":"青森県","prefecture_kana":"アオモリケン","city":"弘前市","city_kana":"ヒロサキシ","town":"常盤野","town_kana":"トキワノ","prefecture_code":2},"8032":{"zip_code":"0368032","prefecture":"青森県","prefecture_kana":"アオモリケン","city":"弘前市","city_kana":"ヒロサキシ","town":"徳田町","town_kana":"トクダチョウ","prefecture_code":2},"1201":{"zip_code":"0361201","prefecture":"青森県","prefecture_kana":"アオモリケン","city":"弘前市","city_kana":"ヒロサキシ","town":"十腰内","town_kana":"トコシナイ","prefecture_code":2},"8381":{"zip_code":"0368381","prefecture":"青森県","prefecture_kana":"アオモリケン","city":"弘前市","city_kana":"ヒロサキシ","town":"独狐","town_kana":"トッコ","prefecture_code":2},"1202":{"zip_code":"0361202","prefecture":"青森県","prefecture_kana":"アオモリケン","city":"弘前市","city_kana":"ヒロサキシ","town":"十面沢","town_kana":"トツラザワ","prefecture_code":2},"8182":{"zip_code":"0368182","prefecture":"青森県","prefecture_kana":"アオモリケン","city":"弘前市","city_kana":"ヒロサキシ","town":"土手町","town_kana":"ドテマチ","prefecture_code":2},"8094":{"zip_code":"0368094","prefecture":"青森県","prefecture_kana":"アオモリケン","city":"弘前市","city_kana":"ヒロサキシ","town":"外崎","town_kana":"トノサキ","prefecture_code":2},"8317":{"zip_code":"0368317","prefecture":"青森県","prefecture_kana":"アオモリケン","city":"弘前市","city_kana":"ヒロサキシ","town":"外瀬","town_kana":"トノセ","prefecture_code":2},"8382":{"zip_code":"0368382","prefecture":"青森県","prefecture_kana":"アオモリケン","city":"弘前市","city_kana":"ヒロサキシ","town":"富栄","town_kana":"トミサカエ","prefecture_code":2},"8186":{"zip_code":"0368186","prefecture":"青森県","prefecture_kana":"アオモリケン","city":"弘前市","city_kana":"ヒロサキシ","town":"富田","town_kana":"トミタ","prefecture_code":2},"8173":{"zip_code":"0368173","prefecture":"青森県","prefecture_kana":"アオモリケン","city":"弘前市","city_kana":"ヒロサキシ","town":"富田町","town_kana":"トミタマチ","prefecture_code":2},"8174":{"zip_code":"0368174","prefecture":"青森県","prefecture_kana":"アオモリケン","city":"弘前市","city_kana":"ヒロサキシ","town":"富野町","town_kana":"トミノチョウ","prefecture_code":2},"8101":{"zip_code":"0368101","prefecture":"青森県","prefecture_kana":"アオモリケン","city":"弘前市","city_kana":"ヒロサキシ","town":"豊田","town_kana":"トヨダ","prefecture_code":2},"8154":{"zip_code":"0368154","prefecture":"青森県","prefecture_kana":"アオモリケン","city":"弘前市","city_kana":"ヒロサキシ","town":"豊原","town_kana":"トヨハラ","prefecture_code":2},"8171":{"zip_code":"0368171","prefecture":"青森県","prefecture_kana":"アオモリケン","city":"弘前市","city_kana":"ヒロサキシ","town":"取上","town_kana":"トリアゲ","prefecture_code":2},"1333":{"zip_code":"0361333","prefecture":"青森県","prefecture_kana":"アオモリケン","city":"弘前市","city_kana":"ヒロサキシ","town":"鳥井野","town_kana":"トリイノ","prefecture_code":2},"8075":{"zip_code":"0368075","prefecture":"青森県","prefecture_kana":"アオモリケン","city":"弘前市","city_kana":"ヒロサキシ","town":"撫牛子","town_kana":"ナイジョウシ","prefecture_code":2},"8015":{"zip_code":"0368015","prefecture":"青森県","prefecture_kana":"アオモリケン","city":"弘前市","city_kana":"ヒロサキシ","town":"中瓦ケ町","town_kana":"ナカカワラケチョウ","prefecture_code":2},"8313":{"zip_code":"0368313","prefecture":"青森県","prefecture_kana":"アオモリケン","city":"弘前市","city_kana":"ヒロサキシ","town":"中崎","town_kana":"ナカザキ","prefecture_code":2},"8155":{"zip_code":"0368155","prefecture":"青森県","prefecture_kana":"アオモリケン","city":"弘前市","city_kana":"ヒロサキシ","town":"中野","town_kana":"ナカノ","prefecture_code":2},"1451":{"zip_code":"0361451","prefecture":"青森県","prefecture_kana":"アオモリケン","city":"弘前市","city_kana":"ヒロサキシ","town":"中野","town_kana":"ナカノ","prefecture_code":2},"1452":{"zip_code":"0361452","prefecture":"青森県","prefecture_kana":"アオモリケン","city":"弘前市","city_kana":"ヒロサキシ","town":"中畑","town_kana":"ナカハタ","prefecture_code":2},"8385":{"zip_code":"0368385","prefecture":"青森県","prefecture_kana":"アオモリケン","city":"弘前市","city_kana":"ヒロサキシ","town":"中別所","town_kana":"ナカベッショ","prefecture_code":2},"8344":{"zip_code":"0368344","prefecture":"青森県","prefecture_kana":"アオモリケン","city":"弘前市","city_kana":"ヒロサキシ","town":"長坂町","town_kana":"ナガサカチョウ","prefecture_code":2},"1206":{"zip_code":"0361206","prefecture":"青森県","prefecture_kana":"アオモリケン","city":"弘前市","city_kana":"ヒロサキシ","town":"楢木","town_kana":"ナラノキ","prefecture_code":2},"8212":{"zip_code":"0368212","prefecture":"青森県","prefecture_kana":"アオモリケン","city":"弘前市","city_kana":"ヒロサキシ","town":"南塘町","town_kana":"ナントウチョウ","prefecture_code":2},"1304":{"zip_code":"0361304","prefecture":"青森県","prefecture_kana":"アオモリケン","city":"弘前市","city_kana":"ヒロサキシ","town":"新岡","town_kana":"ニイオカ","prefecture_code":2},"8083":{"zip_code":"0368083","prefecture":"青森県","prefecture_kana":"アオモリケン","city":"弘前市","city_kana":"ヒロサキシ","town":"新里","town_kana":"ニサト","prefecture_code":2},"8017":{"zip_code":"0368017","prefecture":"青森県","prefecture_kana":"アオモリケン","city":"弘前市","city_kana":"ヒロサキシ","town":"西川岸町","town_kana":"ニシカワギシチョウ","prefecture_code":2},"8225":{"zip_code":"0368225","prefecture":"青森県","prefecture_kana":"アオモリケン","city":"弘前市","city_kana":"ヒロサキシ","town":"西ケ丘町","town_kana":"ニシガオカチョウ","prefecture_code":2},"8273":{"zip_code":"0368273","prefecture":"青森県","prefecture_kana":"アオモリケン","city":"弘前市","city_kana":"ヒロサキシ","town":"西茂森","town_kana":"ニシシゲモリ","prefecture_code":2},"8065":{"zip_code":"0368065","prefecture":"青森県","prefecture_kana":"アオモリケン","city":"弘前市","city_kana":"ヒロサキシ","town":"西城北","town_kana":"ニシジョウホク","prefecture_code":2},"8365":{"zip_code":"0368365","prefecture":"青森県","prefecture_kana":"アオモリケン","city":"弘前市","city_kana":"ヒロサキシ","town":"西大工町","town_kana":"ニシダイクマチ","prefecture_code":2},"8122":{"zip_code":"0368122","prefecture":"青森県","prefecture_kana":"アオモリケン","city":"弘前市","city_kana":"ヒロサキシ","town":"乳井","town_kana":"ニュウイ","prefecture_code":2},"1334":{"zip_code":"0361334","prefecture":"青森県","prefecture_kana":"アオモリケン","city":"弘前市","city_kana":"ヒロサキシ","town":"如来瀬","town_kana":"ニョライセ","prefecture_code":2},"8301":{"zip_code":"0368301","prefecture":"青森県","prefecture_kana":"アオモリケン","city":"弘前市","city_kana":"ヒロサキシ","town":"糠坪","town_kana":"ヌカツボ","prefecture_code":2},"8056":{"zip_code":"0368056","prefecture":"青森県","prefecture_kana":"アオモリケン","city":"弘前市","city_kana":"ヒロサキシ","town":"禰宜町","town_kana":"ネギマチ","prefecture_code":2},"8045":{"zip_code":"0368045","prefecture":"青森県","prefecture_kana":"アオモリケン","city":"弘前市","city_kana":"ヒロサキシ","town":"野田","town_kana":"ノダ","prefecture_code":2},"8334":{"zip_code":"0368334","prefecture":"青森県","prefecture_kana":"アオモリケン","city":"弘前市","city_kana":"ヒロサキシ","town":"馬喰町","town_kana":"バクロチョウ","prefecture_code":2},"8057":{"zip_code":"0368057","prefecture":"青森県","prefecture_kana":"アオモリケン","city":"弘前市","city_kana":"ヒロサキシ","town":"八幡町","town_kana":"ハチマンチョウ","prefecture_code":2},"1301":{"zip_code":"0361301","prefecture":"青森県","prefecture_kana":"アオモリケン","city":"弘前市","city_kana":"ヒロサキシ","town":"鼻和","town_kana":"ハナワ","prefecture_code":2},"8323":{"zip_code":"0368323","prefecture":"青森県","prefecture_kana":"アオモリケン","city":"弘前市","city_kana":"ヒロサキシ","town":"浜の町東","town_kana":"ハマノマチヒガシ","prefecture_code":2},"8324":{"zip_code":"0368324","prefecture":"青森県","prefecture_kana":"アオモリケン","city":"弘前市","city_kana":"ヒロサキシ","town":"浜の町西","town_kana":"ハマノマチニシ","prefecture_code":2},"8325":{"zip_code":"0368325","prefecture":"青森県","prefecture_kana":"アオモリケン","city":"弘前市","city_kana":"ヒロサキシ","town":"浜の町北","town_kana":"ハマノマチキタ","prefecture_code":2},"8144":{"zip_code":"0368144","prefecture":"青森県","prefecture_kana":"アオモリケン","city":"弘前市","city_kana":"ヒロサキシ","town":"原ケ平","town_kana":"ハラガタイ","prefecture_code":2},"1453":{"zip_code":"0361453","prefecture":"青森県","prefecture_kana":"アオモリケン","city":"弘前市","city_kana":"ヒロサキシ","town":"番館","town_kana":"バンダテ","prefecture_code":2},"8064":{"zip_code":"0368064","prefecture":"青森県","prefecture_kana":"アオモリケン","city":"弘前市","city_kana":"ヒロサキシ","town":"東城北","town_kana":"ヒガシジョウホク","prefecture_code":2},"8343":{"zip_code":"0368343","prefecture":"青森県","prefecture_kana":"アオモリケン","city":"弘前市","city_kana":"ヒロサキシ","town":"東長町","town_kana":"ヒガシナガマチ","prefecture_code":2},"8043":{"zip_code":"0368043","prefecture":"青森県","prefecture_kana":"アオモリケン","city":"弘前市","city_kana":"ヒロサキシ","town":"東和徳町","town_kana":"ヒガシワトクマチ","prefecture_code":2},"8278":{"zip_code":"0368278","prefecture":"青森県","prefecture_kana":"アオモリケン","city":"弘前市","city_kana":"ヒロサキシ","town":"樋の口","town_kana":"ヒノクチ","prefecture_code":2},"8276":{"zip_code":"0368276","prefecture":"青森県","prefecture_kana":"アオモリケン","city":"弘前市","city_kana":"ヒロサキシ","town":"樋の口町","town_kana":"ヒノクチマチ","prefecture_code":2},"1343":{"zip_code":"0361343","prefecture":"青森県","prefecture_kana":"アオモリケン","city":"弘前市","city_kana":"ヒロサキシ","town":"百沢","town_kana":"ヒャクザワ","prefecture_code":2},"8035":{"zip_code":"0368035","prefecture":"青森県","prefecture_kana":"アオモリケン","city":"弘前市","city_kana":"ヒロサキシ","town":"百石町","town_kana":"ヒャッコクマチ","prefecture_code":2},"8351":{"zip_code":"0368351","prefecture":"青森県","prefecture_kana":"アオモリケン","city":"弘前市","city_kana":"ヒロサキシ","town":"百石町小路","town_kana":"ヒャッコクマチコウジ","prefecture_code":2},"8367":{"zip_code":"0368367","prefecture":"青森県","prefecture_kana":"アオモリケン","city":"弘前市","city_kana":"ヒロサキシ","town":"平岡町","town_kana":"ヒラオカマチ","prefecture_code":2},"1442":{"zip_code":"0361442","prefecture":"青森県","prefecture_kana":"アオモリケン","city":"弘前市","city_kana":"ヒロサキシ","town":"平山","town_kana":"ヒラヤマ","prefecture_code":2},"8115":{"zip_code":"0368115","prefecture":"青森県","prefecture_kana":"アオモリケン","city":"弘前市","city_kana":"ヒロサキシ","town":"広野","town_kana":"ヒロノ","prefecture_code":2},"8081":{"zip_code":"0368081","prefecture":"青森県","prefecture_kana":"アオモリケン","city":"弘前市","city_kana":"ヒロサキシ","town":"福田","town_kana":"フクダ","prefecture_code":2},"8082":{"zip_code":"0368082","prefecture":"青森県","prefecture_kana":"アオモリケン","city":"弘前市","city_kana":"ヒロサキシ","town":"福村","town_kana":"フクムラ","prefecture_code":2},"8363":{"zip_code":"0368363","prefecture":"青森県","prefecture_kana":"アオモリケン","city":"弘前市","city_kana":"ヒロサキシ","town":"袋町","town_kana":"フクロマチ","prefecture_code":2},"1512":{"zip_code":"0361512","prefecture":"青森県","prefecture_kana":"アオモリケン","city":"弘前市","city_kana":"ヒロサキシ","town":"藤沢","town_kana":"フジサワ","prefecture_code":2},"8373":{"zip_code":"0368373","prefecture":"青森県","prefecture_kana":"アオモリケン","city":"弘前市","city_kana":"ヒロサキシ","town":"藤代","town_kana":"フジシロ","prefecture_code":2},"8326":{"zip_code":"0368326","prefecture":"青森県","prefecture_kana":"アオモリケン","city":"弘前市","city_kana":"ヒロサキシ","town":"藤野","town_kana":"フジノ","prefecture_code":2},"8143":{"zip_code":"0368143","prefecture":"青森県","prefecture_kana":"アオモリケン","city":"弘前市","city_kana":"ヒロサキシ","town":"富士見台","town_kana":"フジミダイ","prefecture_code":2},"8223":{"zip_code":"0368223","prefecture":"青森県","prefecture_kana":"アオモリケン","city":"弘前市","city_kana":"ヒロサキシ","town":"富士見町","town_kana":"フジミチョウ","prefecture_code":2},"8315":{"zip_code":"0368315","prefecture":"青森県","prefecture_kana":"アオモリケン","city":"弘前市","city_kana":"ヒロサキシ","town":"船水","town_kana":"フナミズ","prefecture_code":2},"8224":{"zip_code":"0368224","prefecture":"青森県","prefecture_kana":"アオモリケン","city":"弘前市","city_kana":"ヒロサキシ","town":"文京町","town_kana":"ブンキョウチョウ","prefecture_code":2},"8375":{"zip_code":"0368375","prefecture":"青森県","prefecture_kana":"アオモリケン","city":"弘前市","city_kana":"ヒロサキシ","town":"細越","town_kana":"ホソゴエ","prefecture_code":2},"8112":{"zip_code":"0368112","prefecture":"青森県","prefecture_kana":"アオモリケン","city":"弘前市","city_kana":"ヒロサキシ","town":"堀越","town_kana":"ホリコシ","prefecture_code":2},"8203":{"zip_code":"0368203","prefecture":"青森県","prefecture_kana":"アオモリケン","city":"弘前市","city_kana":"ヒロサキシ","town":"本町","town_kana":"ホンチョウ","prefecture_code":2},"8303":{"zip_code":"0368303","prefecture":"青森県","prefecture_kana":"アオモリケン","city":"弘前市","city_kana":"ヒロサキシ","town":"前坂","town_kana":"マエザカ","prefecture_code":2},"8371":{"zip_code":"0368371","prefecture":"青森県","prefecture_kana":"アオモリケン","city":"弘前市","city_kana":"ヒロサキシ","town":"蒔苗","town_kana":"マカナエ","prefecture_code":2},"8314":{"zip_code":"0368314","prefecture":"青森県","prefecture_kana":"アオモリケン","city":"弘前市","city_kana":"ヒロサキシ","town":"町田","town_kana":"マチダ","prefecture_code":2},"8042":{"zip_code":"0368042","prefecture":"青森県","prefecture_kana":"アオモリケン","city":"弘前市","city_kana":"ヒロサキシ","town":"松ケ枝","town_kana":"マツガエ","prefecture_code":2},"8126":{"zip_code":"0368126","prefecture":"青森県","prefecture_kana":"アオモリケン","city":"弘前市","city_kana":"ヒロサキシ","town":"松木平","town_kana":"マツキタイ","prefecture_code":2},"1323":{"zip_code":"0361323","prefecture":"青森県","prefecture_kana":"アオモリケン","city":"弘前市","city_kana":"ヒロサキシ","town":"真土","town_kana":"マツチ","prefecture_code":2},"8141":{"zip_code":"0368141","prefecture":"青森県","prefecture_kana":"アオモリケン","city":"弘前市","city_kana":"ヒロサキシ","town":"松原東","town_kana":"マツバラヒガシ","prefecture_code":2},"8142":{"zip_code":"0368142","prefecture":"青森県","prefecture_kana":"アオモリケン","city":"弘前市","city_kana":"ヒロサキシ","town":"松原西","town_kana":"マツバラニシ","prefecture_code":2},"8184":{"zip_code":"0368184","prefecture":"青森県","prefecture_kana":"アオモリケン","city":"弘前市","city_kana":"ヒロサキシ","town":"松森町","town_kana":"マツモリマチ","prefecture_code":2},"8357":{"zip_code":"0368357","prefecture":"青森県","prefecture_kana":"アオモリケン","city":"弘前市","city_kana":"ヒロサキシ","town":"馬屋町","town_kana":"マヤチョウ","prefecture_code":2},"1505":{"zip_code":"0361505","prefecture":"青森県","prefecture_kana":"アオモリケン","city":"弘前市","city_kana":"ヒロサキシ","town":"水木在家","town_kana":"ミズキザイケ","prefecture_code":2},"8153":{"zip_code":"0368153","prefecture":"青森県","prefecture_kana":"アオモリケン","city":"弘前市","city_kana":"ヒロサキシ","town":"三岳町","town_kana":"ミタケチョウ","prefecture_code":2},"8253":{"zip_code":"0368253","prefecture":"青森県","prefecture_kana":"アオモリケン","city":"弘前市","city_kana":"ヒロサキシ","town":"緑ケ丘","town_kana":"ミドリガオカ","prefecture_code":2},"8024":{"zip_code":"0368024","prefecture":"青森県","prefecture_kana":"アオモリケン","city":"弘前市","city_kana":"ヒロサキシ","town":"緑町","town_kana":"ミドリチョウ","prefecture_code":2},"8006":{"zip_code":"0368006","prefecture":"青森県","prefecture_kana":"アオモリケン","city":"弘前市","city_kana":"ヒロサキシ","town":"南大町","town_kana":"ミナミオオマチ","prefecture_code":2},"8195":{"zip_code":"0368195","prefecture":"青森県","prefecture_kana":"アオモリケン","city":"弘前市","city_kana":"ヒロサキシ","town":"南川端町","town_kana":"ミナミカワバタチョウ","prefecture_code":2},"8014":{"zip_code":"0368014","prefecture":"青森県","prefecture_kana":"アオモリケン","city":"弘前市","city_kana":"ヒロサキシ","town":"南瓦ケ町","town_kana":"ミナミカワラケチョウ","prefecture_code":2},"8274":{"zip_code":"0368274","prefecture":"青森県","prefecture_kana":"アオモリケン","city":"弘前市","city_kana":"ヒロサキシ","town":"南城西","town_kana":"ミナミジョウセイ","prefecture_code":2},"8172":{"zip_code":"0368172","prefecture":"青森県","prefecture_kana":"アオモリケン","city":"弘前市","city_kana":"ヒロサキシ","town":"南富田町","town_kana":"ミナミトミタマチ","prefecture_code":2},"8272":{"zip_code":"0368272","prefecture":"青森県","prefecture_kana":"アオモリケン","city":"弘前市","city_kana":"ヒロサキシ","town":"南袋町","town_kana":"ミナミフクロマチ","prefecture_code":2},"8025":{"zip_code":"0368025","prefecture":"青森県","prefecture_kana":"アオモリケン","city":"弘前市","city_kana":"ヒロサキシ","town":"南柳町","town_kana":"ミナミヤナギチョウ","prefecture_code":2},"8026":{"zip_code":"0368026","prefecture":"青森県","prefecture_kana":"アオモリケン","city":"弘前市","city_kana":"ヒロサキシ","town":"南横町","town_kana":"ミナミヨコチョウ","prefecture_code":2},"8231":{"zip_code":"0368231","prefecture":"青森県","prefecture_kana":"アオモリケン","city":"弘前市","city_kana":"ヒロサキシ","town":"稔町","town_kana":"ミノリチョウ","prefecture_code":2},"8051":{"zip_code":"0368051","prefecture":"青森県","prefecture_kana":"アオモリケン","city":"弘前市","city_kana":"ヒロサキシ","town":"宮川","town_kana":"ミヤカワ","prefecture_code":2},"1341":{"zip_code":"0361341","prefecture":"青森県","prefecture_kana":"アオモリケン","city":"弘前市","city_kana":"ヒロサキシ","town":"宮地","town_kana":"ミヤジ","prefecture_code":2},"8063":{"zip_code":"0368063","prefecture":"青森県","prefecture_kana":"アオモリケン","city":"弘前市","city_kana":"ヒロサキシ","town":"宮園","town_kana":"ミヤゾノ","prefecture_code":2},"8384":{"zip_code":"0368384","prefecture":"青森県","prefecture_kana":"アオモリケン","city":"弘前市","city_kana":"ヒロサキシ","town":"宮舘","town_kana":"ミヤダテ","prefecture_code":2},"8185":{"zip_code":"0368185","prefecture":"青森県","prefecture_kana":"アオモリケン","city":"弘前市","city_kana":"ヒロサキシ","town":"御幸町","town_kana":"ミユキチョウ","prefecture_code":2},"8066":{"zip_code":"0368066","prefecture":"青森県","prefecture_kana":"アオモリケン","city":"弘前市","city_kana":"ヒロサキシ","town":"向外瀬","town_kana":"ムカイトノセ","prefecture_code":2},"8202":{"zip_code":"0368202","prefecture":"青森県","prefecture_kana":"アオモリケン","city":"弘前市","city_kana":"ヒロサキシ","town":"元大工町","town_kana":"モトダイクマチ","prefecture_code":2},"8355":{"zip_code":"0368355","prefecture":"青森県","prefecture_kana":"アオモリケン","city":"弘前市","city_kana":"ヒロサキシ","town":"元寺町","town_kana":"モトテラマチ","prefecture_code":2},"8352":{"zip_code":"0368352","prefecture":"青森県","prefecture_kana":"アオモリケン","city":"弘前市","city_kana":"ヒロサキシ","town":"元寺町小路","town_kana":"モトテラマチコウジ","prefecture_code":2},"8198":{"zip_code":"0368198","prefecture":"青森県","prefecture_kana":"アオモリケン","city":"弘前市","city_kana":"ヒロサキシ","town":"元長町","town_kana":"モトナガマチ","prefecture_code":2},"8372":{"zip_code":"0368372","prefecture":"青森県","prefecture_kana":"アオモリケン","city":"弘前市","city_kana":"ヒロサキシ","town":"元薬師堂","town_kana":"モトヤクシドウ","prefecture_code":2},"8205":{"zip_code":"0368205","prefecture":"青森県","prefecture_kana":"アオモリケン","city":"弘前市","city_kana":"ヒロサキシ","town":"森町","town_kana":"モリチョウ","prefecture_code":2},"8121":{"zip_code":"0368121","prefecture":"青森県","prefecture_kana":"アオモリケン","city":"弘前市","city_kana":"ヒロサキシ","town":"薬師堂","town_kana":"ヤクシドウ","prefecture_code":2},"8318":{"zip_code":"0368318","prefecture":"青森県","prefecture_kana":"アオモリケン","city":"弘前市","city_kana":"ヒロサキシ","town":"八代町","town_kana":"ヤシロマチ","prefecture_code":2},"8162":{"zip_code":"0368162","prefecture":"青森県","prefecture_kana":"アオモリケン","city":"弘前市","city_kana":"ヒロサキシ","town":"安原","town_kana":"ヤスハラ","prefecture_code":2},"8321":{"zip_code":"0368321","prefecture":"青森県","prefecture_kana":"アオモリケン","city":"弘前市","city_kana":"ヒロサキシ","town":"萢中","town_kana":"ヤチナカ","prefecture_code":2},"8233":{"zip_code":"0368233","prefecture":"青森県","prefecture_kana":"アオモリケン","city":"弘前市","city_kana":"ヒロサキシ","town":"山崎","town_kana":"ヤマザキ","prefecture_code":2},"8011":{"zip_code":"0368011","prefecture":"青森県","prefecture_kana":"アオモリケン","city":"弘前市","city_kana":"ヒロサキシ","town":"山下町","town_kana":"ヤマシタチョウ","prefecture_code":2},"8181":{"zip_code":"0368181","prefecture":"青森県","prefecture_kana":"アオモリケン","city":"弘前市","city_kana":"ヒロサキシ","town":"山道町","town_kana":"ヤマミチチョウ","prefecture_code":2},"1361":{"zip_code":"0361361","prefecture":"青森県","prefecture_kana":"アオモリケン","city":"弘前市","city_kana":"ヒロサキシ","town":"弥生","town_kana":"ヤヨイ","prefecture_code":2},"1314":{"zip_code":"0361314","prefecture":"青森県","prefecture_kana":"アオモリケン","city":"弘前市","city_kana":"ヒロサキシ","town":"八幡","town_kana":"ヤワタ","prefecture_code":2},"1501":{"zip_code":"0361501","prefecture":"青森県","prefecture_kana":"アオモリケン","city":"弘前市","city_kana":"ヒロサキシ","town":"湯口","town_kana":"ユグチ","prefecture_code":2},"1311":{"zip_code":"0361311","prefecture":"青森県","prefecture_kana":"アオモリケン","city":"弘前市","city_kana":"ヒロサキシ","town":"横町","town_kana":"ヨコマチ","prefecture_code":2},"1435":{"zip_code":"0361435","prefecture":"青森県","prefecture_kana":"アオモリケン","city":"弘前市","city_kana":"ヒロサキシ","town":"吉川","town_kana":"ヨシカワ","prefecture_code":2},"1313":{"zip_code":"0361313","prefecture":"青森県","prefecture_kana":"アオモリケン","city":"弘前市","city_kana":"ヒロサキシ","town":"賀田","town_kana":"ヨシタ","prefecture_code":2},"8188":{"zip_code":"0368188","prefecture":"青森県","prefecture_kana":"アオモリケン","city":"弘前市","city_kana":"ヒロサキシ","town":"吉野町","town_kana":"ヨシノチョウ","prefecture_code":2},"1443":{"zip_code":"0361443","prefecture":"青森県","prefecture_kana":"アオモリケン","city":"弘前市","city_kana":"ヒロサキシ","town":"米ケ袋","town_kana":"ヨネガフクロ","prefecture_code":2},"8053":{"zip_code":"0368053","prefecture":"青森県","prefecture_kana":"アオモリケン","city":"弘前市","city_kana":"ヒロサキシ","town":"和泉","town_kana":"ワイズミ","prefecture_code":2},"8333":{"zip_code":"0368333","prefecture":"青森県","prefecture_kana":"アオモリケン","city":"弘前市","city_kana":"ヒロサキシ","town":"若党町","town_kana":"ワカドウチョウ","prefecture_code":2},"8255":{"zip_code":"0368255","prefecture":"青森県","prefecture_kana":"アオモリケン","city":"弘前市","city_kana":"ヒロサキシ","town":"若葉","town_kana":"ワカバ","prefecture_code":2},"8087":{"zip_code":"0368087","prefecture":"青森県","prefecture_kana":"アオモリケン","city":"弘前市","city_kana":"ヒロサキシ","town":"早稲田","town_kana":"ワセダ","prefecture_code":2},"8368":{"zip_code":"0368368","prefecture":"青森県","prefecture_kana":"アオモリケン","city":"弘前市","city_kana":"ヒロサキシ","town":"和田町","town_kana":"ワダチョウ","prefecture_code":2},"8021":{"zip_code":"0368021","prefecture":"青森県","prefecture_kana":"アオモリケン","city":"弘前市","city_kana":"ヒロサキシ","town":"和徳町","town_kana":"ワトクマチ","prefecture_code":2},"0300":{"zip_code":"0360300","prefecture":"青森県","prefecture_kana":"アオモリケン","city":"黒石市","city_kana":"クロイシシ","town":"","town_kana":"","prefecture_code":2},"0516":{"zip_code":"0360516","prefecture":"青森県","prefecture_kana":"アオモリケン","city":"黒石市","city_kana":"クロイシシ","town":"相野","town_kana":"アイノ","prefecture_code":2},"0325":{"zip_code":"0360325","prefecture":"青森県","prefecture_kana":"アオモリケン","city":"黒石市","city_kana":"クロイシシ","town":"青山","town_kana":"アオヤマ","prefecture_code":2},"0537":{"zip_code":"0360537","prefecture":"青森県","prefecture_kana":"アオモリケン","city":"黒石市","city_kana":"クロイシシ","town":"赤坂","town_kana":"アカサカ","prefecture_code":2},"0321":{"zip_code":"0360321","prefecture":"青森県","prefecture_kana":"アオモリケン","city":"黒石市","city_kana":"クロイシシ","town":"あけぼの町","town_kana":"アケボノチョウ","prefecture_code":2},"0376":{"zip_code":"0360376","prefecture":"青森県","prefecture_kana":"アオモリケン","city":"黒石市","city_kana":"クロイシシ","town":"旭町","town_kana":"アサヒチョウ","prefecture_code":2},"0373":{"zip_code":"0360373","prefecture":"青森県","prefecture_kana":"アオモリケン","city":"黒石市","city_kana":"クロイシシ","town":"東町","town_kana":"アズマチョウ","prefecture_code":2},"0343":{"zip_code":"0360343","prefecture":"青森県","prefecture_kana":"アオモリケン","city":"黒石市","city_kana":"クロイシシ","town":"浅瀬石","town_kana":"アセイシ","prefecture_code":2},"0302":{"zip_code":"0360302","prefecture":"青森県","prefecture_kana":"アオモリケン","city":"黒石市","city_kana":"クロイシシ","town":"油横丁","town_kana":"アブラヨコチョウ","prefecture_code":2},"0342":{"zip_code":"0360342","prefecture":"青森県","prefecture_kana":"アオモリケン","city":"黒石市","city_kana":"クロイシシ","town":"石名坂","town_kana":"イシナザカ","prefecture_code":2},"0374":{"zip_code":"0360374","prefecture":"青森県","prefecture_kana":"アオモリケン","city":"黒石市","city_kana":"クロイシシ","town":"泉町","town_kana":"イズミチョウ","prefecture_code":2},"0404":{"zip_code":"0360404","prefecture":"青森県","prefecture_kana":"アオモリケン","city":"黒石市","city_kana":"クロイシシ","town":"板留","town_kana":"イタドメ","prefecture_code":2},"0307":{"zip_code":"0360307","prefecture":"青森県","prefecture_kana":"アオモリケン","city":"黒石市","city_kana":"クロイシシ","town":"市ノ町","town_kana":"イチノマチ","prefecture_code":2},"0301":{"zip_code":"0360301","prefecture":"青森県","prefecture_kana":"アオモリケン","city":"黒石市","city_kana":"クロイシシ","town":"一番町","town_kana":"イチバンチョウ","prefecture_code":2},"0318":{"zip_code":"0360318","prefecture":"青森県","prefecture_kana":"アオモリケン","city":"黒石市","city_kana":"クロイシシ","town":"岩木町","town_kana":"イワキチョウ","prefecture_code":2},"0354":{"zip_code":"0360354","prefecture":"青森県","prefecture_kana":"アオモリケン","city":"黒石市","city_kana":"クロイシシ","town":"後大工町","town_kana":"ウシロダイクマチ","prefecture_code":2},"0306":{"zip_code":"0360306","prefecture":"青森県","prefecture_kana":"アオモリケン","city":"黒石市","city_kana":"クロイシシ","town":"内町","town_kana":"ウチマチ","prefecture_code":2},"0366":{"zip_code":"0360366","prefecture":"青森県","prefecture_kana":"アオモリケン","city":"黒石市","city_kana":"クロイシシ","town":"浦町","town_kana":"ウラマチ","prefecture_code":2},"0385":{"zip_code":"0360385","prefecture":"青森県","prefecture_kana":"アオモリケン","city":"黒石市","city_kana":"クロイシシ","town":"大板町","town_kana":"オオイタマチ","prefecture_code":2},"0401":{"zip_code":"0360401","prefecture":"青森県","prefecture_kana":"アオモリケン","city":"黒石市","city_kana":"クロイシシ","town":"大川原","town_kana":"オオカワラ","prefecture_code":2},"0384":{"zip_code":"0360384","prefecture":"青森県","prefecture_kana":"アオモリケン","city":"黒石市","city_kana":"クロイシシ","town":"大町","town_kana":"オオマチ","prefecture_code":2},"0402":{"zip_code":"0360402","prefecture":"青森県","prefecture_kana":"アオモリケン","city":"黒石市","city_kana":"クロイシシ","town":"沖浦","town_kana":"オキウラ","prefecture_code":2},"0357":{"zip_code":"0360357","prefecture":"青森県","prefecture_kana":"アオモリケン","city":"黒石市","city_kana":"クロイシシ","town":"追子野木","town_kana":"オッコノキ","prefecture_code":2},"0353":{"zip_code":"0360353","prefecture":"青森県","prefecture_kana":"アオモリケン","city":"黒石市","city_kana":"クロイシシ","town":"乙大工町","town_kana":"オツダイクマチ","prefecture_code":2},"0305":{"zip_code":"0360305","prefecture":"青森県","prefecture_kana":"アオモリケン","city":"黒石市","city_kana":"クロイシシ","town":"乙徳兵衛町","town_kana":"オツトクベエマチ","prefecture_code":2},"0337":{"zip_code":"0360337","prefecture":"青森県","prefecture_kana":"アオモリケン","city":"黒石市","city_kana":"クロイシシ","town":"角田","town_kana":"カクタ","prefecture_code":2},"0363":{"zip_code":"0360363","prefecture":"青森県","prefecture_kana":"アオモリケン","city":"黒石市","city_kana":"クロイシシ","town":"鍛治町","town_kana":"カジマチ","prefecture_code":2},"0338":{"zip_code":"0360338","prefecture":"青森県","prefecture_kana":"アオモリケン","city":"黒石市","city_kana":"クロイシシ","town":"春日町","town_kana":"カスガチョウ","prefecture_code":2},"0323":{"zip_code":"0360323","prefecture":"青森県","prefecture_kana":"アオモリケン","city":"黒石市","city_kana":"クロイシシ","town":"上十川","town_kana":"カミトガワ","prefecture_code":2},"0538":{"zip_code":"0360538","prefecture":"青森県","prefecture_kana":"アオモリケン","city":"黒石市","city_kana":"クロイシシ","town":"上目内澤","town_kana":"カミメナイサワ","prefecture_code":2},"0415":{"zip_code":"0360415","prefecture":"青森県","prefecture_kana":"アオモリケン","city":"黒石市","city_kana":"クロイシシ","town":"上山形","town_kana":"カミヤマガタ","prefecture_code":2},"0386":{"zip_code":"0360386","prefecture":"青森県","prefecture_kana":"アオモリケン","city":"黒石市","city_kana":"クロイシシ","town":"上町","town_kana":"カンマチ","prefecture_code":2},"0523":{"zip_code":"0360523","prefecture":"青森県","prefecture_kana":"アオモリケン","city":"黒石市","city_kana":"クロイシシ","town":"北田中","town_kana":"キタタナカ","prefecture_code":2},"0541":{"zip_code":"0360541","prefecture":"青森県","prefecture_kana":"アオモリケン","city":"黒石市","city_kana":"クロイシシ","town":"北美町","town_kana":"キタミチョウ","prefecture_code":2},"0362":{"zip_code":"0360362","prefecture":"青森県","prefecture_kana":"アオモリケン","city":"黒石市","city_kana":"クロイシシ","town":"京町","town_kana":"キョウマチ","prefecture_code":2},"0316":{"zip_code":"0360316","prefecture":"青森県","prefecture_kana":"アオモリケン","city":"黒石市","city_kana":"クロイシシ","town":"ぐみの木","town_kana":"グミノキ","prefecture_code":2},"0381":{"zip_code":"0360381","prefecture":"青森県","prefecture_kana":"アオモリケン","city":"黒石市","city_kana":"クロイシシ","town":"株梗木","town_kana":"グミノキ","prefecture_code":2},"0303":{"zip_code":"0360303","prefecture":"青森県","prefecture_kana":"アオモリケン","city":"黒石市","city_kana":"クロイシシ","town":"株梗木横丁","town_kana":"グミノキヨコチョウ","prefecture_code":2},"0351":{"zip_code":"0360351","prefecture":"青森県","prefecture_kana":"アオモリケン","city":"黒石市","city_kana":"クロイシシ","town":"黒石","town_kana":"クロイシ","prefecture_code":2},"0352":{"zip_code":"0360352","prefecture":"青森県","prefecture_kana":"アオモリケン","city":"黒石市","city_kana":"クロイシシ","town":"甲大工町","town_kana":"コウダイクマチ","prefecture_code":2},"0304":{"zip_code":"0360304","prefecture":"青森県","prefecture_kana":"アオモリケン","city":"黒石市","city_kana":"クロイシシ","town":"甲徳兵衛町","town_kana":"コウトクベエマチ","prefecture_code":2},"0344":{"zip_code":"0360344","prefecture":"青森県","prefecture_kana":"アオモリケン","city":"黒石市","city_kana":"クロイシシ","town":"高賀野","town_kana":"コガノ","prefecture_code":2},"0315":{"zip_code":"0360315","prefecture":"青森県","prefecture_kana":"アオモリケン","city":"黒石市","city_kana":"クロイシシ","town":"寿町","town_kana":"コトブキチョウ","prefecture_code":2},"0511":{"zip_code":"0360511","prefecture":"青森県","prefecture_kana":"アオモリケン","city":"黒石市","city_kana":"クロイシシ","town":"小屋敷","town_kana":"コヤシキ","prefecture_code":2},"0513":{"zip_code":"0360513","prefecture":"青森県","prefecture_kana":"アオモリケン","city":"黒石市","city_kana":"クロイシシ","town":"小屋敷西","town_kana":"コヤシキニシ","prefecture_code":2},"0512":{"zip_code":"0360512","prefecture":"青森県","prefecture_kana":"アオモリケン","city":"黒石市","city_kana":"クロイシシ","town":"小屋敷南","town_kana":"コヤシキミナミ","prefecture_code":2},"0335":{"zip_code":"0360335","prefecture":"青森県","prefecture_kana":"アオモリケン","city":"黒石市","city_kana":"クロイシシ","town":"幸町","town_kana":"サイワイチョウ","prefecture_code":2},"0389":{"zip_code":"0360389","prefecture":"青森県","prefecture_kana":"アオモリケン","city":"黒石市","city_kana":"クロイシシ","town":"境松","town_kana":"サカイマツ","prefecture_code":2},"0333":{"zip_code":"0360333","prefecture":"青森県","prefecture_kana":"アオモリケン","city":"黒石市","city_kana":"クロイシシ","town":"柵ノ木","town_kana":"サクノキ","prefecture_code":2},"0382":{"zip_code":"0360382","prefecture":"青森県","prefecture_kana":"アオモリケン","city":"黒石市","city_kana":"クロイシシ","town":"作場町","town_kana":"サクバチョウ","prefecture_code":2},"0336":{"zip_code":"0360336","prefecture":"青森県","prefecture_kana":"アオモリケン","city":"黒石市","city_kana":"クロイシシ","town":"桜木町","town_kana":"サクラギチョウ","prefecture_code":2},"0539":{"zip_code":"0360539","prefecture":"青森県","prefecture_kana":"アオモリケン","city":"黒石市","city_kana":"クロイシシ","town":"下目内澤","town_kana":"シモメナイサワ","prefecture_code":2},"0414":{"zip_code":"0360414","prefecture":"青森県","prefecture_kana":"アオモリケン","city":"黒石市","city_kana":"クロイシシ","town":"下山形","town_kana":"シモヤマガタ","prefecture_code":2},"0312":{"zip_code":"0360312","prefecture":"青森県","prefecture_kana":"アオモリケン","city":"黒石市","city_kana":"クロイシシ","town":"昭和町","town_kana":"ショウワチョウ","prefecture_code":2},"0521":{"zip_code":"0360521","prefecture":"青森県","prefecture_kana":"アオモリケン","city":"黒石市","city_kana":"クロイシシ","town":"末広","town_kana":"スエヒロ","prefecture_code":2},"0317":{"zip_code":"0360317","prefecture":"青森県","prefecture_kana":"アオモリケン","city":"黒石市","city_kana":"クロイシシ","town":"住吉町","town_kana":"スミヨシチョウ","prefecture_code":2},"0535":{"zip_code":"0360535","prefecture":"青森県","prefecture_kana":"アオモリケン","city":"黒石市","city_kana":"クロイシシ","town":"高舘","town_kana":"タカダテ","prefecture_code":2},"0322":{"zip_code":"0360322","prefecture":"青森県","prefecture_kana":"アオモリケン","city":"黒石市","city_kana":"クロイシシ","town":"竹田町","town_kana":"タケダチョウ","prefecture_code":2},"0534":{"zip_code":"0360534","prefecture":"青森県","prefecture_kana":"アオモリケン","city":"黒石市","city_kana":"クロイシシ","town":"竹鼻","town_kana":"タケハナ","prefecture_code":2},"0522":{"zip_code":"0360522","prefecture":"青森県","prefecture_kana":"アオモリケン","city":"黒石市","city_kana":"クロイシシ","town":"田中","town_kana":"タナカ","prefecture_code":2},"0356":{"zip_code":"0360356","prefecture":"青森県","prefecture_kana":"アオモリケン","city":"黒石市","city_kana":"クロイシシ","town":"ちとせ","town_kana":"チトセ","prefecture_code":2},"0308":{"zip_code":"0360308","prefecture":"青森県","prefecture_kana":"アオモリケン","city":"黒石市","city_kana":"クロイシシ","town":"寺小路","town_kana":"テラコウジ","prefecture_code":2},"0531":{"zip_code":"0360531","prefecture":"青森県","prefecture_kana":"アオモリケン","city":"黒石市","city_kana":"クロイシシ","town":"飛内","town_kana":"トビナイ","prefecture_code":2},"0532":{"zip_code":"0360532","prefecture":"青森県","prefecture_kana":"アオモリケン","city":"黒石市","city_kana":"クロイシシ","town":"飛内北","town_kana":"トビナイキタ","prefecture_code":2},"0514":{"zip_code":"0360514","prefecture":"青森県","prefecture_kana":"アオモリケン","city":"黒石市","city_kana":"クロイシシ","town":"富田","town_kana":"トミタ","prefecture_code":2},"0341":{"zip_code":"0360341","prefecture":"青森県","prefecture_kana":"アオモリケン","city":"黒石市","city_kana":"クロイシシ","town":"豊岡","town_kana":"トヨオカ","prefecture_code":2},"0345":{"zip_code":"0360345","prefecture":"青森県","prefecture_kana":"アオモリケン","city":"黒石市","city_kana":"クロイシシ","town":"中川","town_kana":"ナカガワ","prefecture_code":2},"0377":{"zip_code":"0360377","prefecture":"青森県","prefecture_kana":"アオモリケン","city":"黒石市","city_kana":"クロイシシ","town":"中町","town_kana":"ナカマチ","prefecture_code":2},"0365":{"zip_code":"0360365","prefecture":"青森県","prefecture_kana":"アオモリケン","city":"黒石市","city_kana":"クロイシシ","town":"長崎","town_kana":"ナガサキ","prefecture_code":2},"0388":{"zip_code":"0360388","prefecture":"青森県","prefecture_kana":"アオモリケン","city":"黒石市","city_kana":"クロイシシ","town":"西ケ丘","town_kana":"ニシガオカ","prefecture_code":2},"0372":{"zip_code":"0360372","prefecture":"青森県","prefecture_kana":"アオモリケン","city":"黒石市","city_kana":"クロイシシ","town":"錦町","town_kana":"ニシキチョウ","prefecture_code":2},"0507":{"zip_code":"0360507","prefecture":"青森県","prefecture_kana":"アオモリケン","city":"黒石市","city_kana":"クロイシシ","town":"西馬場尻","town_kana":"ニシババシリ","prefecture_code":2},"0403":{"zip_code":"0360403","prefecture":"青森県","prefecture_kana":"アオモリケン","city":"黒石市","city_kana":"クロイシシ","town":"二庄内","town_kana":"ニショウナイ","prefecture_code":2},"0533":{"zip_code":"0360533","prefecture":"青森県","prefecture_kana":"アオモリケン","city":"黒石市","city_kana":"クロイシシ","town":"二双子","town_kana":"ニソウシ","prefecture_code":2},"0411":{"zip_code":"0360411","prefecture":"青森県","prefecture_kana":"アオモリケン","city":"黒石市","city_kana":"クロイシシ","town":"温湯","town_kana":"ヌルユ","prefecture_code":2},"0542":{"zip_code":"0360542","prefecture":"青森県","prefecture_kana":"アオモリケン","city":"黒石市","city_kana":"クロイシシ","town":"野際","town_kana":"ノギワ","prefecture_code":2},"0326":{"zip_code":"0360326","prefecture":"青森県","prefecture_kana":"アオモリケン","city":"黒石市","city_kana":"クロイシシ","town":"野添町","town_kana":"ノゾエチョウ","prefecture_code":2},"0331":{"zip_code":"0360331","prefecture":"青森県","prefecture_kana":"アオモリケン","city":"黒石市","city_kana":"クロイシシ","town":"八甲","town_kana":"ハッコウ","prefecture_code":2},"0371":{"zip_code":"0360371","prefecture":"青森県","prefecture_kana":"アオモリケン","city":"黒石市","city_kana":"クロイシシ","town":"花園町","town_kana":"ハナゾノチョウ","prefecture_code":2},"0413":{"zip_code":"0360413","prefecture":"青森県","prefecture_kana":"アオモリケン","city":"黒石市","city_kana":"クロイシシ","town":"花巻","town_kana":"ハナマキ","prefecture_code":2},"0503":{"zip_code":"0360503","prefecture":"青森県","prefecture_kana":"アオモリケン","city":"黒石市","city_kana":"クロイシシ","town":"馬場尻下","town_kana":"ババシリシモ","prefecture_code":2},"0504":{"zip_code":"0360504","prefecture":"青森県","prefecture_kana":"アオモリケン","city":"黒石市","city_kana":"クロイシシ","town":"馬場尻東","town_kana":"ババシリヒガシ","prefecture_code":2},"0506":{"zip_code":"0360506","prefecture":"青森県","prefecture_kana":"アオモリケン","city":"黒石市","city_kana":"クロイシシ","town":"馬場尻西","town_kana":"ババシリニシ","prefecture_code":2},"0505":{"zip_code":"0360505","prefecture":"青森県","prefecture_kana":"アオモリケン","city":"黒石市","city_kana":"クロイシシ","town":"馬場尻南","town_kana":"ババシリミナミ","prefecture_code":2},"0502":{"zip_code":"0360502","prefecture":"青森県","prefecture_kana":"アオモリケン","city":"黒石市","city_kana":"クロイシシ","town":"馬場尻北","town_kana":"ババシリキタ","prefecture_code":2},"0378":{"zip_code":"0360378","prefecture":"青森県","prefecture_kana":"アオモリケン","city":"黒石市","city_kana":"クロイシシ","town":"浜町","town_kana":"ハママチ","prefecture_code":2},"0334":{"zip_code":"0360334","prefecture":"青森県","prefecture_kana":"アオモリケン","city":"黒石市","city_kana":"クロイシシ","town":"東新町","town_kana":"ヒガシシンチョウ","prefecture_code":2},"0324":{"zip_code":"0360324","prefecture":"青森県","prefecture_kana":"アオモリケン","city":"黒石市","city_kana":"クロイシシ","town":"東野添","town_kana":"ヒガシノゾエ","prefecture_code":2},"0501":{"zip_code":"0360501","prefecture":"青森県","prefecture_kana":"アオモリケン","city":"黒石市","city_kana":"クロイシシ","town":"東馬場尻","town_kana":"ヒガシババシリ","prefecture_code":2},"0412":{"zip_code":"0360412","prefecture":"青森県","prefecture_kana":"アオモリケン","city":"黒石市","city_kana":"クロイシシ","town":"袋","town_kana":"フクロ","prefecture_code":2},"0355":{"zip_code":"0360355","prefecture":"青森県","prefecture_kana":"アオモリケン","city":"黒石市","city_kana":"クロイシシ","town":"袋井","town_kana":"フクロイ","prefecture_code":2},"0515":{"zip_code":"0360515","prefecture":"青森県","prefecture_kana":"アオモリケン","city":"黒石市","city_kana":"クロイシシ","town":"富士見","town_kana":"フジミ","prefecture_code":2},"0332":{"zip_code":"0360332","prefecture":"青森県","prefecture_kana":"アオモリケン","city":"黒石市","city_kana":"クロイシシ","town":"牡丹平","town_kana":"ボタンダイラ","prefecture_code":2},"0367":{"zip_code":"0360367","prefecture":"青森県","prefecture_kana":"アオモリケン","city":"黒石市","city_kana":"クロイシシ","town":"前町","town_kana":"マエマチ","prefecture_code":2},"0313":{"zip_code":"0360313","prefecture":"青森県","prefecture_kana":"アオモリケン","city":"黒石市","city_kana":"クロイシシ","town":"松葉町","town_kana":"マツバチョウ","prefecture_code":2},"0517":{"zip_code":"0360517","prefecture":"青森県","prefecture_kana":"アオモリケン","city":"黒石市","city_kana":"クロイシシ","town":"松原","town_kana":"マツバラ","prefecture_code":2},"0536":{"zip_code":"0360536","prefecture":"青森県","prefecture_kana":"アオモリケン","city":"黒石市","city_kana":"クロイシシ","town":"三島","town_kana":"ミシマ","prefecture_code":2},"0314":{"zip_code":"0360314","prefecture":"青森県","prefecture_kana":"アオモリケン","city":"黒石市","city_kana":"クロイシシ","town":"道北町","town_kana":"ミチキタチョウ","prefecture_code":2},"0524":{"zip_code":"0360524","prefecture":"青森県","prefecture_kana":"アオモリケン","city":"黒石市","city_kana":"クロイシシ","town":"緑ケ丘","town_kana":"ミドリガオカ","prefecture_code":2},"0383":{"zip_code":"0360383","prefecture":"青森県","prefecture_kana":"アオモリケン","city":"黒石市","city_kana":"クロイシシ","town":"緑町","town_kana":"ミドリチョウ","prefecture_code":2},"0405":{"zip_code":"0360405","prefecture":"青森県","prefecture_kana":"アオモリケン","city":"黒石市","city_kana":"クロイシシ","town":"南中野","town_kana":"ミナミナカノ","prefecture_code":2},"0339":{"zip_code":"0360339","prefecture":"青森県","prefecture_kana":"アオモリケン","city":"黒石市","city_kana":"クロイシシ","town":"美原町","town_kana":"ミハラチョウ","prefecture_code":2},"0387":{"zip_code":"0360387","prefecture":"青森県","prefecture_kana":"アオモリケン","city":"黒石市","city_kana":"クロイシシ","town":"元町","town_kana":"モトマチ","prefecture_code":2},"0364":{"zip_code":"0360364","prefecture":"青森県","prefecture_kana":"アオモリケン","city":"黒石市","city_kana":"クロイシシ","town":"山形町","town_kana":"ヤマガタマチ","prefecture_code":2},"0361":{"zip_code":"0360361","prefecture":"青森県","prefecture_kana":"アオモリケン","city":"黒石市","city_kana":"クロイシシ","town":"弥生町","town_kana":"ヤヨイチョウ","prefecture_code":2},"0368":{"zip_code":"0360368","prefecture":"青森県","prefecture_kana":"アオモリケン","city":"黒石市","city_kana":"クロイシシ","town":"横町","town_kana":"ヨコマチ","prefecture_code":2},"0311":{"zip_code":"0360311","prefecture":"青森県","prefecture_kana":"アオモリケン","city":"黒石市","city_kana":"クロイシシ","town":"吉乃町","town_kana":"ヨシノチョウ","prefecture_code":2},"0375":{"zip_code":"0360375","prefecture":"青森県","prefecture_kana":"アオモリケン","city":"黒石市","city_kana":"クロイシシ","town":"若葉町","town_kana":"ワカバチョウ","prefecture_code":2},"0100":{"zip_code":"0360100","prefecture":"青森県","prefecture_kana":"アオモリケン","city":"平川市","city_kana":"ヒラカワシ","town":"","town_kana":"","prefecture_code":2},"0112":[{"zip_code":"0360112","prefecture":"青森県","prefecture_kana":"アオモリケン","city":"平川市","city_kana":"ヒラカワシ","town":"荒田上駒田","town_kana":"アラタカミコマタ","prefecture_code":2},{"zip_code":"0360112","prefecture":"青森県","prefecture_kana":"アオモリケン","city":"平川市","city_kana":"ヒラカワシ","town":"荒田北稲村","town_kana":"アラタキタイナムラ","prefecture_code":2},{"zip_code":"0360112","prefecture":"青森県","prefecture_kana":"アオモリケン","city":"平川市","city_kana":"ヒラカワシ","town":"荒田北岡部","town_kana":"アラタキタオカベ","prefecture_code":2},{"zip_code":"0360112","prefecture":"青森県","prefecture_kana":"アオモリケン","city":"平川市","city_kana":"ヒラカワシ","town":"荒田下駒田","town_kana":"アラタシモコマタ","prefecture_code":2},{"zip_code":"0360112","prefecture":"青森県","prefecture_kana":"アオモリケン","city":"平川市","city_kana":"ヒラカワシ","town":"荒田南稲村","town_kana":"アラタミナミイナムラ","prefecture_code":2},{"zip_code":"0360112","prefecture":"青森県","prefecture_kana":"アオモリケン","city":"平川市","city_kana":"ヒラカワシ","town":"荒田南岡部","town_kana":"アラタミナミオカベ","prefecture_code":2}],"0121":[{"zip_code":"0360121","prefecture":"青森県","prefecture_kana":"アオモリケン","city":"平川市","city_kana":"ヒラカワシ","town":"新屋稲村","town_kana":"アラヤイナムラ","prefecture_code":2},{"zip_code":"0360121","prefecture":"青森県","prefecture_kana":"アオモリケン","city":"平川市","city_kana":"ヒラカワシ","town":"新屋長田","town_kana":"アラヤオサダ","prefecture_code":2},{"zip_code":"0360121","prefecture":"青森県","prefecture_kana":"アオモリケン","city":"平川市","city_kana":"ヒラカワシ","town":"新屋栄館","town_kana":"アラヤサカエダテ","prefecture_code":2},{"zip_code":"0360121","prefecture":"青森県","prefecture_kana":"アオモリケン","city":"平川市","city_kana":"ヒラカワシ","town":"新屋滝の沢","town_kana":"アラヤタキノサワ","prefecture_code":2},{"zip_code":"0360121","prefecture":"青森県","prefecture_kana":"アオモリケン","city":"平川市","city_kana":"ヒラカワシ","town":"新屋富山","town_kana":"アラヤトミヤマ","prefecture_code":2},{"zip_code":"0360121","prefecture":"青森県","prefecture_kana":"アオモリケン","city":"平川市","city_kana":"ヒラカワシ","town":"新屋平岡","town_kana":"アラヤヒラオカ","prefecture_code":2},{"zip_code":"0360121","prefecture":"青森県","prefecture_kana":"アオモリケン","city":"平川市","city_kana":"ヒラカワシ","town":"新屋平野","town_kana":"アラヤヒラノ","prefecture_code":2},{"zip_code":"0360121","prefecture":"青森県","prefecture_kana":"アオモリケン","city":"平川市","city_kana":"ヒラカワシ","town":"新屋福嶋","town_kana":"アラヤフクシマ","prefecture_code":2},{"zip_code":"0360121","prefecture":"青森県","prefecture_kana":"アオモリケン","city":"平川市","city_kana":"ヒラカワシ","town":"新屋山下","town_kana":"アラヤヤマシタ","prefecture_code":2}],"0213":[{"zip_code":"0360213","prefecture":"青森県","prefecture_kana":"アオモリケン","city":"平川市","city_kana":"ヒラカワシ","town":"新屋町上沢田","town_kana":"アラヤマチカミサワダ","prefecture_code":2},{"zip_code":"0360213","prefecture":"青森県","prefecture_kana":"アオモリケン","city":"平川市","city_kana":"ヒラカワシ","town":"新屋町北鶉野","town_kana":"アラヤマチキタウズラノ","prefecture_code":2},{"zip_code":"0360213","prefecture":"青森県","prefecture_kana":"アオモリケン","city":"平川市","city_kana":"ヒラカワシ","town":"新屋町下沢田","town_kana":"アラヤマチシモサワダ","prefecture_code":2},{"zip_code":"0360213","prefecture":"青森県","prefecture_kana":"アオモリケン","city":"平川市","city_kana":"ヒラカワシ","town":"新屋町田川","town_kana":"アラヤマチタガワ","prefecture_code":2},{"zip_code":"0360213","prefecture":"青森県","prefecture_kana":"アオモリケン","city":"平川市","city_kana":"ヒラカワシ","town":"新屋町松居","town_kana":"アラヤマチマツイ","prefecture_code":2},{"zip_code":"0360213","prefecture":"青森県","prefecture_kana":"アオモリケン","city":"平川市","city_kana":"ヒラカワシ","town":"新屋町松下","town_kana":"アラヤマチマツシタ","prefecture_code":2},{"zip_code":"0360213","prefecture":"青森県","prefecture_kana":"アオモリケン","city":"平川市","city_kana":"ヒラカワシ","town":"新屋町松久","town_kana":"アラヤマチマツヒサ","prefecture_code":2},{"zip_code":"0360213","prefecture":"青森県","prefecture_kana":"アオモリケン","city":"平川市","city_kana":"ヒラカワシ","town":"新屋町道ノ下","town_kana":"アラヤマチミチノシタ","prefecture_code":2},{"zip_code":"0360213","prefecture":"青森県","prefecture_kana":"アオモリケン","city":"平川市","city_kana":"ヒラカワシ","town":"新屋町南鶉野","town_kana":"アラヤマチミナミウズラノ","prefecture_code":2},{"zip_code":"0360213","prefecture":"青森県","prefecture_kana":"アオモリケン","city":"平川市","city_kana":"ヒラカワシ","town":"新屋町村元","town_kana":"アラヤマチムラモト","prefecture_code":2}],"0151":[{"zip_code":"0360151","prefecture":"青森県","prefecture_kana":"アオモリケン","city":"平川市","city_kana":"ヒラカワシ","town":"石郷沖中","town_kana":"イシゴウオキナカ","prefecture_code":2},{"zip_code":"0360151","prefecture":"青森県","prefecture_kana":"アオモリケン","city":"平川市","city_kana":"ヒラカワシ","town":"石郷村元","town_kana":"イシゴウムラモト","prefecture_code":2},{"zip_code":"0360151","prefecture":"青森県","prefecture_kana":"アオモリケン","city":"平川市","city_kana":"ヒラカワシ","town":"石郷柳田","town_kana":"イシゴウヤナギダ","prefecture_code":2}],"0152":{"zip_code":"0360152","prefecture":"青森県","prefecture_kana":"アオモリケン","city":"平川市","city_kana":"ヒラカワシ","town":"石畑岡元","town_kana":"イシハタケオカモト","prefecture_code":2},"0145":[{"zip_code":"0360145","prefecture":"青森県","prefecture_kana":"アオモリケン","city":"平川市","city_kana":"ヒラカワシ","town":"岩館長田","town_kana":"イワダテオサダ","prefecture_code":2},{"zip_code":"0360145","prefecture":"青森県","prefecture_kana":"アオモリケン","city":"平川市","city_kana":"ヒラカワシ","town":"岩館下り松","town_kana":"イワダテサガリマツ","prefecture_code":2},{"zip_code":"0360145","prefecture":"青森県","prefecture_kana":"アオモリケン","city":"平川市","city_kana":"ヒラカワシ","town":"岩館藤巻","town_kana":"イワダテフジマキ","prefecture_code":2},{"zip_code":"0360145","prefecture":"青森県","prefecture_kana":"アオモリケン","city":"平川市","city_kana":"ヒラカワシ","town":"岩館村元","town_kana":"イワダテムラモト","prefecture_code":2},{"zip_code":"0360145","prefecture":"青森県","prefecture_kana":"アオモリケン","city":"平川市","city_kana":"ヒラカワシ","town":"岩館山の井","town_kana":"イワダテヤマノイ","prefecture_code":2}],"0141":[{"zip_code":"0360141","prefecture":"青森県","prefecture_kana":"アオモリケン","city":"平川市","city_kana":"ヒラカワシ","town":"沖館長田","town_kana":"オキダテオサダ","prefecture_code":2},{"zip_code":"0360141","prefecture":"青森県","prefecture_kana":"アオモリケン","city":"平川市","city_kana":"ヒラカワシ","town":"沖館沢田","town_kana":"オキダテサワタ","prefecture_code":2},{"zip_code":"0360141","prefecture":"青森県","prefecture_kana":"アオモリケン","city":"平川市","city_kana":"ヒラカワシ","town":"沖館高田","town_kana":"オキダテタカダ","prefecture_code":2},{"zip_code":"0360141","prefecture":"青森県","prefecture_kana":"アオモリケン","city":"平川市","city_kana":"ヒラカワシ","town":"沖館永田","town_kana":"オキダテナガタ","prefecture_code":2},{"zip_code":"0360141","prefecture":"青森県","prefecture_kana":"アオモリケン","city":"平川市","city_kana":"ヒラカワシ","town":"沖館西田","town_kana":"オキダテニシタ","prefecture_code":2},{"zip_code":"0360141","prefecture":"青森県","prefecture_kana":"アオモリケン","city":"平川市","city_kana":"ヒラカワシ","town":"沖館比山館","town_kana":"オキダテヒヤマダテ","prefecture_code":2},{"zip_code":"0360141","prefecture":"青森県","prefecture_kana":"アオモリケン","city":"平川市","city_kana":"ヒラカワシ","town":"沖館宮崎","town_kana":"オキダテミヤザキ","prefecture_code":2},{"zip_code":"0360141","prefecture":"青森県","prefecture_kana":"アオモリケン","city":"平川市","city_kana":"ヒラカワシ","town":"沖館向野","town_kana":"オキダテムカイノ","prefecture_code":2},{"zip_code":"0360141","prefecture":"青森県","prefecture_kana":"アオモリケン","city":"平川市","city_kana":"ヒラカワシ","town":"沖館和田","town_kana":"オキダテワダ","prefecture_code":2}],"0171":[{"zip_code":"0360171","prefecture":"青森県","prefecture_kana":"アオモリケン","city":"平川市","city_kana":"ヒラカワシ","town":"小国浅瀬石山","town_kana":"オグニアセイシヤマ","prefecture_code":2},{"zip_code":"0360171","prefecture":"青森県","prefecture_kana":"アオモリケン","city":"平川市","city_kana":"ヒラカワシ","town":"小国川辺","town_kana":"オグニカワベ","prefecture_code":2},{"zip_code":"0360171","prefecture":"青森県","prefecture_kana":"アオモリケン","city":"平川市","city_kana":"ヒラカワシ","town":"小国川原田","town_kana":"オグニカワラダ","prefecture_code":2},{"zip_code":"0360171","prefecture":"青森県","prefecture_kana":"アオモリケン","city":"平川市","city_kana":"ヒラカワシ","town":"小国深沢","town_kana":"オグニフカサワ","prefecture_code":2},{"zip_code":"0360171","prefecture":"青森県","prefecture_kana":"アオモリケン","city":"平川市","city_kana":"ヒラカワシ","town":"小国山下","town_kana":"オグニヤマシタ","prefecture_code":2}],"0122":[{"zip_code":"0360122","prefecture":"青森県","prefecture_kana":"アオモリケン","city":"平川市","city_kana":"ヒラカワシ","town":"尾崎浅井","town_kana":"オサキアサイ","prefecture_code":2},{"zip_code":"0360122","prefecture":"青森県","prefecture_kana":"アオモリケン","city":"平川市","city_kana":"ヒラカワシ","town":"尾崎稲元","town_kana":"オサキイナモト","prefecture_code":2},{"zip_code":"0360122","prefecture":"青森県","prefecture_kana":"アオモリケン","city":"平川市","city_kana":"ヒラカワシ","town":"尾崎岡田","town_kana":"オサキオカダ","prefecture_code":2},{"zip_code":"0360122","prefecture":"青森県","prefecture_kana":"アオモリケン","city":"平川市","city_kana":"ヒラカワシ","town":"尾崎川合","town_kana":"オサキカワイ","prefecture_code":2},{"zip_code":"0360122","prefecture":"青森県","prefecture_kana":"アオモリケン","city":"平川市","city_kana":"ヒラカワシ","town":"尾崎木戸口","town_kana":"オサキキドグチ","prefecture_code":2},{"zip_code":"0360122","prefecture":"青森県","prefecture_kana":"アオモリケン","city":"平川市","city_kana":"ヒラカワシ","town":"尾崎里見","town_kana":"オサキサトミ","prefecture_code":2},{"zip_code":"0360122","prefecture":"青森県","prefecture_kana":"アオモリケン","city":"平川市","city_kana":"ヒラカワシ","town":"尾崎沢部","town_kana":"オサキサワベ","prefecture_code":2},{"zip_code":"0360122","prefecture":"青森県","prefecture_kana":"アオモリケン","city":"平川市","city_kana":"ヒラカワシ","town":"尾崎平山","town_kana":"オサキヒラヤマ","prefecture_code":2},{"zip_code":"0360122","prefecture":"青森県","prefecture_kana":"アオモリケン","city":"平川市","city_kana":"ヒラカワシ","town":"尾崎安田","town_kana":"オサキヤスタ","prefecture_code":2}],"0222":[{"zip_code":"0360222","prefecture":"青森県","prefecture_kana":"アオモリケン","city":"平川市","city_kana":"ヒラカワシ","town":"長田沼田","town_kana":"オサダヌマタ","prefecture_code":2},{"zip_code":"0360222","prefecture":"青森県","prefecture_kana":"アオモリケン","city":"平川市","city_kana":"ヒラカワシ","town":"長田野田","town_kana":"オサダノダ","prefecture_code":2},{"zip_code":"0360222","prefecture":"青森県","prefecture_kana":"アオモリケン","city":"平川市","city_kana":"ヒラカワシ","town":"長田村下","town_kana":"オサダムラシタ","prefecture_code":2},{"zip_code":"0360222","prefecture":"青森県","prefecture_kana":"アオモリケン","city":"平川市","city_kana":"ヒラカワシ","town":"長田元村","town_kana":"オサダモトムラ","prefecture_code":2}],"0212":{"zip_code":"0360212","prefecture":"青森県","prefecture_kana":"アオモリケン","city":"平川市","city_kana":"ヒラカワシ","town":"尾上栄松","town_kana":"オノエサカエマツ","prefecture_code":2},"0104":[{"zip_code":"0360104","prefecture":"青森県","prefecture_kana":"アオモリケン","city":"平川市","city_kana":"ヒラカワシ","town":"柏木町東田","town_kana":"カシワギマチヒガシダ","prefecture_code":2},{"zip_code":"0360104","prefecture":"青森県","prefecture_kana":"アオモリケン","city":"平川市","city_kana":"ヒラカワシ","town":"柏木町広田","town_kana":"カシワギマチヒロダ","prefecture_code":2},{"zip_code":"0360104","prefecture":"青森県","prefecture_kana":"アオモリケン","city":"平川市","city_kana":"ヒラカワシ","town":"柏木町藤山","town_kana":"カシワギマチフジヤマ","prefecture_code":2},{"zip_code":"0360104","prefecture":"青森県","prefecture_kana":"アオモリケン","city":"平川市","city_kana":"ヒラカワシ","town":"柏木町柳田","town_kana":"カシワギマチヤナギダ","prefecture_code":2}],"0202":[{"zip_code":"0360202","prefecture":"青森県","prefecture_kana":"アオモリケン","city":"平川市","city_kana":"ヒラカワシ","town":"金屋上松元","town_kana":"カナヤカミマツモト","prefecture_code":2},{"zip_code":"0360202","prefecture":"青森県","prefecture_kana":"アオモリケン","city":"平川市","city_kana":"ヒラカワシ","town":"金屋上早稲田","town_kana":"カナヤカミワセダ","prefecture_code":2},{"zip_code":"0360202","prefecture":"青森県","prefecture_kana":"アオモリケン","city":"平川市","city_kana":"ヒラカワシ","town":"金屋下松元","town_kana":"カナヤシモマツモト","prefecture_code":2},{"zip_code":"0360202","prefecture":"青森県","prefecture_kana":"アオモリケン","city":"平川市","city_kana":"ヒラカワシ","town":"金屋下早稲田","town_kana":"カナヤシモワセダ","prefecture_code":2},{"zip_code":"0360202","prefecture":"青森県","prefecture_kana":"アオモリケン","city":"平川市","city_kana":"ヒラカワシ","town":"金屋中松元","town_kana":"カナヤナカマツモト","prefecture_code":2},{"zip_code":"0360202","prefecture":"青森県","prefecture_kana":"アオモリケン","city":"平川市","city_kana":"ヒラカワシ","town":"金屋中早稲田","town_kana":"カナヤナカワセダ","prefecture_code":2},{"zip_code":"0360202","prefecture":"青森県","prefecture_kana":"アオモリケン","city":"平川市","city_kana":"ヒラカワシ","town":"金屋西松元","town_kana":"カナヤニシマツモト","prefecture_code":2}],"0232":[{"zip_code":"0360232","prefecture":"青森県","prefecture_kana":"アオモリケン","city":"平川市","city_kana":"ヒラカワシ","town":"蒲田一本松","town_kana":"ガマタイッポンマツ","prefecture_code":2},{"zip_code":"0360232","prefecture":"青森県","prefecture_kana":"アオモリケン","city":"平川市","city_kana":"ヒラカワシ","town":"蒲田玉田","town_kana":"ガマタタマダ","prefecture_code":2},{"zip_code":"0360232","prefecture":"青森県","prefecture_kana":"アオモリケン","city":"平川市","city_kana":"ヒラカワシ","town":"蒲田豊田","town_kana":"ガマタトヨタ","prefecture_code":2},{"zip_code":"0360232","prefecture":"青森県","prefecture_kana":"アオモリケン","city":"平川市","city_kana":"ヒラカワシ","town":"蒲田豊富","town_kana":"ガマタトヨトミ","prefecture_code":2},{"zip_code":"0360232","prefecture":"青森県","prefecture_kana":"アオモリケン","city":"平川市","city_kana":"ヒラカワシ","town":"蒲田三原","town_kana":"ガマタミハラ","prefecture_code":2},{"zip_code":"0360232","prefecture":"青森県","prefecture_kana":"アオモリケン","city":"平川市","city_kana":"ヒラカワシ","town":"蒲田元宮","town_kana":"ガマタモトミヤ","prefecture_code":2}],"0132":[{"zip_code":"0360132","prefecture":"青森県","prefecture_kana":"アオモリケン","city":"平川市","city_kana":"ヒラカワシ","town":"唐竹芦毛沢","town_kana":"カラタケアシゲサワ","prefecture_code":2},{"zip_code":"0360132","prefecture":"青森県","prefecture_kana":"アオモリケン","city":"平川市","city_kana":"ヒラカワシ","town":"唐竹阿蘇獄","town_kana":"カラタケアソダケ","prefecture_code":2},{"zip_code":"0360132","prefecture":"青森県","prefecture_kana":"アオモリケン","city":"平川市","city_kana":"ヒラカワシ","town":"唐竹井沢","town_kana":"カラタケイザワ","prefecture_code":2},{"zip_code":"0360132","prefecture":"青森県","prefecture_kana":"アオモリケン","city":"平川市","city_kana":"ヒラカワシ","town":"唐竹苺原","town_kana":"カラタケイチゴハラ","prefecture_code":2},{"zip_code":"0360132","prefecture":"青森県","prefecture_kana":"アオモリケン","city":"平川市","city_kana":"ヒラカワシ","town":"唐竹川原田","town_kana":"カラタケカワラダ","prefecture_code":2},{"zip_code":"0360132","prefecture":"青森県","prefecture_kana":"アオモリケン","city":"平川市","city_kana":"ヒラカワシ","town":"唐竹小金森","town_kana":"カラタケコガネモリ","prefecture_code":2},{"zip_code":"0360132","prefecture":"青森県","prefecture_kana":"アオモリケン","city":"平川市","city_kana":"ヒラカワシ","town":"唐竹小松原","town_kana":"カラタケコマツハラ","prefecture_code":2},{"zip_code":"0360132","prefecture":"青森県","prefecture_kana":"アオモリケン","city":"平川市","city_kana":"ヒラカワシ","town":"唐竹高田","town_kana":"カラタケタカダ","prefecture_code":2},{"zip_code":"0360132","prefecture":"青森県","prefecture_kana":"アオモリケン","city":"平川市","city_kana":"ヒラカワシ","town":"唐竹平山","town_kana":"カラタケヒラヤマ","prefecture_code":2},{"zip_code":"0360132","prefecture":"青森県","prefecture_kana":"アオモリケン","city":"平川市","city_kana":"ヒラカワシ","town":"唐竹堀合","town_kana":"カラタケホリアイ","prefecture_code":2},{"zip_code":"0360132","prefecture":"青森県","prefecture_kana":"アオモリケン","city":"平川市","city_kana":"ヒラカワシ","town":"唐竹水上","town_kana":"カラタケミズカミ","prefecture_code":2},{"zip_code":"0360132","prefecture":"青森県","prefecture_kana":"アオモリケン","city":"平川市","city_kana":"ヒラカワシ","town":"唐竹向川原田","town_kana":"カラタケムカイカワラダ","prefecture_code":2},{"zip_code":"0360132","prefecture":"青森県","prefecture_kana":"アオモリケン","city":"平川市","city_kana":"ヒラカワシ","town":"唐竹薬師沢","town_kana":"カラタケヤクシザワ","prefecture_code":2}],"0173":[{"zip_code":"0360173","prefecture":"青森県","prefecture_kana":"アオモリケン","city":"平川市","city_kana":"ヒラカワシ","town":"切明浅瀬石山","town_kana":"キリアケアセイシヤマ","prefecture_code":2},{"zip_code":"0360173","prefecture":"青森県","prefecture_kana":"アオモリケン","city":"平川市","city_kana":"ヒラカワシ","town":"切明上井戸","town_kana":"キリアケカミイド","prefecture_code":2},{"zip_code":"0360173","prefecture":"青森県","prefecture_kana":"アオモリケン","city":"平川市","city_kana":"ヒラカワシ","town":"切明誉田邸","town_kana":"キリアケコンタヤシキ","prefecture_code":2},{"zip_code":"0360173","prefecture":"青森県","prefecture_kana":"アオモリケン","city":"平川市","city_kana":"ヒラカワシ","town":"切明坂本","town_kana":"キリアケサカモト","prefecture_code":2},{"zip_code":"0360173","prefecture":"青森県","prefecture_kana":"アオモリケン","city":"平川市","city_kana":"ヒラカワシ","town":"切明滝の森","town_kana":"キリアケタキノモリ","prefecture_code":2},{"zip_code":"0360173","prefecture":"青森県","prefecture_kana":"アオモリケン","city":"平川市","city_kana":"ヒラカワシ","town":"切明滝候沢","town_kana":"キリアケタッコウサワ","prefecture_code":2},{"zip_code":"0360173","prefecture":"青森県","prefecture_kana":"アオモリケン","city":"平川市","city_kana":"ヒラカワシ","town":"切明津根川森","town_kana":"キリアケツネカワモリ","prefecture_code":2},{"zip_code":"0360173","prefecture":"青森県","prefecture_kana":"アオモリケン","city":"平川市","city_kana":"ヒラカワシ","town":"切明温川沢","town_kana":"キリアケヌルカワサワ","prefecture_code":2},{"zip_code":"0360173","prefecture":"青森県","prefecture_kana":"アオモリケン","city":"平川市","city_kana":"ヒラカワシ","town":"切明温川森","town_kana":"キリアケヌルカワモリ","prefecture_code":2},{"zip_code":"0360173","prefecture":"青森県","prefecture_kana":"アオモリケン","city":"平川市","city_kana":"ヒラカワシ","town":"切明螢沢","town_kana":"キリアケホタルサワ","prefecture_code":2},{"zip_code":"0360173","prefecture":"青森県","prefecture_kana":"アオモリケン","city":"平川市","city_kana":"ヒラカワシ","town":"切明山下","town_kana":"キリアケヤマシタ","prefecture_code":2}],"0172":[{"zip_code":"0360172","prefecture":"青森県","prefecture_kana":"アオモリケン","city":"平川市","city_kana":"ヒラカワシ","town":"葛川浅瀬石山","town_kana":"クズカワアセイシヤマ","prefecture_code":2},{"zip_code":"0360172","prefecture":"青森県","prefecture_kana":"アオモリケン","city":"平川市","city_kana":"ヒラカワシ","town":"葛川一本木平","town_kana":"クズカワイッポンギタイラ","prefecture_code":2},{"zip_code":"0360172","prefecture":"青森県","prefecture_kana":"アオモリケン","city":"平川市","city_kana":"ヒラカワシ","town":"葛川大川添","town_kana":"クズカワオオカワゾエ","prefecture_code":2},{"zip_code":"0360172","prefecture":"青森県","prefecture_kana":"アオモリケン","city":"平川市","city_kana":"ヒラカワシ","town":"葛川折戸","town_kana":"クズカワオリト","prefecture_code":2},{"zip_code":"0360172","prefecture":"青森県","prefecture_kana":"アオモリケン","city":"平川市","city_kana":"ヒラカワシ","town":"葛川上の平","town_kana":"クズカワカミノタイラ","prefecture_code":2},{"zip_code":"0360172","prefecture":"青森県","prefecture_kana":"アオモリケン","city":"平川市","city_kana":"ヒラカワシ","town":"葛川唐川平","town_kana":"クズカワカラカワタイラ","prefecture_code":2},{"zip_code":"0360172","prefecture":"青森県","prefecture_kana":"アオモリケン","city":"平川市","city_kana":"ヒラカワシ","town":"葛川葛川沢","town_kana":"クズカワクズカワサワ","prefecture_code":2},{"zip_code":"0360172","prefecture":"青森県","prefecture_kana":"アオモリケン","city":"平川市","city_kana":"ヒラカワシ","town":"葛川葛川平","town_kana":"クズカワクズカワタイラ","prefecture_code":2},{"zip_code":"0360172","prefecture":"青森県","prefecture_kana":"アオモリケン","city":"平川市","city_kana":"ヒラカワシ","town":"葛川葛川出口","town_kana":"クズカワクズカワデグチ","prefecture_code":2},{"zip_code":"0360172","prefecture":"青森県","prefecture_kana":"アオモリケン","city":"平川市","city_kana":"ヒラカワシ","town":"葛川毛無森","town_kana":"クズカワケナシモリ","prefecture_code":2},{"zip_code":"0360172","prefecture":"青森県","prefecture_kana":"アオモリケン","city":"平川市","city_kana":"ヒラカワシ","town":"葛川砂子沢","town_kana":"クズカワスナコザワ","prefecture_code":2},{"zip_code":"0360172","prefecture":"青森県","prefecture_kana":"アオモリケン","city":"平川市","city_kana":"ヒラカワシ","town":"葛川田の沢口","town_kana":"クズカワタノサワグチ","prefecture_code":2},{"zip_code":"0360172","prefecture":"青森県","prefecture_kana":"アオモリケン","city":"平川市","city_kana":"ヒラカワシ","town":"葛川長小股","town_kana":"クズカワナガコマタ","prefecture_code":2},{"zip_code":"0360172","prefecture":"青森県","prefecture_kana":"アオモリケン","city":"平川市","city_kana":"ヒラカワシ","town":"葛川平六沢上","town_kana":"クズカワヘイロクサワカミ","prefecture_code":2},{"zip_code":"0360172","prefecture":"青森県","prefecture_kana":"アオモリケン","city":"平川市","city_kana":"ヒラカワシ","town":"葛川平六村下","town_kana":"クズカワヘイロクムラシタ","prefecture_code":2},{"zip_code":"0360172","prefecture":"青森県","prefecture_kana":"アオモリケン","city":"平川市","city_kana":"ヒラカワシ","town":"葛川家岸","town_kana":"クズカワヤギシ","prefecture_code":2}],"0102":{"zip_code":"0360102","prefecture":"青森県","prefecture_kana":"アオモリケン","city":"平川市","city_kana":"ヒラカワシ","town":"光城","town_kana":"コウジョウ","prefecture_code":2},"0153":[{"zip_code":"0360153","prefecture":"青森県","prefecture_kana":"アオモリケン","city":"平川市","city_kana":"ヒラカワシ","town":"小杉稲村","town_kana":"コスギイナムラ","prefecture_code":2},{"zip_code":"0360153","prefecture":"青森県","prefecture_kana":"アオモリケン","city":"平川市","city_kana":"ヒラカワシ","town":"小杉扇田","town_kana":"コスギオウギダ","prefecture_code":2},{"zip_code":"0360153","prefecture":"青森県","prefecture_kana":"アオモリケン","city":"平川市","city_kana":"ヒラカワシ","town":"小杉川崎","town_kana":"コスギカワサキ","prefecture_code":2},{"zip_code":"0360153","prefecture":"青森県","prefecture_kana":"アオモリケン","city":"平川市","city_kana":"ヒラカワシ","town":"小杉竹内","town_kana":"コスギタケウチ","prefecture_code":2},{"zip_code":"0360153","prefecture":"青森県","prefecture_kana":"アオモリケン","city":"平川市","city_kana":"ヒラカワシ","town":"小杉西田","town_kana":"コスギニシタ","prefecture_code":2}],"0111":[{"zip_code":"0360111","prefecture":"青森県","prefecture_kana":"アオモリケン","city":"平川市","city_kana":"ヒラカワシ","town":"小和森上田川","town_kana":"コワモリカミタガワ","prefecture_code":2},{"zip_code":"0360111","prefecture":"青森県","prefecture_kana":"アオモリケン","city":"平川市","city_kana":"ヒラカワシ","town":"小和森上平田","town_kana":"コワモリカミヒラタ","prefecture_code":2},{"zip_code":"0360111","prefecture":"青森県","prefecture_kana":"アオモリケン","city":"平川市","city_kana":"ヒラカワシ","town":"小和森上松岡","town_kana":"コワモリカミマツオカ","prefecture_code":2},{"zip_code":"0360111","prefecture":"青森県","prefecture_kana":"アオモリケン","city":"平川市","city_kana":"ヒラカワシ","town":"小和森下田川","town_kana":"コワモリシモタガワ","prefecture_code":2},{"zip_code":"0360111","prefecture":"青森県","prefecture_kana":"アオモリケン","city":"平川市","city_kana":"ヒラカワシ","town":"小和森下平田","town_kana":"コワモリシモヒラタ","prefecture_code":2},{"zip_code":"0360111","prefecture":"青森県","prefecture_kana":"アオモリケン","city":"平川市","city_kana":"ヒラカワシ","town":"小和森下松岡","town_kana":"コワモリシモマツオカ","prefecture_code":2},{"zip_code":"0360111","prefecture":"青森県","prefecture_kana":"アオモリケン","city":"平川市","city_kana":"ヒラカワシ","town":"小和森種取","town_kana":"コワモリタネトリ","prefecture_code":2},{"zip_code":"0360111","prefecture":"青森県","prefecture_kana":"アオモリケン","city":"平川市","city_kana":"ヒラカワシ","town":"小和森中松岡","town_kana":"コワモリナカマツオカ","prefecture_code":2},{"zip_code":"0360111","prefecture":"青森県","prefecture_kana":"アオモリケン","city":"平川市","city_kana":"ヒラカワシ","town":"小和森福田","town_kana":"コワモリフクダ","prefecture_code":2},{"zip_code":"0360111","prefecture":"青森県","prefecture_kana":"アオモリケン","city":"平川市","city_kana":"ヒラカワシ","town":"小和森松川","town_kana":"コワモリマツカワ","prefecture_code":2},{"zip_code":"0360111","prefecture":"青森県","prefecture_kana":"アオモリケン","city":"平川市","city_kana":"ヒラカワシ","town":"小和森松村","town_kana":"コワモリマツムラ","prefecture_code":2}],"0242":[{"zip_code":"0360242","prefecture":"青森県","prefecture_kana":"アオモリケン","city":"平川市","city_kana":"ヒラカワシ","town":"猿賀浅井","town_kana":"サルカアサイ","prefecture_code":2},{"zip_code":"0360242","prefecture":"青森県","prefecture_kana":"アオモリケン","city":"平川市","city_kana":"ヒラカワシ","town":"猿賀浅田","town_kana":"サルカアサダ","prefecture_code":2},{"zip_code":"0360242","prefecture":"青森県","prefecture_kana":"アオモリケン","city":"平川市","city_kana":"ヒラカワシ","town":"猿賀池上","town_kana":"サルカイケガミ","prefecture_code":2},{"zip_code":"0360242","prefecture":"青森県","prefecture_kana":"アオモリケン","city":"平川市","city_kana":"ヒラカワシ","town":"猿賀池田","town_kana":"サルカイケダ","prefecture_code":2},{"zip_code":"0360242","prefecture":"青森県","prefecture_kana":"アオモリケン","city":"平川市","city_kana":"ヒラカワシ","town":"猿賀石林","town_kana":"サルカイシバヤシ","prefecture_code":2},{"zip_code":"0360242","prefecture":"青森県","prefecture_kana":"アオモリケン","city":"平川市","city_kana":"ヒラカワシ","town":"猿賀上岡","town_kana":"サルカカミオカ","prefecture_code":2},{"zip_code":"0360242","prefecture":"青森県","prefecture_kana":"アオモリケン","city":"平川市","city_kana":"ヒラカワシ","town":"猿賀上川","town_kana":"サルカカミカワ","prefecture_code":2},{"zip_code":"0360242","prefecture":"青森県","prefecture_kana":"アオモリケン","city":"平川市","city_kana":"ヒラカワシ","town":"猿賀下岡","town_kana":"サルカシモオカ","prefecture_code":2},{"zip_code":"0360242","prefecture":"青森県","prefecture_kana":"アオモリケン","city":"平川市","city_kana":"ヒラカワシ","town":"猿賀下川","town_kana":"サルカシモカワ","prefecture_code":2},{"zip_code":"0360242","prefecture":"青森県","prefecture_kana":"アオモリケン","city":"平川市","city_kana":"ヒラカワシ","town":"猿賀下野","town_kana":"サルカシモノ","prefecture_code":2},{"zip_code":"0360242","prefecture":"青森県","prefecture_kana":"アオモリケン","city":"平川市","city_kana":"ヒラカワシ","town":"猿賀遠林","town_kana":"サルカトオバヤシ","prefecture_code":2},{"zip_code":"0360242","prefecture":"青森県","prefecture_kana":"アオモリケン","city":"平川市","city_kana":"ヒラカワシ","town":"猿賀富岡","town_kana":"サルカトミオカ","prefecture_code":2},{"zip_code":"0360242","prefecture":"青森県","prefecture_kana":"アオモリケン","city":"平川市","city_kana":"ヒラカワシ","town":"猿賀平塚","town_kana":"サルカヒラツカ","prefecture_code":2},{"zip_code":"0360242","prefecture":"青森県","prefecture_kana":"アオモリケン","city":"平川市","city_kana":"ヒラカワシ","town":"猿賀松枝","town_kana":"サルカマツエダ","prefecture_code":2},{"zip_code":"0360242","prefecture":"青森県","prefecture_kana":"アオモリケン","city":"平川市","city_kana":"ヒラカワシ","town":"猿賀南田","town_kana":"サルカミナミタ","prefecture_code":2},{"zip_code":"0360242","prefecture":"青森県","prefecture_kana":"アオモリケン","city":"平川市","city_kana":"ヒラカワシ","town":"猿賀南野","town_kana":"サルカミナミノ","prefecture_code":2},{"zip_code":"0360242","prefecture":"青森県","prefecture_kana":"アオモリケン","city":"平川市","city_kana":"ヒラカワシ","town":"猿賀明堂","town_kana":"サルカミョウドウ","prefecture_code":2},{"zip_code":"0360242","prefecture":"青森県","prefecture_kana":"アオモリケン","city":"平川市","city_kana":"ヒラカワシ","town":"猿賀安岡","town_kana":"サルカヤスオカ","prefecture_code":2},{"zip_code":"0360242","prefecture":"青森県","prefecture_kana":"アオモリケン","city":"平川市","city_kana":"ヒラカワシ","town":"猿賀安田","town_kana":"サルカヤスタ","prefecture_code":2}],"0161":[{"zip_code":"0360161","prefecture":"青森県","prefecture_kana":"アオモリケン","city":"平川市","city_kana":"ヒラカワシ","town":"杉館滝元","town_kana":"スギダテタキモト","prefecture_code":2},{"zip_code":"0360161","prefecture":"青森県","prefecture_kana":"アオモリケン","city":"平川市","city_kana":"ヒラカワシ","town":"杉館松橋","town_kana":"スギダテマツハシ","prefecture_code":2},{"zip_code":"0360161","prefecture":"青森県","prefecture_kana":"アオモリケン","city":"平川市","city_kana":"ヒラカワシ","town":"杉館宮元","town_kana":"スギダテミヤモト","prefecture_code":2}],"0201":[{"zip_code":"0360201","prefecture":"青森県","prefecture_kana":"アオモリケン","city":"平川市","city_kana":"ヒラカワシ","town":"李平上安原","town_kana":"スモモダイカミヤスハラ","prefecture_code":2},{"zip_code":"0360201","prefecture":"青森県","prefecture_kana":"アオモリケン","city":"平川市","city_kana":"ヒラカワシ","town":"李平上山崎","town_kana":"スモモダイカミヤマザキ","prefecture_code":2},{"zip_code":"0360201","prefecture":"青森県","prefecture_kana":"アオモリケン","city":"平川市","city_kana":"ヒラカワシ","town":"李平北豊田","town_kana":"スモモダイキタトヨダ","prefecture_code":2},{"zip_code":"0360201","prefecture":"青森県","prefecture_kana":"アオモリケン","city":"平川市","city_kana":"ヒラカワシ","town":"李平下安原","town_kana":"スモモダイシモヤスハラ","prefecture_code":2},{"zip_code":"0360201","prefecture":"青森県","prefecture_kana":"アオモリケン","city":"平川市","city_kana":"ヒラカワシ","town":"李平西豊田","town_kana":"スモモダイニシトヨダ","prefecture_code":2},{"zip_code":"0360201","prefecture":"青森県","prefecture_kana":"アオモリケン","city":"平川市","city_kana":"ヒラカワシ","town":"李平西山崎","town_kana":"スモモダイニシヤマザキ","prefecture_code":2},{"zip_code":"0360201","prefecture":"青森県","prefecture_kana":"アオモリケン","city":"平川市","city_kana":"ヒラカワシ","town":"李平西和田","town_kana":"スモモダイニシワダ","prefecture_code":2},{"zip_code":"0360201","prefecture":"青森県","prefecture_kana":"アオモリケン","city":"平川市","city_kana":"ヒラカワシ","town":"李平東豊田","town_kana":"スモモダイヒガシトヨダ","prefecture_code":2},{"zip_code":"0360201","prefecture":"青森県","prefecture_kana":"アオモリケン","city":"平川市","city_kana":"ヒラカワシ","town":"李平東和田","town_kana":"スモモダイヒガシワダ","prefecture_code":2},{"zip_code":"0360201","prefecture":"青森県","prefecture_kana":"アオモリケン","city":"平川市","city_kana":"ヒラカワシ","town":"李平南豊田","town_kana":"スモモダイミナミトヨダ","prefecture_code":2}],"0101":[{"zip_code":"0360101","prefecture":"青森県","prefecture_kana":"アオモリケン","city":"平川市","city_kana":"ヒラカワシ","town":"大光寺一滝本","town_kana":"ダイコウジイチタキモト","prefecture_code":2},{"zip_code":"0360101","prefecture":"青森県","prefecture_kana":"アオモリケン","city":"平川市","city_kana":"ヒラカワシ","town":"大光寺一村井","town_kana":"ダイコウジイチムライ","prefecture_code":2},{"zip_code":"0360101","prefecture":"青森県","prefecture_kana":"アオモリケン","city":"平川市","city_kana":"ヒラカワシ","town":"大光寺一早稲田","town_kana":"ダイコウジイチワセダ","prefecture_code":2},{"zip_code":"0360101","prefecture":"青森県","prefecture_kana":"アオモリケン","city":"平川市","city_kana":"ヒラカワシ","town":"大光寺稲田","town_kana":"ダイコウジイナダ","prefecture_code":2},{"zip_code":"0360101","prefecture":"青森県","prefecture_kana":"アオモリケン","city":"平川市","city_kana":"ヒラカワシ","town":"大光寺稲村","town_kana":"ダイコウジイナムラ","prefecture_code":2},{"zip_code":"0360101","prefecture":"青森県","prefecture_kana":"アオモリケン","city":"平川市","city_kana":"ヒラカワシ","town":"大光寺川原田","town_kana":"ダイコウジカワラダ","prefecture_code":2},{"zip_code":"0360101","prefecture":"青森県","prefecture_kana":"アオモリケン","city":"平川市","city_kana":"ヒラカワシ","town":"大光寺三滝本","town_kana":"ダイコウジサンタキモト","prefecture_code":2},{"zip_code":"0360101","prefecture":"青森県","prefecture_kana":"アオモリケン","city":"平川市","city_kana":"ヒラカワシ","town":"大光寺三村井","town_kana":"ダイコウジサンムライ","prefecture_code":2},{"zip_code":"0360101","prefecture":"青森県","prefecture_kana":"アオモリケン","city":"平川市","city_kana":"ヒラカワシ","town":"大光寺三早稲田","town_kana":"ダイコウジサンワセダ","prefecture_code":2},{"zip_code":"0360101","prefecture":"青森県","prefecture_kana":"アオモリケン","city":"平川市","city_kana":"ヒラカワシ","town":"大光寺釈迦口","town_kana":"ダイコウジシャカグチ","prefecture_code":2},{"zip_code":"0360101","prefecture":"青森県","prefecture_kana":"アオモリケン","city":"平川市","city_kana":"ヒラカワシ","town":"大光寺白山","town_kana":"ダイコウジシロヤマ","prefecture_code":2},{"zip_code":"0360101","prefecture":"青森県","prefecture_kana":"アオモリケン","city":"平川市","city_kana":"ヒラカワシ","town":"大光寺種元","town_kana":"ダイコウジタネモト","prefecture_code":2},{"zip_code":"0360101","prefecture":"青森県","prefecture_kana":"アオモリケン","city":"平川市","city_kana":"ヒラカワシ","town":"大光寺西稲村","town_kana":"ダイコウジニシイナムラ","prefecture_code":2},{"zip_code":"0360101","prefecture":"青森県","prefecture_kana":"アオモリケン","city":"平川市","city_kana":"ヒラカワシ","town":"大光寺二滝本","town_kana":"ダイコウジニタキモト","prefecture_code":2},{"zip_code":"0360101","prefecture":"青森県","prefecture_kana":"アオモリケン","city":"平川市","city_kana":"ヒラカワシ","town":"大光寺二村井","town_kana":"ダイコウジニムライ","prefecture_code":2},{"zip_code":"0360101","prefecture":"青森県","prefecture_kana":"アオモリケン","city":"平川市","city_kana":"ヒラカワシ","town":"大光寺二早稲田","town_kana":"ダイコウジニワセダ","prefecture_code":2},{"zip_code":"0360101","prefecture":"青森県","prefecture_kana":"アオモリケン","city":"平川市","city_kana":"ヒラカワシ","town":"大光寺四滝本","town_kana":"ダイコウジヨンタキモト","prefecture_code":2}],"0146":[{"zip_code":"0360146","prefecture":"青森県","prefecture_kana":"アオモリケン","city":"平川市","city_kana":"ヒラカワシ","town":"大坊竹内","town_kana":"ダイボウタケウチ","prefecture_code":2},{"zip_code":"0360146","prefecture":"青森県","prefecture_kana":"アオモリケン","city":"平川市","city_kana":"ヒラカワシ","town":"大坊竹原","town_kana":"ダイボウタケハラ","prefecture_code":2},{"zip_code":"0360146","prefecture":"青森県","prefecture_kana":"アオモリケン","city":"平川市","city_kana":"ヒラカワシ","town":"大坊福田","town_kana":"ダイボウフクダ","prefecture_code":2},{"zip_code":"0360146","prefecture":"青森県","prefecture_kana":"アオモリケン","city":"平川市","city_kana":"ヒラカワシ","town":"大坊前田","town_kana":"ダイボウマエダ","prefecture_code":2}],"0211":[{"zip_code":"0360211","prefecture":"青森県","prefecture_kana":"アオモリケン","city":"平川市","city_kana":"ヒラカワシ","town":"高木岡崎","town_kana":"タカキオカザキ","prefecture_code":2},{"zip_code":"0360211","prefecture":"青森県","prefecture_kana":"アオモリケン","city":"平川市","city_kana":"ヒラカワシ","town":"高木岡田","town_kana":"タカキオカダ","prefecture_code":2},{"zip_code":"0360211","prefecture":"青森県","prefecture_kana":"アオモリケン","city":"平川市","city_kana":"ヒラカワシ","town":"高木岡部","town_kana":"タカキオカベ","prefecture_code":2},{"zip_code":"0360211","prefecture":"青森県","prefecture_kana":"アオモリケン","city":"平川市","city_kana":"ヒラカワシ","town":"高木豊岡","town_kana":"タカキトヨオカ","prefecture_code":2},{"zip_code":"0360211","prefecture":"青森県","prefecture_kana":"アオモリケン","city":"平川市","city_kana":"ヒラカワシ","town":"高木豊田","town_kana":"タカキトヨダ","prefecture_code":2},{"zip_code":"0360211","prefecture":"青森県","prefecture_kana":"アオモリケン","city":"平川市","city_kana":"ヒラカワシ","town":"高木原田","town_kana":"タカキハラタ","prefecture_code":2},{"zip_code":"0360211","prefecture":"青森県","prefecture_kana":"アオモリケン","city":"平川市","city_kana":"ヒラカワシ","town":"高木原富","town_kana":"タカキハラトミ","prefecture_code":2},{"zip_code":"0360211","prefecture":"青森県","prefecture_kana":"アオモリケン","city":"平川市","city_kana":"ヒラカワシ","town":"高木松元","town_kana":"タカキマツモト","prefecture_code":2}],"0142":[{"zip_code":"0360142","prefecture":"青森県","prefecture_kana":"アオモリケン","city":"平川市","city_kana":"ヒラカワシ","town":"高畑熊沢","town_kana":"タカハタケクマザワ","prefecture_code":2},{"zip_code":"0360142","prefecture":"青森県","prefecture_kana":"アオモリケン","city":"平川市","city_kana":"ヒラカワシ","town":"高畑高田","town_kana":"タカハタケタカダ","prefecture_code":2},{"zip_code":"0360142","prefecture":"青森県","prefecture_kana":"アオモリケン","city":"平川市","city_kana":"ヒラカワシ","town":"高畑前田","town_kana":"タカハタケマエダ","prefecture_code":2}],"0155":[{"zip_code":"0360155","prefecture":"青森県","prefecture_kana":"アオモリケン","city":"平川市","city_kana":"ヒラカワシ","town":"館田稲村","town_kana":"タチタイナムラ","prefecture_code":2},{"zip_code":"0360155","prefecture":"青森県","prefecture_kana":"アオモリケン","city":"平川市","city_kana":"ヒラカワシ","town":"館田中前田","town_kana":"タチタナカマエダ","prefecture_code":2},{"zip_code":"0360155","prefecture":"青森県","prefecture_kana":"アオモリケン","city":"平川市","city_kana":"ヒラカワシ","town":"館田西川原田","town_kana":"タチタニシカワラダ","prefecture_code":2},{"zip_code":"0360155","prefecture":"青森県","prefecture_kana":"アオモリケン","city":"平川市","city_kana":"ヒラカワシ","town":"館田西和田","town_kana":"タチタニシワダ","prefecture_code":2},{"zip_code":"0360155","prefecture":"青森県","prefecture_kana":"アオモリケン","city":"平川市","city_kana":"ヒラカワシ","town":"館田東稲村","town_kana":"タチタヒガシイナムラ","prefecture_code":2},{"zip_code":"0360155","prefecture":"青森県","prefecture_kana":"アオモリケン","city":"平川市","city_kana":"ヒラカワシ","town":"館田東前田","town_kana":"タチタヒガシマエダ","prefecture_code":2},{"zip_code":"0360155","prefecture":"青森県","prefecture_kana":"アオモリケン","city":"平川市","city_kana":"ヒラカワシ","town":"館田東和田","town_kana":"タチタヒガシワダ","prefecture_code":2},{"zip_code":"0360155","prefecture":"青森県","prefecture_kana":"アオモリケン","city":"平川市","city_kana":"ヒラカワシ","town":"館田前田","town_kana":"タチタマエダ","prefecture_code":2},{"zip_code":"0360155","prefecture":"青森県","prefecture_kana":"アオモリケン","city":"平川市","city_kana":"ヒラカワシ","town":"館田南川原田","town_kana":"タチタミナミカワラダ","prefecture_code":2},{"zip_code":"0360155","prefecture":"青森県","prefecture_kana":"アオモリケン","city":"平川市","city_kana":"ヒラカワシ","town":"館田元川原田","town_kana":"タチタモトカワラダ","prefecture_code":2},{"zip_code":"0360155","prefecture":"青森県","prefecture_kana":"アオモリケン","city":"平川市","city_kana":"ヒラカワシ","town":"館田柳原","town_kana":"タチタヤナギハラ","prefecture_code":2}],"0162":[{"zip_code":"0360162","prefecture":"青森県","prefecture_kana":"アオモリケン","city":"平川市","city_kana":"ヒラカワシ","town":"館山板橋","town_kana":"タテヤマイタバシ","prefecture_code":2},{"zip_code":"0360162","prefecture":"青森県","prefecture_kana":"アオモリケン","city":"平川市","city_kana":"ヒラカワシ","town":"館山上扇田","town_kana":"タテヤマカミオウギダ","prefecture_code":2},{"zip_code":"0360162","prefecture":"青森県","prefecture_kana":"アオモリケン","city":"平川市","city_kana":"ヒラカワシ","town":"館山上亀岡","town_kana":"タテヤマカミカメオカ","prefecture_code":2},{"zip_code":"0360162","prefecture":"青森県","prefecture_kana":"アオモリケン","city":"平川市","city_kana":"ヒラカワシ","town":"館山川合","town_kana":"タテヤマカワイ","prefecture_code":2},{"zip_code":"0360162","prefecture":"青森県","prefecture_kana":"アオモリケン","city":"平川市","city_kana":"ヒラカワシ","town":"館山下扇田","town_kana":"タテヤマシモオウギダ","prefecture_code":2},{"zip_code":"0360162","prefecture":"青森県","prefecture_kana":"アオモリケン","city":"平川市","city_kana":"ヒラカワシ","town":"館山下亀岡","town_kana":"タテヤマシモカメオカ","prefecture_code":2},{"zip_code":"0360162","prefecture":"青森県","prefecture_kana":"アオモリケン","city":"平川市","city_kana":"ヒラカワシ","town":"館山前田","town_kana":"タテヤママエダ","prefecture_code":2}],"0221":[{"zip_code":"0360221","prefecture":"青森県","prefecture_kana":"アオモリケン","city":"平川市","city_kana":"ヒラカワシ","town":"中佐渡石田","town_kana":"ナカサドイシタ","prefecture_code":2},{"zip_code":"0360221","prefecture":"青森県","prefecture_kana":"アオモリケン","city":"平川市","city_kana":"ヒラカワシ","town":"中佐渡鎌田","town_kana":"ナカサドカマダ","prefecture_code":2},{"zip_code":"0360221","prefecture":"青森県","prefecture_kana":"アオモリケン","city":"平川市","city_kana":"ヒラカワシ","town":"中佐渡前田","town_kana":"ナカサドマエダ","prefecture_code":2},{"zip_code":"0360221","prefecture":"青森県","prefecture_kana":"アオモリケン","city":"平川市","city_kana":"ヒラカワシ","town":"中佐渡南田","town_kana":"ナカサドミナミダ","prefecture_code":2},{"zip_code":"0360221","prefecture":"青森県","prefecture_kana":"アオモリケン","city":"平川市","city_kana":"ヒラカワシ","town":"中佐渡村元","town_kana":"ナカサドムラモト","prefecture_code":2}],"0163":[{"zip_code":"0360163","prefecture":"青森県","prefecture_kana":"アオモリケン","city":"平川市","city_kana":"ヒラカワシ","town":"苗生松一本柳","town_kana":"ナンバイマツイッポンヤナギ","prefecture_code":2},{"zip_code":"0360163","prefecture":"青森県","prefecture_kana":"アオモリケン","city":"平川市","city_kana":"ヒラカワシ","town":"苗生松上東田","town_kana":"ナンバイマツカミヒガシダ","prefecture_code":2},{"zip_code":"0360163","prefecture":"青森県","prefecture_kana":"アオモリケン","city":"平川市","city_kana":"ヒラカワシ","town":"苗生松川崎","town_kana":"ナンバイマツカワサキ","prefecture_code":2},{"zip_code":"0360163","prefecture":"青森県","prefecture_kana":"アオモリケン","city":"平川市","city_kana":"ヒラカワシ","town":"苗生松川原田","town_kana":"ナンバイマツカワラダ","prefecture_code":2},{"zip_code":"0360163","prefecture":"青森県","prefecture_kana":"アオモリケン","city":"平川市","city_kana":"ヒラカワシ","town":"苗生松下東田","town_kana":"ナンバイマツシモヒガシダ","prefecture_code":2},{"zip_code":"0360163","prefecture":"青森県","prefecture_kana":"アオモリケン","city":"平川市","city_kana":"ヒラカワシ","town":"苗生松元東田","town_kana":"ナンバイマツモトヒガシダ","prefecture_code":2}],"0115":[{"zip_code":"0360115","prefecture":"青森県","prefecture_kana":"アオモリケン","city":"平川市","city_kana":"ヒラカワシ","town":"新館後野","town_kana":"ニイダテウシロノ","prefecture_code":2},{"zip_code":"0360115","prefecture":"青森県","prefecture_kana":"アオモリケン","city":"平川市","city_kana":"ヒラカワシ","town":"新館柏崎","town_kana":"ニイダテカシワザキ","prefecture_code":2},{"zip_code":"0360115","prefecture":"青森県","prefecture_kana":"アオモリケン","city":"平川市","city_kana":"ヒラカワシ","town":"新館駒泊","town_kana":"ニイダテコマドマリ","prefecture_code":2},{"zip_code":"0360115","prefecture":"青森県","prefecture_kana":"アオモリケン","city":"平川市","city_kana":"ヒラカワシ","town":"新館島村","town_kana":"ニイダテシマムラ","prefecture_code":2},{"zip_code":"0360115","prefecture":"青森県","prefecture_kana":"アオモリケン","city":"平川市","city_kana":"ヒラカワシ","town":"新館野木和","town_kana":"ニイダテノギワ","prefecture_code":2},{"zip_code":"0360115","prefecture":"青森県","prefecture_kana":"アオモリケン","city":"平川市","city_kana":"ヒラカワシ","town":"新館東山","town_kana":"ニイダテヒガシヤマ","prefecture_code":2},{"zip_code":"0360115","prefecture":"青森県","prefecture_kana":"アオモリケン","city":"平川市","city_kana":"ヒラカワシ","town":"新館藤巻","town_kana":"ニイダテフジマキ","prefecture_code":2},{"zip_code":"0360115","prefecture":"青森県","prefecture_kana":"アオモリケン","city":"平川市","city_kana":"ヒラカワシ","town":"新館藤山","town_kana":"ニイダテフジヤマ","prefecture_code":2}],"0223":[{"zip_code":"0360223","prefecture":"青森県","prefecture_kana":"アオモリケン","city":"平川市","city_kana":"ヒラカワシ","town":"西野曽江川崎","town_kana":"ニシノゾエカワサキ","prefecture_code":2},{"zip_code":"0360223","prefecture":"青森県","prefecture_kana":"アオモリケン","city":"平川市","city_kana":"ヒラカワシ","town":"西野曽江橋元","town_kana":"ニシノゾエハシモト","prefecture_code":2},{"zip_code":"0360223","prefecture":"青森県","prefecture_kana":"アオモリケン","city":"平川市","city_kana":"ヒラカワシ","town":"西野曽江広田","town_kana":"ニシノゾエヒロタ","prefecture_code":2}],"0231":[{"zip_code":"0360231","prefecture":"青森県","prefecture_kana":"アオモリケン","city":"平川市","city_kana":"ヒラカワシ","town":"新山岡部","town_kana":"ニイヤマオカベ","prefecture_code":2},{"zip_code":"0360231","prefecture":"青森県","prefecture_kana":"アオモリケン","city":"平川市","city_kana":"ヒラカワシ","town":"新山松橋","town_kana":"ニイヤママツハシ","prefecture_code":2},{"zip_code":"0360231","prefecture":"青森県","prefecture_kana":"アオモリケン","city":"平川市","city_kana":"ヒラカワシ","town":"新山村元","town_kana":"ニイヤマムラモト","prefecture_code":2},{"zip_code":"0360231","prefecture":"青森県","prefecture_kana":"アオモリケン","city":"平川市","city_kana":"ヒラカワシ","town":"新山柳田","town_kana":"ニイヤマヤナギダ","prefecture_code":2},{"zip_code":"0360231","prefecture":"青森県","prefecture_kana":"アオモリケン","city":"平川市","city_kana":"ヒラカワシ","town":"新山早稲田","town_kana":"ニイヤマワセダ","prefecture_code":2}],"0243":[{"zip_code":"0360243","prefecture":"青森県","prefecture_kana":"アオモリケン","city":"平川市","city_kana":"ヒラカワシ","town":"原大野","town_kana":"ハラオオノ","prefecture_code":2},{"zip_code":"0360243","prefecture":"青森県","prefecture_kana":"アオモリケン","city":"平川市","city_kana":"ヒラカワシ","town":"原上原","town_kana":"ハラカミハラ","prefecture_code":2},{"zip_code":"0360243","prefecture":"青森県","prefecture_kana":"アオモリケン","city":"平川市","city_kana":"ヒラカワシ","town":"原北原","town_kana":"ハラキタハラ","prefecture_code":2}],"0144":[{"zip_code":"0360144","prefecture":"青森県","prefecture_kana":"アオモリケン","city":"平川市","city_kana":"ヒラカワシ","town":"原田稲元","town_kana":"ハラタイナモト","prefecture_code":2},{"zip_code":"0360144","prefecture":"青森県","prefecture_kana":"アオモリケン","city":"平川市","city_kana":"ヒラカワシ","town":"原田今井","town_kana":"ハラタイマイ","prefecture_code":2},{"zip_code":"0360144","prefecture":"青森県","prefecture_kana":"アオモリケン","city":"平川市","city_kana":"ヒラカワシ","town":"原田沢田","town_kana":"ハラタサワタ","prefecture_code":2},{"zip_code":"0360144","prefecture":"青森県","prefecture_kana":"アオモリケン","city":"平川市","city_kana":"ヒラカワシ","town":"原田村元","town_kana":"ハラタムラモト","prefecture_code":2}],"0233":[{"zip_code":"0360233","prefecture":"青森県","prefecture_kana":"アオモリケン","city":"平川市","city_kana":"ヒラカワシ","town":"日沼一本柳","town_kana":"ヒヌマイッポンヤナギ","prefecture_code":2},{"zip_code":"0360233","prefecture":"青森県","prefecture_kana":"アオモリケン","city":"平川市","city_kana":"ヒラカワシ","town":"日沼河原田","town_kana":"ヒヌマカワラダ","prefecture_code":2},{"zip_code":"0360233","prefecture":"青森県","prefecture_kana":"アオモリケン","city":"平川市","city_kana":"ヒラカワシ","town":"日沼下川原","town_kana":"ヒヌマシモカワラ","prefecture_code":2},{"zip_code":"0360233","prefecture":"青森県","prefecture_kana":"アオモリケン","city":"平川市","city_kana":"ヒラカワシ","town":"日沼下袋","town_kana":"ヒヌマシモフクロ","prefecture_code":2},{"zip_code":"0360233","prefecture":"青森県","prefecture_kana":"アオモリケン","city":"平川市","city_kana":"ヒラカワシ","town":"日沼李田","town_kana":"ヒヌマスモモダ","prefecture_code":2},{"zip_code":"0360233","prefecture":"青森県","prefecture_kana":"アオモリケン","city":"平川市","city_kana":"ヒラカワシ","town":"日沼高田","town_kana":"ヒヌマタカダ","prefecture_code":2},{"zip_code":"0360233","prefecture":"青森県","prefecture_kana":"アオモリケン","city":"平川市","city_kana":"ヒラカワシ","town":"日沼塚越","town_kana":"ヒヌマツカゴシ","prefecture_code":2},{"zip_code":"0360233","prefecture":"青森県","prefecture_kana":"アオモリケン","city":"平川市","city_kana":"ヒラカワシ","town":"日沼樋田","town_kana":"ヒヌマトイダ","prefecture_code":2},{"zip_code":"0360233","prefecture":"青森県","prefecture_kana":"アオモリケン","city":"平川市","city_kana":"ヒラカワシ","town":"日沼富田","town_kana":"ヒヌマトミタ","prefecture_code":2},{"zip_code":"0360233","prefecture":"青森県","prefecture_kana":"アオモリケン","city":"平川市","city_kana":"ヒラカワシ","town":"日沼富岳","town_kana":"ヒヌマトミタケ","prefecture_code":2}],"0113":[{"zip_code":"0360113","prefecture":"青森県","prefecture_kana":"アオモリケン","city":"平川市","city_kana":"ヒラカワシ","town":"平田森稲村","town_kana":"ヒラタモリイナムラ","prefecture_code":2},{"zip_code":"0360113","prefecture":"青森県","prefecture_kana":"アオモリケン","city":"平川市","city_kana":"ヒラカワシ","town":"平田森上宮本","town_kana":"ヒラタモリカミミヤモト","prefecture_code":2},{"zip_code":"0360113","prefecture":"青森県","prefecture_kana":"アオモリケン","city":"平川市","city_kana":"ヒラカワシ","town":"平田森下宮本","town_kana":"ヒラタモリシモミヤモト","prefecture_code":2},{"zip_code":"0360113","prefecture":"青森県","prefecture_kana":"アオモリケン","city":"平川市","city_kana":"ヒラカワシ","town":"平田森前田","town_kana":"ヒラタモリマエダ","prefecture_code":2},{"zip_code":"0360113","prefecture":"青森県","prefecture_kana":"アオモリケン","city":"平川市","city_kana":"ヒラカワシ","town":"平田森若松","town_kana":"ヒラタモリワカマツ","prefecture_code":2}],"0131":[{"zip_code":"0360131","prefecture":"青森県","prefecture_kana":"アオモリケン","city":"平川市","city_kana":"ヒラカワシ","town":"広船広沢","town_kana":"ヒロフネヒロサワ","prefecture_code":2},{"zip_code":"0360131","prefecture":"青森県","prefecture_kana":"アオモリケン","city":"平川市","city_kana":"ヒラカワシ","town":"広船福田","town_kana":"ヒロフネフクダ","prefecture_code":2},{"zip_code":"0360131","prefecture":"青森県","prefecture_kana":"アオモリケン","city":"平川市","city_kana":"ヒラカワシ","town":"広船山下","town_kana":"ヒロフネヤマシタ","prefecture_code":2}],"0143":[{"zip_code":"0360143","prefecture":"青森県","prefecture_kana":"アオモリケン","city":"平川市","city_kana":"ヒラカワシ","town":"吹上高田","town_kana":"フキアゲタカダ","prefecture_code":2},{"zip_code":"0360143","prefecture":"青森県","prefecture_kana":"アオモリケン","city":"平川市","city_kana":"ヒラカワシ","town":"吹上平岡","town_kana":"フキアゲヒラオカ","prefecture_code":2},{"zip_code":"0360143","prefecture":"青森県","prefecture_kana":"アオモリケン","city":"平川市","city_kana":"ヒラカワシ","town":"吹上安田","town_kana":"フキアゲヤスタ","prefecture_code":2}],"0114":[{"zip_code":"0360114","prefecture":"青森県","prefecture_kana":"アオモリケン","city":"平川市","city_kana":"ヒラカワシ","town":"町居稲村","town_kana":"マチイイナムラ","prefecture_code":2},{"zip_code":"0360114","prefecture":"青森県","prefecture_kana":"アオモリケン","city":"平川市","city_kana":"ヒラカワシ","town":"町居稲元","town_kana":"マチイイナモト","prefecture_code":2},{"zip_code":"0360114","prefecture":"青森県","prefecture_kana":"アオモリケン","city":"平川市","city_kana":"ヒラカワシ","town":"町居西田","town_kana":"マチイニシタ","prefecture_code":2},{"zip_code":"0360114","prefecture":"青森県","prefecture_kana":"アオモリケン","city":"平川市","city_kana":"ヒラカワシ","town":"町居南田","town_kana":"マチイミナミタ","prefecture_code":2},{"zip_code":"0360114","prefecture":"青森県","prefecture_kana":"アオモリケン","city":"平川市","city_kana":"ヒラカワシ","town":"町居山下","town_kana":"マチイヤマシタ","prefecture_code":2},{"zip_code":"0360114","prefecture":"青森県","prefecture_kana":"アオモリケン","city":"平川市","city_kana":"ヒラカワシ","town":"町居山元","town_kana":"マチイヤマモト","prefecture_code":2},{"zip_code":"0360114","prefecture":"青森県","prefecture_kana":"アオモリケン","city":"平川市","city_kana":"ヒラカワシ","town":"町居横山","town_kana":"マチイヨコヤマ","prefecture_code":2}],"0164":[{"zip_code":"0360164","prefecture":"青森県","prefecture_kana":"アオモリケン","city":"平川市","city_kana":"ヒラカワシ","town":"松崎亀井","town_kana":"マツザキカメイ","prefecture_code":2},{"zip_code":"0360164","prefecture":"青森県","prefecture_kana":"アオモリケン","city":"平川市","city_kana":"ヒラカワシ","town":"松崎西田","town_kana":"マツザキニシダ","prefecture_code":2}],"0165":[{"zip_code":"0360165","prefecture":"青森県","prefecture_kana":"アオモリケン","city":"平川市","city_kana":"ヒラカワシ","town":"松館浅井","town_kana":"マツダテアサイ","prefecture_code":2},{"zip_code":"0360165","prefecture":"青森県","prefecture_kana":"アオモリケン","city":"平川市","city_kana":"ヒラカワシ","town":"松館井ノ上","town_kana":"マツダテイノウエ","prefecture_code":2},{"zip_code":"0360165","prefecture":"青森県","prefecture_kana":"アオモリケン","city":"平川市","city_kana":"ヒラカワシ","town":"松館西稲村","town_kana":"マツダテニシイナムラ","prefecture_code":2},{"zip_code":"0360165","prefecture":"青森県","prefecture_kana":"アオモリケン","city":"平川市","city_kana":"ヒラカワシ","town":"松館西川原田","town_kana":"マツダテニシカワラダ","prefecture_code":2},{"zip_code":"0360165","prefecture":"青森県","prefecture_kana":"アオモリケン","city":"平川市","city_kana":"ヒラカワシ","town":"松館東稲村","town_kana":"マツダテヒガシイナムラ","prefecture_code":2},{"zip_code":"0360165","prefecture":"青森県","prefecture_kana":"アオモリケン","city":"平川市","city_kana":"ヒラカワシ","town":"松館東川原田","town_kana":"マツダテヒガシカワラダ","prefecture_code":2},{"zip_code":"0360165","prefecture":"青森県","prefecture_kana":"アオモリケン","city":"平川市","city_kana":"ヒラカワシ","town":"松館松元","town_kana":"マツダテマツモト","prefecture_code":2}],"0203":[{"zip_code":"0360203","prefecture":"青森県","prefecture_kana":"アオモリケン","city":"平川市","city_kana":"ヒラカワシ","town":"南田中北林元","town_kana":"ミナミタナカキタハヤシモト","prefecture_code":2},{"zip_code":"0360203","prefecture":"青森県","prefecture_kana":"アオモリケン","city":"平川市","city_kana":"ヒラカワシ","town":"南田中北原","town_kana":"ミナミタナカキタハラ","prefecture_code":2},{"zip_code":"0360203","prefecture":"青森県","prefecture_kana":"アオモリケン","city":"平川市","city_kana":"ヒラカワシ","town":"南田中北細田","town_kana":"ミナミタナカキタホソダ","prefecture_code":2},{"zip_code":"0360203","prefecture":"青森県","prefecture_kana":"アオモリケン","city":"平川市","city_kana":"ヒラカワシ","town":"南田中北村井","town_kana":"ミナミタナカキタムライ","prefecture_code":2},{"zip_code":"0360203","prefecture":"青森県","prefecture_kana":"アオモリケン","city":"平川市","city_kana":"ヒラカワシ","town":"南田中中村井","town_kana":"ミナミタナカナカムライ","prefecture_code":2},{"zip_code":"0360203","prefecture":"青森県","prefecture_kana":"アオモリケン","city":"平川市","city_kana":"ヒラカワシ","town":"南田中西林元","town_kana":"ミナミタナカニシハヤシモト","prefecture_code":2},{"zip_code":"0360203","prefecture":"青森県","prefecture_kana":"アオモリケン","city":"平川市","city_kana":"ヒラカワシ","town":"南田中西原","town_kana":"ミナミタナカニシハラ","prefecture_code":2},{"zip_code":"0360203","prefecture":"青森県","prefecture_kana":"アオモリケン","city":"平川市","city_kana":"ヒラカワシ","town":"南田中東林元","town_kana":"ミナミタナカヒガシハヤシモト","prefecture_code":2},{"zip_code":"0360203","prefecture":"青森県","prefecture_kana":"アオモリケン","city":"平川市","city_kana":"ヒラカワシ","town":"南田中南林元","town_kana":"ミナミタナカミナミハヤシモト","prefecture_code":2},{"zip_code":"0360203","prefecture":"青森県","prefecture_kana":"アオモリケン","city":"平川市","city_kana":"ヒラカワシ","town":"南田中村内","town_kana":"ミナミタナカムラウチ","prefecture_code":2}],"0103":[{"zip_code":"0360103","prefecture":"青森県","prefecture_kana":"アオモリケン","city":"平川市","city_kana":"ヒラカワシ","town":"本町北柳田","town_kana":"モトマチキタヤナギダ","prefecture_code":2},{"zip_code":"0360103","prefecture":"青森県","prefecture_kana":"アオモリケン","city":"平川市","city_kana":"ヒラカワシ","town":"本町富岡","town_kana":"モトマチトミオカ","prefecture_code":2},{"zip_code":"0360103","prefecture":"青森県","prefecture_kana":"アオモリケン","city":"平川市","city_kana":"ヒラカワシ","town":"本町西宮","town_kana":"モトマチニシノミヤ","prefecture_code":2},{"zip_code":"0360103","prefecture":"青森県","prefecture_kana":"アオモリケン","city":"平川市","city_kana":"ヒラカワシ","town":"本町平野","town_kana":"モトマチヒラノ","prefecture_code":2},{"zip_code":"0360103","prefecture":"青森県","prefecture_kana":"アオモリケン","city":"平川市","city_kana":"ヒラカワシ","town":"本町南柳田","town_kana":"モトマチミナミヤナギダ","prefecture_code":2},{"zip_code":"0360103","prefecture":"青森県","prefecture_kana":"アオモリケン","city":"平川市","city_kana":"ヒラカワシ","town":"本町村元","town_kana":"モトマチムラモト","prefecture_code":2}],"0241":[{"zip_code":"0360241","prefecture":"青森県","prefecture_kana":"アオモリケン","city":"平川市","city_kana":"ヒラカワシ","town":"八幡崎高野","town_kana":"ヤワタサキタカノ","prefecture_code":2},{"zip_code":"0360241","prefecture":"青森県","prefecture_kana":"アオモリケン","city":"平川市","city_kana":"ヒラカワシ","town":"八幡崎高原","town_kana":"ヤワタサキタカハラ","prefecture_code":2},{"zip_code":"0360241","prefecture":"青森県","prefecture_kana":"アオモリケン","city":"平川市","city_kana":"ヒラカワシ","town":"八幡崎本林","town_kana":"ヤワタサキホンバヤシ","prefecture_code":2},{"zip_code":"0360241","prefecture":"青森県","prefecture_kana":"アオモリケン","city":"平川市","city_kana":"ヒラカワシ","town":"八幡崎松枝","town_kana":"ヤワタサキマツエダ","prefecture_code":2},{"zip_code":"0360241","prefecture":"青森県","prefecture_kana":"アオモリケン","city":"平川市","city_kana":"ヒラカワシ","town":"八幡崎松橋","town_kana":"ヤワタサキマツハシ","prefecture_code":2},{"zip_code":"0360241","prefecture":"青森県","prefecture_kana":"アオモリケン","city":"平川市","city_kana":"ヒラカワシ","town":"八幡崎宮田","town_kana":"ヤワタサキミヤタ","prefecture_code":2},{"zip_code":"0360241","prefecture":"青森県","prefecture_kana":"アオモリケン","city":"平川市","city_kana":"ヒラカワシ","town":"八幡崎宮本","town_kana":"ヤワタサキミヤモト","prefecture_code":2},{"zip_code":"0360241","prefecture":"青森県","prefecture_kana":"アオモリケン","city":"平川市","city_kana":"ヒラカワシ","town":"八幡崎本宮","town_kana":"ヤワタサキモトミヤ","prefecture_code":2}],"0154":{"zip_code":"0360154","prefecture":"青森県","prefecture_kana":"アオモリケン","city":"平川市","city_kana":"ヒラカワシ","town":"四ツ屋亀田","town_kana":"ヨツヤカメタ","prefecture_code":2},"1400":{"zip_code":"0361400","prefecture":"青森県","prefecture_kana":"アオモリケン","city":"中津軽郡西目屋村","city_kana":"ナカツガルグンニシメヤムラ","town":"","town_kana":"","prefecture_code":2},"1422":{"zip_code":"0361422","prefecture":"青森県","prefecture_kana":"アオモリケン","city":"中津軽郡西目屋村","city_kana":"ナカツガルグンニシメヤムラ","town":"居森平","town_kana":"イモリタイ","prefecture_code":2},"1424":{"zip_code":"0361424","prefecture":"青森県","prefecture_kana":"アオモリケン","city":"中津軽郡西目屋村","city_kana":"ナカツガルグンニシメヤムラ","town":"川原平","town_kana":"カワラタイ","prefecture_code":2},"1414":{"zip_code":"0361414","prefecture":"青森県","prefecture_kana":"アオモリケン","city":"中津軽郡西目屋村","city_kana":"ナカツガルグンニシメヤムラ","town":"白沢","town_kana":"シラサワ","prefecture_code":2},"1412":{"zip_code":"0361412","prefecture":"青森県","prefecture_kana":"アオモリケン","city":"中津軽郡西目屋村","city_kana":"ナカツガルグンニシメヤムラ","town":"杉ケ沢","town_kana":"スギガサワ","prefecture_code":2},"1423":{"zip_code":"0361423","prefecture":"青森県","prefecture_kana":"アオモリケン","city":"中津軽郡西目屋村","city_kana":"ナカツガルグンニシメヤムラ","town":"砂子瀬","town_kana":"スナコセ","prefecture_code":2},"1413":{"zip_code":"0361413","prefecture":"青森県","prefecture_kana":"アオモリケン","city":"中津軽郡西目屋村","city_kana":"ナカツガルグンニシメヤムラ","town":"大秋","town_kana":"タイアキ","prefecture_code":2},"1411":{"zip_code":"0361411","prefecture":"青森県","prefecture_kana":"アオモリケン","city":"中津軽郡西目屋村","city_kana":"ナカツガルグンニシメヤムラ","town":"田代","town_kana":"タシロ","prefecture_code":2},"1421":{"zip_code":"0361421","prefecture":"青森県","prefecture_kana":"アオモリケン","city":"中津軽郡西目屋村","city_kana":"ナカツガルグンニシメヤムラ","town":"藤川","town_kana":"フジカワ","prefecture_code":2},"1415":{"zip_code":"0361415","prefecture":"青森県","prefecture_kana":"アオモリケン","city":"中津軽郡西目屋村","city_kana":"ナカツガルグンニシメヤムラ","town":"村市","town_kana":"ムライチ","prefecture_code":2}}