{"0000":{"zip_code":"0370000","prefecture":"青森県","prefecture_kana":"アオモリケン","city":"五所川原市","city_kana":"ゴショガワラシ","town":"","town_kana":"","prefecture_code":2},"0401":{"zip_code":"0370401","prefecture":"青森県","prefecture_kana":"アオモリケン","city":"五所川原市","city_kana":"ゴショガワラシ","town":"相内","town_kana":"アイウチ","prefecture_code":2},"0613":{"zip_code":"0370613","prefecture":"青森県","prefecture_kana":"アオモリケン","city":"五所川原市","city_kana":"ゴショガワラシ","town":"浅井","town_kana":"アサイ","prefecture_code":2},"0062":{"zip_code":"0370062","prefecture":"青森県","prefecture_kana":"アオモリケン","city":"五所川原市","city_kana":"ゴショガワラシ","town":"旭町","town_kana":"アサヒチョウ","prefecture_code":2},"0052":{"zip_code":"0370052","prefecture":"青森県","prefecture_kana":"アオモリケン","city":"五所川原市","city_kana":"ゴショガワラシ","town":"東町","town_kana":"アズマチョウ","prefecture_code":2},"0002":{"zip_code":"0370002","prefecture":"青森県","prefecture_kana":"アオモリケン","city":"五所川原市","city_kana":"ゴショガワラシ","town":"飯詰","town_kana":"イイヅメ","prefecture_code":2},"0057":{"zip_code":"0370057","prefecture":"青森県","prefecture_kana":"アオモリケン","city":"五所川原市","city_kana":"ゴショガワラシ","town":"幾島町","town_kana":"イクシマチョウ","prefecture_code":2},"0065":{"zip_code":"0370065","prefecture":"青森県","prefecture_kana":"アオモリケン","city":"五所川原市","city_kana":"ゴショガワラシ","town":"幾世森","town_kana":"イクセモリ","prefecture_code":2},"0005":{"zip_code":"0370005","prefecture":"青森県","prefecture_kana":"アオモリケン","city":"五所川原市","city_kana":"ゴショガワラシ","town":"石岡","town_kana":"イシオカ","prefecture_code":2},"0404":{"zip_code":"0370404","prefecture":"青森県","prefecture_kana":"アオモリケン","city":"五所川原市","city_kana":"ゴショガワラシ","town":"磯松","town_kana":"イソマツ","prefecture_code":2},"0093":{"zip_code":"0370093","prefecture":"青森県","prefecture_kana":"アオモリケン","city":"五所川原市","city_kana":"ゴショガワラシ","town":"一野坪","town_kana":"イチノツボ","prefecture_code":2},"0014":{"zip_code":"0370014","prefecture":"青森県","prefecture_kana":"アオモリケン","city":"五所川原市","city_kana":"ゴショガワラシ","town":"稲実","town_kana":"イナミ","prefecture_code":2},"0074":{"zip_code":"0370074","prefecture":"青森県","prefecture_kana":"アオモリケン","city":"五所川原市","city_kana":"ゴショガワラシ","town":"岩木町","town_kana":"イワキチョウ","prefecture_code":2},"0042":{"zip_code":"0370042","prefecture":"青森県","prefecture_kana":"アオモリケン","city":"五所川原市","city_kana":"ゴショガワラシ","town":"不魚住","town_kana":"ウオスマズ","prefecture_code":2},"0015":{"zip_code":"0370015","prefecture":"青森県","prefecture_kana":"アオモリケン","city":"五所川原市","city_kana":"ゴショガワラシ","town":"姥萢","town_kana":"ウバヤチ","prefecture_code":2},"0022":{"zip_code":"0370022","prefecture":"青森県","prefecture_kana":"アオモリケン","city":"五所川原市","city_kana":"ゴショガワラシ","town":"梅田","town_kana":"ウメタ","prefecture_code":2},"0017":{"zip_code":"0370017","prefecture":"青森県","prefecture_kana":"アオモリケン","city":"五所川原市","city_kana":"ゴショガワラシ","town":"漆川","town_kana":"ウルシカワ","prefecture_code":2},"0402":{"zip_code":"0370402","prefecture":"青森県","prefecture_kana":"アオモリケン","city":"五所川原市","city_kana":"ゴショガワラシ","town":"太田","town_kana":"オオタ","prefecture_code":2},"0063":{"zip_code":"0370063","prefecture":"青森県","prefecture_kana":"アオモリケン","city":"五所川原市","city_kana":"ゴショガワラシ","town":"大町","town_kana":"オオマチ","prefecture_code":2},"0092":{"zip_code":"0370092","prefecture":"青森県","prefecture_kana":"アオモリケン","city":"五所川原市","city_kana":"ゴショガワラシ","town":"沖飯詰","town_kana":"オキイイヅメ","prefecture_code":2},"0055":{"zip_code":"0370055","prefecture":"青森県","prefecture_kana":"アオモリケン","city":"五所川原市","city_kana":"ゴショガワラシ","town":"柏原町","town_kana":"カシワバラチョウ","prefecture_code":2},"0202":{"zip_code":"0370202","prefecture":"青森県","prefecture_kana":"アオモリケン","city":"五所川原市","city_kana":"ゴショガワラシ","town":"金木町","town_kana":"カナギチョウ","prefecture_code":2},"0204":{"zip_code":"0370204","prefecture":"青森県","prefecture_kana":"アオモリケン","city":"五所川原市","city_kana":"ゴショガワラシ","town":"金木町嘉瀬","town_kana":"カナギチョウカセ","prefecture_code":2},"0201":{"zip_code":"0370201","prefecture":"青森県","prefecture_kana":"アオモリケン","city":"五所川原市","city_kana":"ゴショガワラシ","town":"金木町川倉","town_kana":"カナギチョウカワクラ","prefecture_code":2},"0206":{"zip_code":"0370206","prefecture":"青森県","prefecture_kana":"アオモリケン","city":"五所川原市","city_kana":"ゴショガワラシ","town":"金木町神原","town_kana":"カナギチョウカンバラ","prefecture_code":2},"0203":{"zip_code":"0370203","prefecture":"青森県","prefecture_kana":"アオモリケン","city":"五所川原市","city_kana":"ゴショガワラシ","town":"金木町喜良市","town_kana":"カナギチョウキライチ","prefecture_code":2},"0205":{"zip_code":"0370205","prefecture":"青森県","prefecture_kana":"アオモリケン","city":"五所川原市","city_kana":"ゴショガワラシ","town":"金木町中柏木","town_kana":"カナギチョウナカカシワギ","prefecture_code":2},"0208":{"zip_code":"0370208","prefecture":"青森県","prefecture_kana":"アオモリケン","city":"五所川原市","city_kana":"ゴショガワラシ","town":"金木町藤枝","town_kana":"カナギチョウフジエダ","prefecture_code":2},"0207":{"zip_code":"0370207","prefecture":"青森県","prefecture_kana":"アオモリケン","city":"五所川原市","city_kana":"ゴショガワラシ","town":"金木町蒔田","town_kana":"カナギチョウマキタ","prefecture_code":2},"0011":{"zip_code":"0370011","prefecture":"青森県","prefecture_kana":"アオモリケン","city":"五所川原市","city_kana":"ゴショガワラシ","town":"金山","town_kana":"カネヤマ","prefecture_code":2},"0033":{"zip_code":"0370033","prefecture":"青森県","prefecture_kana":"アオモリケン","city":"五所川原市","city_kana":"ゴショガワラシ","town":"鎌谷町","town_kana":"カマヤチョウ","prefecture_code":2},"0054":{"zip_code":"0370054","prefecture":"青森県","prefecture_kana":"アオモリケン","city":"五所川原市","city_kana":"ゴショガワラシ","town":"上平井町","town_kana":"カミヒライマチ","prefecture_code":2},"0611":{"zip_code":"0370611","prefecture":"青森県","prefecture_kana":"アオモリケン","city":"五所川原市","city_kana":"ゴショガワラシ","town":"神山","town_kana":"カミヤマ","prefecture_code":2},"0004":{"zip_code":"0370004","prefecture":"青森県","prefecture_kana":"アオモリケン","city":"五所川原市","city_kana":"ゴショガワラシ","town":"唐笠柳","town_kana":"カラカサヤナギ","prefecture_code":2},"0032":{"zip_code":"0370032","prefecture":"青森県","prefecture_kana":"アオモリケン","city":"五所川原市","city_kana":"ゴショガワラシ","town":"烏森","town_kana":"カラスモリ","prefecture_code":2},"0072":{"zip_code":"0370072","prefecture":"青森県","prefecture_kana":"アオモリケン","city":"五所川原市","city_kana":"ゴショガワラシ","town":"川端町","town_kana":"カワバタチョウ","prefecture_code":2},"0094":{"zip_code":"0370094","prefecture":"青森県","prefecture_kana":"アオモリケン","city":"五所川原市","city_kana":"ゴショガワラシ","town":"川山","town_kana":"カワヤマ","prefecture_code":2},"0632":{"zip_code":"0370632","prefecture":"青森県","prefecture_kana":"アオモリケン","city":"五所川原市","city_kana":"ゴショガワラシ","town":"高野","town_kana":"コウヤ","prefecture_code":2},"0076":{"zip_code":"0370076","prefecture":"青森県","prefecture_kana":"アオモリケン","city":"五所川原市","city_kana":"ゴショガワラシ","town":"小曲","town_kana":"コマガリ","prefecture_code":2},"0046":{"zip_code":"0370046","prefecture":"青森県","prefecture_kana":"アオモリケン","city":"五所川原市","city_kana":"ゴショガワラシ","town":"栄町","town_kana":"サカエマチ","prefecture_code":2},"0095":{"zip_code":"0370095","prefecture":"青森県","prefecture_kana":"アオモリケン","city":"五所川原市","city_kana":"ゴショガワラシ","town":"桜田","town_kana":"サクラダ","prefecture_code":2},"0067":{"zip_code":"0370067","prefecture":"青森県","prefecture_kana":"アオモリケン","city":"五所川原市","city_kana":"ゴショガワラシ","town":"敷島町","town_kana":"シキシマチョウ","prefecture_code":2},"0001":{"zip_code":"0370001","prefecture":"青森県","prefecture_kana":"アオモリケン","city":"五所川原市","city_kana":"ゴショガワラシ","town":"下岩崎","town_kana":"シモイワサキ","prefecture_code":2},"0064":{"zip_code":"0370064","prefecture":"青森県","prefecture_kana":"アオモリケン","city":"五所川原市","city_kana":"ゴショガワラシ","town":"下平井町","town_kana":"シモヒライマチ","prefecture_code":2},"0403":{"zip_code":"0370403","prefecture":"青森県","prefecture_kana":"アオモリケン","city":"五所川原市","city_kana":"ゴショガワラシ","town":"十三","town_kana":"ジュウサン","prefecture_code":2},"0045":{"zip_code":"0370045","prefecture":"青森県","prefecture_kana":"アオモリケン","city":"五所川原市","city_kana":"ゴショガワラシ","town":"新町","town_kana":"シンマチ","prefecture_code":2},"0081":{"zip_code":"0370081","prefecture":"青森県","prefecture_kana":"アオモリケン","city":"五所川原市","city_kana":"ゴショガワラシ","town":"新宮","town_kana":"シンミヤ","prefecture_code":2},"0083":{"zip_code":"0370083","prefecture":"青森県","prefecture_kana":"アオモリケン","city":"五所川原市","city_kana":"ゴショガワラシ","town":"新宮町","town_kana":"シンミヤチョウ","prefecture_code":2},"0056":{"zip_code":"0370056","prefecture":"青森県","prefecture_kana":"アオモリケン","city":"五所川原市","city_kana":"ゴショガワラシ","town":"末広町","town_kana":"スエヒロチョウ","prefecture_code":2},"0084":{"zip_code":"0370084","prefecture":"青森県","prefecture_kana":"アオモリケン","city":"五所川原市","city_kana":"ゴショガワラシ","town":"蘇鉄","town_kana":"ソテツ","prefecture_code":2},"0087":{"zip_code":"0370087","prefecture":"青森県","prefecture_kana":"アオモリケン","city":"五所川原市","city_kana":"ゴショガワラシ","town":"高瀬","town_kana":"タカセ","prefecture_code":2},"0086":{"zip_code":"0370086","prefecture":"青森県","prefecture_kana":"アオモリケン","city":"五所川原市","city_kana":"ゴショガワラシ","town":"田川","town_kana":"タガワ","prefecture_code":2},"0091":{"zip_code":"0370091","prefecture":"青森県","prefecture_kana":"アオモリケン","city":"五所川原市","city_kana":"ゴショガワラシ","town":"太刀打","town_kana":"タチウチ","prefecture_code":2},"0082":{"zip_code":"0370082","prefecture":"青森県","prefecture_kana":"アオモリケン","city":"五所川原市","city_kana":"ゴショガワラシ","town":"種井","town_kana":"タネイ","prefecture_code":2},"0041":{"zip_code":"0370041","prefecture":"青森県","prefecture_kana":"アオモリケン","city":"五所川原市","city_kana":"ゴショガワラシ","town":"田町","town_kana":"タマチ","prefecture_code":2},"0623":{"zip_code":"0370623","prefecture":"青森県","prefecture_kana":"アオモリケン","city":"五所川原市","city_kana":"ゴショガワラシ","town":"俵元","town_kana":"タワラモト","prefecture_code":2},"0036":{"zip_code":"0370036","prefecture":"青森県","prefecture_kana":"アオモリケン","city":"五所川原市","city_kana":"ゴショガワラシ","town":"中央","town_kana":"チュウオウ","prefecture_code":2},"0088":{"zip_code":"0370088","prefecture":"青森県","prefecture_kana":"アオモリケン","city":"五所川原市","city_kana":"ゴショガワラシ","town":"鶴ケ岡","town_kana":"ツルガオカ","prefecture_code":2},"0075":{"zip_code":"0370075","prefecture":"青森県","prefecture_kana":"アオモリケン","city":"五所川原市","city_kana":"ゴショガワラシ","town":"寺町","town_kana":"テラマチ","prefecture_code":2},"0601":{"zip_code":"0370601","prefecture":"青森県","prefecture_kana":"アオモリケン","city":"五所川原市","city_kana":"ゴショガワラシ","town":"戸沢","town_kana":"トザワ","prefecture_code":2},"0621":{"zip_code":"0370621","prefecture":"青森県","prefecture_kana":"アオモリケン","city":"五所川原市","city_kana":"ゴショガワラシ","town":"豊成","town_kana":"トヨナリ","prefecture_code":2},"0021":{"zip_code":"0370021","prefecture":"青森県","prefecture_kana":"アオモリケン","city":"五所川原市","city_kana":"ゴショガワラシ","town":"中泉","town_kana":"ナカイズミ","prefecture_code":2},"0066":{"zip_code":"0370066","prefecture":"青森県","prefecture_kana":"アオモリケン","city":"五所川原市","city_kana":"ゴショガワラシ","town":"中平井町","town_kana":"ナカヒライマチ","prefecture_code":2},"0097":{"zip_code":"0370097","prefecture":"青森県","prefecture_kana":"アオモリケン","city":"五所川原市","city_kana":"ゴショガワラシ","town":"長富","town_kana":"ナガトミ","prefecture_code":2},"0068":{"zip_code":"0370068","prefecture":"青森県","prefecture_kana":"アオモリケン","city":"五所川原市","city_kana":"ゴショガワラシ","town":"長橋","town_kana":"ナガハシ","prefecture_code":2},"0025":{"zip_code":"0370025","prefecture":"青森県","prefecture_kana":"アオモリケン","city":"五所川原市","city_kana":"ゴショガワラシ","town":"七ツ館","town_kana":"ナナツダテ","prefecture_code":2},"0058":{"zip_code":"0370058","prefecture":"青森県","prefecture_kana":"アオモリケン","city":"五所川原市","city_kana":"ゴショガワラシ","town":"錦町","town_kana":"ニシキチョウ","prefecture_code":2},"0053":{"zip_code":"0370053","prefecture":"青森県","prefecture_kana":"アオモリケン","city":"五所川原市","city_kana":"ゴショガワラシ","town":"布屋町","town_kana":"ヌノヤチョウ","prefecture_code":2},"0614":{"zip_code":"0370614","prefecture":"青森県","prefecture_kana":"アオモリケン","city":"五所川原市","city_kana":"ゴショガワラシ","town":"野里","town_kana":"ノザト","prefecture_code":2},"0085":{"zip_code":"0370085","prefecture":"青森県","prefecture_kana":"アオモリケン","city":"五所川原市","city_kana":"ゴショガワラシ","town":"芭蕉","town_kana":"バショウ","prefecture_code":2},"0043":{"zip_code":"0370043","prefecture":"青森県","prefecture_kana":"アオモリケン","city":"五所川原市","city_kana":"ゴショガワラシ","town":"蓮沼","town_kana":"ハスヌマ","prefecture_code":2},"0641":{"zip_code":"0370641","prefecture":"青森県","prefecture_kana":"アオモリケン","city":"五所川原市","city_kana":"ゴショガワラシ","town":"羽野木沢","town_kana":"ハノキザワ","prefecture_code":2},"0622":{"zip_code":"0370622","prefecture":"青森県","prefecture_kana":"アオモリケン","city":"五所川原市","city_kana":"ゴショガワラシ","town":"原子","town_kana":"ハラコ","prefecture_code":2},"0096":{"zip_code":"0370096","prefecture":"青森県","prefecture_kana":"アオモリケン","city":"五所川原市","city_kana":"ゴショガワラシ","town":"毘沙門","town_kana":"ビシャモン","prefecture_code":2},"0016":{"zip_code":"0370016","prefecture":"青森県","prefecture_kana":"アオモリケン","city":"五所川原市","city_kana":"ゴショガワラシ","town":"一ツ谷","town_kana":"ヒトツヤ","prefecture_code":2},"0061":{"zip_code":"0370061","prefecture":"青森県","prefecture_kana":"アオモリケン","city":"五所川原市","city_kana":"ゴショガワラシ","town":"雛田","town_kana":"ヒナタ","prefecture_code":2},"0023":{"zip_code":"0370023","prefecture":"青森県","prefecture_kana":"アオモリケン","city":"五所川原市","city_kana":"ゴショガワラシ","town":"広田","town_kana":"ヒロタ","prefecture_code":2},"0003":{"zip_code":"0370003","prefecture":"青森県","prefecture_kana":"アオモリケン","city":"五所川原市","city_kana":"ゴショガワラシ","town":"吹畑","town_kana":"フキハタ","prefecture_code":2},"0612":{"zip_code":"0370612","prefecture":"青森県","prefecture_kana":"アオモリケン","city":"五所川原市","city_kana":"ゴショガワラシ","town":"福山","town_kana":"フクヤマ","prefecture_code":2},"0071":{"zip_code":"0370071","prefecture":"青森県","prefecture_kana":"アオモリケン","city":"五所川原市","city_kana":"ゴショガワラシ","town":"本町","town_kana":"ホンチョウ","prefecture_code":2},"0631":{"zip_code":"0370631","prefecture":"青森県","prefecture_kana":"アオモリケン","city":"五所川原市","city_kana":"ゴショガワラシ","town":"前田野目","town_kana":"マエダノメ","prefecture_code":2},"0006":{"zip_code":"0370006","prefecture":"青森県","prefecture_kana":"アオモリケン","city":"五所川原市","city_kana":"ゴショガワラシ","town":"松島町","town_kana":"マツシマチョウ","prefecture_code":2},"0602":{"zip_code":"0370602","prefecture":"青森県","prefecture_kana":"アオモリケン","city":"五所川原市","city_kana":"ゴショガワラシ","town":"松野木","town_kana":"マツノキ","prefecture_code":2},"0012":{"zip_code":"0370012","prefecture":"青森県","prefecture_kana":"アオモリケン","city":"五所川原市","city_kana":"ゴショガワラシ","town":"水野尾","town_kana":"ミズノオ","prefecture_code":2},"0024":{"zip_code":"0370024","prefecture":"青森県","prefecture_kana":"アオモリケン","city":"五所川原市","city_kana":"ゴショガワラシ","town":"みどり町","town_kana":"ミドリチョウ","prefecture_code":2},"0035":{"zip_code":"0370035","prefecture":"青森県","prefecture_kana":"アオモリケン","city":"五所川原市","city_kana":"ゴショガワラシ","town":"湊","town_kana":"ミナト","prefecture_code":2},"0089":{"zip_code":"0370089","prefecture":"青森県","prefecture_kana":"アオモリケン","city":"五所川原市","city_kana":"ゴショガワラシ","town":"藻川","town_kana":"モガワ","prefecture_code":2},"0642":{"zip_code":"0370642","prefecture":"青森県","prefecture_kana":"アオモリケン","city":"五所川原市","city_kana":"ゴショガワラシ","town":"持子沢","town_kana":"モッコザワ","prefecture_code":2},"0044":{"zip_code":"0370044","prefecture":"青森県","prefecture_kana":"アオモリケン","city":"五所川原市","city_kana":"ゴショガワラシ","town":"元町","town_kana":"モトマチ","prefecture_code":2},"0034":{"zip_code":"0370034","prefecture":"青森県","prefecture_kana":"アオモリケン","city":"五所川原市","city_kana":"ゴショガワラシ","town":"八重菊","town_kana":"ヤエギク","prefecture_code":2},"0073":{"zip_code":"0370073","prefecture":"青森県","prefecture_kana":"アオモリケン","city":"五所川原市","city_kana":"ゴショガワラシ","town":"柳町","town_kana":"ヤナギマチ","prefecture_code":2},"0051":{"zip_code":"0370051","prefecture":"青森県","prefecture_kana":"アオモリケン","city":"五所川原市","city_kana":"ゴショガワラシ","town":"弥生町","town_kana":"ヤヨイチョウ","prefecture_code":2},"0013":{"zip_code":"0370013","prefecture":"青森県","prefecture_kana":"アオモリケン","city":"五所川原市","city_kana":"ゴショガワラシ","town":"米田","town_kana":"ヨネタ","prefecture_code":2},"0069":{"zip_code":"0370069","prefecture":"青森県","prefecture_kana":"アオモリケン","city":"五所川原市","city_kana":"ゴショガワラシ","town":"若葉","town_kana":"ワカバ","prefecture_code":2},"0405":{"zip_code":"0370405","prefecture":"青森県","prefecture_kana":"アオモリケン","city":"五所川原市","city_kana":"ゴショガワラシ","town":"脇元","town_kana":"ワキモト","prefecture_code":2},"0102":{"zip_code":"0370102","prefecture":"青森県","prefecture_kana":"アオモリケン","city":"つがる市","city_kana":"ツガルシ","town":"稲垣町繁田","town_kana":"イナガキチョウシゲタ","prefecture_code":2},"0101":{"zip_code":"0370101","prefecture":"青森県","prefecture_kana":"アオモリケン","city":"つがる市","city_kana":"ツガルシ","town":"稲垣町下繁田","town_kana":"イナガキチョウシモシゲタ","prefecture_code":2},"0109":{"zip_code":"0370109","prefecture":"青森県","prefecture_kana":"アオモリケン","city":"つがる市","city_kana":"ツガルシ","town":"稲垣町千年","town_kana":"イナガキチョウチトセ","prefecture_code":2},"0104":{"zip_code":"0370104","prefecture":"青森県","prefecture_kana":"アオモリケン","city":"つがる市","city_kana":"ツガルシ","town":"稲垣町豊川","town_kana":"イナガキチョウトヨカワ","prefecture_code":2},"0106":{"zip_code":"0370106","prefecture":"青森県","prefecture_kana":"アオモリケン","city":"つがる市","city_kana":"ツガルシ","town":"稲垣町沼崎","town_kana":"イナガキチョウヌマザキ","prefecture_code":2},"0107":{"zip_code":"0370107","prefecture":"青森県","prefecture_kana":"アオモリケン","city":"つがる市","city_kana":"ツガルシ","town":"稲垣町沼舘","town_kana":"イナガキチョウヌマダテ","prefecture_code":2},"0105":{"zip_code":"0370105","prefecture":"青森県","prefecture_kana":"アオモリケン","city":"つがる市","city_kana":"ツガルシ","town":"稲垣町福富","town_kana":"イナガキチョウフクトミ","prefecture_code":2},"0103":{"zip_code":"0370103","prefecture":"青森県","prefecture_kana":"アオモリケン","city":"つがる市","city_kana":"ツガルシ","town":"稲垣町穂積","town_kana":"イナガキチョウホヅミ","prefecture_code":2},"0108":{"zip_code":"0370108","prefecture":"青森県","prefecture_kana":"アオモリケン","city":"つがる市","city_kana":"ツガルシ","town":"稲垣町吉出","town_kana":"イナガキチョウヨシデ","prefecture_code":2},"0300":{"zip_code":"0370300","prefecture":"青森県","prefecture_kana":"アオモリケン","city":"北津軽郡中泊町","city_kana":"キタツガルグンナカドマリマチ","town":"","town_kana":"","prefecture_code":2},"0316":{"zip_code":"0370316","prefecture":"青森県","prefecture_kana":"アオモリケン","city":"北津軽郡中泊町","city_kana":"キタツガルグンナカドマリマチ","town":"芦野","town_kana":"アシノ","prefecture_code":2},"0301":{"zip_code":"0370301","prefecture":"青森県","prefecture_kana":"アオモリケン","city":"北津軽郡中泊町","city_kana":"キタツガルグンナカドマリマチ","town":"今泉","town_kana":"イマイズミ","prefecture_code":2},"0302":{"zip_code":"0370302","prefecture":"青森県","prefecture_kana":"アオモリケン","city":"北津軽郡中泊町","city_kana":"キタツガルグンナカドマリマチ","town":"薄市","town_kana":"ウスイチ","prefecture_code":2},"0311":{"zip_code":"0370311","prefecture":"青森県","prefecture_kana":"アオモリケン","city":"北津軽郡中泊町","city_kana":"キタツガルグンナカドマリマチ","town":"大沢内","town_kana":"オオサワナイ","prefecture_code":2},"0304":{"zip_code":"0370304","prefecture":"青森県","prefecture_kana":"アオモリケン","city":"北津軽郡中泊町","city_kana":"キタツガルグンナカドマリマチ","town":"尾別","town_kana":"オッペツ","prefecture_code":2},"0512":{"zip_code":"0370512","prefecture":"青森県","prefecture_kana":"アオモリケン","city":"北津軽郡中泊町","city_kana":"キタツガルグンナカドマリマチ","town":"小泊朝間","town_kana":"コドマリアサマ","prefecture_code":2},"0523":{"zip_code":"0370523","prefecture":"青森県","prefecture_kana":"アオモリケン","city":"北津軽郡中泊町","city_kana":"キタツガルグンナカドマリマチ","town":"小泊稲荷","town_kana":"コドマリイナリ","prefecture_code":2},"0541":{"zip_code":"0370541","prefecture":"青森県","prefecture_kana":"アオモリケン","city":"北津軽郡中泊町","city_kana":"キタツガルグンナカドマリマチ","town":"小泊嗽沢","town_kana":"コドマリウガイサワ","prefecture_code":2},"0534":{"zip_code":"0370534","prefecture":"青森県","prefecture_kana":"アオモリケン","city":"北津軽郡中泊町","city_kana":"キタツガルグンナカドマリマチ","town":"小泊漆流","town_kana":"コドマリウルシナガレ","prefecture_code":2},"0542":{"zip_code":"0370542","prefecture":"青森県","prefecture_kana":"アオモリケン","city":"北津軽郡中泊町","city_kana":"キタツガルグンナカドマリマチ","town":"小泊大山長根","town_kana":"コドマリオオヤマナガネ","prefecture_code":2},"0535":{"zip_code":"0370535","prefecture":"青森県","prefecture_kana":"アオモリケン","city":"北津軽郡中泊町","city_kana":"キタツガルグンナカドマリマチ","town":"小泊尾崎道","town_kana":"コドマリオサキミチ","prefecture_code":2},"0521":{"zip_code":"0370521","prefecture":"青森県","prefecture_kana":"アオモリケン","city":"北津軽郡中泊町","city_kana":"キタツガルグンナカドマリマチ","town":"小泊折戸","town_kana":"コドマリオリト","prefecture_code":2},"0522":{"zip_code":"0370522","prefecture":"青森県","prefecture_kana":"アオモリケン","city":"北津軽郡中泊町","city_kana":"キタツガルグンナカドマリマチ","town":"小泊小泊","town_kana":"コドマリコドマリ","prefecture_code":2},"0525":{"zip_code":"0370525","prefecture":"青森県","prefecture_kana":"アオモリケン","city":"北津軽郡中泊町","city_kana":"キタツガルグンナカドマリマチ","town":"小泊鮫貝","town_kana":"コドマリサメガイ","prefecture_code":2},"0538":{"zip_code":"0370538","prefecture":"青森県","prefecture_kana":"アオモリケン","city":"北津軽郡中泊町","city_kana":"キタツガルグンナカドマリマチ","town":"小泊下前","town_kana":"コドマリシタマエ","prefecture_code":2},"0533":{"zip_code":"0370533","prefecture":"青森県","prefecture_kana":"アオモリケン","city":"北津軽郡中泊町","city_kana":"キタツガルグンナカドマリマチ","town":"小泊白倉","town_kana":"コドマリシロクラ","prefecture_code":2},"0511":{"zip_code":"0370511","prefecture":"青森県","prefecture_kana":"アオモリケン","city":"北津軽郡中泊町","city_kana":"キタツガルグンナカドマリマチ","town":"小泊砂山","town_kana":"コドマリスナヤマ","prefecture_code":2},"0531":{"zip_code":"0370531","prefecture":"青森県","prefecture_kana":"アオモリケン","city":"北津軽郡中泊町","city_kana":"キタツガルグンナカドマリマチ","town":"小泊長坂","town_kana":"コドマリナガサカ","prefecture_code":2},"0536":{"zip_code":"0370536","prefecture":"青森県","prefecture_kana":"アオモリケン","city":"北津軽郡中泊町","city_kana":"キタツガルグンナカドマリマチ","town":"小泊中間","town_kana":"コドマリナカマ","prefecture_code":2},"0532":{"zip_code":"0370532","prefecture":"青森県","prefecture_kana":"アオモリケン","city":"北津軽郡中泊町","city_kana":"キタツガルグンナカドマリマチ","town":"小泊梨子木平","town_kana":"コドマリナシキタイラ","prefecture_code":2},"0514":{"zip_code":"0370514","prefecture":"青森県","prefecture_kana":"アオモリケン","city":"北津軽郡中泊町","city_kana":"キタツガルグンナカドマリマチ","town":"小泊浜野","town_kana":"コドマリハマノ","prefecture_code":2},"0537":{"zip_code":"0370537","prefecture":"青森県","prefecture_kana":"アオモリケン","city":"北津軽郡中泊町","city_kana":"キタツガルグンナカドマリマチ","town":"小泊渕岩","town_kana":"コドマリフチイワ","prefecture_code":2},"0543":{"zip_code":"0370543","prefecture":"青森県","prefecture_kana":"アオモリケン","city":"北津軽郡中泊町","city_kana":"キタツガルグンナカドマリマチ","town":"小泊坊主沢","town_kana":"コドマリボウズサワ","prefecture_code":2},"0524":{"zip_code":"0370524","prefecture":"青森県","prefecture_kana":"アオモリケン","city":"北津軽郡中泊町","city_kana":"キタツガルグンナカドマリマチ","town":"小泊水澗","town_kana":"コドマリミズノマ","prefecture_code":2},"0513":{"zip_code":"0370513","prefecture":"青森県","prefecture_kana":"アオモリケン","city":"北津軽郡中泊町","city_kana":"キタツガルグンナカドマリマチ","town":"小泊割長根","town_kana":"コドマリワリナガネ","prefecture_code":2},"0303":{"zip_code":"0370303","prefecture":"青森県","prefecture_kana":"アオモリケン","city":"北津軽郡中泊町","city_kana":"キタツガルグンナカドマリマチ","town":"高根","town_kana":"タカネ","prefecture_code":2},"0318":{"zip_code":"0370318","prefecture":"青森県","prefecture_kana":"アオモリケン","city":"北津軽郡中泊町","city_kana":"キタツガルグンナカドマリマチ","town":"田茂木","town_kana":"タモギ","prefecture_code":2},"0313":{"zip_code":"0370313","prefecture":"青森県","prefecture_kana":"アオモリケン","city":"北津軽郡中泊町","city_kana":"キタツガルグンナカドマリマチ","town":"富野","town_kana":"トミノ","prefecture_code":2},"0315":{"zip_code":"0370315","prefecture":"青森県","prefecture_kana":"アオモリケン","city":"北津軽郡中泊町","city_kana":"キタツガルグンナカドマリマチ","town":"豊岡","town_kana":"トヨオカ","prefecture_code":2},"0312":{"zip_code":"0370312","prefecture":"青森県","prefecture_kana":"アオモリケン","city":"北津軽郡中泊町","city_kana":"キタツガルグンナカドマリマチ","town":"豊島","town_kana":"トヨシマ","prefecture_code":2},"0305":{"zip_code":"0370305","prefecture":"青森県","prefecture_kana":"アオモリケン","city":"北津軽郡中泊町","city_kana":"キタツガルグンナカドマリマチ","town":"中里","town_kana":"ナカサト","prefecture_code":2},"0317":{"zip_code":"0370317","prefecture":"青森県","prefecture_kana":"アオモリケン","city":"北津軽郡中泊町","city_kana":"キタツガルグンナカドマリマチ","town":"長泥","town_kana":"ナガドロ","prefecture_code":2},"0309":{"zip_code":"0370309","prefecture":"青森県","prefecture_kana":"アオモリケン","city":"北津軽郡中泊町","city_kana":"キタツガルグンナカドマリマチ","town":"八幡","town_kana":"ハチマン","prefecture_code":2},"0314":{"zip_code":"0370314","prefecture":"青森県","prefecture_kana":"アオモリケン","city":"北津軽郡中泊町","city_kana":"キタツガルグンナカドマリマチ","town":"福浦","town_kana":"フクウラ","prefecture_code":2},"0308":{"zip_code":"0370308","prefecture":"青森県","prefecture_kana":"アオモリケン","city":"北津軽郡中泊町","city_kana":"キタツガルグンナカドマリマチ","town":"深郷田","town_kana":"フコウダ","prefecture_code":2},"0306":{"zip_code":"0370306","prefecture":"青森県","prefecture_kana":"アオモリケン","city":"北津軽郡中泊町","city_kana":"キタツガルグンナカドマリマチ","town":"宮川","town_kana":"ミヤカワ","prefecture_code":2},"0307":{"zip_code":"0370307","prefecture":"青森県","prefecture_kana":"アオモリケン","city":"北津軽郡中泊町","city_kana":"キタツガルグンナカドマリマチ","town":"宮野沢","town_kana":"ミヤノサワ","prefecture_code":2}}