{"0000":{"zip_code":"0380000","prefecture":"青森県","prefecture_kana":"アオモリケン","city":"青森市","city_kana":"アオモリシ","town":"","town_kana":"","prefecture_code":2},"0056":{"zip_code":"0380056","prefecture":"青森県","prefecture_kana":"アオモリケン","city":"青森市","city_kana":"アオモリシ","town":"飛鳥","town_kana":"アスカ","prefecture_code":2},"0059":{"zip_code":"0380059","prefecture":"青森県","prefecture_kana":"アオモリケン","city":"青森市","city_kana":"アオモリシ","town":"油川","town_kana":"アブラカワ","prefecture_code":2},"0003":{"zip_code":"0380003","prefecture":"青森県","prefecture_kana":"アオモリケン","city":"青森市","city_kana":"アオモリシ","town":"石江","town_kana":"イシエ","prefecture_code":2},"0043":{"zip_code":"0380043","prefecture":"青森県","prefecture_kana":"アオモリケン","city":"青森市","city_kana":"アオモリシ","town":"岩渡","town_kana":"イワタリ","prefecture_code":2},"0051":{"zip_code":"0380051","prefecture":"青森県","prefecture_kana":"アオモリケン","city":"青森市","city_kana":"アオモリシ","town":"内真部","town_kana":"ウチマンペ","prefecture_code":2},"0041":{"zip_code":"0380041","prefecture":"青森県","prefecture_kana":"アオモリケン","city":"青森市","city_kana":"アオモリシ","town":"岡町","town_kana":"オカマチ","prefecture_code":2},"0002":{"zip_code":"0380002","prefecture":"青森県","prefecture_kana":"アオモリケン","city":"青森市","city_kana":"アオモリシ","town":"沖館","town_kana":"オキダテ","prefecture_code":2},"0054":{"zip_code":"0380054","prefecture":"青森県","prefecture_kana":"アオモリケン","city":"青森市","city_kana":"アオモリシ","town":"奥内","town_kana":"オクナイ","prefecture_code":2},"0013":{"zip_code":"0380013","prefecture":"青森県","prefecture_kana":"アオモリケン","city":"青森市","city_kana":"アオモリシ","town":"久須志","town_kana":"クスシ","prefecture_code":2},"0032":{"zip_code":"0380032","prefecture":"青森県","prefecture_kana":"アオモリケン","city":"青森市","city_kana":"アオモリシ","town":"里見","town_kana":"サトミ","prefecture_code":2},"0031":{"zip_code":"0380031","prefecture":"青森県","prefecture_kana":"アオモリケン","city":"青森市","city_kana":"アオモリシ","town":"三内","town_kana":"サンナイ","prefecture_code":2},"0011":{"zip_code":"0380011","prefecture":"青森県","prefecture_kana":"アオモリケン","city":"青森市","city_kana":"アオモリシ","town":"篠田","town_kana":"シノダ","prefecture_code":2},"0052":{"zip_code":"0380052","prefecture":"青森県","prefecture_kana":"アオモリケン","city":"青森市","city_kana":"アオモリシ","town":"清水","town_kana":"シミズ","prefecture_code":2},"0042":{"zip_code":"0380042","prefecture":"青森県","prefecture_kana":"アオモリケン","city":"青森市","city_kana":"アオモリシ","town":"新城","town_kana":"シンジョウ","prefecture_code":2},"0055":{"zip_code":"0380055","prefecture":"青森県","prefecture_kana":"アオモリケン","city":"青森市","city_kana":"アオモリシ","town":"瀬戸子","town_kana":"セトシ","prefecture_code":2},"0015":{"zip_code":"0380015","prefecture":"青森県","prefecture_kana":"アオモリケン","city":"青森市","city_kana":"アオモリシ","town":"千刈","town_kana":"センガリ","prefecture_code":2},"0045":{"zip_code":"0380045","prefecture":"青森県","prefecture_kana":"アオモリケン","city":"青森市","city_kana":"アオモリシ","town":"鶴ケ坂","town_kana":"ツルガサカ","prefecture_code":2},"0046":{"zip_code":"0380046","prefecture":"青森県","prefecture_kana":"アオモリケン","city":"青森市","city_kana":"アオモリシ","town":"戸門","town_kana":"トカド","prefecture_code":2},"0004":{"zip_code":"0380004","prefecture":"青森県","prefecture_kana":"アオモリケン","city":"青森市","city_kana":"アオモリシ","town":"富田","town_kana":"トミタ","prefecture_code":2},"1321":{"zip_code":"0381321","prefecture":"青森県","prefecture_kana":"アオモリケン","city":"青森市","city_kana":"アオモリシ","town":"浪岡相沢","town_kana":"ナミオカアイザワ","prefecture_code":2},"1313":{"zip_code":"0381313","prefecture":"青森県","prefecture_kana":"アオモリケン","city":"青森市","city_kana":"アオモリシ","town":"浪岡王余魚沢","town_kana":"ナミオカカレイザワ","prefecture_code":2},"1325":{"zip_code":"0381325","prefecture":"青森県","prefecture_kana":"アオモリケン","city":"青森市","city_kana":"アオモリシ","town":"浪岡北中野","town_kana":"ナミオカキタナカノ","prefecture_code":2},"1324":{"zip_code":"0381324","prefecture":"青森県","prefecture_kana":"アオモリケン","city":"青森市","city_kana":"アオモリシ","town":"浪岡吉内","town_kana":"ナミオカキチナイ","prefecture_code":2},"1343":{"zip_code":"0381343","prefecture":"青森県","prefecture_kana":"アオモリケン","city":"青森市","city_kana":"アオモリシ","town":"浪岡郷山前","town_kana":"ナミオカゴウサンマエ","prefecture_code":2},"1312":{"zip_code":"0381312","prefecture":"青森県","prefecture_kana":"アオモリケン","city":"青森市","city_kana":"アオモリシ","town":"浪岡五本松","town_kana":"ナミオカゴホンマツ","prefecture_code":2},"1345":{"zip_code":"0381345","prefecture":"青森県","prefecture_kana":"アオモリケン","city":"青森市","city_kana":"アオモリシ","town":"浪岡下石川","town_kana":"ナミオカシモイシカワ","prefecture_code":2},"1332":{"zip_code":"0381332","prefecture":"青森県","prefecture_kana":"アオモリケン","city":"青森市","city_kana":"アオモリシ","town":"浪岡下十川","town_kana":"ナミオカシモトガワ","prefecture_code":2},"1341":{"zip_code":"0381341","prefecture":"青森県","prefecture_kana":"アオモリケン","city":"青森市","city_kana":"アオモリシ","town":"浪岡銀","town_kana":"ナミオカシロガネ","prefecture_code":2},"1305":{"zip_code":"0381305","prefecture":"青森県","prefecture_kana":"アオモリケン","city":"青森市","city_kana":"アオモリシ","town":"浪岡杉沢","town_kana":"ナミオカスギサワ","prefecture_code":2},"1301":{"zip_code":"0381301","prefecture":"青森県","prefecture_kana":"アオモリケン","city":"青森市","city_kana":"アオモリシ","town":"浪岡大釈迦","town_kana":"ナミオカダイシャカ","prefecture_code":2},"1304":{"zip_code":"0381304","prefecture":"青森県","prefecture_kana":"アオモリケン","city":"青森市","city_kana":"アオモリシ","town":"浪岡高屋敷","town_kana":"ナミオカタカヤシキ","prefecture_code":2},"1342":{"zip_code":"0381342","prefecture":"青森県","prefecture_kana":"アオモリケン","city":"青森市","city_kana":"アオモリシ","town":"浪岡樽沢","town_kana":"ナミオカタルサワ","prefecture_code":2},"1303":{"zip_code":"0381303","prefecture":"青森県","prefecture_kana":"アオモリケン","city":"青森市","city_kana":"アオモリシ","town":"浪岡徳才子","town_kana":"ナミオカトクサイシ","prefecture_code":2},"1302":{"zip_code":"0381302","prefecture":"青森県","prefecture_kana":"アオモリケン","city":"青森市","city_kana":"アオモリシ","town":"浪岡長沼","town_kana":"ナミオカナガヌマ","prefecture_code":2},"1311":{"zip_code":"0381311","prefecture":"青森県","prefecture_kana":"アオモリケン","city":"青森市","city_kana":"アオモリシ","town":"浪岡浪岡","town_kana":"ナミオカナミオカ","prefecture_code":2},"1306":{"zip_code":"0381306","prefecture":"青森県","prefecture_kana":"アオモリケン","city":"青森市","city_kana":"アオモリシ","town":"浪岡福田","town_kana":"ナミオカフクダ","prefecture_code":2},"1322":{"zip_code":"0381322","prefecture":"青森県","prefecture_kana":"アオモリケン","city":"青森市","city_kana":"アオモリシ","town":"浪岡細野","town_kana":"ナミオカホソノ","prefecture_code":2},"1323":{"zip_code":"0381323","prefecture":"青森県","prefecture_kana":"アオモリケン","city":"青森市","city_kana":"アオモリシ","town":"浪岡本郷","town_kana":"ナミオカホンゴウ","prefecture_code":2},"1333":{"zip_code":"0381333","prefecture":"青森県","prefecture_kana":"アオモリケン","city":"青森市","city_kana":"アオモリシ","town":"浪岡増館","town_kana":"ナミオカマスダテ","prefecture_code":2},"1331":{"zip_code":"0381331","prefecture":"青森県","prefecture_kana":"アオモリケン","city":"青森市","city_kana":"アオモリシ","town":"浪岡女鹿沢","town_kana":"ナミオカメガサワ","prefecture_code":2},"1344":{"zip_code":"0381344","prefecture":"青森県","prefecture_kana":"アオモリケン","city":"青森市","city_kana":"アオモリシ","town":"浪岡吉野田","town_kana":"ナミオカヨシノダ","prefecture_code":2},"0022":{"zip_code":"0380022","prefecture":"青森県","prefecture_kana":"アオモリケン","city":"青森市","city_kana":"アオモリシ","town":"浪館","town_kana":"ナミダテ","prefecture_code":2},"0024":{"zip_code":"0380024","prefecture":"青森県","prefecture_kana":"アオモリケン","city":"青森市","city_kana":"アオモリシ","town":"浪館前田","town_kana":"ナミダテマエダ","prefecture_code":2},"0014":{"zip_code":"0380014","prefecture":"青森県","prefecture_kana":"アオモリケン","city":"青森市","city_kana":"アオモリシ","town":"西滝","town_kana":"ニシタキ","prefecture_code":2},"0057":{"zip_code":"0380057","prefecture":"青森県","prefecture_kana":"アオモリケン","city":"青森市","city_kana":"アオモリシ","town":"西田沢","town_kana":"ニシタザワ","prefecture_code":2},"0001":{"zip_code":"0380001","prefecture":"青森県","prefecture_kana":"アオモリケン","city":"青森市","city_kana":"アオモリシ","town":"新田","town_kana":"ニッタ","prefecture_code":2},"0058":{"zip_code":"0380058","prefecture":"青森県","prefecture_kana":"アオモリケン","city":"青森市","city_kana":"アオモリシ","town":"羽白","town_kana":"ハジロ","prefecture_code":2},"0023":{"zip_code":"0380023","prefecture":"青森県","prefecture_kana":"アオモリケン","city":"青森市","city_kana":"アオモリシ","town":"細越","town_kana":"ホソゴエ","prefecture_code":2},"0053":{"zip_code":"0380053","prefecture":"青森県","prefecture_kana":"アオモリケン","city":"青森市","city_kana":"アオモリシ","town":"前田","town_kana":"マエダ","prefecture_code":2},"0044":{"zip_code":"0380044","prefecture":"青森県","prefecture_kana":"アオモリケン","city":"青森市","city_kana":"アオモリシ","town":"孫内","town_kana":"マゴナイ","prefecture_code":2},"0006":{"zip_code":"0380006","prefecture":"青森県","prefecture_kana":"アオモリケン","city":"青森市","city_kana":"アオモリシ","town":"三好","town_kana":"ミヨシ","prefecture_code":2},"0021":{"zip_code":"0380021","prefecture":"青森県","prefecture_kana":"アオモリケン","city":"青森市","city_kana":"アオモリシ","town":"安田","town_kana":"ヤスタ","prefecture_code":2},"0012":{"zip_code":"0380012","prefecture":"青森県","prefecture_kana":"アオモリケン","city":"青森市","city_kana":"アオモリシ","town":"柳川","town_kana":"ヤナカワ","prefecture_code":2},"3615":{"zip_code":"0383615","prefecture":"青森県","prefecture_kana":"アオモリケン","city":"弘前市","city_kana":"ヒロサキシ","town":"青女子","town_kana":"アオナゴ","prefecture_code":2},"3613":{"zip_code":"0383613","prefecture":"青森県","prefecture_kana":"アオモリケン","city":"弘前市","city_kana":"ヒロサキシ","town":"小友","town_kana":"オトモ","prefecture_code":2},"3612":{"zip_code":"0383612","prefecture":"青森県","prefecture_kana":"アオモリケン","city":"弘前市","city_kana":"ヒロサキシ","town":"笹舘","town_kana":"ササダテ","prefecture_code":2},"3614":{"zip_code":"0383614","prefecture":"青森県","prefecture_kana":"アオモリケン","city":"弘前市","city_kana":"ヒロサキシ","town":"種市","town_kana":"タネイチ","prefecture_code":2},"3874":{"zip_code":"0383874","prefecture":"青森県","prefecture_kana":"アオモリケン","city":"弘前市","city_kana":"ヒロサキシ","town":"津賀野","town_kana":"ツカノ","prefecture_code":2},"3611":{"zip_code":"0383611","prefecture":"青森県","prefecture_kana":"アオモリケン","city":"弘前市","city_kana":"ヒロサキシ","town":"三和","town_kana":"ミワ","prefecture_code":2},"3821":{"zip_code":"0383821","prefecture":"青森県","prefecture_kana":"アオモリケン","city":"弘前市","city_kana":"ヒロサキシ","town":"百田","town_kana":"モモタ","prefecture_code":2},"3100":{"zip_code":"0383100","prefecture":"青森県","prefecture_kana":"アオモリケン","city":"つがる市","city_kana":"ツガルシ","town":"","town_kana":"","prefecture_code":2},"3305":{"zip_code":"0383305","prefecture":"青森県","prefecture_kana":"アオモリケン","city":"つがる市","city_kana":"ツガルシ","town":"牛潟町","town_kana":"ウシガタチョウ","prefecture_code":2},"3107":{"zip_code":"0383107","prefecture":"青森県","prefecture_kana":"アオモリケン","city":"つがる市","city_kana":"ツガルシ","town":"柏稲盛","town_kana":"カシワイセ","prefecture_code":2},"3103":{"zip_code":"0383103","prefecture":"青森県","prefecture_kana":"アオモリケン","city":"つがる市","city_kana":"ツガルシ","town":"柏上古川","town_kana":"カシワカミコガワ","prefecture_code":2},"3104":{"zip_code":"0383104","prefecture":"青森県","prefecture_kana":"アオモリケン","city":"つがる市","city_kana":"ツガルシ","town":"柏桑野木田","town_kana":"カシワクワノキダ","prefecture_code":2},"3101":{"zip_code":"0383101","prefecture":"青森県","prefecture_kana":"アオモリケン","city":"つがる市","city_kana":"ツガルシ","town":"柏鷺坂","town_kana":"カシワサギサカ","prefecture_code":2},"3102":{"zip_code":"0383102","prefecture":"青森県","prefecture_kana":"アオモリケン","city":"つがる市","city_kana":"ツガルシ","town":"柏下古川","town_kana":"カシワシモコガワ","prefecture_code":2},"3106":{"zip_code":"0383106","prefecture":"青森県","prefecture_kana":"アオモリケン","city":"つがる市","city_kana":"ツガルシ","town":"柏玉水","town_kana":"カシワタマミズ","prefecture_code":2},"3105":{"zip_code":"0383105","prefecture":"青森県","prefecture_kana":"アオモリケン","city":"つがる市","city_kana":"ツガルシ","town":"柏広須","town_kana":"カシワヒロス","prefecture_code":2},"3142":{"zip_code":"0383142","prefecture":"青森県","prefecture_kana":"アオモリケン","city":"つがる市","city_kana":"ツガルシ","town":"木造赤根","town_kana":"キヅクリアカネ","prefecture_code":2},"3144":{"zip_code":"0383144","prefecture":"青森県","prefecture_kana":"アオモリケン","city":"つがる市","city_kana":"ツガルシ","town":"木造曙","town_kana":"キヅクリアケボノ","prefecture_code":2},"3124":{"zip_code":"0383124","prefecture":"青森県","prefecture_kana":"アオモリケン","city":"つがる市","city_kana":"ツガルシ","town":"木造朝日","town_kana":"キヅクリアサヒ","prefecture_code":2},"3113":{"zip_code":"0383113","prefecture":"青森県","prefecture_kana":"アオモリケン","city":"つがる市","city_kana":"ツガルシ","town":"木造芦沼","town_kana":"キヅクリアシヌマ","prefecture_code":2},"3273":{"zip_code":"0383273","prefecture":"青森県","prefecture_kana":"アオモリケン","city":"つがる市","city_kana":"ツガルシ","town":"木造出野里","town_kana":"キヅクリイデノサト","prefecture_code":2},"3141":{"zip_code":"0383141","prefecture":"青森県","prefecture_kana":"アオモリケン","city":"つがる市","city_kana":"ツガルシ","town":"木造浮巣","town_kana":"キヅクリウキス","prefecture_code":2},"3135":{"zip_code":"0383135","prefecture":"青森県","prefecture_kana":"アオモリケン","city":"つがる市","city_kana":"ツガルシ","town":"木造有楽町","town_kana":"キヅクリウラクマチ","prefecture_code":2},"3162":{"zip_code":"0383162","prefecture":"青森県","prefecture_kana":"アオモリケン","city":"つがる市","city_kana":"ツガルシ","town":"木造浦船","town_kana":"キヅクリウラフネ","prefecture_code":2},"3122":{"zip_code":"0383122","prefecture":"青森県","prefecture_kana":"アオモリケン","city":"つがる市","city_kana":"ツガルシ","town":"木造追広","town_kana":"キヅクリオイヒロ","prefecture_code":2},"3277":{"zip_code":"0383277","prefecture":"青森県","prefecture_kana":"アオモリケン","city":"つがる市","city_kana":"ツガルシ","town":"木造大畑","town_kana":"キヅクリオオバタ","prefecture_code":2},"3285":{"zip_code":"0383285","prefecture":"青森県","prefecture_kana":"アオモリケン","city":"つがる市","city_kana":"ツガルシ","town":"木造大湯町","town_kana":"キヅクリオオユマチ","prefecture_code":2},"3272":{"zip_code":"0383272","prefecture":"青森県","prefecture_kana":"アオモリケン","city":"つがる市","city_kana":"ツガルシ","town":"木造兼館","town_kana":"キヅクリカネダテ","prefecture_code":2},"3284":{"zip_code":"0383284","prefecture":"青森県","prefecture_kana":"アオモリケン","city":"つがる市","city_kana":"ツガルシ","town":"木造亀ケ岡","town_kana":"キヅクリカメガオカ","prefecture_code":2},"3112":{"zip_code":"0383112","prefecture":"青森県","prefecture_kana":"アオモリケン","city":"つがる市","city_kana":"ツガルシ","town":"木造川除","town_kana":"キヅクリカワヨケ","prefecture_code":2},"3165":{"zip_code":"0383165","prefecture":"青森県","prefecture_kana":"アオモリケン","city":"つがる市","city_kana":"ツガルシ","town":"木造菊川","town_kana":"キヅクリキクカワ","prefecture_code":2},"2806":{"zip_code":"0382806","prefecture":"青森県","prefecture_kana":"アオモリケン","city":"つがる市","city_kana":"ツガルシ","town":"木造越水","town_kana":"キヅクリコシミズ","prefecture_code":2},"2807":{"zip_code":"0382807","prefecture":"青森県","prefecture_kana":"アオモリケン","city":"つがる市","city_kana":"ツガルシ","town":"木造駒田","town_kana":"キヅクリコマダ","prefecture_code":2},"3286":{"zip_code":"0383286","prefecture":"青森県","prefecture_kana":"アオモリケン","city":"つがる市","city_kana":"ツガルシ","town":"木造菰槌","town_kana":"キヅクリコモツチ","prefecture_code":2},"3159":{"zip_code":"0383159","prefecture":"青森県","prefecture_kana":"アオモリケン","city":"つがる市","city_kana":"ツガルシ","town":"木造桜川","town_kana":"キヅクリサクラガワ","prefecture_code":2},"3146":{"zip_code":"0383146","prefecture":"青森県","prefecture_kana":"アオモリケン","city":"つがる市","city_kana":"ツガルシ","town":"木造桜木","town_kana":"キヅクリサクラギ","prefecture_code":2},"3164":{"zip_code":"0383164","prefecture":"青森県","prefecture_kana":"アオモリケン","city":"つがる市","city_kana":"ツガルシ","town":"木造柴田","town_kana":"キヅクリシバタ","prefecture_code":2},"3132":{"zip_code":"0383132","prefecture":"青森県","prefecture_kana":"アオモリケン","city":"つがる市","city_kana":"ツガルシ","town":"木造清水","town_kana":"キヅクリシミズ","prefecture_code":2},"3287":{"zip_code":"0383287","prefecture":"青森県","prefecture_kana":"アオモリケン","city":"つがる市","city_kana":"ツガルシ","town":"木造下遠山里","town_kana":"キヅクリシモトオヤマサト","prefecture_code":2},"2803":{"zip_code":"0382803","prefecture":"青森県","prefecture_kana":"アオモリケン","city":"つがる市","city_kana":"ツガルシ","town":"木造下福原","town_kana":"キヅクリシモフクハラ","prefecture_code":2},"3133":{"zip_code":"0383133","prefecture":"青森県","prefecture_kana":"アオモリケン","city":"つがる市","city_kana":"ツガルシ","town":"木造末広","town_kana":"キヅクリスエヒロ","prefecture_code":2},"3283":{"zip_code":"0383283","prefecture":"青森県","prefecture_kana":"アオモリケン","city":"つがる市","city_kana":"ツガルシ","town":"木造館岡","town_kana":"キヅクリタテオカ","prefecture_code":2},"3134":{"zip_code":"0383134","prefecture":"青森県","prefecture_kana":"アオモリケン","city":"つがる市","city_kana":"ツガルシ","town":"木造種取","town_kana":"キヅクリタネトリ","prefecture_code":2},"3131":{"zip_code":"0383131","prefecture":"青森県","prefecture_kana":"アオモリケン","city":"つがる市","city_kana":"ツガルシ","town":"木造千年","town_kana":"キヅクリチトセ","prefecture_code":2},"3167":{"zip_code":"0383167","prefecture":"青森県","prefecture_kana":"アオモリケン","city":"つがる市","city_kana":"ツガルシ","town":"木造千代田","town_kana":"キヅクリチヨダ","prefecture_code":2},"3145":{"zip_code":"0383145","prefecture":"青森県","prefecture_kana":"アオモリケン","city":"つがる市","city_kana":"ツガルシ","town":"木造千代町","town_kana":"キヅクリチヨマチ","prefecture_code":2},"3278":{"zip_code":"0383278","prefecture":"青森県","prefecture_kana":"アオモリケン","city":"つがる市","city_kana":"ツガルシ","town":"木造土滝","town_kana":"キヅクリツチタキ","prefecture_code":2},"3125":{"zip_code":"0383125","prefecture":"青森県","prefecture_kana":"アオモリケン","city":"つがる市","city_kana":"ツガルシ","town":"木造鶴泊","town_kana":"キヅクリツルドマリ","prefecture_code":2},"3288":{"zip_code":"0383288","prefecture":"青森県","prefecture_kana":"アオモリケン","city":"つがる市","city_kana":"ツガルシ","town":"木造出来島","town_kana":"キヅクリデキシマ","prefecture_code":2},"3154":{"zip_code":"0383154","prefecture":"青森県","prefecture_kana":"アオモリケン","city":"つがる市","city_kana":"ツガルシ","town":"木造照日","town_kana":"キヅクリテルヒ","prefecture_code":2},"3282":{"zip_code":"0383282","prefecture":"青森県","prefecture_kana":"アオモリケン","city":"つがる市","city_kana":"ツガルシ","town":"木造筒木坂","town_kana":"キヅクリドウキザカ","prefecture_code":2},"3111":{"zip_code":"0383111","prefecture":"青森県","prefecture_kana":"アオモリケン","city":"つがる市","city_kana":"ツガルシ","town":"木造豊田","town_kana":"キヅクリトヨダ","prefecture_code":2},"3275":{"zip_code":"0383275","prefecture":"青森県","prefecture_kana":"アオモリケン","city":"つがる市","city_kana":"ツガルシ","town":"木造永田","town_kana":"キヅクリナガタ","prefecture_code":2},"3163":{"zip_code":"0383163","prefecture":"青森県","prefecture_kana":"アオモリケン","city":"つがる市","city_kana":"ツガルシ","town":"木造中館","town_kana":"キヅクリナカダテ","prefecture_code":2},"3114":{"zip_code":"0383114","prefecture":"青森県","prefecture_kana":"アオモリケン","city":"つがる市","city_kana":"ツガルシ","town":"木造成田","town_kana":"キヅクリナリタ","prefecture_code":2},"3161":{"zip_code":"0383161","prefecture":"青森県","prefecture_kana":"アオモリケン","city":"つがる市","city_kana":"ツガルシ","town":"木造濁川","town_kana":"キヅクリニゴリガワ","prefecture_code":2},"3153":{"zip_code":"0383153","prefecture":"青森県","prefecture_kana":"アオモリケン","city":"つがる市","city_kana":"ツガルシ","town":"木造野宮","town_kana":"キヅクリノミヤ","prefecture_code":2},"3139":{"zip_code":"0383139","prefecture":"青森県","prefecture_kana":"アオモリケン","city":"つがる市","city_kana":"ツガルシ","town":"木造萩流","town_kana":"キヅクリハギナガレ","prefecture_code":2},"3136":{"zip_code":"0383136","prefecture":"青森県","prefecture_kana":"アオモリケン","city":"つがる市","city_kana":"ツガルシ","town":"木造萩野","town_kana":"キヅクリハギノ","prefecture_code":2},"3115":{"zip_code":"0383115","prefecture":"青森県","prefecture_kana":"アオモリケン","city":"つがる市","city_kana":"ツガルシ","town":"木造蓮川","town_kana":"キヅクリハスカワ","prefecture_code":2},"3276":{"zip_code":"0383276","prefecture":"青森県","prefecture_kana":"アオモリケン","city":"つがる市","city_kana":"ツガルシ","town":"木造林","town_kana":"キヅクリハヤシ","prefecture_code":2},"3121":{"zip_code":"0383121","prefecture":"青森県","prefecture_kana":"アオモリケン","city":"つがる市","city_kana":"ツガルシ","town":"木造早田","town_kana":"キヅクリハヤタ","prefecture_code":2},"3143":{"zip_code":"0383143","prefecture":"青森県","prefecture_kana":"アオモリケン","city":"つがる市","city_kana":"ツガルシ","town":"木造日向","town_kana":"キヅクリヒナタ","prefecture_code":2},"3281":{"zip_code":"0383281","prefecture":"青森県","prefecture_kana":"アオモリケン","city":"つがる市","city_kana":"ツガルシ","town":"木造平滝","town_kana":"キヅクリヒラタキ","prefecture_code":2},"2805":{"zip_code":"0382805","prefecture":"青森県","prefecture_kana":"アオモリケン","city":"つがる市","city_kana":"ツガルシ","town":"木造広岡","town_kana":"キヅクリヒロオカ","prefecture_code":2},"2808":{"zip_code":"0382808","prefecture":"青森県","prefecture_kana":"アオモリケン","city":"つがる市","city_kana":"ツガルシ","town":"木造吹原","town_kana":"キヅクリフキハラ","prefecture_code":2},"3166":{"zip_code":"0383166","prefecture":"青森県","prefecture_kana":"アオモリケン","city":"つがる市","city_kana":"ツガルシ","town":"木造福原","town_kana":"キヅクリフクハラ","prefecture_code":2},"3158":{"zip_code":"0383158","prefecture":"青森県","prefecture_kana":"アオモリケン","city":"つがる市","city_kana":"ツガルシ","town":"木造房松","town_kana":"キヅクリフサマツ","prefecture_code":2},"3152":{"zip_code":"0383152","prefecture":"青森県","prefecture_kana":"アオモリケン","city":"つがる市","city_kana":"ツガルシ","town":"木造藤岡","town_kana":"キヅクリフジオカ","prefecture_code":2},"3123":{"zip_code":"0383123","prefecture":"青森県","prefecture_kana":"アオモリケン","city":"つがる市","city_kana":"ツガルシ","town":"木造藤田","town_kana":"キヅクリフジタ","prefecture_code":2},"3155":{"zip_code":"0383155","prefecture":"青森県","prefecture_kana":"アオモリケン","city":"つがる市","city_kana":"ツガルシ","town":"木造増田","town_kana":"キヅクリマスタ","prefecture_code":2},"2801":{"zip_code":"0382801","prefecture":"青森県","prefecture_kana":"アオモリケン","city":"つがる市","city_kana":"ツガルシ","town":"木造丸山","town_kana":"キヅクリマルヤマ","prefecture_code":2},"2804":{"zip_code":"0382804","prefecture":"青森県","prefecture_kana":"アオモリケン","city":"つがる市","city_kana":"ツガルシ","town":"木造三ツ館","town_kana":"キヅクリミツタテ","prefecture_code":2},"3156":{"zip_code":"0383156","prefecture":"青森県","prefecture_kana":"アオモリケン","city":"つがる市","city_kana":"ツガルシ","town":"木造宮井","town_kana":"キヅクリミヤイ","prefecture_code":2},"3157":{"zip_code":"0383157","prefecture":"青森県","prefecture_kana":"アオモリケン","city":"つがる市","city_kana":"ツガルシ","town":"木造宮崎","town_kana":"キヅクリミヤザキ","prefecture_code":2},"3126":{"zip_code":"0383126","prefecture":"青森県","prefecture_kana":"アオモリケン","city":"つがる市","city_kana":"ツガルシ","town":"木造森内","town_kana":"キヅクリモリウチ","prefecture_code":2},"3128":{"zip_code":"0383128","prefecture":"青森県","prefecture_kana":"アオモリケン","city":"つがる市","city_kana":"ツガルシ","town":"木造森本","town_kana":"キヅクリモリモト","prefecture_code":2},"3127":{"zip_code":"0383127","prefecture":"青森県","prefecture_kana":"アオモリケン","city":"つがる市","city_kana":"ツガルシ","town":"木造森山","town_kana":"キヅクリモリヤマ","prefecture_code":2},"3271":{"zip_code":"0383271","prefecture":"青森県","prefecture_kana":"アオモリケン","city":"つがる市","city_kana":"ツガルシ","town":"木造善積","town_kana":"キヅクリヨシヅミ","prefecture_code":2},"3274":{"zip_code":"0383274","prefecture":"青森県","prefecture_kana":"アオモリケン","city":"つがる市","city_kana":"ツガルシ","town":"木造蓮花田","town_kana":"キヅクリレンゲタ","prefecture_code":2},"3151":{"zip_code":"0383151","prefecture":"青森県","prefecture_kana":"アオモリケン","city":"つがる市","city_kana":"ツガルシ","town":"木造若竹","town_kana":"キヅクリワカタケ","prefecture_code":2},"3138":{"zip_code":"0383138","prefecture":"青森県","prefecture_kana":"アオモリケン","city":"つがる市","city_kana":"ツガルシ","town":"木造若緑","town_kana":"キヅクリワカミドリ","prefecture_code":2},"3137":{"zip_code":"0383137","prefecture":"青森県","prefecture_kana":"アオモリケン","city":"つがる市","city_kana":"ツガルシ","town":"木造若宮","town_kana":"キヅクリワカミヤ","prefecture_code":2},"3304":{"zip_code":"0383304","prefecture":"青森県","prefecture_kana":"アオモリケン","city":"つがる市","city_kana":"ツガルシ","town":"下車力町","town_kana":"シタシャリキチョウ","prefecture_code":2},"3306":{"zip_code":"0383306","prefecture":"青森県","prefecture_kana":"アオモリケン","city":"つがる市","city_kana":"ツガルシ","town":"下牛潟町","town_kana":"シモウシガタチョウ","prefecture_code":2},"3303":{"zip_code":"0383303","prefecture":"青森県","prefecture_kana":"アオモリケン","city":"つがる市","city_kana":"ツガルシ","town":"車力町","town_kana":"シャリキチョウ","prefecture_code":2},"3301":{"zip_code":"0383301","prefecture":"青森県","prefecture_kana":"アオモリケン","city":"つがる市","city_kana":"ツガルシ","town":"富萢町","town_kana":"トミヤチチョウ","prefecture_code":2},"3302":{"zip_code":"0383302","prefecture":"青森県","prefecture_kana":"アオモリケン","city":"つがる市","city_kana":"ツガルシ","town":"豊富町","town_kana":"トヨトミチョウ","prefecture_code":2},"2818":{"zip_code":"0382818","prefecture":"青森県","prefecture_kana":"アオモリケン","city":"つがる市","city_kana":"ツガルシ","town":"森田町大館","town_kana":"モリタチョウオオダテ","prefecture_code":2},"2811":{"zip_code":"0382811","prefecture":"青森県","prefecture_kana":"アオモリケン","city":"つがる市","city_kana":"ツガルシ","town":"森田町上相野","town_kana":"モリタチョウカミアイノ","prefecture_code":2},"2812":{"zip_code":"0382812","prefecture":"青森県","prefecture_kana":"アオモリケン","city":"つがる市","city_kana":"ツガルシ","town":"森田町下相野","town_kana":"モリタチョウシモアイノ","prefecture_code":2},"2817":{"zip_code":"0382817","prefecture":"青森県","prefecture_kana":"アオモリケン","city":"つがる市","city_kana":"ツガルシ","town":"森田町床舞","town_kana":"モリタチョウトコマイ","prefecture_code":2},"2814":{"zip_code":"0382814","prefecture":"青森県","prefecture_kana":"アオモリケン","city":"つがる市","city_kana":"ツガルシ","town":"森田町中田","town_kana":"モリタチョウナカタ","prefecture_code":2},"2813":{"zip_code":"0382813","prefecture":"青森県","prefecture_kana":"アオモリケン","city":"つがる市","city_kana":"ツガルシ","town":"森田町妙堂崎","town_kana":"モリタチョウミョウドウザキ","prefecture_code":2},"2816":{"zip_code":"0382816","prefecture":"青森県","prefecture_kana":"アオモリケン","city":"つがる市","city_kana":"ツガルシ","town":"森田町森田","town_kana":"モリタチョウモリタ","prefecture_code":2},"2815":{"zip_code":"0382815","prefecture":"青森県","prefecture_kana":"アオモリケン","city":"つがる市","city_kana":"ツガルシ","town":"森田町山田","town_kana":"モリタチョウヤマダ","prefecture_code":2},"0101":[{"zip_code":"0380101","prefecture":"青森県","prefecture_kana":"アオモリケン","city":"平川市","city_kana":"ヒラカワシ","town":"碇ケ関","town_kana":"イカリガセキ","prefecture_code":2},{"zip_code":"0380101","prefecture":"青森県","prefecture_kana":"アオモリケン","city":"平川市","city_kana":"ヒラカワシ","town":"碇ケ関相沢","town_kana":"イカリガセキアイザワ","prefecture_code":2},{"zip_code":"0380101","prefecture":"青森県","prefecture_kana":"アオモリケン","city":"平川市","city_kana":"ヒラカワシ","town":"碇ケ関阿原","town_kana":"イカリガセキアバラ","prefecture_code":2},{"zip_code":"0380101","prefecture":"青森県","prefecture_kana":"アオモリケン","city":"平川市","city_kana":"ヒラカワシ","town":"碇ケ関雷林","town_kana":"イカリガセキイカズチバヤシ","prefecture_code":2},{"zip_code":"0380101","prefecture":"青森県","prefecture_kana":"アオモリケン","city":"平川市","city_kana":"ヒラカワシ","town":"碇ケ関碇石","town_kana":"イカリガセキイカリイシ","prefecture_code":2},{"zip_code":"0380101","prefecture":"青森県","prefecture_kana":"アオモリケン","city":"平川市","city_kana":"ヒラカワシ","town":"碇ケ関岩井","town_kana":"イカリガセキイワイ","prefecture_code":2},{"zip_code":"0380101","prefecture":"青森県","prefecture_kana":"アオモリケン","city":"平川市","city_kana":"ヒラカワシ","town":"碇ケ関大葉平","town_kana":"イカリガセキオオバダイラ","prefecture_code":2},{"zip_code":"0380101","prefecture":"青森県","prefecture_kana":"アオモリケン","city":"平川市","city_kana":"ヒラカワシ","town":"碇ケ関大落前","town_kana":"イカリガセキオオラクマエ","prefecture_code":2},{"zip_code":"0380101","prefecture":"青森県","prefecture_kana":"アオモリケン","city":"平川市","city_kana":"ヒラカワシ","town":"碇ケ関折橋","town_kana":"イカリガセキオリハシ","prefecture_code":2},{"zip_code":"0380101","prefecture":"青森県","prefecture_kana":"アオモリケン","city":"平川市","city_kana":"ヒラカワシ","town":"碇ケ関鯨森","town_kana":"イカリガセキクジラモリ","prefecture_code":2},{"zip_code":"0380101","prefecture":"青森県","prefecture_kana":"アオモリケン","city":"平川市","city_kana":"ヒラカワシ","town":"碇ケ関小落前","town_kana":"イカリガセキコラクマエ","prefecture_code":2},{"zip_code":"0380101","prefecture":"青森県","prefecture_kana":"アオモリケン","city":"平川市","city_kana":"ヒラカワシ","town":"碇ケ関山神堂","town_kana":"イカリガセキサンジンドウ","prefecture_code":2},{"zip_code":"0380101","prefecture":"青森県","prefecture_kana":"アオモリケン","city":"平川市","city_kana":"ヒラカワシ","town":"碇ケ関白沢","town_kana":"イカリガセキシラサワ","prefecture_code":2},{"zip_code":"0380101","prefecture":"青森県","prefecture_kana":"アオモリケン","city":"平川市","city_kana":"ヒラカワシ","town":"碇ケ関諏訪平","town_kana":"イカリガセキスワダイラ","prefecture_code":2},{"zip_code":"0380101","prefecture":"青森県","prefecture_kana":"アオモリケン","city":"平川市","city_kana":"ヒラカワシ","town":"碇ケ関外白沢","town_kana":"イカリガセキソトシラサワ","prefecture_code":2},{"zip_code":"0380101","prefecture":"青森県","prefecture_kana":"アオモリケン","city":"平川市","city_kana":"ヒラカワシ","town":"碇ケ関高田","town_kana":"イカリガセキタカダ","prefecture_code":2},{"zip_code":"0380101","prefecture":"青森県","prefecture_kana":"アオモリケン","city":"平川市","city_kana":"ヒラカワシ","town":"碇ケ関樋ケ沢","town_kana":"イカリガセキトイガサワ","prefecture_code":2},{"zip_code":"0380101","prefecture":"青森県","prefecture_kana":"アオモリケン","city":"平川市","city_kana":"ヒラカワシ","town":"碇ケ関西碇ケ関山","town_kana":"イカリガセキニシイカリガセキヤマ","prefecture_code":2},{"zip_code":"0380101","prefecture":"青森県","prefecture_kana":"アオモリケン","city":"平川市","city_kana":"ヒラカワシ","town":"碇ケ関東碇ケ関山","town_kana":"イカリガセキヒガシイカリガセキヤマ","prefecture_code":2},{"zip_code":"0380101","prefecture":"青森県","prefecture_kana":"アオモリケン","city":"平川市","city_kana":"ヒラカワシ","town":"碇ケ関樋ノ口","town_kana":"イカリガセキヒノクチ","prefecture_code":2},{"zip_code":"0380101","prefecture":"青森県","prefecture_kana":"アオモリケン","city":"平川市","city_kana":"ヒラカワシ","town":"碇ケ関船岡","town_kana":"イカリガセキフナオカ","prefecture_code":2},{"zip_code":"0380101","prefecture":"青森県","prefecture_kana":"アオモリケン","city":"平川市","city_kana":"ヒラカワシ","town":"碇ケ関踏田切","town_kana":"イカリガセキフミタギリ","prefecture_code":2},{"zip_code":"0380101","prefecture":"青森県","prefecture_kana":"アオモリケン","city":"平川市","city_kana":"ヒラカワシ","town":"碇ケ関三笠山","town_kana":"イカリガセキミカサヤマ","prefecture_code":2},{"zip_code":"0380101","prefecture":"青森県","prefecture_kana":"アオモリケン","city":"平川市","city_kana":"ヒラカワシ","town":"碇ケ関水溜","town_kana":"イカリガセキミズタメ","prefecture_code":2},{"zip_code":"0380101","prefecture":"青森県","prefecture_kana":"アオモリケン","city":"平川市","city_kana":"ヒラカワシ","town":"碇ケ関湯向川添","town_kana":"イカリガセキユムカイカワゾエ","prefecture_code":2},{"zip_code":"0380101","prefecture":"青森県","prefecture_kana":"アオモリケン","city":"平川市","city_kana":"ヒラカワシ","town":"碇ケ関横町","town_kana":"イカリガセキヨコマチ","prefecture_code":2}],"0102":[{"zip_code":"0380102","prefecture":"青森県","prefecture_kana":"アオモリケン","city":"平川市","city_kana":"ヒラカワシ","town":"碇ケ関古懸上程森","town_kana":"イカリガセキコガケカミホドモリ","prefecture_code":2},{"zip_code":"0380102","prefecture":"青森県","prefecture_kana":"アオモリケン","city":"平川市","city_kana":"ヒラカワシ","town":"碇ケ関古懸沢田","town_kana":"イカリガセキコガケサワダ","prefecture_code":2},{"zip_code":"0380102","prefecture":"青森県","prefecture_kana":"アオモリケン","city":"平川市","city_kana":"ヒラカワシ","town":"碇ケ関古懸樋ケ沢","town_kana":"イカリガセキコガケトイガサワ","prefecture_code":2},{"zip_code":"0380102","prefecture":"青森県","prefecture_kana":"アオモリケン","city":"平川市","city_kana":"ヒラカワシ","town":"碇ケ関古懸堂ノ上","town_kana":"イカリガセキコガケドウノウエ","prefecture_code":2},{"zip_code":"0380102","prefecture":"青森県","prefecture_kana":"アオモリケン","city":"平川市","city_kana":"ヒラカワシ","town":"碇ケ関古懸鳥井","town_kana":"イカリガセキコガケトリイ","prefecture_code":2},{"zip_code":"0380102","prefecture":"青森県","prefecture_kana":"アオモリケン","city":"平川市","city_kana":"ヒラカワシ","town":"碇ケ関古懸西不動野","town_kana":"イカリガセキコガケニシフドウノ","prefecture_code":2},{"zip_code":"0380102","prefecture":"青森県","prefecture_kana":"アオモリケン","city":"平川市","city_kana":"ヒラカワシ","town":"碇ケ関古懸東不動野","town_kana":"イカリガセキコガケヒガシフドウノ","prefecture_code":2},{"zip_code":"0380102","prefecture":"青森県","prefecture_kana":"アオモリケン","city":"平川市","city_kana":"ヒラカワシ","town":"碇ケ関古懸不動沢大石","town_kana":"イカリガセキコガケフドウサワオオイシ","prefecture_code":2},{"zip_code":"0380102","prefecture":"青森県","prefecture_kana":"アオモリケン","city":"平川市","city_kana":"ヒラカワシ","town":"碇ケ関古懸不動野","town_kana":"イカリガセキコガケフドウノ","prefecture_code":2},{"zip_code":"0380102","prefecture":"青森県","prefecture_kana":"アオモリケン","city":"平川市","city_kana":"ヒラカワシ","town":"碇ケ関古懸南不動野","town_kana":"イカリガセキコガケミナミフドウノ","prefecture_code":2},{"zip_code":"0380102","prefecture":"青森県","prefecture_kana":"アオモリケン","city":"平川市","city_kana":"ヒラカワシ","town":"碇ケ関古懸向安田","town_kana":"イカリガセキコガケムカイヤスダ","prefecture_code":2},{"zip_code":"0380102","prefecture":"青森県","prefecture_kana":"アオモリケン","city":"平川市","city_kana":"ヒラカワシ","town":"碇ケ関古懸門前","town_kana":"イカリガセキコガケモンゼン","prefecture_code":2},{"zip_code":"0380102","prefecture":"青森県","prefecture_kana":"アオモリケン","city":"平川市","city_kana":"ヒラカワシ","town":"碇ケ関古懸門前屋岸","town_kana":"イカリガセキコガケモンゼンヤギシ","prefecture_code":2},{"zip_code":"0380102","prefecture":"青森県","prefecture_kana":"アオモリケン","city":"平川市","city_kana":"ヒラカワシ","town":"碇ケ関古懸安田","town_kana":"イカリガセキコガケヤスタ","prefecture_code":2}],"0103":[{"zip_code":"0380103","prefecture":"青森県","prefecture_kana":"アオモリケン","city":"平川市","city_kana":"ヒラカワシ","town":"碇ケ関久吉蕷ケ平","town_kana":"イカリガセキヒサヨシイモガタイラ","prefecture_code":2},{"zip_code":"0380103","prefecture":"青森県","prefecture_kana":"アオモリケン","city":"平川市","city_kana":"ヒラカワシ","town":"碇ケ関久吉二ノ渡","town_kana":"イカリガセキヒサヨシニノワタリ","prefecture_code":2},{"zip_code":"0380103","prefecture":"青森県","prefecture_kana":"アオモリケン","city":"平川市","city_kana":"ヒラカワシ","town":"碇ケ関久吉山岸","town_kana":"イカリガセキヒサヨシヤマギシ","prefecture_code":2}],"2700":{"zip_code":"0382700","prefecture":"青森県","prefecture_kana":"アオモリケン","city":"西津軽郡鰺ヶ沢町","city_kana":"ニシツガルグンアジガサワマチ","town":"","town_kana":"","prefecture_code":2},"2731":{"zip_code":"0382731","prefecture":"青森県","prefecture_kana":"アオモリケン","city":"西津軽郡鰺ヶ沢町","city_kana":"ニシツガルグンアジガサワマチ","town":"赤石町","town_kana":"アカイシマチ","prefecture_code":2},"2714":{"zip_code":"0382714","prefecture":"青森県","prefecture_kana":"アオモリケン","city":"西津軽郡鰺ヶ沢町","city_kana":"ニシツガルグンアジガサワマチ","town":"芦萢町","town_kana":"アシヤチマチ","prefecture_code":2},"2742":{"zip_code":"0382742","prefecture":"青森県","prefecture_kana":"アオモリケン","city":"西津軽郡鰺ヶ沢町","city_kana":"ニシツガルグンアジガサワマチ","town":"新町","town_kana":"アラマチ","prefecture_code":2},"2735":{"zip_code":"0382735","prefecture":"青森県","prefecture_kana":"アオモリケン","city":"西津軽郡鰺ヶ沢町","city_kana":"ニシツガルグンアジガサワマチ","town":"姥袋町","town_kana":"ウバフクロマチ","prefecture_code":2},"2724":{"zip_code":"0382724","prefecture":"青森県","prefecture_kana":"アオモリケン","city":"西津軽郡鰺ヶ沢町","city_kana":"ニシツガルグンアジガサワマチ","town":"鬼袋町","town_kana":"オニフクロマチ","prefecture_code":2},"2701":{"zip_code":"0382701","prefecture":"青森県","prefecture_kana":"アオモリケン","city":"西津軽郡鰺ヶ沢町","city_kana":"ニシツガルグンアジガサワマチ","town":"北浮田町","town_kana":"キタウキタマチ","prefecture_code":2},"2754":{"zip_code":"0382754","prefecture":"青森県","prefecture_kana":"アオモリケン","city":"西津軽郡鰺ヶ沢町","city_kana":"ニシツガルグンアジガサワマチ","town":"米町","town_kana":"コメマチ","prefecture_code":2},"2722":{"zip_code":"0382722","prefecture":"青森県","prefecture_kana":"アオモリケン","city":"西津軽郡鰺ヶ沢町","city_kana":"ニシツガルグンアジガサワマチ","town":"小森町","town_kana":"コモリマチ","prefecture_code":2},"2703":{"zip_code":"0382703","prefecture":"青森県","prefecture_kana":"アオモリケン","city":"西津軽郡鰺ヶ沢町","city_kana":"ニシツガルグンアジガサワマチ","town":"小屋敷町","town_kana":"コヤシキマチ","prefecture_code":2},"2745":{"zip_code":"0382745","prefecture":"青森県","prefecture_kana":"アオモリケン","city":"西津軽郡鰺ヶ沢町","city_kana":"ニシツガルグンアジガサワマチ","town":"新地町","town_kana":"シンチマチ","prefecture_code":2},"2702":{"zip_code":"0382702","prefecture":"青森県","prefecture_kana":"アオモリケン","city":"西津軽郡鰺ヶ沢町","city_kana":"ニシツガルグンアジガサワマチ","town":"建石町","town_kana":"タテイシマチ","prefecture_code":2},"2733":{"zip_code":"0382733","prefecture":"青森県","prefecture_kana":"アオモリケン","city":"西津軽郡鰺ヶ沢町","city_kana":"ニシツガルグンアジガサワマチ","town":"館前町","town_kana":"タテマエマチ","prefecture_code":2},"2751":{"zip_code":"0382751","prefecture":"青森県","prefecture_kana":"アオモリケン","city":"西津軽郡鰺ヶ沢町","city_kana":"ニシツガルグンアジガサワマチ","town":"田中町","town_kana":"タナカマチ","prefecture_code":2},"2725":{"zip_code":"0382725","prefecture":"青森県","prefecture_kana":"アオモリケン","city":"西津軽郡鰺ヶ沢町","city_kana":"ニシツガルグンアジガサワマチ","town":"種里町","town_kana":"タネサトマチ","prefecture_code":2},"2743":{"zip_code":"0382743","prefecture":"青森県","prefecture_kana":"アオモリケン","city":"西津軽郡鰺ヶ沢町","city_kana":"ニシツガルグンアジガサワマチ","town":"釣町","town_kana":"ツリマチ","prefecture_code":2},"2711":{"zip_code":"0382711","prefecture":"青森県","prefecture_kana":"アオモリケン","city":"西津軽郡鰺ヶ沢町","city_kana":"ニシツガルグンアジガサワマチ","town":"中村町","town_kana":"ナカムラマチ","prefecture_code":2},"2712":{"zip_code":"0382712","prefecture":"青森県","prefecture_kana":"アオモリケン","city":"西津軽郡鰺ヶ沢町","city_kana":"ニシツガルグンアジガサワマチ","town":"長平町","town_kana":"ナガダイマチ","prefecture_code":2},"2752":{"zip_code":"0382752","prefecture":"青森県","prefecture_kana":"アオモリケン","city":"西津軽郡鰺ヶ沢町","city_kana":"ニシツガルグンアジガサワマチ","town":"七ツ石町","town_kana":"ナナツイシマチ","prefecture_code":2},"2741":{"zip_code":"0382741","prefecture":"青森県","prefecture_kana":"アオモリケン","city":"西津軽郡鰺ヶ沢町","city_kana":"ニシツガルグンアジガサワマチ","town":"浜町","town_kana":"ハママチ","prefecture_code":2},"2715":{"zip_code":"0382715","prefecture":"青森県","prefecture_kana":"アオモリケン","city":"西津軽郡鰺ヶ沢町","city_kana":"ニシツガルグンアジガサワマチ","town":"浜横沢町","town_kana":"ハマヨコサワマチ","prefecture_code":2},"2732":{"zip_code":"0382732","prefecture":"青森県","prefecture_kana":"アオモリケン","city":"西津軽郡鰺ヶ沢町","city_kana":"ニシツガルグンアジガサワマチ","town":"日照田町","town_kana":"ヒデリタマチ","prefecture_code":2},"2723":{"zip_code":"0382723","prefecture":"青森県","prefecture_kana":"アオモリケン","city":"西津軽郡鰺ヶ沢町","city_kana":"ニシツガルグンアジガサワマチ","town":"一ツ森町","town_kana":"ヒトツモリマチ","prefecture_code":2},"2721":{"zip_code":"0382721","prefecture":"青森県","prefecture_kana":"アオモリケン","city":"西津軽郡鰺ヶ沢町","city_kana":"ニシツガルグンアジガサワマチ","town":"深谷町","town_kana":"フカヤマチ","prefecture_code":2},"2746":{"zip_code":"0382746","prefecture":"青森県","prefecture_kana":"アオモリケン","city":"西津軽郡鰺ヶ沢町","city_kana":"ニシツガルグンアジガサワマチ","town":"富根町","town_kana":"フネチョウ","prefecture_code":2},"2753":{"zip_code":"0382753","prefecture":"青森県","prefecture_kana":"アオモリケン","city":"西津軽郡鰺ヶ沢町","city_kana":"ニシツガルグンアジガサワマチ","town":"本町","town_kana":"ホンチョウ","prefecture_code":2},"2761":{"zip_code":"0382761","prefecture":"青森県","prefecture_kana":"アオモリケン","city":"西津軽郡鰺ヶ沢町","city_kana":"ニシツガルグンアジガサワマチ","town":"舞戸町","town_kana":"マイトマチ","prefecture_code":2},"2713":{"zip_code":"0382713","prefecture":"青森県","prefecture_kana":"アオモリケン","city":"西津軽郡鰺ヶ沢町","city_kana":"ニシツガルグンアジガサワマチ","town":"松代町","town_kana":"マツダイマチ","prefecture_code":2},"2705":{"zip_code":"0382705","prefecture":"青森県","prefecture_kana":"アオモリケン","city":"西津軽郡鰺ヶ沢町","city_kana":"ニシツガルグンアジガサワマチ","town":"南浮田町","town_kana":"ミナミウキタマチ","prefecture_code":2},"2734":{"zip_code":"0382734","prefecture":"青森県","prefecture_kana":"アオモリケン","city":"西津軽郡鰺ヶ沢町","city_kana":"ニシツガルグンアジガサワマチ","town":"南金沢町","town_kana":"ミナミカナザワマチ","prefecture_code":2},"2704":{"zip_code":"0382704","prefecture":"青森県","prefecture_kana":"アオモリケン","city":"西津軽郡鰺ヶ沢町","city_kana":"ニシツガルグンアジガサワマチ","town":"湯舟町","town_kana":"ユブネマチ","prefecture_code":2},"2747":{"zip_code":"0382747","prefecture":"青森県","prefecture_kana":"アオモリケン","city":"西津軽郡鰺ヶ沢町","city_kana":"ニシツガルグンアジガサワマチ","town":"淀町","town_kana":"ヨドマチ","prefecture_code":2},"2744":{"zip_code":"0382744","prefecture":"青森県","prefecture_kana":"アオモリケン","city":"西津軽郡鰺ヶ沢町","city_kana":"ニシツガルグンアジガサワマチ","town":"漁師町","town_kana":"リョウシマチ","prefecture_code":2},"2300":{"zip_code":"0382300","prefecture":"青森県","prefecture_kana":"アオモリケン","city":"西津軽郡深浦町","city_kana":"ニシツガルグンフカウラマチ","town":"","town_kana":"","prefecture_code":2},"2502":{"zip_code":"0382502","prefecture":"青森県","prefecture_kana":"アオモリケン","city":"西津軽郡深浦町","city_kana":"ニシツガルグンフカウラマチ","town":"岩坂","town_kana":"イワサカ","prefecture_code":2},"2202":{"zip_code":"0382202","prefecture":"青森県","prefecture_kana":"アオモリケン","city":"西津軽郡深浦町","city_kana":"ニシツガルグンフカウラマチ","town":"岩崎","town_kana":"イワサキ","prefecture_code":2},"2413":{"zip_code":"0382413","prefecture":"青森県","prefecture_kana":"アオモリケン","city":"西津軽郡深浦町","city_kana":"ニシツガルグンフカウラマチ","town":"追良瀬","town_kana":"オイラセ","prefecture_code":2},"2208":{"zip_code":"0382208","prefecture":"青森県","prefecture_kana":"アオモリケン","city":"西津軽郡深浦町","city_kana":"ニシツガルグンフカウラマチ","town":"大間越","town_kana":"オオマゴシ","prefecture_code":2},"2411":{"zip_code":"0382411","prefecture":"青森県","prefecture_kana":"アオモリケン","city":"西津軽郡深浦町","city_kana":"ニシツガルグンフカウラマチ","town":"風合瀬","town_kana":"カソセ","prefecture_code":2},"2323":{"zip_code":"0382323","prefecture":"青森県","prefecture_kana":"アオモリケン","city":"西津軽郡深浦町","city_kana":"ニシツガルグンフカウラマチ","town":"上長慶平","town_kana":"カミチョウケイダイラ","prefecture_code":2},"2504":{"zip_code":"0382504","prefecture":"青森県","prefecture_kana":"アオモリケン","city":"西津軽郡深浦町","city_kana":"ニシツガルグンフカウラマチ","town":"北金ケ沢","town_kana":"キタカネガサワ","prefecture_code":2},"2207":{"zip_code":"0382207","prefecture":"青森県","prefecture_kana":"アオモリケン","city":"西津軽郡深浦町","city_kana":"ニシツガルグンフカウラマチ","town":"黒崎","town_kana":"クロサキ","prefecture_code":2},"2201":{"zip_code":"0382201","prefecture":"青森県","prefecture_kana":"アオモリケン","city":"西津軽郡深浦町","city_kana":"ニシツガルグンフカウラマチ","town":"沢辺","town_kana":"サワベ","prefecture_code":2},"2203":{"zip_code":"0382203","prefecture":"青森県","prefecture_kana":"アオモリケン","city":"西津軽郡深浦町","city_kana":"ニシツガルグンフカウラマチ","town":"正道尻","town_kana":"ショウドウジリ","prefecture_code":2},"2503":{"zip_code":"0382503","prefecture":"青森県","prefecture_kana":"アオモリケン","city":"西津軽郡深浦町","city_kana":"ニシツガルグンフカウラマチ","town":"関","town_kana":"セキ","prefecture_code":2},"2505":{"zip_code":"0382505","prefecture":"青森県","prefecture_kana":"アオモリケン","city":"西津軽郡深浦町","city_kana":"ニシツガルグンフカウラマチ","town":"田野沢","town_kana":"タノサワ","prefecture_code":2},"2322":{"zip_code":"0382322","prefecture":"青森県","prefecture_kana":"アオモリケン","city":"西津軽郡深浦町","city_kana":"ニシツガルグンフカウラマチ","town":"長慶平","town_kana":"チョウケイダイラ","prefecture_code":2},"2326":{"zip_code":"0382326","prefecture":"青森県","prefecture_kana":"アオモリケン","city":"西津軽郡深浦町","city_kana":"ニシツガルグンフカウラマチ","town":"月屋","town_kana":"ツキヤ","prefecture_code":2},"2412":{"zip_code":"0382412","prefecture":"青森県","prefecture_kana":"アオモリケン","city":"西津軽郡深浦町","city_kana":"ニシツガルグンフカウラマチ","town":"驫木","town_kana":"トドロキ","prefecture_code":2},"2204":{"zip_code":"0382204","prefecture":"青森県","prefecture_kana":"アオモリケン","city":"西津軽郡深浦町","city_kana":"ニシツガルグンフカウラマチ","town":"久田","town_kana":"ヒサダ","prefecture_code":2},"2321":{"zip_code":"0382321","prefecture":"青森県","prefecture_kana":"アオモリケン","city":"西津軽郡深浦町","city_kana":"ニシツガルグンフカウラマチ","town":"広戸","town_kana":"ヒロト","prefecture_code":2},"2324":{"zip_code":"0382324","prefecture":"青森県","prefecture_kana":"アオモリケン","city":"西津軽郡深浦町","city_kana":"ニシツガルグンフカウラマチ","town":"深浦","town_kana":"フカウラ","prefecture_code":2},"2327":{"zip_code":"0382327","prefecture":"青森県","prefecture_kana":"アオモリケン","city":"西津軽郡深浦町","city_kana":"ニシツガルグンフカウラマチ","town":"舮作","town_kana":"ヘナシ","prefecture_code":2},"2206":{"zip_code":"0382206","prefecture":"青森県","prefecture_kana":"アオモリケン","city":"西津軽郡深浦町","city_kana":"ニシツガルグンフカウラマチ","town":"松神","town_kana":"マツカミ","prefecture_code":2},"2205":{"zip_code":"0382205","prefecture":"青森県","prefecture_kana":"アオモリケン","city":"西津軽郡深浦町","city_kana":"ニシツガルグンフカウラマチ","town":"森山","town_kana":"モリヤマ","prefecture_code":2},"2501":{"zip_code":"0382501","prefecture":"青森県","prefecture_kana":"アオモリケン","city":"西津軽郡深浦町","city_kana":"ニシツガルグンフカウラマチ","town":"柳田","town_kana":"ヤナギタ","prefecture_code":2},"2325":{"zip_code":"0382325","prefecture":"青森県","prefecture_kana":"アオモリケン","city":"西津軽郡深浦町","city_kana":"ニシツガルグンフカウラマチ","town":"横磯","town_kana":"ヨコイソ","prefecture_code":2},"3800":{"zip_code":"0383800","prefecture":"青森県","prefecture_kana":"アオモリケン","city":"南津軽郡藤崎町","city_kana":"ミナミツガルグンフジサキマチ","town":"","town_kana":"","prefecture_code":2},"3837":{"zip_code":"0383837","prefecture":"青森県","prefecture_kana":"アオモリケン","city":"南津軽郡藤崎町","city_kana":"ミナミツガルグンフジサキマチ","town":"柏木堰","town_kana":"カシワギゼキ","prefecture_code":2},"3833":{"zip_code":"0383833","prefecture":"青森県","prefecture_kana":"アオモリケン","city":"南津軽郡藤崎町","city_kana":"ミナミツガルグンフジサキマチ","town":"亀岡","town_kana":"カメオカ","prefecture_code":2},"1203":{"zip_code":"0381203","prefecture":"青森県","prefecture_kana":"アオモリケン","city":"南津軽郡藤崎町","city_kana":"ミナミツガルグンフジサキマチ","town":"久井名舘","town_kana":"グイナダテ","prefecture_code":2},"3804":{"zip_code":"0383804","prefecture":"青森県","prefecture_kana":"アオモリケン","city":"南津軽郡藤崎町","city_kana":"ミナミツガルグンフジサキマチ","town":"葛野","town_kana":"クズノ","prefecture_code":2},"1206":{"zip_code":"0381206","prefecture":"青森県","prefecture_kana":"アオモリケン","city":"南津軽郡藤崎町","city_kana":"ミナミツガルグンフジサキマチ","town":"郷山前","town_kana":"ゴウサンマエ","prefecture_code":2},"3812":{"zip_code":"0383812","prefecture":"青森県","prefecture_kana":"アオモリケン","city":"南津軽郡藤崎町","city_kana":"ミナミツガルグンフジサキマチ","town":"小畑","town_kana":"コバタ","prefecture_code":2},"3805":{"zip_code":"0383805","prefecture":"青森県","prefecture_kana":"アオモリケン","city":"南津軽郡藤崎町","city_kana":"ミナミツガルグンフジサキマチ","town":"五林","town_kana":"ゴリン","prefecture_code":2},"1216":{"zip_code":"0381216","prefecture":"青森県","prefecture_kana":"アオモリケン","city":"南津軽郡藤崎町","city_kana":"ミナミツガルグンフジサキマチ","town":"榊","town_kana":"サカキ","prefecture_code":2},"3836":{"zip_code":"0383836","prefecture":"青森県","prefecture_kana":"アオモリケン","city":"南津軽郡藤崎町","city_kana":"ミナミツガルグンフジサキマチ","town":"下俵舛","town_kana":"シモタワラマス","prefecture_code":2},"3835":{"zip_code":"0383835","prefecture":"青森県","prefecture_kana":"アオモリケン","city":"南津軽郡藤崎町","city_kana":"ミナミツガルグンフジサキマチ","town":"俵舛","town_kana":"タワラマス","prefecture_code":2},"1214":{"zip_code":"0381214","prefecture":"青森県","prefecture_kana":"アオモリケン","city":"南津軽郡藤崎町","city_kana":"ミナミツガルグンフジサキマチ","town":"常盤","town_kana":"トキワ","prefecture_code":2},"1213":{"zip_code":"0381213","prefecture":"青森県","prefecture_kana":"アオモリケン","city":"南津軽郡藤崎町","city_kana":"ミナミツガルグンフジサキマチ","town":"徳下","town_kana":"トクゲ","prefecture_code":2},"1202":{"zip_code":"0381202","prefecture":"青森県","prefecture_kana":"アオモリケン","city":"南津軽郡藤崎町","city_kana":"ミナミツガルグンフジサキマチ","town":"富柳","town_kana":"トミヤナギ","prefecture_code":2},"3811":{"zip_code":"0383811","prefecture":"青森県","prefecture_kana":"アオモリケン","city":"南津軽郡藤崎町","city_kana":"ミナミツガルグンフジサキマチ","town":"中島","town_kana":"ナカジマ","prefecture_code":2},"3831":{"zip_code":"0383831","prefecture":"青森県","prefecture_kana":"アオモリケン","city":"南津軽郡藤崎町","city_kana":"ミナミツガルグンフジサキマチ","town":"中野目","town_kana":"ナカノメ","prefecture_code":2},"3803":{"zip_code":"0383803","prefecture":"青森県","prefecture_kana":"アオモリケン","city":"南津軽郡藤崎町","city_kana":"ミナミツガルグンフジサキマチ","town":"西豊田","town_kana":"ニシトヨダ","prefecture_code":2},"3834":{"zip_code":"0383834","prefecture":"青森県","prefecture_kana":"アオモリケン","city":"南津軽郡藤崎町","city_kana":"ミナミツガルグンフジサキマチ","town":"西中野目","town_kana":"ニシナカノメ","prefecture_code":2},"3806":{"zip_code":"0383806","prefecture":"青森県","prefecture_kana":"アオモリケン","city":"南津軽郡藤崎町","city_kana":"ミナミツガルグンフジサキマチ","town":"林崎","town_kana":"ハヤシザキ","prefecture_code":2},"1211":{"zip_code":"0381211","prefecture":"青森県","prefecture_kana":"アオモリケン","city":"南津軽郡藤崎町","city_kana":"ミナミツガルグンフジサキマチ","town":"福島","town_kana":"フクシマ","prefecture_code":2},"1201":{"zip_code":"0381201","prefecture":"青森県","prefecture_kana":"アオモリケン","city":"南津軽郡藤崎町","city_kana":"ミナミツガルグンフジサキマチ","town":"福舘","town_kana":"フクダテ","prefecture_code":2},"3801":{"zip_code":"0383801","prefecture":"青森県","prefecture_kana":"アオモリケン","city":"南津軽郡藤崎町","city_kana":"ミナミツガルグンフジサキマチ","town":"藤越","town_kana":"フジコシ","prefecture_code":2},"3802":{"zip_code":"0383802","prefecture":"青森県","prefecture_kana":"アオモリケン","city":"南津軽郡藤崎町","city_kana":"ミナミツガルグンフジサキマチ","town":"藤崎","town_kana":"フジサキ","prefecture_code":2},"1207":{"zip_code":"0381207","prefecture":"青森県","prefecture_kana":"アオモリケン","city":"南津軽郡藤崎町","city_kana":"ミナミツガルグンフジサキマチ","town":"増館","town_kana":"マスダテ","prefecture_code":2},"1204":{"zip_code":"0381204","prefecture":"青森県","prefecture_kana":"アオモリケン","city":"南津軽郡藤崎町","city_kana":"ミナミツガルグンフジサキマチ","town":"水木","town_kana":"ミズキ","prefecture_code":2},"3814":{"zip_code":"0383814","prefecture":"青森県","prefecture_kana":"アオモリケン","city":"南津軽郡藤崎町","city_kana":"ミナミツガルグンフジサキマチ","town":"水沼","town_kana":"ミズヌマ","prefecture_code":2},"1212":{"zip_code":"0381212","prefecture":"青森県","prefecture_kana":"アオモリケン","city":"南津軽郡藤崎町","city_kana":"ミナミツガルグンフジサキマチ","town":"三ツ屋","town_kana":"ミツヤ","prefecture_code":2},"3813":{"zip_code":"0383813","prefecture":"青森県","prefecture_kana":"アオモリケン","city":"南津軽郡藤崎町","city_kana":"ミナミツガルグンフジサキマチ","town":"矢沢","town_kana":"ヤザワ","prefecture_code":2},"1205":{"zip_code":"0381205","prefecture":"青森県","prefecture_kana":"アオモリケン","city":"南津軽郡藤崎町","city_kana":"ミナミツガルグンフジサキマチ","town":"吉野田","town_kana":"ヨシノダ","prefecture_code":2},"3832":{"zip_code":"0383832","prefecture":"青森県","prefecture_kana":"アオモリケン","city":"南津軽郡藤崎町","city_kana":"ミナミツガルグンフジサキマチ","town":"吉向","town_kana":"ヨシムカイ","prefecture_code":2},"1215":{"zip_code":"0381215","prefecture":"青森県","prefecture_kana":"アオモリケン","city":"南津軽郡藤崎町","city_kana":"ミナミツガルグンフジサキマチ","town":"若松","town_kana":"ワカマツ","prefecture_code":2},"0200":{"zip_code":"0380200","prefecture":"青森県","prefecture_kana":"アオモリケン","city":"南津軽郡大鰐町","city_kana":"ミナミツガルグンオオワニマチ","town":"","town_kana":"","prefecture_code":2},"0233":{"zip_code":"0380233","prefecture":"青森県","prefecture_kana":"アオモリケン","city":"南津軽郡大鰐町","city_kana":"ミナミツガルグンオオワニマチ","town":"居土","town_kana":"イヅチ","prefecture_code":2},"0211":{"zip_code":"0380211","prefecture":"青森県","prefecture_kana":"アオモリケン","city":"南津軽郡大鰐町","city_kana":"ミナミツガルグンオオワニマチ","town":"大鰐","town_kana":"オオワニ","prefecture_code":2},"0204":{"zip_code":"0380204","prefecture":"青森県","prefecture_kana":"アオモリケン","city":"南津軽郡大鰐町","city_kana":"ミナミツガルグンオオワニマチ","town":"唐牛","town_kana":"カロウジ","prefecture_code":2},"0212":{"zip_code":"0380212","prefecture":"青森県","prefecture_kana":"アオモリケン","city":"南津軽郡大鰐町","city_kana":"ミナミツガルグンオオワニマチ","town":"蔵館","town_kana":"クラダテ","prefecture_code":2},"0203":{"zip_code":"0380203","prefecture":"青森県","prefecture_kana":"アオモリケン","city":"南津軽郡大鰐町","city_kana":"ミナミツガルグンオオワニマチ","town":"駒木","town_kana":"コマキ","prefecture_code":2},"0241":{"zip_code":"0380241","prefecture":"青森県","prefecture_kana":"アオモリケン","city":"南津軽郡大鰐町","city_kana":"ミナミツガルグンオオワニマチ","town":"鯖石","town_kana":"サバイシ","prefecture_code":2},"0223":{"zip_code":"0380223","prefecture":"青森県","prefecture_kana":"アオモリケン","city":"南津軽郡大鰐町","city_kana":"ミナミツガルグンオオワニマチ","town":"島田","town_kana":"シマダ","prefecture_code":2},"0231":{"zip_code":"0380231","prefecture":"青森県","prefecture_kana":"アオモリケン","city":"南津軽郡大鰐町","city_kana":"ミナミツガルグンオオワニマチ","town":"宿川原","town_kana":"シュクガワラ","prefecture_code":2},"0202":{"zip_code":"0380202","prefecture":"青森県","prefecture_kana":"アオモリケン","city":"南津軽郡大鰐町","city_kana":"ミナミツガルグンオオワニマチ","town":"長峰","town_kana":"ナガミネ","prefecture_code":2},"0201":{"zip_code":"0380201","prefecture":"青森県","prefecture_kana":"アオモリケン","city":"南津軽郡大鰐町","city_kana":"ミナミツガルグンオオワニマチ","town":"苦木","town_kana":"ニガキ","prefecture_code":2},"0221":{"zip_code":"0380221","prefecture":"青森県","prefecture_kana":"アオモリケン","city":"南津軽郡大鰐町","city_kana":"ミナミツガルグンオオワニマチ","town":"虹貝","town_kana":"ニジカイ","prefecture_code":2},"0243":{"zip_code":"0380243","prefecture":"青森県","prefecture_kana":"アオモリケン","city":"南津軽郡大鰐町","city_kana":"ミナミツガルグンオオワニマチ","town":"八幡館","town_kana":"ハチマンダテ","prefecture_code":2},"0222":{"zip_code":"0380222","prefecture":"青森県","prefecture_kana":"アオモリケン","city":"南津軽郡大鰐町","city_kana":"ミナミツガルグンオオワニマチ","town":"早瀬野","town_kana":"ハヤセノ","prefecture_code":2},"0232":{"zip_code":"0380232","prefecture":"青森県","prefecture_kana":"アオモリケン","city":"南津軽郡大鰐町","city_kana":"ミナミツガルグンオオワニマチ","town":"三ツ目内","town_kana":"ミツメナイ","prefecture_code":2},"0242":{"zip_code":"0380242","prefecture":"青森県","prefecture_kana":"アオモリケン","city":"南津軽郡大鰐町","city_kana":"ミナミツガルグンオオワニマチ","town":"森山","town_kana":"モリヤマ","prefecture_code":2},"1100":{"zip_code":"0381100","prefecture":"青森県","prefecture_kana":"アオモリケン","city":"南津軽郡田舎館村","city_kana":"ミナミツガルグンイナカダテムラ","town":"","town_kana":"","prefecture_code":2},"1142":{"zip_code":"0381142","prefecture":"青森県","prefecture_kana":"アオモリケン","city":"南津軽郡田舎館村","city_kana":"ミナミツガルグンイナカダテムラ","town":"和泉","town_kana":"イズミ","prefecture_code":2},"1113":{"zip_code":"0381113","prefecture":"青森県","prefecture_kana":"アオモリケン","city":"南津軽郡田舎館村","city_kana":"ミナミツガルグンイナカダテムラ","town":"田舎舘","town_kana":"イナカダテ","prefecture_code":2},"1104":{"zip_code":"0381104","prefecture":"青森県","prefecture_kana":"アオモリケン","city":"南津軽郡田舎館村","city_kana":"ミナミツガルグンイナカダテムラ","town":"枝川","town_kana":"エダガワ","prefecture_code":2},"1133":{"zip_code":"0381133","prefecture":"青森県","prefecture_kana":"アオモリケン","city":"南津軽郡田舎館村","city_kana":"ミナミツガルグンイナカダテムラ","town":"大根子","town_kana":"オオネコ","prefecture_code":2},"1131":{"zip_code":"0381131","prefecture":"青森県","prefecture_kana":"アオモリケン","city":"南津軽郡田舎館村","city_kana":"ミナミツガルグンイナカダテムラ","town":"大袋","town_kana":"オオフクロ","prefecture_code":2},"1123":{"zip_code":"0381123","prefecture":"青森県","prefecture_kana":"アオモリケン","city":"南津軽郡田舎館村","city_kana":"ミナミツガルグンイナカダテムラ","town":"大曲","town_kana":"オオマガリ","prefecture_code":2},"1141":{"zip_code":"0381141","prefecture":"青森県","prefecture_kana":"アオモリケン","city":"南津軽郡田舎館村","city_kana":"ミナミツガルグンイナカダテムラ","town":"川部","town_kana":"カワベ","prefecture_code":2},"1143":{"zip_code":"0381143","prefecture":"青森県","prefecture_kana":"アオモリケン","city":"南津軽郡田舎館村","city_kana":"ミナミツガルグンイナカダテムラ","town":"境森","town_kana":"サカイモリ","prefecture_code":2},"1103":{"zip_code":"0381103","prefecture":"青森県","prefecture_kana":"アオモリケン","city":"南津軽郡田舎館村","city_kana":"ミナミツガルグンイナカダテムラ","town":"十二川原","town_kana":"ジュウニカワラ","prefecture_code":2},"1132":{"zip_code":"0381132","prefecture":"青森県","prefecture_kana":"アオモリケン","city":"南津軽郡田舎館村","city_kana":"ミナミツガルグンイナカダテムラ","town":"諏訪堂","town_kana":"スワドウ","prefecture_code":2},"1111":{"zip_code":"0381111","prefecture":"青森県","prefecture_kana":"アオモリケン","city":"南津軽郡田舎館村","city_kana":"ミナミツガルグンイナカダテムラ","town":"高樋","town_kana":"タカヒ","prefecture_code":2},"1112":{"zip_code":"0381112","prefecture":"青森県","prefecture_kana":"アオモリケン","city":"南津軽郡田舎館村","city_kana":"ミナミツガルグンイナカダテムラ","town":"垂柳","town_kana":"タレヤナギ","prefecture_code":2},"1145":{"zip_code":"0381145","prefecture":"青森県","prefecture_kana":"アオモリケン","city":"南津軽郡田舎館村","city_kana":"ミナミツガルグンイナカダテムラ","town":"土矢倉","town_kana":"ツチヤグラ","prefecture_code":2},"1101":{"zip_code":"0381101","prefecture":"青森県","prefecture_kana":"アオモリケン","city":"南津軽郡田舎館村","city_kana":"ミナミツガルグンイナカダテムラ","town":"東光寺","town_kana":"トウコウジ","prefecture_code":2},"1102":{"zip_code":"0381102","prefecture":"青森県","prefecture_kana":"アオモリケン","city":"南津軽郡田舎館村","city_kana":"ミナミツガルグンイナカダテムラ","town":"堂野前","town_kana":"ドウノマエ","prefecture_code":2},"1134":{"zip_code":"0381134","prefecture":"青森県","prefecture_kana":"アオモリケン","city":"南津軽郡田舎館村","city_kana":"ミナミツガルグンイナカダテムラ","town":"豊蒔","town_kana":"トヨマキ","prefecture_code":2},"1121":{"zip_code":"0381121","prefecture":"青森県","prefecture_kana":"アオモリケン","city":"南津軽郡田舎館村","city_kana":"ミナミツガルグンイナカダテムラ","town":"畑中","town_kana":"ハタケナカ","prefecture_code":2},"1122":{"zip_code":"0381122","prefecture":"青森県","prefecture_kana":"アオモリケン","city":"南津軽郡田舎館村","city_kana":"ミナミツガルグンイナカダテムラ","town":"八反田","town_kana":"ハッタンダ","prefecture_code":2},"1144":{"zip_code":"0381144","prefecture":"青森県","prefecture_kana":"アオモリケン","city":"南津軽郡田舎館村","city_kana":"ミナミツガルグンイナカダテムラ","town":"前田屋敷","town_kana":"マエタヤシキ","prefecture_code":2},"3600":{"zip_code":"0383600","prefecture":"青森県","prefecture_kana":"アオモリケン","city":"北津軽郡板柳町","city_kana":"キタツガルグンイタヤナギマチ","town":"","town_kana":"","prefecture_code":2},"3683":{"zip_code":"0383683","prefecture":"青森県","prefecture_kana":"アオモリケン","city":"北津軽郡板柳町","city_kana":"キタツガルグンイタヤナギマチ","town":"赤田","town_kana":"アカダ","prefecture_code":2},"3651":{"zip_code":"0383651","prefecture":"青森県","prefecture_kana":"アオモリケン","city":"北津軽郡板柳町","city_kana":"キタツガルグンイタヤナギマチ","town":"飯田","town_kana":"イイダ","prefecture_code":2},"3682":{"zip_code":"0383682","prefecture":"青森県","prefecture_kana":"アオモリケン","city":"北津軽郡板柳町","city_kana":"キタツガルグンイタヤナギマチ","town":"石野","town_kana":"イシノ","prefecture_code":2},"3685":{"zip_code":"0383685","prefecture":"青森県","prefecture_kana":"アオモリケン","city":"北津軽郡板柳町","city_kana":"キタツガルグンイタヤナギマチ","town":"いたや町","town_kana":"イタヤチョウ","prefecture_code":2},"3662":{"zip_code":"0383662","prefecture":"青森県","prefecture_kana":"アオモリケン","city":"北津軽郡板柳町","city_kana":"キタツガルグンイタヤナギマチ","town":"板柳","town_kana":"イタヤナギ","prefecture_code":2},"3642":{"zip_code":"0383642","prefecture":"青森県","prefecture_kana":"アオモリケン","city":"北津軽郡板柳町","city_kana":"キタツガルグンイタヤナギマチ","town":"太田","town_kana":"オオタ","prefecture_code":2},"3635":{"zip_code":"0383635","prefecture":"青森県","prefecture_kana":"アオモリケン","city":"北津軽郡板柳町","city_kana":"キタツガルグンイタヤナギマチ","town":"大俵","town_kana":"オオタワラ","prefecture_code":2},"3671":{"zip_code":"0383671","prefecture":"青森県","prefecture_kana":"アオモリケン","city":"北津軽郡板柳町","city_kana":"キタツガルグンイタヤナギマチ","town":"掛落林","town_kana":"カケオチバヤシ","prefecture_code":2},"3632":{"zip_code":"0383632","prefecture":"青森県","prefecture_kana":"アオモリケン","city":"北津軽郡板柳町","city_kana":"キタツガルグンイタヤナギマチ","town":"柏木","town_kana":"カシワギ","prefecture_code":2},"3633":{"zip_code":"0383633","prefecture":"青森県","prefecture_kana":"アオモリケン","city":"北津軽郡板柳町","city_kana":"キタツガルグンイタヤナギマチ","town":"狐森","town_kana":"キツネモリ","prefecture_code":2},"3636":{"zip_code":"0383636","prefecture":"青森県","prefecture_kana":"アオモリケン","city":"北津軽郡板柳町","city_kana":"キタツガルグンイタヤナギマチ","town":"五幾形","town_kana":"ゴキガタ","prefecture_code":2},"3673":{"zip_code":"0383673","prefecture":"青森県","prefecture_kana":"アオモリケン","city":"北津軽郡板柳町","city_kana":"キタツガルグンイタヤナギマチ","town":"小幡","town_kana":"コハタ","prefecture_code":2},"3621":{"zip_code":"0383621","prefecture":"青森県","prefecture_kana":"アオモリケン","city":"北津軽郡板柳町","city_kana":"キタツガルグンイタヤナギマチ","town":"五林平","town_kana":"ゴリンタイ","prefecture_code":2},"3684":{"zip_code":"0383684","prefecture":"青森県","prefecture_kana":"アオモリケン","city":"北津軽郡板柳町","city_kana":"キタツガルグンイタヤナギマチ","town":"三千石","town_kana":"サンゼンゴク","prefecture_code":2},"3623":{"zip_code":"0383623","prefecture":"青森県","prefecture_kana":"アオモリケン","city":"北津軽郡板柳町","city_kana":"キタツガルグンイタヤナギマチ","town":"常海橋","town_kana":"ジョウカイバシ","prefecture_code":2},"3634":{"zip_code":"0383634","prefecture":"青森県","prefecture_kana":"アオモリケン","city":"北津軽郡板柳町","city_kana":"キタツガルグンイタヤナギマチ","town":"高増","town_kana":"タカマス","prefecture_code":2},"3624":{"zip_code":"0383624","prefecture":"青森県","prefecture_kana":"アオモリケン","city":"北津軽郡板柳町","city_kana":"キタツガルグンイタヤナギマチ","town":"滝井","town_kana":"タキイ","prefecture_code":2},"3625":{"zip_code":"0383625","prefecture":"青森県","prefecture_kana":"アオモリケン","city":"北津軽郡板柳町","city_kana":"キタツガルグンイタヤナギマチ","town":"舘野越","town_kana":"タテノコシ","prefecture_code":2},"3645":{"zip_code":"0383645","prefecture":"青森県","prefecture_kana":"アオモリケン","city":"北津軽郡板柳町","city_kana":"キタツガルグンイタヤナギマチ","town":"辻","town_kana":"ツジ","prefecture_code":2},"3643":{"zip_code":"0383643","prefecture":"青森県","prefecture_kana":"アオモリケン","city":"北津軽郡板柳町","city_kana":"キタツガルグンイタヤナギマチ","town":"長野","town_kana":"ナガノ","prefecture_code":2},"3681":{"zip_code":"0383681","prefecture":"青森県","prefecture_kana":"アオモリケン","city":"北津軽郡板柳町","city_kana":"キタツガルグンイタヤナギマチ","town":"野中","town_kana":"ノナカ","prefecture_code":2},"3672":{"zip_code":"0383672","prefecture":"青森県","prefecture_kana":"アオモリケン","city":"北津軽郡板柳町","city_kana":"キタツガルグンイタヤナギマチ","town":"灰沼","town_kana":"ハイヌマ","prefecture_code":2},"3641":{"zip_code":"0383641","prefecture":"青森県","prefecture_kana":"アオモリケン","city":"北津軽郡板柳町","city_kana":"キタツガルグンイタヤナギマチ","town":"深味","town_kana":"フカミ","prefecture_code":2},"3661":{"zip_code":"0383661","prefecture":"青森県","prefecture_kana":"アオモリケン","city":"北津軽郡板柳町","city_kana":"キタツガルグンイタヤナギマチ","town":"福野田","town_kana":"フクノダ","prefecture_code":2},"3631":{"zip_code":"0383631","prefecture":"青森県","prefecture_kana":"アオモリケン","city":"北津軽郡板柳町","city_kana":"キタツガルグンイタヤナギマチ","town":"牡丹森","town_kana":"ボタンモリ","prefecture_code":2},"3622":{"zip_code":"0383622","prefecture":"青森県","prefecture_kana":"アオモリケン","city":"北津軽郡板柳町","city_kana":"キタツガルグンイタヤナギマチ","town":"夕顔関","town_kana":"ユウガオゼキ","prefecture_code":2},"3644":{"zip_code":"0383644","prefecture":"青森県","prefecture_kana":"アオモリケン","city":"北津軽郡板柳町","city_kana":"キタツガルグンイタヤナギマチ","town":"横沢","town_kana":"ヨコサワ","prefecture_code":2},"3500":{"zip_code":"0383500","prefecture":"青森県","prefecture_kana":"アオモリケン","city":"北津軽郡鶴田町","city_kana":"キタツガルグンツルタマチ","town":"","town_kana":"","prefecture_code":2},"3501":{"zip_code":"0383501","prefecture":"青森県","prefecture_kana":"アオモリケン","city":"北津軽郡鶴田町","city_kana":"キタツガルグンツルタマチ","town":"大巻","town_kana":"オオマキ","prefecture_code":2},"3513":{"zip_code":"0383513","prefecture":"青森県","prefecture_kana":"アオモリケン","city":"北津軽郡鶴田町","city_kana":"キタツガルグンツルタマチ","town":"沖","town_kana":"オキ","prefecture_code":2},"3541":{"zip_code":"0383541","prefecture":"青森県","prefecture_kana":"アオモリケン","city":"北津軽郡鶴田町","city_kana":"キタツガルグンツルタマチ","town":"尾原","town_kana":"オハラ","prefecture_code":2},"3531":{"zip_code":"0383531","prefecture":"青森県","prefecture_kana":"アオモリケン","city":"北津軽郡鶴田町","city_kana":"キタツガルグンツルタマチ","town":"木筒","town_kana":"キヅツ","prefecture_code":2},"3523":{"zip_code":"0383523","prefecture":"青森県","prefecture_kana":"アオモリケン","city":"北津軽郡鶴田町","city_kana":"キタツガルグンツルタマチ","town":"胡桃舘","town_kana":"クルミダテ","prefecture_code":2},"3502":{"zip_code":"0383502","prefecture":"青森県","prefecture_kana":"アオモリケン","city":"北津軽郡鶴田町","city_kana":"キタツガルグンツルタマチ","town":"強巻","town_kana":"コワマキ","prefecture_code":2},"3524":{"zip_code":"0383524","prefecture":"青森県","prefecture_kana":"アオモリケン","city":"北津軽郡鶴田町","city_kana":"キタツガルグンツルタマチ","town":"境","town_kana":"サカイ","prefecture_code":2},"3521":{"zip_code":"0383521","prefecture":"青森県","prefecture_kana":"アオモリケン","city":"北津軽郡鶴田町","city_kana":"キタツガルグンツルタマチ","town":"菖蒲川","town_kana":"ショウブカワ","prefecture_code":2},"3512":{"zip_code":"0383512","prefecture":"青森県","prefecture_kana":"アオモリケン","city":"北津軽郡鶴田町","city_kana":"キタツガルグンツルタマチ","town":"瀬良沢","town_kana":"セラザワ","prefecture_code":2},"3525":{"zip_code":"0383525","prefecture":"青森県","prefecture_kana":"アオモリケン","city":"北津軽郡鶴田町","city_kana":"キタツガルグンツルタマチ","town":"大性","town_kana":"ダイショウ","prefecture_code":2},"3503":{"zip_code":"0383503","prefecture":"青森県","prefecture_kana":"アオモリケン","city":"北津軽郡鶴田町","city_kana":"キタツガルグンツルタマチ","town":"鶴田","town_kana":"ツルタ","prefecture_code":2},"3522":{"zip_code":"0383522","prefecture":"青森県","prefecture_kana":"アオモリケン","city":"北津軽郡鶴田町","city_kana":"キタツガルグンツルタマチ","town":"鶴泊","town_kana":"ツルドマリ","prefecture_code":2},"3514":{"zip_code":"0383514","prefecture":"青森県","prefecture_kana":"アオモリケン","city":"北津軽郡鶴田町","city_kana":"キタツガルグンツルタマチ","town":"中野","town_kana":"ナカノ","prefecture_code":2},"3532":{"zip_code":"0383532","prefecture":"青森県","prefecture_kana":"アオモリケン","city":"北津軽郡鶴田町","city_kana":"キタツガルグンツルタマチ","town":"野木","town_kana":"ノギ","prefecture_code":2},"3542":{"zip_code":"0383542","prefecture":"青森県","prefecture_kana":"アオモリケン","city":"北津軽郡鶴田町","city_kana":"キタツガルグンツルタマチ","town":"廻堰","town_kana":"マワリゼキ","prefecture_code":2},"3543":{"zip_code":"0383543","prefecture":"青森県","prefecture_kana":"アオモリケン","city":"北津軽郡鶴田町","city_kana":"キタツガルグンツルタマチ","town":"妙堂崎","town_kana":"ミョウドウザキ","prefecture_code":2},"3515":{"zip_code":"0383515","prefecture":"青森県","prefecture_kana":"アオモリケン","city":"北津軽郡鶴田町","city_kana":"キタツガルグンツルタマチ","town":"山道","town_kana":"ヤマミチ","prefecture_code":2},"3511":{"zip_code":"0383511","prefecture":"青森県","prefecture_kana":"アオモリケン","city":"北津軽郡鶴田町","city_kana":"キタツガルグンツルタマチ","town":"横萢","town_kana":"ヨコヤチ","prefecture_code":2}}