{"3501":{"zip_code":"0393501","prefecture":"青森県","prefecture_kana":"アオモリケン","city":"青森市","city_kana":"アオモリシ","town":"浅虫","town_kana":"アサムシ","prefecture_code":2},"3502":{"zip_code":"0393502","prefecture":"青森県","prefecture_kana":"アオモリケン","city":"青森市","city_kana":"アオモリシ","town":"久栗坂","town_kana":"クグリザカ","prefecture_code":2},"3506":{"zip_code":"0393506","prefecture":"青森県","prefecture_kana":"アオモリケン","city":"青森市","city_kana":"アオモリシ","town":"三本木","town_kana":"サンボンギ","prefecture_code":2},"3524":{"zip_code":"0393524","prefecture":"青森県","prefecture_kana":"アオモリケン","city":"青森市","city_kana":"アオモリシ","town":"滝沢","town_kana":"タキサワ","prefecture_code":2},"3503":{"zip_code":"0393503","prefecture":"青森県","prefecture_kana":"アオモリケン","city":"青森市","city_kana":"アオモリシ","town":"野内","town_kana":"ノナイ","prefecture_code":2},"3507":{"zip_code":"0393507","prefecture":"青森県","prefecture_kana":"アオモリケン","city":"青森市","city_kana":"アオモリシ","town":"馬屋尻","town_kana":"マヤジリ","prefecture_code":2},"3505":{"zip_code":"0393505","prefecture":"青森県","prefecture_kana":"アオモリケン","city":"青森市","city_kana":"アオモリシ","town":"宮田","town_kana":"ミヤタ","prefecture_code":2},"3504":{"zip_code":"0393504","prefecture":"青森県","prefecture_kana":"アオモリケン","city":"青森市","city_kana":"アオモリシ","town":"矢田","town_kana":"ヤダ","prefecture_code":2},"1165":{"zip_code":"0391165","prefecture":"青森県","prefecture_kana":"アオモリケン","city":"八戸市","city_kana":"ハチノヘシ","town":"石堂","town_kana":"イシドウ","prefecture_code":2},"2241":{"zip_code":"0392241","prefecture":"青森県","prefecture_kana":"アオモリケン","city":"八戸市","city_kana":"ハチノヘシ","town":"市川町","town_kana":"イチカワマチ","prefecture_code":2},"1102":{"zip_code":"0391102","prefecture":"青森県","prefecture_kana":"アオモリケン","city":"八戸市","city_kana":"ハチノヘシ","town":"一番町","town_kana":"イチバンチョウ","prefecture_code":2},"1108":{"zip_code":"0391108","prefecture":"青森県","prefecture_kana":"アオモリケン","city":"八戸市","city_kana":"ハチノヘシ","town":"上野","town_kana":"ウワノ","prefecture_code":2},"1121":{"zip_code":"0391121","prefecture":"青森県","prefecture_kana":"アオモリケン","city":"八戸市","city_kana":"ハチノヘシ","town":"卸センター","town_kana":"オロシセンター","prefecture_code":2},"1161":{"zip_code":"0391161","prefecture":"青森県","prefecture_kana":"アオモリケン","city":"八戸市","city_kana":"ハチノヘシ","town":"河原木","town_kana":"カワラギ","prefecture_code":2},"2246":{"zip_code":"0392246","prefecture":"青森県","prefecture_kana":"アオモリケン","city":"八戸市","city_kana":"ハチノヘシ","town":"桔梗野工業団地","town_kana":"キキョウノコウギョウダンチ","prefecture_code":2},"2245":{"zip_code":"0392245","prefecture":"青森県","prefecture_kana":"アオモリケン","city":"八戸市","city_kana":"ハチノヘシ","town":"北インター工業団地","town_kana":"キタインターコウギョウダンチ","prefecture_code":2},"1114":{"zip_code":"0391114","prefecture":"青森県","prefecture_kana":"アオモリケン","city":"八戸市","city_kana":"ハチノヘシ","town":"北白山台","town_kana":"キタハクサンダイ","prefecture_code":2},"1107":{"zip_code":"0391107","prefecture":"青森県","prefecture_kana":"アオモリケン","city":"八戸市","city_kana":"ハチノヘシ","town":"櫛引","town_kana":"クシビキ","prefecture_code":2},"1160":{"zip_code":"0391160","prefecture":"青森県","prefecture_kana":"アオモリケン","city":"八戸市","city_kana":"ハチノヘシ","town":"小田","town_kana":"コダ","prefecture_code":2},"1106":{"zip_code":"0391106","prefecture":"青森県","prefecture_kana":"アオモリケン","city":"八戸市","city_kana":"ハチノヘシ","town":"坂牛","town_kana":"サカウシ","prefecture_code":2},"1167":{"zip_code":"0391167","prefecture":"青森県","prefecture_kana":"アオモリケン","city":"八戸市","city_kana":"ハチノヘシ","town":"沢里","town_kana":"サワサト","prefecture_code":2},"1164":{"zip_code":"0391164","prefecture":"青森県","prefecture_kana":"アオモリケン","city":"八戸市","city_kana":"ハチノヘシ","town":"下長","town_kana":"シモナガ","prefecture_code":2},"1101":{"zip_code":"0391101","prefecture":"青森県","prefecture_kana":"アオモリケン","city":"八戸市","city_kana":"ハチノヘシ","town":"尻内町","town_kana":"シリウチマチ","prefecture_code":2},"1163":{"zip_code":"0391163","prefecture":"青森県","prefecture_kana":"アオモリケン","city":"八戸市","city_kana":"ハチノヘシ","town":"高州","town_kana":"タカス","prefecture_code":2},"2242":{"zip_code":"0392242","prefecture":"青森県","prefecture_kana":"アオモリケン","city":"八戸市","city_kana":"ハチノヘシ","town":"多賀台","town_kana":"タガダイ","prefecture_code":2},"1104":{"zip_code":"0391104","prefecture":"青森県","prefecture_kana":"アオモリケン","city":"八戸市","city_kana":"ハチノヘシ","town":"田面木","town_kana":"タモノキ","prefecture_code":2},"1109":{"zip_code":"0391109","prefecture":"青森県","prefecture_kana":"アオモリケン","city":"八戸市","city_kana":"ハチノヘシ","town":"豊崎町","town_kana":"トヨサキマチ","prefecture_code":2},"1162":{"zip_code":"0391162","prefecture":"青森県","prefecture_kana":"アオモリケン","city":"八戸市","city_kana":"ハチノヘシ","town":"豊洲","town_kana":"トヨス","prefecture_code":2},"1103":{"zip_code":"0391103","prefecture":"青森県","prefecture_kana":"アオモリケン","city":"八戸市","city_kana":"ハチノヘシ","town":"長苗代","town_kana":"ナガナワシロ","prefecture_code":2},"1113":{"zip_code":"0391113","prefecture":"青森県","prefecture_kana":"アオモリケン","city":"八戸市","city_kana":"ハチノヘシ","town":"西白山台","town_kana":"ニシハクサンダイ","prefecture_code":2},"1166":{"zip_code":"0391166","prefecture":"青森県","prefecture_kana":"アオモリケン","city":"八戸市","city_kana":"ハチノヘシ","town":"根城","town_kana":"ネジョウ","prefecture_code":2},"1168":{"zip_code":"0391168","prefecture":"青森県","prefecture_kana":"アオモリケン","city":"八戸市","city_kana":"ハチノヘシ","town":"八太郎","town_kana":"ハッタロウ","prefecture_code":2},"1111":{"zip_code":"0391111","prefecture":"青森県","prefecture_kana":"アオモリケン","city":"八戸市","city_kana":"ハチノヘシ","town":"東白山台","town_kana":"ヒガシハクサンダイ","prefecture_code":2},"1169":{"zip_code":"0391169","prefecture":"青森県","prefecture_kana":"アオモリケン","city":"八戸市","city_kana":"ハチノヘシ","town":"日計","town_kana":"ヒバカリ","prefecture_code":2},"2243":{"zip_code":"0392243","prefecture":"青森県","prefecture_kana":"アオモリケン","city":"八戸市","city_kana":"ハチノヘシ","town":"松ケ丘","town_kana":"マツガオカ","prefecture_code":2},"1112":{"zip_code":"0391112","prefecture":"青森県","prefecture_kana":"アオモリケン","city":"八戸市","city_kana":"ハチノヘシ","town":"南白山台","town_kana":"ミナミハクサンダイ","prefecture_code":2},"1105":{"zip_code":"0391105","prefecture":"青森県","prefecture_kana":"アオモリケン","city":"八戸市","city_kana":"ハチノヘシ","town":"八幡","town_kana":"ヤワタ","prefecture_code":2},"4401":{"zip_code":"0394401","prefecture":"青森県","prefecture_kana":"アオモリケン","city":"むつ市","city_kana":"ムツシ","town":"大畑町","town_kana":"オオハタマチ","prefecture_code":2},"4402":{"zip_code":"0394402","prefecture":"青森県","prefecture_kana":"アオモリケン","city":"むつ市","city_kana":"ムツシ","town":"大畑町正津川","town_kana":"オオハタマチショウヅガワ","prefecture_code":2},"5204":{"zip_code":"0395204","prefecture":"青森県","prefecture_kana":"アオモリケン","city":"むつ市","city_kana":"ムツシ","town":"川内町蛎崎","town_kana":"カワウチマチカキザキ","prefecture_code":2},"5304":{"zip_code":"0395304","prefecture":"青森県","prefecture_kana":"アオモリケン","city":"むつ市","city_kana":"ムツシ","town":"川内町蛎崎","town_kana":"カワウチマチカキザキ","prefecture_code":2},"5203":{"zip_code":"0395203","prefecture":"青森県","prefecture_kana":"アオモリケン","city":"むつ市","city_kana":"ムツシ","town":"川内町宿野部","town_kana":"カワウチマチシュクノヘ","prefecture_code":2},"5202":{"zip_code":"0395202","prefecture":"青森県","prefecture_kana":"アオモリケン","city":"むつ市","city_kana":"ムツシ","town":"川内町桧川","town_kana":"カワウチマチヒノキガワ","prefecture_code":2},"4701":{"zip_code":"0394701","prefecture":"青森県","prefecture_kana":"アオモリケン","city":"むつ市","city_kana":"ムツシ","town":"川内町","town_kana":"カワウチマチ","prefecture_code":2},"5201":{"zip_code":"0395201","prefecture":"青森県","prefecture_kana":"アオモリケン","city":"むつ市","city_kana":"ムツシ","town":"川内町","town_kana":"カワウチマチ","prefecture_code":2},"5345":{"zip_code":"0395345","prefecture":"青森県","prefecture_kana":"アオモリケン","city":"むつ市","city_kana":"ムツシ","town":"脇野沢赤坂","town_kana":"ワキノサワアカサカ","prefecture_code":2},"5344":{"zip_code":"0395344","prefecture":"青森県","prefecture_kana":"アオモリケン","city":"むつ市","city_kana":"ムツシ","town":"脇野沢稲平","town_kana":"ワキノサワイナダイラ","prefecture_code":2},"5326":{"zip_code":"0395326","prefecture":"青森県","prefecture_kana":"アオモリケン","city":"むつ市","city_kana":"ムツシ","town":"脇野沢桂沢","town_kana":"ワキノサワカツラザワ","prefecture_code":2},"5335":{"zip_code":"0395335","prefecture":"青森県","prefecture_kana":"アオモリケン","city":"むつ市","city_kana":"ムツシ","town":"脇野沢寄浪","town_kana":"ワキノサワキナミ","prefecture_code":2},"5337":{"zip_code":"0395337","prefecture":"青森県","prefecture_kana":"アオモリケン","city":"むつ市","city_kana":"ムツシ","town":"脇野沢九艘泊","town_kana":"ワキノサワクソウドマリ","prefecture_code":2},"5346":{"zip_code":"0395346","prefecture":"青森県","prefecture_kana":"アオモリケン","city":"むつ市","city_kana":"ムツシ","town":"脇野沢口広","town_kana":"ワキノサワクチヒロ","prefecture_code":2},"5333":{"zip_code":"0395333","prefecture":"青森県","prefecture_kana":"アオモリケン","city":"むつ市","city_kana":"ムツシ","town":"脇野沢黒岩","town_kana":"ワキノサワクロイワ","prefecture_code":2},"5321":{"zip_code":"0395321","prefecture":"青森県","prefecture_kana":"アオモリケン","city":"むつ市","city_kana":"ムツシ","town":"脇野沢源藤城","town_kana":"ワキノサワゲンドウシロ","prefecture_code":2},"5343":{"zip_code":"0395343","prefecture":"青森県","prefecture_kana":"アオモリケン","city":"むつ市","city_kana":"ムツシ","town":"脇野沢小サ沢","town_kana":"ワキノサワコササワ","prefecture_code":2},"5342":{"zip_code":"0395342","prefecture":"青森県","prefecture_kana":"アオモリケン","city":"むつ市","city_kana":"ムツシ","town":"脇野沢小沢","town_kana":"ワキノサワコザワ","prefecture_code":2},"5341":{"zip_code":"0395341","prefecture":"青森県","prefecture_kana":"アオモリケン","city":"むつ市","city_kana":"ムツシ","town":"脇野沢鹿間平","town_kana":"ワキノサワシカマダイラ","prefecture_code":2},"5323":{"zip_code":"0395323","prefecture":"青森県","prefecture_kana":"アオモリケン","city":"むつ市","city_kana":"ムツシ","town":"脇野沢七引","town_kana":"ワキノサワシチビキ","prefecture_code":2},"5332":{"zip_code":"0395332","prefecture":"青森県","prefecture_kana":"アオモリケン","city":"むつ市","city_kana":"ムツシ","town":"脇野沢瀬野川目","town_kana":"ワキノサワセノカワメ","prefecture_code":2},"5322":{"zip_code":"0395322","prefecture":"青森県","prefecture_kana":"アオモリケン","city":"むつ市","city_kana":"ムツシ","town":"脇野沢滝山","town_kana":"ワキノサワタキヤマ","prefecture_code":2},"5336":{"zip_code":"0395336","prefecture":"青森県","prefecture_kana":"アオモリケン","city":"むつ市","city_kana":"ムツシ","town":"脇野沢蛸田","town_kana":"ワキノサワタコダ","prefecture_code":2},"5325":{"zip_code":"0395325","prefecture":"青森県","prefecture_kana":"アオモリケン","city":"むつ市","city_kana":"ムツシ","town":"脇野沢辰内","town_kana":"ワキノサワタツウチ","prefecture_code":2},"5324":{"zip_code":"0395324","prefecture":"青森県","prefecture_kana":"アオモリケン","city":"むつ市","city_kana":"ムツシ","town":"脇野沢田ノ頭","town_kana":"ワキノサワタノカシラ","prefecture_code":2},"5334":{"zip_code":"0395334","prefecture":"青森県","prefecture_kana":"アオモリケン","city":"むつ市","city_kana":"ムツシ","town":"脇野沢新井田","town_kana":"ワキノサワニイダ","prefecture_code":2},"5327":{"zip_code":"0395327","prefecture":"青森県","prefecture_kana":"アオモリケン","city":"むつ市","city_kana":"ムツシ","town":"脇野沢本村","town_kana":"ワキノサワホンソン","prefecture_code":2},"5331":{"zip_code":"0395331","prefecture":"青森県","prefecture_kana":"アオモリケン","city":"むつ市","city_kana":"ムツシ","town":"脇野沢渡向","town_kana":"ワキノサワワタムカイ","prefecture_code":2},"3300":{"zip_code":"0393300","prefecture":"青森県","prefecture_kana":"アオモリケン","city":"東津軽郡平内町","city_kana":"ヒガシツガルグンヒラナイマチ","town":"","town_kana":"","prefecture_code":2},"3312":{"zip_code":"0393312","prefecture":"青森県","prefecture_kana":"アオモリケン","city":"東津軽郡平内町","city_kana":"ヒガシツガルグンヒラナイマチ","town":"浅所","town_kana":"アサドコロ","prefecture_code":2},"3364":{"zip_code":"0393364","prefecture":"青森県","prefecture_kana":"アオモリケン","city":"東津軽郡平内町","city_kana":"ヒガシツガルグンヒラナイマチ","town":"小豆沢","town_kana":"アズキサワ","prefecture_code":2},"3382":{"zip_code":"0393382","prefecture":"青森県","prefecture_kana":"アオモリケン","city":"東津軽郡平内町","city_kana":"ヒガシツガルグンヒラナイマチ","town":"稲生","town_kana":"イノウ","prefecture_code":2},"3352":{"zip_code":"0393352","prefecture":"青森県","prefecture_kana":"アオモリケン","city":"東津軽郡平内町","city_kana":"ヒガシツガルグンヒラナイマチ","town":"内童子","town_kana":"ウチドウジ","prefecture_code":2},"3343":{"zip_code":"0393343","prefecture":"青森県","prefecture_kana":"アオモリケン","city":"東津軽郡平内町","city_kana":"ヒガシツガルグンヒラナイマチ","town":"狩場沢","town_kana":"カリバサワ","prefecture_code":2},"3342":{"zip_code":"0393342","prefecture":"青森県","prefecture_kana":"アオモリケン","city":"東津軽郡平内町","city_kana":"ヒガシツガルグンヒラナイマチ","town":"口広","town_kana":"クチヒロ","prefecture_code":2},"3321":{"zip_code":"0393321","prefecture":"青森県","prefecture_kana":"アオモリケン","city":"東津軽郡平内町","city_kana":"ヒガシツガルグンヒラナイマチ","town":"小湊","town_kana":"コミナト","prefecture_code":2},"3332":{"zip_code":"0393332","prefecture":"青森県","prefecture_kana":"アオモリケン","city":"東津軽郡平内町","city_kana":"ヒガシツガルグンヒラナイマチ","town":"清水川","town_kana":"シミズガワ","prefecture_code":2},"3302":{"zip_code":"0393302","prefecture":"青森県","prefecture_kana":"アオモリケン","city":"東津軽郡平内町","city_kana":"ヒガシツガルグンヒラナイマチ","town":"白砂","town_kana":"シラス","prefecture_code":2},"3351":{"zip_code":"0393351","prefecture":"青森県","prefecture_kana":"アオモリケン","city":"東津軽郡平内町","city_kana":"ヒガシツガルグンヒラナイマチ","town":"外童子","town_kana":"ソトドウジ","prefecture_code":2},"3353":{"zip_code":"0393353","prefecture":"青森県","prefecture_kana":"アオモリケン","city":"東津軽郡平内町","city_kana":"ヒガシツガルグンヒラナイマチ","town":"田茂木","town_kana":"タモギ","prefecture_code":2},"3372":{"zip_code":"0393372","prefecture":"青森県","prefecture_kana":"アオモリケン","city":"東津軽郡平内町","city_kana":"ヒガシツガルグンヒラナイマチ","town":"土屋","town_kana":"ツチヤ","prefecture_code":2},"3371":{"zip_code":"0393371","prefecture":"青森県","prefecture_kana":"アオモリケン","city":"東津軽郡平内町","city_kana":"ヒガシツガルグンヒラナイマチ","town":"中野","town_kana":"ナカノ","prefecture_code":2},"3373":{"zip_code":"0393373","prefecture":"青森県","prefecture_kana":"アオモリケン","city":"東津軽郡平内町","city_kana":"ヒガシツガルグンヒラナイマチ","town":"浪打","town_kana":"ナミウチ","prefecture_code":2},"3313":{"zip_code":"0393313","prefecture":"青森県","prefecture_kana":"アオモリケン","city":"東津軽郡平内町","city_kana":"ヒガシツガルグンヒラナイマチ","town":"沼館","town_kana":"ヌマダテ","prefecture_code":2},"3331":{"zip_code":"0393331","prefecture":"青森県","prefecture_kana":"アオモリケン","city":"東津軽郡平内町","city_kana":"ヒガシツガルグンヒラナイマチ","town":"浜子","town_kana":"ハマゴ","prefecture_code":2},"3303":{"zip_code":"0393303","prefecture":"青森県","prefecture_kana":"アオモリケン","city":"東津軽郡平内町","city_kana":"ヒガシツガルグンヒラナイマチ","town":"東滝","town_kana":"ヒガシタキ","prefecture_code":2},"3301":{"zip_code":"0393301","prefecture":"青森県","prefecture_kana":"アオモリケン","city":"東津軽郡平内町","city_kana":"ヒガシツガルグンヒラナイマチ","town":"東田沢","town_kana":"ヒガシタザワ","prefecture_code":2},"3315":{"zip_code":"0393315","prefecture":"青森県","prefecture_kana":"アオモリケン","city":"東津軽郡平内町","city_kana":"ヒガシツガルグンヒラナイマチ","town":"福島","town_kana":"フクシマ","prefecture_code":2},"3311":{"zip_code":"0393311","prefecture":"青森県","prefecture_kana":"アオモリケン","city":"東津軽郡平内町","city_kana":"ヒガシツガルグンヒラナイマチ","town":"福館","town_kana":"フクダテ","prefecture_code":2},"3361":{"zip_code":"0393361","prefecture":"青森県","prefecture_kana":"アオモリケン","city":"東津軽郡平内町","city_kana":"ヒガシツガルグンヒラナイマチ","town":"藤沢","town_kana":"フジサワ","prefecture_code":2},"3362":{"zip_code":"0393362","prefecture":"青森県","prefecture_kana":"アオモリケン","city":"東津軽郡平内町","city_kana":"ヒガシツガルグンヒラナイマチ","town":"増田","town_kana":"マスタ","prefecture_code":2},"3333":{"zip_code":"0393333","prefecture":"青森県","prefecture_kana":"アオモリケン","city":"東津軽郡平内町","city_kana":"ヒガシツガルグンヒラナイマチ","town":"松野木","town_kana":"マツノキ","prefecture_code":2},"3381":{"zip_code":"0393381","prefecture":"青森県","prefecture_kana":"アオモリケン","city":"東津軽郡平内町","city_kana":"ヒガシツガルグンヒラナイマチ","town":"茂浦","town_kana":"モウラ","prefecture_code":2},"3314":{"zip_code":"0393314","prefecture":"青森県","prefecture_kana":"アオモリケン","city":"東津軽郡平内町","city_kana":"ヒガシツガルグンヒラナイマチ","town":"盛田","town_kana":"モリタ","prefecture_code":2},"3341":{"zip_code":"0393341","prefecture":"青森県","prefecture_kana":"アオモリケン","city":"東津軽郡平内町","city_kana":"ヒガシツガルグンヒラナイマチ","town":"薬師野","town_kana":"ヤクシノ","prefecture_code":2},"3363":{"zip_code":"0393363","prefecture":"青森県","prefecture_kana":"アオモリケン","city":"東津軽郡平内町","city_kana":"ヒガシツガルグンヒラナイマチ","town":"山口","town_kana":"ヤマグチ","prefecture_code":2},"3100":{"zip_code":"0393100","prefecture":"青森県","prefecture_kana":"アオモリケン","city":"上北郡野辺地町","city_kana":"カミキタグンノヘジマチ","town":"","town_kana":"","prefecture_code":2},"3116":{"zip_code":"0393116","prefecture":"青森県","prefecture_kana":"アオモリケン","city":"上北郡野辺地町","city_kana":"カミキタグンノヘジマチ","town":"赤坂","town_kana":"アカサカ","prefecture_code":2},"3108":{"zip_code":"0393108","prefecture":"青森県","prefecture_kana":"アオモリケン","city":"上北郡野辺地町","city_kana":"カミキタグンノヘジマチ","town":"中田","town_kana":"ナカタ","prefecture_code":2},"3105":{"zip_code":"0393105","prefecture":"青森県","prefecture_kana":"アオモリケン","city":"上北郡野辺地町","city_kana":"カミキタグンノヘジマチ","town":"干草橋","town_kana":"ヒクサバシ","prefecture_code":2},"3178":{"zip_code":"0393178","prefecture":"青森県","prefecture_kana":"アオモリケン","city":"上北郡野辺地町","city_kana":"カミキタグンノヘジマチ","town":"家ノ上","town_kana":"イエノウエ","prefecture_code":2},"3111":{"zip_code":"0393111","prefecture":"青森県","prefecture_kana":"アオモリケン","city":"上北郡野辺地町","city_kana":"カミキタグンノヘジマチ","town":"石神裏","town_kana":"イシガミウラ","prefecture_code":2},"3144":{"zip_code":"0393144","prefecture":"青森県","prefecture_kana":"アオモリケン","city":"上北郡野辺地町","city_kana":"カミキタグンノヘジマチ","town":"一ノ渡","town_kana":"イチノワタリ","prefecture_code":2},"3174":{"zip_code":"0393174","prefecture":"青森県","prefecture_kana":"アオモリケン","city":"上北郡野辺地町","city_kana":"カミキタグンノヘジマチ","town":"田端","town_kana":"タバタ","prefecture_code":2},"3104":{"zip_code":"0393104","prefecture":"青森県","prefecture_kana":"アオモリケン","city":"上北郡野辺地町","city_kana":"カミキタグンノヘジマチ","town":"大月平","town_kana":"オオツキタイ","prefecture_code":2},"3107":{"zip_code":"0393107","prefecture":"青森県","prefecture_kana":"アオモリケン","city":"上北郡野辺地町","city_kana":"カミキタグンノヘジマチ","town":"小沢平","town_kana":"オザワダイ","prefecture_code":2},"3106":{"zip_code":"0393106","prefecture":"青森県","prefecture_kana":"アオモリケン","city":"上北郡野辺地町","city_kana":"カミキタグンノヘジマチ","town":"明前","town_kana":"ミョウマエ","prefecture_code":2},"3127":{"zip_code":"0393127","prefecture":"青森県","prefecture_kana":"アオモリケン","city":"上北郡野辺地町","city_kana":"カミキタグンノヘジマチ","town":"上川原","town_kana":"カミカワラ","prefecture_code":2},"3154":{"zip_code":"0393154","prefecture":"青森県","prefecture_kana":"アオモリケン","city":"上北郡野辺地町","city_kana":"カミキタグンノヘジマチ","town":"上小中野","town_kana":"カミコナカノ","prefecture_code":2},"3128":{"zip_code":"0393128","prefecture":"青森県","prefecture_kana":"アオモリケン","city":"上北郡野辺地町","city_kana":"カミキタグンノヘジマチ","town":"昼場","town_kana":"ヒルバ","prefecture_code":2},"3171":{"zip_code":"0393171","prefecture":"青森県","prefecture_kana":"アオモリケン","city":"上北郡野辺地町","city_kana":"カミキタグンノヘジマチ","town":"御手洗瀬","town_kana":"ミタラセ","prefecture_code":2},"3143":{"zip_code":"0393143","prefecture":"青森県","prefecture_kana":"アオモリケン","city":"上北郡野辺地町","city_kana":"カミキタグンノヘジマチ","town":"中屋敷","town_kana":"ナカヤシキ","prefecture_code":2},"3158":{"zip_code":"0393158","prefecture":"青森県","prefecture_kana":"アオモリケン","city":"上北郡野辺地町","city_kana":"カミキタグンノヘジマチ","town":"観音林後","town_kana":"カンノンバヤシウシロ","prefecture_code":2},"3165":{"zip_code":"0393165","prefecture":"青森県","prefecture_kana":"アオモリケン","city":"上北郡野辺地町","city_kana":"カミキタグンノヘジマチ","town":"観音林前田","town_kana":"カンノンバヤシマエダ","prefecture_code":2},"3159":{"zip_code":"0393159","prefecture":"青森県","prefecture_kana":"アオモリケン","city":"上北郡野辺地町","city_kana":"カミキタグンノヘジマチ","town":"観音林脇","town_kana":"カンノンバヤシワキ","prefecture_code":2},"3155":{"zip_code":"0393155","prefecture":"青森県","prefecture_kana":"アオモリケン","city":"上北郡野辺地町","city_kana":"カミキタグンノヘジマチ","town":"切明","town_kana":"キリアケ","prefecture_code":2},"3142":{"zip_code":"0393142","prefecture":"青森県","prefecture_kana":"アオモリケン","city":"上北郡野辺地町","city_kana":"カミキタグンノヘジマチ","town":"久田","town_kana":"クンデン","prefecture_code":2},"3162":{"zip_code":"0393162","prefecture":"青森県","prefecture_kana":"アオモリケン","city":"上北郡野辺地町","city_kana":"カミキタグンノヘジマチ","town":"笹館","town_kana":"ササダテ","prefecture_code":2},"3157":{"zip_code":"0393157","prefecture":"青森県","prefecture_kana":"アオモリケン","city":"上北郡野辺地町","city_kana":"カミキタグンノヘジマチ","town":"松ノ木","town_kana":"マツノキ","prefecture_code":2},"3177":{"zip_code":"0393177","prefecture":"青森県","prefecture_kana":"アオモリケン","city":"上北郡野辺地町","city_kana":"カミキタグンノヘジマチ","town":"八ノ木谷地","town_kana":"ハノキヤチ","prefecture_code":2},"3152":{"zip_code":"0393152","prefecture":"青森県","prefecture_kana":"アオモリケン","city":"上北郡野辺地町","city_kana":"カミキタグンノヘジマチ","town":"下小中野","town_kana":"シモコナカノ","prefecture_code":2},"3117":{"zip_code":"0393117","prefecture":"青森県","prefecture_kana":"アオモリケン","city":"上北郡野辺地町","city_kana":"カミキタグンノヘジマチ","town":"下坂","town_kana":"シモサカ","prefecture_code":2},"3126":{"zip_code":"0393126","prefecture":"青森県","prefecture_kana":"アオモリケン","city":"上北郡野辺地町","city_kana":"カミキタグンノヘジマチ","town":"下前田","town_kana":"シモマエダ","prefecture_code":2},"3146":{"zip_code":"0393146","prefecture":"青森県","prefecture_kana":"アオモリケン","city":"上北郡野辺地町","city_kana":"カミキタグンノヘジマチ","town":"下松ノ木平","town_kana":"シモマツノキタイ","prefecture_code":2},"3147":{"zip_code":"0393147","prefecture":"青森県","prefecture_kana":"アオモリケン","city":"上北郡野辺地町","city_kana":"カミキタグンノヘジマチ","town":"下与田川","town_kana":"シモヨタガワ","prefecture_code":2},"3124":{"zip_code":"0393124","prefecture":"青森県","prefecture_kana":"アオモリケン","city":"上北郡野辺地町","city_kana":"カミキタグンノヘジマチ","town":"白岩","town_kana":"シライワ","prefecture_code":2},"3151":{"zip_code":"0393151","prefecture":"青森県","prefecture_kana":"アオモリケン","city":"上北郡野辺地町","city_kana":"カミキタグンノヘジマチ","town":"白岩向","town_kana":"シライワムカイ","prefecture_code":2},"3129":{"zip_code":"0393129","prefecture":"青森県","prefecture_kana":"アオモリケン","city":"上北郡野辺地町","city_kana":"カミキタグンノヘジマチ","town":"餅粟川原","town_kana":"モチアワカワラ","prefecture_code":2},"3163":{"zip_code":"0393163","prefecture":"青森県","prefecture_kana":"アオモリケン","city":"上北郡野辺地町","city_kana":"カミキタグンノヘジマチ","town":"新町裏","town_kana":"シンマチウラ","prefecture_code":2},"3175":{"zip_code":"0393175","prefecture":"青森県","prefecture_kana":"アオモリケン","city":"上北郡野辺地町","city_kana":"カミキタグンノヘジマチ","town":"湯沢尻","town_kana":"ユザワジリ","prefecture_code":2},"3173":{"zip_code":"0393173","prefecture":"青森県","prefecture_kana":"アオモリケン","city":"上北郡野辺地町","city_kana":"カミキタグンノヘジマチ","town":"陣場川原","town_kana":"ジンバガワラ","prefecture_code":2},"3114":{"zip_code":"0393114","prefecture":"青森県","prefecture_kana":"アオモリケン","city":"上北郡野辺地町","city_kana":"カミキタグンノヘジマチ","town":"助佐小路","town_kana":"スケサコウジ","prefecture_code":2},"3122":{"zip_code":"0393122","prefecture":"青森県","prefecture_kana":"アオモリケン","city":"上北郡野辺地町","city_kana":"カミキタグンノヘジマチ","town":"雑吉沢","town_kana":"ゾウヨシザワ","prefecture_code":2},"3103":{"zip_code":"0393103","prefecture":"青森県","prefecture_kana":"アオモリケン","city":"上北郡野辺地町","city_kana":"カミキタグンノヘジマチ","town":"田名部道","town_kana":"タナブミチ","prefecture_code":2},"3123":{"zip_code":"0393123","prefecture":"青森県","prefecture_kana":"アオモリケン","city":"上北郡野辺地町","city_kana":"カミキタグンノヘジマチ","town":"種川","town_kana":"タネカワ","prefecture_code":2},"3113":{"zip_code":"0393113","prefecture":"青森県","prefecture_kana":"アオモリケン","city":"上北郡野辺地町","city_kana":"カミキタグンノヘジマチ","town":"田狭沢","town_kana":"タバサミザワ","prefecture_code":2},"3115":{"zip_code":"0393115","prefecture":"青森県","prefecture_kana":"アオモリケン","city":"上北郡野辺地町","city_kana":"カミキタグンノヘジマチ","town":"タラノ木","town_kana":"タラノキ","prefecture_code":2},"3118":{"zip_code":"0393118","prefecture":"青森県","prefecture_kana":"アオモリケン","city":"上北郡野辺地町","city_kana":"カミキタグンノヘジマチ","town":"寺ノ沢","town_kana":"テラノサワ","prefecture_code":2},"3172":{"zip_code":"0393172","prefecture":"青森県","prefecture_kana":"アオモリケン","city":"上北郡野辺地町","city_kana":"カミキタグンノヘジマチ","town":"鳥井平","town_kana":"トリイタイ","prefecture_code":2},"3153":{"zip_code":"0393153","prefecture":"青森県","prefecture_kana":"アオモリケン","city":"上北郡野辺地町","city_kana":"カミキタグンノヘジマチ","town":"中小中野","town_kana":"ナカコナカノ","prefecture_code":2},"3112":{"zip_code":"0393112","prefecture":"青森県","prefecture_kana":"アオモリケン","city":"上北郡野辺地町","city_kana":"カミキタグンノヘジマチ","town":"中道","town_kana":"ナカミチ","prefecture_code":2},"3176":{"zip_code":"0393176","prefecture":"青森県","prefecture_kana":"アオモリケン","city":"上北郡野辺地町","city_kana":"カミキタグンノヘジマチ","town":"中渡","town_kana":"ナカワタリ","prefecture_code":2},"3141":{"zip_code":"0393141","prefecture":"青森県","prefecture_kana":"アオモリケン","city":"上北郡野辺地町","city_kana":"カミキタグンノヘジマチ","town":"鳴沢","town_kana":"ナルサワ","prefecture_code":2},"3167":{"zip_code":"0393167","prefecture":"青森県","prefecture_kana":"アオモリケン","city":"上北郡野辺地町","city_kana":"カミキタグンノヘジマチ","town":"二本木向","town_kana":"ニホンキムカイ","prefecture_code":2},"3166":{"zip_code":"0393166","prefecture":"青森県","prefecture_kana":"アオモリケン","city":"上北郡野辺地町","city_kana":"カミキタグンノヘジマチ","town":"二本木向前田","town_kana":"ニホンキムカイマエダ","prefecture_code":2},"3131":{"zip_code":"0393131","prefecture":"青森県","prefecture_kana":"アオモリケン","city":"上北郡野辺地町","city_kana":"カミキタグンノヘジマチ","town":"野辺地","town_kana":"ノヘジ","prefecture_code":2},"3101":{"zip_code":"0393101","prefecture":"青森県","prefecture_kana":"アオモリケン","city":"上北郡野辺地町","city_kana":"カミキタグンノヘジマチ","town":"浜掛","town_kana":"ハマカケ","prefecture_code":2},"3156":{"zip_code":"0393156","prefecture":"青森県","prefecture_kana":"アオモリケン","city":"上北郡野辺地町","city_kana":"カミキタグンノヘジマチ","town":"枇杷野","town_kana":"ビワノ","prefecture_code":2},"3121":{"zip_code":"0393121","prefecture":"青森県","prefecture_kana":"アオモリケン","city":"上北郡野辺地町","city_kana":"カミキタグンノヘジマチ","town":"船橋","town_kana":"フナバシ","prefecture_code":2},"3125":{"zip_code":"0393125","prefecture":"青森県","prefecture_kana":"アオモリケン","city":"上北郡野辺地町","city_kana":"カミキタグンノヘジマチ","town":"坊ノ塚","town_kana":"ボウノツカ","prefecture_code":2},"3164":{"zip_code":"0393164","prefecture":"青森県","prefecture_kana":"アオモリケン","city":"上北郡野辺地町","city_kana":"カミキタグンノヘジマチ","town":"前田","town_kana":"マエダ","prefecture_code":2},"3168":{"zip_code":"0393168","prefecture":"青森県","prefecture_kana":"アオモリケン","city":"上北郡野辺地町","city_kana":"カミキタグンノヘジマチ","town":"前平","town_kana":"マエヒラ","prefecture_code":2},"3179":{"zip_code":"0393179","prefecture":"青森県","prefecture_kana":"アオモリケン","city":"上北郡野辺地町","city_kana":"カミキタグンノヘジマチ","town":"馬門","town_kana":"マカド","prefecture_code":2},"3161":{"zip_code":"0393161","prefecture":"青森県","prefecture_kana":"アオモリケン","city":"上北郡野辺地町","city_kana":"カミキタグンノヘジマチ","town":"馬門道","town_kana":"マカドミチ","prefecture_code":2},"3145":{"zip_code":"0393145","prefecture":"青森県","prefecture_kana":"アオモリケン","city":"上北郡野辺地町","city_kana":"カミキタグンノヘジマチ","town":"松ノ木平","town_kana":"マツノキタイ","prefecture_code":2},"3109":{"zip_code":"0393109","prefecture":"青森県","prefecture_kana":"アオモリケン","city":"上北郡野辺地町","city_kana":"カミキタグンノヘジマチ","town":"向田","town_kana":"ムカイダ","prefecture_code":2},"3148":{"zip_code":"0393148","prefecture":"青森県","prefecture_kana":"アオモリケン","city":"上北郡野辺地町","city_kana":"カミキタグンノヘジマチ","town":"与田川尻","town_kana":"ヨタガワジリ","prefecture_code":2},"3102":{"zip_code":"0393102","prefecture":"青森県","prefecture_kana":"アオモリケン","city":"上北郡野辺地町","city_kana":"カミキタグンノヘジマチ","town":"米内沢","town_kana":"ヨナイサワ","prefecture_code":2},"2500":{"zip_code":"0392500","prefecture":"青森県","prefecture_kana":"アオモリケン","city":"上北郡七戸町","city_kana":"カミキタグンシチノヘマチ","town":"","town_kana":"","prefecture_code":2},"2501":{"zip_code":"0392501","prefecture":"青森県","prefecture_kana":"アオモリケン","city":"上北郡七戸町","city_kana":"カミキタグンシチノヘマチ","town":"荒熊内","town_kana":"アラクマナイ","prefecture_code":2},"2534":{"zip_code":"0392534","prefecture":"青森県","prefecture_kana":"アオモリケン","city":"上北郡七戸町","city_kana":"カミキタグンシチノヘマチ","town":"荒屋","town_kana":"アラヤ","prefecture_code":2},"2543":{"zip_code":"0392543","prefecture":"青森県","prefecture_kana":"アオモリケン","city":"上北郡七戸町","city_kana":"カミキタグンシチノヘマチ","town":"有田沢","town_kana":"アリタサワ","prefecture_code":2},"2816":{"zip_code":"0392816","prefecture":"青森県","prefecture_kana":"アオモリケン","city":"上北郡七戸町","city_kana":"カミキタグンシチノヘマチ","town":"家ノ裏","town_kana":"イエノウラ","prefecture_code":2},"2825":{"zip_code":"0392825","prefecture":"青森県","prefecture_kana":"アオモリケン","city":"上北郡七戸町","city_kana":"カミキタグンシチノヘマチ","town":"家ノ上","town_kana":"イエノカミ","prefecture_code":2},"2824":{"zip_code":"0392824","prefecture":"青森県","prefecture_kana":"アオモリケン","city":"上北郡七戸町","city_kana":"カミキタグンシチノヘマチ","town":"家ノ下","town_kana":"イエノシタ","prefecture_code":2},"2833":{"zip_code":"0392833","prefecture":"青森県","prefecture_kana":"アオモリケン","city":"上北郡七戸町","city_kana":"カミキタグンシチノヘマチ","town":"家ノ前","town_kana":"イエノマエ","prefecture_code":2},"2865":{"zip_code":"0392865","prefecture":"青森県","prefecture_kana":"アオモリケン","city":"上北郡七戸町","city_kana":"カミキタグンシチノヘマチ","town":"市ノ渡","town_kana":"イチノワタリ","prefecture_code":2},"2561":{"zip_code":"0392561","prefecture":"青森県","prefecture_kana":"アオモリケン","city":"上北郡七戸町","city_kana":"カミキタグンシチノヘマチ","town":"銀南木","town_kana":"イチョウノキ","prefecture_code":2},"2741":{"zip_code":"0392741","prefecture":"青森県","prefecture_kana":"アオモリケン","city":"上北郡七戸町","city_kana":"カミキタグンシチノヘマチ","town":"猪ノ鼻","town_kana":"イノハナ","prefecture_code":2},"2585":{"zip_code":"0392585","prefecture":"青森県","prefecture_kana":"アオモリケン","city":"上北郡七戸町","city_kana":"カミキタグンシチノヘマチ","town":"上ノ山","town_kana":"ウエノヤマ","prefecture_code":2},"2587":{"zip_code":"0392587","prefecture":"青森県","prefecture_kana":"アオモリケン","city":"上北郡七戸町","city_kana":"カミキタグンシチノヘマチ","town":"上屋田","town_kana":"ウエヤダ","prefecture_code":2},"2584":{"zip_code":"0392584","prefecture":"青森県","prefecture_kana":"アオモリケン","city":"上北郡七戸町","city_kana":"カミキタグンシチノヘマチ","town":"後川原","town_kana":"ウシロカワラ","prefecture_code":2},"2731":{"zip_code":"0392731","prefecture":"青森県","prefecture_kana":"アオモリケン","city":"上北郡七戸町","city_kana":"カミキタグンシチノヘマチ","town":"後平","town_kana":"ウシロタイラ","prefecture_code":2},"2574":{"zip_code":"0392574","prefecture":"青森県","prefecture_kana":"アオモリケン","city":"上北郡七戸町","city_kana":"カミキタグンシチノヘマチ","town":"宇道坂","town_kana":"ウドウザカ","prefecture_code":2},"2771":{"zip_code":"0392771","prefecture":"青森県","prefecture_kana":"アオモリケン","city":"上北郡七戸町","city_kana":"カミキタグンシチノヘマチ","town":"姥沢","town_kana":"ウバサワ","prefecture_code":2},"2586":{"zip_code":"0392586","prefecture":"青森県","prefecture_kana":"アオモリケン","city":"上北郡七戸町","city_kana":"カミキタグンシチノヘマチ","town":"海内","town_kana":"ウミナイ","prefecture_code":2},"2526":{"zip_code":"0392526","prefecture":"青森県","prefecture_kana":"アオモリケン","city":"上北郡七戸町","city_kana":"カミキタグンシチノヘマチ","town":"上町野","town_kana":"ウワマチノ","prefecture_code":2},"2507":{"zip_code":"0392507","prefecture":"青森県","prefecture_kana":"アオモリケン","city":"上北郡七戸町","city_kana":"カミキタグンシチノヘマチ","town":"えぞ花","town_kana":"エゾバナ","prefecture_code":2},"2756":{"zip_code":"0392756","prefecture":"青森県","prefecture_kana":"アオモリケン","city":"上北郡七戸町","city_kana":"カミキタグンシチノヘマチ","town":"榎林家ノ後","town_kana":"エノキバヤシイエノウシロ","prefecture_code":2},"2755":{"zip_code":"0392755","prefecture":"青森県","prefecture_kana":"アオモリケン","city":"上北郡七戸町","city_kana":"カミキタグンシチノヘマチ","town":"榎林家ノ前","town_kana":"エノキバヤシイエノマエ","prefecture_code":2},"2779":{"zip_code":"0392779","prefecture":"青森県","prefecture_kana":"アオモリケン","city":"上北郡七戸町","city_kana":"カミキタグンシチノヘマチ","town":"榎林古屋敷","town_kana":"エノキバヤシフルヤシキ","prefecture_code":2},"2745":{"zip_code":"0392745","prefecture":"青森県","prefecture_kana":"アオモリケン","city":"上北郡七戸町","city_kana":"カミキタグンシチノヘマチ","town":"夷堂","town_kana":"エビスドウ","prefecture_code":2},"2508":{"zip_code":"0392508","prefecture":"青森県","prefecture_kana":"アオモリケン","city":"上北郡七戸町","city_kana":"カミキタグンシチノヘマチ","town":"大池","town_kana":"オオイケ","prefecture_code":2},"2502":{"zip_code":"0392502","prefecture":"青森県","prefecture_kana":"アオモリケン","city":"上北郡七戸町","city_kana":"カミキタグンシチノヘマチ","town":"大沢","town_kana":"オオサワ","prefecture_code":2},"2531":{"zip_code":"0392531","prefecture":"青森県","prefecture_kana":"アオモリケン","city":"上北郡七戸町","city_kana":"カミキタグンシチノヘマチ","town":"太田","town_kana":"オオタ","prefecture_code":2},"2821":{"zip_code":"0392821","prefecture":"青森県","prefecture_kana":"アオモリケン","city":"上北郡七戸町","city_kana":"カミキタグンシチノヘマチ","town":"大平","town_kana":"オオダイラ","prefecture_code":2},"2514":{"zip_code":"0392514","prefecture":"青森県","prefecture_kana":"アオモリケン","city":"上北郡七戸町","city_kana":"カミキタグンシチノヘマチ","town":"太田野","town_kana":"オオタノ","prefecture_code":2},"2532":{"zip_code":"0392532","prefecture":"青森県","prefecture_kana":"アオモリケン","city":"上北郡七戸町","city_kana":"カミキタグンシチノヘマチ","town":"大林","town_kana":"オオバヤシ","prefecture_code":2},"2715":{"zip_code":"0392715","prefecture":"青森県","prefecture_kana":"アオモリケン","city":"上北郡七戸町","city_kana":"カミキタグンシチノヘマチ","town":"尾山頭","town_kana":"オヤマガシラ","prefecture_code":2},"2751":{"zip_code":"0392751","prefecture":"青森県","prefecture_kana":"アオモリケン","city":"上北郡七戸町","city_kana":"カミキタグンシチノヘマチ","town":"貝塚家ノ前","town_kana":"カイヅカイエノマエ","prefecture_code":2},"2578":{"zip_code":"0392578","prefecture":"青森県","prefecture_kana":"アオモリケン","city":"上北郡七戸町","city_kana":"カミキタグンシチノヘマチ","town":"貝ノ口","town_kana":"カイノクチ","prefecture_code":2},"2523":{"zip_code":"0392523","prefecture":"青森県","prefecture_kana":"アオモリケン","city":"上北郡七戸町","city_kana":"カミキタグンシチノヘマチ","town":"影津内","town_kana":"カゲツナイ","prefecture_code":2},"2577":{"zip_code":"0392577","prefecture":"青森県","prefecture_kana":"アオモリケン","city":"上北郡七戸町","city_kana":"カミキタグンシチノヘマチ","town":"鍛治林","town_kana":"カジバヤシ","prefecture_code":2},"2831":{"zip_code":"0392831","prefecture":"青森県","prefecture_kana":"アオモリケン","city":"上北郡七戸町","city_kana":"カミキタグンシチノヘマチ","town":"金沢平","town_kana":"カナザワタイラ","prefecture_code":2},"2725":{"zip_code":"0392725","prefecture":"青森県","prefecture_kana":"アオモリケン","city":"上北郡七戸町","city_kana":"カミキタグンシチノヘマチ","town":"上川原","town_kana":"カミカワラ","prefecture_code":2},"2714":{"zip_code":"0392714","prefecture":"青森県","prefecture_kana":"アオモリケン","city":"上北郡七戸町","city_kana":"カミキタグンシチノヘマチ","town":"上志多","town_kana":"カミシダ","prefecture_code":2},"2724":{"zip_code":"0392724","prefecture":"青森県","prefecture_kana":"アオモリケン","city":"上北郡七戸町","city_kana":"カミキタグンシチノヘマチ","town":"上平","town_kana":"カミタイラ","prefecture_code":2},"2533":{"zip_code":"0392533","prefecture":"青森県","prefecture_kana":"アオモリケン","city":"上北郡七戸町","city_kana":"カミキタグンシチノヘマチ","town":"川去","town_kana":"カワサリ","prefecture_code":2},"2712":{"zip_code":"0392712","prefecture":"青森県","prefecture_kana":"アオモリケン","city":"上北郡七戸町","city_kana":"カミキタグンシチノヘマチ","town":"北天間舘","town_kana":"キタテンマダテ","prefecture_code":2},"2562":{"zip_code":"0392562","prefecture":"青森県","prefecture_kana":"アオモリケン","city":"上北郡七戸町","city_kana":"カミキタグンシチノヘマチ","town":"倉岡","town_kana":"クラオカ","prefecture_code":2},"2522":{"zip_code":"0392522","prefecture":"青森県","prefecture_kana":"アオモリケン","city":"上北郡七戸町","city_kana":"カミキタグンシチノヘマチ","town":"倉越","town_kana":"クラコシ","prefecture_code":2},"2866":{"zip_code":"0392866","prefecture":"青森県","prefecture_kana":"アオモリケン","city":"上北郡七戸町","city_kana":"カミキタグンシチノヘマチ","town":"栗ノ木沢","town_kana":"クリノキサワ","prefecture_code":2},"2877":{"zip_code":"0392877","prefecture":"青森県","prefecture_kana":"アオモリケン","city":"上北郡七戸町","city_kana":"カミキタグンシチノヘマチ","town":"五庵ノ下","town_kana":"ゴアンノシタ","prefecture_code":2},"2812":{"zip_code":"0392812","prefecture":"青森県","prefecture_kana":"アオモリケン","city":"上北郡七戸町","city_kana":"カミキタグンシチノヘマチ","town":"小田下","town_kana":"コダシタ","prefecture_code":2},"2813":{"zip_code":"0392813","prefecture":"青森県","prefecture_kana":"アオモリケン","city":"上北郡七戸町","city_kana":"カミキタグンシチノヘマチ","town":"小田平","town_kana":"コダタイ","prefecture_code":2},"2822":{"zip_code":"0392822","prefecture":"青森県","prefecture_kana":"アオモリケン","city":"上北郡七戸町","city_kana":"カミキタグンシチノヘマチ","town":"小又","town_kana":"コマタ","prefecture_code":2},"2856":{"zip_code":"0392856","prefecture":"青森県","prefecture_kana":"アオモリケン","city":"上北郡七戸町","city_kana":"カミキタグンシチノヘマチ","town":"古和備","town_kana":"コワソナエ","prefecture_code":2},"2537":{"zip_code":"0392537","prefecture":"青森県","prefecture_kana":"アオモリケン","city":"上北郡七戸町","city_kana":"カミキタグンシチノヘマチ","town":"賽ノ神","town_kana":"サイノカミ","prefecture_code":2},"2753":{"zip_code":"0392753","prefecture":"青森県","prefecture_kana":"アオモリケン","city":"上北郡七戸町","city_kana":"カミキタグンシチノヘマチ","town":"竿打川原","town_kana":"サオウチカワラ","prefecture_code":2},"2778":{"zip_code":"0392778","prefecture":"青森県","prefecture_kana":"アオモリケン","city":"上北郡七戸町","city_kana":"カミキタグンシチノヘマチ","town":"坂ノ外","town_kana":"サカノソト","prefecture_code":2},"2575":{"zip_code":"0392575","prefecture":"青森県","prefecture_kana":"アオモリケン","city":"上北郡七戸町","city_kana":"カミキタグンシチノヘマチ","town":"作田","town_kana":"サクタ","prefecture_code":2},"2845":{"zip_code":"0392845","prefecture":"青森県","prefecture_kana":"アオモリケン","city":"上北郡七戸町","city_kana":"カミキタグンシチノヘマチ","town":"作田道","town_kana":"サクタミチ","prefecture_code":2},"2576":{"zip_code":"0392576","prefecture":"青森県","prefecture_kana":"アオモリケン","city":"上北郡七戸町","city_kana":"カミキタグンシチノヘマチ","town":"桜田","town_kana":"サクラダ","prefecture_code":2},"2568":{"zip_code":"0392568","prefecture":"青森県","prefecture_kana":"アオモリケン","city":"上北郡七戸町","city_kana":"カミキタグンシチノヘマチ","town":"左組","town_kana":"サグミ","prefecture_code":2},"2852":{"zip_code":"0392852","prefecture":"青森県","prefecture_kana":"アオモリケン","city":"上北郡七戸町","city_kana":"カミキタグンシチノヘマチ","town":"さそう","town_kana":"サソウ","prefecture_code":2},"2853":{"zip_code":"0392853","prefecture":"青森県","prefecture_kana":"アオモリケン","city":"上北郡七戸町","city_kana":"カミキタグンシチノヘマチ","town":"さそう平","town_kana":"サソウタイ","prefecture_code":2},"2875":{"zip_code":"0392875","prefecture":"青森県","prefecture_kana":"アオモリケン","city":"上北郡七戸町","city_kana":"カミキタグンシチノヘマチ","town":"淋代","town_kana":"サビシロ","prefecture_code":2},"2512":{"zip_code":"0392512","prefecture":"青森県","prefecture_kana":"アオモリケン","city":"上北郡七戸町","city_kana":"カミキタグンシチノヘマチ","town":"笊田","town_kana":"ザルタ","prefecture_code":2},"2511":{"zip_code":"0392511","prefecture":"青森県","prefecture_kana":"アオモリケン","city":"上北郡七戸町","city_kana":"カミキタグンシチノヘマチ","town":"笊田川久保","town_kana":"ザルタカワクボ","prefecture_code":2},"2754":{"zip_code":"0392754","prefecture":"青森県","prefecture_kana":"アオモリケン","city":"上北郡七戸町","city_kana":"カミキタグンシチノヘマチ","town":"地蔵堂","town_kana":"ジゾウドウ","prefecture_code":2},"2872":{"zip_code":"0392872","prefecture":"青森県","prefecture_kana":"アオモリケン","city":"上北郡七戸町","city_kana":"カミキタグンシチノヘマチ","town":"下タ川原","town_kana":"シタカワラ","prefecture_code":2},"2525":{"zip_code":"0392525","prefecture":"青森県","prefecture_kana":"アオモリケン","city":"上北郡七戸町","city_kana":"カミキタグンシチノヘマチ","town":"七戸","town_kana":"シチノヘ","prefecture_code":2},"2774":{"zip_code":"0392774","prefecture":"青森県","prefecture_kana":"アオモリケン","city":"上北郡七戸町","city_kana":"カミキタグンシチノヘマチ","town":"柴舘道ノ下","town_kana":"シバダテミチノシモ","prefecture_code":2},"2546":{"zip_code":"0392546","prefecture":"青森県","prefecture_kana":"アオモリケン","city":"上北郡七戸町","city_kana":"カミキタグンシチノヘマチ","town":"清水頭","town_kana":"シミズカシラ","prefecture_code":2},"2721":{"zip_code":"0392721","prefecture":"青森県","prefecture_kana":"アオモリケン","city":"上北郡七戸町","city_kana":"カミキタグンシチノヘマチ","town":"志茂川原","town_kana":"シモカワラ","prefecture_code":2},"2864":{"zip_code":"0392864","prefecture":"青森県","prefecture_kana":"アオモリケン","city":"上北郡七戸町","city_kana":"カミキタグンシチノヘマチ","town":"下モ川原","town_kana":"シモカワラ","prefecture_code":2},"2723":{"zip_code":"0392723","prefecture":"青森県","prefecture_kana":"アオモリケン","city":"上北郡七戸町","city_kana":"カミキタグンシチノヘマチ","town":"下志多","town_kana":"シモシタ","prefecture_code":2},"2772":{"zip_code":"0392772","prefecture":"青森県","prefecture_kana":"アオモリケン","city":"上北郡七戸町","city_kana":"カミキタグンシチノヘマチ","town":"下田坪","town_kana":"シモタツボ","prefecture_code":2},"2841":{"zip_code":"0392841","prefecture":"青森県","prefecture_kana":"アオモリケン","city":"上北郡七戸町","city_kana":"カミキタグンシチノヘマチ","town":"下鳥谷部","town_kana":"シモトリヤベ","prefecture_code":2},"2549":{"zip_code":"0392549","prefecture":"青森県","prefecture_kana":"アオモリケン","city":"上北郡七戸町","city_kana":"カミキタグンシチノヘマチ","town":"下見町","town_kana":"シモミルマチ","prefecture_code":2},"2871":{"zip_code":"0392871","prefecture":"青森県","prefecture_kana":"アオモリケン","city":"上北郡七戸町","city_kana":"カミキタグンシチノヘマチ","town":"白石","town_kana":"シロイシ","prefecture_code":2},"2572":{"zip_code":"0392572","prefecture":"青森県","prefecture_kana":"アオモリケン","city":"上北郡七戸町","city_kana":"カミキタグンシチノヘマチ","town":"城ノ後","town_kana":"シロノアト","prefecture_code":2},"2565":{"zip_code":"0392565","prefecture":"青森県","prefecture_kana":"アオモリケン","city":"上北郡七戸町","city_kana":"カミキタグンシチノヘマチ","town":"治部袋","town_kana":"ジンバ","prefecture_code":2},"2726":{"zip_code":"0392726","prefecture":"青森県","prefecture_kana":"アオモリケン","city":"上北郡七戸町","city_kana":"カミキタグンシチノヘマチ","town":"李川原","town_kana":"スモモカワラ","prefecture_code":2},"2777":{"zip_code":"0392777","prefecture":"青森県","prefecture_kana":"アオモリケン","city":"上北郡七戸町","city_kana":"カミキタグンシチノヘマチ","town":"李沢家ノ後","town_kana":"スモモザワイエノウシロ","prefecture_code":2},"2776":{"zip_code":"0392776","prefecture":"青森県","prefecture_kana":"アオモリケン","city":"上北郡七戸町","city_kana":"カミキタグンシチノヘマチ","town":"李沢家ノ前","town_kana":"スモモザワイエノマエ","prefecture_code":2},"2775":{"zip_code":"0392775","prefecture":"青森県","prefecture_kana":"アオモリケン","city":"上北郡七戸町","city_kana":"カミキタグンシチノヘマチ","town":"李沢道ノ下","town_kana":"スモモザワミチノシモ","prefecture_code":2},"2557":{"zip_code":"0392557","prefecture":"青森県","prefecture_kana":"アオモリケン","city":"上北郡七戸町","city_kana":"カミキタグンシチノヘマチ","town":"西野","town_kana":"セイノ","prefecture_code":2},"2876":{"zip_code":"0392876","prefecture":"青森県","prefecture_kana":"アオモリケン","city":"上北郡七戸町","city_kana":"カミキタグンシチノヘマチ","town":"堰代","town_kana":"セキシロ","prefecture_code":2},"2851":{"zip_code":"0392851","prefecture":"青森県","prefecture_kana":"アオモリケン","city":"上北郡七戸町","city_kana":"カミキタグンシチノヘマチ","town":"堰根","town_kana":"セキネ","prefecture_code":2},"2515":{"zip_code":"0392515","prefecture":"青森県","prefecture_kana":"アオモリケン","city":"上北郡七戸町","city_kana":"カミキタグンシチノヘマチ","town":"蒼前","town_kana":"ソウゼン","prefecture_code":2},"2855":{"zip_code":"0392855","prefecture":"青森県","prefecture_kana":"アオモリケン","city":"上北郡七戸町","city_kana":"カミキタグンシチノヘマチ","town":"底田","town_kana":"ソコタ","prefecture_code":2},"2732":{"zip_code":"0392732","prefecture":"青森県","prefecture_kana":"アオモリケン","city":"上北郡七戸町","city_kana":"カミキタグンシチノヘマチ","town":"卒古沢","town_kana":"ソツコザワ","prefecture_code":2},"2757":{"zip_code":"0392757","prefecture":"青森県","prefecture_kana":"アオモリケン","city":"上北郡七戸町","city_kana":"カミキタグンシチノヘマチ","town":"卒古沢南平","town_kana":"ソツコザワミナミタイ","prefecture_code":2},"2854":{"zip_code":"0392854","prefecture":"青森県","prefecture_kana":"アオモリケン","city":"上北郡七戸町","city_kana":"カミキタグンシチノヘマチ","town":"高井名","town_kana":"タカイナ","prefecture_code":2},"2558":{"zip_code":"0392558","prefecture":"青森県","prefecture_kana":"アオモリケン","city":"上北郡七戸町","city_kana":"カミキタグンシチノヘマチ","town":"高屋敷","town_kana":"タカヤシキ","prefecture_code":2},"2516":{"zip_code":"0392516","prefecture":"青森県","prefecture_kana":"アオモリケン","city":"上北郡七戸町","city_kana":"カミキタグンシチノヘマチ","town":"舘野","town_kana":"タテノ","prefecture_code":2},"2505":{"zip_code":"0392505","prefecture":"青森県","prefecture_kana":"アオモリケン","city":"上北郡七戸町","city_kana":"カミキタグンシチノヘマチ","town":"立野頭","town_kana":"タテノガシラ","prefecture_code":2},"2823":{"zip_code":"0392823","prefecture":"青森県","prefecture_kana":"アオモリケン","city":"上北郡七戸町","city_kana":"カミキタグンシチノヘマチ","town":"館ノ下","town_kana":"ダテノシタ","prefecture_code":2},"2744":{"zip_code":"0392744","prefecture":"青森県","prefecture_kana":"アオモリケン","city":"上北郡七戸町","city_kana":"カミキタグンシチノヘマチ","town":"塚長根","town_kana":"ツカナガネ","prefecture_code":2},"2747":{"zip_code":"0392747","prefecture":"青森県","prefecture_kana":"アオモリケン","city":"上北郡七戸町","city_kana":"カミキタグンシチノヘマチ","town":"附田家ノ前","town_kana":"ツクタイエノマエ","prefecture_code":2},"2746":{"zip_code":"0392746","prefecture":"青森県","prefecture_kana":"アオモリケン","city":"上北郡七戸町","city_kana":"カミキタグンシチノヘマチ","town":"附田川目","town_kana":"ツクタカワメ","prefecture_code":2},"2874":{"zip_code":"0392874","prefecture":"青森県","prefecture_kana":"アオモリケン","city":"上北郡七戸町","city_kana":"カミキタグンシチノヘマチ","town":"坪川原","town_kana":"ツボカワラ","prefecture_code":2},"2552":{"zip_code":"0392552","prefecture":"青森県","prefecture_kana":"アオモリケン","city":"上北郡七戸町","city_kana":"カミキタグンシチノヘマチ","town":"鶴打田","town_kana":"ツルウチタ","prefecture_code":2},"2567":{"zip_code":"0392567","prefecture":"青森県","prefecture_kana":"アオモリケン","city":"上北郡七戸町","city_kana":"カミキタグンシチノヘマチ","town":"鶴児平","town_kana":"ツルノコタイ","prefecture_code":2},"2844":{"zip_code":"0392844","prefecture":"青森県","prefecture_kana":"アオモリケン","city":"上北郡七戸町","city_kana":"カミキタグンシチノヘマチ","town":"手代森","town_kana":"テシロモリ","prefecture_code":2},"2524":{"zip_code":"0392524","prefecture":"青森県","prefecture_kana":"アオモリケン","city":"上北郡七戸町","city_kana":"カミキタグンシチノヘマチ","town":"寺裏","town_kana":"テラウラ","prefecture_code":2},"2743":{"zip_code":"0392743","prefecture":"青森県","prefecture_kana":"アオモリケン","city":"上北郡七戸町","city_kana":"カミキタグンシチノヘマチ","town":"寺沢前","town_kana":"テラサワマエ","prefecture_code":2},"2538":{"zip_code":"0392538","prefecture":"青森県","prefecture_kana":"アオモリケン","city":"上北郡七戸町","city_kana":"カミキタグンシチノヘマチ","town":"寺下","town_kana":"テラシタ","prefecture_code":2},"2518":{"zip_code":"0392518","prefecture":"青森県","prefecture_kana":"アオモリケン","city":"上北郡七戸町","city_kana":"カミキタグンシチノヘマチ","town":"天神林","town_kana":"テンジンバヤシ","prefecture_code":2},"2521":{"zip_code":"0392521","prefecture":"青森県","prefecture_kana":"アオモリケン","city":"上北郡七戸町","city_kana":"カミキタグンシチノヘマチ","town":"天王","town_kana":"テンノウ","prefecture_code":2},"2811":{"zip_code":"0392811","prefecture":"青森県","prefecture_kana":"アオモリケン","city":"上北郡七戸町","city_kana":"カミキタグンシチノヘマチ","town":"天間舘荒谷","town_kana":"テンマダテアラヤ","prefecture_code":2},"2861":{"zip_code":"0392861","prefecture":"青森県","prefecture_kana":"アオモリケン","city":"上北郡七戸町","city_kana":"カミキタグンシチノヘマチ","town":"天間舘大沢","town_kana":"テンマダテオオサワ","prefecture_code":2},"2873":{"zip_code":"0392873","prefecture":"青森県","prefecture_kana":"アオモリケン","city":"上北郡七戸町","city_kana":"カミキタグンシチノヘマチ","town":"天間舘寒水","town_kana":"テンマダテカンスイ","prefecture_code":2},"2857":{"zip_code":"0392857","prefecture":"青森県","prefecture_kana":"アオモリケン","city":"上北郡七戸町","city_kana":"カミキタグンシチノヘマチ","town":"天間舘倉越","town_kana":"テンマダテクラコシ","prefecture_code":2},"2733":{"zip_code":"0392733","prefecture":"青森県","prefecture_kana":"アオモリケン","city":"上北郡七戸町","city_kana":"カミキタグンシチノヘマチ","town":"天間舘前川原","town_kana":"テンマダテマエカワラ","prefecture_code":2},"2863":{"zip_code":"0392863","prefecture":"青森県","prefecture_kana":"アオモリケン","city":"上北郡七戸町","city_kana":"カミキタグンシチノヘマチ","town":"十枝内","town_kana":"トシナイ","prefecture_code":2},"2579":{"zip_code":"0392579","prefecture":"青森県","prefecture_kana":"アオモリケン","city":"上北郡七戸町","city_kana":"カミキタグンシチノヘマチ","town":"十役野","town_kana":"トヤクノ","prefecture_code":2},"2503":{"zip_code":"0392503","prefecture":"青森県","prefecture_kana":"アオモリケン","city":"上北郡七戸町","city_kana":"カミキタグンシチノヘマチ","town":"豊間内","town_kana":"トヨマナイ","prefecture_code":2},"2846":{"zip_code":"0392846","prefecture":"青森県","prefecture_kana":"アオモリケン","city":"上北郡七戸町","city_kana":"カミキタグンシチノヘマチ","town":"鳥谷部","town_kana":"トリヤベ","prefecture_code":2},"2554":{"zip_code":"0392554","prefecture":"青森県","prefecture_kana":"アオモリケン","city":"上北郡七戸町","city_kana":"カミキタグンシチノヘマチ","town":"中岫","town_kana":"ナカグキ","prefecture_code":2},"2782":{"zip_code":"0392782","prefecture":"青森県","prefecture_kana":"アオモリケン","city":"上北郡七戸町","city_kana":"カミキタグンシチノヘマチ","town":"中岫太田嶋","town_kana":"ナカグキオオタシマ","prefecture_code":2},"2784":{"zip_code":"0392784","prefecture":"青森県","prefecture_kana":"アオモリケン","city":"上北郡七戸町","city_kana":"カミキタグンシチノヘマチ","town":"中岫長沢下","town_kana":"ナカグキナガサワシモ","prefecture_code":2},"2783":{"zip_code":"0392783","prefecture":"青森県","prefecture_kana":"アオモリケン","city":"上北郡七戸町","city_kana":"カミキタグンシチノヘマチ","town":"中岫番屋","town_kana":"ナカグキバンヤ","prefecture_code":2},"2786":{"zip_code":"0392786","prefecture":"青森県","prefecture_kana":"アオモリケン","city":"上北郡七戸町","city_kana":"カミキタグンシチノヘマチ","town":"中岫東道添","town_kana":"ナカグキヒガシミチゾエ","prefecture_code":2},"2785":{"zip_code":"0392785","prefecture":"青森県","prefecture_kana":"アオモリケン","city":"上北郡七戸町","city_kana":"カミキタグンシチノヘマチ","town":"中岫村ノ上","town_kana":"ナカグキムラノカミ","prefecture_code":2},"2711":{"zip_code":"0392711","prefecture":"青森県","prefecture_kana":"アオモリケン","city":"上北郡七戸町","city_kana":"カミキタグンシチノヘマチ","town":"中天間舘","town_kana":"ナカテンマダテ","prefecture_code":2},"2842":{"zip_code":"0392842","prefecture":"青森県","prefecture_kana":"アオモリケン","city":"上北郡七戸町","city_kana":"カミキタグンシチノヘマチ","town":"中鳥谷","town_kana":"ナカトリヤ","prefecture_code":2},"2826":{"zip_code":"0392826","prefecture":"青森県","prefecture_kana":"アオモリケン","city":"上北郡七戸町","city_kana":"カミキタグンシチノヘマチ","town":"中野","town_kana":"ナカノ","prefecture_code":2},"2539":{"zip_code":"0392539","prefecture":"青森県","prefecture_kana":"アオモリケン","city":"上北郡七戸町","city_kana":"カミキタグンシチノヘマチ","town":"中村","town_kana":"ナカムラ","prefecture_code":2},"2862":{"zip_code":"0392862","prefecture":"青森県","prefecture_kana":"アオモリケン","city":"上北郡七戸町","city_kana":"カミキタグンシチノヘマチ","town":"夏間木","town_kana":"ナツマギ","prefecture_code":2},"2517":{"zip_code":"0392517","prefecture":"青森県","prefecture_kana":"アオモリケン","city":"上北郡七戸町","city_kana":"カミキタグンシチノヘマチ","town":"夏焼","town_kana":"ナツヤキ","prefecture_code":2},"2582":{"zip_code":"0392582","prefecture":"青森県","prefecture_kana":"アオモリケン","city":"上北郡七戸町","city_kana":"カミキタグンシチノヘマチ","town":"西上川原","town_kana":"ニシカミカワラ","prefecture_code":2},"2556":{"zip_code":"0392556","prefecture":"青森県","prefecture_kana":"アオモリケン","city":"上北郡七戸町","city_kana":"カミキタグンシチノヘマチ","town":"西槻木","town_kana":"ニシツキノキ","prefecture_code":2},"2535":{"zip_code":"0392535","prefecture":"青森県","prefecture_kana":"アオモリケン","city":"上北郡七戸町","city_kana":"カミキタグンシチノヘマチ","town":"沼ノ沢","town_kana":"ヌマノサワ","prefecture_code":2},"2536":{"zip_code":"0392536","prefecture":"青森県","prefecture_kana":"アオモリケン","city":"上北郡七戸町","city_kana":"カミキタグンシチノヘマチ","town":"野佐掛","town_kana":"ノサカケ","prefecture_code":2},"2801":{"zip_code":"0392801","prefecture":"青森県","prefecture_kana":"アオモリケン","city":"上北郡七戸町","city_kana":"カミキタグンシチノヘマチ","town":"野崎","town_kana":"ノザキ","prefecture_code":2},"2804":{"zip_code":"0392804","prefecture":"青森県","prefecture_kana":"アオモリケン","city":"上北郡七戸町","city_kana":"カミキタグンシチノヘマチ","town":"野崎狐久保","town_kana":"ノザキキツネクボ","prefecture_code":2},"2802":{"zip_code":"0392802","prefecture":"青森県","prefecture_kana":"アオモリケン","city":"上北郡七戸町","city_kana":"カミキタグンシチノヘマチ","town":"野崎前平","town_kana":"ノザキマエヒラ","prefecture_code":2},"2803":{"zip_code":"0392803","prefecture":"青森県","prefecture_kana":"アオモリケン","city":"上北郡七戸町","city_kana":"カミキタグンシチノヘマチ","town":"野崎森ノ下","town_kana":"ノザキモリノシモ","prefecture_code":2},"2573":{"zip_code":"0392573","prefecture":"青森県","prefecture_kana":"アオモリケン","city":"上北郡七戸町","city_kana":"カミキタグンシチノヘマチ","town":"野続","town_kana":"ノツヅキ","prefecture_code":2},"2542":{"zip_code":"0392542","prefecture":"青森県","prefecture_kana":"アオモリケン","city":"上北郡七戸町","city_kana":"カミキタグンシチノヘマチ","town":"萩ノ沢","town_kana":"ハギノサワ","prefecture_code":2},"2843":{"zip_code":"0392843","prefecture":"青森県","prefecture_kana":"アオモリケン","city":"上北郡七戸町","city_kana":"カミキタグンシチノヘマチ","town":"橋ノ上","town_kana":"ハシノカミ","prefecture_code":2},"2752":{"zip_code":"0392752","prefecture":"青森県","prefecture_kana":"アオモリケン","city":"上北郡七戸町","city_kana":"カミキタグンシチノヘマチ","town":"鉢森平","town_kana":"ハチモリタイ","prefecture_code":2},"2544":{"zip_code":"0392544","prefecture":"青森県","prefecture_kana":"アオモリケン","city":"上北郡七戸町","city_kana":"カミキタグンシチノヘマチ","town":"八栗平","town_kana":"ハックリタイ","prefecture_code":2},"2553":{"zip_code":"0392553","prefecture":"青森県","prefecture_kana":"アオモリケン","city":"上北郡七戸町","city_kana":"カミキタグンシチノヘマチ","town":"八尺堂","town_kana":"ハッシャクドウ","prefecture_code":2},"2566":{"zip_code":"0392566","prefecture":"青森県","prefecture_kana":"アオモリケン","city":"上北郡七戸町","city_kana":"カミキタグンシチノヘマチ","town":"放森","town_kana":"ハナツモリ","prefecture_code":2},"2781":{"zip_code":"0392781","prefecture":"青森県","prefecture_kana":"アオモリケン","city":"上北郡七戸町","city_kana":"カミキタグンシチノヘマチ","town":"花松林ノ根","town_kana":"ハナマツハヤシノネ","prefecture_code":2},"2805":{"zip_code":"0392805","prefecture":"青森県","prefecture_kana":"アオモリケン","city":"上北郡七戸町","city_kana":"カミキタグンシチノヘマチ","town":"原久保","town_kana":"ハラクボ","prefecture_code":2},"2581":{"zip_code":"0392581","prefecture":"青森県","prefecture_kana":"アオモリケン","city":"上北郡七戸町","city_kana":"カミキタグンシチノヘマチ","town":"東上川原","town_kana":"ヒガシカミカワラ","prefecture_code":2},"2513":{"zip_code":"0392513","prefecture":"青森県","prefecture_kana":"アオモリケン","city":"上北郡七戸町","city_kana":"カミキタグンシチノヘマチ","town":"東槻木","town_kana":"ヒガシツキノキ","prefecture_code":2},"2713":{"zip_code":"0392713","prefecture":"青森県","prefecture_kana":"アオモリケン","city":"上北郡七戸町","city_kana":"カミキタグンシチノヘマチ","town":"東天間舘","town_kana":"ヒガシテンマダテ","prefecture_code":2},"2506":{"zip_code":"0392506","prefecture":"青森県","prefecture_kana":"アオモリケン","city":"上北郡七戸町","city_kana":"カミキタグンシチノヘマチ","town":"膝森","town_kana":"ヒザモリ","prefecture_code":2},"2504":{"zip_code":"0392504","prefecture":"青森県","prefecture_kana":"アオモリケン","city":"上北郡七戸町","city_kana":"カミキタグンシチノヘマチ","town":"寒水","town_kana":"ヒヤミズ","prefecture_code":2},"2761":{"zip_code":"0392761","prefecture":"青森県","prefecture_kana":"アオモリケン","city":"上北郡七戸町","city_kana":"カミキタグンシチノヘマチ","town":"二ツ森家ノ後","town_kana":"フタツモリイエノウシロ","prefecture_code":2},"2763":{"zip_code":"0392763","prefecture":"青森県","prefecture_kana":"アオモリケン","city":"上北郡七戸町","city_kana":"カミキタグンシチノヘマチ","town":"二ツ森家ノ表","town_kana":"フタツモリイエノオモテ","prefecture_code":2},"2762":{"zip_code":"0392762","prefecture":"青森県","prefecture_kana":"アオモリケン","city":"上北郡七戸町","city_kana":"カミキタグンシチノヘマチ","town":"二ツ森家ノ下","town_kana":"フタツモリイエノシタ","prefecture_code":2},"2742":{"zip_code":"0392742","prefecture":"青森県","prefecture_kana":"アオモリケン","city":"上北郡七戸町","city_kana":"カミキタグンシチノヘマチ","town":"舟場向川久保","town_kana":"フナバムカイガワクボ","prefecture_code":2},"2564":{"zip_code":"0392564","prefecture":"青森県","prefecture_kana":"アオモリケン","city":"上北郡七戸町","city_kana":"カミキタグンシチノヘマチ","town":"古屋敷","town_kana":"フルヤシキ","prefecture_code":2},"2545":{"zip_code":"0392545","prefecture":"青森県","prefecture_kana":"アオモリケン","city":"上北郡七戸町","city_kana":"カミキタグンシチノヘマチ","town":"別曽","town_kana":"ベッソウ","prefecture_code":2},"2571":{"zip_code":"0392571","prefecture":"青森県","prefecture_kana":"アオモリケン","city":"上北郡七戸町","city_kana":"カミキタグンシチノヘマチ","town":"蛇坂","town_kana":"ヘビサカ","prefecture_code":2},"2716":{"zip_code":"0392716","prefecture":"青森県","prefecture_kana":"アオモリケン","city":"上北郡七戸町","city_kana":"カミキタグンシチノヘマチ","town":"菩提木","town_kana":"ボダイギ","prefecture_code":2},"2583":{"zip_code":"0392583","prefecture":"青森県","prefecture_kana":"アオモリケン","city":"上北郡七戸町","city_kana":"カミキタグンシチノヘマチ","town":"前川原","town_kana":"マエカワラ","prefecture_code":2},"2773":{"zip_code":"0392773","prefecture":"青森県","prefecture_kana":"アオモリケン","city":"上北郡七戸町","city_kana":"カミキタグンシチノヘマチ","town":"前左野","town_kana":"マエサノ","prefecture_code":2},"2555":{"zip_code":"0392555","prefecture":"青森県","prefecture_kana":"アオモリケン","city":"上北郡七戸町","city_kana":"カミキタグンシチノヘマチ","town":"前田","town_kana":"マエダ","prefecture_code":2},"2569":{"zip_code":"0392569","prefecture":"青森県","prefecture_kana":"アオモリケン","city":"上北郡七戸町","city_kana":"カミキタグンシチノヘマチ","town":"馬門川原","town_kana":"マカドガワラ","prefecture_code":2},"2527":{"zip_code":"0392527","prefecture":"青森県","prefecture_kana":"アオモリケン","city":"上北郡七戸町","city_kana":"カミキタグンシチノヘマチ","town":"町","town_kana":"マチ","prefecture_code":2},"2835":{"zip_code":"0392835","prefecture":"青森県","prefecture_kana":"アオモリケン","city":"上北郡七戸町","city_kana":"カミキタグンシチノヘマチ","town":"松ケ沢","town_kana":"マツガサワ","prefecture_code":2},"2832":{"zip_code":"0392832","prefecture":"青森県","prefecture_kana":"アオモリケン","city":"上北郡七戸町","city_kana":"カミキタグンシチノヘマチ","town":"道ノ上","town_kana":"ミチノカミ","prefecture_code":2},"2814":{"zip_code":"0392814","prefecture":"青森県","prefecture_kana":"アオモリケン","city":"上北郡七戸町","city_kana":"カミキタグンシチノヘマチ","town":"道ノ下","town_kana":"ミチノシモ","prefecture_code":2},"2748":{"zip_code":"0392748","prefecture":"青森県","prefecture_kana":"アオモリケン","city":"上北郡七戸町","city_kana":"カミキタグンシチノヘマチ","town":"南舘向","town_kana":"ミナミダテムカイ","prefecture_code":2},"2541":{"zip_code":"0392541","prefecture":"青森県","prefecture_kana":"アオモリケン","city":"上北郡七戸町","city_kana":"カミキタグンシチノヘマチ","town":"都平","town_kana":"ミヤコタイ","prefecture_code":2},"2548":{"zip_code":"0392548","prefecture":"青森県","prefecture_kana":"アオモリケン","city":"上北郡七戸町","city_kana":"カミキタグンシチノヘマチ","town":"見町","town_kana":"ミルマチ","prefecture_code":2},"2722":{"zip_code":"0392722","prefecture":"青森県","prefecture_kana":"アオモリケン","city":"上北郡七戸町","city_kana":"カミキタグンシチノヘマチ","town":"向川原","town_kana":"ムカイカワラ","prefecture_code":2},"2563":{"zip_code":"0392563","prefecture":"青森県","prefecture_kana":"アオモリケン","city":"上北郡七戸町","city_kana":"カミキタグンシチノヘマチ","town":"向平","town_kana":"ムカイタイ","prefecture_code":2},"2834":{"zip_code":"0392834","prefecture":"青森県","prefecture_kana":"アオモリケン","city":"上北郡七戸町","city_kana":"カミキタグンシチノヘマチ","town":"向中野川向","town_kana":"ムカイナカノカワムカイ","prefecture_code":2},"2828":{"zip_code":"0392828","prefecture":"青森県","prefecture_kana":"アオモリケン","city":"上北郡七戸町","city_kana":"カミキタグンシチノヘマチ","town":"森ケ沢","town_kana":"モリガサワ","prefecture_code":2},"2827":{"zip_code":"0392827","prefecture":"青森県","prefecture_kana":"アオモリケン","city":"上北郡七戸町","city_kana":"カミキタグンシチノヘマチ","town":"森ノ上","town_kana":"モリノカミ","prefecture_code":2},"2815":{"zip_code":"0392815","prefecture":"青森県","prefecture_kana":"アオモリケン","city":"上北郡七戸町","city_kana":"カミキタグンシチノヘマチ","town":"森ノ下","town_kana":"モリノシモ","prefecture_code":2},"2551":{"zip_code":"0392551","prefecture":"青森県","prefecture_kana":"アオモリケン","city":"上北郡七戸町","city_kana":"カミキタグンシチノヘマチ","town":"薬師平","town_kana":"ヤクシタイ","prefecture_code":2},"2547":{"zip_code":"0392547","prefecture":"青森県","prefecture_kana":"アオモリケン","city":"上北郡七戸町","city_kana":"カミキタグンシチノヘマチ","town":"矢倉","town_kana":"ヤグラ","prefecture_code":2},"2717":{"zip_code":"0392717","prefecture":"青森県","prefecture_kana":"アオモリケン","city":"上北郡七戸町","city_kana":"カミキタグンシチノヘマチ","town":"柳平","town_kana":"ヤナギタイラ","prefecture_code":2},"2559":{"zip_code":"0392559","prefecture":"青森県","prefecture_kana":"アオモリケン","city":"上北郡七戸町","city_kana":"カミキタグンシチノヘマチ","town":"山屋","town_kana":"ヤマヤ","prefecture_code":2},"2589":{"zip_code":"0392589","prefecture":"青森県","prefecture_kana":"アオモリケン","city":"上北郡七戸町","city_kana":"カミキタグンシチノヘマチ","town":"和田","town_kana":"ワダ","prefecture_code":2},"2588":{"zip_code":"0392588","prefecture":"青森県","prefecture_kana":"アオモリケン","city":"上北郡七戸町","city_kana":"カミキタグンシチノヘマチ","town":"和田下","town_kana":"ワダシモ","prefecture_code":2},"2300":{"zip_code":"0392300","prefecture":"青森県","prefecture_kana":"アオモリケン","city":"上北郡六戸町","city_kana":"カミキタグンロクノヘマチ","town":"","town_kana":"","prefecture_code":2},"2371":{"zip_code":"0392371","prefecture":"青森県","prefecture_kana":"アオモリケン","city":"上北郡六戸町","city_kana":"カミキタグンロクノヘマチ","town":"犬落瀬","town_kana":"イヌオトセ","prefecture_code":2},"2372":{"zip_code":"0392372","prefecture":"青森県","prefecture_kana":"アオモリケン","city":"上北郡六戸町","city_kana":"カミキタグンロクノヘマチ","town":"折茂","town_kana":"オリモ","prefecture_code":2},"2311":{"zip_code":"0392311","prefecture":"青森県","prefecture_kana":"アオモリケン","city":"上北郡六戸町","city_kana":"カミキタグンロクノヘマチ","town":"上吉田","town_kana":"カミヨシダ","prefecture_code":2},"2314":{"zip_code":"0392314","prefecture":"青森県","prefecture_kana":"アオモリケン","city":"上北郡六戸町","city_kana":"カミキタグンロクノヘマチ","town":"小平","town_kana":"コダイラ","prefecture_code":2},"2312":{"zip_code":"0392312","prefecture":"青森県","prefecture_kana":"アオモリケン","city":"上北郡六戸町","city_kana":"カミキタグンロクノヘマチ","town":"下吉田","town_kana":"シモヨシダ","prefecture_code":2},"2313":{"zip_code":"0392313","prefecture":"青森県","prefecture_kana":"アオモリケン","city":"上北郡六戸町","city_kana":"カミキタグンロクノヘマチ","town":"鶴喰","town_kana":"ツルバミ","prefecture_code":2},"2315":{"zip_code":"0392315","prefecture":"青森県","prefecture_kana":"アオモリケン","city":"上北郡六戸町","city_kana":"カミキタグンロクノヘマチ","town":"柳町","town_kana":"ヤナギマチ","prefecture_code":2},"4100":{"zip_code":"0394100","prefecture":"青森県","prefecture_kana":"アオモリケン","city":"上北郡横浜町","city_kana":"カミキタグンヨコハママチ","town":"","town_kana":"","prefecture_code":2},"4106":{"zip_code":"0394106","prefecture":"青森県","prefecture_kana":"アオモリケン","city":"上北郡横浜町","city_kana":"カミキタグンヨコハママチ","town":"有畑","town_kana":"アリハタ","prefecture_code":2},"4113":{"zip_code":"0394113","prefecture":"青森県","prefecture_kana":"アオモリケン","city":"上北郡横浜町","city_kana":"カミキタグンヨコハママチ","town":"家ノ前川目","town_kana":"イエノマエカワメ","prefecture_code":2},"4115":{"zip_code":"0394115","prefecture":"青森県","prefecture_kana":"アオモリケン","city":"上北郡横浜町","city_kana":"カミキタグンヨコハママチ","town":"稲荷平","town_kana":"イナリタイラ","prefecture_code":2},"4112":{"zip_code":"0394112","prefecture":"青森県","prefecture_kana":"アオモリケン","city":"上北郡横浜町","city_kana":"カミキタグンヨコハママチ","town":"夷ケ沢平","town_kana":"エゾガサワタイラ","prefecture_code":2},"4111":{"zip_code":"0394111","prefecture":"青森県","prefecture_kana":"アオモリケン","city":"上北郡横浜町","city_kana":"カミキタグンヨコハママチ","town":"大畑","town_kana":"オオハタ","prefecture_code":2},"4131":{"zip_code":"0394131","prefecture":"青森県","prefecture_kana":"アオモリケン","city":"上北郡横浜町","city_kana":"カミキタグンヨコハママチ","town":"椛名木","town_kana":"カバナキ","prefecture_code":2},"4142":{"zip_code":"0394142","prefecture":"青森県","prefecture_kana":"アオモリケン","city":"上北郡横浜町","city_kana":"カミキタグンヨコハママチ","town":"上イタヤノ木","town_kana":"カミイタヤノキ","prefecture_code":2},"4123":{"zip_code":"0394123","prefecture":"青森県","prefecture_kana":"アオモリケン","city":"上北郡横浜町","city_kana":"カミキタグンヨコハママチ","town":"茅平","town_kana":"カヤタイラ","prefecture_code":2},"4124":{"zip_code":"0394124","prefecture":"青森県","prefecture_kana":"アオモリケン","city":"上北郡横浜町","city_kana":"カミキタグンヨコハママチ","town":"川尻","town_kana":"カワジリ","prefecture_code":2},"4103":{"zip_code":"0394103","prefecture":"青森県","prefecture_kana":"アオモリケン","city":"上北郡横浜町","city_kana":"カミキタグンヨコハママチ","town":"川太郎川目","town_kana":"カワタロウカワメ","prefecture_code":2},"4137":{"zip_code":"0394137","prefecture":"青森県","prefecture_kana":"アオモリケン","city":"上北郡横浜町","city_kana":"カミキタグンヨコハママチ","town":"下川原","town_kana":"シモガワラ","prefecture_code":2},"4104":{"zip_code":"0394104","prefecture":"青森県","prefecture_kana":"アオモリケン","city":"上北郡横浜町","city_kana":"カミキタグンヨコハママチ","town":"下苗代川目","town_kana":"シモナワシロカワメ","prefecture_code":2},"4133":{"zip_code":"0394133","prefecture":"青森県","prefecture_kana":"アオモリケン","city":"上北郡横浜町","city_kana":"カミキタグンヨコハママチ","town":"舘の後","town_kana":"タテノウシロ","prefecture_code":2},"4132":{"zip_code":"0394132","prefecture":"青森県","prefecture_kana":"アオモリケン","city":"上北郡横浜町","city_kana":"カミキタグンヨコハママチ","town":"太郎須田","town_kana":"タロウスダ","prefecture_code":2},"4138":{"zip_code":"0394138","prefecture":"青森県","prefecture_kana":"アオモリケン","city":"上北郡横浜町","city_kana":"カミキタグンヨコハママチ","town":"塚名平","town_kana":"ツカナタイラ","prefecture_code":2},"4145":{"zip_code":"0394145","prefecture":"青森県","prefecture_kana":"アオモリケン","city":"上北郡横浜町","city_kana":"カミキタグンヨコハママチ","town":"寺下","town_kana":"テラシタ","prefecture_code":2},"4152":{"zip_code":"0394152","prefecture":"青森県","prefecture_kana":"アオモリケン","city":"上北郡横浜町","city_kana":"カミキタグンヨコハママチ","town":"百目木","town_kana":"ドメキ","prefecture_code":2},"4155":{"zip_code":"0394155","prefecture":"青森県","prefecture_kana":"アオモリケン","city":"上北郡横浜町","city_kana":"カミキタグンヨコハママチ","town":"豊栄平","town_kana":"トヨサカタイラ","prefecture_code":2},"4122":{"zip_code":"0394122","prefecture":"青森県","prefecture_kana":"アオモリケン","city":"上北郡横浜町","city_kana":"カミキタグンヨコハママチ","town":"鶏ケ唄","town_kana":"トリガウタ","prefecture_code":2},"4116":{"zip_code":"0394116","prefecture":"青森県","prefecture_kana":"アオモリケン","city":"上北郡横浜町","city_kana":"カミキタグンヨコハママチ","town":"中畑","town_kana":"ナカハタ","prefecture_code":2},"4105":{"zip_code":"0394105","prefecture":"青森県","prefecture_kana":"アオモリケン","city":"上北郡横浜町","city_kana":"カミキタグンヨコハママチ","town":"苗代川目","town_kana":"ナワシロカワメ","prefecture_code":2},"4117":{"zip_code":"0394117","prefecture":"青森県","prefecture_kana":"アオモリケン","city":"上北郡横浜町","city_kana":"カミキタグンヨコハママチ","town":"鶏沢","town_kana":"ニワトリザワ","prefecture_code":2},"4144":{"zip_code":"0394144","prefecture":"青森県","prefecture_kana":"アオモリケン","city":"上北郡横浜町","city_kana":"カミキタグンヨコハママチ","town":"浜懸","town_kana":"ハマガケ","prefecture_code":2},"4102":{"zip_code":"0394102","prefecture":"青森県","prefecture_kana":"アオモリケン","city":"上北郡横浜町","city_kana":"カミキタグンヨコハママチ","town":"浜田","town_kana":"ハマダ","prefecture_code":2},"4101":{"zip_code":"0394101","prefecture":"青森県","prefecture_kana":"アオモリケン","city":"上北郡横浜町","city_kana":"カミキタグンヨコハママチ","town":"林尻","town_kana":"ハヤシジリ","prefecture_code":2},"4135":{"zip_code":"0394135","prefecture":"青森県","prefecture_kana":"アオモリケン","city":"上北郡横浜町","city_kana":"カミキタグンヨコハママチ","town":"林の後","town_kana":"ハヤシノウシロ","prefecture_code":2},"4134":{"zip_code":"0394134","prefecture":"青森県","prefecture_kana":"アオモリケン","city":"上北郡横浜町","city_kana":"カミキタグンヨコハママチ","town":"林の脇","town_kana":"ハヤシノワキ","prefecture_code":2},"4121":{"zip_code":"0394121","prefecture":"青森県","prefecture_kana":"アオモリケン","city":"上北郡横浜町","city_kana":"カミキタグンヨコハママチ","town":"桧木","town_kana":"ヒノキ","prefecture_code":2},"4156":{"zip_code":"0394156","prefecture":"青森県","prefecture_kana":"アオモリケン","city":"上北郡横浜町","city_kana":"カミキタグンヨコハママチ","town":"雲雀平","town_kana":"ヒバリタイラ","prefecture_code":2},"4157":{"zip_code":"0394157","prefecture":"青森県","prefecture_kana":"アオモリケン","city":"上北郡横浜町","city_kana":"カミキタグンヨコハママチ","town":"二又","town_kana":"フタマタ","prefecture_code":2},"4153":{"zip_code":"0394153","prefecture":"青森県","prefecture_kana":"アオモリケン","city":"上北郡横浜町","city_kana":"カミキタグンヨコハママチ","town":"吹越","town_kana":"フッコシ","prefecture_code":2},"4114":{"zip_code":"0394114","prefecture":"青森県","prefecture_kana":"アオモリケン","city":"上北郡横浜町","city_kana":"カミキタグンヨコハママチ","town":"大豆田","town_kana":"マメダ","prefecture_code":2},"4141":{"zip_code":"0394141","prefecture":"青森県","prefecture_kana":"アオモリケン","city":"上北郡横浜町","city_kana":"カミキタグンヨコハママチ","town":"三保野","town_kana":"ミホノ","prefecture_code":2},"4154":{"zip_code":"0394154","prefecture":"青森県","prefecture_kana":"アオモリケン","city":"上北郡横浜町","city_kana":"カミキタグンヨコハママチ","town":"明神平","town_kana":"ミョウジンタイラ","prefecture_code":2},"4151":{"zip_code":"0394151","prefecture":"青森県","prefecture_kana":"アオモリケン","city":"上北郡横浜町","city_kana":"カミキタグンヨコハママチ","town":"向平","town_kana":"ムカイタイラ","prefecture_code":2},"4143":{"zip_code":"0394143","prefecture":"青森県","prefecture_kana":"アオモリケン","city":"上北郡横浜町","city_kana":"カミキタグンヨコハママチ","town":"屋敷形","town_kana":"ヤシキガタ","prefecture_code":2},"4136":{"zip_code":"0394136","prefecture":"青森県","prefecture_kana":"アオモリケン","city":"上北郡横浜町","city_kana":"カミキタグンヨコハママチ","town":"横浜","town_kana":"ヨコハマ","prefecture_code":2},"2600":{"zip_code":"0392600","prefecture":"青森県","prefecture_kana":"アオモリケン","city":"上北郡東北町","city_kana":"カミキタグントウホクマチ","town":"","town_kana":"","prefecture_code":2},"2657":{"zip_code":"0392657","prefecture":"青森県","prefecture_kana":"アオモリケン","city":"上北郡東北町","city_kana":"カミキタグントウホクマチ","town":"赤川道","town_kana":"アカガワミチ","prefecture_code":2},"2604":{"zip_code":"0392604","prefecture":"青森県","prefecture_kana":"アオモリケン","city":"上北郡東北町","city_kana":"カミキタグントウホクマチ","town":"横沢頭","town_kana":"ヨコサワガシラ","prefecture_code":2},"2406":{"zip_code":"0392406","prefecture":"青森県","prefecture_kana":"アオモリケン","city":"上北郡東北町","city_kana":"カミキタグントウホクマチ","town":"旭北","town_kana":"アサヒキタ","prefecture_code":2},"2407":{"zip_code":"0392407","prefecture":"青森県","prefecture_kana":"アオモリケン","city":"上北郡東北町","city_kana":"カミキタグントウホクマチ","town":"旭南","town_kana":"アサヒミナミ","prefecture_code":2},"2685":{"zip_code":"0392685","prefecture":"青森県","prefecture_kana":"アオモリケン","city":"上北郡東北町","city_kana":"カミキタグントウホクマチ","town":"上板橋家ノ後","town_kana":"カミイタバシイエノウシロ","prefecture_code":2},"2681":{"zip_code":"0392681","prefecture":"青森県","prefecture_kana":"アオモリケン","city":"上北郡東北町","city_kana":"カミキタグントウホクマチ","town":"山添","town_kana":"ヤマゾイ","prefecture_code":2},"2602":{"zip_code":"0392602","prefecture":"青森県","prefecture_kana":"アオモリケン","city":"上北郡東北町","city_kana":"カミキタグントウホクマチ","town":"細津橋ノ上","town_kana":"ホソツハシノカミ","prefecture_code":2},"2682":{"zip_code":"0392682","prefecture":"青森県","prefecture_kana":"アオモリケン","city":"上北郡東北町","city_kana":"カミキタグントウホクマチ","town":"湯沢","town_kana":"ユザワ","prefecture_code":2},"2683":{"zip_code":"0392683","prefecture":"青森県","prefecture_kana":"アオモリケン","city":"上北郡東北町","city_kana":"カミキタグントウホクマチ","town":"大平","town_kana":"オオダイラ","prefecture_code":2},"2626":{"zip_code":"0392626","prefecture":"青森県","prefecture_kana":"アオモリケン","city":"上北郡東北町","city_kana":"カミキタグントウホクマチ","town":"堤尻","town_kana":"ツツミジリ","prefecture_code":2},"2655":{"zip_code":"0392655","prefecture":"青森県","prefecture_kana":"アオモリケン","city":"上北郡東北町","city_kana":"カミキタグントウホクマチ","town":"内蛯沢道ノ上","town_kana":"ウチエビサワミチノカミ","prefecture_code":2},"2656":{"zip_code":"0392656","prefecture":"青森県","prefecture_kana":"アオモリケン","city":"上北郡東北町","city_kana":"カミキタグントウホクマチ","town":"内蛯沢向","town_kana":"ウチエビサワムカイ","prefecture_code":2},"2686":{"zip_code":"0392686","prefecture":"青森県","prefecture_kana":"アオモリケン","city":"上北郡東北町","city_kana":"カミキタグントウホクマチ","town":"添ノ沢","town_kana":"ソエノサワ","prefecture_code":2},"2607":{"zip_code":"0392607","prefecture":"青森県","prefecture_kana":"アオモリケン","city":"上北郡東北町","city_kana":"カミキタグントウホクマチ","town":"姥沢","town_kana":"ウバサワ","prefecture_code":2},"2673":{"zip_code":"0392673","prefecture":"青森県","prefecture_kana":"アオモリケン","city":"上北郡東北町","city_kana":"カミキタグントウホクマチ","town":"山ノ下","town_kana":"ヤマノシタ","prefecture_code":2},"2401":{"zip_code":"0392401","prefecture":"青森県","prefecture_kana":"アオモリケン","city":"上北郡東北町","city_kana":"カミキタグントウホクマチ","town":"上野","town_kana":"ウワノ","prefecture_code":2},"2612":{"zip_code":"0392612","prefecture":"青森県","prefecture_kana":"アオモリケン","city":"上北郡東北町","city_kana":"カミキタグントウホクマチ","town":"浜台","town_kana":"ハマダイ","prefecture_code":2},"2402":{"zip_code":"0392402","prefecture":"青森県","prefecture_kana":"アオモリケン","city":"上北郡東北町","city_kana":"カミキタグントウホクマチ","town":"大浦","town_kana":"オオウラ","prefecture_code":2},"2623":{"zip_code":"0392623","prefecture":"青森県","prefecture_kana":"アオモリケン","city":"上北郡東北町","city_kana":"カミキタグントウホクマチ","town":"横志多","town_kana":"ヨコシダ","prefecture_code":2},"2651":{"zip_code":"0392651","prefecture":"青森県","prefecture_kana":"アオモリケン","city":"上北郡東北町","city_kana":"カミキタグントウホクマチ","town":"大沢","town_kana":"オオサワ","prefecture_code":2},"2688":{"zip_code":"0392688","prefecture":"青森県","prefecture_kana":"アオモリケン","city":"上北郡東北町","city_kana":"カミキタグントウホクマチ","town":"大撫沢","town_kana":"オオナデサワ","prefecture_code":2},"2636":{"zip_code":"0392636","prefecture":"青森県","prefecture_kana":"アオモリケン","city":"上北郡東北町","city_kana":"カミキタグントウホクマチ","town":"往来ノ上","town_kana":"オオライノカミ","prefecture_code":2},"2634":{"zip_code":"0392634","prefecture":"青森県","prefecture_kana":"アオモリケン","city":"上北郡東北町","city_kana":"カミキタグントウホクマチ","town":"往来ノ下","town_kana":"オオライノシモ","prefecture_code":2},"2671":{"zip_code":"0392671","prefecture":"青森県","prefecture_kana":"アオモリケン","city":"上北郡東北町","city_kana":"カミキタグントウホクマチ","town":"小沢","town_kana":"オザワ","prefecture_code":2},"2635":{"zip_code":"0392635","prefecture":"青森県","prefecture_kana":"アオモリケン","city":"上北郡東北町","city_kana":"カミキタグントウホクマチ","town":"鳥口平","town_kana":"トリグチタイ","prefecture_code":2},"2664":{"zip_code":"0392664","prefecture":"青森県","prefecture_kana":"アオモリケン","city":"上北郡東北町","city_kana":"カミキタグントウホクマチ","town":"乙供","town_kana":"オットモ","prefecture_code":2},"2666":{"zip_code":"0392666","prefecture":"青森県","prefecture_kana":"アオモリケン","city":"上北郡東北町","city_kana":"カミキタグントウホクマチ","town":"乙供山","town_kana":"オットモヤマ","prefecture_code":2},"2643":{"zip_code":"0392643","prefecture":"青森県","prefecture_kana":"アオモリケン","city":"上北郡東北町","city_kana":"カミキタグントウホクマチ","town":"乙部道ノ下","town_kana":"オトベミチノシモ","prefecture_code":2},"2601":{"zip_code":"0392601","prefecture":"青森県","prefecture_kana":"アオモリケン","city":"上北郡東北町","city_kana":"カミキタグントウホクマチ","town":"ガス平","town_kana":"ガスタイ","prefecture_code":2},"2606":{"zip_code":"0392606","prefecture":"青森県","prefecture_kana":"アオモリケン","city":"上北郡東北町","city_kana":"カミキタグントウホクマチ","town":"谷地頭","town_kana":"ヤジガシラ","prefecture_code":2},"2404":{"zip_code":"0392404","prefecture":"青森県","prefecture_kana":"アオモリケン","city":"上北郡東北町","city_kana":"カミキタグントウホクマチ","town":"上北北","town_kana":"カミキタキタ","prefecture_code":2},"2405":{"zip_code":"0392405","prefecture":"青森県","prefecture_kana":"アオモリケン","city":"上北郡東北町","city_kana":"カミキタグントウホクマチ","town":"上北南","town_kana":"カミキタミナミ","prefecture_code":2},"2661":{"zip_code":"0392661","prefecture":"青森県","prefecture_kana":"アオモリケン","city":"上北郡東北町","city_kana":"カミキタグントウホクマチ","town":"上笹橋","town_kana":"カミササバシ","prefecture_code":2},"2687":{"zip_code":"0392687","prefecture":"青森県","prefecture_kana":"アオモリケン","city":"上北郡東北町","city_kana":"カミキタグントウホクマチ","town":"林ノ下","town_kana":"ハヤシノシタ","prefecture_code":2},"2668":{"zip_code":"0392668","prefecture":"青森県","prefecture_kana":"アオモリケン","city":"上北郡東北町","city_kana":"カミキタグントウホクマチ","town":"篠内平","town_kana":"シノナイタイ","prefecture_code":2},"2678":{"zip_code":"0392678","prefecture":"青森県","prefecture_kana":"アオモリケン","city":"上北郡東北町","city_kana":"カミキタグントウホクマチ","town":"長者久保","town_kana":"チョウジャクボ","prefecture_code":2},"2616":{"zip_code":"0392616","prefecture":"青森県","prefecture_kana":"アオモリケン","city":"上北郡東北町","city_kana":"カミキタグントウホクマチ","town":"切左坂道ノ上","town_kana":"キリサザカミチノカミ","prefecture_code":2},"2614":{"zip_code":"0392614","prefecture":"青森県","prefecture_kana":"アオモリケン","city":"上北郡東北町","city_kana":"カミキタグントウホクマチ","town":"切左坂道ノ下","town_kana":"キリサザカミチノシモ","prefecture_code":2},"2672":{"zip_code":"0392672","prefecture":"青森県","prefecture_kana":"アオモリケン","city":"上北郡東北町","city_kana":"カミキタグントウホクマチ","town":"向籏屋","town_kana":"ムカイハタヤ","prefecture_code":2},"2641":{"zip_code":"0392641","prefecture":"青森県","prefecture_kana":"アオモリケン","city":"上北郡東北町","city_kana":"カミキタグントウホクマチ","town":"枋木","town_kana":"コボノキ","prefecture_code":2},"2605":{"zip_code":"0392605","prefecture":"青森県","prefecture_kana":"アオモリケン","city":"上北郡東北町","city_kana":"カミキタグントウホクマチ","town":"高森","town_kana":"タカモリ","prefecture_code":2},"2627":{"zip_code":"0392627","prefecture":"青森県","prefecture_kana":"アオモリケン","city":"上北郡東北町","city_kana":"カミキタグントウホクマチ","town":"漆玉","town_kana":"シッタマ","prefecture_code":2},"2676":{"zip_code":"0392676","prefecture":"青森県","prefecture_kana":"アオモリケン","city":"上北郡東北町","city_kana":"カミキタグントウホクマチ","town":"下板橋","town_kana":"シモイタバシ","prefecture_code":2},"2662":{"zip_code":"0392662","prefecture":"青森県","prefecture_kana":"アオモリケン","city":"上北郡東北町","city_kana":"カミキタグントウホクマチ","town":"下笹橋","town_kana":"シモササバシ","prefecture_code":2},"2653":{"zip_code":"0392653","prefecture":"青森県","prefecture_kana":"アオモリケン","city":"上北郡東北町","city_kana":"カミキタグントウホクマチ","town":"下山","town_kana":"シモヤマ","prefecture_code":2},"2633":{"zip_code":"0392633","prefecture":"青森県","prefecture_kana":"アオモリケン","city":"上北郡東北町","city_kana":"カミキタグントウホクマチ","town":"和山平","town_kana":"ワヤマタイラ","prefecture_code":2},"2667":{"zip_code":"0392667","prefecture":"青森県","prefecture_kana":"アオモリケン","city":"上北郡東北町","city_kana":"カミキタグントウホクマチ","town":"膳前","town_kana":"ゼンマエ","prefecture_code":2},"2647":{"zip_code":"0392647","prefecture":"青森県","prefecture_kana":"アオモリケン","city":"上北郡東北町","city_kana":"カミキタグントウホクマチ","town":"外蛯沢後久保","town_kana":"ソトエビサワウシロクボ","prefecture_code":2},"2648":{"zip_code":"0392648","prefecture":"青森県","prefecture_kana":"アオモリケン","city":"上北郡東北町","city_kana":"カミキタグントウホクマチ","town":"外蛯沢北久保","town_kana":"ソトエビサワキタクボ","prefecture_code":2},"2646":{"zip_code":"0392646","prefecture":"青森県","prefecture_kana":"アオモリケン","city":"上北郡東北町","city_kana":"カミキタグントウホクマチ","town":"外蛯沢西平","town_kana":"ソトエビサワニシタイ","prefecture_code":2},"2645":{"zip_code":"0392645","prefecture":"青森県","prefecture_kana":"アオモリケン","city":"上北郡東北町","city_kana":"カミキタグントウホクマチ","town":"外蛯沢前平","town_kana":"ソトエビサワマエタイ","prefecture_code":2},"2631":{"zip_code":"0392631","prefecture":"青森県","prefecture_kana":"アオモリケン","city":"上北郡東北町","city_kana":"カミキタグントウホクマチ","town":"滝沢平","town_kana":"タキサワタイラ","prefecture_code":2},"2624":{"zip_code":"0392624","prefecture":"青森県","prefecture_kana":"アオモリケン","city":"上北郡東北町","city_kana":"カミキタグントウホクマチ","town":"道ノ北","town_kana":"ミチノキタ","prefecture_code":2},"2663":{"zip_code":"0392663","prefecture":"青森県","prefecture_kana":"アオモリケン","city":"上北郡東北町","city_kana":"カミキタグントウホクマチ","town":"舘花","town_kana":"ダテハナ","prefecture_code":2},"2621":{"zip_code":"0392621","prefecture":"青森県","prefecture_kana":"アオモリケン","city":"上北郡東北町","city_kana":"カミキタグントウホクマチ","town":"田ノ沢","town_kana":"タノサワ","prefecture_code":2},"2675":{"zip_code":"0392675","prefecture":"青森県","prefecture_kana":"アオモリケン","city":"上北郡東北町","city_kana":"カミキタグントウホクマチ","town":"千曳","town_kana":"チビキ","prefecture_code":2},"2674":{"zip_code":"0392674","prefecture":"青森県","prefecture_kana":"アオモリケン","city":"上北郡東北町","city_kana":"カミキタグントウホクマチ","town":"夫雑原","town_kana":"ブゾウハラ","prefecture_code":2},"2654":{"zip_code":"0392654","prefecture":"青森県","prefecture_kana":"アオモリケン","city":"上北郡東北町","city_kana":"カミキタグントウホクマチ","town":"塔ノ沢山","town_kana":"トウノサワヤマ","prefecture_code":2},"2611":{"zip_code":"0392611","prefecture":"青森県","prefecture_kana":"アオモリケン","city":"上北郡東北町","city_kana":"カミキタグントウホクマチ","town":"中村道ノ下","town_kana":"ナカムラミチノシモ","prefecture_code":2},"2625":{"zip_code":"0392625","prefecture":"青森県","prefecture_kana":"アオモリケン","city":"上北郡東北町","city_kana":"カミキタグントウホクマチ","town":"長久保","town_kana":"ナガクボ","prefecture_code":2},"2403":{"zip_code":"0392403","prefecture":"青森県","prefecture_kana":"アオモリケン","city":"上北郡東北町","city_kana":"カミキタグントウホクマチ","town":"新舘","town_kana":"ニイダテ","prefecture_code":2},"2613":{"zip_code":"0392613","prefecture":"青森県","prefecture_kana":"アオモリケン","city":"上北郡東北町","city_kana":"カミキタグントウホクマチ","town":"野田尻","town_kana":"ノダジリ","prefecture_code":2},"2622":{"zip_code":"0392622","prefecture":"青森県","prefecture_kana":"アオモリケン","city":"上北郡東北町","city_kana":"カミキタグントウホクマチ","town":"船ケ沢","town_kana":"フネガサワ","prefecture_code":2},"2632":{"zip_code":"0392632","prefecture":"青森県","prefecture_kana":"アオモリケン","city":"上北郡東北町","city_kana":"カミキタグントウホクマチ","town":"日影林ノ上山","town_kana":"ヒカゲハヤシノカミヤマ","prefecture_code":2},"2642":{"zip_code":"0392642","prefecture":"青森県","prefecture_kana":"アオモリケン","city":"上北郡東北町","city_kana":"カミキタグントウホクマチ","town":"寒水山","town_kana":"ヒヤミズヤマ","prefecture_code":2},"2677":{"zip_code":"0392677","prefecture":"青森県","prefecture_kana":"アオモリケン","city":"上北郡東北町","city_kana":"カミキタグントウホクマチ","town":"夫雑原下山","town_kana":"ブゾウハラシモヤマ","prefecture_code":2},"2615":{"zip_code":"0392615","prefecture":"青森県","prefecture_kana":"アオモリケン","city":"上北郡東北町","city_kana":"カミキタグントウホクマチ","town":"萌出道ノ下","town_kana":"モダシミチノシモ","prefecture_code":2},"2652":{"zip_code":"0392652","prefecture":"青森県","prefecture_kana":"アオモリケン","city":"上北郡東北町","city_kana":"カミキタグントウホクマチ","town":"ほとけ沢","town_kana":"ホトケサワ","prefecture_code":2},"2644":{"zip_code":"0392644","prefecture":"青森県","prefecture_kana":"アオモリケン","city":"上北郡東北町","city_kana":"カミキタグントウホクマチ","town":"保戸沢家ノ後","town_kana":"ホドサワイエノウシロ","prefecture_code":2},"2617":{"zip_code":"0392617","prefecture":"青森県","prefecture_kana":"アオモリケン","city":"上北郡東北町","city_kana":"カミキタグントウホクマチ","town":"水喰向","town_kana":"ミズハミムカイ","prefecture_code":2},"2684":{"zip_code":"0392684","prefecture":"青森県","prefecture_kana":"アオモリケン","city":"上北郡東北町","city_kana":"カミキタグントウホクマチ","town":"向平","town_kana":"ムカイタイ","prefecture_code":2},"2665":{"zip_code":"0392665","prefecture":"青森県","prefecture_kana":"アオモリケン","city":"上北郡東北町","city_kana":"カミキタグントウホクマチ","town":"柳沢","town_kana":"ヤナギザワ","prefecture_code":2},"2603":{"zip_code":"0392603","prefecture":"青森県","prefecture_kana":"アオモリケン","city":"上北郡東北町","city_kana":"カミキタグントウホクマチ","town":"横沢山","town_kana":"ヨコサワヤマ","prefecture_code":2},"3200":{"zip_code":"0393200","prefecture":"青森県","prefecture_kana":"アオモリケン","city":"上北郡六ヶ所村","city_kana":"カミキタグンロッカショムラ","town":"","town_kana":"","prefecture_code":2},"3212":{"zip_code":"0393212","prefecture":"青森県","prefecture_kana":"アオモリケン","city":"上北郡六ヶ所村","city_kana":"カミキタグンロッカショムラ","town":"尾駮","town_kana":"オブチ","prefecture_code":2},"3215":{"zip_code":"0393215","prefecture":"青森県","prefecture_kana":"アオモリケン","city":"上北郡六ヶ所村","city_kana":"カミキタグンロッカショムラ","town":"倉内","town_kana":"クラウチ","prefecture_code":2},"3213":{"zip_code":"0393213","prefecture":"青森県","prefecture_kana":"アオモリケン","city":"上北郡六ヶ所村","city_kana":"カミキタグンロッカショムラ","town":"鷹架","town_kana":"タカホコ","prefecture_code":2},"3211":{"zip_code":"0393211","prefecture":"青森県","prefecture_kana":"アオモリケン","city":"上北郡六ヶ所村","city_kana":"カミキタグンロッカショムラ","town":"出戸","town_kana":"デト","prefecture_code":2},"4301":{"zip_code":"0394301","prefecture":"青森県","prefecture_kana":"アオモリケン","city":"上北郡六ヶ所村","city_kana":"カミキタグンロッカショムラ","town":"泊","town_kana":"トマリ","prefecture_code":2},"3214":{"zip_code":"0393214","prefecture":"青森県","prefecture_kana":"アオモリケン","city":"上北郡六ヶ所村","city_kana":"カミキタグンロッカショムラ","town":"平沼","town_kana":"ヒラヌマ","prefecture_code":2},"2200":{"zip_code":"0392200","prefecture":"青森県","prefecture_kana":"アオモリケン","city":"上北郡おいらせ町","city_kana":"カミキタグンオイラセチョウ","town":"","town_kana":"","prefecture_code":2},"2189":{"zip_code":"0392189","prefecture":"青森県","prefecture_kana":"アオモリケン","city":"上北郡おいらせ町","city_kana":"カミキタグンオイラセチョウ","town":"青葉","town_kana":"アオバ","prefecture_code":2},"2147":{"zip_code":"0392147","prefecture":"青森県","prefecture_kana":"アオモリケン","city":"上北郡おいらせ町","city_kana":"カミキタグンオイラセチョウ","town":"赤田前","town_kana":"アカダマエ","prefecture_code":2},"2116":{"zip_code":"0392116","prefecture":"青森県","prefecture_kana":"アオモリケン","city":"上北郡おいらせ町","city_kana":"カミキタグンオイラセチョウ","town":"秋堂","town_kana":"アキドウ","prefecture_code":2},"2141":{"zip_code":"0392141","prefecture":"青森県","prefecture_kana":"アオモリケン","city":"上北郡おいらせ町","city_kana":"カミキタグンオイラセチョウ","town":"明土","town_kana":"アケド","prefecture_code":2},"2165":{"zip_code":"0392165","prefecture":"青森県","prefecture_kana":"アオモリケン","city":"上北郡おいらせ町","city_kana":"カミキタグンオイラセチョウ","town":"阿光坊","town_kana":"アコウボウ","prefecture_code":2},"2172":{"zip_code":"0392172","prefecture":"青森県","prefecture_kana":"アオモリケン","city":"上北郡おいらせ町","city_kana":"カミキタグンオイラセチョウ","town":"洗平","town_kana":"アライダイ","prefecture_code":2},"2113":{"zip_code":"0392113","prefecture":"青森県","prefecture_kana":"アオモリケン","city":"上北郡おいらせ町","city_kana":"カミキタグンオイラセチョウ","town":"犬毛谷地","town_kana":"イヌケヤチ","prefecture_code":2},"2217":{"zip_code":"0392217","prefecture":"青森県","prefecture_kana":"アオモリケン","city":"上北郡おいらせ町","city_kana":"カミキタグンオイラセチョウ","town":"牛込平","town_kana":"ウシゴメタイ","prefecture_code":2},"2216":{"zip_code":"0392216","prefecture":"青森県","prefecture_kana":"アオモリケン","city":"上北郡おいらせ町","city_kana":"カミキタグンオイラセチョウ","town":"後田","town_kana":"ウシロダ","prefecture_code":2},"2182":{"zip_code":"0392182","prefecture":"青森県","prefecture_kana":"アオモリケン","city":"上北郡おいらせ町","city_kana":"カミキタグンオイラセチョウ","town":"鶉久保","town_kana":"ウズラクボ","prefecture_code":2},"2183":{"zip_code":"0392183","prefecture":"青森県","prefecture_kana":"アオモリケン","city":"上北郡おいらせ町","city_kana":"カミキタグンオイラセチョウ","town":"鶉久保山","town_kana":"ウズラクボヤマ","prefecture_code":2},"2253":{"zip_code":"0392253","prefecture":"青森県","prefecture_kana":"アオモリケン","city":"上北郡おいらせ町","city_kana":"カミキタグンオイラセチョウ","town":"獺野","town_kana":"ウソノ","prefecture_code":2},"2225":{"zip_code":"0392225","prefecture":"青森県","prefecture_kana":"アオモリケン","city":"上北郡おいらせ町","city_kana":"カミキタグンオイラセチョウ","town":"上明堂","town_kana":"カミアケドウ","prefecture_code":2},"2133":{"zip_code":"0392133","prefecture":"青森県","prefecture_kana":"アオモリケン","city":"上北郡おいらせ町","city_kana":"カミキタグンオイラセチョウ","town":"上川原","town_kana":"カミカワラ","prefecture_code":2},"2185":{"zip_code":"0392185","prefecture":"青森県","prefecture_kana":"アオモリケン","city":"上北郡おいらせ町","city_kana":"カミキタグンオイラセチョウ","town":"上久保","town_kana":"カミクボ","prefecture_code":2},"2221":{"zip_code":"0392221","prefecture":"青森県","prefecture_kana":"アオモリケン","city":"上北郡おいらせ町","city_kana":"カミキタグンオイラセチョウ","town":"上前田","town_kana":"カミマエダ","prefecture_code":2},"2145":{"zip_code":"0392145","prefecture":"青森県","prefecture_kana":"アオモリケン","city":"上北郡おいらせ町","city_kana":"カミキタグンオイラセチョウ","town":"上谷地","town_kana":"カミヤチ","prefecture_code":2},"2117":{"zip_code":"0392117","prefecture":"青森県","prefecture_kana":"アオモリケン","city":"上北郡おいらせ町","city_kana":"カミキタグンオイラセチョウ","town":"川端","town_kana":"カワバタ","prefecture_code":2},"2127":{"zip_code":"0392127","prefecture":"青森県","prefecture_kana":"アオモリケン","city":"上北郡おいらせ町","city_kana":"カミキタグンオイラセチョウ","town":"木崎","town_kana":"キザキ","prefecture_code":2},"2186":{"zip_code":"0392186","prefecture":"青森県","prefecture_kana":"アオモリケン","city":"上北郡おいらせ町","city_kana":"カミキタグンオイラセチョウ","town":"北下田","town_kana":"キタシモダ","prefecture_code":2},"2155":{"zip_code":"0392155","prefecture":"青森県","prefecture_kana":"アオモリケン","city":"上北郡おいらせ町","city_kana":"カミキタグンオイラセチョウ","town":"木ノ下西","town_kana":"キノシタニシ","prefecture_code":2},"2157":{"zip_code":"0392157","prefecture":"青森県","prefecture_kana":"アオモリケン","city":"上北郡おいらせ町","city_kana":"カミキタグンオイラセチョウ","town":"木ノ下東","town_kana":"キノシタヒガシ","prefecture_code":2},"2156":{"zip_code":"0392156","prefecture":"青森県","prefecture_kana":"アオモリケン","city":"上北郡おいらせ町","city_kana":"カミキタグンオイラセチョウ","town":"木ノ下南","town_kana":"キノシタミナミ","prefecture_code":2},"2252":{"zip_code":"0392252","prefecture":"青森県","prefecture_kana":"アオモリケン","city":"上北郡おいらせ町","city_kana":"カミキタグンオイラセチョウ","town":"黒坂谷地","town_kana":"クロサカヤチ","prefecture_code":2},"2142":{"zip_code":"0392142","prefecture":"青森県","prefecture_kana":"アオモリケン","city":"上北郡おいらせ町","city_kana":"カミキタグンオイラセチョウ","town":"小前谷地","town_kana":"コマエヤチ","prefecture_code":2},"2124":{"zip_code":"0392124","prefecture":"青森県","prefecture_kana":"アオモリケン","city":"上北郡おいらせ町","city_kana":"カミキタグンオイラセチョウ","town":"境田","town_kana":"サカイダ","prefecture_code":2},"2125":{"zip_code":"0392125","prefecture":"青森県","prefecture_kana":"アオモリケン","city":"上北郡おいらせ町","city_kana":"カミキタグンオイラセチョウ","town":"三本木","town_kana":"サンボンギ","prefecture_code":2},"2224":{"zip_code":"0392224","prefecture":"青森県","prefecture_kana":"アオモリケン","city":"上北郡おいらせ町","city_kana":"カミキタグンオイラセチョウ","town":"下明堂","town_kana":"シモアケドウ","prefecture_code":2},"2121":{"zip_code":"0392121","prefecture":"青森県","prefecture_kana":"アオモリケン","city":"上北郡おいらせ町","city_kana":"カミキタグンオイラセチョウ","town":"下境","town_kana":"シモサカイ","prefecture_code":2},"2222":{"zip_code":"0392222","prefecture":"青森県","prefecture_kana":"アオモリケン","city":"上北郡おいらせ町","city_kana":"カミキタグンオイラセチョウ","town":"下前田","town_kana":"シモマエダ","prefecture_code":2},"2215":{"zip_code":"0392215","prefecture":"青森県","prefecture_kana":"アオモリケン","city":"上北郡おいらせ町","city_kana":"カミキタグンオイラセチョウ","town":"下屋敷","town_kana":"シモヤシキ","prefecture_code":2},"2143":{"zip_code":"0392143","prefecture":"青森県","prefecture_kana":"アオモリケン","city":"上北郡おいらせ町","city_kana":"カミキタグンオイラセチョウ","town":"上水下","town_kana":"ジョウスイシタ","prefecture_code":2},"2226":{"zip_code":"0392226","prefecture":"青森県","prefecture_kana":"アオモリケン","city":"上北郡おいらせ町","city_kana":"カミキタグンオイラセチョウ","town":"新助川原","town_kana":"シンスケカワラ","prefecture_code":2},"2211":{"zip_code":"0392211","prefecture":"青森県","prefecture_kana":"アオモリケン","city":"上北郡おいらせ町","city_kana":"カミキタグンオイラセチョウ","town":"新田","town_kana":"シンデン","prefecture_code":2},"2164":{"zip_code":"0392164","prefecture":"青森県","prefecture_kana":"アオモリケン","city":"上北郡おいらせ町","city_kana":"カミキタグンオイラセチョウ","town":"神明前","town_kana":"シンメイマエ","prefecture_code":2},"2180":{"zip_code":"0392180","prefecture":"青森県","prefecture_kana":"アオモリケン","city":"上北郡おいらせ町","city_kana":"カミキタグンオイラセチョウ","town":"住吉","town_kana":"スミヨシ","prefecture_code":2},"2235":{"zip_code":"0392235","prefecture":"青森県","prefecture_kana":"アオモリケン","city":"上北郡おいらせ町","city_kana":"カミキタグンオイラセチョウ","town":"千刈田","town_kana":"センガリダ","prefecture_code":2},"2128":{"zip_code":"0392128","prefecture":"青森県","prefecture_kana":"アオモリケン","city":"上北郡おいらせ町","city_kana":"カミキタグンオイラセチョウ","town":"染屋","town_kana":"ソメヤ","prefecture_code":2},"2114":{"zip_code":"0392114","prefecture":"青森県","prefecture_kana":"アオモリケン","city":"上北郡おいらせ町","city_kana":"カミキタグンオイラセチョウ","town":"高田","town_kana":"タカダ","prefecture_code":2},"2144":{"zip_code":"0392144","prefecture":"青森県","prefecture_kana":"アオモリケン","city":"上北郡おいらせ町","city_kana":"カミキタグンオイラセチョウ","town":"丈の端","town_kana":"タケノハシ","prefecture_code":2},"2135":{"zip_code":"0392135","prefecture":"青森県","prefecture_kana":"アオモリケン","city":"上北郡おいらせ町","city_kana":"カミキタグンオイラセチョウ","town":"立蛇","town_kana":"タチジャ","prefecture_code":2},"2163":{"zip_code":"0392163","prefecture":"青森県","prefecture_kana":"アオモリケン","city":"上北郡おいらせ町","city_kana":"カミキタグンオイラセチョウ","town":"館越","town_kana":"タテゴシ","prefecture_code":2},"2255":{"zip_code":"0392255","prefecture":"青森県","prefecture_kana":"アオモリケン","city":"上北郡おいらせ町","city_kana":"カミキタグンオイラセチョウ","town":"土取","town_kana":"ツチトリ","prefecture_code":2},"2234":{"zip_code":"0392234","prefecture":"青森県","prefecture_kana":"アオモリケン","city":"上北郡おいらせ町","city_kana":"カミキタグンオイラセチョウ","town":"堤田","town_kana":"ツツミダ","prefecture_code":2},"2102":{"zip_code":"0392102","prefecture":"青森県","prefecture_kana":"アオモリケン","city":"上北郡おいらせ町","city_kana":"カミキタグンオイラセチョウ","town":"豊栄","town_kana":"トヨサカエ","prefecture_code":2},"2154":{"zip_code":"0392154","prefecture":"青森県","prefecture_kana":"アオモリケン","city":"上北郡おいらせ町","city_kana":"カミキタグンオイラセチョウ","town":"豊原","town_kana":"トヨハラ","prefecture_code":2},"2223":{"zip_code":"0392223","prefecture":"青森県","prefecture_kana":"アオモリケン","city":"上北郡おいらせ町","city_kana":"カミキタグンオイラセチョウ","town":"苗平谷地","town_kana":"ナエヒラヤチ","prefecture_code":2},"2254":{"zip_code":"0392254","prefecture":"青森県","prefecture_kana":"アオモリケン","city":"上北郡おいらせ町","city_kana":"カミキタグンオイラセチョウ","town":"苗振谷地","town_kana":"ナエフリヤチ","prefecture_code":2},"2136":{"zip_code":"0392136","prefecture":"青森県","prefecture_kana":"アオモリケン","city":"上北郡おいらせ町","city_kana":"カミキタグンオイラセチョウ","town":"中下田","town_kana":"ナカシモダ","prefecture_code":2},"2129":{"zip_code":"0392129","prefecture":"青森県","prefecture_kana":"アオモリケン","city":"上北郡おいらせ町","city_kana":"カミキタグンオイラセチョウ","town":"中平下長根山","town_kana":"ナカタイシモナガネヤマ","prefecture_code":2},"2112":{"zip_code":"0392112","prefecture":"青森県","prefecture_kana":"アオモリケン","city":"上北郡おいらせ町","city_kana":"カミキタグンオイラセチョウ","town":"中野平","town_kana":"ナカノタイ","prefecture_code":2},"2146":{"zip_code":"0392146","prefecture":"青森県","prefecture_kana":"アオモリケン","city":"上北郡おいらせ町","city_kana":"カミキタグンオイラセチョウ","town":"中谷地","town_kana":"ナカヤチ","prefecture_code":2},"2115":{"zip_code":"0392115","prefecture":"青森県","prefecture_kana":"アオモリケン","city":"上北郡おいらせ町","city_kana":"カミキタグンオイラセチョウ","town":"菜飯","town_kana":"ナメシ","prefecture_code":2},"2111":{"zip_code":"0392111","prefecture":"青森県","prefecture_kana":"アオモリケン","city":"上北郡おいらせ町","city_kana":"カミキタグンオイラセチョウ","town":"西後谷地","town_kana":"ニシウシロヤチ","prefecture_code":2},"2171":{"zip_code":"0392171","prefecture":"青森県","prefecture_kana":"アオモリケン","city":"上北郡おいらせ町","city_kana":"カミキタグンオイラセチョウ","town":"新敷","town_kana":"ニシキ","prefecture_code":2},"2161":{"zip_code":"0392161","prefecture":"青森県","prefecture_kana":"アオモリケン","city":"上北郡おいらせ町","city_kana":"カミキタグンオイラセチョウ","town":"西下川原","town_kana":"ニシシモカワラ","prefecture_code":2},"2123":{"zip_code":"0392123","prefecture":"青森県","prefecture_kana":"アオモリケン","city":"上北郡おいらせ町","city_kana":"カミキタグンオイラセチョウ","town":"西下谷地","town_kana":"ニシシモヤチ","prefecture_code":2},"2132":{"zip_code":"0392132","prefecture":"青森県","prefecture_kana":"アオモリケン","city":"上北郡おいらせ町","city_kana":"カミキタグンオイラセチョウ","town":"西前川原","town_kana":"ニシマエカワラ","prefecture_code":2},"2122":{"zip_code":"0392122","prefecture":"青森県","prefecture_kana":"アオモリケン","city":"上北郡おいらせ町","city_kana":"カミキタグンオイラセチョウ","town":"沼小屋","town_kana":"ヌマコヤ","prefecture_code":2},"2233":{"zip_code":"0392233","prefecture":"青森県","prefecture_kana":"アオモリケン","city":"上北郡おいらせ町","city_kana":"カミキタグンオイラセチョウ","town":"沼端","town_kana":"ヌマハタ","prefecture_code":2},"2134":{"zip_code":"0392134","prefecture":"青森県","prefecture_kana":"アオモリケン","city":"上北郡おいらせ町","city_kana":"カミキタグンオイラセチョウ","town":"馳下り","town_kana":"ハセクダリ","prefecture_code":2},"2184":{"zip_code":"0392184","prefecture":"青森県","prefecture_kana":"アオモリケン","city":"上北郡おいらせ町","city_kana":"カミキタグンオイラセチョウ","town":"浜道","town_kana":"ハマミチ","prefecture_code":2},"2232":{"zip_code":"0392232","prefecture":"青森県","prefecture_kana":"アオモリケン","city":"上北郡おいらせ町","city_kana":"カミキタグンオイラセチョウ","town":"東後谷地","town_kana":"ヒガシウシロヤチ","prefecture_code":2},"2212":{"zip_code":"0392212","prefecture":"青森県","prefecture_kana":"アオモリケン","city":"上北郡おいらせ町","city_kana":"カミキタグンオイラセチョウ","town":"東下川原","town_kana":"ヒガシシモカワラ","prefecture_code":2},"2231":{"zip_code":"0392231","prefecture":"青森県","prefecture_kana":"アオモリケン","city":"上北郡おいらせ町","city_kana":"カミキタグンオイラセチョウ","town":"東下谷地","town_kana":"ヒガシシモヤチ","prefecture_code":2},"2214":{"zip_code":"0392214","prefecture":"青森県","prefecture_kana":"アオモリケン","city":"上北郡おいらせ町","city_kana":"カミキタグンオイラセチョウ","town":"東前川原","town_kana":"ヒガシマエカワラ","prefecture_code":2},"2118":{"zip_code":"0392118","prefecture":"青森県","prefecture_kana":"アオモリケン","city":"上北郡おいらせ町","city_kana":"カミキタグンオイラセチョウ","town":"彦七川原","town_kana":"ヒコシチガワラ","prefecture_code":2},"2203":{"zip_code":"0392203","prefecture":"青森県","prefecture_kana":"アオモリケン","city":"上北郡おいらせ町","city_kana":"カミキタグンオイラセチョウ","town":"一川目","town_kana":"ヒトカワメ","prefecture_code":2},"2204":{"zip_code":"0392204","prefecture":"青森県","prefecture_kana":"アオモリケン","city":"上北郡おいらせ町","city_kana":"カミキタグンオイラセチョウ","town":"深沢","town_kana":"フカサワ","prefecture_code":2},"2205":{"zip_code":"0392205","prefecture":"青森県","prefecture_kana":"アオモリケン","city":"上北郡おいらせ町","city_kana":"カミキタグンオイラセチョウ","town":"深沢平","town_kana":"フカサワタイ","prefecture_code":2},"2173":{"zip_code":"0392173","prefecture":"青森県","prefecture_kana":"アオモリケン","city":"上北郡おいらせ町","city_kana":"カミキタグンオイラセチョウ","town":"瓢","town_kana":"フクベ","prefecture_code":2},"2201":{"zip_code":"0392201","prefecture":"青森県","prefecture_kana":"アオモリケン","city":"上北郡おいらせ町","city_kana":"カミキタグンオイラセチョウ","town":"二川目","town_kana":"フタカワメ","prefecture_code":2},"2181":{"zip_code":"0392181","prefecture":"青森県","prefecture_kana":"アオモリケン","city":"上北郡おいらせ町","city_kana":"カミキタグンオイラセチョウ","town":"古間木山","town_kana":"フルマギヤマ","prefecture_code":2},"2213":{"zip_code":"0392213","prefecture":"青森県","prefecture_kana":"アオモリケン","city":"上北郡おいらせ町","city_kana":"カミキタグンオイラセチョウ","town":"堀ノ内","town_kana":"ホリノウチ","prefecture_code":2},"2126":{"zip_code":"0392126","prefecture":"青森県","prefecture_kana":"アオモリケン","city":"上北郡おいらせ町","city_kana":"カミキタグンオイラセチョウ","town":"間木","town_kana":"マギ","prefecture_code":2},"2206":{"zip_code":"0392206","prefecture":"青森県","prefecture_kana":"アオモリケン","city":"上北郡おいらせ町","city_kana":"カミキタグンオイラセチョウ","town":"松原","town_kana":"マツバラ","prefecture_code":2},"2187":{"zip_code":"0392187","prefecture":"青森県","prefecture_kana":"アオモリケン","city":"上北郡おいらせ町","city_kana":"カミキタグンオイラセチョウ","town":"緑ケ丘","town_kana":"ミドリガオカ","prefecture_code":2},"2162":{"zip_code":"0392162","prefecture":"青森県","prefecture_kana":"アオモリケン","city":"上北郡おいらせ町","city_kana":"カミキタグンオイラセチョウ","town":"南下田","town_kana":"ミナミシモダ","prefecture_code":2},"2131":{"zip_code":"0392131","prefecture":"青森県","prefecture_kana":"アオモリケン","city":"上北郡おいらせ町","city_kana":"カミキタグンオイラセチョウ","town":"向川原","town_kana":"ムカイカワラ","prefecture_code":2},"2251":{"zip_code":"0392251","prefecture":"青森県","prefecture_kana":"アオモリケン","city":"上北郡おいらせ町","city_kana":"カミキタグンオイラセチョウ","town":"向坂","town_kana":"ムカイサカ","prefecture_code":2},"2202":{"zip_code":"0392202","prefecture":"青森県","prefecture_kana":"アオモリケン","city":"上北郡おいらせ町","city_kana":"カミキタグンオイラセチョウ","town":"向平","town_kana":"ムカイタイ","prefecture_code":2},"2151":{"zip_code":"0392151","prefecture":"青森県","prefecture_kana":"アオモリケン","city":"上北郡おいらせ町","city_kana":"カミキタグンオイラセチョウ","town":"向山","town_kana":"ムカイヤマ","prefecture_code":2},"2152":{"zip_code":"0392152","prefecture":"青森県","prefecture_kana":"アオモリケン","city":"上北郡おいらせ町","city_kana":"カミキタグンオイラセチョウ","town":"向山東","town_kana":"ムカイヤマヒガシ","prefecture_code":2},"2153":{"zip_code":"0392153","prefecture":"青森県","prefecture_kana":"アオモリケン","city":"上北郡おいらせ町","city_kana":"カミキタグンオイラセチョウ","town":"山崎","town_kana":"ヤマザキ","prefecture_code":2},"2236":{"zip_code":"0392236","prefecture":"青森県","prefecture_kana":"アオモリケン","city":"上北郡おいらせ町","city_kana":"カミキタグンオイラセチョウ","town":"洋光台","town_kana":"ヨウコウダイ","prefecture_code":2},"2188":{"zip_code":"0392188","prefecture":"青森県","prefecture_kana":"アオモリケン","city":"上北郡おいらせ町","city_kana":"カミキタグンオイラセチョウ","town":"若葉","town_kana":"ワカバ","prefecture_code":2},"4600":{"zip_code":"0394600","prefecture":"青森県","prefecture_kana":"アオモリケン","city":"下北郡大間町","city_kana":"シモキタグンオオママチ","town":"","town_kana":"","prefecture_code":2},"4601":{"zip_code":"0394601","prefecture":"青森県","prefecture_kana":"アオモリケン","city":"下北郡大間町","city_kana":"シモキタグンオオママチ","town":"大間","town_kana":"オオマ","prefecture_code":2},"4602":{"zip_code":"0394602","prefecture":"青森県","prefecture_kana":"アオモリケン","city":"下北郡大間町","city_kana":"シモキタグンオオママチ","town":"奥戸","town_kana":"オコッペ","prefecture_code":2},"4223":{"zip_code":"0394223","prefecture":"青森県","prefecture_kana":"アオモリケン","city":"下北郡東通村","city_kana":"シモキタグンヒガシドオリムラ","town":"小田野沢","town_kana":"オダノサワ","prefecture_code":2},"4221":{"zip_code":"0394221","prefecture":"青森県","prefecture_kana":"アオモリケン","city":"下北郡東通村","city_kana":"シモキタグンヒガシドオリムラ","town":"猿ケ森","town_kana":"サルガモリ","prefecture_code":2},"4224":{"zip_code":"0394224","prefecture":"青森県","prefecture_kana":"アオモリケン","city":"下北郡東通村","city_kana":"シモキタグンヒガシドオリムラ","town":"白糠","town_kana":"シラヌカ","prefecture_code":2},"4222":{"zip_code":"0394222","prefecture":"青森県","prefecture_kana":"アオモリケン","city":"下北郡東通村","city_kana":"シモキタグンヒガシドオリムラ","town":"砂子又","town_kana":"スナゴマタ","prefecture_code":2},"4500":{"zip_code":"0394500","prefecture":"青森県","prefecture_kana":"アオモリケン","city":"下北郡風間浦村","city_kana":"シモキタグンカザマウラムラ","town":"","town_kana":"","prefecture_code":2},"4502":{"zip_code":"0394502","prefecture":"青森県","prefecture_kana":"アオモリケン","city":"下北郡風間浦村","city_kana":"シモキタグンカザマウラムラ","town":"易国間","town_kana":"イコクマ","prefecture_code":2},"4501":{"zip_code":"0394501","prefecture":"青森県","prefecture_kana":"アオモリケン","city":"下北郡風間浦村","city_kana":"シモキタグンカザマウラムラ","town":"下風呂","town_kana":"シモフロ","prefecture_code":2},"4503":{"zip_code":"0394503","prefecture":"青森県","prefecture_kana":"アオモリケン","city":"下北郡風間浦村","city_kana":"シモキタグンカザマウラムラ","town":"蛇浦","town_kana":"ヘビウラ","prefecture_code":2},"4700":{"zip_code":"0394700","prefecture":"青森県","prefecture_kana":"アオモリケン","city":"下北郡佐井村","city_kana":"シモキタグンサイムラ","town":"","town_kana":"","prefecture_code":2},"4711":{"zip_code":"0394711","prefecture":"青森県","prefecture_kana":"アオモリケン","city":"下北郡佐井村","city_kana":"シモキタグンサイムラ","town":"佐井","town_kana":"サイ","prefecture_code":2},"4712":{"zip_code":"0394712","prefecture":"青森県","prefecture_kana":"アオモリケン","city":"下北郡佐井村","city_kana":"シモキタグンサイムラ","town":"長後","town_kana":"チョウゴ","prefecture_code":2},"0100":{"zip_code":"0390100","prefecture":"青森県","prefecture_kana":"アオモリケン","city":"三戸郡南部町","city_kana":"サンノヘグンナンブチョウ","town":"","town_kana":"","prefecture_code":2},"0111":{"zip_code":"0390111","prefecture":"青森県","prefecture_kana":"アオモリケン","city":"三戸郡三戸町","city_kana":"サンノヘグンサンノヘマチ","town":"泉山","town_kana":"イズミヤマ","prefecture_code":2},"0112":{"zip_code":"0390112","prefecture":"青森県","prefecture_kana":"アオモリケン","city":"三戸郡三戸町","city_kana":"サンノヘグンサンノヘマチ","town":"梅内","town_kana":"ウメナイ","prefecture_code":2},"0453":{"zip_code":"0390453","prefecture":"青森県","prefecture_kana":"アオモリケン","city":"三戸郡三戸町","city_kana":"サンノヘグンサンノヘマチ","town":"貝守","town_kana":"カイモリ","prefecture_code":2},"0141":{"zip_code":"0390141","prefecture":"青森県","prefecture_kana":"アオモリケン","city":"三戸郡三戸町","city_kana":"サンノヘグンサンノヘマチ","town":"川守田","town_kana":"カワモリタ","prefecture_code":2},"0143":{"zip_code":"0390143","prefecture":"青森県","prefecture_kana":"アオモリケン","city":"三戸郡三戸町","city_kana":"サンノヘグンサンノヘマチ","town":"川守田町","town_kana":"カワモリタマチ","prefecture_code":2},"0142":{"zip_code":"0390142","prefecture":"青森県","prefecture_kana":"アオモリケン","city":"三戸郡三戸町","city_kana":"サンノヘグンサンノヘマチ","town":"久慈町","town_kana":"クジマチ","prefecture_code":2},"0132":{"zip_code":"0390132","prefecture":"青森県","prefecture_kana":"アオモリケン","city":"三戸郡三戸町","city_kana":"サンノヘグンサンノヘマチ","town":"在府小路町","town_kana":"ザイフコウジマチ","prefecture_code":2},"0451":{"zip_code":"0390451","prefecture":"青森県","prefecture_kana":"アオモリケン","city":"三戸郡三戸町","city_kana":"サンノヘグンサンノヘマチ","town":"蛇沼","town_kana":"ジャヌマ","prefecture_code":2},"0134":{"zip_code":"0390134","prefecture":"青森県","prefecture_kana":"アオモリケン","city":"三戸郡三戸町","city_kana":"サンノヘグンサンノヘマチ","town":"同心町","town_kana":"ドウシンチョウ","prefecture_code":2},"0122":{"zip_code":"0390122","prefecture":"青森県","prefecture_kana":"アオモリケン","city":"三戸郡三戸町","city_kana":"サンノヘグンサンノヘマチ","town":"斗内","town_kana":"トナイ","prefecture_code":2},"0121":{"zip_code":"0390121","prefecture":"青森県","prefecture_kana":"アオモリケン","city":"三戸郡三戸町","city_kana":"サンノヘグンサンノヘマチ","town":"豊川","town_kana":"トヨカワ","prefecture_code":2},"0452":{"zip_code":"0390452","prefecture":"青森県","prefecture_kana":"アオモリケン","city":"三戸郡三戸町","city_kana":"サンノヘグンサンノヘマチ","town":"袴田","town_kana":"ハカマダ","prefecture_code":2},"0133":{"zip_code":"0390133","prefecture":"青森県","prefecture_kana":"アオモリケン","city":"三戸郡三戸町","city_kana":"サンノヘグンサンノヘマチ","town":"馬喰町","town_kana":"バクロマチ","prefecture_code":2},"0131":{"zip_code":"0390131","prefecture":"青森県","prefecture_kana":"アオモリケン","city":"三戸郡三戸町","city_kana":"サンノヘグンサンノヘマチ","town":"二日町","town_kana":"フツカマチ","prefecture_code":2},"0144":{"zip_code":"0390144","prefecture":"青森県","prefecture_kana":"アオモリケン","city":"三戸郡三戸町","city_kana":"サンノヘグンサンノヘマチ","town":"六日町","town_kana":"ムイカマチ","prefecture_code":2},"0113":{"zip_code":"0390113","prefecture":"青森県","prefecture_kana":"アオモリケン","city":"三戸郡三戸町","city_kana":"サンノヘグンサンノヘマチ","town":"目時","town_kana":"メトキ","prefecture_code":2},"0135":{"zip_code":"0390135","prefecture":"青森県","prefecture_kana":"アオモリケン","city":"三戸郡三戸町","city_kana":"サンノヘグンサンノヘマチ","town":"八日町","town_kana":"ヨウカマチ","prefecture_code":2},"1500":{"zip_code":"0391500","prefecture":"青森県","prefecture_kana":"アオモリケン","city":"三戸郡五戸町","city_kana":"サンノヘグンゴノヘマチ","town":"","town_kana":"","prefecture_code":2},"1508":{"zip_code":"0391508","prefecture":"青森県","prefecture_kana":"アオモリケン","city":"三戸郡五戸町","city_kana":"サンノヘグンゴノヘマチ","town":"中寄","town_kana":"ナカヨリ","prefecture_code":2},"1561":{"zip_code":"0391561","prefecture":"青森県","prefecture_kana":"アオモリケン","city":"三戸郡五戸町","city_kana":"サンノヘグンゴノヘマチ","town":"越掛沢道下モ","town_kana":"コシカケザワミチノシモ","prefecture_code":2},"1528":{"zip_code":"0391528","prefecture":"青森県","prefecture_kana":"アオモリケン","city":"三戸郡五戸町","city_kana":"サンノヘグンゴノヘマチ","town":"浅水","town_kana":"アサミズ","prefecture_code":2},"1536":{"zip_code":"0391536","prefecture":"青森県","prefecture_kana":"アオモリケン","city":"三戸郡五戸町","city_kana":"サンノヘグンゴノヘマチ","town":"愛宕丁","town_kana":"アタゴチョウ","prefecture_code":2},"1556":{"zip_code":"0391556","prefecture":"青森県","prefecture_kana":"アオモリケン","city":"三戸郡五戸町","city_kana":"サンノヘグンゴノヘマチ","town":"油出","town_kana":"アブラデ","prefecture_code":2},"1534":{"zip_code":"0391534","prefecture":"青森県","prefecture_kana":"アオモリケン","city":"三戸郡五戸町","city_kana":"サンノヘグンゴノヘマチ","town":"荒町","town_kana":"アラマチ","prefecture_code":2},"1521":{"zip_code":"0391521","prefecture":"青森県","prefecture_kana":"アオモリケン","city":"三戸郡五戸町","city_kana":"サンノヘグンゴノヘマチ","town":"久蔵窪","town_kana":"キュウゾウクボ","prefecture_code":2},"1539":{"zip_code":"0391539","prefecture":"青森県","prefecture_kana":"アオモリケン","city":"三戸郡五戸町","city_kana":"サンノヘグンゴノヘマチ","town":"中ノ沢西張","town_kana":"ナカノサワニシハリ","prefecture_code":2},"1505":{"zip_code":"0391505","prefecture":"青森県","prefecture_kana":"アオモリケン","city":"三戸郡五戸町","city_kana":"サンノヘグンゴノヘマチ","town":"石仏前","town_kana":"イシボトケマエ","prefecture_code":2},"1516":{"zip_code":"0391516","prefecture":"青森県","prefecture_kana":"アオモリケン","city":"三戸郡五戸町","city_kana":"サンノヘグンゴノヘマチ","town":"市川道十文字","town_kana":"イチカワミチジュウモンジ","prefecture_code":2},"1568":{"zip_code":"0391568","prefecture":"青森県","prefecture_kana":"アオモリケン","city":"三戸郡五戸町","city_kana":"サンノヘグンゴノヘマチ","town":"傘松前","town_kana":"カラカサマツマエ","prefecture_code":2},"1504":{"zip_code":"0391504","prefecture":"青森県","prefecture_kana":"アオモリケン","city":"三戸郡五戸町","city_kana":"サンノヘグンゴノヘマチ","town":"上兎内","town_kana":"カミウサギナイ","prefecture_code":2},"1552":{"zip_code":"0391552","prefecture":"青森県","prefecture_kana":"アオモリケン","city":"三戸郡五戸町","city_kana":"サンノヘグンゴノヘマチ","town":"中高田","town_kana":"ナカタカダ","prefecture_code":2},"1537":{"zip_code":"0391537","prefecture":"青森県","prefecture_kana":"アオモリケン","city":"三戸郡五戸町","city_kana":"サンノヘグンゴノヘマチ","town":"二本柳向","town_kana":"ニホンヤナギムカイ","prefecture_code":2},"1507":{"zip_code":"0391507","prefecture":"青森県","prefecture_kana":"アオモリケン","city":"三戸郡五戸町","city_kana":"サンノヘグンゴノヘマチ","town":"中森","town_kana":"ナカモリ","prefecture_code":2},"1527":{"zip_code":"0391527","prefecture":"青森県","prefecture_kana":"アオモリケン","city":"三戸郡五戸町","city_kana":"サンノヘグンゴノヘマチ","town":"扇田","town_kana":"オウギダ","prefecture_code":2},"1503":{"zip_code":"0391503","prefecture":"青森県","prefecture_kana":"アオモリケン","city":"三戸郡五戸町","city_kana":"サンノヘグンゴノヘマチ","town":"鮫ノ口","town_kana":"サメノクチ","prefecture_code":2},"1563":{"zip_code":"0391563","prefecture":"青森県","prefecture_kana":"アオモリケン","city":"三戸郡五戸町","city_kana":"サンノヘグンゴノヘマチ","town":"平佐窪","town_kana":"ヘイサクボ","prefecture_code":2},"1511":{"zip_code":"0391511","prefecture":"青森県","prefecture_kana":"アオモリケン","city":"三戸郡五戸町","city_kana":"サンノヘグンゴノヘマチ","town":"丁塚","town_kana":"チョウヅカ","prefecture_code":2},"1501":{"zip_code":"0391501","prefecture":"青森県","prefecture_kana":"アオモリケン","city":"三戸郡五戸町","city_kana":"サンノヘグンゴノヘマチ","town":"上市川","town_kana":"カミイチカワ","prefecture_code":2},"1533":{"zip_code":"0391533","prefecture":"青森県","prefecture_kana":"アオモリケン","city":"三戸郡五戸町","city_kana":"サンノヘグンゴノヘマチ","town":"野月","town_kana":"ノヅキ","prefecture_code":2},"1557":{"zip_code":"0391557","prefecture":"青森県","prefecture_kana":"アオモリケン","city":"三戸郡五戸町","city_kana":"サンノヘグンゴノヘマチ","town":"八景","town_kana":"ハッケイ","prefecture_code":2},"1567":{"zip_code":"0391567","prefecture":"青森県","prefecture_kana":"アオモリケン","city":"三戸郡五戸町","city_kana":"サンノヘグンゴノヘマチ","town":"下大平楽","town_kana":"シモタイヘイラク","prefecture_code":2},"1526":{"zip_code":"0391526","prefecture":"青森県","prefecture_kana":"アオモリケン","city":"三戸郡五戸町","city_kana":"サンノヘグンゴノヘマチ","town":"惣林橋","town_kana":"ソウリンバシ","prefecture_code":2},"1551":{"zip_code":"0391551","prefecture":"青森県","prefecture_kana":"アオモリケン","city":"三戸郡五戸町","city_kana":"サンノヘグンゴノヘマチ","town":"上新井田前","town_kana":"カミニイダマエ","prefecture_code":2},"1523":{"zip_code":"0391523","prefecture":"青森県","prefecture_kana":"アオモリケン","city":"三戸郡五戸町","city_kana":"サンノヘグンゴノヘマチ","town":"新蔵長根","town_kana":"シンゾウナガネ","prefecture_code":2},"1554":{"zip_code":"0391554","prefecture":"青森県","prefecture_kana":"アオモリケン","city":"三戸郡五戸町","city_kana":"サンノヘグンゴノヘマチ","town":"傳兵ヱ丁","town_kana":"デンベエチョウ","prefecture_code":2},"1553":{"zip_code":"0391553","prefecture":"青森県","prefecture_kana":"アオモリケン","city":"三戸郡五戸町","city_kana":"サンノヘグンゴノヘマチ","town":"川原町西裏","town_kana":"カワラマチニシウラ","prefecture_code":2},"1532":{"zip_code":"0391532","prefecture":"青森県","prefecture_kana":"アオモリケン","city":"三戸郡五戸町","city_kana":"サンノヘグンゴノヘマチ","town":"観音堂","town_kana":"カンノンドウ","prefecture_code":2},"1531":{"zip_code":"0391531","prefecture":"青森県","prefecture_kana":"アオモリケン","city":"三戸郡五戸町","city_kana":"サンノヘグンゴノヘマチ","town":"狐森北","town_kana":"キツネモリキタ","prefecture_code":2},"2302":{"zip_code":"0392302","prefecture":"青森県","prefecture_kana":"アオモリケン","city":"三戸郡五戸町","city_kana":"サンノヘグンゴノヘマチ","town":"切谷内","town_kana":"キリヤナイ","prefecture_code":2},"1502":{"zip_code":"0391502","prefecture":"青森県","prefecture_kana":"アオモリケン","city":"三戸郡五戸町","city_kana":"サンノヘグンゴノヘマチ","town":"切谷内","town_kana":"キリヤナイ","prefecture_code":2},"1515":{"zip_code":"0391515","prefecture":"青森県","prefecture_kana":"アオモリケン","city":"三戸郡五戸町","city_kana":"サンノヘグンゴノヘマチ","town":"治郎左エ門長根","town_kana":"ジロウザエモンナガネ","prefecture_code":2},"1506":{"zip_code":"0391506","prefecture":"青森県","prefecture_kana":"アオモリケン","city":"三戸郡五戸町","city_kana":"サンノヘグンゴノヘマチ","town":"熊野林前","town_kana":"クマノバヤシマエ","prefecture_code":2},"1701":{"zip_code":"0391701","prefecture":"青森県","prefecture_kana":"アオモリケン","city":"三戸郡五戸町","city_kana":"サンノヘグンゴノヘマチ","town":"倉石石沢","town_kana":"クライシイシザワ","prefecture_code":2},"1702":{"zip_code":"0391702","prefecture":"青森県","prefecture_kana":"アオモリケン","city":"三戸郡五戸町","city_kana":"サンノヘグンゴノヘマチ","town":"倉石中市","town_kana":"クライシナカイチ","prefecture_code":2},"1703":{"zip_code":"0391703","prefecture":"青森県","prefecture_kana":"アオモリケン","city":"三戸郡五戸町","city_kana":"サンノヘグンゴノヘマチ","town":"倉石又重","town_kana":"クライシマタシゲ","prefecture_code":2},"1522":{"zip_code":"0391522","prefecture":"青森県","prefecture_kana":"アオモリケン","city":"三戸郡五戸町","city_kana":"サンノヘグンゴノヘマチ","town":"苗代沢","town_kana":"ナシロザワ","prefecture_code":2},"1566":{"zip_code":"0391566","prefecture":"青森県","prefecture_kana":"アオモリケン","city":"三戸郡五戸町","city_kana":"サンノヘグンゴノヘマチ","town":"幸ノ神前","town_kana":"サイノカミマエ","prefecture_code":2},"1558":{"zip_code":"0391558","prefecture":"青森県","prefecture_kana":"アオモリケン","city":"三戸郡五戸町","city_kana":"サンノヘグンゴノヘマチ","town":"堀合","town_kana":"ホリアイ","prefecture_code":2},"1517":{"zip_code":"0391517","prefecture":"青森県","prefecture_kana":"アオモリケン","city":"三戸郡五戸町","city_kana":"サンノヘグンゴノヘマチ","town":"沢向","town_kana":"サワムカイ","prefecture_code":2},"1562":{"zip_code":"0391562","prefecture":"青森県","prefecture_kana":"アオモリケン","city":"三戸郡五戸町","city_kana":"サンノヘグンゴノヘマチ","town":"白山前","town_kana":"ハクサンマエ","prefecture_code":2},"1525":{"zip_code":"0391525","prefecture":"青森県","prefecture_kana":"アオモリケン","city":"三戸郡五戸町","city_kana":"サンノヘグンゴノヘマチ","town":"地蔵岱","town_kana":"ジゾウタイ","prefecture_code":2},"1546":{"zip_code":"0391546","prefecture":"青森県","prefecture_kana":"アオモリケン","city":"三戸郡五戸町","city_kana":"サンノヘグンゴノヘマチ","town":"土井頭","town_kana":"ドイガシラ","prefecture_code":2},"1559":{"zip_code":"0391559","prefecture":"青森県","prefecture_kana":"アオモリケン","city":"三戸郡五戸町","city_kana":"サンノヘグンゴノヘマチ","town":"横丁","town_kana":"ヨコチョウ","prefecture_code":2},"1518":{"zip_code":"0391518","prefecture":"青森県","prefecture_kana":"アオモリケン","city":"三戸郡五戸町","city_kana":"サンノヘグンゴノヘマチ","town":"下モ沢向","town_kana":"シモサワムカイ","prefecture_code":2},"1555":{"zip_code":"0391555","prefecture":"青森県","prefecture_kana":"アオモリケン","city":"三戸郡五戸町","city_kana":"サンノヘグンゴノヘマチ","town":"古堂後","town_kana":"フルドウウシロ","prefecture_code":2},"1514":{"zip_code":"0391514","prefecture":"青森県","prefecture_kana":"アオモリケン","city":"三戸郡五戸町","city_kana":"サンノヘグンゴノヘマチ","town":"中崎","town_kana":"ナカザキ","prefecture_code":2},"1565":{"zip_code":"0391565","prefecture":"青森県","prefecture_kana":"アオモリケン","city":"三戸郡五戸町","city_kana":"サンノヘグンゴノヘマチ","town":"花道川原","town_kana":"ハナミチカワラ","prefecture_code":2},"1545":{"zip_code":"0391545","prefecture":"青森県","prefecture_kana":"アオモリケン","city":"三戸郡五戸町","city_kana":"サンノヘグンゴノヘマチ","town":"正場沢長根","town_kana":"ショウバサワナガネ","prefecture_code":2},"1535":{"zip_code":"0391535","prefecture":"青森県","prefecture_kana":"アオモリケン","city":"三戸郡五戸町","city_kana":"サンノヘグンゴノヘマチ","town":"新丁","town_kana":"シンチョウ","prefecture_code":2},"1541":{"zip_code":"0391541","prefecture":"青森県","prefecture_kana":"アオモリケン","city":"三戸郡五戸町","city_kana":"サンノヘグンゴノヘマチ","town":"新田窪","town_kana":"シンデンクボ","prefecture_code":2},"1548":{"zip_code":"0391548","prefecture":"青森県","prefecture_kana":"アオモリケン","city":"三戸郡五戸町","city_kana":"サンノヘグンゴノヘマチ","town":"新町","town_kana":"シンマチ","prefecture_code":2},"1547":{"zip_code":"0391547","prefecture":"青森県","prefecture_kana":"アオモリケン","city":"三戸郡五戸町","city_kana":"サンノヘグンゴノヘマチ","town":"神明後","town_kana":"シンメイウシロ","prefecture_code":2},"1543":{"zip_code":"0391543","prefecture":"青森県","prefecture_kana":"アオモリケン","city":"三戸郡五戸町","city_kana":"サンノヘグンゴノヘマチ","town":"竹原","town_kana":"タケハラ","prefecture_code":2},"1538":{"zip_code":"0391538","prefecture":"青森県","prefecture_kana":"アオモリケン","city":"三戸郡五戸町","city_kana":"サンノヘグンゴノヘマチ","town":"古街道長根","town_kana":"フルカイドウナガネ","prefecture_code":2},"1529":{"zip_code":"0391529","prefecture":"青森県","prefecture_kana":"アオモリケン","city":"三戸郡五戸町","city_kana":"サンノヘグンゴノヘマチ","town":"手倉橋","town_kana":"テグラバシ","prefecture_code":2},"1519":{"zip_code":"0391519","prefecture":"青森県","prefecture_kana":"アオモリケン","city":"三戸郡五戸町","city_kana":"サンノヘグンゴノヘマチ","town":"天満下川原","town_kana":"テンマンシモカワラ","prefecture_code":2},"1524":{"zip_code":"0391524","prefecture":"青森県","prefecture_kana":"アオモリケン","city":"三戸郡五戸町","city_kana":"サンノヘグンゴノヘマチ","town":"豊間内","town_kana":"トヨマナイ","prefecture_code":2},"1542":{"zip_code":"0391542","prefecture":"青森県","prefecture_kana":"アオモリケン","city":"三戸郡五戸町","city_kana":"サンノヘグンゴノヘマチ","town":"中道十文字","town_kana":"ナカミチジュウモンジ","prefecture_code":2},"1544":{"zip_code":"0391544","prefecture":"青森県","prefecture_kana":"アオモリケン","city":"三戸郡五戸町","city_kana":"サンノヘグンゴノヘマチ","town":"二階平下タ","town_kana":"ニカイダイラシタ","prefecture_code":2},"1512":{"zip_code":"0391512","prefecture":"青森県","prefecture_kana":"アオモリケン","city":"三戸郡五戸町","city_kana":"サンノヘグンゴノヘマチ","town":"西ノ沢","town_kana":"ニシノサワ","prefecture_code":2},"1569":{"zip_code":"0391569","prefecture":"青森県","prefecture_kana":"アオモリケン","city":"三戸郡五戸町","city_kana":"サンノヘグンゴノヘマチ","town":"虫追塚前","town_kana":"ムシオイヅカマエ","prefecture_code":2},"1513":{"zip_code":"0391513","prefecture":"青森県","prefecture_kana":"アオモリケン","city":"三戸郡五戸町","city_kana":"サンノヘグンゴノヘマチ","town":"古館脇","town_kana":"フルダテワキ","prefecture_code":2},"1564":{"zip_code":"0391564","prefecture":"青森県","prefecture_kana":"アオモリケン","city":"三戸郡五戸町","city_kana":"サンノヘグンゴノヘマチ","town":"六角","town_kana":"ロッカク","prefecture_code":2},"0200":{"zip_code":"0390200","prefecture":"青森県","prefecture_kana":"アオモリケン","city":"三戸郡田子町","city_kana":"サンノヘグンタッコマチ","town":"","town_kana":"","prefecture_code":2},"0312":{"zip_code":"0390312","prefecture":"青森県","prefecture_kana":"アオモリケン","city":"三戸郡田子町","city_kana":"サンノヘグンタッコマチ","town":"石亀","town_kana":"イシガメ","prefecture_code":2},"0316":{"zip_code":"0390316","prefecture":"青森県","prefecture_kana":"アオモリケン","city":"三戸郡田子町","city_kana":"サンノヘグンタッコマチ","town":"関","town_kana":"セキ","prefecture_code":2},"0202":{"zip_code":"0390202","prefecture":"青森県","prefecture_kana":"アオモリケン","city":"三戸郡田子町","city_kana":"サンノヘグンタッコマチ","town":"相米","town_kana":"ソウマイ","prefecture_code":2},"0201":{"zip_code":"0390201","prefecture":"青森県","prefecture_kana":"アオモリケン","city":"三戸郡田子町","city_kana":"サンノヘグンタッコマチ","town":"田子","town_kana":"タッコ","prefecture_code":2},"0314":{"zip_code":"0390314","prefecture":"青森県","prefecture_kana":"アオモリケン","city":"三戸郡田子町","city_kana":"サンノヘグンタッコマチ","town":"遠瀬","town_kana":"トウセ","prefecture_code":2},"0315":{"zip_code":"0390315","prefecture":"青森県","prefecture_kana":"アオモリケン","city":"三戸郡田子町","city_kana":"サンノヘグンタッコマチ","town":"夏坂","town_kana":"ナツサカ","prefecture_code":2},"0311":{"zip_code":"0390311","prefecture":"青森県","prefecture_kana":"アオモリケン","city":"三戸郡田子町","city_kana":"サンノヘグンタッコマチ","town":"原","town_kana":"ハラ","prefecture_code":2},"0313":{"zip_code":"0390313","prefecture":"青森県","prefecture_kana":"アオモリケン","city":"三戸郡田子町","city_kana":"サンノヘグンタッコマチ","town":"茂市","town_kana":"モイチ","prefecture_code":2},"0317":{"zip_code":"0390317","prefecture":"青森県","prefecture_kana":"アオモリケン","city":"三戸郡田子町","city_kana":"サンノヘグンタッコマチ","town":"山口","town_kana":"ヤマグチ","prefecture_code":2},"0606":{"zip_code":"0390606","prefecture":"青森県","prefecture_kana":"アオモリケン","city":"三戸郡南部町","city_kana":"サンノヘグンナンブチョウ","town":"相内","town_kana":"アイナイ","prefecture_code":2},"0106":{"zip_code":"0390106","prefecture":"青森県","prefecture_kana":"アオモリケン","city":"三戸郡南部町","city_kana":"サンノヘグンナンブチョウ","town":"相内","town_kana":"アイナイ","prefecture_code":2},"0102":{"zip_code":"0390102","prefecture":"青森県","prefecture_kana":"アオモリケン","city":"三戸郡南部町","city_kana":"サンノヘグンナンブチョウ","town":"赤石","town_kana":"アカイシ","prefecture_code":2},"0103":{"zip_code":"0390103","prefecture":"青森県","prefecture_kana":"アオモリケン","city":"三戸郡南部町","city_kana":"サンノヘグンナンブチョウ","town":"大向","town_kana":"オオムカイ","prefecture_code":2},"0105":{"zip_code":"0390105","prefecture":"青森県","prefecture_kana":"アオモリケン","city":"三戸郡南部町","city_kana":"サンノヘグンナンブチョウ","town":"沖田面","town_kana":"オキタオモテ","prefecture_code":2},"0801":{"zip_code":"0390801","prefecture":"青森県","prefecture_kana":"アオモリケン","city":"三戸郡南部町","city_kana":"サンノヘグンナンブチョウ","town":"片岸","town_kana":"カタギシ","prefecture_code":2},"0812":{"zip_code":"0390812","prefecture":"青森県","prefecture_kana":"アオモリケン","city":"三戸郡南部町","city_kana":"サンノヘグンナンブチョウ","town":"椛木","town_kana":"カバキ","prefecture_code":2},"0501":{"zip_code":"0390501","prefecture":"青森県","prefecture_kana":"アオモリケン","city":"三戸郡南部町","city_kana":"サンノヘグンナンブチョウ","town":"上名久井","town_kana":"カミナクイ","prefecture_code":2},"0612":{"zip_code":"0390612","prefecture":"青森県","prefecture_kana":"アオモリケン","city":"三戸郡南部町","city_kana":"サンノヘグンナンブチョウ","town":"剣吉","town_kana":"ケンヨシ","prefecture_code":2},"0805":{"zip_code":"0390805","prefecture":"青森県","prefecture_kana":"アオモリケン","city":"三戸郡南部町","city_kana":"サンノヘグンナンブチョウ","town":"小泉","town_kana":"コイズミ","prefecture_code":2},"0814":{"zip_code":"0390814","prefecture":"青森県","prefecture_kana":"アオモリケン","city":"三戸郡南部町","city_kana":"サンノヘグンナンブチョウ","town":"埖渡","town_kana":"ゴミワタリ","prefecture_code":2},"0104":{"zip_code":"0390104","prefecture":"青森県","prefecture_kana":"アオモリケン","city":"三戸郡南部町","city_kana":"サンノヘグンナンブチョウ","town":"小向","town_kana":"コムカイ","prefecture_code":2},"0502":{"zip_code":"0390502","prefecture":"青森県","prefecture_kana":"アオモリケン","city":"三戸郡南部町","city_kana":"サンノヘグンナンブチョウ","town":"下名久井","town_kana":"シモナクイ","prefecture_code":2},"0813":{"zip_code":"0390813","prefecture":"青森県","prefecture_kana":"アオモリケン","city":"三戸郡南部町","city_kana":"サンノヘグンナンブチョウ","town":"杉沢","town_kana":"スギサワ","prefecture_code":2},"0503":{"zip_code":"0390503","prefecture":"青森県","prefecture_kana":"アオモリケン","city":"三戸郡南部町","city_kana":"サンノヘグンナンブチョウ","town":"平","town_kana":"タイラ","prefecture_code":2},"0507":{"zip_code":"0390507","prefecture":"青森県","prefecture_kana":"アオモリケン","city":"三戸郡南部町","city_kana":"サンノヘグンナンブチョウ","town":"高瀬","town_kana":"タカセ","prefecture_code":2},"0804":{"zip_code":"0390804","prefecture":"青森県","prefecture_kana":"アオモリケン","city":"三戸郡南部町","city_kana":"サンノヘグンナンブチョウ","town":"高橋","town_kana":"タカハシ","prefecture_code":2},"0101":{"zip_code":"0390101","prefecture":"青森県","prefecture_kana":"アオモリケン","city":"三戸郡南部町","city_kana":"サンノヘグンナンブチョウ","town":"玉掛","town_kana":"タマカケ","prefecture_code":2},"0504":{"zip_code":"0390504","prefecture":"青森県","prefecture_kana":"アオモリケン","city":"三戸郡南部町","city_kana":"サンノヘグンナンブチョウ","town":"鳥舌内","town_kana":"チョウシタナイ","prefecture_code":2},"0611":{"zip_code":"0390611","prefecture":"青森県","prefecture_kana":"アオモリケン","city":"三戸郡南部町","city_kana":"サンノヘグンナンブチョウ","town":"斗賀","town_kana":"トガ","prefecture_code":2},"0802":{"zip_code":"0390802","prefecture":"青森県","prefecture_kana":"アオモリケン","city":"三戸郡南部町","city_kana":"サンノヘグンナンブチョウ","town":"苫米地","town_kana":"トマベチ","prefecture_code":2},"0505":{"zip_code":"0390505","prefecture":"青森県","prefecture_kana":"アオモリケン","city":"三戸郡南部町","city_kana":"サンノヘグンナンブチョウ","town":"鳥谷","town_kana":"トヤ","prefecture_code":2},"0614":{"zip_code":"0390614","prefecture":"青森県","prefecture_kana":"アオモリケン","city":"三戸郡南部町","city_kana":"サンノヘグンナンブチョウ","town":"虎渡","town_kana":"トラト","prefecture_code":2},"0815":{"zip_code":"0390815","prefecture":"青森県","prefecture_kana":"アオモリケン","city":"三戸郡南部町","city_kana":"サンノヘグンナンブチョウ","town":"福田","town_kana":"フクダ","prefecture_code":2},"0506":{"zip_code":"0390506","prefecture":"青森県","prefecture_kana":"アオモリケン","city":"三戸郡南部町","city_kana":"サンノヘグンナンブチョウ","town":"法光寺","town_kana":"ホウコウジ","prefecture_code":2},"0811":{"zip_code":"0390811","prefecture":"青森県","prefecture_kana":"アオモリケン","city":"三戸郡南部町","city_kana":"サンノヘグンナンブチョウ","town":"法師岡","town_kana":"ホウシオカ","prefecture_code":2},"0803":{"zip_code":"0390803","prefecture":"青森県","prefecture_kana":"アオモリケン","city":"三戸郡南部町","city_kana":"サンノヘグンナンブチョウ","town":"麦沢","town_kana":"ムギサワ","prefecture_code":2},"0613":{"zip_code":"0390613","prefecture":"青森県","prefecture_kana":"アオモリケン","city":"三戸郡南部町","city_kana":"サンノヘグンナンブチョウ","town":"森越","town_kana":"モリコシ","prefecture_code":2},"1200":{"zip_code":"0391200","prefecture":"青森県","prefecture_kana":"アオモリケン","city":"三戸郡階上町","city_kana":"サンノヘグンハシカミチョウ","town":"","town_kana":"","prefecture_code":2},"1202":{"zip_code":"0391202","prefecture":"青森県","prefecture_kana":"アオモリケン","city":"三戸郡階上町","city_kana":"サンノヘグンハシカミチョウ","town":"赤保内","town_kana":"アカボナイ","prefecture_code":2},"1207":{"zip_code":"0391207","prefecture":"青森県","prefecture_kana":"アオモリケン","city":"三戸郡階上町","city_kana":"サンノヘグンハシカミチョウ","town":"金山沢","town_kana":"カネヤマサワ","prefecture_code":2},"1212":{"zip_code":"0391212","prefecture":"青森県","prefecture_kana":"アオモリケン","city":"三戸郡階上町","city_kana":"サンノヘグンハシカミチョウ","town":"蒼前西","town_kana":"ソウゼンニシ","prefecture_code":2},"1211":{"zip_code":"0391211","prefecture":"青森県","prefecture_kana":"アオモリケン","city":"三戸郡階上町","city_kana":"サンノヘグンハシカミチョウ","town":"蒼前東","town_kana":"ソウゼンヒガシ","prefecture_code":2},"1206":{"zip_code":"0391206","prefecture":"青森県","prefecture_kana":"アオモリケン","city":"三戸郡階上町","city_kana":"サンノヘグンハシカミチョウ","town":"田代","town_kana":"タシロ","prefecture_code":2},"1208":{"zip_code":"0391208","prefecture":"青森県","prefecture_kana":"アオモリケン","city":"三戸郡階上町","city_kana":"サンノヘグンハシカミチョウ","town":"角柄折","town_kana":"ツノガラオリ","prefecture_code":2},"1201":{"zip_code":"0391201","prefecture":"青森県","prefecture_kana":"アオモリケン","city":"三戸郡階上町","city_kana":"サンノヘグンハシカミチョウ","town":"道仏","town_kana":"ドウブツ","prefecture_code":2},"1203":{"zip_code":"0391203","prefecture":"青森県","prefecture_kana":"アオモリケン","city":"三戸郡階上町","city_kana":"サンノヘグンハシカミチョウ","town":"鳥屋部","town_kana":"トヤベ","prefecture_code":2},"1205":{"zip_code":"0391205","prefecture":"青森県","prefecture_kana":"アオモリケン","city":"三戸郡階上町","city_kana":"サンノヘグンハシカミチョウ","town":"晴山沢","town_kana":"ハレヤマサワ","prefecture_code":2},"1204":{"zip_code":"0391204","prefecture":"青森県","prefecture_kana":"アオモリケン","city":"三戸郡階上町","city_kana":"サンノヘグンハシカミチョウ","town":"平内","town_kana":"ヒラナイ","prefecture_code":2},"1800":{"zip_code":"0391800","prefecture":"青森県","prefecture_kana":"アオモリケン","city":"三戸郡新郷村","city_kana":"サンノヘグンシンゴウムラ","town":"","town_kana":"","prefecture_code":2},"1802":{"zip_code":"0391802","prefecture":"青森県","prefecture_kana":"アオモリケン","city":"三戸郡新郷村","city_kana":"サンノヘグンシンゴウムラ","town":"西越","town_kana":"サイゴシ","prefecture_code":2},"1801":{"zip_code":"0391801","prefecture":"青森県","prefecture_kana":"アオモリケン","city":"三戸郡新郷村","city_kana":"サンノヘグンシンゴウムラ","town":"戸来","town_kana":"ヘライ","prefecture_code":2}}