{"0805":{"zip_code":"0410805","prefecture":"北海道","prefecture_kana":"ホッカイドウ","city":"函館市","city_kana":"ハコダテシ","town":"赤川","town_kana":"アカガワ","prefecture_code":1},"0804":{"zip_code":"0410804","prefecture":"北海道","prefecture_kana":"ホッカイドウ","city":"函館市","city_kana":"ハコダテシ","town":"赤川町","town_kana":"アカガワチョウ","prefecture_code":1},"0802":{"zip_code":"0410802","prefecture":"北海道","prefecture_kana":"ホッカイドウ","city":"函館市","city_kana":"ハコダテシ","town":"石川町","town_kana":"イシカワチョウ","prefecture_code":1},"0261":{"zip_code":"0410261","prefecture":"北海道","prefecture_kana":"ホッカイドウ","city":"函館市","city_kana":"ハコダテシ","town":"石崎町","town_kana":"イシザキチョウ","prefecture_code":1},"1624":{"zip_code":"0411624","prefecture":"北海道","prefecture_kana":"ホッカイドウ","city":"函館市","city_kana":"ハコダテシ","town":"岩戸町","town_kana":"イワトチョウ","prefecture_code":1},"1613":{"zip_code":"0411613","prefecture":"北海道","prefecture_kana":"ホッカイドウ","city":"函館市","city_kana":"ハコダテシ","town":"臼尻町","town_kana":"ウスジリチョウ","prefecture_code":1},"0613":{"zip_code":"0410613","prefecture":"北海道","prefecture_kana":"ホッカイドウ","city":"函館市","city_kana":"ハコダテシ","town":"絵紙山町","town_kana":"エガミヤマチョウ","prefecture_code":1},"0522":{"zip_code":"0410522","prefecture":"北海道","prefecture_kana":"ホッカイドウ","city":"函館市","city_kana":"ハコダテシ","town":"恵山町","town_kana":"エサンチョウ","prefecture_code":1},"0605":{"zip_code":"0410605","prefecture":"北海道","prefecture_kana":"ホッカイドウ","city":"函館市","city_kana":"ハコダテシ","town":"恵山岬町","town_kana":"エサンミサキチョウ","prefecture_code":1},"1622":{"zip_code":"0411622","prefecture":"北海道","prefecture_kana":"ホッカイドウ","city":"函館市","city_kana":"ハコダテシ","town":"大船町","town_kana":"オオフネチョウ","prefecture_code":1},"0403":{"zip_code":"0410403","prefecture":"北海道","prefecture_kana":"ホッカイドウ","city":"函館市","city_kana":"ハコダテシ","town":"大澗町","town_kana":"オオマチョウ","prefecture_code":1},"1603":{"zip_code":"0411603","prefecture":"北海道","prefecture_kana":"ホッカイドウ","city":"函館市","city_kana":"ハコダテシ","town":"尾札部町","town_kana":"オサツベチョウ","prefecture_code":1},"0251":{"zip_code":"0410251","prefecture":"北海道","prefecture_kana":"ホッカイドウ","city":"函館市","city_kana":"ハコダテシ","town":"小安町","town_kana":"オヤスチョウ","prefecture_code":1},"0253":{"zip_code":"0410253","prefecture":"北海道","prefecture_kana":"ホッカイドウ","city":"函館市","city_kana":"ハコダテシ","town":"小安山町","town_kana":"オヤスヤマチョウ","prefecture_code":1},"0523":{"zip_code":"0410523","prefecture":"北海道","prefecture_kana":"ホッカイドウ","city":"函館市","city_kana":"ハコダテシ","town":"柏野町","town_kana":"カシワノチョウ","prefecture_code":1},"0852":{"zip_code":"0410852","prefecture":"北海道","prefecture_kana":"ホッカイドウ","city":"函館市","city_kana":"ハコダテシ","town":"鍛治","town_kana":"カジ","prefecture_code":1},"1611":{"zip_code":"0411611","prefecture":"北海道","prefecture_kana":"ホッカイドウ","city":"函館市","city_kana":"ハコダテシ","town":"川汲町","town_kana":"カックミチョウ","prefecture_code":1},"0252":{"zip_code":"0410252","prefecture":"北海道","prefecture_kana":"ホッカイドウ","city":"函館市","city_kana":"ハコダテシ","town":"釜谷町","town_kana":"カマヤチョウ","prefecture_code":1},"0832":{"zip_code":"0410832","prefecture":"北海道","prefecture_kana":"ホッカイドウ","city":"函館市","city_kana":"ハコダテシ","town":"神山","town_kana":"カミヤマ","prefecture_code":1},"0831":{"zip_code":"0410831","prefecture":"北海道","prefecture_kana":"ホッカイドウ","city":"函館市","city_kana":"ハコダテシ","town":"神山町","town_kana":"カミヤマチョウ","prefecture_code":1},"0803":{"zip_code":"0410803","prefecture":"北海道","prefecture_kana":"ホッカイドウ","city":"函館市","city_kana":"ハコダテシ","town":"亀田中野町","town_kana":"カメダナカノチョウ","prefecture_code":1},"0813":{"zip_code":"0410813","prefecture":"北海道","prefecture_kana":"ホッカイドウ","city":"函館市","city_kana":"ハコダテシ","town":"亀田本町","town_kana":"カメダホンチョウ","prefecture_code":1},"0822":{"zip_code":"0410822","prefecture":"北海道","prefecture_kana":"ホッカイドウ","city":"函館市","city_kana":"ハコダテシ","town":"亀田港町","town_kana":"カメダミナトチョウ","prefecture_code":1},"0405":{"zip_code":"0410405","prefecture":"北海道","prefecture_kana":"ホッカイドウ","city":"函館市","city_kana":"ハコダテシ","town":"川上町","town_kana":"カワカミチョウ","prefecture_code":1},"0844":{"zip_code":"0410844","prefecture":"北海道","prefecture_kana":"ホッカイドウ","city":"函館市","city_kana":"ハコダテシ","town":"川原町","town_kana":"カワハラチョウ","prefecture_code":1},"0808":{"zip_code":"0410808","prefecture":"北海道","prefecture_kana":"ホッカイドウ","city":"函館市","city_kana":"ハコダテシ","town":"桔梗","town_kana":"キキョウ","prefecture_code":1},"0801":{"zip_code":"0410801","prefecture":"北海道","prefecture_kana":"ホッカイドウ","city":"函館市","city_kana":"ハコダテシ","town":"桔梗町","town_kana":"キキョウチョウ","prefecture_code":1},"0807":{"zip_code":"0410807","prefecture":"北海道","prefecture_kana":"ホッカイドウ","city":"函館市","city_kana":"ハコダテシ","town":"北美原","town_kana":"キタミハラ","prefecture_code":1},"0408":{"zip_code":"0410408","prefecture":"北海道","prefecture_kana":"ホッカイドウ","city":"函館市","city_kana":"ハコダテシ","town":"吉畑町","town_kana":"キチハタチョウ","prefecture_code":1},"1602":{"zip_code":"0411602","prefecture":"北海道","prefecture_kana":"ホッカイドウ","city":"函館市","city_kana":"ハコダテシ","town":"木直町","town_kana":"キナオシチョウ","prefecture_code":1},"0524":{"zip_code":"0410524","prefecture":"北海道","prefecture_kana":"ホッカイドウ","city":"函館市","city_kana":"ハコダテシ","town":"古武井町","town_kana":"コブイチョウ","prefecture_code":1},"0301":{"zip_code":"0410301","prefecture":"北海道","prefecture_kana":"ホッカイドウ","city":"函館市","city_kana":"ハコダテシ","town":"汐首町","town_kana":"シオクビチョウ","prefecture_code":1},"0602":{"zip_code":"0410602","prefecture":"北海道","prefecture_kana":"ホッカイドウ","city":"函館市","city_kana":"ハコダテシ","town":"島泊町","town_kana":"シマドマリチョウ","prefecture_code":1},"0812":{"zip_code":"0410812","prefecture":"北海道","prefecture_kana":"ホッカイドウ","city":"函館市","city_kana":"ハコダテシ","town":"昭和","town_kana":"ショウワ","prefecture_code":1},"0823":{"zip_code":"0410823","prefecture":"北海道","prefecture_kana":"ホッカイドウ","city":"函館市","city_kana":"ハコダテシ","town":"昭和町","town_kana":"ショウワチョウ","prefecture_code":1},"0265":{"zip_code":"0410265","prefecture":"北海道","prefecture_kana":"ホッカイドウ","city":"函館市","city_kana":"ハコダテシ","town":"白石町","town_kana":"シロイシチョウ","prefecture_code":1},"0606":{"zip_code":"0410606","prefecture":"北海道","prefecture_kana":"ホッカイドウ","city":"函館市","city_kana":"ハコダテシ","town":"新恵山町","town_kana":"シンエサンチョウ","prefecture_code":1},"0837":{"zip_code":"0410837","prefecture":"北海道","prefecture_kana":"ホッカイドウ","city":"函館市","city_kana":"ハコダテシ","town":"陣川","town_kana":"ジンカワ","prefecture_code":1},"0833":{"zip_code":"0410833","prefecture":"北海道","prefecture_kana":"ホッカイドウ","city":"函館市","city_kana":"ハコダテシ","town":"陣川町","town_kana":"ジンカワチョウ","prefecture_code":1},"0601":{"zip_code":"0410601","prefecture":"北海道","prefecture_kana":"ホッカイドウ","city":"函館市","city_kana":"ハコダテシ","town":"新八幡町","town_kana":"シンハチマンチョウ","prefecture_code":1},"0611":{"zip_code":"0410611","prefecture":"北海道","prefecture_kana":"ホッカイドウ","city":"函館市","city_kana":"ハコダテシ","town":"新浜町","town_kana":"シンハマチョウ","prefecture_code":1},"0312":{"zip_code":"0410312","prefecture":"北海道","prefecture_kana":"ホッカイドウ","city":"函館市","city_kana":"ハコダテシ","town":"新二見町","town_kana":"シンフタミチョウ","prefecture_code":1},"0302":{"zip_code":"0410302","prefecture":"北海道","prefecture_kana":"ホッカイドウ","city":"函館市","city_kana":"ハコダテシ","town":"瀬田来町","town_kana":"セタライチョウ","prefecture_code":1},"0526":{"zip_code":"0410526","prefecture":"北海道","prefecture_kana":"ホッカイドウ","city":"函館市","city_kana":"ハコダテシ","town":"高岱町","town_kana":"タカダイチョウ","prefecture_code":1},"0305":{"zip_code":"0410305","prefecture":"北海道","prefecture_kana":"ホッカイドウ","city":"函館市","city_kana":"ハコダテシ","town":"館町","town_kana":"タテマチ","prefecture_code":1},"0612":{"zip_code":"0410612","prefecture":"北海道","prefecture_kana":"ホッカイドウ","city":"函館市","city_kana":"ハコダテシ","town":"銚子町","town_kana":"チョウシチョウ","prefecture_code":1},"0264":{"zip_code":"0410264","prefecture":"北海道","prefecture_kana":"ホッカイドウ","city":"函館市","city_kana":"ハコダテシ","town":"鶴野町","town_kana":"ツルノチョウ","prefecture_code":1},"0304":{"zip_code":"0410304","prefecture":"北海道","prefecture_kana":"ホッカイドウ","city":"函館市","city_kana":"ハコダテシ","town":"泊町","town_kana":"トマリマチ","prefecture_code":1},"0603":{"zip_code":"0410603","prefecture":"北海道","prefecture_kana":"ホッカイドウ","city":"函館市","city_kana":"ハコダテシ","town":"富浦町","town_kana":"トミウラチョウ","prefecture_code":1},"0811":{"zip_code":"0410811","prefecture":"北海道","prefecture_kana":"ホッカイドウ","city":"函館市","city_kana":"ハコダテシ","town":"富岡町","town_kana":"トミオカチョウ","prefecture_code":1},"0402":{"zip_code":"0410402","prefecture":"北海道","prefecture_kana":"ホッカイドウ","city":"函館市","city_kana":"ハコダテシ","town":"豊浦町","town_kana":"トヨウラチョウ","prefecture_code":1},"1621":{"zip_code":"0411621","prefecture":"北海道","prefecture_kana":"ホッカイドウ","city":"函館市","city_kana":"ハコダテシ","town":"豊崎町","town_kana":"トヨサキチョウ","prefecture_code":1},"0263":{"zip_code":"0410263","prefecture":"北海道","prefecture_kana":"ホッカイドウ","city":"函館市","city_kana":"ハコダテシ","town":"豊原町","town_kana":"トヨハラチョウ","prefecture_code":1},"0404":{"zip_code":"0410404","prefecture":"北海道","prefecture_kana":"ホッカイドウ","city":"函館市","city_kana":"ハコダテシ","town":"中浜町","town_kana":"ナカハマチョウ","prefecture_code":1},"0853":{"zip_code":"0410853","prefecture":"北海道","prefecture_kana":"ホッカイドウ","city":"函館市","city_kana":"ハコダテシ","town":"中道","town_kana":"ナカミチ","prefecture_code":1},"0824":{"zip_code":"0410824","prefecture":"北海道","prefecture_kana":"ホッカイドウ","city":"函館市","city_kana":"ハコダテシ","town":"西桔梗町","town_kana":"ニシキキョウチョウ","prefecture_code":1},"0843":{"zip_code":"0410843","prefecture":"北海道","prefecture_kana":"ホッカイドウ","city":"函館市","city_kana":"ハコダテシ","town":"花園町","town_kana":"ハナゾノチョウ","prefecture_code":1},"0311":{"zip_code":"0410311","prefecture":"北海道","prefecture_kana":"ホッカイドウ","city":"函館市","city_kana":"ハコダテシ","town":"浜町","town_kana":"ハマチョウ","prefecture_code":1},"0313":{"zip_code":"0410313","prefecture":"北海道","prefecture_kana":"ホッカイドウ","city":"函館市","city_kana":"ハコダテシ","town":"原木町","town_kana":"ハラキチョウ","prefecture_code":1},"0401":{"zip_code":"0410401","prefecture":"北海道","prefecture_kana":"ホッカイドウ","city":"函館市","city_kana":"ハコダテシ","town":"日浦町","town_kana":"ヒウラチョウ","prefecture_code":1},"0835":{"zip_code":"0410835","prefecture":"北海道","prefecture_kana":"ホッカイドウ","city":"函館市","city_kana":"ハコダテシ","town":"東山","town_kana":"ヒガシヤマ","prefecture_code":1},"0834":{"zip_code":"0410834","prefecture":"北海道","prefecture_kana":"ホッカイドウ","city":"函館市","city_kana":"ハコダテシ","town":"東山町","town_kana":"ヒガシヤマチョウ","prefecture_code":1},"0525":{"zip_code":"0410525","prefecture":"北海道","prefecture_kana":"ホッカイドウ","city":"函館市","city_kana":"ハコダテシ","town":"日ノ浜町","town_kana":"ヒノハマチョウ","prefecture_code":1},"0841":{"zip_code":"0410841","prefecture":"北海道","prefecture_kana":"ホッカイドウ","city":"函館市","city_kana":"ハコダテシ","town":"日吉町","town_kana":"ヒヨシチョウ","prefecture_code":1},"0407":{"zip_code":"0410407","prefecture":"北海道","prefecture_kana":"ホッカイドウ","city":"函館市","city_kana":"ハコダテシ","town":"日和山町","town_kana":"ヒヨリヤマチョウ","prefecture_code":1},"1623":{"zip_code":"0411623","prefecture":"北海道","prefecture_kana":"ホッカイドウ","city":"函館市","city_kana":"ハコダテシ","town":"双見町","town_kana":"フタミチョウ","prefecture_code":1},"0262":{"zip_code":"0410262","prefecture":"北海道","prefecture_kana":"ホッカイドウ","city":"函館市","city_kana":"ハコダテシ","town":"古川町","town_kana":"フルカワチョウ","prefecture_code":1},"1601":{"zip_code":"0411601","prefecture":"北海道","prefecture_kana":"ホッカイドウ","city":"函館市","city_kana":"ハコダテシ","town":"古部町","town_kana":"フルベチョウ","prefecture_code":1},"0303":{"zip_code":"0410303","prefecture":"北海道","prefecture_kana":"ホッカイドウ","city":"函館市","city_kana":"ハコダテシ","town":"弁才町","town_kana":"ベンザイチョウ","prefecture_code":1},"0851":{"zip_code":"0410851","prefecture":"北海道","prefecture_kana":"ホッカイドウ","city":"函館市","city_kana":"ハコダテシ","town":"本通","town_kana":"ホンドオリ","prefecture_code":1},"0306":{"zip_code":"0410306","prefecture":"北海道","prefecture_kana":"ホッカイドウ","city":"函館市","city_kana":"ハコダテシ","town":"丸山町","town_kana":"マルヤマチョウ","prefecture_code":1},"0521":{"zip_code":"0410521","prefecture":"北海道","prefecture_kana":"ホッカイドウ","city":"函館市","city_kana":"ハコダテシ","town":"御崎町","town_kana":"ミサキチョウ","prefecture_code":1},"0821":{"zip_code":"0410821","prefecture":"北海道","prefecture_kana":"ホッカイドウ","city":"函館市","city_kana":"ハコダテシ","town":"港町","town_kana":"ミナトチョウ","prefecture_code":1},"0806":{"zip_code":"0410806","prefecture":"北海道","prefecture_kana":"ホッカイドウ","city":"函館市","city_kana":"ハコダテシ","town":"美原","town_kana":"ミハラ","prefecture_code":1},"0406":{"zip_code":"0410406","prefecture":"北海道","prefecture_kana":"ホッカイドウ","city":"函館市","city_kana":"ハコダテシ","town":"女那川町","town_kana":"メナガワチョウ","prefecture_code":1},"0604":{"zip_code":"0410604","prefecture":"北海道","prefecture_kana":"ホッカイドウ","city":"函館市","city_kana":"ハコダテシ","town":"元村町","town_kana":"モトムラチョウ","prefecture_code":1},"1612":{"zip_code":"0411612","prefecture":"北海道","prefecture_kana":"ホッカイドウ","city":"函館市","city_kana":"ハコダテシ","town":"安浦町","town_kana":"ヤスウラチョウ","prefecture_code":1},"0836":{"zip_code":"0410836","prefecture":"北海道","prefecture_kana":"ホッカイドウ","city":"函館市","city_kana":"ハコダテシ","town":"山の手","town_kana":"ヤマノテ","prefecture_code":1},"1242":{"zip_code":"0411242","prefecture":"北海道","prefecture_kana":"ホッカイドウ","city":"北斗市","city_kana":"ホクトシ","town":"市渡","town_kana":"イチノワタリ","prefecture_code":1},"1223":{"zip_code":"0411223","prefecture":"北海道","prefecture_kana":"ホッカイドウ","city":"北斗市","city_kana":"ホクトシ","town":"一本木","town_kana":"イッポンギ","prefecture_code":1},"1241":{"zip_code":"0411241","prefecture":"北海道","prefecture_kana":"ホッカイドウ","city":"北斗市","city_kana":"ホクトシ","town":"稲里","town_kana":"イナサト","prefecture_code":1},"1213":{"zip_code":"0411213","prefecture":"北海道","prefecture_kana":"ホッカイドウ","city":"北斗市","city_kana":"ホクトシ","town":"開発","town_kana":"カイハツ","prefecture_code":1},"1221":{"zip_code":"0411221","prefecture":"北海道","prefecture_kana":"ホッカイドウ","city":"北斗市","city_kana":"ホクトシ","town":"清水川","town_kana":"シミズカワ","prefecture_code":1},"1211":{"zip_code":"0411211","prefecture":"北海道","prefecture_kana":"ホッカイドウ","city":"北斗市","city_kana":"ホクトシ","town":"白川","town_kana":"シラカワ","prefecture_code":1},"1222":{"zip_code":"0411222","prefecture":"北海道","prefecture_kana":"ホッカイドウ","city":"北斗市","city_kana":"ホクトシ","town":"千代田","town_kana":"チヨダ","prefecture_code":1},"1243":{"zip_code":"0411243","prefecture":"北海道","prefecture_kana":"ホッカイドウ","city":"北斗市","city_kana":"ホクトシ","town":"中山","town_kana":"ナカヤマ","prefecture_code":1},"1215":{"zip_code":"0411215","prefecture":"北海道","prefecture_kana":"ホッカイドウ","city":"北斗市","city_kana":"ホクトシ","town":"萩野","town_kana":"ハギノ","prefecture_code":1},"1214":{"zip_code":"0411214","prefecture":"北海道","prefecture_kana":"ホッカイドウ","city":"北斗市","city_kana":"ホクトシ","town":"東前","town_kana":"ヒガシマエ","prefecture_code":1},"1225":{"zip_code":"0411225","prefecture":"北海道","prefecture_kana":"ホッカイドウ","city":"北斗市","city_kana":"ホクトシ","town":"文月","town_kana":"フミヅキ","prefecture_code":1},"1212":{"zip_code":"0411212","prefecture":"北海道","prefecture_kana":"ホッカイドウ","city":"北斗市","city_kana":"ホクトシ","town":"細入","town_kana":"ホソイレ","prefecture_code":1},"1251":{"zip_code":"0411251","prefecture":"北海道","prefecture_kana":"ホッカイドウ","city":"北斗市","city_kana":"ホクトシ","town":"本郷","town_kana":"ホンゴウ","prefecture_code":1},"1201":{"zip_code":"0411201","prefecture":"北海道","prefecture_kana":"ホッカイドウ","city":"北斗市","city_kana":"ホクトシ","town":"本町","town_kana":"ホンチョウ","prefecture_code":1},"1224":{"zip_code":"0411224","prefecture":"北海道","prefecture_kana":"ホッカイドウ","city":"北斗市","city_kana":"ホクトシ","town":"南大野","town_kana":"ミナミオオノ","prefecture_code":1},"1231":{"zip_code":"0411231","prefecture":"北海道","prefecture_kana":"ホッカイドウ","city":"北斗市","city_kana":"ホクトシ","town":"向野","town_kana":"ムカイノ","prefecture_code":1},"1226":{"zip_code":"0411226","prefecture":"北海道","prefecture_kana":"ホッカイドウ","city":"北斗市","city_kana":"ホクトシ","town":"村内","town_kana":"ムラウチ","prefecture_code":1},"1244":{"zip_code":"0411244","prefecture":"北海道","prefecture_kana":"ホッカイドウ","city":"北斗市","city_kana":"ホクトシ","town":"村山","town_kana":"ムラヤマ","prefecture_code":1},"1100":{"zip_code":"0411100","prefecture":"北海道","prefecture_kana":"ホッカイドウ","city":"亀田郡七飯町","city_kana":"カメダグンナナエチョウ","town":"","town_kana":"","prefecture_code":1},"1136":{"zip_code":"0411136","prefecture":"北海道","prefecture_kana":"ホッカイドウ","city":"亀田郡七飯町","city_kana":"カメダグンナナエチョウ","town":"飯田町","town_kana":"イイダチョウ","prefecture_code":1},"1352":{"zip_code":"0411352","prefecture":"北海道","prefecture_kana":"ホッカイドウ","city":"亀田郡七飯町","city_kana":"カメダグンナナエチョウ","town":"軍川","town_kana":"イクサガワ","prefecture_code":1},"1122":{"zip_code":"0411122","prefecture":"北海道","prefecture_kana":"ホッカイドウ","city":"亀田郡七飯町","city_kana":"カメダグンナナエチョウ","town":"大川","town_kana":"オオカワ","prefecture_code":1},"1121":{"zip_code":"0411121","prefecture":"北海道","prefecture_kana":"ホッカイドウ","city":"亀田郡七飯町","city_kana":"カメダグンナナエチョウ","town":"大中山","town_kana":"オオナカヤマ","prefecture_code":1},"1354":{"zip_code":"0411354","prefecture":"北海道","prefecture_kana":"ホッカイドウ","city":"亀田郡七飯町","city_kana":"カメダグンナナエチョウ","town":"大沼町","town_kana":"オオヌマチョウ","prefecture_code":1},"1353":{"zip_code":"0411353","prefecture":"北海道","prefecture_kana":"ホッカイドウ","city":"亀田郡七飯町","city_kana":"カメダグンナナエチョウ","town":"上軍川","town_kana":"カミイクサガワ","prefecture_code":1},"1104":{"zip_code":"0411104","prefecture":"北海道","prefecture_kana":"ホッカイドウ","city":"亀田郡七飯町","city_kana":"カメダグンナナエチョウ","town":"上藤城","town_kana":"カミフジシロ","prefecture_code":1},"1105":{"zip_code":"0411105","prefecture":"北海道","prefecture_kana":"ホッカイドウ","city":"亀田郡七飯町","city_kana":"カメダグンナナエチョウ","town":"桜町","town_kana":"サクラチョウ","prefecture_code":1},"1134":{"zip_code":"0411134","prefecture":"北海道","prefecture_kana":"ホッカイドウ","city":"亀田郡七飯町","city_kana":"カメダグンナナエチョウ","town":"鶴野","town_kana":"ツルノ","prefecture_code":1},"1102":{"zip_code":"0411102","prefecture":"北海道","prefecture_kana":"ホッカイドウ","city":"亀田郡七飯町","city_kana":"カメダグンナナエチョウ","town":"峠下","town_kana":"トウゲシタ","prefecture_code":1},"1132":{"zip_code":"0411132","prefecture":"北海道","prefecture_kana":"ホッカイドウ","city":"亀田郡七飯町","city_kana":"カメダグンナナエチョウ","town":"豊田","town_kana":"トヨダ","prefecture_code":1},"1133":{"zip_code":"0411133","prefecture":"北海道","prefecture_kana":"ホッカイドウ","city":"亀田郡七飯町","city_kana":"カメダグンナナエチョウ","town":"中島","town_kana":"ナカジマ","prefecture_code":1},"1131":{"zip_code":"0411131","prefecture":"北海道","prefecture_kana":"ホッカイドウ","city":"亀田郡七飯町","city_kana":"カメダグンナナエチョウ","town":"中野","town_kana":"ナカノ","prefecture_code":1},"1112":{"zip_code":"0411112","prefecture":"北海道","prefecture_kana":"ホッカイドウ","city":"亀田郡七飯町","city_kana":"カメダグンナナエチョウ","town":"鳴川町","town_kana":"ナルカワチョウ","prefecture_code":1},"1355":{"zip_code":"0411355","prefecture":"北海道","prefecture_kana":"ホッカイドウ","city":"亀田郡七飯町","city_kana":"カメダグンナナエチョウ","town":"西大沼","town_kana":"ニシオオヌマ","prefecture_code":1},"1101":{"zip_code":"0411101","prefecture":"北海道","prefecture_kana":"ホッカイドウ","city":"亀田郡七飯町","city_kana":"カメダグンナナエチョウ","town":"仁山","town_kana":"ニヤマ","prefecture_code":1},"1351":{"zip_code":"0411351","prefecture":"北海道","prefecture_kana":"ホッカイドウ","city":"亀田郡七飯町","city_kana":"カメダグンナナエチョウ","town":"東大沼","town_kana":"ヒガシオオヌマ","prefecture_code":1},"1103":{"zip_code":"0411103","prefecture":"北海道","prefecture_kana":"ホッカイドウ","city":"亀田郡七飯町","city_kana":"カメダグンナナエチョウ","town":"藤城","town_kana":"フジシロ","prefecture_code":1},"1111":{"zip_code":"0411111","prefecture":"北海道","prefecture_kana":"ホッカイドウ","city":"亀田郡七飯町","city_kana":"カメダグンナナエチョウ","town":"本町","town_kana":"ホンチョウ","prefecture_code":1},"1135":{"zip_code":"0411135","prefecture":"北海道","prefecture_kana":"ホッカイドウ","city":"亀田郡七飯町","city_kana":"カメダグンナナエチョウ","town":"緑町","town_kana":"ミドリチョウ","prefecture_code":1},"1400":{"zip_code":"0411400","prefecture":"北海道","prefecture_kana":"ホッカイドウ","city":"茅部郡鹿部町","city_kana":"カヤベグンシカベチョウ","town":"","town_kana":"","prefecture_code":1},"1401":{"zip_code":"0411401","prefecture":"北海道","prefecture_kana":"ホッカイドウ","city":"茅部郡鹿部町","city_kana":"カヤベグンシカベチョウ","town":"大岩","town_kana":"オオイワ","prefecture_code":1},"1405":{"zip_code":"0411405","prefecture":"北海道","prefecture_kana":"ホッカイドウ","city":"茅部郡鹿部町","city_kana":"カヤベグンシカベチョウ","town":"駒見","town_kana":"コマミ","prefecture_code":1},"1402":{"zip_code":"0411402","prefecture":"北海道","prefecture_kana":"ホッカイドウ","city":"茅部郡鹿部町","city_kana":"カヤベグンシカベチョウ","town":"鹿部","town_kana":"シカベ","prefecture_code":1},"1404":{"zip_code":"0411404","prefecture":"北海道","prefecture_kana":"ホッカイドウ","city":"茅部郡鹿部町","city_kana":"カヤベグンシカベチョウ","town":"本別","town_kana":"ホンベツ","prefecture_code":1},"1403":{"zip_code":"0411403","prefecture":"北海道","prefecture_kana":"ホッカイドウ","city":"茅部郡鹿部町","city_kana":"カヤベグンシカベチョウ","town":"宮浜","town_kana":"ミヤハマ","prefecture_code":1}}