{"0200":{"zip_code":"0460200","prefecture":"北海道","prefecture_kana":"ホッカイドウ","city":"積丹郡積丹町","city_kana":"シャコタングンシャコタンチョウ","town":"","town_kana":"","prefecture_code":1},"0327":{"zip_code":"0460327","prefecture":"北海道","prefecture_kana":"ホッカイドウ","city":"積丹郡積丹町","city_kana":"シャコタングンシャコタンチョウ","town":"入舸町","town_kana":"イリカチョウ","prefecture_code":1},"0321":{"zip_code":"0460321","prefecture":"北海道","prefecture_kana":"ホッカイドウ","city":"積丹郡積丹町","city_kana":"シャコタングンシャコタンチョウ","town":"神岬町","town_kana":"コウザキチョウ","prefecture_code":1},"0324":{"zip_code":"0460324","prefecture":"北海道","prefecture_kana":"ホッカイドウ","city":"積丹郡積丹町","city_kana":"シャコタングンシャコタンチョウ","town":"西河町","town_kana":"ニシカワチョウ","prefecture_code":1},"0325":{"zip_code":"0460325","prefecture":"北海道","prefecture_kana":"ホッカイドウ","city":"積丹郡積丹町","city_kana":"シャコタングンシャコタンチョウ","town":"野塚町","town_kana":"ノヅカチョウ","prefecture_code":1},"0201":{"zip_code":"0460201","prefecture":"北海道","prefecture_kana":"ホッカイドウ","city":"積丹郡積丹町","city_kana":"シャコタングンシャコタンチョウ","town":"美国町","town_kana":"ビクニチョウ","prefecture_code":1},"0326":{"zip_code":"0460326","prefecture":"北海道","prefecture_kana":"ホッカイドウ","city":"積丹郡積丹町","city_kana":"シャコタングンシャコタンチョウ","town":"日司町","town_kana":"ヒヅカチョウ","prefecture_code":1},"0202":{"zip_code":"0460202","prefecture":"北海道","prefecture_kana":"ホッカイドウ","city":"積丹郡積丹町","city_kana":"シャコタングンシャコタンチョウ","town":"婦美町","town_kana":"フミチョウ","prefecture_code":1},"0328":{"zip_code":"0460328","prefecture":"北海道","prefecture_kana":"ホッカイドウ","city":"積丹郡積丹町","city_kana":"シャコタングンシャコタンチョウ","town":"幌武意町","town_kana":"ホロムイチョウ","prefecture_code":1},"0322":{"zip_code":"0460322","prefecture":"北海道","prefecture_kana":"ホッカイドウ","city":"積丹郡積丹町","city_kana":"シャコタングンシャコタンチョウ","town":"余別町","town_kana":"ヨベツチョウ","prefecture_code":1},"0323":{"zip_code":"0460323","prefecture":"北海道","prefecture_kana":"ホッカイドウ","city":"積丹郡積丹町","city_kana":"シャコタングンシャコタンチョウ","town":"来岸町","town_kana":"ライキシチョウ","prefecture_code":1},"0100":{"zip_code":"0460100","prefecture":"北海道","prefecture_kana":"ホッカイドウ","city":"古平郡古平町","city_kana":"フルビラグンフルビラチョウ","town":"","town_kana":"","prefecture_code":1},"0104":{"zip_code":"0460104","prefecture":"北海道","prefecture_kana":"ホッカイドウ","city":"古平郡古平町","city_kana":"フルビラグンフルビラチョウ","town":"入船町","town_kana":"イリフネチョウ","prefecture_code":1},"0132":{"zip_code":"0460132","prefecture":"北海道","prefecture_kana":"ホッカイドウ","city":"古平郡古平町","city_kana":"フルビラグンフルビラチョウ","town":"歌棄町","town_kana":"ウタスツチョウ","prefecture_code":1},"0133":{"zip_code":"0460133","prefecture":"北海道","prefecture_kana":"ホッカイドウ","city":"古平郡古平町","city_kana":"フルビラグンフルビラチョウ","town":"沖町","town_kana":"オキチョウ","prefecture_code":1},"0111":{"zip_code":"0460111","prefecture":"北海道","prefecture_kana":"ホッカイドウ","city":"古平郡古平町","city_kana":"フルビラグンフルビラチョウ","town":"群来町","town_kana":"クキチョウ","prefecture_code":1},"0131":{"zip_code":"0460131","prefecture":"北海道","prefecture_kana":"ホッカイドウ","city":"古平郡古平町","city_kana":"フルビラグンフルビラチョウ","town":"沢江町","town_kana":"サワエチョウ","prefecture_code":1},"0112":{"zip_code":"0460112","prefecture":"北海道","prefecture_kana":"ホッカイドウ","city":"古平郡古平町","city_kana":"フルビラグンフルビラチョウ","town":"新地町","town_kana":"シンチチョウ","prefecture_code":1},"0121":{"zip_code":"0460121","prefecture":"北海道","prefecture_kana":"ホッカイドウ","city":"古平郡古平町","city_kana":"フルビラグンフルビラチョウ","town":"浜町","town_kana":"ハマチョウ","prefecture_code":1},"0103":{"zip_code":"0460103","prefecture":"北海道","prefecture_kana":"ホッカイドウ","city":"古平郡古平町","city_kana":"フルビラグンフルビラチョウ","town":"本町","town_kana":"ホンチョウ","prefecture_code":1},"0102":{"zip_code":"0460102","prefecture":"北海道","prefecture_kana":"ホッカイドウ","city":"古平郡古平町","city_kana":"フルビラグンフルビラチョウ","town":"丸山町","town_kana":"マルヤマチョウ","prefecture_code":1},"0101":{"zip_code":"0460101","prefecture":"北海道","prefecture_kana":"ホッカイドウ","city":"古平郡古平町","city_kana":"フルビラグンフルビラチョウ","town":"御崎町","town_kana":"ミサキチョウ","prefecture_code":1},"0113":{"zip_code":"0460113","prefecture":"北海道","prefecture_kana":"ホッカイドウ","city":"古平郡古平町","city_kana":"フルビラグンフルビラチョウ","town":"港町","town_kana":"ミナトマチ","prefecture_code":1},"0000":{"zip_code":"0460000","prefecture":"北海道","prefecture_kana":"ホッカイドウ","city":"余市郡余市町","city_kana":"ヨイチグンヨイチチョウ","town":"","town_kana":"","prefecture_code":1},"0015":{"zip_code":"0460015","prefecture":"北海道","prefecture_kana":"ホッカイドウ","city":"余市郡余市町","city_kana":"ヨイチグンヨイチチョウ","town":"朝日町","town_kana":"アサヒチョウ","prefecture_code":1},"0011":{"zip_code":"0460011","prefecture":"北海道","prefecture_kana":"ホッカイドウ","city":"余市郡余市町","city_kana":"ヨイチグンヨイチチョウ","town":"入舟町","town_kana":"イリフネチョウ","prefecture_code":1},"0023":{"zip_code":"0460023","prefecture":"北海道","prefecture_kana":"ホッカイドウ","city":"余市郡余市町","city_kana":"ヨイチグンヨイチチョウ","town":"梅川町","town_kana":"ウメカワチョウ","prefecture_code":1},"0004":{"zip_code":"0460004","prefecture":"北海道","prefecture_kana":"ホッカイドウ","city":"余市郡余市町","city_kana":"ヨイチグンヨイチチョウ","town":"大川町","town_kana":"オオカワチョウ","prefecture_code":1},"0003":{"zip_code":"0460003","prefecture":"北海道","prefecture_kana":"ホッカイドウ","city":"余市郡余市町","city_kana":"ヨイチグンヨイチチョウ","town":"黒川町","town_kana":"クロカワチョウ","prefecture_code":1},"0001":{"zip_code":"0460001","prefecture":"北海道","prefecture_kana":"ホッカイドウ","city":"余市郡余市町","city_kana":"ヨイチグンヨイチチョウ","town":"栄町","town_kana":"サカエマチ","prefecture_code":1},"0022":{"zip_code":"0460022","prefecture":"北海道","prefecture_kana":"ホッカイドウ","city":"余市郡余市町","city_kana":"ヨイチグンヨイチチョウ","town":"沢町","town_kana":"サワマチ","prefecture_code":1},"0033":{"zip_code":"0460033","prefecture":"北海道","prefecture_kana":"ホッカイドウ","city":"余市郡余市町","city_kana":"ヨイチグンヨイチチョウ","town":"潮見町","town_kana":"シオミチョウ","prefecture_code":1},"0031":{"zip_code":"0460031","prefecture":"北海道","prefecture_kana":"ホッカイドウ","city":"余市郡余市町","city_kana":"ヨイチグンヨイチチョウ","town":"白岩町","town_kana":"シロイワチョウ","prefecture_code":1},"0025":{"zip_code":"0460025","prefecture":"北海道","prefecture_kana":"ホッカイドウ","city":"余市郡余市町","city_kana":"ヨイチグンヨイチチョウ","town":"富沢町","town_kana":"トミサワチョウ","prefecture_code":1},"0013":{"zip_code":"0460013","prefecture":"北海道","prefecture_kana":"ホッカイドウ","city":"余市郡余市町","city_kana":"ヨイチグンヨイチチョウ","town":"豊丘町","town_kana":"トヨオカチョウ","prefecture_code":1},"0032":{"zip_code":"0460032","prefecture":"北海道","prefecture_kana":"ホッカイドウ","city":"余市郡余市町","city_kana":"ヨイチグンヨイチチョウ","town":"豊浜町","town_kana":"トヨハマチョウ","prefecture_code":1},"0002":{"zip_code":"0460002","prefecture":"北海道","prefecture_kana":"ホッカイドウ","city":"余市郡余市町","city_kana":"ヨイチグンヨイチチョウ","town":"登町","town_kana":"ノボリチョウ","prefecture_code":1},"0021":{"zip_code":"0460021","prefecture":"北海道","prefecture_kana":"ホッカイドウ","city":"余市郡余市町","city_kana":"ヨイチグンヨイチチョウ","town":"浜中町","town_kana":"ハマナカチョウ","prefecture_code":1},"0014":{"zip_code":"0460014","prefecture":"北海道","prefecture_kana":"ホッカイドウ","city":"余市郡余市町","city_kana":"ヨイチグンヨイチチョウ","town":"美園町","town_kana":"ミソノチョウ","prefecture_code":1},"0024":{"zip_code":"0460024","prefecture":"北海道","prefecture_kana":"ホッカイドウ","city":"余市郡余市町","city_kana":"ヨイチグンヨイチチョウ","town":"港町","town_kana":"ミナトマチ","prefecture_code":1},"0012":{"zip_code":"0460012","prefecture":"北海道","prefecture_kana":"ホッカイドウ","city":"余市郡余市町","city_kana":"ヨイチグンヨイチチョウ","town":"山田町","town_kana":"ヤマダチョウ","prefecture_code":1},"0500":{"zip_code":"0460500","prefecture":"北海道","prefecture_kana":"ホッカイドウ","city":"余市郡赤井川村","city_kana":"ヨイチグンアカイガワムラ","town":"","town_kana":"","prefecture_code":1},"0501":{"zip_code":"0460501","prefecture":"北海道","prefecture_kana":"ホッカイドウ","city":"余市郡赤井川村","city_kana":"ヨイチグンアカイガワムラ","town":"赤井川","town_kana":"アカイガワ","prefecture_code":1},"0531":{"zip_code":"0460531","prefecture":"北海道","prefecture_kana":"ホッカイドウ","city":"余市郡赤井川村","city_kana":"ヨイチグンアカイガワムラ","town":"旭丘","town_kana":"アサヒオカ","prefecture_code":1},"0521":{"zip_code":"0460521","prefecture":"北海道","prefecture_kana":"ホッカイドウ","city":"余市郡赤井川村","city_kana":"ヨイチグンアカイガワムラ","town":"池田","town_kana":"イケダ","prefecture_code":1},"0561":{"zip_code":"0460561","prefecture":"北海道","prefecture_kana":"ホッカイドウ","city":"余市郡赤井川村","city_kana":"ヨイチグンアカイガワムラ","town":"落合","town_kana":"オチアイ","prefecture_code":1},"0571":{"zip_code":"0460571","prefecture":"北海道","prefecture_kana":"ホッカイドウ","city":"余市郡赤井川村","city_kana":"ヨイチグンアカイガワムラ","town":"常盤","town_kana":"トキワ","prefecture_code":1},"0551":{"zip_code":"0460551","prefecture":"北海道","prefecture_kana":"ホッカイドウ","city":"余市郡赤井川村","city_kana":"ヨイチグンアカイガワムラ","town":"轟","town_kana":"トドロキ","prefecture_code":1},"0532":{"zip_code":"0460532","prefecture":"北海道","prefecture_kana":"ホッカイドウ","city":"余市郡赤井川村","city_kana":"ヨイチグンアカイガワムラ","town":"富田","town_kana":"トミタ","prefecture_code":1},"0511":{"zip_code":"0460511","prefecture":"北海道","prefecture_kana":"ホッカイドウ","city":"余市郡赤井川村","city_kana":"ヨイチグンアカイガワムラ","town":"日ノ出","town_kana":"ヒノデ","prefecture_code":1},"0542":{"zip_code":"0460542","prefecture":"北海道","prefecture_kana":"ホッカイドウ","city":"余市郡赤井川村","city_kana":"ヨイチグンアカイガワムラ","town":"曲川","town_kana":"マガリカワ","prefecture_code":1},"0541":{"zip_code":"0460541","prefecture":"北海道","prefecture_kana":"ホッカイドウ","city":"余市郡赤井川村","city_kana":"ヨイチグンアカイガワムラ","town":"都","town_kana":"ミヤコ","prefecture_code":1},"0552":{"zip_code":"0460552","prefecture":"北海道","prefecture_kana":"ホッカイドウ","city":"余市郡赤井川村","city_kana":"ヨイチグンアカイガワムラ","town":"明治","town_kana":"メイジ","prefecture_code":1},"0512":{"zip_code":"0460512","prefecture":"北海道","prefecture_kana":"ホッカイドウ","city":"余市郡赤井川村","city_kana":"ヨイチグンアカイガワムラ","town":"山梨","town_kana":"ヤマナシ","prefecture_code":1}}