{"0000":{"zip_code":"0470000","prefecture":"北海道","prefecture_kana":"ホッカイドウ","city":"小樽市","city_kana":"オタルシ","town":"以下に掲載がない場合","town_kana":"イカニケイサイガナイバアイ","prefecture_code":1},"0028":{"zip_code":"0470028","prefecture":"北海道","prefecture_kana":"ホッカイドウ","city":"小樽市","city_kana":"オタルシ","town":"相生町","town_kana":"アイオイチョウ","prefecture_code":1},"0046":{"zip_code":"0470046","prefecture":"北海道","prefecture_kana":"ホッカイドウ","city":"小樽市","city_kana":"オタルシ","town":"赤岩","town_kana":"アカイワ","prefecture_code":1},"0035":{"zip_code":"0470035","prefecture":"北海道","prefecture_kana":"ホッカイドウ","city":"小樽市","city_kana":"オタルシ","town":"旭町","town_kana":"アサヒマチ","prefecture_code":1},"0151":{"zip_code":"0470151","prefecture":"北海道","prefecture_kana":"ホッカイドウ","city":"小樽市","city_kana":"オタルシ","town":"朝里","town_kana":"アサリ","prefecture_code":1},"0154":{"zip_code":"0470154","prefecture":"北海道","prefecture_kana":"ホッカイドウ","city":"小樽市","city_kana":"オタルシ","town":"朝里川温泉","town_kana":"アサリガワオンセン","prefecture_code":1},"0006":{"zip_code":"0470006","prefecture":"北海道","prefecture_kana":"ホッカイドウ","city":"小樽市","city_kana":"オタルシ","town":"有幌町","town_kana":"アリホロチョウ","prefecture_code":1},"0038":{"zip_code":"0470038","prefecture":"北海道","prefecture_kana":"ホッカイドウ","city":"小樽市","city_kana":"オタルシ","town":"石山町","town_kana":"イシヤマチョウ","prefecture_code":1},"0032":{"zip_code":"0470032","prefecture":"北海道","prefecture_kana":"ホッカイドウ","city":"小樽市","city_kana":"オタルシ","town":"稲穂","town_kana":"イナホ","prefecture_code":1},"0021":{"zip_code":"0470021","prefecture":"北海道","prefecture_kana":"ホッカイドウ","city":"小樽市","city_kana":"オタルシ","town":"入船","town_kana":"イリフネ","prefecture_code":1},"0031":{"zip_code":"0470031","prefecture":"北海道","prefecture_kana":"ホッカイドウ","city":"小樽市","city_kana":"オタルシ","town":"色内","town_kana":"イロナイ","prefecture_code":1},"0044":{"zip_code":"0470044","prefecture":"北海道","prefecture_kana":"ホッカイドウ","city":"小樽市","city_kana":"オタルシ","town":"梅ケ枝町","town_kana":"ウメガエチョウ","prefecture_code":1},"0013":{"zip_code":"0470013","prefecture":"北海道","prefecture_kana":"ホッカイドウ","city":"小樽市","city_kana":"オタルシ","town":"奥沢","town_kana":"オクサワ","prefecture_code":1},"0005":{"zip_code":"0470005","prefecture":"北海道","prefecture_kana":"ホッカイドウ","city":"小樽市","city_kana":"オタルシ","town":"勝納町","town_kana":"カツナイチョウ","prefecture_code":1},"0264":{"zip_code":"0470264","prefecture":"北海道","prefecture_kana":"ホッカイドウ","city":"小樽市","city_kana":"オタルシ","town":"桂岡町","town_kana":"カツラオカチョウ","prefecture_code":1},"0037":{"zip_code":"0470037","prefecture":"北海道","prefecture_kana":"ホッカイドウ","city":"小樽市","city_kana":"オタルシ","town":"幸","town_kana":"サイワイ","prefecture_code":1},"0027":{"zip_code":"0470027","prefecture":"北海道","prefecture_kana":"ホッカイドウ","city":"小樽市","city_kana":"オタルシ","town":"堺町","town_kana":"サカイマチ","prefecture_code":1},"0156":{"zip_code":"0470156","prefecture":"北海道","prefecture_kana":"ホッカイドウ","city":"小樽市","city_kana":"オタルシ","town":"桜","town_kana":"サクラ","prefecture_code":1},"0002":{"zip_code":"0470002","prefecture":"北海道","prefecture_kana":"ホッカイドウ","city":"小樽市","city_kana":"オタルシ","town":"潮見台","town_kana":"シオミダイ","prefecture_code":1},"0026":{"zip_code":"0470026","prefecture":"北海道","prefecture_kana":"ホッカイドウ","city":"小樽市","city_kana":"オタルシ","town":"東雲町","town_kana":"シノノメチョウ","prefecture_code":1},"0045":{"zip_code":"0470045","prefecture":"北海道","prefecture_kana":"ホッカイドウ","city":"小樽市","city_kana":"オタルシ","town":"清水町","town_kana":"シミズチョウ","prefecture_code":1},"0047":{"zip_code":"0470047","prefecture":"北海道","prefecture_kana":"ホッカイドウ","city":"小樽市","city_kana":"オタルシ","town":"祝津","town_kana":"シュクツ","prefecture_code":1},"0152":{"zip_code":"0470152","prefecture":"北海道","prefecture_kana":"ホッカイドウ","city":"小樽市","city_kana":"オタルシ","town":"新光","town_kana":"シンコウ","prefecture_code":1},"0153":{"zip_code":"0470153","prefecture":"北海道","prefecture_kana":"ホッカイドウ","city":"小樽市","city_kana":"オタルシ","town":"新光町","town_kana":"シンコウチョウ","prefecture_code":1},"0004":{"zip_code":"0470004","prefecture":"北海道","prefecture_kana":"ホッカイドウ","city":"小樽市","city_kana":"オタルシ","town":"新富町","town_kana":"シントミチョウ","prefecture_code":1},"0042":{"zip_code":"0470042","prefecture":"北海道","prefecture_kana":"ホッカイドウ","city":"小樽市","city_kana":"オタルシ","town":"末広町","town_kana":"スエヒロチョウ","prefecture_code":1},"0014":{"zip_code":"0470014","prefecture":"北海道","prefecture_kana":"ホッカイドウ","city":"小樽市","city_kana":"オタルシ","town":"住ノ江","town_kana":"スミノエ","prefecture_code":1},"0015":{"zip_code":"0470015","prefecture":"北海道","prefecture_kana":"ホッカイドウ","city":"小樽市","city_kana":"オタルシ","town":"住吉町","town_kana":"スミヨシチョウ","prefecture_code":1},"0261":{"zip_code":"0470261","prefecture":"北海道","prefecture_kana":"ホッカイドウ","city":"小樽市","city_kana":"オタルシ","town":"銭函（１〜３丁目）","town_kana":"ゼニバコ(1-3チョウメ)","prefecture_code":1},"0048":{"zip_code":"0470048","prefecture":"北海道","prefecture_kana":"ホッカイドウ","city":"小樽市","city_kana":"オタルシ","town":"高島","town_kana":"タカシマ","prefecture_code":1},"0008":{"zip_code":"0470008","prefecture":"北海道","prefecture_kana":"ホッカイドウ","city":"小樽市","city_kana":"オタルシ","town":"築港","town_kana":"チッコウ","prefecture_code":1},"0041":{"zip_code":"0470041","prefecture":"北海道","prefecture_kana":"ホッカイドウ","city":"小樽市","city_kana":"オタルシ","town":"手宮","town_kana":"テミヤ","prefecture_code":1},"0012":{"zip_code":"0470012","prefecture":"北海道","prefecture_kana":"ホッカイドウ","city":"小樽市","city_kana":"オタルシ","town":"天狗山","town_kana":"テングヤマ","prefecture_code":1},"0011":{"zip_code":"0470011","prefecture":"北海道","prefecture_kana":"ホッカイドウ","city":"小樽市","city_kana":"オタルシ","town":"天神","town_kana":"テンジン","prefecture_code":1},"0033":{"zip_code":"0470033","prefecture":"北海道","prefecture_kana":"ホッカイドウ","city":"小樽市","city_kana":"オタルシ","town":"富岡","town_kana":"トミオカ","prefecture_code":1},"0043":{"zip_code":"0470043","prefecture":"北海道","prefecture_kana":"ホッカイドウ","city":"小樽市","city_kana":"オタルシ","town":"豊川町","town_kana":"トヨカワチョウ","prefecture_code":1},"0036":{"zip_code":"0470036","prefecture":"北海道","prefecture_kana":"ホッカイドウ","city":"小樽市","city_kana":"オタルシ","town":"長橋","town_kana":"ナガハシ","prefecture_code":1},"0039":{"zip_code":"0470039","prefecture":"北海道","prefecture_kana":"ホッカイドウ","city":"小樽市","city_kana":"オタルシ","town":"錦町","town_kana":"ニシキマチ","prefecture_code":1},"0016":{"zip_code":"0470016","prefecture":"北海道","prefecture_kana":"ホッカイドウ","city":"小樽市","city_kana":"オタルシ","town":"信香町","town_kana":"ノブカチョウ","prefecture_code":1},"0024":{"zip_code":"0470024","prefecture":"北海道","prefecture_kana":"ホッカイドウ","city":"小樽市","city_kana":"オタルシ","town":"花園","town_kana":"ハナゾノ","prefecture_code":1},"0266":{"zip_code":"0470266","prefecture":"北海道","prefecture_kana":"ホッカイドウ","city":"小樽市","city_kana":"オタルシ","town":"張碓町","town_kana":"ハリウスチョウ","prefecture_code":1},"0265":{"zip_code":"0470265","prefecture":"北海道","prefecture_kana":"ホッカイドウ","city":"小樽市","city_kana":"オタルシ","town":"春香町","town_kana":"ハルカチョウ","prefecture_code":1},"0157":{"zip_code":"0470157","prefecture":"北海道","prefecture_kana":"ホッカイドウ","city":"小樽市","city_kana":"オタルシ","town":"船浜町","town_kana":"フナハマチョウ","prefecture_code":1},"0155":{"zip_code":"0470155","prefecture":"北海道","prefecture_kana":"ホッカイドウ","city":"小樽市","city_kana":"オタルシ","town":"望洋台","town_kana":"ボウヨウダイ","prefecture_code":1},"0262":{"zip_code":"0470262","prefecture":"北海道","prefecture_kana":"ホッカイドウ","city":"小樽市","city_kana":"オタルシ","town":"星野町","town_kana":"ホシノチョウ","prefecture_code":1},"0003":{"zip_code":"0470003","prefecture":"北海道","prefecture_kana":"ホッカイドウ","city":"小樽市","city_kana":"オタルシ","town":"真栄","town_kana":"マサカエ","prefecture_code":1},"0022":{"zip_code":"0470022","prefecture":"北海道","prefecture_kana":"ホッカイドウ","city":"小樽市","city_kana":"オタルシ","town":"松ケ枝","town_kana":"マツガエ","prefecture_code":1},"0034":{"zip_code":"0470034","prefecture":"北海道","prefecture_kana":"ホッカイドウ","city":"小樽市","city_kana":"オタルシ","town":"緑","town_kana":"ミドリ","prefecture_code":1},"0007":{"zip_code":"0470007","prefecture":"北海道","prefecture_kana":"ホッカイドウ","city":"小樽市","city_kana":"オタルシ","town":"港町","town_kana":"ミナトマチ","prefecture_code":1},"0263":{"zip_code":"0470263","prefecture":"北海道","prefecture_kana":"ホッカイドウ","city":"小樽市","city_kana":"オタルシ","town":"見晴町","town_kana":"ミハラシチョウ","prefecture_code":1},"0023":{"zip_code":"0470023","prefecture":"北海道","prefecture_kana":"ホッカイドウ","city":"小樽市","city_kana":"オタルシ","town":"最上","town_kana":"モガミ","prefecture_code":1},"0025":{"zip_code":"0470025","prefecture":"北海道","prefecture_kana":"ホッカイドウ","city":"小樽市","city_kana":"オタルシ","town":"山田町","town_kana":"ヤマダマチ","prefecture_code":1},"0001":{"zip_code":"0470001","prefecture":"北海道","prefecture_kana":"ホッカイドウ","city":"小樽市","city_kana":"オタルシ","town":"若竹町","town_kana":"ワカタケチョウ","prefecture_code":1},"0017":{"zip_code":"0470017","prefecture":"北海道","prefecture_kana":"ホッカイドウ","city":"小樽市","city_kana":"オタルシ","town":"若松","town_kana":"ワカマツ","prefecture_code":1}}