{"0000":{"zip_code":"0550000","prefecture":"北海道","prefecture_kana":"ホッカイドウ","city":"沙流郡日高町","city_kana":"サルグンヒダカチョウ","town":"","town_kana":"","prefecture_code":1},"2303":{"zip_code":"0552303","prefecture":"北海道","prefecture_kana":"ホッカイドウ","city":"沙流郡日高町","city_kana":"サルグンヒダカチョウ","town":"栄町東","town_kana":"サカエマチヒガシ","prefecture_code":1},"2304":{"zip_code":"0552304","prefecture":"北海道","prefecture_kana":"ホッカイドウ","city":"沙流郡日高町","city_kana":"サルグンヒダカチョウ","town":"栄町西","town_kana":"サカエマチニシ","prefecture_code":1},"2305":{"zip_code":"0552305","prefecture":"北海道","prefecture_kana":"ホッカイドウ","city":"沙流郡日高町","city_kana":"サルグンヒダカチョウ","town":"新町","town_kana":"シンマチ","prefecture_code":1},"2314":{"zip_code":"0552314","prefecture":"北海道","prefecture_kana":"ホッカイドウ","city":"沙流郡日高町","city_kana":"サルグンヒダカチョウ","town":"千栄","town_kana":"チサカ","prefecture_code":1},"2315":{"zip_code":"0552315","prefecture":"北海道","prefecture_kana":"ホッカイドウ","city":"沙流郡日高町","city_kana":"サルグンヒダカチョウ","town":"富岡","town_kana":"トミオカ","prefecture_code":1},"0001":{"zip_code":"0550001","prefecture":"北海道","prefecture_kana":"ホッカイドウ","city":"沙流郡日高町","city_kana":"サルグンヒダカチョウ","town":"富川北","town_kana":"トミカワキタ","prefecture_code":1},"0008":{"zip_code":"0550008","prefecture":"北海道","prefecture_kana":"ホッカイドウ","city":"沙流郡日高町","city_kana":"サルグンヒダカチョウ","town":"富川駒丘","town_kana":"トミカワコマオカ","prefecture_code":1},"0007":{"zip_code":"0550007","prefecture":"北海道","prefecture_kana":"ホッカイドウ","city":"沙流郡日高町","city_kana":"サルグンヒダカチョウ","town":"富川西","town_kana":"トミカワニシ","prefecture_code":1},"0004":{"zip_code":"0550004","prefecture":"北海道","prefecture_kana":"ホッカイドウ","city":"沙流郡日高町","city_kana":"サルグンヒダカチョウ","town":"富川東","town_kana":"トミカワヒガシ","prefecture_code":1},"0006":{"zip_code":"0550006","prefecture":"北海道","prefecture_kana":"ホッカイドウ","city":"沙流郡日高町","city_kana":"サルグンヒダカチョウ","town":"富川南","town_kana":"トミカワミナミ","prefecture_code":1},"0005":{"zip_code":"0550005","prefecture":"北海道","prefecture_kana":"ホッカイドウ","city":"沙流郡日高町","city_kana":"サルグンヒダカチョウ","town":"富浜","town_kana":"トミハマ","prefecture_code":1},"2311":{"zip_code":"0552311","prefecture":"北海道","prefecture_kana":"ホッカイドウ","city":"沙流郡日高町","city_kana":"サルグンヒダカチョウ","town":"日高１区","town_kana":"ヒダカ1ク","prefecture_code":1},"2312":{"zip_code":"0552312","prefecture":"北海道","prefecture_kana":"ホッカイドウ","city":"沙流郡日高町","city_kana":"サルグンヒダカチョウ","town":"日高２区","town_kana":"ヒダカ2ク","prefecture_code":1},"2313":{"zip_code":"0552313","prefecture":"北海道","prefecture_kana":"ホッカイドウ","city":"沙流郡日高町","city_kana":"サルグンヒダカチョウ","town":"日高３区","town_kana":"ヒダカ3ク","prefecture_code":1},"0002":{"zip_code":"0550002","prefecture":"北海道","prefecture_kana":"ホッカイドウ","city":"沙流郡日高町","city_kana":"サルグンヒダカチョウ","town":"平賀","town_kana":"ビラガ","prefecture_code":1},"0003":{"zip_code":"0550003","prefecture":"北海道","prefecture_kana":"ホッカイドウ","city":"沙流郡日高町","city_kana":"サルグンヒダカチョウ","town":"福満","town_kana":"フクミツ","prefecture_code":1},"2301":{"zip_code":"0552301","prefecture":"北海道","prefecture_kana":"ホッカイドウ","city":"沙流郡日高町","city_kana":"サルグンヒダカチョウ","town":"本町東","town_kana":"ホンチョウヒガシ","prefecture_code":1},"2302":{"zip_code":"0552302","prefecture":"北海道","prefecture_kana":"ホッカイドウ","city":"沙流郡日高町","city_kana":"サルグンヒダカチョウ","town":"本町西","town_kana":"ホンチョウニシ","prefecture_code":1},"2307":{"zip_code":"0552307","prefecture":"北海道","prefecture_kana":"ホッカイドウ","city":"沙流郡日高町","city_kana":"サルグンヒダカチョウ","town":"松風町","town_kana":"マツカゼチョウ","prefecture_code":1},"2316":{"zip_code":"0552316","prefecture":"北海道","prefecture_kana":"ホッカイドウ","city":"沙流郡日高町","city_kana":"サルグンヒダカチョウ","town":"三岩","town_kana":"ミツイワ","prefecture_code":1},"2306":{"zip_code":"0552306","prefecture":"北海道","prefecture_kana":"ホッカイドウ","city":"沙流郡日高町","city_kana":"サルグンヒダカチョウ","town":"宮下町","town_kana":"ミヤシタチョウ","prefecture_code":1},"2308":{"zip_code":"0552308","prefecture":"北海道","prefecture_kana":"ホッカイドウ","city":"沙流郡日高町","city_kana":"サルグンヒダカチョウ","town":"山手町","town_kana":"ヤマテチョウ","prefecture_code":1},"2309":{"zip_code":"0552309","prefecture":"北海道","prefecture_kana":"ホッカイドウ","city":"沙流郡日高町","city_kana":"サルグンヒダカチョウ","town":"若葉町","town_kana":"ワカバチョウ","prefecture_code":1},"0100":{"zip_code":"0550100","prefecture":"北海道","prefecture_kana":"ホッカイドウ","city":"沙流郡平取町","city_kana":"サルグンビラトリチョウ","town":"","town_kana":"","prefecture_code":1},"0322":{"zip_code":"0550322","prefecture":"北海道","prefecture_kana":"ホッカイドウ","city":"沙流郡平取町","city_kana":"サルグンビラトリチョウ","town":"旭","town_kana":"アサヒ","prefecture_code":1},"0414":{"zip_code":"0550414","prefecture":"北海道","prefecture_kana":"ホッカイドウ","city":"沙流郡平取町","city_kana":"サルグンビラトリチョウ","town":"岩知志","town_kana":"イワチシ","prefecture_code":1},"0325":{"zip_code":"0550325","prefecture":"北海道","prefecture_kana":"ホッカイドウ","city":"沙流郡平取町","city_kana":"サルグンビラトリチョウ","town":"長知内","town_kana":"オサチナイ","prefecture_code":1},"0103":{"zip_code":"0550103","prefecture":"北海道","prefecture_kana":"ホッカイドウ","city":"沙流郡平取町","city_kana":"サルグンビラトリチョウ","town":"川向","town_kana":"カワムカイ","prefecture_code":1},"0102":{"zip_code":"0550102","prefecture":"北海道","prefecture_kana":"ホッカイドウ","city":"沙流郡平取町","city_kana":"サルグンビラトリチョウ","town":"小平","town_kana":"コビラ","prefecture_code":1},"0105":{"zip_code":"0550105","prefecture":"北海道","prefecture_kana":"ホッカイドウ","city":"沙流郡平取町","city_kana":"サルグンビラトリチョウ","town":"去場","town_kana":"サルバ","prefecture_code":1},"0104":{"zip_code":"0550104","prefecture":"北海道","prefecture_kana":"ホッカイドウ","city":"沙流郡平取町","city_kana":"サルグンビラトリチョウ","town":"紫雲古津","town_kana":"シウンコツ","prefecture_code":1},"0415":{"zip_code":"0550415","prefecture":"北海道","prefecture_kana":"ホッカイドウ","city":"沙流郡平取町","city_kana":"サルグンビラトリチョウ","town":"豊糠","town_kana":"トヨヌカ","prefecture_code":1},"0324":{"zip_code":"0550324","prefecture":"北海道","prefecture_kana":"ホッカイドウ","city":"沙流郡平取町","city_kana":"サルグンビラトリチョウ","town":"荷負","town_kana":"ニオイ","prefecture_code":1},"0413":{"zip_code":"0550413","prefecture":"北海道","prefecture_kana":"ホッカイドウ","city":"沙流郡平取町","city_kana":"サルグンビラトリチョウ","town":"仁世宇","town_kana":"ニセウ","prefecture_code":1},"0106":{"zip_code":"0550106","prefecture":"北海道","prefecture_kana":"ホッカイドウ","city":"沙流郡平取町","city_kana":"サルグンビラトリチョウ","town":"荷菜","town_kana":"ニナ","prefecture_code":1},"0101":{"zip_code":"0550101","prefecture":"北海道","prefecture_kana":"ホッカイドウ","city":"沙流郡平取町","city_kana":"サルグンビラトリチョウ","town":"二風谷","town_kana":"ニブタニ","prefecture_code":1},"0321":{"zip_code":"0550321","prefecture":"北海道","prefecture_kana":"ホッカイドウ","city":"沙流郡平取町","city_kana":"サルグンビラトリチョウ","town":"貫気別","town_kana":"ヌキベツ","prefecture_code":1},"0411":{"zip_code":"0550411","prefecture":"北海道","prefecture_kana":"ホッカイドウ","city":"沙流郡平取町","city_kana":"サルグンビラトリチョウ","town":"振内町","town_kana":"フレナイチョウ","prefecture_code":1},"0412":{"zip_code":"0550412","prefecture":"北海道","prefecture_kana":"ホッカイドウ","city":"沙流郡平取町","city_kana":"サルグンビラトリチョウ","town":"幌毛志","town_kana":"ホロケシ","prefecture_code":1},"0107":{"zip_code":"0550107","prefecture":"北海道","prefecture_kana":"ホッカイドウ","city":"沙流郡平取町","city_kana":"サルグンビラトリチョウ","town":"本町","town_kana":"ホンチョウ","prefecture_code":1},"0323":{"zip_code":"0550323","prefecture":"北海道","prefecture_kana":"ホッカイドウ","city":"沙流郡平取町","city_kana":"サルグンビラトリチョウ","town":"芽生","town_kana":"メム","prefecture_code":1}}