{"0000":{"zip_code":"0570000","prefecture":"北海道","prefecture_kana":"ホッカイドウ","city":"浦河郡浦河町","city_kana":"ウラカワグンウラカワチョウ","town":"以下に掲載がない場合","town_kana":"イカニケイサイガナイバアイ","prefecture_code":1},"0011":{"zip_code":"0570011","prefecture":"北海道","prefecture_kana":"ホッカイドウ","city":"浦河郡浦河町","city_kana":"ウラカワグンウラカワチョウ","town":"旭町","town_kana":"アサヒチョウ","prefecture_code":1},"0035":{"zip_code":"0570035","prefecture":"北海道","prefecture_kana":"ホッカイドウ","city":"浦河郡浦河町","city_kana":"ウラカワグンウラカワチョウ","town":"井寒台","town_kana":"イカンタイ","prefecture_code":1},"0014":{"zip_code":"0570014","prefecture":"北海道","prefecture_kana":"ホッカイドウ","city":"浦河郡浦河町","city_kana":"ウラカワグンウラカワチョウ","town":"入船町","town_kana":"イリフネチョウ","prefecture_code":1},"0036":{"zip_code":"0570036","prefecture":"北海道","prefecture_kana":"ホッカイドウ","city":"浦河郡浦河町","city_kana":"ウラカワグンウラカワチョウ","town":"絵笛","town_kana":"エブエ","prefecture_code":1},"0013":{"zip_code":"0570013","prefecture":"北海道","prefecture_kana":"ホッカイドウ","city":"浦河郡浦河町","city_kana":"ウラカワグンウラカワチョウ","town":"大通","town_kana":"オオドオリ","prefecture_code":1},"0173":{"zip_code":"0570173","prefecture":"北海道","prefecture_kana":"ホッカイドウ","city":"浦河郡浦河町","city_kana":"ウラカワグンウラカワチョウ","town":"上杵臼","town_kana":"カミキネウス","prefecture_code":1},"0174":{"zip_code":"0570174","prefecture":"北海道","prefecture_kana":"ホッカイドウ","city":"浦河郡浦河町","city_kana":"ウラカワグンウラカワチョウ","town":"上西舎","town_kana":"カミニシチャ","prefecture_code":1},"0027":{"zip_code":"0570027","prefecture":"北海道","prefecture_kana":"ホッカイドウ","city":"浦河郡浦河町","city_kana":"ウラカワグンウラカワチョウ","town":"上向別","town_kana":"カミムコウベツ","prefecture_code":1},"0172":{"zip_code":"0570172","prefecture":"北海道","prefecture_kana":"ホッカイドウ","city":"浦河郡浦河町","city_kana":"ウラカワグンウラカワチョウ","town":"杵臼","town_kana":"キネウス","prefecture_code":1},"0033":{"zip_code":"0570033","prefecture":"北海道","prefecture_kana":"ホッカイドウ","city":"浦河郡浦河町","city_kana":"ウラカワグンウラカワチョウ","town":"堺町東","town_kana":"サカイマチヒガシ","prefecture_code":1},"0034":{"zip_code":"0570034","prefecture":"北海道","prefecture_kana":"ホッカイドウ","city":"浦河郡浦河町","city_kana":"ウラカワグンウラカワチョウ","town":"堺町西","town_kana":"サカイマチニシ","prefecture_code":1},"0023":{"zip_code":"0570023","prefecture":"北海道","prefecture_kana":"ホッカイドウ","city":"浦河郡浦河町","city_kana":"ウラカワグンウラカワチョウ","town":"栄丘","town_kana":"サカエオカ","prefecture_code":1},"0021":{"zip_code":"0570021","prefecture":"北海道","prefecture_kana":"ホッカイドウ","city":"浦河郡浦河町","city_kana":"ウラカワグンウラカワチョウ","town":"潮見町","town_kana":"シオミチョウ","prefecture_code":1},"0022":{"zip_code":"0570022","prefecture":"北海道","prefecture_kana":"ホッカイドウ","city":"浦河郡浦河町","city_kana":"ウラカワグンウラカワチョウ","town":"昌平町","town_kana":"ショウヘイチョウ","prefecture_code":1},"0003":{"zip_code":"0570003","prefecture":"北海道","prefecture_kana":"ホッカイドウ","city":"浦河郡浦河町","city_kana":"ウラカワグンウラカワチョウ","town":"白泉","town_kana":"シロイズミ","prefecture_code":1},"0004":{"zip_code":"0570004","prefecture":"北海道","prefecture_kana":"ホッカイドウ","city":"浦河郡浦河町","city_kana":"ウラカワグンウラカワチョウ","town":"月寒","town_kana":"ツキサップ","prefecture_code":1},"0024":{"zip_code":"0570024","prefecture":"北海道","prefecture_kana":"ホッカイドウ","city":"浦河郡浦河町","city_kana":"ウラカワグンウラカワチョウ","town":"築地","town_kana":"ツキジ","prefecture_code":1},"0012":{"zip_code":"0570012","prefecture":"北海道","prefecture_kana":"ホッカイドウ","city":"浦河郡浦河町","city_kana":"ウラカワグンウラカワチョウ","town":"常盤町","town_kana":"トキワチョウ","prefecture_code":1},"0171":{"zip_code":"0570171","prefecture":"北海道","prefecture_kana":"ホッカイドウ","city":"浦河郡浦河町","city_kana":"ウラカワグンウラカワチョウ","town":"西舎","town_kana":"ニシチャ","prefecture_code":1},"0002":{"zip_code":"0570002","prefecture":"北海道","prefecture_kana":"ホッカイドウ","city":"浦河郡浦河町","city_kana":"ウラカワグンウラカワチョウ","town":"西幌別","town_kana":"ニシホロベツ","prefecture_code":1},"0015":{"zip_code":"0570015","prefecture":"北海道","prefecture_kana":"ホッカイドウ","city":"浦河郡浦河町","city_kana":"ウラカワグンウラカワチョウ","town":"浜町","town_kana":"ハマチョウ","prefecture_code":1},"0005":{"zip_code":"0570005","prefecture":"北海道","prefecture_kana":"ホッカイドウ","city":"浦河郡浦河町","city_kana":"ウラカワグンウラカワチョウ","town":"東町うしお","town_kana":"ヒガシチョウウシオ","prefecture_code":1},"0006":{"zip_code":"0570006","prefecture":"北海道","prefecture_kana":"ホッカイドウ","city":"浦河郡浦河町","city_kana":"ウラカワグンウラカワチョウ","town":"東町かしわ","town_kana":"ヒガシチョウカシワ","prefecture_code":1},"0007":{"zip_code":"0570007","prefecture":"北海道","prefecture_kana":"ホッカイドウ","city":"浦河郡浦河町","city_kana":"ウラカワグンウラカワチョウ","town":"東町ちのみ","town_kana":"ヒガシチョウチノミ","prefecture_code":1},"0001":{"zip_code":"0570001","prefecture":"北海道","prefecture_kana":"ホッカイドウ","city":"浦河郡浦河町","city_kana":"ウラカワグンウラカワチョウ","town":"東幌別（１〜１３１番地）","town_kana":"ヒガシホロベツ(1-131バンチ)","prefecture_code":1},"0025":{"zip_code":"0570025","prefecture":"北海道","prefecture_kana":"ホッカイドウ","city":"浦河郡浦河町","city_kana":"ウラカワグンウラカワチョウ","town":"緑町","town_kana":"ミドリマチ","prefecture_code":1},"0031":{"zip_code":"0570031","prefecture":"北海道","prefecture_kana":"ホッカイドウ","city":"浦河郡浦河町","city_kana":"ウラカワグンウラカワチョウ","town":"向が丘東","town_kana":"ムコウガオカヒガシ","prefecture_code":1},"0032":{"zip_code":"0570032","prefecture":"北海道","prefecture_kana":"ホッカイドウ","city":"浦河郡浦河町","city_kana":"ウラカワグンウラカワチョウ","town":"向が丘西","town_kana":"ムコウガオカニシ","prefecture_code":1},"0026":{"zip_code":"0570026","prefecture":"北海道","prefecture_kana":"ホッカイドウ","city":"浦河郡浦河町","city_kana":"ウラカワグンウラカワチョウ","town":"向別","town_kana":"ムコウベツ","prefecture_code":1}}