{"1366":{"zip_code":"0591366","prefecture":"北海道","prefecture_kana":"ホッカイドウ","city":"苫小牧市","city_kana":"トマコマイシ","town":"あけぼの町","town_kana":"アケボノチョウ","prefecture_code":1},"1375":{"zip_code":"0591375","prefecture":"北海道","prefecture_kana":"ホッカイドウ","city":"苫小牧市","city_kana":"トマコマイシ","town":"一本松町","town_kana":"イッポンマツチョウ","prefecture_code":1},"1365":{"zip_code":"0591365","prefecture":"北海道","prefecture_kana":"ホッカイドウ","city":"苫小牧市","city_kana":"トマコマイシ","town":"植苗","town_kana":"ウエナエ","prefecture_code":1},"1362":{"zip_code":"0591362","prefecture":"北海道","prefecture_kana":"ホッカイドウ","city":"苫小牧市","city_kana":"トマコマイシ","town":"柏原","town_kana":"カシワバラ","prefecture_code":1},"1363":{"zip_code":"0591363","prefecture":"北海道","prefecture_kana":"ホッカイドウ","city":"苫小牧市","city_kana":"トマコマイシ","town":"静川","town_kana":"シズカワ","prefecture_code":1},"1271":{"zip_code":"0591271","prefecture":"北海道","prefecture_kana":"ホッカイドウ","city":"苫小牧市","city_kana":"トマコマイシ","town":"澄川町","town_kana":"スミカワチョウ","prefecture_code":1},"1263":{"zip_code":"0591263","prefecture":"北海道","prefecture_kana":"ホッカイドウ","city":"苫小牧市","city_kana":"トマコマイシ","town":"青雲町","town_kana":"セイウンチョウ","prefecture_code":1},"1302":{"zip_code":"0591302","prefecture":"北海道","prefecture_kana":"ホッカイドウ","city":"苫小牧市","city_kana":"トマコマイシ","town":"拓勇西町","town_kana":"タクユウニシマチ","prefecture_code":1},"1303":{"zip_code":"0591303","prefecture":"北海道","prefecture_kana":"ホッカイドウ","city":"苫小牧市","city_kana":"トマコマイシ","town":"拓勇東町","town_kana":"タクユウヒガシマチ","prefecture_code":1},"1265":{"zip_code":"0591265","prefecture":"北海道","prefecture_kana":"ホッカイドウ","city":"苫小牧市","city_kana":"トマコマイシ","town":"樽前","town_kana":"タルマエ","prefecture_code":1},"1301":{"zip_code":"0591301","prefecture":"北海道","prefecture_kana":"ホッカイドウ","city":"苫小牧市","city_kana":"トマコマイシ","town":"東開町","town_kana":"トウカイチョウ","prefecture_code":1},"1261":{"zip_code":"0591261","prefecture":"北海道","prefecture_kana":"ホッカイドウ","city":"苫小牧市","city_kana":"トマコマイシ","town":"ときわ町","town_kana":"トキワチョウ","prefecture_code":1},"1275":{"zip_code":"0591275","prefecture":"北海道","prefecture_kana":"ホッカイドウ","city":"苫小牧市","city_kana":"トマコマイシ","town":"錦岡","town_kana":"ニシキオカ","prefecture_code":1},"1364":{"zip_code":"0591364","prefecture":"北海道","prefecture_kana":"ホッカイドウ","city":"苫小牧市","city_kana":"トマコマイシ","town":"沼ノ端","town_kana":"ヌマノハタ","prefecture_code":1},"1305":{"zip_code":"0591305","prefecture":"北海道","prefecture_kana":"ホッカイドウ","city":"苫小牧市","city_kana":"トマコマイシ","town":"沼ノ端中央","town_kana":"ヌマノハタチュウオウ","prefecture_code":1},"1272":{"zip_code":"0591272","prefecture":"北海道","prefecture_kana":"ホッカイドウ","city":"苫小牧市","city_kana":"トマコマイシ","town":"のぞみ町","town_kana":"ノゾミチョウ","prefecture_code":1},"1276":{"zip_code":"0591276","prefecture":"北海道","prefecture_kana":"ホッカイドウ","city":"苫小牧市","city_kana":"トマコマイシ","town":"はまなす町","town_kana":"ハマナスチョウ","prefecture_code":1},"1374":{"zip_code":"0591374","prefecture":"北海道","prefecture_kana":"ホッカイドウ","city":"苫小牧市","city_kana":"トマコマイシ","town":"晴海町","town_kana":"ハルミチョウ","prefecture_code":1},"1371":{"zip_code":"0591371","prefecture":"北海道","prefecture_kana":"ホッカイドウ","city":"苫小牧市","city_kana":"トマコマイシ","town":"弁天","town_kana":"ベンテン","prefecture_code":1},"1304":{"zip_code":"0591304","prefecture":"北海道","prefecture_kana":"ホッカイドウ","city":"苫小牧市","city_kana":"トマコマイシ","town":"北栄町","town_kana":"ホクエイチョウ","prefecture_code":1},"1373":{"zip_code":"0591373","prefecture":"北海道","prefecture_kana":"ホッカイドウ","city":"苫小牧市","city_kana":"トマコマイシ","town":"真砂町","town_kana":"マサゴチョウ","prefecture_code":1},"1361":{"zip_code":"0591361","prefecture":"北海道","prefecture_kana":"ホッカイドウ","city":"苫小牧市","city_kana":"トマコマイシ","town":"美沢","town_kana":"ミサワ","prefecture_code":1},"1262":{"zip_code":"0591262","prefecture":"北海道","prefecture_kana":"ホッカイドウ","city":"苫小牧市","city_kana":"トマコマイシ","town":"美原町","town_kana":"ミハラマチ","prefecture_code":1},"1264":{"zip_code":"0591264","prefecture":"北海道","prefecture_kana":"ホッカイドウ","city":"苫小牧市","city_kana":"トマコマイシ","town":"宮前町","town_kana":"ミヤマエチョウ","prefecture_code":1},"1273":{"zip_code":"0591273","prefecture":"北海道","prefecture_kana":"ホッカイドウ","city":"苫小牧市","city_kana":"トマコマイシ","town":"明徳町","town_kana":"メイトクチョウ","prefecture_code":1},"1274":{"zip_code":"0591274","prefecture":"北海道","prefecture_kana":"ホッカイドウ","city":"苫小牧市","city_kana":"トマコマイシ","town":"もえぎ町","town_kana":"モエギチョウ","prefecture_code":1},"1372":{"zip_code":"0591372","prefecture":"北海道","prefecture_kana":"ホッカイドウ","city":"苫小牧市","city_kana":"トマコマイシ","town":"勇払","town_kana":"ユウフツ","prefecture_code":1},"0000":{"zip_code":"0590000","prefecture":"北海道","prefecture_kana":"ホッカイドウ","city":"登別市","city_kana":"ノボリベツシ","town":"","town_kana":"","prefecture_code":1},"0027":{"zip_code":"0590027","prefecture":"北海道","prefecture_kana":"ホッカイドウ","city":"登別市","city_kana":"ノボリベツシ","town":"青葉町","town_kana":"アオバチョウ","prefecture_code":1},"0017":{"zip_code":"0590017","prefecture":"北海道","prefecture_kana":"ホッカイドウ","city":"登別市","city_kana":"ノボリベツシ","town":"柏木町","town_kana":"カシワギチョウ","prefecture_code":1},"0016":{"zip_code":"0590016","prefecture":"北海道","prefecture_kana":"ホッカイドウ","city":"登別市","city_kana":"ノボリベツシ","town":"片倉町","town_kana":"カタクラチョウ","prefecture_code":1},"0552":{"zip_code":"0590552","prefecture":"北海道","prefecture_kana":"ホッカイドウ","city":"登別市","city_kana":"ノボリベツシ","town":"上登別町","town_kana":"カミノボリベツチョウ","prefecture_code":1},"0031":{"zip_code":"0590031","prefecture":"北海道","prefecture_kana":"ホッカイドウ","city":"登別市","city_kana":"ノボリベツシ","town":"上鷲別町","town_kana":"カミワシベツチョウ","prefecture_code":1},"0553":{"zip_code":"0590553","prefecture":"北海道","prefecture_kana":"ホッカイドウ","city":"登別市","city_kana":"ノボリベツシ","town":"カルルス町","town_kana":"カルルスチョウ","prefecture_code":1},"0022":{"zip_code":"0590022","prefecture":"北海道","prefecture_kana":"ホッカイドウ","city":"登別市","city_kana":"ノボリベツシ","town":"川上町","town_kana":"カワカミチョウ","prefecture_code":1},"0021":{"zip_code":"0590021","prefecture":"北海道","prefecture_kana":"ホッカイドウ","city":"登別市","city_kana":"ノボリベツシ","town":"鉱山町","town_kana":"コウザンチョウ","prefecture_code":1},"0002":{"zip_code":"0590002","prefecture":"北海道","prefecture_kana":"ホッカイドウ","city":"登別市","city_kana":"ノボリベツシ","town":"幸町","town_kana":"サイワイチョウ","prefecture_code":1},"0033":{"zip_code":"0590033","prefecture":"北海道","prefecture_kana":"ホッカイドウ","city":"登別市","city_kana":"ノボリベツシ","town":"栄町","town_kana":"サカエチョウ","prefecture_code":1},"0023":{"zip_code":"0590023","prefecture":"北海道","prefecture_kana":"ホッカイドウ","city":"登別市","city_kana":"ノボリベツシ","town":"桜木町","town_kana":"サクラギチョウ","prefecture_code":1},"0005":{"zip_code":"0590005","prefecture":"北海道","prefecture_kana":"ホッカイドウ","city":"登別市","city_kana":"ノボリベツシ","town":"札内町","town_kana":"サツナイチョウ","prefecture_code":1},"0461":{"zip_code":"0590461","prefecture":"北海道","prefecture_kana":"ホッカイドウ","city":"登別市","city_kana":"ノボリベツシ","town":"札内町","town_kana":"サツナイチョウ","prefecture_code":1},"0001":{"zip_code":"0590001","prefecture":"北海道","prefecture_kana":"ホッカイドウ","city":"登別市","city_kana":"ノボリベツシ","town":"新栄町","town_kana":"シンエイチョウ","prefecture_code":1},"0015":{"zip_code":"0590015","prefecture":"北海道","prefecture_kana":"ホッカイドウ","city":"登別市","city_kana":"ノボリベツシ","town":"新川町","town_kana":"シンカワチョウ","prefecture_code":1},"0032":{"zip_code":"0590032","prefecture":"北海道","prefecture_kana":"ホッカイドウ","city":"登別市","city_kana":"ノボリベツシ","town":"新生町","town_kana":"シンセイチョウ","prefecture_code":1},"0003":{"zip_code":"0590003","prefecture":"北海道","prefecture_kana":"ホッカイドウ","city":"登別市","city_kana":"ノボリベツシ","town":"千歳町","town_kana":"チトセチョウ","prefecture_code":1},"0012":{"zip_code":"0590012","prefecture":"北海道","prefecture_kana":"ホッカイドウ","city":"登別市","city_kana":"ノボリベツシ","town":"中央町","town_kana":"チュウオウチョウ","prefecture_code":1},"0011":{"zip_code":"0590011","prefecture":"北海道","prefecture_kana":"ホッカイドウ","city":"登別市","city_kana":"ノボリベツシ","town":"常盤町","town_kana":"トキワチョウ","prefecture_code":1},"0462":{"zip_code":"0590462","prefecture":"北海道","prefecture_kana":"ホッカイドウ","city":"登別市","city_kana":"ノボリベツシ","town":"富浦町","town_kana":"トミウラチョウ","prefecture_code":1},"0028":{"zip_code":"0590028","prefecture":"北海道","prefecture_kana":"ホッカイドウ","city":"登別市","city_kana":"ノボリベツシ","town":"富岸町","town_kana":"トンケシチョウ","prefecture_code":1},"0463":{"zip_code":"0590463","prefecture":"北海道","prefecture_kana":"ホッカイドウ","city":"登別市","city_kana":"ノボリベツシ","town":"中登別町","town_kana":"ナカノボリベツチョウ","prefecture_code":1},"0551":{"zip_code":"0590551","prefecture":"北海道","prefecture_kana":"ホッカイドウ","city":"登別市","city_kana":"ノボリベツシ","town":"登別温泉町","town_kana":"ノボリベツオンセンチョウ","prefecture_code":1},"0464":{"zip_code":"0590464","prefecture":"北海道","prefecture_kana":"ホッカイドウ","city":"登別市","city_kana":"ノボリベツシ","town":"登別東町","town_kana":"ノボリベツヒガシチョウ","prefecture_code":1},"0465":{"zip_code":"0590465","prefecture":"北海道","prefecture_kana":"ホッカイドウ","city":"登別市","city_kana":"ノボリベツシ","town":"登別本町","town_kana":"ノボリベツホンチョウ","prefecture_code":1},"0466":{"zip_code":"0590466","prefecture":"北海道","prefecture_kana":"ホッカイドウ","city":"登別市","city_kana":"ノボリベツシ","town":"登別港町","town_kana":"ノボリベツミナトチョウ","prefecture_code":1},"0014":{"zip_code":"0590014","prefecture":"北海道","prefecture_kana":"ホッカイドウ","city":"登別市","city_kana":"ノボリベツシ","town":"富士町","town_kana":"フジチョウ","prefecture_code":1},"0013":{"zip_code":"0590013","prefecture":"北海道","prefecture_kana":"ホッカイドウ","city":"登別市","city_kana":"ノボリベツシ","town":"幌別町","town_kana":"ホロベツチョウ","prefecture_code":1},"0036":{"zip_code":"0590036","prefecture":"北海道","prefecture_kana":"ホッカイドウ","city":"登別市","city_kana":"ノボリベツシ","town":"美園町","town_kana":"ミソノチョウ","prefecture_code":1},"0024":{"zip_code":"0590024","prefecture":"北海道","prefecture_kana":"ホッカイドウ","city":"登別市","city_kana":"ノボリベツシ","town":"緑町","town_kana":"ミドリチョウ","prefecture_code":1},"0025":{"zip_code":"0590025","prefecture":"北海道","prefecture_kana":"ホッカイドウ","city":"登別市","city_kana":"ノボリベツシ","town":"大和町","town_kana":"ヤマトチョウ","prefecture_code":1},"0004":{"zip_code":"0590004","prefecture":"北海道","prefecture_kana":"ホッカイドウ","city":"登別市","city_kana":"ノボリベツシ","town":"来馬町","town_kana":"ライバチョウ","prefecture_code":1},"0035":{"zip_code":"0590035","prefecture":"北海道","prefecture_kana":"ホッカイドウ","city":"登別市","city_kana":"ノボリベツシ","town":"若草町","town_kana":"ワカクサチョウ","prefecture_code":1},"0026":{"zip_code":"0590026","prefecture":"北海道","prefecture_kana":"ホッカイドウ","city":"登別市","city_kana":"ノボリベツシ","town":"若山町","town_kana":"ワカヤマチョウ","prefecture_code":1},"0034":{"zip_code":"0590034","prefecture":"北海道","prefecture_kana":"ホッカイドウ","city":"登別市","city_kana":"ノボリベツシ","town":"鷲別町","town_kana":"ワシベツチョウ","prefecture_code":1},"0151":{"zip_code":"0590151","prefecture":"北海道","prefecture_kana":"ホッカイドウ","city":"伊達市","city_kana":"ダテシ","town":"有珠町","town_kana":"ウスチョウ","prefecture_code":1},"0153":{"zip_code":"0590153","prefecture":"北海道","prefecture_kana":"ホッカイドウ","city":"伊達市","city_kana":"ダテシ","town":"大平町","town_kana":"オオダイラチョウ","prefecture_code":1},"0152":{"zip_code":"0590152","prefecture":"北海道","prefecture_kana":"ホッカイドウ","city":"伊達市","city_kana":"ダテシ","town":"北有珠町","town_kana":"キタウスチョウ","prefecture_code":1},"0272":{"zip_code":"0590272","prefecture":"北海道","prefecture_kana":"ホッカイドウ","city":"伊達市","city_kana":"ダテシ","town":"北黄金町","town_kana":"キタコガネチョウ","prefecture_code":1},"0275":{"zip_code":"0590275","prefecture":"北海道","prefecture_kana":"ホッカイドウ","city":"伊達市","city_kana":"ダテシ","town":"北稀府町","town_kana":"キタマレフチョウ","prefecture_code":1},"0274":{"zip_code":"0590274","prefecture":"北海道","prefecture_kana":"ホッカイドウ","city":"伊達市","city_kana":"ダテシ","town":"中稀府町","town_kana":"ナカマレフチョウ","prefecture_code":1},"0154":{"zip_code":"0590154","prefecture":"北海道","prefecture_kana":"ホッカイドウ","city":"伊達市","city_kana":"ダテシ","town":"東有珠町","town_kana":"ヒガシウスチョウ","prefecture_code":1},"0156":{"zip_code":"0590156","prefecture":"北海道","prefecture_kana":"ホッカイドウ","city":"伊達市","city_kana":"ダテシ","town":"南有珠町","town_kana":"ミナミウスチョウ","prefecture_code":1},"0271":{"zip_code":"0590271","prefecture":"北海道","prefecture_kana":"ホッカイドウ","city":"伊達市","city_kana":"ダテシ","town":"南黄金町","town_kana":"ミナミコガネチョウ","prefecture_code":1},"0273":{"zip_code":"0590273","prefecture":"北海道","prefecture_kana":"ホッカイドウ","city":"伊達市","city_kana":"ダテシ","town":"南稀府町","town_kana":"ミナミマレフチョウ","prefecture_code":1},"0157":{"zip_code":"0590157","prefecture":"北海道","prefecture_kana":"ホッカイドウ","city":"伊達市","city_kana":"ダテシ","town":"向有珠町","town_kana":"ムカイウスチョウ","prefecture_code":1},"0155":{"zip_code":"0590155","prefecture":"北海道","prefecture_kana":"ホッカイドウ","city":"伊達市","city_kana":"ダテシ","town":"若生町","town_kana":"ワッカオイチョウ","prefecture_code":1},"0900":{"zip_code":"0590900","prefecture":"北海道","prefecture_kana":"ホッカイドウ","city":"白老郡白老町","city_kana":"シラオイグンシラオイチョウ","town":"","town_kana":"","prefecture_code":1},"0921":{"zip_code":"0590921","prefecture":"北海道","prefecture_kana":"ホッカイドウ","city":"白老郡白老町","city_kana":"シラオイグンシラオイチョウ","town":"石山","town_kana":"イシヤマ","prefecture_code":1},"0905":{"zip_code":"0590905","prefecture":"北海道","prefecture_kana":"ホッカイドウ","city":"白老郡白老町","city_kana":"シラオイグンシラオイチョウ","town":"大町","town_kana":"オオマチ","prefecture_code":1},"0915":{"zip_code":"0590915","prefecture":"北海道","prefecture_kana":"ホッカイドウ","city":"白老郡白老町","city_kana":"シラオイグンシラオイチョウ","town":"川沿","town_kana":"カワゾエ","prefecture_code":1},"0923":{"zip_code":"0590923","prefecture":"北海道","prefecture_kana":"ホッカイドウ","city":"白老郡白老町","city_kana":"シラオイグンシラオイチョウ","town":"北吉原","town_kana":"キタヨシハラ","prefecture_code":1},"0641":{"zip_code":"0590641","prefecture":"北海道","prefecture_kana":"ホッカイドウ","city":"白老郡白老町","city_kana":"シラオイグンシラオイチョウ","town":"虎杖浜","town_kana":"コジョウハマ","prefecture_code":1},"0914":{"zip_code":"0590914","prefecture":"北海道","prefecture_kana":"ホッカイドウ","city":"白老郡白老町","city_kana":"シラオイグンシラオイチョウ","town":"栄町","town_kana":"サカエマチ","prefecture_code":1},"0901":{"zip_code":"0590901","prefecture":"北海道","prefecture_kana":"ホッカイドウ","city":"白老郡白老町","city_kana":"シラオイグンシラオイチョウ","town":"社台","town_kana":"シャダイ","prefecture_code":1},"0912":{"zip_code":"0590912","prefecture":"北海道","prefecture_kana":"ホッカイドウ","city":"白老郡白老町","city_kana":"シラオイグンシラオイチョウ","town":"陣屋町","town_kana":"ジンヤマチ","prefecture_code":1},"0907":{"zip_code":"0590907","prefecture":"北海道","prefecture_kana":"ホッカイドウ","city":"白老郡白老町","city_kana":"シラオイグンシラオイチョウ","town":"末広町","town_kana":"スエヒロチョウ","prefecture_code":1},"0916":{"zip_code":"0590916","prefecture":"北海道","prefecture_kana":"ホッカイドウ","city":"白老郡白老町","city_kana":"シラオイグンシラオイチョウ","town":"高砂町","town_kana":"タカサゴチョウ","prefecture_code":1},"0642":{"zip_code":"0590642","prefecture":"北海道","prefecture_kana":"ホッカイドウ","city":"白老郡白老町","city_kana":"シラオイグンシラオイチョウ","town":"竹浦","town_kana":"タケウラ","prefecture_code":1},"0922":{"zip_code":"0590922","prefecture":"北海道","prefecture_kana":"ホッカイドウ","city":"白老郡白老町","city_kana":"シラオイグンシラオイチョウ","town":"萩野","town_kana":"ハギノ","prefecture_code":1},"0904":{"zip_code":"0590904","prefecture":"北海道","prefecture_kana":"ホッカイドウ","city":"白老郡白老町","city_kana":"シラオイグンシラオイチョウ","town":"東町","town_kana":"ヒガシマチ","prefecture_code":1},"0903":{"zip_code":"0590903","prefecture":"北海道","prefecture_kana":"ホッカイドウ","city":"白老郡白老町","city_kana":"シラオイグンシラオイチョウ","town":"日の出町","town_kana":"ヒノデチョウ","prefecture_code":1},"0906":{"zip_code":"0590906","prefecture":"北海道","prefecture_kana":"ホッカイドウ","city":"白老郡白老町","city_kana":"シラオイグンシラオイチョウ","town":"本町","town_kana":"ホンチョウ","prefecture_code":1},"0908":{"zip_code":"0590908","prefecture":"北海道","prefecture_kana":"ホッカイドウ","city":"白老郡白老町","city_kana":"シラオイグンシラオイチョウ","town":"緑丘","town_kana":"ミドリガオカ","prefecture_code":1},"0913":{"zip_code":"0590913","prefecture":"北海道","prefecture_kana":"ホッカイドウ","city":"白老郡白老町","city_kana":"シラオイグンシラオイチョウ","town":"緑町","town_kana":"ミドリマチ","prefecture_code":1},"0911":{"zip_code":"0590911","prefecture":"北海道","prefecture_kana":"ホッカイドウ","city":"白老郡白老町","city_kana":"シラオイグンシラオイチョウ","town":"森野","town_kana":"モリノ","prefecture_code":1},"0902":{"zip_code":"0590902","prefecture":"北海道","prefecture_kana":"ホッカイドウ","city":"白老郡白老町","city_kana":"シラオイグンシラオイチョウ","town":"若草町","town_kana":"ワカクサチョウ","prefecture_code":1},"1600":{"zip_code":"0591600","prefecture":"北海道","prefecture_kana":"ホッカイドウ","city":"勇払郡厚真町","city_kana":"ユウフツグンアツマチョウ","town":"","town_kana":"","prefecture_code":1},"1606":{"zip_code":"0591606","prefecture":"北海道","prefecture_kana":"ホッカイドウ","city":"勇払郡厚真町","city_kana":"ユウフツグンアツマチョウ","town":"朝日","town_kana":"アサヒ","prefecture_code":1},"1746":{"zip_code":"0591746","prefecture":"北海道","prefecture_kana":"ホッカイドウ","city":"勇払郡厚真町","city_kana":"ユウフツグンアツマチョウ","town":"上野","town_kana":"ウエノ","prefecture_code":1},"1622":{"zip_code":"0591622","prefecture":"北海道","prefecture_kana":"ホッカイドウ","city":"勇払郡厚真町","city_kana":"ユウフツグンアツマチョウ","town":"宇隆","town_kana":"ウリュウ","prefecture_code":1},"1602":{"zip_code":"0591602","prefecture":"北海道","prefecture_kana":"ホッカイドウ","city":"勇払郡厚真町","city_kana":"ユウフツグンアツマチョウ","town":"表町","town_kana":"オモテマチ","prefecture_code":1},"1741":{"zip_code":"0591741","prefecture":"北海道","prefecture_kana":"ホッカイドウ","city":"勇払郡厚真町","city_kana":"ユウフツグンアツマチョウ","town":"上厚真","town_kana":"カミアツマ","prefecture_code":1},"1752":{"zip_code":"0591752","prefecture":"北海道","prefecture_kana":"ホッカイドウ","city":"勇払郡厚真町","city_kana":"ユウフツグンアツマチョウ","town":"軽舞","town_kana":"カルマイ","prefecture_code":1},"1744":{"zip_code":"0591744","prefecture":"北海道","prefecture_kana":"ホッカイドウ","city":"勇払郡厚真町","city_kana":"ユウフツグンアツマチョウ","town":"共栄","town_kana":"キョウエイ","prefecture_code":1},"1601":{"zip_code":"0591601","prefecture":"北海道","prefecture_kana":"ホッカイドウ","city":"勇払郡厚真町","city_kana":"ユウフツグンアツマチョウ","town":"京町","town_kana":"キョウマチ","prefecture_code":1},"1743":{"zip_code":"0591743","prefecture":"北海道","prefecture_kana":"ホッカイドウ","city":"勇払郡厚真町","city_kana":"ユウフツグンアツマチョウ","town":"共和","town_kana":"キョウワ","prefecture_code":1},"1749":{"zip_code":"0591749","prefecture":"北海道","prefecture_kana":"ホッカイドウ","city":"勇払郡厚真町","city_kana":"ユウフツグンアツマチョウ","town":"清住","town_kana":"キヨズミ","prefecture_code":1},"1751":{"zip_code":"0591751","prefecture":"北海道","prefecture_kana":"ホッカイドウ","city":"勇払郡厚真町","city_kana":"ユウフツグンアツマチョウ","town":"鯉沼","town_kana":"コイヌマ","prefecture_code":1},"1748":{"zip_code":"0591748","prefecture":"北海道","prefecture_kana":"ホッカイドウ","city":"勇払郡厚真町","city_kana":"ユウフツグンアツマチョウ","town":"厚和","town_kana":"コウワ","prefecture_code":1},"1612":{"zip_code":"0591612","prefecture":"北海道","prefecture_kana":"ホッカイドウ","city":"勇払郡厚真町","city_kana":"ユウフツグンアツマチョウ","town":"桜丘","town_kana":"サクラオカ","prefecture_code":1},"1754":{"zip_code":"0591754","prefecture":"北海道","prefecture_kana":"ホッカイドウ","city":"勇払郡厚真町","city_kana":"ユウフツグンアツマチョウ","town":"鹿沼","town_kana":"シカヌマ","prefecture_code":1},"1623":{"zip_code":"0591623","prefecture":"北海道","prefecture_kana":"ホッカイドウ","city":"勇払郡厚真町","city_kana":"ユウフツグンアツマチョウ","town":"新町","town_kana":"シンマチ","prefecture_code":1},"1615":{"zip_code":"0591615","prefecture":"北海道","prefecture_kana":"ホッカイドウ","city":"勇払郡厚真町","city_kana":"ユウフツグンアツマチョウ","town":"高丘","town_kana":"タカオカ","prefecture_code":1},"1621":{"zip_code":"0591621","prefecture":"北海道","prefecture_kana":"ホッカイドウ","city":"勇払郡厚真町","city_kana":"ユウフツグンアツマチョウ","town":"東和","town_kana":"トウワ","prefecture_code":1},"1614":{"zip_code":"0591614","prefecture":"北海道","prefecture_kana":"ホッカイドウ","city":"勇払郡厚真町","city_kana":"ユウフツグンアツマチョウ","town":"富里","town_kana":"トミサト","prefecture_code":1},"1747":{"zip_code":"0591747","prefecture":"北海道","prefecture_kana":"ホッカイドウ","city":"勇払郡厚真町","city_kana":"ユウフツグンアツマチョウ","town":"富野","town_kana":"トミノ","prefecture_code":1},"1753":{"zip_code":"0591753","prefecture":"北海道","prefecture_kana":"ホッカイドウ","city":"勇払郡厚真町","city_kana":"ユウフツグンアツマチョウ","town":"豊丘","town_kana":"トヨオカ","prefecture_code":1},"1745":{"zip_code":"0591745","prefecture":"北海道","prefecture_kana":"ホッカイドウ","city":"勇払郡厚真町","city_kana":"ユウフツグンアツマチョウ","town":"豊川","town_kana":"トヨカワ","prefecture_code":1},"1624":{"zip_code":"0591624","prefecture":"北海道","prefecture_kana":"ホッカイドウ","city":"勇払郡厚真町","city_kana":"ユウフツグンアツマチョウ","town":"豊沢","town_kana":"トヨサワ","prefecture_code":1},"1604":{"zip_code":"0591604","prefecture":"北海道","prefecture_kana":"ホッカイドウ","city":"勇払郡厚真町","city_kana":"ユウフツグンアツマチョウ","town":"錦町","town_kana":"ニシキマチ","prefecture_code":1},"1742":{"zip_code":"0591742","prefecture":"北海道","prefecture_kana":"ホッカイドウ","city":"勇払郡厚真町","city_kana":"ユウフツグンアツマチョウ","town":"浜厚真","town_kana":"ハマアツマ","prefecture_code":1},"1611":{"zip_code":"0591611","prefecture":"北海道","prefecture_kana":"ホッカイドウ","city":"勇払郡厚真町","city_kana":"ユウフツグンアツマチョウ","town":"幌里","town_kana":"ホロサト","prefecture_code":1},"1616":{"zip_code":"0591616","prefecture":"北海道","prefecture_kana":"ホッカイドウ","city":"勇払郡厚真町","city_kana":"ユウフツグンアツマチョウ","town":"幌内","town_kana":"ホロナイ","prefecture_code":1},"1605":{"zip_code":"0591605","prefecture":"北海道","prefecture_kana":"ホッカイドウ","city":"勇払郡厚真町","city_kana":"ユウフツグンアツマチョウ","town":"本郷","town_kana":"ホンゴウ","prefecture_code":1},"1603":{"zip_code":"0591603","prefecture":"北海道","prefecture_kana":"ホッカイドウ","city":"勇払郡厚真町","city_kana":"ユウフツグンアツマチョウ","town":"本町","town_kana":"ホンチョウ","prefecture_code":1},"1625":{"zip_code":"0591625","prefecture":"北海道","prefecture_kana":"ホッカイドウ","city":"勇払郡厚真町","city_kana":"ユウフツグンアツマチョウ","town":"美里","town_kana":"ミサト","prefecture_code":1},"1613":{"zip_code":"0591613","prefecture":"北海道","prefecture_kana":"ホッカイドウ","city":"勇払郡厚真町","city_kana":"ユウフツグンアツマチョウ","town":"吉野","town_kana":"ヨシノ","prefecture_code":1},"1500":{"zip_code":"0591500","prefecture":"北海道","prefecture_kana":"ホッカイドウ","city":"勇払郡安平町","city_kana":"ユウフツグンアビラチョウ","town":"","town_kana":"","prefecture_code":1},"1511":{"zip_code":"0591511","prefecture":"北海道","prefecture_kana":"ホッカイドウ","city":"勇払郡安平町","city_kana":"ユウフツグンアビラチョウ","town":"安平","town_kana":"アビラ","prefecture_code":1},"1941":{"zip_code":"0591941","prefecture":"北海道","prefecture_kana":"ホッカイドウ","city":"勇払郡安平町","city_kana":"ユウフツグンアビラチョウ","town":"追分青葉","town_kana":"オイワケアオバ","prefecture_code":1},"1983":{"zip_code":"0591983","prefecture":"北海道","prefecture_kana":"ホッカイドウ","city":"勇払郡安平町","city_kana":"ユウフツグンアビラチョウ","town":"追分旭","town_kana":"オイワケアサヒ","prefecture_code":1},"1921":{"zip_code":"0591921","prefecture":"北海道","prefecture_kana":"ホッカイドウ","city":"勇払郡安平町","city_kana":"ユウフツグンアビラチョウ","town":"追分柏が丘","town_kana":"オイワケカシワガオカ","prefecture_code":1},"1985":{"zip_code":"0591985","prefecture":"北海道","prefecture_kana":"ホッカイドウ","city":"勇払郡安平町","city_kana":"ユウフツグンアビラチョウ","town":"追分春日","town_kana":"オイワケカスガ","prefecture_code":1},"1984":{"zip_code":"0591984","prefecture":"北海道","prefecture_kana":"ホッカイドウ","city":"勇払郡安平町","city_kana":"ユウフツグンアビラチョウ","town":"追分向陽","town_kana":"オイワケコウヨウ","prefecture_code":1},"1942":{"zip_code":"0591942","prefecture":"北海道","prefecture_kana":"ホッカイドウ","city":"勇払郡安平町","city_kana":"ユウフツグンアビラチョウ","town":"追分白樺","town_kana":"オイワケシラカバ","prefecture_code":1},"1931":{"zip_code":"0591931","prefecture":"北海道","prefecture_kana":"ホッカイドウ","city":"勇払郡安平町","city_kana":"ユウフツグンアビラチョウ","town":"追分中央","town_kana":"オイワケチュウオウ","prefecture_code":1},"1961":{"zip_code":"0591961","prefecture":"北海道","prefecture_kana":"ホッカイドウ","city":"勇払郡安平町","city_kana":"ユウフツグンアビラチョウ","town":"追分花園","town_kana":"オイワケハナゾノ","prefecture_code":1},"1987":{"zip_code":"0591987","prefecture":"北海道","prefecture_kana":"ホッカイドウ","city":"勇払郡安平町","city_kana":"ユウフツグンアビラチョウ","town":"追分豊栄","town_kana":"オイワケホウエイ","prefecture_code":1},"1911":{"zip_code":"0591911","prefecture":"北海道","prefecture_kana":"ホッカイドウ","city":"勇払郡安平町","city_kana":"ユウフツグンアビラチョウ","town":"追分本町","town_kana":"オイワケホンチョウ","prefecture_code":1},"1982":{"zip_code":"0591982","prefecture":"北海道","prefecture_kana":"ホッカイドウ","city":"勇払郡安平町","city_kana":"ユウフツグンアビラチョウ","town":"追分美園","town_kana":"オイワケミソノ","prefecture_code":1},"1971":{"zip_code":"0591971","prefecture":"北海道","prefecture_kana":"ホッカイドウ","city":"勇払郡安平町","city_kana":"ユウフツグンアビラチョウ","town":"追分緑が丘","town_kana":"オイワケミドリガオカ","prefecture_code":1},"1986":{"zip_code":"0591986","prefecture":"北海道","prefecture_kana":"ホッカイドウ","city":"勇払郡安平町","city_kana":"ユウフツグンアビラチョウ","town":"追分弥生","town_kana":"オイワケヤヨイ","prefecture_code":1},"1951":{"zip_code":"0591951","prefecture":"北海道","prefecture_kana":"ホッカイドウ","city":"勇払郡安平町","city_kana":"ユウフツグンアビラチョウ","town":"追分若草","town_kana":"オイワケワカクサ","prefecture_code":1},"1433":{"zip_code":"0591433","prefecture":"北海道","prefecture_kana":"ホッカイドウ","city":"勇払郡安平町","city_kana":"ユウフツグンアビラチョウ","town":"遠浅","town_kana":"トアサ","prefecture_code":1},"1501":{"zip_code":"0591501","prefecture":"北海道","prefecture_kana":"ホッカイドウ","city":"勇払郡安平町","city_kana":"ユウフツグンアビラチョウ","town":"早来大町","town_kana":"ハヤキタオオマチ","prefecture_code":1},"1506":{"zip_code":"0591506","prefecture":"北海道","prefecture_kana":"ホッカイドウ","city":"勇払郡安平町","city_kana":"ユウフツグンアビラチョウ","town":"早来北町","town_kana":"ハヤキタキタマチ","prefecture_code":1},"1432":{"zip_code":"0591432","prefecture":"北海道","prefecture_kana":"ホッカイドウ","city":"勇払郡安平町","city_kana":"ユウフツグンアビラチョウ","town":"早来源武","town_kana":"ハヤキタゲンブ","prefecture_code":1},"1505":{"zip_code":"0591505","prefecture":"北海道","prefecture_kana":"ホッカイドウ","city":"勇払郡安平町","city_kana":"ユウフツグンアビラチョウ","town":"早来栄町","town_kana":"ハヤキタサカエマチ","prefecture_code":1},"1431":{"zip_code":"0591431","prefecture":"北海道","prefecture_kana":"ホッカイドウ","city":"勇払郡安平町","city_kana":"ユウフツグンアビラチョウ","town":"早来新栄","town_kana":"ハヤキタシンエイ","prefecture_code":1},"1434":{"zip_code":"0591434","prefecture":"北海道","prefecture_kana":"ホッカイドウ","city":"勇払郡安平町","city_kana":"ユウフツグンアビラチョウ","town":"早来富岡","town_kana":"ハヤキタトミオカ","prefecture_code":1},"1502":{"zip_code":"0591502","prefecture":"北海道","prefecture_kana":"ホッカイドウ","city":"勇払郡安平町","city_kana":"ユウフツグンアビラチョウ","town":"早来北進","town_kana":"ハヤキタホクシン","prefecture_code":1},"1512":{"zip_code":"0591512","prefecture":"北海道","prefecture_kana":"ホッカイドウ","city":"勇払郡安平町","city_kana":"ユウフツグンアビラチョウ","town":"早来瑞穂","town_kana":"ハヤキタミズホ","prefecture_code":1},"1513":{"zip_code":"0591513","prefecture":"北海道","prefecture_kana":"ホッカイドウ","city":"勇払郡安平町","city_kana":"ユウフツグンアビラチョウ","town":"早来緑丘","town_kana":"ハヤキタミドリオカ","prefecture_code":1},"1504":{"zip_code":"0591504","prefecture":"北海道","prefecture_kana":"ホッカイドウ","city":"勇払郡安平町","city_kana":"ユウフツグンアビラチョウ","town":"早来守田","town_kana":"ハヤキタモリタ","prefecture_code":1},"1503":{"zip_code":"0591503","prefecture":"北海道","prefecture_kana":"ホッカイドウ","city":"勇払郡安平町","city_kana":"ユウフツグンアビラチョウ","town":"東早来","town_kana":"ヒガシハヤキタ","prefecture_code":1},"2127":{"zip_code":"0592127","prefecture":"北海道","prefecture_kana":"ホッカイドウ","city":"沙流郡日高町","city_kana":"サルグンヒダカチョウ","town":"旭町","town_kana":"アサヒチョウ","prefecture_code":1},"2243":{"zip_code":"0592243","prefecture":"北海道","prefecture_kana":"ホッカイドウ","city":"沙流郡日高町","city_kana":"サルグンヒダカチョウ","town":"厚賀町","town_kana":"アツガチョウ","prefecture_code":1},"2123":{"zip_code":"0592123","prefecture":"北海道","prefecture_kana":"ホッカイドウ","city":"沙流郡日高町","city_kana":"サルグンヒダカチョウ","town":"幾千世","town_kana":"イクチセ","prefecture_code":1},"2244":{"zip_code":"0592244","prefecture":"北海道","prefecture_kana":"ホッカイドウ","city":"沙流郡日高町","city_kana":"サルグンヒダカチョウ","town":"賀張","town_kana":"カバリ","prefecture_code":1},"2245":{"zip_code":"0592245","prefecture":"北海道","prefecture_kana":"ホッカイドウ","city":"沙流郡日高町","city_kana":"サルグンヒダカチョウ","town":"清畠","town_kana":"キヨハタ","prefecture_code":1},"2124":{"zip_code":"0592124","prefecture":"北海道","prefecture_kana":"ホッカイドウ","city":"沙流郡日高町","city_kana":"サルグンヒダカチョウ","town":"庫富","town_kana":"クラトミ","prefecture_code":1},"2331":{"zip_code":"0592331","prefecture":"北海道","prefecture_kana":"ホッカイドウ","city":"沙流郡日高町","city_kana":"サルグンヒダカチョウ","town":"正和","town_kana":"ショウワ","prefecture_code":1},"2126":{"zip_code":"0592126","prefecture":"北海道","prefecture_kana":"ホッカイドウ","city":"沙流郡日高町","city_kana":"サルグンヒダカチョウ","town":"豊郷","town_kana":"トヨサト","prefecture_code":1},"2241":{"zip_code":"0592241","prefecture":"北海道","prefecture_kana":"ホッカイドウ","city":"沙流郡日高町","city_kana":"サルグンヒダカチョウ","town":"豊田","town_kana":"トヨタ","prefecture_code":1},"2125":{"zip_code":"0592125","prefecture":"北海道","prefecture_kana":"ホッカイドウ","city":"沙流郡日高町","city_kana":"サルグンヒダカチョウ","town":"広富","town_kana":"ヒロトミ","prefecture_code":1},"2122":{"zip_code":"0592122","prefecture":"北海道","prefecture_kana":"ホッカイドウ","city":"沙流郡日高町","city_kana":"サルグンヒダカチョウ","town":"緑町","town_kana":"ミドリチョウ","prefecture_code":1},"2242":{"zip_code":"0592242","prefecture":"北海道","prefecture_kana":"ホッカイドウ","city":"沙流郡日高町","city_kana":"サルグンヒダカチョウ","town":"美原","town_kana":"ミハラ","prefecture_code":1},"2332":{"zip_code":"0592332","prefecture":"北海道","prefecture_kana":"ホッカイドウ","city":"沙流郡日高町","city_kana":"サルグンヒダカチョウ","town":"三和","town_kana":"ミワ","prefecture_code":1},"2121":{"zip_code":"0592121","prefecture":"北海道","prefecture_kana":"ホッカイドウ","city":"沙流郡日高町","city_kana":"サルグンヒダカチョウ","town":"門別本町","town_kana":"モンベツホンチョウ","prefecture_code":1},"2400":{"zip_code":"0592400","prefecture":"北海道","prefecture_kana":"ホッカイドウ","city":"新冠郡新冠町","city_kana":"ニイカップグンニイカップチョウ","town":"","town_kana":"","prefecture_code":1},"2414":{"zip_code":"0592414","prefecture":"北海道","prefecture_kana":"ホッカイドウ","city":"新冠郡新冠町","city_kana":"ニイカップグンニイカップチョウ","town":"朝日","town_kana":"アサヒ","prefecture_code":1},"2404":{"zip_code":"0592404","prefecture":"北海道","prefecture_kana":"ホッカイドウ","city":"新冠郡新冠町","city_kana":"ニイカップグンニイカップチョウ","town":"東町","town_kana":"アズマチョウ","prefecture_code":1},"2423":{"zip_code":"0592423","prefecture":"北海道","prefecture_kana":"ホッカイドウ","city":"新冠郡新冠町","city_kana":"ニイカップグンニイカップチョウ","town":"泉","town_kana":"イズミ","prefecture_code":1},"2422":{"zip_code":"0592422","prefecture":"北海道","prefecture_kana":"ホッカイドウ","city":"新冠郡新冠町","city_kana":"ニイカップグンニイカップチョウ","town":"岩清水","town_kana":"イワシミズ","prefecture_code":1},"2253":{"zip_code":"0592253","prefecture":"北海道","prefecture_kana":"ホッカイドウ","city":"新冠郡新冠町","city_kana":"ニイカップグンニイカップチョウ","town":"大狩部","town_kana":"オオカリベ","prefecture_code":1},"2411":{"zip_code":"0592411","prefecture":"北海道","prefecture_kana":"ホッカイドウ","city":"新冠郡新冠町","city_kana":"ニイカップグンニイカップチョウ","town":"大狩部","town_kana":"オオカリベ","prefecture_code":1},"2427":{"zip_code":"0592427","prefecture":"北海道","prefecture_kana":"ホッカイドウ","city":"新冠郡新冠町","city_kana":"ニイカップグンニイカップチョウ","town":"大富","town_kana":"オオトミ","prefecture_code":1},"2251":{"zip_code":"0592251","prefecture":"北海道","prefecture_kana":"ホッカイドウ","city":"新冠郡新冠町","city_kana":"ニイカップグンニイカップチョウ","town":"共栄","town_kana":"キョウエイ","prefecture_code":1},"2424":{"zip_code":"0592424","prefecture":"北海道","prefecture_kana":"ホッカイドウ","city":"新冠郡新冠町","city_kana":"ニイカップグンニイカップチョウ","town":"新栄","town_kana":"シンエイ","prefecture_code":1},"2341":{"zip_code":"0592341","prefecture":"北海道","prefecture_kana":"ホッカイドウ","city":"新冠郡新冠町","city_kana":"ニイカップグンニイカップチョウ","town":"新和","town_kana":"シンワ","prefecture_code":1},"2412":{"zip_code":"0592412","prefecture":"北海道","prefecture_kana":"ホッカイドウ","city":"新冠郡新冠町","city_kana":"ニイカップグンニイカップチョウ","town":"節婦町","town_kana":"セップチョウ","prefecture_code":1},"2343":{"zip_code":"0592343","prefecture":"北海道","prefecture_kana":"ホッカイドウ","city":"新冠郡新冠町","city_kana":"ニイカップグンニイカップチョウ","town":"太陽","town_kana":"タイヨウ","prefecture_code":1},"2413":{"zip_code":"0592413","prefecture":"北海道","prefecture_kana":"ホッカイドウ","city":"新冠郡新冠町","city_kana":"ニイカップグンニイカップチョウ","town":"高江","town_kana":"タカエ","prefecture_code":1},"2402":{"zip_code":"0592402","prefecture":"北海道","prefecture_kana":"ホッカイドウ","city":"新冠郡新冠町","city_kana":"ニイカップグンニイカップチョウ","town":"中央町","town_kana":"チュウオウチョウ","prefecture_code":1},"2418":{"zip_code":"0592418","prefecture":"北海道","prefecture_kana":"ホッカイドウ","city":"新冠郡新冠町","city_kana":"ニイカップグンニイカップチョウ","town":"西泊津","town_kana":"ニシハクツ","prefecture_code":1},"2426":{"zip_code":"0592426","prefecture":"北海道","prefecture_kana":"ホッカイドウ","city":"新冠郡新冠町","city_kana":"ニイカップグンニイカップチョウ","town":"万世","town_kana":"バンセイ","prefecture_code":1},"2344":{"zip_code":"0592344","prefecture":"北海道","prefecture_kana":"ホッカイドウ","city":"新冠郡新冠町","city_kana":"ニイカップグンニイカップチョウ","town":"美宇","town_kana":"ビウ","prefecture_code":1},"2252":{"zip_code":"0592252","prefecture":"北海道","prefecture_kana":"ホッカイドウ","city":"新冠郡新冠町","city_kana":"ニイカップグンニイカップチョウ","town":"東川","town_kana":"ヒガシカワ","prefecture_code":1},"2417":{"zip_code":"0592417","prefecture":"北海道","prefecture_kana":"ホッカイドウ","city":"新冠郡新冠町","city_kana":"ニイカップグンニイカップチョウ","town":"東泊津","town_kana":"ヒガシハクツ","prefecture_code":1},"2416":{"zip_code":"0592416","prefecture":"北海道","prefecture_kana":"ホッカイドウ","city":"新冠郡新冠町","city_kana":"ニイカップグンニイカップチョウ","town":"古岸","town_kana":"フルギシ","prefecture_code":1},"2403":{"zip_code":"0592403","prefecture":"北海道","prefecture_kana":"ホッカイドウ","city":"新冠郡新冠町","city_kana":"ニイカップグンニイカップチョウ","town":"北星町","town_kana":"ホクセイチョウ","prefecture_code":1},"2401":{"zip_code":"0592401","prefecture":"北海道","prefecture_kana":"ホッカイドウ","city":"新冠郡新冠町","city_kana":"ニイカップグンニイカップチョウ","town":"本町","town_kana":"ホンチョウ","prefecture_code":1},"2415":{"zip_code":"0592415","prefecture":"北海道","prefecture_kana":"ホッカイドウ","city":"新冠郡新冠町","city_kana":"ニイカップグンニイカップチョウ","town":"緑丘","town_kana":"ミドリオカ","prefecture_code":1},"2425":{"zip_code":"0592425","prefecture":"北海道","prefecture_kana":"ホッカイドウ","city":"新冠郡新冠町","city_kana":"ニイカップグンニイカップチョウ","town":"明和","town_kana":"メイワ","prefecture_code":1},"2342":{"zip_code":"0592342","prefecture":"北海道","prefecture_kana":"ホッカイドウ","city":"新冠郡新冠町","city_kana":"ニイカップグンニイカップチョウ","town":"里平","town_kana":"リビラ","prefecture_code":1},"2421":{"zip_code":"0592421","prefecture":"北海道","prefecture_kana":"ホッカイドウ","city":"新冠郡新冠町","city_kana":"ニイカップグンニイカップチョウ","town":"若園","town_kana":"ワカゾノ","prefecture_code":1},"3463":{"zip_code":"0593463","prefecture":"北海道","prefecture_kana":"ホッカイドウ","city":"浦河郡浦河町","city_kana":"ウラカワグンウラカワチョウ","town":"姉茶","town_kana":"アネチャ","prefecture_code":1},"3451":{"zip_code":"0593451","prefecture":"北海道","prefecture_kana":"ホッカイドウ","city":"浦河郡浦河町","city_kana":"ウラカワグンウラカワチョウ","town":"荻伏町","town_kana":"オギフシチョウ","prefecture_code":1},"3461":{"zip_code":"0593461","prefecture":"北海道","prefecture_kana":"ホッカイドウ","city":"浦河郡浦河町","city_kana":"ウラカワグンウラカワチョウ","town":"東栄","town_kana":"トウエイ","prefecture_code":1},"3462":{"zip_code":"0593462","prefecture":"北海道","prefecture_kana":"ホッカイドウ","city":"浦河郡浦河町","city_kana":"ウラカワグンウラカワチョウ","town":"富里","town_kana":"トミサト","prefecture_code":1},"3454":{"zip_code":"0593454","prefecture":"北海道","prefecture_kana":"ホッカイドウ","city":"浦河郡浦河町","city_kana":"ウラカワグンウラカワチョウ","town":"野深","town_kana":"ノブカ","prefecture_code":1},"3453":{"zip_code":"0593453","prefecture":"北海道","prefecture_kana":"ホッカイドウ","city":"浦河郡浦河町","city_kana":"ウラカワグンウラカワチョウ","town":"瑞穂","town_kana":"ミズホ","prefecture_code":1},"2562":{"zip_code":"0592562","prefecture":"北海道","prefecture_kana":"ホッカイドウ","city":"日高郡新ひだか町","city_kana":"ヒダカグンシンヒダカチョウ","town":"静内浦和","town_kana":"シズナイウラワ","prefecture_code":1},"2563":{"zip_code":"0592563","prefecture":"北海道","prefecture_kana":"ホッカイドウ","city":"日高郡新ひだか町","city_kana":"ヒダカグンシンヒダカチョウ","town":"静内川合","town_kana":"シズナイカワアイ","prefecture_code":1},"2566":{"zip_code":"0592566","prefecture":"北海道","prefecture_kana":"ホッカイドウ","city":"日高郡新ひだか町","city_kana":"ヒダカグンシンヒダカチョウ","town":"静内東別","town_kana":"シズナイトウベツ","prefecture_code":1},"2564":{"zip_code":"0592564","prefecture":"北海道","prefecture_kana":"ホッカイドウ","city":"日高郡新ひだか町","city_kana":"ヒダカグンシンヒダカチョウ","town":"静内西川","town_kana":"シズナイニシカワ","prefecture_code":1},"2565":{"zip_code":"0592565","prefecture":"北海道","prefecture_kana":"ホッカイドウ","city":"日高郡新ひだか町","city_kana":"ヒダカグンシンヒダカチョウ","town":"静内春立","town_kana":"シズナイハルタチ","prefecture_code":1},"2561":{"zip_code":"0592561","prefecture":"北海道","prefecture_kana":"ホッカイドウ","city":"日高郡新ひだか町","city_kana":"ヒダカグンシンヒダカチョウ","town":"東静内","town_kana":"ヒガシシズナイ","prefecture_code":1},"3107":{"zip_code":"0593107","prefecture":"北海道","prefecture_kana":"ホッカイドウ","city":"日高郡新ひだか町","city_kana":"ヒダカグンシンヒダカチョウ","town":"三石旭町","town_kana":"ミツイシアサヒチョウ","prefecture_code":1},"3352":{"zip_code":"0593352","prefecture":"北海道","prefecture_kana":"ホッカイドウ","city":"日高郡新ひだか町","city_kana":"ヒダカグンシンヒダカチョウ","town":"三石稲見","town_kana":"ミツイシイナミ","prefecture_code":1},"3351":{"zip_code":"0593351","prefecture":"北海道","prefecture_kana":"ホッカイドウ","city":"日高郡新ひだか町","city_kana":"ヒダカグンシンヒダカチョウ","town":"三石歌笛","town_kana":"ミツイシウタフエ","prefecture_code":1},"3354":{"zip_code":"0593354","prefecture":"北海道","prefecture_kana":"ホッカイドウ","city":"日高郡新ひだか町","city_kana":"ヒダカグンシンヒダカチョウ","town":"三石川上","town_kana":"ミツイシカワカミ","prefecture_code":1},"3353":{"zip_code":"0593353","prefecture":"北海道","prefecture_kana":"ホッカイドウ","city":"日高郡新ひだか町","city_kana":"ヒダカグンシンヒダカチョウ","town":"三石清瀬","town_kana":"ミツイシキヨセ","prefecture_code":1},"3233":{"zip_code":"0593233","prefecture":"北海道","prefecture_kana":"ホッカイドウ","city":"日高郡新ひだか町","city_kana":"ヒダカグンシンヒダカチョウ","town":"三石鳧舞","town_kana":"ミツイシケリマイ","prefecture_code":1},"3111":{"zip_code":"0593111","prefecture":"北海道","prefecture_kana":"ホッカイドウ","city":"日高郡新ひだか町","city_kana":"ヒダカグンシンヒダカチョウ","town":"三石越海町","town_kana":"ミツイシコシウミチョウ","prefecture_code":1},"3101":{"zip_code":"0593101","prefecture":"北海道","prefecture_kana":"ホッカイドウ","city":"日高郡新ひだか町","city_kana":"ヒダカグンシンヒダカチョウ","town":"三石富沢","town_kana":"ミツイシトミサワ","prefecture_code":1},"3103":{"zip_code":"0593103","prefecture":"北海道","prefecture_kana":"ホッカイドウ","city":"日高郡新ひだか町","city_kana":"ヒダカグンシンヒダカチョウ","town":"三石豊岡","town_kana":"ミツイシトヨオカ","prefecture_code":1},"2571":{"zip_code":"0592571","prefecture":"北海道","prefecture_kana":"ホッカイドウ","city":"日高郡新ひだか町","city_kana":"ヒダカグンシンヒダカチョウ","town":"三石西端","town_kana":"ミツイシニシハタ","prefecture_code":1},"3106":{"zip_code":"0593106","prefecture":"北海道","prefecture_kana":"ホッカイドウ","city":"日高郡新ひだか町","city_kana":"ヒダカグンシンヒダカチョウ","town":"三石西蓬莱","town_kana":"ミツイシニシホウライ","prefecture_code":1},"3105":{"zip_code":"0593105","prefecture":"北海道","prefecture_kana":"ホッカイドウ","city":"日高郡新ひだか町","city_kana":"ヒダカグンシンヒダカチョウ","town":"三石東蓬莱","town_kana":"ミツイシヒガシホウライ","prefecture_code":1},"3102":{"zip_code":"0593102","prefecture":"北海道","prefecture_kana":"ホッカイドウ","city":"日高郡新ひだか町","city_kana":"ヒダカグンシンヒダカチョウ","town":"三石福畑","town_kana":"ミツイシフクハタ","prefecture_code":1},"3104":{"zip_code":"0593104","prefecture":"北海道","prefecture_kana":"ホッカイドウ","city":"日高郡新ひだか町","city_kana":"ヒダカグンシンヒダカチョウ","town":"三石蓬栄","town_kana":"ミツイシホウエイ","prefecture_code":1},"3231":{"zip_code":"0593231","prefecture":"北海道","prefecture_kana":"ホッカイドウ","city":"日高郡新ひだか町","city_kana":"ヒダカグンシンヒダカチョウ","town":"三石本桐","town_kana":"ミツイシホンキリ","prefecture_code":1},"3108":{"zip_code":"0593108","prefecture":"北海道","prefecture_kana":"ホッカイドウ","city":"日高郡新ひだか町","city_kana":"ヒダカグンシンヒダカチョウ","town":"三石本町","town_kana":"ミツイシホンチョウ","prefecture_code":1},"3355":{"zip_code":"0593355","prefecture":"北海道","prefecture_kana":"ホッカイドウ","city":"日高郡新ひだか町","city_kana":"ヒダカグンシンヒダカチョウ","town":"三石美河","town_kana":"ミツイシミカワ","prefecture_code":1},"3112":{"zip_code":"0593112","prefecture":"北海道","prefecture_kana":"ホッカイドウ","city":"日高郡新ひだか町","city_kana":"ヒダカグンシンヒダカチョウ","town":"三石港町","town_kana":"ミツイシミナトチョウ","prefecture_code":1},"3232":{"zip_code":"0593232","prefecture":"北海道","prefecture_kana":"ホッカイドウ","city":"日高郡新ひだか町","city_kana":"ヒダカグンシンヒダカチョウ","town":"三石美野和","town_kana":"ミツイシミノワ","prefecture_code":1}}