{"2274":{"zip_code":"0612274","prefecture":"北海道","prefecture_kana":"ホッカイドウ","city":"札幌市南区","city_kana":"サッポロシミナミク","town":"小金湯","town_kana":"コガネユ","prefecture_code":1},"2301":{"zip_code":"0612301","prefecture":"北海道","prefecture_kana":"ホッカイドウ","city":"札幌市南区","city_kana":"サッポロシミナミク","town":"定山渓","town_kana":"ジョウザンケイ","prefecture_code":1},"2302":{"zip_code":"0612302","prefecture":"北海道","prefecture_kana":"ホッカイドウ","city":"札幌市南区","city_kana":"サッポロシミナミク","town":"定山渓温泉東","town_kana":"ジョウザンケイオンセンヒガシ","prefecture_code":1},"2303":{"zip_code":"0612303","prefecture":"北海道","prefecture_kana":"ホッカイドウ","city":"札幌市南区","city_kana":"サッポロシミナミク","town":"定山渓温泉西","town_kana":"ジョウザンケイオンセンニシ","prefecture_code":1},"2276":{"zip_code":"0612276","prefecture":"北海道","prefecture_kana":"ホッカイドウ","city":"札幌市南区","city_kana":"サッポロシミナミク","town":"白川","town_kana":"シラカワ","prefecture_code":1},"2275":{"zip_code":"0612275","prefecture":"北海道","prefecture_kana":"ホッカイドウ","city":"札幌市南区","city_kana":"サッポロシミナミク","town":"砥山","town_kana":"トヤマ","prefecture_code":1},"2273":{"zip_code":"0612273","prefecture":"北海道","prefecture_kana":"ホッカイドウ","city":"札幌市南区","city_kana":"サッポロシミナミク","town":"豊滝","town_kana":"トヨタキ","prefecture_code":1},"2271":{"zip_code":"0612271","prefecture":"北海道","prefecture_kana":"ホッカイドウ","city":"札幌市南区","city_kana":"サッポロシミナミク","town":"藤野","town_kana":"フジノ","prefecture_code":1},"2281":{"zip_code":"0612281","prefecture":"北海道","prefecture_kana":"ホッカイドウ","city":"札幌市南区","city_kana":"サッポロシミナミク","town":"藤野一条","town_kana":"フジノ1ジョウ","prefecture_code":1},"2282":{"zip_code":"0612282","prefecture":"北海道","prefecture_kana":"ホッカイドウ","city":"札幌市南区","city_kana":"サッポロシミナミク","town":"藤野二条","town_kana":"フジノ2ジョウ","prefecture_code":1},"2283":{"zip_code":"0612283","prefecture":"北海道","prefecture_kana":"ホッカイドウ","city":"札幌市南区","city_kana":"サッポロシミナミク","town":"藤野三条","town_kana":"フジノ3ジョウ","prefecture_code":1},"2284":{"zip_code":"0612284","prefecture":"北海道","prefecture_kana":"ホッカイドウ","city":"札幌市南区","city_kana":"サッポロシミナミク","town":"藤野四条","town_kana":"フジノ4ジョウ","prefecture_code":1},"2285":{"zip_code":"0612285","prefecture":"北海道","prefecture_kana":"ホッカイドウ","city":"札幌市南区","city_kana":"サッポロシミナミク","town":"藤野五条","town_kana":"フジノ5ジョウ","prefecture_code":1},"2286":{"zip_code":"0612286","prefecture":"北海道","prefecture_kana":"ホッカイドウ","city":"札幌市南区","city_kana":"サッポロシミナミク","town":"藤野六条","town_kana":"フジノ6ジョウ","prefecture_code":1},"2261":{"zip_code":"0612261","prefecture":"北海道","prefecture_kana":"ホッカイドウ","city":"札幌市南区","city_kana":"サッポロシミナミク","town":"簾舞一条","town_kana":"ミスマイ1ジョウ","prefecture_code":1},"2262":{"zip_code":"0612262","prefecture":"北海道","prefecture_kana":"ホッカイドウ","city":"札幌市南区","city_kana":"サッポロシミナミク","town":"簾舞二条","town_kana":"ミスマイ2ジョウ","prefecture_code":1},"2263":{"zip_code":"0612263","prefecture":"北海道","prefecture_kana":"ホッカイドウ","city":"札幌市南区","city_kana":"サッポロシミナミク","town":"簾舞三条","town_kana":"ミスマイ3ジョウ","prefecture_code":1},"2264":{"zip_code":"0612264","prefecture":"北海道","prefecture_kana":"ホッカイドウ","city":"札幌市南区","city_kana":"サッポロシミナミク","town":"簾舞四条","town_kana":"ミスマイ4ジョウ","prefecture_code":1},"2265":{"zip_code":"0612265","prefecture":"北海道","prefecture_kana":"ホッカイドウ","city":"札幌市南区","city_kana":"サッポロシミナミク","town":"簾舞五条","town_kana":"ミスマイ5ジョウ","prefecture_code":1},"2266":{"zip_code":"0612266","prefecture":"北海道","prefecture_kana":"ホッカイドウ","city":"札幌市南区","city_kana":"サッポロシミナミク","town":"簾舞六条","town_kana":"ミスマイ6ジョウ","prefecture_code":1},"2272":{"zip_code":"0612272","prefecture":"北海道","prefecture_kana":"ホッカイドウ","city":"札幌市南区","city_kana":"サッポロシミナミク","town":"簾舞","town_kana":"ミスマイ","prefecture_code":1},"3271":{"zip_code":"0613271","prefecture":"北海道","prefecture_kana":"ホッカイドウ","city":"小樽市","city_kana":"オタルシ","town":"銭函","town_kana":"ゼニバコ","prefecture_code":1},"1400":{"zip_code":"0611400","prefecture":"北海道","prefecture_kana":"ホッカイドウ","city":"恵庭市","city_kana":"エニワシ","town":"","town_kana":"","prefecture_code":1},"1448":{"zip_code":"0611448","prefecture":"北海道","prefecture_kana":"ホッカイドウ","city":"恵庭市","city_kana":"エニワシ","town":"相生町","town_kana":"アイオイマチ","prefecture_code":1},"1431":{"zip_code":"0611431","prefecture":"北海道","prefecture_kana":"ホッカイドウ","city":"恵庭市","city_kana":"エニワシ","town":"有明町","town_kana":"アリアケチョウ","prefecture_code":1},"1401":{"zip_code":"0611401","prefecture":"北海道","prefecture_kana":"ホッカイドウ","city":"恵庭市","city_kana":"エニワシ","town":"漁太","town_kana":"イザリブト","prefecture_code":1},"1414":{"zip_code":"0611414","prefecture":"北海道","prefecture_kana":"ホッカイドウ","city":"恵庭市","city_kana":"エニワシ","town":"漁町","town_kana":"イザリマチ","prefecture_code":1},"1415":{"zip_code":"0611415","prefecture":"北海道","prefecture_kana":"ホッカイドウ","city":"恵庭市","city_kana":"エニワシ","town":"泉町","town_kana":"イズミマチ","prefecture_code":1},"1411":{"zip_code":"0611411","prefecture":"北海道","prefecture_kana":"ホッカイドウ","city":"恵庭市","city_kana":"エニワシ","town":"恵南","town_kana":"エナミ","prefecture_code":1},"1424":{"zip_code":"0611424","prefecture":"北海道","prefecture_kana":"ホッカイドウ","city":"恵庭市","city_kana":"エニワシ","town":"大町","town_kana":"オオマチ","prefecture_code":1},"1423":{"zip_code":"0611423","prefecture":"北海道","prefecture_kana":"ホッカイドウ","city":"恵庭市","city_kana":"エニワシ","town":"柏木町","town_kana":"カシワギチョウ","prefecture_code":1},"1402":{"zip_code":"0611402","prefecture":"北海道","prefecture_kana":"ホッカイドウ","city":"恵庭市","city_kana":"エニワシ","town":"春日","town_kana":"カスガ","prefecture_code":1},"1404":{"zip_code":"0611404","prefecture":"北海道","prefecture_kana":"ホッカイドウ","city":"恵庭市","city_kana":"エニワシ","town":"上山口","town_kana":"カミヤマグチ","prefecture_code":1},"1433":{"zip_code":"0611433","prefecture":"北海道","prefecture_kana":"ホッカイドウ","city":"恵庭市","city_kana":"エニワシ","town":"北柏木町","town_kana":"キタカシワギチョウ","prefecture_code":1},"1366":{"zip_code":"0611366","prefecture":"北海道","prefecture_kana":"ホッカイドウ","city":"恵庭市","city_kana":"エニワシ","town":"北島","town_kana":"キタジマ","prefecture_code":1},"1444":{"zip_code":"0611444","prefecture":"北海道","prefecture_kana":"ホッカイドウ","city":"恵庭市","city_kana":"エニワシ","town":"京町","town_kana":"キョウマチ","prefecture_code":1},"1432":{"zip_code":"0611432","prefecture":"北海道","prefecture_kana":"ホッカイドウ","city":"恵庭市","city_kana":"エニワシ","town":"恵央町","town_kana":"ケイオウチョウ","prefecture_code":1},"1449":{"zip_code":"0611449","prefecture":"北海道","prefecture_kana":"ホッカイドウ","city":"恵庭市","city_kana":"エニワシ","town":"黄金中央","town_kana":"コガネチュウオウ","prefecture_code":1},"1407":{"zip_code":"0611407","prefecture":"北海道","prefecture_kana":"ホッカイドウ","city":"恵庭市","city_kana":"エニワシ","town":"黄金北","town_kana":"コガネキタ","prefecture_code":1},"1409":{"zip_code":"0611409","prefecture":"北海道","prefecture_kana":"ホッカイドウ","city":"恵庭市","city_kana":"エニワシ","town":"黄金南","town_kana":"コガネミナミ","prefecture_code":1},"1417":{"zip_code":"0611417","prefecture":"北海道","prefecture_kana":"ホッカイドウ","city":"恵庭市","city_kana":"エニワシ","town":"駒場町","town_kana":"コマバチョウ","prefecture_code":1},"1426":{"zip_code":"0611426","prefecture":"北海道","prefecture_kana":"ホッカイドウ","city":"恵庭市","city_kana":"エニワシ","town":"幸町","town_kana":"サイワイチョウ","prefecture_code":1},"1443":{"zip_code":"0611443","prefecture":"北海道","prefecture_kana":"ホッカイドウ","city":"恵庭市","city_kana":"エニワシ","town":"栄恵町","town_kana":"サカエマチ","prefecture_code":1},"1416":{"zip_code":"0611416","prefecture":"北海道","prefecture_kana":"ホッカイドウ","city":"恵庭市","city_kana":"エニワシ","town":"桜町","town_kana":"サクラマチ","prefecture_code":1},"1363":[{"zip_code":"0611363","prefecture":"北海道","prefecture_kana":"ホッカイドウ","city":"恵庭市","city_kana":"エニワシ","town":"桜森","town_kana":"サクラモリ","prefecture_code":1},{"zip_code":"0611363","prefecture":"北海道","prefecture_kana":"ホッカイドウ","city":"恵庭市","city_kana":"エニワシ","town":"島松沢","town_kana":"シママツザワ","prefecture_code":1}],"1354":{"zip_code":"0611354","prefecture":"北海道","prefecture_kana":"ホッカイドウ","city":"恵庭市","city_kana":"エニワシ","town":"島松旭町","town_kana":"シママツアサヒマチ","prefecture_code":1},"1355":{"zip_code":"0611355","prefecture":"北海道","prefecture_kana":"ホッカイドウ","city":"恵庭市","city_kana":"エニワシ","town":"島松寿町","town_kana":"シママツコトブキチョウ","prefecture_code":1},"1352":{"zip_code":"0611352","prefecture":"北海道","prefecture_kana":"ホッカイドウ","city":"恵庭市","city_kana":"エニワシ","town":"島松仲町","town_kana":"シママツナカマチ","prefecture_code":1},"1351":{"zip_code":"0611351","prefecture":"北海道","prefecture_kana":"ホッカイドウ","city":"恵庭市","city_kana":"エニワシ","town":"島松東町","town_kana":"シママツヒガシマチ","prefecture_code":1},"1353":{"zip_code":"0611353","prefecture":"北海道","prefecture_kana":"ホッカイドウ","city":"恵庭市","city_kana":"エニワシ","town":"島松本町","town_kana":"シママツホンマチ","prefecture_code":1},"1364":{"zip_code":"0611364","prefecture":"北海道","prefecture_kana":"ホッカイドウ","city":"恵庭市","city_kana":"エニワシ","town":"下島松","town_kana":"シモシママツ","prefecture_code":1},"1412":{"zip_code":"0611412","prefecture":"北海道","prefecture_kana":"ホッカイドウ","city":"恵庭市","city_kana":"エニワシ","town":"白樺町","town_kana":"シラカバチョウ","prefecture_code":1},"1445":{"zip_code":"0611445","prefecture":"北海道","prefecture_kana":"ホッカイドウ","city":"恵庭市","city_kana":"エニワシ","town":"新町","town_kana":"シンマチ","prefecture_code":1},"1446":{"zip_code":"0611446","prefecture":"北海道","prefecture_kana":"ホッカイドウ","city":"恵庭市","city_kana":"エニワシ","town":"末広町","town_kana":"スエヒロマチ","prefecture_code":1},"1441":{"zip_code":"0611441","prefecture":"北海道","prefecture_kana":"ホッカイドウ","city":"恵庭市","city_kana":"エニワシ","town":"住吉町","town_kana":"スミヨシチョウ","prefecture_code":1},"1403":{"zip_code":"0611403","prefecture":"北海道","prefecture_kana":"ホッカイドウ","city":"恵庭市","city_kana":"エニワシ","town":"中央","town_kana":"チュウオウ","prefecture_code":1},"1405":{"zip_code":"0611405","prefecture":"北海道","prefecture_kana":"ホッカイドウ","city":"恵庭市","city_kana":"エニワシ","town":"戸磯","town_kana":"トイソ","prefecture_code":1},"1362":{"zip_code":"0611362","prefecture":"北海道","prefecture_kana":"ホッカイドウ","city":"恵庭市","city_kana":"エニワシ","town":"中島松","town_kana":"ナカシママツ","prefecture_code":1},"1435":{"zip_code":"0611435","prefecture":"北海道","prefecture_kana":"ホッカイドウ","city":"恵庭市","city_kana":"エニワシ","town":"中島町","town_kana":"ナカジマチョウ","prefecture_code":1},"1356":{"zip_code":"0611356","prefecture":"北海道","prefecture_kana":"ホッカイドウ","city":"恵庭市","city_kana":"エニワシ","town":"西島松","town_kana":"ニシシママツ","prefecture_code":1},"1434":{"zip_code":"0611434","prefecture":"北海道","prefecture_kana":"ホッカイドウ","city":"恵庭市","city_kana":"エニワシ","town":"柏陽町","town_kana":"ハクヨウチョウ","prefecture_code":1},"1361":{"zip_code":"0611361","prefecture":"北海道","prefecture_kana":"ホッカイドウ","city":"恵庭市","city_kana":"エニワシ","town":"林田","town_kana":"ハヤシダ","prefecture_code":1},"1422":{"zip_code":"0611422","prefecture":"北海道","prefecture_kana":"ホッカイドウ","city":"恵庭市","city_kana":"エニワシ","town":"盤尻","town_kana":"バンジリ","prefecture_code":1},"1447":{"zip_code":"0611447","prefecture":"北海道","prefecture_kana":"ホッカイドウ","city":"恵庭市","city_kana":"エニワシ","town":"福住町","town_kana":"フクズミチョウ","prefecture_code":1},"1425":{"zip_code":"0611425","prefecture":"北海道","prefecture_kana":"ホッカイドウ","city":"恵庭市","city_kana":"エニワシ","town":"文京町","town_kana":"ブンキョウチョウ","prefecture_code":1},"1365":{"zip_code":"0611365","prefecture":"北海道","prefecture_kana":"ホッカイドウ","city":"恵庭市","city_kana":"エニワシ","town":"穂栄","town_kana":"ホエイ","prefecture_code":1},"1421":{"zip_code":"0611421","prefecture":"北海道","prefecture_kana":"ホッカイドウ","city":"恵庭市","city_kana":"エニワシ","town":"牧場","town_kana":"マキバ","prefecture_code":1},"1427":{"zip_code":"0611427","prefecture":"北海道","prefecture_kana":"ホッカイドウ","city":"恵庭市","city_kana":"エニワシ","town":"美咲野","town_kana":"ミサキノ","prefecture_code":1},"1442":{"zip_code":"0611442","prefecture":"北海道","prefecture_kana":"ホッカイドウ","city":"恵庭市","city_kana":"エニワシ","town":"緑町","town_kana":"ミドリマチ","prefecture_code":1},"1375":{"zip_code":"0611375","prefecture":"北海道","prefecture_kana":"ホッカイドウ","city":"恵庭市","city_kana":"エニワシ","town":"南島松","town_kana":"ミナミシママツ","prefecture_code":1},"1371":{"zip_code":"0611371","prefecture":"北海道","prefecture_kana":"ホッカイドウ","city":"恵庭市","city_kana":"エニワシ","town":"恵み野東","town_kana":"メグミノヒガシ","prefecture_code":1},"1373":{"zip_code":"0611373","prefecture":"北海道","prefecture_kana":"ホッカイドウ","city":"恵庭市","city_kana":"エニワシ","town":"恵み野西","town_kana":"メグミノニシ","prefecture_code":1},"1372":{"zip_code":"0611372","prefecture":"北海道","prefecture_kana":"ホッカイドウ","city":"恵庭市","city_kana":"エニワシ","town":"恵み野南","town_kana":"メグミノミナミ","prefecture_code":1},"1374":{"zip_code":"0611374","prefecture":"北海道","prefecture_kana":"ホッカイドウ","city":"恵庭市","city_kana":"エニワシ","town":"恵み野北","town_kana":"メグミノキタ","prefecture_code":1},"1376":{"zip_code":"0611376","prefecture":"北海道","prefecture_kana":"ホッカイドウ","city":"恵庭市","city_kana":"エニワシ","town":"恵み野里美","town_kana":"メグミノサトミ","prefecture_code":1},"1413":{"zip_code":"0611413","prefecture":"北海道","prefecture_kana":"ホッカイドウ","city":"恵庭市","city_kana":"エニワシ","town":"本町","town_kana":"モトマチ","prefecture_code":1},"1406":{"zip_code":"0611406","prefecture":"北海道","prefecture_kana":"ホッカイドウ","city":"恵庭市","city_kana":"エニワシ","town":"和光町","town_kana":"ワコウチョウ","prefecture_code":1},"1100":{"zip_code":"0611100","prefecture":"北海道","prefecture_kana":"ホッカイドウ","city":"北広島市","city_kana":"キタヒロシマシ","town":"","town_kana":"","prefecture_code":1},"1141":{"zip_code":"0611141","prefecture":"北海道","prefecture_kana":"ホッカイドウ","city":"北広島市","city_kana":"キタヒロシマシ","town":"青葉町","town_kana":"アオバチョウ","prefecture_code":1},"1123":{"zip_code":"0611123","prefecture":"北海道","prefecture_kana":"ホッカイドウ","city":"北広島市","city_kana":"キタヒロシマシ","town":"朝日町","town_kana":"アサヒチョウ","prefecture_code":1},"1145":{"zip_code":"0611145","prefecture":"北海道","prefecture_kana":"ホッカイドウ","city":"北広島市","city_kana":"キタヒロシマシ","town":"泉町","town_kana":"イズミチョウ","prefecture_code":1},"1125":{"zip_code":"0611125","prefecture":"北海道","prefecture_kana":"ホッカイドウ","city":"北広島市","city_kana":"キタヒロシマシ","town":"稲穂町東","town_kana":"イナホチョウヒガシ","prefecture_code":1},"1124":{"zip_code":"0611124","prefecture":"北海道","prefecture_kana":"ホッカイドウ","city":"北広島市","city_kana":"キタヒロシマシ","town":"稲穂町西","town_kana":"イナホチョウニシ","prefecture_code":1},"1270":{"zip_code":"0611270","prefecture":"北海道","prefecture_kana":"ホッカイドウ","city":"北広島市","city_kana":"キタヒロシマシ","town":"大曲","town_kana":"オオマガリ","prefecture_code":1},"1274":{"zip_code":"0611274","prefecture":"北海道","prefecture_kana":"ホッカイドウ","city":"北広島市","city_kana":"キタヒロシマシ","town":"大曲工業団地","town_kana":"オオマガリコウギョウダンチ","prefecture_code":1},"1278":{"zip_code":"0611278","prefecture":"北海道","prefecture_kana":"ホッカイドウ","city":"北広島市","city_kana":"キタヒロシマシ","town":"大曲幸町","town_kana":"オオマガリサイワイチョウ","prefecture_code":1},"1272":{"zip_code":"0611272","prefecture":"北海道","prefecture_kana":"ホッカイドウ","city":"北広島市","city_kana":"キタヒロシマシ","town":"大曲末広","town_kana":"オオマガリスエヒロ","prefecture_code":1},"1271":{"zip_code":"0611271","prefecture":"北海道","prefecture_kana":"ホッカイドウ","city":"北広島市","city_kana":"キタヒロシマシ","town":"大曲中央","town_kana":"オオマガリチュウオウ","prefecture_code":1},"1279":{"zip_code":"0611279","prefecture":"北海道","prefecture_kana":"ホッカイドウ","city":"北広島市","city_kana":"キタヒロシマシ","town":"大曲並木","town_kana":"オオマガリナミキ","prefecture_code":1},"1273":{"zip_code":"0611273","prefecture":"北海道","prefecture_kana":"ホッカイドウ","city":"北広島市","city_kana":"キタヒロシマシ","town":"大曲柏葉","town_kana":"オオマガリハクヨウ","prefecture_code":1},"1277":{"zip_code":"0611277","prefecture":"北海道","prefecture_kana":"ホッカイドウ","city":"北広島市","city_kana":"キタヒロシマシ","town":"大曲光","town_kana":"オオマガリヒカリ","prefecture_code":1},"1276":{"zip_code":"0611276","prefecture":"北海道","prefecture_kana":"ホッカイドウ","city":"北広島市","city_kana":"キタヒロシマシ","town":"大曲緑ケ丘","town_kana":"オオマガリミドリガオカ","prefecture_code":1},"1275":{"zip_code":"0611275","prefecture":"北海道","prefecture_kana":"ホッカイドウ","city":"北広島市","city_kana":"キタヒロシマシ","town":"大曲南ケ丘","town_kana":"オオマガリミナミガオカ","prefecture_code":1},"1111":{"zip_code":"0611111","prefecture":"北海道","prefecture_kana":"ホッカイドウ","city":"北広島市","city_kana":"キタヒロシマシ","town":"北の里","town_kana":"キタノサト","prefecture_code":1},"1261":{"zip_code":"0611261","prefecture":"北海道","prefecture_kana":"ホッカイドウ","city":"北広島市","city_kana":"キタヒロシマシ","town":"希望ケ丘","town_kana":"キボウガオカ","prefecture_code":1},"1112":{"zip_code":"0611112","prefecture":"北海道","prefecture_kana":"ホッカイドウ","city":"北広島市","city_kana":"キタヒロシマシ","town":"共栄","town_kana":"キョウエイ","prefecture_code":1},"1113":{"zip_code":"0611113","prefecture":"北海道","prefecture_kana":"ホッカイドウ","city":"北広島市","city_kana":"キタヒロシマシ","town":"共栄町","town_kana":"キョウエイチョウ","prefecture_code":1},"1134":{"zip_code":"0611134","prefecture":"北海道","prefecture_kana":"ホッカイドウ","city":"北広島市","city_kana":"キタヒロシマシ","town":"広葉町","town_kana":"コウヨウチョウ","prefecture_code":1},"1133":{"zip_code":"0611133","prefecture":"北海道","prefecture_kana":"ホッカイドウ","city":"北広島市","city_kana":"キタヒロシマシ","town":"栄町","town_kana":"サカエチョウ","prefecture_code":1},"1147":{"zip_code":"0611147","prefecture":"北海道","prefecture_kana":"ホッカイドウ","city":"北広島市","city_kana":"キタヒロシマシ","town":"里見町","town_kana":"サトミチョウ","prefecture_code":1},"1265":{"zip_code":"0611265","prefecture":"北海道","prefecture_kana":"ホッカイドウ","city":"北広島市","city_kana":"キタヒロシマシ","town":"島松","town_kana":"シママツ","prefecture_code":1},"1144":{"zip_code":"0611144","prefecture":"北海道","prefecture_kana":"ホッカイドウ","city":"北広島市","city_kana":"キタヒロシマシ","town":"白樺町","town_kana":"シラカバチョウ","prefecture_code":1},"1126":{"zip_code":"0611126","prefecture":"北海道","prefecture_kana":"ホッカイドウ","city":"北広島市","city_kana":"キタヒロシマシ","town":"新富町東","town_kana":"シントミチョウヒガシ","prefecture_code":1},"1127":{"zip_code":"0611127","prefecture":"北海道","prefecture_kana":"ホッカイドウ","city":"北広島市","city_kana":"キタヒロシマシ","town":"新富町西","town_kana":"シントミチョウニシ","prefecture_code":1},"1146":{"zip_code":"0611146","prefecture":"北海道","prefecture_kana":"ホッカイドウ","city":"北広島市","city_kana":"キタヒロシマシ","town":"高台町","town_kana":"タカダイチョウ","prefecture_code":1},"1121":{"zip_code":"0611121","prefecture":"北海道","prefecture_kana":"ホッカイドウ","city":"北広島市","city_kana":"キタヒロシマシ","town":"中央","town_kana":"チュウオウ","prefecture_code":1},"1135":{"zip_code":"0611135","prefecture":"北海道","prefecture_kana":"ホッカイドウ","city":"北広島市","city_kana":"キタヒロシマシ","town":"輝美町","town_kana":"テルミチョウ","prefecture_code":1},"1153":{"zip_code":"0611153","prefecture":"北海道","prefecture_kana":"ホッカイドウ","city":"北広島市","city_kana":"キタヒロシマシ","town":"富ケ岡","town_kana":"トミガオカ","prefecture_code":1},"1152":{"zip_code":"0611152","prefecture":"北海道","prefecture_kana":"ホッカイドウ","city":"北広島市","city_kana":"キタヒロシマシ","town":"中の沢","town_kana":"ナカノサワ","prefecture_code":1},"1101":{"zip_code":"0611101","prefecture":"北海道","prefecture_kana":"ホッカイドウ","city":"北広島市","city_kana":"キタヒロシマシ","town":"中の沢","town_kana":"ナカノサワ","prefecture_code":1},"1103":{"zip_code":"0611103","prefecture":"北海道","prefecture_kana":"ホッカイドウ","city":"北広島市","city_kana":"キタヒロシマシ","town":"虹ケ丘","town_kana":"ニジガオカ","prefecture_code":1},"1102":{"zip_code":"0611102","prefecture":"北海道","prefecture_kana":"ホッカイドウ","city":"北広島市","city_kana":"キタヒロシマシ","town":"西の里","town_kana":"ニシノサト","prefecture_code":1},"1105":{"zip_code":"0611105","prefecture":"北海道","prefecture_kana":"ホッカイドウ","city":"北広島市","city_kana":"キタヒロシマシ","town":"西の里東","town_kana":"ニシノサトヒガシ","prefecture_code":1},"1106":{"zip_code":"0611106","prefecture":"北海道","prefecture_kana":"ホッカイドウ","city":"北広島市","city_kana":"キタヒロシマシ","town":"西の里南","town_kana":"ニシノサトミナミ","prefecture_code":1},"1104":{"zip_code":"0611104","prefecture":"北海道","prefecture_kana":"ホッカイドウ","city":"北広島市","city_kana":"キタヒロシマシ","town":"西の里北","town_kana":"ニシノサトキタ","prefecture_code":1},"1267":{"zip_code":"0611267","prefecture":"北海道","prefecture_kana":"ホッカイドウ","city":"北広島市","city_kana":"キタヒロシマシ","town":"仁別","town_kana":"ニベツ","prefecture_code":1},"1114":{"zip_code":"0611114","prefecture":"北海道","prefecture_kana":"ホッカイドウ","city":"北広島市","city_kana":"キタヒロシマシ","town":"東共栄","town_kana":"ヒガシキョウエイ","prefecture_code":1},"1151":{"zip_code":"0611151","prefecture":"北海道","prefecture_kana":"ホッカイドウ","city":"北広島市","city_kana":"キタヒロシマシ","town":"東の里","town_kana":"ヒガシノサト","prefecture_code":1},"1122":{"zip_code":"0611122","prefecture":"北海道","prefecture_kana":"ホッカイドウ","city":"北広島市","city_kana":"キタヒロシマシ","town":"広島","town_kana":"ヒロシマ","prefecture_code":1},"1132":{"zip_code":"0611132","prefecture":"北海道","prefecture_kana":"ホッカイドウ","city":"北広島市","city_kana":"キタヒロシマシ","town":"北進町","town_kana":"ホクシンチョウ","prefecture_code":1},"1136":{"zip_code":"0611136","prefecture":"北海道","prefecture_kana":"ホッカイドウ","city":"北広島市","city_kana":"キタヒロシマシ","town":"松葉町","town_kana":"マツバチョウ","prefecture_code":1},"1115":{"zip_code":"0611115","prefecture":"北海道","prefecture_kana":"ホッカイドウ","city":"北広島市","city_kana":"キタヒロシマシ","town":"美咲き野","town_kana":"ミサキノ","prefecture_code":1},"1131":{"zip_code":"0611131","prefecture":"北海道","prefecture_kana":"ホッカイドウ","city":"北広島市","city_kana":"キタヒロシマシ","town":"美沢","town_kana":"ミサワ","prefecture_code":1},"1266":{"zip_code":"0611266","prefecture":"北海道","prefecture_kana":"ホッカイドウ","city":"北広島市","city_kana":"キタヒロシマシ","town":"三島","town_kana":"ミシマ","prefecture_code":1},"1143":{"zip_code":"0611143","prefecture":"北海道","prefecture_kana":"ホッカイドウ","city":"北広島市","city_kana":"キタヒロシマシ","town":"南町","town_kana":"ミナミチョウ","prefecture_code":1},"1154":{"zip_code":"0611154","prefecture":"北海道","prefecture_kana":"ホッカイドウ","city":"北広島市","city_kana":"キタヒロシマシ","town":"南の里","town_kana":"ミナミノサト","prefecture_code":1},"1148":{"zip_code":"0611148","prefecture":"北海道","prefecture_kana":"ホッカイドウ","city":"北広島市","city_kana":"キタヒロシマシ","town":"山手町","town_kana":"ヤマテチョウ","prefecture_code":1},"1137":{"zip_code":"0611137","prefecture":"北海道","prefecture_kana":"ホッカイドウ","city":"北広島市","city_kana":"キタヒロシマシ","town":"緑陽町","town_kana":"リョクヨウチョウ","prefecture_code":1},"1264":{"zip_code":"0611264","prefecture":"北海道","prefecture_kana":"ホッカイドウ","city":"北広島市","city_kana":"キタヒロシマシ","town":"輪厚","town_kana":"ワッツ","prefecture_code":1},"1281":{"zip_code":"0611281","prefecture":"北海道","prefecture_kana":"ホッカイドウ","city":"北広島市","city_kana":"キタヒロシマシ","town":"輪厚工業団地","town_kana":"ワッツコウギョウダンチ","prefecture_code":1},"1268":{"zip_code":"0611268","prefecture":"北海道","prefecture_kana":"ホッカイドウ","city":"北広島市","city_kana":"キタヒロシマシ","town":"輪厚中央","town_kana":"ワッツチュウオウ","prefecture_code":1},"1269":{"zip_code":"0611269","prefecture":"北海道","prefecture_kana":"ホッカイドウ","city":"北広島市","city_kana":"キタヒロシマシ","town":"輪厚元町","town_kana":"ワッツモトマチ","prefecture_code":1},"1142":{"zip_code":"0611142","prefecture":"北海道","prefecture_kana":"ホッカイドウ","city":"北広島市","city_kana":"キタヒロシマシ","town":"若葉町","town_kana":"ワカバチョウ","prefecture_code":1},"3200":{"zip_code":"0613200","prefecture":"北海道","prefecture_kana":"ホッカイドウ","city":"石狩市","city_kana":"イシカリシ","town":"","town_kana":"","prefecture_code":1},"3601":{"zip_code":"0613601","prefecture":"北海道","prefecture_kana":"ホッカイドウ","city":"石狩市","city_kana":"イシカリシ","town":"厚田区厚田","town_kana":"アツタクアツタ","prefecture_code":1},"3602":{"zip_code":"0613602","prefecture":"北海道","prefecture_kana":"ホッカイドウ","city":"石狩市","city_kana":"イシカリシ","town":"厚田区押琴","town_kana":"アツタクオシコト","prefecture_code":1},"3151":{"zip_code":"0613151","prefecture":"北海道","prefecture_kana":"ホッカイドウ","city":"石狩市","city_kana":"イシカリシ","town":"厚田区濃昼","town_kana":"アツタクゴキビル","prefecture_code":1},"3603":{"zip_code":"0613603","prefecture":"北海道","prefecture_kana":"ホッカイドウ","city":"石狩市","city_kana":"イシカリシ","town":"厚田区小谷","town_kana":"アツタクコタニ","prefecture_code":1},"3521":{"zip_code":"0613521","prefecture":"北海道","prefecture_kana":"ホッカイドウ","city":"石狩市","city_kana":"イシカリシ","town":"厚田区古潭","town_kana":"アツタクコタン","prefecture_code":1},"3331":[{"zip_code":"0613331","prefecture":"北海道","prefecture_kana":"ホッカイドウ","city":"石狩市","city_kana":"イシカリシ","town":"厚田区聚富中央","town_kana":"アツタクシップチュウオウ","prefecture_code":1},{"zip_code":"0613331","prefecture":"北海道","prefecture_kana":"ホッカイドウ","city":"石狩市","city_kana":"イシカリシ","town":"厚田区聚富シラツカリ","town_kana":"アツタクシップシラツカリ","prefecture_code":1}],"3441":{"zip_code":"0613441","prefecture":"北海道","prefecture_kana":"ホッカイドウ","city":"石狩市","city_kana":"イシカリシ","town":"厚田区聚富","town_kana":"アツタクシップ","prefecture_code":1},"3332":{"zip_code":"0613332","prefecture":"北海道","prefecture_kana":"ホッカイドウ","city":"石狩市","city_kana":"イシカリシ","town":"厚田区虹が原","town_kana":"アツタクニジガハラ","prefecture_code":1},"3605":{"zip_code":"0613605","prefecture":"北海道","prefecture_kana":"ホッカイドウ","city":"石狩市","city_kana":"イシカリシ","town":"厚田区別狩","town_kana":"アツタクベッカリ","prefecture_code":1},"3522":{"zip_code":"0613522","prefecture":"北海道","prefecture_kana":"ホッカイドウ","city":"石狩市","city_kana":"イシカリシ","town":"厚田区嶺泊","town_kana":"アツタクミネトマリ","prefecture_code":1},"3523":{"zip_code":"0613523","prefecture":"北海道","prefecture_kana":"ホッカイドウ","city":"石狩市","city_kana":"イシカリシ","town":"厚田区望来","town_kana":"アツタクモウライ","prefecture_code":1},"3606":{"zip_code":"0613606","prefecture":"北海道","prefecture_kana":"ホッカイドウ","city":"石狩市","city_kana":"イシカリシ","town":"厚田区安瀬","town_kana":"アツタクヤソスケ","prefecture_code":1},"3377":{"zip_code":"0613377","prefecture":"北海道","prefecture_kana":"ホッカイドウ","city":"石狩市","city_kana":"イシカリシ","town":"親船町","town_kana":"オヤフネチョウ","prefecture_code":1},"3365":{"zip_code":"0613365","prefecture":"北海道","prefecture_kana":"ホッカイドウ","city":"石狩市","city_kana":"イシカリシ","town":"親船東一条","town_kana":"オヤフネヒガシ1ジョウ","prefecture_code":1},"3366":{"zip_code":"0613366","prefecture":"北海道","prefecture_kana":"ホッカイドウ","city":"石狩市","city_kana":"イシカリシ","town":"親船東二条","town_kana":"オヤフネヒガシ2ジョウ","prefecture_code":1},"3367":{"zip_code":"0613367","prefecture":"北海道","prefecture_kana":"ホッカイドウ","city":"石狩市","city_kana":"イシカリシ","town":"親船東三条","town_kana":"オヤフネヒガシ3ジョウ","prefecture_code":1},"3245":{"zip_code":"0613245","prefecture":"北海道","prefecture_kana":"ホッカイドウ","city":"石狩市","city_kana":"イシカリシ","town":"生振","town_kana":"オヤフル","prefecture_code":1},"3362":{"zip_code":"0613362","prefecture":"北海道","prefecture_kana":"ホッカイドウ","city":"石狩市","city_kana":"イシカリシ","town":"北生振","town_kana":"キタオヤフル","prefecture_code":1},"3220":{"zip_code":"0613220","prefecture":"北海道","prefecture_kana":"ホッカイドウ","city":"石狩市","city_kana":"イシカリシ","town":"志美","town_kana":"シビ","prefecture_code":1},"3373":{"zip_code":"0613373","prefecture":"北海道","prefecture_kana":"ホッカイドウ","city":"石狩市","city_kana":"イシカリシ","town":"新町","town_kana":"シンマチ","prefecture_code":1},"3242":{"zip_code":"0613242","prefecture":"北海道","prefecture_kana":"ホッカイドウ","city":"石狩市","city_kana":"イシカリシ","town":"新港中央","town_kana":"シンコウチュウオウ","prefecture_code":1},"3243":{"zip_code":"0613243","prefecture":"北海道","prefecture_kana":"ホッカイドウ","city":"石狩市","city_kana":"イシカリシ","town":"新港東","town_kana":"シンコウヒガシ","prefecture_code":1},"3241":{"zip_code":"0613241","prefecture":"北海道","prefecture_kana":"ホッカイドウ","city":"石狩市","city_kana":"イシカリシ","town":"新港西","town_kana":"シンコウニシ","prefecture_code":1},"3244":{"zip_code":"0613244","prefecture":"北海道","prefecture_kana":"ホッカイドウ","city":"石狩市","city_kana":"イシカリシ","town":"新港南","town_kana":"シンコウミナミ","prefecture_code":1},"3253":{"zip_code":"0613253","prefecture":"北海道","prefecture_kana":"ホッカイドウ","city":"石狩市","city_kana":"イシカリシ","town":"樽川三条","town_kana":"タルカワ3ジョウ","prefecture_code":1},"3254":{"zip_code":"0613254","prefecture":"北海道","prefecture_kana":"ホッカイドウ","city":"石狩市","city_kana":"イシカリシ","town":"樽川四条","town_kana":"タルカワ4ジョウ","prefecture_code":1},"3255":{"zip_code":"0613255","prefecture":"北海道","prefecture_kana":"ホッカイドウ","city":"石狩市","city_kana":"イシカリシ","town":"樽川五条","town_kana":"タルカワ5ジョウ","prefecture_code":1},"3256":{"zip_code":"0613256","prefecture":"北海道","prefecture_kana":"ホッカイドウ","city":"石狩市","city_kana":"イシカリシ","town":"樽川六条","town_kana":"タルカワ6ジョウ","prefecture_code":1},"3257":{"zip_code":"0613257","prefecture":"北海道","prefecture_kana":"ホッカイドウ","city":"石狩市","city_kana":"イシカリシ","town":"樽川七条","town_kana":"タルカワ7ジョウ","prefecture_code":1},"3258":{"zip_code":"0613258","prefecture":"北海道","prefecture_kana":"ホッカイドウ","city":"石狩市","city_kana":"イシカリシ","town":"樽川八条","town_kana":"タルカワ8ジョウ","prefecture_code":1},"3259":{"zip_code":"0613259","prefecture":"北海道","prefecture_kana":"ホッカイドウ","city":"石狩市","city_kana":"イシカリシ","town":"樽川九条","town_kana":"タルカワ9ジョウ","prefecture_code":1},"3251":{"zip_code":"0613251","prefecture":"北海道","prefecture_kana":"ホッカイドウ","city":"石狩市","city_kana":"イシカリシ","town":"樽川","town_kana":"タルカワ","prefecture_code":1},"3374":{"zip_code":"0613374","prefecture":"北海道","prefecture_kana":"ホッカイドウ","city":"石狩市","city_kana":"イシカリシ","town":"仲町","town_kana":"ナカマチ","prefecture_code":1},"3484":{"zip_code":"0613484","prefecture":"北海道","prefecture_kana":"ホッカイドウ","city":"石狩市","city_kana":"イシカリシ","town":"八幡","town_kana":"ハチマン","prefecture_code":1},"3361":{"zip_code":"0613361","prefecture":"北海道","prefecture_kana":"ホッカイドウ","city":"石狩市","city_kana":"イシカリシ","town":"八幡","town_kana":"ハチマン","prefecture_code":1},"3480":{"zip_code":"0613480","prefecture":"北海道","prefecture_kana":"ホッカイドウ","city":"石狩市","city_kana":"イシカリシ","town":"八幡町五の沢","town_kana":"ハチマンチョウゴノサワ","prefecture_code":1},"3481":{"zip_code":"0613481","prefecture":"北海道","prefecture_kana":"ホッカイドウ","city":"石狩市","city_kana":"イシカリシ","town":"八幡町高岡","town_kana":"ハチマンチョウタカオカ","prefecture_code":1},"3482":{"zip_code":"0613482","prefecture":"北海道","prefecture_kana":"ホッカイドウ","city":"石狩市","city_kana":"イシカリシ","town":"八幡町","town_kana":"ハチマンチョウ","prefecture_code":1},"3219":{"zip_code":"0613219","prefecture":"北海道","prefecture_kana":"ホッカイドウ","city":"石狩市","city_kana":"イシカリシ","town":"花川","town_kana":"ハナカワ","prefecture_code":1},"3211":{"zip_code":"0613211","prefecture":"北海道","prefecture_kana":"ホッカイドウ","city":"石狩市","city_kana":"イシカリシ","town":"花川北一条","town_kana":"ハナカワキタ1ジョウ","prefecture_code":1},"3212":{"zip_code":"0613212","prefecture":"北海道","prefecture_kana":"ホッカイドウ","city":"石狩市","city_kana":"イシカリシ","town":"花川北二条","town_kana":"ハナカワキタ2ジョウ","prefecture_code":1},"3213":{"zip_code":"0613213","prefecture":"北海道","prefecture_kana":"ホッカイドウ","city":"石狩市","city_kana":"イシカリシ","town":"花川北三条","town_kana":"ハナカワキタ3ジョウ","prefecture_code":1},"3214":{"zip_code":"0613214","prefecture":"北海道","prefecture_kana":"ホッカイドウ","city":"石狩市","city_kana":"イシカリシ","town":"花川北四条","town_kana":"ハナカワキタ4ジョウ","prefecture_code":1},"3215":{"zip_code":"0613215","prefecture":"北海道","prefecture_kana":"ホッカイドウ","city":"石狩市","city_kana":"イシカリシ","town":"花川北五条","town_kana":"ハナカワキタ5ジョウ","prefecture_code":1},"3216":{"zip_code":"0613216","prefecture":"北海道","prefecture_kana":"ホッカイドウ","city":"石狩市","city_kana":"イシカリシ","town":"花川北六条","town_kana":"ハナカワキタ6ジョウ","prefecture_code":1},"3217":{"zip_code":"0613217","prefecture":"北海道","prefecture_kana":"ホッカイドウ","city":"石狩市","city_kana":"イシカリシ","town":"花川北七条","town_kana":"ハナカワキタ7ジョウ","prefecture_code":1},"3248":{"zip_code":"0613248","prefecture":"北海道","prefecture_kana":"ホッカイドウ","city":"石狩市","city_kana":"イシカリシ","town":"花川東","town_kana":"ハナカワヒガシ","prefecture_code":1},"3261":{"zip_code":"0613261","prefecture":"北海道","prefecture_kana":"ホッカイドウ","city":"石狩市","city_kana":"イシカリシ","town":"花川東一条","town_kana":"ハナカワヒガシ1ジョウ","prefecture_code":1},"3262":{"zip_code":"0613262","prefecture":"北海道","prefecture_kana":"ホッカイドウ","city":"石狩市","city_kana":"イシカリシ","town":"花川東二条","town_kana":"ハナカワヒガシ2ジョウ","prefecture_code":1},"3210":{"zip_code":"0613210","prefecture":"北海道","prefecture_kana":"ホッカイドウ","city":"石狩市","city_kana":"イシカリシ","town":"花川南十条","town_kana":"ハナカワミナミ10ジョウ","prefecture_code":1},"3201":{"zip_code":"0613201","prefecture":"北海道","prefecture_kana":"ホッカイドウ","city":"石狩市","city_kana":"イシカリシ","town":"花川南一条","town_kana":"ハナカワミナミ1ジョウ","prefecture_code":1},"3202":{"zip_code":"0613202","prefecture":"北海道","prefecture_kana":"ホッカイドウ","city":"石狩市","city_kana":"イシカリシ","town":"花川南二条","town_kana":"ハナカワミナミ2ジョウ","prefecture_code":1},"3203":{"zip_code":"0613203","prefecture":"北海道","prefecture_kana":"ホッカイドウ","city":"石狩市","city_kana":"イシカリシ","town":"花川南三条","town_kana":"ハナカワミナミ3ジョウ","prefecture_code":1},"3204":{"zip_code":"0613204","prefecture":"北海道","prefecture_kana":"ホッカイドウ","city":"石狩市","city_kana":"イシカリシ","town":"花川南四条","town_kana":"ハナカワミナミ4ジョウ","prefecture_code":1},"3205":{"zip_code":"0613205","prefecture":"北海道","prefecture_kana":"ホッカイドウ","city":"石狩市","city_kana":"イシカリシ","town":"花川南五条","town_kana":"ハナカワミナミ5ジョウ","prefecture_code":1},"3206":{"zip_code":"0613206","prefecture":"北海道","prefecture_kana":"ホッカイドウ","city":"石狩市","city_kana":"イシカリシ","town":"花川南六条","town_kana":"ハナカワミナミ6ジョウ","prefecture_code":1},"3207":{"zip_code":"0613207","prefecture":"北海道","prefecture_kana":"ホッカイドウ","city":"石狩市","city_kana":"イシカリシ","town":"花川南七条","town_kana":"ハナカワミナミ7ジョウ","prefecture_code":1},"3208":{"zip_code":"0613208","prefecture":"北海道","prefecture_kana":"ホッカイドウ","city":"石狩市","city_kana":"イシカリシ","town":"花川南八条","town_kana":"ハナカワミナミ8ジョウ","prefecture_code":1},"3209":{"zip_code":"0613209","prefecture":"北海道","prefecture_kana":"ホッカイドウ","city":"石狩市","city_kana":"イシカリシ","town":"花川南九条","town_kana":"ハナカワミナミ9ジョウ","prefecture_code":1},"3112":{"zip_code":"0613112","prefecture":"北海道","prefecture_kana":"ホッカイドウ","city":"石狩市","city_kana":"イシカリシ","town":"浜益区送毛","town_kana":"ハママスクオクリゲ","prefecture_code":1},"3107":{"zip_code":"0613107","prefecture":"北海道","prefecture_kana":"ホッカイドウ","city":"石狩市","city_kana":"イシカリシ","town":"浜益区柏木","town_kana":"ハママスクカシワギ","prefecture_code":1},"3106":{"zip_code":"0613106","prefecture":"北海道","prefecture_kana":"ホッカイドウ","city":"石狩市","city_kana":"イシカリシ","town":"浜益区川下","town_kana":"ハママスクカワシモ","prefecture_code":1},"3102":{"zip_code":"0613102","prefecture":"北海道","prefecture_kana":"ホッカイドウ","city":"石狩市","city_kana":"イシカリシ","town":"浜益区群別","town_kana":"ハママスククンベツ","prefecture_code":1},"3113":{"zip_code":"0613113","prefecture":"北海道","prefecture_kana":"ホッカイドウ","city":"石狩市","city_kana":"イシカリシ","town":"浜益区濃昼","town_kana":"ハママスクゴキビル","prefecture_code":1},"3109":{"zip_code":"0613109","prefecture":"北海道","prefecture_kana":"ホッカイドウ","city":"石狩市","city_kana":"イシカリシ","town":"浜益区御料地","town_kana":"ハママスクゴリョウチ","prefecture_code":1},"3105":{"zip_code":"0613105","prefecture":"北海道","prefecture_kana":"ホッカイドウ","city":"石狩市","city_kana":"イシカリシ","town":"浜益区千代志別","town_kana":"ハママスクチヨシベツ","prefecture_code":1},"3104":{"zip_code":"0613104","prefecture":"北海道","prefecture_kana":"ホッカイドウ","city":"石狩市","city_kana":"イシカリシ","town":"浜益区床丹","town_kana":"ハママスクトコタン","prefecture_code":1},"3101":{"zip_code":"0613101","prefecture":"北海道","prefecture_kana":"ホッカイドウ","city":"石狩市","city_kana":"イシカリシ","town":"浜益区浜益","town_kana":"ハママスクハママス","prefecture_code":1},"3111":{"zip_code":"0613111","prefecture":"北海道","prefecture_kana":"ホッカイドウ","city":"石狩市","city_kana":"イシカリシ","town":"浜益区毘砂別","town_kana":"ハママスクビシャベツ","prefecture_code":1},"3103":{"zip_code":"0613103","prefecture":"北海道","prefecture_kana":"ホッカイドウ","city":"石狩市","city_kana":"イシカリシ","town":"浜益区幌","town_kana":"ハママスクホロ","prefecture_code":1},"3108":{"zip_code":"0613108","prefecture":"北海道","prefecture_kana":"ホッカイドウ","city":"石狩市","city_kana":"イシカリシ","town":"浜益区実田","town_kana":"ハママスクミタ","prefecture_code":1},"3371":{"zip_code":"0613371","prefecture":"北海道","prefecture_kana":"ホッカイドウ","city":"石狩市","city_kana":"イシカリシ","town":"浜町","town_kana":"ハママチ","prefecture_code":1},"3281":{"zip_code":"0613281","prefecture":"北海道","prefecture_kana":"ホッカイドウ","city":"石狩市","city_kana":"イシカリシ","town":"花畔一条","town_kana":"バンナグロ1ジョウ","prefecture_code":1},"3282":{"zip_code":"0613282","prefecture":"北海道","prefecture_kana":"ホッカイドウ","city":"石狩市","city_kana":"イシカリシ","town":"花畔二条","town_kana":"バンナグロ2ジョウ","prefecture_code":1},"3283":{"zip_code":"0613283","prefecture":"北海道","prefecture_kana":"ホッカイドウ","city":"石狩市","city_kana":"イシカリシ","town":"花畔三条","town_kana":"バンナグロ3ジョウ","prefecture_code":1},"3284":{"zip_code":"0613284","prefecture":"北海道","prefecture_kana":"ホッカイドウ","city":"石狩市","city_kana":"イシカリシ","town":"花畔四条","town_kana":"バンナグロ4ジョウ","prefecture_code":1},"3218":{"zip_code":"0613218","prefecture":"北海道","prefecture_kana":"ホッカイドウ","city":"石狩市","city_kana":"イシカリシ","town":"花畔","town_kana":"バンナグロ","prefecture_code":1},"3368":{"zip_code":"0613368","prefecture":"北海道","prefecture_kana":"ホッカイドウ","city":"石狩市","city_kana":"イシカリシ","town":"美登位","town_kana":"ビトイ","prefecture_code":1},"3378":{"zip_code":"0613378","prefecture":"北海道","prefecture_kana":"ホッカイドウ","city":"石狩市","city_kana":"イシカリシ","town":"船場町","town_kana":"フナバチョウ","prefecture_code":1},"3372":{"zip_code":"0613372","prefecture":"北海道","prefecture_kana":"ホッカイドウ","city":"石狩市","city_kana":"イシカリシ","town":"弁天町","town_kana":"ベンテンチョウ","prefecture_code":1},"3375":{"zip_code":"0613375","prefecture":"北海道","prefecture_kana":"ホッカイドウ","city":"石狩市","city_kana":"イシカリシ","town":"本町","town_kana":"ホンチョウ","prefecture_code":1},"3483":{"zip_code":"0613483","prefecture":"北海道","prefecture_kana":"ホッカイドウ","city":"石狩市","city_kana":"イシカリシ","town":"緑ケ原","town_kana":"ミドリガハラ","prefecture_code":1},"3376":{"zip_code":"0613376","prefecture":"北海道","prefecture_kana":"ホッカイドウ","city":"石狩市","city_kana":"イシカリシ","town":"横町","town_kana":"ヨコマチ","prefecture_code":1},"3230":{"zip_code":"0613230","prefecture":"北海道","prefecture_kana":"ホッカイドウ","city":"石狩市","city_kana":"イシカリシ","town":"緑苑台中央","town_kana":"リョクエンダイチュウオウ","prefecture_code":1},"3231":{"zip_code":"0613231","prefecture":"北海道","prefecture_kana":"ホッカイドウ","city":"石狩市","city_kana":"イシカリシ","town":"緑苑台西一条","town_kana":"リョクエンダイニシ1ジョウ","prefecture_code":1},"3232":{"zip_code":"0613232","prefecture":"北海道","prefecture_kana":"ホッカイドウ","city":"石狩市","city_kana":"イシカリシ","town":"緑苑台西二条","town_kana":"リョクエンダイニシ2ジョウ","prefecture_code":1},"3221":{"zip_code":"0613221","prefecture":"北海道","prefecture_kana":"ホッカイドウ","city":"石狩市","city_kana":"イシカリシ","town":"緑苑台東一条","town_kana":"リョクエンダイヒガシ1ジョウ","prefecture_code":1},"3222":{"zip_code":"0613222","prefecture":"北海道","prefecture_kana":"ホッカイドウ","city":"石狩市","city_kana":"イシカリシ","town":"緑苑台東二条","town_kana":"リョクエンダイヒガシ2ジョウ","prefecture_code":1},"3223":{"zip_code":"0613223","prefecture":"北海道","prefecture_kana":"ホッカイドウ","city":"石狩市","city_kana":"イシカリシ","town":"緑苑台東三条","town_kana":"リョクエンダイヒガシ3ジョウ","prefecture_code":1},"3363":{"zip_code":"0613363","prefecture":"北海道","prefecture_kana":"ホッカイドウ","city":"石狩市","city_kana":"イシカリシ","town":"若生町","town_kana":"ワカオイチョウ","prefecture_code":1},"0200":{"zip_code":"0610200","prefecture":"北海道","prefecture_kana":"ホッカイドウ","city":"石狩郡当別町","city_kana":"イシカリグントウベツチョウ","town":"","town_kana":"","prefecture_code":1},"0201":{"zip_code":"0610201","prefecture":"北海道","prefecture_kana":"ホッカイドウ","city":"石狩郡当別町","city_kana":"イシカリグントウベツチョウ","town":"青山","town_kana":"アオヤマ","prefecture_code":1},"0253":{"zip_code":"0610253","prefecture":"北海道","prefecture_kana":"ホッカイドウ","city":"石狩郡当別町","city_kana":"イシカリグントウベツチョウ","town":"青山奥二番川","town_kana":"アオヤマオク2バンガワ","prefecture_code":1},"0252":{"zip_code":"0610252","prefecture":"北海道","prefecture_kana":"ホッカイドウ","city":"石狩郡当別町","city_kana":"イシカリグントウベツチョウ","town":"青山奥三番川","town_kana":"アオヤマオク3バンガワ","prefecture_code":1},"0251":{"zip_code":"0610251","prefecture":"北海道","prefecture_kana":"ホッカイドウ","city":"石狩郡当別町","city_kana":"イシカリグントウベツチョウ","town":"青山奥四番川","town_kana":"アオヤマオク4バンガワ","prefecture_code":1},"0254":{"zip_code":"0610254","prefecture":"北海道","prefecture_kana":"ホッカイドウ","city":"石狩郡当別町","city_kana":"イシカリグントウベツチョウ","town":"青山中央青山奥","town_kana":"アオヤマチュウオウアオヤマオク","prefecture_code":1},"0232":{"zip_code":"0610232","prefecture":"北海道","prefecture_kana":"ホッカイドウ","city":"石狩郡当別町","city_kana":"イシカリグントウベツチョウ","town":"春日町","town_kana":"カスガチョウ","prefecture_code":1},"0212":{"zip_code":"0610212","prefecture":"北海道","prefecture_kana":"ホッカイドウ","city":"石狩郡当別町","city_kana":"イシカリグントウベツチョウ","town":"金沢","town_kana":"カナザワ","prefecture_code":1},"0218":{"zip_code":"0610218","prefecture":"北海道","prefecture_kana":"ホッカイドウ","city":"石狩郡当別町","city_kana":"イシカリグントウベツチョウ","town":"樺戸町","town_kana":"カバトチョウ","prefecture_code":1},"0207":{"zip_code":"0610207","prefecture":"北海道","prefecture_kana":"ホッカイドウ","city":"石狩郡当別町","city_kana":"イシカリグントウベツチョウ","town":"上当別","town_kana":"カミトウベツ","prefecture_code":1},"3774":{"zip_code":"0613774","prefecture":"北海道","prefecture_kana":"ホッカイドウ","city":"石狩郡当別町","city_kana":"イシカリグントウベツチョウ","town":"川下","town_kana":"カワシモ","prefecture_code":1},"0206":{"zip_code":"0610206","prefecture":"北海道","prefecture_kana":"ホッカイドウ","city":"石狩郡当別町","city_kana":"イシカリグントウベツチョウ","town":"川下","town_kana":"カワシモ","prefecture_code":1},"0217":{"zip_code":"0610217","prefecture":"北海道","prefecture_kana":"ホッカイドウ","city":"石狩郡当別町","city_kana":"イシカリグントウベツチョウ","town":"幸町","town_kana":"サイワイチョウ","prefecture_code":1},"0216":{"zip_code":"0610216","prefecture":"北海道","prefecture_kana":"ホッカイドウ","city":"石狩郡当別町","city_kana":"イシカリグントウベツチョウ","town":"栄町","town_kana":"サカエマチ","prefecture_code":1},"3772":{"zip_code":"0613772","prefecture":"北海道","prefecture_kana":"ホッカイドウ","city":"石狩郡当別町","city_kana":"イシカリグントウベツチョウ","town":"獅子内","town_kana":"シシナイ","prefecture_code":1},"0205":{"zip_code":"0610205","prefecture":"北海道","prefecture_kana":"ホッカイドウ","city":"石狩郡当別町","city_kana":"イシカリグントウベツチョウ","town":"下川町","town_kana":"シモカワチョウ","prefecture_code":1},"0233":{"zip_code":"0610233","prefecture":"北海道","prefecture_kana":"ホッカイドウ","city":"石狩郡当別町","city_kana":"イシカリグントウベツチョウ","town":"白樺町","town_kana":"シラカバチョウ","prefecture_code":1},"3777":{"zip_code":"0613777","prefecture":"北海道","prefecture_kana":"ホッカイドウ","city":"石狩郡当別町","city_kana":"イシカリグントウベツチョウ","town":"スウェーデンヒルズ","town_kana":"スウェーデンヒルズ","prefecture_code":1},"0224":{"zip_code":"0610224","prefecture":"北海道","prefecture_kana":"ホッカイドウ","city":"石狩郡当別町","city_kana":"イシカリグントウベツチョウ","town":"末広","town_kana":"スエヒロ","prefecture_code":1},"0227":{"zip_code":"0610227","prefecture":"北海道","prefecture_kana":"ホッカイドウ","city":"石狩郡当別町","city_kana":"イシカリグントウベツチョウ","town":"園生","town_kana":"ソノオ","prefecture_code":1},"3771":{"zip_code":"0613771","prefecture":"北海道","prefecture_kana":"ホッカイドウ","city":"石狩郡当別町","city_kana":"イシカリグントウベツチョウ","town":"高岡","town_kana":"タカオカ","prefecture_code":1},"0215":{"zip_code":"0610215","prefecture":"北海道","prefecture_kana":"ホッカイドウ","city":"石狩郡当別町","city_kana":"イシカリグントウベツチョウ","town":"対雁","town_kana":"ツイシカリ","prefecture_code":1},"3773":{"zip_code":"0613773","prefecture":"北海道","prefecture_kana":"ホッカイドウ","city":"石狩郡当別町","city_kana":"イシカリグントウベツチョウ","town":"当別太","town_kana":"トウベツブト","prefecture_code":1},"0211":{"zip_code":"0610211","prefecture":"北海道","prefecture_kana":"ホッカイドウ","city":"石狩郡当別町","city_kana":"イシカリグントウベツチョウ","town":"中小屋","town_kana":"ナカゴヤ","prefecture_code":1},"0226":{"zip_code":"0610226","prefecture":"北海道","prefecture_kana":"ホッカイドウ","city":"石狩郡当別町","city_kana":"イシカリグントウベツチョウ","town":"錦町","town_kana":"ニシキマチ","prefecture_code":1},"0234":{"zip_code":"0610234","prefecture":"北海道","prefecture_kana":"ホッカイドウ","city":"石狩郡当別町","city_kana":"イシカリグントウベツチョウ","town":"西町","town_kana":"ニシマチ","prefecture_code":1},"0213":{"zip_code":"0610213","prefecture":"北海道","prefecture_kana":"ホッカイドウ","city":"石狩郡当別町","city_kana":"イシカリグントウベツチョウ","town":"東裏","town_kana":"ヒガシウラ","prefecture_code":1},"0221":{"zip_code":"0610221","prefecture":"北海道","prefecture_kana":"ホッカイドウ","city":"石狩郡当別町","city_kana":"イシカリグントウベツチョウ","town":"東町","town_kana":"ヒガシマチ","prefecture_code":1},"3775":{"zip_code":"0613775","prefecture":"北海道","prefecture_kana":"ホッカイドウ","city":"石狩郡当別町","city_kana":"イシカリグントウベツチョウ","town":"ビトエ","town_kana":"ビトエ","prefecture_code":1},"3779":{"zip_code":"0613779","prefecture":"北海道","prefecture_kana":"ホッカイドウ","city":"石狩郡当別町","city_kana":"イシカリグントウベツチョウ","town":"太美スターライト","town_kana":"フトミスターライト","prefecture_code":1},"3776":{"zip_code":"0613776","prefecture":"北海道","prefecture_kana":"ホッカイドウ","city":"石狩郡当別町","city_kana":"イシカリグントウベツチョウ","town":"太美町","town_kana":"フトミチョウ","prefecture_code":1},"3778":{"zip_code":"0613778","prefecture":"北海道","prefecture_kana":"ホッカイドウ","city":"石狩郡当別町","city_kana":"イシカリグントウベツチョウ","town":"太美南","town_kana":"フトミミナミ","prefecture_code":1},"0208":{"zip_code":"0610208","prefecture":"北海道","prefecture_kana":"ホッカイドウ","city":"石狩郡当別町","city_kana":"イシカリグントウベツチョウ","town":"弁華別","town_kana":"ベンケベツ","prefecture_code":1},"0235":{"zip_code":"0610235","prefecture":"北海道","prefecture_kana":"ホッカイドウ","city":"石狩郡当別町","city_kana":"イシカリグントウベツチョウ","town":"北栄町","town_kana":"ホクエイチョウ","prefecture_code":1},"0225":{"zip_code":"0610225","prefecture":"北海道","prefecture_kana":"ホッカイドウ","city":"石狩郡当別町","city_kana":"イシカリグントウベツチョウ","town":"美里","town_kana":"ミサト","prefecture_code":1},"0203":{"zip_code":"0610203","prefecture":"北海道","prefecture_kana":"ホッカイドウ","city":"石狩郡当別町","city_kana":"イシカリグントウベツチョウ","town":"みどり野","town_kana":"ミドリノ","prefecture_code":1},"0228":{"zip_code":"0610228","prefecture":"北海道","prefecture_kana":"ホッカイドウ","city":"石狩郡当別町","city_kana":"イシカリグントウベツチョウ","town":"緑町","town_kana":"ミドリマチ","prefecture_code":1},"0222":{"zip_code":"0610222","prefecture":"北海道","prefecture_kana":"ホッカイドウ","city":"石狩郡当別町","city_kana":"イシカリグントウベツチョウ","town":"元町","town_kana":"モトマチ","prefecture_code":1},"0202":{"zip_code":"0610202","prefecture":"北海道","prefecture_kana":"ホッカイドウ","city":"石狩郡当別町","city_kana":"イシカリグントウベツチョウ","town":"茂平沢","town_kana":"モヘイザワ","prefecture_code":1},"0223":{"zip_code":"0610223","prefecture":"北海道","prefecture_kana":"ホッカイドウ","city":"石狩郡当別町","city_kana":"イシカリグントウベツチョウ","town":"弥生","town_kana":"ヤヨイ","prefecture_code":1},"0231":{"zip_code":"0610231","prefecture":"北海道","prefecture_kana":"ホッカイドウ","city":"石狩郡当別町","city_kana":"イシカリグントウベツチョウ","town":"六軒町","town_kana":"ロッケンチョウ","prefecture_code":1},"0204":{"zip_code":"0610204","prefecture":"北海道","prefecture_kana":"ホッカイドウ","city":"石狩郡当別町","city_kana":"イシカリグントウベツチョウ","town":"若葉","town_kana":"ワカバ","prefecture_code":1},"0214":{"zip_code":"0610214","prefecture":"北海道","prefecture_kana":"ホッカイドウ","city":"石狩郡当別町","city_kana":"イシカリグントウベツチョウ","town":"蕨岱","town_kana":"ワラビタイ","prefecture_code":1},"0500":{"zip_code":"0610500","prefecture":"北海道","prefecture_kana":"ホッカイドウ","city":"樺戸郡月形町","city_kana":"カバトグンツキガタチョウ","town":"","town_kana":"","prefecture_code":1},"0518":{"zip_code":"0610518","prefecture":"北海道","prefecture_kana":"ホッカイドウ","city":"樺戸郡月形町","city_kana":"カバトグンツキガタチョウ","town":"赤川","town_kana":"アカガワ","prefecture_code":1},"0514":{"zip_code":"0610514","prefecture":"北海道","prefecture_kana":"ホッカイドウ","city":"樺戸郡月形町","city_kana":"カバトグンツキガタチョウ","town":"麻生","town_kana":"アザブ","prefecture_code":1},"0517":{"zip_code":"0610517","prefecture":"北海道","prefecture_kana":"ホッカイドウ","city":"樺戸郡月形町","city_kana":"カバトグンツキガタチョウ","town":"北郷","town_kana":"キタゴウ","prefecture_code":1},"0502":{"zip_code":"0610502","prefecture":"北海道","prefecture_kana":"ホッカイドウ","city":"樺戸郡月形町","city_kana":"カバトグンツキガタチョウ","town":"北農場","town_kana":"キタノウジョウ","prefecture_code":1},"0527":{"zip_code":"0610527","prefecture":"北海道","prefecture_kana":"ホッカイドウ","city":"樺戸郡月形町","city_kana":"カバトグンツキガタチョウ","town":"共和","town_kana":"キョウワ","prefecture_code":1},"0508":{"zip_code":"0610508","prefecture":"北海道","prefecture_kana":"ホッカイドウ","city":"樺戸郡月形町","city_kana":"カバトグンツキガタチョウ","town":"厚栄","town_kana":"コウエイ","prefecture_code":1},"0515":{"zip_code":"0610515","prefecture":"北海道","prefecture_kana":"ホッカイドウ","city":"樺戸郡月形町","city_kana":"カバトグンツキガタチョウ","town":"五耕地山","town_kana":"ゴコウチヤマ","prefecture_code":1},"0505":{"zip_code":"0610505","prefecture":"北海道","prefecture_kana":"ホッカイドウ","city":"樺戸郡月形町","city_kana":"カバトグンツキガタチョウ","town":"札比内","town_kana":"サッピナイ","prefecture_code":1},"0512":{"zip_code":"0610512","prefecture":"北海道","prefecture_kana":"ホッカイドウ","city":"樺戸郡月形町","city_kana":"カバトグンツキガタチョウ","town":"市南","town_kana":"シナン","prefecture_code":1},"0511":{"zip_code":"0610511","prefecture":"北海道","prefecture_kana":"ホッカイドウ","city":"樺戸郡月形町","city_kana":"カバトグンツキガタチョウ","town":"市北","town_kana":"シホク","prefecture_code":1},"0523":{"zip_code":"0610523","prefecture":"北海道","prefecture_kana":"ホッカイドウ","city":"樺戸郡月形町","city_kana":"カバトグンツキガタチョウ","town":"昭栄","town_kana":"ショウエイ","prefecture_code":1},"0525":{"zip_code":"0610525","prefecture":"北海道","prefecture_kana":"ホッカイドウ","city":"樺戸郡月形町","city_kana":"カバトグンツキガタチョウ","town":"新栄","town_kana":"シンエイ","prefecture_code":1},"0506":{"zip_code":"0610506","prefecture":"北海道","prefecture_kana":"ホッカイドウ","city":"樺戸郡月形町","city_kana":"カバトグンツキガタチョウ","town":"新宮","town_kana":"シングウ","prefecture_code":1},"0501":{"zip_code":"0610501","prefecture":"北海道","prefecture_kana":"ホッカイドウ","city":"樺戸郡月形町","city_kana":"カバトグンツキガタチョウ","town":"新生","town_kana":"シンセイ","prefecture_code":1},"0526":{"zip_code":"0610526","prefecture":"北海道","prefecture_kana":"ホッカイドウ","city":"樺戸郡月形町","city_kana":"カバトグンツキガタチョウ","town":"新田","town_kana":"シンデン","prefecture_code":1},"0504":{"zip_code":"0610504","prefecture":"北海道","prefecture_kana":"ホッカイドウ","city":"樺戸郡月形町","city_kana":"カバトグンツキガタチョウ","town":"新富","town_kana":"シントミ","prefecture_code":1},"0516":{"zip_code":"0610516","prefecture":"北海道","prefecture_kana":"ホッカイドウ","city":"樺戸郡月形町","city_kana":"カバトグンツキガタチョウ","town":"知来乙","town_kana":"チライオツ","prefecture_code":1},"0528":{"zip_code":"0610528","prefecture":"北海道","prefecture_kana":"ホッカイドウ","city":"樺戸郡月形町","city_kana":"カバトグンツキガタチョウ","town":"月ケ岡","town_kana":"ツキガオカ","prefecture_code":1},"0522":{"zip_code":"0610522","prefecture":"北海道","prefecture_kana":"ホッカイドウ","city":"樺戸郡月形町","city_kana":"カバトグンツキガタチョウ","town":"月浜","town_kana":"ツキハマ","prefecture_code":1},"0503":{"zip_code":"0610503","prefecture":"北海道","prefecture_kana":"ホッカイドウ","city":"樺戸郡月形町","city_kana":"カバトグンツキガタチョウ","town":"豊ケ丘","town_kana":"トヨガオカ","prefecture_code":1},"0513":{"zip_code":"0610513","prefecture":"北海道","prefecture_kana":"ホッカイドウ","city":"樺戸郡月形町","city_kana":"カバトグンツキガタチョウ","town":"農事会","town_kana":"ノウジカイ","prefecture_code":1},"0521":{"zip_code":"0610521","prefecture":"北海道","prefecture_kana":"ホッカイドウ","city":"樺戸郡月形町","city_kana":"カバトグンツキガタチョウ","town":"南耕地","town_kana":"ミナミコウチ","prefecture_code":1},"0507":{"zip_code":"0610507","prefecture":"北海道","prefecture_kana":"ホッカイドウ","city":"樺戸郡月形町","city_kana":"カバトグンツキガタチョウ","town":"南札比内","town_kana":"ミナミサッピナイ","prefecture_code":1},"0524":{"zip_code":"0610524","prefecture":"北海道","prefecture_kana":"ホッカイドウ","city":"樺戸郡月形町","city_kana":"カバトグンツキガタチョウ","town":"南新田","town_kana":"ミナミシンデン","prefecture_code":1},"0600":{"zip_code":"0610600","prefecture":"北海道","prefecture_kana":"ホッカイドウ","city":"樺戸郡浦臼町","city_kana":"カバトグンウラウスチョウ","town":"","town_kana":"","prefecture_code":1},"0611":{"zip_code":"0610611","prefecture":"北海道","prefecture_kana":"ホッカイドウ","city":"樺戸郡浦臼町","city_kana":"カバトグンウラウスチョウ","town":"浦臼第１","town_kana":"ウラウスダイ1","prefecture_code":1},"0612":{"zip_code":"0610612","prefecture":"北海道","prefecture_kana":"ホッカイドウ","city":"樺戸郡浦臼町","city_kana":"カバトグンウラウスチョウ","town":"浦臼第２","town_kana":"ウラウスダイ2","prefecture_code":1},"0613":{"zip_code":"0610613","prefecture":"北海道","prefecture_kana":"ホッカイドウ","city":"樺戸郡浦臼町","city_kana":"カバトグンウラウスチョウ","town":"浦臼第３","town_kana":"ウラウスダイ3","prefecture_code":1},"0614":{"zip_code":"0610614","prefecture":"北海道","prefecture_kana":"ホッカイドウ","city":"樺戸郡浦臼町","city_kana":"カバトグンウラウスチョウ","town":"浦臼第４","town_kana":"ウラウスダイ4","prefecture_code":1},"0615":{"zip_code":"0610615","prefecture":"北海道","prefecture_kana":"ホッカイドウ","city":"樺戸郡浦臼町","city_kana":"カバトグンウラウスチョウ","town":"浦臼第５","town_kana":"ウラウスダイ5","prefecture_code":1},"0616":{"zip_code":"0610616","prefecture":"北海道","prefecture_kana":"ホッカイドウ","city":"樺戸郡浦臼町","city_kana":"カバトグンウラウスチョウ","town":"浦臼第６","town_kana":"ウラウスダイ6","prefecture_code":1},"0617":{"zip_code":"0610617","prefecture":"北海道","prefecture_kana":"ホッカイドウ","city":"樺戸郡浦臼町","city_kana":"カバトグンウラウスチョウ","town":"浦臼第７","town_kana":"ウラウスダイ7","prefecture_code":1},"0618":{"zip_code":"0610618","prefecture":"北海道","prefecture_kana":"ホッカイドウ","city":"樺戸郡浦臼町","city_kana":"カバトグンウラウスチョウ","town":"浦臼第８","town_kana":"ウラウスダイ8","prefecture_code":1},"0621":{"zip_code":"0610621","prefecture":"北海道","prefecture_kana":"ホッカイドウ","city":"樺戸郡浦臼町","city_kana":"カバトグンウラウスチョウ","town":"晩生内第１","town_kana":"オソキナイダイ1","prefecture_code":1},"0622":{"zip_code":"0610622","prefecture":"北海道","prefecture_kana":"ホッカイドウ","city":"樺戸郡浦臼町","city_kana":"カバトグンウラウスチョウ","town":"晩生内第２","town_kana":"オソキナイダイ2","prefecture_code":1},"0623":{"zip_code":"0610623","prefecture":"北海道","prefecture_kana":"ホッカイドウ","city":"樺戸郡浦臼町","city_kana":"カバトグンウラウスチョウ","town":"晩生内第３","town_kana":"オソキナイダイ3","prefecture_code":1},"0601":{"zip_code":"0610601","prefecture":"北海道","prefecture_kana":"ホッカイドウ","city":"樺戸郡浦臼町","city_kana":"カバトグンウラウスチョウ","town":"鶴沼第１","town_kana":"ツルヌマダイ1","prefecture_code":1},"0602":{"zip_code":"0610602","prefecture":"北海道","prefecture_kana":"ホッカイドウ","city":"樺戸郡浦臼町","city_kana":"カバトグンウラウスチョウ","town":"鶴沼第２","town_kana":"ツルヌマダイ2","prefecture_code":1},"0603":{"zip_code":"0610603","prefecture":"北海道","prefecture_kana":"ホッカイドウ","city":"樺戸郡浦臼町","city_kana":"カバトグンウラウスチョウ","town":"鶴沼第３","town_kana":"ツルヌマダイ3","prefecture_code":1}}