{"0400":{"zip_code":"0680400","prefecture":"北海道","prefecture_kana":"ホッカイドウ","city":"夕張市","city_kana":"ユウバリシ","town":"","town_kana":"","prefecture_code":1},"0405":{"zip_code":"0680405","prefecture":"北海道","prefecture_kana":"ホッカイドウ","city":"夕張市","city_kana":"ユウバリシ","town":"旭町","town_kana":"アサヒマチ","prefecture_code":1},"0754":{"zip_code":"0680754","prefecture":"北海道","prefecture_kana":"ホッカイドウ","city":"夕張市","city_kana":"ユウバリシ","town":"楓","town_kana":"カエデ","prefecture_code":1},"0662":{"zip_code":"0680662","prefecture":"北海道","prefecture_kana":"ホッカイドウ","city":"夕張市","city_kana":"ユウバリシ","town":"鹿島明石町","town_kana":"カシマアカシチョウ","prefecture_code":1},"0673":{"zip_code":"0680673","prefecture":"北海道","prefecture_kana":"ホッカイドウ","city":"夕張市","city_kana":"ユウバリシ","town":"鹿島栄町","town_kana":"カシマサカエチョウ","prefecture_code":1},"0661":{"zip_code":"0680661","prefecture":"北海道","prefecture_kana":"ホッカイドウ","city":"夕張市","city_kana":"ユウバリシ","town":"鹿島白金","town_kana":"カシマシロガネ","prefecture_code":1},"0665":{"zip_code":"0680665","prefecture":"北海道","prefecture_kana":"ホッカイドウ","city":"夕張市","city_kana":"ユウバリシ","town":"鹿島宝町","town_kana":"カシマタカラチョウ","prefecture_code":1},"0663":{"zip_code":"0680663","prefecture":"北海道","prefecture_kana":"ホッカイドウ","city":"夕張市","city_kana":"ユウバリシ","town":"鹿島千年町","town_kana":"カシマチトセチョウ","prefecture_code":1},"0664":{"zip_code":"0680664","prefecture":"北海道","prefecture_kana":"ホッカイドウ","city":"夕張市","city_kana":"ユウバリシ","town":"鹿島錦町","town_kana":"カシマニシキチョウ","prefecture_code":1},"0672":{"zip_code":"0680672","prefecture":"北海道","prefecture_kana":"ホッカイドウ","city":"夕張市","city_kana":"ユウバリシ","town":"鹿島富士見町","town_kana":"カシマフジミチョウ","prefecture_code":1},"0675":{"zip_code":"0680675","prefecture":"北海道","prefecture_kana":"ホッカイドウ","city":"夕張市","city_kana":"ユウバリシ","town":"鹿島北栄町","town_kana":"カシマホクエイチョウ","prefecture_code":1},"0671":{"zip_code":"0680671","prefecture":"北海道","prefecture_kana":"ホッカイドウ","city":"夕張市","city_kana":"ユウバリシ","town":"鹿島緑町","town_kana":"カシマミドリチョウ","prefecture_code":1},"0674":{"zip_code":"0680674","prefecture":"北海道","prefecture_kana":"ホッカイドウ","city":"夕張市","city_kana":"ユウバリシ","town":"鹿島代々木町","town_kana":"カシマヨヨギチョウ","prefecture_code":1},"0413":{"zip_code":"0680413","prefecture":"北海道","prefecture_kana":"ホッカイドウ","city":"夕張市","city_kana":"ユウバリシ","town":"鹿の谷","town_kana":"シカノタニ","prefecture_code":1},"0412":{"zip_code":"0680412","prefecture":"北海道","prefecture_kana":"ホッカイドウ","city":"夕張市","city_kana":"ユウバリシ","town":"鹿の谷東丘町","town_kana":"シカノタニヒガシオカチョウ","prefecture_code":1},"0414":{"zip_code":"0680414","prefecture":"北海道","prefecture_kana":"ホッカイドウ","city":"夕張市","city_kana":"ユウバリシ","town":"鹿の谷山手町","town_kana":"シカノタニヤマテチョウ","prefecture_code":1},"0531":{"zip_code":"0680531","prefecture":"北海道","prefecture_kana":"ホッカイドウ","city":"夕張市","city_kana":"ユウバリシ","town":"清水沢","town_kana":"シミズサワ","prefecture_code":1},"0532":{"zip_code":"0680532","prefecture":"北海道","prefecture_kana":"ホッカイドウ","city":"夕張市","city_kana":"ユウバリシ","town":"清水沢清栄町","town_kana":"シミズサワセイエイチョウ","prefecture_code":1},"0533":{"zip_code":"0680533","prefecture":"北海道","prefecture_kana":"ホッカイドウ","city":"夕張市","city_kana":"ユウバリシ","town":"清水沢清湖町","town_kana":"シミズサワセイコチョウ","prefecture_code":1},"0535":{"zip_code":"0680535","prefecture":"北海道","prefecture_kana":"ホッカイドウ","city":"夕張市","city_kana":"ユウバリシ","town":"清水沢清陵町","town_kana":"シミズサワセイリョウチョウ","prefecture_code":1},"0534":{"zip_code":"0680534","prefecture":"北海道","prefecture_kana":"ホッカイドウ","city":"夕張市","city_kana":"ユウバリシ","town":"清水沢宮前町","town_kana":"シミズサワミヤマエチョウ","prefecture_code":1},"0402":{"zip_code":"0680402","prefecture":"北海道","prefecture_kana":"ホッカイドウ","city":"夕張市","city_kana":"ユウバリシ","town":"社光","town_kana":"シャコウ","prefecture_code":1},"0404":{"zip_code":"0680404","prefecture":"北海道","prefecture_kana":"ホッカイドウ","city":"夕張市","city_kana":"ユウバリシ","town":"昭和","town_kana":"ショウワ","prefecture_code":1},"0411":{"zip_code":"0680411","prefecture":"北海道","prefecture_kana":"ホッカイドウ","city":"夕張市","city_kana":"ユウバリシ","town":"末広","town_kana":"スエヒロ","prefecture_code":1},"0406":{"zip_code":"0680406","prefecture":"北海道","prefecture_kana":"ホッカイドウ","city":"夕張市","city_kana":"ユウバリシ","town":"住初","town_kana":"スミゾメ","prefecture_code":1},"0401":{"zip_code":"0680401","prefecture":"北海道","prefecture_kana":"ホッカイドウ","city":"夕張市","city_kana":"ユウバリシ","town":"高松","town_kana":"タカマツ","prefecture_code":1},"0756":{"zip_code":"0680756","prefecture":"北海道","prefecture_kana":"ホッカイドウ","city":"夕張市","city_kana":"ユウバリシ","town":"滝ノ上","town_kana":"タキノウエ","prefecture_code":1},"0424":{"zip_code":"0680424","prefecture":"北海道","prefecture_kana":"ホッカイドウ","city":"夕張市","city_kana":"ユウバリシ","town":"千代田","town_kana":"チヨダ","prefecture_code":1},"0409":{"zip_code":"0680409","prefecture":"北海道","prefecture_kana":"ホッカイドウ","city":"夕張市","city_kana":"ユウバリシ","town":"丁未","town_kana":"テイミ","prefecture_code":1},"0421":{"zip_code":"0680421","prefecture":"北海道","prefecture_kana":"ホッカイドウ","city":"夕張市","city_kana":"ユウバリシ","town":"常盤","town_kana":"トキワ","prefecture_code":1},"0408":{"zip_code":"0680408","prefecture":"北海道","prefecture_kana":"ホッカイドウ","city":"夕張市","city_kana":"ユウバリシ","town":"富岡","town_kana":"トミオカ","prefecture_code":1},"0426":{"zip_code":"0680426","prefecture":"北海道","prefecture_kana":"ホッカイドウ","city":"夕張市","city_kana":"ユウバリシ","town":"富野","town_kana":"トミノ","prefecture_code":1},"0546":[{"zip_code":"0680546","prefecture":"北海道","prefecture_kana":"ホッカイドウ","city":"夕張市","city_kana":"ユウバリシ","town":"南部青葉町","town_kana":"ナンブアオバチョウ","prefecture_code":1},{"zip_code":"0680546","prefecture":"北海道","prefecture_kana":"ホッカイドウ","city":"夕張市","city_kana":"ユウバリシ","town":"南部菊水町","town_kana":"ナンブキクスイチョウ","prefecture_code":1}],"0545":{"zip_code":"0680545","prefecture":"北海道","prefecture_kana":"ホッカイドウ","city":"夕張市","city_kana":"ユウバリシ","town":"南部東町","town_kana":"ナンブアズマチョウ","prefecture_code":1},"0541":{"zip_code":"0680541","prefecture":"北海道","prefecture_kana":"ホッカイドウ","city":"夕張市","city_kana":"ユウバリシ","town":"南部遠幌町","town_kana":"ナンブエンホロチョウ","prefecture_code":1},"0544":{"zip_code":"0680544","prefecture":"北海道","prefecture_kana":"ホッカイドウ","city":"夕張市","city_kana":"ユウバリシ","town":"南部大宮町","town_kana":"ナンブオオミヤチョウ","prefecture_code":1},"0548":{"zip_code":"0680548","prefecture":"北海道","prefecture_kana":"ホッカイドウ","city":"夕張市","city_kana":"ユウバリシ","town":"南部幌南町","town_kana":"ナンブコウナンチョウ","prefecture_code":1},"0547":{"zip_code":"0680547","prefecture":"北海道","prefecture_kana":"ホッカイドウ","city":"夕張市","city_kana":"ユウバリシ","town":"南部新光町","town_kana":"ナンブシンコウチョウ","prefecture_code":1},"0540":{"zip_code":"0680540","prefecture":"北海道","prefecture_kana":"ホッカイドウ","city":"夕張市","city_kana":"ユウバリシ","town":"南部住の江町","town_kana":"ナンブスミノエチョウ","prefecture_code":1},"0549":{"zip_code":"0680549","prefecture":"北海道","prefecture_kana":"ホッカイドウ","city":"夕張市","city_kana":"ユウバリシ","town":"南部岳見町","town_kana":"ナンブタケミチョウ","prefecture_code":1},"0542":{"zip_code":"0680542","prefecture":"北海道","prefecture_kana":"ホッカイドウ","city":"夕張市","city_kana":"ユウバリシ","town":"南部夕南町","town_kana":"ナンブユウナンチョウ","prefecture_code":1},"0543":{"zip_code":"0680543","prefecture":"北海道","prefecture_kana":"ホッカイドウ","city":"夕張市","city_kana":"ユウバリシ","town":"南部若美町","town_kana":"ナンブワカミチョウ","prefecture_code":1},"0751":{"zip_code":"0680751","prefecture":"北海道","prefecture_kana":"ホッカイドウ","city":"夕張市","city_kana":"ユウバリシ","town":"沼ノ沢","town_kana":"ヌマノサワ","prefecture_code":1},"0753":{"zip_code":"0680753","prefecture":"北海道","prefecture_kana":"ホッカイドウ","city":"夕張市","city_kana":"ユウバリシ","town":"登川","town_kana":"ノボリカワ","prefecture_code":1},"0422":{"zip_code":"0680422","prefecture":"北海道","prefecture_kana":"ホッカイドウ","city":"夕張市","city_kana":"ユウバリシ","town":"日吉","town_kana":"ヒヨシ","prefecture_code":1},"0407":{"zip_code":"0680407","prefecture":"北海道","prefecture_kana":"ホッカイドウ","city":"夕張市","city_kana":"ユウバリシ","town":"福住","town_kana":"フクズミ","prefecture_code":1},"0423":{"zip_code":"0680423","prefecture":"北海道","prefecture_kana":"ホッカイドウ","city":"夕張市","city_kana":"ユウバリシ","town":"平和","town_kana":"ヘイワ","prefecture_code":1},"0403":{"zip_code":"0680403","prefecture":"北海道","prefecture_kana":"ホッカイドウ","city":"夕張市","city_kana":"ユウバリシ","town":"本町","town_kana":"ホンチョウ","prefecture_code":1},"0752":{"zip_code":"0680752","prefecture":"北海道","prefecture_kana":"ホッカイドウ","city":"夕張市","city_kana":"ユウバリシ","town":"真谷地","town_kana":"マヤチ","prefecture_code":1},"0536":{"zip_code":"0680536","prefecture":"北海道","prefecture_kana":"ホッカイドウ","city":"夕張市","city_kana":"ユウバリシ","town":"南清水沢","town_kana":"ミナミシミズサワ","prefecture_code":1},"0755":{"zip_code":"0680755","prefecture":"北海道","prefecture_kana":"ホッカイドウ","city":"夕張市","city_kana":"ユウバリシ","town":"紅葉山","town_kana":"モミジヤマ","prefecture_code":1},"0425":{"zip_code":"0680425","prefecture":"北海道","prefecture_kana":"ホッカイドウ","city":"夕張市","city_kana":"ユウバリシ","town":"若菜","town_kana":"ワカナ","prefecture_code":1},"0000":{"zip_code":"0680000","prefecture":"北海道","prefecture_kana":"ホッカイドウ","city":"岩見沢市","city_kana":"イワミザワシ","town":"","town_kana":"","prefecture_code":1},"3185":{"zip_code":"0683185","prefecture":"北海道","prefecture_kana":"ホッカイドウ","city":"岩見沢市","city_kana":"イワミザワシ","town":"朝日町","town_kana":"アサヒチョウ","prefecture_code":1},"0035":{"zip_code":"0680035","prefecture":"北海道","prefecture_kana":"ホッカイドウ","city":"岩見沢市","city_kana":"イワミザワシ","town":"有明町中央","town_kana":"アリアケチョウチュウオウ","prefecture_code":1},"0034":{"zip_code":"0680034","prefecture":"北海道","prefecture_kana":"ホッカイドウ","city":"岩見沢市","city_kana":"イワミザワシ","town":"有明町南","town_kana":"アリアケチョウミナミ","prefecture_code":1},"0829":{"zip_code":"0680829","prefecture":"北海道","prefecture_kana":"ホッカイドウ","city":"岩見沢市","city_kana":"イワミザワシ","town":"かえで町","town_kana":"カエデチョウ","prefecture_code":1},"0827":{"zip_code":"0680827","prefecture":"北海道","prefecture_kana":"ホッカイドウ","city":"岩見沢市","city_kana":"イワミザワシ","town":"春日町","town_kana":"カスガチョウ","prefecture_code":1},"0847":{"zip_code":"0680847","prefecture":"北海道","prefecture_kana":"ホッカイドウ","city":"岩見沢市","city_kana":"イワミザワシ","town":"金子町","town_kana":"カネコチョウ","prefecture_code":1},"0836":{"zip_code":"0680836","prefecture":"北海道","prefecture_kana":"ホッカイドウ","city":"岩見沢市","city_kana":"イワミザワシ","town":"上志文町","town_kana":"カミシブンチョウ","prefecture_code":1},"0057":{"zip_code":"0680057","prefecture":"北海道","prefecture_kana":"ホッカイドウ","city":"岩見沢市","city_kana":"イワミザワシ","town":"北本町東","town_kana":"キタホンチョウヒガシ","prefecture_code":1},"0053":{"zip_code":"0680053","prefecture":"北海道","prefecture_kana":"ホッカイドウ","city":"岩見沢市","city_kana":"イワミザワシ","town":"北本町西","town_kana":"キタホンチョウニシ","prefecture_code":1},"0041":{"zip_code":"0680041","prefecture":"北海道","prefecture_kana":"ホッカイドウ","city":"岩見沢市","city_kana":"イワミザワシ","town":"北一条西","town_kana":"キタ1ジョウニシ","prefecture_code":1},"0042":{"zip_code":"0680042","prefecture":"北海道","prefecture_kana":"ホッカイドウ","city":"岩見沢市","city_kana":"イワミザワシ","town":"北二条西","town_kana":"キタ2ジョウニシ","prefecture_code":1},"0043":{"zip_code":"0680043","prefecture":"北海道","prefecture_kana":"ホッカイドウ","city":"岩見沢市","city_kana":"イワミザワシ","town":"北三条西","town_kana":"キタ3ジョウニシ","prefecture_code":1},"0044":{"zip_code":"0680044","prefecture":"北海道","prefecture_kana":"ホッカイドウ","city":"岩見沢市","city_kana":"イワミザワシ","town":"北四条西","town_kana":"キタ4ジョウニシ","prefecture_code":1},"0045":{"zip_code":"0680045","prefecture":"北海道","prefecture_kana":"ホッカイドウ","city":"岩見沢市","city_kana":"イワミザワシ","town":"北五条西","town_kana":"キタ5ジョウニシ","prefecture_code":1},"0061":{"zip_code":"0680061","prefecture":"北海道","prefecture_kana":"ホッカイドウ","city":"岩見沢市","city_kana":"イワミザワシ","town":"北六条西","town_kana":"キタ6ジョウニシ","prefecture_code":1},"1213":{"zip_code":"0681213","prefecture":"北海道","prefecture_kana":"ホッカイドウ","city":"岩見沢市","city_kana":"イワミザワシ","town":"北村赤川","town_kana":"キタムラアカガワ","prefecture_code":1},"1203":{"zip_code":"0681203","prefecture":"北海道","prefecture_kana":"ホッカイドウ","city":"岩見沢市","city_kana":"イワミザワシ","town":"北村大願","town_kana":"キタムラオオネガイ","prefecture_code":1},"1204":{"zip_code":"0681204","prefecture":"北海道","prefecture_kana":"ホッカイドウ","city":"岩見沢市","city_kana":"イワミザワシ","town":"北村栄町","town_kana":"キタムラサカエマチ","prefecture_code":1},"1212":{"zip_code":"0681212","prefecture":"北海道","prefecture_kana":"ホッカイドウ","city":"岩見沢市","city_kana":"イワミザワシ","town":"北村中央","town_kana":"キタムラチュウオウ","prefecture_code":1},"1205":{"zip_code":"0681205","prefecture":"北海道","prefecture_kana":"ホッカイドウ","city":"岩見沢市","city_kana":"イワミザワシ","town":"北村豊里","town_kana":"キタムラトヨサト","prefecture_code":1},"1202":{"zip_code":"0681202","prefecture":"北海道","prefecture_kana":"ホッカイドウ","city":"岩見沢市","city_kana":"イワミザワシ","town":"北村中小屋","town_kana":"キタムラナカゴヤ","prefecture_code":1},"1214":{"zip_code":"0681214","prefecture":"北海道","prefecture_kana":"ホッカイドウ","city":"岩見沢市","city_kana":"イワミザワシ","town":"北村美唄達布","town_kana":"キタムラビバイタップ","prefecture_code":1},"1201":{"zip_code":"0681201","prefecture":"北海道","prefecture_kana":"ホッカイドウ","city":"岩見沢市","city_kana":"イワミザワシ","town":"北村豊正","town_kana":"キタムラホウセイ","prefecture_code":1},"1161":{"zip_code":"0681161","prefecture":"北海道","prefecture_kana":"ホッカイドウ","city":"岩見沢市","city_kana":"イワミザワシ","town":"北村北都新中島","town_kana":"キタムラホクトシンナカジマ","prefecture_code":1},"1211":{"zip_code":"0681211","prefecture":"北海道","prefecture_kana":"ホッカイドウ","city":"岩見沢市","city_kana":"イワミザワシ","town":"北村北都","town_kana":"キタムラホクト","prefecture_code":1},"1215":{"zip_code":"0681215","prefecture":"北海道","prefecture_kana":"ホッカイドウ","city":"岩見沢市","city_kana":"イワミザワシ","town":"北村幌達布","town_kana":"キタムラホロタップ","prefecture_code":1},"0106":{"zip_code":"0680106","prefecture":"北海道","prefecture_kana":"ホッカイドウ","city":"岩見沢市","city_kana":"イワミザワシ","town":"栗沢町越前","town_kana":"クリサワチョウエチゼン","prefecture_code":1},"0112":{"zip_code":"0680112","prefecture":"北海道","prefecture_kana":"ホッカイドウ","city":"岩見沢市","city_kana":"イワミザワシ","town":"栗沢町上幌","town_kana":"クリサワチョウカミホロ","prefecture_code":1},"0133":{"zip_code":"0680133","prefecture":"北海道","prefecture_kana":"ホッカイドウ","city":"岩見沢市","city_kana":"イワミザワシ","town":"栗沢町加茂川","town_kana":"クリサワチョウカモガワ","prefecture_code":1},"0122":{"zip_code":"0680122","prefecture":"北海道","prefecture_kana":"ホッカイドウ","city":"岩見沢市","city_kana":"イワミザワシ","town":"栗沢町北幸穂","town_kana":"クリサワチョウキタサチホ","prefecture_code":1},"0121":{"zip_code":"0680121","prefecture":"北海道","prefecture_kana":"ホッカイドウ","city":"岩見沢市","city_kana":"イワミザワシ","town":"栗沢町北本町","town_kana":"クリサワチョウキタホンチョウ","prefecture_code":1},"0135":{"zip_code":"0680135","prefecture":"北海道","prefecture_kana":"ホッカイドウ","city":"岩見沢市","city_kana":"イワミザワシ","town":"栗沢町岐阜","town_kana":"クリサワチョウギフ","prefecture_code":1},"0134":{"zip_code":"0680134","prefecture":"北海道","prefecture_kana":"ホッカイドウ","city":"岩見沢市","city_kana":"イワミザワシ","town":"栗沢町栗丘","town_kana":"クリサワチョウクリオカ","prefecture_code":1},"0102":{"zip_code":"0680102","prefecture":"北海道","prefecture_kana":"ホッカイドウ","city":"岩見沢市","city_kana":"イワミザワシ","town":"栗沢町栗部","town_kana":"クリサワチョウクリベ","prefecture_code":1},"0104":{"zip_code":"0680104","prefecture":"北海道","prefecture_kana":"ホッカイドウ","city":"岩見沢市","city_kana":"イワミザワシ","town":"栗沢町耕成","town_kana":"クリサワチョウコウセイ","prefecture_code":1},"0131":{"zip_code":"0680131","prefecture":"北海道","prefecture_kana":"ホッカイドウ","city":"岩見沢市","city_kana":"イワミザワシ","town":"栗沢町小西","town_kana":"クリサワチョウコニシ","prefecture_code":1},"0124":{"zip_code":"0680124","prefecture":"北海道","prefecture_kana":"ホッカイドウ","city":"岩見沢市","city_kana":"イワミザワシ","town":"栗沢町幸穂町","town_kana":"クリサワチョウサチホチョウ","prefecture_code":1},"0105":{"zip_code":"0680105","prefecture":"北海道","prefecture_kana":"ホッカイドウ","city":"岩見沢市","city_kana":"イワミザワシ","town":"栗沢町自協","town_kana":"クリサワチョウジキョウ","prefecture_code":1},"0103":{"zip_code":"0680103","prefecture":"北海道","prefecture_kana":"ホッカイドウ","city":"岩見沢市","city_kana":"イワミザワシ","town":"栗沢町砺波","town_kana":"クリサワチョウトナミ","prefecture_code":1},"0126":{"zip_code":"0680126","prefecture":"北海道","prefecture_kana":"ホッカイドウ","city":"岩見沢市","city_kana":"イワミザワシ","town":"栗沢町西本町","town_kana":"クリサワチョウニシホンチョウ","prefecture_code":1},"3165":{"zip_code":"0683165","prefecture":"北海道","prefecture_kana":"ホッカイドウ","city":"岩見沢市","city_kana":"イワミザワシ","town":"栗沢町西万字","town_kana":"クリサワチョウニシマンジ","prefecture_code":1},"0123":{"zip_code":"0680123","prefecture":"北海道","prefecture_kana":"ホッカイドウ","city":"岩見沢市","city_kana":"イワミザワシ","town":"栗沢町東本町","town_kana":"クリサワチョウヒガシホンチョウ","prefecture_code":1},"0136":{"zip_code":"0680136","prefecture":"北海道","prefecture_kana":"ホッカイドウ","city":"岩見沢市","city_kana":"イワミザワシ","town":"栗沢町必成","town_kana":"クリサワチョウヒッセイ","prefecture_code":1},"0101":{"zip_code":"0680101","prefecture":"北海道","prefecture_kana":"ホッカイドウ","city":"岩見沢市","city_kana":"イワミザワシ","town":"栗沢町北斗","town_kana":"クリサワチョウホクト","prefecture_code":1},"0127":{"zip_code":"0680127","prefecture":"北海道","prefecture_kana":"ホッカイドウ","city":"岩見沢市","city_kana":"イワミザワシ","town":"栗沢町本町","town_kana":"クリサワチョウホンチョウ","prefecture_code":1},"3154":{"zip_code":"0683154","prefecture":"北海道","prefecture_kana":"ホッカイドウ","city":"岩見沢市","city_kana":"イワミザワシ","town":"栗沢町万字曙町","town_kana":"クリサワチョウマンジアケボノマチ","prefecture_code":1},"3162":{"zip_code":"0683162","prefecture":"北海道","prefecture_kana":"ホッカイドウ","city":"岩見沢市","city_kana":"イワミザワシ","town":"栗沢町万字旭町","town_kana":"クリサワチョウマンジアサヒマチ","prefecture_code":1},"3151":{"zip_code":"0683151","prefecture":"北海道","prefecture_kana":"ホッカイドウ","city":"岩見沢市","city_kana":"イワミザワシ","town":"栗沢町万字大平","town_kana":"クリサワチョウマンジオオタイラ","prefecture_code":1},"3155":{"zip_code":"0683155","prefecture":"北海道","prefecture_kana":"ホッカイドウ","city":"岩見沢市","city_kana":"イワミザワシ","town":"栗沢町万字寿町","town_kana":"クリサワチョウマンジコトブキチョウ","prefecture_code":1},"3152":{"zip_code":"0683152","prefecture":"北海道","prefecture_kana":"ホッカイドウ","city":"岩見沢市","city_kana":"イワミザワシ","town":"栗沢町万字幸町","town_kana":"クリサワチョウマンジサイワイチョウ","prefecture_code":1},"3158":{"zip_code":"0683158","prefecture":"北海道","prefecture_kana":"ホッカイドウ","city":"岩見沢市","city_kana":"イワミザワシ","town":"栗沢町万字巴町","town_kana":"クリサワチョウマンジトモエチョウ","prefecture_code":1},"3153":{"zip_code":"0683153","prefecture":"北海道","prefecture_kana":"ホッカイドウ","city":"岩見沢市","city_kana":"イワミザワシ","town":"栗沢町万字仲町","town_kana":"クリサワチョウマンジナカマチ","prefecture_code":1},"3164":{"zip_code":"0683164","prefecture":"北海道","prefecture_kana":"ホッカイドウ","city":"岩見沢市","city_kana":"イワミザワシ","town":"栗沢町万字錦町","town_kana":"クリサワチョウマンジニシキマチ","prefecture_code":1},"3163":{"zip_code":"0683163","prefecture":"北海道","prefecture_kana":"ホッカイドウ","city":"岩見沢市","city_kana":"イワミザワシ","town":"栗沢町万字西原町","town_kana":"クリサワチョウマンジニシハラマチ","prefecture_code":1},"3156":{"zip_code":"0683156","prefecture":"北海道","prefecture_kana":"ホッカイドウ","city":"岩見沢市","city_kana":"イワミザワシ","town":"栗沢町万字英町","town_kana":"クリサワチョウマンジハナブサチョウ","prefecture_code":1},"3159":{"zip_code":"0683159","prefecture":"北海道","prefecture_kana":"ホッカイドウ","city":"岩見沢市","city_kana":"イワミザワシ","town":"栗沢町万字二見町","town_kana":"クリサワチョウマンジフタミチョウ","prefecture_code":1},"3157":{"zip_code":"0683157","prefecture":"北海道","prefecture_kana":"ホッカイドウ","city":"岩見沢市","city_kana":"イワミザワシ","town":"栗沢町万字睦町","town_kana":"クリサワチョウマンジムツミチョウ","prefecture_code":1},"0132":{"zip_code":"0680132","prefecture":"北海道","prefecture_kana":"ホッカイドウ","city":"岩見沢市","city_kana":"イワミザワシ","town":"栗沢町南幸穂","town_kana":"クリサワチョウミナミサチホ","prefecture_code":1},"0125":{"zip_code":"0680125","prefecture":"北海道","prefecture_kana":"ホッカイドウ","city":"岩見沢市","city_kana":"イワミザワシ","town":"栗沢町南本町","town_kana":"クリサワチョウミナミホンチョウ","prefecture_code":1},"3161":{"zip_code":"0683161","prefecture":"北海道","prefecture_kana":"ホッカイドウ","city":"岩見沢市","city_kana":"イワミザワシ","town":"栗沢町宮村","town_kana":"クリサワチョウミヤムラ","prefecture_code":1},"0113":{"zip_code":"0680113","prefecture":"北海道","prefecture_kana":"ホッカイドウ","city":"岩見沢市","city_kana":"イワミザワシ","town":"栗沢町宮村","town_kana":"クリサワチョウミヤムラ","prefecture_code":1},"3183":{"zip_code":"0683183","prefecture":"北海道","prefecture_kana":"ホッカイドウ","city":"岩見沢市","city_kana":"イワミザワシ","town":"栗沢町美流渡楓町","town_kana":"クリサワチョウミルトカエデチョウ","prefecture_code":1},"3172":{"zip_code":"0683172","prefecture":"北海道","prefecture_kana":"ホッカイドウ","city":"岩見沢市","city_kana":"イワミザワシ","town":"栗沢町美流渡栄町","town_kana":"クリサワチョウミルトサカエチョウ","prefecture_code":1},"3179":{"zip_code":"0683179","prefecture":"北海道","prefecture_kana":"ホッカイドウ","city":"岩見沢市","city_kana":"イワミザワシ","town":"栗沢町美流渡桜町","town_kana":"クリサワチョウミルトサクラマチ","prefecture_code":1},"3177":{"zip_code":"0683177","prefecture":"北海道","prefecture_kana":"ホッカイドウ","city":"岩見沢市","city_kana":"イワミザワシ","town":"栗沢町美流渡末広町","town_kana":"クリサワチョウミルトスエヒロチョウ","prefecture_code":1},"3176":{"zip_code":"0683176","prefecture":"北海道","prefecture_kana":"ホッカイドウ","city":"岩見沢市","city_kana":"イワミザワシ","town":"栗沢町美流渡東栄町","town_kana":"クリサワチョウミルトトウエイチョウ","prefecture_code":1},"3178":{"zip_code":"0683178","prefecture":"北海道","prefecture_kana":"ホッカイドウ","city":"岩見沢市","city_kana":"イワミザワシ","town":"栗沢町美流渡錦町","town_kana":"クリサワチョウミルトニシキチョウ","prefecture_code":1},"3175":{"zip_code":"0683175","prefecture":"北海道","prefecture_kana":"ホッカイドウ","city":"岩見沢市","city_kana":"イワミザワシ","town":"栗沢町美流渡西町","town_kana":"クリサワチョウミルトニシマチ","prefecture_code":1},"3180":{"zip_code":"0683180","prefecture":"北海道","prefecture_kana":"ホッカイドウ","city":"岩見沢市","city_kana":"イワミザワシ","town":"栗沢町美流渡東町","town_kana":"クリサワチョウミルトヒガシマチ","prefecture_code":1},"3171":{"zip_code":"0683171","prefecture":"北海道","prefecture_kana":"ホッカイドウ","city":"岩見沢市","city_kana":"イワミザワシ","town":"栗沢町美流渡本町","town_kana":"クリサワチョウミルトホンチョウ","prefecture_code":1},"3182":{"zip_code":"0683182","prefecture":"北海道","prefecture_kana":"ホッカイドウ","city":"岩見沢市","city_kana":"イワミザワシ","town":"栗沢町美流渡緑町","town_kana":"クリサワチョウミルトミドリマチ","prefecture_code":1},"3181":{"zip_code":"0683181","prefecture":"北海道","prefecture_kana":"ホッカイドウ","city":"岩見沢市","city_kana":"イワミザワシ","town":"栗沢町美流渡南町","town_kana":"クリサワチョウミルトミナミマチ","prefecture_code":1},"3174":{"zip_code":"0683174","prefecture":"北海道","prefecture_kana":"ホッカイドウ","city":"岩見沢市","city_kana":"イワミザワシ","town":"栗沢町美流渡吉野町","town_kana":"クリサワチョウミルトヨシノチョウ","prefecture_code":1},"3173":{"zip_code":"0683173","prefecture":"北海道","prefecture_kana":"ホッカイドウ","city":"岩見沢市","city_kana":"イワミザワシ","town":"栗沢町美流渡若葉町","town_kana":"クリサワチョウミルトワカバチョウ","prefecture_code":1},"0115":{"zip_code":"0680115","prefecture":"北海道","prefecture_kana":"ホッカイドウ","city":"岩見沢市","city_kana":"イワミザワシ","town":"栗沢町最上","town_kana":"クリサワチョウモガミ","prefecture_code":1},"0114":{"zip_code":"0680114","prefecture":"北海道","prefecture_kana":"ホッカイドウ","city":"岩見沢市","city_kana":"イワミザワシ","town":"栗沢町茂世丑","town_kana":"クリサワチョウモセウシ","prefecture_code":1},"0111":{"zip_code":"0680111","prefecture":"北海道","prefecture_kana":"ホッカイドウ","city":"岩見沢市","city_kana":"イワミザワシ","town":"栗沢町由良","town_kana":"クリサワチョウユラ","prefecture_code":1},"0834":{"zip_code":"0680834","prefecture":"北海道","prefecture_kana":"ホッカイドウ","city":"岩見沢市","city_kana":"イワミザワシ","town":"駒園","town_kana":"コマゾノ","prefecture_code":1},"0821":{"zip_code":"0680821","prefecture":"北海道","prefecture_kana":"ホッカイドウ","city":"岩見沢市","city_kana":"イワミザワシ","town":"栄町","town_kana":"サカエマチ","prefecture_code":1},"0058":{"zip_code":"0680058","prefecture":"北海道","prefecture_kana":"ホッカイドウ","city":"岩見沢市","city_kana":"イワミザワシ","town":"桜木一条","town_kana":"サクラギ1ジョウ","prefecture_code":1},"0833":{"zip_code":"0680833","prefecture":"北海道","prefecture_kana":"ホッカイドウ","city":"岩見沢市","city_kana":"イワミザワシ","town":"志文町","town_kana":"シブンチョウ","prefecture_code":1},"0841":{"zip_code":"0680841","prefecture":"北海道","prefecture_kana":"ホッカイドウ","city":"岩見沢市","city_kana":"イワミザワシ","town":"志文本町一条","town_kana":"シブンホンチョウ1ジョウ","prefecture_code":1},"0842":{"zip_code":"0680842","prefecture":"北海道","prefecture_kana":"ホッカイドウ","city":"岩見沢市","city_kana":"イワミザワシ","town":"志文本町二条","town_kana":"シブンホンチョウ2ジョウ","prefecture_code":1},"0843":{"zip_code":"0680843","prefecture":"北海道","prefecture_kana":"ホッカイドウ","city":"岩見沢市","city_kana":"イワミザワシ","town":"志文本町三条","town_kana":"シブンホンチョウ3ジョウ","prefecture_code":1},"0844":{"zip_code":"0680844","prefecture":"北海道","prefecture_kana":"ホッカイドウ","city":"岩見沢市","city_kana":"イワミザワシ","town":"志文本町四条","town_kana":"シブンホンチョウ4ジョウ","prefecture_code":1},"0845":{"zip_code":"0680845","prefecture":"北海道","prefecture_kana":"ホッカイドウ","city":"岩見沢市","city_kana":"イワミザワシ","town":"志文本町五条","town_kana":"シブンホンチョウ5ジョウ","prefecture_code":1},"3186":{"zip_code":"0683186","prefecture":"北海道","prefecture_kana":"ホッカイドウ","city":"岩見沢市","city_kana":"イワミザワシ","town":"清水町","town_kana":"シミズチョウ","prefecture_code":1},"0846":{"zip_code":"0680846","prefecture":"北海道","prefecture_kana":"ホッカイドウ","city":"岩見沢市","city_kana":"イワミザワシ","town":"下志文町","town_kana":"シモシブンチョウ","prefecture_code":1},"0818":{"zip_code":"0680818","prefecture":"北海道","prefecture_kana":"ホッカイドウ","city":"岩見沢市","city_kana":"イワミザワシ","town":"並木町","town_kana":"ナミキチョウ","prefecture_code":1},"3187":{"zip_code":"0683187","prefecture":"北海道","prefecture_kana":"ホッカイドウ","city":"岩見沢市","city_kana":"イワミザワシ","town":"奈良町","town_kana":"ナラチョウ","prefecture_code":1},"0048":{"zip_code":"0680048","prefecture":"北海道","prefecture_kana":"ホッカイドウ","city":"岩見沢市","city_kana":"イワミザワシ","town":"西川町","town_kana":"ニシカワチョウ","prefecture_code":1},"0828":{"zip_code":"0680828","prefecture":"北海道","prefecture_kana":"ホッカイドウ","city":"岩見沢市","city_kana":"イワミザワシ","town":"鳩が丘","town_kana":"ハトガオカ","prefecture_code":1},"0015":{"zip_code":"0680015","prefecture":"北海道","prefecture_kana":"ホッカイドウ","city":"岩見沢市","city_kana":"イワミザワシ","town":"東町","town_kana":"ヒガシマチ","prefecture_code":1},"0013":{"zip_code":"0680013","prefecture":"北海道","prefecture_kana":"ホッカイドウ","city":"岩見沢市","city_kana":"イワミザワシ","town":"東町一条","town_kana":"ヒガシマチ1ジョウ","prefecture_code":1},"0014":{"zip_code":"0680014","prefecture":"北海道","prefecture_kana":"ホッカイドウ","city":"岩見沢市","city_kana":"イワミザワシ","town":"東町二条","town_kana":"ヒガシマチ2ジョウ","prefecture_code":1},"0820":{"zip_code":"0680820","prefecture":"北海道","prefecture_kana":"ホッカイドウ","city":"岩見沢市","city_kana":"イワミザワシ","town":"東山","town_kana":"ヒガシヤマ","prefecture_code":1},"0826":{"zip_code":"0680826","prefecture":"北海道","prefecture_kana":"ホッカイドウ","city":"岩見沢市","city_kana":"イワミザワシ","town":"東山町","town_kana":"ヒガシヤマチョウ","prefecture_code":1},"0823":{"zip_code":"0680823","prefecture":"北海道","prefecture_kana":"ホッカイドウ","city":"岩見沢市","city_kana":"イワミザワシ","town":"日の出南","town_kana":"ヒノデミナミ","prefecture_code":1},"0824":{"zip_code":"0680824","prefecture":"北海道","prefecture_kana":"ホッカイドウ","city":"岩見沢市","city_kana":"イワミザワシ","town":"日の出北","town_kana":"ヒノデキタ","prefecture_code":1},"0822":{"zip_code":"0680822","prefecture":"北海道","prefecture_kana":"ホッカイドウ","city":"岩見沢市","city_kana":"イワミザワシ","town":"日の出台","town_kana":"ヒノデダイ","prefecture_code":1},"0825":{"zip_code":"0680825","prefecture":"北海道","prefecture_kana":"ホッカイドウ","city":"岩見沢市","city_kana":"イワミザワシ","town":"日の出町","town_kana":"ヒノデチョウ","prefecture_code":1},"0831":{"zip_code":"0680831","prefecture":"北海道","prefecture_kana":"ホッカイドウ","city":"岩見沢市","city_kana":"イワミザワシ","town":"ふじ町一条","town_kana":"フジチョウ1ジョウ","prefecture_code":1},"0832":{"zip_code":"0680832","prefecture":"北海道","prefecture_kana":"ホッカイドウ","city":"岩見沢市","city_kana":"イワミザワシ","town":"ふじ町二条","town_kana":"フジチョウ2ジョウ","prefecture_code":1},"0837":{"zip_code":"0680837","prefecture":"北海道","prefecture_kana":"ホッカイドウ","city":"岩見沢市","city_kana":"イワミザワシ","town":"宝水町","town_kana":"ホウスイチョウ","prefecture_code":1},"0811":{"zip_code":"0680811","prefecture":"北海道","prefecture_kana":"ホッカイドウ","city":"岩見沢市","city_kana":"イワミザワシ","town":"美園一条","town_kana":"ミソノ1ジョウ","prefecture_code":1},"0812":{"zip_code":"0680812","prefecture":"北海道","prefecture_kana":"ホッカイドウ","city":"岩見沢市","city_kana":"イワミザワシ","town":"美園二条","town_kana":"ミソノ2ジョウ","prefecture_code":1},"0813":{"zip_code":"0680813","prefecture":"北海道","prefecture_kana":"ホッカイドウ","city":"岩見沢市","city_kana":"イワミザワシ","town":"美園三条","town_kana":"ミソノ3ジョウ","prefecture_code":1},"0814":{"zip_code":"0680814","prefecture":"北海道","prefecture_kana":"ホッカイドウ","city":"岩見沢市","city_kana":"イワミザワシ","town":"美園四条","town_kana":"ミソノ4ジョウ","prefecture_code":1},"0815":{"zip_code":"0680815","prefecture":"北海道","prefecture_kana":"ホッカイドウ","city":"岩見沢市","city_kana":"イワミザワシ","town":"美園五条","town_kana":"ミソノ5ジョウ","prefecture_code":1},"0816":{"zip_code":"0680816","prefecture":"北海道","prefecture_kana":"ホッカイドウ","city":"岩見沢市","city_kana":"イワミザワシ","town":"美園六条","town_kana":"ミソノ6ジョウ","prefecture_code":1},"0817":{"zip_code":"0680817","prefecture":"北海道","prefecture_kana":"ホッカイドウ","city":"岩見沢市","city_kana":"イワミザワシ","town":"美園七条","town_kana":"ミソノ7ジョウ","prefecture_code":1},"0835":{"zip_code":"0680835","prefecture":"北海道","prefecture_kana":"ホッカイドウ","city":"岩見沢市","city_kana":"イワミザワシ","town":"緑が丘","town_kana":"ミドリガオカ","prefecture_code":1},"0046":{"zip_code":"0680046","prefecture":"北海道","prefecture_kana":"ホッカイドウ","city":"岩見沢市","city_kana":"イワミザワシ","town":"緑町","town_kana":"ミドリチョウ","prefecture_code":1},"0810":{"zip_code":"0680810","prefecture":"北海道","prefecture_kana":"ホッカイドウ","city":"岩見沢市","city_kana":"イワミザワシ","town":"南町","town_kana":"ミナミマチ","prefecture_code":1},"0801":{"zip_code":"0680801","prefecture":"北海道","prefecture_kana":"ホッカイドウ","city":"岩見沢市","city_kana":"イワミザワシ","town":"南町一条","town_kana":"ミナミマチ1ジョウ","prefecture_code":1},"0802":{"zip_code":"0680802","prefecture":"北海道","prefecture_kana":"ホッカイドウ","city":"岩見沢市","city_kana":"イワミザワシ","town":"南町二条","town_kana":"ミナミマチ2ジョウ","prefecture_code":1},"0803":{"zip_code":"0680803","prefecture":"北海道","prefecture_kana":"ホッカイドウ","city":"岩見沢市","city_kana":"イワミザワシ","town":"南町三条","town_kana":"ミナミマチ3ジョウ","prefecture_code":1},"0804":{"zip_code":"0680804","prefecture":"北海道","prefecture_kana":"ホッカイドウ","city":"岩見沢市","city_kana":"イワミザワシ","town":"南町四条","town_kana":"ミナミマチ4ジョウ","prefecture_code":1},"0805":{"zip_code":"0680805","prefecture":"北海道","prefecture_kana":"ホッカイドウ","city":"岩見沢市","city_kana":"イワミザワシ","town":"南町五条","town_kana":"ミナミマチ5ジョウ","prefecture_code":1},"0806":{"zip_code":"0680806","prefecture":"北海道","prefecture_kana":"ホッカイドウ","city":"岩見沢市","city_kana":"イワミザワシ","town":"南町六条","town_kana":"ミナミマチ6ジョウ","prefecture_code":1},"0807":{"zip_code":"0680807","prefecture":"北海道","prefecture_kana":"ホッカイドウ","city":"岩見沢市","city_kana":"イワミザワシ","town":"南町七条","town_kana":"ミナミマチ7ジョウ","prefecture_code":1},"0808":{"zip_code":"0680808","prefecture":"北海道","prefecture_kana":"ホッカイドウ","city":"岩見沢市","city_kana":"イワミザワシ","town":"南町八条","town_kana":"ミナミマチ8ジョウ","prefecture_code":1},"0809":{"zip_code":"0680809","prefecture":"北海道","prefecture_kana":"ホッカイドウ","city":"岩見沢市","city_kana":"イワミザワシ","town":"南町九条","town_kana":"ミナミマチ9ジョウ","prefecture_code":1},"0016":{"zip_code":"0680016","prefecture":"北海道","prefecture_kana":"ホッカイドウ","city":"岩見沢市","city_kana":"イワミザワシ","town":"稔町","town_kana":"ミノリチョウ","prefecture_code":1},"3188":{"zip_code":"0683188","prefecture":"北海道","prefecture_kana":"ホッカイドウ","city":"岩見沢市","city_kana":"イワミザワシ","town":"毛陽町","town_kana":"モウヨウチョウ","prefecture_code":1},"0054":{"zip_code":"0680054","prefecture":"北海道","prefecture_kana":"ホッカイドウ","city":"岩見沢市","city_kana":"イワミザワシ","town":"元町一条東","town_kana":"モトマチ1ジョウヒガシ","prefecture_code":1},"0051":{"zip_code":"0680051","prefecture":"北海道","prefecture_kana":"ホッカイドウ","city":"岩見沢市","city_kana":"イワミザワシ","town":"元町一条西","town_kana":"モトマチ1ジョウニシ","prefecture_code":1},"0055":{"zip_code":"0680055","prefecture":"北海道","prefecture_kana":"ホッカイドウ","city":"岩見沢市","city_kana":"イワミザワシ","town":"元町二条東","town_kana":"モトマチ2ジョウヒガシ","prefecture_code":1},"0052":{"zip_code":"0680052","prefecture":"北海道","prefecture_kana":"ホッカイドウ","city":"岩見沢市","city_kana":"イワミザワシ","town":"元町二条西","town_kana":"モトマチ2ジョウニシ","prefecture_code":1},"0056":{"zip_code":"0680056","prefecture":"北海道","prefecture_kana":"ホッカイドウ","city":"岩見沢市","city_kana":"イワミザワシ","town":"元町三条東","town_kana":"モトマチ3ジョウヒガシ","prefecture_code":1},"0851":{"zip_code":"0680851","prefecture":"北海道","prefecture_kana":"ホッカイドウ","city":"岩見沢市","city_kana":"イワミザワシ","town":"大和一条","town_kana":"ヤマト1ジョウ","prefecture_code":1},"0852":{"zip_code":"0680852","prefecture":"北海道","prefecture_kana":"ホッカイドウ","city":"岩見沢市","city_kana":"イワミザワシ","town":"大和二条","town_kana":"ヤマト2ジョウ","prefecture_code":1},"0853":{"zip_code":"0680853","prefecture":"北海道","prefecture_kana":"ホッカイドウ","city":"岩見沢市","city_kana":"イワミザワシ","town":"大和三条","town_kana":"ヤマト3ジョウ","prefecture_code":1},"0854":{"zip_code":"0680854","prefecture":"北海道","prefecture_kana":"ホッカイドウ","city":"岩見沢市","city_kana":"イワミザワシ","town":"大和四条","town_kana":"ヤマト4ジョウ","prefecture_code":1},"0855":{"zip_code":"0680855","prefecture":"北海道","prefecture_kana":"ホッカイドウ","city":"岩見沢市","city_kana":"イワミザワシ","town":"大和町","town_kana":"ヤマトチョウ","prefecture_code":1},"0830":{"zip_code":"0680830","prefecture":"北海道","prefecture_kana":"ホッカイドウ","city":"岩見沢市","city_kana":"イワミザワシ","town":"若駒","town_kana":"ワカコマ","prefecture_code":1},"0047":{"zip_code":"0680047","prefecture":"北海道","prefecture_kana":"ホッカイドウ","city":"岩見沢市","city_kana":"イワミザワシ","town":"若松町","town_kana":"ワカマツチョウ","prefecture_code":1},"0001":{"zip_code":"0680001","prefecture":"北海道","prefecture_kana":"ホッカイドウ","city":"岩見沢市","city_kana":"イワミザワシ","town":"一条東","town_kana":"1ジョウヒガシ","prefecture_code":1},"0021":{"zip_code":"0680021","prefecture":"北海道","prefecture_kana":"ホッカイドウ","city":"岩見沢市","city_kana":"イワミザワシ","town":"一条西","town_kana":"1ジョウニシ","prefecture_code":1},"0002":{"zip_code":"0680002","prefecture":"北海道","prefecture_kana":"ホッカイドウ","city":"岩見沢市","city_kana":"イワミザワシ","town":"二条東","town_kana":"2ジョウヒガシ","prefecture_code":1},"0022":{"zip_code":"0680022","prefecture":"北海道","prefecture_kana":"ホッカイドウ","city":"岩見沢市","city_kana":"イワミザワシ","town":"二条西","town_kana":"2ジョウニシ","prefecture_code":1},"0003":{"zip_code":"0680003","prefecture":"北海道","prefecture_kana":"ホッカイドウ","city":"岩見沢市","city_kana":"イワミザワシ","town":"三条東","town_kana":"3ジョウヒガシ","prefecture_code":1},"0023":{"zip_code":"0680023","prefecture":"北海道","prefecture_kana":"ホッカイドウ","city":"岩見沢市","city_kana":"イワミザワシ","town":"三条西","town_kana":"3ジョウニシ","prefecture_code":1},"0004":{"zip_code":"0680004","prefecture":"北海道","prefecture_kana":"ホッカイドウ","city":"岩見沢市","city_kana":"イワミザワシ","town":"四条東","town_kana":"4ジョウヒガシ","prefecture_code":1},"0024":{"zip_code":"0680024","prefecture":"北海道","prefecture_kana":"ホッカイドウ","city":"岩見沢市","city_kana":"イワミザワシ","town":"四条西","town_kana":"4ジョウニシ","prefecture_code":1},"0005":{"zip_code":"0680005","prefecture":"北海道","prefecture_kana":"ホッカイドウ","city":"岩見沢市","city_kana":"イワミザワシ","town":"五条東","town_kana":"5ジョウヒガシ","prefecture_code":1},"0025":{"zip_code":"0680025","prefecture":"北海道","prefecture_kana":"ホッカイドウ","city":"岩見沢市","city_kana":"イワミザワシ","town":"五条西","town_kana":"5ジョウニシ","prefecture_code":1},"0006":{"zip_code":"0680006","prefecture":"北海道","prefecture_kana":"ホッカイドウ","city":"岩見沢市","city_kana":"イワミザワシ","town":"六条東","town_kana":"6ジョウヒガシ","prefecture_code":1},"0026":{"zip_code":"0680026","prefecture":"北海道","prefecture_kana":"ホッカイドウ","city":"岩見沢市","city_kana":"イワミザワシ","town":"六条西","town_kana":"6ジョウニシ","prefecture_code":1},"0007":{"zip_code":"0680007","prefecture":"北海道","prefecture_kana":"ホッカイドウ","city":"岩見沢市","city_kana":"イワミザワシ","town":"七条東","town_kana":"7ジョウヒガシ","prefecture_code":1},"0027":{"zip_code":"0680027","prefecture":"北海道","prefecture_kana":"ホッカイドウ","city":"岩見沢市","city_kana":"イワミザワシ","town":"七条西","town_kana":"7ジョウニシ","prefecture_code":1},"0008":{"zip_code":"0680008","prefecture":"北海道","prefecture_kana":"ホッカイドウ","city":"岩見沢市","city_kana":"イワミザワシ","town":"八条東","town_kana":"8ジョウヒガシ","prefecture_code":1},"0028":{"zip_code":"0680028","prefecture":"北海道","prefecture_kana":"ホッカイドウ","city":"岩見沢市","city_kana":"イワミザワシ","town":"八条西","town_kana":"8ジョウニシ","prefecture_code":1},"0009":{"zip_code":"0680009","prefecture":"北海道","prefecture_kana":"ホッカイドウ","city":"岩見沢市","city_kana":"イワミザワシ","town":"九条東","town_kana":"9ジョウヒガシ","prefecture_code":1},"0029":{"zip_code":"0680029","prefecture":"北海道","prefecture_kana":"ホッカイドウ","city":"岩見沢市","city_kana":"イワミザワシ","town":"九条西","town_kana":"9ジョウニシ","prefecture_code":1},"0010":{"zip_code":"0680010","prefecture":"北海道","prefecture_kana":"ホッカイドウ","city":"岩見沢市","city_kana":"イワミザワシ","town":"十条東","town_kana":"10ジョウヒガシ","prefecture_code":1},"0030":{"zip_code":"0680030","prefecture":"北海道","prefecture_kana":"ホッカイドウ","city":"岩見沢市","city_kana":"イワミザワシ","town":"十条西","town_kana":"10ジョウニシ","prefecture_code":1},"0011":{"zip_code":"0680011","prefecture":"北海道","prefecture_kana":"ホッカイドウ","city":"岩見沢市","city_kana":"イワミザワシ","town":"十一条東","town_kana":"11ジョウヒガシ","prefecture_code":1},"0031":{"zip_code":"0680031","prefecture":"北海道","prefecture_kana":"ホッカイドウ","city":"岩見沢市","city_kana":"イワミザワシ","town":"十一条西","town_kana":"11ジョウニシ","prefecture_code":1},"0012":{"zip_code":"0680012","prefecture":"北海道","prefecture_kana":"ホッカイドウ","city":"岩見沢市","city_kana":"イワミザワシ","town":"十二条東","town_kana":"12ジョウヒガシ","prefecture_code":1},"0032":{"zip_code":"0680032","prefecture":"北海道","prefecture_kana":"ホッカイドウ","city":"岩見沢市","city_kana":"イワミザワシ","town":"十二条西","town_kana":"12ジョウニシ","prefecture_code":1},"0033":{"zip_code":"0680033","prefecture":"北海道","prefecture_kana":"ホッカイドウ","city":"岩見沢市","city_kana":"イワミザワシ","town":"十三条西","town_kana":"13ジョウニシ","prefecture_code":1},"2181":{"zip_code":"0682181","prefecture":"北海道","prefecture_kana":"ホッカイドウ","city":"美唄市","city_kana":"ビバイシ","town":"光珠内町南","town_kana":"コウシュナイチョウミナミ","prefecture_code":1},"2100":{"zip_code":"0682100","prefecture":"北海道","prefecture_kana":"ホッカイドウ","city":"三笠市","city_kana":"ミカサシ","town":"","town_kana":"","prefecture_code":1},"2151":{"zip_code":"0682151","prefecture":"北海道","prefecture_kana":"ホッカイドウ","city":"三笠市","city_kana":"ミカサシ","town":"有明町","town_kana":"アリアケチョウ","prefecture_code":1},"2112":{"zip_code":"0682112","prefecture":"北海道","prefecture_kana":"ホッカイドウ","city":"三笠市","city_kana":"ミカサシ","town":"幾春別川向町","town_kana":"イクシュンベツカワムカイチョウ","prefecture_code":1},"2114":{"zip_code":"0682114","prefecture":"北海道","prefecture_kana":"ホッカイドウ","city":"三笠市","city_kana":"ミカサシ","town":"幾春別栗丘町","town_kana":"イクシュンベツクリオカチョウ","prefecture_code":1},"2118":{"zip_code":"0682118","prefecture":"北海道","prefecture_kana":"ホッカイドウ","city":"三笠市","city_kana":"ミカサシ","town":"幾春別千住町","town_kana":"イクシュンベツセンジュウチョウ","prefecture_code":1},"2115":{"zip_code":"0682115","prefecture":"北海道","prefecture_kana":"ホッカイドウ","city":"三笠市","city_kana":"ミカサシ","town":"幾春別滝見町","town_kana":"イクシュンベツタキミチョウ","prefecture_code":1},"2117":{"zip_code":"0682117","prefecture":"北海道","prefecture_kana":"ホッカイドウ","city":"三笠市","city_kana":"ミカサシ","town":"幾春別中島町","town_kana":"イクシュンベツナカジマチョウ","prefecture_code":1},"2111":{"zip_code":"0682111","prefecture":"北海道","prefecture_kana":"ホッカイドウ","city":"三笠市","city_kana":"ミカサシ","town":"幾春別錦町","town_kana":"イクシュンベツニシキチョウ","prefecture_code":1},"2113":{"zip_code":"0682113","prefecture":"北海道","prefecture_kana":"ホッカイドウ","city":"三笠市","city_kana":"ミカサシ","town":"幾春別山手町","town_kana":"イクシュンベツヤマテチョウ","prefecture_code":1},"2116":{"zip_code":"0682116","prefecture":"北海道","prefecture_kana":"ホッカイドウ","city":"三笠市","city_kana":"ミカサシ","town":"幾春別町","town_kana":"イクシュンベツチョウ","prefecture_code":1},"2164":{"zip_code":"0682164","prefecture":"北海道","prefecture_kana":"ホッカイドウ","city":"三笠市","city_kana":"ミカサシ","town":"いちきしり","town_kana":"イチキシリ","prefecture_code":1},"2167":{"zip_code":"0682167","prefecture":"北海道","prefecture_kana":"ホッカイドウ","city":"三笠市","city_kana":"ミカサシ","town":"大里","town_kana":"オオサト","prefecture_code":1},"2165":{"zip_code":"0682165","prefecture":"北海道","prefecture_kana":"ホッカイドウ","city":"三笠市","city_kana":"ミカサシ","town":"岡山","town_kana":"オカヤマ","prefecture_code":1},"2108":{"zip_code":"0682108","prefecture":"北海道","prefecture_kana":"ホッカイドウ","city":"三笠市","city_kana":"ミカサシ","town":"柏町","town_kana":"カシワチョウ","prefecture_code":1},"2101":{"zip_code":"0682101","prefecture":"北海道","prefecture_kana":"ホッカイドウ","city":"三笠市","city_kana":"ミカサシ","town":"桂沢","town_kana":"カツラザワ","prefecture_code":1},"2166":{"zip_code":"0682166","prefecture":"北海道","prefecture_kana":"ホッカイドウ","city":"三笠市","city_kana":"ミカサシ","town":"萱野","town_kana":"カヤノ","prefecture_code":1},"2162":{"zip_code":"0682162","prefecture":"北海道","prefecture_kana":"ホッカイドウ","city":"三笠市","city_kana":"ミカサシ","town":"川内","town_kana":"カワナイ","prefecture_code":1},"2105":{"zip_code":"0682105","prefecture":"北海道","prefecture_kana":"ホッカイドウ","city":"三笠市","city_kana":"ミカサシ","town":"清住町","town_kana":"キヨズミチョウ","prefecture_code":1},"2153":{"zip_code":"0682153","prefecture":"北海道","prefecture_kana":"ホッカイドウ","city":"三笠市","city_kana":"ミカサシ","town":"幸町","town_kana":"サイワイチョウ","prefecture_code":1},"2155":{"zip_code":"0682155","prefecture":"北海道","prefecture_kana":"ホッカイドウ","city":"三笠市","city_kana":"ミカサシ","town":"榊町","town_kana":"サカキチョウ","prefecture_code":1},"2154":{"zip_code":"0682154","prefecture":"北海道","prefecture_kana":"ホッカイドウ","city":"三笠市","city_kana":"ミカサシ","town":"高美町","town_kana":"タカミチョウ","prefecture_code":1},"2152":{"zip_code":"0682152","prefecture":"北海道","prefecture_kana":"ホッカイドウ","city":"三笠市","city_kana":"ミカサシ","town":"多賀町","town_kana":"タガチョウ","prefecture_code":1},"2163":{"zip_code":"0682163","prefecture":"北海道","prefecture_kana":"ホッカイドウ","city":"三笠市","city_kana":"ミカサシ","town":"達布","town_kana":"タップ","prefecture_code":1},"2158":{"zip_code":"0682158","prefecture":"北海道","prefecture_kana":"ホッカイドウ","city":"三笠市","city_kana":"ミカサシ","town":"堤町","town_kana":"ツツミチョウ","prefecture_code":1},"2137":{"zip_code":"0682137","prefecture":"北海道","prefecture_kana":"ホッカイドウ","city":"三笠市","city_kana":"ミカサシ","town":"唐松青山町","town_kana":"トウマツアオヤマチョウ","prefecture_code":1},"2136":{"zip_code":"0682136","prefecture":"北海道","prefecture_kana":"ホッカイドウ","city":"三笠市","city_kana":"ミカサシ","town":"唐松栄町","town_kana":"トウマツサカエチョウ","prefecture_code":1},"2131":{"zip_code":"0682131","prefecture":"北海道","prefecture_kana":"ホッカイドウ","city":"三笠市","city_kana":"ミカサシ","town":"唐松春光町","town_kana":"トウマツシュンコウチョウ","prefecture_code":1},"2134":{"zip_code":"0682134","prefecture":"北海道","prefecture_kana":"ホッカイドウ","city":"三笠市","city_kana":"ミカサシ","town":"唐松千代田町","town_kana":"トウマツチヨダチョウ","prefecture_code":1},"2133":{"zip_code":"0682133","prefecture":"北海道","prefecture_kana":"ホッカイドウ","city":"三笠市","city_kana":"ミカサシ","town":"唐松常盤町","town_kana":"トウマツトキワチョウ","prefecture_code":1},"2132":{"zip_code":"0682132","prefecture":"北海道","prefecture_kana":"ホッカイドウ","city":"三笠市","city_kana":"ミカサシ","town":"唐松緑町","town_kana":"トウマツミドリチョウ","prefecture_code":1},"2135":{"zip_code":"0682135","prefecture":"北海道","prefecture_kana":"ホッカイドウ","city":"三笠市","city_kana":"ミカサシ","town":"唐松町","town_kana":"トウマツチョウ","prefecture_code":1},"2102":{"zip_code":"0682102","prefecture":"北海道","prefecture_kana":"ホッカイドウ","city":"三笠市","city_kana":"ミカサシ","town":"西桂沢","town_kana":"ニシカツラザワ","prefecture_code":1},"2104":{"zip_code":"0682104","prefecture":"北海道","prefecture_kana":"ホッカイドウ","city":"三笠市","city_kana":"ミカサシ","town":"東清住町","town_kana":"ヒガシキヨズミチョウ","prefecture_code":1},"2146":{"zip_code":"0682146","prefecture":"北海道","prefecture_kana":"ホッカイドウ","city":"三笠市","city_kana":"ミカサシ","town":"幌内春日町","town_kana":"ホロナイカスガチョウ","prefecture_code":1},"2144":{"zip_code":"0682144","prefecture":"北海道","prefecture_kana":"ホッカイドウ","city":"三笠市","city_kana":"ミカサシ","town":"幌内金谷町","town_kana":"ホロナイカナヤチョウ","prefecture_code":1},"2147":{"zip_code":"0682147","prefecture":"北海道","prefecture_kana":"ホッカイドウ","city":"三笠市","city_kana":"ミカサシ","town":"幌内新栄町","town_kana":"ホロナイシンエイチョウ","prefecture_code":1},"2142":{"zip_code":"0682142","prefecture":"北海道","prefecture_kana":"ホッカイドウ","city":"三笠市","city_kana":"ミカサシ","town":"幌内住吉町","town_kana":"ホロナイスミヨシチョウ","prefecture_code":1},"2148":{"zip_code":"0682148","prefecture":"北海道","prefecture_kana":"ホッカイドウ","city":"三笠市","city_kana":"ミカサシ","town":"幌内初音町","town_kana":"ホロナイハツネチョウ","prefecture_code":1},"2143":{"zip_code":"0682143","prefecture":"北海道","prefecture_kana":"ホッカイドウ","city":"三笠市","city_kana":"ミカサシ","town":"幌内北星町","town_kana":"ホロナイホクセイチョウ","prefecture_code":1},"2145":{"zip_code":"0682145","prefecture":"北海道","prefecture_kana":"ホッカイドウ","city":"三笠市","city_kana":"ミカサシ","town":"幌内町","town_kana":"ホロナイチョウ","prefecture_code":1},"2161":{"zip_code":"0682161","prefecture":"北海道","prefecture_kana":"ホッカイドウ","city":"三笠市","city_kana":"ミカサシ","town":"本郷町","town_kana":"ホンゴウチョウ","prefecture_code":1},"2141":{"zip_code":"0682141","prefecture":"北海道","prefecture_kana":"ホッカイドウ","city":"三笠市","city_kana":"ミカサシ","town":"本町","town_kana":"ホンチョウ","prefecture_code":1},"2103":{"zip_code":"0682103","prefecture":"北海道","prefecture_kana":"ホッカイドウ","city":"三笠市","city_kana":"ミカサシ","town":"奔別新町","town_kana":"ポンベツシンマチ","prefecture_code":1},"2106":{"zip_code":"0682106","prefecture":"北海道","prefecture_kana":"ホッカイドウ","city":"三笠市","city_kana":"ミカサシ","town":"美園町","town_kana":"ミソノチョウ","prefecture_code":1},"2156":{"zip_code":"0682156","prefecture":"北海道","prefecture_kana":"ホッカイドウ","city":"三笠市","city_kana":"ミカサシ","town":"宮本町","town_kana":"ミヤモトチョウ","prefecture_code":1},"2168":{"zip_code":"0682168","prefecture":"北海道","prefecture_kana":"ホッカイドウ","city":"三笠市","city_kana":"ミカサシ","town":"美和","town_kana":"ミワ","prefecture_code":1},"2121":{"zip_code":"0682121","prefecture":"北海道","prefecture_kana":"ホッカイドウ","city":"三笠市","city_kana":"ミカサシ","town":"弥生桜木町","town_kana":"ヤヨイサクラギチョウ","prefecture_code":1},"2125":{"zip_code":"0682125","prefecture":"北海道","prefecture_kana":"ホッカイドウ","city":"三笠市","city_kana":"ミカサシ","town":"弥生橘町","town_kana":"ヤヨイタチバナチョウ","prefecture_code":1},"2122":{"zip_code":"0682122","prefecture":"北海道","prefecture_kana":"ホッカイドウ","city":"三笠市","city_kana":"ミカサシ","town":"弥生並木町","town_kana":"ヤヨイナミキチョウ","prefecture_code":1},"2124":{"zip_code":"0682124","prefecture":"北海道","prefecture_kana":"ホッカイドウ","city":"三笠市","city_kana":"ミカサシ","town":"弥生花園町","town_kana":"ヤヨイハナゾノチョウ","prefecture_code":1},"2128":{"zip_code":"0682128","prefecture":"北海道","prefecture_kana":"ホッカイドウ","city":"三笠市","city_kana":"ミカサシ","town":"弥生藤枝町","town_kana":"ヤヨイフジエチョウ","prefecture_code":1},"2123":{"zip_code":"0682123","prefecture":"北海道","prefecture_kana":"ホッカイドウ","city":"三笠市","city_kana":"ミカサシ","town":"弥生桃山町","town_kana":"ヤヨイモモヤマチョウ","prefecture_code":1},"2127":{"zip_code":"0682127","prefecture":"北海道","prefecture_kana":"ホッカイドウ","city":"三笠市","city_kana":"ミカサシ","town":"弥生柳町","town_kana":"ヤヨイヤナギチョウ","prefecture_code":1},"2126":{"zip_code":"0682126","prefecture":"北海道","prefecture_kana":"ホッカイドウ","city":"三笠市","city_kana":"ミカサシ","town":"弥生町","town_kana":"ヤヨイチョウ","prefecture_code":1},"2107":{"zip_code":"0682107","prefecture":"北海道","prefecture_kana":"ホッカイドウ","city":"三笠市","city_kana":"ミカサシ","town":"若草町","town_kana":"ワカクサチョウ","prefecture_code":1},"2157":{"zip_code":"0682157","prefecture":"北海道","prefecture_kana":"ホッカイドウ","city":"三笠市","city_kana":"ミカサシ","town":"若松町","town_kana":"ワカマツチョウ","prefecture_code":1},"1100":{"zip_code":"0681100","prefecture":"北海道","prefecture_kana":"ホッカイドウ","city":"石狩郡新篠津村","city_kana":"イシカリグンシンシノツムラ","town":"","town_kana":"","prefecture_code":1},"1112":{"zip_code":"0681112","prefecture":"北海道","prefecture_kana":"ホッカイドウ","city":"石狩郡新篠津村","city_kana":"イシカリグンシンシノツムラ","town":"あけぼの","town_kana":"アケボノ","prefecture_code":1},"1102":{"zip_code":"0681102","prefecture":"北海道","prefecture_kana":"ホッカイドウ","city":"石狩郡新篠津村","city_kana":"イシカリグンシンシノツムラ","town":"いなほ","town_kana":"イナホ","prefecture_code":1},"1104":{"zip_code":"0681104","prefecture":"北海道","prefecture_kana":"ホッカイドウ","city":"石狩郡新篠津村","city_kana":"イシカリグンシンシノツムラ","town":"かつら","town_kana":"カツラ","prefecture_code":1},"1125":{"zip_code":"0681125","prefecture":"北海道","prefecture_kana":"ホッカイドウ","city":"石狩郡新篠津村","city_kana":"イシカリグンシンシノツムラ","town":"上篠津","town_kana":"カミシノツ","prefecture_code":1},"1116":{"zip_code":"0681116","prefecture":"北海道","prefecture_kana":"ホッカイドウ","city":"石狩郡新篠津村","city_kana":"イシカリグンシンシノツムラ","town":"上達布","town_kana":"カミタップ","prefecture_code":1},"1123":{"zip_code":"0681123","prefecture":"北海道","prefecture_kana":"ホッカイドウ","city":"石狩郡新篠津村","city_kana":"イシカリグンシンシノツムラ","town":"川上","town_kana":"カワカミ","prefecture_code":1},"1152":{"zip_code":"0681152","prefecture":"北海道","prefecture_kana":"ホッカイドウ","city":"石狩郡新篠津村","city_kana":"イシカリグンシンシノツムラ","town":"川下","town_kana":"カワシモ","prefecture_code":1},"1131":{"zip_code":"0681131","prefecture":"北海道","prefecture_kana":"ホッカイドウ","city":"石狩郡新篠津村","city_kana":"イシカリグンシンシノツムラ","town":"基線","town_kana":"キセン","prefecture_code":1},"1134":{"zip_code":"0681134","prefecture":"北海道","prefecture_kana":"ホッカイドウ","city":"石狩郡新篠津村","city_kana":"イシカリグンシンシノツムラ","town":"宍粟","town_kana":"シソウ","prefecture_code":1},"1136":{"zip_code":"0681136","prefecture":"北海道","prefecture_kana":"ホッカイドウ","city":"石狩郡新篠津村","city_kana":"イシカリグンシンシノツムラ","town":"下達布","town_kana":"シモタップ","prefecture_code":1},"1142":{"zip_code":"0681142","prefecture":"北海道","prefecture_kana":"ホッカイドウ","city":"石狩郡新篠津村","city_kana":"イシカリグンシンシノツムラ","town":"新樺","town_kana":"シンカバ","prefecture_code":1},"1146":{"zip_code":"0681146","prefecture":"北海道","prefecture_kana":"ホッカイドウ","city":"石狩郡新篠津村","city_kana":"イシカリグンシンシノツムラ","town":"新高倉","town_kana":"シンタカクラ","prefecture_code":1},"1138":{"zip_code":"0681138","prefecture":"北海道","prefecture_kana":"ホッカイドウ","city":"石狩郡新篠津村","city_kana":"イシカリグンシンシノツムラ","town":"新西篠津","town_kana":"シンニシシノツ","prefecture_code":1},"1121":{"zip_code":"0681121","prefecture":"北海道","prefecture_kana":"ホッカイドウ","city":"石狩郡新篠津村","city_kana":"イシカリグンシンシノツムラ","town":"新湧","town_kana":"シンユウ","prefecture_code":1},"1124":{"zip_code":"0681124","prefecture":"北海道","prefecture_kana":"ホッカイドウ","city":"石狩郡新篠津村","city_kana":"イシカリグンシンシノツムラ","town":"高倉","town_kana":"タカクラ","prefecture_code":1},"1144":{"zip_code":"0681144","prefecture":"北海道","prefecture_kana":"ホッカイドウ","city":"石狩郡新篠津村","city_kana":"イシカリグンシンシノツムラ","town":"拓新","town_kana":"タクシン","prefecture_code":1},"1143":{"zip_code":"0681143","prefecture":"北海道","prefecture_kana":"ホッカイドウ","city":"石狩郡新篠津村","city_kana":"イシカリグンシンシノツムラ","town":"武田","town_kana":"タケダ","prefecture_code":1},"1111":{"zip_code":"0681111","prefecture":"北海道","prefecture_kana":"ホッカイドウ","city":"石狩郡新篠津村","city_kana":"イシカリグンシンシノツムラ","town":"東明","town_kana":"トウメイ","prefecture_code":1},"1126":{"zip_code":"0681126","prefecture":"北海道","prefecture_kana":"ホッカイドウ","city":"石狩郡新篠津村","city_kana":"イシカリグンシンシノツムラ","town":"豊ケ丘","town_kana":"トヨガオカ","prefecture_code":1},"1132":{"zip_code":"0681132","prefecture":"北海道","prefecture_kana":"ホッカイドウ","city":"石狩郡新篠津村","city_kana":"イシカリグンシンシノツムラ","town":"豊野","town_kana":"トヨノ","prefecture_code":1},"1137":{"zip_code":"0681137","prefecture":"北海道","prefecture_kana":"ホッカイドウ","city":"石狩郡新篠津村","city_kana":"イシカリグンシンシノツムラ","town":"中篠津","town_kana":"ナカシノツ","prefecture_code":1},"1153":{"zip_code":"0681153","prefecture":"北海道","prefecture_kana":"ホッカイドウ","city":"石狩郡新篠津村","city_kana":"イシカリグンシンシノツムラ","town":"中原","town_kana":"ナカハラ","prefecture_code":1},"1141":{"zip_code":"0681141","prefecture":"北海道","prefecture_kana":"ホッカイドウ","city":"石狩郡新篠津村","city_kana":"イシカリグンシンシノツムラ","town":"西篠津","town_kana":"ニシシノツ","prefecture_code":1},"1145":{"zip_code":"0681145","prefecture":"北海道","prefecture_kana":"ホッカイドウ","city":"石狩郡新篠津村","city_kana":"イシカリグンシンシノツムラ","town":"西高倉","town_kana":"ニシタカクラ","prefecture_code":1},"1103":{"zip_code":"0681103","prefecture":"北海道","prefecture_kana":"ホッカイドウ","city":"石狩郡新篠津村","city_kana":"イシカリグンシンシノツムラ","town":"西の里","town_kana":"ニシノサト","prefecture_code":1},"1151":{"zip_code":"0681151","prefecture":"北海道","prefecture_kana":"ホッカイドウ","city":"石狩郡新篠津村","city_kana":"イシカリグンシンシノツムラ","town":"西原","town_kana":"ニシハラ","prefecture_code":1},"1127":{"zip_code":"0681127","prefecture":"北海道","prefecture_kana":"ホッカイドウ","city":"石狩郡新篠津村","city_kana":"イシカリグンシンシノツムラ","town":"沼之端","town_kana":"ヌマノハタ","prefecture_code":1},"1135":{"zip_code":"0681135","prefecture":"北海道","prefecture_kana":"ホッカイドウ","city":"石狩郡新篠津村","city_kana":"イシカリグンシンシノツムラ","town":"袋達布","town_kana":"フクロタップ","prefecture_code":1},"1113":{"zip_code":"0681113","prefecture":"北海道","prefecture_kana":"ホッカイドウ","city":"石狩郡新篠津村","city_kana":"イシカリグンシンシノツムラ","town":"ふらわ","town_kana":"フラワ","prefecture_code":1},"1133":{"zip_code":"0681133","prefecture":"北海道","prefecture_kana":"ホッカイドウ","city":"石狩郡新篠津村","city_kana":"イシカリグンシンシノツムラ","town":"平安","town_kana":"ヘイアン","prefecture_code":1},"1122":{"zip_code":"0681122","prefecture":"北海道","prefecture_kana":"ホッカイドウ","city":"石狩郡新篠津村","city_kana":"イシカリグンシンシノツムラ","town":"北新","town_kana":"ホクシン","prefecture_code":1},"1115":{"zip_code":"0681115","prefecture":"北海道","prefecture_kana":"ホッカイドウ","city":"石狩郡新篠津村","city_kana":"イシカリグンシンシノツムラ","town":"みずほ","town_kana":"ミズホ","prefecture_code":1},"1114":{"zip_code":"0681114","prefecture":"北海道","prefecture_kana":"ホッカイドウ","city":"石狩郡新篠津村","city_kana":"イシカリグンシンシノツムラ","town":"南ケ丘","town_kana":"ミナミガオカ","prefecture_code":1},"1105":{"zip_code":"0681105","prefecture":"北海道","prefecture_kana":"ホッカイドウ","city":"石狩郡新篠津村","city_kana":"イシカリグンシンシノツムラ","town":"みのり","town_kana":"ミノリ","prefecture_code":1},"1101":{"zip_code":"0681101","prefecture":"北海道","prefecture_kana":"ホッカイドウ","city":"石狩郡新篠津村","city_kana":"イシカリグンシンシノツムラ","town":"萌出","town_kana":"モエデ","prefecture_code":1},"0351":{"zip_code":"0680351","prefecture":"北海道","prefecture_kana":"ホッカイドウ","city":"夕張郡栗山町","city_kana":"ユウバリグンクリヤマチョウ","town":"阿野呂","town_kana":"アノロ","prefecture_code":1},"0352":{"zip_code":"0680352","prefecture":"北海道","prefecture_kana":"ホッカイドウ","city":"夕張郡栗山町","city_kana":"ユウバリグンクリヤマチョウ","town":"大井分","town_kana":"オオイワケ","prefecture_code":1},"0358":{"zip_code":"0680358","prefecture":"北海道","prefecture_kana":"ホッカイドウ","city":"夕張郡栗山町","city_kana":"ユウバリグンクリヤマチョウ","town":"桜山","town_kana":"サクラヤマ","prefecture_code":1},"0361":{"zip_code":"0680361","prefecture":"北海道","prefecture_kana":"ホッカイドウ","city":"夕張郡栗山町","city_kana":"ユウバリグンクリヤマチョウ","town":"滝下","town_kana":"タキシタ","prefecture_code":1},"0353":{"zip_code":"0680353","prefecture":"北海道","prefecture_kana":"ホッカイドウ","city":"夕張郡栗山町","city_kana":"ユウバリグンクリヤマチョウ","town":"継立","town_kana":"ツギタテ","prefecture_code":1},"0354":{"zip_code":"0680354","prefecture":"北海道","prefecture_kana":"ホッカイドウ","city":"夕張郡栗山町","city_kana":"ユウバリグンクリヤマチョウ","town":"日出","town_kana":"ヒノデ","prefecture_code":1},"0362":{"zip_code":"0680362","prefecture":"北海道","prefecture_kana":"ホッカイドウ","city":"夕張郡栗山町","city_kana":"ユウバリグンクリヤマチョウ","town":"円山","town_kana":"マルヤマ","prefecture_code":1},"0363":{"zip_code":"0680363","prefecture":"北海道","prefecture_kana":"ホッカイドウ","city":"夕張郡栗山町","city_kana":"ユウバリグンクリヤマチョウ","town":"円山東山","town_kana":"マルヤマヒガシヤマ","prefecture_code":1},"0355":{"zip_code":"0680355","prefecture":"北海道","prefecture_kana":"ホッカイドウ","city":"夕張郡栗山町","city_kana":"ユウバリグンクリヤマチョウ","town":"御園","town_kana":"ミソノ","prefecture_code":1},"0356":{"zip_code":"0680356","prefecture":"北海道","prefecture_kana":"ホッカイドウ","city":"夕張郡栗山町","city_kana":"ユウバリグンクリヤマチョウ","town":"南角田","town_kana":"ミナミカクタ","prefecture_code":1},"0357":{"zip_code":"0680357","prefecture":"北海道","prefecture_kana":"ホッカイドウ","city":"夕張郡栗山町","city_kana":"ユウバリグンクリヤマチョウ","town":"南学田","town_kana":"ミナミガクデン","prefecture_code":1},"1231":{"zip_code":"0681231","prefecture":"北海道","prefecture_kana":"ホッカイドウ","city":"樺戸郡月形町","city_kana":"カバトグンツキガタチョウ","town":"雁里","town_kana":"カリサト","prefecture_code":1}}