{"0384":{"zip_code":"0690384","prefecture":"北海道","prefecture_kana":"ホッカイドウ","city":"岩見沢市","city_kana":"イワミザワシ","town":"御茶の水町","town_kana":"オチャノミズチョウ","prefecture_code":1},"0361":{"zip_code":"0690361","prefecture":"北海道","prefecture_kana":"ホッカイドウ","city":"岩見沢市","city_kana":"イワミザワシ","town":"上幌向北一条","town_kana":"カミホロムイキタ1ジョウ","prefecture_code":1},"0362":{"zip_code":"0690362","prefecture":"北海道","prefecture_kana":"ホッカイドウ","city":"岩見沢市","city_kana":"イワミザワシ","town":"上幌向南一条","town_kana":"カミホロムイミナミ1ジョウ","prefecture_code":1},"0363":{"zip_code":"0690363","prefecture":"北海道","prefecture_kana":"ホッカイドウ","city":"岩見沢市","city_kana":"イワミザワシ","town":"上幌向南二条","town_kana":"カミホロムイミナミ2ジョウ","prefecture_code":1},"0364":{"zip_code":"0690364","prefecture":"北海道","prefecture_kana":"ホッカイドウ","city":"岩見沢市","city_kana":"イワミザワシ","town":"上幌向南三条","town_kana":"カミホロムイミナミ3ジョウ","prefecture_code":1},"0365":{"zip_code":"0690365","prefecture":"北海道","prefecture_kana":"ホッカイドウ","city":"岩見沢市","city_kana":"イワミザワシ","town":"上幌向町","town_kana":"カミホロムイチョウ","prefecture_code":1},"0351":{"zip_code":"0690351","prefecture":"北海道","prefecture_kana":"ホッカイドウ","city":"岩見沢市","city_kana":"イワミザワシ","town":"北村砂浜","town_kana":"キタムラスナハマ","prefecture_code":1},"0376":{"zip_code":"0690376","prefecture":"北海道","prefecture_kana":"ホッカイドウ","city":"岩見沢市","city_kana":"イワミザワシ","town":"中幌向町","town_kana":"ナカホロムイチョウ","prefecture_code":1},"0366":{"zip_code":"0690366","prefecture":"北海道","prefecture_kana":"ホッカイドウ","city":"岩見沢市","city_kana":"イワミザワシ","town":"双葉町","town_kana":"フタバチョウ","prefecture_code":1},"0381":{"zip_code":"0690381","prefecture":"北海道","prefecture_kana":"ホッカイドウ","city":"岩見沢市","city_kana":"イワミザワシ","town":"幌向北一条","town_kana":"ホロムイキタ1ジョウ","prefecture_code":1},"0382":{"zip_code":"0690382","prefecture":"北海道","prefecture_kana":"ホッカイドウ","city":"岩見沢市","city_kana":"イワミザワシ","town":"幌向北二条","town_kana":"ホロムイキタ2ジョウ","prefecture_code":1},"0371":{"zip_code":"0690371","prefecture":"北海道","prefecture_kana":"ホッカイドウ","city":"岩見沢市","city_kana":"イワミザワシ","town":"幌向南一条","town_kana":"ホロムイミナミ1ジョウ","prefecture_code":1},"0372":{"zip_code":"0690372","prefecture":"北海道","prefecture_kana":"ホッカイドウ","city":"岩見沢市","city_kana":"イワミザワシ","town":"幌向南二条","town_kana":"ホロムイミナミ2ジョウ","prefecture_code":1},"0373":{"zip_code":"0690373","prefecture":"北海道","prefecture_kana":"ホッカイドウ","city":"岩見沢市","city_kana":"イワミザワシ","town":"幌向南三条","town_kana":"ホロムイミナミ3ジョウ","prefecture_code":1},"0374":{"zip_code":"0690374","prefecture":"北海道","prefecture_kana":"ホッカイドウ","city":"岩見沢市","city_kana":"イワミザワシ","town":"幌向南四条","town_kana":"ホロムイミナミ4ジョウ","prefecture_code":1},"0375":{"zip_code":"0690375","prefecture":"北海道","prefecture_kana":"ホッカイドウ","city":"岩見沢市","city_kana":"イワミザワシ","town":"幌向南五条","town_kana":"ホロムイミナミ5ジョウ","prefecture_code":1},"0383":{"zip_code":"0690383","prefecture":"北海道","prefecture_kana":"ホッカイドウ","city":"岩見沢市","city_kana":"イワミザワシ","town":"幌向町","town_kana":"ホロムイチョウ","prefecture_code":1},"0826":{"zip_code":"0690826","prefecture":"北海道","prefecture_kana":"ホッカイドウ","city":"江別市","city_kana":"エベツシ","town":"あさひが丘","town_kana":"アサヒガオカ","prefecture_code":1},"0845":{"zip_code":"0690845","prefecture":"北海道","prefecture_kana":"ホッカイドウ","city":"江別市","city_kana":"エベツシ","town":"大麻","town_kana":"オオアサ","prefecture_code":1},"0864":{"zip_code":"0690864","prefecture":"北海道","prefecture_kana":"ホッカイドウ","city":"江別市","city_kana":"エベツシ","town":"大麻泉町","town_kana":"オオアサイズミチョウ","prefecture_code":1},"0843":{"zip_code":"0690843","prefecture":"北海道","prefecture_kana":"ホッカイドウ","city":"江別市","city_kana":"エベツシ","town":"大麻扇町","town_kana":"オオアサオウギマチ","prefecture_code":1},"0861":{"zip_code":"0690861","prefecture":"北海道","prefecture_kana":"ホッカイドウ","city":"江別市","city_kana":"エベツシ","town":"大麻北町","town_kana":"オオアサキタマチ","prefecture_code":1},"0862":{"zip_code":"0690862","prefecture":"北海道","prefecture_kana":"ホッカイドウ","city":"江別市","city_kana":"エベツシ","town":"大麻栄町","town_kana":"オオアササカエマチ","prefecture_code":1},"0846":{"zip_code":"0690846","prefecture":"北海道","prefecture_kana":"ホッカイドウ","city":"江別市","city_kana":"エベツシ","town":"大麻桜木町","town_kana":"オオアササクラギチョウ","prefecture_code":1},"0842":{"zip_code":"0690842","prefecture":"北海道","prefecture_kana":"ホッカイドウ","city":"江別市","city_kana":"エベツシ","town":"大麻沢町","town_kana":"オオアササワマチ","prefecture_code":1},"0863":{"zip_code":"0690863","prefecture":"北海道","prefecture_kana":"ホッカイドウ","city":"江別市","city_kana":"エベツシ","town":"大麻新町","town_kana":"オオアサシンマチ","prefecture_code":1},"0851":{"zip_code":"0690851","prefecture":"北海道","prefecture_kana":"ホッカイドウ","city":"江別市","city_kana":"エベツシ","town":"大麻園町","town_kana":"オオアサソノマチ","prefecture_code":1},"0853":{"zip_code":"0690853","prefecture":"北海道","prefecture_kana":"ホッカイドウ","city":"江別市","city_kana":"エベツシ","town":"大麻高町","town_kana":"オオアサタカマチ","prefecture_code":1},"0854":{"zip_code":"0690854","prefecture":"北海道","prefecture_kana":"ホッカイドウ","city":"江別市","city_kana":"エベツシ","town":"大麻中町","town_kana":"オオアサナカマチ","prefecture_code":1},"0844":{"zip_code":"0690844","prefecture":"北海道","prefecture_kana":"ホッカイドウ","city":"江別市","city_kana":"エベツシ","town":"大麻西町","town_kana":"オオアサニシマチ","prefecture_code":1},"0866":{"zip_code":"0690866","prefecture":"北海道","prefecture_kana":"ホッカイドウ","city":"江別市","city_kana":"エベツシ","town":"大麻晴美町","town_kana":"オオアサハルミチョウ","prefecture_code":1},"0852":{"zip_code":"0690852","prefecture":"北海道","prefecture_kana":"ホッカイドウ","city":"江別市","city_kana":"エベツシ","town":"大麻東町","town_kana":"オオアサヒガシマチ","prefecture_code":1},"0847":{"zip_code":"0690847","prefecture":"北海道","prefecture_kana":"ホッカイドウ","city":"江別市","city_kana":"エベツシ","town":"大麻ひかり町","town_kana":"オオアサヒカリマチ","prefecture_code":1},"0865":{"zip_code":"0690865","prefecture":"北海道","prefecture_kana":"ホッカイドウ","city":"江別市","city_kana":"エベツシ","town":"大麻南樹町","town_kana":"オオアサミナキチョウ","prefecture_code":1},"0855":{"zip_code":"0690855","prefecture":"北海道","prefecture_kana":"ホッカイドウ","city":"江別市","city_kana":"エベツシ","town":"大麻宮町","town_kana":"オオアサミヤマチ","prefecture_code":1},"0841":{"zip_code":"0690841","prefecture":"北海道","prefecture_kana":"ホッカイドウ","city":"江別市","city_kana":"エベツシ","town":"大麻元町","town_kana":"オオアサモトマチ","prefecture_code":1},"0812":{"zip_code":"0690812","prefecture":"北海道","prefecture_kana":"ホッカイドウ","city":"江別市","city_kana":"エベツシ","town":"幸町","town_kana":"サイワイチョウ","prefecture_code":1},"0806":{"zip_code":"0690806","prefecture":"北海道","prefecture_kana":"ホッカイドウ","city":"江別市","city_kana":"エベツシ","town":"新栄台","town_kana":"シンエイダイ","prefecture_code":1},"0801":{"zip_code":"0690801","prefecture":"北海道","prefecture_kana":"ホッカイドウ","city":"江別市","city_kana":"エベツシ","town":"中央町","town_kana":"チュウオウチョウ","prefecture_code":1},"0811":{"zip_code":"0690811","prefecture":"北海道","prefecture_kana":"ホッカイドウ","city":"江別市","city_kana":"エベツシ","town":"錦町","town_kana":"ニシキチョウ","prefecture_code":1},"0832":{"zip_code":"0690832","prefecture":"北海道","prefecture_kana":"ホッカイドウ","city":"江別市","city_kana":"エベツシ","town":"西野幌","town_kana":"ニシノッポロ","prefecture_code":1},"0802":{"zip_code":"0690802","prefecture":"北海道","prefecture_kana":"ホッカイドウ","city":"江別市","city_kana":"エベツシ","town":"野幌寿町","town_kana":"ノッポロコトブキチョウ","prefecture_code":1},"0815":{"zip_code":"0690815","prefecture":"北海道","prefecture_kana":"ホッカイドウ","city":"江別市","city_kana":"エベツシ","town":"野幌末広町","town_kana":"ノッポロスエヒロチョウ","prefecture_code":1},"0816":{"zip_code":"0690816","prefecture":"北海道","prefecture_kana":"ホッカイドウ","city":"江別市","city_kana":"エベツシ","town":"野幌住吉町","town_kana":"ノッポロスミヨシチョウ","prefecture_code":1},"0803":{"zip_code":"0690803","prefecture":"北海道","prefecture_kana":"ホッカイドウ","city":"江別市","city_kana":"エベツシ","town":"野幌屯田町","town_kana":"ノッポロトンデンチョウ","prefecture_code":1},"0825":{"zip_code":"0690825","prefecture":"北海道","prefecture_kana":"ホッカイドウ","city":"江別市","city_kana":"エベツシ","town":"野幌東町","town_kana":"ノッポロヒガシマチ","prefecture_code":1},"0814":{"zip_code":"0690814","prefecture":"北海道","prefecture_kana":"ホッカイドウ","city":"江別市","city_kana":"エベツシ","town":"野幌松並町","town_kana":"ノッポロマツナミチョウ","prefecture_code":1},"0804":{"zip_code":"0690804","prefecture":"北海道","prefecture_kana":"ホッカイドウ","city":"江別市","city_kana":"エベツシ","town":"野幌美幸町","town_kana":"ノッポロミユキチョウ","prefecture_code":1},"0817":{"zip_code":"0690817","prefecture":"北海道","prefecture_kana":"ホッカイドウ","city":"江別市","city_kana":"エベツシ","town":"野幌代々木町","town_kana":"ノッポロヨヨギチョウ","prefecture_code":1},"0831":{"zip_code":"0690831","prefecture":"北海道","prefecture_kana":"ホッカイドウ","city":"江別市","city_kana":"エベツシ","town":"野幌若葉町","town_kana":"ノッポロワカバチョウ","prefecture_code":1},"0813":{"zip_code":"0690813","prefecture":"北海道","prefecture_kana":"ホッカイドウ","city":"江別市","city_kana":"エベツシ","town":"野幌町","town_kana":"ノッポロチョウ","prefecture_code":1},"0822":{"zip_code":"0690822","prefecture":"北海道","prefecture_kana":"ホッカイドウ","city":"江別市","city_kana":"エベツシ","town":"東野幌","town_kana":"ヒガシノッポロ","prefecture_code":1},"0821":{"zip_code":"0690821","prefecture":"北海道","prefecture_kana":"ホッカイドウ","city":"江別市","city_kana":"エベツシ","town":"東野幌町","town_kana":"ヒガシノッポロチョウ","prefecture_code":1},"0824":{"zip_code":"0690824","prefecture":"北海道","prefecture_kana":"ホッカイドウ","city":"江別市","city_kana":"エベツシ","town":"東野幌本町","town_kana":"ヒガシノッポロホンチョウ","prefecture_code":1},"0833":{"zip_code":"0690833","prefecture":"北海道","prefecture_kana":"ホッカイドウ","city":"江別市","city_kana":"エベツシ","town":"文京台","town_kana":"ブンキョウダイ","prefecture_code":1},"0834":{"zip_code":"0690834","prefecture":"北海道","prefecture_kana":"ホッカイドウ","city":"江別市","city_kana":"エベツシ","town":"文京台東町","town_kana":"ブンキョウダイヒガシマチ","prefecture_code":1},"0836":{"zip_code":"0690836","prefecture":"北海道","prefecture_kana":"ホッカイドウ","city":"江別市","city_kana":"エベツシ","town":"文京台緑町","town_kana":"ブンキョウダイミドリマチ","prefecture_code":1},"0835":{"zip_code":"0690835","prefecture":"北海道","prefecture_kana":"ホッカイドウ","city":"江別市","city_kana":"エベツシ","town":"文京台南町","town_kana":"ブンキョウダイミナミマチ","prefecture_code":1},"0823":{"zip_code":"0690823","prefecture":"北海道","prefecture_kana":"ホッカイドウ","city":"江別市","city_kana":"エベツシ","town":"緑ケ丘","town_kana":"ミドリガオカ","prefecture_code":1},"0867":{"zip_code":"0690867","prefecture":"北海道","prefecture_kana":"ホッカイドウ","city":"江別市","city_kana":"エベツシ","town":"元野幌","town_kana":"モトノッポロ","prefecture_code":1},"0805":{"zip_code":"0690805","prefecture":"北海道","prefecture_kana":"ホッカイドウ","city":"江別市","city_kana":"エベツシ","town":"元野幌","town_kana":"モトノッポロ","prefecture_code":1},"1182":{"zip_code":"0691182","prefecture":"北海道","prefecture_kana":"ホッカイドウ","city":"千歳市","city_kana":"チトセシ","town":"協和","town_kana":"キョウワ","prefecture_code":1},"1184":{"zip_code":"0691184","prefecture":"北海道","prefecture_kana":"ホッカイドウ","city":"千歳市","city_kana":"チトセシ","town":"新川","town_kana":"ニイカワ","prefecture_code":1},"1181":{"zip_code":"0691181","prefecture":"北海道","prefecture_kana":"ホッカイドウ","city":"千歳市","city_kana":"チトセシ","town":"東丘","town_kana":"ヒガシオカ","prefecture_code":1},"1183":{"zip_code":"0691183","prefecture":"北海道","prefecture_kana":"ホッカイドウ","city":"千歳市","city_kana":"チトセシ","town":"幌加","town_kana":"ホロカ","prefecture_code":1},"0200":{"zip_code":"0690200","prefecture":"北海道","prefecture_kana":"ホッカイドウ","city":"空知郡南幌町","city_kana":"ソラチグンナンポロチョウ","town":"","town_kana":"","prefecture_code":1},"0239":{"zip_code":"0690239","prefecture":"北海道","prefecture_kana":"ホッカイドウ","city":"空知郡南幌町","city_kana":"ソラチグンナンポロチョウ","town":"稲穂","town_kana":"イナホ","prefecture_code":1},"0231":{"zip_code":"0690231","prefecture":"北海道","prefecture_kana":"ホッカイドウ","city":"空知郡南幌町","city_kana":"ソラチグンナンポロチョウ","town":"北町","town_kana":"キタマチ","prefecture_code":1},"0237":{"zip_code":"0690237","prefecture":"北海道","prefecture_kana":"ホッカイドウ","city":"空知郡南幌町","city_kana":"ソラチグンナンポロチョウ","town":"栄町","town_kana":"サカエマチ","prefecture_code":1},"0235":{"zip_code":"0690235","prefecture":"北海道","prefecture_kana":"ホッカイドウ","city":"空知郡南幌町","city_kana":"ソラチグンナンポロチョウ","town":"中央","town_kana":"チュウオウ","prefecture_code":1},"0236":{"zip_code":"0690236","prefecture":"北海道","prefecture_kana":"ホッカイドウ","city":"空知郡南幌町","city_kana":"ソラチグンナンポロチョウ","town":"西町","town_kana":"ニシマチ","prefecture_code":1},"0233":{"zip_code":"0690233","prefecture":"北海道","prefecture_kana":"ホッカイドウ","city":"空知郡南幌町","city_kana":"ソラチグンナンポロチョウ","town":"東町","town_kana":"ヒガシマチ","prefecture_code":1},"0234":{"zip_code":"0690234","prefecture":"北海道","prefecture_kana":"ホッカイドウ","city":"空知郡南幌町","city_kana":"ソラチグンナンポロチョウ","town":"美園","town_kana":"ミソノ","prefecture_code":1},"0232":{"zip_code":"0690232","prefecture":"北海道","prefecture_kana":"ホッカイドウ","city":"空知郡南幌町","city_kana":"ソラチグンナンポロチョウ","town":"緑町","town_kana":"ミドリマチ","prefecture_code":1},"0207":{"zip_code":"0690207","prefecture":"北海道","prefecture_kana":"ホッカイドウ","city":"空知郡南幌町","city_kana":"ソラチグンナンポロチョウ","town":"南７線西","town_kana":"ミナミ7センニシ","prefecture_code":1},"0208":{"zip_code":"0690208","prefecture":"北海道","prefecture_kana":"ホッカイドウ","city":"空知郡南幌町","city_kana":"ソラチグンナンポロチョウ","town":"南８線西","town_kana":"ミナミ8センニシ","prefecture_code":1},"0209":{"zip_code":"0690209","prefecture":"北海道","prefecture_kana":"ホッカイドウ","city":"空知郡南幌町","city_kana":"ソラチグンナンポロチョウ","town":"南９線西","town_kana":"ミナミ9センニシ","prefecture_code":1},"0210":{"zip_code":"0690210","prefecture":"北海道","prefecture_kana":"ホッカイドウ","city":"空知郡南幌町","city_kana":"ソラチグンナンポロチョウ","town":"南１０線西","town_kana":"ミナミ10センニシ","prefecture_code":1},"0211":{"zip_code":"0690211","prefecture":"北海道","prefecture_kana":"ホッカイドウ","city":"空知郡南幌町","city_kana":"ソラチグンナンポロチョウ","town":"南１１線西","town_kana":"ミナミ11センニシ","prefecture_code":1},"0212":{"zip_code":"0690212","prefecture":"北海道","prefecture_kana":"ホッカイドウ","city":"空知郡南幌町","city_kana":"ソラチグンナンポロチョウ","town":"南１２線西","town_kana":"ミナミ12センニシ","prefecture_code":1},"0213":{"zip_code":"0690213","prefecture":"北海道","prefecture_kana":"ホッカイドウ","city":"空知郡南幌町","city_kana":"ソラチグンナンポロチョウ","town":"南１３線西","town_kana":"ミナミ13センニシ","prefecture_code":1},"0214":{"zip_code":"0690214","prefecture":"北海道","prefecture_kana":"ホッカイドウ","city":"空知郡南幌町","city_kana":"ソラチグンナンポロチョウ","town":"南１４線西","town_kana":"ミナミ14センニシ","prefecture_code":1},"0215":{"zip_code":"0690215","prefecture":"北海道","prefecture_kana":"ホッカイドウ","city":"空知郡南幌町","city_kana":"ソラチグンナンポロチョウ","town":"南１５線西","town_kana":"ミナミ15センニシ","prefecture_code":1},"0216":{"zip_code":"0690216","prefecture":"北海道","prefecture_kana":"ホッカイドウ","city":"空知郡南幌町","city_kana":"ソラチグンナンポロチョウ","town":"南１６線西","town_kana":"ミナミ16センニシ","prefecture_code":1},"0217":{"zip_code":"0690217","prefecture":"北海道","prefecture_kana":"ホッカイドウ","city":"空知郡南幌町","city_kana":"ソラチグンナンポロチョウ","town":"南１７線西","town_kana":"ミナミ17センニシ","prefecture_code":1},"0218":{"zip_code":"0690218","prefecture":"北海道","prefecture_kana":"ホッカイドウ","city":"空知郡南幌町","city_kana":"ソラチグンナンポロチョウ","town":"南１８線西","town_kana":"ミナミ18センニシ","prefecture_code":1},"0219":{"zip_code":"0690219","prefecture":"北海道","prefecture_kana":"ホッカイドウ","city":"空知郡南幌町","city_kana":"ソラチグンナンポロチョウ","town":"南１９線西","town_kana":"ミナミ19センニシ","prefecture_code":1},"0220":{"zip_code":"0690220","prefecture":"北海道","prefecture_kana":"ホッカイドウ","city":"空知郡南幌町","city_kana":"ソラチグンナンポロチョウ","town":"南２０線西","town_kana":"ミナミ20センニシ","prefecture_code":1},"0221":{"zip_code":"0690221","prefecture":"北海道","prefecture_kana":"ホッカイドウ","city":"空知郡南幌町","city_kana":"ソラチグンナンポロチョウ","town":"南２１線西","town_kana":"ミナミ21センニシ","prefecture_code":1},"0238":{"zip_code":"0690238","prefecture":"北海道","prefecture_kana":"ホッカイドウ","city":"空知郡南幌町","city_kana":"ソラチグンナンポロチョウ","town":"元町","town_kana":"モトマチ","prefecture_code":1},"1200":{"zip_code":"0691200","prefecture":"北海道","prefecture_kana":"ホッカイドウ","city":"夕張郡由仁町","city_kana":"ユウバリグンユニチョウ","town":"","town_kana":"","prefecture_code":1},"1211":{"zip_code":"0691211","prefecture":"北海道","prefecture_kana":"ホッカイドウ","city":"夕張郡由仁町","city_kana":"ユウバリグンユニチョウ","town":"岩内","town_kana":"イワナイ","prefecture_code":1},"1207":{"zip_code":"0691207","prefecture":"北海道","prefecture_kana":"ホッカイドウ","city":"夕張郡由仁町","city_kana":"ユウバリグンユニチョウ","town":"馬追","town_kana":"ウマオイ","prefecture_code":1},"1141":{"zip_code":"0691141","prefecture":"北海道","prefecture_kana":"ホッカイドウ","city":"夕張郡由仁町","city_kana":"ユウバリグンユニチョウ","town":"川端","town_kana":"カワバタ","prefecture_code":1},"1215":{"zip_code":"0691215","prefecture":"北海道","prefecture_kana":"ホッカイドウ","city":"夕張郡由仁町","city_kana":"ユウバリグンユニチョウ","town":"熊本","town_kana":"クマモト","prefecture_code":1},"1136":{"zip_code":"0691136","prefecture":"北海道","prefecture_kana":"ホッカイドウ","city":"夕張郡由仁町","city_kana":"ユウバリグンユニチョウ","town":"熊本","town_kana":"クマモト","prefecture_code":1},"1217":{"zip_code":"0691217","prefecture":"北海道","prefecture_kana":"ホッカイドウ","city":"夕張郡由仁町","city_kana":"ユウバリグンユニチョウ","town":"光栄","town_kana":"コウエイ","prefecture_code":1},"1204":{"zip_code":"0691204","prefecture":"北海道","prefecture_kana":"ホッカイドウ","city":"夕張郡由仁町","city_kana":"ユウバリグンユニチョウ","town":"新光","town_kana":"シンコウ","prefecture_code":1},"1205":{"zip_code":"0691205","prefecture":"北海道","prefecture_kana":"ホッカイドウ","city":"夕張郡由仁町","city_kana":"ユウバリグンユニチョウ","town":"中央","town_kana":"チュウオウ","prefecture_code":1},"1203":{"zip_code":"0691203","prefecture":"北海道","prefecture_kana":"ホッカイドウ","city":"夕張郡由仁町","city_kana":"ユウバリグンユニチョウ","town":"東栄","town_kana":"トウエイ","prefecture_code":1},"1219":{"zip_code":"0691219","prefecture":"北海道","prefecture_kana":"ホッカイドウ","city":"夕張郡由仁町","city_kana":"ユウバリグンユニチョウ","town":"東光","town_kana":"トウコウ","prefecture_code":1},"1143":{"zip_code":"0691143","prefecture":"北海道","prefecture_kana":"ホッカイドウ","city":"夕張郡由仁町","city_kana":"ユウバリグンユニチョウ","town":"中三川","town_kana":"ナカミカワ","prefecture_code":1},"1214":{"zip_code":"0691214","prefecture":"北海道","prefecture_kana":"ホッカイドウ","city":"夕張郡由仁町","city_kana":"ユウバリグンユニチョウ","town":"西三川","town_kana":"ニシミカワ","prefecture_code":1},"1135":{"zip_code":"0691135","prefecture":"北海道","prefecture_kana":"ホッカイドウ","city":"夕張郡由仁町","city_kana":"ユウバリグンユニチョウ","town":"西三川","town_kana":"ニシミカワ","prefecture_code":1},"1142":{"zip_code":"0691142","prefecture":"北海道","prefecture_kana":"ホッカイドウ","city":"夕張郡由仁町","city_kana":"ユウバリグンユニチョウ","town":"東三川","town_kana":"ヒガシミカワ","prefecture_code":1},"1218":{"zip_code":"0691218","prefecture":"北海道","prefecture_kana":"ホッカイドウ","city":"夕張郡由仁町","city_kana":"ユウバリグンユニチョウ","town":"伏見","town_kana":"フシミ","prefecture_code":1},"1202":{"zip_code":"0691202","prefecture":"北海道","prefecture_kana":"ホッカイドウ","city":"夕張郡由仁町","city_kana":"ユウバリグンユニチョウ","town":"古川","town_kana":"フルカワ","prefecture_code":1},"1216":{"zip_code":"0691216","prefecture":"北海道","prefecture_kana":"ホッカイドウ","city":"夕張郡由仁町","city_kana":"ユウバリグンユニチョウ","town":"古山","town_kana":"フルサン","prefecture_code":1},"1201":{"zip_code":"0691201","prefecture":"北海道","prefecture_kana":"ホッカイドウ","city":"夕張郡由仁町","city_kana":"ユウバリグンユニチョウ","town":"北栄","town_kana":"ホクエイ","prefecture_code":1},"1206":{"zip_code":"0691206","prefecture":"北海道","prefecture_kana":"ホッカイドウ","city":"夕張郡由仁町","city_kana":"ユウバリグンユニチョウ","town":"本町","town_kana":"ホンマチ","prefecture_code":1},"1133":{"zip_code":"0691133","prefecture":"北海道","prefecture_kana":"ホッカイドウ","city":"夕張郡由仁町","city_kana":"ユウバリグンユニチョウ","town":"三川旭町","town_kana":"ミカワアサヒマチ","prefecture_code":1},"1131":{"zip_code":"0691131","prefecture":"北海道","prefecture_kana":"ホッカイドウ","city":"夕張郡由仁町","city_kana":"ユウバリグンユニチョウ","town":"三川泉町","town_kana":"ミカワイズミマチ","prefecture_code":1},"1132":{"zip_code":"0691132","prefecture":"北海道","prefecture_kana":"ホッカイドウ","city":"夕張郡由仁町","city_kana":"ユウバリグンユニチョウ","town":"三川錦町","town_kana":"ミカワニシキマチ","prefecture_code":1},"1134":{"zip_code":"0691134","prefecture":"北海道","prefecture_kana":"ホッカイドウ","city":"夕張郡由仁町","city_kana":"ユウバリグンユニチョウ","town":"三川緑町","town_kana":"ミカワミドリマチ","prefecture_code":1},"1213":{"zip_code":"0691213","prefecture":"北海道","prefecture_kana":"ホッカイドウ","city":"夕張郡由仁町","city_kana":"ユウバリグンユニチョウ","town":"本三川","town_kana":"モトミカワ","prefecture_code":1},"1144":{"zip_code":"0691144","prefecture":"北海道","prefecture_kana":"ホッカイドウ","city":"夕張郡由仁町","city_kana":"ユウバリグンユニチョウ","town":"本三川","town_kana":"モトミカワ","prefecture_code":1},"1208":{"zip_code":"0691208","prefecture":"北海道","prefecture_kana":"ホッカイドウ","city":"夕張郡由仁町","city_kana":"ユウバリグンユニチョウ","town":"山形","town_kana":"ヤマガタ","prefecture_code":1},"1212":{"zip_code":"0691212","prefecture":"北海道","prefecture_kana":"ホッカイドウ","city":"夕張郡由仁町","city_kana":"ユウバリグンユニチョウ","town":"山桝","town_kana":"ヤママス","prefecture_code":1},"1300":{"zip_code":"0691300","prefecture":"北海道","prefecture_kana":"ホッカイドウ","city":"夕張郡長沼町","city_kana":"ユウバリグンナガヌマチョウ","town":"","town_kana":"","prefecture_code":1},"1335":{"zip_code":"0691335","prefecture":"北海道","prefecture_kana":"ホッカイドウ","city":"夕張郡長沼町","city_kana":"ユウバリグンナガヌマチョウ","town":"あかね","town_kana":"アカネ","prefecture_code":1},"1344":{"zip_code":"0691344","prefecture":"北海道","prefecture_kana":"ホッカイドウ","city":"夕張郡長沼町","city_kana":"ユウバリグンナガヌマチョウ","town":"曙町","town_kana":"アケボノチョウ","prefecture_code":1},"1343":{"zip_code":"0691343","prefecture":"北海道","prefecture_kana":"ホッカイドウ","city":"夕張郡長沼町","city_kana":"ユウバリグンナガヌマチョウ","town":"旭町","town_kana":"アサヒマチ","prefecture_code":1},"1321":{"zip_code":"0691321","prefecture":"北海道","prefecture_kana":"ホッカイドウ","city":"夕張郡長沼町","city_kana":"ユウバリグンナガヌマチョウ","town":"馬追","town_kana":"ウマオイ","prefecture_code":1},"1322":{"zip_code":"0691322","prefecture":"北海道","prefecture_kana":"ホッカイドウ","city":"夕張郡長沼町","city_kana":"ユウバリグンナガヌマチョウ","town":"馬追原野","town_kana":"ウマオイゲンヤ","prefecture_code":1},"1316":[{"zip_code":"0691316","prefecture":"北海道","prefecture_kana":"ホッカイドウ","city":"夕張郡長沼町","city_kana":"ユウバリグンナガヌマチョウ","town":"加賀団体","town_kana":"カガダンタイ","prefecture_code":1},{"zip_code":"0691316","prefecture":"北海道","prefecture_kana":"ホッカイドウ","city":"夕張郡長沼町","city_kana":"ユウバリグンナガヌマチョウ","town":"１６区","town_kana":"16ク","prefecture_code":1}],"1336":[{"zip_code":"0691336","prefecture":"北海道","prefecture_kana":"ホッカイドウ","city":"夕張郡長沼町","city_kana":"ユウバリグンナガヌマチョウ","town":"川沿","town_kana":"カワゾイ","prefecture_code":1},{"zip_code":"0691336","prefecture":"北海道","prefecture_kana":"ホッカイドウ","city":"夕張郡長沼町","city_kana":"ユウバリグンナガヌマチョウ","town":"栄町","town_kana":"サカエマチ","prefecture_code":1}],"1304":[{"zip_code":"0691304","prefecture":"北海道","prefecture_kana":"ホッカイドウ","city":"夕張郡長沼町","city_kana":"ユウバリグンナガヌマチョウ","town":"北市区","town_kana":"キタイチク","prefecture_code":1},{"zip_code":"0691304","prefecture":"北海道","prefecture_kana":"ホッカイドウ","city":"夕張郡長沼町","city_kana":"ユウバリグンナガヌマチョウ","town":"４区","town_kana":"4ク","prefecture_code":1}],"1347":{"zip_code":"0691347","prefecture":"北海道","prefecture_kana":"ホッカイドウ","city":"夕張郡長沼町","city_kana":"ユウバリグンナガヌマチョウ","town":"北町","town_kana":"キタマチ","prefecture_code":1},"1329":[{"zip_code":"0691329","prefecture":"北海道","prefecture_kana":"ホッカイドウ","city":"夕張郡長沼町","city_kana":"ユウバリグンナガヌマチョウ","town":"木詰","town_kana":"キヅマリ","prefecture_code":1},{"zip_code":"0691329","prefecture":"北海道","prefecture_kana":"ホッカイドウ","city":"夕張郡長沼町","city_kana":"ユウバリグンナガヌマチョウ","town":"幌向原野","town_kana":"ホロムイゲンヤ","prefecture_code":1},{"zip_code":"0691329","prefecture":"北海道","prefecture_kana":"ホッカイドウ","city":"夕張郡長沼町","city_kana":"ユウバリグンナガヌマチョウ","town":"２９区","town_kana":"29ク","prefecture_code":1}],"1331":{"zip_code":"0691331","prefecture":"北海道","prefecture_kana":"ホッカイドウ","city":"夕張郡長沼町","city_kana":"ユウバリグンナガヌマチョウ","town":"銀座","town_kana":"ギンザ","prefecture_code":1},"1320":{"zip_code":"0691320","prefecture":"北海道","prefecture_kana":"ホッカイドウ","city":"夕張郡長沼町","city_kana":"ユウバリグンナガヌマチョウ","town":"市街地","town_kana":"シガイチ","prefecture_code":1},"1345":{"zip_code":"0691345","prefecture":"北海道","prefecture_kana":"ホッカイドウ","city":"夕張郡長沼町","city_kana":"ユウバリグンナガヌマチョウ","town":"しらかば","town_kana":"シラカバ","prefecture_code":1},"1332":{"zip_code":"0691332","prefecture":"北海道","prefecture_kana":"ホッカイドウ","city":"夕張郡長沼町","city_kana":"ユウバリグンナガヌマチョウ","town":"中央","town_kana":"チュウオウ","prefecture_code":1},"1334":[{"zip_code":"0691334","prefecture":"北海道","prefecture_kana":"ホッカイドウ","city":"夕張郡長沼町","city_kana":"ユウバリグンナガヌマチョウ","town":"錦町北","town_kana":"ニシキマチキタ","prefecture_code":1},{"zip_code":"0691334","prefecture":"北海道","prefecture_kana":"ホッカイドウ","city":"夕張郡長沼町","city_kana":"ユウバリグンナガヌマチョウ","town":"錦町南","town_kana":"ニシキマチミナミ","prefecture_code":1}],"1346":{"zip_code":"0691346","prefecture":"北海道","prefecture_kana":"ホッカイドウ","city":"夕張郡長沼町","city_kana":"ユウバリグンナガヌマチョウ","town":"西町","town_kana":"ニシマチ","prefecture_code":1},"1318":[{"zip_code":"0691318","prefecture":"北海道","prefecture_kana":"ホッカイドウ","city":"夕張郡長沼町","city_kana":"ユウバリグンナガヌマチョウ","town":"西１線北","town_kana":"ニシ1センキタ","prefecture_code":1},{"zip_code":"0691318","prefecture":"北海道","prefecture_kana":"ホッカイドウ","city":"夕張郡長沼町","city_kana":"ユウバリグンナガヌマチョウ","town":"西２線北","town_kana":"ニシ2センキタ","prefecture_code":1},{"zip_code":"0691318","prefecture":"北海道","prefecture_kana":"ホッカイドウ","city":"夕張郡長沼町","city_kana":"ユウバリグンナガヌマチョウ","town":"西３線北","town_kana":"ニシ3センキタ","prefecture_code":1},{"zip_code":"0691318","prefecture":"北海道","prefecture_kana":"ホッカイドウ","city":"夕張郡長沼町","city_kana":"ユウバリグンナガヌマチョウ","town":"西４線北","town_kana":"ニシ4センキタ","prefecture_code":1},{"zip_code":"0691318","prefecture":"北海道","prefecture_kana":"ホッカイドウ","city":"夕張郡長沼町","city_kana":"ユウバリグンナガヌマチョウ","town":"西５線北","town_kana":"ニシ5センキタ","prefecture_code":1},{"zip_code":"0691318","prefecture":"北海道","prefecture_kana":"ホッカイドウ","city":"夕張郡長沼町","city_kana":"ユウバリグンナガヌマチョウ","town":"西６線北","town_kana":"ニシ6センキタ","prefecture_code":1},{"zip_code":"0691318","prefecture":"北海道","prefecture_kana":"ホッカイドウ","city":"夕張郡長沼町","city_kana":"ユウバリグンナガヌマチョウ","town":"西７線北","town_kana":"ニシ7センキタ","prefecture_code":1},{"zip_code":"0691318","prefecture":"北海道","prefecture_kana":"ホッカイドウ","city":"夕張郡長沼町","city_kana":"ユウバリグンナガヌマチョウ","town":"西８線北","town_kana":"ニシ8センキタ","prefecture_code":1}],"1471":{"zip_code":"0691471","prefecture":"北海道","prefecture_kana":"ホッカイドウ","city":"夕張郡長沼町","city_kana":"ユウバリグンナガヌマチョウ","town":"西１線南","town_kana":"ニシ1センミナミ","prefecture_code":1},"1472":{"zip_code":"0691472","prefecture":"北海道","prefecture_kana":"ホッカイドウ","city":"夕張郡長沼町","city_kana":"ユウバリグンナガヌマチョウ","town":"西２線南","town_kana":"ニシ2センミナミ","prefecture_code":1},"1473":{"zip_code":"0691473","prefecture":"北海道","prefecture_kana":"ホッカイドウ","city":"夕張郡長沼町","city_kana":"ユウバリグンナガヌマチョウ","town":"西３線南","town_kana":"ニシ3センミナミ","prefecture_code":1},"1474":{"zip_code":"0691474","prefecture":"北海道","prefecture_kana":"ホッカイドウ","city":"夕張郡長沼町","city_kana":"ユウバリグンナガヌマチョウ","town":"西４線南","town_kana":"ニシ4センミナミ","prefecture_code":1},"1475":{"zip_code":"0691475","prefecture":"北海道","prefecture_kana":"ホッカイドウ","city":"夕張郡長沼町","city_kana":"ユウバリグンナガヌマチョウ","town":"西５線南","town_kana":"ニシ5センミナミ","prefecture_code":1},"1476":{"zip_code":"0691476","prefecture":"北海道","prefecture_kana":"ホッカイドウ","city":"夕張郡長沼町","city_kana":"ユウバリグンナガヌマチョウ","town":"西６線南","town_kana":"ニシ6センミナミ","prefecture_code":1},"1477":{"zip_code":"0691477","prefecture":"北海道","prefecture_kana":"ホッカイドウ","city":"夕張郡長沼町","city_kana":"ユウバリグンナガヌマチョウ","town":"西７線南","town_kana":"ニシ7センミナミ","prefecture_code":1},"1478":{"zip_code":"0691478","prefecture":"北海道","prefecture_kana":"ホッカイドウ","city":"夕張郡長沼町","city_kana":"ユウバリグンナガヌマチョウ","town":"西８線南","town_kana":"ニシ8センミナミ","prefecture_code":1},"1479":{"zip_code":"0691479","prefecture":"北海道","prefecture_kana":"ホッカイドウ","city":"夕張郡長沼町","city_kana":"ユウバリグンナガヌマチョウ","town":"西９線南","town_kana":"ニシ9センミナミ","prefecture_code":1},"1480":{"zip_code":"0691480","prefecture":"北海道","prefecture_kana":"ホッカイドウ","city":"夕張郡長沼町","city_kana":"ユウバリグンナガヌマチョウ","town":"西１０線南","town_kana":"ニシ10センミナミ","prefecture_code":1},"1481":{"zip_code":"0691481","prefecture":"北海道","prefecture_kana":"ホッカイドウ","city":"夕張郡長沼町","city_kana":"ユウバリグンナガヌマチョウ","town":"西１１線南","town_kana":"ニシ11センミナミ","prefecture_code":1},"1482":{"zip_code":"0691482","prefecture":"北海道","prefecture_kana":"ホッカイドウ","city":"夕張郡長沼町","city_kana":"ユウバリグンナガヌマチョウ","town":"西１２線南","town_kana":"ニシ12センミナミ","prefecture_code":1},"1483":{"zip_code":"0691483","prefecture":"北海道","prefecture_kana":"ホッカイドウ","city":"夕張郡長沼町","city_kana":"ユウバリグンナガヌマチョウ","town":"西１３線南","town_kana":"ニシ13センミナミ","prefecture_code":1},"1484":{"zip_code":"0691484","prefecture":"北海道","prefecture_kana":"ホッカイドウ","city":"夕張郡長沼町","city_kana":"ユウバリグンナガヌマチョウ","town":"西１４線南","town_kana":"ニシ14センミナミ","prefecture_code":1},"1342":{"zip_code":"0691342","prefecture":"北海道","prefecture_kana":"ホッカイドウ","city":"夕張郡長沼町","city_kana":"ユウバリグンナガヌマチョウ","town":"東町","town_kana":"ヒガシマチ","prefecture_code":1},"1317":[{"zip_code":"0691317","prefecture":"北海道","prefecture_kana":"ホッカイドウ","city":"夕張郡長沼町","city_kana":"ユウバリグンナガヌマチョウ","town":"東１線北","town_kana":"ヒガシ1センキタ","prefecture_code":1},{"zip_code":"0691317","prefecture":"北海道","prefecture_kana":"ホッカイドウ","city":"夕張郡長沼町","city_kana":"ユウバリグンナガヌマチョウ","town":"東２線北","town_kana":"ヒガシ2センキタ","prefecture_code":1},{"zip_code":"0691317","prefecture":"北海道","prefecture_kana":"ホッカイドウ","city":"夕張郡長沼町","city_kana":"ユウバリグンナガヌマチョウ","town":"東３線北","town_kana":"ヒガシ3センキタ","prefecture_code":1},{"zip_code":"0691317","prefecture":"北海道","prefecture_kana":"ホッカイドウ","city":"夕張郡長沼町","city_kana":"ユウバリグンナガヌマチョウ","town":"東４線北","town_kana":"ヒガシ4センキタ","prefecture_code":1},{"zip_code":"0691317","prefecture":"北海道","prefecture_kana":"ホッカイドウ","city":"夕張郡長沼町","city_kana":"ユウバリグンナガヌマチョウ","town":"東５線北","town_kana":"ヒガシ5センキタ","prefecture_code":1},{"zip_code":"0691317","prefecture":"北海道","prefecture_kana":"ホッカイドウ","city":"夕張郡長沼町","city_kana":"ユウバリグンナガヌマチョウ","town":"東６線北","town_kana":"ヒガシ6センキタ","prefecture_code":1},{"zip_code":"0691317","prefecture":"北海道","prefecture_kana":"ホッカイドウ","city":"夕張郡長沼町","city_kana":"ユウバリグンナガヌマチョウ","town":"東７線北","town_kana":"ヒガシ7センキタ","prefecture_code":1},{"zip_code":"0691317","prefecture":"北海道","prefecture_kana":"ホッカイドウ","city":"夕張郡長沼町","city_kana":"ユウバリグンナガヌマチョウ","town":"東８線北","town_kana":"ヒガシ8センキタ","prefecture_code":1},{"zip_code":"0691317","prefecture":"北海道","prefecture_kana":"ホッカイドウ","city":"夕張郡長沼町","city_kana":"ユウバリグンナガヌマチョウ","town":"東９線北","town_kana":"ヒガシ9センキタ","prefecture_code":1},{"zip_code":"0691317","prefecture":"北海道","prefecture_kana":"ホッカイドウ","city":"夕張郡長沼町","city_kana":"ユウバリグンナガヌマチョウ","town":"東１０線北","town_kana":"ヒガシ10センキタ","prefecture_code":1},{"zip_code":"0691317","prefecture":"北海道","prefecture_kana":"ホッカイドウ","city":"夕張郡長沼町","city_kana":"ユウバリグンナガヌマチョウ","town":"東１１線北","town_kana":"ヒガシ11センキタ","prefecture_code":1}],"1451":{"zip_code":"0691451","prefecture":"北海道","prefecture_kana":"ホッカイドウ","city":"夕張郡長沼町","city_kana":"ユウバリグンナガヌマチョウ","town":"東１線南","town_kana":"ヒガシ1センミナミ","prefecture_code":1},"1452":{"zip_code":"0691452","prefecture":"北海道","prefecture_kana":"ホッカイドウ","city":"夕張郡長沼町","city_kana":"ユウバリグンナガヌマチョウ","town":"東２線南","town_kana":"ヒガシ2センミナミ","prefecture_code":1},"1453":{"zip_code":"0691453","prefecture":"北海道","prefecture_kana":"ホッカイドウ","city":"夕張郡長沼町","city_kana":"ユウバリグンナガヌマチョウ","town":"東３線南","town_kana":"ヒガシ3センミナミ","prefecture_code":1},"1454":{"zip_code":"0691454","prefecture":"北海道","prefecture_kana":"ホッカイドウ","city":"夕張郡長沼町","city_kana":"ユウバリグンナガヌマチョウ","town":"東４線南","town_kana":"ヒガシ4センミナミ","prefecture_code":1},"1455":{"zip_code":"0691455","prefecture":"北海道","prefecture_kana":"ホッカイドウ","city":"夕張郡長沼町","city_kana":"ユウバリグンナガヌマチョウ","town":"東５線南","town_kana":"ヒガシ5センミナミ","prefecture_code":1},"1456":{"zip_code":"0691456","prefecture":"北海道","prefecture_kana":"ホッカイドウ","city":"夕張郡長沼町","city_kana":"ユウバリグンナガヌマチョウ","town":"東６線南","town_kana":"ヒガシ6センミナミ","prefecture_code":1},"1457":{"zip_code":"0691457","prefecture":"北海道","prefecture_kana":"ホッカイドウ","city":"夕張郡長沼町","city_kana":"ユウバリグンナガヌマチョウ","town":"東７線南","town_kana":"ヒガシ7センミナミ","prefecture_code":1},"1458":{"zip_code":"0691458","prefecture":"北海道","prefecture_kana":"ホッカイドウ","city":"夕張郡長沼町","city_kana":"ユウバリグンナガヌマチョウ","town":"東８線南","town_kana":"ヒガシ8センミナミ","prefecture_code":1},"1459":{"zip_code":"0691459","prefecture":"北海道","prefecture_kana":"ホッカイドウ","city":"夕張郡長沼町","city_kana":"ユウバリグンナガヌマチョウ","town":"東９線南","town_kana":"ヒガシ9センミナミ","prefecture_code":1},"1460":{"zip_code":"0691460","prefecture":"北海道","prefecture_kana":"ホッカイドウ","city":"夕張郡長沼町","city_kana":"ユウバリグンナガヌマチョウ","town":"東１０線南","town_kana":"ヒガシ10センミナミ","prefecture_code":1},"1461":{"zip_code":"0691461","prefecture":"北海道","prefecture_kana":"ホッカイドウ","city":"夕張郡長沼町","city_kana":"ユウバリグンナガヌマチョウ","town":"東１１線南","town_kana":"ヒガシ11センミナミ","prefecture_code":1},"1462":{"zip_code":"0691462","prefecture":"北海道","prefecture_kana":"ホッカイドウ","city":"夕張郡長沼町","city_kana":"ユウバリグンナガヌマチョウ","town":"東１２線南","town_kana":"ヒガシ12センミナミ","prefecture_code":1},"1463":{"zip_code":"0691463","prefecture":"北海道","prefecture_kana":"ホッカイドウ","city":"夕張郡長沼町","city_kana":"ユウバリグンナガヌマチョウ","town":"東１３線南","town_kana":"ヒガシ13センミナミ","prefecture_code":1},"1311":[{"zip_code":"0691311","prefecture":"北海道","prefecture_kana":"ホッカイドウ","city":"夕張郡長沼町","city_kana":"ユウバリグンナガヌマチョウ","town":"フシコ","town_kana":"フシコ","prefecture_code":1},{"zip_code":"0691311","prefecture":"北海道","prefecture_kana":"ホッカイドウ","city":"夕張郡長沼町","city_kana":"ユウバリグンナガヌマチョウ","town":"１１区","town_kana":"11ク","prefecture_code":1}],"1464":{"zip_code":"0691464","prefecture":"北海道","prefecture_kana":"ホッカイドウ","city":"夕張郡長沼町","city_kana":"ユウバリグンナガヌマチョウ","town":"幌内","town_kana":"ホロナイ","prefecture_code":1},"1333":{"zip_code":"0691333","prefecture":"北海道","prefecture_kana":"ホッカイドウ","city":"夕張郡長沼町","city_kana":"ユウバリグンナガヌマチョウ","town":"本町","town_kana":"ホンチョウ","prefecture_code":1},"1315":[{"zip_code":"0691315","prefecture":"北海道","prefecture_kana":"ホッカイドウ","city":"夕張郡長沼町","city_kana":"ユウバリグンナガヌマチョウ","town":"南町","town_kana":"ミナミマチ","prefecture_code":1},{"zip_code":"0691315","prefecture":"北海道","prefecture_kana":"ホッカイドウ","city":"夕張郡長沼町","city_kana":"ユウバリグンナガヌマチョウ","town":"１５区","town_kana":"15ク","prefecture_code":1}],"1341":{"zip_code":"0691341","prefecture":"北海道","prefecture_kana":"ホッカイドウ","city":"夕張郡長沼町","city_kana":"ユウバリグンナガヌマチョウ","town":"宮下","town_kana":"ミヤシタ","prefecture_code":1},"1301":{"zip_code":"0691301","prefecture":"北海道","prefecture_kana":"ホッカイドウ","city":"夕張郡長沼町","city_kana":"ユウバリグンナガヌマチョウ","town":"１区","town_kana":"1ク","prefecture_code":1},"1302":{"zip_code":"0691302","prefecture":"北海道","prefecture_kana":"ホッカイドウ","city":"夕張郡長沼町","city_kana":"ユウバリグンナガヌマチョウ","town":"２区","town_kana":"2ク","prefecture_code":1},"1303":{"zip_code":"0691303","prefecture":"北海道","prefecture_kana":"ホッカイドウ","city":"夕張郡長沼町","city_kana":"ユウバリグンナガヌマチョウ","town":"３区","town_kana":"3ク","prefecture_code":1},"1305":{"zip_code":"0691305","prefecture":"北海道","prefecture_kana":"ホッカイドウ","city":"夕張郡長沼町","city_kana":"ユウバリグンナガヌマチョウ","town":"５区","town_kana":"5ク","prefecture_code":1},"1306":{"zip_code":"0691306","prefecture":"北海道","prefecture_kana":"ホッカイドウ","city":"夕張郡長沼町","city_kana":"ユウバリグンナガヌマチョウ","town":"６区","town_kana":"6ク","prefecture_code":1},"1307":{"zip_code":"0691307","prefecture":"北海道","prefecture_kana":"ホッカイドウ","city":"夕張郡長沼町","city_kana":"ユウバリグンナガヌマチョウ","town":"７区","town_kana":"7ク","prefecture_code":1},"1308":{"zip_code":"0691308","prefecture":"北海道","prefecture_kana":"ホッカイドウ","city":"夕張郡長沼町","city_kana":"ユウバリグンナガヌマチョウ","town":"８区","town_kana":"8ク","prefecture_code":1},"1309":{"zip_code":"0691309","prefecture":"北海道","prefecture_kana":"ホッカイドウ","city":"夕張郡長沼町","city_kana":"ユウバリグンナガヌマチョウ","town":"９区","town_kana":"9ク","prefecture_code":1},"1310":{"zip_code":"0691310","prefecture":"北海道","prefecture_kana":"ホッカイドウ","city":"夕張郡長沼町","city_kana":"ユウバリグンナガヌマチョウ","town":"１０区","town_kana":"10ク","prefecture_code":1},"1312":{"zip_code":"0691312","prefecture":"北海道","prefecture_kana":"ホッカイドウ","city":"夕張郡長沼町","city_kana":"ユウバリグンナガヌマチョウ","town":"１２区","town_kana":"12ク","prefecture_code":1},"1313":{"zip_code":"0691313","prefecture":"北海道","prefecture_kana":"ホッカイドウ","city":"夕張郡長沼町","city_kana":"ユウバリグンナガヌマチョウ","town":"１３区","town_kana":"13ク","prefecture_code":1},"1314":{"zip_code":"0691314","prefecture":"北海道","prefecture_kana":"ホッカイドウ","city":"夕張郡長沼町","city_kana":"ユウバリグンナガヌマチョウ","town":"１４区","town_kana":"14ク","prefecture_code":1},"1485":{"zip_code":"0691485","prefecture":"北海道","prefecture_kana":"ホッカイドウ","city":"夕張郡長沼町","city_kana":"ユウバリグンナガヌマチョウ","town":"３０区","town_kana":"30ク","prefecture_code":1},"1500":{"zip_code":"0691500","prefecture":"北海道","prefecture_kana":"ホッカイドウ","city":"夕張郡栗山町","city_kana":"ユウバリグンクリヤマチョウ","town":"","town_kana":"","prefecture_code":1},"1513":{"zip_code":"0691513","prefecture":"北海道","prefecture_kana":"ホッカイドウ","city":"夕張郡栗山町","city_kana":"ユウバリグンクリヤマチョウ","town":"朝日","town_kana":"アサヒ","prefecture_code":1},"1507":{"zip_code":"0691507","prefecture":"北海道","prefecture_kana":"ホッカイドウ","city":"夕張郡栗山町","city_kana":"ユウバリグンクリヤマチョウ","town":"旭台","town_kana":"アサヒダイ","prefecture_code":1},"1503":[{"zip_code":"0691503","prefecture":"北海道","prefecture_kana":"ホッカイドウ","city":"夕張郡栗山町","city_kana":"ユウバリグンクリヤマチョウ","town":"雨煙別","town_kana":"ウエンベツ","prefecture_code":1},{"zip_code":"0691503","prefecture":"北海道","prefecture_kana":"ホッカイドウ","city":"夕張郡栗山町","city_kana":"ユウバリグンクリヤマチョウ","town":"緑丘","town_kana":"ミドリオカ","prefecture_code":1}],"1524":{"zip_code":"0691524","prefecture":"北海道","prefecture_kana":"ホッカイドウ","city":"夕張郡栗山町","city_kana":"ユウバリグンクリヤマチョウ","town":"角田","town_kana":"カクタ","prefecture_code":1},"1504":{"zip_code":"0691504","prefecture":"北海道","prefecture_kana":"ホッカイドウ","city":"夕張郡栗山町","city_kana":"ユウバリグンクリヤマチョウ","town":"北学田","town_kana":"キタガクデン","prefecture_code":1},"1506":{"zip_code":"0691506","prefecture":"北海道","prefecture_kana":"ホッカイドウ","city":"夕張郡栗山町","city_kana":"ユウバリグンクリヤマチョウ","town":"杵臼","town_kana":"キナウス","prefecture_code":1},"1523":{"zip_code":"0691523","prefecture":"北海道","prefecture_kana":"ホッカイドウ","city":"夕張郡栗山町","city_kana":"ユウバリグンクリヤマチョウ","town":"共和","town_kana":"キョウワ","prefecture_code":1},"1501":{"zip_code":"0691501","prefecture":"北海道","prefecture_kana":"ホッカイドウ","city":"夕張郡栗山町","city_kana":"ユウバリグンクリヤマチョウ","town":"桜丘","town_kana":"サクラオカ","prefecture_code":1},"1505":[{"zip_code":"0691505","prefecture":"北海道","prefecture_kana":"ホッカイドウ","city":"夕張郡栗山町","city_kana":"ユウバリグンクリヤマチョウ","town":"桜山","town_kana":"サクラヤマ","prefecture_code":1},{"zip_code":"0691505","prefecture":"北海道","prefecture_kana":"ホッカイドウ","city":"夕張郡栗山町","city_kana":"ユウバリグンクリヤマチョウ","town":"本沢","town_kana":"ホンサワ","prefecture_code":1}],"1511":{"zip_code":"0691511","prefecture":"北海道","prefecture_kana":"ホッカイドウ","city":"夕張郡栗山町","city_kana":"ユウバリグンクリヤマチョウ","town":"中央","town_kana":"チュウオウ","prefecture_code":1},"1522":{"zip_code":"0691522","prefecture":"北海道","prefecture_kana":"ホッカイドウ","city":"夕張郡栗山町","city_kana":"ユウバリグンクリヤマチョウ","town":"中里","town_kana":"ナカサト","prefecture_code":1},"1521":{"zip_code":"0691521","prefecture":"北海道","prefecture_kana":"ホッカイドウ","city":"夕張郡栗山町","city_kana":"ユウバリグンクリヤマチョウ","town":"錦","town_kana":"ニシキ","prefecture_code":1},"1502":[{"zip_code":"0691502","prefecture":"北海道","prefecture_kana":"ホッカイドウ","city":"夕張郡栗山町","city_kana":"ユウバリグンクリヤマチョウ","town":"鳩山","town_kana":"ハトヤマ","prefecture_code":1},{"zip_code":"0691502","prefecture":"北海道","prefecture_kana":"ホッカイドウ","city":"夕張郡栗山町","city_kana":"ユウバリグンクリヤマチョウ","town":"森","town_kana":"モリ","prefecture_code":1}],"1526":{"zip_code":"0691526","prefecture":"北海道","prefecture_kana":"ホッカイドウ","city":"夕張郡栗山町","city_kana":"ユウバリグンクリヤマチョウ","town":"富士","town_kana":"フジ","prefecture_code":1},"1512":{"zip_code":"0691512","prefecture":"北海道","prefecture_kana":"ホッカイドウ","city":"夕張郡栗山町","city_kana":"ユウバリグンクリヤマチョウ","town":"松風","town_kana":"マツカゼ","prefecture_code":1},"1525":{"zip_code":"0691525","prefecture":"北海道","prefecture_kana":"ホッカイドウ","city":"夕張郡栗山町","city_kana":"ユウバリグンクリヤマチョウ","town":"三日月","town_kana":"ミカヅキ","prefecture_code":1},"1508":{"zip_code":"0691508","prefecture":"北海道","prefecture_kana":"ホッカイドウ","city":"夕張郡栗山町","city_kana":"ユウバリグンクリヤマチョウ","town":"湯地","town_kana":"ユチ","prefecture_code":1}}