{"0000":{"zip_code":"0700000","prefecture":"北海道","prefecture_kana":"ホッカイドウ","city":"旭川市","city_kana":"アサヒカワシ","town":"以下に掲載がない場合","town_kana":"イカニケイサイガナイバアイ","prefecture_code":1},"0072":{"zip_code":"0700072","prefecture":"北海道","prefecture_kana":"ホッカイドウ","city":"旭川市","city_kana":"アサヒカワシ","town":"曙北２条","town_kana":"アケボノキタ2ジョウ","prefecture_code":1},"0073":{"zip_code":"0700073","prefecture":"北海道","prefecture_kana":"ホッカイドウ","city":"旭川市","city_kana":"アサヒカワシ","town":"曙北３条","town_kana":"アケボノキタ3ジョウ","prefecture_code":1},"0061":{"zip_code":"0700061","prefecture":"北海道","prefecture_kana":"ホッカイドウ","city":"旭川市","city_kana":"アサヒカワシ","town":"曙１条","town_kana":"アケボノ1ジョウ","prefecture_code":1},"0062":{"zip_code":"0700062","prefecture":"北海道","prefecture_kana":"ホッカイドウ","city":"旭川市","city_kana":"アサヒカワシ","town":"曙２条","town_kana":"アケボノ2ジョウ","prefecture_code":1},"0063":{"zip_code":"0700063","prefecture":"北海道","prefecture_kana":"ホッカイドウ","city":"旭川市","city_kana":"アサヒカワシ","town":"曙３条","town_kana":"アケボノ3ジョウ","prefecture_code":1},"0822":{"zip_code":"0700822","prefecture":"北海道","prefecture_kana":"ホッカイドウ","city":"旭川市","city_kana":"アサヒカワシ","town":"旭岡","town_kana":"アサヒガオカ","prefecture_code":1},"0831":{"zip_code":"0700831","prefecture":"北海道","prefecture_kana":"ホッカイドウ","city":"旭川市","city_kana":"アサヒカワシ","town":"旭町１条","town_kana":"アサヒマチ1ジョウ","prefecture_code":1},"0832":{"zip_code":"0700832","prefecture":"北海道","prefecture_kana":"ホッカイドウ","city":"旭川市","city_kana":"アサヒカワシ","town":"旭町２条","town_kana":"アサヒマチ2ジョウ","prefecture_code":1},"8051":{"zip_code":"0708051","prefecture":"北海道","prefecture_kana":"ホッカイドウ","city":"旭川市","city_kana":"アサヒカワシ","town":"江丹別町嵐山","town_kana":"エタンベツチョウアラシヤマ","prefecture_code":1},"8052":{"zip_code":"0708052","prefecture":"北海道","prefecture_kana":"ホッカイドウ","city":"旭川市","city_kana":"アサヒカワシ","town":"江丹別町春日","town_kana":"エタンベツチョウカスガ","prefecture_code":1},"8053":{"zip_code":"0708053","prefecture":"北海道","prefecture_kana":"ホッカイドウ","city":"旭川市","city_kana":"アサヒカワシ","town":"江丹別町共和","town_kana":"エタンベツチョウキョウワ","prefecture_code":1},"0841":{"zip_code":"0700841","prefecture":"北海道","prefecture_kana":"ホッカイドウ","city":"旭川市","city_kana":"アサヒカワシ","town":"大町１条","town_kana":"オオマチ1ジョウ","prefecture_code":1},"0842":{"zip_code":"0700842","prefecture":"北海道","prefecture_kana":"ホッカイドウ","city":"旭川市","city_kana":"アサヒカワシ","town":"大町２条","town_kana":"オオマチ2ジョウ","prefecture_code":1},"0843":{"zip_code":"0700843","prefecture":"北海道","prefecture_kana":"ホッカイドウ","city":"旭川市","city_kana":"アサヒカワシ","town":"大町３条","town_kana":"オオマチ3ジョウ","prefecture_code":1},"8001":{"zip_code":"0708001","prefecture":"北海道","prefecture_kana":"ホッカイドウ","city":"旭川市","city_kana":"アサヒカワシ","town":"神楽１条","town_kana":"カグラ1ジョウ","prefecture_code":1},"8002":{"zip_code":"0708002","prefecture":"北海道","prefecture_kana":"ホッカイドウ","city":"旭川市","city_kana":"アサヒカワシ","town":"神楽２条","town_kana":"カグラ2ジョウ","prefecture_code":1},"8003":{"zip_code":"0708003","prefecture":"北海道","prefecture_kana":"ホッカイドウ","city":"旭川市","city_kana":"アサヒカワシ","town":"神楽３条","town_kana":"カグラ3ジョウ","prefecture_code":1},"8004":{"zip_code":"0708004","prefecture":"北海道","prefecture_kana":"ホッカイドウ","city":"旭川市","city_kana":"アサヒカワシ","town":"神楽４条","town_kana":"カグラ4ジョウ","prefecture_code":1},"8005":{"zip_code":"0708005","prefecture":"北海道","prefecture_kana":"ホッカイドウ","city":"旭川市","city_kana":"アサヒカワシ","town":"神楽５条","town_kana":"カグラ5ジョウ","prefecture_code":1},"8006":{"zip_code":"0708006","prefecture":"北海道","prefecture_kana":"ホッカイドウ","city":"旭川市","city_kana":"アサヒカワシ","town":"神楽６条","town_kana":"カグラ6ジョウ","prefecture_code":1},"8007":{"zip_code":"0708007","prefecture":"北海道","prefecture_kana":"ホッカイドウ","city":"旭川市","city_kana":"アサヒカワシ","town":"神楽７条","town_kana":"カグラ7ジョウ","prefecture_code":1},"0041":{"zip_code":"0700041","prefecture":"北海道","prefecture_kana":"ホッカイドウ","city":"旭川市","city_kana":"アサヒカワシ","town":"上常盤町","town_kana":"カミトキワチョウ","prefecture_code":1},"8011":{"zip_code":"0708011","prefecture":"北海道","prefecture_kana":"ホッカイドウ","city":"旭川市","city_kana":"アサヒカワシ","town":"神居１条","town_kana":"カムイ1ジョウ","prefecture_code":1},"8012":{"zip_code":"0708012","prefecture":"北海道","prefecture_kana":"ホッカイドウ","city":"旭川市","city_kana":"アサヒカワシ","town":"神居２条","town_kana":"カムイ2ジョウ","prefecture_code":1},"8013":{"zip_code":"0708013","prefecture":"北海道","prefecture_kana":"ホッカイドウ","city":"旭川市","city_kana":"アサヒカワシ","town":"神居３条","town_kana":"カムイ3ジョウ","prefecture_code":1},"8014":{"zip_code":"0708014","prefecture":"北海道","prefecture_kana":"ホッカイドウ","city":"旭川市","city_kana":"アサヒカワシ","town":"神居４条","town_kana":"カムイ4ジョウ","prefecture_code":1},"8015":{"zip_code":"0708015","prefecture":"北海道","prefecture_kana":"ホッカイドウ","city":"旭川市","city_kana":"アサヒカワシ","town":"神居５条","town_kana":"カムイ5ジョウ","prefecture_code":1},"8016":{"zip_code":"0708016","prefecture":"北海道","prefecture_kana":"ホッカイドウ","city":"旭川市","city_kana":"アサヒカワシ","town":"神居６条","town_kana":"カムイ6ジョウ","prefecture_code":1},"8017":{"zip_code":"0708017","prefecture":"北海道","prefecture_kana":"ホッカイドウ","city":"旭川市","city_kana":"アサヒカワシ","town":"神居７条","town_kana":"カムイ7ジョウ","prefecture_code":1},"8018":{"zip_code":"0708018","prefecture":"北海道","prefecture_kana":"ホッカイドウ","city":"旭川市","city_kana":"アサヒカワシ","town":"神居８条","town_kana":"カムイ8ジョウ","prefecture_code":1},"8019":{"zip_code":"0708019","prefecture":"北海道","prefecture_kana":"ホッカイドウ","city":"旭川市","city_kana":"アサヒカワシ","town":"神居９条","town_kana":"カムイ9ジョウ","prefecture_code":1},"8033":{"zip_code":"0708033","prefecture":"北海道","prefecture_kana":"ホッカイドウ","city":"旭川市","city_kana":"アサヒカワシ","town":"神居町雨紛","town_kana":"カムイチョウウブン","prefecture_code":1},"8034":{"zip_code":"0708034","prefecture":"北海道","prefecture_kana":"ホッカイドウ","city":"旭川市","city_kana":"アサヒカワシ","town":"神居町上雨紛","town_kana":"カムイチョウカミウブン","prefecture_code":1},"8026":{"zip_code":"0708026","prefecture":"北海道","prefecture_kana":"ホッカイドウ","city":"旭川市","city_kana":"アサヒカワシ","town":"神居町神岡","town_kana":"カムイチョウカミオカ","prefecture_code":1},"8032":{"zip_code":"0708032","prefecture":"北海道","prefecture_kana":"ホッカイドウ","city":"旭川市","city_kana":"アサヒカワシ","town":"神居町共栄","town_kana":"カムイチョウキョウエイ","prefecture_code":1},"8031":{"zip_code":"0708031","prefecture":"北海道","prefecture_kana":"ホッカイドウ","city":"旭川市","city_kana":"アサヒカワシ","town":"神居町神華","town_kana":"カムイチョウシンカ","prefecture_code":1},"8022":{"zip_code":"0708022","prefecture":"北海道","prefecture_kana":"ホッカイドウ","city":"旭川市","city_kana":"アサヒカワシ","town":"神居町台場","town_kana":"カムイチョウダイバ","prefecture_code":1},"8021":{"zip_code":"0708021","prefecture":"北海道","prefecture_kana":"ホッカイドウ","city":"旭川市","city_kana":"アサヒカワシ","town":"神居町忠和","town_kana":"カムイチョウチュウワ","prefecture_code":1},"8025":{"zip_code":"0708025","prefecture":"北海道","prefecture_kana":"ホッカイドウ","city":"旭川市","city_kana":"アサヒカワシ","town":"神居町富岡","town_kana":"カムイチョウトミオカ","prefecture_code":1},"8024":{"zip_code":"0708024","prefecture":"北海道","prefecture_kana":"ホッカイドウ","city":"旭川市","city_kana":"アサヒカワシ","town":"神居町富沢","town_kana":"カムイチョウトミサワ","prefecture_code":1},"8023":{"zip_code":"0708023","prefecture":"北海道","prefecture_kana":"ホッカイドウ","city":"旭川市","city_kana":"アサヒカワシ","town":"神居町春志内","town_kana":"カムイチョウハルシナイ","prefecture_code":1},"0081":{"zip_code":"0700081","prefecture":"北海道","prefecture_kana":"ホッカイドウ","city":"旭川市","city_kana":"アサヒカワシ","town":"亀吉１条","town_kana":"カメキチ1ジョウ","prefecture_code":1},"0082":{"zip_code":"0700082","prefecture":"北海道","prefecture_kana":"ホッカイドウ","city":"旭川市","city_kana":"アサヒカワシ","town":"亀吉２条","town_kana":"カメキチ2ジョウ","prefecture_code":1},"0083":{"zip_code":"0700083","prefecture":"北海道","prefecture_kana":"ホッカイドウ","city":"旭川市","city_kana":"アサヒカワシ","town":"亀吉３条","town_kana":"カメキチ3ジョウ","prefecture_code":1},"0811":{"zip_code":"0700811","prefecture":"北海道","prefecture_kana":"ホッカイドウ","city":"旭川市","city_kana":"アサヒカワシ","town":"川端町１条","town_kana":"カワバタチョウ1ジョウ","prefecture_code":1},"0812":{"zip_code":"0700812","prefecture":"北海道","prefecture_kana":"ホッカイドウ","city":"旭川市","city_kana":"アサヒカワシ","town":"川端町２条","town_kana":"カワバタチョウ2ジョウ","prefecture_code":1},"0813":{"zip_code":"0700813","prefecture":"北海道","prefecture_kana":"ホッカイドウ","city":"旭川市","city_kana":"アサヒカワシ","town":"川端町３条","town_kana":"カワバタチョウ3ジョウ","prefecture_code":1},"0814":{"zip_code":"0700814","prefecture":"北海道","prefecture_kana":"ホッカイドウ","city":"旭川市","city_kana":"アサヒカワシ","town":"川端町４条","town_kana":"カワバタチョウ4ジョウ","prefecture_code":1},"0815":{"zip_code":"0700815","prefecture":"北海道","prefecture_kana":"ホッカイドウ","city":"旭川市","city_kana":"アサヒカワシ","town":"川端町５条","town_kana":"カワバタチョウ5ジョウ","prefecture_code":1},"0816":{"zip_code":"0700816","prefecture":"北海道","prefecture_kana":"ホッカイドウ","city":"旭川市","city_kana":"アサヒカワシ","town":"川端町６条","town_kana":"カワバタチョウ6ジョウ","prefecture_code":1},"0817":{"zip_code":"0700817","prefecture":"北海道","prefecture_kana":"ホッカイドウ","city":"旭川市","city_kana":"アサヒカワシ","town":"川端町７条","town_kana":"カワバタチョウ7ジョウ","prefecture_code":1},"0029":{"zip_code":"0700029","prefecture":"北海道","prefecture_kana":"ホッカイドウ","city":"旭川市","city_kana":"アサヒカワシ","town":"金星町","town_kana":"キンセイチョウ","prefecture_code":1},"0871":{"zip_code":"0700871","prefecture":"北海道","prefecture_kana":"ホッカイドウ","city":"旭川市","city_kana":"アサヒカワシ","town":"春光１条","town_kana":"シュンコウ1ジョウ","prefecture_code":1},"0872":{"zip_code":"0700872","prefecture":"北海道","prefecture_kana":"ホッカイドウ","city":"旭川市","city_kana":"アサヒカワシ","town":"春光２条","town_kana":"シュンコウ2ジョウ","prefecture_code":1},"0873":{"zip_code":"0700873","prefecture":"北海道","prefecture_kana":"ホッカイドウ","city":"旭川市","city_kana":"アサヒカワシ","town":"春光３条","town_kana":"シュンコウ3ジョウ","prefecture_code":1},"0874":{"zip_code":"0700874","prefecture":"北海道","prefecture_kana":"ホッカイドウ","city":"旭川市","city_kana":"アサヒカワシ","town":"春光４条","town_kana":"シュンコウ4ジョウ","prefecture_code":1},"0875":{"zip_code":"0700875","prefecture":"北海道","prefecture_kana":"ホッカイドウ","city":"旭川市","city_kana":"アサヒカワシ","town":"春光５条","town_kana":"シュンコウ5ジョウ","prefecture_code":1},"0876":{"zip_code":"0700876","prefecture":"北海道","prefecture_kana":"ホッカイドウ","city":"旭川市","city_kana":"アサヒカワシ","town":"春光６条","town_kana":"シュンコウ6ジョウ","prefecture_code":1},"0877":{"zip_code":"0700877","prefecture":"北海道","prefecture_kana":"ホッカイドウ","city":"旭川市","city_kana":"アサヒカワシ","town":"春光７条","town_kana":"シュンコウ7ジョウ","prefecture_code":1},"0902":{"zip_code":"0700902","prefecture":"北海道","prefecture_kana":"ホッカイドウ","city":"旭川市","city_kana":"アサヒカワシ","town":"春光町","town_kana":"シュンコウチョウ","prefecture_code":1},"0014":{"zip_code":"0700014","prefecture":"北海道","prefecture_kana":"ホッカイドウ","city":"旭川市","city_kana":"アサヒカワシ","town":"新星町","town_kana":"シンセイチョウ","prefecture_code":1},"0001":{"zip_code":"0700001","prefecture":"北海道","prefecture_kana":"ホッカイドウ","city":"旭川市","city_kana":"アサヒカワシ","town":"新富１条","town_kana":"シントミ1ジョウ","prefecture_code":1},"0002":{"zip_code":"0700002","prefecture":"北海道","prefecture_kana":"ホッカイドウ","city":"旭川市","city_kana":"アサヒカワシ","town":"新富２条","town_kana":"シントミ2ジョウ","prefecture_code":1},"0003":{"zip_code":"0700003","prefecture":"北海道","prefecture_kana":"ホッカイドウ","city":"旭川市","city_kana":"アサヒカワシ","town":"新富３条","town_kana":"シントミ3ジョウ","prefecture_code":1},"0864":{"zip_code":"0700864","prefecture":"北海道","prefecture_kana":"ホッカイドウ","city":"旭川市","city_kana":"アサヒカワシ","town":"住吉４条","town_kana":"スミヨシ4ジョウ","prefecture_code":1},"0865":{"zip_code":"0700865","prefecture":"北海道","prefecture_kana":"ホッカイドウ","city":"旭川市","city_kana":"アサヒカワシ","town":"住吉５条","town_kana":"スミヨシ5ジョウ","prefecture_code":1},"0866":{"zip_code":"0700866","prefecture":"北海道","prefecture_kana":"ホッカイドウ","city":"旭川市","city_kana":"アサヒカワシ","town":"住吉６条","town_kana":"スミヨシ6ジョウ","prefecture_code":1},"0867":{"zip_code":"0700867","prefecture":"北海道","prefecture_kana":"ホッカイドウ","city":"旭川市","city_kana":"アサヒカワシ","town":"住吉７条","town_kana":"スミヨシ7ジョウ","prefecture_code":1},"0010":{"zip_code":"0700010","prefecture":"北海道","prefecture_kana":"ホッカイドウ","city":"旭川市","city_kana":"アサヒカワシ","town":"大雪通","town_kana":"タイセツドオリ","prefecture_code":1},"8071":{"zip_code":"0708071","prefecture":"北海道","prefecture_kana":"ホッカイドウ","city":"旭川市","city_kana":"アサヒカワシ","town":"台場１条","town_kana":"ダイバ1ジョウ","prefecture_code":1},"8072":{"zip_code":"0708072","prefecture":"北海道","prefecture_kana":"ホッカイドウ","city":"旭川市","city_kana":"アサヒカワシ","town":"台場２条","town_kana":"ダイバ2ジョウ","prefecture_code":1},"8073":{"zip_code":"0708073","prefecture":"北海道","prefecture_kana":"ホッカイドウ","city":"旭川市","city_kana":"アサヒカワシ","town":"台場３条","town_kana":"ダイバ3ジョウ","prefecture_code":1},"8074":{"zip_code":"0708074","prefecture":"北海道","prefecture_kana":"ホッカイドウ","city":"旭川市","city_kana":"アサヒカワシ","town":"台場４条","town_kana":"ダイバ4ジョウ","prefecture_code":1},"8027":{"zip_code":"0708027","prefecture":"北海道","prefecture_kana":"ホッカイドウ","city":"旭川市","city_kana":"アサヒカワシ","town":"台場東","town_kana":"ダイバヒガシ","prefecture_code":1},"8061":{"zip_code":"0708061","prefecture":"北海道","prefecture_kana":"ホッカイドウ","city":"旭川市","city_kana":"アサヒカワシ","town":"高砂台","town_kana":"タカサゴダイ","prefecture_code":1},"0821":{"zip_code":"0700821","prefecture":"北海道","prefecture_kana":"ホッカイドウ","city":"旭川市","city_kana":"アサヒカワシ","town":"近文町","town_kana":"チカブミチョウ","prefecture_code":1},"8041":{"zip_code":"0708041","prefecture":"北海道","prefecture_kana":"ホッカイドウ","city":"旭川市","city_kana":"アサヒカワシ","town":"忠和１条","town_kana":"チュウワ1ジョウ","prefecture_code":1},"8042":{"zip_code":"0708042","prefecture":"北海道","prefecture_kana":"ホッカイドウ","city":"旭川市","city_kana":"アサヒカワシ","town":"忠和２条","town_kana":"チュウワ2ジョウ","prefecture_code":1},"8043":{"zip_code":"0708043","prefecture":"北海道","prefecture_kana":"ホッカイドウ","city":"旭川市","city_kana":"アサヒカワシ","town":"忠和３条","town_kana":"チュウワ3ジョウ","prefecture_code":1},"8044":{"zip_code":"0708044","prefecture":"北海道","prefecture_kana":"ホッカイドウ","city":"旭川市","city_kana":"アサヒカワシ","town":"忠和４条","town_kana":"チュウワ4ジョウ","prefecture_code":1},"8045":{"zip_code":"0708045","prefecture":"北海道","prefecture_kana":"ホッカイドウ","city":"旭川市","city_kana":"アサヒカワシ","town":"忠和５条","town_kana":"チュウワ5ジョウ","prefecture_code":1},"8046":{"zip_code":"0708046","prefecture":"北海道","prefecture_kana":"ホッカイドウ","city":"旭川市","city_kana":"アサヒカワシ","town":"忠和６条","town_kana":"チュウワ6ジョウ","prefecture_code":1},"8047":{"zip_code":"0708047","prefecture":"北海道","prefecture_kana":"ホッカイドウ","city":"旭川市","city_kana":"アサヒカワシ","town":"忠和７条","town_kana":"チュウワ7ジョウ","prefecture_code":1},"8048":{"zip_code":"0708048","prefecture":"北海道","prefecture_kana":"ホッカイドウ","city":"旭川市","city_kana":"アサヒカワシ","town":"忠和８条","town_kana":"チュウワ8ジョウ","prefecture_code":1},"8049":{"zip_code":"0708049","prefecture":"北海道","prefecture_kana":"ホッカイドウ","city":"旭川市","city_kana":"アサヒカワシ","town":"忠和９条","town_kana":"チュウワ9ジョウ","prefecture_code":1},"0044":{"zip_code":"0700044","prefecture":"北海道","prefecture_kana":"ホッカイドウ","city":"旭川市","city_kana":"アサヒカワシ","town":"常磐公園","town_kana":"トキワコウエン","prefecture_code":1},"0043":{"zip_code":"0700043","prefecture":"北海道","prefecture_kana":"ホッカイドウ","city":"旭川市","city_kana":"アサヒカワシ","town":"常盤通","town_kana":"トキワドオリ","prefecture_code":1},"0042":{"zip_code":"0700042","prefecture":"北海道","prefecture_kana":"ホッカイドウ","city":"旭川市","city_kana":"アサヒカワシ","town":"中常盤町","town_kana":"ナカトキワチョウ","prefecture_code":1},"0824":{"zip_code":"0700824","prefecture":"北海道","prefecture_kana":"ホッカイドウ","city":"旭川市","city_kana":"アサヒカワシ","town":"錦町","town_kana":"ニシキマチ","prefecture_code":1},"0901":{"zip_code":"0700901","prefecture":"北海道","prefecture_kana":"ホッカイドウ","city":"旭川市","city_kana":"アサヒカワシ","town":"花咲町","town_kana":"ハナサキチョウ","prefecture_code":1},"0013":{"zip_code":"0700013","prefecture":"北海道","prefecture_kana":"ホッカイドウ","city":"旭川市","city_kana":"アサヒカワシ","town":"パルプ町","town_kana":"パルプチョウ","prefecture_code":1},"0011":{"zip_code":"0700011","prefecture":"北海道","prefecture_kana":"ホッカイドウ","city":"旭川市","city_kana":"アサヒカワシ","town":"パルプ町１条","town_kana":"パルプチョウ1ジョウ","prefecture_code":1},"0012":{"zip_code":"0700012","prefecture":"北海道","prefecture_kana":"ホッカイドウ","city":"旭川市","city_kana":"アサヒカワシ","town":"パルプ町２条","town_kana":"パルプチョウ2ジョウ","prefecture_code":1},"0021":{"zip_code":"0700021","prefecture":"北海道","prefecture_kana":"ホッカイドウ","city":"旭川市","city_kana":"アサヒカワシ","town":"東１条","town_kana":"ヒガシ1ジョウ","prefecture_code":1},"0022":{"zip_code":"0700022","prefecture":"北海道","prefecture_kana":"ホッカイドウ","city":"旭川市","city_kana":"アサヒカワシ","town":"東２条","town_kana":"ヒガシ2ジョウ","prefecture_code":1},"0023":{"zip_code":"0700023","prefecture":"北海道","prefecture_kana":"ホッカイドウ","city":"旭川市","city_kana":"アサヒカワシ","town":"東３条","town_kana":"ヒガシ3ジョウ","prefecture_code":1},"0024":{"zip_code":"0700024","prefecture":"北海道","prefecture_kana":"ホッカイドウ","city":"旭川市","city_kana":"アサヒカワシ","town":"東４条","town_kana":"ヒガシ4ジョウ","prefecture_code":1},"0025":{"zip_code":"0700025","prefecture":"北海道","prefecture_kana":"ホッカイドウ","city":"旭川市","city_kana":"アサヒカワシ","town":"東５条","town_kana":"ヒガシ5ジョウ","prefecture_code":1},"0026":{"zip_code":"0700026","prefecture":"北海道","prefecture_kana":"ホッカイドウ","city":"旭川市","city_kana":"アサヒカワシ","town":"東６条","town_kana":"ヒガシ6ジョウ","prefecture_code":1},"0027":{"zip_code":"0700027","prefecture":"北海道","prefecture_kana":"ホッカイドウ","city":"旭川市","city_kana":"アサヒカワシ","town":"東７条","town_kana":"ヒガシ7ジョウ","prefecture_code":1},"0028":{"zip_code":"0700028","prefecture":"北海道","prefecture_kana":"ホッカイドウ","city":"旭川市","city_kana":"アサヒカワシ","town":"東８条","town_kana":"ヒガシ8ジョウ","prefecture_code":1},"0825":{"zip_code":"0700825","prefecture":"北海道","prefecture_kana":"ホッカイドウ","city":"旭川市","city_kana":"アサヒカワシ","town":"北門町","town_kana":"ホクモンチョウ","prefecture_code":1},"0823":{"zip_code":"0700823","prefecture":"北海道","prefecture_kana":"ホッカイドウ","city":"旭川市","city_kana":"アサヒカワシ","town":"緑町","town_kana":"ミドリマチ","prefecture_code":1},"8028":{"zip_code":"0708028","prefecture":"北海道","prefecture_kana":"ホッカイドウ","city":"旭川市","city_kana":"アサヒカワシ","town":"南が丘","town_kana":"ミナミガオカ","prefecture_code":1},"0030":{"zip_code":"0700030","prefecture":"北海道","prefecture_kana":"ホッカイドウ","city":"旭川市","city_kana":"アサヒカワシ","town":"宮下通（１〜１７丁目）","town_kana":"ミヤシタドオリ(1-17チョウメ)","prefecture_code":1},"0810":{"zip_code":"0700810","prefecture":"北海道","prefecture_kana":"ホッカイドウ","city":"旭川市","city_kana":"アサヒカワシ","town":"本町","town_kana":"モトマチ","prefecture_code":1},"0971":{"zip_code":"0700971","prefecture":"北海道","prefecture_kana":"ホッカイドウ","city":"旭川市","city_kana":"アサヒカワシ","town":"４区１条","town_kana":"4ク1ジョウ","prefecture_code":1},"0972":{"zip_code":"0700972","prefecture":"北海道","prefecture_kana":"ホッカイドウ","city":"旭川市","city_kana":"アサヒカワシ","town":"４区２条","town_kana":"4ク2ジョウ","prefecture_code":1},"0973":{"zip_code":"0700973","prefecture":"北海道","prefecture_kana":"ホッカイドウ","city":"旭川市","city_kana":"アサヒカワシ","town":"４区３条","town_kana":"4ク3ジョウ","prefecture_code":1},"0031":{"zip_code":"0700031","prefecture":"北海道","prefecture_kana":"ホッカイドウ","city":"旭川市","city_kana":"アサヒカワシ","town":"１条通（１〜１７丁目）","town_kana":"1ジョウドオリ(1-17チョウメ)","prefecture_code":1},"0032":{"zip_code":"0700032","prefecture":"北海道","prefecture_kana":"ホッカイドウ","city":"旭川市","city_kana":"アサヒカワシ","town":"２条通（１〜１７丁目）","town_kana":"2ジョウドオリ(1-17チョウメ)","prefecture_code":1},"0052":{"zip_code":"0700052","prefecture":"北海道","prefecture_kana":"ホッカイドウ","city":"旭川市","city_kana":"アサヒカワシ","town":"２条西","town_kana":"2ジョウニシ","prefecture_code":1},"0033":{"zip_code":"0700033","prefecture":"北海道","prefecture_kana":"ホッカイドウ","city":"旭川市","city_kana":"アサヒカワシ","town":"３条通（１〜１７丁目）","town_kana":"3ジョウドオリ(1-17チョウメ)","prefecture_code":1},"0053":{"zip_code":"0700053","prefecture":"北海道","prefecture_kana":"ホッカイドウ","city":"旭川市","city_kana":"アサヒカワシ","town":"３条西","town_kana":"3ジョウニシ","prefecture_code":1},"0034":{"zip_code":"0700034","prefecture":"北海道","prefecture_kana":"ホッカイドウ","city":"旭川市","city_kana":"アサヒカワシ","town":"４条通（１〜１７丁目）","town_kana":"4ジョウドオリ(1-17チョウメ)","prefecture_code":1},"0054":{"zip_code":"0700054","prefecture":"北海道","prefecture_kana":"ホッカイドウ","city":"旭川市","city_kana":"アサヒカワシ","town":"４条西","town_kana":"4ジョウニシ","prefecture_code":1},"0035":{"zip_code":"0700035","prefecture":"北海道","prefecture_kana":"ホッカイドウ","city":"旭川市","city_kana":"アサヒカワシ","town":"５条通（１〜１７丁目）","town_kana":"5ジョウドオリ(1-17チョウメ)","prefecture_code":1},"0055":{"zip_code":"0700055","prefecture":"北海道","prefecture_kana":"ホッカイドウ","city":"旭川市","city_kana":"アサヒカワシ","town":"５条西","town_kana":"5ジョウニシ","prefecture_code":1},"0036":{"zip_code":"0700036","prefecture":"北海道","prefecture_kana":"ホッカイドウ","city":"旭川市","city_kana":"アサヒカワシ","town":"６条通（１〜１７丁目）","town_kana":"6ジョウドオリ(1-17チョウメ)","prefecture_code":1},"0056":{"zip_code":"0700056","prefecture":"北海道","prefecture_kana":"ホッカイドウ","city":"旭川市","city_kana":"アサヒカワシ","town":"６条西","town_kana":"6ジョウニシ","prefecture_code":1},"0037":{"zip_code":"0700037","prefecture":"北海道","prefecture_kana":"ホッカイドウ","city":"旭川市","city_kana":"アサヒカワシ","town":"７条通（１〜１７丁目）","town_kana":"7ジョウドオリ(1-17チョウメ)","prefecture_code":1},"0057":{"zip_code":"0700057","prefecture":"北海道","prefecture_kana":"ホッカイドウ","city":"旭川市","city_kana":"アサヒカワシ","town":"７条西","town_kana":"7ジョウニシ","prefecture_code":1},"0038":{"zip_code":"0700038","prefecture":"北海道","prefecture_kana":"ホッカイドウ","city":"旭川市","city_kana":"アサヒカワシ","town":"８条通（１〜１７丁目）","town_kana":"8ジョウドオリ(1-17チョウメ)","prefecture_code":1},"0058":{"zip_code":"0700058","prefecture":"北海道","prefecture_kana":"ホッカイドウ","city":"旭川市","city_kana":"アサヒカワシ","town":"８条西","town_kana":"8ジョウニシ","prefecture_code":1},"0039":{"zip_code":"0700039","prefecture":"北海道","prefecture_kana":"ホッカイドウ","city":"旭川市","city_kana":"アサヒカワシ","town":"９条通（１〜１７丁目）","town_kana":"9ジョウドオリ(1-17チョウメ)","prefecture_code":1},"0059":{"zip_code":"0700059","prefecture":"北海道","prefecture_kana":"ホッカイドウ","city":"旭川市","city_kana":"アサヒカワシ","town":"９条西","town_kana":"9ジョウニシ","prefecture_code":1},"0040":{"zip_code":"0700040","prefecture":"北海道","prefecture_kana":"ホッカイドウ","city":"旭川市","city_kana":"アサヒカワシ","town":"１０条通（８〜１７丁目）","town_kana":"10ジョウドオリ(8-17チョウメ)","prefecture_code":1}}