{"1171":{"zip_code":"0711171","prefecture":"北海道","prefecture_kana":"ホッカイドウ","city":"旭川市","city_kana":"アサヒカワシ","town":"江丹別町清水","town_kana":"エタンベツチョウシミズ","prefecture_code":1},"1172":{"zip_code":"0711172","prefecture":"北海道","prefecture_kana":"ホッカイドウ","city":"旭川市","city_kana":"アサヒカワシ","town":"江丹別町拓北","town_kana":"エタンベツチョウタクホク","prefecture_code":1},"1173":{"zip_code":"0711173","prefecture":"北海道","prefecture_kana":"ホッカイドウ","city":"旭川市","city_kana":"アサヒカワシ","town":"江丹別町中央","town_kana":"エタンベツチョウチュウオウ","prefecture_code":1},"1174":{"zip_code":"0711174","prefecture":"北海道","prefecture_kana":"ホッカイドウ","city":"旭川市","city_kana":"アサヒカワシ","town":"江丹別町富原","town_kana":"エタンベツチョウトミハラ","prefecture_code":1},"1175":{"zip_code":"0711175","prefecture":"北海道","prefecture_kana":"ホッカイドウ","city":"旭川市","city_kana":"アサヒカワシ","town":"江丹別町中園","town_kana":"エタンベツチョウナカゾノ","prefecture_code":1},"1176":{"zip_code":"0711176","prefecture":"北海道","prefecture_kana":"ホッカイドウ","city":"旭川市","city_kana":"アサヒカワシ","town":"江丹別町西里","town_kana":"エタンベツチョウニシサト","prefecture_code":1},"1177":{"zip_code":"0711177","prefecture":"北海道","prefecture_kana":"ホッカイドウ","city":"旭川市","city_kana":"アサヒカワシ","town":"江丹別町芳野","town_kana":"エタンベツチョウヨシノ","prefecture_code":1},"8141":{"zip_code":"0718141","prefecture":"北海道","prefecture_kana":"ホッカイドウ","city":"旭川市","city_kana":"アサヒカワシ","town":"春光台１条","town_kana":"シュンコウダイ1ジョウ","prefecture_code":1},"8142":{"zip_code":"0718142","prefecture":"北海道","prefecture_kana":"ホッカイドウ","city":"旭川市","city_kana":"アサヒカワシ","town":"春光台２条","town_kana":"シュンコウダイ2ジョウ","prefecture_code":1},"8143":{"zip_code":"0718143","prefecture":"北海道","prefecture_kana":"ホッカイドウ","city":"旭川市","city_kana":"アサヒカワシ","town":"春光台３条","town_kana":"シュンコウダイ3ジョウ","prefecture_code":1},"8144":{"zip_code":"0718144","prefecture":"北海道","prefecture_kana":"ホッカイドウ","city":"旭川市","city_kana":"アサヒカワシ","town":"春光台４条","town_kana":"シュンコウダイ4ジョウ","prefecture_code":1},"8145":{"zip_code":"0718145","prefecture":"北海道","prefecture_kana":"ホッカイドウ","city":"旭川市","city_kana":"アサヒカワシ","town":"春光台５条","town_kana":"シュンコウダイ5ジョウ","prefecture_code":1},"8131":{"zip_code":"0718131","prefecture":"北海道","prefecture_kana":"ホッカイドウ","city":"旭川市","city_kana":"アサヒカワシ","town":"末広１条","town_kana":"スエヒロ1ジョウ","prefecture_code":1},"8132":{"zip_code":"0718132","prefecture":"北海道","prefecture_kana":"ホッカイドウ","city":"旭川市","city_kana":"アサヒカワシ","town":"末広２条","town_kana":"スエヒロ2ジョウ","prefecture_code":1},"8133":{"zip_code":"0718133","prefecture":"北海道","prefecture_kana":"ホッカイドウ","city":"旭川市","city_kana":"アサヒカワシ","town":"末広３条","town_kana":"スエヒロ3ジョウ","prefecture_code":1},"8134":{"zip_code":"0718134","prefecture":"北海道","prefecture_kana":"ホッカイドウ","city":"旭川市","city_kana":"アサヒカワシ","town":"末広４条","town_kana":"スエヒロ4ジョウ","prefecture_code":1},"8135":{"zip_code":"0718135","prefecture":"北海道","prefecture_kana":"ホッカイドウ","city":"旭川市","city_kana":"アサヒカワシ","town":"末広５条","town_kana":"スエヒロ5ジョウ","prefecture_code":1},"8136":{"zip_code":"0718136","prefecture":"北海道","prefecture_kana":"ホッカイドウ","city":"旭川市","city_kana":"アサヒカワシ","town":"末広６条","town_kana":"スエヒロ6ジョウ","prefecture_code":1},"8137":{"zip_code":"0718137","prefecture":"北海道","prefecture_kana":"ホッカイドウ","city":"旭川市","city_kana":"アサヒカワシ","town":"末広７条","town_kana":"スエヒロ7ジョウ","prefecture_code":1},"8138":{"zip_code":"0718138","prefecture":"北海道","prefecture_kana":"ホッカイドウ","city":"旭川市","city_kana":"アサヒカワシ","town":"末広８条","town_kana":"スエヒロ8ジョウ","prefecture_code":1},"8121":{"zip_code":"0718121","prefecture":"北海道","prefecture_kana":"ホッカイドウ","city":"旭川市","city_kana":"アサヒカワシ","town":"末広東１条","town_kana":"スエヒロヒガシ1ジョウ","prefecture_code":1},"8122":{"zip_code":"0718122","prefecture":"北海道","prefecture_kana":"ホッカイドウ","city":"旭川市","city_kana":"アサヒカワシ","town":"末広東２条","town_kana":"スエヒロヒガシ2ジョウ","prefecture_code":1},"8123":{"zip_code":"0718123","prefecture":"北海道","prefecture_kana":"ホッカイドウ","city":"旭川市","city_kana":"アサヒカワシ","town":"末広東３条","town_kana":"スエヒロヒガシ3ジョウ","prefecture_code":1},"0173":{"zip_code":"0710173","prefecture":"北海道","prefecture_kana":"ホッカイドウ","city":"旭川市","city_kana":"アサヒカワシ","town":"西神楽北１条","town_kana":"ニシカグラキタ1ジョウ","prefecture_code":1},"0174":{"zip_code":"0710174","prefecture":"北海道","prefecture_kana":"ホッカイドウ","city":"旭川市","city_kana":"アサヒカワシ","town":"西神楽北２条","town_kana":"ニシカグラキタ2ジョウ","prefecture_code":1},"0171":{"zip_code":"0710171","prefecture":"北海道","prefecture_kana":"ホッカイドウ","city":"旭川市","city_kana":"アサヒカワシ","town":"西神楽南１条","town_kana":"ニシカグラミナミ1ジョウ","prefecture_code":1},"0172":{"zip_code":"0710172","prefecture":"北海道","prefecture_kana":"ホッカイドウ","city":"旭川市","city_kana":"アサヒカワシ","town":"西神楽南２条","town_kana":"ニシカグラミナミ2ジョウ","prefecture_code":1},"0186":{"zip_code":"0710186","prefecture":"北海道","prefecture_kana":"ホッカイドウ","city":"旭川市","city_kana":"アサヒカワシ","town":"西神楽南","town_kana":"ニシカグラミナミ","prefecture_code":1},"0184":{"zip_code":"0710184","prefecture":"北海道","prefecture_kana":"ホッカイドウ","city":"旭川市","city_kana":"アサヒカワシ","town":"西神楽４線","town_kana":"ニシカグラ4セン","prefecture_code":1},"0185":{"zip_code":"0710185","prefecture":"北海道","prefecture_kana":"ホッカイドウ","city":"旭川市","city_kana":"アサヒカワシ","town":"西神楽５線","town_kana":"ニシカグラ5セン","prefecture_code":1},"8101":{"zip_code":"0718101","prefecture":"北海道","prefecture_kana":"ホッカイドウ","city":"旭川市","city_kana":"アサヒカワシ","town":"東鷹栖１条","town_kana":"ヒガシタカス1ジョウ","prefecture_code":1},"8102":{"zip_code":"0718102","prefecture":"北海道","prefecture_kana":"ホッカイドウ","city":"旭川市","city_kana":"アサヒカワシ","town":"東鷹栖２条","town_kana":"ヒガシタカス2ジョウ","prefecture_code":1},"8103":{"zip_code":"0718103","prefecture":"北海道","prefecture_kana":"ホッカイドウ","city":"旭川市","city_kana":"アサヒカワシ","town":"東鷹栖３条","town_kana":"ヒガシタカス3ジョウ","prefecture_code":1},"8104":{"zip_code":"0718104","prefecture":"北海道","prefecture_kana":"ホッカイドウ","city":"旭川市","city_kana":"アサヒカワシ","town":"東鷹栖４条","town_kana":"ヒガシタカス4ジョウ","prefecture_code":1},"8151":{"zip_code":"0718151","prefecture":"北海道","prefecture_kana":"ホッカイドウ","city":"旭川市","city_kana":"アサヒカワシ","town":"東鷹栖１線","town_kana":"ヒガシタカス1セン","prefecture_code":1},"8152":{"zip_code":"0718152","prefecture":"北海道","prefecture_kana":"ホッカイドウ","city":"旭川市","city_kana":"アサヒカワシ","town":"東鷹栖２線","town_kana":"ヒガシタカス2セン","prefecture_code":1},"8153":{"zip_code":"0718153","prefecture":"北海道","prefecture_kana":"ホッカイドウ","city":"旭川市","city_kana":"アサヒカワシ","town":"東鷹栖３線","town_kana":"ヒガシタカス3セン","prefecture_code":1},"8154":{"zip_code":"0718154","prefecture":"北海道","prefecture_kana":"ホッカイドウ","city":"旭川市","city_kana":"アサヒカワシ","town":"東鷹栖４線","town_kana":"ヒガシタカス4セン","prefecture_code":1},"8155":{"zip_code":"0718155","prefecture":"北海道","prefecture_kana":"ホッカイドウ","city":"旭川市","city_kana":"アサヒカワシ","town":"東鷹栖５線","town_kana":"ヒガシタカス5セン","prefecture_code":1},"8156":{"zip_code":"0718156","prefecture":"北海道","prefecture_kana":"ホッカイドウ","city":"旭川市","city_kana":"アサヒカワシ","town":"東鷹栖６線","town_kana":"ヒガシタカス6セン","prefecture_code":1},"8157":{"zip_code":"0718157","prefecture":"北海道","prefecture_kana":"ホッカイドウ","city":"旭川市","city_kana":"アサヒカワシ","town":"東鷹栖７線","town_kana":"ヒガシタカス7セン","prefecture_code":1},"8158":{"zip_code":"0718158","prefecture":"北海道","prefecture_kana":"ホッカイドウ","city":"旭川市","city_kana":"アサヒカワシ","town":"東鷹栖８線","town_kana":"ヒガシタカス8セン","prefecture_code":1},"8159":{"zip_code":"0718159","prefecture":"北海道","prefecture_kana":"ホッカイドウ","city":"旭川市","city_kana":"アサヒカワシ","town":"東鷹栖９線","town_kana":"ヒガシタカス9セン","prefecture_code":1},"8160":{"zip_code":"0718160","prefecture":"北海道","prefecture_kana":"ホッカイドウ","city":"旭川市","city_kana":"アサヒカワシ","town":"東鷹栖１０線","town_kana":"ヒガシタカス10セン","prefecture_code":1},"8161":{"zip_code":"0718161","prefecture":"北海道","prefecture_kana":"ホッカイドウ","city":"旭川市","city_kana":"アサヒカワシ","town":"東鷹栖１１線","town_kana":"ヒガシタカス11セン","prefecture_code":1},"8162":{"zip_code":"0718162","prefecture":"北海道","prefecture_kana":"ホッカイドウ","city":"旭川市","city_kana":"アサヒカワシ","town":"東鷹栖１２線","town_kana":"ヒガシタカス12セン","prefecture_code":1},"8163":{"zip_code":"0718163","prefecture":"北海道","prefecture_kana":"ホッカイドウ","city":"旭川市","city_kana":"アサヒカワシ","town":"東鷹栖１３線","town_kana":"ヒガシタカス13セン","prefecture_code":1},"8164":{"zip_code":"0718164","prefecture":"北海道","prefecture_kana":"ホッカイドウ","city":"旭川市","city_kana":"アサヒカワシ","town":"東鷹栖１４線","town_kana":"ヒガシタカス14セン","prefecture_code":1},"8165":{"zip_code":"0718165","prefecture":"北海道","prefecture_kana":"ホッカイドウ","city":"旭川市","city_kana":"アサヒカワシ","town":"東鷹栖１５線","town_kana":"ヒガシタカス15セン","prefecture_code":1},"8111":{"zip_code":"0718111","prefecture":"北海道","prefecture_kana":"ホッカイドウ","city":"旭川市","city_kana":"アサヒカワシ","town":"東鷹栖東１条","town_kana":"ヒガシタカスヒガシ1ジョウ","prefecture_code":1},"8112":{"zip_code":"0718112","prefecture":"北海道","prefecture_kana":"ホッカイドウ","city":"旭川市","city_kana":"アサヒカワシ","town":"東鷹栖東２条","town_kana":"ヒガシタカスヒガシ2ジョウ","prefecture_code":1},"8113":{"zip_code":"0718113","prefecture":"北海道","prefecture_kana":"ホッカイドウ","city":"旭川市","city_kana":"アサヒカワシ","town":"東鷹栖東３条","town_kana":"ヒガシタカスヒガシ3ジョウ","prefecture_code":1},"8114":{"zip_code":"0718114","prefecture":"北海道","prefecture_kana":"ホッカイドウ","city":"旭川市","city_kana":"アサヒカワシ","town":"東鷹栖東１線","town_kana":"ヒガシタカスヒガシ1セン","prefecture_code":1},"8171":{"zip_code":"0718171","prefecture":"北海道","prefecture_kana":"ホッカイドウ","city":"旭川市","city_kana":"アサヒカワシ","town":"東山","town_kana":"ヒガシヤマ","prefecture_code":1},"8166":{"zip_code":"0718166","prefecture":"北海道","prefecture_kana":"ホッカイドウ","city":"旭川市","city_kana":"アサヒカワシ","town":"緑台","town_kana":"ミドリダイ","prefecture_code":1},"1200":{"zip_code":"0711200","prefecture":"北海道","prefecture_kana":"ホッカイドウ","city":"上川郡鷹栖町","city_kana":"カミカワグンタカスチョウ","town":"","town_kana":"","prefecture_code":1},"1231":{"zip_code":"0711231","prefecture":"北海道","prefecture_kana":"ホッカイドウ","city":"上川郡鷹栖町","city_kana":"カミカワグンタカスチョウ","town":"北野西一条","town_kana":"キタノニシ1ジョウ","prefecture_code":1},"1232":{"zip_code":"0711232","prefecture":"北海道","prefecture_kana":"ホッカイドウ","city":"上川郡鷹栖町","city_kana":"カミカワグンタカスチョウ","town":"北野西二条","town_kana":"キタノニシ2ジョウ","prefecture_code":1},"1233":{"zip_code":"0711233","prefecture":"北海道","prefecture_kana":"ホッカイドウ","city":"上川郡鷹栖町","city_kana":"カミカワグンタカスチョウ","town":"北野西三条","town_kana":"キタノニシ3ジョウ","prefecture_code":1},"1234":{"zip_code":"0711234","prefecture":"北海道","prefecture_kana":"ホッカイドウ","city":"上川郡鷹栖町","city_kana":"カミカワグンタカスチョウ","town":"北野西四条","town_kana":"キタノニシ4ジョウ","prefecture_code":1},"1235":{"zip_code":"0711235","prefecture":"北海道","prefecture_kana":"ホッカイドウ","city":"上川郡鷹栖町","city_kana":"カミカワグンタカスチョウ","town":"北野西五条","town_kana":"キタノニシ5ジョウ","prefecture_code":1},"1221":{"zip_code":"0711221","prefecture":"北海道","prefecture_kana":"ホッカイドウ","city":"上川郡鷹栖町","city_kana":"カミカワグンタカスチョウ","town":"北野東一条","town_kana":"キタノヒガシ1ジョウ","prefecture_code":1},"1222":{"zip_code":"0711222","prefecture":"北海道","prefecture_kana":"ホッカイドウ","city":"上川郡鷹栖町","city_kana":"カミカワグンタカスチョウ","town":"北野東二条","town_kana":"キタノヒガシ2ジョウ","prefecture_code":1},"1223":{"zip_code":"0711223","prefecture":"北海道","prefecture_kana":"ホッカイドウ","city":"上川郡鷹栖町","city_kana":"カミカワグンタカスチョウ","town":"北野東三条","town_kana":"キタノヒガシ3ジョウ","prefecture_code":1},"1224":{"zip_code":"0711224","prefecture":"北海道","prefecture_kana":"ホッカイドウ","city":"上川郡鷹栖町","city_kana":"カミカワグンタカスチョウ","town":"北野東四条","town_kana":"キタノヒガシ4ジョウ","prefecture_code":1},"1225":{"zip_code":"0711225","prefecture":"北海道","prefecture_kana":"ホッカイドウ","city":"上川郡鷹栖町","city_kana":"カミカワグンタカスチョウ","town":"北野東五条","town_kana":"キタノヒガシ5ジョウ","prefecture_code":1},"1211":{"zip_code":"0711211","prefecture":"北海道","prefecture_kana":"ホッカイドウ","city":"上川郡鷹栖町","city_kana":"カミカワグンタカスチョウ","town":"北一条","town_kana":"キタ1ジョウ","prefecture_code":1},"1201":{"zip_code":"0711201","prefecture":"北海道","prefecture_kana":"ホッカイドウ","city":"上川郡鷹栖町","city_kana":"カミカワグンタカスチョウ","town":"南一条","town_kana":"ミナミ1ジョウ","prefecture_code":1},"1202":{"zip_code":"0711202","prefecture":"北海道","prefecture_kana":"ホッカイドウ","city":"上川郡鷹栖町","city_kana":"カミカワグンタカスチョウ","town":"南二条","town_kana":"ミナミ2ジョウ","prefecture_code":1},"1247":{"zip_code":"0711247","prefecture":"北海道","prefecture_kana":"ホッカイドウ","city":"上川郡鷹栖町","city_kana":"カミカワグンタカスチョウ","town":"７線","town_kana":"7セン","prefecture_code":1},"1248":{"zip_code":"0711248","prefecture":"北海道","prefecture_kana":"ホッカイドウ","city":"上川郡鷹栖町","city_kana":"カミカワグンタカスチョウ","town":"８線","town_kana":"8セン","prefecture_code":1},"1249":{"zip_code":"0711249","prefecture":"北海道","prefecture_kana":"ホッカイドウ","city":"上川郡鷹栖町","city_kana":"カミカワグンタカスチョウ","town":"９線","town_kana":"9セン","prefecture_code":1},"1250":{"zip_code":"0711250","prefecture":"北海道","prefecture_kana":"ホッカイドウ","city":"上川郡鷹栖町","city_kana":"カミカワグンタカスチョウ","town":"１０線","town_kana":"10セン","prefecture_code":1},"1251":{"zip_code":"0711251","prefecture":"北海道","prefecture_kana":"ホッカイドウ","city":"上川郡鷹栖町","city_kana":"カミカワグンタカスチョウ","town":"１１線","town_kana":"11セン","prefecture_code":1},"1252":{"zip_code":"0711252","prefecture":"北海道","prefecture_kana":"ホッカイドウ","city":"上川郡鷹栖町","city_kana":"カミカワグンタカスチョウ","town":"１２線","town_kana":"12セン","prefecture_code":1},"1253":{"zip_code":"0711253","prefecture":"北海道","prefecture_kana":"ホッカイドウ","city":"上川郡鷹栖町","city_kana":"カミカワグンタカスチョウ","town":"１３線","town_kana":"13セン","prefecture_code":1},"1254":{"zip_code":"0711254","prefecture":"北海道","prefecture_kana":"ホッカイドウ","city":"上川郡鷹栖町","city_kana":"カミカワグンタカスチョウ","town":"１４線","town_kana":"14セン","prefecture_code":1},"1255":{"zip_code":"0711255","prefecture":"北海道","prefecture_kana":"ホッカイドウ","city":"上川郡鷹栖町","city_kana":"カミカワグンタカスチョウ","town":"１５線","town_kana":"15セン","prefecture_code":1},"1256":{"zip_code":"0711256","prefecture":"北海道","prefecture_kana":"ホッカイドウ","city":"上川郡鷹栖町","city_kana":"カミカワグンタカスチョウ","town":"１６線","town_kana":"16セン","prefecture_code":1},"1257":{"zip_code":"0711257","prefecture":"北海道","prefecture_kana":"ホッカイドウ","city":"上川郡鷹栖町","city_kana":"カミカワグンタカスチョウ","town":"１７線","town_kana":"17セン","prefecture_code":1},"1258":{"zip_code":"0711258","prefecture":"北海道","prefecture_kana":"ホッカイドウ","city":"上川郡鷹栖町","city_kana":"カミカワグンタカスチョウ","town":"１８線","town_kana":"18セン","prefecture_code":1},"1259":{"zip_code":"0711259","prefecture":"北海道","prefecture_kana":"ホッカイドウ","city":"上川郡鷹栖町","city_kana":"カミカワグンタカスチョウ","town":"１９線","town_kana":"19セン","prefecture_code":1},"1260":{"zip_code":"0711260","prefecture":"北海道","prefecture_kana":"ホッカイドウ","city":"上川郡鷹栖町","city_kana":"カミカワグンタカスチョウ","town":"２０線","town_kana":"20セン","prefecture_code":1},"1261":{"zip_code":"0711261","prefecture":"北海道","prefecture_kana":"ホッカイドウ","city":"上川郡鷹栖町","city_kana":"カミカワグンタカスチョウ","town":"２１線","town_kana":"21セン","prefecture_code":1},"1262":{"zip_code":"0711262","prefecture":"北海道","prefecture_kana":"ホッカイドウ","city":"上川郡鷹栖町","city_kana":"カミカワグンタカスチョウ","town":"２２線","town_kana":"22セン","prefecture_code":1},"1263":{"zip_code":"0711263","prefecture":"北海道","prefecture_kana":"ホッカイドウ","city":"上川郡鷹栖町","city_kana":"カミカワグンタカスチョウ","town":"２３線","town_kana":"23セン","prefecture_code":1},"1264":{"zip_code":"0711264","prefecture":"北海道","prefecture_kana":"ホッカイドウ","city":"上川郡鷹栖町","city_kana":"カミカワグンタカスチョウ","town":"２４線","town_kana":"24セン","prefecture_code":1},"1265":{"zip_code":"0711265","prefecture":"北海道","prefecture_kana":"ホッカイドウ","city":"上川郡鷹栖町","city_kana":"カミカワグンタカスチョウ","town":"２５線","town_kana":"25セン","prefecture_code":1},"1266":{"zip_code":"0711266","prefecture":"北海道","prefecture_kana":"ホッカイドウ","city":"上川郡鷹栖町","city_kana":"カミカワグンタカスチョウ","town":"２６線","town_kana":"26セン","prefecture_code":1},"1267":{"zip_code":"0711267","prefecture":"北海道","prefecture_kana":"ホッカイドウ","city":"上川郡鷹栖町","city_kana":"カミカワグンタカスチョウ","town":"２７線","town_kana":"27セン","prefecture_code":1},"1500":{"zip_code":"0711500","prefecture":"北海道","prefecture_kana":"ホッカイドウ","city":"上川郡東神楽町","city_kana":"カミカワグンヒガシカグラチョウ","town":"","town_kana":"","prefecture_code":1},"1560":{"zip_code":"0711560","prefecture":"北海道","prefecture_kana":"ホッカイドウ","city":"上川郡東神楽町","city_kana":"カミカワグンヒガシカグラチョウ","town":"基線","town_kana":"キセン","prefecture_code":1},"1512":{"zip_code":"0711512","prefecture":"北海道","prefecture_kana":"ホッカイドウ","city":"上川郡東神楽町","city_kana":"カミカワグンヒガシカグラチョウ","town":"北一条東","town_kana":"キタ1ジョウヒガシ","prefecture_code":1},"1511":{"zip_code":"0711511","prefecture":"北海道","prefecture_kana":"ホッカイドウ","city":"上川郡東神楽町","city_kana":"カミカワグンヒガシカグラチョウ","town":"北一条西","town_kana":"キタ1ジョウニシ","prefecture_code":1},"1514":{"zip_code":"0711514","prefecture":"北海道","prefecture_kana":"ホッカイドウ","city":"上川郡東神楽町","city_kana":"カミカワグンヒガシカグラチョウ","town":"北二条東","town_kana":"キタ2ジョウヒガシ","prefecture_code":1},"1513":{"zip_code":"0711513","prefecture":"北海道","prefecture_kana":"ホッカイドウ","city":"上川郡東神楽町","city_kana":"カミカワグンヒガシカグラチョウ","town":"北二条西","town_kana":"キタ2ジョウニシ","prefecture_code":1},"1515":{"zip_code":"0711515","prefecture":"北海道","prefecture_kana":"ホッカイドウ","city":"上川郡東神楽町","city_kana":"カミカワグンヒガシカグラチョウ","town":"北三条東","town_kana":"キタ3ジョウヒガシ","prefecture_code":1},"1581":{"zip_code":"0711581","prefecture":"北海道","prefecture_kana":"ホッカイドウ","city":"上川郡東神楽町","city_kana":"カミカワグンヒガシカグラチョウ","town":"栄岡","town_kana":"サカエオカ","prefecture_code":1},"1582":{"zip_code":"0711582","prefecture":"北海道","prefecture_kana":"ホッカイドウ","city":"上川郡東神楽町","city_kana":"カミカワグンヒガシカグラチョウ","town":"志比内","town_kana":"シビナイ","prefecture_code":1},"1561":{"zip_code":"0711561","prefecture":"北海道","prefecture_kana":"ホッカイドウ","city":"上川郡東神楽町","city_kana":"カミカワグンヒガシカグラチョウ","town":"東一線","town_kana":"ヒガシ1セン","prefecture_code":1},"1562":{"zip_code":"0711562","prefecture":"北海道","prefecture_kana":"ホッカイドウ","city":"上川郡東神楽町","city_kana":"カミカワグンヒガシカグラチョウ","town":"東二線","town_kana":"ヒガシ2セン","prefecture_code":1},"1563":{"zip_code":"0711563","prefecture":"北海道","prefecture_kana":"ホッカイドウ","city":"上川郡東神楽町","city_kana":"カミカワグンヒガシカグラチョウ","town":"東三線","town_kana":"ヒガシ3セン","prefecture_code":1},"1564":{"zip_code":"0711564","prefecture":"北海道","prefecture_kana":"ホッカイドウ","city":"上川郡東神楽町","city_kana":"カミカワグンヒガシカグラチョウ","town":"東四線","town_kana":"ヒガシ4セン","prefecture_code":1},"1565":{"zip_code":"0711565","prefecture":"北海道","prefecture_kana":"ホッカイドウ","city":"上川郡東神楽町","city_kana":"カミカワグンヒガシカグラチョウ","town":"東五線","town_kana":"ヒガシ5セン","prefecture_code":1},"1521":{"zip_code":"0711521","prefecture":"北海道","prefecture_kana":"ホッカイドウ","city":"上川郡東神楽町","city_kana":"カミカワグンヒガシカグラチョウ","town":"ひじり野北一条","town_kana":"ヒジリノキタ1ジョウ","prefecture_code":1},"1522":{"zip_code":"0711522","prefecture":"北海道","prefecture_kana":"ホッカイドウ","city":"上川郡東神楽町","city_kana":"カミカワグンヒガシカグラチョウ","town":"ひじり野北二条","town_kana":"ヒジリノキタ2ジョウ","prefecture_code":1},"1523":{"zip_code":"0711523","prefecture":"北海道","prefecture_kana":"ホッカイドウ","city":"上川郡東神楽町","city_kana":"カミカワグンヒガシカグラチョウ","town":"ひじり野南一条","town_kana":"ヒジリノミナミ1ジョウ","prefecture_code":1},"1524":{"zip_code":"0711524","prefecture":"北海道","prefecture_kana":"ホッカイドウ","city":"上川郡東神楽町","city_kana":"カミカワグンヒガシカグラチョウ","town":"ひじり野南二条","town_kana":"ヒジリノミナミ2ジョウ","prefecture_code":1},"1525":{"zip_code":"0711525","prefecture":"北海道","prefecture_kana":"ホッカイドウ","city":"上川郡東神楽町","city_kana":"カミカワグンヒガシカグラチョウ","town":"ひじり野南三条","town_kana":"ヒジリノミナミ3ジョウ","prefecture_code":1},"1572":{"zip_code":"0711572","prefecture":"北海道","prefecture_kana":"ホッカイドウ","city":"上川郡東神楽町","city_kana":"カミカワグンヒガシカグラチョウ","town":"南２線","town_kana":"ミナミ2セン","prefecture_code":1},"1573":{"zip_code":"0711573","prefecture":"北海道","prefecture_kana":"ホッカイドウ","city":"上川郡東神楽町","city_kana":"カミカワグンヒガシカグラチョウ","town":"南３線","town_kana":"ミナミ3セン","prefecture_code":1},"1574":{"zip_code":"0711574","prefecture":"北海道","prefecture_kana":"ホッカイドウ","city":"上川郡東神楽町","city_kana":"カミカワグンヒガシカグラチョウ","town":"南４線","town_kana":"ミナミ4セン","prefecture_code":1},"1575":{"zip_code":"0711575","prefecture":"北海道","prefecture_kana":"ホッカイドウ","city":"上川郡東神楽町","city_kana":"カミカワグンヒガシカグラチョウ","town":"南５線","town_kana":"ミナミ5セン","prefecture_code":1},"1502":{"zip_code":"0711502","prefecture":"北海道","prefecture_kana":"ホッカイドウ","city":"上川郡東神楽町","city_kana":"カミカワグンヒガシカグラチョウ","town":"南一条東","town_kana":"ミナミ1ジョウヒガシ","prefecture_code":1},"1501":{"zip_code":"0711501","prefecture":"北海道","prefecture_kana":"ホッカイドウ","city":"上川郡東神楽町","city_kana":"カミカワグンヒガシカグラチョウ","town":"南一条西","town_kana":"ミナミ1ジョウニシ","prefecture_code":1},"1571":{"zip_code":"0711571","prefecture":"北海道","prefecture_kana":"ホッカイドウ","city":"上川郡東神楽町","city_kana":"カミカワグンヒガシカグラチョウ","town":"南１番通","town_kana":"ミナミ1バンドオリ","prefecture_code":1},"1504":{"zip_code":"0711504","prefecture":"北海道","prefecture_kana":"ホッカイドウ","city":"上川郡東神楽町","city_kana":"カミカワグンヒガシカグラチョウ","town":"南二条東","town_kana":"ミナミ2ジョウヒガシ","prefecture_code":1},"1503":{"zip_code":"0711503","prefecture":"北海道","prefecture_kana":"ホッカイドウ","city":"上川郡東神楽町","city_kana":"カミカワグンヒガシカグラチョウ","town":"南二条西","town_kana":"ミナミ2ジョウニシ","prefecture_code":1},"1505":{"zip_code":"0711505","prefecture":"北海道","prefecture_kana":"ホッカイドウ","city":"上川郡東神楽町","city_kana":"カミカワグンヒガシカグラチョウ","town":"南三条東","town_kana":"ミナミ3ジョウヒガシ","prefecture_code":1},"1570":{"zip_code":"0711570","prefecture":"北海道","prefecture_kana":"ホッカイドウ","city":"上川郡東神楽町","city_kana":"カミカワグンヒガシカグラチョウ","town":"南１３号","town_kana":"ミナミ13ゴウ","prefecture_code":1},"1577":{"zip_code":"0711577","prefecture":"北海道","prefecture_kana":"ホッカイドウ","city":"上川郡東神楽町","city_kana":"カミカワグンヒガシカグラチョウ","town":"八千代ケ岡","town_kana":"ヤチヨガオカ","prefecture_code":1},"1533":{"zip_code":"0711533","prefecture":"北海道","prefecture_kana":"ホッカイドウ","city":"上川郡東神楽町","city_kana":"カミカワグンヒガシカグラチョウ","town":"３号","town_kana":"3ゴウ","prefecture_code":1},"1534":{"zip_code":"0711534","prefecture":"北海道","prefecture_kana":"ホッカイドウ","city":"上川郡東神楽町","city_kana":"カミカワグンヒガシカグラチョウ","town":"４号","town_kana":"4ゴウ","prefecture_code":1},"1535":{"zip_code":"0711535","prefecture":"北海道","prefecture_kana":"ホッカイドウ","city":"上川郡東神楽町","city_kana":"カミカワグンヒガシカグラチョウ","town":"５号","town_kana":"5ゴウ","prefecture_code":1},"1536":{"zip_code":"0711536","prefecture":"北海道","prefecture_kana":"ホッカイドウ","city":"上川郡東神楽町","city_kana":"カミカワグンヒガシカグラチョウ","town":"６号","town_kana":"6ゴウ","prefecture_code":1},"1537":{"zip_code":"0711537","prefecture":"北海道","prefecture_kana":"ホッカイドウ","city":"上川郡東神楽町","city_kana":"カミカワグンヒガシカグラチョウ","town":"７号","town_kana":"7ゴウ","prefecture_code":1},"1538":{"zip_code":"0711538","prefecture":"北海道","prefecture_kana":"ホッカイドウ","city":"上川郡東神楽町","city_kana":"カミカワグンヒガシカグラチョウ","town":"８号","town_kana":"8ゴウ","prefecture_code":1},"1539":{"zip_code":"0711539","prefecture":"北海道","prefecture_kana":"ホッカイドウ","city":"上川郡東神楽町","city_kana":"カミカワグンヒガシカグラチョウ","town":"９号","town_kana":"9ゴウ","prefecture_code":1},"1540":{"zip_code":"0711540","prefecture":"北海道","prefecture_kana":"ホッカイドウ","city":"上川郡東神楽町","city_kana":"カミカワグンヒガシカグラチョウ","town":"１０号","town_kana":"10ゴウ","prefecture_code":1},"1541":{"zip_code":"0711541","prefecture":"北海道","prefecture_kana":"ホッカイドウ","city":"上川郡東神楽町","city_kana":"カミカワグンヒガシカグラチョウ","town":"１１号","town_kana":"11ゴウ","prefecture_code":1},"1542":{"zip_code":"0711542","prefecture":"北海道","prefecture_kana":"ホッカイドウ","city":"上川郡東神楽町","city_kana":"カミカワグンヒガシカグラチョウ","town":"１２号","town_kana":"12ゴウ","prefecture_code":1},"1543":{"zip_code":"0711543","prefecture":"北海道","prefecture_kana":"ホッカイドウ","city":"上川郡東神楽町","city_kana":"カミカワグンヒガシカグラチョウ","town":"１３号","town_kana":"13ゴウ","prefecture_code":1},"1544":{"zip_code":"0711544","prefecture":"北海道","prefecture_kana":"ホッカイドウ","city":"上川郡東神楽町","city_kana":"カミカワグンヒガシカグラチョウ","town":"１４号","town_kana":"14ゴウ","prefecture_code":1},"1545":{"zip_code":"0711545","prefecture":"北海道","prefecture_kana":"ホッカイドウ","city":"上川郡東神楽町","city_kana":"カミカワグンヒガシカグラチョウ","town":"１５号","town_kana":"15ゴウ","prefecture_code":1},"1546":{"zip_code":"0711546","prefecture":"北海道","prefecture_kana":"ホッカイドウ","city":"上川郡東神楽町","city_kana":"カミカワグンヒガシカグラチョウ","town":"１６号","town_kana":"16ゴウ","prefecture_code":1},"1547":{"zip_code":"0711547","prefecture":"北海道","prefecture_kana":"ホッカイドウ","city":"上川郡東神楽町","city_kana":"カミカワグンヒガシカグラチョウ","town":"１７号","town_kana":"17ゴウ","prefecture_code":1},"1548":{"zip_code":"0711548","prefecture":"北海道","prefecture_kana":"ホッカイドウ","city":"上川郡東神楽町","city_kana":"カミカワグンヒガシカグラチョウ","town":"１８号","town_kana":"18ゴウ","prefecture_code":1},"1549":{"zip_code":"0711549","prefecture":"北海道","prefecture_kana":"ホッカイドウ","city":"上川郡東神楽町","city_kana":"カミカワグンヒガシカグラチョウ","town":"１９号","town_kana":"19ゴウ","prefecture_code":1},"1550":{"zip_code":"0711550","prefecture":"北海道","prefecture_kana":"ホッカイドウ","city":"上川郡東神楽町","city_kana":"カミカワグンヒガシカグラチョウ","town":"２０号","town_kana":"20ゴウ","prefecture_code":1},"1551":{"zip_code":"0711551","prefecture":"北海道","prefecture_kana":"ホッカイドウ","city":"上川郡東神楽町","city_kana":"カミカワグンヒガシカグラチョウ","town":"２１号","town_kana":"21ゴウ","prefecture_code":1},"1552":{"zip_code":"0711552","prefecture":"北海道","prefecture_kana":"ホッカイドウ","city":"上川郡東神楽町","city_kana":"カミカワグンヒガシカグラチョウ","town":"２２号","town_kana":"22ゴウ","prefecture_code":1},"1553":{"zip_code":"0711553","prefecture":"北海道","prefecture_kana":"ホッカイドウ","city":"上川郡東神楽町","city_kana":"カミカワグンヒガシカグラチョウ","town":"２３号","town_kana":"23ゴウ","prefecture_code":1},"1554":{"zip_code":"0711554","prefecture":"北海道","prefecture_kana":"ホッカイドウ","city":"上川郡東神楽町","city_kana":"カミカワグンヒガシカグラチョウ","town":"２４号","town_kana":"24ゴウ","prefecture_code":1},"1555":{"zip_code":"0711555","prefecture":"北海道","prefecture_kana":"ホッカイドウ","city":"上川郡東神楽町","city_kana":"カミカワグンヒガシカグラチョウ","town":"２５号","town_kana":"25ゴウ","prefecture_code":1},"1556":{"zip_code":"0711556","prefecture":"北海道","prefecture_kana":"ホッカイドウ","city":"上川郡東神楽町","city_kana":"カミカワグンヒガシカグラチョウ","town":"２６号","town_kana":"26ゴウ","prefecture_code":1},"1557":{"zip_code":"0711557","prefecture":"北海道","prefecture_kana":"ホッカイドウ","city":"上川郡東神楽町","city_kana":"カミカワグンヒガシカグラチョウ","town":"２７号","town_kana":"27ゴウ","prefecture_code":1},"1400":{"zip_code":"0711400","prefecture":"北海道","prefecture_kana":"ホッカイドウ","city":"上川郡東川町","city_kana":"カミカワグンヒガシカワチョウ","town":"","town_kana":"","prefecture_code":1},"1426":{"zip_code":"0711426","prefecture":"北海道","prefecture_kana":"ホッカイドウ","city":"上川郡東川町","city_kana":"カミカワグンヒガシカワチョウ","town":"北町","town_kana":"キタマチ","prefecture_code":1},"1465":{"zip_code":"0711465","prefecture":"北海道","prefecture_kana":"ホッカイドウ","city":"上川郡東川町","city_kana":"カミカワグンヒガシカワチョウ","town":"北５線","town_kana":"キタ5セン","prefecture_code":1},"1466":{"zip_code":"0711466","prefecture":"北海道","prefecture_kana":"ホッカイドウ","city":"上川郡東川町","city_kana":"カミカワグンヒガシカワチョウ","town":"北７線","town_kana":"キタ7セン","prefecture_code":1},"1462":{"zip_code":"0711462","prefecture":"北海道","prefecture_kana":"ホッカイドウ","city":"上川郡東川町","city_kana":"カミカワグンヒガシカワチョウ","town":"北２線東","town_kana":"キタ2センヒガシ","prefecture_code":1},"1463":{"zip_code":"0711463","prefecture":"北海道","prefecture_kana":"ホッカイドウ","city":"上川郡東川町","city_kana":"カミカワグンヒガシカワチョウ","town":"北３線東","town_kana":"キタ3センヒガシ","prefecture_code":1},"1467":{"zip_code":"0711467","prefecture":"北海道","prefecture_kana":"ホッカイドウ","city":"上川郡東川町","city_kana":"カミカワグンヒガシカワチョウ","town":"北７線東","town_kana":"キタ7センヒガシ","prefecture_code":1},"1464":{"zip_code":"0711464","prefecture":"北海道","prefecture_kana":"ホッカイドウ","city":"上川郡東川町","city_kana":"カミカワグンヒガシカワチョウ","town":"進化台","town_kana":"シンカダイ","prefecture_code":1},"1425":{"zip_code":"0711425","prefecture":"北海道","prefecture_kana":"ホッカイドウ","city":"上川郡東川町","city_kana":"カミカワグンヒガシカワチョウ","town":"西町","town_kana":"ニシマチ","prefecture_code":1},"1422":{"zip_code":"0711422","prefecture":"北海道","prefecture_kana":"ホッカイドウ","city":"上川郡東川町","city_kana":"カミカワグンヒガシカワチョウ","town":"西２号南","town_kana":"ニシ2ゴウミナミ","prefecture_code":1},"1402":{"zip_code":"0711402","prefecture":"北海道","prefecture_kana":"ホッカイドウ","city":"上川郡東川町","city_kana":"カミカワグンヒガシカワチョウ","town":"西２号北","town_kana":"ニシ2ゴウキタ","prefecture_code":1},"1403":{"zip_code":"0711403","prefecture":"北海道","prefecture_kana":"ホッカイドウ","city":"上川郡東川町","city_kana":"カミカワグンヒガシカワチョウ","town":"西３号北","town_kana":"ニシ3ゴウキタ","prefecture_code":1},"1404":{"zip_code":"0711404","prefecture":"北海道","prefecture_kana":"ホッカイドウ","city":"上川郡東川町","city_kana":"カミカワグンヒガシカワチョウ","town":"西４号北","town_kana":"ニシ4ゴウキタ","prefecture_code":1},"1405":{"zip_code":"0711405","prefecture":"北海道","prefecture_kana":"ホッカイドウ","city":"上川郡東川町","city_kana":"カミカワグンヒガシカワチョウ","town":"西５号北","town_kana":"ニシ5ゴウキタ","prefecture_code":1},"1406":{"zip_code":"0711406","prefecture":"北海道","prefecture_kana":"ホッカイドウ","city":"上川郡東川町","city_kana":"カミカワグンヒガシカワチョウ","town":"西６号北","town_kana":"ニシ6ゴウキタ","prefecture_code":1},"1407":{"zip_code":"0711407","prefecture":"北海道","prefecture_kana":"ホッカイドウ","city":"上川郡東川町","city_kana":"カミカワグンヒガシカワチョウ","town":"西７号北","town_kana":"ニシ7ゴウキタ","prefecture_code":1},"1408":{"zip_code":"0711408","prefecture":"北海道","prefecture_kana":"ホッカイドウ","city":"上川郡東川町","city_kana":"カミカワグンヒガシカワチョウ","town":"西８号北","town_kana":"ニシ8ゴウキタ","prefecture_code":1},"1409":{"zip_code":"0711409","prefecture":"北海道","prefecture_kana":"ホッカイドウ","city":"上川郡東川町","city_kana":"カミカワグンヒガシカワチョウ","town":"西９号北","town_kana":"ニシ9ゴウキタ","prefecture_code":1},"1410":{"zip_code":"0711410","prefecture":"北海道","prefecture_kana":"ホッカイドウ","city":"上川郡東川町","city_kana":"カミカワグンヒガシカワチョウ","town":"西１０号北","town_kana":"ニシ10ゴウキタ","prefecture_code":1},"1411":{"zip_code":"0711411","prefecture":"北海道","prefecture_kana":"ホッカイドウ","city":"上川郡東川町","city_kana":"カミカワグンヒガシカワチョウ","town":"西１１号北","town_kana":"ニシ11ゴウキタ","prefecture_code":1},"1412":{"zip_code":"0711412","prefecture":"北海道","prefecture_kana":"ホッカイドウ","city":"上川郡東川町","city_kana":"カミカワグンヒガシカワチョウ","town":"西１２号北","town_kana":"ニシ12ゴウキタ","prefecture_code":1},"1471":{"zip_code":"0711471","prefecture":"北海道","prefecture_kana":"ホッカイドウ","city":"上川郡東川町","city_kana":"カミカワグンヒガシカワチョウ","town":"ノカナン","town_kana":"ノカナン","prefecture_code":1},"1423":{"zip_code":"0711423","prefecture":"北海道","prefecture_kana":"ホッカイドウ","city":"上川郡東川町","city_kana":"カミカワグンヒガシカワチョウ","town":"東町","town_kana":"ヒガシマチ","prefecture_code":1},"1452":{"zip_code":"0711452","prefecture":"北海道","prefecture_kana":"ホッカイドウ","city":"上川郡東川町","city_kana":"カミカワグンヒガシカワチョウ","town":"東２号南","town_kana":"ヒガシ2ゴウミナミ","prefecture_code":1},"1432":{"zip_code":"0711432","prefecture":"北海道","prefecture_kana":"ホッカイドウ","city":"上川郡東川町","city_kana":"カミカワグンヒガシカワチョウ","town":"東２号北","town_kana":"ヒガシ2ゴウキタ","prefecture_code":1},"1453":{"zip_code":"0711453","prefecture":"北海道","prefecture_kana":"ホッカイドウ","city":"上川郡東川町","city_kana":"カミカワグンヒガシカワチョウ","town":"東３号南","town_kana":"ヒガシ3ゴウミナミ","prefecture_code":1},"1433":{"zip_code":"0711433","prefecture":"北海道","prefecture_kana":"ホッカイドウ","city":"上川郡東川町","city_kana":"カミカワグンヒガシカワチョウ","town":"東３号北","town_kana":"ヒガシ3ゴウキタ","prefecture_code":1},"1454":{"zip_code":"0711454","prefecture":"北海道","prefecture_kana":"ホッカイドウ","city":"上川郡東川町","city_kana":"カミカワグンヒガシカワチョウ","town":"東４号南","town_kana":"ヒガシ4ゴウミナミ","prefecture_code":1},"1434":{"zip_code":"0711434","prefecture":"北海道","prefecture_kana":"ホッカイドウ","city":"上川郡東川町","city_kana":"カミカワグンヒガシカワチョウ","town":"東４号北","town_kana":"ヒガシ4ゴウキタ","prefecture_code":1},"1455":{"zip_code":"0711455","prefecture":"北海道","prefecture_kana":"ホッカイドウ","city":"上川郡東川町","city_kana":"カミカワグンヒガシカワチョウ","town":"東５号南","town_kana":"ヒガシ5ゴウミナミ","prefecture_code":1},"1435":{"zip_code":"0711435","prefecture":"北海道","prefecture_kana":"ホッカイドウ","city":"上川郡東川町","city_kana":"カミカワグンヒガシカワチョウ","town":"東５号北","town_kana":"ヒガシ5ゴウキタ","prefecture_code":1},"1456":{"zip_code":"0711456","prefecture":"北海道","prefecture_kana":"ホッカイドウ","city":"上川郡東川町","city_kana":"カミカワグンヒガシカワチョウ","town":"東６号南","town_kana":"ヒガシ6ゴウミナミ","prefecture_code":1},"1436":{"zip_code":"0711436","prefecture":"北海道","prefecture_kana":"ホッカイドウ","city":"上川郡東川町","city_kana":"カミカワグンヒガシカワチョウ","town":"東６号北","town_kana":"ヒガシ6ゴウキタ","prefecture_code":1},"1457":{"zip_code":"0711457","prefecture":"北海道","prefecture_kana":"ホッカイドウ","city":"上川郡東川町","city_kana":"カミカワグンヒガシカワチョウ","town":"東７号南","town_kana":"ヒガシ7ゴウミナミ","prefecture_code":1},"1437":{"zip_code":"0711437","prefecture":"北海道","prefecture_kana":"ホッカイドウ","city":"上川郡東川町","city_kana":"カミカワグンヒガシカワチョウ","town":"東７号北","town_kana":"ヒガシ7ゴウキタ","prefecture_code":1},"1458":{"zip_code":"0711458","prefecture":"北海道","prefecture_kana":"ホッカイドウ","city":"上川郡東川町","city_kana":"カミカワグンヒガシカワチョウ","town":"東８号南","town_kana":"ヒガシ8ゴウミナミ","prefecture_code":1},"1438":{"zip_code":"0711438","prefecture":"北海道","prefecture_kana":"ホッカイドウ","city":"上川郡東川町","city_kana":"カミカワグンヒガシカワチョウ","town":"東８号北","town_kana":"ヒガシ8ゴウキタ","prefecture_code":1},"1459":{"zip_code":"0711459","prefecture":"北海道","prefecture_kana":"ホッカイドウ","city":"上川郡東川町","city_kana":"カミカワグンヒガシカワチョウ","town":"東９号南","town_kana":"ヒガシ9ゴウミナミ","prefecture_code":1},"1439":{"zip_code":"0711439","prefecture":"北海道","prefecture_kana":"ホッカイドウ","city":"上川郡東川町","city_kana":"カミカワグンヒガシカワチョウ","town":"東９号北","town_kana":"ヒガシ9ゴウキタ","prefecture_code":1},"1460":{"zip_code":"0711460","prefecture":"北海道","prefecture_kana":"ホッカイドウ","city":"上川郡東川町","city_kana":"カミカワグンヒガシカワチョウ","town":"東１０号南","town_kana":"ヒガシ10ゴウミナミ","prefecture_code":1},"1440":{"zip_code":"0711440","prefecture":"北海道","prefecture_kana":"ホッカイドウ","city":"上川郡東川町","city_kana":"カミカワグンヒガシカワチョウ","town":"東１０号北","town_kana":"ヒガシ10ゴウキタ","prefecture_code":1},"1461":{"zip_code":"0711461","prefecture":"北海道","prefecture_kana":"ホッカイドウ","city":"上川郡東川町","city_kana":"カミカワグンヒガシカワチョウ","town":"東１１号南","town_kana":"ヒガシ11ゴウミナミ","prefecture_code":1},"1441":{"zip_code":"0711441","prefecture":"北海道","prefecture_kana":"ホッカイドウ","city":"上川郡東川町","city_kana":"カミカワグンヒガシカワチョウ","town":"東１１号北","town_kana":"ヒガシ11ゴウキタ","prefecture_code":1},"1442":{"zip_code":"0711442","prefecture":"北海道","prefecture_kana":"ホッカイドウ","city":"上川郡東川町","city_kana":"カミカワグンヒガシカワチョウ","town":"東１２号北","town_kana":"ヒガシ12ゴウキタ","prefecture_code":1},"1473":{"zip_code":"0711473","prefecture":"北海道","prefecture_kana":"ホッカイドウ","city":"上川郡東川町","city_kana":"カミカワグンヒガシカワチョウ","town":"松山温泉","town_kana":"マツヤマオンセン","prefecture_code":1},"1424":{"zip_code":"0711424","prefecture":"北海道","prefecture_kana":"ホッカイドウ","city":"上川郡東川町","city_kana":"カミカワグンヒガシカワチョウ","town":"南町","town_kana":"ミナミマチ","prefecture_code":1},"1472":{"zip_code":"0711472","prefecture":"北海道","prefecture_kana":"ホッカイドウ","city":"上川郡東川町","city_kana":"カミカワグンヒガシカワチョウ","town":"勇駒別","town_kana":"ユコマンベツ","prefecture_code":1},"1451":{"zip_code":"0711451","prefecture":"北海道","prefecture_kana":"ホッカイドウ","city":"上川郡東川町","city_kana":"カミカワグンヒガシカワチョウ","town":"１号南","town_kana":"1ゴウミナミ","prefecture_code":1},"1431":{"zip_code":"0711431","prefecture":"北海道","prefecture_kana":"ホッカイドウ","city":"上川郡東川町","city_kana":"カミカワグンヒガシカワチョウ","town":"１号北","town_kana":"1ゴウキタ","prefecture_code":1},"0200":{"zip_code":"0710200","prefecture":"北海道","prefecture_kana":"ホッカイドウ","city":"上川郡美瑛町","city_kana":"カミカワグンビエイチョウ","town":"","town_kana":"","prefecture_code":1},"0261":{"zip_code":"0710261","prefecture":"北海道","prefecture_kana":"ホッカイドウ","city":"上川郡美瑛町","city_kana":"カミカワグンビエイチョウ","town":"旭","town_kana":"アサヒ","prefecture_code":1},"0212":{"zip_code":"0710212","prefecture":"北海道","prefecture_kana":"ホッカイドウ","city":"上川郡美瑛町","city_kana":"カミカワグンビエイチョウ","town":"旭町","town_kana":"アサヒマチ","prefecture_code":1},"0251":{"zip_code":"0710251","prefecture":"北海道","prefecture_kana":"ホッカイドウ","city":"上川郡美瑛町","city_kana":"カミカワグンビエイチョウ","town":"憩が丘","town_kana":"イコイガオカ","prefecture_code":1},"0249":{"zip_code":"0710249","prefecture":"北海道","prefecture_kana":"ホッカイドウ","city":"上川郡美瑛町","city_kana":"カミカワグンビエイチョウ","town":"憩町","town_kana":"イコイチョウ","prefecture_code":1},"0215":{"zip_code":"0710215","prefecture":"北海道","prefecture_kana":"ホッカイドウ","city":"上川郡美瑛町","city_kana":"カミカワグンビエイチョウ","town":"扇町","town_kana":"オウギマチ","prefecture_code":1},"0204":{"zip_code":"0710204","prefecture":"北海道","prefecture_kana":"ホッカイドウ","city":"上川郡美瑛町","city_kana":"カミカワグンビエイチョウ","town":"大町","town_kana":"オオマチ","prefecture_code":1},"0217":{"zip_code":"0710217","prefecture":"北海道","prefecture_kana":"ホッカイドウ","city":"上川郡美瑛町","city_kana":"カミカワグンビエイチョウ","town":"大村石山","town_kana":"オオムライシヤマ","prefecture_code":1},"0216":{"zip_code":"0710216","prefecture":"北海道","prefecture_kana":"ホッカイドウ","city":"上川郡美瑛町","city_kana":"カミカワグンビエイチョウ","town":"大村大久保","town_kana":"オオムラオオクボ","prefecture_code":1},"0219":{"zip_code":"0710219","prefecture":"北海道","prefecture_kana":"ホッカイドウ","city":"上川郡美瑛町","city_kana":"カミカワグンビエイチョウ","town":"大村中本","town_kana":"オオムラナカモト","prefecture_code":1},"0218":{"zip_code":"0710218","prefecture":"北海道","prefecture_kana":"ホッカイドウ","city":"上川郡美瑛町","city_kana":"カミカワグンビエイチョウ","town":"大村村山","town_kana":"オオムラムラヤマ","prefecture_code":1},"0234":{"zip_code":"0710234","prefecture":"北海道","prefecture_kana":"ホッカイドウ","city":"上川郡美瑛町","city_kana":"カミカワグンビエイチョウ","town":"置杵牛","town_kana":"オキキネウシ","prefecture_code":1},"0229":{"zip_code":"0710229","prefecture":"北海道","prefecture_kana":"ホッカイドウ","city":"上川郡美瑛町","city_kana":"カミカワグンビエイチョウ","town":"上宇莫別","town_kana":"カミウバクベツ","prefecture_code":1},"0206":{"zip_code":"0710206","prefecture":"北海道","prefecture_kana":"ホッカイドウ","city":"上川郡美瑛町","city_kana":"カミカワグンビエイチョウ","town":"北町","town_kana":"キタマチ","prefecture_code":1},"0209":{"zip_code":"0710209","prefecture":"北海道","prefecture_kana":"ホッカイドウ","city":"上川郡美瑛町","city_kana":"カミカワグンビエイチョウ","town":"寿町","town_kana":"コトブキチョウ","prefecture_code":1},"0223":{"zip_code":"0710223","prefecture":"北海道","prefecture_kana":"ホッカイドウ","city":"上川郡美瑛町","city_kana":"カミカワグンビエイチョウ","town":"五稜","town_kana":"ゴリョウ","prefecture_code":1},"0214":{"zip_code":"0710214","prefecture":"北海道","prefecture_kana":"ホッカイドウ","city":"上川郡美瑛町","city_kana":"カミカワグンビエイチョウ","town":"幸町","town_kana":"サイワイチョウ","prefecture_code":1},"0205":{"zip_code":"0710205","prefecture":"北海道","prefecture_kana":"ホッカイドウ","city":"上川郡美瑛町","city_kana":"カミカワグンビエイチョウ","town":"栄町","town_kana":"サカエマチ","prefecture_code":1},"0247":{"zip_code":"0710247","prefecture":"北海道","prefecture_kana":"ホッカイドウ","city":"上川郡美瑛町","city_kana":"カミカワグンビエイチョウ","town":"三愛大曲","town_kana":"サンアイオオマガリ","prefecture_code":1},"0240":{"zip_code":"0710240","prefecture":"北海道","prefecture_kana":"ホッカイドウ","city":"上川郡美瑛町","city_kana":"カミカワグンビエイチョウ","town":"三愛緑","town_kana":"サンアイミドリ","prefecture_code":1},"0226":{"zip_code":"0710226","prefecture":"北海道","prefecture_kana":"ホッカイドウ","city":"上川郡美瑛町","city_kana":"カミカワグンビエイチョウ","town":"下宇莫別","town_kana":"シモウバクベツ","prefecture_code":1},"0235":{"zip_code":"0710235","prefecture":"北海道","prefecture_kana":"ホッカイドウ","city":"上川郡美瑛町","city_kana":"カミカワグンビエイチョウ","town":"白金","town_kana":"シロガネ","prefecture_code":1},"0233":{"zip_code":"0710233","prefecture":"北海道","prefecture_kana":"ホッカイドウ","city":"上川郡美瑛町","city_kana":"カミカワグンビエイチョウ","town":"新区画","town_kana":"シンクカク","prefecture_code":1},"0473":{"zip_code":"0710473","prefecture":"北海道","prefecture_kana":"ホッカイドウ","city":"上川郡美瑛町","city_kana":"カミカワグンビエイチョウ","town":"新星","town_kana":"シンセイ","prefecture_code":1},"0474":{"zip_code":"0710474","prefecture":"北海道","prefecture_kana":"ホッカイドウ","city":"上川郡美瑛町","city_kana":"カミカワグンビエイチョウ","town":"拓進","town_kana":"タクシン","prefecture_code":1},"0353":{"zip_code":"0710353","prefecture":"北海道","prefecture_kana":"ホッカイドウ","city":"上川郡美瑛町","city_kana":"カミカワグンビエイチョウ","town":"俵真布","town_kana":"タワラマップ","prefecture_code":1},"1474":{"zip_code":"0711474","prefecture":"北海道","prefecture_kana":"ホッカイドウ","city":"上川郡美瑛町","city_kana":"カミカワグンビエイチョウ","town":"忠別","town_kana":"チュウベツ","prefecture_code":1},"0355":{"zip_code":"0710355","prefecture":"北海道","prefecture_kana":"ホッカイドウ","city":"上川郡美瑛町","city_kana":"カミカワグンビエイチョウ","town":"天人峡","town_kana":"テンニンキョウ","prefecture_code":1},"0475":{"zip_code":"0710475","prefecture":"北海道","prefecture_kana":"ホッカイドウ","city":"上川郡美瑛町","city_kana":"カミカワグンビエイチョウ","town":"常盤","town_kana":"トキワ","prefecture_code":1},"0228":{"zip_code":"0710228","prefecture":"北海道","prefecture_kana":"ホッカイドウ","city":"上川郡美瑛町","city_kana":"カミカワグンビエイチョウ","town":"中宇莫別","town_kana":"ナカウバクベツ","prefecture_code":1},"0227":{"zip_code":"0710227","prefecture":"北海道","prefecture_kana":"ホッカイドウ","city":"上川郡美瑛町","city_kana":"カミカワグンビエイチョウ","town":"中宇莫別赤羽","town_kana":"ナカウバクベツアカバネ","prefecture_code":1},"0207":{"zip_code":"0710207","prefecture":"北海道","prefecture_kana":"ホッカイドウ","city":"上川郡美瑛町","city_kana":"カミカワグンビエイチョウ","town":"中町","town_kana":"ナカマチ","prefecture_code":1},"0211":{"zip_code":"0710211","prefecture":"北海道","prefecture_kana":"ホッカイドウ","city":"上川郡美瑛町","city_kana":"カミカワグンビエイチョウ","town":"錦町","town_kana":"ニシキマチ","prefecture_code":1},"0203":{"zip_code":"0710203","prefecture":"北海道","prefecture_kana":"ホッカイドウ","city":"上川郡美瑛町","city_kana":"カミカワグンビエイチョウ","town":"西町","town_kana":"ニシマチ","prefecture_code":1},"0248":{"zip_code":"0710248","prefecture":"北海道","prefecture_kana":"ホッカイドウ","city":"上川郡美瑛町","city_kana":"カミカワグンビエイチョウ","town":"花園","town_kana":"ハナゾノ","prefecture_code":1},"0239":{"zip_code":"0710239","prefecture":"北海道","prefecture_kana":"ホッカイドウ","city":"上川郡美瑛町","city_kana":"カミカワグンビエイチョウ","town":"美瑛原野原野","town_kana":"ビエイゲンヤゲンヤ","prefecture_code":1},"0213":{"zip_code":"0710213","prefecture":"北海道","prefecture_kana":"ホッカイドウ","city":"上川郡美瑛町","city_kana":"カミカワグンビエイチョウ","town":"東町","town_kana":"ヒガシマチ","prefecture_code":1},"0471":{"zip_code":"0710471","prefecture":"北海道","prefecture_kana":"ホッカイドウ","city":"上川郡美瑛町","city_kana":"カミカワグンビエイチョウ","town":"美馬牛","town_kana":"ビバウシ","prefecture_code":1},"0461":{"zip_code":"0710461","prefecture":"北海道","prefecture_kana":"ホッカイドウ","city":"上川郡美瑛町","city_kana":"カミカワグンビエイチョウ","town":"美馬牛北","town_kana":"ビバウシキタ","prefecture_code":1},"0472":{"zip_code":"0710472","prefecture":"北海道","prefecture_kana":"ホッカイドウ","city":"上川郡美瑛町","city_kana":"カミカワグンビエイチョウ","town":"美馬牛市街地","town_kana":"ビバウシシガイチ","prefecture_code":1},"0462":{"zip_code":"0710462","prefecture":"北海道","prefecture_kana":"ホッカイドウ","city":"上川郡美瑛町","city_kana":"カミカワグンビエイチョウ","town":"美馬牛南","town_kana":"ビバウシミナミ","prefecture_code":1},"0245":{"zip_code":"0710245","prefecture":"北海道","prefecture_kana":"ホッカイドウ","city":"上川郡美瑛町","city_kana":"カミカワグンビエイチョウ","town":"福富","town_kana":"フクトミ","prefecture_code":1},"0246":{"zip_code":"0710246","prefecture":"北海道","prefecture_kana":"ホッカイドウ","city":"上川郡美瑛町","city_kana":"カミカワグンビエイチョウ","town":"福富","town_kana":"フクトミ","prefecture_code":1},"0244":{"zip_code":"0710244","prefecture":"北海道","prefecture_kana":"ホッカイドウ","city":"上川郡美瑛町","city_kana":"カミカワグンビエイチョウ","town":"福富福美沢","town_kana":"フクトミフクミザワ","prefecture_code":1},"0237":{"zip_code":"0710237","prefecture":"北海道","prefecture_kana":"ホッカイドウ","city":"上川郡美瑛町","city_kana":"カミカワグンビエイチョウ","town":"福富豊栄","town_kana":"フクトミホウエイ","prefecture_code":1},"0243":{"zip_code":"0710243","prefecture":"北海道","prefecture_kana":"ホッカイドウ","city":"上川郡美瑛町","city_kana":"カミカワグンビエイチョウ","town":"福富間宮","town_kana":"フクトミマミヤ","prefecture_code":1},"0238":{"zip_code":"0710238","prefecture":"北海道","prefecture_kana":"ホッカイドウ","city":"上川郡美瑛町","city_kana":"カミカワグンビエイチョウ","town":"藤野","town_kana":"フジノ","prefecture_code":1},"0477":{"zip_code":"0710477","prefecture":"北海道","prefecture_kana":"ホッカイドウ","city":"上川郡美瑛町","city_kana":"カミカワグンビエイチョウ","town":"二股","town_kana":"フタマタ","prefecture_code":1},"0224":{"zip_code":"0710224","prefecture":"北海道","prefecture_kana":"ホッカイドウ","city":"上川郡美瑛町","city_kana":"カミカワグンビエイチョウ","town":"北瑛","town_kana":"ホクエイ","prefecture_code":1},"0201":{"zip_code":"0710201","prefecture":"北海道","prefecture_kana":"ホッカイドウ","city":"上川郡美瑛町","city_kana":"カミカワグンビエイチョウ","town":"丸山","town_kana":"マルヤマ","prefecture_code":1},"0236":{"zip_code":"0710236","prefecture":"北海道","prefecture_kana":"ホッカイドウ","city":"上川郡美瑛町","city_kana":"カミカワグンビエイチョウ","town":"美沢","town_kana":"ミサワ","prefecture_code":1},"0242":{"zip_code":"0710242","prefecture":"北海道","prefecture_kana":"ホッカイドウ","city":"上川郡美瑛町","city_kana":"カミカワグンビエイチョウ","town":"水沢","town_kana":"ミズサワ","prefecture_code":1},"0241":{"zip_code":"0710241","prefecture":"北海道","prefecture_kana":"ホッカイドウ","city":"上川郡美瑛町","city_kana":"カミカワグンビエイチョウ","town":"水沢水上","town_kana":"ミズサワミズカミ","prefecture_code":1},"0479":{"zip_code":"0710479","prefecture":"北海道","prefecture_kana":"ホッカイドウ","city":"上川郡美瑛町","city_kana":"カミカワグンビエイチョウ","town":"美園","town_kana":"ミソノ","prefecture_code":1},"0222":{"zip_code":"0710222","prefecture":"北海道","prefecture_kana":"ホッカイドウ","city":"上川郡美瑛町","city_kana":"カミカワグンビエイチョウ","town":"美田","town_kana":"ミタ","prefecture_code":1},"0221":{"zip_code":"0710221","prefecture":"北海道","prefecture_kana":"ホッカイドウ","city":"上川郡美瑛町","city_kana":"カミカワグンビエイチョウ","town":"美田夕張","town_kana":"ミタユウバリ","prefecture_code":1},"0202":{"zip_code":"0710202","prefecture":"北海道","prefecture_kana":"ホッカイドウ","city":"上川郡美瑛町","city_kana":"カミカワグンビエイチョウ","town":"南町","town_kana":"ミナミマチ","prefecture_code":1},"0476":{"zip_code":"0710476","prefecture":"北海道","prefecture_kana":"ホッカイドウ","city":"上川郡美瑛町","city_kana":"カミカワグンビエイチョウ","town":"御牧","town_kana":"ミマキ","prefecture_code":1},"0231":{"zip_code":"0710231","prefecture":"北海道","prefecture_kana":"ホッカイドウ","city":"上川郡美瑛町","city_kana":"カミカワグンビエイチョウ","town":"明治","town_kana":"メイジ","prefecture_code":1},"0225":{"zip_code":"0710225","prefecture":"北海道","prefecture_kana":"ホッカイドウ","city":"上川郡美瑛町","city_kana":"カミカワグンビエイチョウ","town":"明治大三","town_kana":"メイジダイサン","prefecture_code":1},"0232":{"zip_code":"0710232","prefecture":"北海道","prefecture_kana":"ホッカイドウ","city":"上川郡美瑛町","city_kana":"カミカワグンビエイチョウ","town":"明治沼崎","town_kana":"メイジヌマザキ","prefecture_code":1},"0208":{"zip_code":"0710208","prefecture":"北海道","prefecture_kana":"ホッカイドウ","city":"上川郡美瑛町","city_kana":"カミカワグンビエイチョウ","town":"本町","town_kana":"モトマチ","prefecture_code":1},"0351":{"zip_code":"0710351","prefecture":"北海道","prefecture_kana":"ホッカイドウ","city":"上川郡美瑛町","city_kana":"カミカワグンビエイチョウ","town":"横牛","town_kana":"ヨコウシ","prefecture_code":1},"0478":{"zip_code":"0710478","prefecture":"北海道","prefecture_kana":"ホッカイドウ","city":"上川郡美瑛町","city_kana":"カミカワグンビエイチョウ","town":"瑠辺蘂","town_kana":"ルベシベ","prefecture_code":1},"0352":{"zip_code":"0710352","prefecture":"北海道","prefecture_kana":"ホッカイドウ","city":"上川郡美瑛町","city_kana":"カミカワグンビエイチョウ","town":"朗根内","town_kana":"ロウネナイ","prefecture_code":1},"0500":{"zip_code":"0710500","prefecture":"北海道","prefecture_kana":"ホッカイドウ","city":"空知郡上富良野町","city_kana":"ソラチグンカミフラノチョウ","town":"","town_kana":"","prefecture_code":1},"0553":{"zip_code":"0710553","prefecture":"北海道","prefecture_kana":"ホッカイドウ","city":"空知郡上富良野町","city_kana":"ソラチグンカミフラノチョウ","town":"旭町","town_kana":"アサヒマチ","prefecture_code":1},"0571":{"zip_code":"0710571","prefecture":"北海道","prefecture_kana":"ホッカイドウ","city":"空知郡上富良野町","city_kana":"ソラチグンカミフラノチョウ","town":"新井牧場","town_kana":"アライボクジョウ","prefecture_code":1},"0547":{"zip_code":"0710547","prefecture":"北海道","prefecture_kana":"ホッカイドウ","city":"空知郡上富良野町","city_kana":"ソラチグンカミフラノチョウ","town":"泉町","town_kana":"イズミマチ","prefecture_code":1},"0548":{"zip_code":"0710548","prefecture":"北海道","prefecture_kana":"ホッカイドウ","city":"空知郡上富良野町","city_kana":"ソラチグンカミフラノチョウ","town":"扇町","town_kana":"オウギマチ","prefecture_code":1},"0561":{"zip_code":"0710561","prefecture":"北海道","prefecture_kana":"ホッカイドウ","city":"空知郡上富良野町","city_kana":"ソラチグンカミフラノチョウ","town":"大町","town_kana":"オオマチ","prefecture_code":1},"0565":{"zip_code":"0710565","prefecture":"北海道","prefecture_kana":"ホッカイドウ","city":"空知郡上富良野町","city_kana":"ソラチグンカミフラノチョウ","town":"丘町","town_kana":"オカマチ","prefecture_code":1},"0520":{"zip_code":"0710520","prefecture":"北海道","prefecture_kana":"ホッカイドウ","city":"空知郡上富良野町","city_kana":"ソラチグンカミフラノチョウ","town":"基線北","town_kana":"キセンキタ","prefecture_code":1},"0549":{"zip_code":"0710549","prefecture":"北海道","prefecture_kana":"ホッカイドウ","city":"空知郡上富良野町","city_kana":"ソラチグンカミフラノチョウ","town":"北町","town_kana":"キタマチ","prefecture_code":1},"0544":{"zip_code":"0710544","prefecture":"北海道","prefecture_kana":"ホッカイドウ","city":"空知郡上富良野町","city_kana":"ソラチグンカミフラノチョウ","town":"栄町","town_kana":"サカエマチ","prefecture_code":1},"0564":{"zip_code":"0710564","prefecture":"北海道","prefecture_kana":"ホッカイドウ","city":"空知郡上富良野町","city_kana":"ソラチグンカミフラノチョウ","town":"桜町","town_kana":"サクラマチ","prefecture_code":1},"0576":{"zip_code":"0710576","prefecture":"北海道","prefecture_kana":"ホッカイドウ","city":"空知郡上富良野町","city_kana":"ソラチグンカミフラノチョウ","town":"十人牧場","town_kana":"ジュウニンボクジョウ","prefecture_code":1},"0554":{"zip_code":"0710554","prefecture":"北海道","prefecture_kana":"ホッカイドウ","city":"空知郡上富良野町","city_kana":"ソラチグンカミフラノチョウ","town":"新町","town_kana":"シンマチ","prefecture_code":1},"0574":{"zip_code":"0710574","prefecture":"北海道","prefecture_kana":"ホッカイドウ","city":"空知郡上富良野町","city_kana":"ソラチグンカミフラノチョウ","town":"第１安井牧場","town_kana":"ダイ1ヤスイボクジョウ","prefecture_code":1},"0575":{"zip_code":"0710575","prefecture":"北海道","prefecture_kana":"ホッカイドウ","city":"空知郡上富良野町","city_kana":"ソラチグンカミフラノチョウ","town":"第２安井牧場","town_kana":"ダイ2ヤスイボクジョウ","prefecture_code":1},"0583":{"zip_code":"0710583","prefecture":"北海道","prefecture_kana":"ホッカイドウ","city":"空知郡上富良野町","city_kana":"ソラチグンカミフラノチョウ","town":"津郷農場","town_kana":"ツゴウノウジョウ","prefecture_code":1},"0541":{"zip_code":"0710541","prefecture":"北海道","prefecture_kana":"ホッカイドウ","city":"空知郡上富良野町","city_kana":"ソラチグンカミフラノチョウ","town":"富町","town_kana":"トミマチ","prefecture_code":1},"0577":{"zip_code":"0710577","prefecture":"北海道","prefecture_kana":"ホッカイドウ","city":"空知郡上富良野町","city_kana":"ソラチグンカミフラノチョウ","town":"中の沢","town_kana":"ナカノサワ","prefecture_code":1},"0543":{"zip_code":"0710543","prefecture":"北海道","prefecture_kana":"ホッカイドウ","city":"空知郡上富良野町","city_kana":"ソラチグンカミフラノチョウ","town":"中町","town_kana":"ナカマチ","prefecture_code":1},"0542":{"zip_code":"0710542","prefecture":"北海道","prefecture_kana":"ホッカイドウ","city":"空知郡上富良野町","city_kana":"ソラチグンカミフラノチョウ","town":"錦町","town_kana":"ニシキマチ","prefecture_code":1},"0534":{"zip_code":"0710534","prefecture":"北海道","prefecture_kana":"ホッカイドウ","city":"空知郡上富良野町","city_kana":"ソラチグンカミフラノチョウ","town":"西谷牧場","town_kana":"ニシタニボクジョウ","prefecture_code":1},"0546":{"zip_code":"0710546","prefecture":"北海道","prefecture_kana":"ホッカイドウ","city":"空知郡上富良野町","city_kana":"ソラチグンカミフラノチョウ","town":"西町","town_kana":"ニシマチ","prefecture_code":1},"0501":{"zip_code":"0710501","prefecture":"北海道","prefecture_kana":"ホッカイドウ","city":"空知郡上富良野町","city_kana":"ソラチグンカミフラノチョウ","town":"西１線北","town_kana":"ニシ1センキタ","prefecture_code":1},"0502":{"zip_code":"0710502","prefecture":"北海道","prefecture_kana":"ホッカイドウ","city":"空知郡上富良野町","city_kana":"ソラチグンカミフラノチョウ","town":"西２線北","town_kana":"ニシ2センキタ","prefecture_code":1},"0503":{"zip_code":"0710503","prefecture":"北海道","prefecture_kana":"ホッカイドウ","city":"空知郡上富良野町","city_kana":"ソラチグンカミフラノチョウ","town":"西３線北","town_kana":"ニシ3センキタ","prefecture_code":1},"0504":{"zip_code":"0710504","prefecture":"北海道","prefecture_kana":"ホッカイドウ","city":"空知郡上富良野町","city_kana":"ソラチグンカミフラノチョウ","town":"西４線北","town_kana":"ニシ4センキタ","prefecture_code":1},"0505":{"zip_code":"0710505","prefecture":"北海道","prefecture_kana":"ホッカイドウ","city":"空知郡上富良野町","city_kana":"ソラチグンカミフラノチョウ","town":"西５線北","town_kana":"ニシ5センキタ","prefecture_code":1},"0506":{"zip_code":"0710506","prefecture":"北海道","prefecture_kana":"ホッカイドウ","city":"空知郡上富良野町","city_kana":"ソラチグンカミフラノチョウ","town":"西６線北","town_kana":"ニシ6センキタ","prefecture_code":1},"0507":{"zip_code":"0710507","prefecture":"北海道","prefecture_kana":"ホッカイドウ","city":"空知郡上富良野町","city_kana":"ソラチグンカミフラノチョウ","town":"西７線北","town_kana":"ニシ7センキタ","prefecture_code":1},"0508":{"zip_code":"0710508","prefecture":"北海道","prefecture_kana":"ホッカイドウ","city":"空知郡上富良野町","city_kana":"ソラチグンカミフラノチョウ","town":"西８線北","town_kana":"ニシ8センキタ","prefecture_code":1},"0509":{"zip_code":"0710509","prefecture":"北海道","prefecture_kana":"ホッカイドウ","city":"空知郡上富良野町","city_kana":"ソラチグンカミフラノチョウ","town":"西９線北","town_kana":"ニシ9センキタ","prefecture_code":1},"0510":{"zip_code":"0710510","prefecture":"北海道","prefecture_kana":"ホッカイドウ","city":"空知郡上富良野町","city_kana":"ソラチグンカミフラノチョウ","town":"西１０線北","town_kana":"ニシ10センキタ","prefecture_code":1},"0511":{"zip_code":"0710511","prefecture":"北海道","prefecture_kana":"ホッカイドウ","city":"空知郡上富良野町","city_kana":"ソラチグンカミフラノチョウ","town":"西１１線北","town_kana":"ニシ11センキタ","prefecture_code":1},"0512":{"zip_code":"0710512","prefecture":"北海道","prefecture_kana":"ホッカイドウ","city":"空知郡上富良野町","city_kana":"ソラチグンカミフラノチョウ","town":"西１２線北","town_kana":"ニシ12センキタ","prefecture_code":1},"0513":{"zip_code":"0710513","prefecture":"北海道","prefecture_kana":"ホッカイドウ","city":"空知郡上富良野町","city_kana":"ソラチグンカミフラノチョウ","town":"西１３線北","town_kana":"ニシ13センキタ","prefecture_code":1},"0514":{"zip_code":"0710514","prefecture":"北海道","prefecture_kana":"ホッカイドウ","city":"空知郡上富良野町","city_kana":"ソラチグンカミフラノチョウ","town":"西１４線北","town_kana":"ニシ14センキタ","prefecture_code":1},"0515":{"zip_code":"0710515","prefecture":"北海道","prefecture_kana":"ホッカイドウ","city":"空知郡上富良野町","city_kana":"ソラチグンカミフラノチョウ","town":"西１５線北","town_kana":"ニシ15センキタ","prefecture_code":1},"0516":{"zip_code":"0710516","prefecture":"北海道","prefecture_kana":"ホッカイドウ","city":"空知郡上富良野町","city_kana":"ソラチグンカミフラノチョウ","town":"西１６線北","town_kana":"ニシ16センキタ","prefecture_code":1},"0517":{"zip_code":"0710517","prefecture":"北海道","prefecture_kana":"ホッカイドウ","city":"空知郡上富良野町","city_kana":"ソラチグンカミフラノチョウ","town":"沼崎農場","town_kana":"ヌマザキノウジョウ","prefecture_code":1},"0533":{"zip_code":"0710533","prefecture":"北海道","prefecture_kana":"ホッカイドウ","city":"空知郡上富良野町","city_kana":"ソラチグンカミフラノチョウ","town":"倍本農場","town_kana":"バイホンノウジョウ","prefecture_code":1},"0545":{"zip_code":"0710545","prefecture":"北海道","prefecture_kana":"ホッカイドウ","city":"空知郡上富良野町","city_kana":"ソラチグンカミフラノチョウ","town":"光町","town_kana":"ヒカリマチ","prefecture_code":1},"0555":{"zip_code":"0710555","prefecture":"北海道","prefecture_kana":"ホッカイドウ","city":"空知郡上富良野町","city_kana":"ソラチグンカミフラノチョウ","town":"東町","town_kana":"ヒガシマチ","prefecture_code":1},"0521":{"zip_code":"0710521","prefecture":"北海道","prefecture_kana":"ホッカイドウ","city":"空知郡上富良野町","city_kana":"ソラチグンカミフラノチョウ","town":"東１線北","town_kana":"ヒガシ1センキタ","prefecture_code":1},"0522":{"zip_code":"0710522","prefecture":"北海道","prefecture_kana":"ホッカイドウ","city":"空知郡上富良野町","city_kana":"ソラチグンカミフラノチョウ","town":"東２線北","town_kana":"ヒガシ2センキタ","prefecture_code":1},"0523":{"zip_code":"0710523","prefecture":"北海道","prefecture_kana":"ホッカイドウ","city":"空知郡上富良野町","city_kana":"ソラチグンカミフラノチョウ","town":"東３線北","town_kana":"ヒガシ3センキタ","prefecture_code":1},"0524":{"zip_code":"0710524","prefecture":"北海道","prefecture_kana":"ホッカイドウ","city":"空知郡上富良野町","city_kana":"ソラチグンカミフラノチョウ","town":"東４線北","town_kana":"ヒガシ4センキタ","prefecture_code":1},"0525":{"zip_code":"0710525","prefecture":"北海道","prefecture_kana":"ホッカイドウ","city":"空知郡上富良野町","city_kana":"ソラチグンカミフラノチョウ","town":"東５線北","town_kana":"ヒガシ5センキタ","prefecture_code":1},"0526":{"zip_code":"0710526","prefecture":"北海道","prefecture_kana":"ホッカイドウ","city":"空知郡上富良野町","city_kana":"ソラチグンカミフラノチョウ","town":"東６線北","town_kana":"ヒガシ6センキタ","prefecture_code":1},"0527":{"zip_code":"0710527","prefecture":"北海道","prefecture_kana":"ホッカイドウ","city":"空知郡上富良野町","city_kana":"ソラチグンカミフラノチョウ","town":"東７線北","town_kana":"ヒガシ7センキタ","prefecture_code":1},"0528":{"zip_code":"0710528","prefecture":"北海道","prefecture_kana":"ホッカイドウ","city":"空知郡上富良野町","city_kana":"ソラチグンカミフラノチョウ","town":"東８線北","town_kana":"ヒガシ8センキタ","prefecture_code":1},"0529":{"zip_code":"0710529","prefecture":"北海道","prefecture_kana":"ホッカイドウ","city":"空知郡上富良野町","city_kana":"ソラチグンカミフラノチョウ","town":"東９線北","town_kana":"ヒガシ9センキタ","prefecture_code":1},"0530":{"zip_code":"0710530","prefecture":"北海道","prefecture_kana":"ホッカイドウ","city":"空知郡上富良野町","city_kana":"ソラチグンカミフラノチョウ","town":"東１０線北","town_kana":"ヒガシ10センキタ","prefecture_code":1},"0531":{"zip_code":"0710531","prefecture":"北海道","prefecture_kana":"ホッカイドウ","city":"空知郡上富良野町","city_kana":"ソラチグンカミフラノチョウ","town":"東１１線北","town_kana":"ヒガシ11センキタ","prefecture_code":1},"0532":{"zip_code":"0710532","prefecture":"北海道","prefecture_kana":"ホッカイドウ","city":"空知郡上富良野町","city_kana":"ソラチグンカミフラノチョウ","town":"東１２線北","town_kana":"ヒガシ12センキタ","prefecture_code":1},"0579":{"zip_code":"0710579","prefecture":"北海道","prefecture_kana":"ホッカイドウ","city":"空知郡上富良野町","city_kana":"ソラチグンカミフラノチョウ","town":"吹上","town_kana":"フキアゲ","prefecture_code":1},"0572":{"zip_code":"0710572","prefecture":"北海道","prefecture_kana":"ホッカイドウ","city":"空知郡上富良野町","city_kana":"ソラチグンカミフラノチョウ","town":"細野農場","town_kana":"ホソノノウジョウ","prefecture_code":1},"0573":{"zip_code":"0710573","prefecture":"北海道","prefecture_kana":"ホッカイドウ","city":"空知郡上富良野町","city_kana":"ソラチグンカミフラノチョウ","town":"松井牧場","town_kana":"マツイボクジョウ","prefecture_code":1},"0563":{"zip_code":"0710563","prefecture":"北海道","prefecture_kana":"ホッカイドウ","city":"空知郡上富良野町","city_kana":"ソラチグンカミフラノチョウ","town":"緑町","town_kana":"ミドリマチ","prefecture_code":1},"0562":{"zip_code":"0710562","prefecture":"北海道","prefecture_kana":"ホッカイドウ","city":"空知郡上富良野町","city_kana":"ソラチグンカミフラノチョウ","town":"南町","town_kana":"ミナミマチ","prefecture_code":1},"0552":{"zip_code":"0710552","prefecture":"北海道","prefecture_kana":"ホッカイドウ","city":"空知郡上富良野町","city_kana":"ソラチグンカミフラノチョウ","town":"宮町","town_kana":"ミヤマチ","prefecture_code":1},"0566":{"zip_code":"0710566","prefecture":"北海道","prefecture_kana":"ホッカイドウ","city":"空知郡上富良野町","city_kana":"ソラチグンカミフラノチョウ","town":"向町","town_kana":"ムカイマチ","prefecture_code":1},"0551":{"zip_code":"0710551","prefecture":"北海道","prefecture_kana":"ホッカイドウ","city":"空知郡上富良野町","city_kana":"ソラチグンカミフラノチョウ","town":"本町","town_kana":"モトマチ","prefecture_code":1},"0578":{"zip_code":"0710578","prefecture":"北海道","prefecture_kana":"ホッカイドウ","city":"空知郡上富良野町","city_kana":"ソラチグンカミフラノチョウ","town":"山加農場","town_kana":"ヤマカノウジョウ","prefecture_code":1},"0700":{"zip_code":"0710700","prefecture":"北海道","prefecture_kana":"ホッカイドウ","city":"空知郡中富良野町","city_kana":"ソラチグンナカフラノチョウ","town":"","town_kana":"","prefecture_code":1},"0770":{"zip_code":"0710770","prefecture":"北海道","prefecture_kana":"ホッカイドウ","city":"空知郡中富良野町","city_kana":"ソラチグンナカフラノチョウ","town":"暁町","town_kana":"アカツキマチ","prefecture_code":1},"0755":{"zip_code":"0710755","prefecture":"北海道","prefecture_kana":"ホッカイドウ","city":"空知郡中富良野町","city_kana":"ソラチグンナカフラノチョウ","town":"旭町","town_kana":"アサヒマチ","prefecture_code":1},"0733":{"zip_code":"0710733","prefecture":"北海道","prefecture_kana":"ホッカイドウ","city":"空知郡中富良野町","city_kana":"ソラチグンナカフラノチョウ","town":"伊藤農場渋毛牛","town_kana":"イトウノウジョウシブケウシ","prefecture_code":1},"0762":{"zip_code":"0710762","prefecture":"北海道","prefecture_kana":"ホッカイドウ","city":"空知郡中富良野町","city_kana":"ソラチグンナカフラノチョウ","town":"丘町","town_kana":"オカマチ","prefecture_code":1},"0704":{"zip_code":"0710704","prefecture":"北海道","prefecture_kana":"ホッカイドウ","city":"空知郡中富良野町","city_kana":"ソラチグンナカフラノチョウ","town":"基線北","town_kana":"キセンキタ","prefecture_code":1},"0751":{"zip_code":"0710751","prefecture":"北海道","prefecture_kana":"ホッカイドウ","city":"空知郡中富良野町","city_kana":"ソラチグンナカフラノチョウ","town":"北町","town_kana":"キタマチ","prefecture_code":1},"0734":{"zip_code":"0710734","prefecture":"北海道","prefecture_kana":"ホッカイドウ","city":"空知郡中富良野町","city_kana":"ソラチグンナカフラノチョウ","town":"鹿討農場鹿討","town_kana":"シカウチノウジョウシカウチ","prefecture_code":1},"0731":{"zip_code":"0710731","prefecture":"北海道","prefecture_kana":"ホッカイドウ","city":"空知郡中富良野町","city_kana":"ソラチグンナカフラノチョウ","town":"新田中農場","town_kana":"シンタナカノウジョウ","prefecture_code":1},"0754":{"zip_code":"0710754","prefecture":"北海道","prefecture_kana":"ホッカイドウ","city":"空知郡中富良野町","city_kana":"ソラチグンナカフラノチョウ","town":"新町","town_kana":"シンマチ","prefecture_code":1},"0732":[{"zip_code":"0710732","prefecture":"北海道","prefecture_kana":"ホッカイドウ","city":"空知郡中富良野町","city_kana":"ソラチグンナカフラノチョウ","town":"田中農場鈴和","town_kana":"タナカノウジョウレイカ","prefecture_code":1},{"zip_code":"0710732","prefecture":"北海道","prefecture_kana":"ホッカイドウ","city":"空知郡中富良野町","city_kana":"ソラチグンナカフラノチョウ","town":"田中農場山仁農場","town_kana":"タナカノウジョウヤマニノウジョウ","prefecture_code":1},{"zip_code":"0710732","prefecture":"北海道","prefecture_kana":"ホッカイドウ","city":"空知郡中富良野町","city_kana":"ソラチグンナカフラノチョウ","town":"田中農場山仁牧場","town_kana":"タナカノウジョウヤマニボクジョウ","prefecture_code":1}],"0737":{"zip_code":"0710737","prefecture":"北海道","prefecture_kana":"ホッカイドウ","city":"空知郡中富良野町","city_kana":"ソラチグンナカフラノチョウ","town":"奈江","town_kana":"ナエ","prefecture_code":1},"0705":{"zip_code":"0710705","prefecture":"北海道","prefecture_kana":"ホッカイドウ","city":"空知郡中富良野町","city_kana":"ソラチグンナカフラノチョウ","town":"西１線北","town_kana":"ニシ1センキタ","prefecture_code":1},"0706":{"zip_code":"0710706","prefecture":"北海道","prefecture_kana":"ホッカイドウ","city":"空知郡中富良野町","city_kana":"ソラチグンナカフラノチョウ","town":"西２線北","town_kana":"ニシ2センキタ","prefecture_code":1},"0707":{"zip_code":"0710707","prefecture":"北海道","prefecture_kana":"ホッカイドウ","city":"空知郡中富良野町","city_kana":"ソラチグンナカフラノチョウ","town":"西３線北","town_kana":"ニシ3センキタ","prefecture_code":1},"0761":{"zip_code":"0710761","prefecture":"北海道","prefecture_kana":"ホッカイドウ","city":"空知郡中富良野町","city_kana":"ソラチグンナカフラノチョウ","town":"西町","town_kana":"ニシマチ","prefecture_code":1},"0735":{"zip_code":"0710735","prefecture":"北海道","prefecture_kana":"ホッカイドウ","city":"空知郡中富良野町","city_kana":"ソラチグンナカフラノチョウ","town":"日進","town_kana":"ニッシン","prefecture_code":1},"0771":{"zip_code":"0710771","prefecture":"北海道","prefecture_kana":"ホッカイドウ","city":"空知郡中富良野町","city_kana":"ソラチグンナカフラノチョウ","town":"東１線北","town_kana":"ヒガシ1センキタ","prefecture_code":1},"0772":{"zip_code":"0710772","prefecture":"北海道","prefecture_kana":"ホッカイドウ","city":"空知郡中富良野町","city_kana":"ソラチグンナカフラノチョウ","town":"東２線北","town_kana":"ヒガシ2センキタ","prefecture_code":1},"0773":{"zip_code":"0710773","prefecture":"北海道","prefecture_kana":"ホッカイドウ","city":"空知郡中富良野町","city_kana":"ソラチグンナカフラノチョウ","town":"東３線北","town_kana":"ヒガシ3センキタ","prefecture_code":1},"0774":{"zip_code":"0710774","prefecture":"北海道","prefecture_kana":"ホッカイドウ","city":"空知郡中富良野町","city_kana":"ソラチグンナカフラノチョウ","town":"東４線北","town_kana":"ヒガシ4センキタ","prefecture_code":1},"0775":{"zip_code":"0710775","prefecture":"北海道","prefecture_kana":"ホッカイドウ","city":"空知郡中富良野町","city_kana":"ソラチグンナカフラノチョウ","town":"東５線北","town_kana":"ヒガシ5センキタ","prefecture_code":1},"0776":{"zip_code":"0710776","prefecture":"北海道","prefecture_kana":"ホッカイドウ","city":"空知郡中富良野町","city_kana":"ソラチグンナカフラノチョウ","town":"東６線北","town_kana":"ヒガシ6センキタ","prefecture_code":1},"0777":{"zip_code":"0710777","prefecture":"北海道","prefecture_kana":"ホッカイドウ","city":"空知郡中富良野町","city_kana":"ソラチグンナカフラノチョウ","town":"東７線北","town_kana":"ヒガシ7センキタ","prefecture_code":1},"0778":{"zip_code":"0710778","prefecture":"北海道","prefecture_kana":"ホッカイドウ","city":"空知郡中富良野町","city_kana":"ソラチグンナカフラノチョウ","town":"東８線北","town_kana":"ヒガシ8センキタ","prefecture_code":1},"0779":{"zip_code":"0710779","prefecture":"北海道","prefecture_kana":"ホッカイドウ","city":"空知郡中富良野町","city_kana":"ソラチグンナカフラノチョウ","town":"東９線北","town_kana":"ヒガシ9センキタ","prefecture_code":1},"0780":{"zip_code":"0710780","prefecture":"北海道","prefecture_kana":"ホッカイドウ","city":"空知郡中富良野町","city_kana":"ソラチグンナカフラノチョウ","town":"東１０線北","town_kana":"ヒガシ10センキタ","prefecture_code":1},"0781":{"zip_code":"0710781","prefecture":"北海道","prefecture_kana":"ホッカイドウ","city":"空知郡中富良野町","city_kana":"ソラチグンナカフラノチョウ","town":"東１１線北","town_kana":"ヒガシ11センキタ","prefecture_code":1},"0726":{"zip_code":"0710726","prefecture":"北海道","prefecture_kana":"ホッカイドウ","city":"空知郡中富良野町","city_kana":"ソラチグンナカフラノチョウ","town":"東町","town_kana":"ヒガシマチ","prefecture_code":1},"0742":{"zip_code":"0710742","prefecture":"北海道","prefecture_kana":"ホッカイドウ","city":"空知郡中富良野町","city_kana":"ソラチグンナカフラノチョウ","town":"福原農場福原","town_kana":"フクハラノウジョウフクハラ","prefecture_code":1},"0711":[{"zip_code":"0710711","prefecture":"北海道","prefecture_kana":"ホッカイドウ","city":"空知郡中富良野町","city_kana":"ソラチグンナカフラノチョウ","town":"ベベルイ本幸","town_kana":"ベベルイホンコウ","prefecture_code":1},{"zip_code":"0710711","prefecture":"北海道","prefecture_kana":"ホッカイドウ","city":"空知郡中富良野町","city_kana":"ソラチグンナカフラノチョウ","town":"ベベルイ","town_kana":"ベベルイ","prefecture_code":1}],"0753":{"zip_code":"0710753","prefecture":"北海道","prefecture_kana":"ホッカイドウ","city":"空知郡中富良野町","city_kana":"ソラチグンナカフラノチョウ","town":"南町","town_kana":"ミナミマチ","prefecture_code":1},"0714":{"zip_code":"0710714","prefecture":"北海道","prefecture_kana":"ホッカイドウ","city":"空知郡中富良野町","city_kana":"ソラチグンナカフラノチョウ","town":"宮町","town_kana":"ミヤマチ","prefecture_code":1},"0752":{"zip_code":"0710752","prefecture":"北海道","prefecture_kana":"ホッカイドウ","city":"空知郡中富良野町","city_kana":"ソラチグンナカフラノチョウ","town":"本町","town_kana":"モトマチ","prefecture_code":1},"0736":{"zip_code":"0710736","prefecture":"北海道","prefecture_kana":"ホッカイドウ","city":"空知郡中富良野町","city_kana":"ソラチグンナカフラノチョウ","town":"吉井農場吉井","town_kana":"ヨシイノウジョウヨシイ","prefecture_code":1}}