{"0000":{"zip_code":"0730000","prefecture":"北海道","prefecture_kana":"ホッカイドウ","city":"滝川市","city_kana":"タキカワシ","town":"","town_kana":"","prefecture_code":1},"0015":{"zip_code":"0730015","prefecture":"北海道","prefecture_kana":"ホッカイドウ","city":"滝川市","city_kana":"タキカワシ","town":"朝日町東","town_kana":"アサヒマチヒガシ","prefecture_code":1},"0018":{"zip_code":"0730018","prefecture":"北海道","prefecture_kana":"ホッカイドウ","city":"滝川市","city_kana":"タキカワシ","town":"朝日町西","town_kana":"アサヒマチニシ","prefecture_code":1},"0045":{"zip_code":"0730045","prefecture":"北海道","prefecture_kana":"ホッカイドウ","city":"滝川市","city_kana":"タキカワシ","town":"有明町","town_kana":"アリアケチョウ","prefecture_code":1},"0042":{"zip_code":"0730042","prefecture":"北海道","prefecture_kana":"ホッカイドウ","city":"滝川市","city_kana":"タキカワシ","town":"泉町","town_kana":"イズミマチ","prefecture_code":1},"0016":{"zip_code":"0730016","prefecture":"北海道","prefecture_kana":"ホッカイドウ","city":"滝川市","city_kana":"タキカワシ","town":"一の坂町東","town_kana":"イチノサカチョウヒガシ","prefecture_code":1},"0017":{"zip_code":"0730017","prefecture":"北海道","prefecture_kana":"ホッカイドウ","city":"滝川市","city_kana":"タキカワシ","town":"一の坂町西","town_kana":"イチノサカチョウニシ","prefecture_code":1},"0046":{"zip_code":"0730046","prefecture":"北海道","prefecture_kana":"ホッカイドウ","city":"滝川市","city_kana":"タキカワシ","town":"扇町","town_kana":"オウギマチ","prefecture_code":1},"0022":{"zip_code":"0730022","prefecture":"北海道","prefecture_kana":"ホッカイドウ","city":"滝川市","city_kana":"タキカワシ","town":"大町","town_kana":"オオマチ","prefecture_code":1},"0036":{"zip_code":"0730036","prefecture":"北海道","prefecture_kana":"ホッカイドウ","city":"滝川市","city_kana":"タキカワシ","town":"花月町","town_kana":"カゲツチョウ","prefecture_code":1},"0001":{"zip_code":"0730001","prefecture":"北海道","prefecture_kana":"ホッカイドウ","city":"滝川市","city_kana":"タキカワシ","town":"北滝の川","town_kana":"キタタキノカワ","prefecture_code":1},"0012":{"zip_code":"0730012","prefecture":"北海道","prefecture_kana":"ホッカイドウ","city":"滝川市","city_kana":"タキカワシ","town":"黄金町東","town_kana":"コガネマチヒガシ","prefecture_code":1},"0011":{"zip_code":"0730011","prefecture":"北海道","prefecture_kana":"ホッカイドウ","city":"滝川市","city_kana":"タキカワシ","town":"黄金町西","town_kana":"コガネマチニシ","prefecture_code":1},"0043":{"zip_code":"0730043","prefecture":"北海道","prefecture_kana":"ホッカイドウ","city":"滝川市","city_kana":"タキカワシ","town":"幸町","town_kana":"サイワイチョウ","prefecture_code":1},"0031":{"zip_code":"0730031","prefecture":"北海道","prefecture_kana":"ホッカイドウ","city":"滝川市","city_kana":"タキカワシ","town":"栄町","town_kana":"サカエマチ","prefecture_code":1},"0033":{"zip_code":"0730033","prefecture":"北海道","prefecture_kana":"ホッカイドウ","city":"滝川市","city_kana":"タキカワシ","town":"新町","town_kana":"シンマチ","prefecture_code":1},"0034":{"zip_code":"0730034","prefecture":"北海道","prefecture_kana":"ホッカイドウ","city":"滝川市","city_kana":"タキカワシ","town":"空知町","town_kana":"ソラチチョウ","prefecture_code":1},"0004":{"zip_code":"0730004","prefecture":"北海道","prefecture_kana":"ホッカイドウ","city":"滝川市","city_kana":"タキカワシ","town":"滝の川町東","town_kana":"タキノカワチョウヒガシ","prefecture_code":1},"0003":{"zip_code":"0730003","prefecture":"北海道","prefecture_kana":"ホッカイドウ","city":"滝川市","city_kana":"タキカワシ","town":"滝の川町西","town_kana":"タキノカワチョウニシ","prefecture_code":1},"0002":{"zip_code":"0730002","prefecture":"北海道","prefecture_kana":"ホッカイドウ","city":"滝川市","city_kana":"タキカワシ","town":"屯田町西","town_kana":"トンデンチョウニシ","prefecture_code":1},"0035":{"zip_code":"0730035","prefecture":"北海道","prefecture_kana":"ホッカイドウ","city":"滝川市","city_kana":"タキカワシ","town":"中島町","town_kana":"ナカジマチョウ","prefecture_code":1},"0041":{"zip_code":"0730041","prefecture":"北海道","prefecture_kana":"ホッカイドウ","city":"滝川市","city_kana":"タキカワシ","town":"西滝川","town_kana":"ニシタキカワ","prefecture_code":1},"0044":{"zip_code":"0730044","prefecture":"北海道","prefecture_kana":"ホッカイドウ","city":"滝川市","city_kana":"タキカワシ","town":"西町","town_kana":"ニシマチ","prefecture_code":1},"0005":{"zip_code":"0730005","prefecture":"北海道","prefecture_kana":"ホッカイドウ","city":"滝川市","city_kana":"タキカワシ","town":"二の坂町東","town_kana":"ニノサカチョウヒガシ","prefecture_code":1},"0006":{"zip_code":"0730006","prefecture":"北海道","prefecture_kana":"ホッカイドウ","city":"滝川市","city_kana":"タキカワシ","town":"二の坂町西","town_kana":"ニノサカチョウニシ","prefecture_code":1},"0026":{"zip_code":"0730026","prefecture":"北海道","prefecture_kana":"ホッカイドウ","city":"滝川市","city_kana":"タキカワシ","town":"東滝川","town_kana":"ヒガシタキカワ","prefecture_code":1},"0027":{"zip_code":"0730027","prefecture":"北海道","prefecture_kana":"ホッカイドウ","city":"滝川市","city_kana":"タキカワシ","town":"東滝川町","town_kana":"ヒガシタキカワチョウ","prefecture_code":1},"0024":{"zip_code":"0730024","prefecture":"北海道","prefecture_kana":"ホッカイドウ","city":"滝川市","city_kana":"タキカワシ","town":"東町","town_kana":"ヒガシマチ","prefecture_code":1},"0014":{"zip_code":"0730014","prefecture":"北海道","prefecture_kana":"ホッカイドウ","city":"滝川市","city_kana":"タキカワシ","town":"文京町","town_kana":"ブンキョウチョウ","prefecture_code":1},"0021":{"zip_code":"0730021","prefecture":"北海道","prefecture_kana":"ホッカイドウ","city":"滝川市","city_kana":"タキカワシ","town":"本町","town_kana":"ホンマチ","prefecture_code":1},"0023":{"zip_code":"0730023","prefecture":"北海道","prefecture_kana":"ホッカイドウ","city":"滝川市","city_kana":"タキカワシ","town":"緑町","town_kana":"ミドリマチ","prefecture_code":1},"0013":{"zip_code":"0730013","prefecture":"北海道","prefecture_kana":"ホッカイドウ","city":"滝川市","city_kana":"タキカワシ","town":"南滝の川","town_kana":"ミナミタキノカワ","prefecture_code":1},"0032":{"zip_code":"0730032","prefecture":"北海道","prefecture_kana":"ホッカイドウ","city":"滝川市","city_kana":"タキカワシ","town":"明神町","town_kana":"ミョウジンチョウ","prefecture_code":1},"0025":{"zip_code":"0730025","prefecture":"北海道","prefecture_kana":"ホッカイドウ","city":"滝川市","city_kana":"タキカワシ","town":"流通団地","town_kana":"リュウツウダンチ","prefecture_code":1},"0100":{"zip_code":"0730100","prefecture":"北海道","prefecture_kana":"ホッカイドウ","city":"砂川市","city_kana":"スナガワシ","town":"","town_kana":"","prefecture_code":1},"0107":{"zip_code":"0730107","prefecture":"北海道","prefecture_kana":"ホッカイドウ","city":"砂川市","city_kana":"スナガワシ","town":"一の沢","town_kana":"イチノサワ","prefecture_code":1},"0116":{"zip_code":"0730116","prefecture":"北海道","prefecture_kana":"ホッカイドウ","city":"砂川市","city_kana":"スナガワシ","town":"鶉","town_kana":"ウズラ","prefecture_code":1},"0118":{"zip_code":"0730118","prefecture":"北海道","prefecture_kana":"ホッカイドウ","city":"砂川市","city_kana":"スナガワシ","town":"北吉野町","town_kana":"キタヨシノチョウ","prefecture_code":1},"0177":{"zip_code":"0730177","prefecture":"北海道","prefecture_kana":"ホッカイドウ","city":"砂川市","city_kana":"スナガワシ","town":"空知太","town_kana":"ソラチブト","prefecture_code":1},"0106":{"zip_code":"0730106","prefecture":"北海道","prefecture_kana":"ホッカイドウ","city":"砂川市","city_kana":"スナガワシ","town":"空知太","town_kana":"ソラチブト","prefecture_code":1},"0171":{"zip_code":"0730171","prefecture":"北海道","prefecture_kana":"ホッカイドウ","city":"砂川市","city_kana":"スナガワシ","town":"空知太西一条","town_kana":"ソラチブトニシ1ジョウ","prefecture_code":1},"0172":{"zip_code":"0730172","prefecture":"北海道","prefecture_kana":"ホッカイドウ","city":"砂川市","city_kana":"スナガワシ","town":"空知太西二条","town_kana":"ソラチブトニシ2ジョウ","prefecture_code":1},"0173":{"zip_code":"0730173","prefecture":"北海道","prefecture_kana":"ホッカイドウ","city":"砂川市","city_kana":"スナガワシ","town":"空知太西三条","town_kana":"ソラチブトニシ3ジョウ","prefecture_code":1},"0174":{"zip_code":"0730174","prefecture":"北海道","prefecture_kana":"ホッカイドウ","city":"砂川市","city_kana":"スナガワシ","town":"空知太西四条","town_kana":"ソラチブトニシ4ジョウ","prefecture_code":1},"0175":{"zip_code":"0730175","prefecture":"北海道","prefecture_kana":"ホッカイドウ","city":"砂川市","city_kana":"スナガワシ","town":"空知太西五条","town_kana":"ソラチブトニシ5ジョウ","prefecture_code":1},"0176":{"zip_code":"0730176","prefecture":"北海道","prefecture_kana":"ホッカイドウ","city":"砂川市","city_kana":"スナガワシ","town":"空知太西六条","town_kana":"ソラチブトニシ6ジョウ","prefecture_code":1},"0101":{"zip_code":"0730101","prefecture":"北海道","prefecture_kana":"ホッカイドウ","city":"砂川市","city_kana":"スナガワシ","town":"空知太東一条","town_kana":"ソラチブトヒガシ1ジョウ","prefecture_code":1},"0102":{"zip_code":"0730102","prefecture":"北海道","prefecture_kana":"ホッカイドウ","city":"砂川市","city_kana":"スナガワシ","town":"空知太東二条","town_kana":"ソラチブトヒガシ2ジョウ","prefecture_code":1},"0103":{"zip_code":"0730103","prefecture":"北海道","prefecture_kana":"ホッカイドウ","city":"砂川市","city_kana":"スナガワシ","town":"空知太東三条","town_kana":"ソラチブトヒガシ3ジョウ","prefecture_code":1},"0104":{"zip_code":"0730104","prefecture":"北海道","prefecture_kana":"ホッカイドウ","city":"砂川市","city_kana":"スナガワシ","town":"空知太東四条","town_kana":"ソラチブトヒガシ4ジョウ","prefecture_code":1},"0105":{"zip_code":"0730105","prefecture":"北海道","prefecture_kana":"ホッカイドウ","city":"砂川市","city_kana":"スナガワシ","town":"空知太東五条","town_kana":"ソラチブトヒガシ5ジョウ","prefecture_code":1},"0085":{"zip_code":"0730085","prefecture":"北海道","prefecture_kana":"ホッカイドウ","city":"砂川市","city_kana":"スナガワシ","town":"富平","town_kana":"トミヒラ","prefecture_code":1},"0138":{"zip_code":"0730138","prefecture":"北海道","prefecture_kana":"ホッカイドウ","city":"砂川市","city_kana":"スナガワシ","town":"豊沼町","town_kana":"トヨヌマチョウ","prefecture_code":1},"0148":{"zip_code":"0730148","prefecture":"北海道","prefecture_kana":"ホッカイドウ","city":"砂川市","city_kana":"スナガワシ","town":"西豊沼","town_kana":"ニシトヨヌマ","prefecture_code":1},"0141":{"zip_code":"0730141","prefecture":"北海道","prefecture_kana":"ホッカイドウ","city":"砂川市","city_kana":"スナガワシ","town":"西一条南","town_kana":"ニシ1ジョウミナミ","prefecture_code":1},"0161":{"zip_code":"0730161","prefecture":"北海道","prefecture_kana":"ホッカイドウ","city":"砂川市","city_kana":"スナガワシ","town":"西一条北","town_kana":"ニシ1ジョウキタ","prefecture_code":1},"0142":{"zip_code":"0730142","prefecture":"北海道","prefecture_kana":"ホッカイドウ","city":"砂川市","city_kana":"スナガワシ","town":"西二条南","town_kana":"ニシ2ジョウミナミ","prefecture_code":1},"0162":{"zip_code":"0730162","prefecture":"北海道","prefecture_kana":"ホッカイドウ","city":"砂川市","city_kana":"スナガワシ","town":"西二条北","town_kana":"ニシ2ジョウキタ","prefecture_code":1},"0143":{"zip_code":"0730143","prefecture":"北海道","prefecture_kana":"ホッカイドウ","city":"砂川市","city_kana":"スナガワシ","town":"西三条南","town_kana":"ニシ3ジョウミナミ","prefecture_code":1},"0163":{"zip_code":"0730163","prefecture":"北海道","prefecture_kana":"ホッカイドウ","city":"砂川市","city_kana":"スナガワシ","town":"西三条北","town_kana":"ニシ3ジョウキタ","prefecture_code":1},"0144":{"zip_code":"0730144","prefecture":"北海道","prefecture_kana":"ホッカイドウ","city":"砂川市","city_kana":"スナガワシ","town":"西四条南","town_kana":"ニシ4ジョウミナミ","prefecture_code":1},"0164":{"zip_code":"0730164","prefecture":"北海道","prefecture_kana":"ホッカイドウ","city":"砂川市","city_kana":"スナガワシ","town":"西四条北","town_kana":"ニシ4ジョウキタ","prefecture_code":1},"0145":{"zip_code":"0730145","prefecture":"北海道","prefecture_kana":"ホッカイドウ","city":"砂川市","city_kana":"スナガワシ","town":"西五条南","town_kana":"ニシ5ジョウミナミ","prefecture_code":1},"0165":{"zip_code":"0730165","prefecture":"北海道","prefecture_kana":"ホッカイドウ","city":"砂川市","city_kana":"スナガワシ","town":"西五条北","town_kana":"ニシ5ジョウキタ","prefecture_code":1},"0146":{"zip_code":"0730146","prefecture":"北海道","prefecture_kana":"ホッカイドウ","city":"砂川市","city_kana":"スナガワシ","town":"西六条南","town_kana":"ニシ6ジョウミナミ","prefecture_code":1},"0166":{"zip_code":"0730166","prefecture":"北海道","prefecture_kana":"ホッカイドウ","city":"砂川市","city_kana":"スナガワシ","town":"西六条北","town_kana":"ニシ6ジョウキタ","prefecture_code":1},"0147":{"zip_code":"0730147","prefecture":"北海道","prefecture_kana":"ホッカイドウ","city":"砂川市","city_kana":"スナガワシ","town":"西七条南","town_kana":"ニシ7ジョウミナミ","prefecture_code":1},"0167":{"zip_code":"0730167","prefecture":"北海道","prefecture_kana":"ホッカイドウ","city":"砂川市","city_kana":"スナガワシ","town":"西七条北","town_kana":"ニシ7ジョウキタ","prefecture_code":1},"0168":{"zip_code":"0730168","prefecture":"北海道","prefecture_kana":"ホッカイドウ","city":"砂川市","city_kana":"スナガワシ","town":"西八条北","town_kana":"ニシ8ジョウキタ","prefecture_code":1},"0111":{"zip_code":"0730111","prefecture":"北海道","prefecture_kana":"ホッカイドウ","city":"砂川市","city_kana":"スナガワシ","town":"晴見一条北","town_kana":"ハルミ1ジョウキタ","prefecture_code":1},"0112":{"zip_code":"0730112","prefecture":"北海道","prefecture_kana":"ホッカイドウ","city":"砂川市","city_kana":"スナガワシ","town":"晴見二条北","town_kana":"ハルミ2ジョウキタ","prefecture_code":1},"0113":{"zip_code":"0730113","prefecture":"北海道","prefecture_kana":"ホッカイドウ","city":"砂川市","city_kana":"スナガワシ","town":"晴見三条北","town_kana":"ハルミ3ジョウキタ","prefecture_code":1},"0114":{"zip_code":"0730114","prefecture":"北海道","prefecture_kana":"ホッカイドウ","city":"砂川市","city_kana":"スナガワシ","town":"晴見四条北","town_kana":"ハルミ4ジョウキタ","prefecture_code":1},"0126":{"zip_code":"0730126","prefecture":"北海道","prefecture_kana":"ホッカイドウ","city":"砂川市","city_kana":"スナガワシ","town":"東豊沼","town_kana":"ヒガシトヨヌマ","prefecture_code":1},"0131":{"zip_code":"0730131","prefecture":"北海道","prefecture_kana":"ホッカイドウ","city":"砂川市","city_kana":"スナガワシ","town":"東一条南","town_kana":"ヒガシ1ジョウミナミ","prefecture_code":1},"0151":{"zip_code":"0730151","prefecture":"北海道","prefecture_kana":"ホッカイドウ","city":"砂川市","city_kana":"スナガワシ","town":"東一条北","town_kana":"ヒガシ1ジョウキタ","prefecture_code":1},"0132":{"zip_code":"0730132","prefecture":"北海道","prefecture_kana":"ホッカイドウ","city":"砂川市","city_kana":"スナガワシ","town":"東二条南","town_kana":"ヒガシ2ジョウミナミ","prefecture_code":1},"0152":{"zip_code":"0730152","prefecture":"北海道","prefecture_kana":"ホッカイドウ","city":"砂川市","city_kana":"スナガワシ","town":"東二条北","town_kana":"ヒガシ2ジョウキタ","prefecture_code":1},"0153":{"zip_code":"0730153","prefecture":"北海道","prefecture_kana":"ホッカイドウ","city":"砂川市","city_kana":"スナガワシ","town":"東三条北","town_kana":"ヒガシ3ジョウキタ","prefecture_code":1},"0133":{"zip_code":"0730133","prefecture":"北海道","prefecture_kana":"ホッカイドウ","city":"砂川市","city_kana":"スナガワシ","town":"東三条南","town_kana":"ヒガシ3ジョウミナミ","prefecture_code":1},"0134":{"zip_code":"0730134","prefecture":"北海道","prefecture_kana":"ホッカイドウ","city":"砂川市","city_kana":"スナガワシ","town":"東四条南","town_kana":"ヒガシ4ジョウミナミ","prefecture_code":1},"0154":{"zip_code":"0730154","prefecture":"北海道","prefecture_kana":"ホッカイドウ","city":"砂川市","city_kana":"スナガワシ","town":"東四条北","town_kana":"ヒガシ4ジョウキタ","prefecture_code":1},"0135":{"zip_code":"0730135","prefecture":"北海道","prefecture_kana":"ホッカイドウ","city":"砂川市","city_kana":"スナガワシ","town":"東五条南","town_kana":"ヒガシ5ジョウミナミ","prefecture_code":1},"0155":{"zip_code":"0730155","prefecture":"北海道","prefecture_kana":"ホッカイドウ","city":"砂川市","city_kana":"スナガワシ","town":"東五条北","town_kana":"ヒガシ5ジョウキタ","prefecture_code":1},"0136":{"zip_code":"0730136","prefecture":"北海道","prefecture_kana":"ホッカイドウ","city":"砂川市","city_kana":"スナガワシ","town":"東六条南","town_kana":"ヒガシ6ジョウミナミ","prefecture_code":1},"0156":{"zip_code":"0730156","prefecture":"北海道","prefecture_kana":"ホッカイドウ","city":"砂川市","city_kana":"スナガワシ","town":"東六条北","town_kana":"ヒガシ6ジョウキタ","prefecture_code":1},"0137":{"zip_code":"0730137","prefecture":"北海道","prefecture_kana":"ホッカイドウ","city":"砂川市","city_kana":"スナガワシ","town":"東七条南","town_kana":"ヒガシ7ジョウミナミ","prefecture_code":1},"0127":{"zip_code":"0730127","prefecture":"北海道","prefecture_kana":"ホッカイドウ","city":"砂川市","city_kana":"スナガワシ","town":"日の出一条南","town_kana":"ヒノデ1ジョウミナミ","prefecture_code":1},"0178":{"zip_code":"0730178","prefecture":"北海道","prefecture_kana":"ホッカイドウ","city":"砂川市","city_kana":"スナガワシ","town":"袋地","town_kana":"フクロチ","prefecture_code":1},"0108":{"zip_code":"0730108","prefecture":"北海道","prefecture_kana":"ホッカイドウ","city":"砂川市","city_kana":"スナガワシ","town":"北光","town_kana":"ホッコウ","prefecture_code":1},"0157":{"zip_code":"0730157","prefecture":"北海道","prefecture_kana":"ホッカイドウ","city":"砂川市","city_kana":"スナガワシ","town":"三砂町","town_kana":"ミサゴチョウ","prefecture_code":1},"0117":{"zip_code":"0730117","prefecture":"北海道","prefecture_kana":"ホッカイドウ","city":"砂川市","city_kana":"スナガワシ","town":"南吉野町","town_kana":"ミナミヨシノチョウ","prefecture_code":1},"0125":{"zip_code":"0730125","prefecture":"北海道","prefecture_kana":"ホッカイドウ","city":"砂川市","city_kana":"スナガワシ","town":"宮城の沢","town_kana":"ミヤギノサワ","prefecture_code":1},"0115":{"zip_code":"0730115","prefecture":"北海道","prefecture_kana":"ホッカイドウ","city":"砂川市","city_kana":"スナガワシ","town":"焼山","town_kana":"ヤケヤマ","prefecture_code":1},"0121":{"zip_code":"0730121","prefecture":"北海道","prefecture_kana":"ホッカイドウ","city":"砂川市","city_kana":"スナガワシ","town":"吉野一条南","town_kana":"ヨシノ1ジョウミナミ","prefecture_code":1},"0158":{"zip_code":"0730158","prefecture":"北海道","prefecture_kana":"ホッカイドウ","city":"砂川市","city_kana":"スナガワシ","town":"吉野一条北","town_kana":"ヨシノ1ジョウキタ","prefecture_code":1},"0122":{"zip_code":"0730122","prefecture":"北海道","prefecture_kana":"ホッカイドウ","city":"砂川市","city_kana":"スナガワシ","town":"吉野二条南","town_kana":"ヨシノ2ジョウミナミ","prefecture_code":1},"0159":{"zip_code":"0730159","prefecture":"北海道","prefecture_kana":"ホッカイドウ","city":"砂川市","city_kana":"スナガワシ","town":"吉野二条北","town_kana":"ヨシノ2ジョウキタ","prefecture_code":1},"0123":{"zip_code":"0730123","prefecture":"北海道","prefecture_kana":"ホッカイドウ","city":"砂川市","city_kana":"スナガワシ","town":"吉野三条南","town_kana":"ヨシノ3ジョウミナミ","prefecture_code":1},"0124":{"zip_code":"0730124","prefecture":"北海道","prefecture_kana":"ホッカイドウ","city":"砂川市","city_kana":"スナガワシ","town":"吉野四条南","town_kana":"ヨシノ4ジョウミナミ","prefecture_code":1},"0400":{"zip_code":"0730400","prefecture":"北海道","prefecture_kana":"ホッカイドウ","city":"歌志内市","city_kana":"ウタシナイシ","town":"","town_kana":"","prefecture_code":1},"0404":{"zip_code":"0730404","prefecture":"北海道","prefecture_kana":"ホッカイドウ","city":"歌志内市","city_kana":"ウタシナイシ","town":"歌神","town_kana":"カシン","prefecture_code":1},"0401":{"zip_code":"0730401","prefecture":"北海道","prefecture_kana":"ホッカイドウ","city":"歌志内市","city_kana":"ウタシナイシ","town":"上歌","town_kana":"カミウタ","prefecture_code":1},"0405":{"zip_code":"0730405","prefecture":"北海道","prefecture_kana":"ホッカイドウ","city":"歌志内市","city_kana":"ウタシナイシ","town":"神威","town_kana":"カモイ","prefecture_code":1},"0402":{"zip_code":"0730402","prefecture":"北海道","prefecture_kana":"ホッカイドウ","city":"歌志内市","city_kana":"ウタシナイシ","town":"東光","town_kana":"トウコウ","prefecture_code":1},"0406":{"zip_code":"0730406","prefecture":"北海道","prefecture_kana":"ホッカイドウ","city":"歌志内市","city_kana":"ウタシナイシ","town":"中村","town_kana":"ナカムラ","prefecture_code":1},"0403":{"zip_code":"0730403","prefecture":"北海道","prefecture_kana":"ホッカイドウ","city":"歌志内市","city_kana":"ウタシナイシ","town":"本町","town_kana":"ホンチョウ","prefecture_code":1},"0407":{"zip_code":"0730407","prefecture":"北海道","prefecture_kana":"ホッカイドウ","city":"歌志内市","city_kana":"ウタシナイシ","town":"文珠","town_kana":"モンジュ","prefecture_code":1},"0200":{"zip_code":"0730200","prefecture":"北海道","prefecture_kana":"ホッカイドウ","city":"空知郡上砂川町","city_kana":"ソラチグンカミスナガワチョウ","town":"","town_kana":"","prefecture_code":1},"0205":{"zip_code":"0730205","prefecture":"北海道","prefecture_kana":"ホッカイドウ","city":"空知郡上砂川町","city_kana":"ソラチグンカミスナガワチョウ","town":"朝駒","town_kana":"アサコマ","prefecture_code":1},"0212":{"zip_code":"0730212","prefecture":"北海道","prefecture_kana":"ホッカイドウ","city":"空知郡上砂川町","city_kana":"ソラチグンカミスナガワチョウ","town":"鶉","town_kana":"ウズラ","prefecture_code":1},"0221":{"zip_code":"0730221","prefecture":"北海道","prefecture_kana":"ホッカイドウ","city":"空知郡上砂川町","city_kana":"ソラチグンカミスナガワチョウ","town":"鶉本町","town_kana":"ウズラホンチョウ","prefecture_code":1},"0222":{"zip_code":"0730222","prefecture":"北海道","prefecture_kana":"ホッカイドウ","city":"空知郡上砂川町","city_kana":"ソラチグンカミスナガワチョウ","town":"下鶉","town_kana":"シモウズラ","prefecture_code":1},"0201":{"zip_code":"0730201","prefecture":"北海道","prefecture_kana":"ホッカイドウ","city":"空知郡上砂川町","city_kana":"ソラチグンカミスナガワチョウ","town":"中央","town_kana":"チュウオウ","prefecture_code":1},"0203":{"zip_code":"0730203","prefecture":"北海道","prefecture_kana":"ホッカイドウ","city":"空知郡上砂川町","city_kana":"ソラチグンカミスナガワチョウ","town":"中町","town_kana":"ナカマチ","prefecture_code":1},"0211":{"zip_code":"0730211","prefecture":"北海道","prefecture_kana":"ホッカイドウ","city":"空知郡上砂川町","city_kana":"ソラチグンカミスナガワチョウ","town":"東鶉","town_kana":"ヒガシウズラ","prefecture_code":1},"0202":{"zip_code":"0730202","prefecture":"北海道","prefecture_kana":"ホッカイドウ","city":"空知郡上砂川町","city_kana":"ソラチグンカミスナガワチョウ","town":"東町","town_kana":"ヒガシマチ","prefecture_code":1},"0206":{"zip_code":"0730206","prefecture":"北海道","prefecture_kana":"ホッカイドウ","city":"空知郡上砂川町","city_kana":"ソラチグンカミスナガワチョウ","town":"東山","town_kana":"ヒガシヤマ","prefecture_code":1},"0204":{"zip_code":"0730204","prefecture":"北海道","prefecture_kana":"ホッカイドウ","city":"空知郡上砂川町","city_kana":"ソラチグンカミスナガワチョウ","town":"本町","town_kana":"ホンマチ","prefecture_code":1},"0213":{"zip_code":"0730213","prefecture":"北海道","prefecture_kana":"ホッカイドウ","city":"空知郡上砂川町","city_kana":"ソラチグンカミスナガワチョウ","town":"緑が丘","town_kana":"ミドリガオカ","prefecture_code":1},"1100":{"zip_code":"0731100","prefecture":"北海道","prefecture_kana":"ホッカイドウ","city":"樺戸郡新十津川町","city_kana":"カバトグンシントツカワチョウ","town":"","town_kana":"","prefecture_code":1},"1321":{"zip_code":"0731321","prefecture":"北海道","prefecture_kana":"ホッカイドウ","city":"樺戸郡新十津川町","city_kana":"カバトグンシントツカワチョウ","town":"学園","town_kana":"ガクエン","prefecture_code":1},"1105":{"zip_code":"0731105","prefecture":"北海道","prefecture_kana":"ホッカイドウ","city":"樺戸郡新十津川町","city_kana":"カバトグンシントツカワチョウ","town":"花月","town_kana":"カゲツ","prefecture_code":1},"1101":{"zip_code":"0731101","prefecture":"北海道","prefecture_kana":"ホッカイドウ","city":"樺戸郡新十津川町","city_kana":"カバトグンシントツカワチョウ","town":"士寸","town_kana":"シスン","prefecture_code":1},"1106":{"zip_code":"0731106","prefecture":"北海道","prefecture_kana":"ホッカイドウ","city":"樺戸郡新十津川町","city_kana":"カバトグンシントツカワチョウ","town":"総進","town_kana":"ソウシン","prefecture_code":1},"1103":{"zip_code":"0731103","prefecture":"北海道","prefecture_kana":"ホッカイドウ","city":"樺戸郡新十津川町","city_kana":"カバトグンシントツカワチョウ","town":"中央","town_kana":"チュウオウ","prefecture_code":1},"1107":{"zip_code":"0731107","prefecture":"北海道","prefecture_kana":"ホッカイドウ","city":"樺戸郡新十津川町","city_kana":"カバトグンシントツカワチョウ","town":"トップ","town_kana":"トップ","prefecture_code":1},"1323":{"zip_code":"0731323","prefecture":"北海道","prefecture_kana":"ホッカイドウ","city":"樺戸郡新十津川町","city_kana":"カバトグンシントツカワチョウ","town":"幌加","town_kana":"ホロカ","prefecture_code":1},"1102":{"zip_code":"0731102","prefecture":"北海道","prefecture_kana":"ホッカイドウ","city":"樺戸郡新十津川町","city_kana":"カバトグンシントツカワチョウ","town":"大和","town_kana":"ヤマト","prefecture_code":1},"0181":{"zip_code":"0730181","prefecture":"北海道","prefecture_kana":"ホッカイドウ","city":"樺戸郡新十津川町","city_kana":"カバトグンシントツカワチョウ","town":"弥生堤防用地","town_kana":"ヤヨイテイボウヨウチ","prefecture_code":1},"1104":{"zip_code":"0731104","prefecture":"北海道","prefecture_kana":"ホッカイドウ","city":"樺戸郡新十津川町","city_kana":"カバトグンシントツカワチョウ","town":"弥生","town_kana":"ヤヨイ","prefecture_code":1},"1322":{"zip_code":"0731322","prefecture":"北海道","prefecture_kana":"ホッカイドウ","city":"樺戸郡新十津川町","city_kana":"カバトグンシントツカワチョウ","town":"吉野","town_kana":"ヨシノ","prefecture_code":1}}