{"1182":{"zip_code":"0741182","prefecture":"北海道","prefecture_kana":"ホッカイドウ","city":"旭川市","city_kana":"アサヒカワシ","town":"神居町豊里","town_kana":"カムイチョウトヨサト","prefecture_code":1},"1181":{"zip_code":"0741181","prefecture":"北海道","prefecture_kana":"ホッカイドウ","city":"旭川市","city_kana":"アサヒカワシ","town":"神居町西丘","town_kana":"カムイチョウニシオカ","prefecture_code":1},"0000":{"zip_code":"0740000","prefecture":"北海道","prefecture_kana":"ホッカイドウ","city":"深川市","city_kana":"フカガワシ","town":"","town_kana":"","prefecture_code":1},"0001":{"zip_code":"0740001","prefecture":"北海道","prefecture_kana":"ホッカイドウ","city":"深川市","city_kana":"フカガワシ","town":"一条","town_kana":"1ジョウ","prefecture_code":1},"0002":{"zip_code":"0740002","prefecture":"北海道","prefecture_kana":"ホッカイドウ","city":"深川市","city_kana":"フカガワシ","town":"二条","town_kana":"2ジョウ","prefecture_code":1},"0003":{"zip_code":"0740003","prefecture":"北海道","prefecture_kana":"ホッカイドウ","city":"深川市","city_kana":"フカガワシ","town":"三条","town_kana":"3ジョウ","prefecture_code":1},"0004":{"zip_code":"0740004","prefecture":"北海道","prefecture_kana":"ホッカイドウ","city":"深川市","city_kana":"フカガワシ","town":"四条","town_kana":"4ジョウ","prefecture_code":1},"0005":{"zip_code":"0740005","prefecture":"北海道","prefecture_kana":"ホッカイドウ","city":"深川市","city_kana":"フカガワシ","town":"五条","town_kana":"5ジョウ","prefecture_code":1},"0006":{"zip_code":"0740006","prefecture":"北海道","prefecture_kana":"ホッカイドウ","city":"深川市","city_kana":"フカガワシ","town":"六条","town_kana":"6ジョウ","prefecture_code":1},"0007":{"zip_code":"0740007","prefecture":"北海道","prefecture_kana":"ホッカイドウ","city":"深川市","city_kana":"フカガワシ","town":"七条","town_kana":"7ジョウ","prefecture_code":1},"0008":{"zip_code":"0740008","prefecture":"北海道","prefecture_kana":"ホッカイドウ","city":"深川市","city_kana":"フカガワシ","town":"八条","town_kana":"8ジョウ","prefecture_code":1},"0009":{"zip_code":"0740009","prefecture":"北海道","prefecture_kana":"ホッカイドウ","city":"深川市","city_kana":"フカガワシ","town":"九条","town_kana":"9ジョウ","prefecture_code":1},"0031":{"zip_code":"0740031","prefecture":"北海道","prefecture_kana":"ホッカイドウ","city":"深川市","city_kana":"フカガワシ","town":"あけぼの町","town_kana":"アケボノチョウ","prefecture_code":1},"0028":{"zip_code":"0740028","prefecture":"北海道","prefecture_kana":"ホッカイドウ","city":"深川市","city_kana":"フカガワシ","town":"一已町","town_kana":"イチヤンチョウ","prefecture_code":1},"0021":{"zip_code":"0740021","prefecture":"北海道","prefecture_kana":"ホッカイドウ","city":"深川市","city_kana":"フカガワシ","town":"稲穂町","town_kana":"イナホチョウ","prefecture_code":1},"0143":{"zip_code":"0740143","prefecture":"北海道","prefecture_kana":"ホッカイドウ","city":"深川市","city_kana":"フカガワシ","town":"ウッカ","town_kana":"ウッカ","prefecture_code":1},"0142":{"zip_code":"0740142","prefecture":"北海道","prefecture_kana":"ホッカイドウ","city":"深川市","city_kana":"フカガワシ","town":"宇摩","town_kana":"ウマ","prefecture_code":1},"1273":[{"zip_code":"0741273","prefecture":"北海道","prefecture_kana":"ホッカイドウ","city":"深川市","city_kana":"フカガワシ","town":"音江町","town_kana":"オトエチョウ","prefecture_code":1},{"zip_code":"0741273","prefecture":"北海道","prefecture_kana":"ホッカイドウ","city":"深川市","city_kana":"フカガワシ","town":"音江町音江","town_kana":"オトエチョウオトエ","prefecture_code":1}],"1276":{"zip_code":"0741276","prefecture":"北海道","prefecture_kana":"ホッカイドウ","city":"深川市","city_kana":"フカガワシ","town":"音江町稲田","town_kana":"オトエチョウイナダ","prefecture_code":1},"1162":{"zip_code":"0741162","prefecture":"北海道","prefecture_kana":"ホッカイドウ","city":"深川市","city_kana":"フカガワシ","town":"音江町菊丘","town_kana":"オトエチョウキクオカ","prefecture_code":1},"1164":{"zip_code":"0741164","prefecture":"北海道","prefecture_kana":"ホッカイドウ","city":"深川市","city_kana":"フカガワシ","town":"音江町","town_kana":"オトエチョウ","prefecture_code":1},"1272":{"zip_code":"0741272","prefecture":"北海道","prefecture_kana":"ホッカイドウ","city":"深川市","city_kana":"フカガワシ","town":"音江町","town_kana":"オトエチョウ","prefecture_code":1},"1161":{"zip_code":"0741161","prefecture":"北海道","prefecture_kana":"ホッカイドウ","city":"深川市","city_kana":"フカガワシ","town":"音江町更進","town_kana":"オトエチョウコウシン","prefecture_code":1},"1275":{"zip_code":"0741275","prefecture":"北海道","prefecture_kana":"ホッカイドウ","city":"深川市","city_kana":"フカガワシ","town":"音江町向陽","town_kana":"オトエチョウコウヨウ","prefecture_code":1},"1274":{"zip_code":"0741274","prefecture":"北海道","prefecture_kana":"ホッカイドウ","city":"深川市","city_kana":"フカガワシ","town":"音江町豊泉","town_kana":"オトエチョウトヨイズミ","prefecture_code":1},"1271":[{"zip_code":"0741271","prefecture":"北海道","prefecture_kana":"ホッカイドウ","city":"深川市","city_kana":"フカガワシ","town":"音江町広里","town_kana":"オトエチョウヒロサト","prefecture_code":1},{"zip_code":"0741271","prefecture":"北海道","prefecture_kana":"ホッカイドウ","city":"深川市","city_kana":"フカガワシ","town":"広里町","town_kana":"ヒロサトチョウ","prefecture_code":1}],"1163":{"zip_code":"0741163","prefecture":"北海道","prefecture_kana":"ホッカイドウ","city":"深川市","city_kana":"フカガワシ","town":"音江町吉住","town_kana":"オトエチョウヨシズミ","prefecture_code":1},"0014":{"zip_code":"0740014","prefecture":"北海道","prefecture_kana":"ホッカイドウ","city":"深川市","city_kana":"フカガワシ","town":"開西町","town_kana":"カイセイチョウ","prefecture_code":1},"0024":{"zip_code":"0740024","prefecture":"北海道","prefecture_kana":"ホッカイドウ","city":"深川市","city_kana":"フカガワシ","town":"新光町","town_kana":"シンコウチョウ","prefecture_code":1},"0023":{"zip_code":"0740023","prefecture":"北海道","prefecture_kana":"ホッカイドウ","city":"深川市","city_kana":"フカガワシ","town":"太子町","town_kana":"タイシマチ","prefecture_code":1},"0144":{"zip_code":"0740144","prefecture":"北海道","prefecture_kana":"ホッカイドウ","city":"深川市","city_kana":"フカガワシ","town":"鷹泊","town_kana":"タカドマリ","prefecture_code":1},"0141":{"zip_code":"0740141","prefecture":"北海道","prefecture_kana":"ホッカイドウ","city":"深川市","city_kana":"フカガワシ","town":"多度志","town_kana":"タドシ","prefecture_code":1},"0147":{"zip_code":"0740147","prefecture":"北海道","prefecture_kana":"ホッカイドウ","city":"深川市","city_kana":"フカガワシ","town":"多度志南","town_kana":"タドシミナミ","prefecture_code":1},"0025":{"zip_code":"0740025","prefecture":"北海道","prefecture_kana":"ホッカイドウ","city":"深川市","city_kana":"フカガワシ","town":"錦町","town_kana":"ニシキマチ","prefecture_code":1},"0027":{"zip_code":"0740027","prefecture":"北海道","prefecture_kana":"ホッカイドウ","city":"深川市","city_kana":"フカガワシ","town":"錦町北","town_kana":"ニシキマチキタ","prefecture_code":1},"0026":{"zip_code":"0740026","prefecture":"北海道","prefecture_kana":"ホッカイドウ","city":"深川市","city_kana":"フカガワシ","town":"錦町西","town_kana":"ニシキマチニシ","prefecture_code":1},"0012":{"zip_code":"0740012","prefecture":"北海道","prefecture_kana":"ホッカイドウ","city":"深川市","city_kana":"フカガワシ","town":"西町","town_kana":"ニシマチ","prefecture_code":1},"0013":{"zip_code":"0740013","prefecture":"北海道","prefecture_kana":"ホッカイドウ","city":"深川市","city_kana":"フカガワシ","town":"文光町","town_kana":"ブンコウチョウ","prefecture_code":1},"0022":{"zip_code":"0740022","prefecture":"北海道","prefecture_kana":"ホッカイドウ","city":"深川市","city_kana":"フカガワシ","town":"北光町","town_kana":"ホツコウチョウ","prefecture_code":1},"0145":{"zip_code":"0740145","prefecture":"北海道","prefecture_kana":"ホッカイドウ","city":"深川市","city_kana":"フカガワシ","town":"幌内","town_kana":"ホロナイ","prefecture_code":1},"0011":{"zip_code":"0740011","prefecture":"北海道","prefecture_kana":"ホッカイドウ","city":"深川市","city_kana":"フカガワシ","town":"緑町","town_kana":"ミドリマチ","prefecture_code":1},"0015":{"zip_code":"0740015","prefecture":"北海道","prefecture_kana":"ホッカイドウ","city":"深川市","city_kana":"フカガワシ","town":"メム","town_kana":"メム","prefecture_code":1},"0146":{"zip_code":"0740146","prefecture":"北海道","prefecture_kana":"ホッカイドウ","city":"深川市","city_kana":"フカガワシ","town":"湯内","town_kana":"ユナイ","prefecture_code":1},"0400":{"zip_code":"0740400","prefecture":"北海道","prefecture_kana":"ホッカイドウ","city":"雨竜郡幌加内町","city_kana":"ウリュウグンホロカナイチョウ","town":"","town_kana":"","prefecture_code":1},"0413":{"zip_code":"0740413","prefecture":"北海道","prefecture_kana":"ホッカイドウ","city":"雨竜郡幌加内町","city_kana":"ウリュウグンホロカナイチョウ","town":"雨煙内","town_kana":"ウエンナイ","prefecture_code":1},"0424":{"zip_code":"0740424","prefecture":"北海道","prefecture_kana":"ホッカイドウ","city":"雨竜郡幌加内町","city_kana":"ウリュウグンホロカナイチョウ","town":"雨煙別","town_kana":"ウエンベツ","prefecture_code":1},"0744":{"zip_code":"0740744","prefecture":"北海道","prefecture_kana":"ホッカイドウ","city":"雨竜郡幌加内町","city_kana":"ウリュウグンホロカナイチョウ","town":"大曲","town_kana":"オオマガリ","prefecture_code":1},"0415":{"zip_code":"0740415","prefecture":"北海道","prefecture_kana":"ホッカイドウ","city":"雨竜郡幌加内町","city_kana":"ウリュウグンホロカナイチョウ","town":"長留内","town_kana":"オサルナイ","prefecture_code":1},"0423":{"zip_code":"0740423","prefecture":"北海道","prefecture_kana":"ホッカイドウ","city":"雨竜郡幌加内町","city_kana":"ウリュウグンホロカナイチョウ","town":"上幌加内","town_kana":"カミホロカナイ","prefecture_code":1},"0743":{"zip_code":"0740743","prefecture":"北海道","prefecture_kana":"ホッカイドウ","city":"雨竜郡幌加内町","city_kana":"ウリュウグンホロカナイチョウ","town":"共栄","town_kana":"キョウエイ","prefecture_code":1},"0403":{"zip_code":"0740403","prefecture":"北海道","prefecture_kana":"ホッカイドウ","city":"雨竜郡幌加内町","city_kana":"ウリュウグンホロカナイチョウ","town":"下幌加内","town_kana":"シモホロカナイ","prefecture_code":1},"0742":{"zip_code":"0740742","prefecture":"北海道","prefecture_kana":"ホッカイドウ","city":"雨竜郡幌加内町","city_kana":"ウリュウグンホロカナイチョウ","town":"朱鞠内","town_kana":"シュマリナイ","prefecture_code":1},"0422":{"zip_code":"0740422","prefecture":"北海道","prefecture_kana":"ホッカイドウ","city":"雨竜郡幌加内町","city_kana":"ウリュウグンホロカナイチョウ","town":"振興","town_kana":"シンコウ","prefecture_code":1},"0747":{"zip_code":"0740747","prefecture":"北海道","prefecture_kana":"ホッカイドウ","city":"雨竜郡幌加内町","city_kana":"ウリュウグンホロカナイチョウ","town":"新富","town_kana":"シントミ","prefecture_code":1},"0402":{"zip_code":"0740402","prefecture":"北海道","prefecture_kana":"ホッカイドウ","city":"雨竜郡幌加内町","city_kana":"ウリュウグンホロカナイチョウ","town":"新成生","town_kana":"シンナリウ","prefecture_code":1},"0412":{"zip_code":"0740412","prefecture":"北海道","prefecture_kana":"ホッカイドウ","city":"雨竜郡幌加内町","city_kana":"ウリュウグンホロカナイチョウ","town":"親和","town_kana":"シンワ","prefecture_code":1},"0414":{"zip_code":"0740414","prefecture":"北海道","prefecture_kana":"ホッカイドウ","city":"雨竜郡幌加内町","city_kana":"ウリュウグンホロカナイチョウ","town":"清月","town_kana":"セイゲツ","prefecture_code":1},"0425":{"zip_code":"0740425","prefecture":"北海道","prefecture_kana":"ホッカイドウ","city":"雨竜郡幌加内町","city_kana":"ウリュウグンホロカナイチョウ","town":"政和第一","town_kana":"セイワダイ1","prefecture_code":1},"0426":{"zip_code":"0740426","prefecture":"北海道","prefecture_kana":"ホッカイドウ","city":"雨竜郡幌加内町","city_kana":"ウリュウグンホロカナイチョウ","town":"政和第二","town_kana":"セイワダイ2","prefecture_code":1},"0427":{"zip_code":"0740427","prefecture":"北海道","prefecture_kana":"ホッカイドウ","city":"雨竜郡幌加内町","city_kana":"ウリュウグンホロカナイチョウ","town":"政和第三","town_kana":"セイワダイ3","prefecture_code":1},"0746":{"zip_code":"0740746","prefecture":"北海道","prefecture_kana":"ホッカイドウ","city":"雨竜郡幌加内町","city_kana":"ウリュウグンホロカナイチョウ","town":"添牛内","town_kana":"ソエウシナイ","prefecture_code":1},"0421":{"zip_code":"0740421","prefecture":"北海道","prefecture_kana":"ホッカイドウ","city":"雨竜郡幌加内町","city_kana":"ウリュウグンホロカナイチョウ","town":"東栄","town_kana":"トウエイ","prefecture_code":1},"0404":{"zip_code":"0740404","prefecture":"北海道","prefecture_kana":"ホッカイドウ","city":"雨竜郡幌加内町","city_kana":"ウリュウグンホロカナイチョウ","town":"沼牛","town_kana":"ヌマウシ","prefecture_code":1},"0401":{"zip_code":"0740401","prefecture":"北海道","prefecture_kana":"ホッカイドウ","city":"雨竜郡幌加内町","city_kana":"ウリュウグンホロカナイチョウ","town":"平和","town_kana":"ヘイワ","prefecture_code":1},"0745":{"zip_code":"0740745","prefecture":"北海道","prefecture_kana":"ホッカイドウ","city":"雨竜郡幌加内町","city_kana":"ウリュウグンホロカナイチョウ","town":"北星","town_kana":"ホクセイ","prefecture_code":1},"0411":{"zip_code":"0740411","prefecture":"北海道","prefecture_kana":"ホッカイドウ","city":"雨竜郡幌加内町","city_kana":"ウリュウグンホロカナイチョウ","town":"幌加内","town_kana":"ホロカナイ","prefecture_code":1},"0741":{"zip_code":"0740741","prefecture":"北海道","prefecture_kana":"ホッカイドウ","city":"雨竜郡幌加内町","city_kana":"ウリュウグンホロカナイチョウ","town":"母子里","town_kana":"モシリ","prefecture_code":1},"0405":{"zip_code":"0740405","prefecture":"北海道","prefecture_kana":"ホッカイドウ","city":"雨竜郡幌加内町","city_kana":"ウリュウグンホロカナイチョウ","town":"弥運内","town_kana":"ヤウンナイ","prefecture_code":1}}