{"0000":{"zip_code":"0750000","prefecture":"北海道","prefecture_kana":"ホッカイドウ","city":"芦別市","city_kana":"アシベツシ","town":"","town_kana":"","prefecture_code":1},"0165":{"zip_code":"0750165","prefecture":"北海道","prefecture_kana":"ホッカイドウ","city":"芦別市","city_kana":"アシベツシ","town":"青木沢","town_kana":"アオキサワ","prefecture_code":1},"0036":{"zip_code":"0750036","prefecture":"北海道","prefecture_kana":"ホッカイドウ","city":"芦別市","city_kana":"アシベツシ","town":"旭町","town_kana":"アサヒチョウ","prefecture_code":1},"0035":{"zip_code":"0750035","prefecture":"北海道","prefecture_kana":"ホッカイドウ","city":"芦別市","city_kana":"アシベツシ","town":"旭町油谷","town_kana":"アサヒマチユヤ","prefecture_code":1},"0166":{"zip_code":"0750166","prefecture":"北海道","prefecture_kana":"ホッカイドウ","city":"芦別市","city_kana":"アシベツシ","town":"川岸","town_kana":"カワギシ","prefecture_code":1},"0011":{"zip_code":"0750011","prefecture":"北海道","prefecture_kana":"ホッカイドウ","city":"芦別市","city_kana":"アシベツシ","town":"北一条東","town_kana":"キタ1ジョウヒガシ","prefecture_code":1},"0001":{"zip_code":"0750001","prefecture":"北海道","prefecture_kana":"ホッカイドウ","city":"芦別市","city_kana":"アシベツシ","town":"北一条西","town_kana":"キタ1ジョウニシ","prefecture_code":1},"0012":{"zip_code":"0750012","prefecture":"北海道","prefecture_kana":"ホッカイドウ","city":"芦別市","city_kana":"アシベツシ","town":"北二条東","town_kana":"キタ2ジョウヒガシ","prefecture_code":1},"0002":{"zip_code":"0750002","prefecture":"北海道","prefecture_kana":"ホッカイドウ","city":"芦別市","city_kana":"アシベツシ","town":"北二条西","town_kana":"キタ2ジョウニシ","prefecture_code":1},"0013":{"zip_code":"0750013","prefecture":"北海道","prefecture_kana":"ホッカイドウ","city":"芦別市","city_kana":"アシベツシ","town":"北三条東","town_kana":"キタ3ジョウヒガシ","prefecture_code":1},"0003":{"zip_code":"0750003","prefecture":"北海道","prefecture_kana":"ホッカイドウ","city":"芦別市","city_kana":"アシベツシ","town":"北三条西","town_kana":"キタ3ジョウニシ","prefecture_code":1},"0014":{"zip_code":"0750014","prefecture":"北海道","prefecture_kana":"ホッカイドウ","city":"芦別市","city_kana":"アシベツシ","town":"北四条東","town_kana":"キタ4ジョウヒガシ","prefecture_code":1},"0004":{"zip_code":"0750004","prefecture":"北海道","prefecture_kana":"ホッカイドウ","city":"芦別市","city_kana":"アシベツシ","town":"北四条西","town_kana":"キタ4ジョウニシ","prefecture_code":1},"0015":{"zip_code":"0750015","prefecture":"北海道","prefecture_kana":"ホッカイドウ","city":"芦別市","city_kana":"アシベツシ","town":"北五条東","town_kana":"キタ5ジョウヒガシ","prefecture_code":1},"0005":{"zip_code":"0750005","prefecture":"北海道","prefecture_kana":"ホッカイドウ","city":"芦別市","city_kana":"アシベツシ","town":"北五条西","town_kana":"キタ5ジョウニシ","prefecture_code":1},"0016":{"zip_code":"0750016","prefecture":"北海道","prefecture_kana":"ホッカイドウ","city":"芦別市","city_kana":"アシベツシ","town":"北六条東","town_kana":"キタ6ジョウヒガシ","prefecture_code":1},"0006":{"zip_code":"0750006","prefecture":"北海道","prefecture_kana":"ホッカイドウ","city":"芦別市","city_kana":"アシベツシ","town":"北六条西","town_kana":"キタ6ジョウニシ","prefecture_code":1},"0007":{"zip_code":"0750007","prefecture":"北海道","prefecture_kana":"ホッカイドウ","city":"芦別市","city_kana":"アシベツシ","town":"北七条西","town_kana":"キタ7ジョウニシ","prefecture_code":1},"0252":{"zip_code":"0750252","prefecture":"北海道","prefecture_kana":"ホッカイドウ","city":"芦別市","city_kana":"アシベツシ","town":"黄金町","town_kana":"コガネチョウ","prefecture_code":1},"0251":{"zip_code":"0750251","prefecture":"北海道","prefecture_kana":"ホッカイドウ","city":"芦別市","city_kana":"アシベツシ","town":"新城町","town_kana":"シンジョウチョウ","prefecture_code":1},"0019":{"zip_code":"0750019","prefecture":"北海道","prefecture_kana":"ホッカイドウ","city":"芦別市","city_kana":"アシベツシ","town":"高根町","town_kana":"タカネチョウ","prefecture_code":1},"0018":{"zip_code":"0750018","prefecture":"北海道","prefecture_kana":"ホッカイドウ","city":"芦別市","city_kana":"アシベツシ","town":"常磐町","town_kana":"トキワチョウ","prefecture_code":1},"0254":{"zip_code":"0750254","prefecture":"北海道","prefecture_kana":"ホッカイドウ","city":"芦別市","city_kana":"アシベツシ","town":"豊岡","town_kana":"トヨオカ","prefecture_code":1},"0253":{"zip_code":"0750253","prefecture":"北海道","prefecture_kana":"ホッカイドウ","city":"芦別市","city_kana":"アシベツシ","town":"豊岡町","town_kana":"トヨオカチョウ","prefecture_code":1},"0167":{"zip_code":"0750167","prefecture":"北海道","prefecture_kana":"ホッカイドウ","city":"芦別市","city_kana":"アシベツシ","town":"中の丘町","town_kana":"ナカノオカチョウ","prefecture_code":1},"0161":{"zip_code":"0750161","prefecture":"北海道","prefecture_kana":"ホッカイドウ","city":"芦別市","city_kana":"アシベツシ","town":"西芦別町","town_kana":"ニシアシベツチョウ","prefecture_code":1},"0162":{"zip_code":"0750162","prefecture":"北海道","prefecture_kana":"ホッカイドウ","city":"芦別市","city_kana":"アシベツシ","town":"東頼城町","town_kana":"ヒガシライジョウチョウ","prefecture_code":1},"0017":{"zip_code":"0750017","prefecture":"北海道","prefecture_kana":"ホッカイドウ","city":"芦別市","city_kana":"アシベツシ","town":"福住町","town_kana":"フクズミチョウ","prefecture_code":1},"0034":{"zip_code":"0750034","prefecture":"北海道","prefecture_kana":"ホッカイドウ","city":"芦別市","city_kana":"アシベツシ","town":"幌内","town_kana":"ホロナイ","prefecture_code":1},"0041":{"zip_code":"0750041","prefecture":"北海道","prefecture_kana":"ホッカイドウ","city":"芦別市","city_kana":"アシベツシ","town":"本町","town_kana":"ホンチョウ","prefecture_code":1},"0031":{"zip_code":"0750031","prefecture":"北海道","prefecture_kana":"ホッカイドウ","city":"芦別市","city_kana":"アシベツシ","town":"南一条東","town_kana":"ミナミ1ジョウヒガシ","prefecture_code":1},"0021":{"zip_code":"0750021","prefecture":"北海道","prefecture_kana":"ホッカイドウ","city":"芦別市","city_kana":"アシベツシ","town":"南一条西","town_kana":"ミナミ1ジョウニシ","prefecture_code":1},"0032":{"zip_code":"0750032","prefecture":"北海道","prefecture_kana":"ホッカイドウ","city":"芦別市","city_kana":"アシベツシ","town":"南二条東","town_kana":"ミナミ2ジョウヒガシ","prefecture_code":1},"0033":{"zip_code":"0750033","prefecture":"北海道","prefecture_kana":"ホッカイドウ","city":"芦別市","city_kana":"アシベツシ","town":"南三条東","town_kana":"ミナミ3ジョウヒガシ","prefecture_code":1},"0164":{"zip_code":"0750164","prefecture":"北海道","prefecture_kana":"ホッカイドウ","city":"芦別市","city_kana":"アシベツシ","town":"頼城町","town_kana":"ライジョウチョウ","prefecture_code":1},"0163":{"zip_code":"0750163","prefecture":"北海道","prefecture_kana":"ホッカイドウ","city":"芦別市","city_kana":"アシベツシ","town":"緑泉町","town_kana":"ロクセンチョウ","prefecture_code":1}}