{"0081":{"zip_code":"0760081","prefecture":"北海道","prefecture_kana":"ホッカイドウ","city":"芦別市","city_kana":"アシベツシ","town":"泉","town_kana":"イズミ","prefecture_code":1},"0000":{"zip_code":"0760000","prefecture":"北海道","prefecture_kana":"ホッカイドウ","city":"富良野市","city_kana":"フラノシ","town":"","town_kana":"","prefecture_code":1},"0026":{"zip_code":"0760026","prefecture":"北海道","prefecture_kana":"ホッカイドウ","city":"富良野市","city_kana":"フラノシ","town":"朝日町","town_kana":"アサヒマチ","prefecture_code":1},"0008":{"zip_code":"0760008","prefecture":"北海道","prefecture_kana":"ホッカイドウ","city":"富良野市","city_kana":"フラノシ","town":"扇町","town_kana":"オウギマチ","prefecture_code":1},"0035":{"zip_code":"0760035","prefecture":"北海道","prefecture_kana":"ホッカイドウ","city":"富良野市","city_kana":"フラノシ","town":"学田三区","town_kana":"ガクデンサンク","prefecture_code":1},"0054":{"zip_code":"0760054","prefecture":"北海道","prefecture_kana":"ホッカイドウ","city":"富良野市","city_kana":"フラノシ","town":"春日町","town_kana":"カスガチョウ","prefecture_code":1},"0038":{"zip_code":"0760038","prefecture":"北海道","prefecture_kana":"ホッカイドウ","city":"富良野市","city_kana":"フラノシ","town":"桂木町","town_kana":"カツラギチョウ","prefecture_code":1},"0014":{"zip_code":"0760014","prefecture":"北海道","prefecture_kana":"ホッカイドウ","city":"富良野市","city_kana":"フラノシ","town":"上五区","town_kana":"カミゴク","prefecture_code":1},"0015":{"zip_code":"0760015","prefecture":"北海道","prefecture_kana":"ホッカイドウ","city":"富良野市","city_kana":"フラノシ","town":"上御料","town_kana":"カミゴリョウ","prefecture_code":1},"0059":{"zip_code":"0760059","prefecture":"北海道","prefecture_kana":"ホッカイドウ","city":"富良野市","city_kana":"フラノシ","town":"北麻町","town_kana":"キタアサマチ","prefecture_code":1},"0001":{"zip_code":"0760001","prefecture":"北海道","prefecture_kana":"ホッカイドウ","city":"富良野市","city_kana":"フラノシ","town":"北扇山","town_kana":"キタオウギヤマ","prefecture_code":1},"0044":{"zip_code":"0760044","prefecture":"北海道","prefecture_kana":"ホッカイドウ","city":"富良野市","city_kana":"フラノシ","town":"北大沼","town_kana":"キタオオヌマ","prefecture_code":1},"0034":{"zip_code":"0760034","prefecture":"北海道","prefecture_kana":"ホッカイドウ","city":"富良野市","city_kana":"フラノシ","town":"北の峰町","town_kana":"キタノミネチョウ","prefecture_code":1},"0175":{"zip_code":"0760175","prefecture":"北海道","prefecture_kana":"ホッカイドウ","city":"富良野市","city_kana":"フラノシ","town":"北布礼別","town_kana":"キタフレベツ","prefecture_code":1},"0165":{"zip_code":"0760165","prefecture":"北海道","prefecture_kana":"ホッカイドウ","city":"富良野市","city_kana":"フラノシ","town":"北麓郷","town_kana":"キタロクゴウ","prefecture_code":1},"0024":{"zip_code":"0760024","prefecture":"北海道","prefecture_kana":"ホッカイドウ","city":"富良野市","city_kana":"フラノシ","town":"幸町","town_kana":"サイワイチョウ","prefecture_code":1},"0023":{"zip_code":"0760023","prefecture":"北海道","prefecture_kana":"ホッカイドウ","city":"富良野市","city_kana":"フラノシ","town":"栄町","town_kana":"サカエマチ","prefecture_code":1},"0039":{"zip_code":"0760039","prefecture":"北海道","prefecture_kana":"ホッカイドウ","city":"富良野市","city_kana":"フラノシ","town":"信濃沢","town_kana":"シナノサワ","prefecture_code":1},"0050":{"zip_code":"0760050","prefecture":"北海道","prefecture_kana":"ホッカイドウ","city":"富良野市","city_kana":"フラノシ","town":"東雲町","town_kana":"シノノメチョウ","prefecture_code":1},"0036":{"zip_code":"0760036","prefecture":"北海道","prefecture_kana":"ホッカイドウ","city":"富良野市","city_kana":"フラノシ","town":"島ノ下","town_kana":"シマノシタ","prefecture_code":1},"0048":{"zip_code":"0760048","prefecture":"北海道","prefecture_kana":"ホッカイドウ","city":"富良野市","city_kana":"フラノシ","town":"清水山","town_kana":"シミズヤマ","prefecture_code":1},"0012":{"zip_code":"0760012","prefecture":"北海道","prefecture_kana":"ホッカイドウ","city":"富良野市","city_kana":"フラノシ","town":"下五区","town_kana":"シモゴク","prefecture_code":1},"0017":{"zip_code":"0760017","prefecture":"北海道","prefecture_kana":"ホッカイドウ","city":"富良野市","city_kana":"フラノシ","town":"下御料","town_kana":"シモゴリョウ","prefecture_code":1},"0058":{"zip_code":"0760058","prefecture":"北海道","prefecture_kana":"ホッカイドウ","city":"富良野市","city_kana":"フラノシ","town":"新光町","town_kana":"シンコウチョウ","prefecture_code":1},"0033":{"zip_code":"0760033","prefecture":"北海道","prefecture_kana":"ホッカイドウ","city":"富良野市","city_kana":"フラノシ","town":"新富町","town_kana":"シントミチョウ","prefecture_code":1},"0011":{"zip_code":"0760011","prefecture":"北海道","prefecture_kana":"ホッカイドウ","city":"富良野市","city_kana":"フラノシ","town":"末広町","town_kana":"スエヒロチョウ","prefecture_code":1},"0057":{"zip_code":"0760057","prefecture":"北海道","prefecture_kana":"ホッカイドウ","city":"富良野市","city_kana":"フラノシ","town":"住吉町","town_kana":"スミヨシチョウ","prefecture_code":1},"0204":{"zip_code":"0760204","prefecture":"北海道","prefecture_kana":"ホッカイドウ","city":"富良野市","city_kana":"フラノシ","town":"平沢","town_kana":"タイラザワ","prefecture_code":1},"0183":{"zip_code":"0760183","prefecture":"北海道","prefecture_kana":"ホッカイドウ","city":"富良野市","city_kana":"フラノシ","town":"富丘更生","town_kana":"トミオカコウセイ","prefecture_code":1},"0013":{"zip_code":"0760013","prefecture":"北海道","prefecture_kana":"ホッカイドウ","city":"富良野市","city_kana":"フラノシ","town":"中五区","town_kana":"ナカゴク","prefecture_code":1},"0016":{"zip_code":"0760016","prefecture":"北海道","prefecture_kana":"ホッカイドウ","city":"富良野市","city_kana":"フラノシ","town":"中御料","town_kana":"ナカゴリョウ","prefecture_code":1},"0176":{"zip_code":"0760176","prefecture":"北海道","prefecture_kana":"ホッカイドウ","city":"富良野市","city_kana":"フラノシ","town":"中布礼別","town_kana":"ナカフレベツ","prefecture_code":1},"0055":{"zip_code":"0760055","prefecture":"北海道","prefecture_kana":"ホッカイドウ","city":"富良野市","city_kana":"フラノシ","town":"西麻町","town_kana":"ニシアサマチ","prefecture_code":1},"0006":{"zip_code":"0760006","prefecture":"北海道","prefecture_kana":"ホッカイドウ","city":"富良野市","city_kana":"フラノシ","town":"西扇山","town_kana":"ニシオウギヤマ","prefecture_code":1},"0047":{"zip_code":"0760047","prefecture":"北海道","prefecture_kana":"ホッカイドウ","city":"富良野市","city_kana":"フラノシ","town":"西学田二区","town_kana":"ニシガクデンニク","prefecture_code":1},"0028":{"zip_code":"0760028","prefecture":"北海道","prefecture_kana":"ホッカイドウ","city":"富良野市","city_kana":"フラノシ","town":"錦町","town_kana":"ニシキマチ","prefecture_code":1},"0201":{"zip_code":"0760201","prefecture":"北海道","prefecture_kana":"ホッカイドウ","city":"富良野市","city_kana":"フラノシ","town":"西達布","town_kana":"ニシタップ","prefecture_code":1},"0182":{"zip_code":"0760182","prefecture":"北海道","prefecture_kana":"ホッカイドウ","city":"富良野市","city_kana":"フラノシ","town":"西富丘","town_kana":"ニシトミオカ","prefecture_code":1},"0042":{"zip_code":"0760042","prefecture":"北海道","prefecture_kana":"ホッカイドウ","city":"富良野市","city_kana":"フラノシ","town":"西鳥沼","town_kana":"ニシトリヌマ","prefecture_code":1},"0173":{"zip_code":"0760173","prefecture":"北海道","prefecture_kana":"ホッカイドウ","city":"富良野市","city_kana":"フラノシ","town":"西布礼別","town_kana":"ニシフレベツ","prefecture_code":1},"0037":{"zip_code":"0760037","prefecture":"北海道","prefecture_kana":"ホッカイドウ","city":"富良野市","city_kana":"フラノシ","town":"西町","town_kana":"ニシマチ","prefecture_code":1},"0163":{"zip_code":"0760163","prefecture":"北海道","prefecture_kana":"ホッカイドウ","city":"富良野市","city_kana":"フラノシ","town":"西麓郷","town_kana":"ニシロクゴウ","prefecture_code":1},"0003":{"zip_code":"0760003","prefecture":"北海道","prefecture_kana":"ホッカイドウ","city":"富良野市","city_kana":"フラノシ","town":"布部石綿","town_kana":"ヌノベイシワタ","prefecture_code":1},"0004":{"zip_code":"0760004","prefecture":"北海道","prefecture_kana":"ホッカイドウ","city":"富良野市","city_kana":"フラノシ","town":"布部市街地","town_kana":"ヌノベシガイチ","prefecture_code":1},"0005":{"zip_code":"0760005","prefecture":"北海道","prefecture_kana":"ホッカイドウ","city":"富良野市","city_kana":"フラノシ","town":"布部一","town_kana":"ヌノベイチ","prefecture_code":1},"0027":{"zip_code":"0760027","prefecture":"北海道","prefecture_kana":"ホッカイドウ","city":"富良野市","city_kana":"フラノシ","town":"花園町","town_kana":"ハナゾノチョウ","prefecture_code":1},"0051":{"zip_code":"0760051","prefecture":"北海道","prefecture_kana":"ホッカイドウ","city":"富良野市","city_kana":"フラノシ","town":"東麻町","town_kana":"ヒガシアサマチ","prefecture_code":1},"0045":{"zip_code":"0760045","prefecture":"北海道","prefecture_kana":"ホッカイドウ","city":"富良野市","city_kana":"フラノシ","town":"東学田二区","town_kana":"ヒガシガクデンニク","prefecture_code":1},"0181":{"zip_code":"0760181","prefecture":"北海道","prefecture_kana":"ホッカイドウ","city":"富良野市","city_kana":"フラノシ","town":"東富丘","town_kana":"ヒガシトミオカ","prefecture_code":1},"0041":{"zip_code":"0760041","prefecture":"北海道","prefecture_kana":"ホッカイドウ","city":"富良野市","city_kana":"フラノシ","town":"東鳥沼","town_kana":"ヒガシトリヌマ","prefecture_code":1},"0172":{"zip_code":"0760172","prefecture":"北海道","prefecture_kana":"ホッカイドウ","city":"富良野市","city_kana":"フラノシ","town":"東布礼別","town_kana":"ヒガシフレベツ","prefecture_code":1},"0053":{"zip_code":"0760053","prefecture":"北海道","prefecture_kana":"ホッカイドウ","city":"富良野市","city_kana":"フラノシ","town":"東町","town_kana":"ヒガシマチ","prefecture_code":1},"0202":{"zip_code":"0760202","prefecture":"北海道","prefecture_kana":"ホッカイドウ","city":"富良野市","city_kana":"フラノシ","town":"東山","town_kana":"ヒガシヤマ","prefecture_code":1},"0162":{"zip_code":"0760162","prefecture":"北海道","prefecture_kana":"ホッカイドウ","city":"富良野市","city_kana":"フラノシ","town":"東麓郷","town_kana":"ヒガシロクゴウ","prefecture_code":1},"0025":{"zip_code":"0760025","prefecture":"北海道","prefecture_kana":"ホッカイドウ","city":"富良野市","city_kana":"フラノシ","town":"日の出町","town_kana":"ヒノデマチ","prefecture_code":1},"0171":{"zip_code":"0760171","prefecture":"北海道","prefecture_kana":"ホッカイドウ","city":"富良野市","city_kana":"フラノシ","town":"布礼別市街地","town_kana":"フレベツシガイチ","prefecture_code":1},"0046":{"zip_code":"0760046","prefecture":"北海道","prefecture_kana":"ホッカイドウ","city":"富良野市","city_kana":"フラノシ","town":"北斗町","town_kana":"ホクトチョウ","prefecture_code":1},"0056":{"zip_code":"0760056","prefecture":"北海道","prefecture_kana":"ホッカイドウ","city":"富良野市","city_kana":"フラノシ","town":"瑞穂町","town_kana":"ミズホチョウ","prefecture_code":1},"0021":{"zip_code":"0760021","prefecture":"北海道","prefecture_kana":"ホッカイドウ","city":"富良野市","city_kana":"フラノシ","town":"緑町","town_kana":"ミドリマチ","prefecture_code":1},"0052":{"zip_code":"0760052","prefecture":"北海道","prefecture_kana":"ホッカイドウ","city":"富良野市","city_kana":"フラノシ","town":"南麻町","town_kana":"ミナミアサマチ","prefecture_code":1},"0002":{"zip_code":"0760002","prefecture":"北海道","prefecture_kana":"ホッカイドウ","city":"富良野市","city_kana":"フラノシ","town":"南扇山","town_kana":"ミナミオウギヤマ","prefecture_code":1},"0043":{"zip_code":"0760043","prefecture":"北海道","prefecture_kana":"ホッカイドウ","city":"富良野市","city_kana":"フラノシ","town":"南大沼","town_kana":"ミナミオオヌマ","prefecture_code":1},"0174":{"zip_code":"0760174","prefecture":"北海道","prefecture_kana":"ホッカイドウ","city":"富良野市","city_kana":"フラノシ","town":"南布礼別","town_kana":"ミナミフレベツ","prefecture_code":1},"0007":{"zip_code":"0760007","prefecture":"北海道","prefecture_kana":"ホッカイドウ","city":"富良野市","city_kana":"フラノシ","town":"南町","town_kana":"ミナミマチ","prefecture_code":1},"0164":{"zip_code":"0760164","prefecture":"北海道","prefecture_kana":"ホッカイドウ","city":"富良野市","city_kana":"フラノシ","town":"南麓郷","town_kana":"ミナミロクゴウ","prefecture_code":1},"0031":{"zip_code":"0760031","prefecture":"北海道","prefecture_kana":"ホッカイドウ","city":"富良野市","city_kana":"フラノシ","town":"本町","town_kana":"モトマチ","prefecture_code":1},"0184":{"zip_code":"0760184","prefecture":"北海道","prefecture_kana":"ホッカイドウ","city":"富良野市","city_kana":"フラノシ","town":"八幡丘","town_kana":"ヤハタオカ","prefecture_code":1},"0018":{"zip_code":"0760018","prefecture":"北海道","prefecture_kana":"ホッカイドウ","city":"富良野市","city_kana":"フラノシ","town":"弥生町","town_kana":"ヤヨイチョウ","prefecture_code":1},"0203":{"zip_code":"0760203","prefecture":"北海道","prefecture_kana":"ホッカイドウ","city":"富良野市","city_kana":"フラノシ","town":"老節布","town_kana":"ロウセップ","prefecture_code":1},"0161":{"zip_code":"0760161","prefecture":"北海道","prefecture_kana":"ホッカイドウ","city":"富良野市","city_kana":"フラノシ","town":"麓郷市街地","town_kana":"ロクゴウシガイチ","prefecture_code":1},"0022":{"zip_code":"0760022","prefecture":"北海道","prefecture_kana":"ホッカイドウ","city":"富良野市","city_kana":"フラノシ","town":"若葉町","town_kana":"ワカバチョウ","prefecture_code":1},"0032":{"zip_code":"0760032","prefecture":"北海道","prefecture_kana":"ホッカイドウ","city":"富良野市","city_kana":"フラノシ","town":"若松町","town_kana":"ワカマツチョウ","prefecture_code":1}}