{"0000":{"zip_code":"0770000","prefecture":"北海道","prefecture_kana":"ホッカイドウ","city":"留萌市","city_kana":"ルモイシ","town":"","town_kana":"","prefecture_code":1},"0041":{"zip_code":"0770041","prefecture":"北海道","prefecture_kana":"ホッカイドウ","city":"留萌市","city_kana":"ルモイシ","town":"明元町","town_kana":"アケモトチョウ","prefecture_code":1},"0043":{"zip_code":"0770043","prefecture":"北海道","prefecture_kana":"ホッカイドウ","city":"留萌市","city_kana":"ルモイシ","town":"旭町","town_kana":"アサヒマチ","prefecture_code":1},"0023":{"zip_code":"0770023","prefecture":"北海道","prefecture_kana":"ホッカイドウ","city":"留萌市","city_kana":"ルモイシ","town":"五十嵐町","town_kana":"イガラシチョウ","prefecture_code":1},"0026":{"zip_code":"0770026","prefecture":"北海道","prefecture_kana":"ホッカイドウ","city":"留萌市","city_kana":"ルモイシ","town":"泉町","town_kana":"イズミチョウ","prefecture_code":1},"0048":{"zip_code":"0770048","prefecture":"北海道","prefecture_kana":"ホッカイドウ","city":"留萌市","city_kana":"ルモイシ","town":"大町","town_kana":"オオマチ","prefecture_code":1},"0012":{"zip_code":"0770012","prefecture":"北海道","prefecture_kana":"ホッカイドウ","city":"留萌市","city_kana":"ルモイシ","town":"大和田","town_kana":"オオワダ","prefecture_code":1},"0037":{"zip_code":"0770037","prefecture":"北海道","prefecture_kana":"ホッカイドウ","city":"留萌市","city_kana":"ルモイシ","town":"沖見町","town_kana":"オキミチョウ","prefecture_code":1},"0042":{"zip_code":"0770042","prefecture":"北海道","prefecture_kana":"ホッカイドウ","city":"留萌市","city_kana":"ルモイシ","town":"開運町","town_kana":"カイウンチョウ","prefecture_code":1},"0003":{"zip_code":"0770003","prefecture":"北海道","prefecture_kana":"ホッカイドウ","city":"留萌市","city_kana":"ルモイシ","town":"春日町","town_kana":"カスガチョウ","prefecture_code":1},"0038":{"zip_code":"0770038","prefecture":"北海道","prefecture_kana":"ホッカイドウ","city":"留萌市","city_kana":"ルモイシ","town":"寿町","town_kana":"コトブキチョウ","prefecture_code":1},"0031":{"zip_code":"0770031","prefecture":"北海道","prefecture_kana":"ホッカイドウ","city":"留萌市","city_kana":"ルモイシ","town":"幸町","town_kana":"サイワイチョウ","prefecture_code":1},"0007":{"zip_code":"0770007","prefecture":"北海道","prefecture_kana":"ホッカイドウ","city":"留萌市","city_kana":"ルモイシ","town":"栄町","town_kana":"サカエマチ","prefecture_code":1},"0001":{"zip_code":"0770001","prefecture":"北海道","prefecture_kana":"ホッカイドウ","city":"留萌市","city_kana":"ルモイシ","town":"三泊町","town_kana":"サンドマリチョウ","prefecture_code":1},"0002":{"zip_code":"0770002","prefecture":"北海道","prefecture_kana":"ホッカイドウ","city":"留萌市","city_kana":"ルモイシ","town":"塩見町","town_kana":"シオミチョウ","prefecture_code":1},"0011":{"zip_code":"0770011","prefecture":"北海道","prefecture_kana":"ホッカイドウ","city":"留萌市","city_kana":"ルモイシ","town":"東雲町","town_kana":"シノノメチョウ","prefecture_code":1},"0006":{"zip_code":"0770006","prefecture":"北海道","prefecture_kana":"ホッカイドウ","city":"留萌市","city_kana":"ルモイシ","town":"末広町","town_kana":"スエヒロチョウ","prefecture_code":1},"0027":{"zip_code":"0770027","prefecture":"北海道","prefecture_kana":"ホッカイドウ","city":"留萌市","city_kana":"ルモイシ","town":"住之江町","town_kana":"スミノエチョウ","prefecture_code":1},"0047":{"zip_code":"0770047","prefecture":"北海道","prefecture_kana":"ホッカイドウ","city":"留萌市","city_kana":"ルモイシ","town":"瀬越町","town_kana":"セゴシチョウ","prefecture_code":1},"0021":{"zip_code":"0770021","prefecture":"北海道","prefecture_kana":"ホッカイドウ","city":"留萌市","city_kana":"ルモイシ","town":"高砂町","town_kana":"タカサゴチョウ","prefecture_code":1},"0024":{"zip_code":"0770024","prefecture":"北海道","prefecture_kana":"ホッカイドウ","city":"留萌市","city_kana":"ルモイシ","town":"千鳥町","town_kana":"チドリチョウ","prefecture_code":1},"0013":[{"zip_code":"0770013","prefecture":"北海道","prefecture_kana":"ホッカイドウ","city":"留萌市","city_kana":"ルモイシ","town":"潮静","town_kana":"チョウセイ","prefecture_code":1},{"zip_code":"0770013","prefecture":"北海道","prefecture_kana":"ホッカイドウ","city":"留萌市","city_kana":"ルモイシ","town":"留萌原野","town_kana":"ルモイゲンヤ","prefecture_code":1}],"0044":{"zip_code":"0770044","prefecture":"北海道","prefecture_kana":"ホッカイドウ","city":"留萌市","city_kana":"ルモイシ","town":"錦町","town_kana":"ニシキマチ","prefecture_code":1},"0025":{"zip_code":"0770025","prefecture":"北海道","prefecture_kana":"ホッカイドウ","city":"留萌市","city_kana":"ルモイシ","town":"野本町","town_kana":"ノモトチョウ","prefecture_code":1},"0028":{"zip_code":"0770028","prefecture":"北海道","prefecture_kana":"ホッカイドウ","city":"留萌市","city_kana":"ルモイシ","town":"花園町","town_kana":"ハナゾノチョウ","prefecture_code":1},"0036":{"zip_code":"0770036","prefecture":"北海道","prefecture_kana":"ホッカイドウ","city":"留萌市","city_kana":"ルモイシ","town":"浜中町","town_kana":"ハマナカチョウ","prefecture_code":1},"0005":{"zip_code":"0770005","prefecture":"北海道","prefecture_kana":"ホッカイドウ","city":"留萌市","city_kana":"ルモイシ","town":"船場町","town_kana":"フナバチョウ","prefecture_code":1},"0034":{"zip_code":"0770034","prefecture":"北海道","prefecture_kana":"ホッカイドウ","city":"留萌市","city_kana":"ルモイシ","town":"平和台","town_kana":"ヘイワダイ","prefecture_code":1},"0022":{"zip_code":"0770022","prefecture":"北海道","prefecture_kana":"ホッカイドウ","city":"留萌市","city_kana":"ルモイシ","town":"堀川町","town_kana":"ホリカワチョウ","prefecture_code":1},"0045":{"zip_code":"0770045","prefecture":"北海道","prefecture_kana":"ホッカイドウ","city":"留萌市","city_kana":"ルモイシ","town":"本町","town_kana":"ホンチョウ","prefecture_code":1},"0015":{"zip_code":"0770015","prefecture":"北海道","prefecture_kana":"ホッカイドウ","city":"留萌市","city_kana":"ルモイシ","town":"緑ケ丘町","town_kana":"ミドリガオカチョウ","prefecture_code":1},"0046":{"zip_code":"0770046","prefecture":"北海道","prefecture_kana":"ホッカイドウ","city":"留萌市","city_kana":"ルモイシ","town":"港町","town_kana":"ミナトマチ","prefecture_code":1},"0014":{"zip_code":"0770014","prefecture":"北海道","prefecture_kana":"ホッカイドウ","city":"留萌市","city_kana":"ルモイシ","town":"南町","town_kana":"ミナミマチ","prefecture_code":1},"0033":{"zip_code":"0770033","prefecture":"北海道","prefecture_kana":"ホッカイドウ","city":"留萌市","city_kana":"ルモイシ","town":"見晴町","town_kana":"ミハラシチョウ","prefecture_code":1},"0032":{"zip_code":"0770032","prefecture":"北海道","prefecture_kana":"ホッカイドウ","city":"留萌市","city_kana":"ルモイシ","town":"宮園町","town_kana":"ミヤゾノチョウ","prefecture_code":1},"0016":{"zip_code":"0770016","prefecture":"北海道","prefecture_kana":"ホッカイドウ","city":"留萌市","city_kana":"ルモイシ","town":"元川町","town_kana":"モトカワチョウ","prefecture_code":1},"0004":{"zip_code":"0770004","prefecture":"北海道","prefecture_kana":"ホッカイドウ","city":"留萌市","city_kana":"ルモイシ","town":"元町","town_kana":"モトマチ","prefecture_code":1},"0035":{"zip_code":"0770035","prefecture":"北海道","prefecture_kana":"ホッカイドウ","city":"留萌市","city_kana":"ルモイシ","town":"礼受町","town_kana":"レウケチョウ","prefecture_code":1},"0351":{"zip_code":"0770351","prefecture":"北海道","prefecture_kana":"ホッカイドウ","city":"石狩市","city_kana":"イシカリシ","town":"浜益区雄冬","town_kana":"ハママスクオフユ","prefecture_code":1},"0200":{"zip_code":"0770200","prefecture":"北海道","prefecture_kana":"ホッカイドウ","city":"増毛郡増毛町","city_kana":"マシケグンマシケチョウ","town":"","town_kana":"","prefecture_code":1},"0131":{"zip_code":"0770131","prefecture":"北海道","prefecture_kana":"ホッカイドウ","city":"増毛郡増毛町","city_kana":"マシケグンマシケチョウ","town":"阿分","town_kana":"アフン","prefecture_code":1},"0203":{"zip_code":"0770203","prefecture":"北海道","prefecture_kana":"ホッカイドウ","city":"増毛郡増毛町","city_kana":"マシケグンマシケチョウ","town":"稲葉海岸町","town_kana":"イナバカイガンチョウ","prefecture_code":1},"0204":{"zip_code":"0770204","prefecture":"北海道","prefecture_kana":"ホッカイドウ","city":"増毛郡増毛町","city_kana":"マシケグンマシケチョウ","town":"稲葉町","town_kana":"イナバチョウ","prefecture_code":1},"0345":{"zip_code":"0770345","prefecture":"北海道","prefecture_kana":"ホッカイドウ","city":"増毛郡増毛町","city_kana":"マシケグンマシケチョウ","town":"岩尾","town_kana":"イワオ","prefecture_code":1},"0344":{"zip_code":"0770344","prefecture":"北海道","prefecture_kana":"ホッカイドウ","city":"増毛郡増毛町","city_kana":"マシケグンマシケチョウ","town":"岩老","town_kana":"イワオイ","prefecture_code":1},"0201":{"zip_code":"0770201","prefecture":"北海道","prefecture_kana":"ホッカイドウ","city":"増毛郡増毛町","city_kana":"マシケグンマシケチョウ","town":"永寿町","town_kana":"エイジュチョウ","prefecture_code":1},"0341":{"zip_code":"0770341","prefecture":"北海道","prefecture_kana":"ホッカイドウ","city":"増毛郡増毛町","city_kana":"マシケグンマシケチョウ","town":"雄冬","town_kana":"オフユ","prefecture_code":1},"0134":{"zip_code":"0770134","prefecture":"北海道","prefecture_kana":"ホッカイドウ","city":"増毛郡増毛町","city_kana":"マシケグンマシケチョウ","town":"御料","town_kana":"ゴリョウ","prefecture_code":1},"0218":{"zip_code":"0770218","prefecture":"北海道","prefecture_kana":"ホッカイドウ","city":"増毛郡増毛町","city_kana":"マシケグンマシケチョウ","town":"栄町","town_kana":"サカエマチ","prefecture_code":1},"0212":{"zip_code":"0770212","prefecture":"北海道","prefecture_kana":"ホッカイドウ","city":"増毛郡増毛町","city_kana":"マシケグンマシケチョウ","town":"七源町","town_kana":"シチゲンチョウ","prefecture_code":1},"0209":{"zip_code":"0770209","prefecture":"北海道","prefecture_kana":"ホッカイドウ","city":"増毛郡増毛町","city_kana":"マシケグンマシケチョウ","town":"舎熊","town_kana":"シャクマ","prefecture_code":1},"0132":{"zip_code":"0770132","prefecture":"北海道","prefecture_kana":"ホッカイドウ","city":"増毛郡増毛町","city_kana":"マシケグンマシケチョウ","town":"舎熊","town_kana":"シャクマ","prefecture_code":1},"0211":{"zip_code":"0770211","prefecture":"北海道","prefecture_kana":"ホッカイドウ","city":"増毛郡増毛町","city_kana":"マシケグンマシケチョウ","town":"暑寒海岸町","town_kana":"ショカンカイガンチョウ","prefecture_code":1},"0216":{"zip_code":"0770216","prefecture":"北海道","prefecture_kana":"ホッカイドウ","city":"増毛郡増毛町","city_kana":"マシケグンマシケチョウ","town":"暑寒沢","town_kana":"ショカンザワ","prefecture_code":1},"0215":{"zip_code":"0770215","prefecture":"北海道","prefecture_kana":"ホッカイドウ","city":"増毛郡増毛町","city_kana":"マシケグンマシケチョウ","town":"暑寒町","town_kana":"ショカンチョウ","prefecture_code":1},"0206":{"zip_code":"0770206","prefecture":"北海道","prefecture_kana":"ホッカイドウ","city":"増毛郡増毛町","city_kana":"マシケグンマシケチョウ","town":"中歌","town_kana":"ナカウタ","prefecture_code":1},"0202":{"zip_code":"0770202","prefecture":"北海道","prefecture_kana":"ホッカイドウ","city":"増毛郡増毛町","city_kana":"マシケグンマシケチョウ","town":"野塚町","town_kana":"ノヅカチョウ","prefecture_code":1},"0133":{"zip_code":"0770133","prefecture":"北海道","prefecture_kana":"ホッカイドウ","city":"増毛郡増毛町","city_kana":"マシケグンマシケチョウ","town":"信砂","town_kana":"ノブシャ","prefecture_code":1},"0207":{"zip_code":"0770207","prefecture":"北海道","prefecture_kana":"ホッカイドウ","city":"増毛郡増毛町","city_kana":"マシケグンマシケチョウ","town":"箸別","town_kana":"ハシベツ","prefecture_code":1},"0213":{"zip_code":"0770213","prefecture":"北海道","prefecture_kana":"ホッカイドウ","city":"増毛郡増毛町","city_kana":"マシケグンマシケチョウ","town":"畠中北町","town_kana":"ハタナカキタマチ","prefecture_code":1},"0214":{"zip_code":"0770214","prefecture":"北海道","prefecture_kana":"ホッカイドウ","city":"増毛郡増毛町","city_kana":"マシケグンマシケチョウ","town":"畠中町","town_kana":"ハタナカチョウ","prefecture_code":1},"0217":{"zip_code":"0770217","prefecture":"北海道","prefecture_kana":"ホッカイドウ","city":"増毛郡増毛町","city_kana":"マシケグンマシケチョウ","town":"別苅","town_kana":"ベツカリ","prefecture_code":1},"0205":{"zip_code":"0770205","prefecture":"北海道","prefecture_kana":"ホッカイドウ","city":"増毛郡増毛町","city_kana":"マシケグンマシケチョウ","town":"弁天町","town_kana":"ベンテンチョウ","prefecture_code":1},"0221":{"zip_code":"0770221","prefecture":"北海道","prefecture_kana":"ホッカイドウ","city":"増毛郡増毛町","city_kana":"マシケグンマシケチョウ","town":"港町","town_kana":"ミナトマチ","prefecture_code":1},"0223":{"zip_code":"0770223","prefecture":"北海道","prefecture_kana":"ホッカイドウ","city":"増毛郡増毛町","city_kana":"マシケグンマシケチョウ","town":"南永寿町","town_kana":"ミナミエイジュチョウ","prefecture_code":1},"0225":{"zip_code":"0770225","prefecture":"北海道","prefecture_kana":"ホッカイドウ","city":"増毛郡増毛町","city_kana":"マシケグンマシケチョウ","town":"南暑寒町","town_kana":"ミナミショカンチョウ","prefecture_code":1},"0224":{"zip_code":"0770224","prefecture":"北海道","prefecture_kana":"ホッカイドウ","city":"増毛郡増毛町","city_kana":"マシケグンマシケチョウ","town":"南畠中町","town_kana":"ミナミハタナカチョウ","prefecture_code":1},"0222":{"zip_code":"0770222","prefecture":"北海道","prefecture_kana":"ホッカイドウ","city":"増毛郡増毛町","city_kana":"マシケグンマシケチョウ","town":"見晴町","town_kana":"ミハラシチョウ","prefecture_code":1},"0208":{"zip_code":"0770208","prefecture":"北海道","prefecture_kana":"ホッカイドウ","city":"増毛郡増毛町","city_kana":"マシケグンマシケチョウ","town":"湯の沢","town_kana":"ユノサワ","prefecture_code":1},"0461":{"zip_code":"0770461","prefecture":"北海道","prefecture_kana":"ホッカイドウ","city":"留萌郡小平町","city_kana":"ルモイグンオビラチョウ","town":"川上","town_kana":"カワカミ","prefecture_code":1},"0464":{"zip_code":"0770464","prefecture":"北海道","prefecture_kana":"ホッカイドウ","city":"留萌郡小平町","city_kana":"ルモイグンオビラチョウ","town":"住吉","town_kana":"スミヨシ","prefecture_code":1},"0462":{"zip_code":"0770462","prefecture":"北海道","prefecture_kana":"ホッカイドウ","city":"留萌郡小平町","city_kana":"ルモイグンオビラチョウ","town":"滝下","town_kana":"タキシタ","prefecture_code":1},"0463":{"zip_code":"0770463","prefecture":"北海道","prefecture_kana":"ホッカイドウ","city":"留萌郡小平町","city_kana":"ルモイグンオビラチョウ","town":"達布","town_kana":"タップ","prefecture_code":1},"0465":{"zip_code":"0770465","prefecture":"北海道","prefecture_kana":"ホッカイドウ","city":"留萌郡小平町","city_kana":"ルモイグンオビラチョウ","town":"寧楽","town_kana":"ネイラク","prefecture_code":1},"0466":[{"zip_code":"0770466","prefecture":"北海道","prefecture_kana":"ホッカイドウ","city":"留萌郡小平町","city_kana":"ルモイグンオビラチョウ","town":"平和","town_kana":"ヘイワ","prefecture_code":1},{"zip_code":"0770466","prefecture":"北海道","prefecture_kana":"ホッカイドウ","city":"留萌郡小平町","city_kana":"ルモイグンオビラチョウ","town":"平和２区","town_kana":"ヘイワ2ク","prefecture_code":1}]}