{"8401":{"zip_code":"0798401","prefecture":"北海道","prefecture_kana":"ホッカイドウ","city":"旭川市","city_kana":"アサヒカワシ","town":"秋月１条","town_kana":"アキツキ1ジョウ","prefecture_code":1},"8402":{"zip_code":"0798402","prefecture":"北海道","prefecture_kana":"ホッカイドウ","city":"旭川市","city_kana":"アサヒカワシ","town":"秋月２条","town_kana":"アキツキ2ジョウ","prefecture_code":1},"8403":{"zip_code":"0798403","prefecture":"北海道","prefecture_kana":"ホッカイドウ","city":"旭川市","city_kana":"アサヒカワシ","town":"秋月３条","town_kana":"アキツキ3ジョウ","prefecture_code":1},"8411":{"zip_code":"0798411","prefecture":"北海道","prefecture_kana":"ホッカイドウ","city":"旭川市","city_kana":"アサヒカワシ","town":"永山１条","town_kana":"ナガヤマ1ジョウ","prefecture_code":1},"8412":{"zip_code":"0798412","prefecture":"北海道","prefecture_kana":"ホッカイドウ","city":"旭川市","city_kana":"アサヒカワシ","town":"永山２条","town_kana":"ナガヤマ2ジョウ","prefecture_code":1},"8413":{"zip_code":"0798413","prefecture":"北海道","prefecture_kana":"ホッカイドウ","city":"旭川市","city_kana":"アサヒカワシ","town":"永山３条","town_kana":"ナガヤマ3ジョウ","prefecture_code":1},"8414":{"zip_code":"0798414","prefecture":"北海道","prefecture_kana":"ホッカイドウ","city":"旭川市","city_kana":"アサヒカワシ","town":"永山４条","town_kana":"ナガヤマ4ジョウ","prefecture_code":1},"8415":{"zip_code":"0798415","prefecture":"北海道","prefecture_kana":"ホッカイドウ","city":"旭川市","city_kana":"アサヒカワシ","town":"永山５条","town_kana":"ナガヤマ5ジョウ","prefecture_code":1},"8416":{"zip_code":"0798416","prefecture":"北海道","prefecture_kana":"ホッカイドウ","city":"旭川市","city_kana":"アサヒカワシ","town":"永山６条","town_kana":"ナガヤマ6ジョウ","prefecture_code":1},"8417":{"zip_code":"0798417","prefecture":"北海道","prefecture_kana":"ホッカイドウ","city":"旭川市","city_kana":"アサヒカワシ","town":"永山７条","town_kana":"ナガヤマ7ジョウ","prefecture_code":1},"8418":{"zip_code":"0798418","prefecture":"北海道","prefecture_kana":"ホッカイドウ","city":"旭川市","city_kana":"アサヒカワシ","town":"永山８条","town_kana":"ナガヤマ8ジョウ","prefecture_code":1},"8419":{"zip_code":"0798419","prefecture":"北海道","prefecture_kana":"ホッカイドウ","city":"旭川市","city_kana":"アサヒカワシ","town":"永山９条","town_kana":"ナガヤマ9ジョウ","prefecture_code":1},"8420":{"zip_code":"0798420","prefecture":"北海道","prefecture_kana":"ホッカイドウ","city":"旭川市","city_kana":"アサヒカワシ","town":"永山１０条","town_kana":"ナガヤマ10ジョウ","prefecture_code":1},"8421":{"zip_code":"0798421","prefecture":"北海道","prefecture_kana":"ホッカイドウ","city":"旭川市","city_kana":"アサヒカワシ","town":"永山１１条","town_kana":"ナガヤマ11ジョウ","prefecture_code":1},"8422":{"zip_code":"0798422","prefecture":"北海道","prefecture_kana":"ホッカイドウ","city":"旭川市","city_kana":"アサヒカワシ","town":"永山１２条","town_kana":"ナガヤマ12ジョウ","prefecture_code":1},"8423":{"zip_code":"0798423","prefecture":"北海道","prefecture_kana":"ホッカイドウ","city":"旭川市","city_kana":"アサヒカワシ","town":"永山１３条","town_kana":"ナガヤマ13ジョウ","prefecture_code":1},"8424":{"zip_code":"0798424","prefecture":"北海道","prefecture_kana":"ホッカイドウ","city":"旭川市","city_kana":"アサヒカワシ","town":"永山１４条","town_kana":"ナガヤマ14ジョウ","prefecture_code":1},"8451":{"zip_code":"0798451","prefecture":"北海道","prefecture_kana":"ホッカイドウ","city":"旭川市","city_kana":"アサヒカワシ","town":"永山北１条","town_kana":"ナガヤマキタ1ジョウ","prefecture_code":1},"8452":{"zip_code":"0798452","prefecture":"北海道","prefecture_kana":"ホッカイドウ","city":"旭川市","city_kana":"アサヒカワシ","town":"永山北２条","town_kana":"ナガヤマキタ2ジョウ","prefecture_code":1},"8453":{"zip_code":"0798453","prefecture":"北海道","prefecture_kana":"ホッカイドウ","city":"旭川市","city_kana":"アサヒカワシ","town":"永山北３条","town_kana":"ナガヤマキタ3ジョウ","prefecture_code":1},"8454":{"zip_code":"0798454","prefecture":"北海道","prefecture_kana":"ホッカイドウ","city":"旭川市","city_kana":"アサヒカワシ","town":"永山北４条","town_kana":"ナガヤマキタ4ジョウ","prefecture_code":1},"8431":{"zip_code":"0798431","prefecture":"北海道","prefecture_kana":"ホッカイドウ","city":"旭川市","city_kana":"アサヒカワシ","town":"永山町","town_kana":"ナガヤマチョウ","prefecture_code":1},"8441":{"zip_code":"0798441","prefecture":"北海道","prefecture_kana":"ホッカイドウ","city":"旭川市","city_kana":"アサヒカワシ","town":"流通団地１条","town_kana":"リュウツウダンチ1ジョウ","prefecture_code":1},"8442":{"zip_code":"0798442","prefecture":"北海道","prefecture_kana":"ホッカイドウ","city":"旭川市","city_kana":"アサヒカワシ","town":"流通団地２条","town_kana":"リュウツウダンチ2ジョウ","prefecture_code":1},"8443":{"zip_code":"0798443","prefecture":"北海道","prefecture_kana":"ホッカイドウ","city":"旭川市","city_kana":"アサヒカワシ","town":"流通団地３条","town_kana":"リュウツウダンチ3ジョウ","prefecture_code":1},"8444":{"zip_code":"0798444","prefecture":"北海道","prefecture_kana":"ホッカイドウ","city":"旭川市","city_kana":"アサヒカワシ","town":"流通団地４条","town_kana":"リュウツウダンチ4ジョウ","prefecture_code":1},"0183":{"zip_code":"0790183","prefecture":"北海道","prefecture_kana":"ホッカイドウ","city":"岩見沢市","city_kana":"イワミザワシ","town":"大願町","town_kana":"オオネガイチョウ","prefecture_code":1},"0181":{"zip_code":"0790181","prefecture":"北海道","prefecture_kana":"ホッカイドウ","city":"岩見沢市","city_kana":"イワミザワシ","town":"岡山町","town_kana":"オカヤマチョウ","prefecture_code":1},"0182":{"zip_code":"0790182","prefecture":"北海道","prefecture_kana":"ホッカイドウ","city":"岩見沢市","city_kana":"イワミザワシ","town":"峰延町","town_kana":"ミネノブチョウ","prefecture_code":1},"0177":[{"zip_code":"0790177","prefecture":"北海道","prefecture_kana":"ホッカイドウ","city":"美唄市","city_kana":"ビバイシ","town":"上美唄町協和","town_kana":"カミビバイチョウキョウワ","prefecture_code":1},{"zip_code":"0790177","prefecture":"北海道","prefecture_kana":"ホッカイドウ","city":"美唄市","city_kana":"ビバイシ","town":"上美唄町南","town_kana":"カミビバイチョウミナミ","prefecture_code":1}],"0274":{"zip_code":"0790274","prefecture":"北海道","prefecture_kana":"ホッカイドウ","city":"美唄市","city_kana":"ビバイシ","town":"北美唄町","town_kana":"キタビバイチョウ","prefecture_code":1},"0165":{"zip_code":"0790165","prefecture":"北海道","prefecture_kana":"ホッカイドウ","city":"美唄市","city_kana":"ビバイシ","town":"光珠内上中の沢","town_kana":"コウシウナイカミナカノサワ","prefecture_code":1},"0164":{"zip_code":"0790164","prefecture":"北海道","prefecture_kana":"ホッカイドウ","city":"美唄市","city_kana":"ビバイシ","town":"光珠内下中の沢","town_kana":"コウシウナイシモナカノサワ","prefecture_code":1},"0162":{"zip_code":"0790162","prefecture":"北海道","prefecture_kana":"ホッカイドウ","city":"美唄市","city_kana":"ビバイシ","town":"光珠内北","town_kana":"コウシュナイキタ","prefecture_code":1},"0161":{"zip_code":"0790161","prefecture":"北海道","prefecture_kana":"ホッカイドウ","city":"美唄市","city_kana":"ビバイシ","town":"光珠内拓北","town_kana":"コウシュナイタクホク","prefecture_code":1},"0171":{"zip_code":"0790171","prefecture":"北海道","prefecture_kana":"ホッカイドウ","city":"美唄市","city_kana":"ビバイシ","town":"光珠内中央","town_kana":"コウシュナイチュウオウ","prefecture_code":1},"0166":{"zip_code":"0790166","prefecture":"北海道","prefecture_kana":"ホッカイドウ","city":"美唄市","city_kana":"ビバイシ","town":"光珠内東山","town_kana":"コウシュナイヒガシヤマ","prefecture_code":1},"0167":{"zip_code":"0790167","prefecture":"北海道","prefecture_kana":"ホッカイドウ","city":"美唄市","city_kana":"ビバイシ","town":"光珠内町南","town_kana":"コウシュナイチョウミナミ","prefecture_code":1},"0261":{"zip_code":"0790261","prefecture":"北海道","prefecture_kana":"ホッカイドウ","city":"美唄市","city_kana":"ビバイシ","town":"茶志内町","town_kana":"チャシナイチョウ","prefecture_code":1},"0267":{"zip_code":"0790267","prefecture":"北海道","prefecture_kana":"ホッカイドウ","city":"美唄市","city_kana":"ビバイシ","town":"茶志内町協和","town_kana":"チャシナイチョウキョウワ","prefecture_code":1},"0266":{"zip_code":"0790266","prefecture":"北海道","prefecture_kana":"ホッカイドウ","city":"美唄市","city_kana":"ビバイシ","town":"茶志内町本町","town_kana":"チャシナイチョウホンチョウ","prefecture_code":1},"0176":{"zip_code":"0790176","prefecture":"北海道","prefecture_kana":"ホッカイドウ","city":"美唄市","city_kana":"ビバイシ","town":"豊葦町","town_kana":"トヨアシチョウ","prefecture_code":1},"0272":{"zip_code":"0790272","prefecture":"北海道","prefecture_kana":"ホッカイドウ","city":"美唄市","city_kana":"ビバイシ","town":"中村町中央","town_kana":"ナカムラチョウチュウオウ","prefecture_code":1},"0271":{"zip_code":"0790271","prefecture":"北海道","prefecture_kana":"ホッカイドウ","city":"美唄市","city_kana":"ビバイシ","town":"中村町南","town_kana":"ナカムラチョウミナミ","prefecture_code":1},"0273":{"zip_code":"0790273","prefecture":"北海道","prefecture_kana":"ホッカイドウ","city":"美唄市","city_kana":"ビバイシ","town":"中村町北","town_kana":"ナカムラチョウキタ","prefecture_code":1},"0262":{"zip_code":"0790262","prefecture":"北海道","prefecture_kana":"ホッカイドウ","city":"美唄市","city_kana":"ビバイシ","town":"日東町栄町","town_kana":"ニットウチョウサカエマチ","prefecture_code":1},"0263":{"zip_code":"0790263","prefecture":"北海道","prefecture_kana":"ホッカイドウ","city":"美唄市","city_kana":"ビバイシ","town":"日東町住吉","town_kana":"ニットウチョウスミヨシ","prefecture_code":1},"0265":{"zip_code":"0790265","prefecture":"北海道","prefecture_kana":"ホッカイドウ","city":"美唄市","city_kana":"ビバイシ","town":"日東町富の郷","town_kana":"ニットウチョウトミノゴウ","prefecture_code":1},"0264":{"zip_code":"0790264","prefecture":"北海道","prefecture_kana":"ホッカイドウ","city":"美唄市","city_kana":"ビバイシ","town":"日東町本町","town_kana":"ニットウチョウホンチョウ","prefecture_code":1},"0173":{"zip_code":"0790173","prefecture":"北海道","prefecture_kana":"ホッカイドウ","city":"美唄市","city_kana":"ビバイシ","town":"峰延町公園","town_kana":"ミネノブチョウコウエン","prefecture_code":1},"0172":{"zip_code":"0790172","prefecture":"北海道","prefecture_kana":"ホッカイドウ","city":"美唄市","city_kana":"ビバイシ","town":"峰延町東","town_kana":"ミネノブチョウヒガシ","prefecture_code":1},"0174":{"zip_code":"0790174","prefecture":"北海道","prefecture_kana":"ホッカイドウ","city":"美唄市","city_kana":"ビバイシ","town":"峰延町本町","town_kana":"ミネノブチョウホンチョウ","prefecture_code":1},"0175":{"zip_code":"0790175","prefecture":"北海道","prefecture_kana":"ホッカイドウ","city":"美唄市","city_kana":"ビバイシ","town":"峰延町峰樺","town_kana":"ミネノブチョウミネカバ","prefecture_code":1},"1371":{"zip_code":"0791371","prefecture":"北海道","prefecture_kana":"ホッカイドウ","city":"芦別市","city_kana":"アシベツシ","town":"上芦別町","town_kana":"カミアシベツチョウ","prefecture_code":1},"1372":{"zip_code":"0791372","prefecture":"北海道","prefecture_kana":"ホッカイドウ","city":"芦別市","city_kana":"アシベツシ","town":"野花南町","town_kana":"ノカナンチョウ","prefecture_code":1},"1100":{"zip_code":"0791100","prefecture":"北海道","prefecture_kana":"ホッカイドウ","city":"赤平市","city_kana":"アカビラシ","town":"","town_kana":"","prefecture_code":1},"1143":{"zip_code":"0791143","prefecture":"北海道","prefecture_kana":"ホッカイドウ","city":"赤平市","city_kana":"アカビラシ","town":"赤平","town_kana":"アカビラ","prefecture_code":1},"1134":{"zip_code":"0791134","prefecture":"北海道","prefecture_kana":"ホッカイドウ","city":"赤平市","city_kana":"アカビラシ","town":"泉町","town_kana":"イズミマチ","prefecture_code":1},"1274":{"zip_code":"0791274","prefecture":"北海道","prefecture_kana":"ホッカイドウ","city":"赤平市","city_kana":"アカビラシ","town":"エルム町","town_kana":"エルムチョウ","prefecture_code":1},"1141":{"zip_code":"0791141","prefecture":"北海道","prefecture_kana":"ホッカイドウ","city":"赤平市","city_kana":"アカビラシ","town":"大町","town_kana":"オオマチ","prefecture_code":1},"1121":{"zip_code":"0791121","prefecture":"北海道","prefecture_kana":"ホッカイドウ","city":"赤平市","city_kana":"アカビラシ","town":"北文京町","town_kana":"キタブンキョウチョウ","prefecture_code":1},"1101":{"zip_code":"0791101","prefecture":"北海道","prefecture_kana":"ホッカイドウ","city":"赤平市","city_kana":"アカビラシ","town":"共和町","town_kana":"キョウワチョウ","prefecture_code":1},"1154":{"zip_code":"0791154","prefecture":"北海道","prefecture_kana":"ホッカイドウ","city":"赤平市","city_kana":"アカビラシ","town":"幸町","town_kana":"サイワイチョウ","prefecture_code":1},"1152":{"zip_code":"0791152","prefecture":"北海道","prefecture_kana":"ホッカイドウ","city":"赤平市","city_kana":"アカビラシ","town":"桜木町","town_kana":"サクラギチョウ","prefecture_code":1},"1155":{"zip_code":"0791155","prefecture":"北海道","prefecture_kana":"ホッカイドウ","city":"赤平市","city_kana":"アカビラシ","town":"昭和町","town_kana":"ショウワチョウ","prefecture_code":1},"1156":{"zip_code":"0791156","prefecture":"北海道","prefecture_kana":"ホッカイドウ","city":"赤平市","city_kana":"アカビラシ","town":"住吉町","town_kana":"スミヨシチョウ","prefecture_code":1},"1124":{"zip_code":"0791124","prefecture":"北海道","prefecture_kana":"ホッカイドウ","city":"赤平市","city_kana":"アカビラシ","town":"豊丘町","town_kana":"トヨオカチョウ","prefecture_code":1},"1133":{"zip_code":"0791133","prefecture":"北海道","prefecture_kana":"ホッカイドウ","city":"赤平市","city_kana":"アカビラシ","town":"豊里","town_kana":"トヨサト","prefecture_code":1},"1135":{"zip_code":"0791135","prefecture":"北海道","prefecture_kana":"ホッカイドウ","city":"赤平市","city_kana":"アカビラシ","town":"錦町","town_kana":"ニシキマチ","prefecture_code":1},"1131":{"zip_code":"0791131","prefecture":"北海道","prefecture_kana":"ホッカイドウ","city":"赤平市","city_kana":"アカビラシ","town":"西豊里町","town_kana":"ニシトヨサトチョウ","prefecture_code":1},"1122":{"zip_code":"0791122","prefecture":"北海道","prefecture_kana":"ホッカイドウ","city":"赤平市","city_kana":"アカビラシ","town":"西文京町","town_kana":"ニシブンキョウチョウ","prefecture_code":1},"1142":{"zip_code":"0791142","prefecture":"北海道","prefecture_kana":"ホッカイドウ","city":"赤平市","city_kana":"アカビラシ","town":"東大町","town_kana":"ヒガシオオマチ","prefecture_code":1},"1132":{"zip_code":"0791132","prefecture":"北海道","prefecture_kana":"ホッカイドウ","city":"赤平市","city_kana":"アカビラシ","town":"東豊里町","town_kana":"ヒガシトヨサトチョウ","prefecture_code":1},"1123":{"zip_code":"0791123","prefecture":"北海道","prefecture_kana":"ホッカイドウ","city":"赤平市","city_kana":"アカビラシ","town":"東文京町","town_kana":"ヒガシブンキョウチョウ","prefecture_code":1},"1272":{"zip_code":"0791272","prefecture":"北海道","prefecture_kana":"ホッカイドウ","city":"赤平市","city_kana":"アカビラシ","town":"百戸町東","town_kana":"ヒャッコチョウヒガシ","prefecture_code":1},"1273":{"zip_code":"0791273","prefecture":"北海道","prefecture_kana":"ホッカイドウ","city":"赤平市","city_kana":"アカビラシ","town":"百戸町西","town_kana":"ヒャッコチョウニシ","prefecture_code":1},"1271":{"zip_code":"0791271","prefecture":"北海道","prefecture_kana":"ホッカイドウ","city":"赤平市","city_kana":"アカビラシ","town":"百戸町北","town_kana":"ヒャッコチョウキタ","prefecture_code":1},"1287":{"zip_code":"0791287","prefecture":"北海道","prefecture_kana":"ホッカイドウ","city":"赤平市","city_kana":"アカビラシ","town":"平岸桂町","town_kana":"ヒラギシカツラチョウ","prefecture_code":1},"1281":{"zip_code":"0791281","prefecture":"北海道","prefecture_kana":"ホッカイドウ","city":"赤平市","city_kana":"アカビラシ","town":"平岸新光町","town_kana":"ヒラギシシンコウチョウ","prefecture_code":1},"1282":{"zip_code":"0791282","prefecture":"北海道","prefecture_kana":"ホッカイドウ","city":"赤平市","city_kana":"アカビラシ","town":"平岸仲町","town_kana":"ヒラギシナカマチ","prefecture_code":1},"1283":{"zip_code":"0791283","prefecture":"北海道","prefecture_kana":"ホッカイドウ","city":"赤平市","city_kana":"アカビラシ","town":"平岸東町","town_kana":"ヒラギシヒガシマチ","prefecture_code":1},"1286":{"zip_code":"0791286","prefecture":"北海道","prefecture_kana":"ホッカイドウ","city":"赤平市","city_kana":"アカビラシ","town":"平岸西町","town_kana":"ヒラギシニシマチ","prefecture_code":1},"1284":{"zip_code":"0791284","prefecture":"北海道","prefecture_kana":"ホッカイドウ","city":"赤平市","city_kana":"アカビラシ","town":"平岸南町","town_kana":"ヒラギシミナミマチ","prefecture_code":1},"1285":{"zip_code":"0791285","prefecture":"北海道","prefecture_kana":"ホッカイドウ","city":"赤平市","city_kana":"アカビラシ","town":"平岸曙町","town_kana":"ヒラギシアケボノチョウ","prefecture_code":1},"1153":{"zip_code":"0791153","prefecture":"北海道","prefecture_kana":"ホッカイドウ","city":"赤平市","city_kana":"アカビラシ","town":"豊栄町","town_kana":"ホウエイチョウ","prefecture_code":1},"1102":{"zip_code":"0791102","prefecture":"北海道","prefecture_kana":"ホッカイドウ","city":"赤平市","city_kana":"アカビラシ","town":"幌岡町","town_kana":"ホロオカチョウ","prefecture_code":1},"1136":{"zip_code":"0791136","prefecture":"北海道","prefecture_kana":"ホッカイドウ","city":"赤平市","city_kana":"アカビラシ","town":"本町","town_kana":"ホンチョウ","prefecture_code":1},"1144":{"zip_code":"0791144","prefecture":"北海道","prefecture_kana":"ホッカイドウ","city":"赤平市","city_kana":"アカビラシ","town":"美園町","town_kana":"ミソノチョウ","prefecture_code":1},"1151":{"zip_code":"0791151","prefecture":"北海道","prefecture_kana":"ホッカイドウ","city":"赤平市","city_kana":"アカビラシ","town":"宮下町","town_kana":"ミヤシタチョウ","prefecture_code":1},"1266":[{"zip_code":"0791266","prefecture":"北海道","prefecture_kana":"ホッカイドウ","city":"赤平市","city_kana":"アカビラシ","town":"茂尻","town_kana":"モジリ","prefecture_code":1},{"zip_code":"0791266","prefecture":"北海道","prefecture_kana":"ホッカイドウ","city":"赤平市","city_kana":"アカビラシ","town":"茂尻栄町","town_kana":"モジリサカエマチ","prefecture_code":1}],"1264":[{"zip_code":"0791264","prefecture":"北海道","prefecture_kana":"ホッカイドウ","city":"赤平市","city_kana":"アカビラシ","town":"茂尻旭町","town_kana":"モジリアサヒマチ","prefecture_code":1},{"zip_code":"0791264","prefecture":"北海道","prefecture_kana":"ホッカイドウ","city":"赤平市","city_kana":"アカビラシ","town":"茂尻宮下町","town_kana":"モジリミヤシタチョウ","prefecture_code":1}],"1262":[{"zip_code":"0791262","prefecture":"北海道","prefecture_kana":"ホッカイドウ","city":"赤平市","city_kana":"アカビラシ","town":"茂尻春日町","town_kana":"モジリカスガチョウ","prefecture_code":1},{"zip_code":"0791262","prefecture":"北海道","prefecture_kana":"ホッカイドウ","city":"赤平市","city_kana":"アカビラシ","town":"茂尻新春日町","town_kana":"モジリシンカスガチョウ","prefecture_code":1}],"1265":{"zip_code":"0791265","prefecture":"北海道","prefecture_kana":"ホッカイドウ","city":"赤平市","city_kana":"アカビラシ","town":"茂尻新町","town_kana":"モジリシンマチ","prefecture_code":1},"1261":[{"zip_code":"0791261","prefecture":"北海道","prefecture_kana":"ホッカイドウ","city":"赤平市","city_kana":"アカビラシ","town":"茂尻中央町南","town_kana":"モジリチュウオウチョウミナミ","prefecture_code":1},{"zip_code":"0791261","prefecture":"北海道","prefecture_kana":"ホッカイドウ","city":"赤平市","city_kana":"アカビラシ","town":"茂尻中央町北","town_kana":"モジリチュウオウチョウキタ","prefecture_code":1}],"1263":{"zip_code":"0791263","prefecture":"北海道","prefecture_kana":"ホッカイドウ","city":"赤平市","city_kana":"アカビラシ","town":"茂尻本町","town_kana":"モジリホンチョウ","prefecture_code":1},"1267":{"zip_code":"0791267","prefecture":"北海道","prefecture_kana":"ホッカイドウ","city":"赤平市","city_kana":"アカビラシ","town":"茂尻元町南","town_kana":"モジリモトマチミナミ","prefecture_code":1},"1268":{"zip_code":"0791268","prefecture":"北海道","prefecture_kana":"ホッカイドウ","city":"赤平市","city_kana":"アカビラシ","town":"茂尻元町北","town_kana":"モジリモトマチキタ","prefecture_code":1},"1113":{"zip_code":"0791113","prefecture":"北海道","prefecture_kana":"ホッカイドウ","city":"赤平市","city_kana":"アカビラシ","town":"若木町東","town_kana":"ワカキチョウヒガシ","prefecture_code":1},"1112":{"zip_code":"0791112","prefecture":"北海道","prefecture_kana":"ホッカイドウ","city":"赤平市","city_kana":"アカビラシ","town":"若木町西","town_kana":"ワカキチョウニシ","prefecture_code":1},"1114":{"zip_code":"0791114","prefecture":"北海道","prefecture_kana":"ホッカイドウ","city":"赤平市","city_kana":"アカビラシ","town":"若木町南","town_kana":"ワカキチョウミナミ","prefecture_code":1},"1111":{"zip_code":"0791111","prefecture":"北海道","prefecture_kana":"ホッカイドウ","city":"赤平市","city_kana":"アカビラシ","town":"若木町北","town_kana":"ワカキチョウキタ","prefecture_code":1},"0461":{"zip_code":"0790461","prefecture":"北海道","prefecture_kana":"ホッカイドウ","city":"滝川市","city_kana":"タキカワシ","town":"江部乙町","town_kana":"エベオツチョウ","prefecture_code":1},"0463":{"zip_code":"0790463","prefecture":"北海道","prefecture_kana":"ホッカイドウ","city":"滝川市","city_kana":"タキカワシ","town":"江部乙町東","town_kana":"エベオツチョウヒガシ","prefecture_code":1},"0462":{"zip_code":"0790462","prefecture":"北海道","prefecture_kana":"ホッカイドウ","city":"滝川市","city_kana":"タキカワシ","town":"江部乙町西","town_kana":"エベオツチョウニシ","prefecture_code":1},"1181":{"zip_code":"0791181","prefecture":"北海道","prefecture_kana":"ホッカイドウ","city":"砂川市","city_kana":"スナガワシ","town":"富平","town_kana":"トミヒラ","prefecture_code":1},"2133":{"zip_code":"0792133","prefecture":"北海道","prefecture_kana":"ホッカイドウ","city":"富良野市","city_kana":"フラノシ","town":"東山","town_kana":"ヒガシヤマ","prefecture_code":1},"1562":{"zip_code":"0791562","prefecture":"北海道","prefecture_kana":"ホッカイドウ","city":"富良野市","city_kana":"フラノシ","town":"山部北町","town_kana":"ヤマベキタマチ","prefecture_code":1},"1564":{"zip_code":"0791564","prefecture":"北海道","prefecture_kana":"ホッカイドウ","city":"富良野市","city_kana":"フラノシ","town":"山部中町","town_kana":"ヤマベナカマチ","prefecture_code":1},"1571":[{"zip_code":"0791571","prefecture":"北海道","prefecture_kana":"ホッカイドウ","city":"富良野市","city_kana":"フラノシ","town":"山部西１２線","town_kana":"ヤマベニシ12セン","prefecture_code":1},{"zip_code":"0791571","prefecture":"北海道","prefecture_kana":"ホッカイドウ","city":"富良野市","city_kana":"フラノシ","town":"山部西１３線","town_kana":"ヤマベニシ13セン","prefecture_code":1},{"zip_code":"0791571","prefecture":"北海道","prefecture_kana":"ホッカイドウ","city":"富良野市","city_kana":"フラノシ","town":"山部西１４線","town_kana":"ヤマベニシ14セン","prefecture_code":1},{"zip_code":"0791571","prefecture":"北海道","prefecture_kana":"ホッカイドウ","city":"富良野市","city_kana":"フラノシ","town":"山部西１５線","town_kana":"ヤマベニシ15セン","prefecture_code":1},{"zip_code":"0791571","prefecture":"北海道","prefecture_kana":"ホッカイドウ","city":"富良野市","city_kana":"フラノシ","town":"山部西１６線","town_kana":"ヤマベニシ16セン","prefecture_code":1},{"zip_code":"0791571","prefecture":"北海道","prefecture_kana":"ホッカイドウ","city":"富良野市","city_kana":"フラノシ","town":"山部西１７線","town_kana":"ヤマベニシ17セン","prefecture_code":1},{"zip_code":"0791571","prefecture":"北海道","prefecture_kana":"ホッカイドウ","city":"富良野市","city_kana":"フラノシ","town":"山部西１８線","town_kana":"ヤマベニシ18セン","prefecture_code":1},{"zip_code":"0791571","prefecture":"北海道","prefecture_kana":"ホッカイドウ","city":"富良野市","city_kana":"フラノシ","town":"山部西１９線","town_kana":"ヤマベニシ19セン","prefecture_code":1}],"1572":[{"zip_code":"0791572","prefecture":"北海道","prefecture_kana":"ホッカイドウ","city":"富良野市","city_kana":"フラノシ","town":"山部西２０線","town_kana":"ヤマベニシ20セン","prefecture_code":1},{"zip_code":"0791572","prefecture":"北海道","prefecture_kana":"ホッカイドウ","city":"富良野市","city_kana":"フラノシ","town":"山部西２１線","town_kana":"ヤマベニシ21セン","prefecture_code":1},{"zip_code":"0791572","prefecture":"北海道","prefecture_kana":"ホッカイドウ","city":"富良野市","city_kana":"フラノシ","town":"山部西２２線","town_kana":"ヤマベニシ22セン","prefecture_code":1},{"zip_code":"0791572","prefecture":"北海道","prefecture_kana":"ホッカイドウ","city":"富良野市","city_kana":"フラノシ","town":"山部西２３線","town_kana":"ヤマベニシ23セン","prefecture_code":1},{"zip_code":"0791572","prefecture":"北海道","prefecture_kana":"ホッカイドウ","city":"富良野市","city_kana":"フラノシ","town":"山部西２４線","town_kana":"ヤマベニシ24セン","prefecture_code":1}],"1573":[{"zip_code":"0791573","prefecture":"北海道","prefecture_kana":"ホッカイドウ","city":"富良野市","city_kana":"フラノシ","town":"山部西２５線","town_kana":"ヤマベニシ25セン","prefecture_code":1},{"zip_code":"0791573","prefecture":"北海道","prefecture_kana":"ホッカイドウ","city":"富良野市","city_kana":"フラノシ","town":"山部西２６線","town_kana":"ヤマベニシ26セン","prefecture_code":1},{"zip_code":"0791573","prefecture":"北海道","prefecture_kana":"ホッカイドウ","city":"富良野市","city_kana":"フラノシ","town":"山部西２７線","town_kana":"ヤマベニシ27セン","prefecture_code":1},{"zip_code":"0791573","prefecture":"北海道","prefecture_kana":"ホッカイドウ","city":"富良野市","city_kana":"フラノシ","town":"山部西２８線","town_kana":"ヤマベニシ28セン","prefecture_code":1}],"1566":{"zip_code":"0791566","prefecture":"北海道","prefecture_kana":"ホッカイドウ","city":"富良野市","city_kana":"フラノシ","town":"山部西町","town_kana":"ヤマベニシマチ","prefecture_code":1},"1581":[{"zip_code":"0791581","prefecture":"北海道","prefecture_kana":"ホッカイドウ","city":"富良野市","city_kana":"フラノシ","town":"山部東１２線","town_kana":"ヤマベヒガシ12セン","prefecture_code":1},{"zip_code":"0791581","prefecture":"北海道","prefecture_kana":"ホッカイドウ","city":"富良野市","city_kana":"フラノシ","town":"山部東１３線","town_kana":"ヤマベヒガシ13セン","prefecture_code":1},{"zip_code":"0791581","prefecture":"北海道","prefecture_kana":"ホッカイドウ","city":"富良野市","city_kana":"フラノシ","town":"山部東１４線","town_kana":"ヤマベヒガシ14セン","prefecture_code":1},{"zip_code":"0791581","prefecture":"北海道","prefecture_kana":"ホッカイドウ","city":"富良野市","city_kana":"フラノシ","town":"山部東１５線","town_kana":"ヤマベヒガシ15セン","prefecture_code":1},{"zip_code":"0791581","prefecture":"北海道","prefecture_kana":"ホッカイドウ","city":"富良野市","city_kana":"フラノシ","town":"山部東１６線","town_kana":"ヤマベヒガシ16セン","prefecture_code":1},{"zip_code":"0791581","prefecture":"北海道","prefecture_kana":"ホッカイドウ","city":"富良野市","city_kana":"フラノシ","town":"山部東１７線","town_kana":"ヤマベヒガシ17セン","prefecture_code":1},{"zip_code":"0791581","prefecture":"北海道","prefecture_kana":"ホッカイドウ","city":"富良野市","city_kana":"フラノシ","town":"山部東１８線","town_kana":"ヤマベヒガシ18セン","prefecture_code":1},{"zip_code":"0791581","prefecture":"北海道","prefecture_kana":"ホッカイドウ","city":"富良野市","city_kana":"フラノシ","town":"山部東１９線","town_kana":"ヤマベヒガシ19セン","prefecture_code":1}],"1582":[{"zip_code":"0791582","prefecture":"北海道","prefecture_kana":"ホッカイドウ","city":"富良野市","city_kana":"フラノシ","town":"山部東２０線","town_kana":"ヤマベヒガシ20セン","prefecture_code":1},{"zip_code":"0791582","prefecture":"北海道","prefecture_kana":"ホッカイドウ","city":"富良野市","city_kana":"フラノシ","town":"山部東２１線","town_kana":"ヤマベヒガシ21セン","prefecture_code":1},{"zip_code":"0791582","prefecture":"北海道","prefecture_kana":"ホッカイドウ","city":"富良野市","city_kana":"フラノシ","town":"山部東２２線","town_kana":"ヤマベヒガシ22セン","prefecture_code":1},{"zip_code":"0791582","prefecture":"北海道","prefecture_kana":"ホッカイドウ","city":"富良野市","city_kana":"フラノシ","town":"山部東２３線","town_kana":"ヤマベヒガシ23セン","prefecture_code":1},{"zip_code":"0791582","prefecture":"北海道","prefecture_kana":"ホッカイドウ","city":"富良野市","city_kana":"フラノシ","town":"山部東２４線","town_kana":"ヤマベヒガシ24セン","prefecture_code":1},{"zip_code":"0791582","prefecture":"北海道","prefecture_kana":"ホッカイドウ","city":"富良野市","city_kana":"フラノシ","town":"山部東２５線","town_kana":"ヤマベヒガシ25セン","prefecture_code":1},{"zip_code":"0791582","prefecture":"北海道","prefecture_kana":"ホッカイドウ","city":"富良野市","city_kana":"フラノシ","town":"山部東２６線","town_kana":"ヤマベヒガシ26セン","prefecture_code":1},{"zip_code":"0791582","prefecture":"北海道","prefecture_kana":"ホッカイドウ","city":"富良野市","city_kana":"フラノシ","town":"山部東２７線","town_kana":"ヤマベヒガシ27セン","prefecture_code":1}],"1563":{"zip_code":"0791563","prefecture":"北海道","prefecture_kana":"ホッカイドウ","city":"富良野市","city_kana":"フラノシ","town":"山部東町","town_kana":"ヤマベヒガシマチ","prefecture_code":1},"1565":{"zip_code":"0791565","prefecture":"北海道","prefecture_kana":"ホッカイドウ","city":"富良野市","city_kana":"フラノシ","town":"山部南町","town_kana":"ヤマベミナミマチ","prefecture_code":1},"0300":{"zip_code":"0790300","prefecture":"北海道","prefecture_kana":"ホッカイドウ","city":"空知郡奈井江町","city_kana":"ソラチグンナイエチョウ","town":"","town_kana":"","prefecture_code":1},"0301":{"zip_code":"0790301","prefecture":"北海道","prefecture_kana":"ホッカイドウ","city":"空知郡奈井江町","city_kana":"ソラチグンナイエチョウ","town":"厳島","town_kana":"イツクシマ","prefecture_code":1},"0312":{"zip_code":"0790312","prefecture":"北海道","prefecture_kana":"ホッカイドウ","city":"空知郡奈井江町","city_kana":"ソラチグンナイエチョウ","town":"北町","town_kana":"キタマチ","prefecture_code":1},"0316":{"zip_code":"0790316","prefecture":"北海道","prefecture_kana":"ホッカイドウ","city":"空知郡奈井江町","city_kana":"ソラチグンナイエチョウ","town":"キナウスナイ","town_kana":"キナウスナイ","prefecture_code":1},"0315":{"zip_code":"0790315","prefecture":"北海道","prefecture_kana":"ホッカイドウ","city":"空知郡奈井江町","city_kana":"ソラチグンナイエチョウ","town":"高島","town_kana":"タカシマ","prefecture_code":1},"0305":{"zip_code":"0790305","prefecture":"北海道","prefecture_kana":"ホッカイドウ","city":"空知郡奈井江町","city_kana":"ソラチグンナイエチョウ","town":"茶志内","town_kana":"チャシナイ","prefecture_code":1},"0302":{"zip_code":"0790302","prefecture":"北海道","prefecture_kana":"ホッカイドウ","city":"空知郡奈井江町","city_kana":"ソラチグンナイエチョウ","town":"白山","town_kana":"ハクサン","prefecture_code":1},"0306":{"zip_code":"0790306","prefecture":"北海道","prefecture_kana":"ホッカイドウ","city":"空知郡奈井江町","city_kana":"ソラチグンナイエチョウ","town":"東町","town_kana":"ヒガシマチ","prefecture_code":1},"0313":{"zip_code":"0790313","prefecture":"北海道","prefecture_kana":"ホッカイドウ","city":"空知郡奈井江町","city_kana":"ソラチグンナイエチョウ","town":"本町","town_kana":"ホンマチ","prefecture_code":1},"0317":{"zip_code":"0790317","prefecture":"北海道","prefecture_kana":"ホッカイドウ","city":"空知郡奈井江町","city_kana":"ソラチグンナイエチョウ","town":"瑞穂","town_kana":"ミズホ","prefecture_code":1},"0314":{"zip_code":"0790314","prefecture":"北海道","prefecture_kana":"ホッカイドウ","city":"空知郡奈井江町","city_kana":"ソラチグンナイエチョウ","town":"南町","town_kana":"ミナミマチ","prefecture_code":1},"0304":{"zip_code":"0790304","prefecture":"北海道","prefecture_kana":"ホッカイドウ","city":"空知郡奈井江町","city_kana":"ソラチグンナイエチョウ","town":"宮村","town_kana":"ミヤムラ","prefecture_code":1},"0303":{"zip_code":"0790303","prefecture":"北海道","prefecture_kana":"ホッカイドウ","city":"空知郡奈井江町","city_kana":"ソラチグンナイエチョウ","town":"向ケ丘","town_kana":"ムコウガオカ","prefecture_code":1},"0311":{"zip_code":"0790311","prefecture":"北海道","prefecture_kana":"ホッカイドウ","city":"空知郡奈井江町","city_kana":"ソラチグンナイエチョウ","town":"大和","town_kana":"ヤマト","prefecture_code":1},"0500":{"zip_code":"0790500","prefecture":"北海道","prefecture_kana":"ホッカイドウ","city":"雨竜郡妹背牛町","city_kana":"ウリュウグンモセウシチョウ","town":"","town_kana":"","prefecture_code":1},"0501":{"zip_code":"0790501","prefecture":"北海道","prefecture_kana":"ホッカイドウ","city":"雨竜郡妹背牛町","city_kana":"ウリュウグンモセウシチョウ","town":"１区","town_kana":"1ク","prefecture_code":1},"0502":{"zip_code":"0790502","prefecture":"北海道","prefecture_kana":"ホッカイドウ","city":"雨竜郡妹背牛町","city_kana":"ウリュウグンモセウシチョウ","town":"２区","town_kana":"2ク","prefecture_code":1},"0503":{"zip_code":"0790503","prefecture":"北海道","prefecture_kana":"ホッカイドウ","city":"雨竜郡妹背牛町","city_kana":"ウリュウグンモセウシチョウ","town":"３区","town_kana":"3ク","prefecture_code":1},"0504":{"zip_code":"0790504","prefecture":"北海道","prefecture_kana":"ホッカイドウ","city":"雨竜郡妹背牛町","city_kana":"ウリュウグンモセウシチョウ","town":"４区","town_kana":"4ク","prefecture_code":1},"0505":{"zip_code":"0790505","prefecture":"北海道","prefecture_kana":"ホッカイドウ","city":"雨竜郡妹背牛町","city_kana":"ウリュウグンモセウシチョウ","town":"５区","town_kana":"5ク","prefecture_code":1},"0506":{"zip_code":"0790506","prefecture":"北海道","prefecture_kana":"ホッカイドウ","city":"雨竜郡妹背牛町","city_kana":"ウリュウグンモセウシチョウ","town":"６区","town_kana":"6ク","prefecture_code":1},"0507":{"zip_code":"0790507","prefecture":"北海道","prefecture_kana":"ホッカイドウ","city":"雨竜郡妹背牛町","city_kana":"ウリュウグンモセウシチョウ","town":"７区","town_kana":"7ク","prefecture_code":1},"0508":{"zip_code":"0790508","prefecture":"北海道","prefecture_kana":"ホッカイドウ","city":"雨竜郡妹背牛町","city_kana":"ウリュウグンモセウシチョウ","town":"８区","town_kana":"8ク","prefecture_code":1},"0509":{"zip_code":"0790509","prefecture":"北海道","prefecture_kana":"ホッカイドウ","city":"雨竜郡妹背牛町","city_kana":"ウリュウグンモセウシチョウ","town":"９区","town_kana":"9ク","prefecture_code":1},"0510":{"zip_code":"0790510","prefecture":"北海道","prefecture_kana":"ホッカイドウ","city":"雨竜郡妹背牛町","city_kana":"ウリュウグンモセウシチョウ","town":"１０区","town_kana":"10ク","prefecture_code":1},"0511":{"zip_code":"0790511","prefecture":"北海道","prefecture_kana":"ホッカイドウ","city":"雨竜郡妹背牛町","city_kana":"ウリュウグンモセウシチョウ","town":"１１区","town_kana":"11ク","prefecture_code":1},"2400":{"zip_code":"0792400","prefecture":"北海道","prefecture_kana":"ホッカイドウ","city":"空知郡南富良野町","city_kana":"ソラチグンミナミフラノチョウ","town":"","town_kana":"","prefecture_code":1},"2403":[{"zip_code":"0792403","prefecture":"北海道","prefecture_kana":"ホッカイドウ","city":"空知郡南富良野町","city_kana":"ソラチグンミナミフラノチョウ","town":"幾寅浅野","town_kana":"イクトラアサノ","prefecture_code":1},{"zip_code":"0792403","prefecture":"北海道","prefecture_kana":"ホッカイドウ","city":"空知郡南富良野町","city_kana":"ソラチグンミナミフラノチョウ","town":"幾寅岐阜","town_kana":"イクトラギフ","prefecture_code":1},{"zip_code":"0792403","prefecture":"北海道","prefecture_kana":"ホッカイドウ","city":"空知郡南富良野町","city_kana":"ソラチグンミナミフラノチョウ","town":"幾寅久住","town_kana":"イクトラクスミ","prefecture_code":1},{"zip_code":"0792403","prefecture":"北海道","prefecture_kana":"ホッカイドウ","city":"空知郡南富良野町","city_kana":"ソラチグンミナミフラノチョウ","town":"幾寅松井","town_kana":"イクトラマツイ","prefecture_code":1},{"zip_code":"0792403","prefecture":"北海道","prefecture_kana":"ホッカイドウ","city":"空知郡南富良野町","city_kana":"ソラチグンミナミフラノチョウ","town":"幾寅山畔","town_kana":"イクトラヤマクロ","prefecture_code":1}],"2404":[{"zip_code":"0792404","prefecture":"北海道","prefecture_kana":"ホッカイドウ","city":"空知郡南富良野町","city_kana":"ソラチグンミナミフラノチョウ","town":"幾寅朝日町","town_kana":"イクトラアサヒマチ","prefecture_code":1},{"zip_code":"0792404","prefecture":"北海道","prefecture_kana":"ホッカイドウ","city":"空知郡南富良野町","city_kana":"ソラチグンミナミフラノチョウ","town":"幾寅千木町","town_kana":"イクトラセンボクチョウ","prefecture_code":1},{"zip_code":"0792404","prefecture":"北海道","prefecture_kana":"ホッカイドウ","city":"空知郡南富良野町","city_kana":"ソラチグンミナミフラノチョウ","town":"幾寅東町","town_kana":"イクトラヒガシマチ","prefecture_code":1}],"2401":[{"zip_code":"0792401","prefecture":"北海道","prefecture_kana":"ホッカイドウ","city":"空知郡南富良野町","city_kana":"ソラチグンミナミフラノチョウ","town":"幾寅栄町","town_kana":"イクトラサカエマチ","prefecture_code":1},{"zip_code":"0792401","prefecture":"北海道","prefecture_kana":"ホッカイドウ","city":"空知郡南富良野町","city_kana":"ソラチグンミナミフラノチョウ","town":"幾寅住吉町","town_kana":"イクトラスミヨシチョウ","prefecture_code":1},{"zip_code":"0792401","prefecture":"北海道","prefecture_kana":"ホッカイドウ","city":"空知郡南富良野町","city_kana":"ソラチグンミナミフラノチョウ","town":"幾寅内藤","town_kana":"イクトラナイトウ","prefecture_code":1},{"zip_code":"0792401","prefecture":"北海道","prefecture_kana":"ホッカイドウ","city":"空知郡南富良野町","city_kana":"ソラチグンミナミフラノチョウ","town":"幾寅仲町","town_kana":"イクトラナカマチ","prefecture_code":1}],"2402":{"zip_code":"0792402","prefecture":"北海道","prefecture_kana":"ホッカイドウ","city":"空知郡南富良野町","city_kana":"ソラチグンミナミフラノチョウ","town":"幾寅西町","town_kana":"イクトラニシマチ","prefecture_code":1},"2551":{"zip_code":"0792551","prefecture":"北海道","prefecture_kana":"ホッカイドウ","city":"空知郡南富良野町","city_kana":"ソラチグンミナミフラノチョウ","town":"落合","town_kana":"オチアイ","prefecture_code":1},"2131":{"zip_code":"0792131","prefecture":"北海道","prefecture_kana":"ホッカイドウ","city":"空知郡南富良野町","city_kana":"ソラチグンミナミフラノチョウ","town":"金山","town_kana":"カナヤマ","prefecture_code":1},"2552":{"zip_code":"0792552","prefecture":"北海道","prefecture_kana":"ホッカイドウ","city":"空知郡南富良野町","city_kana":"ソラチグンミナミフラノチョウ","town":"北落合","town_kana":"キタオチアイ","prefecture_code":1},"2132":{"zip_code":"0792132","prefecture":"北海道","prefecture_kana":"ホッカイドウ","city":"空知郡南富良野町","city_kana":"ソラチグンミナミフラノチョウ","town":"下金山","town_kana":"シモカナヤマ","prefecture_code":1},"2412":{"zip_code":"0792412","prefecture":"北海道","prefecture_kana":"ホッカイドウ","city":"空知郡南富良野町","city_kana":"ソラチグンミナミフラノチョウ","town":"東幾寅","town_kana":"ヒガシイクトラ","prefecture_code":1},"2411":{"zip_code":"0792411","prefecture":"北海道","prefecture_kana":"ホッカイドウ","city":"空知郡南富良野町","city_kana":"ソラチグンミナミフラノチョウ","town":"東鹿越","town_kana":"ヒガシシカゴエ","prefecture_code":1},"2200":{"zip_code":"0792200","prefecture":"北海道","prefecture_kana":"ホッカイドウ","city":"勇払郡占冠村","city_kana":"ユウフツグンシムカップムラ","town":"","town_kana":"","prefecture_code":1},"2205":{"zip_code":"0792205","prefecture":"北海道","prefecture_kana":"ホッカイドウ","city":"勇払郡占冠村","city_kana":"ユウフツグンシムカップムラ","town":"上トマム","town_kana":"カミトマム","prefecture_code":1},"2202":{"zip_code":"0792202","prefecture":"北海道","prefecture_kana":"ホッカイドウ","city":"勇払郡占冠村","city_kana":"ユウフツグンシムカップムラ","town":"占冠","town_kana":"シムカップ","prefecture_code":1},"2203":{"zip_code":"0792203","prefecture":"北海道","prefecture_kana":"ホッカイドウ","city":"勇払郡占冠村","city_kana":"ユウフツグンシムカップムラ","town":"下トマム","town_kana":"シモトマム","prefecture_code":1},"2206":{"zip_code":"0792206","prefecture":"北海道","prefecture_kana":"ホッカイドウ","city":"勇払郡占冠村","city_kana":"ユウフツグンシムカップムラ","town":"双珠別","town_kana":"ソウシュベツ","prefecture_code":1},"2201":{"zip_code":"0792201","prefecture":"北海道","prefecture_kana":"ホッカイドウ","city":"勇払郡占冠村","city_kana":"ユウフツグンシムカップムラ","town":"中央","town_kana":"チュウオウ","prefecture_code":1},"2204":{"zip_code":"0792204","prefecture":"北海道","prefecture_kana":"ホッカイドウ","city":"勇払郡占冠村","city_kana":"ユウフツグンシムカップムラ","town":"中トマム","town_kana":"ナカトマム","prefecture_code":1},"2207":{"zip_code":"0792207","prefecture":"北海道","prefecture_kana":"ホッカイドウ","city":"勇払郡占冠村","city_kana":"ユウフツグンシムカップムラ","town":"ニニウ","town_kana":"ニニウ","prefecture_code":1}}