{"0000":{"zip_code":"0800000","prefecture":"北海道","prefecture_kana":"ホッカイドウ","city":"帯広市","city_kana":"オビヒロシ","town":"","town_kana":"","prefecture_code":1},"0835":{"zip_code":"0800835","prefecture":"北海道","prefecture_kana":"ホッカイドウ","city":"帯広市","city_kana":"オビヒロシ","town":"稲田町","town_kana":"イナダチョウ","prefecture_code":1},"0833":{"zip_code":"0800833","prefecture":"北海道","prefecture_kana":"ホッカイドウ","city":"帯広市","city_kana":"オビヒロシ","town":"稲田町基線","town_kana":"イナダチョウキセン","prefecture_code":1},"0834":{"zip_code":"0800834","prefecture":"北海道","prefecture_kana":"ホッカイドウ","city":"帯広市","city_kana":"オビヒロシ","town":"稲田町西","town_kana":"イナダチョウニシ","prefecture_code":1},"0832":{"zip_code":"0800832","prefecture":"北海道","prefecture_kana":"ホッカイドウ","city":"帯広市","city_kana":"オビヒロシ","town":"稲田町東","town_kana":"イナダチョウヒガシ","prefecture_code":1},"0831":{"zip_code":"0800831","prefecture":"北海道","prefecture_kana":"ホッカイドウ","city":"帯広市","city_kana":"オビヒロシ","town":"稲田町南","town_kana":"イナダチョウミナミ","prefecture_code":1},"2121":{"zip_code":"0802121","prefecture":"北海道","prefecture_kana":"ホッカイドウ","city":"帯広市","city_kana":"オビヒロシ","town":"岩内町","town_kana":"イワナイチョウ","prefecture_code":1},"2122":{"zip_code":"0802122","prefecture":"北海道","prefecture_kana":"ホッカイドウ","city":"帯広市","city_kana":"オビヒロシ","town":"岩内町第１基線","town_kana":"イワナイチョウダイ1キセン","prefecture_code":1},"2123":{"zip_code":"0802123","prefecture":"北海道","prefecture_kana":"ホッカイドウ","city":"帯広市","city_kana":"オビヒロシ","town":"岩内町西","town_kana":"イワナイチョウニシ","prefecture_code":1},"2124":{"zip_code":"0802124","prefecture":"北海道","prefecture_kana":"ホッカイドウ","city":"帯広市","city_kana":"オビヒロシ","town":"岩内町東","town_kana":"イワナイチョウヒガシ","prefecture_code":1},"0816":{"zip_code":"0800816","prefecture":"北海道","prefecture_kana":"ホッカイドウ","city":"帯広市","city_kana":"オビヒロシ","town":"大川町","town_kana":"オオカワチョウ","prefecture_code":1},"0838":{"zip_code":"0800838","prefecture":"北海道","prefecture_kana":"ホッカイドウ","city":"帯広市","city_kana":"オビヒロシ","town":"大空町","town_kana":"オオゾラチョウ","prefecture_code":1},"0030":{"zip_code":"0800030","prefecture":"北海道","prefecture_kana":"ホッカイドウ","city":"帯広市","city_kana":"オビヒロシ","town":"大通北","town_kana":"オオドオリキタ","prefecture_code":1},"0010":{"zip_code":"0800010","prefecture":"北海道","prefecture_kana":"ホッカイドウ","city":"帯広市","city_kana":"オビヒロシ","town":"大通南","town_kana":"オオドオリミナミ","prefecture_code":1},"2334":{"zip_code":"0802334","prefecture":"北海道","prefecture_kana":"ホッカイドウ","city":"帯広市","city_kana":"オビヒロシ","town":"上帯広町","town_kana":"カミオビヒロチョウ","prefecture_code":1},"2111":{"zip_code":"0802111","prefecture":"北海道","prefecture_kana":"ホッカイドウ","city":"帯広市","city_kana":"オビヒロシ","town":"上清川町","town_kana":"カミキヨカワチョウ","prefecture_code":1},"2112":{"zip_code":"0802112","prefecture":"北海道","prefecture_kana":"ホッカイドウ","city":"帯広市","city_kana":"オビヒロシ","town":"上清川町基線","town_kana":"カミキヨカワチョウキセン","prefecture_code":1},"2113":{"zip_code":"0802113","prefecture":"北海道","prefecture_kana":"ホッカイドウ","city":"帯広市","city_kana":"オビヒロシ","town":"上清川町西","town_kana":"カミキヨカワチョウニシ","prefecture_code":1},"2114":{"zip_code":"0802114","prefecture":"北海道","prefecture_kana":"ホッカイドウ","city":"帯広市","city_kana":"オビヒロシ","town":"上清川町東","town_kana":"カミキヨカワチョウヒガシ","prefecture_code":1},"2101":{"zip_code":"0802101","prefecture":"北海道","prefecture_kana":"ホッカイドウ","city":"帯広市","city_kana":"オビヒロシ","town":"清川町","town_kana":"キヨカワチョウ","prefecture_code":1},"2102":{"zip_code":"0802102","prefecture":"北海道","prefecture_kana":"ホッカイドウ","city":"帯広市","city_kana":"オビヒロシ","town":"清川町基線","town_kana":"キヨカワチョウキセン","prefecture_code":1},"2115":{"zip_code":"0802115","prefecture":"北海道","prefecture_kana":"ホッカイドウ","city":"帯広市","city_kana":"オビヒロシ","town":"清川町仲通","town_kana":"キヨカワチョウナカドオリ","prefecture_code":1},"2103":{"zip_code":"0802103","prefecture":"北海道","prefecture_kana":"ホッカイドウ","city":"帯広市","city_kana":"オビヒロシ","town":"清川町西","town_kana":"キヨカワチョウニシ","prefecture_code":1},"2104":{"zip_code":"0802104","prefecture":"北海道","prefecture_kana":"ホッカイドウ","city":"帯広市","city_kana":"オビヒロシ","town":"清川町東","town_kana":"キヨカワチョウヒガシ","prefecture_code":1},"2116":{"zip_code":"0802116","prefecture":"北海道","prefecture_kana":"ホッカイドウ","city":"帯広市","city_kana":"オビヒロシ","town":"清川町本通","town_kana":"キヨカワチョウホンドオリ","prefecture_code":1},"0836":{"zip_code":"0800836","prefecture":"北海道","prefecture_kana":"ホッカイドウ","city":"帯広市","city_kana":"オビヒロシ","town":"空港南町","town_kana":"クウコウミナミマチ","prefecture_code":1},"0837":{"zip_code":"0800837","prefecture":"北海道","prefecture_kana":"ホッカイドウ","city":"帯広市","city_kana":"オビヒロシ","town":"空港南町南","town_kana":"クウコウミナミマチミナミ","prefecture_code":1},"0847":{"zip_code":"0800847","prefecture":"北海道","prefecture_kana":"ホッカイドウ","city":"帯広市","city_kana":"オビヒロシ","town":"公園東町","town_kana":"コウエンヒガシマチ","prefecture_code":1},"0848":{"zip_code":"0800848","prefecture":"北海道","prefecture_kana":"ホッカイドウ","city":"帯広市","city_kana":"オビヒロシ","town":"自由が丘","town_kana":"ジユウガオカ","prefecture_code":1},"2476":{"zip_code":"0802476","prefecture":"北海道","prefecture_kana":"ホッカイドウ","city":"帯広市","city_kana":"オビヒロシ","town":"自由が丘","town_kana":"ジユウガオカ","prefecture_code":1},"0051":{"zip_code":"0800051","prefecture":"北海道","prefecture_kana":"ホッカイドウ","city":"帯広市","city_kana":"オビヒロシ","town":"白樺十六条西","town_kana":"シラカバ16ジョウニシ","prefecture_code":1},"0050":{"zip_code":"0800050","prefecture":"北海道","prefecture_kana":"ホッカイドウ","city":"帯広市","city_kana":"オビヒロシ","town":"白樺十六条東","town_kana":"シラカバ16ジョウヒガシ","prefecture_code":1},"0053":{"zip_code":"0800053","prefecture":"北海道","prefecture_kana":"ホッカイドウ","city":"帯広市","city_kana":"オビヒロシ","town":"新町西","town_kana":"シンマチニシ","prefecture_code":1},"0052":{"zip_code":"0800052","prefecture":"北海道","prefecture_kana":"ホッカイドウ","city":"帯広市","city_kana":"オビヒロシ","town":"新町東","town_kana":"シンマチヒガシ","prefecture_code":1},"0872":{"zip_code":"0800872","prefecture":"北海道","prefecture_kana":"ホッカイドウ","city":"帯広市","city_kana":"オビヒロシ","town":"清流西","town_kana":"セイリュウニシ","prefecture_code":1},"0871":{"zip_code":"0800871","prefecture":"北海道","prefecture_kana":"ホッカイドウ","city":"帯広市","city_kana":"オビヒロシ","town":"清流東","town_kana":"セイリュウヒガシ","prefecture_code":1},"2105":{"zip_code":"0802105","prefecture":"北海道","prefecture_kana":"ホッカイドウ","city":"帯広市","city_kana":"オビヒロシ","town":"太平町","town_kana":"タイヘイチョウ","prefecture_code":1},"2117":{"zip_code":"0802117","prefecture":"北海道","prefecture_kana":"ホッカイドウ","city":"帯広市","city_kana":"オビヒロシ","town":"太平町西","town_kana":"タイヘイチョウニシ","prefecture_code":1},"2337":{"zip_code":"0802337","prefecture":"北海道","prefecture_kana":"ホッカイドウ","city":"帯広市","city_kana":"オビヒロシ","town":"拓成町","town_kana":"タクセイチョウ","prefecture_code":1},"0031":{"zip_code":"0800031","prefecture":"北海道","prefecture_kana":"ホッカイドウ","city":"帯広市","city_kana":"オビヒロシ","town":"西一条北","town_kana":"ニシ1ジョウキタ","prefecture_code":1},"0011":{"zip_code":"0800011","prefecture":"北海道","prefecture_kana":"ホッカイドウ","city":"帯広市","city_kana":"オビヒロシ","town":"西一条南","town_kana":"ニシ1ジョウミナミ","prefecture_code":1},"0032":{"zip_code":"0800032","prefecture":"北海道","prefecture_kana":"ホッカイドウ","city":"帯広市","city_kana":"オビヒロシ","town":"西二条北","town_kana":"ニシ2ジョウキタ","prefecture_code":1},"0012":{"zip_code":"0800012","prefecture":"北海道","prefecture_kana":"ホッカイドウ","city":"帯広市","city_kana":"オビヒロシ","town":"西二条南","town_kana":"ニシ2ジョウミナミ","prefecture_code":1},"0033":{"zip_code":"0800033","prefecture":"北海道","prefecture_kana":"ホッカイドウ","city":"帯広市","city_kana":"オビヒロシ","town":"西三条北","town_kana":"ニシ3ジョウキタ","prefecture_code":1},"0013":{"zip_code":"0800013","prefecture":"北海道","prefecture_kana":"ホッカイドウ","city":"帯広市","city_kana":"オビヒロシ","town":"西三条南","town_kana":"ニシ3ジョウミナミ","prefecture_code":1},"0034":{"zip_code":"0800034","prefecture":"北海道","prefecture_kana":"ホッカイドウ","city":"帯広市","city_kana":"オビヒロシ","town":"西四条北","town_kana":"ニシ4ジョウキタ","prefecture_code":1},"0014":{"zip_code":"0800014","prefecture":"北海道","prefecture_kana":"ホッカイドウ","city":"帯広市","city_kana":"オビヒロシ","town":"西四条南","town_kana":"ニシ4ジョウミナミ","prefecture_code":1},"0035":{"zip_code":"0800035","prefecture":"北海道","prefecture_kana":"ホッカイドウ","city":"帯広市","city_kana":"オビヒロシ","town":"西五条北","town_kana":"ニシ5ジョウキタ","prefecture_code":1},"0015":{"zip_code":"0800015","prefecture":"北海道","prefecture_kana":"ホッカイドウ","city":"帯広市","city_kana":"オビヒロシ","town":"西五条南","town_kana":"ニシ5ジョウミナミ","prefecture_code":1},"0036":{"zip_code":"0800036","prefecture":"北海道","prefecture_kana":"ホッカイドウ","city":"帯広市","city_kana":"オビヒロシ","town":"西六条北","town_kana":"ニシ6ジョウキタ","prefecture_code":1},"0016":{"zip_code":"0800016","prefecture":"北海道","prefecture_kana":"ホッカイドウ","city":"帯広市","city_kana":"オビヒロシ","town":"西六条南","town_kana":"ニシ6ジョウミナミ","prefecture_code":1},"0037":{"zip_code":"0800037","prefecture":"北海道","prefecture_kana":"ホッカイドウ","city":"帯広市","city_kana":"オビヒロシ","town":"西七条北","town_kana":"ニシ7ジョウキタ","prefecture_code":1},"0017":{"zip_code":"0800017","prefecture":"北海道","prefecture_kana":"ホッカイドウ","city":"帯広市","city_kana":"オビヒロシ","town":"西七条南","town_kana":"ニシ7ジョウミナミ","prefecture_code":1},"0038":{"zip_code":"0800038","prefecture":"北海道","prefecture_kana":"ホッカイドウ","city":"帯広市","city_kana":"オビヒロシ","town":"西八条北","town_kana":"ニシ8ジョウキタ","prefecture_code":1},"0018":{"zip_code":"0800018","prefecture":"北海道","prefecture_kana":"ホッカイドウ","city":"帯広市","city_kana":"オビヒロシ","town":"西八条南","town_kana":"ニシ8ジョウミナミ","prefecture_code":1},"0039":{"zip_code":"0800039","prefecture":"北海道","prefecture_kana":"ホッカイドウ","city":"帯広市","city_kana":"オビヒロシ","town":"西九条北","town_kana":"ニシ9ジョウキタ","prefecture_code":1},"0019":{"zip_code":"0800019","prefecture":"北海道","prefecture_kana":"ホッカイドウ","city":"帯広市","city_kana":"オビヒロシ","town":"西九条南","town_kana":"ニシ9ジョウミナミ","prefecture_code":1},"0040":{"zip_code":"0800040","prefecture":"北海道","prefecture_kana":"ホッカイドウ","city":"帯広市","city_kana":"オビヒロシ","town":"西十条北","town_kana":"ニシ10ジョウキタ","prefecture_code":1},"0020":{"zip_code":"0800020","prefecture":"北海道","prefecture_kana":"ホッカイドウ","city":"帯広市","city_kana":"オビヒロシ","town":"西十条南","town_kana":"ニシ10ジョウミナミ","prefecture_code":1},"0041":{"zip_code":"0800041","prefecture":"北海道","prefecture_kana":"ホッカイドウ","city":"帯広市","city_kana":"オビヒロシ","town":"西十一条北","town_kana":"ニシ11ジョウキタ","prefecture_code":1},"0021":{"zip_code":"0800021","prefecture":"北海道","prefecture_kana":"ホッカイドウ","city":"帯広市","city_kana":"オビヒロシ","town":"西十一条南","town_kana":"ニシ11ジョウミナミ","prefecture_code":1},"0042":{"zip_code":"0800042","prefecture":"北海道","prefecture_kana":"ホッカイドウ","city":"帯広市","city_kana":"オビヒロシ","town":"西十二条北","town_kana":"ニシ12ジョウキタ","prefecture_code":1},"0022":{"zip_code":"0800022","prefecture":"北海道","prefecture_kana":"ホッカイドウ","city":"帯広市","city_kana":"オビヒロシ","town":"西十二条南","town_kana":"ニシ12ジョウミナミ","prefecture_code":1},"0043":{"zip_code":"0800043","prefecture":"北海道","prefecture_kana":"ホッカイドウ","city":"帯広市","city_kana":"オビヒロシ","town":"西十三条北","town_kana":"ニシ13ジョウキタ","prefecture_code":1},"0023":{"zip_code":"0800023","prefecture":"北海道","prefecture_kana":"ホッカイドウ","city":"帯広市","city_kana":"オビヒロシ","town":"西十三条南","town_kana":"ニシ13ジョウミナミ","prefecture_code":1},"0044":{"zip_code":"0800044","prefecture":"北海道","prefecture_kana":"ホッカイドウ","city":"帯広市","city_kana":"オビヒロシ","town":"西十四条北","town_kana":"ニシ14ジョウキタ","prefecture_code":1},"0024":{"zip_code":"0800024","prefecture":"北海道","prefecture_kana":"ホッカイドウ","city":"帯広市","city_kana":"オビヒロシ","town":"西十四条南","town_kana":"ニシ14ジョウミナミ","prefecture_code":1},"0045":{"zip_code":"0800045","prefecture":"北海道","prefecture_kana":"ホッカイドウ","city":"帯広市","city_kana":"オビヒロシ","town":"西十五条北","town_kana":"ニシ15ジョウキタ","prefecture_code":1},"0025":{"zip_code":"0800025","prefecture":"北海道","prefecture_kana":"ホッカイドウ","city":"帯広市","city_kana":"オビヒロシ","town":"西十五条南","town_kana":"ニシ15ジョウミナミ","prefecture_code":1},"0046":{"zip_code":"0800046","prefecture":"北海道","prefecture_kana":"ホッカイドウ","city":"帯広市","city_kana":"オビヒロシ","town":"西十六条北","town_kana":"ニシ16ジョウキタ","prefecture_code":1},"0026":{"zip_code":"0800026","prefecture":"北海道","prefecture_kana":"ホッカイドウ","city":"帯広市","city_kana":"オビヒロシ","town":"西十六条南","town_kana":"ニシ16ジョウミナミ","prefecture_code":1},"0047":{"zip_code":"0800047","prefecture":"北海道","prefecture_kana":"ホッカイドウ","city":"帯広市","city_kana":"オビヒロシ","town":"西十七条北","town_kana":"ニシ17ジョウキタ","prefecture_code":1},"0027":{"zip_code":"0800027","prefecture":"北海道","prefecture_kana":"ホッカイドウ","city":"帯広市","city_kana":"オビヒロシ","town":"西十七条南","town_kana":"ニシ17ジョウミナミ","prefecture_code":1},"0048":{"zip_code":"0800048","prefecture":"北海道","prefecture_kana":"ホッカイドウ","city":"帯広市","city_kana":"オビヒロシ","town":"西十八条北","town_kana":"ニシ18ジョウキタ","prefecture_code":1},"0028":{"zip_code":"0800028","prefecture":"北海道","prefecture_kana":"ホッカイドウ","city":"帯広市","city_kana":"オビヒロシ","town":"西十八条南","town_kana":"ニシ18ジョウミナミ","prefecture_code":1},"2459":{"zip_code":"0802459","prefecture":"北海道","prefecture_kana":"ホッカイドウ","city":"帯広市","city_kana":"オビヒロシ","town":"西十九条北","town_kana":"ニシ19ジョウキタ","prefecture_code":1},"2469":{"zip_code":"0802469","prefecture":"北海道","prefecture_kana":"ホッカイドウ","city":"帯広市","city_kana":"オビヒロシ","town":"西十九条南","town_kana":"ニシ19ジョウミナミ","prefecture_code":1},"0029":{"zip_code":"0800029","prefecture":"北海道","prefecture_kana":"ホッカイドウ","city":"帯広市","city_kana":"オビヒロシ","town":"西十九条南","town_kana":"ニシ19ジョウミナミ","prefecture_code":1},"2460":{"zip_code":"0802460","prefecture":"北海道","prefecture_kana":"ホッカイドウ","city":"帯広市","city_kana":"オビヒロシ","town":"西二十条北","town_kana":"ニシ20ジョウキタ","prefecture_code":1},"2470":{"zip_code":"0802470","prefecture":"北海道","prefecture_kana":"ホッカイドウ","city":"帯広市","city_kana":"オビヒロシ","town":"西二十条南","town_kana":"ニシ20ジョウミナミ","prefecture_code":1},"2461":{"zip_code":"0802461","prefecture":"北海道","prefecture_kana":"ホッカイドウ","city":"帯広市","city_kana":"オビヒロシ","town":"西二十一条北","town_kana":"ニシ21ジョウキタ","prefecture_code":1},"2471":{"zip_code":"0802471","prefecture":"北海道","prefecture_kana":"ホッカイドウ","city":"帯広市","city_kana":"オビヒロシ","town":"西二十一条南","town_kana":"ニシ21ジョウミナミ","prefecture_code":1},"2462":{"zip_code":"0802462","prefecture":"北海道","prefecture_kana":"ホッカイドウ","city":"帯広市","city_kana":"オビヒロシ","town":"西二十二条北","town_kana":"ニシ22ジョウキタ","prefecture_code":1},"2472":{"zip_code":"0802472","prefecture":"北海道","prefecture_kana":"ホッカイドウ","city":"帯広市","city_kana":"オビヒロシ","town":"西二十二条南","town_kana":"ニシ22ジョウミナミ","prefecture_code":1},"2463":{"zip_code":"0802463","prefecture":"北海道","prefecture_kana":"ホッカイドウ","city":"帯広市","city_kana":"オビヒロシ","town":"西二十三条北","town_kana":"ニシ23ジョウキタ","prefecture_code":1},"2473":{"zip_code":"0802473","prefecture":"北海道","prefecture_kana":"ホッカイドウ","city":"帯広市","city_kana":"オビヒロシ","town":"西二十三条南","town_kana":"ニシ23ジョウミナミ","prefecture_code":1},"2464":{"zip_code":"0802464","prefecture":"北海道","prefecture_kana":"ホッカイドウ","city":"帯広市","city_kana":"オビヒロシ","town":"西二十四条北","town_kana":"ニシ24ジョウキタ","prefecture_code":1},"2474":{"zip_code":"0802474","prefecture":"北海道","prefecture_kana":"ホッカイドウ","city":"帯広市","city_kana":"オビヒロシ","town":"西二十四条南","town_kana":"ニシ24ジョウミナミ","prefecture_code":1},"2465":{"zip_code":"0802465","prefecture":"北海道","prefecture_kana":"ホッカイドウ","city":"帯広市","city_kana":"オビヒロシ","town":"西二十五条北","town_kana":"ニシ25ジョウキタ","prefecture_code":1},"2475":{"zip_code":"0802475","prefecture":"北海道","prefecture_kana":"ホッカイドウ","city":"帯広市","city_kana":"オビヒロシ","town":"西二十五条南","town_kana":"ニシ25ジョウミナミ","prefecture_code":1},"0054":{"zip_code":"0800054","prefecture":"北海道","prefecture_kana":"ホッカイドウ","city":"帯広市","city_kana":"オビヒロシ","town":"柏林台北町","town_kana":"ハクリンダイキタマチ","prefecture_code":1},"0057":{"zip_code":"0800057","prefecture":"北海道","prefecture_kana":"ホッカイドウ","city":"帯広市","city_kana":"オビヒロシ","town":"柏林台中町","town_kana":"ハクリンダイナカマチ","prefecture_code":1},"0058":{"zip_code":"0800058","prefecture":"北海道","prefecture_kana":"ホッカイドウ","city":"帯広市","city_kana":"オビヒロシ","town":"柏林台西町","town_kana":"ハクリンダイニシマチ","prefecture_code":1},"0055":{"zip_code":"0800055","prefecture":"北海道","prefecture_kana":"ホッカイドウ","city":"帯広市","city_kana":"オビヒロシ","town":"柏林台東町","town_kana":"ハクリンダイヒガシマチ","prefecture_code":1},"0056":{"zip_code":"0800056","prefecture":"北海道","prefecture_kana":"ホッカイドウ","city":"帯広市","city_kana":"オビヒロシ","town":"柏林台南町","town_kana":"ハクリンダイミナミマチ","prefecture_code":1},"2333":{"zip_code":"0802333","prefecture":"北海道","prefecture_kana":"ホッカイドウ","city":"帯広市","city_kana":"オビヒロシ","town":"美栄町","town_kana":"ビエイチョウ","prefecture_code":1},"2106":{"zip_code":"0802106","prefecture":"北海道","prefecture_kana":"ホッカイドウ","city":"帯広市","city_kana":"オビヒロシ","town":"美栄町","town_kana":"ビエイチョウ","prefecture_code":1},"0821":{"zip_code":"0800821","prefecture":"北海道","prefecture_kana":"ホッカイドウ","city":"帯広市","city_kana":"オビヒロシ","town":"東一条北","town_kana":"ヒガシ1ジョウキタ","prefecture_code":1},"0801":{"zip_code":"0800801","prefecture":"北海道","prefecture_kana":"ホッカイドウ","city":"帯広市","city_kana":"オビヒロシ","town":"東一条南","town_kana":"ヒガシ1ジョウミナミ","prefecture_code":1},"0822":{"zip_code":"0800822","prefecture":"北海道","prefecture_kana":"ホッカイドウ","city":"帯広市","city_kana":"オビヒロシ","town":"東二条北","town_kana":"ヒガシ2ジョウキタ","prefecture_code":1},"0802":{"zip_code":"0800802","prefecture":"北海道","prefecture_kana":"ホッカイドウ","city":"帯広市","city_kana":"オビヒロシ","town":"東二条南","town_kana":"ヒガシ2ジョウミナミ","prefecture_code":1},"0823":{"zip_code":"0800823","prefecture":"北海道","prefecture_kana":"ホッカイドウ","city":"帯広市","city_kana":"オビヒロシ","town":"東三条北","town_kana":"ヒガシ3ジョウキタ","prefecture_code":1},"0803":{"zip_code":"0800803","prefecture":"北海道","prefecture_kana":"ホッカイドウ","city":"帯広市","city_kana":"オビヒロシ","town":"東三条南","town_kana":"ヒガシ3ジョウミナミ","prefecture_code":1},"0824":{"zip_code":"0800824","prefecture":"北海道","prefecture_kana":"ホッカイドウ","city":"帯広市","city_kana":"オビヒロシ","town":"東四条北","town_kana":"ヒガシ4ジョウキタ","prefecture_code":1},"0804":{"zip_code":"0800804","prefecture":"北海道","prefecture_kana":"ホッカイドウ","city":"帯広市","city_kana":"オビヒロシ","town":"東四条南","town_kana":"ヒガシ4ジョウミナミ","prefecture_code":1},"0805":{"zip_code":"0800805","prefecture":"北海道","prefecture_kana":"ホッカイドウ","city":"帯広市","city_kana":"オビヒロシ","town":"東五条南","town_kana":"ヒガシ5ジョウミナミ","prefecture_code":1},"0806":{"zip_code":"0800806","prefecture":"北海道","prefecture_kana":"ホッカイドウ","city":"帯広市","city_kana":"オビヒロシ","town":"東六条南","town_kana":"ヒガシ6ジョウミナミ","prefecture_code":1},"0807":{"zip_code":"0800807","prefecture":"北海道","prefecture_kana":"ホッカイドウ","city":"帯広市","city_kana":"オビヒロシ","town":"東七条南","town_kana":"ヒガシ7ジョウミナミ","prefecture_code":1},"0808":{"zip_code":"0800808","prefecture":"北海道","prefecture_kana":"ホッカイドウ","city":"帯広市","city_kana":"オビヒロシ","town":"東八条南","town_kana":"ヒガシ8ジョウミナミ","prefecture_code":1},"0809":{"zip_code":"0800809","prefecture":"北海道","prefecture_kana":"ホッカイドウ","city":"帯広市","city_kana":"オビヒロシ","town":"東九条南","town_kana":"ヒガシ9ジョウミナミ","prefecture_code":1},"0810":{"zip_code":"0800810","prefecture":"北海道","prefecture_kana":"ホッカイドウ","city":"帯広市","city_kana":"オビヒロシ","town":"東十条南","town_kana":"ヒガシ10ジョウミナミ","prefecture_code":1},"0811":{"zip_code":"0800811","prefecture":"北海道","prefecture_kana":"ホッカイドウ","city":"帯広市","city_kana":"オビヒロシ","town":"東十一条南","town_kana":"ヒガシ11ジョウミナミ","prefecture_code":1},"0812":{"zip_code":"0800812","prefecture":"北海道","prefecture_kana":"ホッカイドウ","city":"帯広市","city_kana":"オビヒロシ","town":"東十二条南","town_kana":"ヒガシ12ジョウミナミ","prefecture_code":1},"0813":{"zip_code":"0800813","prefecture":"北海道","prefecture_kana":"ホッカイドウ","city":"帯広市","city_kana":"オビヒロシ","town":"東十三条南","town_kana":"ヒガシ13ジョウミナミ","prefecture_code":1},"0814":{"zip_code":"0800814","prefecture":"北海道","prefecture_kana":"ホッカイドウ","city":"帯広市","city_kana":"オビヒロシ","town":"東十四条南","town_kana":"ヒガシ14ジョウミナミ","prefecture_code":1},"0815":{"zip_code":"0800815","prefecture":"北海道","prefecture_kana":"ホッカイドウ","city":"帯広市","city_kana":"オビヒロシ","town":"東十五条南","town_kana":"ヒガシ15ジョウミナミ","prefecture_code":1},"2335":{"zip_code":"0802335","prefecture":"北海道","prefecture_kana":"ホッカイドウ","city":"帯広市","city_kana":"オビヒロシ","town":"広野町","town_kana":"ヒロノチョウ","prefecture_code":1},"2332":{"zip_code":"0802332","prefecture":"北海道","prefecture_kana":"ホッカイドウ","city":"帯広市","city_kana":"オビヒロシ","town":"富士町","town_kana":"フジチョウ","prefecture_code":1},"0846":{"zip_code":"0800846","prefecture":"北海道","prefecture_kana":"ホッカイドウ","city":"帯広市","city_kana":"オビヒロシ","town":"緑ケ丘","town_kana":"ミドリガオカ","prefecture_code":1},"0841":{"zip_code":"0800841","prefecture":"北海道","prefecture_kana":"ホッカイドウ","city":"帯広市","city_kana":"オビヒロシ","town":"緑ケ丘一条通","town_kana":"ミドリガオカ1ジョウドオリ","prefecture_code":1},"0842":{"zip_code":"0800842","prefecture":"北海道","prefecture_kana":"ホッカイドウ","city":"帯広市","city_kana":"オビヒロシ","town":"緑ケ丘二条通","town_kana":"ミドリガオカ2ジョウドオリ","prefecture_code":1},"0843":{"zip_code":"0800843","prefecture":"北海道","prefecture_kana":"ホッカイドウ","city":"帯広市","city_kana":"オビヒロシ","town":"緑ケ丘三条通","town_kana":"ミドリガオカ3ジョウドオリ","prefecture_code":1},"0845":{"zip_code":"0800845","prefecture":"北海道","prefecture_kana":"ホッカイドウ","city":"帯広市","city_kana":"オビヒロシ","town":"緑ケ丘東通西","town_kana":"ミドリガオカヒガシドオリニシ","prefecture_code":1},"0844":{"zip_code":"0800844","prefecture":"北海道","prefecture_kana":"ホッカイドウ","city":"帯広市","city_kana":"オビヒロシ","town":"緑ケ丘東通東","town_kana":"ミドリガオカヒガシドオリヒガシ","prefecture_code":1},"0862":{"zip_code":"0800862","prefecture":"北海道","prefecture_kana":"ホッカイドウ","city":"帯広市","city_kana":"オビヒロシ","town":"南の森西","town_kana":"ミナミノモリニシ","prefecture_code":1},"0861":{"zip_code":"0800861","prefecture":"北海道","prefecture_kana":"ホッカイドウ","city":"帯広市","city_kana":"オビヒロシ","town":"南の森東","town_kana":"ミナミノモリヒガシ","prefecture_code":1},"0857":{"zip_code":"0800857","prefecture":"北海道","prefecture_kana":"ホッカイドウ","city":"帯広市","city_kana":"オビヒロシ","town":"南町","town_kana":"ミナミマチ","prefecture_code":1},"0851":{"zip_code":"0800851","prefecture":"北海道","prefecture_kana":"ホッカイドウ","city":"帯広市","city_kana":"オビヒロシ","town":"南町東一条","town_kana":"ミナミマチヒガシ1ジョウ","prefecture_code":1},"0852":{"zip_code":"0800852","prefecture":"北海道","prefecture_kana":"ホッカイドウ","city":"帯広市","city_kana":"オビヒロシ","town":"南町東二条","town_kana":"ミナミマチヒガシ2ジョウ","prefecture_code":1},"0853":{"zip_code":"0800853","prefecture":"北海道","prefecture_kana":"ホッカイドウ","city":"帯広市","city_kana":"オビヒロシ","town":"南町東三条","town_kana":"ミナミマチヒガシ3ジョウ","prefecture_code":1},"0854":{"zip_code":"0800854","prefecture":"北海道","prefecture_kana":"ホッカイドウ","city":"帯広市","city_kana":"オビヒロシ","town":"南町東四条","town_kana":"ミナミマチヒガシ4ジョウ","prefecture_code":1},"0855":{"zip_code":"0800855","prefecture":"北海道","prefecture_kana":"ホッカイドウ","city":"帯広市","city_kana":"オビヒロシ","town":"南町東五条","town_kana":"ミナミマチヒガシ5ジョウ","prefecture_code":1},"0856":{"zip_code":"0800856","prefecture":"北海道","prefecture_kana":"ホッカイドウ","city":"帯広市","city_kana":"オビヒロシ","town":"南町南","town_kana":"ミナミマチミナミ","prefecture_code":1},"2331":{"zip_code":"0802331","prefecture":"北海道","prefecture_kana":"ホッカイドウ","city":"帯広市","city_kana":"オビヒロシ","town":"基松町","town_kana":"モトイマツチョウ","prefecture_code":1},"2336":{"zip_code":"0802336","prefecture":"北海道","prefecture_kana":"ホッカイドウ","city":"帯広市","city_kana":"オビヒロシ","town":"八千代町","town_kana":"ヤチヨチョウ","prefecture_code":1},"0817":{"zip_code":"0800817","prefecture":"北海道","prefecture_kana":"ホッカイドウ","city":"帯広市","city_kana":"オビヒロシ","town":"依田町","town_kana":"ヨダチョウ","prefecture_code":1},"0100":{"zip_code":"0800100","prefecture":"北海道","prefecture_kana":"ホッカイドウ","city":"河東郡音更町","city_kana":"カトウグンオトフケチョウ","town":"","town_kana":"","prefecture_code":1},"0101":{"zip_code":"0800101","prefecture":"北海道","prefecture_kana":"ホッカイドウ","city":"河東郡音更町","city_kana":"カトウグンオトフケチョウ","town":"大通","town_kana":"オオドオリ","prefecture_code":1},"0102":{"zip_code":"0800102","prefecture":"北海道","prefecture_kana":"ホッカイドウ","city":"河東郡音更町","city_kana":"カトウグンオトフケチョウ","town":"大通北","town_kana":"オオドオリキタ","prefecture_code":1},"0271":[{"zip_code":"0800271","prefecture":"北海道","prefecture_kana":"ホッカイドウ","city":"河東郡音更町","city_kana":"カトウグンオトフケチョウ","town":"長流枝","town_kana":"オサルシ","prefecture_code":1},{"zip_code":"0800271","prefecture":"北海道","prefecture_kana":"ホッカイドウ","city":"河東郡音更町","city_kana":"カトウグンオトフケチョウ","town":"長流枝幹線","town_kana":"オサルシカンセン","prefecture_code":1}],"0341":{"zip_code":"0800341","prefecture":"北海道","prefecture_kana":"ホッカイドウ","city":"河東郡音更町","city_kana":"カトウグンオトフケチョウ","town":"音更","town_kana":"オトフケ","prefecture_code":1},"0575":{"zip_code":"0800575","prefecture":"北海道","prefecture_kana":"ホッカイドウ","city":"河東郡音更町","city_kana":"カトウグンオトフケチョウ","town":"上然別","town_kana":"カミシカリベツ","prefecture_code":1},"0306":{"zip_code":"0800306","prefecture":"北海道","prefecture_kana":"ホッカイドウ","city":"河東郡音更町","city_kana":"カトウグンオトフケチョウ","town":"北鈴蘭南","town_kana":"キタスズランミナミ","prefecture_code":1},"0305":{"zip_code":"0800305","prefecture":"北海道","prefecture_kana":"ホッカイドウ","city":"河東郡音更町","city_kana":"カトウグンオトフケチョウ","town":"北鈴蘭北","town_kana":"キタスズランキタ","prefecture_code":1},"0111":{"zip_code":"0800111","prefecture":"北海道","prefecture_kana":"ホッカイドウ","city":"河東郡音更町","city_kana":"カトウグンオトフケチョウ","town":"木野大通東","town_kana":"キノオオドオリヒガシ","prefecture_code":1},"0301":{"zip_code":"0800301","prefecture":"北海道","prefecture_kana":"ホッカイドウ","city":"河東郡音更町","city_kana":"カトウグンオトフケチョウ","town":"木野大通西","town_kana":"キノオオドオリニシ","prefecture_code":1},"0303":{"zip_code":"0800303","prefecture":"北海道","prefecture_kana":"ホッカイドウ","city":"河東郡音更町","city_kana":"カトウグンオトフケチョウ","town":"木野公園下町","town_kana":"キノコウエンシタマチ","prefecture_code":1},"0304":{"zip_code":"0800304","prefecture":"北海道","prefecture_kana":"ホッカイドウ","city":"河東郡音更町","city_kana":"カトウグンオトフケチョウ","town":"木野新町","town_kana":"キノシンマチ","prefecture_code":1},"0302":{"zip_code":"0800302","prefecture":"北海道","prefecture_kana":"ホッカイドウ","city":"河東郡音更町","city_kana":"カトウグンオトフケチョウ","town":"木野西通","town_kana":"キノニシドオリ","prefecture_code":1},"0112":{"zip_code":"0800112","prefecture":"北海道","prefecture_kana":"ホッカイドウ","city":"河東郡音更町","city_kana":"カトウグンオトフケチョウ","town":"木野東通","town_kana":"キノヒガシドオリ","prefecture_code":1},"0335":{"zip_code":"0800335","prefecture":"北海道","prefecture_kana":"ホッカイドウ","city":"河東郡音更町","city_kana":"カトウグンオトフケチョウ","town":"希望が丘","town_kana":"キボウガオカ","prefecture_code":1},"0315":{"zip_code":"0800315","prefecture":"北海道","prefecture_kana":"ホッカイドウ","city":"河東郡音更町","city_kana":"カトウグンオトフケチョウ","town":"共栄台東","town_kana":"キョウエイダイヒガシ","prefecture_code":1},"0314":{"zip_code":"0800314","prefecture":"北海道","prefecture_kana":"ホッカイドウ","city":"河東郡音更町","city_kana":"カトウグンオトフケチョウ","town":"共栄台西","town_kana":"キョウエイダイニシ","prefecture_code":1},"0571":{"zip_code":"0800571","prefecture":"北海道","prefecture_kana":"ホッカイドウ","city":"河東郡音更町","city_kana":"カトウグンオトフケチョウ","town":"駒場","town_kana":"コマバ","prefecture_code":1},"0564":[{"zip_code":"0800564","prefecture":"北海道","prefecture_kana":"ホッカイドウ","city":"河東郡音更町","city_kana":"カトウグンオトフケチョウ","town":"駒場北町","town_kana":"コマバキタマチ","prefecture_code":1},{"zip_code":"0800564","prefecture":"北海道","prefecture_kana":"ホッカイドウ","city":"河東郡音更町","city_kana":"カトウグンオトフケチョウ","town":"駒場北１条通","town_kana":"コマバキタ1ジョウドオリ","prefecture_code":1},{"zip_code":"0800564","prefecture":"北海道","prefecture_kana":"ホッカイドウ","city":"河東郡音更町","city_kana":"カトウグンオトフケチョウ","town":"駒場北２条通","town_kana":"コマバキタ2ジョウドオリ","prefecture_code":1}],"0572":{"zip_code":"0800572","prefecture":"北海道","prefecture_kana":"ホッカイドウ","city":"河東郡音更町","city_kana":"カトウグンオトフケチョウ","town":"駒場並木","town_kana":"コマバナミキ","prefecture_code":1},"0563":{"zip_code":"0800563","prefecture":"北海道","prefecture_kana":"ホッカイドウ","city":"河東郡音更町","city_kana":"カトウグンオトフケチョウ","town":"駒場平和台","town_kana":"コマバヘイワダイ","prefecture_code":1},"0565":{"zip_code":"0800565","prefecture":"北海道","prefecture_kana":"ホッカイドウ","city":"河東郡音更町","city_kana":"カトウグンオトフケチョウ","town":"駒場本通","town_kana":"コマバホンドオリ","prefecture_code":1},"0566":[{"zip_code":"0800566","prefecture":"北海道","prefecture_kana":"ホッカイドウ","city":"河東郡音更町","city_kana":"カトウグンオトフケチョウ","town":"駒場南１条通","town_kana":"コマバミナミ1ジョウドオリ","prefecture_code":1},{"zip_code":"0800566","prefecture":"北海道","prefecture_kana":"ホッカイドウ","city":"河東郡音更町","city_kana":"カトウグンオトフケチョウ","town":"駒場南２条通","town_kana":"コマバミナミ2ジョウドオリ","prefecture_code":1}],"0567":[{"zip_code":"0800567","prefecture":"北海道","prefecture_kana":"ホッカイドウ","city":"河東郡音更町","city_kana":"カトウグンオトフケチョウ","town":"駒場南３条通","town_kana":"コマバミナミ3ジョウドオリ","prefecture_code":1},{"zip_code":"0800567","prefecture":"北海道","prefecture_kana":"ホッカイドウ","city":"河東郡音更町","city_kana":"カトウグンオトフケチョウ","town":"駒場南４条通","town_kana":"コマバミナミ4ジョウドオリ","prefecture_code":1}],"0568":{"zip_code":"0800568","prefecture":"北海道","prefecture_kana":"ホッカイドウ","city":"河東郡音更町","city_kana":"カトウグンオトフケチョウ","town":"駒場東","town_kana":"コマバヒガシ","prefecture_code":1},"0574":{"zip_code":"0800574","prefecture":"北海道","prefecture_kana":"ホッカイドウ","city":"河東郡音更町","city_kana":"カトウグンオトフケチョウ","town":"駒場西","town_kana":"コマバニシ","prefecture_code":1},"0573":{"zip_code":"0800573","prefecture":"北海道","prefecture_kana":"ホッカイドウ","city":"河東郡音更町","city_kana":"カトウグンオトフケチョウ","town":"駒場南","town_kana":"コマバミナミ","prefecture_code":1},"0321":{"zip_code":"0800321","prefecture":"北海道","prefecture_kana":"ホッカイドウ","city":"河東郡音更町","city_kana":"カトウグンオトフケチョウ","town":"桜が丘","town_kana":"サクラガオカ","prefecture_code":1},"0322":{"zip_code":"0800322","prefecture":"北海道","prefecture_kana":"ホッカイドウ","city":"河東郡音更町","city_kana":"カトウグンオトフケチョウ","town":"桜が丘西","town_kana":"サクラガオカニシ","prefecture_code":1},"0351":{"zip_code":"0800351","prefecture":"北海道","prefecture_kana":"ホッカイドウ","city":"河東郡音更町","city_kana":"カトウグンオトフケチョウ","town":"然別","town_kana":"シカリベツ","prefecture_code":1},"0342":{"zip_code":"0800342","prefecture":"北海道","prefecture_kana":"ホッカイドウ","city":"河東郡音更町","city_kana":"カトウグンオトフケチョウ","town":"下音更","town_kana":"シモオトフケ","prefecture_code":1},"0272":[{"zip_code":"0800272","prefecture":"北海道","prefecture_kana":"ホッカイドウ","city":"河東郡音更町","city_kana":"カトウグンオトフケチョウ","town":"下士幌","town_kana":"シモシホロ","prefecture_code":1},{"zip_code":"0800272","prefecture":"北海道","prefecture_kana":"ホッカイドウ","city":"河東郡音更町","city_kana":"カトウグンオトフケチョウ","town":"下士幌幹線","town_kana":"シモシホロカンセン","prefecture_code":1}],"0104":{"zip_code":"0800104","prefecture":"北海道","prefecture_kana":"ホッカイドウ","city":"河東郡音更町","city_kana":"カトウグンオトフケチョウ","town":"新通","town_kana":"シンドオリ","prefecture_code":1},"0105":{"zip_code":"0800105","prefecture":"北海道","prefecture_kana":"ホッカイドウ","city":"河東郡音更町","city_kana":"カトウグンオトフケチョウ","town":"新通北","town_kana":"シンドオリキタ","prefecture_code":1},"0313":{"zip_code":"0800313","prefecture":"北海道","prefecture_kana":"ホッカイドウ","city":"河東郡音更町","city_kana":"カトウグンオトフケチョウ","town":"鈴蘭公園","town_kana":"スズランコウエン","prefecture_code":1},"0361":{"zip_code":"0800361","prefecture":"北海道","prefecture_kana":"ホッカイドウ","city":"河東郡音更町","city_kana":"カトウグンオトフケチョウ","town":"すずらん台北町","town_kana":"スズランダイキタマチ","prefecture_code":1},"0362":{"zip_code":"0800362","prefecture":"北海道","prefecture_kana":"ホッカイドウ","city":"河東郡音更町","city_kana":"カトウグンオトフケチョウ","town":"すずらん台仲町","town_kana":"スズランダイナカマチ","prefecture_code":1},"0363":{"zip_code":"0800363","prefecture":"北海道","prefecture_kana":"ホッカイドウ","city":"河東郡音更町","city_kana":"カトウグンオトフケチョウ","town":"すずらん台南町","town_kana":"スズランダイミナミマチ","prefecture_code":1},"0323":{"zip_code":"0800323","prefecture":"北海道","prefecture_kana":"ホッカイドウ","city":"河東郡音更町","city_kana":"カトウグンオトフケチョウ","town":"住吉台","town_kana":"スミヨシダイ","prefecture_code":1},"0345":{"zip_code":"0800345","prefecture":"北海道","prefecture_kana":"ホッカイドウ","city":"河東郡音更町","city_kana":"カトウグンオトフケチョウ","town":"高倉","town_kana":"タカクラ","prefecture_code":1},"0151":{"zip_code":"0800151","prefecture":"北海道","prefecture_kana":"ホッカイドウ","city":"河東郡音更町","city_kana":"カトウグンオトフケチョウ","town":"東和","town_kana":"トウワ","prefecture_code":1},"0261":{"zip_code":"0800261","prefecture":"北海道","prefecture_kana":"ホッカイドウ","city":"河東郡音更町","city_kana":"カトウグンオトフケチョウ","town":"十勝川温泉","town_kana":"トカチガワオンセン","prefecture_code":1},"0263":{"zip_code":"0800263","prefecture":"北海道","prefecture_kana":"ホッカイドウ","city":"河東郡音更町","city_kana":"カトウグンオトフケチョウ","town":"十勝川温泉南","town_kana":"トカチガワオンセンミナミ","prefecture_code":1},"0262":{"zip_code":"0800262","prefecture":"北海道","prefecture_kana":"ホッカイドウ","city":"河東郡音更町","city_kana":"カトウグンオトフケチョウ","town":"十勝川温泉北","town_kana":"トカチガワオンセンキタ","prefecture_code":1},"0561":{"zip_code":"0800561","prefecture":"北海道","prefecture_kana":"ホッカイドウ","city":"河東郡音更町","city_kana":"カトウグンオトフケチョウ","town":"豊田","town_kana":"トヨタ","prefecture_code":1},"0578":{"zip_code":"0800578","prefecture":"北海道","prefecture_kana":"ホッカイドウ","city":"河東郡音更町","city_kana":"カトウグンオトフケチョウ","town":"中音更","town_kana":"ナカオトフケ","prefecture_code":1},"0309":{"zip_code":"0800309","prefecture":"北海道","prefecture_kana":"ホッカイドウ","city":"河東郡音更町","city_kana":"カトウグンオトフケチョウ","town":"中鈴蘭元町","town_kana":"ナカスズランモトマチ","prefecture_code":1},"0308":{"zip_code":"0800308","prefecture":"北海道","prefecture_kana":"ホッカイドウ","city":"河東郡音更町","city_kana":"カトウグンオトフケチョウ","town":"中鈴蘭南","town_kana":"ナカスズランミナミ","prefecture_code":1},"0307":{"zip_code":"0800307","prefecture":"北海道","prefecture_kana":"ホッカイドウ","city":"河東郡音更町","city_kana":"カトウグンオトフケチョウ","town":"中鈴蘭北","town_kana":"ナカスズランキタ","prefecture_code":1},"0577":{"zip_code":"0800577","prefecture":"北海道","prefecture_kana":"ホッカイドウ","city":"河東郡音更町","city_kana":"カトウグンオトフケチョウ","town":"西中音更","town_kana":"ニシナカオトフケ","prefecture_code":1},"0325":{"zip_code":"0800325","prefecture":"北海道","prefecture_kana":"ホッカイドウ","city":"河東郡音更町","city_kana":"カトウグンオトフケチョウ","town":"柏寿台","town_kana":"ハクジュダイ","prefecture_code":1},"0562":{"zip_code":"0800562","prefecture":"北海道","prefecture_kana":"ホッカイドウ","city":"河東郡音更町","city_kana":"カトウグンオトフケチョウ","town":"東音更","town_kana":"ヒガシオトフケ","prefecture_code":1},"0343":{"zip_code":"0800343","prefecture":"北海道","prefecture_kana":"ホッカイドウ","city":"河東郡音更町","city_kana":"カトウグンオトフケチョウ","town":"東士狩","town_kana":"ヒガシシカリ","prefecture_code":1},"0106":{"zip_code":"0800106","prefecture":"北海道","prefecture_kana":"ホッカイドウ","city":"河東郡音更町","city_kana":"カトウグンオトフケチョウ","town":"東通","town_kana":"ヒガシドオリ","prefecture_code":1},"0162":{"zip_code":"0800162","prefecture":"北海道","prefecture_kana":"ホッカイドウ","city":"河東郡音更町","city_kana":"カトウグンオトフケチョウ","town":"ひびき野仲町","town_kana":"ヒビキノナカマチ","prefecture_code":1},"0161":{"zip_code":"0800161","prefecture":"北海道","prefecture_kana":"ホッカイドウ","city":"河東郡音更町","city_kana":"カトウグンオトフケチョウ","town":"ひびき野東町","town_kana":"ヒビキノヒガシマチ","prefecture_code":1},"0163":{"zip_code":"0800163","prefecture":"北海道","prefecture_kana":"ホッカイドウ","city":"河東郡音更町","city_kana":"カトウグンオトフケチョウ","town":"ひびき野西町","town_kana":"ヒビキノニシマチ","prefecture_code":1},"0137":{"zip_code":"0800137","prefecture":"北海道","prefecture_kana":"ホッカイドウ","city":"河東郡音更町","city_kana":"カトウグンオトフケチョウ","town":"宝来南一条","town_kana":"ホウライミナミ1ジョウ","prefecture_code":1},"0138":{"zip_code":"0800138","prefecture":"北海道","prefecture_kana":"ホッカイドウ","city":"河東郡音更町","city_kana":"カトウグンオトフケチョウ","town":"宝来南二条","town_kana":"ホウライミナミ2ジョウ","prefecture_code":1},"0141":{"zip_code":"0800141","prefecture":"北海道","prefecture_kana":"ホッカイドウ","city":"河東郡音更町","city_kana":"カトウグンオトフケチョウ","town":"宝来北一条","town_kana":"ホウライキタ1ジョウ","prefecture_code":1},"0142":{"zip_code":"0800142","prefecture":"北海道","prefecture_kana":"ホッカイドウ","city":"河東郡音更町","city_kana":"カトウグンオトフケチョウ","town":"宝来北二条","town_kana":"ホウライキタ2ジョウ","prefecture_code":1},"0143":{"zip_code":"0800143","prefecture":"北海道","prefecture_kana":"ホッカイドウ","city":"河東郡音更町","city_kana":"カトウグンオトフケチョウ","town":"宝来北三条","town_kana":"ホウライキタ3ジョウ","prefecture_code":1},"0144":{"zip_code":"0800144","prefecture":"北海道","prefecture_kana":"ホッカイドウ","city":"河東郡音更町","city_kana":"カトウグンオトフケチョウ","town":"宝来北四条","town_kana":"ホウライキタ4ジョウ","prefecture_code":1},"0145":{"zip_code":"0800145","prefecture":"北海道","prefecture_kana":"ホッカイドウ","city":"河東郡音更町","city_kana":"カトウグンオトフケチョウ","town":"宝来北五条","town_kana":"ホウライキタ5ジョウ","prefecture_code":1},"0146":{"zip_code":"0800146","prefecture":"北海道","prefecture_kana":"ホッカイドウ","city":"河東郡音更町","city_kana":"カトウグンオトフケチョウ","town":"宝来北六条","town_kana":"ホウライキタ6ジョウ","prefecture_code":1},"0135":{"zip_code":"0800135","prefecture":"北海道","prefecture_kana":"ホッカイドウ","city":"河東郡音更町","city_kana":"カトウグンオトフケチョウ","town":"宝来仲町南","town_kana":"ホウライナカマチミナミ","prefecture_code":1},"0132":{"zip_code":"0800132","prefecture":"北海道","prefecture_kana":"ホッカイドウ","city":"河東郡音更町","city_kana":"カトウグンオトフケチョウ","town":"宝来仲町北","town_kana":"ホウライナカマチキタ","prefecture_code":1},"0136":{"zip_code":"0800136","prefecture":"北海道","prefecture_kana":"ホッカイドウ","city":"河東郡音更町","city_kana":"カトウグンオトフケチョウ","town":"宝来東町南","town_kana":"ホウライヒガシマチミナミ","prefecture_code":1},"0133":{"zip_code":"0800133","prefecture":"北海道","prefecture_kana":"ホッカイドウ","city":"河東郡音更町","city_kana":"カトウグンオトフケチョウ","town":"宝来東町北","town_kana":"ホウライヒガシマチキタ","prefecture_code":1},"0139":{"zip_code":"0800139","prefecture":"北海道","prefecture_kana":"ホッカイドウ","city":"河東郡音更町","city_kana":"カトウグンオトフケチョウ","town":"宝来西町北","town_kana":"ホウライニシマチキタ","prefecture_code":1},"0134":{"zip_code":"0800134","prefecture":"北海道","prefecture_kana":"ホッカイドウ","city":"河東郡音更町","city_kana":"カトウグンオトフケチョウ","town":"宝来西町南","town_kana":"ホウライニシマチミナミ","prefecture_code":1},"0131":{"zip_code":"0800131","prefecture":"北海道","prefecture_kana":"ホッカイドウ","city":"河東郡音更町","city_kana":"カトウグンオトフケチョウ","town":"宝来本通","town_kana":"ホウライホンドオリ","prefecture_code":1},"0326":{"zip_code":"0800326","prefecture":"北海道","prefecture_kana":"ホッカイドウ","city":"河東郡音更町","city_kana":"カトウグンオトフケチョウ","town":"北明台","town_kana":"ホクメイダイ","prefecture_code":1},"0327":{"zip_code":"0800327","prefecture":"北海道","prefecture_kana":"ホッカイドウ","city":"河東郡音更町","city_kana":"カトウグンオトフケチョウ","town":"北陽台","town_kana":"ホクヨウダイ","prefecture_code":1},"0344":{"zip_code":"0800344","prefecture":"北海道","prefecture_kana":"ホッカイドウ","city":"河東郡音更町","city_kana":"カトウグンオトフケチョウ","town":"万年","town_kana":"マンネン","prefecture_code":1},"0334":{"zip_code":"0800334","prefecture":"北海道","prefecture_kana":"ホッカイドウ","city":"河東郡音更町","city_kana":"カトウグンオトフケチョウ","town":"緑が丘","town_kana":"ミドリガオカ","prefecture_code":1},"0312":{"zip_code":"0800312","prefecture":"北海道","prefecture_kana":"ホッカイドウ","city":"河東郡音更町","city_kana":"カトウグンオトフケチョウ","town":"南鈴蘭南","town_kana":"ミナミスズランミナミ","prefecture_code":1},"0311":{"zip_code":"0800311","prefecture":"北海道","prefecture_kana":"ホッカイドウ","city":"河東郡音更町","city_kana":"カトウグンオトフケチョウ","town":"南鈴蘭北","town_kana":"ミナミスズランキタ","prefecture_code":1},"0324":{"zip_code":"0800324","prefecture":"北海道","prefecture_kana":"ホッカイドウ","city":"河東郡音更町","city_kana":"カトウグンオトフケチョウ","town":"南住吉台","town_kana":"ミナミスミヨシダイ","prefecture_code":1},"0576":{"zip_code":"0800576","prefecture":"北海道","prefecture_kana":"ホッカイドウ","city":"河東郡音更町","city_kana":"カトウグンオトフケチョウ","town":"南中音更","town_kana":"ミナミナカオトフケ","prefecture_code":1},"0103":{"zip_code":"0800103","prefecture":"北海道","prefecture_kana":"ホッカイドウ","city":"河東郡音更町","city_kana":"カトウグンオトフケチョウ","town":"元町","town_kana":"モトマチ","prefecture_code":1},"0121":{"zip_code":"0800121","prefecture":"北海道","prefecture_kana":"ホッカイドウ","city":"河東郡音更町","city_kana":"カトウグンオトフケチョウ","town":"柳町北区","town_kana":"ヤナギマチキタク","prefecture_code":1},"0122":{"zip_code":"0800122","prefecture":"北海道","prefecture_kana":"ホッカイドウ","city":"河東郡音更町","city_kana":"カトウグンオトフケチョウ","town":"柳町仲区","town_kana":"ヤナギマチナカク","prefecture_code":1},"0123":{"zip_code":"0800123","prefecture":"北海道","prefecture_kana":"ホッカイドウ","city":"河東郡音更町","city_kana":"カトウグンオトフケチョウ","town":"柳町南区","town_kana":"ヤナギマチミナミク","prefecture_code":1},"0330":{"zip_code":"0800330","prefecture":"北海道","prefecture_kana":"ホッカイドウ","city":"河東郡音更町","city_kana":"カトウグンオトフケチョウ","town":"雄飛が丘","town_kana":"ユウヒガオカ","prefecture_code":1},"0332":{"zip_code":"0800332","prefecture":"北海道","prefecture_kana":"ホッカイドウ","city":"河東郡音更町","city_kana":"カトウグンオトフケチョウ","town":"雄飛が丘仲区","town_kana":"ユウヒガオカナカク","prefecture_code":1},"0333":{"zip_code":"0800333","prefecture":"北海道","prefecture_kana":"ホッカイドウ","city":"河東郡音更町","city_kana":"カトウグンオトフケチョウ","town":"雄飛が丘南区","town_kana":"ユウヒガオカミナミク","prefecture_code":1},"0331":{"zip_code":"0800331","prefecture":"北海道","prefecture_kana":"ホッカイドウ","city":"河東郡音更町","city_kana":"カトウグンオトフケチョウ","town":"雄飛が丘北区","town_kana":"ユウヒガオカキタク","prefecture_code":1},"0317":{"zip_code":"0800317","prefecture":"北海道","prefecture_kana":"ホッカイドウ","city":"河東郡音更町","city_kana":"カトウグンオトフケチョウ","town":"緑陽台仲区","town_kana":"リョクヨウダイナカク","prefecture_code":1},"0318":{"zip_code":"0800318","prefecture":"北海道","prefecture_kana":"ホッカイドウ","city":"河東郡音更町","city_kana":"カトウグンオトフケチョウ","town":"緑陽台南区","town_kana":"リョクヨウダイミナミク","prefecture_code":1},"0316":{"zip_code":"0800316","prefecture":"北海道","prefecture_kana":"ホッカイドウ","city":"河東郡音更町","city_kana":"カトウグンオトフケチョウ","town":"緑陽台北区","town_kana":"リョクヨウダイキタク","prefecture_code":1},"1200":{"zip_code":"0801200","prefecture":"北海道","prefecture_kana":"ホッカイドウ","city":"河東郡士幌町","city_kana":"カトウグンシホロチョウ","town":"","town_kana":"","prefecture_code":1},"1203":{"zip_code":"0801203","prefecture":"北海道","prefecture_kana":"ホッカイドウ","city":"河東郡士幌町","city_kana":"カトウグンシホロチョウ","town":"いこい","town_kana":"イコイ","prefecture_code":1},"1278":{"zip_code":"0801278","prefecture":"北海道","prefecture_kana":"ホッカイドウ","city":"河東郡士幌町","city_kana":"カトウグンシホロチョウ","town":"栄進","town_kana":"エイシン","prefecture_code":1},"1223":{"zip_code":"0801223","prefecture":"北海道","prefecture_kana":"ホッカイドウ","city":"河東郡士幌町","city_kana":"カトウグンシホロチョウ","town":"大通","town_kana":"オオドオリ","prefecture_code":1},"1226":{"zip_code":"0801226","prefecture":"北海道","prefecture_kana":"ホッカイドウ","city":"河東郡士幌町","city_kana":"カトウグンシホロチョウ","town":"大通西","town_kana":"オオドオリニシ","prefecture_code":1},"1286":{"zip_code":"0801286","prefecture":"北海道","prefecture_kana":"ホッカイドウ","city":"河東郡士幌町","city_kana":"カトウグンシホロチョウ","town":"開運","town_kana":"カイウン","prefecture_code":1},"1244":{"zip_code":"0801244","prefecture":"北海道","prefecture_kana":"ホッカイドウ","city":"河東郡士幌町","city_kana":"カトウグンシホロチョウ","town":"柏","town_kana":"カシワ","prefecture_code":1},"1248":{"zip_code":"0801248","prefecture":"北海道","prefecture_kana":"ホッカイドウ","city":"河東郡士幌町","city_kana":"カトウグンシホロチョウ","town":"柏野","town_kana":"カシワノ","prefecture_code":1},"1288":{"zip_code":"0801288","prefecture":"北海道","prefecture_kana":"ホッカイドウ","city":"河東郡士幌町","city_kana":"カトウグンシホロチョウ","town":"北上居辺","town_kana":"キタカミオリベ","prefecture_code":1},"1274":{"zip_code":"0801274","prefecture":"北海道","prefecture_kana":"ホッカイドウ","city":"河東郡士幌町","city_kana":"カトウグンシホロチョウ","town":"共益","town_kana":"キョウエキ","prefecture_code":1},"1245":{"zip_code":"0801245","prefecture":"北海道","prefecture_kana":"ホッカイドウ","city":"河東郡士幌町","city_kana":"カトウグンシホロチョウ","town":"共成","town_kana":"キョウセイ","prefecture_code":1},"1189":[{"zip_code":"0801189","prefecture":"北海道","prefecture_kana":"ホッカイドウ","city":"河東郡士幌町","city_kana":"カトウグンシホロチョウ","town":"共豊","town_kana":"キョウホウ","prefecture_code":1},{"zip_code":"0801189","prefecture":"北海道","prefecture_kana":"ホッカイドウ","city":"河東郡士幌町","city_kana":"カトウグンシホロチョウ","town":"士幌","town_kana":"シホロ","prefecture_code":1},{"zip_code":"0801189","prefecture":"北海道","prefecture_kana":"ホッカイドウ","city":"河東郡士幌町","city_kana":"カトウグンシホロチョウ","town":"東台","town_kana":"トウダイ","prefecture_code":1},{"zip_code":"0801189","prefecture":"北海道","prefecture_kana":"ホッカイドウ","city":"河東郡士幌町","city_kana":"カトウグンシホロチョウ","town":"富秋","town_kana":"トミアキ","prefecture_code":1},{"zip_code":"0801189","prefecture":"北海道","prefecture_kana":"ホッカイドウ","city":"河東郡士幌町","city_kana":"カトウグンシホロチョウ","town":"中士幌","town_kana":"ナカシホロ","prefecture_code":1},{"zip_code":"0801189","prefecture":"北海道","prefecture_kana":"ホッカイドウ","city":"河東郡士幌町","city_kana":"カトウグンシホロチョウ","town":"中士幌勝和","town_kana":"ナカシホロカツワ","prefecture_code":1},{"zip_code":"0801189","prefecture":"北海道","prefecture_kana":"ホッカイドウ","city":"河東郡士幌町","city_kana":"カトウグンシホロチョウ","town":"中士幌北","town_kana":"ナカシホロキタ","prefecture_code":1},{"zip_code":"0801189","prefecture":"北海道","prefecture_kana":"ホッカイドウ","city":"河東郡士幌町","city_kana":"カトウグンシホロチョウ","town":"中士幌北団地","town_kana":"ナカシホロキタダンチ","prefecture_code":1},{"zip_code":"0801189","prefecture":"北海道","prefecture_kana":"ホッカイドウ","city":"河東郡士幌町","city_kana":"カトウグンシホロチョウ","town":"中士幌共進","town_kana":"ナカシホロキョウシン","prefecture_code":1},{"zip_code":"0801189","prefecture":"北海道","prefecture_kana":"ホッカイドウ","city":"河東郡士幌町","city_kana":"カトウグンシホロチョウ","town":"中士幌新東団地","town_kana":"ナカシホロシンヒガシダンチ","prefecture_code":1},{"zip_code":"0801189","prefecture":"北海道","prefecture_kana":"ホッカイドウ","city":"河東郡士幌町","city_kana":"カトウグンシホロチョウ","town":"中士幌新南","town_kana":"ナカシホロシンミナミ","prefecture_code":1},{"zip_code":"0801189","prefecture":"北海道","prefecture_kana":"ホッカイドウ","city":"河東郡士幌町","city_kana":"カトウグンシホロチョウ","town":"中士幌西","town_kana":"ナカシホロニシ","prefecture_code":1},{"zip_code":"0801189","prefecture":"北海道","prefecture_kana":"ホッカイドウ","city":"河東郡士幌町","city_kana":"カトウグンシホロチョウ","town":"中士幌東団地","town_kana":"ナカシホロヒガシダンチ","prefecture_code":1},{"zip_code":"0801189","prefecture":"北海道","prefecture_kana":"ホッカイドウ","city":"河東郡士幌町","city_kana":"カトウグンシホロチョウ","town":"中士幌文化","town_kana":"ナカシホロブンカ","prefecture_code":1},{"zip_code":"0801189","prefecture":"北海道","prefecture_kana":"ホッカイドウ","city":"河東郡士幌町","city_kana":"カトウグンシホロチョウ","town":"中士幌豊進","town_kana":"ナカシホロホウシン","prefecture_code":1},{"zip_code":"0801189","prefecture":"北海道","prefecture_kana":"ホッカイドウ","city":"河東郡士幌町","city_kana":"カトウグンシホロチョウ","town":"中士幌南","town_kana":"ナカシホロミナミ","prefecture_code":1},{"zip_code":"0801189","prefecture":"北海道","prefecture_kana":"ホッカイドウ","city":"河東郡士幌町","city_kana":"カトウグンシホロチョウ","town":"中士幌明生","town_kana":"ナカシホロメイセイ","prefecture_code":1}],"1267":{"zip_code":"0801267","prefecture":"北海道","prefecture_kana":"ホッカイドウ","city":"河東郡士幌町","city_kana":"カトウグンシホロチョウ","town":"共立","town_kana":"キョウリツ","prefecture_code":1},"1284":{"zip_code":"0801284","prefecture":"北海道","prefecture_kana":"ホッカイドウ","city":"河東郡士幌町","city_kana":"カトウグンシホロチョウ","town":"清澄","town_kana":"キヨズミ","prefecture_code":1},"1216":{"zip_code":"0801216","prefecture":"北海道","prefecture_kana":"ホッカイドウ","city":"河東郡士幌町","city_kana":"カトウグンシホロチョウ","town":"高徳","town_kana":"コウトク","prefecture_code":1},"1221":{"zip_code":"0801221","prefecture":"北海道","prefecture_kana":"ホッカイドウ","city":"河東郡士幌町","city_kana":"カトウグンシホロチョウ","town":"互譲","town_kana":"ゴジョウ","prefecture_code":1},"1275":{"zip_code":"0801275","prefecture":"北海道","prefecture_kana":"ホッカイドウ","city":"河東郡士幌町","city_kana":"カトウグンシホロチョウ","town":"コマクサ","town_kana":"コマクサ","prefecture_code":1},"1256":{"zip_code":"0801256","prefecture":"北海道","prefecture_kana":"ホッカイドウ","city":"河東郡士幌町","city_kana":"カトウグンシホロチョウ","town":"佐倉","town_kana":"サクラ","prefecture_code":1},"1253":{"zip_code":"0801253","prefecture":"北海道","prefecture_kana":"ホッカイドウ","city":"河東郡士幌町","city_kana":"カトウグンシホロチョウ","town":"士幌","town_kana":"シホロ","prefecture_code":1},"1246":{"zip_code":"0801246","prefecture":"北海道","prefecture_kana":"ホッカイドウ","city":"河東郡士幌町","city_kana":"カトウグンシホロチョウ","town":"士幌北一区","town_kana":"シホロキタ1ク","prefecture_code":1},"1254":{"zip_code":"0801254","prefecture":"北海道","prefecture_kana":"ホッカイドウ","city":"河東郡士幌町","city_kana":"カトウグンシホロチョウ","town":"士幌南旭区","town_kana":"シホロミナミアサヒク","prefecture_code":1},"1285":{"zip_code":"0801285","prefecture":"北海道","prefecture_kana":"ホッカイドウ","city":"河東郡士幌町","city_kana":"カトウグンシホロチョウ","town":"下居辺","town_kana":"シモオリベ","prefecture_code":1},"1265":{"zip_code":"0801265","prefecture":"北海道","prefecture_kana":"ホッカイドウ","city":"河東郡士幌町","city_kana":"カトウグンシホロチョウ","town":"新栄","town_kana":"シンエイ","prefecture_code":1},"1222":{"zip_code":"0801222","prefecture":"北海道","prefecture_kana":"ホッカイドウ","city":"河東郡士幌町","city_kana":"カトウグンシホロチョウ","town":"神苑","town_kana":"シンエン","prefecture_code":1},"1255":{"zip_code":"0801255","prefecture":"北海道","prefecture_kana":"ホッカイドウ","city":"河東郡士幌町","city_kana":"カトウグンシホロチョウ","town":"新光","town_kana":"シンコウ","prefecture_code":1},"1251":{"zip_code":"0801251","prefecture":"北海道","prefecture_kana":"ホッカイドウ","city":"河東郡士幌町","city_kana":"カトウグンシホロチョウ","town":"新盛","town_kana":"シンセイ","prefecture_code":1},"1213":{"zip_code":"0801213","prefecture":"北海道","prefecture_kana":"ホッカイドウ","city":"河東郡士幌町","city_kana":"カトウグンシホロチョウ","town":"新生","town_kana":"シンセイ","prefecture_code":1},"1283":{"zip_code":"0801283","prefecture":"北海道","prefecture_kana":"ホッカイドウ","city":"河東郡士幌町","city_kana":"カトウグンシホロチョウ","town":"高砂","town_kana":"タカサゴ","prefecture_code":1},"1227":{"zip_code":"0801227","prefecture":"北海道","prefecture_kana":"ホッカイドウ","city":"河東郡士幌町","city_kana":"カトウグンシホロチョウ","town":"中央","town_kana":"チュウオウ","prefecture_code":1},"1281":{"zip_code":"0801281","prefecture":"北海道","prefecture_kana":"ホッカイドウ","city":"河東郡士幌町","city_kana":"カトウグンシホロチョウ","town":"朝陽","town_kana":"チョウヨウ","prefecture_code":1},"1262":{"zip_code":"0801262","prefecture":"北海道","prefecture_kana":"ホッカイドウ","city":"河東郡士幌町","city_kana":"カトウグンシホロチョウ","town":"常盤","town_kana":"トキワ","prefecture_code":1},"1273":{"zip_code":"0801273","prefecture":"北海道","prefecture_kana":"ホッカイドウ","city":"河東郡士幌町","city_kana":"カトウグンシホロチョウ","town":"中音更","town_kana":"ナカオトフケ","prefecture_code":1},"1215":{"zip_code":"0801215","prefecture":"北海道","prefecture_kana":"ホッカイドウ","city":"河東郡士幌町","city_kana":"カトウグンシホロチョウ","town":"仲通","town_kana":"ナカドオリ","prefecture_code":1},"1243":{"zip_code":"0801243","prefecture":"北海道","prefecture_kana":"ホッカイドウ","city":"河東郡士幌町","city_kana":"カトウグンシホロチョウ","town":"西居辺","town_kana":"ニシオリベ","prefecture_code":1},"1241":{"zip_code":"0801241","prefecture":"北海道","prefecture_kana":"ホッカイドウ","city":"河東郡士幌町","city_kana":"カトウグンシホロチョウ","town":"西居辺北","town_kana":"ニシオリベキタ","prefecture_code":1},"1271":{"zip_code":"0801271","prefecture":"北海道","prefecture_kana":"ホッカイドウ","city":"河東郡士幌町","city_kana":"カトウグンシホロチョウ","town":"西上","town_kana":"ニシカミ","prefecture_code":1},"1261":{"zip_code":"0801261","prefecture":"北海道","prefecture_kana":"ホッカイドウ","city":"河東郡士幌町","city_kana":"カトウグンシホロチョウ","town":"西士幌","town_kana":"ニシシホロ","prefecture_code":1},"1264":{"zip_code":"0801264","prefecture":"北海道","prefecture_kana":"ホッカイドウ","city":"河東郡士幌町","city_kana":"カトウグンシホロチョウ","town":"西吉野","town_kana":"ニシヨシノ","prefecture_code":1},"1266":{"zip_code":"0801266","prefecture":"北海道","prefecture_kana":"ホッカイドウ","city":"河東郡士幌町","city_kana":"カトウグンシホロチョウ","town":"新田","town_kana":"ニツタ","prefecture_code":1},"1276":{"zip_code":"0801276","prefecture":"北海道","prefecture_kana":"ホッカイドウ","city":"河東郡士幌町","city_kana":"カトウグンシホロチョウ","town":"新田第一","town_kana":"ニッタダイイチ","prefecture_code":1},"1277":{"zip_code":"0801277","prefecture":"北海道","prefecture_kana":"ホッカイドウ","city":"河東郡士幌町","city_kana":"カトウグンシホロチョウ","town":"新田第二","town_kana":"ニッタダイニ","prefecture_code":1},"1224":{"zip_code":"0801224","prefecture":"北海道","prefecture_kana":"ホッカイドウ","city":"河東郡士幌町","city_kana":"カトウグンシホロチョウ","town":"柏葉","town_kana":"ハクヨウ","prefecture_code":1},"1272":{"zip_code":"0801272","prefecture":"北海道","prefecture_kana":"ホッカイドウ","city":"河東郡士幌町","city_kana":"カトウグンシホロチョウ","town":"百戸","town_kana":"ヒャッコ","prefecture_code":1},"1257":{"zip_code":"0801257","prefecture":"北海道","prefecture_kana":"ホッカイドウ","city":"河東郡士幌町","city_kana":"カトウグンシホロチョウ","town":"双葉","town_kana":"フタバ","prefecture_code":1},"1202":{"zip_code":"0801202","prefecture":"北海道","prefecture_kana":"ホッカイドウ","city":"河東郡士幌町","city_kana":"カトウグンシホロチョウ","town":"平原","town_kana":"ヘイゲン","prefecture_code":1},"1201":{"zip_code":"0801201","prefecture":"北海道","prefecture_kana":"ホッカイドウ","city":"河東郡士幌町","city_kana":"カトウグンシホロチョウ","town":"平原第一","town_kana":"ヘイゲンダイイチ","prefecture_code":1},"1247":{"zip_code":"0801247","prefecture":"北海道","prefecture_kana":"ホッカイドウ","city":"河東郡士幌町","city_kana":"カトウグンシホロチョウ","town":"平和","town_kana":"ヘイワ","prefecture_code":1},"1252":{"zip_code":"0801252","prefecture":"北海道","prefecture_kana":"ホッカイドウ","city":"河東郡士幌町","city_kana":"カトウグンシホロチョウ","town":"豊年","town_kana":"ホウネン","prefecture_code":1},"1287":{"zip_code":"0801287","prefecture":"北海道","prefecture_kana":"ホッカイドウ","city":"河東郡士幌町","city_kana":"カトウグンシホロチョウ","town":"北開","town_kana":"ホッカイ","prefecture_code":1},"1214":{"zip_code":"0801214","prefecture":"北海道","prefecture_kana":"ホッカイドウ","city":"河東郡士幌町","city_kana":"カトウグンシホロチョウ","town":"本通","town_kana":"ホンドオリ","prefecture_code":1},"1204":{"zip_code":"0801204","prefecture":"北海道","prefecture_kana":"ホッカイドウ","city":"河東郡士幌町","city_kana":"カトウグンシホロチョウ","town":"松並","town_kana":"マツナミ","prefecture_code":1},"1242":{"zip_code":"0801242","prefecture":"北海道","prefecture_kana":"ホッカイドウ","city":"河東郡士幌町","city_kana":"カトウグンシホロチョウ","town":"松室","town_kana":"マツムロ","prefecture_code":1},"1236":{"zip_code":"0801236","prefecture":"北海道","prefecture_kana":"ホッカイドウ","city":"河東郡士幌町","city_kana":"カトウグンシホロチョウ","town":"美園","town_kana":"ミソノ","prefecture_code":1},"1225":{"zip_code":"0801225","prefecture":"北海道","prefecture_kana":"ホッカイドウ","city":"河東郡士幌町","city_kana":"カトウグンシホロチョウ","town":"みどり","town_kana":"ミドリ","prefecture_code":1},"1234":{"zip_code":"0801234","prefecture":"北海道","prefecture_kana":"ホッカイドウ","city":"河東郡士幌町","city_kana":"カトウグンシホロチョウ","town":"南団地","town_kana":"ミナミダンチ","prefecture_code":1},"1231":{"zip_code":"0801231","prefecture":"北海道","prefecture_kana":"ホッカイドウ","city":"河東郡士幌町","city_kana":"カトウグンシホロチョウ","town":"睦","town_kana":"ムツミ","prefecture_code":1},"1232":{"zip_code":"0801232","prefecture":"北海道","prefecture_kana":"ホッカイドウ","city":"河東郡士幌町","city_kana":"カトウグンシホロチョウ","town":"睦西","town_kana":"ムツミニシ","prefecture_code":1},"1233":{"zip_code":"0801233","prefecture":"北海道","prefecture_kana":"ホッカイドウ","city":"河東郡士幌町","city_kana":"カトウグンシホロチョウ","town":"睦南","town_kana":"ムツミミナミ","prefecture_code":1},"1282":{"zip_code":"0801282","prefecture":"北海道","prefecture_kana":"ホッカイドウ","city":"河東郡士幌町","city_kana":"カトウグンシホロチョウ","town":"友愛","town_kana":"ユウアイ","prefecture_code":1},"1263":{"zip_code":"0801263","prefecture":"北海道","prefecture_kana":"ホッカイドウ","city":"河東郡士幌町","city_kana":"カトウグンシホロチョウ","town":"吉野","town_kana":"ヨシノ","prefecture_code":1},"1235":{"zip_code":"0801235","prefecture":"北海道","prefecture_kana":"ホッカイドウ","city":"河東郡士幌町","city_kana":"カトウグンシホロチョウ","town":"緑光","town_kana":"リョクコウ","prefecture_code":1},"1217":{"zip_code":"0801217","prefecture":"北海道","prefecture_kana":"ホッカイドウ","city":"河東郡士幌町","city_kana":"カトウグンシホロチョウ","town":"若葉","town_kana":"ワカバ","prefecture_code":1},"1211":{"zip_code":"0801211","prefecture":"北海道","prefecture_kana":"ホッカイドウ","city":"河東郡士幌町","city_kana":"カトウグンシホロチョウ","town":"若葉第一","town_kana":"ワカバダイイチ","prefecture_code":1},"1212":{"zip_code":"0801212","prefecture":"北海道","prefecture_kana":"ホッカイドウ","city":"河東郡士幌町","city_kana":"カトウグンシホロチョウ","town":"若葉東","town_kana":"ワカバヒガシ","prefecture_code":1},"1400":{"zip_code":"0801400","prefecture":"北海道","prefecture_kana":"ホッカイドウ","city":"河東郡上士幌町","city_kana":"カトウグンカミシホロチョウ","town":"","town_kana":"","prefecture_code":1},"1406":{"zip_code":"0801406","prefecture":"北海道","prefecture_kana":"ホッカイドウ","city":"河東郡上士幌町","city_kana":"カトウグンカミシホロチョウ","town":"居辺","town_kana":"オリベ","prefecture_code":1},"1407":{"zip_code":"0801407","prefecture":"北海道","prefecture_kana":"ホッカイドウ","city":"河東郡上士幌町","city_kana":"カトウグンカミシホロチョウ","town":"上音更","town_kana":"カミオトフケ","prefecture_code":1},"1408":{"zip_code":"0801408","prefecture":"北海道","prefecture_kana":"ホッカイドウ","city":"河東郡上士幌町","city_kana":"カトウグンカミシホロチョウ","town":"上士幌","town_kana":"カミシホロ","prefecture_code":1},"1404":{"zip_code":"0801404","prefecture":"北海道","prefecture_kana":"ホッカイドウ","city":"河東郡上士幌町","city_kana":"カトウグンカミシホロチョウ","town":"黒石平","town_kana":"クロイシダイラ","prefecture_code":1},"1405":{"zip_code":"0801405","prefecture":"北海道","prefecture_kana":"ホッカイドウ","city":"河東郡上士幌町","city_kana":"カトウグンカミシホロチョウ","town":"清水谷","town_kana":"シミズダニ","prefecture_code":1},"1403":{"zip_code":"0801403","prefecture":"北海道","prefecture_kana":"ホッカイドウ","city":"河東郡上士幌町","city_kana":"カトウグンカミシホロチョウ","town":"ぬかびら源泉郷","town_kana":"ヌカビラゲンセンキョウ","prefecture_code":1},"1402":{"zip_code":"0801402","prefecture":"北海道","prefecture_kana":"ホッカイドウ","city":"河東郡上士幌町","city_kana":"カトウグンカミシホロチョウ","town":"幌加","town_kana":"ホロカ","prefecture_code":1},"1401":{"zip_code":"0801401","prefecture":"北海道","prefecture_kana":"ホッカイドウ","city":"河東郡上士幌町","city_kana":"カトウグンカミシホロチョウ","town":"三股","town_kana":"ミツマタ","prefecture_code":1}}