{"0200":{"zip_code":"0810200","prefecture":"北海道","prefecture_kana":"ホッカイドウ","city":"河東郡鹿追町","city_kana":"カトウグンシカオイチョウ","town":"","town_kana":"","prefecture_code":1},"0212":{"zip_code":"0810212","prefecture":"北海道","prefecture_kana":"ホッカイドウ","city":"河東郡鹿追町","city_kana":"カトウグンシカオイチョウ","town":"泉町","town_kana":"イズミマチ","prefecture_code":1},"0342":{"zip_code":"0810342","prefecture":"北海道","prefecture_kana":"ホッカイドウ","city":"河東郡鹿追町","city_kana":"カトウグンシカオイチョウ","town":"瓜幕東","town_kana":"ウリマクヒガシ","prefecture_code":1},"0341":{"zip_code":"0810341","prefecture":"北海道","prefecture_kana":"ホッカイドウ","city":"河東郡鹿追町","city_kana":"カトウグンシカオイチョウ","town":"瓜幕西","town_kana":"ウリマクニシ","prefecture_code":1},"0343":{"zip_code":"0810343","prefecture":"北海道","prefecture_kana":"ホッカイドウ","city":"河東郡鹿追町","city_kana":"カトウグンシカオイチョウ","town":"瓜幕南","town_kana":"ウリマクミナミ","prefecture_code":1},"0225":{"zip_code":"0810225","prefecture":"北海道","prefecture_kana":"ホッカイドウ","city":"河東郡鹿追町","city_kana":"カトウグンシカオイチョウ","town":"柏ケ丘","town_kana":"カシワガオカ","prefecture_code":1},"0218":{"zip_code":"0810218","prefecture":"北海道","prefecture_kana":"ホッカイドウ","city":"河東郡鹿追町","city_kana":"カトウグンシカオイチョウ","town":"上然別西","town_kana":"カミシカリベツニシ","prefecture_code":1},"0226":{"zip_code":"0810226","prefecture":"北海道","prefecture_kana":"ホッカイドウ","city":"河東郡鹿追町","city_kana":"カトウグンシカオイチョウ","town":"上幌内","town_kana":"カミホロナイ","prefecture_code":1},"0344":{"zip_code":"0810344","prefecture":"北海道","prefecture_kana":"ホッカイドウ","city":"河東郡鹿追町","city_kana":"カトウグンシカオイチョウ","town":"北瓜幕","town_kana":"キタウリマク","prefecture_code":1},"0214":{"zip_code":"0810214","prefecture":"北海道","prefecture_kana":"ホッカイドウ","city":"河東郡鹿追町","city_kana":"カトウグンシカオイチョウ","town":"北鹿追北","town_kana":"キタシカオイキタ","prefecture_code":1},"0202":{"zip_code":"0810202","prefecture":"北海道","prefecture_kana":"ホッカイドウ","city":"河東郡鹿追町","city_kana":"カトウグンシカオイチョウ","town":"北町","town_kana":"キタマチ","prefecture_code":1},"0221":{"zip_code":"0810221","prefecture":"北海道","prefecture_kana":"ホッカイドウ","city":"河東郡鹿追町","city_kana":"カトウグンシカオイチョウ","town":"栄町","town_kana":"サカエマチ","prefecture_code":1},"0204":{"zip_code":"0810204","prefecture":"北海道","prefecture_kana":"ホッカイドウ","city":"河東郡鹿追町","city_kana":"カトウグンシカオイチョウ","town":"笹川北","town_kana":"ササガワキタ","prefecture_code":1},"0217":{"zip_code":"0810217","prefecture":"北海道","prefecture_kana":"ホッカイドウ","city":"河東郡鹿追町","city_kana":"カトウグンシカオイチョウ","town":"鹿追基線","town_kana":"シカオイキセン","prefecture_code":1},"0215":{"zip_code":"0810215","prefecture":"北海道","prefecture_kana":"ホッカイドウ","city":"河東郡鹿追町","city_kana":"カトウグンシカオイチョウ","town":"鹿追南","town_kana":"シカオイミナミ","prefecture_code":1},"0216":{"zip_code":"0810216","prefecture":"北海道","prefecture_kana":"ホッカイドウ","city":"河東郡鹿追町","city_kana":"カトウグンシカオイチョウ","town":"鹿追北","town_kana":"シカオイキタ","prefecture_code":1},"0201":{"zip_code":"0810201","prefecture":"北海道","prefecture_kana":"ホッカイドウ","city":"河東郡鹿追町","city_kana":"カトウグンシカオイチョウ","town":"新町","town_kana":"シンマチ","prefecture_code":1},"0345":{"zip_code":"0810345","prefecture":"北海道","prefecture_kana":"ホッカイドウ","city":"河東郡鹿追町","city_kana":"カトウグンシカオイチョウ","town":"中瓜幕西","town_kana":"ナカウリマクニシ","prefecture_code":1},"0211":{"zip_code":"0810211","prefecture":"北海道","prefecture_kana":"ホッカイドウ","city":"河東郡鹿追町","city_kana":"カトウグンシカオイチョウ","town":"仲町","town_kana":"ナカマチ","prefecture_code":1},"0205":{"zip_code":"0810205","prefecture":"北海道","prefecture_kana":"ホッカイドウ","city":"河東郡鹿追町","city_kana":"カトウグンシカオイチョウ","town":"西笹川","town_kana":"ニシササガワ","prefecture_code":1},"0213":{"zip_code":"0810213","prefecture":"北海道","prefecture_kana":"ホッカイドウ","city":"河東郡鹿追町","city_kana":"カトウグンシカオイチョウ","town":"西町","town_kana":"ニシマチ","prefecture_code":1},"0346":{"zip_code":"0810346","prefecture":"北海道","prefecture_kana":"ホッカイドウ","city":"河東郡鹿追町","city_kana":"カトウグンシカオイチョウ","town":"東瓜幕西","town_kana":"ヒガシウリマクニシ","prefecture_code":1},"0222":{"zip_code":"0810222","prefecture":"北海道","prefecture_kana":"ホッカイドウ","city":"河東郡鹿追町","city_kana":"カトウグンシカオイチョウ","town":"東町","town_kana":"ヒガシマチ","prefecture_code":1},"0228":{"zip_code":"0810228","prefecture":"北海道","prefecture_kana":"ホッカイドウ","city":"河東郡鹿追町","city_kana":"カトウグンシカオイチョウ","town":"美蔓西","town_kana":"ビマンニシ","prefecture_code":1},"0227":{"zip_code":"0810227","prefecture":"北海道","prefecture_kana":"ホッカイドウ","city":"河東郡鹿追町","city_kana":"カトウグンシカオイチョウ","town":"幌内西","town_kana":"ホロナイニシ","prefecture_code":1},"0203":{"zip_code":"0810203","prefecture":"北海道","prefecture_kana":"ホッカイドウ","city":"河東郡鹿追町","city_kana":"カトウグンシカオイチョウ","town":"緑町","town_kana":"ミドリマチ","prefecture_code":1},"0223":{"zip_code":"0810223","prefecture":"北海道","prefecture_kana":"ホッカイドウ","city":"河東郡鹿追町","city_kana":"カトウグンシカオイチョウ","town":"南町","town_kana":"ミナミマチ","prefecture_code":1},"0224":{"zip_code":"0810224","prefecture":"北海道","prefecture_kana":"ホッカイドウ","city":"河東郡鹿追町","city_kana":"カトウグンシカオイチョウ","town":"元町","town_kana":"モトマチ","prefecture_code":1},"0000":{"zip_code":"0810000","prefecture":"北海道","prefecture_kana":"ホッカイドウ","city":"上川郡新得町","city_kana":"カミカワグンシントクチョウ","town":"","town_kana":"","prefecture_code":1},"0035":{"zip_code":"0810035","prefecture":"北海道","prefecture_kana":"ホッカイドウ","city":"上川郡新得町","city_kana":"カミカワグンシントクチョウ","town":"上佐幌","town_kana":"カミサホロ","prefecture_code":1},"0154":{"zip_code":"0810154","prefecture":"北海道","prefecture_kana":"ホッカイドウ","city":"上川郡新得町","city_kana":"カミカワグンシントクチョウ","town":"屈足","town_kana":"クッタリ","prefecture_code":1},"0151":{"zip_code":"0810151","prefecture":"北海道","prefecture_kana":"ホッカイドウ","city":"上川郡新得町","city_kana":"カミカワグンシントクチョウ","town":"屈足旭町","town_kana":"クッタリアサヒマチ","prefecture_code":1},"0152":{"zip_code":"0810152","prefecture":"北海道","prefecture_kana":"ホッカイドウ","city":"上川郡新得町","city_kana":"カミカワグンシントクチョウ","town":"屈足旭町東","town_kana":"クッタリアサヒマチヒガシ","prefecture_code":1},"0161":{"zip_code":"0810161","prefecture":"北海道","prefecture_kana":"ホッカイドウ","city":"上川郡新得町","city_kana":"カミカワグンシントクチョウ","town":"屈足柏町","town_kana":"クッタリカシワマチ","prefecture_code":1},"0162":{"zip_code":"0810162","prefecture":"北海道","prefecture_kana":"ホッカイドウ","city":"上川郡新得町","city_kana":"カミカワグンシントクチョウ","town":"屈足柏町東","town_kana":"クッタリカシワマチヒガシ","prefecture_code":1},"0155":{"zip_code":"0810155","prefecture":"北海道","prefecture_kana":"ホッカイドウ","city":"上川郡新得町","city_kana":"カミカワグンシントクチョウ","town":"屈足幸町","town_kana":"クッタリサイワイマチ","prefecture_code":1},"0156":{"zip_code":"0810156","prefecture":"北海道","prefecture_kana":"ホッカイドウ","city":"上川郡新得町","city_kana":"カミカワグンシントクチョウ","town":"屈足幸町西","town_kana":"クッタリサイワイマチニシ","prefecture_code":1},"0163":{"zip_code":"0810163","prefecture":"北海道","prefecture_kana":"ホッカイドウ","city":"上川郡新得町","city_kana":"カミカワグンシントクチョウ","town":"屈足緑町","town_kana":"クッタリミドリマチ","prefecture_code":1},"0164":{"zip_code":"0810164","prefecture":"北海道","prefecture_kana":"ホッカイドウ","city":"上川郡新得町","city_kana":"カミカワグンシントクチョウ","town":"屈足緑町西","town_kana":"クッタリミドリマチニシ","prefecture_code":1},"0153":{"zip_code":"0810153","prefecture":"北海道","prefecture_kana":"ホッカイドウ","city":"上川郡新得町","city_kana":"カミカワグンシントクチョウ","town":"屈足南町","town_kana":"クッタリミナミマチ","prefecture_code":1},"0006":{"zip_code":"0810006","prefecture":"北海道","prefecture_kana":"ホッカイドウ","city":"上川郡新得町","city_kana":"カミカワグンシントクチョウ","town":"栄町","town_kana":"サカエマチ","prefecture_code":1},"0036":{"zip_code":"0810036","prefecture":"北海道","prefecture_kana":"ホッカイドウ","city":"上川郡新得町","city_kana":"カミカワグンシントクチョウ","town":"下佐幌","town_kana":"シモサホロ","prefecture_code":1},"0038":{"zip_code":"0810038","prefecture":"北海道","prefecture_kana":"ホッカイドウ","city":"上川郡新得町","city_kana":"カミカワグンシントクチョウ","town":"新得","town_kana":"シントク","prefecture_code":1},"0037":{"zip_code":"0810037","prefecture":"北海道","prefecture_kana":"ホッカイドウ","city":"上川郡新得町","city_kana":"カミカワグンシントクチョウ","town":"拓鉄","town_kana":"タクテツ","prefecture_code":1},"0039":{"zip_code":"0810039","prefecture":"北海道","prefecture_kana":"ホッカイドウ","city":"上川郡新得町","city_kana":"カミカワグンシントクチョウ","town":"新内","town_kana":"ニイナイ","prefecture_code":1},"0031":{"zip_code":"0810031","prefecture":"北海道","prefecture_kana":"ホッカイドウ","city":"上川郡新得町","city_kana":"カミカワグンシントクチョウ","town":"西一条南","town_kana":"ニシ1ジョウミナミ","prefecture_code":1},"0021":{"zip_code":"0810021","prefecture":"北海道","prefecture_kana":"ホッカイドウ","city":"上川郡新得町","city_kana":"カミカワグンシントクチョウ","town":"西一条北","town_kana":"ニシ1ジョウキタ","prefecture_code":1},"0032":{"zip_code":"0810032","prefecture":"北海道","prefecture_kana":"ホッカイドウ","city":"上川郡新得町","city_kana":"カミカワグンシントクチョウ","town":"西二条南","town_kana":"ニシ2ジョウミナミ","prefecture_code":1},"0022":{"zip_code":"0810022","prefecture":"北海道","prefecture_kana":"ホッカイドウ","city":"上川郡新得町","city_kana":"カミカワグンシントクチョウ","town":"西二条北","town_kana":"ニシ2ジョウキタ","prefecture_code":1},"0033":{"zip_code":"0810033","prefecture":"北海道","prefecture_kana":"ホッカイドウ","city":"上川郡新得町","city_kana":"カミカワグンシントクチョウ","town":"西三条南","town_kana":"ニシ3ジョウミナミ","prefecture_code":1},"0023":{"zip_code":"0810023","prefecture":"北海道","prefecture_kana":"ホッカイドウ","city":"上川郡新得町","city_kana":"カミカワグンシントクチョウ","town":"西三条北","town_kana":"ニシ3ジョウキタ","prefecture_code":1},"0034":{"zip_code":"0810034","prefecture":"北海道","prefecture_kana":"ホッカイドウ","city":"上川郡新得町","city_kana":"カミカワグンシントクチョウ","town":"西四条南","town_kana":"ニシ4ジョウミナミ","prefecture_code":1},"0008":{"zip_code":"0810008","prefecture":"北海道","prefecture_kana":"ホッカイドウ","city":"上川郡新得町","city_kana":"カミカワグンシントクチョウ","town":"本通南","town_kana":"ホンドオリミナミ","prefecture_code":1},"0005":{"zip_code":"0810005","prefecture":"北海道","prefecture_kana":"ホッカイドウ","city":"上川郡新得町","city_kana":"カミカワグンシントクチョウ","town":"本通北","town_kana":"ホンドオリキタ","prefecture_code":1},"0007":{"zip_code":"0810007","prefecture":"北海道","prefecture_kana":"ホッカイドウ","city":"上川郡新得町","city_kana":"カミカワグンシントクチョウ","town":"元町","town_kana":"モトマチ","prefecture_code":1},"0011":{"zip_code":"0810011","prefecture":"北海道","prefecture_kana":"ホッカイドウ","city":"上川郡新得町","city_kana":"カミカワグンシントクチョウ","town":"一条南","town_kana":"1ジョウミナミ","prefecture_code":1},"0001":{"zip_code":"0810001","prefecture":"北海道","prefecture_kana":"ホッカイドウ","city":"上川郡新得町","city_kana":"カミカワグンシントクチョウ","town":"一条北","town_kana":"1ジョウキタ","prefecture_code":1},"0012":{"zip_code":"0810012","prefecture":"北海道","prefecture_kana":"ホッカイドウ","city":"上川郡新得町","city_kana":"カミカワグンシントクチョウ","town":"二条南","town_kana":"2ジョウミナミ","prefecture_code":1},"0002":{"zip_code":"0810002","prefecture":"北海道","prefecture_kana":"ホッカイドウ","city":"上川郡新得町","city_kana":"カミカワグンシントクチョウ","town":"二条北","town_kana":"2ジョウキタ","prefecture_code":1},"0013":{"zip_code":"0810013","prefecture":"北海道","prefecture_kana":"ホッカイドウ","city":"上川郡新得町","city_kana":"カミカワグンシントクチョウ","town":"三条南","town_kana":"3ジョウミナミ","prefecture_code":1},"0003":{"zip_code":"0810003","prefecture":"北海道","prefecture_kana":"ホッカイドウ","city":"上川郡新得町","city_kana":"カミカワグンシントクチョウ","town":"三条北","town_kana":"3ジョウキタ","prefecture_code":1},"0014":{"zip_code":"0810014","prefecture":"北海道","prefecture_kana":"ホッカイドウ","city":"上川郡新得町","city_kana":"カミカワグンシントクチョウ","town":"四条南","town_kana":"4ジョウミナミ","prefecture_code":1},"0015":{"zip_code":"0810015","prefecture":"北海道","prefecture_kana":"ホッカイドウ","city":"上川郡新得町","city_kana":"カミカワグンシントクチョウ","town":"五条南","town_kana":"5ジョウミナミ","prefecture_code":1}}