{"0061":{"zip_code":"0860061","prefecture":"北海道","prefecture_kana":"ホッカイドウ","city":"根室市","city_kana":"ネムロシ","town":"明郷","town_kana":"アケサト","prefecture_code":1},"0064":{"zip_code":"0860064","prefecture":"北海道","prefecture_kana":"ホッカイドウ","city":"根室市","city_kana":"ネムロシ","town":"厚床","town_kana":"アットコ","prefecture_code":1},"0072":{"zip_code":"0860072","prefecture":"北海道","prefecture_kana":"ホッカイドウ","city":"根室市","city_kana":"ネムロシ","town":"川口","town_kana":"カワグチ","prefecture_code":1},"0062":{"zip_code":"0860062","prefecture":"北海道","prefecture_kana":"ホッカイドウ","city":"根室市","city_kana":"ネムロシ","town":"湖南","town_kana":"コナン","prefecture_code":1},"0074":{"zip_code":"0860074","prefecture":"北海道","prefecture_kana":"ホッカイドウ","city":"根室市","city_kana":"ネムロシ","town":"東梅","town_kana":"トウバイ","prefecture_code":1},"0065":{"zip_code":"0860065","prefecture":"北海道","prefecture_kana":"ホッカイドウ","city":"根室市","city_kana":"ネムロシ","town":"西厚床","town_kana":"ニシアットコ","prefecture_code":1},"0076":{"zip_code":"0860076","prefecture":"北海道","prefecture_kana":"ホッカイドウ","city":"根室市","city_kana":"ネムロシ","town":"初田牛","town_kana":"ハッタウシ","prefecture_code":1},"0063":{"zip_code":"0860063","prefecture":"北海道","prefecture_kana":"ホッカイドウ","city":"根室市","city_kana":"ネムロシ","town":"東厚床","town_kana":"ヒガシアットコ","prefecture_code":1},"0075":{"zip_code":"0860075","prefecture":"北海道","prefecture_kana":"ホッカイドウ","city":"根室市","city_kana":"ネムロシ","town":"別当賀","town_kana":"ベツトウガ","prefecture_code":1},"0071":{"zip_code":"0860071","prefecture":"北海道","prefecture_kana":"ホッカイドウ","city":"根室市","city_kana":"ネムロシ","town":"槍昔","town_kana":"ヤリムカシ","prefecture_code":1},"0073":{"zip_code":"0860073","prefecture":"北海道","prefecture_kana":"ホッカイドウ","city":"根室市","city_kana":"ネムロシ","town":"酪陽","town_kana":"ラクヨウ","prefecture_code":1},"0081":{"zip_code":"0860081","prefecture":"北海道","prefecture_kana":"ホッカイドウ","city":"厚岸郡浜中町","city_kana":"アッケシグンハマナカチョウ","town":"厚陽","town_kana":"コウヨウ","prefecture_code":1},"0200":{"zip_code":"0860200","prefecture":"北海道","prefecture_kana":"ホッカイドウ","city":"野付郡別海町","city_kana":"ノツケグンベツカイチョウ","town":"","town_kana":"","prefecture_code":1},"0213":{"zip_code":"0860213","prefecture":"北海道","prefecture_kana":"ホッカイドウ","city":"野付郡別海町","city_kana":"ノツケグンベツカイチョウ","town":"奥行","town_kana":"オクユキ","prefecture_code":1},"1641":{"zip_code":"0861641","prefecture":"北海道","prefecture_kana":"ホッカイドウ","city":"野付郡別海町","city_kana":"ノツケグンベツカイチョウ","town":"尾岱沼","town_kana":"オダイトウ","prefecture_code":1},"1644":{"zip_code":"0861644","prefecture":"北海道","prefecture_kana":"ホッカイドウ","city":"野付郡別海町","city_kana":"ノツケグンベツカイチョウ","town":"尾岱沼潮見町","town_kana":"オダイトウシオミチョウ","prefecture_code":1},"1642":{"zip_code":"0861642","prefecture":"北海道","prefecture_kana":"ホッカイドウ","city":"野付郡別海町","city_kana":"ノツケグンベツカイチョウ","town":"尾岱沼岬町","town_kana":"オダイトウミサキチョウ","prefecture_code":1},"1643":{"zip_code":"0861643","prefecture":"北海道","prefecture_kana":"ホッカイドウ","city":"野付郡別海町","city_kana":"ノツケグンベツカイチョウ","town":"尾岱沼港町","town_kana":"オダイトウミナトチョウ","prefecture_code":1},"0131":{"zip_code":"0860131","prefecture":"北海道","prefecture_kana":"ホッカイドウ","city":"野付郡別海町","city_kana":"ノツケグンベツカイチョウ","town":"上風連","town_kana":"カミフウレン","prefecture_code":1},"0655":{"zip_code":"0860655","prefecture":"北海道","prefecture_kana":"ホッカイドウ","city":"野付郡別海町","city_kana":"ノツケグンベツカイチョウ","town":"床丹","town_kana":"トコタン","prefecture_code":1},"0521":{"zip_code":"0860521","prefecture":"北海道","prefecture_kana":"ホッカイドウ","city":"野付郡別海町","city_kana":"ノツケグンベツカイチョウ","town":"床丹","town_kana":"トコタン","prefecture_code":1},"0657":{"zip_code":"0860657","prefecture":"北海道","prefecture_kana":"ホッカイドウ","city":"野付郡別海町","city_kana":"ノツケグンベツカイチョウ","town":"豊原","town_kana":"トヨハラ","prefecture_code":1},"0654":{"zip_code":"0860654","prefecture":"北海道","prefecture_kana":"ホッカイドウ","city":"野付郡別海町","city_kana":"ノツケグンベツカイチョウ","town":"中春別","town_kana":"ナカシュンベツ","prefecture_code":1},"0653":{"zip_code":"0860653","prefecture":"北海道","prefecture_kana":"ホッカイドウ","city":"野付郡別海町","city_kana":"ノツケグンベツカイチョウ","town":"中春別西町","town_kana":"ナカシュンベツニシチョウ","prefecture_code":1},"0651":{"zip_code":"0860651","prefecture":"北海道","prefecture_kana":"ホッカイドウ","city":"野付郡別海町","city_kana":"ノツケグンベツカイチョウ","town":"中春別東町","town_kana":"ナカシュンベツヒガシチョウ","prefecture_code":1},"0652":{"zip_code":"0860652","prefecture":"北海道","prefecture_kana":"ホッカイドウ","city":"野付郡別海町","city_kana":"ノツケグンベツカイチョウ","town":"中春別南町","town_kana":"ナカシュンベツミナミチョウ","prefecture_code":1},"0345":{"zip_code":"0860345","prefecture":"北海道","prefecture_kana":"ホッカイドウ","city":"野付郡別海町","city_kana":"ノツケグンベツカイチョウ","town":"中西別","town_kana":"ナカニシベツ","prefecture_code":1},"0342":{"zip_code":"0860342","prefecture":"北海道","prefecture_kana":"ホッカイドウ","city":"野付郡別海町","city_kana":"ノツケグンベツカイチョウ","town":"中西別朝日町","town_kana":"ナカニシベツアサヒチョウ","prefecture_code":1},"0343":{"zip_code":"0860343","prefecture":"北海道","prefecture_kana":"ホッカイドウ","city":"野付郡別海町","city_kana":"ノツケグンベツカイチョウ","town":"中西別光町","town_kana":"ナカニシベツヒカリチョウ","prefecture_code":1},"0344":{"zip_code":"0860344","prefecture":"北海道","prefecture_kana":"ホッカイドウ","city":"野付郡別海町","city_kana":"ノツケグンベツカイチョウ","town":"中西別本町","town_kana":"ナカニシベツホンチョウ","prefecture_code":1},"0341":{"zip_code":"0860341","prefecture":"北海道","prefecture_kana":"ホッカイドウ","city":"野付郡別海町","city_kana":"ノツケグンベツカイチョウ","town":"中西別緑町","town_kana":"ナカニシベツミドリチョウ","prefecture_code":1},"1645":{"zip_code":"0861645","prefecture":"北海道","prefecture_kana":"ホッカイドウ","city":"野付郡別海町","city_kana":"ノツケグンベツカイチョウ","town":"野付","town_kana":"ノッケ","prefecture_code":1},"0523":{"zip_code":"0860523","prefecture":"北海道","prefecture_kana":"ホッカイドウ","city":"野付郡別海町","city_kana":"ノツケグンベツカイチョウ","town":"走古丹","town_kana":"ハシリコタン","prefecture_code":1},"0216":{"zip_code":"0860216","prefecture":"北海道","prefecture_kana":"ホッカイドウ","city":"野付郡別海町","city_kana":"ノツケグンベツカイチョウ","town":"別海","town_kana":"ベツカイ","prefecture_code":1},"0202":{"zip_code":"0860202","prefecture":"北海道","prefecture_kana":"ホッカイドウ","city":"野付郡別海町","city_kana":"ノツケグンベツカイチョウ","town":"別海旭町","town_kana":"ベツカイアサヒチョウ","prefecture_code":1},"0215":{"zip_code":"0860215","prefecture":"北海道","prefecture_kana":"ホッカイドウ","city":"野付郡別海町","city_kana":"ノツケグンベツカイチョウ","town":"別海川上町","town_kana":"ベツカイカワカミチョウ","prefecture_code":1},"0211":{"zip_code":"0860211","prefecture":"北海道","prefecture_kana":"ホッカイドウ","city":"野付郡別海町","city_kana":"ノツケグンベツカイチョウ","town":"別海寿町","town_kana":"ベツカイコトブキチョウ","prefecture_code":1},"0204":{"zip_code":"0860204","prefecture":"北海道","prefecture_kana":"ホッカイドウ","city":"野付郡別海町","city_kana":"ノツケグンベツカイチョウ","town":"別海新栄町","town_kana":"ベツカイシンエイチョウ","prefecture_code":1},"0212":{"zip_code":"0860212","prefecture":"北海道","prefecture_kana":"ホッカイドウ","city":"野付郡別海町","city_kana":"ノツケグンベツカイチョウ","town":"別海鶴舞町","town_kana":"ベツカイツルマイチョウ","prefecture_code":1},"0205":{"zip_code":"0860205","prefecture":"北海道","prefecture_kana":"ホッカイドウ","city":"野付郡別海町","city_kana":"ノツケグンベツカイチョウ","town":"別海常盤町","town_kana":"ベツカイトキワチョウ","prefecture_code":1},"0203":{"zip_code":"0860203","prefecture":"北海道","prefecture_kana":"ホッカイドウ","city":"野付郡別海町","city_kana":"ノツケグンベツカイチョウ","town":"別海西本町","town_kana":"ベツカイニシホンチョウ","prefecture_code":1},"0214":{"zip_code":"0860214","prefecture":"北海道","prefecture_kana":"ホッカイドウ","city":"野付郡別海町","city_kana":"ノツケグンベツカイチョウ","town":"別海緑町","town_kana":"ベツカイミドリチョウ","prefecture_code":1},"0201":{"zip_code":"0860201","prefecture":"北海道","prefecture_kana":"ホッカイドウ","city":"野付郡別海町","city_kana":"ノツケグンベツカイチョウ","town":"別海宮舞町","town_kana":"ベツカイミヤマイチョウ","prefecture_code":1},"0522":{"zip_code":"0860522","prefecture":"北海道","prefecture_kana":"ホッカイドウ","city":"野付郡別海町","city_kana":"ノツケグンベツカイチョウ","town":"本別海","town_kana":"ホンベッカイ","prefecture_code":1},"0656":{"zip_code":"0860656","prefecture":"北海道","prefecture_kana":"ホッカイドウ","city":"野付郡別海町","city_kana":"ノツケグンベツカイチョウ","town":"美原","town_kana":"ミハラ","prefecture_code":1},"0346":{"zip_code":"0860346","prefecture":"北海道","prefecture_kana":"ホッカイドウ","city":"野付郡別海町","city_kana":"ノツケグンベツカイチョウ","town":"矢臼別","town_kana":"ヤウスベツ","prefecture_code":1},"1100":{"zip_code":"0861100","prefecture":"北海道","prefecture_kana":"ホッカイドウ","city":"標津郡中標津町","city_kana":"シベツグンナカシベツチョウ","town":"","town_kana":"","prefecture_code":1},"1159":{"zip_code":"0861159","prefecture":"北海道","prefecture_kana":"ホッカイドウ","city":"標津郡中標津町","city_kana":"シベツグンナカシベツチョウ","town":"青葉台","town_kana":"アオバダイ","prefecture_code":1},"1135":{"zip_code":"0861135","prefecture":"北海道","prefecture_kana":"ホッカイドウ","city":"標津郡中標津町","city_kana":"シベツグンナカシベツチョウ","town":"旭ケ丘","town_kana":"アサヒガオカ","prefecture_code":1},"1142":{"zip_code":"0861142","prefecture":"北海道","prefecture_kana":"ホッカイドウ","city":"標津郡中標津町","city_kana":"シベツグンナカシベツチョウ","town":"大通南","town_kana":"オオドオリミナミ","prefecture_code":1},"1141":{"zip_code":"0861141","prefecture":"北海道","prefecture_kana":"ホッカイドウ","city":"標津郡中標津町","city_kana":"シベツグンナカシベツチョウ","town":"大通北","town_kana":"オオドオリキタ","prefecture_code":1},"1272":{"zip_code":"0861272","prefecture":"北海道","prefecture_kana":"ホッカイドウ","city":"標津郡中標津町","city_kana":"シベツグンナカシベツチョウ","town":"開陽","town_kana":"カイヨウ","prefecture_code":1},"1151":{"zip_code":"0861151","prefecture":"北海道","prefecture_kana":"ホッカイドウ","city":"標津郡中標津町","city_kana":"シベツグンナカシベツチョウ","town":"川西","town_kana":"カワニシ","prefecture_code":1},"1145":{"zip_code":"0861145","prefecture":"北海道","prefecture_kana":"ホッカイドウ","city":"標津郡中標津町","city_kana":"シベツグンナカシベツチョウ","town":"北中","town_kana":"キタナカ","prefecture_code":1},"1152":{"zip_code":"0861152","prefecture":"北海道","prefecture_kana":"ホッカイドウ","city":"標津郡中標津町","city_kana":"シベツグンナカシベツチョウ","town":"北町","town_kana":"キタマチ","prefecture_code":1},"1147":{"zip_code":"0861147","prefecture":"北海道","prefecture_kana":"ホッカイドウ","city":"標津郡中標津町","city_kana":"シベツグンナカシベツチョウ","town":"共立","town_kana":"キョウリツ","prefecture_code":1},"1136":{"zip_code":"0861136","prefecture":"北海道","prefecture_kana":"ホッカイドウ","city":"標津郡中標津町","city_kana":"シベツグンナカシベツチョウ","town":"協和","town_kana":"キョウワ","prefecture_code":1},"1153":{"zip_code":"0861153","prefecture":"北海道","prefecture_kana":"ホッカイドウ","city":"標津郡中標津町","city_kana":"シベツグンナカシベツチョウ","town":"桜ケ丘","town_kana":"サクラガオカ","prefecture_code":1},"1137":{"zip_code":"0861137","prefecture":"北海道","prefecture_kana":"ホッカイドウ","city":"標津郡中標津町","city_kana":"シベツグンナカシベツチョウ","town":"俵橋","town_kana":"タワラバシ","prefecture_code":1},"1143":{"zip_code":"0861143","prefecture":"北海道","prefecture_kana":"ホッカイドウ","city":"標津郡中標津町","city_kana":"シベツグンナカシベツチョウ","town":"当幌本通","town_kana":"トウホロホンドオリ","prefecture_code":1},"1139":{"zip_code":"0861139","prefecture":"北海道","prefecture_kana":"ホッカイドウ","city":"標津郡中標津町","city_kana":"シベツグンナカシベツチョウ","town":"豊岡","town_kana":"トヨオカ","prefecture_code":1},"1156":{"zip_code":"0861156","prefecture":"北海道","prefecture_kana":"ホッカイドウ","city":"標津郡中標津町","city_kana":"シベツグンナカシベツチョウ","town":"並美ケ丘","town_kana":"ナラビガオカ","prefecture_code":1},"1157":{"zip_code":"0861157","prefecture":"北海道","prefecture_kana":"ホッカイドウ","city":"標津郡中標津町","city_kana":"シベツグンナカシベツチョウ","town":"西町","town_kana":"ニシマチ","prefecture_code":1},"1101":{"zip_code":"0861101","prefecture":"北海道","prefecture_kana":"ホッカイドウ","city":"標津郡中標津町","city_kana":"シベツグンナカシベツチョウ","town":"西一条南","town_kana":"ニシ1ジョウミナミ","prefecture_code":1},"1121":{"zip_code":"0861121","prefecture":"北海道","prefecture_kana":"ホッカイドウ","city":"標津郡中標津町","city_kana":"シベツグンナカシベツチョウ","town":"西一条北","town_kana":"ニシ1ジョウキタ","prefecture_code":1},"1102":{"zip_code":"0861102","prefecture":"北海道","prefecture_kana":"ホッカイドウ","city":"標津郡中標津町","city_kana":"シベツグンナカシベツチョウ","town":"西二条南","town_kana":"ニシ2ジョウミナミ","prefecture_code":1},"1122":{"zip_code":"0861122","prefecture":"北海道","prefecture_kana":"ホッカイドウ","city":"標津郡中標津町","city_kana":"シベツグンナカシベツチョウ","town":"西二条北","town_kana":"ニシ2ジョウキタ","prefecture_code":1},"1103":{"zip_code":"0861103","prefecture":"北海道","prefecture_kana":"ホッカイドウ","city":"標津郡中標津町","city_kana":"シベツグンナカシベツチョウ","town":"西三条南","town_kana":"ニシ3ジョウミナミ","prefecture_code":1},"1123":{"zip_code":"0861123","prefecture":"北海道","prefecture_kana":"ホッカイドウ","city":"標津郡中標津町","city_kana":"シベツグンナカシベツチョウ","town":"西三条北","town_kana":"ニシ3ジョウキタ","prefecture_code":1},"1104":{"zip_code":"0861104","prefecture":"北海道","prefecture_kana":"ホッカイドウ","city":"標津郡中標津町","city_kana":"シベツグンナカシベツチョウ","town":"西四条南","town_kana":"ニシ4ジョウミナミ","prefecture_code":1},"1124":{"zip_code":"0861124","prefecture":"北海道","prefecture_kana":"ホッカイドウ","city":"標津郡中標津町","city_kana":"シベツグンナカシベツチョウ","town":"西四条北","town_kana":"ニシ4ジョウキタ","prefecture_code":1},"1105":{"zip_code":"0861105","prefecture":"北海道","prefecture_kana":"ホッカイドウ","city":"標津郡中標津町","city_kana":"シベツグンナカシベツチョウ","town":"西五条南","town_kana":"ニシ5ジョウミナミ","prefecture_code":1},"1125":{"zip_code":"0861125","prefecture":"北海道","prefecture_kana":"ホッカイドウ","city":"標津郡中標津町","city_kana":"シベツグンナカシベツチョウ","town":"西五条北","town_kana":"ニシ5ジョウキタ","prefecture_code":1},"1106":{"zip_code":"0861106","prefecture":"北海道","prefecture_kana":"ホッカイドウ","city":"標津郡中標津町","city_kana":"シベツグンナカシベツチョウ","town":"西六条南","town_kana":"ニシ6ジョウミナミ","prefecture_code":1},"1126":{"zip_code":"0861126","prefecture":"北海道","prefecture_kana":"ホッカイドウ","city":"標津郡中標津町","city_kana":"シベツグンナカシベツチョウ","town":"西六条北","town_kana":"ニシ6ジョウキタ","prefecture_code":1},"1107":{"zip_code":"0861107","prefecture":"北海道","prefecture_kana":"ホッカイドウ","city":"標津郡中標津町","city_kana":"シベツグンナカシベツチョウ","town":"西七条南","town_kana":"ニシ7ジョウミナミ","prefecture_code":1},"1127":{"zip_code":"0861127","prefecture":"北海道","prefecture_kana":"ホッカイドウ","city":"標津郡中標津町","city_kana":"シベツグンナカシベツチョウ","town":"西七条北","town_kana":"ニシ7ジョウキタ","prefecture_code":1},"1108":{"zip_code":"0861108","prefecture":"北海道","prefecture_kana":"ホッカイドウ","city":"標津郡中標津町","city_kana":"シベツグンナカシベツチョウ","town":"西八条南","town_kana":"ニシ8ジョウミナミ","prefecture_code":1},"1128":{"zip_code":"0861128","prefecture":"北海道","prefecture_kana":"ホッカイドウ","city":"標津郡中標津町","city_kana":"シベツグンナカシベツチョウ","town":"西八条北","town_kana":"ニシ8ジョウキタ","prefecture_code":1},"1109":{"zip_code":"0861109","prefecture":"北海道","prefecture_kana":"ホッカイドウ","city":"標津郡中標津町","city_kana":"シベツグンナカシベツチョウ","town":"西九条南","town_kana":"ニシ9ジョウミナミ","prefecture_code":1},"1129":{"zip_code":"0861129","prefecture":"北海道","prefecture_kana":"ホッカイドウ","city":"標津郡中標津町","city_kana":"シベツグンナカシベツチョウ","town":"西九条北","town_kana":"ニシ9ジョウキタ","prefecture_code":1},"1110":{"zip_code":"0861110","prefecture":"北海道","prefecture_kana":"ホッカイドウ","city":"標津郡中標津町","city_kana":"シベツグンナカシベツチョウ","town":"西十条南","town_kana":"ニシ10ジョウミナミ","prefecture_code":1},"1130":{"zip_code":"0861130","prefecture":"北海道","prefecture_kana":"ホッカイドウ","city":"標津郡中標津町","city_kana":"シベツグンナカシベツチョウ","town":"西十条北","town_kana":"ニシ10ジョウキタ","prefecture_code":1},"1111":{"zip_code":"0861111","prefecture":"北海道","prefecture_kana":"ホッカイドウ","city":"標津郡中標津町","city_kana":"シベツグンナカシベツチョウ","town":"西十一条南","town_kana":"ニシ11ジョウミナミ","prefecture_code":1},"1131":{"zip_code":"0861131","prefecture":"北海道","prefecture_kana":"ホッカイドウ","city":"標津郡中標津町","city_kana":"シベツグンナカシベツチョウ","town":"西十一条北","town_kana":"ニシ11ジョウキタ","prefecture_code":1},"1112":{"zip_code":"0861112","prefecture":"北海道","prefecture_kana":"ホッカイドウ","city":"標津郡中標津町","city_kana":"シベツグンナカシベツチョウ","town":"西十二条南","town_kana":"ニシ12ジョウミナミ","prefecture_code":1},"1132":{"zip_code":"0861132","prefecture":"北海道","prefecture_kana":"ホッカイドウ","city":"標津郡中標津町","city_kana":"シベツグンナカシベツチョウ","town":"西十二条北","town_kana":"ニシ12ジョウキタ","prefecture_code":1},"1133":{"zip_code":"0861133","prefecture":"北海道","prefecture_kana":"ホッカイドウ","city":"標津郡中標津町","city_kana":"シベツグンナカシベツチョウ","town":"西十三条北","town_kana":"ニシ13ジョウキタ","prefecture_code":1},"1134":{"zip_code":"0861134","prefecture":"北海道","prefecture_kana":"ホッカイドウ","city":"標津郡中標津町","city_kana":"シベツグンナカシベツチョウ","town":"西十四条北","town_kana":"ニシ14ジョウキタ","prefecture_code":1},"1001":{"zip_code":"0861001","prefecture":"北海道","prefecture_kana":"ホッカイドウ","city":"標津郡中標津町","city_kana":"シベツグンナカシベツチョウ","town":"東一条南","town_kana":"ヒガシ1ジョウミナミ","prefecture_code":1},"1041":{"zip_code":"0861041","prefecture":"北海道","prefecture_kana":"ホッカイドウ","city":"標津郡中標津町","city_kana":"シベツグンナカシベツチョウ","town":"東一条北","town_kana":"ヒガシ1ジョウキタ","prefecture_code":1},"1002":{"zip_code":"0861002","prefecture":"北海道","prefecture_kana":"ホッカイドウ","city":"標津郡中標津町","city_kana":"シベツグンナカシベツチョウ","town":"東二条南","town_kana":"ヒガシ2ジョウミナミ","prefecture_code":1},"1042":{"zip_code":"0861042","prefecture":"北海道","prefecture_kana":"ホッカイドウ","city":"標津郡中標津町","city_kana":"シベツグンナカシベツチョウ","town":"東二条北","town_kana":"ヒガシ2ジョウキタ","prefecture_code":1},"1003":{"zip_code":"0861003","prefecture":"北海道","prefecture_kana":"ホッカイドウ","city":"標津郡中標津町","city_kana":"シベツグンナカシベツチョウ","town":"東三条南","town_kana":"ヒガシ3ジョウミナミ","prefecture_code":1},"1043":{"zip_code":"0861043","prefecture":"北海道","prefecture_kana":"ホッカイドウ","city":"標津郡中標津町","city_kana":"シベツグンナカシベツチョウ","town":"東三条北","town_kana":"ヒガシ3ジョウキタ","prefecture_code":1},"1004":{"zip_code":"0861004","prefecture":"北海道","prefecture_kana":"ホッカイドウ","city":"標津郡中標津町","city_kana":"シベツグンナカシベツチョウ","town":"東四条南","town_kana":"ヒガシ4ジョウミナミ","prefecture_code":1},"1044":{"zip_code":"0861044","prefecture":"北海道","prefecture_kana":"ホッカイドウ","city":"標津郡中標津町","city_kana":"シベツグンナカシベツチョウ","town":"東四条北","town_kana":"ヒガシ4ジョウキタ","prefecture_code":1},"1005":{"zip_code":"0861005","prefecture":"北海道","prefecture_kana":"ホッカイドウ","city":"標津郡中標津町","city_kana":"シベツグンナカシベツチョウ","town":"東五条南","town_kana":"ヒガシ5ジョウミナミ","prefecture_code":1},"1045":{"zip_code":"0861045","prefecture":"北海道","prefecture_kana":"ホッカイドウ","city":"標津郡中標津町","city_kana":"シベツグンナカシベツチョウ","town":"東五条北","town_kana":"ヒガシ5ジョウキタ","prefecture_code":1},"1006":{"zip_code":"0861006","prefecture":"北海道","prefecture_kana":"ホッカイドウ","city":"標津郡中標津町","city_kana":"シベツグンナカシベツチョウ","town":"東六条南","town_kana":"ヒガシ6ジョウミナミ","prefecture_code":1},"1046":{"zip_code":"0861046","prefecture":"北海道","prefecture_kana":"ホッカイドウ","city":"標津郡中標津町","city_kana":"シベツグンナカシベツチョウ","town":"東六条北","town_kana":"ヒガシ6ジョウキタ","prefecture_code":1},"1007":{"zip_code":"0861007","prefecture":"北海道","prefecture_kana":"ホッカイドウ","city":"標津郡中標津町","city_kana":"シベツグンナカシベツチョウ","town":"東七条南","town_kana":"ヒガシ7ジョウミナミ","prefecture_code":1},"1047":{"zip_code":"0861047","prefecture":"北海道","prefecture_kana":"ホッカイドウ","city":"標津郡中標津町","city_kana":"シベツグンナカシベツチョウ","town":"東七条北","town_kana":"ヒガシ7ジョウキタ","prefecture_code":1},"1008":{"zip_code":"0861008","prefecture":"北海道","prefecture_kana":"ホッカイドウ","city":"標津郡中標津町","city_kana":"シベツグンナカシベツチョウ","town":"東八条南","town_kana":"ヒガシ8ジョウミナミ","prefecture_code":1},"1048":{"zip_code":"0861048","prefecture":"北海道","prefecture_kana":"ホッカイドウ","city":"標津郡中標津町","city_kana":"シベツグンナカシベツチョウ","town":"東八条北","town_kana":"ヒガシ8ジョウキタ","prefecture_code":1},"1009":{"zip_code":"0861009","prefecture":"北海道","prefecture_kana":"ホッカイドウ","city":"標津郡中標津町","city_kana":"シベツグンナカシベツチョウ","town":"東九条南","town_kana":"ヒガシ9ジョウミナミ","prefecture_code":1},"1049":{"zip_code":"0861049","prefecture":"北海道","prefecture_kana":"ホッカイドウ","city":"標津郡中標津町","city_kana":"シベツグンナカシベツチョウ","town":"東九条北","town_kana":"ヒガシ9ジョウキタ","prefecture_code":1},"1010":{"zip_code":"0861010","prefecture":"北海道","prefecture_kana":"ホッカイドウ","city":"標津郡中標津町","city_kana":"シベツグンナカシベツチョウ","town":"東十条南","town_kana":"ヒガシ10ジョウミナミ","prefecture_code":1},"1050":{"zip_code":"0861050","prefecture":"北海道","prefecture_kana":"ホッカイドウ","city":"標津郡中標津町","city_kana":"シベツグンナカシベツチョウ","town":"東十条北","town_kana":"ヒガシ10ジョウキタ","prefecture_code":1},"1011":{"zip_code":"0861011","prefecture":"北海道","prefecture_kana":"ホッカイドウ","city":"標津郡中標津町","city_kana":"シベツグンナカシベツチョウ","town":"東十一条南","town_kana":"ヒガシ11ジョウミナミ","prefecture_code":1},"1051":{"zip_code":"0861051","prefecture":"北海道","prefecture_kana":"ホッカイドウ","city":"標津郡中標津町","city_kana":"シベツグンナカシベツチョウ","town":"東十一条北","town_kana":"ヒガシ11ジョウキタ","prefecture_code":1},"1012":{"zip_code":"0861012","prefecture":"北海道","prefecture_kana":"ホッカイドウ","city":"標津郡中標津町","city_kana":"シベツグンナカシベツチョウ","town":"東十二条南","town_kana":"ヒガシ12ジョウミナミ","prefecture_code":1},"1052":{"zip_code":"0861052","prefecture":"北海道","prefecture_kana":"ホッカイドウ","city":"標津郡中標津町","city_kana":"シベツグンナカシベツチョウ","town":"東十二条北","town_kana":"ヒガシ12ジョウキタ","prefecture_code":1},"1013":{"zip_code":"0861013","prefecture":"北海道","prefecture_kana":"ホッカイドウ","city":"標津郡中標津町","city_kana":"シベツグンナカシベツチョウ","town":"東十三条南","town_kana":"ヒガシ13ジョウミナミ","prefecture_code":1},"1053":{"zip_code":"0861053","prefecture":"北海道","prefecture_kana":"ホッカイドウ","city":"標津郡中標津町","city_kana":"シベツグンナカシベツチョウ","town":"東十三条北","town_kana":"ヒガシ13ジョウキタ","prefecture_code":1},"1014":{"zip_code":"0861014","prefecture":"北海道","prefecture_kana":"ホッカイドウ","city":"標津郡中標津町","city_kana":"シベツグンナカシベツチョウ","town":"東十四条南","town_kana":"ヒガシ14ジョウミナミ","prefecture_code":1},"1054":{"zip_code":"0861054","prefecture":"北海道","prefecture_kana":"ホッカイドウ","city":"標津郡中標津町","city_kana":"シベツグンナカシベツチョウ","town":"東十四条北","town_kana":"ヒガシ14ジョウキタ","prefecture_code":1},"1015":{"zip_code":"0861015","prefecture":"北海道","prefecture_kana":"ホッカイドウ","city":"標津郡中標津町","city_kana":"シベツグンナカシベツチョウ","town":"東十五条南","town_kana":"ヒガシ15ジョウミナミ","prefecture_code":1},"1055":{"zip_code":"0861055","prefecture":"北海道","prefecture_kana":"ホッカイドウ","city":"標津郡中標津町","city_kana":"シベツグンナカシベツチョウ","town":"東十五条北","town_kana":"ヒガシ15ジョウキタ","prefecture_code":1},"1016":{"zip_code":"0861016","prefecture":"北海道","prefecture_kana":"ホッカイドウ","city":"標津郡中標津町","city_kana":"シベツグンナカシベツチョウ","town":"東十六条南","town_kana":"ヒガシ16ジョウミナミ","prefecture_code":1},"1056":{"zip_code":"0861056","prefecture":"北海道","prefecture_kana":"ホッカイドウ","city":"標津郡中標津町","city_kana":"シベツグンナカシベツチョウ","town":"東十六条北","town_kana":"ヒガシ16ジョウキタ","prefecture_code":1},"1017":{"zip_code":"0861017","prefecture":"北海道","prefecture_kana":"ホッカイドウ","city":"標津郡中標津町","city_kana":"シベツグンナカシベツチョウ","town":"東十七条南","town_kana":"ヒガシ17ジョウミナミ","prefecture_code":1},"1057":{"zip_code":"0861057","prefecture":"北海道","prefecture_kana":"ホッカイドウ","city":"標津郡中標津町","city_kana":"シベツグンナカシベツチョウ","town":"東十七条北","town_kana":"ヒガシ17ジョウキタ","prefecture_code":1},"1018":{"zip_code":"0861018","prefecture":"北海道","prefecture_kana":"ホッカイドウ","city":"標津郡中標津町","city_kana":"シベツグンナカシベツチョウ","town":"東十八条南","town_kana":"ヒガシ18ジョウミナミ","prefecture_code":1},"1058":{"zip_code":"0861058","prefecture":"北海道","prefecture_kana":"ホッカイドウ","city":"標津郡中標津町","city_kana":"シベツグンナカシベツチョウ","town":"東十八条北","town_kana":"ヒガシ18ジョウキタ","prefecture_code":1},"1019":{"zip_code":"0861019","prefecture":"北海道","prefecture_kana":"ホッカイドウ","city":"標津郡中標津町","city_kana":"シベツグンナカシベツチョウ","town":"東十九条南","town_kana":"ヒガシ19ジョウミナミ","prefecture_code":1},"1059":{"zip_code":"0861059","prefecture":"北海道","prefecture_kana":"ホッカイドウ","city":"標津郡中標津町","city_kana":"シベツグンナカシベツチョウ","town":"東十九条北","town_kana":"ヒガシ19ジョウキタ","prefecture_code":1},"1020":{"zip_code":"0861020","prefecture":"北海道","prefecture_kana":"ホッカイドウ","city":"標津郡中標津町","city_kana":"シベツグンナカシベツチョウ","town":"東二十条南","town_kana":"ヒガシ20ジョウミナミ","prefecture_code":1},"1060":{"zip_code":"0861060","prefecture":"北海道","prefecture_kana":"ホッカイドウ","city":"標津郡中標津町","city_kana":"シベツグンナカシベツチョウ","town":"東二十条北","town_kana":"ヒガシ20ジョウキタ","prefecture_code":1},"1021":{"zip_code":"0861021","prefecture":"北海道","prefecture_kana":"ホッカイドウ","city":"標津郡中標津町","city_kana":"シベツグンナカシベツチョウ","town":"東二十一条南","town_kana":"ヒガシ21ジョウミナミ","prefecture_code":1},"1061":{"zip_code":"0861061","prefecture":"北海道","prefecture_kana":"ホッカイドウ","city":"標津郡中標津町","city_kana":"シベツグンナカシベツチョウ","town":"東二十一条北","town_kana":"ヒガシ21ジョウキタ","prefecture_code":1},"1022":{"zip_code":"0861022","prefecture":"北海道","prefecture_kana":"ホッカイドウ","city":"標津郡中標津町","city_kana":"シベツグンナカシベツチョウ","town":"東二十二条南","town_kana":"ヒガシ22ジョウミナミ","prefecture_code":1},"1062":{"zip_code":"0861062","prefecture":"北海道","prefecture_kana":"ホッカイドウ","city":"標津郡中標津町","city_kana":"シベツグンナカシベツチョウ","town":"東二十二条北","town_kana":"ヒガシ22ジョウキタ","prefecture_code":1},"1023":{"zip_code":"0861023","prefecture":"北海道","prefecture_kana":"ホッカイドウ","city":"標津郡中標津町","city_kana":"シベツグンナカシベツチョウ","town":"東二十三条南","town_kana":"ヒガシ23ジョウミナミ","prefecture_code":1},"1063":{"zip_code":"0861063","prefecture":"北海道","prefecture_kana":"ホッカイドウ","city":"標津郡中標津町","city_kana":"シベツグンナカシベツチョウ","town":"東二十三条北","town_kana":"ヒガシ23ジョウキタ","prefecture_code":1},"1024":{"zip_code":"0861024","prefecture":"北海道","prefecture_kana":"ホッカイドウ","city":"標津郡中標津町","city_kana":"シベツグンナカシベツチョウ","town":"東二十四条南","town_kana":"ヒガシ24ジョウミナミ","prefecture_code":1},"1064":{"zip_code":"0861064","prefecture":"北海道","prefecture_kana":"ホッカイドウ","city":"標津郡中標津町","city_kana":"シベツグンナカシベツチョウ","town":"東二十四条北","town_kana":"ヒガシ24ジョウキタ","prefecture_code":1},"1025":{"zip_code":"0861025","prefecture":"北海道","prefecture_kana":"ホッカイドウ","city":"標津郡中標津町","city_kana":"シベツグンナカシベツチョウ","town":"東二十五条南","town_kana":"ヒガシ25ジョウミナミ","prefecture_code":1},"1065":{"zip_code":"0861065","prefecture":"北海道","prefecture_kana":"ホッカイドウ","city":"標津郡中標津町","city_kana":"シベツグンナカシベツチョウ","town":"東二十五条北","town_kana":"ヒガシ25ジョウキタ","prefecture_code":1},"1026":{"zip_code":"0861026","prefecture":"北海道","prefecture_kana":"ホッカイドウ","city":"標津郡中標津町","city_kana":"シベツグンナカシベツチョウ","town":"東二十六条南","town_kana":"ヒガシ26ジョウミナミ","prefecture_code":1},"1066":{"zip_code":"0861066","prefecture":"北海道","prefecture_kana":"ホッカイドウ","city":"標津郡中標津町","city_kana":"シベツグンナカシベツチョウ","town":"東二十六条北","town_kana":"ヒガシ26ジョウキタ","prefecture_code":1},"1027":{"zip_code":"0861027","prefecture":"北海道","prefecture_kana":"ホッカイドウ","city":"標津郡中標津町","city_kana":"シベツグンナカシベツチョウ","town":"東二十七条南","town_kana":"ヒガシ27ジョウミナミ","prefecture_code":1},"1067":{"zip_code":"0861067","prefecture":"北海道","prefecture_kana":"ホッカイドウ","city":"標津郡中標津町","city_kana":"シベツグンナカシベツチョウ","town":"東二十七条北","town_kana":"ヒガシ27ジョウキタ","prefecture_code":1},"1028":{"zip_code":"0861028","prefecture":"北海道","prefecture_kana":"ホッカイドウ","city":"標津郡中標津町","city_kana":"シベツグンナカシベツチョウ","town":"東二十八条南","town_kana":"ヒガシ28ジョウミナミ","prefecture_code":1},"1068":{"zip_code":"0861068","prefecture":"北海道","prefecture_kana":"ホッカイドウ","city":"標津郡中標津町","city_kana":"シベツグンナカシベツチョウ","town":"東二十八条北","town_kana":"ヒガシ28ジョウキタ","prefecture_code":1},"1029":{"zip_code":"0861029","prefecture":"北海道","prefecture_kana":"ホッカイドウ","city":"標津郡中標津町","city_kana":"シベツグンナカシベツチョウ","town":"東二十九条南","town_kana":"ヒガシ29ジョウミナミ","prefecture_code":1},"1069":{"zip_code":"0861069","prefecture":"北海道","prefecture_kana":"ホッカイドウ","city":"標津郡中標津町","city_kana":"シベツグンナカシベツチョウ","town":"東二十九条北","town_kana":"ヒガシ29ジョウキタ","prefecture_code":1},"1030":{"zip_code":"0861030","prefecture":"北海道","prefecture_kana":"ホッカイドウ","city":"標津郡中標津町","city_kana":"シベツグンナカシベツチョウ","town":"東三十条南","town_kana":"ヒガシ30ジョウミナミ","prefecture_code":1},"1070":{"zip_code":"0861070","prefecture":"北海道","prefecture_kana":"ホッカイドウ","city":"標津郡中標津町","city_kana":"シベツグンナカシベツチョウ","town":"東三十条北","town_kana":"ヒガシ30ジョウキタ","prefecture_code":1},"1031":{"zip_code":"0861031","prefecture":"北海道","prefecture_kana":"ホッカイドウ","city":"標津郡中標津町","city_kana":"シベツグンナカシベツチョウ","town":"東三十一条南","town_kana":"ヒガシ31ジョウミナミ","prefecture_code":1},"1071":{"zip_code":"0861071","prefecture":"北海道","prefecture_kana":"ホッカイドウ","city":"標津郡中標津町","city_kana":"シベツグンナカシベツチョウ","town":"東三十一条北","town_kana":"ヒガシ31ジョウキタ","prefecture_code":1},"1032":{"zip_code":"0861032","prefecture":"北海道","prefecture_kana":"ホッカイドウ","city":"標津郡中標津町","city_kana":"シベツグンナカシベツチョウ","town":"東三十二条南","town_kana":"ヒガシ32ジョウミナミ","prefecture_code":1},"1072":{"zip_code":"0861072","prefecture":"北海道","prefecture_kana":"ホッカイドウ","city":"標津郡中標津町","city_kana":"シベツグンナカシベツチョウ","town":"東三十二条北","town_kana":"ヒガシ32ジョウキタ","prefecture_code":1},"1033":{"zip_code":"0861033","prefecture":"北海道","prefecture_kana":"ホッカイドウ","city":"標津郡中標津町","city_kana":"シベツグンナカシベツチョウ","town":"東三十三条南","town_kana":"ヒガシ33ジョウミナミ","prefecture_code":1},"1073":{"zip_code":"0861073","prefecture":"北海道","prefecture_kana":"ホッカイドウ","city":"標津郡中標津町","city_kana":"シベツグンナカシベツチョウ","town":"東三十三条北","town_kana":"ヒガシ33ジョウキタ","prefecture_code":1},"1034":{"zip_code":"0861034","prefecture":"北海道","prefecture_kana":"ホッカイドウ","city":"標津郡中標津町","city_kana":"シベツグンナカシベツチョウ","town":"東三十四条南","town_kana":"ヒガシ34ジョウミナミ","prefecture_code":1},"1074":{"zip_code":"0861074","prefecture":"北海道","prefecture_kana":"ホッカイドウ","city":"標津郡中標津町","city_kana":"シベツグンナカシベツチョウ","town":"東三十四条北","town_kana":"ヒガシ34ジョウキタ","prefecture_code":1},"1035":{"zip_code":"0861035","prefecture":"北海道","prefecture_kana":"ホッカイドウ","city":"標津郡中標津町","city_kana":"シベツグンナカシベツチョウ","town":"東三十五条南","town_kana":"ヒガシ35ジョウミナミ","prefecture_code":1},"1075":{"zip_code":"0861075","prefecture":"北海道","prefecture_kana":"ホッカイドウ","city":"標津郡中標津町","city_kana":"シベツグンナカシベツチョウ","town":"東三十五条北","town_kana":"ヒガシ35ジョウキタ","prefecture_code":1},"1036":{"zip_code":"0861036","prefecture":"北海道","prefecture_kana":"ホッカイドウ","city":"標津郡中標津町","city_kana":"シベツグンナカシベツチョウ","town":"東三十六条南","town_kana":"ヒガシ36ジョウミナミ","prefecture_code":1},"1076":{"zip_code":"0861076","prefecture":"北海道","prefecture_kana":"ホッカイドウ","city":"標津郡中標津町","city_kana":"シベツグンナカシベツチョウ","town":"東三十六条北","town_kana":"ヒガシ36ジョウキタ","prefecture_code":1},"1037":{"zip_code":"0861037","prefecture":"北海道","prefecture_kana":"ホッカイドウ","city":"標津郡中標津町","city_kana":"シベツグンナカシベツチョウ","town":"東三十七条南","town_kana":"ヒガシ37ジョウミナミ","prefecture_code":1},"1077":{"zip_code":"0861077","prefecture":"北海道","prefecture_kana":"ホッカイドウ","city":"標津郡中標津町","city_kana":"シベツグンナカシベツチョウ","town":"東三十七条北","town_kana":"ヒガシ37ジョウキタ","prefecture_code":1},"1038":{"zip_code":"0861038","prefecture":"北海道","prefecture_kana":"ホッカイドウ","city":"標津郡中標津町","city_kana":"シベツグンナカシベツチョウ","town":"東三十八条南","town_kana":"ヒガシ38ジョウミナミ","prefecture_code":1},"1078":{"zip_code":"0861078","prefecture":"北海道","prefecture_kana":"ホッカイドウ","city":"標津郡中標津町","city_kana":"シベツグンナカシベツチョウ","town":"東三十八条北","town_kana":"ヒガシ38ジョウキタ","prefecture_code":1},"1039":{"zip_code":"0861039","prefecture":"北海道","prefecture_kana":"ホッカイドウ","city":"標津郡中標津町","city_kana":"シベツグンナカシベツチョウ","town":"東三十九条南","town_kana":"ヒガシ39ジョウミナミ","prefecture_code":1},"1079":{"zip_code":"0861079","prefecture":"北海道","prefecture_kana":"ホッカイドウ","city":"標津郡中標津町","city_kana":"シベツグンナカシベツチョウ","town":"東三十九条北","town_kana":"ヒガシ39ジョウキタ","prefecture_code":1},"1080":{"zip_code":"0861080","prefecture":"北海道","prefecture_kana":"ホッカイドウ","city":"標津郡中標津町","city_kana":"シベツグンナカシベツチョウ","town":"東四十条北","town_kana":"ヒガシ40ジョウキタ","prefecture_code":1},"1081":{"zip_code":"0861081","prefecture":"北海道","prefecture_kana":"ホッカイドウ","city":"標津郡中標津町","city_kana":"シベツグンナカシベツチョウ","town":"東四十一条北","town_kana":"ヒガシ41ジョウキタ","prefecture_code":1},"1082":{"zip_code":"0861082","prefecture":"北海道","prefecture_kana":"ホッカイドウ","city":"標津郡中標津町","city_kana":"シベツグンナカシベツチョウ","town":"東四十二条北","town_kana":"ヒガシ42ジョウキタ","prefecture_code":1},"1144":{"zip_code":"0861144","prefecture":"北海道","prefecture_kana":"ホッカイドウ","city":"標津郡中標津町","city_kana":"シベツグンナカシベツチョウ","town":"東当幌","town_kana":"ヒガシトウホロ","prefecture_code":1},"1083":{"zip_code":"0861083","prefecture":"北海道","prefecture_kana":"ホッカイドウ","city":"標津郡中標津町","city_kana":"シベツグンナカシベツチョウ","town":"東中","town_kana":"ヒガシナカ","prefecture_code":1},"1163":{"zip_code":"0861163","prefecture":"北海道","prefecture_kana":"ホッカイドウ","city":"標津郡中標津町","city_kana":"シベツグンナカシベツチョウ","town":"俵中","town_kana":"ヒョウチュウ","prefecture_code":1},"1273":{"zip_code":"0861273","prefecture":"北海道","prefecture_kana":"ホッカイドウ","city":"標津郡中標津町","city_kana":"シベツグンナカシベツチョウ","town":"俣落","town_kana":"マタオチ","prefecture_code":1},"1164":{"zip_code":"0861164","prefecture":"北海道","prefecture_kana":"ホッカイドウ","city":"標津郡中標津町","city_kana":"シベツグンナカシベツチョウ","town":"丸山","town_kana":"マルヤマ","prefecture_code":1},"1148":{"zip_code":"0861148","prefecture":"北海道","prefecture_kana":"ホッカイドウ","city":"標津郡中標津町","city_kana":"シベツグンナカシベツチョウ","town":"緑ケ丘","town_kana":"ミドリガオカ","prefecture_code":1},"1166":{"zip_code":"0861166","prefecture":"北海道","prefecture_kana":"ホッカイドウ","city":"標津郡中標津町","city_kana":"シベツグンナカシベツチョウ","town":"緑町南","town_kana":"ミドリマチミナミ","prefecture_code":1},"1165":{"zip_code":"0861165","prefecture":"北海道","prefecture_kana":"ホッカイドウ","city":"標津郡中標津町","city_kana":"シベツグンナカシベツチョウ","town":"緑町北","town_kana":"ミドリマチキタ","prefecture_code":1},"1150":{"zip_code":"0861150","prefecture":"北海道","prefecture_kana":"ホッカイドウ","city":"標津郡中標津町","city_kana":"シベツグンナカシベツチョウ","town":"南中","town_kana":"ミナミナカ","prefecture_code":1},"1146":{"zip_code":"0861146","prefecture":"北海道","prefecture_kana":"ホッカイドウ","city":"標津郡中標津町","city_kana":"シベツグンナカシベツチョウ","town":"南町","town_kana":"ミナミマチ","prefecture_code":1},"1271":{"zip_code":"0861271","prefecture":"北海道","prefecture_kana":"ホッカイドウ","city":"標津郡中標津町","city_kana":"シベツグンナカシベツチョウ","town":"武佐","town_kana":"ムサ","prefecture_code":1},"1160":{"zip_code":"0861160","prefecture":"北海道","prefecture_kana":"ホッカイドウ","city":"標津郡中標津町","city_kana":"シベツグンナカシベツチョウ","town":"りんどう町","town_kana":"リンドウチョウ","prefecture_code":1},"1600":{"zip_code":"0861600","prefecture":"北海道","prefecture_kana":"ホッカイドウ","city":"標津郡標津町","city_kana":"シベツグンシベツチョウ","town":"","town_kana":"","prefecture_code":1},"1602":{"zip_code":"0861602","prefecture":"北海道","prefecture_kana":"ホッカイドウ","city":"標津郡標津町","city_kana":"シベツグンシベツチョウ","town":"伊茶仁","town_kana":"イチャニ","prefecture_code":1},"1451":{"zip_code":"0861451","prefecture":"北海道","prefecture_kana":"ホッカイドウ","city":"標津郡標津町","city_kana":"シベツグンシベツチョウ","town":"川北","town_kana":"カワキタ","prefecture_code":1},"1631":{"zip_code":"0861631","prefecture":"北海道","prefecture_kana":"ホッカイドウ","city":"標津郡標津町","city_kana":"シベツグンシベツチョウ","town":"北一条","town_kana":"キタ1ジョウ","prefecture_code":1},"1632":{"zip_code":"0861632","prefecture":"北海道","prefecture_kana":"ホッカイドウ","city":"標津郡標津町","city_kana":"シベツグンシベツチョウ","town":"北二条","town_kana":"キタ2ジョウ","prefecture_code":1},"1633":{"zip_code":"0861633","prefecture":"北海道","prefecture_kana":"ホッカイドウ","city":"標津郡標津町","city_kana":"シベツグンシベツチョウ","town":"北三条","town_kana":"キタ3ジョウ","prefecture_code":1},"1634":{"zip_code":"0861634","prefecture":"北海道","prefecture_kana":"ホッカイドウ","city":"標津郡標津町","city_kana":"シベツグンシベツチョウ","town":"北四条","town_kana":"キタ4ジョウ","prefecture_code":1},"1635":{"zip_code":"0861635","prefecture":"北海道","prefecture_kana":"ホッカイドウ","city":"標津郡標津町","city_kana":"シベツグンシベツチョウ","town":"北五条","town_kana":"キタ5ジョウ","prefecture_code":1},"1636":{"zip_code":"0861636","prefecture":"北海道","prefecture_kana":"ホッカイドウ","city":"標津郡標津町","city_kana":"シベツグンシベツチョウ","town":"北六条","town_kana":"キタ6ジョウ","prefecture_code":1},"1637":{"zip_code":"0861637","prefecture":"北海道","prefecture_kana":"ホッカイドウ","city":"標津郡標津町","city_kana":"シベツグンシベツチョウ","town":"北七条","town_kana":"キタ7ジョウ","prefecture_code":1},"1638":{"zip_code":"0861638","prefecture":"北海道","prefecture_kana":"ホッカイドウ","city":"標津郡標津町","city_kana":"シベツグンシベツチョウ","town":"北八条","town_kana":"キタ8ジョウ","prefecture_code":1},"1639":{"zip_code":"0861639","prefecture":"北海道","prefecture_kana":"ホッカイドウ","city":"標津郡標津町","city_kana":"シベツグンシベツチョウ","town":"北九条","town_kana":"キタ9ジョウ","prefecture_code":1},"1630":{"zip_code":"0861630","prefecture":"北海道","prefecture_kana":"ホッカイドウ","city":"標津郡標津町","city_kana":"シベツグンシベツチョウ","town":"北十条","town_kana":"キタ10ジョウ","prefecture_code":1},"1732":{"zip_code":"0861732","prefecture":"北海道","prefecture_kana":"ホッカイドウ","city":"標津郡標津町","city_kana":"シベツグンシベツチョウ","town":"薫別","town_kana":"クンベツ","prefecture_code":1},"1731":{"zip_code":"0861731","prefecture":"北海道","prefecture_kana":"ホッカイドウ","city":"標津郡標津町","city_kana":"シベツグンシベツチョウ","town":"古多糠","town_kana":"コタヌカ","prefecture_code":1},"1733":{"zip_code":"0861733","prefecture":"北海道","prefecture_kana":"ホッカイドウ","city":"標津郡標津町","city_kana":"シベツグンシベツチョウ","town":"崎無異","town_kana":"サキムイ","prefecture_code":1},"1622":{"zip_code":"0861622","prefecture":"北海道","prefecture_kana":"ホッカイドウ","city":"標津郡標津町","city_kana":"シベツグンシベツチョウ","town":"茶志骨","town_kana":"チャシコツ","prefecture_code":1},"1625":{"zip_code":"0861625","prefecture":"北海道","prefecture_kana":"ホッカイドウ","city":"標津郡標津町","city_kana":"シベツグンシベツチョウ","town":"茶志骨","town_kana":"チャシコツ","prefecture_code":1},"1621":{"zip_code":"0861621","prefecture":"北海道","prefecture_kana":"ホッカイドウ","city":"標津郡標津町","city_kana":"シベツグンシベツチョウ","town":"茶志骨","town_kana":"チャシコツ","prefecture_code":1},"1623":{"zip_code":"0861623","prefecture":"北海道","prefecture_kana":"ホッカイドウ","city":"標津郡標津町","city_kana":"シベツグンシベツチョウ","town":"茶志骨","town_kana":"チャシコツ","prefecture_code":1},"1626":{"zip_code":"0861626","prefecture":"北海道","prefecture_kana":"ホッカイドウ","city":"標津郡標津町","city_kana":"シベツグンシベツチョウ","town":"茶志骨","town_kana":"チャシコツ","prefecture_code":1},"1601":{"zip_code":"0861601","prefecture":"北海道","prefecture_kana":"ホッカイドウ","city":"標津郡標津町","city_kana":"シベツグンシベツチョウ","town":"忠類","town_kana":"チュウルイ","prefecture_code":1},"1651":{"zip_code":"0861651","prefecture":"北海道","prefecture_kana":"ホッカイドウ","city":"標津郡標津町","city_kana":"シベツグンシベツチョウ","town":"南一条","town_kana":"ミナミ1ジョウ","prefecture_code":1},"1652":{"zip_code":"0861652","prefecture":"北海道","prefecture_kana":"ホッカイドウ","city":"標津郡標津町","city_kana":"シベツグンシベツチョウ","town":"南二条","town_kana":"ミナミ2ジョウ","prefecture_code":1},"1653":{"zip_code":"0861653","prefecture":"北海道","prefecture_kana":"ホッカイドウ","city":"標津郡標津町","city_kana":"シベツグンシベツチョウ","town":"南三条","town_kana":"ミナミ3ジョウ","prefecture_code":1},"1654":{"zip_code":"0861654","prefecture":"北海道","prefecture_kana":"ホッカイドウ","city":"標津郡標津町","city_kana":"シベツグンシベツチョウ","town":"南四条","town_kana":"ミナミ4ジョウ","prefecture_code":1},"1655":{"zip_code":"0861655","prefecture":"北海道","prefecture_kana":"ホッカイドウ","city":"標津郡標津町","city_kana":"シベツグンシベツチョウ","town":"南五条","town_kana":"ミナミ5ジョウ","prefecture_code":1},"1656":{"zip_code":"0861656","prefecture":"北海道","prefecture_kana":"ホッカイドウ","city":"標津郡標津町","city_kana":"シベツグンシベツチョウ","town":"南六条","town_kana":"ミナミ6ジョウ","prefecture_code":1},"1657":{"zip_code":"0861657","prefecture":"北海道","prefecture_kana":"ホッカイドウ","city":"標津郡標津町","city_kana":"シベツグンシベツチョウ","town":"南七条","town_kana":"ミナミ7ジョウ","prefecture_code":1},"1658":{"zip_code":"0861658","prefecture":"北海道","prefecture_kana":"ホッカイドウ","city":"標津郡標津町","city_kana":"シベツグンシベツチョウ","town":"南八条","town_kana":"ミナミ8ジョウ","prefecture_code":1},"1800":{"zip_code":"0861800","prefecture":"北海道","prefecture_kana":"ホッカイドウ","city":"目梨郡羅臼町","city_kana":"メナシグンラウスチョウ","town":"","town_kana":"","prefecture_code":1},"1806":{"zip_code":"0861806","prefecture":"北海道","prefecture_kana":"ホッカイドウ","city":"目梨郡羅臼町","city_kana":"メナシグンラウスチョウ","town":"相泊","town_kana":"アイドマリ","prefecture_code":1},"1842":{"zip_code":"0861842","prefecture":"北海道","prefecture_kana":"ホッカイドウ","city":"目梨郡羅臼町","city_kana":"メナシグンラウスチョウ","town":"麻布町","town_kana":"アザブチョウ","prefecture_code":1},"1815":{"zip_code":"0861815","prefecture":"北海道","prefecture_kana":"ホッカイドウ","city":"目梨郡羅臼町","city_kana":"メナシグンラウスチョウ","town":"海岸町","town_kana":"カイガンチョウ","prefecture_code":1},"1843":{"zip_code":"0861843","prefecture":"北海道","prefecture_kana":"ホッカイドウ","city":"目梨郡羅臼町","city_kana":"メナシグンラウスチョウ","town":"春日町","town_kana":"カスガチョウ","prefecture_code":1},"1804":{"zip_code":"0861804","prefecture":"北海道","prefecture_kana":"ホッカイドウ","city":"目梨郡羅臼町","city_kana":"メナシグンラウスチョウ","town":"化石浜","town_kana":"カセキハマ","prefecture_code":1},"1813":{"zip_code":"0861813","prefecture":"北海道","prefecture_kana":"ホッカイドウ","city":"目梨郡羅臼町","city_kana":"メナシグンラウスチョウ","town":"北浜","town_kana":"キタハマ","prefecture_code":1},"1816":{"zip_code":"0861816","prefecture":"北海道","prefecture_kana":"ホッカイドウ","city":"目梨郡羅臼町","city_kana":"メナシグンラウスチョウ","town":"共栄町","town_kana":"キョウエイチョウ","prefecture_code":1},"1805":{"zip_code":"0861805","prefecture":"北海道","prefecture_kana":"ホッカイドウ","city":"目梨郡羅臼町","city_kana":"メナシグンラウスチョウ","town":"崩浜","town_kana":"クズレハマ","prefecture_code":1},"1812":{"zip_code":"0861812","prefecture":"北海道","prefecture_kana":"ホッカイドウ","city":"目梨郡羅臼町","city_kana":"メナシグンラウスチョウ","town":"昆布浜","town_kana":"コンブハマ","prefecture_code":1},"1823":{"zip_code":"0861823","prefecture":"北海道","prefecture_kana":"ホッカイドウ","city":"目梨郡羅臼町","city_kana":"メナシグンラウスチョウ","town":"栄町","town_kana":"サカエチョウ","prefecture_code":1},"1801":{"zip_code":"0861801","prefecture":"北海道","prefecture_kana":"ホッカイドウ","city":"目梨郡羅臼町","city_kana":"メナシグンラウスチョウ","town":"知床岬","town_kana":"シレトコミサキ","prefecture_code":1},"1811":{"zip_code":"0861811","prefecture":"北海道","prefecture_kana":"ホッカイドウ","city":"目梨郡羅臼町","city_kana":"メナシグンラウスチョウ","town":"瀬石","town_kana":"セセキ","prefecture_code":1},"1802":{"zip_code":"0861802","prefecture":"北海道","prefecture_kana":"ホッカイドウ","city":"目梨郡羅臼町","city_kana":"メナシグンラウスチョウ","town":"滝ノ下","town_kana":"タキノシタ","prefecture_code":1},"1836":{"zip_code":"0861836","prefecture":"北海道","prefecture_kana":"ホッカイドウ","city":"目梨郡羅臼町","city_kana":"メナシグンラウスチョウ","town":"知昭町","town_kana":"チショウチョウ","prefecture_code":1},"1831":{"zip_code":"0861831","prefecture":"北海道","prefecture_kana":"ホッカイドウ","city":"目梨郡羅臼町","city_kana":"メナシグンラウスチョウ","town":"富士見町","town_kana":"フジミチョウ","prefecture_code":1},"1803":{"zip_code":"0861803","prefecture":"北海道","prefecture_kana":"ホッカイドウ","city":"目梨郡羅臼町","city_kana":"メナシグンラウスチョウ","town":"船泊","town_kana":"フナドマリ","prefecture_code":1},"1832":{"zip_code":"0861832","prefecture":"北海道","prefecture_kana":"ホッカイドウ","city":"目梨郡羅臼町","city_kana":"メナシグンラウスチョウ","town":"船見町","town_kana":"フナミチョウ","prefecture_code":1},"1844":{"zip_code":"0861844","prefecture":"北海道","prefecture_kana":"ホッカイドウ","city":"目梨郡羅臼町","city_kana":"メナシグンラウスチョウ","town":"幌萌町","town_kana":"ホロモエチョウ","prefecture_code":1},"1752":{"zip_code":"0861752","prefecture":"北海道","prefecture_kana":"ホッカイドウ","city":"目梨郡羅臼町","city_kana":"メナシグンラウスチョウ","town":"幌萌町","town_kana":"ホロモエチョウ","prefecture_code":1},"1833":{"zip_code":"0861833","prefecture":"北海道","prefecture_kana":"ホッカイドウ","city":"目梨郡羅臼町","city_kana":"メナシグンラウスチョウ","town":"本町","town_kana":"ホンチョウ","prefecture_code":1},"1835":{"zip_code":"0861835","prefecture":"北海道","prefecture_kana":"ホッカイドウ","city":"目梨郡羅臼町","city_kana":"メナシグンラウスチョウ","town":"松法町","town_kana":"マツノリチョウ","prefecture_code":1},"1814":{"zip_code":"0861814","prefecture":"北海道","prefecture_kana":"ホッカイドウ","city":"目梨郡羅臼町","city_kana":"メナシグンラウスチョウ","town":"岬町","town_kana":"ミサキチョウ","prefecture_code":1},"1821":{"zip_code":"0861821","prefecture":"北海道","prefecture_kana":"ホッカイドウ","city":"目梨郡羅臼町","city_kana":"メナシグンラウスチョウ","town":"緑町","town_kana":"ミドリチョウ","prefecture_code":1},"1751":{"zip_code":"0861751","prefecture":"北海道","prefecture_kana":"ホッカイドウ","city":"目梨郡羅臼町","city_kana":"メナシグンラウスチョウ","town":"峯浜町","town_kana":"ミネハマチョウ","prefecture_code":1},"1841":{"zip_code":"0861841","prefecture":"北海道","prefecture_kana":"ホッカイドウ","city":"目梨郡羅臼町","city_kana":"メナシグンラウスチョウ","town":"八木浜町","town_kana":"ヤギハマチョウ","prefecture_code":1},"1822":{"zip_code":"0861822","prefecture":"北海道","prefecture_kana":"ホッカイドウ","city":"目梨郡羅臼町","city_kana":"メナシグンラウスチョウ","town":"湯ノ沢町","town_kana":"ユノサワチョウ","prefecture_code":1},"1834":{"zip_code":"0861834","prefecture":"北海道","prefecture_kana":"ホッカイドウ","city":"目梨郡羅臼町","city_kana":"メナシグンラウスチョウ","town":"礼文町","town_kana":"レブンチョウ","prefecture_code":1}}