{"0000":{"zip_code":"0870000","prefecture":"北海道","prefecture_kana":"ホッカイドウ","city":"根室市","city_kana":"ネムロシ","town":"","town_kana":"","prefecture_code":1},"0006":{"zip_code":"0870006","prefecture":"北海道","prefecture_kana":"ホッカイドウ","city":"根室市","city_kana":"ネムロシ","town":"曙町","town_kana":"アケボノチョウ","prefecture_code":1},"0014":{"zip_code":"0870014","prefecture":"北海道","prefecture_kana":"ホッカイドウ","city":"根室市","city_kana":"ネムロシ","town":"朝日町","town_kana":"アサヒチョウ","prefecture_code":1},"0008":{"zip_code":"0870008","prefecture":"北海道","prefecture_kana":"ホッカイドウ","city":"根室市","city_kana":"ネムロシ","town":"有磯町","town_kana":"アリイソチョウ","prefecture_code":1},"0052":{"zip_code":"0870052","prefecture":"北海道","prefecture_kana":"ホッカイドウ","city":"根室市","city_kana":"ネムロシ","town":"梅ケ枝町","town_kana":"ウメガエチョウ","prefecture_code":1},"0035":{"zip_code":"0870035","prefecture":"北海道","prefecture_kana":"ホッカイドウ","city":"根室市","city_kana":"ネムロシ","town":"温根沼","town_kana":"オンネトウ","prefecture_code":1},"0166":{"zip_code":"0870166","prefecture":"北海道","prefecture_kana":"ホッカイドウ","city":"根室市","city_kana":"ネムロシ","town":"温根元","town_kana":"オンネモト","prefecture_code":1},"0054":{"zip_code":"0870054","prefecture":"北海道","prefecture_kana":"ホッカイドウ","city":"根室市","city_kana":"ネムロシ","town":"海岸町","town_kana":"カイガンチョウ","prefecture_code":1},"0023":{"zip_code":"0870023","prefecture":"北海道","prefecture_kana":"ホッカイドウ","city":"根室市","city_kana":"ネムロシ","town":"桂木","town_kana":"カツラギ","prefecture_code":1},"0001":{"zip_code":"0870001","prefecture":"北海道","prefecture_kana":"ホッカイドウ","city":"根室市","city_kana":"ネムロシ","town":"北浜町","town_kana":"キタハマチョウ","prefecture_code":1},"0042":{"zip_code":"0870042","prefecture":"北海道","prefecture_kana":"ホッカイドウ","city":"根室市","city_kana":"ネムロシ","town":"清隆町","town_kana":"キヨタカチョウ","prefecture_code":1},"0004":{"zip_code":"0870004","prefecture":"北海道","prefecture_kana":"ホッカイドウ","city":"根室市","city_kana":"ネムロシ","town":"光洋町","town_kana":"コウヨウチョウ","prefecture_code":1},"0027":{"zip_code":"0870027","prefecture":"北海道","prefecture_kana":"ホッカイドウ","city":"根室市","city_kana":"ネムロシ","town":"光和町","town_kana":"コウワチョウ","prefecture_code":1},"0055":{"zip_code":"0870055","prefecture":"北海道","prefecture_kana":"ホッカイドウ","city":"根室市","city_kana":"ネムロシ","town":"琴平町","town_kana":"コトヒラチョウ","prefecture_code":1},"0012":{"zip_code":"0870012","prefecture":"北海道","prefecture_kana":"ホッカイドウ","city":"根室市","city_kana":"ネムロシ","town":"駒場町","town_kana":"コマバチョウ","prefecture_code":1},"0164":{"zip_code":"0870164","prefecture":"北海道","prefecture_kana":"ホッカイドウ","city":"根室市","city_kana":"ネムロシ","town":"珸瑤瑁","town_kana":"ゴヨウマイ","prefecture_code":1},"0021":{"zip_code":"0870021","prefecture":"北海道","prefecture_kana":"ホッカイドウ","city":"根室市","city_kana":"ネムロシ","town":"幸町","town_kana":"サイワイチョウ","prefecture_code":1},"0010":{"zip_code":"0870010","prefecture":"北海道","prefecture_kana":"ホッカイドウ","city":"根室市","city_kana":"ネムロシ","town":"栄町","town_kana":"サカエチョウ","prefecture_code":1},"0047":{"zip_code":"0870047","prefecture":"北海道","prefecture_kana":"ホッカイドウ","city":"根室市","city_kana":"ネムロシ","town":"定基町","town_kana":"サダモトチョウ","prefecture_code":1},"0019":{"zip_code":"0870019","prefecture":"北海道","prefecture_kana":"ホッカイドウ","city":"根室市","city_kana":"ネムロシ","town":"汐見町","town_kana":"シオミチョウ","prefecture_code":1},"0026":{"zip_code":"0870026","prefecture":"北海道","prefecture_kana":"ホッカイドウ","city":"根室市","city_kana":"ネムロシ","town":"敷島町","town_kana":"シキシマチョウ","prefecture_code":1},"0022":{"zip_code":"0870022","prefecture":"北海道","prefecture_kana":"ホッカイドウ","city":"根室市","city_kana":"ネムロシ","town":"昭和町","town_kana":"ショウワチョウ","prefecture_code":1},"0028":{"zip_code":"0870028","prefecture":"北海道","prefecture_kana":"ホッカイドウ","city":"根室市","city_kana":"ネムロシ","town":"大正町","town_kana":"タイショウチョウ","prefecture_code":1},"0005":{"zip_code":"0870005","prefecture":"北海道","prefecture_kana":"ホッカイドウ","city":"根室市","city_kana":"ネムロシ","town":"宝町","town_kana":"タカラチョウ","prefecture_code":1},"0018":{"zip_code":"0870018","prefecture":"北海道","prefecture_kana":"ホッカイドウ","city":"根室市","city_kana":"ネムロシ","town":"千島町","town_kana":"チシマチョウ","prefecture_code":1},"0031":{"zip_code":"0870031","prefecture":"北海道","prefecture_kana":"ホッカイドウ","city":"根室市","city_kana":"ネムロシ","town":"月岡町","town_kana":"ツキオカチョウ","prefecture_code":1},"0007":{"zip_code":"0870007","prefecture":"北海道","prefecture_kana":"ホッカイドウ","city":"根室市","city_kana":"ネムロシ","town":"月見町","town_kana":"ツキミチョウ","prefecture_code":1},"0041":{"zip_code":"0870041","prefecture":"北海道","prefecture_kana":"ホッカイドウ","city":"根室市","city_kana":"ネムロシ","town":"常盤町","town_kana":"トキワチョウ","prefecture_code":1},"0161":{"zip_code":"0870161","prefecture":"北海道","prefecture_kana":"ホッカイドウ","city":"根室市","city_kana":"ネムロシ","town":"友知","town_kana":"トモシリ","prefecture_code":1},"0167":{"zip_code":"0870167","prefecture":"北海道","prefecture_kana":"ホッカイドウ","city":"根室市","city_kana":"ネムロシ","town":"豊里","town_kana":"トヨサト","prefecture_code":1},"0017":{"zip_code":"0870017","prefecture":"北海道","prefecture_kana":"ホッカイドウ","city":"根室市","city_kana":"ネムロシ","town":"鳴海町","town_kana":"ナルミチョウ","prefecture_code":1},"0025":{"zip_code":"0870025","prefecture":"北海道","prefecture_kana":"ホッカイドウ","city":"根室市","city_kana":"ネムロシ","town":"西浜町","town_kana":"ニシハマチョウ","prefecture_code":1},"0033":{"zip_code":"0870033","prefecture":"北海道","prefecture_kana":"ホッカイドウ","city":"根室市","city_kana":"ネムロシ","town":"西和田","town_kana":"ニシワダ","prefecture_code":1},"0165":{"zip_code":"0870165","prefecture":"北海道","prefecture_kana":"ホッカイドウ","city":"根室市","city_kana":"ネムロシ","town":"納沙布","town_kana":"ノサップ","prefecture_code":1},"0015":{"zip_code":"0870015","prefecture":"北海道","prefecture_kana":"ホッカイドウ","city":"根室市","city_kana":"ネムロシ","town":"花咲町","town_kana":"ハナサキチョウ","prefecture_code":1},"0032":{"zip_code":"0870032","prefecture":"北海道","prefecture_kana":"ホッカイドウ","city":"根室市","city_kana":"ネムロシ","town":"花咲港","town_kana":"ハナサキミナト","prefecture_code":1},"0045":{"zip_code":"0870045","prefecture":"北海道","prefecture_kana":"ホッカイドウ","city":"根室市","city_kana":"ネムロシ","town":"花園町","town_kana":"ハナゾノチョウ","prefecture_code":1},"0163":{"zip_code":"0870163","prefecture":"北海道","prefecture_kana":"ホッカイドウ","city":"根室市","city_kana":"ネムロシ","town":"歯舞","town_kana":"ハボマイ","prefecture_code":1},"0034":{"zip_code":"0870034","prefecture":"北海道","prefecture_kana":"ホッカイドウ","city":"根室市","city_kana":"ネムロシ","town":"東和田","town_kana":"ヒガシワダ","prefecture_code":1},"0162":{"zip_code":"0870162","prefecture":"北海道","prefecture_kana":"ホッカイドウ","city":"根室市","city_kana":"ネムロシ","town":"双沖","town_kana":"フタオキ","prefecture_code":1},"0048":{"zip_code":"0870048","prefecture":"北海道","prefecture_kana":"ホッカイドウ","city":"根室市","city_kana":"ネムロシ","town":"平内町","town_kana":"ヘイナイチョウ","prefecture_code":1},"0011":{"zip_code":"0870011","prefecture":"北海道","prefecture_kana":"ホッカイドウ","city":"根室市","city_kana":"ネムロシ","town":"弁天町","town_kana":"ベンテンチョウ","prefecture_code":1},"0024":{"zip_code":"0870024","prefecture":"北海道","prefecture_kana":"ホッカイドウ","city":"根室市","city_kana":"ネムロシ","town":"宝林町","town_kana":"ホウリンチョウ","prefecture_code":1},"0043":{"zip_code":"0870043","prefecture":"北海道","prefecture_kana":"ホッカイドウ","city":"根室市","city_kana":"ネムロシ","town":"北斗町","town_kana":"ホクトチョウ","prefecture_code":1},"0037":{"zip_code":"0870037","prefecture":"北海道","prefecture_kana":"ホッカイドウ","city":"根室市","city_kana":"ネムロシ","town":"穂香","town_kana":"ホニオイ","prefecture_code":1},"0036":{"zip_code":"0870036","prefecture":"北海道","prefecture_kana":"ホッカイドウ","city":"根室市","city_kana":"ネムロシ","town":"幌茂尻","town_kana":"ホロモシリ","prefecture_code":1},"0053":{"zip_code":"0870053","prefecture":"北海道","prefecture_kana":"ホッカイドウ","city":"根室市","city_kana":"ネムロシ","town":"本町","town_kana":"ホンチョウ","prefecture_code":1},"0002":{"zip_code":"0870002","prefecture":"北海道","prefecture_kana":"ホッカイドウ","city":"根室市","city_kana":"ネムロシ","town":"牧の内","town_kana":"マキノウチ","prefecture_code":1},"0016":{"zip_code":"0870016","prefecture":"北海道","prefecture_kana":"ホッカイドウ","city":"根室市","city_kana":"ネムロシ","town":"松ケ枝町","town_kana":"マツガエチョウ","prefecture_code":1},"0044":{"zip_code":"0870044","prefecture":"北海道","prefecture_kana":"ホッカイドウ","city":"根室市","city_kana":"ネムロシ","town":"松本町","town_kana":"マツモトチョウ","prefecture_code":1},"0046":{"zip_code":"0870046","prefecture":"北海道","prefecture_kana":"ホッカイドウ","city":"根室市","city_kana":"ネムロシ","town":"岬町","town_kana":"ミサキチョウ","prefecture_code":1},"0051":{"zip_code":"0870051","prefecture":"北海道","prefecture_kana":"ホッカイドウ","city":"根室市","city_kana":"ネムロシ","town":"緑町","town_kana":"ミドリチョウ","prefecture_code":1},"0003":{"zip_code":"0870003","prefecture":"北海道","prefecture_kana":"ホッカイドウ","city":"根室市","city_kana":"ネムロシ","town":"明治町","town_kana":"メイジチョウ","prefecture_code":1},"0009":{"zip_code":"0870009","prefecture":"北海道","prefecture_kana":"ホッカイドウ","city":"根室市","city_kana":"ネムロシ","town":"弥栄町","town_kana":"ヤサカエチョウ","prefecture_code":1},"0049":{"zip_code":"0870049","prefecture":"北海道","prefecture_kana":"ホッカイドウ","city":"根室市","city_kana":"ネムロシ","town":"弥生町","town_kana":"ヤヨイチョウ","prefecture_code":1}}