{"0000":{"zip_code":"0900000","prefecture":"北海道","prefecture_kana":"ホッカイドウ","city":"北見市","city_kana":"キタミシ","town":"","town_kana":"","prefecture_code":1},"0018":{"zip_code":"0900018","prefecture":"北海道","prefecture_kana":"ホッカイドウ","city":"北見市","city_kana":"キタミシ","town":"青葉町","town_kana":"アオバチョウ","prefecture_code":1},"0011":{"zip_code":"0900011","prefecture":"北海道","prefecture_kana":"ホッカイドウ","city":"北見市","city_kana":"キタミシ","town":"曙町","town_kana":"アケボノチョウ","prefecture_code":1},"0803":{"zip_code":"0900803","prefecture":"北海道","prefecture_kana":"ホッカイドウ","city":"北見市","city_kana":"キタミシ","town":"朝日町","town_kana":"アサヒマチ","prefecture_code":1},"0811":{"zip_code":"0900811","prefecture":"北海道","prefecture_kana":"ホッカイドウ","city":"北見市","city_kana":"キタミシ","town":"泉町","town_kana":"イズミチョウ","prefecture_code":1},"0020":{"zip_code":"0900020","prefecture":"北海道","prefecture_kana":"ホッカイドウ","city":"北見市","city_kana":"キタミシ","town":"大通東","town_kana":"オオドオリヒガシ","prefecture_code":1},"0040":{"zip_code":"0900040","prefecture":"北海道","prefecture_kana":"ホッカイドウ","city":"北見市","city_kana":"キタミシ","town":"大通西","town_kana":"オオドオリニシ","prefecture_code":1},"0016":{"zip_code":"0900016","prefecture":"北海道","prefecture_kana":"ホッカイドウ","city":"北見市","city_kana":"キタミシ","town":"大町","town_kana":"オオマチ","prefecture_code":1},"0056":{"zip_code":"0900056","prefecture":"北海道","prefecture_kana":"ホッカイドウ","city":"北見市","city_kana":"キタミシ","town":"卸町","town_kana":"オロシマチ","prefecture_code":1},"0066":{"zip_code":"0900066","prefecture":"北海道","prefecture_kana":"ホッカイドウ","city":"北見市","city_kana":"キタミシ","town":"花月町","town_kana":"カゲツチョウ","prefecture_code":1},"0053":{"zip_code":"0900053","prefecture":"北海道","prefecture_kana":"ホッカイドウ","city":"北見市","city_kana":"キタミシ","town":"桂町","town_kana":"カツラマチ","prefecture_code":1},"0006":{"zip_code":"0900006","prefecture":"北海道","prefecture_kana":"ホッカイドウ","city":"北見市","city_kana":"キタミシ","town":"上仁頃","town_kana":"カミニコロ","prefecture_code":1},"0821":{"zip_code":"0900821","prefecture":"北海道","prefecture_kana":"ホッカイドウ","city":"北見市","city_kana":"キタミシ","town":"川沿町","town_kana":"カワゾエチョウ","prefecture_code":1},"0807":{"zip_code":"0900807","prefecture":"北海道","prefecture_kana":"ホッカイドウ","city":"北見市","city_kana":"キタミシ","town":"川東","town_kana":"カワヒガシ","prefecture_code":1},"0021":{"zip_code":"0900021","prefecture":"北海道","prefecture_kana":"ホッカイドウ","city":"北見市","city_kana":"キタミシ","town":"北一条東","town_kana":"キタ1ジョウヒガシ","prefecture_code":1},"0041":{"zip_code":"0900041","prefecture":"北海道","prefecture_kana":"ホッカイドウ","city":"北見市","city_kana":"キタミシ","town":"北一条西","town_kana":"キタ1ジョウニシ","prefecture_code":1},"0022":{"zip_code":"0900022","prefecture":"北海道","prefecture_kana":"ホッカイドウ","city":"北見市","city_kana":"キタミシ","town":"北二条東","town_kana":"キタ2ジョウヒガシ","prefecture_code":1},"0042":{"zip_code":"0900042","prefecture":"北海道","prefecture_kana":"ホッカイドウ","city":"北見市","city_kana":"キタミシ","town":"北二条西","town_kana":"キタ2ジョウニシ","prefecture_code":1},"0023":{"zip_code":"0900023","prefecture":"北海道","prefecture_kana":"ホッカイドウ","city":"北見市","city_kana":"キタミシ","town":"北三条東","town_kana":"キタ3ジョウヒガシ","prefecture_code":1},"0043":{"zip_code":"0900043","prefecture":"北海道","prefecture_kana":"ホッカイドウ","city":"北見市","city_kana":"キタミシ","town":"北三条西","town_kana":"キタ3ジョウニシ","prefecture_code":1},"0024":{"zip_code":"0900024","prefecture":"北海道","prefecture_kana":"ホッカイドウ","city":"北見市","city_kana":"キタミシ","town":"北四条東","town_kana":"キタ4ジョウヒガシ","prefecture_code":1},"0044":{"zip_code":"0900044","prefecture":"北海道","prefecture_kana":"ホッカイドウ","city":"北見市","city_kana":"キタミシ","town":"北四条西","town_kana":"キタ4ジョウニシ","prefecture_code":1},"0025":{"zip_code":"0900025","prefecture":"北海道","prefecture_kana":"ホッカイドウ","city":"北見市","city_kana":"キタミシ","town":"北五条東","town_kana":"キタ5ジョウヒガシ","prefecture_code":1},"0045":{"zip_code":"0900045","prefecture":"北海道","prefecture_kana":"ホッカイドウ","city":"北見市","city_kana":"キタミシ","town":"北五条西","town_kana":"キタ5ジョウニシ","prefecture_code":1},"0026":{"zip_code":"0900026","prefecture":"北海道","prefecture_kana":"ホッカイドウ","city":"北見市","city_kana":"キタミシ","town":"北六条東","town_kana":"キタ6ジョウヒガシ","prefecture_code":1},"0046":{"zip_code":"0900046","prefecture":"北海道","prefecture_kana":"ホッカイドウ","city":"北見市","city_kana":"キタミシ","town":"北六条西","town_kana":"キタ6ジョウニシ","prefecture_code":1},"0027":{"zip_code":"0900027","prefecture":"北海道","prefecture_kana":"ホッカイドウ","city":"北見市","city_kana":"キタミシ","town":"北七条東","town_kana":"キタ7ジョウヒガシ","prefecture_code":1},"0047":{"zip_code":"0900047","prefecture":"北海道","prefecture_kana":"ホッカイドウ","city":"北見市","city_kana":"キタミシ","town":"北七条西","town_kana":"キタ7ジョウニシ","prefecture_code":1},"0028":{"zip_code":"0900028","prefecture":"北海道","prefecture_kana":"ホッカイドウ","city":"北見市","city_kana":"キタミシ","town":"北八条東","town_kana":"キタ8ジョウヒガシ","prefecture_code":1},"0048":{"zip_code":"0900048","prefecture":"北海道","prefecture_kana":"ホッカイドウ","city":"北見市","city_kana":"キタミシ","town":"北八条西","town_kana":"キタ8ジョウニシ","prefecture_code":1},"0029":{"zip_code":"0900029","prefecture":"北海道","prefecture_kana":"ホッカイドウ","city":"北見市","city_kana":"キタミシ","town":"北九条東","town_kana":"キタ9ジョウヒガシ","prefecture_code":1},"0030":{"zip_code":"0900030","prefecture":"北海道","prefecture_kana":"ホッカイドウ","city":"北見市","city_kana":"キタミシ","town":"北十条東","town_kana":"キタ10ジョウヒガシ","prefecture_code":1},"0031":{"zip_code":"0900031","prefecture":"北海道","prefecture_kana":"ホッカイドウ","city":"北見市","city_kana":"キタミシ","town":"北十一条東","town_kana":"キタ11ジョウヒガシ","prefecture_code":1},"0063":{"zip_code":"0900063","prefecture":"北海道","prefecture_kana":"ホッカイドウ","city":"北見市","city_kana":"キタミシ","town":"清見町","town_kana":"キヨミチョウ","prefecture_code":1},"0001":{"zip_code":"0900001","prefecture":"北海道","prefecture_kana":"ホッカイドウ","city":"北見市","city_kana":"キタミシ","town":"小泉","town_kana":"コイズミ","prefecture_code":1},"0051":{"zip_code":"0900051","prefecture":"北海道","prefecture_kana":"ホッカイドウ","city":"北見市","city_kana":"キタミシ","town":"高栄東町","town_kana":"コウエイヒガシマチ","prefecture_code":1},"0058":{"zip_code":"0900058","prefecture":"北海道","prefecture_kana":"ホッカイドウ","city":"北見市","city_kana":"キタミシ","town":"高栄西町","town_kana":"コウエイニシマチ","prefecture_code":1},"0015":{"zip_code":"0900015","prefecture":"北海道","prefecture_kana":"ホッカイドウ","city":"北見市","city_kana":"キタミシ","town":"公園町","town_kana":"コウエンチョウ","prefecture_code":1},"0835":{"zip_code":"0900835","prefecture":"北海道","prefecture_kana":"ホッカイドウ","city":"北見市","city_kana":"キタミシ","town":"光西町","town_kana":"コウセイチョウ","prefecture_code":1},"0823":{"zip_code":"0900823","prefecture":"北海道","prefecture_kana":"ホッカイドウ","city":"北見市","city_kana":"キタミシ","town":"広明町","town_kana":"コウメイチョウ","prefecture_code":1},"0814":{"zip_code":"0900814","prefecture":"北海道","prefecture_kana":"ホッカイドウ","city":"北見市","city_kana":"キタミシ","town":"光葉町","town_kana":"コウヨウチョウ","prefecture_code":1},"0065":{"zip_code":"0900065","prefecture":"北海道","prefecture_kana":"ホッカイドウ","city":"北見市","city_kana":"キタミシ","town":"寿町","town_kana":"コトブキチョウ","prefecture_code":1},"0036":{"zip_code":"0900036","prefecture":"北海道","prefecture_kana":"ホッカイドウ","city":"北見市","city_kana":"キタミシ","town":"幸町","town_kana":"サイワイチョウ","prefecture_code":1},"0832":{"zip_code":"0900832","prefecture":"北海道","prefecture_kana":"ホッカイドウ","city":"北見市","city_kana":"キタミシ","town":"栄町","town_kana":"サカエマチ","prefecture_code":1},"0804":{"zip_code":"0900804","prefecture":"北海道","prefecture_kana":"ホッカイドウ","city":"北見市","city_kana":"キタミシ","town":"桜町","town_kana":"サクラマチ","prefecture_code":1},"0019":{"zip_code":"0900019","prefecture":"北海道","prefecture_kana":"ホッカイドウ","city":"北見市","city_kana":"キタミシ","town":"三楽町","town_kana":"サンラクチョウ","prefecture_code":1},"0801":{"zip_code":"0900801","prefecture":"北海道","prefecture_kana":"ホッカイドウ","city":"北見市","city_kana":"キタミシ","town":"春光町","town_kana":"シュンコウチョウ","prefecture_code":1},"0002":{"zip_code":"0900002","prefecture":"北海道","prefecture_kana":"ホッカイドウ","city":"北見市","city_kana":"キタミシ","town":"昭和","town_kana":"ショウワ","prefecture_code":1},"0815":{"zip_code":"0900815","prefecture":"北海道","prefecture_kana":"ホッカイドウ","city":"北見市","city_kana":"キタミシ","town":"新生町","town_kana":"シンセイチョウ","prefecture_code":1},"0826":{"zip_code":"0900826","prefecture":"北海道","prefecture_kana":"ホッカイドウ","city":"北見市","city_kana":"キタミシ","town":"末広町","town_kana":"スエヒロチョウ","prefecture_code":1},"0805":{"zip_code":"0900805","prefecture":"北海道","prefecture_kana":"ホッカイドウ","city":"北見市","city_kana":"キタミシ","town":"清月町","town_kana":"セイゲツチョウ","prefecture_code":1},"0008":{"zip_code":"0900008","prefecture":"北海道","prefecture_kana":"ホッカイドウ","city":"北見市","city_kana":"キタミシ","town":"大正","town_kana":"タイショウ","prefecture_code":1},"0017":{"zip_code":"0900017","prefecture":"北海道","prefecture_kana":"ホッカイドウ","city":"北見市","city_kana":"キタミシ","town":"高砂町","town_kana":"タカサゴチョウ","prefecture_code":1},"0802":{"zip_code":"0900802","prefecture":"北海道","prefecture_kana":"ホッカイドウ","city":"北見市","city_kana":"キタミシ","town":"田端町","town_kana":"タバタチョウ","prefecture_code":1},"0034":{"zip_code":"0900034","prefecture":"北海道","prefecture_kana":"ホッカイドウ","city":"北見市","city_kana":"キタミシ","town":"中央町","town_kana":"チュウオウチョウ","prefecture_code":1},"0837":{"zip_code":"0900837","prefecture":"北海道","prefecture_kana":"ホッカイドウ","city":"北見市","city_kana":"キタミシ","town":"中央三輪","town_kana":"チュウオウミワ","prefecture_code":1},"0061":{"zip_code":"0900061","prefecture":"北海道","prefecture_kana":"ホッカイドウ","city":"北見市","city_kana":"キタミシ","town":"東陵町","town_kana":"トウリョウチョウ","prefecture_code":1},"0817":{"zip_code":"0900817","prefecture":"北海道","prefecture_kana":"ホッカイドウ","city":"北見市","city_kana":"キタミシ","town":"常盤町","town_kana":"トキワチョウ","prefecture_code":1},"0833":{"zip_code":"0900833","prefecture":"北海道","prefecture_kana":"ホッカイドウ","city":"北見市","city_kana":"キタミシ","town":"とん田東町","town_kana":"トンデンヒガシマチ","prefecture_code":1},"0834":{"zip_code":"0900834","prefecture":"北海道","prefecture_kana":"ホッカイドウ","city":"北見市","city_kana":"キタミシ","town":"とん田西町","town_kana":"トンデンニシマチ","prefecture_code":1},"0813":{"zip_code":"0900813","prefecture":"北海道","prefecture_kana":"ホッカイドウ","city":"北見市","city_kana":"キタミシ","town":"中ノ島町","town_kana":"ナカノシマチョウ","prefecture_code":1},"0012":{"zip_code":"0900012","prefecture":"北海道","prefecture_kana":"ホッカイドウ","city":"北見市","city_kana":"キタミシ","town":"並木町","town_kana":"ナミキチョウ","prefecture_code":1},"0003":{"zip_code":"0900003","prefecture":"北海道","prefecture_kana":"ホッカイドウ","city":"北見市","city_kana":"キタミシ","town":"仁頃町","town_kana":"ニコロチョウ","prefecture_code":1},"0827":{"zip_code":"0900827","prefecture":"北海道","prefecture_kana":"ホッカイドウ","city":"北見市","city_kana":"キタミシ","town":"錦町","town_kana":"ニシキチョウ","prefecture_code":1},"0831":{"zip_code":"0900831","prefecture":"北海道","prefecture_kana":"ホッカイドウ","city":"北見市","city_kana":"キタミシ","town":"西富町","town_kana":"ニシトミチョウ","prefecture_code":1},"0838":{"zip_code":"0900838","prefecture":"北海道","prefecture_kana":"ホッカイドウ","city":"北見市","city_kana":"キタミシ","town":"西三輪","town_kana":"ニシミワ","prefecture_code":1},"0013":{"zip_code":"0900013","prefecture":"北海道","prefecture_kana":"ホッカイドウ","city":"北見市","city_kana":"キタミシ","town":"柏陽町","town_kana":"ハクヨウチョウ","prefecture_code":1},"0816":{"zip_code":"0900816","prefecture":"北海道","prefecture_kana":"ホッカイドウ","city":"北見市","city_kana":"キタミシ","town":"花園町","town_kana":"ハナゾノチョウ","prefecture_code":1},"0033":{"zip_code":"0900033","prefecture":"北海道","prefecture_kana":"ホッカイドウ","city":"北見市","city_kana":"キタミシ","town":"番場町","town_kana":"バンバチョウ","prefecture_code":1},"0836":{"zip_code":"0900836","prefecture":"北海道","prefecture_kana":"ホッカイドウ","city":"北見市","city_kana":"キタミシ","town":"東三輪","town_kana":"ヒガシミワ","prefecture_code":1},"0810":{"zip_code":"0900810","prefecture":"北海道","prefecture_kana":"ホッカイドウ","city":"北見市","city_kana":"キタミシ","town":"ひかり野","town_kana":"ヒカリノ","prefecture_code":1},"0054":{"zip_code":"0900054","prefecture":"北海道","prefecture_kana":"ホッカイドウ","city":"北見市","city_kana":"キタミシ","town":"双葉町","town_kana":"フタバチョウ","prefecture_code":1},"0014":{"zip_code":"0900014","prefecture":"北海道","prefecture_kana":"ホッカイドウ","city":"北見市","city_kana":"キタミシ","town":"文京町","town_kana":"ブンキョウチョウ","prefecture_code":1},"0822":{"zip_code":"0900822","prefecture":"北海道","prefecture_kana":"ホッカイドウ","city":"北見市","city_kana":"キタミシ","town":"北央町","town_kana":"ホクオウチョウ","prefecture_code":1},"0052":{"zip_code":"0900052","prefecture":"北海道","prefecture_kana":"ホッカイドウ","city":"北見市","city_kana":"キタミシ","town":"北進町","town_kana":"ホクシンチョウ","prefecture_code":1},"0035":{"zip_code":"0900035","prefecture":"北海道","prefecture_kana":"ホッカイドウ","city":"北見市","city_kana":"キタミシ","town":"北斗町","town_kana":"ホクトチョウ","prefecture_code":1},"0004":{"zip_code":"0900004","prefecture":"北海道","prefecture_kana":"ホッカイドウ","city":"北見市","city_kana":"キタミシ","town":"北陽","town_kana":"ホクヨウ","prefecture_code":1},"0824":{"zip_code":"0900824","prefecture":"北海道","prefecture_kana":"ホッカイドウ","city":"北見市","city_kana":"キタミシ","town":"北光","town_kana":"ホッコウ","prefecture_code":1},"0007":{"zip_code":"0900007","prefecture":"北海道","prefecture_kana":"ホッカイドウ","city":"北見市","city_kana":"キタミシ","town":"美里","town_kana":"ミサト","prefecture_code":1},"0032":{"zip_code":"0900032","prefecture":"北海道","prefecture_kana":"ホッカイドウ","city":"北見市","city_kana":"キタミシ","town":"三住町","town_kana":"ミスミチョウ","prefecture_code":1},"0067":{"zip_code":"0900067","prefecture":"北海道","prefecture_kana":"ホッカイドウ","city":"北見市","city_kana":"キタミシ","town":"緑ケ丘","town_kana":"ミドリガオカ","prefecture_code":1},"0055":{"zip_code":"0900055","prefecture":"北海道","prefecture_kana":"ホッカイドウ","city":"北見市","city_kana":"キタミシ","town":"緑町","town_kana":"ミドリマチ","prefecture_code":1},"0812":{"zip_code":"0900812","prefecture":"北海道","prefecture_kana":"ホッカイドウ","city":"北見市","city_kana":"キタミシ","town":"南仲町","town_kana":"ミナミナカマチ","prefecture_code":1},"0806":{"zip_code":"0900806","prefecture":"北海道","prefecture_kana":"ホッカイドウ","city":"北見市","city_kana":"キタミシ","town":"南町","town_kana":"ミナミマチ","prefecture_code":1},"0070":{"zip_code":"0900070","prefecture":"北海道","prefecture_kana":"ホッカイドウ","city":"北見市","city_kana":"キタミシ","town":"美山町西","town_kana":"ミヤマチョウニシ","prefecture_code":1},"0069":{"zip_code":"0900069","prefecture":"北海道","prefecture_kana":"ホッカイドウ","city":"北見市","city_kana":"キタミシ","town":"美山町東","town_kana":"ミヤマチョウヒガシ","prefecture_code":1},"0068":{"zip_code":"0900068","prefecture":"北海道","prefecture_kana":"ホッカイドウ","city":"北見市","city_kana":"キタミシ","town":"美山町南","town_kana":"ミヤマチョウミナミ","prefecture_code":1},"0064":{"zip_code":"0900064","prefecture":"北海道","prefecture_kana":"ホッカイドウ","city":"北見市","city_kana":"キタミシ","town":"美芳町","town_kana":"ミヨシチョウ","prefecture_code":1},"0825":{"zip_code":"0900825","prefecture":"北海道","prefecture_kana":"ホッカイドウ","city":"北見市","city_kana":"キタミシ","town":"無加川町","town_kana":"ムカガワチョウ","prefecture_code":1},"0818":{"zip_code":"0900818","prefecture":"北海道","prefecture_kana":"ホッカイドウ","city":"北見市","city_kana":"キタミシ","town":"本町","town_kana":"モトマチ","prefecture_code":1},"0037":{"zip_code":"0900037","prefecture":"北海道","prefecture_kana":"ホッカイドウ","city":"北見市","city_kana":"キタミシ","town":"山下町","town_kana":"ヤマシタチョウ","prefecture_code":1},"0005":{"zip_code":"0900005","prefecture":"北海道","prefecture_kana":"ホッカイドウ","city":"北見市","city_kana":"キタミシ","town":"大和","town_kana":"ヤマト","prefecture_code":1},"0057":{"zip_code":"0900057","prefecture":"北海道","prefecture_kana":"ホッカイドウ","city":"北見市","city_kana":"キタミシ","town":"若葉","town_kana":"ワカバ","prefecture_code":1},"0808":{"zip_code":"0900808","prefecture":"北海道","prefecture_kana":"ホッカイドウ","city":"北見市","city_kana":"キタミシ","town":"若松","town_kana":"ワカマツ","prefecture_code":1}}