{"0215":{"zip_code":"0930215","prefecture":"北海道","prefecture_kana":"ホッカイドウ","city":"北見市","city_kana":"キタミシ","town":"常呂町岐阜","town_kana":"トコロチョウギフ","prefecture_code":1},"0214":{"zip_code":"0930214","prefecture":"北海道","prefecture_kana":"ホッカイドウ","city":"北見市","city_kana":"キタミシ","town":"常呂町共立","town_kana":"トコロチョウキョウリツ","prefecture_code":1},"0216":{"zip_code":"0930216","prefecture":"北海道","prefecture_kana":"ホッカイドウ","city":"北見市","city_kana":"キタミシ","town":"常呂町栄浦","town_kana":"トコロチョウサカエウラ","prefecture_code":1},"0210":{"zip_code":"0930210","prefecture":"北海道","prefecture_kana":"ホッカイドウ","city":"北見市","city_kana":"キタミシ","town":"常呂町常呂","town_kana":"トコロチョウトコロ","prefecture_code":1},"0213":{"zip_code":"0930213","prefecture":"北海道","prefecture_kana":"ホッカイドウ","city":"北見市","city_kana":"キタミシ","town":"常呂町土佐","town_kana":"トコロチョウトサ","prefecture_code":1},"0332":{"zip_code":"0930332","prefecture":"北海道","prefecture_kana":"ホッカイドウ","city":"北見市","city_kana":"キタミシ","town":"常呂町富丘","town_kana":"トコロチョウトミオカ","prefecture_code":1},"0331":{"zip_code":"0930331","prefecture":"北海道","prefecture_kana":"ホッカイドウ","city":"北見市","city_kana":"キタミシ","town":"常呂町豊川","town_kana":"トコロチョウトヨカワ","prefecture_code":1},"0336":{"zip_code":"0930336","prefecture":"北海道","prefecture_kana":"ホッカイドウ","city":"北見市","city_kana":"キタミシ","town":"常呂町登","town_kana":"トコロチョウノボリ","prefecture_code":1},"0202":{"zip_code":"0930202","prefecture":"北海道","prefecture_kana":"ホッカイドウ","city":"北見市","city_kana":"キタミシ","town":"常呂町東浜","town_kana":"トコロチョウヒガシハマ","prefecture_code":1},"0334":{"zip_code":"0930334","prefecture":"北海道","prefecture_kana":"ホッカイドウ","city":"北見市","city_kana":"キタミシ","town":"常呂町日吉","town_kana":"トコロチョウヒヨシ","prefecture_code":1},"0333":{"zip_code":"0930333","prefecture":"北海道","prefecture_kana":"ホッカイドウ","city":"北見市","city_kana":"キタミシ","town":"常呂町福山","town_kana":"トコロチョウフクヤマ","prefecture_code":1},"0335":{"zip_code":"0930335","prefecture":"北海道","prefecture_kana":"ホッカイドウ","city":"北見市","city_kana":"キタミシ","town":"常呂町吉野","town_kana":"トコロチョウヨシノ","prefecture_code":1},"0000":{"zip_code":"0930000","prefecture":"北海道","prefecture_kana":"ホッカイドウ","city":"網走市","city_kana":"アバシリシ","town":"以下に掲載がない場合","town_kana":"イカニケイサイガナイバアイ","prefecture_code":1},"0135":{"zip_code":"0930135","prefecture":"北海道","prefecture_kana":"ホッカイドウ","city":"網走市","city_kana":"アバシリシ","town":"卯原内","town_kana":"ウバラナイ","prefecture_code":1},"0045":{"zip_code":"0930045","prefecture":"北海道","prefecture_kana":"ホッカイドウ","city":"網走市","city_kana":"アバシリシ","town":"大曲","town_kana":"オオマガリ","prefecture_code":1},"0083":{"zip_code":"0930083","prefecture":"北海道","prefecture_kana":"ホッカイドウ","city":"網走市","city_kana":"アバシリシ","town":"海岸町","town_kana":"カイガンチョウ","prefecture_code":1},"0133":{"zip_code":"0930133","prefecture":"北海道","prefecture_kana":"ホッカイドウ","city":"網走市","city_kana":"アバシリシ","town":"嘉多山","town_kana":"カタヤマ","prefecture_code":1},"0041":{"zip_code":"0930041","prefecture":"北海道","prefecture_kana":"ホッカイドウ","city":"網走市","city_kana":"アバシリシ","town":"桂町","town_kana":"カツラマチ","prefecture_code":1},"0051":{"zip_code":"0930051","prefecture":"北海道","prefecture_kana":"ホッカイドウ","city":"網走市","city_kana":"アバシリシ","town":"北一条東","town_kana":"キタ1ジョウヒガシ","prefecture_code":1},"0071":{"zip_code":"0930071","prefecture":"北海道","prefecture_kana":"ホッカイドウ","city":"網走市","city_kana":"アバシリシ","town":"北一条西","town_kana":"キタ1ジョウニシ","prefecture_code":1},"0052":{"zip_code":"0930052","prefecture":"北海道","prefecture_kana":"ホッカイドウ","city":"網走市","city_kana":"アバシリシ","town":"北二条東","town_kana":"キタ2ジョウヒガシ","prefecture_code":1},"0072":{"zip_code":"0930072","prefecture":"北海道","prefecture_kana":"ホッカイドウ","city":"網走市","city_kana":"アバシリシ","town":"北二条西","town_kana":"キタ2ジョウニシ","prefecture_code":1},"0053":{"zip_code":"0930053","prefecture":"北海道","prefecture_kana":"ホッカイドウ","city":"網走市","city_kana":"アバシリシ","town":"北三条東","town_kana":"キタ3ジョウヒガシ","prefecture_code":1},"0073":{"zip_code":"0930073","prefecture":"北海道","prefecture_kana":"ホッカイドウ","city":"網走市","city_kana":"アバシリシ","town":"北三条西","town_kana":"キタ3ジョウニシ","prefecture_code":1},"0054":{"zip_code":"0930054","prefecture":"北海道","prefecture_kana":"ホッカイドウ","city":"網走市","city_kana":"アバシリシ","town":"北四条東","town_kana":"キタ4ジョウヒガシ","prefecture_code":1},"0074":{"zip_code":"0930074","prefecture":"北海道","prefecture_kana":"ホッカイドウ","city":"網走市","city_kana":"アバシリシ","town":"北四条西","town_kana":"キタ4ジョウニシ","prefecture_code":1},"0055":{"zip_code":"0930055","prefecture":"北海道","prefecture_kana":"ホッカイドウ","city":"網走市","city_kana":"アバシリシ","town":"北五条東","town_kana":"キタ5ジョウヒガシ","prefecture_code":1},"0075":{"zip_code":"0930075","prefecture":"北海道","prefecture_kana":"ホッカイドウ","city":"網走市","city_kana":"アバシリシ","town":"北五条西","town_kana":"キタ5ジョウニシ","prefecture_code":1},"0056":{"zip_code":"0930056","prefecture":"北海道","prefecture_kana":"ホッカイドウ","city":"網走市","city_kana":"アバシリシ","town":"北六条東","town_kana":"キタ6ジョウヒガシ","prefecture_code":1},"0076":{"zip_code":"0930076","prefecture":"北海道","prefecture_kana":"ホッカイドウ","city":"網走市","city_kana":"アバシリシ","town":"北六条西","town_kana":"キタ6ジョウニシ","prefecture_code":1},"0057":{"zip_code":"0930057","prefecture":"北海道","prefecture_kana":"ホッカイドウ","city":"網走市","city_kana":"アバシリシ","town":"北七条東","town_kana":"キタ7ジョウヒガシ","prefecture_code":1},"0077":{"zip_code":"0930077","prefecture":"北海道","prefecture_kana":"ホッカイドウ","city":"網走市","city_kana":"アバシリシ","town":"北七条西","town_kana":"キタ7ジョウニシ","prefecture_code":1},"0058":{"zip_code":"0930058","prefecture":"北海道","prefecture_kana":"ホッカイドウ","city":"網走市","city_kana":"アバシリシ","town":"北八条東","town_kana":"キタ8ジョウヒガシ","prefecture_code":1},"0078":{"zip_code":"0930078","prefecture":"北海道","prefecture_kana":"ホッカイドウ","city":"網走市","city_kana":"アバシリシ","town":"北八条西","town_kana":"キタ8ジョウニシ","prefecture_code":1},"0059":{"zip_code":"0930059","prefecture":"北海道","prefecture_kana":"ホッカイドウ","city":"網走市","city_kana":"アバシリシ","town":"北九条東","town_kana":"キタ9ジョウヒガシ","prefecture_code":1},"0079":{"zip_code":"0930079","prefecture":"北海道","prefecture_kana":"ホッカイドウ","city":"網走市","city_kana":"アバシリシ","town":"北九条西","town_kana":"キタ9ジョウニシ","prefecture_code":1},"0060":{"zip_code":"0930060","prefecture":"北海道","prefecture_kana":"ホッカイドウ","city":"網走市","city_kana":"アバシリシ","town":"北十条東","town_kana":"キタ10ジョウヒガシ","prefecture_code":1},"0080":{"zip_code":"0930080","prefecture":"北海道","prefecture_kana":"ホッカイドウ","city":"網走市","city_kana":"アバシリシ","town":"北十条西","town_kana":"キタ10ジョウニシ","prefecture_code":1},"0061":{"zip_code":"0930061","prefecture":"北海道","prefecture_kana":"ホッカイドウ","city":"網走市","city_kana":"アバシリシ","town":"北十一条東","town_kana":"キタ11ジョウヒガシ","prefecture_code":1},"0081":{"zip_code":"0930081","prefecture":"北海道","prefecture_kana":"ホッカイドウ","city":"網走市","city_kana":"アバシリシ","town":"北十一条西","town_kana":"キタ11ジョウニシ","prefecture_code":1},"0062":{"zip_code":"0930062","prefecture":"北海道","prefecture_kana":"ホッカイドウ","city":"網走市","city_kana":"アバシリシ","town":"北十二条東","town_kana":"キタ12ジョウヒガシ","prefecture_code":1},"0082":{"zip_code":"0930082","prefecture":"北海道","prefecture_kana":"ホッカイドウ","city":"網走市","city_kana":"アバシリシ","town":"北十二条西","town_kana":"キタ12ジョウニシ","prefecture_code":1},"0084":{"zip_code":"0930084","prefecture":"北海道","prefecture_kana":"ホッカイドウ","city":"網走市","city_kana":"アバシリシ","town":"向陽ケ丘","town_kana":"コウヨウガオカ","prefecture_code":1},"0134":{"zip_code":"0930134","prefecture":"北海道","prefecture_kana":"ホッカイドウ","city":"網走市","city_kana":"アバシリシ","town":"越歳","town_kana":"コシトシ","prefecture_code":1},"0035":{"zip_code":"0930035","prefecture":"北海道","prefecture_kana":"ホッカイドウ","city":"網走市","city_kana":"アバシリシ","town":"駒場南","town_kana":"コマバミナミ","prefecture_code":1},"0033":{"zip_code":"0930033","prefecture":"北海道","prefecture_kana":"ホッカイドウ","city":"網走市","city_kana":"アバシリシ","town":"駒場北","town_kana":"コマバキタ","prefecture_code":1},"0088":{"zip_code":"0930088","prefecture":"北海道","prefecture_kana":"ホッカイドウ","city":"網走市","city_kana":"アバシリシ","town":"三眺","town_kana":"サンチョウ","prefecture_code":1},"0042":{"zip_code":"0930042","prefecture":"北海道","prefecture_kana":"ホッカイドウ","city":"網走市","city_kana":"アバシリシ","town":"潮見","town_kana":"シオミ","prefecture_code":1},"0046":{"zip_code":"0930046","prefecture":"北海道","prefecture_kana":"ホッカイドウ","city":"網走市","city_kana":"アバシリシ","town":"新町","town_kana":"シンマチ","prefecture_code":1},"0031":{"zip_code":"0930031","prefecture":"北海道","prefecture_kana":"ホッカイドウ","city":"網走市","city_kana":"アバシリシ","town":"台町","town_kana":"ダイマチ","prefecture_code":1},"0034":{"zip_code":"0930034","prefecture":"北海道","prefecture_kana":"ホッカイドウ","city":"網走市","city_kana":"アバシリシ","town":"つくしケ丘","town_kana":"ツクシガオカ","prefecture_code":1},"0044":{"zip_code":"0930044","prefecture":"北海道","prefecture_kana":"ホッカイドウ","city":"網走市","city_kana":"アバシリシ","town":"天都山","town_kana":"テントザン","prefecture_code":1},"0043":{"zip_code":"0930043","prefecture":"北海道","prefecture_kana":"ホッカイドウ","city":"網走市","city_kana":"アバシリシ","town":"錦町","town_kana":"ニシキマチ","prefecture_code":1},"0241":{"zip_code":"0930241","prefecture":"北海道","prefecture_kana":"ホッカイドウ","city":"網走市","city_kana":"アバシリシ","town":"能取","town_kana":"ノトリ","prefecture_code":1},"0131":{"zip_code":"0930131","prefecture":"北海道","prefecture_kana":"ホッカイドウ","city":"網走市","city_kana":"アバシリシ","town":"能取港町","town_kana":"ノトロミナトマチ","prefecture_code":1},"0086":{"zip_code":"0930086","prefecture":"北海道","prefecture_kana":"ホッカイドウ","city":"網走市","city_kana":"アバシリシ","town":"二ツ岩","town_kana":"フタツイワ","prefecture_code":1},"0132":{"zip_code":"0930132","prefecture":"北海道","prefecture_kana":"ホッカイドウ","city":"網走市","city_kana":"アバシリシ","town":"二見ケ岡","town_kana":"フタミガオカ","prefecture_code":1},"0090":{"zip_code":"0930090","prefecture":"北海道","prefecture_kana":"ホッカイドウ","city":"網走市","city_kana":"アバシリシ","town":"文化","town_kana":"ブンカ","prefecture_code":1},"0136":{"zip_code":"0930136","prefecture":"北海道","prefecture_kana":"ホッカイドウ","city":"網走市","city_kana":"アバシリシ","town":"平和","town_kana":"ヘイワ","prefecture_code":1},"0087":{"zip_code":"0930087","prefecture":"北海道","prefecture_kana":"ホッカイドウ","city":"網走市","city_kana":"アバシリシ","town":"美岬","town_kana":"ミサキ","prefecture_code":1},"0089":{"zip_code":"0930089","prefecture":"北海道","prefecture_kana":"ホッカイドウ","city":"網走市","city_kana":"アバシリシ","town":"緑町","town_kana":"ミドリマチ","prefecture_code":1},"0032":{"zip_code":"0930032","prefecture":"北海道","prefecture_kana":"ホッカイドウ","city":"網走市","city_kana":"アバシリシ","town":"港町","town_kana":"ミナトマチ","prefecture_code":1},"0001":{"zip_code":"0930001","prefecture":"北海道","prefecture_kana":"ホッカイドウ","city":"網走市","city_kana":"アバシリシ","town":"南一条東","town_kana":"ミナミ1ジョウヒガシ","prefecture_code":1},"0011":{"zip_code":"0930011","prefecture":"北海道","prefecture_kana":"ホッカイドウ","city":"網走市","city_kana":"アバシリシ","town":"南一条西","town_kana":"ミナミ1ジョウニシ","prefecture_code":1},"0002":{"zip_code":"0930002","prefecture":"北海道","prefecture_kana":"ホッカイドウ","city":"網走市","city_kana":"アバシリシ","town":"南二条東","town_kana":"ミナミ2ジョウヒガシ","prefecture_code":1},"0012":{"zip_code":"0930012","prefecture":"北海道","prefecture_kana":"ホッカイドウ","city":"網走市","city_kana":"アバシリシ","town":"南二条西","town_kana":"ミナミ2ジョウニシ","prefecture_code":1},"0003":{"zip_code":"0930003","prefecture":"北海道","prefecture_kana":"ホッカイドウ","city":"網走市","city_kana":"アバシリシ","town":"南三条東","town_kana":"ミナミ3ジョウヒガシ","prefecture_code":1},"0013":{"zip_code":"0930013","prefecture":"北海道","prefecture_kana":"ホッカイドウ","city":"網走市","city_kana":"アバシリシ","town":"南三条西","town_kana":"ミナミ3ジョウニシ","prefecture_code":1},"0004":{"zip_code":"0930004","prefecture":"北海道","prefecture_kana":"ホッカイドウ","city":"網走市","city_kana":"アバシリシ","town":"南四条東","town_kana":"ミナミ4ジョウヒガシ","prefecture_code":1},"0014":{"zip_code":"0930014","prefecture":"北海道","prefecture_kana":"ホッカイドウ","city":"網走市","city_kana":"アバシリシ","town":"南四条西","town_kana":"ミナミ4ジョウニシ","prefecture_code":1},"0005":{"zip_code":"0930005","prefecture":"北海道","prefecture_kana":"ホッカイドウ","city":"網走市","city_kana":"アバシリシ","town":"南五条東","town_kana":"ミナミ5ジョウヒガシ","prefecture_code":1},"0015":{"zip_code":"0930015","prefecture":"北海道","prefecture_kana":"ホッカイドウ","city":"網走市","city_kana":"アバシリシ","town":"南五条西","town_kana":"ミナミ5ジョウニシ","prefecture_code":1},"0006":{"zip_code":"0930006","prefecture":"北海道","prefecture_kana":"ホッカイドウ","city":"網走市","city_kana":"アバシリシ","town":"南六条東","town_kana":"ミナミ6ジョウヒガシ","prefecture_code":1},"0016":{"zip_code":"0930016","prefecture":"北海道","prefecture_kana":"ホッカイドウ","city":"網走市","city_kana":"アバシリシ","town":"南六条西","town_kana":"ミナミ6ジョウニシ","prefecture_code":1},"0007":{"zip_code":"0930007","prefecture":"北海道","prefecture_kana":"ホッカイドウ","city":"網走市","city_kana":"アバシリシ","town":"南七条東","town_kana":"ミナミ7ジョウヒガシ","prefecture_code":1},"0017":{"zip_code":"0930017","prefecture":"北海道","prefecture_kana":"ホッカイドウ","city":"網走市","city_kana":"アバシリシ","town":"南七条西","town_kana":"ミナミ7ジョウニシ","prefecture_code":1},"0008":{"zip_code":"0930008","prefecture":"北海道","prefecture_kana":"ホッカイドウ","city":"網走市","city_kana":"アバシリシ","town":"南八条東","town_kana":"ミナミ8ジョウヒガシ","prefecture_code":1},"0018":{"zip_code":"0930018","prefecture":"北海道","prefecture_kana":"ホッカイドウ","city":"網走市","city_kana":"アバシリシ","town":"南八条西","town_kana":"ミナミ8ジョウニシ","prefecture_code":1},"0009":{"zip_code":"0930009","prefecture":"北海道","prefecture_kana":"ホッカイドウ","city":"網走市","city_kana":"アバシリシ","town":"南九条東","town_kana":"ミナミ9ジョウヒガシ","prefecture_code":1},"0019":{"zip_code":"0930019","prefecture":"北海道","prefecture_kana":"ホッカイドウ","city":"網走市","city_kana":"アバシリシ","town":"南九条西","town_kana":"ミナミ9ジョウニシ","prefecture_code":1},"0010":{"zip_code":"0930010","prefecture":"北海道","prefecture_kana":"ホッカイドウ","city":"網走市","city_kana":"アバシリシ","town":"南十条東","town_kana":"ミナミ10ジョウヒガシ","prefecture_code":1},"0020":{"zip_code":"0930020","prefecture":"北海道","prefecture_kana":"ホッカイドウ","city":"網走市","city_kana":"アバシリシ","town":"南十条西","town_kana":"ミナミ10ジョウニシ","prefecture_code":1},"0021":{"zip_code":"0930021","prefecture":"北海道","prefecture_kana":"ホッカイドウ","city":"網走市","city_kana":"アバシリシ","town":"南十一条西","town_kana":"ミナミ11ジョウニシ","prefecture_code":1},"0022":{"zip_code":"0930022","prefecture":"北海道","prefecture_kana":"ホッカイドウ","city":"網走市","city_kana":"アバシリシ","town":"南十二条西","town_kana":"ミナミ12ジョウニシ","prefecture_code":1},"0023":{"zip_code":"0930023","prefecture":"北海道","prefecture_kana":"ホッカイドウ","city":"網走市","city_kana":"アバシリシ","town":"南十三条西","town_kana":"ミナミ13ジョウニシ","prefecture_code":1},"0024":{"zip_code":"0930024","prefecture":"北海道","prefecture_kana":"ホッカイドウ","city":"網走市","city_kana":"アバシリシ","town":"南十四条西","town_kana":"ミナミ14ジョウニシ","prefecture_code":1},"0085":{"zip_code":"0930085","prefecture":"北海道","prefecture_kana":"ホッカイドウ","city":"網走市","city_kana":"アバシリシ","town":"明治","town_kana":"メイジ","prefecture_code":1},"0500":{"zip_code":"0930500","prefecture":"北海道","prefecture_kana":"ホッカイドウ","city":"常呂郡佐呂間町","city_kana":"トコログンサロマチョウ","town":"以下に掲載がない場合","town_kana":"イカニケイサイガナイバアイ","prefecture_code":1},"0502":{"zip_code":"0930502","prefecture":"北海道","prefecture_kana":"ホッカイドウ","city":"常呂郡佐呂間町","city_kana":"トコログンサロマチョウ","town":"永代町","town_kana":"エイダイチョウ","prefecture_code":1},"0505":{"zip_code":"0930505","prefecture":"北海道","prefecture_kana":"ホッカイドウ","city":"常呂郡佐呂間町","city_kana":"トコログンサロマチョウ","town":"北","town_kana":"キタ","prefecture_code":1},"0503":{"zip_code":"0930503","prefecture":"北海道","prefecture_kana":"ホッカイドウ","city":"常呂郡佐呂間町","city_kana":"トコログンサロマチョウ","town":"幸町","town_kana":"サイワイチョウ","prefecture_code":1},"0508":{"zip_code":"0930508","prefecture":"北海道","prefecture_kana":"ホッカイドウ","city":"常呂郡佐呂間町","city_kana":"トコログンサロマチョウ","town":"知来","town_kana":"チライ","prefecture_code":1},"0506":{"zip_code":"0930506","prefecture":"北海道","prefecture_kana":"ホッカイドウ","city":"常呂郡佐呂間町","city_kana":"トコログンサロマチョウ","town":"富武士","town_kana":"トップシ","prefecture_code":1},"0421":{"zip_code":"0930421","prefecture":"北海道","prefecture_kana":"ホッカイドウ","city":"常呂郡佐呂間町","city_kana":"トコログンサロマチョウ","town":"浪速","town_kana":"ナニワ","prefecture_code":1},"0424":{"zip_code":"0930424","prefecture":"北海道","prefecture_kana":"ホッカイドウ","city":"常呂郡佐呂間町","city_kana":"トコログンサロマチョウ","town":"仁倉","town_kana":"ニクラ","prefecture_code":1},"0504":{"zip_code":"0930504","prefecture":"北海道","prefecture_kana":"ホッカイドウ","city":"常呂郡佐呂間町","city_kana":"トコログンサロマチョウ","town":"西富","town_kana":"ニシトミ","prefecture_code":1},"0423":{"zip_code":"0930423","prefecture":"北海道","prefecture_kana":"ホッカイドウ","city":"常呂郡佐呂間町","city_kana":"トコログンサロマチョウ","town":"浜佐呂間","town_kana":"ハマサロマ","prefecture_code":1},"0507":{"zip_code":"0930507","prefecture":"北海道","prefecture_kana":"ホッカイドウ","city":"常呂郡佐呂間町","city_kana":"トコログンサロマチョウ","town":"東","town_kana":"ヒガシ","prefecture_code":1},"0422":{"zip_code":"0930422","prefecture":"北海道","prefecture_kana":"ホッカイドウ","city":"常呂郡佐呂間町","city_kana":"トコログンサロマチョウ","town":"幌岩","town_kana":"ホロイワ","prefecture_code":1},"0501":{"zip_code":"0930501","prefecture":"北海道","prefecture_kana":"ホッカイドウ","city":"常呂郡佐呂間町","city_kana":"トコログンサロマチョウ","town":"宮前町","town_kana":"ミヤマエチョウ","prefecture_code":1},"0532":{"zip_code":"0930532","prefecture":"北海道","prefecture_kana":"ホッカイドウ","city":"常呂郡佐呂間町","city_kana":"トコログンサロマチョウ","town":"若里","town_kana":"ワカサト","prefecture_code":1},"0732":{"zip_code":"0930732","prefecture":"北海道","prefecture_kana":"ホッカイドウ","city":"紋別郡湧別町","city_kana":"モンベツグンユウベツチョウ","town":"上芭露","town_kana":"カミバロウ","prefecture_code":1},"0651":{"zip_code":"0930651","prefecture":"北海道","prefecture_kana":"ホッカイドウ","city":"紋別郡湧別町","city_kana":"モンベツグンユウベツチョウ","town":"計呂地","town_kana":"ケロチ","prefecture_code":1},"0652":{"zip_code":"0930652","prefecture":"北海道","prefecture_kana":"ホッカイドウ","city":"紋別郡湧別町","city_kana":"モンベツグンユウベツチョウ","town":"志撫子","town_kana":"シブシ","prefecture_code":1},"0733":{"zip_code":"0930733","prefecture":"北海道","prefecture_kana":"ホッカイドウ","city":"紋別郡湧別町","city_kana":"モンベツグンユウベツチョウ","town":"西芭露","town_kana":"ニシバロウ","prefecture_code":1},"0731":{"zip_code":"0930731","prefecture":"北海道","prefecture_kana":"ホッカイドウ","city":"紋別郡湧別町","city_kana":"モンベツグンユウベツチョウ","town":"芭露","town_kana":"バロウ","prefecture_code":1},"0734":{"zip_code":"0930734","prefecture":"北海道","prefecture_kana":"ホッカイドウ","city":"紋別郡湧別町","city_kana":"モンベツグンユウベツチョウ","town":"東芭露","town_kana":"ヒガシバロウ","prefecture_code":1},"0735":{"zip_code":"0930735","prefecture":"北海道","prefecture_kana":"ホッカイドウ","city":"紋別郡湧別町","city_kana":"モンベツグンユウベツチョウ","town":"福島（５３６番地）","town_kana":"フクシマ(536バンチ)","prefecture_code":1}}