{"0000":{"zip_code":"0940000","prefecture":"北海道","prefecture_kana":"ホッカイドウ","city":"紋別市","city_kana":"モンベツシ","town":"","town_kana":"","prefecture_code":1},"0021":{"zip_code":"0940021","prefecture":"北海道","prefecture_kana":"ホッカイドウ","city":"紋別市","city_kana":"モンベツシ","town":"大山町","town_kana":"オオヤマチョウ","prefecture_code":1},"0007":{"zip_code":"0940007","prefecture":"北海道","prefecture_kana":"ホッカイドウ","city":"紋別市","city_kana":"モンベツシ","town":"落石町","town_kana":"オチイシチョウ","prefecture_code":1},"0031":{"zip_code":"0940031","prefecture":"北海道","prefecture_kana":"ホッカイドウ","city":"紋別市","city_kana":"モンベツシ","town":"海洋公園","town_kana":"カイヨウコウエン","prefecture_code":1},"0027":{"zip_code":"0940027","prefecture":"北海道","prefecture_kana":"ホッカイドウ","city":"紋別市","city_kana":"モンベツシ","town":"上鴻之舞","town_kana":"カミコウノマイ","prefecture_code":1},"0025":{"zip_code":"0940025","prefecture":"北海道","prefecture_kana":"ホッカイドウ","city":"紋別市","city_kana":"モンベツシ","town":"上藻別","town_kana":"カミモベツ","prefecture_code":1},"0001":{"zip_code":"0940001","prefecture":"北海道","prefecture_kana":"ホッカイドウ","city":"紋別市","city_kana":"モンベツシ","town":"北浜町","town_kana":"キタハマチョウ","prefecture_code":1},"0026":{"zip_code":"0940026","prefecture":"北海道","prefecture_kana":"ホッカイドウ","city":"紋別市","city_kana":"モンベツシ","town":"鴻之舞","town_kana":"コウノマイ","prefecture_code":1},"0005":{"zip_code":"0940005","prefecture":"北海道","prefecture_kana":"ホッカイドウ","city":"紋別市","city_kana":"モンベツシ","town":"幸町","town_kana":"サイワイチョウ","prefecture_code":1},"0006":{"zip_code":"0940006","prefecture":"北海道","prefecture_kana":"ホッカイドウ","city":"紋別市","city_kana":"モンベツシ","town":"潮見町","town_kana":"シオミチョウ","prefecture_code":1},"0012":{"zip_code":"0940012","prefecture":"北海道","prefecture_kana":"ホッカイドウ","city":"紋別市","city_kana":"モンベツシ","town":"新港町","town_kana":"シンコウチョウ","prefecture_code":1},"0022":{"zip_code":"0940022","prefecture":"北海道","prefecture_kana":"ホッカイドウ","city":"紋別市","city_kana":"モンベツシ","town":"新生","town_kana":"シンセイ","prefecture_code":1},"0015":{"zip_code":"0940015","prefecture":"北海道","prefecture_kana":"ホッカイドウ","city":"紋別市","city_kana":"モンベツシ","town":"花園町","town_kana":"ハナゾノチョウ","prefecture_code":1},"0003":{"zip_code":"0940003","prefecture":"北海道","prefecture_kana":"ホッカイドウ","city":"紋別市","city_kana":"モンベツシ","town":"弁天町","town_kana":"ベンテンチョウ","prefecture_code":1},"0004":{"zip_code":"0940004","prefecture":"北海道","prefecture_kana":"ホッカイドウ","city":"紋別市","city_kana":"モンベツシ","town":"本町","town_kana":"ホンチョウ","prefecture_code":1},"0002":{"zip_code":"0940002","prefecture":"北海道","prefecture_kana":"ホッカイドウ","city":"紋別市","city_kana":"モンベツシ","town":"真砂町","town_kana":"マサゴチョウ","prefecture_code":1},"0014":{"zip_code":"0940014","prefecture":"北海道","prefecture_kana":"ホッカイドウ","city":"紋別市","city_kana":"モンベツシ","town":"緑町","town_kana":"ミドリチョウ","prefecture_code":1},"0011":{"zip_code":"0940011","prefecture":"北海道","prefecture_kana":"ホッカイドウ","city":"紋別市","city_kana":"モンベツシ","town":"港町","town_kana":"ミナトチョウ","prefecture_code":1},"0013":{"zip_code":"0940013","prefecture":"北海道","prefecture_kana":"ホッカイドウ","city":"紋別市","city_kana":"モンベツシ","town":"南が丘町","town_kana":"ミナミガオカチョウ","prefecture_code":1},"0023":{"zip_code":"0940023","prefecture":"北海道","prefecture_kana":"ホッカイドウ","city":"紋別市","city_kana":"モンベツシ","town":"元紋別","town_kana":"モトモンベツ","prefecture_code":1},"0024":{"zip_code":"0940024","prefecture":"北海道","prefecture_kana":"ホッカイドウ","city":"紋別市","city_kana":"モンベツシ","town":"藻別","town_kana":"モベツ","prefecture_code":1}}