{"0000":{"zip_code":"0950000","prefecture":"北海道","prefecture_kana":"ホッカイドウ","city":"士別市","city_kana":"シベツシ","town":"以下に掲載がない場合","town_kana":"イカニケイサイガナイバアイ","prefecture_code":1},"0403":{"zip_code":"0950403","prefecture":"北海道","prefecture_kana":"ホッカイドウ","city":"士別市","city_kana":"シベツシ","town":"朝日町岩尾内","town_kana":"アサヒチョウイワオナイ","prefecture_code":1},"0405":{"zip_code":"0950405","prefecture":"北海道","prefecture_kana":"ホッカイドウ","city":"士別市","city_kana":"シベツシ","town":"朝日町三栄","town_kana":"アサヒチョウサンエイ","prefecture_code":1},"0401":{"zip_code":"0950401","prefecture":"北海道","prefecture_kana":"ホッカイドウ","city":"士別市","city_kana":"シベツシ","town":"朝日町中央","town_kana":"アサヒチョウチュウオウ","prefecture_code":1},"0402":{"zip_code":"0950402","prefecture":"北海道","prefecture_kana":"ホッカイドウ","city":"士別市","city_kana":"シベツシ","town":"朝日町登和里","town_kana":"アサヒチョウトワリ","prefecture_code":1},"0406":{"zip_code":"0950406","prefecture":"北海道","prefecture_kana":"ホッカイドウ","city":"士別市","city_kana":"シベツシ","town":"朝日町南朝日","town_kana":"アサヒチョウミナミアサヒ","prefecture_code":1},"0404":{"zip_code":"0950404","prefecture":"北海道","prefecture_kana":"ホッカイドウ","city":"士別市","city_kana":"シベツシ","town":"朝日町茂志利","town_kana":"アサヒチョウモシリ","prefecture_code":1},"0019":{"zip_code":"0950019","prefecture":"北海道","prefecture_kana":"ホッカイドウ","city":"士別市","city_kana":"シベツシ","town":"大通東","town_kana":"オオドオリヒガシ","prefecture_code":1},"0029":{"zip_code":"0950029","prefecture":"北海道","prefecture_kana":"ホッカイドウ","city":"士別市","city_kana":"シベツシ","town":"大通西","town_kana":"オオドオリニシ","prefecture_code":1},"0039":{"zip_code":"0950039","prefecture":"北海道","prefecture_kana":"ホッカイドウ","city":"士別市","city_kana":"シベツシ","town":"大通北","town_kana":"オオドオリキタ","prefecture_code":1},"0181":{"zip_code":"0950181","prefecture":"北海道","prefecture_kana":"ホッカイドウ","city":"士別市","city_kana":"シベツシ","town":"温根別町","town_kana":"オンネベツチョウ","prefecture_code":1},"0182":{"zip_code":"0950182","prefecture":"北海道","prefecture_kana":"ホッカイドウ","city":"士別市","city_kana":"シベツシ","town":"温根別町伊文","town_kana":"オンネベツチョウイブン","prefecture_code":1},"0183":{"zip_code":"0950183","prefecture":"北海道","prefecture_kana":"ホッカイドウ","city":"士別市","city_kana":"シベツシ","town":"温根別町北静川","town_kana":"オンネベツチョウキタシズカワ","prefecture_code":1},"0052":{"zip_code":"0950052","prefecture":"北海道","prefecture_kana":"ホッカイドウ","city":"士別市","city_kana":"シベツシ","town":"学田","town_kana":"ガクデン","prefecture_code":1},"0371":{"zip_code":"0950371","prefecture":"北海道","prefecture_kana":"ホッカイドウ","city":"士別市","city_kana":"シベツシ","town":"上士別町","town_kana":"カミシベツチョウ","prefecture_code":1},"0064":{"zip_code":"0950064","prefecture":"北海道","prefecture_kana":"ホッカイドウ","city":"士別市","city_kana":"シベツシ","town":"川西町","town_kana":"カワニシチョウ","prefecture_code":1},"0051":{"zip_code":"0950051","prefecture":"北海道","prefecture_kana":"ホッカイドウ","city":"士別市","city_kana":"シベツシ","town":"北町","town_kana":"キタマチ","prefecture_code":1},"0061":{"zip_code":"0950061","prefecture":"北海道","prefecture_kana":"ホッカイドウ","city":"士別市","city_kana":"シベツシ","town":"下士別町","town_kana":"シモシベツチョウ","prefecture_code":1},"0053":{"zip_code":"0950053","prefecture":"北海道","prefecture_kana":"ホッカイドウ","city":"士別市","city_kana":"シベツシ","town":"新学田","town_kana":"シンガクデン","prefecture_code":1},"0043":{"zip_code":"0950043","prefecture":"北海道","prefecture_kana":"ホッカイドウ","city":"士別市","city_kana":"シベツシ","town":"九十九町","town_kana":"ツクモチョウ","prefecture_code":1},"0063":{"zip_code":"0950063","prefecture":"北海道","prefecture_kana":"ホッカイドウ","city":"士別市","city_kana":"シベツシ","town":"中士別町","town_kana":"ナカシベツチョウ","prefecture_code":1},"0056":{"zip_code":"0950056","prefecture":"北海道","prefecture_kana":"ホッカイドウ","city":"士別市","city_kana":"シベツシ","town":"西士別町","town_kana":"ニシシベツチョウ","prefecture_code":1},"0021":{"zip_code":"0950021","prefecture":"北海道","prefecture_kana":"ホッカイドウ","city":"士別市","city_kana":"シベツシ","town":"西一条","town_kana":"ニシ1ジョウ","prefecture_code":1},"0022":{"zip_code":"0950022","prefecture":"北海道","prefecture_kana":"ホッカイドウ","city":"士別市","city_kana":"シベツシ","town":"西二条","town_kana":"ニシ2ジョウ","prefecture_code":1},"0023":{"zip_code":"0950023","prefecture":"北海道","prefecture_kana":"ホッカイドウ","city":"士別市","city_kana":"シベツシ","town":"西三条","town_kana":"ニシ3ジョウ","prefecture_code":1},"0024":{"zip_code":"0950024","prefecture":"北海道","prefecture_kana":"ホッカイドウ","city":"士別市","city_kana":"シベツシ","town":"西四条","town_kana":"ニシ4ジョウ","prefecture_code":1},"0025":{"zip_code":"0950025","prefecture":"北海道","prefecture_kana":"ホッカイドウ","city":"士別市","city_kana":"シベツシ","town":"西五条","town_kana":"ニシ5ジョウ","prefecture_code":1},"0031":{"zip_code":"0950031","prefecture":"北海道","prefecture_kana":"ホッカイドウ","city":"士別市","city_kana":"シベツシ","town":"西一条北","town_kana":"ニシ1ジョウキタ","prefecture_code":1},"0032":{"zip_code":"0950032","prefecture":"北海道","prefecture_kana":"ホッカイドウ","city":"士別市","city_kana":"シベツシ","town":"西二条北","town_kana":"ニシ2ジョウキタ","prefecture_code":1},"0033":{"zip_code":"0950033","prefecture":"北海道","prefecture_kana":"ホッカイドウ","city":"士別市","city_kana":"シベツシ","town":"西三条北","town_kana":"ニシ3ジョウキタ","prefecture_code":1},"0034":{"zip_code":"0950034","prefecture":"北海道","prefecture_kana":"ホッカイドウ","city":"士別市","city_kana":"シベツシ","town":"西四条北","town_kana":"ニシ4ジョウキタ","prefecture_code":1},"0035":{"zip_code":"0950035","prefecture":"北海道","prefecture_kana":"ホッカイドウ","city":"士別市","city_kana":"シベツシ","town":"西五条北","town_kana":"ニシ5ジョウキタ","prefecture_code":1},"0045":{"zip_code":"0950045","prefecture":"北海道","prefecture_kana":"ホッカイドウ","city":"士別市","city_kana":"シベツシ","town":"東丘","town_kana":"ヒガシオカ","prefecture_code":1},"0044":{"zip_code":"0950044","prefecture":"北海道","prefecture_kana":"ホッカイドウ","city":"士別市","city_kana":"シベツシ","town":"東山町","town_kana":"ヒガシヤマチョウ","prefecture_code":1},"0011":{"zip_code":"0950011","prefecture":"北海道","prefecture_kana":"ホッカイドウ","city":"士別市","city_kana":"シベツシ","town":"東一条","town_kana":"ヒガシ1ジョウ","prefecture_code":1},"0012":{"zip_code":"0950012","prefecture":"北海道","prefecture_kana":"ホッカイドウ","city":"士別市","city_kana":"シベツシ","town":"東二条","town_kana":"ヒガシ2ジョウ","prefecture_code":1},"0013":{"zip_code":"0950013","prefecture":"北海道","prefecture_kana":"ホッカイドウ","city":"士別市","city_kana":"シベツシ","town":"東三条","town_kana":"ヒガシ3ジョウ","prefecture_code":1},"0014":{"zip_code":"0950014","prefecture":"北海道","prefecture_kana":"ホッカイドウ","city":"士別市","city_kana":"シベツシ","town":"東四条","town_kana":"ヒガシ4ジョウ","prefecture_code":1},"0015":{"zip_code":"0950015","prefecture":"北海道","prefecture_kana":"ホッカイドウ","city":"士別市","city_kana":"シベツシ","town":"東五条","town_kana":"ヒガシ5ジョウ","prefecture_code":1},"0016":{"zip_code":"0950016","prefecture":"北海道","prefecture_kana":"ホッカイドウ","city":"士別市","city_kana":"シベツシ","town":"東六条","town_kana":"ヒガシ6ジョウ","prefecture_code":1},"0017":{"zip_code":"0950017","prefecture":"北海道","prefecture_kana":"ホッカイドウ","city":"士別市","city_kana":"シベツシ","town":"東七条","town_kana":"ヒガシ7ジョウ","prefecture_code":1},"0018":{"zip_code":"0950018","prefecture":"北海道","prefecture_kana":"ホッカイドウ","city":"士別市","city_kana":"シベツシ","town":"東八条","town_kana":"ヒガシ8ジョウ","prefecture_code":1},"0041":{"zip_code":"0950041","prefecture":"北海道","prefecture_kana":"ホッカイドウ","city":"士別市","city_kana":"シベツシ","town":"東九条","town_kana":"ヒガシ9ジョウ","prefecture_code":1},"0042":{"zip_code":"0950042","prefecture":"北海道","prefecture_kana":"ホッカイドウ","city":"士別市","city_kana":"シベツシ","town":"東十条","town_kana":"ヒガシ10ジョウ","prefecture_code":1},"0048":{"zip_code":"0950048","prefecture":"北海道","prefecture_kana":"ホッカイドウ","city":"士別市","city_kana":"シベツシ","town":"東十一条","town_kana":"ヒガシ11ジョウ","prefecture_code":1},"0001":{"zip_code":"0950001","prefecture":"北海道","prefecture_kana":"ホッカイドウ","city":"士別市","city_kana":"シベツシ","town":"東一条北","town_kana":"ヒガシ1ジョウキタ","prefecture_code":1},"0002":{"zip_code":"0950002","prefecture":"北海道","prefecture_kana":"ホッカイドウ","city":"士別市","city_kana":"シベツシ","town":"東二条北","town_kana":"ヒガシ2ジョウキタ","prefecture_code":1},"0003":{"zip_code":"0950003","prefecture":"北海道","prefecture_kana":"ホッカイドウ","city":"士別市","city_kana":"シベツシ","town":"東三条北","town_kana":"ヒガシ3ジョウキタ","prefecture_code":1},"0004":{"zip_code":"0950004","prefecture":"北海道","prefecture_kana":"ホッカイドウ","city":"士別市","city_kana":"シベツシ","town":"東四条北","town_kana":"ヒガシ4ジョウキタ","prefecture_code":1},"0005":{"zip_code":"0950005","prefecture":"北海道","prefecture_kana":"ホッカイドウ","city":"士別市","city_kana":"シベツシ","town":"東五条北","town_kana":"ヒガシ5ジョウキタ","prefecture_code":1},"0006":{"zip_code":"0950006","prefecture":"北海道","prefecture_kana":"ホッカイドウ","city":"士別市","city_kana":"シベツシ","town":"東六条北","town_kana":"ヒガシ6ジョウキタ","prefecture_code":1},"0007":{"zip_code":"0950007","prefecture":"北海道","prefecture_kana":"ホッカイドウ","city":"士別市","city_kana":"シベツシ","town":"東七条北","town_kana":"ヒガシ7ジョウキタ","prefecture_code":1},"0008":{"zip_code":"0950008","prefecture":"北海道","prefecture_kana":"ホッカイドウ","city":"士別市","city_kana":"シベツシ","town":"東八条北","town_kana":"ヒガシ8ジョウキタ","prefecture_code":1},"0054":{"zip_code":"0950054","prefecture":"北海道","prefecture_kana":"ホッカイドウ","city":"士別市","city_kana":"シベツシ","town":"不動町","town_kana":"フドウマチ","prefecture_code":1},"0062":{"zip_code":"0950062","prefecture":"北海道","prefecture_kana":"ホッカイドウ","city":"士別市","city_kana":"シベツシ","town":"武徳町","town_kana":"ブトクチョウ","prefecture_code":1},"0055":{"zip_code":"0950055","prefecture":"北海道","prefecture_kana":"ホッカイドウ","city":"士別市","city_kana":"シベツシ","town":"南士別町","town_kana":"ミナミシベツチョウ","prefecture_code":1},"0046":{"zip_code":"0950046","prefecture":"北海道","prefecture_kana":"ホッカイドウ","city":"士別市","city_kana":"シベツシ","town":"南町東","town_kana":"ミナミマチヒガシ","prefecture_code":1},"0047":{"zip_code":"0950047","prefecture":"北海道","prefecture_kana":"ホッカイドウ","city":"士別市","city_kana":"シベツシ","town":"南町西","town_kana":"ミナミマチニシ","prefecture_code":1}}