{"0000":{"zip_code":"0970000","prefecture":"北海道","prefecture_kana":"ホッカイドウ","city":"稚内市","city_kana":"ワッカナイシ","town":"","town_kana":"","prefecture_code":1},"0015":{"zip_code":"0970015","prefecture":"北海道","prefecture_kana":"ホッカイドウ","city":"稚内市","city_kana":"ワッカナイシ","town":"朝日","town_kana":"アサヒ","prefecture_code":1},"0025":{"zip_code":"0970025","prefecture":"北海道","prefecture_kana":"ホッカイドウ","city":"稚内市","city_kana":"ワッカナイシ","town":"恵比須","town_kana":"エビス","prefecture_code":1},"0023":{"zip_code":"0970023","prefecture":"北海道","prefecture_kana":"ホッカイドウ","city":"稚内市","city_kana":"ワッカナイシ","town":"開運","town_kana":"カイウン","prefecture_code":1},"0003":{"zip_code":"0970003","prefecture":"北海道","prefecture_kana":"ホッカイドウ","city":"稚内市","city_kana":"ワッカナイシ","town":"こまどり","town_kana":"コマドリ","prefecture_code":1},"0017":{"zip_code":"0970017","prefecture":"北海道","prefecture_kana":"ホッカイドウ","city":"稚内市","city_kana":"ワッカナイシ","town":"栄","town_kana":"サカエ","prefecture_code":1},"0002":{"zip_code":"0970002","prefecture":"北海道","prefecture_kana":"ホッカイドウ","city":"稚内市","city_kana":"ワッカナイシ","town":"潮見","town_kana":"シオミ","prefecture_code":1},"0014":{"zip_code":"0970014","prefecture":"北海道","prefecture_kana":"ホッカイドウ","city":"稚内市","city_kana":"ワッカナイシ","town":"新光町","town_kana":"シンコウチョウ","prefecture_code":1},"0007":{"zip_code":"0970007","prefecture":"北海道","prefecture_kana":"ホッカイドウ","city":"稚内市","city_kana":"ワッカナイシ","town":"新末広","town_kana":"シンスエヒロ","prefecture_code":1},"0006":{"zip_code":"0970006","prefecture":"北海道","prefecture_kana":"ホッカイドウ","city":"稚内市","city_kana":"ワッカナイシ","town":"新港町","town_kana":"シンミナトチョウ","prefecture_code":1},"0001":{"zip_code":"0970001","prefecture":"北海道","prefecture_kana":"ホッカイドウ","city":"稚内市","city_kana":"ワッカナイシ","town":"末広","town_kana":"スエヒロ","prefecture_code":1},"0005":{"zip_code":"0970005","prefecture":"北海道","prefecture_kana":"ホッカイドウ","city":"稚内市","city_kana":"ワッカナイシ","town":"大黒","town_kana":"ダイコク","prefecture_code":1},"0022":{"zip_code":"0970022","prefecture":"北海道","prefecture_kana":"ホッカイドウ","city":"稚内市","city_kana":"ワッカナイシ","town":"中央","town_kana":"チュウオウ","prefecture_code":1},"0012":{"zip_code":"0970012","prefecture":"北海道","prefecture_kana":"ホッカイドウ","city":"稚内市","city_kana":"ワッカナイシ","town":"富岡","town_kana":"トミオカ","prefecture_code":1},"0037":{"zip_code":"0970037","prefecture":"北海道","prefecture_kana":"ホッカイドウ","city":"稚内市","city_kana":"ワッカナイシ","town":"西浜","town_kana":"ニシハマ","prefecture_code":1},"0026":{"zip_code":"0970026","prefecture":"北海道","prefecture_kana":"ホッカイドウ","city":"稚内市","city_kana":"ワッカナイシ","town":"ノシャップ","town_kana":"ノシャップ","prefecture_code":1},"0016":{"zip_code":"0970016","prefecture":"北海道","prefecture_kana":"ホッカイドウ","city":"稚内市","city_kana":"ワッカナイシ","town":"萩見","town_kana":"ハギミ","prefecture_code":1},"0036":{"zip_code":"0970036","prefecture":"北海道","prefecture_kana":"ホッカイドウ","city":"稚内市","city_kana":"ワッカナイシ","town":"抜海村クトネベツ","town_kana":"バッカイムラクトネベツ","prefecture_code":1},"0035":{"zip_code":"0970035","prefecture":"北海道","prefecture_kana":"ホッカイドウ","city":"稚内市","city_kana":"ワッカナイシ","town":"抜海村","town_kana":"バッカイムラ","prefecture_code":1},"0011":{"zip_code":"0970011","prefecture":"北海道","prefecture_kana":"ホッカイドウ","city":"稚内市","city_kana":"ワッカナイシ","town":"はまなす","town_kana":"ハマナス","prefecture_code":1},"0027":{"zip_code":"0970027","prefecture":"北海道","prefecture_kana":"ホッカイドウ","city":"稚内市","city_kana":"ワッカナイシ","town":"富士見","town_kana":"フジミ","prefecture_code":1},"0024":{"zip_code":"0970024","prefecture":"北海道","prefecture_kana":"ホッカイドウ","city":"稚内市","city_kana":"ワッカナイシ","town":"宝来","town_kana":"ホウライ","prefecture_code":1},"0004":{"zip_code":"0970004","prefecture":"北海道","prefecture_kana":"ホッカイドウ","city":"稚内市","city_kana":"ワッカナイシ","town":"緑","town_kana":"ミドリ","prefecture_code":1},"0021":{"zip_code":"0970021","prefecture":"北海道","prefecture_kana":"ホッカイドウ","city":"稚内市","city_kana":"ワッカナイシ","town":"港","town_kana":"ミナト","prefecture_code":1},"0013":{"zip_code":"0970013","prefecture":"北海道","prefecture_kana":"ホッカイドウ","city":"稚内市","city_kana":"ワッカナイシ","town":"若葉台","town_kana":"ワカバダイ","prefecture_code":1},"1200":{"zip_code":"0971200","prefecture":"北海道","prefecture_kana":"ホッカイドウ","city":"礼文郡礼文町","city_kana":"レブングンレブンチョウ","town":"","town_kana":"","prefecture_code":1},"1201":{"zip_code":"0971201","prefecture":"北海道","prefecture_kana":"ホッカイドウ","city":"礼文郡礼文町","city_kana":"レブングンレブンチョウ","town":"香深村","town_kana":"カフカムラ","prefecture_code":1},"1202":{"zip_code":"0971202","prefecture":"北海道","prefecture_kana":"ホッカイドウ","city":"礼文郡礼文町","city_kana":"レブングンレブンチョウ","town":"船泊村ウヱンナイ","town_kana":"フナドマリムラウエンナイ","prefecture_code":1},"1111":{"zip_code":"0971111","prefecture":"北海道","prefecture_kana":"ホッカイドウ","city":"礼文郡礼文町","city_kana":"レブングンレブンチョウ","town":"船泊村","town_kana":"フナドマリムラ","prefecture_code":1},"0400":{"zip_code":"0970400","prefecture":"北海道","prefecture_kana":"ホッカイドウ","city":"利尻郡利尻町","city_kana":"リシリグンリシリチョウ","town":"","town_kana":"","prefecture_code":1},"0401":{"zip_code":"0970401","prefecture":"北海道","prefecture_kana":"ホッカイドウ","city":"利尻郡利尻町","city_kana":"リシリグンリシリチョウ","town":"沓形","town_kana":"クツガタ","prefecture_code":1},"0311":{"zip_code":"0970311","prefecture":"北海道","prefecture_kana":"ホッカイドウ","city":"利尻郡利尻町","city_kana":"リシリグンリシリチョウ","town":"仙法志","town_kana":"センポウシ","prefecture_code":1},"0100":{"zip_code":"0970100","prefecture":"北海道","prefecture_kana":"ホッカイドウ","city":"利尻郡利尻富士町","city_kana":"リシリグンリシリフジチョウ","town":"","town_kana":"","prefecture_code":1},"0101":{"zip_code":"0970101","prefecture":"北海道","prefecture_kana":"ホッカイドウ","city":"利尻郡利尻富士町","city_kana":"リシリグンリシリフジチョウ","town":"鴛泊","town_kana":"オシドマリ","prefecture_code":1},"0211":{"zip_code":"0970211","prefecture":"北海道","prefecture_kana":"ホッカイドウ","city":"利尻郡利尻富士町","city_kana":"リシリグンリシリフジチョウ","town":"鬼脇","town_kana":"オニワキ","prefecture_code":1}}