{"0871":{"zip_code":"0990871","prefecture":"北海道","prefecture_kana":"ホッカイドウ","city":"北見市","city_kana":"キタミシ","town":"相内町","town_kana":"アイノナイチョウ","prefecture_code":1},"1582":{"zip_code":"0991582","prefecture":"北海道","prefecture_kana":"ホッカイドウ","city":"北見市","city_kana":"キタミシ","town":"開成","town_kana":"カイセイ","prefecture_code":1},"0877":{"zip_code":"0990877","prefecture":"北海道","prefecture_kana":"ホッカイドウ","city":"北見市","city_kana":"キタミシ","town":"柏木","town_kana":"カシワギ","prefecture_code":1},"1585":{"zip_code":"0991585","prefecture":"北海道","prefecture_kana":"ホッカイドウ","city":"北見市","city_kana":"キタミシ","town":"上ところ","town_kana":"カミトコロ","prefecture_code":1},"1583":{"zip_code":"0991583","prefecture":"北海道","prefecture_kana":"ホッカイドウ","city":"北見市","city_kana":"キタミシ","town":"北上","town_kana":"キタガミ","prefecture_code":1},"0874":{"zip_code":"0990874","prefecture":"北海道","prefecture_kana":"ホッカイドウ","city":"北見市","city_kana":"キタミシ","town":"住吉","town_kana":"スミヨシ","prefecture_code":1},"2101":{"zip_code":"0992101","prefecture":"北海道","prefecture_kana":"ホッカイドウ","city":"北見市","city_kana":"キタミシ","town":"端野町一区","town_kana":"タンノチョウ1ク","prefecture_code":1},"2102":{"zip_code":"0992102","prefecture":"北海道","prefecture_kana":"ホッカイドウ","city":"北見市","city_kana":"キタミシ","town":"端野町二区","town_kana":"タンノチョウ2ク","prefecture_code":1},"2103":{"zip_code":"0992103","prefecture":"北海道","prefecture_kana":"ホッカイドウ","city":"北見市","city_kana":"キタミシ","town":"端野町三区","town_kana":"タンノチョウ3ク","prefecture_code":1},"2107":{"zip_code":"0992107","prefecture":"北海道","prefecture_kana":"ホッカイドウ","city":"北見市","city_kana":"キタミシ","town":"端野町川向","town_kana":"タンノチョウカワムカイ","prefecture_code":1},"2106":{"zip_code":"0992106","prefecture":"北海道","prefecture_kana":"ホッカイドウ","city":"北見市","city_kana":"キタミシ","town":"端野町協和","town_kana":"タンノチョウキョウワ","prefecture_code":1},"2104":{"zip_code":"0992104","prefecture":"北海道","prefecture_kana":"ホッカイドウ","city":"北見市","city_kana":"キタミシ","town":"端野町端野","town_kana":"タンノチョウタンノ","prefecture_code":1},"2105":{"zip_code":"0992105","prefecture":"北海道","prefecture_kana":"ホッカイドウ","city":"北見市","city_kana":"キタミシ","town":"端野町忠志","town_kana":"タンノチョウチュウシ","prefecture_code":1},"2112":{"zip_code":"0992112","prefecture":"北海道","prefecture_kana":"ホッカイドウ","city":"北見市","city_kana":"キタミシ","town":"端野町豊実","town_kana":"タンノチョウトヨミ","prefecture_code":1},"2231":{"zip_code":"0992231","prefecture":"北海道","prefecture_kana":"ホッカイドウ","city":"北見市","city_kana":"キタミシ","town":"端野町緋牛内","town_kana":"タンノチョウヒウシナイ","prefecture_code":1},"2111":{"zip_code":"0992111","prefecture":"北海道","prefecture_kana":"ホッカイドウ","city":"北見市","city_kana":"キタミシ","town":"端野町北登","town_kana":"タンノチョウホクト","prefecture_code":1},"1584":{"zip_code":"0991584","prefecture":"北海道","prefecture_kana":"ホッカイドウ","city":"北見市","city_kana":"キタミシ","town":"常川","town_kana":"ツネカワ","prefecture_code":1},"0876":{"zip_code":"0990876","prefecture":"北海道","prefecture_kana":"ホッカイドウ","city":"北見市","city_kana":"キタミシ","town":"富里","town_kana":"トミサト","prefecture_code":1},"0872":{"zip_code":"0990872","prefecture":"北海道","prefecture_kana":"ホッカイドウ","city":"北見市","city_kana":"キタミシ","town":"豊田","town_kana":"トヨタ","prefecture_code":1},"0873":{"zip_code":"0990873","prefecture":"北海道","prefecture_kana":"ホッカイドウ","city":"北見市","city_kana":"キタミシ","town":"西相内","town_kana":"ニシアイノナイ","prefecture_code":1},"0878":{"zip_code":"0990878","prefecture":"北海道","prefecture_kana":"ホッカイドウ","city":"北見市","city_kana":"キタミシ","town":"東相内町","town_kana":"ヒガシアイノナイチョウ","prefecture_code":1},"1586":{"zip_code":"0991586","prefecture":"北海道","prefecture_kana":"ホッカイドウ","city":"北見市","city_kana":"キタミシ","town":"広郷","town_kana":"ヒロサト","prefecture_code":1},"1587":{"zip_code":"0991587","prefecture":"北海道","prefecture_kana":"ホッカイドウ","city":"北見市","city_kana":"キタミシ","town":"豊地","town_kana":"ホウヂ","prefecture_code":1},"0875":{"zip_code":"0990875","prefecture":"北海道","prefecture_kana":"ホッカイドウ","city":"北見市","city_kana":"キタミシ","town":"本沢","town_kana":"ホンザワ","prefecture_code":1},"0879":{"zip_code":"0990879","prefecture":"北海道","prefecture_kana":"ホッカイドウ","city":"北見市","city_kana":"キタミシ","town":"美園","town_kana":"ミソノ","prefecture_code":1},"1581":{"zip_code":"0991581","prefecture":"北海道","prefecture_kana":"ホッカイドウ","city":"北見市","city_kana":"キタミシ","town":"南丘","town_kana":"ミナミオカ","prefecture_code":1},"3115":{"zip_code":"0993115","prefecture":"北海道","prefecture_kana":"ホッカイドウ","city":"網走市","city_kana":"アバシリシ","town":"稲富","town_kana":"イナトミ","prefecture_code":1},"3502":{"zip_code":"0993502","prefecture":"北海道","prefecture_kana":"ホッカイドウ","city":"網走市","city_kana":"アバシリシ","town":"浦士別","town_kana":"ウラシベツ","prefecture_code":1},"3501":{"zip_code":"0993501","prefecture":"北海道","prefecture_kana":"ホッカイドウ","city":"網走市","city_kana":"アバシリシ","town":"音根内","town_kana":"オンネナイ","prefecture_code":1},"3112":{"zip_code":"0993112","prefecture":"北海道","prefecture_kana":"ホッカイドウ","city":"網走市","city_kana":"アバシリシ","town":"北浜","town_kana":"キタハマ","prefecture_code":1},"3504":{"zip_code":"0993504","prefecture":"北海道","prefecture_kana":"ホッカイドウ","city":"網走市","city_kana":"アバシリシ","town":"清浦","town_kana":"キヨウラ","prefecture_code":1},"3503":{"zip_code":"0993503","prefecture":"北海道","prefecture_kana":"ホッカイドウ","city":"網走市","city_kana":"アバシリシ","town":"栄","town_kana":"サカエ","prefecture_code":1},"3117":{"zip_code":"0993117","prefecture":"北海道","prefecture_kana":"ホッカイドウ","city":"網走市","city_kana":"アバシリシ","town":"昭和","town_kana":"ショウワ","prefecture_code":1},"3118":{"zip_code":"0993118","prefecture":"北海道","prefecture_kana":"ホッカイドウ","city":"網走市","city_kana":"アバシリシ","town":"豊郷","town_kana":"トヨサト","prefecture_code":1},"2424":{"zip_code":"0992424","prefecture":"北海道","prefecture_kana":"ホッカイドウ","city":"網走市","city_kana":"アバシリシ","town":"中園","town_kana":"ナカゾノ","prefecture_code":1},"2423":{"zip_code":"0992423","prefecture":"北海道","prefecture_kana":"ホッカイドウ","city":"網走市","city_kana":"アバシリシ","town":"東網走","town_kana":"ヒガシアバシリ","prefecture_code":1},"3119":{"zip_code":"0993119","prefecture":"北海道","prefecture_kana":"ホッカイドウ","city":"網走市","city_kana":"アバシリシ","town":"鱒浦","town_kana":"マスウラ","prefecture_code":1},"3114":{"zip_code":"0993114","prefecture":"北海道","prefecture_kana":"ホッカイドウ","city":"網走市","city_kana":"アバシリシ","town":"丸万","town_kana":"マルマン","prefecture_code":1},"3113":{"zip_code":"0993113","prefecture":"北海道","prefecture_kana":"ホッカイドウ","city":"網走市","city_kana":"アバシリシ","town":"実豊","town_kana":"ミトヨ","prefecture_code":1},"3111":{"zip_code":"0993111","prefecture":"北海道","prefecture_kana":"ホッカイドウ","city":"網走市","city_kana":"アバシリシ","town":"藻琴","town_kana":"モコト","prefecture_code":1},"2422":{"zip_code":"0992422","prefecture":"北海道","prefecture_kana":"ホッカイドウ","city":"網走市","city_kana":"アバシリシ","town":"八坂","town_kana":"ヤサカ","prefecture_code":1},"3116":{"zip_code":"0993116","prefecture":"北海道","prefecture_kana":"ホッカイドウ","city":"網走市","city_kana":"アバシリシ","town":"山里","town_kana":"ヤマサト","prefecture_code":1},"2421":{"zip_code":"0992421","prefecture":"北海道","prefecture_kana":"ホッカイドウ","city":"網走市","city_kana":"アバシリシ","town":"呼人","town_kana":"ヨビト","prefecture_code":1},"6131":{"zip_code":"0996131","prefecture":"北海道","prefecture_kana":"ホッカイドウ","city":"紋別市","city_kana":"モンベツシ","town":"八十士","town_kana":"ヤソシ","prefecture_code":1},"5354":{"zip_code":"0995354","prefecture":"北海道","prefecture_kana":"ホッカイドウ","city":"紋別市","city_kana":"モンベツシ","town":"上渚滑町","town_kana":"カミショコツチョウ","prefecture_code":1},"5364":{"zip_code":"0995364","prefecture":"北海道","prefecture_kana":"ホッカイドウ","city":"紋別市","city_kana":"モンベツシ","town":"上渚滑町上古丹","town_kana":"カミショコツチョウウエコタン","prefecture_code":1},"5362":{"zip_code":"0995362","prefecture":"北海道","prefecture_kana":"ホッカイドウ","city":"紋別市","city_kana":"モンベツシ","town":"上渚滑町奥東","town_kana":"カミショコツチョウオクトウ","prefecture_code":1},"5355":{"zip_code":"0995355","prefecture":"北海道","prefecture_kana":"ホッカイドウ","city":"紋別市","city_kana":"モンベツシ","town":"上渚滑町更生","town_kana":"カミショコツチョウコウセイ","prefecture_code":1},"5351":{"zip_code":"0995351","prefecture":"北海道","prefecture_kana":"ホッカイドウ","city":"紋別市","city_kana":"モンベツシ","town":"上渚滑町下渚滑","town_kana":"カミショコツチョウシモショコツ","prefecture_code":1},"5363":{"zip_code":"0995363","prefecture":"北海道","prefecture_kana":"ホッカイドウ","city":"紋別市","city_kana":"モンベツシ","town":"上渚滑町下立牛","town_kana":"カミショコツチョウシモタツウシ","prefecture_code":1},"5353":{"zip_code":"0995353","prefecture":"北海道","prefecture_kana":"ホッカイドウ","city":"紋別市","city_kana":"モンベツシ","town":"上渚滑町上東","town_kana":"カミショコツチョウジョウトウ","prefecture_code":1},"5352":{"zip_code":"0995352","prefecture":"北海道","prefecture_kana":"ホッカイドウ","city":"紋別市","city_kana":"モンベツシ","town":"上渚滑町中渚滑","town_kana":"カミショコツチョウナカショコツ","prefecture_code":1},"5365":{"zip_code":"0995365","prefecture":"北海道","prefecture_kana":"ホッカイドウ","city":"紋別市","city_kana":"モンベツシ","town":"上渚滑町中立牛","town_kana":"カミショコツチョウナカタツウシ","prefecture_code":1},"5361":{"zip_code":"0995361","prefecture":"北海道","prefecture_kana":"ホッカイドウ","city":"紋別市","city_kana":"モンベツシ","town":"上渚滑町和訓辺","town_kana":"カミショコツチョウワクンベ","prefecture_code":1},"6133":{"zip_code":"0996133","prefecture":"北海道","prefecture_kana":"ホッカイドウ","city":"紋別市","city_kana":"モンベツシ","town":"弘道","town_kana":"コウドウ","prefecture_code":1},"6132":{"zip_code":"0996132","prefecture":"北海道","prefecture_kana":"ホッカイドウ","city":"紋別市","city_kana":"モンベツシ","town":"小向","town_kana":"コムカイ","prefecture_code":1},"6242":{"zip_code":"0996242","prefecture":"北海道","prefecture_kana":"ホッカイドウ","city":"紋別市","city_kana":"モンベツシ","town":"志文","town_kana":"シブン","prefecture_code":1},"5171":{"zip_code":"0995171","prefecture":"北海道","prefecture_kana":"ホッカイドウ","city":"紋別市","city_kana":"モンベツシ","town":"渚滑町","town_kana":"ショコツチョウ","prefecture_code":1},"5174":{"zip_code":"0995174","prefecture":"北海道","prefecture_kana":"ホッカイドウ","city":"紋別市","city_kana":"モンベツシ","town":"渚滑町宇津々","town_kana":"ショコツチョウウツツ","prefecture_code":1},"5175":{"zip_code":"0995175","prefecture":"北海道","prefecture_kana":"ホッカイドウ","city":"紋別市","city_kana":"モンベツシ","town":"渚滑町川向","town_kana":"ショコツチョウカワムカイ","prefecture_code":1},"5172":{"zip_code":"0995172","prefecture":"北海道","prefecture_kana":"ホッカイドウ","city":"紋別市","city_kana":"モンベツシ","town":"渚滑町元新","town_kana":"ショコツチョウモトシン","prefecture_code":1},"5173":{"zip_code":"0995173","prefecture":"北海道","prefecture_kana":"ホッカイドウ","city":"紋別市","city_kana":"モンベツシ","town":"渚滑町元西","town_kana":"ショコツチョウモトニシ","prefecture_code":1},"6241":{"zip_code":"0996241","prefecture":"北海道","prefecture_kana":"ホッカイドウ","city":"紋別市","city_kana":"モンベツシ","town":"沼の上","town_kana":"ヌマノウエ","prefecture_code":1},"4100":{"zip_code":"0994100","prefecture":"北海道","prefecture_kana":"ホッカイドウ","city":"斜里郡斜里町","city_kana":"シャリグンシャリチョウ","town":"","town_kana":"","prefecture_code":1},"4117":{"zip_code":"0994117","prefecture":"北海道","prefecture_kana":"ホッカイドウ","city":"斜里郡斜里町","city_kana":"シャリグンシャリチョウ","town":"青葉町","town_kana":"アオバチョウ","prefecture_code":1},"4114":{"zip_code":"0994114","prefecture":"北海道","prefecture_kana":"ホッカイドウ","city":"斜里郡斜里町","city_kana":"シャリグンシャリチョウ","town":"朝日町","town_kana":"アサヒマチ","prefecture_code":1},"4127":{"zip_code":"0994127","prefecture":"北海道","prefecture_kana":"ホッカイドウ","city":"斜里郡斜里町","city_kana":"シャリグンシャリチョウ","town":"以久科南","town_kana":"イクシナミナミ","prefecture_code":1},"4126":{"zip_code":"0994126","prefecture":"北海道","prefecture_kana":"ホッカイドウ","city":"斜里郡斜里町","city_kana":"シャリグンシャリチョウ","town":"以久科北","town_kana":"イクシナキタ","prefecture_code":1},"4356":{"zip_code":"0994356","prefecture":"北海道","prefecture_kana":"ホッカイドウ","city":"斜里郡斜里町","city_kana":"シャリグンシャリチョウ","town":"岩尾別","town_kana":"イワオベツ","prefecture_code":1},"4351":{"zip_code":"0994351","prefecture":"北海道","prefecture_kana":"ホッカイドウ","city":"斜里郡斜里町","city_kana":"シャリグンシャリチョウ","town":"ウトロ香川","town_kana":"ウトロカガワ","prefecture_code":1},"4352":{"zip_code":"0994352","prefecture":"北海道","prefecture_kana":"ホッカイドウ","city":"斜里郡斜里町","city_kana":"シャリグンシャリチョウ","town":"ウトロ高原","town_kana":"ウトロコウゲン","prefecture_code":1},"4353":{"zip_code":"0994353","prefecture":"北海道","prefecture_kana":"ホッカイドウ","city":"斜里郡斜里町","city_kana":"シャリグンシャリチョウ","town":"ウトロ中島","town_kana":"ウトロナカジマ","prefecture_code":1},"4355":{"zip_code":"0994355","prefecture":"北海道","prefecture_kana":"ホッカイドウ","city":"斜里郡斜里町","city_kana":"シャリグンシャリチョウ","town":"ウトロ東","town_kana":"ウトロヒガシ","prefecture_code":1},"4354":{"zip_code":"0994354","prefecture":"北海道","prefecture_kana":"ホッカイドウ","city":"斜里郡斜里町","city_kana":"シャリグンシャリチョウ","town":"ウトロ西","town_kana":"ウトロニシ","prefecture_code":1},"4143":{"zip_code":"0994143","prefecture":"北海道","prefecture_kana":"ホッカイドウ","city":"斜里郡斜里町","city_kana":"シャリグンシャリチョウ","town":"川上","town_kana":"カワカミ","prefecture_code":1},"4115":{"zip_code":"0994115","prefecture":"北海道","prefecture_kana":"ホッカイドウ","city":"斜里郡斜里町","city_kana":"シャリグンシャリチョウ","town":"光陽町","town_kana":"コウヨウチョウ","prefecture_code":1},"4131":{"zip_code":"0994131","prefecture":"北海道","prefecture_kana":"ホッカイドウ","city":"斜里郡斜里町","city_kana":"シャリグンシャリチョウ","town":"越川","town_kana":"コシカワ","prefecture_code":1},"4124":{"zip_code":"0994124","prefecture":"北海道","prefecture_kana":"ホッカイドウ","city":"斜里郡斜里町","city_kana":"シャリグンシャリチョウ","town":"朱円","town_kana":"シュエン","prefecture_code":1},"4123":{"zip_code":"0994123","prefecture":"北海道","prefecture_kana":"ホッカイドウ","city":"斜里郡斜里町","city_kana":"シャリグンシャリチョウ","town":"朱円東","town_kana":"シュエンヒガシ","prefecture_code":1},"4125":{"zip_code":"0994125","prefecture":"北海道","prefecture_kana":"ホッカイドウ","city":"斜里郡斜里町","city_kana":"シャリグンシャリチョウ","town":"朱円西","town_kana":"シュエンニシ","prefecture_code":1},"4118":{"zip_code":"0994118","prefecture":"北海道","prefecture_kana":"ホッカイドウ","city":"斜里郡斜里町","city_kana":"シャリグンシャリチョウ","town":"新光町","town_kana":"シンコウチョウ","prefecture_code":1},"4144":{"zip_code":"0994144","prefecture":"北海道","prefecture_kana":"ホッカイドウ","city":"斜里郡斜里町","city_kana":"シャリグンシャリチョウ","town":"大栄","town_kana":"タイエイ","prefecture_code":1},"4141":{"zip_code":"0994141","prefecture":"北海道","prefecture_kana":"ホッカイドウ","city":"斜里郡斜里町","city_kana":"シャリグンシャリチョウ","town":"豊倉","town_kana":"トヨクラ","prefecture_code":1},"4134":{"zip_code":"0994134","prefecture":"北海道","prefecture_kana":"ホッカイドウ","city":"斜里郡斜里町","city_kana":"シャリグンシャリチョウ","town":"豊里","town_kana":"トヨサト","prefecture_code":1},"4142":{"zip_code":"0994142","prefecture":"北海道","prefecture_kana":"ホッカイドウ","city":"斜里郡斜里町","city_kana":"シャリグンシャリチョウ","town":"中斜里","town_kana":"ナカシャリ","prefecture_code":1},"4147":{"zip_code":"0994147","prefecture":"北海道","prefecture_kana":"ホッカイドウ","city":"斜里郡斜里町","city_kana":"シャリグンシャリチョウ","town":"西町","town_kana":"ニシマチ","prefecture_code":1},"4121":{"zip_code":"0994121","prefecture":"北海道","prefecture_kana":"ホッカイドウ","city":"斜里郡斜里町","city_kana":"シャリグンシャリチョウ","town":"日の出","town_kana":"ヒノデ","prefecture_code":1},"4132":{"zip_code":"0994132","prefecture":"北海道","prefecture_kana":"ホッカイドウ","city":"斜里郡斜里町","city_kana":"シャリグンシャリチョウ","town":"富士","town_kana":"フジ","prefecture_code":1},"4116":{"zip_code":"0994116","prefecture":"北海道","prefecture_kana":"ホッカイドウ","city":"斜里郡斜里町","city_kana":"シャリグンシャリチョウ","town":"文光町","town_kana":"ブンコウチョウ","prefecture_code":1},"4113":{"zip_code":"0994113","prefecture":"北海道","prefecture_kana":"ホッカイドウ","city":"斜里郡斜里町","city_kana":"シャリグンシャリチョウ","town":"本町","town_kana":"ホンマチ","prefecture_code":1},"4111":{"zip_code":"0994111","prefecture":"北海道","prefecture_kana":"ホッカイドウ","city":"斜里郡斜里町","city_kana":"シャリグンシャリチョウ","town":"前浜町","town_kana":"マエハママチ","prefecture_code":1},"4357":{"zip_code":"0994357","prefecture":"北海道","prefecture_kana":"ホッカイドウ","city":"斜里郡斜里町","city_kana":"シャリグンシャリチョウ","town":"真鯉","town_kana":"マコイ","prefecture_code":1},"4145":{"zip_code":"0994145","prefecture":"北海道","prefecture_kana":"ホッカイドウ","city":"斜里郡斜里町","city_kana":"シャリグンシャリチョウ","town":"美咲","town_kana":"ミサキ","prefecture_code":1},"4133":{"zip_code":"0994133","prefecture":"北海道","prefecture_kana":"ホッカイドウ","city":"斜里郡斜里町","city_kana":"シャリグンシャリチョウ","town":"三井","town_kana":"ミツイ","prefecture_code":1},"4146":{"zip_code":"0994146","prefecture":"北海道","prefecture_kana":"ホッカイドウ","city":"斜里郡斜里町","city_kana":"シャリグンシャリチョウ","town":"港西町","town_kana":"ミナトニシマチ","prefecture_code":1},"4112":{"zip_code":"0994112","prefecture":"北海道","prefecture_kana":"ホッカイドウ","city":"斜里郡斜里町","city_kana":"シャリグンシャリチョウ","town":"港町","town_kana":"ミナトマチ","prefecture_code":1},"4122":{"zip_code":"0994122","prefecture":"北海道","prefecture_kana":"ホッカイドウ","city":"斜里郡斜里町","city_kana":"シャリグンシャリチョウ","town":"峰浜","town_kana":"ミネハマ","prefecture_code":1},"4135":{"zip_code":"0994135","prefecture":"北海道","prefecture_kana":"ホッカイドウ","city":"斜里郡斜里町","city_kana":"シャリグンシャリチョウ","town":"来運","town_kana":"ライウン","prefecture_code":1},"4400":{"zip_code":"0994400","prefecture":"北海道","prefecture_kana":"ホッカイドウ","city":"斜里郡清里町","city_kana":"シャリグンキヨサトチョウ","town":"","town_kana":"","prefecture_code":1},"4524":{"zip_code":"0994524","prefecture":"北海道","prefecture_kana":"ホッカイドウ","city":"斜里郡清里町","city_kana":"シャリグンキヨサトチョウ","town":"青葉","town_kana":"アオバ","prefecture_code":1},"4401":{"zip_code":"0994401","prefecture":"北海道","prefecture_kana":"ホッカイドウ","city":"斜里郡清里町","city_kana":"シャリグンキヨサトチョウ","town":"上斜里","town_kana":"カミシャリ","prefecture_code":1},"4522":{"zip_code":"0994522","prefecture":"北海道","prefecture_kana":"ホッカイドウ","city":"斜里郡清里町","city_kana":"シャリグンキヨサトチョウ","town":"神威","town_kana":"カモイ","prefecture_code":1},"4523":{"zip_code":"0994523","prefecture":"北海道","prefecture_kana":"ホッカイドウ","city":"斜里郡清里町","city_kana":"シャリグンキヨサトチョウ","town":"川向","town_kana":"カワムカイ","prefecture_code":1},"4526":{"zip_code":"0994526","prefecture":"北海道","prefecture_kana":"ホッカイドウ","city":"斜里郡清里町","city_kana":"シャリグンキヨサトチョウ","town":"清泉","town_kana":"キヨイズミ","prefecture_code":1},"4404":{"zip_code":"0994404","prefecture":"北海道","prefecture_kana":"ホッカイドウ","city":"斜里郡清里町","city_kana":"シャリグンキヨサトチョウ","town":"江南","town_kana":"コウナン","prefecture_code":1},"4403":{"zip_code":"0994403","prefecture":"北海道","prefecture_kana":"ホッカイドウ","city":"斜里郡清里町","city_kana":"シャリグンキヨサトチョウ","town":"向陽","town_kana":"コウヨウ","prefecture_code":1},"4521":{"zip_code":"0994521","prefecture":"北海道","prefecture_kana":"ホッカイドウ","city":"斜里郡清里町","city_kana":"シャリグンキヨサトチョウ","town":"札弦町","town_kana":"サッツルマチ","prefecture_code":1},"4402":{"zip_code":"0994402","prefecture":"北海道","prefecture_kana":"ホッカイドウ","city":"斜里郡清里町","city_kana":"シャリグンキヨサトチョウ","town":"下江鳶","town_kana":"シモエトンビ","prefecture_code":1},"4407":{"zip_code":"0994407","prefecture":"北海道","prefecture_kana":"ホッカイドウ","city":"斜里郡清里町","city_kana":"シャリグンキヨサトチョウ","town":"新町","town_kana":"シンマチ","prefecture_code":1},"4405":{"zip_code":"0994405","prefecture":"北海道","prefecture_kana":"ホッカイドウ","city":"斜里郡清里町","city_kana":"シャリグンキヨサトチョウ","town":"羽衣町","town_kana":"ハゴロモマチ","prefecture_code":1},"4406":{"zip_code":"0994406","prefecture":"北海道","prefecture_kana":"ホッカイドウ","city":"斜里郡清里町","city_kana":"シャリグンキヨサトチョウ","town":"水元町","town_kana":"ミズモトマチ","prefecture_code":1},"4525":{"zip_code":"0994525","prefecture":"北海道","prefecture_kana":"ホッカイドウ","city":"斜里郡清里町","city_kana":"シャリグンキヨサトチョウ","town":"緑町","town_kana":"ミドリマチ","prefecture_code":1},"3600":{"zip_code":"0993600","prefecture":"北海道","prefecture_kana":"ホッカイドウ","city":"斜里郡小清水町","city_kana":"シャリグンコシミズチョウ","town":"","town_kana":"","prefecture_code":1},"3616":{"zip_code":"0993616","prefecture":"北海道","prefecture_kana":"ホッカイドウ","city":"斜里郡小清水町","city_kana":"シャリグンコシミズチョウ","town":"旭","town_kana":"アサヒ","prefecture_code":1},"3603":{"zip_code":"0993603","prefecture":"北海道","prefecture_kana":"ホッカイドウ","city":"斜里郡小清水町","city_kana":"シャリグンコシミズチョウ","town":"泉","town_kana":"イズミ","prefecture_code":1},"3613":{"zip_code":"0993613","prefecture":"北海道","prefecture_kana":"ホッカイドウ","city":"斜里郡小清水町","city_kana":"シャリグンコシミズチョウ","town":"神浦","town_kana":"カミウラ","prefecture_code":1},"3611":{"zip_code":"0993611","prefecture":"北海道","prefecture_kana":"ホッカイドウ","city":"斜里郡小清水町","city_kana":"シャリグンコシミズチョウ","town":"上徳","town_kana":"カミトク","prefecture_code":1},"3601":{"zip_code":"0993601","prefecture":"北海道","prefecture_kana":"ホッカイドウ","city":"斜里郡小清水町","city_kana":"シャリグンコシミズチョウ","town":"萱野","town_kana":"カヤノ","prefecture_code":1},"3612":{"zip_code":"0993612","prefecture":"北海道","prefecture_kana":"ホッカイドウ","city":"斜里郡小清水町","city_kana":"シャリグンコシミズチョウ","town":"共和","town_kana":"キョウワ","prefecture_code":1},"3622":{"zip_code":"0993622","prefecture":"北海道","prefecture_kana":"ホッカイドウ","city":"斜里郡小清水町","city_kana":"シャリグンコシミズチョウ","town":"小清水","town_kana":"コシミズ","prefecture_code":1},"3621":{"zip_code":"0993621","prefecture":"北海道","prefecture_kana":"ホッカイドウ","city":"斜里郡小清水町","city_kana":"シャリグンコシミズチョウ","town":"小清水","town_kana":"コシミズ","prefecture_code":1},"3623":{"zip_code":"0993623","prefecture":"北海道","prefecture_kana":"ホッカイドウ","city":"斜里郡小清水町","city_kana":"シャリグンコシミズチョウ","town":"小清水","town_kana":"コシミズ","prefecture_code":1},"3624":{"zip_code":"0993624","prefecture":"北海道","prefecture_kana":"ホッカイドウ","city":"斜里郡小清水町","city_kana":"シャリグンコシミズチョウ","town":"小清水","town_kana":"コシミズ","prefecture_code":1},"3625":{"zip_code":"0993625","prefecture":"北海道","prefecture_kana":"ホッカイドウ","city":"斜里郡小清水町","city_kana":"シャリグンコシミズチョウ","town":"小清水","town_kana":"コシミズ","prefecture_code":1},"3626":{"zip_code":"0993626","prefecture":"北海道","prefecture_kana":"ホッカイドウ","city":"斜里郡小清水町","city_kana":"シャリグンコシミズチョウ","town":"小清水","town_kana":"コシミズ","prefecture_code":1},"3627":{"zip_code":"0993627","prefecture":"北海道","prefecture_kana":"ホッカイドウ","city":"斜里郡小清水町","city_kana":"シャリグンコシミズチョウ","town":"小清水","town_kana":"コシミズ","prefecture_code":1},"3628":{"zip_code":"0993628","prefecture":"北海道","prefecture_kana":"ホッカイドウ","city":"斜里郡小清水町","city_kana":"シャリグンコシミズチョウ","town":"小清水","town_kana":"コシミズ","prefecture_code":1},"3631":{"zip_code":"0993631","prefecture":"北海道","prefecture_kana":"ホッカイドウ","city":"斜里郡小清水町","city_kana":"シャリグンコシミズチョウ","town":"小清水","town_kana":"コシミズ","prefecture_code":1},"3633":{"zip_code":"0993633","prefecture":"北海道","prefecture_kana":"ホッカイドウ","city":"斜里郡小清水町","city_kana":"シャリグンコシミズチョウ","town":"小清水","town_kana":"コシミズ","prefecture_code":1},"3632":{"zip_code":"0993632","prefecture":"北海道","prefecture_kana":"ホッカイドウ","city":"斜里郡小清水町","city_kana":"シャリグンコシミズチョウ","town":"小清水","town_kana":"コシミズ","prefecture_code":1},"3635":{"zip_code":"0993635","prefecture":"北海道","prefecture_kana":"ホッカイドウ","city":"斜里郡小清水町","city_kana":"シャリグンコシミズチョウ","town":"小清水","town_kana":"コシミズ","prefecture_code":1},"3634":{"zip_code":"0993634","prefecture":"北海道","prefecture_kana":"ホッカイドウ","city":"斜里郡小清水町","city_kana":"シャリグンコシミズチョウ","town":"小清水","town_kana":"コシミズ","prefecture_code":1},"3636":{"zip_code":"0993636","prefecture":"北海道","prefecture_kana":"ホッカイドウ","city":"斜里郡小清水町","city_kana":"シャリグンコシミズチョウ","town":"小清水","town_kana":"コシミズ","prefecture_code":1},"3637":{"zip_code":"0993637","prefecture":"北海道","prefecture_kana":"ホッカイドウ","city":"斜里郡小清水町","city_kana":"シャリグンコシミズチョウ","town":"小清水","town_kana":"コシミズ","prefecture_code":1},"3451":{"zip_code":"0993451","prefecture":"北海道","prefecture_kana":"ホッカイドウ","city":"斜里郡小清水町","city_kana":"シャリグンコシミズチョウ","town":"倉栄","town_kana":"ソウエイ","prefecture_code":1},"3615":{"zip_code":"0993615","prefecture":"北海道","prefecture_kana":"ホッカイドウ","city":"斜里郡小清水町","city_kana":"シャリグンコシミズチョウ","town":"中里","town_kana":"ナカサト","prefecture_code":1},"3452":{"zip_code":"0993452","prefecture":"北海道","prefecture_kana":"ホッカイドウ","city":"斜里郡小清水町","city_kana":"シャリグンコシミズチョウ","town":"浜小清水","town_kana":"ハマコシミズ","prefecture_code":1},"3602":{"zip_code":"0993602","prefecture":"北海道","prefecture_kana":"ホッカイドウ","city":"斜里郡小清水町","city_kana":"シャリグンコシミズチョウ","town":"東野","town_kana":"ヒガシノ","prefecture_code":1},"3453":{"zip_code":"0993453","prefecture":"北海道","prefecture_kana":"ホッカイドウ","city":"斜里郡小清水町","city_kana":"シャリグンコシミズチョウ","town":"北斗","town_kana":"ホクト","prefecture_code":1},"3604":{"zip_code":"0993604","prefecture":"北海道","prefecture_kana":"ホッカイドウ","city":"斜里郡小清水町","city_kana":"シャリグンコシミズチョウ","town":"水上","town_kana":"ミズカミ","prefecture_code":1},"3614":{"zip_code":"0993614","prefecture":"北海道","prefecture_kana":"ホッカイドウ","city":"斜里郡小清水町","city_kana":"シャリグンコシミズチョウ","town":"美和","town_kana":"ミワ","prefecture_code":1},"3605":{"zip_code":"0993605","prefecture":"北海道","prefecture_kana":"ホッカイドウ","city":"斜里郡小清水町","city_kana":"シャリグンコシミズチョウ","town":"もこと山","town_kana":"モコトヤマ","prefecture_code":1},"3454":{"zip_code":"0993454","prefecture":"北海道","prefecture_kana":"ホッカイドウ","city":"斜里郡小清水町","city_kana":"シャリグンコシミズチョウ","town":"止別","town_kana":"ヤンベツ","prefecture_code":1},"1400":{"zip_code":"0991400","prefecture":"北海道","prefecture_kana":"ホッカイドウ","city":"常呂郡訓子府町","city_kana":"トコログンクンネップチョウ","town":"","town_kana":"","prefecture_code":1},"1432":{"zip_code":"0991432","prefecture":"北海道","prefecture_kana":"ホッカイドウ","city":"常呂郡訓子府町","city_kana":"トコログンクンネップチョウ","town":"旭町","town_kana":"アサヒマチ","prefecture_code":1},"1411":{"zip_code":"0991411","prefecture":"北海道","prefecture_kana":"ホッカイドウ","city":"常呂郡訓子府町","city_kana":"トコログンクンネップチョウ","town":"大谷","town_kana":"オオタニ","prefecture_code":1},"1436":{"zip_code":"0991436","prefecture":"北海道","prefecture_kana":"ホッカイドウ","city":"常呂郡訓子府町","city_kana":"トコログンクンネップチョウ","town":"大町","town_kana":"オオマチ","prefecture_code":1},"1414":{"zip_code":"0991414","prefecture":"北海道","prefecture_kana":"ホッカイドウ","city":"常呂郡訓子府町","city_kana":"トコログンクンネップチョウ","town":"開盛","town_kana":"カイセイ","prefecture_code":1},"1404":{"zip_code":"0991404","prefecture":"北海道","prefecture_kana":"ホッカイドウ","city":"常呂郡訓子府町","city_kana":"トコログンクンネップチョウ","town":"柏丘","town_kana":"カシワオカ","prefecture_code":1},"1413":{"zip_code":"0991413","prefecture":"北海道","prefecture_kana":"ホッカイドウ","city":"常呂郡訓子府町","city_kana":"トコログンクンネップチョウ","town":"協成","town_kana":"キョウセイ","prefecture_code":1},"1426":{"zip_code":"0991426","prefecture":"北海道","prefecture_kana":"ホッカイドウ","city":"常呂郡訓子府町","city_kana":"トコログンクンネップチョウ","town":"清住","town_kana":"キヨズミ","prefecture_code":1},"1421":{"zip_code":"0991421","prefecture":"北海道","prefecture_kana":"ホッカイドウ","city":"常呂郡訓子府町","city_kana":"トコログンクンネップチョウ","town":"駒里","town_kana":"コマサト","prefecture_code":1},"1434":{"zip_code":"0991434","prefecture":"北海道","prefecture_kana":"ホッカイドウ","city":"常呂郡訓子府町","city_kana":"トコログンクンネップチョウ","town":"栄町","town_kana":"サカエマチ","prefecture_code":1},"1417":{"zip_code":"0991417","prefecture":"北海道","prefecture_kana":"ホッカイドウ","city":"常呂郡訓子府町","city_kana":"トコログンクンネップチョウ","town":"末広町","town_kana":"スエヒロマチ","prefecture_code":1},"1405":{"zip_code":"0991405","prefecture":"北海道","prefecture_kana":"ホッカイドウ","city":"常呂郡訓子府町","city_kana":"トコログンクンネップチョウ","town":"高園","town_kana":"タカゾノ","prefecture_code":1},"1416":{"zip_code":"0991416","prefecture":"北海道","prefecture_kana":"ホッカイドウ","city":"常呂郡訓子府町","city_kana":"トコログンクンネップチョウ","town":"常盤","town_kana":"トキワ","prefecture_code":1},"1427":{"zip_code":"0991427","prefecture":"北海道","prefecture_kana":"ホッカイドウ","city":"常呂郡訓子府町","city_kana":"トコログンクンネップチョウ","town":"豊坂","town_kana":"トヨサカ","prefecture_code":1},"1433":{"zip_code":"0991433","prefecture":"北海道","prefecture_kana":"ホッカイドウ","city":"常呂郡訓子府町","city_kana":"トコログンクンネップチョウ","town":"仲町","town_kana":"ナカマチ","prefecture_code":1},"1423":{"zip_code":"0991423","prefecture":"北海道","prefecture_kana":"ホッカイドウ","city":"常呂郡訓子府町","city_kana":"トコログンクンネップチョウ","town":"西幸町","town_kana":"ニシサイワイマチ","prefecture_code":1},"1424":{"zip_code":"0991424","prefecture":"北海道","prefecture_kana":"ホッカイドウ","city":"常呂郡訓子府町","city_kana":"トコログンクンネップチョウ","town":"西富","town_kana":"ニシトミ","prefecture_code":1},"1403":{"zip_code":"0991403","prefecture":"北海道","prefecture_kana":"ホッカイドウ","city":"常呂郡訓子府町","city_kana":"トコログンクンネップチョウ","town":"東幸町","town_kana":"ヒガシサイワイマチ","prefecture_code":1},"1431":{"zip_code":"0991431","prefecture":"北海道","prefecture_kana":"ホッカイドウ","city":"常呂郡訓子府町","city_kana":"トコログンクンネップチョウ","town":"東町","town_kana":"ヒガシマチ","prefecture_code":1},"1401":{"zip_code":"0991401","prefecture":"北海道","prefecture_kana":"ホッカイドウ","city":"常呂郡訓子府町","city_kana":"トコログンクンネップチョウ","town":"日出","town_kana":"ヒノデ","prefecture_code":1},"1407":{"zip_code":"0991407","prefecture":"北海道","prefecture_kana":"ホッカイドウ","city":"常呂郡訓子府町","city_kana":"トコログンクンネップチョウ","town":"福野","town_kana":"フクノ","prefecture_code":1},"1422":{"zip_code":"0991422","prefecture":"北海道","prefecture_kana":"ホッカイドウ","city":"常呂郡訓子府町","city_kana":"トコログンクンネップチョウ","town":"北栄","town_kana":"ホクエイ","prefecture_code":1},"1402":{"zip_code":"0991402","prefecture":"北海道","prefecture_kana":"ホッカイドウ","city":"常呂郡訓子府町","city_kana":"トコログンクンネップチョウ","town":"穂波","town_kana":"ホナミ","prefecture_code":1},"1418":{"zip_code":"0991418","prefecture":"北海道","prefecture_kana":"ホッカイドウ","city":"常呂郡訓子府町","city_kana":"トコログンクンネップチョウ","town":"実郷","town_kana":"ミサト","prefecture_code":1},"1415":{"zip_code":"0991415","prefecture":"北海道","prefecture_kana":"ホッカイドウ","city":"常呂郡訓子府町","city_kana":"トコログンクンネップチョウ","town":"美園","town_kana":"ミソノ","prefecture_code":1},"1412":{"zip_code":"0991412","prefecture":"北海道","prefecture_kana":"ホッカイドウ","city":"常呂郡訓子府町","city_kana":"トコログンクンネップチョウ","town":"緑丘","town_kana":"ミドリオカ","prefecture_code":1},"1437":{"zip_code":"0991437","prefecture":"北海道","prefecture_kana":"ホッカイドウ","city":"常呂郡訓子府町","city_kana":"トコログンクンネップチョウ","town":"元町","town_kana":"モトマチ","prefecture_code":1},"1406":{"zip_code":"0991406","prefecture":"北海道","prefecture_kana":"ホッカイドウ","city":"常呂郡訓子府町","city_kana":"トコログンクンネップチョウ","town":"弥生","town_kana":"ヤヨイ","prefecture_code":1},"1435":{"zip_code":"0991435","prefecture":"北海道","prefecture_kana":"ホッカイドウ","city":"常呂郡訓子府町","city_kana":"トコログンクンネップチョウ","town":"若富町","town_kana":"ワカトミマチ","prefecture_code":1},"1425":{"zip_code":"0991425","prefecture":"北海道","prefecture_kana":"ホッカイドウ","city":"常呂郡訓子府町","city_kana":"トコログンクンネップチョウ","town":"若葉町","town_kana":"ワカバマチ","prefecture_code":1},"1100":{"zip_code":"0991100","prefecture":"北海道","prefecture_kana":"ホッカイドウ","city":"常呂郡置戸町","city_kana":"トコログンオケトチョウ","town":"","town_kana":"","prefecture_code":1},"1364":{"zip_code":"0991364","prefecture":"北海道","prefecture_kana":"ホッカイドウ","city":"常呂郡置戸町","city_kana":"トコログンオケトチョウ","town":"秋田","town_kana":"アキタ","prefecture_code":1},"1116":{"zip_code":"0991116","prefecture":"北海道","prefecture_kana":"ホッカイドウ","city":"常呂郡置戸町","city_kana":"トコログンオケトチョウ","town":"朝日","town_kana":"アサヒ","prefecture_code":1},"1251":{"zip_code":"0991251","prefecture":"北海道","prefecture_kana":"ホッカイドウ","city":"常呂郡置戸町","city_kana":"トコログンオケトチョウ","town":"安住","town_kana":"アズミ","prefecture_code":1},"1137":{"zip_code":"0991137","prefecture":"北海道","prefecture_kana":"ホッカイドウ","city":"常呂郡置戸町","city_kana":"トコログンオケトチョウ","town":"大美","town_kana":"オオミ","prefecture_code":1},"1362":{"zip_code":"0991362","prefecture":"北海道","prefecture_kana":"ホッカイドウ","city":"常呂郡置戸町","city_kana":"トコログンオケトチョウ","town":"雄勝","town_kana":"オカチ","prefecture_code":1},"1253":{"zip_code":"0991253","prefecture":"北海道","prefecture_kana":"ホッカイドウ","city":"常呂郡置戸町","city_kana":"トコログンオケトチョウ","town":"春日","town_kana":"カスガ","prefecture_code":1},"1252":{"zip_code":"0991252","prefecture":"北海道","prefecture_kana":"ホッカイドウ","city":"常呂郡置戸町","city_kana":"トコログンオケトチョウ","town":"勝山","town_kana":"カツヤマ","prefecture_code":1},"1366":{"zip_code":"0991366","prefecture":"北海道","prefecture_kana":"ホッカイドウ","city":"常呂郡置戸町","city_kana":"トコログンオケトチョウ","town":"川南","town_kana":"カワミナミ","prefecture_code":1},"1114":{"zip_code":"0991114","prefecture":"北海道","prefecture_kana":"ホッカイドウ","city":"常呂郡置戸町","city_kana":"トコログンオケトチョウ","town":"協生","town_kana":"キョウセイ","prefecture_code":1},"1132":{"zip_code":"0991132","prefecture":"北海道","prefecture_kana":"ホッカイドウ","city":"常呂郡置戸町","city_kana":"トコログンオケトチョウ","town":"協和","town_kana":"キョウワ","prefecture_code":1},"1133":{"zip_code":"0991133","prefecture":"北海道","prefecture_kana":"ホッカイドウ","city":"常呂郡置戸町","city_kana":"トコログンオケトチョウ","town":"更盛","town_kana":"コウセイ","prefecture_code":1},"1135":{"zip_code":"0991135","prefecture":"北海道","prefecture_kana":"ホッカイドウ","city":"常呂郡置戸町","city_kana":"トコログンオケトチョウ","town":"国栄","town_kana":"コクエイ","prefecture_code":1},"1361":{"zip_code":"0991361","prefecture":"北海道","prefecture_kana":"ホッカイドウ","city":"常呂郡置戸町","city_kana":"トコログンオケトチョウ","town":"境野","town_kana":"サカイノ","prefecture_code":1},"1104":{"zip_code":"0991104","prefecture":"北海道","prefecture_kana":"ホッカイドウ","city":"常呂郡置戸町","city_kana":"トコログンオケトチョウ","town":"栄一","town_kana":"サカエイチ","prefecture_code":1},"1103":{"zip_code":"0991103","prefecture":"北海道","prefecture_kana":"ホッカイドウ","city":"常呂郡置戸町","city_kana":"トコログンオケトチョウ","town":"栄二","town_kana":"サカエニ","prefecture_code":1},"1363":{"zip_code":"0991363","prefecture":"北海道","prefecture_kana":"ホッカイドウ","city":"常呂郡置戸町","city_kana":"トコログンオケトチョウ","town":"幸岡","town_kana":"サチオカ","prefecture_code":1},"1134":{"zip_code":"0991134","prefecture":"北海道","prefecture_kana":"ホッカイドウ","city":"常呂郡置戸町","city_kana":"トコログンオケトチョウ","town":"十全","town_kana":"ジュウゼン","prefecture_code":1},"1113":{"zip_code":"0991113","prefecture":"北海道","prefecture_kana":"ホッカイドウ","city":"常呂郡置戸町","city_kana":"トコログンオケトチョウ","town":"新光","town_kana":"シンコウ","prefecture_code":1},"1106":{"zip_code":"0991106","prefecture":"北海道","prefecture_kana":"ホッカイドウ","city":"常呂郡置戸町","city_kana":"トコログンオケトチョウ","town":"新和","town_kana":"シンワ","prefecture_code":1},"1105":{"zip_code":"0991105","prefecture":"北海道","prefecture_kana":"ホッカイドウ","city":"常呂郡置戸町","city_kana":"トコログンオケトチョウ","town":"洗心","town_kana":"センシン","prefecture_code":1},"1123":{"zip_code":"0991123","prefecture":"北海道","prefecture_kana":"ホッカイドウ","city":"常呂郡置戸町","city_kana":"トコログンオケトチョウ","town":"拓殖","town_kana":"タクショク","prefecture_code":1},"1124":{"zip_code":"0991124","prefecture":"北海道","prefecture_kana":"ホッカイドウ","city":"常呂郡置戸町","city_kana":"トコログンオケトチョウ","town":"拓実","town_kana":"タクジツ","prefecture_code":1},"1131":{"zip_code":"0991131","prefecture":"北海道","prefecture_kana":"ホッカイドウ","city":"常呂郡置戸町","city_kana":"トコログンオケトチョウ","town":"中央","town_kana":"チュウオウ","prefecture_code":1},"1254":{"zip_code":"0991254","prefecture":"北海道","prefecture_kana":"ホッカイドウ","city":"常呂郡置戸町","city_kana":"トコログンオケトチョウ","town":"常元","town_kana":"ツネモト","prefecture_code":1},"1367":{"zip_code":"0991367","prefecture":"北海道","prefecture_kana":"ホッカイドウ","city":"常呂郡置戸町","city_kana":"トコログンオケトチョウ","town":"常盤","town_kana":"トキワ","prefecture_code":1},"1365":{"zip_code":"0991365","prefecture":"北海道","prefecture_kana":"ホッカイドウ","city":"常呂郡置戸町","city_kana":"トコログンオケトチョウ","town":"豊住","town_kana":"トヨズミ","prefecture_code":1},"1138":{"zip_code":"0991138","prefecture":"北海道","prefecture_kana":"ホッカイドウ","city":"常呂郡置戸町","city_kana":"トコログンオケトチョウ","town":"中里","town_kana":"ナカサト","prefecture_code":1},"1136":{"zip_code":"0991136","prefecture":"北海道","prefecture_kana":"ホッカイドウ","city":"常呂郡置戸町","city_kana":"トコログンオケトチョウ","town":"日進","town_kana":"ニッシン","prefecture_code":1},"1121":{"zip_code":"0991121","prefecture":"北海道","prefecture_kana":"ホッカイドウ","city":"常呂郡置戸町","city_kana":"トコログンオケトチョウ","town":"北農","town_kana":"ホクノウ","prefecture_code":1},"1101":{"zip_code":"0991101","prefecture":"北海道","prefecture_kana":"ホッカイドウ","city":"常呂郡置戸町","city_kana":"トコログンオケトチョウ","town":"北光","town_kana":"ホッコウ","prefecture_code":1},"1102":{"zip_code":"0991102","prefecture":"北海道","prefecture_kana":"ホッカイドウ","city":"常呂郡置戸町","city_kana":"トコログンオケトチョウ","town":"緑","town_kana":"ミドリ","prefecture_code":1},"1117":{"zip_code":"0991117","prefecture":"北海道","prefecture_kana":"ホッカイドウ","city":"常呂郡置戸町","city_kana":"トコログンオケトチョウ","town":"宮坂","town_kana":"ミヤサカ","prefecture_code":1},"1115":{"zip_code":"0991115","prefecture":"北海道","prefecture_kana":"ホッカイドウ","city":"常呂郡置戸町","city_kana":"トコログンオケトチョウ","town":"宮下","town_kana":"ミヤシタ","prefecture_code":1},"1122":{"zip_code":"0991122","prefecture":"北海道","prefecture_kana":"ホッカイドウ","city":"常呂郡置戸町","city_kana":"トコログンオケトチョウ","town":"林友","town_kana":"リンユウ","prefecture_code":1},"1118":{"zip_code":"0991118","prefecture":"北海道","prefecture_kana":"ホッカイドウ","city":"常呂郡置戸町","city_kana":"トコログンオケトチョウ","town":"若木","town_kana":"ワカギ","prefecture_code":1},"1112":{"zip_code":"0991112","prefecture":"北海道","prefecture_kana":"ホッカイドウ","city":"常呂郡置戸町","city_kana":"トコログンオケトチョウ","town":"若松","town_kana":"ワカマツ","prefecture_code":1},"0400":{"zip_code":"0990400","prefecture":"北海道","prefecture_kana":"ホッカイドウ","city":"紋別郡遠軽町","city_kana":"モンベツグンエンガルチョウ","town":"","town_kana":"","prefecture_code":1},"0701":{"zip_code":"0990701","prefecture":"北海道","prefecture_kana":"ホッカイドウ","city":"紋別郡遠軽町","city_kana":"モンベツグンエンガルチョウ","town":"生田原","town_kana":"イクタハラ","prefecture_code":1},"0623":{"zip_code":"0990623","prefecture":"北海道","prefecture_kana":"ホッカイドウ","city":"紋別郡遠軽町","city_kana":"モンベツグンエンガルチョウ","town":"生田原旭野","town_kana":"イクタハラアサヒノ","prefecture_code":1},"0702":{"zip_code":"0990702","prefecture":"北海道","prefecture_kana":"ホッカイドウ","city":"紋別郡遠軽町","city_kana":"モンベツグンエンガルチョウ","town":"生田原伊吹","town_kana":"イクタハライブキ","prefecture_code":1},"0704":{"zip_code":"0990704","prefecture":"北海道","prefecture_kana":"ホッカイドウ","city":"紋別郡遠軽町","city_kana":"モンベツグンエンガルチョウ","town":"生田原岩戸","town_kana":"イクタハライワト","prefecture_code":1},"0705":{"zip_code":"0990705","prefecture":"北海道","prefecture_kana":"ホッカイドウ","city":"紋別郡遠軽町","city_kana":"モンベツグンエンガルチョウ","town":"生田原清里","town_kana":"イクタハラキヨサト","prefecture_code":1},"0624":{"zip_code":"0990624","prefecture":"北海道","prefecture_kana":"ホッカイドウ","city":"紋別郡遠軽町","city_kana":"モンベツグンエンガルチョウ","town":"生田原豊原","town_kana":"イクタハラトヨハラ","prefecture_code":1},"0621":{"zip_code":"0990621","prefecture":"北海道","prefecture_kana":"ホッカイドウ","city":"紋別郡遠軽町","city_kana":"モンベツグンエンガルチョウ","town":"生田原水穂","town_kana":"イクタハラミズホ","prefecture_code":1},"0703":{"zip_code":"0990703","prefecture":"北海道","prefecture_kana":"ホッカイドウ","city":"紋別郡遠軽町","city_kana":"モンベツグンエンガルチョウ","town":"生田原八重","town_kana":"イクタハラヤエ","prefecture_code":1},"0622":{"zip_code":"0990622","prefecture":"北海道","prefecture_kana":"ホッカイドウ","city":"紋別郡遠軽町","city_kana":"モンベツグンエンガルチョウ","town":"生田原安国","town_kana":"イクタハラヤスクニ","prefecture_code":1},"0415":{"zip_code":"0990415","prefecture":"北海道","prefecture_kana":"ホッカイドウ","city":"紋別郡遠軽町","city_kana":"モンベツグンエンガルチョウ","town":"岩見通南","town_kana":"イワミドオリミナミ","prefecture_code":1},"0405":{"zip_code":"0990405","prefecture":"北海道","prefecture_kana":"ホッカイドウ","city":"紋別郡遠軽町","city_kana":"モンベツグンエンガルチョウ","town":"岩見通北","town_kana":"イワミドオリキタ","prefecture_code":1},"0416":{"zip_code":"0990416","prefecture":"北海道","prefecture_kana":"ホッカイドウ","city":"紋別郡遠軽町","city_kana":"モンベツグンエンガルチョウ","town":"大通南","town_kana":"オオドオリミナミ","prefecture_code":1},"0404":{"zip_code":"0990404","prefecture":"北海道","prefecture_kana":"ホッカイドウ","city":"紋別郡遠軽町","city_kana":"モンベツグンエンガルチョウ","town":"大通北","town_kana":"オオドオリキタ","prefecture_code":1},"0126":{"zip_code":"0990126","prefecture":"北海道","prefecture_kana":"ホッカイドウ","city":"紋別郡遠軽町","city_kana":"モンベツグンエンガルチョウ","town":"奥白滝","town_kana":"オクシラタキ","prefecture_code":1},"0401":{"zip_code":"0990401","prefecture":"北海道","prefecture_kana":"ホッカイドウ","city":"紋別郡遠軽町","city_kana":"モンベツグンエンガルチョウ","town":"学田","town_kana":"ガクデン","prefecture_code":1},"0347":{"zip_code":"0990347","prefecture":"北海道","prefecture_kana":"ホッカイドウ","city":"紋別郡遠軽町","city_kana":"モンベツグンエンガルチョウ","town":"柏","town_kana":"カシワ","prefecture_code":1},"0127":{"zip_code":"0990127","prefecture":"北海道","prefecture_kana":"ホッカイドウ","city":"紋別郡遠軽町","city_kana":"モンベツグンエンガルチョウ","town":"上白滝","town_kana":"カミシラタキ","prefecture_code":1},"0102":{"zip_code":"0990102","prefecture":"北海道","prefecture_kana":"ホッカイドウ","city":"紋別郡遠軽町","city_kana":"モンベツグンエンガルチョウ","town":"旧白滝","town_kana":"キュウシラタキ","prefecture_code":1},"0422":{"zip_code":"0990422","prefecture":"北海道","prefecture_kana":"ホッカイドウ","city":"紋別郡遠軽町","city_kana":"モンベツグンエンガルチョウ","town":"清川","town_kana":"キヨカワ","prefecture_code":1},"0413":{"zip_code":"0990413","prefecture":"北海道","prefecture_kana":"ホッカイドウ","city":"紋別郡遠軽町","city_kana":"モンベツグンエンガルチョウ","town":"寿町","town_kana":"コトブキチョウ","prefecture_code":1},"0343":{"zip_code":"0990343","prefecture":"北海道","prefecture_kana":"ホッカイドウ","city":"紋別郡遠軽町","city_kana":"モンベツグンエンガルチョウ","town":"栄野","town_kana":"サカエノ","prefecture_code":1},"0101":{"zip_code":"0990101","prefecture":"北海道","prefecture_kana":"ホッカイドウ","city":"紋別郡遠軽町","city_kana":"モンベツグンエンガルチョウ","town":"下白滝","town_kana":"シモシラタキ","prefecture_code":1},"0426":{"zip_code":"0990426","prefecture":"北海道","prefecture_kana":"ホッカイドウ","city":"紋別郡遠軽町","city_kana":"モンベツグンエンガルチョウ","town":"社名淵","town_kana":"シャナフチ","prefecture_code":1},"0111":{"zip_code":"0990111","prefecture":"北海道","prefecture_kana":"ホッカイドウ","city":"紋別郡遠軽町","city_kana":"モンベツグンエンガルチョウ","town":"白滝","town_kana":"シラタキ","prefecture_code":1},"0123":{"zip_code":"0990123","prefecture":"北海道","prefecture_kana":"ホッカイドウ","city":"紋別郡遠軽町","city_kana":"モンベツグンエンガルチョウ","town":"白滝上支湧別","town_kana":"シラタキカミシュウベツ","prefecture_code":1},"0121":{"zip_code":"0990121","prefecture":"北海道","prefecture_kana":"ホッカイドウ","city":"紋別郡遠軽町","city_kana":"モンベツグンエンガルチョウ","town":"白滝北支湧別","town_kana":"シラタキキタシュウベツ","prefecture_code":1},"0122":{"zip_code":"0990122","prefecture":"北海道","prefecture_kana":"ホッカイドウ","city":"紋別郡遠軽町","city_kana":"モンベツグンエンガルチョウ","town":"白滝支湧別","town_kana":"シラタキシュウベツ","prefecture_code":1},"0125":{"zip_code":"0990125","prefecture":"北海道","prefecture_kana":"ホッカイドウ","city":"紋別郡遠軽町","city_kana":"モンベツグンエンガルチョウ","town":"白滝天狗平","town_kana":"シラタキテングダイラ","prefecture_code":1},"0341":{"zip_code":"0990341","prefecture":"北海道","prefecture_kana":"ホッカイドウ","city":"紋別郡遠軽町","city_kana":"モンベツグンエンガルチョウ","town":"瀬戸瀬東町","town_kana":"セトセヒガシマチ","prefecture_code":1},"0342":{"zip_code":"0990342","prefecture":"北海道","prefecture_kana":"ホッカイドウ","city":"紋別郡遠軽町","city_kana":"モンベツグンエンガルチョウ","town":"瀬戸瀬西町","town_kana":"セトセニシマチ","prefecture_code":1},"0425":{"zip_code":"0990425","prefecture":"北海道","prefecture_kana":"ホッカイドウ","city":"紋別郡遠軽町","city_kana":"モンベツグンエンガルチョウ","town":"千代田","town_kana":"チヨダ","prefecture_code":1},"0408":{"zip_code":"0990408","prefecture":"北海道","prefecture_kana":"ホッカイドウ","city":"紋別郡遠軽町","city_kana":"モンベツグンエンガルチョウ","town":"留岡","town_kana":"トメオカ","prefecture_code":1},"0412":{"zip_code":"0990412","prefecture":"北海道","prefecture_kana":"ホッカイドウ","city":"紋別郡遠軽町","city_kana":"モンベツグンエンガルチョウ","town":"豊里","town_kana":"トヨサト","prefecture_code":1},"0428":{"zip_code":"0990428","prefecture":"北海道","prefecture_kana":"ホッカイドウ","city":"紋別郡遠軽町","city_kana":"モンベツグンエンガルチョウ","town":"西町","town_kana":"ニシマチ","prefecture_code":1},"0344":{"zip_code":"0990344","prefecture":"北海道","prefecture_kana":"ホッカイドウ","city":"紋別郡遠軽町","city_kana":"モンベツグンエンガルチョウ","town":"野上","town_kana":"ノガミ","prefecture_code":1},"0124":{"zip_code":"0990124","prefecture":"北海道","prefecture_kana":"ホッカイドウ","city":"紋別郡遠軽町","city_kana":"モンベツグンエンガルチョウ","town":"東白滝","town_kana":"ヒガシシラタキ","prefecture_code":1},"0410":{"zip_code":"0990410","prefecture":"北海道","prefecture_kana":"ホッカイドウ","city":"紋別郡遠軽町","city_kana":"モンベツグンエンガルチョウ","town":"東町","town_kana":"ヒガシマチ","prefecture_code":1},"0421":{"zip_code":"0990421","prefecture":"北海道","prefecture_kana":"ホッカイドウ","city":"紋別郡遠軽町","city_kana":"モンベツグンエンガルチョウ","town":"福路","town_kana":"フクロ","prefecture_code":1},"0211":{"zip_code":"0990211","prefecture":"北海道","prefecture_kana":"ホッカイドウ","city":"紋別郡遠軽町","city_kana":"モンベツグンエンガルチョウ","town":"丸瀬布金山","town_kana":"マルセップカナヤマ","prefecture_code":1},"0212":{"zip_code":"0990212","prefecture":"北海道","prefecture_kana":"ホッカイドウ","city":"紋別郡遠軽町","city_kana":"モンベツグンエンガルチョウ","town":"丸瀬布上丸","town_kana":"マルセップカミマル","prefecture_code":1},"0213":{"zip_code":"0990213","prefecture":"北海道","prefecture_kana":"ホッカイドウ","city":"紋別郡遠軽町","city_kana":"モンベツグンエンガルチョウ","town":"丸瀬布上武利","town_kana":"マルセップカミムリイ","prefecture_code":1},"0201":{"zip_code":"0990201","prefecture":"北海道","prefecture_kana":"ホッカイドウ","city":"紋別郡遠軽町","city_kana":"モンベツグンエンガルチョウ","town":"丸瀬布新町","town_kana":"マルセップシンマチ","prefecture_code":1},"0214":{"zip_code":"0990214","prefecture":"北海道","prefecture_kana":"ホッカイドウ","city":"紋別郡遠軽町","city_kana":"モンベツグンエンガルチョウ","town":"丸瀬布大平","town_kana":"マルセップタイヘイ","prefecture_code":1},"0202":{"zip_code":"0990202","prefecture":"北海道","prefecture_kana":"ホッカイドウ","city":"紋別郡遠軽町","city_kana":"モンベツグンエンガルチョウ","town":"丸瀬布天神町","town_kana":"マルセップテンジンマチ","prefecture_code":1},"0203":{"zip_code":"0990203","prefecture":"北海道","prefecture_kana":"ホッカイドウ","city":"紋別郡遠軽町","city_kana":"モンベツグンエンガルチョウ","town":"丸瀬布中町","town_kana":"マルセップナカマチ","prefecture_code":1},"0204":{"zip_code":"0990204","prefecture":"北海道","prefecture_kana":"ホッカイドウ","city":"紋別郡遠軽町","city_kana":"モンベツグンエンガルチョウ","town":"丸瀬布西町","town_kana":"マルセップニシマチ","prefecture_code":1},"0205":{"zip_code":"0990205","prefecture":"北海道","prefecture_kana":"ホッカイドウ","city":"紋別郡遠軽町","city_kana":"モンベツグンエンガルチョウ","town":"丸瀬布東町","town_kana":"マルセップヒガシマチ","prefecture_code":1},"0206":{"zip_code":"0990206","prefecture":"北海道","prefecture_kana":"ホッカイドウ","city":"紋別郡遠軽町","city_kana":"モンベツグンエンガルチョウ","town":"丸瀬布水谷町","town_kana":"マルセップミズタニマチ","prefecture_code":1},"0215":{"zip_code":"0990215","prefecture":"北海道","prefecture_kana":"ホッカイドウ","city":"紋別郡遠軽町","city_kana":"モンベツグンエンガルチョウ","town":"丸瀬布南丸","town_kana":"マルセップミナミマル","prefecture_code":1},"0216":{"zip_code":"0990216","prefecture":"北海道","prefecture_kana":"ホッカイドウ","city":"紋別郡遠軽町","city_kana":"モンベツグンエンガルチョウ","town":"丸瀬布武利","town_kana":"マルセップムリイ","prefecture_code":1},"0207":{"zip_code":"0990207","prefecture":"北海道","prefecture_kana":"ホッカイドウ","city":"紋別郡遠軽町","city_kana":"モンベツグンエンガルチョウ","town":"丸瀬布元町","town_kana":"マルセップモトマチ","prefecture_code":1},"0407":{"zip_code":"0990407","prefecture":"北海道","prefecture_kana":"ホッカイドウ","city":"紋別郡遠軽町","city_kana":"モンベツグンエンガルチョウ","town":"丸大","town_kana":"マルダイ","prefecture_code":1},"0414":{"zip_code":"0990414","prefecture":"北海道","prefecture_kana":"ホッカイドウ","city":"紋別郡遠軽町","city_kana":"モンベツグンエンガルチョウ","town":"南町","town_kana":"ミナミマチ","prefecture_code":1},"0427":{"zip_code":"0990427","prefecture":"北海道","prefecture_kana":"ホッカイドウ","city":"紋別郡遠軽町","city_kana":"モンベツグンエンガルチョウ","town":"見晴","town_kana":"ミハラシ","prefecture_code":1},"0424":{"zip_code":"0990424","prefecture":"北海道","prefecture_kana":"ホッカイドウ","city":"紋別郡遠軽町","city_kana":"モンベツグンエンガルチョウ","town":"美山","town_kana":"ミヤマ","prefecture_code":1},"0406":{"zip_code":"0990406","prefecture":"北海道","prefecture_kana":"ホッカイドウ","city":"紋別郡遠軽町","city_kana":"モンベツグンエンガルチョウ","town":"宮前町","town_kana":"ミヤマエチョウ","prefecture_code":1},"0411":{"zip_code":"0990411","prefecture":"北海道","prefecture_kana":"ホッカイドウ","city":"紋別郡遠軽町","city_kana":"モンベツグンエンガルチョウ","town":"向遠軽","town_kana":"ムカイエンガル","prefecture_code":1},"0345":{"zip_code":"0990345","prefecture":"北海道","prefecture_kana":"ホッカイドウ","city":"紋別郡遠軽町","city_kana":"モンベツグンエンガルチョウ","town":"湯の里","town_kana":"ユノサト","prefecture_code":1},"0346":{"zip_code":"0990346","prefecture":"北海道","prefecture_kana":"ホッカイドウ","city":"紋別郡遠軽町","city_kana":"モンベツグンエンガルチョウ","town":"若咲内","town_kana":"ワカサクナイ","prefecture_code":1},"0423":{"zip_code":"0990423","prefecture":"北海道","prefecture_kana":"ホッカイドウ","city":"紋別郡遠軽町","city_kana":"モンベツグンエンガルチョウ","town":"若松","town_kana":"ワカマツ","prefecture_code":1},"0417":{"zip_code":"0990417","prefecture":"北海道","prefecture_kana":"ホッカイドウ","city":"紋別郡遠軽町","city_kana":"モンベツグンエンガルチョウ","town":"一条通南","town_kana":"1ジョウドオリミナミ","prefecture_code":1},"0403":{"zip_code":"0990403","prefecture":"北海道","prefecture_kana":"ホッカイドウ","city":"紋別郡遠軽町","city_kana":"モンベツグンエンガルチョウ","town":"一条通北","town_kana":"1ジョウドオリキタ","prefecture_code":1},"0418":{"zip_code":"0990418","prefecture":"北海道","prefecture_kana":"ホッカイドウ","city":"紋別郡遠軽町","city_kana":"モンベツグンエンガルチョウ","town":"二条通南","town_kana":"2ジョウドオリミナミ","prefecture_code":1},"0402":{"zip_code":"0990402","prefecture":"北海道","prefecture_kana":"ホッカイドウ","city":"紋別郡遠軽町","city_kana":"モンベツグンエンガルチョウ","town":"二条通北","town_kana":"2ジョウドオリキタ","prefecture_code":1},"6400":{"zip_code":"0996400","prefecture":"北海道","prefecture_kana":"ホッカイドウ","city":"紋別郡湧別町","city_kana":"モンベツグンユウベツチョウ","town":"","town_kana":"","prefecture_code":1},"6402":{"zip_code":"0996402","prefecture":"北海道","prefecture_kana":"ホッカイドウ","city":"紋別郡湧別町","city_kana":"モンベツグンユウベツチョウ","town":"曙町","town_kana":"アケボノマチ","prefecture_code":1},"6321":{"zip_code":"0996321","prefecture":"北海道","prefecture_kana":"ホッカイドウ","city":"紋別郡湧別町","city_kana":"モンベツグンユウベツチョウ","town":"旭","town_kana":"アサヒ","prefecture_code":1},"6503":{"zip_code":"0996503","prefecture":"北海道","prefecture_kana":"ホッカイドウ","city":"紋別郡湧別町","city_kana":"モンベツグンユウベツチョウ","town":"開盛","town_kana":"カイセイ","prefecture_code":1},"6504":{"zip_code":"0996504","prefecture":"北海道","prefecture_kana":"ホッカイドウ","city":"紋別郡湧別町","city_kana":"モンベツグンユウベツチョウ","town":"上富美","town_kana":"カミフミ","prefecture_code":1},"6501":{"zip_code":"0996501","prefecture":"北海道","prefecture_kana":"ホッカイドウ","city":"紋別郡湧別町","city_kana":"モンベツグンユウベツチョウ","town":"上湧別屯田市街地","town_kana":"カミユウベツトンデンシガイチ","prefecture_code":1},"6415":{"zip_code":"0996415","prefecture":"北海道","prefecture_kana":"ホッカイドウ","city":"紋別郡湧別町","city_kana":"モンベツグンユウベツチョウ","town":"川西","town_kana":"カワニシ","prefecture_code":1},"6325":{"zip_code":"0996325","prefecture":"北海道","prefecture_kana":"ホッカイドウ","city":"紋別郡湧別町","city_kana":"モンベツグンユウベツチョウ","town":"北兵村一区","town_kana":"キタヘイソンイック","prefecture_code":1},"6323":{"zip_code":"0996323","prefecture":"北海道","prefecture_kana":"ホッカイドウ","city":"紋別郡湧別町","city_kana":"モンベツグンユウベツチョウ","town":"北兵村二区","town_kana":"キタヘイソンニク","prefecture_code":1},"6322":{"zip_code":"0996322","prefecture":"北海道","prefecture_kana":"ホッカイドウ","city":"紋別郡湧別町","city_kana":"モンベツグンユウベツチョウ","town":"北兵村三区","town_kana":"キタヘイソンサンク","prefecture_code":1},"6404":{"zip_code":"0996404","prefecture":"北海道","prefecture_kana":"ホッカイドウ","city":"紋別郡湧別町","city_kana":"モンベツグンユウベツチョウ","town":"栄町","town_kana":"サカエマチ","prefecture_code":1},"6506":{"zip_code":"0996506","prefecture":"北海道","prefecture_kana":"ホッカイドウ","city":"紋別郡湧別町","city_kana":"モンベツグンユウベツチョウ","town":"札富美","town_kana":"サツフミ","prefecture_code":1},"6271":{"zip_code":"0996271","prefecture":"北海道","prefecture_kana":"ホッカイドウ","city":"紋別郡湧別町","city_kana":"モンベツグンユウベツチョウ","town":"信部内","town_kana":"シブナイ","prefecture_code":1},"6412":{"zip_code":"0996412","prefecture":"北海道","prefecture_kana":"ホッカイドウ","city":"紋別郡湧別町","city_kana":"モンベツグンユウベツチョウ","town":"登栄床","town_kana":"トエトコ","prefecture_code":1},"6326":{"zip_code":"0996326","prefecture":"北海道","prefecture_kana":"ホッカイドウ","city":"紋別郡湧別町","city_kana":"モンベツグンユウベツチョウ","town":"中湧別北町","town_kana":"ナカユウベツキタマチ","prefecture_code":1},"6329":{"zip_code":"0996329","prefecture":"北海道","prefecture_kana":"ホッカイドウ","city":"紋別郡湧別町","city_kana":"モンベツグンユウベツチョウ","town":"中湧別中町","town_kana":"ナカユウベツナカマチ","prefecture_code":1},"6327":{"zip_code":"0996327","prefecture":"北海道","prefecture_kana":"ホッカイドウ","city":"紋別郡湧別町","city_kana":"モンベツグンユウベツチョウ","town":"中湧別東町","town_kana":"ナカユウベツヒガシマチ","prefecture_code":1},"6328":{"zip_code":"0996328","prefecture":"北海道","prefecture_kana":"ホッカイドウ","city":"紋別郡湧別町","city_kana":"モンベツグンユウベツチョウ","town":"中湧別南町","town_kana":"ナカユウベツミナミマチ","prefecture_code":1},"6414":{"zip_code":"0996414","prefecture":"北海道","prefecture_kana":"ホッカイドウ","city":"紋別郡湧別町","city_kana":"モンベツグンユウベツチョウ","town":"錦町","town_kana":"ニシキマチ","prefecture_code":1},"6411":{"zip_code":"0996411","prefecture":"北海道","prefecture_kana":"ホッカイドウ","city":"紋別郡湧別町","city_kana":"モンベツグンユウベツチョウ","town":"東","town_kana":"ヒガシ","prefecture_code":1},"6413":{"zip_code":"0996413","prefecture":"北海道","prefecture_kana":"ホッカイドウ","city":"紋別郡湧別町","city_kana":"モンベツグンユウベツチョウ","town":"福島","town_kana":"フクシマ","prefecture_code":1},"6505":{"zip_code":"0996505","prefecture":"北海道","prefecture_kana":"ホッカイドウ","city":"紋別郡湧別町","city_kana":"モンベツグンユウベツチョウ","town":"富美","town_kana":"フミ","prefecture_code":1},"6403":{"zip_code":"0996403","prefecture":"北海道","prefecture_kana":"ホッカイドウ","city":"紋別郡湧別町","city_kana":"モンベツグンユウベツチョウ","town":"緑町","town_kana":"ミドリマチ","prefecture_code":1},"6401":{"zip_code":"0996401","prefecture":"北海道","prefecture_kana":"ホッカイドウ","city":"紋別郡湧別町","city_kana":"モンベツグンユウベツチョウ","town":"港町","town_kana":"ミナトマチ","prefecture_code":1},"6509":{"zip_code":"0996509","prefecture":"北海道","prefecture_kana":"ホッカイドウ","city":"紋別郡湧別町","city_kana":"モンベツグンユウベツチョウ","town":"南兵村一区","town_kana":"ミナミヘイソンイック","prefecture_code":1},"6508":{"zip_code":"0996508","prefecture":"北海道","prefecture_kana":"ホッカイドウ","city":"紋別郡湧別町","city_kana":"モンベツグンユウベツチョウ","town":"南兵村二区","town_kana":"ミナミヘイソンニク","prefecture_code":1},"6507":{"zip_code":"0996507","prefecture":"北海道","prefecture_kana":"ホッカイドウ","city":"紋別郡湧別町","city_kana":"モンベツグンユウベツチョウ","town":"南兵村三区","town_kana":"ミナミヘイソンサンク","prefecture_code":1},"6272":{"zip_code":"0996272","prefecture":"北海道","prefecture_kana":"ホッカイドウ","city":"紋別郡湧別町","city_kana":"モンベツグンユウベツチョウ","town":"緑蔭","town_kana":"リョクイン","prefecture_code":1},"5600":{"zip_code":"0995600","prefecture":"北海道","prefecture_kana":"ホッカイドウ","city":"紋別郡滝上町","city_kana":"モンベツグンタキノウエチョウ","town":"","town_kana":"","prefecture_code":1},"5601":{"zip_code":"0995601","prefecture":"北海道","prefecture_kana":"ホッカイドウ","city":"紋別郡滝上町","city_kana":"モンベツグンタキノウエチョウ","town":"あけぼの町","town_kana":"アケボノマチ","prefecture_code":1},"5602":{"zip_code":"0995602","prefecture":"北海道","prefecture_kana":"ホッカイドウ","city":"紋別郡滝上町","city_kana":"モンベツグンタキノウエチョウ","town":"旭町","town_kana":"アサヒマチ","prefecture_code":1},"5544":{"zip_code":"0995544","prefecture":"北海道","prefecture_kana":"ホッカイドウ","city":"紋別郡滝上町","city_kana":"モンベツグンタキノウエチョウ","town":"雄鎮内","town_kana":"オチンナイ","prefecture_code":1},"5606":{"zip_code":"0995606","prefecture":"北海道","prefecture_kana":"ホッカイドウ","city":"紋別郡滝上町","city_kana":"モンベツグンタキノウエチョウ","town":"幸町","town_kana":"サイワイマチ","prefecture_code":1},"5605":{"zip_code":"0995605","prefecture":"北海道","prefecture_kana":"ホッカイドウ","city":"紋別郡滝上町","city_kana":"モンベツグンタキノウエチョウ","town":"栄町","town_kana":"サカエマチ","prefecture_code":1},"5614":{"zip_code":"0995614","prefecture":"北海道","prefecture_kana":"ホッカイドウ","city":"紋別郡滝上町","city_kana":"モンベツグンタキノウエチョウ","town":"札久留","town_kana":"サックル","prefecture_code":1},"5612":{"zip_code":"0995612","prefecture":"北海道","prefecture_kana":"ホッカイドウ","city":"紋別郡滝上町","city_kana":"モンベツグンタキノウエチョウ","town":"第２区","town_kana":"ダイ2ク","prefecture_code":1},"5543":{"zip_code":"0995543","prefecture":"北海道","prefecture_kana":"ホッカイドウ","city":"紋別郡滝上町","city_kana":"モンベツグンタキノウエチョウ","town":"新町","town_kana":"シンマチ","prefecture_code":1},"5611":{"zip_code":"0995611","prefecture":"北海道","prefecture_kana":"ホッカイドウ","city":"紋別郡滝上町","city_kana":"モンベツグンタキノウエチョウ","town":"第１区","town_kana":"ダイ1ク","prefecture_code":1},"5613":{"zip_code":"0995613","prefecture":"北海道","prefecture_kana":"ホッカイドウ","city":"紋別郡滝上町","city_kana":"モンベツグンタキノウエチョウ","town":"滝西","town_kana":"タキニシ","prefecture_code":1},"5551":{"zip_code":"0995551","prefecture":"北海道","prefecture_kana":"ホッカイドウ","city":"紋別郡滝上町","city_kana":"モンベツグンタキノウエチョウ","town":"大正","town_kana":"タイショウ","prefecture_code":1},"5552":{"zip_code":"0995552","prefecture":"北海道","prefecture_kana":"ホッカイドウ","city":"紋別郡滝上町","city_kana":"モンベツグンタキノウエチョウ","town":"滝下","town_kana":"タキシタ","prefecture_code":1},"5603":{"zip_code":"0995603","prefecture":"北海道","prefecture_kana":"ホッカイドウ","city":"紋別郡滝上町","city_kana":"モンベツグンタキノウエチョウ","town":"滝美町","town_kana":"タキミマチ","prefecture_code":1},"5541":{"zip_code":"0995541","prefecture":"北海道","prefecture_kana":"ホッカイドウ","city":"紋別郡滝上町","city_kana":"モンベツグンタキノウエチョウ","town":"濁川中央","town_kana":"ニゴリカワチュウオウ","prefecture_code":1},"5542":{"zip_code":"0995542","prefecture":"北海道","prefecture_kana":"ホッカイドウ","city":"紋別郡滝上町","city_kana":"モンベツグンタキノウエチョウ","town":"濁川みどり町","town_kana":"ニゴリカワミドリマチ","prefecture_code":1},"5604":{"zip_code":"0995604","prefecture":"北海道","prefecture_kana":"ホッカイドウ","city":"紋別郡滝上町","city_kana":"モンベツグンタキノウエチョウ","town":"元町","town_kana":"モトマチ","prefecture_code":1},"5553":{"zip_code":"0995553","prefecture":"北海道","prefecture_kana":"ホッカイドウ","city":"紋別郡滝上町","city_kana":"モンベツグンタキノウエチョウ","town":"雄柏","town_kana":"ユウハク","prefecture_code":1},"2300":{"zip_code":"0992300","prefecture":"北海道","prefecture_kana":"ホッカイドウ","city":"網走郡大空町","city_kana":"アバシリグンオオゾラチョウ","town":"","town_kana":"","prefecture_code":1},"3222":{"zip_code":"0993222","prefecture":"北海道","prefecture_kana":"ホッカイドウ","city":"網走郡大空町","city_kana":"アバシリグンオオゾラチョウ","town":"東藻琴新富","town_kana":"ヒガシモコトシントミ","prefecture_code":1},"3232":{"zip_code":"0993232","prefecture":"北海道","prefecture_kana":"ホッカイドウ","city":"網走郡大空町","city_kana":"アバシリグンオオゾラチョウ","town":"東藻琴末広","town_kana":"ヒガシモコトスエヒロ","prefecture_code":1},"3221":{"zip_code":"0993221","prefecture":"北海道","prefecture_kana":"ホッカイドウ","city":"網走郡大空町","city_kana":"アバシリグンオオゾラチョウ","town":"東藻琴大進","town_kana":"ヒガシモコトタイシン","prefecture_code":1},"3231":{"zip_code":"0993231","prefecture":"北海道","prefecture_kana":"ホッカイドウ","city":"網走郡大空町","city_kana":"アバシリグンオオゾラチョウ","town":"東藻琴千草","town_kana":"ヒガシモコトチクサ","prefecture_code":1},"3202":{"zip_code":"0993202","prefecture":"北海道","prefecture_kana":"ホッカイドウ","city":"網走郡大空町","city_kana":"アバシリグンオオゾラチョウ","town":"東藻琴西倉","town_kana":"ヒガシモコトニシクラ","prefecture_code":1},"3234":{"zip_code":"0993234","prefecture":"北海道","prefecture_kana":"ホッカイドウ","city":"網走郡大空町","city_kana":"アバシリグンオオゾラチョウ","town":"東藻琴福富","town_kana":"ヒガシモコトフクトミ","prefecture_code":1},"3224":{"zip_code":"0993224","prefecture":"北海道","prefecture_kana":"ホッカイドウ","city":"網走郡大空町","city_kana":"アバシリグンオオゾラチョウ","town":"東藻琴明生","town_kana":"ヒガシモコトメイセイ","prefecture_code":1},"3243":{"zip_code":"0993243","prefecture":"北海道","prefecture_kana":"ホッカイドウ","city":"網走郡大空町","city_kana":"アバシリグンオオゾラチョウ","town":"東藻琴山園","town_kana":"ヒガシモコトヤマゾノ","prefecture_code":1},"3225":{"zip_code":"0993225","prefecture":"北海道","prefecture_kana":"ホッカイドウ","city":"網走郡大空町","city_kana":"アバシリグンオオゾラチョウ","town":"東藻琴","town_kana":"ヒガシモコト","prefecture_code":1},"3233":{"zip_code":"0993233","prefecture":"北海道","prefecture_kana":"ホッカイドウ","city":"網走郡大空町","city_kana":"アバシリグンオオゾラチョウ","town":"東藻琴","town_kana":"ヒガシモコト","prefecture_code":1},"3211":{"zip_code":"0993211","prefecture":"北海道","prefecture_kana":"ホッカイドウ","city":"網走郡大空町","city_kana":"アバシリグンオオゾラチョウ","town":"東藻琴","town_kana":"ヒガシモコト","prefecture_code":1},"3212":{"zip_code":"0993212","prefecture":"北海道","prefecture_kana":"ホッカイドウ","city":"網走郡大空町","city_kana":"アバシリグンオオゾラチョウ","town":"東藻琴","town_kana":"ヒガシモコト","prefecture_code":1},"3213":{"zip_code":"0993213","prefecture":"北海道","prefecture_kana":"ホッカイドウ","city":"網走郡大空町","city_kana":"アバシリグンオオゾラチョウ","town":"東藻琴","town_kana":"ヒガシモコト","prefecture_code":1},"3201":{"zip_code":"0993201","prefecture":"北海道","prefecture_kana":"ホッカイドウ","city":"網走郡大空町","city_kana":"アバシリグンオオゾラチョウ","town":"東藻琴","town_kana":"ヒガシモコト","prefecture_code":1},"3223":{"zip_code":"0993223","prefecture":"北海道","prefecture_kana":"ホッカイドウ","city":"網走郡大空町","city_kana":"アバシリグンオオゾラチョウ","town":"東藻琴","town_kana":"ヒガシモコト","prefecture_code":1},"3214":{"zip_code":"0993214","prefecture":"北海道","prefecture_kana":"ホッカイドウ","city":"網走郡大空町","city_kana":"アバシリグンオオゾラチョウ","town":"東藻琴","town_kana":"ヒガシモコト","prefecture_code":1},"3244":{"zip_code":"0993244","prefecture":"北海道","prefecture_kana":"ホッカイドウ","city":"網走郡大空町","city_kana":"アバシリグンオオゾラチョウ","town":"東藻琴","town_kana":"ヒガシモコト","prefecture_code":1},"2362":{"zip_code":"0992362","prefecture":"北海道","prefecture_kana":"ホッカイドウ","city":"網走郡大空町","city_kana":"アバシリグンオオゾラチョウ","town":"女満別朝日","town_kana":"メマンベツアサヒ","prefecture_code":1},"2382":{"zip_code":"0992382","prefecture":"北海道","prefecture_kana":"ホッカイドウ","city":"網走郡大空町","city_kana":"アバシリグンオオゾラチョウ","town":"女満別開陽","town_kana":"メマンベツカイヨウ","prefecture_code":1},"2304":{"zip_code":"0992304","prefecture":"北海道","prefecture_kana":"ホッカイドウ","city":"網走郡大空町","city_kana":"アバシリグンオオゾラチョウ","town":"女満別公園","town_kana":"メマンベツコウエン","prefecture_code":1},"2351":{"zip_code":"0992351","prefecture":"北海道","prefecture_kana":"ホッカイドウ","city":"網走郡大空町","city_kana":"アバシリグンオオゾラチョウ","town":"女満別公園通","town_kana":"メマンベツコウエンドオリ","prefecture_code":1},"2361":{"zip_code":"0992361","prefecture":"北海道","prefecture_kana":"ホッカイドウ","city":"網走郡大空町","city_kana":"アバシリグンオオゾラチョウ","town":"女満別湖南","town_kana":"メマンベツコナン","prefecture_code":1},"2306":{"zip_code":"0992306","prefecture":"北海道","prefecture_kana":"ホッカイドウ","city":"網走郡大空町","city_kana":"アバシリグンオオゾラチョウ","town":"女満別湖畔","town_kana":"メマンベツコハン","prefecture_code":1},"2356":{"zip_code":"0992356","prefecture":"北海道","prefecture_kana":"ホッカイドウ","city":"網走郡大空町","city_kana":"アバシリグンオオゾラチョウ","town":"女満別昭和","town_kana":"メマンベツショウワ","prefecture_code":1},"2302":{"zip_code":"0992302","prefecture":"北海道","prefecture_kana":"ホッカイドウ","city":"網走郡大空町","city_kana":"アバシリグンオオゾラチョウ","town":"女満別住吉","town_kana":"メマンベツスミヨシ","prefecture_code":1},"2381":{"zip_code":"0992381","prefecture":"北海道","prefecture_kana":"ホッカイドウ","city":"網走郡大空町","city_kana":"アバシリグンオオゾラチョウ","town":"女満別大成","town_kana":"メマンベツタイセイ","prefecture_code":1},"2372":{"zip_code":"0992372","prefecture":"北海道","prefecture_kana":"ホッカイドウ","city":"網走郡大空町","city_kana":"アバシリグンオオゾラチョウ","town":"女満別大東","town_kana":"メマンベツダイトウ","prefecture_code":1},"2371":{"zip_code":"0992371","prefecture":"北海道","prefecture_kana":"ホッカイドウ","city":"網走郡大空町","city_kana":"アバシリグンオオゾラチョウ","town":"女満別中央","town_kana":"メマンベツチュウオウ","prefecture_code":1},"2354":{"zip_code":"0992354","prefecture":"北海道","prefecture_kana":"ホッカイドウ","city":"網走郡大空町","city_kana":"アバシリグンオオゾラチョウ","town":"女満別眺湖台","town_kana":"メマンベツチョウコダイ","prefecture_code":1},"2305":{"zip_code":"0992305","prefecture":"北海道","prefecture_kana":"ホッカイドウ","city":"網走郡大空町","city_kana":"アバシリグンオオゾラチョウ","town":"女満別東陽","town_kana":"メマンベツトウヨウ","prefecture_code":1},"2373":{"zip_code":"0992373","prefecture":"北海道","prefecture_kana":"ホッカイドウ","city":"網走郡大空町","city_kana":"アバシリグンオオゾラチョウ","town":"女満別巴沢","town_kana":"メマンベツトモエザワ","prefecture_code":1},"2303":{"zip_code":"0992303","prefecture":"北海道","prefecture_kana":"ホッカイドウ","city":"網走郡大空町","city_kana":"アバシリグンオオゾラチョウ","town":"女満別豊里","town_kana":"メマンベツトヨサト","prefecture_code":1},"2321":{"zip_code":"0992321","prefecture":"北海道","prefecture_kana":"ホッカイドウ","city":"網走郡大空町","city_kana":"アバシリグンオオゾラチョウ","town":"女満別西一条","town_kana":"メマンベツニシ1ジョウ","prefecture_code":1},"2322":{"zip_code":"0992322","prefecture":"北海道","prefecture_kana":"ホッカイドウ","city":"網走郡大空町","city_kana":"アバシリグンオオゾラチョウ","town":"女満別西二条","town_kana":"メマンベツニシ2ジョウ","prefecture_code":1},"2323":{"zip_code":"0992323","prefecture":"北海道","prefecture_kana":"ホッカイドウ","city":"網走郡大空町","city_kana":"アバシリグンオオゾラチョウ","town":"女満別西三条","town_kana":"メマンベツニシ3ジョウ","prefecture_code":1},"2324":{"zip_code":"0992324","prefecture":"北海道","prefecture_kana":"ホッカイドウ","city":"網走郡大空町","city_kana":"アバシリグンオオゾラチョウ","town":"女満別西四条","town_kana":"メマンベツニシ4ジョウ","prefecture_code":1},"2325":{"zip_code":"0992325","prefecture":"北海道","prefecture_kana":"ホッカイドウ","city":"網走郡大空町","city_kana":"アバシリグンオオゾラチョウ","town":"女満別西五条","town_kana":"メマンベツニシ5ジョウ","prefecture_code":1},"2326":{"zip_code":"0992326","prefecture":"北海道","prefecture_kana":"ホッカイドウ","city":"網走郡大空町","city_kana":"アバシリグンオオゾラチョウ","town":"女満別西六条","town_kana":"メマンベツニシ6ジョウ","prefecture_code":1},"2327":{"zip_code":"0992327","prefecture":"北海道","prefecture_kana":"ホッカイドウ","city":"網走郡大空町","city_kana":"アバシリグンオオゾラチョウ","town":"女満別西七条","town_kana":"メマンベツニシ7ジョウ","prefecture_code":1},"2383":{"zip_code":"0992383","prefecture":"北海道","prefecture_kana":"ホッカイドウ","city":"網走郡大空町","city_kana":"アバシリグンオオゾラチョウ","town":"女満別日進","town_kana":"メマンベツニッシン","prefecture_code":1},"2311":{"zip_code":"0992311","prefecture":"北海道","prefecture_kana":"ホッカイドウ","city":"網走郡大空町","city_kana":"アバシリグンオオゾラチョウ","town":"女満別東一条","town_kana":"メマンベツヒガシ1ジョウ","prefecture_code":1},"2312":{"zip_code":"0992312","prefecture":"北海道","prefecture_kana":"ホッカイドウ","city":"網走郡大空町","city_kana":"アバシリグンオオゾラチョウ","town":"女満別東二条","town_kana":"メマンベツヒガシ2ジョウ","prefecture_code":1},"2301":{"zip_code":"0992301","prefecture":"北海道","prefecture_kana":"ホッカイドウ","city":"網走郡大空町","city_kana":"アバシリグンオオゾラチョウ","town":"女満別本郷","town_kana":"メマンベツホンゴウ","prefecture_code":1},"2310":{"zip_code":"0992310","prefecture":"北海道","prefecture_kana":"ホッカイドウ","city":"網走郡大空町","city_kana":"アバシリグンオオゾラチョウ","town":"女満別本通","town_kana":"メマンベツホンドオリ","prefecture_code":1},"2355":{"zip_code":"0992355","prefecture":"北海道","prefecture_kana":"ホッカイドウ","city":"網走郡大空町","city_kana":"アバシリグンオオゾラチョウ","town":"女満別夕陽台","town_kana":"メマンベツユウヒダイ","prefecture_code":1}}