{"0000":{"zip_code":"1000000","prefecture":"東京都","prefecture_kana":"トウキョウト","city":"千代田区","city_kana":"チヨダク","town":"","town_kana":"","prefecture_code":13},"0011":{"zip_code":"1000011","prefecture":"東京都","prefecture_kana":"トウキョウト","city":"千代田区","city_kana":"チヨダク","town":"内幸町","town_kana":"ウチサイワイチョウ","prefecture_code":13},"0004":{"zip_code":"1000004","prefecture":"東京都","prefecture_kana":"トウキョウト","city":"千代田区","city_kana":"チヨダク","town":"大手町","town_kana":"オオテマチ","prefecture_code":13},"6890":{"zip_code":"1006890","prefecture":"東京都","prefecture_kana":"トウキョウト","city":"千代田区","city_kana":"チヨダク","town":"大手町ＪＡビル","town_kana":"オオテマチジェイエイビル","prefecture_code":13},"6801":{"zip_code":"1006801","prefecture":"東京都","prefecture_kana":"トウキョウト","city":"千代田区","city_kana":"チヨダク","town":"大手町ＪＡビル　１階","town_kana":"オオテマチジェイエイビル1カイ","prefecture_code":13},"6802":{"zip_code":"1006802","prefecture":"東京都","prefecture_kana":"トウキョウト","city":"千代田区","city_kana":"チヨダク","town":"大手町ＪＡビル　２階","town_kana":"オオテマチジェイエイビル2カイ","prefecture_code":13},"6803":{"zip_code":"1006803","prefecture":"東京都","prefecture_kana":"トウキョウト","city":"千代田区","city_kana":"チヨダク","town":"大手町ＪＡビル　３階","town_kana":"オオテマチジェイエイビル3カイ","prefecture_code":13},"6804":{"zip_code":"1006804","prefecture":"東京都","prefecture_kana":"トウキョウト","city":"千代田区","city_kana":"チヨダク","town":"大手町ＪＡビル　４階","town_kana":"オオテマチジェイエイビル4カイ","prefecture_code":13},"6805":{"zip_code":"1006805","prefecture":"東京都","prefecture_kana":"トウキョウト","city":"千代田区","city_kana":"チヨダク","town":"大手町ＪＡビル　５階","town_kana":"オオテマチジェイエイビル5カイ","prefecture_code":13},"6806":{"zip_code":"1006806","prefecture":"東京都","prefecture_kana":"トウキョウト","city":"千代田区","city_kana":"チヨダク","town":"大手町ＪＡビル　６階","town_kana":"オオテマチジェイエイビル6カイ","prefecture_code":13},"6807":{"zip_code":"1006807","prefecture":"東京都","prefecture_kana":"トウキョウト","city":"千代田区","city_kana":"チヨダク","town":"大手町ＪＡビル　７階","town_kana":"オオテマチジェイエイビル7カイ","prefecture_code":13},"6808":{"zip_code":"1006808","prefecture":"東京都","prefecture_kana":"トウキョウト","city":"千代田区","city_kana":"チヨダク","town":"大手町ＪＡビル　８階","town_kana":"オオテマチジェイエイビル8カイ","prefecture_code":13},"6809":{"zip_code":"1006809","prefecture":"東京都","prefecture_kana":"トウキョウト","city":"千代田区","city_kana":"チヨダク","town":"大手町ＪＡビル　９階","town_kana":"オオテマチジェイエイビル9カイ","prefecture_code":13},"6810":{"zip_code":"1006810","prefecture":"東京都","prefecture_kana":"トウキョウト","city":"千代田区","city_kana":"チヨダク","town":"大手町ＪＡビル　１０階","town_kana":"オオテマチジェイエイビル10カイ","prefecture_code":13},"6811":{"zip_code":"1006811","prefecture":"東京都","prefecture_kana":"トウキョウト","city":"千代田区","city_kana":"チヨダク","town":"大手町ＪＡビル　１１階","town_kana":"オオテマチジェイエイビル11カイ","prefecture_code":13},"6812":{"zip_code":"1006812","prefecture":"東京都","prefecture_kana":"トウキョウト","city":"千代田区","city_kana":"チヨダク","town":"大手町ＪＡビル　１２階","town_kana":"オオテマチジェイエイビル12カイ","prefecture_code":13},"6813":{"zip_code":"1006813","prefecture":"東京都","prefecture_kana":"トウキョウト","city":"千代田区","city_kana":"チヨダク","town":"大手町ＪＡビル　１３階","town_kana":"オオテマチジェイエイビル13カイ","prefecture_code":13},"6814":{"zip_code":"1006814","prefecture":"東京都","prefecture_kana":"トウキョウト","city":"千代田区","city_kana":"チヨダク","town":"大手町ＪＡビル　１４階","town_kana":"オオテマチジェイエイビル14カイ","prefecture_code":13},"6815":{"zip_code":"1006815","prefecture":"東京都","prefecture_kana":"トウキョウト","city":"千代田区","city_kana":"チヨダク","town":"大手町ＪＡビル　１５階","town_kana":"オオテマチジェイエイビル15カイ","prefecture_code":13},"6816":{"zip_code":"1006816","prefecture":"東京都","prefecture_kana":"トウキョウト","city":"千代田区","city_kana":"チヨダク","town":"大手町ＪＡビル　１６階","town_kana":"オオテマチジェイエイビル16カイ","prefecture_code":13},"6817":{"zip_code":"1006817","prefecture":"東京都","prefecture_kana":"トウキョウト","city":"千代田区","city_kana":"チヨダク","town":"大手町ＪＡビル　１７階","town_kana":"オオテマチジェイエイビル17カイ","prefecture_code":13},"6818":{"zip_code":"1006818","prefecture":"東京都","prefecture_kana":"トウキョウト","city":"千代田区","city_kana":"チヨダク","town":"大手町ＪＡビル　１８階","town_kana":"オオテマチジェイエイビル18カイ","prefecture_code":13},"6819":{"zip_code":"1006819","prefecture":"東京都","prefecture_kana":"トウキョウト","city":"千代田区","city_kana":"チヨダク","town":"大手町ＪＡビル　１９階","town_kana":"オオテマチジェイエイビル19カイ","prefecture_code":13},"6820":{"zip_code":"1006820","prefecture":"東京都","prefecture_kana":"トウキョウト","city":"千代田区","city_kana":"チヨダク","town":"大手町ＪＡビル　２０階","town_kana":"オオテマチジェイエイビル20カイ","prefecture_code":13},"6821":{"zip_code":"1006821","prefecture":"東京都","prefecture_kana":"トウキョウト","city":"千代田区","city_kana":"チヨダク","town":"大手町ＪＡビル　２１階","town_kana":"オオテマチジェイエイビル21カイ","prefecture_code":13},"6822":{"zip_code":"1006822","prefecture":"東京都","prefecture_kana":"トウキョウト","city":"千代田区","city_kana":"チヨダク","town":"大手町ＪＡビル　２２階","town_kana":"オオテマチジェイエイビル22カイ","prefecture_code":13},"6823":{"zip_code":"1006823","prefecture":"東京都","prefecture_kana":"トウキョウト","city":"千代田区","city_kana":"チヨダク","town":"大手町ＪＡビル　２３階","town_kana":"オオテマチジェイエイビル23カイ","prefecture_code":13},"6824":{"zip_code":"1006824","prefecture":"東京都","prefecture_kana":"トウキョウト","city":"千代田区","city_kana":"チヨダク","town":"大手町ＪＡビル　２４階","town_kana":"オオテマチジェイエイビル24カイ","prefecture_code":13},"6825":{"zip_code":"1006825","prefecture":"東京都","prefecture_kana":"トウキョウト","city":"千代田区","city_kana":"チヨダク","town":"大手町ＪＡビル　２５階","town_kana":"オオテマチジェイエイビル25カイ","prefecture_code":13},"6826":{"zip_code":"1006826","prefecture":"東京都","prefecture_kana":"トウキョウト","city":"千代田区","city_kana":"チヨダク","town":"大手町ＪＡビル　２６階","town_kana":"オオテマチジェイエイビル26カイ","prefecture_code":13},"6827":{"zip_code":"1006827","prefecture":"東京都","prefecture_kana":"トウキョウト","city":"千代田区","city_kana":"チヨダク","town":"大手町ＪＡビル　２７階","town_kana":"オオテマチジェイエイビル27カイ","prefecture_code":13},"6828":{"zip_code":"1006828","prefecture":"東京都","prefecture_kana":"トウキョウト","city":"千代田区","city_kana":"チヨダク","town":"大手町ＪＡビル　２８階","town_kana":"オオテマチジェイエイビル28カイ","prefecture_code":13},"6829":{"zip_code":"1006829","prefecture":"東京都","prefecture_kana":"トウキョウト","city":"千代田区","city_kana":"チヨダク","town":"大手町ＪＡビル　２９階","town_kana":"オオテマチジェイエイビル29カイ","prefecture_code":13},"6830":{"zip_code":"1006830","prefecture":"東京都","prefecture_kana":"トウキョウト","city":"千代田区","city_kana":"チヨダク","town":"大手町ＪＡビル　３０階","town_kana":"オオテマチジェイエイビル30カイ","prefecture_code":13},"6831":{"zip_code":"1006831","prefecture":"東京都","prefecture_kana":"トウキョウト","city":"千代田区","city_kana":"チヨダク","town":"大手町ＪＡビル　３１階","town_kana":"オオテマチジェイエイビル31カイ","prefecture_code":13},"6832":{"zip_code":"1006832","prefecture":"東京都","prefecture_kana":"トウキョウト","city":"千代田区","city_kana":"チヨダク","town":"大手町ＪＡビル　３２階","town_kana":"オオテマチジェイエイビル32カイ","prefecture_code":13},"6833":{"zip_code":"1006833","prefecture":"東京都","prefecture_kana":"トウキョウト","city":"千代田区","city_kana":"チヨダク","town":"大手町ＪＡビル　３３階","town_kana":"オオテマチジェイエイビル33カイ","prefecture_code":13},"6834":{"zip_code":"1006834","prefecture":"東京都","prefecture_kana":"トウキョウト","city":"千代田区","city_kana":"チヨダク","town":"大手町ＪＡビル　３４階","town_kana":"オオテマチジェイエイビル34カイ","prefecture_code":13},"6835":{"zip_code":"1006835","prefecture":"東京都","prefecture_kana":"トウキョウト","city":"千代田区","city_kana":"チヨダク","town":"大手町ＪＡビル　３５階","town_kana":"オオテマチジェイエイビル35カイ","prefecture_code":13},"6836":{"zip_code":"1006836","prefecture":"東京都","prefecture_kana":"トウキョウト","city":"千代田区","city_kana":"チヨダク","town":"大手町ＪＡビル　３６階","town_kana":"オオテマチジェイエイビル36カイ","prefecture_code":13},"6837":{"zip_code":"1006837","prefecture":"東京都","prefecture_kana":"トウキョウト","city":"千代田区","city_kana":"チヨダク","town":"大手町ＪＡビル　３７階","town_kana":"オオテマチジェイエイビル37カイ","prefecture_code":13},"0013":{"zip_code":"1000013","prefecture":"東京都","prefecture_kana":"トウキョウト","city":"千代田区","city_kana":"チヨダク","town":"霞が関","town_kana":"カスミガセキ","prefecture_code":13},"6090":{"zip_code":"1006090","prefecture":"東京都","prefecture_kana":"トウキョウト","city":"千代田区","city_kana":"チヨダク","town":"霞が関霞が関ビル","town_kana":"カスミガセキカスミガセキビル","prefecture_code":13},"6001":{"zip_code":"1006001","prefecture":"東京都","prefecture_kana":"トウキョウト","city":"千代田区","city_kana":"チヨダク","town":"霞が関霞が関ビル　１階","town_kana":"カスミガセキカスミガセキビル1カイ","prefecture_code":13},"6002":{"zip_code":"1006002","prefecture":"東京都","prefecture_kana":"トウキョウト","city":"千代田区","city_kana":"チヨダク","town":"霞が関霞が関ビル　２階","town_kana":"カスミガセキカスミガセキビル2カイ","prefecture_code":13},"6003":{"zip_code":"1006003","prefecture":"東京都","prefecture_kana":"トウキョウト","city":"千代田区","city_kana":"チヨダク","town":"霞が関霞が関ビル　３階","town_kana":"カスミガセキカスミガセキビル3カイ","prefecture_code":13},"6004":{"zip_code":"1006004","prefecture":"東京都","prefecture_kana":"トウキョウト","city":"千代田区","city_kana":"チヨダク","town":"霞が関霞が関ビル　４階","town_kana":"カスミガセキカスミガセキビル4カイ","prefecture_code":13},"6005":{"zip_code":"1006005","prefecture":"東京都","prefecture_kana":"トウキョウト","city":"千代田区","city_kana":"チヨダク","town":"霞が関霞が関ビル　５階","town_kana":"カスミガセキカスミガセキビル5カイ","prefecture_code":13},"6006":{"zip_code":"1006006","prefecture":"東京都","prefecture_kana":"トウキョウト","city":"千代田区","city_kana":"チヨダク","town":"霞が関霞が関ビル　６階","town_kana":"カスミガセキカスミガセキビル6カイ","prefecture_code":13},"6007":{"zip_code":"1006007","prefecture":"東京都","prefecture_kana":"トウキョウト","city":"千代田区","city_kana":"チヨダク","town":"霞が関霞が関ビル　７階","town_kana":"カスミガセキカスミガセキビル7カイ","prefecture_code":13},"6008":{"zip_code":"1006008","prefecture":"東京都","prefecture_kana":"トウキョウト","city":"千代田区","city_kana":"チヨダク","town":"霞が関霞が関ビル　８階","town_kana":"カスミガセキカスミガセキビル8カイ","prefecture_code":13},"6009":{"zip_code":"1006009","prefecture":"東京都","prefecture_kana":"トウキョウト","city":"千代田区","city_kana":"チヨダク","town":"霞が関霞が関ビル　９階","town_kana":"カスミガセキカスミガセキビル9カイ","prefecture_code":13},"6010":{"zip_code":"1006010","prefecture":"東京都","prefecture_kana":"トウキョウト","city":"千代田区","city_kana":"チヨダク","town":"霞が関霞が関ビル　１０階","town_kana":"カスミガセキカスミガセキビル10カイ","prefecture_code":13},"6011":{"zip_code":"1006011","prefecture":"東京都","prefecture_kana":"トウキョウト","city":"千代田区","city_kana":"チヨダク","town":"霞が関霞が関ビル　１１階","town_kana":"カスミガセキカスミガセキビル11カイ","prefecture_code":13},"6012":{"zip_code":"1006012","prefecture":"東京都","prefecture_kana":"トウキョウト","city":"千代田区","city_kana":"チヨダク","town":"霞が関霞が関ビル　１２階","town_kana":"カスミガセキカスミガセキビル12カイ","prefecture_code":13},"6013":{"zip_code":"1006013","prefecture":"東京都","prefecture_kana":"トウキョウト","city":"千代田区","city_kana":"チヨダク","town":"霞が関霞が関ビル　１３階","town_kana":"カスミガセキカスミガセキビル13カイ","prefecture_code":13},"6014":{"zip_code":"1006014","prefecture":"東京都","prefecture_kana":"トウキョウト","city":"千代田区","city_kana":"チヨダク","town":"霞が関霞が関ビル　１４階","town_kana":"カスミガセキカスミガセキビル14カイ","prefecture_code":13},"6015":{"zip_code":"1006015","prefecture":"東京都","prefecture_kana":"トウキョウト","city":"千代田区","city_kana":"チヨダク","town":"霞が関霞が関ビル　１５階","town_kana":"カスミガセキカスミガセキビル15カイ","prefecture_code":13},"6016":{"zip_code":"1006016","prefecture":"東京都","prefecture_kana":"トウキョウト","city":"千代田区","city_kana":"チヨダク","town":"霞が関霞が関ビル　１６階","town_kana":"カスミガセキカスミガセキビル16カイ","prefecture_code":13},"6017":{"zip_code":"1006017","prefecture":"東京都","prefecture_kana":"トウキョウト","city":"千代田区","city_kana":"チヨダク","town":"霞が関霞が関ビル　１７階","town_kana":"カスミガセキカスミガセキビル17カイ","prefecture_code":13},"6018":{"zip_code":"1006018","prefecture":"東京都","prefecture_kana":"トウキョウト","city":"千代田区","city_kana":"チヨダク","town":"霞が関霞が関ビル　１８階","town_kana":"カスミガセキカスミガセキビル18カイ","prefecture_code":13},"6019":{"zip_code":"1006019","prefecture":"東京都","prefecture_kana":"トウキョウト","city":"千代田区","city_kana":"チヨダク","town":"霞が関霞が関ビル　１９階","town_kana":"カスミガセキカスミガセキビル19カイ","prefecture_code":13},"6020":{"zip_code":"1006020","prefecture":"東京都","prefecture_kana":"トウキョウト","city":"千代田区","city_kana":"チヨダク","town":"霞が関霞が関ビル　２０階","town_kana":"カスミガセキカスミガセキビル20カイ","prefecture_code":13},"6021":{"zip_code":"1006021","prefecture":"東京都","prefecture_kana":"トウキョウト","city":"千代田区","city_kana":"チヨダク","town":"霞が関霞が関ビル　２１階","town_kana":"カスミガセキカスミガセキビル21カイ","prefecture_code":13},"6022":{"zip_code":"1006022","prefecture":"東京都","prefecture_kana":"トウキョウト","city":"千代田区","city_kana":"チヨダク","town":"霞が関霞が関ビル　２２階","town_kana":"カスミガセキカスミガセキビル22カイ","prefecture_code":13},"6023":{"zip_code":"1006023","prefecture":"東京都","prefecture_kana":"トウキョウト","city":"千代田区","city_kana":"チヨダク","town":"霞が関霞が関ビル　２３階","town_kana":"カスミガセキカスミガセキビル23カイ","prefecture_code":13},"6024":{"zip_code":"1006024","prefecture":"東京都","prefecture_kana":"トウキョウト","city":"千代田区","city_kana":"チヨダク","town":"霞が関霞が関ビル　２４階","town_kana":"カスミガセキカスミガセキビル24カイ","prefecture_code":13},"6025":{"zip_code":"1006025","prefecture":"東京都","prefecture_kana":"トウキョウト","city":"千代田区","city_kana":"チヨダク","town":"霞が関霞が関ビル　２５階","town_kana":"カスミガセキカスミガセキビル25カイ","prefecture_code":13},"6026":{"zip_code":"1006026","prefecture":"東京都","prefecture_kana":"トウキョウト","city":"千代田区","city_kana":"チヨダク","town":"霞が関霞が関ビル　２６階","town_kana":"カスミガセキカスミガセキビル26カイ","prefecture_code":13},"6027":{"zip_code":"1006027","prefecture":"東京都","prefecture_kana":"トウキョウト","city":"千代田区","city_kana":"チヨダク","town":"霞が関霞が関ビル　２７階","town_kana":"カスミガセキカスミガセキビル27カイ","prefecture_code":13},"6028":{"zip_code":"1006028","prefecture":"東京都","prefecture_kana":"トウキョウト","city":"千代田区","city_kana":"チヨダク","town":"霞が関霞が関ビル　２８階","town_kana":"カスミガセキカスミガセキビル28カイ","prefecture_code":13},"6029":{"zip_code":"1006029","prefecture":"東京都","prefecture_kana":"トウキョウト","city":"千代田区","city_kana":"チヨダク","town":"霞が関霞が関ビル　２９階","town_kana":"カスミガセキカスミガセキビル29カイ","prefecture_code":13},"6030":{"zip_code":"1006030","prefecture":"東京都","prefecture_kana":"トウキョウト","city":"千代田区","city_kana":"チヨダク","town":"霞が関霞が関ビル　３０階","town_kana":"カスミガセキカスミガセキビル30カイ","prefecture_code":13},"6031":{"zip_code":"1006031","prefecture":"東京都","prefecture_kana":"トウキョウト","city":"千代田区","city_kana":"チヨダク","town":"霞が関霞が関ビル　３１階","town_kana":"カスミガセキカスミガセキビル31カイ","prefecture_code":13},"6032":{"zip_code":"1006032","prefecture":"東京都","prefecture_kana":"トウキョウト","city":"千代田区","city_kana":"チヨダク","town":"霞が関霞が関ビル　３２階","town_kana":"カスミガセキカスミガセキビル32カイ","prefecture_code":13},"6033":{"zip_code":"1006033","prefecture":"東京都","prefecture_kana":"トウキョウト","city":"千代田区","city_kana":"チヨダク","town":"霞が関霞が関ビル　３３階","town_kana":"カスミガセキカスミガセキビル33カイ","prefecture_code":13},"6034":{"zip_code":"1006034","prefecture":"東京都","prefecture_kana":"トウキョウト","city":"千代田区","city_kana":"チヨダク","town":"霞が関霞が関ビル　３４階","town_kana":"カスミガセキカスミガセキビル34カイ","prefecture_code":13},"6035":{"zip_code":"1006035","prefecture":"東京都","prefecture_kana":"トウキョウト","city":"千代田区","city_kana":"チヨダク","town":"霞が関霞が関ビル　３５階","town_kana":"カスミガセキカスミガセキビル35カイ","prefecture_code":13},"6036":{"zip_code":"1006036","prefecture":"東京都","prefecture_kana":"トウキョウト","city":"千代田区","city_kana":"チヨダク","town":"霞が関霞が関ビル　３６階","town_kana":"カスミガセキカスミガセキビル36カイ","prefecture_code":13},"0002":{"zip_code":"1000002","prefecture":"東京都","prefecture_kana":"トウキョウト","city":"千代田区","city_kana":"チヨダク","town":"皇居外苑","town_kana":"コウキョガイエン","prefecture_code":13},"0001":{"zip_code":"1000001","prefecture":"東京都","prefecture_kana":"トウキョウト","city":"千代田区","city_kana":"チヨダク","town":"千代田","town_kana":"チヨダ","prefecture_code":13},"0014":{"zip_code":"1000014","prefecture":"東京都","prefecture_kana":"トウキョウト","city":"千代田区","city_kana":"チヨダク","town":"永田町","town_kana":"ナガタチョウ","prefecture_code":13},"6190":{"zip_code":"1006190","prefecture":"東京都","prefecture_kana":"トウキョウト","city":"千代田区","city_kana":"チヨダク","town":"永田町山王パークタワー","town_kana":"ナガタチョウサンノウパークタワー","prefecture_code":13},"6101":{"zip_code":"1006101","prefecture":"東京都","prefecture_kana":"トウキョウト","city":"千代田区","city_kana":"チヨダク","town":"永田町山王パークタワー　１階","town_kana":"ナガタチョウサンノウパークタワー1カイ","prefecture_code":13},"6102":{"zip_code":"1006102","prefecture":"東京都","prefecture_kana":"トウキョウト","city":"千代田区","city_kana":"チヨダク","town":"永田町山王パークタワー　２階","town_kana":"ナガタチョウサンノウパークタワー2カイ","prefecture_code":13},"6103":{"zip_code":"1006103","prefecture":"東京都","prefecture_kana":"トウキョウト","city":"千代田区","city_kana":"チヨダク","town":"永田町山王パークタワー　３階","town_kana":"ナガタチョウサンノウパークタワー3カイ","prefecture_code":13},"6104":{"zip_code":"1006104","prefecture":"東京都","prefecture_kana":"トウキョウト","city":"千代田区","city_kana":"チヨダク","town":"永田町山王パークタワー　４階","town_kana":"ナガタチョウサンノウパークタワー4カイ","prefecture_code":13},"6105":{"zip_code":"1006105","prefecture":"東京都","prefecture_kana":"トウキョウト","city":"千代田区","city_kana":"チヨダク","town":"永田町山王パークタワー　５階","town_kana":"ナガタチョウサンノウパークタワー5カイ","prefecture_code":13},"6106":{"zip_code":"1006106","prefecture":"東京都","prefecture_kana":"トウキョウト","city":"千代田区","city_kana":"チヨダク","town":"永田町山王パークタワー　６階","town_kana":"ナガタチョウサンノウパークタワー6カイ","prefecture_code":13},"6107":{"zip_code":"1006107","prefecture":"東京都","prefecture_kana":"トウキョウト","city":"千代田区","city_kana":"チヨダク","town":"永田町山王パークタワー　７階","town_kana":"ナガタチョウサンノウパークタワー7カイ","prefecture_code":13},"6108":{"zip_code":"1006108","prefecture":"東京都","prefecture_kana":"トウキョウト","city":"千代田区","city_kana":"チヨダク","town":"永田町山王パークタワー　８階","town_kana":"ナガタチョウサンノウパークタワー8カイ","prefecture_code":13},"6109":{"zip_code":"1006109","prefecture":"東京都","prefecture_kana":"トウキョウト","city":"千代田区","city_kana":"チヨダク","town":"永田町山王パークタワー　９階","town_kana":"ナガタチョウサンノウパークタワー9カイ","prefecture_code":13},"6110":{"zip_code":"1006110","prefecture":"東京都","prefecture_kana":"トウキョウト","city":"千代田区","city_kana":"チヨダク","town":"永田町山王パークタワー　１０階","town_kana":"ナガタチョウサンノウパークタワー10カイ","prefecture_code":13},"6111":{"zip_code":"1006111","prefecture":"東京都","prefecture_kana":"トウキョウト","city":"千代田区","city_kana":"チヨダク","town":"永田町山王パークタワー　１１階","town_kana":"ナガタチョウサンノウパークタワー11カイ","prefecture_code":13},"6112":{"zip_code":"1006112","prefecture":"東京都","prefecture_kana":"トウキョウト","city":"千代田区","city_kana":"チヨダク","town":"永田町山王パークタワー　１２階","town_kana":"ナガタチョウサンノウパークタワー12カイ","prefecture_code":13},"6113":{"zip_code":"1006113","prefecture":"東京都","prefecture_kana":"トウキョウト","city":"千代田区","city_kana":"チヨダク","town":"永田町山王パークタワー　１３階","town_kana":"ナガタチョウサンノウパークタワー13カイ","prefecture_code":13},"6114":{"zip_code":"1006114","prefecture":"東京都","prefecture_kana":"トウキョウト","city":"千代田区","city_kana":"チヨダク","town":"永田町山王パークタワー　１４階","town_kana":"ナガタチョウサンノウパークタワー14カイ","prefecture_code":13},"6115":{"zip_code":"1006115","prefecture":"東京都","prefecture_kana":"トウキョウト","city":"千代田区","city_kana":"チヨダク","town":"永田町山王パークタワー　１５階","town_kana":"ナガタチョウサンノウパークタワー15カイ","prefecture_code":13},"6116":{"zip_code":"1006116","prefecture":"東京都","prefecture_kana":"トウキョウト","city":"千代田区","city_kana":"チヨダク","town":"永田町山王パークタワー　１６階","town_kana":"ナガタチョウサンノウパークタワー16カイ","prefecture_code":13},"6117":{"zip_code":"1006117","prefecture":"東京都","prefecture_kana":"トウキョウト","city":"千代田区","city_kana":"チヨダク","town":"永田町山王パークタワー　１７階","town_kana":"ナガタチョウサンノウパークタワー17カイ","prefecture_code":13},"6118":{"zip_code":"1006118","prefecture":"東京都","prefecture_kana":"トウキョウト","city":"千代田区","city_kana":"チヨダク","town":"永田町山王パークタワー　１８階","town_kana":"ナガタチョウサンノウパークタワー18カイ","prefecture_code":13},"6119":{"zip_code":"1006119","prefecture":"東京都","prefecture_kana":"トウキョウト","city":"千代田区","city_kana":"チヨダク","town":"永田町山王パークタワー　１９階","town_kana":"ナガタチョウサンノウパークタワー19カイ","prefecture_code":13},"6120":{"zip_code":"1006120","prefecture":"東京都","prefecture_kana":"トウキョウト","city":"千代田区","city_kana":"チヨダク","town":"永田町山王パークタワー　２０階","town_kana":"ナガタチョウサンノウパークタワー20カイ","prefecture_code":13},"6121":{"zip_code":"1006121","prefecture":"東京都","prefecture_kana":"トウキョウト","city":"千代田区","city_kana":"チヨダク","town":"永田町山王パークタワー　２１階","town_kana":"ナガタチョウサンノウパークタワー21カイ","prefecture_code":13},"6122":{"zip_code":"1006122","prefecture":"東京都","prefecture_kana":"トウキョウト","city":"千代田区","city_kana":"チヨダク","town":"永田町山王パークタワー　２２階","town_kana":"ナガタチョウサンノウパークタワー22カイ","prefecture_code":13},"6123":{"zip_code":"1006123","prefecture":"東京都","prefecture_kana":"トウキョウト","city":"千代田区","city_kana":"チヨダク","town":"永田町山王パークタワー　２３階","town_kana":"ナガタチョウサンノウパークタワー23カイ","prefecture_code":13},"6124":{"zip_code":"1006124","prefecture":"東京都","prefecture_kana":"トウキョウト","city":"千代田区","city_kana":"チヨダク","town":"永田町山王パークタワー　２４階","town_kana":"ナガタチョウサンノウパークタワー24カイ","prefecture_code":13},"6125":{"zip_code":"1006125","prefecture":"東京都","prefecture_kana":"トウキョウト","city":"千代田区","city_kana":"チヨダク","town":"永田町山王パークタワー　２５階","town_kana":"ナガタチョウサンノウパークタワー25カイ","prefecture_code":13},"6126":{"zip_code":"1006126","prefecture":"東京都","prefecture_kana":"トウキョウト","city":"千代田区","city_kana":"チヨダク","town":"永田町山王パークタワー　２６階","town_kana":"ナガタチョウサンノウパークタワー26カイ","prefecture_code":13},"6127":{"zip_code":"1006127","prefecture":"東京都","prefecture_kana":"トウキョウト","city":"千代田区","city_kana":"チヨダク","town":"永田町山王パークタワー　２７階","town_kana":"ナガタチョウサンノウパークタワー27カイ","prefecture_code":13},"6128":{"zip_code":"1006128","prefecture":"東京都","prefecture_kana":"トウキョウト","city":"千代田区","city_kana":"チヨダク","town":"永田町山王パークタワー　２８階","town_kana":"ナガタチョウサンノウパークタワー28カイ","prefecture_code":13},"6129":{"zip_code":"1006129","prefecture":"東京都","prefecture_kana":"トウキョウト","city":"千代田区","city_kana":"チヨダク","town":"永田町山王パークタワー　２９階","town_kana":"ナガタチョウサンノウパークタワー29カイ","prefecture_code":13},"6130":{"zip_code":"1006130","prefecture":"東京都","prefecture_kana":"トウキョウト","city":"千代田区","city_kana":"チヨダク","town":"永田町山王パークタワー　３０階","town_kana":"ナガタチョウサンノウパークタワー30カイ","prefecture_code":13},"6131":{"zip_code":"1006131","prefecture":"東京都","prefecture_kana":"トウキョウト","city":"千代田区","city_kana":"チヨダク","town":"永田町山王パークタワー　３１階","town_kana":"ナガタチョウサンノウパークタワー31カイ","prefecture_code":13},"6132":{"zip_code":"1006132","prefecture":"東京都","prefecture_kana":"トウキョウト","city":"千代田区","city_kana":"チヨダク","town":"永田町山王パークタワー　３２階","town_kana":"ナガタチョウサンノウパークタワー32カイ","prefecture_code":13},"6133":{"zip_code":"1006133","prefecture":"東京都","prefecture_kana":"トウキョウト","city":"千代田区","city_kana":"チヨダク","town":"永田町山王パークタワー　３３階","town_kana":"ナガタチョウサンノウパークタワー33カイ","prefecture_code":13},"6134":{"zip_code":"1006134","prefecture":"東京都","prefecture_kana":"トウキョウト","city":"千代田区","city_kana":"チヨダク","town":"永田町山王パークタワー　３４階","town_kana":"ナガタチョウサンノウパークタワー34カイ","prefecture_code":13},"6135":{"zip_code":"1006135","prefecture":"東京都","prefecture_kana":"トウキョウト","city":"千代田区","city_kana":"チヨダク","town":"永田町山王パークタワー　３５階","town_kana":"ナガタチョウサンノウパークタワー35カイ","prefecture_code":13},"6136":{"zip_code":"1006136","prefecture":"東京都","prefecture_kana":"トウキョウト","city":"千代田区","city_kana":"チヨダク","town":"永田町山王パークタワー　３６階","town_kana":"ナガタチョウサンノウパークタワー36カイ","prefecture_code":13},"6137":{"zip_code":"1006137","prefecture":"東京都","prefecture_kana":"トウキョウト","city":"千代田区","city_kana":"チヨダク","town":"永田町山王パークタワー　３７階","town_kana":"ナガタチョウサンノウパークタワー37カイ","prefecture_code":13},"6138":{"zip_code":"1006138","prefecture":"東京都","prefecture_kana":"トウキョウト","city":"千代田区","city_kana":"チヨダク","town":"永田町山王パークタワー　３８階","town_kana":"ナガタチョウサンノウパークタワー38カイ","prefecture_code":13},"6139":{"zip_code":"1006139","prefecture":"東京都","prefecture_kana":"トウキョウト","city":"千代田区","city_kana":"チヨダク","town":"永田町山王パークタワー　３９階","town_kana":"ナガタチョウサンノウパークタワー39カイ","prefecture_code":13},"6140":{"zip_code":"1006140","prefecture":"東京都","prefecture_kana":"トウキョウト","city":"千代田区","city_kana":"チヨダク","town":"永田町山王パークタワー　４０階","town_kana":"ナガタチョウサンノウパークタワー40カイ","prefecture_code":13},"6141":{"zip_code":"1006141","prefecture":"東京都","prefecture_kana":"トウキョウト","city":"千代田区","city_kana":"チヨダク","town":"永田町山王パークタワー　４１階","town_kana":"ナガタチョウサンノウパークタワー41カイ","prefecture_code":13},"6142":{"zip_code":"1006142","prefecture":"東京都","prefecture_kana":"トウキョウト","city":"千代田区","city_kana":"チヨダク","town":"永田町山王パークタワー　４２階","town_kana":"ナガタチョウサンノウパークタワー42カイ","prefecture_code":13},"6143":{"zip_code":"1006143","prefecture":"東京都","prefecture_kana":"トウキョウト","city":"千代田区","city_kana":"チヨダク","town":"永田町山王パークタワー　４３階","town_kana":"ナガタチョウサンノウパークタワー43カイ","prefecture_code":13},"6144":{"zip_code":"1006144","prefecture":"東京都","prefecture_kana":"トウキョウト","city":"千代田区","city_kana":"チヨダク","town":"永田町山王パークタワー　４４階","town_kana":"ナガタチョウサンノウパークタワー44カイ","prefecture_code":13},"0003":{"zip_code":"1000003","prefecture":"東京都","prefecture_kana":"トウキョウト","city":"千代田区","city_kana":"チヨダク","town":"一ツ橋","town_kana":"ヒトツバシ","prefecture_code":13},"0012":{"zip_code":"1000012","prefecture":"東京都","prefecture_kana":"トウキョウト","city":"千代田区","city_kana":"チヨダク","town":"日比谷公園","town_kana":"ヒビヤコウエン","prefecture_code":13},"0005":{"zip_code":"1000005","prefecture":"東京都","prefecture_kana":"トウキョウト","city":"千代田区","city_kana":"チヨダク","town":"丸の内","town_kana":"マルノウチ","prefecture_code":13},"6690":{"zip_code":"1006690","prefecture":"東京都","prefecture_kana":"トウキョウト","city":"千代田区","city_kana":"チヨダク","town":"丸の内グラントウキョウサウスタワー","town_kana":"マルノウチグラントウキョウサウスタワー","prefecture_code":13},"6601":{"zip_code":"1006601","prefecture":"東京都","prefecture_kana":"トウキョウト","city":"千代田区","city_kana":"チヨダク","town":"丸の内グラントウキョウサウスタワー　１階","town_kana":"マルノウチグラントウキョウサウスタワー1カイ","prefecture_code":13},"6602":{"zip_code":"1006602","prefecture":"東京都","prefecture_kana":"トウキョウト","city":"千代田区","city_kana":"チヨダク","town":"丸の内グラントウキョウサウスタワー　２階","town_kana":"マルノウチグラントウキョウサウスタワー2カイ","prefecture_code":13},"6603":{"zip_code":"1006603","prefecture":"東京都","prefecture_kana":"トウキョウト","city":"千代田区","city_kana":"チヨダク","town":"丸の内グラントウキョウサウスタワー　３階","town_kana":"マルノウチグラントウキョウサウスタワー3カイ","prefecture_code":13},"6604":{"zip_code":"1006604","prefecture":"東京都","prefecture_kana":"トウキョウト","city":"千代田区","city_kana":"チヨダク","town":"丸の内グラントウキョウサウスタワー　４階","town_kana":"マルノウチグラントウキョウサウスタワー4カイ","prefecture_code":13},"6605":{"zip_code":"1006605","prefecture":"東京都","prefecture_kana":"トウキョウト","city":"千代田区","city_kana":"チヨダク","town":"丸の内グラントウキョウサウスタワー　５階","town_kana":"マルノウチグラントウキョウサウスタワー5カイ","prefecture_code":13},"6606":{"zip_code":"1006606","prefecture":"東京都","prefecture_kana":"トウキョウト","city":"千代田区","city_kana":"チヨダク","town":"丸の内グラントウキョウサウスタワー　６階","town_kana":"マルノウチグラントウキョウサウスタワー6カイ","prefecture_code":13},"6607":{"zip_code":"1006607","prefecture":"東京都","prefecture_kana":"トウキョウト","city":"千代田区","city_kana":"チヨダク","town":"丸の内グラントウキョウサウスタワー　７階","town_kana":"マルノウチグラントウキョウサウスタワー7カイ","prefecture_code":13},"6608":{"zip_code":"1006608","prefecture":"東京都","prefecture_kana":"トウキョウト","city":"千代田区","city_kana":"チヨダク","town":"丸の内グラントウキョウサウスタワー　８階","town_kana":"マルノウチグラントウキョウサウスタワー8カイ","prefecture_code":13},"6609":{"zip_code":"1006609","prefecture":"東京都","prefecture_kana":"トウキョウト","city":"千代田区","city_kana":"チヨダク","town":"丸の内グラントウキョウサウスタワー　９階","town_kana":"マルノウチグラントウキョウサウスタワー9カイ","prefecture_code":13},"6610":{"zip_code":"1006610","prefecture":"東京都","prefecture_kana":"トウキョウト","city":"千代田区","city_kana":"チヨダク","town":"丸の内グラントウキョウサウスタワー　１０階","town_kana":"マルノウチグラントウキョウサウスタワー10カイ","prefecture_code":13},"6611":{"zip_code":"1006611","prefecture":"東京都","prefecture_kana":"トウキョウト","city":"千代田区","city_kana":"チヨダク","town":"丸の内グラントウキョウサウスタワー　１１階","town_kana":"マルノウチグラントウキョウサウスタワー11カイ","prefecture_code":13},"6612":{"zip_code":"1006612","prefecture":"東京都","prefecture_kana":"トウキョウト","city":"千代田区","city_kana":"チヨダク","town":"丸の内グラントウキョウサウスタワー　１２階","town_kana":"マルノウチグラントウキョウサウスタワー12カイ","prefecture_code":13},"6613":{"zip_code":"1006613","prefecture":"東京都","prefecture_kana":"トウキョウト","city":"千代田区","city_kana":"チヨダク","town":"丸の内グラントウキョウサウスタワー　１３階","town_kana":"マルノウチグラントウキョウサウスタワー13カイ","prefecture_code":13},"6614":{"zip_code":"1006614","prefecture":"東京都","prefecture_kana":"トウキョウト","city":"千代田区","city_kana":"チヨダク","town":"丸の内グラントウキョウサウスタワー　１４階","town_kana":"マルノウチグラントウキョウサウスタワー14カイ","prefecture_code":13},"6615":{"zip_code":"1006615","prefecture":"東京都","prefecture_kana":"トウキョウト","city":"千代田区","city_kana":"チヨダク","town":"丸の内グラントウキョウサウスタワー　１５階","town_kana":"マルノウチグラントウキョウサウスタワー15カイ","prefecture_code":13},"6616":{"zip_code":"1006616","prefecture":"東京都","prefecture_kana":"トウキョウト","city":"千代田区","city_kana":"チヨダク","town":"丸の内グラントウキョウサウスタワー　１６階","town_kana":"マルノウチグラントウキョウサウスタワー16カイ","prefecture_code":13},"6617":{"zip_code":"1006617","prefecture":"東京都","prefecture_kana":"トウキョウト","city":"千代田区","city_kana":"チヨダク","town":"丸の内グラントウキョウサウスタワー　１７階","town_kana":"マルノウチグラントウキョウサウスタワー17カイ","prefecture_code":13},"6618":{"zip_code":"1006618","prefecture":"東京都","prefecture_kana":"トウキョウト","city":"千代田区","city_kana":"チヨダク","town":"丸の内グラントウキョウサウスタワー　１８階","town_kana":"マルノウチグラントウキョウサウスタワー18カイ","prefecture_code":13},"6619":{"zip_code":"1006619","prefecture":"東京都","prefecture_kana":"トウキョウト","city":"千代田区","city_kana":"チヨダク","town":"丸の内グラントウキョウサウスタワー　１９階","town_kana":"マルノウチグラントウキョウサウスタワー19カイ","prefecture_code":13},"6620":{"zip_code":"1006620","prefecture":"東京都","prefecture_kana":"トウキョウト","city":"千代田区","city_kana":"チヨダク","town":"丸の内グラントウキョウサウスタワー　２０階","town_kana":"マルノウチグラントウキョウサウスタワー20カイ","prefecture_code":13},"6621":{"zip_code":"1006621","prefecture":"東京都","prefecture_kana":"トウキョウト","city":"千代田区","city_kana":"チヨダク","town":"丸の内グラントウキョウサウスタワー　２１階","town_kana":"マルノウチグラントウキョウサウスタワー21カイ","prefecture_code":13},"6622":{"zip_code":"1006622","prefecture":"東京都","prefecture_kana":"トウキョウト","city":"千代田区","city_kana":"チヨダク","town":"丸の内グラントウキョウサウスタワー　２２階","town_kana":"マルノウチグラントウキョウサウスタワー22カイ","prefecture_code":13},"6623":{"zip_code":"1006623","prefecture":"東京都","prefecture_kana":"トウキョウト","city":"千代田区","city_kana":"チヨダク","town":"丸の内グラントウキョウサウスタワー　２３階","town_kana":"マルノウチグラントウキョウサウスタワー23カイ","prefecture_code":13},"6624":{"zip_code":"1006624","prefecture":"東京都","prefecture_kana":"トウキョウト","city":"千代田区","city_kana":"チヨダク","town":"丸の内グラントウキョウサウスタワー　２４階","town_kana":"マルノウチグラントウキョウサウスタワー24カイ","prefecture_code":13},"6625":{"zip_code":"1006625","prefecture":"東京都","prefecture_kana":"トウキョウト","city":"千代田区","city_kana":"チヨダク","town":"丸の内グラントウキョウサウスタワー　２５階","town_kana":"マルノウチグラントウキョウサウスタワー25カイ","prefecture_code":13},"6626":{"zip_code":"1006626","prefecture":"東京都","prefecture_kana":"トウキョウト","city":"千代田区","city_kana":"チヨダク","town":"丸の内グラントウキョウサウスタワー　２６階","town_kana":"マルノウチグラントウキョウサウスタワー26カイ","prefecture_code":13},"6627":{"zip_code":"1006627","prefecture":"東京都","prefecture_kana":"トウキョウト","city":"千代田区","city_kana":"チヨダク","town":"丸の内グラントウキョウサウスタワー　２７階","town_kana":"マルノウチグラントウキョウサウスタワー27カイ","prefecture_code":13},"6628":{"zip_code":"1006628","prefecture":"東京都","prefecture_kana":"トウキョウト","city":"千代田区","city_kana":"チヨダク","town":"丸の内グラントウキョウサウスタワー　２８階","town_kana":"マルノウチグラントウキョウサウスタワー28カイ","prefecture_code":13},"6629":{"zip_code":"1006629","prefecture":"東京都","prefecture_kana":"トウキョウト","city":"千代田区","city_kana":"チヨダク","town":"丸の内グラントウキョウサウスタワー　２９階","town_kana":"マルノウチグラントウキョウサウスタワー29カイ","prefecture_code":13},"6630":{"zip_code":"1006630","prefecture":"東京都","prefecture_kana":"トウキョウト","city":"千代田区","city_kana":"チヨダク","town":"丸の内グラントウキョウサウスタワー　３０階","town_kana":"マルノウチグラントウキョウサウスタワー30カイ","prefecture_code":13},"6631":{"zip_code":"1006631","prefecture":"東京都","prefecture_kana":"トウキョウト","city":"千代田区","city_kana":"チヨダク","town":"丸の内グラントウキョウサウスタワー　３１階","town_kana":"マルノウチグラントウキョウサウスタワー31カイ","prefecture_code":13},"6632":{"zip_code":"1006632","prefecture":"東京都","prefecture_kana":"トウキョウト","city":"千代田区","city_kana":"チヨダク","town":"丸の内グラントウキョウサウスタワー　３２階","town_kana":"マルノウチグラントウキョウサウスタワー32カイ","prefecture_code":13},"6633":{"zip_code":"1006633","prefecture":"東京都","prefecture_kana":"トウキョウト","city":"千代田区","city_kana":"チヨダク","town":"丸の内グラントウキョウサウスタワー　３３階","town_kana":"マルノウチグラントウキョウサウスタワー33カイ","prefecture_code":13},"6634":{"zip_code":"1006634","prefecture":"東京都","prefecture_kana":"トウキョウト","city":"千代田区","city_kana":"チヨダク","town":"丸の内グラントウキョウサウスタワー　３４階","town_kana":"マルノウチグラントウキョウサウスタワー34カイ","prefecture_code":13},"6635":{"zip_code":"1006635","prefecture":"東京都","prefecture_kana":"トウキョウト","city":"千代田区","city_kana":"チヨダク","town":"丸の内グラントウキョウサウスタワー　３５階","town_kana":"マルノウチグラントウキョウサウスタワー35カイ","prefecture_code":13},"6636":{"zip_code":"1006636","prefecture":"東京都","prefecture_kana":"トウキョウト","city":"千代田区","city_kana":"チヨダク","town":"丸の内グラントウキョウサウスタワー　３６階","town_kana":"マルノウチグラントウキョウサウスタワー36カイ","prefecture_code":13},"6637":{"zip_code":"1006637","prefecture":"東京都","prefecture_kana":"トウキョウト","city":"千代田区","city_kana":"チヨダク","town":"丸の内グラントウキョウサウスタワー　３７階","town_kana":"マルノウチグラントウキョウサウスタワー37カイ","prefecture_code":13},"6638":{"zip_code":"1006638","prefecture":"東京都","prefecture_kana":"トウキョウト","city":"千代田区","city_kana":"チヨダク","town":"丸の内グラントウキョウサウスタワー　３８階","town_kana":"マルノウチグラントウキョウサウスタワー38カイ","prefecture_code":13},"6639":{"zip_code":"1006639","prefecture":"東京都","prefecture_kana":"トウキョウト","city":"千代田区","city_kana":"チヨダク","town":"丸の内グラントウキョウサウスタワー　３９階","town_kana":"マルノウチグラントウキョウサウスタワー39カイ","prefecture_code":13},"6640":{"zip_code":"1006640","prefecture":"東京都","prefecture_kana":"トウキョウト","city":"千代田区","city_kana":"チヨダク","town":"丸の内グラントウキョウサウスタワー　４０階","town_kana":"マルノウチグラントウキョウサウスタワー40カイ","prefecture_code":13},"6641":{"zip_code":"1006641","prefecture":"東京都","prefecture_kana":"トウキョウト","city":"千代田区","city_kana":"チヨダク","town":"丸の内グラントウキョウサウスタワー　４１階","town_kana":"マルノウチグラントウキョウサウスタワー41カイ","prefecture_code":13},"6642":{"zip_code":"1006642","prefecture":"東京都","prefecture_kana":"トウキョウト","city":"千代田区","city_kana":"チヨダク","town":"丸の内グラントウキョウサウスタワー　４２階","town_kana":"マルノウチグラントウキョウサウスタワー42カイ","prefecture_code":13},"6790":{"zip_code":"1006790","prefecture":"東京都","prefecture_kana":"トウキョウト","city":"千代田区","city_kana":"チヨダク","town":"丸の内グラントウキョウノースタワー","town_kana":"マルノウチグラントウキョウノースタワー","prefecture_code":13},"6701":{"zip_code":"1006701","prefecture":"東京都","prefecture_kana":"トウキョウト","city":"千代田区","city_kana":"チヨダク","town":"丸の内グラントウキョウノースタワー　１階","town_kana":"マルノウチグラントウキョウノースタワー1カイ","prefecture_code":13},"6702":{"zip_code":"1006702","prefecture":"東京都","prefecture_kana":"トウキョウト","city":"千代田区","city_kana":"チヨダク","town":"丸の内グラントウキョウノースタワー　２階","town_kana":"マルノウチグラントウキョウノースタワー2カイ","prefecture_code":13},"6703":{"zip_code":"1006703","prefecture":"東京都","prefecture_kana":"トウキョウト","city":"千代田区","city_kana":"チヨダク","town":"丸の内グラントウキョウノースタワー　３階","town_kana":"マルノウチグラントウキョウノースタワー3カイ","prefecture_code":13},"6704":{"zip_code":"1006704","prefecture":"東京都","prefecture_kana":"トウキョウト","city":"千代田区","city_kana":"チヨダク","town":"丸の内グラントウキョウノースタワー　４階","town_kana":"マルノウチグラントウキョウノースタワー4カイ","prefecture_code":13},"6705":{"zip_code":"1006705","prefecture":"東京都","prefecture_kana":"トウキョウト","city":"千代田区","city_kana":"チヨダク","town":"丸の内グラントウキョウノースタワー　５階","town_kana":"マルノウチグラントウキョウノースタワー5カイ","prefecture_code":13},"6706":{"zip_code":"1006706","prefecture":"東京都","prefecture_kana":"トウキョウト","city":"千代田区","city_kana":"チヨダク","town":"丸の内グラントウキョウノースタワー　６階","town_kana":"マルノウチグラントウキョウノースタワー6カイ","prefecture_code":13},"6707":{"zip_code":"1006707","prefecture":"東京都","prefecture_kana":"トウキョウト","city":"千代田区","city_kana":"チヨダク","town":"丸の内グラントウキョウノースタワー　７階","town_kana":"マルノウチグラントウキョウノースタワー7カイ","prefecture_code":13},"6708":{"zip_code":"1006708","prefecture":"東京都","prefecture_kana":"トウキョウト","city":"千代田区","city_kana":"チヨダク","town":"丸の内グラントウキョウノースタワー　８階","town_kana":"マルノウチグラントウキョウノースタワー8カイ","prefecture_code":13},"6709":{"zip_code":"1006709","prefecture":"東京都","prefecture_kana":"トウキョウト","city":"千代田区","city_kana":"チヨダク","town":"丸の内グラントウキョウノースタワー　９階","town_kana":"マルノウチグラントウキョウノースタワー9カイ","prefecture_code":13},"6710":{"zip_code":"1006710","prefecture":"東京都","prefecture_kana":"トウキョウト","city":"千代田区","city_kana":"チヨダク","town":"丸の内グラントウキョウノースタワー　１０階","town_kana":"マルノウチグラントウキョウノースタワー10カイ","prefecture_code":13},"6711":{"zip_code":"1006711","prefecture":"東京都","prefecture_kana":"トウキョウト","city":"千代田区","city_kana":"チヨダク","town":"丸の内グラントウキョウノースタワー　１１階","town_kana":"マルノウチグラントウキョウノースタワー11カイ","prefecture_code":13},"6712":{"zip_code":"1006712","prefecture":"東京都","prefecture_kana":"トウキョウト","city":"千代田区","city_kana":"チヨダク","town":"丸の内グラントウキョウノースタワー　１２階","town_kana":"マルノウチグラントウキョウノースタワー12カイ","prefecture_code":13},"6713":{"zip_code":"1006713","prefecture":"東京都","prefecture_kana":"トウキョウト","city":"千代田区","city_kana":"チヨダク","town":"丸の内グラントウキョウノースタワー　１３階","town_kana":"マルノウチグラントウキョウノースタワー13カイ","prefecture_code":13},"6714":{"zip_code":"1006714","prefecture":"東京都","prefecture_kana":"トウキョウト","city":"千代田区","city_kana":"チヨダク","town":"丸の内グラントウキョウノースタワー　１４階","town_kana":"マルノウチグラントウキョウノースタワー14カイ","prefecture_code":13},"6715":{"zip_code":"1006715","prefecture":"東京都","prefecture_kana":"トウキョウト","city":"千代田区","city_kana":"チヨダク","town":"丸の内グラントウキョウノースタワー　１５階","town_kana":"マルノウチグラントウキョウノースタワー15カイ","prefecture_code":13},"6716":{"zip_code":"1006716","prefecture":"東京都","prefecture_kana":"トウキョウト","city":"千代田区","city_kana":"チヨダク","town":"丸の内グラントウキョウノースタワー　１６階","town_kana":"マルノウチグラントウキョウノースタワー16カイ","prefecture_code":13},"6717":{"zip_code":"1006717","prefecture":"東京都","prefecture_kana":"トウキョウト","city":"千代田区","city_kana":"チヨダク","town":"丸の内グラントウキョウノースタワー　１７階","town_kana":"マルノウチグラントウキョウノースタワー17カイ","prefecture_code":13},"6718":{"zip_code":"1006718","prefecture":"東京都","prefecture_kana":"トウキョウト","city":"千代田区","city_kana":"チヨダク","town":"丸の内グラントウキョウノースタワー　１８階","town_kana":"マルノウチグラントウキョウノースタワー18カイ","prefecture_code":13},"6719":{"zip_code":"1006719","prefecture":"東京都","prefecture_kana":"トウキョウト","city":"千代田区","city_kana":"チヨダク","town":"丸の内グラントウキョウノースタワー　１９階","town_kana":"マルノウチグラントウキョウノースタワー19カイ","prefecture_code":13},"6720":{"zip_code":"1006720","prefecture":"東京都","prefecture_kana":"トウキョウト","city":"千代田区","city_kana":"チヨダク","town":"丸の内グラントウキョウノースタワー　２０階","town_kana":"マルノウチグラントウキョウノースタワー20カイ","prefecture_code":13},"6721":{"zip_code":"1006721","prefecture":"東京都","prefecture_kana":"トウキョウト","city":"千代田区","city_kana":"チヨダク","town":"丸の内グラントウキョウノースタワー　２１階","town_kana":"マルノウチグラントウキョウノースタワー21カイ","prefecture_code":13},"6722":{"zip_code":"1006722","prefecture":"東京都","prefecture_kana":"トウキョウト","city":"千代田区","city_kana":"チヨダク","town":"丸の内グラントウキョウノースタワー　２２階","town_kana":"マルノウチグラントウキョウノースタワー22カイ","prefecture_code":13},"6723":{"zip_code":"1006723","prefecture":"東京都","prefecture_kana":"トウキョウト","city":"千代田区","city_kana":"チヨダク","town":"丸の内グラントウキョウノースタワー　２３階","town_kana":"マルノウチグラントウキョウノースタワー23カイ","prefecture_code":13},"6724":{"zip_code":"1006724","prefecture":"東京都","prefecture_kana":"トウキョウト","city":"千代田区","city_kana":"チヨダク","town":"丸の内グラントウキョウノースタワー　２４階","town_kana":"マルノウチグラントウキョウノースタワー24カイ","prefecture_code":13},"6725":{"zip_code":"1006725","prefecture":"東京都","prefecture_kana":"トウキョウト","city":"千代田区","city_kana":"チヨダク","town":"丸の内グラントウキョウノースタワー　２５階","town_kana":"マルノウチグラントウキョウノースタワー25カイ","prefecture_code":13},"6726":{"zip_code":"1006726","prefecture":"東京都","prefecture_kana":"トウキョウト","city":"千代田区","city_kana":"チヨダク","town":"丸の内グラントウキョウノースタワー　２６階","town_kana":"マルノウチグラントウキョウノースタワー26カイ","prefecture_code":13},"6727":{"zip_code":"1006727","prefecture":"東京都","prefecture_kana":"トウキョウト","city":"千代田区","city_kana":"チヨダク","town":"丸の内グラントウキョウノースタワー　２７階","town_kana":"マルノウチグラントウキョウノースタワー27カイ","prefecture_code":13},"6728":{"zip_code":"1006728","prefecture":"東京都","prefecture_kana":"トウキョウト","city":"千代田区","city_kana":"チヨダク","town":"丸の内グラントウキョウノースタワー　２８階","town_kana":"マルノウチグラントウキョウノースタワー28カイ","prefecture_code":13},"6729":{"zip_code":"1006729","prefecture":"東京都","prefecture_kana":"トウキョウト","city":"千代田区","city_kana":"チヨダク","town":"丸の内グラントウキョウノースタワー　２９階","town_kana":"マルノウチグラントウキョウノースタワー29カイ","prefecture_code":13},"6730":{"zip_code":"1006730","prefecture":"東京都","prefecture_kana":"トウキョウト","city":"千代田区","city_kana":"チヨダク","town":"丸の内グラントウキョウノースタワー　３０階","town_kana":"マルノウチグラントウキョウノースタワー30カイ","prefecture_code":13},"6731":{"zip_code":"1006731","prefecture":"東京都","prefecture_kana":"トウキョウト","city":"千代田区","city_kana":"チヨダク","town":"丸の内グラントウキョウノースタワー　３１階","town_kana":"マルノウチグラントウキョウノースタワー31カイ","prefecture_code":13},"6732":{"zip_code":"1006732","prefecture":"東京都","prefecture_kana":"トウキョウト","city":"千代田区","city_kana":"チヨダク","town":"丸の内グラントウキョウノースタワー　３２階","town_kana":"マルノウチグラントウキョウノースタワー32カイ","prefecture_code":13},"6733":{"zip_code":"1006733","prefecture":"東京都","prefecture_kana":"トウキョウト","city":"千代田区","city_kana":"チヨダク","town":"丸の内グラントウキョウノースタワー　３３階","town_kana":"マルノウチグラントウキョウノースタワー33カイ","prefecture_code":13},"6734":{"zip_code":"1006734","prefecture":"東京都","prefecture_kana":"トウキョウト","city":"千代田区","city_kana":"チヨダク","town":"丸の内グラントウキョウノースタワー　３４階","town_kana":"マルノウチグラントウキョウノースタワー34カイ","prefecture_code":13},"6735":{"zip_code":"1006735","prefecture":"東京都","prefecture_kana":"トウキョウト","city":"千代田区","city_kana":"チヨダク","town":"丸の内グラントウキョウノースタワー　３５階","town_kana":"マルノウチグラントウキョウノースタワー35カイ","prefecture_code":13},"6736":{"zip_code":"1006736","prefecture":"東京都","prefecture_kana":"トウキョウト","city":"千代田区","city_kana":"チヨダク","town":"丸の内グラントウキョウノースタワー　３６階","town_kana":"マルノウチグラントウキョウノースタワー36カイ","prefecture_code":13},"6737":{"zip_code":"1006737","prefecture":"東京都","prefecture_kana":"トウキョウト","city":"千代田区","city_kana":"チヨダク","town":"丸の内グラントウキョウノースタワー　３７階","town_kana":"マルノウチグラントウキョウノースタワー37カイ","prefecture_code":13},"6738":{"zip_code":"1006738","prefecture":"東京都","prefecture_kana":"トウキョウト","city":"千代田区","city_kana":"チヨダク","town":"丸の内グラントウキョウノースタワー　３８階","town_kana":"マルノウチグラントウキョウノースタワー38カイ","prefecture_code":13},"6739":{"zip_code":"1006739","prefecture":"東京都","prefecture_kana":"トウキョウト","city":"千代田区","city_kana":"チヨダク","town":"丸の内グラントウキョウノースタワー　３９階","town_kana":"マルノウチグラントウキョウノースタワー39カイ","prefecture_code":13},"6740":{"zip_code":"1006740","prefecture":"東京都","prefecture_kana":"トウキョウト","city":"千代田区","city_kana":"チヨダク","town":"丸の内グラントウキョウノースタワー　４０階","town_kana":"マルノウチグラントウキョウノースタワー40カイ","prefecture_code":13},"6741":{"zip_code":"1006741","prefecture":"東京都","prefecture_kana":"トウキョウト","city":"千代田区","city_kana":"チヨダク","town":"丸の内グラントウキョウノースタワー　４１階","town_kana":"マルノウチグラントウキョウノースタワー41カイ","prefecture_code":13},"6742":{"zip_code":"1006742","prefecture":"東京都","prefecture_kana":"トウキョウト","city":"千代田区","city_kana":"チヨダク","town":"丸の内グラントウキョウノースタワー　４２階","town_kana":"マルノウチグラントウキョウノースタワー42カイ","prefecture_code":13},"6743":{"zip_code":"1006743","prefecture":"東京都","prefecture_kana":"トウキョウト","city":"千代田区","city_kana":"チヨダク","town":"丸の内グラントウキョウノースタワー　４３階","town_kana":"マルノウチグラントウキョウノースタワー43カイ","prefecture_code":13},"7090":{"zip_code":"1007090","prefecture":"東京都","prefecture_kana":"トウキョウト","city":"千代田区","city_kana":"チヨダク","town":"丸の内ＪＰタワー","town_kana":"マルノウチジェイピータワー","prefecture_code":13},"7001":{"zip_code":"1007001","prefecture":"東京都","prefecture_kana":"トウキョウト","city":"千代田区","city_kana":"チヨダク","town":"丸の内ＪＰタワー　１階","town_kana":"マルノウチジェイピータワー1カイ","prefecture_code":13},"7002":{"zip_code":"1007002","prefecture":"東京都","prefecture_kana":"トウキョウト","city":"千代田区","city_kana":"チヨダク","town":"丸の内ＪＰタワー　２階","town_kana":"マルノウチジェイピータワー2カイ","prefecture_code":13},"7003":{"zip_code":"1007003","prefecture":"東京都","prefecture_kana":"トウキョウト","city":"千代田区","city_kana":"チヨダク","town":"丸の内ＪＰタワー　３階","town_kana":"マルノウチジェイピータワー3カイ","prefecture_code":13},"7004":{"zip_code":"1007004","prefecture":"東京都","prefecture_kana":"トウキョウト","city":"千代田区","city_kana":"チヨダク","town":"丸の内ＪＰタワー　４階","town_kana":"マルノウチジェイピータワー4カイ","prefecture_code":13},"7005":{"zip_code":"1007005","prefecture":"東京都","prefecture_kana":"トウキョウト","city":"千代田区","city_kana":"チヨダク","town":"丸の内ＪＰタワー　５階","town_kana":"マルノウチジェイピータワー5カイ","prefecture_code":13},"7006":{"zip_code":"1007006","prefecture":"東京都","prefecture_kana":"トウキョウト","city":"千代田区","city_kana":"チヨダク","town":"丸の内ＪＰタワー　６階","town_kana":"マルノウチジェイピータワー6カイ","prefecture_code":13},"7007":{"zip_code":"1007007","prefecture":"東京都","prefecture_kana":"トウキョウト","city":"千代田区","city_kana":"チヨダク","town":"丸の内ＪＰタワー　７階","town_kana":"マルノウチジェイピータワー7カイ","prefecture_code":13},"7008":{"zip_code":"1007008","prefecture":"東京都","prefecture_kana":"トウキョウト","city":"千代田区","city_kana":"チヨダク","town":"丸の内ＪＰタワー　８階","town_kana":"マルノウチジェイピータワー8カイ","prefecture_code":13},"7009":{"zip_code":"1007009","prefecture":"東京都","prefecture_kana":"トウキョウト","city":"千代田区","city_kana":"チヨダク","town":"丸の内ＪＰタワー　９階","town_kana":"マルノウチジェイピータワー9カイ","prefecture_code":13},"7010":{"zip_code":"1007010","prefecture":"東京都","prefecture_kana":"トウキョウト","city":"千代田区","city_kana":"チヨダク","town":"丸の内ＪＰタワー　１０階","town_kana":"マルノウチジェイピータワー10カイ","prefecture_code":13},"7011":{"zip_code":"1007011","prefecture":"東京都","prefecture_kana":"トウキョウト","city":"千代田区","city_kana":"チヨダク","town":"丸の内ＪＰタワー　１１階","town_kana":"マルノウチジェイピータワー11カイ","prefecture_code":13},"7012":{"zip_code":"1007012","prefecture":"東京都","prefecture_kana":"トウキョウト","city":"千代田区","city_kana":"チヨダク","town":"丸の内ＪＰタワー　１２階","town_kana":"マルノウチジェイピータワー12カイ","prefecture_code":13},"7013":{"zip_code":"1007013","prefecture":"東京都","prefecture_kana":"トウキョウト","city":"千代田区","city_kana":"チヨダク","town":"丸の内ＪＰタワー　１３階","town_kana":"マルノウチジェイピータワー13カイ","prefecture_code":13},"7014":{"zip_code":"1007014","prefecture":"東京都","prefecture_kana":"トウキョウト","city":"千代田区","city_kana":"チヨダク","town":"丸の内ＪＰタワー　１４階","town_kana":"マルノウチジェイピータワー14カイ","prefecture_code":13},"7015":{"zip_code":"1007015","prefecture":"東京都","prefecture_kana":"トウキョウト","city":"千代田区","city_kana":"チヨダク","town":"丸の内ＪＰタワー　１５階","town_kana":"マルノウチジェイピータワー15カイ","prefecture_code":13},"7016":{"zip_code":"1007016","prefecture":"東京都","prefecture_kana":"トウキョウト","city":"千代田区","city_kana":"チヨダク","town":"丸の内ＪＰタワー　１６階","town_kana":"マルノウチジェイピータワー16カイ","prefecture_code":13},"7017":{"zip_code":"1007017","prefecture":"東京都","prefecture_kana":"トウキョウト","city":"千代田区","city_kana":"チヨダク","town":"丸の内ＪＰタワー　１７階","town_kana":"マルノウチジェイピータワー17カイ","prefecture_code":13},"7018":{"zip_code":"1007018","prefecture":"東京都","prefecture_kana":"トウキョウト","city":"千代田区","city_kana":"チヨダク","town":"丸の内ＪＰタワー　１８階","town_kana":"マルノウチジェイピータワー18カイ","prefecture_code":13},"7019":{"zip_code":"1007019","prefecture":"東京都","prefecture_kana":"トウキョウト","city":"千代田区","city_kana":"チヨダク","town":"丸の内ＪＰタワー　１９階","town_kana":"マルノウチジェイピータワー19カイ","prefecture_code":13},"7020":{"zip_code":"1007020","prefecture":"東京都","prefecture_kana":"トウキョウト","city":"千代田区","city_kana":"チヨダク","town":"丸の内ＪＰタワー　２０階","town_kana":"マルノウチジェイピータワー20カイ","prefecture_code":13},"7021":{"zip_code":"1007021","prefecture":"東京都","prefecture_kana":"トウキョウト","city":"千代田区","city_kana":"チヨダク","town":"丸の内ＪＰタワー　２１階","town_kana":"マルノウチジェイピータワー21カイ","prefecture_code":13},"7022":{"zip_code":"1007022","prefecture":"東京都","prefecture_kana":"トウキョウト","city":"千代田区","city_kana":"チヨダク","town":"丸の内ＪＰタワー　２２階","town_kana":"マルノウチジェイピータワー22カイ","prefecture_code":13},"7023":{"zip_code":"1007023","prefecture":"東京都","prefecture_kana":"トウキョウト","city":"千代田区","city_kana":"チヨダク","town":"丸の内ＪＰタワー　２３階","town_kana":"マルノウチジェイピータワー23カイ","prefecture_code":13},"7024":{"zip_code":"1007024","prefecture":"東京都","prefecture_kana":"トウキョウト","city":"千代田区","city_kana":"チヨダク","town":"丸の内ＪＰタワー　２４階","town_kana":"マルノウチジェイピータワー24カイ","prefecture_code":13},"7025":{"zip_code":"1007025","prefecture":"東京都","prefecture_kana":"トウキョウト","city":"千代田区","city_kana":"チヨダク","town":"丸の内ＪＰタワー　２５階","town_kana":"マルノウチジェイピータワー25カイ","prefecture_code":13},"7026":{"zip_code":"1007026","prefecture":"東京都","prefecture_kana":"トウキョウト","city":"千代田区","city_kana":"チヨダク","town":"丸の内ＪＰタワー　２６階","town_kana":"マルノウチジェイピータワー26カイ","prefecture_code":13},"7027":{"zip_code":"1007027","prefecture":"東京都","prefecture_kana":"トウキョウト","city":"千代田区","city_kana":"チヨダク","town":"丸の内ＪＰタワー　２７階","town_kana":"マルノウチジェイピータワー27カイ","prefecture_code":13},"7028":{"zip_code":"1007028","prefecture":"東京都","prefecture_kana":"トウキョウト","city":"千代田区","city_kana":"チヨダク","town":"丸の内ＪＰタワー　２８階","town_kana":"マルノウチジェイピータワー28カイ","prefecture_code":13},"7029":{"zip_code":"1007029","prefecture":"東京都","prefecture_kana":"トウキョウト","city":"千代田区","city_kana":"チヨダク","town":"丸の内ＪＰタワー　２９階","town_kana":"マルノウチジェイピータワー29カイ","prefecture_code":13},"7030":{"zip_code":"1007030","prefecture":"東京都","prefecture_kana":"トウキョウト","city":"千代田区","city_kana":"チヨダク","town":"丸の内ＪＰタワー　３０階","town_kana":"マルノウチジェイピータワー30カイ","prefecture_code":13},"7031":{"zip_code":"1007031","prefecture":"東京都","prefecture_kana":"トウキョウト","city":"千代田区","city_kana":"チヨダク","town":"丸の内ＪＰタワー　３１階","town_kana":"マルノウチジェイピータワー31カイ","prefecture_code":13},"7032":{"zip_code":"1007032","prefecture":"東京都","prefecture_kana":"トウキョウト","city":"千代田区","city_kana":"チヨダク","town":"丸の内ＪＰタワー　３２階","town_kana":"マルノウチジェイピータワー32カイ","prefecture_code":13},"7033":{"zip_code":"1007033","prefecture":"東京都","prefecture_kana":"トウキョウト","city":"千代田区","city_kana":"チヨダク","town":"丸の内ＪＰタワー　３３階","town_kana":"マルノウチジェイピータワー33カイ","prefecture_code":13},"7034":{"zip_code":"1007034","prefecture":"東京都","prefecture_kana":"トウキョウト","city":"千代田区","city_kana":"チヨダク","town":"丸の内ＪＰタワー　３４階","town_kana":"マルノウチジェイピータワー34カイ","prefecture_code":13},"7035":{"zip_code":"1007035","prefecture":"東京都","prefecture_kana":"トウキョウト","city":"千代田区","city_kana":"チヨダク","town":"丸の内ＪＰタワー　３５階","town_kana":"マルノウチジェイピータワー35カイ","prefecture_code":13},"7036":{"zip_code":"1007036","prefecture":"東京都","prefecture_kana":"トウキョウト","city":"千代田区","city_kana":"チヨダク","town":"丸の内ＪＰタワー　３６階","town_kana":"マルノウチジェイピータワー36カイ","prefecture_code":13},"7037":{"zip_code":"1007037","prefecture":"東京都","prefecture_kana":"トウキョウト","city":"千代田区","city_kana":"チヨダク","town":"丸の内ＪＰタワー　３７階","town_kana":"マルノウチジェイピータワー37カイ","prefecture_code":13},"7038":{"zip_code":"1007038","prefecture":"東京都","prefecture_kana":"トウキョウト","city":"千代田区","city_kana":"チヨダク","town":"丸の内ＪＰタワー　３８階","town_kana":"マルノウチジェイピータワー38カイ","prefecture_code":13},"6590":{"zip_code":"1006590","prefecture":"東京都","prefecture_kana":"トウキョウト","city":"千代田区","city_kana":"チヨダク","town":"丸の内新丸の内ビルディング","town_kana":"マルノウチシンマルノウチビルディング","prefecture_code":13},"6501":{"zip_code":"1006501","prefecture":"東京都","prefecture_kana":"トウキョウト","city":"千代田区","city_kana":"チヨダク","town":"丸の内新丸の内ビルディング　１階","town_kana":"マルノウチシンマルノウチビルディング1カイ","prefecture_code":13},"6502":{"zip_code":"1006502","prefecture":"東京都","prefecture_kana":"トウキョウト","city":"千代田区","city_kana":"チヨダク","town":"丸の内新丸の内ビルディング　２階","town_kana":"マルノウチシンマルノウチビルディング2カイ","prefecture_code":13},"6503":{"zip_code":"1006503","prefecture":"東京都","prefecture_kana":"トウキョウト","city":"千代田区","city_kana":"チヨダク","town":"丸の内新丸の内ビルディング　３階","town_kana":"マルノウチシンマルノウチビルディング3カイ","prefecture_code":13},"6504":{"zip_code":"1006504","prefecture":"東京都","prefecture_kana":"トウキョウト","city":"千代田区","city_kana":"チヨダク","town":"丸の内新丸の内ビルディング　４階","town_kana":"マルノウチシンマルノウチビルディング4カイ","prefecture_code":13},"6505":{"zip_code":"1006505","prefecture":"東京都","prefecture_kana":"トウキョウト","city":"千代田区","city_kana":"チヨダク","town":"丸の内新丸の内ビルディング　５階","town_kana":"マルノウチシンマルノウチビルディング5カイ","prefecture_code":13},"6506":{"zip_code":"1006506","prefecture":"東京都","prefecture_kana":"トウキョウト","city":"千代田区","city_kana":"チヨダク","town":"丸の内新丸の内ビルディング　６階","town_kana":"マルノウチシンマルノウチビルディング6カイ","prefecture_code":13},"6507":{"zip_code":"1006507","prefecture":"東京都","prefecture_kana":"トウキョウト","city":"千代田区","city_kana":"チヨダク","town":"丸の内新丸の内ビルディング　７階","town_kana":"マルノウチシンマルノウチビルディング7カイ","prefecture_code":13},"6508":{"zip_code":"1006508","prefecture":"東京都","prefecture_kana":"トウキョウト","city":"千代田区","city_kana":"チヨダク","town":"丸の内新丸の内ビルディング　８階","town_kana":"マルノウチシンマルノウチビルディング8カイ","prefecture_code":13},"6509":{"zip_code":"1006509","prefecture":"東京都","prefecture_kana":"トウキョウト","city":"千代田区","city_kana":"チヨダク","town":"丸の内新丸の内ビルディング　９階","town_kana":"マルノウチシンマルノウチビルディング9カイ","prefecture_code":13},"6510":{"zip_code":"1006510","prefecture":"東京都","prefecture_kana":"トウキョウト","city":"千代田区","city_kana":"チヨダク","town":"丸の内新丸の内ビルディング　１０階","town_kana":"マルノウチシンマルノウチビルディング10カイ","prefecture_code":13},"6511":{"zip_code":"1006511","prefecture":"東京都","prefecture_kana":"トウキョウト","city":"千代田区","city_kana":"チヨダク","town":"丸の内新丸の内ビルディング　１１階","town_kana":"マルノウチシンマルノウチビルディング11カイ","prefecture_code":13},"6512":{"zip_code":"1006512","prefecture":"東京都","prefecture_kana":"トウキョウト","city":"千代田区","city_kana":"チヨダク","town":"丸の内新丸の内ビルディング　１２階","town_kana":"マルノウチシンマルノウチビルディング12カイ","prefecture_code":13},"6513":{"zip_code":"1006513","prefecture":"東京都","prefecture_kana":"トウキョウト","city":"千代田区","city_kana":"チヨダク","town":"丸の内新丸の内ビルディング　１３階","town_kana":"マルノウチシンマルノウチビルディング13カイ","prefecture_code":13},"6514":{"zip_code":"1006514","prefecture":"東京都","prefecture_kana":"トウキョウト","city":"千代田区","city_kana":"チヨダク","town":"丸の内新丸の内ビルディング　１４階","town_kana":"マルノウチシンマルノウチビルディング14カイ","prefecture_code":13},"6515":{"zip_code":"1006515","prefecture":"東京都","prefecture_kana":"トウキョウト","city":"千代田区","city_kana":"チヨダク","town":"丸の内新丸の内ビルディング　１５階","town_kana":"マルノウチシンマルノウチビルディング15カイ","prefecture_code":13},"6516":{"zip_code":"1006516","prefecture":"東京都","prefecture_kana":"トウキョウト","city":"千代田区","city_kana":"チヨダク","town":"丸の内新丸の内ビルディング　１６階","town_kana":"マルノウチシンマルノウチビルディング16カイ","prefecture_code":13},"6517":{"zip_code":"1006517","prefecture":"東京都","prefecture_kana":"トウキョウト","city":"千代田区","city_kana":"チヨダク","town":"丸の内新丸の内ビルディング　１７階","town_kana":"マルノウチシンマルノウチビルディング17カイ","prefecture_code":13},"6518":{"zip_code":"1006518","prefecture":"東京都","prefecture_kana":"トウキョウト","city":"千代田区","city_kana":"チヨダク","town":"丸の内新丸の内ビルディング　１８階","town_kana":"マルノウチシンマルノウチビルディング18カイ","prefecture_code":13},"6519":{"zip_code":"1006519","prefecture":"東京都","prefecture_kana":"トウキョウト","city":"千代田区","city_kana":"チヨダク","town":"丸の内新丸の内ビルディング　１９階","town_kana":"マルノウチシンマルノウチビルディング19カイ","prefecture_code":13},"6520":{"zip_code":"1006520","prefecture":"東京都","prefecture_kana":"トウキョウト","city":"千代田区","city_kana":"チヨダク","town":"丸の内新丸の内ビルディング　２０階","town_kana":"マルノウチシンマルノウチビルディング20カイ","prefecture_code":13},"6521":{"zip_code":"1006521","prefecture":"東京都","prefecture_kana":"トウキョウト","city":"千代田区","city_kana":"チヨダク","town":"丸の内新丸の内ビルディング　２１階","town_kana":"マルノウチシンマルノウチビルディング21カイ","prefecture_code":13},"6522":{"zip_code":"1006522","prefecture":"東京都","prefecture_kana":"トウキョウト","city":"千代田区","city_kana":"チヨダク","town":"丸の内新丸の内ビルディング　２２階","town_kana":"マルノウチシンマルノウチビルディング22カイ","prefecture_code":13},"6523":{"zip_code":"1006523","prefecture":"東京都","prefecture_kana":"トウキョウト","city":"千代田区","city_kana":"チヨダク","town":"丸の内新丸の内ビルディング　２３階","town_kana":"マルノウチシンマルノウチビルディング23カイ","prefecture_code":13},"6524":{"zip_code":"1006524","prefecture":"東京都","prefecture_kana":"トウキョウト","city":"千代田区","city_kana":"チヨダク","town":"丸の内新丸の内ビルディング　２４階","town_kana":"マルノウチシンマルノウチビルディング24カイ","prefecture_code":13},"6525":{"zip_code":"1006525","prefecture":"東京都","prefecture_kana":"トウキョウト","city":"千代田区","city_kana":"チヨダク","town":"丸の内新丸の内ビルディング　２５階","town_kana":"マルノウチシンマルノウチビルディング25カイ","prefecture_code":13},"6526":{"zip_code":"1006526","prefecture":"東京都","prefecture_kana":"トウキョウト","city":"千代田区","city_kana":"チヨダク","town":"丸の内新丸の内ビルディング　２６階","town_kana":"マルノウチシンマルノウチビルディング26カイ","prefecture_code":13},"6527":{"zip_code":"1006527","prefecture":"東京都","prefecture_kana":"トウキョウト","city":"千代田区","city_kana":"チヨダク","town":"丸の内新丸の内ビルディング　２７階","town_kana":"マルノウチシンマルノウチビルディング27カイ","prefecture_code":13},"6528":{"zip_code":"1006528","prefecture":"東京都","prefecture_kana":"トウキョウト","city":"千代田区","city_kana":"チヨダク","town":"丸の内新丸の内ビルディング　２８階","town_kana":"マルノウチシンマルノウチビルディング28カイ","prefecture_code":13},"6529":{"zip_code":"1006529","prefecture":"東京都","prefecture_kana":"トウキョウト","city":"千代田区","city_kana":"チヨダク","town":"丸の内新丸の内ビルディング　２９階","town_kana":"マルノウチシンマルノウチビルディング29カイ","prefecture_code":13},"6530":{"zip_code":"1006530","prefecture":"東京都","prefecture_kana":"トウキョウト","city":"千代田区","city_kana":"チヨダク","town":"丸の内新丸の内ビルディング　３０階","town_kana":"マルノウチシンマルノウチビルディング30カイ","prefecture_code":13},"6531":{"zip_code":"1006531","prefecture":"東京都","prefecture_kana":"トウキョウト","city":"千代田区","city_kana":"チヨダク","town":"丸の内新丸の内ビルディング　３１階","town_kana":"マルノウチシンマルノウチビルディング31カイ","prefecture_code":13},"6532":{"zip_code":"1006532","prefecture":"東京都","prefecture_kana":"トウキョウト","city":"千代田区","city_kana":"チヨダク","town":"丸の内新丸の内ビルディング　３２階","town_kana":"マルノウチシンマルノウチビルディング32カイ","prefecture_code":13},"6533":{"zip_code":"1006533","prefecture":"東京都","prefecture_kana":"トウキョウト","city":"千代田区","city_kana":"チヨダク","town":"丸の内新丸の内ビルディング　３３階","town_kana":"マルノウチシンマルノウチビルディング33カイ","prefecture_code":13},"6534":{"zip_code":"1006534","prefecture":"東京都","prefecture_kana":"トウキョウト","city":"千代田区","city_kana":"チヨダク","town":"丸の内新丸の内ビルディング　３４階","town_kana":"マルノウチシンマルノウチビルディング34カイ","prefecture_code":13},"6535":{"zip_code":"1006535","prefecture":"東京都","prefecture_kana":"トウキョウト","city":"千代田区","city_kana":"チヨダク","town":"丸の内新丸の内ビルディング　３５階","town_kana":"マルノウチシンマルノウチビルディング35カイ","prefecture_code":13},"6536":{"zip_code":"1006536","prefecture":"東京都","prefecture_kana":"トウキョウト","city":"千代田区","city_kana":"チヨダク","town":"丸の内新丸の内ビルディング　３６階","town_kana":"マルノウチシンマルノウチビルディング36カイ","prefecture_code":13},"6537":{"zip_code":"1006537","prefecture":"東京都","prefecture_kana":"トウキョウト","city":"千代田区","city_kana":"チヨダク","town":"丸の内新丸の内ビルディング　３７階","town_kana":"マルノウチシンマルノウチビルディング37カイ","prefecture_code":13},"6538":{"zip_code":"1006538","prefecture":"東京都","prefecture_kana":"トウキョウト","city":"千代田区","city_kana":"チヨダク","town":"丸の内新丸の内ビルディング　３８階","town_kana":"マルノウチシンマルノウチビルディング38カイ","prefecture_code":13},"6490":{"zip_code":"1006490","prefecture":"東京都","prefecture_kana":"トウキョウト","city":"千代田区","city_kana":"チヨダク","town":"丸の内東京ビルディング","town_kana":"マルノウチトウキョウビルディング","prefecture_code":13},"6401":{"zip_code":"1006401","prefecture":"東京都","prefecture_kana":"トウキョウト","city":"千代田区","city_kana":"チヨダク","town":"丸の内東京ビルディング　１階","town_kana":"マルノウチトウキョウビルディング1カイ","prefecture_code":13},"6402":{"zip_code":"1006402","prefecture":"東京都","prefecture_kana":"トウキョウト","city":"千代田区","city_kana":"チヨダク","town":"丸の内東京ビルディング　２階","town_kana":"マルノウチトウキョウビルディング2カイ","prefecture_code":13},"6403":{"zip_code":"1006403","prefecture":"東京都","prefecture_kana":"トウキョウト","city":"千代田区","city_kana":"チヨダク","town":"丸の内東京ビルディング　３階","town_kana":"マルノウチトウキョウビルディング3カイ","prefecture_code":13},"6404":{"zip_code":"1006404","prefecture":"東京都","prefecture_kana":"トウキョウト","city":"千代田区","city_kana":"チヨダク","town":"丸の内東京ビルディング　４階","town_kana":"マルノウチトウキョウビルディング4カイ","prefecture_code":13},"6405":{"zip_code":"1006405","prefecture":"東京都","prefecture_kana":"トウキョウト","city":"千代田区","city_kana":"チヨダク","town":"丸の内東京ビルディング　５階","town_kana":"マルノウチトウキョウビルディング5カイ","prefecture_code":13},"6406":{"zip_code":"1006406","prefecture":"東京都","prefecture_kana":"トウキョウト","city":"千代田区","city_kana":"チヨダク","town":"丸の内東京ビルディング　６階","town_kana":"マルノウチトウキョウビルディング6カイ","prefecture_code":13},"6407":{"zip_code":"1006407","prefecture":"東京都","prefecture_kana":"トウキョウト","city":"千代田区","city_kana":"チヨダク","town":"丸の内東京ビルディング　７階","town_kana":"マルノウチトウキョウビルディング7カイ","prefecture_code":13},"6408":{"zip_code":"1006408","prefecture":"東京都","prefecture_kana":"トウキョウト","city":"千代田区","city_kana":"チヨダク","town":"丸の内東京ビルディング　８階","town_kana":"マルノウチトウキョウビルディング8カイ","prefecture_code":13},"6409":{"zip_code":"1006409","prefecture":"東京都","prefecture_kana":"トウキョウト","city":"千代田区","city_kana":"チヨダク","town":"丸の内東京ビルディング　９階","town_kana":"マルノウチトウキョウビルディング9カイ","prefecture_code":13},"6410":{"zip_code":"1006410","prefecture":"東京都","prefecture_kana":"トウキョウト","city":"千代田区","city_kana":"チヨダク","town":"丸の内東京ビルディング　１０階","town_kana":"マルノウチトウキョウビルディング10カイ","prefecture_code":13},"6411":{"zip_code":"1006411","prefecture":"東京都","prefecture_kana":"トウキョウト","city":"千代田区","city_kana":"チヨダク","town":"丸の内東京ビルディング　１１階","town_kana":"マルノウチトウキョウビルディング11カイ","prefecture_code":13},"6412":{"zip_code":"1006412","prefecture":"東京都","prefecture_kana":"トウキョウト","city":"千代田区","city_kana":"チヨダク","town":"丸の内東京ビルディング　１２階","town_kana":"マルノウチトウキョウビルディング12カイ","prefecture_code":13},"6413":{"zip_code":"1006413","prefecture":"東京都","prefecture_kana":"トウキョウト","city":"千代田区","city_kana":"チヨダク","town":"丸の内東京ビルディング　１３階","town_kana":"マルノウチトウキョウビルディング13カイ","prefecture_code":13},"6414":{"zip_code":"1006414","prefecture":"東京都","prefecture_kana":"トウキョウト","city":"千代田区","city_kana":"チヨダク","town":"丸の内東京ビルディング　１４階","town_kana":"マルノウチトウキョウビルディング14カイ","prefecture_code":13},"6415":{"zip_code":"1006415","prefecture":"東京都","prefecture_kana":"トウキョウト","city":"千代田区","city_kana":"チヨダク","town":"丸の内東京ビルディング　１５階","town_kana":"マルノウチトウキョウビルディング15カイ","prefecture_code":13},"6416":{"zip_code":"1006416","prefecture":"東京都","prefecture_kana":"トウキョウト","city":"千代田区","city_kana":"チヨダク","town":"丸の内東京ビルディング　１６階","town_kana":"マルノウチトウキョウビルディング16カイ","prefecture_code":13},"6417":{"zip_code":"1006417","prefecture":"東京都","prefecture_kana":"トウキョウト","city":"千代田区","city_kana":"チヨダク","town":"丸の内東京ビルディング　１７階","town_kana":"マルノウチトウキョウビルディング17カイ","prefecture_code":13},"6418":{"zip_code":"1006418","prefecture":"東京都","prefecture_kana":"トウキョウト","city":"千代田区","city_kana":"チヨダク","town":"丸の内東京ビルディング　１８階","town_kana":"マルノウチトウキョウビルディング18カイ","prefecture_code":13},"6419":{"zip_code":"1006419","prefecture":"東京都","prefecture_kana":"トウキョウト","city":"千代田区","city_kana":"チヨダク","town":"丸の内東京ビルディング　１９階","town_kana":"マルノウチトウキョウビルディング19カイ","prefecture_code":13},"6420":{"zip_code":"1006420","prefecture":"東京都","prefecture_kana":"トウキョウト","city":"千代田区","city_kana":"チヨダク","town":"丸の内東京ビルディング　２０階","town_kana":"マルノウチトウキョウビルディング20カイ","prefecture_code":13},"6421":{"zip_code":"1006421","prefecture":"東京都","prefecture_kana":"トウキョウト","city":"千代田区","city_kana":"チヨダク","town":"丸の内東京ビルディング　２１階","town_kana":"マルノウチトウキョウビルディング21カイ","prefecture_code":13},"6422":{"zip_code":"1006422","prefecture":"東京都","prefecture_kana":"トウキョウト","city":"千代田区","city_kana":"チヨダク","town":"丸の内東京ビルディング　２２階","town_kana":"マルノウチトウキョウビルディング22カイ","prefecture_code":13},"6423":{"zip_code":"1006423","prefecture":"東京都","prefecture_kana":"トウキョウト","city":"千代田区","city_kana":"チヨダク","town":"丸の内東京ビルディング　２３階","town_kana":"マルノウチトウキョウビルディング23カイ","prefecture_code":13},"6424":{"zip_code":"1006424","prefecture":"東京都","prefecture_kana":"トウキョウト","city":"千代田区","city_kana":"チヨダク","town":"丸の内東京ビルディング　２４階","town_kana":"マルノウチトウキョウビルディング24カイ","prefecture_code":13},"6425":{"zip_code":"1006425","prefecture":"東京都","prefecture_kana":"トウキョウト","city":"千代田区","city_kana":"チヨダク","town":"丸の内東京ビルディング　２５階","town_kana":"マルノウチトウキョウビルディング25カイ","prefecture_code":13},"6426":{"zip_code":"1006426","prefecture":"東京都","prefecture_kana":"トウキョウト","city":"千代田区","city_kana":"チヨダク","town":"丸の内東京ビルディング　２６階","town_kana":"マルノウチトウキョウビルディング26カイ","prefecture_code":13},"6427":{"zip_code":"1006427","prefecture":"東京都","prefecture_kana":"トウキョウト","city":"千代田区","city_kana":"チヨダク","town":"丸の内東京ビルディング　２７階","town_kana":"マルノウチトウキョウビルディング27カイ","prefecture_code":13},"6428":{"zip_code":"1006428","prefecture":"東京都","prefecture_kana":"トウキョウト","city":"千代田区","city_kana":"チヨダク","town":"丸の内東京ビルディング　２８階","town_kana":"マルノウチトウキョウビルディング28カイ","prefecture_code":13},"6429":{"zip_code":"1006429","prefecture":"東京都","prefecture_kana":"トウキョウト","city":"千代田区","city_kana":"チヨダク","town":"丸の内東京ビルディング　２９階","town_kana":"マルノウチトウキョウビルディング29カイ","prefecture_code":13},"6430":{"zip_code":"1006430","prefecture":"東京都","prefecture_kana":"トウキョウト","city":"千代田区","city_kana":"チヨダク","town":"丸の内東京ビルディング　３０階","town_kana":"マルノウチトウキョウビルディング30カイ","prefecture_code":13},"6431":{"zip_code":"1006431","prefecture":"東京都","prefecture_kana":"トウキョウト","city":"千代田区","city_kana":"チヨダク","town":"丸の内東京ビルディング　３１階","town_kana":"マルノウチトウキョウビルディング31カイ","prefecture_code":13},"6432":{"zip_code":"1006432","prefecture":"東京都","prefecture_kana":"トウキョウト","city":"千代田区","city_kana":"チヨダク","town":"丸の内東京ビルディング　３２階","town_kana":"マルノウチトウキョウビルディング32カイ","prefecture_code":13},"6433":{"zip_code":"1006433","prefecture":"東京都","prefecture_kana":"トウキョウト","city":"千代田区","city_kana":"チヨダク","town":"丸の内東京ビルディング　３３階","town_kana":"マルノウチトウキョウビルディング33カイ","prefecture_code":13},"6290":{"zip_code":"1006290","prefecture":"東京都","prefecture_kana":"トウキョウト","city":"千代田区","city_kana":"チヨダク","town":"丸の内パシフィックセンチュリープレイス丸の内","town_kana":"マルノウチパシフィックセンチュリープレイスマルノウチ","prefecture_code":13},"6201":{"zip_code":"1006201","prefecture":"東京都","prefecture_kana":"トウキョウト","city":"千代田区","city_kana":"チヨダク","town":"丸の内パシフィックセンチュリープレイス丸の内　１階","town_kana":"マルノウチパシフィックセンチュリープレイスマルノウチ1カイ","prefecture_code":13},"6202":{"zip_code":"1006202","prefecture":"東京都","prefecture_kana":"トウキョウト","city":"千代田区","city_kana":"チヨダク","town":"丸の内パシフィックセンチュリープレイス丸の内　２階","town_kana":"マルノウチパシフィックセンチュリープレイスマルノウチ2カイ","prefecture_code":13},"6203":{"zip_code":"1006203","prefecture":"東京都","prefecture_kana":"トウキョウト","city":"千代田区","city_kana":"チヨダク","town":"丸の内パシフィックセンチュリープレイス丸の内　３階","town_kana":"マルノウチパシフィックセンチュリープレイスマルノウチ3カイ","prefecture_code":13},"6204":{"zip_code":"1006204","prefecture":"東京都","prefecture_kana":"トウキョウト","city":"千代田区","city_kana":"チヨダク","town":"丸の内パシフィックセンチュリープレイス丸の内　４階","town_kana":"マルノウチパシフィックセンチュリープレイスマルノウチ4カイ","prefecture_code":13},"6205":{"zip_code":"1006205","prefecture":"東京都","prefecture_kana":"トウキョウト","city":"千代田区","city_kana":"チヨダク","town":"丸の内パシフィックセンチュリープレイス丸の内　５階","town_kana":"マルノウチパシフィックセンチュリープレイスマルノウチ5カイ","prefecture_code":13},"6206":{"zip_code":"1006206","prefecture":"東京都","prefecture_kana":"トウキョウト","city":"千代田区","city_kana":"チヨダク","town":"丸の内パシフィックセンチュリープレイス丸の内　６階","town_kana":"マルノウチパシフィックセンチュリープレイスマルノウチ6カイ","prefecture_code":13},"6207":{"zip_code":"1006207","prefecture":"東京都","prefecture_kana":"トウキョウト","city":"千代田区","city_kana":"チヨダク","town":"丸の内パシフィックセンチュリープレイス丸の内　７階","town_kana":"マルノウチパシフィックセンチュリープレイスマルノウチ7カイ","prefecture_code":13},"6208":{"zip_code":"1006208","prefecture":"東京都","prefecture_kana":"トウキョウト","city":"千代田区","city_kana":"チヨダク","town":"丸の内パシフィックセンチュリープレイス丸の内　８階","town_kana":"マルノウチパシフィックセンチュリープレイスマルノウチ8カイ","prefecture_code":13},"6209":{"zip_code":"1006209","prefecture":"東京都","prefecture_kana":"トウキョウト","city":"千代田区","city_kana":"チヨダク","town":"丸の内パシフィックセンチュリープレイス丸の内　９階","town_kana":"マルノウチパシフィックセンチュリープレイスマルノウチ9カイ","prefecture_code":13},"6210":{"zip_code":"1006210","prefecture":"東京都","prefecture_kana":"トウキョウト","city":"千代田区","city_kana":"チヨダク","town":"丸の内パシフィックセンチュリープレイス丸の内　１０階","town_kana":"マルノウチパシフィックセンチュリープレイスマルノウチ10カイ","prefecture_code":13},"6211":{"zip_code":"1006211","prefecture":"東京都","prefecture_kana":"トウキョウト","city":"千代田区","city_kana":"チヨダク","town":"丸の内パシフィックセンチュリープレイス丸の内　１１階","town_kana":"マルノウチパシフィックセンチュリープレイスマルノウチ11カイ","prefecture_code":13},"6212":{"zip_code":"1006212","prefecture":"東京都","prefecture_kana":"トウキョウト","city":"千代田区","city_kana":"チヨダク","town":"丸の内パシフィックセンチュリープレイス丸の内　１２階","town_kana":"マルノウチパシフィックセンチュリープレイスマルノウチ12カイ","prefecture_code":13},"6213":{"zip_code":"1006213","prefecture":"東京都","prefecture_kana":"トウキョウト","city":"千代田区","city_kana":"チヨダク","town":"丸の内パシフィックセンチュリープレイス丸の内　１３階","town_kana":"マルノウチパシフィックセンチュリープレイスマルノウチ13カイ","prefecture_code":13},"6214":{"zip_code":"1006214","prefecture":"東京都","prefecture_kana":"トウキョウト","city":"千代田区","city_kana":"チヨダク","town":"丸の内パシフィックセンチュリープレイス丸の内　１４階","town_kana":"マルノウチパシフィックセンチュリープレイスマルノウチ14カイ","prefecture_code":13},"6215":{"zip_code":"1006215","prefecture":"東京都","prefecture_kana":"トウキョウト","city":"千代田区","city_kana":"チヨダク","town":"丸の内パシフィックセンチュリープレイス丸の内　１５階","town_kana":"マルノウチパシフィックセンチュリープレイスマルノウチ15カイ","prefecture_code":13},"6216":{"zip_code":"1006216","prefecture":"東京都","prefecture_kana":"トウキョウト","city":"千代田区","city_kana":"チヨダク","town":"丸の内パシフィックセンチュリープレイス丸の内　１６階","town_kana":"マルノウチパシフィックセンチュリープレイスマルノウチ16カイ","prefecture_code":13},"6217":{"zip_code":"1006217","prefecture":"東京都","prefecture_kana":"トウキョウト","city":"千代田区","city_kana":"チヨダク","town":"丸の内パシフィックセンチュリープレイス丸の内　１７階","town_kana":"マルノウチパシフィックセンチュリープレイスマルノウチ17カイ","prefecture_code":13},"6218":{"zip_code":"1006218","prefecture":"東京都","prefecture_kana":"トウキョウト","city":"千代田区","city_kana":"チヨダク","town":"丸の内パシフィックセンチュリープレイス丸の内　１８階","town_kana":"マルノウチパシフィックセンチュリープレイスマルノウチ18カイ","prefecture_code":13},"6219":{"zip_code":"1006219","prefecture":"東京都","prefecture_kana":"トウキョウト","city":"千代田区","city_kana":"チヨダク","town":"丸の内パシフィックセンチュリープレイス丸の内　１９階","town_kana":"マルノウチパシフィックセンチュリープレイスマルノウチ19カイ","prefecture_code":13},"6220":{"zip_code":"1006220","prefecture":"東京都","prefecture_kana":"トウキョウト","city":"千代田区","city_kana":"チヨダク","town":"丸の内パシフィックセンチュリープレイス丸の内　２０階","town_kana":"マルノウチパシフィックセンチュリープレイスマルノウチ20カイ","prefecture_code":13},"6221":{"zip_code":"1006221","prefecture":"東京都","prefecture_kana":"トウキョウト","city":"千代田区","city_kana":"チヨダク","town":"丸の内パシフィックセンチュリープレイス丸の内　２１階","town_kana":"マルノウチパシフィックセンチュリープレイスマルノウチ21カイ","prefecture_code":13},"6222":{"zip_code":"1006222","prefecture":"東京都","prefecture_kana":"トウキョウト","city":"千代田区","city_kana":"チヨダク","town":"丸の内パシフィックセンチュリープレイス丸の内　２２階","town_kana":"マルノウチパシフィックセンチュリープレイスマルノウチ22カイ","prefecture_code":13},"6223":{"zip_code":"1006223","prefecture":"東京都","prefecture_kana":"トウキョウト","city":"千代田区","city_kana":"チヨダク","town":"丸の内パシフィックセンチュリープレイス丸の内　２３階","town_kana":"マルノウチパシフィックセンチュリープレイスマルノウチ23カイ","prefecture_code":13},"6224":{"zip_code":"1006224","prefecture":"東京都","prefecture_kana":"トウキョウト","city":"千代田区","city_kana":"チヨダク","town":"丸の内パシフィックセンチュリープレイス丸の内　２４階","town_kana":"マルノウチパシフィックセンチュリープレイスマルノウチ24カイ","prefecture_code":13},"6225":{"zip_code":"1006225","prefecture":"東京都","prefecture_kana":"トウキョウト","city":"千代田区","city_kana":"チヨダク","town":"丸の内パシフィックセンチュリープレイス丸の内　２５階","town_kana":"マルノウチパシフィックセンチュリープレイスマルノウチ25カイ","prefecture_code":13},"6226":{"zip_code":"1006226","prefecture":"東京都","prefecture_kana":"トウキョウト","city":"千代田区","city_kana":"チヨダク","town":"丸の内パシフィックセンチュリープレイス丸の内　２６階","town_kana":"マルノウチパシフィックセンチュリープレイスマルノウチ26カイ","prefecture_code":13},"6227":{"zip_code":"1006227","prefecture":"東京都","prefecture_kana":"トウキョウト","city":"千代田区","city_kana":"チヨダク","town":"丸の内パシフィックセンチュリープレイス丸の内　２７階","town_kana":"マルノウチパシフィックセンチュリープレイスマルノウチ27カイ","prefecture_code":13},"6228":{"zip_code":"1006228","prefecture":"東京都","prefecture_kana":"トウキョウト","city":"千代田区","city_kana":"チヨダク","town":"丸の内パシフィックセンチュリープレイス丸の内　２８階","town_kana":"マルノウチパシフィックセンチュリープレイスマルノウチ28カイ","prefecture_code":13},"6229":{"zip_code":"1006229","prefecture":"東京都","prefecture_kana":"トウキョウト","city":"千代田区","city_kana":"チヨダク","town":"丸の内パシフィックセンチュリープレイス丸の内　２９階","town_kana":"マルノウチパシフィックセンチュリープレイスマルノウチ29カイ","prefecture_code":13},"6230":{"zip_code":"1006230","prefecture":"東京都","prefecture_kana":"トウキョウト","city":"千代田区","city_kana":"チヨダク","town":"丸の内パシフィックセンチュリープレイス丸の内　３０階","town_kana":"マルノウチパシフィックセンチュリープレイスマルノウチ30カイ","prefecture_code":13},"6231":{"zip_code":"1006231","prefecture":"東京都","prefecture_kana":"トウキョウト","city":"千代田区","city_kana":"チヨダク","town":"丸の内パシフィックセンチュリープレイス丸の内　３１階","town_kana":"マルノウチパシフィックセンチュリープレイスマルノウチ31カイ","prefecture_code":13},"6990":{"zip_code":"1006990","prefecture":"東京都","prefecture_kana":"トウキョウト","city":"千代田区","city_kana":"チヨダク","town":"丸の内丸の内パークビルディング","town_kana":"マルノウチマルノウチパークビルディング","prefecture_code":13},"6901":{"zip_code":"1006901","prefecture":"東京都","prefecture_kana":"トウキョウト","city":"千代田区","city_kana":"チヨダク","town":"丸の内丸の内パークビルディング　１階","town_kana":"マルノウチマルノウチパークビルディング1カイ","prefecture_code":13},"6902":{"zip_code":"1006902","prefecture":"東京都","prefecture_kana":"トウキョウト","city":"千代田区","city_kana":"チヨダク","town":"丸の内丸の内パークビルディング　２階","town_kana":"マルノウチマルノウチパークビルディング2カイ","prefecture_code":13},"6903":{"zip_code":"1006903","prefecture":"東京都","prefecture_kana":"トウキョウト","city":"千代田区","city_kana":"チヨダク","town":"丸の内丸の内パークビルディング　３階","town_kana":"マルノウチマルノウチパークビルディング3カイ","prefecture_code":13},"6904":{"zip_code":"1006904","prefecture":"東京都","prefecture_kana":"トウキョウト","city":"千代田区","city_kana":"チヨダク","town":"丸の内丸の内パークビルディング　４階","town_kana":"マルノウチマルノウチパークビルディング4カイ","prefecture_code":13},"6905":{"zip_code":"1006905","prefecture":"東京都","prefecture_kana":"トウキョウト","city":"千代田区","city_kana":"チヨダク","town":"丸の内丸の内パークビルディング　５階","town_kana":"マルノウチマルノウチパークビルディング5カイ","prefecture_code":13},"6906":{"zip_code":"1006906","prefecture":"東京都","prefecture_kana":"トウキョウト","city":"千代田区","city_kana":"チヨダク","town":"丸の内丸の内パークビルディング　６階","town_kana":"マルノウチマルノウチパークビルディング6カイ","prefecture_code":13},"6907":{"zip_code":"1006907","prefecture":"東京都","prefecture_kana":"トウキョウト","city":"千代田区","city_kana":"チヨダク","town":"丸の内丸の内パークビルディング　７階","town_kana":"マルノウチマルノウチパークビルディング7カイ","prefecture_code":13},"6908":{"zip_code":"1006908","prefecture":"東京都","prefecture_kana":"トウキョウト","city":"千代田区","city_kana":"チヨダク","town":"丸の内丸の内パークビルディング　８階","town_kana":"マルノウチマルノウチパークビルディング8カイ","prefecture_code":13},"6909":{"zip_code":"1006909","prefecture":"東京都","prefecture_kana":"トウキョウト","city":"千代田区","city_kana":"チヨダク","town":"丸の内丸の内パークビルディング　９階","town_kana":"マルノウチマルノウチパークビルディング9カイ","prefecture_code":13},"6910":{"zip_code":"1006910","prefecture":"東京都","prefecture_kana":"トウキョウト","city":"千代田区","city_kana":"チヨダク","town":"丸の内丸の内パークビルディング　１０階","town_kana":"マルノウチマルノウチパークビルディング10カイ","prefecture_code":13},"6911":{"zip_code":"1006911","prefecture":"東京都","prefecture_kana":"トウキョウト","city":"千代田区","city_kana":"チヨダク","town":"丸の内丸の内パークビルディング　１１階","town_kana":"マルノウチマルノウチパークビルディング11カイ","prefecture_code":13},"6912":{"zip_code":"1006912","prefecture":"東京都","prefecture_kana":"トウキョウト","city":"千代田区","city_kana":"チヨダク","town":"丸の内丸の内パークビルディング　１２階","town_kana":"マルノウチマルノウチパークビルディング12カイ","prefecture_code":13},"6913":{"zip_code":"1006913","prefecture":"東京都","prefecture_kana":"トウキョウト","city":"千代田区","city_kana":"チヨダク","town":"丸の内丸の内パークビルディング　１３階","town_kana":"マルノウチマルノウチパークビルディング13カイ","prefecture_code":13},"6914":{"zip_code":"1006914","prefecture":"東京都","prefecture_kana":"トウキョウト","city":"千代田区","city_kana":"チヨダク","town":"丸の内丸の内パークビルディング　１４階","town_kana":"マルノウチマルノウチパークビルディング14カイ","prefecture_code":13},"6915":{"zip_code":"1006915","prefecture":"東京都","prefecture_kana":"トウキョウト","city":"千代田区","city_kana":"チヨダク","town":"丸の内丸の内パークビルディング　１５階","town_kana":"マルノウチマルノウチパークビルディング15カイ","prefecture_code":13},"6916":{"zip_code":"1006916","prefecture":"東京都","prefecture_kana":"トウキョウト","city":"千代田区","city_kana":"チヨダク","town":"丸の内丸の内パークビルディング　１６階","town_kana":"マルノウチマルノウチパークビルディング16カイ","prefecture_code":13},"6917":{"zip_code":"1006917","prefecture":"東京都","prefecture_kana":"トウキョウト","city":"千代田区","city_kana":"チヨダク","town":"丸の内丸の内パークビルディング　１７階","town_kana":"マルノウチマルノウチパークビルディング17カイ","prefecture_code":13},"6918":{"zip_code":"1006918","prefecture":"東京都","prefecture_kana":"トウキョウト","city":"千代田区","city_kana":"チヨダク","town":"丸の内丸の内パークビルディング　１８階","town_kana":"マルノウチマルノウチパークビルディング18カイ","prefecture_code":13},"6919":{"zip_code":"1006919","prefecture":"東京都","prefecture_kana":"トウキョウト","city":"千代田区","city_kana":"チヨダク","town":"丸の内丸の内パークビルディング　１９階","town_kana":"マルノウチマルノウチパークビルディング19カイ","prefecture_code":13},"6920":{"zip_code":"1006920","prefecture":"東京都","prefecture_kana":"トウキョウト","city":"千代田区","city_kana":"チヨダク","town":"丸の内丸の内パークビルディング　２０階","town_kana":"マルノウチマルノウチパークビルディング20カイ","prefecture_code":13},"6921":{"zip_code":"1006921","prefecture":"東京都","prefecture_kana":"トウキョウト","city":"千代田区","city_kana":"チヨダク","town":"丸の内丸の内パークビルディング　２１階","town_kana":"マルノウチマルノウチパークビルディング21カイ","prefecture_code":13},"6922":{"zip_code":"1006922","prefecture":"東京都","prefecture_kana":"トウキョウト","city":"千代田区","city_kana":"チヨダク","town":"丸の内丸の内パークビルディング　２２階","town_kana":"マルノウチマルノウチパークビルディング22カイ","prefecture_code":13},"6923":{"zip_code":"1006923","prefecture":"東京都","prefecture_kana":"トウキョウト","city":"千代田区","city_kana":"チヨダク","town":"丸の内丸の内パークビルディング　２３階","town_kana":"マルノウチマルノウチパークビルディング23カイ","prefecture_code":13},"6924":{"zip_code":"1006924","prefecture":"東京都","prefecture_kana":"トウキョウト","city":"千代田区","city_kana":"チヨダク","town":"丸の内丸の内パークビルディング　２４階","town_kana":"マルノウチマルノウチパークビルディング24カイ","prefecture_code":13},"6925":{"zip_code":"1006925","prefecture":"東京都","prefecture_kana":"トウキョウト","city":"千代田区","city_kana":"チヨダク","town":"丸の内丸の内パークビルディング　２５階","town_kana":"マルノウチマルノウチパークビルディング25カイ","prefecture_code":13},"6926":{"zip_code":"1006926","prefecture":"東京都","prefecture_kana":"トウキョウト","city":"千代田区","city_kana":"チヨダク","town":"丸の内丸の内パークビルディング　２６階","town_kana":"マルノウチマルノウチパークビルディング26カイ","prefecture_code":13},"6927":{"zip_code":"1006927","prefecture":"東京都","prefecture_kana":"トウキョウト","city":"千代田区","city_kana":"チヨダク","town":"丸の内丸の内パークビルディング　２７階","town_kana":"マルノウチマルノウチパークビルディング27カイ","prefecture_code":13},"6928":{"zip_code":"1006928","prefecture":"東京都","prefecture_kana":"トウキョウト","city":"千代田区","city_kana":"チヨダク","town":"丸の内丸の内パークビルディング　２８階","town_kana":"マルノウチマルノウチパークビルディング28カイ","prefecture_code":13},"6929":{"zip_code":"1006929","prefecture":"東京都","prefecture_kana":"トウキョウト","city":"千代田区","city_kana":"チヨダク","town":"丸の内丸の内パークビルディング　２９階","town_kana":"マルノウチマルノウチパークビルディング29カイ","prefecture_code":13},"6930":{"zip_code":"1006930","prefecture":"東京都","prefecture_kana":"トウキョウト","city":"千代田区","city_kana":"チヨダク","town":"丸の内丸の内パークビルディング　３０階","town_kana":"マルノウチマルノウチパークビルディング30カイ","prefecture_code":13},"6931":{"zip_code":"1006931","prefecture":"東京都","prefecture_kana":"トウキョウト","city":"千代田区","city_kana":"チヨダク","town":"丸の内丸の内パークビルディング　３１階","town_kana":"マルノウチマルノウチパークビルディング31カイ","prefecture_code":13},"6932":{"zip_code":"1006932","prefecture":"東京都","prefecture_kana":"トウキョウト","city":"千代田区","city_kana":"チヨダク","town":"丸の内丸の内パークビルディング　３２階","town_kana":"マルノウチマルノウチパークビルディング32カイ","prefecture_code":13},"6933":{"zip_code":"1006933","prefecture":"東京都","prefecture_kana":"トウキョウト","city":"千代田区","city_kana":"チヨダク","town":"丸の内丸の内パークビルディング　３３階","town_kana":"マルノウチマルノウチパークビルディング33カイ","prefecture_code":13},"6934":{"zip_code":"1006934","prefecture":"東京都","prefecture_kana":"トウキョウト","city":"千代田区","city_kana":"チヨダク","town":"丸の内丸の内パークビルディング　３４階","town_kana":"マルノウチマルノウチパークビルディング34カイ","prefecture_code":13},"6390":{"zip_code":"1006390","prefecture":"東京都","prefecture_kana":"トウキョウト","city":"千代田区","city_kana":"チヨダク","town":"丸の内丸の内ビルディング","town_kana":"マルノウチマルノウチビルディング","prefecture_code":13},"6301":{"zip_code":"1006301","prefecture":"東京都","prefecture_kana":"トウキョウト","city":"千代田区","city_kana":"チヨダク","town":"丸の内丸の内ビルディング　１階","town_kana":"マルノウチマルノウチビルディング1カイ","prefecture_code":13},"6302":{"zip_code":"1006302","prefecture":"東京都","prefecture_kana":"トウキョウト","city":"千代田区","city_kana":"チヨダク","town":"丸の内丸の内ビルディング　２階","town_kana":"マルノウチマルノウチビルディング2カイ","prefecture_code":13},"6303":{"zip_code":"1006303","prefecture":"東京都","prefecture_kana":"トウキョウト","city":"千代田区","city_kana":"チヨダク","town":"丸の内丸の内ビルディング　３階","town_kana":"マルノウチマルノウチビルディング3カイ","prefecture_code":13},"6304":{"zip_code":"1006304","prefecture":"東京都","prefecture_kana":"トウキョウト","city":"千代田区","city_kana":"チヨダク","town":"丸の内丸の内ビルディング　４階","town_kana":"マルノウチマルノウチビルディング4カイ","prefecture_code":13},"6305":{"zip_code":"1006305","prefecture":"東京都","prefecture_kana":"トウキョウト","city":"千代田区","city_kana":"チヨダク","town":"丸の内丸の内ビルディング　５階","town_kana":"マルノウチマルノウチビルディング5カイ","prefecture_code":13},"6306":{"zip_code":"1006306","prefecture":"東京都","prefecture_kana":"トウキョウト","city":"千代田区","city_kana":"チヨダク","town":"丸の内丸の内ビルディング　６階","town_kana":"マルノウチマルノウチビルディング6カイ","prefecture_code":13},"6307":{"zip_code":"1006307","prefecture":"東京都","prefecture_kana":"トウキョウト","city":"千代田区","city_kana":"チヨダク","town":"丸の内丸の内ビルディング　７階","town_kana":"マルノウチマルノウチビルディング7カイ","prefecture_code":13},"6308":{"zip_code":"1006308","prefecture":"東京都","prefecture_kana":"トウキョウト","city":"千代田区","city_kana":"チヨダク","town":"丸の内丸の内ビルディング　８階","town_kana":"マルノウチマルノウチビルディング8カイ","prefecture_code":13},"6309":{"zip_code":"1006309","prefecture":"東京都","prefecture_kana":"トウキョウト","city":"千代田区","city_kana":"チヨダク","town":"丸の内丸の内ビルディング　９階","town_kana":"マルノウチマルノウチビルディング9カイ","prefecture_code":13},"6310":{"zip_code":"1006310","prefecture":"東京都","prefecture_kana":"トウキョウト","city":"千代田区","city_kana":"チヨダク","town":"丸の内丸の内ビルディング　１０階","town_kana":"マルノウチマルノウチビルディング10カイ","prefecture_code":13},"6311":{"zip_code":"1006311","prefecture":"東京都","prefecture_kana":"トウキョウト","city":"千代田区","city_kana":"チヨダク","town":"丸の内丸の内ビルディング　１１階","town_kana":"マルノウチマルノウチビルディング11カイ","prefecture_code":13},"6312":{"zip_code":"1006312","prefecture":"東京都","prefecture_kana":"トウキョウト","city":"千代田区","city_kana":"チヨダク","town":"丸の内丸の内ビルディング　１２階","town_kana":"マルノウチマルノウチビルディング12カイ","prefecture_code":13},"6313":{"zip_code":"1006313","prefecture":"東京都","prefecture_kana":"トウキョウト","city":"千代田区","city_kana":"チヨダク","town":"丸の内丸の内ビルディング　１３階","town_kana":"マルノウチマルノウチビルディング13カイ","prefecture_code":13},"6314":{"zip_code":"1006314","prefecture":"東京都","prefecture_kana":"トウキョウト","city":"千代田区","city_kana":"チヨダク","town":"丸の内丸の内ビルディング　１４階","town_kana":"マルノウチマルノウチビルディング14カイ","prefecture_code":13},"6315":{"zip_code":"1006315","prefecture":"東京都","prefecture_kana":"トウキョウト","city":"千代田区","city_kana":"チヨダク","town":"丸の内丸の内ビルディング　１５階","town_kana":"マルノウチマルノウチビルディング15カイ","prefecture_code":13},"6316":{"zip_code":"1006316","prefecture":"東京都","prefecture_kana":"トウキョウト","city":"千代田区","city_kana":"チヨダク","town":"丸の内丸の内ビルディング　１６階","town_kana":"マルノウチマルノウチビルディング16カイ","prefecture_code":13},"6317":{"zip_code":"1006317","prefecture":"東京都","prefecture_kana":"トウキョウト","city":"千代田区","city_kana":"チヨダク","town":"丸の内丸の内ビルディング　１７階","town_kana":"マルノウチマルノウチビルディング17カイ","prefecture_code":13},"6318":{"zip_code":"1006318","prefecture":"東京都","prefecture_kana":"トウキョウト","city":"千代田区","city_kana":"チヨダク","town":"丸の内丸の内ビルディング　１８階","town_kana":"マルノウチマルノウチビルディング18カイ","prefecture_code":13},"6319":{"zip_code":"1006319","prefecture":"東京都","prefecture_kana":"トウキョウト","city":"千代田区","city_kana":"チヨダク","town":"丸の内丸の内ビルディング　１９階","town_kana":"マルノウチマルノウチビルディング19カイ","prefecture_code":13},"6320":{"zip_code":"1006320","prefecture":"東京都","prefecture_kana":"トウキョウト","city":"千代田区","city_kana":"チヨダク","town":"丸の内丸の内ビルディング　２０階","town_kana":"マルノウチマルノウチビルディング20カイ","prefecture_code":13},"6321":{"zip_code":"1006321","prefecture":"東京都","prefecture_kana":"トウキョウト","city":"千代田区","city_kana":"チヨダク","town":"丸の内丸の内ビルディング　２１階","town_kana":"マルノウチマルノウチビルディング21カイ","prefecture_code":13},"6322":{"zip_code":"1006322","prefecture":"東京都","prefecture_kana":"トウキョウト","city":"千代田区","city_kana":"チヨダク","town":"丸の内丸の内ビルディング　２２階","town_kana":"マルノウチマルノウチビルディング22カイ","prefecture_code":13},"6323":{"zip_code":"1006323","prefecture":"東京都","prefecture_kana":"トウキョウト","city":"千代田区","city_kana":"チヨダク","town":"丸の内丸の内ビルディング　２３階","town_kana":"マルノウチマルノウチビルディング23カイ","prefecture_code":13},"6324":{"zip_code":"1006324","prefecture":"東京都","prefecture_kana":"トウキョウト","city":"千代田区","city_kana":"チヨダク","town":"丸の内丸の内ビルディング　２４階","town_kana":"マルノウチマルノウチビルディング24カイ","prefecture_code":13},"6325":{"zip_code":"1006325","prefecture":"東京都","prefecture_kana":"トウキョウト","city":"千代田区","city_kana":"チヨダク","town":"丸の内丸の内ビルディング　２５階","town_kana":"マルノウチマルノウチビルディング25カイ","prefecture_code":13},"6326":{"zip_code":"1006326","prefecture":"東京都","prefecture_kana":"トウキョウト","city":"千代田区","city_kana":"チヨダク","town":"丸の内丸の内ビルディング　２６階","town_kana":"マルノウチマルノウチビルディング26カイ","prefecture_code":13},"6327":{"zip_code":"1006327","prefecture":"東京都","prefecture_kana":"トウキョウト","city":"千代田区","city_kana":"チヨダク","town":"丸の内丸の内ビルディング　２７階","town_kana":"マルノウチマルノウチビルディング27カイ","prefecture_code":13},"6328":{"zip_code":"1006328","prefecture":"東京都","prefecture_kana":"トウキョウト","city":"千代田区","city_kana":"チヨダク","town":"丸の内丸の内ビルディング　２８階","town_kana":"マルノウチマルノウチビルディング28カイ","prefecture_code":13},"6329":{"zip_code":"1006329","prefecture":"東京都","prefecture_kana":"トウキョウト","city":"千代田区","city_kana":"チヨダク","town":"丸の内丸の内ビルディング　２９階","town_kana":"マルノウチマルノウチビルディング29カイ","prefecture_code":13},"6330":{"zip_code":"1006330","prefecture":"東京都","prefecture_kana":"トウキョウト","city":"千代田区","city_kana":"チヨダク","town":"丸の内丸の内ビルディング　３０階","town_kana":"マルノウチマルノウチビルディング30カイ","prefecture_code":13},"6331":{"zip_code":"1006331","prefecture":"東京都","prefecture_kana":"トウキョウト","city":"千代田区","city_kana":"チヨダク","town":"丸の内丸の内ビルディング　３１階","town_kana":"マルノウチマルノウチビルディング31カイ","prefecture_code":13},"6332":{"zip_code":"1006332","prefecture":"東京都","prefecture_kana":"トウキョウト","city":"千代田区","city_kana":"チヨダク","town":"丸の内丸の内ビルディング　３２階","town_kana":"マルノウチマルノウチビルディング32カイ","prefecture_code":13},"6333":{"zip_code":"1006333","prefecture":"東京都","prefecture_kana":"トウキョウト","city":"千代田区","city_kana":"チヨダク","town":"丸の内丸の内ビルディング　３３階","town_kana":"マルノウチマルノウチビルディング33カイ","prefecture_code":13},"6334":{"zip_code":"1006334","prefecture":"東京都","prefecture_kana":"トウキョウト","city":"千代田区","city_kana":"チヨダク","town":"丸の内丸の内ビルディング　３４階","town_kana":"マルノウチマルノウチビルディング34カイ","prefecture_code":13},"6335":{"zip_code":"1006335","prefecture":"東京都","prefecture_kana":"トウキョウト","city":"千代田区","city_kana":"チヨダク","town":"丸の内丸の内ビルディング　３５階","town_kana":"マルノウチマルノウチビルディング35カイ","prefecture_code":13},"6336":{"zip_code":"1006336","prefecture":"東京都","prefecture_kana":"トウキョウト","city":"千代田区","city_kana":"チヨダク","town":"丸の内丸の内ビルディング　３６階","town_kana":"マルノウチマルノウチビルディング36カイ","prefecture_code":13},"6337":{"zip_code":"1006337","prefecture":"東京都","prefecture_kana":"トウキョウト","city":"千代田区","city_kana":"チヨダク","town":"丸の内丸の内ビルディング　３７階","town_kana":"マルノウチマルノウチビルディング37カイ","prefecture_code":13},"0006":{"zip_code":"1000006","prefecture":"東京都","prefecture_kana":"トウキョウト","city":"千代田区","city_kana":"チヨダク","town":"有楽町","town_kana":"ユウラクチョウ","prefecture_code":13},"0100":{"zip_code":"1000100","prefecture":"東京都","prefecture_kana":"トウキョウト","city":"大島町","city_kana":"オオシママチ","town":"","town_kana":"","prefecture_code":13},"0102":{"zip_code":"1000102","prefecture":"東京都","prefecture_kana":"トウキョウト","city":"大島町","city_kana":"オオシママチ","town":"岡田","town_kana":"オカタ","prefecture_code":13},"0211":{"zip_code":"1000211","prefecture":"東京都","prefecture_kana":"トウキョウト","city":"大島町","city_kana":"オオシママチ","town":"差木地","town_kana":"サシキジ","prefecture_code":13},"0103":{"zip_code":"1000103","prefecture":"東京都","prefecture_kana":"トウキョウト","city":"大島町","city_kana":"オオシママチ","town":"泉津","town_kana":"センヅ","prefecture_code":13},"0104":{"zip_code":"1000104","prefecture":"東京都","prefecture_kana":"トウキョウト","city":"大島町","city_kana":"オオシママチ","town":"野増","town_kana":"ノマシ","prefecture_code":13},"0212":{"zip_code":"1000212","prefecture":"東京都","prefecture_kana":"トウキョウト","city":"大島町","city_kana":"オオシママチ","town":"波浮港","town_kana":"ハブミナト","prefecture_code":13},"0101":{"zip_code":"1000101","prefecture":"東京都","prefecture_kana":"トウキョウト","city":"大島町","city_kana":"オオシママチ","town":"元町","town_kana":"モトマチ","prefecture_code":13},"0301":{"zip_code":"1000301","prefecture":"東京都","prefecture_kana":"トウキョウト","city":"利島村","city_kana":"トシマムラ","town":"","town_kana":"","prefecture_code":13},"0400":{"zip_code":"1000400","prefecture":"東京都","prefecture_kana":"トウキョウト","city":"新島村","city_kana":"ニイジマムラ","town":"","town_kana":"","prefecture_code":13},"0511":{"zip_code":"1000511","prefecture":"東京都","prefecture_kana":"トウキョウト","city":"新島村","city_kana":"ニイジマムラ","town":"式根島","town_kana":"シキネジマ","prefecture_code":13},"0402":{"zip_code":"1000402","prefecture":"東京都","prefecture_kana":"トウキョウト","city":"新島村","city_kana":"ニイジマムラ","town":"本村","town_kana":"ホンソン","prefecture_code":13},"0401":{"zip_code":"1000401","prefecture":"東京都","prefecture_kana":"トウキョウト","city":"新島村","city_kana":"ニイジマムラ","town":"若郷","town_kana":"ワカゴウ","prefecture_code":13},"0601":{"zip_code":"1000601","prefecture":"東京都","prefecture_kana":"トウキョウト","city":"神津島村","city_kana":"コウヅシマムラ","town":"","town_kana":"","prefecture_code":13},"1100":{"zip_code":"1001100","prefecture":"東京都","prefecture_kana":"トウキョウト","city":"三宅島三宅村","city_kana":"ミヤケジマミヤケムラ","town":"","town_kana":"","prefecture_code":13},"1212":{"zip_code":"1001212","prefecture":"東京都","prefecture_kana":"トウキョウト","city":"三宅島三宅村","city_kana":"ミヤケジマミヤケムラ","town":"阿古","town_kana":"アコ","prefecture_code":13},"1103":{"zip_code":"1001103","prefecture":"東京都","prefecture_kana":"トウキョウト","city":"三宅島三宅村","city_kana":"ミヤケジマミヤケムラ","town":"伊ケ谷","town_kana":"イガヤ","prefecture_code":13},"1102":{"zip_code":"1001102","prefecture":"東京都","prefecture_kana":"トウキョウト","city":"三宅島三宅村","city_kana":"ミヤケジマミヤケムラ","town":"伊豆","town_kana":"イズ","prefecture_code":13},"1213":{"zip_code":"1001213","prefecture":"東京都","prefecture_kana":"トウキョウト","city":"三宅島三宅村","city_kana":"ミヤケジマミヤケムラ","town":"雄山","town_kana":"オヤマ","prefecture_code":13},"1101":{"zip_code":"1001101","prefecture":"東京都","prefecture_kana":"トウキョウト","city":"三宅島三宅村","city_kana":"ミヤケジマミヤケムラ","town":"神着","town_kana":"カミツキ","prefecture_code":13},"1211":{"zip_code":"1001211","prefecture":"東京都","prefecture_kana":"トウキョウト","city":"三宅島三宅村","city_kana":"ミヤケジマミヤケムラ","town":"坪田","town_kana":"ツボタ","prefecture_code":13},"1301":{"zip_code":"1001301","prefecture":"東京都","prefecture_kana":"トウキョウト","city":"御蔵島村","city_kana":"ミクラジマムラ","town":"","town_kana":"","prefecture_code":13},"1400":{"zip_code":"1001400","prefecture":"東京都","prefecture_kana":"トウキョウト","city":"八丈島八丈町","city_kana":"ハチジョウジマハチジョウマチ","town":"","town_kana":"","prefecture_code":13},"1401":{"zip_code":"1001401","prefecture":"東京都","prefecture_kana":"トウキョウト","city":"八丈島八丈町","city_kana":"ハチジョウジマハチジョウマチ","town":"大賀郷","town_kana":"オオカゴウ","prefecture_code":13},"1621":{"zip_code":"1001621","prefecture":"東京都","prefecture_kana":"トウキョウト","city":"八丈島八丈町","city_kana":"ハチジョウジマハチジョウマチ","town":"樫立","town_kana":"カシタテ","prefecture_code":13},"1622":{"zip_code":"1001622","prefecture":"東京都","prefecture_kana":"トウキョウト","city":"八丈島八丈町","city_kana":"ハチジョウジマハチジョウマチ","town":"末吉","town_kana":"スエヨシ","prefecture_code":13},"1623":{"zip_code":"1001623","prefecture":"東京都","prefecture_kana":"トウキョウト","city":"八丈島八丈町","city_kana":"ハチジョウジマハチジョウマチ","town":"中之郷","town_kana":"ナカノゴウ","prefecture_code":13},"1511":{"zip_code":"1001511","prefecture":"東京都","prefecture_kana":"トウキョウト","city":"八丈島八丈町","city_kana":"ハチジョウジマハチジョウマチ","town":"三根","town_kana":"ミツネ","prefecture_code":13},"1701":{"zip_code":"1001701","prefecture":"東京都","prefecture_kana":"トウキョウト","city":"青ヶ島村","city_kana":"アオガシマムラ","town":"","town_kana":"","prefecture_code":13},"2100":{"zip_code":"1002100","prefecture":"東京都","prefecture_kana":"トウキョウト","city":"小笠原村","city_kana":"オガサワラムラ","town":"","town_kana":"","prefecture_code":13},"2101":{"zip_code":"1002101","prefecture":"東京都","prefecture_kana":"トウキョウト","city":"小笠原村","city_kana":"オガサワラムラ","town":"父島","town_kana":"チチジマ","prefecture_code":13},"2211":{"zip_code":"1002211","prefecture":"東京都","prefecture_kana":"トウキョウト","city":"小笠原村","city_kana":"オガサワラムラ","town":"母島","town_kana":"ハハジマ","prefecture_code":13}}