{"0032":{"zip_code":"1010032","prefecture":"東京都","prefecture_kana":"トウキョウト","city":"千代田区","city_kana":"チヨダク","town":"岩本町","town_kana":"イワモトチョウ","prefecture_code":13},"0047":{"zip_code":"1010047","prefecture":"東京都","prefecture_kana":"トウキョウト","city":"千代田区","city_kana":"チヨダク","town":"内神田","town_kana":"ウチカンダ","prefecture_code":13},"0044":{"zip_code":"1010044","prefecture":"東京都","prefecture_kana":"トウキョウト","city":"千代田区","city_kana":"チヨダク","town":"鍛冶町","town_kana":"カジチョウ","prefecture_code":13},"0029":{"zip_code":"1010029","prefecture":"東京都","prefecture_kana":"トウキョウト","city":"千代田区","city_kana":"チヨダク","town":"神田相生町","town_kana":"カンダアイオイチョウ","prefecture_code":13},"0063":{"zip_code":"1010063","prefecture":"東京都","prefecture_kana":"トウキョウト","city":"千代田区","city_kana":"チヨダク","town":"神田淡路町","town_kana":"カンダアワジチョウ","prefecture_code":13},"0024":{"zip_code":"1010024","prefecture":"東京都","prefecture_kana":"トウキョウト","city":"千代田区","city_kana":"チヨダク","town":"神田和泉町","town_kana":"カンダイズミチョウ","prefecture_code":13},"0033":{"zip_code":"1010033","prefecture":"東京都","prefecture_kana":"トウキョウト","city":"千代田区","city_kana":"チヨダク","town":"神田岩本町","town_kana":"カンダイワモトチョウ","prefecture_code":13},"0052":{"zip_code":"1010052","prefecture":"東京都","prefecture_kana":"トウキョウト","city":"千代田区","city_kana":"チヨダク","town":"神田小川町","town_kana":"カンダオガワマチ","prefecture_code":13},"0045":{"zip_code":"1010045","prefecture":"東京都","prefecture_kana":"トウキョウト","city":"千代田区","city_kana":"チヨダク","town":"神田鍛冶町","town_kana":"カンダカジチョウ","prefecture_code":13},"0036":{"zip_code":"1010036","prefecture":"東京都","prefecture_kana":"トウキョウト","city":"千代田区","city_kana":"チヨダク","town":"神田北乗物町","town_kana":"カンダキタノリモノチョウ","prefecture_code":13},"0035":{"zip_code":"1010035","prefecture":"東京都","prefecture_kana":"トウキョウト","city":"千代田区","city_kana":"チヨダク","town":"神田紺屋町","town_kana":"カンダコンヤチョウ","prefecture_code":13},"0026":{"zip_code":"1010026","prefecture":"東京都","prefecture_kana":"トウキョウト","city":"千代田区","city_kana":"チヨダク","town":"神田佐久間河岸","town_kana":"カンダサクマガシ","prefecture_code":13},"0025":{"zip_code":"1010025","prefecture":"東京都","prefecture_kana":"トウキョウト","city":"千代田区","city_kana":"チヨダク","town":"神田佐久間町","town_kana":"カンダサクマチョウ","prefecture_code":13},"0051":{"zip_code":"1010051","prefecture":"東京都","prefecture_kana":"トウキョウト","city":"千代田区","city_kana":"チヨダク","town":"神田神保町","town_kana":"カンダジンボウチョウ","prefecture_code":13},"0041":{"zip_code":"1010041","prefecture":"東京都","prefecture_kana":"トウキョウト","city":"千代田区","city_kana":"チヨダク","town":"神田須田町","town_kana":"カンダスダチョウ","prefecture_code":13},"0062":{"zip_code":"1010062","prefecture":"東京都","prefecture_kana":"トウキョウト","city":"千代田区","city_kana":"チヨダク","town":"神田駿河台","town_kana":"カンダスルガダイ","prefecture_code":13},"0046":{"zip_code":"1010046","prefecture":"東京都","prefecture_kana":"トウキョウト","city":"千代田区","city_kana":"チヨダク","town":"神田多町","town_kana":"カンダタチョウ","prefecture_code":13},"0048":{"zip_code":"1010048","prefecture":"東京都","prefecture_kana":"トウキョウト","city":"千代田区","city_kana":"チヨダク","town":"神田司町","town_kana":"カンダツカサマチ","prefecture_code":13},"0043":{"zip_code":"1010043","prefecture":"東京都","prefecture_kana":"トウキョウト","city":"千代田区","city_kana":"チヨダク","town":"神田富山町","town_kana":"カンダトミヤマチョウ","prefecture_code":13},"0054":{"zip_code":"1010054","prefecture":"東京都","prefecture_kana":"トウキョウト","city":"千代田区","city_kana":"チヨダク","town":"神田錦町","town_kana":"カンダニシキチョウ","prefecture_code":13},"0037":{"zip_code":"1010037","prefecture":"東京都","prefecture_kana":"トウキョウト","city":"千代田区","city_kana":"チヨダク","town":"神田西福田町","town_kana":"カンダニシフクダチョウ","prefecture_code":13},"0022":{"zip_code":"1010022","prefecture":"東京都","prefecture_kana":"トウキョウト","city":"千代田区","city_kana":"チヨダク","town":"神田練塀町","town_kana":"カンダネリベイチョウ","prefecture_code":13},"0028":{"zip_code":"1010028","prefecture":"東京都","prefecture_kana":"トウキョウト","city":"千代田区","city_kana":"チヨダク","town":"神田花岡町","town_kana":"カンダハナオカチョウ","prefecture_code":13},"0034":{"zip_code":"1010034","prefecture":"東京都","prefecture_kana":"トウキョウト","city":"千代田区","city_kana":"チヨダク","town":"神田東紺屋町","town_kana":"カンダヒガシコンヤチョウ","prefecture_code":13},"0042":{"zip_code":"1010042","prefecture":"東京都","prefecture_kana":"トウキョウト","city":"千代田区","city_kana":"チヨダク","town":"神田東松下町","town_kana":"カンダヒガシマツシタチョウ","prefecture_code":13},"0027":{"zip_code":"1010027","prefecture":"東京都","prefecture_kana":"トウキョウト","city":"千代田区","city_kana":"チヨダク","town":"神田平河町","town_kana":"カンダヒラカワチョウ","prefecture_code":13},"0023":{"zip_code":"1010023","prefecture":"東京都","prefecture_kana":"トウキョウト","city":"千代田区","city_kana":"チヨダク","town":"神田松永町","town_kana":"カンダマツナガチョウ","prefecture_code":13},"0038":{"zip_code":"1010038","prefecture":"東京都","prefecture_kana":"トウキョウト","city":"千代田区","city_kana":"チヨダク","town":"神田美倉町","town_kana":"カンダミクラチョウ","prefecture_code":13},"0053":{"zip_code":"1010053","prefecture":"東京都","prefecture_kana":"トウキョウト","city":"千代田区","city_kana":"チヨダク","town":"神田美土代町","town_kana":"カンダミトシロチョウ","prefecture_code":13},"0064":{"zip_code":"1010064","prefecture":"東京都","prefecture_kana":"トウキョウト","city":"千代田区","city_kana":"チヨダク","town":"猿楽町","town_kana":"サルガクチョウ","prefecture_code":13},"0021":{"zip_code":"1010021","prefecture":"東京都","prefecture_kana":"トウキョウト","city":"千代田区","city_kana":"チヨダク","town":"外神田","town_kana":"ソトカンダ","prefecture_code":13},"0065":{"zip_code":"1010065","prefecture":"東京都","prefecture_kana":"トウキョウト","city":"千代田区","city_kana":"チヨダク","town":"西神田","town_kana":"ニシカンダ","prefecture_code":13},"0031":{"zip_code":"1010031","prefecture":"東京都","prefecture_kana":"トウキョウト","city":"千代田区","city_kana":"チヨダク","town":"東神田","town_kana":"ヒガシカンダ","prefecture_code":13},"0003":{"zip_code":"1010003","prefecture":"東京都","prefecture_kana":"トウキョウト","city":"千代田区","city_kana":"チヨダク","town":"一ツ橋","town_kana":"ヒトツバシ","prefecture_code":13},"0061":{"zip_code":"1010061","prefecture":"東京都","prefecture_kana":"トウキョウト","city":"千代田区","city_kana":"チヨダク","town":"三崎町","town_kana":"ミサキチョウ","prefecture_code":13}}