{"0000":{"zip_code":"1050000","prefecture":"東京都","prefecture_kana":"トウキョウト","city":"港区","city_kana":"ミナトク","town":"以下に掲載がない場合","town_kana":"イカニケイサイガナイバアイ","prefecture_code":13},"0002":{"zip_code":"1050002","prefecture":"東京都","prefecture_kana":"トウキョウト","city":"港区","city_kana":"ミナトク","town":"愛宕（次のビルを除く）","town_kana":"アタゴ(ツギノビルヲノゾク)","prefecture_code":13},"6290":{"zip_code":"1056290","prefecture":"東京都","prefecture_kana":"トウキョウト","city":"港区","city_kana":"ミナトク","town":"愛宕愛宕グリーンヒルズＭＯＲＩタワー（地階・階層不明）","town_kana":"アタゴアタゴグリーンヒルズモリタワー(チカイ・カイソウフメイ)","prefecture_code":13},"6201":{"zip_code":"1056201","prefecture":"東京都","prefecture_kana":"トウキョウト","city":"港区","city_kana":"ミナトク","town":"愛宕愛宕グリーンヒルズＭＯＲＩタワー（１階）","town_kana":"アタゴアタゴグリーンヒルズモリタワー(1カイ)","prefecture_code":13},"6202":{"zip_code":"1056202","prefecture":"東京都","prefecture_kana":"トウキョウト","city":"港区","city_kana":"ミナトク","town":"愛宕愛宕グリーンヒルズＭＯＲＩタワー（２階）","town_kana":"アタゴアタゴグリーンヒルズモリタワー(2カイ)","prefecture_code":13},"6203":{"zip_code":"1056203","prefecture":"東京都","prefecture_kana":"トウキョウト","city":"港区","city_kana":"ミナトク","town":"愛宕愛宕グリーンヒルズＭＯＲＩタワー（３階）","town_kana":"アタゴアタゴグリーンヒルズモリタワー(3カイ)","prefecture_code":13},"6204":{"zip_code":"1056204","prefecture":"東京都","prefecture_kana":"トウキョウト","city":"港区","city_kana":"ミナトク","town":"愛宕愛宕グリーンヒルズＭＯＲＩタワー（４階）","town_kana":"アタゴアタゴグリーンヒルズモリタワー(4カイ)","prefecture_code":13},"6205":{"zip_code":"1056205","prefecture":"東京都","prefecture_kana":"トウキョウト","city":"港区","city_kana":"ミナトク","town":"愛宕愛宕グリーンヒルズＭＯＲＩタワー（５階）","town_kana":"アタゴアタゴグリーンヒルズモリタワー(5カイ)","prefecture_code":13},"6206":{"zip_code":"1056206","prefecture":"東京都","prefecture_kana":"トウキョウト","city":"港区","city_kana":"ミナトク","town":"愛宕愛宕グリーンヒルズＭＯＲＩタワー（６階）","town_kana":"アタゴアタゴグリーンヒルズモリタワー(6カイ)","prefecture_code":13},"6207":{"zip_code":"1056207","prefecture":"東京都","prefecture_kana":"トウキョウト","city":"港区","city_kana":"ミナトク","town":"愛宕愛宕グリーンヒルズＭＯＲＩタワー（７階）","town_kana":"アタゴアタゴグリーンヒルズモリタワー(7カイ)","prefecture_code":13},"6208":{"zip_code":"1056208","prefecture":"東京都","prefecture_kana":"トウキョウト","city":"港区","city_kana":"ミナトク","town":"愛宕愛宕グリーンヒルズＭＯＲＩタワー（８階）","town_kana":"アタゴアタゴグリーンヒルズモリタワー(8カイ)","prefecture_code":13},"6209":{"zip_code":"1056209","prefecture":"東京都","prefecture_kana":"トウキョウト","city":"港区","city_kana":"ミナトク","town":"愛宕愛宕グリーンヒルズＭＯＲＩタワー（９階）","town_kana":"アタゴアタゴグリーンヒルズモリタワー(9カイ)","prefecture_code":13},"6210":{"zip_code":"1056210","prefecture":"東京都","prefecture_kana":"トウキョウト","city":"港区","city_kana":"ミナトク","town":"愛宕愛宕グリーンヒルズＭＯＲＩタワー（１０階）","town_kana":"アタゴアタゴグリーンヒルズモリタワー(10カイ)","prefecture_code":13},"6211":{"zip_code":"1056211","prefecture":"東京都","prefecture_kana":"トウキョウト","city":"港区","city_kana":"ミナトク","town":"愛宕愛宕グリーンヒルズＭＯＲＩタワー（１１階）","town_kana":"アタゴアタゴグリーンヒルズモリタワー(11カイ)","prefecture_code":13},"6212":{"zip_code":"1056212","prefecture":"東京都","prefecture_kana":"トウキョウト","city":"港区","city_kana":"ミナトク","town":"愛宕愛宕グリーンヒルズＭＯＲＩタワー（１２階）","town_kana":"アタゴアタゴグリーンヒルズモリタワー(12カイ)","prefecture_code":13},"6213":{"zip_code":"1056213","prefecture":"東京都","prefecture_kana":"トウキョウト","city":"港区","city_kana":"ミナトク","town":"愛宕愛宕グリーンヒルズＭＯＲＩタワー（１３階）","town_kana":"アタゴアタゴグリーンヒルズモリタワー(13カイ)","prefecture_code":13},"6214":{"zip_code":"1056214","prefecture":"東京都","prefecture_kana":"トウキョウト","city":"港区","city_kana":"ミナトク","town":"愛宕愛宕グリーンヒルズＭＯＲＩタワー（１４階）","town_kana":"アタゴアタゴグリーンヒルズモリタワー(14カイ)","prefecture_code":13},"6215":{"zip_code":"1056215","prefecture":"東京都","prefecture_kana":"トウキョウト","city":"港区","city_kana":"ミナトク","town":"愛宕愛宕グリーンヒルズＭＯＲＩタワー（１５階）","town_kana":"アタゴアタゴグリーンヒルズモリタワー(15カイ)","prefecture_code":13},"6216":{"zip_code":"1056216","prefecture":"東京都","prefecture_kana":"トウキョウト","city":"港区","city_kana":"ミナトク","town":"愛宕愛宕グリーンヒルズＭＯＲＩタワー（１６階）","town_kana":"アタゴアタゴグリーンヒルズモリタワー(16カイ)","prefecture_code":13},"6217":{"zip_code":"1056217","prefecture":"東京都","prefecture_kana":"トウキョウト","city":"港区","city_kana":"ミナトク","town":"愛宕愛宕グリーンヒルズＭＯＲＩタワー（１７階）","town_kana":"アタゴアタゴグリーンヒルズモリタワー(17カイ)","prefecture_code":13},"6218":{"zip_code":"1056218","prefecture":"東京都","prefecture_kana":"トウキョウト","city":"港区","city_kana":"ミナトク","town":"愛宕愛宕グリーンヒルズＭＯＲＩタワー（１８階）","town_kana":"アタゴアタゴグリーンヒルズモリタワー(18カイ)","prefecture_code":13},"6219":{"zip_code":"1056219","prefecture":"東京都","prefecture_kana":"トウキョウト","city":"港区","city_kana":"ミナトク","town":"愛宕愛宕グリーンヒルズＭＯＲＩタワー（１９階）","town_kana":"アタゴアタゴグリーンヒルズモリタワー(19カイ)","prefecture_code":13},"6220":{"zip_code":"1056220","prefecture":"東京都","prefecture_kana":"トウキョウト","city":"港区","city_kana":"ミナトク","town":"愛宕愛宕グリーンヒルズＭＯＲＩタワー（２０階）","town_kana":"アタゴアタゴグリーンヒルズモリタワー(20カイ)","prefecture_code":13},"6221":{"zip_code":"1056221","prefecture":"東京都","prefecture_kana":"トウキョウト","city":"港区","city_kana":"ミナトク","town":"愛宕愛宕グリーンヒルズＭＯＲＩタワー（２１階）","town_kana":"アタゴアタゴグリーンヒルズモリタワー(21カイ)","prefecture_code":13},"6222":{"zip_code":"1056222","prefecture":"東京都","prefecture_kana":"トウキョウト","city":"港区","city_kana":"ミナトク","town":"愛宕愛宕グリーンヒルズＭＯＲＩタワー（２２階）","town_kana":"アタゴアタゴグリーンヒルズモリタワー(22カイ)","prefecture_code":13},"6223":{"zip_code":"1056223","prefecture":"東京都","prefecture_kana":"トウキョウト","city":"港区","city_kana":"ミナトク","town":"愛宕愛宕グリーンヒルズＭＯＲＩタワー（２３階）","town_kana":"アタゴアタゴグリーンヒルズモリタワー(23カイ)","prefecture_code":13},"6224":{"zip_code":"1056224","prefecture":"東京都","prefecture_kana":"トウキョウト","city":"港区","city_kana":"ミナトク","town":"愛宕愛宕グリーンヒルズＭＯＲＩタワー（２４階）","town_kana":"アタゴアタゴグリーンヒルズモリタワー(24カイ)","prefecture_code":13},"6225":{"zip_code":"1056225","prefecture":"東京都","prefecture_kana":"トウキョウト","city":"港区","city_kana":"ミナトク","town":"愛宕愛宕グリーンヒルズＭＯＲＩタワー（２５階）","town_kana":"アタゴアタゴグリーンヒルズモリタワー(25カイ)","prefecture_code":13},"6226":{"zip_code":"1056226","prefecture":"東京都","prefecture_kana":"トウキョウト","city":"港区","city_kana":"ミナトク","town":"愛宕愛宕グリーンヒルズＭＯＲＩタワー（２６階）","town_kana":"アタゴアタゴグリーンヒルズモリタワー(26カイ)","prefecture_code":13},"6227":{"zip_code":"1056227","prefecture":"東京都","prefecture_kana":"トウキョウト","city":"港区","city_kana":"ミナトク","town":"愛宕愛宕グリーンヒルズＭＯＲＩタワー（２７階）","town_kana":"アタゴアタゴグリーンヒルズモリタワー(27カイ)","prefecture_code":13},"6228":{"zip_code":"1056228","prefecture":"東京都","prefecture_kana":"トウキョウト","city":"港区","city_kana":"ミナトク","town":"愛宕愛宕グリーンヒルズＭＯＲＩタワー（２８階）","town_kana":"アタゴアタゴグリーンヒルズモリタワー(28カイ)","prefecture_code":13},"6229":{"zip_code":"1056229","prefecture":"東京都","prefecture_kana":"トウキョウト","city":"港区","city_kana":"ミナトク","town":"愛宕愛宕グリーンヒルズＭＯＲＩタワー（２９階）","town_kana":"アタゴアタゴグリーンヒルズモリタワー(29カイ)","prefecture_code":13},"6230":{"zip_code":"1056230","prefecture":"東京都","prefecture_kana":"トウキョウト","city":"港区","city_kana":"ミナトク","town":"愛宕愛宕グリーンヒルズＭＯＲＩタワー（３０階）","town_kana":"アタゴアタゴグリーンヒルズモリタワー(30カイ)","prefecture_code":13},"6231":{"zip_code":"1056231","prefecture":"東京都","prefecture_kana":"トウキョウト","city":"港区","city_kana":"ミナトク","town":"愛宕愛宕グリーンヒルズＭＯＲＩタワー（３１階）","town_kana":"アタゴアタゴグリーンヒルズモリタワー(31カイ)","prefecture_code":13},"6232":{"zip_code":"1056232","prefecture":"東京都","prefecture_kana":"トウキョウト","city":"港区","city_kana":"ミナトク","town":"愛宕愛宕グリーンヒルズＭＯＲＩタワー（３２階）","town_kana":"アタゴアタゴグリーンヒルズモリタワー(32カイ)","prefecture_code":13},"6233":{"zip_code":"1056233","prefecture":"東京都","prefecture_kana":"トウキョウト","city":"港区","city_kana":"ミナトク","town":"愛宕愛宕グリーンヒルズＭＯＲＩタワー（３３階）","town_kana":"アタゴアタゴグリーンヒルズモリタワー(33カイ)","prefecture_code":13},"6234":{"zip_code":"1056234","prefecture":"東京都","prefecture_kana":"トウキョウト","city":"港区","city_kana":"ミナトク","town":"愛宕愛宕グリーンヒルズＭＯＲＩタワー（３４階）","town_kana":"アタゴアタゴグリーンヒルズモリタワー(34カイ)","prefecture_code":13},"6235":{"zip_code":"1056235","prefecture":"東京都","prefecture_kana":"トウキョウト","city":"港区","city_kana":"ミナトク","town":"愛宕愛宕グリーンヒルズＭＯＲＩタワー（３５階）","town_kana":"アタゴアタゴグリーンヒルズモリタワー(35カイ)","prefecture_code":13},"6236":{"zip_code":"1056236","prefecture":"東京都","prefecture_kana":"トウキョウト","city":"港区","city_kana":"ミナトク","town":"愛宕愛宕グリーンヒルズＭＯＲＩタワー（３６階）","town_kana":"アタゴアタゴグリーンヒルズモリタワー(36カイ)","prefecture_code":13},"6237":{"zip_code":"1056237","prefecture":"東京都","prefecture_kana":"トウキョウト","city":"港区","city_kana":"ミナトク","town":"愛宕愛宕グリーンヒルズＭＯＲＩタワー（３７階）","town_kana":"アタゴアタゴグリーンヒルズモリタワー(37カイ)","prefecture_code":13},"6238":{"zip_code":"1056238","prefecture":"東京都","prefecture_kana":"トウキョウト","city":"港区","city_kana":"ミナトク","town":"愛宕愛宕グリーンヒルズＭＯＲＩタワー（３８階）","town_kana":"アタゴアタゴグリーンヒルズモリタワー(38カイ)","prefecture_code":13},"6239":{"zip_code":"1056239","prefecture":"東京都","prefecture_kana":"トウキョウト","city":"港区","city_kana":"ミナトク","town":"愛宕愛宕グリーンヒルズＭＯＲＩタワー（３９階）","town_kana":"アタゴアタゴグリーンヒルズモリタワー(39カイ)","prefecture_code":13},"6240":{"zip_code":"1056240","prefecture":"東京都","prefecture_kana":"トウキョウト","city":"港区","city_kana":"ミナトク","town":"愛宕愛宕グリーンヒルズＭＯＲＩタワー（４０階）","town_kana":"アタゴアタゴグリーンヒルズモリタワー(40カイ)","prefecture_code":13},"6241":{"zip_code":"1056241","prefecture":"東京都","prefecture_kana":"トウキョウト","city":"港区","city_kana":"ミナトク","town":"愛宕愛宕グリーンヒルズＭＯＲＩタワー（４１階）","town_kana":"アタゴアタゴグリーンヒルズモリタワー(41カイ)","prefecture_code":13},"6242":{"zip_code":"1056242","prefecture":"東京都","prefecture_kana":"トウキョウト","city":"港区","city_kana":"ミナトク","town":"愛宕愛宕グリーンヒルズＭＯＲＩタワー（４２階）","town_kana":"アタゴアタゴグリーンヒルズモリタワー(42カイ)","prefecture_code":13},"0022":{"zip_code":"1050022","prefecture":"東京都","prefecture_kana":"トウキョウト","city":"港区","city_kana":"ミナトク","town":"海岸（１、２丁目）","town_kana":"カイガン(1、2チョウメ)","prefecture_code":13},"0014":{"zip_code":"1050014","prefecture":"東京都","prefecture_kana":"トウキョウト","city":"港区","city_kana":"ミナトク","town":"芝（１〜３丁目）","town_kana":"シバ(1-3チョウメ)","prefecture_code":13},"0023":{"zip_code":"1050023","prefecture":"東京都","prefecture_kana":"トウキョウト","city":"港区","city_kana":"ミナトク","town":"芝浦（１丁目）","town_kana":"シバウラ(1チョウメ)","prefecture_code":13},"0011":{"zip_code":"1050011","prefecture":"東京都","prefecture_kana":"トウキョウト","city":"港区","city_kana":"ミナトク","town":"芝公園","town_kana":"シバコウエン","prefecture_code":13},"0012":{"zip_code":"1050012","prefecture":"東京都","prefecture_kana":"トウキョウト","city":"港区","city_kana":"ミナトク","town":"芝大門","town_kana":"シバダイモン","prefecture_code":13},"0004":{"zip_code":"1050004","prefecture":"東京都","prefecture_kana":"トウキョウト","city":"港区","city_kana":"ミナトク","town":"新橋","town_kana":"シンバシ","prefecture_code":13},"0001":{"zip_code":"1050001","prefecture":"東京都","prefecture_kana":"トウキョウト","city":"港区","city_kana":"ミナトク","town":"虎ノ門（次のビルを除く）","town_kana":"トラノモン(ツギノビルヲノゾク)","prefecture_code":13},"6090":{"zip_code":"1056090","prefecture":"東京都","prefecture_kana":"トウキョウト","city":"港区","city_kana":"ミナトク","town":"虎ノ門城山トラストタワー（地階・階層不明）","town_kana":"トラノモンシロヤマトラストタワー(チカイ・カイソウフメイ)","prefecture_code":13},"6001":{"zip_code":"1056001","prefecture":"東京都","prefecture_kana":"トウキョウト","city":"港区","city_kana":"ミナトク","town":"虎ノ門城山トラストタワー（１階）","town_kana":"トラノモンシロヤマトラストタワー(1カイ)","prefecture_code":13},"6002":{"zip_code":"1056002","prefecture":"東京都","prefecture_kana":"トウキョウト","city":"港区","city_kana":"ミナトク","town":"虎ノ門城山トラストタワー（２階）","town_kana":"トラノモンシロヤマトラストタワー(2カイ)","prefecture_code":13},"6003":{"zip_code":"1056003","prefecture":"東京都","prefecture_kana":"トウキョウト","city":"港区","city_kana":"ミナトク","town":"虎ノ門城山トラストタワー（３階）","town_kana":"トラノモンシロヤマトラストタワー(3カイ)","prefecture_code":13},"6004":{"zip_code":"1056004","prefecture":"東京都","prefecture_kana":"トウキョウト","city":"港区","city_kana":"ミナトク","town":"虎ノ門城山トラストタワー（４階）","town_kana":"トラノモンシロヤマトラストタワー(4カイ)","prefecture_code":13},"6005":{"zip_code":"1056005","prefecture":"東京都","prefecture_kana":"トウキョウト","city":"港区","city_kana":"ミナトク","town":"虎ノ門城山トラストタワー（５階）","town_kana":"トラノモンシロヤマトラストタワー(5カイ)","prefecture_code":13},"6006":{"zip_code":"1056006","prefecture":"東京都","prefecture_kana":"トウキョウト","city":"港区","city_kana":"ミナトク","town":"虎ノ門城山トラストタワー（６階）","town_kana":"トラノモンシロヤマトラストタワー(6カイ)","prefecture_code":13},"6007":{"zip_code":"1056007","prefecture":"東京都","prefecture_kana":"トウキョウト","city":"港区","city_kana":"ミナトク","town":"虎ノ門城山トラストタワー（７階）","town_kana":"トラノモンシロヤマトラストタワー(7カイ)","prefecture_code":13},"6008":{"zip_code":"1056008","prefecture":"東京都","prefecture_kana":"トウキョウト","city":"港区","city_kana":"ミナトク","town":"虎ノ門城山トラストタワー（８階）","town_kana":"トラノモンシロヤマトラストタワー(8カイ)","prefecture_code":13},"6009":{"zip_code":"1056009","prefecture":"東京都","prefecture_kana":"トウキョウト","city":"港区","city_kana":"ミナトク","town":"虎ノ門城山トラストタワー（９階）","town_kana":"トラノモンシロヤマトラストタワー(9カイ)","prefecture_code":13},"6010":{"zip_code":"1056010","prefecture":"東京都","prefecture_kana":"トウキョウト","city":"港区","city_kana":"ミナトク","town":"虎ノ門城山トラストタワー（１０階）","town_kana":"トラノモンシロヤマトラストタワー(10カイ)","prefecture_code":13},"6011":{"zip_code":"1056011","prefecture":"東京都","prefecture_kana":"トウキョウト","city":"港区","city_kana":"ミナトク","town":"虎ノ門城山トラストタワー（１１階）","town_kana":"トラノモンシロヤマトラストタワー(11カイ)","prefecture_code":13},"6012":{"zip_code":"1056012","prefecture":"東京都","prefecture_kana":"トウキョウト","city":"港区","city_kana":"ミナトク","town":"虎ノ門城山トラストタワー（１２階）","town_kana":"トラノモンシロヤマトラストタワー(12カイ)","prefecture_code":13},"6013":{"zip_code":"1056013","prefecture":"東京都","prefecture_kana":"トウキョウト","city":"港区","city_kana":"ミナトク","town":"虎ノ門城山トラストタワー（１３階）","town_kana":"トラノモンシロヤマトラストタワー(13カイ)","prefecture_code":13},"6014":{"zip_code":"1056014","prefecture":"東京都","prefecture_kana":"トウキョウト","city":"港区","city_kana":"ミナトク","town":"虎ノ門城山トラストタワー（１４階）","town_kana":"トラノモンシロヤマトラストタワー(14カイ)","prefecture_code":13},"6015":{"zip_code":"1056015","prefecture":"東京都","prefecture_kana":"トウキョウト","city":"港区","city_kana":"ミナトク","town":"虎ノ門城山トラストタワー（１５階）","town_kana":"トラノモンシロヤマトラストタワー(15カイ)","prefecture_code":13},"6016":{"zip_code":"1056016","prefecture":"東京都","prefecture_kana":"トウキョウト","city":"港区","city_kana":"ミナトク","town":"虎ノ門城山トラストタワー（１６階）","town_kana":"トラノモンシロヤマトラストタワー(16カイ)","prefecture_code":13},"6017":{"zip_code":"1056017","prefecture":"東京都","prefecture_kana":"トウキョウト","city":"港区","city_kana":"ミナトク","town":"虎ノ門城山トラストタワー（１７階）","town_kana":"トラノモンシロヤマトラストタワー(17カイ)","prefecture_code":13},"6018":{"zip_code":"1056018","prefecture":"東京都","prefecture_kana":"トウキョウト","city":"港区","city_kana":"ミナトク","town":"虎ノ門城山トラストタワー（１８階）","town_kana":"トラノモンシロヤマトラストタワー(18カイ)","prefecture_code":13},"6019":{"zip_code":"1056019","prefecture":"東京都","prefecture_kana":"トウキョウト","city":"港区","city_kana":"ミナトク","town":"虎ノ門城山トラストタワー（１９階）","town_kana":"トラノモンシロヤマトラストタワー(19カイ)","prefecture_code":13},"6020":{"zip_code":"1056020","prefecture":"東京都","prefecture_kana":"トウキョウト","city":"港区","city_kana":"ミナトク","town":"虎ノ門城山トラストタワー（２０階）","town_kana":"トラノモンシロヤマトラストタワー(20カイ)","prefecture_code":13},"6021":{"zip_code":"1056021","prefecture":"東京都","prefecture_kana":"トウキョウト","city":"港区","city_kana":"ミナトク","town":"虎ノ門城山トラストタワー（２１階）","town_kana":"トラノモンシロヤマトラストタワー(21カイ)","prefecture_code":13},"6022":{"zip_code":"1056022","prefecture":"東京都","prefecture_kana":"トウキョウト","city":"港区","city_kana":"ミナトク","town":"虎ノ門城山トラストタワー（２２階）","town_kana":"トラノモンシロヤマトラストタワー(22カイ)","prefecture_code":13},"6023":{"zip_code":"1056023","prefecture":"東京都","prefecture_kana":"トウキョウト","city":"港区","city_kana":"ミナトク","town":"虎ノ門城山トラストタワー（２３階）","town_kana":"トラノモンシロヤマトラストタワー(23カイ)","prefecture_code":13},"6024":{"zip_code":"1056024","prefecture":"東京都","prefecture_kana":"トウキョウト","city":"港区","city_kana":"ミナトク","town":"虎ノ門城山トラストタワー（２４階）","town_kana":"トラノモンシロヤマトラストタワー(24カイ)","prefecture_code":13},"6025":{"zip_code":"1056025","prefecture":"東京都","prefecture_kana":"トウキョウト","city":"港区","city_kana":"ミナトク","town":"虎ノ門城山トラストタワー（２５階）","town_kana":"トラノモンシロヤマトラストタワー(25カイ)","prefecture_code":13},"6026":{"zip_code":"1056026","prefecture":"東京都","prefecture_kana":"トウキョウト","city":"港区","city_kana":"ミナトク","town":"虎ノ門城山トラストタワー（２６階）","town_kana":"トラノモンシロヤマトラストタワー(26カイ)","prefecture_code":13},"6027":{"zip_code":"1056027","prefecture":"東京都","prefecture_kana":"トウキョウト","city":"港区","city_kana":"ミナトク","town":"虎ノ門城山トラストタワー（２７階）","town_kana":"トラノモンシロヤマトラストタワー(27カイ)","prefecture_code":13},"6028":{"zip_code":"1056028","prefecture":"東京都","prefecture_kana":"トウキョウト","city":"港区","city_kana":"ミナトク","town":"虎ノ門城山トラストタワー（２８階）","town_kana":"トラノモンシロヤマトラストタワー(28カイ)","prefecture_code":13},"6029":{"zip_code":"1056029","prefecture":"東京都","prefecture_kana":"トウキョウト","city":"港区","city_kana":"ミナトク","town":"虎ノ門城山トラストタワー（２９階）","town_kana":"トラノモンシロヤマトラストタワー(29カイ)","prefecture_code":13},"6030":{"zip_code":"1056030","prefecture":"東京都","prefecture_kana":"トウキョウト","city":"港区","city_kana":"ミナトク","town":"虎ノ門城山トラストタワー（３０階）","town_kana":"トラノモンシロヤマトラストタワー(30カイ)","prefecture_code":13},"6031":{"zip_code":"1056031","prefecture":"東京都","prefecture_kana":"トウキョウト","city":"港区","city_kana":"ミナトク","town":"虎ノ門城山トラストタワー（３１階）","town_kana":"トラノモンシロヤマトラストタワー(31カイ)","prefecture_code":13},"6032":{"zip_code":"1056032","prefecture":"東京都","prefecture_kana":"トウキョウト","city":"港区","city_kana":"ミナトク","town":"虎ノ門城山トラストタワー（３２階）","town_kana":"トラノモンシロヤマトラストタワー(32カイ)","prefecture_code":13},"6033":{"zip_code":"1056033","prefecture":"東京都","prefecture_kana":"トウキョウト","city":"港区","city_kana":"ミナトク","town":"虎ノ門城山トラストタワー（３３階）","town_kana":"トラノモンシロヤマトラストタワー(33カイ)","prefecture_code":13},"6034":{"zip_code":"1056034","prefecture":"東京都","prefecture_kana":"トウキョウト","city":"港区","city_kana":"ミナトク","town":"虎ノ門城山トラストタワー（３４階）","town_kana":"トラノモンシロヤマトラストタワー(34カイ)","prefecture_code":13},"6035":{"zip_code":"1056035","prefecture":"東京都","prefecture_kana":"トウキョウト","city":"港区","city_kana":"ミナトク","town":"虎ノ門城山トラストタワー（３５階）","town_kana":"トラノモンシロヤマトラストタワー(35カイ)","prefecture_code":13},"6036":{"zip_code":"1056036","prefecture":"東京都","prefecture_kana":"トウキョウト","city":"港区","city_kana":"ミナトク","town":"虎ノ門城山トラストタワー（３６階）","town_kana":"トラノモンシロヤマトラストタワー(36カイ)","prefecture_code":13},"6037":{"zip_code":"1056037","prefecture":"東京都","prefecture_kana":"トウキョウト","city":"港区","city_kana":"ミナトク","town":"虎ノ門城山トラストタワー（３７階）","town_kana":"トラノモンシロヤマトラストタワー(37カイ)","prefecture_code":13},"6390":{"zip_code":"1056390","prefecture":"東京都","prefecture_kana":"トウキョウト","city":"港区","city_kana":"ミナトク","town":"虎ノ門虎ノ門ヒルズ森タワー（地階・階層不明）","town_kana":"トラノモントラノモンヒルズモリタワー(チカイ・カイソウフメイ)","prefecture_code":13},"6301":{"zip_code":"1056301","prefecture":"東京都","prefecture_kana":"トウキョウト","city":"港区","city_kana":"ミナトク","town":"虎ノ門虎ノ門ヒルズ森タワー（１階）","town_kana":"トラノモントラノモンヒルズモリタワー(1カイ)","prefecture_code":13},"6302":{"zip_code":"1056302","prefecture":"東京都","prefecture_kana":"トウキョウト","city":"港区","city_kana":"ミナトク","town":"虎ノ門虎ノ門ヒルズ森タワー（２階）","town_kana":"トラノモントラノモンヒルズモリタワー(2カイ)","prefecture_code":13},"6303":{"zip_code":"1056303","prefecture":"東京都","prefecture_kana":"トウキョウト","city":"港区","city_kana":"ミナトク","town":"虎ノ門虎ノ門ヒルズ森タワー（３階）","town_kana":"トラノモントラノモンヒルズモリタワー(3カイ)","prefecture_code":13},"6304":{"zip_code":"1056304","prefecture":"東京都","prefecture_kana":"トウキョウト","city":"港区","city_kana":"ミナトク","town":"虎ノ門虎ノ門ヒルズ森タワー（４階）","town_kana":"トラノモントラノモンヒルズモリタワー(4カイ)","prefecture_code":13},"6305":{"zip_code":"1056305","prefecture":"東京都","prefecture_kana":"トウキョウト","city":"港区","city_kana":"ミナトク","town":"虎ノ門虎ノ門ヒルズ森タワー（５階）","town_kana":"トラノモントラノモンヒルズモリタワー(5カイ)","prefecture_code":13},"6306":{"zip_code":"1056306","prefecture":"東京都","prefecture_kana":"トウキョウト","city":"港区","city_kana":"ミナトク","town":"虎ノ門虎ノ門ヒルズ森タワー（６階）","town_kana":"トラノモントラノモンヒルズモリタワー(6カイ)","prefecture_code":13},"6307":{"zip_code":"1056307","prefecture":"東京都","prefecture_kana":"トウキョウト","city":"港区","city_kana":"ミナトク","town":"虎ノ門虎ノ門ヒルズ森タワー（７階）","town_kana":"トラノモントラノモンヒルズモリタワー(7カイ)","prefecture_code":13},"6308":{"zip_code":"1056308","prefecture":"東京都","prefecture_kana":"トウキョウト","city":"港区","city_kana":"ミナトク","town":"虎ノ門虎ノ門ヒルズ森タワー（８階）","town_kana":"トラノモントラノモンヒルズモリタワー(8カイ)","prefecture_code":13},"6309":{"zip_code":"1056309","prefecture":"東京都","prefecture_kana":"トウキョウト","city":"港区","city_kana":"ミナトク","town":"虎ノ門虎ノ門ヒルズ森タワー（９階）","town_kana":"トラノモントラノモンヒルズモリタワー(9カイ)","prefecture_code":13},"6310":{"zip_code":"1056310","prefecture":"東京都","prefecture_kana":"トウキョウト","city":"港区","city_kana":"ミナトク","town":"虎ノ門虎ノ門ヒルズ森タワー（１０階）","town_kana":"トラノモントラノモンヒルズモリタワー(10カイ)","prefecture_code":13},"6311":{"zip_code":"1056311","prefecture":"東京都","prefecture_kana":"トウキョウト","city":"港区","city_kana":"ミナトク","town":"虎ノ門虎ノ門ヒルズ森タワー（１１階）","town_kana":"トラノモントラノモンヒルズモリタワー(11カイ)","prefecture_code":13},"6312":{"zip_code":"1056312","prefecture":"東京都","prefecture_kana":"トウキョウト","city":"港区","city_kana":"ミナトク","town":"虎ノ門虎ノ門ヒルズ森タワー（１２階）","town_kana":"トラノモントラノモンヒルズモリタワー(12カイ)","prefecture_code":13},"6313":{"zip_code":"1056313","prefecture":"東京都","prefecture_kana":"トウキョウト","city":"港区","city_kana":"ミナトク","town":"虎ノ門虎ノ門ヒルズ森タワー（１３階）","town_kana":"トラノモントラノモンヒルズモリタワー(13カイ)","prefecture_code":13},"6314":{"zip_code":"1056314","prefecture":"東京都","prefecture_kana":"トウキョウト","city":"港区","city_kana":"ミナトク","town":"虎ノ門虎ノ門ヒルズ森タワー（１４階）","town_kana":"トラノモントラノモンヒルズモリタワー(14カイ)","prefecture_code":13},"6315":{"zip_code":"1056315","prefecture":"東京都","prefecture_kana":"トウキョウト","city":"港区","city_kana":"ミナトク","town":"虎ノ門虎ノ門ヒルズ森タワー（１５階）","town_kana":"トラノモントラノモンヒルズモリタワー(15カイ)","prefecture_code":13},"6316":{"zip_code":"1056316","prefecture":"東京都","prefecture_kana":"トウキョウト","city":"港区","city_kana":"ミナトク","town":"虎ノ門虎ノ門ヒルズ森タワー（１６階）","town_kana":"トラノモントラノモンヒルズモリタワー(16カイ)","prefecture_code":13},"6317":{"zip_code":"1056317","prefecture":"東京都","prefecture_kana":"トウキョウト","city":"港区","city_kana":"ミナトク","town":"虎ノ門虎ノ門ヒルズ森タワー（１７階）","town_kana":"トラノモントラノモンヒルズモリタワー(17カイ)","prefecture_code":13},"6318":{"zip_code":"1056318","prefecture":"東京都","prefecture_kana":"トウキョウト","city":"港区","city_kana":"ミナトク","town":"虎ノ門虎ノ門ヒルズ森タワー（１８階）","town_kana":"トラノモントラノモンヒルズモリタワー(18カイ)","prefecture_code":13},"6319":{"zip_code":"1056319","prefecture":"東京都","prefecture_kana":"トウキョウト","city":"港区","city_kana":"ミナトク","town":"虎ノ門虎ノ門ヒルズ森タワー（１９階）","town_kana":"トラノモントラノモンヒルズモリタワー(19カイ)","prefecture_code":13},"6320":{"zip_code":"1056320","prefecture":"東京都","prefecture_kana":"トウキョウト","city":"港区","city_kana":"ミナトク","town":"虎ノ門虎ノ門ヒルズ森タワー（２０階）","town_kana":"トラノモントラノモンヒルズモリタワー(20カイ)","prefecture_code":13},"6321":{"zip_code":"1056321","prefecture":"東京都","prefecture_kana":"トウキョウト","city":"港区","city_kana":"ミナトク","town":"虎ノ門虎ノ門ヒルズ森タワー（２１階）","town_kana":"トラノモントラノモンヒルズモリタワー(21カイ)","prefecture_code":13},"6322":{"zip_code":"1056322","prefecture":"東京都","prefecture_kana":"トウキョウト","city":"港区","city_kana":"ミナトク","town":"虎ノ門虎ノ門ヒルズ森タワー（２２階）","town_kana":"トラノモントラノモンヒルズモリタワー(22カイ)","prefecture_code":13},"6323":{"zip_code":"1056323","prefecture":"東京都","prefecture_kana":"トウキョウト","city":"港区","city_kana":"ミナトク","town":"虎ノ門虎ノ門ヒルズ森タワー（２３階）","town_kana":"トラノモントラノモンヒルズモリタワー(23カイ)","prefecture_code":13},"6324":{"zip_code":"1056324","prefecture":"東京都","prefecture_kana":"トウキョウト","city":"港区","city_kana":"ミナトク","town":"虎ノ門虎ノ門ヒルズ森タワー（２４階）","town_kana":"トラノモントラノモンヒルズモリタワー(24カイ)","prefecture_code":13},"6325":{"zip_code":"1056325","prefecture":"東京都","prefecture_kana":"トウキョウト","city":"港区","city_kana":"ミナトク","town":"虎ノ門虎ノ門ヒルズ森タワー（２５階）","town_kana":"トラノモントラノモンヒルズモリタワー(25カイ)","prefecture_code":13},"6326":{"zip_code":"1056326","prefecture":"東京都","prefecture_kana":"トウキョウト","city":"港区","city_kana":"ミナトク","town":"虎ノ門虎ノ門ヒルズ森タワー（２６階）","town_kana":"トラノモントラノモンヒルズモリタワー(26カイ)","prefecture_code":13},"6327":{"zip_code":"1056327","prefecture":"東京都","prefecture_kana":"トウキョウト","city":"港区","city_kana":"ミナトク","town":"虎ノ門虎ノ門ヒルズ森タワー（２７階）","town_kana":"トラノモントラノモンヒルズモリタワー(27カイ)","prefecture_code":13},"6328":{"zip_code":"1056328","prefecture":"東京都","prefecture_kana":"トウキョウト","city":"港区","city_kana":"ミナトク","town":"虎ノ門虎ノ門ヒルズ森タワー（２８階）","town_kana":"トラノモントラノモンヒルズモリタワー(28カイ)","prefecture_code":13},"6329":{"zip_code":"1056329","prefecture":"東京都","prefecture_kana":"トウキョウト","city":"港区","city_kana":"ミナトク","town":"虎ノ門虎ノ門ヒルズ森タワー（２９階）","town_kana":"トラノモントラノモンヒルズモリタワー(29カイ)","prefecture_code":13},"6330":{"zip_code":"1056330","prefecture":"東京都","prefecture_kana":"トウキョウト","city":"港区","city_kana":"ミナトク","town":"虎ノ門虎ノ門ヒルズ森タワー（３０階）","town_kana":"トラノモントラノモンヒルズモリタワー(30カイ)","prefecture_code":13},"6331":{"zip_code":"1056331","prefecture":"東京都","prefecture_kana":"トウキョウト","city":"港区","city_kana":"ミナトク","town":"虎ノ門虎ノ門ヒルズ森タワー（３１階）","town_kana":"トラノモントラノモンヒルズモリタワー(31カイ)","prefecture_code":13},"6332":{"zip_code":"1056332","prefecture":"東京都","prefecture_kana":"トウキョウト","city":"港区","city_kana":"ミナトク","town":"虎ノ門虎ノ門ヒルズ森タワー（３２階）","town_kana":"トラノモントラノモンヒルズモリタワー(32カイ)","prefecture_code":13},"6333":{"zip_code":"1056333","prefecture":"東京都","prefecture_kana":"トウキョウト","city":"港区","city_kana":"ミナトク","town":"虎ノ門虎ノ門ヒルズ森タワー（３３階）","town_kana":"トラノモントラノモンヒルズモリタワー(33カイ)","prefecture_code":13},"6334":{"zip_code":"1056334","prefecture":"東京都","prefecture_kana":"トウキョウト","city":"港区","city_kana":"ミナトク","town":"虎ノ門虎ノ門ヒルズ森タワー（３４階）","town_kana":"トラノモントラノモンヒルズモリタワー(34カイ)","prefecture_code":13},"6335":{"zip_code":"1056335","prefecture":"東京都","prefecture_kana":"トウキョウト","city":"港区","city_kana":"ミナトク","town":"虎ノ門虎ノ門ヒルズ森タワー（３５階）","town_kana":"トラノモントラノモンヒルズモリタワー(35カイ)","prefecture_code":13},"6336":{"zip_code":"1056336","prefecture":"東京都","prefecture_kana":"トウキョウト","city":"港区","city_kana":"ミナトク","town":"虎ノ門虎ノ門ヒルズ森タワー（３６階）","town_kana":"トラノモントラノモンヒルズモリタワー(36カイ)","prefecture_code":13},"0003":{"zip_code":"1050003","prefecture":"東京都","prefecture_kana":"トウキョウト","city":"港区","city_kana":"ミナトク","town":"西新橋","town_kana":"ニシシンバシ","prefecture_code":13},"0013":{"zip_code":"1050013","prefecture":"東京都","prefecture_kana":"トウキョウト","city":"港区","city_kana":"ミナトク","town":"浜松町（次のビルを除く）","town_kana":"ハママツチョウ(ツギノビルヲノゾク)","prefecture_code":13},"6190":{"zip_code":"1056190","prefecture":"東京都","prefecture_kana":"トウキョウト","city":"港区","city_kana":"ミナトク","town":"浜松町世界貿易センタービル（地階・階層不明）","town_kana":"ハママツチョウセカイボウエキセンタービル(チカイ・カイソウフメイ)","prefecture_code":13},"6101":{"zip_code":"1056101","prefecture":"東京都","prefecture_kana":"トウキョウト","city":"港区","city_kana":"ミナトク","town":"浜松町世界貿易センタービル（１階）","town_kana":"ハママツチョウセカイボウエキセンタービル(1カイ)","prefecture_code":13},"6102":{"zip_code":"1056102","prefecture":"東京都","prefecture_kana":"トウキョウト","city":"港区","city_kana":"ミナトク","town":"浜松町世界貿易センタービル（２階）","town_kana":"ハママツチョウセカイボウエキセンタービル(2カイ)","prefecture_code":13},"6103":{"zip_code":"1056103","prefecture":"東京都","prefecture_kana":"トウキョウト","city":"港区","city_kana":"ミナトク","town":"浜松町世界貿易センタービル（３階）","town_kana":"ハママツチョウセカイボウエキセンタービル(3カイ)","prefecture_code":13},"6104":{"zip_code":"1056104","prefecture":"東京都","prefecture_kana":"トウキョウト","city":"港区","city_kana":"ミナトク","town":"浜松町世界貿易センタービル（４階）","town_kana":"ハママツチョウセカイボウエキセンタービル(4カイ)","prefecture_code":13},"6105":{"zip_code":"1056105","prefecture":"東京都","prefecture_kana":"トウキョウト","city":"港区","city_kana":"ミナトク","town":"浜松町世界貿易センタービル（５階）","town_kana":"ハママツチョウセカイボウエキセンタービル(5カイ)","prefecture_code":13},"6106":{"zip_code":"1056106","prefecture":"東京都","prefecture_kana":"トウキョウト","city":"港区","city_kana":"ミナトク","town":"浜松町世界貿易センタービル（６階）","town_kana":"ハママツチョウセカイボウエキセンタービル(6カイ)","prefecture_code":13},"6107":{"zip_code":"1056107","prefecture":"東京都","prefecture_kana":"トウキョウト","city":"港区","city_kana":"ミナトク","town":"浜松町世界貿易センタービル（７階）","town_kana":"ハママツチョウセカイボウエキセンタービル(7カイ)","prefecture_code":13},"6108":{"zip_code":"1056108","prefecture":"東京都","prefecture_kana":"トウキョウト","city":"港区","city_kana":"ミナトク","town":"浜松町世界貿易センタービル（８階）","town_kana":"ハママツチョウセカイボウエキセンタービル(8カイ)","prefecture_code":13},"6109":{"zip_code":"1056109","prefecture":"東京都","prefecture_kana":"トウキョウト","city":"港区","city_kana":"ミナトク","town":"浜松町世界貿易センタービル（９階）","town_kana":"ハママツチョウセカイボウエキセンタービル(9カイ)","prefecture_code":13},"6110":{"zip_code":"1056110","prefecture":"東京都","prefecture_kana":"トウキョウト","city":"港区","city_kana":"ミナトク","town":"浜松町世界貿易センタービル（１０階）","town_kana":"ハママツチョウセカイボウエキセンタービル(10カイ)","prefecture_code":13},"6111":{"zip_code":"1056111","prefecture":"東京都","prefecture_kana":"トウキョウト","city":"港区","city_kana":"ミナトク","town":"浜松町世界貿易センタービル（１１階）","town_kana":"ハママツチョウセカイボウエキセンタービル(11カイ)","prefecture_code":13},"6112":{"zip_code":"1056112","prefecture":"東京都","prefecture_kana":"トウキョウト","city":"港区","city_kana":"ミナトク","town":"浜松町世界貿易センタービル（１２階）","town_kana":"ハママツチョウセカイボウエキセンタービル(12カイ)","prefecture_code":13},"6113":{"zip_code":"1056113","prefecture":"東京都","prefecture_kana":"トウキョウト","city":"港区","city_kana":"ミナトク","town":"浜松町世界貿易センタービル（１３階）","town_kana":"ハママツチョウセカイボウエキセンタービル(13カイ)","prefecture_code":13},"6114":{"zip_code":"1056114","prefecture":"東京都","prefecture_kana":"トウキョウト","city":"港区","city_kana":"ミナトク","town":"浜松町世界貿易センタービル（１４階）","town_kana":"ハママツチョウセカイボウエキセンタービル(14カイ)","prefecture_code":13},"6115":{"zip_code":"1056115","prefecture":"東京都","prefecture_kana":"トウキョウト","city":"港区","city_kana":"ミナトク","town":"浜松町世界貿易センタービル（１５階）","town_kana":"ハママツチョウセカイボウエキセンタービル(15カイ)","prefecture_code":13},"6116":{"zip_code":"1056116","prefecture":"東京都","prefecture_kana":"トウキョウト","city":"港区","city_kana":"ミナトク","town":"浜松町世界貿易センタービル（１６階）","town_kana":"ハママツチョウセカイボウエキセンタービル(16カイ)","prefecture_code":13},"6117":{"zip_code":"1056117","prefecture":"東京都","prefecture_kana":"トウキョウト","city":"港区","city_kana":"ミナトク","town":"浜松町世界貿易センタービル（１７階）","town_kana":"ハママツチョウセカイボウエキセンタービル(17カイ)","prefecture_code":13},"6118":{"zip_code":"1056118","prefecture":"東京都","prefecture_kana":"トウキョウト","city":"港区","city_kana":"ミナトク","town":"浜松町世界貿易センタービル（１８階）","town_kana":"ハママツチョウセカイボウエキセンタービル(18カイ)","prefecture_code":13},"6119":{"zip_code":"1056119","prefecture":"東京都","prefecture_kana":"トウキョウト","city":"港区","city_kana":"ミナトク","town":"浜松町世界貿易センタービル（１９階）","town_kana":"ハママツチョウセカイボウエキセンタービル(19カイ)","prefecture_code":13},"6120":{"zip_code":"1056120","prefecture":"東京都","prefecture_kana":"トウキョウト","city":"港区","city_kana":"ミナトク","town":"浜松町世界貿易センタービル（２０階）","town_kana":"ハママツチョウセカイボウエキセンタービル(20カイ)","prefecture_code":13},"6121":{"zip_code":"1056121","prefecture":"東京都","prefecture_kana":"トウキョウト","city":"港区","city_kana":"ミナトク","town":"浜松町世界貿易センタービル（２１階）","town_kana":"ハママツチョウセカイボウエキセンタービル(21カイ)","prefecture_code":13},"6122":{"zip_code":"1056122","prefecture":"東京都","prefecture_kana":"トウキョウト","city":"港区","city_kana":"ミナトク","town":"浜松町世界貿易センタービル（２２階）","town_kana":"ハママツチョウセカイボウエキセンタービル(22カイ)","prefecture_code":13},"6123":{"zip_code":"1056123","prefecture":"東京都","prefecture_kana":"トウキョウト","city":"港区","city_kana":"ミナトク","town":"浜松町世界貿易センタービル（２３階）","town_kana":"ハママツチョウセカイボウエキセンタービル(23カイ)","prefecture_code":13},"6124":{"zip_code":"1056124","prefecture":"東京都","prefecture_kana":"トウキョウト","city":"港区","city_kana":"ミナトク","town":"浜松町世界貿易センタービル（２４階）","town_kana":"ハママツチョウセカイボウエキセンタービル(24カイ)","prefecture_code":13},"6125":{"zip_code":"1056125","prefecture":"東京都","prefecture_kana":"トウキョウト","city":"港区","city_kana":"ミナトク","town":"浜松町世界貿易センタービル（２５階）","town_kana":"ハママツチョウセカイボウエキセンタービル(25カイ)","prefecture_code":13},"6126":{"zip_code":"1056126","prefecture":"東京都","prefecture_kana":"トウキョウト","city":"港区","city_kana":"ミナトク","town":"浜松町世界貿易センタービル（２６階）","town_kana":"ハママツチョウセカイボウエキセンタービル(26カイ)","prefecture_code":13},"6127":{"zip_code":"1056127","prefecture":"東京都","prefecture_kana":"トウキョウト","city":"港区","city_kana":"ミナトク","town":"浜松町世界貿易センタービル（２７階）","town_kana":"ハママツチョウセカイボウエキセンタービル(27カイ)","prefecture_code":13},"6128":{"zip_code":"1056128","prefecture":"東京都","prefecture_kana":"トウキョウト","city":"港区","city_kana":"ミナトク","town":"浜松町世界貿易センタービル（２８階）","town_kana":"ハママツチョウセカイボウエキセンタービル(28カイ)","prefecture_code":13},"6129":{"zip_code":"1056129","prefecture":"東京都","prefecture_kana":"トウキョウト","city":"港区","city_kana":"ミナトク","town":"浜松町世界貿易センタービル（２９階）","town_kana":"ハママツチョウセカイボウエキセンタービル(29カイ)","prefecture_code":13},"6130":{"zip_code":"1056130","prefecture":"東京都","prefecture_kana":"トウキョウト","city":"港区","city_kana":"ミナトク","town":"浜松町世界貿易センタービル（３０階）","town_kana":"ハママツチョウセカイボウエキセンタービル(30カイ)","prefecture_code":13},"6131":{"zip_code":"1056131","prefecture":"東京都","prefecture_kana":"トウキョウト","city":"港区","city_kana":"ミナトク","town":"浜松町世界貿易センタービル（３１階）","town_kana":"ハママツチョウセカイボウエキセンタービル(31カイ)","prefecture_code":13},"6132":{"zip_code":"1056132","prefecture":"東京都","prefecture_kana":"トウキョウト","city":"港区","city_kana":"ミナトク","town":"浜松町世界貿易センタービル（３２階）","town_kana":"ハママツチョウセカイボウエキセンタービル(32カイ)","prefecture_code":13},"6133":{"zip_code":"1056133","prefecture":"東京都","prefecture_kana":"トウキョウト","city":"港区","city_kana":"ミナトク","town":"浜松町世界貿易センタービル（３３階）","town_kana":"ハママツチョウセカイボウエキセンタービル(33カイ)","prefecture_code":13},"6134":{"zip_code":"1056134","prefecture":"東京都","prefecture_kana":"トウキョウト","city":"港区","city_kana":"ミナトク","town":"浜松町世界貿易センタービル（３４階）","town_kana":"ハママツチョウセカイボウエキセンタービル(34カイ)","prefecture_code":13},"6135":{"zip_code":"1056135","prefecture":"東京都","prefecture_kana":"トウキョウト","city":"港区","city_kana":"ミナトク","town":"浜松町世界貿易センタービル（３５階）","town_kana":"ハママツチョウセカイボウエキセンタービル(35カイ)","prefecture_code":13},"6136":{"zip_code":"1056136","prefecture":"東京都","prefecture_kana":"トウキョウト","city":"港区","city_kana":"ミナトク","town":"浜松町世界貿易センタービル（３６階）","town_kana":"ハママツチョウセカイボウエキセンタービル(36カイ)","prefecture_code":13},"6137":{"zip_code":"1056137","prefecture":"東京都","prefecture_kana":"トウキョウト","city":"港区","city_kana":"ミナトク","town":"浜松町世界貿易センタービル（３７階）","town_kana":"ハママツチョウセカイボウエキセンタービル(37カイ)","prefecture_code":13},"6138":{"zip_code":"1056138","prefecture":"東京都","prefecture_kana":"トウキョウト","city":"港区","city_kana":"ミナトク","town":"浜松町世界貿易センタービル（３８階）","town_kana":"ハママツチョウセカイボウエキセンタービル(38カイ)","prefecture_code":13},"6139":{"zip_code":"1056139","prefecture":"東京都","prefecture_kana":"トウキョウト","city":"港区","city_kana":"ミナトク","town":"浜松町世界貿易センタービル（３９階）","town_kana":"ハママツチョウセカイボウエキセンタービル(39カイ)","prefecture_code":13},"6140":{"zip_code":"1056140","prefecture":"東京都","prefecture_kana":"トウキョウト","city":"港区","city_kana":"ミナトク","town":"浜松町世界貿易センタービル（４０階）","town_kana":"ハママツチョウセカイボウエキセンタービル(40カイ)","prefecture_code":13},"0021":{"zip_code":"1050021","prefecture":"東京都","prefecture_kana":"トウキョウト","city":"港区","city_kana":"ミナトク","town":"東新橋（次のビルを除く）","town_kana":"ヒガシシンバシ(ツギノビルヲノゾク)","prefecture_code":13},"7190":{"zip_code":"1057190","prefecture":"東京都","prefecture_kana":"トウキョウト","city":"港区","city_kana":"ミナトク","town":"東新橋汐留シティセンター（地階・階層不明）","town_kana":"ヒガシシンバシシオドメシティセンター(チカイ・カイソウフメイ)","prefecture_code":13},"7101":{"zip_code":"1057101","prefecture":"東京都","prefecture_kana":"トウキョウト","city":"港区","city_kana":"ミナトク","town":"東新橋汐留シティセンター（１階）","town_kana":"ヒガシシンバシシオドメシティセンター(1カイ)","prefecture_code":13},"7102":{"zip_code":"1057102","prefecture":"東京都","prefecture_kana":"トウキョウト","city":"港区","city_kana":"ミナトク","town":"東新橋汐留シティセンター（２階）","town_kana":"ヒガシシンバシシオドメシティセンター(2カイ)","prefecture_code":13},"7103":{"zip_code":"1057103","prefecture":"東京都","prefecture_kana":"トウキョウト","city":"港区","city_kana":"ミナトク","town":"東新橋汐留シティセンター（３階）","town_kana":"ヒガシシンバシシオドメシティセンター(3カイ)","prefecture_code":13},"7104":{"zip_code":"1057104","prefecture":"東京都","prefecture_kana":"トウキョウト","city":"港区","city_kana":"ミナトク","town":"東新橋汐留シティセンター（４階）","town_kana":"ヒガシシンバシシオドメシティセンター(4カイ)","prefecture_code":13},"7105":{"zip_code":"1057105","prefecture":"東京都","prefecture_kana":"トウキョウト","city":"港区","city_kana":"ミナトク","town":"東新橋汐留シティセンター（５階）","town_kana":"ヒガシシンバシシオドメシティセンター(5カイ)","prefecture_code":13},"7106":{"zip_code":"1057106","prefecture":"東京都","prefecture_kana":"トウキョウト","city":"港区","city_kana":"ミナトク","town":"東新橋汐留シティセンター（６階）","town_kana":"ヒガシシンバシシオドメシティセンター(6カイ)","prefecture_code":13},"7107":{"zip_code":"1057107","prefecture":"東京都","prefecture_kana":"トウキョウト","city":"港区","city_kana":"ミナトク","town":"東新橋汐留シティセンター（７階）","town_kana":"ヒガシシンバシシオドメシティセンター(7カイ)","prefecture_code":13},"7108":{"zip_code":"1057108","prefecture":"東京都","prefecture_kana":"トウキョウト","city":"港区","city_kana":"ミナトク","town":"東新橋汐留シティセンター（８階）","town_kana":"ヒガシシンバシシオドメシティセンター(8カイ)","prefecture_code":13},"7109":{"zip_code":"1057109","prefecture":"東京都","prefecture_kana":"トウキョウト","city":"港区","city_kana":"ミナトク","town":"東新橋汐留シティセンター（９階）","town_kana":"ヒガシシンバシシオドメシティセンター(9カイ)","prefecture_code":13},"7110":{"zip_code":"1057110","prefecture":"東京都","prefecture_kana":"トウキョウト","city":"港区","city_kana":"ミナトク","town":"東新橋汐留シティセンター（１０階）","town_kana":"ヒガシシンバシシオドメシティセンター(10カイ)","prefecture_code":13},"7111":{"zip_code":"1057111","prefecture":"東京都","prefecture_kana":"トウキョウト","city":"港区","city_kana":"ミナトク","town":"東新橋汐留シティセンター（１１階）","town_kana":"ヒガシシンバシシオドメシティセンター(11カイ)","prefecture_code":13},"7112":{"zip_code":"1057112","prefecture":"東京都","prefecture_kana":"トウキョウト","city":"港区","city_kana":"ミナトク","town":"東新橋汐留シティセンター（１２階）","town_kana":"ヒガシシンバシシオドメシティセンター(12カイ)","prefecture_code":13},"7113":{"zip_code":"1057113","prefecture":"東京都","prefecture_kana":"トウキョウト","city":"港区","city_kana":"ミナトク","town":"東新橋汐留シティセンター（１３階）","town_kana":"ヒガシシンバシシオドメシティセンター(13カイ)","prefecture_code":13},"7114":{"zip_code":"1057114","prefecture":"東京都","prefecture_kana":"トウキョウト","city":"港区","city_kana":"ミナトク","town":"東新橋汐留シティセンター（１４階）","town_kana":"ヒガシシンバシシオドメシティセンター(14カイ)","prefecture_code":13},"7115":{"zip_code":"1057115","prefecture":"東京都","prefecture_kana":"トウキョウト","city":"港区","city_kana":"ミナトク","town":"東新橋汐留シティセンター（１５階）","town_kana":"ヒガシシンバシシオドメシティセンター(15カイ)","prefecture_code":13},"7116":{"zip_code":"1057116","prefecture":"東京都","prefecture_kana":"トウキョウト","city":"港区","city_kana":"ミナトク","town":"東新橋汐留シティセンター（１６階）","town_kana":"ヒガシシンバシシオドメシティセンター(16カイ)","prefecture_code":13},"7117":{"zip_code":"1057117","prefecture":"東京都","prefecture_kana":"トウキョウト","city":"港区","city_kana":"ミナトク","town":"東新橋汐留シティセンター（１７階）","town_kana":"ヒガシシンバシシオドメシティセンター(17カイ)","prefecture_code":13},"7118":{"zip_code":"1057118","prefecture":"東京都","prefecture_kana":"トウキョウト","city":"港区","city_kana":"ミナトク","town":"東新橋汐留シティセンター（１８階）","town_kana":"ヒガシシンバシシオドメシティセンター(18カイ)","prefecture_code":13},"7119":{"zip_code":"1057119","prefecture":"東京都","prefecture_kana":"トウキョウト","city":"港区","city_kana":"ミナトク","town":"東新橋汐留シティセンター（１９階）","town_kana":"ヒガシシンバシシオドメシティセンター(19カイ)","prefecture_code":13},"7120":{"zip_code":"1057120","prefecture":"東京都","prefecture_kana":"トウキョウト","city":"港区","city_kana":"ミナトク","town":"東新橋汐留シティセンター（２０階）","town_kana":"ヒガシシンバシシオドメシティセンター(20カイ)","prefecture_code":13},"7121":{"zip_code":"1057121","prefecture":"東京都","prefecture_kana":"トウキョウト","city":"港区","city_kana":"ミナトク","town":"東新橋汐留シティセンター（２１階）","town_kana":"ヒガシシンバシシオドメシティセンター(21カイ)","prefecture_code":13},"7122":{"zip_code":"1057122","prefecture":"東京都","prefecture_kana":"トウキョウト","city":"港区","city_kana":"ミナトク","town":"東新橋汐留シティセンター（２２階）","town_kana":"ヒガシシンバシシオドメシティセンター(22カイ)","prefecture_code":13},"7123":{"zip_code":"1057123","prefecture":"東京都","prefecture_kana":"トウキョウト","city":"港区","city_kana":"ミナトク","town":"東新橋汐留シティセンター（２３階）","town_kana":"ヒガシシンバシシオドメシティセンター(23カイ)","prefecture_code":13},"7124":{"zip_code":"1057124","prefecture":"東京都","prefecture_kana":"トウキョウト","city":"港区","city_kana":"ミナトク","town":"東新橋汐留シティセンター（２４階）","town_kana":"ヒガシシンバシシオドメシティセンター(24カイ)","prefecture_code":13},"7125":{"zip_code":"1057125","prefecture":"東京都","prefecture_kana":"トウキョウト","city":"港区","city_kana":"ミナトク","town":"東新橋汐留シティセンター（２５階）","town_kana":"ヒガシシンバシシオドメシティセンター(25カイ)","prefecture_code":13},"7126":{"zip_code":"1057126","prefecture":"東京都","prefecture_kana":"トウキョウト","city":"港区","city_kana":"ミナトク","town":"東新橋汐留シティセンター（２６階）","town_kana":"ヒガシシンバシシオドメシティセンター(26カイ)","prefecture_code":13},"7127":{"zip_code":"1057127","prefecture":"東京都","prefecture_kana":"トウキョウト","city":"港区","city_kana":"ミナトク","town":"東新橋汐留シティセンター（２７階）","town_kana":"ヒガシシンバシシオドメシティセンター(27カイ)","prefecture_code":13},"7128":{"zip_code":"1057128","prefecture":"東京都","prefecture_kana":"トウキョウト","city":"港区","city_kana":"ミナトク","town":"東新橋汐留シティセンター（２８階）","town_kana":"ヒガシシンバシシオドメシティセンター(28カイ)","prefecture_code":13},"7129":{"zip_code":"1057129","prefecture":"東京都","prefecture_kana":"トウキョウト","city":"港区","city_kana":"ミナトク","town":"東新橋汐留シティセンター（２９階）","town_kana":"ヒガシシンバシシオドメシティセンター(29カイ)","prefecture_code":13},"7130":{"zip_code":"1057130","prefecture":"東京都","prefecture_kana":"トウキョウト","city":"港区","city_kana":"ミナトク","town":"東新橋汐留シティセンター（３０階）","town_kana":"ヒガシシンバシシオドメシティセンター(30カイ)","prefecture_code":13},"7131":{"zip_code":"1057131","prefecture":"東京都","prefecture_kana":"トウキョウト","city":"港区","city_kana":"ミナトク","town":"東新橋汐留シティセンター（３１階）","town_kana":"ヒガシシンバシシオドメシティセンター(31カイ)","prefecture_code":13},"7132":{"zip_code":"1057132","prefecture":"東京都","prefecture_kana":"トウキョウト","city":"港区","city_kana":"ミナトク","town":"東新橋汐留シティセンター（３２階）","town_kana":"ヒガシシンバシシオドメシティセンター(32カイ)","prefecture_code":13},"7133":{"zip_code":"1057133","prefecture":"東京都","prefecture_kana":"トウキョウト","city":"港区","city_kana":"ミナトク","town":"東新橋汐留シティセンター（３３階）","town_kana":"ヒガシシンバシシオドメシティセンター(33カイ)","prefecture_code":13},"7134":{"zip_code":"1057134","prefecture":"東京都","prefecture_kana":"トウキョウト","city":"港区","city_kana":"ミナトク","town":"東新橋汐留シティセンター（３４階）","town_kana":"ヒガシシンバシシオドメシティセンター(34カイ)","prefecture_code":13},"7135":{"zip_code":"1057135","prefecture":"東京都","prefecture_kana":"トウキョウト","city":"港区","city_kana":"ミナトク","town":"東新橋汐留シティセンター（３５階）","town_kana":"ヒガシシンバシシオドメシティセンター(35カイ)","prefecture_code":13},"7136":{"zip_code":"1057136","prefecture":"東京都","prefecture_kana":"トウキョウト","city":"港区","city_kana":"ミナトク","town":"東新橋汐留シティセンター（３６階）","town_kana":"ヒガシシンバシシオドメシティセンター(36カイ)","prefecture_code":13},"7137":{"zip_code":"1057137","prefecture":"東京都","prefecture_kana":"トウキョウト","city":"港区","city_kana":"ミナトク","town":"東新橋汐留シティセンター（３７階）","town_kana":"ヒガシシンバシシオドメシティセンター(37カイ)","prefecture_code":13},"7138":{"zip_code":"1057138","prefecture":"東京都","prefecture_kana":"トウキョウト","city":"港区","city_kana":"ミナトク","town":"東新橋汐留シティセンター（３８階）","town_kana":"ヒガシシンバシシオドメシティセンター(38カイ)","prefecture_code":13},"7139":{"zip_code":"1057139","prefecture":"東京都","prefecture_kana":"トウキョウト","city":"港区","city_kana":"ミナトク","town":"東新橋汐留シティセンター（３９階）","town_kana":"ヒガシシンバシシオドメシティセンター(39カイ)","prefecture_code":13},"7140":{"zip_code":"1057140","prefecture":"東京都","prefecture_kana":"トウキョウト","city":"港区","city_kana":"ミナトク","town":"東新橋汐留シティセンター（４０階）","town_kana":"ヒガシシンバシシオドメシティセンター(40カイ)","prefecture_code":13},"7141":{"zip_code":"1057141","prefecture":"東京都","prefecture_kana":"トウキョウト","city":"港区","city_kana":"ミナトク","town":"東新橋汐留シティセンター（４１階）","town_kana":"ヒガシシンバシシオドメシティセンター(41カイ)","prefecture_code":13},"7142":{"zip_code":"1057142","prefecture":"東京都","prefecture_kana":"トウキョウト","city":"港区","city_kana":"ミナトク","town":"東新橋汐留シティセンター（４２階）","town_kana":"ヒガシシンバシシオドメシティセンター(42カイ)","prefecture_code":13},"7143":{"zip_code":"1057143","prefecture":"東京都","prefecture_kana":"トウキョウト","city":"港区","city_kana":"ミナトク","town":"東新橋汐留シティセンター（４３階）","town_kana":"ヒガシシンバシシオドメシティセンター(43カイ)","prefecture_code":13},"7290":{"zip_code":"1057290","prefecture":"東京都","prefecture_kana":"トウキョウト","city":"港区","city_kana":"ミナトク","town":"東新橋汐留メディアタワー（地階・階層不明）","town_kana":"ヒガシシンバシシオドメメディアタワー(チカイ・カイソウフメイ)","prefecture_code":13},"7201":{"zip_code":"1057201","prefecture":"東京都","prefecture_kana":"トウキョウト","city":"港区","city_kana":"ミナトク","town":"東新橋汐留メディアタワー（１階）","town_kana":"ヒガシシンバシシオドメメディアタワー(1カイ)","prefecture_code":13},"7202":{"zip_code":"1057202","prefecture":"東京都","prefecture_kana":"トウキョウト","city":"港区","city_kana":"ミナトク","town":"東新橋汐留メディアタワー（２階）","town_kana":"ヒガシシンバシシオドメメディアタワー(2カイ)","prefecture_code":13},"7203":{"zip_code":"1057203","prefecture":"東京都","prefecture_kana":"トウキョウト","city":"港区","city_kana":"ミナトク","town":"東新橋汐留メディアタワー（３階）","town_kana":"ヒガシシンバシシオドメメディアタワー(3カイ)","prefecture_code":13},"7204":{"zip_code":"1057204","prefecture":"東京都","prefecture_kana":"トウキョウト","city":"港区","city_kana":"ミナトク","town":"東新橋汐留メディアタワー（４階）","town_kana":"ヒガシシンバシシオドメメディアタワー(4カイ)","prefecture_code":13},"7205":{"zip_code":"1057205","prefecture":"東京都","prefecture_kana":"トウキョウト","city":"港区","city_kana":"ミナトク","town":"東新橋汐留メディアタワー（５階）","town_kana":"ヒガシシンバシシオドメメディアタワー(5カイ)","prefecture_code":13},"7206":{"zip_code":"1057206","prefecture":"東京都","prefecture_kana":"トウキョウト","city":"港区","city_kana":"ミナトク","town":"東新橋汐留メディアタワー（６階）","town_kana":"ヒガシシンバシシオドメメディアタワー(6カイ)","prefecture_code":13},"7207":{"zip_code":"1057207","prefecture":"東京都","prefecture_kana":"トウキョウト","city":"港区","city_kana":"ミナトク","town":"東新橋汐留メディアタワー（７階）","town_kana":"ヒガシシンバシシオドメメディアタワー(7カイ)","prefecture_code":13},"7208":{"zip_code":"1057208","prefecture":"東京都","prefecture_kana":"トウキョウト","city":"港区","city_kana":"ミナトク","town":"東新橋汐留メディアタワー（８階）","town_kana":"ヒガシシンバシシオドメメディアタワー(8カイ)","prefecture_code":13},"7209":{"zip_code":"1057209","prefecture":"東京都","prefecture_kana":"トウキョウト","city":"港区","city_kana":"ミナトク","town":"東新橋汐留メディアタワー（９階）","town_kana":"ヒガシシンバシシオドメメディアタワー(9カイ)","prefecture_code":13},"7210":{"zip_code":"1057210","prefecture":"東京都","prefecture_kana":"トウキョウト","city":"港区","city_kana":"ミナトク","town":"東新橋汐留メディアタワー（１０階）","town_kana":"ヒガシシンバシシオドメメディアタワー(10カイ)","prefecture_code":13},"7211":{"zip_code":"1057211","prefecture":"東京都","prefecture_kana":"トウキョウト","city":"港区","city_kana":"ミナトク","town":"東新橋汐留メディアタワー（１１階）","town_kana":"ヒガシシンバシシオドメメディアタワー(11カイ)","prefecture_code":13},"7212":{"zip_code":"1057212","prefecture":"東京都","prefecture_kana":"トウキョウト","city":"港区","city_kana":"ミナトク","town":"東新橋汐留メディアタワー（１２階）","town_kana":"ヒガシシンバシシオドメメディアタワー(12カイ)","prefecture_code":13},"7213":{"zip_code":"1057213","prefecture":"東京都","prefecture_kana":"トウキョウト","city":"港区","city_kana":"ミナトク","town":"東新橋汐留メディアタワー（１３階）","town_kana":"ヒガシシンバシシオドメメディアタワー(13カイ)","prefecture_code":13},"7214":{"zip_code":"1057214","prefecture":"東京都","prefecture_kana":"トウキョウト","city":"港区","city_kana":"ミナトク","town":"東新橋汐留メディアタワー（１４階）","town_kana":"ヒガシシンバシシオドメメディアタワー(14カイ)","prefecture_code":13},"7215":{"zip_code":"1057215","prefecture":"東京都","prefecture_kana":"トウキョウト","city":"港区","city_kana":"ミナトク","town":"東新橋汐留メディアタワー（１５階）","town_kana":"ヒガシシンバシシオドメメディアタワー(15カイ)","prefecture_code":13},"7216":{"zip_code":"1057216","prefecture":"東京都","prefecture_kana":"トウキョウト","city":"港区","city_kana":"ミナトク","town":"東新橋汐留メディアタワー（１６階）","town_kana":"ヒガシシンバシシオドメメディアタワー(16カイ)","prefecture_code":13},"7217":{"zip_code":"1057217","prefecture":"東京都","prefecture_kana":"トウキョウト","city":"港区","city_kana":"ミナトク","town":"東新橋汐留メディアタワー（１７階）","town_kana":"ヒガシシンバシシオドメメディアタワー(17カイ)","prefecture_code":13},"7218":{"zip_code":"1057218","prefecture":"東京都","prefecture_kana":"トウキョウト","city":"港区","city_kana":"ミナトク","town":"東新橋汐留メディアタワー（１８階）","town_kana":"ヒガシシンバシシオドメメディアタワー(18カイ)","prefecture_code":13},"7219":{"zip_code":"1057219","prefecture":"東京都","prefecture_kana":"トウキョウト","city":"港区","city_kana":"ミナトク","town":"東新橋汐留メディアタワー（１９階）","town_kana":"ヒガシシンバシシオドメメディアタワー(19カイ)","prefecture_code":13},"7220":{"zip_code":"1057220","prefecture":"東京都","prefecture_kana":"トウキョウト","city":"港区","city_kana":"ミナトク","town":"東新橋汐留メディアタワー（２０階）","town_kana":"ヒガシシンバシシオドメメディアタワー(20カイ)","prefecture_code":13},"7221":{"zip_code":"1057221","prefecture":"東京都","prefecture_kana":"トウキョウト","city":"港区","city_kana":"ミナトク","town":"東新橋汐留メディアタワー（２１階）","town_kana":"ヒガシシンバシシオドメメディアタワー(21カイ)","prefecture_code":13},"7222":{"zip_code":"1057222","prefecture":"東京都","prefecture_kana":"トウキョウト","city":"港区","city_kana":"ミナトク","town":"東新橋汐留メディアタワー（２２階）","town_kana":"ヒガシシンバシシオドメメディアタワー(22カイ)","prefecture_code":13},"7223":{"zip_code":"1057223","prefecture":"東京都","prefecture_kana":"トウキョウト","city":"港区","city_kana":"ミナトク","town":"東新橋汐留メディアタワー（２３階）","town_kana":"ヒガシシンバシシオドメメディアタワー(23カイ)","prefecture_code":13},"7224":{"zip_code":"1057224","prefecture":"東京都","prefecture_kana":"トウキョウト","city":"港区","city_kana":"ミナトク","town":"東新橋汐留メディアタワー（２４階）","town_kana":"ヒガシシンバシシオドメメディアタワー(24カイ)","prefecture_code":13},"7225":{"zip_code":"1057225","prefecture":"東京都","prefecture_kana":"トウキョウト","city":"港区","city_kana":"ミナトク","town":"東新橋汐留メディアタワー（２５階）","town_kana":"ヒガシシンバシシオドメメディアタワー(25カイ)","prefecture_code":13},"7226":{"zip_code":"1057226","prefecture":"東京都","prefecture_kana":"トウキョウト","city":"港区","city_kana":"ミナトク","town":"東新橋汐留メディアタワー（２６階）","town_kana":"ヒガシシンバシシオドメメディアタワー(26カイ)","prefecture_code":13},"7227":{"zip_code":"1057227","prefecture":"東京都","prefecture_kana":"トウキョウト","city":"港区","city_kana":"ミナトク","town":"東新橋汐留メディアタワー（２７階）","town_kana":"ヒガシシンバシシオドメメディアタワー(27カイ)","prefecture_code":13},"7228":{"zip_code":"1057228","prefecture":"東京都","prefecture_kana":"トウキョウト","city":"港区","city_kana":"ミナトク","town":"東新橋汐留メディアタワー（２８階）","town_kana":"ヒガシシンバシシオドメメディアタワー(28カイ)","prefecture_code":13},"7229":{"zip_code":"1057229","prefecture":"東京都","prefecture_kana":"トウキョウト","city":"港区","city_kana":"ミナトク","town":"東新橋汐留メディアタワー（２９階）","town_kana":"ヒガシシンバシシオドメメディアタワー(29カイ)","prefecture_code":13},"7230":{"zip_code":"1057230","prefecture":"東京都","prefecture_kana":"トウキョウト","city":"港区","city_kana":"ミナトク","town":"東新橋汐留メディアタワー（３０階）","town_kana":"ヒガシシンバシシオドメメディアタワー(30カイ)","prefecture_code":13},"7231":{"zip_code":"1057231","prefecture":"東京都","prefecture_kana":"トウキョウト","city":"港区","city_kana":"ミナトク","town":"東新橋汐留メディアタワー（３１階）","town_kana":"ヒガシシンバシシオドメメディアタワー(31カイ)","prefecture_code":13},"7232":{"zip_code":"1057232","prefecture":"東京都","prefecture_kana":"トウキョウト","city":"港区","city_kana":"ミナトク","town":"東新橋汐留メディアタワー（３２階）","town_kana":"ヒガシシンバシシオドメメディアタワー(32カイ)","prefecture_code":13},"7233":{"zip_code":"1057233","prefecture":"東京都","prefecture_kana":"トウキョウト","city":"港区","city_kana":"ミナトク","town":"東新橋汐留メディアタワー（３３階）","town_kana":"ヒガシシンバシシオドメメディアタワー(33カイ)","prefecture_code":13},"7234":{"zip_code":"1057234","prefecture":"東京都","prefecture_kana":"トウキョウト","city":"港区","city_kana":"ミナトク","town":"東新橋汐留メディアタワー（３４階）","town_kana":"ヒガシシンバシシオドメメディアタワー(34カイ)","prefecture_code":13},"7090":{"zip_code":"1057090","prefecture":"東京都","prefecture_kana":"トウキョウト","city":"港区","city_kana":"ミナトク","town":"東新橋電通本社ビル（地階・階層不明）","town_kana":"ヒガシシンバシデンツウホンシャビル(チカイ・カイソウフメイ)","prefecture_code":13},"7001":{"zip_code":"1057001","prefecture":"東京都","prefecture_kana":"トウキョウト","city":"港区","city_kana":"ミナトク","town":"東新橋電通本社ビル（１階）","town_kana":"ヒガシシンバシデンツウホンシャビル(1カイ)","prefecture_code":13},"7002":{"zip_code":"1057002","prefecture":"東京都","prefecture_kana":"トウキョウト","city":"港区","city_kana":"ミナトク","town":"東新橋電通本社ビル（２階）","town_kana":"ヒガシシンバシデンツウホンシャビル(2カイ)","prefecture_code":13},"7003":{"zip_code":"1057003","prefecture":"東京都","prefecture_kana":"トウキョウト","city":"港区","city_kana":"ミナトク","town":"東新橋電通本社ビル（３階）","town_kana":"ヒガシシンバシデンツウホンシャビル(3カイ)","prefecture_code":13},"7004":{"zip_code":"1057004","prefecture":"東京都","prefecture_kana":"トウキョウト","city":"港区","city_kana":"ミナトク","town":"東新橋電通本社ビル（４階）","town_kana":"ヒガシシンバシデンツウホンシャビル(4カイ)","prefecture_code":13},"7005":{"zip_code":"1057005","prefecture":"東京都","prefecture_kana":"トウキョウト","city":"港区","city_kana":"ミナトク","town":"東新橋電通本社ビル（５階）","town_kana":"ヒガシシンバシデンツウホンシャビル(5カイ)","prefecture_code":13},"7006":{"zip_code":"1057006","prefecture":"東京都","prefecture_kana":"トウキョウト","city":"港区","city_kana":"ミナトク","town":"東新橋電通本社ビル（６階）","town_kana":"ヒガシシンバシデンツウホンシャビル(6カイ)","prefecture_code":13},"7007":{"zip_code":"1057007","prefecture":"東京都","prefecture_kana":"トウキョウト","city":"港区","city_kana":"ミナトク","town":"東新橋電通本社ビル（７階）","town_kana":"ヒガシシンバシデンツウホンシャビル(7カイ)","prefecture_code":13},"7008":{"zip_code":"1057008","prefecture":"東京都","prefecture_kana":"トウキョウト","city":"港区","city_kana":"ミナトク","town":"東新橋電通本社ビル（８階）","town_kana":"ヒガシシンバシデンツウホンシャビル(8カイ)","prefecture_code":13},"7009":{"zip_code":"1057009","prefecture":"東京都","prefecture_kana":"トウキョウト","city":"港区","city_kana":"ミナトク","town":"東新橋電通本社ビル（９階）","town_kana":"ヒガシシンバシデンツウホンシャビル(9カイ)","prefecture_code":13},"7010":{"zip_code":"1057010","prefecture":"東京都","prefecture_kana":"トウキョウト","city":"港区","city_kana":"ミナトク","town":"東新橋電通本社ビル（１０階）","town_kana":"ヒガシシンバシデンツウホンシャビル(10カイ)","prefecture_code":13},"7011":{"zip_code":"1057011","prefecture":"東京都","prefecture_kana":"トウキョウト","city":"港区","city_kana":"ミナトク","town":"東新橋電通本社ビル（１１階）","town_kana":"ヒガシシンバシデンツウホンシャビル(11カイ)","prefecture_code":13},"7012":{"zip_code":"1057012","prefecture":"東京都","prefecture_kana":"トウキョウト","city":"港区","city_kana":"ミナトク","town":"東新橋電通本社ビル（１２階）","town_kana":"ヒガシシンバシデンツウホンシャビル(12カイ)","prefecture_code":13},"7013":{"zip_code":"1057013","prefecture":"東京都","prefecture_kana":"トウキョウト","city":"港区","city_kana":"ミナトク","town":"東新橋電通本社ビル（１３階）","town_kana":"ヒガシシンバシデンツウホンシャビル(13カイ)","prefecture_code":13},"7014":{"zip_code":"1057014","prefecture":"東京都","prefecture_kana":"トウキョウト","city":"港区","city_kana":"ミナトク","town":"東新橋電通本社ビル（１４階）","town_kana":"ヒガシシンバシデンツウホンシャビル(14カイ)","prefecture_code":13},"7015":{"zip_code":"1057015","prefecture":"東京都","prefecture_kana":"トウキョウト","city":"港区","city_kana":"ミナトク","town":"東新橋電通本社ビル（１５階）","town_kana":"ヒガシシンバシデンツウホンシャビル(15カイ)","prefecture_code":13},"7016":{"zip_code":"1057016","prefecture":"東京都","prefecture_kana":"トウキョウト","city":"港区","city_kana":"ミナトク","town":"東新橋電通本社ビル（１６階）","town_kana":"ヒガシシンバシデンツウホンシャビル(16カイ)","prefecture_code":13},"7017":{"zip_code":"1057017","prefecture":"東京都","prefecture_kana":"トウキョウト","city":"港区","city_kana":"ミナトク","town":"東新橋電通本社ビル（１７階）","town_kana":"ヒガシシンバシデンツウホンシャビル(17カイ)","prefecture_code":13},"7018":{"zip_code":"1057018","prefecture":"東京都","prefecture_kana":"トウキョウト","city":"港区","city_kana":"ミナトク","town":"東新橋電通本社ビル（１８階）","town_kana":"ヒガシシンバシデンツウホンシャビル(18カイ)","prefecture_code":13},"7019":{"zip_code":"1057019","prefecture":"東京都","prefecture_kana":"トウキョウト","city":"港区","city_kana":"ミナトク","town":"東新橋電通本社ビル（１９階）","town_kana":"ヒガシシンバシデンツウホンシャビル(19カイ)","prefecture_code":13},"7020":{"zip_code":"1057020","prefecture":"東京都","prefecture_kana":"トウキョウト","city":"港区","city_kana":"ミナトク","town":"東新橋電通本社ビル（２０階）","town_kana":"ヒガシシンバシデンツウホンシャビル(20カイ)","prefecture_code":13},"7021":{"zip_code":"1057021","prefecture":"東京都","prefecture_kana":"トウキョウト","city":"港区","city_kana":"ミナトク","town":"東新橋電通本社ビル（２１階）","town_kana":"ヒガシシンバシデンツウホンシャビル(21カイ)","prefecture_code":13},"7022":{"zip_code":"1057022","prefecture":"東京都","prefecture_kana":"トウキョウト","city":"港区","city_kana":"ミナトク","town":"東新橋電通本社ビル（２２階）","town_kana":"ヒガシシンバシデンツウホンシャビル(22カイ)","prefecture_code":13},"7023":{"zip_code":"1057023","prefecture":"東京都","prefecture_kana":"トウキョウト","city":"港区","city_kana":"ミナトク","town":"東新橋電通本社ビル（２３階）","town_kana":"ヒガシシンバシデンツウホンシャビル(23カイ)","prefecture_code":13},"7024":{"zip_code":"1057024","prefecture":"東京都","prefecture_kana":"トウキョウト","city":"港区","city_kana":"ミナトク","town":"東新橋電通本社ビル（２４階）","town_kana":"ヒガシシンバシデンツウホンシャビル(24カイ)","prefecture_code":13},"7025":{"zip_code":"1057025","prefecture":"東京都","prefecture_kana":"トウキョウト","city":"港区","city_kana":"ミナトク","town":"東新橋電通本社ビル（２５階）","town_kana":"ヒガシシンバシデンツウホンシャビル(25カイ)","prefecture_code":13},"7026":{"zip_code":"1057026","prefecture":"東京都","prefecture_kana":"トウキョウト","city":"港区","city_kana":"ミナトク","town":"東新橋電通本社ビル（２６階）","town_kana":"ヒガシシンバシデンツウホンシャビル(26カイ)","prefecture_code":13},"7027":{"zip_code":"1057027","prefecture":"東京都","prefecture_kana":"トウキョウト","city":"港区","city_kana":"ミナトク","town":"東新橋電通本社ビル（２７階）","town_kana":"ヒガシシンバシデンツウホンシャビル(27カイ)","prefecture_code":13},"7028":{"zip_code":"1057028","prefecture":"東京都","prefecture_kana":"トウキョウト","city":"港区","city_kana":"ミナトク","town":"東新橋電通本社ビル（２８階）","town_kana":"ヒガシシンバシデンツウホンシャビル(28カイ)","prefecture_code":13},"7029":{"zip_code":"1057029","prefecture":"東京都","prefecture_kana":"トウキョウト","city":"港区","city_kana":"ミナトク","town":"東新橋電通本社ビル（２９階）","town_kana":"ヒガシシンバシデンツウホンシャビル(29カイ)","prefecture_code":13},"7030":{"zip_code":"1057030","prefecture":"東京都","prefecture_kana":"トウキョウト","city":"港区","city_kana":"ミナトク","town":"東新橋電通本社ビル（３０階）","town_kana":"ヒガシシンバシデンツウホンシャビル(30カイ)","prefecture_code":13},"7031":{"zip_code":"1057031","prefecture":"東京都","prefecture_kana":"トウキョウト","city":"港区","city_kana":"ミナトク","town":"東新橋電通本社ビル（３１階）","town_kana":"ヒガシシンバシデンツウホンシャビル(31カイ)","prefecture_code":13},"7032":{"zip_code":"1057032","prefecture":"東京都","prefecture_kana":"トウキョウト","city":"港区","city_kana":"ミナトク","town":"東新橋電通本社ビル（３２階）","town_kana":"ヒガシシンバシデンツウホンシャビル(32カイ)","prefecture_code":13},"7033":{"zip_code":"1057033","prefecture":"東京都","prefecture_kana":"トウキョウト","city":"港区","city_kana":"ミナトク","town":"東新橋電通本社ビル（３３階）","town_kana":"ヒガシシンバシデンツウホンシャビル(33カイ)","prefecture_code":13},"7034":{"zip_code":"1057034","prefecture":"東京都","prefecture_kana":"トウキョウト","city":"港区","city_kana":"ミナトク","town":"東新橋電通本社ビル（３４階）","town_kana":"ヒガシシンバシデンツウホンシャビル(34カイ)","prefecture_code":13},"7035":{"zip_code":"1057035","prefecture":"東京都","prefecture_kana":"トウキョウト","city":"港区","city_kana":"ミナトク","town":"東新橋電通本社ビル（３５階）","town_kana":"ヒガシシンバシデンツウホンシャビル(35カイ)","prefecture_code":13},"7036":{"zip_code":"1057036","prefecture":"東京都","prefecture_kana":"トウキョウト","city":"港区","city_kana":"ミナトク","town":"東新橋電通本社ビル（３６階）","town_kana":"ヒガシシンバシデンツウホンシャビル(36カイ)","prefecture_code":13},"7037":{"zip_code":"1057037","prefecture":"東京都","prefecture_kana":"トウキョウト","city":"港区","city_kana":"ミナトク","town":"東新橋電通本社ビル（３７階）","town_kana":"ヒガシシンバシデンツウホンシャビル(37カイ)","prefecture_code":13},"7038":{"zip_code":"1057038","prefecture":"東京都","prefecture_kana":"トウキョウト","city":"港区","city_kana":"ミナトク","town":"東新橋電通本社ビル（３８階）","town_kana":"ヒガシシンバシデンツウホンシャビル(38カイ)","prefecture_code":13},"7039":{"zip_code":"1057039","prefecture":"東京都","prefecture_kana":"トウキョウト","city":"港区","city_kana":"ミナトク","town":"東新橋電通本社ビル（３９階）","town_kana":"ヒガシシンバシデンツウホンシャビル(39カイ)","prefecture_code":13},"7040":{"zip_code":"1057040","prefecture":"東京都","prefecture_kana":"トウキョウト","city":"港区","city_kana":"ミナトク","town":"東新橋電通本社ビル（４０階）","town_kana":"ヒガシシンバシデンツウホンシャビル(40カイ)","prefecture_code":13},"7041":{"zip_code":"1057041","prefecture":"東京都","prefecture_kana":"トウキョウト","city":"港区","city_kana":"ミナトク","town":"東新橋電通本社ビル（４１階）","town_kana":"ヒガシシンバシデンツウホンシャビル(41カイ)","prefecture_code":13},"7042":{"zip_code":"1057042","prefecture":"東京都","prefecture_kana":"トウキョウト","city":"港区","city_kana":"ミナトク","town":"東新橋電通本社ビル（４２階）","town_kana":"ヒガシシンバシデンツウホンシャビル(42カイ)","prefecture_code":13},"7043":{"zip_code":"1057043","prefecture":"東京都","prefecture_kana":"トウキョウト","city":"港区","city_kana":"ミナトク","town":"東新橋電通本社ビル（４３階）","town_kana":"ヒガシシンバシデンツウホンシャビル(43カイ)","prefecture_code":13},"7044":{"zip_code":"1057044","prefecture":"東京都","prefecture_kana":"トウキョウト","city":"港区","city_kana":"ミナトク","town":"東新橋電通本社ビル（４４階）","town_kana":"ヒガシシンバシデンツウホンシャビル(44カイ)","prefecture_code":13},"7045":{"zip_code":"1057045","prefecture":"東京都","prefecture_kana":"トウキョウト","city":"港区","city_kana":"ミナトク","town":"東新橋電通本社ビル（４５階）","town_kana":"ヒガシシンバシデンツウホンシャビル(45カイ)","prefecture_code":13},"7046":{"zip_code":"1057046","prefecture":"東京都","prefecture_kana":"トウキョウト","city":"港区","city_kana":"ミナトク","town":"東新橋電通本社ビル（４６階）","town_kana":"ヒガシシンバシデンツウホンシャビル(46カイ)","prefecture_code":13},"7047":{"zip_code":"1057047","prefecture":"東京都","prefecture_kana":"トウキョウト","city":"港区","city_kana":"ミナトク","town":"東新橋電通本社ビル（４７階）","town_kana":"ヒガシシンバシデンツウホンシャビル(47カイ)","prefecture_code":13},"7390":{"zip_code":"1057390","prefecture":"東京都","prefecture_kana":"トウキョウト","city":"港区","city_kana":"ミナトク","town":"東新橋東京汐留ビルディング（地階・階層不明）","town_kana":"ヒガシシンバシトウキョウシオドメビルディング(チカイ・カイソウフメイ)","prefecture_code":13},"7301":{"zip_code":"1057301","prefecture":"東京都","prefecture_kana":"トウキョウト","city":"港区","city_kana":"ミナトク","town":"東新橋東京汐留ビルディング（１階）","town_kana":"ヒガシシンバシトウキョウシオドメビルディング(1カイ)","prefecture_code":13},"7302":{"zip_code":"1057302","prefecture":"東京都","prefecture_kana":"トウキョウト","city":"港区","city_kana":"ミナトク","town":"東新橋東京汐留ビルディング（２階）","town_kana":"ヒガシシンバシトウキョウシオドメビルディング(2カイ)","prefecture_code":13},"7303":{"zip_code":"1057303","prefecture":"東京都","prefecture_kana":"トウキョウト","city":"港区","city_kana":"ミナトク","town":"東新橋東京汐留ビルディング（３階）","town_kana":"ヒガシシンバシトウキョウシオドメビルディング(3カイ)","prefecture_code":13},"7304":{"zip_code":"1057304","prefecture":"東京都","prefecture_kana":"トウキョウト","city":"港区","city_kana":"ミナトク","town":"東新橋東京汐留ビルディング（４階）","town_kana":"ヒガシシンバシトウキョウシオドメビルディング(4カイ)","prefecture_code":13},"7305":{"zip_code":"1057305","prefecture":"東京都","prefecture_kana":"トウキョウト","city":"港区","city_kana":"ミナトク","town":"東新橋東京汐留ビルディング（５階）","town_kana":"ヒガシシンバシトウキョウシオドメビルディング(5カイ)","prefecture_code":13},"7306":{"zip_code":"1057306","prefecture":"東京都","prefecture_kana":"トウキョウト","city":"港区","city_kana":"ミナトク","town":"東新橋東京汐留ビルディング（６階）","town_kana":"ヒガシシンバシトウキョウシオドメビルディング(6カイ)","prefecture_code":13},"7307":{"zip_code":"1057307","prefecture":"東京都","prefecture_kana":"トウキョウト","city":"港区","city_kana":"ミナトク","town":"東新橋東京汐留ビルディング（７階）","town_kana":"ヒガシシンバシトウキョウシオドメビルディング(7カイ)","prefecture_code":13},"7308":{"zip_code":"1057308","prefecture":"東京都","prefecture_kana":"トウキョウト","city":"港区","city_kana":"ミナトク","town":"東新橋東京汐留ビルディング（８階）","town_kana":"ヒガシシンバシトウキョウシオドメビルディング(8カイ)","prefecture_code":13},"7309":{"zip_code":"1057309","prefecture":"東京都","prefecture_kana":"トウキョウト","city":"港区","city_kana":"ミナトク","town":"東新橋東京汐留ビルディング（９階）","town_kana":"ヒガシシンバシトウキョウシオドメビルディング(9カイ)","prefecture_code":13},"7310":{"zip_code":"1057310","prefecture":"東京都","prefecture_kana":"トウキョウト","city":"港区","city_kana":"ミナトク","town":"東新橋東京汐留ビルディング（１０階）","town_kana":"ヒガシシンバシトウキョウシオドメビルディング(10カイ)","prefecture_code":13},"7311":{"zip_code":"1057311","prefecture":"東京都","prefecture_kana":"トウキョウト","city":"港区","city_kana":"ミナトク","town":"東新橋東京汐留ビルディング（１１階）","town_kana":"ヒガシシンバシトウキョウシオドメビルディング(11カイ)","prefecture_code":13},"7312":{"zip_code":"1057312","prefecture":"東京都","prefecture_kana":"トウキョウト","city":"港区","city_kana":"ミナトク","town":"東新橋東京汐留ビルディング（１２階）","town_kana":"ヒガシシンバシトウキョウシオドメビルディング(12カイ)","prefecture_code":13},"7313":{"zip_code":"1057313","prefecture":"東京都","prefecture_kana":"トウキョウト","city":"港区","city_kana":"ミナトク","town":"東新橋東京汐留ビルディング（１３階）","town_kana":"ヒガシシンバシトウキョウシオドメビルディング(13カイ)","prefecture_code":13},"7314":{"zip_code":"1057314","prefecture":"東京都","prefecture_kana":"トウキョウト","city":"港区","city_kana":"ミナトク","town":"東新橋東京汐留ビルディング（１４階）","town_kana":"ヒガシシンバシトウキョウシオドメビルディング(14カイ)","prefecture_code":13},"7315":{"zip_code":"1057315","prefecture":"東京都","prefecture_kana":"トウキョウト","city":"港区","city_kana":"ミナトク","town":"東新橋東京汐留ビルディング（１５階）","town_kana":"ヒガシシンバシトウキョウシオドメビルディング(15カイ)","prefecture_code":13},"7316":{"zip_code":"1057316","prefecture":"東京都","prefecture_kana":"トウキョウト","city":"港区","city_kana":"ミナトク","town":"東新橋東京汐留ビルディング（１６階）","town_kana":"ヒガシシンバシトウキョウシオドメビルディング(16カイ)","prefecture_code":13},"7317":{"zip_code":"1057317","prefecture":"東京都","prefecture_kana":"トウキョウト","city":"港区","city_kana":"ミナトク","town":"東新橋東京汐留ビルディング（１７階）","town_kana":"ヒガシシンバシトウキョウシオドメビルディング(17カイ)","prefecture_code":13},"7318":{"zip_code":"1057318","prefecture":"東京都","prefecture_kana":"トウキョウト","city":"港区","city_kana":"ミナトク","town":"東新橋東京汐留ビルディング（１８階）","town_kana":"ヒガシシンバシトウキョウシオドメビルディング(18カイ)","prefecture_code":13},"7319":{"zip_code":"1057319","prefecture":"東京都","prefecture_kana":"トウキョウト","city":"港区","city_kana":"ミナトク","town":"東新橋東京汐留ビルディング（１９階）","town_kana":"ヒガシシンバシトウキョウシオドメビルディング(19カイ)","prefecture_code":13},"7320":{"zip_code":"1057320","prefecture":"東京都","prefecture_kana":"トウキョウト","city":"港区","city_kana":"ミナトク","town":"東新橋東京汐留ビルディング（２０階）","town_kana":"ヒガシシンバシトウキョウシオドメビルディング(20カイ)","prefecture_code":13},"7321":{"zip_code":"1057321","prefecture":"東京都","prefecture_kana":"トウキョウト","city":"港区","city_kana":"ミナトク","town":"東新橋東京汐留ビルディング（２１階）","town_kana":"ヒガシシンバシトウキョウシオドメビルディング(21カイ)","prefecture_code":13},"7322":{"zip_code":"1057322","prefecture":"東京都","prefecture_kana":"トウキョウト","city":"港区","city_kana":"ミナトク","town":"東新橋東京汐留ビルディング（２２階）","town_kana":"ヒガシシンバシトウキョウシオドメビルディング(22カイ)","prefecture_code":13},"7323":{"zip_code":"1057323","prefecture":"東京都","prefecture_kana":"トウキョウト","city":"港区","city_kana":"ミナトク","town":"東新橋東京汐留ビルディング（２３階）","town_kana":"ヒガシシンバシトウキョウシオドメビルディング(23カイ)","prefecture_code":13},"7324":{"zip_code":"1057324","prefecture":"東京都","prefecture_kana":"トウキョウト","city":"港区","city_kana":"ミナトク","town":"東新橋東京汐留ビルディング（２４階）","town_kana":"ヒガシシンバシトウキョウシオドメビルディング(24カイ)","prefecture_code":13},"7325":{"zip_code":"1057325","prefecture":"東京都","prefecture_kana":"トウキョウト","city":"港区","city_kana":"ミナトク","town":"東新橋東京汐留ビルディング（２５階）","town_kana":"ヒガシシンバシトウキョウシオドメビルディング(25カイ)","prefecture_code":13},"7326":{"zip_code":"1057326","prefecture":"東京都","prefecture_kana":"トウキョウト","city":"港区","city_kana":"ミナトク","town":"東新橋東京汐留ビルディング（２６階）","town_kana":"ヒガシシンバシトウキョウシオドメビルディング(26カイ)","prefecture_code":13},"7327":{"zip_code":"1057327","prefecture":"東京都","prefecture_kana":"トウキョウト","city":"港区","city_kana":"ミナトク","town":"東新橋東京汐留ビルディング（２７階）","town_kana":"ヒガシシンバシトウキョウシオドメビルディング(27カイ)","prefecture_code":13},"7328":{"zip_code":"1057328","prefecture":"東京都","prefecture_kana":"トウキョウト","city":"港区","city_kana":"ミナトク","town":"東新橋東京汐留ビルディング（２８階）","town_kana":"ヒガシシンバシトウキョウシオドメビルディング(28カイ)","prefecture_code":13},"7329":{"zip_code":"1057329","prefecture":"東京都","prefecture_kana":"トウキョウト","city":"港区","city_kana":"ミナトク","town":"東新橋東京汐留ビルディング（２９階）","town_kana":"ヒガシシンバシトウキョウシオドメビルディング(29カイ)","prefecture_code":13},"7330":{"zip_code":"1057330","prefecture":"東京都","prefecture_kana":"トウキョウト","city":"港区","city_kana":"ミナトク","town":"東新橋東京汐留ビルディング（３０階）","town_kana":"ヒガシシンバシトウキョウシオドメビルディング(30カイ)","prefecture_code":13},"7331":{"zip_code":"1057331","prefecture":"東京都","prefecture_kana":"トウキョウト","city":"港区","city_kana":"ミナトク","town":"東新橋東京汐留ビルディング（３１階）","town_kana":"ヒガシシンバシトウキョウシオドメビルディング(31カイ)","prefecture_code":13},"7332":{"zip_code":"1057332","prefecture":"東京都","prefecture_kana":"トウキョウト","city":"港区","city_kana":"ミナトク","town":"東新橋東京汐留ビルディング（３２階）","town_kana":"ヒガシシンバシトウキョウシオドメビルディング(32カイ)","prefecture_code":13},"7333":{"zip_code":"1057333","prefecture":"東京都","prefecture_kana":"トウキョウト","city":"港区","city_kana":"ミナトク","town":"東新橋東京汐留ビルディング（３３階）","town_kana":"ヒガシシンバシトウキョウシオドメビルディング(33カイ)","prefecture_code":13},"7334":{"zip_code":"1057334","prefecture":"東京都","prefecture_kana":"トウキョウト","city":"港区","city_kana":"ミナトク","town":"東新橋東京汐留ビルディング（３４階）","town_kana":"ヒガシシンバシトウキョウシオドメビルディング(34カイ)","prefecture_code":13},"7335":{"zip_code":"1057335","prefecture":"東京都","prefecture_kana":"トウキョウト","city":"港区","city_kana":"ミナトク","town":"東新橋東京汐留ビルディング（３５階）","town_kana":"ヒガシシンバシトウキョウシオドメビルディング(35カイ)","prefecture_code":13},"7336":{"zip_code":"1057336","prefecture":"東京都","prefecture_kana":"トウキョウト","city":"港区","city_kana":"ミナトク","town":"東新橋東京汐留ビルディング（３６階）","town_kana":"ヒガシシンバシトウキョウシオドメビルディング(36カイ)","prefecture_code":13},"7337":{"zip_code":"1057337","prefecture":"東京都","prefecture_kana":"トウキョウト","city":"港区","city_kana":"ミナトク","town":"東新橋東京汐留ビルディング（３７階）","town_kana":"ヒガシシンバシトウキョウシオドメビルディング(37カイ)","prefecture_code":13},"7490":{"zip_code":"1057490","prefecture":"東京都","prefecture_kana":"トウキョウト","city":"港区","city_kana":"ミナトク","town":"東新橋日本テレビタワー（地階・階層不明）","town_kana":"ヒガシシンバシニホンテレビタワー(チカイ・カイソウフメイ)","prefecture_code":13},"7401":{"zip_code":"1057401","prefecture":"東京都","prefecture_kana":"トウキョウト","city":"港区","city_kana":"ミナトク","town":"東新橋日本テレビタワー（１階）","town_kana":"ヒガシシンバシニホンテレビタワー(1カイ)","prefecture_code":13},"7402":{"zip_code":"1057402","prefecture":"東京都","prefecture_kana":"トウキョウト","city":"港区","city_kana":"ミナトク","town":"東新橋日本テレビタワー（２階）","town_kana":"ヒガシシンバシニホンテレビタワー(2カイ)","prefecture_code":13},"7403":{"zip_code":"1057403","prefecture":"東京都","prefecture_kana":"トウキョウト","city":"港区","city_kana":"ミナトク","town":"東新橋日本テレビタワー（３階）","town_kana":"ヒガシシンバシニホンテレビタワー(3カイ)","prefecture_code":13},"7404":{"zip_code":"1057404","prefecture":"東京都","prefecture_kana":"トウキョウト","city":"港区","city_kana":"ミナトク","town":"東新橋日本テレビタワー（４階）","town_kana":"ヒガシシンバシニホンテレビタワー(4カイ)","prefecture_code":13},"7405":{"zip_code":"1057405","prefecture":"東京都","prefecture_kana":"トウキョウト","city":"港区","city_kana":"ミナトク","town":"東新橋日本テレビタワー（５階）","town_kana":"ヒガシシンバシニホンテレビタワー(5カイ)","prefecture_code":13},"7406":{"zip_code":"1057406","prefecture":"東京都","prefecture_kana":"トウキョウト","city":"港区","city_kana":"ミナトク","town":"東新橋日本テレビタワー（６階）","town_kana":"ヒガシシンバシニホンテレビタワー(6カイ)","prefecture_code":13},"7407":{"zip_code":"1057407","prefecture":"東京都","prefecture_kana":"トウキョウト","city":"港区","city_kana":"ミナトク","town":"東新橋日本テレビタワー（７階）","town_kana":"ヒガシシンバシニホンテレビタワー(7カイ)","prefecture_code":13},"7408":{"zip_code":"1057408","prefecture":"東京都","prefecture_kana":"トウキョウト","city":"港区","city_kana":"ミナトク","town":"東新橋日本テレビタワー（８階）","town_kana":"ヒガシシンバシニホンテレビタワー(8カイ)","prefecture_code":13},"7409":{"zip_code":"1057409","prefecture":"東京都","prefecture_kana":"トウキョウト","city":"港区","city_kana":"ミナトク","town":"東新橋日本テレビタワー（９階）","town_kana":"ヒガシシンバシニホンテレビタワー(9カイ)","prefecture_code":13},"7410":{"zip_code":"1057410","prefecture":"東京都","prefecture_kana":"トウキョウト","city":"港区","city_kana":"ミナトク","town":"東新橋日本テレビタワー（１０階）","town_kana":"ヒガシシンバシニホンテレビタワー(10カイ)","prefecture_code":13},"7411":{"zip_code":"1057411","prefecture":"東京都","prefecture_kana":"トウキョウト","city":"港区","city_kana":"ミナトク","town":"東新橋日本テレビタワー（１１階）","town_kana":"ヒガシシンバシニホンテレビタワー(11カイ)","prefecture_code":13},"7412":{"zip_code":"1057412","prefecture":"東京都","prefecture_kana":"トウキョウト","city":"港区","city_kana":"ミナトク","town":"東新橋日本テレビタワー（１２階）","town_kana":"ヒガシシンバシニホンテレビタワー(12カイ)","prefecture_code":13},"7413":{"zip_code":"1057413","prefecture":"東京都","prefecture_kana":"トウキョウト","city":"港区","city_kana":"ミナトク","town":"東新橋日本テレビタワー（１３階）","town_kana":"ヒガシシンバシニホンテレビタワー(13カイ)","prefecture_code":13},"7414":{"zip_code":"1057414","prefecture":"東京都","prefecture_kana":"トウキョウト","city":"港区","city_kana":"ミナトク","town":"東新橋日本テレビタワー（１４階）","town_kana":"ヒガシシンバシニホンテレビタワー(14カイ)","prefecture_code":13},"7415":{"zip_code":"1057415","prefecture":"東京都","prefecture_kana":"トウキョウト","city":"港区","city_kana":"ミナトク","town":"東新橋日本テレビタワー（１５階）","town_kana":"ヒガシシンバシニホンテレビタワー(15カイ)","prefecture_code":13},"7416":{"zip_code":"1057416","prefecture":"東京都","prefecture_kana":"トウキョウト","city":"港区","city_kana":"ミナトク","town":"東新橋日本テレビタワー（１６階）","town_kana":"ヒガシシンバシニホンテレビタワー(16カイ)","prefecture_code":13},"7417":{"zip_code":"1057417","prefecture":"東京都","prefecture_kana":"トウキョウト","city":"港区","city_kana":"ミナトク","town":"東新橋日本テレビタワー（１７階）","town_kana":"ヒガシシンバシニホンテレビタワー(17カイ)","prefecture_code":13},"7418":{"zip_code":"1057418","prefecture":"東京都","prefecture_kana":"トウキョウト","city":"港区","city_kana":"ミナトク","town":"東新橋日本テレビタワー（１８階）","town_kana":"ヒガシシンバシニホンテレビタワー(18カイ)","prefecture_code":13},"7419":{"zip_code":"1057419","prefecture":"東京都","prefecture_kana":"トウキョウト","city":"港区","city_kana":"ミナトク","town":"東新橋日本テレビタワー（１９階）","town_kana":"ヒガシシンバシニホンテレビタワー(19カイ)","prefecture_code":13},"7420":{"zip_code":"1057420","prefecture":"東京都","prefecture_kana":"トウキョウト","city":"港区","city_kana":"ミナトク","town":"東新橋日本テレビタワー（２０階）","town_kana":"ヒガシシンバシニホンテレビタワー(20カイ)","prefecture_code":13},"7421":{"zip_code":"1057421","prefecture":"東京都","prefecture_kana":"トウキョウト","city":"港区","city_kana":"ミナトク","town":"東新橋日本テレビタワー（２１階）","town_kana":"ヒガシシンバシニホンテレビタワー(21カイ)","prefecture_code":13},"7422":{"zip_code":"1057422","prefecture":"東京都","prefecture_kana":"トウキョウト","city":"港区","city_kana":"ミナトク","town":"東新橋日本テレビタワー（２２階）","town_kana":"ヒガシシンバシニホンテレビタワー(22カイ)","prefecture_code":13},"7423":{"zip_code":"1057423","prefecture":"東京都","prefecture_kana":"トウキョウト","city":"港区","city_kana":"ミナトク","town":"東新橋日本テレビタワー（２３階）","town_kana":"ヒガシシンバシニホンテレビタワー(23カイ)","prefecture_code":13},"7424":{"zip_code":"1057424","prefecture":"東京都","prefecture_kana":"トウキョウト","city":"港区","city_kana":"ミナトク","town":"東新橋日本テレビタワー（２４階）","town_kana":"ヒガシシンバシニホンテレビタワー(24カイ)","prefecture_code":13},"7425":{"zip_code":"1057425","prefecture":"東京都","prefecture_kana":"トウキョウト","city":"港区","city_kana":"ミナトク","town":"東新橋日本テレビタワー（２５階）","town_kana":"ヒガシシンバシニホンテレビタワー(25カイ)","prefecture_code":13},"7426":{"zip_code":"1057426","prefecture":"東京都","prefecture_kana":"トウキョウト","city":"港区","city_kana":"ミナトク","town":"東新橋日本テレビタワー（２６階）","town_kana":"ヒガシシンバシニホンテレビタワー(26カイ)","prefecture_code":13},"7427":{"zip_code":"1057427","prefecture":"東京都","prefecture_kana":"トウキョウト","city":"港区","city_kana":"ミナトク","town":"東新橋日本テレビタワー（２７階）","town_kana":"ヒガシシンバシニホンテレビタワー(27カイ)","prefecture_code":13},"7428":{"zip_code":"1057428","prefecture":"東京都","prefecture_kana":"トウキョウト","city":"港区","city_kana":"ミナトク","town":"東新橋日本テレビタワー（２８階）","town_kana":"ヒガシシンバシニホンテレビタワー(28カイ)","prefecture_code":13},"7429":{"zip_code":"1057429","prefecture":"東京都","prefecture_kana":"トウキョウト","city":"港区","city_kana":"ミナトク","town":"東新橋日本テレビタワー（２９階）","town_kana":"ヒガシシンバシニホンテレビタワー(29カイ)","prefecture_code":13},"7430":{"zip_code":"1057430","prefecture":"東京都","prefecture_kana":"トウキョウト","city":"港区","city_kana":"ミナトク","town":"東新橋日本テレビタワー（３０階）","town_kana":"ヒガシシンバシニホンテレビタワー(30カイ)","prefecture_code":13},"7431":{"zip_code":"1057431","prefecture":"東京都","prefecture_kana":"トウキョウト","city":"港区","city_kana":"ミナトク","town":"東新橋日本テレビタワー（３１階）","town_kana":"ヒガシシンバシニホンテレビタワー(31カイ)","prefecture_code":13},"7432":{"zip_code":"1057432","prefecture":"東京都","prefecture_kana":"トウキョウト","city":"港区","city_kana":"ミナトク","town":"東新橋日本テレビタワー（３２階）","town_kana":"ヒガシシンバシニホンテレビタワー(32カイ)","prefecture_code":13}}