{"0045":{"zip_code":"1060045","prefecture":"東京都","prefecture_kana":"トウキョウト","city":"港区","city_kana":"ミナトク","town":"麻布十番","town_kana":"アザブジュウバン","prefecture_code":13},"0041":{"zip_code":"1060041","prefecture":"東京都","prefecture_kana":"トウキョウト","city":"港区","city_kana":"ミナトク","town":"麻布台","town_kana":"アザブダイ","prefecture_code":13},"0043":{"zip_code":"1060043","prefecture":"東京都","prefecture_kana":"トウキョウト","city":"港区","city_kana":"ミナトク","town":"麻布永坂町","town_kana":"アザブナガサカチョウ","prefecture_code":13},"0042":{"zip_code":"1060042","prefecture":"東京都","prefecture_kana":"トウキョウト","city":"港区","city_kana":"ミナトク","town":"麻布狸穴町","town_kana":"アザブマミアナチョウ","prefecture_code":13},"0031":{"zip_code":"1060031","prefecture":"東京都","prefecture_kana":"トウキョウト","city":"港区","city_kana":"ミナトク","town":"西麻布","town_kana":"ニシアザブ","prefecture_code":13},"0044":{"zip_code":"1060044","prefecture":"東京都","prefecture_kana":"トウキョウト","city":"港区","city_kana":"ミナトク","town":"東麻布","town_kana":"ヒガシアザブ","prefecture_code":13},"0047":{"zip_code":"1060047","prefecture":"東京都","prefecture_kana":"トウキョウト","city":"港区","city_kana":"ミナトク","town":"南麻布","town_kana":"ミナミアザブ","prefecture_code":13},"0046":{"zip_code":"1060046","prefecture":"東京都","prefecture_kana":"トウキョウト","city":"港区","city_kana":"ミナトク","town":"元麻布","town_kana":"モトアザブ","prefecture_code":13},"0032":{"zip_code":"1060032","prefecture":"東京都","prefecture_kana":"トウキョウト","city":"港区","city_kana":"ミナトク","town":"六本木（次のビルを除く）","town_kana":"ロッポンギ(ツギノビルヲノゾク)","prefecture_code":13},"6090":{"zip_code":"1066090","prefecture":"東京都","prefecture_kana":"トウキョウト","city":"港区","city_kana":"ミナトク","town":"六本木泉ガーデンタワー（地階・階層不明）","town_kana":"ロッポンギイズミガーデンタワー(チカイ・カイソウフメイ)","prefecture_code":13},"6001":{"zip_code":"1066001","prefecture":"東京都","prefecture_kana":"トウキョウト","city":"港区","city_kana":"ミナトク","town":"六本木泉ガーデンタワー（１階）","town_kana":"ロッポンギイズミガーデンタワー(1カイ)","prefecture_code":13},"6002":{"zip_code":"1066002","prefecture":"東京都","prefecture_kana":"トウキョウト","city":"港区","city_kana":"ミナトク","town":"六本木泉ガーデンタワー（２階）","town_kana":"ロッポンギイズミガーデンタワー(2カイ)","prefecture_code":13},"6003":{"zip_code":"1066003","prefecture":"東京都","prefecture_kana":"トウキョウト","city":"港区","city_kana":"ミナトク","town":"六本木泉ガーデンタワー（３階）","town_kana":"ロッポンギイズミガーデンタワー(3カイ)","prefecture_code":13},"6004":{"zip_code":"1066004","prefecture":"東京都","prefecture_kana":"トウキョウト","city":"港区","city_kana":"ミナトク","town":"六本木泉ガーデンタワー（４階）","town_kana":"ロッポンギイズミガーデンタワー(4カイ)","prefecture_code":13},"6005":{"zip_code":"1066005","prefecture":"東京都","prefecture_kana":"トウキョウト","city":"港区","city_kana":"ミナトク","town":"六本木泉ガーデンタワー（５階）","town_kana":"ロッポンギイズミガーデンタワー(5カイ)","prefecture_code":13},"6006":{"zip_code":"1066006","prefecture":"東京都","prefecture_kana":"トウキョウト","city":"港区","city_kana":"ミナトク","town":"六本木泉ガーデンタワー（６階）","town_kana":"ロッポンギイズミガーデンタワー(6カイ)","prefecture_code":13},"6007":{"zip_code":"1066007","prefecture":"東京都","prefecture_kana":"トウキョウト","city":"港区","city_kana":"ミナトク","town":"六本木泉ガーデンタワー（７階）","town_kana":"ロッポンギイズミガーデンタワー(7カイ)","prefecture_code":13},"6008":{"zip_code":"1066008","prefecture":"東京都","prefecture_kana":"トウキョウト","city":"港区","city_kana":"ミナトク","town":"六本木泉ガーデンタワー（８階）","town_kana":"ロッポンギイズミガーデンタワー(8カイ)","prefecture_code":13},"6009":{"zip_code":"1066009","prefecture":"東京都","prefecture_kana":"トウキョウト","city":"港区","city_kana":"ミナトク","town":"六本木泉ガーデンタワー（９階）","town_kana":"ロッポンギイズミガーデンタワー(9カイ)","prefecture_code":13},"6010":{"zip_code":"1066010","prefecture":"東京都","prefecture_kana":"トウキョウト","city":"港区","city_kana":"ミナトク","town":"六本木泉ガーデンタワー（１０階）","town_kana":"ロッポンギイズミガーデンタワー(10カイ)","prefecture_code":13},"6011":{"zip_code":"1066011","prefecture":"東京都","prefecture_kana":"トウキョウト","city":"港区","city_kana":"ミナトク","town":"六本木泉ガーデンタワー（１１階）","town_kana":"ロッポンギイズミガーデンタワー(11カイ)","prefecture_code":13},"6012":{"zip_code":"1066012","prefecture":"東京都","prefecture_kana":"トウキョウト","city":"港区","city_kana":"ミナトク","town":"六本木泉ガーデンタワー（１２階）","town_kana":"ロッポンギイズミガーデンタワー(12カイ)","prefecture_code":13},"6013":{"zip_code":"1066013","prefecture":"東京都","prefecture_kana":"トウキョウト","city":"港区","city_kana":"ミナトク","town":"六本木泉ガーデンタワー（１３階）","town_kana":"ロッポンギイズミガーデンタワー(13カイ)","prefecture_code":13},"6014":{"zip_code":"1066014","prefecture":"東京都","prefecture_kana":"トウキョウト","city":"港区","city_kana":"ミナトク","town":"六本木泉ガーデンタワー（１４階）","town_kana":"ロッポンギイズミガーデンタワー(14カイ)","prefecture_code":13},"6015":{"zip_code":"1066015","prefecture":"東京都","prefecture_kana":"トウキョウト","city":"港区","city_kana":"ミナトク","town":"六本木泉ガーデンタワー（１５階）","town_kana":"ロッポンギイズミガーデンタワー(15カイ)","prefecture_code":13},"6016":{"zip_code":"1066016","prefecture":"東京都","prefecture_kana":"トウキョウト","city":"港区","city_kana":"ミナトク","town":"六本木泉ガーデンタワー（１６階）","town_kana":"ロッポンギイズミガーデンタワー(16カイ)","prefecture_code":13},"6017":{"zip_code":"1066017","prefecture":"東京都","prefecture_kana":"トウキョウト","city":"港区","city_kana":"ミナトク","town":"六本木泉ガーデンタワー（１７階）","town_kana":"ロッポンギイズミガーデンタワー(17カイ)","prefecture_code":13},"6018":{"zip_code":"1066018","prefecture":"東京都","prefecture_kana":"トウキョウト","city":"港区","city_kana":"ミナトク","town":"六本木泉ガーデンタワー（１８階）","town_kana":"ロッポンギイズミガーデンタワー(18カイ)","prefecture_code":13},"6019":{"zip_code":"1066019","prefecture":"東京都","prefecture_kana":"トウキョウト","city":"港区","city_kana":"ミナトク","town":"六本木泉ガーデンタワー（１９階）","town_kana":"ロッポンギイズミガーデンタワー(19カイ)","prefecture_code":13},"6020":{"zip_code":"1066020","prefecture":"東京都","prefecture_kana":"トウキョウト","city":"港区","city_kana":"ミナトク","town":"六本木泉ガーデンタワー（２０階）","town_kana":"ロッポンギイズミガーデンタワー(20カイ)","prefecture_code":13},"6021":{"zip_code":"1066021","prefecture":"東京都","prefecture_kana":"トウキョウト","city":"港区","city_kana":"ミナトク","town":"六本木泉ガーデンタワー（２１階）","town_kana":"ロッポンギイズミガーデンタワー(21カイ)","prefecture_code":13},"6022":{"zip_code":"1066022","prefecture":"東京都","prefecture_kana":"トウキョウト","city":"港区","city_kana":"ミナトク","town":"六本木泉ガーデンタワー（２２階）","town_kana":"ロッポンギイズミガーデンタワー(22カイ)","prefecture_code":13},"6023":{"zip_code":"1066023","prefecture":"東京都","prefecture_kana":"トウキョウト","city":"港区","city_kana":"ミナトク","town":"六本木泉ガーデンタワー（２３階）","town_kana":"ロッポンギイズミガーデンタワー(23カイ)","prefecture_code":13},"6024":{"zip_code":"1066024","prefecture":"東京都","prefecture_kana":"トウキョウト","city":"港区","city_kana":"ミナトク","town":"六本木泉ガーデンタワー（２４階）","town_kana":"ロッポンギイズミガーデンタワー(24カイ)","prefecture_code":13},"6025":{"zip_code":"1066025","prefecture":"東京都","prefecture_kana":"トウキョウト","city":"港区","city_kana":"ミナトク","town":"六本木泉ガーデンタワー（２５階）","town_kana":"ロッポンギイズミガーデンタワー(25カイ)","prefecture_code":13},"6026":{"zip_code":"1066026","prefecture":"東京都","prefecture_kana":"トウキョウト","city":"港区","city_kana":"ミナトク","town":"六本木泉ガーデンタワー（２６階）","town_kana":"ロッポンギイズミガーデンタワー(26カイ)","prefecture_code":13},"6027":{"zip_code":"1066027","prefecture":"東京都","prefecture_kana":"トウキョウト","city":"港区","city_kana":"ミナトク","town":"六本木泉ガーデンタワー（２７階）","town_kana":"ロッポンギイズミガーデンタワー(27カイ)","prefecture_code":13},"6028":{"zip_code":"1066028","prefecture":"東京都","prefecture_kana":"トウキョウト","city":"港区","city_kana":"ミナトク","town":"六本木泉ガーデンタワー（２８階）","town_kana":"ロッポンギイズミガーデンタワー(28カイ)","prefecture_code":13},"6029":{"zip_code":"1066029","prefecture":"東京都","prefecture_kana":"トウキョウト","city":"港区","city_kana":"ミナトク","town":"六本木泉ガーデンタワー（２９階）","town_kana":"ロッポンギイズミガーデンタワー(29カイ)","prefecture_code":13},"6030":{"zip_code":"1066030","prefecture":"東京都","prefecture_kana":"トウキョウト","city":"港区","city_kana":"ミナトク","town":"六本木泉ガーデンタワー（３０階）","town_kana":"ロッポンギイズミガーデンタワー(30カイ)","prefecture_code":13},"6031":{"zip_code":"1066031","prefecture":"東京都","prefecture_kana":"トウキョウト","city":"港区","city_kana":"ミナトク","town":"六本木泉ガーデンタワー（３１階）","town_kana":"ロッポンギイズミガーデンタワー(31カイ)","prefecture_code":13},"6032":{"zip_code":"1066032","prefecture":"東京都","prefecture_kana":"トウキョウト","city":"港区","city_kana":"ミナトク","town":"六本木泉ガーデンタワー（３２階）","town_kana":"ロッポンギイズミガーデンタワー(32カイ)","prefecture_code":13},"6033":{"zip_code":"1066033","prefecture":"東京都","prefecture_kana":"トウキョウト","city":"港区","city_kana":"ミナトク","town":"六本木泉ガーデンタワー（３３階）","town_kana":"ロッポンギイズミガーデンタワー(33カイ)","prefecture_code":13},"6034":{"zip_code":"1066034","prefecture":"東京都","prefecture_kana":"トウキョウト","city":"港区","city_kana":"ミナトク","town":"六本木泉ガーデンタワー（３４階）","town_kana":"ロッポンギイズミガーデンタワー(34カイ)","prefecture_code":13},"6035":{"zip_code":"1066035","prefecture":"東京都","prefecture_kana":"トウキョウト","city":"港区","city_kana":"ミナトク","town":"六本木泉ガーデンタワー（３５階）","town_kana":"ロッポンギイズミガーデンタワー(35カイ)","prefecture_code":13},"6036":{"zip_code":"1066036","prefecture":"東京都","prefecture_kana":"トウキョウト","city":"港区","city_kana":"ミナトク","town":"六本木泉ガーデンタワー（３６階）","town_kana":"ロッポンギイズミガーデンタワー(36カイ)","prefecture_code":13},"6037":{"zip_code":"1066037","prefecture":"東京都","prefecture_kana":"トウキョウト","city":"港区","city_kana":"ミナトク","town":"六本木泉ガーデンタワー（３７階）","town_kana":"ロッポンギイズミガーデンタワー(37カイ)","prefecture_code":13},"6038":{"zip_code":"1066038","prefecture":"東京都","prefecture_kana":"トウキョウト","city":"港区","city_kana":"ミナトク","town":"六本木泉ガーデンタワー（３８階）","town_kana":"ロッポンギイズミガーデンタワー(38カイ)","prefecture_code":13},"6039":{"zip_code":"1066039","prefecture":"東京都","prefecture_kana":"トウキョウト","city":"港区","city_kana":"ミナトク","town":"六本木泉ガーデンタワー（３９階）","town_kana":"ロッポンギイズミガーデンタワー(39カイ)","prefecture_code":13},"6040":{"zip_code":"1066040","prefecture":"東京都","prefecture_kana":"トウキョウト","city":"港区","city_kana":"ミナトク","town":"六本木泉ガーデンタワー（４０階）","town_kana":"ロッポンギイズミガーデンタワー(40カイ)","prefecture_code":13},"6041":{"zip_code":"1066041","prefecture":"東京都","prefecture_kana":"トウキョウト","city":"港区","city_kana":"ミナトク","town":"六本木泉ガーデンタワー（４１階）","town_kana":"ロッポンギイズミガーデンタワー(41カイ)","prefecture_code":13},"6042":{"zip_code":"1066042","prefecture":"東京都","prefecture_kana":"トウキョウト","city":"港区","city_kana":"ミナトク","town":"六本木泉ガーデンタワー（４２階）","town_kana":"ロッポンギイズミガーデンタワー(42カイ)","prefecture_code":13},"6043":{"zip_code":"1066043","prefecture":"東京都","prefecture_kana":"トウキョウト","city":"港区","city_kana":"ミナトク","town":"六本木泉ガーデンタワー（４３階）","town_kana":"ロッポンギイズミガーデンタワー(43カイ)","prefecture_code":13},"6044":{"zip_code":"1066044","prefecture":"東京都","prefecture_kana":"トウキョウト","city":"港区","city_kana":"ミナトク","town":"六本木泉ガーデンタワー（４４階）","town_kana":"ロッポンギイズミガーデンタワー(44カイ)","prefecture_code":13},"6045":{"zip_code":"1066045","prefecture":"東京都","prefecture_kana":"トウキョウト","city":"港区","city_kana":"ミナトク","town":"六本木泉ガーデンタワー（４５階）","town_kana":"ロッポンギイズミガーデンタワー(45カイ)","prefecture_code":13},"6190":{"zip_code":"1066190","prefecture":"東京都","prefecture_kana":"トウキョウト","city":"港区","city_kana":"ミナトク","town":"六本木六本木ヒルズ森タワー（地階・階層不明）","town_kana":"ロッポンギロッポンギヒルズモリタワー(チカイ・カイソウフメイ)","prefecture_code":13},"6101":{"zip_code":"1066101","prefecture":"東京都","prefecture_kana":"トウキョウト","city":"港区","city_kana":"ミナトク","town":"六本木六本木ヒルズ森タワー（１階）","town_kana":"ロッポンギロッポンギヒルズモリタワー(1カイ)","prefecture_code":13},"6102":{"zip_code":"1066102","prefecture":"東京都","prefecture_kana":"トウキョウト","city":"港区","city_kana":"ミナトク","town":"六本木六本木ヒルズ森タワー（２階）","town_kana":"ロッポンギロッポンギヒルズモリタワー(2カイ)","prefecture_code":13},"6103":{"zip_code":"1066103","prefecture":"東京都","prefecture_kana":"トウキョウト","city":"港区","city_kana":"ミナトク","town":"六本木六本木ヒルズ森タワー（３階）","town_kana":"ロッポンギロッポンギヒルズモリタワー(3カイ)","prefecture_code":13},"6104":{"zip_code":"1066104","prefecture":"東京都","prefecture_kana":"トウキョウト","city":"港区","city_kana":"ミナトク","town":"六本木六本木ヒルズ森タワー（４階）","town_kana":"ロッポンギロッポンギヒルズモリタワー(4カイ)","prefecture_code":13},"6105":{"zip_code":"1066105","prefecture":"東京都","prefecture_kana":"トウキョウト","city":"港区","city_kana":"ミナトク","town":"六本木六本木ヒルズ森タワー（５階）","town_kana":"ロッポンギロッポンギヒルズモリタワー(5カイ)","prefecture_code":13},"6106":{"zip_code":"1066106","prefecture":"東京都","prefecture_kana":"トウキョウト","city":"港区","city_kana":"ミナトク","town":"六本木六本木ヒルズ森タワー（６階）","town_kana":"ロッポンギロッポンギヒルズモリタワー(6カイ)","prefecture_code":13},"6107":{"zip_code":"1066107","prefecture":"東京都","prefecture_kana":"トウキョウト","city":"港区","city_kana":"ミナトク","town":"六本木六本木ヒルズ森タワー（７階）","town_kana":"ロッポンギロッポンギヒルズモリタワー(7カイ)","prefecture_code":13},"6108":{"zip_code":"1066108","prefecture":"東京都","prefecture_kana":"トウキョウト","city":"港区","city_kana":"ミナトク","town":"六本木六本木ヒルズ森タワー（８階）","town_kana":"ロッポンギロッポンギヒルズモリタワー(8カイ)","prefecture_code":13},"6109":{"zip_code":"1066109","prefecture":"東京都","prefecture_kana":"トウキョウト","city":"港区","city_kana":"ミナトク","town":"六本木六本木ヒルズ森タワー（９階）","town_kana":"ロッポンギロッポンギヒルズモリタワー(9カイ)","prefecture_code":13},"6110":{"zip_code":"1066110","prefecture":"東京都","prefecture_kana":"トウキョウト","city":"港区","city_kana":"ミナトク","town":"六本木六本木ヒルズ森タワー（１０階）","town_kana":"ロッポンギロッポンギヒルズモリタワー(10カイ)","prefecture_code":13},"6111":{"zip_code":"1066111","prefecture":"東京都","prefecture_kana":"トウキョウト","city":"港区","city_kana":"ミナトク","town":"六本木六本木ヒルズ森タワー（１１階）","town_kana":"ロッポンギロッポンギヒルズモリタワー(11カイ)","prefecture_code":13},"6112":{"zip_code":"1066112","prefecture":"東京都","prefecture_kana":"トウキョウト","city":"港区","city_kana":"ミナトク","town":"六本木六本木ヒルズ森タワー（１２階）","town_kana":"ロッポンギロッポンギヒルズモリタワー(12カイ)","prefecture_code":13},"6113":{"zip_code":"1066113","prefecture":"東京都","prefecture_kana":"トウキョウト","city":"港区","city_kana":"ミナトク","town":"六本木六本木ヒルズ森タワー（１３階）","town_kana":"ロッポンギロッポンギヒルズモリタワー(13カイ)","prefecture_code":13},"6114":{"zip_code":"1066114","prefecture":"東京都","prefecture_kana":"トウキョウト","city":"港区","city_kana":"ミナトク","town":"六本木六本木ヒルズ森タワー（１４階）","town_kana":"ロッポンギロッポンギヒルズモリタワー(14カイ)","prefecture_code":13},"6115":{"zip_code":"1066115","prefecture":"東京都","prefecture_kana":"トウキョウト","city":"港区","city_kana":"ミナトク","town":"六本木六本木ヒルズ森タワー（１５階）","town_kana":"ロッポンギロッポンギヒルズモリタワー(15カイ)","prefecture_code":13},"6116":{"zip_code":"1066116","prefecture":"東京都","prefecture_kana":"トウキョウト","city":"港区","city_kana":"ミナトク","town":"六本木六本木ヒルズ森タワー（１６階）","town_kana":"ロッポンギロッポンギヒルズモリタワー(16カイ)","prefecture_code":13},"6117":{"zip_code":"1066117","prefecture":"東京都","prefecture_kana":"トウキョウト","city":"港区","city_kana":"ミナトク","town":"六本木六本木ヒルズ森タワー（１７階）","town_kana":"ロッポンギロッポンギヒルズモリタワー(17カイ)","prefecture_code":13},"6118":{"zip_code":"1066118","prefecture":"東京都","prefecture_kana":"トウキョウト","city":"港区","city_kana":"ミナトク","town":"六本木六本木ヒルズ森タワー（１８階）","town_kana":"ロッポンギロッポンギヒルズモリタワー(18カイ)","prefecture_code":13},"6119":{"zip_code":"1066119","prefecture":"東京都","prefecture_kana":"トウキョウト","city":"港区","city_kana":"ミナトク","town":"六本木六本木ヒルズ森タワー（１９階）","town_kana":"ロッポンギロッポンギヒルズモリタワー(19カイ)","prefecture_code":13},"6120":{"zip_code":"1066120","prefecture":"東京都","prefecture_kana":"トウキョウト","city":"港区","city_kana":"ミナトク","town":"六本木六本木ヒルズ森タワー（２０階）","town_kana":"ロッポンギロッポンギヒルズモリタワー(20カイ)","prefecture_code":13},"6121":{"zip_code":"1066121","prefecture":"東京都","prefecture_kana":"トウキョウト","city":"港区","city_kana":"ミナトク","town":"六本木六本木ヒルズ森タワー（２１階）","town_kana":"ロッポンギロッポンギヒルズモリタワー(21カイ)","prefecture_code":13},"6122":{"zip_code":"1066122","prefecture":"東京都","prefecture_kana":"トウキョウト","city":"港区","city_kana":"ミナトク","town":"六本木六本木ヒルズ森タワー（２２階）","town_kana":"ロッポンギロッポンギヒルズモリタワー(22カイ)","prefecture_code":13},"6123":{"zip_code":"1066123","prefecture":"東京都","prefecture_kana":"トウキョウト","city":"港区","city_kana":"ミナトク","town":"六本木六本木ヒルズ森タワー（２３階）","town_kana":"ロッポンギロッポンギヒルズモリタワー(23カイ)","prefecture_code":13},"6124":{"zip_code":"1066124","prefecture":"東京都","prefecture_kana":"トウキョウト","city":"港区","city_kana":"ミナトク","town":"六本木六本木ヒルズ森タワー（２４階）","town_kana":"ロッポンギロッポンギヒルズモリタワー(24カイ)","prefecture_code":13},"6125":{"zip_code":"1066125","prefecture":"東京都","prefecture_kana":"トウキョウト","city":"港区","city_kana":"ミナトク","town":"六本木六本木ヒルズ森タワー（２５階）","town_kana":"ロッポンギロッポンギヒルズモリタワー(25カイ)","prefecture_code":13},"6126":{"zip_code":"1066126","prefecture":"東京都","prefecture_kana":"トウキョウト","city":"港区","city_kana":"ミナトク","town":"六本木六本木ヒルズ森タワー（２６階）","town_kana":"ロッポンギロッポンギヒルズモリタワー(26カイ)","prefecture_code":13},"6127":{"zip_code":"1066127","prefecture":"東京都","prefecture_kana":"トウキョウト","city":"港区","city_kana":"ミナトク","town":"六本木六本木ヒルズ森タワー（２７階）","town_kana":"ロッポンギロッポンギヒルズモリタワー(27カイ)","prefecture_code":13},"6128":{"zip_code":"1066128","prefecture":"東京都","prefecture_kana":"トウキョウト","city":"港区","city_kana":"ミナトク","town":"六本木六本木ヒルズ森タワー（２８階）","town_kana":"ロッポンギロッポンギヒルズモリタワー(28カイ)","prefecture_code":13},"6129":{"zip_code":"1066129","prefecture":"東京都","prefecture_kana":"トウキョウト","city":"港区","city_kana":"ミナトク","town":"六本木六本木ヒルズ森タワー（２９階）","town_kana":"ロッポンギロッポンギヒルズモリタワー(29カイ)","prefecture_code":13},"6130":{"zip_code":"1066130","prefecture":"東京都","prefecture_kana":"トウキョウト","city":"港区","city_kana":"ミナトク","town":"六本木六本木ヒルズ森タワー（３０階）","town_kana":"ロッポンギロッポンギヒルズモリタワー(30カイ)","prefecture_code":13},"6131":{"zip_code":"1066131","prefecture":"東京都","prefecture_kana":"トウキョウト","city":"港区","city_kana":"ミナトク","town":"六本木六本木ヒルズ森タワー（３１階）","town_kana":"ロッポンギロッポンギヒルズモリタワー(31カイ)","prefecture_code":13},"6132":{"zip_code":"1066132","prefecture":"東京都","prefecture_kana":"トウキョウト","city":"港区","city_kana":"ミナトク","town":"六本木六本木ヒルズ森タワー（３２階）","town_kana":"ロッポンギロッポンギヒルズモリタワー(32カイ)","prefecture_code":13},"6133":{"zip_code":"1066133","prefecture":"東京都","prefecture_kana":"トウキョウト","city":"港区","city_kana":"ミナトク","town":"六本木六本木ヒルズ森タワー（３３階）","town_kana":"ロッポンギロッポンギヒルズモリタワー(33カイ)","prefecture_code":13},"6134":{"zip_code":"1066134","prefecture":"東京都","prefecture_kana":"トウキョウト","city":"港区","city_kana":"ミナトク","town":"六本木六本木ヒルズ森タワー（３４階）","town_kana":"ロッポンギロッポンギヒルズモリタワー(34カイ)","prefecture_code":13},"6135":{"zip_code":"1066135","prefecture":"東京都","prefecture_kana":"トウキョウト","city":"港区","city_kana":"ミナトク","town":"六本木六本木ヒルズ森タワー（３５階）","town_kana":"ロッポンギロッポンギヒルズモリタワー(35カイ)","prefecture_code":13},"6136":{"zip_code":"1066136","prefecture":"東京都","prefecture_kana":"トウキョウト","city":"港区","city_kana":"ミナトク","town":"六本木六本木ヒルズ森タワー（３６階）","town_kana":"ロッポンギロッポンギヒルズモリタワー(36カイ)","prefecture_code":13},"6137":{"zip_code":"1066137","prefecture":"東京都","prefecture_kana":"トウキョウト","city":"港区","city_kana":"ミナトク","town":"六本木六本木ヒルズ森タワー（３７階）","town_kana":"ロッポンギロッポンギヒルズモリタワー(37カイ)","prefecture_code":13},"6138":{"zip_code":"1066138","prefecture":"東京都","prefecture_kana":"トウキョウト","city":"港区","city_kana":"ミナトク","town":"六本木六本木ヒルズ森タワー（３８階）","town_kana":"ロッポンギロッポンギヒルズモリタワー(38カイ)","prefecture_code":13},"6139":{"zip_code":"1066139","prefecture":"東京都","prefecture_kana":"トウキョウト","city":"港区","city_kana":"ミナトク","town":"六本木六本木ヒルズ森タワー（３９階）","town_kana":"ロッポンギロッポンギヒルズモリタワー(39カイ)","prefecture_code":13},"6140":{"zip_code":"1066140","prefecture":"東京都","prefecture_kana":"トウキョウト","city":"港区","city_kana":"ミナトク","town":"六本木六本木ヒルズ森タワー（４０階）","town_kana":"ロッポンギロッポンギヒルズモリタワー(40カイ)","prefecture_code":13},"6141":{"zip_code":"1066141","prefecture":"東京都","prefecture_kana":"トウキョウト","city":"港区","city_kana":"ミナトク","town":"六本木六本木ヒルズ森タワー（４１階）","town_kana":"ロッポンギロッポンギヒルズモリタワー(41カイ)","prefecture_code":13},"6142":{"zip_code":"1066142","prefecture":"東京都","prefecture_kana":"トウキョウト","city":"港区","city_kana":"ミナトク","town":"六本木六本木ヒルズ森タワー（４２階）","town_kana":"ロッポンギロッポンギヒルズモリタワー(42カイ)","prefecture_code":13},"6143":{"zip_code":"1066143","prefecture":"東京都","prefecture_kana":"トウキョウト","city":"港区","city_kana":"ミナトク","town":"六本木六本木ヒルズ森タワー（４３階）","town_kana":"ロッポンギロッポンギヒルズモリタワー(43カイ)","prefecture_code":13},"6144":{"zip_code":"1066144","prefecture":"東京都","prefecture_kana":"トウキョウト","city":"港区","city_kana":"ミナトク","town":"六本木六本木ヒルズ森タワー（４４階）","town_kana":"ロッポンギロッポンギヒルズモリタワー(44カイ)","prefecture_code":13},"6145":{"zip_code":"1066145","prefecture":"東京都","prefecture_kana":"トウキョウト","city":"港区","city_kana":"ミナトク","town":"六本木六本木ヒルズ森タワー（４５階）","town_kana":"ロッポンギロッポンギヒルズモリタワー(45カイ)","prefecture_code":13},"6146":{"zip_code":"1066146","prefecture":"東京都","prefecture_kana":"トウキョウト","city":"港区","city_kana":"ミナトク","town":"六本木六本木ヒルズ森タワー（４６階）","town_kana":"ロッポンギロッポンギヒルズモリタワー(46カイ)","prefecture_code":13},"6147":{"zip_code":"1066147","prefecture":"東京都","prefecture_kana":"トウキョウト","city":"港区","city_kana":"ミナトク","town":"六本木六本木ヒルズ森タワー（４７階）","town_kana":"ロッポンギロッポンギヒルズモリタワー(47カイ)","prefecture_code":13},"6148":{"zip_code":"1066148","prefecture":"東京都","prefecture_kana":"トウキョウト","city":"港区","city_kana":"ミナトク","town":"六本木六本木ヒルズ森タワー（４８階）","town_kana":"ロッポンギロッポンギヒルズモリタワー(48カイ)","prefecture_code":13},"6149":{"zip_code":"1066149","prefecture":"東京都","prefecture_kana":"トウキョウト","city":"港区","city_kana":"ミナトク","town":"六本木六本木ヒルズ森タワー（４９階）","town_kana":"ロッポンギロッポンギヒルズモリタワー(49カイ)","prefecture_code":13},"6150":{"zip_code":"1066150","prefecture":"東京都","prefecture_kana":"トウキョウト","city":"港区","city_kana":"ミナトク","town":"六本木六本木ヒルズ森タワー（５０階）","town_kana":"ロッポンギロッポンギヒルズモリタワー(50カイ)","prefecture_code":13},"6151":{"zip_code":"1066151","prefecture":"東京都","prefecture_kana":"トウキョウト","city":"港区","city_kana":"ミナトク","town":"六本木六本木ヒルズ森タワー（５１階）","town_kana":"ロッポンギロッポンギヒルズモリタワー(51カイ)","prefecture_code":13},"6152":{"zip_code":"1066152","prefecture":"東京都","prefecture_kana":"トウキョウト","city":"港区","city_kana":"ミナトク","town":"六本木六本木ヒルズ森タワー（５２階）","town_kana":"ロッポンギロッポンギヒルズモリタワー(52カイ)","prefecture_code":13},"6153":{"zip_code":"1066153","prefecture":"東京都","prefecture_kana":"トウキョウト","city":"港区","city_kana":"ミナトク","town":"六本木六本木ヒルズ森タワー（５３階）","town_kana":"ロッポンギロッポンギヒルズモリタワー(53カイ)","prefecture_code":13},"6154":{"zip_code":"1066154","prefecture":"東京都","prefecture_kana":"トウキョウト","city":"港区","city_kana":"ミナトク","town":"六本木六本木ヒルズ森タワー（５４階）","town_kana":"ロッポンギロッポンギヒルズモリタワー(54カイ)","prefecture_code":13}}