{"0000":{"zip_code":"1100000","prefecture":"東京都","prefecture_kana":"トウキョウト","city":"台東区","city_kana":"タイトウク","town":"","town_kana":"","prefecture_code":13},"0006":{"zip_code":"1100006","prefecture":"東京都","prefecture_kana":"トウキョウト","city":"台東区","city_kana":"タイトウク","town":"秋葉原","town_kana":"アキハバラ","prefecture_code":13},"0008":{"zip_code":"1100008","prefecture":"東京都","prefecture_kana":"トウキョウト","city":"台東区","city_kana":"タイトウク","town":"池之端","town_kana":"イケノハタ","prefecture_code":13},"0013":{"zip_code":"1100013","prefecture":"東京都","prefecture_kana":"トウキョウト","city":"台東区","city_kana":"タイトウク","town":"入谷","town_kana":"イリヤ","prefecture_code":13},"0005":{"zip_code":"1100005","prefecture":"東京都","prefecture_kana":"トウキョウト","city":"台東区","city_kana":"タイトウク","town":"上野","town_kana":"ウエノ","prefecture_code":13},"0007":{"zip_code":"1100007","prefecture":"東京都","prefecture_kana":"トウキョウト","city":"台東区","city_kana":"タイトウク","town":"上野公園","town_kana":"ウエノコウエン","prefecture_code":13},"0002":{"zip_code":"1100002","prefecture":"東京都","prefecture_kana":"トウキョウト","city":"台東区","city_kana":"タイトウク","town":"上野桜木","town_kana":"ウエノサクラギ","prefecture_code":13},"0014":{"zip_code":"1100014","prefecture":"東京都","prefecture_kana":"トウキョウト","city":"台東区","city_kana":"タイトウク","town":"北上野","town_kana":"キタウエノ","prefecture_code":13},"0004":{"zip_code":"1100004","prefecture":"東京都","prefecture_kana":"トウキョウト","city":"台東区","city_kana":"タイトウク","town":"下谷","town_kana":"シタヤ","prefecture_code":13},"0016":{"zip_code":"1100016","prefecture":"東京都","prefecture_kana":"トウキョウト","city":"台東区","city_kana":"タイトウク","town":"台東","town_kana":"タイトウ","prefecture_code":13},"0003":{"zip_code":"1100003","prefecture":"東京都","prefecture_kana":"トウキョウト","city":"台東区","city_kana":"タイトウク","town":"根岸","town_kana":"ネギシ","prefecture_code":13},"0015":{"zip_code":"1100015","prefecture":"東京都","prefecture_kana":"トウキョウト","city":"台東区","city_kana":"タイトウク","town":"東上野","town_kana":"ヒガシウエノ","prefecture_code":13},"0011":{"zip_code":"1100011","prefecture":"東京都","prefecture_kana":"トウキョウト","city":"台東区","city_kana":"タイトウク","town":"三ノ輪","town_kana":"ミノワ","prefecture_code":13},"0001":{"zip_code":"1100001","prefecture":"東京都","prefecture_kana":"トウキョウト","city":"台東区","city_kana":"タイトウク","town":"谷中","town_kana":"ヤナカ","prefecture_code":13},"0012":{"zip_code":"1100012","prefecture":"東京都","prefecture_kana":"トウキョウト","city":"台東区","city_kana":"タイトウク","town":"竜泉","town_kana":"リュウセン","prefecture_code":13}}