{"0032":{"zip_code":"1110032","prefecture":"東京都","prefecture_kana":"トウキョウト","city":"台東区","city_kana":"タイトウク","town":"浅草","town_kana":"アサクサ","prefecture_code":13},"0053":{"zip_code":"1110053","prefecture":"東京都","prefecture_kana":"トウキョウト","city":"台東区","city_kana":"タイトウク","town":"浅草橋","town_kana":"アサクサバシ","prefecture_code":13},"0024":{"zip_code":"1110024","prefecture":"東京都","prefecture_kana":"トウキョウト","city":"台東区","city_kana":"タイトウク","town":"今戸","town_kana":"イマド","prefecture_code":13},"0034":{"zip_code":"1110034","prefecture":"東京都","prefecture_kana":"トウキョウト","city":"台東区","city_kana":"タイトウク","town":"雷門","town_kana":"カミナリモン","prefecture_code":13},"0022":{"zip_code":"1110022","prefecture":"東京都","prefecture_kana":"トウキョウト","city":"台東区","city_kana":"タイトウク","town":"清川","town_kana":"キヨカワ","prefecture_code":13},"0051":{"zip_code":"1110051","prefecture":"東京都","prefecture_kana":"トウキョウト","city":"台東区","city_kana":"タイトウク","town":"蔵前","town_kana":"クラマエ","prefecture_code":13},"0056":{"zip_code":"1110056","prefecture":"東京都","prefecture_kana":"トウキョウト","city":"台東区","city_kana":"タイトウク","town":"小島","town_kana":"コジマ","prefecture_code":13},"0042":{"zip_code":"1110042","prefecture":"東京都","prefecture_kana":"トウキョウト","city":"台東区","city_kana":"タイトウク","town":"寿","town_kana":"コトブキ","prefecture_code":13},"0043":{"zip_code":"1110043","prefecture":"東京都","prefecture_kana":"トウキョウト","city":"台東区","city_kana":"タイトウク","town":"駒形","town_kana":"コマガタ","prefecture_code":13},"0031":{"zip_code":"1110031","prefecture":"東京都","prefecture_kana":"トウキョウト","city":"台東区","city_kana":"タイトウク","town":"千束","town_kana":"センゾク","prefecture_code":13},"0054":{"zip_code":"1110054","prefecture":"東京都","prefecture_kana":"トウキョウト","city":"台東区","city_kana":"タイトウク","town":"鳥越","town_kana":"トリゴエ","prefecture_code":13},"0035":{"zip_code":"1110035","prefecture":"東京都","prefecture_kana":"トウキョウト","city":"台東区","city_kana":"タイトウク","town":"西浅草","town_kana":"ニシアサクサ","prefecture_code":13},"0021":{"zip_code":"1110021","prefecture":"東京都","prefecture_kana":"トウキョウト","city":"台東区","city_kana":"タイトウク","town":"日本堤","town_kana":"ニホンヅツミ","prefecture_code":13},"0023":{"zip_code":"1110023","prefecture":"東京都","prefecture_kana":"トウキョウト","city":"台東区","city_kana":"タイトウク","town":"橋場","town_kana":"ハシバ","prefecture_code":13},"0033":{"zip_code":"1110033","prefecture":"東京都","prefecture_kana":"トウキョウト","city":"台東区","city_kana":"タイトウク","town":"花川戸","town_kana":"ハナカワド","prefecture_code":13},"0025":{"zip_code":"1110025","prefecture":"東京都","prefecture_kana":"トウキョウト","city":"台東区","city_kana":"タイトウク","town":"東浅草","town_kana":"ヒガシアサクサ","prefecture_code":13},"0036":{"zip_code":"1110036","prefecture":"東京都","prefecture_kana":"トウキョウト","city":"台東区","city_kana":"タイトウク","town":"松が谷","town_kana":"マツガヤ","prefecture_code":13},"0055":{"zip_code":"1110055","prefecture":"東京都","prefecture_kana":"トウキョウト","city":"台東区","city_kana":"タイトウク","town":"三筋","town_kana":"ミスジ","prefecture_code":13},"0041":{"zip_code":"1110041","prefecture":"東京都","prefecture_kana":"トウキョウト","city":"台東区","city_kana":"タイトウク","town":"元浅草","town_kana":"モトアサクサ","prefecture_code":13},"0052":{"zip_code":"1110052","prefecture":"東京都","prefecture_kana":"トウキョウト","city":"台東区","city_kana":"タイトウク","town":"柳橋","town_kana":"ヤナギバシ","prefecture_code":13}}