{"0000":{"zip_code":"1120000","prefecture":"東京都","prefecture_kana":"トウキョウト","city":"文京区","city_kana":"ブンキョウク","town":"以下に掲載がない場合","town_kana":"イカニケイサイガナイバアイ","prefecture_code":13},"0012":{"zip_code":"1120012","prefecture":"東京都","prefecture_kana":"トウキョウト","city":"文京区","city_kana":"ブンキョウク","town":"大塚","town_kana":"オオツカ","prefecture_code":13},"0013":{"zip_code":"1120013","prefecture":"東京都","prefecture_kana":"トウキョウト","city":"文京区","city_kana":"ブンキョウク","town":"音羽","town_kana":"オトワ","prefecture_code":13},"0003":{"zip_code":"1120003","prefecture":"東京都","prefecture_kana":"トウキョウト","city":"文京区","city_kana":"ブンキョウク","town":"春日","town_kana":"カスガ","prefecture_code":13},"0002":{"zip_code":"1120002","prefecture":"東京都","prefecture_kana":"トウキョウト","city":"文京区","city_kana":"ブンキョウク","town":"小石川","town_kana":"コイシカワ","prefecture_code":13},"0004":{"zip_code":"1120004","prefecture":"東京都","prefecture_kana":"トウキョウト","city":"文京区","city_kana":"ブンキョウク","town":"後楽","town_kana":"コウラク","prefecture_code":13},"0006":{"zip_code":"1120006","prefecture":"東京都","prefecture_kana":"トウキョウト","city":"文京区","city_kana":"ブンキョウク","town":"小日向","town_kana":"コヒナタ","prefecture_code":13},"0005":{"zip_code":"1120005","prefecture":"東京都","prefecture_kana":"トウキョウト","city":"文京区","city_kana":"ブンキョウク","town":"水道","town_kana":"スイドウ","prefecture_code":13},"0014":{"zip_code":"1120014","prefecture":"東京都","prefecture_kana":"トウキョウト","city":"文京区","city_kana":"ブンキョウク","town":"関口","town_kana":"セキグチ","prefecture_code":13},"0011":{"zip_code":"1120011","prefecture":"東京都","prefecture_kana":"トウキョウト","city":"文京区","city_kana":"ブンキョウク","town":"千石","town_kana":"センゴク","prefecture_code":13},"0001":{"zip_code":"1120001","prefecture":"東京都","prefecture_kana":"トウキョウト","city":"文京区","city_kana":"ブンキョウク","town":"白山（２〜５丁目）","town_kana":"ハクサン(2-5チョウメ)","prefecture_code":13},"0015":{"zip_code":"1120015","prefecture":"東京都","prefecture_kana":"トウキョウト","city":"文京区","city_kana":"ブンキョウク","town":"目白台","town_kana":"メジロダイ","prefecture_code":13}}