{"0000":{"zip_code":"1140000","prefecture":"東京都","prefecture_kana":"トウキョウト","city":"北区","city_kana":"キタク","town":"","town_kana":"","prefecture_code":13},"0002":{"zip_code":"1140002","prefecture":"東京都","prefecture_kana":"トウキョウト","city":"北区","city_kana":"キタク","town":"王子","town_kana":"オウジ","prefecture_code":13},"0022":{"zip_code":"1140022","prefecture":"東京都","prefecture_kana":"トウキョウト","city":"北区","city_kana":"キタク","town":"王子本町","town_kana":"オウジホンチョウ","prefecture_code":13},"0034":{"zip_code":"1140034","prefecture":"東京都","prefecture_kana":"トウキョウト","city":"北区","city_kana":"キタク","town":"上十条","town_kana":"カミジュウジョウ","prefecture_code":13},"0016":{"zip_code":"1140016","prefecture":"東京都","prefecture_kana":"トウキョウト","city":"北区","city_kana":"キタク","town":"上中里","town_kana":"カミナカザト","prefecture_code":13},"0021":{"zip_code":"1140021","prefecture":"東京都","prefecture_kana":"トウキョウト","city":"北区","city_kana":"キタク","town":"岸町","town_kana":"キシマチ","prefecture_code":13},"0005":{"zip_code":"1140005","prefecture":"東京都","prefecture_kana":"トウキョウト","city":"北区","city_kana":"キタク","town":"栄町","town_kana":"サカエチョウ","prefecture_code":13},"0033":{"zip_code":"1140033","prefecture":"東京都","prefecture_kana":"トウキョウト","city":"北区","city_kana":"キタク","town":"十条台","town_kana":"ジュウジョウダイ","prefecture_code":13},"0031":{"zip_code":"1140031","prefecture":"東京都","prefecture_kana":"トウキョウト","city":"北区","city_kana":"キタク","town":"十条仲原","town_kana":"ジュウジョウナカハラ","prefecture_code":13},"0011":{"zip_code":"1140011","prefecture":"東京都","prefecture_kana":"トウキョウト","city":"北区","city_kana":"キタク","town":"昭和町","town_kana":"ショウワマチ","prefecture_code":13},"0023":{"zip_code":"1140023","prefecture":"東京都","prefecture_kana":"トウキョウト","city":"北区","city_kana":"キタク","town":"滝野川","town_kana":"タキノガワ","prefecture_code":13},"0014":{"zip_code":"1140014","prefecture":"東京都","prefecture_kana":"トウキョウト","city":"北区","city_kana":"キタク","town":"田端","town_kana":"タバタ","prefecture_code":13},"0012":{"zip_code":"1140012","prefecture":"東京都","prefecture_kana":"トウキョウト","city":"北区","city_kana":"キタク","town":"田端新町","town_kana":"タバタシンマチ","prefecture_code":13},"0003":{"zip_code":"1140003","prefecture":"東京都","prefecture_kana":"トウキョウト","city":"北区","city_kana":"キタク","town":"豊島","town_kana":"トシマ","prefecture_code":13},"0015":{"zip_code":"1140015","prefecture":"東京都","prefecture_kana":"トウキョウト","city":"北区","city_kana":"キタク","town":"中里","town_kana":"ナカザト","prefecture_code":13},"0032":{"zip_code":"1140032","prefecture":"東京都","prefecture_kana":"トウキョウト","city":"北区","city_kana":"キタク","town":"中十条","town_kana":"ナカジュウジョウ","prefecture_code":13},"0024":{"zip_code":"1140024","prefecture":"東京都","prefecture_kana":"トウキョウト","city":"北区","city_kana":"キタク","town":"西ケ原","town_kana":"ニシガハラ","prefecture_code":13},"0001":{"zip_code":"1140001","prefecture":"東京都","prefecture_kana":"トウキョウト","city":"北区","city_kana":"キタク","town":"東十条","town_kana":"ヒガシジュウジョウ","prefecture_code":13},"0013":{"zip_code":"1140013","prefecture":"東京都","prefecture_kana":"トウキョウト","city":"北区","city_kana":"キタク","town":"東田端","town_kana":"ヒガシタバタ","prefecture_code":13},"0004":{"zip_code":"1140004","prefecture":"東京都","prefecture_kana":"トウキョウト","city":"北区","city_kana":"キタク","town":"堀船","town_kana":"ホリフネ","prefecture_code":13}}