{"0000":{"zip_code":"1160000","prefecture":"東京都","prefecture_kana":"トウキョウト","city":"荒川区","city_kana":"アラカワク","town":"","town_kana":"","prefecture_code":13},"0002":{"zip_code":"1160002","prefecture":"東京都","prefecture_kana":"トウキョウト","city":"荒川区","city_kana":"アラカワク","town":"荒川","town_kana":"アラカワ","prefecture_code":13},"0011":{"zip_code":"1160011","prefecture":"東京都","prefecture_kana":"トウキョウト","city":"荒川区","city_kana":"アラカワク","town":"西尾久","town_kana":"ニシオグ","prefecture_code":13},"0013":{"zip_code":"1160013","prefecture":"東京都","prefecture_kana":"トウキョウト","city":"荒川区","city_kana":"アラカワク","town":"西日暮里","town_kana":"ニシニッポリ","prefecture_code":13},"0012":{"zip_code":"1160012","prefecture":"東京都","prefecture_kana":"トウキョウト","city":"荒川区","city_kana":"アラカワク","town":"東尾久","town_kana":"ヒガシオグ","prefecture_code":13},"0014":{"zip_code":"1160014","prefecture":"東京都","prefecture_kana":"トウキョウト","city":"荒川区","city_kana":"アラカワク","town":"東日暮里","town_kana":"ヒガシニッポリ","prefecture_code":13},"0001":{"zip_code":"1160001","prefecture":"東京都","prefecture_kana":"トウキョウト","city":"荒川区","city_kana":"アラカワク","town":"町屋","town_kana":"マチヤ","prefecture_code":13},"0003":{"zip_code":"1160003","prefecture":"東京都","prefecture_kana":"トウキョウト","city":"荒川区","city_kana":"アラカワク","town":"南千住","town_kana":"ミナミセンジュ","prefecture_code":13}}