{"0062":{"zip_code":"1250062","prefecture":"東京都","prefecture_kana":"トウキョウト","city":"葛飾区","city_kana":"カツシカク","town":"青戸","town_kana":"アオト","prefecture_code":13},"0042":{"zip_code":"1250042","prefecture":"東京都","prefecture_kana":"トウキョウト","city":"葛飾区","city_kana":"カツシカク","town":"金町","town_kana":"カナマチ","prefecture_code":13},"0043":{"zip_code":"1250043","prefecture":"東京都","prefecture_kana":"トウキョウト","city":"葛飾区","city_kana":"カツシカク","town":"金町浄水場","town_kana":"カナマチジョウスイジョウ","prefecture_code":13},"0053":{"zip_code":"1250053","prefecture":"東京都","prefecture_kana":"トウキョウト","city":"葛飾区","city_kana":"カツシカク","town":"鎌倉","town_kana":"カマクラ","prefecture_code":13},"0061":{"zip_code":"1250061","prefecture":"東京都","prefecture_kana":"トウキョウト","city":"葛飾区","city_kana":"カツシカク","town":"亀有","town_kana":"カメアリ","prefecture_code":13},"0052":{"zip_code":"1250052","prefecture":"東京都","prefecture_kana":"トウキョウト","city":"葛飾区","city_kana":"カツシカク","town":"柴又","town_kana":"シバマタ","prefecture_code":13},"0063":{"zip_code":"1250063","prefecture":"東京都","prefecture_kana":"トウキョウト","city":"葛飾区","city_kana":"カツシカク","town":"白鳥","town_kana":"シラトリ","prefecture_code":13},"0054":{"zip_code":"1250054","prefecture":"東京都","prefecture_kana":"トウキョウト","city":"葛飾区","city_kana":"カツシカク","town":"高砂","town_kana":"タカサゴ","prefecture_code":13},"0051":{"zip_code":"1250051","prefecture":"東京都","prefecture_kana":"トウキョウト","city":"葛飾区","city_kana":"カツシカク","town":"新宿","town_kana":"ニイジュク","prefecture_code":13},"0002":{"zip_code":"1250002","prefecture":"東京都","prefecture_kana":"トウキョウト","city":"葛飾区","city_kana":"カツシカク","town":"西亀有（３、４丁目）","town_kana":"ニシカメアリ(3、4チョウメ)","prefecture_code":13},"0031":{"zip_code":"1250031","prefecture":"東京都","prefecture_kana":"トウキョウト","city":"葛飾区","city_kana":"カツシカク","town":"西水元","town_kana":"ニシミズモト","prefecture_code":13},"0041":{"zip_code":"1250041","prefecture":"東京都","prefecture_kana":"トウキョウト","city":"葛飾区","city_kana":"カツシカク","town":"東金町","town_kana":"ヒガシカナマチ","prefecture_code":13},"0033":{"zip_code":"1250033","prefecture":"東京都","prefecture_kana":"トウキョウト","city":"葛飾区","city_kana":"カツシカク","town":"東水元","town_kana":"ヒガシミズモト","prefecture_code":13},"0032":{"zip_code":"1250032","prefecture":"東京都","prefecture_kana":"トウキョウト","city":"葛飾区","city_kana":"カツシカク","town":"水元","town_kana":"ミズモト","prefecture_code":13},"0034":{"zip_code":"1250034","prefecture":"東京都","prefecture_kana":"トウキョウト","city":"葛飾区","city_kana":"カツシカク","town":"水元公園","town_kana":"ミズモトコウエン","prefecture_code":13},"0035":{"zip_code":"1250035","prefecture":"東京都","prefecture_kana":"トウキョウト","city":"葛飾区","city_kana":"カツシカク","town":"南水元","town_kana":"ミナミミズモト","prefecture_code":13}}