{"0000":{"zip_code":"1300000","prefecture":"東京都","prefecture_kana":"トウキョウト","city":"墨田区","city_kana":"スミダク","town":"","town_kana":"","prefecture_code":13},"0001":{"zip_code":"1300001","prefecture":"東京都","prefecture_kana":"トウキョウト","city":"墨田区","city_kana":"スミダク","town":"吾妻橋","town_kana":"アヅマバシ","prefecture_code":13},"0011":{"zip_code":"1300011","prefecture":"東京都","prefecture_kana":"トウキョウト","city":"墨田区","city_kana":"スミダク","town":"石原","town_kana":"イシワラ","prefecture_code":13},"0014":{"zip_code":"1300014","prefecture":"東京都","prefecture_kana":"トウキョウト","city":"墨田区","city_kana":"スミダク","town":"亀沢","town_kana":"カメザワ","prefecture_code":13},"0024":{"zip_code":"1300024","prefecture":"東京都","prefecture_kana":"トウキョウト","city":"墨田区","city_kana":"スミダク","town":"菊川","town_kana":"キクカワ","prefecture_code":13},"0013":{"zip_code":"1300013","prefecture":"東京都","prefecture_kana":"トウキョウト","city":"墨田区","city_kana":"スミダク","town":"錦糸","town_kana":"キンシ","prefecture_code":13},"0022":{"zip_code":"1300022","prefecture":"東京都","prefecture_kana":"トウキョウト","city":"墨田区","city_kana":"スミダク","town":"江東橋","town_kana":"コウトウバシ","prefecture_code":13},"0012":{"zip_code":"1300012","prefecture":"東京都","prefecture_kana":"トウキョウト","city":"墨田区","city_kana":"スミダク","town":"太平","town_kana":"タイヘイ","prefecture_code":13},"0023":{"zip_code":"1300023","prefecture":"東京都","prefecture_kana":"トウキョウト","city":"墨田区","city_kana":"スミダク","town":"立川","town_kana":"タテカワ","prefecture_code":13},"0025":{"zip_code":"1300025","prefecture":"東京都","prefecture_kana":"トウキョウト","city":"墨田区","city_kana":"スミダク","town":"千歳","town_kana":"チトセ","prefecture_code":13},"0002":{"zip_code":"1300002","prefecture":"東京都","prefecture_kana":"トウキョウト","city":"墨田区","city_kana":"スミダク","town":"業平","town_kana":"ナリヒラ","prefecture_code":13},"0005":{"zip_code":"1300005","prefecture":"東京都","prefecture_kana":"トウキョウト","city":"墨田区","city_kana":"スミダク","town":"東駒形","town_kana":"ヒガシコマガタ","prefecture_code":13},"0004":{"zip_code":"1300004","prefecture":"東京都","prefecture_kana":"トウキョウト","city":"墨田区","city_kana":"スミダク","town":"本所","town_kana":"ホンジョ","prefecture_code":13},"0021":{"zip_code":"1300021","prefecture":"東京都","prefecture_kana":"トウキョウト","city":"墨田区","city_kana":"スミダク","town":"緑","town_kana":"ミドリ","prefecture_code":13},"0015":{"zip_code":"1300015","prefecture":"東京都","prefecture_kana":"トウキョウト","city":"墨田区","city_kana":"スミダク","town":"横網","town_kana":"ヨコアミ","prefecture_code":13},"0003":{"zip_code":"1300003","prefecture":"東京都","prefecture_kana":"トウキョウト","city":"墨田区","city_kana":"スミダク","town":"横川","town_kana":"ヨコカワ","prefecture_code":13},"0026":{"zip_code":"1300026","prefecture":"東京都","prefecture_kana":"トウキョウト","city":"墨田区","city_kana":"スミダク","town":"両国","town_kana":"リョウゴク","prefecture_code":13}}