{"0045":{"zip_code":"1310045","prefecture":"東京都","prefecture_kana":"トウキョウト","city":"墨田区","city_kana":"スミダク","town":"押上","town_kana":"オシアゲ","prefecture_code":13},"0046":{"zip_code":"1310046","prefecture":"東京都","prefecture_kana":"トウキョウト","city":"墨田区","city_kana":"スミダク","town":"京島","town_kana":"キョウジマ","prefecture_code":13},"0031":{"zip_code":"1310031","prefecture":"東京都","prefecture_kana":"トウキョウト","city":"墨田区","city_kana":"スミダク","town":"墨田","town_kana":"スミダ","prefecture_code":13},"0043":{"zip_code":"1310043","prefecture":"東京都","prefecture_kana":"トウキョウト","city":"墨田区","city_kana":"スミダク","town":"立花","town_kana":"タチバナ","prefecture_code":13},"0034":{"zip_code":"1310034","prefecture":"東京都","prefecture_kana":"トウキョウト","city":"墨田区","city_kana":"スミダク","town":"堤通","town_kana":"ツツミドオリ","prefecture_code":13},"0042":{"zip_code":"1310042","prefecture":"東京都","prefecture_kana":"トウキョウト","city":"墨田区","city_kana":"スミダク","town":"東墨田","town_kana":"ヒガシスミダ","prefecture_code":13},"0032":{"zip_code":"1310032","prefecture":"東京都","prefecture_kana":"トウキョウト","city":"墨田区","city_kana":"スミダク","town":"東向島","town_kana":"ヒガシムコウジマ","prefecture_code":13},"0044":{"zip_code":"1310044","prefecture":"東京都","prefecture_kana":"トウキョウト","city":"墨田区","city_kana":"スミダク","town":"文花","town_kana":"ブンカ","prefecture_code":13},"0033":{"zip_code":"1310033","prefecture":"東京都","prefecture_kana":"トウキョウト","city":"墨田区","city_kana":"スミダク","town":"向島","town_kana":"ムコウジマ","prefecture_code":13},"0041":{"zip_code":"1310041","prefecture":"東京都","prefecture_kana":"トウキョウト","city":"墨田区","city_kana":"スミダク","town":"八広","town_kana":"ヤヒロ","prefecture_code":13}}