{"0000":{"zip_code":"1320000","prefecture":"東京都","prefecture_kana":"トウキョウト","city":"江戸川区","city_kana":"エドガワク","town":"以下に掲載がない場合","town_kana":"イカニケイサイガナイバアイ","prefecture_code":13},"0024":{"zip_code":"1320024","prefecture":"東京都","prefecture_kana":"トウキョウト","city":"江戸川区","city_kana":"エドガワク","town":"一之江","town_kana":"イチノエ","prefecture_code":13},"0013":{"zip_code":"1320013","prefecture":"東京都","prefecture_kana":"トウキョウト","city":"江戸川区","city_kana":"エドガワク","town":"江戸川（１〜３丁目、４丁目１〜１４番）","town_kana":"エドガワ(1-3チョウメ、4チョウメ1-14バン)","prefecture_code":13},"0022":{"zip_code":"1320022","prefecture":"東京都","prefecture_kana":"トウキョウト","city":"江戸川区","city_kana":"エドガワク","town":"大杉","town_kana":"オオスギ","prefecture_code":13},"0034":{"zip_code":"1320034","prefecture":"東京都","prefecture_kana":"トウキョウト","city":"江戸川区","city_kana":"エドガワク","town":"小松川","town_kana":"コマツガワ","prefecture_code":13},"0021":{"zip_code":"1320021","prefecture":"東京都","prefecture_kana":"トウキョウト","city":"江戸川区","city_kana":"エドガワク","town":"中央","town_kana":"チュウオウ","prefecture_code":13},"0001":{"zip_code":"1320001","prefecture":"東京都","prefecture_kana":"トウキョウト","city":"江戸川区","city_kana":"エドガワク","town":"新堀","town_kana":"ニイホリ","prefecture_code":13},"0023":{"zip_code":"1320023","prefecture":"東京都","prefecture_kana":"トウキョウト","city":"江戸川区","city_kana":"エドガワク","town":"西一之江","town_kana":"ニシイチノエ","prefecture_code":13},"0032":{"zip_code":"1320032","prefecture":"東京都","prefecture_kana":"トウキョウト","city":"江戸川区","city_kana":"エドガワク","town":"西小松川町","town_kana":"ニシコマツガワマチ","prefecture_code":13},"0015":{"zip_code":"1320015","prefecture":"東京都","prefecture_kana":"トウキョウト","city":"江戸川区","city_kana":"エドガワク","town":"西瑞江（３丁目、４丁目３〜９番）","town_kana":"ニシミズエ(3チョウメ、4チョウメ3-9バン)","prefecture_code":13},"0003":{"zip_code":"1320003","prefecture":"東京都","prefecture_kana":"トウキョウト","city":"江戸川区","city_kana":"エドガワク","town":"春江町（１〜３丁目）","town_kana":"ハルエチョウ(1-3チョウメ)","prefecture_code":13},"0033":{"zip_code":"1320033","prefecture":"東京都","prefecture_kana":"トウキョウト","city":"江戸川区","city_kana":"エドガワク","town":"東小松川","town_kana":"ヒガシコマツガワ","prefecture_code":13},"0014":{"zip_code":"1320014","prefecture":"東京都","prefecture_kana":"トウキョウト","city":"江戸川区","city_kana":"エドガワク","town":"東瑞江","town_kana":"ヒガシミズエ","prefecture_code":13},"0035":{"zip_code":"1320035","prefecture":"東京都","prefecture_kana":"トウキョウト","city":"江戸川区","city_kana":"エドガワク","town":"平井","town_kana":"ヒライ","prefecture_code":13},"0025":{"zip_code":"1320025","prefecture":"東京都","prefecture_kana":"トウキョウト","city":"江戸川区","city_kana":"エドガワク","town":"松江","town_kana":"マツエ","prefecture_code":13},"0031":{"zip_code":"1320031","prefecture":"東京都","prefecture_kana":"トウキョウト","city":"江戸川区","city_kana":"エドガワク","town":"松島","town_kana":"マツシマ","prefecture_code":13},"0011":{"zip_code":"1320011","prefecture":"東京都","prefecture_kana":"トウキョウト","city":"江戸川区","city_kana":"エドガワク","town":"瑞江","town_kana":"ミズエ","prefecture_code":13},"0002":{"zip_code":"1320002","prefecture":"東京都","prefecture_kana":"トウキョウト","city":"江戸川区","city_kana":"エドガワク","town":"谷河内（１丁目）","town_kana":"ヤゴウチ(1チョウメ)","prefecture_code":13}}