{"0042":{"zip_code":"1330042","prefecture":"東京都","prefecture_kana":"トウキョウト","city":"江戸川区","city_kana":"エドガワク","town":"興宮町","town_kana":"オキノミヤチョウ","prefecture_code":13},"0041":{"zip_code":"1330041","prefecture":"東京都","prefecture_kana":"トウキョウト","city":"江戸川区","city_kana":"エドガワク","town":"上一色","town_kana":"カミイッシキ","prefecture_code":13},"0054":{"zip_code":"1330054","prefecture":"東京都","prefecture_kana":"トウキョウト","city":"江戸川区","city_kana":"エドガワク","town":"上篠崎","town_kana":"カミシノザキ","prefecture_code":13},"0051":{"zip_code":"1330051","prefecture":"東京都","prefecture_kana":"トウキョウト","city":"江戸川区","city_kana":"エドガワク","town":"北小岩","town_kana":"キタコイワ","prefecture_code":13},"0053":{"zip_code":"1330053","prefecture":"東京都","prefecture_kana":"トウキョウト","city":"江戸川区","city_kana":"エドガワク","town":"北篠崎","town_kana":"キタシノザキ","prefecture_code":13},"0073":{"zip_code":"1330073","prefecture":"東京都","prefecture_kana":"トウキョウト","city":"江戸川区","city_kana":"エドガワク","town":"鹿骨","town_kana":"シシボネ","prefecture_code":13},"0072":{"zip_code":"1330072","prefecture":"東京都","prefecture_kana":"トウキョウト","city":"江戸川区","city_kana":"エドガワク","town":"鹿骨町","town_kana":"シシボネチョウ","prefecture_code":13},"0061":{"zip_code":"1330061","prefecture":"東京都","prefecture_kana":"トウキョウト","city":"江戸川区","city_kana":"エドガワク","town":"篠崎町","town_kana":"シノザキマチ","prefecture_code":13},"0064":{"zip_code":"1330064","prefecture":"東京都","prefecture_kana":"トウキョウト","city":"江戸川区","city_kana":"エドガワク","town":"下篠崎町","town_kana":"シモシノザキマチ","prefecture_code":13},"0057":{"zip_code":"1330057","prefecture":"東京都","prefecture_kana":"トウキョウト","city":"江戸川区","city_kana":"エドガワク","town":"西小岩","town_kana":"ニシコイワ","prefecture_code":13},"0055":{"zip_code":"1330055","prefecture":"東京都","prefecture_kana":"トウキョウト","city":"江戸川区","city_kana":"エドガワク","town":"西篠崎","town_kana":"ニシシノザキ","prefecture_code":13},"0052":{"zip_code":"1330052","prefecture":"東京都","prefecture_kana":"トウキョウト","city":"江戸川区","city_kana":"エドガワク","town":"東小岩","town_kana":"ヒガシコイワ","prefecture_code":13},"0063":{"zip_code":"1330063","prefecture":"東京都","prefecture_kana":"トウキョウト","city":"江戸川区","city_kana":"エドガワク","town":"東篠崎","town_kana":"ヒガシシノザキ","prefecture_code":13},"0062":{"zip_code":"1330062","prefecture":"東京都","prefecture_kana":"トウキョウト","city":"江戸川区","city_kana":"エドガワク","town":"東篠崎町","town_kana":"ヒガシシノザキマチ","prefecture_code":13},"0071":{"zip_code":"1330071","prefecture":"東京都","prefecture_kana":"トウキョウト","city":"江戸川区","city_kana":"エドガワク","town":"東松本","town_kana":"ヒガシマツモト","prefecture_code":13},"0044":{"zip_code":"1330044","prefecture":"東京都","prefecture_kana":"トウキョウト","city":"江戸川区","city_kana":"エドガワク","town":"本一色","town_kana":"ホンイッシキ","prefecture_code":13},"0043":{"zip_code":"1330043","prefecture":"東京都","prefecture_kana":"トウキョウト","city":"江戸川区","city_kana":"エドガワク","town":"松本","town_kana":"マツモト","prefecture_code":13},"0056":{"zip_code":"1330056","prefecture":"東京都","prefecture_kana":"トウキョウト","city":"江戸川区","city_kana":"エドガワク","town":"南小岩","town_kana":"ミナミコイワ","prefecture_code":13},"0065":{"zip_code":"1330065","prefecture":"東京都","prefecture_kana":"トウキョウト","city":"江戸川区","city_kana":"エドガワク","town":"南篠崎町","town_kana":"ミナミシノザキマチ","prefecture_code":13},"0002":{"zip_code":"1330002","prefecture":"東京都","prefecture_kana":"トウキョウト","city":"江戸川区","city_kana":"エドガワク","town":"谷河内","town_kana":"ヤゴウチ","prefecture_code":13}}