{"0091":{"zip_code":"1350091","prefecture":"東京都","prefecture_kana":"トウキョウト","city":"港区","city_kana":"ミナトク","town":"台場","town_kana":"ダイバ","prefecture_code":13},"0000":{"zip_code":"1350000","prefecture":"東京都","prefecture_kana":"トウキョウト","city":"江東区","city_kana":"コウトウク","town":"以下に掲載がない場合","town_kana":"イカニケイサイガナイバアイ","prefecture_code":13},"0064":{"zip_code":"1350064","prefecture":"東京都","prefecture_kana":"トウキョウト","city":"江東区","city_kana":"コウトウク","town":"青海","town_kana":"アオミ","prefecture_code":13},"0063":{"zip_code":"1350063","prefecture":"東京都","prefecture_kana":"トウキョウト","city":"江東区","city_kana":"コウトウク","town":"有明","town_kana":"アリアケ","prefecture_code":13},"0014":{"zip_code":"1350014","prefecture":"東京都","prefecture_kana":"トウキョウト","city":"江東区","city_kana":"コウトウク","town":"石島","town_kana":"イシジマ","prefecture_code":13},"0012":{"zip_code":"1350012","prefecture":"東京都","prefecture_kana":"トウキョウト","city":"江東区","city_kana":"コウトウク","town":"海辺","town_kana":"ウミベ","prefecture_code":13},"0034":{"zip_code":"1350034","prefecture":"東京都","prefecture_kana":"トウキョウト","city":"江東区","city_kana":"コウトウク","town":"永代","town_kana":"エイタイ","prefecture_code":13},"0051":{"zip_code":"1350051","prefecture":"東京都","prefecture_kana":"トウキョウト","city":"江東区","city_kana":"コウトウク","town":"枝川","town_kana":"エダガワ","prefecture_code":13},"0044":{"zip_code":"1350044","prefecture":"東京都","prefecture_kana":"トウキョウト","city":"江東区","city_kana":"コウトウク","town":"越中島","town_kana":"エッチュウジマ","prefecture_code":13},"0011":{"zip_code":"1350011","prefecture":"東京都","prefecture_kana":"トウキョウト","city":"江東区","city_kana":"コウトウク","town":"扇橋","town_kana":"オウギバシ","prefecture_code":13},"0042":{"zip_code":"1350042","prefecture":"東京都","prefecture_kana":"トウキョウト","city":"江東区","city_kana":"コウトウク","town":"木場","town_kana":"キバ","prefecture_code":13},"0024":{"zip_code":"1350024","prefecture":"東京都","prefecture_kana":"トウキョウト","city":"江東区","city_kana":"コウトウク","town":"清澄","town_kana":"キヨスミ","prefecture_code":13},"0031":{"zip_code":"1350031","prefecture":"東京都","prefecture_kana":"トウキョウト","city":"江東区","city_kana":"コウトウク","town":"佐賀","town_kana":"サガ","prefecture_code":13},"0003":{"zip_code":"1350003","prefecture":"東京都","prefecture_kana":"トウキョウト","city":"江東区","city_kana":"コウトウク","town":"猿江","town_kana":"サルエ","prefecture_code":13},"0043":{"zip_code":"1350043","prefecture":"東京都","prefecture_kana":"トウキョウト","city":"江東区","city_kana":"コウトウク","town":"塩浜","town_kana":"シオハマ","prefecture_code":13},"0052":{"zip_code":"1350052","prefecture":"東京都","prefecture_kana":"トウキョウト","city":"江東区","city_kana":"コウトウク","town":"潮見","town_kana":"シオミ","prefecture_code":13},"0062":{"zip_code":"1350062","prefecture":"東京都","prefecture_kana":"トウキョウト","city":"江東区","city_kana":"コウトウク","town":"東雲","town_kana":"シノノメ","prefecture_code":13},"0021":{"zip_code":"1350021","prefecture":"東京都","prefecture_kana":"トウキョウト","city":"江東区","city_kana":"コウトウク","town":"白河","town_kana":"シラカワ","prefecture_code":13},"0007":{"zip_code":"1350007","prefecture":"東京都","prefecture_kana":"トウキョウト","city":"江東区","city_kana":"コウトウク","town":"新大橋","town_kana":"シンオオハシ","prefecture_code":13},"0002":{"zip_code":"1350002","prefecture":"東京都","prefecture_kana":"トウキョウト","city":"江東区","city_kana":"コウトウク","town":"住吉","town_kana":"スミヨシ","prefecture_code":13},"0015":{"zip_code":"1350015","prefecture":"東京都","prefecture_kana":"トウキョウト","city":"江東区","city_kana":"コウトウク","town":"千石","town_kana":"センゴク","prefecture_code":13},"0013":{"zip_code":"1350013","prefecture":"東京都","prefecture_kana":"トウキョウト","city":"江東区","city_kana":"コウトウク","town":"千田","town_kana":"センダ","prefecture_code":13},"0005":{"zip_code":"1350005","prefecture":"東京都","prefecture_kana":"トウキョウト","city":"江東区","city_kana":"コウトウク","town":"高橋","town_kana":"タカバシ","prefecture_code":13},"0053":{"zip_code":"1350053","prefecture":"東京都","prefecture_kana":"トウキョウト","city":"江東区","city_kana":"コウトウク","town":"辰巳","town_kana":"タツミ","prefecture_code":13},"0065":{"zip_code":"1350065","prefecture":"東京都","prefecture_kana":"トウキョウト","city":"江東区","city_kana":"コウトウク","town":"中央防波堤","town_kana":"チュウオウボウハテイ","prefecture_code":13},"0016":{"zip_code":"1350016","prefecture":"東京都","prefecture_kana":"トウキョウト","city":"江東区","city_kana":"コウトウク","town":"東陽","town_kana":"トウヨウ","prefecture_code":13},"0006":{"zip_code":"1350006","prefecture":"東京都","prefecture_kana":"トウキョウト","city":"江東区","city_kana":"コウトウク","town":"常盤","town_kana":"トキワ","prefecture_code":13},"0047":{"zip_code":"1350047","prefecture":"東京都","prefecture_kana":"トウキョウト","city":"江東区","city_kana":"コウトウク","town":"富岡","town_kana":"トミオカ","prefecture_code":13},"0061":{"zip_code":"1350061","prefecture":"東京都","prefecture_kana":"トウキョウト","city":"江東区","city_kana":"コウトウク","town":"豊洲（次のビルを除く）","town_kana":"トヨス(ツギノビルヲノゾク)","prefecture_code":13},"6090":{"zip_code":"1356090","prefecture":"東京都","prefecture_kana":"トウキョウト","city":"江東区","city_kana":"コウトウク","town":"豊洲豊洲センタービル（地階・階層不明）","town_kana":"トヨストヨスセンタービル(チカイ・カイソウフメイ)","prefecture_code":13},"6001":{"zip_code":"1356001","prefecture":"東京都","prefecture_kana":"トウキョウト","city":"江東区","city_kana":"コウトウク","town":"豊洲豊洲センタービル（１階）","town_kana":"トヨストヨスセンタービル(1カイ)","prefecture_code":13},"6002":{"zip_code":"1356002","prefecture":"東京都","prefecture_kana":"トウキョウト","city":"江東区","city_kana":"コウトウク","town":"豊洲豊洲センタービル（２階）","town_kana":"トヨストヨスセンタービル(2カイ)","prefecture_code":13},"6003":{"zip_code":"1356003","prefecture":"東京都","prefecture_kana":"トウキョウト","city":"江東区","city_kana":"コウトウク","town":"豊洲豊洲センタービル（３階）","town_kana":"トヨストヨスセンタービル(3カイ)","prefecture_code":13},"6004":{"zip_code":"1356004","prefecture":"東京都","prefecture_kana":"トウキョウト","city":"江東区","city_kana":"コウトウク","town":"豊洲豊洲センタービル（４階）","town_kana":"トヨストヨスセンタービル(4カイ)","prefecture_code":13},"6005":{"zip_code":"1356005","prefecture":"東京都","prefecture_kana":"トウキョウト","city":"江東区","city_kana":"コウトウク","town":"豊洲豊洲センタービル（５階）","town_kana":"トヨストヨスセンタービル(5カイ)","prefecture_code":13},"6006":{"zip_code":"1356006","prefecture":"東京都","prefecture_kana":"トウキョウト","city":"江東区","city_kana":"コウトウク","town":"豊洲豊洲センタービル（６階）","town_kana":"トヨストヨスセンタービル(6カイ)","prefecture_code":13},"6007":{"zip_code":"1356007","prefecture":"東京都","prefecture_kana":"トウキョウト","city":"江東区","city_kana":"コウトウク","town":"豊洲豊洲センタービル（７階）","town_kana":"トヨストヨスセンタービル(7カイ)","prefecture_code":13},"6008":{"zip_code":"1356008","prefecture":"東京都","prefecture_kana":"トウキョウト","city":"江東区","city_kana":"コウトウク","town":"豊洲豊洲センタービル（８階）","town_kana":"トヨストヨスセンタービル(8カイ)","prefecture_code":13},"6009":{"zip_code":"1356009","prefecture":"東京都","prefecture_kana":"トウキョウト","city":"江東区","city_kana":"コウトウク","town":"豊洲豊洲センタービル（９階）","town_kana":"トヨストヨスセンタービル(9カイ)","prefecture_code":13},"6010":{"zip_code":"1356010","prefecture":"東京都","prefecture_kana":"トウキョウト","city":"江東区","city_kana":"コウトウク","town":"豊洲豊洲センタービル（１０階）","town_kana":"トヨストヨスセンタービル(10カイ)","prefecture_code":13},"6011":{"zip_code":"1356011","prefecture":"東京都","prefecture_kana":"トウキョウト","city":"江東区","city_kana":"コウトウク","town":"豊洲豊洲センタービル（１１階）","town_kana":"トヨストヨスセンタービル(11カイ)","prefecture_code":13},"6012":{"zip_code":"1356012","prefecture":"東京都","prefecture_kana":"トウキョウト","city":"江東区","city_kana":"コウトウク","town":"豊洲豊洲センタービル（１２階）","town_kana":"トヨストヨスセンタービル(12カイ)","prefecture_code":13},"6013":{"zip_code":"1356013","prefecture":"東京都","prefecture_kana":"トウキョウト","city":"江東区","city_kana":"コウトウク","town":"豊洲豊洲センタービル（１３階）","town_kana":"トヨストヨスセンタービル(13カイ)","prefecture_code":13},"6014":{"zip_code":"1356014","prefecture":"東京都","prefecture_kana":"トウキョウト","city":"江東区","city_kana":"コウトウク","town":"豊洲豊洲センタービル（１４階）","town_kana":"トヨストヨスセンタービル(14カイ)","prefecture_code":13},"6015":{"zip_code":"1356015","prefecture":"東京都","prefecture_kana":"トウキョウト","city":"江東区","city_kana":"コウトウク","town":"豊洲豊洲センタービル（１５階）","town_kana":"トヨストヨスセンタービル(15カイ)","prefecture_code":13},"6016":{"zip_code":"1356016","prefecture":"東京都","prefecture_kana":"トウキョウト","city":"江東区","city_kana":"コウトウク","town":"豊洲豊洲センタービル（１６階）","town_kana":"トヨストヨスセンタービル(16カイ)","prefecture_code":13},"6017":{"zip_code":"1356017","prefecture":"東京都","prefecture_kana":"トウキョウト","city":"江東区","city_kana":"コウトウク","town":"豊洲豊洲センタービル（１７階）","town_kana":"トヨストヨスセンタービル(17カイ)","prefecture_code":13},"6018":{"zip_code":"1356018","prefecture":"東京都","prefecture_kana":"トウキョウト","city":"江東区","city_kana":"コウトウク","town":"豊洲豊洲センタービル（１８階）","town_kana":"トヨストヨスセンタービル(18カイ)","prefecture_code":13},"6019":{"zip_code":"1356019","prefecture":"東京都","prefecture_kana":"トウキョウト","city":"江東区","city_kana":"コウトウク","town":"豊洲豊洲センタービル（１９階）","town_kana":"トヨストヨスセンタービル(19カイ)","prefecture_code":13},"6020":{"zip_code":"1356020","prefecture":"東京都","prefecture_kana":"トウキョウト","city":"江東区","city_kana":"コウトウク","town":"豊洲豊洲センタービル（２０階）","town_kana":"トヨストヨスセンタービル(20カイ)","prefecture_code":13},"6021":{"zip_code":"1356021","prefecture":"東京都","prefecture_kana":"トウキョウト","city":"江東区","city_kana":"コウトウク","town":"豊洲豊洲センタービル（２１階）","town_kana":"トヨストヨスセンタービル(21カイ)","prefecture_code":13},"6022":{"zip_code":"1356022","prefecture":"東京都","prefecture_kana":"トウキョウト","city":"江東区","city_kana":"コウトウク","town":"豊洲豊洲センタービル（２２階）","town_kana":"トヨストヨスセンタービル(22カイ)","prefecture_code":13},"6023":{"zip_code":"1356023","prefecture":"東京都","prefecture_kana":"トウキョウト","city":"江東区","city_kana":"コウトウク","town":"豊洲豊洲センタービル（２３階）","town_kana":"トヨストヨスセンタービル(23カイ)","prefecture_code":13},"6024":{"zip_code":"1356024","prefecture":"東京都","prefecture_kana":"トウキョウト","city":"江東区","city_kana":"コウトウク","town":"豊洲豊洲センタービル（２４階）","town_kana":"トヨストヨスセンタービル(24カイ)","prefecture_code":13},"6025":{"zip_code":"1356025","prefecture":"東京都","prefecture_kana":"トウキョウト","city":"江東区","city_kana":"コウトウク","town":"豊洲豊洲センタービル（２５階）","town_kana":"トヨストヨスセンタービル(25カイ)","prefecture_code":13},"6026":{"zip_code":"1356026","prefecture":"東京都","prefecture_kana":"トウキョウト","city":"江東区","city_kana":"コウトウク","town":"豊洲豊洲センタービル（２６階）","town_kana":"トヨストヨスセンタービル(26カイ)","prefecture_code":13},"6027":{"zip_code":"1356027","prefecture":"東京都","prefecture_kana":"トウキョウト","city":"江東区","city_kana":"コウトウク","town":"豊洲豊洲センタービル（２７階）","town_kana":"トヨストヨスセンタービル(27カイ)","prefecture_code":13},"6028":{"zip_code":"1356028","prefecture":"東京都","prefecture_kana":"トウキョウト","city":"江東区","city_kana":"コウトウク","town":"豊洲豊洲センタービル（２８階）","town_kana":"トヨストヨスセンタービル(28カイ)","prefecture_code":13},"6029":{"zip_code":"1356029","prefecture":"東京都","prefecture_kana":"トウキョウト","city":"江東区","city_kana":"コウトウク","town":"豊洲豊洲センタービル（２９階）","town_kana":"トヨストヨスセンタービル(29カイ)","prefecture_code":13},"6030":{"zip_code":"1356030","prefecture":"東京都","prefecture_kana":"トウキョウト","city":"江東区","city_kana":"コウトウク","town":"豊洲豊洲センタービル（３０階）","town_kana":"トヨストヨスセンタービル(30カイ)","prefecture_code":13},"6031":{"zip_code":"1356031","prefecture":"東京都","prefecture_kana":"トウキョウト","city":"江東区","city_kana":"コウトウク","town":"豊洲豊洲センタービル（３１階）","town_kana":"トヨストヨスセンタービル(31カイ)","prefecture_code":13},"6032":{"zip_code":"1356032","prefecture":"東京都","prefecture_kana":"トウキョウト","city":"江東区","city_kana":"コウトウク","town":"豊洲豊洲センタービル（３２階）","town_kana":"トヨストヨスセンタービル(32カイ)","prefecture_code":13},"6033":{"zip_code":"1356033","prefecture":"東京都","prefecture_kana":"トウキョウト","city":"江東区","city_kana":"コウトウク","town":"豊洲豊洲センタービル（３３階）","town_kana":"トヨストヨスセンタービル(33カイ)","prefecture_code":13},"6034":{"zip_code":"1356034","prefecture":"東京都","prefecture_kana":"トウキョウト","city":"江東区","city_kana":"コウトウク","town":"豊洲豊洲センタービル（３４階）","town_kana":"トヨストヨスセンタービル(34カイ)","prefecture_code":13},"6035":{"zip_code":"1356035","prefecture":"東京都","prefecture_kana":"トウキョウト","city":"江東区","city_kana":"コウトウク","town":"豊洲豊洲センタービル（３５階）","town_kana":"トヨストヨスセンタービル(35カイ)","prefecture_code":13},"6036":{"zip_code":"1356036","prefecture":"東京都","prefecture_kana":"トウキョウト","city":"江東区","city_kana":"コウトウク","town":"豊洲豊洲センタービル（３６階）","town_kana":"トヨストヨスセンタービル(36カイ)","prefecture_code":13},"6037":{"zip_code":"1356037","prefecture":"東京都","prefecture_kana":"トウキョウト","city":"江東区","city_kana":"コウトウク","town":"豊洲豊洲センタービル（３７階）","town_kana":"トヨストヨスセンタービル(37カイ)","prefecture_code":13},"0023":{"zip_code":"1350023","prefecture":"東京都","prefecture_kana":"トウキョウト","city":"江東区","city_kana":"コウトウク","town":"平野","town_kana":"ヒラノ","prefecture_code":13},"0033":{"zip_code":"1350033","prefecture":"東京都","prefecture_kana":"トウキョウト","city":"江東区","city_kana":"コウトウク","town":"深川","town_kana":"フカガワ","prefecture_code":13},"0032":{"zip_code":"1350032","prefecture":"東京都","prefecture_kana":"トウキョウト","city":"江東区","city_kana":"コウトウク","town":"福住","town_kana":"フクズミ","prefecture_code":13},"0041":{"zip_code":"1350041","prefecture":"東京都","prefecture_kana":"トウキョウト","city":"江東区","city_kana":"コウトウク","town":"冬木","town_kana":"フユキ","prefecture_code":13},"0045":{"zip_code":"1350045","prefecture":"東京都","prefecture_kana":"トウキョウト","city":"江東区","city_kana":"コウトウク","town":"古石場","town_kana":"フルイシバ","prefecture_code":13},"0046":{"zip_code":"1350046","prefecture":"東京都","prefecture_kana":"トウキョウト","city":"江東区","city_kana":"コウトウク","town":"牡丹","town_kana":"ボタン","prefecture_code":13},"0022":{"zip_code":"1350022","prefecture":"東京都","prefecture_kana":"トウキョウト","city":"江東区","city_kana":"コウトウク","town":"三好","town_kana":"ミヨシ","prefecture_code":13},"0001":{"zip_code":"1350001","prefecture":"東京都","prefecture_kana":"トウキョウト","city":"江東区","city_kana":"コウトウク","town":"毛利","town_kana":"モウリ","prefecture_code":13},"0004":{"zip_code":"1350004","prefecture":"東京都","prefecture_kana":"トウキョウト","city":"江東区","city_kana":"コウトウク","town":"森下","town_kana":"モリシタ","prefecture_code":13},"0048":{"zip_code":"1350048","prefecture":"東京都","prefecture_kana":"トウキョウト","city":"江東区","city_kana":"コウトウク","town":"門前仲町","town_kana":"モンゼンナカチョウ","prefecture_code":13},"0092":{"zip_code":"1350092","prefecture":"東京都","prefecture_kana":"トウキョウト","city":"品川区","city_kana":"シナガワク","town":"東八潮","town_kana":"ヒガシヤシオ","prefecture_code":13}}