{"0000":{"zip_code":"1400000","prefecture":"東京都","prefecture_kana":"トウキョウト","city":"品川区","city_kana":"シナガワク","town":"","town_kana":"","prefecture_code":13},"0014":{"zip_code":"1400014","prefecture":"東京都","prefecture_kana":"トウキョウト","city":"品川区","city_kana":"シナガワク","town":"大井","town_kana":"オオイ","prefecture_code":13},"0012":{"zip_code":"1400012","prefecture":"東京都","prefecture_kana":"トウキョウト","city":"品川区","city_kana":"シナガワク","town":"勝島","town_kana":"カツシマ","prefecture_code":13},"0001":{"zip_code":"1400001","prefecture":"東京都","prefecture_kana":"トウキョウト","city":"品川区","city_kana":"シナガワク","town":"北品川","town_kana":"キタシナガワ","prefecture_code":13},"0015":{"zip_code":"1400015","prefecture":"東京都","prefecture_kana":"トウキョウト","city":"品川区","city_kana":"シナガワク","town":"西大井","town_kana":"ニシオオイ","prefecture_code":13},"0011":{"zip_code":"1400011","prefecture":"東京都","prefecture_kana":"トウキョウト","city":"品川区","city_kana":"シナガワク","town":"東大井","town_kana":"ヒガシオオイ","prefecture_code":13},"0002":{"zip_code":"1400002","prefecture":"東京都","prefecture_kana":"トウキョウト","city":"品川区","city_kana":"シナガワク","town":"東品川","town_kana":"ヒガシシナガワ","prefecture_code":13},"0005":{"zip_code":"1400005","prefecture":"東京都","prefecture_kana":"トウキョウト","city":"品川区","city_kana":"シナガワク","town":"広町","town_kana":"ヒロマチ","prefecture_code":13},"0013":{"zip_code":"1400013","prefecture":"東京都","prefecture_kana":"トウキョウト","city":"品川区","city_kana":"シナガワク","town":"南大井","town_kana":"ミナミオオイ","prefecture_code":13},"0004":{"zip_code":"1400004","prefecture":"東京都","prefecture_kana":"トウキョウト","city":"品川区","city_kana":"シナガワク","town":"南品川","town_kana":"ミナミシナガワ","prefecture_code":13},"0003":{"zip_code":"1400003","prefecture":"東京都","prefecture_kana":"トウキョウト","city":"品川区","city_kana":"シナガワク","town":"八潮","town_kana":"ヤシオ","prefecture_code":13}}