{"0000":{"zip_code":"1440000","prefecture":"東京都","prefecture_kana":"トウキョウト","city":"大田区","city_kana":"オオタク","town":"以下に掲載がない場合","town_kana":"イカニケイサイガナイバアイ","prefecture_code":13},"0052":{"zip_code":"1440052","prefecture":"東京都","prefecture_kana":"トウキョウト","city":"大田区","city_kana":"オオタク","town":"蒲田","town_kana":"カマタ","prefecture_code":13},"0053":{"zip_code":"1440053","prefecture":"東京都","prefecture_kana":"トウキョウト","city":"大田区","city_kana":"オオタク","town":"蒲田本町","town_kana":"カマタホンチョウ","prefecture_code":13},"0032":{"zip_code":"1440032","prefecture":"東京都","prefecture_kana":"トウキョウト","city":"大田区","city_kana":"オオタク","town":"北糀谷","town_kana":"キタコウジヤ","prefecture_code":13},"0054":{"zip_code":"1440054","prefecture":"東京都","prefecture_kana":"トウキョウト","city":"大田区","city_kana":"オオタク","town":"新蒲田","town_kana":"シンカマタ","prefecture_code":13},"0055":{"zip_code":"1440055","prefecture":"東京都","prefecture_kana":"トウキョウト","city":"大田区","city_kana":"オオタク","town":"仲六郷","town_kana":"ナカロクゴウ","prefecture_code":13},"0051":{"zip_code":"1440051","prefecture":"東京都","prefecture_kana":"トウキョウト","city":"大田区","city_kana":"オオタク","town":"西蒲田","town_kana":"ニシカマタ","prefecture_code":13},"0034":{"zip_code":"1440034","prefecture":"東京都","prefecture_kana":"トウキョウト","city":"大田区","city_kana":"オオタク","town":"西糀谷","town_kana":"ニシコウジヤ","prefecture_code":13},"0056":{"zip_code":"1440056","prefecture":"東京都","prefecture_kana":"トウキョウト","city":"大田区","city_kana":"オオタク","town":"西六郷","town_kana":"ニシロクゴウ","prefecture_code":13},"0047":{"zip_code":"1440047","prefecture":"東京都","prefecture_kana":"トウキョウト","city":"大田区","city_kana":"オオタク","town":"萩中","town_kana":"ハギナカ","prefecture_code":13},"0043":{"zip_code":"1440043","prefecture":"東京都","prefecture_kana":"トウキョウト","city":"大田区","city_kana":"オオタク","town":"羽田","town_kana":"ハネダ","prefecture_code":13},"0042":{"zip_code":"1440042","prefecture":"東京都","prefecture_kana":"トウキョウト","city":"大田区","city_kana":"オオタク","town":"羽田旭町","town_kana":"ハネダアサヒチョウ","prefecture_code":13},"0041":{"zip_code":"1440041","prefecture":"東京都","prefecture_kana":"トウキョウト","city":"大田区","city_kana":"オオタク","town":"羽田空港","town_kana":"ハネダクウコウ","prefecture_code":13},"0031":{"zip_code":"1440031","prefecture":"東京都","prefecture_kana":"トウキョウト","city":"大田区","city_kana":"オオタク","town":"東蒲田","town_kana":"ヒガシカマタ","prefecture_code":13},"0033":{"zip_code":"1440033","prefecture":"東京都","prefecture_kana":"トウキョウト","city":"大田区","city_kana":"オオタク","town":"東糀谷","town_kana":"ヒガシコウジヤ","prefecture_code":13},"0046":{"zip_code":"1440046","prefecture":"東京都","prefecture_kana":"トウキョウト","city":"大田区","city_kana":"オオタク","town":"東六郷","town_kana":"ヒガシロクゴウ","prefecture_code":13},"0044":{"zip_code":"1440044","prefecture":"東京都","prefecture_kana":"トウキョウト","city":"大田区","city_kana":"オオタク","town":"本羽田","town_kana":"ホンハネダ","prefecture_code":13},"0035":{"zip_code":"1440035","prefecture":"東京都","prefecture_kana":"トウキョウト","city":"大田区","city_kana":"オオタク","town":"南蒲田","town_kana":"ミナミカマタ","prefecture_code":13},"0045":{"zip_code":"1440045","prefecture":"東京都","prefecture_kana":"トウキョウト","city":"大田区","city_kana":"オオタク","town":"南六郷","town_kana":"ミナミロクゴウ","prefecture_code":13}}