{"0061":{"zip_code":"1450061","prefecture":"東京都","prefecture_kana":"トウキョウト","city":"大田区","city_kana":"オオタク","town":"石川町","town_kana":"イシカワチョウ","prefecture_code":13},"0064":{"zip_code":"1450064","prefecture":"東京都","prefecture_kana":"トウキョウト","city":"大田区","city_kana":"オオタク","town":"上池台","town_kana":"カミイケダイ","prefecture_code":13},"0062":{"zip_code":"1450062","prefecture":"東京都","prefecture_kana":"トウキョウト","city":"大田区","city_kana":"オオタク","town":"北千束","town_kana":"キタセンゾク","prefecture_code":13},"0073":{"zip_code":"1450073","prefecture":"東京都","prefecture_kana":"トウキョウト","city":"大田区","city_kana":"オオタク","town":"北嶺町","town_kana":"キタミネマチ","prefecture_code":13},"0071":{"zip_code":"1450071","prefecture":"東京都","prefecture_kana":"トウキョウト","city":"大田区","city_kana":"オオタク","town":"田園調布","town_kana":"デンエンチョウフ","prefecture_code":13},"0072":{"zip_code":"1450072","prefecture":"東京都","prefecture_kana":"トウキョウト","city":"大田区","city_kana":"オオタク","town":"田園調布本町","town_kana":"デンエンチョウフホンチョウ","prefecture_code":13},"0076":{"zip_code":"1450076","prefecture":"東京都","prefecture_kana":"トウキョウト","city":"大田区","city_kana":"オオタク","town":"田園調布南","town_kana":"デンエンチョウフミナミ","prefecture_code":13},"0075":{"zip_code":"1450075","prefecture":"東京都","prefecture_kana":"トウキョウト","city":"大田区","city_kana":"オオタク","town":"西嶺町","town_kana":"ニシミネマチ","prefecture_code":13},"0074":{"zip_code":"1450074","prefecture":"東京都","prefecture_kana":"トウキョウト","city":"大田区","city_kana":"オオタク","town":"東嶺町","town_kana":"ヒガシミネマチ","prefecture_code":13},"0065":{"zip_code":"1450065","prefecture":"東京都","prefecture_kana":"トウキョウト","city":"大田区","city_kana":"オオタク","town":"東雪谷","town_kana":"ヒガシユキガヤ","prefecture_code":13},"0063":{"zip_code":"1450063","prefecture":"東京都","prefecture_kana":"トウキョウト","city":"大田区","city_kana":"オオタク","town":"南千束","town_kana":"ミナミセンゾク","prefecture_code":13},"0066":{"zip_code":"1450066","prefecture":"東京都","prefecture_kana":"トウキョウト","city":"大田区","city_kana":"オオタク","town":"南雪谷","town_kana":"ミナミユキガヤ","prefecture_code":13},"0067":{"zip_code":"1450067","prefecture":"東京都","prefecture_kana":"トウキョウト","city":"大田区","city_kana":"オオタク","town":"雪谷大塚町","town_kana":"ユキガヤオオツカマチ","prefecture_code":13}}