{"0082":{"zip_code":"1460082","prefecture":"東京都","prefecture_kana":"トウキョウト","city":"大田区","city_kana":"オオタク","town":"池上","town_kana":"イケガミ","prefecture_code":13},"0091":{"zip_code":"1460091","prefecture":"東京都","prefecture_kana":"トウキョウト","city":"大田区","city_kana":"オオタク","town":"鵜の木","town_kana":"ウノキ","prefecture_code":13},"0085":{"zip_code":"1460085","prefecture":"東京都","prefecture_kana":"トウキョウト","city":"大田区","city_kana":"オオタク","town":"久が原","town_kana":"クガハラ","prefecture_code":13},"0092":{"zip_code":"1460092","prefecture":"東京都","prefecture_kana":"トウキョウト","city":"大田区","city_kana":"オオタク","town":"下丸子","town_kana":"シモマルコ","prefecture_code":13},"0095":{"zip_code":"1460095","prefecture":"東京都","prefecture_kana":"トウキョウト","city":"大田区","city_kana":"オオタク","town":"多摩川","town_kana":"タマガワ","prefecture_code":13},"0083":{"zip_code":"1460083","prefecture":"東京都","prefecture_kana":"トウキョウト","city":"大田区","city_kana":"オオタク","town":"千鳥","town_kana":"チドリ","prefecture_code":13},"0081":{"zip_code":"1460081","prefecture":"東京都","prefecture_kana":"トウキョウト","city":"大田区","city_kana":"オオタク","town":"仲池上","town_kana":"ナカイケガミ","prefecture_code":13},"0094":{"zip_code":"1460094","prefecture":"東京都","prefecture_kana":"トウキョウト","city":"大田区","city_kana":"オオタク","town":"東矢口","town_kana":"ヒガシヤグチ","prefecture_code":13},"0084":{"zip_code":"1460084","prefecture":"東京都","prefecture_kana":"トウキョウト","city":"大田区","city_kana":"オオタク","town":"南久が原","town_kana":"ミナミクガハラ","prefecture_code":13},"0093":{"zip_code":"1460093","prefecture":"東京都","prefecture_kana":"トウキョウト","city":"大田区","city_kana":"オオタク","town":"矢口","town_kana":"ヤグチ","prefecture_code":13}}