{"0000":{"zip_code":"1500000","prefecture":"東京都","prefecture_kana":"トウキョウト","city":"渋谷区","city_kana":"シブヤク","town":"以下に掲載がない場合","town_kana":"イカニケイサイガナイバアイ","prefecture_code":13},"0032":{"zip_code":"1500032","prefecture":"東京都","prefecture_kana":"トウキョウト","city":"渋谷区","city_kana":"シブヤク","town":"鶯谷町","town_kana":"ウグイスダニチョウ","prefecture_code":13},"0042":{"zip_code":"1500042","prefecture":"東京都","prefecture_kana":"トウキョウト","city":"渋谷区","city_kana":"シブヤク","town":"宇田川町","town_kana":"ウダガワチョウ","prefecture_code":13},"0013":{"zip_code":"1500013","prefecture":"東京都","prefecture_kana":"トウキョウト","city":"渋谷区","city_kana":"シブヤク","town":"恵比寿（次のビルを除く）","town_kana":"エビス(ツギノビルヲノゾク)","prefecture_code":13},"6090":{"zip_code":"1506090","prefecture":"東京都","prefecture_kana":"トウキョウト","city":"渋谷区","city_kana":"シブヤク","town":"恵比寿恵比寿ガーデンプレイス（地階・階層不明）","town_kana":"エビスエビスガーデンプレイス(チカイ・カイソウフメイ)","prefecture_code":13},"6001":{"zip_code":"1506001","prefecture":"東京都","prefecture_kana":"トウキョウト","city":"渋谷区","city_kana":"シブヤク","town":"恵比寿恵比寿ガーデンプレイス（１階）","town_kana":"エビスエビスガーデンプレイス(1カイ)","prefecture_code":13},"6002":{"zip_code":"1506002","prefecture":"東京都","prefecture_kana":"トウキョウト","city":"渋谷区","city_kana":"シブヤク","town":"恵比寿恵比寿ガーデンプレイス（２階）","town_kana":"エビスエビスガーデンプレイス(2カイ)","prefecture_code":13},"6003":{"zip_code":"1506003","prefecture":"東京都","prefecture_kana":"トウキョウト","city":"渋谷区","city_kana":"シブヤク","town":"恵比寿恵比寿ガーデンプレイス（３階）","town_kana":"エビスエビスガーデンプレイス(3カイ)","prefecture_code":13},"6004":{"zip_code":"1506004","prefecture":"東京都","prefecture_kana":"トウキョウト","city":"渋谷区","city_kana":"シブヤク","town":"恵比寿恵比寿ガーデンプレイス（４階）","town_kana":"エビスエビスガーデンプレイス(4カイ)","prefecture_code":13},"6005":{"zip_code":"1506005","prefecture":"東京都","prefecture_kana":"トウキョウト","city":"渋谷区","city_kana":"シブヤク","town":"恵比寿恵比寿ガーデンプレイス（５階）","town_kana":"エビスエビスガーデンプレイス(5カイ)","prefecture_code":13},"6006":{"zip_code":"1506006","prefecture":"東京都","prefecture_kana":"トウキョウト","city":"渋谷区","city_kana":"シブヤク","town":"恵比寿恵比寿ガーデンプレイス（６階）","town_kana":"エビスエビスガーデンプレイス(6カイ)","prefecture_code":13},"6007":{"zip_code":"1506007","prefecture":"東京都","prefecture_kana":"トウキョウト","city":"渋谷区","city_kana":"シブヤク","town":"恵比寿恵比寿ガーデンプレイス（７階）","town_kana":"エビスエビスガーデンプレイス(7カイ)","prefecture_code":13},"6008":{"zip_code":"1506008","prefecture":"東京都","prefecture_kana":"トウキョウト","city":"渋谷区","city_kana":"シブヤク","town":"恵比寿恵比寿ガーデンプレイス（８階）","town_kana":"エビスエビスガーデンプレイス(8カイ)","prefecture_code":13},"6009":{"zip_code":"1506009","prefecture":"東京都","prefecture_kana":"トウキョウト","city":"渋谷区","city_kana":"シブヤク","town":"恵比寿恵比寿ガーデンプレイス（９階）","town_kana":"エビスエビスガーデンプレイス(9カイ)","prefecture_code":13},"6010":{"zip_code":"1506010","prefecture":"東京都","prefecture_kana":"トウキョウト","city":"渋谷区","city_kana":"シブヤク","town":"恵比寿恵比寿ガーデンプレイス（１０階）","town_kana":"エビスエビスガーデンプレイス(10カイ)","prefecture_code":13},"6011":{"zip_code":"1506011","prefecture":"東京都","prefecture_kana":"トウキョウト","city":"渋谷区","city_kana":"シブヤク","town":"恵比寿恵比寿ガーデンプレイス（１１階）","town_kana":"エビスエビスガーデンプレイス(11カイ)","prefecture_code":13},"6012":{"zip_code":"1506012","prefecture":"東京都","prefecture_kana":"トウキョウト","city":"渋谷区","city_kana":"シブヤク","town":"恵比寿恵比寿ガーデンプレイス（１２階）","town_kana":"エビスエビスガーデンプレイス(12カイ)","prefecture_code":13},"6013":{"zip_code":"1506013","prefecture":"東京都","prefecture_kana":"トウキョウト","city":"渋谷区","city_kana":"シブヤク","town":"恵比寿恵比寿ガーデンプレイス（１３階）","town_kana":"エビスエビスガーデンプレイス(13カイ)","prefecture_code":13},"6014":{"zip_code":"1506014","prefecture":"東京都","prefecture_kana":"トウキョウト","city":"渋谷区","city_kana":"シブヤク","town":"恵比寿恵比寿ガーデンプレイス（１４階）","town_kana":"エビスエビスガーデンプレイス(14カイ)","prefecture_code":13},"6015":{"zip_code":"1506015","prefecture":"東京都","prefecture_kana":"トウキョウト","city":"渋谷区","city_kana":"シブヤク","town":"恵比寿恵比寿ガーデンプレイス（１５階）","town_kana":"エビスエビスガーデンプレイス(15カイ)","prefecture_code":13},"6016":{"zip_code":"1506016","prefecture":"東京都","prefecture_kana":"トウキョウト","city":"渋谷区","city_kana":"シブヤク","town":"恵比寿恵比寿ガーデンプレイス（１６階）","town_kana":"エビスエビスガーデンプレイス(16カイ)","prefecture_code":13},"6017":{"zip_code":"1506017","prefecture":"東京都","prefecture_kana":"トウキョウト","city":"渋谷区","city_kana":"シブヤク","town":"恵比寿恵比寿ガーデンプレイス（１７階）","town_kana":"エビスエビスガーデンプレイス(17カイ)","prefecture_code":13},"6018":{"zip_code":"1506018","prefecture":"東京都","prefecture_kana":"トウキョウト","city":"渋谷区","city_kana":"シブヤク","town":"恵比寿恵比寿ガーデンプレイス（１８階）","town_kana":"エビスエビスガーデンプレイス(18カイ)","prefecture_code":13},"6019":{"zip_code":"1506019","prefecture":"東京都","prefecture_kana":"トウキョウト","city":"渋谷区","city_kana":"シブヤク","town":"恵比寿恵比寿ガーデンプレイス（１９階）","town_kana":"エビスエビスガーデンプレイス(19カイ)","prefecture_code":13},"6020":{"zip_code":"1506020","prefecture":"東京都","prefecture_kana":"トウキョウト","city":"渋谷区","city_kana":"シブヤク","town":"恵比寿恵比寿ガーデンプレイス（２０階）","town_kana":"エビスエビスガーデンプレイス(20カイ)","prefecture_code":13},"6021":{"zip_code":"1506021","prefecture":"東京都","prefecture_kana":"トウキョウト","city":"渋谷区","city_kana":"シブヤク","town":"恵比寿恵比寿ガーデンプレイス（２１階）","town_kana":"エビスエビスガーデンプレイス(21カイ)","prefecture_code":13},"6022":{"zip_code":"1506022","prefecture":"東京都","prefecture_kana":"トウキョウト","city":"渋谷区","city_kana":"シブヤク","town":"恵比寿恵比寿ガーデンプレイス（２２階）","town_kana":"エビスエビスガーデンプレイス(22カイ)","prefecture_code":13},"6023":{"zip_code":"1506023","prefecture":"東京都","prefecture_kana":"トウキョウト","city":"渋谷区","city_kana":"シブヤク","town":"恵比寿恵比寿ガーデンプレイス（２３階）","town_kana":"エビスエビスガーデンプレイス(23カイ)","prefecture_code":13},"6024":{"zip_code":"1506024","prefecture":"東京都","prefecture_kana":"トウキョウト","city":"渋谷区","city_kana":"シブヤク","town":"恵比寿恵比寿ガーデンプレイス（２４階）","town_kana":"エビスエビスガーデンプレイス(24カイ)","prefecture_code":13},"6025":{"zip_code":"1506025","prefecture":"東京都","prefecture_kana":"トウキョウト","city":"渋谷区","city_kana":"シブヤク","town":"恵比寿恵比寿ガーデンプレイス（２５階）","town_kana":"エビスエビスガーデンプレイス(25カイ)","prefecture_code":13},"6026":{"zip_code":"1506026","prefecture":"東京都","prefecture_kana":"トウキョウト","city":"渋谷区","city_kana":"シブヤク","town":"恵比寿恵比寿ガーデンプレイス（２６階）","town_kana":"エビスエビスガーデンプレイス(26カイ)","prefecture_code":13},"6027":{"zip_code":"1506027","prefecture":"東京都","prefecture_kana":"トウキョウト","city":"渋谷区","city_kana":"シブヤク","town":"恵比寿恵比寿ガーデンプレイス（２７階）","town_kana":"エビスエビスガーデンプレイス(27カイ)","prefecture_code":13},"6028":{"zip_code":"1506028","prefecture":"東京都","prefecture_kana":"トウキョウト","city":"渋谷区","city_kana":"シブヤク","town":"恵比寿恵比寿ガーデンプレイス（２８階）","town_kana":"エビスエビスガーデンプレイス(28カイ)","prefecture_code":13},"6029":{"zip_code":"1506029","prefecture":"東京都","prefecture_kana":"トウキョウト","city":"渋谷区","city_kana":"シブヤク","town":"恵比寿恵比寿ガーデンプレイス（２９階）","town_kana":"エビスエビスガーデンプレイス(29カイ)","prefecture_code":13},"6030":{"zip_code":"1506030","prefecture":"東京都","prefecture_kana":"トウキョウト","city":"渋谷区","city_kana":"シブヤク","town":"恵比寿恵比寿ガーデンプレイス（３０階）","town_kana":"エビスエビスガーデンプレイス(30カイ)","prefecture_code":13},"6031":{"zip_code":"1506031","prefecture":"東京都","prefecture_kana":"トウキョウト","city":"渋谷区","city_kana":"シブヤク","town":"恵比寿恵比寿ガーデンプレイス（３１階）","town_kana":"エビスエビスガーデンプレイス(31カイ)","prefecture_code":13},"6032":{"zip_code":"1506032","prefecture":"東京都","prefecture_kana":"トウキョウト","city":"渋谷区","city_kana":"シブヤク","town":"恵比寿恵比寿ガーデンプレイス（３２階）","town_kana":"エビスエビスガーデンプレイス(32カイ)","prefecture_code":13},"6033":{"zip_code":"1506033","prefecture":"東京都","prefecture_kana":"トウキョウト","city":"渋谷区","city_kana":"シブヤク","town":"恵比寿恵比寿ガーデンプレイス（３３階）","town_kana":"エビスエビスガーデンプレイス(33カイ)","prefecture_code":13},"6034":{"zip_code":"1506034","prefecture":"東京都","prefecture_kana":"トウキョウト","city":"渋谷区","city_kana":"シブヤク","town":"恵比寿恵比寿ガーデンプレイス（３４階）","town_kana":"エビスエビスガーデンプレイス(34カイ)","prefecture_code":13},"6035":{"zip_code":"1506035","prefecture":"東京都","prefecture_kana":"トウキョウト","city":"渋谷区","city_kana":"シブヤク","town":"恵比寿恵比寿ガーデンプレイス（３５階）","town_kana":"エビスエビスガーデンプレイス(35カイ)","prefecture_code":13},"6036":{"zip_code":"1506036","prefecture":"東京都","prefecture_kana":"トウキョウト","city":"渋谷区","city_kana":"シブヤク","town":"恵比寿恵比寿ガーデンプレイス（３６階）","town_kana":"エビスエビスガーデンプレイス(36カイ)","prefecture_code":13},"6037":{"zip_code":"1506037","prefecture":"東京都","prefecture_kana":"トウキョウト","city":"渋谷区","city_kana":"シブヤク","town":"恵比寿恵比寿ガーデンプレイス（３７階）","town_kana":"エビスエビスガーデンプレイス(37カイ)","prefecture_code":13},"6038":{"zip_code":"1506038","prefecture":"東京都","prefecture_kana":"トウキョウト","city":"渋谷区","city_kana":"シブヤク","town":"恵比寿恵比寿ガーデンプレイス（３８階）","town_kana":"エビスエビスガーデンプレイス(38カイ)","prefecture_code":13},"6039":{"zip_code":"1506039","prefecture":"東京都","prefecture_kana":"トウキョウト","city":"渋谷区","city_kana":"シブヤク","town":"恵比寿恵比寿ガーデンプレイス（３９階）","town_kana":"エビスエビスガーデンプレイス(39カイ)","prefecture_code":13},"0021":{"zip_code":"1500021","prefecture":"東京都","prefecture_kana":"トウキョウト","city":"渋谷区","city_kana":"シブヤク","town":"恵比寿西","town_kana":"エビスニシ","prefecture_code":13},"0022":{"zip_code":"1500022","prefecture":"東京都","prefecture_kana":"トウキョウト","city":"渋谷区","city_kana":"シブヤク","town":"恵比寿南","town_kana":"エビスミナミ","prefecture_code":13},"0047":{"zip_code":"1500047","prefecture":"東京都","prefecture_kana":"トウキョウト","city":"渋谷区","city_kana":"シブヤク","town":"神山町","town_kana":"カミヤマチョウ","prefecture_code":13},"0031":{"zip_code":"1500031","prefecture":"東京都","prefecture_kana":"トウキョウト","city":"渋谷区","city_kana":"シブヤク","town":"桜丘町","town_kana":"サクラガオカチョウ","prefecture_code":13},"0033":{"zip_code":"1500033","prefecture":"東京都","prefecture_kana":"トウキョウト","city":"渋谷区","city_kana":"シブヤク","town":"猿楽町","town_kana":"サルガクチョウ","prefecture_code":13},"0002":{"zip_code":"1500002","prefecture":"東京都","prefecture_kana":"トウキョウト","city":"渋谷区","city_kana":"シブヤク","town":"渋谷","town_kana":"シブヤ","prefecture_code":13},"0046":{"zip_code":"1500046","prefecture":"東京都","prefecture_kana":"トウキョウト","city":"渋谷区","city_kana":"シブヤク","town":"松濤","town_kana":"ショウトウ","prefecture_code":13},"0001":{"zip_code":"1500001","prefecture":"東京都","prefecture_kana":"トウキョウト","city":"渋谷区","city_kana":"シブヤク","town":"神宮前","town_kana":"ジングウマエ","prefecture_code":13},"0045":{"zip_code":"1500045","prefecture":"東京都","prefecture_kana":"トウキョウト","city":"渋谷区","city_kana":"シブヤク","town":"神泉町","town_kana":"シンセンチョウ","prefecture_code":13},"0041":{"zip_code":"1500041","prefecture":"東京都","prefecture_kana":"トウキョウト","city":"渋谷区","city_kana":"シブヤク","town":"神南","town_kana":"ジンナン","prefecture_code":13},"0034":{"zip_code":"1500034","prefecture":"東京都","prefecture_kana":"トウキョウト","city":"渋谷区","city_kana":"シブヤク","town":"代官山町","town_kana":"ダイカンヤマチョウ","prefecture_code":13},"0043":{"zip_code":"1500043","prefecture":"東京都","prefecture_kana":"トウキョウト","city":"渋谷区","city_kana":"シブヤク","town":"道玄坂","town_kana":"ドウゲンザカ","prefecture_code":13},"0036":{"zip_code":"1500036","prefecture":"東京都","prefecture_kana":"トウキョウト","city":"渋谷区","city_kana":"シブヤク","town":"南平台町","town_kana":"ナンペイダイチョウ","prefecture_code":13},"0035":{"zip_code":"1500035","prefecture":"東京都","prefecture_kana":"トウキョウト","city":"渋谷区","city_kana":"シブヤク","town":"鉢山町","town_kana":"ハチヤマチョウ","prefecture_code":13},"0011":{"zip_code":"1500011","prefecture":"東京都","prefecture_kana":"トウキョウト","city":"渋谷区","city_kana":"シブヤク","town":"東","town_kana":"ヒガシ","prefecture_code":13},"0012":{"zip_code":"1500012","prefecture":"東京都","prefecture_kana":"トウキョウト","city":"渋谷区","city_kana":"シブヤク","town":"広尾","town_kana":"ヒロオ","prefecture_code":13},"0044":{"zip_code":"1500044","prefecture":"東京都","prefecture_kana":"トウキョウト","city":"渋谷区","city_kana":"シブヤク","town":"円山町","town_kana":"マルヤマチョウ","prefecture_code":13}}