{"0000":{"zip_code":"1520000","prefecture":"東京都","prefecture_kana":"トウキョウト","city":"目黒区","city_kana":"メグロク","town":"","town_kana":"","prefecture_code":13},"0033":{"zip_code":"1520033","prefecture":"東京都","prefecture_kana":"トウキョウト","city":"目黒区","city_kana":"メグロク","town":"大岡山","town_kana":"オオオカヤマ","prefecture_code":13},"0022":{"zip_code":"1520022","prefecture":"東京都","prefecture_kana":"トウキョウト","city":"目黒区","city_kana":"メグロク","town":"柿の木坂","town_kana":"カキノキザカ","prefecture_code":13},"0035":{"zip_code":"1520035","prefecture":"東京都","prefecture_kana":"トウキョウト","city":"目黒区","city_kana":"メグロク","town":"自由が丘","town_kana":"ジユウガオカ","prefecture_code":13},"0012":{"zip_code":"1520012","prefecture":"東京都","prefecture_kana":"トウキョウト","city":"目黒区","city_kana":"メグロク","town":"洗足","town_kana":"センゾク","prefecture_code":13},"0032":{"zip_code":"1520032","prefecture":"東京都","prefecture_kana":"トウキョウト","city":"目黒区","city_kana":"メグロク","town":"平町","town_kana":"タイラマチ","prefecture_code":13},"0004":{"zip_code":"1520004","prefecture":"東京都","prefecture_kana":"トウキョウト","city":"目黒区","city_kana":"メグロク","town":"鷹番","town_kana":"タカバン","prefecture_code":13},"0001":{"zip_code":"1520001","prefecture":"東京都","prefecture_kana":"トウキョウト","city":"目黒区","city_kana":"メグロク","town":"中央町","town_kana":"チュウオウチョウ","prefecture_code":13},"0031":{"zip_code":"1520031","prefecture":"東京都","prefecture_kana":"トウキョウト","city":"目黒区","city_kana":"メグロク","town":"中根","town_kana":"ナカネ","prefecture_code":13},"0011":{"zip_code":"1520011","prefecture":"東京都","prefecture_kana":"トウキョウト","city":"目黒区","city_kana":"メグロク","town":"原町","town_kana":"ハラマチ","prefecture_code":13},"0021":{"zip_code":"1520021","prefecture":"東京都","prefecture_kana":"トウキョウト","city":"目黒区","city_kana":"メグロク","town":"東が丘","town_kana":"ヒガシガオカ","prefecture_code":13},"0003":{"zip_code":"1520003","prefecture":"東京都","prefecture_kana":"トウキョウト","city":"目黒区","city_kana":"メグロク","town":"碑文谷","town_kana":"ヒモンヤ","prefecture_code":13},"0034":{"zip_code":"1520034","prefecture":"東京都","prefecture_kana":"トウキョウト","city":"目黒区","city_kana":"メグロク","town":"緑が丘","town_kana":"ミドリガオカ","prefecture_code":13},"0013":{"zip_code":"1520013","prefecture":"東京都","prefecture_kana":"トウキョウト","city":"目黒区","city_kana":"メグロク","town":"南","town_kana":"ミナミ","prefecture_code":13},"0002":{"zip_code":"1520002","prefecture":"東京都","prefecture_kana":"トウキョウト","city":"目黒区","city_kana":"メグロク","town":"目黒本町","town_kana":"メグロホンチョウ","prefecture_code":13},"0023":{"zip_code":"1520023","prefecture":"東京都","prefecture_kana":"トウキョウト","city":"目黒区","city_kana":"メグロク","town":"八雲","town_kana":"ヤクモ","prefecture_code":13}}