{"0000":{"zip_code":"1540000","prefecture":"東京都","prefecture_kana":"トウキョウト","city":"世田谷区","city_kana":"セタガヤク","town":"以下に掲載がない場合","town_kana":"イカニケイサイガナイバアイ","prefecture_code":13},"0001":{"zip_code":"1540001","prefecture":"東京都","prefecture_kana":"トウキョウト","city":"世田谷区","city_kana":"セタガヤク","town":"池尻","town_kana":"イケジリ","prefecture_code":13},"0022":{"zip_code":"1540022","prefecture":"東京都","prefecture_kana":"トウキョウト","city":"世田谷区","city_kana":"セタガヤク","town":"梅丘","town_kana":"ウメガオカ","prefecture_code":13},"0011":{"zip_code":"1540011","prefecture":"東京都","prefecture_kana":"トウキョウト","city":"世田谷区","city_kana":"セタガヤク","town":"上馬","town_kana":"カミウマ","prefecture_code":13},"0021":{"zip_code":"1540021","prefecture":"東京都","prefecture_kana":"トウキョウト","city":"世田谷区","city_kana":"セタガヤク","town":"豪徳寺","town_kana":"ゴウトクジ","prefecture_code":13},"0012":{"zip_code":"1540012","prefecture":"東京都","prefecture_kana":"トウキョウト","city":"世田谷区","city_kana":"セタガヤク","town":"駒沢","town_kana":"コマザワ","prefecture_code":13},"0013":{"zip_code":"1540013","prefecture":"東京都","prefecture_kana":"トウキョウト","city":"世田谷区","city_kana":"セタガヤク","town":"駒沢公園","town_kana":"コマザワコウエン","prefecture_code":13},"0015":{"zip_code":"1540015","prefecture":"東京都","prefecture_kana":"トウキョウト","city":"世田谷区","city_kana":"セタガヤク","town":"桜新町","town_kana":"サクラシンマチ","prefecture_code":13},"0024":{"zip_code":"1540024","prefecture":"東京都","prefecture_kana":"トウキョウト","city":"世田谷区","city_kana":"セタガヤク","town":"三軒茶屋","town_kana":"サンゲンヂャヤ","prefecture_code":13},"0002":{"zip_code":"1540002","prefecture":"東京都","prefecture_kana":"トウキョウト","city":"世田谷区","city_kana":"セタガヤク","town":"下馬","town_kana":"シモウマ","prefecture_code":13},"0014":{"zip_code":"1540014","prefecture":"東京都","prefecture_kana":"トウキョウト","city":"世田谷区","city_kana":"セタガヤク","town":"新町","town_kana":"シンマチ","prefecture_code":13},"0017":{"zip_code":"1540017","prefecture":"東京都","prefecture_kana":"トウキョウト","city":"世田谷区","city_kana":"セタガヤク","town":"世田谷","town_kana":"セタガヤ","prefecture_code":13},"0004":{"zip_code":"1540004","prefecture":"東京都","prefecture_kana":"トウキョウト","city":"世田谷区","city_kana":"セタガヤク","town":"太子堂","town_kana":"タイシドウ","prefecture_code":13},"0016":{"zip_code":"1540016","prefecture":"東京都","prefecture_kana":"トウキョウト","city":"世田谷区","city_kana":"セタガヤク","town":"弦巻","town_kana":"ツルマキ","prefecture_code":13},"0003":{"zip_code":"1540003","prefecture":"東京都","prefecture_kana":"トウキョウト","city":"世田谷区","city_kana":"セタガヤク","town":"野沢","town_kana":"ノザワ","prefecture_code":13},"0005":{"zip_code":"1540005","prefecture":"東京都","prefecture_kana":"トウキョウト","city":"世田谷区","city_kana":"セタガヤク","town":"三宿","town_kana":"ミシュク","prefecture_code":13},"0023":{"zip_code":"1540023","prefecture":"東京都","prefecture_kana":"トウキョウト","city":"世田谷区","city_kana":"セタガヤク","town":"若林","town_kana":"ワカバヤシ","prefecture_code":13}}