{"0803":{"zip_code":"1620803","prefecture":"東京都","prefecture_kana":"トウキョウト","city":"新宿区","city_kana":"シンジュクク","town":"赤城下町","town_kana":"アカギシタマチ","prefecture_code":13},"0817":{"zip_code":"1620817","prefecture":"東京都","prefecture_kana":"トウキョウト","city":"新宿区","city_kana":"シンジュクク","town":"赤城元町","town_kana":"アカギモトマチ","prefecture_code":13},"0824":{"zip_code":"1620824","prefecture":"東京都","prefecture_kana":"トウキョウト","city":"新宿区","city_kana":"シンジュクク","town":"揚場町","town_kana":"アゲバチョウ","prefecture_code":13},"0062":{"zip_code":"1620062","prefecture":"東京都","prefecture_kana":"トウキョウト","city":"新宿区","city_kana":"シンジュクク","town":"市谷加賀町","town_kana":"イチガヤカガチョウ","prefecture_code":13},"0856":{"zip_code":"1620856","prefecture":"東京都","prefecture_kana":"トウキョウト","city":"新宿区","city_kana":"シンジュクク","town":"市谷甲良町","town_kana":"イチガヤコウラチョウ","prefecture_code":13},"0842":{"zip_code":"1620842","prefecture":"東京都","prefecture_kana":"トウキョウト","city":"新宿区","city_kana":"シンジュクク","town":"市谷砂土原町","town_kana":"イチガヤサドハラチョウ","prefecture_code":13},"0846":{"zip_code":"1620846","prefecture":"東京都","prefecture_kana":"トウキョウト","city":"新宿区","city_kana":"シンジュクク","town":"市谷左内町","town_kana":"イチガヤサナイチョウ","prefecture_code":13},"0848":{"zip_code":"1620848","prefecture":"東京都","prefecture_kana":"トウキョウト","city":"新宿区","city_kana":"シンジュクク","town":"市谷鷹匠町","town_kana":"イチガヤタカジョウマチ","prefecture_code":13},"0843":{"zip_code":"1620843","prefecture":"東京都","prefecture_kana":"トウキョウト","city":"新宿区","city_kana":"シンジュクク","town":"市谷田町","town_kana":"イチガヤタマチ","prefecture_code":13},"0066":{"zip_code":"1620066","prefecture":"東京都","prefecture_kana":"トウキョウト","city":"新宿区","city_kana":"シンジュクク","town":"市谷台町","town_kana":"イチガヤダイマチ","prefecture_code":13},"0847":{"zip_code":"1620847","prefecture":"東京都","prefecture_kana":"トウキョウト","city":"新宿区","city_kana":"シンジュクク","town":"市谷長延寺町","town_kana":"イチガヤチョウエンジマチ","prefecture_code":13},"0064":{"zip_code":"1620064","prefecture":"東京都","prefecture_kana":"トウキョウト","city":"新宿区","city_kana":"シンジュクク","town":"市谷仲之町","town_kana":"イチガヤナカノチョウ","prefecture_code":13},"0844":{"zip_code":"1620844","prefecture":"東京都","prefecture_kana":"トウキョウト","city":"新宿区","city_kana":"シンジュクク","town":"市谷八幡町","town_kana":"イチガヤハチマンチョウ","prefecture_code":13},"0826":{"zip_code":"1620826","prefecture":"東京都","prefecture_kana":"トウキョウト","city":"新宿区","city_kana":"シンジュクク","town":"市谷船河原町","town_kana":"イチガヤフナガワラマチ","prefecture_code":13},"0845":{"zip_code":"1620845","prefecture":"東京都","prefecture_kana":"トウキョウト","city":"新宿区","city_kana":"シンジュクク","town":"市谷本村町","town_kana":"イチガヤホンムラチョウ","prefecture_code":13},"0063":{"zip_code":"1620063","prefecture":"東京都","prefecture_kana":"トウキョウト","city":"新宿区","city_kana":"シンジュクク","town":"市谷薬王寺町","town_kana":"イチガヤヤクオウジマチ","prefecture_code":13},"0061":{"zip_code":"1620061","prefecture":"東京都","prefecture_kana":"トウキョウト","city":"新宿区","city_kana":"シンジュクク","town":"市谷柳町","town_kana":"イチガヤヤナギチョウ","prefecture_code":13},"0857":{"zip_code":"1620857","prefecture":"東京都","prefecture_kana":"トウキョウト","city":"新宿区","city_kana":"シンジュクク","town":"市谷山伏町","town_kana":"イチガヤヤマブシチョウ","prefecture_code":13},"0832":{"zip_code":"1620832","prefecture":"東京都","prefecture_kana":"トウキョウト","city":"新宿区","city_kana":"シンジュクク","town":"岩戸町","town_kana":"イワトチョウ","prefecture_code":13},"0806":{"zip_code":"1620806","prefecture":"東京都","prefecture_kana":"トウキョウト","city":"新宿区","city_kana":"シンジュクク","town":"榎町","town_kana":"エノキチョウ","prefecture_code":13},"0802":{"zip_code":"1620802","prefecture":"東京都","prefecture_kana":"トウキョウト","city":"新宿区","city_kana":"シンジュクク","town":"改代町","town_kana":"カイタイチョウ","prefecture_code":13},"0823":{"zip_code":"1620823","prefecture":"東京都","prefecture_kana":"トウキョウト","city":"新宿区","city_kana":"シンジュクク","town":"神楽河岸","town_kana":"カグラガシ","prefecture_code":13},"0825":{"zip_code":"1620825","prefecture":"東京都","prefecture_kana":"トウキョウト","city":"新宿区","city_kana":"シンジュクク","town":"神楽坂","town_kana":"カグラザカ","prefecture_code":13},"0054":{"zip_code":"1620054","prefecture":"東京都","prefecture_kana":"トウキョウト","city":"新宿区","city_kana":"シンジュクク","town":"河田町","town_kana":"カワダチョウ","prefecture_code":13},"0044":{"zip_code":"1620044","prefecture":"東京都","prefecture_kana":"トウキョウト","city":"新宿区","city_kana":"シンジュクク","town":"喜久井町","town_kana":"キクイチョウ","prefecture_code":13},"0834":{"zip_code":"1620834","prefecture":"東京都","prefecture_kana":"トウキョウト","city":"新宿区","city_kana":"シンジュクク","town":"北町","town_kana":"キタマチ","prefecture_code":13},"0853":{"zip_code":"1620853","prefecture":"東京都","prefecture_kana":"トウキョウト","city":"新宿区","city_kana":"シンジュクク","town":"北山伏町","town_kana":"キタヤマブシチョウ","prefecture_code":13},"0838":{"zip_code":"1620838","prefecture":"東京都","prefecture_kana":"トウキョウト","city":"新宿区","city_kana":"シンジュクク","town":"細工町","town_kana":"サイクマチ","prefecture_code":13},"0822":{"zip_code":"1620822","prefecture":"東京都","prefecture_kana":"トウキョウト","city":"新宿区","city_kana":"シンジュクク","town":"下宮比町","town_kana":"シモミヤビチョウ","prefecture_code":13},"0816":{"zip_code":"1620816","prefecture":"東京都","prefecture_kana":"トウキョウト","city":"新宿区","city_kana":"シンジュクク","town":"白銀町","town_kana":"シロガネチョウ","prefecture_code":13},"0814":{"zip_code":"1620814","prefecture":"東京都","prefecture_kana":"トウキョウト","city":"新宿区","city_kana":"シンジュクク","town":"新小川町","town_kana":"シンオガワマチ","prefecture_code":13},"0811":{"zip_code":"1620811","prefecture":"東京都","prefecture_kana":"トウキョウト","city":"新宿区","city_kana":"シンジュクク","town":"水道町","town_kana":"スイドウチョウ","prefecture_code":13},"0065":{"zip_code":"1620065","prefecture":"東京都","prefecture_kana":"トウキョウト","city":"新宿区","city_kana":"シンジュクク","town":"住吉町","town_kana":"スミヨシチョウ","prefecture_code":13},"0833":{"zip_code":"1620833","prefecture":"東京都","prefecture_kana":"トウキョウト","city":"新宿区","city_kana":"シンジュクク","town":"箪笥町","town_kana":"タンスマチ","prefecture_code":13},"0818":{"zip_code":"1620818","prefecture":"東京都","prefecture_kana":"トウキョウト","city":"新宿区","city_kana":"シンジュクク","town":"築地町","town_kana":"ツキジマチ","prefecture_code":13},"0821":{"zip_code":"1620821","prefecture":"東京都","prefecture_kana":"トウキョウト","city":"新宿区","city_kana":"シンジュクク","town":"津久戸町","town_kana":"ツクドチョウ","prefecture_code":13},"0815":{"zip_code":"1620815","prefecture":"東京都","prefecture_kana":"トウキョウト","city":"新宿区","city_kana":"シンジュクク","town":"筑土八幡町","town_kana":"ツクドハチマンチョウ","prefecture_code":13},"0808":{"zip_code":"1620808","prefecture":"東京都","prefecture_kana":"トウキョウト","city":"新宿区","city_kana":"シンジュクク","town":"天神町","town_kana":"テンジンチョウ","prefecture_code":13},"0067":{"zip_code":"1620067","prefecture":"東京都","prefecture_kana":"トウキョウト","city":"新宿区","city_kana":"シンジュクク","town":"富久町","town_kana":"トミヒサチョウ","prefecture_code":13},"0052":{"zip_code":"1620052","prefecture":"東京都","prefecture_kana":"トウキョウト","city":"新宿区","city_kana":"シンジュクク","town":"戸山（その他）","town_kana":"トヤマ(ソノタ)","prefecture_code":13},"0804":{"zip_code":"1620804","prefecture":"東京都","prefecture_kana":"トウキョウト","city":"新宿区","city_kana":"シンジュクク","town":"中里町","town_kana":"ナカザトチョウ","prefecture_code":13},"0835":{"zip_code":"1620835","prefecture":"東京都","prefecture_kana":"トウキョウト","city":"新宿区","city_kana":"シンジュクク","town":"中町","town_kana":"ナカチョウ","prefecture_code":13},"0837":{"zip_code":"1620837","prefecture":"東京都","prefecture_kana":"トウキョウト","city":"新宿区","city_kana":"シンジュクク","town":"納戸町","town_kana":"ナンドマチ","prefecture_code":13},"0812":{"zip_code":"1620812","prefecture":"東京都","prefecture_kana":"トウキョウト","city":"新宿区","city_kana":"シンジュクク","town":"西五軒町","town_kana":"ニシゴケンチョウ","prefecture_code":13},"0855":{"zip_code":"1620855","prefecture":"東京都","prefecture_kana":"トウキョウト","city":"新宿区","city_kana":"シンジュクク","town":"二十騎町","town_kana":"ニジュツキマチ","prefecture_code":13},"0051":{"zip_code":"1620051","prefecture":"東京都","prefecture_kana":"トウキョウト","city":"新宿区","city_kana":"シンジュクク","town":"西早稲田（２丁目１番１〜２３号、２番）","town_kana":"ニシワセダ(2チョウメ1バン1-23ゴウ、2バン)","prefecture_code":13},"0045":{"zip_code":"1620045","prefecture":"東京都","prefecture_kana":"トウキョウト","city":"新宿区","city_kana":"シンジュクク","town":"馬場下町","town_kana":"ババシタチョウ","prefecture_code":13},"0841":{"zip_code":"1620841","prefecture":"東京都","prefecture_kana":"トウキョウト","city":"新宿区","city_kana":"シンジュクク","town":"払方町","town_kana":"ハライカタマチ","prefecture_code":13},"0053":{"zip_code":"1620053","prefecture":"東京都","prefecture_kana":"トウキョウト","city":"新宿区","city_kana":"シンジュクク","town":"原町","town_kana":"ハラマチ","prefecture_code":13},"0807":{"zip_code":"1620807","prefecture":"東京都","prefecture_kana":"トウキョウト","city":"新宿区","city_kana":"シンジュクク","town":"東榎町","town_kana":"ヒガシエノキチョウ","prefecture_code":13},"0813":{"zip_code":"1620813","prefecture":"東京都","prefecture_kana":"トウキョウト","city":"新宿区","city_kana":"シンジュクク","town":"東五軒町","town_kana":"ヒガシゴケンチョウ","prefecture_code":13},"0828":{"zip_code":"1620828","prefecture":"東京都","prefecture_kana":"トウキョウト","city":"新宿区","city_kana":"シンジュクク","town":"袋町","town_kana":"フクロマチ","prefecture_code":13},"0851":{"zip_code":"1620851","prefecture":"東京都","prefecture_kana":"トウキョウト","city":"新宿区","city_kana":"シンジュクク","town":"弁天町","town_kana":"ベンテンチョウ","prefecture_code":13},"0852":{"zip_code":"1620852","prefecture":"東京都","prefecture_kana":"トウキョウト","city":"新宿区","city_kana":"シンジュクク","town":"南榎町","town_kana":"ミナミエノキチョウ","prefecture_code":13},"0836":{"zip_code":"1620836","prefecture":"東京都","prefecture_kana":"トウキョウト","city":"新宿区","city_kana":"シンジュクク","town":"南町","town_kana":"ミナミチョウ","prefecture_code":13},"0854":{"zip_code":"1620854","prefecture":"東京都","prefecture_kana":"トウキョウト","city":"新宿区","city_kana":"シンジュクク","town":"南山伏町","town_kana":"ミナミヤマブシチョウ","prefecture_code":13},"0801":{"zip_code":"1620801","prefecture":"東京都","prefecture_kana":"トウキョウト","city":"新宿区","city_kana":"シンジュクク","town":"山吹町","town_kana":"ヤマブキチョウ","prefecture_code":13},"0805":{"zip_code":"1620805","prefecture":"東京都","prefecture_kana":"トウキョウト","city":"新宿区","city_kana":"シンジュクク","town":"矢来町","town_kana":"ヤライチョウ","prefecture_code":13},"0831":{"zip_code":"1620831","prefecture":"東京都","prefecture_kana":"トウキョウト","city":"新宿区","city_kana":"シンジュクク","town":"横寺町","town_kana":"ヨコテラマチ","prefecture_code":13},"0055":{"zip_code":"1620055","prefecture":"東京都","prefecture_kana":"トウキョウト","city":"新宿区","city_kana":"シンジュクク","town":"余丁町","town_kana":"ヨチョウマチ","prefecture_code":13},"0056":{"zip_code":"1620056","prefecture":"東京都","prefecture_kana":"トウキョウト","city":"新宿区","city_kana":"シンジュクク","town":"若松町","town_kana":"ワカマツチョウ","prefecture_code":13},"0827":{"zip_code":"1620827","prefecture":"東京都","prefecture_kana":"トウキョウト","city":"新宿区","city_kana":"シンジュクク","town":"若宮町","town_kana":"ワカミヤチョウ","prefecture_code":13},"0041":{"zip_code":"1620041","prefecture":"東京都","prefecture_kana":"トウキョウト","city":"新宿区","city_kana":"シンジュクク","town":"早稲田鶴巻町","town_kana":"ワセダツルマキチョウ","prefecture_code":13},"0043":{"zip_code":"1620043","prefecture":"東京都","prefecture_kana":"トウキョウト","city":"新宿区","city_kana":"シンジュクク","town":"早稲田南町","town_kana":"ワセダミナミチョウ","prefecture_code":13},"0042":{"zip_code":"1620042","prefecture":"東京都","prefecture_kana":"トウキョウト","city":"新宿区","city_kana":"シンジュクク","town":"早稲田町","town_kana":"ワセダマチ","prefecture_code":13}}