{"0000":{"zip_code":"1640000","prefecture":"東京都","prefecture_kana":"トウキョウト","city":"中野区","city_kana":"ナカノク","town":"以下に掲載がない場合","town_kana":"イカニケイサイガナイバアイ","prefecture_code":13},"0002":{"zip_code":"1640002","prefecture":"東京都","prefecture_kana":"トウキョウト","city":"中野区","city_kana":"ナカノク","town":"上高田","town_kana":"カミタカダ","prefecture_code":13},"0011":{"zip_code":"1640011","prefecture":"東京都","prefecture_kana":"トウキョウト","city":"中野区","city_kana":"ナカノク","town":"中央","town_kana":"チュウオウ","prefecture_code":13},"0001":{"zip_code":"1640001","prefecture":"東京都","prefecture_kana":"トウキョウト","city":"中野区","city_kana":"ナカノク","town":"中野","town_kana":"ナカノ","prefecture_code":13},"0003":{"zip_code":"1640003","prefecture":"東京都","prefecture_kana":"トウキョウト","city":"中野区","city_kana":"ナカノク","town":"東中野","town_kana":"ヒガシナカノ","prefecture_code":13},"0012":{"zip_code":"1640012","prefecture":"東京都","prefecture_kana":"トウキョウト","city":"中野区","city_kana":"ナカノク","town":"本町","town_kana":"ホンチョウ","prefecture_code":13},"0014":{"zip_code":"1640014","prefecture":"東京都","prefecture_kana":"トウキョウト","city":"中野区","city_kana":"ナカノク","town":"南台","town_kana":"ミナミダイ","prefecture_code":13},"0013":{"zip_code":"1640013","prefecture":"東京都","prefecture_kana":"トウキョウト","city":"中野区","city_kana":"ナカノク","town":"弥生町","town_kana":"ヤヨイチョウ","prefecture_code":13}}