{"0026":{"zip_code":"1650026","prefecture":"東京都","prefecture_kana":"トウキョウト","city":"中野区","city_kana":"ナカノク","town":"新井","town_kana":"アライ","prefecture_code":13},"0022":{"zip_code":"1650022","prefecture":"東京都","prefecture_kana":"トウキョウト","city":"中野区","city_kana":"ナカノク","town":"江古田","town_kana":"エゴタ","prefecture_code":13},"0023":{"zip_code":"1650023","prefecture":"東京都","prefecture_kana":"トウキョウト","city":"中野区","city_kana":"ナカノク","town":"江原町","town_kana":"エハラチョウ","prefecture_code":13},"0031":{"zip_code":"1650031","prefecture":"東京都","prefecture_kana":"トウキョウト","city":"中野区","city_kana":"ナカノク","town":"上鷺宮","town_kana":"カミサギノミヤ","prefecture_code":13},"0032":{"zip_code":"1650032","prefecture":"東京都","prefecture_kana":"トウキョウト","city":"中野区","city_kana":"ナカノク","town":"鷺宮","town_kana":"サギノミヤ","prefecture_code":13},"0035":{"zip_code":"1650035","prefecture":"東京都","prefecture_kana":"トウキョウト","city":"中野区","city_kana":"ナカノク","town":"白鷺","town_kana":"シラサギ","prefecture_code":13},"0025":{"zip_code":"1650025","prefecture":"東京都","prefecture_kana":"トウキョウト","city":"中野区","city_kana":"ナカノク","town":"沼袋","town_kana":"ヌマブクロ","prefecture_code":13},"0027":{"zip_code":"1650027","prefecture":"東京都","prefecture_kana":"トウキョウト","city":"中野区","city_kana":"ナカノク","town":"野方","town_kana":"ノガタ","prefecture_code":13},"0024":{"zip_code":"1650024","prefecture":"東京都","prefecture_kana":"トウキョウト","city":"中野区","city_kana":"ナカノク","town":"松が丘","town_kana":"マツガオカ","prefecture_code":13},"0021":{"zip_code":"1650021","prefecture":"東京都","prefecture_kana":"トウキョウト","city":"中野区","city_kana":"ナカノク","town":"丸山","town_kana":"マルヤマ","prefecture_code":13},"0034":{"zip_code":"1650034","prefecture":"東京都","prefecture_kana":"トウキョウト","city":"中野区","city_kana":"ナカノク","town":"大和町","town_kana":"ヤマトチョウ","prefecture_code":13},"0033":{"zip_code":"1650033","prefecture":"東京都","prefecture_kana":"トウキョウト","city":"中野区","city_kana":"ナカノク","town":"若宮","town_kana":"ワカミヤ","prefecture_code":13}}