{"0000":{"zip_code":"1660000","prefecture":"東京都","prefecture_kana":"トウキョウト","city":"杉並区","city_kana":"スギナミク","town":"","town_kana":"","prefecture_code":13},"0004":{"zip_code":"1660004","prefecture":"東京都","prefecture_kana":"トウキョウト","city":"杉並区","city_kana":"スギナミク","town":"阿佐谷南","town_kana":"アサガヤミナミ","prefecture_code":13},"0001":{"zip_code":"1660001","prefecture":"東京都","prefecture_kana":"トウキョウト","city":"杉並区","city_kana":"スギナミク","town":"阿佐谷北","town_kana":"アサガヤキタ","prefecture_code":13},"0011":{"zip_code":"1660011","prefecture":"東京都","prefecture_kana":"トウキョウト","city":"杉並区","city_kana":"スギナミク","town":"梅里","town_kana":"ウメザト","prefecture_code":13},"0003":{"zip_code":"1660003","prefecture":"東京都","prefecture_kana":"トウキョウト","city":"杉並区","city_kana":"スギナミク","town":"高円寺南","town_kana":"コウエンジミナミ","prefecture_code":13},"0002":{"zip_code":"1660002","prefecture":"東京都","prefecture_kana":"トウキョウト","city":"杉並区","city_kana":"スギナミク","town":"高円寺北","town_kana":"コウエンジキタ","prefecture_code":13},"0015":{"zip_code":"1660015","prefecture":"東京都","prefecture_kana":"トウキョウト","city":"杉並区","city_kana":"スギナミク","town":"成田東","town_kana":"ナリタヒガシ","prefecture_code":13},"0016":{"zip_code":"1660016","prefecture":"東京都","prefecture_kana":"トウキョウト","city":"杉並区","city_kana":"スギナミク","town":"成田西","town_kana":"ナリタニシ","prefecture_code":13},"0013":{"zip_code":"1660013","prefecture":"東京都","prefecture_kana":"トウキョウト","city":"杉並区","city_kana":"スギナミク","town":"堀ノ内","town_kana":"ホリノウチ","prefecture_code":13},"0014":{"zip_code":"1660014","prefecture":"東京都","prefecture_kana":"トウキョウト","city":"杉並区","city_kana":"スギナミク","town":"松ノ木","town_kana":"マツノキ","prefecture_code":13},"0012":{"zip_code":"1660012","prefecture":"東京都","prefecture_kana":"トウキョウト","city":"杉並区","city_kana":"スギナミク","town":"和田","town_kana":"ワダ","prefecture_code":13}}