{"0063":{"zip_code":"1680063","prefecture":"東京都","prefecture_kana":"トウキョウト","city":"杉並区","city_kana":"スギナミク","town":"和泉","town_kana":"イズミ","prefecture_code":13},"0064":{"zip_code":"1680064","prefecture":"東京都","prefecture_kana":"トウキョウト","city":"杉並区","city_kana":"スギナミク","town":"永福","town_kana":"エイフク","prefecture_code":13},"0061":{"zip_code":"1680061","prefecture":"東京都","prefecture_kana":"トウキョウト","city":"杉並区","city_kana":"スギナミク","town":"大宮","town_kana":"オオミヤ","prefecture_code":13},"0074":{"zip_code":"1680074","prefecture":"東京都","prefecture_kana":"トウキョウト","city":"杉並区","city_kana":"スギナミク","town":"上高井戸","town_kana":"カミタカイド","prefecture_code":13},"0082":{"zip_code":"1680082","prefecture":"東京都","prefecture_kana":"トウキョウト","city":"杉並区","city_kana":"スギナミク","town":"久我山","town_kana":"クガヤマ","prefecture_code":13},"0073":{"zip_code":"1680073","prefecture":"東京都","prefecture_kana":"トウキョウト","city":"杉並区","city_kana":"スギナミク","town":"下高井戸","town_kana":"シモタカイド","prefecture_code":13},"0072":{"zip_code":"1680072","prefecture":"東京都","prefecture_kana":"トウキョウト","city":"杉並区","city_kana":"スギナミク","town":"高井戸東","town_kana":"タカイドヒガシ","prefecture_code":13},"0071":{"zip_code":"1680071","prefecture":"東京都","prefecture_kana":"トウキョウト","city":"杉並区","city_kana":"スギナミク","town":"高井戸西","town_kana":"タカイドニシ","prefecture_code":13},"0065":{"zip_code":"1680065","prefecture":"東京都","prefecture_kana":"トウキョウト","city":"杉並区","city_kana":"スギナミク","town":"浜田山","town_kana":"ハマダヤマ","prefecture_code":13},"0062":{"zip_code":"1680062","prefecture":"東京都","prefecture_kana":"トウキョウト","city":"杉並区","city_kana":"スギナミク","town":"方南","town_kana":"ホウナン","prefecture_code":13},"0081":{"zip_code":"1680081","prefecture":"東京都","prefecture_kana":"トウキョウト","city":"杉並区","city_kana":"スギナミク","town":"宮前","town_kana":"ミヤマエ","prefecture_code":13}}