{"0000":{"zip_code":"1700000","prefecture":"東京都","prefecture_kana":"トウキョウト","city":"豊島区","city_kana":"トシマク","town":"以下に掲載がない場合","town_kana":"イカニケイサイガナイバアイ","prefecture_code":13},"0014":{"zip_code":"1700014","prefecture":"東京都","prefecture_kana":"トウキョウト","city":"豊島区","city_kana":"トシマク","town":"池袋（１丁目）","town_kana":"イケブクロ(1チョウメ)","prefecture_code":13},"0011":{"zip_code":"1700011","prefecture":"東京都","prefecture_kana":"トウキョウト","city":"豊島区","city_kana":"トシマク","town":"池袋本町","town_kana":"イケブクロホンチョウ","prefecture_code":13},"0012":{"zip_code":"1700012","prefecture":"東京都","prefecture_kana":"トウキョウト","city":"豊島区","city_kana":"トシマク","town":"上池袋","town_kana":"カミイケブクロ","prefecture_code":13},"0004":{"zip_code":"1700004","prefecture":"東京都","prefecture_kana":"トウキョウト","city":"豊島区","city_kana":"トシマク","town":"北大塚","town_kana":"キタオオツカ","prefecture_code":13},"0003":{"zip_code":"1700003","prefecture":"東京都","prefecture_kana":"トウキョウト","city":"豊島区","city_kana":"トシマク","town":"駒込","town_kana":"コマゴメ","prefecture_code":13},"0002":{"zip_code":"1700002","prefecture":"東京都","prefecture_kana":"トウキョウト","city":"豊島区","city_kana":"トシマク","town":"巣鴨","town_kana":"スガモ","prefecture_code":13},"0001":{"zip_code":"1700001","prefecture":"東京都","prefecture_kana":"トウキョウト","city":"豊島区","city_kana":"トシマク","town":"西巣鴨","town_kana":"ニシスガモ","prefecture_code":13},"0013":{"zip_code":"1700013","prefecture":"東京都","prefecture_kana":"トウキョウト","city":"豊島区","city_kana":"トシマク","town":"東池袋（次のビルを除く）","town_kana":"ヒガシイケブクロ(ツギノビルヲノゾク)","prefecture_code":13},"6090":{"zip_code":"1706090","prefecture":"東京都","prefecture_kana":"トウキョウト","city":"豊島区","city_kana":"トシマク","town":"東池袋サンシャイン６０（地階・階層不明）","town_kana":"ヒガシイケブクロサンシャイン60(チカイ・カイソウフメイ)","prefecture_code":13},"6001":{"zip_code":"1706001","prefecture":"東京都","prefecture_kana":"トウキョウト","city":"豊島区","city_kana":"トシマク","town":"東池袋サンシャイン６０（１階）","town_kana":"ヒガシイケブクロサンシャイン60(1カイ)","prefecture_code":13},"6002":{"zip_code":"1706002","prefecture":"東京都","prefecture_kana":"トウキョウト","city":"豊島区","city_kana":"トシマク","town":"東池袋サンシャイン６０（２階）","town_kana":"ヒガシイケブクロサンシャイン60(2カイ)","prefecture_code":13},"6003":{"zip_code":"1706003","prefecture":"東京都","prefecture_kana":"トウキョウト","city":"豊島区","city_kana":"トシマク","town":"東池袋サンシャイン６０（３階）","town_kana":"ヒガシイケブクロサンシャイン60(3カイ)","prefecture_code":13},"6004":{"zip_code":"1706004","prefecture":"東京都","prefecture_kana":"トウキョウト","city":"豊島区","city_kana":"トシマク","town":"東池袋サンシャイン６０（４階）","town_kana":"ヒガシイケブクロサンシャイン60(4カイ)","prefecture_code":13},"6005":{"zip_code":"1706005","prefecture":"東京都","prefecture_kana":"トウキョウト","city":"豊島区","city_kana":"トシマク","town":"東池袋サンシャイン６０（５階）","town_kana":"ヒガシイケブクロサンシャイン60(5カイ)","prefecture_code":13},"6006":{"zip_code":"1706006","prefecture":"東京都","prefecture_kana":"トウキョウト","city":"豊島区","city_kana":"トシマク","town":"東池袋サンシャイン６０（６階）","town_kana":"ヒガシイケブクロサンシャイン60(6カイ)","prefecture_code":13},"6007":{"zip_code":"1706007","prefecture":"東京都","prefecture_kana":"トウキョウト","city":"豊島区","city_kana":"トシマク","town":"東池袋サンシャイン６０（７階）","town_kana":"ヒガシイケブクロサンシャイン60(7カイ)","prefecture_code":13},"6008":{"zip_code":"1706008","prefecture":"東京都","prefecture_kana":"トウキョウト","city":"豊島区","city_kana":"トシマク","town":"東池袋サンシャイン６０（８階）","town_kana":"ヒガシイケブクロサンシャイン60(8カイ)","prefecture_code":13},"6009":{"zip_code":"1706009","prefecture":"東京都","prefecture_kana":"トウキョウト","city":"豊島区","city_kana":"トシマク","town":"東池袋サンシャイン６０（９階）","town_kana":"ヒガシイケブクロサンシャイン60(9カイ)","prefecture_code":13},"6010":{"zip_code":"1706010","prefecture":"東京都","prefecture_kana":"トウキョウト","city":"豊島区","city_kana":"トシマク","town":"東池袋サンシャイン６０（１０階）","town_kana":"ヒガシイケブクロサンシャイン60(10カイ)","prefecture_code":13},"6011":{"zip_code":"1706011","prefecture":"東京都","prefecture_kana":"トウキョウト","city":"豊島区","city_kana":"トシマク","town":"東池袋サンシャイン６０（１１階）","town_kana":"ヒガシイケブクロサンシャイン60(11カイ)","prefecture_code":13},"6012":{"zip_code":"1706012","prefecture":"東京都","prefecture_kana":"トウキョウト","city":"豊島区","city_kana":"トシマク","town":"東池袋サンシャイン６０（１２階）","town_kana":"ヒガシイケブクロサンシャイン60(12カイ)","prefecture_code":13},"6013":{"zip_code":"1706013","prefecture":"東京都","prefecture_kana":"トウキョウト","city":"豊島区","city_kana":"トシマク","town":"東池袋サンシャイン６０（１３階）","town_kana":"ヒガシイケブクロサンシャイン60(13カイ)","prefecture_code":13},"6014":{"zip_code":"1706014","prefecture":"東京都","prefecture_kana":"トウキョウト","city":"豊島区","city_kana":"トシマク","town":"東池袋サンシャイン６０（１４階）","town_kana":"ヒガシイケブクロサンシャイン60(14カイ)","prefecture_code":13},"6015":{"zip_code":"1706015","prefecture":"東京都","prefecture_kana":"トウキョウト","city":"豊島区","city_kana":"トシマク","town":"東池袋サンシャイン６０（１５階）","town_kana":"ヒガシイケブクロサンシャイン60(15カイ)","prefecture_code":13},"6016":{"zip_code":"1706016","prefecture":"東京都","prefecture_kana":"トウキョウト","city":"豊島区","city_kana":"トシマク","town":"東池袋サンシャイン６０（１６階）","town_kana":"ヒガシイケブクロサンシャイン60(16カイ)","prefecture_code":13},"6017":{"zip_code":"1706017","prefecture":"東京都","prefecture_kana":"トウキョウト","city":"豊島区","city_kana":"トシマク","town":"東池袋サンシャイン６０（１７階）","town_kana":"ヒガシイケブクロサンシャイン60(17カイ)","prefecture_code":13},"6018":{"zip_code":"1706018","prefecture":"東京都","prefecture_kana":"トウキョウト","city":"豊島区","city_kana":"トシマク","town":"東池袋サンシャイン６０（１８階）","town_kana":"ヒガシイケブクロサンシャイン60(18カイ)","prefecture_code":13},"6019":{"zip_code":"1706019","prefecture":"東京都","prefecture_kana":"トウキョウト","city":"豊島区","city_kana":"トシマク","town":"東池袋サンシャイン６０（１９階）","town_kana":"ヒガシイケブクロサンシャイン60(19カイ)","prefecture_code":13},"6020":{"zip_code":"1706020","prefecture":"東京都","prefecture_kana":"トウキョウト","city":"豊島区","city_kana":"トシマク","town":"東池袋サンシャイン６０（２０階）","town_kana":"ヒガシイケブクロサンシャイン60(20カイ)","prefecture_code":13},"6021":{"zip_code":"1706021","prefecture":"東京都","prefecture_kana":"トウキョウト","city":"豊島区","city_kana":"トシマク","town":"東池袋サンシャイン６０（２１階）","town_kana":"ヒガシイケブクロサンシャイン60(21カイ)","prefecture_code":13},"6022":{"zip_code":"1706022","prefecture":"東京都","prefecture_kana":"トウキョウト","city":"豊島区","city_kana":"トシマク","town":"東池袋サンシャイン６０（２２階）","town_kana":"ヒガシイケブクロサンシャイン60(22カイ)","prefecture_code":13},"6023":{"zip_code":"1706023","prefecture":"東京都","prefecture_kana":"トウキョウト","city":"豊島区","city_kana":"トシマク","town":"東池袋サンシャイン６０（２３階）","town_kana":"ヒガシイケブクロサンシャイン60(23カイ)","prefecture_code":13},"6024":{"zip_code":"1706024","prefecture":"東京都","prefecture_kana":"トウキョウト","city":"豊島区","city_kana":"トシマク","town":"東池袋サンシャイン６０（２４階）","town_kana":"ヒガシイケブクロサンシャイン60(24カイ)","prefecture_code":13},"6025":{"zip_code":"1706025","prefecture":"東京都","prefecture_kana":"トウキョウト","city":"豊島区","city_kana":"トシマク","town":"東池袋サンシャイン６０（２５階）","town_kana":"ヒガシイケブクロサンシャイン60(25カイ)","prefecture_code":13},"6026":{"zip_code":"1706026","prefecture":"東京都","prefecture_kana":"トウキョウト","city":"豊島区","city_kana":"トシマク","town":"東池袋サンシャイン６０（２６階）","town_kana":"ヒガシイケブクロサンシャイン60(26カイ)","prefecture_code":13},"6027":{"zip_code":"1706027","prefecture":"東京都","prefecture_kana":"トウキョウト","city":"豊島区","city_kana":"トシマク","town":"東池袋サンシャイン６０（２７階）","town_kana":"ヒガシイケブクロサンシャイン60(27カイ)","prefecture_code":13},"6028":{"zip_code":"1706028","prefecture":"東京都","prefecture_kana":"トウキョウト","city":"豊島区","city_kana":"トシマク","town":"東池袋サンシャイン６０（２８階）","town_kana":"ヒガシイケブクロサンシャイン60(28カイ)","prefecture_code":13},"6029":{"zip_code":"1706029","prefecture":"東京都","prefecture_kana":"トウキョウト","city":"豊島区","city_kana":"トシマク","town":"東池袋サンシャイン６０（２９階）","town_kana":"ヒガシイケブクロサンシャイン60(29カイ)","prefecture_code":13},"6030":{"zip_code":"1706030","prefecture":"東京都","prefecture_kana":"トウキョウト","city":"豊島区","city_kana":"トシマク","town":"東池袋サンシャイン６０（３０階）","town_kana":"ヒガシイケブクロサンシャイン60(30カイ)","prefecture_code":13},"6031":{"zip_code":"1706031","prefecture":"東京都","prefecture_kana":"トウキョウト","city":"豊島区","city_kana":"トシマク","town":"東池袋サンシャイン６０（３１階）","town_kana":"ヒガシイケブクロサンシャイン60(31カイ)","prefecture_code":13},"6032":{"zip_code":"1706032","prefecture":"東京都","prefecture_kana":"トウキョウト","city":"豊島区","city_kana":"トシマク","town":"東池袋サンシャイン６０（３２階）","town_kana":"ヒガシイケブクロサンシャイン60(32カイ)","prefecture_code":13},"6033":{"zip_code":"1706033","prefecture":"東京都","prefecture_kana":"トウキョウト","city":"豊島区","city_kana":"トシマク","town":"東池袋サンシャイン６０（３３階）","town_kana":"ヒガシイケブクロサンシャイン60(33カイ)","prefecture_code":13},"6034":{"zip_code":"1706034","prefecture":"東京都","prefecture_kana":"トウキョウト","city":"豊島区","city_kana":"トシマク","town":"東池袋サンシャイン６０（３４階）","town_kana":"ヒガシイケブクロサンシャイン60(34カイ)","prefecture_code":13},"6035":{"zip_code":"1706035","prefecture":"東京都","prefecture_kana":"トウキョウト","city":"豊島区","city_kana":"トシマク","town":"東池袋サンシャイン６０（３５階）","town_kana":"ヒガシイケブクロサンシャイン60(35カイ)","prefecture_code":13},"6036":{"zip_code":"1706036","prefecture":"東京都","prefecture_kana":"トウキョウト","city":"豊島区","city_kana":"トシマク","town":"東池袋サンシャイン６０（３６階）","town_kana":"ヒガシイケブクロサンシャイン60(36カイ)","prefecture_code":13},"6037":{"zip_code":"1706037","prefecture":"東京都","prefecture_kana":"トウキョウト","city":"豊島区","city_kana":"トシマク","town":"東池袋サンシャイン６０（３７階）","town_kana":"ヒガシイケブクロサンシャイン60(37カイ)","prefecture_code":13},"6038":{"zip_code":"1706038","prefecture":"東京都","prefecture_kana":"トウキョウト","city":"豊島区","city_kana":"トシマク","town":"東池袋サンシャイン６０（３８階）","town_kana":"ヒガシイケブクロサンシャイン60(38カイ)","prefecture_code":13},"6039":{"zip_code":"1706039","prefecture":"東京都","prefecture_kana":"トウキョウト","city":"豊島区","city_kana":"トシマク","town":"東池袋サンシャイン６０（３９階）","town_kana":"ヒガシイケブクロサンシャイン60(39カイ)","prefecture_code":13},"6040":{"zip_code":"1706040","prefecture":"東京都","prefecture_kana":"トウキョウト","city":"豊島区","city_kana":"トシマク","town":"東池袋サンシャイン６０（４０階）","town_kana":"ヒガシイケブクロサンシャイン60(40カイ)","prefecture_code":13},"6041":{"zip_code":"1706041","prefecture":"東京都","prefecture_kana":"トウキョウト","city":"豊島区","city_kana":"トシマク","town":"東池袋サンシャイン６０（４１階）","town_kana":"ヒガシイケブクロサンシャイン60(41カイ)","prefecture_code":13},"6042":{"zip_code":"1706042","prefecture":"東京都","prefecture_kana":"トウキョウト","city":"豊島区","city_kana":"トシマク","town":"東池袋サンシャイン６０（４２階）","town_kana":"ヒガシイケブクロサンシャイン60(42カイ)","prefecture_code":13},"6043":{"zip_code":"1706043","prefecture":"東京都","prefecture_kana":"トウキョウト","city":"豊島区","city_kana":"トシマク","town":"東池袋サンシャイン６０（４３階）","town_kana":"ヒガシイケブクロサンシャイン60(43カイ)","prefecture_code":13},"6044":{"zip_code":"1706044","prefecture":"東京都","prefecture_kana":"トウキョウト","city":"豊島区","city_kana":"トシマク","town":"東池袋サンシャイン６０（４４階）","town_kana":"ヒガシイケブクロサンシャイン60(44カイ)","prefecture_code":13},"6045":{"zip_code":"1706045","prefecture":"東京都","prefecture_kana":"トウキョウト","city":"豊島区","city_kana":"トシマク","town":"東池袋サンシャイン６０（４５階）","town_kana":"ヒガシイケブクロサンシャイン60(45カイ)","prefecture_code":13},"6046":{"zip_code":"1706046","prefecture":"東京都","prefecture_kana":"トウキョウト","city":"豊島区","city_kana":"トシマク","town":"東池袋サンシャイン６０（４６階）","town_kana":"ヒガシイケブクロサンシャイン60(46カイ)","prefecture_code":13},"6047":{"zip_code":"1706047","prefecture":"東京都","prefecture_kana":"トウキョウト","city":"豊島区","city_kana":"トシマク","town":"東池袋サンシャイン６０（４７階）","town_kana":"ヒガシイケブクロサンシャイン60(47カイ)","prefecture_code":13},"6048":{"zip_code":"1706048","prefecture":"東京都","prefecture_kana":"トウキョウト","city":"豊島区","city_kana":"トシマク","town":"東池袋サンシャイン６０（４８階）","town_kana":"ヒガシイケブクロサンシャイン60(48カイ)","prefecture_code":13},"6049":{"zip_code":"1706049","prefecture":"東京都","prefecture_kana":"トウキョウト","city":"豊島区","city_kana":"トシマク","town":"東池袋サンシャイン６０（４９階）","town_kana":"ヒガシイケブクロサンシャイン60(49カイ)","prefecture_code":13},"6050":{"zip_code":"1706050","prefecture":"東京都","prefecture_kana":"トウキョウト","city":"豊島区","city_kana":"トシマク","town":"東池袋サンシャイン６０（５０階）","town_kana":"ヒガシイケブクロサンシャイン60(50カイ)","prefecture_code":13},"6051":{"zip_code":"1706051","prefecture":"東京都","prefecture_kana":"トウキョウト","city":"豊島区","city_kana":"トシマク","town":"東池袋サンシャイン６０（５１階）","town_kana":"ヒガシイケブクロサンシャイン60(51カイ)","prefecture_code":13},"6052":{"zip_code":"1706052","prefecture":"東京都","prefecture_kana":"トウキョウト","city":"豊島区","city_kana":"トシマク","town":"東池袋サンシャイン６０（５２階）","town_kana":"ヒガシイケブクロサンシャイン60(52カイ)","prefecture_code":13},"6053":{"zip_code":"1706053","prefecture":"東京都","prefecture_kana":"トウキョウト","city":"豊島区","city_kana":"トシマク","town":"東池袋サンシャイン６０（５３階）","town_kana":"ヒガシイケブクロサンシャイン60(53カイ)","prefecture_code":13},"6054":{"zip_code":"1706054","prefecture":"東京都","prefecture_kana":"トウキョウト","city":"豊島区","city_kana":"トシマク","town":"東池袋サンシャイン６０（５４階）","town_kana":"ヒガシイケブクロサンシャイン60(54カイ)","prefecture_code":13},"6055":{"zip_code":"1706055","prefecture":"東京都","prefecture_kana":"トウキョウト","city":"豊島区","city_kana":"トシマク","town":"東池袋サンシャイン６０（５５階）","town_kana":"ヒガシイケブクロサンシャイン60(55カイ)","prefecture_code":13},"6056":{"zip_code":"1706056","prefecture":"東京都","prefecture_kana":"トウキョウト","city":"豊島区","city_kana":"トシマク","town":"東池袋サンシャイン６０（５６階）","town_kana":"ヒガシイケブクロサンシャイン60(56カイ)","prefecture_code":13},"6057":{"zip_code":"1706057","prefecture":"東京都","prefecture_kana":"トウキョウト","city":"豊島区","city_kana":"トシマク","town":"東池袋サンシャイン６０（５７階）","town_kana":"ヒガシイケブクロサンシャイン60(57カイ)","prefecture_code":13},"6058":{"zip_code":"1706058","prefecture":"東京都","prefecture_kana":"トウキョウト","city":"豊島区","city_kana":"トシマク","town":"東池袋サンシャイン６０（５８階）","town_kana":"ヒガシイケブクロサンシャイン60(58カイ)","prefecture_code":13},"6059":{"zip_code":"1706059","prefecture":"東京都","prefecture_kana":"トウキョウト","city":"豊島区","city_kana":"トシマク","town":"東池袋サンシャイン６０（５９階）","town_kana":"ヒガシイケブクロサンシャイン60(59カイ)","prefecture_code":13},"6060":{"zip_code":"1706060","prefecture":"東京都","prefecture_kana":"トウキョウト","city":"豊島区","city_kana":"トシマク","town":"東池袋サンシャイン６０（６０階）","town_kana":"ヒガシイケブクロサンシャイン60(60カイ)","prefecture_code":13},"0005":{"zip_code":"1700005","prefecture":"東京都","prefecture_kana":"トウキョウト","city":"豊島区","city_kana":"トシマク","town":"南大塚","town_kana":"ミナミオオツカ","prefecture_code":13}}