{"0000":{"zip_code":"1740000","prefecture":"東京都","prefecture_kana":"トウキョウト","city":"板橋区","city_kana":"イタバシク","town":"以下に掲載がない場合","town_kana":"イカニケイサイガナイバアイ","prefecture_code":13},"0044":{"zip_code":"1740044","prefecture":"東京都","prefecture_kana":"トウキョウト","city":"板橋区","city_kana":"イタバシク","town":"相生町","town_kana":"アイオイチョウ","prefecture_code":13},"0051":{"zip_code":"1740051","prefecture":"東京都","prefecture_kana":"トウキョウト","city":"板橋区","city_kana":"イタバシク","town":"小豆沢","town_kana":"アズサワ","prefecture_code":13},"0055":{"zip_code":"1740055","prefecture":"東京都","prefecture_kana":"トウキョウト","city":"板橋区","city_kana":"イタバシク","town":"泉町","town_kana":"イズミチョウ","prefecture_code":13},"0061":{"zip_code":"1740061","prefecture":"東京都","prefecture_kana":"トウキョウト","city":"板橋区","city_kana":"イタバシク","town":"大原町","town_kana":"オオハラチョウ","prefecture_code":13},"0076":{"zip_code":"1740076","prefecture":"東京都","prefecture_kana":"トウキョウト","city":"板橋区","city_kana":"イタバシク","town":"上板橋","town_kana":"カミイタバシ","prefecture_code":13},"0043":{"zip_code":"1740043","prefecture":"東京都","prefecture_kana":"トウキョウト","city":"板橋区","city_kana":"イタバシク","town":"坂下","town_kana":"サカシタ","prefecture_code":13},"0075":{"zip_code":"1740075","prefecture":"東京都","prefecture_kana":"トウキョウト","city":"板橋区","city_kana":"イタバシク","town":"桜川","town_kana":"サクラガワ","prefecture_code":13},"0053":{"zip_code":"1740053","prefecture":"東京都","prefecture_kana":"トウキョウト","city":"板橋区","city_kana":"イタバシク","town":"清水町","town_kana":"シミズチョウ","prefecture_code":13},"0056":{"zip_code":"1740056","prefecture":"東京都","prefecture_kana":"トウキョウト","city":"板橋区","city_kana":"イタバシク","town":"志村","town_kana":"シムラ","prefecture_code":13},"0074":{"zip_code":"1740074","prefecture":"東京都","prefecture_kana":"トウキョウト","city":"板橋区","city_kana":"イタバシク","town":"東新町","town_kana":"トウシンチョウ","prefecture_code":13},"0071":{"zip_code":"1740071","prefecture":"東京都","prefecture_kana":"トウキョウト","city":"板橋区","city_kana":"イタバシク","town":"常盤台","town_kana":"トキワダイ","prefecture_code":13},"0064":{"zip_code":"1740064","prefecture":"東京都","prefecture_kana":"トウキョウト","city":"板橋区","city_kana":"イタバシク","town":"中台","town_kana":"ナカダイ","prefecture_code":13},"0045":{"zip_code":"1740045","prefecture":"東京都","prefecture_kana":"トウキョウト","city":"板橋区","city_kana":"イタバシク","town":"西台（１丁目）","town_kana":"ニシダイ(1チョウメ)","prefecture_code":13},"0052":{"zip_code":"1740052","prefecture":"東京都","prefecture_kana":"トウキョウト","city":"板橋区","city_kana":"イタバシク","town":"蓮沼町","town_kana":"ハスヌマチョウ","prefecture_code":13},"0046":{"zip_code":"1740046","prefecture":"東京都","prefecture_kana":"トウキョウト","city":"板橋区","city_kana":"イタバシク","town":"蓮根","town_kana":"ハスネ","prefecture_code":13},"0042":{"zip_code":"1740042","prefecture":"東京都","prefecture_kana":"トウキョウト","city":"板橋区","city_kana":"イタバシク","town":"東坂下","town_kana":"ヒガシサカシタ","prefecture_code":13},"0073":{"zip_code":"1740073","prefecture":"東京都","prefecture_kana":"トウキョウト","city":"板橋区","city_kana":"イタバシク","town":"東山町","town_kana":"ヒガシヤマチョウ","prefecture_code":13},"0062":{"zip_code":"1740062","prefecture":"東京都","prefecture_kana":"トウキョウト","city":"板橋区","city_kana":"イタバシク","town":"富士見町","town_kana":"フジミチョウ","prefecture_code":13},"0041":{"zip_code":"1740041","prefecture":"東京都","prefecture_kana":"トウキョウト","city":"板橋区","city_kana":"イタバシク","town":"舟渡","town_kana":"フナド","prefecture_code":13},"0063":{"zip_code":"1740063","prefecture":"東京都","prefecture_kana":"トウキョウト","city":"板橋区","city_kana":"イタバシク","town":"前野町","town_kana":"マエノチョウ","prefecture_code":13},"0072":{"zip_code":"1740072","prefecture":"東京都","prefecture_kana":"トウキョウト","city":"板橋区","city_kana":"イタバシク","town":"南常盤台","town_kana":"ミナミトキワダイ","prefecture_code":13},"0054":{"zip_code":"1740054","prefecture":"東京都","prefecture_kana":"トウキョウト","city":"板橋区","city_kana":"イタバシク","town":"宮本町","town_kana":"ミヤモトチョウ","prefecture_code":13},"0065":{"zip_code":"1740065","prefecture":"東京都","prefecture_kana":"トウキョウト","city":"板橋区","city_kana":"イタバシク","town":"若木","town_kana":"ワカギ","prefecture_code":13}}