{"0092":{"zip_code":"1750092","prefecture":"東京都","prefecture_kana":"トウキョウト","city":"板橋区","city_kana":"イタバシク","town":"赤塚","town_kana":"アカツカ","prefecture_code":13},"0093":{"zip_code":"1750093","prefecture":"東京都","prefecture_kana":"トウキョウト","city":"板橋区","city_kana":"イタバシク","town":"赤塚新町","town_kana":"アカツカシンマチ","prefecture_code":13},"0081":{"zip_code":"1750081","prefecture":"東京都","prefecture_kana":"トウキョウト","city":"板橋区","city_kana":"イタバシク","town":"新河岸","town_kana":"シンガシ","prefecture_code":13},"0085":{"zip_code":"1750085","prefecture":"東京都","prefecture_kana":"トウキョウト","city":"板橋区","city_kana":"イタバシク","town":"大門","town_kana":"ダイモン","prefecture_code":13},"0082":{"zip_code":"1750082","prefecture":"東京都","prefecture_kana":"トウキョウト","city":"板橋区","city_kana":"イタバシク","town":"高島平","town_kana":"タカシマダイラ","prefecture_code":13},"0083":{"zip_code":"1750083","prefecture":"東京都","prefecture_kana":"トウキョウト","city":"板橋区","city_kana":"イタバシク","town":"徳丸","town_kana":"トクマル","prefecture_code":13},"0094":{"zip_code":"1750094","prefecture":"東京都","prefecture_kana":"トウキョウト","city":"板橋区","city_kana":"イタバシク","town":"成増","town_kana":"ナリマス","prefecture_code":13},"0045":{"zip_code":"1750045","prefecture":"東京都","prefecture_kana":"トウキョウト","city":"板橋区","city_kana":"イタバシク","town":"西台（２〜４丁目）","town_kana":"ニシダイ(2-4チョウメ)","prefecture_code":13},"0091":{"zip_code":"1750091","prefecture":"東京都","prefecture_kana":"トウキョウト","city":"板橋区","city_kana":"イタバシク","town":"三園","town_kana":"ミソノ","prefecture_code":13},"0084":{"zip_code":"1750084","prefecture":"東京都","prefecture_kana":"トウキョウト","city":"板橋区","city_kana":"イタバシク","town":"四葉","town_kana":"ヨツバ","prefecture_code":13}}