{"0044":{"zip_code":"1770044","prefecture":"東京都","prefecture_kana":"トウキョウト","city":"練馬区","city_kana":"ネリマク","town":"上石神井","town_kana":"カミシャクジイ","prefecture_code":13},"0043":{"zip_code":"1770043","prefecture":"東京都","prefecture_kana":"トウキョウト","city":"練馬区","city_kana":"ネリマク","town":"上石神井南町","town_kana":"カミシャクジイミナミチョウ","prefecture_code":13},"0042":{"zip_code":"1770042","prefecture":"東京都","prefecture_kana":"トウキョウト","city":"練馬区","city_kana":"ネリマク","town":"下石神井","town_kana":"シモシャクジイ","prefecture_code":13},"0045":{"zip_code":"1770045","prefecture":"東京都","prefecture_kana":"トウキョウト","city":"練馬区","city_kana":"ネリマク","town":"石神井台","town_kana":"シャクジイダイ","prefecture_code":13},"0041":{"zip_code":"1770041","prefecture":"東京都","prefecture_kana":"トウキョウト","city":"練馬区","city_kana":"ネリマク","town":"石神井町","town_kana":"シャクジイマチ","prefecture_code":13},"0052":{"zip_code":"1770052","prefecture":"東京都","prefecture_kana":"トウキョウト","city":"練馬区","city_kana":"ネリマク","town":"関町東","town_kana":"セキマチヒガシ","prefecture_code":13},"0053":{"zip_code":"1770053","prefecture":"東京都","prefecture_kana":"トウキョウト","city":"練馬区","city_kana":"ネリマク","town":"関町南","town_kana":"セキマチミナミ","prefecture_code":13},"0051":{"zip_code":"1770051","prefecture":"東京都","prefecture_kana":"トウキョウト","city":"練馬区","city_kana":"ネリマク","town":"関町北","town_kana":"セキマチキタ","prefecture_code":13},"0033":{"zip_code":"1770033","prefecture":"東京都","prefecture_kana":"トウキョウト","city":"練馬区","city_kana":"ネリマク","town":"高野台","town_kana":"タカノダイ","prefecture_code":13},"0054":{"zip_code":"1770054","prefecture":"東京都","prefecture_kana":"トウキョウト","city":"練馬区","city_kana":"ネリマク","town":"立野町","town_kana":"タテノチョウ","prefecture_code":13},"0034":{"zip_code":"1770034","prefecture":"東京都","prefecture_kana":"トウキョウト","city":"練馬区","city_kana":"ネリマク","town":"富士見台","town_kana":"フジミダイ","prefecture_code":13},"0035":{"zip_code":"1770035","prefecture":"東京都","prefecture_kana":"トウキョウト","city":"練馬区","city_kana":"ネリマク","town":"南田中","town_kana":"ミナミタナカ","prefecture_code":13},"0031":{"zip_code":"1770031","prefecture":"東京都","prefecture_kana":"トウキョウト","city":"練馬区","city_kana":"ネリマク","town":"三原台","town_kana":"ミハラダイ","prefecture_code":13},"0032":{"zip_code":"1770032","prefecture":"東京都","prefecture_kana":"トウキョウト","city":"練馬区","city_kana":"ネリマク","town":"谷原","town_kana":"ヤハラ","prefecture_code":13}}