{"0071":{"zip_code":"1790071","prefecture":"東京都","prefecture_kana":"トウキョウト","city":"練馬区","city_kana":"ネリマク","town":"旭町","town_kana":"アサヒチョウ","prefecture_code":13},"0074":{"zip_code":"1790074","prefecture":"東京都","prefecture_kana":"トウキョウト","city":"練馬区","city_kana":"ネリマク","town":"春日町","town_kana":"カスガチョウ","prefecture_code":13},"0081":{"zip_code":"1790081","prefecture":"東京都","prefecture_kana":"トウキョウト","city":"練馬区","city_kana":"ネリマク","town":"北町","town_kana":"キタマチ","prefecture_code":13},"0075":{"zip_code":"1790075","prefecture":"東京都","prefecture_kana":"トウキョウト","city":"練馬区","city_kana":"ネリマク","town":"高松","town_kana":"タカマツ","prefecture_code":13},"0073":{"zip_code":"1790073","prefecture":"東京都","prefecture_kana":"トウキョウト","city":"練馬区","city_kana":"ネリマク","town":"田柄","town_kana":"タガラ","prefecture_code":13},"0076":{"zip_code":"1790076","prefecture":"東京都","prefecture_kana":"トウキョウト","city":"練馬区","city_kana":"ネリマク","town":"土支田","town_kana":"ドシダ","prefecture_code":13},"0082":{"zip_code":"1790082","prefecture":"東京都","prefecture_kana":"トウキョウト","city":"練馬区","city_kana":"ネリマク","town":"錦","town_kana":"ニシキ","prefecture_code":13},"0085":{"zip_code":"1790085","prefecture":"東京都","prefecture_kana":"トウキョウト","city":"練馬区","city_kana":"ネリマク","town":"早宮","town_kana":"ハヤミヤ","prefecture_code":13},"0072":{"zip_code":"1790072","prefecture":"東京都","prefecture_kana":"トウキョウト","city":"練馬区","city_kana":"ネリマク","town":"光が丘","town_kana":"ヒカリガオカ","prefecture_code":13},"0084":{"zip_code":"1790084","prefecture":"東京都","prefecture_kana":"トウキョウト","city":"練馬区","city_kana":"ネリマク","town":"氷川台","town_kana":"ヒカワダイ","prefecture_code":13},"0083":{"zip_code":"1790083","prefecture":"東京都","prefecture_kana":"トウキョウト","city":"練馬区","city_kana":"ネリマク","town":"平和台","town_kana":"ヘイワダイ","prefecture_code":13}}