{"0000":{"zip_code":"1800000","prefecture":"東京都","prefecture_kana":"トウキョウト","city":"武蔵野市","city_kana":"ムサシノシ","town":"","town_kana":"","prefecture_code":13},"0004":{"zip_code":"1800004","prefecture":"東京都","prefecture_kana":"トウキョウト","city":"武蔵野市","city_kana":"ムサシノシ","town":"吉祥寺本町","town_kana":"キチジョウジホンチョウ","prefecture_code":13},"0002":{"zip_code":"1800002","prefecture":"東京都","prefecture_kana":"トウキョウト","city":"武蔵野市","city_kana":"ムサシノシ","town":"吉祥寺東町","town_kana":"キチジョウジヒガシチョウ","prefecture_code":13},"0003":{"zip_code":"1800003","prefecture":"東京都","prefecture_kana":"トウキョウト","city":"武蔵野市","city_kana":"ムサシノシ","town":"吉祥寺南町","town_kana":"キチジョウジミナミチョウ","prefecture_code":13},"0001":{"zip_code":"1800001","prefecture":"東京都","prefecture_kana":"トウキョウト","city":"武蔵野市","city_kana":"ムサシノシ","town":"吉祥寺北町","town_kana":"キチジョウジキタマチ","prefecture_code":13},"0023":{"zip_code":"1800023","prefecture":"東京都","prefecture_kana":"トウキョウト","city":"武蔵野市","city_kana":"ムサシノシ","town":"境南町","town_kana":"キョウナンチョウ","prefecture_code":13},"0005":{"zip_code":"1800005","prefecture":"東京都","prefecture_kana":"トウキョウト","city":"武蔵野市","city_kana":"ムサシノシ","town":"御殿山","town_kana":"ゴテンヤマ","prefecture_code":13},"0022":{"zip_code":"1800022","prefecture":"東京都","prefecture_kana":"トウキョウト","city":"武蔵野市","city_kana":"ムサシノシ","town":"境","town_kana":"サカイ","prefecture_code":13},"0021":{"zip_code":"1800021","prefecture":"東京都","prefecture_kana":"トウキョウト","city":"武蔵野市","city_kana":"ムサシノシ","town":"桜堤","town_kana":"サクラヅツミ","prefecture_code":13},"0014":{"zip_code":"1800014","prefecture":"東京都","prefecture_kana":"トウキョウト","city":"武蔵野市","city_kana":"ムサシノシ","town":"関前","town_kana":"セキマエ","prefecture_code":13},"0006":{"zip_code":"1800006","prefecture":"東京都","prefecture_kana":"トウキョウト","city":"武蔵野市","city_kana":"ムサシノシ","town":"中町","town_kana":"ナカチョウ","prefecture_code":13},"0013":{"zip_code":"1800013","prefecture":"東京都","prefecture_kana":"トウキョウト","city":"武蔵野市","city_kana":"ムサシノシ","town":"西久保","town_kana":"ニシクボ","prefecture_code":13},"0012":{"zip_code":"1800012","prefecture":"東京都","prefecture_kana":"トウキョウト","city":"武蔵野市","city_kana":"ムサシノシ","town":"緑町","town_kana":"ミドリチョウ","prefecture_code":13},"0011":{"zip_code":"1800011","prefecture":"東京都","prefecture_kana":"トウキョウト","city":"武蔵野市","city_kana":"ムサシノシ","town":"八幡町","town_kana":"ヤハタチョウ","prefecture_code":13}}