{"0000":{"zip_code":"1810000","prefecture":"東京都","prefecture_kana":"トウキョウト","city":"三鷹市","city_kana":"ミタカシ","town":"","town_kana":"","prefecture_code":13},"0011":{"zip_code":"1810011","prefecture":"東京都","prefecture_kana":"トウキョウト","city":"三鷹市","city_kana":"ミタカシ","town":"井口","town_kana":"イグチ","prefecture_code":13},"0001":{"zip_code":"1810001","prefecture":"東京都","prefecture_kana":"トウキョウト","city":"三鷹市","city_kana":"ミタカシ","town":"井の頭","town_kana":"イノカシラ","prefecture_code":13},"0015":{"zip_code":"1810015","prefecture":"東京都","prefecture_kana":"トウキョウト","city":"三鷹市","city_kana":"ミタカシ","town":"大沢","town_kana":"オオサワ","prefecture_code":13},"0012":{"zip_code":"1810012","prefecture":"東京都","prefecture_kana":"トウキョウト","city":"三鷹市","city_kana":"ミタカシ","town":"上連雀","town_kana":"カミレンジャク","prefecture_code":13},"0003":{"zip_code":"1810003","prefecture":"東京都","prefecture_kana":"トウキョウト","city":"三鷹市","city_kana":"ミタカシ","town":"北野","town_kana":"キタノ","prefecture_code":13},"0013":{"zip_code":"1810013","prefecture":"東京都","prefecture_kana":"トウキョウト","city":"三鷹市","city_kana":"ミタカシ","town":"下連雀","town_kana":"シモレンジャク","prefecture_code":13},"0004":{"zip_code":"1810004","prefecture":"東京都","prefecture_kana":"トウキョウト","city":"三鷹市","city_kana":"ミタカシ","town":"新川","town_kana":"シンカワ","prefecture_code":13},"0016":{"zip_code":"1810016","prefecture":"東京都","prefecture_kana":"トウキョウト","city":"三鷹市","city_kana":"ミタカシ","town":"深大寺","town_kana":"ジンダイジ","prefecture_code":13},"0005":{"zip_code":"1810005","prefecture":"東京都","prefecture_kana":"トウキョウト","city":"三鷹市","city_kana":"ミタカシ","town":"中原","town_kana":"ナカハラ","prefecture_code":13},"0014":{"zip_code":"1810014","prefecture":"東京都","prefecture_kana":"トウキョウト","city":"三鷹市","city_kana":"ミタカシ","town":"野崎","town_kana":"ノザキ","prefecture_code":13},"0002":{"zip_code":"1810002","prefecture":"東京都","prefecture_kana":"トウキョウト","city":"三鷹市","city_kana":"ミタカシ","town":"牟礼","town_kana":"ムレ","prefecture_code":13}}