{"0000":{"zip_code":"1820000","prefecture":"東京都","prefecture_kana":"トウキョウト","city":"調布市","city_kana":"チョウフシ","town":"","town_kana":"","prefecture_code":13},"0004":{"zip_code":"1820004","prefecture":"東京都","prefecture_kana":"トウキョウト","city":"調布市","city_kana":"チョウフシ","town":"入間町","town_kana":"イリマチョウ","prefecture_code":13},"0035":{"zip_code":"1820035","prefecture":"東京都","prefecture_kana":"トウキョウト","city":"調布市","city_kana":"チョウフシ","town":"上石原","town_kana":"カミイシワラ","prefecture_code":13},"0007":{"zip_code":"1820007","prefecture":"東京都","prefecture_kana":"トウキョウト","city":"調布市","city_kana":"チョウフシ","town":"菊野台","town_kana":"キクノダイ","prefecture_code":13},"0022":{"zip_code":"1820022","prefecture":"東京都","prefecture_kana":"トウキョウト","city":"調布市","city_kana":"チョウフシ","town":"国領町","town_kana":"コクリョウチョウ","prefecture_code":13},"0026":{"zip_code":"1820026","prefecture":"東京都","prefecture_kana":"トウキョウト","city":"調布市","city_kana":"チョウフシ","town":"小島町","town_kana":"コジマチョウ","prefecture_code":13},"0016":{"zip_code":"1820016","prefecture":"東京都","prefecture_kana":"トウキョウト","city":"調布市","city_kana":"チョウフシ","town":"佐須町","town_kana":"サズマチ","prefecture_code":13},"0014":{"zip_code":"1820014","prefecture":"東京都","prefecture_kana":"トウキョウト","city":"調布市","city_kana":"チョウフシ","town":"柴崎","town_kana":"シバサキ","prefecture_code":13},"0034":{"zip_code":"1820034","prefecture":"東京都","prefecture_kana":"トウキョウト","city":"調布市","city_kana":"チョウフシ","town":"下石原","town_kana":"シモイシワラ","prefecture_code":13},"0012":{"zip_code":"1820012","prefecture":"東京都","prefecture_kana":"トウキョウト","city":"調布市","city_kana":"チョウフシ","town":"深大寺東町","town_kana":"ジンダイジヒガシマチ","prefecture_code":13},"0013":{"zip_code":"1820013","prefecture":"東京都","prefecture_kana":"トウキョウト","city":"調布市","city_kana":"チョウフシ","town":"深大寺南町","town_kana":"ジンダイジミナミマチ","prefecture_code":13},"0011":{"zip_code":"1820011","prefecture":"東京都","prefecture_kana":"トウキョウト","city":"調布市","city_kana":"チョウフシ","town":"深大寺北町","town_kana":"ジンダイジキタマチ","prefecture_code":13},"0017":{"zip_code":"1820017","prefecture":"東京都","prefecture_kana":"トウキョウト","city":"調布市","city_kana":"チョウフシ","town":"深大寺元町","town_kana":"ジンダイジモトマチ","prefecture_code":13},"0002":{"zip_code":"1820002","prefecture":"東京都","prefecture_kana":"トウキョウト","city":"調布市","city_kana":"チョウフシ","town":"仙川町","town_kana":"センガワチョウ","prefecture_code":13},"0023":{"zip_code":"1820023","prefecture":"東京都","prefecture_kana":"トウキョウト","city":"調布市","city_kana":"チョウフシ","town":"染地","town_kana":"ソメチ","prefecture_code":13},"0025":{"zip_code":"1820025","prefecture":"東京都","prefecture_kana":"トウキョウト","city":"調布市","city_kana":"チョウフシ","town":"多摩川","town_kana":"タマガワ","prefecture_code":13},"0021":{"zip_code":"1820021","prefecture":"東京都","prefecture_kana":"トウキョウト","city":"調布市","city_kana":"チョウフシ","town":"調布ケ丘","town_kana":"チョウフガオカ","prefecture_code":13},"0036":{"zip_code":"1820036","prefecture":"東京都","prefecture_kana":"トウキョウト","city":"調布市","city_kana":"チョウフシ","town":"飛田給","town_kana":"トビタキュウ","prefecture_code":13},"0006":{"zip_code":"1820006","prefecture":"東京都","prefecture_kana":"トウキョウト","city":"調布市","city_kana":"チョウフシ","town":"西つつじケ丘","town_kana":"ニシツツジガオカ","prefecture_code":13},"0032":{"zip_code":"1820032","prefecture":"東京都","prefecture_kana":"トウキョウト","city":"調布市","city_kana":"チョウフシ","town":"西町","town_kana":"ニシマチ","prefecture_code":13},"0031":{"zip_code":"1820031","prefecture":"東京都","prefecture_kana":"トウキョウト","city":"調布市","city_kana":"チョウフシ","town":"野水","town_kana":"ノミズ","prefecture_code":13},"0005":{"zip_code":"1820005","prefecture":"東京都","prefecture_kana":"トウキョウト","city":"調布市","city_kana":"チョウフシ","town":"東つつじケ丘","town_kana":"ヒガシツツジガオカ","prefecture_code":13},"0033":{"zip_code":"1820033","prefecture":"東京都","prefecture_kana":"トウキョウト","city":"調布市","city_kana":"チョウフシ","town":"富士見町","town_kana":"フジミチョウ","prefecture_code":13},"0024":{"zip_code":"1820024","prefecture":"東京都","prefecture_kana":"トウキョウト","city":"調布市","city_kana":"チョウフシ","town":"布田","town_kana":"フダ","prefecture_code":13},"0001":{"zip_code":"1820001","prefecture":"東京都","prefecture_kana":"トウキョウト","city":"調布市","city_kana":"チョウフシ","town":"緑ケ丘","town_kana":"ミドリガオカ","prefecture_code":13},"0015":{"zip_code":"1820015","prefecture":"東京都","prefecture_kana":"トウキョウト","city":"調布市","city_kana":"チョウフシ","town":"八雲台","town_kana":"ヤグモダイ","prefecture_code":13},"0003":{"zip_code":"1820003","prefecture":"東京都","prefecture_kana":"トウキョウト","city":"調布市","city_kana":"チョウフシ","town":"若葉町","town_kana":"ワカバチョウ","prefecture_code":13}}