{"0000":{"zip_code":"1830000","prefecture":"東京都","prefecture_kana":"トウキョウト","city":"府中市","city_kana":"フチュウシ","town":"以下に掲載がない場合","town_kana":"イカニケイサイガナイバアイ","prefecture_code":13},"0003":{"zip_code":"1830003","prefecture":"東京都","prefecture_kana":"トウキョウト","city":"府中市","city_kana":"フチュウシ","town":"朝日町","town_kana":"アサヒチョウ","prefecture_code":13},"0012":{"zip_code":"1830012","prefecture":"東京都","prefecture_kana":"トウキョウト","city":"府中市","city_kana":"フチュウシ","town":"押立町","town_kana":"オシタテチョウ","prefecture_code":13},"0021":{"zip_code":"1830021","prefecture":"東京都","prefecture_kana":"トウキョウト","city":"府中市","city_kana":"フチュウシ","town":"片町","town_kana":"カタマチ","prefecture_code":13},"0041":{"zip_code":"1830041","prefecture":"東京都","prefecture_kana":"トウキョウト","city":"府中市","city_kana":"フチュウシ","town":"北山町","town_kana":"キタヤマチョウ","prefecture_code":13},"0056":{"zip_code":"1830056","prefecture":"東京都","prefecture_kana":"トウキョウト","city":"府中市","city_kana":"フチュウシ","town":"寿町","town_kana":"コトブキチョウ","prefecture_code":13},"0013":{"zip_code":"1830013","prefecture":"東京都","prefecture_kana":"トウキョウト","city":"府中市","city_kana":"フチュウシ","town":"小柳町","town_kana":"コヤナギチョウ","prefecture_code":13},"0014":{"zip_code":"1830014","prefecture":"東京都","prefecture_kana":"トウキョウト","city":"府中市","city_kana":"フチュウシ","town":"是政","town_kana":"コレマサ","prefecture_code":13},"0054":{"zip_code":"1830054","prefecture":"東京都","prefecture_kana":"トウキョウト","city":"府中市","city_kana":"フチュウシ","town":"幸町","town_kana":"サイワイチョウ","prefecture_code":13},"0051":{"zip_code":"1830051","prefecture":"東京都","prefecture_kana":"トウキョウト","city":"府中市","city_kana":"フチュウシ","town":"栄町","town_kana":"サカエチョウ","prefecture_code":13},"0015":{"zip_code":"1830015","prefecture":"東京都","prefecture_kana":"トウキョウト","city":"府中市","city_kana":"フチュウシ","town":"清水が丘","town_kana":"シミズガオカ","prefecture_code":13},"0011":{"zip_code":"1830011","prefecture":"東京都","prefecture_kana":"トウキョウト","city":"府中市","city_kana":"フチュウシ","town":"白糸台","town_kana":"シライトダイ","prefecture_code":13},"0052":{"zip_code":"1830052","prefecture":"東京都","prefecture_kana":"トウキョウト","city":"府中市","city_kana":"フチュウシ","town":"新町","town_kana":"シンマチ","prefecture_code":13},"0034":{"zip_code":"1830034","prefecture":"東京都","prefecture_kana":"トウキョウト","city":"府中市","city_kana":"フチュウシ","town":"住吉町","town_kana":"スミヨシチョウ","prefecture_code":13},"0001":{"zip_code":"1830001","prefecture":"東京都","prefecture_kana":"トウキョウト","city":"府中市","city_kana":"フチュウシ","town":"浅間町","town_kana":"センゲンチョウ","prefecture_code":13},"0002":{"zip_code":"1830002","prefecture":"東京都","prefecture_kana":"トウキョウト","city":"府中市","city_kana":"フチュウシ","town":"多磨町","town_kana":"タマチョウ","prefecture_code":13},"0053":{"zip_code":"1830053","prefecture":"東京都","prefecture_kana":"トウキョウト","city":"府中市","city_kana":"フチュウシ","town":"天神町","town_kana":"テンジンチョウ","prefecture_code":13},"0043":{"zip_code":"1830043","prefecture":"東京都","prefecture_kana":"トウキョウト","city":"府中市","city_kana":"フチュウシ","town":"東芝町","town_kana":"トウシバチョウ","prefecture_code":13},"0046":{"zip_code":"1830046","prefecture":"東京都","prefecture_kana":"トウキョウト","city":"府中市","city_kana":"フチュウシ","town":"西原町","town_kana":"ニシハラチョウ","prefecture_code":13},"0031":{"zip_code":"1830031","prefecture":"東京都","prefecture_kana":"トウキョウト","city":"府中市","city_kana":"フチュウシ","town":"西府町","town_kana":"ニシフチョウ","prefecture_code":13},"0044":{"zip_code":"1830044","prefecture":"東京都","prefecture_kana":"トウキョウト","city":"府中市","city_kana":"フチュウシ","town":"日鋼町","town_kana":"ニッコウチョウ","prefecture_code":13},"0036":{"zip_code":"1830036","prefecture":"東京都","prefecture_kana":"トウキョウト","city":"府中市","city_kana":"フチュウシ","town":"日新町","town_kana":"ニッシンチョウ","prefecture_code":13},"0016":{"zip_code":"1830016","prefecture":"東京都","prefecture_kana":"トウキョウト","city":"府中市","city_kana":"フチュウシ","town":"八幡町","town_kana":"ハチマンチョウ","prefecture_code":13},"0057":{"zip_code":"1830057","prefecture":"東京都","prefecture_kana":"トウキョウト","city":"府中市","city_kana":"フチュウシ","town":"晴見町","town_kana":"ハルミチョウ","prefecture_code":13},"0024":{"zip_code":"1830024","prefecture":"東京都","prefecture_kana":"トウキョウト","city":"府中市","city_kana":"フチュウシ","town":"日吉町","town_kana":"ヒヨシチョウ","prefecture_code":13},"0055":{"zip_code":"1830055","prefecture":"東京都","prefecture_kana":"トウキョウト","city":"府中市","city_kana":"フチュウシ","town":"府中町","town_kana":"フチュウチョウ","prefecture_code":13},"0033":{"zip_code":"1830033","prefecture":"東京都","prefecture_kana":"トウキョウト","city":"府中市","city_kana":"フチュウシ","town":"分梅町","town_kana":"ブバイチョウ","prefecture_code":13},"0032":{"zip_code":"1830032","prefecture":"東京都","prefecture_kana":"トウキョウト","city":"府中市","city_kana":"フチュウシ","town":"本宿町","town_kana":"ホンシュクチョウ","prefecture_code":13},"0027":{"zip_code":"1830027","prefecture":"東京都","prefecture_kana":"トウキョウト","city":"府中市","city_kana":"フチュウシ","town":"本町","town_kana":"ホンマチ","prefecture_code":13},"0006":{"zip_code":"1830006","prefecture":"東京都","prefecture_kana":"トウキョウト","city":"府中市","city_kana":"フチュウシ","town":"緑町","town_kana":"ミドリチョウ","prefecture_code":13},"0026":{"zip_code":"1830026","prefecture":"東京都","prefecture_kana":"トウキョウト","city":"府中市","city_kana":"フチュウシ","town":"南町","town_kana":"ミナミチョウ","prefecture_code":13},"0022":{"zip_code":"1830022","prefecture":"東京都","prefecture_kana":"トウキョウト","city":"府中市","city_kana":"フチュウシ","town":"宮西町","town_kana":"ミヤニシチョウ","prefecture_code":13},"0023":{"zip_code":"1830023","prefecture":"東京都","prefecture_kana":"トウキョウト","city":"府中市","city_kana":"フチュウシ","town":"宮町","town_kana":"ミヤマチ","prefecture_code":13},"0045":{"zip_code":"1830045","prefecture":"東京都","prefecture_kana":"トウキョウト","city":"府中市","city_kana":"フチュウシ","town":"美好町","town_kana":"ミヨシチョウ","prefecture_code":13},"0042":{"zip_code":"1830042","prefecture":"東京都","prefecture_kana":"トウキョウト","city":"府中市","city_kana":"フチュウシ","town":"武蔵台","town_kana":"ムサシダイ","prefecture_code":13},"0004":{"zip_code":"1830004","prefecture":"東京都","prefecture_kana":"トウキョウト","city":"府中市","city_kana":"フチュウシ","town":"紅葉丘","town_kana":"モミジガオカ","prefecture_code":13},"0025":{"zip_code":"1830025","prefecture":"東京都","prefecture_kana":"トウキョウト","city":"府中市","city_kana":"フチュウシ","town":"矢崎町","town_kana":"ヤザキチョウ","prefecture_code":13},"0035":{"zip_code":"1830035","prefecture":"東京都","prefecture_kana":"トウキョウト","city":"府中市","city_kana":"フチュウシ","town":"四谷","town_kana":"ヨツヤ","prefecture_code":13},"0005":{"zip_code":"1830005","prefecture":"東京都","prefecture_kana":"トウキョウト","city":"府中市","city_kana":"フチュウシ","town":"若松町","town_kana":"ワカマツチョウ","prefecture_code":13}}