{"0000":{"zip_code":"1840000","prefecture":"東京都","prefecture_kana":"トウキョウト","city":"小金井市","city_kana":"コガネイシ","town":"以下に掲載がない場合","town_kana":"イカニケイサイガナイバアイ","prefecture_code":13},"0002":{"zip_code":"1840002","prefecture":"東京都","prefecture_kana":"トウキョウト","city":"小金井市","city_kana":"コガネイシ","town":"梶野町","town_kana":"カジノチョウ","prefecture_code":13},"0005":{"zip_code":"1840005","prefecture":"東京都","prefecture_kana":"トウキョウト","city":"小金井市","city_kana":"コガネイシ","town":"桜町","town_kana":"サクラチョウ","prefecture_code":13},"0001":{"zip_code":"1840001","prefecture":"東京都","prefecture_kana":"トウキョウト","city":"小金井市","city_kana":"コガネイシ","town":"関野町","town_kana":"セキノチョウ","prefecture_code":13},"0012":{"zip_code":"1840012","prefecture":"東京都","prefecture_kana":"トウキョウト","city":"小金井市","city_kana":"コガネイシ","town":"中町","town_kana":"ナカチョウ","prefecture_code":13},"0014":{"zip_code":"1840014","prefecture":"東京都","prefecture_kana":"トウキョウト","city":"小金井市","city_kana":"コガネイシ","town":"貫井南町","town_kana":"ヌクイミナミチョウ","prefecture_code":13},"0015":{"zip_code":"1840015","prefecture":"東京都","prefecture_kana":"トウキョウト","city":"小金井市","city_kana":"コガネイシ","town":"貫井北町","town_kana":"ヌクイキタマチ","prefecture_code":13},"0011":{"zip_code":"1840011","prefecture":"東京都","prefecture_kana":"トウキョウト","city":"小金井市","city_kana":"コガネイシ","town":"東町","town_kana":"ヒガシチョウ","prefecture_code":13},"0004":{"zip_code":"1840004","prefecture":"東京都","prefecture_kana":"トウキョウト","city":"小金井市","city_kana":"コガネイシ","town":"本町","town_kana":"ホンチョウ","prefecture_code":13},"0013":{"zip_code":"1840013","prefecture":"東京都","prefecture_kana":"トウキョウト","city":"小金井市","city_kana":"コガネイシ","town":"前原町","town_kana":"マエハラチョウ","prefecture_code":13},"0003":{"zip_code":"1840003","prefecture":"東京都","prefecture_kana":"トウキョウト","city":"小金井市","city_kana":"コガネイシ","town":"緑町","town_kana":"ミドリチョウ","prefecture_code":13}}