{"0000":{"zip_code":"1870000","prefecture":"東京都","prefecture_kana":"トウキョウト","city":"小平市","city_kana":"コダイラシ","town":"以下に掲載がない場合","town_kana":"イカニケイサイガナイバアイ","prefecture_code":13},"0001":{"zip_code":"1870001","prefecture":"東京都","prefecture_kana":"トウキョウト","city":"小平市","city_kana":"コダイラシ","town":"大沼町","town_kana":"オオヌマチョウ","prefecture_code":13},"0031":{"zip_code":"1870031","prefecture":"東京都","prefecture_kana":"トウキョウト","city":"小平市","city_kana":"コダイラシ","town":"小川東町","town_kana":"オガワヒガシチョウ","prefecture_code":13},"0035":{"zip_code":"1870035","prefecture":"東京都","prefecture_kana":"トウキョウト","city":"小平市","city_kana":"コダイラシ","town":"小川西町","town_kana":"オガワニシマチ","prefecture_code":13},"0032":{"zip_code":"1870032","prefecture":"東京都","prefecture_kana":"トウキョウト","city":"小平市","city_kana":"コダイラシ","town":"小川町","town_kana":"オガワチョウ","prefecture_code":13},"0043":{"zip_code":"1870043","prefecture":"東京都","prefecture_kana":"トウキョウト","city":"小平市","city_kana":"コダイラシ","town":"学園東町","town_kana":"ガクエンヒガシチョウ","prefecture_code":13},"0045":{"zip_code":"1870045","prefecture":"東京都","prefecture_kana":"トウキョウト","city":"小平市","city_kana":"コダイラシ","town":"学園西町","town_kana":"ガクエンニシマチ","prefecture_code":13},"0044":{"zip_code":"1870044","prefecture":"東京都","prefecture_kana":"トウキョウト","city":"小平市","city_kana":"コダイラシ","town":"喜平町","town_kana":"キヘイチョウ","prefecture_code":13},"0034":{"zip_code":"1870034","prefecture":"東京都","prefecture_kana":"トウキョウト","city":"小平市","city_kana":"コダイラシ","town":"栄町","town_kana":"サカエチョウ","prefecture_code":13},"0023":{"zip_code":"1870023","prefecture":"東京都","prefecture_kana":"トウキョウト","city":"小平市","city_kana":"コダイラシ","town":"上水新町","town_kana":"ジョウスイシンマチ","prefecture_code":13},"0022":{"zip_code":"1870022","prefecture":"東京都","prefecture_kana":"トウキョウト","city":"小平市","city_kana":"コダイラシ","town":"上水本町","town_kana":"ジョウスイホンチョウ","prefecture_code":13},"0021":{"zip_code":"1870021","prefecture":"東京都","prefecture_kana":"トウキョウト","city":"小平市","city_kana":"コダイラシ","town":"上水南町","town_kana":"ジョウスイミナミチョウ","prefecture_code":13},"0011":{"zip_code":"1870011","prefecture":"東京都","prefecture_kana":"トウキョウト","city":"小平市","city_kana":"コダイラシ","town":"鈴木町","town_kana":"スズキチョウ","prefecture_code":13},"0024":{"zip_code":"1870024","prefecture":"東京都","prefecture_kana":"トウキョウト","city":"小平市","city_kana":"コダイラシ","town":"たかの台","town_kana":"タカノダイ","prefecture_code":13},"0025":{"zip_code":"1870025","prefecture":"東京都","prefecture_kana":"トウキョウト","city":"小平市","city_kana":"コダイラシ","town":"津田町","town_kana":"ツダマチ","prefecture_code":13},"0004":{"zip_code":"1870004","prefecture":"東京都","prefecture_kana":"トウキョウト","city":"小平市","city_kana":"コダイラシ","town":"天神町","town_kana":"テンジンチョウ","prefecture_code":13},"0033":{"zip_code":"1870033","prefecture":"東京都","prefecture_kana":"トウキョウト","city":"小平市","city_kana":"コダイラシ","town":"中島町","town_kana":"ナカジマチョウ","prefecture_code":13},"0042":{"zip_code":"1870042","prefecture":"東京都","prefecture_kana":"トウキョウト","city":"小平市","city_kana":"コダイラシ","town":"仲町","town_kana":"ナカマチ","prefecture_code":13},"0002":{"zip_code":"1870002","prefecture":"東京都","prefecture_kana":"トウキョウト","city":"小平市","city_kana":"コダイラシ","town":"花小金井","town_kana":"ハナコガネイ","prefecture_code":13},"0003":{"zip_code":"1870003","prefecture":"東京都","prefecture_kana":"トウキョウト","city":"小平市","city_kana":"コダイラシ","town":"花小金井南町","town_kana":"ハナコガネイミナミチョウ","prefecture_code":13},"0041":{"zip_code":"1870041","prefecture":"東京都","prefecture_kana":"トウキョウト","city":"小平市","city_kana":"コダイラシ","town":"美園町","town_kana":"ミソノチョウ","prefecture_code":13},"0012":{"zip_code":"1870012","prefecture":"東京都","prefecture_kana":"トウキョウト","city":"小平市","city_kana":"コダイラシ","town":"御幸町","town_kana":"ミユキチョウ","prefecture_code":13},"0013":{"zip_code":"1870013","prefecture":"東京都","prefecture_kana":"トウキョウト","city":"小平市","city_kana":"コダイラシ","town":"回田町","town_kana":"メグリタチョウ","prefecture_code":13}}