{"0000":{"zip_code":"1890000","prefecture":"東京都","prefecture_kana":"トウキョウト","city":"東村山市","city_kana":"ヒガシムラヤマシ","town":"","town_kana":"","prefecture_code":13},"0002":{"zip_code":"1890002","prefecture":"東京都","prefecture_kana":"トウキョウト","city":"東村山市","city_kana":"ヒガシムラヤマシ","town":"青葉町","town_kana":"アオバチョウ","prefecture_code":13},"0001":{"zip_code":"1890001","prefecture":"東京都","prefecture_kana":"トウキョウト","city":"東村山市","city_kana":"ヒガシムラヤマシ","town":"秋津町","town_kana":"アキツチョウ","prefecture_code":13},"0011":{"zip_code":"1890011","prefecture":"東京都","prefecture_kana":"トウキョウト","city":"東村山市","city_kana":"ヒガシムラヤマシ","town":"恩多町","town_kana":"オンタチョウ","prefecture_code":13},"0003":{"zip_code":"1890003","prefecture":"東京都","prefecture_kana":"トウキョウト","city":"東村山市","city_kana":"ヒガシムラヤマシ","town":"久米川町","town_kana":"クメガワチョウ","prefecture_code":13},"0013":{"zip_code":"1890013","prefecture":"東京都","prefecture_kana":"トウキョウト","city":"東村山市","city_kana":"ヒガシムラヤマシ","town":"栄町","town_kana":"サカエチョウ","prefecture_code":13},"0021":{"zip_code":"1890021","prefecture":"東京都","prefecture_kana":"トウキョウト","city":"東村山市","city_kana":"ヒガシムラヤマシ","town":"諏訪町","town_kana":"スワチョウ","prefecture_code":13},"0026":{"zip_code":"1890026","prefecture":"東京都","prefecture_kana":"トウキョウト","city":"東村山市","city_kana":"ヒガシムラヤマシ","town":"多摩湖町","town_kana":"タマコチョウ","prefecture_code":13},"0022":{"zip_code":"1890022","prefecture":"東京都","prefecture_kana":"トウキョウト","city":"東村山市","city_kana":"ヒガシムラヤマシ","town":"野口町","town_kana":"ノグチチョウ","prefecture_code":13},"0012":{"zip_code":"1890012","prefecture":"東京都","prefecture_kana":"トウキョウト","city":"東村山市","city_kana":"ヒガシムラヤマシ","town":"萩山町","town_kana":"ハギヤマチョウ","prefecture_code":13},"0024":{"zip_code":"1890024","prefecture":"東京都","prefecture_kana":"トウキョウト","city":"東村山市","city_kana":"ヒガシムラヤマシ","town":"富士見町","town_kana":"フジミチョウ","prefecture_code":13},"0014":{"zip_code":"1890014","prefecture":"東京都","prefecture_kana":"トウキョウト","city":"東村山市","city_kana":"ヒガシムラヤマシ","town":"本町","town_kana":"ホンチョウ","prefecture_code":13},"0023":{"zip_code":"1890023","prefecture":"東京都","prefecture_kana":"トウキョウト","city":"東村山市","city_kana":"ヒガシムラヤマシ","town":"美住町","town_kana":"ミスミチョウ","prefecture_code":13},"0025":{"zip_code":"1890025","prefecture":"東京都","prefecture_kana":"トウキョウト","city":"東村山市","city_kana":"ヒガシムラヤマシ","town":"廻田町","town_kana":"メグリタチョウ","prefecture_code":13}}