{"0000":{"zip_code":"1940000","prefecture":"東京都","prefecture_kana":"トウキョウト","city":"町田市","city_kana":"マチダシ","town":"","town_kana":"","prefecture_code":13},"0211":{"zip_code":"1940211","prefecture":"東京都","prefecture_kana":"トウキョウト","city":"町田市","city_kana":"マチダシ","town":"相原町","town_kana":"アイハラマチ","prefecture_code":13},"0023":{"zip_code":"1940023","prefecture":"東京都","prefecture_kana":"トウキョウト","city":"町田市","city_kana":"マチダシ","town":"旭町","town_kana":"アサヒマチ","prefecture_code":13},"0003":{"zip_code":"1940003","prefecture":"東京都","prefecture_kana":"トウキョウト","city":"町田市","city_kana":"マチダシ","town":"小川","town_kana":"オガワ","prefecture_code":13},"0215":{"zip_code":"1940215","prefecture":"東京都","prefecture_kana":"トウキョウト","city":"町田市","city_kana":"マチダシ","town":"小山ヶ丘","town_kana":"オヤマガオカ","prefecture_code":13},"0204":{"zip_code":"1940204","prefecture":"東京都","prefecture_kana":"トウキョウト","city":"町田市","city_kana":"マチダシ","town":"小山田桜台","town_kana":"オヤマダサクラダイ","prefecture_code":13},"0212":{"zip_code":"1940212","prefecture":"東京都","prefecture_kana":"トウキョウト","city":"町田市","city_kana":"マチダシ","town":"小山町","town_kana":"オヤママチ","prefecture_code":13},"0012":{"zip_code":"1940012","prefecture":"東京都","prefecture_kana":"トウキョウト","city":"町田市","city_kana":"マチダシ","town":"金森","town_kana":"カナモリ","prefecture_code":13},"0015":{"zip_code":"1940015","prefecture":"東京都","prefecture_kana":"トウキョウト","city":"町田市","city_kana":"マチダシ","town":"金森東","town_kana":"カナモリヒガシ","prefecture_code":13},"0201":{"zip_code":"1940201","prefecture":"東京都","prefecture_kana":"トウキョウト","city":"町田市","city_kana":"マチダシ","town":"上小山田町","town_kana":"カミオヤマダマチ","prefecture_code":13},"0037":{"zip_code":"1940037","prefecture":"東京都","prefecture_kana":"トウキョウト","city":"町田市","city_kana":"マチダシ","town":"木曽西","town_kana":"キソニシ","prefecture_code":13},"0036":{"zip_code":"1940036","prefecture":"東京都","prefecture_kana":"トウキョウト","city":"町田市","city_kana":"マチダシ","town":"木曽東","town_kana":"キソヒガシ","prefecture_code":13},"0033":{"zip_code":"1940033","prefecture":"東京都","prefecture_kana":"トウキョウト","city":"町田市","city_kana":"マチダシ","town":"木曽町","town_kana":"キソマチ","prefecture_code":13},"0014":{"zip_code":"1940014","prefecture":"東京都","prefecture_kana":"トウキョウト","city":"町田市","city_kana":"マチダシ","town":"高ヶ坂","town_kana":"コガサカ","prefecture_code":13},"0202":{"zip_code":"1940202","prefecture":"東京都","prefecture_kana":"トウキョウト","city":"町田市","city_kana":"マチダシ","town":"下小山田町","town_kana":"シモオヤマダマチ","prefecture_code":13},"0203":{"zip_code":"1940203","prefecture":"東京都","prefecture_kana":"トウキョウト","city":"町田市","city_kana":"マチダシ","town":"図師町","town_kana":"ズシマチ","prefecture_code":13},"0035":{"zip_code":"1940035","prefecture":"東京都","prefecture_kana":"トウキョウト","city":"町田市","city_kana":"マチダシ","town":"忠生","town_kana":"タダオ","prefecture_code":13},"0041":{"zip_code":"1940041","prefecture":"東京都","prefecture_kana":"トウキョウト","city":"町田市","city_kana":"マチダシ","town":"玉川学園","town_kana":"タマガワガクエン","prefecture_code":13},"0001":{"zip_code":"1940001","prefecture":"東京都","prefecture_kana":"トウキョウト","city":"町田市","city_kana":"マチダシ","town":"つくし野","town_kana":"ツクシノ","prefecture_code":13},"0004":{"zip_code":"1940004","prefecture":"東京都","prefecture_kana":"トウキョウト","city":"町田市","city_kana":"マチダシ","town":"鶴間","town_kana":"ツルマ","prefecture_code":13},"0213":{"zip_code":"1940213","prefecture":"東京都","prefecture_kana":"トウキョウト","city":"町田市","city_kana":"マチダシ","town":"常盤町","town_kana":"トキワマチ","prefecture_code":13},"0021":{"zip_code":"1940021","prefecture":"東京都","prefecture_kana":"トウキョウト","city":"町田市","city_kana":"マチダシ","town":"中町","town_kana":"ナカマチ","prefecture_code":13},"0044":{"zip_code":"1940044","prefecture":"東京都","prefecture_kana":"トウキョウト","city":"町田市","city_kana":"マチダシ","town":"成瀬","town_kana":"ナルセ","prefecture_code":13},"0011":{"zip_code":"1940011","prefecture":"東京都","prefecture_kana":"トウキョウト","city":"町田市","city_kana":"マチダシ","town":"成瀬が丘","town_kana":"ナルセガオカ","prefecture_code":13},"0043":{"zip_code":"1940043","prefecture":"東京都","prefecture_kana":"トウキョウト","city":"町田市","city_kana":"マチダシ","town":"成瀬台","town_kana":"ナルセダイ","prefecture_code":13},"0046":{"zip_code":"1940046","prefecture":"東京都","prefecture_kana":"トウキョウト","city":"町田市","city_kana":"マチダシ","town":"西成瀬","town_kana":"ニシナルセ","prefecture_code":13},"0038":{"zip_code":"1940038","prefecture":"東京都","prefecture_kana":"トウキョウト","city":"町田市","city_kana":"マチダシ","town":"根岸","town_kana":"ネギシ","prefecture_code":13},"0034":{"zip_code":"1940034","prefecture":"東京都","prefecture_kana":"トウキョウト","city":"町田市","city_kana":"マチダシ","town":"根岸町","town_kana":"ネギシマチ","prefecture_code":13},"0013":{"zip_code":"1940013","prefecture":"東京都","prefecture_kana":"トウキョウト","city":"町田市","city_kana":"マチダシ","town":"原町田","town_kana":"ハラマチダ","prefecture_code":13},"0042":{"zip_code":"1940042","prefecture":"東京都","prefecture_kana":"トウキョウト","city":"町田市","city_kana":"マチダシ","town":"東玉川学園","town_kana":"ヒガシタマガワガクエン","prefecture_code":13},"0032":{"zip_code":"1940032","prefecture":"東京都","prefecture_kana":"トウキョウト","city":"町田市","city_kana":"マチダシ","town":"本町田","town_kana":"ホンマチダ","prefecture_code":13},"0031":{"zip_code":"1940031","prefecture":"東京都","prefecture_kana":"トウキョウト","city":"町田市","city_kana":"マチダシ","town":"南大谷","town_kana":"ミナミオオヤ","prefecture_code":13},"0002":{"zip_code":"1940002","prefecture":"東京都","prefecture_kana":"トウキョウト","city":"町田市","city_kana":"マチダシ","town":"南つくし野","town_kana":"ミナミツクシノ","prefecture_code":13},"0045":{"zip_code":"1940045","prefecture":"東京都","prefecture_kana":"トウキョウト","city":"町田市","city_kana":"マチダシ","town":"南成瀬","town_kana":"ミナミナルセ","prefecture_code":13},"0022":{"zip_code":"1940022","prefecture":"東京都","prefecture_kana":"トウキョウト","city":"町田市","city_kana":"マチダシ","town":"森野","town_kana":"モリノ","prefecture_code":13},"0214":{"zip_code":"1940214","prefecture":"東京都","prefecture_kana":"トウキョウト","city":"町田市","city_kana":"マチダシ","town":"矢部町","town_kana":"ヤベマチ","prefecture_code":13}}