{"0062":{"zip_code":"1950062","prefecture":"東京都","prefecture_kana":"トウキョウト","city":"町田市","city_kana":"マチダシ","town":"大蔵町","town_kana":"オオクラマチ","prefecture_code":13},"0064":{"zip_code":"1950064","prefecture":"東京都","prefecture_kana":"トウキョウト","city":"町田市","city_kana":"マチダシ","town":"小野路町","town_kana":"オノジマチ","prefecture_code":13},"0072":{"zip_code":"1950072","prefecture":"東京都","prefecture_kana":"トウキョウト","city":"町田市","city_kana":"マチダシ","town":"金井","town_kana":"カナイ","prefecture_code":13},"0071":{"zip_code":"1950071","prefecture":"東京都","prefecture_kana":"トウキョウト","city":"町田市","city_kana":"マチダシ","town":"金井町","town_kana":"カナイマチ","prefecture_code":13},"0057":{"zip_code":"1950057","prefecture":"東京都","prefecture_kana":"トウキョウト","city":"町田市","city_kana":"マチダシ","town":"真光寺","town_kana":"シンコウジ","prefecture_code":13},"0051":{"zip_code":"1950051","prefecture":"東京都","prefecture_kana":"トウキョウト","city":"町田市","city_kana":"マチダシ","town":"真光寺町","town_kana":"シンコウジマチ","prefecture_code":13},"0061":{"zip_code":"1950061","prefecture":"東京都","prefecture_kana":"トウキョウト","city":"町田市","city_kana":"マチダシ","town":"鶴川","town_kana":"ツルカワ","prefecture_code":13},"0053":{"zip_code":"1950053","prefecture":"東京都","prefecture_kana":"トウキョウト","city":"町田市","city_kana":"マチダシ","town":"能ヶ谷","town_kana":"ノウガヤ","prefecture_code":13},"0063":{"zip_code":"1950063","prefecture":"東京都","prefecture_kana":"トウキョウト","city":"町田市","city_kana":"マチダシ","town":"野津田町","town_kana":"ノヅタマチ","prefecture_code":13},"0056":{"zip_code":"1950056","prefecture":"東京都","prefecture_kana":"トウキョウト","city":"町田市","city_kana":"マチダシ","town":"広袴","town_kana":"ヒロハカマ","prefecture_code":13},"0052":{"zip_code":"1950052","prefecture":"東京都","prefecture_kana":"トウキョウト","city":"町田市","city_kana":"マチダシ","town":"広袴町","town_kana":"ヒロバカママチ","prefecture_code":13},"0054":{"zip_code":"1950054","prefecture":"東京都","prefecture_kana":"トウキョウト","city":"町田市","city_kana":"マチダシ","town":"三輪町","town_kana":"ミワマチ","prefecture_code":13},"0055":{"zip_code":"1950055","prefecture":"東京都","prefecture_kana":"トウキョウト","city":"町田市","city_kana":"マチダシ","town":"三輪緑山","town_kana":"ミワミドリヤマ","prefecture_code":13},"0073":{"zip_code":"1950073","prefecture":"東京都","prefecture_kana":"トウキョウト","city":"町田市","city_kana":"マチダシ","town":"薬師台","town_kana":"ヤクシダイ","prefecture_code":13},"0075":{"zip_code":"1950075","prefecture":"東京都","prefecture_kana":"トウキョウト","city":"町田市","city_kana":"マチダシ","town":"山崎","town_kana":"ヤマザキ","prefecture_code":13},"0074":{"zip_code":"1950074","prefecture":"東京都","prefecture_kana":"トウキョウト","city":"町田市","city_kana":"マチダシ","town":"山崎町","town_kana":"ヤマザキマチ","prefecture_code":13}}