{"0000":{"zip_code":"1960000","prefecture":"東京都","prefecture_kana":"トウキョウト","city":"昭島市","city_kana":"アキシマシ","town":"","town_kana":"","prefecture_code":13},"0025":{"zip_code":"1960025","prefecture":"東京都","prefecture_kana":"トウキョウト","city":"昭島市","city_kana":"アキシマシ","town":"朝日町","town_kana":"アサヒチョウ","prefecture_code":13},"0033":{"zip_code":"1960033","prefecture":"東京都","prefecture_kana":"トウキョウト","city":"昭島市","city_kana":"アキシマシ","town":"東町","town_kana":"アズマチョウ","prefecture_code":13},"0013":{"zip_code":"1960013","prefecture":"東京都","prefecture_kana":"トウキョウト","city":"昭島市","city_kana":"アキシマシ","town":"大神町","town_kana":"オオガミチョウ","prefecture_code":13},"0032":{"zip_code":"1960032","prefecture":"東京都","prefecture_kana":"トウキョウト","city":"昭島市","city_kana":"アキシマシ","town":"郷地町","town_kana":"ゴウチチョウ","prefecture_code":13},"0011":{"zip_code":"1960011","prefecture":"東京都","prefecture_kana":"トウキョウト","city":"昭島市","city_kana":"アキシマシ","town":"上川原町","town_kana":"ジョウガワラチョウ","prefecture_code":13},"0015":{"zip_code":"1960015","prefecture":"東京都","prefecture_kana":"トウキョウト","city":"昭島市","city_kana":"アキシマシ","town":"昭和町","town_kana":"ショウワチョウ","prefecture_code":13},"0014":{"zip_code":"1960014","prefecture":"東京都","prefecture_kana":"トウキョウト","city":"昭島市","city_kana":"アキシマシ","town":"田中町","town_kana":"タナカチョウ","prefecture_code":13},"0034":{"zip_code":"1960034","prefecture":"東京都","prefecture_kana":"トウキョウト","city":"昭島市","city_kana":"アキシマシ","town":"玉川町","town_kana":"タマガワチョウ","prefecture_code":13},"0023":{"zip_code":"1960023","prefecture":"東京都","prefecture_kana":"トウキョウト","city":"昭島市","city_kana":"アキシマシ","town":"築地町","town_kana":"ツイジチョウ","prefecture_code":13},"0012":{"zip_code":"1960012","prefecture":"東京都","prefecture_kana":"トウキョウト","city":"昭島市","city_kana":"アキシマシ","town":"つつじが丘","town_kana":"ツツジガオカ","prefecture_code":13},"0022":{"zip_code":"1960022","prefecture":"東京都","prefecture_kana":"トウキョウト","city":"昭島市","city_kana":"アキシマシ","town":"中神町","town_kana":"ナカガミチョウ","prefecture_code":13},"0002":{"zip_code":"1960002","prefecture":"東京都","prefecture_kana":"トウキョウト","city":"昭島市","city_kana":"アキシマシ","town":"拝島町","town_kana":"ハイジマチョウ","prefecture_code":13},"0031":{"zip_code":"1960031","prefecture":"東京都","prefecture_kana":"トウキョウト","city":"昭島市","city_kana":"アキシマシ","town":"福島町","town_kana":"フクジマチョウ","prefecture_code":13},"0003":{"zip_code":"1960003","prefecture":"東京都","prefecture_kana":"トウキョウト","city":"昭島市","city_kana":"アキシマシ","town":"松原町","town_kana":"マツバラチョウ","prefecture_code":13},"0004":{"zip_code":"1960004","prefecture":"東京都","prefecture_kana":"トウキョウト","city":"昭島市","city_kana":"アキシマシ","town":"緑町","town_kana":"ミドリチョウ","prefecture_code":13},"0001":{"zip_code":"1960001","prefecture":"東京都","prefecture_kana":"トウキョウト","city":"昭島市","city_kana":"アキシマシ","town":"美堀町","town_kana":"ミホリチョウ","prefecture_code":13},"0024":{"zip_code":"1960024","prefecture":"東京都","prefecture_kana":"トウキョウト","city":"昭島市","city_kana":"アキシマシ","town":"宮沢町","town_kana":"ミヤザワチョウ","prefecture_code":13},"0021":{"zip_code":"1960021","prefecture":"東京都","prefecture_kana":"トウキョウト","city":"昭島市","city_kana":"アキシマシ","town":"武蔵野","town_kana":"ムサシノ","prefecture_code":13}}