{"0000":{"zip_code":"1970000","prefecture":"東京都","prefecture_kana":"トウキョウト","city":"福生市","city_kana":"フッサシ","town":"以下に掲載がない場合","town_kana":"イカニケイサイガナイバアイ","prefecture_code":13},"0024":{"zip_code":"1970024","prefecture":"東京都","prefecture_kana":"トウキョウト","city":"福生市","city_kana":"フッサシ","town":"牛浜","town_kana":"ウシハマ","prefecture_code":13},"0012":{"zip_code":"1970012","prefecture":"東京都","prefecture_kana":"トウキョウト","city":"福生市","city_kana":"フッサシ","town":"加美平","town_kana":"カミダイラ","prefecture_code":13},"0005":{"zip_code":"1970005","prefecture":"東京都","prefecture_kana":"トウキョウト","city":"福生市","city_kana":"フッサシ","town":"北田園","town_kana":"キタデンエン","prefecture_code":13},"0003":{"zip_code":"1970003","prefecture":"東京都","prefecture_kana":"トウキョウト","city":"福生市","city_kana":"フッサシ","town":"熊川","town_kana":"クマガワ","prefecture_code":13},"0002":{"zip_code":"1970002","prefecture":"東京都","prefecture_kana":"トウキョウト","city":"福生市","city_kana":"フッサシ","town":"熊川二宮","town_kana":"クマガワニノミヤ","prefecture_code":13},"0023":{"zip_code":"1970023","prefecture":"東京都","prefecture_kana":"トウキョウト","city":"福生市","city_kana":"フッサシ","town":"志茂","town_kana":"シモ","prefecture_code":13},"0021":{"zip_code":"1970021","prefecture":"東京都","prefecture_kana":"トウキョウト","city":"福生市","city_kana":"フッサシ","town":"東町","town_kana":"ヒガシチョウ","prefecture_code":13},"0011":{"zip_code":"1970011","prefecture":"東京都","prefecture_kana":"トウキョウト","city":"福生市","city_kana":"フッサシ","town":"福生","town_kana":"フッサ","prefecture_code":13},"0014":{"zip_code":"1970014","prefecture":"東京都","prefecture_kana":"トウキョウト","city":"福生市","city_kana":"フッサシ","town":"福生二宮","town_kana":"フッサニノミヤ","prefecture_code":13},"0022":{"zip_code":"1970022","prefecture":"東京都","prefecture_kana":"トウキョウト","city":"福生市","city_kana":"フッサシ","town":"本町","town_kana":"ホンチョウ","prefecture_code":13},"0004":{"zip_code":"1970004","prefecture":"東京都","prefecture_kana":"トウキョウト","city":"福生市","city_kana":"フッサシ","town":"南田園","town_kana":"ミナミデンエン","prefecture_code":13},"0013":{"zip_code":"1970013","prefecture":"東京都","prefecture_kana":"トウキョウト","city":"福生市","city_kana":"フッサシ","town":"武蔵野台","town_kana":"ムサシノダイ","prefecture_code":13},"0001":{"zip_code":"1970001","prefecture":"東京都","prefecture_kana":"トウキョウト","city":"福生市","city_kana":"フッサシ","town":"横田基地内","town_kana":"ヨコタキチナイ","prefecture_code":13},"0804":{"zip_code":"1970804","prefecture":"東京都","prefecture_kana":"トウキョウト","city":"あきる野市","city_kana":"アキルノシ","town":"秋川","town_kana":"アキガワ","prefecture_code":13},"0828":{"zip_code":"1970828","prefecture":"東京都","prefecture_kana":"トウキョウト","city":"あきる野市","city_kana":"アキルノシ","town":"秋留","town_kana":"アキル","prefecture_code":13},"0827":{"zip_code":"1970827","prefecture":"東京都","prefecture_kana":"トウキョウト","city":"あきる野市","city_kana":"アキルノシ","town":"油平","town_kana":"アブラダイ","prefecture_code":13},"0825":{"zip_code":"1970825","prefecture":"東京都","prefecture_kana":"トウキョウト","city":"あきる野市","city_kana":"アキルノシ","town":"雨間","town_kana":"アメマ","prefecture_code":13},"0826":{"zip_code":"1970826","prefecture":"東京都","prefecture_kana":"トウキョウト","city":"あきる野市","city_kana":"アキルノシ","town":"牛沼","town_kana":"ウシヌマ","prefecture_code":13},"0821":{"zip_code":"1970821","prefecture":"東京都","prefecture_kana":"トウキョウト","city":"あきる野市","city_kana":"アキルノシ","town":"小川","town_kana":"オガワ","prefecture_code":13},"0822":{"zip_code":"1970822","prefecture":"東京都","prefecture_kana":"トウキョウト","city":"あきる野市","city_kana":"アキルノシ","town":"小川東","town_kana":"オガワヒガシ","prefecture_code":13},"0832":{"zip_code":"1970832","prefecture":"東京都","prefecture_kana":"トウキョウト","city":"あきる野市","city_kana":"アキルノシ","town":"上代継","town_kana":"カミヨツギ","prefecture_code":13},"0824":{"zip_code":"1970824","prefecture":"東京都","prefecture_kana":"トウキョウト","city":"あきる野市","city_kana":"アキルノシ","town":"切欠","town_kana":"キッカケ","prefecture_code":13},"0802":{"zip_code":"1970802","prefecture":"東京都","prefecture_kana":"トウキョウト","city":"あきる野市","city_kana":"アキルノシ","town":"草花","town_kana":"クサバナ","prefecture_code":13},"0831":{"zip_code":"1970831","prefecture":"東京都","prefecture_kana":"トウキョウト","city":"あきる野市","city_kana":"アキルノシ","town":"下代継","town_kana":"シモヨツギ","prefecture_code":13},"0801":{"zip_code":"1970801","prefecture":"東京都","prefecture_kana":"トウキョウト","city":"あきる野市","city_kana":"アキルノシ","town":"菅生","town_kana":"スガオ","prefecture_code":13},"0803":{"zip_code":"1970803","prefecture":"東京都","prefecture_kana":"トウキョウト","city":"あきる野市","city_kana":"アキルノシ","town":"瀬戸岡","town_kana":"セドオカ","prefecture_code":13},"0814":{"zip_code":"1970814","prefecture":"東京都","prefecture_kana":"トウキョウト","city":"あきる野市","city_kana":"アキルノシ","town":"二宮","town_kana":"ニノミヤ","prefecture_code":13},"0815":{"zip_code":"1970815","prefecture":"東京都","prefecture_kana":"トウキョウト","city":"あきる野市","city_kana":"アキルノシ","town":"二宮東","town_kana":"ニノミヤヒガシ","prefecture_code":13},"0823":{"zip_code":"1970823","prefecture":"東京都","prefecture_kana":"トウキョウト","city":"あきる野市","city_kana":"アキルノシ","town":"野辺","town_kana":"ノベ","prefecture_code":13},"0811":{"zip_code":"1970811","prefecture":"東京都","prefecture_kana":"トウキョウト","city":"あきる野市","city_kana":"アキルノシ","town":"原小宮","town_kana":"ハラコミヤ","prefecture_code":13},"0834":{"zip_code":"1970834","prefecture":"東京都","prefecture_kana":"トウキョウト","city":"あきる野市","city_kana":"アキルノシ","town":"引田","town_kana":"ヒキダ","prefecture_code":13},"0812":{"zip_code":"1970812","prefecture":"東京都","prefecture_kana":"トウキョウト","city":"あきる野市","city_kana":"アキルノシ","town":"平沢","town_kana":"ヒラサワ","prefecture_code":13},"0816":{"zip_code":"1970816","prefecture":"東京都","prefecture_kana":"トウキョウト","city":"あきる野市","city_kana":"アキルノシ","town":"平沢西","town_kana":"ヒラサワニシ","prefecture_code":13},"0813":{"zip_code":"1970813","prefecture":"東京都","prefecture_kana":"トウキョウト","city":"あきる野市","city_kana":"アキルノシ","town":"平沢東","town_kana":"ヒラサワヒガシ","prefecture_code":13},"0833":{"zip_code":"1970833","prefecture":"東京都","prefecture_kana":"トウキョウト","city":"あきる野市","city_kana":"アキルノシ","town":"渕上","town_kana":"フチガミ","prefecture_code":13}}