{"0000":{"zip_code":"1980000","prefecture":"東京都","prefecture_kana":"トウキョウト","city":"西多摩郡奥多摩町","city_kana":"ニシタマグンオクタママチ","town":"","town_kana":"","prefecture_code":13},"0087":{"zip_code":"1980087","prefecture":"東京都","prefecture_kana":"トウキョウト","city":"青梅市","city_kana":"オウメシ","town":"天ケ瀬町","town_kana":"アマガセチョウ","prefecture_code":13},"0023":{"zip_code":"1980023","prefecture":"東京都","prefecture_kana":"トウキョウト","city":"青梅市","city_kana":"オウメシ","town":"今井","town_kana":"イマイ","prefecture_code":13},"0021":{"zip_code":"1980021","prefecture":"東京都","prefecture_kana":"トウキョウト","city":"青梅市","city_kana":"オウメシ","town":"今寺","town_kana":"イマデラ","prefecture_code":13},"0088":{"zip_code":"1980088","prefecture":"東京都","prefecture_kana":"トウキョウト","city":"青梅市","city_kana":"オウメシ","town":"裏宿町","town_kana":"ウラジュクチョウ","prefecture_code":13},"0086":{"zip_code":"1980086","prefecture":"東京都","prefecture_kana":"トウキョウト","city":"青梅市","city_kana":"オウメシ","town":"大柳町","town_kana":"オオヤナチョウ","prefecture_code":13},"0003":{"zip_code":"1980003","prefecture":"東京都","prefecture_kana":"トウキョウト","city":"青梅市","city_kana":"オウメシ","town":"小曾木","town_kana":"オソキ","prefecture_code":13},"0041":{"zip_code":"1980041","prefecture":"東京都","prefecture_kana":"トウキョウト","city":"青梅市","city_kana":"オウメシ","town":"勝沼","town_kana":"カツヌマ","prefecture_code":13},"0036":{"zip_code":"1980036","prefecture":"東京都","prefecture_kana":"トウキョウト","city":"青梅市","city_kana":"オウメシ","town":"河辺町","town_kana":"カベマチ","prefecture_code":13},"0081":{"zip_code":"1980081","prefecture":"東京都","prefecture_kana":"トウキョウト","city":"青梅市","city_kana":"オウメシ","town":"上町","town_kana":"カミチョウ","prefecture_code":13},"0013":{"zip_code":"1980013","prefecture":"東京都","prefecture_kana":"トウキョウト","city":"青梅市","city_kana":"オウメシ","town":"木野下","town_kana":"キノシタ","prefecture_code":13},"0005":{"zip_code":"1980005","prefecture":"東京都","prefecture_kana":"トウキョウト","city":"青梅市","city_kana":"オウメシ","town":"黒沢","town_kana":"クロサワ","prefecture_code":13},"0053":{"zip_code":"1980053","prefecture":"東京都","prefecture_kana":"トウキョウト","city":"青梅市","city_kana":"オウメシ","town":"駒木町","town_kana":"コマキチョウ","prefecture_code":13},"0172":{"zip_code":"1980172","prefecture":"東京都","prefecture_kana":"トウキョウト","city":"青梅市","city_kana":"オウメシ","town":"沢井","town_kana":"サワイ","prefecture_code":13},"0011":{"zip_code":"1980011","prefecture":"東京都","prefecture_kana":"トウキョウト","city":"青梅市","city_kana":"オウメシ","town":"塩船","town_kana":"シオブネ","prefecture_code":13},"0024":{"zip_code":"1980024","prefecture":"東京都","prefecture_kana":"トウキョウト","city":"青梅市","city_kana":"オウメシ","town":"新町","town_kana":"シンマチ","prefecture_code":13},"0025":{"zip_code":"1980025","prefecture":"東京都","prefecture_kana":"トウキョウト","city":"青梅市","city_kana":"オウメシ","town":"末広町","town_kana":"スエヒロチョウ","prefecture_code":13},"0084":{"zip_code":"1980084","prefecture":"東京都","prefecture_kana":"トウキョウト","city":"青梅市","city_kana":"オウメシ","town":"住江町","town_kana":"スミエチョウ","prefecture_code":13},"0014":{"zip_code":"1980014","prefecture":"東京都","prefecture_kana":"トウキョウト","city":"青梅市","city_kana":"オウメシ","town":"大門","town_kana":"ダイモン","prefecture_code":13},"0085":{"zip_code":"1980085","prefecture":"東京都","prefecture_kana":"トウキョウト","city":"青梅市","city_kana":"オウメシ","town":"滝ノ上町","town_kana":"タキノウエチョウ","prefecture_code":13},"0043":{"zip_code":"1980043","prefecture":"東京都","prefecture_kana":"トウキョウト","city":"青梅市","city_kana":"オウメシ","town":"千ケ瀬町","town_kana":"チガセマチ","prefecture_code":13},"0002":{"zip_code":"1980002","prefecture":"東京都","prefecture_kana":"トウキョウト","city":"青梅市","city_kana":"オウメシ","town":"富岡","town_kana":"トミオカ","prefecture_code":13},"0051":{"zip_code":"1980051","prefecture":"東京都","prefecture_kana":"トウキョウト","city":"青梅市","city_kana":"オウメシ","town":"友田町","town_kana":"トモダマチ","prefecture_code":13},"0082":{"zip_code":"1980082","prefecture":"東京都","prefecture_kana":"トウキョウト","city":"青梅市","city_kana":"オウメシ","town":"仲町","town_kana":"ナカチョウ","prefecture_code":13},"0052":{"zip_code":"1980052","prefecture":"東京都","prefecture_kana":"トウキョウト","city":"青梅市","city_kana":"オウメシ","town":"長淵","town_kana":"ナガブチ","prefecture_code":13},"0001":{"zip_code":"1980001","prefecture":"東京都","prefecture_kana":"トウキョウト","city":"青梅市","city_kana":"オウメシ","town":"成木","town_kana":"ナリキ","prefecture_code":13},"0044":{"zip_code":"1980044","prefecture":"東京都","prefecture_kana":"トウキョウト","city":"青梅市","city_kana":"オウメシ","town":"西分町","town_kana":"ニシワケチョウ","prefecture_code":13},"0004":{"zip_code":"1980004","prefecture":"東京都","prefecture_kana":"トウキョウト","city":"青梅市","city_kana":"オウメシ","town":"根ケ布","town_kana":"ネカブ","prefecture_code":13},"0032":{"zip_code":"1980032","prefecture":"東京都","prefecture_kana":"トウキョウト","city":"青梅市","city_kana":"オウメシ","town":"野上町","town_kana":"ノガミチョウ","prefecture_code":13},"0063":{"zip_code":"1980063","prefecture":"東京都","prefecture_kana":"トウキョウト","city":"青梅市","city_kana":"オウメシ","town":"梅郷","town_kana":"バイゴウ","prefecture_code":13},"0061":{"zip_code":"1980061","prefecture":"東京都","prefecture_kana":"トウキョウト","city":"青梅市","city_kana":"オウメシ","town":"畑中","town_kana":"ハタナカ","prefecture_code":13},"0042":{"zip_code":"1980042","prefecture":"東京都","prefecture_kana":"トウキョウト","city":"青梅市","city_kana":"オウメシ","town":"東青梅","town_kana":"ヒガシオウメ","prefecture_code":13},"0046":{"zip_code":"1980046","prefecture":"東京都","prefecture_kana":"トウキョウト","city":"青梅市","city_kana":"オウメシ","town":"日向和田","town_kana":"ヒナタワダ","prefecture_code":13},"0015":{"zip_code":"1980015","prefecture":"東京都","prefecture_kana":"トウキョウト","city":"青梅市","city_kana":"オウメシ","town":"吹上","town_kana":"フキアゲ","prefecture_code":13},"0022":{"zip_code":"1980022","prefecture":"東京都","prefecture_kana":"トウキョウト","city":"青梅市","city_kana":"オウメシ","town":"藤橋","town_kana":"フジハシ","prefecture_code":13},"0171":{"zip_code":"1980171","prefecture":"東京都","prefecture_kana":"トウキョウト","city":"青梅市","city_kana":"オウメシ","town":"二俣尾","town_kana":"フタマタオ","prefecture_code":13},"0083":{"zip_code":"1980083","prefecture":"東京都","prefecture_kana":"トウキョウト","city":"青梅市","city_kana":"オウメシ","town":"本町","town_kana":"ホンチョウ","prefecture_code":13},"0174":{"zip_code":"1980174","prefecture":"東京都","prefecture_kana":"トウキョウト","city":"青梅市","city_kana":"オウメシ","town":"御岳","town_kana":"ミタケ","prefecture_code":13},"0175":{"zip_code":"1980175","prefecture":"東京都","prefecture_kana":"トウキョウト","city":"青梅市","city_kana":"オウメシ","town":"御岳山","town_kana":"ミタケサン","prefecture_code":13},"0173":{"zip_code":"1980173","prefecture":"東京都","prefecture_kana":"トウキョウト","city":"青梅市","city_kana":"オウメシ","town":"御岳本町","town_kana":"ミタケホンチョウ","prefecture_code":13},"0089":{"zip_code":"1980089","prefecture":"東京都","prefecture_kana":"トウキョウト","city":"青梅市","city_kana":"オウメシ","town":"森下町","town_kana":"モリシタチョウ","prefecture_code":13},"0031":{"zip_code":"1980031","prefecture":"東京都","prefecture_kana":"トウキョウト","city":"青梅市","city_kana":"オウメシ","town":"師岡町","town_kana":"モロオカチョウ","prefecture_code":13},"0012":{"zip_code":"1980012","prefecture":"東京都","prefecture_kana":"トウキョウト","city":"青梅市","city_kana":"オウメシ","town":"谷野","town_kana":"ヤノ","prefecture_code":13},"0064":{"zip_code":"1980064","prefecture":"東京都","prefecture_kana":"トウキョウト","city":"青梅市","city_kana":"オウメシ","town":"柚木町","town_kana":"ユギマチ","prefecture_code":13},"0062":{"zip_code":"1980062","prefecture":"東京都","prefecture_kana":"トウキョウト","city":"青梅市","city_kana":"オウメシ","town":"和田町","town_kana":"ワダマチ","prefecture_code":13},"0213":{"zip_code":"1980213","prefecture":"東京都","prefecture_kana":"トウキョウト","city":"西多摩郡奥多摩町","city_kana":"ニシタマグンオクタママチ","town":"海沢","town_kana":"ウナザワ","prefecture_code":13},"0103":{"zip_code":"1980103","prefecture":"東京都","prefecture_kana":"トウキョウト","city":"西多摩郡奥多摩町","city_kana":"ニシタマグンオクタママチ","town":"梅沢","town_kana":"ウメザワ","prefecture_code":13},"0101":{"zip_code":"1980101","prefecture":"東京都","prefecture_kana":"トウキョウト","city":"西多摩郡奥多摩町","city_kana":"ニシタマグンオクタママチ","town":"大丹波","town_kana":"オオタバ","prefecture_code":13},"0102":{"zip_code":"1980102","prefecture":"東京都","prefecture_kana":"トウキョウト","city":"西多摩郡奥多摩町","city_kana":"ニシタマグンオクタママチ","town":"川井","town_kana":"カワイ","prefecture_code":13},"0225":{"zip_code":"1980225","prefecture":"東京都","prefecture_kana":"トウキョウト","city":"西多摩郡奥多摩町","city_kana":"ニシタマグンオクタママチ","town":"川野","town_kana":"カワノ","prefecture_code":13},"0224":{"zip_code":"1980224","prefecture":"東京都","prefecture_kana":"トウキョウト","city":"西多摩郡奥多摩町","city_kana":"ニシタマグンオクタママチ","town":"河内","town_kana":"コウチ","prefecture_code":13},"0105":{"zip_code":"1980105","prefecture":"東京都","prefecture_kana":"トウキョウト","city":"西多摩郡奥多摩町","city_kana":"ニシタマグンオクタママチ","town":"小丹波","town_kana":"コタバ","prefecture_code":13},"0222":{"zip_code":"1980222","prefecture":"東京都","prefecture_kana":"トウキョウト","city":"西多摩郡奥多摩町","city_kana":"ニシタマグンオクタママチ","town":"境","town_kana":"サカイ","prefecture_code":13},"0107":{"zip_code":"1980107","prefecture":"東京都","prefecture_kana":"トウキョウト","city":"西多摩郡奥多摩町","city_kana":"ニシタマグンオクタママチ","town":"白丸","town_kana":"シロマル","prefecture_code":13},"0106":{"zip_code":"1980106","prefecture":"東京都","prefecture_kana":"トウキョウト","city":"西多摩郡奥多摩町","city_kana":"ニシタマグンオクタママチ","town":"棚沢","town_kana":"タナザワ","prefecture_code":13},"0104":{"zip_code":"1980104","prefecture":"東京都","prefecture_kana":"トウキョウト","city":"西多摩郡奥多摩町","city_kana":"ニシタマグンオクタママチ","town":"丹三郎","town_kana":"タンザブロウ","prefecture_code":13},"0221":{"zip_code":"1980221","prefecture":"東京都","prefecture_kana":"トウキョウト","city":"西多摩郡奥多摩町","city_kana":"ニシタマグンオクタママチ","town":"留浦","town_kana":"トズラ","prefecture_code":13},"0211":{"zip_code":"1980211","prefecture":"東京都","prefecture_kana":"トウキョウト","city":"西多摩郡奥多摩町","city_kana":"ニシタマグンオクタママチ","town":"日原","town_kana":"ニッパラ","prefecture_code":13},"0223":{"zip_code":"1980223","prefecture":"東京都","prefecture_kana":"トウキョウト","city":"西多摩郡奥多摩町","city_kana":"ニシタマグンオクタママチ","town":"原","town_kana":"ハラ","prefecture_code":13},"0212":{"zip_code":"1980212","prefecture":"東京都","prefecture_kana":"トウキョウト","city":"西多摩郡奥多摩町","city_kana":"ニシタマグンオクタママチ","town":"氷川","town_kana":"ヒカワ","prefecture_code":13}}