{"0000":{"zip_code":"2020000","prefecture":"東京都","prefecture_kana":"トウキョウト","city":"西東京市","city_kana":"ニシトウキョウシ","town":"","town_kana":"","prefecture_code":13},"0011":{"zip_code":"2020011","prefecture":"東京都","prefecture_kana":"トウキョウト","city":"西東京市","city_kana":"ニシトウキョウシ","town":"泉町","town_kana":"イズミチョウ","prefecture_code":13},"0003":{"zip_code":"2020003","prefecture":"東京都","prefecture_kana":"トウキョウト","city":"西東京市","city_kana":"ニシトウキョウシ","town":"北町","town_kana":"キタマチ","prefecture_code":13},"0006":{"zip_code":"2020006","prefecture":"東京都","prefecture_kana":"トウキョウト","city":"西東京市","city_kana":"ニシトウキョウシ","town":"栄町","town_kana":"サカエチョウ","prefecture_code":13},"0004":{"zip_code":"2020004","prefecture":"東京都","prefecture_kana":"トウキョウト","city":"西東京市","city_kana":"ニシトウキョウシ","town":"下保谷","town_kana":"シモホウヤ","prefecture_code":13},"0023":{"zip_code":"2020023","prefecture":"東京都","prefecture_kana":"トウキョウト","city":"西東京市","city_kana":"ニシトウキョウシ","town":"新町","town_kana":"シンマチ","prefecture_code":13},"0005":{"zip_code":"2020005","prefecture":"東京都","prefecture_kana":"トウキョウト","city":"西東京市","city_kana":"ニシトウキョウシ","town":"住吉町","town_kana":"スミヨシチョウ","prefecture_code":13},"0013":{"zip_code":"2020013","prefecture":"東京都","prefecture_kana":"トウキョウト","city":"西東京市","city_kana":"ニシトウキョウシ","town":"中町","town_kana":"ナカマチ","prefecture_code":13},"0012":{"zip_code":"2020012","prefecture":"東京都","prefecture_kana":"トウキョウト","city":"西東京市","city_kana":"ニシトウキョウシ","town":"東町","town_kana":"ヒガシチョウ","prefecture_code":13},"0021":{"zip_code":"2020021","prefecture":"東京都","prefecture_kana":"トウキョウト","city":"西東京市","city_kana":"ニシトウキョウシ","town":"東伏見","town_kana":"ヒガシフシミ","prefecture_code":13},"0001":{"zip_code":"2020001","prefecture":"東京都","prefecture_kana":"トウキョウト","city":"西東京市","city_kana":"ニシトウキョウシ","town":"ひばりが丘","town_kana":"ヒバリガオカ","prefecture_code":13},"0002":{"zip_code":"2020002","prefecture":"東京都","prefecture_kana":"トウキョウト","city":"西東京市","city_kana":"ニシトウキョウシ","town":"ひばりが丘北","town_kana":"ヒバリガオカキタ","prefecture_code":13},"0014":{"zip_code":"2020014","prefecture":"東京都","prefecture_kana":"トウキョウト","city":"西東京市","city_kana":"ニシトウキョウシ","town":"富士町","town_kana":"フジマチ","prefecture_code":13},"0015":{"zip_code":"2020015","prefecture":"東京都","prefecture_kana":"トウキョウト","city":"西東京市","city_kana":"ニシトウキョウシ","town":"保谷町","town_kana":"ホウヤチョウ","prefecture_code":13},"0022":{"zip_code":"2020022","prefecture":"東京都","prefecture_kana":"トウキョウト","city":"西東京市","city_kana":"ニシトウキョウシ","town":"柳沢","town_kana":"ヤギサワ","prefecture_code":13}}