{"0000":{"zip_code":"2030000","prefecture":"東京都","prefecture_kana":"トウキョウト","city":"東久留米市","city_kana":"ヒガシクルメシ","town":"","town_kana":"","prefecture_code":13},"0001":{"zip_code":"2030001","prefecture":"東京都","prefecture_kana":"トウキョウト","city":"東久留米市","city_kana":"ヒガシクルメシ","town":"上の原","town_kana":"ウエノハラ","prefecture_code":13},"0021":{"zip_code":"2030021","prefecture":"東京都","prefecture_kana":"トウキョウト","city":"東久留米市","city_kana":"ヒガシクルメシ","town":"学園町","town_kana":"ガクエンチョウ","prefecture_code":13},"0003":{"zip_code":"2030003","prefecture":"東京都","prefecture_kana":"トウキョウト","city":"東久留米市","city_kana":"ヒガシクルメシ","town":"金山町","town_kana":"カナヤマチョウ","prefecture_code":13},"0051":{"zip_code":"2030051","prefecture":"東京都","prefecture_kana":"トウキョウト","city":"東久留米市","city_kana":"ヒガシクルメシ","town":"小山","town_kana":"コヤマ","prefecture_code":13},"0052":{"zip_code":"2030052","prefecture":"東京都","prefecture_kana":"トウキョウト","city":"東久留米市","city_kana":"ヒガシクルメシ","town":"幸町","town_kana":"サイワイチョウ","prefecture_code":13},"0043":{"zip_code":"2030043","prefecture":"東京都","prefecture_kana":"トウキョウト","city":"東久留米市","city_kana":"ヒガシクルメシ","town":"下里","town_kana":"シモサト","prefecture_code":13},"0013":{"zip_code":"2030013","prefecture":"東京都","prefecture_kana":"トウキョウト","city":"東久留米市","city_kana":"ヒガシクルメシ","town":"新川町","town_kana":"シンカワチョウ","prefecture_code":13},"0002":{"zip_code":"2030002","prefecture":"東京都","prefecture_kana":"トウキョウト","city":"東久留米市","city_kana":"ヒガシクルメシ","town":"神宝町","town_kana":"シンホウチョウ","prefecture_code":13},"0012":{"zip_code":"2030012","prefecture":"東京都","prefecture_kana":"トウキョウト","city":"東久留米市","city_kana":"ヒガシクルメシ","town":"浅間町","town_kana":"センゲンチョウ","prefecture_code":13},"0011":{"zip_code":"2030011","prefecture":"東京都","prefecture_kana":"トウキョウト","city":"東久留米市","city_kana":"ヒガシクルメシ","town":"大門町","town_kana":"ダイモンチョウ","prefecture_code":13},"0033":{"zip_code":"2030033","prefecture":"東京都","prefecture_kana":"トウキョウト","city":"東久留米市","city_kana":"ヒガシクルメシ","town":"滝山","town_kana":"タキヤマ","prefecture_code":13},"0054":{"zip_code":"2030054","prefecture":"東京都","prefecture_kana":"トウキョウト","city":"東久留米市","city_kana":"ヒガシクルメシ","town":"中央町","town_kana":"チュウオウチョウ","prefecture_code":13},"0041":{"zip_code":"2030041","prefecture":"東京都","prefecture_kana":"トウキョウト","city":"東久留米市","city_kana":"ヒガシクルメシ","town":"野火止","town_kana":"ノビドメ","prefecture_code":13},"0042":{"zip_code":"2030042","prefecture":"東京都","prefecture_kana":"トウキョウト","city":"東久留米市","city_kana":"ヒガシクルメシ","town":"八幡町","town_kana":"ハチマンチョウ","prefecture_code":13},"0004":{"zip_code":"2030004","prefecture":"東京都","prefecture_kana":"トウキョウト","city":"東久留米市","city_kana":"ヒガシクルメシ","town":"氷川台","town_kana":"ヒカワダイ","prefecture_code":13},"0014":{"zip_code":"2030014","prefecture":"東京都","prefecture_kana":"トウキョウト","city":"東久留米市","city_kana":"ヒガシクルメシ","town":"東本町","town_kana":"ヒガシホンチョウ","prefecture_code":13},"0022":{"zip_code":"2030022","prefecture":"東京都","prefecture_kana":"トウキョウト","city":"東久留米市","city_kana":"ヒガシクルメシ","town":"ひばりが丘団地","town_kana":"ヒバリガオカダンチ","prefecture_code":13},"0053":{"zip_code":"2030053","prefecture":"東京都","prefecture_kana":"トウキョウト","city":"東久留米市","city_kana":"ヒガシクルメシ","town":"本町","town_kana":"ホンチョウ","prefecture_code":13},"0032":{"zip_code":"2030032","prefecture":"東京都","prefecture_kana":"トウキョウト","city":"東久留米市","city_kana":"ヒガシクルメシ","town":"前沢","town_kana":"マエサワ","prefecture_code":13},"0023":{"zip_code":"2030023","prefecture":"東京都","prefecture_kana":"トウキョウト","city":"東久留米市","city_kana":"ヒガシクルメシ","town":"南沢","town_kana":"ミナミサワ","prefecture_code":13},"0031":{"zip_code":"2030031","prefecture":"東京都","prefecture_kana":"トウキョウト","city":"東久留米市","city_kana":"ヒガシクルメシ","town":"南町","town_kana":"ミナミチョウ","prefecture_code":13},"0044":{"zip_code":"2030044","prefecture":"東京都","prefecture_kana":"トウキョウト","city":"東久留米市","city_kana":"ヒガシクルメシ","town":"柳窪","town_kana":"ヤナギクボ","prefecture_code":13},"0034":{"zip_code":"2030034","prefecture":"東京都","prefecture_kana":"トウキョウト","city":"東久留米市","city_kana":"ヒガシクルメシ","town":"弥生","town_kana":"ヤヨイ","prefecture_code":13}}