{"0000":{"zip_code":"2050000","prefecture":"東京都","prefecture_kana":"トウキョウト","city":"羽村市","city_kana":"ハムラシ","town":"","town_kana":"","prefecture_code":13},"0001":{"zip_code":"2050001","prefecture":"東京都","prefecture_kana":"トウキョウト","city":"羽村市","city_kana":"ハムラシ","town":"小作台","town_kana":"オザクダイ","prefecture_code":13},"0021":{"zip_code":"2050021","prefecture":"東京都","prefecture_kana":"トウキョウト","city":"羽村市","city_kana":"ハムラシ","town":"川崎","town_kana":"カワサキ","prefecture_code":13},"0011":{"zip_code":"2050011","prefecture":"東京都","prefecture_kana":"トウキョウト","city":"羽村市","city_kana":"ハムラシ","town":"五ノ神","town_kana":"ゴノカミ","prefecture_code":13},"0002":{"zip_code":"2050002","prefecture":"東京都","prefecture_kana":"トウキョウト","city":"羽村市","city_kana":"ハムラシ","town":"栄町","town_kana":"サカエチョウ","prefecture_code":13},"0023":{"zip_code":"2050023","prefecture":"東京都","prefecture_kana":"トウキョウト","city":"羽村市","city_kana":"ハムラシ","town":"神明台","town_kana":"シンメイダイ","prefecture_code":13},"0024":{"zip_code":"2050024","prefecture":"東京都","prefecture_kana":"トウキョウト","city":"羽村市","city_kana":"ハムラシ","town":"玉川","town_kana":"タマガワ","prefecture_code":13},"0012":{"zip_code":"2050012","prefecture":"東京都","prefecture_kana":"トウキョウト","city":"羽村市","city_kana":"ハムラシ","town":"羽","town_kana":"ハネ","prefecture_code":13},"0016":{"zip_code":"2050016","prefecture":"東京都","prefecture_kana":"トウキョウト","city":"羽村市","city_kana":"ハムラシ","town":"羽加美","town_kana":"ハネカミ","prefecture_code":13},"0015":{"zip_code":"2050015","prefecture":"東京都","prefecture_kana":"トウキョウト","city":"羽村市","city_kana":"ハムラシ","town":"羽中","town_kana":"ハネナカ","prefecture_code":13},"0014":{"zip_code":"2050014","prefecture":"東京都","prefecture_kana":"トウキョウト","city":"羽村市","city_kana":"ハムラシ","town":"羽東","town_kana":"ハネヒガシ","prefecture_code":13},"0017":{"zip_code":"2050017","prefecture":"東京都","prefecture_kana":"トウキョウト","city":"羽村市","city_kana":"ハムラシ","town":"羽西","town_kana":"ハネニシ","prefecture_code":13},"0013":{"zip_code":"2050013","prefecture":"東京都","prefecture_kana":"トウキョウト","city":"羽村市","city_kana":"ハムラシ","town":"富士見平","town_kana":"フジミダイラ","prefecture_code":13},"0022":{"zip_code":"2050022","prefecture":"東京都","prefecture_kana":"トウキョウト","city":"羽村市","city_kana":"ハムラシ","town":"双葉町","town_kana":"フタバチョウ","prefecture_code":13},"0003":{"zip_code":"2050003","prefecture":"東京都","prefecture_kana":"トウキョウト","city":"羽村市","city_kana":"ハムラシ","town":"緑ケ丘","town_kana":"ミドリガオカ","prefecture_code":13}}