{"0000":[{"zip_code":"2060000","prefecture":"東京都","prefecture_kana":"トウキョウト","city":"多摩市","city_kana":"タマシ","town":"以下に掲載がない場合","town_kana":"イカニケイサイガナイバアイ","prefecture_code":13},{"zip_code":"2060000","prefecture":"東京都","prefecture_kana":"トウキョウト","city":"稲城市","city_kana":"イナギシ","town":"以下に掲載がない場合","town_kana":"イカニケイサイガナイバアイ","prefecture_code":13}],"0041":{"zip_code":"2060041","prefecture":"東京都","prefecture_kana":"トウキョウト","city":"多摩市","city_kana":"タマシ","town":"愛宕","town_kana":"アタゴ","prefecture_code":13},"0002":{"zip_code":"2060002","prefecture":"東京都","prefecture_kana":"トウキョウト","city":"多摩市","city_kana":"タマシ","town":"一ノ宮","town_kana":"イチノミヤ","prefecture_code":13},"0033":{"zip_code":"2060033","prefecture":"東京都","prefecture_kana":"トウキョウト","city":"多摩市","city_kana":"タマシ","town":"落合","town_kana":"オチアイ","prefecture_code":13},"0015":{"zip_code":"2060015","prefecture":"東京都","prefecture_kana":"トウキョウト","city":"多摩市","city_kana":"タマシ","town":"落川","town_kana":"オチカワ","prefecture_code":13},"0012":{"zip_code":"2060012","prefecture":"東京都","prefecture_kana":"トウキョウト","city":"多摩市","city_kana":"タマシ","town":"貝取","town_kana":"カイドリ","prefecture_code":13},"0035":{"zip_code":"2060035","prefecture":"東京都","prefecture_kana":"トウキョウト","city":"多摩市","city_kana":"タマシ","town":"唐木田","town_kana":"カラキダ","prefecture_code":13},"0014":{"zip_code":"2060014","prefecture":"東京都","prefecture_kana":"トウキョウト","city":"多摩市","city_kana":"タマシ","town":"乞田","town_kana":"コッタ","prefecture_code":13},"0013":{"zip_code":"2060013","prefecture":"東京都","prefecture_kana":"トウキョウト","city":"多摩市","city_kana":"タマシ","town":"桜ヶ丘","town_kana":"サクラガオカ","prefecture_code":13},"0042":{"zip_code":"2060042","prefecture":"東京都","prefecture_kana":"トウキョウト","city":"多摩市","city_kana":"タマシ","town":"山王下","town_kana":"サンノウシタ","prefecture_code":13},"0024":{"zip_code":"2060024","prefecture":"東京都","prefecture_kana":"トウキョウト","city":"多摩市","city_kana":"タマシ","town":"諏訪","town_kana":"スワ","prefecture_code":13},"0011":{"zip_code":"2060011","prefecture":"東京都","prefecture_kana":"トウキョウト","city":"多摩市","city_kana":"タマシ","town":"関戸","town_kana":"セキド","prefecture_code":13},"0034":{"zip_code":"2060034","prefecture":"東京都","prefecture_kana":"トウキョウト","city":"多摩市","city_kana":"タマシ","town":"鶴牧","town_kana":"ツルマキ","prefecture_code":13},"0031":{"zip_code":"2060031","prefecture":"東京都","prefecture_kana":"トウキョウト","city":"多摩市","city_kana":"タマシ","town":"豊ヶ丘","town_kana":"トヨガオカ","prefecture_code":13},"0036":{"zip_code":"2060036","prefecture":"東京都","prefecture_kana":"トウキョウト","city":"多摩市","city_kana":"タマシ","town":"中沢","town_kana":"ナカザワ","prefecture_code":13},"0025":{"zip_code":"2060025","prefecture":"東京都","prefecture_kana":"トウキョウト","city":"多摩市","city_kana":"タマシ","town":"永山","town_kana":"ナガヤマ","prefecture_code":13},"0003":{"zip_code":"2060003","prefecture":"東京都","prefecture_kana":"トウキョウト","city":"多摩市","city_kana":"タマシ","town":"東寺方","town_kana":"ヒガシテラガタ","prefecture_code":13},"0022":{"zip_code":"2060022","prefecture":"東京都","prefecture_kana":"トウキョウト","city":"多摩市","city_kana":"タマシ","town":"聖ヶ丘","town_kana":"ヒジリガオカ","prefecture_code":13},"0023":{"zip_code":"2060023","prefecture":"東京都","prefecture_kana":"トウキョウト","city":"多摩市","city_kana":"タマシ","town":"馬引沢","town_kana":"マヒキザワ","prefecture_code":13},"0032":{"zip_code":"2060032","prefecture":"東京都","prefecture_kana":"トウキョウト","city":"多摩市","city_kana":"タマシ","town":"南野","town_kana":"ミナミノ","prefecture_code":13},"0004":{"zip_code":"2060004","prefecture":"東京都","prefecture_kana":"トウキョウト","city":"多摩市","city_kana":"タマシ","town":"百草","town_kana":"モグサ","prefecture_code":13},"0021":{"zip_code":"2060021","prefecture":"東京都","prefecture_kana":"トウキョウト","city":"多摩市","city_kana":"タマシ","town":"連光寺","town_kana":"レンコウジ","prefecture_code":13},"0001":{"zip_code":"2060001","prefecture":"東京都","prefecture_kana":"トウキョウト","city":"多摩市","city_kana":"タマシ","town":"和田","town_kana":"ワダ","prefecture_code":13},"0801":{"zip_code":"2060801","prefecture":"東京都","prefecture_kana":"トウキョウト","city":"稲城市","city_kana":"イナギシ","town":"大丸","town_kana":"オオマル","prefecture_code":13},"0811":{"zip_code":"2060811","prefecture":"東京都","prefecture_kana":"トウキョウト","city":"稲城市","city_kana":"イナギシ","town":"押立","town_kana":"オシタテ","prefecture_code":13},"0803":{"zip_code":"2060803","prefecture":"東京都","prefecture_kana":"トウキョウト","city":"稲城市","city_kana":"イナギシ","town":"向陽台","town_kana":"コウヨウダイ","prefecture_code":13},"0822":{"zip_code":"2060822","prefecture":"東京都","prefecture_kana":"トウキョウト","city":"稲城市","city_kana":"イナギシ","town":"坂浜","town_kana":"サカハマ","prefecture_code":13},"0821":{"zip_code":"2060821","prefecture":"東京都","prefecture_kana":"トウキョウト","city":"稲城市","city_kana":"イナギシ","town":"長峰","town_kana":"ナガミネ","prefecture_code":13},"0802":{"zip_code":"2060802","prefecture":"東京都","prefecture_kana":"トウキョウト","city":"稲城市","city_kana":"イナギシ","town":"東長沼","town_kana":"ヒガシナガヌマ","prefecture_code":13},"0823":{"zip_code":"2060823","prefecture":"東京都","prefecture_kana":"トウキョウト","city":"稲城市","city_kana":"イナギシ","town":"平尾","town_kana":"ヒラオ","prefecture_code":13},"0804":{"zip_code":"2060804","prefecture":"東京都","prefecture_kana":"トウキョウト","city":"稲城市","city_kana":"イナギシ","town":"百村","town_kana":"モムラ","prefecture_code":13},"0812":{"zip_code":"2060812","prefecture":"東京都","prefecture_kana":"トウキョウト","city":"稲城市","city_kana":"イナギシ","town":"矢野口","town_kana":"ヤノクチ","prefecture_code":13},"0824":{"zip_code":"2060824","prefecture":"東京都","prefecture_kana":"トウキョウト","city":"稲城市","city_kana":"イナギシ","town":"若葉台","town_kana":"ワカバダイ","prefecture_code":13}}