{"0000":{"zip_code":"2080000","prefecture":"東京都","prefecture_kana":"トウキョウト","city":"武蔵村山市","city_kana":"ムサシムラヤマシ","town":"","town_kana":"","prefecture_code":13},"0023":{"zip_code":"2080023","prefecture":"東京都","prefecture_kana":"トウキョウト","city":"武蔵村山市","city_kana":"ムサシムラヤマシ","town":"伊奈平","town_kana":"イナダイラ","prefecture_code":13},"0022":{"zip_code":"2080022","prefecture":"東京都","prefecture_kana":"トウキョウト","city":"武蔵村山市","city_kana":"ムサシムラヤマシ","town":"榎","town_kana":"エノキ","prefecture_code":13},"0013":{"zip_code":"2080013","prefecture":"東京都","prefecture_kana":"トウキョウト","city":"武蔵村山市","city_kana":"ムサシムラヤマシ","town":"大南","town_kana":"オオミナミ","prefecture_code":13},"0011":{"zip_code":"2080011","prefecture":"東京都","prefecture_kana":"トウキョウト","city":"武蔵村山市","city_kana":"ムサシムラヤマシ","town":"学園","town_kana":"ガクエン","prefecture_code":13},"0031":{"zip_code":"2080031","prefecture":"東京都","prefecture_kana":"トウキョウト","city":"武蔵村山市","city_kana":"ムサシムラヤマシ","town":"岸","town_kana":"キシ","prefecture_code":13},"0034":{"zip_code":"2080034","prefecture":"東京都","prefecture_kana":"トウキョウト","city":"武蔵村山市","city_kana":"ムサシムラヤマシ","town":"残堀","town_kana":"ザンボリ","prefecture_code":13},"0002":{"zip_code":"2080002","prefecture":"東京都","prefecture_kana":"トウキョウト","city":"武蔵村山市","city_kana":"ムサシムラヤマシ","town":"神明","town_kana":"シンメイ","prefecture_code":13},"0003":{"zip_code":"2080003","prefecture":"東京都","prefecture_kana":"トウキョウト","city":"武蔵村山市","city_kana":"ムサシムラヤマシ","town":"中央","town_kana":"チュウオウ","prefecture_code":13},"0001":{"zip_code":"2080001","prefecture":"東京都","prefecture_kana":"トウキョウト","city":"武蔵村山市","city_kana":"ムサシムラヤマシ","town":"中藤","town_kana":"ナカトウ","prefecture_code":13},"0035":{"zip_code":"2080035","prefecture":"東京都","prefecture_kana":"トウキョウト","city":"武蔵村山市","city_kana":"ムサシムラヤマシ","town":"中原","town_kana":"ナカハラ","prefecture_code":13},"0004":{"zip_code":"2080004","prefecture":"東京都","prefecture_kana":"トウキョウト","city":"武蔵村山市","city_kana":"ムサシムラヤマシ","town":"本町","town_kana":"ホンマチ","prefecture_code":13},"0033":{"zip_code":"2080033","prefecture":"東京都","prefecture_kana":"トウキョウト","city":"武蔵村山市","city_kana":"ムサシムラヤマシ","town":"三ツ木大字","town_kana":"ミツギオオアザ","prefecture_code":13},"0032":{"zip_code":"2080032","prefecture":"東京都","prefecture_kana":"トウキョウト","city":"武蔵村山市","city_kana":"ムサシムラヤマシ","town":"三ツ木","town_kana":"ミツギ","prefecture_code":13},"0021":{"zip_code":"2080021","prefecture":"東京都","prefecture_kana":"トウキョウト","city":"武蔵村山市","city_kana":"ムサシムラヤマシ","town":"三ツ藤","town_kana":"ミツフジ","prefecture_code":13},"0012":{"zip_code":"2080012","prefecture":"東京都","prefecture_kana":"トウキョウト","city":"武蔵村山市","city_kana":"ムサシムラヤマシ","town":"緑が丘","town_kana":"ミドリガオカ","prefecture_code":13}}