{"0000":{"zip_code":"2110000","prefecture":"神奈川県","prefecture_kana":"カナガワケン","city":"川崎市中原区","city_kana":"カワサキシナカハラク","town":"","town_kana":"","prefecture_code":14},"0035":{"zip_code":"2110035","prefecture":"神奈川県","prefecture_kana":"カナガワケン","city":"川崎市中原区","city_kana":"カワサキシナカハラク","town":"井田","town_kana":"イダ","prefecture_code":14},"0037":{"zip_code":"2110037","prefecture":"神奈川県","prefecture_kana":"カナガワケン","city":"川崎市中原区","city_kana":"カワサキシナカハラク","town":"井田三舞町","town_kana":"イダサンマイチョウ","prefecture_code":14},"0036":{"zip_code":"2110036","prefecture":"神奈川県","prefecture_kana":"カナガワケン","city":"川崎市中原区","city_kana":"カワサキシナカハラク","town":"井田杉山町","town_kana":"イダスギヤマチョウ","prefecture_code":14},"0034":{"zip_code":"2110034","prefecture":"神奈川県","prefecture_kana":"カナガワケン","city":"川崎市中原区","city_kana":"カワサキシナカハラク","town":"井田中ノ町","town_kana":"イダナカノチョウ","prefecture_code":14},"0016":{"zip_code":"2110016","prefecture":"神奈川県","prefecture_kana":"カナガワケン","city":"川崎市中原区","city_kana":"カワサキシナカハラク","town":"市ノ坪","town_kana":"イチノツボ","prefecture_code":14},"0067":{"zip_code":"2110067","prefecture":"神奈川県","prefecture_kana":"カナガワケン","city":"川崎市中原区","city_kana":"カワサキシナカハラク","town":"今井上町","town_kana":"イマイカミチョウ","prefecture_code":14},"0065":{"zip_code":"2110065","prefecture":"神奈川県","prefecture_kana":"カナガワケン","city":"川崎市中原区","city_kana":"カワサキシナカハラク","town":"今井仲町","town_kana":"イマイナカマチ","prefecture_code":14},"0066":{"zip_code":"2110066","prefecture":"神奈川県","prefecture_kana":"カナガワケン","city":"川崎市中原区","city_kana":"カワサキシナカハラク","town":"今井西町","town_kana":"イマイニシマチ","prefecture_code":14},"0064":{"zip_code":"2110064","prefecture":"神奈川県","prefecture_kana":"カナガワケン","city":"川崎市中原区","city_kana":"カワサキシナカハラク","town":"今井南町","town_kana":"イマイミナミチョウ","prefecture_code":14},"0023":{"zip_code":"2110023","prefecture":"神奈川県","prefecture_kana":"カナガワケン","city":"川崎市中原区","city_kana":"カワサキシナカハラク","town":"大倉町","town_kana":"オオクラチョウ","prefecture_code":14},"0053":{"zip_code":"2110053","prefecture":"神奈川県","prefecture_kana":"カナガワケン","city":"川崎市中原区","city_kana":"カワサキシナカハラク","town":"上小田中","town_kana":"カミコダナカ","prefecture_code":14},"0045":{"zip_code":"2110045","prefecture":"神奈川県","prefecture_kana":"カナガワケン","city":"川崎市中原区","city_kana":"カワサキシナカハラク","town":"上新城","town_kana":"カミシンジョウ","prefecture_code":14},"0013":{"zip_code":"2110013","prefecture":"神奈川県","prefecture_kana":"カナガワケン","city":"川崎市中原区","city_kana":"カワサキシナカハラク","town":"上平間","town_kana":"カミヒラマ","prefecture_code":14},"0003":{"zip_code":"2110003","prefecture":"神奈川県","prefecture_kana":"カナガワケン","city":"川崎市中原区","city_kana":"カワサキシナカハラク","town":"上丸子","town_kana":"カミマルコ","prefecture_code":14},"0002":{"zip_code":"2110002","prefecture":"神奈川県","prefecture_kana":"カナガワケン","city":"川崎市中原区","city_kana":"カワサキシナカハラク","town":"上丸子山王町","town_kana":"カミマルコサンノウチョウ","prefecture_code":14},"0007":{"zip_code":"2110007","prefecture":"神奈川県","prefecture_kana":"カナガワケン","city":"川崎市中原区","city_kana":"カワサキシナカハラク","town":"上丸子天神町","town_kana":"カミマルコテンジンチョウ","prefecture_code":14},"0001":{"zip_code":"2110001","prefecture":"神奈川県","prefecture_kana":"カナガワケン","city":"川崎市中原区","city_kana":"カワサキシナカハラク","town":"上丸子八幡町","town_kana":"カミマルコハチマンチョウ","prefecture_code":14},"0022":{"zip_code":"2110022","prefecture":"神奈川県","prefecture_kana":"カナガワケン","city":"川崎市中原区","city_kana":"カワサキシナカハラク","town":"苅宿","town_kana":"カリヤド","prefecture_code":14},"0015":{"zip_code":"2110015","prefecture":"神奈川県","prefecture_kana":"カナガワケン","city":"川崎市中原区","city_kana":"カワサキシナカハラク","town":"北谷町","town_kana":"キタヤチョウ","prefecture_code":14},"0025":{"zip_code":"2110025","prefecture":"神奈川県","prefecture_kana":"カナガワケン","city":"川崎市中原区","city_kana":"カワサキシナカハラク","town":"木月","town_kana":"キヅキ","prefecture_code":14},"0032":{"zip_code":"2110032","prefecture":"神奈川県","prefecture_kana":"カナガワケン","city":"川崎市中原区","city_kana":"カワサキシナカハラク","town":"木月伊勢町","town_kana":"キヅキイセチョウ","prefecture_code":14},"0033":{"zip_code":"2110033","prefecture":"神奈川県","prefecture_kana":"カナガワケン","city":"川崎市中原区","city_kana":"カワサキシナカハラク","town":"木月祗園町","town_kana":"キヅキギオンチョウ","prefecture_code":14},"0021":{"zip_code":"2110021","prefecture":"神奈川県","prefecture_kana":"カナガワケン","city":"川崎市中原区","city_kana":"カワサキシナカハラク","town":"木月住吉町","town_kana":"キヅキスミヨシチョウ","prefecture_code":14},"0031":{"zip_code":"2110031","prefecture":"神奈川県","prefecture_kana":"カナガワケン","city":"川崎市中原区","city_kana":"カワサキシナカハラク","town":"木月大町","town_kana":"キヅキオオマチ","prefecture_code":14},"0061":{"zip_code":"2110061","prefecture":"神奈川県","prefecture_kana":"カナガワケン","city":"川崎市中原区","city_kana":"カワサキシナカハラク","town":"小杉","town_kana":"コスギ","prefecture_code":14},"0068":{"zip_code":"2110068","prefecture":"神奈川県","prefecture_kana":"カナガワケン","city":"川崎市中原区","city_kana":"カワサキシナカハラク","town":"小杉御殿町","town_kana":"コスギゴテンチョウ","prefecture_code":14},"0062":{"zip_code":"2110062","prefecture":"神奈川県","prefecture_kana":"カナガワケン","city":"川崎市中原区","city_kana":"カワサキシナカハラク","town":"小杉陣屋町","town_kana":"コスギジンヤチョウ","prefecture_code":14},"0063":{"zip_code":"2110063","prefecture":"神奈川県","prefecture_kana":"カナガワケン","city":"川崎市中原区","city_kana":"カワサキシナカハラク","town":"小杉町","town_kana":"コスギマチ","prefecture_code":14},"0041":{"zip_code":"2110041","prefecture":"神奈川県","prefecture_kana":"カナガワケン","city":"川崎市中原区","city_kana":"カワサキシナカハラク","town":"下小田中","town_kana":"シモコダナカ","prefecture_code":14},"0042":{"zip_code":"2110042","prefecture":"神奈川県","prefecture_kana":"カナガワケン","city":"川崎市中原区","city_kana":"カワサキシナカハラク","town":"下新城","town_kana":"シモシンジョウ","prefecture_code":14},"0011":{"zip_code":"2110011","prefecture":"神奈川県","prefecture_kana":"カナガワケン","city":"川崎市中原区","city_kana":"カワサキシナカハラク","town":"下沼部","town_kana":"シモヌマベ","prefecture_code":14},"0044":{"zip_code":"2110044","prefecture":"神奈川県","prefecture_kana":"カナガワケン","city":"川崎市中原区","city_kana":"カワサキシナカハラク","town":"新城","town_kana":"シンジョウ","prefecture_code":14},"0043":{"zip_code":"2110043","prefecture":"神奈川県","prefecture_kana":"カナガワケン","city":"川崎市中原区","city_kana":"カワサキシナカハラク","town":"新城中町","town_kana":"シンジョウナカチョウ","prefecture_code":14},"0005":{"zip_code":"2110005","prefecture":"神奈川県","prefecture_kana":"カナガワケン","city":"川崎市中原区","city_kana":"カワサキシナカハラク","town":"新丸子町","town_kana":"シンマルコマチ","prefecture_code":14},"0004":{"zip_code":"2110004","prefecture":"神奈川県","prefecture_kana":"カナガワケン","city":"川崎市中原区","city_kana":"カワサキシナカハラク","town":"新丸子東","town_kana":"シンマルコヒガシ","prefecture_code":14},"0014":{"zip_code":"2110014","prefecture":"神奈川県","prefecture_kana":"カナガワケン","city":"川崎市中原区","city_kana":"カワサキシナカハラク","town":"田尻町","town_kana":"タジリチョウ","prefecture_code":14},"0052":{"zip_code":"2110052","prefecture":"神奈川県","prefecture_kana":"カナガワケン","city":"川崎市中原区","city_kana":"カワサキシナカハラク","town":"等々力","town_kana":"トドロキ","prefecture_code":14},"0012":{"zip_code":"2110012","prefecture":"神奈川県","prefecture_kana":"カナガワケン","city":"川崎市中原区","city_kana":"カワサキシナカハラク","town":"中丸子","town_kana":"ナカマルコ","prefecture_code":14},"0024":{"zip_code":"2110024","prefecture":"神奈川県","prefecture_kana":"カナガワケン","city":"川崎市中原区","city_kana":"カワサキシナカハラク","town":"西加瀬","town_kana":"ニシカセ","prefecture_code":14},"0006":{"zip_code":"2110006","prefecture":"神奈川県","prefecture_kana":"カナガワケン","city":"川崎市中原区","city_kana":"カワサキシナカハラク","town":"丸子通","town_kana":"マルコドオリ","prefecture_code":14},"0051":{"zip_code":"2110051","prefecture":"神奈川県","prefecture_kana":"カナガワケン","city":"川崎市中原区","city_kana":"カワサキシナカハラク","town":"宮内","town_kana":"ミヤウチ","prefecture_code":14}}