{"0000":{"zip_code":"2120000","prefecture":"神奈川県","prefecture_kana":"カナガワケン","city":"川崎市幸区","city_kana":"カワサキシサイワイク","town":"","town_kana":"","prefecture_code":14},"0006":{"zip_code":"2120006","prefecture":"神奈川県","prefecture_kana":"カナガワケン","city":"川崎市幸区","city_kana":"カワサキシサイワイク","town":"遠藤町","town_kana":"エンドウマチ","prefecture_code":14},"0014":{"zip_code":"2120014","prefecture":"神奈川県","prefecture_kana":"カナガワケン","city":"川崎市幸区","city_kana":"カワサキシサイワイク","town":"大宮町","town_kana":"オオミヤチョウ","prefecture_code":14},"0054":{"zip_code":"2120054","prefecture":"神奈川県","prefecture_kana":"カナガワケン","city":"川崎市幸区","city_kana":"カワサキシサイワイク","town":"小倉","town_kana":"オグラ","prefecture_code":14},"0058":{"zip_code":"2120058","prefecture":"神奈川県","prefecture_kana":"カナガワケン","city":"川崎市幸区","city_kana":"カワサキシサイワイク","town":"鹿島田","town_kana":"カシマダ","prefecture_code":14},"0007":{"zip_code":"2120007","prefecture":"神奈川県","prefecture_kana":"カナガワケン","city":"川崎市幸区","city_kana":"カワサキシサイワイク","town":"河原町","town_kana":"カワラマチ","prefecture_code":14},"0057":{"zip_code":"2120057","prefecture":"神奈川県","prefecture_kana":"カナガワケン","city":"川崎市幸区","city_kana":"カワサキシサイワイク","town":"北加瀬","town_kana":"キタカセ","prefecture_code":14},"0001":{"zip_code":"2120001","prefecture":"神奈川県","prefecture_kana":"カナガワケン","city":"川崎市幸区","city_kana":"カワサキシサイワイク","town":"小向東芝町","town_kana":"コムカイトウシバチョウ","prefecture_code":14},"0002":{"zip_code":"2120002","prefecture":"神奈川県","prefecture_kana":"カナガワケン","city":"川崎市幸区","city_kana":"カワサキシサイワイク","town":"小向仲野町","town_kana":"コムカイナカノチョウ","prefecture_code":14},"0004":{"zip_code":"2120004","prefecture":"神奈川県","prefecture_kana":"カナガワケン","city":"川崎市幸区","city_kana":"カワサキシサイワイク","town":"小向西町","town_kana":"コムカイニシマチ","prefecture_code":14},"0003":{"zip_code":"2120003","prefecture":"神奈川県","prefecture_kana":"カナガワケン","city":"川崎市幸区","city_kana":"カワサキシサイワイク","town":"小向町","town_kana":"コムカイチョウ","prefecture_code":14},"0026":{"zip_code":"2120026","prefecture":"神奈川県","prefecture_kana":"カナガワケン","city":"川崎市幸区","city_kana":"カワサキシサイワイク","town":"紺屋町","town_kana":"コンヤマチ","prefecture_code":14},"0011":{"zip_code":"2120011","prefecture":"神奈川県","prefecture_kana":"カナガワケン","city":"川崎市幸区","city_kana":"カワサキシサイワイク","town":"幸町","town_kana":"サイワイチョウ","prefecture_code":14},"0053":{"zip_code":"2120053","prefecture":"神奈川県","prefecture_kana":"カナガワケン","city":"川崎市幸区","city_kana":"カワサキシサイワイク","town":"下平間","town_kana":"シモヒラマ","prefecture_code":14},"0031":{"zip_code":"2120031","prefecture":"神奈川県","prefecture_kana":"カナガワケン","city":"川崎市幸区","city_kana":"カワサキシサイワイク","town":"新小倉","town_kana":"シンオグラ","prefecture_code":14},"0032":{"zip_code":"2120032","prefecture":"神奈川県","prefecture_kana":"カナガワケン","city":"川崎市幸区","city_kana":"カワサキシサイワイク","town":"新川崎","town_kana":"シンカワサキ","prefecture_code":14},"0027":{"zip_code":"2120027","prefecture":"神奈川県","prefecture_kana":"カナガワケン","city":"川崎市幸区","city_kana":"カワサキシサイワイク","town":"新塚越","town_kana":"シンツカゴシ","prefecture_code":14},"0022":{"zip_code":"2120022","prefecture":"神奈川県","prefecture_kana":"カナガワケン","city":"川崎市幸区","city_kana":"カワサキシサイワイク","town":"神明町","town_kana":"シンメイチョウ","prefecture_code":14},"0024":{"zip_code":"2120024","prefecture":"神奈川県","prefecture_kana":"カナガワケン","city":"川崎市幸区","city_kana":"カワサキシサイワイク","town":"塚越","town_kana":"ツカゴシ","prefecture_code":14},"0005":{"zip_code":"2120005","prefecture":"神奈川県","prefecture_kana":"カナガワケン","city":"川崎市幸区","city_kana":"カワサキシサイワイク","town":"戸手","town_kana":"トテ","prefecture_code":14},"0023":{"zip_code":"2120023","prefecture":"神奈川県","prefecture_kana":"カナガワケン","city":"川崎市幸区","city_kana":"カワサキシサイワイク","town":"戸手本町","town_kana":"トデホンマチ","prefecture_code":14},"0012":{"zip_code":"2120012","prefecture":"神奈川県","prefecture_kana":"カナガワケン","city":"川崎市幸区","city_kana":"カワサキシサイワイク","town":"中幸町","town_kana":"ナカサイワイチョウ","prefecture_code":14},"0033":{"zip_code":"2120033","prefecture":"神奈川県","prefecture_kana":"カナガワケン","city":"川崎市幸区","city_kana":"カワサキシサイワイク","town":"東小倉","town_kana":"ヒガシオグラ","prefecture_code":14},"0051":{"zip_code":"2120051","prefecture":"神奈川県","prefecture_kana":"カナガワケン","city":"川崎市幸区","city_kana":"カワサキシサイワイク","town":"東古市場","town_kana":"ヒガシフルイチバ","prefecture_code":14},"0052":{"zip_code":"2120052","prefecture":"神奈川県","prefecture_kana":"カナガワケン","city":"川崎市幸区","city_kana":"カワサキシサイワイク","town":"古市場","town_kana":"フルイチバ","prefecture_code":14},"0025":{"zip_code":"2120025","prefecture":"神奈川県","prefecture_kana":"カナガワケン","city":"川崎市幸区","city_kana":"カワサキシサイワイク","town":"古川町","town_kana":"フルカワマチ","prefecture_code":14},"0013":{"zip_code":"2120013","prefecture":"神奈川県","prefecture_kana":"カナガワケン","city":"川崎市幸区","city_kana":"カワサキシサイワイク","town":"堀川町","town_kana":"ホリカワチョウ","prefecture_code":14},"0055":{"zip_code":"2120055","prefecture":"神奈川県","prefecture_kana":"カナガワケン","city":"川崎市幸区","city_kana":"カワサキシサイワイク","town":"南加瀬","town_kana":"ミナミカセ","prefecture_code":14},"0016":{"zip_code":"2120016","prefecture":"神奈川県","prefecture_kana":"カナガワケン","city":"川崎市幸区","city_kana":"カワサキシサイワイク","town":"南幸町","town_kana":"ミナミサイワイチョウ","prefecture_code":14},"0021":{"zip_code":"2120021","prefecture":"神奈川県","prefecture_kana":"カナガワケン","city":"川崎市幸区","city_kana":"カワサキシサイワイク","town":"都町","town_kana":"ミヤコチョウ","prefecture_code":14},"0056":{"zip_code":"2120056","prefecture":"神奈川県","prefecture_kana":"カナガワケン","city":"川崎市幸区","city_kana":"カワサキシサイワイク","town":"矢上","town_kana":"ヤガミ","prefecture_code":14},"0015":{"zip_code":"2120015","prefecture":"神奈川県","prefecture_kana":"カナガワケン","city":"川崎市幸区","city_kana":"カワサキシサイワイク","town":"柳町","town_kana":"ヤナギチョウ","prefecture_code":14}}