{"0000":{"zip_code":"2140000","prefecture":"神奈川県","prefecture_kana":"カナガワケン","city":"川崎市多摩区","city_kana":"カワサキシタマク","town":"以下に掲載がない場合","town_kana":"イカニケイサイガナイバアイ","prefecture_code":14},"0038":{"zip_code":"2140038","prefecture":"神奈川県","prefecture_kana":"カナガワケン","city":"川崎市多摩区","city_kana":"カワサキシタマク","town":"生田","town_kana":"イクタ","prefecture_code":14},"0039":{"zip_code":"2140039","prefecture":"神奈川県","prefecture_kana":"カナガワケン","city":"川崎市多摩区","city_kana":"カワサキシタマク","town":"栗谷","town_kana":"クリヤ","prefecture_code":14},"0021":{"zip_code":"2140021","prefecture":"神奈川県","prefecture_kana":"カナガワケン","city":"川崎市多摩区","city_kana":"カワサキシタマク","town":"宿河原","town_kana":"シュクガワラ","prefecture_code":14},"0001":{"zip_code":"2140001","prefecture":"神奈川県","prefecture_kana":"カナガワケン","city":"川崎市多摩区","city_kana":"カワサキシタマク","town":"菅","town_kana":"スゲ","prefecture_code":14},"0003":{"zip_code":"2140003","prefecture":"神奈川県","prefecture_kana":"カナガワケン","city":"川崎市多摩区","city_kana":"カワサキシタマク","town":"菅稲田堤","town_kana":"スゲイナダヅツミ","prefecture_code":14},"0008":{"zip_code":"2140008","prefecture":"神奈川県","prefecture_kana":"カナガワケン","city":"川崎市多摩区","city_kana":"カワサキシタマク","town":"菅北浦","town_kana":"スゲキタウラ","prefecture_code":14},"0007":{"zip_code":"2140007","prefecture":"神奈川県","prefecture_kana":"カナガワケン","city":"川崎市多摩区","city_kana":"カワサキシタマク","town":"菅城下","town_kana":"スゲシロシタ","prefecture_code":14},"0006":{"zip_code":"2140006","prefecture":"神奈川県","prefecture_kana":"カナガワケン","city":"川崎市多摩区","city_kana":"カワサキシタマク","town":"菅仙谷","town_kana":"スゲセンゴク","prefecture_code":14},"0002":{"zip_code":"2140002","prefecture":"神奈川県","prefecture_kana":"カナガワケン","city":"川崎市多摩区","city_kana":"カワサキシタマク","town":"菅野戸呂","town_kana":"スゲノトロ","prefecture_code":14},"0004":{"zip_code":"2140004","prefecture":"神奈川県","prefecture_kana":"カナガワケン","city":"川崎市多摩区","city_kana":"カワサキシタマク","town":"菅馬場","town_kana":"スゲバンバ","prefecture_code":14},"0022":{"zip_code":"2140022","prefecture":"神奈川県","prefecture_kana":"カナガワケン","city":"川崎市多摩区","city_kana":"カワサキシタマク","town":"堰","town_kana":"セキ","prefecture_code":14},"0005":{"zip_code":"2140005","prefecture":"神奈川県","prefecture_kana":"カナガワケン","city":"川崎市多摩区","city_kana":"カワサキシタマク","town":"寺尾台","town_kana":"テラオダイ","prefecture_code":14},"0012":{"zip_code":"2140012","prefecture":"神奈川県","prefecture_kana":"カナガワケン","city":"川崎市多摩区","city_kana":"カワサキシタマク","town":"中野島","town_kana":"ナカノシマ","prefecture_code":14},"0023":{"zip_code":"2140023","prefecture":"神奈川県","prefecture_kana":"カナガワケン","city":"川崎市多摩区","city_kana":"カワサキシタマク","town":"長尾","town_kana":"ナガオ","prefecture_code":14},"0035":{"zip_code":"2140035","prefecture":"神奈川県","prefecture_kana":"カナガワケン","city":"川崎市多摩区","city_kana":"カワサキシタマク","town":"長沢","town_kana":"ナガサワ","prefecture_code":14},"0037":{"zip_code":"2140037","prefecture":"神奈川県","prefecture_kana":"カナガワケン","city":"川崎市多摩区","city_kana":"カワサキシタマク","town":"西生田","town_kana":"ニシイクタ","prefecture_code":14},"0014":{"zip_code":"2140014","prefecture":"神奈川県","prefecture_kana":"カナガワケン","city":"川崎市多摩区","city_kana":"カワサキシタマク","town":"登戸","town_kana":"ノボリト","prefecture_code":14},"0013":{"zip_code":"2140013","prefecture":"神奈川県","prefecture_kana":"カナガワケン","city":"川崎市多摩区","city_kana":"カワサキシタマク","town":"登戸新町","town_kana":"ノボリトシンマチ","prefecture_code":14},"0031":{"zip_code":"2140031","prefecture":"神奈川県","prefecture_kana":"カナガワケン","city":"川崎市多摩区","city_kana":"カワサキシタマク","town":"東生田","town_kana":"ヒガシイクタ","prefecture_code":14},"0033":{"zip_code":"2140033","prefecture":"神奈川県","prefecture_kana":"カナガワケン","city":"川崎市多摩区","city_kana":"カワサキシタマク","town":"東三田","town_kana":"ヒガシミタ","prefecture_code":14},"0011":{"zip_code":"2140011","prefecture":"神奈川県","prefecture_kana":"カナガワケン","city":"川崎市多摩区","city_kana":"カワサキシタマク","town":"布田","town_kana":"フダ","prefecture_code":14},"0032":{"zip_code":"2140032","prefecture":"神奈川県","prefecture_kana":"カナガワケン","city":"川崎市多摩区","city_kana":"カワサキシタマク","town":"枡形","town_kana":"マスガタ","prefecture_code":14},"0034":{"zip_code":"2140034","prefecture":"神奈川県","prefecture_kana":"カナガワケン","city":"川崎市多摩区","city_kana":"カワサキシタマク","town":"三田","town_kana":"ミタ","prefecture_code":14},"0036":{"zip_code":"2140036","prefecture":"神奈川県","prefecture_kana":"カナガワケン","city":"川崎市多摩区","city_kana":"カワサキシタマク","town":"南生田","town_kana":"ミナミイクタ","prefecture_code":14}}