{"0000":{"zip_code":"2150000","prefecture":"神奈川県","prefecture_kana":"カナガワケン","city":"川崎市麻生区","city_kana":"カワサキシアサオク","town":"以下に掲載がない場合","town_kana":"イカニケイサイガナイバアイ","prefecture_code":14},"0013":{"zip_code":"2150013","prefecture":"神奈川県","prefecture_kana":"カナガワケン","city":"川崎市麻生区","city_kana":"カワサキシアサオク","town":"王禅寺","town_kana":"オウゼンジ","prefecture_code":14},"0017":{"zip_code":"2150017","prefecture":"神奈川県","prefecture_kana":"カナガワケン","city":"川崎市麻生区","city_kana":"カワサキシアサオク","town":"王禅寺西","town_kana":"オウゼンジニシ","prefecture_code":14},"0018":{"zip_code":"2150018","prefecture":"神奈川県","prefecture_kana":"カナガワケン","city":"川崎市麻生区","city_kana":"カワサキシアサオク","town":"王禅寺東","town_kana":"オウゼンジヒガシ","prefecture_code":14},"0027":{"zip_code":"2150027","prefecture":"神奈川県","prefecture_kana":"カナガワケン","city":"川崎市麻生区","city_kana":"カワサキシアサオク","town":"岡上","town_kana":"オカガミ","prefecture_code":14},"0023":{"zip_code":"2150023","prefecture":"神奈川県","prefecture_kana":"カナガワケン","city":"川崎市麻生区","city_kana":"カワサキシアサオク","town":"片平","town_kana":"カタヒラ","prefecture_code":14},"0006":{"zip_code":"2150006","prefecture":"神奈川県","prefecture_kana":"カナガワケン","city":"川崎市麻生区","city_kana":"カワサキシアサオク","town":"金程","town_kana":"カナホド","prefecture_code":14},"0021":{"zip_code":"2150021","prefecture":"神奈川県","prefecture_kana":"カナガワケン","city":"川崎市麻生区","city_kana":"カワサキシアサオク","town":"上麻生","town_kana":"カミアサオ","prefecture_code":14},"0033":{"zip_code":"2150033","prefecture":"神奈川県","prefecture_kana":"カナガワケン","city":"川崎市麻生区","city_kana":"カワサキシアサオク","town":"栗木","town_kana":"クリギ","prefecture_code":14},"0032":{"zip_code":"2150032","prefecture":"神奈川県","prefecture_kana":"カナガワケン","city":"川崎市麻生区","city_kana":"カワサキシアサオク","town":"栗木台","town_kana":"クリギダイ","prefecture_code":14},"0031":{"zip_code":"2150031","prefecture":"神奈川県","prefecture_kana":"カナガワケン","city":"川崎市麻生区","city_kana":"カワサキシアサオク","town":"栗平","town_kana":"クリヒラ","prefecture_code":14},"0035":{"zip_code":"2150035","prefecture":"神奈川県","prefecture_kana":"カナガワケン","city":"川崎市麻生区","city_kana":"カワサキシアサオク","town":"黒川","town_kana":"クロカワ","prefecture_code":14},"0025":{"zip_code":"2150025","prefecture":"神奈川県","prefecture_kana":"カナガワケン","city":"川崎市麻生区","city_kana":"カワサキシアサオク","town":"五力田","town_kana":"ゴリキダ","prefecture_code":14},"0022":{"zip_code":"2150022","prefecture":"神奈川県","prefecture_kana":"カナガワケン","city":"川崎市麻生区","city_kana":"カワサキシアサオク","town":"下麻生","town_kana":"シモアサオ","prefecture_code":14},"0024":{"zip_code":"2150024","prefecture":"神奈川県","prefecture_kana":"カナガワケン","city":"川崎市麻生区","city_kana":"カワサキシアサオク","town":"白鳥","town_kana":"シラトリ","prefecture_code":14},"0003":{"zip_code":"2150003","prefecture":"神奈川県","prefecture_kana":"カナガワケン","city":"川崎市麻生区","city_kana":"カワサキシアサオク","town":"高石","town_kana":"タカイシ","prefecture_code":14},"0002":{"zip_code":"2150002","prefecture":"神奈川県","prefecture_kana":"カナガワケン","city":"川崎市麻生区","city_kana":"カワサキシアサオク","town":"多摩美","town_kana":"タマミ","prefecture_code":14},"0005":{"zip_code":"2150005","prefecture":"神奈川県","prefecture_kana":"カナガワケン","city":"川崎市麻生区","city_kana":"カワサキシアサオク","town":"千代ケ丘","town_kana":"チヨガオカ","prefecture_code":14},"0015":{"zip_code":"2150015","prefecture":"神奈川県","prefecture_kana":"カナガワケン","city":"川崎市麻生区","city_kana":"カワサキシアサオク","town":"虹ケ丘","town_kana":"ニジガオカ","prefecture_code":14},"0014":{"zip_code":"2150014","prefecture":"神奈川県","prefecture_kana":"カナガワケン","city":"川崎市麻生区","city_kana":"カワサキシアサオク","town":"白山","town_kana":"ハクサン","prefecture_code":14},"0016":{"zip_code":"2150016","prefecture":"神奈川県","prefecture_kana":"カナガワケン","city":"川崎市麻生区","city_kana":"カワサキシアサオク","town":"早野","town_kana":"ハヤノ","prefecture_code":14},"0036":{"zip_code":"2150036","prefecture":"神奈川県","prefecture_kana":"カナガワケン","city":"川崎市麻生区","city_kana":"カワサキシアサオク","town":"はるひ野","town_kana":"ハルヒノ","prefecture_code":14},"0012":{"zip_code":"2150012","prefecture":"神奈川県","prefecture_kana":"カナガワケン","city":"川崎市麻生区","city_kana":"カワサキシアサオク","town":"東百合丘","town_kana":"ヒガシユリガオカ","prefecture_code":14},"0026":{"zip_code":"2150026","prefecture":"神奈川県","prefecture_kana":"カナガワケン","city":"川崎市麻生区","city_kana":"カワサキシアサオク","town":"古沢","town_kana":"フルサワ","prefecture_code":14},"0001":{"zip_code":"2150001","prefecture":"神奈川県","prefecture_kana":"カナガワケン","city":"川崎市麻生区","city_kana":"カワサキシアサオク","town":"細山","town_kana":"ホソヤマ","prefecture_code":14},"0004":{"zip_code":"2150004","prefecture":"神奈川県","prefecture_kana":"カナガワケン","city":"川崎市麻生区","city_kana":"カワサキシアサオク","town":"万福寺","town_kana":"マンプクジ","prefecture_code":14},"0034":{"zip_code":"2150034","prefecture":"神奈川県","prefecture_kana":"カナガワケン","city":"川崎市麻生区","city_kana":"カワサキシアサオク","town":"南黒川","town_kana":"ミナミクロカワ","prefecture_code":14},"0007":{"zip_code":"2150007","prefecture":"神奈川県","prefecture_kana":"カナガワケン","city":"川崎市麻生区","city_kana":"カワサキシアサオク","town":"向原","town_kana":"ムカイバラ","prefecture_code":14},"0011":{"zip_code":"2150011","prefecture":"神奈川県","prefecture_kana":"カナガワケン","city":"川崎市麻生区","city_kana":"カワサキシアサオク","town":"百合丘","town_kana":"ユリガオカ","prefecture_code":14}}