{"0000":{"zip_code":"2220000","prefecture":"神奈川県","prefecture_kana":"カナガワケン","city":"横浜市港北区","city_kana":"ヨコハマシコウホクク","town":"","town_kana":"","prefecture_code":14},"0037":{"zip_code":"2220037","prefecture":"神奈川県","prefecture_kana":"カナガワケン","city":"横浜市港北区","city_kana":"ヨコハマシコウホクク","town":"大倉山","town_kana":"オオクラヤマ","prefecture_code":14},"0003":{"zip_code":"2220003","prefecture":"神奈川県","prefecture_kana":"カナガワケン","city":"横浜市港北区","city_kana":"ヨコハマシコウホクク","town":"大曽根","town_kana":"オオソネ","prefecture_code":14},"0004":{"zip_code":"2220004","prefecture":"神奈川県","prefecture_kana":"カナガワケン","city":"横浜市港北区","city_kana":"ヨコハマシコウホクク","town":"大曽根台","town_kana":"オオソネダイ","prefecture_code":14},"0011":{"zip_code":"2220011","prefecture":"神奈川県","prefecture_kana":"カナガワケン","city":"横浜市港北区","city_kana":"ヨコハマシコウホクク","town":"菊名","town_kana":"キクナ","prefecture_code":14},"0034":{"zip_code":"2220034","prefecture":"神奈川県","prefecture_kana":"カナガワケン","city":"横浜市港北区","city_kana":"ヨコハマシコウホクク","town":"岸根町","town_kana":"キシネチョウ","prefecture_code":14},"0036":{"zip_code":"2220036","prefecture":"神奈川県","prefecture_kana":"カナガワケン","city":"横浜市港北区","city_kana":"ヨコハマシコウホクク","town":"小机町","town_kana":"コヅクエチョウ","prefecture_code":14},"0024":{"zip_code":"2220024","prefecture":"神奈川県","prefecture_kana":"カナガワケン","city":"横浜市港北区","city_kana":"ヨコハマシコウホクク","town":"篠原台町","town_kana":"シノハラダイマチ","prefecture_code":14},"0026":{"zip_code":"2220026","prefecture":"神奈川県","prefecture_kana":"カナガワケン","city":"横浜市港北区","city_kana":"ヨコハマシコウホクク","town":"篠原町","town_kana":"シノハラチョウ","prefecture_code":14},"0025":{"zip_code":"2220025","prefecture":"神奈川県","prefecture_kana":"カナガワケン","city":"横浜市港北区","city_kana":"ヨコハマシコウホクク","town":"篠原西町","town_kana":"シノハラニシチョウ","prefecture_code":14},"0022":{"zip_code":"2220022","prefecture":"神奈川県","prefecture_kana":"カナガワケン","city":"横浜市港北区","city_kana":"ヨコハマシコウホクク","town":"篠原東","town_kana":"シノハラヒガシ","prefecture_code":14},"0021":{"zip_code":"2220021","prefecture":"神奈川県","prefecture_kana":"カナガワケン","city":"横浜市港北区","city_kana":"ヨコハマシコウホクク","town":"篠原北","town_kana":"シノハラキタ","prefecture_code":14},"0033":{"zip_code":"2220033","prefecture":"神奈川県","prefecture_kana":"カナガワケン","city":"横浜市港北区","city_kana":"ヨコハマシコウホクク","town":"新横浜","town_kana":"シンヨコハマ","prefecture_code":14},"0001":{"zip_code":"2220001","prefecture":"神奈川県","prefecture_kana":"カナガワケン","city":"横浜市港北区","city_kana":"ヨコハマシコウホクク","town":"樽町","town_kana":"タルマチ","prefecture_code":14},"0035":{"zip_code":"2220035","prefecture":"神奈川県","prefecture_kana":"カナガワケン","city":"横浜市港北区","city_kana":"ヨコハマシコウホクク","town":"鳥山町","town_kana":"トリヤマチョウ","prefecture_code":14},"0023":{"zip_code":"2220023","prefecture":"神奈川県","prefecture_kana":"カナガワケン","city":"横浜市港北区","city_kana":"ヨコハマシコウホクク","town":"仲手原","town_kana":"ナカテハラ","prefecture_code":14},"0013":{"zip_code":"2220013","prefecture":"神奈川県","prefecture_kana":"カナガワケン","city":"横浜市港北区","city_kana":"ヨコハマシコウホクク","town":"錦が丘","town_kana":"ニシキガオカ","prefecture_code":14},"0012":{"zip_code":"2220012","prefecture":"神奈川県","prefecture_kana":"カナガワケン","city":"横浜市港北区","city_kana":"ヨコハマシコウホクク","town":"富士塚","town_kana":"フジヅカ","prefecture_code":14},"0032":{"zip_code":"2220032","prefecture":"神奈川県","prefecture_kana":"カナガワケン","city":"横浜市港北区","city_kana":"ヨコハマシコウホクク","town":"大豆戸町","town_kana":"マメドチョウ","prefecture_code":14},"0002":{"zip_code":"2220002","prefecture":"神奈川県","prefecture_kana":"カナガワケン","city":"横浜市港北区","city_kana":"ヨコハマシコウホクク","town":"師岡町","town_kana":"モロオカチョウ","prefecture_code":14}}