{"0000":{"zip_code":"2260000","prefecture":"神奈川県","prefecture_kana":"カナガワケン","city":"横浜市緑区","city_kana":"ヨコハマシミドリク","town":"","town_kana":"","prefecture_code":14},"0022":{"zip_code":"2260022","prefecture":"神奈川県","prefecture_kana":"カナガワケン","city":"横浜市緑区","city_kana":"ヨコハマシミドリク","town":"青砥町","town_kana":"アオトチョウ","prefecture_code":14},"0028":{"zip_code":"2260028","prefecture":"神奈川県","prefecture_kana":"カナガワケン","city":"横浜市緑区","city_kana":"ヨコハマシミドリク","town":"いぶき野","town_kana":"イブキノ","prefecture_code":14},"0012":{"zip_code":"2260012","prefecture":"神奈川県","prefecture_kana":"カナガワケン","city":"横浜市緑区","city_kana":"ヨコハマシミドリク","town":"上山","town_kana":"カミヤマ","prefecture_code":14},"0003":{"zip_code":"2260003","prefecture":"神奈川県","prefecture_kana":"カナガワケン","city":"横浜市緑区","city_kana":"ヨコハマシミドリク","town":"鴨居","town_kana":"カモイ","prefecture_code":14},"0004":{"zip_code":"2260004","prefecture":"神奈川県","prefecture_kana":"カナガワケン","city":"横浜市緑区","city_kana":"ヨコハマシミドリク","town":"鴨居町","town_kana":"カモイチョウ","prefecture_code":14},"0021":{"zip_code":"2260021","prefecture":"神奈川県","prefecture_kana":"カナガワケン","city":"横浜市緑区","city_kana":"ヨコハマシミドリク","town":"北八朔町","town_kana":"キタハッサクチョウ","prefecture_code":14},"0016":{"zip_code":"2260016","prefecture":"神奈川県","prefecture_kana":"カナガワケン","city":"横浜市緑区","city_kana":"ヨコハマシミドリク","town":"霧が丘","town_kana":"キリガオカ","prefecture_code":14},"0023":{"zip_code":"2260023","prefecture":"神奈川県","prefecture_kana":"カナガワケン","city":"横浜市緑区","city_kana":"ヨコハマシミドリク","town":"小山町","town_kana":"コヤマチョウ","prefecture_code":14},"0014":{"zip_code":"2260014","prefecture":"神奈川県","prefecture_kana":"カナガワケン","city":"横浜市緑区","city_kana":"ヨコハマシミドリク","town":"台村町","town_kana":"ダイムラチョウ","prefecture_code":14},"0005":{"zip_code":"2260005","prefecture":"神奈川県","prefecture_kana":"カナガワケン","city":"横浜市緑区","city_kana":"ヨコハマシミドリク","town":"竹山","town_kana":"タケヤマ","prefecture_code":14},"0013":{"zip_code":"2260013","prefecture":"神奈川県","prefecture_kana":"カナガワケン","city":"横浜市緑区","city_kana":"ヨコハマシミドリク","town":"寺山町","town_kana":"テラヤマチョウ","prefecture_code":14},"0025":{"zip_code":"2260025","prefecture":"神奈川県","prefecture_kana":"カナガワケン","city":"横浜市緑区","city_kana":"ヨコハマシミドリク","town":"十日市場町","town_kana":"トオカイチバチョウ","prefecture_code":14},"0011":{"zip_code":"2260011","prefecture":"神奈川県","prefecture_kana":"カナガワケン","city":"横浜市緑区","city_kana":"ヨコハマシミドリク","town":"中山町","town_kana":"ナカヤマチョウ","prefecture_code":14},"0027":{"zip_code":"2260027","prefecture":"神奈川県","prefecture_kana":"カナガワケン","city":"横浜市緑区","city_kana":"ヨコハマシミドリク","town":"長津田","town_kana":"ナガツタ","prefecture_code":14},"0026":{"zip_code":"2260026","prefecture":"神奈川県","prefecture_kana":"カナガワケン","city":"横浜市緑区","city_kana":"ヨコハマシミドリク","town":"長津田町","town_kana":"ナガツタチョウ","prefecture_code":14},"0018":{"zip_code":"2260018","prefecture":"神奈川県","prefecture_kana":"カナガワケン","city":"横浜市緑区","city_kana":"ヨコハマシミドリク","town":"長津田みなみ台","town_kana":"ナガツタミナミダイ","prefecture_code":14},"0017":{"zip_code":"2260017","prefecture":"神奈川県","prefecture_kana":"カナガワケン","city":"横浜市緑区","city_kana":"ヨコハマシミドリク","town":"新治町","town_kana":"ニイハルチョウ","prefecture_code":14},"0024":{"zip_code":"2260024","prefecture":"神奈川県","prefecture_kana":"カナガワケン","city":"横浜市緑区","city_kana":"ヨコハマシミドリク","town":"西八朔町","town_kana":"ニシハッサクチョウ","prefecture_code":14},"0006":{"zip_code":"2260006","prefecture":"神奈川県","prefecture_kana":"カナガワケン","city":"横浜市緑区","city_kana":"ヨコハマシミドリク","town":"白山","town_kana":"ハクサン","prefecture_code":14},"0002":{"zip_code":"2260002","prefecture":"神奈川県","prefecture_kana":"カナガワケン","city":"横浜市緑区","city_kana":"ヨコハマシミドリク","town":"東本郷","town_kana":"ヒガシホンゴウ","prefecture_code":14},"0001":{"zip_code":"2260001","prefecture":"神奈川県","prefecture_kana":"カナガワケン","city":"横浜市緑区","city_kana":"ヨコハマシミドリク","town":"東本郷町","town_kana":"ヒガシホンゴウチョウ","prefecture_code":14},"0015":{"zip_code":"2260015","prefecture":"神奈川県","prefecture_kana":"カナガワケン","city":"横浜市緑区","city_kana":"ヨコハマシミドリク","town":"三保町","town_kana":"ミホチョウ","prefecture_code":14},"0029":{"zip_code":"2260029","prefecture":"神奈川県","prefecture_kana":"カナガワケン","city":"横浜市緑区","city_kana":"ヨコハマシミドリク","town":"森の台","town_kana":"モリノダイ","prefecture_code":14}}