{"0000":{"zip_code":"2270000","prefecture":"神奈川県","prefecture_kana":"カナガワケン","city":"横浜市青葉区","city_kana":"ヨコハマシアオバク","town":"","town_kana":"","prefecture_code":14},"0062":{"zip_code":"2270062","prefecture":"神奈川県","prefecture_kana":"カナガワケン","city":"横浜市青葉区","city_kana":"ヨコハマシアオバク","town":"青葉台","town_kana":"アオバダイ","prefecture_code":14},"0066":{"zip_code":"2270066","prefecture":"神奈川県","prefecture_kana":"カナガワケン","city":"横浜市青葉区","city_kana":"ヨコハマシアオバク","town":"あかね台","town_kana":"アカネダイ","prefecture_code":14},"0052":{"zip_code":"2270052","prefecture":"神奈川県","prefecture_kana":"カナガワケン","city":"横浜市青葉区","city_kana":"ヨコハマシアオバク","town":"梅が丘","town_kana":"ウメガオカ","prefecture_code":14},"0063":{"zip_code":"2270063","prefecture":"神奈川県","prefecture_kana":"カナガワケン","city":"横浜市青葉区","city_kana":"ヨコハマシアオバク","town":"榎が丘","town_kana":"エノキガオカ","prefecture_code":14},"0065":{"zip_code":"2270065","prefecture":"神奈川県","prefecture_kana":"カナガワケン","city":"横浜市青葉区","city_kana":"ヨコハマシアオバク","town":"恩田町","town_kana":"オンダチョウ","prefecture_code":14},"0048":{"zip_code":"2270048","prefecture":"神奈川県","prefecture_kana":"カナガワケン","city":"横浜市青葉区","city_kana":"ヨコハマシアオバク","town":"柿の木台","town_kana":"カキノキダイ","prefecture_code":14},"0034":{"zip_code":"2270034","prefecture":"神奈川県","prefecture_kana":"カナガワケン","city":"横浜市青葉区","city_kana":"ヨコハマシアオバク","town":"桂台","town_kana":"カツラダイ","prefecture_code":14},"0041":{"zip_code":"2270041","prefecture":"神奈川県","prefecture_kana":"カナガワケン","city":"横浜市青葉区","city_kana":"ヨコハマシアオバク","town":"上谷本町","town_kana":"カミヤモトチョウ","prefecture_code":14},"0033":{"zip_code":"2270033","prefecture":"神奈川県","prefecture_kana":"カナガワケン","city":"横浜市青葉区","city_kana":"ヨコハマシアオバク","town":"鴨志田町","town_kana":"カモシダチョウ","prefecture_code":14},"0061":{"zip_code":"2270061","prefecture":"神奈川県","prefecture_kana":"カナガワケン","city":"横浜市青葉区","city_kana":"ヨコハマシアオバク","town":"桜台","town_kana":"サクラダイ","prefecture_code":14},"0053":{"zip_code":"2270053","prefecture":"神奈川県","prefecture_kana":"カナガワケン","city":"横浜市青葉区","city_kana":"ヨコハマシアオバク","town":"さつきが丘","town_kana":"サツキガオカ","prefecture_code":14},"0031":{"zip_code":"2270031","prefecture":"神奈川県","prefecture_kana":"カナガワケン","city":"横浜市青葉区","city_kana":"ヨコハマシアオバク","town":"寺家町","town_kana":"ジケチョウ","prefecture_code":14},"0042":{"zip_code":"2270042","prefecture":"神奈川県","prefecture_kana":"カナガワケン","city":"横浜市青葉区","city_kana":"ヨコハマシアオバク","town":"下谷本町","town_kana":"シモヤモトチョウ","prefecture_code":14},"0054":{"zip_code":"2270054","prefecture":"神奈川県","prefecture_kana":"カナガワケン","city":"横浜市青葉区","city_kana":"ヨコハマシアオバク","town":"しらとり台","town_kana":"シラトリダイ","prefecture_code":14},"0035":{"zip_code":"2270035","prefecture":"神奈川県","prefecture_kana":"カナガワケン","city":"横浜市青葉区","city_kana":"ヨコハマシアオバク","town":"すみよし台","town_kana":"スミヨシダイ","prefecture_code":14},"0046":{"zip_code":"2270046","prefecture":"神奈川県","prefecture_kana":"カナガワケン","city":"横浜市青葉区","city_kana":"ヨコハマシアオバク","town":"たちばな台","town_kana":"タチバナダイ","prefecture_code":14},"0064":{"zip_code":"2270064","prefecture":"神奈川県","prefecture_kana":"カナガワケン","city":"横浜市青葉区","city_kana":"ヨコハマシアオバク","town":"田奈町","town_kana":"タナチョウ","prefecture_code":14},"0051":{"zip_code":"2270051","prefecture":"神奈川県","prefecture_kana":"カナガワケン","city":"横浜市青葉区","city_kana":"ヨコハマシアオバク","town":"千草台","town_kana":"チグサダイ","prefecture_code":14},"0055":{"zip_code":"2270055","prefecture":"神奈川県","prefecture_kana":"カナガワケン","city":"横浜市青葉区","city_kana":"ヨコハマシアオバク","town":"つつじが丘","town_kana":"ツツジガオカ","prefecture_code":14},"0038":{"zip_code":"2270038","prefecture":"神奈川県","prefecture_kana":"カナガワケン","city":"横浜市青葉区","city_kana":"ヨコハマシアオバク","town":"奈良","town_kana":"ナラ","prefecture_code":14},"0036":{"zip_code":"2270036","prefecture":"神奈川県","prefecture_kana":"カナガワケン","city":"横浜市青葉区","city_kana":"ヨコハマシアオバク","town":"奈良町","town_kana":"ナラチョウ","prefecture_code":14},"0032":{"zip_code":"2270032","prefecture":"神奈川県","prefecture_kana":"カナガワケン","city":"横浜市青葉区","city_kana":"ヨコハマシアオバク","town":"成合町","town_kana":"ナリアイチョウ","prefecture_code":14},"0043":{"zip_code":"2270043","prefecture":"神奈川県","prefecture_kana":"カナガワケン","city":"横浜市青葉区","city_kana":"ヨコハマシアオバク","town":"藤が丘","town_kana":"フジガオカ","prefecture_code":14},"0067":{"zip_code":"2270067","prefecture":"神奈川県","prefecture_kana":"カナガワケン","city":"横浜市青葉区","city_kana":"ヨコハマシアオバク","town":"松風台","town_kana":"マツカゼダイ","prefecture_code":14},"0047":{"zip_code":"2270047","prefecture":"神奈川県","prefecture_kana":"カナガワケン","city":"横浜市青葉区","city_kana":"ヨコハマシアオバク","town":"みたけ台","town_kana":"ミタケダイ","prefecture_code":14},"0037":{"zip_code":"2270037","prefecture":"神奈川県","prefecture_kana":"カナガワケン","city":"横浜市青葉区","city_kana":"ヨコハマシアオバク","town":"緑山","town_kana":"ミドリヤマ","prefecture_code":14},"0044":{"zip_code":"2270044","prefecture":"神奈川県","prefecture_kana":"カナガワケン","city":"横浜市青葉区","city_kana":"ヨコハマシアオバク","town":"もえぎ野","town_kana":"モエギノ","prefecture_code":14},"0045":{"zip_code":"2270045","prefecture":"神奈川県","prefecture_kana":"カナガワケン","city":"横浜市青葉区","city_kana":"ヨコハマシアオバク","town":"若草台","town_kana":"ワカクサダイ","prefecture_code":14}}