{"0000":{"zip_code":"2310000","prefecture":"神奈川県","prefecture_kana":"カナガワケン","city":"横浜市中区","city_kana":"ヨコハマシナカク","town":"","town_kana":"","prefecture_code":14},"0012":{"zip_code":"2310012","prefecture":"神奈川県","prefecture_kana":"カナガワケン","city":"横浜市中区","city_kana":"ヨコハマシナカク","town":"相生町","town_kana":"アイオイチョウ","prefecture_code":14},"0051":{"zip_code":"2310051","prefecture":"神奈川県","prefecture_kana":"カナガワケン","city":"横浜市中区","city_kana":"ヨコハマシナカク","town":"赤門町","town_kana":"アカモンチョウ","prefecture_code":14},"0057":{"zip_code":"2310057","prefecture":"神奈川県","prefecture_kana":"カナガワケン","city":"横浜市中区","city_kana":"ヨコハマシナカク","town":"曙町","town_kana":"アケボノチョウ","prefecture_code":14},"0834":{"zip_code":"2310834","prefecture":"神奈川県","prefecture_kana":"カナガワケン","city":"横浜市中区","city_kana":"ヨコハマシナカク","town":"池袋","town_kana":"イケブクロ","prefecture_code":14},"0868":{"zip_code":"2310868","prefecture":"神奈川県","prefecture_kana":"カナガワケン","city":"横浜市中区","city_kana":"ヨコハマシナカク","town":"石川町","town_kana":"イシカワチョウ","prefecture_code":14},"0045":{"zip_code":"2310045","prefecture":"神奈川県","prefecture_kana":"カナガワケン","city":"横浜市中区","city_kana":"ヨコハマシナカク","town":"伊勢佐木町","town_kana":"イセザキチョウ","prefecture_code":14},"0842":{"zip_code":"2310842","prefecture":"神奈川県","prefecture_kana":"カナガワケン","city":"横浜市中区","city_kana":"ヨコハマシナカク","town":"上野町","town_kana":"ウエノチョウ","prefecture_code":14},"0867":{"zip_code":"2310867","prefecture":"神奈川県","prefecture_kana":"カナガワケン","city":"横浜市中区","city_kana":"ヨコハマシナカク","town":"打越","town_kana":"ウチコシ","prefecture_code":14},"0061":{"zip_code":"2310061","prefecture":"神奈川県","prefecture_kana":"カナガワケン","city":"横浜市中区","city_kana":"ヨコハマシナカク","town":"内田町","town_kana":"ウチダチョウ","prefecture_code":14},"0027":{"zip_code":"2310027","prefecture":"神奈川県","prefecture_kana":"カナガワケン","city":"横浜市中区","city_kana":"ヨコハマシナカク","town":"扇町","town_kana":"オウギチョウ","prefecture_code":14},"0858":{"zip_code":"2310858","prefecture":"神奈川県","prefecture_kana":"カナガワケン","city":"横浜市中区","city_kana":"ヨコハマシナカク","town":"大芝台","town_kana":"オオシバダイ","prefecture_code":14},"0011":{"zip_code":"2310011","prefecture":"神奈川県","prefecture_kana":"カナガワケン","city":"横浜市中区","city_kana":"ヨコハマシナカク","town":"太田町","town_kana":"オオタマチ","prefecture_code":14},"0859":{"zip_code":"2310859","prefecture":"神奈川県","prefecture_kana":"カナガワケン","city":"横浜市中区","city_kana":"ヨコハマシナカク","town":"大平町","town_kana":"オオヒラチョウ","prefecture_code":14},"0028":{"zip_code":"2310028","prefecture":"神奈川県","prefecture_kana":"カナガワケン","city":"横浜市中区","city_kana":"ヨコハマシナカク","town":"翁町","town_kana":"オキナチョウ","prefecture_code":14},"0015":{"zip_code":"2310015","prefecture":"神奈川県","prefecture_kana":"カナガワケン","city":"横浜市中区","city_kana":"ヨコハマシナカク","town":"尾上町","town_kana":"オノエチョウ","prefecture_code":14},"0002":{"zip_code":"2310002","prefecture":"神奈川県","prefecture_kana":"カナガワケン","city":"横浜市中区","city_kana":"ヨコハマシナカク","town":"海岸通","town_kana":"カイガンドオリ","prefecture_code":14},"0866":{"zip_code":"2310866","prefecture":"神奈川県","prefecture_kana":"カナガワケン","city":"横浜市中区","city_kana":"ヨコハマシナカク","town":"柏葉","town_kana":"カシワバ","prefecture_code":14},"0813":{"zip_code":"2310813","prefecture":"神奈川県","prefecture_kana":"カナガワケン","city":"横浜市中区","city_kana":"ヨコハマシナカク","town":"かもめ町","town_kana":"カモメチョウ","prefecture_code":14},"0865":{"zip_code":"2310865","prefecture":"神奈川県","prefecture_kana":"カナガワケン","city":"横浜市中区","city_kana":"ヨコハマシナカク","town":"北方町","town_kana":"キタガタチョウ","prefecture_code":14},"0003":{"zip_code":"2310003","prefecture":"神奈川県","prefecture_kana":"カナガワケン","city":"横浜市中区","city_kana":"ヨコハマシナカク","town":"北仲通","town_kana":"キタナカドオリ","prefecture_code":14},"0054":{"zip_code":"2310054","prefecture":"神奈川県","prefecture_kana":"カナガワケン","city":"横浜市中区","city_kana":"ヨコハマシナカク","town":"黄金町","town_kana":"コガネチョウ","prefecture_code":14},"0026":{"zip_code":"2310026","prefecture":"神奈川県","prefecture_kana":"カナガワケン","city":"横浜市中区","city_kana":"ヨコハマシナカク","town":"寿町","town_kana":"コトブキチョウ","prefecture_code":14},"0802":{"zip_code":"2310802","prefecture":"神奈川県","prefecture_kana":"カナガワケン","city":"横浜市中区","city_kana":"ヨコハマシナカク","town":"小港町","town_kana":"コミナトチョウ","prefecture_code":14},"0848":{"zip_code":"2310848","prefecture":"神奈川県","prefecture_kana":"カナガワケン","city":"横浜市中区","city_kana":"ヨコハマシナカク","town":"鷺山","town_kana":"サギヤマ","prefecture_code":14},"0062":{"zip_code":"2310062","prefecture":"神奈川県","prefecture_kana":"カナガワケン","city":"横浜市中区","city_kana":"ヨコハマシナカク","town":"桜木町","town_kana":"サクラギチョウ","prefecture_code":14},"0001":{"zip_code":"2310001","prefecture":"神奈川県","prefecture_kana":"カナガワケン","city":"横浜市中区","city_kana":"ヨコハマシナカク","town":"新港","town_kana":"シンコウ","prefecture_code":14},"0801":{"zip_code":"2310801","prefecture":"神奈川県","prefecture_kana":"カナガワケン","city":"横浜市中区","city_kana":"ヨコハマシナカク","town":"新山下","town_kana":"シンヤマシタ","prefecture_code":14},"0046":{"zip_code":"2310046","prefecture":"神奈川県","prefecture_kana":"カナガワケン","city":"横浜市中区","city_kana":"ヨコハマシナカク","town":"末広町","town_kana":"スエヒロチョウ","prefecture_code":14},"0055":{"zip_code":"2310055","prefecture":"神奈川県","prefecture_kana":"カナガワケン","city":"横浜市中区","city_kana":"ヨコハマシナカク","town":"末吉町","town_kana":"スエヨシチョウ","prefecture_code":14},"0013":{"zip_code":"2310013","prefecture":"神奈川県","prefecture_kana":"カナガワケン","city":"横浜市中区","city_kana":"ヨコハマシナカク","town":"住吉町","town_kana":"スミヨシチョウ","prefecture_code":14},"0863":{"zip_code":"2310863","prefecture":"神奈川県","prefecture_kana":"カナガワケン","city":"横浜市中区","city_kana":"ヨコハマシナカク","town":"諏訪町","town_kana":"スワチョウ","prefecture_code":14},"0837":{"zip_code":"2310837","prefecture":"神奈川県","prefecture_kana":"カナガワケン","city":"横浜市中区","city_kana":"ヨコハマシナカク","town":"滝之上","town_kana":"タキノウエ","prefecture_code":14},"0847":{"zip_code":"2310847","prefecture":"神奈川県","prefecture_kana":"カナガワケン","city":"横浜市中区","city_kana":"ヨコハマシナカク","town":"竹之丸","town_kana":"タケノマル","prefecture_code":14},"0845":{"zip_code":"2310845","prefecture":"神奈川県","prefecture_kana":"カナガワケン","city":"横浜市中区","city_kana":"ヨコハマシナカク","town":"立野","town_kana":"タテノ","prefecture_code":14},"0035":{"zip_code":"2310035","prefecture":"神奈川県","prefecture_kana":"カナガワケン","city":"横浜市中区","city_kana":"ヨコハマシナカク","town":"千歳町","town_kana":"チトセチョウ","prefecture_code":14},"0815":{"zip_code":"2310815","prefecture":"神奈川県","prefecture_kana":"カナガワケン","city":"横浜市中区","city_kana":"ヨコハマシナカク","town":"千鳥町","town_kana":"チドリチョウ","prefecture_code":14},"0033":{"zip_code":"2310033","prefecture":"神奈川県","prefecture_kana":"カナガワケン","city":"横浜市中区","city_kana":"ヨコハマシナカク","town":"長者町","town_kana":"チョウジャマチ","prefecture_code":14},"0864":{"zip_code":"2310864","prefecture":"神奈川県","prefecture_kana":"カナガワケン","city":"横浜市中区","city_kana":"ヨコハマシナカク","town":"千代崎町","town_kana":"チヨザキチョウ","prefecture_code":14},"0857":{"zip_code":"2310857","prefecture":"神奈川県","prefecture_kana":"カナガワケン","city":"横浜市中区","city_kana":"ヨコハマシナカク","town":"塚越","town_kana":"ツカゴシ","prefecture_code":14},"0855":{"zip_code":"2310855","prefecture":"神奈川県","prefecture_kana":"カナガワケン","city":"横浜市中区","city_kana":"ヨコハマシナカク","town":"寺久保","town_kana":"テラクボ","prefecture_code":14},"0014":{"zip_code":"2310014","prefecture":"神奈川県","prefecture_kana":"カナガワケン","city":"横浜市中区","city_kana":"ヨコハマシナカク","town":"常盤町","town_kana":"トキワチョウ","prefecture_code":14},"0814":{"zip_code":"2310814","prefecture":"神奈川県","prefecture_kana":"カナガワケン","city":"横浜市中区","city_kana":"ヨコハマシナカク","town":"豊浦町","town_kana":"トヨウラチョウ","prefecture_code":14},"0839":{"zip_code":"2310839","prefecture":"神奈川県","prefecture_kana":"カナガワケン","city":"横浜市中区","city_kana":"ヨコハマシナカク","town":"仲尾台","town_kana":"ナカオダイ","prefecture_code":14},"0812":{"zip_code":"2310812","prefecture":"神奈川県","prefecture_kana":"カナガワケン","city":"横浜市中区","city_kana":"ヨコハマシナカク","town":"錦町","town_kana":"ニシキチョウ","prefecture_code":14},"0852":{"zip_code":"2310852","prefecture":"神奈川県","prefecture_kana":"カナガワケン","city":"横浜市中区","city_kana":"ヨコハマシナカク","town":"西竹之丸","town_kana":"ニシタケノマル","prefecture_code":14},"0844":{"zip_code":"2310844","prefecture":"神奈川県","prefecture_kana":"カナガワケン","city":"横浜市中区","city_kana":"ヨコハマシナカク","town":"西之谷町","town_kana":"ニシノヤチョウ","prefecture_code":14},"0021":{"zip_code":"2310021","prefecture":"神奈川県","prefecture_kana":"カナガワケン","city":"横浜市中区","city_kana":"ヨコハマシナカク","town":"日本大通","town_kana":"ニホンオオドオリ","prefecture_code":14},"0854":{"zip_code":"2310854","prefecture":"神奈川県","prefecture_kana":"カナガワケン","city":"横浜市中区","city_kana":"ヨコハマシナカク","town":"根岸旭台","town_kana":"ネギシアサヒダイ","prefecture_code":14},"0835":{"zip_code":"2310835","prefecture":"神奈川県","prefecture_kana":"カナガワケン","city":"横浜市中区","city_kana":"ヨコハマシナカク","town":"根岸加曽台","town_kana":"ネギシカゾウダイ","prefecture_code":14},"0853":{"zip_code":"2310853","prefecture":"神奈川県","prefecture_kana":"カナガワケン","city":"横浜市中区","city_kana":"ヨコハマシナカク","town":"根岸台","town_kana":"ネギシダイ","prefecture_code":14},"0836":{"zip_code":"2310836","prefecture":"神奈川県","prefecture_kana":"カナガワケン","city":"横浜市中区","city_kana":"ヨコハマシナカク","town":"根岸町","town_kana":"ネギシチョウ","prefecture_code":14},"0064":{"zip_code":"2310064","prefecture":"神奈川県","prefecture_kana":"カナガワケン","city":"横浜市中区","city_kana":"ヨコハマシナカク","town":"野毛町","town_kana":"ノゲチョウ","prefecture_code":14},"0047":{"zip_code":"2310047","prefecture":"神奈川県","prefecture_kana":"カナガワケン","city":"横浜市中区","city_kana":"ヨコハマシナカク","town":"羽衣町","town_kana":"ハゴロモチョウ","prefecture_code":14},"0053":{"zip_code":"2310053","prefecture":"神奈川県","prefecture_kana":"カナガワケン","city":"横浜市中区","city_kana":"ヨコハマシナカク","town":"初音町","town_kana":"ハツネチョウ","prefecture_code":14},"0063":{"zip_code":"2310063","prefecture":"神奈川県","prefecture_kana":"カナガワケン","city":"横浜市中区","city_kana":"ヨコハマシナカク","town":"花咲町","town_kana":"ハナサキチョウ","prefecture_code":14},"0052":{"zip_code":"2310052","prefecture":"神奈川県","prefecture_kana":"カナガワケン","city":"横浜市中区","city_kana":"ヨコハマシナカク","town":"英町","town_kana":"ハナブサチョウ","prefecture_code":14},"0031":{"zip_code":"2310031","prefecture":"神奈川県","prefecture_kana":"カナガワケン","city":"横浜市中区","city_kana":"ヨコハマシナカク","town":"万代町","town_kana":"バンダイチョウ","prefecture_code":14},"0066":{"zip_code":"2310066","prefecture":"神奈川県","prefecture_kana":"カナガワケン","city":"横浜市中区","city_kana":"ヨコハマシナカク","town":"日ノ出町","town_kana":"ヒノデチョウ","prefecture_code":14},"0043":{"zip_code":"2310043","prefecture":"神奈川県","prefecture_kana":"カナガワケン","city":"横浜市中区","city_kana":"ヨコハマシナカク","town":"福富町仲通","town_kana":"フクトミチョウナカドオリ","prefecture_code":14},"0044":{"zip_code":"2310044","prefecture":"神奈川県","prefecture_kana":"カナガワケン","city":"横浜市中区","city_kana":"ヨコハマシナカク","town":"福富町東通","town_kana":"フクトミチョウヒガシドオリ","prefecture_code":14},"0042":{"zip_code":"2310042","prefecture":"神奈川県","prefecture_kana":"カナガワケン","city":"横浜市中区","city_kana":"ヨコハマシナカク","town":"福富町西通","town_kana":"フクトミチョウニシドオリ","prefecture_code":14},"0037":{"zip_code":"2310037","prefecture":"神奈川県","prefecture_kana":"カナガワケン","city":"横浜市中区","city_kana":"ヨコハマシナカク","town":"富士見町","town_kana":"フジミチョウ","prefecture_code":14},"0032":{"zip_code":"2310032","prefecture":"神奈川県","prefecture_kana":"カナガワケン","city":"横浜市中区","city_kana":"ヨコハマシナカク","town":"不老町","town_kana":"フロウチョウ","prefecture_code":14},"0007":{"zip_code":"2310007","prefecture":"神奈川県","prefecture_kana":"カナガワケン","city":"横浜市中区","city_kana":"ヨコハマシナカク","town":"弁天通","town_kana":"ベンテンドオリ","prefecture_code":14},"0048":{"zip_code":"2310048","prefecture":"神奈川県","prefecture_kana":"カナガワケン","city":"横浜市中区","city_kana":"ヨコハマシナカク","town":"蓬莱町","town_kana":"ホウライチョウ","prefecture_code":14},"0843":{"zip_code":"2310843","prefecture":"神奈川県","prefecture_kana":"カナガワケン","city":"横浜市中区","city_kana":"ヨコハマシナカク","town":"本郷町","town_kana":"ホンゴウチョウ","prefecture_code":14},"0005":{"zip_code":"2310005","prefecture":"神奈川県","prefecture_kana":"カナガワケン","city":"横浜市中区","city_kana":"ヨコハマシナカク","town":"本町","town_kana":"ホンチョウ","prefecture_code":14},"0826":{"zip_code":"2310826","prefecture":"神奈川県","prefecture_kana":"カナガワケン","city":"横浜市中区","city_kana":"ヨコハマシナカク","town":"本牧荒井","town_kana":"ホンモクアライ","prefecture_code":14},"0823":{"zip_code":"2310823","prefecture":"神奈川県","prefecture_kana":"カナガワケン","city":"横浜市中区","city_kana":"ヨコハマシナカク","town":"本牧大里町","town_kana":"ホンモクオオサトチョウ","prefecture_code":14},"0824":{"zip_code":"2310824","prefecture":"神奈川県","prefecture_kana":"カナガワケン","city":"横浜市中区","city_kana":"ヨコハマシナカク","town":"本牧三之谷","town_kana":"ホンモクサンノタニ","prefecture_code":14},"0803":{"zip_code":"2310803","prefecture":"神奈川県","prefecture_kana":"カナガワケン","city":"横浜市中区","city_kana":"ヨコハマシナカク","town":"本牧十二天","town_kana":"ホンモクジュウニテン","prefecture_code":14},"0821":{"zip_code":"2310821","prefecture":"神奈川県","prefecture_kana":"カナガワケン","city":"横浜市中区","city_kana":"ヨコハマシナカク","town":"本牧原","town_kana":"ホンモクハラ","prefecture_code":14},"0811":{"zip_code":"2310811","prefecture":"神奈川県","prefecture_kana":"カナガワケン","city":"横浜市中区","city_kana":"ヨコハマシナカク","town":"本牧ふ頭","town_kana":"ホンモクフトウ","prefecture_code":14},"0825":{"zip_code":"2310825","prefecture":"神奈川県","prefecture_kana":"カナガワケン","city":"横浜市中区","city_kana":"ヨコハマシナカク","town":"本牧間門","town_kana":"ホンモクマカド","prefecture_code":14},"0833":{"zip_code":"2310833","prefecture":"神奈川県","prefecture_kana":"カナガワケン","city":"横浜市中区","city_kana":"ヨコハマシナカク","town":"本牧満坂","town_kana":"ホンモクマンザカ","prefecture_code":14},"0832":{"zip_code":"2310832","prefecture":"神奈川県","prefecture_kana":"カナガワケン","city":"横浜市中区","city_kana":"ヨコハマシナカク","town":"本牧緑ケ丘","town_kana":"ホンモクミドリガオカ","prefecture_code":14},"0804":{"zip_code":"2310804","prefecture":"神奈川県","prefecture_kana":"カナガワケン","city":"横浜市中区","city_kana":"ヨコハマシナカク","town":"本牧宮原","town_kana":"ホンモクミヤバラ","prefecture_code":14},"0822":{"zip_code":"2310822","prefecture":"神奈川県","prefecture_kana":"カナガワケン","city":"横浜市中区","city_kana":"ヨコハマシナカク","town":"本牧元町","town_kana":"ホンモクモトマチ","prefecture_code":14},"0827":{"zip_code":"2310827","prefecture":"神奈川県","prefecture_kana":"カナガワケン","city":"横浜市中区","city_kana":"ヨコハマシナカク","town":"本牧和田","town_kana":"ホンモクワダ","prefecture_code":14},"0806":{"zip_code":"2310806","prefecture":"神奈川県","prefecture_kana":"カナガワケン","city":"横浜市中区","city_kana":"ヨコハマシナカク","town":"本牧町","town_kana":"ホンモクチョウ","prefecture_code":14},"0016":{"zip_code":"2310016","prefecture":"神奈川県","prefecture_kana":"カナガワケン","city":"横浜市中区","city_kana":"ヨコハマシナカク","town":"真砂町","town_kana":"マサゴチョウ","prefecture_code":14},"0025":{"zip_code":"2310025","prefecture":"神奈川県","prefecture_kana":"カナガワケン","city":"横浜市中区","city_kana":"ヨコハマシナカク","town":"松影町","town_kana":"マツカゲチョウ","prefecture_code":14},"0838":{"zip_code":"2310838","prefecture":"神奈川県","prefecture_kana":"カナガワケン","city":"横浜市中区","city_kana":"ヨコハマシナカク","town":"豆口台","town_kana":"マメグチダイ","prefecture_code":14},"0017":{"zip_code":"2310017","prefecture":"神奈川県","prefecture_kana":"カナガワケン","city":"横浜市中区","city_kana":"ヨコハマシナカク","town":"港町","town_kana":"ミナトチョウ","prefecture_code":14},"0006":{"zip_code":"2310006","prefecture":"神奈川県","prefecture_kana":"カナガワケン","city":"横浜市中区","city_kana":"ヨコハマシナカク","town":"南仲通","town_kana":"ミナミナカドオリ","prefecture_code":14},"0816":{"zip_code":"2310816","prefecture":"神奈川県","prefecture_kana":"カナガワケン","city":"横浜市中区","city_kana":"ヨコハマシナカク","town":"南本牧","town_kana":"ミナミホンモク","prefecture_code":14},"0856":{"zip_code":"2310856","prefecture":"神奈川県","prefecture_kana":"カナガワケン","city":"横浜市中区","city_kana":"ヨコハマシナカク","town":"簑沢","town_kana":"ミノサワ","prefecture_code":14},"0065":{"zip_code":"2310065","prefecture":"神奈川県","prefecture_kana":"カナガワケン","city":"横浜市中区","city_kana":"ヨコハマシナカク","town":"宮川町","town_kana":"ミヤガワチョウ","prefecture_code":14},"0841":{"zip_code":"2310841","prefecture":"神奈川県","prefecture_kana":"カナガワケン","city":"横浜市中区","city_kana":"ヨコハマシナカク","town":"妙香寺台","town_kana":"ミョウコウジダイ","prefecture_code":14},"0034":{"zip_code":"2310034","prefecture":"神奈川県","prefecture_kana":"カナガワケン","city":"横浜市中区","city_kana":"ヨコハマシナカク","town":"三吉町","town_kana":"ミヨシチョウ","prefecture_code":14},"0849":{"zip_code":"2310849","prefecture":"神奈川県","prefecture_kana":"カナガワケン","city":"横浜市中区","city_kana":"ヨコハマシナカク","town":"麦田町","town_kana":"ムギタチョウ","prefecture_code":14},"0004":{"zip_code":"2310004","prefecture":"神奈川県","prefecture_kana":"カナガワケン","city":"横浜市中区","city_kana":"ヨコハマシナカク","town":"元浜町","town_kana":"モトハマチョウ","prefecture_code":14},"0861":{"zip_code":"2310861","prefecture":"神奈川県","prefecture_kana":"カナガワケン","city":"横浜市中区","city_kana":"ヨコハマシナカク","town":"元町","town_kana":"モトマチ","prefecture_code":14},"0831":{"zip_code":"2310831","prefecture":"神奈川県","prefecture_kana":"カナガワケン","city":"横浜市中区","city_kana":"ヨコハマシナカク","town":"矢口台","town_kana":"ヤグチダイ","prefecture_code":14},"0023":{"zip_code":"2310023","prefecture":"神奈川県","prefecture_kana":"カナガワケン","city":"横浜市中区","city_kana":"ヨコハマシナカク","town":"山下町","town_kana":"ヤマシタチョウ","prefecture_code":14},"0036":{"zip_code":"2310036","prefecture":"神奈川県","prefecture_kana":"カナガワケン","city":"横浜市中区","city_kana":"ヨコハマシナカク","town":"山田町","town_kana":"ヤマダチョウ","prefecture_code":14},"0862":{"zip_code":"2310862","prefecture":"神奈川県","prefecture_kana":"カナガワケン","city":"横浜市中区","city_kana":"ヨコハマシナカク","town":"山手町","town_kana":"ヤマテチョウ","prefecture_code":14},"0846":{"zip_code":"2310846","prefecture":"神奈川県","prefecture_kana":"カナガワケン","city":"横浜市中区","city_kana":"ヨコハマシナカク","town":"大和町","town_kana":"ヤマトチョウ","prefecture_code":14},"0038":{"zip_code":"2310038","prefecture":"神奈川県","prefecture_kana":"カナガワケン","city":"横浜市中区","city_kana":"ヨコハマシナカク","town":"山吹町","town_kana":"ヤマブキチョウ","prefecture_code":14},"0851":{"zip_code":"2310851","prefecture":"神奈川県","prefecture_kana":"カナガワケン","city":"横浜市中区","city_kana":"ヨコハマシナカク","town":"山元町","town_kana":"ヤマモトチョウ","prefecture_code":14},"0058":{"zip_code":"2310058","prefecture":"神奈川県","prefecture_kana":"カナガワケン","city":"横浜市中区","city_kana":"ヨコハマシナカク","town":"弥生町","town_kana":"ヤヨイチョウ","prefecture_code":14},"0022":{"zip_code":"2310022","prefecture":"神奈川県","prefecture_kana":"カナガワケン","city":"横浜市中区","city_kana":"ヨコハマシナカク","town":"横浜公園","town_kana":"ヨコハマコウエン","prefecture_code":14},"0041":{"zip_code":"2310041","prefecture":"神奈川県","prefecture_kana":"カナガワケン","city":"横浜市中区","city_kana":"ヨコハマシナカク","town":"吉田町","town_kana":"ヨシダマチ","prefecture_code":14},"0024":{"zip_code":"2310024","prefecture":"神奈川県","prefecture_kana":"カナガワケン","city":"横浜市中区","city_kana":"ヨコハマシナカク","town":"吉浜町","town_kana":"ヨシハマチョウ","prefecture_code":14},"0056":{"zip_code":"2310056","prefecture":"神奈川県","prefecture_kana":"カナガワケン","city":"横浜市中区","city_kana":"ヨコハマシナカク","town":"若葉町","town_kana":"ワカバチョウ","prefecture_code":14},"0805":{"zip_code":"2310805","prefecture":"神奈川県","prefecture_kana":"カナガワケン","city":"横浜市中区","city_kana":"ヨコハマシナカク","town":"和田山","town_kana":"ワダヤマ","prefecture_code":14}}