{"0000":{"zip_code":"2320000","prefecture":"神奈川県","prefecture_kana":"カナガワケン","city":"横浜市南区","city_kana":"ヨコハマシミナミク","town":"","town_kana":"","prefecture_code":14},"0051":{"zip_code":"2320051","prefecture":"神奈川県","prefecture_kana":"カナガワケン","city":"横浜市南区","city_kana":"ヨコハマシミナミク","town":"井土ケ谷上町","town_kana":"イドガヤカミマチ","prefecture_code":14},"0052":{"zip_code":"2320052","prefecture":"神奈川県","prefecture_kana":"カナガワケン","city":"横浜市南区","city_kana":"ヨコハマシミナミク","town":"井土ケ谷中町","town_kana":"イドガヤナカマチ","prefecture_code":14},"0053":{"zip_code":"2320053","prefecture":"神奈川県","prefecture_kana":"カナガワケン","city":"横浜市南区","city_kana":"ヨコハマシミナミク","town":"井土ケ谷下町","town_kana":"イドガヤシモマチ","prefecture_code":14},"0024":{"zip_code":"2320024","prefecture":"神奈川県","prefecture_kana":"カナガワケン","city":"横浜市南区","city_kana":"ヨコハマシミナミク","town":"浦舟町","town_kana":"ウラフネチョウ","prefecture_code":14},"0031":{"zip_code":"2320031","prefecture":"神奈川県","prefecture_kana":"カナガワケン","city":"横浜市南区","city_kana":"ヨコハマシミナミク","town":"永楽町","town_kana":"エイラクチョウ","prefecture_code":14},"0044":{"zip_code":"2320044","prefecture":"神奈川県","prefecture_kana":"カナガワケン","city":"横浜市南区","city_kana":"ヨコハマシミナミク","town":"榎町","town_kana":"エノキチョウ","prefecture_code":14},"0061":{"zip_code":"2320061","prefecture":"神奈川県","prefecture_kana":"カナガワケン","city":"横浜市南区","city_kana":"ヨコハマシミナミク","town":"大岡","town_kana":"オオオカ","prefecture_code":14},"0054":{"zip_code":"2320054","prefecture":"神奈川県","prefecture_kana":"カナガワケン","city":"横浜市南区","city_kana":"ヨコハマシミナミク","town":"大橋町","town_kana":"オオハシチョウ","prefecture_code":14},"0008":{"zip_code":"2320008","prefecture":"神奈川県","prefecture_kana":"カナガワケン","city":"横浜市南区","city_kana":"ヨコハマシミナミク","town":"庚台","town_kana":"カノエダイ","prefecture_code":14},"0034":{"zip_code":"2320034","prefecture":"神奈川県","prefecture_kana":"カナガワケン","city":"横浜市南区","city_kana":"ヨコハマシミナミク","town":"唐沢","town_kana":"カラサワ","prefecture_code":14},"0015":{"zip_code":"2320015","prefecture":"神奈川県","prefecture_kana":"カナガワケン","city":"横浜市南区","city_kana":"ヨコハマシミナミク","town":"共進町","town_kana":"キョウシンチョウ","prefecture_code":14},"0067":{"zip_code":"2320067","prefecture":"神奈川県","prefecture_kana":"カナガワケン","city":"横浜市南区","city_kana":"ヨコハマシミナミク","town":"弘明寺町","town_kana":"グミョウジチョウ","prefecture_code":14},"0013":{"zip_code":"2320013","prefecture":"神奈川県","prefecture_kana":"カナガワケン","city":"横浜市南区","city_kana":"ヨコハマシミナミク","town":"山王町","town_kana":"サンノウチョウ","prefecture_code":14},"0036":{"zip_code":"2320036","prefecture":"神奈川県","prefecture_kana":"カナガワケン","city":"横浜市南区","city_kana":"ヨコハマシミナミク","town":"山谷","town_kana":"サンヤ","prefecture_code":14},"0007":{"zip_code":"2320007","prefecture":"神奈川県","prefecture_kana":"カナガワケン","city":"横浜市南区","city_kana":"ヨコハマシミナミク","town":"清水ケ丘","town_kana":"シミズガオカ","prefecture_code":14},"0017":{"zip_code":"2320017","prefecture":"神奈川県","prefecture_kana":"カナガワケン","city":"横浜市南区","city_kana":"ヨコハマシミナミク","town":"宿町","town_kana":"シュクチョウ","prefecture_code":14},"0005":{"zip_code":"2320005","prefecture":"神奈川県","prefecture_kana":"カナガワケン","city":"横浜市南区","city_kana":"ヨコハマシミナミク","town":"白金町","town_kana":"シロガネチョウ","prefecture_code":14},"0023":{"zip_code":"2320023","prefecture":"神奈川県","prefecture_kana":"カナガワケン","city":"横浜市南区","city_kana":"ヨコハマシミナミク","town":"白妙町","town_kana":"シロタエチョウ","prefecture_code":14},"0027":{"zip_code":"2320027","prefecture":"神奈川県","prefecture_kana":"カナガワケン","city":"横浜市南区","city_kana":"ヨコハマシミナミク","town":"新川町","town_kana":"シンカワチョウ","prefecture_code":14},"0025":{"zip_code":"2320025","prefecture":"神奈川県","prefecture_kana":"カナガワケン","city":"横浜市南区","city_kana":"ヨコハマシミナミク","town":"高砂町","town_kana":"タカサゴチョウ","prefecture_code":14},"0022":{"zip_code":"2320022","prefecture":"神奈川県","prefecture_kana":"カナガワケン","city":"横浜市南区","city_kana":"ヨコハマシミナミク","town":"高根町","town_kana":"タカネチョウ","prefecture_code":14},"0056":{"zip_code":"2320056","prefecture":"神奈川県","prefecture_kana":"カナガワケン","city":"横浜市南区","city_kana":"ヨコハマシミナミク","town":"通町","town_kana":"トオリチョウ","prefecture_code":14},"0063":{"zip_code":"2320063","prefecture":"神奈川県","prefecture_kana":"カナガワケン","city":"横浜市南区","city_kana":"ヨコハマシミナミク","town":"中里","town_kana":"ナカザト","prefecture_code":14},"0062":{"zip_code":"2320062","prefecture":"神奈川県","prefecture_kana":"カナガワケン","city":"横浜市南区","city_kana":"ヨコハマシミナミク","town":"中里町","town_kana":"ナカザトチョウ","prefecture_code":14},"0055":{"zip_code":"2320055","prefecture":"神奈川県","prefecture_kana":"カナガワケン","city":"横浜市南区","city_kana":"ヨコハマシミナミク","town":"中島町","town_kana":"ナカジマチョウ","prefecture_code":14},"0033":{"zip_code":"2320033","prefecture":"神奈川県","prefecture_kana":"カナガワケン","city":"横浜市南区","city_kana":"ヨコハマシミナミク","town":"中村町","town_kana":"ナカムラチョウ","prefecture_code":14},"0074":{"zip_code":"2320074","prefecture":"神奈川県","prefecture_kana":"カナガワケン","city":"横浜市南区","city_kana":"ヨコハマシミナミク","town":"永田山王台","town_kana":"ナガタサンノウダイ","prefecture_code":14},"0076":{"zip_code":"2320076","prefecture":"神奈川県","prefecture_kana":"カナガワケン","city":"横浜市南区","city_kana":"ヨコハマシミナミク","town":"永田台","town_kana":"ナガタダイ","prefecture_code":14},"0075":{"zip_code":"2320075","prefecture":"神奈川県","prefecture_kana":"カナガワケン","city":"横浜市南区","city_kana":"ヨコハマシミナミク","town":"永田みなみ台","town_kana":"ナガタミナミダイ","prefecture_code":14},"0072":{"zip_code":"2320072","prefecture":"神奈川県","prefecture_kana":"カナガワケン","city":"横浜市南区","city_kana":"ヨコハマシミナミク","town":"永田東","town_kana":"ナガタヒガシ","prefecture_code":14},"0073":{"zip_code":"2320073","prefecture":"神奈川県","prefecture_kana":"カナガワケン","city":"横浜市南区","city_kana":"ヨコハマシミナミク","town":"永田南","town_kana":"ナガタミナミ","prefecture_code":14},"0071":{"zip_code":"2320071","prefecture":"神奈川県","prefecture_kana":"カナガワケン","city":"横浜市南区","city_kana":"ヨコハマシミナミク","town":"永田北","town_kana":"ナガタキタ","prefecture_code":14},"0003":{"zip_code":"2320003","prefecture":"神奈川県","prefecture_kana":"カナガワケン","city":"横浜市南区","city_kana":"ヨコハマシミナミク","town":"西中町","town_kana":"ニシナカチョウ","prefecture_code":14},"0037":{"zip_code":"2320037","prefecture":"神奈川県","prefecture_kana":"カナガワケン","city":"横浜市南区","city_kana":"ヨコハマシミナミク","town":"八幡町","town_kana":"ハチマンチョウ","prefecture_code":14},"0018":{"zip_code":"2320018","prefecture":"神奈川県","prefecture_kana":"カナガワケン","city":"横浜市南区","city_kana":"ヨコハマシミナミク","town":"花之木町","town_kana":"ハナノキチョウ","prefecture_code":14},"0011":{"zip_code":"2320011","prefecture":"神奈川県","prefecture_kana":"カナガワケン","city":"横浜市南区","city_kana":"ヨコハマシミナミク","town":"日枝町","town_kana":"ヒエチョウ","prefecture_code":14},"0045":{"zip_code":"2320045","prefecture":"神奈川県","prefecture_kana":"カナガワケン","city":"横浜市南区","city_kana":"ヨコハマシミナミク","town":"東蒔田町","town_kana":"ヒガシマイタマチ","prefecture_code":14},"0001":{"zip_code":"2320001","prefecture":"神奈川県","prefecture_kana":"カナガワケン","city":"横浜市南区","city_kana":"ヨコハマシミナミク","town":"伏見町","town_kana":"フシミチョウ","prefecture_code":14},"0026":{"zip_code":"2320026","prefecture":"神奈川県","prefecture_kana":"カナガワケン","city":"横浜市南区","city_kana":"ヨコハマシミナミク","town":"二葉町","town_kana":"フタバチョウ","prefecture_code":14},"0035":{"zip_code":"2320035","prefecture":"神奈川県","prefecture_kana":"カナガワケン","city":"横浜市南区","city_kana":"ヨコハマシミナミク","town":"平楽","town_kana":"ヘイラク","prefecture_code":14},"0064":{"zip_code":"2320064","prefecture":"神奈川県","prefecture_kana":"カナガワケン","city":"横浜市南区","city_kana":"ヨコハマシミナミク","town":"別所","town_kana":"ベッショ","prefecture_code":14},"0065":{"zip_code":"2320065","prefecture":"神奈川県","prefecture_kana":"カナガワケン","city":"横浜市南区","city_kana":"ヨコハマシミナミク","town":"別所中里台","town_kana":"ベッショナカザトダイ","prefecture_code":14},"0042":{"zip_code":"2320042","prefecture":"神奈川県","prefecture_kana":"カナガワケン","city":"横浜市南区","city_kana":"ヨコハマシミナミク","town":"堀ノ内町","town_kana":"ホリノウチチョウ","prefecture_code":14},"0043":{"zip_code":"2320043","prefecture":"神奈川県","prefecture_kana":"カナガワケン","city":"横浜市南区","city_kana":"ヨコハマシミナミク","town":"蒔田町","town_kana":"マイタチョウ","prefecture_code":14},"0004":{"zip_code":"2320004","prefecture":"神奈川県","prefecture_kana":"カナガワケン","city":"横浜市南区","city_kana":"ヨコハマシミナミク","town":"前里町","town_kana":"マエサトチョウ","prefecture_code":14},"0021":{"zip_code":"2320021","prefecture":"神奈川県","prefecture_kana":"カナガワケン","city":"横浜市南区","city_kana":"ヨコハマシミナミク","town":"真金町","town_kana":"マガネチョウ","prefecture_code":14},"0032":{"zip_code":"2320032","prefecture":"神奈川県","prefecture_kana":"カナガワケン","city":"横浜市南区","city_kana":"ヨコハマシミナミク","town":"万世町","town_kana":"マンセイチョウ","prefecture_code":14},"0006":{"zip_code":"2320006","prefecture":"神奈川県","prefecture_kana":"カナガワケン","city":"横浜市南区","city_kana":"ヨコハマシミナミク","town":"南太田","town_kana":"ミナミオオタ","prefecture_code":14},"0012":{"zip_code":"2320012","prefecture":"神奈川県","prefecture_kana":"カナガワケン","city":"横浜市南区","city_kana":"ヨコハマシミナミク","town":"南吉田町","town_kana":"ミナミヨシダチョウ","prefecture_code":14},"0002":{"zip_code":"2320002","prefecture":"神奈川県","prefecture_kana":"カナガワケン","city":"横浜市南区","city_kana":"ヨコハマシミナミク","town":"三春台","town_kana":"ミハルダイ","prefecture_code":14},"0016":{"zip_code":"2320016","prefecture":"神奈川県","prefecture_kana":"カナガワケン","city":"横浜市南区","city_kana":"ヨコハマシミナミク","town":"宮元町","town_kana":"ミヤモトチョウ","prefecture_code":14},"0066":{"zip_code":"2320066","prefecture":"神奈川県","prefecture_kana":"カナガワケン","city":"横浜市南区","city_kana":"ヨコハマシミナミク","town":"六ツ川","town_kana":"ムツカワ","prefecture_code":14},"0041":{"zip_code":"2320041","prefecture":"神奈川県","prefecture_kana":"カナガワケン","city":"横浜市南区","city_kana":"ヨコハマシミナミク","town":"睦町","town_kana":"ムツミチョウ","prefecture_code":14},"0014":{"zip_code":"2320014","prefecture":"神奈川県","prefecture_kana":"カナガワケン","city":"横浜市南区","city_kana":"ヨコハマシミナミク","town":"吉野町","town_kana":"ヨシノチョウ","prefecture_code":14},"0057":{"zip_code":"2320057","prefecture":"神奈川県","prefecture_kana":"カナガワケン","city":"横浜市南区","city_kana":"ヨコハマシミナミク","town":"若宮町","town_kana":"ワカミヤチョウ","prefecture_code":14}}