{"0000":{"zip_code":"2330000","prefecture":"神奈川県","prefecture_kana":"カナガワケン","city":"横浜市港南区","city_kana":"ヨコハマシコウナンク","town":"以下に掲載がない場合","town_kana":"イカニケイサイガナイバアイ","prefecture_code":14},"0007":{"zip_code":"2330007","prefecture":"神奈川県","prefecture_kana":"カナガワケン","city":"横浜市港南区","city_kana":"ヨコハマシコウナンク","town":"大久保","town_kana":"オオクボ","prefecture_code":14},"0001":{"zip_code":"2330001","prefecture":"神奈川県","prefecture_kana":"カナガワケン","city":"横浜市港南区","city_kana":"ヨコハマシコウナンク","town":"上大岡東","town_kana":"カミオオオカヒガシ","prefecture_code":14},"0002":{"zip_code":"2330002","prefecture":"神奈川県","prefecture_kana":"カナガワケン","city":"横浜市港南区","city_kana":"ヨコハマシコウナンク","town":"上大岡西","town_kana":"カミオオオカニシ","prefecture_code":14},"0012":{"zip_code":"2330012","prefecture":"神奈川県","prefecture_kana":"カナガワケン","city":"横浜市港南区","city_kana":"ヨコハマシコウナンク","town":"上永谷","town_kana":"カミナガヤ","prefecture_code":14},"0014":{"zip_code":"2330014","prefecture":"神奈川県","prefecture_kana":"カナガワケン","city":"横浜市港南区","city_kana":"ヨコハマシコウナンク","town":"上永谷町","town_kana":"カミナガヤチョウ","prefecture_code":14},"0003":{"zip_code":"2330003","prefecture":"神奈川県","prefecture_kana":"カナガワケン","city":"横浜市港南区","city_kana":"ヨコハマシコウナンク","town":"港南","town_kana":"コウナン","prefecture_code":14},"0004":{"zip_code":"2330004","prefecture":"神奈川県","prefecture_kana":"カナガワケン","city":"横浜市港南区","city_kana":"ヨコハマシコウナンク","town":"港南中央通","town_kana":"コウナンチュウオウドオリ","prefecture_code":14},"0008":{"zip_code":"2330008","prefecture":"神奈川県","prefecture_kana":"カナガワケン","city":"横浜市港南区","city_kana":"ヨコハマシコウナンク","town":"最戸","town_kana":"サイド","prefecture_code":14},"0016":{"zip_code":"2330016","prefecture":"神奈川県","prefecture_kana":"カナガワケン","city":"横浜市港南区","city_kana":"ヨコハマシコウナンク","town":"下永谷","town_kana":"シモナガヤ","prefecture_code":14},"0006":{"zip_code":"2330006","prefecture":"神奈川県","prefecture_kana":"カナガワケン","city":"横浜市港南区","city_kana":"ヨコハマシコウナンク","town":"芹が谷","town_kana":"セリガヤ","prefecture_code":14},"0005":{"zip_code":"2330005","prefecture":"神奈川県","prefecture_kana":"カナガワケン","city":"横浜市港南区","city_kana":"ヨコハマシコウナンク","town":"東芹が谷","town_kana":"ヒガシセリガヤ","prefecture_code":14},"0011":{"zip_code":"2330011","prefecture":"神奈川県","prefecture_kana":"カナガワケン","city":"横浜市港南区","city_kana":"ヨコハマシコウナンク","town":"東永谷","town_kana":"ヒガシナガヤ","prefecture_code":14},"0015":{"zip_code":"2330015","prefecture":"神奈川県","prefecture_kana":"カナガワケン","city":"横浜市港南区","city_kana":"ヨコハマシコウナンク","town":"日限山","town_kana":"ヒギリヤマ","prefecture_code":14},"0013":{"zip_code":"2330013","prefecture":"神奈川県","prefecture_kana":"カナガワケン","city":"横浜市港南区","city_kana":"ヨコハマシコウナンク","town":"丸山台","town_kana":"マルヤマダイ","prefecture_code":14}}