{"0000":{"zip_code":"2350000","prefecture":"神奈川県","prefecture_kana":"カナガワケン","city":"横浜市磯子区","city_kana":"ヨコハマシイソゴク","town":"以下に掲載がない場合","town_kana":"イカニケイサイガナイバアイ","prefecture_code":14},"0016":{"zip_code":"2350016","prefecture":"神奈川県","prefecture_kana":"カナガワケン","city":"横浜市磯子区","city_kana":"ヨコハマシイソゴク","town":"磯子","town_kana":"イソゴ","prefecture_code":14},"0019":{"zip_code":"2350019","prefecture":"神奈川県","prefecture_kana":"カナガワケン","city":"横浜市磯子区","city_kana":"ヨコハマシイソゴク","town":"磯子台","town_kana":"イソゴダイ","prefecture_code":14},"0006":{"zip_code":"2350006","prefecture":"神奈川県","prefecture_kana":"カナガワケン","city":"横浜市磯子区","city_kana":"ヨコハマシイソゴク","town":"鳳町","town_kana":"オオトリチョウ","prefecture_code":14},"0021":{"zip_code":"2350021","prefecture":"神奈川県","prefecture_kana":"カナガワケン","city":"横浜市磯子区","city_kana":"ヨコハマシイソゴク","town":"岡村","town_kana":"オカムラ","prefecture_code":14},"0001":{"zip_code":"2350001","prefecture":"神奈川県","prefecture_kana":"カナガワケン","city":"横浜市磯子区","city_kana":"ヨコハマシイソゴク","town":"上町","town_kana":"カミチョウ","prefecture_code":14},"0042":{"zip_code":"2350042","prefecture":"神奈川県","prefecture_kana":"カナガワケン","city":"横浜市磯子区","city_kana":"ヨコハマシイソゴク","town":"上中里町","town_kana":"カミナカザトチョウ","prefecture_code":14},"0041":{"zip_code":"2350041","prefecture":"神奈川県","prefecture_kana":"カナガワケン","city":"横浜市磯子区","city_kana":"ヨコハマシイソゴク","town":"栗木","town_kana":"クリキ","prefecture_code":14},"0003":{"zip_code":"2350003","prefecture":"神奈川県","prefecture_kana":"カナガワケン","city":"横浜市磯子区","city_kana":"ヨコハマシイソゴク","town":"坂下町","town_kana":"サカシタチョウ","prefecture_code":14},"0022":{"zip_code":"2350022","prefecture":"神奈川県","prefecture_kana":"カナガワケン","city":"横浜市磯子区","city_kana":"ヨコハマシイソゴク","town":"汐見台","town_kana":"シオミダイ","prefecture_code":14},"0004":{"zip_code":"2350004","prefecture":"神奈川県","prefecture_kana":"カナガワケン","city":"横浜市磯子区","city_kana":"ヨコハマシイソゴク","town":"下町","town_kana":"シモチョウ","prefecture_code":14},"0017":{"zip_code":"2350017","prefecture":"神奈川県","prefecture_kana":"カナガワケン","city":"横浜市磯子区","city_kana":"ヨコハマシイソゴク","town":"新磯子町","town_kana":"シンイソゴチョウ","prefecture_code":14},"0032":{"zip_code":"2350032","prefecture":"神奈川県","prefecture_kana":"カナガワケン","city":"横浜市磯子区","city_kana":"ヨコハマシイソゴク","town":"新杉田町","town_kana":"シンスギタチョウ","prefecture_code":14},"0031":{"zip_code":"2350031","prefecture":"神奈川県","prefecture_kana":"カナガワケン","city":"横浜市磯子区","city_kana":"ヨコハマシイソゴク","town":"新中原町","town_kana":"シンナカハラチョウ","prefecture_code":14},"0018":{"zip_code":"2350018","prefecture":"神奈川県","prefecture_kana":"カナガワケン","city":"横浜市磯子区","city_kana":"ヨコハマシイソゴク","town":"新森町","town_kana":"シンモリチョウ","prefecture_code":14},"0033":{"zip_code":"2350033","prefecture":"神奈川県","prefecture_kana":"カナガワケン","city":"横浜市磯子区","city_kana":"ヨコハマシイソゴク","town":"杉田","town_kana":"スギタ","prefecture_code":14},"0034":{"zip_code":"2350034","prefecture":"神奈川県","prefecture_kana":"カナガワケン","city":"横浜市磯子区","city_kana":"ヨコハマシイソゴク","town":"杉田坪呑","town_kana":"スギタツボノミ","prefecture_code":14},"0012":{"zip_code":"2350012","prefecture":"神奈川県","prefecture_kana":"カナガワケン","city":"横浜市磯子区","city_kana":"ヨコハマシイソゴク","town":"滝頭","town_kana":"タキガシラ","prefecture_code":14},"0035":{"zip_code":"2350035","prefecture":"神奈川県","prefecture_kana":"カナガワケン","city":"横浜市磯子区","city_kana":"ヨコハマシイソゴク","town":"田中","town_kana":"タナカ","prefecture_code":14},"0014":{"zip_code":"2350014","prefecture":"神奈川県","prefecture_kana":"カナガワケン","city":"横浜市磯子区","city_kana":"ヨコハマシイソゴク","town":"中浜町","town_kana":"ナカハマチョウ","prefecture_code":14},"0036":{"zip_code":"2350036","prefecture":"神奈川県","prefecture_kana":"カナガワケン","city":"横浜市磯子区","city_kana":"ヨコハマシイソゴク","town":"中原","town_kana":"ナカハラ","prefecture_code":14},"0007":{"zip_code":"2350007","prefecture":"神奈川県","prefecture_kana":"カナガワケン","city":"横浜市磯子区","city_kana":"ヨコハマシイソゴク","town":"西町","town_kana":"ニシチョウ","prefecture_code":14},"0002":{"zip_code":"2350002","prefecture":"神奈川県","prefecture_kana":"カナガワケン","city":"横浜市磯子区","city_kana":"ヨコハマシイソゴク","town":"馬場町","town_kana":"ババチョウ","prefecture_code":14},"0008":{"zip_code":"2350008","prefecture":"神奈川県","prefecture_kana":"カナガワケン","city":"横浜市磯子区","city_kana":"ヨコハマシイソゴク","town":"原町","town_kana":"ハラマチ","prefecture_code":14},"0005":{"zip_code":"2350005","prefecture":"神奈川県","prefecture_kana":"カナガワケン","city":"横浜市磯子区","city_kana":"ヨコハマシイソゴク","town":"東町","town_kana":"ヒガシチョウ","prefecture_code":14},"0015":{"zip_code":"2350015","prefecture":"神奈川県","prefecture_kana":"カナガワケン","city":"横浜市磯子区","city_kana":"ヨコハマシイソゴク","town":"久木町","town_kana":"ヒサキチョウ","prefecture_code":14},"0043":{"zip_code":"2350043","prefecture":"神奈川県","prefecture_kana":"カナガワケン","city":"横浜市磯子区","city_kana":"ヨコハマシイソゴク","town":"氷取沢町","town_kana":"ヒトリザワチョウ","prefecture_code":14},"0013":{"zip_code":"2350013","prefecture":"神奈川県","prefecture_kana":"カナガワケン","city":"横浜市磯子区","city_kana":"ヨコハマシイソゴク","town":"広地町","town_kana":"ヒロチチョウ","prefecture_code":14},"0011":{"zip_code":"2350011","prefecture":"神奈川県","prefecture_kana":"カナガワケン","city":"横浜市磯子区","city_kana":"ヨコハマシイソゴク","town":"丸山","town_kana":"マルヤマ","prefecture_code":14},"0044":{"zip_code":"2350044","prefecture":"神奈川県","prefecture_kana":"カナガワケン","city":"横浜市磯子区","city_kana":"ヨコハマシイソゴク","town":"峰町","town_kana":"ミネチョウ","prefecture_code":14},"0023":{"zip_code":"2350023","prefecture":"神奈川県","prefecture_kana":"カナガワケン","city":"横浜市磯子区","city_kana":"ヨコハマシイソゴク","town":"森","town_kana":"モリ","prefecture_code":14},"0024":{"zip_code":"2350024","prefecture":"神奈川県","prefecture_kana":"カナガワケン","city":"横浜市磯子区","city_kana":"ヨコハマシイソゴク","town":"森が丘","town_kana":"モリガオカ","prefecture_code":14},"0045":{"zip_code":"2350045","prefecture":"神奈川県","prefecture_kana":"カナガワケン","city":"横浜市磯子区","city_kana":"ヨコハマシイソゴク","town":"洋光台","town_kana":"ヨウコウダイ","prefecture_code":14}}