{"0000":{"zip_code":"2360000","prefecture":"神奈川県","prefecture_kana":"カナガワケン","city":"横浜市金沢区","city_kana":"ヨコハマシカナザワク","town":"","town_kana":"","prefecture_code":14},"0034":{"zip_code":"2360034","prefecture":"神奈川県","prefecture_kana":"カナガワケン","city":"横浜市金沢区","city_kana":"ヨコハマシカナザワク","town":"朝比奈町","town_kana":"アサヒナチョウ","prefecture_code":14},"0013":{"zip_code":"2360013","prefecture":"神奈川県","prefecture_kana":"カナガワケン","city":"横浜市金沢区","city_kana":"ヨコハマシカナザワク","town":"海の公園","town_kana":"ウミノコウエン","prefecture_code":14},"0043":{"zip_code":"2360043","prefecture":"神奈川県","prefecture_kana":"カナガワケン","city":"横浜市金沢区","city_kana":"ヨコハマシカナザワク","town":"大川","town_kana":"オオカワ","prefecture_code":14},"0024":{"zip_code":"2360024","prefecture":"神奈川県","prefecture_kana":"カナガワケン","city":"横浜市金沢区","city_kana":"ヨコハマシカナザワク","town":"乙舳町","town_kana":"オツトモチョウ","prefecture_code":14},"0055":{"zip_code":"2360055","prefecture":"神奈川県","prefecture_kana":"カナガワケン","city":"横浜市金沢区","city_kana":"ヨコハマシカナザワク","town":"片吹","town_kana":"カタブキ","prefecture_code":14},"0015":{"zip_code":"2360015","prefecture":"神奈川県","prefecture_kana":"カナガワケン","city":"横浜市金沢区","city_kana":"ヨコハマシカナザワク","town":"金沢町","town_kana":"カナザワチョウ","prefecture_code":14},"0041":{"zip_code":"2360041","prefecture":"神奈川県","prefecture_kana":"カナガワケン","city":"横浜市金沢区","city_kana":"ヨコハマシカナザワク","town":"釜利谷町","town_kana":"カマリヤチョウ","prefecture_code":14},"0042":{"zip_code":"2360042","prefecture":"神奈川県","prefecture_kana":"カナガワケン","city":"横浜市金沢区","city_kana":"ヨコハマシカナザワク","town":"釜利谷東","town_kana":"カマリヤヒガシ","prefecture_code":14},"0046":{"zip_code":"2360046","prefecture":"神奈川県","prefecture_kana":"カナガワケン","city":"横浜市金沢区","city_kana":"ヨコハマシカナザワク","town":"釜利谷西","town_kana":"カマリヤニシ","prefecture_code":14},"0045":{"zip_code":"2360045","prefecture":"神奈川県","prefecture_kana":"カナガワケン","city":"横浜市金沢区","city_kana":"ヨコハマシカナザワク","town":"釜利谷南","town_kana":"カマリヤミナミ","prefecture_code":14},"0003":{"zip_code":"2360003","prefecture":"神奈川県","prefecture_kana":"カナガワケン","city":"横浜市金沢区","city_kana":"ヨコハマシカナザワク","town":"幸浦","town_kana":"サチウラ","prefecture_code":14},"0012":{"zip_code":"2360012","prefecture":"神奈川県","prefecture_kana":"カナガワケン","city":"横浜市金沢区","city_kana":"ヨコハマシカナザワク","town":"柴町","town_kana":"シバマチ","prefecture_code":14},"0001":{"zip_code":"2360001","prefecture":"神奈川県","prefecture_kana":"カナガワケン","city":"横浜市金沢区","city_kana":"ヨコハマシカナザワク","town":"昭和町","town_kana":"ショウワマチ","prefecture_code":14},"0007":{"zip_code":"2360007","prefecture":"神奈川県","prefecture_kana":"カナガワケン","city":"横浜市金沢区","city_kana":"ヨコハマシカナザワク","town":"白帆","town_kana":"シラホ","prefecture_code":14},"0028":{"zip_code":"2360028","prefecture":"神奈川県","prefecture_kana":"カナガワケン","city":"横浜市金沢区","city_kana":"ヨコハマシカナザワク","town":"洲崎町","town_kana":"スサキチョウ","prefecture_code":14},"0027":{"zip_code":"2360027","prefecture":"神奈川県","prefecture_kana":"カナガワケン","city":"横浜市金沢区","city_kana":"ヨコハマシカナザワク","town":"瀬戸","town_kana":"セト","prefecture_code":14},"0035":{"zip_code":"2360035","prefecture":"神奈川県","prefecture_kana":"カナガワケン","city":"横浜市金沢区","city_kana":"ヨコハマシカナザワク","town":"大道","town_kana":"ダイドウ","prefecture_code":14},"0044":{"zip_code":"2360044","prefecture":"神奈川県","prefecture_kana":"カナガワケン","city":"横浜市金沢区","city_kana":"ヨコハマシカナザワク","town":"高舟台","town_kana":"タカフネダイ","prefecture_code":14},"0021":{"zip_code":"2360021","prefecture":"神奈川県","prefecture_kana":"カナガワケン","city":"横浜市金沢区","city_kana":"ヨコハマシカナザワク","town":"泥亀","town_kana":"デイキ","prefecture_code":14},"0014":{"zip_code":"2360014","prefecture":"神奈川県","prefecture_kana":"カナガワケン","city":"横浜市金沢区","city_kana":"ヨコハマシカナザワク","town":"寺前","town_kana":"テラマエ","prefecture_code":14},"0051":{"zip_code":"2360051","prefecture":"神奈川県","prefecture_kana":"カナガワケン","city":"横浜市金沢区","city_kana":"ヨコハマシカナザワク","town":"富岡東","town_kana":"トミオカヒガシ","prefecture_code":14},"0052":{"zip_code":"2360052","prefecture":"神奈川県","prefecture_kana":"カナガワケン","city":"横浜市金沢区","city_kana":"ヨコハマシカナザワク","town":"富岡西","town_kana":"トミオカニシ","prefecture_code":14},"0002":{"zip_code":"2360002","prefecture":"神奈川県","prefecture_kana":"カナガワケン","city":"横浜市金沢区","city_kana":"ヨコハマシカナザワク","town":"鳥浜町","town_kana":"トリハマチョウ","prefecture_code":14},"0011":{"zip_code":"2360011","prefecture":"神奈川県","prefecture_kana":"カナガワケン","city":"横浜市金沢区","city_kana":"ヨコハマシカナザワク","town":"長浜","town_kana":"ナガハマ","prefecture_code":14},"0005":{"zip_code":"2360005","prefecture":"神奈川県","prefecture_kana":"カナガワケン","city":"横浜市金沢区","city_kana":"ヨコハマシカナザワク","town":"並木","town_kana":"ナミキ","prefecture_code":14},"0017":{"zip_code":"2360017","prefecture":"神奈川県","prefecture_kana":"カナガワケン","city":"横浜市金沢区","city_kana":"ヨコハマシカナザワク","town":"西柴","town_kana":"ニシシバ","prefecture_code":14},"0057":{"zip_code":"2360057","prefecture":"神奈川県","prefecture_kana":"カナガワケン","city":"横浜市金沢区","city_kana":"ヨコハマシカナザワク","town":"能見台","town_kana":"ノウケンダイ","prefecture_code":14},"0053":{"zip_code":"2360053","prefecture":"神奈川県","prefecture_kana":"カナガワケン","city":"横浜市金沢区","city_kana":"ヨコハマシカナザワク","town":"能見台通","town_kana":"ノウケンダイドオリ","prefecture_code":14},"0058":{"zip_code":"2360058","prefecture":"神奈川県","prefecture_kana":"カナガワケン","city":"横浜市金沢区","city_kana":"ヨコハマシカナザワク","town":"能見台東","town_kana":"ノウケンダイヒガシ","prefecture_code":14},"0056":{"zip_code":"2360056","prefecture":"神奈川県","prefecture_kana":"カナガワケン","city":"横浜市金沢区","city_kana":"ヨコハマシカナザワク","town":"能見台森","town_kana":"ノウケンダイモリ","prefecture_code":14},"0025":{"zip_code":"2360025","prefecture":"神奈川県","prefecture_kana":"カナガワケン","city":"横浜市金沢区","city_kana":"ヨコハマシカナザワク","town":"野島町","town_kana":"ノジマチョウ","prefecture_code":14},"0006":{"zip_code":"2360006","prefecture":"神奈川県","prefecture_kana":"カナガワケン","city":"横浜市金沢区","city_kana":"ヨコハマシカナザワク","town":"八景島","town_kana":"ハッケイジマ","prefecture_code":14},"0033":{"zip_code":"2360033","prefecture":"神奈川県","prefecture_kana":"カナガワケン","city":"横浜市金沢区","city_kana":"ヨコハマシカナザワク","town":"東朝比奈","town_kana":"ヒガシアサヒナ","prefecture_code":14},"0023":{"zip_code":"2360023","prefecture":"神奈川県","prefecture_kana":"カナガワケン","city":"横浜市金沢区","city_kana":"ヨコハマシカナザワク","town":"平潟町","town_kana":"ヒラカタチョウ","prefecture_code":14},"0004":{"zip_code":"2360004","prefecture":"神奈川県","prefecture_kana":"カナガワケン","city":"横浜市金沢区","city_kana":"ヨコハマシカナザワク","town":"福浦","town_kana":"フクウラ","prefecture_code":14},"0054":{"zip_code":"2360054","prefecture":"神奈川県","prefecture_kana":"カナガワケン","city":"横浜市金沢区","city_kana":"ヨコハマシカナザワク","town":"堀口","town_kana":"ホリグチ","prefecture_code":14},"0022":{"zip_code":"2360022","prefecture":"神奈川県","prefecture_kana":"カナガワケン","city":"横浜市金沢区","city_kana":"ヨコハマシカナザワク","town":"町屋町","town_kana":"マチヤチョウ","prefecture_code":14},"0036":{"zip_code":"2360036","prefecture":"神奈川県","prefecture_kana":"カナガワケン","city":"横浜市金沢区","city_kana":"ヨコハマシカナザワク","town":"みず木町","town_kana":"ミズキチョウ","prefecture_code":14},"0031":{"zip_code":"2360031","prefecture":"神奈川県","prefecture_kana":"カナガワケン","city":"横浜市金沢区","city_kana":"ヨコハマシカナザワク","town":"六浦","town_kana":"ムツウラ","prefecture_code":14},"0032":{"zip_code":"2360032","prefecture":"神奈川県","prefecture_kana":"カナガワケン","city":"横浜市金沢区","city_kana":"ヨコハマシカナザワク","town":"六浦町","town_kana":"ムツウラチョウ","prefecture_code":14},"0037":{"zip_code":"2360037","prefecture":"神奈川県","prefecture_kana":"カナガワケン","city":"横浜市金沢区","city_kana":"ヨコハマシカナザワク","town":"六浦東","town_kana":"ムツウラヒガシ","prefecture_code":14},"0038":{"zip_code":"2360038","prefecture":"神奈川県","prefecture_kana":"カナガワケン","city":"横浜市金沢区","city_kana":"ヨコハマシカナザワク","town":"六浦南","town_kana":"ムツウラミナミ","prefecture_code":14},"0016":{"zip_code":"2360016","prefecture":"神奈川県","prefecture_kana":"カナガワケン","city":"横浜市金沢区","city_kana":"ヨコハマシカナザワク","town":"谷津町","town_kana":"ヤツチョウ","prefecture_code":14},"0026":{"zip_code":"2360026","prefecture":"神奈川県","prefecture_kana":"カナガワケン","city":"横浜市金沢区","city_kana":"ヨコハマシカナザワク","town":"柳町","town_kana":"ヤナギチョウ","prefecture_code":14}}