{"0000":{"zip_code":"2380000","prefecture":"神奈川県","prefecture_kana":"カナガワケン","city":"横須賀市","city_kana":"ヨコスカシ","town":"","town_kana":"","prefecture_code":14},"0033":{"zip_code":"2380033","prefecture":"神奈川県","prefecture_kana":"カナガワケン","city":"横須賀市","city_kana":"ヨコスカシ","town":"阿部倉","town_kana":"アベクラ","prefecture_code":14},"0048":{"zip_code":"2380048","prefecture":"神奈川県","prefecture_kana":"カナガワケン","city":"横須賀市","city_kana":"ヨコスカシ","town":"安針台","town_kana":"アンジンダイ","prefecture_code":14},"0035":{"zip_code":"2380035","prefecture":"神奈川県","prefecture_kana":"カナガワケン","city":"横須賀市","city_kana":"ヨコスカシ","town":"池上","town_kana":"イケガミ","prefecture_code":14},"0003":{"zip_code":"2380003","prefecture":"神奈川県","prefecture_kana":"カナガワケン","city":"横須賀市","city_kana":"ヨコスカシ","town":"稲岡町","town_kana":"イナオカチョウ","prefecture_code":14},"0051":{"zip_code":"2380051","prefecture":"神奈川県","prefecture_kana":"カナガワケン","city":"横須賀市","city_kana":"ヨコスカシ","town":"不入斗町","town_kana":"イリヤマズチョウ","prefecture_code":14},"0017":{"zip_code":"2380017","prefecture":"神奈川県","prefecture_kana":"カナガワケン","city":"横須賀市","city_kana":"ヨコスカシ","town":"上町","town_kana":"ウワマチ","prefecture_code":14},"0311":{"zip_code":"2380311","prefecture":"神奈川県","prefecture_kana":"カナガワケン","city":"横須賀市","city_kana":"ヨコスカシ","town":"太田和","town_kana":"オオタワ","prefecture_code":14},"0008":{"zip_code":"2380008","prefecture":"神奈川県","prefecture_kana":"カナガワケン","city":"横須賀市","city_kana":"ヨコスカシ","town":"大滝町","town_kana":"オオダキチョウ","prefecture_code":14},"0024":{"zip_code":"2380024","prefecture":"神奈川県","prefecture_kana":"カナガワケン","city":"横須賀市","city_kana":"ヨコスカシ","town":"大矢部","town_kana":"オオヤベ","prefecture_code":14},"0004":{"zip_code":"2380004","prefecture":"神奈川県","prefecture_kana":"カナガワケン","city":"横須賀市","city_kana":"ヨコスカシ","town":"小川町","town_kana":"オガワチョウ","prefecture_code":14},"0034":{"zip_code":"2380034","prefecture":"神奈川県","prefecture_kana":"カナガワケン","city":"横須賀市","city_kana":"ヨコスカシ","town":"金谷","town_kana":"カネヤ","prefecture_code":14},"0031":{"zip_code":"2380031","prefecture":"神奈川県","prefecture_kana":"カナガワケン","city":"横須賀市","city_kana":"ヨコスカシ","town":"衣笠栄町","town_kana":"キヌカササカエチョウ","prefecture_code":14},"0025":{"zip_code":"2380025","prefecture":"神奈川県","prefecture_kana":"カナガワケン","city":"横須賀市","city_kana":"ヨコスカシ","town":"衣笠町","town_kana":"キヌカサチョウ","prefecture_code":14},"0022":{"zip_code":"2380022","prefecture":"神奈川県","prefecture_kana":"カナガワケン","city":"横須賀市","city_kana":"ヨコスカシ","town":"公郷町","town_kana":"クゴウチョウ","prefecture_code":14},"0002":{"zip_code":"2380002","prefecture":"神奈川県","prefecture_kana":"カナガワケン","city":"横須賀市","city_kana":"ヨコスカシ","town":"楠ケ浦町","town_kana":"クスガウラチョウ","prefecture_code":14},"0026":{"zip_code":"2380026","prefecture":"神奈川県","prefecture_kana":"カナガワケン","city":"横須賀市","city_kana":"ヨコスカシ","town":"小矢部","town_kana":"コヤベ","prefecture_code":14},"0043":{"zip_code":"2380043","prefecture":"神奈川県","prefecture_kana":"カナガワケン","city":"横須賀市","city_kana":"ヨコスカシ","town":"坂本町","town_kana":"サカモトチョウ","prefecture_code":14},"0052":{"zip_code":"2380052","prefecture":"神奈川県","prefecture_kana":"カナガワケン","city":"横須賀市","city_kana":"ヨコスカシ","town":"佐野町","town_kana":"サノチョウ","prefecture_code":14},"0019":{"zip_code":"2380019","prefecture":"神奈川県","prefecture_kana":"カナガワケン","city":"横須賀市","city_kana":"ヨコスカシ","town":"猿島","town_kana":"サルシマ","prefecture_code":14},"0042":{"zip_code":"2380042","prefecture":"神奈川県","prefecture_kana":"カナガワケン","city":"横須賀市","city_kana":"ヨコスカシ","town":"汐入町","town_kana":"シオイリチョウ","prefecture_code":14},"0054":{"zip_code":"2380054","prefecture":"神奈川県","prefecture_kana":"カナガワケン","city":"横須賀市","city_kana":"ヨコスカシ","town":"汐見台","town_kana":"シオミダイ","prefecture_code":14},"0005":{"zip_code":"2380005","prefecture":"神奈川県","prefecture_kana":"カナガワケン","city":"横須賀市","city_kana":"ヨコスカシ","town":"新港町","town_kana":"シンコウチョウ","prefecture_code":14},"0314":{"zip_code":"2380314","prefecture":"神奈川県","prefecture_kana":"カナガワケン","city":"横須賀市","city_kana":"ヨコスカシ","town":"須軽谷","town_kana":"スガルヤ","prefecture_code":14},"0313":{"zip_code":"2380313","prefecture":"神奈川県","prefecture_kana":"カナガワケン","city":"横須賀市","city_kana":"ヨコスカシ","town":"武","town_kana":"タケ","prefecture_code":14},"0015":{"zip_code":"2380015","prefecture":"神奈川県","prefecture_kana":"カナガワケン","city":"横須賀市","city_kana":"ヨコスカシ","town":"田戸台","town_kana":"タドダイ","prefecture_code":14},"0056":{"zip_code":"2380056","prefecture":"神奈川県","prefecture_kana":"カナガワケン","city":"横須賀市","city_kana":"ヨコスカシ","town":"鶴が丘","town_kana":"ツルガオカ","prefecture_code":14},"0001":{"zip_code":"2380001","prefecture":"神奈川県","prefecture_kana":"カナガワケン","city":"横須賀市","city_kana":"ヨコスカシ","town":"泊町","town_kana":"トマリチョウ","prefecture_code":14},"0316":{"zip_code":"2380316","prefecture":"神奈川県","prefecture_kana":"カナガワケン","city":"横須賀市","city_kana":"ヨコスカシ","town":"長井","town_kana":"ナガイ","prefecture_code":14},"0046":{"zip_code":"2380046","prefecture":"神奈川県","prefecture_kana":"カナガワケン","city":"横須賀市","city_kana":"ヨコスカシ","town":"西逸見町","town_kana":"ニシヘミチョウ","prefecture_code":14},"0315":{"zip_code":"2380315","prefecture":"神奈川県","prefecture_kana":"カナガワケン","city":"横須賀市","city_kana":"ヨコスカシ","town":"林","town_kana":"ハヤシ","prefecture_code":14},"0045":{"zip_code":"2380045","prefecture":"神奈川県","prefecture_kana":"カナガワケン","city":"横須賀市","city_kana":"ヨコスカシ","town":"東逸見町","town_kana":"ヒガシヘミチョウ","prefecture_code":14},"0006":{"zip_code":"2380006","prefecture":"神奈川県","prefecture_kana":"カナガワケン","city":"横須賀市","city_kana":"ヨコスカシ","town":"日の出町","town_kana":"ヒノデチョウ","prefecture_code":14},"0032":{"zip_code":"2380032","prefecture":"神奈川県","prefecture_kana":"カナガワケン","city":"横須賀市","city_kana":"ヨコスカシ","town":"平作","town_kana":"ヒラサク","prefecture_code":14},"0016":{"zip_code":"2380016","prefecture":"神奈川県","prefecture_kana":"カナガワケン","city":"横須賀市","city_kana":"ヨコスカシ","town":"深田台","town_kana":"フカダダイ","prefecture_code":14},"0021":{"zip_code":"2380021","prefecture":"神奈川県","prefecture_kana":"カナガワケン","city":"横須賀市","city_kana":"ヨコスカシ","town":"富士見町","town_kana":"フジミチョウ","prefecture_code":14},"0013":{"zip_code":"2380013","prefecture":"神奈川県","prefecture_kana":"カナガワケン","city":"横須賀市","city_kana":"ヨコスカシ","town":"平成町","town_kana":"ヘイセイチョウ","prefecture_code":14},"0055":{"zip_code":"2380055","prefecture":"神奈川県","prefecture_kana":"カナガワケン","city":"横須賀市","city_kana":"ヨコスカシ","town":"平和台","town_kana":"ヘイワダイ","prefecture_code":14},"0044":{"zip_code":"2380044","prefecture":"神奈川県","prefecture_kana":"カナガワケン","city":"横須賀市","city_kana":"ヨコスカシ","town":"逸見が丘","town_kana":"ヘミガオカ","prefecture_code":14},"0053":{"zip_code":"2380053","prefecture":"神奈川県","prefecture_kana":"カナガワケン","city":"横須賀市","city_kana":"ヨコスカシ","town":"望洋台","town_kana":"ボウヨウダイ","prefecture_code":14},"0041":{"zip_code":"2380041","prefecture":"神奈川県","prefecture_kana":"カナガワケン","city":"横須賀市","city_kana":"ヨコスカシ","town":"本町","town_kana":"ホンチョウ","prefecture_code":14},"0018":{"zip_code":"2380018","prefecture":"神奈川県","prefecture_kana":"カナガワケン","city":"横須賀市","city_kana":"ヨコスカシ","town":"緑が丘","town_kana":"ミドリガオカ","prefecture_code":14},"0014":{"zip_code":"2380014","prefecture":"神奈川県","prefecture_kana":"カナガワケン","city":"横須賀市","city_kana":"ヨコスカシ","town":"三春町","town_kana":"ミハルチョウ","prefecture_code":14},"0317":{"zip_code":"2380317","prefecture":"神奈川県","prefecture_kana":"カナガワケン","city":"横須賀市","city_kana":"ヨコスカシ","town":"御幸浜","town_kana":"ミユキハマ","prefecture_code":14},"0023":{"zip_code":"2380023","prefecture":"神奈川県","prefecture_kana":"カナガワケン","city":"横須賀市","city_kana":"ヨコスカシ","town":"森崎","town_kana":"モリサキ","prefecture_code":14},"0012":{"zip_code":"2380012","prefecture":"神奈川県","prefecture_kana":"カナガワケン","city":"横須賀市","city_kana":"ヨコスカシ","town":"安浦町","town_kana":"ヤスウラチョウ","prefecture_code":14},"0312":{"zip_code":"2380312","prefecture":"神奈川県","prefecture_kana":"カナガワケン","city":"横須賀市","city_kana":"ヨコスカシ","town":"山科台","town_kana":"ヤマシナダイ","prefecture_code":14},"0036":{"zip_code":"2380036","prefecture":"神奈川県","prefecture_kana":"カナガワケン","city":"横須賀市","city_kana":"ヨコスカシ","town":"山中町","town_kana":"ヤマナカチョウ","prefecture_code":14},"0047":{"zip_code":"2380047","prefecture":"神奈川県","prefecture_kana":"カナガワケン","city":"横須賀市","city_kana":"ヨコスカシ","town":"吉倉町","town_kana":"ヨシクラチョウ","prefecture_code":14},"0011":{"zip_code":"2380011","prefecture":"神奈川県","prefecture_kana":"カナガワケン","city":"横須賀市","city_kana":"ヨコスカシ","town":"米が浜通","town_kana":"ヨネガハマドオリ","prefecture_code":14},"0007":{"zip_code":"2380007","prefecture":"神奈川県","prefecture_kana":"カナガワケン","city":"横須賀市","city_kana":"ヨコスカシ","town":"若松町","town_kana":"ワカマツチョウ","prefecture_code":14},"0200":{"zip_code":"2380200","prefecture":"神奈川県","prefecture_kana":"カナガワケン","city":"三浦市","city_kana":"ミウラシ","town":"","town_kana":"","prefecture_code":14},"0246":{"zip_code":"2380246","prefecture":"神奈川県","prefecture_kana":"カナガワケン","city":"三浦市","city_kana":"ミウラシ","town":"尾上町","town_kana":"オガミチョウ","prefecture_code":14},"0245":{"zip_code":"2380245","prefecture":"神奈川県","prefecture_kana":"カナガワケン","city":"三浦市","city_kana":"ミウラシ","town":"海外町","town_kana":"カイトチョウ","prefecture_code":14},"0222":{"zip_code":"2380222","prefecture":"神奈川県","prefecture_kana":"カナガワケン","city":"三浦市","city_kana":"ミウラシ","town":"岬陽町","town_kana":"コウヨウチョウ","prefecture_code":14},"0236":{"zip_code":"2380236","prefecture":"神奈川県","prefecture_kana":"カナガワケン","city":"三浦市","city_kana":"ミウラシ","town":"栄町","town_kana":"サカエチョウ","prefecture_code":14},"0244":{"zip_code":"2380244","prefecture":"神奈川県","prefecture_kana":"カナガワケン","city":"三浦市","city_kana":"ミウラシ","town":"白石町","town_kana":"シライシチョウ","prefecture_code":14},"0235":{"zip_code":"2380235","prefecture":"神奈川県","prefecture_kana":"カナガワケン","city":"三浦市","city_kana":"ミウラシ","town":"城山町","town_kana":"シロヤマチョウ","prefecture_code":14},"0234":{"zip_code":"2380234","prefecture":"神奈川県","prefecture_kana":"カナガワケン","city":"三浦市","city_kana":"ミウラシ","town":"諏訪町","town_kana":"スワチョウ","prefecture_code":14},"0241":{"zip_code":"2380241","prefecture":"神奈川県","prefecture_kana":"カナガワケン","city":"三浦市","city_kana":"ミウラシ","town":"天神町","town_kana":"テンジンチョウ","prefecture_code":14},"0113":{"zip_code":"2380113","prefecture":"神奈川県","prefecture_kana":"カナガワケン","city":"三浦市","city_kana":"ミウラシ","town":"初声町入江","town_kana":"ハッセマチイリエ","prefecture_code":14},"0115":{"zip_code":"2380115","prefecture":"神奈川県","prefecture_kana":"カナガワケン","city":"三浦市","city_kana":"ミウラシ","town":"初声町高円坊","town_kana":"ハッセマチコウエンボウ","prefecture_code":14},"0111":{"zip_code":"2380111","prefecture":"神奈川県","prefecture_kana":"カナガワケン","city":"三浦市","city_kana":"ミウラシ","town":"初声町下宮田","town_kana":"ハッセマチシモミヤダ","prefecture_code":14},"0112":{"zip_code":"2380112","prefecture":"神奈川県","prefecture_kana":"カナガワケン","city":"三浦市","city_kana":"ミウラシ","town":"初声町三戸","town_kana":"ハッセマチミト","prefecture_code":14},"0114":{"zip_code":"2380114","prefecture":"神奈川県","prefecture_kana":"カナガワケン","city":"三浦市","city_kana":"ミウラシ","town":"初声町和田","town_kana":"ハッセマチワダ","prefecture_code":14},"0223":{"zip_code":"2380223","prefecture":"神奈川県","prefecture_kana":"カナガワケン","city":"三浦市","city_kana":"ミウラシ","town":"原町","town_kana":"ハラチョウ","prefecture_code":14},"0232":{"zip_code":"2380232","prefecture":"神奈川県","prefecture_kana":"カナガワケン","city":"三浦市","city_kana":"ミウラシ","town":"晴海町","town_kana":"ハルミチョウ","prefecture_code":14},"0242":{"zip_code":"2380242","prefecture":"神奈川県","prefecture_kana":"カナガワケン","city":"三浦市","city_kana":"ミウラシ","town":"東岡町","town_kana":"ヒガシオカチョウ","prefecture_code":14},"0243":{"zip_code":"2380243","prefecture":"神奈川県","prefecture_kana":"カナガワケン","city":"三浦市","city_kana":"ミウラシ","town":"三崎","town_kana":"ミサキ","prefecture_code":14},"0225":{"zip_code":"2380225","prefecture":"神奈川県","prefecture_kana":"カナガワケン","city":"三浦市","city_kana":"ミウラシ","town":"三崎町小網代","town_kana":"ミサキマチコアジロ","prefecture_code":14},"0237":{"zip_code":"2380237","prefecture":"神奈川県","prefecture_kana":"カナガワケン","city":"三浦市","city_kana":"ミウラシ","town":"三崎町城ケ島","town_kana":"ミサキマチジョウガシマ","prefecture_code":14},"0221":{"zip_code":"2380221","prefecture":"神奈川県","prefecture_kana":"カナガワケン","city":"三浦市","city_kana":"ミウラシ","town":"三崎町六合","town_kana":"ミサキマチムツアイ","prefecture_code":14},"0224":{"zip_code":"2380224","prefecture":"神奈川県","prefecture_kana":"カナガワケン","city":"三浦市","city_kana":"ミウラシ","town":"三崎町諸磯","town_kana":"ミサキマチモロイソ","prefecture_code":14},"0103":{"zip_code":"2380103","prefecture":"神奈川県","prefecture_kana":"カナガワケン","city":"三浦市","city_kana":"ミウラシ","town":"南下浦町金田","town_kana":"ミナミシタウラマチカネダ","prefecture_code":14},"0101":{"zip_code":"2380101","prefecture":"神奈川県","prefecture_kana":"カナガワケン","city":"三浦市","city_kana":"ミウラシ","town":"南下浦町上宮田","town_kana":"ミナミシタウラマチカミミヤダ","prefecture_code":14},"0102":{"zip_code":"2380102","prefecture":"神奈川県","prefecture_kana":"カナガワケン","city":"三浦市","city_kana":"ミウラシ","town":"南下浦町菊名","town_kana":"ミナミシタウラマチキクナ","prefecture_code":14},"0105":{"zip_code":"2380105","prefecture":"神奈川県","prefecture_kana":"カナガワケン","city":"三浦市","city_kana":"ミウラシ","town":"南下浦町毘沙門","town_kana":"ミナミシタウラマチビシャモン","prefecture_code":14},"0104":{"zip_code":"2380104","prefecture":"神奈川県","prefecture_kana":"カナガワケン","city":"三浦市","city_kana":"ミウラシ","town":"南下浦町松輪","town_kana":"ミナミシタウラマチマツワ","prefecture_code":14},"0231":{"zip_code":"2380231","prefecture":"神奈川県","prefecture_kana":"カナガワケン","city":"三浦市","city_kana":"ミウラシ","town":"宮川町","town_kana":"ミヤガワチョウ","prefecture_code":14},"0233":{"zip_code":"2380233","prefecture":"神奈川県","prefecture_kana":"カナガワケン","city":"三浦市","city_kana":"ミウラシ","town":"向ケ崎町","town_kana":"ムコウガサキチョウ","prefecture_code":14}}