{"0845":{"zip_code":"2390845","prefecture":"神奈川県","prefecture_kana":"カナガワケン","city":"横須賀市","city_kana":"ヨコスカシ","town":"粟田","town_kana":"アワタ","prefecture_code":14},"0806":{"zip_code":"2390806","prefecture":"神奈川県","prefecture_kana":"カナガワケン","city":"横須賀市","city_kana":"ヨコスカシ","town":"池田町","town_kana":"イケダチョウ","prefecture_code":14},"0844":{"zip_code":"2390844","prefecture":"神奈川県","prefecture_kana":"カナガワケン","city":"横須賀市","city_kana":"ヨコスカシ","town":"岩戸","town_kana":"イワト","prefecture_code":14},"0836":{"zip_code":"2390836","prefecture":"神奈川県","prefecture_kana":"カナガワケン","city":"横須賀市","city_kana":"ヨコスカシ","town":"内川","town_kana":"ウチカワ","prefecture_code":14},"0837":{"zip_code":"2390837","prefecture":"神奈川県","prefecture_kana":"カナガワケン","city":"横須賀市","city_kana":"ヨコスカシ","town":"内川新田","town_kana":"ウチカワシンデン","prefecture_code":14},"0822":{"zip_code":"2390822","prefecture":"神奈川県","prefecture_kana":"カナガワケン","city":"横須賀市","city_kana":"ヨコスカシ","town":"浦賀","town_kana":"ウラガ","prefecture_code":14},"0823":{"zip_code":"2390823","prefecture":"神奈川県","prefecture_kana":"カナガワケン","city":"横須賀市","city_kana":"ヨコスカシ","town":"浦賀丘","town_kana":"ウラガオカ","prefecture_code":14},"0815":{"zip_code":"2390815","prefecture":"神奈川県","prefecture_kana":"カナガワケン","city":"横須賀市","city_kana":"ヨコスカシ","town":"浦上台","town_kana":"ウラガミダイ","prefecture_code":14},"0808":{"zip_code":"2390808","prefecture":"神奈川県","prefecture_kana":"カナガワケン","city":"横須賀市","city_kana":"ヨコスカシ","town":"大津町","town_kana":"オオツチョウ","prefecture_code":14},"0812":{"zip_code":"2390812","prefecture":"神奈川県","prefecture_kana":"カナガワケン","city":"横須賀市","city_kana":"ヨコスカシ","town":"小原台","town_kana":"オバラダイ","prefecture_code":14},"0813":{"zip_code":"2390813","prefecture":"神奈川県","prefecture_kana":"カナガワケン","city":"横須賀市","city_kana":"ヨコスカシ","town":"鴨居","town_kana":"カモイ","prefecture_code":14},"0828":{"zip_code":"2390828","prefecture":"神奈川県","prefecture_kana":"カナガワケン","city":"横須賀市","city_kana":"ヨコスカシ","town":"久比里","town_kana":"クビリ","prefecture_code":14},"0834":{"zip_code":"2390834","prefecture":"神奈川県","prefecture_kana":"カナガワケン","city":"横須賀市","city_kana":"ヨコスカシ","town":"久村","town_kana":"クムラ","prefecture_code":14},"0831":{"zip_code":"2390831","prefecture":"神奈川県","prefecture_kana":"カナガワケン","city":"横須賀市","city_kana":"ヨコスカシ","town":"久里浜","town_kana":"クリハマ","prefecture_code":14},"0827":{"zip_code":"2390827","prefecture":"神奈川県","prefecture_kana":"カナガワケン","city":"横須賀市","city_kana":"ヨコスカシ","town":"久里浜台","town_kana":"クリハマダイ","prefecture_code":14},"0846":{"zip_code":"2390846","prefecture":"神奈川県","prefecture_kana":"カナガワケン","city":"横須賀市","city_kana":"ヨコスカシ","town":"グリーンハイツ","town_kana":"グリーンハイツ","prefecture_code":14},"0820":{"zip_code":"2390820","prefecture":"神奈川県","prefecture_kana":"カナガワケン","city":"横須賀市","city_kana":"ヨコスカシ","town":"光風台","town_kana":"コウフウダイ","prefecture_code":14},"0803":{"zip_code":"2390803","prefecture":"神奈川県","prefecture_kana":"カナガワケン","city":"横須賀市","city_kana":"ヨコスカシ","town":"桜が丘","town_kana":"サクラガオカ","prefecture_code":14},"0835":{"zip_code":"2390835","prefecture":"神奈川県","prefecture_kana":"カナガワケン","city":"横須賀市","city_kana":"ヨコスカシ","town":"佐原","town_kana":"サハラ","prefecture_code":14},"0832":{"zip_code":"2390832","prefecture":"神奈川県","prefecture_kana":"カナガワケン","city":"横須賀市","city_kana":"ヨコスカシ","town":"神明町","town_kana":"シンメイチョウ","prefecture_code":14},"0843":{"zip_code":"2390843","prefecture":"神奈川県","prefecture_kana":"カナガワケン","city":"横須賀市","city_kana":"ヨコスカシ","town":"津久井","town_kana":"ツクイ","prefecture_code":14},"0842":{"zip_code":"2390842","prefecture":"神奈川県","prefecture_kana":"カナガワケン","city":"横須賀市","city_kana":"ヨコスカシ","town":"長沢","town_kana":"ナガサワ","prefecture_code":14},"0826":{"zip_code":"2390826","prefecture":"神奈川県","prefecture_kana":"カナガワケン","city":"横須賀市","city_kana":"ヨコスカシ","town":"長瀬","town_kana":"ナガセ","prefecture_code":14},"0824":{"zip_code":"2390824","prefecture":"神奈川県","prefecture_kana":"カナガワケン","city":"横須賀市","city_kana":"ヨコスカシ","town":"西浦賀","town_kana":"ニシウラガ","prefecture_code":14},"0807":{"zip_code":"2390807","prefecture":"神奈川県","prefecture_kana":"カナガワケン","city":"横須賀市","city_kana":"ヨコスカシ","town":"根岸町","town_kana":"ネギシチョウ","prefecture_code":14},"0841":{"zip_code":"2390841","prefecture":"神奈川県","prefecture_kana":"カナガワケン","city":"横須賀市","city_kana":"ヨコスカシ","town":"野比","town_kana":"ノビ","prefecture_code":14},"0833":{"zip_code":"2390833","prefecture":"神奈川県","prefecture_kana":"カナガワケン","city":"横須賀市","city_kana":"ヨコスカシ","town":"ハイランド","town_kana":"ハイランド","prefecture_code":14},"0811":{"zip_code":"2390811","prefecture":"神奈川県","prefecture_kana":"カナガワケン","city":"横須賀市","city_kana":"ヨコスカシ","town":"走水","town_kana":"ハシリミズ","prefecture_code":14},"0821":{"zip_code":"2390821","prefecture":"神奈川県","prefecture_kana":"カナガワケン","city":"横須賀市","city_kana":"ヨコスカシ","town":"東浦賀","town_kana":"ヒガシウラガ","prefecture_code":14},"0847":{"zip_code":"2390847","prefecture":"神奈川県","prefecture_kana":"カナガワケン","city":"横須賀市","city_kana":"ヨコスカシ","town":"光の丘","town_kana":"ヒカリノオカ","prefecture_code":14},"0814":{"zip_code":"2390814","prefecture":"神奈川県","prefecture_kana":"カナガワケン","city":"横須賀市","city_kana":"ヨコスカシ","town":"二葉","town_kana":"フタバ","prefecture_code":14},"0805":{"zip_code":"2390805","prefecture":"神奈川県","prefecture_kana":"カナガワケン","city":"横須賀市","city_kana":"ヨコスカシ","town":"舟倉","town_kana":"フナグラ","prefecture_code":14},"0801":{"zip_code":"2390801","prefecture":"神奈川県","prefecture_kana":"カナガワケン","city":"横須賀市","city_kana":"ヨコスカシ","town":"馬堀海岸","town_kana":"マボリカイガン","prefecture_code":14},"0802":{"zip_code":"2390802","prefecture":"神奈川県","prefecture_kana":"カナガワケン","city":"横須賀市","city_kana":"ヨコスカシ","town":"馬堀町","town_kana":"マボリチョウ","prefecture_code":14},"0825":{"zip_code":"2390825","prefecture":"神奈川県","prefecture_kana":"カナガワケン","city":"横須賀市","city_kana":"ヨコスカシ","town":"南浦賀","town_kana":"ミナミウラガ","prefecture_code":14},"0804":{"zip_code":"2390804","prefecture":"神奈川県","prefecture_kana":"カナガワケン","city":"横須賀市","city_kana":"ヨコスカシ","town":"吉井","town_kana":"ヨシイ","prefecture_code":14},"0829":{"zip_code":"2390829","prefecture":"神奈川県","prefecture_kana":"カナガワケン","city":"横須賀市","city_kana":"ヨコスカシ","town":"若宮台","town_kana":"ワカミヤダイ","prefecture_code":14}}