{"0000":{"zip_code":"2400000","prefecture":"神奈川県","prefecture_kana":"カナガワケン","city":"横浜市保土ケ谷区","city_kana":"ヨコハマシホドガヤク","town":"","town_kana":"","prefecture_code":14},"0053":{"zip_code":"2400053","prefecture":"神奈川県","prefecture_kana":"カナガワケン","city":"横浜市保土ケ谷区","city_kana":"ヨコハマシホドガヤク","town":"新井町","town_kana":"アライチョウ","prefecture_code":14},"0035":{"zip_code":"2400035","prefecture":"神奈川県","prefecture_kana":"カナガワケン","city":"横浜市保土ケ谷区","city_kana":"ヨコハマシホドガヤク","town":"今井町","town_kana":"イマイチョウ","prefecture_code":14},"0023":{"zip_code":"2400023","prefecture":"神奈川県","prefecture_kana":"カナガワケン","city":"横浜市保土ケ谷区","city_kana":"ヨコハマシホドガヤク","town":"岩井町","town_kana":"イワイチョウ","prefecture_code":14},"0015":{"zip_code":"2400015","prefecture":"神奈川県","prefecture_kana":"カナガワケン","city":"横浜市保土ケ谷区","city_kana":"ヨコハマシホドガヤク","town":"岩崎町","town_kana":"イワサキチョウ","prefecture_code":14},"0004":{"zip_code":"2400004","prefecture":"神奈川県","prefecture_kana":"カナガワケン","city":"横浜市保土ケ谷区","city_kana":"ヨコハマシホドガヤク","town":"岩間町","town_kana":"イワマチョウ","prefecture_code":14},"0062":{"zip_code":"2400062","prefecture":"神奈川県","prefecture_kana":"カナガワケン","city":"横浜市保土ケ谷区","city_kana":"ヨコハマシホドガヤク","town":"岡沢町","town_kana":"オカザワチョウ","prefecture_code":14},"0014":{"zip_code":"2400014","prefecture":"神奈川県","prefecture_kana":"カナガワケン","city":"横浜市保土ケ谷区","city_kana":"ヨコハマシホドガヤク","town":"霞台","town_kana":"カスミダイ","prefecture_code":14},"0013":{"zip_code":"2400013","prefecture":"神奈川県","prefecture_kana":"カナガワケン","city":"横浜市保土ケ谷区","city_kana":"ヨコハマシホドガヤク","town":"帷子町","town_kana":"カタビラチョウ","prefecture_code":14},"0066":{"zip_code":"2400066","prefecture":"神奈川県","prefecture_kana":"カナガワケン","city":"横浜市保土ケ谷区","city_kana":"ヨコハマシホドガヤク","town":"釜台町","town_kana":"カマダイチョウ","prefecture_code":14},"0063":{"zip_code":"2400063","prefecture":"神奈川県","prefecture_kana":"カナガワケン","city":"横浜市保土ケ谷区","city_kana":"ヨコハマシホドガヤク","town":"鎌谷町","town_kana":"カマヤチョウ","prefecture_code":14},"0051":{"zip_code":"2400051","prefecture":"神奈川県","prefecture_kana":"カナガワケン","city":"横浜市保土ケ谷区","city_kana":"ヨコハマシホドガヤク","town":"上菅田町","town_kana":"カミスゲダチョウ","prefecture_code":14},"0042":{"zip_code":"2400042","prefecture":"神奈川県","prefecture_kana":"カナガワケン","city":"横浜市保土ケ谷区","city_kana":"ヨコハマシホドガヤク","town":"上星川","town_kana":"カミホシカワ","prefecture_code":14},"0025":{"zip_code":"2400025","prefecture":"神奈川県","prefecture_kana":"カナガワケン","city":"横浜市保土ケ谷区","city_kana":"ヨコハマシホドガヤク","town":"狩場町","town_kana":"カリバチョウ","prefecture_code":14},"0045":{"zip_code":"2400045","prefecture":"神奈川県","prefecture_kana":"カナガワケン","city":"横浜市保土ケ谷区","city_kana":"ヨコハマシホドガヤク","town":"川島町","town_kana":"カワシマチョウ","prefecture_code":14},"0001":{"zip_code":"2400001","prefecture":"神奈川県","prefecture_kana":"カナガワケン","city":"横浜市保土ケ谷区","city_kana":"ヨコハマシホドガヤク","town":"川辺町","town_kana":"カワベチョウ","prefecture_code":14},"0005":{"zip_code":"2400005","prefecture":"神奈川県","prefecture_kana":"カナガワケン","city":"横浜市保土ケ谷区","city_kana":"ヨコハマシホドガヤク","town":"神戸町","town_kana":"ゴウドチョウ","prefecture_code":14},"0026":{"zip_code":"2400026","prefecture":"神奈川県","prefecture_kana":"カナガワケン","city":"横浜市保土ケ谷区","city_kana":"ヨコハマシホドガヤク","town":"権太坂","town_kana":"ゴンタザカ","prefecture_code":14},"0034":{"zip_code":"2400034","prefecture":"神奈川県","prefecture_kana":"カナガワケン","city":"横浜市保土ケ谷区","city_kana":"ヨコハマシホドガヤク","town":"境木町","town_kana":"サカイギチョウ","prefecture_code":14},"0033":{"zip_code":"2400033","prefecture":"神奈川県","prefecture_kana":"カナガワケン","city":"横浜市保土ケ谷区","city_kana":"ヨコハマシホドガヤク","town":"境木本町","town_kana":"サカイギホンチョウ","prefecture_code":14},"0043":{"zip_code":"2400043","prefecture":"神奈川県","prefecture_kana":"カナガワケン","city":"横浜市保土ケ谷区","city_kana":"ヨコハマシホドガヤク","town":"坂本町","town_kana":"サカモトチョウ","prefecture_code":14},"0011":{"zip_code":"2400011","prefecture":"神奈川県","prefecture_kana":"カナガワケン","city":"横浜市保土ケ谷区","city_kana":"ヨコハマシホドガヤク","town":"桜ケ丘","town_kana":"サクラガオカ","prefecture_code":14},"0036":{"zip_code":"2400036","prefecture":"神奈川県","prefecture_kana":"カナガワケン","city":"横浜市保土ケ谷区","city_kana":"ヨコハマシホドガヤク","town":"新桜ケ丘","town_kana":"シンサクラガオカ","prefecture_code":14},"0024":{"zip_code":"2400024","prefecture":"神奈川県","prefecture_kana":"カナガワケン","city":"横浜市保土ケ谷区","city_kana":"ヨコハマシホドガヤク","town":"瀬戸ケ谷町","town_kana":"セトガヤチョウ","prefecture_code":14},"0012":{"zip_code":"2400012","prefecture":"神奈川県","prefecture_kana":"カナガワケン","city":"横浜市保土ケ谷区","city_kana":"ヨコハマシホドガヤク","town":"月見台","town_kana":"ツキミダイ","prefecture_code":14},"0003":{"zip_code":"2400003","prefecture":"神奈川県","prefecture_kana":"カナガワケン","city":"横浜市保土ケ谷区","city_kana":"ヨコハマシホドガヤク","town":"天王町","town_kana":"テンノウチョウ","prefecture_code":14},"0067":{"zip_code":"2400067","prefecture":"神奈川県","prefecture_kana":"カナガワケン","city":"横浜市保土ケ谷区","city_kana":"ヨコハマシホドガヤク","town":"常盤台","town_kana":"トキワダイ","prefecture_code":14},"0022":{"zip_code":"2400022","prefecture":"神奈川県","prefecture_kana":"カナガワケン","city":"横浜市保土ケ谷区","city_kana":"ヨコハマシホドガヤク","town":"西久保町","town_kana":"ニシクボチョウ","prefecture_code":14},"0052":{"zip_code":"2400052","prefecture":"神奈川県","prefecture_kana":"カナガワケン","city":"横浜市保土ケ谷区","city_kana":"ヨコハマシホドガヤク","town":"西谷町","town_kana":"ニシヤマチ","prefecture_code":14},"0016":{"zip_code":"2400016","prefecture":"神奈川県","prefecture_kana":"カナガワケン","city":"横浜市保土ケ谷区","city_kana":"ヨコハマシホドガヤク","town":"初音ケ丘","town_kana":"ハツネガオカ","prefecture_code":14},"0017":{"zip_code":"2400017","prefecture":"神奈川県","prefecture_kana":"カナガワケン","city":"横浜市保土ケ谷区","city_kana":"ヨコハマシホドガヤク","town":"花見台","town_kana":"ハナミダイ","prefecture_code":14},"0041":{"zip_code":"2400041","prefecture":"神奈川県","prefecture_kana":"カナガワケン","city":"横浜市保土ケ谷区","city_kana":"ヨコハマシホドガヤク","town":"東川島町","town_kana":"ヒガシカワシマチョウ","prefecture_code":14},"0031":{"zip_code":"2400031","prefecture":"神奈川県","prefecture_kana":"カナガワケン","city":"横浜市保土ケ谷区","city_kana":"ヨコハマシホドガヤク","town":"藤塚町","town_kana":"フジツカチョウ","prefecture_code":14},"0044":{"zip_code":"2400044","prefecture":"神奈川県","prefecture_kana":"カナガワケン","city":"横浜市保土ケ谷区","city_kana":"ヨコハマシホドガヤク","town":"仏向町","town_kana":"ブッコウチョウ","prefecture_code":14},"0046":{"zip_code":"2400046","prefecture":"神奈川県","prefecture_kana":"カナガワケン","city":"横浜市保土ケ谷区","city_kana":"ヨコハマシホドガヤク","town":"仏向西","town_kana":"ブッコウニシ","prefecture_code":14},"0032":{"zip_code":"2400032","prefecture":"神奈川県","prefecture_kana":"カナガワケン","city":"横浜市保土ケ谷区","city_kana":"ヨコハマシホドガヤク","town":"法泉","town_kana":"ホウセン","prefecture_code":14},"0006":{"zip_code":"2400006","prefecture":"神奈川県","prefecture_kana":"カナガワケン","city":"横浜市保土ケ谷区","city_kana":"ヨコハマシホドガヤク","town":"星川","town_kana":"ホシカワ","prefecture_code":14},"0021":{"zip_code":"2400021","prefecture":"神奈川県","prefecture_kana":"カナガワケン","city":"横浜市保土ケ谷区","city_kana":"ヨコハマシホドガヤク","town":"保土ケ谷町","town_kana":"ホドガヤチョウ","prefecture_code":14},"0064":{"zip_code":"2400064","prefecture":"神奈川県","prefecture_kana":"カナガワケン","city":"横浜市保土ケ谷区","city_kana":"ヨコハマシホドガヤク","town":"峰岡町","town_kana":"ミネオカチョウ","prefecture_code":14},"0061":{"zip_code":"2400061","prefecture":"神奈川県","prefecture_kana":"カナガワケン","city":"横浜市保土ケ谷区","city_kana":"ヨコハマシホドガヤク","town":"峰沢町","town_kana":"ミネザワチョウ","prefecture_code":14},"0002":{"zip_code":"2400002","prefecture":"神奈川県","prefecture_kana":"カナガワケン","city":"横浜市保土ケ谷区","city_kana":"ヨコハマシホドガヤク","town":"宮田町","town_kana":"ミヤタチョウ","prefecture_code":14},"0007":{"zip_code":"2400007","prefecture":"神奈川県","prefecture_kana":"カナガワケン","city":"横浜市保土ケ谷区","city_kana":"ヨコハマシホドガヤク","town":"明神台","town_kana":"ミョウジンダイ","prefecture_code":14},"0065":{"zip_code":"2400065","prefecture":"神奈川県","prefecture_kana":"カナガワケン","city":"横浜市保土ケ谷区","city_kana":"ヨコハマシホドガヤク","town":"和田","town_kana":"ワダ","prefecture_code":14},"0105":{"zip_code":"2400105","prefecture":"神奈川県","prefecture_kana":"カナガワケン","city":"横須賀市","city_kana":"ヨコスカシ","town":"秋谷","town_kana":"アキヤ","prefecture_code":14},"0104":{"zip_code":"2400104","prefecture":"神奈川県","prefecture_kana":"カナガワケン","city":"横須賀市","city_kana":"ヨコスカシ","town":"芦名","town_kana":"アシナ","prefecture_code":14},"0102":{"zip_code":"2400102","prefecture":"神奈川県","prefecture_kana":"カナガワケン","city":"横須賀市","city_kana":"ヨコスカシ","town":"荻野","town_kana":"オギノ","prefecture_code":14},"0106":{"zip_code":"2400106","prefecture":"神奈川県","prefecture_kana":"カナガワケン","city":"横須賀市","city_kana":"ヨコスカシ","town":"子安","town_kana":"コヤス","prefecture_code":14},"0103":{"zip_code":"2400103","prefecture":"神奈川県","prefecture_kana":"カナガワケン","city":"横須賀市","city_kana":"ヨコスカシ","town":"佐島","town_kana":"サジマ","prefecture_code":14},"0108":{"zip_code":"2400108","prefecture":"神奈川県","prefecture_kana":"カナガワケン","city":"横須賀市","city_kana":"ヨコスカシ","town":"佐島の丘","town_kana":"サジマノオカ","prefecture_code":14},"0107":{"zip_code":"2400107","prefecture":"神奈川県","prefecture_kana":"カナガワケン","city":"横須賀市","city_kana":"ヨコスカシ","town":"湘南国際村","town_kana":"ショウナンコクサイムラ","prefecture_code":14},"0101":{"zip_code":"2400101","prefecture":"神奈川県","prefecture_kana":"カナガワケン","city":"横須賀市","city_kana":"ヨコスカシ","town":"長坂","town_kana":"ナガサカ","prefecture_code":14},"0100":{"zip_code":"2400100","prefecture":"神奈川県","prefecture_kana":"カナガワケン","city":"三浦郡葉山町","city_kana":"ミウラグンハヤママチ","town":"","town_kana":"","prefecture_code":14},"0111":{"zip_code":"2400111","prefecture":"神奈川県","prefecture_kana":"カナガワケン","city":"三浦郡葉山町","city_kana":"ミウラグンハヤママチ","town":"一色","town_kana":"イッシキ","prefecture_code":14},"0115":{"zip_code":"2400115","prefecture":"神奈川県","prefecture_kana":"カナガワケン","city":"三浦郡葉山町","city_kana":"ミウラグンハヤママチ","town":"上山口","town_kana":"カミヤマグチ","prefecture_code":14},"0114":{"zip_code":"2400114","prefecture":"神奈川県","prefecture_kana":"カナガワケン","city":"三浦郡葉山町","city_kana":"ミウラグンハヤママチ","town":"木古庭","town_kana":"キコバ","prefecture_code":14},"0116":{"zip_code":"2400116","prefecture":"神奈川県","prefecture_kana":"カナガワケン","city":"三浦郡葉山町","city_kana":"ミウラグンハヤママチ","town":"下山口","town_kana":"シモヤマグチ","prefecture_code":14},"0113":{"zip_code":"2400113","prefecture":"神奈川県","prefecture_kana":"カナガワケン","city":"三浦郡葉山町","city_kana":"ミウラグンハヤママチ","town":"長柄","town_kana":"ナガエ","prefecture_code":14},"0112":{"zip_code":"2400112","prefecture":"神奈川県","prefecture_kana":"カナガワケン","city":"三浦郡葉山町","city_kana":"ミウラグンハヤママチ","town":"堀内","town_kana":"ホリウチ","prefecture_code":14}}