{"0000":{"zip_code":"2410000","prefecture":"神奈川県","prefecture_kana":"カナガワケン","city":"横浜市旭区","city_kana":"ヨコハマシアサヒク","town":"","town_kana":"","prefecture_code":14},"0014":{"zip_code":"2410014","prefecture":"神奈川県","prefecture_kana":"カナガワケン","city":"横浜市旭区","city_kana":"ヨコハマシアサヒク","town":"市沢町","town_kana":"イチザワチョウ","prefecture_code":14},"0033":{"zip_code":"2410033","prefecture":"神奈川県","prefecture_kana":"カナガワケン","city":"横浜市旭区","city_kana":"ヨコハマシアサヒク","town":"今川町","town_kana":"イマガワチョウ","prefecture_code":14},"0817":{"zip_code":"2410817","prefecture":"神奈川県","prefecture_kana":"カナガワケン","city":"横浜市旭区","city_kana":"ヨコハマシアサヒク","town":"今宿","town_kana":"イマジュク","prefecture_code":14},"0032":{"zip_code":"2410032","prefecture":"神奈川県","prefecture_kana":"カナガワケン","city":"横浜市旭区","city_kana":"ヨコハマシアサヒク","town":"今宿東町","town_kana":"イマジュクヒガシチョウ","prefecture_code":14},"0031":{"zip_code":"2410031","prefecture":"神奈川県","prefecture_kana":"カナガワケン","city":"横浜市旭区","city_kana":"ヨコハマシアサヒク","town":"今宿西町","town_kana":"イマジュクニシチョウ","prefecture_code":14},"0034":{"zip_code":"2410034","prefecture":"神奈川県","prefecture_kana":"カナガワケン","city":"横浜市旭区","city_kana":"ヨコハマシアサヒク","town":"今宿南町","town_kana":"イマジュクミナミチョウ","prefecture_code":14},"0813":{"zip_code":"2410813","prefecture":"神奈川県","prefecture_kana":"カナガワケン","city":"横浜市旭区","city_kana":"ヨコハマシアサヒク","town":"今宿町","town_kana":"イマジュクチョウ","prefecture_code":14},"0834":{"zip_code":"2410834","prefecture":"神奈川県","prefecture_kana":"カナガワケン","city":"横浜市旭区","city_kana":"ヨコハマシアサヒク","town":"大池町","town_kana":"オオイケチョウ","prefecture_code":14},"0015":{"zip_code":"2410015","prefecture":"神奈川県","prefecture_kana":"カナガワケン","city":"横浜市旭区","city_kana":"ヨコハマシアサヒク","town":"小高町","town_kana":"オタカチョウ","prefecture_code":14},"0835":{"zip_code":"2410835","prefecture":"神奈川県","prefecture_kana":"カナガワケン","city":"横浜市旭区","city_kana":"ヨコハマシアサヒク","town":"柏町","town_kana":"カシワチョウ","prefecture_code":14},"0812":{"zip_code":"2410812","prefecture":"神奈川県","prefecture_kana":"カナガワケン","city":"横浜市旭区","city_kana":"ヨコハマシアサヒク","town":"金が谷","town_kana":"カネガヤ","prefecture_code":14},"0802":{"zip_code":"2410802","prefecture":"神奈川県","prefecture_kana":"カナガワケン","city":"横浜市旭区","city_kana":"ヨコハマシアサヒク","town":"上川井町","town_kana":"カミカワイチョウ","prefecture_code":14},"0002":{"zip_code":"2410002","prefecture":"神奈川県","prefecture_kana":"カナガワケン","city":"横浜市旭区","city_kana":"ヨコハマシアサヒク","town":"上白根","town_kana":"カミシラネ","prefecture_code":14},"0001":{"zip_code":"2410001","prefecture":"神奈川県","prefecture_kana":"カナガワケン","city":"横浜市旭区","city_kana":"ヨコハマシアサヒク","town":"上白根町","town_kana":"カミシラネチョウ","prefecture_code":14},"0804":{"zip_code":"2410804","prefecture":"神奈川県","prefecture_kana":"カナガワケン","city":"横浜市旭区","city_kana":"ヨコハマシアサヒク","town":"川井宿町","town_kana":"カワイシュクチョウ","prefecture_code":14},"0803":{"zip_code":"2410803","prefecture":"神奈川県","prefecture_kana":"カナガワケン","city":"横浜市旭区","city_kana":"ヨコハマシアサヒク","town":"川井本町","town_kana":"カワイホンチョウ","prefecture_code":14},"0011":{"zip_code":"2410011","prefecture":"神奈川県","prefecture_kana":"カナガワケン","city":"横浜市旭区","city_kana":"ヨコハマシアサヒク","town":"川島町","town_kana":"カワシマチョウ","prefecture_code":14},"0832":{"zip_code":"2410832","prefecture":"神奈川県","prefecture_kana":"カナガワケン","city":"横浜市旭区","city_kana":"ヨコハマシアサヒク","town":"桐が作","town_kana":"キリガサク","prefecture_code":14},"0831":{"zip_code":"2410831","prefecture":"神奈川県","prefecture_kana":"カナガワケン","city":"横浜市旭区","city_kana":"ヨコハマシアサヒク","town":"左近山","town_kana":"サコンヤマ","prefecture_code":14},"0816":{"zip_code":"2410816","prefecture":"神奈川県","prefecture_kana":"カナガワケン","city":"横浜市旭区","city_kana":"ヨコハマシアサヒク","town":"笹野台","town_kana":"ササノダイ","prefecture_code":14},"0822":{"zip_code":"2410822","prefecture":"神奈川県","prefecture_kana":"カナガワケン","city":"横浜市旭区","city_kana":"ヨコハマシアサヒク","town":"さちが丘","town_kana":"サチガオカ","prefecture_code":14},"0013":{"zip_code":"2410013","prefecture":"神奈川県","prefecture_kana":"カナガワケン","city":"横浜市旭区","city_kana":"ヨコハマシアサヒク","town":"三反田町","town_kana":"サンタンダチョウ","prefecture_code":14},"0025":{"zip_code":"2410025","prefecture":"神奈川県","prefecture_kana":"カナガワケン","city":"横浜市旭区","city_kana":"ヨコハマシアサヒク","town":"四季美台","town_kana":"シキミダイ","prefecture_code":14},"0806":{"zip_code":"2410806","prefecture":"神奈川県","prefecture_kana":"カナガワケン","city":"横浜市旭区","city_kana":"ヨコハマシアサヒク","town":"下川井町","town_kana":"シモカワイチョウ","prefecture_code":14},"0005":{"zip_code":"2410005","prefecture":"神奈川県","prefecture_kana":"カナガワケン","city":"横浜市旭区","city_kana":"ヨコハマシアサヒク","town":"白根","town_kana":"シラネ","prefecture_code":14},"0003":{"zip_code":"2410003","prefecture":"神奈川県","prefecture_kana":"カナガワケン","city":"横浜市旭区","city_kana":"ヨコハマシアサヒク","town":"白根町","town_kana":"シラネチョウ","prefecture_code":14},"0823":{"zip_code":"2410823","prefecture":"神奈川県","prefecture_kana":"カナガワケン","city":"横浜市旭区","city_kana":"ヨコハマシアサヒク","town":"善部町","town_kana":"ゼンブチョウ","prefecture_code":14},"0805":{"zip_code":"2410805","prefecture":"神奈川県","prefecture_kana":"カナガワケン","city":"横浜市旭区","city_kana":"ヨコハマシアサヒク","town":"都岡町","town_kana":"ツオカチョウ","prefecture_code":14},"0022":{"zip_code":"2410022","prefecture":"神奈川県","prefecture_kana":"カナガワケン","city":"横浜市旭区","city_kana":"ヨコハマシアサヒク","town":"鶴ケ峰","town_kana":"ツルガミネ","prefecture_code":14},"0021":{"zip_code":"2410021","prefecture":"神奈川県","prefecture_kana":"カナガワケン","city":"横浜市旭区","city_kana":"ヨコハマシアサヒク","town":"鶴ケ峰本町","town_kana":"ツルガミネホンチョウ","prefecture_code":14},"0815":{"zip_code":"2410815","prefecture":"神奈川県","prefecture_kana":"カナガワケン","city":"横浜市旭区","city_kana":"ヨコハマシアサヒク","town":"中尾","town_kana":"ナカオ","prefecture_code":14},"0825":{"zip_code":"2410825","prefecture":"神奈川県","prefecture_kana":"カナガワケン","city":"横浜市旭区","city_kana":"ヨコハマシアサヒク","town":"中希望が丘","town_kana":"ナカキボウガオカ","prefecture_code":14},"0814":{"zip_code":"2410814","prefecture":"神奈川県","prefecture_kana":"カナガワケン","city":"横浜市旭区","city_kana":"ヨコハマシアサヒク","town":"中沢","town_kana":"ナカザワ","prefecture_code":14},"0004":{"zip_code":"2410004","prefecture":"神奈川県","prefecture_kana":"カナガワケン","city":"横浜市旭区","city_kana":"ヨコハマシアサヒク","town":"中白根","town_kana":"ナカシラネ","prefecture_code":14},"0012":{"zip_code":"2410012","prefecture":"神奈川県","prefecture_kana":"カナガワケン","city":"横浜市旭区","city_kana":"ヨコハマシアサヒク","town":"西川島町","town_kana":"ニシカワシマチョウ","prefecture_code":14},"0826":{"zip_code":"2410826","prefecture":"神奈川県","prefecture_kana":"カナガワケン","city":"横浜市旭区","city_kana":"ヨコハマシアサヒク","town":"東希望が丘","town_kana":"ヒガシキボウガオカ","prefecture_code":14},"0821":{"zip_code":"2410821","prefecture":"神奈川県","prefecture_kana":"カナガワケン","city":"横浜市旭区","city_kana":"ヨコハマシアサヒク","town":"二俣川","town_kana":"フタマタガワ","prefecture_code":14},"0023":{"zip_code":"2410023","prefecture":"神奈川県","prefecture_kana":"カナガワケン","city":"横浜市旭区","city_kana":"ヨコハマシアサヒク","town":"本宿町","town_kana":"ホンジュクチョウ","prefecture_code":14},"0024":{"zip_code":"2410024","prefecture":"神奈川県","prefecture_kana":"カナガワケン","city":"横浜市旭区","city_kana":"ヨコハマシアサヒク","town":"本村町","town_kana":"ホンムラチョウ","prefecture_code":14},"0836":{"zip_code":"2410836","prefecture":"神奈川県","prefecture_kana":"カナガワケン","city":"横浜市旭区","city_kana":"ヨコハマシアサヒク","town":"万騎が原","town_kana":"マキガハラ","prefecture_code":14},"0824":{"zip_code":"2410824","prefecture":"神奈川県","prefecture_kana":"カナガワケン","city":"横浜市旭区","city_kana":"ヨコハマシアサヒク","town":"南希望が丘","town_kana":"ミナミキボウガオカ","prefecture_code":14},"0833":{"zip_code":"2410833","prefecture":"神奈川県","prefecture_kana":"カナガワケン","city":"横浜市旭区","city_kana":"ヨコハマシアサヒク","town":"南本宿町","town_kana":"ミナミホンジュクチョウ","prefecture_code":14},"0811":{"zip_code":"2410811","prefecture":"神奈川県","prefecture_kana":"カナガワケン","city":"横浜市旭区","city_kana":"ヨコハマシアサヒク","town":"矢指町","town_kana":"ヤサシチョウ","prefecture_code":14},"0801":{"zip_code":"2410801","prefecture":"神奈川県","prefecture_kana":"カナガワケン","city":"横浜市旭区","city_kana":"ヨコハマシアサヒク","town":"若葉台","town_kana":"ワカバダイ","prefecture_code":14}}