{"0000":{"zip_code":"2420000","prefecture":"神奈川県","prefecture_kana":"カナガワケン","city":"大和市","city_kana":"ヤマトシ","town":"","town_kana":"","prefecture_code":14},"0029":{"zip_code":"2420029","prefecture":"神奈川県","prefecture_kana":"カナガワケン","city":"大和市","city_kana":"ヤマトシ","town":"上草柳","town_kana":"カミソウヤギ","prefecture_code":14},"0014":{"zip_code":"2420014","prefecture":"神奈川県","prefecture_kana":"カナガワケン","city":"大和市","city_kana":"ヤマトシ","town":"上和田","town_kana":"カミワダ","prefecture_code":14},"0028":{"zip_code":"2420028","prefecture":"神奈川県","prefecture_kana":"カナガワケン","city":"大和市","city_kana":"ヤマトシ","town":"桜森","town_kana":"サクラモリ","prefecture_code":14},"0023":{"zip_code":"2420023","prefecture":"神奈川県","prefecture_kana":"カナガワケン","city":"大和市","city_kana":"ヤマトシ","town":"渋谷","town_kana":"シブヤ","prefecture_code":14},"0027":{"zip_code":"2420027","prefecture":"神奈川県","prefecture_kana":"カナガワケン","city":"大和市","city_kana":"ヤマトシ","town":"下草柳","town_kana":"シモソウヤギ","prefecture_code":14},"0001":{"zip_code":"2420001","prefecture":"神奈川県","prefecture_kana":"カナガワケン","city":"大和市","city_kana":"ヤマトシ","town":"下鶴間","town_kana":"シモツルマ","prefecture_code":14},"0015":{"zip_code":"2420015","prefecture":"神奈川県","prefecture_kana":"カナガワケン","city":"大和市","city_kana":"ヤマトシ","town":"下和田","town_kana":"シモワダ","prefecture_code":14},"0026":{"zip_code":"2420026","prefecture":"神奈川県","prefecture_kana":"カナガワケン","city":"大和市","city_kana":"ヤマトシ","town":"草柳","town_kana":"ソウヤギ","prefecture_code":14},"0025":{"zip_code":"2420025","prefecture":"神奈川県","prefecture_kana":"カナガワケン","city":"大和市","city_kana":"ヤマトシ","town":"代官","town_kana":"ダイカン","prefecture_code":14},"0021":{"zip_code":"2420021","prefecture":"神奈川県","prefecture_kana":"カナガワケン","city":"大和市","city_kana":"ヤマトシ","town":"中央","town_kana":"チュウオウ","prefecture_code":14},"0007":{"zip_code":"2420007","prefecture":"神奈川県","prefecture_kana":"カナガワケン","city":"大和市","city_kana":"ヤマトシ","town":"中央林間","town_kana":"チュウオウリンカン","prefecture_code":14},"0008":{"zip_code":"2420008","prefecture":"神奈川県","prefecture_kana":"カナガワケン","city":"大和市","city_kana":"ヤマトシ","town":"中央林間西","town_kana":"チュウオウリンカンニシ","prefecture_code":14},"0002":{"zip_code":"2420002","prefecture":"神奈川県","prefecture_kana":"カナガワケン","city":"大和市","city_kana":"ヤマトシ","town":"つきみ野","town_kana":"ツキミノ","prefecture_code":14},"0004":{"zip_code":"2420004","prefecture":"神奈川県","prefecture_kana":"カナガワケン","city":"大和市","city_kana":"ヤマトシ","town":"鶴間","town_kana":"ツルマ","prefecture_code":14},"0005":{"zip_code":"2420005","prefecture":"神奈川県","prefecture_kana":"カナガワケン","city":"大和市","city_kana":"ヤマトシ","town":"西鶴間","town_kana":"ニシツルマ","prefecture_code":14},"0011":{"zip_code":"2420011","prefecture":"神奈川県","prefecture_kana":"カナガワケン","city":"大和市","city_kana":"ヤマトシ","town":"深見","town_kana":"フカミ","prefecture_code":14},"0013":{"zip_code":"2420013","prefecture":"神奈川県","prefecture_kana":"カナガワケン","city":"大和市","city_kana":"ヤマトシ","town":"深見台","town_kana":"フカミダイ","prefecture_code":14},"0012":{"zip_code":"2420012","prefecture":"神奈川県","prefecture_kana":"カナガワケン","city":"大和市","city_kana":"ヤマトシ","town":"深見東","town_kana":"フカミヒガシ","prefecture_code":14},"0018":{"zip_code":"2420018","prefecture":"神奈川県","prefecture_kana":"カナガワケン","city":"大和市","city_kana":"ヤマトシ","town":"深見西","town_kana":"フカミニシ","prefecture_code":14},"0024":{"zip_code":"2420024","prefecture":"神奈川県","prefecture_kana":"カナガワケン","city":"大和市","city_kana":"ヤマトシ","town":"福田","town_kana":"フクダ","prefecture_code":14},"0006":{"zip_code":"2420006","prefecture":"神奈川県","prefecture_kana":"カナガワケン","city":"大和市","city_kana":"ヤマトシ","town":"南林間","town_kana":"ミナミリンカン","prefecture_code":14},"0022":{"zip_code":"2420022","prefecture":"神奈川県","prefecture_kana":"カナガワケン","city":"大和市","city_kana":"ヤマトシ","town":"柳橋","town_kana":"ヤナギバシ","prefecture_code":14},"0017":{"zip_code":"2420017","prefecture":"神奈川県","prefecture_kana":"カナガワケン","city":"大和市","city_kana":"ヤマトシ","town":"大和東","town_kana":"ヤマトヒガシ","prefecture_code":14},"0016":{"zip_code":"2420016","prefecture":"神奈川県","prefecture_kana":"カナガワケン","city":"大和市","city_kana":"ヤマトシ","town":"大和南","town_kana":"ヤマトミナミ","prefecture_code":14},"0003":{"zip_code":"2420003","prefecture":"神奈川県","prefecture_kana":"カナガワケン","city":"大和市","city_kana":"ヤマトシ","town":"林間","town_kana":"リンカン","prefecture_code":14}}