{"0000":{"zip_code":"2430000","prefecture":"神奈川県","prefecture_kana":"カナガワケン","city":"厚木市","city_kana":"アツギシ","town":"","town_kana":"","prefecture_code":14},"0035":{"zip_code":"2430035","prefecture":"神奈川県","prefecture_kana":"カナガワケン","city":"厚木市","city_kana":"アツギシ","town":"愛甲","town_kana":"アイコウ","prefecture_code":14},"0028":{"zip_code":"2430028","prefecture":"神奈川県","prefecture_kana":"カナガワケン","city":"厚木市","city_kana":"アツギシ","town":"愛甲西","town_kana":"アイコウニシ","prefecture_code":14},"0027":{"zip_code":"2430027","prefecture":"神奈川県","prefecture_kana":"カナガワケン","city":"厚木市","city_kana":"アツギシ","town":"愛甲東","town_kana":"アイコウヒガシ","prefecture_code":14},"0038":{"zip_code":"2430038","prefecture":"神奈川県","prefecture_kana":"カナガワケン","city":"厚木市","city_kana":"アツギシ","town":"愛名","town_kana":"アイナ","prefecture_code":14},"0014":{"zip_code":"2430014","prefecture":"神奈川県","prefecture_kana":"カナガワケン","city":"厚木市","city_kana":"アツギシ","town":"旭町","town_kana":"アサヒチョウ","prefecture_code":14},"0007":{"zip_code":"2430007","prefecture":"神奈川県","prefecture_kana":"カナガワケン","city":"厚木市","city_kana":"アツギシ","town":"厚木","town_kana":"アツギ","prefecture_code":14},"0011":{"zip_code":"2430011","prefecture":"神奈川県","prefecture_kana":"カナガワケン","city":"厚木市","city_kana":"アツギシ","town":"厚木町","town_kana":"アツギチョウ","prefecture_code":14},"0006":{"zip_code":"2430006","prefecture":"神奈川県","prefecture_kana":"カナガワケン","city":"厚木市","city_kana":"アツギシ","town":"吾妻町","town_kana":"アヅマチョウ","prefecture_code":14},"0213":{"zip_code":"2430213","prefecture":"神奈川県","prefecture_kana":"カナガワケン","city":"厚木市","city_kana":"アツギシ","town":"飯山","town_kana":"イイヤマ","prefecture_code":14},"0013":{"zip_code":"2430013","prefecture":"神奈川県","prefecture_kana":"カナガワケン","city":"厚木市","city_kana":"アツギシ","town":"泉町","town_kana":"イズミチョウ","prefecture_code":14},"0212":{"zip_code":"2430212","prefecture":"神奈川県","prefecture_kana":"カナガワケン","city":"厚木市","city_kana":"アツギシ","town":"及川","town_kana":"オイガワ","prefecture_code":14},"0817":{"zip_code":"2430817","prefecture":"神奈川県","prefecture_kana":"カナガワケン","city":"厚木市","city_kana":"アツギシ","town":"王子","town_kana":"オウジ","prefecture_code":14},"0021":{"zip_code":"2430021","prefecture":"神奈川県","prefecture_kana":"カナガワケン","city":"厚木市","city_kana":"アツギシ","town":"岡田","town_kana":"オカタ","prefecture_code":14},"0126":{"zip_code":"2430126","prefecture":"神奈川県","prefecture_kana":"カナガワケン","city":"厚木市","city_kana":"アツギシ","town":"岡津古久","town_kana":"オカツコク","prefecture_code":14},"0125":{"zip_code":"2430125","prefecture":"神奈川県","prefecture_kana":"カナガワケン","city":"厚木市","city_kana":"アツギシ","town":"小野","town_kana":"オノ","prefecture_code":14},"0032":{"zip_code":"2430032","prefecture":"神奈川県","prefecture_kana":"カナガワケン","city":"厚木市","city_kana":"アツギシ","town":"恩名","town_kana":"オンナ","prefecture_code":14},"0807":{"zip_code":"2430807","prefecture":"神奈川県","prefecture_kana":"カナガワケン","city":"厚木市","city_kana":"アツギシ","town":"金田","town_kana":"カネダ","prefecture_code":14},"0801":{"zip_code":"2430801","prefecture":"神奈川県","prefecture_kana":"カナガワケン","city":"厚木市","city_kana":"アツギシ","town":"上依知","town_kana":"カミエチ","prefecture_code":14},"0201":{"zip_code":"2430201","prefecture":"神奈川県","prefecture_kana":"カナガワケン","city":"厚木市","city_kana":"アツギシ","town":"上荻野","town_kana":"カミオギノ","prefecture_code":14},"0025":{"zip_code":"2430025","prefecture":"神奈川県","prefecture_kana":"カナガワケン","city":"厚木市","city_kana":"アツギシ","town":"上落合","town_kana":"カミオチアイ","prefecture_code":14},"0215":{"zip_code":"2430215","prefecture":"神奈川県","prefecture_kana":"カナガワケン","city":"厚木市","city_kana":"アツギシ","town":"上古沢","town_kana":"カミフルサワ","prefecture_code":14},"0003":{"zip_code":"2430003","prefecture":"神奈川県","prefecture_kana":"カナガワケン","city":"厚木市","city_kana":"アツギシ","town":"寿町","town_kana":"コトブキチョウ","prefecture_code":14},"0012":{"zip_code":"2430012","prefecture":"神奈川県","prefecture_kana":"カナガワケン","city":"厚木市","city_kana":"アツギシ","town":"幸町","town_kana":"サイワイチョウ","prefecture_code":14},"0022":{"zip_code":"2430022","prefecture":"神奈川県","prefecture_kana":"カナガワケン","city":"厚木市","city_kana":"アツギシ","town":"酒井","town_kana":"サカイ","prefecture_code":14},"0017":{"zip_code":"2430017","prefecture":"神奈川県","prefecture_kana":"カナガワケン","city":"厚木市","city_kana":"アツギシ","town":"栄町","town_kana":"サカエチョウ","prefecture_code":14},"0802":{"zip_code":"2430802","prefecture":"神奈川県","prefecture_kana":"カナガワケン","city":"厚木市","city_kana":"アツギシ","town":"猿ケ島","town_kana":"サルガシマ","prefecture_code":14},"0211":{"zip_code":"2430211","prefecture":"神奈川県","prefecture_kana":"カナガワケン","city":"厚木市","city_kana":"アツギシ","town":"三田","town_kana":"サンダ","prefecture_code":14},"0217":{"zip_code":"2430217","prefecture":"神奈川県","prefecture_kana":"カナガワケン","city":"厚木市","city_kana":"アツギシ","town":"三田南","town_kana":"サンダミナミ","prefecture_code":14},"0806":{"zip_code":"2430806","prefecture":"神奈川県","prefecture_kana":"カナガワケン","city":"厚木市","city_kana":"アツギシ","town":"下依知","town_kana":"シモエチ","prefecture_code":14},"0203":{"zip_code":"2430203","prefecture":"神奈川県","prefecture_kana":"カナガワケン","city":"厚木市","city_kana":"アツギシ","town":"下荻野","town_kana":"シモオギノ","prefecture_code":14},"0206":{"zip_code":"2430206","prefecture":"神奈川県","prefecture_kana":"カナガワケン","city":"厚木市","city_kana":"アツギシ","town":"下川入","town_kana":"シモカワイリ","prefecture_code":14},"0026":{"zip_code":"2430026","prefecture":"神奈川県","prefecture_kana":"カナガワケン","city":"厚木市","city_kana":"アツギシ","town":"下津古久","town_kana":"シモツコク","prefecture_code":14},"0214":{"zip_code":"2430214","prefecture":"神奈川県","prefecture_kana":"カナガワケン","city":"厚木市","city_kana":"アツギシ","town":"下古沢","town_kana":"シモフルサワ","prefecture_code":14},"0804":{"zip_code":"2430804","prefecture":"神奈川県","prefecture_kana":"カナガワケン","city":"厚木市","city_kana":"アツギシ","town":"関口","town_kana":"セキグチ","prefecture_code":14},"0205":{"zip_code":"2430205","prefecture":"神奈川県","prefecture_kana":"カナガワケン","city":"厚木市","city_kana":"アツギシ","town":"棚沢","town_kana":"タナザワ","prefecture_code":14},"0016":{"zip_code":"2430016","prefecture":"神奈川県","prefecture_kana":"カナガワケン","city":"厚木市","city_kana":"アツギシ","town":"田村町","town_kana":"タムラチョウ","prefecture_code":14},"0811":{"zip_code":"2430811","prefecture":"神奈川県","prefecture_kana":"カナガワケン","city":"厚木市","city_kana":"アツギシ","town":"妻田","town_kana":"ツマダ","prefecture_code":14},"0813":{"zip_code":"2430813","prefecture":"神奈川県","prefecture_kana":"カナガワケン","city":"厚木市","city_kana":"アツギシ","town":"妻田東","town_kana":"ツマダヒガシ","prefecture_code":14},"0815":{"zip_code":"2430815","prefecture":"神奈川県","prefecture_kana":"カナガワケン","city":"厚木市","city_kana":"アツギシ","town":"妻田西","town_kana":"ツマダニシ","prefecture_code":14},"0814":{"zip_code":"2430814","prefecture":"神奈川県","prefecture_kana":"カナガワケン","city":"厚木市","city_kana":"アツギシ","town":"妻田南","town_kana":"ツマダミナミ","prefecture_code":14},"0812":{"zip_code":"2430812","prefecture":"神奈川県","prefecture_kana":"カナガワケン","city":"厚木市","city_kana":"アツギシ","town":"妻田北","town_kana":"ツマダキタ","prefecture_code":14},"0023":{"zip_code":"2430023","prefecture":"神奈川県","prefecture_kana":"カナガワケン","city":"厚木市","city_kana":"アツギシ","town":"戸田","town_kana":"トダ","prefecture_code":14},"0204":{"zip_code":"2430204","prefecture":"神奈川県","prefecture_kana":"カナガワケン","city":"厚木市","city_kana":"アツギシ","town":"鳶尾","town_kana":"トビオ","prefecture_code":14},"0031":{"zip_code":"2430031","prefecture":"神奈川県","prefecture_kana":"カナガワケン","city":"厚木市","city_kana":"アツギシ","town":"戸室","town_kana":"トムロ","prefecture_code":14},"0805":{"zip_code":"2430805","prefecture":"神奈川県","prefecture_kana":"カナガワケン","city":"厚木市","city_kana":"アツギシ","town":"中依知","town_kana":"ナカエチ","prefecture_code":14},"0202":{"zip_code":"2430202","prefecture":"神奈川県","prefecture_kana":"カナガワケン","city":"厚木市","city_kana":"アツギシ","town":"中荻野","town_kana":"ナカオギノ","prefecture_code":14},"0018":{"zip_code":"2430018","prefecture":"神奈川県","prefecture_kana":"カナガワケン","city":"厚木市","city_kana":"アツギシ","town":"中町","town_kana":"ナカチョウ","prefecture_code":14},"0024":{"zip_code":"2430024","prefecture":"神奈川県","prefecture_kana":"カナガワケン","city":"厚木市","city_kana":"アツギシ","town":"長沼","town_kana":"ナガヌマ","prefecture_code":14},"0121":{"zip_code":"2430121","prefecture":"神奈川県","prefecture_kana":"カナガワケン","city":"厚木市","city_kana":"アツギシ","town":"七沢","town_kana":"ナナサワ","prefecture_code":14},"0033":{"zip_code":"2430033","prefecture":"神奈川県","prefecture_kana":"カナガワケン","city":"厚木市","city_kana":"アツギシ","town":"温水","town_kana":"ヌルミズ","prefecture_code":14},"0039":{"zip_code":"2430039","prefecture":"神奈川県","prefecture_kana":"カナガワケン","city":"厚木市","city_kana":"アツギシ","town":"温水西","town_kana":"ヌルミズニシ","prefecture_code":14},"0036":{"zip_code":"2430036","prefecture":"神奈川県","prefecture_kana":"カナガワケン","city":"厚木市","city_kana":"アツギシ","town":"長谷","town_kana":"ハセ","prefecture_code":14},"0816":{"zip_code":"2430816","prefecture":"神奈川県","prefecture_kana":"カナガワケン","city":"厚木市","city_kana":"アツギシ","town":"林","town_kana":"ハヤシ","prefecture_code":14},"0001":{"zip_code":"2430001","prefecture":"神奈川県","prefecture_kana":"カナガワケン","city":"厚木市","city_kana":"アツギシ","town":"東町","town_kana":"ヒガシチョウ","prefecture_code":14},"0034":{"zip_code":"2430034","prefecture":"神奈川県","prefecture_kana":"カナガワケン","city":"厚木市","city_kana":"アツギシ","town":"船子","town_kana":"フナコ","prefecture_code":14},"0005":{"zip_code":"2430005","prefecture":"神奈川県","prefecture_kana":"カナガワケン","city":"厚木市","city_kana":"アツギシ","town":"松枝","town_kana":"マツエ","prefecture_code":14},"0207":{"zip_code":"2430207","prefecture":"神奈川県","prefecture_kana":"カナガワケン","city":"厚木市","city_kana":"アツギシ","town":"まつかげ台","town_kana":"マツカゲダイ","prefecture_code":14},"0004":{"zip_code":"2430004","prefecture":"神奈川県","prefecture_kana":"カナガワケン","city":"厚木市","city_kana":"アツギシ","town":"水引","town_kana":"ミズヒキ","prefecture_code":14},"0041":{"zip_code":"2430041","prefecture":"神奈川県","prefecture_kana":"カナガワケン","city":"厚木市","city_kana":"アツギシ","town":"緑ケ丘","town_kana":"ミドリガオカ","prefecture_code":14},"0015":{"zip_code":"2430015","prefecture":"神奈川県","prefecture_kana":"カナガワケン","city":"厚木市","city_kana":"アツギシ","town":"南町","town_kana":"ミナミチョウ","prefecture_code":14},"0208":{"zip_code":"2430208","prefecture":"神奈川県","prefecture_kana":"カナガワケン","city":"厚木市","city_kana":"アツギシ","town":"みはる野","town_kana":"ミハルノ","prefecture_code":14},"0216":{"zip_code":"2430216","prefecture":"神奈川県","prefecture_kana":"カナガワケン","city":"厚木市","city_kana":"アツギシ","town":"宮の里","town_kana":"ミヤノサト","prefecture_code":14},"0037":{"zip_code":"2430037","prefecture":"神奈川県","prefecture_kana":"カナガワケン","city":"厚木市","city_kana":"アツギシ","town":"毛利台","town_kana":"モウリダイ","prefecture_code":14},"0002":{"zip_code":"2430002","prefecture":"神奈川県","prefecture_kana":"カナガワケン","city":"厚木市","city_kana":"アツギシ","town":"元町","town_kana":"モトチョウ","prefecture_code":14},"0122":{"zip_code":"2430122","prefecture":"神奈川県","prefecture_kana":"カナガワケン","city":"厚木市","city_kana":"アツギシ","town":"森の里","town_kana":"モリノサト","prefecture_code":14},"0123":{"zip_code":"2430123","prefecture":"神奈川県","prefecture_kana":"カナガワケン","city":"厚木市","city_kana":"アツギシ","town":"森の里青山","town_kana":"モリノサトアオヤマ","prefecture_code":14},"0124":{"zip_code":"2430124","prefecture":"神奈川県","prefecture_kana":"カナガワケン","city":"厚木市","city_kana":"アツギシ","town":"森の里若宮","town_kana":"モリノサトワカミヤ","prefecture_code":14},"0803":{"zip_code":"2430803","prefecture":"神奈川県","prefecture_kana":"カナガワケン","city":"厚木市","city_kana":"アツギシ","town":"山際","town_kana":"ヤマギワ","prefecture_code":14},"0400":{"zip_code":"2430400","prefecture":"神奈川県","prefecture_kana":"カナガワケン","city":"海老名市","city_kana":"エビナシ","town":"","town_kana":"","prefecture_code":14},"0423":{"zip_code":"2430423","prefecture":"神奈川県","prefecture_kana":"カナガワケン","city":"海老名市","city_kana":"エビナシ","town":"今里","town_kana":"イマザト","prefecture_code":14},"0411":{"zip_code":"2430411","prefecture":"神奈川県","prefecture_kana":"カナガワケン","city":"海老名市","city_kana":"エビナシ","town":"大谷","town_kana":"オオヤ","prefecture_code":14},"0419":{"zip_code":"2430419","prefecture":"神奈川県","prefecture_kana":"カナガワケン","city":"海老名市","city_kana":"エビナシ","town":"大谷北","town_kana":"オオヤキタ","prefecture_code":14},"0418":{"zip_code":"2430418","prefecture":"神奈川県","prefecture_kana":"カナガワケン","city":"海老名市","city_kana":"エビナシ","town":"大谷南","town_kana":"オオヤミナミ","prefecture_code":14},"0402":{"zip_code":"2430402","prefecture":"神奈川県","prefecture_kana":"カナガワケン","city":"海老名市","city_kana":"エビナシ","town":"柏ケ谷","town_kana":"カシワガヤ","prefecture_code":14},"0404":{"zip_code":"2430404","prefecture":"神奈川県","prefecture_kana":"カナガワケン","city":"海老名市","city_kana":"エビナシ","town":"勝瀬","town_kana":"カツセ","prefecture_code":14},"0426":{"zip_code":"2430426","prefecture":"神奈川県","prefecture_kana":"カナガワケン","city":"海老名市","city_kana":"エビナシ","town":"門沢橋","town_kana":"カドサワバシ","prefecture_code":14},"0431":{"zip_code":"2430431","prefecture":"神奈川県","prefecture_kana":"カナガワケン","city":"海老名市","city_kana":"エビナシ","town":"上今泉","town_kana":"カミイマイズミ","prefecture_code":14},"0434":{"zip_code":"2430434","prefecture":"神奈川県","prefecture_kana":"カナガワケン","city":"海老名市","city_kana":"エビナシ","town":"上郷","town_kana":"カミゴウ","prefecture_code":14},"0415":{"zip_code":"2430415","prefecture":"神奈川県","prefecture_kana":"カナガワケン","city":"海老名市","city_kana":"エビナシ","town":"上河内","town_kana":"カミゴウチ","prefecture_code":14},"0433":{"zip_code":"2430433","prefecture":"神奈川県","prefecture_kana":"カナガワケン","city":"海老名市","city_kana":"エビナシ","town":"河原口","town_kana":"カワラグチ","prefecture_code":14},"0413":{"zip_code":"2430413","prefecture":"神奈川県","prefecture_kana":"カナガワケン","city":"海老名市","city_kana":"エビナシ","town":"国分寺台","town_kana":"コクブンジダイ","prefecture_code":14},"0405":{"zip_code":"2430405","prefecture":"神奈川県","prefecture_kana":"カナガワケン","city":"海老名市","city_kana":"エビナシ","town":"国分南","town_kana":"コクブミナミ","prefecture_code":14},"0406":{"zip_code":"2430406","prefecture":"神奈川県","prefecture_kana":"カナガワケン","city":"海老名市","city_kana":"エビナシ","town":"国分北","town_kana":"コクブキタ","prefecture_code":14},"0421":{"zip_code":"2430421","prefecture":"神奈川県","prefecture_kana":"カナガワケン","city":"海老名市","city_kana":"エビナシ","town":"さつき町","town_kana":"サツキチョウ","prefecture_code":14},"0435":{"zip_code":"2430435","prefecture":"神奈川県","prefecture_kana":"カナガワケン","city":"海老名市","city_kana":"エビナシ","town":"下今泉","town_kana":"シモイマイズミ","prefecture_code":14},"0424":{"zip_code":"2430424","prefecture":"神奈川県","prefecture_kana":"カナガワケン","city":"海老名市","city_kana":"エビナシ","town":"社家","town_kana":"シャケ","prefecture_code":14},"0414":{"zip_code":"2430414","prefecture":"神奈川県","prefecture_kana":"カナガワケン","city":"海老名市","city_kana":"エビナシ","town":"杉久保","town_kana":"スギクボ","prefecture_code":14},"0410":{"zip_code":"2430410","prefecture":"神奈川県","prefecture_kana":"カナガワケン","city":"海老名市","city_kana":"エビナシ","town":"杉久保北","town_kana":"スギクボキタ","prefecture_code":14},"0427":{"zip_code":"2430427","prefecture":"神奈川県","prefecture_kana":"カナガワケン","city":"海老名市","city_kana":"エビナシ","town":"杉久保南","town_kana":"スギクボミナミ","prefecture_code":14},"0432":{"zip_code":"2430432","prefecture":"神奈川県","prefecture_kana":"カナガワケン","city":"海老名市","city_kana":"エビナシ","town":"中央","town_kana":"チュウオウ","prefecture_code":14},"0416":{"zip_code":"2430416","prefecture":"神奈川県","prefecture_kana":"カナガワケン","city":"海老名市","city_kana":"エビナシ","town":"中河内","town_kana":"ナカゴウチ","prefecture_code":14},"0422":{"zip_code":"2430422","prefecture":"神奈川県","prefecture_kana":"カナガワケン","city":"海老名市","city_kana":"エビナシ","town":"中新田","town_kana":"ナカシンデン","prefecture_code":14},"0425":{"zip_code":"2430425","prefecture":"神奈川県","prefecture_kana":"カナガワケン","city":"海老名市","city_kana":"エビナシ","town":"中野","town_kana":"ナカノ","prefecture_code":14},"0412":{"zip_code":"2430412","prefecture":"神奈川県","prefecture_kana":"カナガワケン","city":"海老名市","city_kana":"エビナシ","town":"浜田町","town_kana":"ハマダチョウ","prefecture_code":14},"0401":{"zip_code":"2430401","prefecture":"神奈川県","prefecture_kana":"カナガワケン","city":"海老名市","city_kana":"エビナシ","town":"東柏ケ谷","town_kana":"ヒガシカシワガヤ","prefecture_code":14},"0417":{"zip_code":"2430417","prefecture":"神奈川県","prefecture_kana":"カナガワケン","city":"海老名市","city_kana":"エビナシ","town":"本郷","town_kana":"ホンゴウ","prefecture_code":14},"0403":{"zip_code":"2430403","prefecture":"神奈川県","prefecture_kana":"カナガワケン","city":"海老名市","city_kana":"エビナシ","town":"望地","town_kana":"モウチ","prefecture_code":14},"0300":{"zip_code":"2430300","prefecture":"神奈川県","prefecture_kana":"カナガワケン","city":"愛甲郡愛川町","city_kana":"アイコウグンアイカワマチ","town":"","town_kana":"","prefecture_code":14},"0302":{"zip_code":"2430302","prefecture":"神奈川県","prefecture_kana":"カナガワケン","city":"愛甲郡愛川町","city_kana":"アイコウグンアイカワマチ","town":"春日台","town_kana":"カスガダイ","prefecture_code":14},"0301":{"zip_code":"2430301","prefecture":"神奈川県","prefecture_kana":"カナガワケン","city":"愛甲郡愛川町","city_kana":"アイコウグンアイカワマチ","town":"角田","town_kana":"スミダ","prefecture_code":14},"0306":{"zip_code":"2430306","prefecture":"神奈川県","prefecture_kana":"カナガワケン","city":"愛甲郡愛川町","city_kana":"アイコウグンアイカワマチ","town":"田代","town_kana":"タシロ","prefecture_code":14},"0304":{"zip_code":"2430304","prefecture":"神奈川県","prefecture_kana":"カナガワケン","city":"愛甲郡愛川町","city_kana":"アイコウグンアイカワマチ","town":"棚沢","town_kana":"タナザワ","prefecture_code":14},"0303":{"zip_code":"2430303","prefecture":"神奈川県","prefecture_kana":"カナガワケン","city":"愛甲郡愛川町","city_kana":"アイコウグンアイカワマチ","town":"中津","town_kana":"ナカツ","prefecture_code":14},"0305":{"zip_code":"2430305","prefecture":"神奈川県","prefecture_kana":"カナガワケン","city":"愛甲郡愛川町","city_kana":"アイコウグンアイカワマチ","town":"八菅山","town_kana":"ハスゲサン","prefecture_code":14},"0307":{"zip_code":"2430307","prefecture":"神奈川県","prefecture_kana":"カナガワケン","city":"愛甲郡愛川町","city_kana":"アイコウグンアイカワマチ","town":"半原","town_kana":"ハンバラ","prefecture_code":14},"0308":{"zip_code":"2430308","prefecture":"神奈川県","prefecture_kana":"カナガワケン","city":"愛甲郡愛川町","city_kana":"アイコウグンアイカワマチ","town":"三増","town_kana":"ミマセ","prefecture_code":14},"0100":{"zip_code":"2430100","prefecture":"神奈川県","prefecture_kana":"カナガワケン","city":"愛甲郡清川村","city_kana":"アイコウグンキヨカワムラ","town":"","town_kana":"","prefecture_code":14},"0112":{"zip_code":"2430112","prefecture":"神奈川県","prefecture_kana":"カナガワケン","city":"愛甲郡清川村","city_kana":"アイコウグンキヨカワムラ","town":"煤ケ谷","town_kana":"ススガヤ","prefecture_code":14},"0111":{"zip_code":"2430111","prefecture":"神奈川県","prefecture_kana":"カナガワケン","city":"愛甲郡清川村","city_kana":"アイコウグンキヨカワムラ","town":"宮ケ瀬","town_kana":"ミヤガセ","prefecture_code":14}}