{"0000":{"zip_code":"2440000","prefecture":"神奈川県","prefecture_kana":"カナガワケン","city":"横浜市戸塚区","city_kana":"ヨコハマシトツカク","town":"","town_kana":"","prefecture_code":14},"0812":{"zip_code":"2440812","prefecture":"神奈川県","prefecture_kana":"カナガワケン","city":"横浜市戸塚区","city_kana":"ヨコハマシトツカク","town":"柏尾町","town_kana":"カシオチョウ","prefecture_code":14},"0811":{"zip_code":"2440811","prefecture":"神奈川県","prefecture_kana":"カナガワケン","city":"横浜市戸塚区","city_kana":"ヨコハマシトツカク","town":"上柏尾町","town_kana":"カミカシオチョウ","prefecture_code":14},"0816":{"zip_code":"2440816","prefecture":"神奈川県","prefecture_kana":"カナガワケン","city":"横浜市戸塚区","city_kana":"ヨコハマシトツカク","town":"上倉田町","town_kana":"カミクラタチョウ","prefecture_code":14},"0806":{"zip_code":"2440806","prefecture":"神奈川県","prefecture_kana":"カナガワケン","city":"横浜市戸塚区","city_kana":"ヨコハマシトツカク","town":"上品濃","town_kana":"カミシナノ","prefecture_code":14},"0805":{"zip_code":"2440805","prefecture":"神奈川県","prefecture_kana":"カナガワケン","city":"横浜市戸塚区","city_kana":"ヨコハマシトツカク","town":"川上町","town_kana":"カワカミチョウ","prefecture_code":14},"0004":{"zip_code":"2440004","prefecture":"神奈川県","prefecture_kana":"カナガワケン","city":"横浜市戸塚区","city_kana":"ヨコハマシトツカク","town":"小雀町","town_kana":"コスズメチョウ","prefecture_code":14},"0801":{"zip_code":"2440801","prefecture":"神奈川県","prefecture_kana":"カナガワケン","city":"横浜市戸塚区","city_kana":"ヨコハマシトツカク","town":"品濃町","town_kana":"シナノチョウ","prefecture_code":14},"0815":{"zip_code":"2440815","prefecture":"神奈川県","prefecture_kana":"カナガワケン","city":"横浜市戸塚区","city_kana":"ヨコハマシトツカク","town":"下倉田町","town_kana":"シモクラタチョウ","prefecture_code":14},"0003":{"zip_code":"2440003","prefecture":"神奈川県","prefecture_kana":"カナガワケン","city":"横浜市戸塚区","city_kana":"ヨコハマシトツカク","town":"戸塚町","town_kana":"トツカチョウ","prefecture_code":14},"0001":{"zip_code":"2440001","prefecture":"神奈川県","prefecture_kana":"カナガワケン","city":"横浜市戸塚区","city_kana":"ヨコハマシトツカク","town":"鳥が丘","town_kana":"トリガオカ","prefecture_code":14},"0802":{"zip_code":"2440802","prefecture":"神奈川県","prefecture_kana":"カナガワケン","city":"横浜市戸塚区","city_kana":"ヨコハマシトツカク","town":"平戸","town_kana":"ヒラド","prefecture_code":14},"0803":{"zip_code":"2440803","prefecture":"神奈川県","prefecture_kana":"カナガワケン","city":"横浜市戸塚区","city_kana":"ヨコハマシトツカク","town":"平戸町","town_kana":"ヒラドチョウ","prefecture_code":14},"0813":{"zip_code":"2440813","prefecture":"神奈川県","prefecture_kana":"カナガワケン","city":"横浜市戸塚区","city_kana":"ヨコハマシトツカク","town":"舞岡町","town_kana":"マイオカチョウ","prefecture_code":14},"0804":{"zip_code":"2440804","prefecture":"神奈川県","prefecture_kana":"カナガワケン","city":"横浜市戸塚区","city_kana":"ヨコハマシトツカク","town":"前田町","town_kana":"マエダチョウ","prefecture_code":14},"0814":{"zip_code":"2440814","prefecture":"神奈川県","prefecture_kana":"カナガワケン","city":"横浜市戸塚区","city_kana":"ヨコハマシトツカク","town":"南舞岡","town_kana":"ミナミマイオカ","prefecture_code":14},"0002":{"zip_code":"2440002","prefecture":"神奈川県","prefecture_kana":"カナガワケン","city":"横浜市戸塚区","city_kana":"ヨコハマシトツカク","town":"矢部町","town_kana":"ヤベチョウ","prefecture_code":14},"0817":{"zip_code":"2440817","prefecture":"神奈川県","prefecture_kana":"カナガワケン","city":"横浜市戸塚区","city_kana":"ヨコハマシトツカク","town":"吉田町","town_kana":"ヨシダチョウ","prefecture_code":14},"0842":{"zip_code":"2440842","prefecture":"神奈川県","prefecture_kana":"カナガワケン","city":"横浜市栄区","city_kana":"ヨコハマシサカエク","town":"飯島町","town_kana":"イイジマチョウ","prefecture_code":14},"0845":{"zip_code":"2440845","prefecture":"神奈川県","prefecture_kana":"カナガワケン","city":"横浜市栄区","city_kana":"ヨコハマシサカエク","town":"金井町","town_kana":"カナイチョウ","prefecture_code":14},"0844":{"zip_code":"2440844","prefecture":"神奈川県","prefecture_kana":"カナガワケン","city":"横浜市栄区","city_kana":"ヨコハマシサカエク","town":"田谷町","town_kana":"タヤチョウ","prefecture_code":14},"0843":{"zip_code":"2440843","prefecture":"神奈川県","prefecture_kana":"カナガワケン","city":"横浜市栄区","city_kana":"ヨコハマシサカエク","town":"長尾台町","town_kana":"ナガオダイチョウ","prefecture_code":14},"0841":{"zip_code":"2440841","prefecture":"神奈川県","prefecture_kana":"カナガワケン","city":"横浜市栄区","city_kana":"ヨコハマシサカエク","town":"長沼町","town_kana":"ナガヌマチョウ","prefecture_code":14}}