{"0052":{"zip_code":"2450052","prefecture":"神奈川県","prefecture_kana":"カナガワケン","city":"横浜市戸塚区","city_kana":"ヨコハマシトツカク","town":"秋葉町","town_kana":"アキバチョウ","prefecture_code":14},"0064":{"zip_code":"2450064","prefecture":"神奈川県","prefecture_kana":"カナガワケン","city":"横浜市戸塚区","city_kana":"ヨコハマシトツカク","town":"影取町","town_kana":"カゲトリチョウ","prefecture_code":14},"0053":{"zip_code":"2450053","prefecture":"神奈川県","prefecture_kana":"カナガワケン","city":"横浜市戸塚区","city_kana":"ヨコハマシトツカク","town":"上矢部町","town_kana":"カミヤベチョウ","prefecture_code":14},"0061":{"zip_code":"2450061","prefecture":"神奈川県","prefecture_kana":"カナガワケン","city":"横浜市戸塚区","city_kana":"ヨコハマシトツカク","town":"汲沢","town_kana":"グミザワ","prefecture_code":14},"0062":{"zip_code":"2450062","prefecture":"神奈川県","prefecture_kana":"カナガワケン","city":"横浜市戸塚区","city_kana":"ヨコハマシトツカク","town":"汲沢町","town_kana":"グミザワチョウ","prefecture_code":14},"0051":{"zip_code":"2450051","prefecture":"神奈川県","prefecture_kana":"カナガワケン","city":"横浜市戸塚区","city_kana":"ヨコハマシトツカク","town":"名瀬町","town_kana":"ナセチョウ","prefecture_code":14},"0063":{"zip_code":"2450063","prefecture":"神奈川県","prefecture_kana":"カナガワケン","city":"横浜市戸塚区","city_kana":"ヨコハマシトツカク","town":"原宿","town_kana":"ハラジュク","prefecture_code":14},"0065":{"zip_code":"2450065","prefecture":"神奈川県","prefecture_kana":"カナガワケン","city":"横浜市戸塚区","city_kana":"ヨコハマシトツカク","town":"東俣野町","town_kana":"ヒガシマタノチョウ","prefecture_code":14},"0067":{"zip_code":"2450067","prefecture":"神奈川県","prefecture_kana":"カナガワケン","city":"横浜市戸塚区","city_kana":"ヨコハマシトツカク","town":"深谷町","town_kana":"フカヤチョウ","prefecture_code":14},"0066":{"zip_code":"2450066","prefecture":"神奈川県","prefecture_kana":"カナガワケン","city":"横浜市戸塚区","city_kana":"ヨコハマシトツカク","town":"俣野町","town_kana":"マタノチョウ","prefecture_code":14},"0000":{"zip_code":"2450000","prefecture":"神奈川県","prefecture_kana":"カナガワケン","city":"横浜市泉区","city_kana":"ヨコハマシイズミク","town":"","town_kana":"","prefecture_code":14},"0001":{"zip_code":"2450001","prefecture":"神奈川県","prefecture_kana":"カナガワケン","city":"横浜市泉区","city_kana":"ヨコハマシイズミク","town":"池の谷","town_kana":"イケノタニ","prefecture_code":14},"0022":{"zip_code":"2450022","prefecture":"神奈川県","prefecture_kana":"カナガワケン","city":"横浜市泉区","city_kana":"ヨコハマシイズミク","town":"和泉が丘","town_kana":"イズミガオカ","prefecture_code":14},"0023":{"zip_code":"2450023","prefecture":"神奈川県","prefecture_kana":"カナガワケン","city":"横浜市泉区","city_kana":"ヨコハマシイズミク","town":"和泉中央南","town_kana":"イズミチュウオウミナミ","prefecture_code":14},"0016":{"zip_code":"2450016","prefecture":"神奈川県","prefecture_kana":"カナガワケン","city":"横浜市泉区","city_kana":"ヨコハマシイズミク","town":"和泉町","town_kana":"イズミチョウ","prefecture_code":14},"0003":{"zip_code":"2450003","prefecture":"神奈川県","prefecture_kana":"カナガワケン","city":"横浜市泉区","city_kana":"ヨコハマシイズミク","town":"岡津町","town_kana":"オカヅチョウ","prefecture_code":14},"0007":{"zip_code":"2450007","prefecture":"神奈川県","prefecture_kana":"カナガワケン","city":"横浜市泉区","city_kana":"ヨコハマシイズミク","town":"桂坂","town_kana":"カツラザカ","prefecture_code":14},"0018":{"zip_code":"2450018","prefecture":"神奈川県","prefecture_kana":"カナガワケン","city":"横浜市泉区","city_kana":"ヨコハマシイズミク","town":"上飯田町","town_kana":"カミイイダチョウ","prefecture_code":14},"0017":{"zip_code":"2450017","prefecture":"神奈川県","prefecture_kana":"カナガワケン","city":"横浜市泉区","city_kana":"ヨコハマシイズミク","town":"下飯田町","town_kana":"シモイイダチョウ","prefecture_code":14},"0021":{"zip_code":"2450021","prefecture":"神奈川県","prefecture_kana":"カナガワケン","city":"横浜市泉区","city_kana":"ヨコハマシイズミク","town":"下和泉","town_kana":"シモイズミ","prefecture_code":14},"0005":{"zip_code":"2450005","prefecture":"神奈川県","prefecture_kana":"カナガワケン","city":"横浜市泉区","city_kana":"ヨコハマシイズミク","town":"白百合","town_kana":"シラユリ","prefecture_code":14},"0009":{"zip_code":"2450009","prefecture":"神奈川県","prefecture_kana":"カナガワケン","city":"横浜市泉区","city_kana":"ヨコハマシイズミク","town":"新橋町","town_kana":"シンバシチョウ","prefecture_code":14},"0011":{"zip_code":"2450011","prefecture":"神奈川県","prefecture_kana":"カナガワケン","city":"横浜市泉区","city_kana":"ヨコハマシイズミク","town":"中田町","town_kana":"ナカタチョウ","prefecture_code":14},"0013":{"zip_code":"2450013","prefecture":"神奈川県","prefecture_kana":"カナガワケン","city":"横浜市泉区","city_kana":"ヨコハマシイズミク","town":"中田東","town_kana":"ナカタヒガシ","prefecture_code":14},"0015":{"zip_code":"2450015","prefecture":"神奈川県","prefecture_kana":"カナガワケン","city":"横浜市泉区","city_kana":"ヨコハマシイズミク","town":"中田西","town_kana":"ナカタニシ","prefecture_code":14},"0014":{"zip_code":"2450014","prefecture":"神奈川県","prefecture_kana":"カナガワケン","city":"横浜市泉区","city_kana":"ヨコハマシイズミク","town":"中田南","town_kana":"ナカタミナミ","prefecture_code":14},"0012":{"zip_code":"2450012","prefecture":"神奈川県","prefecture_kana":"カナガワケン","city":"横浜市泉区","city_kana":"ヨコハマシイズミク","town":"中田北","town_kana":"ナカタキタ","prefecture_code":14},"0006":{"zip_code":"2450006","prefecture":"神奈川県","prefecture_kana":"カナガワケン","city":"横浜市泉区","city_kana":"ヨコハマシイズミク","town":"西が岡","town_kana":"ニシガオカ","prefecture_code":14},"0008":{"zip_code":"2450008","prefecture":"神奈川県","prefecture_kana":"カナガワケン","city":"横浜市泉区","city_kana":"ヨコハマシイズミク","town":"弥生台","town_kana":"ヤヨイダイ","prefecture_code":14},"0004":{"zip_code":"2450004","prefecture":"神奈川県","prefecture_kana":"カナガワケン","city":"横浜市泉区","city_kana":"ヨコハマシイズミク","town":"領家","town_kana":"リョウケ","prefecture_code":14},"0002":{"zip_code":"2450002","prefecture":"神奈川県","prefecture_kana":"カナガワケン","city":"横浜市泉区","city_kana":"ヨコハマシイズミク","town":"緑園","town_kana":"リョクエン","prefecture_code":14}}