{"0000":{"zip_code":"2490000","prefecture":"神奈川県","prefecture_kana":"カナガワケン","city":"逗子市","city_kana":"ズシシ","town":"以下に掲載がない場合","town_kana":"イカニケイサイガナイバアイ","prefecture_code":14},"0003":{"zip_code":"2490003","prefecture":"神奈川県","prefecture_kana":"カナガワケン","city":"逗子市","city_kana":"ズシシ","town":"池子","town_kana":"イケゴ","prefecture_code":14},"0008":{"zip_code":"2490008","prefecture":"神奈川県","prefecture_kana":"カナガワケン","city":"逗子市","city_kana":"ズシシ","town":"小坪","town_kana":"コツボ","prefecture_code":14},"0005":{"zip_code":"2490005","prefecture":"神奈川県","prefecture_kana":"カナガワケン","city":"逗子市","city_kana":"ズシシ","town":"桜山","town_kana":"サクラヤマ","prefecture_code":14},"0007":{"zip_code":"2490007","prefecture":"神奈川県","prefecture_kana":"カナガワケン","city":"逗子市","city_kana":"ズシシ","town":"新宿","town_kana":"シンジュク","prefecture_code":14},"0006":{"zip_code":"2490006","prefecture":"神奈川県","prefecture_kana":"カナガワケン","city":"逗子市","city_kana":"ズシシ","town":"逗子","town_kana":"ズシ","prefecture_code":14},"0004":{"zip_code":"2490004","prefecture":"神奈川県","prefecture_kana":"カナガワケン","city":"逗子市","city_kana":"ズシシ","town":"沼間","town_kana":"ヌママ","prefecture_code":14},"0001":{"zip_code":"2490001","prefecture":"神奈川県","prefecture_kana":"カナガワケン","city":"逗子市","city_kana":"ズシシ","town":"久木","town_kana":"ヒサギ","prefecture_code":14},"0002":{"zip_code":"2490002","prefecture":"神奈川県","prefecture_kana":"カナガワケン","city":"逗子市","city_kana":"ズシシ","town":"山の根","town_kana":"ヤマノネ","prefecture_code":14}}