{"0000":{"zip_code":"2500000","prefecture":"神奈川県","prefecture_kana":"カナガワケン","city":"小田原市","city_kana":"オダワラシ","town":"以下に掲載がない場合","town_kana":"イカニケイサイガナイバアイ","prefecture_code":14},"0053":{"zip_code":"2500053","prefecture":"神奈川県","prefecture_kana":"カナガワケン","city":"小田原市","city_kana":"オダワラシ","town":"穴部","town_kana":"アナベ","prefecture_code":14},"0864":{"zip_code":"2500864","prefecture":"神奈川県","prefecture_kana":"カナガワケン","city":"小田原市","city_kana":"オダワラシ","town":"穴部新田","town_kana":"アナベシンデン","prefecture_code":14},"0856":{"zip_code":"2500856","prefecture":"神奈川県","prefecture_kana":"カナガワケン","city":"小田原市","city_kana":"オダワラシ","town":"新屋","town_kana":"アラヤ","prefecture_code":14},"0863":{"zip_code":"2500863","prefecture":"神奈川県","prefecture_kana":"カナガワケン","city":"小田原市","city_kana":"オダワラシ","town":"飯泉","town_kana":"イイズミ","prefecture_code":14},"0854":{"zip_code":"2500854","prefecture":"神奈川県","prefecture_kana":"カナガワケン","city":"小田原市","city_kana":"オダワラシ","town":"飯田岡","town_kana":"イイダオカ","prefecture_code":14},"0041":{"zip_code":"2500041","prefecture":"神奈川県","prefecture_kana":"カナガワケン","city":"小田原市","city_kana":"オダワラシ","town":"池上","town_kana":"イケガミ","prefecture_code":14},"0056":{"zip_code":"2500056","prefecture":"神奈川県","prefecture_kana":"カナガワケン","city":"小田原市","city_kana":"オダワラシ","town":"井細田","town_kana":"イサイダ","prefecture_code":14},"0022":{"zip_code":"2500022","prefecture":"神奈川県","prefecture_kana":"カナガワケン","city":"小田原市","city_kana":"オダワラシ","town":"石橋","town_kana":"イシバシ","prefecture_code":14},"0034":{"zip_code":"2500034","prefecture":"神奈川県","prefecture_kana":"カナガワケン","city":"小田原市","city_kana":"オダワラシ","town":"板橋","town_kana":"イタバシ","prefecture_code":14},"0031":{"zip_code":"2500031","prefecture":"神奈川県","prefecture_kana":"カナガワケン","city":"小田原市","city_kana":"オダワラシ","town":"入生田","town_kana":"イリュウダ","prefecture_code":14},"0025":{"zip_code":"2500025","prefecture":"神奈川県","prefecture_kana":"カナガワケン","city":"小田原市","city_kana":"オダワラシ","town":"江之浦","town_kana":"エノウラ","prefecture_code":14},"0001":{"zip_code":"2500001","prefecture":"神奈川県","prefecture_kana":"カナガワケン","city":"小田原市","city_kana":"オダワラシ","town":"扇町","town_kana":"オウギチョウ","prefecture_code":14},"0042":{"zip_code":"2500042","prefecture":"神奈川県","prefecture_kana":"カナガワケン","city":"小田原市","city_kana":"オダワラシ","town":"荻窪","town_kana":"オギクボ","prefecture_code":14},"0211":{"zip_code":"2500211","prefecture":"神奈川県","prefecture_kana":"カナガワケン","city":"小田原市","city_kana":"オダワラシ","town":"鬼柳","town_kana":"オニヤナギ","prefecture_code":14},"0032":{"zip_code":"2500032","prefecture":"神奈川県","prefecture_kana":"カナガワケン","city":"小田原市","city_kana":"オダワラシ","town":"風祭","town_kana":"カザマツリ","prefecture_code":14},"0877":{"zip_code":"2500877","prefecture":"神奈川県","prefecture_kana":"カナガワケン","city":"小田原市","city_kana":"オダワラシ","town":"上新田","town_kana":"カミシンデン","prefecture_code":14},"0202":{"zip_code":"2500202","prefecture":"神奈川県","prefecture_kana":"カナガワケン","city":"小田原市","city_kana":"オダワラシ","town":"上曽我","town_kana":"カミソガ","prefecture_code":14},"0874":{"zip_code":"2500874","prefecture":"神奈川県","prefecture_kana":"カナガワケン","city":"小田原市","city_kana":"オダワラシ","town":"鴨宮","town_kana":"カモノミヤ","prefecture_code":14},"0852":{"zip_code":"2500852","prefecture":"神奈川県","prefecture_kana":"カナガワケン","city":"小田原市","city_kana":"オダワラシ","town":"栢山","town_kana":"カヤマ","prefecture_code":14},"0051":{"zip_code":"2500051","prefecture":"神奈川県","prefecture_kana":"カナガワケン","city":"小田原市","city_kana":"オダワラシ","town":"北ノ窪","town_kana":"キタノクボ","prefecture_code":14},"0055":{"zip_code":"2500055","prefecture":"神奈川県","prefecture_kana":"カナガワケン","city":"小田原市","city_kana":"オダワラシ","town":"久野","town_kana":"クノ","prefecture_code":14},"0861":{"zip_code":"2500861","prefecture":"神奈川県","prefecture_kana":"カナガワケン","city":"小田原市","city_kana":"オダワラシ","town":"桑原","town_kana":"クワハラ","prefecture_code":14},"0858":{"zip_code":"2500858","prefecture":"神奈川県","prefecture_kana":"カナガワケン","city":"小田原市","city_kana":"オダワラシ","town":"小台","town_kana":"コダイ","prefecture_code":14},"0002":{"zip_code":"2500002","prefecture":"神奈川県","prefecture_kana":"カナガワケン","city":"小田原市","city_kana":"オダワラシ","town":"寿町","town_kana":"コトブキチョウ","prefecture_code":14},"0023":{"zip_code":"2500023","prefecture":"神奈川県","prefecture_kana":"カナガワケン","city":"小田原市","city_kana":"オダワラシ","town":"米神","town_kana":"コメカミ","prefecture_code":14},"0011":{"zip_code":"2500011","prefecture":"神奈川県","prefecture_kana":"カナガワケン","city":"小田原市","city_kana":"オダワラシ","town":"栄町","town_kana":"サカエチョウ","prefecture_code":14},"0855":{"zip_code":"2500855","prefecture":"神奈川県","prefecture_kana":"カナガワケン","city":"小田原市","city_kana":"オダワラシ","town":"清水新田","town_kana":"シミズシンデン","prefecture_code":14},"0208":{"zip_code":"2500208","prefecture":"神奈川県","prefecture_kana":"カナガワケン","city":"小田原市","city_kana":"オダワラシ","town":"下大井","town_kana":"シモオオイ","prefecture_code":14},"0878":{"zip_code":"2500878","prefecture":"神奈川県","prefecture_kana":"カナガワケン","city":"小田原市","city_kana":"オダワラシ","town":"下新田","town_kana":"シモシンデン","prefecture_code":14},"0871":{"zip_code":"2500871","prefecture":"神奈川県","prefecture_kana":"カナガワケン","city":"小田原市","city_kana":"オダワラシ","town":"下堀","town_kana":"シモボリ","prefecture_code":14},"0046":{"zip_code":"2500046","prefecture":"神奈川県","prefecture_kana":"カナガワケン","city":"小田原市","city_kana":"オダワラシ","town":"十字","town_kana":"ジュウジ","prefecture_code":14},"0014":{"zip_code":"2500014","prefecture":"神奈川県","prefecture_kana":"カナガワケン","city":"小田原市","city_kana":"オダワラシ","town":"城内","town_kana":"ジョウナイ","prefecture_code":14},"0045":{"zip_code":"2500045","prefecture":"神奈川県","prefecture_kana":"カナガワケン","city":"小田原市","city_kana":"オダワラシ","town":"城山","town_kana":"シロヤマ","prefecture_code":14},"0201":{"zip_code":"2500201","prefecture":"神奈川県","prefecture_kana":"カナガワケン","city":"小田原市","city_kana":"オダワラシ","town":"曽我大沢","town_kana":"ソガオオサワ","prefecture_code":14},"0203":{"zip_code":"2500203","prefecture":"神奈川県","prefecture_kana":"カナガワケン","city":"小田原市","city_kana":"オダワラシ","town":"曽我岸","town_kana":"ソガキシ","prefecture_code":14},"0207":{"zip_code":"2500207","prefecture":"神奈川県","prefecture_kana":"カナガワケン","city":"小田原市","city_kana":"オダワラシ","town":"曽我光海","town_kana":"ソガコウミ","prefecture_code":14},"0205":{"zip_code":"2500205","prefecture":"神奈川県","prefecture_kana":"カナガワケン","city":"小田原市","city_kana":"オダワラシ","town":"曽我別所","town_kana":"ソガベッショ","prefecture_code":14},"0204":{"zip_code":"2500204","prefecture":"神奈川県","prefecture_kana":"カナガワケン","city":"小田原市","city_kana":"オダワラシ","town":"曽我谷津","town_kana":"ソガヤツ","prefecture_code":14},"0206":{"zip_code":"2500206","prefecture":"神奈川県","prefecture_kana":"カナガワケン","city":"小田原市","city_kana":"オダワラシ","town":"曽我原","town_kana":"ソガハラ","prefecture_code":14},"0851":{"zip_code":"2500851","prefecture":"神奈川県","prefecture_kana":"カナガワケン","city":"小田原市","city_kana":"オダワラシ","town":"曽比","town_kana":"ソビ","prefecture_code":14},"0216":{"zip_code":"2500216","prefecture":"神奈川県","prefecture_kana":"カナガワケン","city":"小田原市","city_kana":"オダワラシ","town":"高田","town_kana":"タカタ","prefecture_code":14},"0054":{"zip_code":"2500054","prefecture":"神奈川県","prefecture_kana":"カナガワケン","city":"小田原市","city_kana":"オダワラシ","town":"多古","town_kana":"タコ","prefecture_code":14},"0215":{"zip_code":"2500215","prefecture":"神奈川県","prefecture_kana":"カナガワケン","city":"小田原市","city_kana":"オダワラシ","town":"千代","town_kana":"チヨ","prefecture_code":14},"0872":{"zip_code":"2500872","prefecture":"神奈川県","prefecture_kana":"カナガワケン","city":"小田原市","city_kana":"オダワラシ","town":"中里","town_kana":"ナカザト","prefecture_code":14},"0876":{"zip_code":"2500876","prefecture":"神奈川県","prefecture_kana":"カナガワケン","city":"小田原市","city_kana":"オダワラシ","town":"中新田","town_kana":"ナカシンデン","prefecture_code":14},"0866":{"zip_code":"2500866","prefecture":"神奈川県","prefecture_kana":"カナガワケン","city":"小田原市","city_kana":"オダワラシ","town":"中曽根","town_kana":"ナカゾネ","prefecture_code":14},"0005":{"zip_code":"2500005","prefecture":"神奈川県","prefecture_kana":"カナガワケン","city":"小田原市","city_kana":"オダワラシ","town":"中町","town_kana":"ナカチョウ","prefecture_code":14},"0214":{"zip_code":"2500214","prefecture":"神奈川県","prefecture_kana":"カナガワケン","city":"小田原市","city_kana":"オダワラシ","town":"永塚","town_kana":"ナガツカ","prefecture_code":14},"0862":{"zip_code":"2500862","prefecture":"神奈川県","prefecture_kana":"カナガワケン","city":"小田原市","city_kana":"オダワラシ","town":"成田","town_kana":"ナルダ","prefecture_code":14},"0212":{"zip_code":"2500212","prefecture":"神奈川県","prefecture_kana":"カナガワケン","city":"小田原市","city_kana":"オダワラシ","town":"西大友","town_kana":"ニシオオドモ","prefecture_code":14},"0024":{"zip_code":"2500024","prefecture":"神奈川県","prefecture_kana":"カナガワケン","city":"小田原市","city_kana":"オダワラシ","town":"根府川","town_kana":"ネブカワ","prefecture_code":14},"0218":{"zip_code":"2500218","prefecture":"神奈川県","prefecture_kana":"カナガワケン","city":"小田原市","city_kana":"オダワラシ","town":"延清","town_kana":"ノブキヨ","prefecture_code":14},"0004":{"zip_code":"2500004","prefecture":"神奈川県","prefecture_kana":"カナガワケン","city":"小田原市","city_kana":"オダワラシ","town":"浜町","town_kana":"ハマチョウ","prefecture_code":14},"0021":{"zip_code":"2500021","prefecture":"神奈川県","prefecture_kana":"カナガワケン","city":"小田原市","city_kana":"オダワラシ","town":"早川","town_kana":"ハヤカワ","prefecture_code":14},"0213":{"zip_code":"2500213","prefecture":"神奈川県","prefecture_kana":"カナガワケン","city":"小田原市","city_kana":"オダワラシ","town":"東大友","town_kana":"ヒガシオオドモ","prefecture_code":14},"0003":{"zip_code":"2500003","prefecture":"神奈川県","prefecture_kana":"カナガワケン","city":"小田原市","city_kana":"オダワラシ","town":"東町","town_kana":"ヒガシチョウ","prefecture_code":14},"0052":{"zip_code":"2500052","prefecture":"神奈川県","prefecture_kana":"カナガワケン","city":"小田原市","city_kana":"オダワラシ","town":"府川","town_kana":"フカワ","prefecture_code":14},"0217":{"zip_code":"2500217","prefecture":"神奈川県","prefecture_kana":"カナガワケン","city":"小田原市","city_kana":"オダワラシ","town":"別堀","town_kana":"ベッポリ","prefecture_code":14},"0853":{"zip_code":"2500853","prefecture":"神奈川県","prefecture_kana":"カナガワケン","city":"小田原市","city_kana":"オダワラシ","town":"堀之内","town_kana":"ホリノウチ","prefecture_code":14},"0012":{"zip_code":"2500012","prefecture":"神奈川県","prefecture_kana":"カナガワケン","city":"小田原市","city_kana":"オダワラシ","town":"本町","town_kana":"ホンチョウ","prefecture_code":14},"0033":{"zip_code":"2500033","prefecture":"神奈川県","prefecture_kana":"カナガワケン","city":"小田原市","city_kana":"オダワラシ","town":"水之尾","town_kana":"ミズノオ","prefecture_code":14},"0044":{"zip_code":"2500044","prefecture":"神奈川県","prefecture_kana":"カナガワケン","city":"小田原市","city_kana":"オダワラシ","town":"緑","town_kana":"ミドリ","prefecture_code":14},"0035":{"zip_code":"2500035","prefecture":"神奈川県","prefecture_kana":"カナガワケン","city":"小田原市","city_kana":"オダワラシ","town":"南板橋","town_kana":"ミナミイタバシ","prefecture_code":14},"0875":{"zip_code":"2500875","prefecture":"神奈川県","prefecture_kana":"カナガワケン","city":"小田原市","city_kana":"オダワラシ","town":"南鴨宮","town_kana":"ミナミカモノミヤ","prefecture_code":14},"0013":{"zip_code":"2500013","prefecture":"神奈川県","prefecture_kana":"カナガワケン","city":"小田原市","city_kana":"オダワラシ","town":"南町","town_kana":"ミナミチョウ","prefecture_code":14},"0043":{"zip_code":"2500043","prefecture":"神奈川県","prefecture_kana":"カナガワケン","city":"小田原市","city_kana":"オダワラシ","town":"谷津","town_kana":"ヤツ","prefecture_code":14},"0857":{"zip_code":"2500857","prefecture":"神奈川県","prefecture_kana":"カナガワケン","city":"小田原市","city_kana":"オダワラシ","town":"柳新田","town_kana":"ヤナギシンデン","prefecture_code":14},"0873":{"zip_code":"2500873","prefecture":"神奈川県","prefecture_kana":"カナガワケン","city":"小田原市","city_kana":"オダワラシ","town":"矢作","town_kana":"ヤハギ","prefecture_code":14},"0865":{"zip_code":"2500865","prefecture":"神奈川県","prefecture_kana":"カナガワケン","city":"小田原市","city_kana":"オダワラシ","town":"蓮正寺","town_kana":"レンショウジ","prefecture_code":14},"0100":{"zip_code":"2500100","prefecture":"神奈川県","prefecture_kana":"カナガワケン","city":"南足柄市","city_kana":"ミナミアシガラシ","town":"以下に掲載がない場合","town_kana":"イカニケイサイガナイバアイ","prefecture_code":14},"0134":{"zip_code":"2500134","prefecture":"神奈川県","prefecture_kana":"カナガワケン","city":"南足柄市","city_kana":"ミナミアシガラシ","town":"雨坪","town_kana":"アマツボ","prefecture_code":14},"0122":{"zip_code":"2500122","prefecture":"神奈川県","prefecture_kana":"カナガワケン","city":"南足柄市","city_kana":"ミナミアシガラシ","town":"飯沢","town_kana":"イイザワ","prefecture_code":14},"0124":{"zip_code":"2500124","prefecture":"神奈川県","prefecture_kana":"カナガワケン","city":"南足柄市","city_kana":"ミナミアシガラシ","town":"生駒","town_kana":"イコマ","prefecture_code":14},"0113":{"zip_code":"2500113","prefecture":"神奈川県","prefecture_kana":"カナガワケン","city":"南足柄市","city_kana":"ミナミアシガラシ","town":"岩原","town_kana":"イワハラ","prefecture_code":14},"0131":{"zip_code":"2500131","prefecture":"神奈川県","prefecture_kana":"カナガワケン","city":"南足柄市","city_kana":"ミナミアシガラシ","town":"内山","town_kana":"ウチヤマ","prefecture_code":14},"0126":{"zip_code":"2500126","prefecture":"神奈川県","prefecture_kana":"カナガワケン","city":"南足柄市","city_kana":"ミナミアシガラシ","town":"狩野","town_kana":"カノ","prefecture_code":14},"0135":{"zip_code":"2500135","prefecture":"神奈川県","prefecture_kana":"カナガワケン","city":"南足柄市","city_kana":"ミナミアシガラシ","town":"苅野","town_kana":"カリノ","prefecture_code":14},"0114":{"zip_code":"2500114","prefecture":"神奈川県","prefecture_kana":"カナガワケン","city":"南足柄市","city_kana":"ミナミアシガラシ","town":"北窪","town_kana":"キタクボ","prefecture_code":14},"0107":{"zip_code":"2500107","prefecture":"神奈川県","prefecture_kana":"カナガワケン","city":"南足柄市","city_kana":"ミナミアシガラシ","town":"小市","town_kana":"コイチ","prefecture_code":14},"0132":{"zip_code":"2500132","prefecture":"神奈川県","prefecture_kana":"カナガワケン","city":"南足柄市","city_kana":"ミナミアシガラシ","town":"弘西寺","town_kana":"コウサイジ","prefecture_code":14},"0125":{"zip_code":"2500125","prefecture":"神奈川県","prefecture_kana":"カナガワケン","city":"南足柄市","city_kana":"ミナミアシガラシ","town":"駒形新宿","town_kana":"コマガタシンシュク","prefecture_code":14},"0105":{"zip_code":"2500105","prefecture":"神奈川県","prefecture_kana":"カナガワケン","city":"南足柄市","city_kana":"ミナミアシガラシ","town":"関本","town_kana":"セキモト","prefecture_code":14},"0102":{"zip_code":"2500102","prefecture":"神奈川県","prefecture_kana":"カナガワケン","city":"南足柄市","city_kana":"ミナミアシガラシ","town":"千津島","town_kana":"センヅシマ","prefecture_code":14},"0127":{"zip_code":"2500127","prefecture":"神奈川県","prefecture_kana":"カナガワケン","city":"南足柄市","city_kana":"ミナミアシガラシ","town":"大雄町","town_kana":"ダイユウチョウ","prefecture_code":14},"0111":{"zip_code":"2500111","prefecture":"神奈川県","prefecture_kana":"カナガワケン","city":"南足柄市","city_kana":"ミナミアシガラシ","town":"竹松","town_kana":"タケマツ","prefecture_code":14},"0117":{"zip_code":"2500117","prefecture":"神奈川県","prefecture_kana":"カナガワケン","city":"南足柄市","city_kana":"ミナミアシガラシ","town":"塚原","town_kana":"ツカハラ","prefecture_code":14},"0123":{"zip_code":"2500123","prefecture":"神奈川県","prefecture_kana":"カナガワケン","city":"南足柄市","city_kana":"ミナミアシガラシ","town":"中沼","town_kana":"ナカヌマ","prefecture_code":14},"0106":{"zip_code":"2500106","prefecture":"神奈川県","prefecture_kana":"カナガワケン","city":"南足柄市","city_kana":"ミナミアシガラシ","town":"怒田","town_kana":"ヌダ","prefecture_code":14},"0115":{"zip_code":"2500115","prefecture":"神奈川県","prefecture_kana":"カナガワケン","city":"南足柄市","city_kana":"ミナミアシガラシ","town":"沼田","town_kana":"ヌマタ","prefecture_code":14},"0121":{"zip_code":"2500121","prefecture":"神奈川県","prefecture_kana":"カナガワケン","city":"南足柄市","city_kana":"ミナミアシガラシ","town":"広町","town_kana":"ヒロマチ","prefecture_code":14},"0133":{"zip_code":"2500133","prefecture":"神奈川県","prefecture_kana":"カナガワケン","city":"南足柄市","city_kana":"ミナミアシガラシ","town":"福泉","town_kana":"フクセン","prefecture_code":14},"0101":{"zip_code":"2500101","prefecture":"神奈川県","prefecture_kana":"カナガワケン","city":"南足柄市","city_kana":"ミナミアシガラシ","town":"班目","town_kana":"マダラメ","prefecture_code":14},"0103":{"zip_code":"2500103","prefecture":"神奈川県","prefecture_kana":"カナガワケン","city":"南足柄市","city_kana":"ミナミアシガラシ","town":"壗下","town_kana":"ママシタ","prefecture_code":14},"0116":{"zip_code":"2500116","prefecture":"神奈川県","prefecture_kana":"カナガワケン","city":"南足柄市","city_kana":"ミナミアシガラシ","town":"三竹","town_kana":"ミタケ","prefecture_code":14},"0104":{"zip_code":"2500104","prefecture":"神奈川県","prefecture_kana":"カナガワケン","city":"南足柄市","city_kana":"ミナミアシガラシ","town":"向田","town_kana":"ムカイダ","prefecture_code":14},"0136":{"zip_code":"2500136","prefecture":"神奈川県","prefecture_kana":"カナガワケン","city":"南足柄市","city_kana":"ミナミアシガラシ","town":"矢倉沢","town_kana":"ヤグラザワ","prefecture_code":14},"0112":{"zip_code":"2500112","prefecture":"神奈川県","prefecture_kana":"カナガワケン","city":"南足柄市","city_kana":"ミナミアシガラシ","town":"和田河原","town_kana":"ワダガハラ","prefecture_code":14},"0500":{"zip_code":"2500500","prefecture":"神奈川県","prefecture_kana":"カナガワケン","city":"足柄下郡箱根町","city_kana":"アシガラシモグンハコネマチ","town":"以下に掲載がない場合","town_kana":"イカニケイサイガナイバアイ","prefecture_code":14},"0523":{"zip_code":"2500523","prefecture":"神奈川県","prefecture_kana":"カナガワケン","city":"足柄下郡箱根町","city_kana":"アシガラシモグンハコネマチ","town":"芦之湯","town_kana":"アシノユ","prefecture_code":14},"0405":{"zip_code":"2500405","prefecture":"神奈川県","prefecture_kana":"カナガワケン","city":"足柄下郡箱根町","city_kana":"アシガラシモグンハコネマチ","town":"大平台","town_kana":"オオヒラダイ","prefecture_code":14},"0402":{"zip_code":"2500402","prefecture":"神奈川県","prefecture_kana":"カナガワケン","city":"足柄下郡箱根町","city_kana":"アシガラシモグンハコネマチ","town":"木賀","town_kana":"キガ","prefecture_code":14},"0406":{"zip_code":"2500406","prefecture":"神奈川県","prefecture_kana":"カナガワケン","city":"足柄下郡箱根町","city_kana":"アシガラシモグンハコネマチ","town":"小涌谷","town_kana":"コワクダニ","prefecture_code":14},"0408":{"zip_code":"2500408","prefecture":"神奈川県","prefecture_kana":"カナガワケン","city":"足柄下郡箱根町","city_kana":"アシガラシモグンハコネマチ","town":"強羅","town_kana":"ゴウラ","prefecture_code":14},"0313":{"zip_code":"2500313","prefecture":"神奈川県","prefecture_kana":"カナガワケン","city":"足柄下郡箱根町","city_kana":"アシガラシモグンハコネマチ","town":"須雲川","town_kana":"スクモガワ","prefecture_code":14},"0631":{"zip_code":"2500631","prefecture":"神奈川県","prefecture_kana":"カナガワケン","city":"足柄下郡箱根町","city_kana":"アシガラシモグンハコネマチ","town":"仙石原","town_kana":"センゴクハラ","prefecture_code":14},"0403":{"zip_code":"2500403","prefecture":"神奈川県","prefecture_kana":"カナガワケン","city":"足柄下郡箱根町","city_kana":"アシガラシモグンハコネマチ","town":"底倉","town_kana":"ソコクラ","prefecture_code":14},"0315":{"zip_code":"2500315","prefecture":"神奈川県","prefecture_kana":"カナガワケン","city":"足柄下郡箱根町","city_kana":"アシガラシモグンハコネマチ","town":"塔之澤","town_kana":"トウノサワ","prefecture_code":14},"0407":{"zip_code":"2500407","prefecture":"神奈川県","prefecture_kana":"カナガワケン","city":"足柄下郡箱根町","city_kana":"アシガラシモグンハコネマチ","town":"二ノ平","town_kana":"ニノタイラ","prefecture_code":14},"0521":{"zip_code":"2500521","prefecture":"神奈川県","prefecture_kana":"カナガワケン","city":"足柄下郡箱根町","city_kana":"アシガラシモグンハコネマチ","town":"箱根","town_kana":"ハコネ","prefecture_code":14},"0314":{"zip_code":"2500314","prefecture":"神奈川県","prefecture_kana":"カナガワケン","city":"足柄下郡箱根町","city_kana":"アシガラシモグンハコネマチ","town":"畑宿","town_kana":"ハタジュク","prefecture_code":14},"0401":{"zip_code":"2500401","prefecture":"神奈川県","prefecture_kana":"カナガワケン","city":"足柄下郡箱根町","city_kana":"アシガラシモグンハコネマチ","town":"宮城野","town_kana":"ミヤギノ","prefecture_code":14},"0404":{"zip_code":"2500404","prefecture":"神奈川県","prefecture_kana":"カナガワケン","city":"足柄下郡箱根町","city_kana":"アシガラシモグンハコネマチ","town":"宮ノ下","town_kana":"ミヤノシタ","prefecture_code":14},"0522":{"zip_code":"2500522","prefecture":"神奈川県","prefecture_kana":"カナガワケン","city":"足柄下郡箱根町","city_kana":"アシガラシモグンハコネマチ","town":"元箱根","town_kana":"モトハコネ","prefecture_code":14},"0311":{"zip_code":"2500311","prefecture":"神奈川県","prefecture_kana":"カナガワケン","city":"足柄下郡箱根町","city_kana":"アシガラシモグンハコネマチ","town":"湯本","town_kana":"ユモト","prefecture_code":14},"0312":{"zip_code":"2500312","prefecture":"神奈川県","prefecture_kana":"カナガワケン","city":"足柄下郡箱根町","city_kana":"アシガラシモグンハコネマチ","town":"湯本茶屋","town_kana":"ユモトチャヤ","prefecture_code":14}}