{"0000":{"zip_code":"2510000","prefecture":"神奈川県","prefecture_kana":"カナガワケン","city":"藤沢市","city_kana":"フジサワシ","town":"","town_kana":"","prefecture_code":14},"0054":{"zip_code":"2510054","prefecture":"神奈川県","prefecture_kana":"カナガワケン","city":"藤沢市","city_kana":"フジサワシ","town":"朝日町","town_kana":"アサヒチョウ","prefecture_code":14},"0862":{"zip_code":"2510862","prefecture":"神奈川県","prefecture_kana":"カナガワケン","city":"藤沢市","city_kana":"フジサワシ","town":"稲荷","town_kana":"イナリ","prefecture_code":14},"0036":{"zip_code":"2510036","prefecture":"神奈川県","prefecture_kana":"カナガワケン","city":"藤沢市","city_kana":"フジサワシ","town":"江の島","town_kana":"エノシマ","prefecture_code":14},"0861":{"zip_code":"2510861","prefecture":"神奈川県","prefecture_kana":"カナガワケン","city":"藤沢市","city_kana":"フジサワシ","town":"大庭","town_kana":"オオバ","prefecture_code":14},"0032":{"zip_code":"2510032","prefecture":"神奈川県","prefecture_kana":"カナガワケン","city":"藤沢市","city_kana":"フジサワシ","town":"片瀬","town_kana":"カタセ","prefecture_code":14},"0035":{"zip_code":"2510035","prefecture":"神奈川県","prefecture_kana":"カナガワケン","city":"藤沢市","city_kana":"フジサワシ","town":"片瀬海岸","town_kana":"カタセカイガン","prefecture_code":14},"0034":{"zip_code":"2510034","prefecture":"神奈川県","prefecture_kana":"カナガワケン","city":"藤沢市","city_kana":"フジサワシ","town":"片瀬目白山","town_kana":"カタセメジロヤマ","prefecture_code":14},"0033":{"zip_code":"2510033","prefecture":"神奈川県","prefecture_kana":"カナガワケン","city":"藤沢市","city_kana":"フジサワシ","town":"片瀬山","town_kana":"カタセヤマ","prefecture_code":14},"0003":{"zip_code":"2510003","prefecture":"神奈川県","prefecture_kana":"カナガワケン","city":"藤沢市","city_kana":"フジサワシ","town":"柄沢","town_kana":"カラサワ","prefecture_code":14},"0015":{"zip_code":"2510015","prefecture":"神奈川県","prefecture_kana":"カナガワケン","city":"藤沢市","city_kana":"フジサワシ","town":"川名","town_kana":"カワナ","prefecture_code":14},"0022":{"zip_code":"2510022","prefecture":"神奈川県","prefecture_kana":"カナガワケン","city":"藤沢市","city_kana":"フジサワシ","town":"鵠沼","town_kana":"クゲヌマ","prefecture_code":14},"0025":{"zip_code":"2510025","prefecture":"神奈川県","prefecture_kana":"カナガワケン","city":"藤沢市","city_kana":"フジサワシ","town":"鵠沼石上","town_kana":"クゲヌマイシガミ","prefecture_code":14},"0037":{"zip_code":"2510037","prefecture":"神奈川県","prefecture_kana":"カナガワケン","city":"藤沢市","city_kana":"フジサワシ","town":"鵠沼海岸","town_kana":"クゲヌマカイガン","prefecture_code":14},"0027":{"zip_code":"2510027","prefecture":"神奈川県","prefecture_kana":"カナガワケン","city":"藤沢市","city_kana":"フジサワシ","town":"鵠沼桜が岡","town_kana":"クゲヌマサクラガオカ","prefecture_code":14},"0021":{"zip_code":"2510021","prefecture":"神奈川県","prefecture_kana":"カナガワケン","city":"藤沢市","city_kana":"フジサワシ","town":"鵠沼神明","town_kana":"クゲヌマシンメイ","prefecture_code":14},"0024":{"zip_code":"2510024","prefecture":"神奈川県","prefecture_kana":"カナガワケン","city":"藤沢市","city_kana":"フジサワシ","town":"鵠沼橘","town_kana":"クゲヌマタチバナ","prefecture_code":14},"0023":{"zip_code":"2510023","prefecture":"神奈川県","prefecture_kana":"カナガワケン","city":"藤沢市","city_kana":"フジサワシ","town":"鵠沼花沢町","town_kana":"クゲヌマハナザワチョウ","prefecture_code":14},"0031":{"zip_code":"2510031","prefecture":"神奈川県","prefecture_kana":"カナガワケン","city":"藤沢市","city_kana":"フジサワシ","town":"鵠沼藤が谷","town_kana":"クゲヌマフジガヤ","prefecture_code":14},"0038":{"zip_code":"2510038","prefecture":"神奈川県","prefecture_kana":"カナガワケン","city":"藤沢市","city_kana":"フジサワシ","town":"鵠沼松が岡","town_kana":"クゲヌママツガオカ","prefecture_code":14},"0026":{"zip_code":"2510026","prefecture":"神奈川県","prefecture_kana":"カナガワケン","city":"藤沢市","city_kana":"フジサワシ","town":"鵠沼東","town_kana":"クゲヌマヒガシ","prefecture_code":14},"0013":{"zip_code":"2510013","prefecture":"神奈川県","prefecture_kana":"カナガワケン","city":"藤沢市","city_kana":"フジサワシ","town":"小塚","town_kana":"コツカ","prefecture_code":14},"0057":{"zip_code":"2510057","prefecture":"神奈川県","prefecture_kana":"カナガワケン","city":"藤沢市","city_kana":"フジサワシ","town":"城南","town_kana":"ジョウナン","prefecture_code":14},"0051":{"zip_code":"2510051","prefecture":"神奈川県","prefecture_kana":"カナガワケン","city":"藤沢市","city_kana":"フジサワシ","town":"白旗","town_kana":"シラハタ","prefecture_code":14},"0871":{"zip_code":"2510871","prefecture":"神奈川県","prefecture_kana":"カナガワケン","city":"藤沢市","city_kana":"フジサワシ","town":"善行","town_kana":"ゼンギョウ","prefecture_code":14},"0876":{"zip_code":"2510876","prefecture":"神奈川県","prefecture_kana":"カナガワケン","city":"藤沢市","city_kana":"フジサワシ","town":"善行坂","town_kana":"ゼンギョウザカ","prefecture_code":14},"0877":{"zip_code":"2510877","prefecture":"神奈川県","prefecture_kana":"カナガワケン","city":"藤沢市","city_kana":"フジサワシ","town":"善行団地","town_kana":"ゼンギョウダンチ","prefecture_code":14},"0002":{"zip_code":"2510002","prefecture":"神奈川県","prefecture_kana":"カナガワケン","city":"藤沢市","city_kana":"フジサワシ","town":"大鋸","town_kana":"ダイギリ","prefecture_code":14},"0017":{"zip_code":"2510017","prefecture":"神奈川県","prefecture_kana":"カナガワケン","city":"藤沢市","city_kana":"フジサワシ","town":"高谷","town_kana":"タカヤ","prefecture_code":14},"0872":{"zip_code":"2510872","prefecture":"神奈川県","prefecture_kana":"カナガワケン","city":"藤沢市","city_kana":"フジサワシ","town":"立石","town_kana":"タテイシ","prefecture_code":14},"0047":{"zip_code":"2510047","prefecture":"神奈川県","prefecture_kana":"カナガワケン","city":"藤沢市","city_kana":"フジサワシ","town":"辻堂","town_kana":"ツジドウ","prefecture_code":14},"0041":{"zip_code":"2510041","prefecture":"神奈川県","prefecture_kana":"カナガワケン","city":"藤沢市","city_kana":"フジサワシ","town":"辻堂神台","town_kana":"ツジドウカンダイ","prefecture_code":14},"0042":{"zip_code":"2510042","prefecture":"神奈川県","prefecture_kana":"カナガワケン","city":"藤沢市","city_kana":"フジサワシ","town":"辻堂新町","town_kana":"ツジドウシンマチ","prefecture_code":14},"0044":{"zip_code":"2510044","prefecture":"神奈川県","prefecture_kana":"カナガワケン","city":"藤沢市","city_kana":"フジサワシ","town":"辻堂太平台","town_kana":"ツジドウタイヘイダイ","prefecture_code":14},"0045":{"zip_code":"2510045","prefecture":"神奈川県","prefecture_kana":"カナガワケン","city":"藤沢市","city_kana":"フジサワシ","town":"辻堂東海岸","town_kana":"ツジドウヒガシカイガン","prefecture_code":14},"0046":{"zip_code":"2510046","prefecture":"神奈川県","prefecture_kana":"カナガワケン","city":"藤沢市","city_kana":"フジサワシ","town":"辻堂西海岸","town_kana":"ツジドウニシカイガン","prefecture_code":14},"0043":{"zip_code":"2510043","prefecture":"神奈川県","prefecture_kana":"カナガワケン","city":"藤沢市","city_kana":"フジサワシ","town":"辻堂元町","town_kana":"ツジドウモトマチ","prefecture_code":14},"0001":{"zip_code":"2510001","prefecture":"神奈川県","prefecture_kana":"カナガワケン","city":"藤沢市","city_kana":"フジサワシ","town":"西富","town_kana":"ニシトミ","prefecture_code":14},"0056":{"zip_code":"2510056","prefecture":"神奈川県","prefecture_kana":"カナガワケン","city":"藤沢市","city_kana":"フジサワシ","town":"羽鳥","town_kana":"ハトリ","prefecture_code":14},"0874":{"zip_code":"2510874","prefecture":"神奈川県","prefecture_kana":"カナガワケン","city":"藤沢市","city_kana":"フジサワシ","town":"花の木","town_kana":"ハナノキ","prefecture_code":14},"0004":{"zip_code":"2510004","prefecture":"神奈川県","prefecture_kana":"カナガワケン","city":"藤沢市","city_kana":"フジサワシ","town":"藤が岡","town_kana":"フジガオカ","prefecture_code":14},"0052":{"zip_code":"2510052","prefecture":"神奈川県","prefecture_kana":"カナガワケン","city":"藤沢市","city_kana":"フジサワシ","town":"藤沢","town_kana":"フジサワ","prefecture_code":14},"0028":{"zip_code":"2510028","prefecture":"神奈川県","prefecture_kana":"カナガワケン","city":"藤沢市","city_kana":"フジサワシ","town":"本鵠沼","town_kana":"ホンクゲヌマ","prefecture_code":14},"0053":{"zip_code":"2510053","prefecture":"神奈川県","prefecture_kana":"カナガワケン","city":"藤沢市","city_kana":"フジサワシ","town":"本町","town_kana":"ホンチョウ","prefecture_code":14},"0875":{"zip_code":"2510875","prefecture":"神奈川県","prefecture_kana":"カナガワケン","city":"藤沢市","city_kana":"フジサワシ","town":"本藤沢","town_kana":"ホンフジサワ","prefecture_code":14},"0873":{"zip_code":"2510873","prefecture":"神奈川県","prefecture_kana":"カナガワケン","city":"藤沢市","city_kana":"フジサワシ","town":"みその台","town_kana":"ミソノダイ","prefecture_code":14},"0055":{"zip_code":"2510055","prefecture":"神奈川県","prefecture_kana":"カナガワケン","city":"藤沢市","city_kana":"フジサワシ","town":"南藤沢","town_kana":"ミナミフジサワ","prefecture_code":14},"0014":{"zip_code":"2510014","prefecture":"神奈川県","prefecture_kana":"カナガワケン","city":"藤沢市","city_kana":"フジサワシ","town":"宮前","town_kana":"ミヤマエ","prefecture_code":14},"0016":{"zip_code":"2510016","prefecture":"神奈川県","prefecture_kana":"カナガワケン","city":"藤沢市","city_kana":"フジサワシ","town":"弥勒寺","town_kana":"ミロクジ","prefecture_code":14},"0012":{"zip_code":"2510012","prefecture":"神奈川県","prefecture_kana":"カナガワケン","city":"藤沢市","city_kana":"フジサワシ","town":"村岡東","town_kana":"ムラオカヒガシ","prefecture_code":14},"0011":{"zip_code":"2510011","prefecture":"神奈川県","prefecture_kana":"カナガワケン","city":"藤沢市","city_kana":"フジサワシ","town":"渡内","town_kana":"ワタウチ","prefecture_code":14}}