{"0100":{"zip_code":"2520100","prefecture":"神奈川県","prefecture_kana":"カナガワケン","city":"相模原市緑区","city_kana":"サガミハラシミドリク","town":"","town_kana":"","prefecture_code":14},"0141":{"zip_code":"2520141","prefecture":"神奈川県","prefecture_kana":"カナガワケン","city":"相模原市緑区","city_kana":"サガミハラシミドリク","town":"相原","town_kana":"アイハラ","prefecture_code":14},"0162":{"zip_code":"2520162","prefecture":"神奈川県","prefecture_kana":"カナガワケン","city":"相模原市緑区","city_kana":"サガミハラシミドリク","town":"青根","town_kana":"アオネ","prefecture_code":14},"0161":{"zip_code":"2520161","prefecture":"神奈川県","prefecture_kana":"カナガワケン","city":"相模原市緑区","city_kana":"サガミハラシミドリク","town":"青野原","town_kana":"アオノハラ","prefecture_code":14},"0156":{"zip_code":"2520156","prefecture":"神奈川県","prefecture_kana":"カナガワケン","city":"相模原市緑区","city_kana":"サガミハラシミドリク","town":"青山","town_kana":"アオヤマ","prefecture_code":14},"0152":{"zip_code":"2520152","prefecture":"神奈川県","prefecture_kana":"カナガワケン","city":"相模原市緑区","city_kana":"サガミハラシミドリク","town":"太井","town_kana":"オオイ","prefecture_code":14},"0135":{"zip_code":"2520135","prefecture":"神奈川県","prefecture_kana":"カナガワケン","city":"相模原市緑区","city_kana":"サガミハラシミドリク","town":"大島","town_kana":"オオシマ","prefecture_code":14},"0146":{"zip_code":"2520146","prefecture":"神奈川県","prefecture_kana":"カナガワケン","city":"相模原市緑区","city_kana":"サガミハラシミドリク","town":"大山町","town_kana":"オオヤマチョウ","prefecture_code":14},"0115":{"zip_code":"2520115","prefecture":"神奈川県","prefecture_kana":"カナガワケン","city":"相模原市緑区","city_kana":"サガミハラシミドリク","town":"小倉","town_kana":"オグラ","prefecture_code":14},"0173":{"zip_code":"2520173","prefecture":"神奈川県","prefecture_kana":"カナガワケン","city":"相模原市緑区","city_kana":"サガミハラシミドリク","town":"小原","town_kana":"オバラ","prefecture_code":14},"0184":{"zip_code":"2520184","prefecture":"神奈川県","prefecture_kana":"カナガワケン","city":"相模原市緑区","city_kana":"サガミハラシミドリク","town":"小渕","town_kana":"オブチ","prefecture_code":14},"0136":{"zip_code":"2520136","prefecture":"神奈川県","prefecture_kana":"カナガワケン","city":"相模原市緑区","city_kana":"サガミハラシミドリク","town":"上九沢","town_kana":"カミクザワ","prefecture_code":14},"0111":{"zip_code":"2520111","prefecture":"神奈川県","prefecture_kana":"カナガワケン","city":"相模原市緑区","city_kana":"サガミハラシミドリク","town":"川尻","town_kana":"カワシリ","prefecture_code":14},"0105":{"zip_code":"2520105","prefecture":"神奈川県","prefecture_kana":"カナガワケン","city":"相模原市緑区","city_kana":"サガミハラシミドリク","town":"久保沢","town_kana":"クボサワ","prefecture_code":14},"0181":{"zip_code":"2520181","prefecture":"神奈川県","prefecture_kana":"カナガワケン","city":"相模原市緑区","city_kana":"サガミハラシミドリク","town":"佐野川","town_kana":"サノガワ","prefecture_code":14},"0182":{"zip_code":"2520182","prefecture":"神奈川県","prefecture_kana":"カナガワケン","city":"相模原市緑区","city_kana":"サガミハラシミドリク","town":"澤井","town_kana":"サワイ","prefecture_code":14},"0134":{"zip_code":"2520134","prefecture":"神奈川県","prefecture_kana":"カナガワケン","city":"相模原市緑区","city_kana":"サガミハラシミドリク","town":"下九沢","town_kana":"シモクザワ","prefecture_code":14},"0116":{"zip_code":"2520116","prefecture":"神奈川県","prefecture_kana":"カナガワケン","city":"相模原市緑区","city_kana":"サガミハラシミドリク","town":"城山","town_kana":"シロヤマ","prefecture_code":14},"0188":{"zip_code":"2520188","prefecture":"神奈川県","prefecture_kana":"カナガワケン","city":"相模原市緑区","city_kana":"サガミハラシミドリク","town":"寸沢嵐新戸","town_kana":"スワラシシンド","prefecture_code":14},"0176":{"zip_code":"2520176","prefecture":"神奈川県","prefecture_kana":"カナガワケン","city":"相模原市緑区","city_kana":"サガミハラシミドリク","town":"寸沢嵐","town_kana":"スワラシ","prefecture_code":14},"0124":{"zip_code":"2520124","prefecture":"神奈川県","prefecture_kana":"カナガワケン","city":"相模原市緑区","city_kana":"サガミハラシミドリク","town":"田名","town_kana":"タナ","prefecture_code":14},"0113":{"zip_code":"2520113","prefecture":"神奈川県","prefecture_kana":"カナガワケン","city":"相模原市緑区","city_kana":"サガミハラシミドリク","town":"谷ヶ原","town_kana":"タニガハラ","prefecture_code":14},"0174":{"zip_code":"2520174","prefecture":"神奈川県","prefecture_kana":"カナガワケン","city":"相模原市緑区","city_kana":"サガミハラシミドリク","town":"千木良","town_kana":"チギラ","prefecture_code":14},"0155":{"zip_code":"2520155","prefecture":"神奈川県","prefecture_kana":"カナガワケン","city":"相模原市緑区","city_kana":"サガミハラシミドリク","town":"鳥屋","town_kana":"トヤ","prefecture_code":14},"0117":{"zip_code":"2520117","prefecture":"神奈川県","prefecture_kana":"カナガワケン","city":"相模原市緑区","city_kana":"サガミハラシミドリク","town":"中沢","town_kana":"ナカザワ","prefecture_code":14},"0154":{"zip_code":"2520154","prefecture":"神奈川県","prefecture_kana":"カナガワケン","city":"相模原市緑区","city_kana":"サガミハラシミドリク","town":"長竹","town_kana":"ナガタケ","prefecture_code":14},"0157":{"zip_code":"2520157","prefecture":"神奈川県","prefecture_kana":"カナガワケン","city":"相模原市緑区","city_kana":"サガミハラシミドリク","town":"中野","town_kana":"ナカノ","prefecture_code":14},"0187":{"zip_code":"2520187","prefecture":"神奈川県","prefecture_kana":"カナガワケン","city":"相模原市緑区","city_kana":"サガミハラシミドリク","town":"名倉","town_kana":"ナグラ","prefecture_code":14},"0131":{"zip_code":"2520131","prefecture":"神奈川県","prefecture_kana":"カナガワケン","city":"相模原市緑区","city_kana":"サガミハラシミドリク","town":"西橋本","town_kana":"ニシハシモト","prefecture_code":14},"0137":{"zip_code":"2520137","prefecture":"神奈川県","prefecture_kana":"カナガワケン","city":"相模原市緑区","city_kana":"サガミハラシミドリク","town":"二本松","town_kana":"ニホンマツ","prefecture_code":14},"0153":{"zip_code":"2520153","prefecture":"神奈川県","prefecture_kana":"カナガワケン","city":"相模原市緑区","city_kana":"サガミハラシミドリク","town":"根小屋","town_kana":"ネゴヤ","prefecture_code":14},"0143":{"zip_code":"2520143","prefecture":"神奈川県","prefecture_kana":"カナガワケン","city":"相模原市緑区","city_kana":"サガミハラシミドリク","town":"橋本","town_kana":"ハシモト","prefecture_code":14},"0132":{"zip_code":"2520132","prefecture":"神奈川県","prefecture_kana":"カナガワケン","city":"相模原市緑区","city_kana":"サガミハラシミドリク","town":"橋本台","town_kana":"ハシモトダイ","prefecture_code":14},"0114":{"zip_code":"2520114","prefecture":"神奈川県","prefecture_kana":"カナガワケン","city":"相模原市緑区","city_kana":"サガミハラシミドリク","town":"葉山島","town_kana":"ハヤマジマ","prefecture_code":14},"0102":{"zip_code":"2520102","prefecture":"神奈川県","prefecture_kana":"カナガワケン","city":"相模原市緑区","city_kana":"サガミハラシミドリク","town":"原宿","town_kana":"ハラジュク","prefecture_code":14},"0103":{"zip_code":"2520103","prefecture":"神奈川県","prefecture_kana":"カナガワケン","city":"相模原市緑区","city_kana":"サガミハラシミドリク","town":"原宿南","town_kana":"ハラジュクミナミ","prefecture_code":14},"0144":{"zip_code":"2520144","prefecture":"神奈川県","prefecture_kana":"カナガワケン","city":"相模原市緑区","city_kana":"サガミハラシミドリク","town":"東橋本","town_kana":"ヒガシハシモト","prefecture_code":14},"0185":{"zip_code":"2520185","prefecture":"神奈川県","prefecture_kana":"カナガワケン","city":"相模原市緑区","city_kana":"サガミハラシミドリク","town":"日連","town_kana":"ヒヅレ","prefecture_code":14},"0106":{"zip_code":"2520106","prefecture":"神奈川県","prefecture_kana":"カナガワケン","city":"相模原市緑区","city_kana":"サガミハラシミドリク","town":"広田","town_kana":"ヒロタ","prefecture_code":14},"0186":{"zip_code":"2520186","prefecture":"神奈川県","prefecture_kana":"カナガワケン","city":"相模原市緑区","city_kana":"サガミハラシミドリク","town":"牧野","town_kana":"マギノ","prefecture_code":14},"0158":{"zip_code":"2520158","prefecture":"神奈川県","prefecture_kana":"カナガワケン","city":"相模原市緑区","city_kana":"サガミハラシミドリク","town":"又野","town_kana":"マタノ","prefecture_code":14},"0101":{"zip_code":"2520101","prefecture":"神奈川県","prefecture_kana":"カナガワケン","city":"相模原市緑区","city_kana":"サガミハラシミドリク","town":"町屋","town_kana":"マチヤ","prefecture_code":14},"0151":{"zip_code":"2520151","prefecture":"神奈川県","prefecture_kana":"カナガワケン","city":"相模原市緑区","city_kana":"サガミハラシミドリク","town":"三井","town_kana":"ミイ","prefecture_code":14},"0159":{"zip_code":"2520159","prefecture":"神奈川県","prefecture_kana":"カナガワケン","city":"相模原市緑区","city_kana":"サガミハラシミドリク","town":"三ケ木","town_kana":"ミカゲ","prefecture_code":14},"0104":{"zip_code":"2520104","prefecture":"神奈川県","prefecture_kana":"カナガワケン","city":"相模原市緑区","city_kana":"サガミハラシミドリク","town":"向原","town_kana":"ムカイハラ","prefecture_code":14},"0142":{"zip_code":"2520142","prefecture":"神奈川県","prefecture_kana":"カナガワケン","city":"相模原市緑区","city_kana":"サガミハラシミドリク","town":"元橋本町","town_kana":"モトハシモトチョウ","prefecture_code":14},"0183":{"zip_code":"2520183","prefecture":"神奈川県","prefecture_kana":"カナガワケン","city":"相模原市緑区","city_kana":"サガミハラシミドリク","town":"吉野","town_kana":"ヨシノ","prefecture_code":14},"0171":{"zip_code":"2520171","prefecture":"神奈川県","prefecture_kana":"カナガワケン","city":"相模原市緑区","city_kana":"サガミハラシミドリク","town":"与瀬","town_kana":"ヨセ","prefecture_code":14},"0172":{"zip_code":"2520172","prefecture":"神奈川県","prefecture_kana":"カナガワケン","city":"相模原市緑区","city_kana":"サガミハラシミドリク","town":"与瀬本町","town_kana":"ヨセホンチョウ","prefecture_code":14},"0112":{"zip_code":"2520112","prefecture":"神奈川県","prefecture_kana":"カナガワケン","city":"相模原市緑区","city_kana":"サガミハラシミドリク","town":"若葉台","town_kana":"ワカバダイ","prefecture_code":14},"0175":{"zip_code":"2520175","prefecture":"神奈川県","prefecture_kana":"カナガワケン","city":"相模原市緑区","city_kana":"サガミハラシミドリク","town":"若柳","town_kana":"ワカヤナギ","prefecture_code":14},"0200":{"zip_code":"2520200","prefecture":"神奈川県","prefecture_kana":"カナガワケン","city":"相模原市中央区","city_kana":"サガミハラシチュウオウク","town":"","town_kana":"","prefecture_code":14},"0235":{"zip_code":"2520235","prefecture":"神奈川県","prefecture_kana":"カナガワケン","city":"相模原市中央区","city_kana":"サガミハラシチュウオウク","town":"相生","town_kana":"アイオイ","prefecture_code":14},"0224":{"zip_code":"2520224","prefecture":"神奈川県","prefecture_kana":"カナガワケン","city":"相模原市中央区","city_kana":"サガミハラシチュウオウク","town":"青葉","town_kana":"アオバ","prefecture_code":14},"0251":{"zip_code":"2520251","prefecture":"神奈川県","prefecture_kana":"カナガワケン","city":"相模原市中央区","city_kana":"サガミハラシチュウオウク","town":"大野台","town_kana":"オオノダイ","prefecture_code":14},"0205":{"zip_code":"2520205","prefecture":"神奈川県","prefecture_kana":"カナガワケン","city":"相模原市中央区","city_kana":"サガミハラシチュウオウク","town":"小山","town_kana":"オヤマ","prefecture_code":14},"0233":{"zip_code":"2520233","prefecture":"神奈川県","prefecture_kana":"カナガワケン","city":"相模原市中央区","city_kana":"サガミハラシチュウオウク","town":"鹿沼台","town_kana":"カヌマダイ","prefecture_code":14},"0243":{"zip_code":"2520243","prefecture":"神奈川県","prefecture_kana":"カナガワケン","city":"相模原市中央区","city_kana":"サガミハラシチュウオウク","town":"上溝","town_kana":"カミミゾ","prefecture_code":14},"0201":{"zip_code":"2520201","prefecture":"神奈川県","prefecture_kana":"カナガワケン","city":"相模原市中央区","city_kana":"サガミハラシチュウオウク","town":"上矢部","town_kana":"カミヤベ","prefecture_code":14},"0234":{"zip_code":"2520234","prefecture":"神奈川県","prefecture_kana":"カナガワケン","city":"相模原市中央区","city_kana":"サガミハラシチュウオウク","town":"共和","town_kana":"キョウワ","prefecture_code":14},"0214":{"zip_code":"2520214","prefecture":"神奈川県","prefecture_kana":"カナガワケン","city":"相模原市中央区","city_kana":"サガミハラシチュウオウク","town":"向陽町","town_kana":"コウヨウチョウ","prefecture_code":14},"0217":{"zip_code":"2520217","prefecture":"神奈川県","prefecture_kana":"カナガワケン","city":"相模原市中央区","city_kana":"サガミハラシチュウオウク","town":"小町通","town_kana":"コマチドオリ","prefecture_code":14},"0231":{"zip_code":"2520231","prefecture":"神奈川県","prefecture_kana":"カナガワケン","city":"相模原市中央区","city_kana":"サガミハラシチュウオウク","town":"相模原","town_kana":"サガミハラ","prefecture_code":14},"0254":{"zip_code":"2520254","prefecture":"神奈川県","prefecture_kana":"カナガワケン","city":"相模原市中央区","city_kana":"サガミハラシチュウオウク","town":"下九沢","town_kana":"シモクザワ","prefecture_code":14},"0246":{"zip_code":"2520246","prefecture":"神奈川県","prefecture_kana":"カナガワケン","city":"相模原市中央区","city_kana":"サガミハラシチュウオウク","town":"水郷田名","town_kana":"スイゴウタナ","prefecture_code":14},"0213":{"zip_code":"2520213","prefecture":"神奈川県","prefecture_kana":"カナガワケン","city":"相模原市中央区","city_kana":"サガミハラシチュウオウク","town":"すすきの町","town_kana":"ススキノチョウ","prefecture_code":14},"0216":{"zip_code":"2520216","prefecture":"神奈川県","prefecture_kana":"カナガワケン","city":"相模原市中央区","city_kana":"サガミハラシチュウオウク","town":"清新","town_kana":"セイシン","prefecture_code":14},"0221":{"zip_code":"2520221","prefecture":"神奈川県","prefecture_kana":"カナガワケン","city":"相模原市中央区","city_kana":"サガミハラシチュウオウク","town":"高根","town_kana":"タカネ","prefecture_code":14},"0244":{"zip_code":"2520244","prefecture":"神奈川県","prefecture_kana":"カナガワケン","city":"相模原市中央区","city_kana":"サガミハラシチュウオウク","town":"田名","town_kana":"タナ","prefecture_code":14},"0245":{"zip_code":"2520245","prefecture":"神奈川県","prefecture_kana":"カナガワケン","city":"相模原市中央区","city_kana":"サガミハラシチュウオウク","town":"田名塩田","town_kana":"タナシオダ","prefecture_code":14},"0239":{"zip_code":"2520239","prefecture":"神奈川県","prefecture_kana":"カナガワケン","city":"相模原市中央区","city_kana":"サガミハラシチュウオウク","town":"中央","town_kana":"チュウオウ","prefecture_code":14},"0237":{"zip_code":"2520237","prefecture":"神奈川県","prefecture_kana":"カナガワケン","city":"相模原市中央区","city_kana":"サガミハラシチュウオウク","town":"千代田","town_kana":"チヨダ","prefecture_code":14},"0228":{"zip_code":"2520228","prefecture":"神奈川県","prefecture_kana":"カナガワケン","city":"相模原市中央区","city_kana":"サガミハラシチュウオウク","town":"並木","town_kana":"ナミキ","prefecture_code":14},"0203":{"zip_code":"2520203","prefecture":"神奈川県","prefecture_kana":"カナガワケン","city":"相模原市中央区","city_kana":"サガミハラシチュウオウク","town":"東淵野辺","town_kana":"ヒガシフチノベ","prefecture_code":14},"0227":{"zip_code":"2520227","prefecture":"神奈川県","prefecture_kana":"カナガワケン","city":"相模原市中央区","city_kana":"サガミハラシチュウオウク","town":"光が丘","town_kana":"ヒカリガオカ","prefecture_code":14},"0215":{"zip_code":"2520215","prefecture":"神奈川県","prefecture_kana":"カナガワケン","city":"相模原市中央区","city_kana":"サガミハラシチュウオウク","town":"氷川町","town_kana":"ヒカワチョウ","prefecture_code":14},"0236":{"zip_code":"2520236","prefecture":"神奈川県","prefecture_kana":"カナガワケン","city":"相模原市中央区","city_kana":"サガミハラシチュウオウク","town":"富士見","town_kana":"フジミ","prefecture_code":14},"0206":{"zip_code":"2520206","prefecture":"神奈川県","prefecture_kana":"カナガワケン","city":"相模原市中央区","city_kana":"サガミハラシチュウオウク","town":"淵野辺","town_kana":"フチノベ","prefecture_code":14},"0202":{"zip_code":"2520202","prefecture":"神奈川県","prefecture_kana":"カナガワケン","city":"相模原市中央区","city_kana":"サガミハラシチュウオウク","town":"淵野辺本町","town_kana":"フチノベホンチョウ","prefecture_code":14},"0238":{"zip_code":"2520238","prefecture":"神奈川県","prefecture_kana":"カナガワケン","city":"相模原市中央区","city_kana":"サガミハラシチュウオウク","town":"星が丘","town_kana":"ホシガオカ","prefecture_code":14},"0223":{"zip_code":"2520223","prefecture":"神奈川県","prefecture_kana":"カナガワケン","city":"相模原市中央区","city_kana":"サガミハラシチュウオウク","town":"松が丘","town_kana":"マツガオカ","prefecture_code":14},"0225":{"zip_code":"2520225","prefecture":"神奈川県","prefecture_kana":"カナガワケン","city":"相模原市中央区","city_kana":"サガミハラシチュウオウク","town":"緑が丘","town_kana":"ミドリガオカ","prefecture_code":14},"0253":{"zip_code":"2520253","prefecture":"神奈川県","prefecture_kana":"カナガワケン","city":"相模原市中央区","city_kana":"サガミハラシチュウオウク","town":"南橋本","town_kana":"ミナミハシモト","prefecture_code":14},"0212":{"zip_code":"2520212","prefecture":"神奈川県","prefecture_kana":"カナガワケン","city":"相模原市中央区","city_kana":"サガミハラシチュウオウク","town":"宮下","town_kana":"ミヤシモ","prefecture_code":14},"0211":{"zip_code":"2520211","prefecture":"神奈川県","prefecture_kana":"カナガワケン","city":"相模原市中央区","city_kana":"サガミハラシチュウオウク","town":"宮下本町","town_kana":"ミヤシモホンチョウ","prefecture_code":14},"0229":{"zip_code":"2520229","prefecture":"神奈川県","prefecture_kana":"カナガワケン","city":"相模原市中央区","city_kana":"サガミハラシチュウオウク","town":"弥栄","town_kana":"ヤエイ","prefecture_code":14},"0232":{"zip_code":"2520232","prefecture":"神奈川県","prefecture_kana":"カナガワケン","city":"相模原市中央区","city_kana":"サガミハラシチュウオウク","town":"矢部","town_kana":"ヤベ","prefecture_code":14},"0207":{"zip_code":"2520207","prefecture":"神奈川県","prefecture_kana":"カナガワケン","city":"相模原市中央区","city_kana":"サガミハラシチュウオウク","town":"矢部新町","town_kana":"ヤベシンチョウ","prefecture_code":14},"0208":{"zip_code":"2520208","prefecture":"神奈川県","prefecture_kana":"カナガワケン","city":"相模原市中央区","city_kana":"サガミハラシチュウオウク","town":"矢部新田","town_kana":"ヤベシンデン","prefecture_code":14},"0226":{"zip_code":"2520226","prefecture":"神奈川県","prefecture_kana":"カナガワケン","city":"相模原市中央区","city_kana":"サガミハラシチュウオウク","town":"陽光台","town_kana":"ヨウコウダイ","prefecture_code":14},"0242":{"zip_code":"2520242","prefecture":"神奈川県","prefecture_kana":"カナガワケン","city":"相模原市中央区","city_kana":"サガミハラシチュウオウク","town":"横山","town_kana":"ヨコヤマ","prefecture_code":14},"0241":{"zip_code":"2520241","prefecture":"神奈川県","prefecture_kana":"カナガワケン","city":"相模原市中央区","city_kana":"サガミハラシチュウオウク","town":"横山台","town_kana":"ヨコヤマダイ","prefecture_code":14},"0222":{"zip_code":"2520222","prefecture":"神奈川県","prefecture_kana":"カナガワケン","city":"相模原市中央区","city_kana":"サガミハラシチュウオウク","town":"由野台","town_kana":"ヨシノダイ","prefecture_code":14},"0300":{"zip_code":"2520300","prefecture":"神奈川県","prefecture_kana":"カナガワケン","city":"相模原市南区","city_kana":"サガミハラシミナミク","town":"","town_kana":"","prefecture_code":14},"0304":{"zip_code":"2520304","prefecture":"神奈川県","prefecture_kana":"カナガワケン","city":"相模原市南区","city_kana":"サガミハラシミナミク","town":"旭町","town_kana":"アサヒチョウ","prefecture_code":14},"0328":{"zip_code":"2520328","prefecture":"神奈川県","prefecture_kana":"カナガワケン","city":"相模原市南区","city_kana":"サガミハラシミナミク","town":"麻溝台","town_kana":"アサミゾダイ","prefecture_code":14},"0325":{"zip_code":"2520325","prefecture":"神奈川県","prefecture_kana":"カナガワケン","city":"相模原市南区","city_kana":"サガミハラシミナミク","town":"新磯野","town_kana":"アライソノ","prefecture_code":14},"0327":{"zip_code":"2520327","prefecture":"神奈川県","prefecture_kana":"カナガワケン","city":"相模原市南区","city_kana":"サガミハラシミナミク","town":"磯部","town_kana":"イソベ","prefecture_code":14},"0301":{"zip_code":"2520301","prefecture":"神奈川県","prefecture_kana":"カナガワケン","city":"相模原市南区","city_kana":"サガミハラシミナミク","town":"鵜野森","town_kana":"ウノモリ","prefecture_code":14},"0331":{"zip_code":"2520331","prefecture":"神奈川県","prefecture_kana":"カナガワケン","city":"相模原市南区","city_kana":"サガミハラシミナミク","town":"大野台","town_kana":"オオノダイ","prefecture_code":14},"0302":{"zip_code":"2520302","prefecture":"神奈川県","prefecture_kana":"カナガワケン","city":"相模原市南区","city_kana":"サガミハラシミナミク","town":"上鶴間","town_kana":"カミツルマ","prefecture_code":14},"0318":{"zip_code":"2520318","prefecture":"神奈川県","prefecture_kana":"カナガワケン","city":"相模原市南区","city_kana":"サガミハラシミナミク","town":"上鶴間本町","town_kana":"カミツルマホンチョウ","prefecture_code":14},"0329":{"zip_code":"2520329","prefecture":"神奈川県","prefecture_kana":"カナガワケン","city":"相模原市南区","city_kana":"サガミハラシミナミク","town":"北里","town_kana":"キタザト","prefecture_code":14},"0344":{"zip_code":"2520344","prefecture":"神奈川県","prefecture_kana":"カナガワケン","city":"相模原市南区","city_kana":"サガミハラシミナミク","town":"古淵","town_kana":"コブチ","prefecture_code":14},"0306":{"zip_code":"2520306","prefecture":"神奈川県","prefecture_kana":"カナガワケン","city":"相模原市南区","city_kana":"サガミハラシミナミク","town":"栄町","town_kana":"サカエチョウ","prefecture_code":14},"0303":{"zip_code":"2520303","prefecture":"神奈川県","prefecture_kana":"カナガワケン","city":"相模原市南区","city_kana":"サガミハラシミナミク","town":"相模大野","town_kana":"サガミオオノ","prefecture_code":14},"0321":{"zip_code":"2520321","prefecture":"神奈川県","prefecture_kana":"カナガワケン","city":"相模原市南区","city_kana":"サガミハラシミナミク","town":"相模台","town_kana":"サガミダイ","prefecture_code":14},"0322":{"zip_code":"2520322","prefecture":"神奈川県","prefecture_kana":"カナガワケン","city":"相模原市南区","city_kana":"サガミハラシミナミク","town":"相模台団地","town_kana":"サガミダイダンチ","prefecture_code":14},"0315":{"zip_code":"2520315","prefecture":"神奈川県","prefecture_kana":"カナガワケン","city":"相模原市南区","city_kana":"サガミハラシミナミク","town":"桜台","town_kana":"サクラダイ","prefecture_code":14},"0335":{"zip_code":"2520335","prefecture":"神奈川県","prefecture_kana":"カナガワケン","city":"相模原市南区","city_kana":"サガミハラシミナミク","town":"下溝","town_kana":"シモミゾ","prefecture_code":14},"0326":{"zip_code":"2520326","prefecture":"神奈川県","prefecture_kana":"カナガワケン","city":"相模原市南区","city_kana":"サガミハラシミナミク","town":"新戸","town_kana":"シンド","prefecture_code":14},"0312":{"zip_code":"2520312","prefecture":"神奈川県","prefecture_kana":"カナガワケン","city":"相模原市南区","city_kana":"サガミハラシミナミク","town":"相南","town_kana":"ソウナン","prefecture_code":14},"0324":{"zip_code":"2520324","prefecture":"神奈川県","prefecture_kana":"カナガワケン","city":"相模原市南区","city_kana":"サガミハラシミナミク","town":"相武台","town_kana":"ソウブダイ","prefecture_code":14},"0323":{"zip_code":"2520323","prefecture":"神奈川県","prefecture_kana":"カナガワケン","city":"相模原市南区","city_kana":"サガミハラシミナミク","town":"相武台団地","town_kana":"ソウブダイダンチ","prefecture_code":14},"0336":{"zip_code":"2520336","prefecture":"神奈川県","prefecture_kana":"カナガワケン","city":"相模原市南区","city_kana":"サガミハラシミナミク","town":"当麻","town_kana":"タイマ","prefecture_code":14},"0332":{"zip_code":"2520332","prefecture":"神奈川県","prefecture_kana":"カナガワケン","city":"相模原市南区","city_kana":"サガミハラシミナミク","town":"西大沼","town_kana":"ニシオオヌマ","prefecture_code":14},"0333":{"zip_code":"2520333","prefecture":"神奈川県","prefecture_kana":"カナガワケン","city":"相模原市南区","city_kana":"サガミハラシミナミク","town":"東大沼","town_kana":"ヒガシオオヌマ","prefecture_code":14},"0311":{"zip_code":"2520311","prefecture":"神奈川県","prefecture_kana":"カナガワケン","city":"相模原市南区","city_kana":"サガミハラシミナミク","town":"東林間","town_kana":"ヒガシリンカン","prefecture_code":14},"0316":{"zip_code":"2520316","prefecture":"神奈川県","prefecture_kana":"カナガワケン","city":"相模原市南区","city_kana":"サガミハラシミナミク","town":"双葉","town_kana":"フタバ","prefecture_code":14},"0307":{"zip_code":"2520307","prefecture":"神奈川県","prefecture_kana":"カナガワケン","city":"相模原市南区","city_kana":"サガミハラシミナミク","town":"文京","town_kana":"ブンキョウ","prefecture_code":14},"0313":{"zip_code":"2520313","prefecture":"神奈川県","prefecture_kana":"カナガワケン","city":"相模原市南区","city_kana":"サガミハラシミナミク","town":"松が枝町","town_kana":"マツガエチョウ","prefecture_code":14},"0317":{"zip_code":"2520317","prefecture":"神奈川県","prefecture_kana":"カナガワケン","city":"相模原市南区","city_kana":"サガミハラシミナミク","town":"御園","town_kana":"ミソノ","prefecture_code":14},"0314":{"zip_code":"2520314","prefecture":"神奈川県","prefecture_kana":"カナガワケン","city":"相模原市南区","city_kana":"サガミハラシミナミク","town":"南台","town_kana":"ミナミダイ","prefecture_code":14},"0305":{"zip_code":"2520305","prefecture":"神奈川県","prefecture_kana":"カナガワケン","city":"相模原市南区","city_kana":"サガミハラシミナミク","town":"豊町","town_kana":"ユタカチョウ","prefecture_code":14},"0334":{"zip_code":"2520334","prefecture":"神奈川県","prefecture_kana":"カナガワケン","city":"相模原市南区","city_kana":"サガミハラシミナミク","town":"若松","town_kana":"ワカマツ","prefecture_code":14},"0815":{"zip_code":"2520815","prefecture":"神奈川県","prefecture_kana":"カナガワケン","city":"藤沢市","city_kana":"フジサワシ","town":"石川","town_kana":"イシカワ","prefecture_code":14},"0803":{"zip_code":"2520803","prefecture":"神奈川県","prefecture_kana":"カナガワケン","city":"藤沢市","city_kana":"フジサワシ","town":"今田","town_kana":"イマダ","prefecture_code":14},"0824":{"zip_code":"2520824","prefecture":"神奈川県","prefecture_kana":"カナガワケン","city":"藤沢市","city_kana":"フジサワシ","town":"打戻","town_kana":"ウチモドリ","prefecture_code":14},"0805":{"zip_code":"2520805","prefecture":"神奈川県","prefecture_kana":"カナガワケン","city":"藤沢市","city_kana":"フジサワシ","town":"円行","town_kana":"エンギョウ","prefecture_code":14},"0816":{"zip_code":"2520816","prefecture":"神奈川県","prefecture_kana":"カナガワケン","city":"藤沢市","city_kana":"フジサワシ","town":"遠藤","town_kana":"エンドウ","prefecture_code":14},"0825":{"zip_code":"2520825","prefecture":"神奈川県","prefecture_kana":"カナガワケン","city":"藤沢市","city_kana":"フジサワシ","town":"獺郷","town_kana":"オソゴウ","prefecture_code":14},"0813":{"zip_code":"2520813","prefecture":"神奈川県","prefecture_kana":"カナガワケン","city":"藤沢市","city_kana":"フジサワシ","town":"亀井野","town_kana":"カメイノ","prefecture_code":14},"0811":{"zip_code":"2520811","prefecture":"神奈川県","prefecture_kana":"カナガワケン","city":"藤沢市","city_kana":"フジサワシ","town":"桐原町","town_kana":"キリハラチョウ","prefecture_code":14},"0822":{"zip_code":"2520822","prefecture":"神奈川県","prefecture_kana":"カナガワケン","city":"藤沢市","city_kana":"フジサワシ","town":"葛原","town_kana":"クズハラ","prefecture_code":14},"0807":{"zip_code":"2520807","prefecture":"神奈川県","prefecture_kana":"カナガワケン","city":"藤沢市","city_kana":"フジサワシ","town":"下土棚","town_kana":"シモツチダナ","prefecture_code":14},"0804":{"zip_code":"2520804","prefecture":"神奈川県","prefecture_kana":"カナガワケン","city":"藤沢市","city_kana":"フジサワシ","town":"湘南台","town_kana":"ショウナンダイ","prefecture_code":14},"0823":{"zip_code":"2520823","prefecture":"神奈川県","prefecture_kana":"カナガワケン","city":"藤沢市","city_kana":"フジサワシ","town":"菖蒲沢","town_kana":"ショウブサワ","prefecture_code":14},"0802":{"zip_code":"2520802","prefecture":"神奈川県","prefecture_kana":"カナガワケン","city":"藤沢市","city_kana":"フジサワシ","town":"高倉","town_kana":"タカクラ","prefecture_code":14},"0801":{"zip_code":"2520801","prefecture":"神奈川県","prefecture_kana":"カナガワケン","city":"藤沢市","city_kana":"フジサワシ","town":"長後","town_kana":"チョウゴ","prefecture_code":14},"0806":{"zip_code":"2520806","prefecture":"神奈川県","prefecture_kana":"カナガワケン","city":"藤沢市","city_kana":"フジサワシ","town":"土棚","town_kana":"ツチダナ","prefecture_code":14},"0814":{"zip_code":"2520814","prefecture":"神奈川県","prefecture_kana":"カナガワケン","city":"藤沢市","city_kana":"フジサワシ","town":"天神町","town_kana":"テンジンチョウ","prefecture_code":14},"0812":{"zip_code":"2520812","prefecture":"神奈川県","prefecture_kana":"カナガワケン","city":"藤沢市","city_kana":"フジサワシ","town":"西俣野","town_kana":"ニシマタノ","prefecture_code":14},"0826":{"zip_code":"2520826","prefecture":"神奈川県","prefecture_kana":"カナガワケン","city":"藤沢市","city_kana":"フジサワシ","town":"宮原","town_kana":"ミヤバラ","prefecture_code":14},"0821":{"zip_code":"2520821","prefecture":"神奈川県","prefecture_kana":"カナガワケン","city":"藤沢市","city_kana":"フジサワシ","town":"用田","town_kana":"ヨウダ","prefecture_code":14},"0000":{"zip_code":"2520000","prefecture":"神奈川県","prefecture_kana":"カナガワケン","city":"座間市","city_kana":"ザマシ","town":"","town_kana":"","prefecture_code":14},"0024":{"zip_code":"2520024","prefecture":"神奈川県","prefecture_kana":"カナガワケン","city":"座間市","city_kana":"ザマシ","town":"入谷","town_kana":"イリヤ","prefecture_code":14},"0013":{"zip_code":"2520013","prefecture":"神奈川県","prefecture_kana":"カナガワケン","city":"座間市","city_kana":"ザマシ","town":"栗原","town_kana":"クリハラ","prefecture_code":14},"0014":{"zip_code":"2520014","prefecture":"神奈川県","prefecture_kana":"カナガワケン","city":"座間市","city_kana":"ザマシ","town":"栗原中央","town_kana":"クリハラチュウオウ","prefecture_code":14},"0002":{"zip_code":"2520002","prefecture":"神奈川県","prefecture_kana":"カナガワケン","city":"座間市","city_kana":"ザマシ","town":"小松原","town_kana":"コマツバラ","prefecture_code":14},"0001":{"zip_code":"2520001","prefecture":"神奈川県","prefecture_kana":"カナガワケン","city":"座間市","city_kana":"ザマシ","town":"相模が丘","town_kana":"サガミガオカ","prefecture_code":14},"0005":{"zip_code":"2520005","prefecture":"神奈川県","prefecture_kana":"カナガワケン","city":"座間市","city_kana":"ザマシ","town":"さがみ野","town_kana":"サガミノ","prefecture_code":14},"0027":{"zip_code":"2520027","prefecture":"神奈川県","prefecture_kana":"カナガワケン","city":"座間市","city_kana":"ザマシ","town":"座間","town_kana":"ザマ","prefecture_code":14},"0026":{"zip_code":"2520026","prefecture":"神奈川県","prefecture_kana":"カナガワケン","city":"座間市","city_kana":"ザマシ","town":"新田宿","town_kana":"シンデンジュク","prefecture_code":14},"0011":{"zip_code":"2520011","prefecture":"神奈川県","prefecture_kana":"カナガワケン","city":"座間市","city_kana":"ザマシ","town":"相武台","town_kana":"ソウブダイ","prefecture_code":14},"0023":{"zip_code":"2520023","prefecture":"神奈川県","prefecture_kana":"カナガワケン","city":"座間市","city_kana":"ザマシ","town":"立野台","town_kana":"タツノダイ","prefecture_code":14},"0016":{"zip_code":"2520016","prefecture":"神奈川県","prefecture_kana":"カナガワケン","city":"座間市","city_kana":"ザマシ","town":"西栗原","town_kana":"ニシクリハラ","prefecture_code":14},"0004":{"zip_code":"2520004","prefecture":"神奈川県","prefecture_kana":"カナガワケン","city":"座間市","city_kana":"ザマシ","town":"東原","town_kana":"ヒガシハラ","prefecture_code":14},"0003":{"zip_code":"2520003","prefecture":"神奈川県","prefecture_kana":"カナガワケン","city":"座間市","city_kana":"ザマシ","town":"ひばりが丘","town_kana":"ヒバリガオカ","prefecture_code":14},"0012":{"zip_code":"2520012","prefecture":"神奈川県","prefecture_kana":"カナガワケン","city":"座間市","city_kana":"ザマシ","town":"広野台","town_kana":"ヒロノダイ","prefecture_code":14},"0021":{"zip_code":"2520021","prefecture":"神奈川県","prefecture_kana":"カナガワケン","city":"座間市","city_kana":"ザマシ","town":"緑ケ丘","town_kana":"ミドリガオカ","prefecture_code":14},"0015":{"zip_code":"2520015","prefecture":"神奈川県","prefecture_kana":"カナガワケン","city":"座間市","city_kana":"ザマシ","town":"南栗原","town_kana":"ミナミクリハラ","prefecture_code":14},"0022":{"zip_code":"2520022","prefecture":"神奈川県","prefecture_kana":"カナガワケン","city":"座間市","city_kana":"ザマシ","town":"明王","town_kana":"ミョウオウ","prefecture_code":14},"0025":{"zip_code":"2520025","prefecture":"神奈川県","prefecture_kana":"カナガワケン","city":"座間市","city_kana":"ザマシ","town":"四ツ谷","town_kana":"ヨツヤ","prefecture_code":14},"1100":{"zip_code":"2521100","prefecture":"神奈川県","prefecture_kana":"カナガワケン","city":"綾瀬市","city_kana":"アヤセシ","town":"","town_kana":"","prefecture_code":14},"1101":{"zip_code":"2521101","prefecture":"神奈川県","prefecture_kana":"カナガワケン","city":"綾瀬市","city_kana":"アヤセシ","town":"厚木航空基地","town_kana":"アツギコウクウキチ","prefecture_code":14},"1104":{"zip_code":"2521104","prefecture":"神奈川県","prefecture_kana":"カナガワケン","city":"綾瀬市","city_kana":"アヤセシ","town":"大上","town_kana":"オオガミ","prefecture_code":14},"1115":{"zip_code":"2521115","prefecture":"神奈川県","prefecture_kana":"カナガワケン","city":"綾瀬市","city_kana":"アヤセシ","town":"落合南","town_kana":"オチアイミナミ","prefecture_code":14},"1116":{"zip_code":"2521116","prefecture":"神奈川県","prefecture_kana":"カナガワケン","city":"綾瀬市","city_kana":"アヤセシ","town":"落合北","town_kana":"オチアイキタ","prefecture_code":14},"1112":{"zip_code":"2521112","prefecture":"神奈川県","prefecture_kana":"カナガワケン","city":"綾瀬市","city_kana":"アヤセシ","town":"上土棚","town_kana":"カミツチダナ","prefecture_code":14},"1113":{"zip_code":"2521113","prefecture":"神奈川県","prefecture_kana":"カナガワケン","city":"綾瀬市","city_kana":"アヤセシ","town":"上土棚中","town_kana":"カミツチダナナカ","prefecture_code":14},"1114":{"zip_code":"2521114","prefecture":"神奈川県","prefecture_kana":"カナガワケン","city":"綾瀬市","city_kana":"アヤセシ","town":"上土棚南","town_kana":"カミツチダナミナミ","prefecture_code":14},"1111":{"zip_code":"2521111","prefecture":"神奈川県","prefecture_kana":"カナガワケン","city":"綾瀬市","city_kana":"アヤセシ","town":"上土棚北","town_kana":"カミツチダナキタ","prefecture_code":14},"1121":{"zip_code":"2521121","prefecture":"神奈川県","prefecture_kana":"カナガワケン","city":"綾瀬市","city_kana":"アヤセシ","town":"小園","town_kana":"コゾノ","prefecture_code":14},"1122":{"zip_code":"2521122","prefecture":"神奈川県","prefecture_kana":"カナガワケン","city":"綾瀬市","city_kana":"アヤセシ","town":"小園南","town_kana":"コゾノミナミ","prefecture_code":14},"1105":{"zip_code":"2521105","prefecture":"神奈川県","prefecture_kana":"カナガワケン","city":"綾瀬市","city_kana":"アヤセシ","town":"蓼川","town_kana":"タテカワ","prefecture_code":14},"1135":{"zip_code":"2521135","prefecture":"神奈川県","prefecture_kana":"カナガワケン","city":"綾瀬市","city_kana":"アヤセシ","town":"寺尾釜田","town_kana":"テラオカマタ","prefecture_code":14},"1132":{"zip_code":"2521132","prefecture":"神奈川県","prefecture_kana":"カナガワケン","city":"綾瀬市","city_kana":"アヤセシ","town":"寺尾中","town_kana":"テラオナカ","prefecture_code":14},"1136":{"zip_code":"2521136","prefecture":"神奈川県","prefecture_kana":"カナガワケン","city":"綾瀬市","city_kana":"アヤセシ","town":"寺尾西","town_kana":"テラオニシ","prefecture_code":14},"1134":{"zip_code":"2521134","prefecture":"神奈川県","prefecture_kana":"カナガワケン","city":"綾瀬市","city_kana":"アヤセシ","town":"寺尾南","town_kana":"テラオミナミ","prefecture_code":14},"1131":{"zip_code":"2521131","prefecture":"神奈川県","prefecture_kana":"カナガワケン","city":"綾瀬市","city_kana":"アヤセシ","town":"寺尾北","town_kana":"テラオキタ","prefecture_code":14},"1137":{"zip_code":"2521137","prefecture":"神奈川県","prefecture_kana":"カナガワケン","city":"綾瀬市","city_kana":"アヤセシ","town":"寺尾台","town_kana":"テラオダイ","prefecture_code":14},"1133":{"zip_code":"2521133","prefecture":"神奈川県","prefecture_kana":"カナガワケン","city":"綾瀬市","city_kana":"アヤセシ","town":"寺尾本町","town_kana":"テラオホンチョウ","prefecture_code":14},"1123":{"zip_code":"2521123","prefecture":"神奈川県","prefecture_kana":"カナガワケン","city":"綾瀬市","city_kana":"アヤセシ","town":"早川","town_kana":"ハヤカワ","prefecture_code":14},"1127":{"zip_code":"2521127","prefecture":"神奈川県","prefecture_kana":"カナガワケン","city":"綾瀬市","city_kana":"アヤセシ","town":"早川城山","town_kana":"ハヤカワシロヤマ","prefecture_code":14},"1103":{"zip_code":"2521103","prefecture":"神奈川県","prefecture_kana":"カナガワケン","city":"綾瀬市","city_kana":"アヤセシ","town":"深谷","town_kana":"フカヤ","prefecture_code":14},"1108":{"zip_code":"2521108","prefecture":"神奈川県","prefecture_kana":"カナガワケン","city":"綾瀬市","city_kana":"アヤセシ","town":"深谷上","town_kana":"フカヤカミ","prefecture_code":14},"1107":{"zip_code":"2521107","prefecture":"神奈川県","prefecture_kana":"カナガワケン","city":"綾瀬市","city_kana":"アヤセシ","town":"深谷中","town_kana":"フカヤナカ","prefecture_code":14},"1106":{"zip_code":"2521106","prefecture":"神奈川県","prefecture_kana":"カナガワケン","city":"綾瀬市","city_kana":"アヤセシ","town":"深谷南","town_kana":"フカヤミナミ","prefecture_code":14},"1102":{"zip_code":"2521102","prefecture":"神奈川県","prefecture_kana":"カナガワケン","city":"綾瀬市","city_kana":"アヤセシ","town":"本蓼川","town_kana":"ホンタテカワ","prefecture_code":14},"1124":{"zip_code":"2521124","prefecture":"神奈川県","prefecture_kana":"カナガワケン","city":"綾瀬市","city_kana":"アヤセシ","town":"吉岡","town_kana":"ヨシオカ","prefecture_code":14},"1125":{"zip_code":"2521125","prefecture":"神奈川県","prefecture_kana":"カナガワケン","city":"綾瀬市","city_kana":"アヤセシ","town":"吉岡東","town_kana":"ヨシオカヒガシ","prefecture_code":14},"1126":{"zip_code":"2521126","prefecture":"神奈川県","prefecture_kana":"カナガワケン","city":"綾瀬市","city_kana":"アヤセシ","town":"綾西","town_kana":"リョウセイ","prefecture_code":14}}