{"0000":{"zip_code":"2530000","prefecture":"神奈川県","prefecture_kana":"カナガワケン","city":"茅ヶ崎市","city_kana":"チガサキシ","town":"","town_kana":"","prefecture_code":14},"0001":{"zip_code":"2530001","prefecture":"神奈川県","prefecture_kana":"カナガワケン","city":"茅ヶ崎市","city_kana":"チガサキシ","town":"赤羽根","town_kana":"アカバネ","prefecture_code":14},"0013":{"zip_code":"2530013","prefecture":"神奈川県","prefecture_kana":"カナガワケン","city":"茅ヶ崎市","city_kana":"チガサキシ","town":"赤松町","town_kana":"アカマツチョウ","prefecture_code":14},"0026":{"zip_code":"2530026","prefecture":"神奈川県","prefecture_kana":"カナガワケン","city":"茅ヶ崎市","city_kana":"チガサキシ","town":"旭が丘","town_kana":"アサヒガオカ","prefecture_code":14},"0004":{"zip_code":"2530004","prefecture":"神奈川県","prefecture_kana":"カナガワケン","city":"茅ヶ崎市","city_kana":"チガサキシ","town":"甘沼","town_kana":"アマヌマ","prefecture_code":14},"0072":{"zip_code":"2530072","prefecture":"神奈川県","prefecture_kana":"カナガワケン","city":"茅ヶ崎市","city_kana":"チガサキシ","town":"今宿","town_kana":"イマジュク","prefecture_code":14},"0084":{"zip_code":"2530084","prefecture":"神奈川県","prefecture_kana":"カナガワケン","city":"茅ヶ崎市","city_kana":"チガサキシ","town":"円蔵","town_kana":"エンゾウ","prefecture_code":14},"0082":{"zip_code":"2530082","prefecture":"神奈川県","prefecture_kana":"カナガワケン","city":"茅ヶ崎市","city_kana":"チガサキシ","town":"香川","town_kana":"カガワ","prefecture_code":14},"0016":{"zip_code":"2530016","prefecture":"神奈川県","prefecture_kana":"カナガワケン","city":"茅ヶ崎市","city_kana":"チガサキシ","town":"小桜町","town_kana":"コザクラチョウ","prefecture_code":14},"0012":{"zip_code":"2530012","prefecture":"神奈川県","prefecture_kana":"カナガワケン","city":"茅ヶ崎市","city_kana":"チガサキシ","town":"小和田","town_kana":"コワダ","prefecture_code":14},"0052":{"zip_code":"2530052","prefecture":"神奈川県","prefecture_kana":"カナガワケン","city":"茅ヶ崎市","city_kana":"チガサキシ","town":"幸町","town_kana":"サイワイチョウ","prefecture_code":14},"0033":{"zip_code":"2530033","prefecture":"神奈川県","prefecture_kana":"カナガワケン","city":"茅ヶ崎市","city_kana":"チガサキシ","town":"汐見台","town_kana":"シオミダイ","prefecture_code":14},"0081":{"zip_code":"2530081","prefecture":"神奈川県","prefecture_kana":"カナガワケン","city":"茅ヶ崎市","city_kana":"チガサキシ","town":"下寺尾","town_kana":"シモテラオ","prefecture_code":14},"0087":{"zip_code":"2530087","prefecture":"神奈川県","prefecture_kana":"カナガワケン","city":"茅ヶ崎市","city_kana":"チガサキシ","town":"下町屋","town_kana":"シモマチヤ","prefecture_code":14},"0045":{"zip_code":"2530045","prefecture":"神奈川県","prefecture_kana":"カナガワケン","city":"茅ヶ崎市","city_kana":"チガサキシ","town":"十間坂","town_kana":"ジュッケンザカ","prefecture_code":14},"0017":{"zip_code":"2530017","prefecture":"神奈川県","prefecture_kana":"カナガワケン","city":"茅ヶ崎市","city_kana":"チガサキシ","town":"松林","town_kana":"ショウリン","prefecture_code":14},"0036":{"zip_code":"2530036","prefecture":"神奈川県","prefecture_kana":"カナガワケン","city":"茅ヶ崎市","city_kana":"チガサキシ","town":"白浜町","town_kana":"シラハマチョウ","prefecture_code":14},"0044":{"zip_code":"2530044","prefecture":"神奈川県","prefecture_kana":"カナガワケン","city":"茅ヶ崎市","city_kana":"チガサキシ","town":"新栄町","town_kana":"シンエイチョウ","prefecture_code":14},"0008":{"zip_code":"2530008","prefecture":"神奈川県","prefecture_kana":"カナガワケン","city":"茅ヶ崎市","city_kana":"チガサキシ","town":"芹沢","town_kana":"セリザワ","prefecture_code":14},"0015":{"zip_code":"2530015","prefecture":"神奈川県","prefecture_kana":"カナガワケン","city":"茅ヶ崎市","city_kana":"チガサキシ","town":"代官町","town_kana":"ダイカンチョウ","prefecture_code":14},"0002":{"zip_code":"2530002","prefecture":"神奈川県","prefecture_kana":"カナガワケン","city":"茅ヶ崎市","city_kana":"チガサキシ","town":"高田","town_kana":"タカタ","prefecture_code":14},"0041":{"zip_code":"2530041","prefecture":"神奈川県","prefecture_kana":"カナガワケン","city":"茅ヶ崎市","city_kana":"チガサキシ","town":"茅ヶ崎","town_kana":"チガサキ","prefecture_code":14},"0006":{"zip_code":"2530006","prefecture":"神奈川県","prefecture_kana":"カナガワケン","city":"茅ヶ崎市","city_kana":"チガサキシ","town":"堤","town_kana":"ツツミ","prefecture_code":14},"0003":{"zip_code":"2530003","prefecture":"神奈川県","prefecture_kana":"カナガワケン","city":"茅ヶ崎市","city_kana":"チガサキシ","town":"鶴が台","town_kana":"ツルガダイ","prefecture_code":14},"0028":{"zip_code":"2530028","prefecture":"神奈川県","prefecture_kana":"カナガワケン","city":"茅ヶ崎市","city_kana":"チガサキシ","town":"出口町","town_kana":"デグチチョウ","prefecture_code":14},"0032":{"zip_code":"2530032","prefecture":"神奈川県","prefecture_kana":"カナガワケン","city":"茅ヶ崎市","city_kana":"チガサキシ","town":"常盤町","town_kana":"トキワチョウ","prefecture_code":14},"0056":{"zip_code":"2530056","prefecture":"神奈川県","prefecture_kana":"カナガワケン","city":"茅ヶ崎市","city_kana":"チガサキシ","town":"共恵","town_kana":"トモエ","prefecture_code":14},"0055":{"zip_code":"2530055","prefecture":"神奈川県","prefecture_kana":"カナガワケン","city":"茅ヶ崎市","city_kana":"チガサキシ","town":"中海岸","town_kana":"ナカカイガン","prefecture_code":14},"0073":{"zip_code":"2530073","prefecture":"神奈川県","prefecture_kana":"カナガワケン","city":"茅ヶ崎市","city_kana":"チガサキシ","town":"中島","town_kana":"ナカジマ","prefecture_code":14},"0007":{"zip_code":"2530007","prefecture":"神奈川県","prefecture_kana":"カナガワケン","city":"茅ヶ崎市","city_kana":"チガサキシ","town":"行谷","town_kana":"ナメガヤ","prefecture_code":14},"0061":{"zip_code":"2530061","prefecture":"神奈川県","prefecture_kana":"カナガワケン","city":"茅ヶ崎市","city_kana":"チガサキシ","town":"南湖","town_kana":"ナンゴ","prefecture_code":14},"0083":{"zip_code":"2530083","prefecture":"神奈川県","prefecture_kana":"カナガワケン","city":"茅ヶ崎市","city_kana":"チガサキシ","town":"西久保","town_kana":"ニシクボ","prefecture_code":14},"0071":{"zip_code":"2530071","prefecture":"神奈川県","prefecture_kana":"カナガワケン","city":"茅ヶ崎市","city_kana":"チガサキシ","town":"萩園","town_kana":"ハギソノ","prefecture_code":14},"0035":{"zip_code":"2530035","prefecture":"神奈川県","prefecture_kana":"カナガワケン","city":"茅ヶ崎市","city_kana":"チガサキシ","town":"浜須賀","town_kana":"ハマスカ","prefecture_code":14},"0021":{"zip_code":"2530021","prefecture":"神奈川県","prefecture_kana":"カナガワケン","city":"茅ヶ崎市","city_kana":"チガサキシ","town":"浜竹","town_kana":"ハマタケ","prefecture_code":14},"0086":{"zip_code":"2530086","prefecture":"神奈川県","prefecture_kana":"カナガワケン","city":"茅ヶ崎市","city_kana":"チガサキシ","town":"浜之郷","town_kana":"ハマノゴウ","prefecture_code":14},"0062":{"zip_code":"2530062","prefecture":"神奈川県","prefecture_kana":"カナガワケン","city":"茅ヶ崎市","city_kana":"チガサキシ","town":"浜見平","town_kana":"ハマミダイラ","prefecture_code":14},"0054":{"zip_code":"2530054","prefecture":"神奈川県","prefecture_kana":"カナガワケン","city":"茅ヶ崎市","city_kana":"チガサキシ","town":"東海岸南","town_kana":"ヒガシカイガンミナミ","prefecture_code":14},"0053":{"zip_code":"2530053","prefecture":"神奈川県","prefecture_kana":"カナガワケン","city":"茅ヶ崎市","city_kana":"チガサキシ","town":"東海岸北","town_kana":"ヒガシカイガンキタ","prefecture_code":14},"0011":{"zip_code":"2530011","prefecture":"神奈川県","prefecture_kana":"カナガワケン","city":"茅ヶ崎市","city_kana":"チガサキシ","town":"菱沼","town_kana":"ヒシヌマ","prefecture_code":14},"0037":{"zip_code":"2530037","prefecture":"神奈川県","prefecture_kana":"カナガワケン","city":"茅ヶ崎市","city_kana":"チガサキシ","town":"菱沼海岸","town_kana":"ヒシヌマカイガン","prefecture_code":14},"0027":{"zip_code":"2530027","prefecture":"神奈川県","prefecture_kana":"カナガワケン","city":"茅ヶ崎市","city_kana":"チガサキシ","town":"ひばりが丘","town_kana":"ヒバリガオカ","prefecture_code":14},"0031":{"zip_code":"2530031","prefecture":"神奈川県","prefecture_kana":"カナガワケン","city":"茅ヶ崎市","city_kana":"チガサキシ","town":"富士見町","town_kana":"フジミチョウ","prefecture_code":14},"0074":{"zip_code":"2530074","prefecture":"神奈川県","prefecture_kana":"カナガワケン","city":"茅ヶ崎市","city_kana":"チガサキシ","town":"平太夫新田","town_kana":"ヘイダユウシンデン","prefecture_code":14},"0024":{"zip_code":"2530024","prefecture":"神奈川県","prefecture_kana":"カナガワケン","city":"茅ヶ崎市","city_kana":"チガサキシ","town":"平和町","town_kana":"ヘイワチョウ","prefecture_code":14},"0014":{"zip_code":"2530014","prefecture":"神奈川県","prefecture_kana":"カナガワケン","city":"茅ヶ崎市","city_kana":"チガサキシ","town":"本宿町","town_kana":"ホンジュクチョウ","prefecture_code":14},"0042":{"zip_code":"2530042","prefecture":"神奈川県","prefecture_kana":"カナガワケン","city":"茅ヶ崎市","city_kana":"チガサキシ","town":"本村","town_kana":"ホンソン","prefecture_code":14},"0065":{"zip_code":"2530065","prefecture":"神奈川県","prefecture_kana":"カナガワケン","city":"茅ヶ崎市","city_kana":"チガサキシ","town":"松尾","town_kana":"マツオ","prefecture_code":14},"0005":{"zip_code":"2530005","prefecture":"神奈川県","prefecture_kana":"カナガワケン","city":"茅ヶ崎市","city_kana":"チガサキシ","town":"松風台","town_kana":"マツカゼダイ","prefecture_code":14},"0025":{"zip_code":"2530025","prefecture":"神奈川県","prefecture_kana":"カナガワケン","city":"茅ヶ崎市","city_kana":"チガサキシ","town":"松が丘","town_kana":"マツガオカ","prefecture_code":14},"0022":{"zip_code":"2530022","prefecture":"神奈川県","prefecture_kana":"カナガワケン","city":"茅ヶ崎市","city_kana":"チガサキシ","town":"松浪","town_kana":"マツナミ","prefecture_code":14},"0088":{"zip_code":"2530088","prefecture":"神奈川県","prefecture_kana":"カナガワケン","city":"茅ヶ崎市","city_kana":"チガサキシ","town":"みずき","town_kana":"ミズキ","prefecture_code":14},"0023":{"zip_code":"2530023","prefecture":"神奈川県","prefecture_kana":"カナガワケン","city":"茅ヶ崎市","city_kana":"チガサキシ","town":"美住町","town_kana":"ミスミチョウ","prefecture_code":14},"0034":{"zip_code":"2530034","prefecture":"神奈川県","prefecture_kana":"カナガワケン","city":"茅ヶ崎市","city_kana":"チガサキシ","town":"緑が浜","town_kana":"ミドリガハマ","prefecture_code":14},"0018":{"zip_code":"2530018","prefecture":"神奈川県","prefecture_kana":"カナガワケン","city":"茅ヶ崎市","city_kana":"チガサキシ","town":"室田","town_kana":"ムロタ","prefecture_code":14},"0043":{"zip_code":"2530043","prefecture":"神奈川県","prefecture_kana":"カナガワケン","city":"茅ヶ崎市","city_kana":"チガサキシ","town":"元町","town_kana":"モトマチ","prefecture_code":14},"0064":{"zip_code":"2530064","prefecture":"神奈川県","prefecture_kana":"カナガワケン","city":"茅ヶ崎市","city_kana":"チガサキシ","town":"柳島","town_kana":"ヤナギシマ","prefecture_code":14},"0063":{"zip_code":"2530063","prefecture":"神奈川県","prefecture_kana":"カナガワケン","city":"茅ヶ崎市","city_kana":"チガサキシ","town":"柳島海岸","town_kana":"ヤナギシマカイガン","prefecture_code":14},"0085":{"zip_code":"2530085","prefecture":"神奈川県","prefecture_kana":"カナガワケン","city":"茅ヶ崎市","city_kana":"チガサキシ","town":"矢畑","town_kana":"ヤバタ","prefecture_code":14},"0051":{"zip_code":"2530051","prefecture":"神奈川県","prefecture_kana":"カナガワケン","city":"茅ヶ崎市","city_kana":"チガサキシ","town":"若松町","town_kana":"ワカマツチョウ","prefecture_code":14},"0100":{"zip_code":"2530100","prefecture":"神奈川県","prefecture_kana":"カナガワケン","city":"高座郡寒川町","city_kana":"コウザグンサムカワマチ","town":"","town_kana":"","prefecture_code":14},"0111":{"zip_code":"2530111","prefecture":"神奈川県","prefecture_kana":"カナガワケン","city":"高座郡寒川町","city_kana":"コウザグンサムカワマチ","town":"一之宮","town_kana":"イチノミヤ","prefecture_code":14},"0104":{"zip_code":"2530104","prefecture":"神奈川県","prefecture_kana":"カナガワケン","city":"高座郡寒川町","city_kana":"コウザグンサムカワマチ","town":"大蔵","town_kana":"オオゾウ","prefecture_code":14},"0113":{"zip_code":"2530113","prefecture":"神奈川県","prefecture_kana":"カナガワケン","city":"高座郡寒川町","city_kana":"コウザグンサムカワマチ","town":"大曲","town_kana":"オオマガリ","prefecture_code":14},"0105":{"zip_code":"2530105","prefecture":"神奈川県","prefecture_kana":"カナガワケン","city":"高座郡寒川町","city_kana":"コウザグンサムカワマチ","town":"岡田","town_kana":"オカダ","prefecture_code":14},"0101":{"zip_code":"2530101","prefecture":"神奈川県","prefecture_kana":"カナガワケン","city":"高座郡寒川町","city_kana":"コウザグンサムカワマチ","town":"倉見","town_kana":"クラミ","prefecture_code":14},"0103":{"zip_code":"2530103","prefecture":"神奈川県","prefecture_kana":"カナガワケン","city":"高座郡寒川町","city_kana":"コウザグンサムカワマチ","town":"小谷","town_kana":"コヤト","prefecture_code":14},"0102":{"zip_code":"2530102","prefecture":"神奈川県","prefecture_kana":"カナガワケン","city":"高座郡寒川町","city_kana":"コウザグンサムカワマチ","town":"小動","town_kana":"コユルギ","prefecture_code":14},"0114":{"zip_code":"2530114","prefecture":"神奈川県","prefecture_kana":"カナガワケン","city":"高座郡寒川町","city_kana":"コウザグンサムカワマチ","town":"田端","town_kana":"タバタ","prefecture_code":14},"0112":{"zip_code":"2530112","prefecture":"神奈川県","prefecture_kana":"カナガワケン","city":"高座郡寒川町","city_kana":"コウザグンサムカワマチ","town":"中瀬","town_kana":"ナカゼ","prefecture_code":14},"0106":{"zip_code":"2530106","prefecture":"神奈川県","prefecture_kana":"カナガワケン","city":"高座郡寒川町","city_kana":"コウザグンサムカワマチ","town":"宮山","town_kana":"ミヤヤマ","prefecture_code":14}}