{"1214":{"zip_code":"2591214","prefecture":"神奈川県","prefecture_kana":"カナガワケン","city":"平塚市","city_kana":"ヒラツカシ","town":"飯島","town_kana":"イイジマ","prefecture_code":14},"1216":{"zip_code":"2591216","prefecture":"神奈川県","prefecture_kana":"カナガワケン","city":"平塚市","city_kana":"ヒラツカシ","town":"入野","town_kana":"イノ","prefecture_code":14},"1218":{"zip_code":"2591218","prefecture":"神奈川県","prefecture_kana":"カナガワケン","city":"平塚市","city_kana":"ヒラツカシ","town":"入部","town_kana":"イリブ","prefecture_code":14},"1212":{"zip_code":"2591212","prefecture":"神奈川県","prefecture_kana":"カナガワケン","city":"平塚市","city_kana":"ヒラツカシ","town":"岡崎","town_kana":"オカザキ","prefecture_code":14},"1213":{"zip_code":"2591213","prefecture":"神奈川県","prefecture_kana":"カナガワケン","city":"平塚市","city_kana":"ヒラツカシ","town":"片岡","town_kana":"カタオカ","prefecture_code":14},"1204":{"zip_code":"2591204","prefecture":"神奈川県","prefecture_kana":"カナガワケン","city":"平塚市","city_kana":"ヒラツカシ","town":"上吉沢","town_kana":"カミキチサワ","prefecture_code":14},"1207":{"zip_code":"2591207","prefecture":"神奈川県","prefecture_kana":"カナガワケン","city":"平塚市","city_kana":"ヒラツカシ","town":"北金目","town_kana":"キタカナメ","prefecture_code":14},"1206":{"zip_code":"2591206","prefecture":"神奈川県","prefecture_kana":"カナガワケン","city":"平塚市","city_kana":"ヒラツカシ","town":"真田","town_kana":"サナダ","prefecture_code":14},"1203":{"zip_code":"2591203","prefecture":"神奈川県","prefecture_kana":"カナガワケン","city":"平塚市","city_kana":"ヒラツカシ","town":"下吉沢","town_kana":"シモキチサワ","prefecture_code":14},"1202":{"zip_code":"2591202","prefecture":"神奈川県","prefecture_kana":"カナガワケン","city":"平塚市","city_kana":"ヒラツカシ","town":"千須谷","town_kana":"センズヤ","prefecture_code":14},"1205":{"zip_code":"2591205","prefecture":"神奈川県","prefecture_kana":"カナガワケン","city":"平塚市","city_kana":"ヒラツカシ","town":"土屋","town_kana":"ツチヤ","prefecture_code":14},"1215":{"zip_code":"2591215","prefecture":"神奈川県","prefecture_kana":"カナガワケン","city":"平塚市","city_kana":"ヒラツカシ","town":"寺田縄","town_kana":"テラダナワ","prefecture_code":14},"1217":{"zip_code":"2591217","prefecture":"神奈川県","prefecture_kana":"カナガワケン","city":"平塚市","city_kana":"ヒラツカシ","town":"長持","town_kana":"ナガモチ","prefecture_code":14},"1219":{"zip_code":"2591219","prefecture":"神奈川県","prefecture_kana":"カナガワケン","city":"平塚市","city_kana":"ヒラツカシ","town":"広川","town_kana":"ヒロカワ","prefecture_code":14},"1211":{"zip_code":"2591211","prefecture":"神奈川県","prefecture_kana":"カナガワケン","city":"平塚市","city_kana":"ヒラツカシ","town":"ふじみ野","town_kana":"フジミノ","prefecture_code":14},"1201":{"zip_code":"2591201","prefecture":"神奈川県","prefecture_kana":"カナガワケン","city":"平塚市","city_kana":"ヒラツカシ","town":"南金目","town_kana":"ミナミカナメ","prefecture_code":14},"1220":{"zip_code":"2591220","prefecture":"神奈川県","prefecture_kana":"カナガワケン","city":"平塚市","city_kana":"ヒラツカシ","town":"めぐみが丘","town_kana":"メグミガオカ","prefecture_code":14},"1312":{"zip_code":"2591312","prefecture":"神奈川県","prefecture_kana":"カナガワケン","city":"秦野市","city_kana":"ハダノシ","town":"春日町","town_kana":"カスガチョウ","prefecture_code":14},"1303":{"zip_code":"2591303","prefecture":"神奈川県","prefecture_kana":"カナガワケン","city":"秦野市","city_kana":"ハダノシ","town":"三屋","town_kana":"サンヤ","prefecture_code":14},"1322":{"zip_code":"2591322","prefecture":"神奈川県","prefecture_kana":"カナガワケン","city":"秦野市","city_kana":"ハダノシ","town":"渋沢","town_kana":"シブサワ","prefecture_code":14},"1326":{"zip_code":"2591326","prefecture":"神奈川県","prefecture_kana":"カナガワケン","city":"秦野市","city_kana":"ハダノシ","town":"渋沢上","town_kana":"シブサワカミ","prefecture_code":14},"1332":{"zip_code":"2591332","prefecture":"神奈川県","prefecture_kana":"カナガワケン","city":"秦野市","city_kana":"ハダノシ","town":"菖蒲","town_kana":"ショウブ","prefecture_code":14},"1324":{"zip_code":"2591324","prefecture":"神奈川県","prefecture_kana":"カナガワケン","city":"秦野市","city_kana":"ハダノシ","town":"千村","town_kana":"チムラ","prefecture_code":14},"1306":{"zip_code":"2591306","prefecture":"神奈川県","prefecture_kana":"カナガワケン","city":"秦野市","city_kana":"ハダノシ","town":"戸川","town_kana":"トカワ","prefecture_code":14},"1323":{"zip_code":"2591323","prefecture":"神奈川県","prefecture_kana":"カナガワケン","city":"秦野市","city_kana":"ハダノシ","town":"栃窪（その他）","town_kana":"トチクボ(ソノタ)","prefecture_code":14},"1317":{"zip_code":"2591317","prefecture":"神奈川県","prefecture_kana":"カナガワケン","city":"秦野市","city_kana":"ハダノシ","town":"並木町","town_kana":"ナミキチョウ","prefecture_code":14},"1316":{"zip_code":"2591316","prefecture":"神奈川県","prefecture_kana":"カナガワケン","city":"秦野市","city_kana":"ハダノシ","town":"沼代新町","town_kana":"ヌマシロシンチョウ","prefecture_code":14},"1325":{"zip_code":"2591325","prefecture":"神奈川県","prefecture_kana":"カナガワケン","city":"秦野市","city_kana":"ハダノシ","town":"萩が丘","town_kana":"ハギガオカ","prefecture_code":14},"1333":{"zip_code":"2591333","prefecture":"神奈川県","prefecture_kana":"カナガワケン","city":"秦野市","city_kana":"ハダノシ","town":"八沢","town_kana":"ハッサワ","prefecture_code":14},"1301":{"zip_code":"2591301","prefecture":"神奈川県","prefecture_kana":"カナガワケン","city":"秦野市","city_kana":"ハダノシ","town":"羽根","town_kana":"ハネ","prefecture_code":14},"1302":{"zip_code":"2591302","prefecture":"神奈川県","prefecture_kana":"カナガワケン","city":"秦野市","city_kana":"ハダノシ","town":"菩提","town_kana":"ボダイ","prefecture_code":14},"1305":{"zip_code":"2591305","prefecture":"神奈川県","prefecture_kana":"カナガワケン","city":"秦野市","city_kana":"ハダノシ","town":"堀川","town_kana":"ホリカワ","prefecture_code":14},"1304":{"zip_code":"2591304","prefecture":"神奈川県","prefecture_kana":"カナガワケン","city":"秦野市","city_kana":"ハダノシ","town":"堀山下","town_kana":"ホリヤマシタ","prefecture_code":14},"1331":{"zip_code":"2591331","prefecture":"神奈川県","prefecture_kana":"カナガワケン","city":"秦野市","city_kana":"ハダノシ","town":"堀西","town_kana":"ホリニシ","prefecture_code":14},"1321":{"zip_code":"2591321","prefecture":"神奈川県","prefecture_kana":"カナガワケン","city":"秦野市","city_kana":"ハダノシ","town":"曲松","town_kana":"マガリマツ","prefecture_code":14},"1313":{"zip_code":"2591313","prefecture":"神奈川県","prefecture_kana":"カナガワケン","city":"秦野市","city_kana":"ハダノシ","town":"松原町","town_kana":"マツバラチョウ","prefecture_code":14},"1335":{"zip_code":"2591335","prefecture":"神奈川県","prefecture_kana":"カナガワケン","city":"秦野市","city_kana":"ハダノシ","town":"三廻部","town_kana":"ミクルベ","prefecture_code":14},"1334":{"zip_code":"2591334","prefecture":"神奈川県","prefecture_kana":"カナガワケン","city":"秦野市","city_kana":"ハダノシ","town":"柳川","town_kana":"ヤナガワ","prefecture_code":14},"1315":{"zip_code":"2591315","prefecture":"神奈川県","prefecture_kana":"カナガワケン","city":"秦野市","city_kana":"ハダノシ","town":"柳町","town_kana":"ヤナギチョウ","prefecture_code":14},"1311":{"zip_code":"2591311","prefecture":"神奈川県","prefecture_kana":"カナガワケン","city":"秦野市","city_kana":"ハダノシ","town":"弥生町","town_kana":"ヤヨイチョウ","prefecture_code":14},"1307":{"zip_code":"2591307","prefecture":"神奈川県","prefecture_kana":"カナガワケン","city":"秦野市","city_kana":"ハダノシ","town":"横野","town_kana":"ヨコノ","prefecture_code":14},"1314":{"zip_code":"2591314","prefecture":"神奈川県","prefecture_kana":"カナガワケン","city":"秦野市","city_kana":"ハダノシ","town":"若松町","town_kana":"ワカマツチョウ","prefecture_code":14},"1100":{"zip_code":"2591100","prefecture":"神奈川県","prefecture_kana":"カナガワケン","city":"伊勢原市","city_kana":"イセハラシ","town":"以下に掲載がない場合","town_kana":"イカニケイサイガナイバアイ","prefecture_code":14},"1113":{"zip_code":"2591113","prefecture":"神奈川県","prefecture_kana":"カナガワケン","city":"伊勢原市","city_kana":"イセハラシ","town":"粟窪","town_kana":"アワクボ","prefecture_code":14},"1144":{"zip_code":"2591144","prefecture":"神奈川県","prefecture_kana":"カナガワケン","city":"伊勢原市","city_kana":"イセハラシ","town":"池端","town_kana":"イケバタ","prefecture_code":14},"1116":{"zip_code":"2591116","prefecture":"神奈川県","prefecture_kana":"カナガワケン","city":"伊勢原市","city_kana":"イセハラシ","town":"石田","town_kana":"イシダ","prefecture_code":14},"1131":{"zip_code":"2591131","prefecture":"神奈川県","prefecture_kana":"カナガワケン","city":"伊勢原市","city_kana":"イセハラシ","town":"伊勢原","town_kana":"イセハラ","prefecture_code":14},"1145":{"zip_code":"2591145","prefecture":"神奈川県","prefecture_kana":"カナガワケン","city":"伊勢原市","city_kana":"イセハラシ","town":"板戸","town_kana":"イタド","prefecture_code":14},"1128":{"zip_code":"2591128","prefecture":"神奈川県","prefecture_kana":"カナガワケン","city":"伊勢原市","city_kana":"イセハラシ","town":"歌川","town_kana":"ウタガワ","prefecture_code":14},"1105":{"zip_code":"2591105","prefecture":"神奈川県","prefecture_kana":"カナガワケン","city":"伊勢原市","city_kana":"イセハラシ","town":"大住台","town_kana":"オオスミダイ","prefecture_code":14},"1107":{"zip_code":"2591107","prefecture":"神奈川県","prefecture_kana":"カナガワケン","city":"伊勢原市","city_kana":"イセハラシ","town":"大山","town_kana":"オオヤマ","prefecture_code":14},"1135":{"zip_code":"2591135","prefecture":"神奈川県","prefecture_kana":"カナガワケン","city":"伊勢原市","city_kana":"イセハラシ","town":"岡崎","town_kana":"オカザキ","prefecture_code":14},"1137":{"zip_code":"2591137","prefecture":"神奈川県","prefecture_kana":"カナガワケン","city":"伊勢原市","city_kana":"イセハラシ","town":"笠窪","town_kana":"カサクボ","prefecture_code":14},"1141":{"zip_code":"2591141","prefecture":"神奈川県","prefecture_kana":"カナガワケン","city":"伊勢原市","city_kana":"イセハラシ","town":"上粕屋","town_kana":"カミカスヤ","prefecture_code":14},"1124":{"zip_code":"2591124","prefecture":"神奈川県","prefecture_kana":"カナガワケン","city":"伊勢原市","city_kana":"イセハラシ","town":"上平間","town_kana":"カミヒラマ","prefecture_code":14},"1127":{"zip_code":"2591127","prefecture":"神奈川県","prefecture_kana":"カナガワケン","city":"伊勢原市","city_kana":"イセハラシ","town":"上谷","town_kana":"カミヤ","prefecture_code":14},"1136":{"zip_code":"2591136","prefecture":"神奈川県","prefecture_kana":"カナガワケン","city":"伊勢原市","city_kana":"イセハラシ","town":"串橋","town_kana":"クシハシ","prefecture_code":14},"1122":{"zip_code":"2591122","prefecture":"神奈川県","prefecture_kana":"カナガワケン","city":"伊勢原市","city_kana":"イセハラシ","town":"小稲葉","town_kana":"コイナバ","prefecture_code":14},"1138":{"zip_code":"2591138","prefecture":"神奈川県","prefecture_kana":"カナガワケン","city":"伊勢原市","city_kana":"イセハラシ","town":"神戸","town_kana":"ゴウド","prefecture_code":14},"1102":{"zip_code":"2591102","prefecture":"神奈川県","prefecture_kana":"カナガワケン","city":"伊勢原市","city_kana":"イセハラシ","town":"子易","town_kana":"コヤス","prefecture_code":14},"1132":{"zip_code":"2591132","prefecture":"神奈川県","prefecture_kana":"カナガワケン","city":"伊勢原市","city_kana":"イセハラシ","town":"桜台","town_kana":"サクラダイ","prefecture_code":14},"1103":{"zip_code":"2591103","prefecture":"神奈川県","prefecture_kana":"カナガワケン","city":"伊勢原市","city_kana":"イセハラシ","town":"三ノ宮","town_kana":"サンノミヤ","prefecture_code":14},"1121":{"zip_code":"2591121","prefecture":"神奈川県","prefecture_kana":"カナガワケン","city":"伊勢原市","city_kana":"イセハラシ","town":"下落合","town_kana":"シモオチアイ","prefecture_code":14},"1143":{"zip_code":"2591143","prefecture":"神奈川県","prefecture_kana":"カナガワケン","city":"伊勢原市","city_kana":"イセハラシ","town":"下糟屋","town_kana":"シモカスヤ","prefecture_code":14},"1125":{"zip_code":"2591125","prefecture":"神奈川県","prefecture_kana":"カナガワケン","city":"伊勢原市","city_kana":"イセハラシ","town":"下平間","town_kana":"シモヒラマ","prefecture_code":14},"1123":{"zip_code":"2591123","prefecture":"神奈川県","prefecture_kana":"カナガワケン","city":"伊勢原市","city_kana":"イセハラシ","town":"下谷","town_kana":"シモヤ","prefecture_code":14},"1147":{"zip_code":"2591147","prefecture":"神奈川県","prefecture_kana":"カナガワケン","city":"伊勢原市","city_kana":"イセハラシ","town":"白根","town_kana":"シラネ","prefecture_code":14},"1146":{"zip_code":"2591146","prefecture":"神奈川県","prefecture_kana":"カナガワケン","city":"伊勢原市","city_kana":"イセハラシ","town":"鈴川","town_kana":"スズカワ","prefecture_code":14},"1106":{"zip_code":"2591106","prefecture":"神奈川県","prefecture_kana":"カナガワケン","city":"伊勢原市","city_kana":"イセハラシ","town":"善波","town_kana":"ゼンバ","prefecture_code":14},"1114":{"zip_code":"2591114","prefecture":"神奈川県","prefecture_kana":"カナガワケン","city":"伊勢原市","city_kana":"イセハラシ","town":"高森","town_kana":"タカモリ","prefecture_code":14},"1115":{"zip_code":"2591115","prefecture":"神奈川県","prefecture_kana":"カナガワケン","city":"伊勢原市","city_kana":"イセハラシ","town":"高森台","town_kana":"タカモリダイ","prefecture_code":14},"1142":{"zip_code":"2591142","prefecture":"神奈川県","prefecture_kana":"カナガワケン","city":"伊勢原市","city_kana":"イセハラシ","town":"田中","town_kana":"タナカ","prefecture_code":14},"1104":{"zip_code":"2591104","prefecture":"神奈川県","prefecture_kana":"カナガワケン","city":"伊勢原市","city_kana":"イセハラシ","town":"坪ノ内","town_kana":"ツボノウチ","prefecture_code":14},"1111":{"zip_code":"2591111","prefecture":"神奈川県","prefecture_kana":"カナガワケン","city":"伊勢原市","city_kana":"イセハラシ","town":"西富岡","town_kana":"ニシトミオカ","prefecture_code":14},"1126":{"zip_code":"2591126","prefecture":"神奈川県","prefecture_kana":"カナガワケン","city":"伊勢原市","city_kana":"イセハラシ","town":"沼目","town_kana":"ヌマメ","prefecture_code":14},"1134":{"zip_code":"2591134","prefecture":"神奈川県","prefecture_kana":"カナガワケン","city":"伊勢原市","city_kana":"イセハラシ","town":"八幡台","town_kana":"ハチマンダイ","prefecture_code":14},"1133":{"zip_code":"2591133","prefecture":"神奈川県","prefecture_kana":"カナガワケン","city":"伊勢原市","city_kana":"イセハラシ","town":"東大竹","town_kana":"ヒガシオオダケ","prefecture_code":14},"1112":{"zip_code":"2591112","prefecture":"神奈川県","prefecture_kana":"カナガワケン","city":"伊勢原市","city_kana":"イセハラシ","town":"東富岡","town_kana":"ヒガシトミオカ","prefecture_code":14},"1117":{"zip_code":"2591117","prefecture":"神奈川県","prefecture_kana":"カナガワケン","city":"伊勢原市","city_kana":"イセハラシ","town":"東成瀬","town_kana":"ヒガシナルセ","prefecture_code":14},"1101":{"zip_code":"2591101","prefecture":"神奈川県","prefecture_kana":"カナガワケン","city":"伊勢原市","city_kana":"イセハラシ","town":"日向","town_kana":"ヒナタ","prefecture_code":14},"1118":{"zip_code":"2591118","prefecture":"神奈川県","prefecture_kana":"カナガワケン","city":"伊勢原市","city_kana":"イセハラシ","town":"見附島","town_kana":"ミツケジマ","prefecture_code":14},"0102":{"zip_code":"2590102","prefecture":"神奈川県","prefecture_kana":"カナガワケン","city":"中郡大磯町","city_kana":"ナカグンオオイソマチ","town":"生沢","town_kana":"イクサワ","prefecture_code":14},"0113":{"zip_code":"2590113","prefecture":"神奈川県","prefecture_kana":"カナガワケン","city":"中郡大磯町","city_kana":"ナカグンオオイソマチ","town":"石神台","town_kana":"イシガミダイ","prefecture_code":14},"0114":{"zip_code":"2590114","prefecture":"神奈川県","prefecture_kana":"カナガワケン","city":"中郡大磯町","city_kana":"ナカグンオオイソマチ","town":"月京","town_kana":"ガッキョウ","prefecture_code":14},"0105":{"zip_code":"2590105","prefecture":"神奈川県","prefecture_kana":"カナガワケン","city":"中郡大磯町","city_kana":"ナカグンオオイソマチ","town":"黒岩","town_kana":"クロイワ","prefecture_code":14},"0112":{"zip_code":"2590112","prefecture":"神奈川県","prefecture_kana":"カナガワケン","city":"中郡大磯町","city_kana":"ナカグンオオイソマチ","town":"国府新宿","town_kana":"コクフシンシュク","prefecture_code":14},"0111":{"zip_code":"2590111","prefecture":"神奈川県","prefecture_kana":"カナガワケン","city":"中郡大磯町","city_kana":"ナカグンオオイソマチ","town":"国府本郷","town_kana":"コクフホンゴウ","prefecture_code":14},"0101":{"zip_code":"2590101","prefecture":"神奈川県","prefecture_kana":"カナガワケン","city":"中郡大磯町","city_kana":"ナカグンオオイソマチ","town":"寺坂","town_kana":"テラサカ","prefecture_code":14},"0104":{"zip_code":"2590104","prefecture":"神奈川県","prefecture_kana":"カナガワケン","city":"中郡大磯町","city_kana":"ナカグンオオイソマチ","town":"西久保","town_kana":"ニシクボ","prefecture_code":14},"0103":{"zip_code":"2590103","prefecture":"神奈川県","prefecture_kana":"カナガワケン","city":"中郡大磯町","city_kana":"ナカグンオオイソマチ","town":"虫窪","town_kana":"ムシクボ","prefecture_code":14},"0100":[{"zip_code":"2590100","prefecture":"神奈川県","prefecture_kana":"カナガワケン","city":"中郡二宮町","city_kana":"ナカグンニノミヤマチ","town":"以下に掲載がない場合","town_kana":"イカニケイサイガナイバアイ","prefecture_code":14},{"zip_code":"2590100","prefecture":"神奈川県","prefecture_kana":"カナガワケン","city":"足柄上郡中井町","city_kana":"アシガラカミグンナカイマチ","town":"以下に掲載がない場合","town_kana":"イカニケイサイガナイバアイ","prefecture_code":14}],"0134":{"zip_code":"2590134","prefecture":"神奈川県","prefecture_kana":"カナガワケン","city":"中郡二宮町","city_kana":"ナカグンニノミヤマチ","town":"一色","town_kana":"イシキ","prefecture_code":14},"0125":{"zip_code":"2590125","prefecture":"神奈川県","prefecture_kana":"カナガワケン","city":"中郡二宮町","city_kana":"ナカグンニノミヤマチ","town":"川匂","town_kana":"カワワ","prefecture_code":14},"0131":{"zip_code":"2590131","prefecture":"神奈川県","prefecture_kana":"カナガワケン","city":"中郡二宮町","city_kana":"ナカグンニノミヤマチ","town":"中里","town_kana":"ナカザト","prefecture_code":14},"0123":{"zip_code":"2590123","prefecture":"神奈川県","prefecture_kana":"カナガワケン","city":"中郡二宮町","city_kana":"ナカグンニノミヤマチ","town":"二宮","town_kana":"ニノミヤ","prefecture_code":14},"0122":{"zip_code":"2590122","prefecture":"神奈川県","prefecture_kana":"カナガワケン","city":"中郡二宮町","city_kana":"ナカグンニノミヤマチ","town":"富士見が丘","town_kana":"フジミガオカ","prefecture_code":14},"0121":{"zip_code":"2590121","prefecture":"神奈川県","prefecture_kana":"カナガワケン","city":"中郡二宮町","city_kana":"ナカグンニノミヤマチ","town":"松根","town_kana":"マツネ","prefecture_code":14},"0132":{"zip_code":"2590132","prefecture":"神奈川県","prefecture_kana":"カナガワケン","city":"中郡二宮町","city_kana":"ナカグンニノミヤマチ","town":"緑が丘","town_kana":"ミドリガオカ","prefecture_code":14},"0124":{"zip_code":"2590124","prefecture":"神奈川県","prefecture_kana":"カナガワケン","city":"中郡二宮町","city_kana":"ナカグンニノミヤマチ","town":"山西","town_kana":"ヤマニシ","prefecture_code":14},"0133":{"zip_code":"2590133","prefecture":"神奈川県","prefecture_kana":"カナガワケン","city":"中郡二宮町","city_kana":"ナカグンニノミヤマチ","town":"百合が丘","town_kana":"ユリガオカ","prefecture_code":14},"0151":{"zip_code":"2590151","prefecture":"神奈川県","prefecture_kana":"カナガワケン","city":"足柄上郡中井町","city_kana":"アシガラカミグンナカイマチ","town":"井ノ口","town_kana":"イノクチ","prefecture_code":14},"0154":{"zip_code":"2590154","prefecture":"神奈川県","prefecture_kana":"カナガワケン","city":"足柄上郡中井町","city_kana":"アシガラカミグンナカイマチ","town":"岩倉","town_kana":"イワクラ","prefecture_code":14},"0141":{"zip_code":"2590141","prefecture":"神奈川県","prefecture_kana":"カナガワケン","city":"足柄上郡中井町","city_kana":"アシガラカミグンナカイマチ","town":"遠藤","town_kana":"エンドウ","prefecture_code":14},"0147":{"zip_code":"2590147","prefecture":"神奈川県","prefecture_kana":"カナガワケン","city":"足柄上郡中井町","city_kana":"アシガラカミグンナカイマチ","town":"鴨沢","town_kana":"カモザワ","prefecture_code":14},"0143":{"zip_code":"2590143","prefecture":"神奈川県","prefecture_kana":"カナガワケン","city":"足柄上郡中井町","city_kana":"アシガラカミグンナカイマチ","town":"北田","town_kana":"キタダ","prefecture_code":14},"0142":{"zip_code":"2590142","prefecture":"神奈川県","prefecture_kana":"カナガワケン","city":"足柄上郡中井町","city_kana":"アシガラカミグンナカイマチ","town":"久所","town_kana":"グゾ","prefecture_code":14},"0146":{"zip_code":"2590146","prefecture":"神奈川県","prefecture_kana":"カナガワケン","city":"足柄上郡中井町","city_kana":"アシガラカミグンナカイマチ","town":"古怒田","town_kana":"コヌタ","prefecture_code":14},"0157":{"zip_code":"2590157","prefecture":"神奈川県","prefecture_kana":"カナガワケン","city":"足柄上郡中井町","city_kana":"アシガラカミグンナカイマチ","town":"境","town_kana":"サカイ","prefecture_code":14},"0156":{"zip_code":"2590156","prefecture":"神奈川県","prefecture_kana":"カナガワケン","city":"足柄上郡中井町","city_kana":"アシガラカミグンナカイマチ","town":"境別所","town_kana":"サカイベッショ","prefecture_code":14},"0148":{"zip_code":"2590148","prefecture":"神奈川県","prefecture_kana":"カナガワケン","city":"足柄上郡中井町","city_kana":"アシガラカミグンナカイマチ","town":"雑色","town_kana":"ゾウシキ","prefecture_code":14},"0145":{"zip_code":"2590145","prefecture":"神奈川県","prefecture_kana":"カナガワケン","city":"足柄上郡中井町","city_kana":"アシガラカミグンナカイマチ","town":"田中","town_kana":"タナカ","prefecture_code":14},"0144":{"zip_code":"2590144","prefecture":"神奈川県","prefecture_kana":"カナガワケン","city":"足柄上郡中井町","city_kana":"アシガラカミグンナカイマチ","town":"半分形","town_kana":"ハブガタ","prefecture_code":14},"0153":{"zip_code":"2590153","prefecture":"神奈川県","prefecture_kana":"カナガワケン","city":"足柄上郡中井町","city_kana":"アシガラカミグンナカイマチ","town":"比奈窪","town_kana":"ヒナクボ","prefecture_code":14},"0152":{"zip_code":"2590152","prefecture":"神奈川県","prefecture_kana":"カナガワケン","city":"足柄上郡中井町","city_kana":"アシガラカミグンナカイマチ","town":"藤沢","town_kana":"フジサワ","prefecture_code":14},"0155":{"zip_code":"2590155","prefecture":"神奈川県","prefecture_kana":"カナガワケン","city":"足柄上郡中井町","city_kana":"アシガラカミグンナカイマチ","town":"松本","town_kana":"マツモト","prefecture_code":14},"0200":{"zip_code":"2590200","prefecture":"神奈川県","prefecture_kana":"カナガワケン","city":"足柄下郡真鶴町","city_kana":"アシガラシモグンマナヅルマチ","town":"以下に掲載がない場合","town_kana":"イカニケイサイガナイバアイ","prefecture_code":14},"0202":{"zip_code":"2590202","prefecture":"神奈川県","prefecture_kana":"カナガワケン","city":"足柄下郡真鶴町","city_kana":"アシガラシモグンマナヅルマチ","town":"岩","town_kana":"イワ","prefecture_code":14},"0201":{"zip_code":"2590201","prefecture":"神奈川県","prefecture_kana":"カナガワケン","city":"足柄下郡真鶴町","city_kana":"アシガラシモグンマナヅルマチ","town":"真鶴","town_kana":"マナツル","prefecture_code":14},"0300":{"zip_code":"2590300","prefecture":"神奈川県","prefecture_kana":"カナガワケン","city":"足柄下郡湯河原町","city_kana":"アシガラシモグンユガワラマチ","town":"以下に掲載がない場合","town_kana":"イカニケイサイガナイバアイ","prefecture_code":14},"0313":{"zip_code":"2590313","prefecture":"神奈川県","prefecture_kana":"カナガワケン","city":"足柄下郡湯河原町","city_kana":"アシガラシモグンユガワラマチ","town":"鍛冶屋","town_kana":"カジヤ","prefecture_code":14},"0305":{"zip_code":"2590305","prefecture":"神奈川県","prefecture_kana":"カナガワケン","city":"足柄下郡湯河原町","city_kana":"アシガラシモグンユガワラマチ","town":"城堀","town_kana":"シロホリ","prefecture_code":14},"0301":{"zip_code":"2590301","prefecture":"神奈川県","prefecture_kana":"カナガワケン","city":"足柄下郡湯河原町","city_kana":"アシガラシモグンユガワラマチ","town":"中央","town_kana":"チュウオウ","prefecture_code":14},"0303":{"zip_code":"2590303","prefecture":"神奈川県","prefecture_kana":"カナガワケン","city":"足柄下郡湯河原町","city_kana":"アシガラシモグンユガワラマチ","town":"土肥","town_kana":"ドイ","prefecture_code":14},"0311":{"zip_code":"2590311","prefecture":"神奈川県","prefecture_kana":"カナガワケン","city":"足柄下郡湯河原町","city_kana":"アシガラシモグンユガワラマチ","town":"福浦","town_kana":"フクウラ","prefecture_code":14},"0317":{"zip_code":"2590317","prefecture":"神奈川県","prefecture_kana":"カナガワケン","city":"足柄下郡湯河原町","city_kana":"アシガラシモグンユガワラマチ","town":"福浦鍛冶屋","town_kana":"フクウラカジヤ","prefecture_code":14},"0316":{"zip_code":"2590316","prefecture":"神奈川県","prefecture_kana":"カナガワケン","city":"足柄下郡湯河原町","city_kana":"アシガラシモグンユガワラマチ","town":"福浦吉浜","town_kana":"フクウラヨシハマ","prefecture_code":14},"0314":{"zip_code":"2590314","prefecture":"神奈川県","prefecture_kana":"カナガワケン","city":"足柄下郡湯河原町","city_kana":"アシガラシモグンユガワラマチ","town":"宮上","town_kana":"ミヤカミ","prefecture_code":14},"0304":{"zip_code":"2590304","prefecture":"神奈川県","prefecture_kana":"カナガワケン","city":"足柄下郡湯河原町","city_kana":"アシガラシモグンユガワラマチ","town":"宮下","town_kana":"ミヤシタ","prefecture_code":14},"0302":{"zip_code":"2590302","prefecture":"神奈川県","prefecture_kana":"カナガワケン","city":"足柄下郡湯河原町","city_kana":"アシガラシモグンユガワラマチ","town":"門川","town_kana":"モンガワ","prefecture_code":14},"0312":{"zip_code":"2590312","prefecture":"神奈川県","prefecture_kana":"カナガワケン","city":"足柄下郡湯河原町","city_kana":"アシガラシモグンユガワラマチ","town":"吉浜","town_kana":"ヨシハマ","prefecture_code":14},"0318":{"zip_code":"2590318","prefecture":"神奈川県","prefecture_kana":"カナガワケン","city":"足柄下郡湯河原町","city_kana":"アシガラシモグンユガワラマチ","town":"吉浜福浦","town_kana":"ヨシハマフクウラ","prefecture_code":14}}