{"0000":{"zip_code":"2630000","prefecture":"千葉県","prefecture_kana":"チバケン","city":"千葉市稲毛区","city_kana":"チバシイナゲク","town":"","town_kana":"","prefecture_code":12},"0024":{"zip_code":"2630024","prefecture":"千葉県","prefecture_kana":"チバケン","city":"千葉市稲毛区","city_kana":"チバシイナゲク","town":"穴川","town_kana":"アナガワ","prefecture_code":12},"0025":{"zip_code":"2630025","prefecture":"千葉県","prefecture_kana":"チバケン","city":"千葉市稲毛区","city_kana":"チバシイナゲク","town":"穴川町","town_kana":"アナガワチョウ","prefecture_code":12},"0052":{"zip_code":"2630052","prefecture":"千葉県","prefecture_kana":"チバケン","city":"千葉市稲毛区","city_kana":"チバシイナゲク","town":"あやめ台","town_kana":"アヤメダイ","prefecture_code":12},"0033":{"zip_code":"2630033","prefecture":"千葉県","prefecture_kana":"チバケン","city":"千葉市稲毛区","city_kana":"チバシイナゲク","town":"稲丘町","town_kana":"イナオカチョウ","prefecture_code":12},"0034":{"zip_code":"2630034","prefecture":"千葉県","prefecture_kana":"チバケン","city":"千葉市稲毛区","city_kana":"チバシイナゲク","town":"稲毛","town_kana":"イナゲ","prefecture_code":12},"0032":{"zip_code":"2630032","prefecture":"千葉県","prefecture_kana":"チバケン","city":"千葉市稲毛区","city_kana":"チバシイナゲク","town":"稲毛台町","town_kana":"イナゲダイチョウ","prefecture_code":12},"0035":{"zip_code":"2630035","prefecture":"千葉県","prefecture_kana":"チバケン","city":"千葉市稲毛区","city_kana":"チバシイナゲク","town":"稲毛町","town_kana":"イナゲチョウ","prefecture_code":12},"0031":{"zip_code":"2630031","prefecture":"千葉県","prefecture_kana":"チバケン","city":"千葉市稲毛区","city_kana":"チバシイナゲク","town":"稲毛東","town_kana":"イナゲヒガシ","prefecture_code":12},"0053":{"zip_code":"2630053","prefecture":"千葉県","prefecture_kana":"チバケン","city":"千葉市稲毛区","city_kana":"チバシイナゲク","town":"柏台","town_kana":"カシワダイ","prefecture_code":12},"0042":{"zip_code":"2630042","prefecture":"千葉県","prefecture_kana":"チバケン","city":"千葉市稲毛区","city_kana":"チバシイナゲク","town":"黒砂","town_kana":"クロスナ","prefecture_code":12},"0041":{"zip_code":"2630041","prefecture":"千葉県","prefecture_kana":"チバケン","city":"千葉市稲毛区","city_kana":"チバシイナゲク","town":"黒砂台","town_kana":"クロスナダイ","prefecture_code":12},"0043":{"zip_code":"2630043","prefecture":"千葉県","prefecture_kana":"チバケン","city":"千葉市稲毛区","city_kana":"チバシイナゲク","town":"小仲台","town_kana":"コナカダイ","prefecture_code":12},"0044":{"zip_code":"2630044","prefecture":"千葉県","prefecture_kana":"チバケン","city":"千葉市稲毛区","city_kana":"チバシイナゲク","town":"小中台町","town_kana":"コナカダイチョウ","prefecture_code":12},"0003":{"zip_code":"2630003","prefecture":"千葉県","prefecture_kana":"チバケン","city":"千葉市稲毛区","city_kana":"チバシイナゲク","town":"小深町","town_kana":"コブケチョウ","prefecture_code":12},"0015":{"zip_code":"2630015","prefecture":"千葉県","prefecture_kana":"チバケン","city":"千葉市稲毛区","city_kana":"チバシイナゲク","town":"作草部","town_kana":"サクサベ","prefecture_code":12},"0014":{"zip_code":"2630014","prefecture":"千葉県","prefecture_kana":"チバケン","city":"千葉市稲毛区","city_kana":"チバシイナゲク","town":"作草部町","town_kana":"サクサベチョウ","prefecture_code":12},"0002":{"zip_code":"2630002","prefecture":"千葉県","prefecture_kana":"チバケン","city":"千葉市稲毛区","city_kana":"チバシイナゲク","town":"山王町","town_kana":"サンノウチョウ","prefecture_code":12},"0051":{"zip_code":"2630051","prefecture":"千葉県","prefecture_kana":"チバケン","city":"千葉市稲毛区","city_kana":"チバシイナゲク","town":"園生町","town_kana":"ソンノウチョウ","prefecture_code":12},"0013":{"zip_code":"2630013","prefecture":"千葉県","prefecture_kana":"チバケン","city":"千葉市稲毛区","city_kana":"チバシイナゲク","town":"千草台","town_kana":"チグサダイ","prefecture_code":12},"0016":{"zip_code":"2630016","prefecture":"千葉県","prefecture_kana":"チバケン","city":"千葉市稲毛区","city_kana":"チバシイナゲク","town":"天台","town_kana":"テンダイ","prefecture_code":12},"0011":{"zip_code":"2630011","prefecture":"千葉県","prefecture_kana":"チバケン","city":"千葉市稲毛区","city_kana":"チバシイナゲク","town":"天台町","town_kana":"テンダイチョウ","prefecture_code":12},"0021":{"zip_code":"2630021","prefecture":"千葉県","prefecture_kana":"チバケン","city":"千葉市稲毛区","city_kana":"チバシイナゲク","town":"轟町","town_kana":"トドロキチョウ","prefecture_code":12},"0005":{"zip_code":"2630005","prefecture":"千葉県","prefecture_kana":"チバケン","city":"千葉市稲毛区","city_kana":"チバシイナゲク","town":"長沼町","town_kana":"ナガヌマチョウ","prefecture_code":12},"0001":{"zip_code":"2630001","prefecture":"千葉県","prefecture_kana":"チバケン","city":"千葉市稲毛区","city_kana":"チバシイナゲク","town":"長沼原町","town_kana":"ナガヌマハラチョウ","prefecture_code":12},"0012":{"zip_code":"2630012","prefecture":"千葉県","prefecture_kana":"チバケン","city":"千葉市稲毛区","city_kana":"チバシイナゲク","town":"萩台町","town_kana":"ハギダイチョウ","prefecture_code":12},"0023":{"zip_code":"2630023","prefecture":"千葉県","prefecture_kana":"チバケン","city":"千葉市稲毛区","city_kana":"チバシイナゲク","town":"緑町","town_kana":"ミドリチョウ","prefecture_code":12},"0054":{"zip_code":"2630054","prefecture":"千葉県","prefecture_kana":"チバケン","city":"千葉市稲毛区","city_kana":"チバシイナゲク","town":"宮野木町","town_kana":"ミヤノギチョウ","prefecture_code":12},"0022":{"zip_code":"2630022","prefecture":"千葉県","prefecture_kana":"チバケン","city":"千葉市稲毛区","city_kana":"チバシイナゲク","town":"弥生町","town_kana":"ヤヨイチョウ","prefecture_code":12},"0004":{"zip_code":"2630004","prefecture":"千葉県","prefecture_kana":"チバケン","city":"千葉市稲毛区","city_kana":"チバシイナゲク","town":"六方町","town_kana":"ロッポウチョウ","prefecture_code":12}}