{"0000":{"zip_code":"2640000","prefecture":"千葉県","prefecture_kana":"チバケン","city":"千葉市若葉区","city_kana":"チバシワカバク","town":"","town_kana":"","prefecture_code":12},"0031":{"zip_code":"2640031","prefecture":"千葉県","prefecture_kana":"チバケン","city":"千葉市若葉区","city_kana":"チバシワカバク","town":"愛生町","town_kana":"アイオイチョウ","prefecture_code":12},"0011":{"zip_code":"2640011","prefecture":"千葉県","prefecture_kana":"チバケン","city":"千葉市若葉区","city_kana":"チバシワカバク","town":"大草町","town_kana":"オオクサチョウ","prefecture_code":12},"0013":{"zip_code":"2640013","prefecture":"千葉県","prefecture_kana":"チバケン","city":"千葉市若葉区","city_kana":"チバシワカバク","town":"太田町","town_kana":"オオタチョウ","prefecture_code":12},"0015":{"zip_code":"2640015","prefecture":"千葉県","prefecture_kana":"チバケン","city":"千葉市若葉区","city_kana":"チバシワカバク","town":"大宮台","town_kana":"オオミヤダイ","prefecture_code":12},"0016":{"zip_code":"2640016","prefecture":"千葉県","prefecture_kana":"チバケン","city":"千葉市若葉区","city_kana":"チバシワカバク","town":"大宮町","town_kana":"オオミヤチョウ","prefecture_code":12},"0006":{"zip_code":"2640006","prefecture":"千葉県","prefecture_kana":"チバケン","city":"千葉市若葉区","city_kana":"チバシワカバク","town":"小倉台","town_kana":"オグラダイ","prefecture_code":12},"0007":{"zip_code":"2640007","prefecture":"千葉県","prefecture_kana":"チバケン","city":"千葉市若葉区","city_kana":"チバシワカバク","town":"小倉町","town_kana":"オグラチョウ","prefecture_code":12},"0020":{"zip_code":"2640020","prefecture":"千葉県","prefecture_kana":"チバケン","city":"千葉市若葉区","city_kana":"チバシワカバク","town":"貝塚","town_kana":"カイヅカ","prefecture_code":12},"0023":{"zip_code":"2640023","prefecture":"千葉県","prefecture_kana":"チバケン","city":"千葉市若葉区","city_kana":"チバシワカバク","town":"貝塚町","town_kana":"カイヅカチョウ","prefecture_code":12},"0017":{"zip_code":"2640017","prefecture":"千葉県","prefecture_kana":"チバケン","city":"千葉市若葉区","city_kana":"チバシワカバク","town":"加曽利町","town_kana":"カソリチョウ","prefecture_code":12},"0001":{"zip_code":"2640001","prefecture":"千葉県","prefecture_kana":"チバケン","city":"千葉市若葉区","city_kana":"チバシワカバク","town":"金親町","town_kana":"カネオヤチョウ","prefecture_code":12},"0014":{"zip_code":"2640014","prefecture":"千葉県","prefecture_kana":"チバケン","city":"千葉市若葉区","city_kana":"チバシワカバク","town":"北大宮台","town_kana":"キタオオミヤダイ","prefecture_code":12},"0012":{"zip_code":"2640012","prefecture":"千葉県","prefecture_kana":"チバケン","city":"千葉市若葉区","city_kana":"チバシワカバク","town":"坂月町","town_kana":"サカヅキチョウ","prefecture_code":12},"0028":{"zip_code":"2640028","prefecture":"千葉県","prefecture_kana":"チバケン","city":"千葉市若葉区","city_kana":"チバシワカバク","town":"桜木","town_kana":"サクラギ","prefecture_code":12},"0029":{"zip_code":"2640029","prefecture":"千葉県","prefecture_kana":"チバケン","city":"千葉市若葉区","city_kana":"チバシワカバク","town":"桜木北","town_kana":"サクラギキタ","prefecture_code":12},"0024":{"zip_code":"2640024","prefecture":"千葉県","prefecture_kana":"チバケン","city":"千葉市若葉区","city_kana":"チバシワカバク","town":"高品町","town_kana":"タカシナチョウ","prefecture_code":12},"0002":{"zip_code":"2640002","prefecture":"千葉県","prefecture_kana":"チバケン","city":"千葉市若葉区","city_kana":"チバシワカバク","town":"千城台東","town_kana":"チシロダイヒガシ","prefecture_code":12},"0004":{"zip_code":"2640004","prefecture":"千葉県","prefecture_kana":"チバケン","city":"千葉市若葉区","city_kana":"チバシワカバク","town":"千城台西","town_kana":"チシロダイニシ","prefecture_code":12},"0003":{"zip_code":"2640003","prefecture":"千葉県","prefecture_kana":"チバケン","city":"千葉市若葉区","city_kana":"チバシワカバク","town":"千城台南","town_kana":"チシロダイミナミ","prefecture_code":12},"0005":{"zip_code":"2640005","prefecture":"千葉県","prefecture_kana":"チバケン","city":"千葉市若葉区","city_kana":"チバシワカバク","town":"千城台北","town_kana":"チシロダイキタ","prefecture_code":12},"0025":{"zip_code":"2640025","prefecture":"千葉県","prefecture_kana":"チバケン","city":"千葉市若葉区","city_kana":"チバシワカバク","town":"都賀","town_kana":"ツガ","prefecture_code":12},"0033":{"zip_code":"2640033","prefecture":"千葉県","prefecture_kana":"チバケン","city":"千葉市若葉区","city_kana":"チバシワカバク","town":"都賀の台","town_kana":"ツガノダイ","prefecture_code":12},"0036":{"zip_code":"2640036","prefecture":"千葉県","prefecture_kana":"チバケン","city":"千葉市若葉区","city_kana":"チバシワカバク","town":"殿台町","town_kana":"トノダイチョウ","prefecture_code":12},"0026":{"zip_code":"2640026","prefecture":"千葉県","prefecture_kana":"チバケン","city":"千葉市若葉区","city_kana":"チバシワカバク","town":"西都賀","town_kana":"ニシツガ","prefecture_code":12},"0034":{"zip_code":"2640034","prefecture":"千葉県","prefecture_kana":"チバケン","city":"千葉市若葉区","city_kana":"チバシワカバク","town":"原町","town_kana":"ハラマチ","prefecture_code":12},"0035":{"zip_code":"2640035","prefecture":"千葉県","prefecture_kana":"チバケン","city":"千葉市若葉区","city_kana":"チバシワカバク","town":"東寺山町","town_kana":"ヒガシテラヤマチョウ","prefecture_code":12},"0032":{"zip_code":"2640032","prefecture":"千葉県","prefecture_kana":"チバケン","city":"千葉市若葉区","city_kana":"チバシワカバク","town":"みつわ台","town_kana":"ミツワダイ","prefecture_code":12},"0037":{"zip_code":"2640037","prefecture":"千葉県","prefecture_kana":"チバケン","city":"千葉市若葉区","city_kana":"チバシワカバク","town":"源町","town_kana":"ミナモトチョウ","prefecture_code":12},"0027":{"zip_code":"2640027","prefecture":"千葉県","prefecture_kana":"チバケン","city":"千葉市若葉区","city_kana":"チバシワカバク","town":"若松台","town_kana":"ワカマツダイ","prefecture_code":12},"0021":{"zip_code":"2640021","prefecture":"千葉県","prefecture_kana":"チバケン","city":"千葉市若葉区","city_kana":"チバシワカバク","town":"若松町","town_kana":"ワカマツチョウ","prefecture_code":12}}