{"0000":{"zip_code":"2660000","prefecture":"千葉県","prefecture_kana":"チバケン","city":"千葉市緑区","city_kana":"チバシミドリク","town":"以下に掲載がない場合","town_kana":"イカニケイサイガナイバアイ","prefecture_code":12},"0014":{"zip_code":"2660014","prefecture":"千葉県","prefecture_kana":"チバケン","city":"千葉市緑区","city_kana":"チバシミドリク","town":"大金沢町","town_kana":"オオカネザワチョウ","prefecture_code":12},"0025":{"zip_code":"2660025","prefecture":"千葉県","prefecture_kana":"チバケン","city":"千葉市緑区","city_kana":"チバシミドリク","town":"落井町","town_kana":"オチイチョウ","prefecture_code":12},"0031":{"zip_code":"2660031","prefecture":"千葉県","prefecture_kana":"チバケン","city":"千葉市緑区","city_kana":"チバシミドリク","town":"おゆみ野","town_kana":"オユミノ","prefecture_code":12},"0034":{"zip_code":"2660034","prefecture":"千葉県","prefecture_kana":"チバケン","city":"千葉市緑区","city_kana":"チバシミドリク","town":"おゆみ野有吉","town_kana":"オユミノアリヨシ","prefecture_code":12},"0032":{"zip_code":"2660032","prefecture":"千葉県","prefecture_kana":"チバケン","city":"千葉市緑区","city_kana":"チバシミドリク","town":"おゆみ野中央","town_kana":"オユミノチュウオウ","prefecture_code":12},"0033":{"zip_code":"2660033","prefecture":"千葉県","prefecture_kana":"チバケン","city":"千葉市緑区","city_kana":"チバシミドリク","town":"おゆみ野南","town_kana":"オユミノミナミ","prefecture_code":12},"0011":{"zip_code":"2660011","prefecture":"千葉県","prefecture_kana":"チバケン","city":"千葉市緑区","city_kana":"チバシミドリク","town":"鎌取町","town_kana":"カマトリチョウ","prefecture_code":12},"0021":{"zip_code":"2660021","prefecture":"千葉県","prefecture_kana":"チバケン","city":"千葉市緑区","city_kana":"チバシミドリク","town":"刈田子町","town_kana":"カリタゴチョウ","prefecture_code":12},"0015":{"zip_code":"2660015","prefecture":"千葉県","prefecture_kana":"チバケン","city":"千葉市緑区","city_kana":"チバシミドリク","town":"小金沢町","town_kana":"コカネザワチョウ","prefecture_code":12},"0016":{"zip_code":"2660016","prefecture":"千葉県","prefecture_kana":"チバケン","city":"千葉市緑区","city_kana":"チバシミドリク","town":"椎名崎町","town_kana":"シイナザキチョウ","prefecture_code":12},"0006":{"zip_code":"2660006","prefecture":"千葉県","prefecture_kana":"チバケン","city":"千葉市緑区","city_kana":"チバシミドリク","town":"大膳野町","town_kana":"ダイゼンノチョウ","prefecture_code":12},"0003":{"zip_code":"2660003","prefecture":"千葉県","prefecture_kana":"チバケン","city":"千葉市緑区","city_kana":"チバシミドリク","town":"高田町","town_kana":"タカダチョウ","prefecture_code":12},"0022":{"zip_code":"2660022","prefecture":"千葉県","prefecture_kana":"チバケン","city":"千葉市緑区","city_kana":"チバシミドリク","town":"富岡町","town_kana":"トミオカチョウ","prefecture_code":12},"0024":{"zip_code":"2660024","prefecture":"千葉県","prefecture_kana":"チバケン","city":"千葉市緑区","city_kana":"チバシミドリク","town":"中西町","town_kana":"ナカニシチョウ","prefecture_code":12},"0001":{"zip_code":"2660001","prefecture":"千葉県","prefecture_kana":"チバケン","city":"千葉市緑区","city_kana":"チバシミドリク","town":"東山科町","town_kana":"ヒガシヤマシナチョウ","prefecture_code":12},"0004":{"zip_code":"2660004","prefecture":"千葉県","prefecture_kana":"チバケン","city":"千葉市緑区","city_kana":"チバシミドリク","town":"平川町","town_kana":"ヒラカワチョウ","prefecture_code":12},"0002":{"zip_code":"2660002","prefecture":"千葉県","prefecture_kana":"チバケン","city":"千葉市緑区","city_kana":"チバシミドリク","town":"平山町","town_kana":"ヒラヤマチョウ","prefecture_code":12},"0026":{"zip_code":"2660026","prefecture":"千葉県","prefecture_kana":"チバケン","city":"千葉市緑区","city_kana":"チバシミドリク","town":"古市場町","town_kana":"フルイチバチョウ","prefecture_code":12},"0007":{"zip_code":"2660007","prefecture":"千葉県","prefecture_kana":"チバケン","city":"千葉市緑区","city_kana":"チバシミドリク","town":"辺田町","town_kana":"ヘタチョウ","prefecture_code":12},"0005":{"zip_code":"2660005","prefecture":"千葉県","prefecture_kana":"チバケン","city":"千葉市緑区","city_kana":"チバシミドリク","town":"誉田町","town_kana":"ホンダチョウ","prefecture_code":12},"0023":{"zip_code":"2660023","prefecture":"千葉県","prefecture_kana":"チバケン","city":"千葉市緑区","city_kana":"チバシミドリク","town":"茂呂町","town_kana":"モロチョウ","prefecture_code":12}}