{"1471":{"zip_code":"2701471","prefecture":"千葉県","prefecture_kana":"チバケン","city":"船橋市","city_kana":"フナバシシ","town":"小室町","town_kana":"コムロチョウ","prefecture_code":12},"0000":{"zip_code":"2700000","prefecture":"千葉県","prefecture_kana":"チバケン","city":"松戸市","city_kana":"マツドシ","town":"","town_kana":"","prefecture_code":12},"2223":{"zip_code":"2702223","prefecture":"千葉県","prefecture_kana":"チバケン","city":"松戸市","city_kana":"マツドシ","town":"秋山","town_kana":"アキヤマ","prefecture_code":12},"0006":{"zip_code":"2700006","prefecture":"千葉県","prefecture_kana":"チバケン","city":"松戸市","city_kana":"マツドシ","town":"大金平","town_kana":"オオガネダイラ","prefecture_code":12},"2224":{"zip_code":"2702224","prefecture":"千葉県","prefecture_kana":"チバケン","city":"松戸市","city_kana":"マツドシ","town":"大橋","town_kana":"オオハシ","prefecture_code":12},"0005":{"zip_code":"2700005","prefecture":"千葉県","prefecture_kana":"チバケン","city":"松戸市","city_kana":"マツドシ","town":"大谷口","town_kana":"オオヤグチ","prefecture_code":12},"0036":{"zip_code":"2700036","prefecture":"千葉県","prefecture_kana":"チバケン","city":"松戸市","city_kana":"マツドシ","town":"大谷口新田","town_kana":"オオヤグチシンデン","prefecture_code":12},"0018":{"zip_code":"2700018","prefecture":"千葉県","prefecture_kana":"チバケン","city":"松戸市","city_kana":"マツドシ","town":"上総内","town_kana":"カズサウチ","prefecture_code":12},"2251":{"zip_code":"2702251","prefecture":"千葉県","prefecture_kana":"チバケン","city":"松戸市","city_kana":"マツドシ","town":"金ケ作","town_kana":"カネガサク","prefecture_code":12},"2221":{"zip_code":"2702221","prefecture":"千葉県","prefecture_kana":"チバケン","city":"松戸市","city_kana":"マツドシ","town":"紙敷","town_kana":"カミシキ","prefecture_code":12},"2254":{"zip_code":"2702254","prefecture":"千葉県","prefecture_kana":"チバケン","city":"松戸市","city_kana":"マツドシ","town":"河原塚","town_kana":"カワラヅカ","prefecture_code":12},"2216":{"zip_code":"2702216","prefecture":"千葉県","prefecture_kana":"チバケン","city":"松戸市","city_kana":"マツドシ","town":"串崎新田","town_kana":"クシザキシンデン","prefecture_code":12},"2215":{"zip_code":"2702215","prefecture":"千葉県","prefecture_kana":"チバケン","city":"松戸市","city_kana":"マツドシ","town":"串崎南町","town_kana":"クシザキミナミチョウ","prefecture_code":12},"0012":{"zip_code":"2700012","prefecture":"千葉県","prefecture_kana":"チバケン","city":"松戸市","city_kana":"マツドシ","town":"久保平賀","town_kana":"クボヒラガ","prefecture_code":12},"0022":{"zip_code":"2700022","prefecture":"千葉県","prefecture_kana":"チバケン","city":"松戸市","city_kana":"マツドシ","town":"栗ケ沢","town_kana":"クリガサワ","prefecture_code":12},"0001":{"zip_code":"2700001","prefecture":"千葉県","prefecture_kana":"チバケン","city":"松戸市","city_kana":"マツドシ","town":"幸田","town_kana":"コウデ","prefecture_code":12},"0017":{"zip_code":"2700017","prefecture":"千葉県","prefecture_kana":"チバケン","city":"松戸市","city_kana":"マツドシ","town":"幸谷","town_kana":"コウヤ","prefecture_code":12},"0014":{"zip_code":"2700014","prefecture":"千葉県","prefecture_kana":"チバケン","city":"松戸市","city_kana":"マツドシ","town":"小金","town_kana":"コガネ","prefecture_code":12},"0015":{"zip_code":"2700015","prefecture":"千葉県","prefecture_kana":"チバケン","city":"松戸市","city_kana":"マツドシ","town":"小金上総町","town_kana":"コガネカズサチョウ","prefecture_code":12},"0013":{"zip_code":"2700013","prefecture":"千葉県","prefecture_kana":"チバケン","city":"松戸市","city_kana":"マツドシ","town":"小金きよしケ丘","town_kana":"コガネキヨシガオカ","prefecture_code":12},"0016":{"zip_code":"2700016","prefecture":"千葉県","prefecture_kana":"チバケン","city":"松戸市","city_kana":"マツドシ","town":"小金清志町","town_kana":"コガネキヨシチョウ","prefecture_code":12},"0021":{"zip_code":"2700021","prefecture":"千葉県","prefecture_kana":"チバケン","city":"松戸市","city_kana":"マツドシ","town":"小金原","town_kana":"コガネハラ","prefecture_code":12},"2213":{"zip_code":"2702213","prefecture":"千葉県","prefecture_kana":"チバケン","city":"松戸市","city_kana":"マツドシ","town":"五香","town_kana":"ゴコウ","prefecture_code":12},"2218":{"zip_code":"2702218","prefecture":"千葉県","prefecture_kana":"チバケン","city":"松戸市","city_kana":"マツドシ","town":"五香西","town_kana":"ゴコウニシ","prefecture_code":12},"2212":{"zip_code":"2702212","prefecture":"千葉県","prefecture_kana":"チバケン","city":"松戸市","city_kana":"マツドシ","town":"五香南","town_kana":"ゴコウミナミ","prefecture_code":12},"2211":{"zip_code":"2702211","prefecture":"千葉県","prefecture_kana":"チバケン","city":"松戸市","city_kana":"マツドシ","town":"五香六実","town_kana":"ゴコウムツミ","prefecture_code":12},"0034":{"zip_code":"2700034","prefecture":"千葉県","prefecture_kana":"チバケン","city":"松戸市","city_kana":"マツドシ","town":"新松戸","town_kana":"シンマツド","prefecture_code":12},"0033":{"zip_code":"2700033","prefecture":"千葉県","prefecture_kana":"チバケン","city":"松戸市","city_kana":"マツドシ","town":"新松戸東","town_kana":"シンマツドヒガシ","prefecture_code":12},"0035":{"zip_code":"2700035","prefecture":"千葉県","prefecture_kana":"チバケン","city":"松戸市","city_kana":"マツドシ","town":"新松戸南","town_kana":"シンマツドミナミ","prefecture_code":12},"0032":{"zip_code":"2700032","prefecture":"千葉県","prefecture_kana":"チバケン","city":"松戸市","city_kana":"マツドシ","town":"新松戸北","town_kana":"シンマツドキタ","prefecture_code":12},"2252":{"zip_code":"2702252","prefecture":"千葉県","prefecture_kana":"チバケン","city":"松戸市","city_kana":"マツドシ","town":"千駄堀","town_kana":"センダボリ","prefecture_code":12},"2222":{"zip_code":"2702222","prefecture":"千葉県","prefecture_kana":"チバケン","city":"松戸市","city_kana":"マツドシ","town":"高塚新田","town_kana":"タカツカシンデン","prefecture_code":12},"2202":{"zip_code":"2702202","prefecture":"千葉県","prefecture_kana":"チバケン","city":"松戸市","city_kana":"マツドシ","town":"高柳","town_kana":"タカヤナギ","prefecture_code":12},"2201":{"zip_code":"2702201","prefecture":"千葉県","prefecture_kana":"チバケン","city":"松戸市","city_kana":"マツドシ","town":"高柳新田","town_kana":"タカヤナギシンデン","prefecture_code":12},"2255":{"zip_code":"2702255","prefecture":"千葉県","prefecture_kana":"チバケン","city":"松戸市","city_kana":"マツドシ","town":"田中新田","town_kana":"タナカシンデン","prefecture_code":12},"2261":{"zip_code":"2702261","prefecture":"千葉県","prefecture_kana":"チバケン","city":"松戸市","city_kana":"マツドシ","town":"常盤平","town_kana":"トキワダイラ","prefecture_code":12},"2265":{"zip_code":"2702265","prefecture":"千葉県","prefecture_kana":"チバケン","city":"松戸市","city_kana":"マツドシ","town":"常盤平陣屋前","town_kana":"トキワダイラジンヤマエ","prefecture_code":12},"2266":{"zip_code":"2702266","prefecture":"千葉県","prefecture_kana":"チバケン","city":"松戸市","city_kana":"マツドシ","town":"常盤平西窪町","town_kana":"トキワダイラニシクボチョウ","prefecture_code":12},"2262":{"zip_code":"2702262","prefecture":"千葉県","prefecture_kana":"チバケン","city":"松戸市","city_kana":"マツドシ","town":"常盤平双葉町","town_kana":"トキワダイラフタバチョウ","prefecture_code":12},"2264":{"zip_code":"2702264","prefecture":"千葉県","prefecture_kana":"チバケン","city":"松戸市","city_kana":"マツドシ","town":"常盤平松葉町","town_kana":"トキワダイラマツバチョウ","prefecture_code":12},"2263":{"zip_code":"2702263","prefecture":"千葉県","prefecture_kana":"チバケン","city":"松戸市","city_kana":"マツドシ","town":"常盤平柳町","town_kana":"トキワダイラヤナギチョウ","prefecture_code":12},"0004":{"zip_code":"2700004","prefecture":"千葉県","prefecture_kana":"チバケン","city":"松戸市","city_kana":"マツドシ","town":"殿平賀","town_kana":"トノヒラガ","prefecture_code":12},"2242":{"zip_code":"2702242","prefecture":"千葉県","prefecture_kana":"チバケン","city":"松戸市","city_kana":"マツドシ","town":"仲井町","town_kana":"ナカイチョウ","prefecture_code":12},"0007":{"zip_code":"2700007","prefecture":"千葉県","prefecture_kana":"チバケン","city":"松戸市","city_kana":"マツドシ","town":"中金杉","town_kana":"ナカカナスギ","prefecture_code":12},"0025":{"zip_code":"2700025","prefecture":"千葉県","prefecture_kana":"チバケン","city":"松戸市","city_kana":"マツドシ","town":"中和倉","town_kana":"ナカワクラ","prefecture_code":12},"0011":{"zip_code":"2700011","prefecture":"千葉県","prefecture_kana":"チバケン","city":"松戸市","city_kana":"マツドシ","town":"根木内","town_kana":"ネギウチ","prefecture_code":12},"2243":{"zip_code":"2702243","prefecture":"千葉県","prefecture_kana":"チバケン","city":"松戸市","city_kana":"マツドシ","town":"野菊野","town_kana":"ノギクノ","prefecture_code":12},"0023":{"zip_code":"2700023","prefecture":"千葉県","prefecture_kana":"チバケン","city":"松戸市","city_kana":"マツドシ","town":"八ケ崎","town_kana":"ハチガサキ","prefecture_code":12},"0024":{"zip_code":"2700024","prefecture":"千葉県","prefecture_kana":"チバケン","city":"松戸市","city_kana":"マツドシ","town":"八ケ崎緑町","town_kana":"ハチガサキミドリチョウ","prefecture_code":12},"2217":{"zip_code":"2702217","prefecture":"千葉県","prefecture_kana":"チバケン","city":"松戸市","city_kana":"マツドシ","town":"初富飛地","town_kana":"ハツトミトビチ","prefecture_code":12},"0003":{"zip_code":"2700003","prefecture":"千葉県","prefecture_kana":"チバケン","city":"松戸市","city_kana":"マツドシ","town":"東平賀","town_kana":"ヒガシヒラガ","prefecture_code":12},"2225":{"zip_code":"2702225","prefecture":"千葉県","prefecture_kana":"チバケン","city":"松戸市","city_kana":"マツドシ","town":"東松戸","town_kana":"ヒガシマツド","prefecture_code":12},"2253":{"zip_code":"2702253","prefecture":"千葉県","prefecture_kana":"チバケン","city":"松戸市","city_kana":"マツドシ","town":"日暮","town_kana":"ヒグラシ","prefecture_code":12},"0002":{"zip_code":"2700002","prefecture":"千葉県","prefecture_kana":"チバケン","city":"松戸市","city_kana":"マツドシ","town":"平賀","town_kana":"ヒラガ","prefecture_code":12},"0027":{"zip_code":"2700027","prefecture":"千葉県","prefecture_kana":"チバケン","city":"松戸市","city_kana":"マツドシ","town":"二ツ木","town_kana":"フタツギ","prefecture_code":12},"0028":{"zip_code":"2700028","prefecture":"千葉県","prefecture_kana":"チバケン","city":"松戸市","city_kana":"マツドシ","town":"二ツ木二葉町","town_kana":"フタツギフタバチョウ","prefecture_code":12},"2267":{"zip_code":"2702267","prefecture":"千葉県","prefecture_kana":"チバケン","city":"松戸市","city_kana":"マツドシ","town":"牧の原","town_kana":"マキノハラ","prefecture_code":12},"2241":{"zip_code":"2702241","prefecture":"千葉県","prefecture_kana":"チバケン","city":"松戸市","city_kana":"マツドシ","town":"松戸新田","town_kana":"マツドシンデン","prefecture_code":12},"2214":{"zip_code":"2702214","prefecture":"千葉県","prefecture_kana":"チバケン","city":"松戸市","city_kana":"マツドシ","town":"松飛台","town_kana":"マツヒダイ","prefecture_code":12},"0026":{"zip_code":"2700026","prefecture":"千葉県","prefecture_kana":"チバケン","city":"松戸市","city_kana":"マツドシ","town":"三ケ月","town_kana":"ミコゼ","prefecture_code":12},"2231":{"zip_code":"2702231","prefecture":"千葉県","prefecture_kana":"チバケン","city":"松戸市","city_kana":"マツドシ","town":"稔台","town_kana":"ミノリダイ","prefecture_code":12},"2204":{"zip_code":"2702204","prefecture":"千葉県","prefecture_kana":"チバケン","city":"松戸市","city_kana":"マツドシ","town":"六実","town_kana":"ムツミ","prefecture_code":12},"0031":{"zip_code":"2700031","prefecture":"千葉県","prefecture_kana":"チバケン","city":"松戸市","city_kana":"マツドシ","town":"横須賀","town_kana":"ヨコスカ","prefecture_code":12},"2203":{"zip_code":"2702203","prefecture":"千葉県","prefecture_kana":"チバケン","city":"松戸市","city_kana":"マツドシ","town":"六高台","town_kana":"ロッコウダイ","prefecture_code":12},"2205":{"zip_code":"2702205","prefecture":"千葉県","prefecture_kana":"チバケン","city":"松戸市","city_kana":"マツドシ","town":"六高台西","town_kana":"ロッコウダイニシ","prefecture_code":12},"2232":{"zip_code":"2702232","prefecture":"千葉県","prefecture_kana":"チバケン","city":"松戸市","city_kana":"マツドシ","town":"和名ケ谷","town_kana":"ワナガヤ","prefecture_code":12},"0239":{"zip_code":"2700239","prefecture":"千葉県","prefecture_kana":"チバケン","city":"野田市","city_kana":"ノダシ","town":"泉","town_kana":"イズミ","prefecture_code":12},"0223":{"zip_code":"2700223","prefecture":"千葉県","prefecture_kana":"チバケン","city":"野田市","city_kana":"ノダシ","town":"岡田","town_kana":"オカダ","prefecture_code":12},"0235":{"zip_code":"2700235","prefecture":"千葉県","prefecture_kana":"チバケン","city":"野田市","city_kana":"ノダシ","town":"尾崎","town_kana":"オサキ","prefecture_code":12},"0238":{"zip_code":"2700238","prefecture":"千葉県","prefecture_kana":"チバケン","city":"野田市","city_kana":"ノダシ","town":"尾崎台","town_kana":"オザキダイ","prefecture_code":12},"0227":{"zip_code":"2700227","prefecture":"千葉県","prefecture_kana":"チバケン","city":"野田市","city_kana":"ノダシ","town":"親野井","town_kana":"オヤノイ","prefecture_code":12},"0231":{"zip_code":"2700231","prefecture":"千葉県","prefecture_kana":"チバケン","city":"野田市","city_kana":"ノダシ","town":"小山","town_kana":"オヤマ","prefecture_code":12},"0214":{"zip_code":"2700214","prefecture":"千葉県","prefecture_kana":"チバケン","city":"野田市","city_kana":"ノダシ","town":"柏寺","town_kana":"カシワデラ","prefecture_code":12},"0222":{"zip_code":"2700222","prefecture":"千葉県","prefecture_kana":"チバケン","city":"野田市","city_kana":"ノダシ","town":"木間ケ瀬","town_kana":"キマガセ","prefecture_code":12},"0213":{"zip_code":"2700213","prefecture":"千葉県","prefecture_kana":"チバケン","city":"野田市","city_kana":"ノダシ","town":"桐ケ作","town_kana":"キリガサク","prefecture_code":12},"0221":{"zip_code":"2700221","prefecture":"千葉県","prefecture_kana":"チバケン","city":"野田市","city_kana":"ノダシ","town":"古布内","town_kana":"コブウチ","prefecture_code":12},"0204":{"zip_code":"2700204","prefecture":"千葉県","prefecture_kana":"チバケン","city":"野田市","city_kana":"ノダシ","town":"関宿内町","town_kana":"セキヤドウチマチ","prefecture_code":12},"0205":{"zip_code":"2700205","prefecture":"千葉県","prefecture_kana":"チバケン","city":"野田市","city_kana":"ノダシ","town":"関宿江戸町","town_kana":"セキヤドエドマチ","prefecture_code":12},"0201":{"zip_code":"2700201","prefecture":"千葉県","prefecture_kana":"チバケン","city":"野田市","city_kana":"ノダシ","town":"関宿三軒家","town_kana":"セキヤドサンゲンヤ","prefecture_code":12},"0202":{"zip_code":"2700202","prefecture":"千葉県","prefecture_kana":"チバケン","city":"野田市","city_kana":"ノダシ","town":"関宿台町","town_kana":"セキヤドダイマチ","prefecture_code":12},"0203":{"zip_code":"2700203","prefecture":"千葉県","prefecture_kana":"チバケン","city":"野田市","city_kana":"ノダシ","town":"関宿元町","town_kana":"セキヤドモトマチ","prefecture_code":12},"0206":{"zip_code":"2700206","prefecture":"千葉県","prefecture_kana":"チバケン","city":"野田市","city_kana":"ノダシ","town":"関宿町","town_kana":"セキヤドマチ","prefecture_code":12},"0237":{"zip_code":"2700237","prefecture":"千葉県","prefecture_kana":"チバケン","city":"野田市","city_kana":"ノダシ","town":"中里","town_kana":"ナカザト","prefecture_code":12},"0215":{"zip_code":"2700215","prefecture":"千葉県","prefecture_kana":"チバケン","city":"野田市","city_kana":"ノダシ","town":"中戸","town_kana":"ナカト","prefecture_code":12},"0228":{"zip_code":"2700228","prefecture":"千葉県","prefecture_kana":"チバケン","city":"野田市","city_kana":"ノダシ","town":"次木","town_kana":"ナミキ","prefecture_code":12},"0216":{"zip_code":"2700216","prefecture":"千葉県","prefecture_kana":"チバケン","city":"野田市","city_kana":"ノダシ","town":"西高野","town_kana":"ニシゴウヤ","prefecture_code":12},"0212":{"zip_code":"2700212","prefecture":"千葉県","prefecture_kana":"チバケン","city":"野田市","city_kana":"ノダシ","town":"新田戸","town_kana":"ニッタド","prefecture_code":12},"0217":{"zip_code":"2700217","prefecture":"千葉県","prefecture_kana":"チバケン","city":"野田市","city_kana":"ノダシ","town":"はやま","town_kana":"ハヤマ","prefecture_code":12},"0236":{"zip_code":"2700236","prefecture":"千葉県","prefecture_kana":"チバケン","city":"野田市","city_kana":"ノダシ","town":"東金野井","town_kana":"ヒガシカナノイ","prefecture_code":12},"0211":{"zip_code":"2700211","prefecture":"千葉県","prefecture_kana":"チバケン","city":"野田市","city_kana":"ノダシ","town":"東高野","town_kana":"ヒガシゴウヤ","prefecture_code":12},"0226":{"zip_code":"2700226","prefecture":"千葉県","prefecture_kana":"チバケン","city":"野田市","city_kana":"ノダシ","town":"東宝珠花","town_kana":"ヒガシホウシュバナ","prefecture_code":12},"0234":{"zip_code":"2700234","prefecture":"千葉県","prefecture_kana":"チバケン","city":"野田市","city_kana":"ノダシ","town":"日の出町","town_kana":"ヒノデチョウ","prefecture_code":12},"0225":{"zip_code":"2700225","prefecture":"千葉県","prefecture_kana":"チバケン","city":"野田市","city_kana":"ノダシ","town":"平井","town_kana":"ヒライ","prefecture_code":12},"0233":{"zip_code":"2700233","prefecture":"千葉県","prefecture_kana":"チバケン","city":"野田市","city_kana":"ノダシ","town":"船形","town_kana":"フナカタ","prefecture_code":12},"0224":{"zip_code":"2700224","prefecture":"千葉県","prefecture_kana":"チバケン","city":"野田市","city_kana":"ノダシ","town":"丸井","town_kana":"マルイ","prefecture_code":12},"0232":{"zip_code":"2700232","prefecture":"千葉県","prefecture_kana":"チバケン","city":"野田市","city_kana":"ノダシ","town":"莚打","town_kana":"ムシロウチ","prefecture_code":12},"1451":{"zip_code":"2701451","prefecture":"千葉県","prefecture_kana":"チバケン","city":"柏市","city_kana":"カシワシ","town":"曙橋","town_kana":"アケボノバシ","prefecture_code":12},"1456":{"zip_code":"2701456","prefecture":"千葉県","prefecture_kana":"チバケン","city":"柏市","city_kana":"カシワシ","town":"泉","town_kana":"イズミ","prefecture_code":12},"1457":{"zip_code":"2701457","prefecture":"千葉県","prefecture_kana":"チバケン","city":"柏市","city_kana":"カシワシ","town":"泉村新田","town_kana":"イズミムラシンデン","prefecture_code":12},"1445":{"zip_code":"2701445","prefecture":"千葉県","prefecture_kana":"チバケン","city":"柏市","city_kana":"カシワシ","town":"岩井","town_kana":"イワイ","prefecture_code":12},"1446":{"zip_code":"2701446","prefecture":"千葉県","prefecture_kana":"チバケン","city":"柏市","city_kana":"カシワシ","town":"岩井村新田","town_kana":"イワイムラシンデン","prefecture_code":12},"1453":{"zip_code":"2701453","prefecture":"千葉県","prefecture_kana":"チバケン","city":"柏市","city_kana":"カシワシ","town":"片山","town_kana":"カタヤマ","prefecture_code":12},"1452":{"zip_code":"2701452","prefecture":"千葉県","prefecture_kana":"チバケン","city":"柏市","city_kana":"カシワシ","town":"片山新田","town_kana":"カタヤマシンデン","prefecture_code":12},"1455":{"zip_code":"2701455","prefecture":"千葉県","prefecture_kana":"チバケン","city":"柏市","city_kana":"カシワシ","town":"金山","town_kana":"カネヤマ","prefecture_code":12},"1461":{"zip_code":"2701461","prefecture":"千葉県","prefecture_kana":"チバケン","city":"柏市","city_kana":"カシワシ","town":"水道橋","town_kana":"スイドウバシ","prefecture_code":12},"1462":{"zip_code":"2701462","prefecture":"千葉県","prefecture_kana":"チバケン","city":"柏市","city_kana":"カシワシ","town":"千間橋","town_kana":"センゲンバシ","prefecture_code":12},"1442":{"zip_code":"2701442","prefecture":"千葉県","prefecture_kana":"チバケン","city":"柏市","city_kana":"カシワシ","town":"染井入新田","town_kana":"ソメイイリシンデン","prefecture_code":12},"1465":{"zip_code":"2701465","prefecture":"千葉県","prefecture_kana":"チバケン","city":"柏市","city_kana":"カシワシ","town":"手賀","town_kana":"テガ","prefecture_code":12},"1466":{"zip_code":"2701466","prefecture":"千葉県","prefecture_kana":"チバケン","city":"柏市","city_kana":"カシワシ","town":"手賀新田","town_kana":"テガシンデン","prefecture_code":12},"1447":{"zip_code":"2701447","prefecture":"千葉県","prefecture_kana":"チバケン","city":"柏市","city_kana":"カシワシ","town":"手賀の杜","town_kana":"テガノモリ","prefecture_code":12},"1464":{"zip_code":"2701464","prefecture":"千葉県","prefecture_kana":"チバケン","city":"柏市","city_kana":"カシワシ","town":"布瀬","town_kana":"フゼ","prefecture_code":12},"1463":{"zip_code":"2701463","prefecture":"千葉県","prefecture_kana":"チバケン","city":"柏市","city_kana":"カシワシ","town":"布瀬新田","town_kana":"フゼシンデン","prefecture_code":12},"1454":{"zip_code":"2701454","prefecture":"千葉県","prefecture_kana":"チバケン","city":"柏市","city_kana":"カシワシ","town":"柳戸","town_kana":"ヤナド","prefecture_code":12},"1444":{"zip_code":"2701444","prefecture":"千葉県","prefecture_kana":"チバケン","city":"柏市","city_kana":"カシワシ","town":"若白毛","town_kana":"ワカシラガ","prefecture_code":12},"1443":{"zip_code":"2701443","prefecture":"千葉県","prefecture_kana":"チバケン","city":"柏市","city_kana":"カシワシ","town":"鷲野谷","town_kana":"ワシノヤ","prefecture_code":12},"1441":{"zip_code":"2701441","prefecture":"千葉県","prefecture_kana":"チバケン","city":"柏市","city_kana":"カシワシ","town":"鷲野谷新田","town_kana":"ワシノヤシンデン","prefecture_code":12},"0100":{"zip_code":"2700100","prefecture":"千葉県","prefecture_kana":"チバケン","city":"流山市","city_kana":"ナガレヤマシ","town":"","town_kana":"","prefecture_code":12},"0112":{"zip_code":"2700112","prefecture":"千葉県","prefecture_kana":"チバケン","city":"流山市","city_kana":"ナガレヤマシ","town":"青田","town_kana":"アオタ","prefecture_code":12},"0137":{"zip_code":"2700137","prefecture":"千葉県","prefecture_kana":"チバケン","city":"流山市","city_kana":"ナガレヤマシ","town":"市野谷","town_kana":"イチノヤ","prefecture_code":12},"0151":{"zip_code":"2700151","prefecture":"千葉県","prefecture_kana":"チバケン","city":"流山市","city_kana":"ナガレヤマシ","town":"後平井","town_kana":"ウシロヒライ","prefecture_code":12},"0111":{"zip_code":"2700111","prefecture":"千葉県","prefecture_kana":"チバケン","city":"流山市","city_kana":"ナガレヤマシ","town":"江戸川台東","town_kana":"エドガワダイヒガシ","prefecture_code":12},"0115":{"zip_code":"2700115","prefecture":"千葉県","prefecture_kana":"チバケン","city":"流山市","city_kana":"ナガレヤマシ","town":"江戸川台西","town_kana":"エドガワダイニシ","prefecture_code":12},"0122":{"zip_code":"2700122","prefecture":"千葉県","prefecture_kana":"チバケン","city":"流山市","city_kana":"ナガレヤマシ","town":"大畔","town_kana":"オオグロ","prefecture_code":12},"0154":{"zip_code":"2700154","prefecture":"千葉県","prefecture_kana":"チバケン","city":"流山市","city_kana":"ナガレヤマシ","town":"思井","town_kana":"オモイ","prefecture_code":12},"0176":{"zip_code":"2700176","prefecture":"千葉県","prefecture_kana":"チバケン","city":"流山市","city_kana":"ナガレヤマシ","town":"加","town_kana":"カ","prefecture_code":12},"0171":{"zip_code":"2700171","prefecture":"千葉県","prefecture_kana":"チバケン","city":"流山市","city_kana":"ナガレヤマシ","town":"上貝塚","town_kana":"カミカイヅカ","prefecture_code":12},"0125":{"zip_code":"2700125","prefecture":"千葉県","prefecture_kana":"チバケン","city":"流山市","city_kana":"ナガレヤマシ","town":"上新宿","town_kana":"カミシンシュク","prefecture_code":12},"0126":{"zip_code":"2700126","prefecture":"千葉県","prefecture_kana":"チバケン","city":"流山市","city_kana":"ナガレヤマシ","town":"上新宿新田","town_kana":"カミシンシュクシンデン","prefecture_code":12},"0162":{"zip_code":"2700162","prefecture":"千葉県","prefecture_kana":"チバケン","city":"流山市","city_kana":"ナガレヤマシ","town":"木","town_kana":"キ","prefecture_code":12},"0117":{"zip_code":"2700117","prefecture":"千葉県","prefecture_kana":"チバケン","city":"流山市","city_kana":"ナガレヤマシ","town":"北","town_kana":"キタ","prefecture_code":12},"0172":{"zip_code":"2700172","prefecture":"千葉県","prefecture_kana":"チバケン","city":"流山市","city_kana":"ナガレヤマシ","town":"桐ケ谷","town_kana":"キリガヤ","prefecture_code":12},"0102":{"zip_code":"2700102","prefecture":"千葉県","prefecture_kana":"チバケン","city":"流山市","city_kana":"ナガレヤマシ","town":"こうのす台","town_kana":"コウノスダイ","prefecture_code":12},"0132":{"zip_code":"2700132","prefecture":"千葉県","prefecture_kana":"チバケン","city":"流山市","city_kana":"ナガレヤマシ","town":"駒木","town_kana":"コマギ","prefecture_code":12},"0113":{"zip_code":"2700113","prefecture":"千葉県","prefecture_kana":"チバケン","city":"流山市","city_kana":"ナガレヤマシ","town":"駒木台","town_kana":"コマギダイ","prefecture_code":12},"0118":{"zip_code":"2700118","prefecture":"千葉県","prefecture_kana":"チバケン","city":"流山市","city_kana":"ナガレヤマシ","town":"小屋","town_kana":"コヤ","prefecture_code":12},"0146":{"zip_code":"2700146","prefecture":"千葉県","prefecture_kana":"チバケン","city":"流山市","city_kana":"ナガレヤマシ","town":"芝崎","town_kana":"シバサキ","prefecture_code":12},"0174":{"zip_code":"2700174","prefecture":"千葉県","prefecture_kana":"チバケン","city":"流山市","city_kana":"ナガレヤマシ","town":"下花輪","town_kana":"シモハナワ","prefecture_code":12},"0133":{"zip_code":"2700133","prefecture":"千葉県","prefecture_kana":"チバケン","city":"流山市","city_kana":"ナガレヤマシ","town":"十太夫","town_kana":"ジュウダユウ","prefecture_code":12},"0173":{"zip_code":"2700173","prefecture":"千葉県","prefecture_kana":"チバケン","city":"流山市","city_kana":"ナガレヤマシ","town":"谷","town_kana":"タニ","prefecture_code":12},"0153":{"zip_code":"2700153","prefecture":"千葉県","prefecture_kana":"チバケン","city":"流山市","city_kana":"ナガレヤマシ","town":"中","town_kana":"ナカ","prefecture_code":12},"0116":{"zip_code":"2700116","prefecture":"千葉県","prefecture_kana":"チバケン","city":"流山市","city_kana":"ナガレヤマシ","town":"中野久木","town_kana":"ナカノクキ","prefecture_code":12},"0134":{"zip_code":"2700134","prefecture":"千葉県","prefecture_kana":"チバケン","city":"流山市","city_kana":"ナガレヤマシ","town":"長崎","town_kana":"ナガサキ","prefecture_code":12},"0164":{"zip_code":"2700164","prefecture":"千葉県","prefecture_kana":"チバケン","city":"流山市","city_kana":"ナガレヤマシ","town":"流山","town_kana":"ナガレヤマ","prefecture_code":12},"0145":{"zip_code":"2700145","prefecture":"千葉県","prefecture_kana":"チバケン","city":"流山市","city_kana":"ナガレヤマシ","town":"名都借","town_kana":"ナズカリ","prefecture_code":12},"0121":{"zip_code":"2700121","prefecture":"千葉県","prefecture_kana":"チバケン","city":"流山市","city_kana":"ナガレヤマシ","town":"西初石","town_kana":"ニシハツイシ","prefecture_code":12},"0156":{"zip_code":"2700156","prefecture":"千葉県","prefecture_kana":"チバケン","city":"流山市","city_kana":"ナガレヤマシ","town":"西平井","town_kana":"ニシヒライ","prefecture_code":12},"0107":{"zip_code":"2700107","prefecture":"千葉県","prefecture_kana":"チバケン","city":"流山市","city_kana":"ナガレヤマシ","town":"西深井","town_kana":"ニシフカイ","prefecture_code":12},"0142":{"zip_code":"2700142","prefecture":"千葉県","prefecture_kana":"チバケン","city":"流山市","city_kana":"ナガレヤマシ","town":"西松ケ丘","town_kana":"ニシマツガオカ","prefecture_code":12},"0135":{"zip_code":"2700135","prefecture":"千葉県","prefecture_kana":"チバケン","city":"流山市","city_kana":"ナガレヤマシ","town":"野々下","town_kana":"ノノシタ","prefecture_code":12},"0114":{"zip_code":"2700114","prefecture":"千葉県","prefecture_kana":"チバケン","city":"流山市","city_kana":"ナガレヤマシ","town":"東初石","town_kana":"ヒガシハツイシ","prefecture_code":12},"0101":{"zip_code":"2700101","prefecture":"千葉県","prefecture_kana":"チバケン","city":"流山市","city_kana":"ナガレヤマシ","town":"東深井","town_kana":"ヒガシフカイ","prefecture_code":12},"0105":{"zip_code":"2700105","prefecture":"千葉県","prefecture_kana":"チバケン","city":"流山市","city_kana":"ナガレヤマシ","town":"平方","town_kana":"ヒラカタ","prefecture_code":12},"0106":{"zip_code":"2700106","prefecture":"千葉県","prefecture_kana":"チバケン","city":"流山市","city_kana":"ナガレヤマシ","town":"平方村新田","town_kana":"ヒラカタムラシンデン","prefecture_code":12},"0161":{"zip_code":"2700161","prefecture":"千葉県","prefecture_kana":"チバケン","city":"流山市","city_kana":"ナガレヤマシ","town":"鰭ケ崎","town_kana":"ヒレガサキ","prefecture_code":12},"0108":{"zip_code":"2700108","prefecture":"千葉県","prefecture_kana":"チバケン","city":"流山市","city_kana":"ナガレヤマシ","town":"深井新田","town_kana":"フカイシンデン","prefecture_code":12},"0127":{"zip_code":"2700127","prefecture":"千葉県","prefecture_kana":"チバケン","city":"流山市","city_kana":"ナガレヤマシ","town":"富士見台","town_kana":"フジミダイ","prefecture_code":12},"0136":{"zip_code":"2700136","prefecture":"千葉県","prefecture_kana":"チバケン","city":"流山市","city_kana":"ナガレヤマシ","town":"古間木","town_kana":"フルマギ","prefecture_code":12},"0157":{"zip_code":"2700157","prefecture":"千葉県","prefecture_kana":"チバケン","city":"流山市","city_kana":"ナガレヤマシ","town":"平和台","town_kana":"ヘイワダイ","prefecture_code":12},"0144":{"zip_code":"2700144","prefecture":"千葉県","prefecture_kana":"チバケン","city":"流山市","city_kana":"ナガレヤマシ","town":"前ケ崎","town_kana":"マエガサキ","prefecture_code":12},"0152":{"zip_code":"2700152","prefecture":"千葉県","prefecture_kana":"チバケン","city":"流山市","city_kana":"ナガレヤマシ","town":"前平井","town_kana":"マエヒライ","prefecture_code":12},"0141":{"zip_code":"2700141","prefecture":"千葉県","prefecture_kana":"チバケン","city":"流山市","city_kana":"ナガレヤマシ","town":"松ケ丘","town_kana":"マツガオカ","prefecture_code":12},"0131":{"zip_code":"2700131","prefecture":"千葉県","prefecture_kana":"チバケン","city":"流山市","city_kana":"ナガレヤマシ","town":"美田","town_kana":"ミタ","prefecture_code":12},"0124":{"zip_code":"2700124","prefecture":"千葉県","prefecture_kana":"チバケン","city":"流山市","city_kana":"ナガレヤマシ","town":"南","town_kana":"ミナミ","prefecture_code":12},"0163":{"zip_code":"2700163","prefecture":"千葉県","prefecture_kana":"チバケン","city":"流山市","city_kana":"ナガレヤマシ","town":"南流山","town_kana":"ミナミナガレヤマ","prefecture_code":12},"0103":{"zip_code":"2700103","prefecture":"千葉県","prefecture_kana":"チバケン","city":"流山市","city_kana":"ナガレヤマシ","town":"美原","town_kana":"ミハラ","prefecture_code":12},"0155":{"zip_code":"2700155","prefecture":"千葉県","prefecture_kana":"チバケン","city":"流山市","city_kana":"ナガレヤマシ","town":"宮園","town_kana":"ミヤゾノ","prefecture_code":12},"0175":{"zip_code":"2700175","prefecture":"千葉県","prefecture_kana":"チバケン","city":"流山市","city_kana":"ナガレヤマシ","town":"三輪野山","town_kana":"ミワノヤマ","prefecture_code":12},"0143":{"zip_code":"2700143","prefecture":"千葉県","prefecture_kana":"チバケン","city":"流山市","city_kana":"ナガレヤマシ","town":"向小金","town_kana":"ムカイコガネ","prefecture_code":12},"0123":{"zip_code":"2700123","prefecture":"千葉県","prefecture_kana":"チバケン","city":"流山市","city_kana":"ナガレヤマシ","town":"若葉台","town_kana":"ワカバダイ","prefecture_code":12},"1100":{"zip_code":"2701100","prefecture":"千葉県","prefecture_kana":"チバケン","city":"我孫子市","city_kana":"アビコシ","town":"","town_kana":"","prefecture_code":12},"1106":{"zip_code":"2701106","prefecture":"千葉県","prefecture_kana":"チバケン","city":"我孫子市","city_kana":"アビコシ","town":"相島新田","town_kana":"アイジマシンデン","prefecture_code":12},"1173":{"zip_code":"2701173","prefecture":"千葉県","prefecture_kana":"チバケン","city":"我孫子市","city_kana":"アビコシ","town":"青山","town_kana":"アオヤマ","prefecture_code":12},"1175":{"zip_code":"2701175","prefecture":"千葉県","prefecture_kana":"チバケン","city":"我孫子市","city_kana":"アビコシ","town":"青山台","town_kana":"アオヤマダイ","prefecture_code":12},"1166":{"zip_code":"2701166","prefecture":"千葉県","prefecture_kana":"チバケン","city":"我孫子市","city_kana":"アビコシ","town":"我孫子","town_kana":"アビコ","prefecture_code":12},"1155":{"zip_code":"2701155","prefecture":"千葉県","prefecture_kana":"チバケン","city":"我孫子市","city_kana":"アビコシ","town":"我孫子新田","town_kana":"アビコシンデン","prefecture_code":12},"1112":{"zip_code":"2701112","prefecture":"千葉県","prefecture_kana":"チバケン","city":"我孫子市","city_kana":"アビコシ","town":"新木","town_kana":"アラキ","prefecture_code":12},"1114":{"zip_code":"2701114","prefecture":"千葉県","prefecture_kana":"チバケン","city":"我孫子市","city_kana":"アビコシ","town":"新木野","town_kana":"アラキノ","prefecture_code":12},"1118":{"zip_code":"2701118","prefecture":"千葉県","prefecture_kana":"チバケン","city":"我孫子市","city_kana":"アビコシ","town":"新木村下","town_kana":"アラキムラシタ","prefecture_code":12},"1142":{"zip_code":"2701142","prefecture":"千葉県","prefecture_kana":"チバケン","city":"我孫子市","city_kana":"アビコシ","town":"泉","town_kana":"イズミ","prefecture_code":12},"1131":{"zip_code":"2701131","prefecture":"千葉県","prefecture_kana":"チバケン","city":"我孫子市","city_kana":"アビコシ","town":"都部","town_kana":"イチブ","prefecture_code":12},"1135":{"zip_code":"2701135","prefecture":"千葉県","prefecture_kana":"チバケン","city":"我孫子市","city_kana":"アビコシ","town":"都部新田","town_kana":"イチブシンデン","prefecture_code":12},"1134":{"zip_code":"2701134","prefecture":"千葉県","prefecture_kana":"チバケン","city":"我孫子市","city_kana":"アビコシ","town":"都部村新田","town_kana":"イチブムラシンデン","prefecture_code":12},"1113":{"zip_code":"2701113","prefecture":"千葉県","prefecture_kana":"チバケン","city":"我孫子市","city_kana":"アビコシ","town":"江蔵地","town_kana":"エゾウチ","prefecture_code":12},"1115":{"zip_code":"2701115","prefecture":"千葉県","prefecture_kana":"チバケン","city":"我孫子市","city_kana":"アビコシ","town":"大作新田","town_kana":"オオサクシンデン","prefecture_code":12},"1137":{"zip_code":"2701137","prefecture":"千葉県","prefecture_kana":"チバケン","city":"我孫子市","city_kana":"アビコシ","town":"岡発戸","town_kana":"オカホット","prefecture_code":12},"1136":{"zip_code":"2701136","prefecture":"千葉県","prefecture_kana":"チバケン","city":"我孫子市","city_kana":"アビコシ","town":"岡発戸新田","town_kana":"オカホットシンデン","prefecture_code":12},"1133":{"zip_code":"2701133","prefecture":"千葉県","prefecture_kana":"チバケン","city":"我孫子市","city_kana":"アビコシ","town":"上沼田","town_kana":"カミヌマタ","prefecture_code":12},"1172":{"zip_code":"2701172","prefecture":"千葉県","prefecture_kana":"チバケン","city":"我孫子市","city_kana":"アビコシ","town":"北新田","town_kana":"キタシンデン","prefecture_code":12},"1163":{"zip_code":"2701163","prefecture":"千葉県","prefecture_kana":"チバケン","city":"我孫子市","city_kana":"アビコシ","town":"久寺家","town_kana":"クジケ","prefecture_code":12},"1145":{"zip_code":"2701145","prefecture":"千葉県","prefecture_kana":"チバケン","city":"我孫子市","city_kana":"アビコシ","town":"高野山","town_kana":"コウノヤマ","prefecture_code":12},"1146":{"zip_code":"2701146","prefecture":"千葉県","prefecture_kana":"チバケン","city":"我孫子市","city_kana":"アビコシ","town":"高野山新田","town_kana":"コウノヤマシンデン","prefecture_code":12},"1152":{"zip_code":"2701152","prefecture":"千葉県","prefecture_kana":"チバケン","city":"我孫子市","city_kana":"アビコシ","town":"寿","town_kana":"コトブキ","prefecture_code":12},"1132":{"zip_code":"2701132","prefecture":"千葉県","prefecture_kana":"チバケン","city":"我孫子市","city_kana":"アビコシ","town":"湖北台","town_kana":"コホクダイ","prefecture_code":12},"1141":{"zip_code":"2701141","prefecture":"千葉県","prefecture_kana":"チバケン","city":"我孫子市","city_kana":"アビコシ","town":"栄","town_kana":"サカエ","prefecture_code":12},"1138":{"zip_code":"2701138","prefecture":"千葉県","prefecture_kana":"チバケン","city":"我孫子市","city_kana":"アビコシ","town":"下ケ戸","town_kana":"サゲト","prefecture_code":12},"1177":{"zip_code":"2701177","prefecture":"千葉県","prefecture_kana":"チバケン","city":"我孫子市","city_kana":"アビコシ","town":"柴崎","town_kana":"シバサキ","prefecture_code":12},"1176":{"zip_code":"2701176","prefecture":"千葉県","prefecture_kana":"チバケン","city":"我孫子市","city_kana":"アビコシ","town":"柴崎台","town_kana":"シバサキダイ","prefecture_code":12},"1117":{"zip_code":"2701117","prefecture":"千葉県","prefecture_kana":"チバケン","city":"我孫子市","city_kana":"アビコシ","town":"下沼田","town_kana":"シモヌマタ","prefecture_code":12},"1104":{"zip_code":"2701104","prefecture":"千葉県","prefecture_kana":"チバケン","city":"我孫子市","city_kana":"アビコシ","town":"新々田","town_kana":"シンシンデン","prefecture_code":12},"1116":{"zip_code":"2701116","prefecture":"千葉県","prefecture_kana":"チバケン","city":"我孫子市","city_kana":"アビコシ","town":"浅間前新田","town_kana":"センゲンマエシンデン","prefecture_code":12},"1167":{"zip_code":"2701167","prefecture":"千葉県","prefecture_kana":"チバケン","city":"我孫子市","city_kana":"アビコシ","town":"台田","town_kana":"ダイダ","prefecture_code":12},"1164":{"zip_code":"2701164","prefecture":"千葉県","prefecture_kana":"チバケン","city":"我孫子市","city_kana":"アビコシ","town":"つくし野","town_kana":"ツクシノ","prefecture_code":12},"1143":{"zip_code":"2701143","prefecture":"千葉県","prefecture_kana":"チバケン","city":"我孫子市","city_kana":"アビコシ","town":"天王台","town_kana":"テンノウダイ","prefecture_code":12},"1122":{"zip_code":"2701122","prefecture":"千葉県","prefecture_kana":"チバケン","city":"我孫子市","city_kana":"アビコシ","town":"中里","town_kana":"ナカザト","prefecture_code":12},"1126":{"zip_code":"2701126","prefecture":"千葉県","prefecture_kana":"チバケン","city":"我孫子市","city_kana":"アビコシ","town":"中里新田","town_kana":"ナカザトシンデン","prefecture_code":12},"1125":{"zip_code":"2701125","prefecture":"千葉県","prefecture_kana":"チバケン","city":"我孫子市","city_kana":"アビコシ","town":"中沼田","town_kana":"ナカヌマタ","prefecture_code":12},"1121":{"zip_code":"2701121","prefecture":"千葉県","prefecture_kana":"チバケン","city":"我孫子市","city_kana":"アビコシ","town":"中峠","town_kana":"ナカビョウ","prefecture_code":12},"1128":{"zip_code":"2701128","prefecture":"千葉県","prefecture_kana":"チバケン","city":"我孫子市","city_kana":"アビコシ","town":"中峠台","town_kana":"ナカビョウダイ","prefecture_code":12},"1127":{"zip_code":"2701127","prefecture":"千葉県","prefecture_kana":"チバケン","city":"我孫子市","city_kana":"アビコシ","town":"中峠村下","town_kana":"ナカビョウムラシタ","prefecture_code":12},"1165":{"zip_code":"2701165","prefecture":"千葉県","prefecture_kana":"チバケン","city":"我孫子市","city_kana":"アビコシ","town":"並木","town_kana":"ナミキ","prefecture_code":12},"1168":{"zip_code":"2701168","prefecture":"千葉県","prefecture_kana":"チバケン","city":"我孫子市","city_kana":"アビコシ","town":"根戸","town_kana":"ネド","prefecture_code":12},"1156":{"zip_code":"2701156","prefecture":"千葉県","prefecture_kana":"チバケン","city":"我孫子市","city_kana":"アビコシ","town":"根戸新田","town_kana":"ネドシンデン","prefecture_code":12},"1154":{"zip_code":"2701154","prefecture":"千葉県","prefecture_kana":"チバケン","city":"我孫子市","city_kana":"アビコシ","town":"白山","town_kana":"ハクサン","prefecture_code":12},"1144":{"zip_code":"2701144","prefecture":"千葉県","prefecture_kana":"チバケン","city":"我孫子市","city_kana":"アビコシ","town":"東我孫子","town_kana":"ヒガシアビコ","prefecture_code":12},"1174":{"zip_code":"2701174","prefecture":"千葉県","prefecture_kana":"チバケン","city":"我孫子市","city_kana":"アビコシ","town":"日の出","town_kana":"ヒノデ","prefecture_code":12},"1123":{"zip_code":"2701123","prefecture":"千葉県","prefecture_kana":"チバケン","city":"我孫子市","city_kana":"アビコシ","town":"日秀","town_kana":"ヒビリ","prefecture_code":12},"1124":{"zip_code":"2701124","prefecture":"千葉県","prefecture_kana":"チバケン","city":"我孫子市","city_kana":"アビコシ","town":"日秀新田","town_kana":"ヒビリシンデン","prefecture_code":12},"1101":{"zip_code":"2701101","prefecture":"千葉県","prefecture_kana":"チバケン","city":"我孫子市","city_kana":"アビコシ","town":"布佐","town_kana":"フサ","prefecture_code":12},"1107":{"zip_code":"2701107","prefecture":"千葉県","prefecture_kana":"チバケン","city":"我孫子市","city_kana":"アビコシ","town":"布佐下新田","town_kana":"フサシタシンデン","prefecture_code":12},"1103":{"zip_code":"2701103","prefecture":"千葉県","prefecture_kana":"チバケン","city":"我孫子市","city_kana":"アビコシ","town":"布佐酉町","town_kana":"フサトリマチ","prefecture_code":12},"1108":{"zip_code":"2701108","prefecture":"千葉県","prefecture_kana":"チバケン","city":"我孫子市","city_kana":"アビコシ","town":"布佐平和台","town_kana":"フサヘイワダイ","prefecture_code":12},"1162":{"zip_code":"2701162","prefecture":"千葉県","prefecture_kana":"チバケン","city":"我孫子市","city_kana":"アビコシ","town":"布施","town_kana":"フセ","prefecture_code":12},"1161":{"zip_code":"2701161","prefecture":"千葉県","prefecture_kana":"チバケン","city":"我孫子市","city_kana":"アビコシ","town":"布施下","town_kana":"フセシタ","prefecture_code":12},"1158":{"zip_code":"2701158","prefecture":"千葉県","prefecture_kana":"チバケン","city":"我孫子市","city_kana":"アビコシ","town":"船戸","town_kana":"フナト","prefecture_code":12},"1111":{"zip_code":"2701111","prefecture":"千葉県","prefecture_kana":"チバケン","city":"我孫子市","city_kana":"アビコシ","town":"古戸","town_kana":"フルド","prefecture_code":12},"1171":{"zip_code":"2701171","prefecture":"千葉県","prefecture_kana":"チバケン","city":"我孫子市","city_kana":"アビコシ","town":"弁天下","town_kana":"ベンテンシタ","prefecture_code":12},"1151":{"zip_code":"2701151","prefecture":"千葉県","prefecture_kana":"チバケン","city":"我孫子市","city_kana":"アビコシ","town":"本町","town_kana":"ホンチョウ","prefecture_code":12},"1105":{"zip_code":"2701105","prefecture":"千葉県","prefecture_kana":"チバケン","city":"我孫子市","city_kana":"アビコシ","town":"三河屋新田","town_kana":"ミカワヤシンデン","prefecture_code":12},"1153":{"zip_code":"2701153","prefecture":"千葉県","prefecture_kana":"チバケン","city":"我孫子市","city_kana":"アビコシ","town":"緑","town_kana":"ミドリ","prefecture_code":12},"1178":{"zip_code":"2701178","prefecture":"千葉県","prefecture_kana":"チバケン","city":"我孫子市","city_kana":"アビコシ","town":"南青山","town_kana":"ミナミアオヤマ","prefecture_code":12},"1119":{"zip_code":"2701119","prefecture":"千葉県","prefecture_kana":"チバケン","city":"我孫子市","city_kana":"アビコシ","town":"南新木","town_kana":"ミナミアラキ","prefecture_code":12},"1102":{"zip_code":"2701102","prefecture":"千葉県","prefecture_kana":"チバケン","city":"我孫子市","city_kana":"アビコシ","town":"都","town_kana":"ミヤコ","prefecture_code":12},"1157":{"zip_code":"2701157","prefecture":"千葉県","prefecture_kana":"チバケン","city":"我孫子市","city_kana":"アビコシ","town":"呼塚新田","town_kana":"ヨバツカシンデン","prefecture_code":12},"1147":{"zip_code":"2701147","prefecture":"千葉県","prefecture_kana":"チバケン","city":"我孫子市","city_kana":"アビコシ","town":"若松","town_kana":"ワカマツ","prefecture_code":12},"1300":{"zip_code":"2701300","prefecture":"千葉県","prefecture_kana":"チバケン","city":"印西市","city_kana":"インザイシ","town":"","town_kana":"","prefecture_code":12},"1321":{"zip_code":"2701321","prefecture":"千葉県","prefecture_kana":"チバケン","city":"印西市","city_kana":"インザイシ","town":"相嶋","town_kana":"アイジマ","prefecture_code":12},"2302":{"zip_code":"2702302","prefecture":"千葉県","prefecture_kana":"チバケン","city":"印西市","city_kana":"インザイシ","town":"安食卜杭","town_kana":"アジキボックイ","prefecture_code":12},"1351":{"zip_code":"2701351","prefecture":"千葉県","prefecture_kana":"チバケン","city":"印西市","city_kana":"インザイシ","town":"和泉","town_kana":"イズミ","prefecture_code":12},"1353":{"zip_code":"2701353","prefecture":"千葉県","prefecture_kana":"チバケン","city":"印西市","city_kana":"インザイシ","town":"泉","town_kana":"イズミ","prefecture_code":12},"1360":{"zip_code":"2701360","prefecture":"千葉県","prefecture_kana":"チバケン","city":"印西市","city_kana":"インザイシ","town":"泉野","town_kana":"イズミノ","prefecture_code":12},"2323":{"zip_code":"2702323","prefecture":"千葉県","prefecture_kana":"チバケン","city":"印西市","city_kana":"インザイシ","town":"和泉屋","town_kana":"イズミヤ","prefecture_code":12},"1616":{"zip_code":"2701616","prefecture":"千葉県","prefecture_kana":"チバケン","city":"印西市","city_kana":"インザイシ","town":"岩戸","town_kana":"イワト","prefecture_code":12},"1347":{"zip_code":"2701347","prefecture":"千葉県","prefecture_kana":"チバケン","city":"印西市","city_kana":"インザイシ","town":"内野","town_kana":"ウチノ","prefecture_code":12},"1364":{"zip_code":"2701364","prefecture":"千葉県","prefecture_kana":"チバケン","city":"印西市","city_kana":"インザイシ","town":"浦幡新田","town_kana":"ウラハタシンデン","prefecture_code":12},"1367":{"zip_code":"2701367","prefecture":"千葉県","prefecture_kana":"チバケン","city":"印西市","city_kana":"インザイシ","town":"浦部","town_kana":"ウラベ","prefecture_code":12},"1368":{"zip_code":"2701368","prefecture":"千葉県","prefecture_kana":"チバケン","city":"印西市","city_kana":"インザイシ","town":"浦部村新田","town_kana":"ウラベムラシンデン","prefecture_code":12},"1352":{"zip_code":"2701352","prefecture":"千葉県","prefecture_kana":"チバケン","city":"印西市","city_kana":"インザイシ","town":"大塚","town_kana":"オオツカ","prefecture_code":12},"1612":{"zip_code":"2701612","prefecture":"千葉県","prefecture_kana":"チバケン","city":"印西市","city_kana":"インザイシ","town":"大廻","town_kana":"オオバ","prefecture_code":12},"1327":{"zip_code":"2701327","prefecture":"千葉県","prefecture_kana":"チバケン","city":"印西市","city_kana":"インザイシ","town":"大森","town_kana":"オオモリ","prefecture_code":12},"1358":{"zip_code":"2701358","prefecture":"千葉県","prefecture_kana":"チバケン","city":"印西市","city_kana":"インザイシ","town":"小倉","town_kana":"オグラ","prefecture_code":12},"1356":{"zip_code":"2701356","prefecture":"千葉県","prefecture_kana":"チバケン","city":"印西市","city_kana":"インザイシ","town":"小倉台","town_kana":"オグラダイ","prefecture_code":12},"2318":{"zip_code":"2702318","prefecture":"千葉県","prefecture_kana":"チバケン","city":"印西市","city_kana":"インザイシ","town":"押付","town_kana":"オシツケ","prefecture_code":12},"1363":{"zip_code":"2701363","prefecture":"千葉県","prefecture_kana":"チバケン","city":"印西市","city_kana":"インザイシ","town":"鹿黒","town_kana":"カグロ","prefecture_code":12},"1369":{"zip_code":"2701369","prefecture":"千葉県","prefecture_kana":"チバケン","city":"印西市","city_kana":"インザイシ","town":"鹿黒南","town_kana":"カグロミナミ","prefecture_code":12},"2322":{"zip_code":"2702322","prefecture":"千葉県","prefecture_kana":"チバケン","city":"印西市","city_kana":"インザイシ","town":"笠神","town_kana":"カサガミ","prefecture_code":12},"1613":{"zip_code":"2701613","prefecture":"千葉県","prefecture_kana":"チバケン","city":"印西市","city_kana":"インザイシ","town":"鎌苅","town_kana":"カマガリ","prefecture_code":12},"1362":{"zip_code":"2701362","prefecture":"千葉県","prefecture_kana":"チバケン","city":"印西市","city_kana":"インザイシ","town":"亀成","town_kana":"カメナリ","prefecture_code":12},"2319":{"zip_code":"2702319","prefecture":"千葉県","prefecture_kana":"チバケン","city":"印西市","city_kana":"インザイシ","town":"川向","town_kana":"カワムカイ","prefecture_code":12},"1326":{"zip_code":"2701326","prefecture":"千葉県","prefecture_kana":"チバケン","city":"印西市","city_kana":"インザイシ","town":"木下","town_kana":"キオロシ","prefecture_code":12},"1323":{"zip_code":"2701323","prefecture":"千葉県","prefecture_kana":"チバケン","city":"印西市","city_kana":"インザイシ","town":"木下東","town_kana":"キオロシヒガシ","prefecture_code":12},"1328":{"zip_code":"2701328","prefecture":"千葉県","prefecture_kana":"チバケン","city":"印西市","city_kana":"インザイシ","town":"木下南","town_kana":"キオロシミナミ","prefecture_code":12},"1359":{"zip_code":"2701359","prefecture":"千葉県","prefecture_kana":"チバケン","city":"印西市","city_kana":"インザイシ","town":"木刈","town_kana":"キカリ","prefecture_code":12},"2316":{"zip_code":"2702316","prefecture":"千葉県","prefecture_kana":"チバケン","city":"印西市","city_kana":"インザイシ","town":"行徳","town_kana":"ギョウトク","prefecture_code":12},"1343":{"zip_code":"2701343","prefecture":"千葉県","prefecture_kana":"チバケン","city":"印西市","city_kana":"インザイシ","town":"結縁寺","town_kana":"ケツエンジ","prefecture_code":12},"1365":{"zip_code":"2701365","prefecture":"千葉県","prefecture_kana":"チバケン","city":"印西市","city_kana":"インザイシ","town":"高西新田","town_kana":"コウサイシンデン","prefecture_code":12},"2326":{"zip_code":"2702326","prefecture":"千葉県","prefecture_kana":"チバケン","city":"印西市","city_kana":"インザイシ","town":"荒野","town_kana":"コウヤ","prefecture_code":12},"1318":{"zip_code":"2701318","prefecture":"千葉県","prefecture_kana":"チバケン","city":"印西市","city_kana":"インザイシ","town":"小林","town_kana":"コバヤシ","prefecture_code":12},"1313":{"zip_code":"2701313","prefecture":"千葉県","prefecture_kana":"チバケン","city":"印西市","city_kana":"インザイシ","town":"小林北","town_kana":"コバヤシキタ","prefecture_code":12},"1315":{"zip_code":"2701315","prefecture":"千葉県","prefecture_kana":"チバケン","city":"印西市","city_kana":"インザイシ","town":"小林浅間","town_kana":"コバヤシセンゲン","prefecture_code":12},"1316":{"zip_code":"2701316","prefecture":"千葉県","prefecture_kana":"チバケン","city":"印西市","city_kana":"インザイシ","town":"小林大門下","town_kana":"コバヤシダイモンシタ","prefecture_code":12},"2303":{"zip_code":"2702303","prefecture":"千葉県","prefecture_kana":"チバケン","city":"印西市","city_kana":"インザイシ","town":"酒直卜杭","town_kana":"サカナオボックイ","prefecture_code":12},"2314":{"zip_code":"2702314","prefecture":"千葉県","prefecture_kana":"チバケン","city":"印西市","city_kana":"インザイシ","town":"桜野","town_kana":"サクラノ","prefecture_code":12},"2305":{"zip_code":"2702305","prefecture":"千葉県","prefecture_kana":"チバケン","city":"印西市","city_kana":"インザイシ","town":"佐野屋","town_kana":"サノヤ","prefecture_code":12},"2313":{"zip_code":"2702313","prefecture":"千葉県","prefecture_kana":"チバケン","city":"印西市","city_kana":"インザイシ","town":"下井","town_kana":"シモイ","prefecture_code":12},"2317":{"zip_code":"2702317","prefecture":"千葉県","prefecture_kana":"チバケン","city":"印西市","city_kana":"インザイシ","town":"下曽根","town_kana":"シモゾネ","prefecture_code":12},"2301":{"zip_code":"2702301","prefecture":"千葉県","prefecture_kana":"チバケン","city":"印西市","city_kana":"インザイシ","town":"将監","town_kana":"ショウゲン","prefecture_code":12},"1366":{"zip_code":"2701366","prefecture":"千葉県","prefecture_kana":"チバケン","city":"印西市","city_kana":"インザイシ","town":"白幡","town_kana":"シラハタ","prefecture_code":12},"2304":{"zip_code":"2702304","prefecture":"千葉県","prefecture_kana":"チバケン","city":"印西市","city_kana":"インザイシ","town":"甚兵衛","town_kana":"ジンベエ","prefecture_code":12},"1614":{"zip_code":"2701614","prefecture":"千葉県","prefecture_kana":"チバケン","city":"印西市","city_kana":"インザイシ","town":"瀬戸","town_kana":"セト","prefecture_code":12},"1322":{"zip_code":"2701322","prefecture":"千葉県","prefecture_kana":"チバケン","city":"印西市","city_kana":"インザイシ","town":"浅間前","town_kana":"センゲンマエ","prefecture_code":12},"1337":{"zip_code":"2701337","prefecture":"千葉県","prefecture_kana":"チバケン","city":"印西市","city_kana":"インザイシ","town":"草深","town_kana":"ソウフケ","prefecture_code":12},"1333":{"zip_code":"2701333","prefecture":"千葉県","prefecture_kana":"チバケン","city":"印西市","city_kana":"インザイシ","town":"宗甫","town_kana":"ソウホ","prefecture_code":12},"1342":{"zip_code":"2701342","prefecture":"千葉県","prefecture_kana":"チバケン","city":"印西市","city_kana":"インザイシ","town":"高花","town_kana":"タカバナ","prefecture_code":12},"2328":{"zip_code":"2702328","prefecture":"千葉県","prefecture_kana":"チバケン","city":"印西市","city_kana":"インザイシ","town":"滝","town_kana":"タキ","prefecture_code":12},"2329":{"zip_code":"2702329","prefecture":"千葉県","prefecture_kana":"チバケン","city":"印西市","city_kana":"インザイシ","town":"滝野","town_kana":"タキノ","prefecture_code":12},"1325":{"zip_code":"2701325","prefecture":"千葉県","prefecture_kana":"チバケン","city":"印西市","city_kana":"インザイシ","town":"竹袋","town_kana":"タケフクロ","prefecture_code":12},"1346":{"zip_code":"2701346","prefecture":"千葉県","prefecture_kana":"チバケン","city":"印西市","city_kana":"インザイシ","town":"多々羅田","town_kana":"タタラダ","prefecture_code":12},"1350":{"zip_code":"2701350","prefecture":"千葉県","prefecture_kana":"チバケン","city":"印西市","city_kana":"インザイシ","town":"中央北","town_kana":"チュウオウキタ","prefecture_code":12},"1340":{"zip_code":"2701340","prefecture":"千葉県","prefecture_kana":"チバケン","city":"印西市","city_kana":"インザイシ","town":"中央南","town_kana":"チュウオウミナミ","prefecture_code":12},"1611":{"zip_code":"2701611","prefecture":"千葉県","prefecture_kana":"チバケン","city":"印西市","city_kana":"インザイシ","town":"造谷","town_kana":"ツクリヤ","prefecture_code":12},"1618":{"zip_code":"2701618","prefecture":"千葉県","prefecture_kana":"チバケン","city":"印西市","city_kana":"インザイシ","town":"つくりや台","town_kana":"ツクリヤダイ","prefecture_code":12},"2325":{"zip_code":"2702325","prefecture":"千葉県","prefecture_kana":"チバケン","city":"印西市","city_kana":"インザイシ","town":"角田","town_kana":"ツノダ","prefecture_code":12},"1348":{"zip_code":"2701348","prefecture":"千葉県","prefecture_kana":"チバケン","city":"印西市","city_kana":"インザイシ","town":"戸神","town_kana":"トカミ","prefecture_code":12},"1349":{"zip_code":"2701349","prefecture":"千葉県","prefecture_kana":"チバケン","city":"印西市","city_kana":"インザイシ","town":"戸神台","town_kana":"トカミダイ","prefecture_code":12},"2315":{"zip_code":"2702315","prefecture":"千葉県","prefecture_kana":"チバケン","city":"印西市","city_kana":"インザイシ","town":"中","town_kana":"ナカ","prefecture_code":12},"2306":{"zip_code":"2702306","prefecture":"千葉県","prefecture_kana":"チバケン","city":"印西市","city_kana":"インザイシ","town":"中田切","town_kana":"ナカタギリ","prefecture_code":12},"2312":{"zip_code":"2702312","prefecture":"千葉県","prefecture_kana":"チバケン","city":"印西市","city_kana":"インザイシ","town":"長門屋","town_kana":"ナガトヤ","prefecture_code":12},"2324":{"zip_code":"2702324","prefecture":"千葉県","prefecture_kana":"チバケン","city":"印西市","city_kana":"インザイシ","town":"中根","town_kana":"ナカネ","prefecture_code":12},"1334":{"zip_code":"2701334","prefecture":"千葉県","prefecture_kana":"チバケン","city":"印西市","city_kana":"インザイシ","town":"西の原","town_kana":"ニシノハラ","prefecture_code":12},"2311":{"zip_code":"2702311","prefecture":"千葉県","prefecture_kana":"チバケン","city":"印西市","city_kana":"インザイシ","town":"萩埜","town_kana":"ハギノ","prefecture_code":12},"1601":{"zip_code":"2701601","prefecture":"千葉県","prefecture_kana":"チバケン","city":"印西市","city_kana":"インザイシ","town":"萩原","town_kana":"ハギワラ","prefecture_code":12},"1335":{"zip_code":"2701335","prefecture":"千葉県","prefecture_kana":"チバケン","city":"印西市","city_kana":"インザイシ","town":"原","town_kana":"ハラ","prefecture_code":12},"1341":{"zip_code":"2701341","prefecture":"千葉県","prefecture_kana":"チバケン","city":"印西市","city_kana":"インザイシ","town":"原山","town_kana":"ハラヤマ","prefecture_code":12},"1336":{"zip_code":"2701336","prefecture":"千葉県","prefecture_kana":"チバケン","city":"印西市","city_kana":"インザイシ","town":"東の原","town_kana":"ヒガシノハラ","prefecture_code":12},"1324":{"zip_code":"2701324","prefecture":"千葉県","prefecture_kana":"チバケン","city":"印西市","city_kana":"インザイシ","town":"平岡","town_kana":"ヒラオカ","prefecture_code":12},"1605":{"zip_code":"2701605","prefecture":"千葉県","prefecture_kana":"チバケン","city":"印西市","city_kana":"インザイシ","town":"平賀","town_kana":"ヒラカ","prefecture_code":12},"1606":{"zip_code":"2701606","prefecture":"千葉県","prefecture_kana":"チバケン","city":"印西市","city_kana":"インザイシ","town":"平賀学園台","town_kana":"ヒラカガクエンダイ","prefecture_code":12},"1345":{"zip_code":"2701345","prefecture":"千葉県","prefecture_kana":"チバケン","city":"印西市","city_kana":"インザイシ","town":"船尾","town_kana":"フナオ","prefecture_code":12},"1332":{"zip_code":"2701332","prefecture":"千葉県","prefecture_kana":"チバケン","city":"印西市","city_kana":"インザイシ","town":"別所","town_kana":"ベッショ","prefecture_code":12},"1361":{"zip_code":"2701361","prefecture":"千葉県","prefecture_kana":"チバケン","city":"印西市","city_kana":"インザイシ","town":"発作","town_kana":"ホッサク","prefecture_code":12},"1608":{"zip_code":"2701608","prefecture":"千葉県","prefecture_kana":"チバケン","city":"印西市","city_kana":"インザイシ","town":"舞姫","town_kana":"マイヒメ","prefecture_code":12},"1357":{"zip_code":"2701357","prefecture":"千葉県","prefecture_kana":"チバケン","city":"印西市","city_kana":"インザイシ","town":"牧の木戸","town_kana":"マキノキド","prefecture_code":12},"1339":{"zip_code":"2701339","prefecture":"千葉県","prefecture_kana":"チバケン","city":"印西市","city_kana":"インザイシ","town":"牧の台","town_kana":"マキノダイ","prefecture_code":12},"1331":{"zip_code":"2701331","prefecture":"千葉県","prefecture_kana":"チバケン","city":"印西市","city_kana":"インザイシ","town":"牧の原","town_kana":"マキノハラ","prefecture_code":12},"2307":{"zip_code":"2702307","prefecture":"千葉県","prefecture_kana":"チバケン","city":"印西市","city_kana":"インザイシ","town":"松木","town_kana":"マツキ","prefecture_code":12},"1344":{"zip_code":"2701344","prefecture":"千葉県","prefecture_kana":"チバケン","city":"印西市","city_kana":"インザイシ","town":"松崎","town_kana":"マツザキ","prefecture_code":12},"1338":{"zip_code":"2701338","prefecture":"千葉県","prefecture_kana":"チバケン","city":"印西市","city_kana":"インザイシ","town":"松崎台","town_kana":"マツザキダイ","prefecture_code":12},"1602":{"zip_code":"2701602","prefecture":"千葉県","prefecture_kana":"チバケン","city":"印西市","city_kana":"インザイシ","town":"松虫","town_kana":"マツムシ","prefecture_code":12},"1607":{"zip_code":"2701607","prefecture":"千葉県","prefecture_kana":"チバケン","city":"印西市","city_kana":"インザイシ","town":"美瀬","town_kana":"ミセ","prefecture_code":12},"2331":{"zip_code":"2702331","prefecture":"千葉県","prefecture_kana":"チバケン","city":"印西市","city_kana":"インザイシ","town":"みどり台","town_kana":"ミドリダイ","prefecture_code":12},"1354":{"zip_code":"2701354","prefecture":"千葉県","prefecture_kana":"チバケン","city":"印西市","city_kana":"インザイシ","town":"武西","town_kana":"ムザイ","prefecture_code":12},"1355":{"zip_code":"2701355","prefecture":"千葉県","prefecture_kana":"チバケン","city":"印西市","city_kana":"インザイシ","town":"武西学園台","town_kana":"ムザイガクエンダイ","prefecture_code":12},"2308":{"zip_code":"2702308","prefecture":"千葉県","prefecture_kana":"チバケン","city":"印西市","city_kana":"インザイシ","town":"本埜小林","town_kana":"モトノコバヤシ","prefecture_code":12},"2321":{"zip_code":"2702321","prefecture":"千葉県","prefecture_kana":"チバケン","city":"印西市","city_kana":"インザイシ","town":"物木","town_kana":"モノキ","prefecture_code":12},"1615":{"zip_code":"2701615","prefecture":"千葉県","prefecture_kana":"チバケン","city":"印西市","city_kana":"インザイシ","town":"師戸","town_kana":"モロト","prefecture_code":12},"1604":{"zip_code":"2701604","prefecture":"千葉県","prefecture_kana":"チバケン","city":"印西市","city_kana":"インザイシ","town":"山田","town_kana":"ヤマダ","prefecture_code":12},"1617":{"zip_code":"2701617","prefecture":"千葉県","prefecture_kana":"チバケン","city":"印西市","city_kana":"インザイシ","town":"吉田","town_kana":"ヨシダ","prefecture_code":12},"1603":{"zip_code":"2701603","prefecture":"千葉県","prefecture_kana":"チバケン","city":"印西市","city_kana":"インザイシ","town":"吉高","town_kana":"ヨシタカ","prefecture_code":12},"2327":{"zip_code":"2702327","prefecture":"千葉県","prefecture_kana":"チバケン","city":"印西市","city_kana":"インザイシ","town":"竜腹寺","town_kana":"リュウフクジ","prefecture_code":12},"1609":{"zip_code":"2701609","prefecture":"千葉県","prefecture_kana":"チバケン","city":"印西市","city_kana":"インザイシ","town":"若萩","town_kana":"ワカハギ","prefecture_code":12},"1400":{"zip_code":"2701400","prefecture":"千葉県","prefecture_kana":"チバケン","city":"白井市","city_kana":"シロイシ","town":"","town_kana":"","prefecture_code":12},"1425":{"zip_code":"2701425","prefecture":"千葉県","prefecture_kana":"チバケン","city":"白井市","city_kana":"シロイシ","town":"池の上","town_kana":"イケノカミ","prefecture_code":12},"1401":{"zip_code":"2701401","prefecture":"千葉県","prefecture_kana":"チバケン","city":"白井市","city_kana":"シロイシ","town":"今井","town_kana":"イマイ","prefecture_code":12},"1434":{"zip_code":"2701434","prefecture":"千葉県","prefecture_kana":"チバケン","city":"白井市","city_kana":"シロイシ","town":"大山口","town_kana":"オオヤマグチ","prefecture_code":12},"1404":{"zip_code":"2701404","prefecture":"千葉県","prefecture_kana":"チバケン","city":"白井市","city_kana":"シロイシ","town":"折立","town_kana":"オリタテ","prefecture_code":12},"1403":{"zip_code":"2701403","prefecture":"千葉県","prefecture_kana":"チバケン","city":"白井市","city_kana":"シロイシ","town":"河原子","town_kana":"カワラゴ","prefecture_code":12},"1437":{"zip_code":"2701437","prefecture":"千葉県","prefecture_kana":"チバケン","city":"白井市","city_kana":"シロイシ","town":"木","town_kana":"キ","prefecture_code":12},"1415":{"zip_code":"2701415","prefecture":"千葉県","prefecture_kana":"チバケン","city":"白井市","city_kana":"シロイシ","town":"清戸","town_kana":"キヨド","prefecture_code":12},"1433":{"zip_code":"2701433","prefecture":"千葉県","prefecture_kana":"チバケン","city":"白井市","city_kana":"シロイシ","town":"けやき台","town_kana":"ケヤキダイ","prefecture_code":12},"1412":{"zip_code":"2701412","prefecture":"千葉県","prefecture_kana":"チバケン","city":"白井市","city_kana":"シロイシ","town":"桜台","town_kana":"サクラダイ","prefecture_code":12},"1426":{"zip_code":"2701426","prefecture":"千葉県","prefecture_kana":"チバケン","city":"白井市","city_kana":"シロイシ","town":"笹塚","town_kana":"ササヅカ","prefecture_code":12},"1416":{"zip_code":"2701416","prefecture":"千葉県","prefecture_kana":"チバケン","city":"白井市","city_kana":"シロイシ","town":"神々廻","town_kana":"シシバ","prefecture_code":12},"1435":{"zip_code":"2701435","prefecture":"千葉県","prefecture_kana":"チバケン","city":"白井市","city_kana":"シロイシ","town":"清水口","town_kana":"シミズグチ","prefecture_code":12},"1421":{"zip_code":"2701421","prefecture":"千葉県","prefecture_kana":"チバケン","city":"白井市","city_kana":"シロイシ","town":"白井","town_kana":"シロイ","prefecture_code":12},"1439":{"zip_code":"2701439","prefecture":"千葉県","prefecture_kana":"チバケン","city":"白井市","city_kana":"シロイシ","town":"大松","town_kana":"ダイマツ","prefecture_code":12},"1405":{"zip_code":"2701405","prefecture":"千葉県","prefecture_kana":"チバケン","city":"白井市","city_kana":"シロイシ","town":"富塚","town_kana":"トミツカ","prefecture_code":12},"1411":{"zip_code":"2701411","prefecture":"千葉県","prefecture_kana":"チバケン","city":"白井市","city_kana":"シロイシ","town":"十余一","town_kana":"トヨイチ","prefecture_code":12},"1407":{"zip_code":"2701407","prefecture":"千葉県","prefecture_kana":"チバケン","city":"白井市","city_kana":"シロイシ","town":"名内","town_kana":"ナウチ","prefecture_code":12},"1406":{"zip_code":"2701406","prefecture":"千葉県","prefecture_kana":"チバケン","city":"白井市","city_kana":"シロイシ","town":"中","town_kana":"ナカ","prefecture_code":12},"1436":{"zip_code":"2701436","prefecture":"千葉県","prefecture_kana":"チバケン","city":"白井市","city_kana":"シロイシ","town":"七次台","town_kana":"ナナツギダイ","prefecture_code":12},"1408":{"zip_code":"2701408","prefecture":"千葉県","prefecture_kana":"チバケン","city":"白井市","city_kana":"シロイシ","town":"西白井","town_kana":"ニシシロイ","prefecture_code":12},"1431":{"zip_code":"2701431","prefecture":"千葉県","prefecture_kana":"チバケン","city":"白井市","city_kana":"シロイシ","town":"根","town_kana":"ネ","prefecture_code":12},"1438":{"zip_code":"2701438","prefecture":"千葉県","prefecture_kana":"チバケン","city":"白井市","city_kana":"シロイシ","town":"野口","town_kana":"ノグチ","prefecture_code":12},"1402":{"zip_code":"2701402","prefecture":"千葉県","prefecture_kana":"チバケン","city":"白井市","city_kana":"シロイシ","town":"平塚","town_kana":"ヒラツカ","prefecture_code":12},"1422":{"zip_code":"2701422","prefecture":"千葉県","prefecture_kana":"チバケン","city":"白井市","city_kana":"シロイシ","town":"復","town_kana":"フク","prefecture_code":12},"1432":{"zip_code":"2701432","prefecture":"千葉県","prefecture_kana":"チバケン","city":"白井市","city_kana":"シロイシ","town":"冨士","town_kana":"フジ","prefecture_code":12},"1424":{"zip_code":"2701424","prefecture":"千葉県","prefecture_kana":"チバケン","city":"白井市","city_kana":"シロイシ","town":"堀込","town_kana":"ホリゴメ","prefecture_code":12},"1423":{"zip_code":"2701423","prefecture":"千葉県","prefecture_kana":"チバケン","city":"白井市","city_kana":"シロイシ","town":"南山","town_kana":"ミナミヤマ","prefecture_code":12},"1413":{"zip_code":"2701413","prefecture":"千葉県","prefecture_kana":"チバケン","city":"白井市","city_kana":"シロイシ","town":"武西","town_kana":"ムザイ","prefecture_code":12},"1414":{"zip_code":"2701414","prefecture":"千葉県","prefecture_kana":"チバケン","city":"白井市","city_kana":"シロイシ","town":"谷田","town_kana":"ヤタ","prefecture_code":12},"1500":{"zip_code":"2701500","prefecture":"千葉県","prefecture_kana":"チバケン","city":"印旛郡栄町","city_kana":"インバグンサカエマチ","town":"","town_kana":"","prefecture_code":12},"1516":{"zip_code":"2701516","prefecture":"千葉県","prefecture_kana":"チバケン","city":"印旛郡栄町","city_kana":"インバグンサカエマチ","town":"安食","town_kana":"アジキ","prefecture_code":12},"1515":{"zip_code":"2701515","prefecture":"千葉県","prefecture_kana":"チバケン","city":"印旛郡栄町","city_kana":"インバグンサカエマチ","town":"安食台","town_kana":"アジキダイ","prefecture_code":12},"1517":{"zip_code":"2701517","prefecture":"千葉県","prefecture_kana":"チバケン","city":"印旛郡栄町","city_kana":"インバグンサカエマチ","town":"安食卜杭新田","town_kana":"アジキボツクイシンデン","prefecture_code":12},"1504":{"zip_code":"2701504","prefecture":"千葉県","prefecture_kana":"チバケン","city":"印旛郡栄町","city_kana":"インバグンサカエマチ","town":"麻生","town_kana":"アソウ","prefecture_code":12},"1543":{"zip_code":"2701543","prefecture":"千葉県","prefecture_kana":"チバケン","city":"印旛郡栄町","city_kana":"インバグンサカエマチ","town":"請方","town_kana":"ウケカタ","prefecture_code":12},"1526":{"zip_code":"2701526","prefecture":"千葉県","prefecture_kana":"チバケン","city":"印旛郡栄町","city_kana":"インバグンサカエマチ","town":"大森","town_kana":"オオモリ","prefecture_code":12},"1503":{"zip_code":"2701503","prefecture":"千葉県","prefecture_kana":"チバケン","city":"印旛郡栄町","city_kana":"インバグンサカエマチ","town":"興津","town_kana":"オキツ","prefecture_code":12},"1527":{"zip_code":"2701527","prefecture":"千葉県","prefecture_kana":"チバケン","city":"印旛郡栄町","city_kana":"インバグンサカエマチ","town":"押付","town_kana":"オシツケ","prefecture_code":12},"1545":{"zip_code":"2701545","prefecture":"千葉県","prefecture_kana":"チバケン","city":"印旛郡栄町","city_kana":"インバグンサカエマチ","town":"北","town_kana":"キタ","prefecture_code":12},"1511":{"zip_code":"2701511","prefecture":"千葉県","prefecture_kana":"チバケン","city":"印旛郡栄町","city_kana":"インバグンサカエマチ","town":"北辺田","town_kana":"キタベタ","prefecture_code":12},"1513":{"zip_code":"2701513","prefecture":"千葉県","prefecture_kana":"チバケン","city":"印旛郡栄町","city_kana":"インバグンサカエマチ","town":"酒直","town_kana":"サカナオ","prefecture_code":12},"1514":{"zip_code":"2701514","prefecture":"千葉県","prefecture_kana":"チバケン","city":"印旛郡栄町","city_kana":"インバグンサカエマチ","town":"酒直台","town_kana":"サカナオダイ","prefecture_code":12},"1525":{"zip_code":"2701525","prefecture":"千葉県","prefecture_kana":"チバケン","city":"印旛郡栄町","city_kana":"インバグンサカエマチ","town":"四箇","town_kana":"シカ","prefecture_code":12},"1512":{"zip_code":"2701512","prefecture":"千葉県","prefecture_kana":"チバケン","city":"印旛郡栄町","city_kana":"インバグンサカエマチ","town":"須賀","town_kana":"スカ","prefecture_code":12},"1531":{"zip_code":"2701531","prefecture":"千葉県","prefecture_kana":"チバケン","city":"印旛郡栄町","city_kana":"インバグンサカエマチ","town":"曽根","town_kana":"ソネ","prefecture_code":12},"1544":{"zip_code":"2701544","prefecture":"千葉県","prefecture_kana":"チバケン","city":"印旛郡栄町","city_kana":"インバグンサカエマチ","town":"中谷","town_kana":"ナカヤ","prefecture_code":12},"1524":{"zip_code":"2701524","prefecture":"千葉県","prefecture_kana":"チバケン","city":"印旛郡栄町","city_kana":"インバグンサカエマチ","town":"長門谷","town_kana":"ナガトヤ","prefecture_code":12},"1534":{"zip_code":"2701534","prefecture":"千葉県","prefecture_kana":"チバケン","city":"印旛郡栄町","city_kana":"インバグンサカエマチ","town":"西","town_kana":"ニシ","prefecture_code":12},"1522":{"zip_code":"2701522","prefecture":"千葉県","prefecture_kana":"チバケン","city":"印旛郡栄町","city_kana":"インバグンサカエマチ","town":"布鎌酒直","town_kana":"フカマサカナオ","prefecture_code":12},"1535":{"zip_code":"2701535","prefecture":"千葉県","prefecture_kana":"チバケン","city":"印旛郡栄町","city_kana":"インバグンサカエマチ","town":"布太","town_kana":"フダ","prefecture_code":12},"1546":{"zip_code":"2701546","prefecture":"千葉県","prefecture_kana":"チバケン","city":"印旛郡栄町","city_kana":"インバグンサカエマチ","town":"生板鍋子新田","town_kana":"マナイタナベコシンデン","prefecture_code":12},"1532":{"zip_code":"2701532","prefecture":"千葉県","prefecture_kana":"チバケン","city":"印旛郡栄町","city_kana":"インバグンサカエマチ","town":"南","town_kana":"ミナミ","prefecture_code":12},"1533":{"zip_code":"2701533","prefecture":"千葉県","prefecture_kana":"チバケン","city":"印旛郡栄町","city_kana":"インバグンサカエマチ","town":"南ケ丘","town_kana":"ミナミガオカ","prefecture_code":12},"1536":{"zip_code":"2701536","prefecture":"千葉県","prefecture_kana":"チバケン","city":"印旛郡栄町","city_kana":"インバグンサカエマチ","town":"三和","town_kana":"ミワ","prefecture_code":12},"1502":{"zip_code":"2701502","prefecture":"千葉県","prefecture_kana":"チバケン","city":"印旛郡栄町","city_kana":"インバグンサカエマチ","town":"矢口","town_kana":"ヤコウ","prefecture_code":12},"1501":{"zip_code":"2701501","prefecture":"千葉県","prefecture_kana":"チバケン","city":"印旛郡栄町","city_kana":"インバグンサカエマチ","town":"矢口神明","town_kana":"ヤコウシンメイ","prefecture_code":12},"1542":{"zip_code":"2701542","prefecture":"千葉県","prefecture_kana":"チバケン","city":"印旛郡栄町","city_kana":"インバグンサカエマチ","town":"四ッ谷","town_kana":"ヨツヤ","prefecture_code":12},"1506":{"zip_code":"2701506","prefecture":"千葉県","prefecture_kana":"チバケン","city":"印旛郡栄町","city_kana":"インバグンサカエマチ","town":"龍角寺","town_kana":"リュウカクジ","prefecture_code":12},"1505":{"zip_code":"2701505","prefecture":"千葉県","prefecture_kana":"チバケン","city":"印旛郡栄町","city_kana":"インバグンサカエマチ","town":"竜角寺台","town_kana":"リュウカクジダイ","prefecture_code":12},"1541":{"zip_code":"2701541","prefecture":"千葉県","prefecture_kana":"チバケン","city":"印旛郡栄町","city_kana":"インバグンサカエマチ","town":"龍ケ崎町歩","town_kana":"リュウガサキチョウブ","prefecture_code":12},"1523":{"zip_code":"2701523","prefecture":"千葉県","prefecture_kana":"チバケン","city":"印旛郡栄町","city_kana":"インバグンサカエマチ","town":"脇川","town_kana":"ワキカワ","prefecture_code":12},"1521":{"zip_code":"2701521","prefecture":"千葉県","prefecture_kana":"チバケン","city":"印旛郡栄町","city_kana":"インバグンサカエマチ","town":"和田","town_kana":"ワダ","prefecture_code":12}}