{"0000":{"zip_code":"2720000","prefecture":"千葉県","prefecture_kana":"チバケン","city":"市川市","city_kana":"イチカワシ","town":"以下に掲載がない場合","town_kana":"イカニケイサイガナイバアイ","prefecture_code":12},"0143":{"zip_code":"2720143","prefecture":"千葉県","prefecture_kana":"チバケン","city":"市川市","city_kana":"イチカワシ","town":"相之川","town_kana":"アイノカワ","prefecture_code":12},"0144":{"zip_code":"2720144","prefecture":"千葉県","prefecture_kana":"チバケン","city":"市川市","city_kana":"イチカワシ","town":"新井","town_kana":"アライ","prefecture_code":12},"0106":{"zip_code":"2720106","prefecture":"千葉県","prefecture_kana":"チバケン","city":"市川市","city_kana":"イチカワシ","town":"伊勢宿","town_kana":"イセジュク","prefecture_code":12},"0034":{"zip_code":"2720034","prefecture":"千葉県","prefecture_kana":"チバケン","city":"市川市","city_kana":"イチカワシ","town":"市川","town_kana":"イチカワ","prefecture_code":12},"0033":{"zip_code":"2720033","prefecture":"千葉県","prefecture_kana":"チバケン","city":"市川市","city_kana":"イチカワシ","town":"市川南","town_kana":"イチカワミナミ","prefecture_code":12},"0831":{"zip_code":"2720831","prefecture":"千葉県","prefecture_kana":"チバケン","city":"市川市","city_kana":"イチカワシ","town":"稲越町","town_kana":"イナゴシマチ","prefecture_code":12},"0134":{"zip_code":"2720134","prefecture":"千葉県","prefecture_kana":"チバケン","city":"市川市","city_kana":"イチカワシ","town":"入船","town_kana":"イリフネ","prefecture_code":12},"0032":{"zip_code":"2720032","prefecture":"千葉県","prefecture_kana":"チバケン","city":"市川市","city_kana":"イチカワシ","town":"大洲","town_kana":"オオス","prefecture_code":12},"0805":{"zip_code":"2720805","prefecture":"千葉県","prefecture_kana":"チバケン","city":"市川市","city_kana":"イチカワシ","town":"大野町","town_kana":"オオノマチ","prefecture_code":12},"0801":{"zip_code":"2720801","prefecture":"千葉県","prefecture_kana":"チバケン","city":"市川市","city_kana":"イチカワシ","town":"大町","town_kana":"オオマチ","prefecture_code":12},"0025":{"zip_code":"2720025","prefecture":"千葉県","prefecture_kana":"チバケン","city":"市川市","city_kana":"イチカワシ","town":"大和田","town_kana":"オオワダ","prefecture_code":12},"0107":{"zip_code":"2720107","prefecture":"千葉県","prefecture_kana":"チバケン","city":"市川市","city_kana":"イチカワシ","town":"押切","town_kana":"オシキリ","prefecture_code":12},"0022":{"zip_code":"2720022","prefecture":"千葉県","prefecture_kana":"チバケン","city":"市川市","city_kana":"イチカワシ","town":"鬼越","town_kana":"オニゴエ","prefecture_code":12},"0015":{"zip_code":"2720015","prefecture":"千葉県","prefecture_kana":"チバケン","city":"市川市","city_kana":"イチカワシ","town":"鬼高","town_kana":"オニタカ","prefecture_code":12},"0142":{"zip_code":"2720142","prefecture":"千葉県","prefecture_kana":"チバケン","city":"市川市","city_kana":"イチカワシ","town":"欠真間","town_kana":"カケママ","prefecture_code":12},"0802":{"zip_code":"2720802","prefecture":"千葉県","prefecture_kana":"チバケン","city":"市川市","city_kana":"イチカワシ","town":"柏井町","town_kana":"カシワイマチ","prefecture_code":12},"0124":{"zip_code":"2720124","prefecture":"千葉県","prefecture_kana":"チバケン","city":"市川市","city_kana":"イチカワシ","town":"加藤新田","town_kana":"カトウシンデン","prefecture_code":12},"0112":{"zip_code":"2720112","prefecture":"千葉県","prefecture_kana":"チバケン","city":"市川市","city_kana":"イチカワシ","town":"上妙典（１〜９９９番地）","town_kana":"カミミョウデン(1-999バンチ)","prefecture_code":12},"0012":{"zip_code":"2720012","prefecture":"千葉県","prefecture_kana":"チバケン","city":"市川市","city_kana":"イチカワシ","town":"上妙典（その他）","town_kana":"カミミョウデン(ソノタ)","prefecture_code":12},"0101":{"zip_code":"2720101","prefecture":"千葉県","prefecture_kana":"チバケン","city":"市川市","city_kana":"イチカワシ","town":"河原","town_kana":"カワラ","prefecture_code":12},"0141":{"zip_code":"2720141","prefecture":"千葉県","prefecture_kana":"チバケン","city":"市川市","city_kana":"イチカワシ","town":"香取","town_kana":"カンドリ","prefecture_code":12},"0815":{"zip_code":"2720815","prefecture":"千葉県","prefecture_kana":"チバケン","city":"市川市","city_kana":"イチカワシ","town":"北方","town_kana":"キタカタ","prefecture_code":12},"0836":{"zip_code":"2720836","prefecture":"千葉県","prefecture_kana":"チバケン","city":"市川市","city_kana":"イチカワシ","town":"北国分","town_kana":"キタコクブン","prefecture_code":12},"0133":{"zip_code":"2720133","prefecture":"千葉県","prefecture_kana":"チバケン","city":"市川市","city_kana":"イチカワシ","town":"行徳駅前","town_kana":"ギョウトクエキマエ","prefecture_code":12},"0827":{"zip_code":"2720827","prefecture":"千葉県","prefecture_kana":"チバケン","city":"市川市","city_kana":"イチカワシ","town":"国府台","town_kana":"コウノダイ","prefecture_code":12},"0013":{"zip_code":"2720013","prefecture":"千葉県","prefecture_kana":"チバケン","city":"市川市","city_kana":"イチカワシ","town":"高谷","town_kana":"コウヤ","prefecture_code":12},"0011":{"zip_code":"2720011","prefecture":"千葉県","prefecture_kana":"チバケン","city":"市川市","city_kana":"イチカワシ","town":"高谷新町","town_kana":"コウヤシンマチ","prefecture_code":12},"0834":{"zip_code":"2720834","prefecture":"千葉県","prefecture_kana":"チバケン","city":"市川市","city_kana":"イチカワシ","town":"国分","town_kana":"コクブン","prefecture_code":12},"0123":{"zip_code":"2720123","prefecture":"千葉県","prefecture_kana":"チバケン","city":"市川市","city_kana":"イチカワシ","town":"幸","town_kana":"サイワイ","prefecture_code":12},"0127":{"zip_code":"2720127","prefecture":"千葉県","prefecture_kana":"チバケン","city":"市川市","city_kana":"イチカワシ","town":"塩浜","town_kana":"シオハマ","prefecture_code":12},"0114":{"zip_code":"2720114","prefecture":"千葉県","prefecture_kana":"チバケン","city":"市川市","city_kana":"イチカワシ","town":"塩焼","town_kana":"シオヤキ","prefecture_code":12},"0145":{"zip_code":"2720145","prefecture":"千葉県","prefecture_kana":"チバケン","city":"市川市","city_kana":"イチカワシ","town":"島尻","town_kana":"シマジリ","prefecture_code":12},"0821":{"zip_code":"2720821","prefecture":"千葉県","prefecture_kana":"チバケン","city":"市川市","city_kana":"イチカワシ","town":"下貝塚","town_kana":"シモカイヅカ","prefecture_code":12},"0102":{"zip_code":"2720102","prefecture":"千葉県","prefecture_kana":"チバケン","city":"市川市","city_kana":"イチカワシ","town":"下新宿","town_kana":"シモシンシュク","prefecture_code":12},"0113":{"zip_code":"2720113","prefecture":"千葉県","prefecture_kana":"チバケン","city":"市川市","city_kana":"イチカワシ","town":"下妙典","town_kana":"シモミョウデン","prefecture_code":12},"0035":{"zip_code":"2720035","prefecture":"千葉県","prefecture_kana":"チバケン","city":"市川市","city_kana":"イチカワシ","town":"新田","town_kana":"シンデン","prefecture_code":12},"0121":{"zip_code":"2720121","prefecture":"千葉県","prefecture_kana":"チバケン","city":"市川市","city_kana":"イチカワシ","town":"末広","town_kana":"スエヒロ","prefecture_code":12},"0824":{"zip_code":"2720824","prefecture":"千葉県","prefecture_kana":"チバケン","city":"市川市","city_kana":"イチカワシ","town":"菅野","town_kana":"スガノ","prefecture_code":12},"0825":{"zip_code":"2720825","prefecture":"千葉県","prefecture_kana":"チバケン","city":"市川市","city_kana":"イチカワシ","town":"須和田","town_kana":"スワダ","prefecture_code":12},"0105":{"zip_code":"2720105","prefecture":"千葉県","prefecture_kana":"チバケン","city":"市川市","city_kana":"イチカワシ","town":"関ケ島","town_kana":"セキガシマ","prefecture_code":12},"0832":{"zip_code":"2720832","prefecture":"千葉県","prefecture_kana":"チバケン","city":"市川市","city_kana":"イチカワシ","town":"曽谷","town_kana":"ソヤ","prefecture_code":12},"0814":{"zip_code":"2720814","prefecture":"千葉県","prefecture_kana":"チバケン","city":"市川市","city_kana":"イチカワシ","town":"高石神","town_kana":"タカイシガミ","prefecture_code":12},"0125":{"zip_code":"2720125","prefecture":"千葉県","prefecture_kana":"チバケン","city":"市川市","city_kana":"イチカワシ","town":"高浜町","town_kana":"タカハママチ","prefecture_code":12},"0122":{"zip_code":"2720122","prefecture":"千葉県","prefecture_kana":"チバケン","city":"市川市","city_kana":"イチカワシ","town":"宝","town_kana":"タカラ","prefecture_code":12},"0014":{"zip_code":"2720014","prefecture":"千葉県","prefecture_kana":"チバケン","city":"市川市","city_kana":"イチカワシ","town":"田尻","town_kana":"タジリ","prefecture_code":12},"0126":{"zip_code":"2720126","prefecture":"千葉県","prefecture_kana":"チバケン","city":"市川市","city_kana":"イチカワシ","town":"千鳥町","town_kana":"チドリチョウ","prefecture_code":12},"0024":{"zip_code":"2720024","prefecture":"千葉県","prefecture_kana":"チバケン","city":"市川市","city_kana":"イチカワシ","town":"稲荷木","town_kana":"トウカギ","prefecture_code":12},"0115":{"zip_code":"2720115","prefecture":"千葉県","prefecture_kana":"チバケン","city":"市川市","city_kana":"イチカワシ","town":"富浜","town_kana":"トミハマ","prefecture_code":12},"0835":{"zip_code":"2720835","prefecture":"千葉県","prefecture_kana":"チバケン","city":"市川市","city_kana":"イチカワシ","town":"中国分","town_kana":"ナカコクブン","prefecture_code":12},"0813":{"zip_code":"2720813","prefecture":"千葉県","prefecture_kana":"チバケン","city":"市川市","city_kana":"イチカワシ","town":"中山","town_kana":"ナカヤマ","prefecture_code":12},"0136":{"zip_code":"2720136","prefecture":"千葉県","prefecture_kana":"チバケン","city":"市川市","city_kana":"イチカワシ","town":"新浜","town_kana":"ニイハマ","prefecture_code":12},"0004":{"zip_code":"2720004","prefecture":"千葉県","prefecture_kana":"チバケン","city":"市川市","city_kana":"イチカワシ","town":"原木","town_kana":"バラキ","prefecture_code":12},"0026":{"zip_code":"2720026","prefecture":"千葉県","prefecture_kana":"チバケン","city":"市川市","city_kana":"イチカワシ","town":"東大和田","town_kana":"ヒガシオオワダ","prefecture_code":12},"0833":{"zip_code":"2720833","prefecture":"千葉県","prefecture_kana":"チバケン","city":"市川市","city_kana":"イチカワシ","town":"東国分","town_kana":"ヒガシコクブン","prefecture_code":12},"0823":{"zip_code":"2720823","prefecture":"千葉県","prefecture_kana":"チバケン","city":"市川市","city_kana":"イチカワシ","town":"東菅野","town_kana":"ヒガシスガノ","prefecture_code":12},"0003":{"zip_code":"2720003","prefecture":"千葉県","prefecture_kana":"チバケン","city":"市川市","city_kana":"イチカワシ","town":"東浜","town_kana":"ヒガシハマ","prefecture_code":12},"0135":{"zip_code":"2720135","prefecture":"千葉県","prefecture_kana":"チバケン","city":"市川市","city_kana":"イチカワシ","town":"日之出","town_kana":"ヒノデ","prefecture_code":12},"0031":{"zip_code":"2720031","prefecture":"千葉県","prefecture_kana":"チバケン","city":"市川市","city_kana":"イチカワシ","town":"平田","town_kana":"ヒラタ","prefecture_code":12},"0146":{"zip_code":"2720146","prefecture":"千葉県","prefecture_kana":"チバケン","city":"市川市","city_kana":"イチカワシ","town":"広尾","town_kana":"ヒロオ","prefecture_code":12},"0137":{"zip_code":"2720137","prefecture":"千葉県","prefecture_kana":"チバケン","city":"市川市","city_kana":"イチカワシ","town":"福栄","town_kana":"フクエイ","prefecture_code":12},"0001":{"zip_code":"2720001","prefecture":"千葉県","prefecture_kana":"チバケン","city":"市川市","city_kana":"イチカワシ","town":"二俣","town_kana":"フタマタ","prefecture_code":12},"0002":{"zip_code":"2720002","prefecture":"千葉県","prefecture_kana":"チバケン","city":"市川市","city_kana":"イチカワシ","town":"二俣新町","town_kana":"フタマタシンマチ","prefecture_code":12},"0803":{"zip_code":"2720803","prefecture":"千葉県","prefecture_kana":"チバケン","city":"市川市","city_kana":"イチカワシ","town":"奉免町","town_kana":"ホウメマチ","prefecture_code":12},"0811":{"zip_code":"2720811","prefecture":"千葉県","prefecture_kana":"チバケン","city":"市川市","city_kana":"イチカワシ","town":"北方町","town_kana":"ボッケマチ","prefecture_code":12},"0837":{"zip_code":"2720837","prefecture":"千葉県","prefecture_kana":"チバケン","city":"市川市","city_kana":"イチカワシ","town":"堀之内","town_kana":"ホリノウチ","prefecture_code":12},"0103":{"zip_code":"2720103","prefecture":"千葉県","prefecture_kana":"チバケン","city":"市川市","city_kana":"イチカワシ","town":"本行徳","town_kana":"ホンギョウトク","prefecture_code":12},"0104":{"zip_code":"2720104","prefecture":"千葉県","prefecture_kana":"チバケン","city":"市川市","city_kana":"イチカワシ","town":"本塩","town_kana":"ホンシオ","prefecture_code":12},"0826":{"zip_code":"2720826","prefecture":"千葉県","prefecture_kana":"チバケン","city":"市川市","city_kana":"イチカワシ","town":"真間","town_kana":"ママ","prefecture_code":12},"0131":{"zip_code":"2720131","prefecture":"千葉県","prefecture_kana":"チバケン","city":"市川市","city_kana":"イチカワシ","town":"湊","town_kana":"ミナト","prefecture_code":12},"0132":{"zip_code":"2720132","prefecture":"千葉県","prefecture_kana":"チバケン","city":"市川市","city_kana":"イチカワシ","town":"湊新田","town_kana":"ミナトシンデン","prefecture_code":12},"0804":{"zip_code":"2720804","prefecture":"千葉県","prefecture_kana":"チバケン","city":"市川市","city_kana":"イチカワシ","town":"南大野","town_kana":"ミナミオオノ","prefecture_code":12},"0138":{"zip_code":"2720138","prefecture":"千葉県","prefecture_kana":"チバケン","city":"市川市","city_kana":"イチカワシ","town":"南行徳","town_kana":"ミナミギョウトク","prefecture_code":12},"0023":{"zip_code":"2720023","prefecture":"千葉県","prefecture_kana":"チバケン","city":"市川市","city_kana":"イチカワシ","town":"南八幡","town_kana":"ミナミヤワタ","prefecture_code":12},"0822":{"zip_code":"2720822","prefecture":"千葉県","prefecture_kana":"チバケン","city":"市川市","city_kana":"イチカワシ","town":"宮久保","town_kana":"ミヤクボ","prefecture_code":12},"0111":{"zip_code":"2720111","prefecture":"千葉県","prefecture_kana":"チバケン","city":"市川市","city_kana":"イチカワシ","town":"妙典","town_kana":"ミョウデン","prefecture_code":12},"0816":{"zip_code":"2720816","prefecture":"千葉県","prefecture_kana":"チバケン","city":"市川市","city_kana":"イチカワシ","town":"本北方","town_kana":"モトキタカタ","prefecture_code":12},"0021":{"zip_code":"2720021","prefecture":"千葉県","prefecture_kana":"チバケン","city":"市川市","city_kana":"イチカワシ","town":"八幡","town_kana":"ヤワタ","prefecture_code":12},"0812":{"zip_code":"2720812","prefecture":"千葉県","prefecture_kana":"チバケン","city":"市川市","city_kana":"イチカワシ","town":"若宮","town_kana":"ワカミヤ","prefecture_code":12}}