{"0000":{"zip_code":"2730000","prefecture":"千葉県","prefecture_kana":"チバケン","city":"船橋市","city_kana":"フナバシシ","town":"","town_kana":"","prefecture_code":12},"0041":{"zip_code":"2730041","prefecture":"千葉県","prefecture_kana":"チバケン","city":"船橋市","city_kana":"フナバシシ","town":"旭町","town_kana":"アサヒチョウ","prefecture_code":12},"0863":{"zip_code":"2730863","prefecture":"千葉県","prefecture_kana":"チバケン","city":"船橋市","city_kana":"フナバシシ","town":"東町","town_kana":"アズマチョウ","prefecture_code":12},"0001":{"zip_code":"2730001","prefecture":"千葉県","prefecture_kana":"チバケン","city":"船橋市","city_kana":"フナバシシ","town":"市場","town_kana":"イチバ","prefecture_code":12},"0039":{"zip_code":"2730039","prefecture":"千葉県","prefecture_kana":"チバケン","city":"船橋市","city_kana":"フナバシシ","town":"印内","town_kana":"インナイ","prefecture_code":12},"0025":{"zip_code":"2730025","prefecture":"千葉県","prefecture_kana":"チバケン","city":"船橋市","city_kana":"フナバシシ","town":"印内町","town_kana":"インナイチョウ","prefecture_code":12},"0021":{"zip_code":"2730021","prefecture":"千葉県","prefecture_kana":"チバケン","city":"船橋市","city_kana":"フナバシシ","town":"海神","town_kana":"カイジン","prefecture_code":12},"0022":{"zip_code":"2730022","prefecture":"千葉県","prefecture_kana":"チバケン","city":"船橋市","city_kana":"フナバシシ","town":"海神町","town_kana":"カイジンチョウ","prefecture_code":12},"0028":{"zip_code":"2730028","prefecture":"千葉県","prefecture_kana":"チバケン","city":"船橋市","city_kana":"フナバシシ","town":"海神町東","town_kana":"カイジンチョウヒガシ","prefecture_code":12},"0027":{"zip_code":"2730027","prefecture":"千葉県","prefecture_kana":"チバケン","city":"船橋市","city_kana":"フナバシシ","town":"海神町西","town_kana":"カイジンチョウニシ","prefecture_code":12},"0024":{"zip_code":"2730024","prefecture":"千葉県","prefecture_kana":"チバケン","city":"船橋市","city_kana":"フナバシシ","town":"海神町南","town_kana":"カイジンチョウミナミ","prefecture_code":12},"0032":{"zip_code":"2730032","prefecture":"千葉県","prefecture_kana":"チバケン","city":"船橋市","city_kana":"フナバシシ","town":"葛飾町","town_kana":"カツシカチョウ","prefecture_code":12},"0853":{"zip_code":"2730853","prefecture":"千葉県","prefecture_kana":"チバケン","city":"船橋市","city_kana":"フナバシシ","town":"金杉","town_kana":"カナスギ","prefecture_code":12},"0852":{"zip_code":"2730852","prefecture":"千葉県","prefecture_kana":"チバケン","city":"船橋市","city_kana":"フナバシシ","town":"金杉台","town_kana":"カナスギダイ","prefecture_code":12},"0854":{"zip_code":"2730854","prefecture":"千葉県","prefecture_kana":"チバケン","city":"船橋市","city_kana":"フナバシシ","town":"金杉町","town_kana":"カナスギチョウ","prefecture_code":12},"0046":{"zip_code":"2730046","prefecture":"千葉県","prefecture_kana":"チバケン","city":"船橋市","city_kana":"フナバシシ","town":"上山町","town_kana":"カミヤマチョウ","prefecture_code":12},"0864":{"zip_code":"2730864","prefecture":"千葉県","prefecture_kana":"チバケン","city":"船橋市","city_kana":"フナバシシ","town":"北本町","town_kana":"キタホンチョウ","prefecture_code":12},"0044":{"zip_code":"2730044","prefecture":"千葉県","prefecture_kana":"チバケン","city":"船橋市","city_kana":"フナバシシ","town":"行田","town_kana":"ギョウダ","prefecture_code":12},"0043":{"zip_code":"2730043","prefecture":"千葉県","prefecture_kana":"チバケン","city":"船橋市","city_kana":"フナバシシ","town":"行田町","town_kana":"ギョウダチョウ","prefecture_code":12},"0037":{"zip_code":"2730037","prefecture":"千葉県","prefecture_kana":"チバケン","city":"船橋市","city_kana":"フナバシシ","town":"古作","town_kana":"コサク","prefecture_code":12},"0038":{"zip_code":"2730038","prefecture":"千葉県","prefecture_kana":"チバケン","city":"船橋市","city_kana":"フナバシシ","town":"古作町","town_kana":"コサクチョウ","prefecture_code":12},"0861":{"zip_code":"2730861","prefecture":"千葉県","prefecture_kana":"チバケン","city":"船橋市","city_kana":"フナバシシ","town":"米ケ崎町","town_kana":"コメガサキチョウ","prefecture_code":12},"0018":{"zip_code":"2730018","prefecture":"千葉県","prefecture_kana":"チバケン","city":"船橋市","city_kana":"フナバシシ","town":"栄町","town_kana":"サカエチョウ","prefecture_code":12},"0016":{"zip_code":"2730016","prefecture":"千葉県","prefecture_kana":"チバケン","city":"船橋市","city_kana":"フナバシシ","town":"潮見町","town_kana":"シオミチョウ","prefecture_code":12},"0862":{"zip_code":"2730862","prefecture":"千葉県","prefecture_kana":"チバケン","city":"船橋市","city_kana":"フナバシシ","town":"駿河台","town_kana":"スルガダイ","prefecture_code":12},"0014":{"zip_code":"2730014","prefecture":"千葉県","prefecture_kana":"チバケン","city":"船橋市","city_kana":"フナバシシ","town":"高瀬町","town_kana":"タカセチョウ","prefecture_code":12},"0865":{"zip_code":"2730865","prefecture":"千葉県","prefecture_kana":"チバケン","city":"船橋市","city_kana":"フナバシシ","town":"夏見","town_kana":"ナツミ","prefecture_code":12},"0866":{"zip_code":"2730866","prefecture":"千葉県","prefecture_kana":"チバケン","city":"船橋市","city_kana":"フナバシシ","town":"夏見台","town_kana":"ナツミダイ","prefecture_code":12},"0867":{"zip_code":"2730867","prefecture":"千葉県","prefecture_kana":"チバケン","city":"船橋市","city_kana":"フナバシシ","town":"夏見町","town_kana":"ナツミチョウ","prefecture_code":12},"0017":{"zip_code":"2730017","prefecture":"千葉県","prefecture_kana":"チバケン","city":"船橋市","city_kana":"フナバシシ","town":"西浦","town_kana":"ニシウラ","prefecture_code":12},"0031":{"zip_code":"2730031","prefecture":"千葉県","prefecture_kana":"チバケン","city":"船橋市","city_kana":"フナバシシ","town":"西船","town_kana":"ニシフナ","prefecture_code":12},"0012":{"zip_code":"2730012","prefecture":"千葉県","prefecture_kana":"チバケン","city":"船橋市","city_kana":"フナバシシ","town":"浜町","town_kana":"ハマチョウ","prefecture_code":12},"0036":{"zip_code":"2730036","prefecture":"千葉県","prefecture_kana":"チバケン","city":"船橋市","city_kana":"フナバシシ","town":"東中山","town_kana":"ヒガシナカヤマ","prefecture_code":12},"0002":{"zip_code":"2730002","prefecture":"千葉県","prefecture_kana":"チバケン","city":"船橋市","city_kana":"フナバシシ","town":"東船橋","town_kana":"ヒガシフナバシ","prefecture_code":12},"0015":{"zip_code":"2730015","prefecture":"千葉県","prefecture_kana":"チバケン","city":"船橋市","city_kana":"フナバシシ","town":"日の出","town_kana":"ヒノデ","prefecture_code":12},"0047":{"zip_code":"2730047","prefecture":"千葉県","prefecture_kana":"チバケン","city":"船橋市","city_kana":"フナバシシ","town":"藤原","town_kana":"フジワラ","prefecture_code":12},"0034":{"zip_code":"2730034","prefecture":"千葉県","prefecture_kana":"チバケン","city":"船橋市","city_kana":"フナバシシ","town":"二子町","town_kana":"フタゴチョウ","prefecture_code":12},"0033":{"zip_code":"2730033","prefecture":"千葉県","prefecture_kana":"チバケン","city":"船橋市","city_kana":"フナバシシ","town":"本郷町","town_kana":"ホンゴウチョウ","prefecture_code":12},"0005":{"zip_code":"2730005","prefecture":"千葉県","prefecture_kana":"チバケン","city":"船橋市","city_kana":"フナバシシ","town":"本町","town_kana":"ホンチョウ","prefecture_code":12},"0042":{"zip_code":"2730042","prefecture":"千葉県","prefecture_kana":"チバケン","city":"船橋市","city_kana":"フナバシシ","town":"前貝塚町","town_kana":"マエカイヅカチョウ","prefecture_code":12},"0851":{"zip_code":"2730851","prefecture":"千葉県","prefecture_kana":"チバケン","city":"船橋市","city_kana":"フナバシシ","town":"馬込町","town_kana":"マゴメチョウ","prefecture_code":12},"0855":{"zip_code":"2730855","prefecture":"千葉県","prefecture_kana":"チバケン","city":"船橋市","city_kana":"フナバシシ","town":"馬込西","town_kana":"マゴメニシ","prefecture_code":12},"0048":{"zip_code":"2730048","prefecture":"千葉県","prefecture_kana":"チバケン","city":"船橋市","city_kana":"フナバシシ","town":"丸山","town_kana":"マルヤマ","prefecture_code":12},"0011":{"zip_code":"2730011","prefecture":"千葉県","prefecture_kana":"チバケン","city":"船橋市","city_kana":"フナバシシ","town":"湊町","town_kana":"ミナトチョウ","prefecture_code":12},"0023":{"zip_code":"2730023","prefecture":"千葉県","prefecture_kana":"チバケン","city":"船橋市","city_kana":"フナバシシ","town":"南海神","town_kana":"ミナミカイジン","prefecture_code":12},"0004":{"zip_code":"2730004","prefecture":"千葉県","prefecture_kana":"チバケン","city":"船橋市","city_kana":"フナバシシ","town":"南本町","town_kana":"ミナミホンチョウ","prefecture_code":12},"0003":{"zip_code":"2730003","prefecture":"千葉県","prefecture_kana":"チバケン","city":"船橋市","city_kana":"フナバシシ","town":"宮本","town_kana":"ミヤモト","prefecture_code":12},"0035":{"zip_code":"2730035","prefecture":"千葉県","prefecture_kana":"チバケン","city":"船橋市","city_kana":"フナバシシ","town":"本中山","town_kana":"モトナカヤマ","prefecture_code":12},"0045":{"zip_code":"2730045","prefecture":"千葉県","prefecture_kana":"チバケン","city":"船橋市","city_kana":"フナバシシ","town":"山手","town_kana":"ヤマテ","prefecture_code":12},"0026":{"zip_code":"2730026","prefecture":"千葉県","prefecture_kana":"チバケン","city":"船橋市","city_kana":"フナバシシ","town":"山野町","town_kana":"ヤマノチョウ","prefecture_code":12},"0013":{"zip_code":"2730013","prefecture":"千葉県","prefecture_kana":"チバケン","city":"船橋市","city_kana":"フナバシシ","town":"若松","town_kana":"ワカマツ","prefecture_code":12},"0100":{"zip_code":"2730100","prefecture":"千葉県","prefecture_kana":"チバケン","city":"鎌ケ谷市","city_kana":"カマガヤシ","town":"","town_kana":"","prefecture_code":12},"0132":{"zip_code":"2730132","prefecture":"千葉県","prefecture_kana":"チバケン","city":"鎌ケ谷市","city_kana":"カマガヤシ","town":"粟野","town_kana":"アワノ","prefecture_code":12},"0102":{"zip_code":"2730102","prefecture":"千葉県","prefecture_kana":"チバケン","city":"鎌ケ谷市","city_kana":"カマガヤシ","town":"右京塚","town_kana":"ウキョウヅカ","prefecture_code":12},"0105":{"zip_code":"2730105","prefecture":"千葉県","prefecture_kana":"チバケン","city":"鎌ケ谷市","city_kana":"カマガヤシ","town":"鎌ケ谷","town_kana":"カマガヤ","prefecture_code":12},"0131":{"zip_code":"2730131","prefecture":"千葉県","prefecture_kana":"チバケン","city":"鎌ケ谷市","city_kana":"カマガヤシ","town":"軽井沢","town_kana":"カルイザワ","prefecture_code":12},"0111":{"zip_code":"2730111","prefecture":"千葉県","prefecture_kana":"チバケン","city":"鎌ケ谷市","city_kana":"カマガヤシ","town":"北中沢","town_kana":"キタナカザワ","prefecture_code":12},"0126":{"zip_code":"2730126","prefecture":"千葉県","prefecture_kana":"チバケン","city":"鎌ケ谷市","city_kana":"カマガヤシ","town":"北初富","town_kana":"キタハツトミ","prefecture_code":12},"0127":{"zip_code":"2730127","prefecture":"千葉県","prefecture_kana":"チバケン","city":"鎌ケ谷市","city_kana":"カマガヤシ","town":"串崎新田","town_kana":"クシザキシンデン","prefecture_code":12},"0128":{"zip_code":"2730128","prefecture":"千葉県","prefecture_kana":"チバケン","city":"鎌ケ谷市","city_kana":"カマガヤシ","town":"くぬぎ山","town_kana":"クヌギヤマ","prefecture_code":12},"0136":{"zip_code":"2730136","prefecture":"千葉県","prefecture_kana":"チバケン","city":"鎌ケ谷市","city_kana":"カマガヤシ","town":"佐津間","town_kana":"サツマ","prefecture_code":12},"0107":{"zip_code":"2730107","prefecture":"千葉県","prefecture_kana":"チバケン","city":"鎌ケ谷市","city_kana":"カマガヤシ","town":"新鎌ケ谷","town_kana":"シンカマガヤ","prefecture_code":12},"0124":{"zip_code":"2730124","prefecture":"千葉県","prefecture_kana":"チバケン","city":"鎌ケ谷市","city_kana":"カマガヤシ","town":"中央","town_kana":"チュウオウ","prefecture_code":12},"0101":{"zip_code":"2730101","prefecture":"千葉県","prefecture_kana":"チバケン","city":"鎌ケ谷市","city_kana":"カマガヤシ","town":"富岡","town_kana":"トミオカ","prefecture_code":12},"0135":{"zip_code":"2730135","prefecture":"千葉県","prefecture_kana":"チバケン","city":"鎌ケ谷市","city_kana":"カマガヤシ","town":"中佐津間","town_kana":"ナカサツマ","prefecture_code":12},"0118":{"zip_code":"2730118","prefecture":"千葉県","prefecture_kana":"チバケン","city":"鎌ケ谷市","city_kana":"カマガヤシ","town":"中沢","town_kana":"ナカザワ","prefecture_code":12},"0119":{"zip_code":"2730119","prefecture":"千葉県","prefecture_kana":"チバケン","city":"鎌ケ谷市","city_kana":"カマガヤシ","town":"中沢新町","town_kana":"ナカザワシンマチ","prefecture_code":12},"0134":{"zip_code":"2730134","prefecture":"千葉県","prefecture_kana":"チバケン","city":"鎌ケ谷市","city_kana":"カマガヤシ","town":"西佐津間","town_kana":"ニシサツマ","prefecture_code":12},"0117":{"zip_code":"2730117","prefecture":"千葉県","prefecture_kana":"チバケン","city":"鎌ケ谷市","city_kana":"カマガヤシ","town":"西道野辺","town_kana":"ニシミチノベ","prefecture_code":12},"0121":{"zip_code":"2730121","prefecture":"千葉県","prefecture_kana":"チバケン","city":"鎌ケ谷市","city_kana":"カマガヤシ","town":"初富","town_kana":"ハツトミ","prefecture_code":12},"0125":{"zip_code":"2730125","prefecture":"千葉県","prefecture_kana":"チバケン","city":"鎌ケ谷市","city_kana":"カマガヤシ","town":"初富本町","town_kana":"ハツトミホンチョウ","prefecture_code":12},"0104":{"zip_code":"2730104","prefecture":"千葉県","prefecture_kana":"チバケン","city":"鎌ケ谷市","city_kana":"カマガヤシ","town":"東鎌ケ谷","town_kana":"ヒガシカマガヤ","prefecture_code":12},"0112":{"zip_code":"2730112","prefecture":"千葉県","prefecture_kana":"チバケン","city":"鎌ケ谷市","city_kana":"カマガヤシ","town":"東中沢","town_kana":"ヒガシナカザワ","prefecture_code":12},"0122":{"zip_code":"2730122","prefecture":"千葉県","prefecture_kana":"チバケン","city":"鎌ケ谷市","city_kana":"カマガヤシ","town":"東初富","town_kana":"ヒガシハツトミ","prefecture_code":12},"0115":{"zip_code":"2730115","prefecture":"千葉県","prefecture_kana":"チバケン","city":"鎌ケ谷市","city_kana":"カマガヤシ","town":"東道野辺","town_kana":"ヒガシミチノベ","prefecture_code":12},"0116":{"zip_code":"2730116","prefecture":"千葉県","prefecture_kana":"チバケン","city":"鎌ケ谷市","city_kana":"カマガヤシ","town":"馬込沢","town_kana":"マゴメザワ","prefecture_code":12},"0103":{"zip_code":"2730103","prefecture":"千葉県","prefecture_kana":"チバケン","city":"鎌ケ谷市","city_kana":"カマガヤシ","town":"丸山","town_kana":"マルヤマ","prefecture_code":12},"0114":{"zip_code":"2730114","prefecture":"千葉県","prefecture_kana":"チバケン","city":"鎌ケ谷市","city_kana":"カマガヤシ","town":"道野辺","town_kana":"ミチノベ","prefecture_code":12},"0113":{"zip_code":"2730113","prefecture":"千葉県","prefecture_kana":"チバケン","city":"鎌ケ谷市","city_kana":"カマガヤシ","town":"道野辺中央","town_kana":"ミチノベチュウオウ","prefecture_code":12},"0137":{"zip_code":"2730137","prefecture":"千葉県","prefecture_kana":"チバケン","city":"鎌ケ谷市","city_kana":"カマガヤシ","town":"道野辺本町","town_kana":"ミチノベホンチョウ","prefecture_code":12},"0106":{"zip_code":"2730106","prefecture":"千葉県","prefecture_kana":"チバケン","city":"鎌ケ谷市","city_kana":"カマガヤシ","town":"南鎌ケ谷","town_kana":"ミナミカマガヤ","prefecture_code":12},"0133":{"zip_code":"2730133","prefecture":"千葉県","prefecture_kana":"チバケン","city":"鎌ケ谷市","city_kana":"カマガヤシ","town":"南佐津間","town_kana":"ミナミサツマ","prefecture_code":12},"0123":{"zip_code":"2730123","prefecture":"千葉県","prefecture_kana":"チバケン","city":"鎌ケ谷市","city_kana":"カマガヤシ","town":"南初富","town_kana":"ミナミハツトミ","prefecture_code":12}}