{"0000":{"zip_code":"2750000","prefecture":"千葉県","prefecture_kana":"チバケン","city":"習志野市","city_kana":"ナラシノシ","town":"","town_kana":"","prefecture_code":12},"0024":{"zip_code":"2750024","prefecture":"千葉県","prefecture_kana":"チバケン","city":"習志野市","city_kana":"ナラシノシ","town":"茜浜","town_kana":"アカネハマ","prefecture_code":12},"0025":{"zip_code":"2750025","prefecture":"千葉県","prefecture_kana":"チバケン","city":"習志野市","city_kana":"ナラシノシ","town":"秋津","town_kana":"アキツ","prefecture_code":12},"0006":{"zip_code":"2750006","prefecture":"千葉県","prefecture_kana":"チバケン","city":"習志野市","city_kana":"ナラシノシ","town":"泉町","town_kana":"イズミチョウ","prefecture_code":12},"0011":{"zip_code":"2750011","prefecture":"千葉県","prefecture_kana":"チバケン","city":"習志野市","city_kana":"ナラシノシ","town":"大久保","town_kana":"オオクボ","prefecture_code":12},"0022":{"zip_code":"2750022","prefecture":"千葉県","prefecture_kana":"チバケン","city":"習志野市","city_kana":"ナラシノシ","town":"香澄","town_kana":"カスミ","prefecture_code":12},"0028":{"zip_code":"2750028","prefecture":"千葉県","prefecture_kana":"チバケン","city":"習志野市","city_kana":"ナラシノシ","town":"奏の杜","town_kana":"カナデノモリ","prefecture_code":12},"0014":{"zip_code":"2750014","prefecture":"千葉県","prefecture_kana":"チバケン","city":"習志野市","city_kana":"ナラシノシ","town":"鷺沼","town_kana":"サギヌマ","prefecture_code":12},"0015":{"zip_code":"2750015","prefecture":"千葉県","prefecture_kana":"チバケン","city":"習志野市","city_kana":"ナラシノシ","town":"鷺沼台","town_kana":"サギヌマダイ","prefecture_code":12},"0023":{"zip_code":"2750023","prefecture":"千葉県","prefecture_kana":"チバケン","city":"習志野市","city_kana":"ナラシノシ","town":"芝園","town_kana":"シバゾノ","prefecture_code":12},"0005":{"zip_code":"2750005","prefecture":"千葉県","prefecture_kana":"チバケン","city":"習志野市","city_kana":"ナラシノシ","town":"新栄","town_kana":"シンエイ","prefecture_code":12},"0021":{"zip_code":"2750021","prefecture":"千葉県","prefecture_kana":"チバケン","city":"習志野市","city_kana":"ナラシノシ","town":"袖ケ浦","town_kana":"ソデガウラ","prefecture_code":12},"0016":{"zip_code":"2750016","prefecture":"千葉県","prefecture_kana":"チバケン","city":"習志野市","city_kana":"ナラシノシ","town":"津田沼","town_kana":"ツダヌマ","prefecture_code":12},"0013":{"zip_code":"2750013","prefecture":"千葉県","prefecture_kana":"チバケン","city":"習志野市","city_kana":"ナラシノシ","town":"花咲","town_kana":"ハナサキ","prefecture_code":12},"0001":{"zip_code":"2750001","prefecture":"千葉県","prefecture_kana":"チバケン","city":"習志野市","city_kana":"ナラシノシ","town":"東習志野","town_kana":"ヒガシナラシノ","prefecture_code":12},"0017":{"zip_code":"2750017","prefecture":"千葉県","prefecture_kana":"チバケン","city":"習志野市","city_kana":"ナラシノシ","town":"藤崎","town_kana":"フジサキ","prefecture_code":12},"0002":{"zip_code":"2750002","prefecture":"千葉県","prefecture_kana":"チバケン","city":"習志野市","city_kana":"ナラシノシ","town":"実籾","town_kana":"ミモミ","prefecture_code":12},"0003":{"zip_code":"2750003","prefecture":"千葉県","prefecture_kana":"チバケン","city":"習志野市","city_kana":"ナラシノシ","town":"実籾本郷","town_kana":"ミモミホンゴウ","prefecture_code":12},"0012":{"zip_code":"2750012","prefecture":"千葉県","prefecture_kana":"チバケン","city":"習志野市","city_kana":"ナラシノシ","town":"本大久保","town_kana":"モトオオクボ","prefecture_code":12},"0004":{"zip_code":"2750004","prefecture":"千葉県","prefecture_kana":"チバケン","city":"習志野市","city_kana":"ナラシノシ","town":"屋敷","town_kana":"ヤシキ","prefecture_code":12},"0026":{"zip_code":"2750026","prefecture":"千葉県","prefecture_kana":"チバケン","city":"習志野市","city_kana":"ナラシノシ","town":"谷津","town_kana":"ヤツ","prefecture_code":12},"0027":{"zip_code":"2750027","prefecture":"千葉県","prefecture_kana":"チバケン","city":"習志野市","city_kana":"ナラシノシ","town":"谷津町","town_kana":"ヤツマチ","prefecture_code":12}}