{"0000":{"zip_code":"2760000","prefecture":"千葉県","prefecture_kana":"チバケン","city":"八千代市","city_kana":"ヤチヨシ","town":"","town_kana":"","prefecture_code":12},"0008":{"zip_code":"2760008","prefecture":"千葉県","prefecture_kana":"チバケン","city":"八千代市","city_kana":"ヤチヨシ","town":"神久保","town_kana":"イモノクボ","prefecture_code":12},"0045":{"zip_code":"2760045","prefecture":"千葉県","prefecture_kana":"チバケン","city":"八千代市","city_kana":"ヤチヨシ","town":"大和田","town_kana":"オオワダ","prefecture_code":12},"0035":{"zip_code":"2760035","prefecture":"千葉県","prefecture_kana":"チバケン","city":"八千代市","city_kana":"ヤチヨシ","town":"高津","town_kana":"タカツ","prefecture_code":12},"0046":{"zip_code":"2760046","prefecture":"千葉県","prefecture_kana":"チバケン","city":"八千代市","city_kana":"ヤチヨシ","town":"大和田新田","town_kana":"オオワダシンデン","prefecture_code":12},"0048":{"zip_code":"2760048","prefecture":"千葉県","prefecture_kana":"チバケン","city":"八千代市","city_kana":"ヤチヨシ","town":"尾崎","town_kana":"オサキ","prefecture_code":12},"0024":{"zip_code":"2760024","prefecture":"千葉県","prefecture_kana":"チバケン","city":"八千代市","city_kana":"ヤチヨシ","town":"勝田","town_kana":"カツタ","prefecture_code":12},"0023":{"zip_code":"2760023","prefecture":"千葉県","prefecture_kana":"チバケン","city":"八千代市","city_kana":"ヤチヨシ","town":"勝田台","town_kana":"カツタダイ","prefecture_code":12},"0020":{"zip_code":"2760020","prefecture":"千葉県","prefecture_kana":"チバケン","city":"八千代市","city_kana":"ヤチヨシ","town":"勝田台北","town_kana":"カツタダイキタ","prefecture_code":12},"0025":{"zip_code":"2760025","prefecture":"千葉県","prefecture_kana":"チバケン","city":"八千代市","city_kana":"ヤチヨシ","town":"勝田台南","town_kana":"カツタダイミナミ","prefecture_code":12},"0016":{"zip_code":"2760016","prefecture":"千葉県","prefecture_kana":"チバケン","city":"八千代市","city_kana":"ヤチヨシ","town":"神野","town_kana":"カノ","prefecture_code":12},"0022":{"zip_code":"2760022","prefecture":"千葉県","prefecture_kana":"チバケン","city":"八千代市","city_kana":"ヤチヨシ","town":"上高野","town_kana":"カミコウヤ","prefecture_code":12},"0043":{"zip_code":"2760043","prefecture":"千葉県","prefecture_kana":"チバケン","city":"八千代市","city_kana":"ヤチヨシ","town":"萱田","town_kana":"カヤダ","prefecture_code":12},"0044":{"zip_code":"2760044","prefecture":"千葉県","prefecture_kana":"チバケン","city":"八千代市","city_kana":"ヤチヨシ","town":"萱田町","town_kana":"カヤダマチ","prefecture_code":12},"0006":{"zip_code":"2760006","prefecture":"千葉県","prefecture_kana":"チバケン","city":"八千代市","city_kana":"ヤチヨシ","town":"桑納","town_kana":"カンノウ","prefecture_code":12},"0001":{"zip_code":"2760001","prefecture":"千葉県","prefecture_kana":"チバケン","city":"八千代市","city_kana":"ヤチヨシ","town":"小池","town_kana":"コイケ","prefecture_code":12},"0011":{"zip_code":"2760011","prefecture":"千葉県","prefecture_kana":"チバケン","city":"八千代市","city_kana":"ヤチヨシ","town":"佐山","town_kana":"サヤマ","prefecture_code":12},"0005":{"zip_code":"2760005","prefecture":"千葉県","prefecture_kana":"チバケン","city":"八千代市","city_kana":"ヤチヨシ","town":"島田","town_kana":"シマダ","prefecture_code":12},"0004":{"zip_code":"2760004","prefecture":"千葉県","prefecture_kana":"チバケン","city":"八千代市","city_kana":"ヤチヨシ","town":"島田台","town_kana":"シマダダイ","prefecture_code":12},"0026":{"zip_code":"2760026","prefecture":"千葉県","prefecture_kana":"チバケン","city":"八千代市","city_kana":"ヤチヨシ","town":"下市場","town_kana":"シモイチバ","prefecture_code":12},"0021":{"zip_code":"2760021","prefecture":"千葉県","prefecture_kana":"チバケン","city":"八千代市","city_kana":"ヤチヨシ","town":"下高野","town_kana":"シモコウヤ","prefecture_code":12},"0007":{"zip_code":"2760007","prefecture":"千葉県","prefecture_kana":"チバケン","city":"八千代市","city_kana":"ヤチヨシ","town":"桑橋","town_kana":"ソウノハシ","prefecture_code":12},"0003":{"zip_code":"2760003","prefecture":"千葉県","prefecture_kana":"チバケン","city":"八千代市","city_kana":"ヤチヨシ","town":"大学町","town_kana":"ダイガクチョウ","prefecture_code":12},"0036":{"zip_code":"2760036","prefecture":"千葉県","prefecture_kana":"チバケン","city":"八千代市","city_kana":"ヤチヨシ","town":"高津","town_kana":"タカツ","prefecture_code":12},"0037":{"zip_code":"2760037","prefecture":"千葉県","prefecture_kana":"チバケン","city":"八千代市","city_kana":"ヤチヨシ","town":"高津東","town_kana":"タカツヒガシ","prefecture_code":12},"0017":{"zip_code":"2760017","prefecture":"千葉県","prefecture_kana":"チバケン","city":"八千代市","city_kana":"ヤチヨシ","town":"平戸","town_kana":"ヒラト","prefecture_code":12},"0013":{"zip_code":"2760013","prefecture":"千葉県","prefecture_kana":"チバケン","city":"八千代市","city_kana":"ヤチヨシ","town":"保品","town_kana":"ホシナ","prefecture_code":12},"0012":{"zip_code":"2760012","prefecture":"千葉県","prefecture_kana":"チバケン","city":"八千代市","city_kana":"ヤチヨシ","town":"堀の内","town_kana":"ホリノウチ","prefecture_code":12},"0002":{"zip_code":"2760002","prefecture":"千葉県","prefecture_kana":"チバケン","city":"八千代市","city_kana":"ヤチヨシ","town":"真木野","town_kana":"マキノ","prefecture_code":12},"0049":{"zip_code":"2760049","prefecture":"千葉県","prefecture_kana":"チバケン","city":"八千代市","city_kana":"ヤチヨシ","town":"緑が丘","town_kana":"ミドリガオカ","prefecture_code":12},"0041":{"zip_code":"2760041","prefecture":"千葉県","prefecture_kana":"チバケン","city":"八千代市","city_kana":"ヤチヨシ","town":"麦丸","town_kana":"ムギマル","prefecture_code":12},"0027":{"zip_code":"2760027","prefecture":"千葉県","prefecture_kana":"チバケン","city":"八千代市","city_kana":"ヤチヨシ","town":"村上","town_kana":"ムラカミ","prefecture_code":12},"0028":{"zip_code":"2760028","prefecture":"千葉県","prefecture_kana":"チバケン","city":"八千代市","city_kana":"ヤチヨシ","town":"村上","town_kana":"ムラカミ","prefecture_code":12},"0029":{"zip_code":"2760029","prefecture":"千葉県","prefecture_kana":"チバケン","city":"八千代市","city_kana":"ヤチヨシ","town":"村上南","town_kana":"ムラカミミナミ","prefecture_code":12},"0032":{"zip_code":"2760032","prefecture":"千葉県","prefecture_kana":"チバケン","city":"八千代市","city_kana":"ヤチヨシ","town":"八千代台東","town_kana":"ヤチヨダイヒガシ","prefecture_code":12},"0034":{"zip_code":"2760034","prefecture":"千葉県","prefecture_kana":"チバケン","city":"八千代市","city_kana":"ヤチヨシ","town":"八千代台西","town_kana":"ヤチヨダイニシ","prefecture_code":12},"0033":{"zip_code":"2760033","prefecture":"千葉県","prefecture_kana":"チバケン","city":"八千代市","city_kana":"ヤチヨシ","town":"八千代台南","town_kana":"ヤチヨダイミナミ","prefecture_code":12},"0031":{"zip_code":"2760031","prefecture":"千葉県","prefecture_kana":"チバケン","city":"八千代市","city_kana":"ヤチヨシ","town":"八千代台北","town_kana":"ヤチヨダイキタ","prefecture_code":12},"0042":{"zip_code":"2760042","prefecture":"千葉県","prefecture_kana":"チバケン","city":"八千代市","city_kana":"ヤチヨシ","town":"ゆりのき台","town_kana":"ユリノキダイ","prefecture_code":12},"0047":{"zip_code":"2760047","prefecture":"千葉県","prefecture_kana":"チバケン","city":"八千代市","city_kana":"ヤチヨシ","town":"吉橋","town_kana":"ヨシハシ","prefecture_code":12},"0014":{"zip_code":"2760014","prefecture":"千葉県","prefecture_kana":"チバケン","city":"八千代市","city_kana":"ヤチヨシ","town":"米本","town_kana":"ヨナモト","prefecture_code":12},"0015":{"zip_code":"2760015","prefecture":"千葉県","prefecture_kana":"チバケン","city":"八千代市","city_kana":"ヤチヨシ","town":"米本","town_kana":"ヨナモト","prefecture_code":12}}