{"0000":{"zip_code":"2770000","prefecture":"千葉県","prefecture_kana":"チバケン","city":"柏市","city_kana":"カシワシ","town":"","town_kana":"","prefecture_code":12},"0881":{"zip_code":"2770881","prefecture":"千葉県","prefecture_kana":"チバケン","city":"柏市","city_kana":"カシワシ","town":"青田新田飛地","town_kana":"アオタシンデントビチ","prefecture_code":12},"0055":{"zip_code":"2770055","prefecture":"千葉県","prefecture_kana":"チバケン","city":"柏市","city_kana":"カシワシ","town":"青葉台","town_kana":"アオバダイ","prefecture_code":12},"0027":{"zip_code":"2770027","prefecture":"千葉県","prefecture_kana":"チバケン","city":"柏市","city_kana":"カシワシ","town":"あかね町","town_kana":"アカネチョウ","prefecture_code":12},"0843":{"zip_code":"2770843","prefecture":"千葉県","prefecture_kana":"チバケン","city":"柏市","city_kana":"カシワシ","town":"明原","town_kana":"アケハラ","prefecture_code":12},"0841":{"zip_code":"2770841","prefecture":"千葉県","prefecture_kana":"チバケン","city":"柏市","city_kana":"カシワシ","town":"あけぼの","town_kana":"アケボノ","prefecture_code":12},"0852":{"zip_code":"2770852","prefecture":"千葉県","prefecture_kana":"チバケン","city":"柏市","city_kana":"カシワシ","town":"旭町","town_kana":"アサヒチョウ","prefecture_code":12},"0014":{"zip_code":"2770014","prefecture":"千葉県","prefecture_kana":"チバケン","city":"柏市","city_kana":"カシワシ","town":"東","town_kana":"アズマ","prefecture_code":12},"0011":{"zip_code":"2770011","prefecture":"千葉県","prefecture_kana":"チバケン","city":"柏市","city_kana":"カシワシ","town":"東上町","town_kana":"アズマカミチョウ","prefecture_code":12},"0013":{"zip_code":"2770013","prefecture":"千葉県","prefecture_kana":"チバケン","city":"柏市","city_kana":"カシワシ","town":"東台本町","town_kana":"アズマダイホンチョウ","prefecture_code":12},"0022":{"zip_code":"2770022","prefecture":"千葉県","prefecture_kana":"チバケン","city":"柏市","city_kana":"カシワシ","town":"泉町","town_kana":"イズミチョウ","prefecture_code":12},"0883":{"zip_code":"2770883","prefecture":"千葉県","prefecture_kana":"チバケン","city":"柏市","city_kana":"カシワシ","town":"伊勢原","town_kana":"イセハラ","prefecture_code":12},"0074":{"zip_code":"2770074","prefecture":"千葉県","prefecture_kana":"チバケン","city":"柏市","city_kana":"カシワシ","town":"今谷上町","town_kana":"イマヤカミチョウ","prefecture_code":12},"0073":{"zip_code":"2770073","prefecture":"千葉県","prefecture_kana":"チバケン","city":"柏市","city_kana":"カシワシ","town":"今谷南町","town_kana":"イマヤミナミチョウ","prefecture_code":12},"0086":{"zip_code":"2770086","prefecture":"千葉県","prefecture_kana":"チバケン","city":"柏市","city_kana":"カシワシ","town":"永楽台","town_kana":"エイラクダイ","prefecture_code":12},"0805":{"zip_code":"2770805","prefecture":"千葉県","prefecture_kana":"チバケン","city":"柏市","city_kana":"カシワシ","town":"大青田","town_kana":"オオアオタ","prefecture_code":12},"0902":{"zip_code":"2770902","prefecture":"千葉県","prefecture_kana":"チバケン","city":"柏市","city_kana":"カシワシ","town":"大井","town_kana":"オオイ","prefecture_code":12},"0901":{"zip_code":"2770901","prefecture":"千葉県","prefecture_kana":"チバケン","city":"柏市","city_kana":"カシワシ","town":"大井新田","town_kana":"オオイシンデン","prefecture_code":12},"0922":{"zip_code":"2770922","prefecture":"千葉県","prefecture_kana":"チバケン","city":"柏市","city_kana":"カシワシ","town":"大島田","town_kana":"オオシマタ","prefecture_code":12},"0921":{"zip_code":"2770921","prefecture":"千葉県","prefecture_kana":"チバケン","city":"柏市","city_kana":"カシワシ","town":"大津ケ丘","town_kana":"オオツガオカ","prefecture_code":12},"0026":{"zip_code":"2770026","prefecture":"千葉県","prefecture_kana":"チバケン","city":"柏市","city_kana":"カシワシ","town":"大塚町","town_kana":"オオツカチョウ","prefecture_code":12},"0813":{"zip_code":"2770813","prefecture":"千葉県","prefecture_kana":"チバケン","city":"柏市","city_kana":"カシワシ","town":"大室","town_kana":"オオムロ","prefecture_code":12},"0837":{"zip_code":"2770837","prefecture":"千葉県","prefecture_kana":"チバケン","city":"柏市","city_kana":"カシワシ","town":"大山台","town_kana":"オオヤマダイ","prefecture_code":12},"0051":{"zip_code":"2770051","prefecture":"千葉県","prefecture_kana":"チバケン","city":"柏市","city_kana":"カシワシ","town":"加賀","town_kana":"カガ","prefecture_code":12},"0924":{"zip_code":"2770924","prefecture":"千葉県","prefecture_kana":"チバケン","city":"柏市","city_kana":"カシワシ","town":"風早","town_kana":"カザハヤ","prefecture_code":12},"0005":{"zip_code":"2770005","prefecture":"千葉県","prefecture_kana":"チバケン","city":"柏市","city_kana":"カシワシ","town":"柏","town_kana":"カシワ","prefecture_code":12},"0004":{"zip_code":"2770004","prefecture":"千葉県","prefecture_kana":"チバケン","city":"柏市","city_kana":"カシワシ","town":"柏下","town_kana":"カシワシタ","prefecture_code":12},"0006":{"zip_code":"2770006","prefecture":"千葉県","prefecture_kana":"チバケン","city":"柏市","city_kana":"カシワシ","town":"柏中村下","town_kana":"カシワナカムラシタ","prefecture_code":12},"0882":{"zip_code":"2770882","prefecture":"千葉県","prefecture_kana":"チバケン","city":"柏市","city_kana":"カシワシ","town":"柏の葉","town_kana":"カシワノハ","prefecture_code":12},"0003":{"zip_code":"2770003","prefecture":"千葉県","prefecture_kana":"チバケン","city":"柏市","city_kana":"カシワシ","town":"柏堀之内新田","town_kana":"カシワホリノウチシンデン","prefecture_code":12},"0811":{"zip_code":"2770811","prefecture":"千葉県","prefecture_kana":"チバケン","city":"柏市","city_kana":"カシワシ","town":"上利根","town_kana":"カミトネ","prefecture_code":12},"0846":{"zip_code":"2770846","prefecture":"千葉県","prefecture_kana":"チバケン","city":"柏市","city_kana":"カシワシ","town":"かやの町","town_kana":"カヤノチョウ","prefecture_code":12},"0832":{"zip_code":"2770832","prefecture":"千葉県","prefecture_kana":"チバケン","city":"柏市","city_kana":"カシワシ","town":"北柏","town_kana":"キタカシワ","prefecture_code":12},"0836":{"zip_code":"2770836","prefecture":"千葉県","prefecture_kana":"チバケン","city":"柏市","city_kana":"カシワシ","town":"北柏台","town_kana":"キタカシワダイ","prefecture_code":12},"0031":{"zip_code":"2770031","prefecture":"千葉県","prefecture_kana":"チバケン","city":"柏市","city_kana":"カシワシ","town":"亀甲台町","town_kana":"キッコウダイチョウ","prefecture_code":12},"0803":{"zip_code":"2770803","prefecture":"千葉県","prefecture_kana":"チバケン","city":"柏市","city_kana":"カシワシ","town":"小青田","town_kana":"コアオタ","prefecture_code":12},"0942":{"zip_code":"2770942","prefecture":"千葉県","prefecture_kana":"チバケン","city":"柏市","city_kana":"カシワシ","town":"高南台","town_kana":"コウナンダイ","prefecture_code":12},"0913":{"zip_code":"2770913","prefecture":"千葉県","prefecture_kana":"チバケン","city":"柏市","city_kana":"カシワシ","town":"五條谷","town_kana":"ゴジョウヤ","prefecture_code":12},"0053":{"zip_code":"2770053","prefecture":"千葉県","prefecture_kana":"チバケン","city":"柏市","city_kana":"カシワシ","town":"酒井根","town_kana":"サカイネ","prefecture_code":12},"0042":{"zip_code":"2770042","prefecture":"千葉県","prefecture_kana":"チバケン","city":"柏市","city_kana":"カシワシ","town":"逆井","town_kana":"サカサイ","prefecture_code":12},"0041":{"zip_code":"2770041","prefecture":"千葉県","prefecture_kana":"チバケン","city":"柏市","city_kana":"カシワシ","town":"逆井藤ノ台","town_kana":"サカサイフジノダイ","prefecture_code":12},"0012":{"zip_code":"2770012","prefecture":"千葉県","prefecture_kana":"チバケン","city":"柏市","city_kana":"カシワシ","town":"桜台","town_kana":"サクラダイ","prefecture_code":12},"0945":{"zip_code":"2770945","prefecture":"千葉県","prefecture_kana":"チバケン","city":"柏市","city_kana":"カシワシ","town":"しいの木台","town_kana":"シイノキダイ","prefecture_code":12},"0862":{"zip_code":"2770862","prefecture":"千葉県","prefecture_kana":"チバケン","city":"柏市","city_kana":"カシワシ","town":"篠籠田","town_kana":"シコダ","prefecture_code":12},"0826":{"zip_code":"2770826","prefecture":"千葉県","prefecture_kana":"チバケン","city":"柏市","city_kana":"カシワシ","town":"宿連寺","town_kana":"シュクレンジ","prefecture_code":12},"0814":{"zip_code":"2770814","prefecture":"千葉県","prefecture_kana":"チバケン","city":"柏市","city_kana":"カシワシ","town":"正連寺","town_kana":"ショウレンジ","prefecture_code":12},"0084":{"zip_code":"2770084","prefecture":"千葉県","prefecture_kana":"チバケン","city":"柏市","city_kana":"カシワシ","town":"新柏","town_kana":"シンカシワ","prefecture_code":12},"0044":{"zip_code":"2770044","prefecture":"千葉県","prefecture_kana":"チバケン","city":"柏市","city_kana":"カシワシ","town":"新逆井","town_kana":"シンサカサイ","prefecture_code":12},"0856":{"zip_code":"2770856","prefecture":"千葉県","prefecture_kana":"チバケン","city":"柏市","city_kana":"カシワシ","town":"新富町","town_kana":"シントミチョウ","prefecture_code":12},"0804":{"zip_code":"2770804","prefecture":"千葉県","prefecture_kana":"チバケン","city":"柏市","city_kana":"カシワシ","town":"新十余二","town_kana":"シントヨフタ","prefecture_code":12},"0842":{"zip_code":"2770842","prefecture":"千葉県","prefecture_kana":"チバケン","city":"柏市","city_kana":"カシワシ","town":"末広町","town_kana":"スエヒロチョウ","prefecture_code":12},"0028":{"zip_code":"2770028","prefecture":"千葉県","prefecture_kana":"チバケン","city":"柏市","city_kana":"カシワシ","town":"関場町","town_kana":"セキバチョウ","prefecture_code":12},"0861":{"zip_code":"2770861","prefecture":"千葉県","prefecture_kana":"チバケン","city":"柏市","city_kana":"カシワシ","town":"高田","town_kana":"タカタ","prefecture_code":12},"0941":{"zip_code":"2770941","prefecture":"千葉県","prefecture_kana":"チバケン","city":"柏市","city_kana":"カシワシ","town":"高柳","town_kana":"タカヤナギ","prefecture_code":12},"0943":{"zip_code":"2770943","prefecture":"千葉県","prefecture_kana":"チバケン","city":"柏市","city_kana":"カシワシ","town":"高柳新田","town_kana":"タカヤナギシンデン","prefecture_code":12},"0023":{"zip_code":"2770023","prefecture":"千葉県","prefecture_kana":"チバケン","city":"柏市","city_kana":"カシワシ","town":"中央","town_kana":"チュウオウ","prefecture_code":12},"0021":{"zip_code":"2770021","prefecture":"千葉県","prefecture_kana":"チバケン","city":"柏市","city_kana":"カシワシ","town":"中央町","town_kana":"チュウオウチョウ","prefecture_code":12},"0025":{"zip_code":"2770025","prefecture":"千葉県","prefecture_kana":"チバケン","city":"柏市","city_kana":"カシワシ","town":"千代田","town_kana":"チヨダ","prefecture_code":12},"0923":{"zip_code":"2770923","prefecture":"千葉県","prefecture_kana":"チバケン","city":"柏市","city_kana":"カシワシ","town":"塚崎","town_kana":"ツカザキ","prefecture_code":12},"0072":{"zip_code":"2770072","prefecture":"千葉県","prefecture_kana":"チバケン","city":"柏市","city_kana":"カシワシ","town":"つくしが丘","town_kana":"ツクシガオカ","prefecture_code":12},"0087":{"zip_code":"2770087","prefecture":"千葉県","prefecture_kana":"チバケン","city":"柏市","city_kana":"カシワシ","town":"常盤台","town_kana":"トキワダイ","prefecture_code":12},"0008":{"zip_code":"2770008","prefecture":"千葉県","prefecture_kana":"チバケン","city":"柏市","city_kana":"カシワシ","town":"戸張","town_kana":"トバリ","prefecture_code":12},"0007":{"zip_code":"2770007","prefecture":"千葉県","prefecture_kana":"チバケン","city":"柏市","city_kana":"カシワシ","town":"戸張新田","town_kana":"トバリシンデン","prefecture_code":12},"0081":{"zip_code":"2770081","prefecture":"千葉県","prefecture_kana":"チバケン","city":"柏市","city_kana":"カシワシ","town":"富里","town_kana":"トミサト","prefecture_code":12},"0858":{"zip_code":"2770858","prefecture":"千葉県","prefecture_kana":"チバケン","city":"柏市","city_kana":"カシワシ","town":"豊上町","town_kana":"トヨガミチョウ","prefecture_code":12},"0863":{"zip_code":"2770863","prefecture":"千葉県","prefecture_kana":"チバケン","city":"柏市","city_kana":"カシワシ","town":"豊四季","town_kana":"トヨシキ","prefecture_code":12},"0845":{"zip_code":"2770845","prefecture":"千葉県","prefecture_kana":"チバケン","city":"柏市","city_kana":"カシワシ","town":"豊四季台","town_kana":"トヨシキダイ","prefecture_code":12},"0071":{"zip_code":"2770071","prefecture":"千葉県","prefecture_kana":"チバケン","city":"柏市","city_kana":"カシワシ","town":"豊住","town_kana":"トヨスミ","prefecture_code":12},"0857":{"zip_code":"2770857","prefecture":"千葉県","prefecture_kana":"チバケン","city":"柏市","city_kana":"カシワシ","town":"豊平町","town_kana":"トヨヒラチョウ","prefecture_code":12},"0872":{"zip_code":"2770872","prefecture":"千葉県","prefecture_kana":"チバケン","city":"柏市","city_kana":"カシワシ","town":"十余二","town_kana":"トヨフタ","prefecture_code":12},"0066":{"zip_code":"2770066","prefecture":"千葉県","prefecture_kana":"チバケン","city":"柏市","city_kana":"カシワシ","town":"中新宿","town_kana":"ナカシンジュク","prefecture_code":12},"0873":{"zip_code":"2770873","prefecture":"千葉県","prefecture_kana":"チバケン","city":"柏市","city_kana":"カシワシ","town":"中十余二","town_kana":"ナカトヨフタ","prefecture_code":12},"0085":{"zip_code":"2770085","prefecture":"千葉県","prefecture_kana":"チバケン","city":"柏市","city_kana":"カシワシ","town":"中原","town_kana":"ナカハラ","prefecture_code":12},"0032":{"zip_code":"2770032","prefecture":"千葉県","prefecture_kana":"チバケン","city":"柏市","city_kana":"カシワシ","town":"名戸ケ谷","town_kana":"ナドガヤ","prefecture_code":12},"0886":{"zip_code":"2770886","prefecture":"千葉県","prefecture_kana":"チバケン","city":"柏市","city_kana":"カシワシ","town":"西柏台","town_kana":"ニシカシワダイ","prefecture_code":12},"0844":{"zip_code":"2770844","prefecture":"千葉県","prefecture_kana":"チバケン","city":"柏市","city_kana":"カシワシ","town":"西町","town_kana":"ニシチョウ","prefecture_code":12},"0885":{"zip_code":"2770885","prefecture":"千葉県","prefecture_kana":"チバケン","city":"柏市","city_kana":"カシワシ","town":"西原","town_kana":"ニシハラ","prefecture_code":12},"0063":{"zip_code":"2770063","prefecture":"千葉県","prefecture_kana":"チバケン","city":"柏市","city_kana":"カシワシ","town":"西山","town_kana":"ニシヤマ","prefecture_code":12},"0831":{"zip_code":"2770831","prefecture":"千葉県","prefecture_kana":"チバケン","city":"柏市","city_kana":"カシワシ","town":"根戸","town_kana":"ネド","prefecture_code":12},"0833":{"zip_code":"2770833","prefecture":"千葉県","prefecture_kana":"チバケン","city":"柏市","city_kana":"カシワシ","town":"根戸新田","town_kana":"ネドシンデン","prefecture_code":12},"0016":{"zip_code":"2770016","prefecture":"千葉県","prefecture_kana":"チバケン","city":"柏市","city_kana":"カシワシ","town":"八幡町","town_kana":"ハチマンチョウ","prefecture_code":12},"0812":{"zip_code":"2770812","prefecture":"千葉県","prefecture_kana":"チバケン","city":"柏市","city_kana":"カシワシ","town":"花野井","town_kana":"ハナノイ","prefecture_code":12},"0065":{"zip_code":"2770065","prefecture":"千葉県","prefecture_kana":"チバケン","city":"柏市","city_kana":"カシワシ","town":"光ケ丘","town_kana":"ヒカリガオカ","prefecture_code":12},"0062":{"zip_code":"2770062","prefecture":"千葉県","prefecture_kana":"チバケン","city":"柏市","city_kana":"カシワシ","town":"光ケ丘団地","town_kana":"ヒカリガオカダンチ","prefecture_code":12},"0017":{"zip_code":"2770017","prefecture":"千葉県","prefecture_kana":"チバケン","city":"柏市","city_kana":"カシワシ","town":"東柏","town_kana":"ヒガシカシワ","prefecture_code":12},"0045":{"zip_code":"2770045","prefecture":"千葉県","prefecture_kana":"チバケン","city":"柏市","city_kana":"カシワシ","town":"東逆井","town_kana":"ヒガシサカサイ","prefecture_code":12},"0061":{"zip_code":"2770061","prefecture":"千葉県","prefecture_kana":"チバケン","city":"柏市","city_kana":"カシワシ","town":"東中新宿","town_kana":"ヒガシナカシンジュク","prefecture_code":12},"0064":{"zip_code":"2770064","prefecture":"千葉県","prefecture_kana":"チバケン","city":"柏市","city_kana":"カシワシ","town":"東山","town_kana":"ヒガシヤマ","prefecture_code":12},"0083":{"zip_code":"2770083","prefecture":"千葉県","prefecture_kana":"チバケン","city":"柏市","city_kana":"カシワシ","town":"日立台","town_kana":"ヒタチダイ","prefecture_code":12},"0088":{"zip_code":"2770088","prefecture":"千葉県","prefecture_kana":"チバケン","city":"柏市","city_kana":"カシワシ","town":"ひばりが丘","town_kana":"ヒバリガオカ","prefecture_code":12},"0931":{"zip_code":"2770931","prefecture":"千葉県","prefecture_kana":"チバケン","city":"柏市","city_kana":"カシワシ","town":"藤ケ谷","town_kana":"フジガヤ","prefecture_code":12},"0932":{"zip_code":"2770932","prefecture":"千葉県","prefecture_kana":"チバケン","city":"柏市","city_kana":"カシワシ","town":"藤ケ谷新田","town_kana":"フジガヤシンデン","prefecture_code":12},"0034":{"zip_code":"2770034","prefecture":"千葉県","prefecture_kana":"チバケン","city":"柏市","city_kana":"カシワシ","town":"藤心","town_kana":"フジゴコロ","prefecture_code":12},"0825":{"zip_code":"2770825","prefecture":"千葉県","prefecture_kana":"チバケン","city":"柏市","city_kana":"カシワシ","town":"布施","town_kana":"フセ","prefecture_code":12},"0822":{"zip_code":"2770822","prefecture":"千葉県","prefecture_kana":"チバケン","city":"柏市","city_kana":"カシワシ","town":"布施下","town_kana":"フセシタ","prefecture_code":12},"0824":{"zip_code":"2770824","prefecture":"千葉県","prefecture_kana":"チバケン","city":"柏市","city_kana":"カシワシ","town":"布施新田","town_kana":"フセシンデン","prefecture_code":12},"0823":{"zip_code":"2770823","prefecture":"千葉県","prefecture_kana":"チバケン","city":"柏市","city_kana":"カシワシ","town":"布施新町","town_kana":"フセシンマチ","prefecture_code":12},"0802":{"zip_code":"2770802","prefecture":"千葉県","prefecture_kana":"チバケン","city":"柏市","city_kana":"カシワシ","town":"船戸","town_kana":"フナト","prefecture_code":12},"0801":{"zip_code":"2770801","prefecture":"千葉県","prefecture_kana":"チバケン","city":"柏市","city_kana":"カシワシ","town":"船戸山高野","town_kana":"フナトヤマゴウヤ","prefecture_code":12},"0821":{"zip_code":"2770821","prefecture":"千葉県","prefecture_kana":"チバケン","city":"柏市","city_kana":"カシワシ","town":"弁天下","town_kana":"ベンテンシタ","prefecture_code":12},"0033":{"zip_code":"2770033","prefecture":"千葉県","prefecture_kana":"チバケン","city":"柏市","city_kana":"カシワシ","town":"増尾","town_kana":"マスオ","prefecture_code":12},"0052":{"zip_code":"2770052","prefecture":"千葉県","prefecture_kana":"チバケン","city":"柏市","city_kana":"カシワシ","town":"増尾台","town_kana":"マスオダイ","prefecture_code":12},"0835":{"zip_code":"2770835","prefecture":"千葉県","prefecture_kana":"チバケン","city":"柏市","city_kana":"カシワシ","town":"松ケ崎","town_kana":"マツガサキ","prefecture_code":12},"0834":{"zip_code":"2770834","prefecture":"千葉県","prefecture_kana":"チバケン","city":"柏市","city_kana":"カシワシ","town":"松ケ崎新田","town_kana":"マツガサキシンデン","prefecture_code":12},"0827":{"zip_code":"2770827","prefecture":"千葉県","prefecture_kana":"チバケン","city":"柏市","city_kana":"カシワシ","town":"松葉町","town_kana":"マツバチョウ","prefecture_code":12},"0082":{"zip_code":"2770082","prefecture":"千葉県","prefecture_kana":"チバケン","city":"柏市","city_kana":"カシワシ","town":"緑ケ丘","town_kana":"ミドリガオカ","prefecture_code":12},"0884":{"zip_code":"2770884","prefecture":"千葉県","prefecture_kana":"チバケン","city":"柏市","city_kana":"カシワシ","town":"みどり台","town_kana":"ミドリダイ","prefecture_code":12},"0903":{"zip_code":"2770903","prefecture":"千葉県","prefecture_kana":"チバケン","city":"柏市","city_kana":"カシワシ","town":"緑台","town_kana":"ミドリダイ","prefecture_code":12},"0855":{"zip_code":"2770855","prefecture":"千葉県","prefecture_kana":"チバケン","city":"柏市","city_kana":"カシワシ","town":"南柏","town_kana":"ミナミカシワ","prefecture_code":12},"0075":{"zip_code":"2770075","prefecture":"千葉県","prefecture_kana":"チバケン","city":"柏市","city_kana":"カシワシ","town":"南柏中央","town_kana":"ミナミカシワチュウオウ","prefecture_code":12},"0043":{"zip_code":"2770043","prefecture":"千葉県","prefecture_kana":"チバケン","city":"柏市","city_kana":"カシワシ","town":"南逆井","town_kana":"ミナミサカサイ","prefecture_code":12},"0944":{"zip_code":"2770944","prefecture":"千葉県","prefecture_kana":"チバケン","city":"柏市","city_kana":"カシワシ","town":"南高柳","town_kana":"ミナミタカヤナギ","prefecture_code":12},"0054":{"zip_code":"2770054","prefecture":"千葉県","prefecture_kana":"チバケン","city":"柏市","city_kana":"カシワシ","town":"南増尾","town_kana":"ミナミマスオ","prefecture_code":12},"0912":{"zip_code":"2770912","prefecture":"千葉県","prefecture_kana":"チバケン","city":"柏市","city_kana":"カシワシ","town":"箕輪","town_kana":"ミノワ","prefecture_code":12},"0911":{"zip_code":"2770911","prefecture":"千葉県","prefecture_kana":"チバケン","city":"柏市","city_kana":"カシワシ","town":"箕輪新田","town_kana":"ミノワシンデン","prefecture_code":12},"0851":{"zip_code":"2770851","prefecture":"千葉県","prefecture_kana":"チバケン","city":"柏市","city_kana":"カシワシ","town":"向原町","town_kana":"ムカイハラチョウ","prefecture_code":12},"0015":{"zip_code":"2770015","prefecture":"千葉県","prefecture_kana":"チバケン","city":"柏市","city_kana":"カシワシ","town":"弥生町","town_kana":"ヤヨイチョウ","prefecture_code":12},"0854":{"zip_code":"2770854","prefecture":"千葉県","prefecture_kana":"チバケン","city":"柏市","city_kana":"カシワシ","town":"豊町","town_kana":"ユタカチョウ","prefecture_code":12},"0853":{"zip_code":"2770853","prefecture":"千葉県","prefecture_kana":"チバケン","city":"柏市","city_kana":"カシワシ","town":"吉野沢","town_kana":"ヨシノザワ","prefecture_code":12},"0002":{"zip_code":"2770002","prefecture":"千葉県","prefecture_kana":"チバケン","city":"柏市","city_kana":"カシワシ","town":"呼塚","town_kana":"ヨバツカ","prefecture_code":12},"0001":{"zip_code":"2770001","prefecture":"千葉県","prefecture_kana":"チバケン","city":"柏市","city_kana":"カシワシ","town":"呼塚新田","town_kana":"ヨバツカシンデン","prefecture_code":12},"0871":{"zip_code":"2770871","prefecture":"千葉県","prefecture_kana":"チバケン","city":"柏市","city_kana":"カシワシ","town":"若柴","town_kana":"ワカシバ","prefecture_code":12},"0024":{"zip_code":"2770024","prefecture":"千葉県","prefecture_kana":"チバケン","city":"柏市","city_kana":"カシワシ","town":"若葉町","town_kana":"ワカバチョウ","prefecture_code":12}}