{"0000":{"zip_code":"2780000","prefecture":"千葉県","prefecture_kana":"チバケン","city":"野田市","city_kana":"ノダシ","town":"","town_kana":"","prefecture_code":12},"0025":{"zip_code":"2780025","prefecture":"千葉県","prefecture_kana":"チバケン","city":"野田市","city_kana":"ノダシ","town":"今上","town_kana":"イマガミ","prefecture_code":12},"0055":{"zip_code":"2780055","prefecture":"千葉県","prefecture_kana":"チバケン","city":"野田市","city_kana":"ノダシ","town":"岩名","town_kana":"イワナ","prefecture_code":12},"0017":{"zip_code":"2780017","prefecture":"千葉県","prefecture_kana":"チバケン","city":"野田市","city_kana":"ノダシ","town":"大殿井","town_kana":"オオドノイ","prefecture_code":12},"0052":{"zip_code":"2780052","prefecture":"千葉県","prefecture_kana":"チバケン","city":"野田市","city_kana":"ノダシ","town":"春日町","town_kana":"カスガチョウ","prefecture_code":12},"0007":{"zip_code":"2780007","prefecture":"千葉県","prefecture_kana":"チバケン","city":"野田市","city_kana":"ノダシ","town":"金杉","town_kana":"カナスギ","prefecture_code":12},"0013":{"zip_code":"2780013","prefecture":"千葉県","prefecture_kana":"チバケン","city":"野田市","city_kana":"ノダシ","town":"上三ケ尾","town_kana":"カミサンガオ","prefecture_code":12},"0033":{"zip_code":"2780033","prefecture":"千葉県","prefecture_kana":"チバケン","city":"野田市","city_kana":"ノダシ","town":"上花輪","town_kana":"カミハナワ","prefecture_code":12},"0034":{"zip_code":"2780034","prefecture":"千葉県","prefecture_kana":"チバケン","city":"野田市","city_kana":"ノダシ","town":"上花輪新町","town_kana":"カミハナワシンマチ","prefecture_code":12},"0002":{"zip_code":"2780002","prefecture":"千葉県","prefecture_kana":"チバケン","city":"野田市","city_kana":"ノダシ","town":"木野崎","town_kana":"キノサキ","prefecture_code":12},"0057":{"zip_code":"2780057","prefecture":"千葉県","prefecture_kana":"チバケン","city":"野田市","city_kana":"ノダシ","town":"光葉町","town_kana":"コウヨウチョウ","prefecture_code":12},"0054":{"zip_code":"2780054","prefecture":"千葉県","prefecture_kana":"チバケン","city":"野田市","city_kana":"ノダシ","town":"五木","town_kana":"ゴキ","prefecture_code":12},"0056":{"zip_code":"2780056","prefecture":"千葉県","prefecture_kana":"チバケン","city":"野田市","city_kana":"ノダシ","town":"五木新田","town_kana":"ゴキシンデン","prefecture_code":12},"0053":{"zip_code":"2780053","prefecture":"千葉県","prefecture_kana":"チバケン","city":"野田市","city_kana":"ノダシ","town":"五木新町","town_kana":"ゴキシンマチ","prefecture_code":12},"0045":{"zip_code":"2780045","prefecture":"千葉県","prefecture_kana":"チバケン","city":"野田市","city_kana":"ノダシ","town":"座生","town_kana":"ザオウ","prefecture_code":12},"0028":{"zip_code":"2780028","prefecture":"千葉県","prefecture_kana":"チバケン","city":"野田市","city_kana":"ノダシ","town":"桜木","town_kana":"サクラギ","prefecture_code":12},"0032":{"zip_code":"2780032","prefecture":"千葉県","prefecture_kana":"チバケン","city":"野田市","city_kana":"ノダシ","town":"桜台","town_kana":"サクラダイ","prefecture_code":12},"0048":{"zip_code":"2780048","prefecture":"千葉県","prefecture_kana":"チバケン","city":"野田市","city_kana":"ノダシ","town":"桜の里","town_kana":"サクラノサト","prefecture_code":12},"0043":{"zip_code":"2780043","prefecture":"千葉県","prefecture_kana":"チバケン","city":"野田市","city_kana":"ノダシ","town":"清水","town_kana":"シミズ","prefecture_code":12},"0047":{"zip_code":"2780047","prefecture":"千葉県","prefecture_kana":"チバケン","city":"野田市","city_kana":"ノダシ","town":"清水公園東","town_kana":"シミズコウエンヒガシ","prefecture_code":12},"0014":{"zip_code":"2780014","prefecture":"千葉県","prefecture_kana":"チバケン","city":"野田市","city_kana":"ノダシ","town":"下三ケ尾","town_kana":"シモサンガオ","prefecture_code":12},"0012":{"zip_code":"2780012","prefecture":"千葉県","prefecture_kana":"チバケン","city":"野田市","city_kana":"ノダシ","town":"瀬戸","town_kana":"セト","prefecture_code":12},"0044":{"zip_code":"2780044","prefecture":"千葉県","prefecture_kana":"チバケン","city":"野田市","city_kana":"ノダシ","town":"堤台","town_kana":"ツツミダイ","prefecture_code":12},"0021":{"zip_code":"2780021","prefecture":"千葉県","prefecture_kana":"チバケン","city":"野田市","city_kana":"ノダシ","town":"堤根","town_kana":"ツツミネ","prefecture_code":12},"0038":{"zip_code":"2780038","prefecture":"千葉県","prefecture_kana":"チバケン","city":"野田市","city_kana":"ノダシ","town":"つつみ野","town_kana":"ツツミノ","prefecture_code":12},"0003":{"zip_code":"2780003","prefecture":"千葉県","prefecture_kana":"チバケン","city":"野田市","city_kana":"ノダシ","town":"鶴奉","town_kana":"ツルホウ","prefecture_code":12},"0031":{"zip_code":"2780031","prefecture":"千葉県","prefecture_kana":"チバケン","city":"野田市","city_kana":"ノダシ","town":"中根","town_kana":"ナカネ","prefecture_code":12},"0035":{"zip_code":"2780035","prefecture":"千葉県","prefecture_kana":"チバケン","city":"野田市","city_kana":"ノダシ","town":"中野台","town_kana":"ナカノダイ","prefecture_code":12},"0036":{"zip_code":"2780036","prefecture":"千葉県","prefecture_kana":"チバケン","city":"野田市","city_kana":"ノダシ","town":"中野台鹿島町","town_kana":"ナカノダイカシマチョウ","prefecture_code":12},"0051":{"zip_code":"2780051","prefecture":"千葉県","prefecture_kana":"チバケン","city":"野田市","city_kana":"ノダシ","town":"七光台","town_kana":"ナナコウダイ","prefecture_code":12},"0015":{"zip_code":"2780015","prefecture":"千葉県","prefecture_kana":"チバケン","city":"野田市","city_kana":"ノダシ","town":"西三ケ尾","town_kana":"ニシサンガオ","prefecture_code":12},"0037":{"zip_code":"2780037","prefecture":"千葉県","prefecture_kana":"チバケン","city":"野田市","city_kana":"ノダシ","town":"野田","town_kana":"ノダ","prefecture_code":12},"0026":{"zip_code":"2780026","prefecture":"千葉県","prefecture_kana":"チバケン","city":"野田市","city_kana":"ノダシ","town":"花井","town_kana":"ハナイ","prefecture_code":12},"0041":{"zip_code":"2780041","prefecture":"千葉県","prefecture_kana":"チバケン","city":"野田市","city_kana":"ノダシ","town":"蕃昌","town_kana":"バンショウ","prefecture_code":12},"0016":{"zip_code":"2780016","prefecture":"千葉県","prefecture_kana":"チバケン","city":"野田市","city_kana":"ノダシ","town":"二ツ塚","town_kana":"フタツカ","prefecture_code":12},"0027":{"zip_code":"2780027","prefecture":"千葉県","prefecture_kana":"チバケン","city":"野田市","city_kana":"ノダシ","town":"みずき","town_kana":"ミズキ","prefecture_code":12},"0011":{"zip_code":"2780011","prefecture":"千葉県","prefecture_kana":"チバケン","city":"野田市","city_kana":"ノダシ","town":"三ツ堀","town_kana":"ミツボリ","prefecture_code":12},"0005":{"zip_code":"2780005","prefecture":"千葉県","prefecture_kana":"チバケン","city":"野田市","city_kana":"ノダシ","town":"宮崎","town_kana":"ミヤザキ","prefecture_code":12},"0001":{"zip_code":"2780001","prefecture":"千葉県","prefecture_kana":"チバケン","city":"野田市","city_kana":"ノダシ","town":"目吹","town_kana":"メフキ","prefecture_code":12},"0046":{"zip_code":"2780046","prefecture":"千葉県","prefecture_kana":"チバケン","city":"野田市","city_kana":"ノダシ","town":"谷津","town_kana":"ヤツ","prefecture_code":12},"0006":{"zip_code":"2780006","prefecture":"千葉県","prefecture_kana":"チバケン","city":"野田市","city_kana":"ノダシ","town":"柳沢","town_kana":"ヤナギサワ","prefecture_code":12},"0022":{"zip_code":"2780022","prefecture":"千葉県","prefecture_kana":"チバケン","city":"野田市","city_kana":"ノダシ","town":"山崎","town_kana":"ヤマザキ","prefecture_code":12},"0024":{"zip_code":"2780024","prefecture":"千葉県","prefecture_kana":"チバケン","city":"野田市","city_kana":"ノダシ","town":"山崎梅の台","town_kana":"ヤマザキウメノダイ","prefecture_code":12},"0023":{"zip_code":"2780023","prefecture":"千葉県","prefecture_kana":"チバケン","city":"野田市","city_kana":"ノダシ","town":"山崎貝塚町","town_kana":"ヤマザキカイヅカチョウ","prefecture_code":12},"0004":{"zip_code":"2780004","prefecture":"千葉県","prefecture_kana":"チバケン","city":"野田市","city_kana":"ノダシ","town":"横内","town_kana":"ヨコウチ","prefecture_code":12},"0042":{"zip_code":"2780042","prefecture":"千葉県","prefecture_kana":"チバケン","city":"野田市","city_kana":"ノダシ","town":"吉春","town_kana":"ヨシハル","prefecture_code":12}}