{"0000":{"zip_code":"2850000","prefecture":"千葉県","prefecture_kana":"チバケン","city":"佐倉市","city_kana":"サクラシ","town":"以下に掲載がない場合","town_kana":"イカニケイサイガナイバアイ","prefecture_code":12},"0852":{"zip_code":"2850852","prefecture":"千葉県","prefecture_kana":"チバケン","city":"佐倉市","city_kana":"サクラシ","town":"青菅","town_kana":"アオスゲ","prefecture_code":12},"0835":{"zip_code":"2850835","prefecture":"千葉県","prefecture_kana":"チバケン","city":"佐倉市","city_kana":"サクラシ","town":"畔田","town_kana":"アゼタ","prefecture_code":12},"0064":{"zip_code":"2850064","prefecture":"千葉県","prefecture_kana":"チバケン","city":"佐倉市","city_kana":"サクラシ","town":"天辺","town_kana":"アマベ","prefecture_code":12},"0832":{"zip_code":"2850832","prefecture":"千葉県","prefecture_kana":"チバケン","city":"佐倉市","city_kana":"サクラシ","town":"飯重","town_kana":"イイジュウ","prefecture_code":12},"0032":{"zip_code":"2850032","prefecture":"千葉県","prefecture_kana":"チバケン","city":"佐倉市","city_kana":"サクラシ","town":"飯田","town_kana":"イイダ","prefecture_code":12},"0031":{"zip_code":"2850031","prefecture":"千葉県","prefecture_kana":"チバケン","city":"佐倉市","city_kana":"サクラシ","town":"飯田台","town_kana":"イイダダイ","prefecture_code":12},"0076":{"zip_code":"2850076","prefecture":"千葉県","prefecture_kana":"チバケン","city":"佐倉市","city_kana":"サクラシ","town":"飯塚","town_kana":"イイヅカ","prefecture_code":12},"0003":{"zip_code":"2850003","prefecture":"千葉県","prefecture_kana":"チバケン","city":"佐倉市","city_kana":"サクラシ","town":"飯野","town_kana":"イイノ","prefecture_code":12},"0009":{"zip_code":"2850009","prefecture":"千葉県","prefecture_kana":"チバケン","city":"佐倉市","city_kana":"サクラシ","town":"飯野町","town_kana":"イイノマチ","prefecture_code":12},"0813":{"zip_code":"2850813","prefecture":"千葉県","prefecture_kana":"チバケン","city":"佐倉市","city_kana":"サクラシ","town":"石川","town_kana":"イシカワ","prefecture_code":12},"0864":{"zip_code":"2850864","prefecture":"千葉県","prefecture_kana":"チバケン","city":"佐倉市","city_kana":"サクラシ","town":"稲荷台","town_kana":"イナリダイ","prefecture_code":12},"0855":{"zip_code":"2850855","prefecture":"千葉県","prefecture_kana":"チバケン","city":"佐倉市","city_kana":"サクラシ","town":"井野","town_kana":"イノ","prefecture_code":12},"0856":{"zip_code":"2850856","prefecture":"千葉県","prefecture_kana":"チバケン","city":"佐倉市","city_kana":"サクラシ","town":"井野町","town_kana":"イノマチ","prefecture_code":12},"0071":{"zip_code":"2850071","prefecture":"千葉県","prefecture_kana":"チバケン","city":"佐倉市","city_kana":"サクラシ","town":"岩富","town_kana":"イワトミ","prefecture_code":12},"0072":{"zip_code":"2850072","prefecture":"千葉県","prefecture_kana":"チバケン","city":"佐倉市","city_kana":"サクラシ","town":"岩富町","town_kana":"イワトミマチ","prefecture_code":12},"0004":{"zip_code":"2850004","prefecture":"千葉県","prefecture_kana":"チバケン","city":"佐倉市","city_kana":"サクラシ","town":"岩名","town_kana":"イワナ","prefecture_code":12},"0822":{"zip_code":"2850822","prefecture":"千葉県","prefecture_kana":"チバケン","city":"佐倉市","city_kana":"サクラシ","town":"印南","town_kana":"インナン","prefecture_code":12},"0863":{"zip_code":"2850863","prefecture":"千葉県","prefecture_kana":"チバケン","city":"佐倉市","city_kana":"サクラシ","town":"臼井","town_kana":"ウスイ","prefecture_code":12},"0861":{"zip_code":"2850861","prefecture":"千葉県","prefecture_kana":"チバケン","city":"佐倉市","city_kana":"サクラシ","town":"臼井田","town_kana":"ウスイタ","prefecture_code":12},"0866":{"zip_code":"2850866","prefecture":"千葉県","prefecture_kana":"チバケン","city":"佐倉市","city_kana":"サクラシ","town":"臼井台","town_kana":"ウスイダイ","prefecture_code":12},"0077":{"zip_code":"2850077","prefecture":"千葉県","prefecture_kana":"チバケン","city":"佐倉市","city_kana":"サクラシ","town":"内田","town_kana":"ウチダ","prefecture_code":12},"0024":{"zip_code":"2850024","prefecture":"千葉県","prefecture_kana":"チバケン","city":"佐倉市","city_kana":"サクラシ","town":"裏新町","town_kana":"ウラシンマチ","prefecture_code":12},"0055":{"zip_code":"2850055","prefecture":"千葉県","prefecture_kana":"チバケン","city":"佐倉市","city_kana":"サクラシ","town":"瓜坪新田","town_kana":"ウリツボシンデン","prefecture_code":12},"0824":{"zip_code":"2850824","prefecture":"千葉県","prefecture_kana":"チバケン","city":"佐倉市","city_kana":"サクラシ","town":"江原","town_kana":"エバラ","prefecture_code":12},"0823":{"zip_code":"2850823","prefecture":"千葉県","prefecture_kana":"チバケン","city":"佐倉市","city_kana":"サクラシ","town":"江原新田","town_kana":"エバラシンデン","prefecture_code":12},"0825":{"zip_code":"2850825","prefecture":"千葉県","prefecture_kana":"チバケン","city":"佐倉市","city_kana":"サクラシ","town":"江原台","town_kana":"エバラダイ","prefecture_code":12},"0837":{"zip_code":"2850837","prefecture":"千葉県","prefecture_kana":"チバケン","city":"佐倉市","city_kana":"サクラシ","town":"王子台","town_kana":"オウジダイ","prefecture_code":12},"0817":{"zip_code":"2850817","prefecture":"千葉県","prefecture_kana":"チバケン","city":"佐倉市","city_kana":"サクラシ","town":"大崎台","town_kana":"オオサキダイ","prefecture_code":12},"0802":{"zip_code":"2850802","prefecture":"千葉県","prefecture_kana":"チバケン","city":"佐倉市","city_kana":"サクラシ","town":"大作","town_kana":"オオサク","prefecture_code":12},"0041":{"zip_code":"2850041","prefecture":"千葉県","prefecture_kana":"チバケン","city":"佐倉市","city_kana":"サクラシ","town":"大佐倉","town_kana":"オオザクラ","prefecture_code":12},"0806":{"zip_code":"2850806","prefecture":"千葉県","prefecture_kana":"チバケン","city":"佐倉市","city_kana":"サクラシ","town":"大篠塚","town_kana":"オオシノヅカ","prefecture_code":12},"0043":{"zip_code":"2850043","prefecture":"千葉県","prefecture_kana":"チバケン","city":"佐倉市","city_kana":"サクラシ","town":"大蛇町","town_kana":"オオジャマチ","prefecture_code":12},"0808":{"zip_code":"2850808","prefecture":"千葉県","prefecture_kana":"チバケン","city":"佐倉市","city_kana":"サクラシ","town":"太田","town_kana":"オオタ","prefecture_code":12},"0853":{"zip_code":"2850853","prefecture":"千葉県","prefecture_kana":"チバケン","city":"佐倉市","city_kana":"サクラシ","town":"小竹","town_kana":"オダケ","prefecture_code":12},"0836":{"zip_code":"2850836","prefecture":"千葉県","prefecture_kana":"チバケン","city":"佐倉市","city_kana":"サクラシ","town":"生谷","town_kana":"オブカイ","prefecture_code":12},"0811":{"zip_code":"2850811","prefecture":"千葉県","prefecture_kana":"チバケン","city":"佐倉市","city_kana":"サクラシ","town":"表町","town_kana":"オモテチョウ","prefecture_code":12},"0013":{"zip_code":"2850013","prefecture":"千葉県","prefecture_kana":"チバケン","city":"佐倉市","city_kana":"サクラシ","town":"海隣寺町","town_kana":"カイリンジマチ","prefecture_code":12},"0821":{"zip_code":"2850821","prefecture":"千葉県","prefecture_kana":"チバケン","city":"佐倉市","city_kana":"サクラシ","town":"角来","town_kana":"カクライ","prefecture_code":12},"0008":{"zip_code":"2850008","prefecture":"千葉県","prefecture_kana":"チバケン","city":"佐倉市","city_kana":"サクラシ","town":"鹿島干拓","town_kana":"カシマカンタク","prefecture_code":12},"0026":{"zip_code":"2850026","prefecture":"千葉県","prefecture_kana":"チバケン","city":"佐倉市","city_kana":"サクラシ","town":"鏑木仲田町","town_kana":"カブラギナカタマチ","prefecture_code":12},"0025":{"zip_code":"2850025","prefecture":"千葉県","prefecture_kana":"チバケン","city":"佐倉市","city_kana":"サクラシ","town":"鏑木町","town_kana":"カブラギマチ","prefecture_code":12},"0054":{"zip_code":"2850054","prefecture":"千葉県","prefecture_kana":"チバケン","city":"佐倉市","city_kana":"サクラシ","town":"上勝田","town_kana":"カミカツタ","prefecture_code":12},"0846":{"zip_code":"2850846","prefecture":"千葉県","prefecture_kana":"チバケン","city":"佐倉市","city_kana":"サクラシ","town":"上志津","town_kana":"カミシヅ","prefecture_code":12},"0844":{"zip_code":"2850844","prefecture":"千葉県","prefecture_kana":"チバケン","city":"佐倉市","city_kana":"サクラシ","town":"上志津原","town_kana":"カミシヅハラ","prefecture_code":12},"0044":{"zip_code":"2850044","prefecture":"千葉県","prefecture_kana":"チバケン","city":"佐倉市","city_kana":"サクラシ","town":"上代","town_kana":"カミダイ","prefecture_code":12},"0066":{"zip_code":"2850066","prefecture":"千葉県","prefecture_kana":"チバケン","city":"佐倉市","city_kana":"サクラシ","town":"上別所","town_kana":"カミベッシヨ","prefecture_code":12},"0801":{"zip_code":"2850801","prefecture":"千葉県","prefecture_kana":"チバケン","city":"佐倉市","city_kana":"サクラシ","town":"木野子","town_kana":"キノコ","prefecture_code":12},"0803":{"zip_code":"2850803","prefecture":"千葉県","prefecture_kana":"チバケン","city":"佐倉市","city_kana":"サクラシ","town":"神門","town_kana":"ゴウド","prefecture_code":12},"0805":{"zip_code":"2850805","prefecture":"千葉県","prefecture_kana":"チバケン","city":"佐倉市","city_kana":"サクラシ","town":"小篠塚","town_kana":"コシノヅカ","prefecture_code":12},"0057":{"zip_code":"2850057","prefecture":"千葉県","prefecture_kana":"チバケン","city":"佐倉市","city_kana":"サクラシ","town":"米戸","town_kana":"コメド","prefecture_code":12},"0014":{"zip_code":"2850014","prefecture":"千葉県","prefecture_kana":"チバケン","city":"佐倉市","city_kana":"サクラシ","town":"栄町","town_kana":"サカエチョウ","prefecture_code":12},"0078":{"zip_code":"2850078","prefecture":"千葉県","prefecture_kana":"チバケン","city":"佐倉市","city_kana":"サクラシ","town":"坂戸","town_kana":"サカド","prefecture_code":12},"0062":{"zip_code":"2850062","prefecture":"千葉県","prefecture_kana":"チバケン","city":"佐倉市","city_kana":"サクラシ","town":"寒風","town_kana":"サムカゼ","prefecture_code":12},"0807":{"zip_code":"2850807","prefecture":"千葉県","prefecture_kana":"チバケン","city":"佐倉市","city_kana":"サクラシ","town":"山王","town_kana":"サンノウ","prefecture_code":12},"0053":{"zip_code":"2850053","prefecture":"千葉県","prefecture_kana":"チバケン","city":"佐倉市","city_kana":"サクラシ","town":"下勝田","town_kana":"シモカツタ","prefecture_code":12},"0841":{"zip_code":"2850841","prefecture":"千葉県","prefecture_kana":"チバケン","city":"佐倉市","city_kana":"サクラシ","town":"下志津","town_kana":"シモシヅ","prefecture_code":12},"0842":{"zip_code":"2850842","prefecture":"千葉県","prefecture_kana":"チバケン","city":"佐倉市","city_kana":"サクラシ","town":"下志津原","town_kana":"シモシヅハラ","prefecture_code":12},"0006":{"zip_code":"2850006","prefecture":"千葉県","prefecture_kana":"チバケン","city":"佐倉市","city_kana":"サクラシ","town":"下根","town_kana":"シモネ","prefecture_code":12},"0007":{"zip_code":"2850007","prefecture":"千葉県","prefecture_kana":"チバケン","city":"佐倉市","city_kana":"サクラシ","town":"下根町","town_kana":"シモネマチ","prefecture_code":12},"0035":{"zip_code":"2850035","prefecture":"千葉県","prefecture_kana":"チバケン","city":"佐倉市","city_kana":"サクラシ","town":"樹木町","town_kana":"ジュモクマチ","prefecture_code":12},"0815":{"zip_code":"2850815","prefecture":"千葉県","prefecture_kana":"チバケン","city":"佐倉市","city_kana":"サクラシ","town":"城","town_kana":"ジョウ","prefecture_code":12},"0854":{"zip_code":"2850854","prefecture":"千葉県","prefecture_kana":"チバケン","city":"佐倉市","city_kana":"サクラシ","town":"上座","town_kana":"ジョウザ","prefecture_code":12},"0017":{"zip_code":"2850017","prefecture":"千葉県","prefecture_kana":"チバケン","city":"佐倉市","city_kana":"サクラシ","town":"城内町","town_kana":"ジョウナイチョウ","prefecture_code":12},"0045":{"zip_code":"2850045","prefecture":"千葉県","prefecture_kana":"チバケン","city":"佐倉市","city_kana":"サクラシ","town":"白銀","town_kana":"シロガネ","prefecture_code":12},"0862":{"zip_code":"2850862","prefecture":"千葉県","prefecture_kana":"チバケン","city":"佐倉市","city_kana":"サクラシ","town":"新臼井田","town_kana":"シンウスイダ","prefecture_code":12},"0023":{"zip_code":"2850023","prefecture":"千葉県","prefecture_kana":"チバケン","city":"佐倉市","city_kana":"サクラシ","town":"新町","town_kana":"シンマチ","prefecture_code":12},"0034":{"zip_code":"2850034","prefecture":"千葉県","prefecture_kana":"チバケン","city":"佐倉市","city_kana":"サクラシ","town":"千成","town_kana":"センナリ","prefecture_code":12},"0831":{"zip_code":"2850831","prefecture":"千葉県","prefecture_kana":"チバケン","city":"佐倉市","city_kana":"サクラシ","town":"染井野","town_kana":"ソメイノ","prefecture_code":12},"0046":{"zip_code":"2850046","prefecture":"千葉県","prefecture_kana":"チバケン","city":"佐倉市","city_kana":"サクラシ","town":"高岡","town_kana":"タカオカ","prefecture_code":12},"0061":{"zip_code":"2850061","prefecture":"千葉県","prefecture_kana":"チバケン","city":"佐倉市","city_kana":"サクラシ","town":"高崎","town_kana":"タカサキ","prefecture_code":12},"0012":{"zip_code":"2850012","prefecture":"千葉県","prefecture_kana":"チバケン","city":"佐倉市","city_kana":"サクラシ","town":"田町","town_kana":"タマチ","prefecture_code":12},"0001":{"zip_code":"2850001","prefecture":"千葉県","prefecture_kana":"チバケン","city":"佐倉市","city_kana":"サクラシ","town":"土浮","town_kana":"ツチウキ","prefecture_code":12},"0056":{"zip_code":"2850056","prefecture":"千葉県","prefecture_kana":"チバケン","city":"佐倉市","city_kana":"サクラシ","town":"坪山新田","town_kana":"ツボヤマシンデン","prefecture_code":12},"0818":{"zip_code":"2850818","prefecture":"千葉県","prefecture_kana":"チバケン","city":"佐倉市","city_kana":"サクラシ","town":"寺崎","town_kana":"テラザキ","prefecture_code":12},"0819":{"zip_code":"2850819","prefecture":"千葉県","prefecture_kana":"チバケン","city":"佐倉市","city_kana":"サクラシ","town":"寺崎北","town_kana":"テラザキキタ","prefecture_code":12},"0816":{"zip_code":"2850816","prefecture":"千葉県","prefecture_kana":"チバケン","city":"佐倉市","city_kana":"サクラシ","town":"藤治台","town_kana":"トウジダイ","prefecture_code":12},"0065":{"zip_code":"2850065","prefecture":"千葉県","prefecture_kana":"チバケン","city":"佐倉市","city_kana":"サクラシ","town":"直弥","town_kana":"ナオヤ","prefecture_code":12},"0843":{"zip_code":"2850843","prefecture":"千葉県","prefecture_kana":"チバケン","city":"佐倉市","city_kana":"サクラシ","town":"中志津","town_kana":"ナカシヅ","prefecture_code":12},"0022":{"zip_code":"2850022","prefecture":"千葉県","prefecture_kana":"チバケン","city":"佐倉市","city_kana":"サクラシ","town":"中尾余町","town_kana":"ナカビョウマチ","prefecture_code":12},"0051":{"zip_code":"2850051","prefecture":"千葉県","prefecture_kana":"チバケン","city":"佐倉市","city_kana":"サクラシ","town":"長熊","town_kana":"ナガクマ","prefecture_code":12},"0073":{"zip_code":"2850073","prefecture":"千葉県","prefecture_kana":"チバケン","city":"佐倉市","city_kana":"サクラシ","town":"七曲","town_kana":"ナナマガリ","prefecture_code":12},"0033":{"zip_code":"2850033","prefecture":"千葉県","prefecture_kana":"チバケン","city":"佐倉市","city_kana":"サクラシ","town":"鍋山町","town_kana":"ナベヤママチ","prefecture_code":12},"0015":{"zip_code":"2850015","prefecture":"千葉県","prefecture_kana":"チバケン","city":"佐倉市","city_kana":"サクラシ","town":"並木町","town_kana":"ナミキマチ","prefecture_code":12},"0845":{"zip_code":"2850845","prefecture":"千葉県","prefecture_kana":"チバケン","city":"佐倉市","city_kana":"サクラシ","town":"西志津","town_kana":"ニシシヅ","prefecture_code":12},"0074":{"zip_code":"2850074","prefecture":"千葉県","prefecture_kana":"チバケン","city":"佐倉市","city_kana":"サクラシ","town":"西御門","town_kana":"ニシミカド","prefecture_code":12},"0850":{"zip_code":"2850850","prefecture":"千葉県","prefecture_kana":"チバケン","city":"佐倉市","city_kana":"サクラシ","town":"西ユーカリが丘","town_kana":"ニシユーカリガオカ","prefecture_code":12},"0002":{"zip_code":"2850002","prefecture":"千葉県","prefecture_kana":"チバケン","city":"佐倉市","city_kana":"サクラシ","town":"萩山新田","town_kana":"ハギヤマシンデン","prefecture_code":12},"0867":{"zip_code":"2850867","prefecture":"千葉県","prefecture_kana":"チバケン","city":"佐倉市","city_kana":"サクラシ","town":"八幡台","town_kana":"ハチマンダイ","prefecture_code":12},"0833":{"zip_code":"2850833","prefecture":"千葉県","prefecture_kana":"チバケン","city":"佐倉市","city_kana":"サクラシ","town":"羽鳥","town_kana":"ハドリ","prefecture_code":12},"0814":{"zip_code":"2850814","prefecture":"千葉県","prefecture_kana":"チバケン","city":"佐倉市","city_kana":"サクラシ","town":"春路","town_kana":"ハルジ","prefecture_code":12},"0036":{"zip_code":"2850036","prefecture":"千葉県","prefecture_kana":"チバケン","city":"佐倉市","city_kana":"サクラシ","town":"藤沢町","town_kana":"フジサワマチ","prefecture_code":12},"0042":{"zip_code":"2850042","prefecture":"千葉県","prefecture_kana":"チバケン","city":"佐倉市","city_kana":"サクラシ","town":"将門町","town_kana":"マサカドマチ","prefecture_code":12},"0851":{"zip_code":"2850851","prefecture":"千葉県","prefecture_kana":"チバケン","city":"佐倉市","city_kana":"サクラシ","town":"先崎","town_kana":"マッサキ","prefecture_code":12},"0804":{"zip_code":"2850804","prefecture":"千葉県","prefecture_kana":"チバケン","city":"佐倉市","city_kana":"サクラシ","town":"馬渡","town_kana":"マワタシ","prefecture_code":12},"0865":{"zip_code":"2850865","prefecture":"千葉県","prefecture_kana":"チバケン","city":"佐倉市","city_kana":"サクラシ","town":"南臼井台","town_kana":"ミナミウスイダイ","prefecture_code":12},"0859":{"zip_code":"2850859","prefecture":"千葉県","prefecture_kana":"チバケン","city":"佐倉市","city_kana":"サクラシ","town":"南ユーカリが丘","town_kana":"ミナミユーカリガオカ","prefecture_code":12},"0075":{"zip_code":"2850075","prefecture":"千葉県","prefecture_kana":"チバケン","city":"佐倉市","city_kana":"サクラシ","town":"宮内","town_kana":"ミヤウチ","prefecture_code":12},"0016":{"zip_code":"2850016","prefecture":"千葉県","prefecture_kana":"チバケン","city":"佐倉市","city_kana":"サクラシ","town":"宮小路町","town_kana":"ミヤコウジマチ","prefecture_code":12},"0857":{"zip_code":"2850857","prefecture":"千葉県","prefecture_kana":"チバケン","city":"佐倉市","city_kana":"サクラシ","town":"宮ノ台","town_kana":"ミヤノダイ","prefecture_code":12},"0005":{"zip_code":"2850005","prefecture":"千葉県","prefecture_kana":"チバケン","city":"佐倉市","city_kana":"サクラシ","town":"宮前","town_kana":"ミヤマエ","prefecture_code":12},"0063":{"zip_code":"2850063","prefecture":"千葉県","prefecture_kana":"チバケン","city":"佐倉市","city_kana":"サクラシ","town":"宮本","town_kana":"ミヤモト","prefecture_code":12},"0038":{"zip_code":"2850038","prefecture":"千葉県","prefecture_kana":"チバケン","city":"佐倉市","city_kana":"サクラシ","town":"弥勒町","town_kana":"ミロクマチ","prefecture_code":12},"0812":{"zip_code":"2850812","prefecture":"千葉県","prefecture_kana":"チバケン","city":"佐倉市","city_kana":"サクラシ","town":"六崎","town_kana":"ムツザキ","prefecture_code":12},"0021":{"zip_code":"2850021","prefecture":"千葉県","prefecture_kana":"チバケン","city":"佐倉市","city_kana":"サクラシ","town":"最上町","town_kana":"モガミマチ","prefecture_code":12},"0037":{"zip_code":"2850037","prefecture":"千葉県","prefecture_kana":"チバケン","city":"佐倉市","city_kana":"サクラシ","town":"本町","town_kana":"モトマチ","prefecture_code":12},"0052":{"zip_code":"2850052","prefecture":"千葉県","prefecture_kana":"チバケン","city":"佐倉市","city_kana":"サクラシ","town":"八木","town_kana":"ヤギ","prefecture_code":12},"0039":{"zip_code":"2850039","prefecture":"千葉県","prefecture_kana":"チバケン","city":"佐倉市","city_kana":"サクラシ","town":"野狐台町","town_kana":"ヤッコダイマチ","prefecture_code":12},"0011":{"zip_code":"2850011","prefecture":"千葉県","prefecture_kana":"チバケン","city":"佐倉市","city_kana":"サクラシ","town":"山崎","town_kana":"ヤマノサキ","prefecture_code":12},"0858":{"zip_code":"2850858","prefecture":"千葉県","prefecture_kana":"チバケン","city":"佐倉市","city_kana":"サクラシ","town":"ユーカリが丘","town_kana":"ユーカリガオカ","prefecture_code":12},"0834":{"zip_code":"2850834","prefecture":"千葉県","prefecture_kana":"チバケン","city":"佐倉市","city_kana":"サクラシ","town":"吉見","town_kana":"ヨシミ","prefecture_code":12},"0900":{"zip_code":"2850900","prefecture":"千葉県","prefecture_kana":"チバケン","city":"印旛郡酒々井町","city_kana":"インバグンシスイマチ","town":"以下に掲載がない場合","town_kana":"イカニケイサイガナイバアイ","prefecture_code":12},"0912":{"zip_code":"2850912","prefecture":"千葉県","prefecture_kana":"チバケン","city":"印旛郡酒々井町","city_kana":"インバグンシスイマチ","town":"飯積","town_kana":"イイズミ","prefecture_code":12},"0902":{"zip_code":"2850902","prefecture":"千葉県","prefecture_kana":"チバケン","city":"印旛郡酒々井町","city_kana":"インバグンシスイマチ","town":"伊篠","town_kana":"イジノ","prefecture_code":12},"0904":{"zip_code":"2850904","prefecture":"千葉県","prefecture_kana":"チバケン","city":"印旛郡酒々井町","city_kana":"インバグンシスイマチ","town":"伊篠新田","town_kana":"イジノシンデン","prefecture_code":12},"0903":{"zip_code":"2850903","prefecture":"千葉県","prefecture_kana":"チバケン","city":"印旛郡酒々井町","city_kana":"インバグンシスイマチ","town":"今倉新田","town_kana":"イマクラシンデン","prefecture_code":12},"0911":{"zip_code":"2850911","prefecture":"千葉県","prefecture_kana":"チバケン","city":"印旛郡酒々井町","city_kana":"インバグンシスイマチ","town":"尾上","town_kana":"オガミ","prefecture_code":12},"0906":{"zip_code":"2850906","prefecture":"千葉県","prefecture_kana":"チバケン","city":"印旛郡酒々井町","city_kana":"インバグンシスイマチ","town":"柏木","town_kana":"カシワキ","prefecture_code":12},"0905":{"zip_code":"2850905","prefecture":"千葉県","prefecture_kana":"チバケン","city":"印旛郡酒々井町","city_kana":"インバグンシスイマチ","town":"上岩橋","town_kana":"カミイワハシ","prefecture_code":12},"0925":{"zip_code":"2850925","prefecture":"千葉県","prefecture_kana":"チバケン","city":"印旛郡酒々井町","city_kana":"インバグンシスイマチ","town":"上本佐倉","town_kana":"カミモトサクラ","prefecture_code":12},"0927":{"zip_code":"2850927","prefecture":"千葉県","prefecture_kana":"チバケン","city":"印旛郡酒々井町","city_kana":"インバグンシスイマチ","town":"酒々井","town_kana":"シスイ","prefecture_code":12},"0901":{"zip_code":"2850901","prefecture":"千葉県","prefecture_kana":"チバケン","city":"印旛郡酒々井町","city_kana":"インバグンシスイマチ","town":"篠山新田","town_kana":"シノヤマシンデン","prefecture_code":12},"0907":{"zip_code":"2850907","prefecture":"千葉県","prefecture_kana":"チバケン","city":"印旛郡酒々井町","city_kana":"インバグンシスイマチ","town":"下岩橋","town_kana":"シモイワハシ","prefecture_code":12},"0924":{"zip_code":"2850924","prefecture":"千葉県","prefecture_kana":"チバケン","city":"印旛郡酒々井町","city_kana":"インバグンシスイマチ","town":"下台","town_kana":"シモダイ","prefecture_code":12},"0913":{"zip_code":"2850913","prefecture":"千葉県","prefecture_kana":"チバケン","city":"印旛郡酒々井町","city_kana":"インバグンシスイマチ","town":"墨","town_kana":"スミ","prefecture_code":12},"0922":{"zip_code":"2850922","prefecture":"千葉県","prefecture_kana":"チバケン","city":"印旛郡酒々井町","city_kana":"インバグンシスイマチ","town":"中央台","town_kana":"チュウオウダイ","prefecture_code":12},"0921":{"zip_code":"2850921","prefecture":"千葉県","prefecture_kana":"チバケン","city":"印旛郡酒々井町","city_kana":"インバグンシスイマチ","town":"中川","town_kana":"ナカガワ","prefecture_code":12},"0923":{"zip_code":"2850923","prefecture":"千葉県","prefecture_kana":"チバケン","city":"印旛郡酒々井町","city_kana":"インバグンシスイマチ","town":"東酒々井","town_kana":"ヒガシシスイ","prefecture_code":12},"0928":{"zip_code":"2850928","prefecture":"千葉県","prefecture_kana":"チバケン","city":"印旛郡酒々井町","city_kana":"インバグンシスイマチ","town":"ふじき野","town_kana":"フジキノ","prefecture_code":12},"0914":{"zip_code":"2850914","prefecture":"千葉県","prefecture_kana":"チバケン","city":"印旛郡酒々井町","city_kana":"インバグンシスイマチ","town":"馬橋","town_kana":"マバシ","prefecture_code":12},"0926":{"zip_code":"2850926","prefecture":"千葉県","prefecture_kana":"チバケン","city":"印旛郡酒々井町","city_kana":"インバグンシスイマチ","town":"本佐倉","town_kana":"モトサクラ","prefecture_code":12}}