{"0000":{"zip_code":"2860000","prefecture":"千葉県","prefecture_kana":"チバケン","city":"成田市","city_kana":"ナリタシ","town":"","town_kana":"","prefecture_code":12},"0832":{"zip_code":"2860832","prefecture":"千葉県","prefecture_kana":"チバケン","city":"成田市","city_kana":"ナリタシ","town":"赤荻","town_kana":"アカオギ","prefecture_code":12},"0017":{"zip_code":"2860017","prefecture":"千葉県","prefecture_kana":"チバケン","city":"成田市","city_kana":"ナリタシ","town":"赤坂","town_kana":"アカサカ","prefecture_code":12},"0831":{"zip_code":"2860831","prefecture":"千葉県","prefecture_kana":"チバケン","city":"成田市","city_kana":"ナリタシ","town":"芦田","town_kana":"アシダ","prefecture_code":12},"0025":{"zip_code":"2860025","prefecture":"千葉県","prefecture_kana":"チバケン","city":"成田市","city_kana":"ナリタシ","town":"東町","town_kana":"アズマチョウ","prefecture_code":12},"0018":{"zip_code":"2860018","prefecture":"千葉県","prefecture_kana":"チバケン","city":"成田市","city_kana":"ナリタシ","town":"吾妻","town_kana":"アヅマ","prefecture_code":12},"0818":{"zip_code":"2860818","prefecture":"千葉県","prefecture_kana":"チバケン","city":"成田市","city_kana":"ナリタシ","town":"荒海","town_kana":"アラウミ","prefecture_code":12},"0803":{"zip_code":"2860803","prefecture":"千葉県","prefecture_kana":"チバケン","city":"成田市","city_kana":"ナリタシ","town":"安西","town_kana":"アンサイ","prefecture_code":12},"0041":{"zip_code":"2860041","prefecture":"千葉県","prefecture_kana":"チバケン","city":"成田市","city_kana":"ナリタシ","town":"飯田町","town_kana":"イイダチョウ","prefecture_code":12},"0046":{"zip_code":"2860046","prefecture":"千葉県","prefecture_kana":"チバケン","city":"成田市","city_kana":"ナリタシ","town":"飯仲","town_kana":"イイナカ","prefecture_code":12},"0035":{"zip_code":"2860035","prefecture":"千葉県","prefecture_kana":"チバケン","city":"成田市","city_kana":"ナリタシ","town":"囲護台","town_kana":"イゴダイ","prefecture_code":12},"0811":{"zip_code":"2860811","prefecture":"千葉県","prefecture_kana":"チバケン","city":"成田市","city_kana":"ナリタシ","town":"磯部","town_kana":"イソベ","prefecture_code":12},"0813":{"zip_code":"2860813","prefecture":"千葉県","prefecture_kana":"チバケン","city":"成田市","city_kana":"ナリタシ","town":"飯岡","town_kana":"イノオカ","prefecture_code":12},"0029":{"zip_code":"2860029","prefecture":"千葉県","prefecture_kana":"チバケン","city":"成田市","city_kana":"ナリタシ","town":"ウイング土屋","town_kana":"ウイングツチヤ","prefecture_code":12},"0047":{"zip_code":"2860047","prefecture":"千葉県","prefecture_kana":"チバケン","city":"成田市","city_kana":"ナリタシ","town":"江弁須","town_kana":"エベス","prefecture_code":12},"0817":{"zip_code":"2860817","prefecture":"千葉県","prefecture_kana":"チバケン","city":"成田市","city_kana":"ナリタシ","town":"大生","town_kana":"オオウ","prefecture_code":12},"0122":{"zip_code":"2860122","prefecture":"千葉県","prefecture_kana":"チバケン","city":"成田市","city_kana":"ナリタシ","town":"大清水","town_kana":"オオシミズ","prefecture_code":12},"0841":{"zip_code":"2860841","prefecture":"千葉県","prefecture_kana":"チバケン","city":"成田市","city_kana":"ナリタシ","town":"大竹","town_kana":"オオダケ","prefecture_code":12},"0043":{"zip_code":"2860043","prefecture":"千葉県","prefecture_kana":"チバケン","city":"成田市","city_kana":"ナリタシ","town":"大袋","town_kana":"オオブクロ","prefecture_code":12},"0821":{"zip_code":"2860821","prefecture":"千葉県","prefecture_kana":"チバケン","city":"成田市","city_kana":"ナリタシ","town":"大室","town_kana":"オオムロ","prefecture_code":12},"0131":{"zip_code":"2860131","prefecture":"千葉県","prefecture_kana":"チバケン","city":"成田市","city_kana":"ナリタシ","town":"大山","town_kana":"オオヤマ","prefecture_code":12},"0845":{"zip_code":"2860845","prefecture":"千葉県","prefecture_kana":"チバケン","city":"成田市","city_kana":"ナリタシ","town":"押畑","town_kana":"オシハタ","prefecture_code":12},"0032":{"zip_code":"2860032","prefecture":"千葉県","prefecture_kana":"チバケン","city":"成田市","city_kana":"ナリタシ","town":"上町","town_kana":"カミチョウ","prefecture_code":12},"0842":{"zip_code":"2860842","prefecture":"千葉県","prefecture_kana":"チバケン","city":"成田市","city_kana":"ナリタシ","town":"上福田","town_kana":"カミフクダ","prefecture_code":12},"0036":{"zip_code":"2860036","prefecture":"千葉県","prefecture_kana":"チバケン","city":"成田市","city_kana":"ナリタシ","town":"加良部","town_kana":"カラベ","prefecture_code":12},"0125":{"zip_code":"2860125","prefecture":"千葉県","prefecture_kana":"チバケン","city":"成田市","city_kana":"ナリタシ","town":"川栗","town_kana":"カワグリ","prefecture_code":12},"0006":{"zip_code":"2860006","prefecture":"千葉県","prefecture_kana":"チバケン","city":"成田市","city_kana":"ナリタシ","town":"北須賀","town_kana":"キタスカ","prefecture_code":12},"0807":{"zip_code":"2860807","prefecture":"千葉県","prefecture_kana":"チバケン","city":"成田市","city_kana":"ナリタシ","town":"北羽鳥","town_kana":"キタハドリ","prefecture_code":12},"0105":{"zip_code":"2860105","prefecture":"千葉県","prefecture_kana":"チバケン","city":"成田市","city_kana":"ナリタシ","town":"木の根","town_kana":"キノネ","prefecture_code":12},"0819":{"zip_code":"2860819","prefecture":"千葉県","prefecture_kana":"チバケン","city":"成田市","city_kana":"ナリタシ","town":"久住中央","town_kana":"クズミチュウオウ","prefecture_code":12},"0136":{"zip_code":"2860136","prefecture":"千葉県","prefecture_kana":"チバケン","city":"成田市","city_kana":"ナリタシ","town":"久米","town_kana":"クメ","prefecture_code":12},"0126":{"zip_code":"2860126","prefecture":"千葉県","prefecture_kana":"チバケン","city":"成田市","city_kana":"ナリタシ","town":"久米野","town_kana":"クメノ","prefecture_code":12},"0823":{"zip_code":"2860823","prefecture":"千葉県","prefecture_kana":"チバケン","city":"成田市","city_kana":"ナリタシ","town":"小泉","town_kana":"コイズミ","prefecture_code":12},"0048":{"zip_code":"2860048","prefecture":"千葉県","prefecture_kana":"チバケン","city":"成田市","city_kana":"ナリタシ","town":"公津の杜","town_kana":"コウヅノモリ","prefecture_code":12},"0014":{"zip_code":"2860014","prefecture":"千葉県","prefecture_kana":"チバケン","city":"成田市","city_kana":"ナリタシ","town":"郷部","town_kana":"ゴウブ","prefecture_code":12},"0137":{"zip_code":"2860137","prefecture":"千葉県","prefecture_kana":"チバケン","city":"成田市","city_kana":"ナリタシ","town":"御所の内","town_kana":"ゴショノウチ","prefecture_code":12},"0127":{"zip_code":"2860127","prefecture":"千葉県","prefecture_kana":"チバケン","city":"成田市","city_kana":"ナリタシ","town":"小菅","town_kana":"コスゲ","prefecture_code":12},"0121":{"zip_code":"2860121","prefecture":"千葉県","prefecture_kana":"チバケン","city":"成田市","city_kana":"ナリタシ","town":"駒井野","town_kana":"コマイノ","prefecture_code":12},"0028":{"zip_code":"2860028","prefecture":"千葉県","prefecture_kana":"チバケン","city":"成田市","city_kana":"ナリタシ","town":"幸町","town_kana":"サイワイチョウ","prefecture_code":12},"0808":{"zip_code":"2860808","prefecture":"千葉県","prefecture_kana":"チバケン","city":"成田市","city_kana":"ナリタシ","town":"佐野","town_kana":"サノ","prefecture_code":12},"0116":{"zip_code":"2860116","prefecture":"千葉県","prefecture_kana":"チバケン","city":"成田市","city_kana":"ナリタシ","town":"三里塚御料","town_kana":"サンリヅカゴリョウ","prefecture_code":12},"0117":{"zip_code":"2860117","prefecture":"千葉県","prefecture_kana":"チバケン","city":"成田市","city_kana":"ナリタシ","town":"三里塚光ケ丘","town_kana":"サンリヅカヒカリガオカ","prefecture_code":12},"0111":{"zip_code":"2860111","prefecture":"千葉県","prefecture_kana":"チバケン","city":"成田市","city_kana":"ナリタシ","town":"三里塚","town_kana":"サンリヅカ","prefecture_code":12},"0005":{"zip_code":"2860005","prefecture":"千葉県","prefecture_kana":"チバケン","city":"成田市","city_kana":"ナリタシ","town":"下方","town_kana":"シタカタ","prefecture_code":12},"0822":{"zip_code":"2860822","prefecture":"千葉県","prefecture_kana":"チバケン","city":"成田市","city_kana":"ナリタシ","town":"芝","town_kana":"シバ","prefecture_code":12},"0836":{"zip_code":"2860836","prefecture":"千葉県","prefecture_kana":"チバケン","city":"成田市","city_kana":"ナリタシ","town":"下金山","town_kana":"シモカナヤマ","prefecture_code":12},"0843":{"zip_code":"2860843","prefecture":"千葉県","prefecture_kana":"チバケン","city":"成田市","city_kana":"ナリタシ","town":"下福田","town_kana":"シモフクダ","prefecture_code":12},"0825":{"zip_code":"2860825","prefecture":"千葉県","prefecture_kana":"チバケン","city":"成田市","city_kana":"ナリタシ","town":"新泉","town_kana":"シンイズミ","prefecture_code":12},"0123":{"zip_code":"2860123","prefecture":"千葉県","prefecture_kana":"チバケン","city":"成田市","city_kana":"ナリタシ","town":"新駒井野","town_kana":"シンコマイノ","prefecture_code":12},"0031":{"zip_code":"2860031","prefecture":"千葉県","prefecture_kana":"チバケン","city":"成田市","city_kana":"ナリタシ","town":"新町","town_kana":"シンマチ","prefecture_code":12},"0835":{"zip_code":"2860835","prefecture":"千葉県","prefecture_kana":"チバケン","city":"成田市","city_kana":"ナリタシ","town":"関戸","town_kana":"セキド","prefecture_code":12},"0004":{"zip_code":"2860004","prefecture":"千葉県","prefecture_kana":"チバケン","city":"成田市","city_kana":"ナリタシ","town":"宗吾","town_kana":"ソウゴ","prefecture_code":12},"0003":{"zip_code":"2860003","prefecture":"千葉県","prefecture_kana":"チバケン","city":"成田市","city_kana":"ナリタシ","town":"台方","town_kana":"ダイカタ","prefecture_code":12},"0844":{"zip_code":"2860844","prefecture":"千葉県","prefecture_kana":"チバケン","city":"成田市","city_kana":"ナリタシ","town":"宝田","town_kana":"タカラダ","prefecture_code":12},"0801":{"zip_code":"2860801","prefecture":"千葉県","prefecture_kana":"チバケン","city":"成田市","city_kana":"ナリタシ","town":"竜台","town_kana":"タツダイ","prefecture_code":12},"0024":{"zip_code":"2860024","prefecture":"千葉県","prefecture_kana":"チバケン","city":"成田市","city_kana":"ナリタシ","town":"田町","town_kana":"タマチ","prefecture_code":12},"0011":{"zip_code":"2860011","prefecture":"千葉県","prefecture_kana":"チバケン","city":"成田市","city_kana":"ナリタシ","town":"玉造","town_kana":"タマツクリ","prefecture_code":12},"0815":{"zip_code":"2860815","prefecture":"千葉県","prefecture_kana":"チバケン","city":"成田市","city_kana":"ナリタシ","town":"土室","town_kana":"ツチムロ","prefecture_code":12},"0021":{"zip_code":"2860021","prefecture":"千葉県","prefecture_kana":"チバケン","city":"成田市","city_kana":"ナリタシ","town":"土屋","town_kana":"ツチヤ","prefecture_code":12},"0022":{"zip_code":"2860022","prefecture":"千葉県","prefecture_kana":"チバケン","city":"成田市","city_kana":"ナリタシ","town":"寺台","town_kana":"テラダイ","prefecture_code":12},"0102":{"zip_code":"2860102","prefecture":"千葉県","prefecture_kana":"チバケン","city":"成田市","city_kana":"ナリタシ","town":"天神峰","town_kana":"テンジンミネ","prefecture_code":12},"0103":{"zip_code":"2860103","prefecture":"千葉県","prefecture_kana":"チバケン","city":"成田市","city_kana":"ナリタシ","town":"東峰","town_kana":"トウホウ","prefecture_code":12},"0134":{"zip_code":"2860134","prefecture":"千葉県","prefecture_kana":"チバケン","city":"成田市","city_kana":"ナリタシ","town":"東和田","town_kana":"トウワダ","prefecture_code":12},"0106":{"zip_code":"2860106","prefecture":"千葉県","prefecture_kana":"チバケン","city":"成田市","city_kana":"ナリタシ","town":"取香","town_kana":"トッコウ","prefecture_code":12},"0101":{"zip_code":"2860101","prefecture":"千葉県","prefecture_kana":"チバケン","city":"成田市","city_kana":"ナリタシ","town":"十余三","town_kana":"トヨミ","prefecture_code":12},"0015":{"zip_code":"2860015","prefecture":"千葉県","prefecture_kana":"チバケン","city":"成田市","city_kana":"ナリタシ","town":"中台","town_kana":"ナカダイ","prefecture_code":12},"0027":{"zip_code":"2860027","prefecture":"千葉県","prefecture_kana":"チバケン","city":"成田市","city_kana":"ナリタシ","town":"仲町","town_kana":"ナカマチ","prefecture_code":12},"0108":{"zip_code":"2860108","prefecture":"千葉県","prefecture_kana":"チバケン","city":"成田市","city_kana":"ナリタシ","town":"長田","town_kana":"ナガタ","prefecture_code":12},"0804":{"zip_code":"2860804","prefecture":"千葉県","prefecture_kana":"チバケン","city":"成田市","city_kana":"ナリタシ","town":"長沼","town_kana":"ナガヌマ","prefecture_code":12},"0045":{"zip_code":"2860045","prefecture":"千葉県","prefecture_kana":"チバケン","city":"成田市","city_kana":"ナリタシ","town":"並木町","town_kana":"ナミキチョウ","prefecture_code":12},"0023":{"zip_code":"2860023","prefecture":"千葉県","prefecture_kana":"チバケン","city":"成田市","city_kana":"ナリタシ","town":"成田","town_kana":"ナリタ","prefecture_code":12},"0816":{"zip_code":"2860816","prefecture":"千葉県","prefecture_kana":"チバケン","city":"成田市","city_kana":"ナリタシ","town":"成毛","town_kana":"ナルゲ","prefecture_code":12},"0806":{"zip_code":"2860806","prefecture":"千葉県","prefecture_kana":"チバケン","city":"成田市","city_kana":"ナリタシ","town":"南部","town_kana":"ナンブ","prefecture_code":12},"0042":{"zip_code":"2860042","prefecture":"千葉県","prefecture_kana":"チバケン","city":"成田市","city_kana":"ナリタシ","town":"南平台","town_kana":"ナンペイダイ","prefecture_code":12},"0827":{"zip_code":"2860827","prefecture":"千葉県","prefecture_kana":"チバケン","city":"成田市","city_kana":"ナリタシ","town":"西和泉","town_kana":"ニシイズミ","prefecture_code":12},"0115":{"zip_code":"2860115","prefecture":"千葉県","prefecture_kana":"チバケン","city":"成田市","city_kana":"ナリタシ","town":"西三里塚","town_kana":"ニシサンリヅカ","prefecture_code":12},"0837":{"zip_code":"2860837","prefecture":"千葉県","prefecture_kana":"チバケン","city":"成田市","city_kana":"ナリタシ","town":"新妻","town_kana":"ニッツマ","prefecture_code":12},"0824":{"zip_code":"2860824","prefecture":"千葉県","prefecture_kana":"チバケン","city":"成田市","city_kana":"ナリタシ","town":"野毛平","town_kana":"ノゲダイラ","prefecture_code":12},"0037":{"zip_code":"2860037","prefecture":"千葉県","prefecture_kana":"チバケン","city":"成田市","city_kana":"ナリタシ","town":"橋賀台","town_kana":"ハシカダイ","prefecture_code":12},"0124":{"zip_code":"2860124","prefecture":"千葉県","prefecture_kana":"チバケン","city":"成田市","city_kana":"ナリタシ","town":"畑ケ田","town_kana":"ハタケダ","prefecture_code":12},"0814":{"zip_code":"2860814","prefecture":"千葉県","prefecture_kana":"チバケン","city":"成田市","city_kana":"ナリタシ","town":"幡谷","town_kana":"ハタヤ","prefecture_code":12},"0033":{"zip_code":"2860033","prefecture":"千葉県","prefecture_kana":"チバケン","city":"成田市","city_kana":"ナリタシ","town":"花崎町","town_kana":"ハナザキチョウ","prefecture_code":12},"0007":{"zip_code":"2860007","prefecture":"千葉県","prefecture_kana":"チバケン","city":"成田市","city_kana":"ナリタシ","town":"はなのき台","town_kana":"ハナノキダイ","prefecture_code":12},"0132":{"zip_code":"2860132","prefecture":"千葉県","prefecture_kana":"チバケン","city":"成田市","city_kana":"ナリタシ","town":"馬場","town_kana":"ババ","prefecture_code":12},"0826":{"zip_code":"2860826","prefecture":"千葉県","prefecture_kana":"チバケン","city":"成田市","city_kana":"ナリタシ","town":"東和泉","town_kana":"ヒガシイズミ","prefecture_code":12},"0833":{"zip_code":"2860833","prefecture":"千葉県","prefecture_kana":"チバケン","city":"成田市","city_kana":"ナリタシ","town":"東金山","town_kana":"ヒガシカナヤマ","prefecture_code":12},"0112":{"zip_code":"2860112","prefecture":"千葉県","prefecture_kana":"チバケン","city":"成田市","city_kana":"ナリタシ","town":"東三里塚","town_kana":"ヒガシサンリヅカ","prefecture_code":12},"0044":{"zip_code":"2860044","prefecture":"千葉県","prefecture_kana":"チバケン","city":"成田市","city_kana":"ナリタシ","town":"不動ケ岡","town_kana":"フドウガオカ","prefecture_code":12},"0001":{"zip_code":"2860001","prefecture":"千葉県","prefecture_kana":"チバケン","city":"成田市","city_kana":"ナリタシ","town":"船形","town_kana":"フナカタ","prefecture_code":12},"0104":{"zip_code":"2860104","prefecture":"千葉県","prefecture_kana":"チバケン","city":"成田市","city_kana":"ナリタシ","town":"古込","town_kana":"フルゴメ","prefecture_code":12},"0802":{"zip_code":"2860802","prefecture":"千葉県","prefecture_kana":"チバケン","city":"成田市","city_kana":"ナリタシ","town":"北部","town_kana":"ホクブ","prefecture_code":12},"0107":{"zip_code":"2860107","prefecture":"千葉県","prefecture_kana":"チバケン","city":"成田市","city_kana":"ナリタシ","town":"堀之内","town_kana":"ホリノウチ","prefecture_code":12},"0118":{"zip_code":"2860118","prefecture":"千葉県","prefecture_kana":"チバケン","city":"成田市","city_kana":"ナリタシ","town":"本三里塚","town_kana":"ホンサンリヅカ","prefecture_code":12},"0114":{"zip_code":"2860114","prefecture":"千葉県","prefecture_kana":"チバケン","city":"成田市","city_kana":"ナリタシ","town":"本城","town_kana":"ホンジョウ","prefecture_code":12},"0026":{"zip_code":"2860026","prefecture":"千葉県","prefecture_kana":"チバケン","city":"成田市","city_kana":"ナリタシ","town":"本町","town_kana":"ホンチョウ","prefecture_code":12},"0034":{"zip_code":"2860034","prefecture":"千葉県","prefecture_kana":"チバケン","city":"成田市","city_kana":"ナリタシ","town":"馬橋","town_kana":"マバシ","prefecture_code":12},"0846":{"zip_code":"2860846","prefecture":"千葉県","prefecture_kana":"チバケン","city":"成田市","city_kana":"ナリタシ","town":"松崎","town_kana":"マンザキ","prefecture_code":12},"0013":{"zip_code":"2860013","prefecture":"千葉県","prefecture_kana":"チバケン","city":"成田市","city_kana":"ナリタシ","town":"美郷台","town_kana":"ミサトダイ","prefecture_code":12},"0812":{"zip_code":"2860812","prefecture":"千葉県","prefecture_kana":"チバケン","city":"成田市","city_kana":"ナリタシ","town":"水掛","town_kana":"ミズカケ","prefecture_code":12},"0113":{"zip_code":"2860113","prefecture":"千葉県","prefecture_kana":"チバケン","city":"成田市","city_kana":"ナリタシ","town":"南三里塚","town_kana":"ミナミサンリヅカ","prefecture_code":12},"0805":{"zip_code":"2860805","prefecture":"千葉県","prefecture_kana":"チバケン","city":"成田市","city_kana":"ナリタシ","town":"南羽鳥","town_kana":"ミナミハドリ","prefecture_code":12},"0002":{"zip_code":"2860002","prefecture":"千葉県","prefecture_kana":"チバケン","city":"成田市","city_kana":"ナリタシ","town":"八代","town_kana":"ヤツシロ","prefecture_code":12},"0012":{"zip_code":"2860012","prefecture":"千葉県","prefecture_kana":"チバケン","city":"成田市","city_kana":"ナリタシ","town":"山口","town_kana":"ヤマグチ","prefecture_code":12},"0135":{"zip_code":"2860135","prefecture":"千葉県","prefecture_kana":"チバケン","city":"成田市","city_kana":"ナリタシ","town":"山之作","town_kana":"ヤマノサク","prefecture_code":12},"0133":{"zip_code":"2860133","prefecture":"千葉県","prefecture_kana":"チバケン","city":"成田市","city_kana":"ナリタシ","town":"吉倉","town_kana":"ヨシクラ","prefecture_code":12},"0016":{"zip_code":"2860016","prefecture":"千葉県","prefecture_kana":"チバケン","city":"成田市","city_kana":"ナリタシ","town":"米野","town_kana":"ヨネノ","prefecture_code":12},"0834":{"zip_code":"2860834","prefecture":"千葉県","prefecture_kana":"チバケン","city":"成田市","city_kana":"ナリタシ","town":"和田","town_kana":"ワダ","prefecture_code":12},"0200":{"zip_code":"2860200","prefecture":"千葉県","prefecture_kana":"チバケン","city":"富里市","city_kana":"トミサトシ","town":"","town_kana":"","prefecture_code":12},"0204":{"zip_code":"2860204","prefecture":"千葉県","prefecture_kana":"チバケン","city":"富里市","city_kana":"トミサトシ","town":"大和","town_kana":"オオワ","prefecture_code":12},"0203":{"zip_code":"2860203","prefecture":"千葉県","prefecture_kana":"チバケン","city":"富里市","city_kana":"トミサトシ","town":"久能","town_kana":"クノウ","prefecture_code":12},"0216":{"zip_code":"2860216","prefecture":"千葉県","prefecture_kana":"チバケン","city":"富里市","city_kana":"トミサトシ","town":"高野","town_kana":"コウヤ","prefecture_code":12},"0211":{"zip_code":"2860211","prefecture":"千葉県","prefecture_kana":"チバケン","city":"富里市","city_kana":"トミサトシ","town":"御料","town_kana":"ゴリョウ","prefecture_code":12},"0223":{"zip_code":"2860223","prefecture":"千葉県","prefecture_kana":"チバケン","city":"富里市","city_kana":"トミサトシ","town":"新中沢","town_kana":"シンナカザワ","prefecture_code":12},"0213":{"zip_code":"2860213","prefecture":"千葉県","prefecture_kana":"チバケン","city":"富里市","city_kana":"トミサトシ","town":"高松","town_kana":"タカマツ","prefecture_code":12},"0214":{"zip_code":"2860214","prefecture":"千葉県","prefecture_kana":"チバケン","city":"富里市","city_kana":"トミサトシ","town":"立沢","town_kana":"タツザワ","prefecture_code":12},"0215":{"zip_code":"2860215","prefecture":"千葉県","prefecture_kana":"チバケン","city":"富里市","city_kana":"トミサトシ","town":"立沢新田","town_kana":"タツザワシンデン","prefecture_code":12},"0212":{"zip_code":"2860212","prefecture":"千葉県","prefecture_kana":"チバケン","city":"富里市","city_kana":"トミサトシ","town":"十倉","town_kana":"トクラ","prefecture_code":12},"0222":{"zip_code":"2860222","prefecture":"千葉県","prefecture_kana":"チバケン","city":"富里市","city_kana":"トミサトシ","town":"中沢","town_kana":"ナカザワ","prefecture_code":12},"0221":{"zip_code":"2860221","prefecture":"千葉県","prefecture_kana":"チバケン","city":"富里市","city_kana":"トミサトシ","town":"七栄","town_kana":"ナナエ","prefecture_code":12},"0224":{"zip_code":"2860224","prefecture":"千葉県","prefecture_kana":"チバケン","city":"富里市","city_kana":"トミサトシ","town":"新橋","town_kana":"ニッパシ","prefecture_code":12},"0205":{"zip_code":"2860205","prefecture":"千葉県","prefecture_kana":"チバケン","city":"富里市","city_kana":"トミサトシ","town":"根木名","town_kana":"ネコナ","prefecture_code":12},"0202":{"zip_code":"2860202","prefecture":"千葉県","prefecture_kana":"チバケン","city":"富里市","city_kana":"トミサトシ","town":"日吉倉","town_kana":"ヒヨシクラ","prefecture_code":12},"0201":{"zip_code":"2860201","prefecture":"千葉県","prefecture_kana":"チバケン","city":"富里市","city_kana":"トミサトシ","town":"日吉台","town_kana":"ヒヨシダイ","prefecture_code":12},"0225":{"zip_code":"2860225","prefecture":"千葉県","prefecture_kana":"チバケン","city":"富里市","city_kana":"トミサトシ","town":"美沢","town_kana":"ミサワ","prefecture_code":12}}