{"0204":{"zip_code":"2870204","prefecture":"千葉県","prefecture_kana":"チバケン","city":"成田市","city_kana":"ナリタシ","town":"伊能","town_kana":"イノウ","prefecture_code":12},"0235":{"zip_code":"2870235","prefecture":"千葉県","prefecture_kana":"チバケン","city":"成田市","city_kana":"ナリタシ","town":"臼作","town_kana":"ウスクリ","prefecture_code":12},"0213":{"zip_code":"2870213","prefecture":"千葉県","prefecture_kana":"チバケン","city":"成田市","city_kana":"ナリタシ","town":"大沼","town_kana":"オオヌマ","prefecture_code":12},"0244":{"zip_code":"2870244","prefecture":"千葉県","prefecture_kana":"チバケン","city":"成田市","city_kana":"ナリタシ","town":"川上","town_kana":"カワカミ","prefecture_code":12},"0221":{"zip_code":"2870221","prefecture":"千葉県","prefecture_kana":"チバケン","city":"成田市","city_kana":"ナリタシ","town":"官林","town_kana":"カンリン","prefecture_code":12},"0225":{"zip_code":"2870225","prefecture":"千葉県","prefecture_kana":"チバケン","city":"成田市","city_kana":"ナリタシ","town":"吉岡","town_kana":"キチオカ","prefecture_code":12},"0232":{"zip_code":"2870232","prefecture":"千葉県","prefecture_kana":"チバケン","city":"成田市","city_kana":"ナリタシ","town":"久井崎","town_kana":"クイザキ","prefecture_code":12},"0217":{"zip_code":"2870217","prefecture":"千葉県","prefecture_kana":"チバケン","city":"成田市","city_kana":"ナリタシ","town":"桜田","town_kana":"サクラダ","prefecture_code":12},"0201":{"zip_code":"2870201","prefecture":"千葉県","prefecture_kana":"チバケン","city":"成田市","city_kana":"ナリタシ","town":"柴田","town_kana":"シバタ","prefecture_code":12},"0224":{"zip_code":"2870224","prefecture":"千葉県","prefecture_kana":"チバケン","city":"成田市","city_kana":"ナリタシ","town":"新田","town_kana":"シンデン","prefecture_code":12},"0206":{"zip_code":"2870206","prefecture":"千葉県","prefecture_kana":"チバケン","city":"成田市","city_kana":"ナリタシ","town":"浅間","town_kana":"センゲン","prefecture_code":12},"0243":{"zip_code":"2870243","prefecture":"千葉県","prefecture_kana":"チバケン","city":"成田市","city_kana":"ナリタシ","town":"大栄十余三","town_kana":"タイエイトヨミ","prefecture_code":12},"0242":{"zip_code":"2870242","prefecture":"千葉県","prefecture_kana":"チバケン","city":"成田市","city_kana":"ナリタシ","town":"多良貝","town_kana":"タラガイ","prefecture_code":12},"0236":{"zip_code":"2870236","prefecture":"千葉県","prefecture_kana":"チバケン","city":"成田市","city_kana":"ナリタシ","town":"津富浦","town_kana":"ツブウラ","prefecture_code":12},"0233":{"zip_code":"2870233","prefecture":"千葉県","prefecture_kana":"チバケン","city":"成田市","city_kana":"ナリタシ","town":"稲荷山","town_kana":"トウカヤマ","prefecture_code":12},"0211":{"zip_code":"2870211","prefecture":"千葉県","prefecture_kana":"チバケン","city":"成田市","city_kana":"ナリタシ","town":"所","town_kana":"トコロ","prefecture_code":12},"0237":{"zip_code":"2870237","prefecture":"千葉県","prefecture_kana":"チバケン","city":"成田市","city_kana":"ナリタシ","town":"中野","town_kana":"ナカノ","prefecture_code":12},"0216":{"zip_code":"2870216","prefecture":"千葉県","prefecture_kana":"チバケン","city":"成田市","city_kana":"ナリタシ","town":"南敷","town_kana":"ナジキ","prefecture_code":12},"0205":{"zip_code":"2870205","prefecture":"千葉県","prefecture_kana":"チバケン","city":"成田市","city_kana":"ナリタシ","town":"奈土","town_kana":"ナド","prefecture_code":12},"0212":{"zip_code":"2870212","prefecture":"千葉県","prefecture_kana":"チバケン","city":"成田市","city_kana":"ナリタシ","town":"東ノ台","town_kana":"ヒガシノダイ","prefecture_code":12},"0227":{"zip_code":"2870227","prefecture":"千葉県","prefecture_kana":"チバケン","city":"成田市","city_kana":"ナリタシ","town":"一坪田","town_kana":"ヒトツボタ","prefecture_code":12},"0202":{"zip_code":"2870202","prefecture":"千葉県","prefecture_kana":"チバケン","city":"成田市","city_kana":"ナリタシ","town":"堀籠","town_kana":"ホウメ","prefecture_code":12},"0222":{"zip_code":"2870222","prefecture":"千葉県","prefecture_kana":"チバケン","city":"成田市","city_kana":"ナリタシ","town":"前林","town_kana":"マエバヤシ","prefecture_code":12},"0215":{"zip_code":"2870215","prefecture":"千葉県","prefecture_kana":"チバケン","city":"成田市","city_kana":"ナリタシ","town":"馬乗里","town_kana":"マジョウリ","prefecture_code":12},"0234":{"zip_code":"2870234","prefecture":"千葉県","prefecture_kana":"チバケン","city":"成田市","city_kana":"ナリタシ","town":"松子","town_kana":"マツコ","prefecture_code":12},"0241":{"zip_code":"2870241","prefecture":"千葉県","prefecture_kana":"チバケン","city":"成田市","city_kana":"ナリタシ","town":"水の上","town_kana":"ミズノカミ","prefecture_code":12},"0203":{"zip_code":"2870203","prefecture":"千葉県","prefecture_kana":"チバケン","city":"成田市","city_kana":"ナリタシ","town":"村田","town_kana":"ムラタ","prefecture_code":12},"0214":{"zip_code":"2870214","prefecture":"千葉県","prefecture_kana":"チバケン","city":"成田市","city_kana":"ナリタシ","town":"横山","town_kana":"ヨコヤマ","prefecture_code":12},"0000":{"zip_code":"2870000","prefecture":"千葉県","prefecture_kana":"チバケン","city":"香取市","city_kana":"カトリシ","town":"","town_kana":"","prefecture_code":12},"0106":{"zip_code":"2870106","prefecture":"千葉県","prefecture_kana":"チバケン","city":"香取市","city_kana":"カトリシ","town":"荒北","town_kana":"アラキタ","prefecture_code":12},"0056":{"zip_code":"2870056","prefecture":"千葉県","prefecture_kana":"チバケン","city":"香取市","city_kana":"カトリシ","town":"飯島","town_kana":"イイジマ","prefecture_code":12},"0803":{"zip_code":"2870803","prefecture":"千葉県","prefecture_kana":"チバケン","city":"香取市","city_kana":"カトリシ","town":"磯山","town_kana":"イソヤマ","prefecture_code":12},"0023":{"zip_code":"2870023","prefecture":"千葉県","prefecture_kana":"チバケン","city":"香取市","city_kana":"カトリシ","town":"伊地山","town_kana":"イチヤマ","prefecture_code":12},"0804":{"zip_code":"2870804","prefecture":"千葉県","prefecture_kana":"チバケン","city":"香取市","city_kana":"カトリシ","town":"市和田","town_kana":"イチワダ","prefecture_code":12},"0004":{"zip_code":"2870004","prefecture":"千葉県","prefecture_kana":"チバケン","city":"香取市","city_kana":"カトリシ","town":"岩ケ崎台","town_kana":"イワガサキダイ","prefecture_code":12},"0102":{"zip_code":"2870102","prefecture":"千葉県","prefecture_kana":"チバケン","city":"香取市","city_kana":"カトリシ","town":"岩部","town_kana":"イワベ","prefecture_code":12},"0801":{"zip_code":"2870801","prefecture":"千葉県","prefecture_kana":"チバケン","city":"香取市","city_kana":"カトリシ","town":"扇島","town_kana":"オウギシマ","prefecture_code":12},"0013":{"zip_code":"2870013","prefecture":"千葉県","prefecture_kana":"チバケン","city":"香取市","city_kana":"カトリシ","town":"大倉","town_kana":"オオクラ","prefecture_code":12},"0012":{"zip_code":"2870012","prefecture":"千葉県","prefecture_kana":"チバケン","city":"香取市","city_kana":"カトリシ","town":"大倉丁子","town_kana":"オオクラヨウロゴ","prefecture_code":12},"0035":{"zip_code":"2870035","prefecture":"千葉県","prefecture_kana":"チバケン","city":"香取市","city_kana":"カトリシ","town":"大崎","town_kana":"オオサキ","prefecture_code":12},"0811":{"zip_code":"2870811","prefecture":"千葉県","prefecture_kana":"チバケン","city":"香取市","city_kana":"カトリシ","town":"大島","town_kana":"オオシマ","prefecture_code":12},"0043":{"zip_code":"2870043","prefecture":"千葉県","prefecture_kana":"チバケン","city":"香取市","city_kana":"カトリシ","town":"大戸","town_kana":"オオト","prefecture_code":12},"0054":{"zip_code":"2870054","prefecture":"千葉県","prefecture_kana":"チバケン","city":"香取市","city_kana":"カトリシ","town":"大戸川","town_kana":"オオトガワ","prefecture_code":12},"0053":{"zip_code":"2870053","prefecture":"千葉県","prefecture_kana":"チバケン","city":"香取市","city_kana":"カトリシ","town":"大戸新田","town_kana":"オオトシンデン","prefecture_code":12},"0026":{"zip_code":"2870026","prefecture":"千葉県","prefecture_kana":"チバケン","city":"香取市","city_kana":"カトリシ","town":"大根","town_kana":"オオネ","prefecture_code":12},"0044":{"zip_code":"2870044","prefecture":"千葉県","prefecture_kana":"チバケン","city":"香取市","city_kana":"カトリシ","town":"片野","town_kana":"カタノ","prefecture_code":12},"0802":{"zip_code":"2870802","prefecture":"千葉県","prefecture_kana":"チバケン","city":"香取市","city_kana":"カトリシ","town":"加藤洲","town_kana":"カドウズ","prefecture_code":12},"0017":{"zip_code":"2870017","prefecture":"千葉県","prefecture_kana":"チバケン","city":"香取市","city_kana":"カトリシ","town":"香取","town_kana":"カトリ","prefecture_code":12},"0032":{"zip_code":"2870032","prefecture":"千葉県","prefecture_kana":"チバケン","city":"香取市","city_kana":"カトリシ","town":"釜塚","town_kana":"カマヅカ","prefecture_code":12},"0046":{"zip_code":"2870046","prefecture":"千葉県","prefecture_kana":"チバケン","city":"香取市","city_kana":"カトリシ","town":"上小川","town_kana":"カミオガワ","prefecture_code":12},"0027":{"zip_code":"2870027","prefecture":"千葉県","prefecture_kana":"チバケン","city":"香取市","city_kana":"カトリシ","town":"返田","town_kana":"カヤダ","prefecture_code":12},"0104":{"zip_code":"2870104","prefecture":"千葉県","prefecture_kana":"チバケン","city":"香取市","city_kana":"カトリシ","town":"苅毛","town_kana":"カリケ","prefecture_code":12},"0067":{"zip_code":"2870067","prefecture":"千葉県","prefecture_kana":"チバケン","city":"香取市","city_kana":"カトリシ","town":"川尻","town_kana":"カワジリ","prefecture_code":12},"0036":{"zip_code":"2870036","prefecture":"千葉県","prefecture_kana":"チバケン","city":"香取市","city_kana":"カトリシ","town":"観音","town_kana":"カンノウ","prefecture_code":12},"0002":{"zip_code":"2870002","prefecture":"千葉県","prefecture_kana":"チバケン","city":"香取市","city_kana":"カトリシ","town":"北","town_kana":"キタ","prefecture_code":12},"0022":{"zip_code":"2870022","prefecture":"千葉県","prefecture_kana":"チバケン","city":"香取市","city_kana":"カトリシ","town":"九美上","town_kana":"クミアゲ","prefecture_code":12},"0823":{"zip_code":"2870823","prefecture":"千葉県","prefecture_kana":"チバケン","city":"香取市","city_kana":"カトリシ","town":"笄島","town_kana":"コウガイジマ","prefecture_code":12},"0805":{"zip_code":"2870805","prefecture":"千葉県","prefecture_kana":"チバケン","city":"香取市","city_kana":"カトリシ","town":"公官洲","town_kana":"コウカンズ","prefecture_code":12},"0826":{"zip_code":"2870826","prefecture":"千葉県","prefecture_kana":"チバケン","city":"香取市","city_kana":"カトリシ","town":"石納","town_kana":"コクノウ","prefecture_code":12},"0813":{"zip_code":"2870813","prefecture":"千葉県","prefecture_kana":"チバケン","city":"香取市","city_kana":"カトリシ","town":"境島","town_kana":"サカイジマ","prefecture_code":12},"0105":{"zip_code":"2870105","prefecture":"千葉県","prefecture_kana":"チバケン","city":"香取市","city_kana":"カトリシ","town":"沢","town_kana":"サワ","prefecture_code":12},"0003":{"zip_code":"2870003","prefecture":"千葉県","prefecture_kana":"チバケン","city":"香取市","city_kana":"カトリシ","town":"佐原イ","town_kana":"サワライ","prefecture_code":12},"0822":{"zip_code":"2870822","prefecture":"千葉県","prefecture_kana":"チバケン","city":"香取市","city_kana":"カトリシ","town":"佐原ニ","town_kana":"サワラニ","prefecture_code":12},"0816":{"zip_code":"2870816","prefecture":"千葉県","prefecture_kana":"チバケン","city":"香取市","city_kana":"カトリシ","town":"佐原ハ","town_kana":"サワラハ","prefecture_code":12},"0005":{"zip_code":"2870005","prefecture":"千葉県","prefecture_kana":"チバケン","city":"香取市","city_kana":"カトリシ","town":"佐原ホ","town_kana":"サワラホ","prefecture_code":12},"0001":{"zip_code":"2870001","prefecture":"千葉県","prefecture_kana":"チバケン","city":"香取市","city_kana":"カトリシ","town":"佐原ロ","town_kana":"サワラロ","prefecture_code":12},"0006":{"zip_code":"2870006","prefecture":"千葉県","prefecture_kana":"チバケン","city":"香取市","city_kana":"カトリシ","town":"篠原イ","town_kana":"シノハライ","prefecture_code":12},"0821":{"zip_code":"2870821","prefecture":"千葉県","prefecture_kana":"チバケン","city":"香取市","city_kana":"カトリシ","town":"篠原ロ","town_kana":"シノハラロ","prefecture_code":12},"0021":{"zip_code":"2870021","prefecture":"千葉県","prefecture_kana":"チバケン","city":"香取市","city_kana":"カトリシ","town":"下小野","town_kana":"シモオノ","prefecture_code":12},"0055":{"zip_code":"2870055","prefecture":"千葉県","prefecture_kana":"チバケン","city":"香取市","city_kana":"カトリシ","town":"昭和町","town_kana":"ショウワマチ","prefecture_code":12},"0107":{"zip_code":"2870107","prefecture":"千葉県","prefecture_kana":"チバケン","city":"香取市","city_kana":"カトリシ","town":"助沢","town_kana":"スケザワ","prefecture_code":12},"0045":{"zip_code":"2870045","prefecture":"千葉県","prefecture_kana":"チバケン","city":"香取市","city_kana":"カトリシ","town":"関","town_kana":"セキ","prefecture_code":12},"0101":{"zip_code":"2870101","prefecture":"千葉県","prefecture_kana":"チバケン","city":"香取市","city_kana":"カトリシ","town":"高萩","town_kana":"タカハギ","prefecture_code":12},"0014":{"zip_code":"2870014","prefecture":"千葉県","prefecture_kana":"チバケン","city":"香取市","city_kana":"カトリシ","town":"多田","town_kana":"タダ","prefecture_code":12},"0041":{"zip_code":"2870041","prefecture":"千葉県","prefecture_kana":"チバケン","city":"香取市","city_kana":"カトリシ","town":"玉造","town_kana":"タマツクリ","prefecture_code":12},"0806":{"zip_code":"2870806","prefecture":"千葉県","prefecture_kana":"チバケン","city":"香取市","city_kana":"カトリシ","town":"附洲新田","town_kana":"ツキスシンデン","prefecture_code":12},"0011":{"zip_code":"2870011","prefecture":"千葉県","prefecture_kana":"チバケン","city":"香取市","city_kana":"カトリシ","town":"津宮","town_kana":"ツノミヤ","prefecture_code":12},"0062":{"zip_code":"2870062","prefecture":"千葉県","prefecture_kana":"チバケン","city":"香取市","city_kana":"カトリシ","town":"寺内","town_kana":"テラウチ","prefecture_code":12},"0047":{"zip_code":"2870047","prefecture":"千葉県","prefecture_kana":"チバケン","city":"香取市","city_kana":"カトリシ","town":"鴇崎","town_kana":"トキザキ","prefecture_code":12},"0038":{"zip_code":"2870038","prefecture":"千葉県","prefecture_kana":"チバケン","city":"香取市","city_kana":"カトリシ","town":"鳥羽","town_kana":"トッパ","prefecture_code":12},"0824":{"zip_code":"2870824","prefecture":"千葉県","prefecture_kana":"チバケン","city":"香取市","city_kana":"カトリシ","town":"長島","town_kana":"ナガシマ","prefecture_code":12},"0814":{"zip_code":"2870814","prefecture":"千葉県","prefecture_kana":"チバケン","city":"香取市","city_kana":"カトリシ","town":"中洲","town_kana":"ナカズ","prefecture_code":12},"0034":{"zip_code":"2870034","prefecture":"千葉県","prefecture_kana":"チバケン","city":"香取市","city_kana":"カトリシ","town":"長山","town_kana":"ナガヤマ","prefecture_code":12},"0016":{"zip_code":"2870016","prefecture":"千葉県","prefecture_kana":"チバケン","city":"香取市","city_kana":"カトリシ","town":"新市場","town_kana":"ニイチバ","prefecture_code":12},"0051":{"zip_code":"2870051","prefecture":"千葉県","prefecture_kana":"チバケン","city":"香取市","city_kana":"カトリシ","town":"新寺","town_kana":"ニイデラ","prefecture_code":12},"0063":{"zip_code":"2870063","prefecture":"千葉県","prefecture_kana":"チバケン","city":"香取市","city_kana":"カトリシ","town":"西坂","town_kana":"ニシザカ","prefecture_code":12},"0103":{"zip_code":"2870103","prefecture":"千葉県","prefecture_kana":"チバケン","city":"香取市","city_kana":"カトリシ","town":"西田部","town_kana":"ニシタベ","prefecture_code":12},"0065":{"zip_code":"2870065","prefecture":"千葉県","prefecture_kana":"チバケン","city":"香取市","city_kana":"カトリシ","town":"西部田","town_kana":"ニシベタ","prefecture_code":12},"0048":{"zip_code":"2870048","prefecture":"千葉県","prefecture_kana":"チバケン","city":"香取市","city_kana":"カトリシ","town":"西和田","town_kana":"ニシワダ","prefecture_code":12},"0031":{"zip_code":"2870031","prefecture":"千葉県","prefecture_kana":"チバケン","city":"香取市","city_kana":"カトリシ","town":"新部","town_kana":"ニッペ","prefecture_code":12},"0825":{"zip_code":"2870825","prefecture":"千葉県","prefecture_kana":"チバケン","city":"香取市","city_kana":"カトリシ","town":"野間谷原","town_kana":"ノマヤワラ","prefecture_code":12},"0024":{"zip_code":"2870024","prefecture":"千葉県","prefecture_kana":"チバケン","city":"香取市","city_kana":"カトリシ","town":"福田","town_kana":"フクダ","prefecture_code":12},"0066":{"zip_code":"2870066","prefecture":"千葉県","prefecture_kana":"チバケン","city":"香取市","city_kana":"カトリシ","town":"堀之内","town_kana":"ホリノウチ","prefecture_code":12},"0033":{"zip_code":"2870033","prefecture":"千葉県","prefecture_kana":"チバケン","city":"香取市","city_kana":"カトリシ","town":"牧野","town_kana":"マキノ","prefecture_code":12},"0812":{"zip_code":"2870812","prefecture":"千葉県","prefecture_kana":"チバケン","city":"香取市","city_kana":"カトリシ","town":"三島","town_kana":"ミシマ","prefecture_code":12},"0064":{"zip_code":"2870064","prefecture":"千葉県","prefecture_kana":"チバケン","city":"香取市","city_kana":"カトリシ","town":"みずほ台","town_kana":"ミズホダイ","prefecture_code":12},"0025":{"zip_code":"2870025","prefecture":"千葉県","prefecture_kana":"チバケン","city":"香取市","city_kana":"カトリシ","town":"本矢作","town_kana":"モトヤハギ","prefecture_code":12},"0052":{"zip_code":"2870052","prefecture":"千葉県","prefecture_kana":"チバケン","city":"香取市","city_kana":"カトリシ","town":"森戸","town_kana":"モリド","prefecture_code":12},"0815":{"zip_code":"2870815","prefecture":"千葉県","prefecture_kana":"チバケン","city":"香取市","city_kana":"カトリシ","town":"八筋川","town_kana":"ヤスジカワ","prefecture_code":12},"0061":{"zip_code":"2870061","prefecture":"千葉県","prefecture_kana":"チバケン","city":"香取市","city_kana":"カトリシ","town":"谷中","town_kana":"ヤナカ","prefecture_code":12},"0042":{"zip_code":"2870042","prefecture":"千葉県","prefecture_kana":"チバケン","city":"香取市","city_kana":"カトリシ","town":"山之辺","town_kana":"ヤマノベ","prefecture_code":12},"0018":{"zip_code":"2870018","prefecture":"千葉県","prefecture_kana":"チバケン","city":"香取市","city_kana":"カトリシ","town":"丁子","town_kana":"ヨウロゴ","prefecture_code":12},"0037":{"zip_code":"2870037","prefecture":"千葉県","prefecture_kana":"チバケン","city":"香取市","city_kana":"カトリシ","town":"与倉","town_kana":"ヨクラ","prefecture_code":12},"0015":{"zip_code":"2870015","prefecture":"千葉県","prefecture_kana":"チバケン","city":"香取市","city_kana":"カトリシ","town":"吉原","town_kana":"ヨシワラ","prefecture_code":12}}