{"0000":{"zip_code":"2880000","prefecture":"千葉県","prefecture_kana":"チバケン","city":"銚子市","city_kana":"チョウシシ","town":"以下に掲載がない場合","town_kana":"イカニケイサイガナイバアイ","prefecture_code":12},"0844":{"zip_code":"2880844","prefecture":"千葉県","prefecture_kana":"チバケン","city":"銚子市","city_kana":"チョウシシ","town":"赤塚町","town_kana":"アカヅカマチ","prefecture_code":12},"0005":{"zip_code":"2880005","prefecture":"千葉県","prefecture_kana":"チバケン","city":"銚子市","city_kana":"チョウシシ","town":"海鹿島町","town_kana":"アシカジマチョウ","prefecture_code":12},"0861":{"zip_code":"2880861","prefecture":"千葉県","prefecture_kana":"チバケン","city":"銚子市","city_kana":"チョウシシ","town":"芦崎町","town_kana":"アシサキチョウ","prefecture_code":12},"0007":{"zip_code":"2880007","prefecture":"千葉県","prefecture_kana":"チバケン","city":"銚子市","city_kana":"チョウシシ","town":"愛宕町","town_kana":"アタゴチョウ","prefecture_code":12},"0056":{"zip_code":"2880056","prefecture":"千葉県","prefecture_kana":"チバケン","city":"銚子市","city_kana":"チョウシシ","town":"新生町","town_kana":"アラオイチョウ","prefecture_code":12},"0034":{"zip_code":"2880034","prefecture":"千葉県","prefecture_kana":"チバケン","city":"銚子市","city_kana":"チョウシシ","town":"粟島町","town_kana":"アワシマチョウ","prefecture_code":12},"0051":{"zip_code":"2880051","prefecture":"千葉県","prefecture_kana":"チバケン","city":"銚子市","city_kana":"チョウシシ","town":"飯沼町","town_kana":"イイヌマチョウ","prefecture_code":12},"0012":{"zip_code":"2880012","prefecture":"千葉県","prefecture_kana":"チバケン","city":"銚子市","city_kana":"チョウシシ","town":"犬吠埼","town_kana":"イヌボウザキ","prefecture_code":12},"0015":{"zip_code":"2880015","prefecture":"千葉県","prefecture_kana":"チバケン","city":"銚子市","city_kana":"チョウシシ","town":"犬若","town_kana":"イヌワカ","prefecture_code":12},"0804":{"zip_code":"2880804","prefecture":"千葉県","prefecture_kana":"チバケン","city":"銚子市","city_kana":"チョウシシ","town":"今宮町","town_kana":"イマミヤチョウ","prefecture_code":12},"0805":{"zip_code":"2880805","prefecture":"千葉県","prefecture_kana":"チバケン","city":"銚子市","city_kana":"チョウシシ","town":"上野町","town_kana":"ウエノチョウ","prefecture_code":12},"0071":{"zip_code":"2880071","prefecture":"千葉県","prefecture_kana":"チバケン","city":"銚子市","city_kana":"チョウシシ","town":"植松町","town_kana":"ウエマツチョウ","prefecture_code":12},"0068":{"zip_code":"2880068","prefecture":"千葉県","prefecture_kana":"チバケン","city":"銚子市","city_kana":"チョウシシ","town":"内浜町","town_kana":"ウチバマチョウ","prefecture_code":12},"0046":{"zip_code":"2880046","prefecture":"千葉県","prefecture_kana":"チバケン","city":"銚子市","city_kana":"チョウシシ","town":"大橋町","town_kana":"オオハシチョウ","prefecture_code":12},"0852":{"zip_code":"2880852","prefecture":"千葉県","prefecture_kana":"チバケン","city":"銚子市","city_kana":"チョウシシ","town":"岡野台町","town_kana":"オカノダイチョウ","prefecture_code":12},"0821":{"zip_code":"2880821","prefecture":"千葉県","prefecture_kana":"チバケン","city":"銚子市","city_kana":"チョウシシ","town":"小浜町","town_kana":"オバマチョウ","prefecture_code":12},"0823":{"zip_code":"2880823","prefecture":"千葉県","prefecture_kana":"チバケン","city":"銚子市","city_kana":"チョウシシ","town":"親田町","town_kana":"オヤダチョウ","prefecture_code":12},"0835":{"zip_code":"2880835","prefecture":"千葉県","prefecture_kana":"チバケン","city":"銚子市","city_kana":"チョウシシ","town":"垣根町","town_kana":"カキネマチ","prefecture_code":12},"0833":{"zip_code":"2880833","prefecture":"千葉県","prefecture_kana":"チバケン","city":"銚子市","city_kana":"チョウシシ","town":"垣根見晴台","town_kana":"カキネミハラシダイ","prefecture_code":12},"0004":{"zip_code":"2880004","prefecture":"千葉県","prefecture_kana":"チバケン","city":"銚子市","city_kana":"チョウシシ","town":"笠上町","town_kana":"カサガミチョウ","prefecture_code":12},"0816":{"zip_code":"2880816","prefecture":"千葉県","prefecture_kana":"チバケン","city":"銚子市","city_kana":"チョウシシ","town":"春日台町","town_kana":"カスガダイマチ","prefecture_code":12},"0814":{"zip_code":"2880814","prefecture":"千葉県","prefecture_kana":"チバケン","city":"銚子市","city_kana":"チョウシシ","town":"春日町","town_kana":"カスガチョウ","prefecture_code":12},"0801":{"zip_code":"2880801","prefecture":"千葉県","prefecture_kana":"チバケン","city":"銚子市","city_kana":"チョウシシ","town":"唐子町","town_kana":"カラコチョウ","prefecture_code":12},"0001":{"zip_code":"2880001","prefecture":"千葉県","prefecture_kana":"チバケン","city":"銚子市","city_kana":"チョウシシ","town":"川口町","town_kana":"カワグチチョウ","prefecture_code":12},"0037":{"zip_code":"2880037","prefecture":"千葉県","prefecture_kana":"チバケン","city":"銚子市","city_kana":"チョウシシ","town":"北小川町","town_kana":"キタオガワチョウ","prefecture_code":12},"0011":{"zip_code":"2880011","prefecture":"千葉県","prefecture_kana":"チバケン","city":"銚子市","city_kana":"チョウシシ","town":"君ケ浜","town_kana":"キミガハマ","prefecture_code":12},"0817":{"zip_code":"2880817","prefecture":"千葉県","prefecture_kana":"チバケン","city":"銚子市","city_kana":"チョウシシ","town":"清川町","town_kana":"キヨカワチョウ","prefecture_code":12},"0003":{"zip_code":"2880003","prefecture":"千葉県","prefecture_kana":"チバケン","city":"銚子市","city_kana":"チョウシシ","town":"黒生町","town_kana":"クロハイチョウ","prefecture_code":12},"0866":{"zip_code":"2880866","prefecture":"千葉県","prefecture_kana":"チバケン","city":"銚子市","city_kana":"チョウシシ","town":"小長町","town_kana":"コナガチョウ","prefecture_code":12},"0021":{"zip_code":"2880021","prefecture":"千葉県","prefecture_kana":"チバケン","city":"銚子市","city_kana":"チョウシシ","town":"小畑新町","town_kana":"コバタケシンマチ","prefecture_code":12},"0022":{"zip_code":"2880022","prefecture":"千葉県","prefecture_kana":"チバケン","city":"銚子市","city_kana":"チョウシシ","town":"小畑町","town_kana":"コバタケマチ","prefecture_code":12},"0064":{"zip_code":"2880064","prefecture":"千葉県","prefecture_kana":"チバケン","city":"銚子市","city_kana":"チョウシシ","town":"後飯町","town_kana":"ゴハンチョウ","prefecture_code":12},"0864":{"zip_code":"2880864","prefecture":"千葉県","prefecture_kana":"チバケン","city":"銚子市","city_kana":"チョウシシ","town":"小船木町","town_kana":"コブナキチョウ","prefecture_code":12},"0073":{"zip_code":"2880073","prefecture":"千葉県","prefecture_kana":"チバケン","city":"銚子市","city_kana":"チョウシシ","town":"幸町","town_kana":"サイワイチョウ","prefecture_code":12},"0812":{"zip_code":"2880812","prefecture":"千葉県","prefecture_kana":"チバケン","city":"銚子市","city_kana":"チョウシシ","town":"栄町","town_kana":"サカエチョウ","prefecture_code":12},"0006":{"zip_code":"2880006","prefecture":"千葉県","prefecture_kana":"チバケン","city":"銚子市","city_kana":"チョウシシ","town":"榊町","town_kana":"サカキチョウ","prefecture_code":12},"0876":{"zip_code":"2880876","prefecture":"千葉県","prefecture_kana":"チバケン","city":"銚子市","city_kana":"チョウシシ","town":"桜井町","town_kana":"サクライチョウ","prefecture_code":12},"0873":{"zip_code":"2880873","prefecture":"千葉県","prefecture_kana":"チバケン","city":"銚子市","city_kana":"チョウシシ","town":"笹本町","town_kana":"ササモトチョウ","prefecture_code":12},"0855":{"zip_code":"2880855","prefecture":"千葉県","prefecture_kana":"チバケン","city":"銚子市","city_kana":"チョウシシ","town":"猿田町","town_kana":"サルダチョウ","prefecture_code":12},"0045":{"zip_code":"2880045","prefecture":"千葉県","prefecture_kana":"チバケン","city":"銚子市","city_kana":"チョウシシ","town":"三軒町","town_kana":"サンゲンチョウ","prefecture_code":12},"0025":{"zip_code":"2880025","prefecture":"千葉県","prefecture_kana":"チバケン","city":"銚子市","city_kana":"チョウシシ","town":"潮見町","town_kana":"シオミチョウ","prefecture_code":12},"0867":{"zip_code":"2880867","prefecture":"千葉県","prefecture_kana":"チバケン","city":"銚子市","city_kana":"チョウシシ","town":"忍町","town_kana":"シノビチョウ","prefecture_code":12},"0842":{"zip_code":"2880842","prefecture":"千葉県","prefecture_kana":"チバケン","city":"銚子市","city_kana":"チョウシシ","town":"柴崎町","town_kana":"シバサキマチ","prefecture_code":12},"0063":{"zip_code":"2880063","prefecture":"千葉県","prefecture_kana":"チバケン","city":"銚子市","city_kana":"チョウシシ","town":"清水町","town_kana":"シミズチョウ","prefecture_code":12},"0856":{"zip_code":"2880856","prefecture":"千葉県","prefecture_kana":"チバケン","city":"銚子市","city_kana":"チョウシシ","town":"正明寺町","town_kana":"ショウミョウジチョウ","prefecture_code":12},"0853":{"zip_code":"2880853","prefecture":"千葉県","prefecture_kana":"チバケン","city":"銚子市","city_kana":"チョウシシ","town":"白石町","town_kana":"シライシチョウ","prefecture_code":12},"0067":{"zip_code":"2880067","prefecture":"千葉県","prefecture_kana":"チバケン","city":"銚子市","city_kana":"チョウシシ","town":"新地町","town_kana":"シンチチョウ","prefecture_code":12},"0825":{"zip_code":"2880825","prefecture":"千葉県","prefecture_kana":"チバケン","city":"銚子市","city_kana":"チョウシシ","town":"新町","town_kana":"シンチョウ","prefecture_code":12},"0055":{"zip_code":"2880055","prefecture":"千葉県","prefecture_kana":"チバケン","city":"銚子市","city_kana":"チョウシシ","town":"陣屋町","town_kana":"ジンヤチョウ","prefecture_code":12},"0042":{"zip_code":"2880042","prefecture":"千葉県","prefecture_kana":"チバケン","city":"銚子市","city_kana":"チョウシシ","town":"末広町","town_kana":"スエヒロチョウ","prefecture_code":12},"0813":{"zip_code":"2880813","prefecture":"千葉県","prefecture_kana":"チバケン","city":"銚子市","city_kana":"チョウシシ","town":"台町","town_kana":"ダイマチ","prefecture_code":12},"0027":{"zip_code":"2880027","prefecture":"千葉県","prefecture_kana":"チバケン","city":"銚子市","city_kana":"チョウシシ","town":"高神原町","town_kana":"タカガミハラマチ","prefecture_code":12},"0023":{"zip_code":"2880023","prefecture":"千葉県","prefecture_kana":"チバケン","city":"銚子市","city_kana":"チョウシシ","town":"高神東町","town_kana":"タカガミヒガシマチ","prefecture_code":12},"0026":{"zip_code":"2880026","prefecture":"千葉県","prefecture_kana":"チバケン","city":"銚子市","city_kana":"チョウシシ","town":"高神西町","town_kana":"タカガミニシマチ","prefecture_code":12},"0862":{"zip_code":"2880862","prefecture":"千葉県","prefecture_kana":"チバケン","city":"銚子市","city_kana":"チョウシシ","town":"高田町","town_kana":"タカダチョウ","prefecture_code":12},"0834":{"zip_code":"2880834","prefecture":"千葉県","prefecture_kana":"チバケン","city":"銚子市","city_kana":"チョウシシ","town":"高野町","town_kana":"タカノマチ","prefecture_code":12},"0062":{"zip_code":"2880062","prefecture":"千葉県","prefecture_kana":"チバケン","city":"銚子市","city_kana":"チョウシシ","town":"竹町","town_kana":"タケチョウ","prefecture_code":12},"0065":{"zip_code":"2880065","prefecture":"千葉県","prefecture_kana":"チバケン","city":"銚子市","city_kana":"チョウシシ","town":"田中町","town_kana":"タナカチョウ","prefecture_code":12},"0854":{"zip_code":"2880854","prefecture":"千葉県","prefecture_kana":"チバケン","city":"銚子市","city_kana":"チョウシシ","town":"茶畑町","town_kana":"チャバタケチョウ","prefecture_code":12},"0041":{"zip_code":"2880041","prefecture":"千葉県","prefecture_kana":"チバケン","city":"銚子市","city_kana":"チョウシシ","town":"中央町","town_kana":"チュウオウチョウ","prefecture_code":12},"0868":{"zip_code":"2880868","prefecture":"千葉県","prefecture_kana":"チバケン","city":"銚子市","city_kana":"チョウシシ","town":"塚本町","town_kana":"ツカモトチョウ","prefecture_code":12},"0024":{"zip_code":"2880024","prefecture":"千葉県","prefecture_kana":"チバケン","city":"銚子市","city_kana":"チョウシシ","town":"天王台","town_kana":"テンノウダイ","prefecture_code":12},"0075":{"zip_code":"2880075","prefecture":"千葉県","prefecture_kana":"チバケン","city":"銚子市","city_kana":"チョウシシ","town":"通町","town_kana":"トオリチョウ","prefecture_code":12},"0016":{"zip_code":"2880016","prefecture":"千葉県","prefecture_kana":"チバケン","city":"銚子市","city_kana":"チョウシシ","town":"外川台町","town_kana":"トカワダイマチ","prefecture_code":12},"0014":{"zip_code":"2880014","prefecture":"千葉県","prefecture_kana":"チバケン","city":"銚子市","city_kana":"チョウシシ","town":"外川町","town_kana":"トカワマチ","prefecture_code":12},"0824":{"zip_code":"2880824","prefecture":"千葉県","prefecture_kana":"チバケン","city":"銚子市","city_kana":"チョウシシ","town":"常世田町","town_kana":"トコヨダチョウ","prefecture_code":12},"0871":{"zip_code":"2880871","prefecture":"千葉県","prefecture_kana":"チバケン","city":"銚子市","city_kana":"チョウシシ","town":"富川町","town_kana":"トミガワチョウ","prefecture_code":12},"0874":{"zip_code":"2880874","prefecture":"千葉県","prefecture_kana":"チバケン","city":"銚子市","city_kana":"チョウシシ","town":"豊里台","town_kana":"トヨサトダイ","prefecture_code":12},"0035":{"zip_code":"2880035","prefecture":"千葉県","prefecture_kana":"チバケン","city":"銚子市","city_kana":"チョウシシ","town":"名洗町","town_kana":"ナアライマチ","prefecture_code":12},"0858":{"zip_code":"2880858","prefecture":"千葉県","prefecture_kana":"チバケン","city":"銚子市","city_kana":"チョウシシ","town":"中島町","town_kana":"ナカジマチョウ","prefecture_code":12},"0077":{"zip_code":"2880077","prefecture":"千葉県","prefecture_kana":"チバケン","city":"銚子市","city_kana":"チョウシシ","town":"仲町","town_kana":"ナカチョウ","prefecture_code":12},"0013":{"zip_code":"2880013","prefecture":"千葉県","prefecture_kana":"チバケン","city":"銚子市","city_kana":"チョウシシ","town":"長崎町","town_kana":"ナガサキマチ","prefecture_code":12},"0837":{"zip_code":"2880837","prefecture":"千葉県","prefecture_kana":"チバケン","city":"銚子市","city_kana":"チョウシシ","town":"長塚町","town_kana":"ナガツカマチ","prefecture_code":12},"0865":{"zip_code":"2880865","prefecture":"千葉県","prefecture_kana":"チバケン","city":"銚子市","city_kana":"チョウシシ","town":"長山町","town_kana":"ナガヤマチョウ","prefecture_code":12},"0036":{"zip_code":"2880036","prefecture":"千葉県","prefecture_kana":"チバケン","city":"銚子市","city_kana":"チョウシシ","town":"西小川町","town_kana":"ニシオガワチョウ","prefecture_code":12},"0044":{"zip_code":"2880044","prefecture":"千葉県","prefecture_kana":"チバケン","city":"銚子市","city_kana":"チョウシシ","town":"西芝町","town_kana":"ニシシバチョウ","prefecture_code":12},"0863":{"zip_code":"2880863","prefecture":"千葉県","prefecture_kana":"チバケン","city":"銚子市","city_kana":"チョウシシ","town":"野尻町","town_kana":"ノジリチョウ","prefecture_code":12},"0074":{"zip_code":"2880074","prefecture":"千葉県","prefecture_kana":"チバケン","city":"銚子市","city_kana":"チョウシシ","town":"橋本町","town_kana":"ハシモトチョウ","prefecture_code":12},"0052":{"zip_code":"2880052","prefecture":"千葉県","prefecture_kana":"チバケン","city":"銚子市","city_kana":"チョウシシ","town":"浜町","town_kana":"ハマチョウ","prefecture_code":12},"0054":{"zip_code":"2880054","prefecture":"千葉県","prefecture_kana":"チバケン","city":"銚子市","city_kana":"チョウシシ","town":"馬場町","town_kana":"ババチョウ","prefecture_code":12},"0032":{"zip_code":"2880032","prefecture":"千葉県","prefecture_kana":"チバケン","city":"銚子市","city_kana":"チョウシシ","town":"東小川町","town_kana":"ヒガシオガワチョウ","prefecture_code":12},"0043":{"zip_code":"2880043","prefecture":"千葉県","prefecture_kana":"チバケン","city":"銚子市","city_kana":"チョウシシ","town":"東芝町","town_kana":"ヒガシシバチョウ","prefecture_code":12},"0053":{"zip_code":"2880053","prefecture":"千葉県","prefecture_kana":"チバケン","city":"銚子市","city_kana":"チョウシシ","town":"東町","town_kana":"ヒガシチョウ","prefecture_code":12},"0048":{"zip_code":"2880048","prefecture":"千葉県","prefecture_kana":"チバケン","city":"銚子市","city_kana":"チョウシシ","town":"双葉町","town_kana":"フタバチョウ","prefecture_code":12},"0857":{"zip_code":"2880857","prefecture":"千葉県","prefecture_kana":"チバケン","city":"銚子市","city_kana":"チョウシシ","town":"船木町","town_kana":"フナキチョウ","prefecture_code":12},"0831":{"zip_code":"2880831","prefecture":"千葉県","prefecture_kana":"チバケン","city":"銚子市","city_kana":"チョウシシ","town":"本城町","town_kana":"ホンジョウマチ","prefecture_code":12},"0076":{"zip_code":"2880076","prefecture":"千葉県","prefecture_kana":"チバケン","city":"銚子市","city_kana":"チョウシシ","town":"本町","town_kana":"ホンチョウ","prefecture_code":12},"0031":{"zip_code":"2880031","prefecture":"千葉県","prefecture_kana":"チバケン","city":"銚子市","city_kana":"チョウシシ","town":"前宿町","town_kana":"マエジュクチョウ","prefecture_code":12},"0836":{"zip_code":"2880836","prefecture":"千葉県","prefecture_kana":"チバケン","city":"銚子市","city_kana":"チョウシシ","town":"松岸町","town_kana":"マツギシマチ","prefecture_code":12},"0832":{"zip_code":"2880832","prefecture":"千葉県","prefecture_kana":"チバケン","city":"銚子市","city_kana":"チョウシシ","town":"松岸見晴台","town_kana":"マツギシミハラシダイ","prefecture_code":12},"0802":{"zip_code":"2880802","prefecture":"千葉県","prefecture_kana":"チバケン","city":"銚子市","city_kana":"チョウシシ","town":"松本町","town_kana":"マツモトチョウ","prefecture_code":12},"0851":{"zip_code":"2880851","prefecture":"千葉県","prefecture_kana":"チバケン","city":"銚子市","city_kana":"チョウシシ","town":"三門町","town_kana":"ミカドチョウ","prefecture_code":12},"0815":{"zip_code":"2880815","prefecture":"千葉県","prefecture_kana":"チバケン","city":"銚子市","city_kana":"チョウシシ","town":"三崎町","town_kana":"ミサキチョウ","prefecture_code":12},"0061":{"zip_code":"2880061","prefecture":"千葉県","prefecture_kana":"チバケン","city":"銚子市","city_kana":"チョウシシ","town":"港町","town_kana":"ミナトチョウ","prefecture_code":12},"0033":{"zip_code":"2880033","prefecture":"千葉県","prefecture_kana":"チバケン","city":"銚子市","city_kana":"チョウシシ","town":"南小川町","town_kana":"ミナミオガワチョウ","prefecture_code":12},"0038":{"zip_code":"2880038","prefecture":"千葉県","prefecture_kana":"チバケン","city":"銚子市","city_kana":"チョウシシ","town":"南町","town_kana":"ミナミチョウ","prefecture_code":12},"0845":{"zip_code":"2880845","prefecture":"千葉県","prefecture_kana":"チバケン","city":"銚子市","city_kana":"チョウシシ","town":"三宅町","town_kana":"ミヤケマチ","prefecture_code":12},"0877":{"zip_code":"2880877","prefecture":"千葉県","prefecture_kana":"チバケン","city":"銚子市","city_kana":"チョウシシ","town":"宮原町","town_kana":"ミヤバラチョウ","prefecture_code":12},"0811":{"zip_code":"2880811","prefecture":"千葉県","prefecture_kana":"チバケン","city":"銚子市","city_kana":"チョウシシ","town":"妙見町","town_kana":"ミョウケンチョウ","prefecture_code":12},"0002":{"zip_code":"2880002","prefecture":"千葉県","prefecture_kana":"チバケン","city":"銚子市","city_kana":"チョウシシ","town":"明神町","town_kana":"ミョウジンチョウ","prefecture_code":12},"0872":{"zip_code":"2880872","prefecture":"千葉県","prefecture_kana":"チバケン","city":"銚子市","city_kana":"チョウシシ","town":"森戸町","town_kana":"モリトチョウ","prefecture_code":12},"0875":{"zip_code":"2880875","prefecture":"千葉県","prefecture_kana":"チバケン","city":"銚子市","city_kana":"チョウシシ","town":"諸持町","town_kana":"モロモチチョウ","prefecture_code":12},"0822":{"zip_code":"2880822","prefecture":"千葉県","prefecture_kana":"チバケン","city":"銚子市","city_kana":"チョウシシ","town":"八木町","town_kana":"ヤギチョウ","prefecture_code":12},"0072":{"zip_code":"2880072","prefecture":"千葉県","prefecture_kana":"チバケン","city":"銚子市","city_kana":"チョウシシ","town":"弥生町","town_kana":"ヤヨイチョウ","prefecture_code":12},"0803":{"zip_code":"2880803","prefecture":"千葉県","prefecture_kana":"チバケン","city":"銚子市","city_kana":"チョウシシ","town":"八幡町","town_kana":"ヤハタチョウ","prefecture_code":12},"0843":{"zip_code":"2880843","prefecture":"千葉県","prefecture_kana":"チバケン","city":"銚子市","city_kana":"チョウシシ","town":"四日市場台","town_kana":"ヨッカイチバダイ","prefecture_code":12},"0841":{"zip_code":"2880841","prefecture":"千葉県","prefecture_kana":"チバケン","city":"銚子市","city_kana":"チョウシシ","town":"四日市場町","town_kana":"ヨッカイチバマチ","prefecture_code":12},"0846":{"zip_code":"2880846","prefecture":"千葉県","prefecture_kana":"チバケン","city":"銚子市","city_kana":"チョウシシ","town":"余山町","town_kana":"ヨヤママチ","prefecture_code":12},"0047":{"zip_code":"2880047","prefecture":"千葉県","prefecture_kana":"チバケン","city":"銚子市","city_kana":"チョウシシ","town":"若宮町","town_kana":"ワカミヤチョウ","prefecture_code":12},"0066":{"zip_code":"2880066","prefecture":"千葉県","prefecture_kana":"チバケン","city":"銚子市","city_kana":"チョウシシ","town":"和田町","town_kana":"ワダチョウ","prefecture_code":12}}