{"0112":{"zip_code":"2890112","prefecture":"千葉県","prefecture_kana":"チバケン","city":"成田市","city_kana":"ナリタシ","town":"青山","town_kana":"アオヤマ","prefecture_code":12},"0121":{"zip_code":"2890121","prefecture":"千葉県","prefecture_kana":"チバケン","city":"成田市","city_kana":"ナリタシ","town":"大菅","town_kana":"オオスゲ","prefecture_code":12},"0109":{"zip_code":"2890109","prefecture":"千葉県","prefecture_kana":"チバケン","city":"成田市","city_kana":"ナリタシ","town":"大和田","town_kana":"オオワダ","prefecture_code":12},"0106":{"zip_code":"2890106","prefecture":"千葉県","prefecture_kana":"チバケン","city":"成田市","city_kana":"ナリタシ","town":"小野","town_kana":"オノ","prefecture_code":12},"0113":{"zip_code":"2890113","prefecture":"千葉県","prefecture_kana":"チバケン","city":"成田市","city_kana":"ナリタシ","town":"倉水","town_kana":"クラミズ","prefecture_code":12},"0101":{"zip_code":"2890101","prefecture":"千葉県","prefecture_kana":"チバケン","city":"成田市","city_kana":"ナリタシ","town":"小浮","town_kana":"コブケ","prefecture_code":12},"0107":{"zip_code":"2890107","prefecture":"千葉県","prefecture_kana":"チバケン","city":"成田市","city_kana":"ナリタシ","town":"猿山","town_kana":"サルヤマ","prefecture_code":12},"0115":{"zip_code":"2890115","prefecture":"千葉県","prefecture_kana":"チバケン","city":"成田市","city_kana":"ナリタシ","town":"地蔵原新田","town_kana":"ジゾウハラシンデン","prefecture_code":12},"0126":{"zip_code":"2890126","prefecture":"千葉県","prefecture_kana":"チバケン","city":"成田市","city_kana":"ナリタシ","town":"新川","town_kana":"シンカワ","prefecture_code":12},"0103":{"zip_code":"2890103","prefecture":"千葉県","prefecture_kana":"チバケン","city":"成田市","city_kana":"ナリタシ","town":"高","town_kana":"タカ","prefecture_code":12},"0108":{"zip_code":"2890108","prefecture":"千葉県","prefecture_kana":"チバケン","city":"成田市","city_kana":"ナリタシ","town":"高岡","town_kana":"タカオカ","prefecture_code":12},"0122":{"zip_code":"2890122","prefecture":"千葉県","prefecture_kana":"チバケン","city":"成田市","city_kana":"ナリタシ","town":"高倉","town_kana":"タカクラ","prefecture_code":12},"0104":{"zip_code":"2890104","prefecture":"千葉県","prefecture_kana":"チバケン","city":"成田市","city_kana":"ナリタシ","town":"冬父","town_kana":"トブ","prefecture_code":12},"0105":{"zip_code":"2890105","prefecture":"千葉県","prefecture_kana":"チバケン","city":"成田市","city_kana":"ナリタシ","town":"中里","town_kana":"ナカザト","prefecture_code":12},"0111":{"zip_code":"2890111","prefecture":"千葉県","prefecture_kana":"チバケン","city":"成田市","city_kana":"ナリタシ","town":"名木","town_kana":"ナギ","prefecture_code":12},"0116":{"zip_code":"2890116","prefecture":"千葉県","prefecture_kana":"チバケン","city":"成田市","city_kana":"ナリタシ","town":"名古屋","town_kana":"ナゴヤ","prefecture_code":12},"0117":{"zip_code":"2890117","prefecture":"千葉県","prefecture_kana":"チバケン","city":"成田市","city_kana":"ナリタシ","town":"七沢","town_kana":"ナナサワ","prefecture_code":12},"0125":{"zip_code":"2890125","prefecture":"千葉県","prefecture_kana":"チバケン","city":"成田市","city_kana":"ナリタシ","town":"滑川","town_kana":"ナメガワ","prefecture_code":12},"0114":{"zip_code":"2890114","prefecture":"千葉県","prefecture_kana":"チバケン","city":"成田市","city_kana":"ナリタシ","town":"成井","town_kana":"ナルイ","prefecture_code":12},"0124":{"zip_code":"2890124","prefecture":"千葉県","prefecture_kana":"チバケン","city":"成田市","city_kana":"ナリタシ","town":"西大須賀","town_kana":"ニシオオスカ","prefecture_code":12},"0102":{"zip_code":"2890102","prefecture":"千葉県","prefecture_kana":"チバケン","city":"成田市","city_kana":"ナリタシ","town":"野馬込","town_kana":"ノマゴメ","prefecture_code":12},"0123":{"zip_code":"2890123","prefecture":"千葉県","prefecture_kana":"チバケン","city":"成田市","city_kana":"ナリタシ","town":"四谷","town_kana":"ヨツヤ","prefecture_code":12},"2500":{"zip_code":"2892500","prefecture":"千葉県","prefecture_kana":"チバケン","city":"旭市","city_kana":"アサヒシ","town":"以下に掲載がない場合","town_kana":"イカニケイサイガナイバアイ","prefecture_code":12},"0518":{"zip_code":"2890518","prefecture":"千葉県","prefecture_kana":"チバケン","city":"旭市","city_kana":"アサヒシ","town":"秋田","town_kana":"アキタ","prefecture_code":12},"2522":{"zip_code":"2892522","prefecture":"千葉県","prefecture_kana":"チバケン","city":"旭市","city_kana":"アサヒシ","town":"足川","town_kana":"アシカワ","prefecture_code":12},"2511":{"zip_code":"2892511","prefecture":"千葉県","prefecture_kana":"チバケン","city":"旭市","city_kana":"アサヒシ","town":"イ","town_kana":"イ","prefecture_code":12},"2705":{"zip_code":"2892705","prefecture":"千葉県","prefecture_kana":"チバケン","city":"旭市","city_kana":"アサヒシ","town":"飯岡","town_kana":"イイオカ","prefecture_code":12},"2607":{"zip_code":"2892607","prefecture":"千葉県","prefecture_kana":"チバケン","city":"旭市","city_kana":"アサヒシ","town":"幾世","town_kana":"イクヨ","prefecture_code":12},"2534":{"zip_code":"2892534","prefecture":"千葉県","prefecture_kana":"チバケン","city":"旭市","city_kana":"アサヒシ","town":"泉川","town_kana":"イズミカワ","prefecture_code":12},"2531":{"zip_code":"2892531","prefecture":"千葉県","prefecture_kana":"チバケン","city":"旭市","city_kana":"アサヒシ","town":"井戸野","town_kana":"イドノ","prefecture_code":12},"0515":{"zip_code":"2890515","prefecture":"千葉県","prefecture_kana":"チバケン","city":"旭市","city_kana":"アサヒシ","town":"入野","town_kana":"イリノ","prefecture_code":12},"2602":{"zip_code":"2892602","prefecture":"千葉県","prefecture_kana":"チバケン","city":"旭市","city_kana":"アサヒシ","town":"岩井","town_kana":"イワイ","prefecture_code":12},"2711":{"zip_code":"2892711","prefecture":"千葉県","prefecture_kana":"チバケン","city":"旭市","city_kana":"アサヒシ","town":"岩崎","town_kana":"イワサキ","prefecture_code":12},"2613":{"zip_code":"2892613","prefecture":"千葉県","prefecture_kana":"チバケン","city":"旭市","city_kana":"アサヒシ","town":"後草","town_kana":"ウシログサ","prefecture_code":12},"2614":[{"zip_code":"2892614","prefecture":"千葉県","prefecture_kana":"チバケン","city":"旭市","city_kana":"アサヒシ","town":"江ケ崎（１２〜２２、１２７〜１４０、１７０９、１７２３−３、","town_kana":"エガサキ(12-22、127-140、1709、1723-3、","prefecture_code":12},{"zip_code":"2892614","prefecture":"千葉県","prefecture_kana":"チバケン","city":"旭市","city_kana":"アサヒシ","town":"１７２８−４番地）","town_kana":"1728-4バンチ)","prefecture_code":12}],"2503":{"zip_code":"2892503","prefecture":"千葉県","prefecture_kana":"チバケン","city":"旭市","city_kana":"アサヒシ","town":"江ケ崎（その他）","town_kana":"エガサキ(ソノタ)","prefecture_code":12},"2533":{"zip_code":"2892533","prefecture":"千葉県","prefecture_kana":"チバケン","city":"旭市","city_kana":"アサヒシ","town":"大塚原","town_kana":"オオツカハラ","prefecture_code":12},"2603":{"zip_code":"2892603","prefecture":"千葉県","prefecture_kana":"チバケン","city":"旭市","city_kana":"アサヒシ","town":"大間手","town_kana":"オオマデ","prefecture_code":12},"0511":{"zip_code":"2890511","prefecture":"千葉県","prefecture_kana":"チバケン","city":"旭市","city_kana":"アサヒシ","town":"鏑木","town_kana":"カブラキ","prefecture_code":12},"2505":{"zip_code":"2892505","prefecture":"千葉県","prefecture_kana":"チバケン","city":"旭市","city_kana":"アサヒシ","town":"鎌数","town_kana":"カマカズ","prefecture_code":12},"2704":{"zip_code":"2892704","prefecture":"千葉県","prefecture_kana":"チバケン","city":"旭市","city_kana":"アサヒシ","town":"上永井","town_kana":"カミナガイ","prefecture_code":12},"2535":{"zip_code":"2892535","prefecture":"千葉県","prefecture_kana":"チバケン","city":"旭市","city_kana":"アサヒシ","town":"川口","town_kana":"カワグチ","prefecture_code":12},"2707":{"zip_code":"2892707","prefecture":"千葉県","prefecture_kana":"チバケン","city":"旭市","city_kana":"アサヒシ","town":"行内","town_kana":"ギョウジ","prefecture_code":12},"2606":{"zip_code":"2892606","prefecture":"千葉県","prefecture_kana":"チバケン","city":"旭市","city_kana":"アサヒシ","town":"清滝","town_kana":"キヨタキ","prefecture_code":12},"2611":{"zip_code":"2892611","prefecture":"千葉県","prefecture_kana":"チバケン","city":"旭市","city_kana":"アサヒシ","town":"倉橋","town_kana":"クラハシ","prefecture_code":12},"2605":[{"zip_code":"2892605","prefecture":"千葉県","prefecture_kana":"チバケン","city":"旭市","city_kana":"アサヒシ","town":"琴田（８５〜１６０、１３８６〜１８１５、２５９３〜２８２０、","town_kana":"コトダ(85-160、1386-1815、2593-2820、","prefecture_code":12},{"zip_code":"2892605","prefecture":"千葉県","prefecture_kana":"チバケン","city":"旭市","city_kana":"アサヒシ","town":"３５９８〜３６１４番地）","town_kana":"3598-3614バンチ)","prefecture_code":12}],"2502":{"zip_code":"2892502","prefecture":"千葉県","prefecture_kana":"チバケン","city":"旭市","city_kana":"アサヒシ","town":"琴田（その他）","town_kana":"コトダ(ソノタ)","prefecture_code":12},"2532":{"zip_code":"2892532","prefecture":"千葉県","prefecture_kana":"チバケン","city":"旭市","city_kana":"アサヒシ","town":"駒込","town_kana":"コマゴメ","prefecture_code":12},"2715":{"zip_code":"2892715","prefecture":"千葉県","prefecture_kana":"チバケン","city":"旭市","city_kana":"アサヒシ","town":"権田沼新田","town_kana":"ゴンダヌマシンデン","prefecture_code":12},"0504":{"zip_code":"2890504","prefecture":"千葉県","prefecture_kana":"チバケン","city":"旭市","city_kana":"アサヒシ","town":"櫻井","town_kana":"サクライ","prefecture_code":12},"0506":{"zip_code":"2890506","prefecture":"千葉県","prefecture_kana":"チバケン","city":"旭市","city_kana":"アサヒシ","town":"さくら台","town_kana":"サクラダイ","prefecture_code":12},"2714":{"zip_code":"2892714","prefecture":"千葉県","prefecture_kana":"チバケン","city":"旭市","city_kana":"アサヒシ","town":"三川","town_kana":"サンガワ","prefecture_code":12},"2514":{"zip_code":"2892514","prefecture":"千葉県","prefecture_kana":"チバケン","city":"旭市","city_kana":"アサヒシ","town":"椎名内","town_kana":"シイナウチ","prefecture_code":12},"2706":{"zip_code":"2892706","prefecture":"千葉県","prefecture_kana":"チバケン","city":"旭市","city_kana":"アサヒシ","town":"下永井","town_kana":"シモナガイ","prefecture_code":12},"2524":{"zip_code":"2892524","prefecture":"千葉県","prefecture_kana":"チバケン","city":"旭市","city_kana":"アサヒシ","town":"神宮寺","town_kana":"ジングウジ","prefecture_code":12},"2501":{"zip_code":"2892501","prefecture":"千葉県","prefecture_kana":"チバケン","city":"旭市","city_kana":"アサヒシ","town":"新町","town_kana":"シンマチ","prefecture_code":12},"0501":{"zip_code":"2890501","prefecture":"千葉県","prefecture_kana":"チバケン","city":"旭市","city_kana":"アサヒシ","town":"清和乙","town_kana":"セイワオツ","prefecture_code":12},"0507":{"zip_code":"2890507","prefecture":"千葉県","prefecture_kana":"チバケン","city":"旭市","city_kana":"アサヒシ","town":"清和甲","town_kana":"セイワコウ","prefecture_code":12},"0514":{"zip_code":"2890514","prefecture":"千葉県","prefecture_kana":"チバケン","city":"旭市","city_kana":"アサヒシ","town":"関戸","town_kana":"セキド","prefecture_code":12},"2604":{"zip_code":"2892604","prefecture":"千葉県","prefecture_kana":"チバケン","city":"旭市","city_kana":"アサヒシ","town":"高生","town_kana":"タカオイ","prefecture_code":12},"2615":{"zip_code":"2892615","prefecture":"千葉県","prefecture_kana":"チバケン","city":"旭市","city_kana":"アサヒシ","town":"長尾","town_kana":"ナガオ","prefecture_code":12},"0502":{"zip_code":"2890502","prefecture":"千葉県","prefecture_kana":"チバケン","city":"旭市","city_kana":"アサヒシ","town":"長部","town_kana":"ナガベ","prefecture_code":12},"2523":{"zip_code":"2892523","prefecture":"千葉県","prefecture_kana":"チバケン","city":"旭市","city_kana":"アサヒシ","town":"中谷里","town_kana":"ナカヤリ","prefecture_code":12},"2504":{"zip_code":"2892504","prefecture":"千葉県","prefecture_kana":"チバケン","city":"旭市","city_kana":"アサヒシ","town":"ニ","town_kana":"ニ","prefecture_code":12},"2515":{"zip_code":"2892515","prefecture":"千葉県","prefecture_kana":"チバケン","city":"旭市","city_kana":"アサヒシ","town":"西足洗","town_kana":"ニシアシアライ","prefecture_code":12},"2525":{"zip_code":"2892525","prefecture":"千葉県","prefecture_kana":"チバケン","city":"旭市","city_kana":"アサヒシ","town":"仁玉","town_kana":"ニッタマ","prefecture_code":12},"2513":{"zip_code":"2892513","prefecture":"千葉県","prefecture_kana":"チバケン","city":"旭市","city_kana":"アサヒシ","town":"野中","town_kana":"ノナカ","prefecture_code":12},"2521":{"zip_code":"2892521","prefecture":"千葉県","prefecture_kana":"チバケン","city":"旭市","city_kana":"アサヒシ","town":"ハ","town_kana":"ハ","prefecture_code":12},"2713":{"zip_code":"2892713","prefecture":"千葉県","prefecture_kana":"チバケン","city":"旭市","city_kana":"アサヒシ","town":"萩園","town_kana":"ハギゾノ","prefecture_code":12},"2702":{"zip_code":"2892702","prefecture":"千葉県","prefecture_kana":"チバケン","city":"旭市","city_kana":"アサヒシ","town":"塙","town_kana":"ハナワ","prefecture_code":12},"2512":{"zip_code":"2892512","prefecture":"千葉県","prefecture_kana":"チバケン","city":"旭市","city_kana":"アサヒシ","town":"東足洗","town_kana":"ヒガシアシアライ","prefecture_code":12},"2708":{"zip_code":"2892708","prefecture":"千葉県","prefecture_kana":"チバケン","city":"旭市","city_kana":"アサヒシ","town":"平松","town_kana":"ヒラマツ","prefecture_code":12},"0513":{"zip_code":"2890513","prefecture":"千葉県","prefecture_kana":"チバケン","city":"旭市","city_kana":"アサヒシ","town":"舟戸","town_kana":"フナド","prefecture_code":12},"2612":{"zip_code":"2892612","prefecture":"千葉県","prefecture_kana":"チバケン","city":"旭市","city_kana":"アサヒシ","town":"蛇園","town_kana":"ヘビソノ","prefecture_code":12},"2601":{"zip_code":"2892601","prefecture":"千葉県","prefecture_kana":"チバケン","city":"旭市","city_kana":"アサヒシ","town":"松ケ谷","town_kana":"マツガヤ","prefecture_code":12},"0505":{"zip_code":"2890505","prefecture":"千葉県","prefecture_kana":"チバケン","city":"旭市","city_kana":"アサヒシ","town":"萬歳","town_kana":"マンザイ","prefecture_code":12},"0517":{"zip_code":"2890517","prefecture":"千葉県","prefecture_kana":"チバケン","city":"旭市","city_kana":"アサヒシ","town":"萬力","town_kana":"マンリキ","prefecture_code":12},"0503":{"zip_code":"2890503","prefecture":"千葉県","prefecture_kana":"チバケン","city":"旭市","city_kana":"アサヒシ","town":"溝原","town_kana":"ミゾワラ","prefecture_code":12},"0512":{"zip_code":"2890512","prefecture":"千葉県","prefecture_kana":"チバケン","city":"旭市","city_kana":"アサヒシ","town":"南堀之内","town_kana":"ミナミホリノウチ","prefecture_code":12},"2616":{"zip_code":"2892616","prefecture":"千葉県","prefecture_kana":"チバケン","city":"旭市","city_kana":"アサヒシ","town":"見広","town_kana":"ミヒロ","prefecture_code":12},"2701":{"zip_code":"2892701","prefecture":"千葉県","prefecture_kana":"チバケン","city":"旭市","city_kana":"アサヒシ","town":"狢野","town_kana":"ムジナノ","prefecture_code":12},"2703":{"zip_code":"2892703","prefecture":"千葉県","prefecture_kana":"チバケン","city":"旭市","city_kana":"アサヒシ","town":"八木","town_kana":"ヤギ","prefecture_code":12},"2712":{"zip_code":"2892712","prefecture":"千葉県","prefecture_kana":"チバケン","city":"旭市","city_kana":"アサヒシ","town":"横根","town_kana":"ヨコネ","prefecture_code":12},"0516":{"zip_code":"2890516","prefecture":"千葉県","prefecture_kana":"チバケン","city":"旭市","city_kana":"アサヒシ","town":"米込","town_kana":"ヨネゴメ","prefecture_code":12},"2516":{"zip_code":"2892516","prefecture":"千葉県","prefecture_kana":"チバケン","city":"旭市","city_kana":"アサヒシ","town":"ロ","town_kana":"ロ","prefecture_code":12},"1100":{"zip_code":"2891100","prefecture":"千葉県","prefecture_kana":"チバケン","city":"八街市","city_kana":"ヤチマタシ","town":"以下に掲載がない場合","town_kana":"イカニケイサイガナイバアイ","prefecture_code":12},"1101":{"zip_code":"2891101","prefecture":"千葉県","prefecture_kana":"チバケン","city":"八街市","city_kana":"ヤチマタシ","town":"朝日","town_kana":"アサヒ","prefecture_code":12},"1121":{"zip_code":"2891121","prefecture":"千葉県","prefecture_kana":"チバケン","city":"八街市","city_kana":"ヤチマタシ","town":"砂","town_kana":"イサゴ","prefecture_code":12},"1105":{"zip_code":"2891105","prefecture":"千葉県","prefecture_kana":"チバケン","city":"八街市","city_kana":"ヤチマタシ","town":"泉台","town_kana":"イズミダイ","prefecture_code":12},"1106":{"zip_code":"2891106","prefecture":"千葉県","prefecture_kana":"チバケン","city":"八街市","city_kana":"ヤチマタシ","town":"榎戸","town_kana":"エノキド","prefecture_code":12},"1111":{"zip_code":"2891111","prefecture":"千葉県","prefecture_kana":"チバケン","city":"八街市","city_kana":"ヤチマタシ","town":"大木","town_kana":"オオギ","prefecture_code":12},"1142":{"zip_code":"2891142","prefecture":"千葉県","prefecture_kana":"チバケン","city":"八街市","city_kana":"ヤチマタシ","town":"大関","town_kana":"オオセキ","prefecture_code":12},"1134":{"zip_code":"2891134","prefecture":"千葉県","prefecture_kana":"チバケン","city":"八街市","city_kana":"ヤチマタシ","town":"大谷流","town_kana":"オオヤル","prefecture_code":12},"1137":{"zip_code":"2891137","prefecture":"千葉県","prefecture_kana":"チバケン","city":"八街市","city_kana":"ヤチマタシ","town":"岡田","town_kana":"オカダ","prefecture_code":12},"1126":{"zip_code":"2891126","prefecture":"千葉県","prefecture_kana":"チバケン","city":"八街市","city_kana":"ヤチマタシ","town":"沖","town_kana":"オキ","prefecture_code":12},"1102":{"zip_code":"2891102","prefecture":"千葉県","prefecture_kana":"チバケン","city":"八街市","city_kana":"ヤチマタシ","town":"沖渡","town_kana":"オキワタシ","prefecture_code":12},"1125":{"zip_code":"2891125","prefecture":"千葉県","prefecture_kana":"チバケン","city":"八街市","city_kana":"ヤチマタシ","town":"上砂","town_kana":"カミイサゴ","prefecture_code":12},"1108":{"zip_code":"2891108","prefecture":"千葉県","prefecture_kana":"チバケン","city":"八街市","city_kana":"ヤチマタシ","town":"雁丸","town_kana":"ガンマル","prefecture_code":12},"1112":{"zip_code":"2891112","prefecture":"千葉県","prefecture_kana":"チバケン","city":"八街市","city_kana":"ヤチマタシ","town":"木原","town_kana":"キバラ","prefecture_code":12},"1131":{"zip_code":"2891131","prefecture":"千葉県","prefecture_kana":"チバケン","city":"八街市","city_kana":"ヤチマタシ","town":"希望ケ丘","town_kana":"キボウガオカ","prefecture_code":12},"1135":{"zip_code":"2891135","prefecture":"千葉県","prefecture_kana":"チバケン","city":"八街市","city_kana":"ヤチマタシ","town":"小谷流","town_kana":"コヤル","prefecture_code":12},"1122":{"zip_code":"2891122","prefecture":"千葉県","prefecture_kana":"チバケン","city":"八街市","city_kana":"ヤチマタシ","town":"四木","town_kana":"シモク","prefecture_code":12},"1132":{"zip_code":"2891132","prefecture":"千葉県","prefecture_kana":"チバケン","city":"八街市","city_kana":"ヤチマタシ","town":"勢田","town_kana":"セタ","prefecture_code":12},"1123":{"zip_code":"2891123","prefecture":"千葉県","prefecture_kana":"チバケン","city":"八街市","city_kana":"ヤチマタシ","town":"滝台","town_kana":"タキダイ","prefecture_code":12},"1116":{"zip_code":"2891116","prefecture":"千葉県","prefecture_kana":"チバケン","city":"八街市","city_kana":"ヤチマタシ","town":"中央","town_kana":"チュウオウ","prefecture_code":12},"1141":{"zip_code":"2891141","prefecture":"千葉県","prefecture_kana":"チバケン","city":"八街市","city_kana":"ヤチマタシ","town":"富山","town_kana":"トヤマ","prefecture_code":12},"1136":{"zip_code":"2891136","prefecture":"千葉県","prefecture_kana":"チバケン","city":"八街市","city_kana":"ヤチマタシ","town":"根古谷","town_kana":"ネゴヤ","prefecture_code":12},"1114":{"zip_code":"2891114","prefecture":"千葉県","prefecture_kana":"チバケン","city":"八街市","city_kana":"ヤチマタシ","town":"東吉田","town_kana":"ヒガシヨシダ","prefecture_code":12},"1104":{"zip_code":"2891104","prefecture":"千葉県","prefecture_kana":"チバケン","city":"八街市","city_kana":"ヤチマタシ","town":"文違","town_kana":"ヒジカイ","prefecture_code":12},"1145":{"zip_code":"2891145","prefecture":"千葉県","prefecture_kana":"チバケン","city":"八街市","city_kana":"ヤチマタシ","town":"みどり台","town_kana":"ミドリダイ","prefecture_code":12},"1138":{"zip_code":"2891138","prefecture":"千葉県","prefecture_kana":"チバケン","city":"八街市","city_kana":"ヤチマタシ","town":"用草","town_kana":"モチクサ","prefecture_code":12},"1143":{"zip_code":"2891143","prefecture":"千葉県","prefecture_kana":"チバケン","city":"八街市","city_kana":"ヤチマタシ","town":"八街い","town_kana":"ヤチマタイ","prefecture_code":12},"1144":{"zip_code":"2891144","prefecture":"千葉県","prefecture_kana":"チバケン","city":"八街市","city_kana":"ヤチマタシ","town":"八街ろ","town_kana":"ヤチマタロ","prefecture_code":12},"1107":{"zip_code":"2891107","prefecture":"千葉県","prefecture_kana":"チバケン","city":"八街市","city_kana":"ヤチマタシ","town":"八街は","town_kana":"ヤチマタハ","prefecture_code":12},"1103":{"zip_code":"2891103","prefecture":"千葉県","prefecture_kana":"チバケン","city":"八街市","city_kana":"ヤチマタシ","town":"八街に","town_kana":"ヤチマタニ","prefecture_code":12},"1115":{"zip_code":"2891115","prefecture":"千葉県","prefecture_kana":"チバケン","city":"八街市","city_kana":"ヤチマタシ","town":"八街ほ","town_kana":"ヤチマタホ","prefecture_code":12},"1113":{"zip_code":"2891113","prefecture":"千葉県","prefecture_kana":"チバケン","city":"八街市","city_kana":"ヤチマタシ","town":"八街へ","town_kana":"ヤチマタヘ","prefecture_code":12},"1124":{"zip_code":"2891124","prefecture":"千葉県","prefecture_kana":"チバケン","city":"八街市","city_kana":"ヤチマタシ","town":"山田台","town_kana":"ヤマダダイ","prefecture_code":12},"1133":{"zip_code":"2891133","prefecture":"千葉県","prefecture_kana":"チバケン","city":"八街市","city_kana":"ヤチマタシ","town":"吉倉","town_kana":"ヨシクラ","prefecture_code":12},"2100":{"zip_code":"2892100","prefecture":"千葉県","prefecture_kana":"チバケン","city":"匝瑳市","city_kana":"ソウサシ","town":"以下に掲載がない場合","town_kana":"イカニケイサイガナイバアイ","prefecture_code":12},"2178":{"zip_code":"2892178","prefecture":"千葉県","prefecture_kana":"チバケン","city":"匝瑳市","city_kana":"ソウサシ","town":"安久山","town_kana":"アグヤマ","prefecture_code":12},"2147":{"zip_code":"2892147","prefecture":"千葉県","prefecture_kana":"チバケン","city":"匝瑳市","city_kana":"ソウサシ","town":"飯倉","town_kana":"イイグラ","prefecture_code":12},"2148":{"zip_code":"2892148","prefecture":"千葉県","prefecture_kana":"チバケン","city":"匝瑳市","city_kana":"ソウサシ","town":"飯倉台","town_kana":"イイグラダイ","prefecture_code":12},"2173":{"zip_code":"2892173","prefecture":"千葉県","prefecture_kana":"チバケン","city":"匝瑳市","city_kana":"ソウサシ","town":"飯高","town_kana":"イイダカ","prefecture_code":12},"2106":{"zip_code":"2892106","prefecture":"千葉県","prefecture_kana":"チバケン","city":"匝瑳市","city_kana":"ソウサシ","town":"飯塚","town_kana":"イイヅカ","prefecture_code":12},"3182":{"zip_code":"2893182","prefecture":"千葉県","prefecture_kana":"チバケン","city":"匝瑳市","city_kana":"ソウサシ","town":"今泉","town_kana":"イマイズミ","prefecture_code":12},"2161":{"zip_code":"2892161","prefecture":"千葉県","prefecture_kana":"チバケン","city":"匝瑳市","city_kana":"ソウサシ","town":"入山崎","town_kana":"イリヤマザキ","prefecture_code":12},"2171":{"zip_code":"2892171","prefecture":"千葉県","prefecture_kana":"チバケン","city":"匝瑳市","city_kana":"ソウサシ","town":"内山","town_kana":"ウチヤマ","prefecture_code":12},"2104":{"zip_code":"2892104","prefecture":"千葉県","prefecture_kana":"チバケン","city":"匝瑳市","city_kana":"ソウサシ","town":"生尾","town_kana":"オイオ","prefecture_code":12},"2151":{"zip_code":"2892151","prefecture":"千葉県","prefecture_kana":"チバケン","city":"匝瑳市","city_kana":"ソウサシ","town":"大浦","town_kana":"オオウラ","prefecture_code":12},"2108":{"zip_code":"2892108","prefecture":"千葉県","prefecture_kana":"チバケン","city":"匝瑳市","city_kana":"ソウサシ","town":"大寺","town_kana":"オオデラ","prefecture_code":12},"2176":{"zip_code":"2892176","prefecture":"千葉県","prefecture_kana":"チバケン","city":"匝瑳市","city_kana":"ソウサシ","town":"大堀","town_kana":"オオホリ","prefecture_code":12},"2112":{"zip_code":"2892112","prefecture":"千葉県","prefecture_kana":"チバケン","city":"匝瑳市","city_kana":"ソウサシ","town":"荻野","town_kana":"オギノ","prefecture_code":12},"2179":{"zip_code":"2892179","prefecture":"千葉県","prefecture_kana":"チバケン","city":"匝瑳市","city_kana":"ソウサシ","town":"小高","town_kana":"オダカ","prefecture_code":12},"2149":{"zip_code":"2892149","prefecture":"千葉県","prefecture_kana":"チバケン","city":"匝瑳市","city_kana":"ソウサシ","town":"貝塚","town_kana":"カイヅカ","prefecture_code":12},"2175":{"zip_code":"2892175","prefecture":"千葉県","prefecture_kana":"チバケン","city":"匝瑳市","city_kana":"ソウサシ","town":"片子","town_kana":"カタコ","prefecture_code":12},"2177":{"zip_code":"2892177","prefecture":"千葉県","prefecture_kana":"チバケン","city":"匝瑳市","city_kana":"ソウサシ","town":"金原","town_kana":"カナバラ","prefecture_code":12},"2133":{"zip_code":"2892133","prefecture":"千葉県","prefecture_kana":"チバケン","city":"匝瑳市","city_kana":"ソウサシ","town":"蕪里","town_kana":"カブザト","prefecture_code":12},"2167":{"zip_code":"2892167","prefecture":"千葉県","prefecture_kana":"チバケン","city":"匝瑳市","city_kana":"ソウサシ","town":"亀崎","town_kana":"カメザキ","prefecture_code":12},"3184":{"zip_code":"2893184","prefecture":"千葉県","prefecture_kana":"チバケン","city":"匝瑳市","city_kana":"ソウサシ","town":"栢田","town_kana":"カヤダ","prefecture_code":12},"3186":{"zip_code":"2893186","prefecture":"千葉県","prefecture_kana":"チバケン","city":"匝瑳市","city_kana":"ソウサシ","town":"川辺","town_kana":"カワベ","prefecture_code":12},"2111":{"zip_code":"2892111","prefecture":"千葉県","prefecture_kana":"チバケン","city":"匝瑳市","city_kana":"ソウサシ","town":"川向","town_kana":"カワムカイ","prefecture_code":12},"2164":{"zip_code":"2892164","prefecture":"千葉県","prefecture_kana":"チバケン","city":"匝瑳市","city_kana":"ソウサシ","town":"木積","town_kana":"キズミ","prefecture_code":12},"2174":{"zip_code":"2892174","prefecture":"千葉県","prefecture_kana":"チバケン","city":"匝瑳市","city_kana":"ソウサシ","town":"公崎","town_kana":"コウザキ","prefecture_code":12},"2135":{"zip_code":"2892135","prefecture":"千葉県","prefecture_kana":"チバケン","city":"匝瑳市","city_kana":"ソウサシ","town":"高野","town_kana":"コウヤ","prefecture_code":12},"2166":{"zip_code":"2892166","prefecture":"千葉県","prefecture_kana":"チバケン","city":"匝瑳市","city_kana":"ソウサシ","town":"新","town_kana":"シムラ","prefecture_code":12},"2114":{"zip_code":"2892114","prefecture":"千葉県","prefecture_kana":"チバケン","city":"匝瑳市","city_kana":"ソウサシ","town":"上谷中","town_kana":"ジョウヤナカ","prefecture_code":12},"2132":{"zip_code":"2892132","prefecture":"千葉県","prefecture_kana":"チバケン","city":"匝瑳市","city_kana":"ソウサシ","town":"高","town_kana":"タカ","prefecture_code":12},"2165":{"zip_code":"2892165","prefecture":"千葉県","prefecture_kana":"チバケン","city":"匝瑳市","city_kana":"ソウサシ","town":"田久保","town_kana":"タクボ","prefecture_code":12},"2102":{"zip_code":"2892102","prefecture":"千葉県","prefecture_kana":"チバケン","city":"匝瑳市","city_kana":"ソウサシ","town":"椿","town_kana":"ツバキ","prefecture_code":12},"2136":{"zip_code":"2892136","prefecture":"千葉県","prefecture_kana":"チバケン","city":"匝瑳市","city_kana":"ソウサシ","town":"時曽根","town_kana":"トキゾネ","prefecture_code":12},"2154":{"zip_code":"2892154","prefecture":"千葉県","prefecture_kana":"チバケン","city":"匝瑳市","city_kana":"ソウサシ","town":"富岡","town_kana":"トミオカ","prefecture_code":12},"2156":{"zip_code":"2892156","prefecture":"千葉県","prefecture_kana":"チバケン","city":"匝瑳市","city_kana":"ソウサシ","town":"長岡","town_kana":"ナガオカ","prefecture_code":12},"2153":{"zip_code":"2892153","prefecture":"千葉県","prefecture_kana":"チバケン","city":"匝瑳市","city_kana":"ソウサシ","town":"中台","town_kana":"ナカダイ","prefecture_code":12},"2123":{"zip_code":"2892123","prefecture":"千葉県","prefecture_kana":"チバケン","city":"匝瑳市","city_kana":"ソウサシ","town":"長谷","town_kana":"ナガヤ","prefecture_code":12},"3183":{"zip_code":"2893183","prefecture":"千葉県","prefecture_kana":"チバケン","city":"匝瑳市","city_kana":"ソウサシ","town":"新堀","town_kana":"ニイボリ","prefecture_code":12},"2125":{"zip_code":"2892125","prefecture":"千葉県","prefecture_kana":"チバケン","city":"匝瑳市","city_kana":"ソウサシ","town":"西小笹","town_kana":"ニシコザサ","prefecture_code":12},"2172":{"zip_code":"2892172","prefecture":"千葉県","prefecture_kana":"チバケン","city":"匝瑳市","city_kana":"ソウサシ","town":"城下","town_kana":"ネゴヤ","prefecture_code":12},"3181":{"zip_code":"2893181","prefecture":"千葉県","prefecture_kana":"チバケン","city":"匝瑳市","city_kana":"ソウサシ","town":"野手","town_kana":"ノデ","prefecture_code":12},"2124":{"zip_code":"2892124","prefecture":"千葉県","prefecture_kana":"チバケン","city":"匝瑳市","city_kana":"ソウサシ","town":"登戸","town_kana":"ノブト","prefecture_code":12},"2101":{"zip_code":"2892101","prefecture":"千葉県","prefecture_kana":"チバケン","city":"匝瑳市","city_kana":"ソウサシ","town":"春海","town_kana":"ハルミ","prefecture_code":12},"2121":{"zip_code":"2892121","prefecture":"千葉県","prefecture_kana":"チバケン","city":"匝瑳市","city_kana":"ソウサシ","town":"東小笹","town_kana":"ヒガシコザサ","prefecture_code":12},"2115":{"zip_code":"2892115","prefecture":"千葉県","prefecture_kana":"チバケン","city":"匝瑳市","city_kana":"ソウサシ","town":"東谷","town_kana":"ヒガシヤ","prefecture_code":12},"2168":{"zip_code":"2892168","prefecture":"千葉県","prefecture_kana":"チバケン","city":"匝瑳市","city_kana":"ソウサシ","town":"久方","town_kana":"ヒサカタ","prefecture_code":12},"2113":{"zip_code":"2892113","prefecture":"千葉県","prefecture_kana":"チバケン","city":"匝瑳市","city_kana":"ソウサシ","town":"平木","town_kana":"ヒラギ","prefecture_code":12},"3185":{"zip_code":"2893185","prefecture":"千葉県","prefecture_kana":"チバケン","city":"匝瑳市","city_kana":"ソウサシ","town":"堀川","town_kana":"ホリカワ","prefecture_code":12},"2157":{"zip_code":"2892157","prefecture":"千葉県","prefecture_kana":"チバケン","city":"匝瑳市","city_kana":"ソウサシ","town":"堀之内","town_kana":"ホリノウチ","prefecture_code":12},"2152":{"zip_code":"2892152","prefecture":"千葉県","prefecture_kana":"チバケン","city":"匝瑳市","city_kana":"ソウサシ","town":"松山","town_kana":"マツヤマ","prefecture_code":12},"2131":{"zip_code":"2892131","prefecture":"千葉県","prefecture_kana":"チバケン","city":"匝瑳市","city_kana":"ソウサシ","town":"みどり平","town_kana":"ミドリダイラ","prefecture_code":12},"2163":{"zip_code":"2892163","prefecture":"千葉県","prefecture_kana":"チバケン","city":"匝瑳市","city_kana":"ソウサシ","town":"南神崎","town_kana":"ミナミカンザキ","prefecture_code":12},"2162":{"zip_code":"2892162","prefecture":"千葉県","prefecture_kana":"チバケン","city":"匝瑳市","city_kana":"ソウサシ","town":"南山崎","town_kana":"ミナミヤマザキ","prefecture_code":12},"2103":{"zip_code":"2892103","prefecture":"千葉県","prefecture_kana":"チバケン","city":"匝瑳市","city_kana":"ソウサシ","town":"宮本","town_kana":"ミヤモト","prefecture_code":12},"2155":{"zip_code":"2892155","prefecture":"千葉県","prefecture_kana":"チバケン","city":"匝瑳市","city_kana":"ソウサシ","town":"八辺","town_kana":"ヤッペ","prefecture_code":12},"2105":{"zip_code":"2892105","prefecture":"千葉県","prefecture_kana":"チバケン","city":"匝瑳市","city_kana":"ソウサシ","town":"山桑","town_kana":"ヤマクワ","prefecture_code":12},"2144":{"zip_code":"2892144","prefecture":"千葉県","prefecture_kana":"チバケン","city":"匝瑳市","city_kana":"ソウサシ","town":"八日市場イ","town_kana":"ヨウカイチバイ","prefecture_code":12},"2142":{"zip_code":"2892142","prefecture":"千葉県","prefecture_kana":"チバケン","city":"匝瑳市","city_kana":"ソウサシ","town":"八日市場ニ","town_kana":"ヨウカイチバニ","prefecture_code":12},"2141":{"zip_code":"2892141","prefecture":"千葉県","prefecture_kana":"チバケン","city":"匝瑳市","city_kana":"ソウサシ","town":"八日市場ハ","town_kana":"ヨウカイチバハ","prefecture_code":12},"2146":{"zip_code":"2892146","prefecture":"千葉県","prefecture_kana":"チバケン","city":"匝瑳市","city_kana":"ソウサシ","town":"八日市場ホ","town_kana":"ヨウカイチバホ","prefecture_code":12},"2143":{"zip_code":"2892143","prefecture":"千葉県","prefecture_kana":"チバケン","city":"匝瑳市","city_kana":"ソウサシ","town":"八日市場ロ","town_kana":"ヨウカイチバロ","prefecture_code":12},"2134":{"zip_code":"2892134","prefecture":"千葉県","prefecture_kana":"チバケン","city":"匝瑳市","city_kana":"ソウサシ","town":"横須賀","town_kana":"ヨコスカ","prefecture_code":12},"2122":{"zip_code":"2892122","prefecture":"千葉県","prefecture_kana":"チバケン","city":"匝瑳市","city_kana":"ソウサシ","town":"吉崎","town_kana":"ヨシザキ","prefecture_code":12},"2169":{"zip_code":"2892169","prefecture":"千葉県","prefecture_kana":"チバケン","city":"匝瑳市","city_kana":"ソウサシ","town":"吉田","town_kana":"ヨシダ","prefecture_code":12},"2107":{"zip_code":"2892107","prefecture":"千葉県","prefecture_kana":"チバケン","city":"匝瑳市","city_kana":"ソウサシ","town":"米持","town_kana":"ヨネモチ","prefecture_code":12},"2145":{"zip_code":"2892145","prefecture":"千葉県","prefecture_kana":"チバケン","city":"匝瑳市","city_kana":"ソウサシ","town":"若潮町","town_kana":"ワカシオチョウ","prefecture_code":12},"0321":{"zip_code":"2890321","prefecture":"千葉県","prefecture_kana":"チバケン","city":"香取市","city_kana":"カトリシ","town":"阿玉川","town_kana":"アタマガワ","prefecture_code":12},"0326":{"zip_code":"2890326","prefecture":"千葉県","prefecture_kana":"チバケン","city":"香取市","city_kana":"カトリシ","town":"阿玉台","town_kana":"アタマダイ","prefecture_code":12},"0346":{"zip_code":"2890346","prefecture":"千葉県","prefecture_kana":"チバケン","city":"香取市","city_kana":"カトリシ","town":"油田","town_kana":"アブラタ","prefecture_code":12},"0324":{"zip_code":"2890324","prefecture":"千葉県","prefecture_kana":"チバケン","city":"香取市","city_kana":"カトリシ","town":"和泉","town_kana":"イズミ","prefecture_code":12},"0301":{"zip_code":"2890301","prefecture":"千葉県","prefecture_kana":"チバケン","city":"香取市","city_kana":"カトリシ","town":"一ノ分目","town_kana":"イチノワケメ","prefecture_code":12},"0333":{"zip_code":"2890333","prefecture":"千葉県","prefecture_kana":"チバケン","city":"香取市","city_kana":"カトリシ","town":"入会地","town_kana":"イリアイチ","prefecture_code":12},"0349":{"zip_code":"2890349","prefecture":"千葉県","prefecture_kana":"チバケン","city":"香取市","city_kana":"カトリシ","town":"内野","town_kana":"ウチノ","prefecture_code":12},"0425":{"zip_code":"2890425","prefecture":"千葉県","prefecture_kana":"チバケン","city":"香取市","city_kana":"カトリシ","town":"大角","town_kana":"オオトガリ","prefecture_code":12},"0323":{"zip_code":"2890323","prefecture":"千葉県","prefecture_kana":"チバケン","city":"香取市","city_kana":"カトリシ","town":"岡飯田","town_kana":"オカイイダ","prefecture_code":12},"0423":{"zip_code":"2890423","prefecture":"千葉県","prefecture_kana":"チバケン","city":"香取市","city_kana":"カトリシ","town":"小川","town_kana":"オガワ","prefecture_code":12},"0402":{"zip_code":"2890402","prefecture":"千葉県","prefecture_kana":"チバケン","city":"香取市","city_kana":"カトリシ","town":"小見","town_kana":"オミ","prefecture_code":12},"0313":{"zip_code":"2890313","prefecture":"千葉県","prefecture_kana":"チバケン","city":"香取市","city_kana":"カトリシ","town":"小見川","town_kana":"オミガワ","prefecture_code":12},"0348":{"zip_code":"2890348","prefecture":"千葉県","prefecture_kana":"チバケン","city":"香取市","city_kana":"カトリシ","town":"織幡","town_kana":"オリハタ","prefecture_code":12},"0325":{"zip_code":"2890325","prefecture":"千葉県","prefecture_kana":"チバケン","city":"香取市","city_kana":"カトリシ","town":"貝塚","town_kana":"カイヅカ","prefecture_code":12},"0306":{"zip_code":"2890306","prefecture":"千葉県","prefecture_kana":"チバケン","city":"香取市","city_kana":"カトリシ","town":"上小堀","town_kana":"カミコボリ","prefecture_code":12},"0334":{"zip_code":"2890334","prefecture":"千葉県","prefecture_kana":"チバケン","city":"香取市","city_kana":"カトリシ","town":"川頭","town_kana":"カワガシラ","prefecture_code":12},"0403":{"zip_code":"2890403","prefecture":"千葉県","prefecture_kana":"チバケン","city":"香取市","city_kana":"カトリシ","town":"川上","town_kana":"カワカミ","prefecture_code":12},"0408":{"zip_code":"2890408","prefecture":"千葉県","prefecture_kana":"チバケン","city":"香取市","city_kana":"カトリシ","town":"神生","town_kana":"カンノウ","prefecture_code":12},"0335":{"zip_code":"2890335","prefecture":"千葉県","prefecture_kana":"チバケン","city":"香取市","city_kana":"カトリシ","town":"北原地新田","town_kana":"キタハラチシンデン","prefecture_code":12},"0337":{"zip_code":"2890337","prefecture":"千葉県","prefecture_kana":"チバケン","city":"香取市","city_kana":"カトリシ","town":"木内","town_kana":"キノウチ","prefecture_code":12},"0308":{"zip_code":"2890308","prefecture":"千葉県","prefecture_kana":"チバケン","city":"香取市","city_kana":"カトリシ","town":"木内虫幡上小堀入会地大平","town_kana":"キノウチムシハタカミコボリイリアイチオオダイラ","prefecture_code":12},"0422":{"zip_code":"2890422","prefecture":"千葉県","prefecture_kana":"チバケン","city":"香取市","city_kana":"カトリシ","town":"桐谷","town_kana":"キリザク","prefecture_code":12},"0327":{"zip_code":"2890327","prefecture":"千葉県","prefecture_kana":"チバケン","city":"香取市","city_kana":"カトリシ","town":"久保","town_kana":"クボ","prefecture_code":12},"0404":{"zip_code":"2890404","prefecture":"千葉県","prefecture_kana":"チバケン","city":"香取市","city_kana":"カトリシ","town":"高野","town_kana":"コウヤ","prefecture_code":12},"0328":{"zip_code":"2890328","prefecture":"千葉県","prefecture_kana":"チバケン","city":"香取市","city_kana":"カトリシ","town":"五郷内","town_kana":"ゴゴウチ","prefecture_code":12},"0401":{"zip_code":"2890401","prefecture":"千葉県","prefecture_kana":"チバケン","city":"香取市","city_kana":"カトリシ","town":"米野井","town_kana":"コメノイ","prefecture_code":12},"0302":{"zip_code":"2890302","prefecture":"千葉県","prefecture_kana":"チバケン","city":"香取市","city_kana":"カトリシ","town":"三ノ分目","town_kana":"サンノワケメ","prefecture_code":12},"0413":{"zip_code":"2890413","prefecture":"千葉県","prefecture_kana":"チバケン","city":"香取市","city_kana":"カトリシ","town":"志高","town_kana":"シダカ","prefecture_code":12},"0322":{"zip_code":"2890322","prefecture":"千葉県","prefecture_kana":"チバケン","city":"香取市","city_kana":"カトリシ","town":"下飯田","town_kana":"シモイイダ","prefecture_code":12},"0338":{"zip_code":"2890338","prefecture":"千葉県","prefecture_kana":"チバケン","city":"香取市","city_kana":"カトリシ","town":"下小川","town_kana":"シモオガワ","prefecture_code":12},"0304":{"zip_code":"2890304","prefecture":"千葉県","prefecture_kana":"チバケン","city":"香取市","city_kana":"カトリシ","town":"下小堀","town_kana":"シモコボリ","prefecture_code":12},"0344":{"zip_code":"2890344","prefecture":"千葉県","prefecture_kana":"チバケン","city":"香取市","city_kana":"カトリシ","town":"白井","town_kana":"シライ","prefecture_code":12},"0336":{"zip_code":"2890336","prefecture":"千葉県","prefecture_kana":"チバケン","city":"香取市","city_kana":"カトリシ","town":"新々田","town_kana":"シンシンデン","prefecture_code":12},"0405":{"zip_code":"2890405","prefecture":"千葉県","prefecture_kana":"チバケン","city":"香取市","city_kana":"カトリシ","town":"竹之内","town_kana":"タケノウチ","prefecture_code":12},"0406":{"zip_code":"2890406","prefecture":"千葉県","prefecture_kana":"チバケン","city":"香取市","city_kana":"カトリシ","town":"田部","town_kana":"タベ","prefecture_code":12},"0303":{"zip_code":"2890303","prefecture":"千葉県","prefecture_kana":"チバケン","city":"香取市","city_kana":"カトリシ","town":"富田","town_kana":"トミタ","prefecture_code":12},"0414":{"zip_code":"2890414","prefecture":"千葉県","prefecture_kana":"チバケン","city":"香取市","city_kana":"カトリシ","town":"長岡","town_kana":"ナガオカ","prefecture_code":12},"0424":{"zip_code":"2890424","prefecture":"千葉県","prefecture_kana":"チバケン","city":"香取市","city_kana":"カトリシ","town":"新里","town_kana":"ニッサト","prefecture_code":12},"0407":{"zip_code":"2890407","prefecture":"千葉県","prefecture_kana":"チバケン","city":"香取市","city_kana":"カトリシ","town":"仁良","town_kana":"ニラ","prefecture_code":12},"0314":{"zip_code":"2890314","prefecture":"千葉県","prefecture_kana":"チバケン","city":"香取市","city_kana":"カトリシ","town":"野田","town_kana":"ノダ","prefecture_code":12},"0347":{"zip_code":"2890347","prefecture":"千葉県","prefecture_kana":"チバケン","city":"香取市","city_kana":"カトリシ","town":"旗鉾","town_kana":"ハタホコ","prefecture_code":12},"0345":{"zip_code":"2890345","prefecture":"千葉県","prefecture_kana":"チバケン","city":"香取市","city_kana":"カトリシ","town":"八本","town_kana":"ハチホン","prefecture_code":12},"0421":{"zip_code":"2890421","prefecture":"千葉県","prefecture_kana":"チバケン","city":"香取市","city_kana":"カトリシ","town":"鳩山","town_kana":"ハトヤマ","prefecture_code":12},"0331":{"zip_code":"2890331","prefecture":"千葉県","prefecture_kana":"チバケン","city":"香取市","city_kana":"カトリシ","town":"羽根川","town_kana":"ハネガワ","prefecture_code":12},"0329":{"zip_code":"2890329","prefecture":"千葉県","prefecture_kana":"チバケン","city":"香取市","city_kana":"カトリシ","town":"布野","town_kana":"フノ","prefecture_code":12},"0411":{"zip_code":"2890411","prefecture":"千葉県","prefecture_kana":"チバケン","city":"香取市","city_kana":"カトリシ","town":"府馬","town_kana":"フマ","prefecture_code":12},"0412":{"zip_code":"2890412","prefecture":"千葉県","prefecture_kana":"チバケン","city":"香取市","city_kana":"カトリシ","town":"古内","town_kana":"フルウチ","prefecture_code":12},"0312":{"zip_code":"2890312","prefecture":"千葉県","prefecture_kana":"チバケン","city":"香取市","city_kana":"カトリシ","town":"本郷","town_kana":"ホンゴウ","prefecture_code":12},"0307":{"zip_code":"2890307","prefecture":"千葉県","prefecture_kana":"チバケン","city":"香取市","city_kana":"カトリシ","town":"増田","town_kana":"マシタ","prefecture_code":12},"0332":{"zip_code":"2890332","prefecture":"千葉県","prefecture_kana":"チバケン","city":"香取市","city_kana":"カトリシ","town":"南原地新田","town_kana":"ミナミハラチシンデン","prefecture_code":12},"0341":{"zip_code":"2890341","prefecture":"千葉県","prefecture_kana":"チバケン","city":"香取市","city_kana":"カトリシ","town":"虫幡","town_kana":"ムシハタ","prefecture_code":12},"0343":{"zip_code":"2890343","prefecture":"千葉県","prefecture_kana":"チバケン","city":"香取市","city_kana":"カトリシ","town":"山川","town_kana":"ヤマガワ","prefecture_code":12},"0426":{"zip_code":"2890426","prefecture":"千葉県","prefecture_kana":"チバケン","city":"香取市","city_kana":"カトリシ","town":"山倉","town_kana":"ヤマクラ","prefecture_code":12},"0311":{"zip_code":"2890311","prefecture":"千葉県","prefecture_kana":"チバケン","city":"香取市","city_kana":"カトリシ","town":"八日市場","town_kana":"ヨウカイチバ","prefecture_code":12},"0342":{"zip_code":"2890342","prefecture":"千葉県","prefecture_kana":"チバケン","city":"香取市","city_kana":"カトリシ","town":"竜谷","town_kana":"リュウザク","prefecture_code":12},"0305":{"zip_code":"2890305","prefecture":"千葉県","prefecture_kana":"チバケン","city":"香取市","city_kana":"カトリシ","town":"分郷","town_kana":"ワカレゴウ","prefecture_code":12},"1300":{"zip_code":"2891300","prefecture":"千葉県","prefecture_kana":"チバケン","city":"山武市","city_kana":"サンムシ","town":"以下に掲載がない場合","town_kana":"イカニケイサイガナイバアイ","prefecture_code":12},"1203":{"zip_code":"2891203","prefecture":"千葉県","prefecture_kana":"チバケン","city":"山武市","city_kana":"サンムシ","town":"麻生新田","town_kana":"アソウシンデン","prefecture_code":12},"1213":{"zip_code":"2891213","prefecture":"千葉県","prefecture_kana":"チバケン","city":"山武市","city_kana":"サンムシ","town":"雨坪","town_kana":"アメツボ","prefecture_code":12},"1201":{"zip_code":"2891201","prefecture":"千葉県","prefecture_kana":"チバケン","city":"山武市","city_kana":"サンムシ","town":"板川","town_kana":"イタガワ","prefecture_code":12},"1335":{"zip_code":"2891335","prefecture":"千葉県","prefecture_kana":"チバケン","city":"山武市","city_kana":"サンムシ","town":"板附","town_kana":"イタツキ","prefecture_code":12},"1222":{"zip_code":"2891222","prefecture":"千葉県","prefecture_kana":"チバケン","city":"山武市","city_kana":"サンムシ","town":"板中新田","town_kana":"イタナカシンデン","prefecture_code":12},"1333":{"zip_code":"2891333","prefecture":"千葉県","prefecture_kana":"チバケン","city":"山武市","city_kana":"サンムシ","town":"市場","town_kana":"イチバ","prefecture_code":12},"1304":{"zip_code":"2891304","prefecture":"千葉県","prefecture_kana":"チバケン","city":"山武市","city_kana":"サンムシ","town":"井之内","town_kana":"イノウチ","prefecture_code":12},"1216":{"zip_code":"2891216","prefecture":"千葉県","prefecture_kana":"チバケン","city":"山武市","city_kana":"サンムシ","town":"植草","town_kana":"ウエクサ","prefecture_code":12},"1211":{"zip_code":"2891211","prefecture":"千葉県","prefecture_kana":"チバケン","city":"山武市","city_kana":"サンムシ","town":"大木","town_kana":"オオギ","prefecture_code":12},"1225":{"zip_code":"2891225","prefecture":"千葉県","prefecture_kana":"チバケン","city":"山武市","city_kana":"サンムシ","town":"沖渡","town_kana":"オキワタシ","prefecture_code":12},"1332":{"zip_code":"2891332","prefecture":"千葉県","prefecture_kana":"チバケン","city":"山武市","city_kana":"サンムシ","town":"親田","town_kana":"オヤダ","prefecture_code":12},"1313":{"zip_code":"2891313","prefecture":"千葉県","prefecture_kana":"チバケン","city":"山武市","city_kana":"サンムシ","town":"上横地","town_kana":"カミヨコジ","prefecture_code":12},"1331":{"zip_code":"2891331","prefecture":"千葉県","prefecture_kana":"チバケン","city":"山武市","city_kana":"サンムシ","town":"川崎","town_kana":"カワサキ","prefecture_code":12},"1301":{"zip_code":"2891301","prefecture":"千葉県","prefecture_kana":"チバケン","city":"山武市","city_kana":"サンムシ","town":"木戸","town_kana":"キド","prefecture_code":12},"1212":{"zip_code":"2891212","prefecture":"千葉県","prefecture_kana":"チバケン","city":"山武市","city_kana":"サンムシ","town":"木原","town_kana":"キバラ","prefecture_code":12},"1315":{"zip_code":"2891315","prefecture":"千葉県","prefecture_kana":"チバケン","city":"山武市","city_kana":"サンムシ","town":"草深","town_kana":"クサブカ","prefecture_code":12},"1317":{"zip_code":"2891317","prefecture":"千葉県","prefecture_kana":"チバケン","city":"山武市","city_kana":"サンムシ","town":"小泉","town_kana":"コイズミ","prefecture_code":12},"1316":{"zip_code":"2891316","prefecture":"千葉県","prefecture_kana":"チバケン","city":"山武市","city_kana":"サンムシ","town":"五木田","town_kana":"ゴキタ","prefecture_code":12},"1302":{"zip_code":"2891302","prefecture":"千葉県","prefecture_kana":"チバケン","city":"山武市","city_kana":"サンムシ","town":"小松","town_kana":"コマツ","prefecture_code":12},"1221":{"zip_code":"2891221","prefecture":"千葉県","prefecture_kana":"チバケン","city":"山武市","city_kana":"サンムシ","town":"実門","town_kana":"サネカド","prefecture_code":12},"1205":{"zip_code":"2891205","prefecture":"千葉県","prefecture_kana":"チバケン","city":"山武市","city_kana":"サンムシ","town":"椎崎","town_kana":"シイザキ","prefecture_code":12},"1312":{"zip_code":"2891312","prefecture":"千葉県","prefecture_kana":"チバケン","city":"山武市","city_kana":"サンムシ","town":"柴原","town_kana":"シバハラ","prefecture_code":12},"1325":{"zip_code":"2891325","prefecture":"千葉県","prefecture_kana":"チバケン","city":"山武市","city_kana":"サンムシ","town":"島","town_kana":"シマ","prefecture_code":12},"1342":{"zip_code":"2891342","prefecture":"千葉県","prefecture_kana":"チバケン","city":"山武市","city_kana":"サンムシ","town":"島戸","town_kana":"シマド","prefecture_code":12},"1217":{"zip_code":"2891217","prefecture":"千葉県","prefecture_kana":"チバケン","city":"山武市","city_kana":"サンムシ","town":"下布田","town_kana":"シモフダ","prefecture_code":12},"1314":{"zip_code":"2891314","prefecture":"千葉県","prefecture_kana":"チバケン","city":"山武市","city_kana":"サンムシ","town":"下横地","town_kana":"シモヨコヂ","prefecture_code":12},"1306":{"zip_code":"2891306","prefecture":"千葉県","prefecture_kana":"チバケン","city":"山武市","city_kana":"サンムシ","town":"白幡","town_kana":"シラハタ","prefecture_code":12},"1343":{"zip_code":"2891343","prefecture":"千葉県","prefecture_kana":"チバケン","city":"山武市","city_kana":"サンムシ","town":"真行寺","town_kana":"シンギョウジ","prefecture_code":12},"1345":{"zip_code":"2891345","prefecture":"千葉県","prefecture_kana":"チバケン","city":"山武市","city_kana":"サンムシ","town":"津辺","town_kana":"ツベ","prefecture_code":12},"1318":{"zip_code":"2891318","prefecture":"千葉県","prefecture_kana":"チバケン","city":"山武市","city_kana":"サンムシ","town":"寺崎","town_kana":"テラザキ","prefecture_code":12},"1204":{"zip_code":"2891204","prefecture":"千葉県","prefecture_kana":"チバケン","city":"山武市","city_kana":"サンムシ","town":"戸田","town_kana":"トダ","prefecture_code":12},"1324":{"zip_code":"2891324","prefecture":"千葉県","prefecture_kana":"チバケン","city":"山武市","city_kana":"サンムシ","town":"殿台","town_kana":"トノダイ","prefecture_code":12},"1323":{"zip_code":"2891323","prefecture":"千葉県","prefecture_kana":"チバケン","city":"山武市","city_kana":"サンムシ","town":"富口","town_kana":"トミグチ","prefecture_code":12},"1321":{"zip_code":"2891321","prefecture":"千葉県","prefecture_kana":"チバケン","city":"山武市","city_kana":"サンムシ","town":"富田","town_kana":"トミダ","prefecture_code":12},"1322":{"zip_code":"2891322","prefecture":"千葉県","prefecture_kana":"チバケン","city":"山武市","city_kana":"サンムシ","town":"富田幸谷","town_kana":"トミダゴウヤ","prefecture_code":12},"1202":{"zip_code":"2891202","prefecture":"千葉県","prefecture_kana":"チバケン","city":"山武市","city_kana":"サンムシ","town":"中津田","town_kana":"ナカツタ","prefecture_code":12},"1326":{"zip_code":"2891326","prefecture":"千葉県","prefecture_kana":"チバケン","city":"山武市","city_kana":"サンムシ","town":"成東","town_kana":"ナルトウ","prefecture_code":12},"1344":{"zip_code":"2891344","prefecture":"千葉県","prefecture_kana":"チバケン","city":"山武市","city_kana":"サンムシ","town":"新泉","town_kana":"ニイノミ","prefecture_code":12},"1341":{"zip_code":"2891341","prefecture":"千葉県","prefecture_kana":"チバケン","city":"山武市","city_kana":"サンムシ","town":"野堀","town_kana":"ノボリ","prefecture_code":12},"1801":{"zip_code":"2891801","prefecture":"千葉県","prefecture_kana":"チバケン","city":"山武市","city_kana":"サンムシ","town":"蓮沼イ","town_kana":"ハスヌマイ","prefecture_code":12},"1805":{"zip_code":"2891805","prefecture":"千葉県","prefecture_kana":"チバケン","city":"山武市","city_kana":"サンムシ","town":"蓮沼ニ","town_kana":"ハスヌマニ","prefecture_code":12},"1806":{"zip_code":"2891806","prefecture":"千葉県","prefecture_kana":"チバケン","city":"山武市","city_kana":"サンムシ","town":"蓮沼ハ","town_kana":"ハスヌマハ","prefecture_code":12},"1804":{"zip_code":"2891804","prefecture":"千葉県","prefecture_kana":"チバケン","city":"山武市","city_kana":"サンムシ","town":"蓮沼平","town_kana":"ハスヌマヒラ","prefecture_code":12},"1803":{"zip_code":"2891803","prefecture":"千葉県","prefecture_kana":"チバケン","city":"山武市","city_kana":"サンムシ","town":"蓮沼ホ","town_kana":"ハスヌマホ","prefecture_code":12},"1802":{"zip_code":"2891802","prefecture":"千葉県","prefecture_kana":"チバケン","city":"山武市","city_kana":"サンムシ","town":"蓮沼ロ","town_kana":"ハスヌマロ","prefecture_code":12},"1223":{"zip_code":"2891223","prefecture":"千葉県","prefecture_kana":"チバケン","city":"山武市","city_kana":"サンムシ","town":"埴谷","town_kana":"ハニヤ","prefecture_code":12},"1311":{"zip_code":"2891311","prefecture":"千葉県","prefecture_kana":"チバケン","city":"山武市","city_kana":"サンムシ","town":"早船","town_kana":"ハヤフネ","prefecture_code":12},"1327":{"zip_code":"2891327","prefecture":"千葉県","prefecture_kana":"チバケン","city":"山武市","city_kana":"サンムシ","town":"姫島","town_kana":"ヒメシマ","prefecture_code":12},"1206":{"zip_code":"2891206","prefecture":"千葉県","prefecture_kana":"チバケン","city":"山武市","city_kana":"サンムシ","town":"日向台","town_kana":"ヒュウガダイ","prefecture_code":12},"1524":{"zip_code":"2891524","prefecture":"千葉県","prefecture_kana":"チバケン","city":"山武市","city_kana":"サンムシ","town":"松尾町祝田","town_kana":"マツオマチイワイタ","prefecture_code":12},"1527":{"zip_code":"2891527","prefecture":"千葉県","prefecture_kana":"チバケン","city":"山武市","city_kana":"サンムシ","town":"松尾町大堤","town_kana":"マツオマチオオツツミ","prefecture_code":12},"1507":{"zip_code":"2891507","prefecture":"千葉県","prefecture_kana":"チバケン","city":"山武市","city_kana":"サンムシ","town":"松尾町小川","town_kana":"マツオマチオガワ","prefecture_code":12},"1535":{"zip_code":"2891535","prefecture":"千葉県","prefecture_kana":"チバケン","city":"山武市","city_kana":"サンムシ","town":"松尾町折戸","town_kana":"マツオマチオリト","prefecture_code":12},"1537":{"zip_code":"2891537","prefecture":"千葉県","prefecture_kana":"チバケン","city":"山武市","city_kana":"サンムシ","town":"松尾町借毛本郷","town_kana":"マツオマチカシケホンゴウ","prefecture_code":12},"1511":{"zip_code":"2891511","prefecture":"千葉県","prefecture_kana":"チバケン","city":"山武市","city_kana":"サンムシ","town":"松尾町蕪木","town_kana":"マツオマチカブラキ","prefecture_code":12},"1506":{"zip_code":"2891506","prefecture":"千葉県","prefecture_kana":"チバケン","city":"山武市","city_kana":"サンムシ","town":"松尾町上大蔵","town_kana":"マツオマチカミオオクラ","prefecture_code":12},"1505":{"zip_code":"2891505","prefecture":"千葉県","prefecture_kana":"チバケン","city":"山武市","city_kana":"サンムシ","town":"松尾町金尾","town_kana":"マツオマチカンノオ","prefecture_code":12},"1531":{"zip_code":"2891531","prefecture":"千葉県","prefecture_kana":"チバケン","city":"山武市","city_kana":"サンムシ","town":"松尾町木刀","town_kana":"マツオマチキガタナ","prefecture_code":12},"1523":{"zip_code":"2891523","prefecture":"千葉県","prefecture_kana":"チバケン","city":"山武市","city_kana":"サンムシ","town":"松尾町五反田","town_kana":"マツオマチゴタンダ","prefecture_code":12},"1504":{"zip_code":"2891504","prefecture":"千葉県","prefecture_kana":"チバケン","city":"山武市","city_kana":"サンムシ","town":"松尾町古和","town_kana":"マツオマチコワ","prefecture_code":12},"1513":{"zip_code":"2891513","prefecture":"千葉県","prefecture_kana":"チバケン","city":"山武市","city_kana":"サンムシ","town":"松尾町猿尾","town_kana":"マツオマチサルオ","prefecture_code":12},"1517":{"zip_code":"2891517","prefecture":"千葉県","prefecture_kana":"チバケン","city":"山武市","city_kana":"サンムシ","town":"松尾町下大蔵","town_kana":"マツオマチシモオオクラ","prefecture_code":12},"1534":{"zip_code":"2891534","prefecture":"千葉県","prefecture_kana":"チバケン","city":"山武市","city_kana":"サンムシ","town":"松尾町下野","town_kana":"マツオマチシモノ","prefecture_code":12},"1536":{"zip_code":"2891536","prefecture":"千葉県","prefecture_kana":"チバケン","city":"山武市","city_kana":"サンムシ","town":"松尾町下之郷","town_kana":"マツオマチシモノゴウ","prefecture_code":12},"1522":{"zip_code":"2891522","prefecture":"千葉県","prefecture_kana":"チバケン","city":"山武市","city_kana":"サンムシ","town":"松尾町高富","town_kana":"マツオマチタカトミ","prefecture_code":12},"1532":{"zip_code":"2891532","prefecture":"千葉県","prefecture_kana":"チバケン","city":"山武市","city_kana":"サンムシ","town":"松尾町武野里","town_kana":"マツオマチタケノサト","prefecture_code":12},"1516":{"zip_code":"2891516","prefecture":"千葉県","prefecture_kana":"チバケン","city":"山武市","city_kana":"サンムシ","town":"松尾町田越","town_kana":"マツオマチタコエ","prefecture_code":12},"1512":{"zip_code":"2891512","prefecture":"千葉県","prefecture_kana":"チバケン","city":"山武市","city_kana":"サンムシ","town":"松尾町八田","town_kana":"マツオマチハッタ","prefecture_code":12},"1502":{"zip_code":"2891502","prefecture":"千葉県","prefecture_kana":"チバケン","city":"山武市","city_kana":"サンムシ","town":"松尾町引越","town_kana":"マツオマチヒッコシ","prefecture_code":12},"1533":{"zip_code":"2891533","prefecture":"千葉県","prefecture_kana":"チバケン","city":"山武市","city_kana":"サンムシ","town":"松尾町広根","town_kana":"マツオマチヒロネ","prefecture_code":12},"1515":{"zip_code":"2891515","prefecture":"千葉県","prefecture_kana":"チバケン","city":"山武市","city_kana":"サンムシ","town":"松尾町富士見台","town_kana":"マツオマチフジミダイ","prefecture_code":12},"1514":{"zip_code":"2891514","prefecture":"千葉県","prefecture_kana":"チバケン","city":"山武市","city_kana":"サンムシ","town":"松尾町松尾","town_kana":"マツオマチマツオ","prefecture_code":12},"1526":{"zip_code":"2891526","prefecture":"千葉県","prefecture_kana":"チバケン","city":"山武市","city_kana":"サンムシ","town":"松尾町水深","town_kana":"マツオマチミズフカ","prefecture_code":12},"1521":{"zip_code":"2891521","prefecture":"千葉県","prefecture_kana":"チバケン","city":"山武市","city_kana":"サンムシ","town":"松尾町本柏","town_kana":"マツオマチモトガシワ","prefecture_code":12},"1525":{"zip_code":"2891525","prefecture":"千葉県","prefecture_kana":"チバケン","city":"山武市","city_kana":"サンムシ","town":"松尾町本水深","town_kana":"マツオマチモトミズフカ","prefecture_code":12},"1503":{"zip_code":"2891503","prefecture":"千葉県","prefecture_kana":"チバケン","city":"山武市","city_kana":"サンムシ","town":"松尾町谷津","town_kana":"マツオマチヤツ","prefecture_code":12},"1501":{"zip_code":"2891501","prefecture":"千葉県","prefecture_kana":"チバケン","city":"山武市","city_kana":"サンムシ","town":"松尾町山室","town_kana":"マツオマチヤマムロ","prefecture_code":12},"1303":{"zip_code":"2891303","prefecture":"千葉県","prefecture_kana":"チバケン","city":"山武市","city_kana":"サンムシ","town":"松ヶ谷","town_kana":"マツガヤ","prefecture_code":12},"1224":{"zip_code":"2891224","prefecture":"千葉県","prefecture_kana":"チバケン","city":"山武市","city_kana":"サンムシ","town":"美杉野","town_kana":"ミスギノ","prefecture_code":12},"1218":{"zip_code":"2891218","prefecture":"千葉県","prefecture_kana":"チバケン","city":"山武市","city_kana":"サンムシ","town":"武勝","town_kana":"ムショウ","prefecture_code":12},"1305":{"zip_code":"2891305","prefecture":"千葉県","prefecture_kana":"チバケン","city":"山武市","city_kana":"サンムシ","town":"本須賀","town_kana":"モトスカ","prefecture_code":12},"1214":{"zip_code":"2891214","prefecture":"千葉県","prefecture_kana":"チバケン","city":"山武市","city_kana":"サンムシ","town":"森","town_kana":"モリ","prefecture_code":12},"1215":{"zip_code":"2891215","prefecture":"千葉県","prefecture_kana":"チバケン","city":"山武市","city_kana":"サンムシ","town":"矢部","town_kana":"ヤベ","prefecture_code":12},"1328":{"zip_code":"2891328","prefecture":"千葉県","prefecture_kana":"チバケン","city":"山武市","city_kana":"サンムシ","town":"湯坂","town_kana":"ユサカ","prefecture_code":12},"1226":{"zip_code":"2891226","prefecture":"千葉県","prefecture_kana":"チバケン","city":"山武市","city_kana":"サンムシ","town":"横田","town_kana":"ヨコタ","prefecture_code":12},"1334":{"zip_code":"2891334","prefecture":"千葉県","prefecture_kana":"チバケン","city":"山武市","city_kana":"サンムシ","town":"和田","town_kana":"ワダ","prefecture_code":12},"0100":{"zip_code":"2890100","prefecture":"千葉県","prefecture_kana":"チバケン","city":"香取郡神崎町","city_kana":"カトリグンコウザキマチ","town":"以下に掲載がない場合","town_kana":"イカニケイサイガナイバアイ","prefecture_code":12},"0205":{"zip_code":"2890205","prefecture":"千葉県","prefecture_kana":"チバケン","city":"香取郡神崎町","city_kana":"カトリグンコウザキマチ","town":"今","town_kana":"イマ","prefecture_code":12},"0216":{"zip_code":"2890216","prefecture":"千葉県","prefecture_kana":"チバケン","city":"香取郡神崎町","city_kana":"カトリグンコウザキマチ","town":"植房","town_kana":"ウエボウ","prefecture_code":12},"0203":{"zip_code":"2890203","prefecture":"千葉県","prefecture_kana":"チバケン","city":"香取郡神崎町","city_kana":"カトリグンコウザキマチ","town":"大貫","town_kana":"オオヌキ","prefecture_code":12},"0214":{"zip_code":"2890214","prefecture":"千葉県","prefecture_kana":"チバケン","city":"香取郡神崎町","city_kana":"カトリグンコウザキマチ","town":"毛成","town_kana":"ケナリ","prefecture_code":12},"0226":{"zip_code":"2890226","prefecture":"千葉県","prefecture_kana":"チバケン","city":"香取郡神崎町","city_kana":"カトリグンコウザキマチ","town":"神崎神宿","town_kana":"コウザキシンシュク","prefecture_code":12},"0221":{"zip_code":"2890221","prefecture":"千葉県","prefecture_kana":"チバケン","city":"香取郡神崎町","city_kana":"カトリグンコウザキマチ","town":"神崎本宿","town_kana":"コウザキホンシュク","prefecture_code":12},"0201":{"zip_code":"2890201","prefecture":"千葉県","prefecture_kana":"チバケン","city":"香取郡神崎町","city_kana":"カトリグンコウザキマチ","town":"高谷","town_kana":"コウヤ","prefecture_code":12},"0202":{"zip_code":"2890202","prefecture":"千葉県","prefecture_kana":"チバケン","city":"香取郡神崎町","city_kana":"カトリグンコウザキマチ","town":"郡","town_kana":"コオリ","prefecture_code":12},"0215":{"zip_code":"2890215","prefecture":"千葉県","prefecture_kana":"チバケン","city":"香取郡神崎町","city_kana":"カトリグンコウザキマチ","town":"古原","town_kana":"コハラ","prefecture_code":12},"0223":{"zip_code":"2890223","prefecture":"千葉県","prefecture_kana":"チバケン","city":"香取郡神崎町","city_kana":"カトリグンコウザキマチ","town":"小松","town_kana":"コマツ","prefecture_code":12},"0204":{"zip_code":"2890204","prefecture":"千葉県","prefecture_kana":"チバケン","city":"香取郡神崎町","city_kana":"カトリグンコウザキマチ","town":"四季の丘","town_kana":"シキノオカ","prefecture_code":12},"0225":{"zip_code":"2890225","prefecture":"千葉県","prefecture_kana":"チバケン","city":"香取郡神崎町","city_kana":"カトリグンコウザキマチ","town":"十三間戸","town_kana":"ジュウサンマド","prefecture_code":12},"0213":{"zip_code":"2890213","prefecture":"千葉県","prefecture_kana":"チバケン","city":"香取郡神崎町","city_kana":"カトリグンコウザキマチ","town":"新","town_kana":"シン","prefecture_code":12},"0212":{"zip_code":"2890212","prefecture":"千葉県","prefecture_kana":"チバケン","city":"香取郡神崎町","city_kana":"カトリグンコウザキマチ","town":"武田","town_kana":"タケダ","prefecture_code":12},"0211":{"zip_code":"2890211","prefecture":"千葉県","prefecture_kana":"チバケン","city":"香取郡神崎町","city_kana":"カトリグンコウザキマチ","town":"立野","town_kana":"タチノ","prefecture_code":12},"0222":{"zip_code":"2890222","prefecture":"千葉県","prefecture_kana":"チバケン","city":"香取郡神崎町","city_kana":"カトリグンコウザキマチ","town":"並木","town_kana":"ナミキ","prefecture_code":12},"0217":{"zip_code":"2890217","prefecture":"千葉県","prefecture_kana":"チバケン","city":"香取郡神崎町","city_kana":"カトリグンコウザキマチ","town":"藤の台","town_kana":"フジノダイ","prefecture_code":12},"0224":{"zip_code":"2890224","prefecture":"千葉県","prefecture_kana":"チバケン","city":"香取郡神崎町","city_kana":"カトリグンコウザキマチ","town":"松崎","town_kana":"マツザキ","prefecture_code":12},"2200":{"zip_code":"2892200","prefecture":"千葉県","prefecture_kana":"チバケン","city":"香取郡多古町","city_kana":"カトリグンタコマチ","town":"以下に掲載がない場合","town_kana":"イカニケイサイガナイバアイ","prefecture_code":12},"2231":{"zip_code":"2892231","prefecture":"千葉県","prefecture_kana":"チバケン","city":"香取郡多古町","city_kana":"カトリグンタコマチ","town":"飯笹","town_kana":"イイザサ","prefecture_code":12},"2301":{"zip_code":"2892301","prefecture":"千葉県","prefecture_kana":"チバケン","city":"香取郡多古町","city_kana":"カトリグンタコマチ","town":"出沼","town_kana":"イデヌマ","prefecture_code":12},"2317":{"zip_code":"2892317","prefecture":"千葉県","prefecture_kana":"チバケン","city":"香取郡多古町","city_kana":"カトリグンタコマチ","town":"井戸山","town_kana":"イドヤマ","prefecture_code":12},"2245":{"zip_code":"2892245","prefecture":"千葉県","prefecture_kana":"チバケン","city":"香取郡多古町","city_kana":"カトリグンタコマチ","town":"牛尾","town_kana":"ウシノオ","prefecture_code":12},"2303":{"zip_code":"2892303","prefecture":"千葉県","prefecture_kana":"チバケン","city":"香取郡多古町","city_kana":"カトリグンタコマチ","town":"大門","town_kana":"オオカド","prefecture_code":12},"2305":{"zip_code":"2892305","prefecture":"千葉県","prefecture_kana":"チバケン","city":"香取郡多古町","city_kana":"カトリグンタコマチ","town":"大高","town_kana":"オオタカ","prefecture_code":12},"2324":{"zip_code":"2892324","prefecture":"千葉県","prefecture_kana":"チバケン","city":"香取郡多古町","city_kana":"カトリグンタコマチ","town":"川島","town_kana":"カワシマ","prefecture_code":12},"2232":{"zip_code":"2892232","prefecture":"千葉県","prefecture_kana":"チバケン","city":"香取郡多古町","city_kana":"カトリグンタコマチ","town":"喜多","town_kana":"キタ","prefecture_code":12},"2251":{"zip_code":"2892251","prefecture":"千葉県","prefecture_kana":"チバケン","city":"香取郡多古町","city_kana":"カトリグンタコマチ","town":"北中","town_kana":"キタナカ","prefecture_code":12},"2315":{"zip_code":"2892315","prefecture":"千葉県","prefecture_kana":"チバケン","city":"香取郡多古町","city_kana":"カトリグンタコマチ","town":"御所台","town_kana":"ゴショダイ","prefecture_code":12},"2234":{"zip_code":"2892234","prefecture":"千葉県","prefecture_kana":"チバケン","city":"香取郡多古町","city_kana":"カトリグンタコマチ","town":"五反田","town_kana":"ゴタンダ","prefecture_code":12},"2322":{"zip_code":"2892322","prefecture":"千葉県","prefecture_kana":"チバケン","city":"香取郡多古町","city_kana":"カトリグンタコマチ","town":"坂","town_kana":"サカ","prefecture_code":12},"2312":{"zip_code":"2892312","prefecture":"千葉県","prefecture_kana":"チバケン","city":"香取郡多古町","city_kana":"カトリグンタコマチ","town":"谷三倉","town_kana":"サクミクラ","prefecture_code":12},"2243":{"zip_code":"2892243","prefecture":"千葉県","prefecture_kana":"チバケン","city":"香取郡多古町","city_kana":"カトリグンタコマチ","town":"島","town_kana":"シマ","prefecture_code":12},"2242":{"zip_code":"2892242","prefecture":"千葉県","prefecture_kana":"チバケン","city":"香取郡多古町","city_kana":"カトリグンタコマチ","town":"染井","town_kana":"ソメイ","prefecture_code":12},"2304":{"zip_code":"2892304","prefecture":"千葉県","prefecture_kana":"チバケン","city":"香取郡多古町","city_kana":"カトリグンタコマチ","town":"高津原","town_kana":"タカツハラ","prefecture_code":12},"2241":{"zip_code":"2892241","prefecture":"千葉県","prefecture_kana":"チバケン","city":"香取郡多古町","city_kana":"カトリグンタコマチ","town":"多古","town_kana":"タコ","prefecture_code":12},"2246":{"zip_code":"2892246","prefecture":"千葉県","prefecture_kana":"チバケン","city":"香取郡多古町","city_kana":"カトリグンタコマチ","town":"千田","town_kana":"チダ","prefecture_code":12},"2313":{"zip_code":"2892313","prefecture":"千葉県","prefecture_kana":"チバケン","city":"香取郡多古町","city_kana":"カトリグンタコマチ","town":"次浦","town_kana":"ツギウラ","prefecture_code":12},"2316":{"zip_code":"2892316","prefecture":"千葉県","prefecture_kana":"チバケン","city":"香取郡多古町","city_kana":"カトリグンタコマチ","town":"寺作","town_kana":"テラサク","prefecture_code":12},"2254":{"zip_code":"2892254","prefecture":"千葉県","prefecture_kana":"チバケン","city":"香取郡多古町","city_kana":"カトリグンタコマチ","town":"東輝","town_kana":"トウキ","prefecture_code":12},"2306":{"zip_code":"2892306","prefecture":"千葉県","prefecture_kana":"チバケン","city":"香取郡多古町","city_kana":"カトリグンタコマチ","town":"十余三","town_kana":"トヨミ","prefecture_code":12},"2256":{"zip_code":"2892256","prefecture":"千葉県","prefecture_kana":"チバケン","city":"香取郡多古町","city_kana":"カトリグンタコマチ","town":"中村新田","town_kana":"ナカムラシンデン","prefecture_code":12},"2314":{"zip_code":"2892314","prefecture":"千葉県","prefecture_kana":"チバケン","city":"香取郡多古町","city_kana":"カトリグンタコマチ","town":"西古内","town_kana":"ニシフルウチ","prefecture_code":12},"2233":{"zip_code":"2892233","prefecture":"千葉県","prefecture_kana":"チバケン","city":"香取郡多古町","city_kana":"カトリグンタコマチ","town":"林","town_kana":"ハヤシ","prefecture_code":12},"2321":{"zip_code":"2892321","prefecture":"千葉県","prefecture_kana":"チバケン","city":"香取郡多古町","city_kana":"カトリグンタコマチ","town":"東松崎","town_kana":"ヒガシマツサキ","prefecture_code":12},"2236":{"zip_code":"2892236","prefecture":"千葉県","prefecture_kana":"チバケン","city":"香取郡多古町","city_kana":"カトリグンタコマチ","town":"一鍬田（その他）","town_kana":"ヒトクワダ(ソノタ)","prefecture_code":12},"2302":{"zip_code":"2892302","prefecture":"千葉県","prefecture_kana":"チバケン","city":"香取郡多古町","city_kana":"カトリグンタコマチ","town":"桧木","town_kana":"ヒノキ","prefecture_code":12},"2244":{"zip_code":"2892244","prefecture":"千葉県","prefecture_kana":"チバケン","city":"香取郡多古町","city_kana":"カトリグンタコマチ","town":"船越","town_kana":"フナコシ","prefecture_code":12},"2323":{"zip_code":"2892323","prefecture":"千葉県","prefecture_kana":"チバケン","city":"香取郡多古町","city_kana":"カトリグンタコマチ","town":"方田","town_kana":"ホウダ","prefecture_code":12},"2235":{"zip_code":"2892235","prefecture":"千葉県","prefecture_kana":"チバケン","city":"香取郡多古町","city_kana":"カトリグンタコマチ","town":"間倉","town_kana":"マグラ","prefecture_code":12},"2247":{"zip_code":"2892247","prefecture":"千葉県","prefecture_kana":"チバケン","city":"香取郡多古町","city_kana":"カトリグンタコマチ","town":"水戸","town_kana":"ミト","prefecture_code":12},"2253":{"zip_code":"2892253","prefecture":"千葉県","prefecture_kana":"チバケン","city":"香取郡多古町","city_kana":"カトリグンタコマチ","town":"南借当","town_kana":"ミナミカリアテ","prefecture_code":12},"2325":{"zip_code":"2892325","prefecture":"千葉県","prefecture_kana":"チバケン","city":"香取郡多古町","city_kana":"カトリグンタコマチ","town":"南玉造","town_kana":"ミナミタマツクリ","prefecture_code":12},"2257":{"zip_code":"2892257","prefecture":"千葉県","prefecture_kana":"チバケン","city":"香取郡多古町","city_kana":"カトリグンタコマチ","town":"南中","town_kana":"ミナミナカ","prefecture_code":12},"2255":{"zip_code":"2892255","prefecture":"千葉県","prefecture_kana":"チバケン","city":"香取郡多古町","city_kana":"カトリグンタコマチ","town":"南並木","town_kana":"ミナミナミキ","prefecture_code":12},"2252":{"zip_code":"2892252","prefecture":"千葉県","prefecture_kana":"チバケン","city":"香取郡多古町","city_kana":"カトリグンタコマチ","town":"南和田","town_kana":"ミナミワダ","prefecture_code":12},"2311":{"zip_code":"2892311","prefecture":"千葉県","prefecture_kana":"チバケン","city":"香取郡多古町","city_kana":"カトリグンタコマチ","town":"本三倉","town_kana":"モトミクラ","prefecture_code":12},"0600":{"zip_code":"2890600","prefecture":"千葉県","prefecture_kana":"チバケン","city":"香取郡東庄町","city_kana":"カトリグントウノショウマチ","town":"以下に掲載がない場合","town_kana":"イカニケイサイガナイバアイ","prefecture_code":12},"0627":{"zip_code":"2890627","prefecture":"千葉県","prefecture_kana":"チバケン","city":"香取郡東庄町","city_kana":"カトリグントウノショウマチ","town":"粟野","town_kana":"アワノ","prefecture_code":12},"0612":{"zip_code":"2890612","prefecture":"千葉県","prefecture_kana":"チバケン","city":"香取郡東庄町","city_kana":"カトリグントウノショウマチ","town":"石出","town_kana":"イシデ","prefecture_code":12},"0619":{"zip_code":"2890619","prefecture":"千葉県","prefecture_kana":"チバケン","city":"香取郡東庄町","city_kana":"カトリグントウノショウマチ","town":"今郡","town_kana":"イマゴオリ","prefecture_code":12},"0633":{"zip_code":"2890633","prefecture":"千葉県","prefecture_kana":"チバケン","city":"香取郡東庄町","city_kana":"カトリグントウノショウマチ","town":"大久保","town_kana":"オオクボ","prefecture_code":12},"0621":{"zip_code":"2890621","prefecture":"千葉県","prefecture_kana":"チバケン","city":"香取郡東庄町","city_kana":"カトリグントウノショウマチ","town":"大友","town_kana":"オオトモ","prefecture_code":12},"0615":{"zip_code":"2890615","prefecture":"千葉県","prefecture_kana":"チバケン","city":"香取郡東庄町","city_kana":"カトリグントウノショウマチ","town":"青馬","town_kana":"オオマ","prefecture_code":12},"0622":{"zip_code":"2890622","prefecture":"千葉県","prefecture_kana":"チバケン","city":"香取郡東庄町","city_kana":"カトリグントウノショウマチ","town":"小座","town_kana":"オザ","prefecture_code":12},"0635":{"zip_code":"2890635","prefecture":"千葉県","prefecture_kana":"チバケン","city":"香取郡東庄町","city_kana":"カトリグントウノショウマチ","town":"神田","town_kana":"カンダ","prefecture_code":12},"0632":{"zip_code":"2890632","prefecture":"千葉県","prefecture_kana":"チバケン","city":"香取郡東庄町","city_kana":"カトリグントウノショウマチ","town":"窪野谷","town_kana":"クボノヤ","prefecture_code":12},"0637":{"zip_code":"2890637","prefecture":"千葉県","prefecture_kana":"チバケン","city":"香取郡東庄町","city_kana":"カトリグントウノショウマチ","town":"小貝野","town_kana":"コガイノ","prefecture_code":12},"0624":{"zip_code":"2890624","prefecture":"千葉県","prefecture_kana":"チバケン","city":"香取郡東庄町","city_kana":"カトリグントウノショウマチ","town":"小南","town_kana":"コミナミ","prefecture_code":12},"0601":{"zip_code":"2890601","prefecture":"千葉県","prefecture_kana":"チバケン","city":"香取郡東庄町","city_kana":"カトリグントウノショウマチ","town":"笹川い","town_kana":"ササガワイ","prefecture_code":12},"0602":{"zip_code":"2890602","prefecture":"千葉県","prefecture_kana":"チバケン","city":"香取郡東庄町","city_kana":"カトリグントウノショウマチ","town":"笹川ろ","town_kana":"ササガワロ","prefecture_code":12},"0616":{"zip_code":"2890616","prefecture":"千葉県","prefecture_kana":"チバケン","city":"香取郡東庄町","city_kana":"カトリグントウノショウマチ","town":"高部","town_kana":"タカベ","prefecture_code":12},"0636":{"zip_code":"2890636","prefecture":"千葉県","prefecture_kana":"チバケン","city":"香取郡東庄町","city_kana":"カトリグントウノショウマチ","town":"東和田","town_kana":"トウワダ","prefecture_code":12},"0625":{"zip_code":"2890625","prefecture":"千葉県","prefecture_kana":"チバケン","city":"香取郡東庄町","city_kana":"カトリグントウノショウマチ","town":"夏目","town_kana":"ナツメ","prefecture_code":12},"0611":{"zip_code":"2890611","prefecture":"千葉県","prefecture_kana":"チバケン","city":"香取郡東庄町","city_kana":"カトリグントウノショウマチ","town":"新宿","town_kana":"ニイジュク","prefecture_code":12},"0617":{"zip_code":"2890617","prefecture":"千葉県","prefecture_kana":"チバケン","city":"香取郡東庄町","city_kana":"カトリグントウノショウマチ","town":"羽計","town_kana":"ハバカリ","prefecture_code":12},"0613":{"zip_code":"2890613","prefecture":"千葉県","prefecture_kana":"チバケン","city":"香取郡東庄町","city_kana":"カトリグントウノショウマチ","town":"東今泉","town_kana":"ヒガシイマイズミ","prefecture_code":12},"0631":{"zip_code":"2890631","prefecture":"千葉県","prefecture_kana":"チバケン","city":"香取郡東庄町","city_kana":"カトリグントウノショウマチ","town":"平山","town_kana":"ヒラヤマ","prefecture_code":12},"0634":{"zip_code":"2890634","prefecture":"千葉県","prefecture_kana":"チバケン","city":"香取郡東庄町","city_kana":"カトリグントウノショウマチ","town":"舟戸","town_kana":"フナド","prefecture_code":12},"0623":{"zip_code":"2890623","prefecture":"千葉県","prefecture_kana":"チバケン","city":"香取郡東庄町","city_kana":"カトリグントウノショウマチ","town":"宮野台","town_kana":"ミヤノダイ","prefecture_code":12},"0614":{"zip_code":"2890614","prefecture":"千葉県","prefecture_kana":"チバケン","city":"香取郡東庄町","city_kana":"カトリグントウノショウマチ","town":"宮本","town_kana":"ミヤモト","prefecture_code":12},"0626":{"zip_code":"2890626","prefecture":"千葉県","prefecture_kana":"チバケン","city":"香取郡東庄町","city_kana":"カトリグントウノショウマチ","town":"八重穂","town_kana":"ヤエボ","prefecture_code":12},"0618":{"zip_code":"2890618","prefecture":"千葉県","prefecture_kana":"チバケン","city":"香取郡東庄町","city_kana":"カトリグントウノショウマチ","town":"谷津","town_kana":"ヤヅ","prefecture_code":12},"1600":{"zip_code":"2891600","prefecture":"千葉県","prefecture_kana":"チバケン","city":"山武郡芝山町","city_kana":"サンブグンシバヤママチ","town":"以下に掲載がない場合","town_kana":"イカニケイサイガナイバアイ","prefecture_code":12},"1607":{"zip_code":"2891607","prefecture":"千葉県","prefecture_kana":"チバケン","city":"山武郡芝山町","city_kana":"サンブグンシバヤママチ","town":"朝倉","town_kana":"アサクラ","prefecture_code":12},"1604":{"zip_code":"2891604","prefecture":"千葉県","prefecture_kana":"チバケン","city":"山武郡芝山町","city_kana":"サンブグンシバヤママチ","town":"飯櫃","town_kana":"イビツ","prefecture_code":12},"1608":{"zip_code":"2891608","prefecture":"千葉県","prefecture_kana":"チバケン","city":"山武郡芝山町","city_kana":"サンブグンシバヤママチ","town":"岩山（その他）","town_kana":"イワヤマ(ソノタ)","prefecture_code":12},"1603":{"zip_code":"2891603","prefecture":"千葉県","prefecture_kana":"チバケン","city":"山武郡芝山町","city_kana":"サンブグンシバヤママチ","town":"大里（その他）","town_kana":"オオサト(ソノタ)","prefecture_code":12},"1605":{"zip_code":"2891605","prefecture":"千葉県","prefecture_kana":"チバケン","city":"山武郡芝山町","city_kana":"サンブグンシバヤママチ","town":"大台","town_kana":"オオダイ","prefecture_code":12},"1611":{"zip_code":"2891611","prefecture":"千葉県","prefecture_kana":"チバケン","city":"山武郡芝山町","city_kana":"サンブグンシバヤママチ","town":"小原子","town_kana":"オバラク","prefecture_code":12},"1612":{"zip_code":"2891612","prefecture":"千葉県","prefecture_kana":"チバケン","city":"山武郡芝山町","city_kana":"サンブグンシバヤママチ","town":"上吹入","town_kana":"カミフキイレ","prefecture_code":12},"1601":{"zip_code":"2891601","prefecture":"千葉県","prefecture_kana":"チバケン","city":"山武郡芝山町","city_kana":"サンブグンシバヤママチ","town":"香山新田（その他）","town_kana":"カヤマシンデン(ソノタ)","prefecture_code":12},"1624":{"zip_code":"2891624","prefecture":"千葉県","prefecture_kana":"チバケン","city":"山武郡芝山町","city_kana":"サンブグンシバヤママチ","town":"小池","town_kana":"コイケ","prefecture_code":12},"1615":{"zip_code":"2891615","prefecture":"千葉県","prefecture_kana":"チバケン","city":"山武郡芝山町","city_kana":"サンブグンシバヤママチ","town":"境","town_kana":"サカイ","prefecture_code":12},"1619":{"zip_code":"2891619","prefecture":"千葉県","prefecture_kana":"チバケン","city":"山武郡芝山町","city_kana":"サンブグンシバヤママチ","town":"芝山","town_kana":"シバヤマ","prefecture_code":12},"1613":{"zip_code":"2891613","prefecture":"千葉県","prefecture_kana":"チバケン","city":"山武郡芝山町","city_kana":"サンブグンシバヤママチ","town":"下吹入","town_kana":"シモフキイレ","prefecture_code":12},"1623":{"zip_code":"2891623","prefecture":"千葉県","prefecture_kana":"チバケン","city":"山武郡芝山町","city_kana":"サンブグンシバヤママチ","town":"高田","town_kana":"タカダ","prefecture_code":12},"1616":{"zip_code":"2891616","prefecture":"千葉県","prefecture_kana":"チバケン","city":"山武郡芝山町","city_kana":"サンブグンシバヤママチ","town":"高谷","town_kana":"タカヤ","prefecture_code":12},"1617":{"zip_code":"2891617","prefecture":"千葉県","prefecture_kana":"チバケン","city":"山武郡芝山町","city_kana":"サンブグンシバヤママチ","town":"殿部田","town_kana":"トノベタ","prefecture_code":12},"1625":{"zip_code":"2891625","prefecture":"千葉県","prefecture_kana":"チバケン","city":"山武郡芝山町","city_kana":"サンブグンシバヤママチ","town":"新井田","town_kana":"ニイダ","prefecture_code":12},"1626":{"zip_code":"2891626","prefecture":"千葉県","prefecture_kana":"チバケン","city":"山武郡芝山町","city_kana":"サンブグンシバヤママチ","town":"新井田新田","town_kana":"ニイダシンデン","prefecture_code":12},"1602":{"zip_code":"2891602","prefecture":"千葉県","prefecture_kana":"チバケン","city":"山武郡芝山町","city_kana":"サンブグンシバヤママチ","town":"菱田（その他）","town_kana":"ヒシダ(ソノタ)","prefecture_code":12},"1622":{"zip_code":"2891622","prefecture":"千葉県","prefecture_kana":"チバケン","city":"山武郡芝山町","city_kana":"サンブグンシバヤママチ","town":"宝馬","town_kana":"ホウマ","prefecture_code":12},"1621":{"zip_code":"2891621","prefecture":"千葉県","prefecture_kana":"チバケン","city":"山武郡芝山町","city_kana":"サンブグンシバヤママチ","town":"牧野","town_kana":"マキノ","prefecture_code":12},"1614":{"zip_code":"2891614","prefecture":"千葉県","prefecture_kana":"チバケン","city":"山武郡芝山町","city_kana":"サンブグンシバヤママチ","town":"宮崎","town_kana":"ミヤザキ","prefecture_code":12},"1606":{"zip_code":"2891606","prefecture":"千葉県","prefecture_kana":"チバケン","city":"山武郡芝山町","city_kana":"サンブグンシバヤママチ","town":"山田","town_kana":"ヤマダ","prefecture_code":12},"1618":{"zip_code":"2891618","prefecture":"千葉県","prefecture_kana":"チバケン","city":"山武郡芝山町","city_kana":"サンブグンシバヤママチ","town":"山中","town_kana":"ヤマナカ","prefecture_code":12},"1700":{"zip_code":"2891700","prefecture":"千葉県","prefecture_kana":"チバケン","city":"山武郡横芝光町","city_kana":"サンブグンヨコシバヒカリマチ","town":"以下に掲載がない場合","town_kana":"イカニケイサイガナイバアイ","prefecture_code":12},"1707":{"zip_code":"2891707","prefecture":"千葉県","prefecture_kana":"チバケン","city":"山武郡横芝光町","city_kana":"サンブグンヨコシバヒカリマチ","town":"新井","town_kana":"アライ","prefecture_code":12},"1706":{"zip_code":"2891706","prefecture":"千葉県","prefecture_kana":"チバケン","city":"山武郡横芝光町","city_kana":"サンブグンヨコシバヒカリマチ","town":"市野原","town_kana":"イチノハラ","prefecture_code":12},"1742":{"zip_code":"2891742","prefecture":"千葉県","prefecture_kana":"チバケン","city":"山武郡横芝光町","city_kana":"サンブグンヨコシバヒカリマチ","town":"牛熊","town_kana":"ウシクマ","prefecture_code":12},"1752":{"zip_code":"2891752","prefecture":"千葉県","prefecture_kana":"チバケン","city":"山武郡横芝光町","city_kana":"サンブグンヨコシバヒカリマチ","town":"姥山","town_kana":"ウバヤマ","prefecture_code":12},"1711":{"zip_code":"2891711","prefecture":"千葉県","prefecture_kana":"チバケン","city":"山武郡横芝光町","city_kana":"サンブグンヨコシバヒカリマチ","town":"小川台","town_kana":"オガワダイ","prefecture_code":12},"1748":{"zip_code":"2891748","prefecture":"千葉県","prefecture_kana":"チバケン","city":"山武郡横芝光町","city_kana":"サンブグンヨコシバヒカリマチ","town":"於幾","town_kana":"オキ","prefecture_code":12},"1725":{"zip_code":"2891725","prefecture":"千葉県","prefecture_kana":"チバケン","city":"山武郡横芝光町","city_kana":"サンブグンヨコシバヒカリマチ","town":"尾垂","town_kana":"オダレ","prefecture_code":12},"1745":{"zip_code":"2891745","prefecture":"千葉県","prefecture_kana":"チバケン","city":"山武郡横芝光町","city_kana":"サンブグンヨコシバヒカリマチ","town":"小堤","town_kana":"オンヅミ","prefecture_code":12},"1723":{"zip_code":"2891723","prefecture":"千葉県","prefecture_kana":"チバケン","city":"山武郡横芝光町","city_kana":"サンブグンヨコシバヒカリマチ","town":"上原","town_kana":"カンバラ","prefecture_code":12},"1734":{"zip_code":"2891734","prefecture":"千葉県","prefecture_kana":"チバケン","city":"山武郡横芝光町","city_kana":"サンブグンヨコシバヒカリマチ","town":"北清水","town_kana":"キタシミズ","prefecture_code":12},"1726":{"zip_code":"2891726","prefecture":"千葉県","prefecture_kana":"チバケン","city":"山武郡横芝光町","city_kana":"サンブグンヨコシバヒカリマチ","town":"木戸","town_kana":"キド","prefecture_code":12},"1744":{"zip_code":"2891744","prefecture":"千葉県","prefecture_kana":"チバケン","city":"山武郡横芝光町","city_kana":"サンブグンヨコシバヒカリマチ","town":"木戸台","town_kana":"キドダイ","prefecture_code":12},"1733":{"zip_code":"2891733","prefecture":"千葉県","prefecture_kana":"チバケン","city":"山武郡横芝光町","city_kana":"サンブグンヨコシバヒカリマチ","town":"栗山","town_kana":"クリヤマ","prefecture_code":12},"1731":{"zip_code":"2891731","prefecture":"千葉県","prefecture_kana":"チバケン","city":"山武郡横芝光町","city_kana":"サンブグンヨコシバヒカリマチ","town":"古川","town_kana":"コカワ","prefecture_code":12},"1713":{"zip_code":"2891713","prefecture":"千葉県","prefecture_kana":"チバケン","city":"山武郡横芝光町","city_kana":"サンブグンヨコシバヒカリマチ","town":"小田部","town_kana":"コタベ","prefecture_code":12},"1754":{"zip_code":"2891754","prefecture":"千葉県","prefecture_kana":"チバケン","city":"山武郡横芝光町","city_kana":"サンブグンヨコシバヒカリマチ","town":"坂田","town_kana":"サカタ","prefecture_code":12},"1755":{"zip_code":"2891755","prefecture":"千葉県","prefecture_kana":"チバケン","city":"山武郡横芝光町","city_kana":"サンブグンヨコシバヒカリマチ","town":"坂田池","town_kana":"サカタイケ","prefecture_code":12},"1701":{"zip_code":"2891701","prefecture":"千葉県","prefecture_kana":"チバケン","city":"山武郡横芝光町","city_kana":"サンブグンヨコシバヒカリマチ","town":"篠本","town_kana":"ササモト","prefecture_code":12},"1708":{"zip_code":"2891708","prefecture":"千葉県","prefecture_kana":"チバケン","city":"山武郡横芝光町","city_kana":"サンブグンヨコシバヒカリマチ","town":"篠本根切","town_kana":"ササモトネギリ","prefecture_code":12},"1715":{"zip_code":"2891715","prefecture":"千葉県","prefecture_kana":"チバケン","city":"山武郡横芝光町","city_kana":"サンブグンヨコシバヒカリマチ","town":"芝崎","town_kana":"シバサキ","prefecture_code":12},"1716":{"zip_code":"2891716","prefecture":"千葉県","prefecture_kana":"チバケン","city":"山武郡横芝光町","city_kana":"サンブグンヨコシバヒカリマチ","town":"芝崎南","town_kana":"シバサキミナミ","prefecture_code":12},"1747":{"zip_code":"2891747","prefecture":"千葉県","prefecture_kana":"チバケン","city":"山武郡横芝光町","city_kana":"サンブグンヨコシバヒカリマチ","town":"曽根合","town_kana":"ソネアイ","prefecture_code":12},"1712":{"zip_code":"2891712","prefecture":"千葉県","prefecture_kana":"チバケン","city":"山武郡横芝光町","city_kana":"サンブグンヨコシバヒカリマチ","town":"台","town_kana":"ダイ","prefecture_code":12},"1746":{"zip_code":"2891746","prefecture":"千葉県","prefecture_kana":"チバケン","city":"山武郡横芝光町","city_kana":"サンブグンヨコシバヒカリマチ","town":"寺方","town_kana":"テラカタ","prefecture_code":12},"1757":{"zip_code":"2891757","prefecture":"千葉県","prefecture_kana":"チバケン","city":"山武郡横芝光町","city_kana":"サンブグンヨコシバヒカリマチ","town":"遠山","town_kana":"トオヤマ","prefecture_code":12},"1704":{"zip_code":"2891704","prefecture":"千葉県","prefecture_kana":"チバケン","city":"山武郡横芝光町","city_kana":"サンブグンヨコシバヒカリマチ","town":"富下","town_kana":"トミシタ","prefecture_code":12},"1753":{"zip_code":"2891753","prefecture":"千葉県","prefecture_kana":"チバケン","city":"山武郡横芝光町","city_kana":"サンブグンヨコシバヒカリマチ","town":"取立","town_kana":"トリタテ","prefecture_code":12},"1738":{"zip_code":"2891738","prefecture":"千葉県","prefecture_kana":"チバケン","city":"山武郡横芝光町","city_kana":"サンブグンヨコシバヒカリマチ","town":"鳥喰上","town_kana":"トリハミカミ","prefecture_code":12},"1737":{"zip_code":"2891737","prefecture":"千葉県","prefecture_kana":"チバケン","city":"山武郡横芝光町","city_kana":"サンブグンヨコシバヒカリマチ","town":"鳥喰下","town_kana":"トリハミシモ","prefecture_code":12},"1739":{"zip_code":"2891739","prefecture":"千葉県","prefecture_kana":"チバケン","city":"山武郡横芝光町","city_kana":"サンブグンヨコシバヒカリマチ","town":"鳥喰新田","town_kana":"トリハミシンデン","prefecture_code":12},"1756":{"zip_code":"2891756","prefecture":"千葉県","prefecture_kana":"チバケン","city":"山武郡横芝光町","city_kana":"サンブグンヨコシバヒカリマチ","town":"長倉","town_kana":"ナガクラ","prefecture_code":12},"1741":{"zip_code":"2891741","prefecture":"千葉県","prefecture_kana":"チバケン","city":"山武郡横芝光町","city_kana":"サンブグンヨコシバヒカリマチ","town":"中台","town_kana":"ナカダイ","prefecture_code":12},"1751":{"zip_code":"2891751","prefecture":"千葉県","prefecture_kana":"チバケン","city":"山武郡横芝光町","city_kana":"サンブグンヨコシバヒカリマチ","town":"長山台","town_kana":"ナガヤマダイ","prefecture_code":12},"1736":{"zip_code":"2891736","prefecture":"千葉県","prefecture_kana":"チバケン","city":"山武郡横芝光町","city_kana":"サンブグンヨコシバヒカリマチ","town":"新島","town_kana":"ニイジマ","prefecture_code":12},"1714":{"zip_code":"2891714","prefecture":"千葉県","prefecture_kana":"チバケン","city":"山武郡横芝光町","city_kana":"サンブグンヨコシバヒカリマチ","town":"母子","town_kana":"ハハコ","prefecture_code":12},"1724":{"zip_code":"2891724","prefecture":"千葉県","prefecture_kana":"チバケン","city":"山武郡横芝光町","city_kana":"サンブグンヨコシバヒカリマチ","town":"原方","town_kana":"ハラカタ","prefecture_code":12},"1702":{"zip_code":"2891702","prefecture":"千葉県","prefecture_kana":"チバケン","city":"山武郡横芝光町","city_kana":"サンブグンヨコシバヒカリマチ","town":"二又","town_kana":"フタマタ","prefecture_code":12},"1703":{"zip_code":"2891703","prefecture":"千葉県","prefecture_kana":"チバケン","city":"山武郡横芝光町","city_kana":"サンブグンヨコシバヒカリマチ","town":"傍示戸","town_kana":"ホウジド","prefecture_code":12},"1705":{"zip_code":"2891705","prefecture":"千葉県","prefecture_kana":"チバケン","city":"山武郡横芝光町","city_kana":"サンブグンヨコシバヒカリマチ","town":"宝米","town_kana":"ホウメ","prefecture_code":12},"1727":{"zip_code":"2891727","prefecture":"千葉県","prefecture_kana":"チバケン","city":"山武郡横芝光町","city_kana":"サンブグンヨコシバヒカリマチ","town":"宮川","town_kana":"ミヤガワ","prefecture_code":12},"1717":{"zip_code":"2891717","prefecture":"千葉県","prefecture_kana":"チバケン","city":"山武郡横芝光町","city_kana":"サンブグンヨコシバヒカリマチ","town":"虫生","town_kana":"ムショウ","prefecture_code":12},"1722":{"zip_code":"2891722","prefecture":"千葉県","prefecture_kana":"チバケン","city":"山武郡横芝光町","city_kana":"サンブグンヨコシバヒカリマチ","town":"目篠","town_kana":"メジノ","prefecture_code":12},"1735":{"zip_code":"2891735","prefecture":"千葉県","prefecture_kana":"チバケン","city":"山武郡横芝光町","city_kana":"サンブグンヨコシバヒカリマチ","town":"屋形","town_kana":"ヤカタ","prefecture_code":12},"1743":{"zip_code":"2891743","prefecture":"千葉県","prefecture_kana":"チバケン","city":"山武郡横芝光町","city_kana":"サンブグンヨコシバヒカリマチ","town":"谷台","town_kana":"ヤツダイ","prefecture_code":12},"1721":{"zip_code":"2891721","prefecture":"千葉県","prefecture_kana":"チバケン","city":"山武郡横芝光町","city_kana":"サンブグンヨコシバヒカリマチ","town":"谷中","town_kana":"ヤナカ","prefecture_code":12},"1732":{"zip_code":"2891732","prefecture":"千葉県","prefecture_kana":"チバケン","city":"山武郡横芝光町","city_kana":"サンブグンヨコシバヒカリマチ","town":"横芝","town_kana":"ヨコシバ","prefecture_code":12},"1749":{"zip_code":"2891749","prefecture":"千葉県","prefecture_kana":"チバケン","city":"山武郡横芝光町","city_kana":"サンブグンヨコシバヒカリマチ","town":"両国新田","town_kana":"リョウゴクシンデン","prefecture_code":12}}