{"0000":{"zip_code":"2900000","prefecture":"千葉県","prefecture_kana":"チバケン","city":"市原市","city_kana":"イチハラシ","town":"以下に掲載がない場合","town_kana":"イカニケイサイガナイバアイ","prefecture_code":12},"0252":{"zip_code":"2900252","prefecture":"千葉県","prefecture_kana":"チバケン","city":"市原市","city_kana":"イチハラシ","town":"相川","town_kana":"アイカワ","prefecture_code":12},"0509":{"zip_code":"2900509","prefecture":"千葉県","prefecture_kana":"チバケン","city":"市原市","city_kana":"イチハラシ","town":"安久谷","town_kana":"アクヤ","prefecture_code":12},"0251":{"zip_code":"2900251","prefecture":"千葉県","prefecture_kana":"チバケン","city":"市原市","city_kana":"イチハラシ","town":"浅井小向","town_kana":"アサイコムカイ","prefecture_code":12},"0063":{"zip_code":"2900063","prefecture":"千葉県","prefecture_kana":"チバケン","city":"市原市","city_kana":"イチハラシ","town":"旭五所","town_kana":"アサヒゴショ","prefecture_code":12},"0253":{"zip_code":"2900253","prefecture":"千葉県","prefecture_kana":"チバケン","city":"市原市","city_kana":"イチハラシ","town":"安須","town_kana":"アズ","prefecture_code":12},"0535":{"zip_code":"2900535","prefecture":"千葉県","prefecture_kana":"チバケン","city":"市原市","city_kana":"イチハラシ","town":"朝生原","town_kana":"アソウバラ","prefecture_code":12},"0207":{"zip_code":"2900207","prefecture":"千葉県","prefecture_kana":"チバケン","city":"市原市","city_kana":"イチハラシ","town":"海士有木","town_kana":"アマアリキ","prefecture_code":12},"0522":{"zip_code":"2900522","prefecture":"千葉県","prefecture_kana":"チバケン","city":"市原市","city_kana":"イチハラシ","town":"新井","town_kana":"アライ","prefecture_code":12},"0257":{"zip_code":"2900257","prefecture":"千葉県","prefecture_kana":"チバケン","city":"市原市","city_kana":"イチハラシ","town":"新生","town_kana":"アラオイ","prefecture_code":12},"0212":{"zip_code":"2900212","prefecture":"千葉県","prefecture_kana":"チバケン","city":"市原市","city_kana":"イチハラシ","town":"新巻","town_kana":"アラマキ","prefecture_code":12},"0037":{"zip_code":"2900037","prefecture":"千葉県","prefecture_kana":"チバケン","city":"市原市","city_kana":"イチハラシ","town":"飯沼","town_kana":"イイヌマ","prefecture_code":12},"0516":{"zip_code":"2900516","prefecture":"千葉県","prefecture_kana":"チバケン","city":"市原市","city_kana":"イチハラシ","town":"池和田","town_kana":"イケワダ","prefecture_code":12},"0511":{"zip_code":"2900511","prefecture":"千葉県","prefecture_kana":"チバケン","city":"市原市","city_kana":"イチハラシ","town":"石川","town_kana":"イシカワ","prefecture_code":12},"0534":{"zip_code":"2900534","prefecture":"千葉県","prefecture_kana":"チバケン","city":"市原市","city_kana":"イチハラシ","town":"石神","town_kana":"イシガミ","prefecture_code":12},"0537":{"zip_code":"2900537","prefecture":"千葉県","prefecture_kana":"チバケン","city":"市原市","city_kana":"イチハラシ","town":"石塚","town_kana":"イシヅカ","prefecture_code":12},"0204":{"zip_code":"2900204","prefecture":"千葉県","prefecture_kana":"チバケン","city":"市原市","city_kana":"イチハラシ","town":"磯ケ谷","town_kana":"イソガヤ","prefecture_code":12},"0543":{"zip_code":"2900543","prefecture":"千葉県","prefecture_kana":"チバケン","city":"市原市","city_kana":"イチハラシ","town":"飯給","town_kana":"イタブ","prefecture_code":12},"0015":{"zip_code":"2900015","prefecture":"千葉県","prefecture_kana":"チバケン","city":"市原市","city_kana":"イチハラシ","town":"市原","town_kana":"イチハラ","prefecture_code":12},"0505":{"zip_code":"2900505","prefecture":"千葉県","prefecture_kana":"チバケン","city":"市原市","city_kana":"イチハラシ","town":"市場","town_kana":"イチバ","prefecture_code":12},"0262":{"zip_code":"2900262","prefecture":"千葉県","prefecture_kana":"チバケン","city":"市原市","city_kana":"イチハラシ","town":"糸久","town_kana":"イトヒサ","prefecture_code":12},"0166":{"zip_code":"2900166","prefecture":"千葉県","prefecture_kana":"チバケン","city":"市原市","city_kana":"イチハラシ","town":"犬成","town_kana":"イヌナリ","prefecture_code":12},"0265":{"zip_code":"2900265","prefecture":"千葉県","prefecture_kana":"チバケン","city":"市原市","city_kana":"イチハラシ","town":"今富","town_kana":"イマドミ","prefecture_code":12},"0228":{"zip_code":"2900228","prefecture":"千葉県","prefecture_kana":"チバケン","city":"市原市","city_kana":"イチハラシ","town":"岩","town_kana":"イワ","prefecture_code":12},"0047":{"zip_code":"2900047","prefecture":"千葉県","prefecture_kana":"チバケン","city":"市原市","city_kana":"イチハラシ","town":"岩崎","town_kana":"イワサキ","prefecture_code":12},"0046":{"zip_code":"2900046","prefecture":"千葉県","prefecture_kana":"チバケン","city":"市原市","city_kana":"イチハラシ","town":"岩崎西","town_kana":"イワサキニシ","prefecture_code":12},"0052":{"zip_code":"2900052","prefecture":"千葉県","prefecture_kana":"チバケン","city":"市原市","city_kana":"イチハラシ","town":"岩野見","town_kana":"イワノミ","prefecture_code":12},"0222":{"zip_code":"2900222","prefecture":"千葉県","prefecture_kana":"チバケン","city":"市原市","city_kana":"イチハラシ","town":"上原","town_kana":"ウエハラ","prefecture_code":12},"0225":{"zip_code":"2900225","prefecture":"千葉県","prefecture_kana":"チバケン","city":"市原市","city_kana":"イチハラシ","town":"牛久","town_kana":"ウシク","prefecture_code":12},"0221":{"zip_code":"2900221","prefecture":"千葉県","prefecture_kana":"チバケン","city":"市原市","city_kana":"イチハラシ","town":"馬立","town_kana":"ウマタテ","prefecture_code":12},"0171":{"zip_code":"2900171","prefecture":"千葉県","prefecture_kana":"チバケン","city":"市原市","city_kana":"イチハラシ","town":"潤井戸","town_kana":"ウルイド","prefecture_code":12},"0170":{"zip_code":"2900170","prefecture":"千葉県","prefecture_kana":"チバケン","city":"市原市","city_kana":"イチハラシ","town":"うるいど南","town_kana":"ウルイドミナミ","prefecture_code":12},"0508":{"zip_code":"2900508","prefecture":"千葉県","prefecture_kana":"チバケン","city":"市原市","city_kana":"イチハラシ","town":"江子田","town_kana":"エゴダ","prefecture_code":12},"0211":{"zip_code":"2900211","prefecture":"千葉県","prefecture_kana":"チバケン","city":"市原市","city_kana":"イチハラシ","town":"大桶","town_kana":"オオオケ","prefecture_code":12},"0532":{"zip_code":"2900532","prefecture":"千葉県","prefecture_kana":"チバケン","city":"市原市","city_kana":"イチハラシ","town":"大久保","town_kana":"オオクボ","prefecture_code":12},"0234":{"zip_code":"2900234","prefecture":"千葉県","prefecture_kana":"チバケン","city":"市原市","city_kana":"イチハラシ","town":"大蔵","town_kana":"オオクラ","prefecture_code":12},"0172":{"zip_code":"2900172","prefecture":"千葉県","prefecture_kana":"チバケン","city":"市原市","city_kana":"イチハラシ","town":"大作","town_kana":"オオサク","prefecture_code":12},"0208":{"zip_code":"2900208","prefecture":"千葉県","prefecture_kana":"チバケン","city":"市原市","city_kana":"イチハラシ","town":"大坪","town_kana":"オオツボ","prefecture_code":12},"0542":{"zip_code":"2900542","prefecture":"千葉県","prefecture_kana":"チバケン","city":"市原市","city_kana":"イチハラシ","town":"大戸","town_kana":"オオト","prefecture_code":12},"0002":{"zip_code":"2900002","prefecture":"千葉県","prefecture_kana":"チバケン","city":"市原市","city_kana":"イチハラシ","town":"大厩","town_kana":"オオマヤ","prefecture_code":12},"0553":{"zip_code":"2900553","prefecture":"千葉県","prefecture_kana":"チバケン","city":"市原市","city_kana":"イチハラシ","town":"大和田","town_kana":"オオワダ","prefecture_code":12},"0177":{"zip_code":"2900177","prefecture":"千葉県","prefecture_kana":"チバケン","city":"市原市","city_kana":"イチハラシ","town":"荻作","town_kana":"オギサク","prefecture_code":12},"0513":{"zip_code":"2900513","prefecture":"千葉県","prefecture_kana":"チバケン","city":"市原市","city_kana":"イチハラシ","town":"奥野","town_kana":"オクノ","prefecture_code":12},"0157":{"zip_code":"2900157","prefecture":"千葉県","prefecture_kana":"チバケン","city":"市原市","city_kana":"イチハラシ","town":"押沼","town_kana":"オシヌマ","prefecture_code":12},"0176":{"zip_code":"2900176","prefecture":"千葉県","prefecture_kana":"チバケン","city":"市原市","city_kana":"イチハラシ","town":"小田部","town_kana":"オダツペ","prefecture_code":12},"0533":{"zip_code":"2900533","prefecture":"千葉県","prefecture_kana":"チバケン","city":"市原市","city_kana":"イチハラシ","town":"折津","town_kana":"オリヅ","prefecture_code":12},"0266":{"zip_code":"2900266","prefecture":"千葉県","prefecture_kana":"チバケン","city":"市原市","city_kana":"イチハラシ","town":"海保","town_kana":"カイホ","prefecture_code":12},"0548":{"zip_code":"2900548","prefecture":"千葉県","prefecture_kana":"チバケン","city":"市原市","city_kana":"イチハラシ","town":"柿木台","town_kana":"カキノキダイ","prefecture_code":12},"0241":{"zip_code":"2900241","prefecture":"千葉県","prefecture_kana":"チバケン","city":"市原市","city_kana":"イチハラシ","town":"風戸","town_kana":"カザト","prefecture_code":12},"0258":{"zip_code":"2900258","prefecture":"千葉県","prefecture_kana":"チバケン","city":"市原市","city_kana":"イチハラシ","town":"神代","town_kana":"カジロ","prefecture_code":12},"0174":{"zip_code":"2900174","prefecture":"千葉県","prefecture_kana":"チバケン","city":"市原市","city_kana":"イチハラシ","town":"勝間","town_kana":"カツマ","prefecture_code":12},"0233":{"zip_code":"2900233","prefecture":"千葉県","prefecture_kana":"チバケン","city":"市原市","city_kana":"イチハラシ","town":"金沢","town_kana":"カネサワ","prefecture_code":12},"0243":{"zip_code":"2900243","prefecture":"千葉県","prefecture_kana":"チバケン","city":"市原市","city_kana":"イチハラシ","town":"上高根","town_kana":"カミタカネ","prefecture_code":12},"0025":{"zip_code":"2900025","prefecture":"千葉県","prefecture_kana":"チバケン","city":"市原市","city_kana":"イチハラシ","town":"加茂","town_kana":"カモ","prefecture_code":12},"0235":{"zip_code":"2900235","prefecture":"千葉県","prefecture_kana":"チバケン","city":"市原市","city_kana":"イチハラシ","town":"栢橋","town_kana":"カヤハシ","prefecture_code":12},"0213":{"zip_code":"2900213","prefecture":"千葉県","prefecture_kana":"チバケン","city":"市原市","city_kana":"イチハラシ","town":"川在","town_kana":"カワザイ","prefecture_code":12},"0178":{"zip_code":"2900178","prefecture":"千葉県","prefecture_kana":"チバケン","city":"市原市","city_kana":"イチハラシ","town":"神崎","town_kana":"カンザキ","prefecture_code":12},"0007":{"zip_code":"2900007","prefecture":"千葉県","prefecture_kana":"チバケン","city":"市原市","city_kana":"イチハラシ","town":"菊間","town_kana":"キクマ","prefecture_code":12},"0167":{"zip_code":"2900167","prefecture":"千葉県","prefecture_kana":"チバケン","city":"市原市","city_kana":"イチハラシ","town":"喜多","town_kana":"キタ","prefecture_code":12},"0071":{"zip_code":"2900071","prefecture":"千葉県","prefecture_kana":"チバケン","city":"市原市","city_kana":"イチハラシ","town":"北国分寺台","town_kana":"キタコクブンジダイ","prefecture_code":12},"0523":{"zip_code":"2900523","prefecture":"千葉県","prefecture_kana":"チバケン","city":"市原市","city_kana":"イチハラシ","town":"吉沢","town_kana":"キチサワ","prefecture_code":12},"0051":{"zip_code":"2900051","prefecture":"千葉県","prefecture_kana":"チバケン","city":"市原市","city_kana":"イチハラシ","town":"君塚","town_kana":"キミヅカ","prefecture_code":12},"0179":{"zip_code":"2900179","prefecture":"千葉県","prefecture_kana":"チバケン","city":"市原市","city_kana":"イチハラシ","town":"久々津","town_kana":"クグツ","prefecture_code":12},"0156":{"zip_code":"2900156","prefecture":"千葉県","prefecture_kana":"チバケン","city":"市原市","city_kana":"イチハラシ","town":"草刈（１６５６〜１９９９）","town_kana":"クサカリ(1656-1999)","prefecture_code":12},"0001":{"zip_code":"2900001","prefecture":"千葉県","prefecture_kana":"チバケン","city":"市原市","city_kana":"イチハラシ","town":"草刈（その他）","town_kana":"クサカリ(ソノタ)","prefecture_code":12},"0552":{"zip_code":"2900552","prefecture":"千葉県","prefecture_kana":"チバケン","city":"市原市","city_kana":"イチハラシ","town":"久保","town_kana":"クボ","prefecture_code":12},"0056":{"zip_code":"2900056","prefecture":"千葉県","prefecture_kana":"チバケン","city":"市原市","city_kana":"イチハラシ","town":"五井","town_kana":"ゴイ","prefecture_code":12},"0057":{"zip_code":"2900057","prefecture":"千葉県","prefecture_kana":"チバケン","city":"市原市","city_kana":"イチハラシ","town":"五井金杉","town_kana":"ゴイカナスギ","prefecture_code":12},"0081":{"zip_code":"2900081","prefecture":"千葉県","prefecture_kana":"チバケン","city":"市原市","city_kana":"イチハラシ","town":"五井中央西","town_kana":"ゴイチュウオウニシ","prefecture_code":12},"0054":{"zip_code":"2900054","prefecture":"千葉県","prefecture_kana":"チバケン","city":"市原市","city_kana":"イチハラシ","town":"五井中央東","town_kana":"ゴイチュウオウヒガシ","prefecture_code":12},"0038":{"zip_code":"2900038","prefecture":"千葉県","prefecture_kana":"チバケン","city":"市原市","city_kana":"イチハラシ","town":"五井西","town_kana":"ゴイニシ","prefecture_code":12},"0055":{"zip_code":"2900055","prefecture":"千葉県","prefecture_kana":"チバケン","city":"市原市","city_kana":"イチハラシ","town":"五井東","town_kana":"ゴイヒガシ","prefecture_code":12},"0058":{"zip_code":"2900058","prefecture":"千葉県","prefecture_kana":"チバケン","city":"市原市","city_kana":"イチハラシ","town":"五井海岸","town_kana":"ゴイカイガン","prefecture_code":12},"0045":{"zip_code":"2900045","prefecture":"千葉県","prefecture_kana":"チバケン","city":"市原市","city_kana":"イチハラシ","town":"五井南海岸","town_kana":"ゴイミナミカイガン","prefecture_code":12},"0254":{"zip_code":"2900254","prefecture":"千葉県","prefecture_kana":"チバケン","city":"市原市","city_kana":"イチハラシ","town":"高坂","town_kana":"コウザカ","prefecture_code":12},"0255":{"zip_code":"2900255","prefecture":"千葉県","prefecture_kana":"チバケン","city":"市原市","city_kana":"イチハラシ","town":"光風台","town_kana":"コウフウダイ","prefecture_code":12},"0269":{"zip_code":"2900269","prefecture":"千葉県","prefecture_kana":"チバケン","city":"市原市","city_kana":"イチハラシ","town":"小折","town_kana":"コオリ","prefecture_code":12},"0013":{"zip_code":"2900013","prefecture":"千葉県","prefecture_kana":"チバケン","city":"市原市","city_kana":"イチハラシ","town":"郡本","town_kana":"コオリモト","prefecture_code":12},"0526":{"zip_code":"2900526","prefecture":"千葉県","prefecture_kana":"チバケン","city":"市原市","city_kana":"イチハラシ","town":"小草畑","town_kana":"コクサバタ","prefecture_code":12},"0073":{"zip_code":"2900073","prefecture":"千葉県","prefecture_kana":"チバケン","city":"市原市","city_kana":"イチハラシ","town":"国分寺台中央","town_kana":"コクブンジダイチュウオウ","prefecture_code":12},"0531":{"zip_code":"2900531","prefecture":"千葉県","prefecture_kana":"チバケン","city":"市原市","city_kana":"イチハラシ","town":"国本","town_kana":"コクモト","prefecture_code":12},"0528":{"zip_code":"2900528","prefecture":"千葉県","prefecture_kana":"チバケン","city":"市原市","city_kana":"イチハラシ","town":"古敷谷","town_kana":"コシキヤ","prefecture_code":12},"0066":{"zip_code":"2900066","prefecture":"千葉県","prefecture_kana":"チバケン","city":"市原市","city_kana":"イチハラシ","town":"五所","town_kana":"ゴショ","prefecture_code":12},"0165":{"zip_code":"2900165","prefecture":"千葉県","prefecture_kana":"チバケン","city":"市原市","city_kana":"イチハラシ","town":"古都辺","town_kana":"コツベ","prefecture_code":12},"0559":{"zip_code":"2900559","prefecture":"千葉県","prefecture_kana":"チバケン","city":"市原市","city_kana":"イチハラシ","town":"駒込","town_kana":"コマゴメ","prefecture_code":12},"0529":{"zip_code":"2900529","prefecture":"千葉県","prefecture_kana":"チバケン","city":"市原市","city_kana":"イチハラシ","town":"小谷田","town_kana":"コヤタ","prefecture_code":12},"0209":{"zip_code":"2900209","prefecture":"千葉県","prefecture_kana":"チバケン","city":"市原市","city_kana":"イチハラシ","town":"権現堂","town_kana":"ゴンゲンドウ","prefecture_code":12},"0162":{"zip_code":"2900162","prefecture":"千葉県","prefecture_kana":"チバケン","city":"市原市","city_kana":"イチハラシ","town":"金剛地","town_kana":"コンゴウジ","prefecture_code":12},"0022":{"zip_code":"2900022","prefecture":"千葉県","prefecture_kana":"チバケン","city":"市原市","city_kana":"イチハラシ","town":"西広","town_kana":"サイヒロ","prefecture_code":12},"0229":{"zip_code":"2900229","prefecture":"千葉県","prefecture_kana":"チバケン","city":"市原市","city_kana":"イチハラシ","town":"佐是","town_kana":"サゼ","prefecture_code":12},"0050":{"zip_code":"2900050","prefecture":"千葉県","prefecture_kana":"チバケン","city":"市原市","city_kana":"イチハラシ","town":"更級","town_kana":"サラシナ","prefecture_code":12},"0506":{"zip_code":"2900506","prefecture":"千葉県","prefecture_kana":"チバケン","city":"市原市","city_kana":"イチハラシ","town":"島田","town_kana":"シマダ","prefecture_code":12},"0034":{"zip_code":"2900034","prefecture":"千葉県","prefecture_kana":"チバケン","city":"市原市","city_kana":"イチハラシ","town":"島野","town_kana":"シマノ","prefecture_code":12},"0154":{"zip_code":"2900154","prefecture":"千葉県","prefecture_kana":"チバケン","city":"市原市","city_kana":"イチハラシ","town":"下野","town_kana":"シモノ","prefecture_code":12},"0518":{"zip_code":"2900518","prefecture":"千葉県","prefecture_kana":"チバケン","city":"市原市","city_kana":"イチハラシ","town":"下矢田","town_kana":"シモヤタ","prefecture_code":12},"0263":{"zip_code":"2900263","prefecture":"千葉県","prefecture_kana":"チバケン","city":"市原市","city_kana":"イチハラシ","town":"十五沢","town_kana":"ジュウゴザワ","prefecture_code":12},"0503":{"zip_code":"2900503","prefecture":"千葉県","prefecture_kana":"チバケン","city":"市原市","city_kana":"イチハラシ","town":"宿","town_kana":"シュク","prefecture_code":12},"0059":{"zip_code":"2900059","prefecture":"千葉県","prefecture_kana":"チバケン","city":"市原市","city_kana":"イチハラシ","town":"白金町","town_kana":"シロガネチョウ","prefecture_code":12},"0502":{"zip_code":"2900502","prefecture":"千葉県","prefecture_kana":"チバケン","city":"市原市","city_kana":"イチハラシ","town":"真ケ谷","town_kana":"シンガヤ","prefecture_code":12},"0539":{"zip_code":"2900539","prefecture":"千葉県","prefecture_kana":"チバケン","city":"市原市","city_kana":"イチハラシ","town":"菅野","town_kana":"スゲノ","prefecture_code":12},"0026":{"zip_code":"2900026","prefecture":"千葉県","prefecture_kana":"チバケン","city":"市原市","city_kana":"イチハラシ","town":"諏訪","town_kana":"スワ","prefecture_code":12},"0151":{"zip_code":"2900151","prefecture":"千葉県","prefecture_kana":"チバケン","city":"市原市","city_kana":"イチハラシ","town":"瀬又","town_kana":"セマタ","prefecture_code":12},"0023":{"zip_code":"2900023","prefecture":"千葉県","prefecture_kana":"チバケン","city":"市原市","city_kana":"イチハラシ","town":"惣社","town_kana":"ソウジャ","prefecture_code":12},"0161":{"zip_code":"2900161","prefecture":"千葉県","prefecture_kana":"チバケン","city":"市原市","city_kana":"イチハラシ","town":"高倉","town_kana":"タカクラ","prefecture_code":12},"0555":{"zip_code":"2900555","prefecture":"千葉県","prefecture_kana":"チバケン","city":"市原市","city_kana":"イチハラシ","town":"高滝","town_kana":"タカタキ","prefecture_code":12},"0152":{"zip_code":"2900152","prefecture":"千葉県","prefecture_kana":"チバケン","city":"市原市","city_kana":"イチハラシ","town":"高田","town_kana":"タカダ","prefecture_code":12},"0173":{"zip_code":"2900173","prefecture":"千葉県","prefecture_kana":"チバケン","city":"市原市","city_kana":"イチハラシ","town":"滝口","town_kana":"タキグチ","prefecture_code":12},"0203":{"zip_code":"2900203","prefecture":"千葉県","prefecture_kana":"チバケン","city":"市原市","city_kana":"イチハラシ","town":"武士","town_kana":"タケシ","prefecture_code":12},"0003":{"zip_code":"2900003","prefecture":"千葉県","prefecture_kana":"チバケン","city":"市原市","city_kana":"イチハラシ","town":"辰巳台東","town_kana":"タツミダイヒガシ","prefecture_code":12},"0004":{"zip_code":"2900004","prefecture":"千葉県","prefecture_kana":"チバケン","city":"市原市","city_kana":"イチハラシ","town":"辰巳台西","town_kana":"タツミダイニシ","prefecture_code":12},"0515":{"zip_code":"2900515","prefecture":"千葉県","prefecture_kana":"チバケン","city":"市原市","city_kana":"イチハラシ","town":"田尾","town_kana":"タビ","prefecture_code":12},"0546":{"zip_code":"2900546","prefecture":"千葉県","prefecture_kana":"チバケン","city":"市原市","city_kana":"イチハラシ","town":"田淵","town_kana":"タブチ","prefecture_code":12},"0545":{"zip_code":"2900545","prefecture":"千葉県","prefecture_kana":"チバケン","city":"市原市","city_kana":"イチハラシ","town":"田淵旧日竹","town_kana":"タブチキュウヒタケ","prefecture_code":12},"0041":{"zip_code":"2900041","prefecture":"千葉県","prefecture_kana":"チバケン","city":"市原市","city_kana":"イチハラシ","town":"玉前","town_kana":"タマサキ","prefecture_code":12},"0044":{"zip_code":"2900044","prefecture":"千葉県","prefecture_kana":"チバケン","city":"市原市","city_kana":"イチハラシ","town":"玉前西","town_kana":"タマサキニシ","prefecture_code":12},"0143":{"zip_code":"2900143","prefecture":"千葉県","prefecture_kana":"チバケン","city":"市原市","city_kana":"イチハラシ","town":"ちはら台西","town_kana":"チハラダイニシ","prefecture_code":12},"0141":{"zip_code":"2900141","prefecture":"千葉県","prefecture_kana":"チバケン","city":"市原市","city_kana":"イチハラシ","town":"ちはら台東","town_kana":"チハラダイヒガシ","prefecture_code":12},"0142":{"zip_code":"2900142","prefecture":"千葉県","prefecture_kana":"チバケン","city":"市原市","city_kana":"イチハラシ","town":"ちはら台南","town_kana":"チハラダイミナミ","prefecture_code":12},"0032":{"zip_code":"2900032","prefecture":"千葉県","prefecture_kana":"チバケン","city":"市原市","city_kana":"イチハラシ","town":"廿五里","town_kana":"ツイヘイジ","prefecture_code":12},"0547":{"zip_code":"2900547","prefecture":"千葉県","prefecture_kana":"チバケン","city":"市原市","city_kana":"イチハラシ","town":"月崎","town_kana":"ツキザキ","prefecture_code":12},"0527":{"zip_code":"2900527","prefecture":"千葉県","prefecture_kana":"チバケン","city":"市原市","city_kana":"イチハラシ","town":"月出","town_kana":"ツキデ","prefecture_code":12},"0215":{"zip_code":"2900215","prefecture":"千葉県","prefecture_kana":"チバケン","city":"市原市","city_kana":"イチハラシ","town":"土宇","town_kana":"ツチウ","prefecture_code":12},"0512":{"zip_code":"2900512","prefecture":"千葉県","prefecture_kana":"チバケン","city":"市原市","city_kana":"イチハラシ","town":"鶴舞","town_kana":"ツルマイ","prefecture_code":12},"0042":{"zip_code":"2900042","prefecture":"千葉県","prefecture_kana":"チバケン","city":"市原市","city_kana":"イチハラシ","town":"出津","town_kana":"デヅ","prefecture_code":12},"0043":{"zip_code":"2900043","prefecture":"千葉県","prefecture_kana":"チバケン","city":"市原市","city_kana":"イチハラシ","town":"出津西","town_kana":"デヅニシ","prefecture_code":12},"0236":{"zip_code":"2900236","prefecture":"千葉県","prefecture_kana":"チバケン","city":"市原市","city_kana":"イチハラシ","town":"寺谷","town_kana":"テラヤツ","prefecture_code":12},"0544":{"zip_code":"2900544","prefecture":"千葉県","prefecture_kana":"チバケン","city":"市原市","city_kana":"イチハラシ","town":"徳氏","town_kana":"トクウジ","prefecture_code":12},"0536":{"zip_code":"2900536","prefecture":"千葉県","prefecture_kana":"チバケン","city":"市原市","city_kana":"イチハラシ","town":"戸面","town_kana":"トヅラ","prefecture_code":12},"0551":{"zip_code":"2900551","prefecture":"千葉県","prefecture_kana":"チバケン","city":"市原市","city_kana":"イチハラシ","town":"外部田","town_kana":"トノベタ","prefecture_code":12},"0226":{"zip_code":"2900226","prefecture":"千葉県","prefecture_kana":"チバケン","city":"市原市","city_kana":"イチハラシ","town":"中","town_kana":"ナカ","prefecture_code":12},"0242":{"zip_code":"2900242","prefecture":"千葉県","prefecture_kana":"チバケン","city":"市原市","city_kana":"イチハラシ","town":"中高根","town_kana":"ナカタカネ","prefecture_code":12},"0153":{"zip_code":"2900153","prefecture":"千葉県","prefecture_kana":"チバケン","city":"市原市","city_kana":"イチハラシ","town":"中野","town_kana":"ナカノ","prefecture_code":12},"0168":{"zip_code":"2900168","prefecture":"千葉県","prefecture_kana":"チバケン","city":"市原市","city_kana":"イチハラシ","town":"永吉","town_kana":"ナガヨシ","prefecture_code":12},"0164":{"zip_code":"2900164","prefecture":"千葉県","prefecture_kana":"チバケン","city":"市原市","city_kana":"イチハラシ","town":"奈良","town_kana":"ナラ","prefecture_code":12},"0206":{"zip_code":"2900206","prefecture":"千葉県","prefecture_kana":"チバケン","city":"市原市","city_kana":"イチハラシ","town":"新堀","town_kana":"ニイホリ","prefecture_code":12},"0231":{"zip_code":"2900231","prefecture":"千葉県","prefecture_kana":"チバケン","city":"市原市","city_kana":"イチハラシ","town":"西国吉","town_kana":"ニシクニヨシ","prefecture_code":12},"0072":{"zip_code":"2900072","prefecture":"千葉県","prefecture_kana":"チバケン","city":"市原市","city_kana":"イチハラシ","town":"西国分寺台","town_kana":"ニシコクブンジダイ","prefecture_code":12},"0065":{"zip_code":"2900065","prefecture":"千葉県","prefecture_kana":"チバケン","city":"市原市","city_kana":"イチハラシ","town":"西五所","town_kana":"ニシゴショ","prefecture_code":12},"0261":{"zip_code":"2900261","prefecture":"千葉県","prefecture_kana":"チバケン","city":"市原市","city_kana":"イチハラシ","town":"西野","town_kana":"ニシノ","prefecture_code":12},"0014":{"zip_code":"2900014","prefecture":"千葉県","prefecture_kana":"チバケン","city":"市原市","city_kana":"イチハラシ","town":"西野谷","town_kana":"ニシノヤ","prefecture_code":12},"0024":{"zip_code":"2900024","prefecture":"千葉県","prefecture_kana":"チバケン","city":"市原市","city_kana":"イチハラシ","town":"根田","town_kana":"ネダ","prefecture_code":12},"0011":{"zip_code":"2900011","prefecture":"千葉県","prefecture_kana":"チバケン","city":"市原市","city_kana":"イチハラシ","town":"能満","town_kana":"ノウマン","prefecture_code":12},"0033":{"zip_code":"2900033","prefecture":"千葉県","prefecture_kana":"チバケン","city":"市原市","city_kana":"イチハラシ","town":"野毛","town_kana":"ノゲ","prefecture_code":12},"0175":{"zip_code":"2900175","prefecture":"千葉県","prefecture_kana":"チバケン","city":"市原市","city_kana":"イチハラシ","town":"葉木","town_kana":"ハギ","prefecture_code":12},"0507":{"zip_code":"2900507","prefecture":"千葉県","prefecture_kana":"チバケン","city":"市原市","city_kana":"イチハラシ","town":"原田","town_kana":"ハラダ","prefecture_code":12},"0155":{"zip_code":"2900155","prefecture":"千葉県","prefecture_kana":"チバケン","city":"市原市","city_kana":"イチハラシ","town":"番場","town_kana":"バンバ","prefecture_code":12},"0163":{"zip_code":"2900163","prefecture":"千葉県","prefecture_kana":"チバケン","city":"市原市","city_kana":"イチハラシ","town":"東国吉","town_kana":"ヒガシクニヨシ","prefecture_code":12},"0074":{"zip_code":"2900074","prefecture":"千葉県","prefecture_kana":"チバケン","city":"市原市","city_kana":"イチハラシ","town":"東国分寺台","town_kana":"ヒガシコクブンジダイ","prefecture_code":12},"0064":{"zip_code":"2900064","prefecture":"千葉県","prefecture_kana":"チバケン","city":"市原市","city_kana":"イチハラシ","town":"東五所","town_kana":"ヒガシゴショ","prefecture_code":12},"0256":{"zip_code":"2900256","prefecture":"千葉県","prefecture_kana":"チバケン","city":"市原市","city_kana":"イチハラシ","town":"引田","town_kana":"ヒキダ","prefecture_code":12},"0214":{"zip_code":"2900214","prefecture":"千葉県","prefecture_kana":"チバケン","city":"市原市","city_kana":"イチハラシ","town":"櫃挾","town_kana":"ヒツバ","prefecture_code":12},"0053":{"zip_code":"2900053","prefecture":"千葉県","prefecture_kana":"チバケン","city":"市原市","city_kana":"イチハラシ","town":"平田","town_kana":"ヒラタ","prefecture_code":12},"0541":{"zip_code":"2900541","prefecture":"千葉県","prefecture_kana":"チバケン","city":"市原市","city_kana":"イチハラシ","town":"平野","town_kana":"ヒラノ","prefecture_code":12},"0202":{"zip_code":"2900202","prefecture":"千葉県","prefecture_kana":"チバケン","city":"市原市","city_kana":"イチハラシ","town":"福増","town_kana":"フクマス","prefecture_code":12},"0012":{"zip_code":"2900012","prefecture":"千葉県","prefecture_kana":"チバケン","city":"市原市","city_kana":"イチハラシ","town":"藤井","town_kana":"フジイ","prefecture_code":12},"0216":{"zip_code":"2900216","prefecture":"千葉県","prefecture_kana":"チバケン","city":"市原市","city_kana":"イチハラシ","town":"二日市場","town_kana":"フツカイチバ","prefecture_code":12},"0554":{"zip_code":"2900554","prefecture":"千葉県","prefecture_kana":"チバケン","city":"市原市","city_kana":"イチハラシ","town":"不入","town_kana":"フニュウ","prefecture_code":12},"0008":{"zip_code":"2900008","prefecture":"千葉県","prefecture_kana":"チバケン","city":"市原市","city_kana":"イチハラシ","town":"古市場","town_kana":"フルイチバ","prefecture_code":12},"0524":{"zip_code":"2900524","prefecture":"千葉県","prefecture_kana":"チバケン","city":"市原市","city_kana":"イチハラシ","town":"平蔵","town_kana":"ヘイゾウ","prefecture_code":12},"0224":{"zip_code":"2900224","prefecture":"千葉県","prefecture_kana":"チバケン","city":"市原市","city_kana":"イチハラシ","town":"奉免","town_kana":"ホウメ","prefecture_code":12},"0504":{"zip_code":"2900504","prefecture":"千葉県","prefecture_kana":"チバケン","city":"市原市","city_kana":"イチハラシ","town":"堀越","town_kana":"ホリコシ","prefecture_code":12},"0556":{"zip_code":"2900556","prefecture":"千葉県","prefecture_kana":"チバケン","city":"市原市","city_kana":"イチハラシ","town":"本郷","town_kana":"ホンゴウ","prefecture_code":12},"0267":{"zip_code":"2900267","prefecture":"千葉県","prefecture_kana":"チバケン","city":"市原市","city_kana":"イチハラシ","town":"町田","town_kana":"マチダ","prefecture_code":12},"0035":{"zip_code":"2900035","prefecture":"千葉県","prefecture_kana":"チバケン","city":"市原市","city_kana":"イチハラシ","town":"松ケ島","town_kana":"マツガシマ","prefecture_code":12},"0036":{"zip_code":"2900036","prefecture":"千葉県","prefecture_kana":"チバケン","city":"市原市","city_kana":"イチハラシ","town":"松ケ島西","town_kana":"マツガシマニシ","prefecture_code":12},"0217":{"zip_code":"2900217","prefecture":"千葉県","prefecture_kana":"チバケン","city":"市原市","city_kana":"イチハラシ","town":"松崎","town_kana":"マツザキ","prefecture_code":12},"0549":{"zip_code":"2900549","prefecture":"千葉県","prefecture_kana":"チバケン","city":"市原市","city_kana":"イチハラシ","town":"万田野","town_kana":"マンダノ","prefecture_code":12},"0514":{"zip_code":"2900514","prefecture":"千葉県","prefecture_kana":"チバケン","city":"市原市","city_kana":"イチハラシ","town":"水沢","town_kana":"ミズサワ","prefecture_code":12},"0244":{"zip_code":"2900244","prefecture":"千葉県","prefecture_kana":"チバケン","city":"市原市","city_kana":"イチハラシ","town":"南岩崎","town_kana":"ミナミイワサキ","prefecture_code":12},"0075":{"zip_code":"2900075","prefecture":"千葉県","prefecture_kana":"チバケン","city":"市原市","city_kana":"イチハラシ","town":"南国分寺台","town_kana":"ミナミコクブンジダイ","prefecture_code":12},"0232":{"zip_code":"2900232","prefecture":"千葉県","prefecture_kana":"チバケン","city":"市原市","city_kana":"イチハラシ","town":"皆吉","town_kana":"ミナヨシ","prefecture_code":12},"0264":{"zip_code":"2900264","prefecture":"千葉県","prefecture_kana":"チバケン","city":"市原市","city_kana":"イチハラシ","town":"宮原","town_kana":"ミヤバラ","prefecture_code":12},"0223":{"zip_code":"2900223","prefecture":"千葉県","prefecture_kana":"チバケン","city":"市原市","city_kana":"イチハラシ","town":"妙香","town_kana":"ミョウコウ","prefecture_code":12},"0031":{"zip_code":"2900031","prefecture":"千葉県","prefecture_kana":"チバケン","city":"市原市","city_kana":"イチハラシ","town":"村上","town_kana":"ムラカミ","prefecture_code":12},"0016":{"zip_code":"2900016","prefecture":"千葉県","prefecture_kana":"チバケン","city":"市原市","city_kana":"イチハラシ","town":"門前","town_kana":"モンゼン","prefecture_code":12},"0517":{"zip_code":"2900517","prefecture":"千葉県","prefecture_kana":"チバケン","city":"市原市","city_kana":"イチハラシ","town":"矢田","town_kana":"ヤタ","prefecture_code":12},"0538":{"zip_code":"2900538","prefecture":"千葉県","prefecture_kana":"チバケン","city":"市原市","city_kana":"イチハラシ","town":"柳川","town_kana":"ヤナガワ","prefecture_code":12},"0268":{"zip_code":"2900268","prefecture":"千葉県","prefecture_kana":"チバケン","city":"市原市","city_kana":"イチハラシ","town":"柳原","town_kana":"ヤナギハラ","prefecture_code":12},"0227":{"zip_code":"2900227","prefecture":"千葉県","prefecture_kana":"チバケン","city":"市原市","city_kana":"イチハラシ","town":"藪","town_kana":"ヤブ","prefecture_code":12},"0005":{"zip_code":"2900005","prefecture":"千葉県","prefecture_kana":"チバケン","city":"市原市","city_kana":"イチハラシ","town":"山木","town_kana":"ヤマキ","prefecture_code":12},"0201":{"zip_code":"2900201","prefecture":"千葉県","prefecture_kana":"チバケン","city":"市原市","city_kana":"イチハラシ","town":"山倉","town_kana":"ヤマクラ","prefecture_code":12},"0558":{"zip_code":"2900558","prefecture":"千葉県","prefecture_kana":"チバケン","city":"市原市","city_kana":"イチハラシ","town":"山口","town_kana":"ヤマグチ","prefecture_code":12},"0521":{"zip_code":"2900521","prefecture":"千葉県","prefecture_kana":"チバケン","city":"市原市","city_kana":"イチハラシ","town":"山小川","town_kana":"ヤマコガワ","prefecture_code":12},"0205":{"zip_code":"2900205","prefecture":"千葉県","prefecture_kana":"チバケン","city":"市原市","city_kana":"イチハラシ","town":"山田","town_kana":"ヤマダ","prefecture_code":12},"0021":{"zip_code":"2900021","prefecture":"千葉県","prefecture_kana":"チバケン","city":"市原市","city_kana":"イチハラシ","town":"山田橋","town_kana":"ヤマダバシ","prefecture_code":12},"0062":{"zip_code":"2900062","prefecture":"千葉県","prefecture_kana":"チバケン","city":"市原市","city_kana":"イチハラシ","town":"八幡","town_kana":"ヤワタ","prefecture_code":12},"0061":{"zip_code":"2900061","prefecture":"千葉県","prefecture_kana":"チバケン","city":"市原市","city_kana":"イチハラシ","town":"八幡石塚","town_kana":"ヤワタイシヅカ","prefecture_code":12},"0067":{"zip_code":"2900067","prefecture":"千葉県","prefecture_kana":"チバケン","city":"市原市","city_kana":"イチハラシ","town":"八幡海岸通","town_kana":"ヤワタカイガンドオリ","prefecture_code":12},"0069":{"zip_code":"2900069","prefecture":"千葉県","prefecture_kana":"チバケン","city":"市原市","city_kana":"イチハラシ","town":"八幡北町","town_kana":"ヤワタキタチョウ","prefecture_code":12},"0068":{"zip_code":"2900068","prefecture":"千葉県","prefecture_kana":"チバケン","city":"市原市","city_kana":"イチハラシ","town":"八幡浦","town_kana":"ヤワタウラ","prefecture_code":12},"0557":{"zip_code":"2900557","prefecture":"千葉県","prefecture_kana":"チバケン","city":"市原市","city_kana":"イチハラシ","town":"養老","town_kana":"ヨウロウ","prefecture_code":12},"0501":{"zip_code":"2900501","prefecture":"千葉県","prefecture_kana":"チバケン","city":"市原市","city_kana":"イチハラシ","town":"米沢","town_kana":"ヨネザワ","prefecture_code":12},"0525":{"zip_code":"2900525","prefecture":"千葉県","prefecture_kana":"チバケン","city":"市原市","city_kana":"イチハラシ","town":"米原","town_kana":"ヨネワラ","prefecture_code":12},"0006":{"zip_code":"2900006","prefecture":"千葉県","prefecture_kana":"チバケン","city":"市原市","city_kana":"イチハラシ","town":"若宮","town_kana":"ワカミヤ","prefecture_code":12},"0259":{"zip_code":"2900259","prefecture":"千葉県","prefecture_kana":"チバケン","city":"市原市","city_kana":"イチハラシ","town":"分目","town_kana":"ワンメ","prefecture_code":12}}