{"0000":{"zip_code":"2920000","prefecture":"千葉県","prefecture_kana":"チバケン","city":"木更津市","city_kana":"キサラヅシ","town":"以下に掲載がない場合","town_kana":"イカニケイサイガナイバアイ","prefecture_code":12},"0055":{"zip_code":"2920055","prefecture":"千葉県","prefecture_kana":"チバケン","city":"木更津市","city_kana":"キサラヅシ","town":"朝日","town_kana":"アサヒ","prefecture_code":12},"0065":{"zip_code":"2920065","prefecture":"千葉県","prefecture_kana":"チバケン","city":"木更津市","city_kana":"キサラヅシ","town":"吾妻","town_kana":"アヅマ","prefecture_code":12},"0021":{"zip_code":"2920021","prefecture":"千葉県","prefecture_kana":"チバケン","city":"木更津市","city_kana":"キサラヅシ","town":"有吉","town_kana":"アリヨシ","prefecture_code":12},"0026":{"zip_code":"2920026","prefecture":"千葉県","prefecture_kana":"チバケン","city":"木更津市","city_kana":"キサラヅシ","town":"井尻","town_kana":"イジリ","prefecture_code":12},"0034":{"zip_code":"2920034","prefecture":"千葉県","prefecture_kana":"チバケン","city":"木更津市","city_kana":"キサラヅシ","town":"伊豆島","town_kana":"イズシマ","prefecture_code":12},"0061":{"zip_code":"2920061","prefecture":"千葉県","prefecture_kana":"チバケン","city":"木更津市","city_kana":"キサラヅシ","town":"岩根","town_kana":"イワネ","prefecture_code":12},"0033":{"zip_code":"2920033","prefecture":"千葉県","prefecture_kana":"チバケン","city":"木更津市","city_kana":"キサラヅシ","town":"犬成","town_kana":"インナリ","prefecture_code":12},"0001":{"zip_code":"2920001","prefecture":"千葉県","prefecture_kana":"チバケン","city":"木更津市","city_kana":"キサラヅシ","town":"牛込","town_kana":"ウシゴメ","prefecture_code":12},"0012":{"zip_code":"2920012","prefecture":"千葉県","prefecture_kana":"チバケン","city":"木更津市","city_kana":"キサラヅシ","town":"牛袋","town_kana":"ウシブクロ","prefecture_code":12},"0011":{"zip_code":"2920011","prefecture":"千葉県","prefecture_kana":"チバケン","city":"木更津市","city_kana":"キサラヅシ","town":"牛袋野","town_kana":"ウシブクロノ","prefecture_code":12},"0007":{"zip_code":"2920007","prefecture":"千葉県","prefecture_kana":"チバケン","city":"木更津市","city_kana":"キサラヅシ","town":"瓜倉","town_kana":"ウリクラ","prefecture_code":12},"0063":{"zip_code":"2920063","prefecture":"千葉県","prefecture_kana":"チバケン","city":"木更津市","city_kana":"キサラヅシ","town":"江川","town_kana":"エガワ","prefecture_code":12},"0211":{"zip_code":"2920211","prefecture":"千葉県","prefecture_kana":"チバケン","city":"木更津市","city_kana":"キサラヅシ","town":"大稲","town_kana":"オオイネ","prefecture_code":12},"0815":{"zip_code":"2920815","prefecture":"千葉県","prefecture_kana":"チバケン","city":"木更津市","city_kana":"キサラヅシ","town":"大久保","town_kana":"オオクボ","prefecture_code":12},"0044":{"zip_code":"2920044","prefecture":"千葉県","prefecture_kana":"チバケン","city":"木更津市","city_kana":"キサラヅシ","town":"太田","town_kana":"オオダ","prefecture_code":12},"0024":{"zip_code":"2920024","prefecture":"千葉県","prefecture_kana":"チバケン","city":"木更津市","city_kana":"キサラヅシ","town":"大寺","town_kana":"オオテラ","prefecture_code":12},"0833":{"zip_code":"2920833","prefecture":"千葉県","prefecture_kana":"チバケン","city":"木更津市","city_kana":"キサラヅシ","town":"貝渕","town_kana":"カイフチ","prefecture_code":12},"0818":{"zip_code":"2920818","prefecture":"千葉県","prefecture_kana":"チバケン","city":"木更津市","city_kana":"キサラヅシ","town":"かずさ鎌足","town_kana":"カズサカマタリ","prefecture_code":12},"0009":{"zip_code":"2920009","prefecture":"千葉県","prefecture_kana":"チバケン","city":"木更津市","city_kana":"キサラヅシ","town":"金田東","town_kana":"カネダヒガシ","prefecture_code":12},"0813":{"zip_code":"2920813","prefecture":"千葉県","prefecture_kana":"チバケン","city":"木更津市","city_kana":"キサラヅシ","town":"上烏田","town_kana":"カミカラスダ","prefecture_code":12},"0215":{"zip_code":"2920215","prefecture":"千葉県","prefecture_kana":"チバケン","city":"木更津市","city_kana":"キサラヅシ","town":"上根岸","town_kana":"カミネギシ","prefecture_code":12},"0022":{"zip_code":"2920022","prefecture":"千葉県","prefecture_kana":"チバケン","city":"木更津市","city_kana":"キサラヅシ","town":"上望陀","town_kana":"カミモウダ","prefecture_code":12},"0204":{"zip_code":"2920204","prefecture":"千葉県","prefecture_kana":"チバケン","city":"木更津市","city_kana":"キサラヅシ","town":"茅野","town_kana":"カヤノ","prefecture_code":12},"0202":{"zip_code":"2920202","prefecture":"千葉県","prefecture_kana":"チバケン","city":"木更津市","city_kana":"キサラヅシ","town":"茅野七曲","town_kana":"カヤノナナマガリ","prefecture_code":12},"0052":{"zip_code":"2920052","prefecture":"千葉県","prefecture_kana":"チバケン","city":"木更津市","city_kana":"キサラヅシ","town":"祇園","town_kana":"ギオン","prefecture_code":12},"0056":{"zip_code":"2920056","prefecture":"千葉県","prefecture_kana":"チバケン","city":"木更津市","city_kana":"キサラヅシ","town":"木更津","town_kana":"キサラヅ","prefecture_code":12},"0006":{"zip_code":"2920006","prefecture":"千葉県","prefecture_kana":"チバケン","city":"木更津市","city_kana":"キサラヅシ","town":"北浜町","town_kana":"キタハマチョウ","prefecture_code":12},"0051":{"zip_code":"2920051","prefecture":"千葉県","prefecture_kana":"チバケン","city":"木更津市","city_kana":"キサラヅシ","town":"清川","town_kana":"キヨカワ","prefecture_code":12},"0045":{"zip_code":"2920045","prefecture":"千葉県","prefecture_kana":"チバケン","city":"木更津市","city_kana":"キサラヅシ","town":"清見台","town_kana":"キヨミダイ","prefecture_code":12},"0041":{"zip_code":"2920041","prefecture":"千葉県","prefecture_kana":"チバケン","city":"木更津市","city_kana":"キサラヅシ","town":"清見台東","town_kana":"キヨミダイヒガシ","prefecture_code":12},"0042":{"zip_code":"2920042","prefecture":"千葉県","prefecture_kana":"チバケン","city":"木更津市","city_kana":"キサラヅシ","town":"清見台南","town_kana":"キヨミダイミナミ","prefecture_code":12},"0811":{"zip_code":"2920811","prefecture":"千葉県","prefecture_kana":"チバケン","city":"木更津市","city_kana":"キサラヅシ","town":"草敷","town_kana":"クサジキ","prefecture_code":12},"0004":{"zip_code":"2920004","prefecture":"千葉県","prefecture_kana":"チバケン","city":"木更津市","city_kana":"キサラヅシ","town":"久津間","town_kana":"クヅマ","prefecture_code":12},"0005":{"zip_code":"2920005","prefecture":"千葉県","prefecture_kana":"チバケン","city":"木更津市","city_kana":"キサラヅシ","town":"畔戸","town_kana":"クロト","prefecture_code":12},"0213":{"zip_code":"2920213","prefecture":"千葉県","prefecture_kana":"チバケン","city":"木更津市","city_kana":"キサラヅシ","town":"下内橋","town_kana":"ゲナイバシ","prefecture_code":12},"0827":{"zip_code":"2920827","prefecture":"千葉県","prefecture_kana":"チバケン","city":"木更津市","city_kana":"キサラヅシ","town":"港南台","town_kana":"コウナンダイ","prefecture_code":12},"0824":{"zip_code":"2920824","prefecture":"千葉県","prefecture_kana":"チバケン","city":"木更津市","city_kana":"キサラヅシ","town":"小浜","town_kana":"コバマ","prefecture_code":12},"0803":{"zip_code":"2920803","prefecture":"千葉県","prefecture_kana":"チバケン","city":"木更津市","city_kana":"キサラヅシ","town":"幸町","town_kana":"サイワイチョウ","prefecture_code":12},"0822":{"zip_code":"2920822","prefecture":"千葉県","prefecture_kana":"チバケン","city":"木更津市","city_kana":"キサラヅシ","town":"桜井","town_kana":"サクライ","prefecture_code":12},"0823":{"zip_code":"2920823","prefecture":"千葉県","prefecture_kana":"チバケン","city":"木更津市","city_kana":"キサラヅシ","town":"桜井新町","town_kana":"サクライシンマチ","prefecture_code":12},"0821":{"zip_code":"2920821","prefecture":"千葉県","prefecture_kana":"チバケン","city":"木更津市","city_kana":"キサラヅシ","town":"桜町","town_kana":"サクラマチ","prefecture_code":12},"0032":{"zip_code":"2920032","prefecture":"千葉県","prefecture_kana":"チバケン","city":"木更津市","city_kana":"キサラヅシ","town":"笹子","town_kana":"ササゴ","prefecture_code":12},"0206":{"zip_code":"2920206","prefecture":"千葉県","prefecture_kana":"チバケン","city":"木更津市","city_kana":"キサラヅシ","town":"佐野","town_kana":"サノ","prefecture_code":12},"0838":{"zip_code":"2920838","prefecture":"千葉県","prefecture_kana":"チバケン","city":"木更津市","city_kana":"キサラヅシ","town":"潮浜","town_kana":"シオハマ","prefecture_code":12},"0834":{"zip_code":"2920834","prefecture":"千葉県","prefecture_kana":"チバケン","city":"木更津市","city_kana":"キサラヅシ","town":"潮見","town_kana":"シオミ","prefecture_code":12},"0816":{"zip_code":"2920816","prefecture":"千葉県","prefecture_kana":"チバケン","city":"木更津市","city_kana":"キサラヅシ","town":"下烏田","town_kana":"シモカラスダ","prefecture_code":12},"0205":{"zip_code":"2920205","prefecture":"千葉県","prefecture_kana":"チバケン","city":"木更津市","city_kana":"キサラヅシ","town":"下郡","town_kana":"シモゴオリ","prefecture_code":12},"0217":{"zip_code":"2920217","prefecture":"千葉県","prefecture_kana":"チバケン","city":"木更津市","city_kana":"キサラヅシ","town":"下宮田","town_kana":"シモミヤダ","prefecture_code":12},"0023":{"zip_code":"2920023","prefecture":"千葉県","prefecture_kana":"チバケン","city":"木更津市","city_kana":"キサラヅシ","town":"下望陀","town_kana":"シモモウダ","prefecture_code":12},"0801":{"zip_code":"2920801","prefecture":"千葉県","prefecture_kana":"チバケン","city":"木更津市","city_kana":"キサラヅシ","town":"請西","town_kana":"ジョウザイ","prefecture_code":12},"0806":{"zip_code":"2920806","prefecture":"千葉県","prefecture_kana":"チバケン","city":"木更津市","city_kana":"キサラヅシ","town":"請西東","town_kana":"ジョウザイヒガシ","prefecture_code":12},"0807":{"zip_code":"2920807","prefecture":"千葉県","prefecture_kana":"チバケン","city":"木更津市","city_kana":"キサラヅシ","town":"請西南","town_kana":"ジョウザイミナミ","prefecture_code":12},"0066":{"zip_code":"2920066","prefecture":"千葉県","prefecture_kana":"チバケン","city":"木更津市","city_kana":"キサラヅシ","town":"新宿","town_kana":"シンジュク","prefecture_code":12},"0832":{"zip_code":"2920832","prefecture":"千葉県","prefecture_kana":"チバケン","city":"木更津市","city_kana":"キサラヅシ","town":"新田","town_kana":"シンデン","prefecture_code":12},"0836":{"zip_code":"2920836","prefecture":"千葉県","prefecture_kana":"チバケン","city":"木更津市","city_kana":"キサラヅシ","town":"新港","town_kana":"シンミナト","prefecture_code":12},"0036":{"zip_code":"2920036","prefecture":"千葉県","prefecture_kana":"チバケン","city":"木更津市","city_kana":"キサラヅシ","town":"菅生","town_kana":"スゴウ","prefecture_code":12},"0027":{"zip_code":"2920027","prefecture":"千葉県","prefecture_kana":"チバケン","city":"木更津市","city_kana":"キサラヅシ","town":"曽根","town_kana":"ソネ","prefecture_code":12},"0016":{"zip_code":"2920016","prefecture":"千葉県","prefecture_kana":"チバケン","city":"木更津市","city_kana":"キサラヅシ","town":"高砂","town_kana":"タカサゴ","prefecture_code":12},"0014":{"zip_code":"2920014","prefecture":"千葉県","prefecture_kana":"チバケン","city":"木更津市","city_kana":"キサラヅシ","town":"高柳","town_kana":"タカヤナギ","prefecture_code":12},"0207":{"zip_code":"2920207","prefecture":"千葉県","prefecture_kana":"チバケン","city":"木更津市","city_kana":"キサラヅシ","town":"田川","town_kana":"タガワ","prefecture_code":12},"0067":{"zip_code":"2920067","prefecture":"千葉県","prefecture_kana":"チバケン","city":"木更津市","city_kana":"キサラヅシ","town":"中央","town_kana":"チュウオウ","prefecture_code":12},"0835":{"zip_code":"2920835","prefecture":"千葉県","prefecture_kana":"チバケン","city":"木更津市","city_kana":"キサラヅシ","town":"築地","town_kana":"ツキジ","prefecture_code":12},"0031":{"zip_code":"2920031","prefecture":"千葉県","prefecture_kana":"チバケン","city":"木更津市","city_kana":"キサラヅシ","town":"椿","town_kana":"ツバキ","prefecture_code":12},"0025":{"zip_code":"2920025","prefecture":"千葉県","prefecture_kana":"チバケン","city":"木更津市","city_kana":"キサラヅシ","town":"十日市場","town_kana":"トオカイチバ","prefecture_code":12},"0214":{"zip_code":"2920214","prefecture":"千葉県","prefecture_kana":"チバケン","city":"木更津市","city_kana":"キサラヅシ","town":"戸国","town_kana":"トクニ","prefecture_code":12},"0035":{"zip_code":"2920035","prefecture":"千葉県","prefecture_kana":"チバケン","city":"木更津市","city_kana":"キサラヅシ","town":"中尾","town_kana":"ナカオ","prefecture_code":12},"0817":{"zip_code":"2920817","prefecture":"千葉県","prefecture_kana":"チバケン","city":"木更津市","city_kana":"キサラヅシ","town":"中烏田","town_kana":"ナカカラスダ","prefecture_code":12},"0064":{"zip_code":"2920064","prefecture":"千葉県","prefecture_kana":"チバケン","city":"木更津市","city_kana":"キサラヅシ","town":"中里","town_kana":"ナカザト","prefecture_code":12},"0008":{"zip_code":"2920008","prefecture":"千葉県","prefecture_kana":"チバケン","city":"木更津市","city_kana":"キサラヅシ","town":"中島","town_kana":"ナカジマ","prefecture_code":12},"0071":{"zip_code":"2920071","prefecture":"千葉県","prefecture_kana":"チバケン","city":"木更津市","city_kana":"キサラヅシ","town":"中島地先海ほたる","town_kana":"ナカジマチサキウミホタル","prefecture_code":12},"0002":{"zip_code":"2920002","prefecture":"千葉県","prefecture_kana":"チバケン","city":"木更津市","city_kana":"キサラヅシ","town":"中野","town_kana":"ナカノ","prefecture_code":12},"0839":{"zip_code":"2920839","prefecture":"千葉県","prefecture_kana":"チバケン","city":"木更津市","city_kana":"キサラヅシ","town":"中の島","town_kana":"ナカノシマ","prefecture_code":12},"0053":{"zip_code":"2920053","prefecture":"千葉県","prefecture_kana":"チバケン","city":"木更津市","city_kana":"キサラヅシ","town":"永井作","town_kana":"ナガイサク","prefecture_code":12},"0054":{"zip_code":"2920054","prefecture":"千葉県","prefecture_kana":"チバケン","city":"木更津市","city_kana":"キサラヅシ","town":"長須賀","town_kana":"ナガスカ","prefecture_code":12},"0062":{"zip_code":"2920062","prefecture":"千葉県","prefecture_kana":"チバケン","city":"木更津市","city_kana":"キサラヅシ","town":"西岩根","town_kana":"ニシイワネ","prefecture_code":12},"0216":{"zip_code":"2920216","prefecture":"千葉県","prefecture_kana":"チバケン","city":"木更津市","city_kana":"キサラヅシ","town":"根岸","town_kana":"ネギシ","prefecture_code":12},"0825":{"zip_code":"2920825","prefecture":"千葉県","prefecture_kana":"チバケン","city":"木更津市","city_kana":"キサラヅシ","town":"畑沢","town_kana":"ハタザワ","prefecture_code":12},"0826":{"zip_code":"2920826","prefecture":"千葉県","prefecture_kana":"チバケン","city":"木更津市","city_kana":"キサラヅシ","town":"畑沢南","town_kana":"ハタザワミナミ","prefecture_code":12},"0814":{"zip_code":"2920814","prefecture":"千葉県","prefecture_kana":"チバケン","city":"木更津市","city_kana":"キサラヅシ","town":"八幡台","town_kana":"ハチマンダイ","prefecture_code":12},"0819":{"zip_code":"2920819","prefecture":"千葉県","prefecture_kana":"チバケン","city":"木更津市","city_kana":"キサラヅシ","town":"羽鳥野","town_kana":"ハトリノ","prefecture_code":12},"0043":{"zip_code":"2920043","prefecture":"千葉県","prefecture_kana":"チバケン","city":"木更津市","city_kana":"キサラヅシ","town":"東太田","town_kana":"ヒガシオオダ","prefecture_code":12},"0057":{"zip_code":"2920057","prefecture":"千葉県","prefecture_kana":"チバケン","city":"木更津市","city_kana":"キサラヅシ","town":"東中央","town_kana":"ヒガシチュウオウ","prefecture_code":12},"0037":{"zip_code":"2920037","prefecture":"千葉県","prefecture_kana":"チバケン","city":"木更津市","city_kana":"キサラヅシ","town":"日の出町","town_kana":"ヒノデチョウ","prefecture_code":12},"0831":{"zip_code":"2920831","prefecture":"千葉県","prefecture_kana":"チバケン","city":"木更津市","city_kana":"キサラヅシ","town":"富士見","town_kana":"フジミ","prefecture_code":12},"0804":{"zip_code":"2920804","prefecture":"千葉県","prefecture_kana":"チバケン","city":"木更津市","city_kana":"キサラヅシ","town":"文京","town_kana":"ブンキョウ","prefecture_code":12},"0038":{"zip_code":"2920038","prefecture":"千葉県","prefecture_kana":"チバケン","city":"木更津市","city_kana":"キサラヅシ","town":"ほたる野","town_kana":"ホタルノ","prefecture_code":12},"0015":{"zip_code":"2920015","prefecture":"千葉県","prefecture_kana":"チバケン","city":"木更津市","city_kana":"キサラヅシ","town":"本郷","town_kana":"ホンゴウ","prefecture_code":12},"0802":{"zip_code":"2920802","prefecture":"千葉県","prefecture_kana":"チバケン","city":"木更津市","city_kana":"キサラヅシ","town":"真舟","town_kana":"マフネ","prefecture_code":12},"0212":{"zip_code":"2920212","prefecture":"千葉県","prefecture_kana":"チバケン","city":"木更津市","city_kana":"キサラヅシ","town":"真里","town_kana":"マリ","prefecture_code":12},"0201":{"zip_code":"2920201","prefecture":"千葉県","prefecture_kana":"チバケン","city":"木更津市","city_kana":"キサラヅシ","town":"真里谷","town_kana":"マリヤツ","prefecture_code":12},"0003":{"zip_code":"2920003","prefecture":"千葉県","prefecture_kana":"チバケン","city":"木更津市","city_kana":"キサラヅシ","town":"万石","town_kana":"マンゴク","prefecture_code":12},"0837":{"zip_code":"2920837","prefecture":"千葉県","prefecture_kana":"チバケン","city":"木更津市","city_kana":"キサラヅシ","town":"木材港","town_kana":"モクザイミナト","prefecture_code":12},"0812":{"zip_code":"2920812","prefecture":"千葉県","prefecture_kana":"チバケン","city":"木更津市","city_kana":"キサラヅシ","town":"矢那","town_kana":"ヤナ","prefecture_code":12},"0805":{"zip_code":"2920805","prefecture":"千葉県","prefecture_kana":"チバケン","city":"木更津市","city_kana":"キサラヅシ","town":"大和","town_kana":"ヤマト","prefecture_code":12},"0203":{"zip_code":"2920203","prefecture":"千葉県","prefecture_kana":"チバケン","city":"木更津市","city_kana":"キサラヅシ","town":"山本七曲","town_kana":"ヤマモトナナマガリ","prefecture_code":12},"0013":{"zip_code":"2920013","prefecture":"千葉県","prefecture_kana":"チバケン","city":"木更津市","city_kana":"キサラヅシ","town":"若葉町","town_kana":"ワカバチョウ","prefecture_code":12},"0454":{"zip_code":"2920454","prefecture":"千葉県","prefecture_kana":"チバケン","city":"君津市","city_kana":"キミツシ","town":"青柳","town_kana":"アオヤギ","prefecture_code":12},"0445":{"zip_code":"2920445","prefecture":"千葉県","prefecture_kana":"チバケン","city":"君津市","city_kana":"キミツシ","town":"愛宕","town_kana":"アタゴ","prefecture_code":12},"1153":{"zip_code":"2921153","prefecture":"千葉県","prefecture_kana":"チバケン","city":"君津市","city_kana":"キミツシ","town":"市宿","town_kana":"イチジュク","prefecture_code":12},"1145":{"zip_code":"2921145","prefecture":"千葉県","prefecture_kana":"チバケン","city":"君津市","city_kana":"キミツシ","town":"糸川","town_kana":"イトガワ","prefecture_code":12},"0433":{"zip_code":"2920433","prefecture":"千葉県","prefecture_kana":"チバケン","city":"君津市","city_kana":"キミツシ","town":"芋窪","town_kana":"イモクボ","prefecture_code":12},"0442":{"zip_code":"2920442","prefecture":"千葉県","prefecture_kana":"チバケン","city":"君津市","city_kana":"キミツシ","town":"岩出","town_kana":"イワデ","prefecture_code":12},"1166":{"zip_code":"2921166","prefecture":"千葉県","prefecture_kana":"チバケン","city":"君津市","city_kana":"キミツシ","town":"植畑","town_kana":"ウエハタ","prefecture_code":12},"0432":{"zip_code":"2920432","prefecture":"千葉県","prefecture_kana":"チバケン","city":"君津市","city_kana":"キミツシ","town":"浦田","town_kana":"ウラタ","prefecture_code":12},"1146":{"zip_code":"2921146","prefecture":"千葉県","prefecture_kana":"チバケン","city":"君津市","city_kana":"キミツシ","town":"大井戸","town_kana":"オオイド","prefecture_code":12},"1173":{"zip_code":"2921173","prefecture":"千葉県","prefecture_kana":"チバケン","city":"君津市","city_kana":"キミツシ","town":"大岩","town_kana":"オオイワ","prefecture_code":12},"0512":{"zip_code":"2920512","prefecture":"千葉県","prefecture_kana":"チバケン","city":"君津市","city_kana":"キミツシ","town":"大戸見","town_kana":"オオトミ","prefecture_code":12},"0514":{"zip_code":"2920514","prefecture":"千葉県","prefecture_kana":"チバケン","city":"君津市","city_kana":"キミツシ","town":"大戸見旧名殿","town_kana":"オオトミキュウナドノ","prefecture_code":12},"1151":{"zip_code":"2921151","prefecture":"千葉県","prefecture_kana":"チバケン","city":"君津市","city_kana":"キミツシ","town":"大野台","town_kana":"オオノダイ","prefecture_code":12},"1156":{"zip_code":"2921156","prefecture":"千葉県","prefecture_kana":"チバケン","city":"君津市","city_kana":"キミツシ","town":"荻作","town_kana":"オギサク","prefecture_code":12},"1175":{"zip_code":"2921175","prefecture":"千葉県","prefecture_kana":"チバケン","city":"君津市","city_kana":"キミツシ","town":"奥米","town_kana":"オクゴメ","prefecture_code":12},"0511":{"zip_code":"2920511","prefecture":"千葉県","prefecture_kana":"チバケン","city":"君津市","city_kana":"キミツシ","town":"大坂","town_kana":"オサカ","prefecture_code":12},"0412":{"zip_code":"2920412","prefecture":"千葉県","prefecture_kana":"チバケン","city":"君津市","city_kana":"キミツシ","town":"小櫃台","town_kana":"オビツダイ","prefecture_code":12},"0533":{"zip_code":"2920533","prefecture":"千葉県","prefecture_kana":"チバケン","city":"君津市","city_kana":"キミツシ","town":"折木沢","town_kana":"オリキサワ","prefecture_code":12},"0404":{"zip_code":"2920404","prefecture":"千葉県","prefecture_kana":"チバケン","city":"君津市","city_kana":"キミツシ","town":"賀恵渕","town_kana":"カエフチ","prefecture_code":12},"0527":{"zip_code":"2920527","prefecture":"千葉県","prefecture_kana":"チバケン","city":"君津市","city_kana":"キミツシ","town":"香木原","town_kana":"カギハラ","prefecture_code":12},"1149":{"zip_code":"2921149","prefecture":"千葉県","prefecture_kana":"チバケン","city":"君津市","city_kana":"キミツシ","town":"かずさ小糸","town_kana":"カズサコイト","prefecture_code":12},"0513":{"zip_code":"2920513","prefecture":"千葉県","prefecture_kana":"チバケン","city":"君津市","city_kana":"キミツシ","town":"加名盛","town_kana":"カナモリ","prefecture_code":12},"1155":{"zip_code":"2921155","prefecture":"千葉県","prefecture_kana":"チバケン","city":"君津市","city_kana":"キミツシ","town":"鹿野山","town_kana":"カノウザン","prefecture_code":12},"1158":{"zip_code":"2921158","prefecture":"千葉県","prefecture_kana":"チバケン","city":"君津市","city_kana":"キミツシ","town":"鎌滝","town_kana":"カマダキ","prefecture_code":12},"0452":{"zip_code":"2920452","prefecture":"千葉県","prefecture_kana":"チバケン","city":"君津市","city_kana":"キミツシ","town":"上新田","town_kana":"カミニッタ","prefecture_code":12},"0535":{"zip_code":"2920535","prefecture":"千葉県","prefecture_kana":"チバケン","city":"君津市","city_kana":"キミツシ","town":"釜生","town_kana":"カモウ","prefecture_code":12},"0524":{"zip_code":"2920524","prefecture":"千葉県","prefecture_kana":"チバケン","city":"君津市","city_kana":"キミツシ","town":"川俣","town_kana":"カワマタ","prefecture_code":12},"0415":{"zip_code":"2920415","prefecture":"千葉県","prefecture_kana":"チバケン","city":"君津市","city_kana":"キミツシ","town":"川谷","town_kana":"カワヤツ","prefecture_code":12},"1148":{"zip_code":"2921148","prefecture":"千葉県","prefecture_kana":"チバケン","city":"君津市","city_kana":"キミツシ","town":"行馬","town_kana":"ギョウマ","prefecture_code":12},"0537":{"zip_code":"2920537","prefecture":"千葉県","prefecture_kana":"チバケン","city":"君津市","city_kana":"キミツシ","town":"黄和田畑","town_kana":"キワダハタ","prefecture_code":12},"0525":{"zip_code":"2920525","prefecture":"千葉県","prefecture_kana":"チバケン","city":"君津市","city_kana":"キミツシ","town":"草川原","town_kana":"クサガワラ","prefecture_code":12},"0536":{"zip_code":"2920536","prefecture":"千葉県","prefecture_kana":"チバケン","city":"君津市","city_kana":"キミツシ","town":"蔵玉","town_kana":"クラダマ","prefecture_code":12},"0435":{"zip_code":"2920435","prefecture":"千葉県","prefecture_kana":"チバケン","city":"君津市","city_kana":"キミツシ","town":"栗坪","town_kana":"クリツボ","prefecture_code":12},"0422":{"zip_code":"2920422","prefecture":"千葉県","prefecture_kana":"チバケン","city":"君津市","city_kana":"キミツシ","town":"久留里","town_kana":"クルリ","prefecture_code":12},"0421":{"zip_code":"2920421","prefecture":"千葉県","prefecture_kana":"チバケン","city":"君津市","city_kana":"キミツシ","town":"久留里市場","town_kana":"クルリイチバ","prefecture_code":12},"0414":{"zip_code":"2920414","prefecture":"千葉県","prefecture_kana":"チバケン","city":"君津市","city_kana":"キミツシ","town":"久留里大谷","town_kana":"クルリオオヤツ","prefecture_code":12},"0423":{"zip_code":"2920423","prefecture":"千葉県","prefecture_kana":"チバケン","city":"君津市","city_kana":"キミツシ","town":"久留里大和田","town_kana":"クルリオオワダ","prefecture_code":12},"0416":{"zip_code":"2920416","prefecture":"千葉県","prefecture_kana":"チバケン","city":"君津市","city_kana":"キミツシ","town":"小市部","town_kana":"コイチブ","prefecture_code":12},"1142":{"zip_code":"2921142","prefecture":"千葉県","prefecture_kana":"チバケン","city":"君津市","city_kana":"キミツシ","town":"小糸大谷","town_kana":"コイトオオヤツ","prefecture_code":12},"0532":{"zip_code":"2920532","prefecture":"千葉県","prefecture_kana":"チバケン","city":"君津市","city_kana":"キミツシ","town":"坂畑","town_kana":"サカハタ","prefecture_code":12},"0526":{"zip_code":"2920526","prefecture":"千葉県","prefecture_kana":"チバケン","city":"君津市","city_kana":"キミツシ","town":"笹","town_kana":"ササ","prefecture_code":12},"0403":{"zip_code":"2920403","prefecture":"千葉県","prefecture_kana":"チバケン","city":"君津市","city_kana":"キミツシ","town":"三田","town_kana":"サンダ","prefecture_code":12},"1176":{"zip_code":"2921176","prefecture":"千葉県","prefecture_kana":"チバケン","city":"君津市","city_kana":"キミツシ","town":"宿原","town_kana":"シュクバラ","prefecture_code":12},"0451":{"zip_code":"2920451","prefecture":"千葉県","prefecture_kana":"チバケン","city":"君津市","city_kana":"キミツシ","town":"末吉","town_kana":"スエヨシ","prefecture_code":12},"1154":{"zip_code":"2921154","prefecture":"千葉県","prefecture_kana":"チバケン","city":"君津市","city_kana":"キミツシ","town":"清和市場","town_kana":"セイワイチバ","prefecture_code":12},"0522":{"zip_code":"2920522","prefecture":"千葉県","prefecture_kana":"チバケン","city":"君津市","city_kana":"キミツシ","town":"大中","town_kana":"ダイナカ","prefecture_code":12},"0516":{"zip_code":"2920516","prefecture":"千葉県","prefecture_kana":"チバケン","city":"君津市","city_kana":"キミツシ","town":"高水","town_kana":"タカミズ","prefecture_code":12},"0534":{"zip_code":"2920534","prefecture":"千葉県","prefecture_kana":"チバケン","city":"君津市","city_kana":"キミツシ","town":"滝原","town_kana":"タキハラ","prefecture_code":12},"1178":{"zip_code":"2921178","prefecture":"千葉県","prefecture_kana":"チバケン","city":"君津市","city_kana":"キミツシ","town":"旅名","town_kana":"タビナ","prefecture_code":12},"0455":{"zip_code":"2920455","prefecture":"千葉県","prefecture_kana":"チバケン","city":"君津市","city_kana":"キミツシ","town":"俵田","town_kana":"タワラダ","prefecture_code":12},"1147":{"zip_code":"2921147","prefecture":"千葉県","prefecture_kana":"チバケン","city":"君津市","city_kana":"キミツシ","town":"塚原","town_kana":"ツカハラ","prefecture_code":12},"1172":{"zip_code":"2921172","prefecture":"千葉県","prefecture_kana":"チバケン","city":"君津市","city_kana":"キミツシ","town":"辻森","town_kana":"ツジモリ","prefecture_code":12},"0443":{"zip_code":"2920443","prefecture":"千葉県","prefecture_kana":"チバケン","city":"君津市","city_kana":"キミツシ","town":"寺沢","town_kana":"テラザワ","prefecture_code":12},"0441":{"zip_code":"2920441","prefecture":"千葉県","prefecture_kana":"チバケン","city":"君津市","city_kana":"キミツシ","town":"戸崎","town_kana":"トザキ","prefecture_code":12},"0521":{"zip_code":"2920521","prefecture":"千葉県","prefecture_kana":"チバケン","city":"君津市","city_kana":"キミツシ","town":"利根","town_kana":"トネ","prefecture_code":12},"0444":{"zip_code":"2920444","prefecture":"千葉県","prefecture_kana":"チバケン","city":"君津市","city_kana":"キミツシ","town":"富田","town_kana":"トミダ","prefecture_code":12},"0523":{"zip_code":"2920523","prefecture":"千葉県","prefecture_kana":"チバケン","city":"君津市","city_kana":"キミツシ","town":"豊田","town_kana":"トヨダ","prefecture_code":12},"1179":{"zip_code":"2921179","prefecture":"千葉県","prefecture_kana":"チバケン","city":"君津市","city_kana":"キミツシ","town":"豊英","town_kana":"トヨフサ","prefecture_code":12},"1143":{"zip_code":"2921143","prefecture":"千葉県","prefecture_kana":"チバケン","city":"君津市","city_kana":"キミツシ","town":"長石","town_kana":"ナガシ","prefecture_code":12},"1168":{"zip_code":"2921168","prefecture":"千葉県","prefecture_kana":"チバケン","city":"君津市","city_kana":"キミツシ","town":"西粟倉","town_kana":"ニシアワグラ","prefecture_code":12},"1162":{"zip_code":"2921162","prefecture":"千葉県","prefecture_kana":"チバケン","city":"君津市","city_kana":"キミツシ","town":"西猪原","town_kana":"ニシイノハラ","prefecture_code":12},"0402":{"zip_code":"2920402","prefecture":"千葉県","prefecture_kana":"チバケン","city":"君津市","city_kana":"キミツシ","town":"西原","town_kana":"ニシバラ","prefecture_code":12},"1165":{"zip_code":"2921165","prefecture":"千葉県","prefecture_kana":"チバケン","city":"君津市","city_kana":"キミツシ","town":"西日笠","town_kana":"ニシヒカサ","prefecture_code":12},"1152":{"zip_code":"2921152","prefecture":"千葉県","prefecture_kana":"チバケン","city":"君津市","city_kana":"キミツシ","town":"日渡根","town_kana":"ニットネ","prefecture_code":12},"1140":{"zip_code":"2921140","prefecture":"千葉県","prefecture_kana":"チバケン","city":"君津市","city_kana":"キミツシ","town":"糠田飛地","town_kana":"ヌカタトビチ","prefecture_code":12},"1177":{"zip_code":"2921177","prefecture":"千葉県","prefecture_kana":"チバケン","city":"君津市","city_kana":"キミツシ","town":"怒田沢","town_kana":"ヌタザワ","prefecture_code":12},"0431":{"zip_code":"2920431","prefecture":"千葉県","prefecture_kana":"チバケン","city":"君津市","city_kana":"キミツシ","town":"怒田","town_kana":"ヌダ","prefecture_code":12},"1141":{"zip_code":"2921141","prefecture":"千葉県","prefecture_kana":"チバケン","city":"君津市","city_kana":"キミツシ","town":"根本","town_kana":"ネモト","prefecture_code":12},"0411":{"zip_code":"2920411","prefecture":"千葉県","prefecture_kana":"チバケン","city":"君津市","city_kana":"キミツシ","town":"長谷川","town_kana":"ハセガワ","prefecture_code":12},"1163":{"zip_code":"2921163","prefecture":"千葉県","prefecture_kana":"チバケン","city":"君津市","city_kana":"キミツシ","town":"東粟倉","town_kana":"ヒガシアワグラ","prefecture_code":12},"1161":{"zip_code":"2921161","prefecture":"千葉県","prefecture_kana":"チバケン","city":"君津市","city_kana":"キミツシ","town":"東猪原","town_kana":"ヒガシイノハラ","prefecture_code":12},"1164":{"zip_code":"2921164","prefecture":"千葉県","prefecture_kana":"チバケン","city":"君津市","city_kana":"キミツシ","town":"東日笠","town_kana":"ヒガシヒカサ","prefecture_code":12},"1167":{"zip_code":"2921167","prefecture":"千葉県","prefecture_kana":"チバケン","city":"君津市","city_kana":"キミツシ","town":"平田","town_kana":"ヒラッタ","prefecture_code":12},"0502":{"zip_code":"2920502","prefecture":"千葉県","prefecture_kana":"チバケン","city":"君津市","city_kana":"キミツシ","town":"平山","town_kana":"ヒラヤマ","prefecture_code":12},"0503":{"zip_code":"2920503","prefecture":"千葉県","prefecture_kana":"チバケン","city":"君津市","city_kana":"キミツシ","town":"広岡","town_kana":"ヒロオカ","prefecture_code":12},"1157":{"zip_code":"2921157","prefecture":"千葉県","prefecture_kana":"チバケン","city":"君津市","city_kana":"キミツシ","town":"福岡","town_kana":"フクオカ","prefecture_code":12},"0531":{"zip_code":"2920531","prefecture":"千葉県","prefecture_kana":"チバケン","city":"君津市","city_kana":"キミツシ","town":"藤林","town_kana":"フジバヤシ","prefecture_code":12},"1171":{"zip_code":"2921171","prefecture":"千葉県","prefecture_kana":"チバケン","city":"君津市","city_kana":"キミツシ","town":"二入","town_kana":"フタイリ","prefecture_code":12},"1144":{"zip_code":"2921144","prefecture":"千葉県","prefecture_kana":"チバケン","city":"君津市","city_kana":"キミツシ","town":"法木","town_kana":"ホウギ","prefecture_code":12},"1174":{"zip_code":"2921174","prefecture":"千葉県","prefecture_kana":"チバケン","city":"君津市","city_kana":"キミツシ","town":"正木","town_kana":"マサキ","prefecture_code":12},"0453":{"zip_code":"2920453","prefecture":"千葉県","prefecture_kana":"チバケン","city":"君津市","city_kana":"キミツシ","town":"箕輪","town_kana":"ミノワ","prefecture_code":12},"0434":{"zip_code":"2920434","prefecture":"千葉県","prefecture_kana":"チバケン","city":"君津市","city_kana":"キミツシ","town":"向郷","town_kana":"ムカイゴウ","prefecture_code":12},"0515":{"zip_code":"2920515","prefecture":"千葉県","prefecture_kana":"チバケン","city":"君津市","city_kana":"キミツシ","town":"柳城","town_kana":"ヤナシロ","prefecture_code":12},"0501":{"zip_code":"2920501","prefecture":"千葉県","prefecture_kana":"チバケン","city":"君津市","city_kana":"キミツシ","town":"山滝野","town_kana":"ヤマタキノ","prefecture_code":12},"0401":{"zip_code":"2920401","prefecture":"千葉県","prefecture_kana":"チバケン","city":"君津市","city_kana":"キミツシ","town":"山本","town_kana":"ヤマモト","prefecture_code":12},"0413":{"zip_code":"2920413","prefecture":"千葉県","prefecture_kana":"チバケン","city":"君津市","city_kana":"キミツシ","town":"吉野","town_kana":"ヨシノ","prefecture_code":12}}