{"0000":{"zip_code":"2940000","prefecture":"千葉県","prefecture_kana":"チバケン","city":"館山市","city_kana":"タテヤマシ","town":"","town_kana":"","prefecture_code":12},"0235":{"zip_code":"2940235","prefecture":"千葉県","prefecture_kana":"チバケン","city":"館山市","city_kana":"タテヤマシ","town":"相浜","town_kana":"アイハマ","prefecture_code":12},"0043":{"zip_code":"2940043","prefecture":"千葉県","prefecture_kana":"チバケン","city":"館山市","city_kana":"タテヤマシ","town":"安布里","town_kana":"アブリ","prefecture_code":12},"0005":{"zip_code":"2940005","prefecture":"千葉県","prefecture_kana":"チバケン","city":"館山市","city_kana":"タテヤマシ","town":"安東","town_kana":"アンドウ","prefecture_code":12},"0016":{"zip_code":"2940016","prefecture":"千葉県","prefecture_kana":"チバケン","city":"館山市","city_kana":"タテヤマシ","town":"飯沼","town_kana":"イイヌマ","prefecture_code":12},"0026":{"zip_code":"2940026","prefecture":"千葉県","prefecture_kana":"チバケン","city":"館山市","city_kana":"タテヤマシ","town":"出野尾","town_kana":"イデノオ","prefecture_code":12},"0314":{"zip_code":"2940314","prefecture":"千葉県","prefecture_kana":"チバケン","city":"館山市","city_kana":"タテヤマシ","town":"伊戸","town_kana":"イト","prefecture_code":12},"0012":{"zip_code":"2940012","prefecture":"千葉県","prefecture_kana":"チバケン","city":"館山市","city_kana":"タテヤマシ","town":"稲","town_kana":"イナ","prefecture_code":12},"0226":{"zip_code":"2940226","prefecture":"千葉県","prefecture_kana":"チバケン","city":"館山市","city_kana":"タテヤマシ","town":"犬石","town_kana":"イヌイシ","prefecture_code":12},"0042":{"zip_code":"2940042","prefecture":"千葉県","prefecture_kana":"チバケン","city":"館山市","city_kana":"タテヤマシ","town":"上野原","town_kana":"ウエノハラ","prefecture_code":12},"0009":{"zip_code":"2940009","prefecture":"千葉県","prefecture_kana":"チバケン","city":"館山市","city_kana":"タテヤマシ","town":"江田","town_kana":"エダ","prefecture_code":12},"0044":{"zip_code":"2940044","prefecture":"千葉県","prefecture_kana":"チバケン","city":"館山市","city_kana":"タテヤマシ","town":"大網","town_kana":"オオアミ","prefecture_code":12},"0002":{"zip_code":"2940002","prefecture":"千葉県","prefecture_kana":"チバケン","city":"館山市","city_kana":"タテヤマシ","town":"大井","town_kana":"オオイ","prefecture_code":12},"0031":{"zip_code":"2940031","prefecture":"千葉県","prefecture_kana":"チバケン","city":"館山市","city_kana":"タテヤマシ","town":"大賀","town_kana":"オオカ","prefecture_code":12},"0025":{"zip_code":"2940025","prefecture":"千葉県","prefecture_kana":"チバケン","city":"館山市","city_kana":"タテヤマシ","town":"大戸","town_kana":"オオト","prefecture_code":12},"0024":{"zip_code":"2940024","prefecture":"千葉県","prefecture_kana":"チバケン","city":"館山市","city_kana":"タテヤマシ","town":"岡田","town_kana":"オカダ","prefecture_code":12},"0306":{"zip_code":"2940306","prefecture":"千葉県","prefecture_kana":"チバケン","city":"館山市","city_kana":"タテヤマシ","town":"加賀名","town_kana":"カガナ","prefecture_code":12},"0032":{"zip_code":"2940032","prefecture":"千葉県","prefecture_kana":"チバケン","city":"館山市","city_kana":"タテヤマシ","town":"笠名","town_kana":"カサナ","prefecture_code":12},"0023":{"zip_code":"2940023","prefecture":"千葉県","prefecture_kana":"チバケン","city":"館山市","city_kana":"タテヤマシ","town":"神余","town_kana":"カナマリ","prefecture_code":12},"0038":{"zip_code":"2940038","prefecture":"千葉県","prefecture_kana":"チバケン","city":"館山市","city_kana":"タテヤマシ","town":"上真倉","town_kana":"カミサナグラ","prefecture_code":12},"0052":{"zip_code":"2940052","prefecture":"千葉県","prefecture_kana":"チバケン","city":"館山市","city_kana":"タテヤマシ","town":"亀ケ原","town_kana":"カメガハラ","prefecture_code":12},"0057":{"zip_code":"2940057","prefecture":"千葉県","prefecture_kana":"チバケン","city":"館山市","city_kana":"タテヤマシ","town":"川名","town_kana":"カワナ","prefecture_code":12},"0305":{"zip_code":"2940305","prefecture":"千葉県","prefecture_kana":"チバケン","city":"館山市","city_kana":"タテヤマシ","town":"見物","town_kana":"ケンブツ","prefecture_code":12},"0301":{"zip_code":"2940301","prefecture":"千葉県","prefecture_kana":"チバケン","city":"館山市","city_kana":"タテヤマシ","town":"香","town_kana":"コウヤツ","prefecture_code":12},"0018":{"zip_code":"2940018","prefecture":"千葉県","prefecture_kana":"チバケン","city":"館山市","city_kana":"タテヤマシ","town":"国分","town_kana":"コクブ","prefecture_code":12},"0007":{"zip_code":"2940007","prefecture":"千葉県","prefecture_kana":"チバケン","city":"館山市","city_kana":"タテヤマシ","town":"腰越","town_kana":"コシゴエ","prefecture_code":12},"0312":{"zip_code":"2940312","prefecture":"千葉県","prefecture_kana":"チバケン","city":"館山市","city_kana":"タテヤマシ","town":"小沼","town_kana":"コヌマ","prefecture_code":12},"0058":{"zip_code":"2940058","prefecture":"千葉県","prefecture_kana":"チバケン","city":"館山市","city_kana":"タテヤマシ","town":"小原","town_kana":"コバラ","prefecture_code":12},"0015":{"zip_code":"2940015","prefecture":"千葉県","prefecture_kana":"チバケン","city":"館山市","city_kana":"タテヤマシ","town":"古茂口","town_kana":"コモグチ","prefecture_code":12},"0311":{"zip_code":"2940311","prefecture":"千葉県","prefecture_kana":"チバケン","city":"館山市","city_kana":"タテヤマシ","town":"坂井","town_kana":"サカイ","prefecture_code":12},"0313":{"zip_code":"2940313","prefecture":"千葉県","prefecture_kana":"チバケン","city":"館山市","city_kana":"タテヤマシ","town":"坂足","town_kana":"サカダル","prefecture_code":12},"0029":{"zip_code":"2940029","prefecture":"千葉県","prefecture_kana":"チバケン","city":"館山市","city_kana":"タテヤマシ","town":"作名","town_kana":"サクナ","prefecture_code":12},"0225":{"zip_code":"2940225","prefecture":"千葉県","prefecture_kana":"チバケン","city":"館山市","city_kana":"タテヤマシ","town":"佐野","town_kana":"サノ","prefecture_code":12},"0302":{"zip_code":"2940302","prefecture":"千葉県","prefecture_kana":"チバケン","city":"館山市","city_kana":"タテヤマシ","town":"塩見","town_kana":"シオミ","prefecture_code":12},"0048":{"zip_code":"2940048","prefecture":"千葉県","prefecture_kana":"チバケン","city":"館山市","city_kana":"タテヤマシ","town":"下真倉","town_kana":"シモサナグラ","prefecture_code":12},"0046":{"zip_code":"2940046","prefecture":"千葉県","prefecture_kana":"チバケン","city":"館山市","city_kana":"タテヤマシ","town":"新宿","town_kana":"シンジュク","prefecture_code":12},"0316":{"zip_code":"2940316","prefecture":"千葉県","prefecture_kana":"チバケン","city":"館山市","city_kana":"タテヤマシ","town":"洲崎","town_kana":"スノサキ","prefecture_code":12},"0223":{"zip_code":"2940223","prefecture":"千葉県","prefecture_kana":"チバケン","city":"館山市","city_kana":"タテヤマシ","town":"洲宮","town_kana":"スノミヤ","prefecture_code":12},"0006":{"zip_code":"2940006","prefecture":"千葉県","prefecture_kana":"チバケン","city":"館山市","city_kana":"タテヤマシ","town":"薗","town_kana":"ソノ","prefecture_code":12},"0233":{"zip_code":"2940233","prefecture":"千葉県","prefecture_kana":"チバケン","city":"館山市","city_kana":"タテヤマシ","town":"大神宮","town_kana":"ダイジングウ","prefecture_code":12},"0041":{"zip_code":"2940041","prefecture":"千葉県","prefecture_kana":"チバケン","city":"館山市","city_kana":"タテヤマシ","town":"高井","town_kana":"タカイ","prefecture_code":12},"0001":{"zip_code":"2940001","prefecture":"千葉県","prefecture_kana":"チバケン","city":"館山市","city_kana":"タテヤマシ","town":"竹原","town_kana":"タケワラ","prefecture_code":12},"0036":{"zip_code":"2940036","prefecture":"千葉県","prefecture_kana":"チバケン","city":"館山市","city_kana":"タテヤマシ","town":"館山","town_kana":"タテヤマ","prefecture_code":12},"0231":{"zip_code":"2940231","prefecture":"千葉県","prefecture_kana":"チバケン","city":"館山市","city_kana":"タテヤマシ","town":"中里","town_kana":"ナカザト","prefecture_code":12},"0037":{"zip_code":"2940037","prefecture":"千葉県","prefecture_kana":"チバケン","city":"館山市","city_kana":"タテヤマシ","town":"長須賀","town_kana":"ナガスカ","prefecture_code":12},"0055":{"zip_code":"2940055","prefecture":"千葉県","prefecture_kana":"チバケン","city":"館山市","city_kana":"タテヤマシ","town":"那古","town_kana":"ナゴ","prefecture_code":12},"0017":{"zip_code":"2940017","prefecture":"千葉県","prefecture_kana":"チバケン","city":"館山市","city_kana":"タテヤマシ","town":"南条","town_kana":"ナンジョウ","prefecture_code":12},"0315":{"zip_code":"2940315","prefecture":"千葉県","prefecture_kana":"チバケン","city":"館山市","city_kana":"タテヤマシ","town":"西川名","town_kana":"ニシカワナ","prefecture_code":12},"0027":{"zip_code":"2940027","prefecture":"千葉県","prefecture_kana":"チバケン","city":"館山市","city_kana":"タテヤマシ","town":"西長田","town_kana":"ニシナガタ","prefecture_code":12},"0034":{"zip_code":"2940034","prefecture":"千葉県","prefecture_kana":"チバケン","city":"館山市","city_kana":"タテヤマシ","town":"沼","town_kana":"ヌマ","prefecture_code":12},"0307":{"zip_code":"2940307","prefecture":"千葉県","prefecture_kana":"チバケン","city":"館山市","city_kana":"タテヤマシ","town":"波左間","town_kana":"ハサマ","prefecture_code":12},"0022":{"zip_code":"2940022","prefecture":"千葉県","prefecture_kana":"チバケン","city":"館山市","city_kana":"タテヤマシ","town":"畑","town_kana":"ハタ","prefecture_code":12},"0303":{"zip_code":"2940303","prefecture":"千葉県","prefecture_kana":"チバケン","city":"館山市","city_kana":"タテヤマシ","town":"浜田","town_kana":"ハマダ","prefecture_code":12},"0304":{"zip_code":"2940304","prefecture":"千葉県","prefecture_kana":"チバケン","city":"館山市","city_kana":"タテヤマシ","town":"早物","town_kana":"ハヤブツ","prefecture_code":12},"0308":{"zip_code":"2940308","prefecture":"千葉県","prefecture_kana":"チバケン","city":"館山市","city_kana":"タテヤマシ","town":"坂田","town_kana":"バンダ","prefecture_code":12},"0028":{"zip_code":"2940028","prefecture":"千葉県","prefecture_kana":"チバケン","city":"館山市","city_kana":"タテヤマシ","town":"東長田","town_kana":"ヒガシナガタ","prefecture_code":12},"0008":{"zip_code":"2940008","prefecture":"千葉県","prefecture_kana":"チバケン","city":"館山市","city_kana":"タテヤマシ","town":"広瀬","town_kana":"ヒロセ","prefecture_code":12},"0035":{"zip_code":"2940035","prefecture":"千葉県","prefecture_kana":"チバケン","city":"館山市","city_kana":"タテヤマシ","town":"富士見","town_kana":"フジミ","prefecture_code":12},"0224":{"zip_code":"2940224","prefecture":"千葉県","prefecture_kana":"チバケン","city":"館山市","city_kana":"タテヤマシ","town":"藤原","town_kana":"フジワラ","prefecture_code":12},"0011":{"zip_code":"2940011","prefecture":"千葉県","prefecture_kana":"チバケン","city":"館山市","city_kana":"タテヤマシ","town":"二子","town_kana":"フタゴ","prefecture_code":12},"0056":{"zip_code":"2940056","prefecture":"千葉県","prefecture_kana":"チバケン","city":"館山市","city_kana":"タテヤマシ","town":"船形","town_kana":"フナカタ","prefecture_code":12},"0013":{"zip_code":"2940013","prefecture":"千葉県","prefecture_kana":"チバケン","city":"館山市","city_kana":"タテヤマシ","town":"宝貝","town_kana":"ホウガイ","prefecture_code":12},"0045":{"zip_code":"2940045","prefecture":"千葉県","prefecture_kana":"チバケン","city":"館山市","city_kana":"タテヤマシ","town":"北条","town_kana":"ホウジョウ","prefecture_code":12},"0053":{"zip_code":"2940053","prefecture":"千葉県","prefecture_kana":"チバケン","city":"館山市","city_kana":"タテヤマシ","town":"北条正木","town_kana":"ホウジョウマサキ","prefecture_code":12},"0051":{"zip_code":"2940051","prefecture":"千葉県","prefecture_kana":"チバケン","city":"館山市","city_kana":"タテヤマシ","town":"正木","town_kana":"マサキ","prefecture_code":12},"0004":{"zip_code":"2940004","prefecture":"千葉県","prefecture_kana":"チバケン","city":"館山市","city_kana":"タテヤマシ","town":"水岡","town_kana":"ミズオカ","prefecture_code":12},"0003":{"zip_code":"2940003","prefecture":"千葉県","prefecture_kana":"チバケン","city":"館山市","city_kana":"タテヤマシ","town":"水玉","town_kana":"ミズタマ","prefecture_code":12},"0054":{"zip_code":"2940054","prefecture":"千葉県","prefecture_kana":"チバケン","city":"館山市","city_kana":"タテヤマシ","town":"湊","town_kana":"ミナト","prefecture_code":12},"0033":{"zip_code":"2940033","prefecture":"千葉県","prefecture_kana":"チバケン","city":"館山市","city_kana":"タテヤマシ","town":"宮城","town_kana":"ミヤギ","prefecture_code":12},"0221":{"zip_code":"2940221","prefecture":"千葉県","prefecture_kana":"チバケン","city":"館山市","city_kana":"タテヤマシ","town":"布沼","town_kana":"メヌマ","prefecture_code":12},"0234":{"zip_code":"2940234","prefecture":"千葉県","prefecture_kana":"チバケン","city":"館山市","city_kana":"タテヤマシ","town":"布良","town_kana":"メラ","prefecture_code":12},"0222":{"zip_code":"2940222","prefecture":"千葉県","prefecture_kana":"チバケン","city":"館山市","city_kana":"タテヤマシ","town":"茂名","town_kana":"モナ","prefecture_code":12},"0014":{"zip_code":"2940014","prefecture":"千葉県","prefecture_kana":"チバケン","city":"館山市","city_kana":"タテヤマシ","town":"山本","town_kana":"ヤマモト","prefecture_code":12},"0021":{"zip_code":"2940021","prefecture":"千葉県","prefecture_kana":"チバケン","city":"館山市","city_kana":"タテヤマシ","town":"山荻","town_kana":"ヤモオギ","prefecture_code":12},"0047":{"zip_code":"2940047","prefecture":"千葉県","prefecture_kana":"チバケン","city":"館山市","city_kana":"タテヤマシ","town":"八幡","town_kana":"ヤワタ","prefecture_code":12},"0232":{"zip_code":"2940232","prefecture":"千葉県","prefecture_kana":"チバケン","city":"館山市","city_kana":"タテヤマシ","town":"竜岡","town_kana":"リュウオカ","prefecture_code":12},"0821":{"zip_code":"2940821","prefecture":"千葉県","prefecture_kana":"チバケン","city":"南房総市","city_kana":"ミナミボウソウシ","town":"明石","town_kana":"アカシ","prefecture_code":12},"0812":{"zip_code":"2940812","prefecture":"千葉県","prefecture_kana":"チバケン","city":"南房総市","city_kana":"ミナミボウソウシ","town":"池之内","town_kana":"イケノウチ","prefecture_code":12},"0804":{"zip_code":"2940804","prefecture":"千葉県","prefecture_kana":"チバケン","city":"南房総市","city_kana":"ミナミボウソウシ","town":"海老敷","town_kana":"エビシキ","prefecture_code":12},"0817":{"zip_code":"2940817","prefecture":"千葉県","prefecture_kana":"チバケン","city":"南房総市","city_kana":"ミナミボウソウシ","town":"大学口","town_kana":"オオガクチ","prefecture_code":12},"0806":{"zip_code":"2940806","prefecture":"千葉県","prefecture_kana":"チバケン","city":"南房総市","city_kana":"ミナミボウソウシ","town":"上滝田","town_kana":"カミタキダ","prefecture_code":12},"0825":{"zip_code":"2940825","prefecture":"千葉県","prefecture_kana":"チバケン","city":"南房総市","city_kana":"ミナミボウソウシ","town":"上堀","town_kana":"カミホリ","prefecture_code":12},"0814":{"zip_code":"2940814","prefecture":"千葉県","prefecture_kana":"チバケン","city":"南房総市","city_kana":"ミナミボウソウシ","town":"川田","town_kana":"カワタ","prefecture_code":12},"0805":{"zip_code":"2940805","prefecture":"千葉県","prefecture_kana":"チバケン","city":"南房総市","city_kana":"ミナミボウソウシ","town":"下滝田","town_kana":"シモタキダ","prefecture_code":12},"0824":{"zip_code":"2940824","prefecture":"千葉県","prefecture_kana":"チバケン","city":"南房総市","city_kana":"ミナミボウソウシ","town":"下堀","town_kana":"シモホリ","prefecture_code":12},"0815":{"zip_code":"2940815","prefecture":"千葉県","prefecture_kana":"チバケン","city":"南房総市","city_kana":"ミナミボウソウシ","town":"千代","town_kana":"センダイ","prefecture_code":12},"0811":{"zip_code":"2940811","prefecture":"千葉県","prefecture_kana":"チバケン","city":"南房総市","city_kana":"ミナミボウソウシ","town":"中","town_kana":"ナカ","prefecture_code":12},"0823":{"zip_code":"2940823","prefecture":"千葉県","prefecture_kana":"チバケン","city":"南房総市","city_kana":"ミナミボウソウシ","town":"府中","town_kana":"フチュウ","prefecture_code":12},"0801":{"zip_code":"2940801","prefecture":"千葉県","prefecture_kana":"チバケン","city":"南房総市","city_kana":"ミナミボウソウシ","town":"増間","town_kana":"マスマ","prefecture_code":12},"0826":{"zip_code":"2940826","prefecture":"千葉県","prefecture_kana":"チバケン","city":"南房総市","city_kana":"ミナミボウソウシ","town":"三坂","town_kana":"ミサカ","prefecture_code":12},"0803":{"zip_code":"2940803","prefecture":"千葉県","prefecture_kana":"チバケン","city":"南房総市","city_kana":"ミナミボウソウシ","town":"御庄","town_kana":"ミショウ","prefecture_code":12},"0822":{"zip_code":"2940822","prefecture":"千葉県","prefecture_kana":"チバケン","city":"南房総市","city_kana":"ミナミボウソウシ","town":"本織","town_kana":"モトオリ","prefecture_code":12},"0816":{"zip_code":"2940816","prefecture":"千葉県","prefecture_kana":"チバケン","city":"南房総市","city_kana":"ミナミボウソウシ","town":"山下","town_kana":"ヤマシタ","prefecture_code":12},"0802":{"zip_code":"2940802","prefecture":"千葉県","prefecture_kana":"チバケン","city":"南房総市","city_kana":"ミナミボウソウシ","town":"山名","town_kana":"ヤマナ","prefecture_code":12},"0813":{"zip_code":"2940813","prefecture":"千葉県","prefecture_kana":"チバケン","city":"南房総市","city_kana":"ミナミボウソウシ","town":"谷向","town_kana":"ヤムカイ","prefecture_code":12}}