{"0101":{"zip_code":"2950101","prefecture":"千葉県","prefecture_kana":"チバケン","city":"南房総市","city_kana":"ミナミボウソウシ","town":"白浜町乙浜","town_kana":"シラハマチョウオトハマ","prefecture_code":12},"0102":{"zip_code":"2950102","prefecture":"千葉県","prefecture_kana":"チバケン","city":"南房総市","city_kana":"ミナミボウソウシ","town":"白浜町白浜","town_kana":"シラハマチョウシラハマ","prefecture_code":12},"0103":{"zip_code":"2950103","prefecture":"千葉県","prefecture_kana":"チバケン","city":"南房総市","city_kana":"ミナミボウソウシ","town":"白浜町滝口","town_kana":"シラハマチョウタキグチ","prefecture_code":12},"0104":{"zip_code":"2950104","prefecture":"千葉県","prefecture_kana":"チバケン","city":"南房総市","city_kana":"ミナミボウソウシ","town":"白浜町根本","town_kana":"シラハマチョウネモト","prefecture_code":12},"0006":{"zip_code":"2950006","prefecture":"千葉県","prefecture_kana":"チバケン","city":"南房総市","city_kana":"ミナミボウソウシ","town":"千倉町宇田","town_kana":"チクラチョウウダ","prefecture_code":12},"0026":{"zip_code":"2950026","prefecture":"千葉県","prefecture_kana":"チバケン","city":"南房総市","city_kana":"ミナミボウソウシ","town":"千倉町大川","town_kana":"チクラチョウオオカワ","prefecture_code":12},"0013":{"zip_code":"2950013","prefecture":"千葉県","prefecture_kana":"チバケン","city":"南房総市","city_kana":"ミナミボウソウシ","town":"千倉町大貫","town_kana":"チクラチョウオオヌキ","prefecture_code":12},"0002":{"zip_code":"2950002","prefecture":"千葉県","prefecture_kana":"チバケン","city":"南房総市","city_kana":"ミナミボウソウシ","town":"千倉町川合","town_kana":"チクラチョウカワイ","prefecture_code":12},"0023":{"zip_code":"2950023","prefecture":"千葉県","prefecture_kana":"チバケン","city":"南房総市","city_kana":"ミナミボウソウシ","town":"千倉町川口","town_kana":"チクラチョウカワグチ","prefecture_code":12},"0014":{"zip_code":"2950014","prefecture":"千葉県","prefecture_kana":"チバケン","city":"南房総市","city_kana":"ミナミボウソウシ","town":"千倉町川戸","town_kana":"チクラチョウカワト","prefecture_code":12},"0011":{"zip_code":"2950011","prefecture":"千葉県","prefecture_kana":"チバケン","city":"南房総市","city_kana":"ミナミボウソウシ","town":"千倉町北朝夷","town_kana":"チクラチョウキタアサイ","prefecture_code":12},"0001":{"zip_code":"2950001","prefecture":"千葉県","prefecture_kana":"チバケン","city":"南房総市","city_kana":"ミナミボウソウシ","town":"千倉町久保","town_kana":"チクラチョウクボ","prefecture_code":12},"0022":{"zip_code":"2950022","prefecture":"千葉県","prefecture_kana":"チバケン","city":"南房総市","city_kana":"ミナミボウソウシ","town":"千倉町忽戸","town_kana":"チクラチョウコット","prefecture_code":12},"0003":{"zip_code":"2950003","prefecture":"千葉県","prefecture_kana":"チバケン","city":"南房総市","city_kana":"ミナミボウソウシ","town":"千倉町白子","town_kana":"チクラチョウシラコ","prefecture_code":12},"0027":{"zip_code":"2950027","prefecture":"千葉県","prefecture_kana":"チバケン","city":"南房総市","city_kana":"ミナミボウソウシ","town":"千倉町白間津","town_kana":"チクラチョウシラマヅ","prefecture_code":12},"0004":{"zip_code":"2950004","prefecture":"千葉県","prefecture_kana":"チバケン","city":"南房総市","city_kana":"ミナミボウソウシ","town":"千倉町瀬戸","town_kana":"チクラチョウセト","prefecture_code":12},"0025":{"zip_code":"2950025","prefecture":"千葉県","prefecture_kana":"チバケン","city":"南房総市","city_kana":"ミナミボウソウシ","town":"千倉町千田","town_kana":"チクラチョウセンダ","prefecture_code":12},"0024":{"zip_code":"2950024","prefecture":"千葉県","prefecture_kana":"チバケン","city":"南房総市","city_kana":"ミナミボウソウシ","town":"千倉町平磯","town_kana":"チクラチョウヒライソ","prefecture_code":12},"0021":{"zip_code":"2950021","prefecture":"千葉県","prefecture_kana":"チバケン","city":"南房総市","city_kana":"ミナミボウソウシ","town":"千倉町平舘","town_kana":"チクラチョウヘダテ","prefecture_code":12},"0005":{"zip_code":"2950005","prefecture":"千葉県","prefecture_kana":"チバケン","city":"南房総市","city_kana":"ミナミボウソウシ","town":"千倉町牧田","town_kana":"チクラチョウマキダ","prefecture_code":12},"0012":{"zip_code":"2950012","prefecture":"千葉県","prefecture_kana":"チバケン","city":"南房総市","city_kana":"ミナミボウソウシ","town":"千倉町南朝夷","town_kana":"チクラチョウミナミアサイ","prefecture_code":12}}