{"0000":{"zip_code":"2960000","prefecture":"千葉県","prefecture_kana":"チバケン","city":"鴨川市","city_kana":"カモガワシ","town":"","town_kana":"","prefecture_code":12},"0031":{"zip_code":"2960031","prefecture":"千葉県","prefecture_kana":"チバケン","city":"鴨川市","city_kana":"カモガワシ","town":"粟斗","town_kana":"アワト","prefecture_code":12},"0024":{"zip_code":"2960024","prefecture":"千葉県","prefecture_kana":"チバケン","city":"鴨川市","city_kana":"カモガワシ","town":"池田","town_kana":"イケダ","prefecture_code":12},"0045":{"zip_code":"2960045","prefecture":"千葉県","prefecture_kana":"チバケン","city":"鴨川市","city_kana":"カモガワシ","town":"和泉","town_kana":"イズミ","prefecture_code":12},"0003":{"zip_code":"2960003","prefecture":"千葉県","prefecture_kana":"チバケン","city":"鴨川市","city_kana":"カモガワシ","town":"磯村","town_kana":"イソムラ","prefecture_code":12},"0035":{"zip_code":"2960035","prefecture":"千葉県","prefecture_kana":"チバケン","city":"鴨川市","city_kana":"カモガワシ","town":"打墨","town_kana":"ウツツミ","prefecture_code":12},"0121":{"zip_code":"2960121","prefecture":"千葉県","prefecture_kana":"チバケン","city":"鴨川市","city_kana":"カモガワシ","town":"大川面","town_kana":"オオカワヅラ","prefecture_code":12},"0124":{"zip_code":"2960124","prefecture":"千葉県","prefecture_kana":"チバケン","city":"鴨川市","city_kana":"カモガワシ","town":"大幡","town_kana":"オオハタ","prefecture_code":12},"0237":{"zip_code":"2960237","prefecture":"千葉県","prefecture_kana":"チバケン","city":"鴨川市","city_kana":"カモガワシ","town":"大山平塚","town_kana":"オオヤマヒラツカ","prefecture_code":12},"0023":{"zip_code":"2960023","prefecture":"千葉県","prefecture_kana":"チバケン","city":"鴨川市","city_kana":"カモガワシ","town":"押切","town_kana":"オシキリ","prefecture_code":12},"0025":{"zip_code":"2960025","prefecture":"千葉県","prefecture_kana":"チバケン","city":"鴨川市","city_kana":"カモガワシ","town":"太田学","town_kana":"オダガク","prefecture_code":12},"0004":{"zip_code":"2960004","prefecture":"千葉県","prefecture_kana":"チバケン","city":"鴨川市","city_kana":"カモガワシ","town":"貝渚","town_kana":"カイスカ","prefecture_code":12},"0231":{"zip_code":"2960231","prefecture":"千葉県","prefecture_kana":"チバケン","city":"鴨川市","city_kana":"カモガワシ","town":"釜沼","town_kana":"カマヌマ","prefecture_code":12},"0103":{"zip_code":"2960103","prefecture":"千葉県","prefecture_kana":"チバケン","city":"鴨川市","city_kana":"カモガワシ","town":"上小原","town_kana":"カミコバラ","prefecture_code":12},"0015":{"zip_code":"2960015","prefecture":"千葉県","prefecture_kana":"チバケン","city":"鴨川市","city_kana":"カモガワシ","town":"川代","town_kana":"カワシロ","prefecture_code":12},"0101":{"zip_code":"2960101","prefecture":"千葉県","prefecture_kana":"チバケン","city":"鴨川市","city_kana":"カモガワシ","town":"北小町","town_kana":"キタコマチ","prefecture_code":12},"0022":{"zip_code":"2960022","prefecture":"千葉県","prefecture_kana":"チバケン","city":"鴨川市","city_kana":"カモガワシ","town":"京田","town_kana":"キョウデン","prefecture_code":12},"0233":{"zip_code":"2960233","prefecture":"千葉県","prefecture_kana":"チバケン","city":"鴨川市","city_kana":"カモガワシ","town":"金束","town_kana":"コヅカ","prefecture_code":12},"0234":{"zip_code":"2960234","prefecture":"千葉県","prefecture_kana":"チバケン","city":"鴨川市","city_kana":"カモガワシ","town":"古畑","town_kana":"コバタ","prefecture_code":12},"0236":{"zip_code":"2960236","prefecture":"千葉県","prefecture_kana":"チバケン","city":"鴨川市","city_kana":"カモガワシ","town":"佐野","town_kana":"サノ","prefecture_code":12},"0102":{"zip_code":"2960102","prefecture":"千葉県","prefecture_kana":"チバケン","city":"鴨川市","city_kana":"カモガワシ","town":"下小原","town_kana":"シモコバラ","prefecture_code":12},"0106":{"zip_code":"2960106","prefecture":"千葉県","prefecture_kana":"チバケン","city":"鴨川市","city_kana":"カモガワシ","town":"主基西","town_kana":"スキニシ","prefecture_code":12},"0011":{"zip_code":"2960011","prefecture":"千葉県","prefecture_kana":"チバケン","city":"鴨川市","city_kana":"カモガワシ","town":"大里","town_kana":"ダイリ","prefecture_code":12},"0021":{"zip_code":"2960021","prefecture":"千葉県","prefecture_kana":"チバケン","city":"鴨川市","city_kana":"カモガワシ","town":"竹平","town_kana":"タケヒラ","prefecture_code":12},"0013":{"zip_code":"2960013","prefecture":"千葉県","prefecture_kana":"チバケン","city":"鴨川市","city_kana":"カモガワシ","town":"田原西","town_kana":"タバラニシ","prefecture_code":12},"0122":{"zip_code":"2960122","prefecture":"千葉県","prefecture_kana":"チバケン","city":"鴨川市","city_kana":"カモガワシ","town":"寺門","town_kana":"テラカド","prefecture_code":12},"0111":{"zip_code":"2960111","prefecture":"千葉県","prefecture_kana":"チバケン","city":"鴨川市","city_kana":"カモガワシ","town":"仲","town_kana":"ナカ","prefecture_code":12},"0123":{"zip_code":"2960123","prefecture":"千葉県","prefecture_kana":"チバケン","city":"鴨川市","city_kana":"カモガワシ","town":"北風原","town_kana":"ナライハラ","prefecture_code":12},"0235":{"zip_code":"2960235","prefecture":"千葉県","prefecture_kana":"チバケン","city":"鴨川市","city_kana":"カモガワシ","town":"奈良林","town_kana":"ナラバヤシ","prefecture_code":12},"0105":{"zip_code":"2960105","prefecture":"千葉県","prefecture_kana":"チバケン","city":"鴨川市","city_kana":"カモガワシ","town":"成川","town_kana":"ナリガワ","prefecture_code":12},"0043":{"zip_code":"2960043","prefecture":"千葉県","prefecture_kana":"チバケン","city":"鴨川市","city_kana":"カモガワシ","town":"西町","town_kana":"ニシチョウ","prefecture_code":12},"0034":{"zip_code":"2960034","prefecture":"千葉県","prefecture_kana":"チバケン","city":"鴨川市","city_kana":"カモガワシ","town":"滑谷","town_kana":"ヌカリヤ","prefecture_code":12},"0032":{"zip_code":"2960032","prefecture":"千葉県","prefecture_kana":"チバケン","city":"鴨川市","city_kana":"カモガワシ","town":"花房","town_kana":"ハナブサ","prefecture_code":12},"0016":{"zip_code":"2960016","prefecture":"千葉県","prefecture_kana":"チバケン","city":"鴨川市","city_kana":"カモガワシ","town":"坂東","town_kana":"バンドウ","prefecture_code":12},"0041":{"zip_code":"2960041","prefecture":"千葉県","prefecture_kana":"チバケン","city":"鴨川市","city_kana":"カモガワシ","town":"東町","town_kana":"ヒガシチョウ","prefecture_code":12},"0042":{"zip_code":"2960042","prefecture":"千葉県","prefecture_kana":"チバケン","city":"鴨川市","city_kana":"カモガワシ","town":"東元浜荻飛地","town_kana":"ヒガシモトハマオギトビチ","prefecture_code":12},"0232":{"zip_code":"2960232","prefecture":"千葉県","prefecture_kana":"チバケン","city":"鴨川市","city_kana":"カモガワシ","town":"平塚","town_kana":"ヒラツカ","prefecture_code":12},"0044":{"zip_code":"2960044","prefecture":"千葉県","prefecture_kana":"チバケン","city":"鴨川市","city_kana":"カモガワシ","town":"広場","town_kana":"ヒロバ","prefecture_code":12},"0014":{"zip_code":"2960014","prefecture":"千葉県","prefecture_kana":"チバケン","city":"鴨川市","city_kana":"カモガワシ","town":"太尾","town_kana":"フトオ","prefecture_code":12},"0114":{"zip_code":"2960114","prefecture":"千葉県","prefecture_kana":"チバケン","city":"鴨川市","city_kana":"カモガワシ","town":"細野","town_kana":"ホソノ","prefecture_code":12},"0002":{"zip_code":"2960002","prefecture":"千葉県","prefecture_kana":"チバケン","city":"鴨川市","city_kana":"カモガワシ","town":"前原","town_kana":"マエバラ","prefecture_code":12},"0115":{"zip_code":"2960115","prefecture":"千葉県","prefecture_kana":"チバケン","city":"鴨川市","city_kana":"カモガワシ","town":"松尾寺","town_kana":"マツオジ","prefecture_code":12},"0104":{"zip_code":"2960104","prefecture":"千葉県","prefecture_kana":"チバケン","city":"鴨川市","city_kana":"カモガワシ","town":"南小町","town_kana":"ミナミコマチ","prefecture_code":12},"0112":{"zip_code":"2960112","prefecture":"千葉県","prefecture_kana":"チバケン","city":"鴨川市","city_kana":"カモガワシ","town":"宮山","town_kana":"ミヤヤマ","prefecture_code":12},"0033":{"zip_code":"2960033","prefecture":"千葉県","prefecture_kana":"チバケン","city":"鴨川市","city_kana":"カモガワシ","town":"八色","town_kana":"ヤイロ","prefecture_code":12},"0125":{"zip_code":"2960125","prefecture":"千葉県","prefecture_kana":"チバケン","city":"鴨川市","city_kana":"カモガワシ","town":"横尾","town_kana":"ヨコオ","prefecture_code":12},"0001":{"zip_code":"2960001","prefecture":"千葉県","prefecture_kana":"チバケン","city":"鴨川市","city_kana":"カモガワシ","town":"横渚","town_kana":"ヨコスカ","prefecture_code":12},"0126":{"zip_code":"2960126","prefecture":"千葉県","prefecture_kana":"チバケン","city":"鴨川市","city_kana":"カモガワシ","town":"吉尾西","town_kana":"ヨシオニシ","prefecture_code":12},"0113":{"zip_code":"2960113","prefecture":"千葉県","prefecture_kana":"チバケン","city":"鴨川市","city_kana":"カモガワシ","town":"吉尾平塚","town_kana":"ヨシオヒラツカ","prefecture_code":12},"0012":{"zip_code":"2960012","prefecture":"千葉県","prefecture_kana":"チバケン","city":"鴨川市","city_kana":"カモガワシ","town":"来秀","town_kana":"ライシュウ","prefecture_code":12}}