{"0000":{"zip_code":"2970000","prefecture":"千葉県","prefecture_kana":"チバケン","city":"茂原市","city_kana":"モバラシ","town":"以下に掲載がない場合","town_kana":"イカニケイサイガナイバアイ","prefecture_code":12},"0066":{"zip_code":"2970066","prefecture":"千葉県","prefecture_kana":"チバケン","city":"茂原市","city_kana":"モバラシ","town":"芦網","town_kana":"アシアミ","prefecture_code":12},"0058":{"zip_code":"2970058","prefecture":"千葉県","prefecture_kana":"チバケン","city":"茂原市","city_kana":"モバラシ","town":"石神","town_kana":"イシガミ","prefecture_code":12},"0062":{"zip_code":"2970062","prefecture":"千葉県","prefecture_kana":"チバケン","city":"茂原市","city_kana":"モバラシ","town":"内長谷","town_kana":"ウチナガヤ","prefecture_code":12},"0033":{"zip_code":"2970033","prefecture":"千葉県","prefecture_kana":"チバケン","city":"茂原市","city_kana":"モバラシ","town":"大芝","town_kana":"オオシバ","prefecture_code":12},"0072":{"zip_code":"2970072","prefecture":"千葉県","prefecture_kana":"チバケン","city":"茂原市","city_kana":"モバラシ","town":"大登","town_kana":"オオノボリ","prefecture_code":12},"0075":{"zip_code":"2970075","prefecture":"千葉県","prefecture_kana":"チバケン","city":"茂原市","city_kana":"モバラシ","town":"押日","town_kana":"オシビ","prefecture_code":12},"0036":{"zip_code":"2970036","prefecture":"千葉県","prefecture_kana":"チバケン","city":"茂原市","city_kana":"モバラシ","town":"上永吉","town_kana":"カミナガヨシ","prefecture_code":12},"0052":{"zip_code":"2970052","prefecture":"千葉県","prefecture_kana":"チバケン","city":"茂原市","city_kana":"モバラシ","town":"上茂原","town_kana":"カミモバラ","prefecture_code":12},"0014":{"zip_code":"2970014","prefecture":"千葉県","prefecture_kana":"チバケン","city":"茂原市","city_kana":"モバラシ","town":"川島飛地","town_kana":"カワシマトビチ","prefecture_code":12},"0019":{"zip_code":"2970019","prefecture":"千葉県","prefecture_kana":"チバケン","city":"茂原市","city_kana":"モバラシ","town":"上林","town_kana":"カンバヤシ","prefecture_code":12},"0016":{"zip_code":"2970016","prefecture":"千葉県","prefecture_kana":"チバケン","city":"茂原市","city_kana":"モバラシ","town":"木崎","town_kana":"キサキ","prefecture_code":12},"0003":{"zip_code":"2970003","prefecture":"千葉県","prefecture_kana":"チバケン","city":"茂原市","city_kana":"モバラシ","town":"北高根飛地","town_kana":"キタタカネトビチ","prefecture_code":12},"0009":{"zip_code":"2970009","prefecture":"千葉県","prefecture_kana":"チバケン","city":"茂原市","city_kana":"モバラシ","town":"北塚","town_kana":"キタヅカ","prefecture_code":12},"0071":{"zip_code":"2970071","prefecture":"千葉県","prefecture_kana":"チバケン","city":"茂原市","city_kana":"モバラシ","town":"黒戸","town_kana":"クロド","prefecture_code":12},"0067":{"zip_code":"2970067","prefecture":"千葉県","prefecture_kana":"チバケン","city":"茂原市","city_kana":"モバラシ","town":"国府関","town_kana":"コウセキ","prefecture_code":12},"0004":{"zip_code":"2970004","prefecture":"千葉県","prefecture_kana":"チバケン","city":"茂原市","city_kana":"モバラシ","town":"小轡","town_kana":"コグツワ","prefecture_code":12},"0007":{"zip_code":"2970007","prefecture":"千葉県","prefecture_kana":"チバケン","city":"茂原市","city_kana":"モバラシ","town":"腰当","town_kana":"コシアテ","prefecture_code":12},"0074":{"zip_code":"2970074","prefecture":"千葉県","prefecture_kana":"チバケン","city":"茂原市","city_kana":"モバラシ","town":"小林","town_kana":"コバヤシ","prefecture_code":12},"0041":{"zip_code":"2970041","prefecture":"千葉県","prefecture_kana":"チバケン","city":"茂原市","city_kana":"モバラシ","town":"猿袋","town_kana":"サルブクロ","prefecture_code":12},"0042":{"zip_code":"2970042","prefecture":"千葉県","prefecture_kana":"チバケン","city":"茂原市","city_kana":"モバラシ","town":"三ケ谷","town_kana":"サンガヤ","prefecture_code":12},"0008":{"zip_code":"2970008","prefecture":"千葉県","prefecture_kana":"チバケン","city":"茂原市","city_kana":"モバラシ","town":"渋谷","town_kana":"シブヤ","prefecture_code":12},"0035":{"zip_code":"2970035","prefecture":"千葉県","prefecture_kana":"チバケン","city":"茂原市","city_kana":"モバラシ","town":"下永吉","town_kana":"シモナガヨシ","prefecture_code":12},"0076":{"zip_code":"2970076","prefecture":"千葉県","prefecture_kana":"チバケン","city":"茂原市","city_kana":"モバラシ","town":"庄吉","town_kana":"ショウヨシ","prefecture_code":12},"0006":{"zip_code":"2970006","prefecture":"千葉県","prefecture_kana":"チバケン","city":"茂原市","city_kana":"モバラシ","town":"新小轡","town_kana":"シンコグツワ","prefecture_code":12},"0053":{"zip_code":"2970053","prefecture":"千葉県","prefecture_kana":"チバケン","city":"茂原市","city_kana":"モバラシ","town":"墨田","town_kana":"スミダ","prefecture_code":12},"0002":{"zip_code":"2970002","prefecture":"千葉県","prefecture_kana":"チバケン","city":"茂原市","city_kana":"モバラシ","town":"千町","town_kana":"センチョウ","prefecture_code":12},"0044":{"zip_code":"2970044","prefecture":"千葉県","prefecture_kana":"チバケン","city":"茂原市","city_kana":"モバラシ","town":"台田","town_kana":"ダイダ","prefecture_code":12},"0029":{"zip_code":"2970029","prefecture":"千葉県","prefecture_kana":"チバケン","city":"茂原市","city_kana":"モバラシ","town":"高師","town_kana":"タカシ","prefecture_code":12},"0078":{"zip_code":"2970078","prefecture":"千葉県","prefecture_kana":"チバケン","city":"茂原市","city_kana":"モバラシ","town":"高師台","town_kana":"タカシダイ","prefecture_code":12},"0021":{"zip_code":"2970021","prefecture":"千葉県","prefecture_kana":"チバケン","city":"茂原市","city_kana":"モバラシ","town":"高師町","town_kana":"タカシチョウ","prefecture_code":12},"0043":{"zip_code":"2970043","prefecture":"千葉県","prefecture_kana":"チバケン","city":"茂原市","city_kana":"モバラシ","town":"立木","town_kana":"タチキ","prefecture_code":12},"0057":{"zip_code":"2970057","prefecture":"千葉県","prefecture_kana":"チバケン","city":"茂原市","city_kana":"モバラシ","town":"中善寺","town_kana":"チュウゼンジ","prefecture_code":12},"0027":{"zip_code":"2970027","prefecture":"千葉県","prefecture_kana":"チバケン","city":"茂原市","city_kana":"モバラシ","town":"中部","town_kana":"チュウブ","prefecture_code":12},"0023":{"zip_code":"2970023","prefecture":"千葉県","prefecture_kana":"チバケン","city":"茂原市","city_kana":"モバラシ","town":"千代田町","town_kana":"チヨダチョウ","prefecture_code":12},"0055":{"zip_code":"2970055","prefecture":"千葉県","prefecture_kana":"チバケン","city":"茂原市","city_kana":"モバラシ","town":"綱島","town_kana":"ツナシマ","prefecture_code":12},"0017":{"zip_code":"2970017","prefecture":"千葉県","prefecture_kana":"チバケン","city":"茂原市","city_kana":"モバラシ","town":"東郷","town_kana":"トウゴウ","prefecture_code":12},"0028":{"zip_code":"2970028","prefecture":"千葉県","prefecture_kana":"チバケン","city":"茂原市","city_kana":"モバラシ","town":"道表","town_kana":"ドウビョウ","prefecture_code":12},"0015":{"zip_code":"2970015","prefecture":"千葉県","prefecture_kana":"チバケン","city":"茂原市","city_kana":"モバラシ","town":"東部台","town_kana":"トウブダイ","prefecture_code":12},"0013":{"zip_code":"2970013","prefecture":"千葉県","prefecture_kana":"チバケン","city":"茂原市","city_kana":"モバラシ","town":"中之郷飛地","town_kana":"ナカノゴウトビチ","prefecture_code":12},"0034":{"zip_code":"2970034","prefecture":"千葉県","prefecture_kana":"チバケン","city":"茂原市","city_kana":"モバラシ","town":"中の島町","town_kana":"ナカノシマチョウ","prefecture_code":12},"0073":{"zip_code":"2970073","prefecture":"千葉県","prefecture_kana":"チバケン","city":"茂原市","city_kana":"モバラシ","town":"長尾","town_kana":"ナガオ","prefecture_code":12},"0038":{"zip_code":"2970038","prefecture":"千葉県","prefecture_kana":"チバケン","city":"茂原市","city_kana":"モバラシ","town":"長清水","town_kana":"ナガシミズ","prefecture_code":12},"0063":{"zip_code":"2970063","prefecture":"千葉県","prefecture_kana":"チバケン","city":"茂原市","city_kana":"モバラシ","town":"長谷","town_kana":"ナガヤ","prefecture_code":12},"0001":{"zip_code":"2970001","prefecture":"千葉県","prefecture_kana":"チバケン","city":"茂原市","city_kana":"モバラシ","town":"七渡","town_kana":"ナナワタリ","prefecture_code":12},"0018":{"zip_code":"2970018","prefecture":"千葉県","prefecture_kana":"チバケン","city":"茂原市","city_kana":"モバラシ","town":"萩原町","town_kana":"ハギワラチョウ","prefecture_code":12},"0037":{"zip_code":"2970037","prefecture":"千葉県","prefecture_kana":"チバケン","city":"茂原市","city_kana":"モバラシ","town":"早野","town_kana":"ハヤノ","prefecture_code":12},"0031":{"zip_code":"2970031","prefecture":"千葉県","prefecture_kana":"チバケン","city":"茂原市","city_kana":"モバラシ","town":"早野新田","town_kana":"ハヤノシンデン","prefecture_code":12},"0032":{"zip_code":"2970032","prefecture":"千葉県","prefecture_kana":"チバケン","city":"茂原市","city_kana":"モバラシ","town":"東茂原","town_kana":"ヒガシモバラ","prefecture_code":12},"0005":{"zip_code":"2970005","prefecture":"千葉県","prefecture_kana":"チバケン","city":"茂原市","city_kana":"モバラシ","town":"本小轡","town_kana":"ホンコグツワ","prefecture_code":12},"0022":{"zip_code":"2970022","prefecture":"千葉県","prefecture_kana":"チバケン","city":"茂原市","city_kana":"モバラシ","town":"町保","town_kana":"マチボ","prefecture_code":12},"0077":{"zip_code":"2970077","prefecture":"千葉県","prefecture_kana":"チバケン","city":"茂原市","city_kana":"モバラシ","town":"真名","town_kana":"マンナ","prefecture_code":12},"0065":{"zip_code":"2970065","prefecture":"千葉県","prefecture_kana":"チバケン","city":"茂原市","city_kana":"モバラシ","town":"緑ケ丘","town_kana":"ミドリガオカ","prefecture_code":12},"0025":{"zip_code":"2970025","prefecture":"千葉県","prefecture_kana":"チバケン","city":"茂原市","city_kana":"モバラシ","town":"緑町","town_kana":"ミドリチョウ","prefecture_code":12},"0064":{"zip_code":"2970064","prefecture":"千葉県","prefecture_kana":"チバケン","city":"茂原市","city_kana":"モバラシ","town":"箕輪","town_kana":"ミノワ","prefecture_code":12},"0012":{"zip_code":"2970012","prefecture":"千葉県","prefecture_kana":"チバケン","city":"茂原市","city_kana":"モバラシ","town":"六ツ野","town_kana":"ムツノ","prefecture_code":12},"0026":{"zip_code":"2970026","prefecture":"千葉県","prefecture_kana":"チバケン","city":"茂原市","city_kana":"モバラシ","town":"茂原","town_kana":"モバラ","prefecture_code":12},"0039":{"zip_code":"2970039","prefecture":"千葉県","prefecture_kana":"チバケン","city":"茂原市","city_kana":"モバラシ","town":"茂原西","town_kana":"モバラニシ","prefecture_code":12},"0045":{"zip_code":"2970045","prefecture":"千葉県","prefecture_kana":"チバケン","city":"茂原市","city_kana":"モバラシ","town":"野牛","town_kana":"ヤギュウ","prefecture_code":12},"0024":{"zip_code":"2970024","prefecture":"千葉県","prefecture_kana":"チバケン","city":"茂原市","city_kana":"モバラシ","town":"八千代","town_kana":"ヤチヨ","prefecture_code":12},"0061":{"zip_code":"2970061","prefecture":"千葉県","prefecture_kana":"チバケン","city":"茂原市","city_kana":"モバラシ","town":"山崎","town_kana":"ヤマサキ","prefecture_code":12},"0011":{"zip_code":"2970011","prefecture":"千葉県","prefecture_kana":"チバケン","city":"茂原市","city_kana":"モバラシ","town":"谷本","town_kana":"ヤモト","prefecture_code":12},"0054":{"zip_code":"2970054","prefecture":"千葉県","prefecture_kana":"チバケン","city":"茂原市","city_kana":"モバラシ","town":"八幡原","town_kana":"ヤワタバラ","prefecture_code":12},"0056":{"zip_code":"2970056","prefecture":"千葉県","prefecture_kana":"チバケン","city":"茂原市","city_kana":"モバラシ","town":"六田台","town_kana":"ロクタダイ","prefecture_code":12},"0051":{"zip_code":"2970051","prefecture":"千葉県","prefecture_kana":"チバケン","city":"茂原市","city_kana":"モバラシ","town":"鷲巣","town_kana":"ワシノス","prefecture_code":12},"0200":{"zip_code":"2970200","prefecture":"千葉県","prefecture_kana":"チバケン","city":"長生郡長柄町","city_kana":"チョウセイグンナガラマチ","town":"以下に掲載がない場合","town_kana":"イカニケイサイガナイバアイ","prefecture_code":12},"0201":{"zip_code":"2970201","prefecture":"千葉県","prefecture_kana":"チバケン","city":"長生郡長柄町","city_kana":"チョウセイグンナガラマチ","town":"上野","town_kana":"ウエノ","prefecture_code":12},"0211":{"zip_code":"2970211","prefecture":"千葉県","prefecture_kana":"チバケン","city":"長生郡長柄町","city_kana":"チョウセイグンナガラマチ","town":"榎本","town_kana":"エモト","prefecture_code":12},"0223":{"zip_code":"2970223","prefecture":"千葉県","prefecture_kana":"チバケン","city":"長生郡長柄町","city_kana":"チョウセイグンナガラマチ","town":"大津倉","town_kana":"オオヅクラ","prefecture_code":12},"0222":{"zip_code":"2970222","prefecture":"千葉県","prefecture_kana":"チバケン","city":"長生郡長柄町","city_kana":"チョウセイグンナガラマチ","town":"大庭","town_kana":"オオニワ","prefecture_code":12},"0225":{"zip_code":"2970225","prefecture":"千葉県","prefecture_kana":"チバケン","city":"長生郡長柄町","city_kana":"チョウセイグンナガラマチ","town":"刑部","town_kana":"オサカベ","prefecture_code":12},"0226":{"zip_code":"2970226","prefecture":"千葉県","prefecture_kana":"チバケン","city":"長生郡長柄町","city_kana":"チョウセイグンナガラマチ","town":"金谷","town_kana":"カナヤ","prefecture_code":12},"0203":{"zip_code":"2970203","prefecture":"千葉県","prefecture_kana":"チバケン","city":"長生郡長柄町","city_kana":"チョウセイグンナガラマチ","town":"国府里","town_kana":"コウリ","prefecture_code":12},"0212":{"zip_code":"2970212","prefecture":"千葉県","prefecture_kana":"チバケン","city":"長生郡長柄町","city_kana":"チョウセイグンナガラマチ","town":"小榎本","town_kana":"コエモト","prefecture_code":12},"0218":{"zip_code":"2970218","prefecture":"千葉県","prefecture_kana":"チバケン","city":"長生郡長柄町","city_kana":"チョウセイグンナガラマチ","town":"桜谷","town_kana":"サクラヤ","prefecture_code":12},"0235":{"zip_code":"2970235","prefecture":"千葉県","prefecture_kana":"チバケン","city":"長生郡長柄町","city_kana":"チョウセイグンナガラマチ","town":"皿木","town_kana":"サラギ","prefecture_code":12},"0221":{"zip_code":"2970221","prefecture":"千葉県","prefecture_kana":"チバケン","city":"長生郡長柄町","city_kana":"チョウセイグンナガラマチ","town":"高山","town_kana":"タカヤマ","prefecture_code":12},"0224":{"zip_code":"2970224","prefecture":"千葉県","prefecture_kana":"チバケン","city":"長生郡長柄町","city_kana":"チョウセイグンナガラマチ","town":"田代","town_kana":"タシロ","prefecture_code":12},"0216":{"zip_code":"2970216","prefecture":"千葉県","prefecture_kana":"チバケン","city":"長生郡長柄町","city_kana":"チョウセイグンナガラマチ","town":"立鳥","town_kana":"タツトリ","prefecture_code":12},"0205":{"zip_code":"2970205","prefecture":"千葉県","prefecture_kana":"チバケン","city":"長生郡長柄町","city_kana":"チョウセイグンナガラマチ","town":"千代丸","town_kana":"チヨマル","prefecture_code":12},"0215":{"zip_code":"2970215","prefecture":"千葉県","prefecture_kana":"チバケン","city":"長生郡長柄町","city_kana":"チョウセイグンナガラマチ","town":"鴇谷","town_kana":"トウヤ","prefecture_code":12},"0213":{"zip_code":"2970213","prefecture":"千葉県","prefecture_kana":"チバケン","city":"長生郡長柄町","city_kana":"チョウセイグンナガラマチ","town":"徳増","town_kana":"トクマス","prefecture_code":12},"0232":{"zip_code":"2970232","prefecture":"千葉県","prefecture_kana":"チバケン","city":"長生郡長柄町","city_kana":"チョウセイグンナガラマチ","town":"中野台","town_kana":"ナカノダイ","prefecture_code":12},"0214":{"zip_code":"2970214","prefecture":"千葉県","prefecture_kana":"チバケン","city":"長生郡長柄町","city_kana":"チョウセイグンナガラマチ","town":"長富","town_kana":"ナガドミ","prefecture_code":12},"0234":{"zip_code":"2970234","prefecture":"千葉県","prefecture_kana":"チバケン","city":"長生郡長柄町","city_kana":"チョウセイグンナガラマチ","town":"長柄山","town_kana":"ナガラヤマ","prefecture_code":12},"0217":{"zip_code":"2970217","prefecture":"千葉県","prefecture_kana":"チバケン","city":"長生郡長柄町","city_kana":"チョウセイグンナガラマチ","town":"針ケ谷","town_kana":"ハリガヤ","prefecture_code":12},"0207":{"zip_code":"2970207","prefecture":"千葉県","prefecture_kana":"チバケン","city":"長生郡長柄町","city_kana":"チョウセイグンナガラマチ","town":"船木","town_kana":"フナキ","prefecture_code":12},"0202":{"zip_code":"2970202","prefecture":"千葉県","prefecture_kana":"チバケン","city":"長生郡長柄町","city_kana":"チョウセイグンナガラマチ","town":"味庄","town_kana":"ミショウ","prefecture_code":12},"0231":{"zip_code":"2970231","prefecture":"千葉県","prefecture_kana":"チバケン","city":"長生郡長柄町","city_kana":"チョウセイグンナガラマチ","town":"山之郷","town_kana":"ヤマノゴウ","prefecture_code":12},"0206":{"zip_code":"2970206","prefecture":"千葉県","prefecture_kana":"チバケン","city":"長生郡長柄町","city_kana":"チョウセイグンナガラマチ","town":"山根","town_kana":"ヤマンネ","prefecture_code":12},"0204":{"zip_code":"2970204","prefecture":"千葉県","prefecture_kana":"チバケン","city":"長生郡長柄町","city_kana":"チョウセイグンナガラマチ","town":"力丸","town_kana":"リキマル","prefecture_code":12},"0233":{"zip_code":"2970233","prefecture":"千葉県","prefecture_kana":"チバケン","city":"長生郡長柄町","city_kana":"チョウセイグンナガラマチ","town":"六地蔵","town_kana":"ロクジゾウ","prefecture_code":12},"0100":{"zip_code":"2970100","prefecture":"千葉県","prefecture_kana":"チバケン","city":"長生郡長南町","city_kana":"チョウセイグンチョウナンマチ","town":"以下に掲載がない場合","town_kana":"イカニケイサイガナイバアイ","prefecture_code":12},"0144":{"zip_code":"2970144","prefecture":"千葉県","prefecture_kana":"チバケン","city":"長生郡長南町","city_kana":"チョウセイグンチョウナンマチ","town":"市野々","town_kana":"イチノノ","prefecture_code":12},"0103":{"zip_code":"2970103","prefecture":"千葉県","prefecture_kana":"チバケン","city":"長生郡長南町","city_kana":"チョウセイグンチョウナンマチ","town":"今泉","town_kana":"イマイズミ","prefecture_code":12},"0101":{"zip_code":"2970101","prefecture":"千葉県","prefecture_kana":"チバケン","city":"長生郡長南町","city_kana":"チョウセイグンチョウナンマチ","town":"岩川","town_kana":"イワカワ","prefecture_code":12},"0154":{"zip_code":"2970154","prefecture":"千葉県","prefecture_kana":"チバケン","city":"長生郡長南町","city_kana":"チョウセイグンチョウナンマチ","town":"岩撫","town_kana":"イワナデ","prefecture_code":12},"0142":{"zip_code":"2970142","prefecture":"千葉県","prefecture_kana":"チバケン","city":"長生郡長南町","city_kana":"チョウセイグンチョウナンマチ","town":"小沢","town_kana":"オザワ","prefecture_code":12},"0136":{"zip_code":"2970136","prefecture":"千葉県","prefecture_kana":"チバケン","city":"長生郡長南町","city_kana":"チョウセイグンチョウナンマチ","town":"小生田","town_kana":"オブタ","prefecture_code":12},"0125":{"zip_code":"2970125","prefecture":"千葉県","prefecture_kana":"チバケン","city":"長生郡長南町","city_kana":"チョウセイグンチョウナンマチ","town":"笠森","town_kana":"カサモリ","prefecture_code":12},"0137":{"zip_code":"2970137","prefecture":"千葉県","prefecture_kana":"チバケン","city":"長生郡長南町","city_kana":"チョウセイグンチョウナンマチ","town":"上小野田","town_kana":"カミオノダ","prefecture_code":12},"0132":{"zip_code":"2970132","prefecture":"千葉県","prefecture_kana":"チバケン","city":"長生郡長南町","city_kana":"チョウセイグンチョウナンマチ","town":"給田","town_kana":"キュウデン","prefecture_code":12},"0123":{"zip_code":"2970123","prefecture":"千葉県","prefecture_kana":"チバケン","city":"長生郡長南町","city_kana":"チョウセイグンチョウナンマチ","town":"蔵持","town_kana":"クラモチ","prefecture_code":12},"0122":{"zip_code":"2970122","prefecture":"千葉県","prefecture_kana":"チバケン","city":"長生郡長南町","city_kana":"チョウセイグンチョウナンマチ","town":"坂本","town_kana":"サカモト","prefecture_code":12},"0145":{"zip_code":"2970145","prefecture":"千葉県","prefecture_kana":"チバケン","city":"長生郡長南町","city_kana":"チョウセイグンチョウナンマチ","town":"佐坪","town_kana":"サツボ","prefecture_code":12},"0134":{"zip_code":"2970134","prefecture":"千葉県","prefecture_kana":"チバケン","city":"長生郡長南町","city_kana":"チョウセイグンチョウナンマチ","town":"芝原","town_kana":"シバハラ","prefecture_code":12},"0135":{"zip_code":"2970135","prefecture":"千葉県","prefecture_kana":"チバケン","city":"長生郡長南町","city_kana":"チョウセイグンチョウナンマチ","town":"地引","town_kana":"ジヒキ","prefecture_code":12},"0138":{"zip_code":"2970138","prefecture":"千葉県","prefecture_kana":"チバケン","city":"長生郡長南町","city_kana":"チョウセイグンチョウナンマチ","town":"下小野田","town_kana":"シモオノダ","prefecture_code":12},"0111":{"zip_code":"2970111","prefecture":"千葉県","prefecture_kana":"チバケン","city":"長生郡長南町","city_kana":"チョウセイグンチョウナンマチ","town":"須田","town_kana":"スダ","prefecture_code":12},"0113":{"zip_code":"2970113","prefecture":"千葉県","prefecture_kana":"チバケン","city":"長生郡長南町","city_kana":"チョウセイグンチョウナンマチ","town":"関原","town_kana":"セキバラ","prefecture_code":12},"0114":{"zip_code":"2970114","prefecture":"千葉県","prefecture_kana":"チバケン","city":"長生郡長南町","city_kana":"チョウセイグンチョウナンマチ","town":"千手堂","town_kana":"センジュドウ","prefecture_code":12},"0115":{"zip_code":"2970115","prefecture":"千葉県","prefecture_kana":"チバケン","city":"長生郡長南町","city_kana":"チョウセイグンチョウナンマチ","town":"千田","town_kana":"センダ","prefecture_code":12},"0155":{"zip_code":"2970155","prefecture":"千葉県","prefecture_kana":"チバケン","city":"長生郡長南町","city_kana":"チョウセイグンチョウナンマチ","town":"竹林","town_kana":"タケバヤシ","prefecture_code":12},"0105":{"zip_code":"2970105","prefecture":"千葉県","prefecture_kana":"チバケン","city":"長生郡長南町","city_kana":"チョウセイグンチョウナンマチ","town":"棚毛","town_kana":"タナゲ","prefecture_code":12},"0121":{"zip_code":"2970121","prefecture":"千葉県","prefecture_kana":"チバケン","city":"長生郡長南町","city_kana":"チョウセイグンチョウナンマチ","town":"長南","town_kana":"チョウナン","prefecture_code":12},"0133":{"zip_code":"2970133","prefecture":"千葉県","prefecture_kana":"チバケン","city":"長生郡長南町","city_kana":"チョウセイグンチョウナンマチ","town":"豊原","town_kana":"トヨハラ","prefecture_code":12},"0131":{"zip_code":"2970131","prefecture":"千葉県","prefecture_kana":"チバケン","city":"長生郡長南町","city_kana":"チョウセイグンチョウナンマチ","town":"中原","town_kana":"ナカハラ","prefecture_code":12},"0124":{"zip_code":"2970124","prefecture":"千葉県","prefecture_kana":"チバケン","city":"長生郡長南町","city_kana":"チョウセイグンチョウナンマチ","town":"深沢","town_kana":"フカサワ","prefecture_code":12},"0141":{"zip_code":"2970141","prefecture":"千葉県","prefecture_kana":"チバケン","city":"長生郡長南町","city_kana":"チョウセイグンチョウナンマチ","town":"報恩寺","town_kana":"ホウオンジ","prefecture_code":12},"0104":{"zip_code":"2970104","prefecture":"千葉県","prefecture_kana":"チバケン","city":"長生郡長南町","city_kana":"チョウセイグンチョウナンマチ","town":"又富","town_kana":"マタドミ","prefecture_code":12},"0152":{"zip_code":"2970152","prefecture":"千葉県","prefecture_kana":"チバケン","city":"長生郡長南町","city_kana":"チョウセイグンチョウナンマチ","town":"水沼","town_kana":"ミズヌマ","prefecture_code":12},"0143":{"zip_code":"2970143","prefecture":"千葉県","prefecture_kana":"チバケン","city":"長生郡長南町","city_kana":"チョウセイグンチョウナンマチ","town":"美原台","town_kana":"ミハラダイ","prefecture_code":12},"0151":{"zip_code":"2970151","prefecture":"千葉県","prefecture_kana":"チバケン","city":"長生郡長南町","city_kana":"チョウセイグンチョウナンマチ","town":"茗荷沢","town_kana":"ミョウガザワ","prefecture_code":12},"0102":{"zip_code":"2970102","prefecture":"千葉県","prefecture_kana":"チバケン","city":"長生郡長南町","city_kana":"チョウセイグンチョウナンマチ","town":"本台","town_kana":"モトダイ","prefecture_code":12},"0153":{"zip_code":"2970153","prefecture":"千葉県","prefecture_kana":"チバケン","city":"長生郡長南町","city_kana":"チョウセイグンチョウナンマチ","town":"山内","town_kana":"ヤマウチ","prefecture_code":12},"0112":{"zip_code":"2970112","prefecture":"千葉県","prefecture_kana":"チバケン","city":"長生郡長南町","city_kana":"チョウセイグンチョウナンマチ","town":"米満","town_kana":"ヨネミチ","prefecture_code":12}}