{"0000":{"zip_code":"2980000","prefecture":"千葉県","prefecture_kana":"チバケン","city":"いすみ市","city_kana":"イスミシ","town":"","town_kana":"","prefecture_code":12},"0126":{"zip_code":"2980126","prefecture":"千葉県","prefecture_kana":"チバケン","city":"いすみ市","city_kana":"イスミシ","town":"今関","town_kana":"イマゼキ","prefecture_code":12},"0011":{"zip_code":"2980011","prefecture":"千葉県","prefecture_kana":"チバケン","city":"いすみ市","city_kana":"イスミシ","town":"岩船","town_kana":"イワフネ","prefecture_code":12},"0013":{"zip_code":"2980013","prefecture":"千葉県","prefecture_kana":"チバケン","city":"いすみ市","city_kana":"イスミシ","town":"小池","town_kana":"オイケ","prefecture_code":12},"0113":{"zip_code":"2980113","prefecture":"千葉県","prefecture_kana":"チバケン","city":"いすみ市","city_kana":"イスミシ","town":"大野","town_kana":"オオノ","prefecture_code":12},"0004":{"zip_code":"2980004","prefecture":"千葉県","prefecture_kana":"チバケン","city":"いすみ市","city_kana":"イスミシ","town":"大原","town_kana":"オオハラ","prefecture_code":12},"0014":{"zip_code":"2980014","prefecture":"千葉県","prefecture_kana":"チバケン","city":"いすみ市","city_kana":"イスミシ","town":"大原台","town_kana":"オオハラダイ","prefecture_code":12},"0029":{"zip_code":"2980029","prefecture":"千葉県","prefecture_kana":"チバケン","city":"いすみ市","city_kana":"イスミシ","town":"大和田","town_kana":"オオワダ","prefecture_code":12},"0131":{"zip_code":"2980131","prefecture":"千葉県","prefecture_kana":"チバケン","city":"いすみ市","city_kana":"イスミシ","town":"荻原","town_kana":"オギワラ","prefecture_code":12},"0012":{"zip_code":"2980012","prefecture":"千葉県","prefecture_kana":"チバケン","city":"いすみ市","city_kana":"イスミシ","town":"小沢","town_kana":"オザワ","prefecture_code":12},"0102":{"zip_code":"2980102","prefecture":"千葉県","prefecture_kana":"チバケン","city":"いすみ市","city_kana":"イスミシ","town":"小高","town_kana":"オダカ","prefecture_code":12},"0115":{"zip_code":"2980115","prefecture":"千葉県","prefecture_kana":"チバケン","city":"いすみ市","city_kana":"イスミシ","town":"柿和田","town_kana":"カキワダ","prefecture_code":12},"0103":{"zip_code":"2980103","prefecture":"千葉県","prefecture_kana":"チバケン","city":"いすみ市","city_kana":"イスミシ","town":"神置","town_kana":"カミオキ","prefecture_code":12},"0018":{"zip_code":"2980018","prefecture":"千葉県","prefecture_kana":"チバケン","city":"いすみ市","city_kana":"イスミシ","town":"上布施","town_kana":"カミブセ","prefecture_code":12},"0123":{"zip_code":"2980123","prefecture":"千葉県","prefecture_kana":"チバケン","city":"いすみ市","city_kana":"イスミシ","town":"苅谷","town_kana":"カリヤ","prefecture_code":12},"0112":{"zip_code":"2980112","prefecture":"千葉県","prefecture_kana":"チバケン","city":"いすみ市","city_kana":"イスミシ","town":"国府台","town_kana":"コウノダイ","prefecture_code":12},"0101":{"zip_code":"2980101","prefecture":"千葉県","prefecture_kana":"チバケン","city":"いすみ市","city_kana":"イスミシ","town":"小又井","town_kana":"コマタイ","prefecture_code":12},"0135":{"zip_code":"2980135","prefecture":"千葉県","prefecture_kana":"チバケン","city":"いすみ市","city_kana":"イスミシ","town":"作田","town_kana":"サクダ","prefecture_code":12},"0114":{"zip_code":"2980114","prefecture":"千葉県","prefecture_kana":"チバケン","city":"いすみ市","city_kana":"イスミシ","town":"札森","town_kana":"サツモリ","prefecture_code":12},"0022":{"zip_code":"2980022","prefecture":"千葉県","prefecture_kana":"チバケン","city":"いすみ市","city_kana":"イスミシ","town":"佐室","town_kana":"サムロ","prefecture_code":12},"0023":{"zip_code":"2980023","prefecture":"千葉県","prefecture_kana":"チバケン","city":"いすみ市","city_kana":"イスミシ","town":"沢部","town_kana":"サワベ","prefecture_code":12},"0121":{"zip_code":"2980121","prefecture":"千葉県","prefecture_kana":"チバケン","city":"いすみ市","city_kana":"イスミシ","town":"島","town_kana":"シマ","prefecture_code":12},"0027":{"zip_code":"2980027","prefecture":"千葉県","prefecture_kana":"チバケン","city":"いすみ市","city_kana":"イスミシ","town":"下原","town_kana":"シモハラ","prefecture_code":12},"0017":{"zip_code":"2980017","prefecture":"千葉県","prefecture_kana":"チバケン","city":"いすみ市","city_kana":"イスミシ","town":"下布施","town_kana":"シモブセ","prefecture_code":12},"0015":{"zip_code":"2980015","prefecture":"千葉県","prefecture_kana":"チバケン","city":"いすみ市","city_kana":"イスミシ","town":"釈迦谷","town_kana":"シャカヤツ","prefecture_code":12},"0116":{"zip_code":"2980116","prefecture":"千葉県","prefecture_kana":"チバケン","city":"いすみ市","city_kana":"イスミシ","town":"正立寺","town_kana":"ショウリュウジ","prefecture_code":12},"0106":{"zip_code":"2980106","prefecture":"千葉県","prefecture_kana":"チバケン","city":"いすみ市","city_kana":"イスミシ","town":"須賀谷","town_kana":"スガヤ","prefecture_code":12},"0021":{"zip_code":"2980021","prefecture":"千葉県","prefecture_kana":"チバケン","city":"いすみ市","city_kana":"イスミシ","town":"高谷","town_kana":"タカダニ","prefecture_code":12},"0024":{"zip_code":"2980024","prefecture":"千葉県","prefecture_kana":"チバケン","city":"いすみ市","city_kana":"イスミシ","town":"長志","town_kana":"ナガシ","prefecture_code":12},"0134":{"zip_code":"2980134","prefecture":"千葉県","prefecture_kana":"チバケン","city":"いすみ市","city_kana":"イスミシ","town":"行川","town_kana":"ナメガワ","prefecture_code":12},"0005":{"zip_code":"2980005","prefecture":"千葉県","prefecture_kana":"チバケン","city":"いすみ市","city_kana":"イスミシ","town":"新田","town_kana":"ニッタ","prefecture_code":12},"0026":{"zip_code":"2980026","prefecture":"千葉県","prefecture_kana":"チバケン","city":"いすみ市","city_kana":"イスミシ","town":"新田野","town_kana":"ニッタノ","prefecture_code":12},"0016":{"zip_code":"2980016","prefecture":"千葉県","prefecture_kana":"チバケン","city":"いすみ市","city_kana":"イスミシ","town":"新田若山深堀入会地","town_kana":"ニッタワカヤマフカホリイリアイチ","prefecture_code":12},"0105":{"zip_code":"2980105","prefecture":"千葉県","prefecture_kana":"チバケン","city":"いすみ市","city_kana":"イスミシ","town":"能実","town_kana":"ノウジツ","prefecture_code":12},"0002":{"zip_code":"2980002","prefecture":"千葉県","prefecture_kana":"チバケン","city":"いすみ市","city_kana":"イスミシ","town":"日在","town_kana":"ヒアリ","prefecture_code":12},"0133":{"zip_code":"2980133","prefecture":"千葉県","prefecture_kana":"チバケン","city":"いすみ市","city_kana":"イスミシ","town":"引田","town_kana":"ヒキダ","prefecture_code":12},"0003":{"zip_code":"2980003","prefecture":"千葉県","prefecture_kana":"チバケン","city":"いすみ市","city_kana":"イスミシ","town":"深堀","town_kana":"フカホリ","prefecture_code":12},"0125":{"zip_code":"2980125","prefecture":"千葉県","prefecture_kana":"チバケン","city":"いすみ市","city_kana":"イスミシ","town":"深谷","town_kana":"フカヤ","prefecture_code":12},"0028":{"zip_code":"2980028","prefecture":"千葉県","prefecture_kana":"チバケン","city":"いすみ市","city_kana":"イスミシ","town":"細尾","town_kana":"ホソオ","prefecture_code":12},"0117":{"zip_code":"2980117","prefecture":"千葉県","prefecture_kana":"チバケン","city":"いすみ市","city_kana":"イスミシ","town":"増田","town_kana":"マスダ","prefecture_code":12},"0104":{"zip_code":"2980104","prefecture":"千葉県","prefecture_kana":"チバケン","city":"いすみ市","city_kana":"イスミシ","town":"松丸","town_kana":"マツマル","prefecture_code":12},"0111":{"zip_code":"2980111","prefecture":"千葉県","prefecture_kana":"チバケン","city":"いすみ市","city_kana":"イスミシ","town":"万木","town_kana":"マンギ","prefecture_code":12},"0132":{"zip_code":"2980132","prefecture":"千葉県","prefecture_kana":"チバケン","city":"いすみ市","city_kana":"イスミシ","town":"八乙女","town_kana":"ヤオトメ","prefecture_code":12},"0124":{"zip_code":"2980124","prefecture":"千葉県","prefecture_kana":"チバケン","city":"いすみ市","city_kana":"イスミシ","town":"弥正","town_kana":"ヤマサ","prefecture_code":12},"0025":{"zip_code":"2980025","prefecture":"千葉県","prefecture_kana":"チバケン","city":"いすみ市","city_kana":"イスミシ","town":"山田","town_kana":"ヤマダ","prefecture_code":12},"0122":{"zip_code":"2980122","prefecture":"千葉県","prefecture_kana":"チバケン","city":"いすみ市","city_kana":"イスミシ","town":"楽町","town_kana":"ラクマチ","prefecture_code":12},"0001":{"zip_code":"2980001","prefecture":"千葉県","prefecture_kana":"チバケン","city":"いすみ市","city_kana":"イスミシ","town":"若山","town_kana":"ワカヤマ","prefecture_code":12},"0200":{"zip_code":"2980200","prefecture":"千葉県","prefecture_kana":"チバケン","city":"夷隅郡大多喜町","city_kana":"イスミグンオオタキマチ","town":"","town_kana":"","prefecture_code":12},"0277":{"zip_code":"2980277","prefecture":"千葉県","prefecture_kana":"チバケン","city":"夷隅郡大多喜町","city_kana":"イスミグンオオタキマチ","town":"粟又","town_kana":"アワマタ","prefecture_code":12},"0256":{"zip_code":"2980256","prefecture":"千葉県","prefecture_kana":"チバケン","city":"夷隅郡大多喜町","city_kana":"イスミグンオオタキマチ","town":"石神","town_kana":"イシガミ","prefecture_code":12},"0261":{"zip_code":"2980261","prefecture":"千葉県","prefecture_kana":"チバケン","city":"夷隅郡大多喜町","city_kana":"イスミグンオオタキマチ","town":"板谷","town_kana":"イタヤ","prefecture_code":12},"0272":{"zip_code":"2980272","prefecture":"千葉県","prefecture_kana":"チバケン","city":"夷隅郡大多喜町","city_kana":"イスミグンオオタキマチ","town":"市川","town_kana":"イチカワ","prefecture_code":12},"0263":{"zip_code":"2980263","prefecture":"千葉県","prefecture_kana":"チバケン","city":"夷隅郡大多喜町","city_kana":"イスミグンオオタキマチ","town":"伊保田","town_kana":"イホタ","prefecture_code":12},"0223":{"zip_code":"2980223","prefecture":"千葉県","prefecture_kana":"チバケン","city":"夷隅郡大多喜町","city_kana":"イスミグンオオタキマチ","town":"上原","town_kana":"ウエバラ","prefecture_code":12},"0205":{"zip_code":"2980205","prefecture":"千葉県","prefecture_kana":"チバケン","city":"夷隅郡大多喜町","city_kana":"イスミグンオオタキマチ","town":"上原西部田柳原入会","town_kana":"ウエバラニシベタヤナバライリアイ","prefecture_code":12},"0235":{"zip_code":"2980235","prefecture":"千葉県","prefecture_kana":"チバケン","city":"夷隅郡大多喜町","city_kana":"イスミグンオオタキマチ","town":"宇筒原","town_kana":"ウトウバラ","prefecture_code":12},"0216":{"zip_code":"2980216","prefecture":"千葉県","prefecture_kana":"チバケン","city":"夷隅郡大多喜町","city_kana":"イスミグンオオタキマチ","town":"大多喜","town_kana":"オオタキ","prefecture_code":12},"0264":{"zip_code":"2980264","prefecture":"千葉県","prefecture_kana":"チバケン","city":"夷隅郡大多喜町","city_kana":"イスミグンオオタキマチ","town":"大田代","town_kana":"オオタダイ","prefecture_code":12},"0225":{"zip_code":"2980225","prefecture":"千葉県","prefecture_kana":"チバケン","city":"夷隅郡大多喜町","city_kana":"イスミグンオオタキマチ","town":"大戸","town_kana":"オオト","prefecture_code":12},"0234":{"zip_code":"2980234","prefecture":"千葉県","prefecture_kana":"チバケン","city":"夷隅郡大多喜町","city_kana":"イスミグンオオタキマチ","town":"押沼","town_kana":"オシヌマ","prefecture_code":12},"0201":{"zip_code":"2980201","prefecture":"千葉県","prefecture_kana":"チバケン","city":"夷隅郡大多喜町","city_kana":"イスミグンオオタキマチ","town":"小土呂","town_kana":"オドロ","prefecture_code":12},"0279":{"zip_code":"2980279","prefecture":"千葉県","prefecture_kana":"チバケン","city":"夷隅郡大多喜町","city_kana":"イスミグンオオタキマチ","town":"面白","town_kana":"オモジロ","prefecture_code":12},"0276":{"zip_code":"2980276","prefecture":"千葉県","prefecture_kana":"チバケン","city":"夷隅郡大多喜町","city_kana":"イスミグンオオタキマチ","town":"会所","town_kana":"カイショ","prefecture_code":12},"0241":{"zip_code":"2980241","prefecture":"千葉県","prefecture_kana":"チバケン","city":"夷隅郡大多喜町","city_kana":"イスミグンオオタキマチ","town":"紙敷","town_kana":"カミシキ","prefecture_code":12},"0253":{"zip_code":"2980253","prefecture":"千葉県","prefecture_kana":"チバケン","city":"夷隅郡大多喜町","city_kana":"イスミグンオオタキマチ","town":"川畑","town_kana":"カワハタ","prefecture_code":12},"0251":{"zip_code":"2980251","prefecture":"千葉県","prefecture_kana":"チバケン","city":"夷隅郡大多喜町","city_kana":"イスミグンオオタキマチ","town":"久我原","town_kana":"クガハラ","prefecture_code":12},"0267":{"zip_code":"2980267","prefecture":"千葉県","prefecture_kana":"チバケン","city":"夷隅郡大多喜町","city_kana":"イスミグンオオタキマチ","town":"葛藤","town_kana":"クズフジ","prefecture_code":12},"0215":{"zip_code":"2980215","prefecture":"千葉県","prefecture_kana":"チバケン","city":"夷隅郡大多喜町","city_kana":"イスミグンオオタキマチ","town":"久保","town_kana":"クボ","prefecture_code":12},"0255":{"zip_code":"2980255","prefecture":"千葉県","prefecture_kana":"チバケン","city":"夷隅郡大多喜町","city_kana":"イスミグンオオタキマチ","town":"黒原","town_kana":"クロハラ","prefecture_code":12},"0232":{"zip_code":"2980232","prefecture":"千葉県","prefecture_kana":"チバケン","city":"夷隅郡大多喜町","city_kana":"イスミグンオオタキマチ","town":"小内","town_kana":"コウチ","prefecture_code":12},"0238":{"zip_code":"2980238","prefecture":"千葉県","prefecture_kana":"チバケン","city":"夷隅郡大多喜町","city_kana":"イスミグンオオタキマチ","town":"小内笛倉入会","town_kana":"コウチフエグライリアイ","prefecture_code":12},"0211":{"zip_code":"2980211","prefecture":"千葉県","prefecture_kana":"チバケン","city":"夷隅郡大多喜町","city_kana":"イスミグンオオタキマチ","town":"紺屋","town_kana":"コウヤ","prefecture_code":12},"0278":{"zip_code":"2980278","prefecture":"千葉県","prefecture_kana":"チバケン","city":"夷隅郡大多喜町","city_kana":"イスミグンオオタキマチ","town":"小沢又","town_kana":"コザワマタ","prefecture_code":12},"0265":{"zip_code":"2980265","prefecture":"千葉県","prefecture_kana":"チバケン","city":"夷隅郡大多喜町","city_kana":"イスミグンオオタキマチ","town":"小田代","town_kana":"コタダイ","prefecture_code":12},"0242":{"zip_code":"2980242","prefecture":"千葉県","prefecture_kana":"チバケン","city":"夷隅郡大多喜町","city_kana":"イスミグンオオタキマチ","town":"小苗","town_kana":"コミョウ","prefecture_code":12},"0228":{"zip_code":"2980228","prefecture":"千葉県","prefecture_kana":"チバケン","city":"夷隅郡大多喜町","city_kana":"イスミグンオオタキマチ","town":"小谷松","town_kana":"コヤマツ","prefecture_code":12},"0213":{"zip_code":"2980213","prefecture":"千葉県","prefecture_kana":"チバケン","city":"夷隅郡大多喜町","city_kana":"イスミグンオオタキマチ","town":"桜台","town_kana":"サクラダイ","prefecture_code":12},"0212":{"zip_code":"2980212","prefecture":"千葉県","prefecture_kana":"チバケン","city":"夷隅郡大多喜町","city_kana":"イスミグンオオタキマチ","town":"猿稲","town_kana":"サルイネ","prefecture_code":12},"0273":{"zip_code":"2980273","prefecture":"千葉県","prefecture_kana":"チバケン","city":"夷隅郡大多喜町","city_kana":"イスミグンオオタキマチ","town":"三条","town_kana":"サンジョウ","prefecture_code":12},"0202":{"zip_code":"2980202","prefecture":"千葉県","prefecture_kana":"チバケン","city":"夷隅郡大多喜町","city_kana":"イスミグンオオタキマチ","town":"下大多喜","town_kana":"シモオオタキ","prefecture_code":12},"0246":{"zip_code":"2980246","prefecture":"千葉県","prefecture_kana":"チバケン","city":"夷隅郡大多喜町","city_kana":"イスミグンオオタキマチ","town":"庄司","town_kana":"ショウジ","prefecture_code":12},"0214":{"zip_code":"2980214","prefecture":"千葉県","prefecture_kana":"チバケン","city":"夷隅郡大多喜町","city_kana":"イスミグンオオタキマチ","town":"新丁","town_kana":"シンマチ","prefecture_code":12},"0207":{"zip_code":"2980207","prefecture":"千葉県","prefecture_kana":"チバケン","city":"夷隅郡大多喜町","city_kana":"イスミグンオオタキマチ","town":"泉水","town_kana":"センズイ","prefecture_code":12},"0274":{"zip_code":"2980274","prefecture":"千葉県","prefecture_kana":"チバケン","city":"夷隅郡大多喜町","city_kana":"イスミグンオオタキマチ","town":"田代","town_kana":"タシロ","prefecture_code":12},"0217":{"zip_code":"2980217","prefecture":"千葉県","prefecture_kana":"チバケン","city":"夷隅郡大多喜町","city_kana":"イスミグンオオタキマチ","town":"田丁","town_kana":"タマチ","prefecture_code":12},"0266":{"zip_code":"2980266","prefecture":"千葉県","prefecture_kana":"チバケン","city":"夷隅郡大多喜町","city_kana":"イスミグンオオタキマチ","town":"筒森","town_kana":"ツツモリ","prefecture_code":12},"0271":{"zip_code":"2980271","prefecture":"千葉県","prefecture_kana":"チバケン","city":"夷隅郡大多喜町","city_kana":"イスミグンオオタキマチ","town":"中野","town_kana":"ナカノ","prefecture_code":12},"0227":{"zip_code":"2980227","prefecture":"千葉県","prefecture_kana":"チバケン","city":"夷隅郡大多喜町","city_kana":"イスミグンオオタキマチ","town":"西部田","town_kana":"ニシベタ","prefecture_code":12},"0231":{"zip_code":"2980231","prefecture":"千葉県","prefecture_kana":"チバケン","city":"夷隅郡大多喜町","city_kana":"イスミグンオオタキマチ","town":"馬場内","town_kana":"ババウチ","prefecture_code":12},"0237":{"zip_code":"2980237","prefecture":"千葉県","prefecture_kana":"チバケン","city":"夷隅郡大多喜町","city_kana":"イスミグンオオタキマチ","town":"原内","town_kana":"ハラウチ","prefecture_code":12},"0254":{"zip_code":"2980254","prefecture":"千葉県","prefecture_kana":"チバケン","city":"夷隅郡大多喜町","city_kana":"イスミグンオオタキマチ","town":"平沢","town_kana":"ヒラサワ","prefecture_code":12},"0233":{"zip_code":"2980233","prefecture":"千葉県","prefecture_kana":"チバケン","city":"夷隅郡大多喜町","city_kana":"イスミグンオオタキマチ","town":"笛倉","town_kana":"フエグラ","prefecture_code":12},"0204":{"zip_code":"2980204","prefecture":"千葉県","prefecture_kana":"チバケン","city":"夷隅郡大多喜町","city_kana":"イスミグンオオタキマチ","town":"船子","town_kana":"フナコ","prefecture_code":12},"0226":{"zip_code":"2980226","prefecture":"千葉県","prefecture_kana":"チバケン","city":"夷隅郡大多喜町","city_kana":"イスミグンオオタキマチ","town":"部田","town_kana":"ヘタ","prefecture_code":12},"0262":{"zip_code":"2980262","prefecture":"千葉県","prefecture_kana":"チバケン","city":"夷隅郡大多喜町","city_kana":"イスミグンオオタキマチ","town":"堀切","town_kana":"ホリキリ","prefecture_code":12},"0224":{"zip_code":"2980224","prefecture":"千葉県","prefecture_kana":"チバケン","city":"夷隅郡大多喜町","city_kana":"イスミグンオオタキマチ","town":"堀之内","town_kana":"ホリノウチ","prefecture_code":12},"0244":{"zip_code":"2980244","prefecture":"千葉県","prefecture_kana":"チバケン","city":"夷隅郡大多喜町","city_kana":"イスミグンオオタキマチ","town":"松尾","town_kana":"マツオ","prefecture_code":12},"0252":{"zip_code":"2980252","prefecture":"千葉県","prefecture_kana":"チバケン","city":"夷隅郡大多喜町","city_kana":"イスミグンオオタキマチ","town":"三又","town_kana":"ミマタ","prefecture_code":12},"0236":{"zip_code":"2980236","prefecture":"千葉県","prefecture_kana":"チバケン","city":"夷隅郡大多喜町","city_kana":"イスミグンオオタキマチ","town":"百鉾","town_kana":"モフク","prefecture_code":12},"0203":{"zip_code":"2980203","prefecture":"千葉県","prefecture_kana":"チバケン","city":"夷隅郡大多喜町","city_kana":"イスミグンオオタキマチ","town":"森宮","town_kana":"モリミヤ","prefecture_code":12},"0245":{"zip_code":"2980245","prefecture":"千葉県","prefecture_kana":"チバケン","city":"夷隅郡大多喜町","city_kana":"イスミグンオオタキマチ","town":"弥喜用","town_kana":"ヤキヨウ","prefecture_code":12},"0222":{"zip_code":"2980222","prefecture":"千葉県","prefecture_kana":"チバケン","city":"夷隅郡大多喜町","city_kana":"イスミグンオオタキマチ","town":"八声","town_kana":"ヤコエ","prefecture_code":12},"0221":{"zip_code":"2980221","prefecture":"千葉県","prefecture_kana":"チバケン","city":"夷隅郡大多喜町","city_kana":"イスミグンオオタキマチ","town":"柳原","town_kana":"ヤナバラ","prefecture_code":12},"0243":{"zip_code":"2980243","prefecture":"千葉県","prefecture_kana":"チバケン","city":"夷隅郡大多喜町","city_kana":"イスミグンオオタキマチ","town":"湯倉","town_kana":"ユグラ","prefecture_code":12},"0275":{"zip_code":"2980275","prefecture":"千葉県","prefecture_kana":"チバケン","city":"夷隅郡大多喜町","city_kana":"イスミグンオオタキマチ","town":"弓木","town_kana":"ユミギ","prefecture_code":12},"0206":{"zip_code":"2980206","prefecture":"千葉県","prefecture_kana":"チバケン","city":"夷隅郡大多喜町","city_kana":"イスミグンオオタキマチ","town":"横山","town_kana":"ヨコヤマ","prefecture_code":12}}