{"0271":{"zip_code":"2990271","prefecture":"千葉県","prefecture_kana":"チバケン","city":"木更津市","city_kana":"キサラヅシ","town":"坂戸市場","town_kana":"サカドイチバ","prefecture_code":12},"4106":{"zip_code":"2994106","prefecture":"千葉県","prefecture_kana":"チバケン","city":"茂原市","city_kana":"モバラシ","town":"粟生野","town_kana":"アオノ","prefecture_code":12},"4115":{"zip_code":"2994115","prefecture":"千葉県","prefecture_kana":"チバケン","city":"茂原市","city_kana":"モバラシ","town":"榎神房","town_kana":"エノキカンボウ","prefecture_code":12},"4118":{"zip_code":"2994118","prefecture":"千葉県","prefecture_kana":"チバケン","city":"茂原市","city_kana":"モバラシ","town":"榎神房飛地","town_kana":"エノキカンボウトビチ","prefecture_code":12},"4125":{"zip_code":"2994125","prefecture":"千葉県","prefecture_kana":"チバケン","city":"茂原市","city_kana":"モバラシ","town":"大沢","town_kana":"オオサワ","prefecture_code":12},"4127":{"zip_code":"2994127","prefecture":"千葉県","prefecture_kana":"チバケン","city":"茂原市","city_kana":"モバラシ","town":"桂","town_kana":"カツラ","prefecture_code":12},"4128":{"zip_code":"2994128","prefecture":"千葉県","prefecture_kana":"チバケン","city":"茂原市","city_kana":"モバラシ","town":"桂飛地","town_kana":"カツラトビチ","prefecture_code":12},"4124":{"zip_code":"2994124","prefecture":"千葉県","prefecture_kana":"チバケン","city":"茂原市","city_kana":"モバラシ","town":"上太田","town_kana":"カミオオダ","prefecture_code":12},"4111":{"zip_code":"2994111","prefecture":"千葉県","prefecture_kana":"チバケン","city":"茂原市","city_kana":"モバラシ","town":"萱場","town_kana":"カヤバ","prefecture_code":12},"4117":{"zip_code":"2994117","prefecture":"千葉県","prefecture_kana":"チバケン","city":"茂原市","city_kana":"モバラシ","town":"小萱場","town_kana":"コカヤバ","prefecture_code":12},"4126":{"zip_code":"2994126","prefecture":"千葉県","prefecture_kana":"チバケン","city":"茂原市","city_kana":"モバラシ","town":"柴名","town_kana":"シバナ","prefecture_code":12},"4101":{"zip_code":"2994101","prefecture":"千葉県","prefecture_kana":"チバケン","city":"茂原市","city_kana":"モバラシ","town":"清水","town_kana":"シミズ","prefecture_code":12},"4123":{"zip_code":"2994123","prefecture":"千葉県","prefecture_kana":"チバケン","city":"茂原市","city_kana":"モバラシ","town":"下太田","town_kana":"シモオオダ","prefecture_code":12},"4103":{"zip_code":"2994103","prefecture":"千葉県","prefecture_kana":"チバケン","city":"茂原市","city_kana":"モバラシ","town":"千沢","town_kana":"センザワ","prefecture_code":12},"4116":{"zip_code":"2994116","prefecture":"千葉県","prefecture_kana":"チバケン","city":"茂原市","city_kana":"モバラシ","town":"高田","town_kana":"タカダ","prefecture_code":12},"4112":{"zip_code":"2994112","prefecture":"千葉県","prefecture_kana":"チバケン","city":"茂原市","city_kana":"モバラシ","town":"西野","town_kana":"ニシノ","prefecture_code":12},"4113":{"zip_code":"2994113","prefecture":"千葉県","prefecture_kana":"チバケン","city":"茂原市","city_kana":"モバラシ","town":"法目","town_kana":"ホウメ","prefecture_code":12},"4114":{"zip_code":"2994114","prefecture":"千葉県","prefecture_kana":"チバケン","city":"茂原市","city_kana":"モバラシ","town":"本納","town_kana":"ホンノウ","prefecture_code":12},"4102":{"zip_code":"2994102","prefecture":"千葉県","prefecture_kana":"チバケン","city":"茂原市","city_kana":"モバラシ","town":"御蔵芝","town_kana":"ミクラシバ","prefecture_code":12},"4104":{"zip_code":"2994104","prefecture":"千葉県","prefecture_kana":"チバケン","city":"茂原市","city_kana":"モバラシ","town":"南吉田","town_kana":"ミナミヨシダ","prefecture_code":12},"4105":{"zip_code":"2994105","prefecture":"千葉県","prefecture_kana":"チバケン","city":"茂原市","city_kana":"モバラシ","town":"弓渡","town_kana":"ユミワタシ","prefecture_code":12},"4122":{"zip_code":"2994122","prefecture":"千葉県","prefecture_kana":"チバケン","city":"茂原市","city_kana":"モバラシ","town":"吉井上","town_kana":"ヨシイカミ","prefecture_code":12},"4121":{"zip_code":"2994121","prefecture":"千葉県","prefecture_kana":"チバケン","city":"茂原市","city_kana":"モバラシ","town":"吉井下","town_kana":"ヨシイシモ","prefecture_code":12},"5200":{"zip_code":"2995200","prefecture":"千葉県","prefecture_kana":"チバケン","city":"勝浦市","city_kana":"カツウラシ","town":"","town_kana":"","prefecture_code":12},"5263":{"zip_code":"2995263","prefecture":"千葉県","prefecture_kana":"チバケン","city":"勝浦市","city_kana":"カツウラシ","town":"赤羽根","town_kana":"アカバネ","prefecture_code":12},"5273":{"zip_code":"2995273","prefecture":"千葉県","prefecture_kana":"チバケン","city":"勝浦市","city_kana":"カツウラシ","town":"荒川","town_kana":"アラカワ","prefecture_code":12},"5202":{"zip_code":"2995202","prefecture":"千葉県","prefecture_kana":"チバケン","city":"勝浦市","city_kana":"カツウラシ","town":"市野川","town_kana":"イチノカワ","prefecture_code":12},"5201":{"zip_code":"2995201","prefecture":"千葉県","prefecture_kana":"チバケン","city":"勝浦市","city_kana":"カツウラシ","town":"市野郷","town_kana":"イチノゴウ","prefecture_code":12},"5235":{"zip_code":"2995235","prefecture":"千葉県","prefecture_kana":"チバケン","city":"勝浦市","city_kana":"カツウラシ","town":"出水","town_kana":"イデミズ","prefecture_code":12},"5266":{"zip_code":"2995266","prefecture":"千葉県","prefecture_kana":"チバケン","city":"勝浦市","city_kana":"カツウラシ","town":"上野","town_kana":"ウエノ","prefecture_code":12},"5265":{"zip_code":"2995265","prefecture":"千葉県","prefecture_kana":"チバケン","city":"勝浦市","city_kana":"カツウラシ","town":"植野","town_kana":"ウエノ","prefecture_code":12},"5267":{"zip_code":"2995267","prefecture":"千葉県","prefecture_kana":"チバケン","city":"勝浦市","city_kana":"カツウラシ","town":"植野元宮田","town_kana":"ウエノモトミヤタ","prefecture_code":12},"5243":{"zip_code":"2995243","prefecture":"千葉県","prefecture_kana":"チバケン","city":"勝浦市","city_kana":"カツウラシ","town":"鵜原","town_kana":"ウバラ","prefecture_code":12},"5217":{"zip_code":"2995217","prefecture":"千葉県","prefecture_kana":"チバケン","city":"勝浦市","city_kana":"カツウラシ","town":"大楠","town_kana":"オオクス","prefecture_code":12},"5256":{"zip_code":"2995256","prefecture":"千葉県","prefecture_kana":"チバケン","city":"勝浦市","city_kana":"カツウラシ","town":"大沢","town_kana":"オオサワ","prefecture_code":12},"5261":{"zip_code":"2995261","prefecture":"千葉県","prefecture_kana":"チバケン","city":"勝浦市","city_kana":"カツウラシ","town":"大森","town_kana":"オオモリ","prefecture_code":12},"5251":{"zip_code":"2995251","prefecture":"千葉県","prefecture_kana":"チバケン","city":"勝浦市","city_kana":"カツウラシ","town":"大森上植野入会地","town_kana":"オオモリカミウエノイリアイチ","prefecture_code":12},"5245":{"zip_code":"2995245","prefecture":"千葉県","prefecture_kana":"チバケン","city":"勝浦市","city_kana":"カツウラシ","town":"興津","town_kana":"オキツ","prefecture_code":12},"5246":{"zip_code":"2995246","prefecture":"千葉県","prefecture_kana":"チバケン","city":"勝浦市","city_kana":"カツウラシ","town":"興津久保山台","town_kana":"オキツクボヤマダイ","prefecture_code":12},"5272":{"zip_code":"2995272","prefecture":"千葉県","prefecture_kana":"チバケン","city":"勝浦市","city_kana":"カツウラシ","town":"貝掛","town_kana":"カイガケ","prefecture_code":12},"5234":{"zip_code":"2995234","prefecture":"千葉県","prefecture_kana":"チバケン","city":"勝浦市","city_kana":"カツウラシ","town":"勝浦","town_kana":"カツウラ","prefecture_code":12},"5212":{"zip_code":"2995212","prefecture":"千葉県","prefecture_kana":"チバケン","city":"勝浦市","city_kana":"カツウラシ","town":"蟹田","town_kana":"カニタ","prefecture_code":12},"5252":{"zip_code":"2995252","prefecture":"千葉県","prefecture_kana":"チバケン","city":"勝浦市","city_kana":"カツウラシ","town":"上植野","town_kana":"カミウエノ","prefecture_code":12},"5232":{"zip_code":"2995232","prefecture":"千葉県","prefecture_kana":"チバケン","city":"勝浦市","city_kana":"カツウラシ","town":"川津","town_kana":"カワヅ","prefecture_code":12},"5226":{"zip_code":"2995226","prefecture":"千葉県","prefecture_kana":"チバケン","city":"勝浦市","city_kana":"カツウラシ","town":"串浜","town_kana":"クシハマ","prefecture_code":12},"5218":{"zip_code":"2995218","prefecture":"千葉県","prefecture_kana":"チバケン","city":"勝浦市","city_kana":"カツウラシ","town":"小羽戸","town_kana":"コバド","prefecture_code":12},"5219":{"zip_code":"2995219","prefecture":"千葉県","prefecture_kana":"チバケン","city":"勝浦市","city_kana":"カツウラシ","town":"小松野","town_kana":"コマツノ","prefecture_code":12},"5206":{"zip_code":"2995206","prefecture":"千葉県","prefecture_kana":"チバケン","city":"勝浦市","city_kana":"カツウラシ","town":"佐野","town_kana":"サノ","prefecture_code":12},"5231":{"zip_code":"2995231","prefecture":"千葉県","prefecture_kana":"チバケン","city":"勝浦市","city_kana":"カツウラシ","town":"沢倉","town_kana":"サワクラ","prefecture_code":12},"5216":{"zip_code":"2995216","prefecture":"千葉県","prefecture_kana":"チバケン","city":"勝浦市","city_kana":"カツウラシ","town":"宿戸","town_kana":"シュクド","prefecture_code":12},"5215":{"zip_code":"2995215","prefecture":"千葉県","prefecture_kana":"チバケン","city":"勝浦市","city_kana":"カツウラシ","town":"白井久保","town_kana":"シライクボ","prefecture_code":12},"5214":{"zip_code":"2995214","prefecture":"千葉県","prefecture_kana":"チバケン","city":"勝浦市","city_kana":"カツウラシ","town":"白木","town_kana":"シラキ","prefecture_code":12},"5224":{"zip_code":"2995224","prefecture":"千葉県","prefecture_kana":"チバケン","city":"勝浦市","city_kana":"カツウラシ","town":"新官","town_kana":"シンカン","prefecture_code":12},"5228":{"zip_code":"2995228","prefecture":"千葉県","prefecture_kana":"チバケン","city":"勝浦市","city_kana":"カツウラシ","town":"新戸","town_kana":"シンド","prefecture_code":12},"5205":{"zip_code":"2995205","prefecture":"千葉県","prefecture_kana":"チバケン","city":"勝浦市","city_kana":"カツウラシ","town":"杉戸","town_kana":"スギド","prefecture_code":12},"5222":{"zip_code":"2995222","prefecture":"千葉県","prefecture_kana":"チバケン","city":"勝浦市","city_kana":"カツウラシ","town":"関谷","town_kana":"セキヤツ","prefecture_code":12},"5254":{"zip_code":"2995254","prefecture":"千葉県","prefecture_kana":"チバケン","city":"勝浦市","city_kana":"カツウラシ","town":"台宿","town_kana":"ダイジュク","prefecture_code":12},"5225":{"zip_code":"2995225","prefecture":"千葉県","prefecture_kana":"チバケン","city":"勝浦市","city_kana":"カツウラシ","town":"墨名","town_kana":"トナ","prefecture_code":12},"5204":{"zip_code":"2995204","prefecture":"千葉県","prefecture_kana":"チバケン","city":"勝浦市","city_kana":"カツウラシ","town":"中倉","town_kana":"ナカグラ","prefecture_code":12},"5262":{"zip_code":"2995262","prefecture":"千葉県","prefecture_kana":"チバケン","city":"勝浦市","city_kana":"カツウラシ","town":"中里","town_kana":"ナカザト","prefecture_code":12},"5264":{"zip_code":"2995264","prefecture":"千葉県","prefecture_kana":"チバケン","city":"勝浦市","city_kana":"カツウラシ","town":"中島","town_kana":"ナカジマ","prefecture_code":12},"5227":{"zip_code":"2995227","prefecture":"千葉県","prefecture_kana":"チバケン","city":"勝浦市","city_kana":"カツウラシ","town":"中谷","town_kana":"ナカヤ","prefecture_code":12},"5253":{"zip_code":"2995253","prefecture":"千葉県","prefecture_kana":"チバケン","city":"勝浦市","city_kana":"カツウラシ","town":"名木","town_kana":"ナギ","prefecture_code":12},"5213":{"zip_code":"2995213","prefecture":"千葉県","prefecture_kana":"チバケン","city":"勝浦市","city_kana":"カツウラシ","town":"芳賀","town_kana":"ハガ","prefecture_code":12},"5203":{"zip_code":"2995203","prefecture":"千葉県","prefecture_kana":"チバケン","city":"勝浦市","city_kana":"カツウラシ","town":"花里","town_kana":"ハナザト","prefecture_code":12},"5233":{"zip_code":"2995233","prefecture":"千葉県","prefecture_kana":"チバケン","city":"勝浦市","city_kana":"カツウラシ","town":"浜勝浦","town_kana":"ハマカツウラ","prefecture_code":12},"5255":{"zip_code":"2995255","prefecture":"千葉県","prefecture_kana":"チバケン","city":"勝浦市","city_kana":"カツウラシ","town":"浜行川","town_kana":"ハマナメガワ","prefecture_code":12},"5221":{"zip_code":"2995221","prefecture":"千葉県","prefecture_kana":"チバケン","city":"勝浦市","city_kana":"カツウラシ","town":"平田","town_kana":"ヒラタ","prefecture_code":12},"5223":{"zip_code":"2995223","prefecture":"千葉県","prefecture_kana":"チバケン","city":"勝浦市","city_kana":"カツウラシ","town":"部原","town_kana":"ヘバラ","prefecture_code":12},"5271":{"zip_code":"2995271","prefecture":"千葉県","prefecture_kana":"チバケン","city":"勝浦市","city_kana":"カツウラシ","town":"法花","town_kana":"ホウゲ","prefecture_code":12},"5211":{"zip_code":"2995211","prefecture":"千葉県","prefecture_kana":"チバケン","city":"勝浦市","city_kana":"カツウラシ","town":"松野","town_kana":"マツノ","prefecture_code":12},"5241":{"zip_code":"2995241","prefecture":"千葉県","prefecture_kana":"チバケン","city":"勝浦市","city_kana":"カツウラシ","town":"松部","town_kana":"マツベ","prefecture_code":12},"5274":{"zip_code":"2995274","prefecture":"千葉県","prefecture_kana":"チバケン","city":"勝浦市","city_kana":"カツウラシ","town":"南山田","town_kana":"ミナミヤマダ","prefecture_code":12},"5244":{"zip_code":"2995244","prefecture":"千葉県","prefecture_kana":"チバケン","city":"勝浦市","city_kana":"カツウラシ","town":"守谷","town_kana":"モリヤ","prefecture_code":12},"5242":{"zip_code":"2995242","prefecture":"千葉県","prefecture_kana":"チバケン","city":"勝浦市","city_kana":"カツウラシ","town":"吉尾","town_kana":"ヨシオ","prefecture_code":12},"0117":{"zip_code":"2990117","prefecture":"千葉県","prefecture_kana":"チバケン","city":"市原市","city_kana":"イチハラシ","town":"青葉台","town_kana":"アオバダイ","prefecture_code":12},"0102":{"zip_code":"2990102","prefecture":"千葉県","prefecture_kana":"チバケン","city":"市原市","city_kana":"イチハラシ","town":"青柳","town_kana":"アオヤギ","prefecture_code":12},"0103":{"zip_code":"2990103","prefecture":"千葉県","prefecture_kana":"チバケン","city":"市原市","city_kana":"イチハラシ","town":"青柳海岸","town_kana":"アオヤギカイガン","prefecture_code":12},"0101":{"zip_code":"2990101","prefecture":"千葉県","prefecture_kana":"チバケン","city":"市原市","city_kana":"イチハラシ","town":"青柳北","town_kana":"アオヤギキタ","prefecture_code":12},"0111":{"zip_code":"2990111","prefecture":"千葉県","prefecture_kana":"チバケン","city":"市原市","city_kana":"イチハラシ","town":"姉崎","town_kana":"アネサキ","prefecture_code":12},"0107":{"zip_code":"2990107","prefecture":"千葉県","prefecture_kana":"チバケン","city":"市原市","city_kana":"イチハラシ","town":"姉崎海岸","town_kana":"アネサキカイガン","prefecture_code":12},"0119":{"zip_code":"2990119","prefecture":"千葉県","prefecture_kana":"チバケン","city":"市原市","city_kana":"イチハラシ","town":"姉崎西","town_kana":"アネサキニシ","prefecture_code":12},"0126":{"zip_code":"2990126","prefecture":"千葉県","prefecture_kana":"チバケン","city":"市原市","city_kana":"イチハラシ","town":"天羽田","town_kana":"アモウダ","prefecture_code":12},"0114":{"zip_code":"2990114","prefecture":"千葉県","prefecture_kana":"チバケン","city":"市原市","city_kana":"イチハラシ","town":"泉台","town_kana":"イズミダイ","prefecture_code":12},"0106":{"zip_code":"2990106","prefecture":"千葉県","prefecture_kana":"チバケン","city":"市原市","city_kana":"イチハラシ","town":"今津朝山","town_kana":"イマヅアサヤマ","prefecture_code":12},"0115":{"zip_code":"2990115","prefecture":"千葉県","prefecture_kana":"チバケン","city":"市原市","city_kana":"イチハラシ","town":"不入斗","town_kana":"イリヤマズ","prefecture_code":12},"0105":{"zip_code":"2990105","prefecture":"千葉県","prefecture_kana":"チバケン","city":"市原市","city_kana":"イチハラシ","town":"柏原","town_kana":"カシワバラ","prefecture_code":12},"0113":{"zip_code":"2990113","prefecture":"千葉県","prefecture_kana":"チバケン","city":"市原市","city_kana":"イチハラシ","town":"片又木","town_kana":"カタマタギ","prefecture_code":12},"0127":{"zip_code":"2990127","prefecture":"千葉県","prefecture_kana":"チバケン","city":"市原市","city_kana":"イチハラシ","town":"桜台","town_kana":"サクラダイ","prefecture_code":12},"0118":{"zip_code":"2990118","prefecture":"千葉県","prefecture_kana":"チバケン","city":"市原市","city_kana":"イチハラシ","town":"椎津","town_kana":"シイヅ","prefecture_code":12},"0128":{"zip_code":"2990128","prefecture":"千葉県","prefecture_kana":"チバケン","city":"市原市","city_kana":"イチハラシ","town":"椎の木台","town_kana":"シイノキダイ","prefecture_code":12},"0104":{"zip_code":"2990104","prefecture":"千葉県","prefecture_kana":"チバケン","city":"市原市","city_kana":"イチハラシ","town":"白塚","town_kana":"シラツカ","prefecture_code":12},"0121":{"zip_code":"2990121","prefecture":"千葉県","prefecture_kana":"チバケン","city":"市原市","city_kana":"イチハラシ","town":"立野","town_kana":"タテノ","prefecture_code":12},"0109":{"zip_code":"2990109","prefecture":"千葉県","prefecture_kana":"チバケン","city":"市原市","city_kana":"イチハラシ","town":"千種","town_kana":"チグサ","prefecture_code":12},"0108":{"zip_code":"2990108","prefecture":"千葉県","prefecture_kana":"チバケン","city":"市原市","city_kana":"イチハラシ","town":"千種海岸","town_kana":"チグサカイガン","prefecture_code":12},"0122":{"zip_code":"2990122","prefecture":"千葉県","prefecture_kana":"チバケン","city":"市原市","city_kana":"イチハラシ","town":"豊成","town_kana":"トヨナリ","prefecture_code":12},"0112":{"zip_code":"2990112","prefecture":"千葉県","prefecture_kana":"チバケン","city":"市原市","city_kana":"イチハラシ","town":"畑木","town_kana":"ハタキ","prefecture_code":12},"0123":{"zip_code":"2990123","prefecture":"千葉県","prefecture_kana":"チバケン","city":"市原市","city_kana":"イチハラシ","town":"深城","town_kana":"フカシロ","prefecture_code":12},"0116":{"zip_code":"2990116","prefecture":"千葉県","prefecture_kana":"チバケン","city":"市原市","city_kana":"イチハラシ","town":"迎田","town_kana":"ムカエダ","prefecture_code":12},"0124":{"zip_code":"2990124","prefecture":"千葉県","prefecture_kana":"チバケン","city":"市原市","city_kana":"イチハラシ","town":"有秋台東","town_kana":"ユウシュウダイヒガシ","prefecture_code":12},"0125":{"zip_code":"2990125","prefecture":"千葉県","prefecture_kana":"チバケン","city":"市原市","city_kana":"イチハラシ","town":"有秋台西","town_kana":"ユウシュウダイニシ","prefecture_code":12},"5503":{"zip_code":"2995503","prefecture":"千葉県","prefecture_kana":"チバケン","city":"鴨川市","city_kana":"カモガワシ","town":"天津","town_kana":"アマツ","prefecture_code":12},"2864":{"zip_code":"2992864","prefecture":"千葉県","prefecture_kana":"チバケン","city":"鴨川市","city_kana":"カモガワシ","town":"天面","town_kana":"アマツラ","prefecture_code":12},"5502":{"zip_code":"2995502","prefecture":"千葉県","prefecture_kana":"チバケン","city":"鴨川市","city_kana":"カモガワシ","town":"内浦","town_kana":"ウチウラ","prefecture_code":12},"2842":{"zip_code":"2992842","prefecture":"千葉県","prefecture_kana":"チバケン","city":"鴨川市","city_kana":"カモガワシ","town":"江見青木","town_kana":"エミアオキ","prefecture_code":12},"2847":{"zip_code":"2992847","prefecture":"千葉県","prefecture_kana":"チバケン","city":"鴨川市","city_kana":"カモガワシ","town":"江見内遠野","town_kana":"エミウトノ","prefecture_code":12},"2846":{"zip_code":"2992846","prefecture":"千葉県","prefecture_kana":"チバケン","city":"鴨川市","city_kana":"カモガワシ","town":"江見外堀","town_kana":"エミソトボリ","prefecture_code":12},"2865":{"zip_code":"2992865","prefecture":"千葉県","prefecture_kana":"チバケン","city":"鴨川市","city_kana":"カモガワシ","town":"江見太夫崎","town_kana":"エミタユウザキ","prefecture_code":12},"2844":{"zip_code":"2992844","prefecture":"千葉県","prefecture_kana":"チバケン","city":"鴨川市","city_kana":"カモガワシ","town":"江見東真門","town_kana":"エミヒガシマカド","prefecture_code":12},"2845":{"zip_code":"2992845","prefecture":"千葉県","prefecture_kana":"チバケン","city":"鴨川市","city_kana":"カモガワシ","town":"江見西真門","town_kana":"エミニシマカド","prefecture_code":12},"2866":{"zip_code":"2992866","prefecture":"千葉県","prefecture_kana":"チバケン","city":"鴨川市","city_kana":"カモガワシ","town":"江見吉浦","town_kana":"エミヨシウラ","prefecture_code":12},"2858":{"zip_code":"2992858","prefecture":"千葉県","prefecture_kana":"チバケン","city":"鴨川市","city_kana":"カモガワシ","town":"上","town_kana":"カミ","prefecture_code":12},"5505":{"zip_code":"2995505","prefecture":"千葉県","prefecture_kana":"チバケン","city":"鴨川市","city_kana":"カモガワシ","town":"清澄","town_kana":"キヨスミ","prefecture_code":12},"5501":{"zip_code":"2995501","prefecture":"千葉県","prefecture_kana":"チバケン","city":"鴨川市","city_kana":"カモガワシ","town":"小湊","town_kana":"コミナト","prefecture_code":12},"2854":{"zip_code":"2992854","prefecture":"千葉県","prefecture_kana":"チバケン","city":"鴨川市","city_kana":"カモガワシ","town":"代","town_kana":"ダイ","prefecture_code":12},"2851":{"zip_code":"2992851","prefecture":"千葉県","prefecture_kana":"チバケン","city":"鴨川市","city_kana":"カモガワシ","town":"仲町","town_kana":"ナカチョウ","prefecture_code":12},"2856":{"zip_code":"2992856","prefecture":"千葉県","prefecture_kana":"チバケン","city":"鴨川市","city_kana":"カモガワシ","town":"西","town_kana":"ニシ","prefecture_code":12},"2841":{"zip_code":"2992841","prefecture":"千葉県","prefecture_kana":"チバケン","city":"鴨川市","city_kana":"カモガワシ","town":"西江見","town_kana":"ニシエミ","prefecture_code":12},"2867":{"zip_code":"2992867","prefecture":"千葉県","prefecture_kana":"チバケン","city":"鴨川市","city_kana":"カモガワシ","town":"西山","town_kana":"ニシヤマ","prefecture_code":12},"2855":{"zip_code":"2992855","prefecture":"千葉県","prefecture_kana":"チバケン","city":"鴨川市","city_kana":"カモガワシ","town":"畑","town_kana":"ハタ","prefecture_code":12},"5504":{"zip_code":"2995504","prefecture":"千葉県","prefecture_kana":"チバケン","city":"鴨川市","city_kana":"カモガワシ","town":"浜荻","town_kana":"ハマオギ","prefecture_code":12},"2857":{"zip_code":"2992857","prefecture":"千葉県","prefecture_kana":"チバケン","city":"鴨川市","city_kana":"カモガワシ","town":"東","town_kana":"ヒガシ","prefecture_code":12},"2843":{"zip_code":"2992843","prefecture":"千葉県","prefecture_kana":"チバケン","city":"鴨川市","city_kana":"カモガワシ","town":"東江見","town_kana":"ヒガシエミ","prefecture_code":12},"2852":{"zip_code":"2992852","prefecture":"千葉県","prefecture_kana":"チバケン","city":"鴨川市","city_kana":"カモガワシ","town":"二子","town_kana":"フタゴ","prefecture_code":12},"2862":{"zip_code":"2992862","prefecture":"千葉県","prefecture_kana":"チバケン","city":"鴨川市","city_kana":"カモガワシ","town":"太海","town_kana":"フトミ","prefecture_code":12},"2863":{"zip_code":"2992863","prefecture":"千葉県","prefecture_kana":"チバケン","city":"鴨川市","city_kana":"カモガワシ","town":"太海浜","town_kana":"フトミハマ","prefecture_code":12},"2861":{"zip_code":"2992861","prefecture":"千葉県","prefecture_kana":"チバケン","city":"鴨川市","city_kana":"カモガワシ","town":"太海西","town_kana":"フトミニシ","prefecture_code":12},"2853":{"zip_code":"2992853","prefecture":"千葉県","prefecture_kana":"チバケン","city":"鴨川市","city_kana":"カモガワシ","town":"宮","town_kana":"ミヤ","prefecture_code":12},"5506":{"zip_code":"2995506","prefecture":"千葉県","prefecture_kana":"チバケン","city":"鴨川市","city_kana":"カモガワシ","town":"四方木","town_kana":"ヨモギ","prefecture_code":12},"1100":{"zip_code":"2991100","prefecture":"千葉県","prefecture_kana":"チバケン","city":"君津市","city_kana":"キミツシ","town":"","town_kana":"","prefecture_code":12},"1112":{"zip_code":"2991112","prefecture":"千葉県","prefecture_kana":"チバケン","city":"君津市","city_kana":"キミツシ","town":"泉","town_kana":"イズミ","prefecture_code":12},"1175":{"zip_code":"2991175","prefecture":"千葉県","prefecture_kana":"チバケン","city":"君津市","city_kana":"キミツシ","town":"内箕輪","town_kana":"ウチミノワ","prefecture_code":12},"1176":{"zip_code":"2991176","prefecture":"千葉県","prefecture_kana":"チバケン","city":"君津市","city_kana":"キミツシ","town":"内蓑輪","town_kana":"ウチミノワ","prefecture_code":12},"1103":{"zip_code":"2991103","prefecture":"千葉県","prefecture_kana":"チバケン","city":"君津市","city_kana":"キミツシ","town":"大井","town_kana":"オオイ","prefecture_code":12},"1123":{"zip_code":"2991123","prefecture":"千葉県","prefecture_kana":"チバケン","city":"君津市","city_kana":"キミツシ","town":"大山野","town_kana":"オオヤマノ","prefecture_code":12},"1102":{"zip_code":"2991102","prefecture":"千葉県","prefecture_kana":"チバケン","city":"君津市","city_kana":"キミツシ","town":"大鷲","town_kana":"オオワシ","prefecture_code":12},"1101":{"zip_code":"2991101","prefecture":"千葉県","prefecture_kana":"チバケン","city":"君津市","city_kana":"キミツシ","town":"大鷲新田","town_kana":"オオワシシンデン","prefecture_code":12},"1146":{"zip_code":"2991146","prefecture":"千葉県","prefecture_kana":"チバケン","city":"君津市","city_kana":"キミツシ","town":"大和田","town_kana":"オオワダ","prefecture_code":12},"1107":{"zip_code":"2991107","prefecture":"千葉県","prefecture_kana":"チバケン","city":"君津市","city_kana":"キミツシ","town":"上","town_kana":"カミ","prefecture_code":12},"1138":{"zip_code":"2991138","prefecture":"千葉県","prefecture_kana":"チバケン","city":"君津市","city_kana":"キミツシ","town":"上湯江","town_kana":"カミユエ","prefecture_code":12},"1164":{"zip_code":"2991164","prefecture":"千葉県","prefecture_kana":"チバケン","city":"君津市","city_kana":"キミツシ","town":"北久保","town_kana":"キタクボ","prefecture_code":12},"1161":{"zip_code":"2991161","prefecture":"千葉県","prefecture_kana":"チバケン","city":"君津市","city_kana":"キミツシ","town":"北子安","town_kana":"キタコヤス","prefecture_code":12},"1141":{"zip_code":"2991141","prefecture":"千葉県","prefecture_kana":"チバケン","city":"君津市","city_kana":"キミツシ","town":"君津","town_kana":"キミツ","prefecture_code":12},"1143":{"zip_code":"2991143","prefecture":"千葉県","prefecture_kana":"チバケン","city":"君津市","city_kana":"キミツシ","town":"君津台","town_kana":"キミツダイ","prefecture_code":12},"1152":{"zip_code":"2991152","prefecture":"千葉県","prefecture_kana":"チバケン","city":"君津市","city_kana":"キミツシ","town":"久保","town_kana":"クボ","prefecture_code":12},"1165":{"zip_code":"2991165","prefecture":"千葉県","prefecture_kana":"チバケン","city":"君津市","city_kana":"キミツシ","town":"高坂","town_kana":"コウサカ","prefecture_code":12},"1127":{"zip_code":"2991127","prefecture":"千葉県","prefecture_kana":"チバケン","city":"君津市","city_kana":"キミツシ","town":"郡","town_kana":"コオリ","prefecture_code":12},"1126":{"zip_code":"2991126","prefecture":"千葉県","prefecture_kana":"チバケン","city":"君津市","city_kana":"キミツシ","town":"小山野","town_kana":"コヤマノ","prefecture_code":12},"1142":{"zip_code":"2991142","prefecture":"千葉県","prefecture_kana":"チバケン","city":"君津市","city_kana":"キミツシ","town":"坂田","town_kana":"サカダ","prefecture_code":12},"1133":{"zip_code":"2991133","prefecture":"千葉県","prefecture_kana":"チバケン","city":"君津市","city_kana":"キミツシ","town":"貞元","town_kana":"サダモト","prefecture_code":12},"1116":{"zip_code":"2991116","prefecture":"千葉県","prefecture_kana":"チバケン","city":"君津市","city_kana":"キミツシ","town":"皿引","town_kana":"サラヒキ","prefecture_code":12},"1136":{"zip_code":"2991136","prefecture":"千葉県","prefecture_kana":"チバケン","city":"君津市","city_kana":"キミツシ","town":"新御堂","town_kana":"シミドウ","prefecture_code":12},"1131":{"zip_code":"2991131","prefecture":"千葉県","prefecture_kana":"チバケン","city":"君津市","city_kana":"キミツシ","town":"下湯江","town_kana":"シモユエ","prefecture_code":12},"1137":{"zip_code":"2991137","prefecture":"千葉県","prefecture_kana":"チバケン","city":"君津市","city_kana":"キミツシ","town":"小香","town_kana":"ショウコウ","prefecture_code":12},"1105":{"zip_code":"2991105","prefecture":"千葉県","prefecture_kana":"チバケン","city":"君津市","city_kana":"キミツシ","town":"白駒","town_kana":"シロコマ","prefecture_code":12},"1135":{"zip_code":"2991135","prefecture":"千葉県","prefecture_kana":"チバケン","city":"君津市","city_kana":"キミツシ","town":"杉谷","town_kana":"スギヤツ","prefecture_code":12},"1114":{"zip_code":"2991114","prefecture":"千葉県","prefecture_kana":"チバケン","city":"君津市","city_kana":"キミツシ","town":"草牛","town_kana":"ソウギュウ","prefecture_code":12},"1173":{"zip_code":"2991173","prefecture":"千葉県","prefecture_kana":"チバケン","city":"君津市","city_kana":"キミツシ","town":"外箕輪","town_kana":"ソトミノワ","prefecture_code":12},"1153":{"zip_code":"2991153","prefecture":"千葉県","prefecture_kana":"チバケン","city":"君津市","city_kana":"キミツシ","town":"台","town_kana":"ダイ","prefecture_code":12},"1124":{"zip_code":"2991124","prefecture":"千葉県","prefecture_kana":"チバケン","city":"君津市","city_kana":"キミツシ","town":"作木","town_kana":"ツクリキ","prefecture_code":12},"1121":{"zip_code":"2991121","prefecture":"千葉県","prefecture_kana":"チバケン","city":"君津市","city_kana":"キミツシ","town":"常代","town_kana":"トコシロ","prefecture_code":12},"1106":{"zip_code":"2991106","prefecture":"千葉県","prefecture_kana":"チバケン","city":"君津市","city_kana":"キミツシ","town":"中島","town_kana":"ナカジマ","prefecture_code":12},"1132":{"zip_code":"2991132","prefecture":"千葉県","prefecture_kana":"チバケン","city":"君津市","city_kana":"キミツシ","town":"中富","town_kana":"ナカトミ","prefecture_code":12},"1151":{"zip_code":"2991151","prefecture":"千葉県","prefecture_kana":"チバケン","city":"君津市","city_kana":"キミツシ","town":"中野","town_kana":"ナカノ","prefecture_code":12},"1145":{"zip_code":"2991145","prefecture":"千葉県","prefecture_kana":"チバケン","city":"君津市","city_kana":"キミツシ","town":"西坂田","town_kana":"ニシサカダ","prefecture_code":12},"1104":{"zip_code":"2991104","prefecture":"千葉県","prefecture_kana":"チバケン","city":"君津市","city_kana":"キミツシ","town":"糠田","town_kana":"ヌカタ","prefecture_code":12},"1108":{"zip_code":"2991108","prefecture":"千葉県","prefecture_kana":"チバケン","city":"君津市","city_kana":"キミツシ","town":"練木","town_kana":"ネリキ","prefecture_code":12},"1122":{"zip_code":"2991122","prefecture":"千葉県","prefecture_kana":"チバケン","city":"君津市","city_kana":"キミツシ","town":"浜子","town_kana":"ハマゴ","prefecture_code":12},"1144":{"zip_code":"2991144","prefecture":"千葉県","prefecture_kana":"チバケン","city":"君津市","city_kana":"キミツシ","town":"東坂田","town_kana":"ヒガシサカダ","prefecture_code":12},"1113":{"zip_code":"2991113","prefecture":"千葉県","prefecture_kana":"チバケン","city":"君津市","city_kana":"キミツシ","town":"尾車","town_kana":"ビシャ","prefecture_code":12},"1147":{"zip_code":"2991147","prefecture":"千葉県","prefecture_kana":"チバケン","city":"君津市","city_kana":"キミツシ","town":"人見","town_kana":"ヒトミ","prefecture_code":12},"1174":{"zip_code":"2991174","prefecture":"千葉県","prefecture_kana":"チバケン","city":"君津市","city_kana":"キミツシ","town":"法木作","town_kana":"ホウギサク","prefecture_code":12},"1115":{"zip_code":"2991115","prefecture":"千葉県","prefecture_kana":"チバケン","city":"君津市","city_kana":"キミツシ","town":"馬登","town_kana":"マノボリ","prefecture_code":12},"1154":{"zip_code":"2991154","prefecture":"千葉県","prefecture_kana":"チバケン","city":"君津市","city_kana":"キミツシ","town":"南久保","town_kana":"ミナミクボ","prefecture_code":12},"1162":{"zip_code":"2991162","prefecture":"千葉県","prefecture_kana":"チバケン","city":"君津市","city_kana":"キミツシ","town":"南子安","town_kana":"ミナミコヤス","prefecture_code":12},"1172":{"zip_code":"2991172","prefecture":"千葉県","prefecture_kana":"チバケン","city":"君津市","city_kana":"キミツシ","town":"三直","town_kana":"ミノウ","prefecture_code":12},"1117":{"zip_code":"2991117","prefecture":"千葉県","prefecture_kana":"チバケン","city":"君津市","city_kana":"キミツシ","town":"宮下","town_kana":"ミヤノシタ","prefecture_code":12},"1111":{"zip_code":"2991111","prefecture":"千葉県","prefecture_kana":"チバケン","city":"君津市","city_kana":"キミツシ","town":"六手","town_kana":"ムテ","prefecture_code":12},"1163":{"zip_code":"2991163","prefecture":"千葉県","prefecture_kana":"チバケン","city":"君津市","city_kana":"キミツシ","town":"杢師","town_kana":"モクシ","prefecture_code":12},"1171":{"zip_code":"2991171","prefecture":"千葉県","prefecture_kana":"チバケン","city":"君津市","city_kana":"キミツシ","town":"八重原","town_kana":"ヤエハラ","prefecture_code":12},"1125":{"zip_code":"2991125","prefecture":"千葉県","prefecture_kana":"チバケン","city":"君津市","city_kana":"キミツシ","town":"山高原","town_kana":"ヤマタカハラ","prefecture_code":12},"1134":{"zip_code":"2991134","prefecture":"千葉県","prefecture_kana":"チバケン","city":"君津市","city_kana":"キミツシ","town":"八幡","town_kana":"ヤワタ","prefecture_code":12},"1166":{"zip_code":"2991166","prefecture":"千葉県","prefecture_kana":"チバケン","city":"君津市","city_kana":"キミツシ","town":"陽光台","town_kana":"ヨウコウダイ","prefecture_code":12},"1615":{"zip_code":"2991615","prefecture":"千葉県","prefecture_kana":"チバケン","city":"富津市","city_kana":"フッツシ","town":"相川","town_kana":"アイカワ","prefecture_code":12},"1613":{"zip_code":"2991613","prefecture":"千葉県","prefecture_kana":"チバケン","city":"富津市","city_kana":"フッツシ","town":"不入斗","town_kana":"イリヤマズ","prefecture_code":12},"1608":{"zip_code":"2991608","prefecture":"千葉県","prefecture_kana":"チバケン","city":"富津市","city_kana":"フッツシ","town":"岩坂","town_kana":"イワサカ","prefecture_code":12},"1746":{"zip_code":"2991746","prefecture":"千葉県","prefecture_kana":"チバケン","city":"富津市","city_kana":"フッツシ","town":"岩本","town_kana":"イワモト","prefecture_code":12},"1753":{"zip_code":"2991753","prefecture":"千葉県","prefecture_kana":"チバケン","city":"富津市","city_kana":"フッツシ","town":"上後","town_kana":"ウエゴ","prefecture_code":12},"1732":{"zip_code":"2991732","prefecture":"千葉県","prefecture_kana":"チバケン","city":"富津市","city_kana":"フッツシ","town":"宇藤原","town_kana":"ウトウバラ","prefecture_code":12},"1617":{"zip_code":"2991617","prefecture":"千葉県","prefecture_kana":"チバケン","city":"富津市","city_kana":"フッツシ","town":"売津","town_kana":"ウルヅ","prefecture_code":12},"1736":{"zip_code":"2991736","prefecture":"千葉県","prefecture_kana":"チバケン","city":"富津市","city_kana":"フッツシ","town":"大川崎","town_kana":"オオガワサキ","prefecture_code":12},"1735":{"zip_code":"2991735","prefecture":"千葉県","prefecture_kana":"チバケン","city":"富津市","city_kana":"フッツシ","town":"大田和","town_kana":"オオタワ","prefecture_code":12},"1758":{"zip_code":"2991758","prefecture":"千葉県","prefecture_kana":"チバケン","city":"富津市","city_kana":"フッツシ","town":"大森","town_kana":"オオモリ","prefecture_code":12},"1757":{"zip_code":"2991757","prefecture":"千葉県","prefecture_kana":"チバケン","city":"富津市","city_kana":"フッツシ","town":"押切","town_kana":"オシキリ","prefecture_code":12},"1751":{"zip_code":"2991751","prefecture":"千葉県","prefecture_kana":"チバケン","city":"富津市","city_kana":"フッツシ","town":"恩田","town_kana":"オンダ","prefecture_code":12},"1616":{"zip_code":"2991616","prefecture":"千葉県","prefecture_kana":"チバケン","city":"富津市","city_kana":"フッツシ","town":"海良","town_kana":"カイラ","prefecture_code":12},"1606":{"zip_code":"2991606","prefecture":"千葉県","prefecture_kana":"チバケン","city":"富津市","city_kana":"フッツシ","town":"数馬","town_kana":"カズマ","prefecture_code":12},"1609":{"zip_code":"2991609","prefecture":"千葉県","prefecture_kana":"チバケン","city":"富津市","city_kana":"フッツシ","town":"加藤","town_kana":"カトウ","prefecture_code":12},"1861":{"zip_code":"2991861","prefecture":"千葉県","prefecture_kana":"チバケン","city":"富津市","city_kana":"フッツシ","town":"金谷","town_kana":"カナヤ","prefecture_code":12},"1747":{"zip_code":"2991747","prefecture":"千葉県","prefecture_kana":"チバケン","city":"富津市","city_kana":"フッツシ","town":"小志駒","town_kana":"コジコマ","prefecture_code":12},"1602":{"zip_code":"2991602","prefecture":"千葉県","prefecture_kana":"チバケン","city":"富津市","city_kana":"フッツシ","town":"桜井","town_kana":"サクライ","prefecture_code":12},"1601":{"zip_code":"2991601","prefecture":"千葉県","prefecture_kana":"チバケン","city":"富津市","city_kana":"フッツシ","town":"桜井総稱鬼泪山","town_kana":"サクライソウショウキナダヤマ","prefecture_code":12},"1603":{"zip_code":"2991603","prefecture":"千葉県","prefecture_kana":"チバケン","city":"富津市","city_kana":"フッツシ","town":"更和","town_kana":"サラワ","prefecture_code":12},"1745":{"zip_code":"2991745","prefecture":"千葉県","prefecture_kana":"チバケン","city":"富津市","city_kana":"フッツシ","town":"志駒","town_kana":"シコマ","prefecture_code":12},"1734":{"zip_code":"2991734","prefecture":"千葉県","prefecture_kana":"チバケン","city":"富津市","city_kana":"フッツシ","town":"関","town_kana":"セキ","prefecture_code":12},"1752":{"zip_code":"2991752","prefecture":"千葉県","prefecture_kana":"チバケン","city":"富津市","city_kana":"フッツシ","town":"関尻","town_kana":"セキジリ","prefecture_code":12},"1604":{"zip_code":"2991604","prefecture":"千葉県","prefecture_kana":"チバケン","city":"富津市","city_kana":"フッツシ","town":"台原","town_kana":"ダイバラ","prefecture_code":12},"1733":{"zip_code":"2991733","prefecture":"千葉県","prefecture_kana":"チバケン","city":"富津市","city_kana":"フッツシ","town":"高溝","town_kana":"タカミゾ","prefecture_code":12},"1731":{"zip_code":"2991731","prefecture":"千葉県","prefecture_kana":"チバケン","city":"富津市","city_kana":"フッツシ","town":"田倉","town_kana":"タグラ","prefecture_code":12},"1621":{"zip_code":"2991621","prefecture":"千葉県","prefecture_kana":"チバケン","city":"富津市","city_kana":"フッツシ","town":"竹岡","town_kana":"タケオカ","prefecture_code":12},"1755":{"zip_code":"2991755","prefecture":"千葉県","prefecture_kana":"チバケン","city":"富津市","city_kana":"フッツシ","town":"田原","town_kana":"タバラ","prefecture_code":12},"1759":{"zip_code":"2991759","prefecture":"千葉県","prefecture_kana":"チバケン","city":"富津市","city_kana":"フッツシ","town":"寺尾","town_kana":"テラオ","prefecture_code":12},"1742":{"zip_code":"2991742","prefecture":"千葉県","prefecture_kana":"チバケン","city":"富津市","city_kana":"フッツシ","town":"豊岡","town_kana":"トヨオカ","prefecture_code":12},"1611":{"zip_code":"2991611","prefecture":"千葉県","prefecture_kana":"チバケン","city":"富津市","city_kana":"フッツシ","town":"長崎","town_kana":"ナガサキ","prefecture_code":12},"1744":{"zip_code":"2991744","prefecture":"千葉県","prefecture_kana":"チバケン","city":"富津市","city_kana":"フッツシ","town":"梨沢","town_kana":"ナシザワ","prefecture_code":12},"1614":{"zip_code":"2991614","prefecture":"千葉県","prefecture_kana":"チバケン","city":"富津市","city_kana":"フッツシ","town":"梨沢","town_kana":"ナシザワ","prefecture_code":12},"1622":{"zip_code":"2991622","prefecture":"千葉県","prefecture_kana":"チバケン","city":"富津市","city_kana":"フッツシ","town":"萩生","town_kana":"ハギウ","prefecture_code":12},"1618":{"zip_code":"2991618","prefecture":"千葉県","prefecture_kana":"チバケン","city":"富津市","city_kana":"フッツシ","town":"花輪","town_kana":"ハナワ","prefecture_code":12},"1737":{"zip_code":"2991737","prefecture":"千葉県","prefecture_kana":"チバケン","city":"富津市","city_kana":"フッツシ","town":"東大和田","town_kana":"ヒガシオオワダ","prefecture_code":12},"1607":{"zip_code":"2991607","prefecture":"千葉県","prefecture_kana":"チバケン","city":"富津市","city_kana":"フッツシ","town":"湊","town_kana":"ミナト","prefecture_code":12},"1741":{"zip_code":"2991741","prefecture":"千葉県","prefecture_kana":"チバケン","city":"富津市","city_kana":"フッツシ","town":"御代原","town_kana":"ミヨバラ","prefecture_code":12},"1756":{"zip_code":"2991756","prefecture":"千葉県","prefecture_kana":"チバケン","city":"富津市","city_kana":"フッツシ","town":"六野","town_kana":"ムツノ","prefecture_code":12},"1605":{"zip_code":"2991605","prefecture":"千葉県","prefecture_kana":"チバケン","city":"富津市","city_kana":"フッツシ","town":"望井","town_kana":"モチイ","prefecture_code":12},"1743":{"zip_code":"2991743","prefecture":"千葉県","prefecture_kana":"チバケン","city":"富津市","city_kana":"フッツシ","town":"山中","town_kana":"ヤマナカ","prefecture_code":12},"1754":{"zip_code":"2991754","prefecture":"千葉県","prefecture_kana":"チバケン","city":"富津市","city_kana":"フッツシ","town":"山脇","town_kana":"ヤマワキ","prefecture_code":12},"1612":{"zip_code":"2991612","prefecture":"千葉県","prefecture_kana":"チバケン","city":"富津市","city_kana":"フッツシ","town":"横山","town_kana":"ヨコヤマ","prefecture_code":12},"0200":{"zip_code":"2990200","prefecture":"千葉県","prefecture_kana":"チバケン","city":"袖ケ浦市","city_kana":"ソデガウラシ","town":"","town_kana":"","prefecture_code":12},"0216":{"zip_code":"2990216","prefecture":"千葉県","prefecture_kana":"チバケン","city":"袖ケ浦市","city_kana":"ソデガウラシ","town":"阿部","town_kana":"アベ","prefecture_code":12},"0256":{"zip_code":"2990256","prefecture":"千葉県","prefecture_kana":"チバケン","city":"袖ケ浦市","city_kana":"ソデガウラシ","town":"飯富","town_kana":"イイトミ","prefecture_code":12},"0264":{"zip_code":"2990264","prefecture":"千葉県","prefecture_kana":"チバケン","city":"袖ケ浦市","city_kana":"ソデガウラシ","town":"今井","town_kana":"イマイ","prefecture_code":12},"0233":{"zip_code":"2990233","prefecture":"千葉県","prefecture_kana":"チバケン","city":"袖ケ浦市","city_kana":"ソデガウラシ","town":"岩井","town_kana":"イワイ","prefecture_code":12},"0217":{"zip_code":"2990217","prefecture":"千葉県","prefecture_kana":"チバケン","city":"袖ケ浦市","city_kana":"ソデガウラシ","town":"打越","town_kana":"ウチコシ","prefecture_code":12},"0232":{"zip_code":"2990232","prefecture":"千葉県","prefecture_kana":"チバケン","city":"袖ケ浦市","city_kana":"ソデガウラシ","town":"永地","town_kana":"エイチ","prefecture_code":12},"0221":{"zip_code":"2990221","prefecture":"千葉県","prefecture_kana":"チバケン","city":"袖ケ浦市","city_kana":"ソデガウラシ","town":"大竹","town_kana":"オオタケ","prefecture_code":12},"0237":{"zip_code":"2990237","prefecture":"千葉県","prefecture_kana":"チバケン","city":"袖ケ浦市","city_kana":"ソデガウラシ","town":"大鳥居","town_kana":"オオドリイ","prefecture_code":12},"0253":{"zip_code":"2990253","prefecture":"千葉県","prefecture_kana":"チバケン","city":"袖ケ浦市","city_kana":"ソデガウラシ","town":"大曽根","town_kana":"オゾネ","prefecture_code":12},"0252":{"zip_code":"2990252","prefecture":"千葉県","prefecture_kana":"チバケン","city":"袖ケ浦市","city_kana":"ソデガウラシ","town":"勝","town_kana":"カツ","prefecture_code":12},"0205":{"zip_code":"2990205","prefecture":"千葉県","prefecture_kana":"チバケン","city":"袖ケ浦市","city_kana":"ソデガウラシ","town":"上泉","town_kana":"カミイズミ","prefecture_code":12},"0222":{"zip_code":"2990222","prefecture":"千葉県","prefecture_kana":"チバケン","city":"袖ケ浦市","city_kana":"ソデガウラシ","town":"上宮田","town_kana":"カミミヤダ","prefecture_code":12},"0201":{"zip_code":"2990201","prefecture":"千葉県","prefecture_kana":"チバケン","city":"袖ケ浦市","city_kana":"ソデガウラシ","town":"川原井","town_kana":"カワハライ","prefecture_code":12},"0257":{"zip_code":"2990257","prefecture":"千葉県","prefecture_kana":"チバケン","city":"袖ケ浦市","city_kana":"ソデガウラシ","town":"神納","town_kana":"カンノウ","prefecture_code":12},"0266":{"zip_code":"2990266","prefecture":"千葉県","prefecture_kana":"チバケン","city":"袖ケ浦市","city_kana":"ソデガウラシ","town":"北袖","town_kana":"キタソデ","prefecture_code":12},"0242":{"zip_code":"2990242","prefecture":"千葉県","prefecture_kana":"チバケン","city":"袖ケ浦市","city_kana":"ソデガウラシ","town":"久保田","town_kana":"クボタ","prefecture_code":12},"0243":{"zip_code":"2990243","prefecture":"千葉県","prefecture_kana":"チバケン","city":"袖ケ浦市","city_kana":"ソデガウラシ","town":"蔵波","town_kana":"クラナミ","prefecture_code":12},"0245":{"zip_code":"2990245","prefecture":"千葉県","prefecture_kana":"チバケン","city":"袖ケ浦市","city_kana":"ソデガウラシ","town":"蔵波台","town_kana":"クラナミダイ","prefecture_code":12},"0262":{"zip_code":"2990262","prefecture":"千葉県","prefecture_kana":"チバケン","city":"袖ケ浦市","city_kana":"ソデガウラシ","town":"坂戸市場","town_kana":"サカドイチバ","prefecture_code":12},"0212":{"zip_code":"2990212","prefecture":"千葉県","prefecture_kana":"チバケン","city":"袖ケ浦市","city_kana":"ソデガウラシ","town":"三箇","town_kana":"サンガ","prefecture_code":12},"0247":{"zip_code":"2990247","prefecture":"千葉県","prefecture_kana":"チバケン","city":"袖ケ浦市","city_kana":"ソデガウラシ","town":"椎の森","town_kana":"シイノモリ","prefecture_code":12},"0231":{"zip_code":"2990231","prefecture":"千葉県","prefecture_kana":"チバケン","city":"袖ケ浦市","city_kana":"ソデガウラシ","town":"下泉","town_kana":"シモイズミ","prefecture_code":12},"0255":{"zip_code":"2990255","prefecture":"千葉県","prefecture_kana":"チバケン","city":"袖ケ浦市","city_kana":"ソデガウラシ","town":"下新田","town_kana":"シモニッタ","prefecture_code":12},"0214":{"zip_code":"2990214","prefecture":"千葉県","prefecture_kana":"チバケン","city":"袖ケ浦市","city_kana":"ソデガウラシ","town":"下根岸","town_kana":"シモネギシ","prefecture_code":12},"0223":{"zip_code":"2990223","prefecture":"千葉県","prefecture_kana":"チバケン","city":"袖ケ浦市","city_kana":"ソデガウラシ","town":"下宮田","town_kana":"シモミヤダ","prefecture_code":12},"0241":{"zip_code":"2990241","prefecture":"千葉県","prefecture_kana":"チバケン","city":"袖ケ浦市","city_kana":"ソデガウラシ","town":"代宿","town_kana":"ダイジュク","prefecture_code":12},"0203":{"zip_code":"2990203","prefecture":"千葉県","prefecture_kana":"チバケン","city":"袖ケ浦市","city_kana":"ソデガウラシ","town":"高谷","town_kana":"タカヤ","prefecture_code":12},"0226":{"zip_code":"2990226","prefecture":"千葉県","prefecture_kana":"チバケン","city":"袖ケ浦市","city_kana":"ソデガウラシ","town":"滝の口","town_kana":"タキノクチ","prefecture_code":12},"0225":{"zip_code":"2990225","prefecture":"千葉県","prefecture_kana":"チバケン","city":"袖ケ浦市","city_kana":"ソデガウラシ","town":"玉野","town_kana":"タマノ","prefecture_code":12},"0213":{"zip_code":"2990213","prefecture":"千葉県","prefecture_kana":"チバケン","city":"袖ケ浦市","city_kana":"ソデガウラシ","town":"百目木","town_kana":"ドウメキ","prefecture_code":12},"0215":{"zip_code":"2990215","prefecture":"千葉県","prefecture_kana":"チバケン","city":"袖ケ浦市","city_kana":"ソデガウラシ","town":"堂谷","town_kana":"ドウヤツ","prefecture_code":12},"0267":{"zip_code":"2990267","prefecture":"千葉県","prefecture_kana":"チバケン","city":"袖ケ浦市","city_kana":"ソデガウラシ","town":"中袖","town_kana":"ナカソデ","prefecture_code":12},"0265":{"zip_code":"2990265","prefecture":"千葉県","prefecture_kana":"チバケン","city":"袖ケ浦市","city_kana":"ソデガウラシ","town":"長浦","town_kana":"ナガウラ","prefecture_code":12},"0246":{"zip_code":"2990246","prefecture":"千葉県","prefecture_kana":"チバケン","city":"袖ケ浦市","city_kana":"ソデガウラシ","town":"長浦駅前","town_kana":"ナガウラエキマエ","prefecture_code":12},"0204":{"zip_code":"2990204","prefecture":"千葉県","prefecture_kana":"チバケン","city":"袖ケ浦市","city_kana":"ソデガウラシ","town":"永吉","town_kana":"ナガヨシ","prefecture_code":12},"0263":{"zip_code":"2990263","prefecture":"千葉県","prefecture_kana":"チバケン","city":"袖ケ浦市","city_kana":"ソデガウラシ","town":"奈良輪","town_kana":"ナラワ","prefecture_code":12},"0211":{"zip_code":"2990211","prefecture":"千葉県","prefecture_kana":"チバケン","city":"袖ケ浦市","city_kana":"ソデガウラシ","town":"野里","town_kana":"ノザト","prefecture_code":12},"0251":{"zip_code":"2990251","prefecture":"千葉県","prefecture_kana":"チバケン","city":"袖ケ浦市","city_kana":"ソデガウラシ","town":"のぞみ野","town_kana":"ノゾミノ","prefecture_code":12},"0244":{"zip_code":"2990244","prefecture":"千葉県","prefecture_kana":"チバケン","city":"袖ケ浦市","city_kana":"ソデガウラシ","town":"野田","town_kana":"ノダ","prefecture_code":12},"0202":{"zip_code":"2990202","prefecture":"千葉県","prefecture_kana":"チバケン","city":"袖ケ浦市","city_kana":"ソデガウラシ","town":"林","town_kana":"ハヤシ","prefecture_code":12},"0261":{"zip_code":"2990261","prefecture":"千葉県","prefecture_kana":"チバケン","city":"袖ケ浦市","city_kana":"ソデガウラシ","town":"福王台","town_kana":"フクオウダイ","prefecture_code":12},"0235":{"zip_code":"2990235","prefecture":"千葉県","prefecture_kana":"チバケン","city":"袖ケ浦市","city_kana":"ソデガウラシ","town":"三黒","town_kana":"ミクロ","prefecture_code":12},"0254":{"zip_code":"2990254","prefecture":"千葉県","prefecture_kana":"チバケン","city":"袖ケ浦市","city_kana":"ソデガウラシ","town":"三ツ作","town_kana":"ミツザク","prefecture_code":12},"0268":{"zip_code":"2990268","prefecture":"千葉県","prefecture_kana":"チバケン","city":"袖ケ浦市","city_kana":"ソデガウラシ","town":"南袖","town_kana":"ミナミソデ","prefecture_code":12},"0234":{"zip_code":"2990234","prefecture":"千葉県","prefecture_kana":"チバケン","city":"袖ケ浦市","city_kana":"ソデガウラシ","town":"谷中","town_kana":"ヤナカ","prefecture_code":12},"0236":{"zip_code":"2990236","prefecture":"千葉県","prefecture_kana":"チバケン","city":"袖ケ浦市","city_kana":"ソデガウラシ","town":"横田","town_kana":"ヨコタ","prefecture_code":12},"0224":{"zip_code":"2990224","prefecture":"千葉県","prefecture_kana":"チバケン","city":"袖ケ浦市","city_kana":"ソデガウラシ","town":"吉野田","town_kana":"ヨシノダ","prefecture_code":12},"2400":{"zip_code":"2992400","prefecture":"千葉県","prefecture_kana":"チバケン","city":"南房総市","city_kana":"ミナミボウソウシ","town":"","town_kana":"","prefecture_code":12},"2201":{"zip_code":"2992201","prefecture":"千葉県","prefecture_kana":"チバケン","city":"南房総市","city_kana":"ミナミボウソウシ","town":"荒川","town_kana":"アラカワ","prefecture_code":12},"2522":{"zip_code":"2992522","prefecture":"千葉県","prefecture_kana":"チバケン","city":"南房総市","city_kana":"ミナミボウソウシ","town":"安馬谷","town_kana":"アンバヤ","prefecture_code":12},"2515":{"zip_code":"2992515","prefecture":"千葉県","prefecture_kana":"チバケン","city":"南房総市","city_kana":"ミナミボウソウシ","town":"石神","town_kana":"イシガミ","prefecture_code":12},"2503":{"zip_code":"2992503","prefecture":"千葉県","prefecture_kana":"チバケン","city":"南房総市","city_kana":"ミナミボウソウシ","town":"石堂","town_kana":"イシドウ","prefecture_code":12},"2502":{"zip_code":"2992502","prefecture":"千葉県","prefecture_kana":"チバケン","city":"南房総市","city_kana":"ミナミボウソウシ","town":"石堂原","town_kana":"イシドウハラ","prefecture_code":12},"2226":{"zip_code":"2992226","prefecture":"千葉県","prefecture_kana":"チバケン","city":"南房総市","city_kana":"ミナミボウソウシ","town":"市部","town_kana":"イチブ","prefecture_code":12},"2205":{"zip_code":"2992205","prefecture":"千葉県","prefecture_kana":"チバケン","city":"南房総市","city_kana":"ミナミボウソウシ","town":"犬掛","town_kana":"イヌカケ","prefecture_code":12},"2212":{"zip_code":"2992212","prefecture":"千葉県","prefecture_kana":"チバケン","city":"南房総市","city_kana":"ミナミボウソウシ","town":"井野","town_kana":"イノ","prefecture_code":12},"2512":{"zip_code":"2992512","prefecture":"千葉県","prefecture_kana":"チバケン","city":"南房総市","city_kana":"ミナミボウソウシ","town":"岩糸","town_kana":"イワイト","prefecture_code":12},"2507":{"zip_code":"2992507","prefecture":"千葉県","prefecture_kana":"チバケン","city":"南房総市","city_kana":"ミナミボウソウシ","town":"大井","town_kana":"オオイ","prefecture_code":12},"2511":{"zip_code":"2992511","prefecture":"千葉県","prefecture_kana":"チバケン","city":"南房総市","city_kana":"ミナミボウソウシ","town":"小戸","town_kana":"オド","prefecture_code":12},"2525":{"zip_code":"2992525","prefecture":"千葉県","prefecture_kana":"チバケン","city":"南房総市","city_kana":"ミナミボウソウシ","town":"加茂","town_kana":"カモ","prefecture_code":12},"2211":{"zip_code":"2992211","prefecture":"千葉県","prefecture_kana":"チバケン","city":"南房総市","city_kana":"ミナミボウソウシ","town":"川上","town_kana":"カワカミ","prefecture_code":12},"2504":{"zip_code":"2992504","prefecture":"千葉県","prefecture_kana":"チバケン","city":"南房総市","city_kana":"ミナミボウソウシ","town":"川谷","town_kana":"カワヤツ","prefecture_code":12},"2216":{"zip_code":"2992216","prefecture":"千葉県","prefecture_kana":"チバケン","city":"南房総市","city_kana":"ミナミボウソウシ","town":"久枝","town_kana":"クシ","prefecture_code":12},"2526":{"zip_code":"2992526","prefecture":"千葉県","prefecture_kana":"チバケン","city":"南房総市","city_kana":"ミナミボウソウシ","town":"沓見","town_kana":"クツミ","prefecture_code":12},"2524":{"zip_code":"2992524","prefecture":"千葉県","prefecture_kana":"チバケン","city":"南房総市","city_kana":"ミナミボウソウシ","town":"久保","town_kana":"クボ","prefecture_code":12},"2215":{"zip_code":"2992215","prefecture":"千葉県","prefecture_kana":"チバケン","city":"南房総市","city_kana":"ミナミボウソウシ","town":"検儀谷","town_kana":"ケギヤ","prefecture_code":12},"2221":{"zip_code":"2992221","prefecture":"千葉県","prefecture_kana":"チバケン","city":"南房総市","city_kana":"ミナミボウソウシ","town":"合戸","town_kana":"ゴウド","prefecture_code":12},"2224":{"zip_code":"2992224","prefecture":"千葉県","prefecture_kana":"チバケン","city":"南房総市","city_kana":"ミナミボウソウシ","town":"小浦","town_kana":"コウラ","prefecture_code":12},"2501":{"zip_code":"2992501","prefecture":"千葉県","prefecture_kana":"チバケン","city":"南房総市","city_kana":"ミナミボウソウシ","town":"珠師ケ谷","town_kana":"シュシガヤツ","prefecture_code":12},"2521":{"zip_code":"2992521","prefecture":"千葉県","prefecture_kana":"チバケン","city":"南房総市","city_kana":"ミナミボウソウシ","town":"白子","town_kana":"シラコ","prefecture_code":12},"2223":{"zip_code":"2992223","prefecture":"千葉県","prefecture_kana":"チバケン","city":"南房総市","city_kana":"ミナミボウソウシ","town":"高崎","town_kana":"タカサキ","prefecture_code":12},"2225":{"zip_code":"2992225","prefecture":"千葉県","prefecture_kana":"チバケン","city":"南房総市","city_kana":"ミナミボウソウシ","town":"竹内","town_kana":"タケノウチ","prefecture_code":12},"2416":{"zip_code":"2992416","prefecture":"千葉県","prefecture_kana":"チバケン","city":"南房総市","city_kana":"ミナミボウソウシ","town":"富浦町青木","town_kana":"トミウラチョウアオキ","prefecture_code":12},"2411":{"zip_code":"2992411","prefecture":"千葉県","prefecture_kana":"チバケン","city":"南房総市","city_kana":"ミナミボウソウシ","town":"富浦町居倉","town_kana":"トミウラチョウイグラ","prefecture_code":12},"2412":{"zip_code":"2992412","prefecture":"千葉県","prefecture_kana":"チバケン","city":"南房総市","city_kana":"ミナミボウソウシ","town":"富浦町大津","town_kana":"トミウラチョウオオツ","prefecture_code":12},"2404":{"zip_code":"2992404","prefecture":"千葉県","prefecture_kana":"チバケン","city":"南房総市","city_kana":"ミナミボウソウシ","town":"富浦町多田良","town_kana":"トミウラチョウタダラ","prefecture_code":12},"2418":{"zip_code":"2992418","prefecture":"千葉県","prefecture_kana":"チバケン","city":"南房総市","city_kana":"ミナミボウソウシ","town":"富浦町手取","town_kana":"トミウラチョウテドリ","prefecture_code":12},"2402":{"zip_code":"2992402","prefecture":"千葉県","prefecture_kana":"チバケン","city":"南房総市","city_kana":"ミナミボウソウシ","town":"富浦町豊岡","town_kana":"トミウラチョウトヨオカ","prefecture_code":12},"2401":{"zip_code":"2992401","prefecture":"千葉県","prefecture_kana":"チバケン","city":"南房総市","city_kana":"ミナミボウソウシ","town":"富浦町南無谷","town_kana":"トミウラチョウナムヤ","prefecture_code":12},"2417":{"zip_code":"2992417","prefecture":"千葉県","prefecture_kana":"チバケン","city":"南房総市","city_kana":"ミナミボウソウシ","town":"富浦町丹生","town_kana":"トミウラチョウニュウ","prefecture_code":12},"2403":{"zip_code":"2992403","prefecture":"千葉県","prefecture_kana":"チバケン","city":"南房総市","city_kana":"ミナミボウソウシ","town":"富浦町原岡","town_kana":"トミウラチョウハラオカ","prefecture_code":12},"2415":{"zip_code":"2992415","prefecture":"千葉県","prefecture_kana":"チバケン","city":"南房総市","city_kana":"ミナミボウソウシ","town":"富浦町深名","town_kana":"トミウラチョウフカナ","prefecture_code":12},"2414":{"zip_code":"2992414","prefecture":"千葉県","prefecture_kana":"チバケン","city":"南房総市","city_kana":"ミナミボウソウシ","town":"富浦町福澤","town_kana":"トミウラチョウフクザワ","prefecture_code":12},"2413":{"zip_code":"2992413","prefecture":"千葉県","prefecture_kana":"チバケン","city":"南房総市","city_kana":"ミナミボウソウシ","town":"富浦町宮本","town_kana":"トミウラチョウミヤモト","prefecture_code":12},"2514":{"zip_code":"2992514","prefecture":"千葉県","prefecture_kana":"チバケン","city":"南房総市","city_kana":"ミナミボウソウシ","town":"西原","town_kana":"ニシバラ","prefecture_code":12},"2214":{"zip_code":"2992214","prefecture":"千葉県","prefecture_kana":"チバケン","city":"南房総市","city_kana":"ミナミボウソウシ","town":"二部","town_kana":"ニブ","prefecture_code":12},"2202":{"zip_code":"2992202","prefecture":"千葉県","prefecture_kana":"チバケン","city":"南房総市","city_kana":"ミナミボウソウシ","town":"平塚","town_kana":"ヒラツカ","prefecture_code":12},"2513":{"zip_code":"2992513","prefecture":"千葉県","prefecture_kana":"チバケン","city":"南房総市","city_kana":"ミナミボウソウシ","town":"古川","town_kana":"フルカワ","prefecture_code":12},"2206":{"zip_code":"2992206","prefecture":"千葉県","prefecture_kana":"チバケン","city":"南房総市","city_kana":"ミナミボウソウシ","town":"平久里下","town_kana":"ヘグリシモ","prefecture_code":12},"2204":{"zip_code":"2992204","prefecture":"千葉県","prefecture_kana":"チバケン","city":"南房総市","city_kana":"ミナミボウソウシ","town":"平久里中","town_kana":"ヘグリナカ","prefecture_code":12},"2516":{"zip_code":"2992516","prefecture":"千葉県","prefecture_kana":"チバケン","city":"南房総市","city_kana":"ミナミボウソウシ","town":"前田","town_kana":"マエダ","prefecture_code":12},"2517":{"zip_code":"2992517","prefecture":"千葉県","prefecture_kana":"チバケン","city":"南房総市","city_kana":"ミナミボウソウシ","town":"丸本郷","town_kana":"マルホンゴウ","prefecture_code":12},"2508":{"zip_code":"2992508","prefecture":"千葉県","prefecture_kana":"チバケン","city":"南房総市","city_kana":"ミナミボウソウシ","town":"丸山平塚","town_kana":"マルヤマヒラツカ","prefecture_code":12},"2506":{"zip_code":"2992506","prefecture":"千葉県","prefecture_kana":"チバケン","city":"南房総市","city_kana":"ミナミボウソウシ","town":"御子神","town_kana":"ミコガミ","prefecture_code":12},"2523":{"zip_code":"2992523","prefecture":"千葉県","prefecture_kana":"チバケン","city":"南房総市","city_kana":"ミナミボウソウシ","town":"峰","town_kana":"ミネ","prefecture_code":12},"2505":{"zip_code":"2992505","prefecture":"千葉県","prefecture_kana":"チバケン","city":"南房総市","city_kana":"ミナミボウソウシ","town":"宮下","town_kana":"ミヤシタ","prefecture_code":12},"2222":{"zip_code":"2992222","prefecture":"千葉県","prefecture_kana":"チバケン","city":"南房総市","city_kana":"ミナミボウソウシ","town":"宮谷","town_kana":"ミヤノヤツ","prefecture_code":12},"2203":{"zip_code":"2992203","prefecture":"千葉県","prefecture_kana":"チバケン","city":"南房総市","city_kana":"ミナミボウソウシ","town":"山田","town_kana":"ヤマダ","prefecture_code":12},"2213":{"zip_code":"2992213","prefecture":"千葉県","prefecture_kana":"チバケン","city":"南房総市","city_kana":"ミナミボウソウシ","town":"吉沢","town_kana":"ヨシザワ","prefecture_code":12},"2728":{"zip_code":"2992728","prefecture":"千葉県","prefecture_kana":"チバケン","city":"南房総市","city_kana":"ミナミボウソウシ","town":"和田町石堂","town_kana":"ワダチョウイシドウ","prefecture_code":12},"2726":{"zip_code":"2992726","prefecture":"千葉県","prefecture_kana":"チバケン","city":"南房総市","city_kana":"ミナミボウソウシ","town":"和田町小川","town_kana":"ワダチョウオガワ","prefecture_code":12},"2712":{"zip_code":"2992712","prefecture":"千葉県","prefecture_kana":"チバケン","city":"南房総市","city_kana":"ミナミボウソウシ","town":"和田町海発","town_kana":"ワダチョウカイホツ","prefecture_code":12},"2727":{"zip_code":"2992727","prefecture":"千葉県","prefecture_kana":"チバケン","city":"南房総市","city_kana":"ミナミボウソウシ","town":"和田町上三原","town_kana":"ワダチョウカミミハラ","prefecture_code":12},"2725":{"zip_code":"2992725","prefecture":"千葉県","prefecture_kana":"チバケン","city":"南房総市","city_kana":"ミナミボウソウシ","town":"和田町黒岩","town_kana":"ワダチョウクロイワ","prefecture_code":12},"2721":{"zip_code":"2992721","prefecture":"千葉県","prefecture_kana":"チバケン","city":"南房総市","city_kana":"ミナミボウソウシ","town":"和田町五十蔵","town_kana":"ワダチョウゴジュウクラ","prefecture_code":12},"2724":{"zip_code":"2992724","prefecture":"千葉県","prefecture_kana":"チバケン","city":"南房総市","city_kana":"ミナミボウソウシ","town":"和田町小向","town_kana":"ワダチョウコムカイ","prefecture_code":12},"2702":{"zip_code":"2992702","prefecture":"千葉県","prefecture_kana":"チバケン","city":"南房総市","city_kana":"ミナミボウソウシ","town":"和田町柴","town_kana":"ワダチョウシバ","prefecture_code":12},"2715":{"zip_code":"2992715","prefecture":"千葉県","prefecture_kana":"チバケン","city":"南房総市","city_kana":"ミナミボウソウシ","town":"和田町下三原","town_kana":"ワダチョウシモミハラ","prefecture_code":12},"2711":{"zip_code":"2992711","prefecture":"千葉県","prefecture_kana":"チバケン","city":"南房総市","city_kana":"ミナミボウソウシ","town":"和田町白渚","town_kana":"ワダチョウシラスカ","prefecture_code":12},"2722":{"zip_code":"2992722","prefecture":"千葉県","prefecture_kana":"チバケン","city":"南房総市","city_kana":"ミナミボウソウシ","town":"和田町磑森","town_kana":"ワダチョウスルスモリ","prefecture_code":12},"2716":{"zip_code":"2992716","prefecture":"千葉県","prefecture_kana":"チバケン","city":"南房総市","city_kana":"ミナミボウソウシ","town":"和田町中三原","town_kana":"ワダチョウナカミハラ","prefecture_code":12},"2703":{"zip_code":"2992703","prefecture":"千葉県","prefecture_kana":"チバケン","city":"南房総市","city_kana":"ミナミボウソウシ","town":"和田町仁我浦","town_kana":"ワダチョウニガウラ","prefecture_code":12},"2714":{"zip_code":"2992714","prefecture":"千葉県","prefecture_kana":"チバケン","city":"南房総市","city_kana":"ミナミボウソウシ","town":"和田町沼","town_kana":"ワダチョウヌマ","prefecture_code":12},"2701":{"zip_code":"2992701","prefecture":"千葉県","prefecture_kana":"チバケン","city":"南房総市","city_kana":"ミナミボウソウシ","town":"和田町花園","town_kana":"ワダチョウハナソノ","prefecture_code":12},"2723":{"zip_code":"2992723","prefecture":"千葉県","prefecture_kana":"チバケン","city":"南房総市","city_kana":"ミナミボウソウシ","town":"和田町布野","town_kana":"ワダチョウフノ","prefecture_code":12},"2713":{"zip_code":"2992713","prefecture":"千葉県","prefecture_kana":"チバケン","city":"南房総市","city_kana":"ミナミボウソウシ","town":"和田町松田","town_kana":"ワダチョウマツダ","prefecture_code":12},"2705":{"zip_code":"2992705","prefecture":"千葉県","prefecture_kana":"チバケン","city":"南房総市","city_kana":"ミナミボウソウシ","town":"和田町真浦","town_kana":"ワダチョウモウラ","prefecture_code":12},"2704":{"zip_code":"2992704","prefecture":"千葉県","prefecture_kana":"チバケン","city":"南房総市","city_kana":"ミナミボウソウシ","town":"和田町和田","town_kana":"ワダチョウワダ","prefecture_code":12},"4615":{"zip_code":"2994615","prefecture":"千葉県","prefecture_kana":"チバケン","city":"いすみ市","city_kana":"イスミシ","town":"岬町井沢","town_kana":"ミサキチョウイザワ","prefecture_code":12},"4611":{"zip_code":"2994611","prefecture":"千葉県","prefecture_kana":"チバケン","city":"いすみ市","city_kana":"イスミシ","town":"岬町和泉","town_kana":"ミサキチョウイズミ","prefecture_code":12},"4503":{"zip_code":"2994503","prefecture":"千葉県","prefecture_kana":"チバケン","city":"いすみ市","city_kana":"イスミシ","town":"岬町和泉","town_kana":"ミサキチョウイズミ","prefecture_code":12},"4506":{"zip_code":"2994506","prefecture":"千葉県","prefecture_kana":"チバケン","city":"いすみ市","city_kana":"イスミシ","town":"岬町市野々","town_kana":"ミサキチョウイチノノ","prefecture_code":12},"4505":{"zip_code":"2994505","prefecture":"千葉県","prefecture_kana":"チバケン","city":"いすみ市","city_kana":"イスミシ","town":"岬町岩熊","town_kana":"ミサキチョウイワクマ","prefecture_code":12},"4508":{"zip_code":"2994508","prefecture":"千葉県","prefecture_kana":"チバケン","city":"いすみ市","city_kana":"イスミシ","town":"岬町榎沢","town_kana":"ミサキチョウエノキサワ","prefecture_code":12},"4612":{"zip_code":"2994612","prefecture":"千葉県","prefecture_kana":"チバケン","city":"いすみ市","city_kana":"イスミシ","town":"岬町江場土","town_kana":"ミサキチョウエバド","prefecture_code":12},"4622":{"zip_code":"2994622","prefecture":"千葉県","prefecture_kana":"チバケン","city":"いすみ市","city_kana":"イスミシ","town":"岬町押日","town_kana":"ミサキチョウオシビ","prefecture_code":12},"4624":{"zip_code":"2994624","prefecture":"千葉県","prefecture_kana":"チバケン","city":"いすみ市","city_kana":"イスミシ","town":"岬町鴨根","town_kana":"ミサキチョウカモネ","prefecture_code":12},"4625":{"zip_code":"2994625","prefecture":"千葉県","prefecture_kana":"チバケン","city":"いすみ市","city_kana":"イスミシ","town":"岬町嘉谷","town_kana":"ミサキチョウカヤ","prefecture_code":12},"4504":{"zip_code":"2994504","prefecture":"千葉県","prefecture_kana":"チバケン","city":"いすみ市","city_kana":"イスミシ","town":"岬町桑田","town_kana":"ミサキチョウクワダ","prefecture_code":12},"4501":{"zip_code":"2994501","prefecture":"千葉県","prefecture_kana":"チバケン","city":"いすみ市","city_kana":"イスミシ","town":"岬町椎木","town_kana":"ミサキチョウシイギ","prefecture_code":12},"4616":{"zip_code":"2994616","prefecture":"千葉県","prefecture_kana":"チバケン","city":"いすみ市","city_kana":"イスミシ","town":"岬町長者","town_kana":"ミサキチョウチョウジャ","prefecture_code":12},"4623":{"zip_code":"2994623","prefecture":"千葉県","prefecture_kana":"チバケン","city":"いすみ市","city_kana":"イスミシ","town":"岬町中滝","town_kana":"ミサキチョウナカダキ","prefecture_code":12},"4502":{"zip_code":"2994502","prefecture":"千葉県","prefecture_kana":"チバケン","city":"いすみ市","city_kana":"イスミシ","town":"岬町中原","town_kana":"ミサキチョウナカハラ","prefecture_code":12},"4614":{"zip_code":"2994614","prefecture":"千葉県","prefecture_kana":"チバケン","city":"いすみ市","city_kana":"イスミシ","town":"岬町東小高","town_kana":"ミサキチョウヒガシオダカ","prefecture_code":12},"4621":{"zip_code":"2994621","prefecture":"千葉県","prefecture_kana":"チバケン","city":"いすみ市","city_kana":"イスミシ","town":"岬町東中滝","town_kana":"ミサキチョウヒガシナカタキ","prefecture_code":12},"4613":{"zip_code":"2994613","prefecture":"千葉県","prefecture_kana":"チバケン","city":"いすみ市","city_kana":"イスミシ","town":"岬町三門","town_kana":"ミサキチョウミカド","prefecture_code":12},"4507":{"zip_code":"2994507","prefecture":"千葉県","prefecture_kana":"チバケン","city":"いすみ市","city_kana":"イスミシ","town":"岬町谷上","town_kana":"ミサキチョウヤガミ","prefecture_code":12},"3200":{"zip_code":"2993200","prefecture":"千葉県","prefecture_kana":"チバケン","city":"大網白里市","city_kana":"オオアミシラサトシ","town":"","town_kana":"","prefecture_code":12},"3245":{"zip_code":"2993245","prefecture":"千葉県","prefecture_kana":"チバケン","city":"大網白里市","city_kana":"オオアミシラサトシ","town":"池田","town_kana":"イケダ","prefecture_code":12},"3249":{"zip_code":"2993249","prefecture":"千葉県","prefecture_kana":"チバケン","city":"大網白里市","city_kana":"オオアミシラサトシ","town":"砂田","town_kana":"イサゴダ","prefecture_code":12},"3268":{"zip_code":"2993268","prefecture":"千葉県","prefecture_kana":"チバケン","city":"大網白里市","city_kana":"オオアミシラサトシ","town":"上谷新田","town_kana":"ウワヤシンデン","prefecture_code":12},"3251":{"zip_code":"2993251","prefecture":"千葉県","prefecture_kana":"チバケン","city":"大網白里市","city_kana":"オオアミシラサトシ","town":"大網","town_kana":"オオアミ","prefecture_code":12},"3243":{"zip_code":"2993243","prefecture":"千葉県","prefecture_kana":"チバケン","city":"大網白里市","city_kana":"オオアミシラサトシ","town":"大竹","town_kana":"オオダケ","prefecture_code":12},"3264":{"zip_code":"2993264","prefecture":"千葉県","prefecture_kana":"チバケン","city":"大網白里市","city_kana":"オオアミシラサトシ","town":"柿餅","town_kana":"カキモチ","prefecture_code":12},"3262":{"zip_code":"2993262","prefecture":"千葉県","prefecture_kana":"チバケン","city":"大網白里市","city_kana":"オオアミシラサトシ","town":"桂山","town_kana":"カツラヤマ","prefecture_code":12},"3242":{"zip_code":"2993242","prefecture":"千葉県","prefecture_kana":"チバケン","city":"大網白里市","city_kana":"オオアミシラサトシ","town":"金谷郷","town_kana":"カナヤゴウ","prefecture_code":12},"3265":{"zip_code":"2993265","prefecture":"千葉県","prefecture_kana":"チバケン","city":"大網白里市","city_kana":"オオアミシラサトシ","town":"上貝塚","town_kana":"カミカイヅカ","prefecture_code":12},"3248":{"zip_code":"2993248","prefecture":"千葉県","prefecture_kana":"チバケン","city":"大網白里市","city_kana":"オオアミシラサトシ","town":"萱野","town_kana":"カヤノ","prefecture_code":12},"3247":{"zip_code":"2993247","prefecture":"千葉県","prefecture_kana":"チバケン","city":"大網白里市","city_kana":"オオアミシラサトシ","town":"神房","town_kana":"カンボウ","prefecture_code":12},"3217":{"zip_code":"2993217","prefecture":"千葉県","prefecture_kana":"チバケン","city":"大網白里市","city_kana":"オオアミシラサトシ","town":"木崎","town_kana":"キサキ","prefecture_code":12},"3218":{"zip_code":"2993218","prefecture":"千葉県","prefecture_kana":"チバケン","city":"大網白里市","city_kana":"オオアミシラサトシ","town":"北飯塚","town_kana":"キタイイヅカ","prefecture_code":12},"3201":{"zip_code":"2993201","prefecture":"千葉県","prefecture_kana":"チバケン","city":"大網白里市","city_kana":"オオアミシラサトシ","town":"北今泉","town_kana":"キタイマイズミ","prefecture_code":12},"3266":{"zip_code":"2993266","prefecture":"千葉県","prefecture_kana":"チバケン","city":"大網白里市","city_kana":"オオアミシラサトシ","town":"北横川","town_kana":"キタヨコカワ","prefecture_code":12},"3216":{"zip_code":"2993216","prefecture":"千葉県","prefecture_kana":"チバケン","city":"大網白里市","city_kana":"オオアミシラサトシ","town":"北吉田","town_kana":"キタヨシダ","prefecture_code":12},"3241":{"zip_code":"2993241","prefecture":"千葉県","prefecture_kana":"チバケン","city":"大網白里市","city_kana":"オオアミシラサトシ","town":"季美の森南","town_kana":"キミノモリミナミ","prefecture_code":12},"3231":{"zip_code":"2993231","prefecture":"千葉県","prefecture_kana":"チバケン","city":"大網白里市","city_kana":"オオアミシラサトシ","town":"経田","town_kana":"キョウデン","prefecture_code":12},"3261":{"zip_code":"2993261","prefecture":"千葉県","prefecture_kana":"チバケン","city":"大網白里市","city_kana":"オオアミシラサトシ","town":"九十根","town_kana":"クジュウネ","prefecture_code":12},"3246":{"zip_code":"2993246","prefecture":"千葉県","prefecture_kana":"チバケン","city":"大網白里市","city_kana":"オオアミシラサトシ","town":"小中","town_kana":"コナカ","prefecture_code":12},"3253":{"zip_code":"2993253","prefecture":"千葉県","prefecture_kana":"チバケン","city":"大網白里市","city_kana":"オオアミシラサトシ","town":"小西","town_kana":"コニシ","prefecture_code":12},"3235":{"zip_code":"2993235","prefecture":"千葉県","prefecture_kana":"チバケン","city":"大網白里市","city_kana":"オオアミシラサトシ","town":"駒込","town_kana":"コマゴメ","prefecture_code":12},"3214":{"zip_code":"2993214","prefecture":"千葉県","prefecture_kana":"チバケン","city":"大網白里市","city_kana":"オオアミシラサトシ","town":"下ヶ傍示","town_kana":"サゲホウジ","prefecture_code":12},"3203":{"zip_code":"2993203","prefecture":"千葉県","prefecture_kana":"チバケン","city":"大網白里市","city_kana":"オオアミシラサトシ","town":"四天木","town_kana":"シテンギ","prefecture_code":12},"3212":{"zip_code":"2993212","prefecture":"千葉県","prefecture_kana":"チバケン","city":"大網白里市","city_kana":"オオアミシラサトシ","town":"清水","town_kana":"シミズ","prefecture_code":12},"3267":{"zip_code":"2993267","prefecture":"千葉県","prefecture_kana":"チバケン","city":"大網白里市","city_kana":"オオアミシラサトシ","town":"清名幸谷","town_kana":"セイナゴウヤ","prefecture_code":12},"3221":{"zip_code":"2993221","prefecture":"千葉県","prefecture_kana":"チバケン","city":"大網白里市","city_kana":"オオアミシラサトシ","town":"富田","town_kana":"トミダ","prefecture_code":12},"3215":{"zip_code":"2993215","prefecture":"千葉県","prefecture_kana":"チバケン","city":"大網白里市","city_kana":"オオアミシラサトシ","town":"長国","town_kana":"ナガクニ","prefecture_code":12},"3233":{"zip_code":"2993233","prefecture":"千葉県","prefecture_kana":"チバケン","city":"大網白里市","city_kana":"オオアミシラサトシ","town":"永田","town_kana":"ナガタ","prefecture_code":12},"3232":{"zip_code":"2993232","prefecture":"千葉県","prefecture_kana":"チバケン","city":"大網白里市","city_kana":"オオアミシラサトシ","town":"ながた野","town_kana":"ナガタノ","prefecture_code":12},"3213":{"zip_code":"2993213","prefecture":"千葉県","prefecture_kana":"チバケン","city":"大網白里市","city_kana":"オオアミシラサトシ","town":"二之袋","town_kana":"ニノフクロ","prefecture_code":12},"3222":{"zip_code":"2993222","prefecture":"千葉県","prefecture_kana":"チバケン","city":"大網白里市","city_kana":"オオアミシラサトシ","town":"星谷","town_kana":"ホシヤ","prefecture_code":12},"3211":{"zip_code":"2993211","prefecture":"千葉県","prefecture_kana":"チバケン","city":"大網白里市","city_kana":"オオアミシラサトシ","town":"細草","town_kana":"ホソクサ","prefecture_code":12},"3237":{"zip_code":"2993237","prefecture":"千葉県","prefecture_kana":"チバケン","city":"大網白里市","city_kana":"オオアミシラサトシ","town":"仏島","town_kana":"ホトケシマ","prefecture_code":12},"3234":{"zip_code":"2993234","prefecture":"千葉県","prefecture_kana":"チバケン","city":"大網白里市","city_kana":"オオアミシラサトシ","town":"みずほ台","town_kana":"ミズホダイ","prefecture_code":12},"3255":{"zip_code":"2993255","prefecture":"千葉県","prefecture_kana":"チバケン","city":"大網白里市","city_kana":"オオアミシラサトシ","town":"みどりが丘","town_kana":"ミドリガオカ","prefecture_code":12},"3219":{"zip_code":"2993219","prefecture":"千葉県","prefecture_kana":"チバケン","city":"大網白里市","city_kana":"オオアミシラサトシ","town":"南飯塚","town_kana":"ミナミイイヅカ","prefecture_code":12},"3202":{"zip_code":"2993202","prefecture":"千葉県","prefecture_kana":"チバケン","city":"大網白里市","city_kana":"オオアミシラサトシ","town":"南今泉","town_kana":"ミナミイマイズミ","prefecture_code":12},"3244":{"zip_code":"2993244","prefecture":"千葉県","prefecture_kana":"チバケン","city":"大網白里市","city_kana":"オオアミシラサトシ","town":"南玉","town_kana":"ミナミダマ","prefecture_code":12},"3223":{"zip_code":"2993223","prefecture":"千葉県","prefecture_kana":"チバケン","city":"大網白里市","city_kana":"オオアミシラサトシ","town":"南横川","town_kana":"ミナミヨコカワ","prefecture_code":12},"3236":{"zip_code":"2993236","prefecture":"千葉県","prefecture_kana":"チバケン","city":"大網白里市","city_kana":"オオアミシラサトシ","town":"みやこ野","town_kana":"ミヤコノ","prefecture_code":12},"3252":{"zip_code":"2993252","prefecture":"千葉県","prefecture_kana":"チバケン","city":"大網白里市","city_kana":"オオアミシラサトシ","town":"餅木","town_kana":"モチノキ","prefecture_code":12},"3263":{"zip_code":"2993263","prefecture":"千葉県","prefecture_kana":"チバケン","city":"大網白里市","city_kana":"オオアミシラサトシ","town":"柳橋","town_kana":"ヤナギバシ","prefecture_code":12},"3256":{"zip_code":"2993256","prefecture":"千葉県","prefecture_kana":"チバケン","city":"大網白里市","city_kana":"オオアミシラサトシ","town":"山口","town_kana":"ヤマグチ","prefecture_code":12},"3254":{"zip_code":"2993254","prefecture":"千葉県","prefecture_kana":"チバケン","city":"大網白里市","city_kana":"オオアミシラサトシ","town":"養安寺","town_kana":"ヨウアンジ","prefecture_code":12},"4300":{"zip_code":"2994300","prefecture":"千葉県","prefecture_kana":"チバケン","city":"長生郡長生村","city_kana":"チョウセイグンチョウセイムラ","town":"","town_kana":"","prefecture_code":12},"4314":{"zip_code":"2994314","prefecture":"千葉県","prefecture_kana":"チバケン","city":"長生郡一宮町","city_kana":"チョウセイグンイチノミヤマチ","town":"新地","town_kana":"アラチ","prefecture_code":12},"4315":{"zip_code":"2994315","prefecture":"千葉県","prefecture_kana":"チバケン","city":"長生郡一宮町","city_kana":"チョウセイグンイチノミヤマチ","town":"新地甲","town_kana":"アラチコウ","prefecture_code":12},"4316":{"zip_code":"2994316","prefecture":"千葉県","prefecture_kana":"チバケン","city":"長生郡一宮町","city_kana":"チョウセイグンイチノミヤマチ","town":"新地丙","town_kana":"アラチヘイ","prefecture_code":12},"4301":{"zip_code":"2994301","prefecture":"千葉県","prefecture_kana":"チバケン","city":"長生郡一宮町","city_kana":"チョウセイグンイチノミヤマチ","town":"一宮","town_kana":"イチノミヤ","prefecture_code":12},"4313":{"zip_code":"2994313","prefecture":"千葉県","prefecture_kana":"チバケン","city":"長生郡一宮町","city_kana":"チョウセイグンイチノミヤマチ","town":"船頭給","town_kana":"センドウキュウ","prefecture_code":12},"4302":{"zip_code":"2994302","prefecture":"千葉県","prefecture_kana":"チバケン","city":"長生郡一宮町","city_kana":"チョウセイグンイチノミヤマチ","town":"田町","town_kana":"タマチ","prefecture_code":12},"4304":{"zip_code":"2994304","prefecture":"千葉県","prefecture_kana":"チバケン","city":"長生郡一宮町","city_kana":"チョウセイグンイチノミヤマチ","town":"綱田","town_kana":"ツナダ","prefecture_code":12},"4303":{"zip_code":"2994303","prefecture":"千葉県","prefecture_kana":"チバケン","city":"長生郡一宮町","city_kana":"チョウセイグンイチノミヤマチ","town":"東浪見","town_kana":"トラミ","prefecture_code":12},"4311":{"zip_code":"2994311","prefecture":"千葉県","prefecture_kana":"チバケン","city":"長生郡一宮町","city_kana":"チョウセイグンイチノミヤマチ","town":"白山","town_kana":"ハクサン","prefecture_code":12},"4306":{"zip_code":"2994306","prefecture":"千葉県","prefecture_kana":"チバケン","city":"長生郡一宮町","city_kana":"チョウセイグンイチノミヤマチ","town":"東野","town_kana":"ヒガシノ","prefecture_code":12},"4305":{"zip_code":"2994305","prefecture":"千葉県","prefecture_kana":"チバケン","city":"長生郡一宮町","city_kana":"チョウセイグンイチノミヤマチ","town":"本給","town_kana":"ホンキュウ","prefecture_code":12},"4312":{"zip_code":"2994312","prefecture":"千葉県","prefecture_kana":"チバケン","city":"長生郡一宮町","city_kana":"チョウセイグンイチノミヤマチ","town":"宮原","town_kana":"ミヤバラ","prefecture_code":12},"4400":{"zip_code":"2994400","prefecture":"千葉県","prefecture_kana":"チバケン","city":"長生郡睦沢町","city_kana":"チョウセイグンムツザワマチ","town":"","town_kana":"","prefecture_code":12},"4412":{"zip_code":"2994412","prefecture":"千葉県","prefecture_kana":"チバケン","city":"長生郡睦沢町","city_kana":"チョウセイグンムツザワマチ","town":"岩井","town_kana":"イワイ","prefecture_code":12},"4423":{"zip_code":"2994423","prefecture":"千葉県","prefecture_kana":"チバケン","city":"長生郡睦沢町","city_kana":"チョウセイグンムツザワマチ","town":"大上","town_kana":"オオガミ","prefecture_code":12},"4405":{"zip_code":"2994405","prefecture":"千葉県","prefecture_kana":"チバケン","city":"長生郡睦沢町","city_kana":"チョウセイグンムツザワマチ","town":"大谷木","town_kana":"オオヤギ","prefecture_code":12},"4403":{"zip_code":"2994403","prefecture":"千葉県","prefecture_kana":"チバケン","city":"長生郡睦沢町","city_kana":"チョウセイグンムツザワマチ","town":"上市場","town_kana":"カミイチバ","prefecture_code":12},"4413":{"zip_code":"2994413","prefecture":"千葉県","prefecture_kana":"チバケン","city":"長生郡睦沢町","city_kana":"チョウセイグンムツザワマチ","town":"上之郷","town_kana":"カミノゴウ","prefecture_code":12},"4402":{"zip_code":"2994402","prefecture":"千葉県","prefecture_kana":"チバケン","city":"長生郡睦沢町","city_kana":"チョウセイグンムツザワマチ","town":"川島","town_kana":"カワシマ","prefecture_code":12},"4411":{"zip_code":"2994411","prefecture":"千葉県","prefecture_kana":"チバケン","city":"長生郡睦沢町","city_kana":"チョウセイグンムツザワマチ","town":"河須ケ谷","town_kana":"カワスガヤ","prefecture_code":12},"4404":{"zip_code":"2994404","prefecture":"千葉県","prefecture_kana":"チバケン","city":"長生郡睦沢町","city_kana":"チョウセイグンムツザワマチ","town":"北山田","town_kana":"キタヤマダ","prefecture_code":12},"4406":{"zip_code":"2994406","prefecture":"千葉県","prefecture_kana":"チバケン","city":"長生郡睦沢町","city_kana":"チョウセイグンムツザワマチ","town":"北山田寺崎新田","town_kana":"キタヤマダテラサキシンデン","prefecture_code":12},"4415":{"zip_code":"2994415","prefecture":"千葉県","prefecture_kana":"チバケン","city":"長生郡睦沢町","city_kana":"チョウセイグンムツザワマチ","town":"小滝","town_kana":"コダキ","prefecture_code":12},"4425":{"zip_code":"2994425","prefecture":"千葉県","prefecture_kana":"チバケン","city":"長生郡睦沢町","city_kana":"チョウセイグンムツザワマチ","town":"佐貫","town_kana":"サヌキ","prefecture_code":12},"4414":{"zip_code":"2994414","prefecture":"千葉県","prefecture_kana":"チバケン","city":"長生郡睦沢町","city_kana":"チョウセイグンムツザワマチ","town":"下之郷","town_kana":"シモノゴウ","prefecture_code":12},"4421":{"zip_code":"2994421","prefecture":"千葉県","prefecture_kana":"チバケン","city":"長生郡睦沢町","city_kana":"チョウセイグンムツザワマチ","town":"長楽寺","town_kana":"チョウラクジ","prefecture_code":12},"4401":{"zip_code":"2994401","prefecture":"千葉県","prefecture_kana":"チバケン","city":"長生郡睦沢町","city_kana":"チョウセイグンムツザワマチ","town":"寺崎","town_kana":"テラサキ","prefecture_code":12},"4424":{"zip_code":"2994424","prefecture":"千葉県","prefecture_kana":"チバケン","city":"長生郡睦沢町","city_kana":"チョウセイグンムツザワマチ","town":"妙楽寺","town_kana":"ミョウラクジ","prefecture_code":12},"4422":{"zip_code":"2994422","prefecture":"千葉県","prefecture_kana":"チバケン","city":"長生郡睦沢町","city_kana":"チョウセイグンムツザワマチ","town":"森","town_kana":"モリ","prefecture_code":12},"4321":{"zip_code":"2994321","prefecture":"千葉県","prefecture_kana":"チバケン","city":"長生郡長生村","city_kana":"チョウセイグンチョウセイムラ","town":"入山津","town_kana":"イリヤマヅ","prefecture_code":12},"4336":{"zip_code":"2994336","prefecture":"千葉県","prefecture_kana":"チバケン","city":"長生郡長生村","city_kana":"チョウセイグンチョウセイムラ","town":"岩沼","town_kana":"イワヌマ","prefecture_code":12},"4343":{"zip_code":"2994343","prefecture":"千葉県","prefecture_kana":"チバケン","city":"長生郡長生村","city_kana":"チョウセイグンチョウセイムラ","town":"岩沼飛地","town_kana":"イワヌマトビチ","prefecture_code":12},"4322":{"zip_code":"2994322","prefecture":"千葉県","prefecture_kana":"チバケン","city":"長生郡長生村","city_kana":"チョウセイグンチョウセイムラ","town":"驚","town_kana":"オドロキ","prefecture_code":12},"4332":{"zip_code":"2994332","prefecture":"千葉県","prefecture_kana":"チバケン","city":"長生郡長生村","city_kana":"チョウセイグンチョウセイムラ","town":"金田","town_kana":"カネダ","prefecture_code":12},"4337":{"zip_code":"2994337","prefecture":"千葉県","prefecture_kana":"チバケン","city":"長生郡長生村","city_kana":"チョウセイグンチョウセイムラ","town":"北水口","town_kana":"キタミヨグチ","prefecture_code":12},"4347":{"zip_code":"2994347","prefecture":"千葉県","prefecture_kana":"チバケン","city":"長生郡長生村","city_kana":"チョウセイグンチョウセイムラ","town":"小泉","town_kana":"コイズミ","prefecture_code":12},"4344":{"zip_code":"2994344","prefecture":"千葉県","prefecture_kana":"チバケン","city":"長生郡長生村","city_kana":"チョウセイグンチョウセイムラ","town":"曽根","town_kana":"ソネ","prefecture_code":12},"4346":{"zip_code":"2994346","prefecture":"千葉県","prefecture_kana":"チバケン","city":"長生郡長生村","city_kana":"チョウセイグンチョウセイムラ","town":"中之郷","town_kana":"ナカノゴウ","prefecture_code":12},"4333":{"zip_code":"2994333","prefecture":"千葉県","prefecture_kana":"チバケン","city":"長生郡長生村","city_kana":"チョウセイグンチョウセイムラ","town":"七井土","town_kana":"ナナイド","prefecture_code":12},"4331":{"zip_code":"2994331","prefecture":"千葉県","prefecture_kana":"チバケン","city":"長生郡長生村","city_kana":"チョウセイグンチョウセイムラ","town":"信友","town_kana":"ノブトモ","prefecture_code":12},"4327":{"zip_code":"2994327","prefecture":"千葉県","prefecture_kana":"チバケン","city":"長生郡長生村","city_kana":"チョウセイグンチョウセイムラ","town":"一松","town_kana":"ヒトツマツ","prefecture_code":12},"4328":{"zip_code":"2994328","prefecture":"千葉県","prefecture_kana":"チバケン","city":"長生郡長生村","city_kana":"チョウセイグンチョウセイムラ","town":"一松甲","town_kana":"ヒトツマツコウ","prefecture_code":12},"4326":{"zip_code":"2994326","prefecture":"千葉県","prefecture_kana":"チバケン","city":"長生郡長生村","city_kana":"チョウセイグンチョウセイムラ","town":"一松乙","town_kana":"ヒトツマツオツ","prefecture_code":12},"4325":{"zip_code":"2994325","prefecture":"千葉県","prefecture_kana":"チバケン","city":"長生郡長生村","city_kana":"チョウセイグンチョウセイムラ","town":"一松丙","town_kana":"ヒトツマツヘイ","prefecture_code":12},"4324":{"zip_code":"2994324","prefecture":"千葉県","prefecture_kana":"チバケン","city":"長生郡長生村","city_kana":"チョウセイグンチョウセイムラ","town":"一松丁","town_kana":"ヒトツマツテイ","prefecture_code":12},"4323":{"zip_code":"2994323","prefecture":"千葉県","prefecture_kana":"チバケン","city":"長生郡長生村","city_kana":"チョウセイグンチョウセイムラ","town":"一松戊","town_kana":"ヒトツマツボ","prefecture_code":12},"4342":{"zip_code":"2994342","prefecture":"千葉県","prefecture_kana":"チバケン","city":"長生郡長生村","city_kana":"チョウセイグンチョウセイムラ","town":"一松飛地甲","town_kana":"ヒトツマツトビチコウ","prefecture_code":12},"4345":{"zip_code":"2994345","prefecture":"千葉県","prefecture_kana":"チバケン","city":"長生郡長生村","city_kana":"チョウセイグンチョウセイムラ","town":"本郷","town_kana":"ホンゴウ","prefecture_code":12},"4341":{"zip_code":"2994341","prefecture":"千葉県","prefecture_kana":"チバケン","city":"長生郡長生村","city_kana":"チョウセイグンチョウセイムラ","town":"宮成","town_kana":"ミヤナリ","prefecture_code":12},"4335":{"zip_code":"2994335","prefecture":"千葉県","prefecture_kana":"チバケン","city":"長生郡長生村","city_kana":"チョウセイグンチョウセイムラ","town":"水口","town_kana":"ミヨグチ","prefecture_code":12},"4338":{"zip_code":"2994338","prefecture":"千葉県","prefecture_kana":"チバケン","city":"長生郡長生村","city_kana":"チョウセイグンチョウセイムラ","town":"六ツ野飛地","town_kana":"ムツノトビチ","prefecture_code":12},"4334":{"zip_code":"2994334","prefecture":"千葉県","prefecture_kana":"チバケン","city":"長生郡長生村","city_kana":"チョウセイグンチョウセイムラ","town":"薮塚","town_kana":"ヤブツカ","prefecture_code":12},"4200":{"zip_code":"2994200","prefecture":"千葉県","prefecture_kana":"チバケン","city":"長生郡白子町","city_kana":"チョウセイグンシラコマチ","town":"","town_kana":"","prefecture_code":12},"4202":{"zip_code":"2994202","prefecture":"千葉県","prefecture_kana":"チバケン","city":"長生郡白子町","city_kana":"チョウセイグンシラコマチ","town":"牛込","town_kana":"ウシゴメ","prefecture_code":12},"4214":{"zip_code":"2994214","prefecture":"千葉県","prefecture_kana":"チバケン","city":"長生郡白子町","city_kana":"チョウセイグンシラコマチ","town":"驚","town_kana":"オドロキ","prefecture_code":12},"4217":{"zip_code":"2994217","prefecture":"千葉県","prefecture_kana":"チバケン","city":"長生郡白子町","city_kana":"チョウセイグンシラコマチ","town":"北高根","town_kana":"キタダカネ","prefecture_code":12},"4206":{"zip_code":"2994206","prefecture":"千葉県","prefecture_kana":"チバケン","city":"長生郡白子町","city_kana":"チョウセイグンシラコマチ","town":"北日当","town_kana":"キタヒナタ","prefecture_code":12},"4211":{"zip_code":"2994211","prefecture":"千葉県","prefecture_kana":"チバケン","city":"長生郡白子町","city_kana":"チョウセイグンシラコマチ","town":"五井","town_kana":"ゴイ","prefecture_code":12},"4216":{"zip_code":"2994216","prefecture":"千葉県","prefecture_kana":"チバケン","city":"長生郡白子町","city_kana":"チョウセイグンシラコマチ","town":"幸治","town_kana":"コウジ","prefecture_code":12},"4218":{"zip_code":"2994218","prefecture":"千葉県","prefecture_kana":"チバケン","city":"長生郡白子町","city_kana":"チョウセイグンシラコマチ","town":"関","town_kana":"セキ","prefecture_code":12},"4203":{"zip_code":"2994203","prefecture":"千葉県","prefecture_kana":"チバケン","city":"長生郡白子町","city_kana":"チョウセイグンシラコマチ","town":"剃金","town_kana":"ソリガネ","prefecture_code":12},"4215":{"zip_code":"2994215","prefecture":"千葉県","prefecture_kana":"チバケン","city":"長生郡白子町","city_kana":"チョウセイグンシラコマチ","town":"中里","town_kana":"ナカザト","prefecture_code":12},"4213":{"zip_code":"2994213","prefecture":"千葉県","prefecture_kana":"チバケン","city":"長生郡白子町","city_kana":"チョウセイグンシラコマチ","town":"八斗","town_kana":"ハツト","prefecture_code":12},"4201":{"zip_code":"2994201","prefecture":"千葉県","prefecture_kana":"チバケン","city":"長生郡白子町","city_kana":"チョウセイグンシラコマチ","town":"浜宿","town_kana":"ハマシュク","prefecture_code":12},"4204":{"zip_code":"2994204","prefecture":"千葉県","prefecture_kana":"チバケン","city":"長生郡白子町","city_kana":"チョウセイグンシラコマチ","town":"福島","town_kana":"フクシマ","prefecture_code":12},"4212":{"zip_code":"2994212","prefecture":"千葉県","prefecture_kana":"チバケン","city":"長生郡白子町","city_kana":"チョウセイグンシラコマチ","town":"古所","town_kana":"フルトコロ","prefecture_code":12},"4205":{"zip_code":"2994205","prefecture":"千葉県","prefecture_kana":"チバケン","city":"長生郡白子町","city_kana":"チョウセイグンシラコマチ","town":"南日当","town_kana":"ミナミヒナタ","prefecture_code":12},"5100":{"zip_code":"2995100","prefecture":"千葉県","prefecture_kana":"チバケン","city":"夷隅郡御宿町","city_kana":"イスミグンオンジュクマチ","town":"","town_kana":"","prefecture_code":12},"5105":{"zip_code":"2995105","prefecture":"千葉県","prefecture_kana":"チバケン","city":"夷隅郡御宿町","city_kana":"イスミグンオンジュクマチ","town":"岩和田","town_kana":"イワワダ","prefecture_code":12},"5112":{"zip_code":"2995112","prefecture":"千葉県","prefecture_kana":"チバケン","city":"夷隅郡御宿町","city_kana":"イスミグンオンジュクマチ","town":"御宿台","town_kana":"オンジュクダイ","prefecture_code":12},"5111":{"zip_code":"2995111","prefecture":"千葉県","prefecture_kana":"チバケン","city":"夷隅郡御宿町","city_kana":"イスミグンオンジュクマチ","town":"上布施","town_kana":"カミフセ","prefecture_code":12},"5102":{"zip_code":"2995102","prefecture":"千葉県","prefecture_kana":"チバケン","city":"夷隅郡御宿町","city_kana":"イスミグンオンジュクマチ","town":"久保","town_kana":"クボ","prefecture_code":12},"5114":{"zip_code":"2995114","prefecture":"千葉県","prefecture_kana":"チバケン","city":"夷隅郡御宿町","city_kana":"イスミグンオンジュクマチ","town":"実谷","town_kana":"ジッコク","prefecture_code":12},"5103":{"zip_code":"2995103","prefecture":"千葉県","prefecture_kana":"チバケン","city":"夷隅郡御宿町","city_kana":"イスミグンオンジュクマチ","town":"新町","town_kana":"シンマチ","prefecture_code":12},"5106":{"zip_code":"2995106","prefecture":"千葉県","prefecture_kana":"チバケン","city":"夷隅郡御宿町","city_kana":"イスミグンオンジュクマチ","town":"須賀","town_kana":"スカ","prefecture_code":12},"5101":{"zip_code":"2995101","prefecture":"千葉県","prefecture_kana":"チバケン","city":"夷隅郡御宿町","city_kana":"イスミグンオンジュクマチ","town":"高山田","town_kana":"タカヤマダ","prefecture_code":12},"5113":{"zip_code":"2995113","prefecture":"千葉県","prefecture_kana":"チバケン","city":"夷隅郡御宿町","city_kana":"イスミグンオンジュクマチ","town":"七本","town_kana":"ナナモト","prefecture_code":12},"5107":{"zip_code":"2995107","prefecture":"千葉県","prefecture_kana":"チバケン","city":"夷隅郡御宿町","city_kana":"イスミグンオンジュクマチ","town":"浜","town_kana":"ハマ","prefecture_code":12},"5104":{"zip_code":"2995104","prefecture":"千葉県","prefecture_kana":"チバケン","city":"夷隅郡御宿町","city_kana":"イスミグンオンジュクマチ","town":"六軒町","town_kana":"ロッケンマチ","prefecture_code":12},"2100":{"zip_code":"2992100","prefecture":"千葉県","prefecture_kana":"チバケン","city":"安房郡鋸南町","city_kana":"アワグンキョナンマチ","town":"","town_kana":"","prefecture_code":12},"1905":{"zip_code":"2991905","prefecture":"千葉県","prefecture_kana":"チバケン","city":"安房郡鋸南町","city_kana":"アワグンキョナンマチ","town":"市井原","town_kana":"イチイバラ","prefecture_code":12},"2116":{"zip_code":"2992116","prefecture":"千葉県","prefecture_kana":"チバケン","city":"安房郡鋸南町","city_kana":"アワグンキョナンマチ","town":"岩井袋","town_kana":"イワイフクロ","prefecture_code":12},"1907":{"zip_code":"2991907","prefecture":"千葉県","prefecture_kana":"チバケン","city":"安房郡鋸南町","city_kana":"アワグンキョナンマチ","town":"江月","town_kana":"エヅキ","prefecture_code":12},"1903":{"zip_code":"2991903","prefecture":"千葉県","prefecture_kana":"チバケン","city":"安房郡鋸南町","city_kana":"アワグンキョナンマチ","town":"大帷子","town_kana":"オオカタビラ","prefecture_code":12},"2111":{"zip_code":"2992111","prefecture":"千葉県","prefecture_kana":"チバケン","city":"安房郡鋸南町","city_kana":"アワグンキョナンマチ","town":"大崩","town_kana":"オクズレ","prefecture_code":12},"2112":{"zip_code":"2992112","prefecture":"千葉県","prefecture_kana":"チバケン","city":"安房郡鋸南町","city_kana":"アワグンキョナンマチ","town":"奥山","town_kana":"オクヤマ","prefecture_code":12},"2117":{"zip_code":"2992117","prefecture":"千葉県","prefecture_kana":"チバケン","city":"安房郡鋸南町","city_kana":"アワグンキョナンマチ","town":"勝山","town_kana":"カツヤマ","prefecture_code":12},"2113":{"zip_code":"2992113","prefecture":"千葉県","prefecture_kana":"チバケン","city":"安房郡鋸南町","city_kana":"アワグンキョナンマチ","town":"上佐久間","town_kana":"カミサクマ","prefecture_code":12},"1904":{"zip_code":"2991904","prefecture":"千葉県","prefecture_kana":"チバケン","city":"安房郡鋸南町","city_kana":"アワグンキョナンマチ","town":"小保田","town_kana":"コボタ","prefecture_code":12},"2115":{"zip_code":"2992115","prefecture":"千葉県","prefecture_kana":"チバケン","city":"安房郡鋸南町","city_kana":"アワグンキョナンマチ","town":"下佐久間","town_kana":"シモサクマ","prefecture_code":12},"1909":{"zip_code":"2991909","prefecture":"千葉県","prefecture_kana":"チバケン","city":"安房郡鋸南町","city_kana":"アワグンキョナンマチ","town":"大六","town_kana":"ダイロク","prefecture_code":12},"2114":{"zip_code":"2992114","prefecture":"千葉県","prefecture_kana":"チバケン","city":"安房郡鋸南町","city_kana":"アワグンキョナンマチ","town":"中佐久間","town_kana":"ナカサクマ","prefecture_code":12},"1902":{"zip_code":"2991902","prefecture":"千葉県","prefecture_kana":"チバケン","city":"安房郡鋸南町","city_kana":"アワグンキョナンマチ","town":"保田","town_kana":"ホタ","prefecture_code":12},"1901":{"zip_code":"2991901","prefecture":"千葉県","prefecture_kana":"チバケン","city":"安房郡鋸南町","city_kana":"アワグンキョナンマチ","town":"元名","town_kana":"モトナ","prefecture_code":12},"1906":{"zip_code":"2991906","prefecture":"千葉県","prefecture_kana":"チバケン","city":"安房郡鋸南町","city_kana":"アワグンキョナンマチ","town":"横根","town_kana":"ヨコネ","prefecture_code":12},"1908":{"zip_code":"2991908","prefecture":"千葉県","prefecture_kana":"チバケン","city":"安房郡鋸南町","city_kana":"アワグンキョナンマチ","town":"吉浜","town_kana":"ヨシハマ","prefecture_code":12},"2118":{"zip_code":"2992118","prefecture":"千葉県","prefecture_kana":"チバケン","city":"安房郡鋸南町","city_kana":"アワグンキョナンマチ","town":"竜島","town_kana":"リュウシマ","prefecture_code":12}}