{"0000":{"zip_code":"3000000","prefecture":"茨城県","prefecture_kana":"イバラキケン","city":"土浦市","city_kana":"ツチウラシ","town":"以下に掲載がない場合","town_kana":"イカニケイサイガナイバアイ","prefecture_code":8},"0818":{"zip_code":"3000818","prefecture":"茨城県","prefecture_kana":"イバラキケン","city":"土浦市","city_kana":"ツチウラシ","town":"天川","town_kana":"アマカワ","prefecture_code":8},"0873":{"zip_code":"3000873","prefecture":"茨城県","prefecture_kana":"イバラキケン","city":"土浦市","city_kana":"ツチウラシ","town":"荒川沖","town_kana":"アラカワオキ","prefecture_code":8},"0871":{"zip_code":"3000871","prefecture":"茨城県","prefecture_kana":"イバラキケン","city":"土浦市","city_kana":"ツチウラシ","town":"荒川沖東","town_kana":"アラカワオキヒガシ","prefecture_code":8},"0874":{"zip_code":"3000874","prefecture":"茨城県","prefecture_kana":"イバラキケン","city":"土浦市","city_kana":"ツチウラシ","town":"荒川沖西","town_kana":"アラカワオキニシ","prefecture_code":8},"0877":{"zip_code":"3000877","prefecture":"茨城県","prefecture_kana":"イバラキケン","city":"土浦市","city_kana":"ツチウラシ","town":"荒川本郷","town_kana":"アラカワホンゴウ","prefecture_code":8},"0035":{"zip_code":"3000035","prefecture":"茨城県","prefecture_kana":"イバラキケン","city":"土浦市","city_kana":"ツチウラシ","town":"有明町","town_kana":"アリアケチョウ","prefecture_code":8},"0002":{"zip_code":"3000002","prefecture":"茨城県","prefecture_kana":"イバラキケン","city":"土浦市","city_kana":"ツチウラシ","town":"粟野町","town_kana":"アワノマチ","prefecture_code":8},"0802":{"zip_code":"3000802","prefecture":"茨城県","prefecture_kana":"イバラキケン","city":"土浦市","city_kana":"ツチウラシ","town":"飯田","town_kana":"イイダ","prefecture_code":8},"0047":{"zip_code":"3000047","prefecture":"茨城県","prefecture_kana":"イバラキケン","city":"土浦市","city_kana":"ツチウラシ","town":"生田町","town_kana":"イクタマチ","prefecture_code":8},"0007":{"zip_code":"3000007","prefecture":"茨城県","prefecture_kana":"イバラキケン","city":"土浦市","city_kana":"ツチウラシ","town":"板谷","town_kana":"イタヤ","prefecture_code":8},"0001":{"zip_code":"3000001","prefecture":"茨城県","prefecture_kana":"イバラキケン","city":"土浦市","city_kana":"ツチウラシ","town":"今泉","town_kana":"イマイズミ","prefecture_code":8},"0835":{"zip_code":"3000835","prefecture":"茨城県","prefecture_kana":"イバラキケン","city":"土浦市","city_kana":"ツチウラシ","town":"大岩田","town_kana":"オオイワタ","prefecture_code":8},"4103":{"zip_code":"3004103","prefecture":"茨城県","prefecture_kana":"イバラキケン","city":"土浦市","city_kana":"ツチウラシ","town":"大志戸","town_kana":"オオシト","prefecture_code":8},"0028":{"zip_code":"3000028","prefecture":"茨城県","prefecture_kana":"イバラキケン","city":"土浦市","city_kana":"ツチウラシ","town":"おおつ野","town_kana":"オオツノ","prefecture_code":8},"0044":{"zip_code":"3000044","prefecture":"茨城県","prefecture_kana":"イバラキケン","city":"土浦市","city_kana":"ツチウラシ","town":"大手町","town_kana":"オオテマチ","prefecture_code":8},"4111":{"zip_code":"3004111","prefecture":"茨城県","prefecture_kana":"イバラキケン","city":"土浦市","city_kana":"ツチウラシ","town":"大畑","town_kana":"オオバタケ","prefecture_code":8},"0038":{"zip_code":"3000038","prefecture":"茨城県","prefecture_kana":"イバラキケン","city":"土浦市","city_kana":"ツチウラシ","town":"大町","town_kana":"オオマチ","prefecture_code":8},"0872":{"zip_code":"3000872","prefecture":"茨城県","prefecture_kana":"イバラキケン","city":"土浦市","city_kana":"ツチウラシ","town":"沖新田","town_kana":"オキシンデン","prefecture_code":8},"0023":{"zip_code":"3000023","prefecture":"茨城県","prefecture_kana":"イバラキケン","city":"土浦市","city_kana":"ツチウラシ","town":"沖宿町","town_kana":"オキジュクマチ","prefecture_code":8},"4106":{"zip_code":"3004106","prefecture":"茨城県","prefecture_kana":"イバラキケン","city":"土浦市","city_kana":"ツチウラシ","town":"小高","town_kana":"オダカ","prefecture_code":8},"0844":{"zip_code":"3000844","prefecture":"茨城県","prefecture_kana":"イバラキケン","city":"土浦市","city_kana":"ツチウラシ","town":"乙戸","town_kana":"オット","prefecture_code":8},"0845":{"zip_code":"3000845","prefecture":"茨城県","prefecture_kana":"イバラキケン","city":"土浦市","city_kana":"ツチウラシ","town":"乙戸南","town_kana":"オットミナミ","prefecture_code":8},"4108":{"zip_code":"3004108","prefecture":"茨城県","prefecture_kana":"イバラキケン","city":"土浦市","city_kana":"ツチウラシ","town":"小野","town_kana":"オノ","prefecture_code":8},"0846":{"zip_code":"3000846","prefecture":"茨城県","prefecture_kana":"イバラキケン","city":"土浦市","city_kana":"ツチウラシ","town":"小山田","town_kana":"オヤマダ","prefecture_code":8},"0847":{"zip_code":"3000847","prefecture":"茨城県","prefecture_kana":"イバラキケン","city":"土浦市","city_kana":"ツチウラシ","town":"卸町","town_kana":"オロシマチ","prefecture_code":8},"0008":{"zip_code":"3000008","prefecture":"茨城県","prefecture_kana":"イバラキケン","city":"土浦市","city_kana":"ツチウラシ","town":"笠師町","town_kana":"カサシマチ","prefecture_code":8},"0804":{"zip_code":"3000804","prefecture":"茨城県","prefecture_kana":"イバラキケン","city":"土浦市","city_kana":"ツチウラシ","town":"粕毛","town_kana":"カスゲ","prefecture_code":8},"0825":{"zip_code":"3000825","prefecture":"茨城県","prefecture_kana":"イバラキケン","city":"土浦市","city_kana":"ツチウラシ","town":"霞ケ岡町","town_kana":"カスミガオカマチ","prefecture_code":8},"4114":{"zip_code":"3004114","prefecture":"茨城県","prefecture_kana":"イバラキケン","city":"土浦市","city_kana":"ツチウラシ","town":"上坂田","town_kana":"カミサカタ","prefecture_code":8},"0811":{"zip_code":"3000811","prefecture":"茨城県","prefecture_kana":"イバラキケン","city":"土浦市","city_kana":"ツチウラシ","town":"上高津","town_kana":"カミタカツ","prefecture_code":8},"0819":{"zip_code":"3000819","prefecture":"茨城県","prefecture_kana":"イバラキケン","city":"土浦市","city_kana":"ツチウラシ","town":"上高津新町","town_kana":"カミタカツシンマチ","prefecture_code":8},"0836":{"zip_code":"3000836","prefecture":"茨城県","prefecture_kana":"イバラキケン","city":"土浦市","city_kana":"ツチウラシ","town":"烏山","town_kana":"カラスヤマ","prefecture_code":8},"0033":{"zip_code":"3000033","prefecture":"茨城県","prefecture_kana":"イバラキケン","city":"土浦市","city_kana":"ツチウラシ","town":"川口","town_kana":"カワグチ","prefecture_code":8},"0011":{"zip_code":"3000011","prefecture":"茨城県","prefecture_kana":"イバラキケン","city":"土浦市","city_kana":"ツチウラシ","town":"神立中央","town_kana":"カンダツチュウオウ","prefecture_code":8},"0013":{"zip_code":"3000013","prefecture":"茨城県","prefecture_kana":"イバラキケン","city":"土浦市","city_kana":"ツチウラシ","town":"神立町","town_kana":"カンダツマチ","prefecture_code":8},"0012":{"zip_code":"3000012","prefecture":"茨城県","prefecture_kana":"イバラキケン","city":"土浦市","city_kana":"ツチウラシ","town":"神立東","town_kana":"カンダツヒガシ","prefecture_code":8},"0876":{"zip_code":"3000876","prefecture":"茨城県","prefecture_kana":"イバラキケン","city":"土浦市","city_kana":"ツチウラシ","town":"北荒川沖町","town_kana":"キタアラカワオキマチ","prefecture_code":8},"0015":{"zip_code":"3000015","prefecture":"茨城県","prefecture_kana":"イバラキケン","city":"土浦市","city_kana":"ツチウラシ","town":"北神立町","town_kana":"キタカンダツマチ","prefecture_code":8},"0026":{"zip_code":"3000026","prefecture":"茨城県","prefecture_kana":"イバラキケン","city":"土浦市","city_kana":"ツチウラシ","town":"木田余","town_kana":"キダマリ","prefecture_code":8},"0056":{"zip_code":"3000056","prefecture":"茨城県","prefecture_kana":"イバラキケン","city":"土浦市","city_kana":"ツチウラシ","town":"木田余西台","town_kana":"キダマリニシダイ","prefecture_code":8},"0027":{"zip_code":"3000027","prefecture":"茨城県","prefecture_kana":"イバラキケン","city":"土浦市","city_kana":"ツチウラシ","town":"木田余東台","town_kana":"キダマリヒガシダイ","prefecture_code":8},"0831":{"zip_code":"3000831","prefecture":"茨城県","prefecture_kana":"イバラキケン","city":"土浦市","city_kana":"ツチウラシ","town":"小岩田","town_kana":"コイワタ","prefecture_code":8},"0834":{"zip_code":"3000834","prefecture":"茨城県","prefecture_kana":"イバラキケン","city":"土浦市","city_kana":"ツチウラシ","town":"小岩田東","town_kana":"コイワダヒガシ","prefecture_code":8},"0833":{"zip_code":"3000833","prefecture":"茨城県","prefecture_kana":"イバラキケン","city":"土浦市","city_kana":"ツチウラシ","town":"小岩田西","town_kana":"コイワダニシ","prefecture_code":8},"0814":{"zip_code":"3000814","prefecture":"茨城県","prefecture_kana":"イバラキケン","city":"土浦市","city_kana":"ツチウラシ","town":"国分町","town_kana":"コクブチョウ","prefecture_code":8},"0032":{"zip_code":"3000032","prefecture":"茨城県","prefecture_kana":"イバラキケン","city":"土浦市","city_kana":"ツチウラシ","town":"湖北","town_kana":"コホク","prefecture_code":8},"0823":{"zip_code":"3000823","prefecture":"茨城県","prefecture_kana":"イバラキケン","city":"土浦市","city_kana":"ツチウラシ","town":"小松","town_kana":"コマツ","prefecture_code":8},"0826":{"zip_code":"3000826","prefecture":"茨城県","prefecture_kana":"イバラキケン","city":"土浦市","city_kana":"ツチウラシ","town":"小松ケ丘町","town_kana":"コマツガオカマチ","prefecture_code":8},"0004":{"zip_code":"3000004","prefecture":"茨城県","prefecture_kana":"イバラキケン","city":"土浦市","city_kana":"ツチウラシ","town":"小山崎","town_kana":"コヤマザキ","prefecture_code":8},"0832":{"zip_code":"3000832","prefecture":"茨城県","prefecture_kana":"イバラキケン","city":"土浦市","city_kana":"ツチウラシ","town":"桜ケ丘町","town_kana":"サクラガオカマチ","prefecture_code":8},"0037":{"zip_code":"3000037","prefecture":"茨城県","prefecture_kana":"イバラキケン","city":"土浦市","city_kana":"ツチウラシ","town":"桜町","town_kana":"サクラマチ","prefecture_code":8},"0803":{"zip_code":"3000803","prefecture":"茨城県","prefecture_kana":"イバラキケン","city":"土浦市","city_kana":"ツチウラシ","town":"佐野子","town_kana":"サノコ","prefecture_code":8},"4104":{"zip_code":"3004104","prefecture":"茨城県","prefecture_kana":"イバラキケン","city":"土浦市","city_kana":"ツチウラシ","town":"沢辺","town_kana":"サワベ","prefecture_code":8},"0805":{"zip_code":"3000805","prefecture":"茨城県","prefecture_kana":"イバラキケン","city":"土浦市","city_kana":"ツチウラシ","town":"宍塚","town_kana":"シシツカ","prefecture_code":8},"4113":{"zip_code":"3004113","prefecture":"茨城県","prefecture_kana":"イバラキケン","city":"土浦市","city_kana":"ツチウラシ","town":"下坂田","town_kana":"シモサカタ","prefecture_code":8},"0812":{"zip_code":"3000812","prefecture":"茨城県","prefecture_kana":"イバラキケン","city":"土浦市","city_kana":"ツチウラシ","town":"下高津","town_kana":"シモタカツ","prefecture_code":8},"0042":{"zip_code":"3000042","prefecture":"茨城県","prefecture_kana":"イバラキケン","city":"土浦市","city_kana":"ツチウラシ","town":"城北町","town_kana":"ジョウホクマチ","prefecture_code":8},"0022":{"zip_code":"3000022","prefecture":"茨城県","prefecture_kana":"イバラキケン","city":"土浦市","city_kana":"ツチウラシ","town":"白鳥町","town_kana":"シラトリマチ","prefecture_code":8},"0021":{"zip_code":"3000021","prefecture":"茨城県","prefecture_kana":"イバラキケン","city":"土浦市","city_kana":"ツチウラシ","town":"菅谷町","town_kana":"スゲノヤマチ","prefecture_code":8},"0046":{"zip_code":"3000046","prefecture":"茨城県","prefecture_kana":"イバラキケン","city":"土浦市","city_kana":"ツチウラシ","town":"千束町","town_kana":"センゾクチョウ","prefecture_code":8},"4117":{"zip_code":"3004117","prefecture":"茨城県","prefecture_kana":"イバラキケン","city":"土浦市","city_kana":"ツチウラシ","town":"高岡","town_kana":"タカオカ","prefecture_code":8},"0839":{"zip_code":"3000839","prefecture":"茨城県","prefecture_kana":"イバラキケン","city":"土浦市","city_kana":"ツチウラシ","town":"滝田","town_kana":"タキタ","prefecture_code":8},"0041":{"zip_code":"3000041","prefecture":"茨城県","prefecture_kana":"イバラキケン","city":"土浦市","city_kana":"ツチウラシ","town":"立田町","town_kana":"タツタマチ","prefecture_code":8},"4118":{"zip_code":"3004118","prefecture":"茨城県","prefecture_kana":"イバラキケン","city":"土浦市","city_kana":"ツチウラシ","town":"田土部","town_kana":"タドベ","prefecture_code":8},"0048":{"zip_code":"3000048","prefecture":"茨城県","prefecture_kana":"イバラキケン","city":"土浦市","city_kana":"ツチウラシ","town":"田中","town_kana":"タナカ","prefecture_code":8},"0049":{"zip_code":"3000049","prefecture":"茨城県","prefecture_kana":"イバラキケン","city":"土浦市","city_kana":"ツチウラシ","town":"田中町","town_kana":"タナカマチ","prefecture_code":8},"4105":{"zip_code":"3004105","prefecture":"茨城県","prefecture_kana":"イバラキケン","city":"土浦市","city_kana":"ツチウラシ","town":"田宮","town_kana":"タミヤ","prefecture_code":8},"0024":{"zip_code":"3000024","prefecture":"茨城県","prefecture_kana":"イバラキケン","city":"土浦市","city_kana":"ツチウラシ","town":"田村町","town_kana":"タムラマチ","prefecture_code":8},"0824":{"zip_code":"3000824","prefecture":"茨城県","prefecture_kana":"イバラキケン","city":"土浦市","city_kana":"ツチウラシ","town":"千鳥ケ丘町","town_kana":"チドリガオカマチ","prefecture_code":8},"0043":{"zip_code":"3000043","prefecture":"茨城県","prefecture_kana":"イバラキケン","city":"土浦市","city_kana":"ツチウラシ","town":"中央","town_kana":"チュウオウ","prefecture_code":8},"0062":{"zip_code":"3000062","prefecture":"茨城県","prefecture_kana":"イバラキケン","city":"土浦市","city_kana":"ツチウラシ","town":"都和","town_kana":"ツワ","prefecture_code":8},"0025":{"zip_code":"3000025","prefecture":"茨城県","prefecture_kana":"イバラキケン","city":"土浦市","city_kana":"ツチウラシ","town":"手野町","town_kana":"テノマチ","prefecture_code":8},"0031":{"zip_code":"3000031","prefecture":"茨城県","prefecture_kana":"イバラキケン","city":"土浦市","city_kana":"ツチウラシ","town":"東崎町","town_kana":"トウザキマチ","prefecture_code":8},"4107":{"zip_code":"3004107","prefecture":"茨城県","prefecture_kana":"イバラキケン","city":"土浦市","city_kana":"ツチウラシ","town":"東城寺","town_kana":"トウジョウジ","prefecture_code":8},"0055":{"zip_code":"3000055","prefecture":"茨城県","prefecture_kana":"イバラキケン","city":"土浦市","city_kana":"ツチウラシ","town":"殿里","town_kana":"トノサト","prefecture_code":8},"0841":{"zip_code":"3000841","prefecture":"茨城県","prefecture_kana":"イバラキケン","city":"土浦市","city_kana":"ツチウラシ","town":"中","town_kana":"ナカ","prefecture_code":8},"0875":{"zip_code":"3000875","prefecture":"茨城県","prefecture_kana":"イバラキケン","city":"土浦市","city_kana":"ツチウラシ","town":"中荒川沖町","town_kana":"ナカアラカワオキマチ","prefecture_code":8},"4101":{"zip_code":"3004101","prefecture":"茨城県","prefecture_kana":"イバラキケン","city":"土浦市","city_kana":"ツチウラシ","town":"永井","town_kana":"ナガイ","prefecture_code":8},"0016":{"zip_code":"3000016","prefecture":"茨城県","prefecture_kana":"イバラキケン","city":"土浦市","city_kana":"ツチウラシ","town":"中神立町","town_kana":"ナカカンダツマチ","prefecture_code":8},"0815":{"zip_code":"3000815","prefecture":"茨城県","prefecture_kana":"イバラキケン","city":"土浦市","city_kana":"ツチウラシ","town":"中高津","town_kana":"ナカタカツ","prefecture_code":8},"0009":{"zip_code":"3000009","prefecture":"茨城県","prefecture_kana":"イバラキケン","city":"土浦市","city_kana":"ツチウラシ","town":"中都町","town_kana":"ナカツマチ","prefecture_code":8},"0005":{"zip_code":"3000005","prefecture":"茨城県","prefecture_kana":"イバラキケン","city":"土浦市","city_kana":"ツチウラシ","town":"中貫","town_kana":"ナカヌキ","prefecture_code":8},"0849":{"zip_code":"3000849","prefecture":"茨城県","prefecture_kana":"イバラキケン","city":"土浦市","city_kana":"ツチウラシ","town":"中村西根","town_kana":"ナカムラニシネ","prefecture_code":8},"0850":{"zip_code":"3000850","prefecture":"茨城県","prefecture_kana":"イバラキケン","city":"土浦市","city_kana":"ツチウラシ","town":"中村東","town_kana":"ナカムラヒガシ","prefecture_code":8},"0843":{"zip_code":"3000843","prefecture":"茨城県","prefecture_kana":"イバラキケン","city":"土浦市","city_kana":"ツチウラシ","town":"中村南","town_kana":"ナカムラミナミ","prefecture_code":8},"0817":{"zip_code":"3000817","prefecture":"茨城県","prefecture_kana":"イバラキケン","city":"土浦市","city_kana":"ツチウラシ","town":"永国","town_kana":"ナガクニ","prefecture_code":8},"0810":{"zip_code":"3000810","prefecture":"茨城県","prefecture_kana":"イバラキケン","city":"土浦市","city_kana":"ツチウラシ","town":"永国台","town_kana":"ナガクニダイ","prefecture_code":8},"0816":{"zip_code":"3000816","prefecture":"茨城県","prefecture_kana":"イバラキケン","city":"土浦市","city_kana":"ツチウラシ","town":"永国東町","town_kana":"ナガクニヒガシマチ","prefecture_code":8},"0061":{"zip_code":"3000061","prefecture":"茨城県","prefecture_kana":"イバラキケン","city":"土浦市","city_kana":"ツチウラシ","town":"並木","town_kana":"ナミキ","prefecture_code":8},"0014":{"zip_code":"3000014","prefecture":"茨城県","prefecture_kana":"イバラキケン","city":"土浦市","city_kana":"ツチウラシ","town":"西神立","town_kana":"ニシカンダツ","prefecture_code":8},"0068":{"zip_code":"3000068","prefecture":"茨城県","prefecture_kana":"イバラキケン","city":"土浦市","city_kana":"ツチウラシ","town":"西並木町","town_kana":"ニシナミキマチ","prefecture_code":8},"0848":{"zip_code":"3000848","prefecture":"茨城県","prefecture_kana":"イバラキケン","city":"土浦市","city_kana":"ツチウラシ","town":"西根西","town_kana":"ニシネニシ","prefecture_code":8},"0842":{"zip_code":"3000842","prefecture":"茨城県","prefecture_kana":"イバラキケン","city":"土浦市","city_kana":"ツチウラシ","town":"西根南","town_kana":"ニシネミナミ","prefecture_code":8},"0054":{"zip_code":"3000054","prefecture":"茨城県","prefecture_kana":"イバラキケン","city":"土浦市","city_kana":"ツチウラシ","town":"西真鍋町","town_kana":"ニシマナベマチ","prefecture_code":8},"0821":{"zip_code":"3000821","prefecture":"茨城県","prefecture_kana":"イバラキケン","city":"土浦市","city_kana":"ツチウラシ","town":"蓮河原新町","town_kana":"ハスカワラシンマチ","prefecture_code":8},"0822":{"zip_code":"3000822","prefecture":"茨城県","prefecture_kana":"イバラキケン","city":"土浦市","city_kana":"ツチウラシ","town":"蓮河原町","town_kana":"ハスカワラマチ","prefecture_code":8},"0067":{"zip_code":"3000067","prefecture":"茨城県","prefecture_kana":"イバラキケン","city":"土浦市","city_kana":"ツチウラシ","town":"東都和","town_kana":"ヒガシツワ","prefecture_code":8},"0006":{"zip_code":"3000006","prefecture":"茨城県","prefecture_kana":"イバラキケン","city":"土浦市","city_kana":"ツチウラシ","town":"東中貫町","town_kana":"ヒガシナカヌキマチ","prefecture_code":8},"0069":{"zip_code":"3000069","prefecture":"茨城県","prefecture_kana":"イバラキケン","city":"土浦市","city_kana":"ツチウラシ","town":"東並木町","town_kana":"ヒガシナミキマチ","prefecture_code":8},"0052":{"zip_code":"3000052","prefecture":"茨城県","prefecture_kana":"イバラキケン","city":"土浦市","city_kana":"ツチウラシ","town":"東真鍋町","town_kana":"ヒガシマナベマチ","prefecture_code":8},"0064":{"zip_code":"3000064","prefecture":"茨城県","prefecture_kana":"イバラキケン","city":"土浦市","city_kana":"ツチウラシ","town":"東若松町","town_kana":"ヒガシワカマツマチ","prefecture_code":8},"0065":{"zip_code":"3000065","prefecture":"茨城県","prefecture_kana":"イバラキケン","city":"土浦市","city_kana":"ツチウラシ","town":"常名","town_kana":"ヒタナ","prefecture_code":8},"0813":{"zip_code":"3000813","prefecture":"茨城県","prefecture_kana":"イバラキケン","city":"土浦市","city_kana":"ツチウラシ","town":"富士崎","town_kana":"フジサキ","prefecture_code":8},"4115":{"zip_code":"3004115","prefecture":"茨城県","prefecture_kana":"イバラキケン","city":"土浦市","city_kana":"ツチウラシ","town":"藤沢","town_kana":"フジサワ","prefecture_code":8},"4116":{"zip_code":"3004116","prefecture":"茨城県","prefecture_kana":"イバラキケン","city":"土浦市","city_kana":"ツチウラシ","town":"藤沢新田","town_kana":"フジサワシンデン","prefecture_code":8},"0045":{"zip_code":"3000045","prefecture":"茨城県","prefecture_kana":"イバラキケン","city":"土浦市","city_kana":"ツチウラシ","town":"文京町","town_kana":"ブンキョウチョウ","prefecture_code":8},"4102":{"zip_code":"3004102","prefecture":"茨城県","prefecture_kana":"イバラキケン","city":"土浦市","city_kana":"ツチウラシ","town":"本郷","town_kana":"ホンゴウ","prefecture_code":8},"0051":{"zip_code":"3000051","prefecture":"茨城県","prefecture_kana":"イバラキケン","city":"土浦市","city_kana":"ツチウラシ","town":"真鍋","town_kana":"マナベ","prefecture_code":8},"0053":{"zip_code":"3000053","prefecture":"茨城県","prefecture_kana":"イバラキケン","city":"土浦市","city_kana":"ツチウラシ","town":"真鍋新町","town_kana":"マナベシンマチ","prefecture_code":8},"0838":{"zip_code":"3000838","prefecture":"茨城県","prefecture_kana":"イバラキケン","city":"土浦市","city_kana":"ツチウラシ","town":"摩利山新田","town_kana":"マリヤマシンデン","prefecture_code":8},"0837":{"zip_code":"3000837","prefecture":"茨城県","prefecture_kana":"イバラキケン","city":"土浦市","city_kana":"ツチウラシ","town":"右籾","town_kana":"ミギモミ","prefecture_code":8},"0034":{"zip_code":"3000034","prefecture":"茨城県","prefecture_kana":"イバラキケン","city":"土浦市","city_kana":"ツチウラシ","town":"港町","town_kana":"ミナトマチ","prefecture_code":8},"0066":{"zip_code":"3000066","prefecture":"茨城県","prefecture_kana":"イバラキケン","city":"土浦市","city_kana":"ツチウラシ","town":"虫掛","town_kana":"ムシカケ","prefecture_code":8},"0003":{"zip_code":"3000003","prefecture":"茨城県","prefecture_kana":"イバラキケン","city":"土浦市","city_kana":"ツチウラシ","town":"紫ケ丘","town_kana":"ムラサキガオカ","prefecture_code":8},"4112":{"zip_code":"3004112","prefecture":"茨城県","prefecture_kana":"イバラキケン","city":"土浦市","city_kana":"ツチウラシ","town":"桃園","town_kana":"モモゾノ","prefecture_code":8},"0801":{"zip_code":"3000801","prefecture":"茨城県","prefecture_kana":"イバラキケン","city":"土浦市","city_kana":"ツチウラシ","town":"矢作","town_kana":"ヤハギ","prefecture_code":8},"0036":{"zip_code":"3000036","prefecture":"茨城県","prefecture_kana":"イバラキケン","city":"土浦市","city_kana":"ツチウラシ","town":"大和町","town_kana":"ヤマトチョウ","prefecture_code":8},"0063":{"zip_code":"3000063","prefecture":"茨城県","prefecture_kana":"イバラキケン","city":"土浦市","city_kana":"ツチウラシ","town":"若松町","town_kana":"ワカマツチョウ","prefecture_code":8},"2525":{"zip_code":"3002525","prefecture":"茨城県","prefecture_kana":"イバラキケン","city":"常総市","city_kana":"ジョウソウシ","town":"伊左衛門新田町","town_kana":"イザエモンシンデンマチ","prefecture_code":8},"2727":{"zip_code":"3002727","prefecture":"茨城県","prefecture_kana":"イバラキケン","city":"常総市","city_kana":"ジョウソウシ","town":"大沢","town_kana":"オオサワ","prefecture_code":8},"2745":{"zip_code":"3002745","prefecture":"茨城県","prefecture_kana":"イバラキケン","city":"常総市","city_kana":"ジョウソウシ","town":"大沢新田","town_kana":"オオサワシンデン","prefecture_code":8},"2526":{"zip_code":"3002526","prefecture":"茨城県","prefecture_kana":"イバラキケン","city":"常総市","city_kana":"ジョウソウシ","town":"大生郷新田町","town_kana":"オオノゴウシンデンマチ","prefecture_code":8},"2521":{"zip_code":"3002521","prefecture":"茨城県","prefecture_kana":"イバラキケン","city":"常総市","city_kana":"ジョウソウシ","town":"大生郷町","town_kana":"オオノゴウマチ","prefecture_code":8},"2512":{"zip_code":"3002512","prefecture":"茨城県","prefecture_kana":"イバラキケン","city":"常総市","city_kana":"ジョウソウシ","town":"大輪町","town_kana":"オオワマチ","prefecture_code":8},"2743":{"zip_code":"3002743","prefecture":"茨城県","prefecture_kana":"イバラキケン","city":"常総市","city_kana":"ジョウソウシ","town":"岡田","town_kana":"オカダ","prefecture_code":8},"2504":{"zip_code":"3002504","prefecture":"茨城県","prefecture_kana":"イバラキケン","city":"常総市","city_kana":"ジョウソウシ","town":"沖新田町","town_kana":"オキシンデンマチ","prefecture_code":8},"2703":{"zip_code":"3002703","prefecture":"茨城県","prefecture_kana":"イバラキケン","city":"常総市","city_kana":"ジョウソウシ","town":"小保川","town_kana":"オボカワ","prefecture_code":8},"2503":{"zip_code":"3002503","prefecture":"茨城県","prefecture_kana":"イバラキケン","city":"常総市","city_kana":"ジョウソウシ","town":"川崎町","town_kana":"カワサキマチ","prefecture_code":8},"2722":{"zip_code":"3002722","prefecture":"茨城県","prefecture_kana":"イバラキケン","city":"常総市","city_kana":"ジョウソウシ","town":"蔵持","town_kana":"クラモチ","prefecture_code":8},"2723":{"zip_code":"3002723","prefecture":"茨城県","prefecture_kana":"イバラキケン","city":"常総市","city_kana":"ジョウソウシ","town":"蔵持新田","town_kana":"クラモチシンデン","prefecture_code":8},"2734":{"zip_code":"3002734","prefecture":"茨城県","prefecture_kana":"イバラキケン","city":"常総市","city_kana":"ジョウソウシ","town":"栗山新田","town_kana":"クリヤマシンデン","prefecture_code":8},"2746":{"zip_code":"3002746","prefecture":"茨城県","prefecture_kana":"イバラキケン","city":"常総市","city_kana":"ジョウソウシ","town":"鴻野山","town_kana":"コウノヤマ","prefecture_code":8},"2732":{"zip_code":"3002732","prefecture":"茨城県","prefecture_kana":"イバラキケン","city":"常総市","city_kana":"ジョウソウシ","town":"鴻野山新田","town_kana":"コウノヤマシンデン","prefecture_code":8},"2741":{"zip_code":"3002741","prefecture":"茨城県","prefecture_kana":"イバラキケン","city":"常総市","city_kana":"ジョウソウシ","town":"国生","town_kana":"コッショウ","prefecture_code":8},"2524":{"zip_code":"3002524","prefecture":"茨城県","prefecture_kana":"イバラキケン","city":"常総市","city_kana":"ジョウソウシ","town":"五郎兵衛新田町","town_kana":"ゴロベエシンデンマチ","prefecture_code":8},"2747":{"zip_code":"3002747","prefecture":"茨城県","prefecture_kana":"イバラキケン","city":"常総市","city_kana":"ジョウソウシ","town":"崎房","town_kana":"サキブサ","prefecture_code":8},"2523":{"zip_code":"3002523","prefecture":"茨城県","prefecture_kana":"イバラキケン","city":"常総市","city_kana":"ジョウソウシ","town":"笹塚新田町","town_kana":"ササツカシンデンチョウ","prefecture_code":8},"2735":{"zip_code":"3002735","prefecture":"茨城県","prefecture_kana":"イバラキケン","city":"常総市","city_kana":"ジョウソウシ","town":"左平太新田","town_kana":"サヘイタシンデン","prefecture_code":8},"2721":{"zip_code":"3002721","prefecture":"茨城県","prefecture_kana":"イバラキケン","city":"常総市","city_kana":"ジョウソウシ","town":"篠山","town_kana":"シノヤマ","prefecture_code":8},"2502":{"zip_code":"3002502","prefecture":"茨城県","prefecture_kana":"イバラキケン","city":"常総市","city_kana":"ジョウソウシ","town":"上蛇町","town_kana":"ジョウジャマチ","prefecture_code":8},"2706":{"zip_code":"3002706","prefecture":"茨城県","prefecture_kana":"イバラキケン","city":"常総市","city_kana":"ジョウソウシ","town":"新石下","town_kana":"シンイシゲ","prefecture_code":8},"2744":{"zip_code":"3002744","prefecture":"茨城県","prefecture_kana":"イバラキケン","city":"常総市","city_kana":"ジョウソウシ","town":"杉山","town_kana":"スギヤマ","prefecture_code":8},"2713":{"zip_code":"3002713","prefecture":"茨城県","prefecture_kana":"イバラキケン","city":"常総市","city_kana":"ジョウソウシ","town":"収納谷","town_kana":"スノウヤ","prefecture_code":8},"2716":{"zip_code":"3002716","prefecture":"茨城県","prefecture_kana":"イバラキケン","city":"常総市","city_kana":"ジョウソウシ","town":"大房","town_kana":"ダイボウ","prefecture_code":8},"2704":{"zip_code":"3002704","prefecture":"茨城県","prefecture_kana":"イバラキケン","city":"常総市","city_kana":"ジョウソウシ","town":"舘方","town_kana":"タテガタ","prefecture_code":8},"2717":{"zip_code":"3002717","prefecture":"茨城県","prefecture_kana":"イバラキケン","city":"常総市","city_kana":"ジョウソウシ","town":"東野原","town_kana":"トウノハラ","prefecture_code":8},"2705":{"zip_code":"3002705","prefecture":"茨城県","prefecture_kana":"イバラキケン","city":"常総市","city_kana":"ジョウソウシ","town":"豊田","town_kana":"トヨダ","prefecture_code":8},"2505":{"zip_code":"3002505","prefecture":"茨城県","prefecture_kana":"イバラキケン","city":"常総市","city_kana":"ジョウソウシ","town":"中妻町","town_kana":"ナカツママチ","prefecture_code":8},"2726":{"zip_code":"3002726","prefecture":"茨城県","prefecture_kana":"イバラキケン","city":"常総市","city_kana":"ジョウソウシ","town":"中沼","town_kana":"ナカヌマ","prefecture_code":8},"2511":{"zip_code":"3002511","prefecture":"茨城県","prefecture_kana":"イバラキケン","city":"常総市","city_kana":"ジョウソウシ","town":"花島町","town_kana":"ハナシママチ","prefecture_code":8},"2513":{"zip_code":"3002513","prefecture":"茨城県","prefecture_kana":"イバラキケン","city":"常総市","city_kana":"ジョウソウシ","town":"羽生町","town_kana":"ハニュウマチ","prefecture_code":8},"2748":{"zip_code":"3002748","prefecture":"茨城県","prefecture_kana":"イバラキケン","city":"常総市","city_kana":"ジョウソウシ","town":"馬場","town_kana":"ババ","prefecture_code":8},"2733":{"zip_code":"3002733","prefecture":"茨城県","prefecture_kana":"イバラキケン","city":"常総市","city_kana":"ジョウソウシ","town":"馬場新田","town_kana":"ババシンデン","prefecture_code":8},"2702":{"zip_code":"3002702","prefecture":"茨城県","prefecture_kana":"イバラキケン","city":"常総市","city_kana":"ジョウソウシ","town":"原宿","town_kana":"ハラジュク","prefecture_code":8},"2501":{"zip_code":"3002501","prefecture":"茨城県","prefecture_kana":"イバラキケン","city":"常総市","city_kana":"ジョウソウシ","town":"福二町","town_kana":"フクジマチ","prefecture_code":8},"2724":{"zip_code":"3002724","prefecture":"茨城県","prefecture_kana":"イバラキケン","city":"常総市","city_kana":"ジョウソウシ","town":"古間木","town_kana":"フルマギ","prefecture_code":8},"2731":{"zip_code":"3002731","prefecture":"茨城県","prefecture_kana":"イバラキケン","city":"常総市","city_kana":"ジョウソウシ","town":"古間木新田","town_kana":"フルマギシンデン","prefecture_code":8},"2725":{"zip_code":"3002725","prefecture":"茨城県","prefecture_kana":"イバラキケン","city":"常総市","city_kana":"ジョウソウシ","town":"古間木沼新田","town_kana":"フルマギヌマシンデン","prefecture_code":8},"2714":{"zip_code":"3002714","prefecture":"茨城県","prefecture_kana":"イバラキケン","city":"常総市","city_kana":"ジョウソウシ","town":"平内","town_kana":"ヘイナイ","prefecture_code":8},"2712":{"zip_code":"3002712","prefecture":"茨城県","prefecture_kana":"イバラキケン","city":"常総市","city_kana":"ジョウソウシ","town":"曲田","town_kana":"マガッタ","prefecture_code":8},"2736":{"zip_code":"3002736","prefecture":"茨城県","prefecture_kana":"イバラキケン","city":"常総市","city_kana":"ジョウソウシ","town":"孫兵ヱ新田","town_kana":"マゴベエシンデン","prefecture_code":8},"2507":{"zip_code":"3002507","prefecture":"茨城県","prefecture_kana":"イバラキケン","city":"常総市","city_kana":"ジョウソウシ","town":"三坂新田町","town_kana":"ミサカシンデンマチ","prefecture_code":8},"2506":{"zip_code":"3002506","prefecture":"茨城県","prefecture_kana":"イバラキケン","city":"常総市","city_kana":"ジョウソウシ","town":"三坂町","town_kana":"ミサカマチ","prefecture_code":8},"2742":{"zip_code":"3002742","prefecture":"茨城県","prefecture_kana":"イバラキケン","city":"常総市","city_kana":"ジョウソウシ","town":"向石下","town_kana":"ムコウイシゲ","prefecture_code":8},"2707":{"zip_code":"3002707","prefecture":"茨城県","prefecture_kana":"イバラキケン","city":"常総市","city_kana":"ジョウソウシ","town":"本石下","town_kana":"モトイシゲ","prefecture_code":8},"2711":{"zip_code":"3002711","prefecture":"茨城県","prefecture_kana":"イバラキケン","city":"常総市","city_kana":"ジョウソウシ","town":"本豊田","town_kana":"モトトヨダ","prefecture_code":8},"2715":{"zip_code":"3002715","prefecture":"茨城県","prefecture_kana":"イバラキケン","city":"常総市","city_kana":"ジョウソウシ","town":"山口","town_kana":"ヤマグチ","prefecture_code":8},"2522":{"zip_code":"3002522","prefecture":"茨城県","prefecture_kana":"イバラキケン","city":"常総市","city_kana":"ジョウソウシ","town":"横曽根新田町","town_kana":"ヨコゾネシンデンマチ","prefecture_code":8},"2701":{"zip_code":"3002701","prefecture":"茨城県","prefecture_kana":"イバラキケン","city":"常総市","city_kana":"ジョウソウシ","town":"若宮戸","town_kana":"ワカミヤド","prefecture_code":8},"1523":{"zip_code":"3001523","prefecture":"茨城県","prefecture_kana":"イバラキケン","city":"取手市","city_kana":"トリデシ","town":"大留","town_kana":"オオドメ","prefecture_code":8},"1503":{"zip_code":"3001503","prefecture":"茨城県","prefecture_kana":"イバラキケン","city":"取手市","city_kana":"トリデシ","town":"大曲","town_kana":"オオマガリ","prefecture_code":8},"1546":{"zip_code":"3001546","prefecture":"茨城県","prefecture_kana":"イバラキケン","city":"取手市","city_kana":"トリデシ","town":"岡","town_kana":"オカ","prefecture_code":8},"1521":{"zip_code":"3001521","prefecture":"茨城県","prefecture_kana":"イバラキケン","city":"取手市","city_kana":"トリデシ","town":"押切","town_kana":"オシキリ","prefecture_code":8},"1542":{"zip_code":"3001542","prefecture":"茨城県","prefecture_kana":"イバラキケン","city":"取手市","city_kana":"トリデシ","town":"神住","town_kana":"カスミ","prefecture_code":8},"1513":{"zip_code":"3001513","prefecture":"茨城県","prefecture_kana":"イバラキケン","city":"取手市","city_kana":"トリデシ","town":"片町","town_kana":"カタマチ","prefecture_code":8},"1506":{"zip_code":"3001506","prefecture":"茨城県","prefecture_kana":"イバラキケン","city":"取手市","city_kana":"トリデシ","town":"上萱場","town_kana":"カミカヤバ","prefecture_code":8},"1504":{"zip_code":"3001504","prefecture":"茨城県","prefecture_kana":"イバラキケン","city":"取手市","city_kana":"トリデシ","town":"萱場","town_kana":"カヤバ","prefecture_code":8},"1524":{"zip_code":"3001524","prefecture":"茨城県","prefecture_kana":"イバラキケン","city":"取手市","city_kana":"トリデシ","town":"神浦","town_kana":"カンノウラ","prefecture_code":8},"1511":{"zip_code":"3001511","prefecture":"茨城県","prefecture_kana":"イバラキケン","city":"取手市","city_kana":"トリデシ","town":"椚木","town_kana":"クヌギ","prefecture_code":8},"1537":{"zip_code":"3001537","prefecture":"茨城県","prefecture_kana":"イバラキケン","city":"取手市","city_kana":"トリデシ","town":"毛有","town_kana":"ケアリ","prefecture_code":8},"1539":{"zip_code":"3001539","prefecture":"茨城県","prefecture_kana":"イバラキケン","city":"取手市","city_kana":"トリデシ","town":"小泉","town_kana":"コイズミ","prefecture_code":8},"1536":{"zip_code":"3001536","prefecture":"茨城県","prefecture_kana":"イバラキケン","city":"取手市","city_kana":"トリデシ","town":"光風台","town_kana":"コウフウダイ","prefecture_code":8},"1531":{"zip_code":"3001531","prefecture":"茨城県","prefecture_kana":"イバラキケン","city":"取手市","city_kana":"トリデシ","town":"小浮気","town_kana":"コブケ","prefecture_code":8},"1525":{"zip_code":"3001525","prefecture":"茨城県","prefecture_kana":"イバラキケン","city":"取手市","city_kana":"トリデシ","town":"桜が丘","town_kana":"サクラガオカ","prefecture_code":8},"1544":{"zip_code":"3001544","prefecture":"茨城県","prefecture_kana":"イバラキケン","city":"取手市","city_kana":"トリデシ","town":"山王","town_kana":"サンノウ","prefecture_code":8},"1508":{"zip_code":"3001508","prefecture":"茨城県","prefecture_kana":"イバラキケン","city":"取手市","city_kana":"トリデシ","town":"紫水","town_kana":"シスイ","prefecture_code":8},"1534":{"zip_code":"3001534","prefecture":"茨城県","prefecture_kana":"イバラキケン","city":"取手市","city_kana":"トリデシ","town":"渋沼","town_kana":"シブヌマ","prefecture_code":8},"1535":{"zip_code":"3001535","prefecture":"茨城県","prefecture_kana":"イバラキケン","city":"取手市","city_kana":"トリデシ","town":"清水","town_kana":"シミズ","prefecture_code":8},"1505":{"zip_code":"3001505","prefecture":"茨城県","prefecture_kana":"イバラキケン","city":"取手市","city_kana":"トリデシ","town":"下萱場","town_kana":"シモカヤバ","prefecture_code":8},"1502":{"zip_code":"3001502","prefecture":"茨城県","prefecture_kana":"イバラキケン","city":"取手市","city_kana":"トリデシ","town":"新川","town_kana":"シンカワ","prefecture_code":8},"1522":{"zip_code":"3001522","prefecture":"茨城県","prefecture_kana":"イバラキケン","city":"取手市","city_kana":"トリデシ","town":"高須","town_kana":"タカス","prefecture_code":8},"1543":{"zip_code":"3001543","prefecture":"茨城県","prefecture_kana":"イバラキケン","city":"取手市","city_kana":"トリデシ","town":"中内","town_kana":"ナカウチ","prefecture_code":8},"1533":{"zip_code":"3001533","prefecture":"茨城県","prefecture_kana":"イバラキケン","city":"取手市","city_kana":"トリデシ","town":"中田","town_kana":"ナカタ","prefecture_code":8},"1541":{"zip_code":"3001541","prefecture":"茨城県","prefecture_kana":"イバラキケン","city":"取手市","city_kana":"トリデシ","town":"配松","town_kana":"ハイマツ","prefecture_code":8},"1507":{"zip_code":"3001507","prefecture":"茨城県","prefecture_kana":"イバラキケン","city":"取手市","city_kana":"トリデシ","town":"浜田","town_kana":"ハマダ","prefecture_code":8},"1515":{"zip_code":"3001515","prefecture":"茨城県","prefecture_kana":"イバラキケン","city":"取手市","city_kana":"トリデシ","town":"平野","town_kana":"ヒラノ","prefecture_code":8},"1512":{"zip_code":"3001512","prefecture":"茨城県","prefecture_kana":"イバラキケン","city":"取手市","city_kana":"トリデシ","town":"藤代","town_kana":"フジシロ","prefecture_code":8},"1516":{"zip_code":"3001516","prefecture":"茨城県","prefecture_kana":"イバラキケン","city":"取手市","city_kana":"トリデシ","town":"藤代南","town_kana":"フジシロミナミ","prefecture_code":8},"1501":{"zip_code":"3001501","prefecture":"茨城県","prefecture_kana":"イバラキケン","city":"取手市","city_kana":"トリデシ","town":"双葉","town_kana":"フタバ","prefecture_code":8},"1514":{"zip_code":"3001514","prefecture":"茨城県","prefecture_kana":"イバラキケン","city":"取手市","city_kana":"トリデシ","town":"宮和田","town_kana":"ミヤワダ","prefecture_code":8},"1532":{"zip_code":"3001532","prefecture":"茨城県","prefecture_kana":"イバラキケン","city":"取手市","city_kana":"トリデシ","town":"谷中","town_kana":"ヤナカ","prefecture_code":8},"1538":{"zip_code":"3001538","prefecture":"茨城県","prefecture_kana":"イバラキケン","city":"取手市","city_kana":"トリデシ","town":"米田","town_kana":"ヨネダ","prefecture_code":8},"1545":{"zip_code":"3001545","prefecture":"茨城県","prefecture_kana":"イバラキケン","city":"取手市","city_kana":"トリデシ","town":"和田","town_kana":"ワダ","prefecture_code":8},"1200":{"zip_code":"3001200","prefecture":"茨城県","prefecture_kana":"イバラキケン","city":"牛久市","city_kana":"ウシクシ","town":"以下に掲載がない場合","town_kana":"イカニケイサイガナイバアイ","prefecture_code":8},"1282":{"zip_code":"3001282","prefecture":"茨城県","prefecture_kana":"イバラキケン","city":"牛久市","city_kana":"ウシクシ","town":"井ノ岡町","town_kana":"イノオカチョウ","prefecture_code":8},"1221":{"zip_code":"3001221","prefecture":"茨城県","prefecture_kana":"イバラキケン","city":"牛久市","city_kana":"ウシクシ","town":"牛久町","town_kana":"ウシクチョウ","prefecture_code":8},"1204":{"zip_code":"3001204","prefecture":"茨城県","prefecture_kana":"イバラキケン","city":"牛久市","city_kana":"ウシクシ","town":"岡見町","town_kana":"オカミチョウ","prefecture_code":8},"1283":{"zip_code":"3001283","prefecture":"茨城県","prefecture_kana":"イバラキケン","city":"牛久市","city_kana":"ウシクシ","town":"奥原町","town_kana":"オクバラチョウ","prefecture_code":8},"1286":{"zip_code":"3001286","prefecture":"茨城県","prefecture_kana":"イバラキケン","city":"牛久市","city_kana":"ウシクシ","town":"小坂町","town_kana":"オサカチョウ","prefecture_code":8},"1214":{"zip_code":"3001214","prefecture":"茨城県","prefecture_kana":"イバラキケン","city":"牛久市","city_kana":"ウシクシ","town":"女化町","town_kana":"オナバケチョウ","prefecture_code":8},"1211":{"zip_code":"3001211","prefecture":"茨城県","prefecture_kana":"イバラキケン","city":"牛久市","city_kana":"ウシクシ","town":"柏田町","town_kana":"カシワダチョウ","prefecture_code":8},"1281":{"zip_code":"3001281","prefecture":"茨城県","prefecture_kana":"イバラキケン","city":"牛久市","city_kana":"ウシクシ","town":"桂町","town_kana":"カツラチョウ","prefecture_code":8},"1213":{"zip_code":"3001213","prefecture":"茨城県","prefecture_kana":"イバラキケン","city":"牛久市","city_kana":"ウシクシ","town":"上太田町","town_kana":"カミオオタチョウ","prefecture_code":8},"1232":{"zip_code":"3001232","prefecture":"茨城県","prefecture_kana":"イバラキケン","city":"牛久市","city_kana":"ウシクシ","town":"上柏田","town_kana":"カミカシワダ","prefecture_code":8},"1216":{"zip_code":"3001216","prefecture":"茨城県","prefecture_kana":"イバラキケン","city":"牛久市","city_kana":"ウシクシ","town":"神谷","town_kana":"カミヤ","prefecture_code":8},"1235":{"zip_code":"3001235","prefecture":"茨城県","prefecture_kana":"イバラキケン","city":"牛久市","city_kana":"ウシクシ","town":"刈谷町","town_kana":"カリヤチョウ","prefecture_code":8},"1288":{"zip_code":"3001288","prefecture":"茨城県","prefecture_kana":"イバラキケン","city":"牛久市","city_kana":"ウシクシ","town":"久野町","town_kana":"クノチョウ","prefecture_code":8},"1212":{"zip_code":"3001212","prefecture":"茨城県","prefecture_kana":"イバラキケン","city":"牛久市","city_kana":"ウシクシ","town":"結束町","town_kana":"ケッソクチョウ","prefecture_code":8},"1233":{"zip_code":"3001233","prefecture":"茨城県","prefecture_kana":"イバラキケン","city":"牛久市","city_kana":"ウシクシ","town":"栄町","town_kana":"サカエチョウ","prefecture_code":8},"1217":{"zip_code":"3001217","prefecture":"茨城県","prefecture_kana":"イバラキケン","city":"牛久市","city_kana":"ウシクシ","town":"さくら台","town_kana":"サクラダイ","prefecture_code":8},"1231":{"zip_code":"3001231","prefecture":"茨城県","prefecture_kana":"イバラキケン","city":"牛久市","city_kana":"ウシクシ","town":"猪子町","town_kana":"シシコチョウ","prefecture_code":8},"1284":{"zip_code":"3001284","prefecture":"茨城県","prefecture_kana":"イバラキケン","city":"牛久市","city_kana":"ウシクシ","town":"島田町","town_kana":"シマダチョウ","prefecture_code":8},"1203":{"zip_code":"3001203","prefecture":"茨城県","prefecture_kana":"イバラキケン","city":"牛久市","city_kana":"ウシクシ","town":"下根町","town_kana":"シモネチョウ","prefecture_code":8},"1285":{"zip_code":"3001285","prefecture":"茨城県","prefecture_kana":"イバラキケン","city":"牛久市","city_kana":"ウシクシ","town":"正直町","town_kana":"ショウジキチョウ","prefecture_code":8},"1223":{"zip_code":"3001223","prefecture":"茨城県","prefecture_kana":"イバラキケン","city":"牛久市","city_kana":"ウシクシ","town":"城中町","town_kana":"ジョウチュウチョウ","prefecture_code":8},"1224":{"zip_code":"3001224","prefecture":"茨城県","prefecture_kana":"イバラキケン","city":"牛久市","city_kana":"ウシクシ","town":"庄兵衛新田町","town_kana":"ショウベエシンデンチョウ","prefecture_code":8},"1225":{"zip_code":"3001225","prefecture":"茨城県","prefecture_kana":"イバラキケン","city":"牛久市","city_kana":"ウシクシ","town":"新地町","town_kana":"シンチチョウ","prefecture_code":8},"1237":{"zip_code":"3001237","prefecture":"茨城県","prefecture_kana":"イバラキケン","city":"牛久市","city_kana":"ウシクシ","town":"田宮","town_kana":"タグウ","prefecture_code":8},"1236":{"zip_code":"3001236","prefecture":"茨城県","prefecture_kana":"イバラキケン","city":"牛久市","city_kana":"ウシクシ","town":"田宮町","town_kana":"タグウチョウ","prefecture_code":8},"1234":{"zip_code":"3001234","prefecture":"茨城県","prefecture_kana":"イバラキケン","city":"牛久市","city_kana":"ウシクシ","town":"中央","town_kana":"チュウオウ","prefecture_code":8},"1215":{"zip_code":"3001215","prefecture":"茨城県","prefecture_kana":"イバラキケン","city":"牛久市","city_kana":"ウシクシ","town":"遠山町","town_kana":"トオヤマチョウ","prefecture_code":8},"1202":{"zip_code":"3001202","prefecture":"茨城県","prefecture_kana":"イバラキケン","city":"牛久市","city_kana":"ウシクシ","town":"中根町","town_kana":"ナカネチョウ","prefecture_code":8},"1205":{"zip_code":"3001205","prefecture":"茨城県","prefecture_kana":"イバラキケン","city":"牛久市","city_kana":"ウシクシ","town":"東大和田町","town_kana":"ヒガシオオワダチョウ","prefecture_code":8},"1201":{"zip_code":"3001201","prefecture":"茨城県","prefecture_kana":"イバラキケン","city":"牛久市","city_kana":"ウシクシ","town":"東猯穴町","town_kana":"ヒガシマミアナチョウ","prefecture_code":8},"1206":{"zip_code":"3001206","prefecture":"茨城県","prefecture_kana":"イバラキケン","city":"牛久市","city_kana":"ウシクシ","town":"ひたち野西","town_kana":"ヒタチノニシ","prefecture_code":8},"1207":{"zip_code":"3001207","prefecture":"茨城県","prefecture_kana":"イバラキケン","city":"牛久市","city_kana":"ウシクシ","town":"ひたち野東","town_kana":"ヒタチノヒガシ","prefecture_code":8},"1287":{"zip_code":"3001287","prefecture":"茨城県","prefecture_kana":"イバラキケン","city":"牛久市","city_kana":"ウシクシ","town":"福田町","town_kana":"フクダチョウ","prefecture_code":8},"1222":{"zip_code":"3001222","prefecture":"茨城県","prefecture_kana":"イバラキケン","city":"牛久市","city_kana":"ウシクシ","town":"南","town_kana":"ミナミ","prefecture_code":8},"4203":{"zip_code":"3004203","prefecture":"茨城県","prefecture_kana":"イバラキケン","city":"つくば市","city_kana":"ツクバシ","town":"明石","town_kana":"アケシ","prefecture_code":8},"2632":{"zip_code":"3002632","prefecture":"茨城県","prefecture_kana":"イバラキケン","city":"つくば市","city_kana":"ツクバシ","town":"旭（その他）","town_kana":"アサヒ(ソノタ)","prefecture_code":8},"4205":{"zip_code":"3004205","prefecture":"茨城県","prefecture_kana":"イバラキケン","city":"つくば市","city_kana":"ツクバシ","town":"安食","town_kana":"アジキ","prefecture_code":8},"1261":{"zip_code":"3001261","prefecture":"茨城県","prefecture_kana":"イバラキケン","city":"つくば市","city_kana":"ツクバシ","town":"あしび野","town_kana":"アシビノ","prefecture_code":8},"1253":{"zip_code":"3001253","prefecture":"茨城県","prefecture_kana":"イバラキケン","city":"つくば市","city_kana":"ツクバシ","town":"天宝喜","town_kana":"アマボウキ","prefecture_code":8},"4243":{"zip_code":"3004243","prefecture":"茨城県","prefecture_kana":"イバラキケン","city":"つくば市","city_kana":"ツクバシ","town":"池田","town_kana":"イケダ","prefecture_code":8},"1240":{"zip_code":"3001240","prefecture":"茨城県","prefecture_kana":"イバラキケン","city":"つくば市","city_kana":"ツクバシ","town":"池の台（その他）","town_kana":"イケノダイ(ソノタ)","prefecture_code":8},"1269":{"zip_code":"3001269","prefecture":"茨城県","prefecture_kana":"イバラキケン","city":"つくば市","city_kana":"ツクバシ","town":"池向","town_kana":"イケムカイ","prefecture_code":8},"4235":{"zip_code":"3004235","prefecture":"茨城県","prefecture_kana":"イバラキケン","city":"つくば市","city_kana":"ツクバシ","town":"泉","town_kana":"イズミ","prefecture_code":8},"4248":{"zip_code":"3004248","prefecture":"茨城県","prefecture_kana":"イバラキケン","city":"つくば市","city_kana":"ツクバシ","town":"磯部","town_kana":"イソベ","prefecture_code":8},"1259":{"zip_code":"3001259","prefecture":"茨城県","prefecture_kana":"イバラキケン","city":"つくば市","city_kana":"ツクバシ","town":"稲荷原","town_kana":"イナリハラ","prefecture_code":8},"2641":{"zip_code":"3002641","prefecture":"茨城県","prefecture_kana":"イバラキケン","city":"つくば市","city_kana":"ツクバシ","town":"今鹿島","town_kana":"イマカシマ","prefecture_code":8},"4211":{"zip_code":"3004211","prefecture":"茨城県","prefecture_kana":"イバラキケン","city":"つくば市","city_kana":"ツクバシ","town":"臼井","town_kana":"ウスイ","prefecture_code":8},"1275":{"zip_code":"3001275","prefecture":"茨城県","prefecture_kana":"イバラキケン","city":"つくば市","city_kana":"ツクバシ","town":"梅ケ丘","town_kana":"ウメガオカ","prefecture_code":8},"4216":{"zip_code":"3004216","prefecture":"茨城県","prefecture_kana":"イバラキケン","city":"つくば市","city_kana":"ツクバシ","town":"漆所","town_kana":"ウルシジョ","prefecture_code":8},"1243":{"zip_code":"3001243","prefecture":"茨城県","prefecture_kana":"イバラキケン","city":"つくば市","city_kana":"ツクバシ","town":"大井","town_kana":"オオイ","prefecture_code":8},"4221":{"zip_code":"3004221","prefecture":"茨城県","prefecture_kana":"イバラキケン","city":"つくば市","city_kana":"ツクバシ","town":"大形","town_kana":"オオガタ","prefecture_code":8},"2611":{"zip_code":"3002611","prefecture":"茨城県","prefecture_kana":"イバラキケン","city":"つくば市","city_kana":"ツクバシ","town":"大久保","town_kana":"オオクボ","prefecture_code":8},"2612":{"zip_code":"3002612","prefecture":"茨城県","prefecture_kana":"イバラキケン","city":"つくば市","city_kana":"ツクバシ","town":"大砂","town_kana":"オオスナ","prefecture_code":8},"3253":{"zip_code":"3003253","prefecture":"茨城県","prefecture_kana":"イバラキケン","city":"つくば市","city_kana":"ツクバシ","town":"大曽根","town_kana":"オオゾネ","prefecture_code":8},"4218":{"zip_code":"3004218","prefecture":"茨城県","prefecture_kana":"イバラキケン","city":"つくば市","city_kana":"ツクバシ","town":"大貫","town_kana":"オオヌキ","prefecture_code":8},"1267":{"zip_code":"3001267","prefecture":"茨城県","prefecture_kana":"イバラキケン","city":"つくば市","city_kana":"ツクバシ","town":"大舟戸","town_kana":"オオフナト","prefecture_code":8},"3256":{"zip_code":"3003256","prefecture":"茨城県","prefecture_kana":"イバラキケン","city":"つくば市","city_kana":"ツクバシ","town":"大穂（その他）","town_kana":"オオホ(ソノタ)","prefecture_code":8},"1255":{"zip_code":"3001255","prefecture":"茨城県","prefecture_kana":"イバラキケン","city":"つくば市","city_kana":"ツクバシ","town":"小茎","town_kana":"オグキ","prefecture_code":8},"3265":{"zip_code":"3003265","prefecture":"茨城県","prefecture_kana":"イバラキケン","city":"つくば市","city_kana":"ツクバシ","town":"長高野","town_kana":"オサゴウヤ","prefecture_code":8},"4215":{"zip_code":"3004215","prefecture":"茨城県","prefecture_kana":"イバラキケン","city":"つくば市","city_kana":"ツクバシ","town":"小沢","town_kana":"オザワ","prefecture_code":8},"4223":{"zip_code":"3004223","prefecture":"茨城県","prefecture_kana":"イバラキケン","city":"つくば市","city_kana":"ツクバシ","town":"小田","town_kana":"オダ","prefecture_code":8},"2651":{"zip_code":"3002651","prefecture":"茨城県","prefecture_kana":"イバラキケン","city":"つくば市","city_kana":"ツクバシ","town":"鬼ケ窪","town_kana":"オニガクボ","prefecture_code":8},"2653":{"zip_code":"3002653","prefecture":"茨城県","prefecture_kana":"イバラキケン","city":"つくば市","city_kana":"ツクバシ","town":"面野井","town_kana":"オモノイ","prefecture_code":8},"3254":{"zip_code":"3003254","prefecture":"茨城県","prefecture_kana":"イバラキケン","city":"つくば市","city_kana":"ツクバシ","town":"鹿島台","town_kana":"カシマダイ","prefecture_code":8},"2657":{"zip_code":"3002657","prefecture":"茨城県","prefecture_kana":"イバラキケン","city":"つくば市","city_kana":"ツクバシ","town":"香取台","town_kana":"カトリダイ","prefecture_code":8},"2622":{"zip_code":"3002622","prefecture":"茨城県","prefecture_kana":"イバラキケン","city":"つくば市","city_kana":"ツクバシ","town":"要","town_kana":"カナメ","prefecture_code":8},"1274":{"zip_code":"3001274","prefecture":"茨城県","prefecture_kana":"イバラキケン","city":"つくば市","city_kana":"ツクバシ","town":"上岩崎","town_kana":"カミイワサキ","prefecture_code":8},"4351":{"zip_code":"3004351","prefecture":"茨城県","prefecture_kana":"イバラキケン","city":"つくば市","city_kana":"ツクバシ","town":"上大島","town_kana":"カミオオシマ","prefecture_code":8},"2668":{"zip_code":"3002668","prefecture":"茨城県","prefecture_kana":"イバラキケン","city":"つくば市","city_kana":"ツクバシ","town":"かみかわ","town_kana":"カミカワ","prefecture_code":8},"2661":{"zip_code":"3002661","prefecture":"茨城県","prefecture_kana":"イバラキケン","city":"つくば市","city_kana":"ツクバシ","town":"上河原崎","town_kana":"カミカワラザキ","prefecture_code":8},"2645":{"zip_code":"3002645","prefecture":"茨城県","prefecture_kana":"イバラキケン","city":"つくば市","city_kana":"ツクバシ","town":"上郷","town_kana":"カミゴウ","prefecture_code":8},"2614":{"zip_code":"3002614","prefecture":"茨城県","prefecture_kana":"イバラキケン","city":"つくば市","city_kana":"ツクバシ","town":"上里","town_kana":"カミサト","prefecture_code":8},"4246":{"zip_code":"3004246","prefecture":"茨城県","prefecture_kana":"イバラキケン","city":"つくば市","city_kana":"ツクバシ","town":"上沢","town_kana":"カミサワ","prefecture_code":8},"4241":{"zip_code":"3004241","prefecture":"茨城県","prefecture_kana":"イバラキケン","city":"つくば市","city_kana":"ツクバシ","town":"上菅間","town_kana":"カミスガマ","prefecture_code":8},"4212":{"zip_code":"3004212","prefecture":"茨城県","prefecture_kana":"イバラキケン","city":"つくば市","city_kana":"ツクバシ","town":"神郡","town_kana":"カンゴオリ","prefecture_code":8},"4232":{"zip_code":"3004232","prefecture":"茨城県","prefecture_kana":"イバラキケン","city":"つくば市","city_kana":"ツクバシ","town":"北太田","town_kana":"キタオオタ","prefecture_code":8},"3266":{"zip_code":"3003266","prefecture":"茨城県","prefecture_kana":"イバラキケン","city":"つくば市","city_kana":"ツクバシ","town":"北原","town_kana":"キタハラ","prefecture_code":8},"4233":{"zip_code":"3004233","prefecture":"茨城県","prefecture_kana":"イバラキケン","city":"つくば市","city_kana":"ツクバシ","town":"君島","town_kana":"キミジマ","prefecture_code":8},"1272":{"zip_code":"3001272","prefecture":"茨城県","prefecture_kana":"イバラキケン","city":"つくば市","city_kana":"ツクバシ","town":"茎崎","town_kana":"クキザキ","prefecture_code":8},"4354":{"zip_code":"3004354","prefecture":"茨城県","prefecture_kana":"イバラキケン","city":"つくば市","city_kana":"ツクバシ","town":"国松","town_kana":"クニマツ","prefecture_code":8},"1262":{"zip_code":"3001262","prefecture":"茨城県","prefecture_kana":"イバラキケン","city":"つくば市","city_kana":"ツクバシ","town":"九万坪","town_kana":"クマンツボ","prefecture_code":8},"4236":{"zip_code":"3004236","prefecture":"茨城県","prefecture_kana":"イバラキケン","city":"つくば市","city_kana":"ツクバシ","town":"小泉","town_kana":"コイズミ","prefecture_code":8},"2642":{"zip_code":"3002642","prefecture":"茨城県","prefecture_kana":"イバラキケン","city":"つくば市","city_kana":"ツクバシ","town":"高野","town_kana":"コウヤ","prefecture_code":8},"4202":{"zip_code":"3004202","prefecture":"茨城県","prefecture_kana":"イバラキケン","city":"つくば市","city_kana":"ツクバシ","town":"高野原新田","town_kana":"コウヤハラシンデン","prefecture_code":8},"2616":{"zip_code":"3002616","prefecture":"茨城県","prefecture_kana":"イバラキケン","city":"つくば市","city_kana":"ツクバシ","town":"五人受","town_kana":"ゴニンウケ","prefecture_code":8},"2644":{"zip_code":"3002644","prefecture":"茨城県","prefecture_kana":"イバラキケン","city":"つくば市","city_kana":"ツクバシ","town":"木俣","town_kana":"コノマタ","prefecture_code":8},"1277":{"zip_code":"3001277","prefecture":"茨城県","prefecture_kana":"イバラキケン","city":"つくば市","city_kana":"ツクバシ","town":"駒込","town_kana":"コマゴメ","prefecture_code":8},"1276":{"zip_code":"3001276","prefecture":"茨城県","prefecture_kana":"イバラキケン","city":"つくば市","city_kana":"ツクバシ","town":"小山","town_kana":"コヤマ","prefecture_code":8},"4224":{"zip_code":"3004224","prefecture":"茨城県","prefecture_kana":"イバラキケン","city":"つくば市","city_kana":"ツクバシ","town":"小和田","town_kana":"コワダ","prefecture_code":8},"3251":{"zip_code":"3003251","prefecture":"茨城県","prefecture_kana":"イバラキケン","city":"つくば市","city_kana":"ツクバシ","town":"佐","town_kana":"サ","prefecture_code":8},"1271":{"zip_code":"3001271","prefecture":"茨城県","prefecture_kana":"イバラキケン","city":"つくば市","city_kana":"ツクバシ","town":"桜が丘","town_kana":"サクラガオカ","prefecture_code":8},"2637":{"zip_code":"3002637","prefecture":"茨城県","prefecture_kana":"イバラキケン","city":"つくば市","city_kana":"ツクバシ","town":"酒丸","town_kana":"サケマル","prefecture_code":8},"3264":{"zip_code":"3003264","prefecture":"茨城県","prefecture_kana":"イバラキケン","city":"つくば市","city_kana":"ツクバシ","town":"篠崎","town_kana":"シノザキ","prefecture_code":8},"2655":{"zip_code":"3002655","prefecture":"茨城県","prefecture_kana":"イバラキケン","city":"つくば市","city_kana":"ツクバシ","town":"島名","town_kana":"シマナ","prefecture_code":8},"1273":{"zip_code":"3001273","prefecture":"茨城県","prefecture_kana":"イバラキケン","city":"つくば市","city_kana":"ツクバシ","town":"下岩崎","town_kana":"シモイワサキ","prefecture_code":8},"4222":{"zip_code":"3004222","prefecture":"茨城県","prefecture_kana":"イバラキケン","city":"つくば市","city_kana":"ツクバシ","town":"下大島","town_kana":"シモオオシマ","prefecture_code":8},"2662":{"zip_code":"3002662","prefecture":"茨城県","prefecture_kana":"イバラキケン","city":"つくば市","city_kana":"ツクバシ","town":"下河原崎","town_kana":"シモカワラザキ","prefecture_code":8},"2666":{"zip_code":"3002666","prefecture":"茨城県","prefecture_kana":"イバラキケン","city":"つくば市","city_kana":"ツクバシ","town":"下別府","town_kana":"シモベップ","prefecture_code":8},"1266":{"zip_code":"3001266","prefecture":"茨城県","prefecture_kana":"イバラキケン","city":"つくば市","city_kana":"ツクバシ","town":"自由ケ丘","town_kana":"ジユウガオカ","prefecture_code":8},"1251":{"zip_code":"3001251","prefecture":"茨城県","prefecture_kana":"イバラキケン","city":"つくば市","city_kana":"ツクバシ","town":"城山","town_kana":"シロヤマ","prefecture_code":8},"1246":{"zip_code":"3001246","prefecture":"茨城県","prefecture_kana":"イバラキケン","city":"つくば市","city_kana":"ツクバシ","town":"菅間","town_kana":"スガマ","prefecture_code":8},"4217":{"zip_code":"3004217","prefecture":"茨城県","prefecture_kana":"イバラキケン","city":"つくば市","city_kana":"ツクバシ","town":"杉木","town_kana":"スギノキ","prefecture_code":8},"2658":{"zip_code":"3002658","prefecture":"茨城県","prefecture_kana":"イバラキケン","city":"つくば市","city_kana":"ツクバシ","town":"諏訪","town_kana":"スワ","prefecture_code":8},"1245":{"zip_code":"3001245","prefecture":"茨城県","prefecture_kana":"イバラキケン","city":"つくば市","city_kana":"ツクバシ","town":"高崎","town_kana":"タカサキ","prefecture_code":8},"2665":{"zip_code":"3002665","prefecture":"茨城県","prefecture_kana":"イバラキケン","city":"つくば市","city_kana":"ツクバシ","town":"高須賀","town_kana":"タカスカ","prefecture_code":8},"2652":{"zip_code":"3002652","prefecture":"茨城県","prefecture_kana":"イバラキケン","city":"つくば市","city_kana":"ツクバシ","town":"高田","town_kana":"タカタ","prefecture_code":8},"1252":{"zip_code":"3001252","prefecture":"茨城県","prefecture_kana":"イバラキケン","city":"つくば市","city_kana":"ツクバシ","town":"高見原","town_kana":"タカミハラ","prefecture_code":8},"2669":{"zip_code":"3002669","prefecture":"茨城県","prefecture_kana":"イバラキケン","city":"つくば市","city_kana":"ツクバシ","town":"高山","town_kana":"タカヤマ","prefecture_code":8},"2664":{"zip_code":"3002664","prefecture":"茨城県","prefecture_kana":"イバラキケン","city":"つくば市","city_kana":"ツクバシ","town":"高良田","town_kana":"タカラダ","prefecture_code":8},"2615":{"zip_code":"3002615","prefecture":"茨城県","prefecture_kana":"イバラキケン","city":"つくば市","city_kana":"ツクバシ","town":"田倉","town_kana":"タクラ","prefecture_code":8},"3263":{"zip_code":"3003263","prefecture":"茨城県","prefecture_kana":"イバラキケン","city":"つくば市","city_kana":"ツクバシ","town":"立原（その他）","town_kana":"タチハラ(ソノタ)","prefecture_code":8},"4244":{"zip_code":"3004244","prefecture":"茨城県","prefecture_kana":"イバラキケン","city":"つくば市","city_kana":"ツクバシ","town":"田中","town_kana":"タナカ","prefecture_code":8},"3255":{"zip_code":"3003255","prefecture":"茨城県","prefecture_kana":"イバラキケン","city":"つくば市","city_kana":"ツクバシ","town":"玉取","town_kana":"タマトリ","prefecture_code":8},"4251":{"zip_code":"3004251","prefecture":"茨城県","prefecture_kana":"イバラキケン","city":"つくば市","city_kana":"ツクバシ","town":"田水山","town_kana":"タミヤマ","prefecture_code":8},"4352":{"zip_code":"3004352","prefecture":"茨城県","prefecture_kana":"イバラキケン","city":"つくば市","city_kana":"ツクバシ","town":"筑波","town_kana":"ツクバ","prefecture_code":8},"3257":{"zip_code":"3003257","prefecture":"茨城県","prefecture_kana":"イバラキケン","city":"つくば市","city_kana":"ツクバシ","town":"筑穂","town_kana":"ツクホ","prefecture_code":8},"4204":{"zip_code":"3004204","prefecture":"茨城県","prefecture_kana":"イバラキケン","city":"つくば市","city_kana":"ツクバシ","town":"作谷","town_kana":"ツクリヤ","prefecture_code":8},"2636":{"zip_code":"3002636","prefecture":"茨城県","prefecture_kana":"イバラキケン","city":"つくば市","city_kana":"ツクバシ","town":"土田","town_kana":"ツチダ","prefecture_code":8},"2647":{"zip_code":"3002647","prefecture":"茨城県","prefecture_kana":"イバラキケン","city":"つくば市","city_kana":"ツクバシ","town":"手子生","town_kana":"テゴマル","prefecture_code":8},"4201":{"zip_code":"3004201","prefecture":"茨城県","prefecture_kana":"イバラキケン","city":"つくば市","city_kana":"ツクバシ","town":"寺具","town_kana":"テラグ","prefecture_code":8},"2635":{"zip_code":"3002635","prefecture":"茨城県","prefecture_kana":"イバラキケン","city":"つくば市","city_kana":"ツクバシ","town":"東光台","town_kana":"トウコウダイ","prefecture_code":8},"2633":{"zip_code":"3002633","prefecture":"茨城県","prefecture_kana":"イバラキケン","city":"つくば市","city_kana":"ツクバシ","town":"遠東","town_kana":"トオヒガシ","prefecture_code":8},"2648":{"zip_code":"3002648","prefecture":"茨城県","prefecture_kana":"イバラキケン","city":"つくば市","city_kana":"ツクバシ","town":"豊里の杜","town_kana":"トヨサトノモリ","prefecture_code":8},"4242":{"zip_code":"3004242","prefecture":"茨城県","prefecture_kana":"イバラキケン","city":"つくば市","city_kana":"ツクバシ","town":"中菅間","town_kana":"ナカスガマ","prefecture_code":8},"2634":{"zip_code":"3002634","prefecture":"茨城県","prefecture_kana":"イバラキケン","city":"つくば市","city_kana":"ツクバシ","town":"中東原新田","town_kana":"ナカヒガシハラシンデン","prefecture_code":8},"2667":{"zip_code":"3002667","prefecture":"茨城県","prefecture_kana":"イバラキケン","city":"つくば市","city_kana":"ツクバシ","town":"中別府","town_kana":"ナカベップ","prefecture_code":8},"1268":{"zip_code":"3001268","prefecture":"茨城県","prefecture_kana":"イバラキケン","city":"つくば市","city_kana":"ツクバシ","town":"中山","town_kana":"ナカヤマ","prefecture_code":8},"2663":{"zip_code":"3002663","prefecture":"茨城県","prefecture_kana":"イバラキケン","city":"つくば市","city_kana":"ツクバシ","town":"鍋沼新田","town_kana":"ナベヌマシンデン","prefecture_code":8},"1260":{"zip_code":"3001260","prefecture":"茨城県","prefecture_kana":"イバラキケン","city":"つくば市","city_kana":"ツクバシ","town":"西大井","town_kana":"ニシオオイ","prefecture_code":8},"2613":{"zip_code":"3002613","prefecture":"茨城県","prefecture_kana":"イバラキケン","city":"つくば市","city_kana":"ツクバシ","town":"西高野","town_kana":"ニシゴウヤ","prefecture_code":8},"2624":{"zip_code":"3002624","prefecture":"茨城県","prefecture_kana":"イバラキケン","city":"つくば市","city_kana":"ツクバシ","town":"西沢","town_kana":"ニシザワ","prefecture_code":8},"1247":{"zip_code":"3001247","prefecture":"茨城県","prefecture_kana":"イバラキケン","city":"つくば市","city_kana":"ツクバシ","town":"西の沢（その他）","town_kana":"ニシノサワ(ソノタ)","prefecture_code":8},"2631":{"zip_code":"3002631","prefecture":"茨城県","prefecture_kana":"イバラキケン","city":"つくば市","city_kana":"ツクバシ","town":"沼崎","town_kana":"ヌマザキ","prefecture_code":8},"4353":{"zip_code":"3004353","prefecture":"茨城県","prefecture_kana":"イバラキケン","city":"つくば市","city_kana":"ツクバシ","town":"沼田","town_kana":"ヌマタ","prefecture_code":8},"2643":{"zip_code":"3002643","prefecture":"茨城県","prefecture_kana":"イバラキケン","city":"つくば市","city_kana":"ツクバシ","town":"野畑","town_kana":"ノバタ","prefecture_code":8},"3262":{"zip_code":"3003262","prefecture":"茨城県","prefecture_kana":"イバラキケン","city":"つくば市","city_kana":"ツクバシ","town":"蓮沼","town_kana":"ハスヌマ","prefecture_code":8},"2638":{"zip_code":"3002638","prefecture":"茨城県","prefecture_kana":"イバラキケン","city":"つくば市","city_kana":"ツクバシ","town":"百家","town_kana":"ハッケ","prefecture_code":8},"1264":{"zip_code":"3001264","prefecture":"茨城県","prefecture_kana":"イバラキケン","city":"つくば市","city_kana":"ツクバシ","town":"泊崎","town_kana":"ハッサキ","prefecture_code":8},"3261":{"zip_code":"3003261","prefecture":"茨城県","prefecture_kana":"イバラキケン","city":"つくば市","city_kana":"ツクバシ","town":"花畑（その他）","town_kana":"ハナバタケ(ソノタ)","prefecture_code":8},"2659":{"zip_code":"3002659","prefecture":"茨城県","prefecture_kana":"イバラキケン","city":"つくば市","city_kana":"ツクバシ","town":"万博公園西","town_kana":"バンパクコウエンニシ","prefecture_code":8},"1242":{"zip_code":"3001242","prefecture":"茨城県","prefecture_kana":"イバラキケン","city":"つくば市","city_kana":"ツクバシ","town":"樋の沢","town_kana":"ヒノサワ","prefecture_code":8},"4213":{"zip_code":"3004213","prefecture":"茨城県","prefecture_kana":"イバラキケン","city":"つくば市","city_kana":"ツクバシ","town":"平沢","town_kana":"ヒラサワ","prefecture_code":8},"1263":{"zip_code":"3001263","prefecture":"茨城県","prefecture_kana":"イバラキケン","city":"つくば市","city_kana":"ツクバシ","town":"富士見台","town_kana":"フジミダイ","prefecture_code":8},"4231":{"zip_code":"3004231","prefecture":"茨城県","prefecture_kana":"イバラキケン","city":"つくば市","city_kana":"ツクバシ","town":"北条","town_kana":"ホウジョウ","prefecture_code":8},"1278":{"zip_code":"3001278","prefecture":"茨城県","prefecture_kana":"イバラキケン","city":"つくば市","city_kana":"ツクバシ","town":"房内","town_kana":"ボウチ","prefecture_code":8},"1254":{"zip_code":"3001254","prefecture":"茨城県","prefecture_kana":"イバラキケン","city":"つくば市","city_kana":"ツクバシ","town":"宝陽台","town_kana":"ホウヨウダイ","prefecture_code":8},"1265":{"zip_code":"3001265","prefecture":"茨城県","prefecture_kana":"イバラキケン","city":"つくば市","city_kana":"ツクバシ","town":"細見","town_kana":"ホソミ","prefecture_code":8},"4249":{"zip_code":"3004249","prefecture":"茨城県","prefecture_kana":"イバラキケン","city":"つくば市","city_kana":"ツクバシ","town":"洞下","town_kana":"ホラゲ","prefecture_code":8},"2623":{"zip_code":"3002623","prefecture":"茨城県","prefecture_kana":"イバラキケン","city":"つくば市","city_kana":"ツクバシ","town":"本沢","town_kana":"ホンザワ","prefecture_code":8},"3267":{"zip_code":"3003267","prefecture":"茨城県","prefecture_kana":"イバラキケン","city":"つくば市","city_kana":"ツクバシ","town":"前野","town_kana":"マエノ","prefecture_code":8},"1241":{"zip_code":"3001241","prefecture":"茨城県","prefecture_kana":"イバラキケン","city":"つくば市","city_kana":"ツクバシ","town":"牧園","town_kana":"マキゾノ","prefecture_code":8},"2656":{"zip_code":"3002656","prefecture":"茨城県","prefecture_kana":"イバラキケン","city":"つくば市","city_kana":"ツクバシ","town":"真瀬","town_kana":"マセ","prefecture_code":8},"1244":{"zip_code":"3001244","prefecture":"茨城県","prefecture_kana":"イバラキケン","city":"つくば市","city_kana":"ツクバシ","town":"松の里（その他）","town_kana":"マツノサト(ソノタ)","prefecture_code":8},"2654":{"zip_code":"3002654","prefecture":"茨城県","prefecture_kana":"イバラキケン","city":"つくば市","city_kana":"ツクバシ","town":"水堀","town_kana":"ミズボリ","prefecture_code":8},"2646":{"zip_code":"3002646","prefecture":"茨城県","prefecture_kana":"イバラキケン","city":"つくば市","city_kana":"ツクバシ","town":"緑ケ原","town_kana":"ミドリガハラ","prefecture_code":8},"2621":{"zip_code":"3002621","prefecture":"茨城県","prefecture_kana":"イバラキケン","city":"つくば市","city_kana":"ツクバシ","town":"南原（その他）","town_kana":"ミナミハラ(ソノタ)","prefecture_code":8},"4245":{"zip_code":"3004245","prefecture":"茨城県","prefecture_kana":"イバラキケン","city":"つくば市","city_kana":"ツクバシ","town":"水守","town_kana":"ミモリ","prefecture_code":8},"1257":{"zip_code":"3001257","prefecture":"茨城県","prefecture_kana":"イバラキケン","city":"つくば市","city_kana":"ツクバシ","town":"明神","town_kana":"ミョウジン","prefecture_code":8},"1256":{"zip_code":"3001256","prefecture":"茨城県","prefecture_kana":"イバラキケン","city":"つくば市","city_kana":"ツクバシ","town":"森の里","town_kana":"モリノサト","prefecture_code":8},"4234":{"zip_code":"3004234","prefecture":"茨城県","prefecture_kana":"イバラキケン","city":"つくば市","city_kana":"ツクバシ","town":"山木","town_kana":"ヤマキ","prefecture_code":8},"4214":{"zip_code":"3004214","prefecture":"茨城県","prefecture_kana":"イバラキケン","city":"つくば市","city_kana":"ツクバシ","town":"山口","town_kana":"ヤマグチ","prefecture_code":8},"2617":{"zip_code":"3002617","prefecture":"茨城県","prefecture_kana":"イバラキケン","city":"つくば市","city_kana":"ツクバシ","town":"吉沼","town_kana":"ヨシヌマ","prefecture_code":8},"1258":{"zip_code":"3001258","prefecture":"茨城県","prefecture_kana":"イバラキケン","city":"つくば市","city_kana":"ツクバシ","town":"六斗","town_kana":"ロクト","prefecture_code":8},"1248":{"zip_code":"3001248","prefecture":"茨城県","prefecture_kana":"イバラキケン","city":"つくば市","city_kana":"ツクバシ","town":"若栗","town_kana":"ワカグリ","prefecture_code":8},"1249":{"zip_code":"3001249","prefecture":"茨城県","prefecture_kana":"イバラキケン","city":"つくば市","city_kana":"ツクバシ","town":"若葉","town_kana":"ワカバ","prefecture_code":8},"3252":{"zip_code":"3003252","prefecture":"茨城県","prefecture_kana":"イバラキケン","city":"つくば市","city_kana":"ツクバシ","town":"若森","town_kana":"ワカモリ","prefecture_code":8},"4247":{"zip_code":"3004247","prefecture":"茨城県","prefecture_kana":"イバラキケン","city":"つくば市","city_kana":"ツクバシ","town":"和台","town_kana":"ワダイ","prefecture_code":8},"4523":{"zip_code":"3004523","prefecture":"茨城県","prefecture_kana":"イバラキケン","city":"筑西市","city_kana":"チクセイシ","town":"赤浜","town_kana":"アカハマ","prefecture_code":8},"4516":{"zip_code":"3004516","prefecture":"茨城県","prefecture_kana":"イバラキケン","city":"筑西市","city_kana":"チクセイシ","town":"新井新田","town_kana":"アライシンデン","prefecture_code":8},"4512":{"zip_code":"3004512","prefecture":"茨城県","prefecture_kana":"イバラキケン","city":"筑西市","city_kana":"チクセイシ","town":"有田","town_kana":"アリタ","prefecture_code":8},"4507":{"zip_code":"3004507","prefecture":"茨城県","prefecture_kana":"イバラキケン","city":"筑西市","city_kana":"チクセイシ","town":"内淀","town_kana":"ウチヨド","prefecture_code":8},"4538":{"zip_code":"3004538","prefecture":"茨城県","prefecture_kana":"イバラキケン","city":"筑西市","city_kana":"チクセイシ","town":"海老江","town_kana":"エビエ","prefecture_code":8},"4517":{"zip_code":"3004517","prefecture":"茨城県","prefecture_kana":"イバラキケン","city":"筑西市","city_kana":"チクセイシ","town":"海老ケ島","town_kana":"エビガシマ","prefecture_code":8},"4537":{"zip_code":"3004537","prefecture":"茨城県","prefecture_kana":"イバラキケン","city":"筑西市","city_kana":"チクセイシ","town":"大林","town_kana":"オオバヤシ","prefecture_code":8},"4511":{"zip_code":"3004511","prefecture":"茨城県","prefecture_kana":"イバラキケン","city":"筑西市","city_kana":"チクセイシ","town":"押尾","town_kana":"オシビ","prefecture_code":8},"4502":{"zip_code":"3004502","prefecture":"茨城県","prefecture_kana":"イバラキケン","city":"筑西市","city_kana":"チクセイシ","town":"上西郷谷","town_kana":"カミニシゴヤ","prefecture_code":8},"4515":{"zip_code":"3004515","prefecture":"茨城県","prefecture_kana":"イバラキケン","city":"筑西市","city_kana":"チクセイシ","town":"倉持","town_kana":"クラモチ","prefecture_code":8},"4532":{"zip_code":"3004532","prefecture":"茨城県","prefecture_kana":"イバラキケン","city":"筑西市","city_kana":"チクセイシ","town":"鷺島","town_kana":"サギシマ","prefecture_code":8},"4514":{"zip_code":"3004514","prefecture":"茨城県","prefecture_kana":"イバラキケン","city":"筑西市","city_kana":"チクセイシ","town":"山王堂","town_kana":"サンオウドウ","prefecture_code":8},"4545":{"zip_code":"3004545","prefecture":"茨城県","prefecture_kana":"イバラキケン","city":"筑西市","city_kana":"チクセイシ","town":"下川中子","town_kana":"シモカワナゴ","prefecture_code":8},"4534":{"zip_code":"3004534","prefecture":"茨城県","prefecture_kana":"イバラキケン","city":"筑西市","city_kana":"チクセイシ","town":"高津","town_kana":"タカツ","prefecture_code":8},"4543":{"zip_code":"3004543","prefecture":"茨城県","prefecture_kana":"イバラキケン","city":"筑西市","city_kana":"チクセイシ","town":"竹垣","town_kana":"タケガキ","prefecture_code":8},"4505":{"zip_code":"3004505","prefecture":"茨城県","prefecture_kana":"イバラキケン","city":"筑西市","city_kana":"チクセイシ","town":"田宿","town_kana":"タジュク","prefecture_code":8},"4531":{"zip_code":"3004531","prefecture":"茨城県","prefecture_kana":"イバラキケン","city":"筑西市","city_kana":"チクセイシ","town":"築地","town_kana":"ツイジ","prefecture_code":8},"4525":{"zip_code":"3004525","prefecture":"茨城県","prefecture_kana":"イバラキケン","city":"筑西市","city_kana":"チクセイシ","town":"寺上野","town_kana":"テラウエノ","prefecture_code":8},"4524":{"zip_code":"3004524","prefecture":"茨城県","prefecture_kana":"イバラキケン","city":"筑西市","city_kana":"チクセイシ","town":"中上野","town_kana":"ナカウエノ","prefecture_code":8},"4513":{"zip_code":"3004513","prefecture":"茨城県","prefecture_kana":"イバラキケン","city":"筑西市","city_kana":"チクセイシ","town":"中根","town_kana":"ナカネ","prefecture_code":8},"4506":{"zip_code":"3004506","prefecture":"茨城県","prefecture_kana":"イバラキケン","city":"筑西市","city_kana":"チクセイシ","town":"鍋山","town_kana":"ナベヤマ","prefecture_code":8},"4533":{"zip_code":"3004533","prefecture":"茨城県","prefecture_kana":"イバラキケン","city":"筑西市","city_kana":"チクセイシ","town":"成井","town_kana":"ナルイ","prefecture_code":8},"4501":{"zip_code":"3004501","prefecture":"茨城県","prefecture_kana":"イバラキケン","city":"筑西市","city_kana":"チクセイシ","town":"猫島","town_kana":"ネコシマ","prefecture_code":8},"4521":{"zip_code":"3004521","prefecture":"茨城県","prefecture_kana":"イバラキケン","city":"筑西市","city_kana":"チクセイシ","town":"東石田","town_kana":"ヒガシイシタ","prefecture_code":8},"4536":{"zip_code":"3004536","prefecture":"茨城県","prefecture_kana":"イバラキケン","city":"筑西市","city_kana":"チクセイシ","town":"東保末","town_kana":"ヒガシホズエ","prefecture_code":8},"4544":{"zip_code":"3004544","prefecture":"茨城県","prefecture_kana":"イバラキケン","city":"筑西市","city_kana":"チクセイシ","town":"古内","town_kana":"フルウチ","prefecture_code":8},"4541":{"zip_code":"3004541","prefecture":"茨城県","prefecture_kana":"イバラキケン","city":"筑西市","city_kana":"チクセイシ","town":"松原","town_kana":"マツバラ","prefecture_code":8},"4503":{"zip_code":"3004503","prefecture":"茨城県","prefecture_kana":"イバラキケン","city":"筑西市","city_kana":"チクセイシ","town":"宮後","town_kana":"ミヤゴ","prefecture_code":8},"4504":{"zip_code":"3004504","prefecture":"茨城県","prefecture_kana":"イバラキケン","city":"筑西市","city_kana":"チクセイシ","town":"宮山","town_kana":"ミヤヤマ","prefecture_code":8},"4522":{"zip_code":"3004522","prefecture":"茨城県","prefecture_kana":"イバラキケン","city":"筑西市","city_kana":"チクセイシ","town":"向上野","town_kana":"ムコウウエノ","prefecture_code":8},"4546":{"zip_code":"3004546","prefecture":"茨城県","prefecture_kana":"イバラキケン","city":"筑西市","city_kana":"チクセイシ","town":"村田","town_kana":"ムラタ","prefecture_code":8},"4535":{"zip_code":"3004535","prefecture":"茨城県","prefecture_kana":"イバラキケン","city":"筑西市","city_kana":"チクセイシ","town":"谷原","town_kana":"ヤワラ","prefecture_code":8},"4542":{"zip_code":"3004542","prefecture":"茨城県","prefecture_kana":"イバラキケン","city":"筑西市","city_kana":"チクセイシ","town":"吉田","town_kana":"ヨシダ","prefecture_code":8},"0500":{"zip_code":"3000500","prefecture":"茨城県","prefecture_kana":"イバラキケン","city":"稲敷市","city_kana":"イナシキシ","town":"以下に掲載がない場合","town_kana":"イカニケイサイガナイバアイ","prefecture_code":8},"0621":{"zip_code":"3000621","prefecture":"茨城県","prefecture_kana":"イバラキケン","city":"稲敷市","city_kana":"イナシキシ","town":"阿波","town_kana":"アバ","prefecture_code":8},"0602":{"zip_code":"3000602","prefecture":"茨城県","prefecture_kana":"イバラキケン","city":"稲敷市","city_kana":"イナシキシ","town":"阿波崎","town_kana":"アバサキ","prefecture_code":8},"0626":{"zip_code":"3000626","prefecture":"茨城県","prefecture_kana":"イバラキケン","city":"稲敷市","city_kana":"イナシキシ","town":"甘田","town_kana":"アマダ","prefecture_code":8},"0727":{"zip_code":"3000727","prefecture":"茨城県","prefecture_kana":"イバラキケン","city":"稲敷市","city_kana":"イナシキシ","town":"飯島","town_kana":"イイジマ","prefecture_code":8},"0632":{"zip_code":"3000632","prefecture":"茨城県","prefecture_kana":"イバラキケン","city":"稲敷市","city_kana":"イナシキシ","town":"飯出","town_kana":"イイデ","prefecture_code":8},"1413":{"zip_code":"3001413","prefecture":"茨城県","prefecture_kana":"イバラキケン","city":"稲敷市","city_kana":"イナシキシ","town":"伊崎","town_kana":"イサキ","prefecture_code":8},"1411":{"zip_code":"3001411","prefecture":"茨城県","prefecture_kana":"イバラキケン","city":"稲敷市","city_kana":"イナシキシ","town":"伊佐津","town_kana":"イサツ","prefecture_code":8},"0603":{"zip_code":"3000603","prefecture":"茨城県","prefecture_kana":"イバラキケン","city":"稲敷市","city_kana":"イナシキシ","town":"伊佐部","town_kana":"イサブ","prefecture_code":8},"0612":{"zip_code":"3000612","prefecture":"茨城県","prefecture_kana":"イバラキケン","city":"稲敷市","city_kana":"イナシキシ","town":"市崎","town_kana":"イチザキ","prefecture_code":8},"0503":{"zip_code":"3000503","prefecture":"茨城県","prefecture_kana":"イバラキケン","city":"稲敷市","city_kana":"イナシキシ","town":"稲波","town_kana":"イナミ","prefecture_code":8},"0507":{"zip_code":"3000507","prefecture":"茨城県","prefecture_kana":"イバラキケン","city":"稲敷市","city_kana":"イナシキシ","town":"犬塚","town_kana":"イヌヅカ","prefecture_code":8},"1414":{"zip_code":"3001414","prefecture":"茨城県","prefecture_kana":"イバラキケン","city":"稲敷市","city_kana":"イナシキシ","town":"戌渡","town_kana":"イヌワタリ","prefecture_code":8},"0641":{"zip_code":"3000641","prefecture":"茨城県","prefecture_kana":"イバラキケン","city":"稲敷市","city_kana":"イナシキシ","town":"浮島","town_kana":"ウキシマ","prefecture_code":8},"0509":{"zip_code":"3000509","prefecture":"茨城県","prefecture_kana":"イバラキケン","city":"稲敷市","city_kana":"イナシキシ","town":"江戸崎乙","town_kana":"エドサキオツ","prefecture_code":8},"0504":{"zip_code":"3000504","prefecture":"茨城県","prefecture_kana":"イバラキケン","city":"稲敷市","city_kana":"イナシキシ","town":"江戸崎甲","town_kana":"エドサキコウ","prefecture_code":8},"0529":{"zip_code":"3000529","prefecture":"茨城県","prefecture_kana":"イバラキケン","city":"稲敷市","city_kana":"イナシキシ","town":"江戸崎みらい","town_kana":"エドサキミライ","prefecture_code":8},"0721":{"zip_code":"3000721","prefecture":"茨城県","prefecture_kana":"イバラキケン","city":"稲敷市","city_kana":"イナシキシ","town":"大島","town_kana":"オオシマ","prefecture_code":8},"1423":{"zip_code":"3001423","prefecture":"茨城県","prefecture_kana":"イバラキケン","city":"稲敷市","city_kana":"イナシキシ","town":"太田","town_kana":"オオタ","prefecture_code":8},"0633":{"zip_code":"3000633","prefecture":"茨城県","prefecture_kana":"イバラキケン","city":"稲敷市","city_kana":"イナシキシ","town":"岡飯出","town_kana":"オカイイデ","prefecture_code":8},"0744":{"zip_code":"3000744","prefecture":"茨城県","prefecture_kana":"イバラキケン","city":"稲敷市","city_kana":"イナシキシ","town":"押砂","town_kana":"オシズナ","prefecture_code":8},"1425":{"zip_code":"3001425","prefecture":"茨城県","prefecture_kana":"イバラキケン","city":"稲敷市","city_kana":"イナシキシ","town":"小野","town_kana":"オノ","prefecture_code":8},"0634":{"zip_code":"3000634","prefecture":"茨城県","prefecture_kana":"イバラキケン","city":"稲敷市","city_kana":"イナシキシ","town":"柏木","town_kana":"カシワギ","prefecture_code":8},"0637":{"zip_code":"3000637","prefecture":"茨城県","prefecture_kana":"イバラキケン","city":"稲敷市","city_kana":"イナシキシ","town":"柏木古渡","town_kana":"カシワギフット","prefecture_code":8},"0604":{"zip_code":"3000604","prefecture":"茨城県","prefecture_kana":"イバラキケン","city":"稲敷市","city_kana":"イナシキシ","town":"釜井","town_kana":"カマイ","prefecture_code":8},"0522":{"zip_code":"3000522","prefecture":"茨城県","prefecture_kana":"イバラキケン","city":"稲敷市","city_kana":"イナシキシ","town":"蒲ケ山","town_kana":"カマガヤマ","prefecture_code":8},"0528":{"zip_code":"3000528","prefecture":"茨城県","prefecture_kana":"イバラキケン","city":"稲敷市","city_kana":"イナシキシ","town":"上君山","town_kana":"カミキミヤマ","prefecture_code":8},"0737":{"zip_code":"3000737","prefecture":"茨城県","prefecture_kana":"イバラキケン","city":"稲敷市","city_kana":"イナシキシ","town":"上須田","town_kana":"カミスダ","prefecture_code":8},"0732":{"zip_code":"3000732","prefecture":"茨城県","prefecture_kana":"イバラキケン","city":"稲敷市","city_kana":"イナシキシ","town":"上之島","town_kana":"カミノシマ","prefecture_code":8},"0643":{"zip_code":"3000643","prefecture":"茨城県","prefecture_kana":"イバラキケン","city":"稲敷市","city_kana":"イナシキシ","town":"上馬渡","town_kana":"カミマワタシ","prefecture_code":8},"0513":{"zip_code":"3000513","prefecture":"茨城県","prefecture_kana":"イバラキケン","city":"稲敷市","city_kana":"イナシキシ","town":"桑山","town_kana":"クワヤマ","prefecture_code":8},"0734":{"zip_code":"3000734","prefecture":"茨城県","prefecture_kana":"イバラキケン","city":"稲敷市","city_kana":"イナシキシ","town":"結佐","town_kana":"ケッサ","prefecture_code":8},"0746":{"zip_code":"3000746","prefecture":"茨城県","prefecture_kana":"イバラキケン","city":"稲敷市","city_kana":"イナシキシ","town":"神崎本宿","town_kana":"コウザキホンジュク","prefecture_code":8},"0605":{"zip_code":"3000605","prefecture":"茨城県","prefecture_kana":"イバラキケン","city":"稲敷市","city_kana":"イナシキシ","town":"幸田","town_kana":"コウダ","prefecture_code":8},"0733":{"zip_code":"3000733","prefecture":"茨城県","prefecture_kana":"イバラキケン","city":"稲敷市","city_kana":"イナシキシ","town":"石納","town_kana":"コクノウ","prefecture_code":8},"0524":{"zip_code":"3000524","prefecture":"茨城県","prefecture_kana":"イバラキケン","city":"稲敷市","city_kana":"イナシキシ","town":"小羽賀","town_kana":"コハガ","prefecture_code":8},"0514":{"zip_code":"3000514","prefecture":"茨城県","prefecture_kana":"イバラキケン","city":"稲敷市","city_kana":"イナシキシ","town":"駒塚","town_kana":"コマツカ","prefecture_code":8},"0723":{"zip_code":"3000723","prefecture":"茨城県","prefecture_kana":"イバラキケン","city":"稲敷市","city_kana":"イナシキシ","town":"境島","town_kana":"サカイジマ","prefecture_code":8},"0508":{"zip_code":"3000508","prefecture":"茨城県","prefecture_kana":"イバラキケン","city":"稲敷市","city_kana":"イナシキシ","town":"佐倉","town_kana":"サクラ","prefecture_code":8},"0749":{"zip_code":"3000749","prefecture":"茨城県","prefecture_kana":"イバラキケン","city":"稲敷市","city_kana":"イナシキシ","town":"佐原組新田","town_kana":"サワラグミシンデン","prefecture_code":8},"0725":{"zip_code":"3000725","prefecture":"茨城県","prefecture_kana":"イバラキケン","city":"稲敷市","city_kana":"イナシキシ","town":"佐原下手","town_kana":"サワラシタテ","prefecture_code":8},"0512":{"zip_code":"3000512","prefecture":"茨城県","prefecture_kana":"イバラキケン","city":"稲敷市","city_kana":"イナシキシ","town":"椎塚","town_kana":"シイヅカ","prefecture_code":8},"0623":{"zip_code":"3000623","prefecture":"茨城県","prefecture_kana":"イバラキケン","city":"稲敷市","city_kana":"イナシキシ","town":"四箇","town_kana":"シカ","prefecture_code":8},"0502":{"zip_code":"3000502","prefecture":"茨城県","prefecture_kana":"イバラキケン","city":"稲敷市","city_kana":"イナシキシ","town":"信太古渡","town_kana":"シダフット","prefecture_code":8},"1412":{"zip_code":"3001412","prefecture":"茨城県","prefecture_kana":"イバラキケン","city":"稲敷市","city_kana":"イナシキシ","town":"柴崎","town_kana":"シバサキ","prefecture_code":8},"0614":{"zip_code":"3000614","prefecture":"茨城県","prefecture_kana":"イバラキケン","city":"稲敷市","city_kana":"イナシキシ","town":"清水","town_kana":"シミズ","prefecture_code":8},"1424":{"zip_code":"3001424","prefecture":"茨城県","prefecture_kana":"イバラキケン","city":"稲敷市","city_kana":"イナシキシ","town":"下太田","town_kana":"シモオオタ","prefecture_code":8},"0527":{"zip_code":"3000527","prefecture":"茨城県","prefecture_kana":"イバラキケン","city":"稲敷市","city_kana":"イナシキシ","town":"下君山","town_kana":"シモキミヤマ","prefecture_code":8},"0601":{"zip_code":"3000601","prefecture":"茨城県","prefecture_kana":"イバラキケン","city":"稲敷市","city_kana":"イナシキシ","town":"下須田","town_kana":"シモスダ","prefecture_code":8},"0642":{"zip_code":"3000642","prefecture":"茨城県","prefecture_kana":"イバラキケン","city":"稲敷市","city_kana":"イナシキシ","town":"下馬渡","town_kana":"シモマワタシ","prefecture_code":8},"0622":{"zip_code":"3000622","prefecture":"茨城県","prefecture_kana":"イバラキケン","city":"稲敷市","city_kana":"イナシキシ","town":"神宮寺","town_kana":"ジングウジ","prefecture_code":8},"0613":{"zip_code":"3000613","prefecture":"茨城県","prefecture_kana":"イバラキケン","city":"稲敷市","city_kana":"イナシキシ","town":"新橋","town_kana":"シンバシ","prefecture_code":8},"0625":{"zip_code":"3000625","prefecture":"茨城県","prefecture_kana":"イバラキケン","city":"稲敷市","city_kana":"イナシキシ","town":"須賀津","town_kana":"スカヅ","prefecture_code":8},"0521":{"zip_code":"3000521","prefecture":"茨城県","prefecture_kana":"イバラキケン","city":"稲敷市","city_kana":"イナシキシ","town":"月出里","town_kana":"スダチ","prefecture_code":8},"1416":{"zip_code":"3001416","prefecture":"茨城県","prefecture_kana":"イバラキケン","city":"稲敷市","city_kana":"イナシキシ","town":"角崎","town_kana":"スミザキ","prefecture_code":8},"0748":{"zip_code":"3000748","prefecture":"茨城県","prefecture_kana":"イバラキケン","city":"稲敷市","city_kana":"イナシキシ","town":"清久島","town_kana":"セイキュウジマ","prefecture_code":8},"0511":{"zip_code":"3000511","prefecture":"茨城県","prefecture_kana":"イバラキケン","city":"稲敷市","city_kana":"イナシキシ","town":"高田","town_kana":"タカダ","prefecture_code":8},"0741":{"zip_code":"3000741","prefecture":"茨城県","prefecture_kana":"イバラキケン","city":"稲敷市","city_kana":"イナシキシ","town":"手賀組新田","town_kana":"テガクミシンデン","prefecture_code":8},"1426":{"zip_code":"3001426","prefecture":"茨城県","prefecture_kana":"イバラキケン","city":"稲敷市","city_kana":"イナシキシ","town":"寺内","town_kana":"テラウチ","prefecture_code":8},"0523":{"zip_code":"3000523","prefecture":"茨城県","prefecture_kana":"イバラキケン","city":"稲敷市","city_kana":"イナシキシ","town":"時崎","town_kana":"トキザキ","prefecture_code":8},"0611":{"zip_code":"3000611","prefecture":"茨城県","prefecture_kana":"イバラキケン","city":"稲敷市","city_kana":"イナシキシ","town":"中島","town_kana":"ナカジマ","prefecture_code":8},"1415":{"zip_code":"3001415","prefecture":"茨城県","prefecture_kana":"イバラキケン","city":"稲敷市","city_kana":"イナシキシ","town":"中山","town_kana":"ナカヤマ","prefecture_code":8},"0726":{"zip_code":"3000726","prefecture":"茨城県","prefecture_kana":"イバラキケン","city":"稲敷市","city_kana":"イナシキシ","town":"西代","town_kana":"ニシシロ","prefecture_code":8},"0506":{"zip_code":"3000506","prefecture":"茨城県","prefecture_kana":"イバラキケン","city":"稲敷市","city_kana":"イナシキシ","town":"沼田","town_kana":"ヌマタ","prefecture_code":8},"0525":{"zip_code":"3000525","prefecture":"茨城県","prefecture_kana":"イバラキケン","city":"稲敷市","city_kana":"イナシキシ","town":"羽賀","town_kana":"ハガ","prefecture_code":8},"1427":{"zip_code":"3001427","prefecture":"茨城県","prefecture_kana":"イバラキケン","city":"稲敷市","city_kana":"イナシキシ","town":"羽賀浦","town_kana":"ハガウラ","prefecture_code":8},"0745":{"zip_code":"3000745","prefecture":"茨城県","prefecture_kana":"イバラキケン","city":"稲敷市","city_kana":"イナシキシ","town":"橋向","town_kana":"ハシムコウ","prefecture_code":8},"0736":{"zip_code":"3000736","prefecture":"茨城県","prefecture_kana":"イバラキケン","city":"稲敷市","city_kana":"イナシキシ","town":"八千石","town_kana":"ハッセンゴク","prefecture_code":8},"0501":{"zip_code":"3000501","prefecture":"茨城県","prefecture_kana":"イバラキケン","city":"稲敷市","city_kana":"イナシキシ","town":"鳩崎","town_kana":"ハトザキ","prefecture_code":8},"0636":{"zip_code":"3000636","prefecture":"茨城県","prefecture_kana":"イバラキケン","city":"稲敷市","city_kana":"イナシキシ","town":"羽生","town_kana":"ハニュウ","prefecture_code":8},"0616":{"zip_code":"3000616","prefecture":"茨城県","prefecture_kana":"イバラキケン","city":"稲敷市","city_kana":"イナシキシ","town":"東大沼","town_kana":"ヒガシオオヌマ","prefecture_code":8},"0617":{"zip_code":"3000617","prefecture":"茨城県","prefecture_kana":"イバラキケン","city":"稲敷市","city_kana":"イナシキシ","town":"福田","town_kana":"フクダ","prefecture_code":8},"0638":{"zip_code":"3000638","prefecture":"茨城県","prefecture_kana":"イバラキケン","city":"稲敷市","city_kana":"イナシキシ","town":"古渡","town_kana":"フット","prefecture_code":8},"1421":{"zip_code":"3001421","prefecture":"茨城県","prefecture_kana":"イバラキケン","city":"稲敷市","city_kana":"イナシキシ","town":"堀川","town_kana":"ホリカワ","prefecture_code":8},"0635":{"zip_code":"3000635","prefecture":"茨城県","prefecture_kana":"イバラキケン","city":"稲敷市","city_kana":"イナシキシ","town":"堀之内","town_kana":"ホリノウチ","prefecture_code":8},"0743":{"zip_code":"3000743","prefecture":"茨城県","prefecture_kana":"イバラキケン","city":"稲敷市","city_kana":"イナシキシ","town":"曲渕","town_kana":"マガブチ","prefecture_code":8},"0615":{"zip_code":"3000615","prefecture":"茨城県","prefecture_kana":"イバラキケン","city":"稲敷市","city_kana":"イナシキシ","town":"町田","town_kana":"マチダ","prefecture_code":8},"0526":{"zip_code":"3000526","prefecture":"茨城県","prefecture_kana":"イバラキケン","city":"稲敷市","city_kana":"イナシキシ","town":"松山","town_kana":"マツヤマ","prefecture_code":8},"1417":{"zip_code":"3001417","prefecture":"茨城県","prefecture_kana":"イバラキケン","city":"稲敷市","city_kana":"イナシキシ","town":"狸穴","town_kana":"マミアナ","prefecture_code":8},"0722":{"zip_code":"3000722","prefecture":"茨城県","prefecture_kana":"イバラキケン","city":"稲敷市","city_kana":"イナシキシ","town":"三島","town_kana":"ミシマ","prefecture_code":8},"0631":{"zip_code":"3000631","prefecture":"茨城県","prefecture_kana":"イバラキケン","city":"稲敷市","city_kana":"イナシキシ","town":"三次","town_kana":"ミツギ","prefecture_code":8},"0607":{"zip_code":"3000607","prefecture":"茨城県","prefecture_kana":"イバラキケン","city":"稲敷市","city_kana":"イナシキシ","town":"光葉","town_kana":"ミツバ","prefecture_code":8},"1422":{"zip_code":"3001422","prefecture":"茨城県","prefecture_kana":"イバラキケン","city":"稲敷市","city_kana":"イナシキシ","town":"南太田","town_kana":"ミナミオオタ","prefecture_code":8},"0515":{"zip_code":"3000515","prefecture":"茨城県","prefecture_kana":"イバラキケン","city":"稲敷市","city_kana":"イナシキシ","town":"南ケ丘","town_kana":"ミナミガオカ","prefecture_code":8},"0624":{"zip_code":"3000624","prefecture":"茨城県","prefecture_kana":"イバラキケン","city":"稲敷市","city_kana":"イナシキシ","town":"南山来","town_kana":"ミナミヤマク","prefecture_code":8},"0505":{"zip_code":"3000505","prefecture":"茨城県","prefecture_kana":"イバラキケン","city":"稲敷市","city_kana":"イナシキシ","town":"村田","town_kana":"ムラタ","prefecture_code":8},"0731":{"zip_code":"3000731","prefecture":"茨城県","prefecture_kana":"イバラキケン","city":"稲敷市","city_kana":"イナシキシ","town":"本新","town_kana":"モトシン","prefecture_code":8},"0724":{"zip_code":"3000724","prefecture":"茨城県","prefecture_kana":"イバラキケン","city":"稲敷市","city_kana":"イナシキシ","town":"八筋川","town_kana":"ヤスジカワ","prefecture_code":8},"0747":{"zip_code":"3000747","prefecture":"茨城県","prefecture_kana":"イバラキケン","city":"稲敷市","city_kana":"イナシキシ","town":"余津谷","town_kana":"ヨツヤ","prefecture_code":8},"0742":{"zip_code":"3000742","prefecture":"茨城県","prefecture_kana":"イバラキケン","city":"稲敷市","city_kana":"イナシキシ","town":"四ッ谷","town_kana":"ヨツヤ","prefecture_code":8},"0735":{"zip_code":"3000735","prefecture":"茨城県","prefecture_kana":"イバラキケン","city":"稲敷市","city_kana":"イナシキシ","town":"六角","town_kana":"ロッカク","prefecture_code":8},"0606":{"zip_code":"3000606","prefecture":"茨城県","prefecture_kana":"イバラキケン","city":"稲敷市","city_kana":"イナシキシ","town":"脇川","town_kana":"ワキガワ","prefecture_code":8},"0212":{"zip_code":"3000212","prefecture":"茨城県","prefecture_kana":"イバラキケン","city":"かすみがうら市","city_kana":"カスミガウラシ","town":"有河","town_kana":"アルガ","prefecture_code":8},"0205":{"zip_code":"3000205","prefecture":"茨城県","prefecture_kana":"イバラキケン","city":"かすみがうら市","city_kana":"カスミガウラシ","town":"安食","town_kana":"アンジキ","prefecture_code":8},"0203":{"zip_code":"3000203","prefecture":"茨城県","prefecture_kana":"イバラキケン","city":"かすみがうら市","city_kana":"カスミガウラシ","town":"岩坪","town_kana":"イワツボ","prefecture_code":8},"0213":{"zip_code":"3000213","prefecture":"茨城県","prefecture_kana":"イバラキケン","city":"かすみがうら市","city_kana":"カスミガウラシ","town":"牛渡","town_kana":"ウシワタ","prefecture_code":8},"0124":{"zip_code":"3000124","prefecture":"茨城県","prefecture_kana":"イバラキケン","city":"かすみがうら市","city_kana":"カスミガウラシ","town":"大和田","town_kana":"オオワダ","prefecture_code":8},"0132":{"zip_code":"3000132","prefecture":"茨城県","prefecture_kana":"イバラキケン","city":"かすみがうら市","city_kana":"カスミガウラシ","town":"男神","town_kana":"オガミ","prefecture_code":8},"0201":{"zip_code":"3000201","prefecture":"茨城県","prefecture_kana":"イバラキケン","city":"かすみがうら市","city_kana":"カスミガウラシ","town":"柏崎","town_kana":"カシワザキ","prefecture_code":8},"0127":{"zip_code":"3000127","prefecture":"茨城県","prefecture_kana":"イバラキケン","city":"かすみがうら市","city_kana":"カスミガウラシ","town":"上大堤","town_kana":"カミオオヅツミ","prefecture_code":8},"0123":{"zip_code":"3000123","prefecture":"茨城県","prefecture_kana":"イバラキケン","city":"かすみがうら市","city_kana":"カスミガウラシ","town":"上軽部","town_kana":"カミカルベ","prefecture_code":8},"0135":{"zip_code":"3000135","prefecture":"茨城県","prefecture_kana":"イバラキケン","city":"かすみがうら市","city_kana":"カスミガウラシ","town":"加茂","town_kana":"カモ","prefecture_code":8},"0214":{"zip_code":"3000214","prefecture":"茨城県","prefecture_kana":"イバラキケン","city":"かすみがうら市","city_kana":"カスミガウラシ","town":"坂","town_kana":"サカ","prefecture_code":8},"0121":{"zip_code":"3000121","prefecture":"茨城県","prefecture_kana":"イバラキケン","city":"かすみがうら市","city_kana":"カスミガウラシ","town":"宍倉","town_kana":"シシクラ","prefecture_code":8},"0211":{"zip_code":"3000211","prefecture":"茨城県","prefecture_kana":"イバラキケン","city":"かすみがうら市","city_kana":"カスミガウラシ","town":"志戸崎","town_kana":"シトザキ","prefecture_code":8},"0131":{"zip_code":"3000131","prefecture":"茨城県","prefecture_kana":"イバラキケン","city":"かすみがうら市","city_kana":"カスミガウラシ","town":"下大堤","town_kana":"シモオオヅツミ","prefecture_code":8},"0204":{"zip_code":"3000204","prefecture":"茨城県","prefecture_kana":"イバラキケン","city":"かすみがうら市","city_kana":"カスミガウラシ","town":"下軽部","town_kana":"シモカルベ","prefecture_code":8},"0202":{"zip_code":"3000202","prefecture":"茨城県","prefecture_kana":"イバラキケン","city":"かすみがうら市","city_kana":"カスミガウラシ","town":"田伏","town_kana":"タブセ","prefecture_code":8},"0136":{"zip_code":"3000136","prefecture":"茨城県","prefecture_kana":"イバラキケン","city":"かすみがうら市","city_kana":"カスミガウラシ","town":"戸崎","town_kana":"トザキ","prefecture_code":8},"0133":{"zip_code":"3000133","prefecture":"茨城県","prefecture_kana":"イバラキケン","city":"かすみがうら市","city_kana":"カスミガウラシ","town":"中台","town_kana":"ナカダイ","prefecture_code":8},"0122":{"zip_code":"3000122","prefecture":"茨城県","prefecture_kana":"イバラキケン","city":"かすみがうら市","city_kana":"カスミガウラシ","town":"西成井","town_kana":"ニシナルイ","prefecture_code":8},"0134":{"zip_code":"3000134","prefecture":"茨城県","prefecture_kana":"イバラキケン","city":"かすみがうら市","city_kana":"カスミガウラシ","town":"深谷","town_kana":"フカヤ","prefecture_code":8},"0125":{"zip_code":"3000125","prefecture":"茨城県","prefecture_kana":"イバラキケン","city":"かすみがうら市","city_kana":"カスミガウラシ","town":"三ツ木","town_kana":"ミツギ","prefecture_code":8},"0126":{"zip_code":"3000126","prefecture":"茨城県","prefecture_kana":"イバラキケン","city":"かすみがうら市","city_kana":"カスミガウラシ","town":"南根本","town_kana":"ミナミネモト","prefecture_code":8},"4417":{"zip_code":"3004417","prefecture":"茨城県","prefecture_kana":"イバラキケン","city":"桜川市","city_kana":"サクラガワシ","town":"真壁町飯塚","town_kana":"マカベチョウイイツカ","prefecture_code":8},"4416":{"zip_code":"3004416","prefecture":"茨城県","prefecture_kana":"イバラキケン","city":"桜川市","city_kana":"サクラガワシ","town":"真壁町伊佐々","town_kana":"マカベチョウイサザ","prefecture_code":8},"4428":{"zip_code":"3004428","prefecture":"茨城県","prefecture_kana":"イバラキケン","city":"桜川市","city_kana":"サクラガワシ","town":"真壁町大塚新田","town_kana":"マカベチョウオオツカシンデン","prefecture_code":8},"4401":{"zip_code":"3004401","prefecture":"茨城県","prefecture_kana":"イバラキケン","city":"桜川市","city_kana":"サクラガワシ","town":"真壁町上小幡","town_kana":"マカベチョウカミコバタ","prefecture_code":8},"4427":{"zip_code":"3004427","prefecture":"茨城県","prefecture_kana":"イバラキケン","city":"桜川市","city_kana":"サクラガワシ","town":"真壁町上谷貝","town_kana":"マカベチョウカミヤガイ","prefecture_code":8},"4422":{"zip_code":"3004422","prefecture":"茨城県","prefecture_kana":"イバラキケン","city":"桜川市","city_kana":"サクラガワシ","town":"真壁町亀熊","town_kana":"マカベチョウカメクマ","prefecture_code":8},"4424":{"zip_code":"3004424","prefecture":"茨城県","prefecture_kana":"イバラキケン","city":"桜川市","city_kana":"サクラガワシ","town":"真壁町源法寺","town_kana":"マカベチョウゲンボウジ","prefecture_code":8},"4413":{"zip_code":"3004413","prefecture":"茨城県","prefecture_kana":"イバラキケン","city":"桜川市","city_kana":"サクラガワシ","town":"真壁町酒寄","town_kana":"マカベチョウサカヨリ","prefecture_code":8},"4405":{"zip_code":"3004405","prefecture":"茨城県","prefecture_kana":"イバラキケン","city":"桜川市","city_kana":"サクラガワシ","town":"真壁町桜井","town_kana":"マカベチョウサクライ","prefecture_code":8},"4414":{"zip_code":"3004414","prefecture":"茨城県","prefecture_kana":"イバラキケン","city":"桜川市","city_kana":"サクラガワシ","town":"真壁町椎尾","town_kana":"マカベチョウシイオ","prefecture_code":8},"4402":{"zip_code":"3004402","prefecture":"茨城県","prefecture_kana":"イバラキケン","city":"桜川市","city_kana":"サクラガワシ","town":"真壁町下小幡","town_kana":"マカベチョウシモコバタ","prefecture_code":8},"4426":{"zip_code":"3004426","prefecture":"茨城県","prefecture_kana":"イバラキケン","city":"桜川市","city_kana":"サクラガワシ","town":"真壁町下谷貝","town_kana":"マカベチョウシモヤガイ","prefecture_code":8},"4404":{"zip_code":"3004404","prefecture":"茨城県","prefecture_kana":"イバラキケン","city":"桜川市","city_kana":"サクラガワシ","town":"真壁町白井","town_kana":"マカベチョウシライ","prefecture_code":8},"4411":{"zip_code":"3004411","prefecture":"茨城県","prefecture_kana":"イバラキケン","city":"桜川市","city_kana":"サクラガワシ","town":"真壁町田","town_kana":"マカベチョウタ","prefecture_code":8},"4403":{"zip_code":"3004403","prefecture":"茨城県","prefecture_kana":"イバラキケン","city":"桜川市","city_kana":"サクラガワシ","town":"真壁町長岡","town_kana":"マカベチョウナガオカ","prefecture_code":8},"4412":{"zip_code":"3004412","prefecture":"茨城県","prefecture_kana":"イバラキケン","city":"桜川市","city_kana":"サクラガワシ","town":"真壁町羽鳥","town_kana":"マカベチョウハドリ","prefecture_code":8},"4423":{"zip_code":"3004423","prefecture":"茨城県","prefecture_kana":"イバラキケン","city":"桜川市","city_kana":"サクラガワシ","town":"真壁町塙世","town_kana":"マカベチョウハナワゼ","prefecture_code":8},"4421":{"zip_code":"3004421","prefecture":"茨城県","prefecture_kana":"イバラキケン","city":"桜川市","city_kana":"サクラガワシ","town":"真壁町原方","town_kana":"マカベチョウハラガタ","prefecture_code":8},"4429":{"zip_code":"3004429","prefecture":"茨城県","prefecture_kana":"イバラキケン","city":"桜川市","city_kana":"サクラガワシ","town":"真壁町東矢貝","town_kana":"マカベチョウヒガシヤガイ","prefecture_code":8},"4415":{"zip_code":"3004415","prefecture":"茨城県","prefecture_kana":"イバラキケン","city":"桜川市","city_kana":"サクラガワシ","town":"真壁町東山田","town_kana":"マカベチョウヒガシヤマダ","prefecture_code":8},"4407":{"zip_code":"3004407","prefecture":"茨城県","prefecture_kana":"イバラキケン","city":"桜川市","city_kana":"サクラガワシ","town":"真壁町古城","town_kana":"マカベチョウフルシロ","prefecture_code":8},"4425":{"zip_code":"3004425","prefecture":"茨城県","prefecture_kana":"イバラキケン","city":"桜川市","city_kana":"サクラガワシ","town":"真壁町細芝","town_kana":"マカベチョウホソシバ","prefecture_code":8},"4408":{"zip_code":"3004408","prefecture":"茨城県","prefecture_kana":"イバラキケン","city":"桜川市","city_kana":"サクラガワシ","town":"真壁町真壁","town_kana":"マカベチョウマカベ","prefecture_code":8},"4406":{"zip_code":"3004406","prefecture":"茨城県","prefecture_kana":"イバラキケン","city":"桜川市","city_kana":"サクラガワシ","town":"真壁町山尾","town_kana":"マカベチョウヤマオ","prefecture_code":8},"2300":{"zip_code":"3002300","prefecture":"茨城県","prefecture_kana":"イバラキケン","city":"つくばみらい市","city_kana":"ツクバミライシ","town":"以下に掲載がない場合","town_kana":"イカニケイサイガナイバアイ","prefecture_code":8},"2346":{"zip_code":"3002346","prefecture":"茨城県","prefecture_kana":"イバラキケン","city":"つくばみらい市","city_kana":"ツクバミライシ","town":"青木","town_kana":"アオキ","prefecture_code":8},"2348":{"zip_code":"3002348","prefecture":"茨城県","prefecture_kana":"イバラキケン","city":"つくばみらい市","city_kana":"ツクバミライシ","town":"青古新田","town_kana":"アオコシンデン","prefecture_code":8},"2315":{"zip_code":"3002315","prefecture":"茨城県","prefecture_kana":"イバラキケン","city":"つくばみらい市","city_kana":"ツクバミライシ","town":"足高","town_kana":"アダカ","prefecture_code":8},"2354":{"zip_code":"3002354","prefecture":"茨城県","prefecture_kana":"イバラキケン","city":"つくばみらい市","city_kana":"ツクバミライシ","town":"新戸","town_kana":"アラト","prefecture_code":8},"2307":{"zip_code":"3002307","prefecture":"茨城県","prefecture_kana":"イバラキケン","city":"つくばみらい市","city_kana":"ツクバミライシ","town":"板橋","town_kana":"イタバシ","prefecture_code":8},"2323":{"zip_code":"3002323","prefecture":"茨城県","prefecture_kana":"イバラキケン","city":"つくばみらい市","city_kana":"ツクバミライシ","town":"伊丹","town_kana":"イタミ","prefecture_code":8},"2355":{"zip_code":"3002355","prefecture":"茨城県","prefecture_kana":"イバラキケン","city":"つくばみらい市","city_kana":"ツクバミライシ","town":"市野深","town_kana":"イチノフカ","prefecture_code":8},"2308":{"zip_code":"3002308","prefecture":"茨城県","prefecture_kana":"イバラキケン","city":"つくばみらい市","city_kana":"ツクバミライシ","town":"伊奈東","town_kana":"イナヒガシ","prefecture_code":8},"2342":{"zip_code":"3002342","prefecture":"茨城県","prefecture_kana":"イバラキケン","city":"つくばみらい市","city_kana":"ツクバミライシ","town":"弥柳","town_kana":"イヨヤナギ","prefecture_code":8},"2303":{"zip_code":"3002303","prefecture":"茨城県","prefecture_kana":"イバラキケン","city":"つくばみらい市","city_kana":"ツクバミライシ","town":"大和田","town_kana":"オオワダ","prefecture_code":8},"2411":{"zip_code":"3002411","prefecture":"茨城県","prefecture_kana":"イバラキケン","city":"つくばみらい市","city_kana":"ツクバミライシ","town":"押砂","town_kana":"オシズナ","prefecture_code":8},"2352":{"zip_code":"3002352","prefecture":"茨城県","prefecture_kana":"イバラキケン","city":"つくばみらい市","city_kana":"ツクバミライシ","town":"小島新田","town_kana":"オジマシンデン","prefecture_code":8},"2432":{"zip_code":"3002432","prefecture":"茨城県","prefecture_kana":"イバラキケン","city":"つくばみらい市","city_kana":"ツクバミライシ","town":"鬼長","town_kana":"オニオサ","prefecture_code":8},"2353":{"zip_code":"3002353","prefecture":"茨城県","prefecture_kana":"イバラキケン","city":"つくばみらい市","city_kana":"ツクバミライシ","town":"小張","town_kana":"オバリ","prefecture_code":8},"2331":{"zip_code":"3002331","prefecture":"茨城県","prefecture_kana":"イバラキケン","city":"つくばみらい市","city_kana":"ツクバミライシ","town":"神住新田","town_kana":"カスミシンデン","prefecture_code":8},"2424":{"zip_code":"3002424","prefecture":"茨城県","prefecture_kana":"イバラキケン","city":"つくばみらい市","city_kana":"ツクバミライシ","town":"加藤","town_kana":"カトウ","prefecture_code":8},"2431":{"zip_code":"3002431","prefecture":"茨城県","prefecture_kana":"イバラキケン","city":"つくばみらい市","city_kana":"ツクバミライシ","town":"上小目","town_kana":"カミオメ","prefecture_code":8},"2326":{"zip_code":"3002326","prefecture":"茨城県","prefecture_kana":"イバラキケン","city":"つくばみらい市","city_kana":"ツクバミライシ","town":"上島","town_kana":"カミジマ","prefecture_code":8},"2453":{"zip_code":"3002453","prefecture":"茨城県","prefecture_kana":"イバラキケン","city":"つくばみらい市","city_kana":"ツクバミライシ","town":"上長沼","town_kana":"カミナガヌマ","prefecture_code":8},"2335":{"zip_code":"3002335","prefecture":"茨城県","prefecture_kana":"イバラキケン","city":"つくばみらい市","city_kana":"ツクバミライシ","town":"上平柳","town_kana":"カミヒラヤナギ","prefecture_code":8},"2425":{"zip_code":"3002425","prefecture":"茨城県","prefecture_kana":"イバラキケン","city":"つくばみらい市","city_kana":"ツクバミライシ","town":"川崎","town_kana":"カワサキ","prefecture_code":8},"2312":{"zip_code":"3002312","prefecture":"茨城県","prefecture_kana":"イバラキケン","city":"つくばみらい市","city_kana":"ツクバミライシ","town":"神生","town_kana":"カンノウ","prefecture_code":8},"2456":{"zip_code":"3002456","prefecture":"茨城県","prefecture_kana":"イバラキケン","city":"つくばみらい市","city_kana":"ツクバミライシ","town":"北袋","town_kana":"キタブクロ","prefecture_code":8},"2407":{"zip_code":"3002407","prefecture":"茨城県","prefecture_kana":"イバラキケン","city":"つくばみらい市","city_kana":"ツクバミライシ","town":"北山","town_kana":"キタヤマ","prefecture_code":8},"2436":{"zip_code":"3002436","prefecture":"茨城県","prefecture_kana":"イバラキケン","city":"つくばみらい市","city_kana":"ツクバミライシ","town":"絹の台","town_kana":"キヌノダイ","prefecture_code":8},"2445":{"zip_code":"3002445","prefecture":"茨城県","prefecture_kana":"イバラキケン","city":"つくばみらい市","city_kana":"ツクバミライシ","town":"小絹","town_kana":"コキヌ","prefecture_code":8},"2402":{"zip_code":"3002402","prefecture":"茨城県","prefecture_kana":"イバラキケン","city":"つくばみらい市","city_kana":"ツクバミライシ","town":"坂野新田","town_kana":"サカノシンデン","prefecture_code":8},"2332":{"zip_code":"3002332","prefecture":"茨城県","prefecture_kana":"イバラキケン","city":"つくばみらい市","city_kana":"ツクバミライシ","town":"山王新田","town_kana":"サンノウシンデン","prefecture_code":8},"2336":{"zip_code":"3002336","prefecture":"茨城県","prefecture_kana":"イバラキケン","city":"つくばみらい市","city_kana":"ツクバミライシ","town":"山谷","town_kana":"サンヤ","prefecture_code":8},"2359":{"zip_code":"3002359","prefecture":"茨城県","prefecture_kana":"イバラキケン","city":"つくばみらい市","city_kana":"ツクバミライシ","town":"紫峰ヶ丘","town_kana":"シホウガオカ","prefecture_code":8},"2433":{"zip_code":"3002433","prefecture":"茨城県","prefecture_kana":"イバラキケン","city":"つくばみらい市","city_kana":"ツクバミライシ","town":"下小目","town_kana":"シモオメ","prefecture_code":8},"2324":{"zip_code":"3002324","prefecture":"茨城県","prefecture_kana":"イバラキケン","city":"つくばみらい市","city_kana":"ツクバミライシ","town":"下島","town_kana":"シモジマ","prefecture_code":8},"2454":{"zip_code":"3002454","prefecture":"茨城県","prefecture_kana":"イバラキケン","city":"つくばみらい市","city_kana":"ツクバミライシ","town":"下長沼","town_kana":"シモナガヌマ","prefecture_code":8},"2333":{"zip_code":"3002333","prefecture":"茨城県","prefecture_kana":"イバラキケン","city":"つくばみらい市","city_kana":"ツクバミライシ","town":"下平柳","town_kana":"シモヒラヤナギ","prefecture_code":8},"2305":{"zip_code":"3002305","prefecture":"茨城県","prefecture_kana":"イバラキケン","city":"つくばみらい市","city_kana":"ツクバミライシ","town":"重右衛門新田","town_kana":"ジュウエモンシンデン","prefecture_code":8},"2455":{"zip_code":"3002455","prefecture":"茨城県","prefecture_kana":"イバラキケン","city":"つくばみらい市","city_kana":"ツクバミライシ","town":"十和","town_kana":"ジュウワ","prefecture_code":8},"2314":{"zip_code":"3002314","prefecture":"茨城県","prefecture_kana":"イバラキケン","city":"つくばみらい市","city_kana":"ツクバミライシ","town":"城中","town_kana":"ジョウチュウ","prefecture_code":8},"2444":{"zip_code":"3002444","prefecture":"茨城県","prefecture_kana":"イバラキケン","city":"つくばみらい市","city_kana":"ツクバミライシ","town":"杉下","town_kana":"スギシタ","prefecture_code":8},"2351":{"zip_code":"3002351","prefecture":"茨城県","prefecture_kana":"イバラキケン","city":"つくばみらい市","city_kana":"ツクバミライシ","town":"善助新田","town_kana":"ゼンスケシンデン","prefecture_code":8},"2401":{"zip_code":"3002401","prefecture":"茨城県","prefecture_kana":"イバラキケン","city":"つくばみらい市","city_kana":"ツクバミライシ","town":"台","town_kana":"ダイ","prefecture_code":8},"2301":{"zip_code":"3002301","prefecture":"茨城県","prefecture_kana":"イバラキケン","city":"つくばみらい市","city_kana":"ツクバミライシ","town":"高岡","town_kana":"タカオカ","prefecture_code":8},"2413":{"zip_code":"3002413","prefecture":"茨城県","prefecture_kana":"イバラキケン","city":"つくばみらい市","city_kana":"ツクバミライシ","town":"田村","town_kana":"タムラ","prefecture_code":8},"2452":{"zip_code":"3002452","prefecture":"茨城県","prefecture_kana":"イバラキケン","city":"つくばみらい市","city_kana":"ツクバミライシ","town":"樛木","town_kana":"ツキヌキ","prefecture_code":8},"2435":{"zip_code":"3002435","prefecture":"茨城県","prefecture_kana":"イバラキケン","city":"つくばみらい市","city_kana":"ツクバミライシ","town":"筒戸","town_kana":"ツツド","prefecture_code":8},"2441":{"zip_code":"3002441","prefecture":"茨城県","prefecture_kana":"イバラキケン","city":"つくばみらい市","city_kana":"ツクバミライシ","town":"寺畑","town_kana":"テラハタ","prefecture_code":8},"2322":{"zip_code":"3002322","prefecture":"茨城県","prefecture_kana":"イバラキケン","city":"つくばみらい市","city_kana":"ツクバミライシ","town":"戸崎","town_kana":"トサキ","prefecture_code":8},"2321":{"zip_code":"3002321","prefecture":"茨城県","prefecture_kana":"イバラキケン","city":"つくばみらい市","city_kana":"ツクバミライシ","town":"戸茂","town_kana":"トモ","prefecture_code":8},"2325":{"zip_code":"3002325","prefecture":"茨城県","prefecture_kana":"イバラキケン","city":"つくばみらい市","city_kana":"ツクバミライシ","town":"中島","town_kana":"ナカジマ","prefecture_code":8},"2345":{"zip_code":"3002345","prefecture":"茨城県","prefecture_kana":"イバラキケン","city":"つくばみらい市","city_kana":"ツクバミライシ","town":"長渡呂","town_kana":"ナガトロ","prefecture_code":8},"2344":{"zip_code":"3002344","prefecture":"茨城県","prefecture_kana":"イバラキケン","city":"つくばみらい市","city_kana":"ツクバミライシ","town":"長渡呂新田","town_kana":"ナガトロシンデン","prefecture_code":8},"2403":{"zip_code":"3002403","prefecture":"茨城県","prefecture_kana":"イバラキケン","city":"つくばみらい市","city_kana":"ツクバミライシ","town":"中原","town_kana":"ナカハラ","prefecture_code":8},"2334":{"zip_code":"3002334","prefecture":"茨城県","prefecture_kana":"イバラキケン","city":"つくばみらい市","city_kana":"ツクバミライシ","town":"中平柳","town_kana":"ナカヒラヤナギ","prefecture_code":8},"2423":{"zip_code":"3002423","prefecture":"茨城県","prefecture_kana":"イバラキケン","city":"つくばみらい市","city_kana":"ツクバミライシ","town":"成瀬","town_kana":"ナルセ","prefecture_code":8},"2405":{"zip_code":"3002405","prefecture":"茨城県","prefecture_kana":"イバラキケン","city":"つくばみらい市","city_kana":"ツクバミライシ","town":"仁左衛門新田","town_kana":"ニザエモンシンデン","prefecture_code":8},"2415":{"zip_code":"3002415","prefecture":"茨城県","prefecture_kana":"イバラキケン","city":"つくばみらい市","city_kana":"ツクバミライシ","town":"西楢戸","town_kana":"ニシナラド","prefecture_code":8},"2442":{"zip_code":"3002442","prefecture":"茨城県","prefecture_kana":"イバラキケン","city":"つくばみらい市","city_kana":"ツクバミライシ","town":"西ノ台","town_kana":"ニシノダイ","prefecture_code":8},"2443":{"zip_code":"3002443","prefecture":"茨城県","prefecture_kana":"イバラキケン","city":"つくばみらい市","city_kana":"ツクバミライシ","town":"西ノ台南","town_kana":"ニシノダイミナミ","prefecture_code":8},"2421":{"zip_code":"3002421","prefecture":"茨城県","prefecture_kana":"イバラキケン","city":"つくばみらい市","city_kana":"ツクバミライシ","town":"西丸山","town_kana":"ニシマルヤマ","prefecture_code":8},"2412":{"zip_code":"3002412","prefecture":"茨城県","prefecture_kana":"イバラキケン","city":"つくばみらい市","city_kana":"ツクバミライシ","town":"日川","town_kana":"ニッカワ","prefecture_code":8},"2311":{"zip_code":"3002311","prefecture":"茨城県","prefecture_kana":"イバラキケン","city":"つくばみらい市","city_kana":"ツクバミライシ","town":"野堀","town_kana":"ノボリ","prefecture_code":8},"2313":{"zip_code":"3002313","prefecture":"茨城県","prefecture_kana":"イバラキケン","city":"つくばみらい市","city_kana":"ツクバミライシ","town":"東栗山","town_kana":"ヒガシクリヤマ","prefecture_code":8},"2416":{"zip_code":"3002416","prefecture":"茨城県","prefecture_kana":"イバラキケン","city":"つくばみらい市","city_kana":"ツクバミライシ","town":"東楢戸","town_kana":"ヒガシナラド","prefecture_code":8},"2356":{"zip_code":"3002356","prefecture":"茨城県","prefecture_kana":"イバラキケン","city":"つくばみらい市","city_kana":"ツクバミライシ","town":"奉社","town_kana":"ビシャ","prefecture_code":8},"2434":{"zip_code":"3002434","prefecture":"茨城県","prefecture_kana":"イバラキケン","city":"つくばみらい市","city_kana":"ツクバミライシ","town":"平沼","town_kana":"ヒラヌマ","prefecture_code":8},"2406":{"zip_code":"3002406","prefecture":"茨城県","prefecture_kana":"イバラキケン","city":"つくばみらい市","city_kana":"ツクバミライシ","town":"福岡","town_kana":"フクオカ","prefecture_code":8},"2341":{"zip_code":"3002341","prefecture":"茨城県","prefecture_kana":"イバラキケン","city":"つくばみらい市","city_kana":"ツクバミライシ","town":"福田","town_kana":"フクダ","prefecture_code":8},"2327":{"zip_code":"3002327","prefecture":"茨城県","prefecture_kana":"イバラキケン","city":"つくばみらい市","city_kana":"ツクバミライシ","town":"福原","town_kana":"フクワラ","prefecture_code":8},"2417":{"zip_code":"3002417","prefecture":"茨城県","prefecture_kana":"イバラキケン","city":"つくばみらい市","city_kana":"ツクバミライシ","town":"富士見ヶ丘","town_kana":"フジミガオカ","prefecture_code":8},"2347":{"zip_code":"3002347","prefecture":"茨城県","prefecture_kana":"イバラキケン","city":"つくばみらい市","city_kana":"ツクバミライシ","town":"豊体","town_kana":"ブタイ","prefecture_code":8},"2304":{"zip_code":"3002304","prefecture":"茨城県","prefecture_kana":"イバラキケン","city":"つくばみらい市","city_kana":"ツクバミライシ","town":"武兵衛新田","town_kana":"ブヘエシンデン","prefecture_code":8},"2422":{"zip_code":"3002422","prefecture":"茨城県","prefecture_kana":"イバラキケン","city":"つくばみらい市","city_kana":"ツクバミライシ","town":"古川","town_kana":"フルカワ","prefecture_code":8},"2446":{"zip_code":"3002446","prefecture":"茨城県","prefecture_kana":"イバラキケン","city":"つくばみらい市","city_kana":"ツクバミライシ","town":"細代","town_kana":"ホソシロ","prefecture_code":8},"2414":{"zip_code":"3002414","prefecture":"茨城県","prefecture_kana":"イバラキケン","city":"つくばみらい市","city_kana":"ツクバミライシ","town":"真木","town_kana":"マギ","prefecture_code":8},"2302":{"zip_code":"3002302","prefecture":"茨城県","prefecture_kana":"イバラキケン","city":"つくばみらい市","city_kana":"ツクバミライシ","town":"狸穴","town_kana":"マミアナ","prefecture_code":8},"2404":{"zip_code":"3002404","prefecture":"茨城県","prefecture_kana":"イバラキケン","city":"つくばみらい市","city_kana":"ツクバミライシ","town":"南","town_kana":"ミナミ","prefecture_code":8},"2306":{"zip_code":"3002306","prefecture":"茨城県","prefecture_kana":"イバラキケン","city":"つくばみらい市","city_kana":"ツクバミライシ","town":"南太田","town_kana":"ミナミオオタ","prefecture_code":8},"2451":{"zip_code":"3002451","prefecture":"茨城県","prefecture_kana":"イバラキケン","city":"つくばみらい市","city_kana":"ツクバミライシ","town":"箕輪","town_kana":"ミノワ","prefecture_code":8},"2426":{"zip_code":"3002426","prefecture":"茨城県","prefecture_kana":"イバラキケン","city":"つくばみらい市","city_kana":"ツクバミライシ","town":"宮戸","town_kana":"ミヤド","prefecture_code":8},"2343":{"zip_code":"3002343","prefecture":"茨城県","prefecture_kana":"イバラキケン","city":"つくばみらい市","city_kana":"ツクバミライシ","town":"狸渕","town_kana":"ムジナブチ","prefecture_code":8},"2337":{"zip_code":"3002337","prefecture":"茨城県","prefecture_kana":"イバラキケン","city":"つくばみらい市","city_kana":"ツクバミライシ","town":"谷井田","town_kana":"ヤイタ","prefecture_code":8},"2357":{"zip_code":"3002357","prefecture":"茨城県","prefecture_kana":"イバラキケン","city":"つくばみらい市","city_kana":"ツクバミライシ","town":"谷口","town_kana":"ヤグチ","prefecture_code":8},"2358":{"zip_code":"3002358","prefecture":"茨城県","prefecture_kana":"イバラキケン","city":"つくばみらい市","city_kana":"ツクバミライシ","town":"陽光台","town_kana":"ヨウコウダイ","prefecture_code":8},"0400":{"zip_code":"3000400","prefecture":"茨城県","prefecture_kana":"イバラキケン","city":"稲敷郡美浦村","city_kana":"イナシキグンミホムラ","town":"以下に掲載がない場合","town_kana":"イカニケイサイガナイバアイ","prefecture_code":8},"0424":{"zip_code":"3000424","prefecture":"茨城県","prefecture_kana":"イバラキケン","city":"稲敷郡美浦村","city_kana":"イナシキグンミホムラ","town":"受領","town_kana":"ウケリョウ","prefecture_code":8},"0409":{"zip_code":"3000409","prefecture":"茨城県","prefecture_kana":"イバラキケン","city":"稲敷郡美浦村","city_kana":"イナシキグンミホムラ","town":"牛込","town_kana":"ウシゴメ","prefecture_code":8},"0422":{"zip_code":"3000422","prefecture":"茨城県","prefecture_kana":"イバラキケン","city":"稲敷郡美浦村","city_kana":"イナシキグンミホムラ","town":"大須賀津","town_kana":"オオスカヅ","prefecture_code":8},"0411":{"zip_code":"3000411","prefecture":"茨城県","prefecture_kana":"イバラキケン","city":"稲敷郡美浦村","city_kana":"イナシキグンミホムラ","town":"太田","town_kana":"オオタ","prefecture_code":8},"0416":{"zip_code":"3000416","prefecture":"茨城県","prefecture_kana":"イバラキケン","city":"稲敷郡美浦村","city_kana":"イナシキグンミホムラ","town":"大塚","town_kana":"オオツカ","prefecture_code":8},"0413":{"zip_code":"3000413","prefecture":"茨城県","prefecture_kana":"イバラキケン","city":"稲敷郡美浦村","city_kana":"イナシキグンミホムラ","town":"大谷","town_kana":"オオヤ","prefecture_code":8},"0402":{"zip_code":"3000402","prefecture":"茨城県","prefecture_kana":"イバラキケン","city":"稲敷郡美浦村","city_kana":"イナシキグンミホムラ","town":"大山","town_kana":"オオヤマ","prefecture_code":8},"0425":{"zip_code":"3000425","prefecture":"茨城県","prefecture_kana":"イバラキケン","city":"稲敷郡美浦村","city_kana":"イナシキグンミホムラ","town":"興津","town_kana":"オキツ","prefecture_code":8},"0433":{"zip_code":"3000433","prefecture":"茨城県","prefecture_kana":"イバラキケン","city":"稲敷郡美浦村","city_kana":"イナシキグンミホムラ","town":"木","town_kana":"キ","prefecture_code":8},"0421":{"zip_code":"3000421","prefecture":"茨城県","prefecture_kana":"イバラキケン","city":"稲敷郡美浦村","city_kana":"イナシキグンミホムラ","town":"木原","town_kana":"キハラ","prefecture_code":8},"0420":{"zip_code":"3000420","prefecture":"茨城県","prefecture_kana":"イバラキケン","city":"稲敷郡美浦村","city_kana":"イナシキグンミホムラ","town":"郷中","town_kana":"ゴウナカ","prefecture_code":8},"0419":{"zip_code":"3000419","prefecture":"茨城県","prefecture_kana":"イバラキケン","city":"稲敷郡美浦村","city_kana":"イナシキグンミホムラ","town":"山王","town_kana":"サンノウ","prefecture_code":8},"0414":{"zip_code":"3000414","prefecture":"茨城県","prefecture_kana":"イバラキケン","city":"稲敷郡美浦村","city_kana":"イナシキグンミホムラ","town":"信太","town_kana":"シダ","prefecture_code":8},"0432":{"zip_code":"3000432","prefecture":"茨城県","prefecture_kana":"イバラキケン","city":"稲敷郡美浦村","city_kana":"イナシキグンミホムラ","town":"定光","town_kana":"ジョウコウ","prefecture_code":8},"0404":{"zip_code":"3000404","prefecture":"茨城県","prefecture_kana":"イバラキケン","city":"稲敷郡美浦村","city_kana":"イナシキグンミホムラ","town":"土浦","town_kana":"ツチウラ","prefecture_code":8},"0426":{"zip_code":"3000426","prefecture":"茨城県","prefecture_kana":"イバラキケン","city":"稲敷郡美浦村","city_kana":"イナシキグンミホムラ","town":"土屋","town_kana":"ツチヤ","prefecture_code":8},"0435":{"zip_code":"3000435","prefecture":"茨城県","prefecture_kana":"イバラキケン","city":"稲敷郡美浦村","city_kana":"イナシキグンミホムラ","town":"中野内","town_kana":"ナカノウチ","prefecture_code":8},"0408":{"zip_code":"3000408","prefecture":"茨城県","prefecture_kana":"イバラキケン","city":"稲敷郡美浦村","city_kana":"イナシキグンミホムラ","town":"根火","town_kana":"ネビ","prefecture_code":8},"0436":{"zip_code":"3000436","prefecture":"茨城県","prefecture_kana":"イバラキケン","city":"稲敷郡美浦村","city_kana":"イナシキグンミホムラ","town":"根本","town_kana":"ネモト","prefecture_code":8},"0418":{"zip_code":"3000418","prefecture":"茨城県","prefecture_kana":"イバラキケン","city":"稲敷郡美浦村","city_kana":"イナシキグンミホムラ","town":"花見塚","town_kana":"ハナミヅカ","prefecture_code":8},"0427":{"zip_code":"3000427","prefecture":"茨城県","prefecture_kana":"イバラキケン","city":"稲敷郡美浦村","city_kana":"イナシキグンミホムラ","town":"布佐","town_kana":"フサ","prefecture_code":8},"0428":{"zip_code":"3000428","prefecture":"茨城県","prefecture_kana":"イバラキケン","city":"稲敷郡美浦村","city_kana":"イナシキグンミホムラ","town":"舟子","town_kana":"フナコ","prefecture_code":8},"0434":{"zip_code":"3000434","prefecture":"茨城県","prefecture_kana":"イバラキケン","city":"稲敷郡美浦村","city_kana":"イナシキグンミホムラ","town":"堀田","town_kana":"ホッタ","prefecture_code":8},"0401":{"zip_code":"3000401","prefecture":"茨城県","prefecture_kana":"イバラキケン","city":"稲敷郡美浦村","city_kana":"イナシキグンミホムラ","town":"馬掛","town_kana":"マガキ","prefecture_code":8},"0405":{"zip_code":"3000405","prefecture":"茨城県","prefecture_kana":"イバラキケン","city":"稲敷郡美浦村","city_kana":"イナシキグンミホムラ","town":"間野","town_kana":"マノ","prefecture_code":8},"0403":{"zip_code":"3000403","prefecture":"茨城県","prefecture_kana":"イバラキケン","city":"稲敷郡美浦村","city_kana":"イナシキグンミホムラ","town":"馬見山","town_kana":"マミヤマ","prefecture_code":8},"0415":{"zip_code":"3000415","prefecture":"茨城県","prefecture_kana":"イバラキケン","city":"稲敷郡美浦村","city_kana":"イナシキグンミホムラ","town":"美駒","town_kana":"ミコマ","prefecture_code":8},"0410":{"zip_code":"3000410","prefecture":"茨城県","prefecture_kana":"イバラキケン","city":"稲敷郡美浦村","city_kana":"イナシキグンミホムラ","town":"みどり台","town_kana":"ミドリダイ","prefecture_code":8},"0437":{"zip_code":"3000437","prefecture":"茨城県","prefecture_kana":"イバラキケン","city":"稲敷郡美浦村","city_kana":"イナシキグンミホムラ","town":"見晴","town_kana":"ミハル","prefecture_code":8},"0412":{"zip_code":"3000412","prefecture":"茨城県","prefecture_kana":"イバラキケン","city":"稲敷郡美浦村","city_kana":"イナシキグンミホムラ","town":"宮地","town_kana":"ミヤジ","prefecture_code":8},"0431":{"zip_code":"3000431","prefecture":"茨城県","prefecture_kana":"イバラキケン","city":"稲敷郡美浦村","city_kana":"イナシキグンミホムラ","town":"本橋","town_kana":"モトハシ","prefecture_code":8},"0423":{"zip_code":"3000423","prefecture":"茨城県","prefecture_kana":"イバラキケン","city":"稲敷郡美浦村","city_kana":"イナシキグンミホムラ","town":"茂呂","town_kana":"モロ","prefecture_code":8},"0407":{"zip_code":"3000407","prefecture":"茨城県","prefecture_kana":"イバラキケン","city":"稲敷郡美浦村","city_kana":"イナシキグンミホムラ","town":"八井田","town_kana":"ヤイタ","prefecture_code":8},"0417":{"zip_code":"3000417","prefecture":"茨城県","prefecture_kana":"イバラキケン","city":"稲敷郡美浦村","city_kana":"イナシキグンミホムラ","town":"谷中","town_kana":"ヤナカ","prefecture_code":8},"0406":{"zip_code":"3000406","prefecture":"茨城県","prefecture_kana":"イバラキケン","city":"稲敷郡美浦村","city_kana":"イナシキグンミホムラ","town":"山内","town_kana":"ヤマウチ","prefecture_code":8},"0300":{"zip_code":"3000300","prefecture":"茨城県","prefecture_kana":"イバラキケン","city":"稲敷郡阿見町","city_kana":"イナシキグンアミマチ","town":"以下に掲載がない場合","town_kana":"イカニケイサイガナイバアイ","prefecture_code":8},"0301":{"zip_code":"3000301","prefecture":"茨城県","prefecture_kana":"イバラキケン","city":"稲敷郡阿見町","city_kana":"イナシキグンアミマチ","town":"青宿","town_kana":"アオヤド","prefecture_code":8},"0306":{"zip_code":"3000306","prefecture":"茨城県","prefecture_kana":"イバラキケン","city":"稲敷郡阿見町","city_kana":"イナシキグンアミマチ","town":"曙","town_kana":"アケボノ","prefecture_code":8},"0331":{"zip_code":"3000331","prefecture":"茨城県","prefecture_kana":"イバラキケン","city":"稲敷郡阿見町","city_kana":"イナシキグンアミマチ","town":"阿見","town_kana":"アミ","prefecture_code":8},"1151":{"zip_code":"3001151","prefecture":"茨城県","prefecture_kana":"イバラキケン","city":"稲敷郡阿見町","city_kana":"イナシキグンアミマチ","town":"荒川沖","town_kana":"アラカワオキ","prefecture_code":8},"1152":{"zip_code":"3001152","prefecture":"茨城県","prefecture_kana":"イバラキケン","city":"稲敷郡阿見町","city_kana":"イナシキグンアミマチ","town":"荒川本郷","town_kana":"アラカワホンゴウ","prefecture_code":8},"0324":{"zip_code":"3000324","prefecture":"茨城県","prefecture_kana":"イバラキケン","city":"稲敷郡阿見町","city_kana":"イナシキグンアミマチ","town":"飯倉","town_kana":"イイグラ","prefecture_code":8},"0313":{"zip_code":"3000313","prefecture":"茨城県","prefecture_kana":"イバラキケン","city":"稲敷郡阿見町","city_kana":"イナシキグンアミマチ","town":"石川","town_kana":"イシカワ","prefecture_code":8},"0341":{"zip_code":"3000341","prefecture":"茨城県","prefecture_kana":"イバラキケン","city":"稲敷郡阿見町","city_kana":"イナシキグンアミマチ","town":"うずら野","town_kana":"ウズラノ","prefecture_code":8},"0323":{"zip_code":"3000323","prefecture":"茨城県","prefecture_kana":"イバラキケン","city":"稲敷郡阿見町","city_kana":"イナシキグンアミマチ","town":"大形","town_kana":"オオガタ","prefecture_code":8},"0303":{"zip_code":"3000303","prefecture":"茨城県","prefecture_kana":"イバラキケン","city":"稲敷郡阿見町","city_kana":"イナシキグンアミマチ","town":"大室","town_kana":"オオムロ","prefecture_code":8},"0335":{"zip_code":"3000335","prefecture":"茨城県","prefecture_kana":"イバラキケン","city":"稲敷郡阿見町","city_kana":"イナシキグンアミマチ","town":"岡崎","town_kana":"オカザキ","prefecture_code":8},"0314":{"zip_code":"3000314","prefecture":"茨城県","prefecture_kana":"イバラキケン","city":"稲敷郡阿見町","city_kana":"イナシキグンアミマチ","town":"追原","town_kana":"オッパラ","prefecture_code":8},"0304":{"zip_code":"3000304","prefecture":"茨城県","prefecture_kana":"イバラキケン","city":"稲敷郡阿見町","city_kana":"イナシキグンアミマチ","town":"掛馬","town_kana":"カケウマ","prefecture_code":8},"0315":{"zip_code":"3000315","prefecture":"茨城県","prefecture_kana":"イバラキケン","city":"稲敷郡阿見町","city_kana":"イナシキグンアミマチ","town":"香澄の里","town_kana":"カスミノサト","prefecture_code":8},"1154":{"zip_code":"3001154","prefecture":"茨城県","prefecture_kana":"イバラキケン","city":"稲敷郡阿見町","city_kana":"イナシキグンアミマチ","town":"上長","town_kana":"カミナガ","prefecture_code":8},"0322":{"zip_code":"3000322","prefecture":"茨城県","prefecture_kana":"イバラキケン","city":"稲敷郡阿見町","city_kana":"イナシキグンアミマチ","town":"君島","town_kana":"キミジマ","prefecture_code":8},"1157":{"zip_code":"3001157","prefecture":"茨城県","prefecture_kana":"イバラキケン","city":"稲敷郡阿見町","city_kana":"イナシキグンアミマチ","town":"小池","town_kana":"コイケ","prefecture_code":8},"0311":{"zip_code":"3000311","prefecture":"茨城県","prefecture_kana":"イバラキケン","city":"稲敷郡阿見町","city_kana":"イナシキグンアミマチ","town":"島津","town_kana":"シマヅ","prefecture_code":8},"1153":{"zip_code":"3001153","prefecture":"茨城県","prefecture_kana":"イバラキケン","city":"稲敷郡阿見町","city_kana":"イナシキグンアミマチ","town":"実穀","town_kana":"ジツコク","prefecture_code":8},"0325":{"zip_code":"3000325","prefecture":"茨城県","prefecture_kana":"イバラキケン","city":"稲敷郡阿見町","city_kana":"イナシキグンアミマチ","town":"上条","town_kana":"ジョウジョウ","prefecture_code":8},"0334":{"zip_code":"3000334","prefecture":"茨城県","prefecture_kana":"イバラキケン","city":"稲敷郡阿見町","city_kana":"イナシキグンアミマチ","town":"鈴木","town_kana":"スズキ","prefecture_code":8},"1158":{"zip_code":"3001158","prefecture":"茨城県","prefecture_kana":"イバラキケン","city":"稲敷郡阿見町","city_kana":"イナシキグンアミマチ","town":"住吉","town_kana":"スミヨシ","prefecture_code":8},"0305":{"zip_code":"3000305","prefecture":"茨城県","prefecture_kana":"イバラキケン","city":"稲敷郡阿見町","city_kana":"イナシキグンアミマチ","town":"竹来","town_kana":"タカク","prefecture_code":8},"0332":{"zip_code":"3000332","prefecture":"茨城県","prefecture_kana":"イバラキケン","city":"稲敷郡阿見町","city_kana":"イナシキグンアミマチ","town":"中央","town_kana":"チュウオウ","prefecture_code":8},"0337":{"zip_code":"3000337","prefecture":"茨城県","prefecture_kana":"イバラキケン","city":"稲敷郡阿見町","city_kana":"イナシキグンアミマチ","town":"中郷","town_kana":"ナカゴウ","prefecture_code":8},"0312":{"zip_code":"3000312","prefecture":"茨城県","prefecture_kana":"イバラキケン","city":"稲敷郡阿見町","city_kana":"イナシキグンアミマチ","town":"南平台","town_kana":"ナンペイダイ","prefecture_code":8},"0336":{"zip_code":"3000336","prefecture":"茨城県","prefecture_kana":"イバラキケン","city":"稲敷郡阿見町","city_kana":"イナシキグンアミマチ","town":"西郷","town_kana":"ニシゴウ","prefecture_code":8},"0302":{"zip_code":"3000302","prefecture":"茨城県","prefecture_kana":"イバラキケン","city":"稲敷郡阿見町","city_kana":"イナシキグンアミマチ","town":"廻戸","town_kana":"ハサマド","prefecture_code":8},"0321":{"zip_code":"3000321","prefecture":"茨城県","prefecture_kana":"イバラキケン","city":"稲敷郡阿見町","city_kana":"イナシキグンアミマチ","town":"塙","town_kana":"ハナワ","prefecture_code":8},"1156":{"zip_code":"3001156","prefecture":"茨城県","prefecture_kana":"イバラキケン","city":"稲敷郡阿見町","city_kana":"イナシキグンアミマチ","town":"福田","town_kana":"フクダ","prefecture_code":8},"0326":{"zip_code":"3000326","prefecture":"茨城県","prefecture_kana":"イバラキケン","city":"稲敷郡阿見町","city_kana":"イナシキグンアミマチ","town":"星の里","town_kana":"ホシノサト","prefecture_code":8},"1159":{"zip_code":"3001159","prefecture":"茨城県","prefecture_kana":"イバラキケン","city":"稲敷郡阿見町","city_kana":"イナシキグンアミマチ","town":"本郷","town_kana":"ホンゴウ","prefecture_code":8},"1155":{"zip_code":"3001155","prefecture":"茨城県","prefecture_kana":"イバラキケン","city":"稲敷郡阿見町","city_kana":"イナシキグンアミマチ","town":"吉原","town_kana":"ヨシワラ","prefecture_code":8},"1161":{"zip_code":"3001161","prefecture":"茨城県","prefecture_kana":"イバラキケン","city":"稲敷郡阿見町","city_kana":"イナシキグンアミマチ","town":"よしわら","town_kana":"ヨシワラ","prefecture_code":8},"0333":{"zip_code":"3000333","prefecture":"茨城県","prefecture_kana":"イバラキケン","city":"稲敷郡阿見町","city_kana":"イナシキグンアミマチ","town":"若栗","town_kana":"ワカグリ","prefecture_code":8},"1300":{"zip_code":"3001300","prefecture":"茨城県","prefecture_kana":"イバラキケン","city":"稲敷郡河内町","city_kana":"イナシキグンカワチマチ","town":"以下に掲載がない場合","town_kana":"イカニケイサイガナイバアイ","prefecture_code":8},"1404":{"zip_code":"3001404","prefecture":"茨城県","prefecture_kana":"イバラキケン","city":"稲敷郡河内町","city_kana":"イナシキグンカワチマチ","town":"片巻","town_kana":"カタマキ","prefecture_code":8},"1403":{"zip_code":"3001403","prefecture":"茨城県","prefecture_kana":"イバラキケン","city":"稲敷郡河内町","city_kana":"イナシキグンカワチマチ","town":"金江津","town_kana":"カナエツ","prefecture_code":8},"1324":{"zip_code":"3001324","prefecture":"茨城県","prefecture_kana":"イバラキケン","city":"稲敷郡河内町","city_kana":"イナシキグンカワチマチ","town":"源清田","town_kana":"ゲンセイダ","prefecture_code":8},"1332":{"zip_code":"3001332","prefecture":"茨城県","prefecture_kana":"イバラキケン","city":"稲敷郡河内町","city_kana":"イナシキグンカワチマチ","town":"幸谷","town_kana":"コウヤ","prefecture_code":8},"1322":{"zip_code":"3001322","prefecture":"茨城県","prefecture_kana":"イバラキケン","city":"稲敷郡河内町","city_kana":"イナシキグンカワチマチ","town":"古河林","town_kana":"コガバヤシ","prefecture_code":8},"1334":{"zip_code":"3001334","prefecture":"茨城県","prefecture_kana":"イバラキケン","city":"稲敷郡河内町","city_kana":"イナシキグンカワチマチ","town":"小林町歩","town_kana":"コバヤシチョウブ","prefecture_code":8},"1327":{"zip_code":"3001327","prefecture":"茨城県","prefecture_kana":"イバラキケン","city":"稲敷郡河内町","city_kana":"イナシキグンカワチマチ","town":"猿島","town_kana":"サシマ","prefecture_code":8},"1406":{"zip_code":"3001406","prefecture":"茨城県","prefecture_kana":"イバラキケン","city":"稲敷郡河内町","city_kana":"イナシキグンカワチマチ","town":"下加納","town_kana":"シモカノウ","prefecture_code":8},"1314":{"zip_code":"3001314","prefecture":"茨城県","prefecture_kana":"イバラキケン","city":"稲敷郡河内町","city_kana":"イナシキグンカワチマチ","town":"下町歩","town_kana":"シモチョウブ","prefecture_code":8},"1401":{"zip_code":"3001401","prefecture":"茨城県","prefecture_kana":"イバラキケン","city":"稲敷郡河内町","city_kana":"イナシキグンカワチマチ","town":"十三間戸","town_kana":"ジュウサンマド","prefecture_code":8},"1315":{"zip_code":"3001315","prefecture":"茨城県","prefecture_kana":"イバラキケン","city":"稲敷郡河内町","city_kana":"イナシキグンカワチマチ","town":"十里","town_kana":"ジュウリ","prefecture_code":8},"1311":{"zip_code":"3001311","prefecture":"茨城県","prefecture_kana":"イバラキケン","city":"稲敷郡河内町","city_kana":"イナシキグンカワチマチ","town":"庄布川","town_kana":"ショウブカワ","prefecture_code":8},"1333":{"zip_code":"3001333","prefecture":"茨城県","prefecture_kana":"イバラキケン","city":"稲敷郡河内町","city_kana":"イナシキグンカワチマチ","town":"角崎町歩","town_kana":"スミザキチョウブ","prefecture_code":8},"1336":{"zip_code":"3001336","prefecture":"茨城県","prefecture_kana":"イバラキケン","city":"稲敷郡河内町","city_kana":"イナシキグンカワチマチ","town":"大徳鍋子新田","town_kana":"ダイトクナベコシンデン","prefecture_code":8},"1313":{"zip_code":"3001313","prefecture":"茨城県","prefecture_kana":"イバラキケン","city":"稲敷郡河内町","city_kana":"イナシキグンカワチマチ","town":"田川（４９０５−１）","town_kana":"タガワ(4905-1)","prefecture_code":8},"1405":{"zip_code":"3001405","prefecture":"茨城県","prefecture_kana":"イバラキケン","city":"稲敷郡河内町","city_kana":"イナシキグンカワチマチ","town":"田川（その他）","town_kana":"タガワ(ソノタ)","prefecture_code":8},"1323":{"zip_code":"3001323","prefecture":"茨城県","prefecture_kana":"イバラキケン","city":"稲敷郡河内町","city_kana":"イナシキグンカワチマチ","town":"手栗","town_kana":"テグリ","prefecture_code":8},"1312":{"zip_code":"3001312","prefecture":"茨城県","prefecture_kana":"イバラキケン","city":"稲敷郡河内町","city_kana":"イナシキグンカワチマチ","town":"長竿","town_kana":"ナガサオ","prefecture_code":8},"1321":{"zip_code":"3001321","prefecture":"茨城県","prefecture_kana":"イバラキケン","city":"稲敷郡河内町","city_kana":"イナシキグンカワチマチ","town":"羽子騎","town_kana":"ハネキ","prefecture_code":8},"1402":{"zip_code":"3001402","prefecture":"茨城県","prefecture_kana":"イバラキケン","city":"稲敷郡河内町","city_kana":"イナシキグンカワチマチ","town":"平川","town_kana":"ヒラカワ","prefecture_code":8},"1316":{"zip_code":"3001316","prefecture":"茨城県","prefecture_kana":"イバラキケン","city":"稲敷郡河内町","city_kana":"イナシキグンカワチマチ","town":"布鎌","town_kana":"フカマ","prefecture_code":8},"1325":{"zip_code":"3001325","prefecture":"茨城県","prefecture_kana":"イバラキケン","city":"稲敷郡河内町","city_kana":"イナシキグンカワチマチ","town":"平三郎","town_kana":"ヘイザブロウ","prefecture_code":8},"1331":{"zip_code":"3001331","prefecture":"茨城県","prefecture_kana":"イバラキケン","city":"稲敷郡河内町","city_kana":"イナシキグンカワチマチ","town":"生板","town_kana":"マナイタ","prefecture_code":8},"1335":{"zip_code":"3001335","prefecture":"茨城県","prefecture_kana":"イバラキケン","city":"稲敷郡河内町","city_kana":"イナシキグンカワチマチ","town":"生板鍋子新田","town_kana":"マナイタナベコシンデン","prefecture_code":8},"1326":{"zip_code":"3001326","prefecture":"茨城県","prefecture_kana":"イバラキケン","city":"稲敷郡河内町","city_kana":"イナシキグンカワチマチ","town":"宮淵","town_kana":"ミヤブチ","prefecture_code":8},"1337":{"zip_code":"3001337","prefecture":"茨城県","prefecture_kana":"イバラキケン","city":"稲敷郡河内町","city_kana":"イナシキグンカワチマチ","town":"竜ケ崎町歩","town_kana":"リュウガサキチョウブ","prefecture_code":8},"3500":{"zip_code":"3003500","prefecture":"茨城県","prefecture_kana":"イバラキケン","city":"結城郡八千代町","city_kana":"ユウキグンヤチヨマチ","town":"以下に掲載がない場合","town_kana":"イカニケイサイガナイバアイ","prefecture_code":8},"3555":{"zip_code":"3003555","prefecture":"茨城県","prefecture_kana":"イバラキケン","city":"結城郡八千代町","city_kana":"ユウキグンヤチヨマチ","town":"芦ケ谷","town_kana":"アシガヤ","prefecture_code":8},"3556":{"zip_code":"3003556","prefecture":"茨城県","prefecture_kana":"イバラキケン","city":"結城郡八千代町","city_kana":"ユウキグンヤチヨマチ","town":"芦ケ谷新田","town_kana":"アシガヤシンデン","prefecture_code":8},"3519":{"zip_code":"3003519","prefecture":"茨城県","prefecture_kana":"イバラキケン","city":"結城郡八千代町","city_kana":"ユウキグンヤチヨマチ","town":"新井","town_kana":"アライ","prefecture_code":8},"3535":{"zip_code":"3003535","prefecture":"茨城県","prefecture_kana":"イバラキケン","city":"結城郡八千代町","city_kana":"ユウキグンヤチヨマチ","town":"粟野","town_kana":"アワノ","prefecture_code":8},"3562":{"zip_code":"3003562","prefecture":"茨城県","prefecture_kana":"イバラキケン","city":"結城郡八千代町","city_kana":"ユウキグンヤチヨマチ","town":"磯","town_kana":"イソ","prefecture_code":8},"3531":{"zip_code":"3003531","prefecture":"茨城県","prefecture_kana":"イバラキケン","city":"結城郡八千代町","city_kana":"ユウキグンヤチヨマチ","town":"今里","town_kana":"イマザト","prefecture_code":8},"3514":{"zip_code":"3003514","prefecture":"茨城県","prefecture_kana":"イバラキケン","city":"結城郡八千代町","city_kana":"ユウキグンヤチヨマチ","town":"大里","town_kana":"オオサト","prefecture_code":8},"3534":{"zip_code":"3003534","prefecture":"茨城県","prefecture_kana":"イバラキケン","city":"結城郡八千代町","city_kana":"ユウキグンヤチヨマチ","town":"太田","town_kana":"オオタ","prefecture_code":8},"3571":{"zip_code":"3003571","prefecture":"茨城県","prefecture_kana":"イバラキケン","city":"結城郡八千代町","city_kana":"ユウキグンヤチヨマチ","town":"大戸新田","town_kana":"オオドシンデン","prefecture_code":8},"3552":{"zip_code":"3003552","prefecture":"茨城県","prefecture_kana":"イバラキケン","city":"結城郡八千代町","city_kana":"ユウキグンヤチヨマチ","town":"大間木","town_kana":"オオマギ","prefecture_code":8},"3515":{"zip_code":"3003515","prefecture":"茨城県","prefecture_kana":"イバラキケン","city":"結城郡八千代町","city_kana":"ユウキグンヤチヨマチ","town":"大渡戸","town_kana":"オオワダド","prefecture_code":8},"3554":{"zip_code":"3003554","prefecture":"茨城県","prefecture_kana":"イバラキケン","city":"結城郡八千代町","city_kana":"ユウキグンヤチヨマチ","town":"尾崎","town_kana":"オサキ","prefecture_code":8},"3526":{"zip_code":"3003526","prefecture":"茨城県","prefecture_kana":"イバラキケン","city":"結城郡八千代町","city_kana":"ユウキグンヤチヨマチ","town":"貝谷","town_kana":"カイヤ","prefecture_code":8},"3503":{"zip_code":"3003503","prefecture":"茨城県","prefecture_kana":"イバラキケン","city":"結城郡八千代町","city_kana":"ユウキグンヤチヨマチ","town":"粕礼","town_kana":"カスレイ","prefecture_code":8},"3533":{"zip_code":"3003533","prefecture":"茨城県","prefecture_kana":"イバラキケン","city":"結城郡八千代町","city_kana":"ユウキグンヤチヨマチ","town":"片角","town_kana":"カタカク","prefecture_code":8},"3537":{"zip_code":"3003537","prefecture":"茨城県","prefecture_kana":"イバラキケン","city":"結城郡八千代町","city_kana":"ユウキグンヤチヨマチ","town":"苅橋","town_kana":"カリハシ","prefecture_code":8},"3521":{"zip_code":"3003521","prefecture":"茨城県","prefecture_kana":"イバラキケン","city":"結城郡八千代町","city_kana":"ユウキグンヤチヨマチ","town":"川尻","town_kana":"カワジリ","prefecture_code":8},"3513":{"zip_code":"3003513","prefecture":"茨城県","prefecture_kana":"イバラキケン","city":"結城郡八千代町","city_kana":"ユウキグンヤチヨマチ","town":"久下田","town_kana":"クゲタ","prefecture_code":8},"3551":{"zip_code":"3003551","prefecture":"茨城県","prefecture_kana":"イバラキケン","city":"結城郡八千代町","city_kana":"ユウキグンヤチヨマチ","town":"栗山","town_kana":"クリヤマ","prefecture_code":8},"3512":{"zip_code":"3003512","prefecture":"茨城県","prefecture_kana":"イバラキケン","city":"結城郡八千代町","city_kana":"ユウキグンヤチヨマチ","town":"小屋","town_kana":"コヤ","prefecture_code":8},"3505":{"zip_code":"3003505","prefecture":"茨城県","prefecture_kana":"イバラキケン","city":"結城郡八千代町","city_kana":"ユウキグンヤチヨマチ","town":"佐野","town_kana":"サノ","prefecture_code":8},"3501":{"zip_code":"3003501","prefecture":"茨城県","prefecture_kana":"イバラキケン","city":"結城郡八千代町","city_kana":"ユウキグンヤチヨマチ","town":"塩本","town_kana":"シオモト","prefecture_code":8},"3502":{"zip_code":"3003502","prefecture":"茨城県","prefecture_kana":"イバラキケン","city":"結城郡八千代町","city_kana":"ユウキグンヤチヨマチ","town":"下山川","town_kana":"シモヤマカワ","prefecture_code":8},"3541":{"zip_code":"3003541","prefecture":"茨城県","prefecture_kana":"イバラキケン","city":"結城郡八千代町","city_kana":"ユウキグンヤチヨマチ","town":"新地","town_kana":"シンチ","prefecture_code":8},"3543":{"zip_code":"3003543","prefecture":"茨城県","prefecture_kana":"イバラキケン","city":"結城郡八千代町","city_kana":"ユウキグンヤチヨマチ","town":"新地新田","town_kana":"シンチシンデン","prefecture_code":8},"3572":{"zip_code":"3003572","prefecture":"茨城県","prefecture_kana":"イバラキケン","city":"結城郡八千代町","city_kana":"ユウキグンヤチヨマチ","town":"菅谷","town_kana":"スゲノヤ","prefecture_code":8},"3511":{"zip_code":"3003511","prefecture":"茨城県","prefecture_kana":"イバラキケン","city":"結城郡八千代町","city_kana":"ユウキグンヤチヨマチ","town":"瀬戸井","town_kana":"セトイ","prefecture_code":8},"3516":{"zip_code":"3003516","prefecture":"茨城県","prefecture_kana":"イバラキケン","city":"結城郡八千代町","city_kana":"ユウキグンヤチヨマチ","town":"高崎","town_kana":"タカサキ","prefecture_code":8},"3517":{"zip_code":"3003517","prefecture":"茨城県","prefecture_kana":"イバラキケン","city":"結城郡八千代町","city_kana":"ユウキグンヤチヨマチ","town":"坪井","town_kana":"ツボイ","prefecture_code":8},"3536":{"zip_code":"3003536","prefecture":"茨城県","prefecture_kana":"イバラキケン","city":"結城郡八千代町","city_kana":"ユウキグンヤチヨマチ","town":"中野","town_kana":"ナカノ","prefecture_code":8},"3506":{"zip_code":"3003506","prefecture":"茨城県","prefecture_kana":"イバラキケン","city":"結城郡八千代町","city_kana":"ユウキグンヤチヨマチ","town":"成田","town_kana":"ナリタ","prefecture_code":8},"3539":{"zip_code":"3003539","prefecture":"茨城県","prefecture_kana":"イバラキケン","city":"結城郡八千代町","city_kana":"ユウキグンヤチヨマチ","town":"仁江戸","town_kana":"ニエド","prefecture_code":8},"3504":{"zip_code":"3003504","prefecture":"茨城県","prefecture_kana":"イバラキケン","city":"結城郡八千代町","city_kana":"ユウキグンヤチヨマチ","town":"西大山","town_kana":"ニシオオヤマ","prefecture_code":8},"3525":{"zip_code":"3003525","prefecture":"茨城県","prefecture_kana":"イバラキケン","city":"結城郡八千代町","city_kana":"ユウキグンヤチヨマチ","town":"沼森","town_kana":"ヌマモリ","prefecture_code":8},"3518":{"zip_code":"3003518","prefecture":"茨城県","prefecture_kana":"イバラキケン","city":"結城郡八千代町","city_kana":"ユウキグンヤチヨマチ","town":"野爪","town_kana":"ノツメ","prefecture_code":8},"3523":{"zip_code":"3003523","prefecture":"茨城県","prefecture_kana":"イバラキケン","city":"結城郡八千代町","city_kana":"ユウキグンヤチヨマチ","town":"八町","town_kana":"ハッチョウ","prefecture_code":8},"3538":{"zip_code":"3003538","prefecture":"茨城県","prefecture_kana":"イバラキケン","city":"結城郡八千代町","city_kana":"ユウキグンヤチヨマチ","town":"東大山","town_kana":"ヒガシオオヤマ","prefecture_code":8},"3527":{"zip_code":"3003527","prefecture":"茨城県","prefecture_kana":"イバラキケン","city":"結城郡八千代町","city_kana":"ユウキグンヤチヨマチ","town":"東原","town_kana":"ヒガシハラ","prefecture_code":8},"3545":{"zip_code":"3003545","prefecture":"茨城県","prefecture_kana":"イバラキケン","city":"結城郡八千代町","city_kana":"ユウキグンヤチヨマチ","town":"東蕗田","town_kana":"ヒガシフキダ","prefecture_code":8},"3524":{"zip_code":"3003524","prefecture":"茨城県","prefecture_kana":"イバラキケン","city":"結城郡八千代町","city_kana":"ユウキグンヤチヨマチ","town":"兵庫","town_kana":"ヒョウゴ","prefecture_code":8},"3561":{"zip_code":"3003561","prefecture":"茨城県","prefecture_kana":"イバラキケン","city":"結城郡八千代町","city_kana":"ユウキグンヤチヨマチ","town":"平塚","town_kana":"ヒラツカ","prefecture_code":8},"3553":{"zip_code":"3003553","prefecture":"茨城県","prefecture_kana":"イバラキケン","city":"結城郡八千代町","city_kana":"ユウキグンヤチヨマチ","town":"蕗田","town_kana":"フキダ","prefecture_code":8},"3542":{"zip_code":"3003542","prefecture":"茨城県","prefecture_kana":"イバラキケン","city":"結城郡八千代町","city_kana":"ユウキグンヤチヨマチ","town":"福岡","town_kana":"フクオカ","prefecture_code":8},"3522":{"zip_code":"3003522","prefecture":"茨城県","prefecture_kana":"イバラキケン","city":"結城郡八千代町","city_kana":"ユウキグンヤチヨマチ","town":"袋","town_kana":"フクロ","prefecture_code":8},"3532":{"zip_code":"3003532","prefecture":"茨城県","prefecture_kana":"イバラキケン","city":"結城郡八千代町","city_kana":"ユウキグンヤチヨマチ","town":"本郷","town_kana":"ホンゴウ","prefecture_code":8},"3565":{"zip_code":"3003565","prefecture":"茨城県","prefecture_kana":"イバラキケン","city":"結城郡八千代町","city_kana":"ユウキグンヤチヨマチ","town":"松本","town_kana":"マツモト","prefecture_code":8},"3564":{"zip_code":"3003564","prefecture":"茨城県","prefecture_kana":"イバラキケン","city":"結城郡八千代町","city_kana":"ユウキグンヤチヨマチ","town":"水口","town_kana":"ミノクチ","prefecture_code":8},"3563":{"zip_code":"3003563","prefecture":"茨城県","prefecture_kana":"イバラキケン","city":"結城郡八千代町","city_kana":"ユウキグンヤチヨマチ","town":"村貫","town_kana":"ムラヌキ","prefecture_code":8},"3544":{"zip_code":"3003544","prefecture":"茨城県","prefecture_kana":"イバラキケン","city":"結城郡八千代町","city_kana":"ユウキグンヤチヨマチ","town":"若","town_kana":"ワカ","prefecture_code":8},"1600":{"zip_code":"3001600","prefecture":"茨城県","prefecture_kana":"イバラキケン","city":"北相馬郡利根町","city_kana":"キタソウマグントネマチ","town":"以下に掲載がない場合","town_kana":"イカニケイサイガナイバアイ","prefecture_code":8},"1603":{"zip_code":"3001603","prefecture":"茨城県","prefecture_kana":"イバラキケン","city":"北相馬郡利根町","city_kana":"キタソウマグントネマチ","town":"奥山","town_kana":"オクヤマ","prefecture_code":8},"1634":{"zip_code":"3001634","prefecture":"茨城県","prefecture_kana":"イバラキケン","city":"北相馬郡利根町","city_kana":"キタソウマグントネマチ","town":"押付新田","town_kana":"オシツケシンデン","prefecture_code":8},"1602":{"zip_code":"3001602","prefecture":"茨城県","prefecture_kana":"イバラキケン","city":"北相馬郡利根町","city_kana":"キタソウマグントネマチ","town":"押戸","town_kana":"オシド","prefecture_code":8},"1612":{"zip_code":"3001612","prefecture":"茨城県","prefecture_kana":"イバラキケン","city":"北相馬郡利根町","city_kana":"キタソウマグントネマチ","town":"加納新田","town_kana":"カノウシンデン","prefecture_code":8},"1635":{"zip_code":"3001635","prefecture":"茨城県","prefecture_kana":"イバラキケン","city":"北相馬郡利根町","city_kana":"キタソウマグントネマチ","town":"上曽根","town_kana":"カミゾネ","prefecture_code":8},"1626":{"zip_code":"3001626","prefecture":"茨城県","prefecture_kana":"イバラキケン","city":"北相馬郡利根町","city_kana":"キタソウマグントネマチ","town":"四季の丘","town_kana":"シキノオカ","prefecture_code":8},"1633":{"zip_code":"3001633","prefecture":"茨城県","prefecture_kana":"イバラキケン","city":"北相馬郡利根町","city_kana":"キタソウマグントネマチ","town":"下井","town_kana":"シモイ","prefecture_code":8},"1632":{"zip_code":"3001632","prefecture":"茨城県","prefecture_kana":"イバラキケン","city":"北相馬郡利根町","city_kana":"キタソウマグントネマチ","town":"下曽根","town_kana":"シモゾネ","prefecture_code":8},"1611":{"zip_code":"3001611","prefecture":"茨城県","prefecture_kana":"イバラキケン","city":"北相馬郡利根町","city_kana":"キタソウマグントネマチ","town":"惣新田","town_kana":"ソウシンデン","prefecture_code":8},"1605":{"zip_code":"3001605","prefecture":"茨城県","prefecture_kana":"イバラキケン","city":"北相馬郡利根町","city_kana":"キタソウマグントネマチ","town":"大平","town_kana":"ダイヘイ","prefecture_code":8},"1601":{"zip_code":"3001601","prefecture":"茨城県","prefecture_kana":"イバラキケン","city":"北相馬郡利根町","city_kana":"キタソウマグントネマチ","town":"大房","town_kana":"ダイボウ","prefecture_code":8},"1616":{"zip_code":"3001616","prefecture":"茨城県","prefecture_kana":"イバラキケン","city":"北相馬郡利根町","city_kana":"キタソウマグントネマチ","town":"立木","town_kana":"タツギ","prefecture_code":8},"1614":{"zip_code":"3001614","prefecture":"茨城県","prefecture_kana":"イバラキケン","city":"北相馬郡利根町","city_kana":"キタソウマグントネマチ","town":"立崎","town_kana":"タツザキ","prefecture_code":8},"1624":{"zip_code":"3001624","prefecture":"茨城県","prefecture_kana":"イバラキケン","city":"北相馬郡利根町","city_kana":"キタソウマグントネマチ","town":"中田切","town_kana":"ナカタギリ","prefecture_code":8},"1615":{"zip_code":"3001615","prefecture":"茨城県","prefecture_kana":"イバラキケン","city":"北相馬郡利根町","city_kana":"キタソウマグントネマチ","town":"中谷","town_kana":"ナカヤ","prefecture_code":8},"1623":{"zip_code":"3001623","prefecture":"茨城県","prefecture_kana":"イバラキケン","city":"北相馬郡利根町","city_kana":"キタソウマグントネマチ","town":"八幡台","town_kana":"ハチマンダイ","prefecture_code":8},"1625":{"zip_code":"3001625","prefecture":"茨城県","prefecture_kana":"イバラキケン","city":"北相馬郡利根町","city_kana":"キタソウマグントネマチ","town":"羽中","town_kana":"ハナカ","prefecture_code":8},"1636":{"zip_code":"3001636","prefecture":"茨城県","prefecture_kana":"イバラキケン","city":"北相馬郡利根町","city_kana":"キタソウマグントネマチ","town":"羽根野","town_kana":"ハネノ","prefecture_code":8},"1631":{"zip_code":"3001631","prefecture":"茨城県","prefecture_kana":"イバラキケン","city":"北相馬郡利根町","city_kana":"キタソウマグントネマチ","town":"早尾","town_kana":"ハヤオ","prefecture_code":8},"1613":{"zip_code":"3001613","prefecture":"茨城県","prefecture_kana":"イバラキケン","city":"北相馬郡利根町","city_kana":"キタソウマグントネマチ","town":"東奥山新田","town_kana":"ヒガシオクヤマシンデン","prefecture_code":8},"1622":{"zip_code":"3001622","prefecture":"茨城県","prefecture_kana":"イバラキケン","city":"北相馬郡利根町","city_kana":"キタソウマグントネマチ","town":"布川","town_kana":"フカワ","prefecture_code":8},"1621":{"zip_code":"3001621","prefecture":"茨城県","prefecture_kana":"イバラキケン","city":"北相馬郡利根町","city_kana":"キタソウマグントネマチ","town":"福木","town_kana":"フクノキ","prefecture_code":8},"1606":{"zip_code":"3001606","prefecture":"茨城県","prefecture_kana":"イバラキケン","city":"北相馬郡利根町","city_kana":"キタソウマグントネマチ","town":"もえぎ野台","town_kana":"モエギノダイ","prefecture_code":8},"1604":{"zip_code":"3001604","prefecture":"茨城県","prefecture_kana":"イバラキケン","city":"北相馬郡利根町","city_kana":"キタソウマグントネマチ","town":"横須賀","town_kana":"ヨコスカ","prefecture_code":8}}