{"0000":{"zip_code":"3040000","prefecture":"茨城県","prefecture_kana":"イバラキケン","city":"下妻市","city_kana":"シモツマシ","town":"以下に掲載がない場合","town_kana":"イカニケイサイガナイバアイ","prefecture_code":8},"0074":{"zip_code":"3040074","prefecture":"茨城県","prefecture_kana":"イバラキケン","city":"下妻市","city_kana":"シモツマシ","town":"赤須","town_kana":"アカス","prefecture_code":8},"0803":{"zip_code":"3040803","prefecture":"茨城県","prefecture_kana":"イバラキケン","city":"下妻市","city_kana":"シモツマシ","town":"伊古立","town_kana":"イゴダツ","prefecture_code":8},"0057":{"zip_code":"3040057","prefecture":"茨城県","prefecture_kana":"イバラキケン","city":"下妻市","city_kana":"シモツマシ","town":"石の宮","town_kana":"イシノミヤ","prefecture_code":8},"0053":{"zip_code":"3040053","prefecture":"茨城県","prefecture_kana":"イバラキケン","city":"下妻市","city_kana":"シモツマシ","town":"今泉","town_kana":"イマイズミ","prefecture_code":8},"0002":{"zip_code":"3040002","prefecture":"茨城県","prefecture_kana":"イバラキケン","city":"下妻市","city_kana":"シモツマシ","town":"江","town_kana":"エ","prefecture_code":8},"0004":{"zip_code":"3040004","prefecture":"茨城県","prefecture_kana":"イバラキケン","city":"下妻市","city_kana":"シモツマシ","town":"大木","town_kana":"オオキ","prefecture_code":8},"0025":{"zip_code":"3040025","prefecture":"茨城県","prefecture_kana":"イバラキケン","city":"下妻市","city_kana":"シモツマシ","town":"大木新田","town_kana":"オオキシンデン","prefecture_code":8},"0023":{"zip_code":"3040023","prefecture":"茨城県","prefecture_kana":"イバラキケン","city":"下妻市","city_kana":"シモツマシ","town":"大串","town_kana":"オオクシ","prefecture_code":8},"0801":{"zip_code":"3040801","prefecture":"茨城県","prefecture_kana":"イバラキケン","city":"下妻市","city_kana":"シモツマシ","town":"大園木","town_kana":"オオゾノキ","prefecture_code":8},"0804":{"zip_code":"3040804","prefecture":"茨城県","prefecture_kana":"イバラキケン","city":"下妻市","city_kana":"シモツマシ","town":"長萱","town_kana":"オサガヤ","prefecture_code":8},"0051":{"zip_code":"3040051","prefecture":"茨城県","prefecture_kana":"イバラキケン","city":"下妻市","city_kana":"シモツマシ","town":"小島","town_kana":"オジマ","prefecture_code":8},"0063":{"zip_code":"3040063","prefecture":"茨城県","prefecture_kana":"イバラキケン","city":"下妻市","city_kana":"シモツマシ","town":"小野子町","town_kana":"オノコチョウ","prefecture_code":8},"0016":{"zip_code":"3040016","prefecture":"茨城県","prefecture_kana":"イバラキケン","city":"下妻市","city_kana":"シモツマシ","town":"数須","town_kana":"カズス","prefecture_code":8},"0819":{"zip_code":"3040819","prefecture":"茨城県","prefecture_kana":"イバラキケン","city":"下妻市","city_kana":"シモツマシ","town":"鎌庭","town_kana":"カマニワ","prefecture_code":8},"0050":{"zip_code":"3040050","prefecture":"茨城県","prefecture_kana":"イバラキケン","city":"下妻市","city_kana":"シモツマシ","town":"亀崎","town_kana":"カメザキ","prefecture_code":8},"0048":{"zip_code":"3040048","prefecture":"茨城県","prefecture_kana":"イバラキケン","city":"下妻市","city_kana":"シモツマシ","town":"加養","town_kana":"カヨウ","prefecture_code":8},"0805":{"zip_code":"3040805","prefecture":"茨城県","prefecture_kana":"イバラキケン","city":"下妻市","city_kana":"シモツマシ","town":"唐崎","town_kana":"カラサキ","prefecture_code":8},"0021":{"zip_code":"3040021","prefecture":"茨城県","prefecture_kana":"イバラキケン","city":"下妻市","city_kana":"シモツマシ","town":"北大宝","town_kana":"キタダイホウ","prefecture_code":8},"0818":{"zip_code":"3040818","prefecture":"茨城県","prefecture_kana":"イバラキケン","city":"下妻市","city_kana":"シモツマシ","town":"鬼怒","town_kana":"キヌ","prefecture_code":8},"0073":{"zip_code":"3040073","prefecture":"茨城県","prefecture_kana":"イバラキケン","city":"下妻市","city_kana":"シモツマシ","town":"桐ケ瀬","town_kana":"キリガセ","prefecture_code":8},"0802":{"zip_code":"3040802","prefecture":"茨城県","prefecture_kana":"イバラキケン","city":"下妻市","city_kana":"シモツマシ","town":"鯨","town_kana":"クジラ","prefecture_code":8},"0007":{"zip_code":"3040007","prefecture":"茨城県","prefecture_kana":"イバラキケン","city":"下妻市","city_kana":"シモツマシ","town":"黒駒","town_kana":"クロコマ","prefecture_code":8},"0823":{"zip_code":"3040823","prefecture":"茨城県","prefecture_kana":"イバラキケン","city":"下妻市","city_kana":"シモツマシ","town":"五箇","town_kana":"ゴカ","prefecture_code":8},"0034":{"zip_code":"3040034","prefecture":"茨城県","prefecture_kana":"イバラキケン","city":"下妻市","city_kana":"シモツマシ","town":"坂井","town_kana":"サカイ","prefecture_code":8},"0024":{"zip_code":"3040024","prefecture":"茨城県","prefecture_kana":"イバラキケン","city":"下妻市","city_kana":"シモツマシ","town":"坂本新田","town_kana":"サカモトシンデン","prefecture_code":8},"0055":{"zip_code":"3040055","prefecture":"茨城県","prefecture_kana":"イバラキケン","city":"下妻市","city_kana":"シモツマシ","town":"砂沼新田","town_kana":"サヌマシンデン","prefecture_code":8},"0013":{"zip_code":"3040013","prefecture":"茨城県","prefecture_kana":"イバラキケン","city":"下妻市","city_kana":"シモツマシ","town":"下宮","town_kana":"シタミヤ","prefecture_code":8},"0071":{"zip_code":"3040071","prefecture":"茨城県","prefecture_kana":"イバラキケン","city":"下妻市","city_kana":"シモツマシ","town":"尻手","town_kana":"シッテ","prefecture_code":8},"0006":{"zip_code":"3040006","prefecture":"茨城県","prefecture_kana":"イバラキケン","city":"下妻市","city_kana":"シモツマシ","town":"柴","town_kana":"シバ","prefecture_code":8},"0072":{"zip_code":"3040072","prefecture":"茨城県","prefecture_kana":"イバラキケン","city":"下妻市","city_kana":"シモツマシ","town":"渋井","town_kana":"シブイ","prefecture_code":8},"0815":{"zip_code":"3040815","prefecture":"茨城県","prefecture_kana":"イバラキケン","city":"下妻市","city_kana":"シモツマシ","town":"渋田","town_kana":"シブタ","prefecture_code":8},"0028":{"zip_code":"3040028","prefecture":"茨城県","prefecture_kana":"イバラキケン","city":"下妻市","city_kana":"シモツマシ","town":"下木戸","town_kana":"シモキド","prefecture_code":8},"0811":{"zip_code":"3040811","prefecture":"茨城県","prefecture_kana":"イバラキケン","city":"下妻市","city_kana":"シモツマシ","town":"下栗","town_kana":"シモグリ","prefecture_code":8},"0015":{"zip_code":"3040015","prefecture":"茨城県","prefecture_kana":"イバラキケン","city":"下妻市","city_kana":"シモツマシ","town":"下田","town_kana":"シモダ","prefecture_code":8},"0066":{"zip_code":"3040066","prefecture":"茨城県","prefecture_kana":"イバラキケン","city":"下妻市","city_kana":"シモツマシ","town":"下妻甲","town_kana":"シモツマコウ","prefecture_code":8},"0067":{"zip_code":"3040067","prefecture":"茨城県","prefecture_kana":"イバラキケン","city":"下妻市","city_kana":"シモツマシ","town":"下妻乙","town_kana":"シモツマオツ","prefecture_code":8},"0061":{"zip_code":"3040061","prefecture":"茨城県","prefecture_kana":"イバラキケン","city":"下妻市","city_kana":"シモツマシ","town":"下妻丙","town_kana":"シモツマヘイ","prefecture_code":8},"0068":{"zip_code":"3040068","prefecture":"茨城県","prefecture_kana":"イバラキケン","city":"下妻市","city_kana":"シモツマシ","town":"下妻丁","town_kana":"シモツマテイ","prefecture_code":8},"0062":{"zip_code":"3040062","prefecture":"茨城県","prefecture_kana":"イバラキケン","city":"下妻市","city_kana":"シモツマシ","town":"下妻戊","town_kana":"シモツマボ","prefecture_code":8},"0011":{"zip_code":"3040011","prefecture":"茨城県","prefecture_kana":"イバラキケン","city":"下妻市","city_kana":"シモツマシ","town":"神明","town_kana":"シンメイ","prefecture_code":8},"0003":{"zip_code":"3040003","prefecture":"茨城県","prefecture_kana":"イバラキケン","city":"下妻市","city_kana":"シモツマシ","town":"関本下","town_kana":"セキモトシタ","prefecture_code":8},"0814":{"zip_code":"3040814","prefecture":"茨城県","prefecture_kana":"イバラキケン","city":"下妻市","city_kana":"シモツマシ","town":"宗道","town_kana":"ソウドウ","prefecture_code":8},"0022":{"zip_code":"3040022","prefecture":"茨城県","prefecture_kana":"イバラキケン","city":"下妻市","city_kana":"シモツマシ","town":"大宝","town_kana":"ダイホウ","prefecture_code":8},"0031":{"zip_code":"3040031","prefecture":"茨城県","prefecture_kana":"イバラキケン","city":"下妻市","city_kana":"シモツマシ","town":"高道祖","town_kana":"タカサイ","prefecture_code":8},"0812":{"zip_code":"3040812","prefecture":"茨城県","prefecture_kana":"イバラキケン","city":"下妻市","city_kana":"シモツマシ","town":"田下","town_kana":"タゲ","prefecture_code":8},"0069":{"zip_code":"3040069","prefecture":"茨城県","prefecture_kana":"イバラキケン","city":"下妻市","city_kana":"シモツマシ","town":"田町","town_kana":"タマチ","prefecture_code":8},"0017":{"zip_code":"3040017","prefecture":"茨城県","prefecture_kana":"イバラキケン","city":"下妻市","city_kana":"シモツマシ","town":"筑波島","town_kana":"チクワジマ","prefecture_code":8},"0054":{"zip_code":"3040054","prefecture":"茨城県","prefecture_kana":"イバラキケン","city":"下妻市","city_kana":"シモツマシ","town":"中居指","town_kana":"ナカイザシ","prefecture_code":8},"0014":{"zip_code":"3040014","prefecture":"茨城県","prefecture_kana":"イバラキケン","city":"下妻市","city_kana":"シモツマシ","town":"中郷","town_kana":"ナカゴウ","prefecture_code":8},"0056":{"zip_code":"3040056","prefecture":"茨城県","prefecture_kana":"イバラキケン","city":"下妻市","city_kana":"シモツマシ","town":"長塚","town_kana":"ナガツカ","prefecture_code":8},"0049":{"zip_code":"3040049","prefecture":"茨城県","prefecture_kana":"イバラキケン","city":"下妻市","city_kana":"シモツマシ","town":"新堀","town_kana":"ニイボリ","prefecture_code":8},"0052":{"zip_code":"3040052","prefecture":"茨城県","prefecture_kana":"イバラキケン","city":"下妻市","city_kana":"シモツマシ","town":"二本紀","town_kana":"ニホンギ","prefecture_code":8},"0817":{"zip_code":"3040817","prefecture":"茨城県","prefecture_kana":"イバラキケン","city":"下妻市","city_kana":"シモツマシ","town":"羽子","town_kana":"ハネゴ","prefecture_code":8},"0816":{"zip_code":"3040816","prefecture":"茨城県","prefecture_kana":"イバラキケン","city":"下妻市","city_kana":"シモツマシ","town":"原","town_kana":"ハラ","prefecture_code":8},"0005":{"zip_code":"3040005","prefecture":"茨城県","prefecture_kana":"イバラキケン","city":"下妻市","city_kana":"シモツマシ","town":"半谷","town_kana":"ハンヤ","prefecture_code":8},"0032":{"zip_code":"3040032","prefecture":"茨城県","prefecture_kana":"イバラキケン","city":"下妻市","city_kana":"シモツマシ","town":"比毛","town_kana":"ヒケ","prefecture_code":8},"0047":{"zip_code":"3040047","prefecture":"茨城県","prefecture_kana":"イバラキケン","city":"下妻市","city_kana":"シモツマシ","town":"肘谷","town_kana":"ヒジヤ","prefecture_code":8},"0046":{"zip_code":"3040046","prefecture":"茨城県","prefecture_kana":"イバラキケン","city":"下妻市","city_kana":"シモツマシ","town":"樋橋","town_kana":"ヒバシ","prefecture_code":8},"0001":{"zip_code":"3040001","prefecture":"茨城県","prefecture_kana":"イバラキケン","city":"下妻市","city_kana":"シモツマシ","town":"平方","town_kana":"ヒラカタ","prefecture_code":8},"0018":{"zip_code":"3040018","prefecture":"茨城県","prefecture_kana":"イバラキケン","city":"下妻市","city_kana":"シモツマシ","town":"平川戸","town_kana":"ヒラカワド","prefecture_code":8},"0026":{"zip_code":"3040026","prefecture":"茨城県","prefecture_kana":"イバラキケン","city":"下妻市","city_kana":"シモツマシ","town":"平沼","town_kana":"ヒラヌマ","prefecture_code":8},"0027":{"zip_code":"3040027","prefecture":"茨城県","prefecture_kana":"イバラキケン","city":"下妻市","city_kana":"シモツマシ","town":"福田","town_kana":"フクダ","prefecture_code":8},"0042":{"zip_code":"3040042","prefecture":"茨城県","prefecture_kana":"イバラキケン","city":"下妻市","city_kana":"シモツマシ","town":"袋畑","town_kana":"フクロハタ","prefecture_code":8},"0041":{"zip_code":"3040041","prefecture":"茨城県","prefecture_kana":"イバラキケン","city":"下妻市","city_kana":"シモツマシ","town":"古沢","town_kana":"フルサワ","prefecture_code":8},"0821":{"zip_code":"3040821","prefecture":"茨城県","prefecture_kana":"イバラキケン","city":"下妻市","city_kana":"シモツマシ","town":"別府","town_kana":"ベップ","prefecture_code":8},"0033":{"zip_code":"3040033","prefecture":"茨城県","prefecture_kana":"イバラキケン","city":"下妻市","city_kana":"シモツマシ","town":"堀篭","town_kana":"ホリゴメ","prefecture_code":8},"0065":{"zip_code":"3040065","prefecture":"茨城県","prefecture_kana":"イバラキケン","city":"下妻市","city_kana":"シモツマシ","town":"本宿町","town_kana":"ホンジュクチョウ","prefecture_code":8},"0813":{"zip_code":"3040813","prefecture":"茨城県","prefecture_kana":"イバラキケン","city":"下妻市","city_kana":"シモツマシ","town":"本宗道","town_kana":"ホンソウドウ","prefecture_code":8},"0076":{"zip_code":"3040076","prefecture":"茨城県","prefecture_kana":"イバラキケン","city":"下妻市","city_kana":"シモツマシ","town":"前河原","town_kana":"マエガワラ","prefecture_code":8},"0806":{"zip_code":"3040806","prefecture":"茨城県","prefecture_kana":"イバラキケン","city":"下妻市","city_kana":"シモツマシ","town":"見田","town_kana":"ミタ","prefecture_code":8},"0822":{"zip_code":"3040822","prefecture":"茨城県","prefecture_kana":"イバラキケン","city":"下妻市","city_kana":"シモツマシ","town":"皆葉","town_kana":"ミナバ","prefecture_code":8},"0075":{"zip_code":"3040075","prefecture":"茨城県","prefecture_kana":"イバラキケン","city":"下妻市","city_kana":"シモツマシ","town":"南原","town_kana":"ミナミハラ","prefecture_code":8},"0824":{"zip_code":"3040824","prefecture":"茨城県","prefecture_kana":"イバラキケン","city":"下妻市","city_kana":"シモツマシ","town":"村岡","town_kana":"ムラオカ","prefecture_code":8},"0064":{"zip_code":"3040064","prefecture":"茨城県","prefecture_kana":"イバラキケン","city":"下妻市","city_kana":"シモツマシ","town":"本城町","town_kana":"モトシロチョウ","prefecture_code":8},"0044":{"zip_code":"3040044","prefecture":"茨城県","prefecture_kana":"イバラキケン","city":"下妻市","city_kana":"シモツマシ","town":"柳原","town_kana":"ヤギワラ","prefecture_code":8},"0043":{"zip_code":"3040043","prefecture":"茨城県","prefecture_kana":"イバラキケン","city":"下妻市","city_kana":"シモツマシ","town":"谷田部","town_kana":"ヤタベ","prefecture_code":8},"0045":{"zip_code":"3040045","prefecture":"茨城県","prefecture_kana":"イバラキケン","city":"下妻市","city_kana":"シモツマシ","town":"山尻","town_kana":"ヤマジリ","prefecture_code":8},"0035":{"zip_code":"3040035","prefecture":"茨城県","prefecture_kana":"イバラキケン","city":"下妻市","city_kana":"シモツマシ","town":"横根","town_kana":"ヨコネ","prefecture_code":8},"0012":{"zip_code":"3040012","prefecture":"茨城県","prefecture_kana":"イバラキケン","city":"下妻市","city_kana":"シモツマシ","town":"若柳","town_kana":"ワカヤナギ","prefecture_code":8}}