{"0000":{"zip_code":"3050000","prefecture":"茨城県","prefecture_kana":"イバラキケン","city":"つくば市","city_kana":"ツクバシ","town":"","town_kana":"","prefecture_code":8},"0062":{"zip_code":"3050062","prefecture":"茨城県","prefecture_kana":"イバラキケン","city":"つくば市","city_kana":"ツクバシ","town":"赤塚","town_kana":"アカツカ","prefecture_code":8},"0804":{"zip_code":"3050804","prefecture":"茨城県","prefecture_kana":"イバラキケン","city":"つくば市","city_kana":"ツクバシ","town":"旭","town_kana":"アサヒ","prefecture_code":8},"0031":{"zip_code":"3050031","prefecture":"茨城県","prefecture_kana":"イバラキケン","city":"つくば市","city_kana":"ツクバシ","town":"吾妻","town_kana":"アヅマ","prefecture_code":8},"0005":{"zip_code":"3050005","prefecture":"茨城県","prefecture_kana":"イバラキケン","city":"つくば市","city_kana":"ツクバシ","town":"天久保","town_kana":"アマクボ","prefecture_code":8},"0835":{"zip_code":"3050835","prefecture":"茨城県","prefecture_kana":"イバラキケン","city":"つくば市","city_kana":"ツクバシ","town":"新井","town_kana":"アライ","prefecture_code":8},"0076":{"zip_code":"3050076","prefecture":"茨城県","prefecture_kana":"イバラキケン","city":"つくば市","city_kana":"ツクバシ","town":"新牧田","town_kana":"アラマキダ","prefecture_code":8},"0874":{"zip_code":"3050874","prefecture":"茨城県","prefecture_kana":"イバラキケン","city":"つくば市","city_kana":"ツクバシ","town":"飯田","town_kana":"イイダ","prefecture_code":8},"0901":{"zip_code":"3050901","prefecture":"茨城県","prefecture_kana":"イバラキケン","city":"つくば市","city_kana":"ツクバシ","town":"池の台","town_kana":"イケノダイ","prefecture_code":8},"0073":{"zip_code":"3050073","prefecture":"茨城県","prefecture_kana":"イバラキケン","city":"つくば市","city_kana":"ツクバシ","town":"市之台","town_kana":"イチノダイ","prefecture_code":8},"0071":{"zip_code":"3050071","prefecture":"茨城県","prefecture_kana":"イバラキケン","city":"つくば市","city_kana":"ツクバシ","town":"稲岡","town_kana":"イナオカ","prefecture_code":8},"0061":{"zip_code":"3050061","prefecture":"茨城県","prefecture_kana":"イバラキケン","city":"つくば市","city_kana":"ツクバシ","town":"稲荷前","town_kana":"イナリマエ","prefecture_code":8},"0855":{"zip_code":"3050855","prefecture":"茨城県","prefecture_kana":"イバラキケン","city":"つくば市","city_kana":"ツクバシ","town":"今泉","town_kana":"イマイズミ","prefecture_code":8},"0002":{"zip_code":"3050002","prefecture":"茨城県","prefecture_kana":"イバラキケン","city":"つくば市","city_kana":"ツクバシ","town":"上野","town_kana":"ウエノ","prefecture_code":8},"0023":{"zip_code":"3050023","prefecture":"茨城県","prefecture_kana":"イバラキケン","city":"つくば市","city_kana":"ツクバシ","town":"上ノ室","town_kana":"ウエノムロ","prefecture_code":8},"0045":{"zip_code":"3050045","prefecture":"茨城県","prefecture_kana":"イバラキケン","city":"つくば市","city_kana":"ツクバシ","town":"梅園","town_kana":"ウメゾノ","prefecture_code":8},"0853":{"zip_code":"3050853","prefecture":"茨城県","prefecture_kana":"イバラキケン","city":"つくば市","city_kana":"ツクバシ","town":"榎戸","town_kana":"エノキド","prefecture_code":8},"0016":{"zip_code":"3050016","prefecture":"茨城県","prefecture_kana":"イバラキケン","city":"つくば市","city_kana":"ツクバシ","town":"大","town_kana":"オオ","prefecture_code":8},"0845":{"zip_code":"3050845","prefecture":"茨城県","prefecture_kana":"イバラキケン","city":"つくば市","city_kana":"ツクバシ","town":"大白硲","town_kana":"オオジラハザマ","prefecture_code":8},"0801":{"zip_code":"3050801","prefecture":"茨城県","prefecture_kana":"イバラキケン","city":"つくば市","city_kana":"ツクバシ","town":"大穂","town_kana":"オオホ","prefecture_code":8},"0851":{"zip_code":"3050851","prefecture":"茨城県","prefecture_kana":"イバラキケン","city":"つくば市","city_kana":"ツクバシ","town":"大わし","town_kana":"オオワシ","prefecture_code":8},"0026":{"zip_code":"3050026","prefecture":"茨城県","prefecture_kana":"イバラキケン","city":"つくば市","city_kana":"ツクバシ","town":"岡村新田","town_kana":"オカムラシンデン","prefecture_code":8},"0053":{"zip_code":"3050053","prefecture":"茨城県","prefecture_kana":"イバラキケン","city":"つくば市","city_kana":"ツクバシ","town":"小野川","town_kana":"オノガワ","prefecture_code":8},"0034":{"zip_code":"3050034","prefecture":"茨城県","prefecture_kana":"イバラキケン","city":"つくば市","city_kana":"ツクバシ","town":"小野崎","town_kana":"オノザキ","prefecture_code":8},"0816":{"zip_code":"3050816","prefecture":"茨城県","prefecture_kana":"イバラキケン","city":"つくば市","city_kana":"ツクバシ","town":"学園の森","town_kana":"ガクエンノモリ","prefecture_code":8},"0818":{"zip_code":"3050818","prefecture":"茨城県","prefecture_kana":"イバラキケン","city":"つくば市","city_kana":"ツクバシ","town":"学園南","town_kana":"ガクエンミナミ","prefecture_code":8},"0064":{"zip_code":"3050064","prefecture":"茨城県","prefecture_kana":"イバラキケン","city":"つくば市","city_kana":"ツクバシ","town":"梶内","town_kana":"カジウチ","prefecture_code":8},"0821":{"zip_code":"3050821","prefecture":"茨城県","prefecture_kana":"イバラキケン","city":"つくば市","city_kana":"ツクバシ","town":"春日","town_kana":"カスガ","prefecture_code":8},"0877":{"zip_code":"3050877","prefecture":"茨城県","prefecture_kana":"イバラキケン","city":"つくば市","city_kana":"ツクバシ","town":"片田","town_kana":"カタダ","prefecture_code":8},"0824":{"zip_code":"3050824","prefecture":"茨城県","prefecture_kana":"イバラキケン","city":"つくば市","city_kana":"ツクバシ","town":"葛城根崎","town_kana":"カツラギネサキ","prefecture_code":8},"0871":{"zip_code":"3050871","prefecture":"茨城県","prefecture_kana":"イバラキケン","city":"つくば市","city_kana":"ツクバシ","town":"上萱丸","town_kana":"カミカヤマル","prefecture_code":8},"0011":{"zip_code":"3050011","prefecture":"茨城県","prefecture_kana":"イバラキケン","city":"つくば市","city_kana":"ツクバシ","town":"上境","town_kana":"カミザカイ","prefecture_code":8},"0055":{"zip_code":"3050055","prefecture":"茨城県","prefecture_kana":"イバラキケン","city":"つくば市","city_kana":"ツクバシ","town":"上原","town_kana":"カミハラ","prefecture_code":8},"0041":{"zip_code":"3050041","prefecture":"茨城県","prefecture_kana":"イバラキケン","city":"つくば市","city_kana":"ツクバシ","town":"上広岡","town_kana":"カミヒロオカ","prefecture_code":8},"0854":{"zip_code":"3050854","prefecture":"茨城県","prefecture_kana":"イバラキケン","city":"つくば市","city_kana":"ツクバシ","town":"上横場","town_kana":"カミヨコバ","prefecture_code":8},"0822":{"zip_code":"3050822","prefecture":"茨城県","prefecture_kana":"イバラキケン","city":"つくば市","city_kana":"ツクバシ","town":"苅間","town_kana":"カリマ","prefecture_code":8},"0856":{"zip_code":"3050856","prefecture":"茨城県","prefecture_kana":"イバラキケン","city":"つくば市","city_kana":"ツクバシ","town":"観音台","town_kana":"カンノンダイ","prefecture_code":8},"0022":{"zip_code":"3050022","prefecture":"茨城県","prefecture_kana":"イバラキケン","city":"つくば市","city_kana":"ツクバシ","town":"吉瀬","town_kana":"キセ","prefecture_code":8},"0811":{"zip_code":"3050811","prefecture":"茨城県","prefecture_kana":"イバラキケン","city":"つくば市","city_kana":"ツクバシ","town":"北郷","town_kana":"キタサト","prefecture_code":8},"0072":{"zip_code":"3050072","prefecture":"茨城県","prefecture_kana":"イバラキケン","city":"つくば市","city_kana":"ツクバシ","town":"北中島","town_kana":"キタナカジマ","prefecture_code":8},"0066":{"zip_code":"3050066","prefecture":"茨城県","prefecture_kana":"イバラキケン","city":"つくば市","city_kana":"ツクバシ","town":"北中妻","town_kana":"キタナカヅマ","prefecture_code":8},"0024":{"zip_code":"3050024","prefecture":"茨城県","prefecture_kana":"イバラキケン","city":"つくば市","city_kana":"ツクバシ","town":"倉掛","town_kana":"クラカケ","prefecture_code":8},"0001":{"zip_code":"3050001","prefecture":"茨城県","prefecture_kana":"イバラキケン","city":"つくば市","city_kana":"ツクバシ","town":"栗原","town_kana":"クリハラ","prefecture_code":8},"0817":{"zip_code":"3050817","prefecture":"茨城県","prefecture_kana":"イバラキケン","city":"つくば市","city_kana":"ツクバシ","town":"研究学園","town_kana":"ケンキュウガクエン","prefecture_code":8},"0074":{"zip_code":"3050074","prefecture":"茨城県","prefecture_kana":"イバラキケン","city":"つくば市","city_kana":"ツクバシ","town":"高野台","town_kana":"コウヤダイ","prefecture_code":8},"0844":{"zip_code":"3050844","prefecture":"茨城県","prefecture_kana":"イバラキケン","city":"つくば市","city_kana":"ツクバシ","town":"小白硲","town_kana":"コジラハザマ","prefecture_code":8},"0018":{"zip_code":"3050018","prefecture":"茨城県","prefecture_kana":"イバラキケン","city":"つくば市","city_kana":"ツクバシ","town":"金田","town_kana":"コンダ","prefecture_code":8},"0028":{"zip_code":"3050028","prefecture":"茨城県","prefecture_kana":"イバラキケン","city":"つくば市","city_kana":"ツクバシ","town":"妻木","town_kana":"サイキ","prefecture_code":8},"0036":{"zip_code":"3050036","prefecture":"茨城県","prefecture_kana":"イバラキケン","city":"つくば市","city_kana":"ツクバシ","town":"西郷","town_kana":"サイゴウ","prefecture_code":8},"0867":{"zip_code":"3050867","prefecture":"茨城県","prefecture_kana":"イバラキケン","city":"つくば市","city_kana":"ツクバシ","town":"境田","town_kana":"サカイダ","prefecture_code":8},"0864":{"zip_code":"3050864","prefecture":"茨城県","prefecture_kana":"イバラキケン","city":"つくば市","city_kana":"ツクバシ","town":"境松","town_kana":"サカイマツ","prefecture_code":8},"0013":{"zip_code":"3050013","prefecture":"茨城県","prefecture_kana":"イバラキケン","city":"つくば市","city_kana":"ツクバシ","town":"栄","town_kana":"サカエ","prefecture_code":8},"0003":{"zip_code":"3050003","prefecture":"茨城県","prefecture_kana":"イバラキケン","city":"つくば市","city_kana":"ツクバシ","town":"桜","town_kana":"サクラ","prefecture_code":8},"0019":{"zip_code":"3050019","prefecture":"茨城県","prefecture_kana":"イバラキケン","city":"つくば市","city_kana":"ツクバシ","town":"さくらの森","town_kana":"サクラノモリ","prefecture_code":8},"0043":{"zip_code":"3050043","prefecture":"茨城県","prefecture_kana":"イバラキケン","city":"つくば市","city_kana":"ツクバシ","town":"大角豆","town_kana":"ササギ","prefecture_code":8},"0004":{"zip_code":"3050004","prefecture":"茨城県","prefecture_kana":"イバラキケン","city":"つくば市","city_kana":"ツクバシ","town":"柴崎","town_kana":"シバサキ","prefecture_code":8},"0833":{"zip_code":"3050833","prefecture":"茨城県","prefecture_kana":"イバラキケン","city":"つくば市","city_kana":"ツクバシ","town":"島","town_kana":"シマ","prefecture_code":8},"0872":{"zip_code":"3050872","prefecture":"茨城県","prefecture_kana":"イバラキケン","city":"つくば市","city_kana":"ツクバシ","town":"下萱丸","town_kana":"シモカヤマル","prefecture_code":8},"0063":{"zip_code":"3050063","prefecture":"茨城県","prefecture_kana":"イバラキケン","city":"つくば市","city_kana":"ツクバシ","town":"下原","town_kana":"シモハラ","prefecture_code":8},"0813":{"zip_code":"3050813","prefecture":"茨城県","prefecture_kana":"イバラキケン","city":"つくば市","city_kana":"ツクバシ","town":"下平塚","town_kana":"シモヒラツカ","prefecture_code":8},"0042":{"zip_code":"3050042","prefecture":"茨城県","prefecture_kana":"イバラキケン","city":"つくば市","city_kana":"ツクバシ","town":"下広岡","town_kana":"シモヒロオカ","prefecture_code":8},"0075":{"zip_code":"3050075","prefecture":"茨城県","prefecture_kana":"イバラキケン","city":"つくば市","city_kana":"ツクバシ","town":"下横場","town_kana":"シモヨコバ","prefecture_code":8},"0014":{"zip_code":"3050014","prefecture":"茨城県","prefecture_kana":"イバラキケン","city":"つくば市","city_kana":"ツクバシ","town":"松栄","town_kana":"ショウエイ","prefecture_code":8},"0847":{"zip_code":"3050847","prefecture":"茨城県","prefecture_kana":"イバラキケン","city":"つくば市","city_kana":"ツクバシ","town":"陣場","town_kana":"ジンバ","prefecture_code":8},"0047":{"zip_code":"3050047","prefecture":"茨城県","prefecture_kana":"イバラキケン","city":"つくば市","city_kana":"ツクバシ","town":"千現","town_kana":"センゲン","prefecture_code":8},"0868":{"zip_code":"3050868","prefecture":"茨城県","prefecture_kana":"イバラキケン","city":"つくば市","city_kana":"ツクバシ","town":"台町","town_kana":"ダイマチ","prefecture_code":8},"0846":{"zip_code":"3050846","prefecture":"茨城県","prefecture_kana":"イバラキケン","city":"つくば市","city_kana":"ツクバシ","town":"平","town_kana":"タイラ","prefecture_code":8},"0077":{"zip_code":"3050077","prefecture":"茨城県","prefecture_kana":"イバラキケン","city":"つくば市","city_kana":"ツクバシ","town":"鷹野原","town_kana":"タカノハラ","prefecture_code":8},"0032":{"zip_code":"3050032","prefecture":"茨城県","prefecture_kana":"イバラキケン","city":"つくば市","city_kana":"ツクバシ","town":"竹園","town_kana":"タケゾノ","prefecture_code":8},"0802":{"zip_code":"3050802","prefecture":"茨城県","prefecture_kana":"イバラキケン","city":"つくば市","city_kana":"ツクバシ","town":"立原","town_kana":"タチハラ","prefecture_code":8},"0067":{"zip_code":"3050067","prefecture":"茨城県","prefecture_kana":"イバラキケン","city":"つくば市","city_kana":"ツクバシ","town":"館野","town_kana":"タテノ","prefecture_code":8},"0834":{"zip_code":"3050834","prefecture":"茨城県","prefecture_kana":"イバラキケン","city":"つくば市","city_kana":"ツクバシ","town":"手代木","town_kana":"テシロギ","prefecture_code":8},"0006":{"zip_code":"3050006","prefecture":"茨城県","prefecture_kana":"イバラキケン","city":"つくば市","city_kana":"ツクバシ","town":"天王台","town_kana":"テンノウダイ","prefecture_code":8},"0068":{"zip_code":"3050068","prefecture":"茨城県","prefecture_kana":"イバラキケン","city":"つくば市","city_kana":"ツクバシ","town":"中内","town_kana":"ナカウチ","prefecture_code":8},"0012":{"zip_code":"3050012","prefecture":"茨城県","prefecture_kana":"イバラキケン","city":"つくば市","city_kana":"ツクバシ","town":"中根","town_kana":"ナカネ","prefecture_code":8},"0873":{"zip_code":"3050873","prefecture":"茨城県","prefecture_kana":"イバラキケン","city":"つくば市","city_kana":"ツクバシ","town":"中野","town_kana":"ナカノ","prefecture_code":8},"0052":{"zip_code":"3050052","prefecture":"茨城県","prefecture_kana":"イバラキケン","city":"つくば市","city_kana":"ツクバシ","town":"長峰","town_kana":"ナガミネ","prefecture_code":8},"0044":{"zip_code":"3050044","prefecture":"茨城県","prefecture_kana":"イバラキケン","city":"つくば市","city_kana":"ツクバシ","town":"並木","town_kana":"ナミキ","prefecture_code":8},"0054":{"zip_code":"3050054","prefecture":"茨城県","prefecture_kana":"イバラキケン","city":"つくば市","city_kana":"ツクバシ","town":"西大沼","town_kana":"ニシオオヌマ","prefecture_code":8},"0831":{"zip_code":"3050831","prefecture":"茨城県","prefecture_kana":"イバラキケン","city":"つくば市","city_kana":"ツクバシ","town":"西大橋","town_kana":"ニシオオハシ","prefecture_code":8},"0832":{"zip_code":"3050832","prefecture":"茨城県","prefecture_kana":"イバラキケン","city":"つくば市","city_kana":"ツクバシ","town":"西岡","town_kana":"ニシオカ","prefecture_code":8},"0876":{"zip_code":"3050876","prefecture":"茨城県","prefecture_kana":"イバラキケン","city":"つくば市","city_kana":"ツクバシ","town":"西栗山","town_kana":"ニシクリヤマ","prefecture_code":8},"0902":{"zip_code":"3050902","prefecture":"茨城県","prefecture_kana":"イバラキケン","city":"つくば市","city_kana":"ツクバシ","town":"西の沢","town_kana":"ニシノサワ","prefecture_code":8},"0815":{"zip_code":"3050815","prefecture":"茨城県","prefecture_kana":"イバラキケン","city":"つくば市","city_kana":"ツクバシ","town":"西原","town_kana":"ニシハラ","prefecture_code":8},"0814":{"zip_code":"3050814","prefecture":"茨城県","prefecture_kana":"イバラキケン","city":"つくば市","city_kana":"ツクバシ","town":"西平塚","town_kana":"ニシヒラツカ","prefecture_code":8},"0051":{"zip_code":"3050051","prefecture":"茨城県","prefecture_kana":"イバラキケン","city":"つくば市","city_kana":"ツクバシ","town":"二の宮","town_kana":"ニノミヤ","prefecture_code":8},"0865":{"zip_code":"3050865","prefecture":"茨城県","prefecture_kana":"イバラキケン","city":"つくば市","city_kana":"ツクバシ","town":"根崎","town_kana":"ネサキ","prefecture_code":8},"0843":{"zip_code":"3050843","prefecture":"茨城県","prefecture_kana":"イバラキケン","city":"つくば市","city_kana":"ツクバシ","town":"八幡台","town_kana":"ハチマンダイ","prefecture_code":8},"0875":{"zip_code":"3050875","prefecture":"茨城県","prefecture_kana":"イバラキケン","city":"つくば市","city_kana":"ツクバシ","town":"花島新田","town_kana":"ハナシマシンデン","prefecture_code":8},"0029":{"zip_code":"3050029","prefecture":"茨城県","prefecture_kana":"イバラキケン","city":"つくば市","city_kana":"ツクバシ","town":"花園","town_kana":"ハナゾノ","prefecture_code":8},"0805":{"zip_code":"3050805","prefecture":"茨城県","prefecture_kana":"イバラキケン","city":"つくば市","city_kana":"ツクバシ","town":"花畑","town_kana":"ハナバタケ","prefecture_code":8},"0025":{"zip_code":"3050025","prefecture":"茨城県","prefecture_kana":"イバラキケン","city":"つくば市","city_kana":"ツクバシ","town":"花室","town_kana":"ハナムロ","prefecture_code":8},"0857":{"zip_code":"3050857","prefecture":"茨城県","prefecture_kana":"イバラキケン","city":"つくば市","city_kana":"ツクバシ","town":"羽成","town_kana":"ハナレ","prefecture_code":8},"0823":{"zip_code":"3050823","prefecture":"茨城県","prefecture_kana":"イバラキケン","city":"つくば市","city_kana":"ツクバシ","town":"原","town_kana":"ハラ","prefecture_code":8},"0007":{"zip_code":"3050007","prefecture":"茨城県","prefecture_kana":"イバラキケン","city":"つくば市","city_kana":"ツクバシ","town":"春風台","town_kana":"ハルカゼダイ","prefecture_code":8},"0046":{"zip_code":"3050046","prefecture":"茨城県","prefecture_kana":"イバラキケン","city":"つくば市","city_kana":"ツクバシ","town":"東","town_kana":"ヒガシ","prefecture_code":8},"0033":{"zip_code":"3050033","prefecture":"茨城県","prefecture_kana":"イバラキケン","city":"つくば市","city_kana":"ツクバシ","town":"東新井","town_kana":"ヒガシアライ","prefecture_code":8},"0027":{"zip_code":"3050027","prefecture":"茨城県","prefecture_kana":"イバラキケン","city":"つくば市","city_kana":"ツクバシ","town":"東岡","town_kana":"ヒガシオカ","prefecture_code":8},"0812":{"zip_code":"3050812","prefecture":"茨城県","prefecture_kana":"イバラキケン","city":"つくば市","city_kana":"ツクバシ","town":"東平塚","town_kana":"ヒガシヒラツカ","prefecture_code":8},"0862":{"zip_code":"3050862","prefecture":"茨城県","prefecture_kana":"イバラキケン","city":"つくば市","city_kana":"ツクバシ","town":"東丸山","town_kana":"ヒガシマルヤマ","prefecture_code":8},"0852":{"zip_code":"3050852","prefecture":"茨城県","prefecture_kana":"イバラキケン","city":"つくば市","city_kana":"ツクバシ","town":"藤本","town_kana":"フジモト","prefecture_code":8},"0021":{"zip_code":"3050021","prefecture":"茨城県","prefecture_kana":"イバラキケン","city":"つくば市","city_kana":"ツクバシ","town":"古来","town_kana":"フルク","prefecture_code":8},"0866":{"zip_code":"3050866","prefecture":"茨城県","prefecture_kana":"イバラキケン","city":"つくば市","city_kana":"ツクバシ","town":"古館","town_kana":"フルダテ","prefecture_code":8},"0035":{"zip_code":"3050035","prefecture":"茨城県","prefecture_kana":"イバラキケン","city":"つくば市","city_kana":"ツクバシ","town":"松代","town_kana":"マツシロ","prefecture_code":8},"0015":{"zip_code":"3050015","prefecture":"茨城県","prefecture_kana":"イバラキケン","city":"つくば市","city_kana":"ツクバシ","town":"松塚","town_kana":"マツヅカ","prefecture_code":8},"0056":{"zip_code":"3050056","prefecture":"茨城県","prefecture_kana":"イバラキケン","city":"つくば市","city_kana":"ツクバシ","town":"松野木","town_kana":"マツノキ","prefecture_code":8},"0903":{"zip_code":"3050903","prefecture":"茨城県","prefecture_kana":"イバラキケン","city":"つくば市","city_kana":"ツクバシ","town":"松の里","town_kana":"マツノサト","prefecture_code":8},"0863":{"zip_code":"3050863","prefecture":"茨城県","prefecture_kana":"イバラキケン","city":"つくば市","city_kana":"ツクバシ","town":"緑が丘","town_kana":"ミドリガオカ","prefecture_code":8},"0881":{"zip_code":"3050881","prefecture":"茨城県","prefecture_kana":"イバラキケン","city":"つくば市","city_kana":"ツクバシ","town":"みどりの","town_kana":"ミドリノ","prefecture_code":8},"0882":{"zip_code":"3050882","prefecture":"茨城県","prefecture_kana":"イバラキケン","city":"つくば市","city_kana":"ツクバシ","town":"みどりの中央","town_kana":"ミドリノチュウオウ","prefecture_code":8},"0883":{"zip_code":"3050883","prefecture":"茨城県","prefecture_kana":"イバラキケン","city":"つくば市","city_kana":"ツクバシ","town":"みどりの東","town_kana":"ミドリノヒガシ","prefecture_code":8},"0884":{"zip_code":"3050884","prefecture":"茨城県","prefecture_kana":"イバラキケン","city":"つくば市","city_kana":"ツクバシ","town":"みどりの南","town_kana":"ミドリノミナミ","prefecture_code":8},"0065":{"zip_code":"3050065","prefecture":"茨城県","prefecture_kana":"イバラキケン","city":"つくば市","city_kana":"ツクバシ","town":"南中妻","town_kana":"ミナミナカヅマ","prefecture_code":8},"0803":{"zip_code":"3050803","prefecture":"茨城県","prefecture_kana":"イバラキケン","city":"つくば市","city_kana":"ツクバシ","town":"南原","town_kana":"ミナミハラ","prefecture_code":8},"0841":{"zip_code":"3050841","prefecture":"茨城県","prefecture_kana":"イバラキケン","city":"つくば市","city_kana":"ツクバシ","town":"御幸が丘","town_kana":"ミユキガオカ","prefecture_code":8},"0842":{"zip_code":"3050842","prefecture":"茨城県","prefecture_kana":"イバラキケン","city":"つくば市","city_kana":"ツクバシ","town":"柳橋","town_kana":"ヤギハシ","prefecture_code":8},"0861":{"zip_code":"3050861","prefecture":"茨城県","prefecture_kana":"イバラキケン","city":"つくば市","city_kana":"ツクバシ","town":"谷田部","town_kana":"ヤタベ","prefecture_code":8},"0836":{"zip_code":"3050836","prefecture":"茨城県","prefecture_kana":"イバラキケン","city":"つくば市","city_kana":"ツクバシ","town":"山中","town_kana":"ヤマナカ","prefecture_code":8},"0017":{"zip_code":"3050017","prefecture":"茨城県","prefecture_kana":"イバラキケン","city":"つくば市","city_kana":"ツクバシ","town":"横町","town_kana":"ヨコマチ","prefecture_code":8},"0008":{"zip_code":"3050008","prefecture":"茨城県","prefecture_kana":"イバラキケン","city":"つくば市","city_kana":"ツクバシ","town":"流星台","town_kana":"リュウセイダイ","prefecture_code":8}}