{"0000":{"zip_code":"3060000","prefecture":"茨城県","prefecture_kana":"イバラキケン","city":"古河市","city_kana":"コガシ","town":"","town_kana":"","prefecture_code":8},"0012":{"zip_code":"3060012","prefecture":"茨城県","prefecture_kana":"イバラキケン","city":"古河市","city_kana":"コガシ","town":"旭町","town_kana":"アサヒチョウ","prefecture_code":8},"0044":{"zip_code":"3060044","prefecture":"茨城県","prefecture_kana":"イバラキケン","city":"古河市","city_kana":"コガシ","town":"新久田","town_kana":"アラクダ","prefecture_code":8},"0224":{"zip_code":"3060224","prefecture":"茨城県","prefecture_kana":"イバラキケン","city":"古河市","city_kana":"コガシ","town":"砂井新田","town_kana":"イサゴイシンデン","prefecture_code":8},"0225":{"zip_code":"3060225","prefecture":"茨城県","prefecture_kana":"イバラキケン","city":"古河市","city_kana":"コガシ","town":"磯部","town_kana":"イソベ","prefecture_code":8},"0202":{"zip_code":"3060202","prefecture":"茨城県","prefecture_kana":"イバラキケン","city":"古河市","city_kana":"コガシ","town":"稲宮","town_kana":"イナミヤ","prefecture_code":8},"0105":{"zip_code":"3060105","prefecture":"茨城県","prefecture_kana":"イバラキケン","city":"古河市","city_kana":"コガシ","town":"江口","town_kana":"エグチ","prefecture_code":8},"0236":{"zip_code":"3060236","prefecture":"茨城県","prefecture_kana":"イバラキケン","city":"古河市","city_kana":"コガシ","town":"大堤","town_kana":"オオツツミ","prefecture_code":8},"0032":{"zip_code":"3060032","prefecture":"茨城県","prefecture_kana":"イバラキケン","city":"古河市","city_kana":"コガシ","town":"大手町","town_kana":"オオテマチ","prefecture_code":8},"0052":{"zip_code":"3060052","prefecture":"茨城県","prefecture_kana":"イバラキケン","city":"古河市","city_kana":"コガシ","town":"大山","town_kana":"オオヤマ","prefecture_code":8},"0111":{"zip_code":"3060111","prefecture":"茨城県","prefecture_kana":"イバラキケン","city":"古河市","city_kana":"コガシ","town":"大和田","town_kana":"オオワダ","prefecture_code":8},"0206":{"zip_code":"3060206","prefecture":"茨城県","prefecture_kana":"イバラキケン","city":"古河市","city_kana":"コガシ","town":"丘里","town_kana":"オカザト","prefecture_code":8},"0101":{"zip_code":"3060101","prefecture":"茨城県","prefecture_kana":"イバラキケン","city":"古河市","city_kana":"コガシ","town":"尾崎","town_kana":"オサキ","prefecture_code":8},"0226":{"zip_code":"3060226","prefecture":"茨城県","prefecture_kana":"イバラキケン","city":"古河市","city_kana":"コガシ","town":"女沼","town_kana":"オナヌマ","prefecture_code":8},"0104":{"zip_code":"3060104","prefecture":"茨城県","prefecture_kana":"イバラキケン","city":"古河市","city_kana":"コガシ","town":"恩名","town_kana":"オンナ","prefecture_code":8},"0211":{"zip_code":"3060211","prefecture":"茨城県","prefecture_kana":"イバラキケン","city":"古河市","city_kana":"コガシ","town":"葛生","town_kana":"カズロウ","prefecture_code":8},"0223":{"zip_code":"3060223","prefecture":"茨城県","prefecture_kana":"イバラキケン","city":"古河市","city_kana":"コガシ","town":"上砂井","town_kana":"カミイサゴイ","prefecture_code":8},"0201":{"zip_code":"3060201","prefecture":"茨城県","prefecture_kana":"イバラキケン","city":"古河市","city_kana":"コガシ","town":"上大野","town_kana":"カミオオノ","prefecture_code":8},"0128":{"zip_code":"3060128","prefecture":"茨城県","prefecture_kana":"イバラキケン","city":"古河市","city_kana":"コガシ","town":"上片田","town_kana":"カミカタタ","prefecture_code":8},"0234":{"zip_code":"3060234","prefecture":"茨城県","prefecture_kana":"イバラキケン","city":"古河市","city_kana":"コガシ","town":"上辺見","town_kana":"カミヘミ","prefecture_code":8},"0122":{"zip_code":"3060122","prefecture":"茨城県","prefecture_kana":"イバラキケン","city":"古河市","city_kana":"コガシ","town":"上和田","town_kana":"カミワダ","prefecture_code":8},"0213":{"zip_code":"3060213","prefecture":"茨城県","prefecture_kana":"イバラキケン","city":"古河市","city_kana":"コガシ","town":"北利根","town_kana":"キタトネ","prefecture_code":8},"0005":{"zip_code":"3060005","prefecture":"茨城県","prefecture_kana":"イバラキケン","city":"古河市","city_kana":"コガシ","town":"北町","town_kana":"キタマチ","prefecture_code":8},"0106":{"zip_code":"3060106","prefecture":"茨城県","prefecture_kana":"イバラキケン","city":"古河市","city_kana":"コガシ","town":"北間中橋","town_kana":"キタマナカバシ","prefecture_code":8},"0115":{"zip_code":"3060115","prefecture":"茨城県","prefecture_kana":"イバラキケン","city":"古河市","city_kana":"コガシ","town":"北山田","town_kana":"キタヤマタ","prefecture_code":8},"0212":{"zip_code":"3060212","prefecture":"茨城県","prefecture_kana":"イバラキケン","city":"古河市","city_kana":"コガシ","town":"久能","town_kana":"クノウ","prefecture_code":8},"0055":{"zip_code":"3060055","prefecture":"茨城県","prefecture_kana":"イバラキケン","city":"古河市","city_kana":"コガシ","town":"けやき平","town_kana":"ケヤキダイラ","prefecture_code":8},"0041":{"zip_code":"3060041","prefecture":"茨城県","prefecture_kana":"イバラキケン","city":"古河市","city_kana":"コガシ","town":"鴻巣","town_kana":"コウノス","prefecture_code":8},"0214":{"zip_code":"3060214","prefecture":"茨城県","prefecture_kana":"イバラキケン","city":"古河市","city_kana":"コガシ","town":"高野","town_kana":"コウヤ","prefecture_code":8},"0016":{"zip_code":"3060016","prefecture":"茨城県","prefecture_kana":"イバラキケン","city":"古河市","city_kana":"コガシ","town":"古河","town_kana":"コガ","prefecture_code":8},"0231":{"zip_code":"3060231","prefecture":"茨城県","prefecture_kana":"イバラキケン","city":"古河市","city_kana":"コガシ","town":"小堤","town_kana":"コヅツミ","prefecture_code":8},"0123":{"zip_code":"3060123","prefecture":"茨城県","prefecture_kana":"イバラキケン","city":"古河市","city_kana":"コガシ","town":"五部","town_kana":"ゴヘイ","prefecture_code":8},"0045":{"zip_code":"3060045","prefecture":"茨城県","prefecture_kana":"イバラキケン","city":"古河市","city_kana":"コガシ","town":"駒ケ崎","town_kana":"コマガサキ","prefecture_code":8},"0121":{"zip_code":"3060121","prefecture":"茨城県","prefecture_kana":"イバラキケン","city":"古河市","city_kana":"コガシ","town":"駒込","town_kana":"コマゴメ","prefecture_code":8},"0221":{"zip_code":"3060221","prefecture":"茨城県","prefecture_kana":"イバラキケン","city":"古河市","city_kana":"コガシ","town":"駒羽根","town_kana":"コマハネ","prefecture_code":8},"0024":{"zip_code":"3060024","prefecture":"茨城県","prefecture_kana":"イバラキケン","city":"古河市","city_kana":"コガシ","town":"幸町","town_kana":"サイワイチョウ","prefecture_code":8},"0056":{"zip_code":"3060056","prefecture":"茨城県","prefecture_kana":"イバラキケン","city":"古河市","city_kana":"コガシ","town":"坂間","town_kana":"サカマ","prefecture_code":8},"0036":{"zip_code":"3060036","prefecture":"茨城県","prefecture_kana":"イバラキケン","city":"古河市","city_kana":"コガシ","town":"桜町","town_kana":"サクラマチ","prefecture_code":8},"0042":{"zip_code":"3060042","prefecture":"茨城県","prefecture_kana":"イバラキケン","city":"古河市","city_kana":"コガシ","town":"三和","town_kana":"サンワ","prefecture_code":8},"0001":{"zip_code":"3060001","prefecture":"茨城県","prefecture_kana":"イバラキケン","city":"古河市","city_kana":"コガシ","town":"静町","town_kana":"シズカチョウ","prefecture_code":8},"0204":{"zip_code":"3060204","prefecture":"茨城県","prefecture_kana":"イバラキケン","city":"古河市","city_kana":"コガシ","town":"下大野","town_kana":"シモオオノ","prefecture_code":8},"0127":{"zip_code":"3060127","prefecture":"茨城県","prefecture_kana":"イバラキケン","city":"古河市","city_kana":"コガシ","town":"下片田","town_kana":"シモカタタ","prefecture_code":8},"0235":{"zip_code":"3060235","prefecture":"茨城県","prefecture_kana":"イバラキケン","city":"古河市","city_kana":"コガシ","town":"下辺見","town_kana":"シモヘミ","prefecture_code":8},"0014":{"zip_code":"3060014","prefecture":"茨城県","prefecture_kana":"イバラキケン","city":"古河市","city_kana":"コガシ","town":"下山町","town_kana":"シモヤマチョウ","prefecture_code":8},"0222":{"zip_code":"3060222","prefecture":"茨城県","prefecture_kana":"イバラキケン","city":"古河市","city_kana":"コガシ","town":"釈迦","town_kana":"シャカ","prefecture_code":8},"0116":{"zip_code":"3060116","prefecture":"茨城県","prefecture_kana":"イバラキケン","city":"古河市","city_kana":"コガシ","town":"新和田","town_kana":"シンワダ","prefecture_code":8},"0205":{"zip_code":"3060205","prefecture":"茨城県","prefecture_kana":"イバラキケン","city":"古河市","city_kana":"コガシ","town":"関戸","town_kana":"セキド","prefecture_code":8},"0047":{"zip_code":"3060047","prefecture":"茨城県","prefecture_kana":"イバラキケン","city":"古河市","city_kana":"コガシ","town":"立崎","town_kana":"タツザキ","prefecture_code":8},"0051":{"zip_code":"3060051","prefecture":"茨城県","prefecture_kana":"イバラキケン","city":"古河市","city_kana":"コガシ","town":"茶屋新田","town_kana":"チャヤシンデン","prefecture_code":8},"0033":{"zip_code":"3060033","prefecture":"茨城県","prefecture_kana":"イバラキケン","city":"古河市","city_kana":"コガシ","town":"中央町","town_kana":"チュウオウチョウ","prefecture_code":8},"0103":{"zip_code":"3060103","prefecture":"茨城県","prefecture_kana":"イバラキケン","city":"古河市","city_kana":"コガシ","town":"長左エ門新田","town_kana":"チョウザエモンシンデン","prefecture_code":8},"0007":{"zip_code":"3060007","prefecture":"茨城県","prefecture_kana":"イバラキケン","city":"古河市","city_kana":"コガシ","town":"常盤町","town_kana":"トキワチョウ","prefecture_code":8},"0043":{"zip_code":"3060043","prefecture":"茨城県","prefecture_kana":"イバラキケン","city":"古河市","city_kana":"コガシ","town":"鳥喰","town_kana":"トリハミ","prefecture_code":8},"0053":{"zip_code":"3060053","prefecture":"茨城県","prefecture_kana":"イバラキケン","city":"古河市","city_kana":"コガシ","town":"中田","town_kana":"ナカダ","prefecture_code":8},"0054":{"zip_code":"3060054","prefecture":"茨城県","prefecture_kana":"イバラキケン","city":"古河市","city_kana":"コガシ","town":"中田新田","town_kana":"ナカダシンデン","prefecture_code":8},"0110":{"zip_code":"3060110","prefecture":"茨城県","prefecture_kana":"イバラキケン","city":"古河市","city_kana":"コガシ","town":"名崎","town_kana":"ナサキ","prefecture_code":8},"0233":{"zip_code":"3060233","prefecture":"茨城県","prefecture_kana":"イバラキケン","city":"古河市","city_kana":"コガシ","town":"西牛谷","town_kana":"ニシウシガヤ","prefecture_code":8},"0037":{"zip_code":"3060037","prefecture":"茨城県","prefecture_kana":"イバラキケン","city":"古河市","city_kana":"コガシ","town":"錦町","town_kana":"ニシキチョウ","prefecture_code":8},"0038":{"zip_code":"3060038","prefecture":"茨城県","prefecture_kana":"イバラキケン","city":"古河市","city_kana":"コガシ","town":"西町","town_kana":"ニシマチ","prefecture_code":8},"0109":{"zip_code":"3060109","prefecture":"茨城県","prefecture_kana":"イバラキケン","city":"古河市","city_kana":"コガシ","town":"西間中橋","town_kana":"ニシマナカバシ","prefecture_code":8},"0125":{"zip_code":"3060125","prefecture":"茨城県","prefecture_kana":"イバラキケン","city":"古河市","city_kana":"コガシ","town":"仁連","town_kana":"ニレイ","prefecture_code":8},"0035":{"zip_code":"3060035","prefecture":"茨城県","prefecture_kana":"イバラキケン","city":"古河市","city_kana":"コガシ","town":"長谷","town_kana":"ハセ","prefecture_code":8},"0034":{"zip_code":"3060034","prefecture":"茨城県","prefecture_kana":"イバラキケン","city":"古河市","city_kana":"コガシ","town":"長谷町","town_kana":"ハセマチ","prefecture_code":8},"0026":{"zip_code":"3060026","prefecture":"茨城県","prefecture_kana":"イバラキケン","city":"古河市","city_kana":"コガシ","town":"原","town_kana":"ハラ","prefecture_code":8},"0025":{"zip_code":"3060025","prefecture":"茨城県","prefecture_kana":"イバラキケン","city":"古河市","city_kana":"コガシ","town":"原町","town_kana":"ハラマチ","prefecture_code":8},"0011":{"zip_code":"3060011","prefecture":"茨城県","prefecture_kana":"イバラキケン","city":"古河市","city_kana":"コガシ","town":"東","town_kana":"ヒガシ","prefecture_code":8},"0232":{"zip_code":"3060232","prefecture":"茨城県","prefecture_kana":"イバラキケン","city":"古河市","city_kana":"コガシ","town":"東牛谷","town_kana":"ヒガシウシガヤ","prefecture_code":8},"0013":{"zip_code":"3060013","prefecture":"茨城県","prefecture_kana":"イバラキケン","city":"古河市","city_kana":"コガシ","town":"東本町","town_kana":"ヒガシホンチョウ","prefecture_code":8},"0107":{"zip_code":"3060107","prefecture":"茨城県","prefecture_kana":"イバラキケン","city":"古河市","city_kana":"コガシ","town":"東間中橋","town_kana":"ヒガシマナカバシ","prefecture_code":8},"0124":{"zip_code":"3060124","prefecture":"茨城県","prefecture_kana":"イバラキケン","city":"古河市","city_kana":"コガシ","town":"東諸川","town_kana":"ヒガシモロカワ","prefecture_code":8},"0112":{"zip_code":"3060112","prefecture":"茨城県","prefecture_kana":"イバラキケン","city":"古河市","city_kana":"コガシ","town":"東山田","town_kana":"ヒガシヤマタ","prefecture_code":8},"0006":{"zip_code":"3060006","prefecture":"茨城県","prefecture_kana":"イバラキケン","city":"古河市","city_kana":"コガシ","town":"平和町","town_kana":"ヘイワマチ","prefecture_code":8},"0023":{"zip_code":"3060023","prefecture":"茨城県","prefecture_kana":"イバラキケン","city":"古河市","city_kana":"コガシ","town":"本町","town_kana":"ホンチョウ","prefecture_code":8},"0216":{"zip_code":"3060216","prefecture":"茨城県","prefecture_kana":"イバラキケン","city":"古河市","city_kana":"コガシ","town":"前林","town_kana":"マエバヤシ","prefecture_code":8},"0046":{"zip_code":"3060046","prefecture":"茨城県","prefecture_kana":"イバラキケン","city":"古河市","city_kana":"コガシ","town":"牧野地","town_kana":"マキノジ","prefecture_code":8},"0021":{"zip_code":"3060021","prefecture":"茨城県","prefecture_kana":"イバラキケン","city":"古河市","city_kana":"コガシ","town":"松並","town_kana":"マツナミ","prefecture_code":8},"0215":{"zip_code":"3060215","prefecture":"茨城県","prefecture_kana":"イバラキケン","city":"古河市","city_kana":"コガシ","town":"水海","town_kana":"ミズウミ","prefecture_code":8},"0002":{"zip_code":"3060002","prefecture":"茨城県","prefecture_kana":"イバラキケン","city":"古河市","city_kana":"コガシ","town":"三杉町","town_kana":"ミスギチョウ","prefecture_code":8},"0003":{"zip_code":"3060003","prefecture":"茨城県","prefecture_kana":"イバラキケン","city":"古河市","city_kana":"コガシ","town":"緑町","town_kana":"ミドリチョウ","prefecture_code":8},"0015":{"zip_code":"3060015","prefecture":"茨城県","prefecture_kana":"イバラキケン","city":"古河市","city_kana":"コガシ","town":"南町","town_kana":"ミナミチョウ","prefecture_code":8},"0108":{"zip_code":"3060108","prefecture":"茨城県","prefecture_kana":"イバラキケン","city":"古河市","city_kana":"コガシ","town":"南間中橋","town_kana":"ミナミマナカバシ","prefecture_code":8},"0031":{"zip_code":"3060031","prefecture":"茨城県","prefecture_kana":"イバラキケン","city":"古河市","city_kana":"コガシ","town":"宮前町","town_kana":"ミヤマエチョウ","prefecture_code":8},"0126":{"zip_code":"3060126","prefecture":"茨城県","prefecture_kana":"イバラキケン","city":"古河市","city_kana":"コガシ","town":"諸川","town_kana":"モロカワ","prefecture_code":8},"0113":{"zip_code":"3060113","prefecture":"茨城県","prefecture_kana":"イバラキケン","city":"古河市","city_kana":"コガシ","town":"谷貝","town_kana":"ヤガイ","prefecture_code":8},"0203":{"zip_code":"3060203","prefecture":"茨城県","prefecture_kana":"イバラキケン","city":"古河市","city_kana":"コガシ","town":"柳橋","town_kana":"ヤギハシ","prefecture_code":8},"0114":{"zip_code":"3060114","prefecture":"茨城県","prefecture_kana":"イバラキケン","city":"古河市","city_kana":"コガシ","town":"山田","town_kana":"ヤマタ","prefecture_code":8},"0022":{"zip_code":"3060022","prefecture":"茨城県","prefecture_kana":"イバラキケン","city":"古河市","city_kana":"コガシ","town":"横山町","town_kana":"ヨコヤマチョウ","prefecture_code":8},"0004":{"zip_code":"3060004","prefecture":"茨城県","prefecture_kana":"イバラキケン","city":"古河市","city_kana":"コガシ","town":"雷電町","town_kana":"ライデンチョウ","prefecture_code":8},"0600":{"zip_code":"3060600","prefecture":"茨城県","prefecture_kana":"イバラキケン","city":"坂東市","city_kana":"バンドウシ","town":"","town_kana":"","prefecture_code":8},"0631":{"zip_code":"3060631","prefecture":"茨城県","prefecture_kana":"イバラキケン","city":"坂東市","city_kana":"バンドウシ","town":"岩井","town_kana":"イワイ","prefecture_code":8},"0514":{"zip_code":"3060514","prefecture":"茨城県","prefecture_kana":"イバラキケン","city":"坂東市","city_kana":"バンドウシ","town":"内野山","town_kana":"ウチノヤマ","prefecture_code":8},"0504":{"zip_code":"3060504","prefecture":"茨城県","prefecture_kana":"イバラキケン","city":"坂東市","city_kana":"バンドウシ","town":"生子","town_kana":"オイゴ","prefecture_code":8},"0503":{"zip_code":"3060503","prefecture":"茨城県","prefecture_kana":"イバラキケン","city":"坂東市","city_kana":"バンドウシ","town":"生子新田","town_kana":"オイゴシンデン","prefecture_code":8},"0615":{"zip_code":"3060615","prefecture":"茨城県","prefecture_kana":"イバラキケン","city":"坂東市","city_kana":"バンドウシ","town":"大口","town_kana":"オオグチ","prefecture_code":8},"0613":{"zip_code":"3060613","prefecture":"茨城県","prefecture_kana":"イバラキケン","city":"坂東市","city_kana":"バンドウシ","town":"大口新田","town_kana":"オオグチシンデン","prefecture_code":8},"0622":{"zip_code":"3060622","prefecture":"茨城県","prefecture_kana":"イバラキケン","city":"坂東市","city_kana":"バンドウシ","town":"大崎","town_kana":"オオサキ","prefecture_code":8},"0601":{"zip_code":"3060601","prefecture":"茨城県","prefecture_kana":"イバラキケン","city":"坂東市","city_kana":"バンドウシ","town":"大馬新田","town_kana":"オオマシンデン","prefecture_code":8},"0621":{"zip_code":"3060621","prefecture":"茨城県","prefecture_kana":"イバラキケン","city":"坂東市","city_kana":"バンドウシ","town":"大谷口","town_kana":"オオヤグチ","prefecture_code":8},"0626":{"zip_code":"3060626","prefecture":"茨城県","prefecture_kana":"イバラキケン","city":"坂東市","city_kana":"バンドウシ","town":"小山","town_kana":"オヤマ","prefecture_code":8},"0617":{"zip_code":"3060617","prefecture":"茨城県","prefecture_kana":"イバラキケン","city":"坂東市","city_kana":"バンドウシ","town":"神田山","town_kana":"カドヤマ","prefecture_code":8},"0611":{"zip_code":"3060611","prefecture":"茨城県","prefecture_kana":"イバラキケン","city":"坂東市","city_kana":"バンドウシ","town":"神田山新田","town_kana":"カドヤマシンデン","prefecture_code":8},"0654":{"zip_code":"3060654","prefecture":"茨城県","prefecture_kana":"イバラキケン","city":"坂東市","city_kana":"バンドウシ","town":"上出島","town_kana":"カミイズシマ","prefecture_code":8},"0657":{"zip_code":"3060657","prefecture":"茨城県","prefecture_kana":"イバラキケン","city":"坂東市","city_kana":"バンドウシ","town":"借宿","town_kana":"カリヤド","prefecture_code":8},"0603":{"zip_code":"3060603","prefecture":"茨城県","prefecture_kana":"イバラキケン","city":"坂東市","city_kana":"バンドウシ","town":"勘助新田","town_kana":"カンスケシンデン","prefecture_code":8},"0643":{"zip_code":"3060643","prefecture":"茨城県","prefecture_kana":"イバラキケン","city":"坂東市","city_kana":"バンドウシ","town":"木間ケ瀬","town_kana":"キマガセ","prefecture_code":8},"0636":{"zip_code":"3060636","prefecture":"茨城県","prefecture_kana":"イバラキケン","city":"坂東市","city_kana":"バンドウシ","town":"桐木","town_kana":"キリノキ","prefecture_code":8},"0641":{"zip_code":"3060641","prefecture":"茨城県","prefecture_kana":"イバラキケン","city":"坂東市","city_kana":"バンドウシ","town":"鵠戸","town_kana":"クグイド","prefecture_code":8},"0515":{"zip_code":"3060515","prefecture":"茨城県","prefecture_kana":"イバラキケン","city":"坂東市","city_kana":"バンドウシ","town":"沓掛","town_kana":"クツカケ","prefecture_code":8},"0513":{"zip_code":"3060513","prefecture":"茨城県","prefecture_kana":"イバラキケン","city":"坂東市","city_kana":"バンドウシ","town":"栗山新田","town_kana":"クリヤマシンデン","prefecture_code":8},"0635":{"zip_code":"3060635","prefecture":"茨城県","prefecture_kana":"イバラキケン","city":"坂東市","city_kana":"バンドウシ","town":"小泉","town_kana":"コイズミ","prefecture_code":8},"0608":{"zip_code":"3060608","prefecture":"茨城県","prefecture_kana":"イバラキケン","city":"坂東市","city_kana":"バンドウシ","town":"幸神平","town_kana":"コウシンダイラ","prefecture_code":8},"0606":{"zip_code":"3060606","prefecture":"茨城県","prefecture_kana":"イバラキケン","city":"坂東市","city_kana":"バンドウシ","town":"幸田","town_kana":"コウダ","prefecture_code":8},"0604":{"zip_code":"3060604","prefecture":"茨城県","prefecture_kana":"イバラキケン","city":"坂東市","city_kana":"バンドウシ","town":"幸田新田","town_kana":"コウダシンデン","prefecture_code":8},"0644":{"zip_code":"3060644","prefecture":"茨城県","prefecture_kana":"イバラキケン","city":"坂東市","city_kana":"バンドウシ","town":"古布内","town_kana":"コブウチ","prefecture_code":8},"0653":{"zip_code":"3060653","prefecture":"茨城県","prefecture_kana":"イバラキケン","city":"坂東市","city_kana":"バンドウシ","town":"駒跿","town_kana":"コマハネ","prefecture_code":8},"0501":{"zip_code":"3060501","prefecture":"茨城県","prefecture_kana":"イバラキケン","city":"坂東市","city_kana":"バンドウシ","town":"逆井","town_kana":"サカサイ","prefecture_code":8},"0512":{"zip_code":"3060512","prefecture":"茨城県","prefecture_kana":"イバラキケン","city":"坂東市","city_kana":"バンドウシ","town":"左平太新田","town_kana":"サヘイタシンデン","prefecture_code":8},"0633":{"zip_code":"3060633","prefecture":"茨城県","prefecture_kana":"イバラキケン","city":"坂東市","city_kana":"バンドウシ","town":"下出島","town_kana":"シモイズシマ","prefecture_code":8},"0614":{"zip_code":"3060614","prefecture":"茨城県","prefecture_kana":"イバラキケン","city":"坂東市","city_kana":"バンドウシ","town":"庄右衛門新田","town_kana":"ショウエモンシンデン","prefecture_code":8},"0505":{"zip_code":"3060505","prefecture":"茨城県","prefecture_kana":"イバラキケン","city":"坂東市","city_kana":"バンドウシ","town":"菅谷","town_kana":"スガヤ","prefecture_code":8},"0656":{"zip_code":"3060656","prefecture":"茨城県","prefecture_kana":"イバラキケン","city":"坂東市","city_kana":"バンドウシ","town":"寺久","town_kana":"テラク","prefecture_code":8},"0652":{"zip_code":"3060652","prefecture":"茨城県","prefecture_kana":"イバラキケン","city":"坂東市","city_kana":"バンドウシ","town":"冨田","town_kana":"トミタ","prefecture_code":8},"0634":{"zip_code":"3060634","prefecture":"茨城県","prefecture_kana":"イバラキケン","city":"坂東市","city_kana":"バンドウシ","town":"中里","town_kana":"ナカザト","prefecture_code":8},"0645":{"zip_code":"3060645","prefecture":"茨城県","prefecture_kana":"イバラキケン","city":"坂東市","city_kana":"バンドウシ","town":"長須","town_kana":"ナガス","prefecture_code":8},"0642":{"zip_code":"3060642","prefecture":"茨城県","prefecture_kana":"イバラキケン","city":"坂東市","city_kana":"バンドウシ","town":"長谷","town_kana":"ナガヤ","prefecture_code":8},"0616":{"zip_code":"3060616","prefecture":"茨城県","prefecture_kana":"イバラキケン","city":"坂東市","city_kana":"バンドウシ","town":"猫実","town_kana":"ネコザネ","prefecture_code":8},"0612":{"zip_code":"3060612","prefecture":"茨城県","prefecture_kana":"イバラキケン","city":"坂東市","city_kana":"バンドウシ","town":"猫実新田","town_kana":"ネコザネシンデン","prefecture_code":8},"0651":{"zip_code":"3060651","prefecture":"茨城県","prefecture_kana":"イバラキケン","city":"坂東市","city_kana":"バンドウシ","town":"半谷","town_kana":"ハンヤ","prefecture_code":8},"0602":{"zip_code":"3060602","prefecture":"茨城県","prefecture_kana":"イバラキケン","city":"坂東市","city_kana":"バンドウシ","town":"平八新田","town_kana":"ヘイハチシンデン","prefecture_code":8},"0632":{"zip_code":"3060632","prefecture":"茨城県","prefecture_kana":"イバラキケン","city":"坂東市","city_kana":"バンドウシ","town":"辺田","town_kana":"ヘタ","prefecture_code":8},"0623":{"zip_code":"3060623","prefecture":"茨城県","prefecture_kana":"イバラキケン","city":"坂東市","city_kana":"バンドウシ","town":"法師戸","town_kana":"ホウシト","prefecture_code":8},"0511":{"zip_code":"3060511","prefecture":"茨城県","prefecture_kana":"イバラキケン","city":"坂東市","city_kana":"バンドウシ","town":"孫兵エ新田","town_kana":"マゴベエシンデン","prefecture_code":8},"0605":{"zip_code":"3060605","prefecture":"茨城県","prefecture_kana":"イバラキケン","city":"坂東市","city_kana":"バンドウシ","town":"馬立","town_kana":"マタテ","prefecture_code":8},"0637":{"zip_code":"3060637","prefecture":"茨城県","prefecture_kana":"イバラキケン","city":"坂東市","city_kana":"バンドウシ","town":"みどり町","town_kana":"ミドリチョウ","prefecture_code":8},"0655":{"zip_code":"3060655","prefecture":"茨城県","prefecture_kana":"イバラキケン","city":"坂東市","city_kana":"バンドウシ","town":"みむら","town_kana":"ミムラ","prefecture_code":8},"0625":{"zip_code":"3060625","prefecture":"茨城県","prefecture_kana":"イバラキケン","city":"坂東市","city_kana":"バンドウシ","town":"莚打","town_kana":"ムシロウチ","prefecture_code":8},"0624":{"zip_code":"3060624","prefecture":"茨城県","prefecture_kana":"イバラキケン","city":"坂東市","city_kana":"バンドウシ","town":"矢作","town_kana":"ヤハギ","prefecture_code":8},"0502":{"zip_code":"3060502","prefecture":"茨城県","prefecture_kana":"イバラキケン","city":"坂東市","city_kana":"バンドウシ","town":"山","town_kana":"ヤマ","prefecture_code":8},"0607":{"zip_code":"3060607","prefecture":"茨城県","prefecture_kana":"イバラキケン","city":"坂東市","city_kana":"バンドウシ","town":"弓田","town_kana":"ユダ","prefecture_code":8},"0300":{"zip_code":"3060300","prefecture":"茨城県","prefecture_kana":"イバラキケン","city":"猿島郡五霞町","city_kana":"サシマグンゴカマチ","town":"","town_kana":"","prefecture_code":8},"0303":{"zip_code":"3060303","prefecture":"茨城県","prefecture_kana":"イバラキケン","city":"猿島郡五霞町","city_kana":"サシマグンゴカマチ","town":"江川","town_kana":"エガワ","prefecture_code":8},"0311":{"zip_code":"3060311","prefecture":"茨城県","prefecture_kana":"イバラキケン","city":"猿島郡五霞町","city_kana":"サシマグンゴカマチ","town":"大福田","town_kana":"オオフクダ","prefecture_code":8},"0314":{"zip_code":"3060314","prefecture":"茨城県","prefecture_kana":"イバラキケン","city":"猿島郡五霞町","city_kana":"サシマグンゴカマチ","town":"川妻","town_kana":"カワツマ","prefecture_code":8},"0304":{"zip_code":"3060304","prefecture":"茨城県","prefecture_kana":"イバラキケン","city":"猿島郡五霞町","city_kana":"サシマグンゴカマチ","town":"幸主","town_kana":"コウシュ","prefecture_code":8},"0315":{"zip_code":"3060315","prefecture":"茨城県","prefecture_kana":"イバラキケン","city":"猿島郡五霞町","city_kana":"サシマグンゴカマチ","town":"小手指","town_kana":"コテサシ","prefecture_code":8},"0307":{"zip_code":"3060307","prefecture":"茨城県","prefecture_kana":"イバラキケン","city":"猿島郡五霞町","city_kana":"サシマグンゴカマチ","town":"小福田","town_kana":"コフクダ","prefecture_code":8},"0302":{"zip_code":"3060302","prefecture":"茨城県","prefecture_kana":"イバラキケン","city":"猿島郡五霞町","city_kana":"サシマグンゴカマチ","town":"山王","town_kana":"サンノウ","prefecture_code":8},"0301":{"zip_code":"3060301","prefecture":"茨城県","prefecture_kana":"イバラキケン","city":"猿島郡五霞町","city_kana":"サシマグンゴカマチ","town":"山王山","town_kana":"サンノウヤマ","prefecture_code":8},"0316":{"zip_code":"3060316","prefecture":"茨城県","prefecture_kana":"イバラキケン","city":"猿島郡五霞町","city_kana":"サシマグンゴカマチ","town":"釈迦","town_kana":"シャカ","prefecture_code":8},"0312":{"zip_code":"3060312","prefecture":"茨城県","prefecture_kana":"イバラキケン","city":"猿島郡五霞町","city_kana":"サシマグンゴカマチ","town":"新幸谷","town_kana":"シンコウヤ","prefecture_code":8},"0306":{"zip_code":"3060306","prefecture":"茨城県","prefecture_kana":"イバラキケン","city":"猿島郡五霞町","city_kana":"サシマグンゴカマチ","town":"原宿台","town_kana":"ハラジュクダイ","prefecture_code":8},"0305":{"zip_code":"3060305","prefecture":"茨城県","prefecture_kana":"イバラキケン","city":"猿島郡五霞町","city_kana":"サシマグンゴカマチ","town":"冬木","town_kana":"フユギ","prefecture_code":8},"0317":{"zip_code":"3060317","prefecture":"茨城県","prefecture_kana":"イバラキケン","city":"猿島郡五霞町","city_kana":"サシマグンゴカマチ","town":"前林","town_kana":"マエバヤシ","prefecture_code":8},"0313":{"zip_code":"3060313","prefecture":"茨城県","prefecture_kana":"イバラキケン","city":"猿島郡五霞町","city_kana":"サシマグンゴカマチ","town":"元栗橋","town_kana":"モトクリハシ","prefecture_code":8},"0400":{"zip_code":"3060400","prefecture":"茨城県","prefecture_kana":"イバラキケン","city":"猿島郡境町","city_kana":"サシマグンサカイマチ","town":"","town_kana":"","prefecture_code":8},"0433":{"zip_code":"3060433","prefecture":"茨城県","prefecture_kana":"イバラキケン","city":"猿島郡境町","city_kana":"サシマグンサカイマチ","town":"","town_kana":"","prefecture_code":8},"0422":{"zip_code":"3060422","prefecture":"茨城県","prefecture_kana":"イバラキケン","city":"猿島郡境町","city_kana":"サシマグンサカイマチ","town":"一ノ谷","town_kana":"イチノヤ","prefecture_code":8},"0407":{"zip_code":"3060407","prefecture":"茨城県","prefecture_kana":"イバラキケン","city":"猿島郡境町","city_kana":"サシマグンサカイマチ","town":"稲尾","town_kana":"イナオ","prefecture_code":8},"0414":{"zip_code":"3060414","prefecture":"茨城県","prefecture_kana":"イバラキケン","city":"猿島郡境町","city_kana":"サシマグンサカイマチ","town":"内門","town_kana":"ウチカド","prefecture_code":8},"0427":{"zip_code":"3060427","prefecture":"茨城県","prefecture_kana":"イバラキケン","city":"猿島郡境町","city_kana":"サシマグンサカイマチ","town":"浦向","town_kana":"ウラムコウ","prefecture_code":8},"0426":{"zip_code":"3060426","prefecture":"茨城県","prefecture_kana":"イバラキケン","city":"猿島郡境町","city_kana":"サシマグンサカイマチ","town":"金岡","town_kana":"カネオカ","prefecture_code":8},"0434":{"zip_code":"3060434","prefecture":"茨城県","prefecture_kana":"イバラキケン","city":"猿島郡境町","city_kana":"サシマグンサカイマチ","town":"上小橋","town_kana":"カミコバシ","prefecture_code":8},"0424":{"zip_code":"3060424","prefecture":"茨城県","prefecture_kana":"イバラキケン","city":"猿島郡境町","city_kana":"サシマグンサカイマチ","town":"桐ケ作","town_kana":"キリガサク","prefecture_code":8},"0412":{"zip_code":"3060412","prefecture":"茨城県","prefecture_kana":"イバラキケン","city":"猿島郡境町","city_kana":"サシマグンサカイマチ","town":"栗山","town_kana":"クリヤマ","prefecture_code":8},"0402":{"zip_code":"3060402","prefecture":"茨城県","prefecture_kana":"イバラキケン","city":"猿島郡境町","city_kana":"サシマグンサカイマチ","town":"猿山","town_kana":"サルヤマ","prefecture_code":8},"0401":{"zip_code":"3060401","prefecture":"茨城県","prefecture_kana":"イバラキケン","city":"猿島郡境町","city_kana":"サシマグンサカイマチ","town":"志鳥","town_kana":"シトリ","prefecture_code":8},"0411":{"zip_code":"3060411","prefecture":"茨城県","prefecture_kana":"イバラキケン","city":"猿島郡境町","city_kana":"サシマグンサカイマチ","town":"下砂井","town_kana":"シモイサゴイ","prefecture_code":8},"0432":{"zip_code":"3060432","prefecture":"茨城県","prefecture_kana":"イバラキケン","city":"猿島郡境町","city_kana":"サシマグンサカイマチ","town":"下小橋","town_kana":"シモコバシ","prefecture_code":8},"0403":{"zip_code":"3060403","prefecture":"茨城県","prefecture_kana":"イバラキケン","city":"猿島郡境町","city_kana":"サシマグンサカイマチ","town":"蛇池","town_kana":"ジャイケ","prefecture_code":8},"0421":{"zip_code":"3060421","prefecture":"茨城県","prefecture_kana":"イバラキケン","city":"猿島郡境町","city_kana":"サシマグンサカイマチ","town":"染谷","town_kana":"ソメヤ","prefecture_code":8},"0405":{"zip_code":"3060405","prefecture":"茨城県","prefecture_kana":"イバラキケン","city":"猿島郡境町","city_kana":"サシマグンサカイマチ","town":"塚崎","town_kana":"ツカザキ","prefecture_code":8},"0404":{"zip_code":"3060404","prefecture":"茨城県","prefecture_kana":"イバラキケン","city":"猿島郡境町","city_kana":"サシマグンサカイマチ","town":"長井戸","town_kana":"ナガイド","prefecture_code":8},"0431":{"zip_code":"3060431","prefecture":"茨城県","prefecture_kana":"イバラキケン","city":"猿島郡境町","city_kana":"サシマグンサカイマチ","town":"西泉田","town_kana":"ニシイズミダ","prefecture_code":8},"0425":{"zip_code":"3060425","prefecture":"茨城県","prefecture_kana":"イバラキケン","city":"猿島郡境町","city_kana":"サシマグンサカイマチ","town":"新田戸","town_kana":"ニッタド","prefecture_code":8},"0416":{"zip_code":"3060416","prefecture":"茨城県","prefecture_kana":"イバラキケン","city":"猿島郡境町","city_kana":"サシマグンサカイマチ","town":"伏木","town_kana":"フセギ","prefecture_code":8},"0423":{"zip_code":"3060423","prefecture":"茨城県","prefecture_kana":"イバラキケン","city":"猿島郡境町","city_kana":"サシマグンサカイマチ","town":"百戸","town_kana":"モド","prefecture_code":8},"0413":{"zip_code":"3060413","prefecture":"茨城県","prefecture_kana":"イバラキケン","city":"猿島郡境町","city_kana":"サシマグンサカイマチ","town":"山崎","town_kana":"ヤマザキ","prefecture_code":8},"0435":{"zip_code":"3060435","prefecture":"茨城県","prefecture_kana":"イバラキケン","city":"猿島郡境町","city_kana":"サシマグンサカイマチ","town":"陽光台","town_kana":"ヨウコウダイ","prefecture_code":8},"0406":{"zip_code":"3060406","prefecture":"茨城県","prefecture_kana":"イバラキケン","city":"猿島郡境町","city_kana":"サシマグンサカイマチ","town":"横塚","town_kana":"ヨコツカ","prefecture_code":8},"0417":{"zip_code":"3060417","prefecture":"茨城県","prefecture_kana":"イバラキケン","city":"猿島郡境町","city_kana":"サシマグンサカイマチ","town":"若林","town_kana":"ワカバヤシ","prefecture_code":8},"0415":{"zip_code":"3060415","prefecture":"茨城県","prefecture_kana":"イバラキケン","city":"猿島郡境町","city_kana":"サシマグンサカイマチ","town":"大歩","town_kana":"ワゴ","prefecture_code":8}}