{"0000":{"zip_code":"3080000","prefecture":"茨城県","prefecture_kana":"イバラキケン","city":"筑西市","city_kana":"チクセイシ","town":"以下に掲載がない場合","town_kana":"イカニケイサイガナイバアイ","prefecture_code":8},"0836":{"zip_code":"3080836","prefecture":"茨城県","prefecture_kana":"イバラキケン","city":"筑西市","city_kana":"チクセイシ","town":"旭ケ丘","town_kana":"アサヒガオカ","prefecture_code":8},"0064":{"zip_code":"3080064","prefecture":"茨城県","prefecture_kana":"イバラキケン","city":"筑西市","city_kana":"チクセイシ","town":"飯島","town_kana":"イイジマ","prefecture_code":8},"0835":{"zip_code":"3080835","prefecture":"茨城県","prefecture_kana":"イバラキケン","city":"筑西市","city_kana":"チクセイシ","town":"飯田","town_kana":"イイダ","prefecture_code":8},"0853":{"zip_code":"3080853","prefecture":"茨城県","prefecture_kana":"イバラキケン","city":"筑西市","city_kana":"チクセイシ","town":"伊讃美","town_kana":"イサミ","prefecture_code":8},"0856":{"zip_code":"3080856","prefecture":"茨城県","prefecture_kana":"イバラキケン","city":"筑西市","city_kana":"チクセイシ","town":"伊佐山","town_kana":"イサヤマ","prefecture_code":8},"0075":{"zip_code":"3080075","prefecture":"茨城県","prefecture_kana":"イバラキケン","city":"筑西市","city_kana":"チクセイシ","town":"石塔","town_kana":"イシトウ","prefecture_code":8},"0055":{"zip_code":"3080055","prefecture":"茨城県","prefecture_kana":"イバラキケン","city":"筑西市","city_kana":"チクセイシ","town":"石原田","town_kana":"イシハラダ","prefecture_code":8},"0076":{"zip_code":"3080076","prefecture":"茨城県","prefecture_kana":"イバラキケン","city":"筑西市","city_kana":"チクセイシ","town":"泉","town_kana":"イズミ","prefecture_code":8},"0116":{"zip_code":"3080116","prefecture":"茨城県","prefecture_kana":"イバラキケン","city":"筑西市","city_kana":"チクセイシ","town":"板橋","town_kana":"イタバシ","prefecture_code":8},"0827":{"zip_code":"3080827","prefecture":"茨城県","prefecture_kana":"イバラキケン","city":"筑西市","city_kana":"チクセイシ","town":"市野辺","town_kana":"イチノベ","prefecture_code":8},"0842":{"zip_code":"3080842","prefecture":"茨城県","prefecture_kana":"イバラキケン","city":"筑西市","city_kana":"チクセイシ","town":"一本松","town_kana":"イッポンマツ","prefecture_code":8},"0805":{"zip_code":"3080805","prefecture":"茨城県","prefecture_kana":"イバラキケン","city":"筑西市","city_kana":"チクセイシ","town":"稲野辺","town_kana":"イナノベ","prefecture_code":8},"0106":{"zip_code":"3080106","prefecture":"茨城県","prefecture_kana":"イバラキケン","city":"筑西市","city_kana":"チクセイシ","town":"稲荷","town_kana":"イナリ","prefecture_code":8},"0117":{"zip_code":"3080117","prefecture":"茨城県","prefecture_kana":"イバラキケン","city":"筑西市","city_kana":"チクセイシ","town":"犬塚","town_kana":"イヌヅカ","prefecture_code":8},"0101":{"zip_code":"3080101","prefecture":"茨城県","prefecture_kana":"イバラキケン","city":"筑西市","city_kana":"チクセイシ","town":"井上","town_kana":"イノウエ","prefecture_code":8},"0129":{"zip_code":"3080129","prefecture":"茨城県","prefecture_kana":"イバラキケン","city":"筑西市","city_kana":"チクセイシ","town":"上野","town_kana":"ウエノ","prefecture_code":8},"0128":{"zip_code":"3080128","prefecture":"茨城県","prefecture_kana":"イバラキケン","city":"筑西市","city_kana":"チクセイシ","town":"江","town_kana":"エ","prefecture_code":8},"0015":{"zip_code":"3080015","prefecture":"茨城県","prefecture_kana":"イバラキケン","city":"筑西市","city_kana":"チクセイシ","town":"大関","town_kana":"オオゼキ","prefecture_code":8},"0813":{"zip_code":"3080813","prefecture":"茨城県","prefecture_kana":"イバラキケン","city":"筑西市","city_kana":"チクセイシ","town":"大塚","town_kana":"オオツカ","prefecture_code":8},"0852":{"zip_code":"3080852","prefecture":"茨城県","prefecture_kana":"イバラキケン","city":"筑西市","city_kana":"チクセイシ","town":"大谷","town_kana":"オオヤ","prefecture_code":8},"0051":{"zip_code":"3080051","prefecture":"茨城県","prefecture_kana":"イバラキケン","city":"筑西市","city_kana":"チクセイシ","town":"岡芹","town_kana":"オカゼリ","prefecture_code":8},"0857":{"zip_code":"3080857","prefecture":"茨城県","prefecture_kana":"イバラキケン","city":"筑西市","city_kana":"チクセイシ","town":"小川","town_kana":"オガワ","prefecture_code":8},"0012":{"zip_code":"3080012","prefecture":"茨城県","prefecture_kana":"イバラキケン","city":"筑西市","city_kana":"チクセイシ","town":"奥田","town_kana":"オクダ","prefecture_code":8},"0854":{"zip_code":"3080854","prefecture":"茨城県","prefecture_kana":"イバラキケン","city":"筑西市","city_kana":"チクセイシ","town":"女方","town_kana":"オザカタ","prefecture_code":8},"0002":{"zip_code":"3080002","prefecture":"茨城県","prefecture_kana":"イバラキケン","city":"筑西市","city_kana":"チクセイシ","town":"落合","town_kana":"オチアイ","prefecture_code":8},"0041":{"zip_code":"3080041","prefecture":"茨城県","prefecture_kana":"イバラキケン","city":"筑西市","city_kana":"チクセイシ","town":"乙","town_kana":"オツ","prefecture_code":8},"0806":{"zip_code":"3080806","prefecture":"茨城県","prefecture_kana":"イバラキケン","city":"筑西市","city_kana":"チクセイシ","town":"小林","town_kana":"オバヤシ","prefecture_code":8},"0007":{"zip_code":"3080007","prefecture":"茨城県","prefecture_kana":"イバラキケン","city":"筑西市","city_kana":"チクセイシ","town":"折本","town_kana":"オリモト","prefecture_code":8},"0837":{"zip_code":"3080837","prefecture":"茨城県","prefecture_kana":"イバラキケン","city":"筑西市","city_kana":"チクセイシ","town":"嘉家佐和","town_kana":"カゲサワ","prefecture_code":8},"0107":{"zip_code":"3080107","prefecture":"茨城県","prefecture_kana":"イバラキケン","city":"筑西市","city_kana":"チクセイシ","town":"梶内","town_kana":"カジウチ","prefecture_code":8},"0804":{"zip_code":"3080804","prefecture":"茨城県","prefecture_kana":"イバラキケン","city":"筑西市","city_kana":"チクセイシ","town":"金丸","town_kana":"カナマル","prefecture_code":8},"0815":{"zip_code":"3080815","prefecture":"茨城県","prefecture_kana":"イバラキケン","city":"筑西市","city_kana":"チクセイシ","town":"上川中子","town_kana":"カミカワナゴ","prefecture_code":8},"0017":{"zip_code":"3080017","prefecture":"茨城県","prefecture_kana":"イバラキケン","city":"筑西市","city_kana":"チクセイシ","town":"上中山","town_kana":"カミナカヤマ","prefecture_code":8},"0067":{"zip_code":"3080067","prefecture":"茨城県","prefecture_kana":"イバラキケン","city":"筑西市","city_kana":"チクセイシ","town":"上平塚","town_kana":"カミヒラツカ","prefecture_code":8},"0063":{"zip_code":"3080063","prefecture":"茨城県","prefecture_kana":"イバラキケン","city":"筑西市","city_kana":"チクセイシ","town":"神分","town_kana":"カミワケ","prefecture_code":8},"0801":{"zip_code":"3080801","prefecture":"茨城県","prefecture_kana":"イバラキケン","city":"筑西市","city_kana":"チクセイシ","town":"川澄","town_kana":"カワスミ","prefecture_code":8},"0814":{"zip_code":"3080814","prefecture":"茨城県","prefecture_kana":"イバラキケン","city":"筑西市","city_kana":"チクセイシ","town":"川連","town_kana":"カワヅレ","prefecture_code":8},"0104":{"zip_code":"3080104","prefecture":"茨城県","prefecture_kana":"イバラキケン","city":"筑西市","city_kana":"チクセイシ","town":"木戸","town_kana":"キド","prefecture_code":8},"0071":{"zip_code":"3080071","prefecture":"茨城県","prefecture_kana":"イバラキケン","city":"筑西市","city_kana":"チクセイシ","town":"口戸","town_kana":"クチド","prefecture_code":8},"0061":{"zip_code":"3080061","prefecture":"茨城県","prefecture_kana":"イバラキケン","city":"筑西市","city_kana":"チクセイシ","town":"栗島","town_kana":"クリシマ","prefecture_code":8},"0102":{"zip_code":"3080102","prefecture":"茨城県","prefecture_kana":"イバラキケン","city":"筑西市","city_kana":"チクセイシ","town":"黒子","town_kana":"クロゴ","prefecture_code":8},"0021":{"zip_code":"3080021","prefecture":"茨城県","prefecture_kana":"イバラキケン","city":"筑西市","city_kana":"チクセイシ","town":"甲","town_kana":"コウ","prefecture_code":8},"0004":{"zip_code":"3080004","prefecture":"茨城県","prefecture_kana":"イバラキケン","city":"筑西市","city_kana":"チクセイシ","town":"国府田","town_kana":"コウダ","prefecture_code":8},"0077":{"zip_code":"3080077","prefecture":"茨城県","prefecture_kana":"イバラキケン","city":"筑西市","city_kana":"チクセイシ","town":"子思儀","town_kana":"コシギ","prefecture_code":8},"0866":{"zip_code":"3080866","prefecture":"茨城県","prefecture_kana":"イバラキケン","city":"筑西市","city_kana":"チクセイシ","town":"五所宮","town_kana":"ゴショミヤ","prefecture_code":8},"0862":{"zip_code":"3080862","prefecture":"茨城県","prefecture_kana":"イバラキケン","city":"筑西市","city_kana":"チクセイシ","town":"小塙","town_kana":"コバナ","prefecture_code":8},"0848":{"zip_code":"3080848","prefecture":"茨城県","prefecture_kana":"イバラキケン","city":"筑西市","city_kana":"チクセイシ","town":"幸町","town_kana":"サイワイチョウ","prefecture_code":8},"0065":{"zip_code":"3080065","prefecture":"茨城県","prefecture_kana":"イバラキケン","city":"筑西市","city_kana":"チクセイシ","town":"笹塚","town_kana":"ササヅカ","prefecture_code":8},"0072":{"zip_code":"3080072","prefecture":"茨城県","prefecture_kana":"イバラキケン","city":"筑西市","city_kana":"チクセイシ","town":"柴山","town_kana":"シバヤマ","prefecture_code":8},"0823":{"zip_code":"3080823","prefecture":"茨城県","prefecture_kana":"イバラキケン","city":"筑西市","city_kana":"チクセイシ","town":"島","town_kana":"シマ","prefecture_code":8},"0851":{"zip_code":"3080851","prefecture":"茨城県","prefecture_kana":"イバラキケン","city":"筑西市","city_kana":"チクセイシ","town":"下江連","town_kana":"シモエヅレ","prefecture_code":8},"0826":{"zip_code":"3080826","prefecture":"茨城県","prefecture_kana":"イバラキケン","city":"筑西市","city_kana":"チクセイシ","town":"下岡崎","town_kana":"シモオカザキ","prefecture_code":8},"0855":{"zip_code":"3080855","prefecture":"茨城県","prefecture_kana":"イバラキケン","city":"筑西市","city_kana":"チクセイシ","town":"下川島","town_kana":"シモカワシマ","prefecture_code":8},"0011":{"zip_code":"3080011","prefecture":"茨城県","prefecture_kana":"イバラキケン","city":"筑西市","city_kana":"チクセイシ","town":"下高田","town_kana":"シモタカダ","prefecture_code":8},"0825":{"zip_code":"3080825","prefecture":"茨城県","prefecture_kana":"イバラキケン","city":"筑西市","city_kana":"チクセイシ","town":"下中山","town_kana":"シモナカヤマ","prefecture_code":8},"0844":{"zip_code":"3080844","prefecture":"茨城県","prefecture_kana":"イバラキケン","city":"筑西市","city_kana":"チクセイシ","town":"下野殿","town_kana":"シモノドノ","prefecture_code":8},"0066":{"zip_code":"3080066","prefecture":"茨城県","prefecture_kana":"イバラキケン","city":"筑西市","city_kana":"チクセイシ","town":"下平塚","town_kana":"シモヒラツカ","prefecture_code":8},"0052":{"zip_code":"3080052","prefecture":"茨城県","prefecture_kana":"イバラキケン","city":"筑西市","city_kana":"チクセイシ","town":"菅谷","town_kana":"スガヤ","prefecture_code":8},"0113":{"zip_code":"3080113","prefecture":"茨城県","prefecture_kana":"イバラキケン","city":"筑西市","city_kana":"チクセイシ","town":"関舘","town_kana":"セキタテ","prefecture_code":8},"0124":{"zip_code":"3080124","prefecture":"茨城県","prefecture_kana":"イバラキケン","city":"筑西市","city_kana":"チクセイシ","town":"関本肥土","town_kana":"セキモトアクト","prefecture_code":8},"0122":{"zip_code":"3080122","prefecture":"茨城県","prefecture_kana":"イバラキケン","city":"筑西市","city_kana":"チクセイシ","town":"関本上","town_kana":"セキモトカミ","prefecture_code":8},"0123":{"zip_code":"3080123","prefecture":"茨城県","prefecture_kana":"イバラキケン","city":"筑西市","city_kana":"チクセイシ","town":"関本上中","town_kana":"セキモトカミナカ","prefecture_code":8},"0127":{"zip_code":"3080127","prefecture":"茨城県","prefecture_kana":"イバラキケン","city":"筑西市","city_kana":"チクセイシ","town":"関本下","town_kana":"セキモトシモ","prefecture_code":8},"0126":{"zip_code":"3080126","prefecture":"茨城県","prefecture_kana":"イバラキケン","city":"筑西市","city_kana":"チクセイシ","town":"関本中","town_kana":"セキモトナカ","prefecture_code":8},"0125":{"zip_code":"3080125","prefecture":"茨城県","prefecture_kana":"イバラキケン","city":"筑西市","city_kana":"チクセイシ","town":"関本分中","town_kana":"セキモトワケナカ","prefecture_code":8},"0864":{"zip_code":"3080864","prefecture":"茨城県","prefecture_kana":"イバラキケン","city":"筑西市","city_kana":"チクセイシ","town":"掉ケ島","town_kana":"ソウカジマ","prefecture_code":8},"0807":{"zip_code":"3080807","prefecture":"茨城県","prefecture_kana":"イバラキケン","city":"筑西市","city_kana":"チクセイシ","town":"高島","town_kana":"タカシマ","prefecture_code":8},"0847":{"zip_code":"3080847","prefecture":"茨城県","prefecture_kana":"イバラキケン","city":"筑西市","city_kana":"チクセイシ","town":"玉戸","town_kana":"タマド","prefecture_code":8},"0074":{"zip_code":"3080074","prefecture":"茨城県","prefecture_kana":"イバラキケン","city":"筑西市","city_kana":"チクセイシ","town":"筑瀬","town_kana":"チクゼ","prefecture_code":8},"0822":{"zip_code":"3080822","prefecture":"茨城県","prefecture_kana":"イバラキケン","city":"筑西市","city_kana":"チクセイシ","town":"塚原","town_kana":"ツカハラ","prefecture_code":8},"0103":{"zip_code":"3080103","prefecture":"茨城県","prefecture_kana":"イバラキケン","city":"筑西市","city_kana":"チクセイシ","town":"辻","town_kana":"ツジ","prefecture_code":8},"0816":{"zip_code":"3080816","prefecture":"茨城県","prefecture_kana":"イバラキケン","city":"筑西市","city_kana":"チクセイシ","town":"徳持","town_kana":"トクモチ","prefecture_code":8},"0053":{"zip_code":"3080053","prefecture":"茨城県","prefecture_kana":"イバラキケン","city":"筑西市","city_kana":"チクセイシ","town":"外塚","town_kana":"トノヅカ","prefecture_code":8},"0803":{"zip_code":"3080803","prefecture":"茨城県","prefecture_kana":"イバラキケン","city":"筑西市","city_kana":"チクセイシ","town":"直井","town_kana":"ナオイ","prefecture_code":8},"0005":{"zip_code":"3080005","prefecture":"茨城県","prefecture_kana":"イバラキケン","city":"筑西市","city_kana":"チクセイシ","town":"中舘","town_kana":"ナカダテ","prefecture_code":8},"0108":{"zip_code":"3080108","prefecture":"茨城県","prefecture_kana":"イバラキケン","city":"筑西市","city_kana":"チクセイシ","town":"中村新田","town_kana":"ナカムラシンデン","prefecture_code":8},"0821":{"zip_code":"3080821","prefecture":"茨城県","prefecture_kana":"イバラキケン","city":"筑西市","city_kana":"チクセイシ","town":"成田","town_kana":"ナリタ","prefecture_code":8},"0841":{"zip_code":"3080841","prefecture":"茨城県","prefecture_kana":"イバラキケン","city":"筑西市","city_kana":"チクセイシ","town":"二木成","town_kana":"ニギナリ","prefecture_code":8},"0834":{"zip_code":"3080834","prefecture":"茨城県","prefecture_kana":"イバラキケン","city":"筑西市","city_kana":"チクセイシ","town":"西石田","town_kana":"ニシイシダ","prefecture_code":8},"0062":{"zip_code":"3080062","prefecture":"茨城県","prefecture_kana":"イバラキケン","city":"筑西市","city_kana":"チクセイシ","town":"西大島","town_kana":"ニシオオシマ","prefecture_code":8},"0845":{"zip_code":"3080845","prefecture":"茨城県","prefecture_kana":"イバラキケン","city":"筑西市","city_kana":"チクセイシ","town":"西方","town_kana":"ニシホウ","prefecture_code":8},"0105":{"zip_code":"3080105","prefecture":"茨城県","prefecture_kana":"イバラキケン","city":"筑西市","city_kana":"チクセイシ","town":"西保末","town_kana":"ニシホズエ","prefecture_code":8},"0054":{"zip_code":"3080054","prefecture":"茨城県","prefecture_kana":"イバラキケン","city":"筑西市","city_kana":"チクセイシ","town":"西谷貝","town_kana":"ニシヤガイ","prefecture_code":8},"0867":{"zip_code":"3080867","prefecture":"茨城県","prefecture_kana":"イバラキケン","city":"筑西市","city_kana":"チクセイシ","town":"西山田","town_kana":"ニシヤマダ","prefecture_code":8},"0832":{"zip_code":"3080832","prefecture":"茨城県","prefecture_kana":"イバラキケン","city":"筑西市","city_kana":"チクセイシ","town":"西榎生","town_kana":"ニシヨノウ","prefecture_code":8},"0846":{"zip_code":"3080846","prefecture":"茨城県","prefecture_kana":"イバラキケン","city":"筑西市","city_kana":"チクセイシ","town":"布川","town_kana":"ヌノガワ","prefecture_code":8},"0016":{"zip_code":"3080016","prefecture":"茨城県","prefecture_kana":"イバラキケン","city":"筑西市","city_kana":"チクセイシ","town":"野","town_kana":"ノ","prefecture_code":8},"0833":{"zip_code":"3080833","prefecture":"茨城県","prefecture_kana":"イバラキケン","city":"筑西市","city_kana":"チクセイシ","town":"野田","town_kana":"ノダ","prefecture_code":8},"0843":{"zip_code":"3080843","prefecture":"茨城県","prefecture_kana":"イバラキケン","city":"筑西市","city_kana":"チクセイシ","town":"野殿","town_kana":"ノドノ","prefecture_code":8},"0863":{"zip_code":"3080863","prefecture":"茨城県","prefecture_kana":"イバラキケン","city":"筑西市","city_kana":"チクセイシ","town":"灰塚","town_kana":"ハイツカ","prefecture_code":8},"0014":{"zip_code":"3080014","prefecture":"茨城県","prefecture_kana":"イバラキケン","city":"筑西市","city_kana":"チクセイシ","town":"羽方","town_kana":"ハガタ","prefecture_code":8},"0013":{"zip_code":"3080013","prefecture":"茨城県","prefecture_kana":"イバラキケン","city":"筑西市","city_kana":"チクセイシ","town":"八田","town_kana":"ハッタ","prefecture_code":8},"0114":{"zip_code":"3080114","prefecture":"茨城県","prefecture_kana":"イバラキケン","city":"筑西市","city_kana":"チクセイシ","town":"花田","town_kana":"ハナダ","prefecture_code":8},"0115":{"zip_code":"3080115","prefecture":"茨城県","prefecture_kana":"イバラキケン","city":"筑西市","city_kana":"チクセイシ","town":"花橋","town_kana":"ハナバシ","prefecture_code":8},"0073":{"zip_code":"3080073","prefecture":"茨城県","prefecture_kana":"イバラキケン","city":"筑西市","city_kana":"チクセイシ","town":"林","town_kana":"ハヤシ","prefecture_code":8},"0831":{"zip_code":"3080831","prefecture":"茨城県","prefecture_kana":"イバラキケン","city":"筑西市","city_kana":"チクセイシ","town":"東榎生","town_kana":"ヒガシヨノウ","prefecture_code":8},"0001":{"zip_code":"3080001","prefecture":"茨城県","prefecture_kana":"イバラキケン","city":"筑西市","city_kana":"チクセイシ","town":"樋口","town_kana":"ヒグチ","prefecture_code":8},"0812":{"zip_code":"3080812","prefecture":"茨城県","prefecture_kana":"イバラキケン","city":"筑西市","city_kana":"チクセイシ","town":"深見","town_kana":"フカミ","prefecture_code":8},"0112":{"zip_code":"3080112","prefecture":"茨城県","prefecture_kana":"イバラキケン","city":"筑西市","city_kana":"チクセイシ","town":"藤ケ谷","town_kana":"フジガヤ","prefecture_code":8},"0121":{"zip_code":"3080121","prefecture":"茨城県","prefecture_kana":"イバラキケン","city":"筑西市","city_kana":"チクセイシ","town":"船玉","town_kana":"フナダマ","prefecture_code":8},"0111":{"zip_code":"3080111","prefecture":"茨城県","prefecture_kana":"イバラキケン","city":"筑西市","city_kana":"チクセイシ","town":"舟生","town_kana":"フニュウ","prefecture_code":8},"0031":{"zip_code":"3080031","prefecture":"茨城県","prefecture_kana":"イバラキケン","city":"筑西市","city_kana":"チクセイシ","town":"丙","town_kana":"ヘイ","prefecture_code":8},"0003":{"zip_code":"3080003","prefecture":"茨城県","prefecture_kana":"イバラキケン","city":"筑西市","city_kana":"チクセイシ","town":"蒔田","town_kana":"マクダ","prefecture_code":8},"0042":{"zip_code":"3080042","prefecture":"茨城県","prefecture_kana":"イバラキケン","city":"筑西市","city_kana":"チクセイシ","town":"みどり町","town_kana":"ミドリマチ","prefecture_code":8},"0811":{"zip_code":"3080811","prefecture":"茨城県","prefecture_kana":"イバラキケン","city":"筑西市","city_kana":"チクセイシ","town":"茂田","town_kana":"モダ","prefecture_code":8},"0861":{"zip_code":"3080861","prefecture":"茨城県","prefecture_kana":"イバラキケン","city":"筑西市","city_kana":"チクセイシ","town":"森添島","town_kana":"モリソエジマ","prefecture_code":8},"0056":{"zip_code":"3080056","prefecture":"茨城県","prefecture_kana":"イバラキケン","city":"筑西市","city_kana":"チクセイシ","town":"谷中","town_kana":"ヤナカ","prefecture_code":8},"0006":{"zip_code":"3080006","prefecture":"茨城県","prefecture_kana":"イバラキケン","city":"筑西市","city_kana":"チクセイシ","town":"谷部","town_kana":"ヤベ","prefecture_code":8},"0865":{"zip_code":"3080865","prefecture":"茨城県","prefecture_kana":"イバラキケン","city":"筑西市","city_kana":"チクセイシ","town":"山崎","town_kana":"ヤマザキ","prefecture_code":8},"0802":{"zip_code":"3080802","prefecture":"茨城県","prefecture_kana":"イバラキケン","city":"筑西市","city_kana":"チクセイシ","town":"横島","town_kana":"ヨコシマ","prefecture_code":8},"0838":{"zip_code":"3080838","prefecture":"茨城県","prefecture_kana":"イバラキケン","city":"筑西市","city_kana":"チクセイシ","town":"榎生","town_kana":"ヨノウ","prefecture_code":8},"0824":{"zip_code":"3080824","prefecture":"茨城県","prefecture_kana":"イバラキケン","city":"筑西市","city_kana":"チクセイシ","town":"蕨","town_kana":"ワラビ","prefecture_code":8}}