{"1600":{"zip_code":"3091600","prefecture":"茨城県","prefecture_kana":"イバラキケン","city":"笠間市","city_kana":"カサマシ","town":"","town_kana":"","prefecture_code":8},"1616":{"zip_code":"3091616","prefecture":"茨城県","prefecture_kana":"イバラキケン","city":"笠間市","city_kana":"カサマシ","town":"赤坂","town_kana":"アカサカ","prefecture_code":8},"1717":{"zip_code":"3091717","prefecture":"茨城県","prefecture_kana":"イバラキケン","city":"笠間市","city_kana":"カサマシ","town":"旭町","town_kana":"アサヒマチ","prefecture_code":8},"1632":{"zip_code":"3091632","prefecture":"茨城県","prefecture_kana":"イバラキケン","city":"笠間市","city_kana":"カサマシ","town":"飯合","town_kana":"イイゴウ","prefecture_code":8},"1605":{"zip_code":"3091605","prefecture":"茨城県","prefecture_kana":"イバラキケン","city":"笠間市","city_kana":"カサマシ","town":"飯田","town_kana":"イイダ","prefecture_code":8},"1602":{"zip_code":"3091602","prefecture":"茨城県","prefecture_kana":"イバラキケン","city":"笠間市","city_kana":"カサマシ","town":"池野辺","town_kana":"イケノベ","prefecture_code":8},"1613":{"zip_code":"3091613","prefecture":"茨城県","prefecture_kana":"イバラキケン","city":"笠間市","city_kana":"カサマシ","town":"石井","town_kana":"イシイ","prefecture_code":8},"1607":{"zip_code":"3091607","prefecture":"茨城県","prefecture_kana":"イバラキケン","city":"笠間市","city_kana":"カサマシ","town":"石寺","town_kana":"イシデラ","prefecture_code":8},"1635":{"zip_code":"3091635","prefecture":"茨城県","prefecture_kana":"イバラキケン","city":"笠間市","city_kana":"カサマシ","town":"稲田","town_kana":"イナダ","prefecture_code":8},"1636":{"zip_code":"3091636","prefecture":"茨城県","prefecture_kana":"イバラキケン","city":"笠間市","city_kana":"カサマシ","town":"大郷戸","town_kana":"オオゴト","prefecture_code":8},"1724":{"zip_code":"3091724","prefecture":"茨城県","prefecture_kana":"イバラキケン","city":"笠間市","city_kana":"カサマシ","town":"大古山","town_kana":"オオゴヤマ","prefecture_code":8},"1738":{"zip_code":"3091738","prefecture":"茨城県","prefecture_kana":"イバラキケン","city":"笠間市","city_kana":"カサマシ","town":"大田町","town_kana":"オオタマチ","prefecture_code":8},"1601":{"zip_code":"3091601","prefecture":"茨城県","prefecture_kana":"イバラキケン","city":"笠間市","city_kana":"カサマシ","town":"大橋","town_kana":"オオハシ","prefecture_code":8},"1604":{"zip_code":"3091604","prefecture":"茨城県","prefecture_kana":"イバラキケン","city":"笠間市","city_kana":"カサマシ","town":"大渕","town_kana":"オオブチ","prefecture_code":8},"1701":{"zip_code":"3091701","prefecture":"茨城県","prefecture_kana":"イバラキケン","city":"笠間市","city_kana":"カサマシ","town":"小原","town_kana":"オバラ","prefecture_code":8},"1611":{"zip_code":"3091611","prefecture":"茨城県","prefecture_kana":"イバラキケン","city":"笠間市","city_kana":"カサマシ","town":"笠間","town_kana":"カサマ","prefecture_code":8},"1713":{"zip_code":"3091713","prefecture":"茨城県","prefecture_kana":"イバラキケン","city":"笠間市","city_kana":"カサマシ","town":"柏井","town_kana":"カシワイ","prefecture_code":8},"1637":{"zip_code":"3091637","prefecture":"茨城県","prefecture_kana":"イバラキケン","city":"笠間市","city_kana":"カサマシ","town":"片庭","town_kana":"カタニワ","prefecture_code":8},"1615":{"zip_code":"3091615","prefecture":"茨城県","prefecture_kana":"イバラキケン","city":"笠間市","city_kana":"カサマシ","town":"金井","town_kana":"カナイ","prefecture_code":8},"1731":{"zip_code":"3091731","prefecture":"茨城県","prefecture_kana":"イバラキケン","city":"笠間市","city_kana":"カサマシ","town":"上市原","town_kana":"カミイチバラ","prefecture_code":8},"1623":{"zip_code":"3091623","prefecture":"茨城県","prefecture_kana":"イバラキケン","city":"笠間市","city_kana":"カサマシ","town":"上加賀田","town_kana":"カミカガダ","prefecture_code":8},"1624":{"zip_code":"3091624","prefecture":"茨城県","prefecture_kana":"イバラキケン","city":"笠間市","city_kana":"カサマシ","town":"北吉原","town_kana":"キタヨシワラ","prefecture_code":8},"1625":{"zip_code":"3091625","prefecture":"茨城県","prefecture_kana":"イバラキケン","city":"笠間市","city_kana":"カサマシ","town":"来栖","town_kana":"クルス","prefecture_code":8},"1703":{"zip_code":"3091703","prefecture":"茨城県","prefecture_kana":"イバラキケン","city":"笠間市","city_kana":"カサマシ","town":"鯉淵","town_kana":"コイブチ","prefecture_code":8},"1706":{"zip_code":"3091706","prefecture":"茨城県","prefecture_kana":"イバラキケン","city":"笠間市","city_kana":"カサマシ","town":"鴻巣","town_kana":"コウノス","prefecture_code":8},"1702":{"zip_code":"3091702","prefecture":"茨城県","prefecture_kana":"イバラキケン","city":"笠間市","city_kana":"カサマシ","town":"五平","town_kana":"ゴヘイ","prefecture_code":8},"1626":{"zip_code":"3091626","prefecture":"茨城県","prefecture_kana":"イバラキケン","city":"笠間市","city_kana":"カサマシ","town":"下市毛","town_kana":"シモイチゲ","prefecture_code":8},"1733":{"zip_code":"3091733","prefecture":"茨城県","prefecture_kana":"イバラキケン","city":"笠間市","city_kana":"カサマシ","town":"下市原","town_kana":"シモイチバラ","prefecture_code":8},"1726":{"zip_code":"3091726","prefecture":"茨城県","prefecture_kana":"イバラキケン","city":"笠間市","city_kana":"カサマシ","town":"下加賀田","town_kana":"シモカガタ","prefecture_code":8},"1716":{"zip_code":"3091716","prefecture":"茨城県","prefecture_kana":"イバラキケン","city":"笠間市","city_kana":"カサマシ","town":"住吉","town_kana":"スミヨシ","prefecture_code":8},"1722":{"zip_code":"3091722","prefecture":"茨城県","prefecture_kana":"イバラキケン","city":"笠間市","city_kana":"カサマシ","town":"平町","town_kana":"タイラマチ","prefecture_code":8},"1737":{"zip_code":"3091737","prefecture":"茨城県","prefecture_kana":"イバラキケン","city":"笠間市","city_kana":"カサマシ","town":"中央","town_kana":"チュウオウ","prefecture_code":8},"1621":{"zip_code":"3091621","prefecture":"茨城県","prefecture_kana":"イバラキケン","city":"笠間市","city_kana":"カサマシ","town":"手越","town_kana":"テゴシ","prefecture_code":8},"1614":{"zip_code":"3091614","prefecture":"茨城県","prefecture_kana":"イバラキケン","city":"笠間市","city_kana":"カサマシ","town":"寺崎","town_kana":"テラザキ","prefecture_code":8},"1735":{"zip_code":"3091735","prefecture":"茨城県","prefecture_kana":"イバラキケン","city":"笠間市","city_kana":"カサマシ","town":"友部駅前","town_kana":"トモベエキマエ","prefecture_code":8},"1732":{"zip_code":"3091732","prefecture":"茨城県","prefecture_kana":"イバラキケン","city":"笠間市","city_kana":"カサマシ","town":"中市原","town_kana":"ナカイチバラ","prefecture_code":8},"1712":{"zip_code":"3091712","prefecture":"茨城県","prefecture_kana":"イバラキケン","city":"笠間市","city_kana":"カサマシ","town":"長兎路","town_kana":"ナガトロ","prefecture_code":8},"1711":{"zip_code":"3091711","prefecture":"茨城県","prefecture_kana":"イバラキケン","city":"笠間市","city_kana":"カサマシ","town":"随分附","town_kana":"ナムサンヅケ","prefecture_code":8},"1714":{"zip_code":"3091714","prefecture":"茨城県","prefecture_kana":"イバラキケン","city":"笠間市","city_kana":"カサマシ","town":"仁古田","town_kana":"ニコダ","prefecture_code":8},"1631":{"zip_code":"3091631","prefecture":"茨城県","prefecture_kana":"イバラキケン","city":"笠間市","city_kana":"カサマシ","town":"箱田","town_kana":"ハコダ","prefecture_code":8},"1721":{"zip_code":"3091721","prefecture":"茨城県","prefecture_kana":"イバラキケン","city":"笠間市","city_kana":"カサマシ","town":"橋爪","town_kana":"ハシヅメ","prefecture_code":8},"1705":{"zip_code":"3091705","prefecture":"茨城県","prefecture_kana":"イバラキケン","city":"笠間市","city_kana":"カサマシ","town":"東平","town_kana":"ヒガシダイラ","prefecture_code":8},"1606":{"zip_code":"3091606","prefecture":"茨城県","prefecture_kana":"イバラキケン","city":"笠間市","city_kana":"カサマシ","town":"日沢","town_kana":"ヒザワ","prefecture_code":8},"1612":{"zip_code":"3091612","prefecture":"茨城県","prefecture_kana":"イバラキケン","city":"笠間市","city_kana":"カサマシ","town":"日草場","town_kana":"ヒクサバ","prefecture_code":8},"1603":{"zip_code":"3091603","prefecture":"茨城県","prefecture_kana":"イバラキケン","city":"笠間市","city_kana":"カサマシ","town":"福田","town_kana":"フクダ","prefecture_code":8},"1634":{"zip_code":"3091634","prefecture":"茨城県","prefecture_kana":"イバラキケン","city":"笠間市","city_kana":"カサマシ","town":"福原","town_kana":"フクハラ","prefecture_code":8},"1725":{"zip_code":"3091725","prefecture":"茨城県","prefecture_kana":"イバラキケン","city":"笠間市","city_kana":"カサマシ","town":"南小泉","town_kana":"ミナミコイズミ","prefecture_code":8},"1734":{"zip_code":"3091734","prefecture":"茨城県","prefecture_kana":"イバラキケン","city":"笠間市","city_kana":"カサマシ","town":"南友部","town_kana":"ミナミトモベ","prefecture_code":8},"1622":{"zip_code":"3091622","prefecture":"茨城県","prefecture_kana":"イバラキケン","city":"笠間市","city_kana":"カサマシ","town":"南吉原","town_kana":"ミナミヨシワラ","prefecture_code":8},"1704":{"zip_code":"3091704","prefecture":"茨城県","prefecture_kana":"イバラキケン","city":"笠間市","city_kana":"カサマシ","town":"美原","town_kana":"ミハラ","prefecture_code":8},"1633":{"zip_code":"3091633","prefecture":"茨城県","prefecture_kana":"イバラキケン","city":"笠間市","city_kana":"カサマシ","town":"本戸","town_kana":"モトド","prefecture_code":8},"1736":{"zip_code":"3091736","prefecture":"茨城県","prefecture_kana":"イバラキケン","city":"笠間市","city_kana":"カサマシ","town":"八雲","town_kana":"ヤクモ","prefecture_code":8},"1723":{"zip_code":"3091723","prefecture":"茨城県","prefecture_kana":"イバラキケン","city":"笠間市","city_kana":"カサマシ","town":"矢野下","town_kana":"ヤノシタ","prefecture_code":8},"1715":{"zip_code":"3091715","prefecture":"茨城県","prefecture_kana":"イバラキケン","city":"笠間市","city_kana":"カサマシ","town":"湯崎","town_kana":"ユザキ","prefecture_code":8},"1108":{"zip_code":"3091108","prefecture":"茨城県","prefecture_kana":"イバラキケン","city":"筑西市","city_kana":"チクセイシ","town":"井出蛯沢","town_kana":"イテエビサワ","prefecture_code":8},"1125":{"zip_code":"3091125","prefecture":"茨城県","prefecture_kana":"イバラキケン","city":"筑西市","city_kana":"チクセイシ","town":"大島","town_kana":"オオシマ","prefecture_code":8},"1101":{"zip_code":"3091101","prefecture":"茨城県","prefecture_kana":"イバラキケン","city":"筑西市","city_kana":"チクセイシ","town":"小栗","town_kana":"オグリ","prefecture_code":8},"1107":{"zip_code":"3091107","prefecture":"茨城県","prefecture_kana":"イバラキケン","city":"筑西市","city_kana":"チクセイシ","town":"門井","town_kana":"カドイ","prefecture_code":8},"1111":{"zip_code":"3091111","prefecture":"茨城県","prefecture_kana":"イバラキケン","city":"筑西市","city_kana":"チクセイシ","town":"上星谷","town_kana":"カミホシヤ","prefecture_code":8},"1103":{"zip_code":"3091103","prefecture":"茨城県","prefecture_kana":"イバラキケン","city":"筑西市","city_kana":"チクセイシ","town":"久地楽","town_kana":"クジラ","prefecture_code":8},"1127":{"zip_code":"3091127","prefecture":"茨城県","prefecture_kana":"イバラキケン","city":"筑西市","city_kana":"チクセイシ","town":"桑山","town_kana":"クワヤマ","prefecture_code":8},"1105":{"zip_code":"3091105","prefecture":"茨城県","prefecture_kana":"イバラキケン","city":"筑西市","city_kana":"チクセイシ","town":"三郷","town_kana":"サンゴウ","prefecture_code":8},"1126":{"zip_code":"3091126","prefecture":"茨城県","prefecture_kana":"イバラキケン","city":"筑西市","city_kana":"チクセイシ","town":"清水","town_kana":"シミズ","prefecture_code":8},"1123":{"zip_code":"3091123","prefecture":"茨城県","prefecture_kana":"イバラキケン","city":"筑西市","city_kana":"チクセイシ","town":"下郷谷","town_kana":"シモゴウヤ","prefecture_code":8},"1122":{"zip_code":"3091122","prefecture":"茨城県","prefecture_kana":"イバラキケン","city":"筑西市","city_kana":"チクセイシ","town":"下星谷","town_kana":"シモホシヤ","prefecture_code":8},"1124":{"zip_code":"3091124","prefecture":"茨城県","prefecture_kana":"イバラキケン","city":"筑西市","city_kana":"チクセイシ","town":"知行","town_kana":"チギョウ","prefecture_code":8},"1106":{"zip_code":"3091106","prefecture":"茨城県","prefecture_kana":"イバラキケン","city":"筑西市","city_kana":"チクセイシ","town":"新治","town_kana":"ニイハリ","prefecture_code":8},"1115":{"zip_code":"3091115","prefecture":"茨城県","prefecture_kana":"イバラキケン","city":"筑西市","city_kana":"チクセイシ","town":"蓮沼","town_kana":"ハスヌマ","prefecture_code":8},"1104":{"zip_code":"3091104","prefecture":"茨城県","prefecture_kana":"イバラキケン","city":"筑西市","city_kana":"チクセイシ","town":"古郡","town_kana":"フルゴオリ","prefecture_code":8},"1114":{"zip_code":"3091114","prefecture":"茨城県","prefecture_kana":"イバラキケン","city":"筑西市","city_kana":"チクセイシ","town":"細田","town_kana":"ホソダ","prefecture_code":8},"1117":{"zip_code":"3091117","prefecture":"茨城県","prefecture_kana":"イバラキケン","city":"筑西市","city_kana":"チクセイシ","town":"向川澄","town_kana":"ムコウカワスミ","prefecture_code":8},"1121":{"zip_code":"3091121","prefecture":"茨城県","prefecture_kana":"イバラキケン","city":"筑西市","city_kana":"チクセイシ","town":"谷永島","town_kana":"ヤナガシマ","prefecture_code":8},"1113":{"zip_code":"3091113","prefecture":"茨城県","prefecture_kana":"イバラキケン","city":"筑西市","city_kana":"チクセイシ","town":"柳","town_kana":"ヤナギ","prefecture_code":8},"1112":{"zip_code":"3091112","prefecture":"茨城県","prefecture_kana":"イバラキケン","city":"筑西市","city_kana":"チクセイシ","town":"八幡","town_kana":"ヤハタ","prefecture_code":8},"1116":{"zip_code":"3091116","prefecture":"茨城県","prefecture_kana":"イバラキケン","city":"筑西市","city_kana":"チクセイシ","town":"横塚","town_kana":"ヨコツカ","prefecture_code":8},"1102":{"zip_code":"3091102","prefecture":"茨城県","prefecture_kana":"イバラキケン","city":"筑西市","city_kana":"チクセイシ","town":"蓬田","town_kana":"ヨモギタ","prefecture_code":8},"1200":{"zip_code":"3091200","prefecture":"茨城県","prefecture_kana":"イバラキケン","city":"桜川市","city_kana":"サクラガワシ","town":"","town_kana":"","prefecture_code":8},"1241":{"zip_code":"3091241","prefecture":"茨城県","prefecture_kana":"イバラキケン","city":"桜川市","city_kana":"サクラガワシ","town":"青木","town_kana":"アオキ","prefecture_code":8},"1456":{"zip_code":"3091456","prefecture":"茨城県","prefecture_kana":"イバラキケン","city":"桜川市","city_kana":"サクラガワシ","town":"青柳","town_kana":"アオヤギ","prefecture_code":8},"1216":{"zip_code":"3091216","prefecture":"茨城県","prefecture_kana":"イバラキケン","city":"桜川市","city_kana":"サクラガワシ","town":"明日香","town_kana":"アスカ","prefecture_code":8},"1234":{"zip_code":"3091234","prefecture":"茨城県","prefecture_kana":"イバラキケン","city":"桜川市","city_kana":"サクラガワシ","town":"阿部田","town_kana":"アベタ","prefecture_code":8},"1202":{"zip_code":"3091202","prefecture":"茨城県","prefecture_kana":"イバラキケン","city":"桜川市","city_kana":"サクラガワシ","town":"飯淵","town_kana":"イイブチ","prefecture_code":8},"1332":{"zip_code":"3091332","prefecture":"茨城県","prefecture_kana":"イバラキケン","city":"桜川市","city_kana":"サクラガワシ","town":"池亀","town_kana":"イケガメ","prefecture_code":8},"1457":{"zip_code":"3091457","prefecture":"茨城県","prefecture_kana":"イバラキケン","city":"桜川市","city_kana":"サクラガワシ","town":"磯部","town_kana":"イソベ","prefecture_code":8},"1458":{"zip_code":"3091458","prefecture":"茨城県","prefecture_kana":"イバラキケン","city":"桜川市","city_kana":"サクラガワシ","town":"稲","town_kana":"イナ","prefecture_code":8},"1217":{"zip_code":"3091217","prefecture":"茨城県","prefecture_kana":"イバラキケン","city":"桜川市","city_kana":"サクラガワシ","town":"犬田","town_kana":"イヌタ","prefecture_code":8},"1464":{"zip_code":"3091464","prefecture":"茨城県","prefecture_kana":"イバラキケン","city":"桜川市","city_kana":"サクラガワシ","town":"今泉","town_kana":"イマイズミ","prefecture_code":8},"1345":{"zip_code":"3091345","prefecture":"茨城県","prefecture_kana":"イバラキケン","city":"桜川市","city_kana":"サクラガワシ","town":"入野","town_kana":"イリノ","prefecture_code":8},"1211":{"zip_code":"3091211","prefecture":"茨城県","prefecture_kana":"イバラキケン","city":"桜川市","city_kana":"サクラガワシ","town":"岩瀬","town_kana":"イワセ","prefecture_code":8},"1226":{"zip_code":"3091226","prefecture":"茨城県","prefecture_kana":"イバラキケン","city":"桜川市","city_kana":"サクラガワシ","town":"上野原地新田","town_kana":"ウエノハラチシンデン","prefecture_code":8},"1201":{"zip_code":"3091201","prefecture":"茨城県","prefecture_kana":"イバラキケン","city":"桜川市","city_kana":"サクラガワシ","town":"大泉","town_kana":"オオイズミ","prefecture_code":8},"1244":{"zip_code":"3091244","prefecture":"茨城県","prefecture_kana":"イバラキケン","city":"桜川市","city_kana":"サクラガワシ","town":"大国玉","town_kana":"オオクニタマ","prefecture_code":8},"1232":{"zip_code":"3091232","prefecture":"茨城県","prefecture_kana":"イバラキケン","city":"桜川市","city_kana":"サクラガワシ","town":"大曽根","town_kana":"オオゾネ","prefecture_code":8},"1335":{"zip_code":"3091335","prefecture":"茨城県","prefecture_kana":"イバラキケン","city":"桜川市","city_kana":"サクラガワシ","town":"大月","town_kana":"オオツキ","prefecture_code":8},"1222":{"zip_code":"3091222","prefecture":"茨城県","prefecture_kana":"イバラキケン","city":"桜川市","city_kana":"サクラガワシ","town":"長方","town_kana":"オサカタ","prefecture_code":8},"1341":{"zip_code":"3091341","prefecture":"茨城県","prefecture_kana":"イバラキケン","city":"桜川市","city_kana":"サクラガワシ","town":"門毛","town_kana":"カドケ","prefecture_code":8},"1245":{"zip_code":"3091245","prefecture":"茨城県","prefecture_kana":"イバラキケン","city":"桜川市","city_kana":"サクラガワシ","town":"金敷","town_kana":"カナシキ","prefecture_code":8},"1454":{"zip_code":"3091454","prefecture":"茨城県","prefecture_kana":"イバラキケン","city":"桜川市","city_kana":"サクラガワシ","town":"上城","town_kana":"カミシロ","prefecture_code":8},"1343":{"zip_code":"3091343","prefecture":"茨城県","prefecture_kana":"イバラキケン","city":"桜川市","city_kana":"サクラガワシ","town":"亀岡","town_kana":"カメオカ","prefecture_code":8},"1452":{"zip_code":"3091452","prefecture":"茨城県","prefecture_kana":"イバラキケン","city":"桜川市","city_kana":"サクラガワシ","town":"加茂部","town_kana":"カモベ","prefecture_code":8},"1465":{"zip_code":"3091465","prefecture":"茨城県","prefecture_kana":"イバラキケン","city":"桜川市","city_kana":"サクラガワシ","town":"木植","town_kana":"キウエ","prefecture_code":8},"1204":{"zip_code":"3091204","prefecture":"茨城県","prefecture_kana":"イバラキケン","city":"桜川市","city_kana":"サクラガワシ","town":"久原","town_kana":"クバラ","prefecture_code":8},"1223":{"zip_code":"3091223","prefecture":"茨城県","prefecture_kana":"イバラキケン","city":"桜川市","city_kana":"サクラガワシ","town":"鍬田","town_kana":"クワダ","prefecture_code":8},"1336":{"zip_code":"3091336","prefecture":"茨城県","prefecture_kana":"イバラキケン","city":"桜川市","city_kana":"サクラガワシ","town":"小塩","town_kana":"コシオ","prefecture_code":8},"1215":{"zip_code":"3091215","prefecture":"茨城県","prefecture_kana":"イバラキケン","city":"桜川市","city_kana":"サクラガワシ","town":"御領","town_kana":"ゴリョウ","prefecture_code":8},"1334":{"zip_code":"3091334","prefecture":"茨城県","prefecture_kana":"イバラキケン","city":"桜川市","city_kana":"サクラガワシ","town":"坂本","town_kana":"サカモト","prefecture_code":8},"1466":{"zip_code":"3091466","prefecture":"茨城県","prefecture_kana":"イバラキケン","city":"桜川市","city_kana":"サクラガワシ","town":"猿田","town_kana":"サルダ","prefecture_code":8},"1225":{"zip_code":"3091225","prefecture":"茨城県","prefecture_kana":"イバラキケン","city":"桜川市","city_kana":"サクラガワシ","town":"下泉","town_kana":"シモイズミ","prefecture_code":8},"1462":{"zip_code":"3091462","prefecture":"茨城県","prefecture_kana":"イバラキケン","city":"桜川市","city_kana":"サクラガワシ","town":"曽根","town_kana":"ソネ","prefecture_code":8},"1243":{"zip_code":"3091243","prefecture":"茨城県","prefecture_kana":"イバラキケン","city":"桜川市","city_kana":"サクラガワシ","town":"高久","town_kana":"タカク","prefecture_code":8},"1463":{"zip_code":"3091463","prefecture":"茨城県","prefecture_kana":"イバラキケン","city":"桜川市","city_kana":"サクラガワシ","town":"高幡","town_kana":"タカハタ","prefecture_code":8},"1246":{"zip_code":"3091246","prefecture":"茨城県","prefecture_kana":"イバラキケン","city":"桜川市","city_kana":"サクラガワシ","town":"高森","town_kana":"タカモリ","prefecture_code":8},"1205":{"zip_code":"3091205","prefecture":"茨城県","prefecture_kana":"イバラキケン","city":"桜川市","city_kana":"サクラガワシ","town":"堤上","town_kana":"ツツミノウエ","prefecture_code":8},"1203":{"zip_code":"3091203","prefecture":"茨城県","prefecture_kana":"イバラキケン","city":"桜川市","city_kana":"サクラガワシ","town":"富岡","town_kana":"トミオカ","prefecture_code":8},"1347":{"zip_code":"3091347","prefecture":"茨城県","prefecture_kana":"イバラキケン","city":"桜川市","city_kana":"サクラガワシ","town":"富谷","town_kana":"トミヤ","prefecture_code":8},"1453":{"zip_code":"3091453","prefecture":"茨城県","prefecture_kana":"イバラキケン","city":"桜川市","city_kana":"サクラガワシ","town":"友部","town_kana":"トモベ","prefecture_code":8},"1224":{"zip_code":"3091224","prefecture":"茨城県","prefecture_kana":"イバラキケン","city":"桜川市","city_kana":"サクラガワシ","town":"中泉","town_kana":"ナカイズミ","prefecture_code":8},"1346":{"zip_code":"3091346","prefecture":"茨城県","prefecture_kana":"イバラキケン","city":"桜川市","city_kana":"サクラガワシ","town":"中里","town_kana":"ナカザト","prefecture_code":8},"1221":{"zip_code":"3091221","prefecture":"茨城県","prefecture_kana":"イバラキケン","city":"桜川市","city_kana":"サクラガワシ","town":"西飯岡","town_kana":"ニシイイオカ","prefecture_code":8},"1451":{"zip_code":"3091451","prefecture":"茨城県","prefecture_kana":"イバラキケン","city":"桜川市","city_kana":"サクラガワシ","town":"西小塙","town_kana":"ニシコバナワ","prefecture_code":8},"1213":{"zip_code":"3091213","prefecture":"茨城県","prefecture_kana":"イバラキケン","city":"桜川市","city_kana":"サクラガワシ","town":"西桜川","town_kana":"ニシサクラガワ","prefecture_code":8},"1242":{"zip_code":"3091242","prefecture":"茨城県","prefecture_kana":"イバラキケン","city":"桜川市","city_kana":"サクラガワシ","town":"羽田","town_kana":"ハネタ","prefecture_code":8},"1233":{"zip_code":"3091233","prefecture":"茨城県","prefecture_kana":"イバラキケン","city":"桜川市","city_kana":"サクラガワシ","town":"東飯田","town_kana":"ヒガシイイダ","prefecture_code":8},"1214":{"zip_code":"3091214","prefecture":"茨城県","prefecture_kana":"イバラキケン","city":"桜川市","city_kana":"サクラガワシ","town":"東桜川","town_kana":"ヒガシサクラガワ","prefecture_code":8},"1331":{"zip_code":"3091331","prefecture":"茨城県","prefecture_kana":"イバラキケン","city":"桜川市","city_kana":"サクラガワシ","town":"平澤","town_kana":"ヒラサワ","prefecture_code":8},"1337":{"zip_code":"3091337","prefecture":"茨城県","prefecture_kana":"イバラキケン","city":"桜川市","city_kana":"サクラガワシ","town":"福崎","town_kana":"フクザキ","prefecture_code":8},"1212":{"zip_code":"3091212","prefecture":"茨城県","prefecture_kana":"イバラキケン","city":"桜川市","city_kana":"サクラガワシ","town":"富士見台","town_kana":"フジミダイ","prefecture_code":8},"1227":{"zip_code":"3091227","prefecture":"茨城県","prefecture_kana":"イバラキケン","city":"桜川市","city_kana":"サクラガワシ","town":"本郷","town_kana":"ホンゴウ","prefecture_code":8},"1461":{"zip_code":"3091461","prefecture":"茨城県","prefecture_kana":"イバラキケン","city":"桜川市","city_kana":"サクラガワシ","town":"松田","town_kana":"マツダ","prefecture_code":8},"1342":{"zip_code":"3091342","prefecture":"茨城県","prefecture_kana":"イバラキケン","city":"桜川市","city_kana":"サクラガワシ","town":"間中","town_kana":"マナカ","prefecture_code":8},"1455":{"zip_code":"3091455","prefecture":"茨城県","prefecture_kana":"イバラキケン","city":"桜川市","city_kana":"サクラガワシ","town":"水戸","town_kana":"ミト","prefecture_code":8},"1344":{"zip_code":"3091344","prefecture":"茨城県","prefecture_kana":"イバラキケン","city":"桜川市","city_kana":"サクラガワシ","town":"南飯田","town_kana":"ミナミイイダ","prefecture_code":8},"1231":{"zip_code":"3091231","prefecture":"茨城県","prefecture_kana":"イバラキケン","city":"桜川市","city_kana":"サクラガワシ","town":"本木","town_kana":"モトギ","prefecture_code":8},"1333":{"zip_code":"3091333","prefecture":"茨城県","prefecture_kana":"イバラキケン","city":"桜川市","city_kana":"サクラガワシ","town":"山口","town_kana":"ヤマグチ","prefecture_code":8}}