{"0000":{"zip_code":"3100000","prefecture":"茨城県","prefecture_kana":"イバラキケン","city":"水戸市","city_kana":"ミトシ","town":"以下に掲載がない場合","town_kana":"イカニケイサイガナイバアイ","prefecture_code":8},"0004":{"zip_code":"3100004","prefecture":"茨城県","prefecture_kana":"イバラキケン","city":"水戸市","city_kana":"ミトシ","town":"青柳町","town_kana":"アオヤギチョウ","prefecture_code":8},"0822":{"zip_code":"3100822","prefecture":"茨城県","prefecture_kana":"イバラキケン","city":"水戸市","city_kana":"ミトシ","town":"圷大野","town_kana":"アクツオオノ","prefecture_code":8},"0046":{"zip_code":"3100046","prefecture":"茨城県","prefecture_kana":"イバラキケン","city":"水戸市","city_kana":"ミトシ","town":"曙町","town_kana":"アケボノチョウ","prefecture_code":8},"0831":{"zip_code":"3100831","prefecture":"茨城県","prefecture_kana":"イバラキケン","city":"水戸市","city_kana":"ミトシ","town":"朝日町","town_kana":"アサヒチョウ","prefecture_code":8},"0054":{"zip_code":"3100054","prefecture":"茨城県","prefecture_kana":"イバラキケン","city":"水戸市","city_kana":"ミトシ","town":"愛宕町","town_kana":"アタゴチョウ","prefecture_code":8},"0905":{"zip_code":"3100905","prefecture":"茨城県","prefecture_kana":"イバラキケン","city":"水戸市","city_kana":"ミトシ","town":"石川","town_kana":"イシカワ","prefecture_code":8},"0904":{"zip_code":"3100904","prefecture":"茨城県","prefecture_kana":"イバラキケン","city":"水戸市","city_kana":"ミトシ","town":"石川町","town_kana":"イシカワチョウ","prefecture_code":8},"0026":{"zip_code":"3100026","prefecture":"茨城県","prefecture_kana":"イバラキケン","city":"水戸市","city_kana":"ミトシ","town":"泉町","town_kana":"イズミチョウ","prefecture_code":8},"0062":{"zip_code":"3100062","prefecture":"茨城県","prefecture_kana":"イバラキケン","city":"水戸市","city_kana":"ミトシ","town":"大町","town_kana":"オオマチ","prefecture_code":8},"0852":{"zip_code":"3100852","prefecture":"茨城県","prefecture_kana":"イバラキケン","city":"水戸市","city_kana":"ミトシ","town":"笠原町","town_kana":"カサハラチョウ","prefecture_code":8},"0066":{"zip_code":"3100066","prefecture":"茨城県","prefecture_kana":"イバラキケン","city":"水戸市","city_kana":"ミトシ","town":"金町","town_kana":"カネマチ","prefecture_code":8},"0001":{"zip_code":"3100001","prefecture":"茨城県","prefecture_kana":"イバラキケン","city":"水戸市","city_kana":"ミトシ","town":"上河内町","town_kana":"カミガチチョウ","prefecture_code":8},"0041":{"zip_code":"3100041","prefecture":"茨城県","prefecture_kana":"イバラキケン","city":"水戸市","city_kana":"ミトシ","town":"上水戸","town_kana":"カミミト","prefecture_code":8},"0814":{"zip_code":"3100814","prefecture":"茨城県","prefecture_kana":"イバラキケン","city":"水戸市","city_kana":"ミトシ","town":"瓦谷","town_kana":"カワラヤ","prefecture_code":8},"0061":{"zip_code":"3100061","prefecture":"茨城県","prefecture_kana":"イバラキケン","city":"水戸市","city_kana":"ミトシ","town":"北見町","town_kana":"キタミチョウ","prefecture_code":8},"0842":{"zip_code":"3100842","prefecture":"茨城県","prefecture_kana":"イバラキケン","city":"水戸市","city_kana":"ミトシ","town":"けやき台","town_kana":"ケヤキダイ","prefecture_code":8},"0063":{"zip_code":"3100063","prefecture":"茨城県","prefecture_kana":"イバラキケン","city":"水戸市","city_kana":"ミトシ","town":"五軒町","town_kana":"ゴケンチョウ","prefecture_code":8},"0914":{"zip_code":"3100914","prefecture":"茨城県","prefecture_kana":"イバラキケン","city":"水戸市","city_kana":"ミトシ","town":"小吹町","town_kana":"コブキチョウ","prefecture_code":8},"0816":{"zip_code":"3100816","prefecture":"茨城県","prefecture_kana":"イバラキケン","city":"水戸市","city_kana":"ミトシ","town":"紺屋町","town_kana":"コンヤチョウ","prefecture_code":8},"0064":{"zip_code":"3100064","prefecture":"茨城県","prefecture_kana":"イバラキケン","city":"水戸市","city_kana":"ミトシ","town":"栄町","town_kana":"サカエチョウ","prefecture_code":8},"0841":{"zip_code":"3100841","prefecture":"茨城県","prefecture_kana":"イバラキケン","city":"水戸市","city_kana":"ミトシ","town":"酒門町","town_kana":"サカドチョウ","prefecture_code":8},"0802":{"zip_code":"3100802","prefecture":"茨城県","prefecture_kana":"イバラキケン","city":"水戸市","city_kana":"ミトシ","town":"柵町","town_kana":"サクマチ","prefecture_code":8},"0801":{"zip_code":"3100801","prefecture":"茨城県","prefecture_kana":"イバラキケン","city":"水戸市","city_kana":"ミトシ","town":"桜川","town_kana":"サクラガワ","prefecture_code":8},"0011":{"zip_code":"3100011","prefecture":"茨城県","prefecture_kana":"イバラキケン","city":"水戸市","city_kana":"ミトシ","town":"三の丸","town_kana":"サンノマル","prefecture_code":8},"0826":{"zip_code":"3100826","prefecture":"茨城県","prefecture_kana":"イバラキケン","city":"水戸市","city_kana":"ミトシ","town":"渋井町","town_kana":"シブイチョウ","prefecture_code":8},"0023":{"zip_code":"3100023","prefecture":"茨城県","prefecture_kana":"イバラキケン","city":"水戸市","city_kana":"ミトシ","town":"下梅香","town_kana":"シモバイコウ","prefecture_code":8},"0042":{"zip_code":"3100042","prefecture":"茨城県","prefecture_kana":"イバラキケン","city":"水戸市","city_kana":"ミトシ","town":"自由が丘","town_kana":"ジユウガオカ","prefecture_code":8},"0012":{"zip_code":"3100012","prefecture":"茨城県","prefecture_kana":"イバラキケン","city":"水戸市","city_kana":"ミトシ","town":"城東","town_kana":"ジョウトウ","prefecture_code":8},"0803":{"zip_code":"3100803","prefecture":"茨城県","prefecture_kana":"イバラキケン","city":"水戸市","city_kana":"ミトシ","town":"城南","town_kana":"ジョウナン","prefecture_code":8},"0804":{"zip_code":"3100804","prefecture":"茨城県","prefecture_kana":"イバラキケン","city":"水戸市","city_kana":"ミトシ","town":"白梅","town_kana":"シラウメ","prefecture_code":8},"0036":{"zip_code":"3100036","prefecture":"茨城県","prefecture_kana":"イバラキケン","city":"水戸市","city_kana":"ミトシ","town":"新荘","town_kana":"シンソウ","prefecture_code":8},"0045":{"zip_code":"3100045","prefecture":"茨城県","prefecture_kana":"イバラキケン","city":"水戸市","city_kana":"ミトシ","town":"新原","town_kana":"シンハラ","prefecture_code":8},"0005":{"zip_code":"3100005","prefecture":"茨城県","prefecture_kana":"イバラキケン","city":"水戸市","city_kana":"ミトシ","town":"水府町","town_kana":"スイフチョウ","prefecture_code":8},"0053":{"zip_code":"3100053","prefecture":"茨城県","prefecture_kana":"イバラキケン","city":"水戸市","city_kana":"ミトシ","town":"末広町","town_kana":"スエヒロチョウ","prefecture_code":8},"0844":{"zip_code":"3100844","prefecture":"茨城県","prefecture_kana":"イバラキケン","city":"水戸市","city_kana":"ミトシ","town":"住吉町","town_kana":"スミヨシチョウ","prefecture_code":8},"0851":{"zip_code":"3100851","prefecture":"茨城県","prefecture_kana":"イバラキケン","city":"水戸市","city_kana":"ミトシ","town":"千波町","town_kana":"センバチョウ","prefecture_code":8},"0031":{"zip_code":"3100031","prefecture":"茨城県","prefecture_kana":"イバラキケン","city":"水戸市","city_kana":"ミトシ","town":"大工町","town_kana":"ダイクマチ","prefecture_code":8},"0901":{"zip_code":"3100901","prefecture":"茨城県","prefecture_kana":"イバラキケン","city":"水戸市","city_kana":"ミトシ","town":"田野町","town_kana":"タノチョウ","prefecture_code":8},"0051":{"zip_code":"3100051","prefecture":"茨城県","prefecture_kana":"イバラキケン","city":"水戸市","city_kana":"ミトシ","town":"ちとせ","town_kana":"チトセ","prefecture_code":8},"0805":{"zip_code":"3100805","prefecture":"茨城県","prefecture_kana":"イバラキケン","city":"水戸市","city_kana":"ミトシ","town":"中央","town_kana":"チュウオウ","prefecture_code":8},"0025":{"zip_code":"3100025","prefecture":"茨城県","prefecture_kana":"イバラキケン","city":"水戸市","city_kana":"ミトシ","town":"天王町","town_kana":"テンノウチョウ","prefecture_code":8},"0846":{"zip_code":"3100846","prefecture":"茨城県","prefecture_kana":"イバラキケン","city":"水戸市","city_kana":"ミトシ","town":"東野町","town_kana":"トウノチョウ","prefecture_code":8},"0033":{"zip_code":"3100033","prefecture":"茨城県","prefecture_kana":"イバラキケン","city":"水戸市","city_kana":"ミトシ","town":"常磐町","town_kana":"トキワチョウ","prefecture_code":8},"0821":{"zip_code":"3100821","prefecture":"茨城県","prefecture_kana":"イバラキケン","city":"水戸市","city_kana":"ミトシ","town":"中大野","town_kana":"ナカオオノ","prefecture_code":8},"0002":{"zip_code":"3100002","prefecture":"茨城県","prefecture_kana":"イバラキケン","city":"水戸市","city_kana":"ミトシ","town":"中河内町","town_kana":"ナカガチチョウ","prefecture_code":8},"0824":{"zip_code":"3100824","prefecture":"茨城県","prefecture_kana":"イバラキケン","city":"水戸市","city_kana":"ミトシ","town":"西大野","town_kana":"ニシオオノ","prefecture_code":8},"0044":{"zip_code":"3100044","prefecture":"茨城県","prefecture_kana":"イバラキケン","city":"水戸市","city_kana":"ミトシ","town":"西原","town_kana":"ニシハラ","prefecture_code":8},"0067":{"zip_code":"3100067","prefecture":"茨城県","prefecture_kana":"イバラキケン","city":"水戸市","city_kana":"ミトシ","town":"根本","town_kana":"ネモト","prefecture_code":8},"0068":{"zip_code":"3100068","prefecture":"茨城県","prefecture_kana":"イバラキケン","city":"水戸市","city_kana":"ミトシ","town":"根本町","town_kana":"ネモトチョウ","prefecture_code":8},"0022":{"zip_code":"3100022","prefecture":"茨城県","prefecture_kana":"イバラキケン","city":"水戸市","city_kana":"ミトシ","town":"梅香","town_kana":"バイコウ","prefecture_code":8},"0055":{"zip_code":"3100055","prefecture":"茨城県","prefecture_kana":"イバラキケン","city":"水戸市","city_kana":"ミトシ","town":"袴塚","town_kana":"ハカマツカ","prefecture_code":8},"0065":{"zip_code":"3100065","prefecture":"茨城県","prefecture_kana":"イバラキケン","city":"水戸市","city_kana":"ミトシ","town":"八幡町","town_kana":"ハチマンチョウ","prefecture_code":8},"0812":{"zip_code":"3100812","prefecture":"茨城県","prefecture_kana":"イバラキケン","city":"水戸市","city_kana":"ミトシ","town":"浜田","town_kana":"ハマダ","prefecture_code":8},"0813":{"zip_code":"3100813","prefecture":"茨城県","prefecture_kana":"イバラキケン","city":"水戸市","city_kana":"ミトシ","town":"浜田町","town_kana":"ハマダチョウ","prefecture_code":8},"0823":{"zip_code":"3100823","prefecture":"茨城県","prefecture_kana":"イバラキケン","city":"水戸市","city_kana":"ミトシ","town":"東大野","town_kana":"ヒガシオオノ","prefecture_code":8},"0811":{"zip_code":"3100811","prefecture":"茨城県","prefecture_kana":"イバラキケン","city":"水戸市","city_kana":"ミトシ","town":"東桜川","town_kana":"ヒガシサクラガワ","prefecture_code":8},"0818":{"zip_code":"3100818","prefecture":"茨城県","prefecture_kana":"イバラキケン","city":"水戸市","city_kana":"ミトシ","town":"東台","town_kana":"ヒガシダイ","prefecture_code":8},"0035":{"zip_code":"3100035","prefecture":"茨城県","prefecture_kana":"イバラキケン","city":"水戸市","city_kana":"ミトシ","town":"東原","town_kana":"ヒガシハラ","prefecture_code":8},"0024":{"zip_code":"3100024","prefecture":"茨城県","prefecture_kana":"イバラキケン","city":"水戸市","city_kana":"ミトシ","town":"備前町","town_kana":"ビゼンマチ","prefecture_code":8},"0853":{"zip_code":"3100853","prefecture":"茨城県","prefecture_kana":"イバラキケン","city":"水戸市","city_kana":"ミトシ","town":"平須町","town_kana":"ヒラスチョウ","prefecture_code":8},"0833":{"zip_code":"3100833","prefecture":"茨城県","prefecture_kana":"イバラキケン","city":"水戸市","city_kana":"ミトシ","town":"藤柄町","town_kana":"フジガラチョウ","prefecture_code":8},"0056":{"zip_code":"3100056","prefecture":"茨城県","prefecture_kana":"イバラキケン","city":"水戸市","city_kana":"ミトシ","town":"文京","town_kana":"ブンキョウ","prefecture_code":8},"0903":{"zip_code":"3100903","prefecture":"茨城県","prefecture_kana":"イバラキケン","city":"水戸市","city_kana":"ミトシ","town":"堀町","town_kana":"ホリチョウ","prefecture_code":8},"0815":{"zip_code":"3100815","prefecture":"茨城県","prefecture_kana":"イバラキケン","city":"水戸市","city_kana":"ミトシ","town":"本町","town_kana":"ホンチョウ","prefecture_code":8},"0043":{"zip_code":"3100043","prefecture":"茨城県","prefecture_kana":"イバラキケン","city":"水戸市","city_kana":"ミトシ","town":"松が丘","town_kana":"マツガオカ","prefecture_code":8},"0052":{"zip_code":"3100052","prefecture":"茨城県","prefecture_kana":"イバラキケン","city":"水戸市","city_kana":"ミトシ","town":"松本町","town_kana":"マツモトチョウ","prefecture_code":8},"0912":{"zip_code":"3100912","prefecture":"茨城県","prefecture_kana":"イバラキケン","city":"水戸市","city_kana":"ミトシ","town":"見川","town_kana":"ミガワ","prefecture_code":8},"0913":{"zip_code":"3100913","prefecture":"茨城県","prefecture_kana":"イバラキケン","city":"水戸市","city_kana":"ミトシ","town":"見川町","town_kana":"ミガワチョウ","prefecture_code":8},"0034":{"zip_code":"3100034","prefecture":"茨城県","prefecture_kana":"イバラキケン","city":"水戸市","city_kana":"ミトシ","town":"緑町","town_kana":"ミドリチョウ","prefecture_code":8},"0021":{"zip_code":"3100021","prefecture":"茨城県","prefecture_kana":"イバラキケン","city":"水戸市","city_kana":"ミトシ","town":"南町","town_kana":"ミナミマチ","prefecture_code":8},"0834":{"zip_code":"3100834","prefecture":"茨城県","prefecture_kana":"イバラキケン","city":"水戸市","city_kana":"ミトシ","town":"宮内町","town_kana":"ミヤウチチョウ","prefecture_code":8},"0015":{"zip_code":"3100015","prefecture":"茨城県","prefecture_kana":"イバラキケン","city":"水戸市","city_kana":"ミトシ","town":"宮町","town_kana":"ミヤマチ","prefecture_code":8},"0911":{"zip_code":"3100911","prefecture":"茨城県","prefecture_kana":"イバラキケン","city":"水戸市","city_kana":"ミトシ","town":"見和","town_kana":"ミワ","prefecture_code":8},"0843":{"zip_code":"3100843","prefecture":"茨城県","prefecture_kana":"イバラキケン","city":"水戸市","city_kana":"ミトシ","town":"元石川町","town_kana":"モトイシカワチョウ","prefecture_code":8},"0835":{"zip_code":"3100835","prefecture":"茨城県","prefecture_kana":"イバラキケン","city":"水戸市","city_kana":"ミトシ","town":"元台町","town_kana":"モトダイマチ","prefecture_code":8},"0032":{"zip_code":"3100032","prefecture":"茨城県","prefecture_kana":"イバラキケン","city":"水戸市","city_kana":"ミトシ","town":"元山町","town_kana":"モトヤマチョウ","prefecture_code":8},"0836":{"zip_code":"3100836","prefecture":"茨城県","prefecture_kana":"イバラキケン","city":"水戸市","city_kana":"ミトシ","town":"元吉田町","town_kana":"モトヨシダチョウ","prefecture_code":8},"0825":{"zip_code":"3100825","prefecture":"茨城県","prefecture_kana":"イバラキケン","city":"水戸市","city_kana":"ミトシ","town":"谷田町","town_kana":"ヤダチョウ","prefecture_code":8},"0003":{"zip_code":"3100003","prefecture":"茨城県","prefecture_kana":"イバラキケン","city":"水戸市","city_kana":"ミトシ","town":"柳河町","town_kana":"ヤナカワチョウ","prefecture_code":8},"0817":{"zip_code":"3100817","prefecture":"茨城県","prefecture_kana":"イバラキケン","city":"水戸市","city_kana":"ミトシ","town":"柳町","town_kana":"ヤナギマチ","prefecture_code":8},"0845":{"zip_code":"3100845","prefecture":"茨城県","prefecture_kana":"イバラキケン","city":"水戸市","city_kana":"ミトシ","town":"吉沢町","town_kana":"ヨシザワチョウ","prefecture_code":8},"0832":{"zip_code":"3100832","prefecture":"茨城県","prefecture_kana":"イバラキケン","city":"水戸市","city_kana":"ミトシ","town":"吉田","town_kana":"ヨシダ","prefecture_code":8},"0827":{"zip_code":"3100827","prefecture":"茨城県","prefecture_kana":"イバラキケン","city":"水戸市","city_kana":"ミトシ","town":"吉沼町","town_kana":"ヨシヌマチョウ","prefecture_code":8},"0847":{"zip_code":"3100847","prefecture":"茨城県","prefecture_kana":"イバラキケン","city":"水戸市","city_kana":"ミトシ","town":"米沢町","town_kana":"ヨネザワチョウ","prefecture_code":8},"0013":{"zip_code":"3100013","prefecture":"茨城県","prefecture_kana":"イバラキケン","city":"水戸市","city_kana":"ミトシ","town":"若宮","town_kana":"ワカミヤ","prefecture_code":8},"0014":{"zip_code":"3100014","prefecture":"茨城県","prefecture_kana":"イバラキケン","city":"水戸市","city_kana":"ミトシ","town":"若宮町","town_kana":"ワカミヤチョウ","prefecture_code":8},"0902":{"zip_code":"3100902","prefecture":"茨城県","prefecture_kana":"イバラキケン","city":"水戸市","city_kana":"ミトシ","town":"渡里町","town_kana":"ワタリチョウ","prefecture_code":8}}