{"4141":{"zip_code":"3114141","prefecture":"茨城県","prefecture_kana":"イバラキケン","city":"水戸市","city_kana":"ミトシ","town":"赤塚","town_kana":"アカツカ","prefecture_code":8},"1122":{"zip_code":"3111122","prefecture":"茨城県","prefecture_kana":"イバラキケン","city":"水戸市","city_kana":"ミトシ","town":"秋成町","town_kana":"アキナリチョウ","prefecture_code":8},"4165":{"zip_code":"3114165","prefecture":"茨城県","prefecture_kana":"イバラキケン","city":"水戸市","city_kana":"ミトシ","town":"木葉下町","town_kana":"アボッケチョウ","prefecture_code":8},"4155":{"zip_code":"3114155","prefecture":"茨城県","prefecture_kana":"イバラキケン","city":"水戸市","city_kana":"ミトシ","town":"飯島町","town_kana":"イイジマチョウ","prefecture_code":8},"4206":{"zip_code":"3114206","prefecture":"茨城県","prefecture_kana":"イバラキケン","city":"水戸市","city_kana":"ミトシ","town":"飯富町","town_kana":"イイトミチョウ","prefecture_code":8},"4202":{"zip_code":"3114202","prefecture":"茨城県","prefecture_kana":"イバラキケン","city":"水戸市","city_kana":"ミトシ","town":"岩根町","town_kana":"イワネチョウ","prefecture_code":8},"1115":{"zip_code":"3111115","prefecture":"茨城県","prefecture_kana":"イバラキケン","city":"水戸市","city_kana":"ミトシ","town":"大串町","town_kana":"オオクシチョウ","prefecture_code":8},"4143":{"zip_code":"3114143","prefecture":"茨城県","prefecture_kana":"イバラキケン","city":"水戸市","city_kana":"ミトシ","town":"大塚町","town_kana":"オオツカチョウ","prefecture_code":8},"1125":{"zip_code":"3111125","prefecture":"茨城県","prefecture_kana":"イバラキケン","city":"水戸市","city_kana":"ミトシ","town":"大場町","town_kana":"オオバチョウ","prefecture_code":8},"4163":{"zip_code":"3114163","prefecture":"茨城県","prefecture_kana":"イバラキケン","city":"水戸市","city_kana":"ミトシ","town":"加倉井町","town_kana":"カクライチョウ","prefecture_code":8},"4162":{"zip_code":"3114162","prefecture":"茨城県","prefecture_kana":"イバラキケン","city":"水戸市","city_kana":"ミトシ","town":"金谷町","town_kana":"カナヤチョウ","prefecture_code":8},"4203":{"zip_code":"3114203","prefecture":"茨城県","prefecture_kana":"イバラキケン","city":"水戸市","city_kana":"ミトシ","town":"上国井町","town_kana":"カミクニイチョウ","prefecture_code":8},"4154":{"zip_code":"3114154","prefecture":"茨城県","prefecture_kana":"イバラキケン","city":"水戸市","city_kana":"ミトシ","town":"萱場町","town_kana":"カヤバチョウ","prefecture_code":8},"1112":{"zip_code":"3111112","prefecture":"茨城県","prefecture_kana":"イバラキケン","city":"水戸市","city_kana":"ミトシ","town":"川又町","town_kana":"カワマタチョウ","prefecture_code":8},"4152":{"zip_code":"3114152","prefecture":"茨城県","prefecture_kana":"イバラキケン","city":"水戸市","city_kana":"ミトシ","town":"河和田","town_kana":"カワワダ","prefecture_code":8},"4153":{"zip_code":"3114153","prefecture":"茨城県","prefecture_kana":"イバラキケン","city":"水戸市","city_kana":"ミトシ","town":"河和田町","town_kana":"カワワダチョウ","prefecture_code":8},"1133":{"zip_code":"3111133","prefecture":"茨城県","prefecture_kana":"イバラキケン","city":"水戸市","city_kana":"ミトシ","town":"栗崎町","town_kana":"クリサキチョウ","prefecture_code":8},"1111":{"zip_code":"3111111","prefecture":"茨城県","prefecture_kana":"イバラキケン","city":"水戸市","city_kana":"ミトシ","town":"小泉町","town_kana":"コイズミチョウ","prefecture_code":8},"1114":{"zip_code":"3111114","prefecture":"茨城県","prefecture_kana":"イバラキケン","city":"水戸市","city_kana":"ミトシ","town":"塩崎町","town_kana":"シオガサキチョウ","prefecture_code":8},"1121":{"zip_code":"3111121","prefecture":"茨城県","prefecture_kana":"イバラキケン","city":"水戸市","city_kana":"ミトシ","town":"島田町","town_kana":"シマダチョウ","prefecture_code":8},"1123":{"zip_code":"3111123","prefecture":"茨城県","prefecture_kana":"イバラキケン","city":"水戸市","city_kana":"ミトシ","town":"下入野町","town_kana":"シモイリノチョウ","prefecture_code":8},"1131":{"zip_code":"3111131","prefecture":"茨城県","prefecture_kana":"イバラキケン","city":"水戸市","city_kana":"ミトシ","town":"下大野町","town_kana":"シモオオノチョウ","prefecture_code":8},"4205":{"zip_code":"3114205","prefecture":"茨城県","prefecture_kana":"イバラキケン","city":"水戸市","city_kana":"ミトシ","town":"下国井町","town_kana":"シモクニイチョウ","prefecture_code":8},"4204":{"zip_code":"3114204","prefecture":"茨城県","prefecture_kana":"イバラキケン","city":"水戸市","city_kana":"ミトシ","town":"田谷町","town_kana":"タヤチョウ","prefecture_code":8},"1136":{"zip_code":"3111136","prefecture":"茨城県","prefecture_kana":"イバラキケン","city":"水戸市","city_kana":"ミトシ","town":"東前","town_kana":"トウマエ","prefecture_code":8},"1132":{"zip_code":"3111132","prefecture":"茨城県","prefecture_kana":"イバラキケン","city":"水戸市","city_kana":"ミトシ","town":"東前町","town_kana":"トウマエチョウ","prefecture_code":8},"4146":{"zip_code":"3114146","prefecture":"茨城県","prefecture_kana":"イバラキケン","city":"水戸市","city_kana":"ミトシ","town":"中丸町","town_kana":"ナカマルチョウ","prefecture_code":8},"4207":{"zip_code":"3114207","prefecture":"茨城県","prefecture_kana":"イバラキケン","city":"水戸市","city_kana":"ミトシ","town":"成沢町","town_kana":"ナルサワチョウ","prefecture_code":8},"4142":{"zip_code":"3114142","prefecture":"茨城県","prefecture_kana":"イバラキケン","city":"水戸市","city_kana":"ミトシ","town":"東赤塚","town_kana":"ヒガシアカツカ","prefecture_code":8},"4151":{"zip_code":"3114151","prefecture":"茨城県","prefecture_kana":"イバラキケン","city":"水戸市","city_kana":"ミトシ","town":"姫子","town_kana":"ヒメゴ","prefecture_code":8},"4144":{"zip_code":"3114144","prefecture":"茨城県","prefecture_kana":"イバラキケン","city":"水戸市","city_kana":"ミトシ","town":"開江町","town_kana":"ヒラクエチョウ","prefecture_code":8},"1113":{"zip_code":"3111113","prefecture":"茨城県","prefecture_kana":"イバラキケン","city":"水戸市","city_kana":"ミトシ","town":"平戸町","town_kana":"ヒラトチョウ","prefecture_code":8},"4201":{"zip_code":"3114201","prefecture":"茨城県","prefecture_kana":"イバラキケン","city":"水戸市","city_kana":"ミトシ","town":"藤井町","town_kana":"フジイチョウ","prefecture_code":8},"4208":{"zip_code":"3114208","prefecture":"茨城県","prefecture_kana":"イバラキケン","city":"水戸市","city_kana":"ミトシ","town":"藤が原","town_kana":"フジガハラ","prefecture_code":8},"4145":{"zip_code":"3114145","prefecture":"茨城県","prefecture_kana":"イバラキケン","city":"水戸市","city_kana":"ミトシ","town":"双葉台","town_kana":"フタバダイ","prefecture_code":8},"4161":{"zip_code":"3114161","prefecture":"茨城県","prefecture_kana":"イバラキケン","city":"水戸市","city_kana":"ミトシ","town":"全隈町","town_kana":"マタグマチョウ","prefecture_code":8},"1124":{"zip_code":"3111124","prefecture":"茨城県","prefecture_kana":"イバラキケン","city":"水戸市","city_kana":"ミトシ","town":"森戸町","town_kana":"モリトチョウ","prefecture_code":8},"4164":{"zip_code":"3114164","prefecture":"茨城県","prefecture_kana":"イバラキケン","city":"水戸市","city_kana":"ミトシ","town":"谷津町","town_kana":"ヤツチョウ","prefecture_code":8},"1134":{"zip_code":"3111134","prefecture":"茨城県","prefecture_kana":"イバラキケン","city":"水戸市","city_kana":"ミトシ","town":"百合が丘町","town_kana":"ユリガオカチョウ","prefecture_code":8},"1135":{"zip_code":"3111135","prefecture":"茨城県","prefecture_kana":"イバラキケン","city":"水戸市","city_kana":"ミトシ","town":"六反田町","town_kana":"ロクタンダチョウ","prefecture_code":8},"0402":{"zip_code":"3110402","prefecture":"茨城県","prefecture_kana":"イバラキケン","city":"日立市","city_kana":"ヒタチシ","town":"入四間町","town_kana":"イリシケンチョウ","prefecture_code":8},"0404":{"zip_code":"3110404","prefecture":"茨城県","prefecture_kana":"イバラキケン","city":"日立市","city_kana":"ヒタチシ","town":"下深荻町","town_kana":"シモフカオギチョウ","prefecture_code":8},"0401":{"zip_code":"3110401","prefecture":"茨城県","prefecture_kana":"イバラキケン","city":"日立市","city_kana":"ヒタチシ","town":"中深荻町","town_kana":"ナカフカオギチョウ","prefecture_code":8},"0403":{"zip_code":"3110403","prefecture":"茨城県","prefecture_kana":"イバラキケン","city":"日立市","city_kana":"ヒタチシ","town":"東河内町","town_kana":"ヒガシゴウドチョウ","prefecture_code":8},"0508":{"zip_code":"3110508","prefecture":"茨城県","prefecture_kana":"イバラキケン","city":"常陸太田市","city_kana":"ヒタチオオタシ","town":"大菅町","town_kana":"オオスゲチョウ","prefecture_code":8},"0505":{"zip_code":"3110505","prefecture":"茨城県","prefecture_kana":"イバラキケン","city":"常陸太田市","city_kana":"ヒタチオオタシ","town":"大中町","town_kana":"オオナカチョウ","prefecture_code":8},"0506":{"zip_code":"3110506","prefecture":"茨城県","prefecture_kana":"イバラキケン","city":"常陸太田市","city_kana":"ヒタチオオタシ","town":"折橋町","town_kana":"オリハシチョウ","prefecture_code":8},"0509":{"zip_code":"3110509","prefecture":"茨城県","prefecture_kana":"イバラキケン","city":"常陸太田市","city_kana":"ヒタチオオタシ","town":"上深荻町","town_kana":"カミフカオギチョウ","prefecture_code":8},"0301":{"zip_code":"3110301","prefecture":"茨城県","prefecture_kana":"イバラキケン","city":"常陸太田市","city_kana":"ヒタチオオタシ","town":"河内西町","town_kana":"カワチニシチョウ","prefecture_code":8},"0507":{"zip_code":"3110507","prefecture":"茨城県","prefecture_kana":"イバラキケン","city":"常陸太田市","city_kana":"ヒタチオオタシ","town":"小菅町","town_kana":"コスゲチョウ","prefecture_code":8},"0503":{"zip_code":"3110503","prefecture":"茨城県","prefecture_kana":"イバラキケン","city":"常陸太田市","city_kana":"ヒタチオオタシ","town":"小妻町","town_kana":"コヅマチョウ","prefecture_code":8},"0504":{"zip_code":"3110504","prefecture":"茨城県","prefecture_kana":"イバラキケン","city":"常陸太田市","city_kana":"ヒタチオオタシ","town":"小中町","town_kana":"コナカチョウ","prefecture_code":8},"0501":{"zip_code":"3110501","prefecture":"茨城県","prefecture_kana":"イバラキケン","city":"常陸太田市","city_kana":"ヒタチオオタシ","town":"里川町","town_kana":"サトガワチョウ","prefecture_code":8},"0325":{"zip_code":"3110325","prefecture":"茨城県","prefecture_kana":"イバラキケン","city":"常陸太田市","city_kana":"ヒタチオオタシ","town":"里野宮町","town_kana":"サトノミヤチョウ","prefecture_code":8},"0322":{"zip_code":"3110322","prefecture":"茨城県","prefecture_kana":"イバラキケン","city":"常陸太田市","city_kana":"ヒタチオオタシ","town":"常福地町","town_kana":"ジョウフクジチョウ","prefecture_code":8},"0324":{"zip_code":"3110324","prefecture":"茨城県","prefecture_kana":"イバラキケン","city":"常陸太田市","city_kana":"ヒタチオオタシ","town":"白羽町","town_kana":"シラワチョウ","prefecture_code":8},"0323":{"zip_code":"3110323","prefecture":"茨城県","prefecture_kana":"イバラキケン","city":"常陸太田市","city_kana":"ヒタチオオタシ","town":"茅根町","town_kana":"チノネチョウ","prefecture_code":8},"0502":{"zip_code":"3110502","prefecture":"茨城県","prefecture_kana":"イバラキケン","city":"常陸太田市","city_kana":"ヒタチオオタシ","town":"徳田町","town_kana":"トクダチョウ","prefecture_code":8},"0314":{"zip_code":"3110314","prefecture":"茨城県","prefecture_kana":"イバラキケン","city":"常陸太田市","city_kana":"ヒタチオオタシ","town":"西河内上町","town_kana":"ニシゴウトカミチョウ","prefecture_code":8},"0313":{"zip_code":"3110313","prefecture":"茨城県","prefecture_kana":"イバラキケン","city":"常陸太田市","city_kana":"ヒタチオオタシ","town":"西河内中町","town_kana":"ニシゴウトナカチョウ","prefecture_code":8},"0312":{"zip_code":"3110312","prefecture":"茨城県","prefecture_kana":"イバラキケン","city":"常陸太田市","city_kana":"ヒタチオオタシ","town":"西河内下町","town_kana":"ニシゴウトシモチョウ","prefecture_code":8},"0321":{"zip_code":"3110321","prefecture":"茨城県","prefecture_kana":"イバラキケン","city":"常陸太田市","city_kana":"ヒタチオオタシ","town":"春友町","town_kana":"ハルトモチョウ","prefecture_code":8},"0311":{"zip_code":"3110311","prefecture":"茨城県","prefecture_kana":"イバラキケン","city":"常陸太田市","city_kana":"ヒタチオオタシ","town":"町屋町","town_kana":"マチヤチョウ","prefecture_code":8},"1241":{"zip_code":"3111241","prefecture":"茨城県","prefecture_kana":"イバラキケン","city":"ひたちなか市","city_kana":"ヒタチナカシ","town":"赤坂","town_kana":"アカサカ","prefecture_code":8},"1264":{"zip_code":"3111264","prefecture":"茨城県","prefecture_kana":"イバラキケン","city":"ひたちなか市","city_kana":"ヒタチナカシ","town":"浅井内","town_kana":"アサイナイ","prefecture_code":8},"1201":{"zip_code":"3111201","prefecture":"茨城県","prefecture_kana":"イバラキケン","city":"ひたちなか市","city_kana":"ヒタチナカシ","town":"阿字ケ浦町","town_kana":"アジガウラチョウ","prefecture_code":8},"1255":{"zip_code":"3111255","prefecture":"茨城県","prefecture_kana":"イバラキケン","city":"ひたちなか市","city_kana":"ヒタチナカシ","town":"雨沢谷津","town_kana":"アメザワヤツ","prefecture_code":8},"1202":{"zip_code":"3111202","prefecture":"茨城県","prefecture_kana":"イバラキケン","city":"ひたちなか市","city_kana":"ヒタチナカシ","town":"磯崎町","town_kana":"イソザキチョウ","prefecture_code":8},"1213":{"zip_code":"3111213","prefecture":"茨城県","prefecture_kana":"イバラキケン","city":"ひたちなか市","city_kana":"ヒタチナカシ","town":"牛久保","town_kana":"ウシクボ","prefecture_code":8},"1263":{"zip_code":"3111263","prefecture":"茨城県","prefecture_kana":"イバラキケン","city":"ひたちなか市","city_kana":"ヒタチナカシ","town":"和尚塚","town_kana":"オショウツカ","prefecture_code":8},"1222":{"zip_code":"3111222","prefecture":"茨城県","prefecture_kana":"イバラキケン","city":"ひたちなか市","city_kana":"ヒタチナカシ","town":"海門町","town_kana":"カイモンチョウ","prefecture_code":8},"1207":{"zip_code":"3111207","prefecture":"茨城県","prefecture_kana":"イバラキケン","city":"ひたちなか市","city_kana":"ヒタチナカシ","town":"烏ケ台","town_kana":"カラスガダイ","prefecture_code":8},"1243":{"zip_code":"3111243","prefecture":"茨城県","prefecture_kana":"イバラキケン","city":"ひたちなか市","city_kana":"ヒタチナカシ","town":"北神敷台","town_kana":"キタカミシキダイ","prefecture_code":8},"1236":{"zip_code":"3111236","prefecture":"茨城県","prefecture_kana":"イバラキケン","city":"ひたちなか市","city_kana":"ヒタチナカシ","town":"国神前","town_kana":"コクジンマエ","prefecture_code":8},"1253":{"zip_code":"3111253","prefecture":"茨城県","prefecture_kana":"イバラキケン","city":"ひたちなか市","city_kana":"ヒタチナカシ","town":"小谷金","town_kana":"コヤガネ","prefecture_code":8},"1226":{"zip_code":"3111226","prefecture":"茨城県","prefecture_kana":"イバラキケン","city":"ひたちなか市","city_kana":"ヒタチナカシ","town":"幸町","town_kana":"サイワイチョウ","prefecture_code":8},"1223":{"zip_code":"3111223","prefecture":"茨城県","prefecture_kana":"イバラキケン","city":"ひたちなか市","city_kana":"ヒタチナカシ","town":"栄町","town_kana":"サカエチョウ","prefecture_code":8},"1211":{"zip_code":"3111211","prefecture":"茨城県","prefecture_kana":"イバラキケン","city":"ひたちなか市","city_kana":"ヒタチナカシ","town":"沢メキ","town_kana":"サワメキ","prefecture_code":8},"1247":{"zip_code":"3111247","prefecture":"茨城県","prefecture_kana":"イバラキケン","city":"ひたちなか市","city_kana":"ヒタチナカシ","town":"四十発句","town_kana":"シジュウホツク","prefecture_code":8},"1225":{"zip_code":"3111225","prefecture":"茨城県","prefecture_kana":"イバラキケン","city":"ひたちなか市","city_kana":"ヒタチナカシ","town":"釈迦町","town_kana":"シャカマチ","prefecture_code":8},"1205":{"zip_code":"3111205","prefecture":"茨城県","prefecture_kana":"イバラキケン","city":"ひたちなか市","city_kana":"ヒタチナカシ","town":"十三奉行","town_kana":"ジュウサンブギョウ","prefecture_code":8},"1237":{"zip_code":"3111237","prefecture":"茨城県","prefecture_kana":"イバラキケン","city":"ひたちなか市","city_kana":"ヒタチナカシ","town":"関戸","town_kana":"セキド","prefecture_code":8},"1246":{"zip_code":"3111246","prefecture":"茨城県","prefecture_kana":"イバラキケン","city":"ひたちなか市","city_kana":"ヒタチナカシ","town":"相金町","town_kana":"ソウガネチョウ","prefecture_code":8},"1245":{"zip_code":"3111245","prefecture":"茨城県","prefecture_kana":"イバラキケン","city":"ひたちなか市","city_kana":"ヒタチナカシ","town":"館山","town_kana":"タテヤマ","prefecture_code":8},"1235":{"zip_code":"3111235","prefecture":"茨城県","prefecture_kana":"イバラキケン","city":"ひたちなか市","city_kana":"ヒタチナカシ","town":"田中後","town_kana":"タナカウシロ","prefecture_code":8},"1248":{"zip_code":"3111248","prefecture":"茨城県","prefecture_kana":"イバラキケン","city":"ひたちなか市","city_kana":"ヒタチナカシ","town":"田宮原","town_kana":"タミヤハラ","prefecture_code":8},"1261":{"zip_code":"3111261","prefecture":"茨城県","prefecture_kana":"イバラキケン","city":"ひたちなか市","city_kana":"ヒタチナカシ","town":"鶴代","town_kana":"ツルシロ","prefecture_code":8},"1227":{"zip_code":"3111227","prefecture":"茨城県","prefecture_kana":"イバラキケン","city":"ひたちなか市","city_kana":"ヒタチナカシ","town":"洞下町","town_kana":"ドウシタチョウ","prefecture_code":8},"1262":{"zip_code":"3111262","prefecture":"茨城県","prefecture_kana":"イバラキケン","city":"ひたちなか市","city_kana":"ヒタチナカシ","town":"道メキ","town_kana":"ドウメキ","prefecture_code":8},"1212":{"zip_code":"3111212","prefecture":"茨城県","prefecture_kana":"イバラキケン","city":"ひたちなか市","city_kana":"ヒタチナカシ","town":"殿山町","town_kana":"トノヤマチョウ","prefecture_code":8},"1254":{"zip_code":"3111254","prefecture":"茨城県","prefecture_kana":"イバラキケン","city":"ひたちなか市","city_kana":"ヒタチナカシ","town":"新堤","town_kana":"ニイヅツミ","prefecture_code":8},"1242":{"zip_code":"3111242","prefecture":"茨城県","prefecture_kana":"イバラキケン","city":"ひたちなか市","city_kana":"ヒタチナカシ","town":"西赤坂","town_kana":"ニシアカサカ","prefecture_code":8},"1206":{"zip_code":"3111206","prefecture":"茨城県","prefecture_kana":"イバラキケン","city":"ひたちなか市","city_kana":"ヒタチナカシ","town":"西十三奉行","town_kana":"ニシジュウサンブギョウ","prefecture_code":8},"1228":{"zip_code":"3111228","prefecture":"茨城県","prefecture_kana":"イバラキケン","city":"ひたちなか市","city_kana":"ヒタチナカシ","town":"八幡町","town_kana":"ハチマンチョウ","prefecture_code":8},"1215":{"zip_code":"3111215","prefecture":"茨城県","prefecture_kana":"イバラキケン","city":"ひたちなか市","city_kana":"ヒタチナカシ","town":"東本町","town_kana":"ヒガシホンチョウ","prefecture_code":8},"1203":{"zip_code":"3111203","prefecture":"茨城県","prefecture_kana":"イバラキケン","city":"ひたちなか市","city_kana":"ヒタチナカシ","town":"平磯町","town_kana":"ヒライソチョウ","prefecture_code":8},"1204":{"zip_code":"3111204","prefecture":"茨城県","prefecture_kana":"イバラキケン","city":"ひたちなか市","city_kana":"ヒタチナカシ","town":"平磯遠原町","town_kana":"ヒライソトオハラチョウ","prefecture_code":8},"1218":{"zip_code":"3111218","prefecture":"茨城県","prefecture_kana":"イバラキケン","city":"ひたちなか市","city_kana":"ヒタチナカシ","town":"富士ノ上","town_kana":"フジノウエ","prefecture_code":8},"1217":{"zip_code":"3111217","prefecture":"茨城県","prefecture_kana":"イバラキケン","city":"ひたちなか市","city_kana":"ヒタチナカシ","town":"富士ノ下","town_kana":"フジノシタ","prefecture_code":8},"1266":{"zip_code":"3111266","prefecture":"茨城県","prefecture_kana":"イバラキケン","city":"ひたちなか市","city_kana":"ヒタチナカシ","town":"船窪","town_kana":"フナクボ","prefecture_code":8},"1252":{"zip_code":"3111252","prefecture":"茨城県","prefecture_kana":"イバラキケン","city":"ひたちなか市","city_kana":"ヒタチナカシ","town":"部田野","town_kana":"ヘタノ","prefecture_code":8},"1233":{"zip_code":"3111233","prefecture":"茨城県","prefecture_kana":"イバラキケン","city":"ひたちなか市","city_kana":"ヒタチナカシ","town":"堀川","town_kana":"ホリカワ","prefecture_code":8},"1267":{"zip_code":"3111267","prefecture":"茨城県","prefecture_kana":"イバラキケン","city":"ひたちなか市","city_kana":"ヒタチナカシ","town":"廻り目","town_kana":"マワリメ","prefecture_code":8},"1238":{"zip_code":"3111238","prefecture":"茨城県","prefecture_kana":"イバラキケン","city":"ひたちなか市","city_kana":"ヒタチナカシ","town":"美田多町","town_kana":"ミタダチョウ","prefecture_code":8},"1216":{"zip_code":"3111216","prefecture":"茨城県","prefecture_kana":"イバラキケン","city":"ひたちなか市","city_kana":"ヒタチナカシ","town":"湊泉町","town_kana":"ミナトイズミチョウ","prefecture_code":8},"1229":{"zip_code":"3111229","prefecture":"茨城県","prefecture_kana":"イバラキケン","city":"ひたちなか市","city_kana":"ヒタチナカシ","town":"湊中央","town_kana":"ミナトチュウオウ","prefecture_code":8},"1268":{"zip_code":"3111268","prefecture":"茨城県","prefecture_kana":"イバラキケン","city":"ひたちなか市","city_kana":"ヒタチナカシ","town":"湊中原","town_kana":"ミナトナカハラ","prefecture_code":8},"1221":{"zip_code":"3111221","prefecture":"茨城県","prefecture_kana":"イバラキケン","city":"ひたちなか市","city_kana":"ヒタチナカシ","town":"湊本町","town_kana":"ミナトホンチョウ","prefecture_code":8},"1244":{"zip_code":"3111244","prefecture":"茨城県","prefecture_kana":"イバラキケン","city":"ひたちなか市","city_kana":"ヒタチナカシ","town":"南神敷台","town_kana":"ミナミカミシキダイ","prefecture_code":8},"1234":{"zip_code":"3111234","prefecture":"茨城県","prefecture_kana":"イバラキケン","city":"ひたちなか市","city_kana":"ヒタチナカシ","town":"峰後","town_kana":"ミネウシロ","prefecture_code":8},"1265":{"zip_code":"3111265","prefecture":"茨城県","prefecture_kana":"イバラキケン","city":"ひたちなか市","city_kana":"ヒタチナカシ","town":"狢谷津","town_kana":"ムジナヤツ","prefecture_code":8},"1232":{"zip_code":"3111232","prefecture":"茨城県","prefecture_kana":"イバラキケン","city":"ひたちなか市","city_kana":"ヒタチナカシ","town":"柳が丘","town_kana":"ヤナギガオカ","prefecture_code":8},"1231":{"zip_code":"3111231","prefecture":"茨城県","prefecture_kana":"イバラキケン","city":"ひたちなか市","city_kana":"ヒタチナカシ","town":"柳沢","town_kana":"ヤナギサワ","prefecture_code":8},"1251":{"zip_code":"3111251","prefecture":"茨城県","prefecture_kana":"イバラキケン","city":"ひたちなか市","city_kana":"ヒタチナカシ","town":"山崎","town_kana":"ヤマザキ","prefecture_code":8},"1224":{"zip_code":"3111224","prefecture":"茨城県","prefecture_kana":"イバラキケン","city":"ひたちなか市","city_kana":"ヒタチナカシ","town":"山ノ上町","town_kana":"ヤマノウエチョウ","prefecture_code":8},"1214":{"zip_code":"3111214","prefecture":"茨城県","prefecture_kana":"イバラキケン","city":"ひたちなか市","city_kana":"ヒタチナカシ","town":"和田町","town_kana":"ワダチョウ","prefecture_code":8},"2211":{"zip_code":"3112211","prefecture":"茨城県","prefecture_kana":"イバラキケン","city":"鹿嶋市","city_kana":"カシマシ","town":"青塚","town_kana":"アオツカ","prefecture_code":8},"2204":{"zip_code":"3112204","prefecture":"茨城県","prefecture_kana":"イバラキケン","city":"鹿嶋市","city_kana":"カシマシ","town":"荒井","town_kana":"アライ","prefecture_code":8},"2215":{"zip_code":"3112215","prefecture":"茨城県","prefecture_kana":"イバラキケン","city":"鹿嶋市","city_kana":"カシマシ","town":"和","town_kana":"カズ","prefecture_code":8},"2221":{"zip_code":"3112221","prefecture":"茨城県","prefecture_kana":"イバラキケン","city":"鹿嶋市","city_kana":"カシマシ","town":"荒野","town_kana":"コウヤ","prefecture_code":8},"2222":{"zip_code":"3112222","prefecture":"茨城県","prefecture_kana":"イバラキケン","city":"鹿嶋市","city_kana":"カシマシ","town":"小山","town_kana":"コヤマ","prefecture_code":8},"2207":{"zip_code":"3112207","prefecture":"茨城県","prefecture_kana":"イバラキケン","city":"鹿嶋市","city_kana":"カシマシ","town":"志崎","town_kana":"シザキ","prefecture_code":8},"2201":{"zip_code":"3112201","prefecture":"茨城県","prefecture_kana":"イバラキケン","city":"鹿嶋市","city_kana":"カシマシ","town":"大小志崎","town_kana":"ダイショウシザキ","prefecture_code":8},"2206":{"zip_code":"3112206","prefecture":"茨城県","prefecture_kana":"イバラキケン","city":"鹿嶋市","city_kana":"カシマシ","town":"武井","town_kana":"タケイ","prefecture_code":8},"2202":{"zip_code":"3112202","prefecture":"茨城県","prefecture_kana":"イバラキケン","city":"鹿嶋市","city_kana":"カシマシ","town":"武井釜","town_kana":"タケイガマ","prefecture_code":8},"2214":{"zip_code":"3112214","prefecture":"茨城県","prefecture_kana":"イバラキケン","city":"鹿嶋市","city_kana":"カシマシ","town":"棚木","town_kana":"タナギ","prefecture_code":8},"2205":{"zip_code":"3112205","prefecture":"茨城県","prefecture_kana":"イバラキケン","city":"鹿嶋市","city_kana":"カシマシ","town":"津賀","town_kana":"ツガ","prefecture_code":8},"2212":{"zip_code":"3112212","prefecture":"茨城県","prefecture_kana":"イバラキケン","city":"鹿嶋市","city_kana":"カシマシ","town":"角折","town_kana":"ツノオレ","prefecture_code":8},"2213":{"zip_code":"3112213","prefecture":"茨城県","prefecture_kana":"イバラキケン","city":"鹿嶋市","city_kana":"カシマシ","town":"中","town_kana":"ナカ","prefecture_code":8},"2224":{"zip_code":"3112224","prefecture":"茨城県","prefecture_kana":"イバラキケン","city":"鹿嶋市","city_kana":"カシマシ","town":"奈良毛","town_kana":"ナラゲ","prefecture_code":8},"2203":{"zip_code":"3112203","prefecture":"茨城県","prefecture_kana":"イバラキケン","city":"鹿嶋市","city_kana":"カシマシ","town":"浜津賀","town_kana":"ハマツガ","prefecture_code":8},"2223":{"zip_code":"3112223","prefecture":"茨城県","prefecture_kana":"イバラキケン","city":"鹿嶋市","city_kana":"カシマシ","town":"林","town_kana":"ハヤシ","prefecture_code":8},"2400":{"zip_code":"3112400","prefecture":"茨城県","prefecture_kana":"イバラキケン","city":"潮来市","city_kana":"イタコシ","town":"","town_kana":"","prefecture_code":8},"2425":{"zip_code":"3112425","prefecture":"茨城県","prefecture_kana":"イバラキケン","city":"潮来市","city_kana":"イタコシ","town":"あやめ","town_kana":"アヤメ","prefecture_code":8},"2424":{"zip_code":"3112424","prefecture":"茨城県","prefecture_kana":"イバラキケン","city":"潮来市","city_kana":"イタコシ","town":"潮来","town_kana":"イタコ","prefecture_code":8},"2436":{"zip_code":"3112436","prefecture":"茨城県","prefecture_kana":"イバラキケン","city":"潮来市","city_kana":"イタコシ","town":"牛堀","town_kana":"ウシボリ","prefecture_code":8},"2435":{"zip_code":"3112435","prefecture":"茨城県","prefecture_kana":"イバラキケン","city":"潮来市","city_kana":"イタコシ","town":"上戸","town_kana":"ウワト","prefecture_code":8},"2402":{"zip_code":"3112402","prefecture":"茨城県","prefecture_kana":"イバラキケン","city":"潮来市","city_kana":"イタコシ","town":"大生","town_kana":"オオウ","prefecture_code":8},"2401":{"zip_code":"3112401","prefecture":"茨城県","prefecture_kana":"イバラキケン","city":"潮来市","city_kana":"イタコシ","town":"大賀","town_kana":"オオガ","prefecture_code":8},"2422":{"zip_code":"3112422","prefecture":"茨城県","prefecture_kana":"イバラキケン","city":"潮来市","city_kana":"イタコシ","town":"大洲","town_kana":"オオス","prefecture_code":8},"2426":{"zip_code":"3112426","prefecture":"茨城県","prefecture_kana":"イバラキケン","city":"潮来市","city_kana":"イタコシ","town":"大塚野","town_kana":"オオツカノ","prefecture_code":8},"2441":{"zip_code":"3112441","prefecture":"茨城県","prefecture_kana":"イバラキケン","city":"潮来市","city_kana":"イタコシ","town":"大山","town_kana":"オオヤマ","prefecture_code":8},"2403":{"zip_code":"3112403","prefecture":"茨城県","prefecture_kana":"イバラキケン","city":"潮来市","city_kana":"イタコシ","town":"釜谷","town_kana":"カマヤ","prefecture_code":8},"2440":{"zip_code":"3112440","prefecture":"茨城県","prefecture_kana":"イバラキケン","city":"潮来市","city_kana":"イタコシ","town":"川尾","town_kana":"カワオ","prefecture_code":8},"2431":{"zip_code":"3112431","prefecture":"茨城県","prefecture_kana":"イバラキケン","city":"潮来市","city_kana":"イタコシ","town":"清水","town_kana":"キヨミズ","prefecture_code":8},"2442":{"zip_code":"3112442","prefecture":"茨城県","prefecture_kana":"イバラキケン","city":"潮来市","city_kana":"イタコシ","town":"小泉","town_kana":"コイズミ","prefecture_code":8},"2444":{"zip_code":"3112444","prefecture":"茨城県","prefecture_kana":"イバラキケン","city":"潮来市","city_kana":"イタコシ","town":"小泉南","town_kana":"コイズミミナミ","prefecture_code":8},"2407":{"zip_code":"3112407","prefecture":"茨城県","prefecture_kana":"イバラキケン","city":"潮来市","city_kana":"イタコシ","town":"下田","town_kana":"シタダ","prefecture_code":8},"2434":{"zip_code":"3112434","prefecture":"茨城県","prefecture_kana":"イバラキケン","city":"潮来市","city_kana":"イタコシ","town":"島須","town_kana":"シマス","prefecture_code":8},"2406":{"zip_code":"3112406","prefecture":"茨城県","prefecture_kana":"イバラキケン","city":"潮来市","city_kana":"イタコシ","town":"新宮","town_kana":"シングウ","prefecture_code":8},"2443":{"zip_code":"3112443","prefecture":"茨城県","prefecture_kana":"イバラキケン","city":"潮来市","city_kana":"イタコシ","town":"新宮南","town_kana":"シングウミナミ","prefecture_code":8},"2448":{"zip_code":"3112448","prefecture":"茨城県","prefecture_kana":"イバラキケン","city":"潮来市","city_kana":"イタコシ","town":"須賀","town_kana":"スカ","prefecture_code":8},"2446":{"zip_code":"3112446","prefecture":"茨城県","prefecture_kana":"イバラキケン","city":"潮来市","city_kana":"イタコシ","town":"須賀南","town_kana":"スカミナミ","prefecture_code":8},"2408":{"zip_code":"3112408","prefecture":"茨城県","prefecture_kana":"イバラキケン","city":"潮来市","city_kana":"イタコシ","town":"洲崎","town_kana":"スサキ","prefecture_code":8},"2405":{"zip_code":"3112405","prefecture":"茨城県","prefecture_kana":"イバラキケン","city":"潮来市","city_kana":"イタコシ","town":"築地","town_kana":"ツイジ","prefecture_code":8},"2421":{"zip_code":"3112421","prefecture":"茨城県","prefecture_kana":"イバラキケン","city":"潮来市","city_kana":"イタコシ","town":"辻","town_kana":"ツジ","prefecture_code":8},"2418":{"zip_code":"3112418","prefecture":"茨城県","prefecture_kana":"イバラキケン","city":"潮来市","city_kana":"イタコシ","town":"徳島","town_kana":"トクシマ","prefecture_code":8},"2437":{"zip_code":"3112437","prefecture":"茨城県","prefecture_kana":"イバラキケン","city":"潮来市","city_kana":"イタコシ","town":"永山","town_kana":"ナガヤマ","prefecture_code":8},"2415":{"zip_code":"3112415","prefecture":"茨城県","prefecture_kana":"イバラキケン","city":"潮来市","city_kana":"イタコシ","town":"延方","town_kana":"ノブカタ","prefecture_code":8},"2409":{"zip_code":"3112409","prefecture":"茨城県","prefecture_kana":"イバラキケン","city":"潮来市","city_kana":"イタコシ","town":"延方東","town_kana":"ノブカタヒガシ","prefecture_code":8},"2410":{"zip_code":"3112410","prefecture":"茨城県","prefecture_kana":"イバラキケン","city":"潮来市","city_kana":"イタコシ","town":"延方西","town_kana":"ノブカタニシ","prefecture_code":8},"2423":{"zip_code":"3112423","prefecture":"茨城県","prefecture_kana":"イバラキケン","city":"潮来市","city_kana":"イタコシ","town":"日の出","town_kana":"ヒノデ","prefecture_code":8},"2419":{"zip_code":"3112419","prefecture":"茨城県","prefecture_kana":"イバラキケン","city":"潮来市","city_kana":"イタコシ","town":"福島","town_kana":"フクシマ","prefecture_code":8},"2449":{"zip_code":"3112449","prefecture":"茨城県","prefecture_kana":"イバラキケン","city":"潮来市","city_kana":"イタコシ","town":"古高","town_kana":"フッタカ","prefecture_code":8},"2433":{"zip_code":"3112433","prefecture":"茨城県","prefecture_kana":"イバラキケン","city":"潮来市","city_kana":"イタコシ","town":"堀之内","town_kana":"ホリノウチ","prefecture_code":8},"2416":{"zip_code":"3112416","prefecture":"茨城県","prefecture_kana":"イバラキケン","city":"潮来市","city_kana":"イタコシ","town":"前川","town_kana":"マエカワ","prefecture_code":8},"2447":{"zip_code":"3112447","prefecture":"茨城県","prefecture_kana":"イバラキケン","city":"潮来市","city_kana":"イタコシ","town":"曲松","town_kana":"マガリマツ","prefecture_code":8},"2445":{"zip_code":"3112445","prefecture":"茨城県","prefecture_kana":"イバラキケン","city":"潮来市","city_kana":"イタコシ","town":"曲松南","town_kana":"マガリマツミナミ","prefecture_code":8},"2404":{"zip_code":"3112404","prefecture":"茨城県","prefecture_kana":"イバラキケン","city":"潮来市","city_kana":"イタコシ","town":"水原","town_kana":"ミズハラ","prefecture_code":8},"2412":{"zip_code":"3112412","prefecture":"茨城県","prefecture_kana":"イバラキケン","city":"潮来市","city_kana":"イタコシ","town":"宮前","town_kana":"ミヤマエ","prefecture_code":8},"2432":{"zip_code":"3112432","prefecture":"茨城県","prefecture_kana":"イバラキケン","city":"潮来市","city_kana":"イタコシ","town":"茂木","town_kana":"モトギ","prefecture_code":8},"2417":{"zip_code":"3112417","prefecture":"茨城県","prefecture_kana":"イバラキケン","city":"潮来市","city_kana":"イタコシ","town":"米島","town_kana":"ヨネジマ","prefecture_code":8},"4611":{"zip_code":"3114611","prefecture":"茨城県","prefecture_kana":"イバラキケン","city":"常陸大宮市","city_kana":"ヒタチオオミヤシ","town":"秋田","town_kana":"アキタ","prefecture_code":8},"4501":{"zip_code":"3114501","prefecture":"茨城県","prefecture_kana":"イバラキケン","city":"常陸大宮市","city_kana":"ヒタチオオミヤシ","town":"門井","town_kana":"カドイ","prefecture_code":8},"4614":{"zip_code":"3114614","prefecture":"茨城県","prefecture_kana":"イバラキケン","city":"常陸大宮市","city_kana":"ヒタチオオミヤシ","town":"金井","town_kana":"カナイ","prefecture_code":8},"4617":{"zip_code":"3114617","prefecture":"茨城県","prefecture_kana":"イバラキケン","city":"常陸大宮市","city_kana":"ヒタチオオミヤシ","town":"上伊勢畑","town_kana":"カミイセハタ","prefecture_code":8},"4615":{"zip_code":"3114615","prefecture":"茨城県","prefecture_kana":"イバラキケン","city":"常陸大宮市","city_kana":"ヒタチオオミヤシ","town":"下伊勢畑","town_kana":"シモイセハタ","prefecture_code":8},"4612":{"zip_code":"3114612","prefecture":"茨城県","prefecture_kana":"イバラキケン","city":"常陸大宮市","city_kana":"ヒタチオオミヤシ","town":"中居","town_kana":"ナカイ","prefecture_code":8},"4613":{"zip_code":"3114613","prefecture":"茨城県","prefecture_kana":"イバラキケン","city":"常陸大宮市","city_kana":"ヒタチオオミヤシ","town":"長倉","town_kana":"ナガクラ","prefecture_code":8},"4503":{"zip_code":"3114503","prefecture":"茨城県","prefecture_kana":"イバラキケン","city":"常陸大宮市","city_kana":"ヒタチオオミヤシ","town":"野口","town_kana":"ノグチ","prefecture_code":8},"4502":{"zip_code":"3114502","prefecture":"茨城県","prefecture_kana":"イバラキケン","city":"常陸大宮市","city_kana":"ヒタチオオミヤシ","town":"野口平","town_kana":"ノグチダイラ","prefecture_code":8},"4618":{"zip_code":"3114618","prefecture":"茨城県","prefecture_kana":"イバラキケン","city":"常陸大宮市","city_kana":"ヒタチオオミヤシ","town":"野田","town_kana":"ノダ","prefecture_code":8},"4616":{"zip_code":"3114616","prefecture":"茨城県","prefecture_kana":"イバラキケン","city":"常陸大宮市","city_kana":"ヒタチオオミヤシ","town":"桧山","town_kana":"ヒヤマ","prefecture_code":8},"0100":{"zip_code":"3110100","prefecture":"茨城県","prefecture_kana":"イバラキケン","city":"那珂市","city_kana":"ナカシ","town":"","town_kana":"","prefecture_code":8},"0134":{"zip_code":"3110134","prefecture":"茨城県","prefecture_kana":"イバラキケン","city":"那珂市","city_kana":"ナカシ","town":"飯田","town_kana":"イイダ","prefecture_code":8},"0125":{"zip_code":"3110125","prefecture":"茨城県","prefecture_kana":"イバラキケン","city":"那珂市","city_kana":"ナカシ","town":"大内","town_kana":"オオウチ","prefecture_code":8},"0135":{"zip_code":"3110135","prefecture":"茨城県","prefecture_kana":"イバラキケン","city":"那珂市","city_kana":"ナカシ","town":"鹿島","town_kana":"カシマ","prefecture_code":8},"0136":{"zip_code":"3110136","prefecture":"茨城県","prefecture_kana":"イバラキケン","city":"那珂市","city_kana":"ナカシ","town":"門部","town_kana":"カドベ","prefecture_code":8},"0116":{"zip_code":"3110116","prefecture":"茨城県","prefecture_kana":"イバラキケン","city":"那珂市","city_kana":"ナカシ","town":"上河内","town_kana":"カミガチ","prefecture_code":8},"0123":{"zip_code":"3110123","prefecture":"茨城県","prefecture_kana":"イバラキケン","city":"那珂市","city_kana":"ナカシ","town":"上国井","town_kana":"カミクニイ","prefecture_code":8},"0131":{"zip_code":"3110131","prefecture":"茨城県","prefecture_kana":"イバラキケン","city":"那珂市","city_kana":"ナカシ","town":"北酒出","town_kana":"キタサカイデ","prefecture_code":8},"0133":{"zip_code":"3110133","prefecture":"茨城県","prefecture_kana":"イバラキケン","city":"那珂市","city_kana":"ナカシ","town":"鴻巣","town_kana":"コウノス","prefecture_code":8},"0111":{"zip_code":"3110111","prefecture":"茨城県","prefecture_kana":"イバラキケン","city":"那珂市","city_kana":"ナカシ","town":"後台","town_kana":"ゴダイ","prefecture_code":8},"0126":{"zip_code":"3110126","prefecture":"茨城県","prefecture_kana":"イバラキケン","city":"那珂市","city_kana":"ナカシ","town":"下江戸","town_kana":"シモエド","prefecture_code":8},"0105":{"zip_code":"3110105","prefecture":"茨城県","prefecture_kana":"イバラキケン","city":"那珂市","city_kana":"ナカシ","town":"菅谷","town_kana":"スガヤ","prefecture_code":8},"0106":{"zip_code":"3110106","prefecture":"茨城県","prefecture_kana":"イバラキケン","city":"那珂市","city_kana":"ナカシ","town":"杉","town_kana":"スギ","prefecture_code":8},"0110":{"zip_code":"3110110","prefecture":"茨城県","prefecture_kana":"イバラキケン","city":"那珂市","city_kana":"ナカシ","town":"竹ノ内","town_kana":"タケノウチ","prefecture_code":8},"0124":{"zip_code":"3110124","prefecture":"茨城県","prefecture_kana":"イバラキケン","city":"那珂市","city_kana":"ナカシ","town":"田崎","town_kana":"タサキ","prefecture_code":8},"0112":{"zip_code":"3110112","prefecture":"茨城県","prefecture_kana":"イバラキケン","city":"那珂市","city_kana":"ナカシ","town":"津田","town_kana":"ツダ","prefecture_code":8},"0104":{"zip_code":"3110104","prefecture":"茨城県","prefecture_kana":"イバラキケン","city":"那珂市","city_kana":"ナカシ","town":"堤","town_kana":"ツツミ","prefecture_code":8},"0122":{"zip_code":"3110122","prefecture":"茨城県","prefecture_kana":"イバラキケン","city":"那珂市","city_kana":"ナカシ","town":"戸","town_kana":"ト","prefecture_code":8},"0121":{"zip_code":"3110121","prefecture":"茨城県","prefecture_kana":"イバラキケン","city":"那珂市","city_kana":"ナカシ","town":"戸崎","town_kana":"トザキ","prefecture_code":8},"0117":{"zip_code":"3110117","prefecture":"茨城県","prefecture_kana":"イバラキケン","city":"那珂市","city_kana":"ナカシ","town":"豊喰","town_kana":"トヨバミ","prefecture_code":8},"0113":{"zip_code":"3110113","prefecture":"茨城県","prefecture_kana":"イバラキケン","city":"那珂市","city_kana":"ナカシ","town":"中台","town_kana":"ナカダイ","prefecture_code":8},"0115":{"zip_code":"3110115","prefecture":"茨城県","prefecture_kana":"イバラキケン","city":"那珂市","city_kana":"ナカシ","town":"西木倉","town_kana":"ニシキノクラ","prefecture_code":8},"0108":{"zip_code":"3110108","prefecture":"茨城県","prefecture_kana":"イバラキケン","city":"那珂市","city_kana":"ナカシ","town":"額田北郷","town_kana":"ヌカダキタゴウ","prefecture_code":8},"0109":{"zip_code":"3110109","prefecture":"茨城県","prefecture_kana":"イバラキケン","city":"那珂市","city_kana":"ナカシ","town":"額田東郷","town_kana":"ヌカダヒガシゴウ","prefecture_code":8},"0107":{"zip_code":"3110107","prefecture":"茨城県","prefecture_kana":"イバラキケン","city":"那珂市","city_kana":"ナカシ","town":"額田南郷","town_kana":"ヌカダミナミゴウ","prefecture_code":8},"0114":{"zip_code":"3110114","prefecture":"茨城県","prefecture_kana":"イバラキケン","city":"那珂市","city_kana":"ナカシ","town":"東木倉","town_kana":"ヒガシキノクラ","prefecture_code":8},"0118":{"zip_code":"3110118","prefecture":"茨城県","prefecture_kana":"イバラキケン","city":"那珂市","city_kana":"ナカシ","town":"福田","town_kana":"フクダ","prefecture_code":8},"0132":{"zip_code":"3110132","prefecture":"茨城県","prefecture_kana":"イバラキケン","city":"那珂市","city_kana":"ナカシ","town":"南酒出","town_kana":"ミナミサカイデ","prefecture_code":8},"0102":{"zip_code":"3110102","prefecture":"茨城県","prefecture_kana":"イバラキケン","city":"那珂市","city_kana":"ナカシ","town":"向山","town_kana":"ムコウヤマ","prefecture_code":8},"0101":{"zip_code":"3110101","prefecture":"茨城県","prefecture_kana":"イバラキケン","city":"那珂市","city_kana":"ナカシ","town":"本米崎","town_kana":"モトコメザキ","prefecture_code":8},"0103":{"zip_code":"3110103","prefecture":"茨城県","prefecture_kana":"イバラキケン","city":"那珂市","city_kana":"ナカシ","town":"横堀","town_kana":"ヨコボリ","prefecture_code":8},"3800":{"zip_code":"3113800","prefecture":"茨城県","prefecture_kana":"イバラキケン","city":"行方市","city_kana":"ナメガタシ","town":"","town_kana":"","prefecture_code":8},"3831":{"zip_code":"3113831","prefecture":"茨城県","prefecture_kana":"イバラキケン","city":"行方市","city_kana":"ナメガタシ","town":"青沼","town_kana":"アオヌマ","prefecture_code":8},"3832":{"zip_code":"3113832","prefecture":"茨城県","prefecture_kana":"イバラキケン","city":"行方市","city_kana":"ナメガタシ","town":"麻生","town_kana":"アソウ","prefecture_code":8},"3814":{"zip_code":"3113814","prefecture":"茨城県","prefecture_kana":"イバラキケン","city":"行方市","city_kana":"ナメガタシ","town":"天掛","town_kana":"アマガケ","prefecture_code":8},"3518":{"zip_code":"3113518","prefecture":"茨城県","prefecture_kana":"イバラキケン","city":"行方市","city_kana":"ナメガタシ","town":"荒宿","town_kana":"アラジュク","prefecture_code":8},"3803":{"zip_code":"3113803","prefecture":"茨城県","prefecture_kana":"イバラキケン","city":"行方市","city_kana":"ナメガタシ","town":"井貝","town_kana":"イガイ","prefecture_code":8},"3827":{"zip_code":"3113827","prefecture":"茨城県","prefecture_kana":"イバラキケン","city":"行方市","city_kana":"ナメガタシ","town":"石神","town_kana":"イシガミ","prefecture_code":8},"3817":{"zip_code":"3113817","prefecture":"茨城県","prefecture_kana":"イバラキケン","city":"行方市","city_kana":"ナメガタシ","town":"板峰","town_kana":"イタノミネ","prefecture_code":8},"3515":{"zip_code":"3113515","prefecture":"茨城県","prefecture_kana":"イバラキケン","city":"行方市","city_kana":"ナメガタシ","town":"井上","town_kana":"イノウエ","prefecture_code":8},"3516":{"zip_code":"3113516","prefecture":"茨城県","prefecture_kana":"イバラキケン","city":"行方市","city_kana":"ナメガタシ","town":"井上藤井","town_kana":"イノウエフジイ","prefecture_code":8},"3824":{"zip_code":"3113824","prefecture":"茨城県","prefecture_kana":"イバラキケン","city":"行方市","city_kana":"ナメガタシ","town":"宇崎","town_kana":"ウザキ","prefecture_code":8},"1705":{"zip_code":"3111705","prefecture":"茨城県","prefecture_kana":"イバラキケン","city":"行方市","city_kana":"ナメガタシ","town":"内宿","town_kana":"ウチジュク","prefecture_code":8},"3822":{"zip_code":"3113822","prefecture":"茨城県","prefecture_kana":"イバラキケン","city":"行方市","city_kana":"ナメガタシ","town":"岡","town_kana":"オカ","prefecture_code":8},"3508":{"zip_code":"3113508","prefecture":"茨城県","prefecture_kana":"イバラキケン","city":"行方市","city_kana":"ナメガタシ","town":"沖洲","town_kana":"オキス","prefecture_code":8},"3802":{"zip_code":"3113802","prefecture":"茨城県","prefecture_kana":"イバラキケン","city":"行方市","city_kana":"ナメガタシ","town":"於下","town_kana":"オシタ","prefecture_code":8},"3804":{"zip_code":"3113804","prefecture":"茨城県","prefecture_kana":"イバラキケン","city":"行方市","city_kana":"ナメガタシ","town":"小高","town_kana":"オダカ","prefecture_code":8},"1724":{"zip_code":"3111724","prefecture":"茨城県","prefecture_kana":"イバラキケン","city":"行方市","city_kana":"ナメガタシ","town":"小貫","town_kana":"オヌキ","prefecture_code":8},"1715":{"zip_code":"3111715","prefecture":"茨城県","prefecture_kana":"イバラキケン","city":"行方市","city_kana":"ナメガタシ","town":"小幡","town_kana":"オバタ","prefecture_code":8},"1716":{"zip_code":"3111716","prefecture":"茨城県","prefecture_kana":"イバラキケン","city":"行方市","city_kana":"ナメガタシ","town":"北高岡","town_kana":"キタタカオカ","prefecture_code":8},"3821":{"zip_code":"3113821","prefecture":"茨城県","prefecture_kana":"イバラキケン","city":"行方市","city_kana":"ナメガタシ","town":"蔵川","town_kana":"クラカワ","prefecture_code":8},"3807":{"zip_code":"3113807","prefecture":"茨城県","prefecture_kana":"イバラキケン","city":"行方市","city_kana":"ナメガタシ","town":"五町田","town_kana":"ゴチョウダ","prefecture_code":8},"3816":{"zip_code":"3113816","prefecture":"茨城県","prefecture_kana":"イバラキケン","city":"行方市","city_kana":"ナメガタシ","town":"小牧","town_kana":"コマキ","prefecture_code":8},"3813":{"zip_code":"3113813","prefecture":"茨城県","prefecture_kana":"イバラキケン","city":"行方市","city_kana":"ナメガタシ","town":"籠田","town_kana":"コモタ","prefecture_code":8},"3514":{"zip_code":"3113514","prefecture":"茨城県","prefecture_kana":"イバラキケン","city":"行方市","city_kana":"ナメガタシ","town":"西蓮寺","town_kana":"サイレンジ","prefecture_code":8},"3835":{"zip_code":"3113835","prefecture":"茨城県","prefecture_kana":"イバラキケン","city":"行方市","city_kana":"ナメガタシ","town":"島並","town_kana":"シマナミ","prefecture_code":8},"3823":{"zip_code":"3113823","prefecture":"茨城県","prefecture_kana":"イバラキケン","city":"行方市","city_kana":"ナメガタシ","town":"白浜","town_kana":"シラハマ","prefecture_code":8},"3811":{"zip_code":"3113811","prefecture":"茨城県","prefecture_kana":"イバラキケン","city":"行方市","city_kana":"ナメガタシ","town":"四鹿","town_kana":"シロク","prefecture_code":8},"3815":{"zip_code":"3113815","prefecture":"茨城県","prefecture_kana":"イバラキケン","city":"行方市","city_kana":"ナメガタシ","town":"新宮","town_kana":"シングウ","prefecture_code":8},"3812":{"zip_code":"3113812","prefecture":"茨城県","prefecture_kana":"イバラキケン","city":"行方市","city_kana":"ナメガタシ","town":"杉平","town_kana":"スギダイラ","prefecture_code":8},"3501":{"zip_code":"3113501","prefecture":"茨城県","prefecture_kana":"イバラキケン","city":"行方市","city_kana":"ナメガタシ","town":"芹沢","town_kana":"セリザワ","prefecture_code":8},"3511":{"zip_code":"3113511","prefecture":"茨城県","prefecture_kana":"イバラキケン","city":"行方市","city_kana":"ナメガタシ","town":"玉造乙","town_kana":"タマツクリオツ","prefecture_code":8},"3512":{"zip_code":"3113512","prefecture":"茨城県","prefecture_kana":"イバラキケン","city":"行方市","city_kana":"ナメガタシ","town":"玉造甲","town_kana":"タマツクリコウ","prefecture_code":8},"3513":{"zip_code":"3113513","prefecture":"茨城県","prefecture_kana":"イバラキケン","city":"行方市","city_kana":"ナメガタシ","town":"手賀","town_kana":"テガ","prefecture_code":8},"3833":{"zip_code":"3113833","prefecture":"茨城県","prefecture_kana":"イバラキケン","city":"行方市","city_kana":"ナメガタシ","town":"富田","town_kana":"トミタ","prefecture_code":8},"1713":{"zip_code":"3111713","prefecture":"茨城県","prefecture_kana":"イバラキケン","city":"行方市","city_kana":"ナメガタシ","town":"中根","town_kana":"ナカネ","prefecture_code":8},"1701":{"zip_code":"3111701","prefecture":"茨城県","prefecture_kana":"イバラキケン","city":"行方市","city_kana":"ナメガタシ","town":"長野江","town_kana":"ナガノエ","prefecture_code":8},"1722":{"zip_code":"3111722","prefecture":"茨城県","prefecture_kana":"イバラキケン","city":"行方市","city_kana":"ナメガタシ","town":"次木","town_kana":"ナミキ","prefecture_code":8},"3801":{"zip_code":"3113801","prefecture":"茨城県","prefecture_kana":"イバラキケン","city":"行方市","city_kana":"ナメガタシ","town":"行方","town_kana":"ナメカタ","prefecture_code":8},"1703":{"zip_code":"3111703","prefecture":"茨城県","prefecture_kana":"イバラキケン","city":"行方市","city_kana":"ナメガタシ","town":"成田","town_kana":"ナリタ","prefecture_code":8},"3825":{"zip_code":"3113825","prefecture":"茨城県","prefecture_kana":"イバラキケン","city":"行方市","city_kana":"ナメガタシ","town":"根小屋","town_kana":"ネゴヤ","prefecture_code":8},"3503":{"zip_code":"3113503","prefecture":"茨城県","prefecture_kana":"イバラキケン","city":"行方市","city_kana":"ナメガタシ","town":"捻木","town_kana":"ネジキ","prefecture_code":8},"3805":{"zip_code":"3113805","prefecture":"茨城県","prefecture_kana":"イバラキケン","city":"行方市","city_kana":"ナメガタシ","town":"橋門","town_kana":"ハシカド","prefecture_code":8},"3507":{"zip_code":"3113507","prefecture":"茨城県","prefecture_kana":"イバラキケン","city":"行方市","city_kana":"ナメガタシ","town":"羽生","town_kana":"ハニュウ","prefecture_code":8},"3505":{"zip_code":"3113505","prefecture":"茨城県","prefecture_kana":"イバラキケン","city":"行方市","city_kana":"ナメガタシ","town":"浜","town_kana":"ハマ","prefecture_code":8},"1712":{"zip_code":"3111712","prefecture":"茨城県","prefecture_kana":"イバラキケン","city":"行方市","city_kana":"ナメガタシ","town":"繁昌","town_kana":"ハンジョウ","prefecture_code":8},"3517":{"zip_code":"3113517","prefecture":"茨城県","prefecture_kana":"イバラキケン","city":"行方市","city_kana":"ナメガタシ","town":"藤井","town_kana":"フジイ","prefecture_code":8},"3806":{"zip_code":"3113806","prefecture":"茨城県","prefecture_kana":"イバラキケン","city":"行方市","city_kana":"ナメガタシ","town":"船子","town_kana":"フナコ","prefecture_code":8},"3834":{"zip_code":"3113834","prefecture":"茨城県","prefecture_kana":"イバラキケン","city":"行方市","city_kana":"ナメガタシ","town":"粗毛","town_kana":"ホボケ","prefecture_code":8},"3836":{"zip_code":"3113836","prefecture":"茨城県","prefecture_kana":"イバラキケン","city":"行方市","city_kana":"ナメガタシ","town":"南","town_kana":"ミナミ","prefecture_code":8},"1714":{"zip_code":"3111714","prefecture":"茨城県","prefecture_kana":"イバラキケン","city":"行方市","city_kana":"ナメガタシ","town":"南高岡","town_kana":"ミナミタカオカ","prefecture_code":8},"1702":{"zip_code":"3111702","prefecture":"茨城県","prefecture_kana":"イバラキケン","city":"行方市","city_kana":"ナメガタシ","town":"三和","town_kana":"ミワ","prefecture_code":8},"3506":{"zip_code":"3113506","prefecture":"茨城県","prefecture_kana":"イバラキケン","city":"行方市","city_kana":"ナメガタシ","town":"八木蒔","town_kana":"ヤキマキ","prefecture_code":8},"3504":{"zip_code":"3113504","prefecture":"茨城県","prefecture_kana":"イバラキケン","city":"行方市","city_kana":"ナメガタシ","town":"谷島","town_kana":"ヤジマ","prefecture_code":8},"3826":{"zip_code":"3113826","prefecture":"茨城県","prefecture_kana":"イバラキケン","city":"行方市","city_kana":"ナメガタシ","town":"矢幡","town_kana":"ヤバタ","prefecture_code":8},"1704":{"zip_code":"3111704","prefecture":"茨城県","prefecture_kana":"イバラキケン","city":"行方市","city_kana":"ナメガタシ","town":"山田","town_kana":"ヤマダ","prefecture_code":8},"1723":{"zip_code":"3111723","prefecture":"茨城県","prefecture_kana":"イバラキケン","city":"行方市","city_kana":"ナメガタシ","town":"行戸","town_kana":"ユクド","prefecture_code":8},"1711":{"zip_code":"3111711","prefecture":"茨城県","prefecture_kana":"イバラキケン","city":"行方市","city_kana":"ナメガタシ","town":"吉川","town_kana":"ヨシカワ","prefecture_code":8},"1721":{"zip_code":"3111721","prefecture":"茨城県","prefecture_kana":"イバラキケン","city":"行方市","city_kana":"ナメガタシ","town":"両宿","town_kana":"リョウシュク","prefecture_code":8},"3502":{"zip_code":"3113502","prefecture":"茨城県","prefecture_kana":"イバラキケン","city":"行方市","city_kana":"ナメガタシ","town":"若海","town_kana":"ワカウミ","prefecture_code":8},"1500":{"zip_code":"3111500","prefecture":"茨城県","prefecture_kana":"イバラキケン","city":"鉾田市","city_kana":"ホコタシ","town":"","town_kana":"","prefecture_code":8},"1535":{"zip_code":"3111535","prefecture":"茨城県","prefecture_kana":"イバラキケン","city":"鉾田市","city_kana":"ホコタシ","town":"青柳","town_kana":"アオヤギ","prefecture_code":8},"2101":{"zip_code":"3112101","prefecture":"茨城県","prefecture_kana":"イバラキケン","city":"鉾田市","city_kana":"ホコタシ","town":"青山","town_kana":"アオヤマ","prefecture_code":8},"1506":{"zip_code":"3111506","prefecture":"茨城県","prefecture_kana":"イバラキケン","city":"鉾田市","city_kana":"ホコタシ","town":"秋山","town_kana":"アキヤマ","prefecture_code":8},"2118":{"zip_code":"3112118","prefecture":"茨城県","prefecture_kana":"イバラキケン","city":"鉾田市","city_kana":"ホコタシ","town":"阿玉","town_kana":"アダマ","prefecture_code":8},"1411":{"zip_code":"3111411","prefecture":"茨城県","prefecture_kana":"イバラキケン","city":"鉾田市","city_kana":"ホコタシ","town":"荒地","town_kana":"アラジ","prefecture_code":8},"1504":{"zip_code":"3111504","prefecture":"茨城県","prefecture_kana":"イバラキケン","city":"鉾田市","city_kana":"ホコタシ","town":"安房","town_kana":"アンボウ","prefecture_code":8},"2112":{"zip_code":"3112112","prefecture":"茨城県","prefecture_kana":"イバラキケン","city":"鉾田市","city_kana":"ホコタシ","town":"飯島","town_kana":"イイジマ","prefecture_code":8},"1521":{"zip_code":"3111521","prefecture":"茨城県","prefecture_kana":"イバラキケン","city":"鉾田市","city_kana":"ホコタシ","town":"飯名","town_kana":"イイナ","prefecture_code":8},"2114":{"zip_code":"3112114","prefecture":"茨城県","prefecture_kana":"イバラキケン","city":"鉾田市","city_kana":"ホコタシ","town":"江川","town_kana":"エガワ","prefecture_code":8},"2117":{"zip_code":"3112117","prefecture":"茨城県","prefecture_kana":"イバラキケン","city":"鉾田市","city_kana":"ホコタシ","town":"大蔵","town_kana":"オオクラ","prefecture_code":8},"1513":{"zip_code":"3111513","prefecture":"茨城県","prefecture_kana":"イバラキケン","city":"鉾田市","city_kana":"ホコタシ","town":"大竹","town_kana":"オオタケ","prefecture_code":8},"1502":{"zip_code":"3111502","prefecture":"茨城県","prefecture_kana":"イバラキケン","city":"鉾田市","city_kana":"ホコタシ","town":"大戸","town_kana":"オオド","prefecture_code":8},"1536":{"zip_code":"3111536","prefecture":"茨城県","prefecture_kana":"イバラキケン","city":"鉾田市","city_kana":"ホコタシ","town":"大和田","town_kana":"オオワダ","prefecture_code":8},"2104":{"zip_code":"3112104","prefecture":"茨城県","prefecture_kana":"イバラキケン","city":"鉾田市","city_kana":"ホコタシ","town":"梶山","town_kana":"カジヤマ","prefecture_code":8},"1511":{"zip_code":"3111511","prefecture":"茨城県","prefecture_kana":"イバラキケン","city":"鉾田市","city_kana":"ホコタシ","town":"柏熊","town_kana":"カシワクマ","prefecture_code":8},"1424":{"zip_code":"3111424","prefecture":"茨城県","prefecture_kana":"イバラキケン","city":"鉾田市","city_kana":"ホコタシ","town":"柏熊新田","town_kana":"カシワクマシンデン","prefecture_code":8},"1422":{"zip_code":"3111422","prefecture":"茨城県","prefecture_kana":"イバラキケン","city":"鉾田市","city_kana":"ホコタシ","town":"勝下","town_kana":"カツオリ","prefecture_code":8},"1421":{"zip_code":"3111421","prefecture":"茨城県","prefecture_kana":"イバラキケン","city":"鉾田市","city_kana":"ホコタシ","town":"勝下新田","town_kana":"カツオリシンデン","prefecture_code":8},"1515":{"zip_code":"3111515","prefecture":"茨城県","prefecture_kana":"イバラキケン","city":"鉾田市","city_kana":"ホコタシ","town":"烟田","town_kana":"カマタ","prefecture_code":8},"1405":{"zip_code":"3111405","prefecture":"茨城県","prefecture_kana":"イバラキケン","city":"鉾田市","city_kana":"ホコタシ","town":"上太田","town_kana":"カミオオタ","prefecture_code":8},"1403":{"zip_code":"3111403","prefecture":"茨城県","prefecture_kana":"イバラキケン","city":"鉾田市","city_kana":"ホコタシ","town":"上釜","town_kana":"カミガマ","prefecture_code":8},"2111":{"zip_code":"3112111","prefecture":"茨城県","prefecture_kana":"イバラキケン","city":"鉾田市","city_kana":"ホコタシ","town":"上沢","town_kana":"カミザワ","prefecture_code":8},"1532":{"zip_code":"3111532","prefecture":"茨城県","prefecture_kana":"イバラキケン","city":"鉾田市","city_kana":"ホコタシ","town":"上冨田","town_kana":"カミトミタ","prefecture_code":8},"2113":{"zip_code":"3112113","prefecture":"茨城県","prefecture_kana":"イバラキケン","city":"鉾田市","city_kana":"ホコタシ","town":"上幡木","town_kana":"カミハタキ","prefecture_code":8},"1527":{"zip_code":"3111527","prefecture":"茨城県","prefecture_kana":"イバラキケン","city":"鉾田市","city_kana":"ホコタシ","town":"借宿","town_kana":"カリヤド","prefecture_code":8},"1523":{"zip_code":"3111523","prefecture":"茨城県","prefecture_kana":"イバラキケン","city":"鉾田市","city_kana":"ホコタシ","town":"串挽","town_kana":"クシヒキ","prefecture_code":8},"2103":{"zip_code":"3112103","prefecture":"茨城県","prefecture_kana":"イバラキケン","city":"鉾田市","city_kana":"ホコタシ","town":"汲上","town_kana":"クミアゲ","prefecture_code":8},"1414":{"zip_code":"3111414","prefecture":"茨城県","prefecture_kana":"イバラキケン","city":"鉾田市","city_kana":"ホコタシ","town":"子生","town_kana":"コナジ","prefecture_code":8},"1505":{"zip_code":"3111505","prefecture":"茨城県","prefecture_kana":"イバラキケン","city":"鉾田市","city_kana":"ホコタシ","town":"駒木根","town_kana":"コマギネ","prefecture_code":8},"1404":{"zip_code":"3111404","prefecture":"茨城県","prefecture_kana":"イバラキケン","city":"鉾田市","city_kana":"ホコタシ","town":"沢尻","town_kana":"サワジリ","prefecture_code":8},"1416":{"zip_code":"3111416","prefecture":"茨城県","prefecture_kana":"イバラキケン","city":"鉾田市","city_kana":"ホコタシ","town":"鹿田","town_kana":"シカダ","prefecture_code":8},"1402":{"zip_code":"3111402","prefecture":"茨城県","prefecture_kana":"イバラキケン","city":"鉾田市","city_kana":"ホコタシ","town":"下太田","town_kana":"シモオオタ","prefecture_code":8},"1533":{"zip_code":"3111533","prefecture":"茨城県","prefecture_kana":"イバラキケン","city":"鉾田市","city_kana":"ホコタシ","town":"下冨田","town_kana":"シモトミタ","prefecture_code":8},"1512":{"zip_code":"3111512","prefecture":"茨城県","prefecture_kana":"イバラキケン","city":"鉾田市","city_kana":"ホコタシ","town":"白塚","town_kana":"シラツカ","prefecture_code":8},"1516":{"zip_code":"3111516","prefecture":"茨城県","prefecture_kana":"イバラキケン","city":"鉾田市","city_kana":"ホコタシ","town":"新鉾田","town_kana":"シンホコタ","prefecture_code":8},"1518":{"zip_code":"3111518","prefecture":"茨城県","prefecture_kana":"イバラキケン","city":"鉾田市","city_kana":"ホコタシ","town":"新鉾田西","town_kana":"シンホコタニシ","prefecture_code":8},"1531":{"zip_code":"3111531","prefecture":"茨城県","prefecture_kana":"イバラキケン","city":"鉾田市","city_kana":"ホコタシ","town":"菅野谷","town_kana":"スゲノヤ","prefecture_code":8},"2102":{"zip_code":"3112102","prefecture":"茨城県","prefecture_kana":"イバラキケン","city":"鉾田市","city_kana":"ホコタシ","town":"台濁沢","town_kana":"ダイニゴリサワ","prefecture_code":8},"1524":{"zip_code":"3111524","prefecture":"茨城県","prefecture_kana":"イバラキケン","city":"鉾田市","city_kana":"ホコタシ","town":"高田","town_kana":"タカダ","prefecture_code":8},"1423":{"zip_code":"3111423","prefecture":"茨城県","prefecture_kana":"イバラキケン","city":"鉾田市","city_kana":"ホコタシ","town":"滝浜","town_kana":"タキハマ","prefecture_code":8},"1406":{"zip_code":"3111406","prefecture":"茨城県","prefecture_kana":"イバラキケン","city":"鉾田市","city_kana":"ホコタシ","town":"田崎","town_kana":"タサキ","prefecture_code":8},"1412":{"zip_code":"3111412","prefecture":"茨城県","prefecture_kana":"イバラキケン","city":"鉾田市","city_kana":"ホコタシ","town":"玉田","town_kana":"タマダ","prefecture_code":8},"1415":{"zip_code":"3111415","prefecture":"茨城県","prefecture_kana":"イバラキケン","city":"鉾田市","city_kana":"ホコタシ","town":"造谷","town_kana":"ツクリヤ","prefecture_code":8},"1522":{"zip_code":"3111522","prefecture":"茨城県","prefecture_kana":"イバラキケン","city":"鉾田市","city_kana":"ホコタシ","town":"塔ケ崎","town_kana":"トウガサキ","prefecture_code":8},"1528":{"zip_code":"3111528","prefecture":"茨城県","prefecture_kana":"イバラキケン","city":"鉾田市","city_kana":"ホコタシ","town":"当間","town_kana":"トウマ","prefecture_code":8},"1427":{"zip_code":"3111427","prefecture":"茨城県","prefecture_kana":"イバラキケン","city":"鉾田市","city_kana":"ホコタシ","town":"常磐","town_kana":"トキワ","prefecture_code":8},"1503":{"zip_code":"3111503","prefecture":"茨城県","prefecture_kana":"イバラキケン","city":"鉾田市","city_kana":"ホコタシ","town":"徳宿","town_kana":"トクシュク","prefecture_code":8},"1534":{"zip_code":"3111534","prefecture":"茨城県","prefecture_kana":"イバラキケン","city":"鉾田市","city_kana":"ホコタシ","town":"鳥栖","town_kana":"トリノス","prefecture_code":8},"2115":{"zip_code":"3112115","prefecture":"茨城県","prefecture_kana":"イバラキケン","city":"鉾田市","city_kana":"ホコタシ","town":"中居","town_kana":"ナカイ","prefecture_code":8},"1525":{"zip_code":"3111525","prefecture":"茨城県","prefecture_kana":"イバラキケン","city":"鉾田市","city_kana":"ホコタシ","town":"野友","town_kana":"ノトモ","prefecture_code":8},"1526":{"zip_code":"3111526","prefecture":"茨城県","prefecture_kana":"イバラキケン","city":"鉾田市","city_kana":"ホコタシ","town":"半原","town_kana":"ハバラ","prefecture_code":8},"1413":{"zip_code":"3111413","prefecture":"茨城県","prefecture_kana":"イバラキケン","city":"鉾田市","city_kana":"ホコタシ","town":"冷水","town_kana":"ヒヤミズ","prefecture_code":8},"2116":{"zip_code":"3112116","prefecture":"茨城県","prefecture_kana":"イバラキケン","city":"鉾田市","city_kana":"ホコタシ","town":"札","town_kana":"フダ","prefecture_code":8},"2105":{"zip_code":"3112105","prefecture":"茨城県","prefecture_kana":"イバラキケン","city":"鉾田市","city_kana":"ホコタシ","town":"二重作","town_kana":"フタエサク","prefecture_code":8},"1501":{"zip_code":"3111501","prefecture":"茨城県","prefecture_kana":"イバラキケン","city":"鉾田市","city_kana":"ホコタシ","town":"舟木","town_kana":"フナキ","prefecture_code":8},"1517":{"zip_code":"3111517","prefecture":"茨城県","prefecture_kana":"イバラキケン","city":"鉾田市","city_kana":"ホコタシ","town":"鉾田","town_kana":"ホコタ","prefecture_code":8},"1401":{"zip_code":"3111401","prefecture":"茨城県","prefecture_kana":"イバラキケン","city":"鉾田市","city_kana":"ホコタシ","town":"箕輪","town_kana":"ミノワ","prefecture_code":8},"1537":{"zip_code":"3111537","prefecture":"茨城県","prefecture_kana":"イバラキケン","city":"鉾田市","city_kana":"ホコタシ","town":"紅葉","town_kana":"モミジ","prefecture_code":8},"1426":{"zip_code":"3111426","prefecture":"茨城県","prefecture_kana":"イバラキケン","city":"鉾田市","city_kana":"ホコタシ","town":"樅山","town_kana":"モミヤマ","prefecture_code":8},"1514":{"zip_code":"3111514","prefecture":"茨城県","prefecture_kana":"イバラキケン","city":"鉾田市","city_kana":"ホコタシ","town":"安塚","town_kana":"ヤスヅカ","prefecture_code":8},"1425":{"zip_code":"3111425","prefecture":"茨城県","prefecture_kana":"イバラキケン","city":"鉾田市","city_kana":"ホコタシ","town":"湯坪","town_kana":"ユツボ","prefecture_code":8},"3404":{"zip_code":"3113404","prefecture":"茨城県","prefecture_kana":"イバラキケン","city":"小美玉市","city_kana":"オミタマシ","town":"飯前","town_kana":"イイサキ","prefecture_code":8},"3423":{"zip_code":"3113423","prefecture":"茨城県","prefecture_kana":"イバラキケン","city":"小美玉市","city_kana":"オミタマシ","town":"小川","town_kana":"オガワ","prefecture_code":8},"3405":{"zip_code":"3113405","prefecture":"茨城県","prefecture_kana":"イバラキケン","city":"小美玉市","city_kana":"オミタマシ","town":"上合","town_kana":"カミアイ","prefecture_code":8},"3436":{"zip_code":"3113436","prefecture":"茨城県","prefecture_kana":"イバラキケン","city":"小美玉市","city_kana":"オミタマシ","town":"上玉里","town_kana":"カミタマリ","prefecture_code":8},"3403":{"zip_code":"3113403","prefecture":"茨城県","prefecture_kana":"イバラキケン","city":"小美玉市","city_kana":"オミタマシ","town":"上吉影","town_kana":"カミヨシカゲ","prefecture_code":8},"3412":{"zip_code":"3113412","prefecture":"茨城県","prefecture_kana":"イバラキケン","city":"小美玉市","city_kana":"オミタマシ","town":"川戸","town_kana":"カワド","prefecture_code":8},"3431":{"zip_code":"3113431","prefecture":"茨城県","prefecture_kana":"イバラキケン","city":"小美玉市","city_kana":"オミタマシ","town":"川中子","town_kana":"カワナゴ","prefecture_code":8},"3417":{"zip_code":"3113417","prefecture":"茨城県","prefecture_kana":"イバラキケン","city":"小美玉市","city_kana":"オミタマシ","town":"倉数","town_kana":"クラカズ","prefecture_code":8},"3434":{"zip_code":"3113434","prefecture":"茨城県","prefecture_kana":"イバラキケン","city":"小美玉市","city_kana":"オミタマシ","town":"栗又四ケ","town_kana":"クリマタシカ","prefecture_code":8},"3425":{"zip_code":"3113425","prefecture":"茨城県","prefecture_kana":"イバラキケン","city":"小美玉市","city_kana":"オミタマシ","town":"小塙","town_kana":"コバナワ","prefecture_code":8},"3402":{"zip_code":"3113402","prefecture":"茨城県","prefecture_kana":"イバラキケン","city":"小美玉市","city_kana":"オミタマシ","town":"佐才","town_kana":"サザイ","prefecture_code":8},"3432":{"zip_code":"3113432","prefecture":"茨城県","prefecture_kana":"イバラキケン","city":"小美玉市","city_kana":"オミタマシ","town":"下玉里","town_kana":"シモタマリ","prefecture_code":8},"3426":{"zip_code":"3113426","prefecture":"茨城県","prefecture_kana":"イバラキケン","city":"小美玉市","city_kana":"オミタマシ","town":"下馬場","town_kana":"シモババ","prefecture_code":8},"3406":{"zip_code":"3113406","prefecture":"茨城県","prefecture_kana":"イバラキケン","city":"小美玉市","city_kana":"オミタマシ","town":"下吉影","town_kana":"シモヨシカゲ","prefecture_code":8},"3401":{"zip_code":"3113401","prefecture":"茨城県","prefecture_kana":"イバラキケン","city":"小美玉市","city_kana":"オミタマシ","town":"世楽","town_kana":"セラク","prefecture_code":8},"3433":{"zip_code":"3113433","prefecture":"茨城県","prefecture_kana":"イバラキケン","city":"小美玉市","city_kana":"オミタマシ","town":"高崎","town_kana":"タカサキ","prefecture_code":8},"3435":{"zip_code":"3113435","prefecture":"茨城県","prefecture_kana":"イバラキケン","city":"小美玉市","city_kana":"オミタマシ","town":"田木谷","town_kana":"タギヤ","prefecture_code":8},"3414":{"zip_code":"3113414","prefecture":"茨城県","prefecture_kana":"イバラキケン","city":"小美玉市","city_kana":"オミタマシ","town":"外之内","town_kana":"トノウチ","prefecture_code":8},"3422":{"zip_code":"3113422","prefecture":"茨城県","prefecture_kana":"イバラキケン","city":"小美玉市","city_kana":"オミタマシ","town":"中延","town_kana":"ナカノベ","prefecture_code":8},"3411":{"zip_code":"3113411","prefecture":"茨城県","prefecture_kana":"イバラキケン","city":"小美玉市","city_kana":"オミタマシ","town":"野田","town_kana":"ノダ","prefecture_code":8},"3424":{"zip_code":"3113424","prefecture":"茨城県","prefecture_kana":"イバラキケン","city":"小美玉市","city_kana":"オミタマシ","town":"幡谷","town_kana":"ハタヤ","prefecture_code":8},"3437":{"zip_code":"3113437","prefecture":"茨城県","prefecture_kana":"イバラキケン","city":"小美玉市","city_kana":"オミタマシ","town":"東田中","town_kana":"ヒガシタナカ","prefecture_code":8},"3415":{"zip_code":"3113415","prefecture":"茨城県","prefecture_kana":"イバラキケン","city":"小美玉市","city_kana":"オミタマシ","town":"百里","town_kana":"ヒャクリ","prefecture_code":8},"3421":{"zip_code":"3113421","prefecture":"茨城県","prefecture_kana":"イバラキケン","city":"小美玉市","city_kana":"オミタマシ","town":"宮田","town_kana":"ミヤタ","prefecture_code":8},"3413":{"zip_code":"3113413","prefecture":"茨城県","prefecture_kana":"イバラキケン","city":"小美玉市","city_kana":"オミタマシ","town":"山野","town_kana":"ヤマノ","prefecture_code":8},"3416":{"zip_code":"3113416","prefecture":"茨城県","prefecture_kana":"イバラキケン","city":"小美玉市","city_kana":"オミタマシ","town":"与沢","town_kana":"ヨザワ","prefecture_code":8},"3100":{"zip_code":"3113100","prefecture":"茨城県","prefecture_kana":"イバラキケン","city":"東茨城郡茨城町","city_kana":"ヒガシイバラキグンイバラキマチ","town":"","town_kana":"","prefecture_code":8},"3137":{"zip_code":"3113137","prefecture":"茨城県","prefecture_kana":"イバラキケン","city":"東茨城郡茨城町","city_kana":"ヒガシイバラキグンイバラキマチ","town":"網掛","town_kana":"アガケ","prefecture_code":8},"3147":{"zip_code":"3113147","prefecture":"茨城県","prefecture_kana":"イバラキケン","city":"東茨城郡茨城町","city_kana":"ヒガシイバラキグンイバラキマチ","town":"秋葉","town_kana":"アキバ","prefecture_code":8},"3152":{"zip_code":"3113152","prefecture":"茨城県","prefecture_kana":"イバラキケン","city":"東茨城郡茨城町","city_kana":"ヒガシイバラキグンイバラキマチ","town":"飯沼","town_kana":"イイヌマ","prefecture_code":8},"3111":{"zip_code":"3113111","prefecture":"茨城県","prefecture_kana":"イバラキケン","city":"東茨城郡茨城町","city_kana":"ヒガシイバラキグンイバラキマチ","town":"馬渡","town_kana":"ウマワタリ","prefecture_code":8},"3135":{"zip_code":"3113135","prefecture":"茨城県","prefecture_kana":"イバラキケン","city":"東茨城郡茨城町","city_kana":"ヒガシイバラキグンイバラキマチ","town":"海老沢","town_kana":"エビサワ","prefecture_code":8},"3114":{"zip_code":"3113114","prefecture":"茨城県","prefecture_kana":"イバラキケン","city":"東茨城郡茨城町","city_kana":"ヒガシイバラキグンイバラキマチ","town":"大戸","town_kana":"オオド","prefecture_code":8},"3156":{"zip_code":"3113156","prefecture":"茨城県","prefecture_kana":"イバラキケン","city":"東茨城郡茨城町","city_kana":"ヒガシイバラキグンイバラキマチ","town":"奥谷","town_kana":"オクノヤ","prefecture_code":8},"3131":{"zip_code":"3113131","prefecture":"茨城県","prefecture_kana":"イバラキケン","city":"東茨城郡茨城町","city_kana":"ヒガシイバラキグンイバラキマチ","town":"小堤","town_kana":"オヅツミ","prefecture_code":8},"3157":{"zip_code":"3113157","prefecture":"茨城県","prefecture_kana":"イバラキケン","city":"東茨城郡茨城町","city_kana":"ヒガシイバラキグンイバラキマチ","town":"小幡","town_kana":"オバタ","prefecture_code":8},"3145":{"zip_code":"3113145","prefecture":"茨城県","prefecture_kana":"イバラキケン","city":"東茨城郡茨城町","city_kana":"ヒガシイバラキグンイバラキマチ","town":"上雨ケ谷","town_kana":"カミアマガイ","prefecture_code":8},"3153":{"zip_code":"3113153","prefecture":"茨城県","prefecture_kana":"イバラキケン","city":"東茨城郡茨城町","city_kana":"ヒガシイバラキグンイバラキマチ","town":"上飯沼","town_kana":"カミイイヌマ","prefecture_code":8},"3122":{"zip_code":"3113122","prefecture":"茨城県","prefecture_kana":"イバラキケン","city":"東茨城郡茨城町","city_kana":"ヒガシイバラキグンイバラキマチ","town":"上石崎","town_kana":"カミイシザキ","prefecture_code":8},"3134":{"zip_code":"3113134","prefecture":"茨城県","prefecture_kana":"イバラキケン","city":"東茨城郡茨城町","city_kana":"ヒガシイバラキグンイバラキマチ","town":"神宿","town_kana":"カミヤド","prefecture_code":8},"3141":{"zip_code":"3113141","prefecture":"茨城県","prefecture_kana":"イバラキケン","city":"東茨城郡茨城町","city_kana":"ヒガシイバラキグンイバラキマチ","town":"神谷","town_kana":"カンヤ","prefecture_code":8},"3151":{"zip_code":"3113151","prefecture":"茨城県","prefecture_kana":"イバラキケン","city":"東茨城郡茨城町","city_kana":"ヒガシイバラキグンイバラキマチ","town":"木部","town_kana":"キベ","prefecture_code":8},"3146":{"zip_code":"3113146","prefecture":"茨城県","prefecture_kana":"イバラキケン","city":"東茨城郡茨城町","city_kana":"ヒガシイバラキグンイバラキマチ","town":"下座","town_kana":"ゲザ","prefecture_code":8},"3107":{"zip_code":"3113107","prefecture":"茨城県","prefecture_kana":"イバラキケン","city":"東茨城郡茨城町","city_kana":"ヒガシイバラキグンイバラキマチ","town":"小鶴","town_kana":"コヅル","prefecture_code":8},"3132":{"zip_code":"3113132","prefecture":"茨城県","prefecture_kana":"イバラキケン","city":"東茨城郡茨城町","city_kana":"ヒガシイバラキグンイバラキマチ","town":"駒場","town_kana":"コマバ","prefecture_code":8},"3104":{"zip_code":"3113104","prefecture":"茨城県","prefecture_kana":"イバラキケン","city":"東茨城郡茨城町","city_kana":"ヒガシイバラキグンイバラキマチ","town":"駒渡","town_kana":"コマワタリ","prefecture_code":8},"3106":{"zip_code":"3113106","prefecture":"茨城県","prefecture_kana":"イバラキケン","city":"東茨城郡茨城町","city_kana":"ヒガシイバラキグンイバラキマチ","town":"越安","town_kana":"コヤス","prefecture_code":8},"3113":{"zip_code":"3113113","prefecture":"茨城県","prefecture_kana":"イバラキケン","city":"東茨城郡茨城町","city_kana":"ヒガシイバラキグンイバラキマチ","town":"近藤","town_kana":"コンドウ","prefecture_code":8},"3117":{"zip_code":"3113117","prefecture":"茨城県","prefecture_kana":"イバラキケン","city":"東茨城郡茨城町","city_kana":"ヒガシイバラキグンイバラキマチ","town":"桜の郷","town_kana":"サクラノサト","prefecture_code":8},"3144":{"zip_code":"3113144","prefecture":"茨城県","prefecture_kana":"イバラキケン","city":"東茨城郡茨城町","city_kana":"ヒガシイバラキグンイバラキマチ","town":"下雨ケ谷","town_kana":"シモアマガイ","prefecture_code":8},"3154":{"zip_code":"3113154","prefecture":"茨城県","prefecture_kana":"イバラキケン","city":"東茨城郡茨城町","city_kana":"ヒガシイバラキグンイバラキマチ","town":"下飯沼","town_kana":"シモイイヌマ","prefecture_code":8},"3125":{"zip_code":"3113125","prefecture":"茨城県","prefecture_kana":"イバラキケン","city":"東茨城郡茨城町","city_kana":"ヒガシイバラキグンイバラキマチ","town":"下石崎","town_kana":"シモイシザキ","prefecture_code":8},"3155":{"zip_code":"3113155","prefecture":"茨城県","prefecture_kana":"イバラキケン","city":"東茨城郡茨城町","city_kana":"ヒガシイバラキグンイバラキマチ","town":"下土師","town_kana":"シモハジ","prefecture_code":8},"3138":{"zip_code":"3113138","prefecture":"茨城県","prefecture_kana":"イバラキケン","city":"東茨城郡茨城町","city_kana":"ヒガシイバラキグンイバラキマチ","town":"城之内","town_kana":"ジョウノウチ","prefecture_code":8},"3105":{"zip_code":"3113105","prefecture":"茨城県","prefecture_kana":"イバラキケン","city":"東茨城郡茨城町","city_kana":"ヒガシイバラキグンイバラキマチ","town":"蕎麦原","town_kana":"ソバハラ","prefecture_code":8},"3108":{"zip_code":"3113108","prefecture":"茨城県","prefecture_kana":"イバラキケン","city":"東茨城郡茨城町","city_kana":"ヒガシイバラキグンイバラキマチ","town":"中央工業団地","town_kana":"チュウオウコウギョウダンチ","prefecture_code":8},"3112":{"zip_code":"3113112","prefecture":"茨城県","prefecture_kana":"イバラキケン","city":"東茨城郡茨城町","city_kana":"ヒガシイバラキグンイバラキマチ","town":"常井","town_kana":"トコイ","prefecture_code":8},"3142":{"zip_code":"3113142","prefecture":"茨城県","prefecture_kana":"イバラキケン","city":"東茨城郡茨城町","city_kana":"ヒガシイバラキグンイバラキマチ","town":"鳥羽田","town_kana":"トリハタ","prefecture_code":8},"3124":{"zip_code":"3113124","prefecture":"茨城県","prefecture_kana":"イバラキケン","city":"東茨城郡茨城町","city_kana":"ヒガシイバラキグンイバラキマチ","town":"中石崎","town_kana":"ナカイシザキ","prefecture_code":8},"3116":{"zip_code":"3113116","prefecture":"茨城県","prefecture_kana":"イバラキケン","city":"東茨城郡茨城町","city_kana":"ヒガシイバラキグンイバラキマチ","town":"長岡","town_kana":"ナガオカ","prefecture_code":8},"3143":{"zip_code":"3113143","prefecture":"茨城県","prefecture_kana":"イバラキケン","city":"東茨城郡茨城町","city_kana":"ヒガシイバラキグンイバラキマチ","town":"生井沢","town_kana":"ナマイザワ","prefecture_code":8},"3103":{"zip_code":"3113103","prefecture":"茨城県","prefecture_kana":"イバラキケン","city":"東茨城郡茨城町","city_kana":"ヒガシイバラキグンイバラキマチ","town":"野曽","town_kana":"ノソ","prefecture_code":8},"3115":{"zip_code":"3113115","prefecture":"茨城県","prefecture_kana":"イバラキケン","city":"東茨城郡茨城町","city_kana":"ヒガシイバラキグンイバラキマチ","town":"前田","town_kana":"マエダ","prefecture_code":8},"3101":{"zip_code":"3113101","prefecture":"茨城県","prefecture_kana":"イバラキケン","city":"東茨城郡茨城町","city_kana":"ヒガシイバラキグンイバラキマチ","town":"南川又","town_kana":"ミナミカワマタ","prefecture_code":8},"3102":{"zip_code":"3113102","prefecture":"茨城県","prefecture_kana":"イバラキケン","city":"東茨城郡茨城町","city_kana":"ヒガシイバラキグンイバラキマチ","town":"南栗崎","town_kana":"ミナミクリザキ","prefecture_code":8},"3133":{"zip_code":"3113133","prefecture":"茨城県","prefecture_kana":"イバラキケン","city":"東茨城郡茨城町","city_kana":"ヒガシイバラキグンイバラキマチ","town":"南島田","town_kana":"ミナミシマダ","prefecture_code":8},"3136":{"zip_code":"3113136","prefecture":"茨城県","prefecture_kana":"イバラキケン","city":"東茨城郡茨城町","city_kana":"ヒガシイバラキグンイバラキマチ","town":"宮ケ崎","town_kana":"ミヤガサキ","prefecture_code":8},"3121":{"zip_code":"3113121","prefecture":"茨城県","prefecture_kana":"イバラキケン","city":"東茨城郡茨城町","city_kana":"ヒガシイバラキグンイバラキマチ","town":"谷田部","town_kana":"ヤタベ","prefecture_code":8},"3123":{"zip_code":"3113123","prefecture":"茨城県","prefecture_kana":"イバラキケン","city":"東茨城郡茨城町","city_kana":"ヒガシイバラキグンイバラキマチ","town":"若宮","town_kana":"ワカミヤ","prefecture_code":8},"1300":{"zip_code":"3111300","prefecture":"茨城県","prefecture_kana":"イバラキケン","city":"東茨城郡大洗町","city_kana":"ヒガシイバラキグンオオアライマチ","town":"","town_kana":"","prefecture_code":8},"1301":{"zip_code":"3111301","prefecture":"茨城県","prefecture_kana":"イバラキケン","city":"東茨城郡大洗町","city_kana":"ヒガシイバラキグンオオアライマチ","town":"磯浜町","town_kana":"イソハマチョウ","prefecture_code":8},"1302":{"zip_code":"3111302","prefecture":"茨城県","prefecture_kana":"イバラキケン","city":"東茨城郡大洗町","city_kana":"ヒガシイバラキグンオオアライマチ","town":"磯道","town_kana":"イソミチ","prefecture_code":8},"1311":{"zip_code":"3111311","prefecture":"茨城県","prefecture_kana":"イバラキケン","city":"東茨城郡大洗町","city_kana":"ヒガシイバラキグンオオアライマチ","town":"大貫町","town_kana":"オオヌキチョウ","prefecture_code":8},"1312":{"zip_code":"3111312","prefecture":"茨城県","prefecture_kana":"イバラキケン","city":"東茨城郡大洗町","city_kana":"ヒガシイバラキグンオオアライマチ","town":"神山町","town_kana":"カミヤマチョウ","prefecture_code":8},"1306":{"zip_code":"3111306","prefecture":"茨城県","prefecture_kana":"イバラキケン","city":"東茨城郡大洗町","city_kana":"ヒガシイバラキグンオオアライマチ","town":"五反田","town_kana":"ゴタンダ","prefecture_code":8},"1307":{"zip_code":"3111307","prefecture":"茨城県","prefecture_kana":"イバラキケン","city":"東茨城郡大洗町","city_kana":"ヒガシイバラキグンオオアライマチ","town":"桜道","town_kana":"サクラミチ","prefecture_code":8},"1303":{"zip_code":"3111303","prefecture":"茨城県","prefecture_kana":"イバラキケン","city":"東茨城郡大洗町","city_kana":"ヒガシイバラキグンオオアライマチ","town":"東光台","town_kana":"トウコウダイ","prefecture_code":8},"1313":{"zip_code":"3111313","prefecture":"茨城県","prefecture_kana":"イバラキケン","city":"東茨城郡大洗町","city_kana":"ヒガシイバラキグンオオアライマチ","town":"成田町","town_kana":"ナリタチョウ","prefecture_code":8},"1305":{"zip_code":"3111305","prefecture":"茨城県","prefecture_kana":"イバラキケン","city":"東茨城郡大洗町","city_kana":"ヒガシイバラキグンオオアライマチ","town":"港中央","town_kana":"ミナトチュウオウ","prefecture_code":8},"1304":{"zip_code":"3111304","prefecture":"茨城県","prefecture_kana":"イバラキケン","city":"東茨城郡大洗町","city_kana":"ヒガシイバラキグンオオアライマチ","town":"和銅","town_kana":"ワドウ","prefecture_code":8},"4300":{"zip_code":"3114300","prefecture":"茨城県","prefecture_kana":"イバラキケン","city":"東茨城郡城里町","city_kana":"ヒガシイバラキグンシロサトマチ","town":"","town_kana":"","prefecture_code":8},"4321":{"zip_code":"3114321","prefecture":"茨城県","prefecture_kana":"イバラキケン","city":"東茨城郡城里町","city_kana":"ヒガシイバラキグンシロサトマチ","town":"粟","town_kana":"アワ","prefecture_code":8},"4344":{"zip_code":"3114344","prefecture":"茨城県","prefecture_kana":"イバラキケン","city":"東茨城郡城里町","city_kana":"ヒガシイバラキグンシロサトマチ","town":"阿波山","town_kana":"アワヤマ","prefecture_code":8},"4303":{"zip_code":"3114303","prefecture":"茨城県","prefecture_kana":"イバラキケン","city":"東茨城郡城里町","city_kana":"ヒガシイバラキグンシロサトマチ","town":"石塚","town_kana":"イシツカ","prefecture_code":8},"4312":{"zip_code":"3114312","prefecture":"茨城県","prefecture_kana":"イバラキケン","city":"東茨城郡城里町","city_kana":"ヒガシイバラキグンシロサトマチ","town":"磯野","town_kana":"イソノ","prefecture_code":8},"4331":{"zip_code":"3114331","prefecture":"茨城県","prefecture_kana":"イバラキケン","city":"東茨城郡城里町","city_kana":"ヒガシイバラキグンシロサトマチ","town":"岩船","town_kana":"イワフネ","prefecture_code":8},"4403":{"zip_code":"3114403","prefecture":"茨城県","prefecture_kana":"イバラキケン","city":"東茨城郡城里町","city_kana":"ヒガシイバラキグンシロサトマチ","town":"大網","town_kana":"オオアミ","prefecture_code":8},"4402":{"zip_code":"3114402","prefecture":"茨城県","prefecture_kana":"イバラキケン","city":"東茨城郡城里町","city_kana":"ヒガシイバラキグンシロサトマチ","town":"小勝","town_kana":"オガチ","prefecture_code":8},"4316":{"zip_code":"3114316","prefecture":"茨城県","prefecture_kana":"イバラキケン","city":"東茨城郡城里町","city_kana":"ヒガシイバラキグンシロサトマチ","town":"小坂","town_kana":"オサカ","prefecture_code":8},"4317":{"zip_code":"3114317","prefecture":"茨城県","prefecture_kana":"イバラキケン","city":"東茨城郡城里町","city_kana":"ヒガシイバラキグンシロサトマチ","town":"勝見沢","town_kana":"カツミザワ","prefecture_code":8},"4305":{"zip_code":"3114305","prefecture":"茨城県","prefecture_kana":"イバラキケン","city":"東茨城郡城里町","city_kana":"ヒガシイバラキグンシロサトマチ","town":"上青山","town_kana":"カミアオヤマ","prefecture_code":8},"4405":{"zip_code":"3114405","prefecture":"茨城県","prefecture_kana":"イバラキケン","city":"東茨城郡城里町","city_kana":"ヒガシイバラキグンシロサトマチ","town":"上赤沢","town_kana":"カミアカサワ","prefecture_code":8},"4323":{"zip_code":"3114323","prefecture":"茨城県","prefecture_kana":"イバラキケン","city":"東茨城郡城里町","city_kana":"ヒガシイバラキグンシロサトマチ","town":"上圷","town_kana":"カミアクツ","prefecture_code":8},"4342":{"zip_code":"3114342","prefecture":"茨城県","prefecture_kana":"イバラキケン","city":"東茨城郡城里町","city_kana":"ヒガシイバラキグンシロサトマチ","town":"上阿野沢","town_kana":"カミアノサワ","prefecture_code":8},"4301":{"zip_code":"3114301","prefecture":"茨城県","prefecture_kana":"イバラキケン","city":"東茨城郡城里町","city_kana":"ヒガシイバラキグンシロサトマチ","town":"上泉","town_kana":"カミイズミ","prefecture_code":8},"4313":{"zip_code":"3114313","prefecture":"茨城県","prefecture_kana":"イバラキケン","city":"東茨城郡城里町","city_kana":"ヒガシイバラキグンシロサトマチ","town":"上入野","town_kana":"カミイリノ","prefecture_code":8},"4315":{"zip_code":"3114315","prefecture":"茨城県","prefecture_kana":"イバラキケン","city":"東茨城郡城里町","city_kana":"ヒガシイバラキグンシロサトマチ","town":"上古内","town_kana":"カミフルウチ","prefecture_code":8},"4325":{"zip_code":"3114325","prefecture":"茨城県","prefecture_kana":"イバラキケン","city":"東茨城郡城里町","city_kana":"ヒガシイバラキグンシロサトマチ","town":"北方","town_kana":"キタカタ","prefecture_code":8},"4341":{"zip_code":"3114341","prefecture":"茨城県","prefecture_kana":"イバラキケン","city":"東茨城郡城里町","city_kana":"ヒガシイバラキグンシロサトマチ","town":"御前山","town_kana":"ゴゼンヤマ","prefecture_code":8},"4404":{"zip_code":"3114404","prefecture":"茨城県","prefecture_kana":"イバラキケン","city":"東茨城郡城里町","city_kana":"ヒガシイバラキグンシロサトマチ","town":"真端","town_kana":"サナバタ","prefecture_code":8},"4401":{"zip_code":"3114401","prefecture":"茨城県","prefecture_kana":"イバラキケン","city":"東茨城郡城里町","city_kana":"ヒガシイバラキグンシロサトマチ","town":"塩子","town_kana":"シオゴ","prefecture_code":8},"4304":{"zip_code":"3114304","prefecture":"茨城県","prefecture_kana":"イバラキケン","city":"東茨城郡城里町","city_kana":"ヒガシイバラキグンシロサトマチ","town":"下青山","town_kana":"シモアオヤマ","prefecture_code":8},"4406":{"zip_code":"3114406","prefecture":"茨城県","prefecture_kana":"イバラキケン","city":"東茨城郡城里町","city_kana":"ヒガシイバラキグンシロサトマチ","town":"下赤沢","town_kana":"シモアカサワ","prefecture_code":8},"4322":{"zip_code":"3114322","prefecture":"茨城県","prefecture_kana":"イバラキケン","city":"東茨城郡城里町","city_kana":"ヒガシイバラキグンシロサトマチ","town":"下圷","town_kana":"シモアクツ","prefecture_code":8},"4343":{"zip_code":"3114343","prefecture":"茨城県","prefecture_kana":"イバラキケン","city":"東茨城郡城里町","city_kana":"ヒガシイバラキグンシロサトマチ","town":"下阿野沢","town_kana":"シモアノサワ","prefecture_code":8},"4314":{"zip_code":"3114314","prefecture":"茨城県","prefecture_kana":"イバラキケン","city":"東茨城郡城里町","city_kana":"ヒガシイバラキグンシロサトマチ","town":"下古内","town_kana":"シモフルウチ","prefecture_code":8},"4335":{"zip_code":"3114335","prefecture":"茨城県","prefecture_kana":"イバラキケン","city":"東茨城郡城里町","city_kana":"ヒガシイバラキグンシロサトマチ","town":"錫高野","town_kana":"スズコウヤ","prefecture_code":8},"4324":{"zip_code":"3114324","prefecture":"茨城県","prefecture_kana":"イバラキケン","city":"東茨城郡城里町","city_kana":"ヒガシイバラキグンシロサトマチ","town":"高久","town_kana":"タカク","prefecture_code":8},"4333":{"zip_code":"3114333","prefecture":"茨城県","prefecture_kana":"イバラキケン","city":"東茨城郡城里町","city_kana":"ヒガシイバラキグンシロサトマチ","town":"高根","town_kana":"タカネ","prefecture_code":8},"4332":{"zip_code":"3114332","prefecture":"茨城県","prefecture_kana":"イバラキケン","city":"東茨城郡城里町","city_kana":"ヒガシイバラキグンシロサトマチ","town":"高根台","town_kana":"タカネダイ","prefecture_code":8},"4407":{"zip_code":"3114407","prefecture":"茨城県","prefecture_kana":"イバラキケン","city":"東茨城郡城里町","city_kana":"ヒガシイバラキグンシロサトマチ","town":"徳蔵","town_kana":"トクラ","prefecture_code":8},"4302":{"zip_code":"3114302","prefecture":"茨城県","prefecture_kana":"イバラキケン","city":"東茨城郡城里町","city_kana":"ヒガシイバラキグンシロサトマチ","town":"那珂西","town_kana":"ナカサイ","prefecture_code":8},"4306":{"zip_code":"3114306","prefecture":"茨城県","prefecture_kana":"イバラキケン","city":"東茨城郡城里町","city_kana":"ヒガシイバラキグンシロサトマチ","town":"春園","town_kana":"ハルソノ","prefecture_code":8},"4334":{"zip_code":"3114334","prefecture":"茨城県","prefecture_kana":"イバラキケン","city":"東茨城郡城里町","city_kana":"ヒガシイバラキグンシロサトマチ","town":"孫根","town_kana":"マゴネ","prefecture_code":8},"4311":{"zip_code":"3114311","prefecture":"茨城県","prefecture_kana":"イバラキケン","city":"東茨城郡城里町","city_kana":"ヒガシイバラキグンシロサトマチ","town":"増井","town_kana":"マシイ","prefecture_code":8},"4411":[{"zip_code":"3114411","prefecture":"栃木県","prefecture_kana":"トチギケン","city":"芳賀郡茂木町","city_kana":"ハガグンモテギマチ","town":"桧山","town_kana":"ヒヤマ","prefecture_code":9},{"zip_code":"3114411","prefecture":"栃木県","prefecture_kana":"トチギケン","city":"芳賀郡茂木町","city_kana":"ハガグンモテギマチ","town":"桧山道木橋","town_kana":"ヒヤマドウギバシ","prefecture_code":9}]}