{"0000":{"zip_code":"3130000","prefecture":"茨城県","prefecture_kana":"イバラキケン","city":"常陸太田市","city_kana":"ヒタチオオタシ","town":"","town_kana":"","prefecture_code":8},"0102":{"zip_code":"3130102","prefecture":"茨城県","prefecture_kana":"イバラキケン","city":"常陸太田市","city_kana":"ヒタチオオタシ","town":"赤土町","town_kana":"アカヅチチョウ","prefecture_code":8},"0121":{"zip_code":"3130121","prefecture":"茨城県","prefecture_kana":"イバラキケン","city":"常陸太田市","city_kana":"ヒタチオオタシ","town":"芦間町","town_kana":"アシマチョウ","prefecture_code":8},"0132":{"zip_code":"3130132","prefecture":"茨城県","prefecture_kana":"イバラキケン","city":"常陸太田市","city_kana":"ヒタチオオタシ","town":"新地町","town_kana":"アラジチョウ","prefecture_code":8},"0007":{"zip_code":"3130007","prefecture":"茨城県","prefecture_kana":"イバラキケン","city":"常陸太田市","city_kana":"ヒタチオオタシ","town":"新宿町","town_kana":"アラジュクチョウ","prefecture_code":8},"0045":{"zip_code":"3130045","prefecture":"茨城県","prefecture_kana":"イバラキケン","city":"常陸太田市","city_kana":"ヒタチオオタシ","town":"粟原町","town_kana":"アワバラチョウ","prefecture_code":8},"0042":{"zip_code":"3130042","prefecture":"茨城県","prefecture_kana":"イバラキケン","city":"常陸太田市","city_kana":"ヒタチオオタシ","town":"磯部町","town_kana":"イソベチョウ","prefecture_code":8},"0041":{"zip_code":"3130041","prefecture":"茨城県","prefecture_kana":"イバラキケン","city":"常陸太田市","city_kana":"ヒタチオオタシ","town":"稲木町","town_kana":"イナギチョウ","prefecture_code":8},"0112":{"zip_code":"3130112","prefecture":"茨城県","prefecture_kana":"イバラキケン","city":"常陸太田市","city_kana":"ヒタチオオタシ","town":"岩手町","town_kana":"イワテチョウ","prefecture_code":8},"0037":{"zip_code":"3130037","prefecture":"茨城県","prefecture_kana":"イバラキケン","city":"常陸太田市","city_kana":"ヒタチオオタシ","town":"内田町","town_kana":"ウチダチョウ","prefecture_code":8},"0063":{"zip_code":"3130063","prefecture":"茨城県","prefecture_kana":"イバラキケン","city":"常陸太田市","city_kana":"ヒタチオオタシ","town":"内堀町","town_kana":"ウチボリチョウ","prefecture_code":8},"0116":{"zip_code":"3130116","prefecture":"茨城県","prefecture_kana":"イバラキケン","city":"常陸太田市","city_kana":"ヒタチオオタシ","town":"大方町","town_kana":"オオカタチョウ","prefecture_code":8},"0125":{"zip_code":"3130125","prefecture":"茨城県","prefecture_kana":"イバラキケン","city":"常陸太田市","city_kana":"ヒタチオオタシ","town":"大里町","town_kana":"オオサトチョウ","prefecture_code":8},"0124":{"zip_code":"3130124","prefecture":"茨城県","prefecture_kana":"イバラキケン","city":"常陸太田市","city_kana":"ヒタチオオタシ","town":"大平町","town_kana":"オオダイラチョウ","prefecture_code":8},"0021":{"zip_code":"3130021","prefecture":"茨城県","prefecture_kana":"イバラキケン","city":"常陸太田市","city_kana":"ヒタチオオタシ","town":"大森町","town_kana":"オオモリチョウ","prefecture_code":8},"0031":{"zip_code":"3130031","prefecture":"茨城県","prefecture_kana":"イバラキケン","city":"常陸太田市","city_kana":"ヒタチオオタシ","town":"岡田町","town_kana":"オカダチョウ","prefecture_code":8},"0038":{"zip_code":"3130038","prefecture":"茨城県","prefecture_kana":"イバラキケン","city":"常陸太田市","city_kana":"ヒタチオオタシ","town":"小沢町","town_kana":"オザワチョウ","prefecture_code":8},"0135":{"zip_code":"3130135","prefecture":"茨城県","prefecture_kana":"イバラキケン","city":"常陸太田市","city_kana":"ヒタチオオタシ","town":"小島町","town_kana":"オジマチョウ","prefecture_code":8},"0036":{"zip_code":"3130036","prefecture":"茨城県","prefecture_kana":"イバラキケン","city":"常陸太田市","city_kana":"ヒタチオオタシ","town":"落合町","town_kana":"オチアイチョウ","prefecture_code":8},"0033":{"zip_code":"3130033","prefecture":"茨城県","prefecture_kana":"イバラキケン","city":"常陸太田市","city_kana":"ヒタチオオタシ","town":"小目町","town_kana":"オメチョウ","prefecture_code":8},"0035":{"zip_code":"3130035","prefecture":"茨城県","prefecture_kana":"イバラキケン","city":"常陸太田市","city_kana":"ヒタチオオタシ","town":"堅磐町","town_kana":"カキワチョウ","prefecture_code":8},"0016":{"zip_code":"3130016","prefecture":"茨城県","prefecture_kana":"イバラキケン","city":"常陸太田市","city_kana":"ヒタチオオタシ","town":"金井町","town_kana":"カナイチョウ","prefecture_code":8},"0001":{"zip_code":"3130001","prefecture":"茨城県","prefecture_kana":"イバラキケン","city":"常陸太田市","city_kana":"ヒタチオオタシ","town":"上大門町","town_kana":"カミオオカドチョウ","prefecture_code":8},"0046":{"zip_code":"3130046","prefecture":"茨城県","prefecture_kana":"イバラキケン","city":"常陸太田市","city_kana":"ヒタチオオタシ","town":"上河合町","town_kana":"カミカワイチョウ","prefecture_code":8},"0353":{"zip_code":"3130353","prefecture":"茨城県","prefecture_kana":"イバラキケン","city":"常陸太田市","city_kana":"ヒタチオオタシ","town":"上高倉町","town_kana":"カミタカクラチョウ","prefecture_code":8},"0034":{"zip_code":"3130034","prefecture":"茨城県","prefecture_kana":"イバラキケン","city":"常陸太田市","city_kana":"ヒタチオオタシ","town":"上土木内町","town_kana":"カミドギウチチョウ","prefecture_code":8},"0104":{"zip_code":"3130104","prefecture":"茨城県","prefecture_kana":"イバラキケン","city":"常陸太田市","city_kana":"ヒタチオオタシ","town":"上利員町","town_kana":"カミトシカズチョウ","prefecture_code":8},"0101":{"zip_code":"3130101","prefecture":"茨城県","prefecture_kana":"イバラキケン","city":"常陸太田市","city_kana":"ヒタチオオタシ","town":"上宮河内町","town_kana":"カミミヤカワウチチョウ","prefecture_code":8},"0023":{"zip_code":"3130023","prefecture":"茨城県","prefecture_kana":"イバラキケン","city":"常陸太田市","city_kana":"ヒタチオオタシ","town":"亀作町","town_kana":"カメザクチョウ","prefecture_code":8},"0015":{"zip_code":"3130015","prefecture":"茨城県","prefecture_kana":"イバラキケン","city":"常陸太田市","city_kana":"ヒタチオオタシ","town":"木崎一町","town_kana":"キザキイチチョウ","prefecture_code":8},"0014":{"zip_code":"3130014","prefecture":"茨城県","prefecture_kana":"イバラキケン","city":"常陸太田市","city_kana":"ヒタチオオタシ","town":"木崎二町","town_kana":"キザキニチョウ","prefecture_code":8},"0126":{"zip_code":"3130126","prefecture":"茨城県","prefecture_kana":"イバラキケン","city":"常陸太田市","city_kana":"ヒタチオオタシ","town":"薬谷町","town_kana":"クスリヤチョウ","prefecture_code":8},"0221":{"zip_code":"3130221","prefecture":"茨城県","prefecture_kana":"イバラキケン","city":"常陸太田市","city_kana":"ヒタチオオタシ","town":"国安町","town_kana":"クニヤスチョウ","prefecture_code":8},"0123":{"zip_code":"3130123","prefecture":"茨城県","prefecture_kana":"イバラキケン","city":"常陸太田市","city_kana":"ヒタチオオタシ","town":"久米町","town_kana":"クメチョウ","prefecture_code":8},"0351":{"zip_code":"3130351","prefecture":"茨城県","prefecture_kana":"イバラキケン","city":"常陸太田市","city_kana":"ヒタチオオタシ","town":"天下野町","town_kana":"ケガノチョウ","prefecture_code":8},"0064":{"zip_code":"3130064","prefecture":"茨城県","prefecture_kana":"イバラキケン","city":"常陸太田市","city_kana":"ヒタチオオタシ","town":"寿町","town_kana":"コトブキチョウ","prefecture_code":8},"0005":{"zip_code":"3130005","prefecture":"茨城県","prefecture_kana":"イバラキケン","city":"常陸太田市","city_kana":"ヒタチオオタシ","town":"栄町","town_kana":"サカエチョウ","prefecture_code":8},"0032":{"zip_code":"3130032","prefecture":"茨城県","prefecture_kana":"イバラキケン","city":"常陸太田市","city_kana":"ヒタチオオタシ","town":"沢目町","town_kana":"サワメチョウ","prefecture_code":8},"0012":{"zip_code":"3130012","prefecture":"茨城県","prefecture_kana":"イバラキケン","city":"常陸太田市","city_kana":"ヒタチオオタシ","town":"三才町","town_kana":"サンザイチョウ","prefecture_code":8},"0047":{"zip_code":"3130047","prefecture":"茨城県","prefecture_kana":"イバラキケン","city":"常陸太田市","city_kana":"ヒタチオオタシ","town":"島町","town_kana":"シマチョウ","prefecture_code":8},"0002":{"zip_code":"3130002","prefecture":"茨城県","prefecture_kana":"イバラキケン","city":"常陸太田市","city_kana":"ヒタチオオタシ","town":"下大門町","town_kana":"シモオオカドチョウ","prefecture_code":8},"0044":{"zip_code":"3130044","prefecture":"茨城県","prefecture_kana":"イバラキケン","city":"常陸太田市","city_kana":"ヒタチオオタシ","town":"下河合町","town_kana":"シモカワイチョウ","prefecture_code":8},"0352":{"zip_code":"3130352","prefecture":"茨城県","prefecture_kana":"イバラキケン","city":"常陸太田市","city_kana":"ヒタチオオタシ","town":"下高倉町","town_kana":"シモタカクラチョウ","prefecture_code":8},"0106":{"zip_code":"3130106","prefecture":"茨城県","prefecture_kana":"イバラキケン","city":"常陸太田市","city_kana":"ヒタチオオタシ","town":"下利員町","town_kana":"シモトシカズチョウ","prefecture_code":8},"0103":{"zip_code":"3130103","prefecture":"茨城県","prefecture_kana":"イバラキケン","city":"常陸太田市","city_kana":"ヒタチオオタシ","town":"下宮河内町","town_kana":"シモミヤカワウチチョウ","prefecture_code":8},"0003":{"zip_code":"3130003","prefecture":"茨城県","prefecture_kana":"イバラキケン","city":"常陸太田市","city_kana":"ヒタチオオタシ","town":"瑞龍町","town_kana":"ズイリュウチョウ","prefecture_code":8},"0111":{"zip_code":"3130111","prefecture":"茨城県","prefecture_kana":"イバラキケン","city":"常陸太田市","city_kana":"ヒタチオオタシ","town":"千寿町","town_kana":"センズチョウ","prefecture_code":8},"0113":{"zip_code":"3130113","prefecture":"茨城県","prefecture_kana":"イバラキケン","city":"常陸太田市","city_kana":"ヒタチオオタシ","town":"高柿町","town_kana":"タカガキチョウ","prefecture_code":8},"0024":{"zip_code":"3130024","prefecture":"茨城県","prefecture_kana":"イバラキケン","city":"常陸太田市","city_kana":"ヒタチオオタシ","town":"高貫町","town_kana":"タカヌキチョウ","prefecture_code":8},"0115":{"zip_code":"3130115","prefecture":"茨城県","prefecture_kana":"イバラキケン","city":"常陸太田市","city_kana":"ヒタチオオタシ","town":"竹合町","town_kana":"タケアイチョウ","prefecture_code":8},"0225":{"zip_code":"3130225","prefecture":"茨城県","prefecture_kana":"イバラキケン","city":"常陸太田市","city_kana":"ヒタチオオタシ","town":"棚谷町","town_kana":"タナヤチョウ","prefecture_code":8},"0122":{"zip_code":"3130122","prefecture":"茨城県","prefecture_kana":"イバラキケン","city":"常陸太田市","city_kana":"ヒタチオオタシ","town":"玉造町","town_kana":"タマツクリチョウ","prefecture_code":8},"0026":{"zip_code":"3130026","prefecture":"茨城県","prefecture_kana":"イバラキケン","city":"常陸太田市","city_kana":"ヒタチオオタシ","town":"田渡町","town_kana":"タワタリチョウ","prefecture_code":8},"0049":{"zip_code":"3130049","prefecture":"茨城県","prefecture_kana":"イバラキケン","city":"常陸太田市","city_kana":"ヒタチオオタシ","town":"天神林町","town_kana":"テンジンバヤシチョウ","prefecture_code":8},"0224":{"zip_code":"3130224","prefecture":"茨城県","prefecture_kana":"イバラキケン","city":"常陸太田市","city_kana":"ヒタチオオタシ","town":"東連地町","town_kana":"トウレンジチョウ","prefecture_code":8},"0061":{"zip_code":"3130061","prefecture":"茨城県","prefecture_kana":"イバラキケン","city":"常陸太田市","city_kana":"ヒタチオオタシ","town":"中城町","town_kana":"ナカジョウチョウ","prefecture_code":8},"0212":{"zip_code":"3130212","prefecture":"茨城県","prefecture_kana":"イバラキケン","city":"常陸太田市","city_kana":"ヒタチオオタシ","town":"中染町","town_kana":"ナカゾメチョウ","prefecture_code":8},"0105":{"zip_code":"3130105","prefecture":"茨城県","prefecture_kana":"イバラキケン","city":"常陸太田市","city_kana":"ヒタチオオタシ","town":"中利員町","town_kana":"ナカトシカズチョウ","prefecture_code":8},"0134":{"zip_code":"3130134","prefecture":"茨城県","prefecture_kana":"イバラキケン","city":"常陸太田市","city_kana":"ヒタチオオタシ","town":"中野町","town_kana":"ナカノチョウ","prefecture_code":8},"0056":{"zip_code":"3130056","prefecture":"茨城県","prefecture_kana":"イバラキケン","city":"常陸太田市","city_kana":"ヒタチオオタシ","town":"西一町","town_kana":"ニシイチチョウ","prefecture_code":8},"0055":{"zip_code":"3130055","prefecture":"茨城県","prefecture_kana":"イバラキケン","city":"常陸太田市","city_kana":"ヒタチオオタシ","town":"西二町","town_kana":"ニシニチョウ","prefecture_code":8},"0054":{"zip_code":"3130054","prefecture":"茨城県","prefecture_kana":"イバラキケン","city":"常陸太田市","city_kana":"ヒタチオオタシ","town":"西三町","town_kana":"ニシサンチョウ","prefecture_code":8},"0215":{"zip_code":"3130215","prefecture":"茨城県","prefecture_kana":"イバラキケン","city":"常陸太田市","city_kana":"ヒタチオオタシ","town":"西染町","town_kana":"ニシゾメチョウ","prefecture_code":8},"0011":{"zip_code":"3130011","prefecture":"茨城県","prefecture_kana":"イバラキケン","city":"常陸太田市","city_kana":"ヒタチオオタシ","town":"西宮町","town_kana":"ニシミヤチョウ","prefecture_code":8},"0027":{"zip_code":"3130027","prefecture":"茨城県","prefecture_kana":"イバラキケン","city":"常陸太田市","city_kana":"ヒタチオオタシ","town":"長谷町","town_kana":"ハセチョウ","prefecture_code":8},"0025":{"zip_code":"3130025","prefecture":"茨城県","prefecture_kana":"イバラキケン","city":"常陸太田市","city_kana":"ヒタチオオタシ","town":"幡町","town_kana":"ハタチョウ","prefecture_code":8},"0131":{"zip_code":"3130131","prefecture":"茨城県","prefecture_kana":"イバラキケン","city":"常陸太田市","city_kana":"ヒタチオオタシ","town":"花房町","town_kana":"ハナブサチョウ","prefecture_code":8},"0062":{"zip_code":"3130062","prefecture":"茨城県","prefecture_kana":"イバラキケン","city":"常陸太田市","city_kana":"ヒタチオオタシ","town":"塙町","town_kana":"ハナワチョウ","prefecture_code":8},"0004":{"zip_code":"3130004","prefecture":"茨城県","prefecture_kana":"イバラキケン","city":"常陸太田市","city_kana":"ヒタチオオタシ","town":"馬場町","town_kana":"ババチョウ","prefecture_code":8},"0051":{"zip_code":"3130051","prefecture":"茨城県","prefecture_kana":"イバラキケン","city":"常陸太田市","city_kana":"ヒタチオオタシ","town":"東一町","town_kana":"ヒガシイチチョウ","prefecture_code":8},"0052":{"zip_code":"3130052","prefecture":"茨城県","prefecture_kana":"イバラキケン","city":"常陸太田市","city_kana":"ヒタチオオタシ","town":"東二町","town_kana":"ヒガシニチョウ","prefecture_code":8},"0053":{"zip_code":"3130053","prefecture":"茨城県","prefecture_kana":"イバラキケン","city":"常陸太田市","city_kana":"ヒタチオオタシ","town":"東三町","town_kana":"ヒガシサンチョウ","prefecture_code":8},"0211":{"zip_code":"3130211","prefecture":"茨城県","prefecture_kana":"イバラキケン","city":"常陸太田市","city_kana":"ヒタチオオタシ","town":"東染町","town_kana":"ヒガシゾメチョウ","prefecture_code":8},"0048":{"zip_code":"3130048","prefecture":"茨城県","prefecture_kana":"イバラキケン","city":"常陸太田市","city_kana":"ヒタチオオタシ","town":"藤田町","town_kana":"フジタチョウ","prefecture_code":8},"0008":{"zip_code":"3130008","prefecture":"茨城県","prefecture_kana":"イバラキケン","city":"常陸太田市","city_kana":"ヒタチオオタシ","town":"増井町","town_kana":"マシイチョウ","prefecture_code":8},"0213":{"zip_code":"3130213","prefecture":"茨城県","prefecture_kana":"イバラキケン","city":"常陸太田市","city_kana":"ヒタチオオタシ","town":"町田町","town_kana":"マチダチョウ","prefecture_code":8},"0133":{"zip_code":"3130133","prefecture":"茨城県","prefecture_kana":"イバラキケン","city":"常陸太田市","city_kana":"ヒタチオオタシ","town":"松栄町","town_kana":"マツザカチョウ","prefecture_code":8},"0222":{"zip_code":"3130222","prefecture":"茨城県","prefecture_kana":"イバラキケン","city":"常陸太田市","city_kana":"ヒタチオオタシ","town":"松平町","town_kana":"マツダイラチョウ","prefecture_code":8},"0022":{"zip_code":"3130022","prefecture":"茨城県","prefecture_kana":"イバラキケン","city":"常陸太田市","city_kana":"ヒタチオオタシ","town":"真弓町","town_kana":"マユミチョウ","prefecture_code":8},"0114":{"zip_code":"3130114","prefecture":"茨城県","prefecture_kana":"イバラキケン","city":"常陸太田市","city_kana":"ヒタチオオタシ","town":"箕町","town_kana":"ミチョウ","prefecture_code":8},"0117":{"zip_code":"3130117","prefecture":"茨城県","prefecture_kana":"イバラキケン","city":"常陸太田市","city_kana":"ヒタチオオタシ","town":"宮の郷町","town_kana":"ミヤノサトチョウ","prefecture_code":8},"0006":{"zip_code":"3130006","prefecture":"茨城県","prefecture_kana":"イバラキケン","city":"常陸太田市","city_kana":"ヒタチオオタシ","town":"宮本町","town_kana":"ミヤモトチョウ","prefecture_code":8},"0043":{"zip_code":"3130043","prefecture":"茨城県","prefecture_kana":"イバラキケン","city":"常陸太田市","city_kana":"ヒタチオオタシ","town":"谷河原町","town_kana":"ヤガワラチョウ","prefecture_code":8},"0013":{"zip_code":"3130013","prefecture":"茨城県","prefecture_kana":"イバラキケン","city":"常陸太田市","city_kana":"ヒタチオオタシ","town":"山下町","town_kana":"ヤマシタチョウ","prefecture_code":8},"0214":{"zip_code":"3130214","prefecture":"茨城県","prefecture_kana":"イバラキケン","city":"常陸太田市","city_kana":"ヒタチオオタシ","town":"和久町","town_kana":"ワグチョウ","prefecture_code":8},"0223":{"zip_code":"3130223","prefecture":"茨城県","prefecture_kana":"イバラキケン","city":"常陸太田市","city_kana":"ヒタチオオタシ","town":"和田町","town_kana":"ワダチョウ","prefecture_code":8}}