{"0000":{"zip_code":"3140000","prefecture":"茨城県","prefecture_kana":"イバラキケン","city":"鹿嶋市","city_kana":"カシマシ","town":"","town_kana":"","prefecture_code":8},"0021":{"zip_code":"3140021","prefecture":"茨城県","prefecture_kana":"イバラキケン","city":"鹿嶋市","city_kana":"カシマシ","town":"粟生","town_kana":"アオウ","prefecture_code":8},"0002":{"zip_code":"3140002","prefecture":"茨城県","prefecture_kana":"イバラキケン","city":"鹿嶋市","city_kana":"カシマシ","town":"明石","town_kana":"アカシ","prefecture_code":8},"0017":{"zip_code":"3140017","prefecture":"茨城県","prefecture_kana":"イバラキケン","city":"鹿嶋市","city_kana":"カシマシ","town":"旭ケ丘","town_kana":"アサヒガオカ","prefecture_code":8},"0015":{"zip_code":"3140015","prefecture":"茨城県","prefecture_kana":"イバラキケン","city":"鹿嶋市","city_kana":"カシマシ","town":"泉川","town_kana":"イズミガワ","prefecture_code":8},"0036":{"zip_code":"3140036","prefecture":"茨城県","prefecture_kana":"イバラキケン","city":"鹿嶋市","city_kana":"カシマシ","town":"大船津","town_kana":"オオフナツ","prefecture_code":8},"0004":{"zip_code":"3140004","prefecture":"茨城県","prefecture_kana":"イバラキケン","city":"鹿嶋市","city_kana":"カシマシ","town":"下津","town_kana":"オリツ","prefecture_code":8},"0037":{"zip_code":"3140037","prefecture":"茨城県","prefecture_kana":"イバラキケン","city":"鹿嶋市","city_kana":"カシマシ","town":"神野","town_kana":"カノ","prefecture_code":8},"0028":{"zip_code":"3140028","prefecture":"茨城県","prefecture_kana":"イバラキケン","city":"鹿嶋市","city_kana":"カシマシ","town":"木滝","town_kana":"キタキ","prefecture_code":8},"0026":{"zip_code":"3140026","prefecture":"茨城県","prefecture_kana":"イバラキケン","city":"鹿嶋市","city_kana":"カシマシ","town":"木滝佐田谷原入会","town_kana":"キタキサダヤワライリアイ","prefecture_code":8},"0031":{"zip_code":"3140031","prefecture":"茨城県","prefecture_kana":"イバラキケン","city":"鹿嶋市","city_kana":"カシマシ","town":"宮中","town_kana":"キュウチュウ","prefecture_code":8},"0016":{"zip_code":"3140016","prefecture":"茨城県","prefecture_kana":"イバラキケン","city":"鹿嶋市","city_kana":"カシマシ","town":"国末","town_kana":"クニスエ","prefecture_code":8},"0030":{"zip_code":"3140030","prefecture":"茨城県","prefecture_kana":"イバラキケン","city":"鹿嶋市","city_kana":"カシマシ","town":"厨","town_kana":"クリヤ","prefecture_code":8},"0003":{"zip_code":"3140003","prefecture":"茨城県","prefecture_kana":"イバラキケン","city":"鹿嶋市","city_kana":"カシマシ","town":"小宮作","town_kana":"コミヤサク","prefecture_code":8},"0027":{"zip_code":"3140027","prefecture":"茨城県","prefecture_kana":"イバラキケン","city":"鹿嶋市","city_kana":"カシマシ","town":"佐田","town_kana":"サダ","prefecture_code":8},"0044":{"zip_code":"3140044","prefecture":"茨城県","prefecture_kana":"イバラキケン","city":"鹿嶋市","city_kana":"カシマシ","town":"猿田","town_kana":"サルタ","prefecture_code":8},"0001":{"zip_code":"3140001","prefecture":"茨城県","prefecture_kana":"イバラキケン","city":"鹿嶋市","city_kana":"カシマシ","town":"清水","town_kana":"シミズ","prefecture_code":8},"0025":{"zip_code":"3140025","prefecture":"茨城県","prefecture_kana":"イバラキケン","city":"鹿嶋市","city_kana":"カシマシ","town":"下塙","town_kana":"シモハナワ","prefecture_code":8},"0038":{"zip_code":"3140038","prefecture":"茨城県","prefecture_kana":"イバラキケン","city":"鹿嶋市","city_kana":"カシマシ","town":"城山","town_kana":"シロヤマ","prefecture_code":8},"0007":{"zip_code":"3140007","prefecture":"茨城県","prefecture_kana":"イバラキケン","city":"鹿嶋市","city_kana":"カシマシ","town":"神向寺","town_kana":"ジンコウジ","prefecture_code":8},"0013":{"zip_code":"3140013","prefecture":"茨城県","prefecture_kana":"イバラキケン","city":"鹿嶋市","city_kana":"カシマシ","town":"新浜","town_kana":"シンハマ","prefecture_code":8},"0047":{"zip_code":"3140047","prefecture":"茨城県","prefecture_kana":"イバラキケン","city":"鹿嶋市","city_kana":"カシマシ","town":"須賀","town_kana":"スカ","prefecture_code":8},"0005":{"zip_code":"3140005","prefecture":"茨城県","prefecture_kana":"イバラキケン","city":"鹿嶋市","city_kana":"カシマシ","town":"高天原","town_kana":"タカマガハラ","prefecture_code":8},"0042":{"zip_code":"3140042","prefecture":"茨城県","prefecture_kana":"イバラキケン","city":"鹿嶋市","city_kana":"カシマシ","town":"田野辺","town_kana":"タノベ","prefecture_code":8},"0043":{"zip_code":"3140043","prefecture":"茨城県","prefecture_kana":"イバラキケン","city":"鹿嶋市","city_kana":"カシマシ","town":"田谷","town_kana":"タヤ","prefecture_code":8},"0048":{"zip_code":"3140048","prefecture":"茨城県","prefecture_kana":"イバラキケン","city":"鹿嶋市","city_kana":"カシマシ","town":"田谷沼","town_kana":"タヤヌマ","prefecture_code":8},"0046":{"zip_code":"3140046","prefecture":"茨城県","prefecture_kana":"イバラキケン","city":"鹿嶋市","city_kana":"カシマシ","town":"爪木","town_kana":"ツマギ","prefecture_code":8},"0022":{"zip_code":"3140022","prefecture":"茨城県","prefecture_kana":"イバラキケン","city":"鹿嶋市","city_kana":"カシマシ","town":"長栖","town_kana":"ナガス","prefecture_code":8},"0041":{"zip_code":"3140041","prefecture":"茨城県","prefecture_kana":"イバラキケン","city":"鹿嶋市","city_kana":"カシマシ","town":"沼尾","town_kana":"ヌマオ","prefecture_code":8},"0035":{"zip_code":"3140035","prefecture":"茨城県","prefecture_kana":"イバラキケン","city":"鹿嶋市","city_kana":"カシマシ","town":"根三田","town_kana":"ネサンダ","prefecture_code":8},"0034":{"zip_code":"3140034","prefecture":"茨城県","prefecture_kana":"イバラキケン","city":"鹿嶋市","city_kana":"カシマシ","town":"鉢形","town_kana":"ハチガタ","prefecture_code":8},"0033":{"zip_code":"3140033","prefecture":"茨城県","prefecture_kana":"イバラキケン","city":"鹿嶋市","city_kana":"カシマシ","town":"鉢形台","town_kana":"ハチガタダイ","prefecture_code":8},"0014":{"zip_code":"3140014","prefecture":"茨城県","prefecture_kana":"イバラキケン","city":"鹿嶋市","city_kana":"カシマシ","town":"光","town_kana":"ヒカリ","prefecture_code":8},"0012":{"zip_code":"3140012","prefecture":"茨城県","prefecture_kana":"イバラキケン","city":"鹿嶋市","city_kana":"カシマシ","town":"平井","town_kana":"ヒライ","prefecture_code":8},"0039":{"zip_code":"3140039","prefecture":"茨城県","prefecture_kana":"イバラキケン","city":"鹿嶋市","city_kana":"カシマシ","town":"緑ヶ丘","town_kana":"ミドリガオカ","prefecture_code":8},"0011":{"zip_code":"3140011","prefecture":"茨城県","prefecture_kana":"イバラキケン","city":"鹿嶋市","city_kana":"カシマシ","town":"港ケ丘","town_kana":"ミナトガオカ","prefecture_code":8},"0032":{"zip_code":"3140032","prefecture":"茨城県","prefecture_kana":"イバラキケン","city":"鹿嶋市","city_kana":"カシマシ","town":"宮下","town_kana":"ミヤシタ","prefecture_code":8},"0006":{"zip_code":"3140006","prefecture":"茨城県","prefecture_kana":"イバラキケン","city":"鹿嶋市","city_kana":"カシマシ","town":"宮津台","town_kana":"ミヤツダイ","prefecture_code":8},"0045":{"zip_code":"3140045","prefecture":"茨城県","prefecture_kana":"イバラキケン","city":"鹿嶋市","city_kana":"カシマシ","town":"山之上","town_kana":"ヤマノウエ","prefecture_code":8},"0023":{"zip_code":"3140023","prefecture":"茨城県","prefecture_kana":"イバラキケン","city":"鹿嶋市","city_kana":"カシマシ","town":"谷原","town_kana":"ヤワラ","prefecture_code":8},"0024":{"zip_code":"3140024","prefecture":"茨城県","prefecture_kana":"イバラキケン","city":"鹿嶋市","city_kana":"カシマシ","town":"鰐川","town_kana":"ワニガワ","prefecture_code":8},"0100":{"zip_code":"3140100","prefecture":"茨城県","prefecture_kana":"イバラキケン","city":"神栖市","city_kana":"カミスシ","town":"","town_kana":"","prefecture_code":8},"0133":{"zip_code":"3140133","prefecture":"茨城県","prefecture_kana":"イバラキケン","city":"神栖市","city_kana":"カミスシ","town":"息栖","town_kana":"イキス","prefecture_code":8},"0052":{"zip_code":"3140052","prefecture":"茨城県","prefecture_kana":"イバラキケン","city":"神栖市","city_kana":"カミスシ","town":"居切","town_kana":"イギリ","prefecture_code":8},"0141":{"zip_code":"3140141","prefecture":"茨城県","prefecture_kana":"イバラキケン","city":"神栖市","city_kana":"カミスシ","town":"居切","town_kana":"イギリ","prefecture_code":8},"0124":{"zip_code":"3140124","prefecture":"茨城県","prefecture_kana":"イバラキケン","city":"神栖市","city_kana":"カミスシ","town":"石神","town_kana":"イシガミ","prefecture_code":8},"0254":{"zip_code":"3140254","prefecture":"茨城県","prefecture_kana":"イバラキケン","city":"神栖市","city_kana":"カミスシ","town":"太田","town_kana":"オオタ","prefecture_code":8},"0257":{"zip_code":"3140257","prefecture":"茨城県","prefecture_kana":"イバラキケン","city":"神栖市","city_kana":"カミスシ","town":"太田新町","town_kana":"オオタシンマチ","prefecture_code":8},"0144":{"zip_code":"3140144","prefecture":"茨城県","prefecture_kana":"イバラキケン","city":"神栖市","city_kana":"カミスシ","town":"大野原","town_kana":"オオノハラ","prefecture_code":8},"0128":{"zip_code":"3140128","prefecture":"茨城県","prefecture_kana":"イバラキケン","city":"神栖市","city_kana":"カミスシ","town":"大野原中央","town_kana":"オオノハラチュウオウ","prefecture_code":8},"0116":{"zip_code":"3140116","prefecture":"茨城県","prefecture_kana":"イバラキケン","city":"神栖市","city_kana":"カミスシ","town":"奥野谷","town_kana":"オクノヤ","prefecture_code":8},"0134":{"zip_code":"3140134","prefecture":"茨城県","prefecture_kana":"イバラキケン","city":"神栖市","city_kana":"カミスシ","town":"賀","town_kana":"ガ","prefecture_code":8},"0143":{"zip_code":"3140143","prefecture":"茨城県","prefecture_kana":"イバラキケン","city":"神栖市","city_kana":"カミスシ","town":"神栖","town_kana":"カミス","prefecture_code":8},"0127":{"zip_code":"3140127","prefecture":"茨城県","prefecture_kana":"イバラキケン","city":"神栖市","city_kana":"カミスシ","town":"木崎","town_kana":"キサキ","prefecture_code":8},"0101":{"zip_code":"3140101","prefecture":"茨城県","prefecture_kana":"イバラキケン","city":"神栖市","city_kana":"カミスシ","town":"北浜","town_kana":"キタハマ","prefecture_code":8},"0115":{"zip_code":"3140115","prefecture":"茨城県","prefecture_kana":"イバラキケン","city":"神栖市","city_kana":"カミスシ","town":"知手","town_kana":"シッテ","prefecture_code":8},"0112":{"zip_code":"3140112","prefecture":"茨城県","prefecture_kana":"イバラキケン","city":"神栖市","city_kana":"カミスシ","town":"知手中央","town_kana":"シツテチュウオウ","prefecture_code":8},"0123":{"zip_code":"3140123","prefecture":"茨城県","prefecture_kana":"イバラキケン","city":"神栖市","city_kana":"カミスシ","town":"芝崎","town_kana":"シバサキ","prefecture_code":8},"0131":{"zip_code":"3140131","prefecture":"茨城県","prefecture_kana":"イバラキケン","city":"神栖市","city_kana":"カミスシ","town":"下幡木","town_kana":"シモハタキ","prefecture_code":8},"0253":{"zip_code":"3140253","prefecture":"茨城県","prefecture_kana":"イバラキケン","city":"神栖市","city_kana":"カミスシ","town":"須田","town_kana":"スダ","prefecture_code":8},"0255":{"zip_code":"3140255","prefecture":"茨城県","prefecture_kana":"イバラキケン","city":"神栖市","city_kana":"カミスシ","town":"砂山","town_kana":"スナヤマ","prefecture_code":8},"0125":{"zip_code":"3140125","prefecture":"茨城県","prefecture_kana":"イバラキケン","city":"神栖市","city_kana":"カミスシ","town":"高浜","town_kana":"タカハマ","prefecture_code":8},"0126":{"zip_code":"3140126","prefecture":"茨城県","prefecture_kana":"イバラキケン","city":"神栖市","city_kana":"カミスシ","town":"田畑","town_kana":"タバタ","prefecture_code":8},"0132":{"zip_code":"3140132","prefecture":"茨城県","prefecture_kana":"イバラキケン","city":"神栖市","city_kana":"カミスシ","town":"筒井","town_kana":"ツツイ","prefecture_code":8},"0342":{"zip_code":"3140342","prefecture":"茨城県","prefecture_kana":"イバラキケン","city":"神栖市","city_kana":"カミスシ","town":"土合北","town_kana":"ドアイキタ","prefecture_code":8},"0347":{"zip_code":"3140347","prefecture":"茨城県","prefecture_kana":"イバラキケン","city":"神栖市","city_kana":"カミスシ","town":"土合中央","town_kana":"ドアイチュウオウ","prefecture_code":8},"0346":{"zip_code":"3140346","prefecture":"茨城県","prefecture_kana":"イバラキケン","city":"神栖市","city_kana":"カミスシ","town":"土合西","town_kana":"ドアイニシ","prefecture_code":8},"0344":{"zip_code":"3140344","prefecture":"茨城県","prefecture_kana":"イバラキケン","city":"神栖市","city_kana":"カミスシ","town":"土合東","town_kana":"ドアイヒガシ","prefecture_code":8},"0343":{"zip_code":"3140343","prefecture":"茨城県","prefecture_kana":"イバラキケン","city":"神栖市","city_kana":"カミスシ","town":"土合本町","town_kana":"ドアイホンチョウ","prefecture_code":8},"0345":{"zip_code":"3140345","prefecture":"茨城県","prefecture_kana":"イバラキケン","city":"神栖市","city_kana":"カミスシ","town":"土合南","town_kana":"ドアイミナミ","prefecture_code":8},"0102":{"zip_code":"3140102","prefecture":"茨城県","prefecture_kana":"イバラキケン","city":"神栖市","city_kana":"カミスシ","town":"東和田","town_kana":"トウワダ","prefecture_code":8},"0114":{"zip_code":"3140114","prefecture":"茨城県","prefecture_kana":"イバラキケン","city":"神栖市","city_kana":"カミスシ","town":"日川","town_kana":"ニッカワ","prefecture_code":8},"0122":{"zip_code":"3140122","prefecture":"茨城県","prefecture_kana":"イバラキケン","city":"神栖市","city_kana":"カミスシ","town":"萩原","town_kana":"ハギワラ","prefecture_code":8},"0408":{"zip_code":"3140408","prefecture":"茨城県","prefecture_kana":"イバラキケン","city":"神栖市","city_kana":"カミスシ","town":"波崎","town_kana":"ハサキ","prefecture_code":8},"0407":{"zip_code":"3140407","prefecture":"茨城県","prefecture_kana":"イバラキケン","city":"神栖市","city_kana":"カミスシ","town":"波崎新港","town_kana":"ハサキシンコウ","prefecture_code":8},"0103":{"zip_code":"3140103","prefecture":"茨城県","prefecture_kana":"イバラキケン","city":"神栖市","city_kana":"カミスシ","town":"東深芝","town_kana":"ヒガシフカシバ","prefecture_code":8},"0051":{"zip_code":"3140051","prefecture":"茨城県","prefecture_kana":"イバラキケン","city":"神栖市","city_kana":"カミスシ","town":"光","town_kana":"ヒカリ","prefecture_code":8},"0146":{"zip_code":"3140146","prefecture":"茨城県","prefecture_kana":"イバラキケン","city":"神栖市","city_kana":"カミスシ","town":"平泉","town_kana":"ヒライズミ","prefecture_code":8},"0145":[{"zip_code":"3140145","prefecture":"茨城県","prefecture_kana":"イバラキケン","city":"神栖市","city_kana":"カミスシ","town":"平泉外１２入会","town_kana":"ヒライズミソト12イリアイ","prefecture_code":8},{"zip_code":"3140145","prefecture":"茨城県","prefecture_kana":"イバラキケン","city":"神栖市","city_kana":"カミスシ","town":"平泉東","town_kana":"ヒライズミヒガシ","prefecture_code":8}],"0148":{"zip_code":"3140148","prefecture":"茨城県","prefecture_kana":"イバラキケン","city":"神栖市","city_kana":"カミスシ","town":"深芝","town_kana":"フカシバ","prefecture_code":8},"0142":{"zip_code":"3140142","prefecture":"茨城県","prefecture_kana":"イバラキケン","city":"神栖市","city_kana":"カミスシ","town":"深芝南","town_kana":"フカシバミナミ","prefecture_code":8},"0135":{"zip_code":"3140135","prefecture":"茨城県","prefecture_kana":"イバラキケン","city":"神栖市","city_kana":"カミスシ","town":"堀割","town_kana":"ホリワリ","prefecture_code":8},"0121":{"zip_code":"3140121","prefecture":"茨城県","prefecture_kana":"イバラキケン","city":"神栖市","city_kana":"カミスシ","town":"溝口","town_kana":"ミゾグチ","prefecture_code":8},"0111":{"zip_code":"3140111","prefecture":"茨城県","prefecture_kana":"イバラキケン","city":"神栖市","city_kana":"カミスシ","town":"南浜","town_kana":"ミナミハマ","prefecture_code":8},"0341":{"zip_code":"3140341","prefecture":"茨城県","prefecture_kana":"イバラキケン","city":"神栖市","city_kana":"カミスシ","town":"矢田部","town_kana":"ヤタベ","prefecture_code":8},"0252":{"zip_code":"3140252","prefecture":"茨城県","prefecture_kana":"イバラキケン","city":"神栖市","city_kana":"カミスシ","town":"柳川","town_kana":"ヤナガワ","prefecture_code":8},"0258":{"zip_code":"3140258","prefecture":"茨城県","prefecture_kana":"イバラキケン","city":"神栖市","city_kana":"カミスシ","town":"柳川中央","town_kana":"ヤナガワチュウオウ","prefecture_code":8},"0113":{"zip_code":"3140113","prefecture":"茨城県","prefecture_kana":"イバラキケン","city":"神栖市","city_kana":"カミスシ","town":"横瀬","town_kana":"ヨコセ","prefecture_code":8},"0256":{"zip_code":"3140256","prefecture":"茨城県","prefecture_kana":"イバラキケン","city":"神栖市","city_kana":"カミスシ","town":"若松中央","town_kana":"ワカマツチュウオウ","prefecture_code":8},"0147":{"zip_code":"3140147","prefecture":"茨城県","prefecture_kana":"イバラキケン","city":"神栖市","city_kana":"カミスシ","town":"鰐川","town_kana":"ワニガワ","prefecture_code":8}}