{"0000":[{"zip_code":"3150000","prefecture":"茨城県","prefecture_kana":"イバラキケン","city":"石岡市","city_kana":"イシオカシ","town":"","town_kana":"","prefecture_code":8},{"zip_code":"3150000","prefecture":"茨城県","prefecture_kana":"イバラキケン","city":"かすみがうら市","city_kana":"カスミガウラシ","town":"","town_kana":"","prefecture_code":8}],"0148":{"zip_code":"3150148","prefecture":"茨城県","prefecture_kana":"イバラキケン","city":"石岡市","city_kana":"イシオカシ","town":"青田","town_kana":"アオタ","prefecture_code":8},"0038":{"zip_code":"3150038","prefecture":"茨城県","prefecture_kana":"イバラキケン","city":"石岡市","city_kana":"イシオカシ","town":"旭台","town_kana":"アサヒダイ","prefecture_code":8},"0021":{"zip_code":"3150021","prefecture":"茨城県","prefecture_kana":"イバラキケン","city":"石岡市","city_kana":"イシオカシ","town":"荒金","town_kana":"アラガネ","prefecture_code":8},"0030":{"zip_code":"3150030","prefecture":"茨城県","prefecture_kana":"イバラキケン","city":"石岡市","city_kana":"イシオカシ","town":"池の台","town_kana":"イケノダイ","prefecture_code":8},"0001":{"zip_code":"3150001","prefecture":"茨城県","prefecture_kana":"イバラキケン","city":"石岡市","city_kana":"イシオカシ","town":"石岡","town_kana":"イシオカ","prefecture_code":8},"0046":{"zip_code":"3150046","prefecture":"茨城県","prefecture_kana":"イバラキケン","city":"石岡市","city_kana":"イシオカシ","town":"石川","town_kana":"イシカワ","prefecture_code":8},"0025":{"zip_code":"3150025","prefecture":"茨城県","prefecture_kana":"イバラキケン","city":"石岡市","city_kana":"イシオカシ","town":"泉町","town_kana":"イズミチョウ","prefecture_code":8},"0047":{"zip_code":"3150047","prefecture":"茨城県","prefecture_kana":"イバラキケン","city":"石岡市","city_kana":"イシオカシ","town":"井関","town_kana":"イセキ","prefecture_code":8},"0162":{"zip_code":"3150162","prefecture":"茨城県","prefecture_kana":"イバラキケン","city":"石岡市","city_kana":"イシオカシ","town":"宇治会","town_kana":"ウジエ","prefecture_code":8},"0115":{"zip_code":"3150115","prefecture":"茨城県","prefecture_kana":"イバラキケン","city":"石岡市","city_kana":"イシオカシ","town":"浦須","town_kana":"ウラス","prefecture_code":8},"0157":{"zip_code":"3150157","prefecture":"茨城県","prefecture_kana":"イバラキケン","city":"石岡市","city_kana":"イシオカシ","town":"上曽","town_kana":"ウワソ","prefecture_code":8},"0009":{"zip_code":"3150009","prefecture":"茨城県","prefecture_kana":"イバラキケン","city":"石岡市","city_kana":"イシオカシ","town":"大砂","town_kana":"オオスナ","prefecture_code":8},"0102":{"zip_code":"3150102","prefecture":"茨城県","prefecture_kana":"イバラキケン","city":"石岡市","city_kana":"イシオカシ","town":"太田","town_kana":"オオタ","prefecture_code":8},"0105":{"zip_code":"3150105","prefecture":"茨城県","prefecture_kana":"イバラキケン","city":"石岡市","city_kana":"イシオカシ","town":"大塚","town_kana":"オオツカ","prefecture_code":8},"0101":{"zip_code":"3150101","prefecture":"茨城県","prefecture_kana":"イバラキケン","city":"石岡市","city_kana":"イシオカシ","town":"大増","town_kana":"オオマス","prefecture_code":8},"0036":{"zip_code":"3150036","prefecture":"茨城県","prefecture_kana":"イバラキケン","city":"石岡市","city_kana":"イシオカシ","town":"大谷津","town_kana":"オオヤツ","prefecture_code":8},"0165":{"zip_code":"3150165","prefecture":"茨城県","prefecture_kana":"イバラキケン","city":"石岡市","city_kana":"イシオカシ","town":"小倉","town_kana":"オグラ","prefecture_code":8},"0144":{"zip_code":"3150144","prefecture":"茨城県","prefecture_kana":"イバラキケン","city":"石岡市","city_kana":"イシオカシ","town":"小野越","town_kana":"オノゴエ","prefecture_code":8},"0155":{"zip_code":"3150155","prefecture":"茨城県","prefecture_kana":"イバラキケン","city":"石岡市","city_kana":"イシオカシ","town":"小幡","town_kana":"オバタ","prefecture_code":8},"0104":{"zip_code":"3150104","prefecture":"茨城県","prefecture_kana":"イバラキケン","city":"石岡市","city_kana":"イシオカシ","town":"小見","town_kana":"オミ","prefecture_code":8},"0166":{"zip_code":"3150166","prefecture":"茨城県","prefecture_kana":"イバラキケン","city":"石岡市","city_kana":"イシオカシ","town":"小山田","town_kana":"オヤマダ","prefecture_code":8},"0015":{"zip_code":"3150015","prefecture":"茨城県","prefecture_kana":"イバラキケン","city":"石岡市","city_kana":"イシオカシ","town":"貝地","town_kana":"カイジ","prefecture_code":8},"0116":{"zip_code":"3150116","prefecture":"茨城県","prefecture_kana":"イバラキケン","city":"石岡市","city_kana":"イシオカシ","town":"柿岡","town_kana":"カキオカ","prefecture_code":8},"0002":{"zip_code":"3150002","prefecture":"茨城県","prefecture_kana":"イバラキケン","city":"石岡市","city_kana":"イシオカシ","town":"柏原","town_kana":"カシワバラ","prefecture_code":8},"0004":{"zip_code":"3150004","prefecture":"茨城県","prefecture_kana":"イバラキケン","city":"石岡市","city_kana":"イシオカシ","town":"柏原町","town_kana":"カシワバラチョウ","prefecture_code":8},"0113":{"zip_code":"3150113","prefecture":"茨城県","prefecture_kana":"イバラキケン","city":"石岡市","city_kana":"イシオカシ","town":"片岡","town_kana":"カタオカ","prefecture_code":8},"0136":{"zip_code":"3150136","prefecture":"茨城県","prefecture_kana":"イバラキケン","city":"石岡市","city_kana":"イシオカシ","town":"片野","town_kana":"カタノ","prefecture_code":8},"0137":{"zip_code":"3150137","prefecture":"茨城県","prefecture_kana":"イバラキケン","city":"石岡市","city_kana":"イシオカシ","town":"金指","town_kana":"カナサシ","prefecture_code":8},"0005":{"zip_code":"3150005","prefecture":"茨城県","prefecture_kana":"イバラキケン","city":"石岡市","city_kana":"イシオカシ","town":"鹿の子","town_kana":"カノコ","prefecture_code":8},"0154":{"zip_code":"3150154","prefecture":"茨城県","prefecture_kana":"イバラキケン","city":"石岡市","city_kana":"イシオカシ","town":"上青柳","town_kana":"カミアオヤギ","prefecture_code":8},"0138":{"zip_code":"3150138","prefecture":"茨城県","prefecture_kana":"イバラキケン","city":"石岡市","city_kana":"イシオカシ","town":"上林","town_kana":"カミバヤシ","prefecture_code":8},"0135":{"zip_code":"3150135","prefecture":"茨城県","prefecture_kana":"イバラキケン","city":"石岡市","city_kana":"イシオカシ","town":"加生野","town_kana":"カヨウノ","prefecture_code":8},"0114":{"zip_code":"3150114","prefecture":"茨城県","prefecture_kana":"イバラキケン","city":"石岡市","city_kana":"イシオカシ","town":"嘉良寿理","town_kana":"カラスリ","prefecture_code":8},"0134":{"zip_code":"3150134","prefecture":"茨城県","prefecture_kana":"イバラキケン","city":"石岡市","city_kana":"イシオカシ","town":"川又","town_kana":"カワマタ","prefecture_code":8},"0111":{"zip_code":"3150111","prefecture":"茨城県","prefecture_kana":"イバラキケン","city":"石岡市","city_kana":"イシオカシ","town":"瓦谷","town_kana":"カワラヤ","prefecture_code":8},"0044":{"zip_code":"3150044","prefecture":"茨城県","prefecture_kana":"イバラキケン","city":"石岡市","city_kana":"イシオカシ","town":"北根本","town_kana":"キタネモト","prefecture_code":8},"0012":{"zip_code":"3150012","prefecture":"茨城県","prefecture_kana":"イバラキケン","city":"石岡市","city_kana":"イシオカシ","town":"北府中","town_kana":"キタフチュウ","prefecture_code":8},"0163":{"zip_code":"3150163","prefecture":"茨城県","prefecture_kana":"イバラキケン","city":"石岡市","city_kana":"イシオカシ","town":"鯨岡","town_kana":"クジラオカ","prefecture_code":8},"0010":{"zip_code":"3150010","prefecture":"茨城県","prefecture_kana":"イバラキケン","city":"石岡市","city_kana":"イシオカシ","town":"碁石沢","town_kana":"ゴイシザワ","prefecture_code":8},"0032":{"zip_code":"3150032","prefecture":"茨城県","prefecture_kana":"イバラキケン","city":"石岡市","city_kana":"イシオカシ","town":"小井戸","town_kana":"コイド","prefecture_code":8},"0014":{"zip_code":"3150014","prefecture":"茨城県","prefecture_kana":"イバラキケン","city":"石岡市","city_kana":"イシオカシ","town":"国府","town_kana":"コクフ","prefecture_code":8},"0161":{"zip_code":"3150161","prefecture":"茨城県","prefecture_kana":"イバラキケン","city":"石岡市","city_kana":"イシオカシ","town":"小塙","town_kana":"コバナ","prefecture_code":8},"0164":{"zip_code":"3150164","prefecture":"茨城県","prefecture_kana":"イバラキケン","city":"石岡市","city_kana":"イシオカシ","town":"小屋","town_kana":"コヤ","prefecture_code":8},"0019":{"zip_code":"3150019","prefecture":"茨城県","prefecture_kana":"イバラキケン","city":"石岡市","city_kana":"イシオカシ","town":"栄松","town_kana":"サカエマツ","prefecture_code":8},"0117":{"zip_code":"3150117","prefecture":"茨城県","prefecture_kana":"イバラキケン","city":"石岡市","city_kana":"イシオカシ","town":"佐久","town_kana":"サク","prefecture_code":8},"0143":{"zip_code":"3150143","prefecture":"茨城県","prefecture_kana":"イバラキケン","city":"石岡市","city_kana":"イシオカシ","town":"柴内","town_kana":"シバウチ","prefecture_code":8},"0124":{"zip_code":"3150124","prefecture":"茨城県","prefecture_kana":"イバラキケン","city":"石岡市","city_kana":"イシオカシ","town":"柴間","town_kana":"シバマ","prefecture_code":8},"0153":{"zip_code":"3150153","prefecture":"茨城県","prefecture_kana":"イバラキケン","city":"石岡市","city_kana":"イシオカシ","town":"下青柳","town_kana":"シモアオヤギ","prefecture_code":8},"0131":{"zip_code":"3150131","prefecture":"茨城県","prefecture_kana":"イバラキケン","city":"石岡市","city_kana":"イシオカシ","town":"下林","town_kana":"シモバヤシ","prefecture_code":8},"0011":{"zip_code":"3150011","prefecture":"茨城県","prefecture_kana":"イバラキケン","city":"石岡市","city_kana":"イシオカシ","town":"正上内","town_kana":"ショウジョウウチ","prefecture_code":8},"0146":{"zip_code":"3150146","prefecture":"茨城県","prefecture_kana":"イバラキケン","city":"石岡市","city_kana":"イシオカシ","town":"菖蒲沢","town_kana":"ショウブザワ","prefecture_code":8},"0151":{"zip_code":"3150151","prefecture":"茨城県","prefecture_kana":"イバラキケン","city":"石岡市","city_kana":"イシオカシ","town":"須釜","town_kana":"スガマ","prefecture_code":8},"0027":{"zip_code":"3150027","prefecture":"茨城県","prefecture_kana":"イバラキケン","city":"石岡市","city_kana":"イシオカシ","town":"杉並","town_kana":"スギナミ","prefecture_code":8},"0026":{"zip_code":"3150026","prefecture":"茨城県","prefecture_kana":"イバラキケン","city":"石岡市","city_kana":"イシオカシ","town":"杉の井","town_kana":"スギノイ","prefecture_code":8},"0016":{"zip_code":"3150016","prefecture":"茨城県","prefecture_kana":"イバラキケン","city":"石岡市","city_kana":"イシオカシ","town":"総社","town_kana":"ソウシャ","prefecture_code":8},"0007":{"zip_code":"3150007","prefecture":"茨城県","prefecture_kana":"イバラキケン","city":"石岡市","city_kana":"イシオカシ","town":"染谷","town_kana":"ソメヤ","prefecture_code":8},"0045":{"zip_code":"3150045","prefecture":"茨城県","prefecture_kana":"イバラキケン","city":"石岡市","city_kana":"イシオカシ","town":"高浜","town_kana":"タカハマ","prefecture_code":8},"0041":{"zip_code":"3150041","prefecture":"茨城県","prefecture_kana":"イバラキケン","city":"石岡市","city_kana":"イシオカシ","town":"田島","town_kana":"タジマ","prefecture_code":8},"0141":{"zip_code":"3150141","prefecture":"茨城県","prefecture_kana":"イバラキケン","city":"石岡市","city_kana":"イシオカシ","town":"月岡","town_kana":"ツキオカ","prefecture_code":8},"0147":{"zip_code":"3150147","prefecture":"茨城県","prefecture_kana":"イバラキケン","city":"石岡市","city_kana":"イシオカシ","town":"辻","town_kana":"ツジ","prefecture_code":8},"0033":{"zip_code":"3150033","prefecture":"茨城県","prefecture_kana":"イバラキケン","city":"石岡市","city_kana":"イシオカシ","town":"東光台","town_kana":"トウコウダイ","prefecture_code":8},"0043":{"zip_code":"3150043","prefecture":"茨城県","prefecture_kana":"イバラキケン","city":"石岡市","city_kana":"イシオカシ","town":"中津川","town_kana":"ナカツガワ","prefecture_code":8},"0103":{"zip_code":"3150103","prefecture":"茨城県","prefecture_kana":"イバラキケン","city":"石岡市","city_kana":"イシオカシ","town":"中戸","town_kana":"ナカド","prefecture_code":8},"0006":{"zip_code":"3150006","prefecture":"茨城県","prefecture_kana":"イバラキケン","city":"石岡市","city_kana":"イシオカシ","town":"並木","town_kana":"ナミキ","prefecture_code":8},"0022":{"zip_code":"3150022","prefecture":"茨城県","prefecture_kana":"イバラキケン","city":"石岡市","city_kana":"イシオカシ","town":"行里川","town_kana":"ナメリカワ","prefecture_code":8},"0029":{"zip_code":"3150029","prefecture":"茨城県","prefecture_kana":"イバラキケン","city":"石岡市","city_kana":"イシオカシ","town":"根当","town_kana":"ネアタリ","prefecture_code":8},"0132":{"zip_code":"3150132","prefecture":"茨城県","prefecture_kana":"イバラキケン","city":"石岡市","city_kana":"イシオカシ","town":"根小屋","town_kana":"ネゴヤ","prefecture_code":8},"0118":{"zip_code":"3150118","prefecture":"茨城県","prefecture_kana":"イバラキケン","city":"石岡市","city_kana":"イシオカシ","town":"野田","town_kana":"ノダ","prefecture_code":8},"0024":{"zip_code":"3150024","prefecture":"茨城県","prefecture_kana":"イバラキケン","city":"石岡市","city_kana":"イシオカシ","town":"八軒台","town_kana":"ハチケンダイ","prefecture_code":8},"0042":{"zip_code":"3150042","prefecture":"茨城県","prefecture_kana":"イバラキケン","city":"石岡市","city_kana":"イシオカシ","town":"茨城","town_kana":"バラキ","prefecture_code":8},"0133":{"zip_code":"3150133","prefecture":"茨城県","prefecture_kana":"イバラキケン","city":"石岡市","city_kana":"イシオカシ","town":"半田","town_kana":"ハンダ","prefecture_code":8},"0028":{"zip_code":"3150028","prefecture":"茨城県","prefecture_kana":"イバラキケン","city":"石岡市","city_kana":"イシオカシ","town":"半ノ木","town_kana":"ハンノキ","prefecture_code":8},"0037":{"zip_code":"3150037","prefecture":"茨城県","prefecture_kana":"イバラキケン","city":"石岡市","city_kana":"イシオカシ","town":"東石岡","town_kana":"ヒガシイシオカ","prefecture_code":8},"0031":{"zip_code":"3150031","prefecture":"茨城県","prefecture_kana":"イバラキケン","city":"石岡市","city_kana":"イシオカシ","town":"東大橋","town_kana":"ヒガシオオハシ","prefecture_code":8},"0034":{"zip_code":"3150034","prefecture":"茨城県","prefecture_kana":"イバラキケン","city":"石岡市","city_kana":"イシオカシ","town":"東田中","town_kana":"ヒガシタナカ","prefecture_code":8},"0122":{"zip_code":"3150122","prefecture":"茨城県","prefecture_kana":"イバラキケン","city":"石岡市","city_kana":"イシオカシ","town":"東成井","town_kana":"ヒガシナルイ","prefecture_code":8},"0023":{"zip_code":"3150023","prefecture":"茨城県","prefecture_kana":"イバラキケン","city":"石岡市","city_kana":"イシオカシ","town":"東府中","town_kana":"ヒガシフチュウ","prefecture_code":8},"0013":{"zip_code":"3150013","prefecture":"茨城県","prefecture_kana":"イバラキケン","city":"石岡市","city_kana":"イシオカシ","town":"府中","town_kana":"フチュウ","prefecture_code":8},"0145":{"zip_code":"3150145","prefecture":"茨城県","prefecture_kana":"イバラキケン","city":"石岡市","city_kana":"イシオカシ","town":"仏生寺","town_kana":"ブッショウジ","prefecture_code":8},"0112":{"zip_code":"3150112","prefecture":"茨城県","prefecture_kana":"イバラキケン","city":"石岡市","city_kana":"イシオカシ","town":"部原","town_kana":"ヘバラ","prefecture_code":8},"0152":{"zip_code":"3150152","prefecture":"茨城県","prefecture_kana":"イバラキケン","city":"石岡市","city_kana":"イシオカシ","town":"細谷","town_kana":"ホソヤ","prefecture_code":8},"0121":{"zip_code":"3150121","prefecture":"茨城県","prefecture_kana":"イバラキケン","city":"石岡市","city_kana":"イシオカシ","town":"真家","town_kana":"マイエ","prefecture_code":8},"0035":{"zip_code":"3150035","prefecture":"茨城県","prefecture_kana":"イバラキケン","city":"石岡市","city_kana":"イシオカシ","town":"南台","town_kana":"ミナミダイ","prefecture_code":8},"0048":{"zip_code":"3150048","prefecture":"茨城県","prefecture_kana":"イバラキケン","city":"石岡市","city_kana":"イシオカシ","town":"三村","town_kana":"ミムラ","prefecture_code":8},"0123":{"zip_code":"3150123","prefecture":"茨城県","prefecture_kana":"イバラキケン","city":"石岡市","city_kana":"イシオカシ","town":"宮ケ崎","town_kana":"ミヤガサキ","prefecture_code":8},"0008":{"zip_code":"3150008","prefecture":"茨城県","prefecture_kana":"イバラキケン","city":"石岡市","city_kana":"イシオカシ","town":"村上","town_kana":"ムラカミ","prefecture_code":8},"0125":{"zip_code":"3150125","prefecture":"茨城県","prefecture_kana":"イバラキケン","city":"石岡市","city_kana":"イシオカシ","town":"山崎","town_kana":"ヤマザキ","prefecture_code":8},"0003":{"zip_code":"3150003","prefecture":"茨城県","prefecture_kana":"イバラキケン","city":"石岡市","city_kana":"イシオカシ","town":"谷向町","town_kana":"ヤムカイチョウ","prefecture_code":8},"0142":{"zip_code":"3150142","prefecture":"茨城県","prefecture_kana":"イバラキケン","city":"石岡市","city_kana":"イシオカシ","town":"弓弦","town_kana":"ユヅリ","prefecture_code":8},"0156":{"zip_code":"3150156","prefecture":"茨城県","prefecture_kana":"イバラキケン","city":"石岡市","city_kana":"イシオカシ","town":"吉生","town_kana":"ヨシウ","prefecture_code":8},"0167":{"zip_code":"3150167","prefecture":"茨城県","prefecture_kana":"イバラキケン","city":"石岡市","city_kana":"イシオカシ","town":"龍明","town_kana":"リュウメイ","prefecture_code":8},"0018":{"zip_code":"3150018","prefecture":"茨城県","prefecture_kana":"イバラキケン","city":"石岡市","city_kana":"イシオカシ","town":"若松","town_kana":"ワカマツ","prefecture_code":8},"0017":{"zip_code":"3150017","prefecture":"茨城県","prefecture_kana":"イバラキケン","city":"石岡市","city_kana":"イシオカシ","town":"若宮","town_kana":"ワカミヤ","prefecture_code":8},"0078":{"zip_code":"3150078","prefecture":"茨城県","prefecture_kana":"イバラキケン","city":"かすみがうら市","city_kana":"カスミガウラシ","town":"粟田","town_kana":"アワダ","prefecture_code":8},"0063":{"zip_code":"3150063","prefecture":"茨城県","prefecture_kana":"イバラキケン","city":"かすみがうら市","city_kana":"カスミガウラシ","town":"飯田","town_kana":"イイダ","prefecture_code":8},"0071":{"zip_code":"3150071","prefecture":"茨城県","prefecture_kana":"イバラキケン","city":"かすみがうら市","city_kana":"カスミガウラシ","town":"市川","town_kana":"イチカワ","prefecture_code":8},"0054":{"zip_code":"3150054","prefecture":"茨城県","prefecture_kana":"イバラキケン","city":"かすみがうら市","city_kana":"カスミガウラシ","town":"稲吉","town_kana":"イナヨシ","prefecture_code":8},"0053":{"zip_code":"3150053","prefecture":"茨城県","prefecture_kana":"イバラキケン","city":"かすみがうら市","city_kana":"カスミガウラシ","town":"稲吉東","town_kana":"イナヨシヒガシ","prefecture_code":8},"0055":{"zip_code":"3150055","prefecture":"茨城県","prefecture_kana":"イバラキケン","city":"かすみがうら市","city_kana":"カスミガウラシ","town":"稲吉南","town_kana":"イナヨシミナミ","prefecture_code":8},"0064":{"zip_code":"3150064","prefecture":"茨城県","prefecture_kana":"イバラキケン","city":"かすみがうら市","city_kana":"カスミガウラシ","town":"大峰","town_kana":"オオミネ","prefecture_code":8},"0056":{"zip_code":"3150056","prefecture":"茨城県","prefecture_kana":"イバラキケン","city":"かすみがうら市","city_kana":"カスミガウラシ","town":"上稲吉","town_kana":"カミイナヨシ","prefecture_code":8},"0065":{"zip_code":"3150065","prefecture":"茨城県","prefecture_kana":"イバラキケン","city":"かすみがうら市","city_kana":"カスミガウラシ","town":"上佐谷","town_kana":"カミサヤ","prefecture_code":8},"0076":{"zip_code":"3150076","prefecture":"茨城県","prefecture_kana":"イバラキケン","city":"かすみがうら市","city_kana":"カスミガウラシ","town":"上志筑","town_kana":"カミシヅク","prefecture_code":8},"0057":{"zip_code":"3150057","prefecture":"茨城県","prefecture_kana":"イバラキケン","city":"かすみがうら市","city_kana":"カスミガウラシ","town":"上土田","town_kana":"カミツチダ","prefecture_code":8},"0061":{"zip_code":"3150061","prefecture":"茨城県","prefecture_kana":"イバラキケン","city":"かすみがうら市","city_kana":"カスミガウラシ","town":"五反田","town_kana":"ゴタンダ","prefecture_code":8},"0052":{"zip_code":"3150052","prefecture":"茨城県","prefecture_kana":"イバラキケン","city":"かすみがうら市","city_kana":"カスミガウラシ","town":"下稲吉","town_kana":"シモイナヨシ","prefecture_code":8},"0067":{"zip_code":"3150067","prefecture":"茨城県","prefecture_kana":"イバラキケン","city":"かすみがうら市","city_kana":"カスミガウラシ","town":"下佐谷","town_kana":"シモサヤ","prefecture_code":8},"0074":{"zip_code":"3150074","prefecture":"茨城県","prefecture_kana":"イバラキケン","city":"かすみがうら市","city_kana":"カスミガウラシ","town":"下志筑","town_kana":"シモシヅク","prefecture_code":8},"0058":{"zip_code":"3150058","prefecture":"茨城県","prefecture_kana":"イバラキケン","city":"かすみがうら市","city_kana":"カスミガウラシ","town":"下土田","town_kana":"シモツチダ","prefecture_code":8},"0077":{"zip_code":"3150077","prefecture":"茨城県","prefecture_kana":"イバラキケン","city":"かすみがうら市","city_kana":"カスミガウラシ","town":"高倉","town_kana":"タカクラ","prefecture_code":8},"0066":{"zip_code":"3150066","prefecture":"茨城県","prefecture_kana":"イバラキケン","city":"かすみがうら市","city_kana":"カスミガウラシ","town":"中佐谷","town_kana":"ナカサヤ","prefecture_code":8},"0075":{"zip_code":"3150075","prefecture":"茨城県","prefecture_kana":"イバラキケン","city":"かすみがうら市","city_kana":"カスミガウラシ","town":"中志筑","town_kana":"ナカシヅク","prefecture_code":8},"0051":{"zip_code":"3150051","prefecture":"茨城県","prefecture_kana":"イバラキケン","city":"かすみがうら市","city_kana":"カスミガウラシ","town":"新治","town_kana":"ニイハリ","prefecture_code":8},"0073":{"zip_code":"3150073","prefecture":"茨城県","prefecture_kana":"イバラキケン","city":"かすみがうら市","city_kana":"カスミガウラシ","town":"西野寺","town_kana":"ニシノデラ","prefecture_code":8},"0072":{"zip_code":"3150072","prefecture":"茨城県","prefecture_kana":"イバラキケン","city":"かすみがうら市","city_kana":"カスミガウラシ","town":"東野寺","town_kana":"ヒガシノデラ","prefecture_code":8},"0068":{"zip_code":"3150068","prefecture":"茨城県","prefecture_kana":"イバラキケン","city":"かすみがうら市","city_kana":"カスミガウラシ","town":"山本","town_kana":"ヤマモト","prefecture_code":8},"0069":{"zip_code":"3150069","prefecture":"茨城県","prefecture_kana":"イバラキケン","city":"かすみがうら市","city_kana":"カスミガウラシ","town":"雪入","town_kana":"ユキイリ","prefecture_code":8},"0062":{"zip_code":"3150062","prefecture":"茨城県","prefecture_kana":"イバラキケン","city":"かすみがうら市","city_kana":"カスミガウラシ","town":"横堀","town_kana":"ヨコボリ","prefecture_code":8}}