{"0000":{"zip_code":"3170000","prefecture":"茨城県","prefecture_kana":"イバラキケン","city":"日立市","city_kana":"ヒタチシ","town":"以下に掲載がない場合","town_kana":"イカニケイサイガナイバアイ","prefecture_code":8},"0075":{"zip_code":"3170075","prefecture":"茨城県","prefecture_kana":"イバラキケン","city":"日立市","city_kana":"ヒタチシ","town":"相賀町","town_kana":"アイガチョウ","prefecture_code":8},"0074":{"zip_code":"3170074","prefecture":"茨城県","prefecture_kana":"イバラキケン","city":"日立市","city_kana":"ヒタチシ","town":"旭町","town_kana":"アサヒチョウ","prefecture_code":8},"0076":{"zip_code":"3170076","prefecture":"茨城県","prefecture_kana":"イバラキケン","city":"日立市","city_kana":"ヒタチシ","town":"会瀬町","town_kana":"オウセチョウ","prefecture_code":8},"0071":{"zip_code":"3170071","prefecture":"茨城県","prefecture_kana":"イバラキケン","city":"日立市","city_kana":"ヒタチシ","town":"鹿島町","town_kana":"カシマチョウ","prefecture_code":8},"0064":{"zip_code":"3170064","prefecture":"茨城県","prefecture_kana":"イバラキケン","city":"日立市","city_kana":"ヒタチシ","town":"神峰町","town_kana":"カミネチョウ","prefecture_code":8},"0073":{"zip_code":"3170073","prefecture":"茨城県","prefecture_kana":"イバラキケン","city":"日立市","city_kana":"ヒタチシ","town":"幸町","town_kana":"サイワイチョウ","prefecture_code":8},"0077":{"zip_code":"3170077","prefecture":"茨城県","prefecture_kana":"イバラキケン","city":"日立市","city_kana":"ヒタチシ","town":"城南町","town_kana":"ジョウナンチョウ","prefecture_code":8},"0056":{"zip_code":"3170056","prefecture":"茨城県","prefecture_kana":"イバラキケン","city":"日立市","city_kana":"ヒタチシ","town":"白銀町","town_kana":"シロガネチョウ","prefecture_code":8},"0065":{"zip_code":"3170065","prefecture":"茨城県","prefecture_kana":"イバラキケン","city":"日立市","city_kana":"ヒタチシ","town":"助川町","town_kana":"スケガワチョウ","prefecture_code":8},"0066":{"zip_code":"3170066","prefecture":"茨城県","prefecture_kana":"イバラキケン","city":"日立市","city_kana":"ヒタチシ","town":"高鈴町","town_kana":"タカスズチョウ","prefecture_code":8},"0053":{"zip_code":"3170053","prefecture":"茨城県","prefecture_kana":"イバラキケン","city":"日立市","city_kana":"ヒタチシ","town":"滑川町","town_kana":"ナメカワチョウ","prefecture_code":8},"0051":{"zip_code":"3170051","prefecture":"茨城県","prefecture_kana":"イバラキケン","city":"日立市","city_kana":"ヒタチシ","town":"滑川本町","town_kana":"ナメカワホンチョウ","prefecture_code":8},"0061":{"zip_code":"3170061","prefecture":"茨城県","prefecture_kana":"イバラキケン","city":"日立市","city_kana":"ヒタチシ","town":"東町","town_kana":"ヒガシチョウ","prefecture_code":8},"0052":{"zip_code":"3170052","prefecture":"茨城県","prefecture_kana":"イバラキケン","city":"日立市","city_kana":"ヒタチシ","town":"東滑川町","town_kana":"ヒガシナメカワチョウ","prefecture_code":8},"0062":{"zip_code":"3170062","prefecture":"茨城県","prefecture_kana":"イバラキケン","city":"日立市","city_kana":"ヒタチシ","town":"平和町","town_kana":"ヘイワチョウ","prefecture_code":8},"0072":{"zip_code":"3170072","prefecture":"茨城県","prefecture_kana":"イバラキケン","city":"日立市","city_kana":"ヒタチシ","town":"弁天町","town_kana":"ベンテンチョウ","prefecture_code":8},"0055":{"zip_code":"3170055","prefecture":"茨城県","prefecture_kana":"イバラキケン","city":"日立市","city_kana":"ヒタチシ","town":"宮田町","town_kana":"ミヤタチョウ","prefecture_code":8},"0054":{"zip_code":"3170054","prefecture":"茨城県","prefecture_kana":"イバラキケン","city":"日立市","city_kana":"ヒタチシ","town":"本宮町","town_kana":"モトミヤチョウ","prefecture_code":8},"0063":{"zip_code":"3170063","prefecture":"茨城県","prefecture_kana":"イバラキケン","city":"日立市","city_kana":"ヒタチシ","town":"若葉町","town_kana":"ワカバチョウ","prefecture_code":8}}