{"0314":{"zip_code":"3190314","prefecture":"茨城県","prefecture_kana":"イバラキケン","city":"水戸市","city_kana":"ミトシ","town":"赤尾関町","town_kana":"アカオセキチョウ","prefecture_code":8},"0304":{"zip_code":"3190304","prefecture":"茨城県","prefecture_kana":"イバラキケン","city":"水戸市","city_kana":"ミトシ","town":"有賀町","town_kana":"アリガチョウ","prefecture_code":8},"0311":{"zip_code":"3190311","prefecture":"茨城県","prefecture_kana":"イバラキケン","city":"水戸市","city_kana":"ミトシ","town":"牛伏町","town_kana":"ウシブシチョウ","prefecture_code":8},"0315":{"zip_code":"3190315","prefecture":"茨城県","prefecture_kana":"イバラキケン","city":"水戸市","city_kana":"ミトシ","town":"内原町","town_kana":"ウチハラチョウ","prefecture_code":8},"0312":{"zip_code":"3190312","prefecture":"茨城県","prefecture_kana":"イバラキケン","city":"水戸市","city_kana":"ミトシ","town":"大足町","town_kana":"オオダラチョウ","prefecture_code":8},"0307":{"zip_code":"3190307","prefecture":"茨城県","prefecture_kana":"イバラキケン","city":"水戸市","city_kana":"ミトシ","town":"小原町","town_kana":"オバラチョウ","prefecture_code":8},"0303":{"zip_code":"3190303","prefecture":"茨城県","prefecture_kana":"イバラキケン","city":"水戸市","city_kana":"ミトシ","town":"黒磯町","town_kana":"クロイソチョウ","prefecture_code":8},"0323":{"zip_code":"3190323","prefecture":"茨城県","prefecture_kana":"イバラキケン","city":"水戸市","city_kana":"ミトシ","town":"鯉淵町","town_kana":"コイブチチョウ","prefecture_code":8},"0325":{"zip_code":"3190325","prefecture":"茨城県","prefecture_kana":"イバラキケン","city":"水戸市","city_kana":"ミトシ","town":"小林町","town_kana":"コバヤシチョウ","prefecture_code":8},"0324":{"zip_code":"3190324","prefecture":"茨城県","prefecture_kana":"イバラキケン","city":"水戸市","city_kana":"ミトシ","town":"五平町","town_kana":"ゴヘイチョウ","prefecture_code":8},"0322":{"zip_code":"3190322","prefecture":"茨城県","prefecture_kana":"イバラキケン","city":"水戸市","city_kana":"ミトシ","town":"下野町","town_kana":"シモノチョウ","prefecture_code":8},"0306":{"zip_code":"3190306","prefecture":"茨城県","prefecture_kana":"イバラキケン","city":"水戸市","city_kana":"ミトシ","town":"杉崎町","town_kana":"スギサキチョウ","prefecture_code":8},"0321":{"zip_code":"3190321","prefecture":"茨城県","prefecture_kana":"イバラキケン","city":"水戸市","city_kana":"ミトシ","town":"高田町","town_kana":"タカダチョウ","prefecture_code":8},"0301":{"zip_code":"3190301","prefecture":"茨城県","prefecture_kana":"イバラキケン","city":"水戸市","city_kana":"ミトシ","town":"田島町","town_kana":"タジマチョウ","prefecture_code":8},"0313":{"zip_code":"3190313","prefecture":"茨城県","prefecture_kana":"イバラキケン","city":"水戸市","city_kana":"ミトシ","town":"筑地町","town_kana":"ツイジチョウ","prefecture_code":8},"0305":{"zip_code":"3190305","prefecture":"茨城県","prefecture_kana":"イバラキケン","city":"水戸市","city_kana":"ミトシ","town":"中原町","town_kana":"ナカハラチョウ","prefecture_code":8},"0302":{"zip_code":"3190302","prefecture":"茨城県","prefecture_kana":"イバラキケン","city":"水戸市","city_kana":"ミトシ","town":"三野輪町","town_kana":"ミノワチョウ","prefecture_code":8},"0316":{"zip_code":"3190316","prefecture":"茨城県","prefecture_kana":"イバラキケン","city":"水戸市","city_kana":"ミトシ","town":"三湯町","town_kana":"ミユチョウ","prefecture_code":8},"1415":{"zip_code":"3191415","prefecture":"茨城県","prefecture_kana":"イバラキケン","city":"日立市","city_kana":"ヒタチシ","town":"相田町","town_kana":"アイダチョウ","prefecture_code":8},"1418":{"zip_code":"3191418","prefecture":"茨城県","prefecture_kana":"イバラキケン","city":"日立市","city_kana":"ヒタチシ","town":"砂沢町","town_kana":"イサゴザワチョウ","prefecture_code":8},"1225":{"zip_code":"3191225","prefecture":"茨城県","prefecture_kana":"イバラキケン","city":"日立市","city_kana":"ヒタチシ","town":"石名坂町","town_kana":"イシナザカチョウ","prefecture_code":8},"1221":{"zip_code":"3191221","prefecture":"茨城県","prefecture_kana":"イバラキケン","city":"日立市","city_kana":"ヒタチシ","town":"大みか町","town_kana":"オオミカチョウ","prefecture_code":8},"1234":{"zip_code":"3191234","prefecture":"茨城県","prefecture_kana":"イバラキケン","city":"日立市","city_kana":"ヒタチシ","town":"大和田町","town_kana":"オオワダチョウ","prefecture_code":8},"1413":{"zip_code":"3191413","prefecture":"茨城県","prefecture_kana":"イバラキケン","city":"日立市","city_kana":"ヒタチシ","town":"小木津町","town_kana":"オギツチョウ","prefecture_code":8},"1412":{"zip_code":"3191412","prefecture":"茨城県","prefecture_kana":"イバラキケン","city":"日立市","city_kana":"ヒタチシ","town":"折笠町","town_kana":"オリカサチョウ","prefecture_code":8},"1417":{"zip_code":"3191417","prefecture":"茨城県","prefecture_kana":"イバラキケン","city":"日立市","city_kana":"ヒタチシ","town":"かみあい町","town_kana":"カミアイチョウ","prefecture_code":8},"1411":{"zip_code":"3191411","prefecture":"茨城県","prefecture_kana":"イバラキケン","city":"日立市","city_kana":"ヒタチシ","town":"川尻町","town_kana":"カワジリチョウ","prefecture_code":8},"1233":{"zip_code":"3191233","prefecture":"茨城県","prefecture_kana":"イバラキケン","city":"日立市","city_kana":"ヒタチシ","town":"神田町","town_kana":"カンダチョウ","prefecture_code":8},"1222":{"zip_code":"3191222","prefecture":"茨城県","prefecture_kana":"イバラキケン","city":"日立市","city_kana":"ヒタチシ","town":"久慈町","town_kana":"クジチョウ","prefecture_code":8},"1232":{"zip_code":"3191232","prefecture":"茨城県","prefecture_kana":"イバラキケン","city":"日立市","city_kana":"ヒタチシ","town":"下土木内町","town_kana":"シモドギウチチョウ","prefecture_code":8},"1301":{"zip_code":"3191301","prefecture":"茨城県","prefecture_kana":"イバラキケン","city":"日立市","city_kana":"ヒタチシ","town":"十王町伊師","town_kana":"ジュウオウチョウイシ","prefecture_code":8},"1302":{"zip_code":"3191302","prefecture":"茨城県","prefecture_kana":"イバラキケン","city":"日立市","city_kana":"ヒタチシ","town":"十王町伊師本郷","town_kana":"ジュウオウチョウイシホンゴウ","prefecture_code":8},"1306":{"zip_code":"3191306","prefecture":"茨城県","prefecture_kana":"イバラキケン","city":"日立市","city_kana":"ヒタチシ","town":"十王町黒坂","town_kana":"ジュウオウチョウクロサカ","prefecture_code":8},"1308":{"zip_code":"3191308","prefecture":"茨城県","prefecture_kana":"イバラキケン","city":"日立市","city_kana":"ヒタチシ","town":"十王町城の丘","town_kana":"ジュウオウチョウシロノオカ","prefecture_code":8},"1305":{"zip_code":"3191305","prefecture":"茨城県","prefecture_kana":"イバラキケン","city":"日立市","city_kana":"ヒタチシ","town":"十王町高原","town_kana":"ジュウオウチョウタカハラ","prefecture_code":8},"1304":{"zip_code":"3191304","prefecture":"茨城県","prefecture_kana":"イバラキケン","city":"日立市","city_kana":"ヒタチシ","town":"十王町友部","town_kana":"ジュウオウチョウトモベ","prefecture_code":8},"1303":{"zip_code":"3191303","prefecture":"茨城県","prefecture_kana":"イバラキケン","city":"日立市","city_kana":"ヒタチシ","town":"十王町友部東","town_kana":"ジュウオウチョウトモベヒガシ","prefecture_code":8},"1307":{"zip_code":"3191307","prefecture":"茨城県","prefecture_kana":"イバラキケン","city":"日立市","city_kana":"ヒタチシ","town":"十王町山部","town_kana":"ジュウオウチョウヤマベ","prefecture_code":8},"1416":{"zip_code":"3191416","prefecture":"茨城県","prefecture_kana":"イバラキケン","city":"日立市","city_kana":"ヒタチシ","town":"田尻町","town_kana":"タジリチョウ","prefecture_code":8},"1231":{"zip_code":"3191231","prefecture":"茨城県","prefecture_kana":"イバラキケン","city":"日立市","city_kana":"ヒタチシ","town":"留町","town_kana":"トメチョウ","prefecture_code":8},"1414":{"zip_code":"3191414","prefecture":"茨城県","prefecture_kana":"イバラキケン","city":"日立市","city_kana":"ヒタチシ","town":"日高町","town_kana":"ヒダカチョウ","prefecture_code":8},"1223":{"zip_code":"3191223","prefecture":"茨城県","prefecture_kana":"イバラキケン","city":"日立市","city_kana":"ヒタチシ","town":"みなと町","town_kana":"ミナトチョウ","prefecture_code":8},"1224":{"zip_code":"3191224","prefecture":"茨城県","prefecture_kana":"イバラキケン","city":"日立市","city_kana":"ヒタチシ","town":"南高野町","town_kana":"ミナミコウヤチョウ","prefecture_code":8},"1235":{"zip_code":"3191235","prefecture":"茨城県","prefecture_kana":"イバラキケン","city":"日立市","city_kana":"ヒタチシ","town":"茂宮町","town_kana":"モミヤチョウ","prefecture_code":8},"1500":{"zip_code":"3191500","prefecture":"茨城県","prefecture_kana":"イバラキケン","city":"北茨城市","city_kana":"キタイバラキシ","town":"","town_kana":"","prefecture_code":8},"1541":{"zip_code":"3191541","prefecture":"茨城県","prefecture_kana":"イバラキケン","city":"北茨城市","city_kana":"キタイバラキシ","town":"磯原町磯原","town_kana":"イソハラチョウイソハラ","prefecture_code":8},"1547":{"zip_code":"3191547","prefecture":"茨城県","prefecture_kana":"イバラキケン","city":"北茨城市","city_kana":"キタイバラキシ","town":"磯原町内野","town_kana":"イソハラチョウウツノ","prefecture_code":8},"1546":{"zip_code":"3191546","prefecture":"茨城県","prefecture_kana":"イバラキケン","city":"北茨城市","city_kana":"キタイバラキシ","town":"磯原町大塚","town_kana":"イソハラチョウオオツカ","prefecture_code":8},"1544":{"zip_code":"3191544","prefecture":"茨城県","prefecture_kana":"イバラキケン","city":"北茨城市","city_kana":"キタイバラキシ","town":"磯原町上相田","town_kana":"イソハラチョウカミソウダ","prefecture_code":8},"1545":{"zip_code":"3191545","prefecture":"茨城県","prefecture_kana":"イバラキケン","city":"北茨城市","city_kana":"キタイバラキシ","town":"磯原町木皿","town_kana":"イソハラチョウキサラ","prefecture_code":8},"1543":{"zip_code":"3191543","prefecture":"茨城県","prefecture_kana":"イバラキケン","city":"北茨城市","city_kana":"キタイバラキシ","town":"磯原町豊田","town_kana":"イソハラチョウトヨダ","prefecture_code":8},"1542":{"zip_code":"3191542","prefecture":"茨城県","prefecture_kana":"イバラキケン","city":"北茨城市","city_kana":"キタイバラキシ","town":"磯原町本町","town_kana":"イソハラチョウホンチョウ","prefecture_code":8},"1702":{"zip_code":"3191702","prefecture":"茨城県","prefecture_kana":"イバラキケン","city":"北茨城市","city_kana":"キタイバラキシ","town":"大津町","town_kana":"オオツチョウ","prefecture_code":8},"1703":{"zip_code":"3191703","prefecture":"茨城県","prefecture_kana":"イバラキケン","city":"北茨城市","city_kana":"キタイバラキシ","town":"大津町五浦","town_kana":"オオツチョウイヅラ","prefecture_code":8},"1704":{"zip_code":"3191704","prefecture":"茨城県","prefecture_kana":"イバラキケン","city":"北茨城市","city_kana":"キタイバラキシ","town":"大津町北町","town_kana":"オオツチョウキタチョウ","prefecture_code":8},"1714":{"zip_code":"3191714","prefecture":"茨城県","prefecture_kana":"イバラキケン","city":"北茨城市","city_kana":"キタイバラキシ","town":"関南町神岡上","town_kana":"セキナミチョウカミオカカミ","prefecture_code":8},"1715":{"zip_code":"3191715","prefecture":"茨城県","prefecture_kana":"イバラキケン","city":"北茨城市","city_kana":"キタイバラキシ","town":"関南町神岡下","town_kana":"セキナミチョウカミオカシモ","prefecture_code":8},"1712":{"zip_code":"3191712","prefecture":"茨城県","prefecture_kana":"イバラキケン","city":"北茨城市","city_kana":"キタイバラキシ","town":"関南町里根川","town_kana":"セキナミチョウサトネガワ","prefecture_code":8},"1711":{"zip_code":"3191711","prefecture":"茨城県","prefecture_kana":"イバラキケン","city":"北茨城市","city_kana":"キタイバラキシ","town":"関南町関本下","town_kana":"セキナミチョウセキモトシモ","prefecture_code":8},"1713":{"zip_code":"3191713","prefecture":"茨城県","prefecture_kana":"イバラキケン","city":"北茨城市","city_kana":"キタイバラキシ","town":"関南町仁井田","town_kana":"セキナミチョウニイダ","prefecture_code":8},"1727":{"zip_code":"3191727","prefecture":"茨城県","prefecture_kana":"イバラキケン","city":"北茨城市","city_kana":"キタイバラキシ","town":"関本町小川","town_kana":"セキモトチョウオガワ","prefecture_code":8},"1726":{"zip_code":"3191726","prefecture":"茨城県","prefecture_kana":"イバラキケン","city":"北茨城市","city_kana":"キタイバラキシ","town":"関本町才丸","town_kana":"セキモトチョウサイマル","prefecture_code":8},"1721":{"zip_code":"3191721","prefecture":"茨城県","prefecture_kana":"イバラキケン","city":"北茨城市","city_kana":"キタイバラキシ","town":"関本町関本上","town_kana":"セキモトチョウセキモトカミ","prefecture_code":8},"1723":{"zip_code":"3191723","prefecture":"茨城県","prefecture_kana":"イバラキケン","city":"北茨城市","city_kana":"キタイバラキシ","town":"関本町関本中","town_kana":"セキモトチョウセキモトナカ","prefecture_code":8},"1724":{"zip_code":"3191724","prefecture":"茨城県","prefecture_kana":"イバラキケン","city":"北茨城市","city_kana":"キタイバラキシ","town":"関本町八反","town_kana":"セキモトチョウハッタン","prefecture_code":8},"1722":{"zip_code":"3191722","prefecture":"茨城県","prefecture_kana":"イバラキケン","city":"北茨城市","city_kana":"キタイバラキシ","town":"関本町福田","town_kana":"セキモトチョウフクダ","prefecture_code":8},"1725":{"zip_code":"3191725","prefecture":"茨城県","prefecture_kana":"イバラキケン","city":"北茨城市","city_kana":"キタイバラキシ","town":"関本町富士ケ丘","town_kana":"セキモトチョウフジガオカ","prefecture_code":8},"1552":{"zip_code":"3191552","prefecture":"茨城県","prefecture_kana":"イバラキケン","city":"北茨城市","city_kana":"キタイバラキシ","town":"中郷町足洗","town_kana":"ナカゴウチョウアシアライ","prefecture_code":8},"1554":{"zip_code":"3191554","prefecture":"茨城県","prefecture_kana":"イバラキケン","city":"北茨城市","city_kana":"キタイバラキシ","town":"中郷町粟野","town_kana":"ナカゴウチョウアワノ","prefecture_code":8},"1558":{"zip_code":"3191558","prefecture":"茨城県","prefecture_kana":"イバラキケン","city":"北茨城市","city_kana":"キタイバラキシ","town":"中郷町石岡","town_kana":"ナカゴウチョウイシオカ","prefecture_code":8},"1555":{"zip_code":"3191555","prefecture":"茨城県","prefecture_kana":"イバラキケン","city":"北茨城市","city_kana":"キタイバラキシ","town":"中郷町小野矢指","town_kana":"ナカゴウチョウオノヤサシ","prefecture_code":8},"1559":{"zip_code":"3191559","prefecture":"茨城県","prefecture_kana":"イバラキケン","city":"北茨城市","city_kana":"キタイバラキシ","town":"中郷町上桜井","town_kana":"ナカゴウチョウカミサクライ","prefecture_code":8},"1553":{"zip_code":"3191553","prefecture":"茨城県","prefecture_kana":"イバラキケン","city":"北茨城市","city_kana":"キタイバラキシ","town":"中郷町汐見ケ丘","town_kana":"ナカゴウチョウシオミガオカ","prefecture_code":8},"1551":{"zip_code":"3191551","prefecture":"茨城県","prefecture_kana":"イバラキケン","city":"北茨城市","city_kana":"キタイバラキシ","town":"中郷町下桜井","town_kana":"ナカゴウチョウシモサクライ","prefecture_code":8},"1556":{"zip_code":"3191556","prefecture":"茨城県","prefecture_kana":"イバラキケン","city":"北茨城市","city_kana":"キタイバラキシ","town":"中郷町日棚","town_kana":"ナカゴウチョウヒタナ","prefecture_code":8},"1557":{"zip_code":"3191557","prefecture":"茨城県","prefecture_kana":"イバラキケン","city":"北茨城市","city_kana":"キタイバラキシ","town":"中郷町松井","town_kana":"ナカゴウチョウマツイ","prefecture_code":8},"1538":{"zip_code":"3191538","prefecture":"茨城県","prefecture_kana":"イバラキケン","city":"北茨城市","city_kana":"キタイバラキシ","town":"華川町小豆畑","town_kana":"ハナカワチョウアズハタ","prefecture_code":8},"1535":{"zip_code":"3191535","prefecture":"茨城県","prefecture_kana":"イバラキケン","city":"北茨城市","city_kana":"キタイバラキシ","town":"華川町臼場","town_kana":"ハナカワチョウウスバ","prefecture_code":8},"1532":{"zip_code":"3191532","prefecture":"茨城県","prefecture_kana":"イバラキケン","city":"北茨城市","city_kana":"キタイバラキシ","town":"華川町上小津田","town_kana":"ハナカワチョウカミコツダ","prefecture_code":8},"1533":{"zip_code":"3191533","prefecture":"茨城県","prefecture_kana":"イバラキケン","city":"北茨城市","city_kana":"キタイバラキシ","town":"華川町下小津田","town_kana":"ハナカワチョウシモコツダ","prefecture_code":8},"1534":{"zip_code":"3191534","prefecture":"茨城県","prefecture_kana":"イバラキケン","city":"北茨城市","city_kana":"キタイバラキシ","town":"華川町車","town_kana":"ハナカワチョウクルマ","prefecture_code":8},"1537":{"zip_code":"3191537","prefecture":"茨城県","prefecture_kana":"イバラキケン","city":"北茨城市","city_kana":"キタイバラキシ","town":"華川町下相田","town_kana":"ハナカワチョウシモソウダ","prefecture_code":8},"1536":{"zip_code":"3191536","prefecture":"茨城県","prefecture_kana":"イバラキケン","city":"北茨城市","city_kana":"キタイバラキシ","town":"華川町中妻","town_kana":"ハナカワチョウナカツマ","prefecture_code":8},"1531":{"zip_code":"3191531","prefecture":"茨城県","prefecture_kana":"イバラキケン","city":"北茨城市","city_kana":"キタイバラキシ","town":"華川町花園","town_kana":"ハナカワチョウハナゾノ","prefecture_code":8},"1701":{"zip_code":"3191701","prefecture":"茨城県","prefecture_kana":"イバラキケン","city":"北茨城市","city_kana":"キタイバラキシ","town":"平潟町","town_kana":"ヒラカタチョウ","prefecture_code":8},"0206":{"zip_code":"3190206","prefecture":"茨城県","prefecture_kana":"イバラキケン","city":"笠間市","city_kana":"カサマシ","town":"安居","town_kana":"アゴ","prefecture_code":8},"0209":{"zip_code":"3190209","prefecture":"茨城県","prefecture_kana":"イバラキケン","city":"笠間市","city_kana":"カサマシ","town":"泉","town_kana":"イズミ","prefecture_code":8},"0208":{"zip_code":"3190208","prefecture":"茨城県","prefecture_kana":"イバラキケン","city":"笠間市","city_kana":"カサマシ","town":"市野谷","town_kana":"イチノヤ","prefecture_code":8},"0205":{"zip_code":"3190205","prefecture":"茨城県","prefecture_kana":"イバラキケン","city":"笠間市","city_kana":"カサマシ","town":"押辺","town_kana":"オシノベ","prefecture_code":8},"0201":{"zip_code":"3190201","prefecture":"茨城県","prefecture_kana":"イバラキケン","city":"笠間市","city_kana":"カサマシ","town":"上郷","town_kana":"カミゴウ","prefecture_code":8},"0202":{"zip_code":"3190202","prefecture":"茨城県","prefecture_kana":"イバラキケン","city":"笠間市","city_kana":"カサマシ","town":"下郷","town_kana":"シモゴウ","prefecture_code":8},"0204":{"zip_code":"3190204","prefecture":"茨城県","prefecture_kana":"イバラキケン","city":"笠間市","city_kana":"カサマシ","town":"土師","town_kana":"ハジ","prefecture_code":8},"0207":{"zip_code":"3190207","prefecture":"茨城県","prefecture_kana":"イバラキケン","city":"笠間市","city_kana":"カサマシ","town":"福島","town_kana":"フクシマ","prefecture_code":8},"0203":{"zip_code":"3190203","prefecture":"茨城県","prefecture_kana":"イバラキケン","city":"笠間市","city_kana":"カサマシ","town":"吉岡","town_kana":"ヨシオカ","prefecture_code":8},"2200":{"zip_code":"3192200","prefecture":"茨城県","prefecture_kana":"イバラキケン","city":"常陸大宮市","city_kana":"ヒタチオオミヤシ","town":"","town_kana":"","prefecture_code":8},"2135":{"zip_code":"3192135","prefecture":"茨城県","prefecture_kana":"イバラキケン","city":"常陸大宮市","city_kana":"ヒタチオオミヤシ","town":"石沢","town_kana":"イシザワ","prefecture_code":8},"2144":{"zip_code":"3192144","prefecture":"茨城県","prefecture_kana":"イバラキケン","city":"常陸大宮市","city_kana":"ヒタチオオミヤシ","town":"泉","town_kana":"イズミ","prefecture_code":8},"2415":{"zip_code":"3192415","prefecture":"茨城県","prefecture_kana":"イバラキケン","city":"常陸大宮市","city_kana":"ヒタチオオミヤシ","town":"入本郷","town_kana":"イリホンゴウ","prefecture_code":8},"2211":{"zip_code":"3192211","prefecture":"茨城県","prefecture_kana":"イバラキケン","city":"常陸大宮市","city_kana":"ヒタチオオミヤシ","town":"岩崎","town_kana":"イワザキ","prefecture_code":8},"2251":{"zip_code":"3192251","prefecture":"茨城県","prefecture_kana":"イバラキケン","city":"常陸大宮市","city_kana":"ヒタチオオミヤシ","town":"姥賀町","town_kana":"ウバガチョウ","prefecture_code":8},"2145":{"zip_code":"3192145","prefecture":"茨城県","prefecture_kana":"イバラキケン","city":"常陸大宮市","city_kana":"ヒタチオオミヤシ","town":"宇留野","town_kana":"ウルノ","prefecture_code":8},"2418":{"zip_code":"3192418","prefecture":"茨城県","prefecture_kana":"イバラキケン","city":"常陸大宮市","city_kana":"ヒタチオオミヤシ","town":"大岩","town_kana":"オオイワ","prefecture_code":8},"2203":{"zip_code":"3192203","prefecture":"茨城県","prefecture_kana":"イバラキケン","city":"常陸大宮市","city_kana":"ヒタチオオミヤシ","town":"小倉","town_kana":"オグラ","prefecture_code":8},"3116":{"zip_code":"3193116","prefecture":"茨城県","prefecture_kana":"イバラキケン","city":"常陸大宮市","city_kana":"ヒタチオオミヤシ","town":"長田","town_kana":"オサダ","prefecture_code":8},"2412":{"zip_code":"3192412","prefecture":"茨城県","prefecture_kana":"イバラキケン","city":"常陸大宮市","city_kana":"ヒタチオオミヤシ","town":"小瀬沢","town_kana":"オセザワ","prefecture_code":8},"2602":{"zip_code":"3192602","prefecture":"茨城県","prefecture_kana":"イバラキケン","city":"常陸大宮市","city_kana":"ヒタチオオミヤシ","town":"小田野","town_kana":"オタノ","prefecture_code":8},"2405":{"zip_code":"3192405","prefecture":"茨城県","prefecture_kana":"イバラキケン","city":"常陸大宮市","city_kana":"ヒタチオオミヤシ","town":"小玉","town_kana":"オダマ","prefecture_code":8},"3112":{"zip_code":"3193112","prefecture":"茨城県","prefecture_kana":"イバラキケン","city":"常陸大宮市","city_kana":"ヒタチオオミヤシ","town":"小貫","town_kana":"オヌキ","prefecture_code":8},"2133":{"zip_code":"3192133","prefecture":"茨城県","prefecture_kana":"イバラキケン","city":"常陸大宮市","city_kana":"ヒタチオオミヤシ","town":"小野","town_kana":"オノ","prefecture_code":8},"2132":{"zip_code":"3192132","prefecture":"茨城県","prefecture_kana":"イバラキケン","city":"常陸大宮市","city_kana":"ヒタチオオミヤシ","town":"小場","town_kana":"オバ","prefecture_code":8},"2142":{"zip_code":"3192142","prefecture":"茨城県","prefecture_kana":"イバラキケン","city":"常陸大宮市","city_kana":"ヒタチオオミヤシ","town":"上岩瀬","town_kana":"カミイワセ","prefecture_code":8},"2212":{"zip_code":"3192212","prefecture":"茨城県","prefecture_kana":"イバラキケン","city":"常陸大宮市","city_kana":"ヒタチオオミヤシ","town":"上大賀","town_kana":"カミオオガ","prefecture_code":8},"2401":{"zip_code":"3192401","prefecture":"茨城県","prefecture_kana":"イバラキケン","city":"常陸大宮市","city_kana":"ヒタチオオミヤシ","town":"上小瀬","town_kana":"カミオセ","prefecture_code":8},"2261":{"zip_code":"3192261","prefecture":"茨城県","prefecture_kana":"イバラキケン","city":"常陸大宮市","city_kana":"ヒタチオオミヤシ","town":"上町","town_kana":"カミチョウ","prefecture_code":8},"2511":{"zip_code":"3192511","prefecture":"茨城県","prefecture_kana":"イバラキケン","city":"常陸大宮市","city_kana":"ヒタチオオミヤシ","town":"上檜沢","town_kana":"カミヒザワ","prefecture_code":8},"2136":{"zip_code":"3192136","prefecture":"茨城県","prefecture_kana":"イバラキケン","city":"常陸大宮市","city_kana":"ヒタチオオミヤシ","town":"上村田","town_kana":"カミムラタ","prefecture_code":8},"2226":{"zip_code":"3192226","prefecture":"茨城県","prefecture_kana":"イバラキケン","city":"常陸大宮市","city_kana":"ヒタチオオミヤシ","town":"北塩子","town_kana":"キタシオゴ","prefecture_code":8},"2254":{"zip_code":"3192254","prefecture":"茨城県","prefecture_kana":"イバラキケン","city":"常陸大宮市","city_kana":"ヒタチオオミヤシ","town":"北町","town_kana":"キタチョウ","prefecture_code":8},"3104":{"zip_code":"3193104","prefecture":"茨城県","prefecture_kana":"イバラキケン","city":"常陸大宮市","city_kana":"ヒタチオオミヤシ","town":"北富田","town_kana":"キタトミダ","prefecture_code":8},"2404":{"zip_code":"3192404","prefecture":"茨城県","prefecture_kana":"イバラキケン","city":"常陸大宮市","city_kana":"ヒタチオオミヤシ","town":"国長","town_kana":"クニオサ","prefecture_code":8},"3101":{"zip_code":"3193101","prefecture":"茨城県","prefecture_kana":"イバラキケン","city":"常陸大宮市","city_kana":"ヒタチオオミヤシ","town":"久隆","town_kana":"クリュウ","prefecture_code":8},"2213":{"zip_code":"3192213","prefecture":"茨城県","prefecture_kana":"イバラキケン","city":"常陸大宮市","city_kana":"ヒタチオオミヤシ","town":"小祝","town_kana":"コイワイ","prefecture_code":8},"2134":{"zip_code":"3192134","prefecture":"茨城県","prefecture_kana":"イバラキケン","city":"常陸大宮市","city_kana":"ヒタチオオミヤシ","town":"工業団地","town_kana":"コウギョウダンチ","prefecture_code":8},"2411":{"zip_code":"3192411","prefecture":"茨城県","prefecture_kana":"イバラキケン","city":"常陸大宮市","city_kana":"ヒタチオオミヤシ","town":"小舟","town_kana":"コブネ","prefecture_code":8},"2264":{"zip_code":"3192264","prefecture":"茨城県","prefecture_kana":"イバラキケン","city":"常陸大宮市","city_kana":"ヒタチオオミヤシ","town":"栄町","town_kana":"サカエチョウ","prefecture_code":8},"2202":{"zip_code":"3192202","prefecture":"茨城県","prefecture_kana":"イバラキケン","city":"常陸大宮市","city_kana":"ヒタチオオミヤシ","town":"塩原","town_kana":"シオバラ","prefecture_code":8},"2141":{"zip_code":"3192141","prefecture":"茨城県","prefecture_kana":"イバラキケン","city":"常陸大宮市","city_kana":"ヒタチオオミヤシ","town":"下岩瀬","town_kana":"シモイワセ","prefecture_code":8},"2402":{"zip_code":"3192402","prefecture":"茨城県","prefecture_kana":"イバラキケン","city":"常陸大宮市","city_kana":"ヒタチオオミヤシ","town":"下小瀬","town_kana":"シモオセ","prefecture_code":8},"2262":{"zip_code":"3192262","prefecture":"茨城県","prefecture_kana":"イバラキケン","city":"常陸大宮市","city_kana":"ヒタチオオミヤシ","town":"下町","town_kana":"シモチョウ","prefecture_code":8},"2512":{"zip_code":"3192512","prefecture":"茨城県","prefecture_kana":"イバラキケン","city":"常陸大宮市","city_kana":"ヒタチオオミヤシ","town":"下檜沢","town_kana":"シモヒザワ","prefecture_code":8},"2131":{"zip_code":"3192131","prefecture":"茨城県","prefecture_kana":"イバラキケン","city":"常陸大宮市","city_kana":"ヒタチオオミヤシ","town":"下村田","town_kana":"シモムラタ","prefecture_code":8},"2416":{"zip_code":"3192416","prefecture":"茨城県","prefecture_kana":"イバラキケン","city":"常陸大宮市","city_kana":"ヒタチオオミヤシ","town":"千田","town_kana":"センダ","prefecture_code":8},"2214":{"zip_code":"3192214","prefecture":"茨城県","prefecture_kana":"イバラキケン","city":"常陸大宮市","city_kana":"ヒタチオオミヤシ","town":"鷹巣","town_kana":"タカス","prefecture_code":8},"2601":{"zip_code":"3192601","prefecture":"茨城県","prefecture_kana":"イバラキケン","city":"常陸大宮市","city_kana":"ヒタチオオミヤシ","town":"高部","town_kana":"タカブ","prefecture_code":8},"2253":{"zip_code":"3192253","prefecture":"茨城県","prefecture_kana":"イバラキケン","city":"常陸大宮市","city_kana":"ヒタチオオミヤシ","town":"高渡町","town_kana":"タカワタリチョウ","prefecture_code":8},"2256":{"zip_code":"3192256","prefecture":"茨城県","prefecture_kana":"イバラキケン","city":"常陸大宮市","city_kana":"ヒタチオオミヤシ","town":"田子内町","town_kana":"タゴウチチョウ","prefecture_code":8},"2201":{"zip_code":"3192201","prefecture":"茨城県","prefecture_kana":"イバラキケン","city":"常陸大宮市","city_kana":"ヒタチオオミヤシ","town":"辰ノ口","town_kana":"タツノクチ","prefecture_code":8},"2227":{"zip_code":"3192227","prefecture":"茨城県","prefecture_kana":"イバラキケン","city":"常陸大宮市","city_kana":"ヒタチオオミヤシ","town":"照田","town_kana":"テルダ","prefecture_code":8},"3115":{"zip_code":"3193115","prefecture":"茨城県","prefecture_kana":"イバラキケン","city":"常陸大宮市","city_kana":"ヒタチオオミヤシ","town":"照田","town_kana":"テルダ","prefecture_code":8},"3113":{"zip_code":"3193113","prefecture":"茨城県","prefecture_kana":"イバラキケン","city":"常陸大宮市","city_kana":"ヒタチオオミヤシ","town":"照山","town_kana":"テルヤマ","prefecture_code":8},"2224":{"zip_code":"3192224","prefecture":"茨城県","prefecture_kana":"イバラキケン","city":"常陸大宮市","city_kana":"ヒタチオオミヤシ","town":"東野","town_kana":"トウノ","prefecture_code":8},"2204":{"zip_code":"3192204","prefecture":"茨城県","prefecture_kana":"イバラキケン","city":"常陸大宮市","city_kana":"ヒタチオオミヤシ","town":"富岡","town_kana":"トミオカ","prefecture_code":8},"2603":{"zip_code":"3192603","prefecture":"茨城県","prefecture_kana":"イバラキケン","city":"常陸大宮市","city_kana":"ヒタチオオミヤシ","town":"鷲子","town_kana":"トリノコ","prefecture_code":8},"2403":{"zip_code":"3192403","prefecture":"茨城県","prefecture_kana":"イバラキケン","city":"常陸大宮市","city_kana":"ヒタチオオミヤシ","town":"那賀","town_kana":"ナカ","prefecture_code":8},"3117":{"zip_code":"3193117","prefecture":"茨城県","prefecture_kana":"イバラキケン","city":"常陸大宮市","city_kana":"ヒタチオオミヤシ","town":"長沢","town_kana":"ナガサワ","prefecture_code":8},"2265":{"zip_code":"3192265","prefecture":"茨城県","prefecture_kana":"イバラキケン","city":"常陸大宮市","city_kana":"ヒタチオオミヤシ","town":"中富町","town_kana":"ナカトミチョウ","prefecture_code":8},"2225":{"zip_code":"3192225","prefecture":"茨城県","prefecture_kana":"イバラキケン","city":"常陸大宮市","city_kana":"ヒタチオオミヤシ","town":"西塩子","town_kana":"ニシシオゴ","prefecture_code":8},"3106":{"zip_code":"3193106","prefecture":"茨城県","prefecture_kana":"イバラキケン","city":"常陸大宮市","city_kana":"ヒタチオオミヤシ","town":"西野内","town_kana":"ニシノウチ","prefecture_code":8},"2143":{"zip_code":"3192143","prefecture":"茨城県","prefecture_kana":"イバラキケン","city":"常陸大宮市","city_kana":"ヒタチオオミヤシ","town":"根本","town_kana":"ネモト","prefecture_code":8},"3114":{"zip_code":"3193114","prefecture":"茨城県","prefecture_kana":"イバラキケン","city":"常陸大宮市","city_kana":"ヒタチオオミヤシ","town":"野上","town_kana":"ノガミ","prefecture_code":8},"2255":{"zip_code":"3192255","prefecture":"茨城県","prefecture_kana":"イバラキケン","city":"常陸大宮市","city_kana":"ヒタチオオミヤシ","town":"野中町","town_kana":"ノナカチョウ","prefecture_code":8},"2221":{"zip_code":"3192221","prefecture":"茨城県","prefecture_kana":"イバラキケン","city":"常陸大宮市","city_kana":"ヒタチオオミヤシ","town":"八田","town_kana":"ハッタ","prefecture_code":8},"2252":{"zip_code":"3192252","prefecture":"茨城県","prefecture_kana":"イバラキケン","city":"常陸大宮市","city_kana":"ヒタチオオミヤシ","town":"東富町","town_kana":"ヒガシトミチョウ","prefecture_code":8},"2513":{"zip_code":"3192513","prefecture":"茨城県","prefecture_kana":"イバラキケン","city":"常陸大宮市","city_kana":"ヒタチオオミヤシ","town":"氷之沢","town_kana":"ヒノサワ","prefecture_code":8},"3107":{"zip_code":"3193107","prefecture":"茨城県","prefecture_kana":"イバラキケン","city":"常陸大宮市","city_kana":"ヒタチオオミヤシ","town":"舟生","town_kana":"フニュウ","prefecture_code":8},"2413":{"zip_code":"3192413","prefecture":"茨城県","prefecture_kana":"イバラキケン","city":"常陸大宮市","city_kana":"ヒタチオオミヤシ","town":"松之草","town_kana":"マツノクサ","prefecture_code":8},"2263":{"zip_code":"3192263","prefecture":"茨城県","prefecture_kana":"イバラキケン","city":"常陸大宮市","city_kana":"ヒタチオオミヤシ","town":"南町","town_kana":"ミナミチョウ","prefecture_code":8},"2205":{"zip_code":"3192205","prefecture":"茨城県","prefecture_kana":"イバラキケン","city":"常陸大宮市","city_kana":"ヒタチオオミヤシ","town":"宮の郷","town_kana":"ミヤノサト","prefecture_code":8},"2223":{"zip_code":"3192223","prefecture":"茨城県","prefecture_kana":"イバラキケン","city":"常陸大宮市","city_kana":"ヒタチオオミヤシ","town":"三美","town_kana":"ミヨシ","prefecture_code":8},"3102":{"zip_code":"3193102","prefecture":"茨城県","prefecture_kana":"イバラキケン","city":"常陸大宮市","city_kana":"ヒタチオオミヤシ","town":"盛金","town_kana":"モリガネ","prefecture_code":8},"3105":{"zip_code":"3193105","prefecture":"茨城県","prefecture_kana":"イバラキケン","city":"常陸大宮市","city_kana":"ヒタチオオミヤシ","town":"諸沢","town_kana":"モロザワ","prefecture_code":8},"3111":{"zip_code":"3193111","prefecture":"茨城県","prefecture_kana":"イバラキケン","city":"常陸大宮市","city_kana":"ヒタチオオミヤシ","town":"山方","town_kana":"ヤマガタ","prefecture_code":8},"3103":{"zip_code":"3193103","prefecture":"茨城県","prefecture_kana":"イバラキケン","city":"常陸大宮市","city_kana":"ヒタチオオミヤシ","town":"家和楽","town_kana":"ヤワラ","prefecture_code":8},"2266":{"zip_code":"3192266","prefecture":"茨城県","prefecture_kana":"イバラキケン","city":"常陸大宮市","city_kana":"ヒタチオオミヤシ","town":"抽ケ台町","town_kana":"ユガダイチョウ","prefecture_code":8},"2417":{"zip_code":"3192417","prefecture":"茨城県","prefecture_kana":"イバラキケン","city":"常陸大宮市","city_kana":"ヒタチオオミヤシ","town":"油河内","town_kana":"ユゴウト","prefecture_code":8},"2414":{"zip_code":"3192414","prefecture":"茨城県","prefecture_kana":"イバラキケン","city":"常陸大宮市","city_kana":"ヒタチオオミヤシ","town":"吉丸","town_kana":"ヨシマル","prefecture_code":8},"2222":{"zip_code":"3192222","prefecture":"茨城県","prefecture_kana":"イバラキケン","city":"常陸大宮市","city_kana":"ヒタチオオミヤシ","town":"若林","town_kana":"ワカバヤシ","prefecture_code":8},"2102":{"zip_code":"3192102","prefecture":"茨城県","prefecture_kana":"イバラキケン","city":"那珂市","city_kana":"ナカシ","town":"瓜連","town_kana":"ウリヅラ","prefecture_code":8},"2105":{"zip_code":"3192105","prefecture":"茨城県","prefecture_kana":"イバラキケン","city":"那珂市","city_kana":"ナカシ","town":"古徳","town_kana":"コトク","prefecture_code":8},"2106":{"zip_code":"3192106","prefecture":"茨城県","prefecture_kana":"イバラキケン","city":"那珂市","city_kana":"ナカシ","town":"静","town_kana":"シズ","prefecture_code":8},"2107":{"zip_code":"3192107","prefecture":"茨城県","prefecture_kana":"イバラキケン","city":"那珂市","city_kana":"ナカシ","town":"下大賀","town_kana":"シモオオガ","prefecture_code":8},"2103":{"zip_code":"3192103","prefecture":"茨城県","prefecture_kana":"イバラキケン","city":"那珂市","city_kana":"ナカシ","town":"中里","town_kana":"ナカザト","prefecture_code":8},"2104":{"zip_code":"3192104","prefecture":"茨城県","prefecture_kana":"イバラキケン","city":"那珂市","city_kana":"ナカシ","town":"平野","town_kana":"ヒラノ","prefecture_code":8},"0100":{"zip_code":"3190100","prefecture":"茨城県","prefecture_kana":"イバラキケン","city":"小美玉市","city_kana":"オミタマシ","town":"","town_kana":"","prefecture_code":8},"0122":{"zip_code":"3190122","prefecture":"茨城県","prefecture_kana":"イバラキケン","city":"小美玉市","city_kana":"オミタマシ","town":"江戸","town_kana":"エド","prefecture_code":8},"0137":{"zip_code":"3190137","prefecture":"茨城県","prefecture_kana":"イバラキケン","city":"小美玉市","city_kana":"オミタマシ","town":"大笹","town_kana":"オオザサ","prefecture_code":8},"0126":{"zip_code":"3190126","prefecture":"茨城県","prefecture_kana":"イバラキケン","city":"小美玉市","city_kana":"オミタマシ","town":"大谷","town_kana":"オオヤ","prefecture_code":8},"0125":{"zip_code":"3190125","prefecture":"茨城県","prefecture_kana":"イバラキケン","city":"小美玉市","city_kana":"オミタマシ","town":"小曽納","town_kana":"オソノウ","prefecture_code":8},"0106":{"zip_code":"3190106","prefecture":"茨城県","prefecture_kana":"イバラキケン","city":"小美玉市","city_kana":"オミタマシ","town":"堅倉","town_kana":"カタクラ","prefecture_code":8},"0115":{"zip_code":"3190115","prefecture":"茨城県","prefecture_kana":"イバラキケン","city":"小美玉市","city_kana":"オミタマシ","town":"上馬場","town_kana":"カミババ","prefecture_code":8},"0107":{"zip_code":"3190107","prefecture":"茨城県","prefecture_kana":"イバラキケン","city":"小美玉市","city_kana":"オミタマシ","town":"小岩戸","town_kana":"コイワト","prefecture_code":8},"0102":{"zip_code":"3190102","prefecture":"茨城県","prefecture_kana":"イバラキケン","city":"小美玉市","city_kana":"オミタマシ","town":"西郷地","town_kana":"サイゴウチ","prefecture_code":8},"0104":{"zip_code":"3190104","prefecture":"茨城県","prefecture_kana":"イバラキケン","city":"小美玉市","city_kana":"オミタマシ","town":"三箇","town_kana":"サンガ","prefecture_code":8},"0103":{"zip_code":"3190103","prefecture":"茨城県","prefecture_kana":"イバラキケン","city":"小美玉市","city_kana":"オミタマシ","town":"柴高","town_kana":"シバタカ","prefecture_code":8},"0135":{"zip_code":"3190135","prefecture":"茨城県","prefecture_kana":"イバラキケン","city":"小美玉市","city_kana":"オミタマシ","town":"高田","town_kana":"タカダ","prefecture_code":8},"0113":{"zip_code":"3190113","prefecture":"茨城県","prefecture_kana":"イバラキケン","city":"小美玉市","city_kana":"オミタマシ","town":"竹原","town_kana":"タケハラ","prefecture_code":8},"0112":{"zip_code":"3190112","prefecture":"茨城県","prefecture_kana":"イバラキケン","city":"小美玉市","city_kana":"オミタマシ","town":"竹原下郷","town_kana":"タケハラシモゴウ","prefecture_code":8},"0114":{"zip_code":"3190114","prefecture":"茨城県","prefecture_kana":"イバラキケン","city":"小美玉市","city_kana":"オミタマシ","town":"竹原中郷","town_kana":"タケハラナカゴウ","prefecture_code":8},"0105":{"zip_code":"3190105","prefecture":"茨城県","prefecture_kana":"イバラキケン","city":"小美玉市","city_kana":"オミタマシ","town":"鶴田","town_kana":"ツルタ","prefecture_code":8},"0136":{"zip_code":"3190136","prefecture":"茨城県","prefecture_kana":"イバラキケン","city":"小美玉市","city_kana":"オミタマシ","town":"手堤","town_kana":"テツヅミ","prefecture_code":8},"0131":{"zip_code":"3190131","prefecture":"茨城県","prefecture_kana":"イバラキケン","city":"小美玉市","city_kana":"オミタマシ","town":"寺崎","town_kana":"テラザキ","prefecture_code":8},"0116":{"zip_code":"3190116","prefecture":"茨城県","prefecture_kana":"イバラキケン","city":"小美玉市","city_kana":"オミタマシ","town":"中台","town_kana":"ナカダイ","prefecture_code":8},"0111":{"zip_code":"3190111","prefecture":"茨城県","prefecture_kana":"イバラキケン","city":"小美玉市","city_kana":"オミタマシ","town":"中野谷","town_kana":"ナカノヤ","prefecture_code":8},"0134":{"zip_code":"3190134","prefecture":"茨城県","prefecture_kana":"イバラキケン","city":"小美玉市","city_kana":"オミタマシ","town":"納場","town_kana":"ノウバ","prefecture_code":8},"0121":{"zip_code":"3190121","prefecture":"茨城県","prefecture_kana":"イバラキケン","city":"小美玉市","city_kana":"オミタマシ","town":"羽刈","town_kana":"ハカリ","prefecture_code":8},"0101":{"zip_code":"3190101","prefecture":"茨城県","prefecture_kana":"イバラキケン","city":"小美玉市","city_kana":"オミタマシ","town":"橋場美","town_kana":"ハシバミ","prefecture_code":8},"0123":{"zip_code":"3190123","prefecture":"茨城県","prefecture_kana":"イバラキケン","city":"小美玉市","city_kana":"オミタマシ","town":"羽鳥","town_kana":"ハトリ","prefecture_code":8},"0124":{"zip_code":"3190124","prefecture":"茨城県","prefecture_kana":"イバラキケン","city":"小美玉市","city_kana":"オミタマシ","town":"花野井","town_kana":"ハナノイ","prefecture_code":8},"0133":{"zip_code":"3190133","prefecture":"茨城県","prefecture_kana":"イバラキケン","city":"小美玉市","city_kana":"オミタマシ","town":"張星","town_kana":"ハリホシ","prefecture_code":8},"0132":{"zip_code":"3190132","prefecture":"茨城県","prefecture_kana":"イバラキケン","city":"小美玉市","city_kana":"オミタマシ","town":"部室","town_kana":"ヘムロ","prefecture_code":8},"0108":{"zip_code":"3190108","prefecture":"茨城県","prefecture_kana":"イバラキケン","city":"小美玉市","city_kana":"オミタマシ","town":"先後","town_kana":"マツノチ","prefecture_code":8},"1100":{"zip_code":"3191100","prefecture":"茨城県","prefecture_kana":"イバラキケン","city":"那珂郡東海村","city_kana":"ナカグントウカイムラ","town":"","town_kana":"","prefecture_code":8},"1102":{"zip_code":"3191102","prefecture":"茨城県","prefecture_kana":"イバラキケン","city":"那珂郡東海村","city_kana":"ナカグントウカイムラ","town":"石神内宿","town_kana":"イシガミウチジュク","prefecture_code":8},"1101":{"zip_code":"3191101","prefecture":"茨城県","prefecture_kana":"イバラキケン","city":"那珂郡東海村","city_kana":"ナカグントウカイムラ","town":"石神外宿","town_kana":"イシガミトジュク","prefecture_code":8},"1104":{"zip_code":"3191104","prefecture":"茨城県","prefecture_kana":"イバラキケン","city":"那珂郡東海村","city_kana":"ナカグントウカイムラ","town":"亀下","town_kana":"カメシタ","prefecture_code":8},"1106":{"zip_code":"3191106","prefecture":"茨城県","prefecture_kana":"イバラキケン","city":"那珂郡東海村","city_kana":"ナカグントウカイムラ","town":"白方","town_kana":"シラカタ","prefecture_code":8},"1109":{"zip_code":"3191109","prefecture":"茨城県","prefecture_kana":"イバラキケン","city":"那珂郡東海村","city_kana":"ナカグントウカイムラ","town":"白方中央","town_kana":"シラカタチュウオウ","prefecture_code":8},"1114":{"zip_code":"3191114","prefecture":"茨城県","prefecture_kana":"イバラキケン","city":"那珂郡東海村","city_kana":"ナカグントウカイムラ","town":"須和間","town_kana":"スワマ","prefecture_code":8},"1103":{"zip_code":"3191103","prefecture":"茨城県","prefecture_kana":"イバラキケン","city":"那珂郡東海村","city_kana":"ナカグントウカイムラ","town":"竹瓦","town_kana":"タケガワラ","prefecture_code":8},"1113":{"zip_code":"3191113","prefecture":"茨城県","prefecture_kana":"イバラキケン","city":"那珂郡東海村","city_kana":"ナカグントウカイムラ","town":"照沼","town_kana":"テルヌマ","prefecture_code":8},"1117":{"zip_code":"3191117","prefecture":"茨城県","prefecture_kana":"イバラキケン","city":"那珂郡東海村","city_kana":"ナカグントウカイムラ","town":"東海","town_kana":"トウカイ","prefecture_code":8},"1105":{"zip_code":"3191105","prefecture":"茨城県","prefecture_kana":"イバラキケン","city":"那珂郡東海村","city_kana":"ナカグントウカイムラ","town":"豊岡","town_kana":"トヨオカ","prefecture_code":8},"1107":{"zip_code":"3191107","prefecture":"茨城県","prefecture_kana":"イバラキケン","city":"那珂郡東海村","city_kana":"ナカグントウカイムラ","town":"豊白","town_kana":"トヨシロ","prefecture_code":8},"1111":{"zip_code":"3191111","prefecture":"茨城県","prefecture_kana":"イバラキケン","city":"那珂郡東海村","city_kana":"ナカグントウカイムラ","town":"舟石川","town_kana":"フナイシカワ","prefecture_code":8},"1116":{"zip_code":"3191116","prefecture":"茨城県","prefecture_kana":"イバラキケン","city":"那珂郡東海村","city_kana":"ナカグントウカイムラ","town":"舟石川駅西","town_kana":"フナイシカワエキニシ","prefecture_code":8},"1118":{"zip_code":"3191118","prefecture":"茨城県","prefecture_kana":"イバラキケン","city":"那珂郡東海村","city_kana":"ナカグントウカイムラ","town":"舟石川駅東","town_kana":"フナイシカワエキヒガシ","prefecture_code":8},"1115":{"zip_code":"3191115","prefecture":"茨城県","prefecture_kana":"イバラキケン","city":"那珂郡東海村","city_kana":"ナカグントウカイムラ","town":"船場","town_kana":"フナバ","prefecture_code":8},"1112":{"zip_code":"3191112","prefecture":"茨城県","prefecture_kana":"イバラキケン","city":"那珂郡東海村","city_kana":"ナカグントウカイムラ","town":"村松","town_kana":"ムラマツ","prefecture_code":8},"1108":{"zip_code":"3191108","prefecture":"茨城県","prefecture_kana":"イバラキケン","city":"那珂郡東海村","city_kana":"ナカグントウカイムラ","town":"村松北","town_kana":"ムラマツキタ","prefecture_code":8},"3500":{"zip_code":"3193500","prefecture":"茨城県","prefecture_kana":"イバラキケン","city":"久慈郡大子町","city_kana":"クジグンダイゴマチ","town":"","town_kana":"","prefecture_code":8},"3534":{"zip_code":"3193534","prefecture":"茨城県","prefecture_kana":"イバラキケン","city":"久慈郡大子町","city_kana":"クジグンダイゴマチ","town":"相川","town_kana":"アイカワ","prefecture_code":8},"3541":{"zip_code":"3193541","prefecture":"茨城県","prefecture_kana":"イバラキケン","city":"久慈郡大子町","city_kana":"クジグンダイゴマチ","town":"浅川","town_kana":"アサカワ","prefecture_code":8},"3538":{"zip_code":"3193538","prefecture":"茨城県","prefecture_kana":"イバラキケン","city":"久慈郡大子町","city_kana":"クジグンダイゴマチ","town":"芦野倉","town_kana":"アシノクラ","prefecture_code":8},"3551":{"zip_code":"3193551","prefecture":"茨城県","prefecture_kana":"イバラキケン","city":"久慈郡大子町","city_kana":"クジグンダイゴマチ","town":"池田","town_kana":"イケダ","prefecture_code":8},"3515":{"zip_code":"3193515","prefecture":"茨城県","prefecture_kana":"イバラキケン","city":"久慈郡大子町","city_kana":"クジグンダイゴマチ","town":"内大野","town_kana":"ウチオオノ","prefecture_code":8},"3531":{"zip_code":"3193531","prefecture":"茨城県","prefecture_kana":"イバラキケン","city":"久慈郡大子町","city_kana":"クジグンダイゴマチ","town":"上岡","town_kana":"ウワオカ","prefecture_code":8},"3366":{"zip_code":"3193366","prefecture":"茨城県","prefecture_kana":"イバラキケン","city":"久慈郡大子町","city_kana":"クジグンダイゴマチ","town":"大沢","town_kana":"オオサワ","prefecture_code":8},"3513":{"zip_code":"3193513","prefecture":"茨城県","prefecture_kana":"イバラキケン","city":"久慈郡大子町","city_kana":"クジグンダイゴマチ","town":"大生瀬","town_kana":"オオナマセ","prefecture_code":8},"3535":{"zip_code":"3193535","prefecture":"茨城県","prefecture_kana":"イバラキケン","city":"久慈郡大子町","city_kana":"クジグンダイゴマチ","town":"上金沢","town_kana":"カミカネサワ","prefecture_code":8},"3703":{"zip_code":"3193703","prefecture":"茨城県","prefecture_kana":"イバラキケン","city":"久慈郡大子町","city_kana":"クジグンダイゴマチ","town":"上郷","town_kana":"カミゴウ","prefecture_code":8},"3704":{"zip_code":"3193704","prefecture":"茨城県","prefecture_kana":"イバラキケン","city":"久慈郡大子町","city_kana":"クジグンダイゴマチ","town":"上野宮","town_kana":"カミノミヤ","prefecture_code":8},"3556":{"zip_code":"3193556","prefecture":"茨城県","prefecture_kana":"イバラキケン","city":"久慈郡大子町","city_kana":"クジグンダイゴマチ","town":"川山","town_kana":"カワヤマ","prefecture_code":8},"3521":{"zip_code":"3193521","prefecture":"茨城県","prefecture_kana":"イバラキケン","city":"久慈郡大子町","city_kana":"クジグンダイゴマチ","town":"北田気","town_kana":"キタタゲ","prefecture_code":8},"3363":{"zip_code":"3193363","prefecture":"茨城県","prefecture_kana":"イバラキケン","city":"久慈郡大子町","city_kana":"クジグンダイゴマチ","town":"北富田","town_kana":"キタトミタ","prefecture_code":8},"3701":{"zip_code":"3193701","prefecture":"茨城県","prefecture_kana":"イバラキケン","city":"久慈郡大子町","city_kana":"クジグンダイゴマチ","town":"北吉沢","town_kana":"キタヨシザワ","prefecture_code":8},"3522":{"zip_code":"3193522","prefecture":"茨城県","prefecture_kana":"イバラキケン","city":"久慈郡大子町","city_kana":"クジグンダイゴマチ","town":"久野瀬","town_kana":"クノセ","prefecture_code":8},"3512":{"zip_code":"3193512","prefecture":"茨城県","prefecture_kana":"イバラキケン","city":"久慈郡大子町","city_kana":"クジグンダイゴマチ","town":"小生瀬","town_kana":"コナマセ","prefecture_code":8},"3361":{"zip_code":"3193361","prefecture":"茨城県","prefecture_kana":"イバラキケン","city":"久慈郡大子町","city_kana":"クジグンダイゴマチ","town":"頃藤","town_kana":"コロフジ","prefecture_code":8},"3362":{"zip_code":"3193362","prefecture":"茨城県","prefecture_kana":"イバラキケン","city":"久慈郡大子町","city_kana":"クジグンダイゴマチ","town":"西金","town_kana":"サイガネ","prefecture_code":8},"3543":{"zip_code":"3193543","prefecture":"茨城県","prefecture_kana":"イバラキケン","city":"久慈郡大子町","city_kana":"クジグンダイゴマチ","town":"左貫","town_kana":"サヌキ","prefecture_code":8},"3533":{"zip_code":"3193533","prefecture":"茨城県","prefecture_kana":"イバラキケン","city":"久慈郡大子町","city_kana":"クジグンダイゴマチ","town":"下金沢","town_kana":"シモカネサワ","prefecture_code":8},"3524":{"zip_code":"3193524","prefecture":"茨城県","prefecture_kana":"イバラキケン","city":"久慈郡大子町","city_kana":"クジグンダイゴマチ","town":"下津原","town_kana":"シモツハラ","prefecture_code":8},"3555":{"zip_code":"3193555","prefecture":"茨城県","prefecture_kana":"イバラキケン","city":"久慈郡大子町","city_kana":"クジグンダイゴマチ","town":"下野宮","town_kana":"シモノミヤ","prefecture_code":8},"3514":{"zip_code":"3193514","prefecture":"茨城県","prefecture_kana":"イバラキケン","city":"久慈郡大子町","city_kana":"クジグンダイゴマチ","town":"外大野","town_kana":"ソトオオノ","prefecture_code":8},"3526":{"zip_code":"3193526","prefecture":"茨城県","prefecture_kana":"イバラキケン","city":"久慈郡大子町","city_kana":"クジグンダイゴマチ","town":"大子","town_kana":"ダイゴ","prefecture_code":8},"3511":{"zip_code":"3193511","prefecture":"茨城県","prefecture_kana":"イバラキケン","city":"久慈郡大子町","city_kana":"クジグンダイゴマチ","town":"高柴","town_kana":"タカシバ","prefecture_code":8},"3554":{"zip_code":"3193554","prefecture":"茨城県","prefecture_kana":"イバラキケン","city":"久慈郡大子町","city_kana":"クジグンダイゴマチ","town":"高田","town_kana":"タカダ","prefecture_code":8},"3536":{"zip_code":"3193536","prefecture":"茨城県","prefecture_kana":"イバラキケン","city":"久慈郡大子町","city_kana":"クジグンダイゴマチ","town":"田野沢","town_kana":"タノサワ","prefecture_code":8},"3365":{"zip_code":"3193365","prefecture":"茨城県","prefecture_kana":"イバラキケン","city":"久慈郡大子町","city_kana":"クジグンダイゴマチ","town":"栃原","town_kana":"トチハラ","prefecture_code":8},"3705":{"zip_code":"3193705","prefecture":"茨城県","prefecture_kana":"イバラキケン","city":"久慈郡大子町","city_kana":"クジグンダイゴマチ","town":"中郷","town_kana":"ナカゴウ","prefecture_code":8},"3542":{"zip_code":"3193542","prefecture":"茨城県","prefecture_kana":"イバラキケン","city":"久慈郡大子町","city_kana":"クジグンダイゴマチ","town":"初原","town_kana":"ハツバラ","prefecture_code":8},"3537":{"zip_code":"3193537","prefecture":"茨城県","prefecture_kana":"イバラキケン","city":"久慈郡大子町","city_kana":"クジグンダイゴマチ","town":"塙","town_kana":"ハナワ","prefecture_code":8},"3523":{"zip_code":"3193523","prefecture":"茨城県","prefecture_kana":"イバラキケン","city":"久慈郡大子町","city_kana":"クジグンダイゴマチ","town":"袋田","town_kana":"フクロダ","prefecture_code":8},"3544":{"zip_code":"3193544","prefecture":"茨城県","prefecture_kana":"イバラキケン","city":"久慈郡大子町","city_kana":"クジグンダイゴマチ","town":"槇野地","town_kana":"マギノチ","prefecture_code":8},"3702":{"zip_code":"3193702","prefecture":"茨城県","prefecture_kana":"イバラキケン","city":"久慈郡大子町","city_kana":"クジグンダイゴマチ","town":"町付","town_kana":"マチツキ","prefecture_code":8},"3525":{"zip_code":"3193525","prefecture":"茨城県","prefecture_kana":"イバラキケン","city":"久慈郡大子町","city_kana":"クジグンダイゴマチ","town":"南田気","town_kana":"ミナミタゲ","prefecture_code":8},"3553":{"zip_code":"3193553","prefecture":"茨城県","prefecture_kana":"イバラキケン","city":"久慈郡大子町","city_kana":"クジグンダイゴマチ","town":"冥賀","town_kana":"ミョウガ","prefecture_code":8},"3364":{"zip_code":"3193364","prefecture":"茨城県","prefecture_kana":"イバラキケン","city":"久慈郡大子町","city_kana":"クジグンダイゴマチ","town":"盛金","town_kana":"モリガネ","prefecture_code":8},"3552":{"zip_code":"3193552","prefecture":"茨城県","prefecture_kana":"イバラキケン","city":"久慈郡大子町","city_kana":"クジグンダイゴマチ","town":"矢田","town_kana":"ヤダ","prefecture_code":8},"3532":{"zip_code":"3193532","prefecture":"茨城県","prefecture_kana":"イバラキケン","city":"久慈郡大子町","city_kana":"クジグンダイゴマチ","town":"山田","town_kana":"ヤマダ","prefecture_code":8}}