{"0845":{"zip_code":"3200845","prefecture":"栃木県","prefecture_kana":"トチギケン","city":"宇都宮市","city_kana":"ウツノミヤシ","town":"明保野町","town_kana":"アケボノチョウ","prefecture_code":9},"0818":{"zip_code":"3200818","prefecture":"栃木県","prefecture_kana":"トチギケン","city":"宇都宮市","city_kana":"ウツノミヤシ","town":"旭","town_kana":"アサヒ","prefecture_code":9},"0801":{"zip_code":"3200801","prefecture":"栃木県","prefecture_kana":"トチギケン","city":"宇都宮市","city_kana":"ウツノミヤシ","town":"池上町","town_kana":"イケガミチョウ","prefecture_code":9},"0034":{"zip_code":"3200034","prefecture":"栃木県","prefecture_kana":"トチギケン","city":"宇都宮市","city_kana":"ウツノミヤシ","town":"泉町","town_kana":"イズミチョウ","prefecture_code":9},"0821":{"zip_code":"3200821","prefecture":"栃木県","prefecture_kana":"トチギケン","city":"宇都宮市","city_kana":"ウツノミヤシ","town":"一条","town_kana":"イチジョウ","prefecture_code":9},"0047":{"zip_code":"3200047","prefecture":"栃木県","prefecture_kana":"トチギケン","city":"宇都宮市","city_kana":"ウツノミヤシ","town":"一の沢","town_kana":"イチノサワ","prefecture_code":9},"0049":{"zip_code":"3200049","prefecture":"栃木県","prefecture_kana":"トチギケン","city":"宇都宮市","city_kana":"ウツノミヤシ","town":"一ノ沢町","town_kana":"イチノサワマチ","prefecture_code":9},"0812":{"zip_code":"3200812","prefecture":"栃木県","prefecture_kana":"トチギケン","city":"宇都宮市","city_kana":"ウツノミヤシ","town":"一番町","town_kana":"イチバンチョウ","prefecture_code":9},"0802":{"zip_code":"3200802","prefecture":"栃木県","prefecture_kana":"トチギケン","city":"宇都宮市","city_kana":"ウツノミヤシ","town":"江野町","town_kana":"エノマチ","prefecture_code":9},"0014":{"zip_code":"3200014","prefecture":"栃木県","prefecture_kana":"トチギケン","city":"宇都宮市","city_kana":"ウツノミヤシ","town":"大曽","town_kana":"オオゾ","prefecture_code":9},"0811":{"zip_code":"3200811","prefecture":"栃木県","prefecture_kana":"トチギケン","city":"宇都宮市","city_kana":"ウツノミヤシ","town":"大通り","town_kana":"オオドオリ","prefecture_code":9},"0823":{"zip_code":"3200823","prefecture":"栃木県","prefecture_kana":"トチギケン","city":"宇都宮市","city_kana":"ウツノミヤシ","town":"御蔵町","town_kana":"オクラマチ","prefecture_code":9},"0036":{"zip_code":"3200036","prefecture":"栃木県","prefecture_kana":"トチギケン","city":"宇都宮市","city_kana":"ウツノミヤシ","town":"小幡","town_kana":"オバタ","prefecture_code":9},"0013":{"zip_code":"3200013","prefecture":"栃木県","prefecture_kana":"トチギケン","city":"宇都宮市","city_kana":"ウツノミヤシ","town":"上大曽町","town_kana":"カミオオゾマチ","prefecture_code":9},"0855":{"zip_code":"3200855","prefecture":"栃木県","prefecture_kana":"トチギケン","city":"宇都宮市","city_kana":"ウツノミヤシ","town":"上欠町","town_kana":"カミカケマチ","prefecture_code":9},"0058":{"zip_code":"3200058","prefecture":"栃木県","prefecture_kana":"トチギケン","city":"宇都宮市","city_kana":"ウツノミヤシ","town":"上戸祭","town_kana":"カミトマツリ","prefecture_code":9},"0051":{"zip_code":"3200051","prefecture":"栃木県","prefecture_kana":"トチギケン","city":"宇都宮市","city_kana":"ウツノミヤシ","town":"上戸祭町","town_kana":"カミトマツリチョウ","prefecture_code":9},"0822":{"zip_code":"3200822","prefecture":"栃木県","prefecture_kana":"トチギケン","city":"宇都宮市","city_kana":"ウツノミヤシ","town":"河原町","town_kana":"カワラマチ","prefecture_code":9},"0002":{"zip_code":"3200002","prefecture":"栃木県","prefecture_kana":"トチギケン","city":"宇都宮市","city_kana":"ウツノミヤシ","town":"瓦谷町","town_kana":"カワラヤチョウ","prefecture_code":9},"0844":{"zip_code":"3200844","prefecture":"栃木県","prefecture_kana":"トチギケン","city":"宇都宮市","city_kana":"ウツノミヤシ","town":"菊水町","town_kana":"キクスイチョウ","prefecture_code":9},"0048":{"zip_code":"3200048","prefecture":"栃木県","prefecture_kana":"トチギケン","city":"宇都宮市","city_kana":"ウツノミヤシ","town":"北一の沢町","town_kana":"キタイチノサワマチ","prefecture_code":9},"0842":{"zip_code":"3200842","prefecture":"栃木県","prefecture_kana":"トチギケン","city":"宇都宮市","city_kana":"ウツノミヤシ","town":"京町","town_kana":"キョウマチ","prefecture_code":9},"0037":{"zip_code":"3200037","prefecture":"栃木県","prefecture_kana":"トチギケン","city":"宇都宮市","city_kana":"ウツノミヤシ","town":"清住","town_kana":"キヨスミ","prefecture_code":9},"0066":{"zip_code":"3200066","prefecture":"栃木県","prefecture_kana":"トチギケン","city":"宇都宮市","city_kana":"ウツノミヤシ","town":"駒生","town_kana":"コマニュウ","prefecture_code":9},"0065":{"zip_code":"3200065","prefecture":"栃木県","prefecture_kana":"トチギケン","city":"宇都宮市","city_kana":"ウツノミヤシ","town":"駒生町","town_kana":"コマニュウマチ","prefecture_code":9},"0042":{"zip_code":"3200042","prefecture":"栃木県","prefecture_kana":"トチギケン","city":"宇都宮市","city_kana":"ウツノミヤシ","town":"材木町","town_kana":"ザイモクチョウ","prefecture_code":9},"0848":{"zip_code":"3200848","prefecture":"栃木県","prefecture_kana":"トチギケン","city":"宇都宮市","city_kana":"ウツノミヤシ","town":"幸町","town_kana":"サイワイチョウ","prefecture_code":9},"0024":{"zip_code":"3200024","prefecture":"栃木県","prefecture_kana":"トチギケン","city":"宇都宮市","city_kana":"ウツノミヤシ","town":"栄町","town_kana":"サカエチョウ","prefecture_code":9},"0854":{"zip_code":"3200854","prefecture":"栃木県","prefecture_kana":"トチギケン","city":"宇都宮市","city_kana":"ウツノミヤシ","town":"鷺の谷町","town_kana":"サギノヤマチ","prefecture_code":9},"0043":{"zip_code":"3200043","prefecture":"栃木県","prefecture_kana":"トチギケン","city":"宇都宮市","city_kana":"ウツノミヤシ","town":"桜","town_kana":"サクラ","prefecture_code":9},"0814":{"zip_code":"3200814","prefecture":"栃木県","prefecture_kana":"トチギケン","city":"宇都宮市","city_kana":"ウツノミヤシ","town":"三番町","town_kana":"サンバンチョウ","prefecture_code":9},"0853":{"zip_code":"3200853","prefecture":"栃木県","prefecture_kana":"トチギケン","city":"宇都宮市","city_kana":"ウツノミヤシ","town":"下欠町","town_kana":"シモカケマチ","prefecture_code":9},"0824":{"zip_code":"3200824","prefecture":"栃木県","prefecture_kana":"トチギケン","city":"宇都宮市","city_kana":"ウツノミヤシ","town":"下河原","town_kana":"シモガワラ","prefecture_code":9},"0825":{"zip_code":"3200825","prefecture":"栃木県","prefecture_kana":"トチギケン","city":"宇都宮市","city_kana":"ウツノミヤシ","town":"下河原町","town_kana":"シモガワラマチ","prefecture_code":9},"0852":{"zip_code":"3200852","prefecture":"栃木県","prefecture_kana":"トチギケン","city":"宇都宮市","city_kana":"ウツノミヤシ","town":"下砥上町","town_kana":"シモトカミチョウ","prefecture_code":9},"0055":{"zip_code":"3200055","prefecture":"栃木県","prefecture_kana":"トチギケン","city":"宇都宮市","city_kana":"ウツノミヤシ","town":"下戸祭","town_kana":"シモトマツリ","prefecture_code":9},"0032":{"zip_code":"3200032","prefecture":"栃木県","prefecture_kana":"トチギケン","city":"宇都宮市","city_kana":"ウツノミヤシ","town":"昭和","town_kana":"ショウワ","prefecture_code":9},"0831":{"zip_code":"3200831","prefecture":"栃木県","prefecture_kana":"トチギケン","city":"宇都宮市","city_kana":"ウツノミヤシ","town":"新町","town_kana":"シンマチ","prefecture_code":9},"0864":{"zip_code":"3200864","prefecture":"栃木県","prefecture_kana":"トチギケン","city":"宇都宮市","city_kana":"ウツノミヤシ","town":"住吉町","town_kana":"スミヨシチョウ","prefecture_code":9},"0022":{"zip_code":"3200022","prefecture":"栃木県","prefecture_kana":"トチギケン","city":"宇都宮市","city_kana":"ウツノミヤシ","town":"千波町","town_kana":"センナミマチ","prefecture_code":9},"0867":{"zip_code":"3200867","prefecture":"栃木県","prefecture_kana":"トチギケン","city":"宇都宮市","city_kana":"ウツノミヤシ","town":"大寛","town_kana":"ダイカン","prefecture_code":9},"0061":{"zip_code":"3200061","prefecture":"栃木県","prefecture_kana":"トチギケン","city":"宇都宮市","city_kana":"ウツノミヤシ","town":"宝木町","town_kana":"タカラギチョウ","prefecture_code":9},"0075":{"zip_code":"3200075","prefecture":"栃木県","prefecture_kana":"トチギケン","city":"宇都宮市","city_kana":"ウツノミヤシ","town":"宝木本町","town_kana":"タカラギホンチョウ","prefecture_code":9},"0846":{"zip_code":"3200846","prefecture":"栃木県","prefecture_kana":"トチギケン","city":"宇都宮市","city_kana":"ウツノミヤシ","town":"滝の原","town_kana":"タキノハラ","prefecture_code":9},"0847":{"zip_code":"3200847","prefecture":"栃木県","prefecture_kana":"トチギケン","city":"宇都宮市","city_kana":"ウツノミヤシ","town":"滝谷町","town_kana":"タキヤチョウ","prefecture_code":9},"0806":{"zip_code":"3200806","prefecture":"栃木県","prefecture_kana":"トチギケン","city":"宇都宮市","city_kana":"ウツノミヤシ","town":"中央","town_kana":"チュウオウ","prefecture_code":9},"0805":{"zip_code":"3200805","prefecture":"栃木県","prefecture_kana":"トチギケン","city":"宇都宮市","city_kana":"ウツノミヤシ","town":"中央本町","town_kana":"チュウオウホンチョウ","prefecture_code":9},"0857":{"zip_code":"3200857","prefecture":"栃木県","prefecture_kana":"トチギケン","city":"宇都宮市","city_kana":"ウツノミヤシ","town":"鶴田","town_kana":"ツルタ","prefecture_code":9},"0851":{"zip_code":"3200851","prefecture":"栃木県","prefecture_kana":"トチギケン","city":"宇都宮市","city_kana":"ウツノミヤシ","town":"鶴田町","town_kana":"ツルタマチ","prefecture_code":9},"0816":{"zip_code":"3200816","prefecture":"栃木県","prefecture_kana":"トチギケン","city":"宇都宮市","city_kana":"ウツノミヤシ","town":"天神","town_kana":"テンジン","prefecture_code":9},"0035":{"zip_code":"3200035","prefecture":"栃木県","prefecture_kana":"トチギケン","city":"宇都宮市","city_kana":"ウツノミヤシ","town":"伝馬町","town_kana":"デンマチョウ","prefecture_code":9},"0856":{"zip_code":"3200856","prefecture":"栃木県","prefecture_kana":"トチギケン","city":"宇都宮市","city_kana":"ウツノミヤシ","town":"砥上町","town_kana":"トカミチョウ","prefecture_code":9},"0056":{"zip_code":"3200056","prefecture":"栃木県","prefecture_kana":"トチギケン","city":"宇都宮市","city_kana":"ウツノミヤシ","town":"戸祭","town_kana":"トマツリ","prefecture_code":9},"0017":{"zip_code":"3200017","prefecture":"栃木県","prefecture_kana":"トチギケン","city":"宇都宮市","city_kana":"ウツノミヤシ","town":"戸祭台","town_kana":"トマツリダイ","prefecture_code":9},"0053":{"zip_code":"3200053","prefecture":"栃木県","prefecture_kana":"トチギケン","city":"宇都宮市","city_kana":"ウツノミヤシ","town":"戸祭町","town_kana":"トマツリチョウ","prefecture_code":9},"0031":{"zip_code":"3200031","prefecture":"栃木県","prefecture_kana":"トチギケン","city":"宇都宮市","city_kana":"ウツノミヤシ","town":"戸祭元町","town_kana":"トマツリモトチョウ","prefecture_code":9},"0003":{"zip_code":"3200003","prefecture":"栃木県","prefecture_kana":"トチギケン","city":"宇都宮市","city_kana":"ウツノミヤシ","town":"豊郷台","town_kana":"トヨサトダイ","prefecture_code":9},"0045":{"zip_code":"3200045","prefecture":"栃木県","prefecture_kana":"トチギケン","city":"宇都宮市","city_kana":"ウツノミヤシ","town":"中一の沢町","town_kana":"ナカイチノサワマチ","prefecture_code":9},"0004":{"zip_code":"3200004","prefecture":"栃木県","prefecture_kana":"トチギケン","city":"宇都宮市","city_kana":"ウツノミヤシ","town":"長岡町","town_kana":"ナガオカチョウ","prefecture_code":9},"0815":{"zip_code":"3200815","prefecture":"栃木県","prefecture_kana":"トチギケン","city":"宇都宮市","city_kana":"ウツノミヤシ","town":"中河原町","town_kana":"ナカガワラマチ","prefecture_code":9},"0057":{"zip_code":"3200057","prefecture":"栃木県","prefecture_kana":"トチギケン","city":"宇都宮市","city_kana":"ウツノミヤシ","town":"中戸祭","town_kana":"ナカトマツリ","prefecture_code":9},"0052":{"zip_code":"3200052","prefecture":"栃木県","prefecture_kana":"トチギケン","city":"宇都宮市","city_kana":"ウツノミヤシ","town":"中戸祭町","town_kana":"ナカトマツリチョウ","prefecture_code":9},"0023":{"zip_code":"3200023","prefecture":"栃木県","prefecture_kana":"トチギケン","city":"宇都宮市","city_kana":"ウツノミヤシ","town":"仲町","town_kana":"ナカマチ","prefecture_code":9},"0861":{"zip_code":"3200861","prefecture":"栃木県","prefecture_kana":"トチギケン","city":"宇都宮市","city_kana":"ウツノミヤシ","town":"西","town_kana":"ニシ","prefecture_code":9},"0046":{"zip_code":"3200046","prefecture":"栃木県","prefecture_kana":"トチギケン","city":"宇都宮市","city_kana":"ウツノミヤシ","town":"西一の沢町","town_kana":"ニシイチノサワマチ","prefecture_code":9},"0866":{"zip_code":"3200866","prefecture":"栃木県","prefecture_kana":"トチギケン","city":"宇都宮市","city_kana":"ウツノミヤシ","town":"西大寛","town_kana":"ニシダイカン","prefecture_code":9},"0064":{"zip_code":"3200064","prefecture":"栃木県","prefecture_kana":"トチギケン","city":"宇都宮市","city_kana":"ウツノミヤシ","town":"西の宮","town_kana":"ニシノミヤ","prefecture_code":9},"0862":{"zip_code":"3200862","prefecture":"栃木県","prefecture_kana":"トチギケン","city":"宇都宮市","city_kana":"ウツノミヤシ","town":"西原","town_kana":"ニシハラ","prefecture_code":9},"0826":{"zip_code":"3200826","prefecture":"栃木県","prefecture_kana":"トチギケン","city":"宇都宮市","city_kana":"ウツノミヤシ","town":"西原町","town_kana":"ニシハラチョウ","prefecture_code":9},"0813":{"zip_code":"3200813","prefecture":"栃木県","prefecture_kana":"トチギケン","city":"宇都宮市","city_kana":"ウツノミヤシ","town":"二番町","town_kana":"ニバンチョウ","prefecture_code":9},"0071":{"zip_code":"3200071","prefecture":"栃木県","prefecture_kana":"トチギケン","city":"宇都宮市","city_kana":"ウツノミヤシ","town":"野沢町","town_kana":"ノザワマチ","prefecture_code":9},"0015":{"zip_code":"3200015","prefecture":"栃木県","prefecture_kana":"トチギケン","city":"宇都宮市","city_kana":"ウツノミヤシ","town":"八幡台","town_kana":"ハチマンダイ","prefecture_code":9},"0843":{"zip_code":"3200843","prefecture":"栃木県","prefecture_kana":"トチギケン","city":"宇都宮市","city_kana":"ウツノミヤシ","town":"花園町","town_kana":"ハナゾノチョウ","prefecture_code":9},"0827":{"zip_code":"3200827","prefecture":"栃木県","prefecture_kana":"トチギケン","city":"宇都宮市","city_kana":"ウツノミヤシ","town":"花房","town_kana":"ハナブサ","prefecture_code":9},"0828":{"zip_code":"3200828","prefecture":"栃木県","prefecture_kana":"トチギケン","city":"宇都宮市","city_kana":"ウツノミヤシ","town":"花房本町","town_kana":"ハナブサホンチョウ","prefecture_code":9},"0027":{"zip_code":"3200027","prefecture":"栃木県","prefecture_kana":"トチギケン","city":"宇都宮市","city_kana":"ウツノミヤシ","town":"塙田","town_kana":"ハナワダ","prefecture_code":9},"0026":{"zip_code":"3200026","prefecture":"栃木県","prefecture_kana":"トチギケン","city":"宇都宮市","city_kana":"ウツノミヤシ","town":"馬場通り","town_kana":"ババドオリ","prefecture_code":9},"0062":{"zip_code":"3200062","prefecture":"栃木県","prefecture_kana":"トチギケン","city":"宇都宮市","city_kana":"ウツノミヤシ","town":"東宝木町","town_kana":"ヒガシタカラギチョウ","prefecture_code":9},"0054":{"zip_code":"3200054","prefecture":"栃木県","prefecture_kana":"トチギケン","city":"宇都宮市","city_kana":"ウツノミヤシ","town":"東戸祭","town_kana":"ヒガシトマツリ","prefecture_code":9},"0021":{"zip_code":"3200021","prefecture":"栃木県","prefecture_kana":"トチギケン","city":"宇都宮市","city_kana":"ウツノミヤシ","town":"東塙田","town_kana":"ヒガシハナワダ","prefecture_code":9},"0832":{"zip_code":"3200832","prefecture":"栃木県","prefecture_kana":"トチギケン","city":"宇都宮市","city_kana":"ウツノミヤシ","town":"日の出","town_kana":"ヒノデ","prefecture_code":9},"0011":{"zip_code":"3200011","prefecture":"栃木県","prefecture_kana":"トチギケン","city":"宇都宮市","city_kana":"ウツノミヤシ","town":"富士見が丘","town_kana":"フジミガオカ","prefecture_code":9},"0804":{"zip_code":"3200804","prefecture":"栃木県","prefecture_kana":"トチギケン","city":"宇都宮市","city_kana":"ウツノミヤシ","town":"二荒町","town_kana":"フタアラマチ","prefecture_code":9},"0833":{"zip_code":"3200833","prefecture":"栃木県","prefecture_kana":"トチギケン","city":"宇都宮市","city_kana":"ウツノミヤシ","town":"不動前","town_kana":"フドウマエ","prefecture_code":9},"0038":{"zip_code":"3200038","prefecture":"栃木県","prefecture_kana":"トチギケン","city":"宇都宮市","city_kana":"ウツノミヤシ","town":"星が丘","town_kana":"ホシガオカ","prefecture_code":9},"0073":{"zip_code":"3200073","prefecture":"栃木県","prefecture_kana":"トチギケン","city":"宇都宮市","city_kana":"ウツノミヤシ","town":"細谷","town_kana":"ホソヤ","prefecture_code":9},"0074":{"zip_code":"3200074","prefecture":"栃木県","prefecture_kana":"トチギケン","city":"宇都宮市","city_kana":"ウツノミヤシ","town":"細谷町","town_kana":"ホソヤチョウ","prefecture_code":9},"0033":{"zip_code":"3200033","prefecture":"栃木県","prefecture_kana":"トチギケン","city":"宇都宮市","city_kana":"ウツノミヤシ","town":"本町","town_kana":"ホンチョウ","prefecture_code":9},"0817":{"zip_code":"3200817","prefecture":"栃木県","prefecture_kana":"トチギケン","city":"宇都宮市","city_kana":"ウツノミヤシ","town":"本丸町","town_kana":"ホンマルチョウ","prefecture_code":9},"0803":{"zip_code":"3200803","prefecture":"栃木県","prefecture_kana":"トチギケン","city":"宇都宮市","city_kana":"ウツノミヤシ","town":"曲師町","town_kana":"マゲシチョウ","prefecture_code":9},"0807":{"zip_code":"3200807","prefecture":"栃木県","prefecture_kana":"トチギケン","city":"宇都宮市","city_kana":"ウツノミヤシ","town":"松が峰","town_kana":"マツガミネ","prefecture_code":9},"0041":{"zip_code":"3200041","prefecture":"栃木県","prefecture_kana":"トチギケン","city":"宇都宮市","city_kana":"ウツノミヤシ","town":"松原","town_kana":"マツバラ","prefecture_code":9},"0863":{"zip_code":"3200863","prefecture":"栃木県","prefecture_kana":"トチギケン","city":"宇都宮市","city_kana":"ウツノミヤシ","town":"操町","town_kana":"ミサオチョウ","prefecture_code":9},"0044":{"zip_code":"3200044","prefecture":"栃木県","prefecture_kana":"トチギケン","city":"宇都宮市","city_kana":"ウツノミヤシ","town":"南一の沢町","town_kana":"ミナミイチノサワマチ","prefecture_code":9},"0808":{"zip_code":"3200808","prefecture":"栃木県","prefecture_kana":"トチギケン","city":"宇都宮市","city_kana":"ウツノミヤシ","town":"宮園町","town_kana":"ミヤゾノチョウ","prefecture_code":9},"0835":{"zip_code":"3200835","prefecture":"栃木県","prefecture_kana":"トチギケン","city":"宇都宮市","city_kana":"ウツノミヤシ","town":"宮原","town_kana":"ミヤハラ","prefecture_code":9},"0025":{"zip_code":"3200025","prefecture":"栃木県","prefecture_kana":"トチギケン","city":"宇都宮市","city_kana":"ウツノミヤシ","town":"宮町","town_kana":"ミヤマチ","prefecture_code":9},"0865":{"zip_code":"3200865","prefecture":"栃木県","prefecture_kana":"トチギケン","city":"宇都宮市","city_kana":"ウツノミヤシ","town":"睦町","town_kana":"ムツミチョウ","prefecture_code":9},"0836":{"zip_code":"3200836","prefecture":"栃木県","prefecture_kana":"トチギケン","city":"宇都宮市","city_kana":"ウツノミヤシ","town":"大和","town_kana":"ヤマト","prefecture_code":9},"0012":{"zip_code":"3200012","prefecture":"栃木県","prefecture_kana":"トチギケン","city":"宇都宮市","city_kana":"ウツノミヤシ","town":"山本","town_kana":"ヤマモト","prefecture_code":9},"0016":{"zip_code":"3200016","prefecture":"栃木県","prefecture_kana":"トチギケン","city":"宇都宮市","city_kana":"ウツノミヤシ","town":"山本町","town_kana":"ヤマモトマチ","prefecture_code":9},"0837":{"zip_code":"3200837","prefecture":"栃木県","prefecture_kana":"トチギケン","city":"宇都宮市","city_kana":"ウツノミヤシ","town":"弥生","town_kana":"ヤヨイ","prefecture_code":9},"0063":{"zip_code":"3200063","prefecture":"栃木県","prefecture_kana":"トチギケン","city":"宇都宮市","city_kana":"ウツノミヤシ","town":"陽西町","town_kana":"ヨウサイチョウ","prefecture_code":9},"0834":{"zip_code":"3200834","prefecture":"栃木県","prefecture_kana":"トチギケン","city":"宇都宮市","city_kana":"ウツノミヤシ","town":"陽南","town_kana":"ヨウナン","prefecture_code":9},"0005":{"zip_code":"3200005","prefecture":"栃木県","prefecture_kana":"トチギケン","city":"宇都宮市","city_kana":"ウツノミヤシ","town":"横山","town_kana":"ヨコヤマ","prefecture_code":9},"0001":{"zip_code":"3200001","prefecture":"栃木県","prefecture_kana":"トチギケン","city":"宇都宮市","city_kana":"ウツノミヤシ","town":"横山町","town_kana":"ヨコヤマチョウ","prefecture_code":9},"0838":{"zip_code":"3200838","prefecture":"栃木県","prefecture_kana":"トチギケン","city":"宇都宮市","city_kana":"ウツノミヤシ","town":"吉野","town_kana":"ヨシノ","prefecture_code":9},"0841":{"zip_code":"3200841","prefecture":"栃木県","prefecture_kana":"トチギケン","city":"宇都宮市","city_kana":"ウツノミヤシ","town":"六道町","town_kana":"ロクドウマチ","prefecture_code":9},"0072":{"zip_code":"3200072","prefecture":"栃木県","prefecture_kana":"トチギケン","city":"宇都宮市","city_kana":"ウツノミヤシ","town":"若草","town_kana":"ワカクサ","prefecture_code":9}}