{"0000":{"zip_code":"3210000","prefecture":"栃木県","prefecture_kana":"トチギケン","city":"宇都宮市","city_kana":"ウツノミヤシ","town":"","town_kana":"","prefecture_code":9},"0404":{"zip_code":"3210404","prefecture":"栃木県","prefecture_kana":"トチギケン","city":"宇都宮市","city_kana":"ウツノミヤシ","town":"芦沼町","town_kana":"アシヌマチョウ","prefecture_code":9},"0347":{"zip_code":"3210347","prefecture":"栃木県","prefecture_kana":"トチギケン","city":"宇都宮市","city_kana":"ウツノミヤシ","town":"飯田町","town_kana":"イイダマチ","prefecture_code":9},"2101":{"zip_code":"3212101","prefecture":"栃木県","prefecture_kana":"トチギケン","city":"宇都宮市","city_kana":"ウツノミヤシ","town":"飯山町","town_kana":"イイヤママチ","prefecture_code":9},"0912":{"zip_code":"3210912","prefecture":"栃木県","prefecture_kana":"トチギケン","city":"宇都宮市","city_kana":"ウツノミヤシ","town":"石井町","town_kana":"イシイマチ","prefecture_code":9},"2103":{"zip_code":"3212103","prefecture":"栃木県","prefecture_kana":"トチギケン","city":"宇都宮市","city_kana":"ウツノミヤシ","town":"石那田町","town_kana":"イシナダマチ","prefecture_code":9},"0952":{"zip_code":"3210952","prefecture":"栃木県","prefecture_kana":"トチギケン","city":"宇都宮市","city_kana":"ウツノミヤシ","town":"泉が丘","town_kana":"イズミガオカ","prefecture_code":9},"3221":{"zip_code":"3213221","prefecture":"栃木県","prefecture_kana":"トチギケン","city":"宇都宮市","city_kana":"ウツノミヤシ","town":"板戸町","town_kana":"イタドマチ","prefecture_code":9},"0966":{"zip_code":"3210966","prefecture":"栃木県","prefecture_kana":"トチギケン","city":"宇都宮市","city_kana":"ウツノミヤシ","town":"今泉","town_kana":"イマイズミ","prefecture_code":9},"0961":{"zip_code":"3210961","prefecture":"栃木県","prefecture_kana":"トチギケン","city":"宇都宮市","city_kana":"ウツノミヤシ","town":"今泉新町","town_kana":"イマイズミシンマチ","prefecture_code":9},"0962":{"zip_code":"3210962","prefecture":"栃木県","prefecture_kana":"トチギケン","city":"宇都宮市","city_kana":"ウツノミヤシ","town":"今泉町","town_kana":"イマイズミチョウ","prefecture_code":9},"0402":{"zip_code":"3210402","prefecture":"栃木県","prefecture_kana":"トチギケン","city":"宇都宮市","city_kana":"ウツノミヤシ","town":"今里町","town_kana":"イマザトチョウ","prefecture_code":9},"0166":{"zip_code":"3210166","prefecture":"栃木県","prefecture_kana":"トチギケン","city":"宇都宮市","city_kana":"ウツノミヤシ","town":"今宮","town_kana":"イマミヤ","prefecture_code":9},"0973":{"zip_code":"3210973","prefecture":"栃木県","prefecture_kana":"トチギケン","city":"宇都宮市","city_kana":"ウツノミヤシ","town":"岩曽町","town_kana":"イワゾマチ","prefecture_code":9},"2117":{"zip_code":"3212117","prefecture":"栃木県","prefecture_kana":"トチギケン","city":"宇都宮市","city_kana":"ウツノミヤシ","town":"岩原町","town_kana":"イワハラマチ","prefecture_code":9},"0976":{"zip_code":"3210976","prefecture":"栃木県","prefecture_kana":"トチギケン","city":"宇都宮市","city_kana":"ウツノミヤシ","town":"岩本町","town_kana":"イワモトチョウ","prefecture_code":9},"0118":{"zip_code":"3210118","prefecture":"栃木県","prefecture_kana":"トチギケン","city":"宇都宮市","city_kana":"ウツノミヤシ","town":"インターパーク","town_kana":"インターパーク","prefecture_code":9},"0981":{"zip_code":"3210981","prefecture":"栃木県","prefecture_kana":"トチギケン","city":"宇都宮市","city_kana":"ウツノミヤシ","town":"上野町","town_kana":"ウエノマチ","prefecture_code":9},"0405":{"zip_code":"3210405","prefecture":"栃木県","prefecture_kana":"トチギケン","city":"宇都宮市","city_kana":"ウツノミヤシ","town":"上田町","town_kana":"ウワダチョウ","prefecture_code":9},"0964":{"zip_code":"3210964","prefecture":"栃木県","prefecture_kana":"トチギケン","city":"宇都宮市","city_kana":"ウツノミヤシ","town":"駅前通り","town_kana":"エキマエドオリ","prefecture_code":9},"0107":{"zip_code":"3210107","prefecture":"栃木県","prefecture_kana":"トチギケン","city":"宇都宮市","city_kana":"ウツノミヤシ","town":"江曽島","town_kana":"エソジマ","prefecture_code":9},"0101":{"zip_code":"3210101","prefecture":"栃木県","prefecture_kana":"トチギケン","city":"宇都宮市","city_kana":"ウツノミヤシ","town":"江曽島本町","town_kana":"エソジマホンチョウ","prefecture_code":9},"0102":{"zip_code":"3210102","prefecture":"栃木県","prefecture_kana":"トチギケン","city":"宇都宮市","city_kana":"ウツノミヤシ","town":"江曽島町","town_kana":"エソジママチ","prefecture_code":9},"2111":{"zip_code":"3212111","prefecture":"栃木県","prefecture_kana":"トチギケン","city":"宇都宮市","city_kana":"ウツノミヤシ","town":"大網町","town_kana":"オオアミマチ","prefecture_code":9},"0161":{"zip_code":"3210161","prefecture":"栃木県","prefecture_kana":"トチギケン","city":"宇都宮市","city_kana":"ウツノミヤシ","town":"大塚町","town_kana":"オオツカチョウ","prefecture_code":9},"0345":{"zip_code":"3210345","prefecture":"栃木県","prefecture_kana":"トチギケン","city":"宇都宮市","city_kana":"ウツノミヤシ","town":"大谷町","town_kana":"オオヤマチ","prefecture_code":9},"0971":{"zip_code":"3210971","prefecture":"栃木県","prefecture_kana":"トチギケン","city":"宇都宮市","city_kana":"ウツノミヤシ","town":"海道町","town_kana":"カイドウマチ","prefecture_code":9},"0108":{"zip_code":"3210108","prefecture":"栃木県","prefecture_kana":"トチギケン","city":"宇都宮市","city_kana":"ウツノミヤシ","town":"春日町","town_kana":"カスガチョウ","prefecture_code":9},"0406":{"zip_code":"3210406","prefecture":"栃木県","prefecture_kana":"トチギケン","city":"宇都宮市","city_kana":"ウツノミヤシ","town":"金田町","town_kana":"カネダチョウ","prefecture_code":9},"2115":{"zip_code":"3212115","prefecture":"栃木県","prefecture_kana":"トチギケン","city":"宇都宮市","city_kana":"ウツノミヤシ","town":"上金井町","town_kana":"カミカナイマチ","prefecture_code":9},"0913":{"zip_code":"3210913","prefecture":"栃木県","prefecture_kana":"トチギケン","city":"宇都宮市","city_kana":"ウツノミヤシ","town":"上桑島町","town_kana":"カミクワジママチ","prefecture_code":9},"2104":{"zip_code":"3212104","prefecture":"栃木県","prefecture_kana":"トチギケン","city":"宇都宮市","city_kana":"ウツノミヤシ","town":"上小池町","town_kana":"カミコイケマチ","prefecture_code":9},"0401":{"zip_code":"3210401","prefecture":"栃木県","prefecture_kana":"トチギケン","city":"宇都宮市","city_kana":"ウツノミヤシ","town":"上小倉町","town_kana":"カミコグラチョウ","prefecture_code":9},"3233":{"zip_code":"3213233","prefecture":"栃木県","prefecture_kana":"トチギケン","city":"宇都宮市","city_kana":"ウツノミヤシ","town":"上籠谷町","town_kana":"カミコモリヤマチ","prefecture_code":9},"0115":{"zip_code":"3210115","prefecture":"栃木県","prefecture_kana":"トチギケン","city":"宇都宮市","city_kana":"ウツノミヤシ","town":"上御田町","town_kana":"カミミタチョウ","prefecture_code":9},"2112":{"zip_code":"3212112","prefecture":"栃木県","prefecture_kana":"トチギケン","city":"宇都宮市","city_kana":"ウツノミヤシ","town":"上横倉町","town_kana":"カミヨコクラマチ","prefecture_code":9},"0106":{"zip_code":"3210106","prefecture":"栃木県","prefecture_kana":"トチギケン","city":"宇都宮市","city_kana":"ウツノミヤシ","town":"上横田町","town_kana":"カミヨコタマチ","prefecture_code":9},"3224":{"zip_code":"3213224","prefecture":"栃木県","prefecture_kana":"トチギケン","city":"宇都宮市","city_kana":"ウツノミヤシ","town":"刈沼町","town_kana":"カリヌママチ","prefecture_code":9},"0111":{"zip_code":"3210111","prefecture":"栃木県","prefecture_kana":"トチギケン","city":"宇都宮市","city_kana":"ウツノミヤシ","town":"川田町","town_kana":"カワダマチ","prefecture_code":9},"0977":{"zip_code":"3210977","prefecture":"栃木県","prefecture_kana":"トチギケン","city":"宇都宮市","city_kana":"ウツノミヤシ","town":"川俣町","town_kana":"カワマタチョウ","prefecture_code":9},"0965":{"zip_code":"3210965","prefecture":"栃木県","prefecture_kana":"トチギケン","city":"宇都宮市","city_kana":"ウツノミヤシ","town":"川向町","town_kana":"カワムコウチョウ","prefecture_code":9},"0412":{"zip_code":"3210412","prefecture":"栃木県","prefecture_kana":"トチギケン","city":"宇都宮市","city_kana":"ウツノミヤシ","town":"関白町","town_kana":"カンパクチョウ","prefecture_code":9},"0153":{"zip_code":"3210153","prefecture":"栃木県","prefecture_kana":"トチギケン","city":"宇都宮市","city_kana":"ウツノミヤシ","town":"北若松原","town_kana":"キタワカマツハラ","prefecture_code":9},"3231":{"zip_code":"3213231","prefecture":"栃木県","prefecture_kana":"トチギケン","city":"宇都宮市","city_kana":"ウツノミヤシ","town":"清原工業団地","town_kana":"キヨハラコウギョウダンチ","prefecture_code":9},"3223":{"zip_code":"3213223","prefecture":"栃木県","prefecture_kana":"トチギケン","city":"宇都宮市","city_kana":"ウツノミヤシ","town":"清原台","town_kana":"キヨハラダイ","prefecture_code":9},"3234":{"zip_code":"3213234","prefecture":"栃木県","prefecture_kana":"トチギケン","city":"宇都宮市","city_kana":"ウツノミヤシ","town":"桑島町","town_kana":"クワジママチ","prefecture_code":9},"0951":[{"zip_code":"3210951","prefecture":"栃木県","prefecture_kana":"トチギケン","city":"宇都宮市","city_kana":"ウツノミヤシ","town":"越戸","town_kana":"コエド","prefecture_code":9},{"zip_code":"3210951","prefecture":"栃木県","prefecture_kana":"トチギケン","city":"宇都宮市","city_kana":"ウツノミヤシ","town":"越戸町","town_kana":"コエドマチ","prefecture_code":9}],"0341":{"zip_code":"3210341","prefecture":"栃木県","prefecture_kana":"トチギケン","city":"宇都宮市","city_kana":"ウツノミヤシ","town":"古賀志町","town_kana":"コガシマチ","prefecture_code":9},"0135":{"zip_code":"3210135","prefecture":"栃木県","prefecture_kana":"トチギケン","city":"宇都宮市","city_kana":"ウツノミヤシ","town":"五代","town_kana":"ゴダイ","prefecture_code":9},"3235":{"zip_code":"3213235","prefecture":"栃木県","prefecture_kana":"トチギケン","city":"宇都宮市","city_kana":"ウツノミヤシ","town":"鐺山町","town_kana":"コテヤママチ","prefecture_code":9},"0141":{"zip_code":"3210141","prefecture":"栃木県","prefecture_kana":"トチギケン","city":"宇都宮市","city_kana":"ウツノミヤシ","town":"さつき","town_kana":"サツキ","prefecture_code":9},"0922":{"zip_code":"3210922","prefecture":"栃木県","prefecture_kana":"トチギケン","city":"宇都宮市","city_kana":"ウツノミヤシ","town":"さるやま町","town_kana":"サルヤママチ","prefecture_code":9},"2102":{"zip_code":"3212102","prefecture":"栃木県","prefecture_kana":"トチギケン","city":"宇都宮市","city_kana":"ウツノミヤシ","town":"篠井町","town_kana":"シノイマチ","prefecture_code":9},"0346":{"zip_code":"3210346","prefecture":"栃木県","prefecture_kana":"トチギケン","city":"宇都宮市","city_kana":"ウツノミヤシ","town":"下荒針町","town_kana":"シモアラハリマチ","prefecture_code":9},"2114":{"zip_code":"3212114","prefecture":"栃木県","prefecture_kana":"トチギケン","city":"宇都宮市","city_kana":"ウツノミヤシ","town":"下金井町","town_kana":"シモカナイマチ","prefecture_code":9},"0972":{"zip_code":"3210972","prefecture":"栃木県","prefecture_kana":"トチギケン","city":"宇都宮市","city_kana":"ウツノミヤシ","town":"下川俣町","town_kana":"シモカワマタマチ","prefecture_code":9},"0914":{"zip_code":"3210914","prefecture":"栃木県","prefecture_kana":"トチギケン","city":"宇都宮市","city_kana":"ウツノミヤシ","town":"下桑島町","town_kana":"シモクワジママチ","prefecture_code":9},"0924":{"zip_code":"3210924","prefecture":"栃木県","prefecture_kana":"トチギケン","city":"宇都宮市","city_kana":"ウツノミヤシ","town":"下栗","town_kana":"シモグリ","prefecture_code":9},"0923":{"zip_code":"3210923","prefecture":"栃木県","prefecture_kana":"トチギケン","city":"宇都宮市","city_kana":"ウツノミヤシ","town":"下栗町","town_kana":"シモグリマチ","prefecture_code":9},"2105":{"zip_code":"3212105","prefecture":"栃木県","prefecture_kana":"トチギケン","city":"宇都宮市","city_kana":"ウツノミヤシ","town":"下小池町","town_kana":"シモコイケマチ","prefecture_code":9},"0403":{"zip_code":"3210403","prefecture":"栃木県","prefecture_kana":"トチギケン","city":"宇都宮市","city_kana":"ウツノミヤシ","town":"下小倉町","town_kana":"シモコグラチョウ","prefecture_code":9},"0122":{"zip_code":"3210122","prefecture":"栃木県","prefecture_kana":"トチギケン","city":"宇都宮市","city_kana":"ウツノミヤシ","town":"下反町町","town_kana":"シモソリマチチョウ","prefecture_code":9},"0903":{"zip_code":"3210903","prefecture":"栃木県","prefecture_kana":"トチギケン","city":"宇都宮市","city_kana":"ウツノミヤシ","town":"下平出町","town_kana":"シモヒライデマチ","prefecture_code":9},"2113":{"zip_code":"3212113","prefecture":"栃木県","prefecture_kana":"トチギケン","city":"宇都宮市","city_kana":"ウツノミヤシ","town":"下横倉町","town_kana":"シモヨコクラマチ","prefecture_code":9},"0124":{"zip_code":"3210124","prefecture":"栃木県","prefecture_kana":"トチギケン","city":"宇都宮市","city_kana":"ウツノミヤシ","town":"下横田町","town_kana":"シモヨコタチョウ","prefecture_code":9},"0945":{"zip_code":"3210945","prefecture":"栃木県","prefecture_kana":"トチギケン","city":"宇都宮市","city_kana":"ウツノミヤシ","town":"宿郷","town_kana":"シュクゴウ","prefecture_code":9},"0935":{"zip_code":"3210935","prefecture":"栃木県","prefecture_kana":"トチギケン","city":"宇都宮市","city_kana":"ウツノミヤシ","town":"城東","town_kana":"ジョウトウ","prefecture_code":9},"0117":{"zip_code":"3210117","prefecture":"栃木県","prefecture_kana":"トチギケン","city":"宇都宮市","city_kana":"ウツノミヤシ","town":"城南","town_kana":"ジョウナン","prefecture_code":9},"0413":{"zip_code":"3210413","prefecture":"栃木県","prefecture_kana":"トチギケン","city":"宇都宮市","city_kana":"ウツノミヤシ","town":"松風台","town_kana":"ショウフウダイ","prefecture_code":9},"0133":{"zip_code":"3210133","prefecture":"栃木県","prefecture_kana":"トチギケン","city":"宇都宮市","city_kana":"ウツノミヤシ","town":"新富町","town_kana":"シントミチョウ","prefecture_code":9},"0144":{"zip_code":"3210144","prefecture":"栃木県","prefecture_kana":"トチギケン","city":"宇都宮市","city_kana":"ウツノミヤシ","town":"末広","town_kana":"スエヒロ","prefecture_code":9},"0132":{"zip_code":"3210132","prefecture":"栃木県","prefecture_kana":"トチギケン","city":"宇都宮市","city_kana":"ウツノミヤシ","town":"雀の宮","town_kana":"スズメノミヤ","prefecture_code":9},"0121":{"zip_code":"3210121","prefecture":"栃木県","prefecture_kana":"トチギケン","city":"宇都宮市","city_kana":"ウツノミヤシ","town":"雀宮町","town_kana":"スズメノミヤチョウ","prefecture_code":9},"0113":{"zip_code":"3210113","prefecture":"栃木県","prefecture_kana":"トチギケン","city":"宇都宮市","city_kana":"ウツノミヤシ","town":"砂田町","town_kana":"スナタマチ","prefecture_code":9},"0975":{"zip_code":"3210975","prefecture":"栃木県","prefecture_kana":"トチギケン","city":"宇都宮市","city_kana":"ウツノミヤシ","town":"関堀町","town_kana":"セキボリチョウ","prefecture_code":9},"0104":{"zip_code":"3210104","prefecture":"栃木県","prefecture_kana":"トチギケン","city":"宇都宮市","city_kana":"ウツノミヤシ","town":"台新田","town_kana":"ダイシンデン","prefecture_code":9},"0103":{"zip_code":"3210103","prefecture":"栃木県","prefecture_kana":"トチギケン","city":"宇都宮市","city_kana":"ウツノミヤシ","town":"台新田町","town_kana":"ダイシンデンマチ","prefecture_code":9},"0134":{"zip_code":"3210134","prefecture":"栃木県","prefecture_kana":"トチギケン","city":"宇都宮市","city_kana":"ウツノミヤシ","town":"高砂町","town_kana":"タカサゴチョウ","prefecture_code":9},"0416":{"zip_code":"3210416","prefecture":"栃木県","prefecture_kana":"トチギケン","city":"宇都宮市","city_kana":"ウツノミヤシ","town":"高松町","town_kana":"タカマツチョウ","prefecture_code":9},"3236":{"zip_code":"3213236","prefecture":"栃木県","prefecture_kana":"トチギケン","city":"宇都宮市","city_kana":"ウツノミヤシ","town":"竹下町","town_kana":"タケシタマチ","prefecture_code":9},"0974":{"zip_code":"3210974","prefecture":"栃木県","prefecture_kana":"トチギケン","city":"宇都宮市","city_kana":"ウツノミヤシ","town":"竹林町","town_kana":"タケバヤシマチ","prefecture_code":9},"0343":{"zip_code":"3210343","prefecture":"栃木県","prefecture_kana":"トチギケン","city":"宇都宮市","city_kana":"ウツノミヤシ","town":"田下町","town_kana":"タゲマチ","prefecture_code":9},"0344":{"zip_code":"3210344","prefecture":"栃木県","prefecture_kana":"トチギケン","city":"宇都宮市","city_kana":"ウツノミヤシ","town":"田野町","town_kana":"タノマチ","prefecture_code":9},"3237":{"zip_code":"3213237","prefecture":"栃木県","prefecture_kana":"トチギケン","city":"宇都宮市","city_kana":"ウツノミヤシ","town":"道場宿町","town_kana":"ドウジョウジュクマチ","prefecture_code":9},"0123":{"zip_code":"3210123","prefecture":"栃木県","prefecture_kana":"トチギケン","city":"宇都宮市","city_kana":"ウツノミヤシ","town":"東谷町","town_kana":"トウヤチョウ","prefecture_code":9},"2116":{"zip_code":"3212116","prefecture":"栃木県","prefecture_kana":"トチギケン","city":"宇都宮市","city_kana":"ウツノミヤシ","town":"徳次郎町","town_kana":"トクジロウマチ","prefecture_code":9},"0911":{"zip_code":"3210911","prefecture":"栃木県","prefecture_kana":"トチギケン","city":"宇都宮市","city_kana":"ウツノミヤシ","town":"問屋町","town_kana":"トンヤマチ","prefecture_code":9},"0968":{"zip_code":"3210968","prefecture":"栃木県","prefecture_kana":"トチギケン","city":"宇都宮市","city_kana":"ウツノミヤシ","town":"中今泉","town_kana":"ナカイマイズミ","prefecture_code":9},"0906":{"zip_code":"3210906","prefecture":"栃木県","prefecture_kana":"トチギケン","city":"宇都宮市","city_kana":"ウツノミヤシ","town":"中久保","town_kana":"ナカクボ","prefecture_code":9},"0414":{"zip_code":"3210414","prefecture":"栃木県","prefecture_kana":"トチギケン","city":"宇都宮市","city_kana":"ウツノミヤシ","town":"中里町","town_kana":"ナカザトチョウ","prefecture_code":9},"0114":{"zip_code":"3210114","prefecture":"栃木県","prefecture_kana":"トチギケン","city":"宇都宮市","city_kana":"ウツノミヤシ","town":"中島町","town_kana":"ナカジマチョウ","prefecture_code":9},"0917":{"zip_code":"3210917","prefecture":"栃木県","prefecture_kana":"トチギケン","city":"宇都宮市","city_kana":"ウツノミヤシ","town":"西刑部町","town_kana":"ニシオサカベマチ","prefecture_code":9},"0152":{"zip_code":"3210152","prefecture":"栃木県","prefecture_kana":"トチギケン","city":"宇都宮市","city_kana":"ウツノミヤシ","town":"西川田","town_kana":"ニシカワタ","prefecture_code":9},"0154":{"zip_code":"3210154","prefecture":"栃木県","prefecture_kana":"トチギケン","city":"宇都宮市","city_kana":"ウツノミヤシ","town":"西川田東町","town_kana":"ニシカワタヒガシマチ","prefecture_code":9},"0158":{"zip_code":"3210158","prefecture":"栃木県","prefecture_kana":"トチギケン","city":"宇都宮市","city_kana":"ウツノミヤシ","town":"西川田本町","town_kana":"ニシカワタホンチョウ","prefecture_code":9},"0151":{"zip_code":"3210151","prefecture":"栃木県","prefecture_kana":"トチギケン","city":"宇都宮市","city_kana":"ウツノミヤシ","town":"西川田町","town_kana":"ニシカワタマチ","prefecture_code":9},"0155":{"zip_code":"3210155","prefecture":"栃木県","prefecture_kana":"トチギケン","city":"宇都宮市","city_kana":"ウツノミヤシ","town":"西川田南","town_kana":"ニシカワタミナミ","prefecture_code":9},"0967":{"zip_code":"3210967","prefecture":"栃木県","prefecture_kana":"トチギケン","city":"宇都宮市","city_kana":"ウツノミヤシ","town":"錦","town_kana":"ニシキ","prefecture_code":9},"2118":{"zip_code":"3212118","prefecture":"栃木県","prefecture_kana":"トチギケン","city":"宇都宮市","city_kana":"ウツノミヤシ","town":"新里町","town_kana":"ニッサトマチ","prefecture_code":9},"3222":{"zip_code":"3213222","prefecture":"栃木県","prefecture_kana":"トチギケン","city":"宇都宮市","city_kana":"ウツノミヤシ","town":"野高谷町","town_kana":"ノゴヤマチ","prefecture_code":9},"0127":{"zip_code":"3210127","prefecture":"栃木県","prefecture_kana":"トチギケン","city":"宇都宮市","city_kana":"ウツノミヤシ","town":"羽牛田町","town_kana":"ハギュウダチョウ","prefecture_code":9},"0137":{"zip_code":"3210137","prefecture":"栃木県","prefecture_kana":"トチギケン","city":"宇都宮市","city_kana":"ウツノミヤシ","town":"針ケ谷","town_kana":"ハリガヤ","prefecture_code":9},"0147":{"zip_code":"3210147","prefecture":"栃木県","prefecture_kana":"トチギケン","city":"宇都宮市","city_kana":"ウツノミヤシ","town":"針ケ谷町","town_kana":"ハリガヤチョウ","prefecture_code":9},"0941":{"zip_code":"3210941","prefecture":"栃木県","prefecture_kana":"トチギケン","city":"宇都宮市","city_kana":"ウツノミヤシ","town":"東今泉","town_kana":"ヒガシイマイズミ","prefecture_code":9},"0167":{"zip_code":"3210167","prefecture":"栃木県","prefecture_kana":"トチギケン","city":"宇都宮市","city_kana":"ウツノミヤシ","town":"東浦町","town_kana":"ヒガシウラマチ","prefecture_code":9},"0915":{"zip_code":"3210915","prefecture":"栃木県","prefecture_kana":"トチギケン","city":"宇都宮市","city_kana":"ウツノミヤシ","town":"東刑部町","town_kana":"ヒガシオサカベマチ","prefecture_code":9},"0916":{"zip_code":"3210916","prefecture":"栃木県","prefecture_kana":"トチギケン","city":"宇都宮市","city_kana":"ウツノミヤシ","town":"東木代町","town_kana":"ヒガシキノシロマチ","prefecture_code":9},"0953":{"zip_code":"3210953","prefecture":"栃木県","prefecture_kana":"トチギケン","city":"宇都宮市","city_kana":"ウツノミヤシ","town":"東宿郷","town_kana":"ヒガシシュクゴウ","prefecture_code":9},"0168":{"zip_code":"3210168","prefecture":"栃木県","prefecture_kana":"トチギケン","city":"宇都宮市","city_kana":"ウツノミヤシ","town":"東原町","town_kana":"ヒガシハラマチ","prefecture_code":9},"0985":{"zip_code":"3210985","prefecture":"栃木県","prefecture_kana":"トチギケン","city":"宇都宮市","city_kana":"ウツノミヤシ","town":"東町","town_kana":"ヒガシマチ","prefecture_code":9},"0944":{"zip_code":"3210944","prefecture":"栃木県","prefecture_kana":"トチギケン","city":"宇都宮市","city_kana":"ウツノミヤシ","town":"東峰町","town_kana":"ヒガシミネマチ","prefecture_code":9},"0925":{"zip_code":"3210925","prefecture":"栃木県","prefecture_kana":"トチギケン","city":"宇都宮市","city_kana":"ウツノミヤシ","town":"東簗瀬","town_kana":"ヒガシヤナゼ","prefecture_code":9},"0116":{"zip_code":"3210116","prefecture":"栃木県","prefecture_kana":"トチギケン","city":"宇都宮市","city_kana":"ウツノミヤシ","town":"東横田町","town_kana":"ヒガシヨコタマチ","prefecture_code":9},"3232":{"zip_code":"3213232","prefecture":"栃木県","prefecture_kana":"トチギケン","city":"宇都宮市","city_kana":"ウツノミヤシ","town":"氷室町","town_kana":"ヒムロマチ","prefecture_code":9},"0138":{"zip_code":"3210138","prefecture":"栃木県","prefecture_kana":"トチギケン","city":"宇都宮市","city_kana":"ウツノミヤシ","town":"兵庫塚","town_kana":"ヒョウゴツカ","prefecture_code":9},"0156":{"zip_code":"3210156","prefecture":"栃木県","prefecture_kana":"トチギケン","city":"宇都宮市","city_kana":"ウツノミヤシ","town":"兵庫塚町","town_kana":"ヒョウゴツカマチ","prefecture_code":9},"0905":{"zip_code":"3210905","prefecture":"栃木県","prefecture_kana":"トチギケン","city":"宇都宮市","city_kana":"ウツノミヤシ","town":"平出工業団地","town_kana":"ヒライデコウギョウダンチ","prefecture_code":9},"0901":{"zip_code":"3210901","prefecture":"栃木県","prefecture_kana":"トチギケン","city":"宇都宮市","city_kana":"ウツノミヤシ","town":"平出町","town_kana":"ヒライデマチ","prefecture_code":9},"0918":{"zip_code":"3210918","prefecture":"栃木県","prefecture_kana":"トチギケン","city":"宇都宮市","city_kana":"ウツノミヤシ","town":"平塚町","town_kana":"ヒラツカマチ","prefecture_code":9},"0931":{"zip_code":"3210931","prefecture":"栃木県","prefecture_kana":"トチギケン","city":"宇都宮市","city_kana":"ウツノミヤシ","town":"平松町","town_kana":"ヒラマツチョウ","prefecture_code":9},"0932":{"zip_code":"3210932","prefecture":"栃木県","prefecture_kana":"トチギケン","city":"宇都宮市","city_kana":"ウツノミヤシ","town":"平松本町","town_kana":"ヒラマツホンチョウ","prefecture_code":9},"0342":{"zip_code":"3210342","prefecture":"栃木県","prefecture_kana":"トチギケン","city":"宇都宮市","city_kana":"ウツノミヤシ","town":"福岡町","town_kana":"フクオカマチ","prefecture_code":9},"0146":{"zip_code":"3210146","prefecture":"栃木県","prefecture_kana":"トチギケン","city":"宇都宮市","city_kana":"ウツノミヤシ","town":"富士見町","town_kana":"フジミチョウ","prefecture_code":9},"0164":{"zip_code":"3210164","prefecture":"栃木県","prefecture_kana":"トチギケン","city":"宇都宮市","city_kana":"ウツノミヤシ","town":"双葉","town_kana":"フタバ","prefecture_code":9},"0417":{"zip_code":"3210417","prefecture":"栃木県","prefecture_kana":"トチギケン","city":"宇都宮市","city_kana":"ウツノミヤシ","town":"冬室町","town_kana":"フユムロチョウ","prefecture_code":9},"0157":{"zip_code":"3210157","prefecture":"栃木県","prefecture_kana":"トチギケン","city":"宇都宮市","city_kana":"ウツノミヤシ","town":"幕田町","town_kana":"マクタマチ","prefecture_code":9},"0407":{"zip_code":"3210407","prefecture":"栃木県","prefecture_kana":"トチギケン","city":"宇都宮市","city_kana":"ウツノミヤシ","town":"松田新田町","town_kana":"マツダシンデンチョウ","prefecture_code":9},"3225":{"zip_code":"3213225","prefecture":"栃木県","prefecture_kana":"トチギケン","city":"宇都宮市","city_kana":"ウツノミヤシ","town":"満美穴町","town_kana":"マミアナマチ","prefecture_code":9},"0921":{"zip_code":"3210921","prefecture":"栃木県","prefecture_kana":"トチギケン","city":"宇都宮市","city_kana":"ウツノミヤシ","town":"瑞穂","town_kana":"ミズホ","prefecture_code":9},"0125":{"zip_code":"3210125","prefecture":"栃木県","prefecture_kana":"トチギケン","city":"宇都宮市","city_kana":"ウツノミヤシ","town":"御田長島町","town_kana":"ミタナガシマチョウ","prefecture_code":9},"0165":{"zip_code":"3210165","prefecture":"栃木県","prefecture_kana":"トチギケン","city":"宇都宮市","city_kana":"ウツノミヤシ","town":"緑","town_kana":"ミドリ","prefecture_code":9},"0136":{"zip_code":"3210136","prefecture":"栃木県","prefecture_kana":"トチギケン","city":"宇都宮市","city_kana":"ウツノミヤシ","town":"みどり野町","town_kana":"ミドリノマチ","prefecture_code":9},"0963":{"zip_code":"3210963","prefecture":"栃木県","prefecture_kana":"トチギケン","city":"宇都宮市","city_kana":"ウツノミヤシ","town":"南大通り","town_kana":"ミナミオオドオリ","prefecture_code":9},"0143":{"zip_code":"3210143","prefecture":"栃木県","prefecture_kana":"トチギケン","city":"宇都宮市","city_kana":"ウツノミヤシ","town":"南高砂町","town_kana":"ミナミタカサゴチョウ","prefecture_code":9},"0142":{"zip_code":"3210142","prefecture":"栃木県","prefecture_kana":"トチギケン","city":"宇都宮市","city_kana":"ウツノミヤシ","town":"南町","town_kana":"ミナミマチ","prefecture_code":9},"0942":{"zip_code":"3210942","prefecture":"栃木県","prefecture_kana":"トチギケン","city":"宇都宮市","city_kana":"ウツノミヤシ","town":"峰","town_kana":"ミネ","prefecture_code":9},"0943":{"zip_code":"3210943","prefecture":"栃木県","prefecture_kana":"トチギケン","city":"宇都宮市","city_kana":"ウツノミヤシ","town":"峰町","town_kana":"ミネマチ","prefecture_code":9},"0131":{"zip_code":"3210131","prefecture":"栃木県","prefecture_kana":"トチギケン","city":"宇都宮市","city_kana":"ウツノミヤシ","town":"宮の内","town_kana":"ミヤノウチ","prefecture_code":9},"0969":{"zip_code":"3210969","prefecture":"栃木県","prefecture_kana":"トチギケン","city":"宇都宮市","city_kana":"ウツノミヤシ","town":"宮みらい","town_kana":"ミヤミライ","prefecture_code":9},"0163":{"zip_code":"3210163","prefecture":"栃木県","prefecture_kana":"トチギケン","city":"宇都宮市","city_kana":"ウツノミヤシ","town":"宮本町","town_kana":"ミヤモトチョウ","prefecture_code":9},"0411":{"zip_code":"3210411","prefecture":"栃木県","prefecture_kana":"トチギケン","city":"宇都宮市","city_kana":"ウツノミヤシ","town":"宮山田町","town_kana":"ミヤヤマダチョウ","prefecture_code":9},"0982":{"zip_code":"3210982","prefecture":"栃木県","prefecture_kana":"トチギケン","city":"宇都宮市","city_kana":"ウツノミヤシ","town":"御幸ケ原町","town_kana":"ミユキガハラマチ","prefecture_code":9},"0984":{"zip_code":"3210984","prefecture":"栃木県","prefecture_kana":"トチギケン","city":"宇都宮市","city_kana":"ウツノミヤシ","town":"御幸町","town_kana":"ミユキチョウ","prefecture_code":9},"0983":{"zip_code":"3210983","prefecture":"栃木県","prefecture_kana":"トチギケン","city":"宇都宮市","city_kana":"ウツノミヤシ","town":"御幸本町","town_kana":"ミユキホンチョウ","prefecture_code":9},"0415":{"zip_code":"3210415","prefecture":"栃木県","prefecture_kana":"トチギケン","city":"宇都宮市","city_kana":"ウツノミヤシ","town":"免ノ内町","town_kana":"メンノウチチョウ","prefecture_code":9},"0954":{"zip_code":"3210954","prefecture":"栃木県","prefecture_kana":"トチギケン","city":"宇都宮市","city_kana":"ウツノミヤシ","town":"元今泉","town_kana":"モトイマイズミ","prefecture_code":9},"0145":{"zip_code":"3210145","prefecture":"栃木県","prefecture_kana":"トチギケン","city":"宇都宮市","city_kana":"ウツノミヤシ","town":"茂原","town_kana":"モバラ","prefecture_code":9},"0126":{"zip_code":"3210126","prefecture":"栃木県","prefecture_kana":"トチギケン","city":"宇都宮市","city_kana":"ウツノミヤシ","town":"茂原町","town_kana":"モバラチョウ","prefecture_code":9},"0112":{"zip_code":"3210112","prefecture":"栃木県","prefecture_kana":"トチギケン","city":"宇都宮市","city_kana":"ウツノミヤシ","town":"屋板町","town_kana":"ヤイタマチ","prefecture_code":9},"0169":{"zip_code":"3210169","prefecture":"栃木県","prefecture_kana":"トチギケン","city":"宇都宮市","city_kana":"ウツノミヤシ","town":"八千代","town_kana":"ヤチヨ","prefecture_code":9},"0902":{"zip_code":"3210902","prefecture":"栃木県","prefecture_kana":"トチギケン","city":"宇都宮市","city_kana":"ウツノミヤシ","town":"柳田町","town_kana":"ヤナギタマチ","prefecture_code":9},"0934":{"zip_code":"3210934","prefecture":"栃木県","prefecture_kana":"トチギケン","city":"宇都宮市","city_kana":"ウツノミヤシ","town":"簗瀬","town_kana":"ヤナゼ","prefecture_code":9},"0933":{"zip_code":"3210933","prefecture":"栃木県","prefecture_kana":"トチギケン","city":"宇都宮市","city_kana":"ウツノミヤシ","town":"簗瀬町","town_kana":"ヤナゼマチ","prefecture_code":9},"0162":{"zip_code":"3210162","prefecture":"栃木県","prefecture_kana":"トチギケン","city":"宇都宮市","city_kana":"ウツノミヤシ","town":"大和","town_kana":"ヤマト","prefecture_code":9},"3226":{"zip_code":"3213226","prefecture":"栃木県","prefecture_kana":"トチギケン","city":"宇都宮市","city_kana":"ウツノミヤシ","town":"ゆいの杜","town_kana":"ユイノモリ","prefecture_code":9},"0904":{"zip_code":"3210904","prefecture":"栃木県","prefecture_kana":"トチギケン","city":"宇都宮市","city_kana":"ウツノミヤシ","town":"陽東","town_kana":"ヨウトウ","prefecture_code":9},"0105":{"zip_code":"3210105","prefecture":"栃木県","prefecture_kana":"トチギケン","city":"宇都宮市","city_kana":"ウツノミヤシ","town":"横田新町","town_kana":"ヨコタシンマチ","prefecture_code":9},"0139":{"zip_code":"3210139","prefecture":"栃木県","prefecture_kana":"トチギケン","city":"宇都宮市","city_kana":"ウツノミヤシ","town":"若松原","town_kana":"ワカマツハラ","prefecture_code":9},"1111":{"zip_code":"3211111","prefecture":"栃木県","prefecture_kana":"トチギケン","city":"鹿沼市","city_kana":"カヌマシ","town":"板荷","town_kana":"イタガ","prefecture_code":9},"1400":{"zip_code":"3211400","prefecture":"栃木県","prefecture_kana":"トチギケン","city":"日光市","city_kana":"ニッコウシ","town":"","town_kana":"","prefecture_code":9},"1413":{"zip_code":"3211413","prefecture":"栃木県","prefecture_kana":"トチギケン","city":"日光市","city_kana":"ニッコウシ","town":"相生町","town_kana":"アイオイチョウ","prefecture_code":9},"2604":{"zip_code":"3212604","prefecture":"栃木県","prefecture_kana":"トチギケン","city":"日光市","city_kana":"ニッコウシ","town":"赤下","town_kana":"アカシタ","prefecture_code":9},"1511":{"zip_code":"3211511","prefecture":"栃木県","prefecture_kana":"トチギケン","city":"日光市","city_kana":"ニッコウシ","town":"足尾町","town_kana":"アシオマチ","prefecture_code":9},"1502":{"zip_code":"3211502","prefecture":"栃木県","prefecture_kana":"トチギケン","city":"日光市","city_kana":"ニッコウシ","town":"足尾町赤倉","town_kana":"アシオマチアカクラ","prefecture_code":9},"1524":{"zip_code":"3211524","prefecture":"栃木県","prefecture_kana":"トチギケン","city":"日光市","city_kana":"ニッコウシ","town":"足尾町赤沢","town_kana":"アシオマチアカサワ","prefecture_code":9},"1501":{"zip_code":"3211501","prefecture":"栃木県","prefecture_kana":"トチギケン","city":"日光市","city_kana":"ニッコウシ","town":"足尾町愛宕下","town_kana":"アシオマチアタゴシタ","prefecture_code":9},"1505":{"zip_code":"3211505","prefecture":"栃木県","prefecture_kana":"トチギケン","city":"日光市","city_kana":"ニッコウシ","town":"足尾町上の平","town_kana":"アシオマチウエノタイラ","prefecture_code":9},"1512":{"zip_code":"3211512","prefecture":"栃木県","prefecture_kana":"トチギケン","city":"日光市","city_kana":"ニッコウシ","town":"足尾町掛水","town_kana":"アシオマチカケミズ","prefecture_code":9},"1504":{"zip_code":"3211504","prefecture":"栃木県","prefecture_kana":"トチギケン","city":"日光市","city_kana":"ニッコウシ","town":"足尾町上間藤","town_kana":"アシオマチカミマトウ","prefecture_code":9},"1506":{"zip_code":"3211506","prefecture":"栃木県","prefecture_kana":"トチギケン","city":"日光市","city_kana":"ニッコウシ","town":"足尾町下間藤","town_kana":"アシオマチシモマトウ","prefecture_code":9},"1515":{"zip_code":"3211515","prefecture":"栃木県","prefecture_kana":"トチギケン","city":"日光市","city_kana":"ニッコウシ","town":"足尾町砂畑","town_kana":"アシオマチスナハタ","prefecture_code":9},"1514":{"zip_code":"3211514","prefecture":"栃木県","prefecture_kana":"トチギケン","city":"日光市","city_kana":"ニッコウシ","town":"足尾町通洞","town_kana":"アシオマチツウドウ","prefecture_code":9},"1521":{"zip_code":"3211521","prefecture":"栃木県","prefecture_kana":"トチギケン","city":"日光市","city_kana":"ニッコウシ","town":"足尾町遠下","town_kana":"アシオマチトオジモ","prefecture_code":9},"1522":{"zip_code":"3211522","prefecture":"栃木県","prefecture_kana":"トチギケン","city":"日光市","city_kana":"ニッコウシ","town":"足尾町中才","town_kana":"アシオマチナカサイ","prefecture_code":9},"1507":{"zip_code":"3211507","prefecture":"栃木県","prefecture_kana":"トチギケン","city":"日光市","city_kana":"ニッコウシ","town":"足尾町南橋","town_kana":"アシオマチナンキョウ","prefecture_code":9},"1503":{"zip_code":"3211503","prefecture":"栃木県","prefecture_kana":"トチギケン","city":"日光市","city_kana":"ニッコウシ","town":"足尾町深沢","town_kana":"アシオマチフカサワ","prefecture_code":9},"1508":{"zip_code":"3211508","prefecture":"栃木県","prefecture_kana":"トチギケン","city":"日光市","city_kana":"ニッコウシ","town":"足尾町本山","town_kana":"アシオマチホンザン","prefecture_code":9},"1523":{"zip_code":"3211523","prefecture":"栃木県","prefecture_kana":"トチギケン","city":"日光市","city_kana":"ニッコウシ","town":"足尾町松原","town_kana":"アシオマチマツバラ","prefecture_code":9},"1513":{"zip_code":"3211513","prefecture":"栃木県","prefecture_kana":"トチギケン","city":"日光市","city_kana":"ニッコウシ","town":"足尾町向原","town_kana":"アシオマチムカイハラ","prefecture_code":9},"2615":{"zip_code":"3212615","prefecture":"栃木県","prefecture_kana":"トチギケン","city":"日光市","city_kana":"ニッコウシ","town":"五十里東山","town_kana":"イカリヒガシヤマ","prefecture_code":9},"2806":{"zip_code":"3212806","prefecture":"栃木県","prefecture_kana":"トチギケン","city":"日光市","city_kana":"ニッコウシ","town":"五十里","town_kana":"イカリ","prefecture_code":9},"1405":{"zip_code":"3211405","prefecture":"栃木県","prefecture_kana":"トチギケン","city":"日光市","city_kana":"ニッコウシ","town":"石屋町","town_kana":"イシヤマチ","prefecture_code":9},"1425":{"zip_code":"3211425","prefecture":"栃木県","prefecture_kana":"トチギケン","city":"日光市","city_kana":"ニッコウシ","town":"和泉","town_kana":"イズミ","prefecture_code":9},"1102":{"zip_code":"3211102","prefecture":"栃木県","prefecture_kana":"トチギケン","city":"日光市","city_kana":"ニッコウシ","town":"板橋","town_kana":"イタバシ","prefecture_code":9},"1411":{"zip_code":"3211411","prefecture":"栃木県","prefecture_kana":"トチギケン","city":"日光市","city_kana":"ニッコウシ","town":"稲荷町","town_kana":"イナリマチ","prefecture_code":9},"2344":{"zip_code":"3212344","prefecture":"栃木県","prefecture_kana":"トチギケン","city":"日光市","city_kana":"ニッコウシ","town":"猪倉","town_kana":"イノクラ","prefecture_code":9},"1261":{"zip_code":"3211261","prefecture":"栃木県","prefecture_kana":"トチギケン","city":"日光市","city_kana":"ニッコウシ","town":"今市","town_kana":"イマイチ","prefecture_code":9},"1272":{"zip_code":"3211272","prefecture":"栃木県","prefecture_kana":"トチギケン","city":"日光市","city_kana":"ニッコウシ","town":"今市本町","town_kana":"イマイチホンチョウ","prefecture_code":9},"1104":{"zip_code":"3211104","prefecture":"栃木県","prefecture_kana":"トチギケン","city":"日光市","city_kana":"ニッコウシ","town":"岩崎","town_kana":"イワザキ","prefecture_code":9},"2333":{"zip_code":"3212333","prefecture":"栃木県","prefecture_kana":"トチギケン","city":"日光市","city_kana":"ニッコウシ","town":"薄井沢","town_kana":"ウスイザワ","prefecture_code":9},"2411":{"zip_code":"3212411","prefecture":"栃木県","prefecture_kana":"トチギケン","city":"日光市","city_kana":"ニッコウシ","town":"大桑町","town_kana":"オオクワマチ","prefecture_code":9},"2341":{"zip_code":"3212341","prefecture":"栃木県","prefecture_kana":"トチギケン","city":"日光市","city_kana":"ニッコウシ","town":"大沢町","town_kana":"オオサワマチ","prefecture_code":9},"2332":{"zip_code":"3212332","prefecture":"栃木県","prefecture_kana":"トチギケン","city":"日光市","city_kana":"ニッコウシ","town":"大室","town_kana":"オオムロ","prefecture_code":9},"2402":{"zip_code":"3212402","prefecture":"栃木県","prefecture_kana":"トチギケン","city":"日光市","city_kana":"ニッコウシ","town":"大渡","town_kana":"オオワタリ","prefecture_code":9},"2336":{"zip_code":"3212336","prefecture":"栃木県","prefecture_kana":"トチギケン","city":"日光市","city_kana":"ニッコウシ","town":"荊沢","town_kana":"オトロザワ","prefecture_code":9},"2354":{"zip_code":"3212354","prefecture":"栃木県","prefecture_kana":"トチギケン","city":"日光市","city_kana":"ニッコウシ","town":"嘉多蔵","town_kana":"カタクラ","prefecture_code":9},"2715":{"zip_code":"3212715","prefecture":"栃木県","prefecture_kana":"トチギケン","city":"日光市","city_kana":"ニッコウシ","town":"上栗山","town_kana":"カミクリヤマ","prefecture_code":9},"1401":{"zip_code":"3211401","prefecture":"栃木県","prefecture_kana":"トチギケン","city":"日光市","city_kana":"ニッコウシ","town":"上鉢石町","town_kana":"カミハツイシマチ","prefecture_code":9},"2802":{"zip_code":"3212802","prefecture":"栃木県","prefecture_kana":"トチギケン","city":"日光市","city_kana":"ニッコウシ","town":"上三依","town_kana":"カミミヨリ","prefecture_code":9},"2524":{"zip_code":"3212524","prefecture":"栃木県","prefecture_kana":"トチギケン","city":"日光市","city_kana":"ニッコウシ","town":"柄倉","town_kana":"カラクラ","prefecture_code":9},"2611":{"zip_code":"3212611","prefecture":"栃木県","prefecture_kana":"トチギケン","city":"日光市","city_kana":"ニッコウシ","town":"川治温泉川治","town_kana":"カワジオンセンカワジ","prefecture_code":9},"2612":{"zip_code":"3212612","prefecture":"栃木県","prefecture_kana":"トチギケン","city":"日光市","city_kana":"ニッコウシ","town":"川治温泉高原","town_kana":"カワジオンセンタカハラ","prefecture_code":9},"2614":{"zip_code":"3212614","prefecture":"栃木県","prefecture_kana":"トチギケン","city":"日光市","city_kana":"ニッコウシ","town":"川治温泉滝","town_kana":"カワジオンセンタキ","prefecture_code":9},"2717":{"zip_code":"3212717","prefecture":"栃木県","prefecture_kana":"トチギケン","city":"日光市","city_kana":"ニッコウシ","town":"川俣","town_kana":"カワマタ","prefecture_code":9},"2401":{"zip_code":"3212401","prefecture":"栃木県","prefecture_kana":"トチギケン","city":"日光市","city_kana":"ニッコウシ","town":"川室","town_kana":"カワムロ","prefecture_code":9},"1273":{"zip_code":"3211273","prefecture":"栃木県","prefecture_kana":"トチギケン","city":"日光市","city_kana":"ニッコウシ","town":"吉沢","town_kana":"キチサワ","prefecture_code":9},"2522":{"zip_code":"3212522","prefecture":"栃木県","prefecture_kana":"トチギケン","city":"日光市","city_kana":"ニッコウシ","town":"鬼怒川温泉大原","town_kana":"キヌガワオンセンオオハラ","prefecture_code":9},"2526":{"zip_code":"3212526","prefecture":"栃木県","prefecture_kana":"トチギケン","city":"日光市","city_kana":"ニッコウシ","town":"鬼怒川温泉滝","town_kana":"キヌガワオンセンタキ","prefecture_code":9},"1444":{"zip_code":"3211444","prefecture":"栃木県","prefecture_kana":"トチギケン","city":"日光市","city_kana":"ニッコウシ","town":"清滝","town_kana":"キヨタキ","prefecture_code":9},"1441":{"zip_code":"3211441","prefecture":"栃木県","prefecture_kana":"トチギケン","city":"日光市","city_kana":"ニッコウシ","town":"清滝安良沢町","town_kana":"キヨタキアラサワマチ","prefecture_code":9},"1443":{"zip_code":"3211443","prefecture":"栃木県","prefecture_kana":"トチギケン","city":"日光市","city_kana":"ニッコウシ","town":"清滝桜ケ丘町","town_kana":"キヨタキサクラガオカマチ","prefecture_code":9},"1448":{"zip_code":"3211448","prefecture":"栃木県","prefecture_kana":"トチギケン","city":"日光市","city_kana":"ニッコウシ","town":"清滝新細尾町","town_kana":"キヨタキシンホソオマチ","prefecture_code":9},"1442":{"zip_code":"3211442","prefecture":"栃木県","prefecture_kana":"トチギケン","city":"日光市","city_kana":"ニッコウシ","town":"清滝丹勢町","town_kana":"キヨタキタンゼマチ","prefecture_code":9},"1446":{"zip_code":"3211446","prefecture":"栃木県","prefecture_kana":"トチギケン","city":"日光市","city_kana":"ニッコウシ","town":"清滝中安戸町","town_kana":"キヨタキナカヤスドマチ","prefecture_code":9},"1447":{"zip_code":"3211447","prefecture":"栃木県","prefecture_kana":"トチギケン","city":"日光市","city_kana":"ニッコウシ","town":"清滝和の代町","town_kana":"キヨタキワノシロマチ","prefecture_code":9},"2345":{"zip_code":"3212345","prefecture":"栃木県","prefecture_kana":"トチギケン","city":"日光市","city_kana":"ニッコウシ","town":"木和田島","town_kana":"キワダシマ","prefecture_code":9},"1436":{"zip_code":"3211436","prefecture":"栃木県","prefecture_kana":"トチギケン","city":"日光市","city_kana":"ニッコウシ","town":"久次良町","town_kana":"クジラマチ","prefecture_code":9},"2353":{"zip_code":"3212353","prefecture":"栃木県","prefecture_kana":"トチギケン","city":"日光市","city_kana":"ニッコウシ","town":"沓掛","town_kana":"クツカケ","prefecture_code":9},"2412":{"zip_code":"3212412","prefecture":"栃木県","prefecture_kana":"トチギケン","city":"日光市","city_kana":"ニッコウシ","town":"倉ケ崎","town_kana":"クラガサキ","prefecture_code":9},"2413":{"zip_code":"3212413","prefecture":"栃木県","prefecture_kana":"トチギケン","city":"日光市","city_kana":"ニッコウシ","town":"倉ケ崎新田","town_kana":"クラガサキシンデン","prefecture_code":9},"2421":{"zip_code":"3212421","prefecture":"栃木県","prefecture_kana":"トチギケン","city":"日光市","city_kana":"ニッコウシ","town":"栗原","town_kana":"クリバラ","prefecture_code":9},"2713":{"zip_code":"3212713","prefecture":"栃木県","prefecture_kana":"トチギケン","city":"日光市","city_kana":"ニッコウシ","town":"黒部","town_kana":"クロベ","prefecture_code":9},"1106":{"zip_code":"3211106","prefecture":"栃木県","prefecture_kana":"トチギケン","city":"日光市","city_kana":"ニッコウシ","town":"小倉","town_kana":"コグラ","prefecture_code":9},"1404":{"zip_code":"3211404","prefecture":"栃木県","prefecture_kana":"トチギケン","city":"日光市","city_kana":"ニッコウシ","town":"御幸町","town_kana":"ゴコウマチ","prefecture_code":9},"2525":{"zip_code":"3212525","prefecture":"栃木県","prefecture_kana":"トチギケン","city":"日光市","city_kana":"ニッコウシ","town":"小佐越","town_kana":"コサゴエ","prefecture_code":9},"1107":{"zip_code":"3211107","prefecture":"栃木県","prefecture_kana":"トチギケン","city":"日光市","city_kana":"ニッコウシ","town":"小代","town_kana":"コシロ","prefecture_code":9},"2352":{"zip_code":"3212352","prefecture":"栃木県","prefecture_kana":"トチギケン","city":"日光市","city_kana":"ニッコウシ","town":"小林","town_kana":"コバヤシ","prefecture_code":9},"2426":{"zip_code":"3212426","prefecture":"栃木県","prefecture_kana":"トチギケン","city":"日光市","city_kana":"ニッコウシ","town":"小百筒置","town_kana":"コビャクツツオキ","prefecture_code":9},"2424":{"zip_code":"3212424","prefecture":"栃木県","prefecture_kana":"トチギケン","city":"日光市","city_kana":"ニッコウシ","town":"小百鳥屋下","town_kana":"コビャクトヤシタ","prefecture_code":9},"2425":{"zip_code":"3212425","prefecture":"栃木県","prefecture_kana":"トチギケン","city":"日光市","city_kana":"ニッコウシ","town":"小百楢原","town_kana":"コビャクナラハラ","prefecture_code":9},"1265":{"zip_code":"3211265","prefecture":"栃木県","prefecture_kana":"トチギケン","city":"日光市","city_kana":"ニッコウシ","town":"小百","town_kana":"コビャク","prefecture_code":9},"2427":{"zip_code":"3212427","prefecture":"栃木県","prefecture_kana":"トチギケン","city":"日光市","city_kana":"ニッコウシ","town":"佐下部","town_kana":"サゲブ","prefecture_code":9},"2355":{"zip_code":"3212355","prefecture":"栃木県","prefecture_kana":"トチギケン","city":"日光市","city_kana":"ニッコウシ","town":"沢又","town_kana":"サワマタ","prefecture_code":9},"1431":{"zip_code":"3211431","prefecture":"栃木県","prefecture_kana":"トチギケン","city":"日光市","city_kana":"ニッコウシ","town":"山内","town_kana":"サンナイ","prefecture_code":9},"2351":{"zip_code":"3212351","prefecture":"栃木県","prefecture_kana":"トチギケン","city":"日光市","city_kana":"ニッコウシ","town":"塩野室町","town_kana":"シオノムロマチ","prefecture_code":9},"1423":{"zip_code":"3211423","prefecture":"栃木県","prefecture_kana":"トチギケン","city":"日光市","city_kana":"ニッコウシ","town":"七里","town_kana":"シチリ","prefecture_code":9},"1276":{"zip_code":"3211276","prefecture":"栃木県","prefecture_kana":"トチギケン","city":"日光市","city_kana":"ニッコウシ","town":"下の内","town_kana":"シモノウチ","prefecture_code":9},"1403":{"zip_code":"3211403","prefecture":"栃木県","prefecture_kana":"トチギケン","city":"日光市","city_kana":"ニッコウシ","town":"下鉢石町","town_kana":"シモハツイシマチ","prefecture_code":9},"1263":{"zip_code":"3211263","prefecture":"栃木県","prefecture_kana":"トチギケン","city":"日光市","city_kana":"ニッコウシ","town":"瀬川","town_kana":"セガワ","prefecture_code":9},"1264":{"zip_code":"3211264","prefecture":"栃木県","prefecture_kana":"トチギケン","city":"日光市","city_kana":"ニッコウシ","town":"瀬尾","town_kana":"セノオ","prefecture_code":9},"2804":{"zip_code":"3212804","prefecture":"栃木県","prefecture_kana":"トチギケン","city":"日光市","city_kana":"ニッコウシ","town":"芹沢","town_kana":"セリサワ","prefecture_code":9},"2405":{"zip_code":"3212405","prefecture":"栃木県","prefecture_kana":"トチギケン","city":"日光市","city_kana":"ニッコウシ","town":"芹沼","town_kana":"セリヌマ","prefecture_code":9},"1277":{"zip_code":"3211277","prefecture":"栃木県","prefecture_kana":"トチギケン","city":"日光市","city_kana":"ニッコウシ","town":"千本木","town_kana":"センボンギ","prefecture_code":9},"2422":{"zip_code":"3212422","prefecture":"栃木県","prefecture_kana":"トチギケン","city":"日光市","city_kana":"ニッコウシ","town":"高柴","town_kana":"タカシバ","prefecture_code":9},"2523":{"zip_code":"3212523","prefecture":"栃木県","prefecture_kana":"トチギケン","city":"日光市","city_kana":"ニッコウシ","town":"高徳","town_kana":"タカトク","prefecture_code":9},"2616":{"zip_code":"3212616","prefecture":"栃木県","prefecture_kana":"トチギケン","city":"日光市","city_kana":"ニッコウシ","town":"高原","town_kana":"タカハラ","prefecture_code":9},"1356":{"zip_code":"3211356","prefecture":"栃木県","prefecture_kana":"トチギケン","city":"日光市","city_kana":"ニッコウシ","town":"滝ケ原","town_kana":"タキガハラ","prefecture_code":9},"1433":{"zip_code":"3211433","prefecture":"栃木県","prefecture_kana":"トチギケン","city":"日光市","city_kana":"ニッコウシ","town":"匠町","town_kana":"タクミチョウ","prefecture_code":9},"1449":{"zip_code":"3211449","prefecture":"栃木県","prefecture_kana":"トチギケン","city":"日光市","city_kana":"ニッコウシ","town":"丹勢","town_kana":"タンゼ","prefecture_code":9},"1266":{"zip_code":"3211266","prefecture":"栃木県","prefecture_kana":"トチギケン","city":"日光市","city_kana":"ニッコウシ","town":"中央町","town_kana":"チュウオウチョウ","prefecture_code":9},"1661":{"zip_code":"3211661","prefecture":"栃木県","prefecture_kana":"トチギケン","city":"日光市","city_kana":"ニッコウシ","town":"中宮祠","town_kana":"チュウグウシ","prefecture_code":9},"1103":{"zip_code":"3211103","prefecture":"栃木県","prefecture_kana":"トチギケン","city":"日光市","city_kana":"ニッコウシ","town":"手岡","town_kana":"チョウカ","prefecture_code":9},"1412":{"zip_code":"3211412","prefecture":"栃木県","prefecture_kana":"トチギケン","city":"日光市","city_kana":"ニッコウシ","town":"東和町","town_kana":"トウワチョウ","prefecture_code":9},"1421":{"zip_code":"3211421","prefecture":"栃木県","prefecture_kana":"トチギケン","city":"日光市","city_kana":"ニッコウシ","town":"所野","town_kana":"トコロノ","prefecture_code":9},"1274":{"zip_code":"3211274","prefecture":"栃木県","prefecture_kana":"トチギケン","city":"日光市","city_kana":"ニッコウシ","town":"土沢","town_kana":"ドサワ","prefecture_code":9},"2805":{"zip_code":"3212805","prefecture":"栃木県","prefecture_kana":"トチギケン","city":"日光市","city_kana":"ニッコウシ","town":"独鈷沢","town_kana":"トッコザワ","prefecture_code":9},"2404":{"zip_code":"3212404","prefecture":"栃木県","prefecture_kana":"トチギケン","city":"日光市","city_kana":"ニッコウシ","town":"轟","town_kana":"トドロク","prefecture_code":9},"2414":{"zip_code":"3212414","prefecture":"栃木県","prefecture_kana":"トチギケン","city":"日光市","city_kana":"ニッコウシ","town":"豊田","town_kana":"トヨダ","prefecture_code":9},"2714":{"zip_code":"3212714","prefecture":"栃木県","prefecture_kana":"トチギケン","city":"日光市","city_kana":"ニッコウシ","town":"土呂部","town_kana":"ドロブ","prefecture_code":9},"1354":{"zip_code":"3211354","prefecture":"栃木県","prefecture_kana":"トチギケン","city":"日光市","city_kana":"ニッコウシ","town":"中小来川","town_kana":"ナカオコロガワ","prefecture_code":9},"1108":{"zip_code":"3211108","prefecture":"栃木県","prefecture_kana":"トチギケン","city":"日光市","city_kana":"ニッコウシ","town":"長畑","town_kana":"ナガハタ","prefecture_code":9},"1402":{"zip_code":"3211402","prefecture":"栃木県","prefecture_kana":"トチギケン","city":"日光市","city_kana":"ニッコウシ","town":"中鉢石町","town_kana":"ナカハツイシマチ","prefecture_code":9},"2803":{"zip_code":"3212803","prefecture":"栃木県","prefecture_kana":"トチギケン","city":"日光市","city_kana":"ニッコウシ","town":"中三依","town_kana":"ナカミヨリ","prefecture_code":9},"1271":{"zip_code":"3211271","prefecture":"栃木県","prefecture_kana":"トチギケン","city":"日光市","city_kana":"ニッコウシ","town":"並木町","town_kana":"ナミキチョウ","prefecture_code":9},"1355":{"zip_code":"3211355","prefecture":"栃木県","prefecture_kana":"トチギケン","city":"日光市","city_kana":"ニッコウシ","town":"西小来川","town_kana":"ニシオコロガワ","prefecture_code":9},"2603":{"zip_code":"3212603","prefecture":"栃木県","prefecture_kana":"トチギケン","city":"日光市","city_kana":"ニッコウシ","town":"西川","town_kana":"ニシカワ","prefecture_code":9},"1415":{"zip_code":"3211415","prefecture":"栃木県","prefecture_kana":"トチギケン","city":"日光市","city_kana":"ニッコウシ","town":"日光","town_kana":"ニッコウ","prefecture_code":9},"2342":{"zip_code":"3212342","prefecture":"栃木県","prefecture_kana":"トチギケン","city":"日光市","city_kana":"ニッコウシ","town":"根室","town_kana":"ネムロ","prefecture_code":9},"2716":{"zip_code":"3212716","prefecture":"栃木県","prefecture_kana":"トチギケン","city":"日光市","city_kana":"ニッコウシ","town":"野門","town_kana":"ノカド","prefecture_code":9},"1424":{"zip_code":"3211424","prefecture":"栃木県","prefecture_kana":"トチギケン","city":"日光市","city_kana":"ニッコウシ","town":"野口","town_kana":"ノグチ","prefecture_code":9},"1435":{"zip_code":"3211435","prefecture":"栃木県","prefecture_kana":"トチギケン","city":"日光市","city_kana":"ニッコウシ","town":"花石町","town_kana":"ハナイシチョウ","prefecture_code":9},"2423":{"zip_code":"3212423","prefecture":"栃木県","prefecture_kana":"トチギケン","city":"日光市","city_kana":"ニッコウシ","town":"原宿","town_kana":"ハラジュク","prefecture_code":9},"2331":{"zip_code":"3212331","prefecture":"栃木県","prefecture_kana":"トチギケン","city":"日光市","city_kana":"ニッコウシ","town":"針貝","town_kana":"ハリガイ","prefecture_code":9},"1414":{"zip_code":"3211414","prefecture":"栃木県","prefecture_kana":"トチギケン","city":"日光市","city_kana":"ニッコウシ","town":"萩垣面","town_kana":"ハンガキメン","prefecture_code":9},"2712":{"zip_code":"3212712","prefecture":"栃木県","prefecture_kana":"トチギケン","city":"日光市","city_kana":"ニッコウシ","town":"日蔭","town_kana":"ヒカゲ","prefecture_code":9},"1351":{"zip_code":"3211351","prefecture":"栃木県","prefecture_kana":"トチギケン","city":"日光市","city_kana":"ニッコウシ","town":"東小来川","town_kana":"ヒガシオコロガワ","prefecture_code":9},"2602":{"zip_code":"3212602","prefecture":"栃木県","prefecture_kana":"トチギケン","city":"日光市","city_kana":"ニッコウシ","town":"一ツ石","town_kana":"ヒトツイシ","prefecture_code":9},"2711":{"zip_code":"3212711","prefecture":"栃木県","prefecture_kana":"トチギケン","city":"日光市","city_kana":"ニッコウシ","town":"日向","town_kana":"ヒナタ","prefecture_code":9},"1262":{"zip_code":"3211262","prefecture":"栃木県","prefecture_kana":"トチギケン","city":"日光市","city_kana":"ニッコウシ","town":"平ケ崎","town_kana":"ヒラガサキ","prefecture_code":9},"2613":{"zip_code":"3212613","prefecture":"栃木県","prefecture_kana":"トチギケン","city":"日光市","city_kana":"ニッコウシ","town":"藤原","town_kana":"フジハラ","prefecture_code":9},"2521":{"zip_code":"3212521","prefecture":"栃木県","prefecture_kana":"トチギケン","city":"日光市","city_kana":"ニッコウシ","town":"藤原","town_kana":"フジハラ","prefecture_code":9},"1105":{"zip_code":"3211105","prefecture":"栃木県","prefecture_kana":"トチギケン","city":"日光市","city_kana":"ニッコウシ","town":"文挾町","town_kana":"フバサミマチ","prefecture_code":9},"1422":{"zip_code":"3211422","prefecture":"栃木県","prefecture_kana":"トチギケン","city":"日光市","city_kana":"ニッコウシ","town":"宝殿","town_kana":"ホウデン","prefecture_code":9},"1445":{"zip_code":"3211445","prefecture":"栃木県","prefecture_kana":"トチギケン","city":"日光市","city_kana":"ニッコウシ","town":"細尾町","town_kana":"ホソオマチ","prefecture_code":9},"1434":{"zip_code":"3211434","prefecture":"栃木県","prefecture_kana":"トチギケン","city":"日光市","city_kana":"ニッコウシ","town":"本町","town_kana":"ホンチョウ","prefecture_code":9},"2403":{"zip_code":"3212403","prefecture":"栃木県","prefecture_kana":"トチギケン","city":"日光市","city_kana":"ニッコウシ","town":"町谷","town_kana":"マチヤ","prefecture_code":9},"1406":{"zip_code":"3211406","prefecture":"栃木県","prefecture_kana":"トチギケン","city":"日光市","city_kana":"ニッコウシ","town":"松原町","town_kana":"マツバラチョウ","prefecture_code":9},"2334":{"zip_code":"3212334","prefecture":"栃木県","prefecture_kana":"トチギケン","city":"日光市","city_kana":"ニッコウシ","town":"水無","town_kana":"ミズナシ","prefecture_code":9},"1353":{"zip_code":"3211353","prefecture":"栃木県","prefecture_kana":"トチギケン","city":"日光市","city_kana":"ニッコウシ","town":"南小来川","town_kana":"ミナミオコロガワ","prefecture_code":9},"1352":{"zip_code":"3211352","prefecture":"栃木県","prefecture_kana":"トチギケン","city":"日光市","city_kana":"ニッコウシ","town":"宮小来川","town_kana":"ミヤオコロガワ","prefecture_code":9},"1101":{"zip_code":"3211101","prefecture":"栃木県","prefecture_kana":"トチギケン","city":"日光市","city_kana":"ニッコウシ","town":"明神","town_kana":"ミョウジン","prefecture_code":9},"1275":{"zip_code":"3211275","prefecture":"栃木県","prefecture_kana":"トチギケン","city":"日光市","city_kana":"ニッコウシ","town":"室瀬","town_kana":"ムロゼ","prefecture_code":9},"2335":{"zip_code":"3212335","prefecture":"栃木県","prefecture_kana":"トチギケン","city":"日光市","city_kana":"ニッコウシ","town":"森友","town_kana":"モリトモ","prefecture_code":9},"1432":{"zip_code":"3211432","prefecture":"栃木県","prefecture_kana":"トチギケン","city":"日光市","city_kana":"ニッコウシ","town":"安川町","town_kana":"ヤスカワチョウ","prefecture_code":9},"2356":{"zip_code":"3212356","prefecture":"栃木県","prefecture_kana":"トチギケン","city":"日光市","city_kana":"ニッコウシ","town":"矢野口","town_kana":"ヤノクチ","prefecture_code":9},"2343":{"zip_code":"3212343","prefecture":"栃木県","prefecture_kana":"トチギケン","city":"日光市","city_kana":"ニッコウシ","town":"山口","town_kana":"ヤマグチ","prefecture_code":9},"1426":{"zip_code":"3211426","prefecture":"栃木県","prefecture_kana":"トチギケン","city":"日光市","city_kana":"ニッコウシ","town":"山久保","town_kana":"ヤマクボ","prefecture_code":9},"2601":{"zip_code":"3212601","prefecture":"栃木県","prefecture_kana":"トチギケン","city":"日光市","city_kana":"ニッコウシ","town":"湯西川","town_kana":"ユニシカワ","prefecture_code":9},"1662":{"zip_code":"3211662","prefecture":"栃木県","prefecture_kana":"トチギケン","city":"日光市","city_kana":"ニッコウシ","town":"湯元","town_kana":"ユモト","prefecture_code":9},"2801":{"zip_code":"3212801","prefecture":"栃木県","prefecture_kana":"トチギケン","city":"日光市","city_kana":"ニッコウシ","town":"横川","town_kana":"ヨコカワ","prefecture_code":9},"1407":{"zip_code":"3211407","prefecture":"栃木県","prefecture_kana":"トチギケン","city":"日光市","city_kana":"ニッコウシ","town":"若杉町","town_kana":"ワカスギチョウ","prefecture_code":9},"2718":{"zip_code":"3212718","prefecture":"栃木県","prefecture_kana":"トチギケン","city":"日光市","city_kana":"ニッコウシ","town":"若間","town_kana":"ワカマ","prefecture_code":9},"4300":{"zip_code":"3214300","prefecture":"栃木県","prefecture_kana":"トチギケン","city":"真岡市","city_kana":"モオカシ","town":"","town_kana":"","prefecture_code":9},"4531":{"zip_code":"3214531","prefecture":"栃木県","prefecture_kana":"トチギケン","city":"真岡市","city_kana":"モオカシ","town":"青田","town_kana":"アオタ","prefecture_code":9},"4312":{"zip_code":"3214312","prefecture":"栃木県","prefecture_kana":"トチギケン","city":"真岡市","city_kana":"モオカシ","town":"青谷","town_kana":"アオヤ","prefecture_code":9},"4401":{"zip_code":"3214401","prefecture":"栃木県","prefecture_kana":"トチギケン","city":"真岡市","city_kana":"モオカシ","town":"赤羽","town_kana":"アカバネ","prefecture_code":9},"4512":{"zip_code":"3214512","prefecture":"栃木県","prefecture_kana":"トチギケン","city":"真岡市","city_kana":"モオカシ","town":"阿部岡","town_kana":"アベオカ","prefecture_code":9},"4517":{"zip_code":"3214517","prefecture":"栃木県","prefecture_kana":"トチギケン","city":"真岡市","city_kana":"モオカシ","town":"阿部品","town_kana":"アベシナ","prefecture_code":9},"4305":{"zip_code":"3214305","prefecture":"栃木県","prefecture_kana":"トチギケン","city":"真岡市","city_kana":"モオカシ","town":"荒町","town_kana":"アラマチ","prefecture_code":9},"4405":{"zip_code":"3214405","prefecture":"栃木県","prefecture_kana":"トチギケン","city":"真岡市","city_kana":"モオカシ","town":"飯貝","town_kana":"イイガイ","prefecture_code":9},"4546":{"zip_code":"3214546","prefecture":"栃木県","prefecture_kana":"トチギケン","city":"真岡市","city_kana":"モオカシ","town":"砂ケ原","town_kana":"イサガハラ","prefecture_code":9},"4507":{"zip_code":"3214507","prefecture":"栃木県","prefecture_kana":"トチギケン","city":"真岡市","city_kana":"モオカシ","town":"石島","town_kana":"イシジマ","prefecture_code":9},"4342":{"zip_code":"3214342","prefecture":"栃木県","prefecture_kana":"トチギケン","city":"真岡市","city_kana":"モオカシ","town":"伊勢崎","town_kana":"イセサキ","prefecture_code":9},"4356":{"zip_code":"3214356","prefecture":"栃木県","prefecture_kana":"トチギケン","city":"真岡市","city_kana":"モオカシ","town":"大沼","town_kana":"オオヌマ","prefecture_code":9},"4506":{"zip_code":"3214506","prefecture":"栃木県","prefecture_kana":"トチギケン","city":"真岡市","city_kana":"モオカシ","town":"大根田","town_kana":"オオネダ","prefecture_code":9},"4332":{"zip_code":"3214332","prefecture":"栃木県","prefecture_kana":"トチギケン","city":"真岡市","city_kana":"モオカシ","town":"大谷新町","town_kana":"オオヤシンマチ","prefecture_code":9},"4338":{"zip_code":"3214338","prefecture":"栃木県","prefecture_kana":"トチギケン","city":"真岡市","city_kana":"モオカシ","town":"大谷台町","town_kana":"オオヤダイマチ","prefecture_code":9},"4333":{"zip_code":"3214333","prefecture":"栃木県","prefecture_kana":"トチギケン","city":"真岡市","city_kana":"モオカシ","town":"大谷本町","town_kana":"オオヤホンマチ","prefecture_code":9},"4508":{"zip_code":"3214508","prefecture":"栃木県","prefecture_kana":"トチギケン","city":"真岡市","city_kana":"モオカシ","town":"大和田","town_kana":"オオワダ","prefecture_code":9},"4505":{"zip_code":"3214505","prefecture":"栃木県","prefecture_kana":"トチギケン","city":"真岡市","city_kana":"モオカシ","town":"沖","town_kana":"オキ","prefecture_code":9},"4347":{"zip_code":"3214347","prefecture":"栃木県","prefecture_kana":"トチギケン","city":"真岡市","city_kana":"モオカシ","town":"加倉","town_kana":"カクラ","prefecture_code":9},"4353":{"zip_code":"3214353","prefecture":"栃木県","prefecture_kana":"トチギケン","city":"真岡市","city_kana":"モオカシ","town":"粕田","town_kana":"カスダ","prefecture_code":9},"4366":{"zip_code":"3214366","prefecture":"栃木県","prefecture_kana":"トチギケン","city":"真岡市","city_kana":"モオカシ","town":"勝瓜","town_kana":"カツウリ","prefecture_code":9},"4536":{"zip_code":"3214536","prefecture":"栃木県","prefecture_kana":"トチギケン","city":"真岡市","city_kana":"モオカシ","town":"上江連","town_kana":"カミエヅラ","prefecture_code":9},"4542":{"zip_code":"3214542","prefecture":"栃木県","prefecture_kana":"トチギケン","city":"真岡市","city_kana":"モオカシ","town":"上大曽","town_kana":"カミオオゾ","prefecture_code":9},"4411":{"zip_code":"3214411","prefecture":"栃木県","prefecture_kana":"トチギケン","city":"真岡市","city_kana":"モオカシ","town":"上大田和","town_kana":"カミオオダワ","prefecture_code":9},"4355":{"zip_code":"3214355","prefecture":"栃木県","prefecture_kana":"トチギケン","city":"真岡市","city_kana":"モオカシ","town":"上大沼","town_kana":"カミオオヌマ","prefecture_code":9},"4337":{"zip_code":"3214337","prefecture":"栃木県","prefecture_kana":"トチギケン","city":"真岡市","city_kana":"モオカシ","town":"上高間木","town_kana":"カミコウマギ","prefecture_code":9},"4416":{"zip_code":"3214416","prefecture":"栃木県","prefecture_kana":"トチギケン","city":"真岡市","city_kana":"モオカシ","town":"上鷺谷","town_kana":"カミサギノヤ","prefecture_code":9},"4541":{"zip_code":"3214541","prefecture":"栃木県","prefecture_kana":"トチギケン","city":"真岡市","city_kana":"モオカシ","town":"上谷貝","town_kana":"カミヤガイ","prefecture_code":9},"4363":{"zip_code":"3214363","prefecture":"栃木県","prefecture_kana":"トチギケン","city":"真岡市","city_kana":"モオカシ","town":"亀山","town_kana":"カメヤマ","prefecture_code":9},"4344":{"zip_code":"3214344","prefecture":"栃木県","prefecture_kana":"トチギケン","city":"真岡市","city_kana":"モオカシ","town":"茅堤","town_kana":"カヤツツミ","prefecture_code":9},"4367":{"zip_code":"3214367","prefecture":"栃木県","prefecture_kana":"トチギケン","city":"真岡市","city_kana":"モオカシ","town":"鬼怒ケ丘","town_kana":"キヌガオカ","prefecture_code":9},"4316":{"zip_code":"3214316","prefecture":"栃木県","prefecture_kana":"トチギケン","city":"真岡市","city_kana":"モオカシ","town":"君島","town_kana":"キミジマ","prefecture_code":9},"4406":{"zip_code":"3214406","prefecture":"栃木県","prefecture_kana":"トチギケン","city":"真岡市","city_kana":"モオカシ","town":"京泉","town_kana":"キョウセン","prefecture_code":9},"4521":{"zip_code":"3214521","prefecture":"栃木県","prefecture_kana":"トチギケン","city":"真岡市","city_kana":"モオカシ","town":"久下田","town_kana":"クゲタ","prefecture_code":9},"4522":{"zip_code":"3214522","prefecture":"栃木県","prefecture_kana":"トチギケン","city":"真岡市","city_kana":"モオカシ","town":"久下田西","town_kana":"クゲタニシ","prefecture_code":9},"4369":{"zip_code":"3214369","prefecture":"栃木県","prefecture_kana":"トチギケン","city":"真岡市","city_kana":"モオカシ","town":"熊倉","town_kana":"クマクラ","prefecture_code":9},"4362":{"zip_code":"3214362","prefecture":"栃木県","prefecture_kana":"トチギケン","city":"真岡市","city_kana":"モオカシ","town":"熊倉町","town_kana":"クマクラチョウ","prefecture_code":9},"4503":{"zip_code":"3214503","prefecture":"栃木県","prefecture_kana":"トチギケン","city":"真岡市","city_kana":"モオカシ","town":"桑ノ川","town_kana":"クワノガワ","prefecture_code":9},"4343":{"zip_code":"3214343","prefecture":"栃木県","prefecture_kana":"トチギケン","city":"真岡市","city_kana":"モオカシ","town":"小橋","town_kana":"コバシ","prefecture_code":9},"4321":{"zip_code":"3214321","prefecture":"栃木県","prefecture_kana":"トチギケン","city":"真岡市","city_kana":"モオカシ","town":"小林","town_kana":"コバヤシ","prefecture_code":9},"4535":{"zip_code":"3214535","prefecture":"栃木県","prefecture_kana":"トチギケン","city":"真岡市","city_kana":"モオカシ","town":"古山","town_kana":"コヤマ","prefecture_code":9},"4534":{"zip_code":"3214534","prefecture":"栃木県","prefecture_kana":"トチギケン","city":"真岡市","city_kana":"モオカシ","town":"境","town_kana":"サカイ","prefecture_code":9},"4523":{"zip_code":"3214523","prefecture":"栃木県","prefecture_kana":"トチギケン","city":"真岡市","city_kana":"モオカシ","town":"さくら","town_kana":"サクラ","prefecture_code":9},"4315":{"zip_code":"3214315","prefecture":"栃木県","prefecture_kana":"トチギケン","city":"真岡市","city_kana":"モオカシ","town":"道祖土","town_kana":"サヤド","prefecture_code":9},"4504":{"zip_code":"3214504","prefecture":"栃木県","prefecture_kana":"トチギケン","city":"真岡市","city_kana":"モオカシ","town":"鹿","town_kana":"シカ","prefecture_code":9},"4326":{"zip_code":"3214326","prefecture":"栃木県","prefecture_kana":"トチギケン","city":"真岡市","city_kana":"モオカシ","town":"島","town_kana":"シマ","prefecture_code":9},"4402":{"zip_code":"3214402","prefecture":"栃木県","prefecture_kana":"トチギケン","city":"真岡市","city_kana":"モオカシ","town":"清水","town_kana":"シミズ","prefecture_code":9},"4543":{"zip_code":"3214543","prefecture":"栃木県","prefecture_kana":"トチギケン","city":"真岡市","city_kana":"モオカシ","town":"下大曽","town_kana":"シモオオゾ","prefecture_code":9},"4413":{"zip_code":"3214413","prefecture":"栃木県","prefecture_kana":"トチギケン","city":"真岡市","city_kana":"モオカシ","town":"下大田和","town_kana":"シモオオダワ","prefecture_code":9},"4357":{"zip_code":"3214357","prefecture":"栃木県","prefecture_kana":"トチギケン","city":"真岡市","city_kana":"モオカシ","town":"下大沼","town_kana":"シモオオヌマ","prefecture_code":9},"4335":{"zip_code":"3214335","prefecture":"栃木県","prefecture_kana":"トチギケン","city":"真岡市","city_kana":"モオカシ","town":"下高間木","town_kana":"シモコウマギ","prefecture_code":9},"4415":{"zip_code":"3214415","prefecture":"栃木県","prefecture_kana":"トチギケン","city":"真岡市","city_kana":"モオカシ","town":"下籠谷","town_kana":"シモコモリヤ","prefecture_code":9},"4414":{"zip_code":"3214414","prefecture":"栃木県","prefecture_kana":"トチギケン","city":"真岡市","city_kana":"モオカシ","town":"下鷺谷","town_kana":"シモサギノヤ","prefecture_code":9},"4313":{"zip_code":"3214313","prefecture":"栃木県","prefecture_kana":"トチギケン","city":"真岡市","city_kana":"モオカシ","town":"須釜","town_kana":"スガマ","prefecture_code":9},"4515":{"zip_code":"3214515","prefecture":"栃木県","prefecture_kana":"トチギケン","city":"真岡市","city_kana":"モオカシ","town":"反町","town_kana":"ソリマチ","prefecture_code":9},"4545":{"zip_code":"3214545","prefecture":"栃木県","prefecture_kana":"トチギケン","city":"真岡市","city_kana":"モオカシ","town":"大道泉","town_kana":"ダイドウイズミ","prefecture_code":9},"4306":{"zip_code":"3214306","prefecture":"栃木県","prefecture_kana":"トチギケン","city":"真岡市","city_kana":"モオカシ","town":"台町","town_kana":"ダイマチ","prefecture_code":9},"4341":{"zip_code":"3214341","prefecture":"栃木県","prefecture_kana":"トチギケン","city":"真岡市","city_kana":"モオカシ","town":"高勢町","town_kana":"タカセチョウ","prefecture_code":9},"4511":{"zip_code":"3214511","prefecture":"栃木県","prefecture_kana":"トチギケン","city":"真岡市","city_kana":"モオカシ","town":"高田","town_kana":"タカダ","prefecture_code":9},"4404":{"zip_code":"3214404","prefecture":"栃木県","prefecture_kana":"トチギケン","city":"真岡市","city_kana":"モオカシ","town":"田島","town_kana":"タジマ","prefecture_code":9},"4325":{"zip_code":"3214325","prefecture":"栃木県","prefecture_kana":"トチギケン","city":"真岡市","city_kana":"モオカシ","town":"田町","town_kana":"タマチ","prefecture_code":9},"4302":{"zip_code":"3214302","prefecture":"栃木県","prefecture_kana":"トチギケン","city":"真岡市","city_kana":"モオカシ","town":"鶴田","town_kana":"ツルタ","prefecture_code":9},"4345":{"zip_code":"3214345","prefecture":"栃木県","prefecture_kana":"トチギケン","city":"真岡市","city_kana":"モオカシ","town":"寺内","town_kana":"テラウチ","prefecture_code":9},"4368":{"zip_code":"3214368","prefecture":"栃木県","prefecture_kana":"トチギケン","city":"真岡市","city_kana":"モオカシ","town":"寺久保","town_kana":"テラクボ","prefecture_code":9},"4354":{"zip_code":"3214354","prefecture":"栃木県","prefecture_kana":"トチギケン","city":"真岡市","city_kana":"モオカシ","town":"寺分","town_kana":"テラブン","prefecture_code":9},"4309":{"zip_code":"3214309","prefecture":"栃木県","prefecture_kana":"トチギケン","city":"真岡市","city_kana":"モオカシ","town":"東光寺","town_kana":"トウコウジ","prefecture_code":9},"4351":{"zip_code":"3214351","prefecture":"栃木県","prefecture_kana":"トチギケン","city":"真岡市","city_kana":"モオカシ","town":"中","town_kana":"ナカ","prefecture_code":9},"4308":{"zip_code":"3214308","prefecture":"栃木県","prefecture_kana":"トチギケン","city":"真岡市","city_kana":"モオカシ","town":"中郷","town_kana":"ナカゴウ","prefecture_code":9},"4532":{"zip_code":"3214532","prefecture":"栃木県","prefecture_kana":"トチギケン","city":"真岡市","city_kana":"モオカシ","town":"長島","town_kana":"ナガシマ","prefecture_code":9},"4364":{"zip_code":"3214364","prefecture":"栃木県","prefecture_kana":"トチギケン","city":"真岡市","city_kana":"モオカシ","town":"長田","town_kana":"ナガタ","prefecture_code":9},"4539":{"zip_code":"3214539","prefecture":"栃木県","prefecture_kana":"トチギケン","city":"真岡市","city_kana":"モオカシ","town":"長沼","town_kana":"ナガヌマ","prefecture_code":9},"4361":{"zip_code":"3214361","prefecture":"栃木県","prefecture_kana":"トチギケン","city":"真岡市","city_kana":"モオカシ","town":"並木町","town_kana":"ナミキチョウ","prefecture_code":9},"4537":{"zip_code":"3214537","prefecture":"栃木県","prefecture_kana":"トチギケン","city":"真岡市","city_kana":"モオカシ","town":"西大島","town_kana":"ニシオオジマ","prefecture_code":9},"4336":{"zip_code":"3214336","prefecture":"栃木県","prefecture_kana":"トチギケン","city":"真岡市","city_kana":"モオカシ","town":"西高間木","town_kana":"ニシコウマギ","prefecture_code":9},"4307":{"zip_code":"3214307","prefecture":"栃木県","prefecture_kana":"トチギケン","city":"真岡市","city_kana":"モオカシ","town":"西郷","town_kana":"ニシゴウ","prefecture_code":9},"4301":{"zip_code":"3214301","prefecture":"栃木県","prefecture_kana":"トチギケン","city":"真岡市","city_kana":"モオカシ","town":"西田井","town_kana":"ニシダイ","prefecture_code":9},"4324":{"zip_code":"3214324","prefecture":"栃木県","prefecture_kana":"トチギケン","city":"真岡市","city_kana":"モオカシ","town":"西沼","town_kana":"ニシヌマ","prefecture_code":9},"4516":{"zip_code":"3214516","prefecture":"栃木県","prefecture_kana":"トチギケン","city":"真岡市","city_kana":"モオカシ","town":"根小屋","town_kana":"ネゴヤ","prefecture_code":9},"4311":{"zip_code":"3214311","prefecture":"栃木県","prefecture_kana":"トチギケン","city":"真岡市","city_kana":"モオカシ","town":"根本","town_kana":"ネモト","prefecture_code":9},"4331":{"zip_code":"3214331","prefecture":"栃木県","prefecture_kana":"トチギケン","city":"真岡市","city_kana":"モオカシ","town":"白布ケ丘","town_kana":"ハクフガオカ","prefecture_code":9},"4303":{"zip_code":"3214303","prefecture":"栃木県","prefecture_kana":"トチギケン","city":"真岡市","city_kana":"モオカシ","town":"八條","town_kana":"ハチジョウ","prefecture_code":9},"4403":{"zip_code":"3214403","prefecture":"栃木県","prefecture_kana":"トチギケン","city":"真岡市","city_kana":"モオカシ","town":"原町","town_kana":"ハラマチ","prefecture_code":9},"4322":{"zip_code":"3214322","prefecture":"栃木県","prefecture_kana":"トチギケン","city":"真岡市","city_kana":"モオカシ","town":"東大島","town_kana":"ヒガシオオシマ","prefecture_code":9},"4304":{"zip_code":"3214304","prefecture":"栃木県","prefecture_kana":"トチギケン","city":"真岡市","city_kana":"モオカシ","town":"東郷","town_kana":"ヒガシゴウ","prefecture_code":9},"4323":{"zip_code":"3214323","prefecture":"栃木県","prefecture_kana":"トチギケン","city":"真岡市","city_kana":"モオカシ","town":"東沼","town_kana":"ヒガシヌマ","prefecture_code":9},"4533":{"zip_code":"3214533","prefecture":"栃木県","prefecture_kana":"トチギケン","city":"真岡市","city_kana":"モオカシ","town":"程島","town_kana":"ホドシマ","prefecture_code":9},"4412":{"zip_code":"3214412","prefecture":"栃木県","prefecture_kana":"トチギケン","city":"真岡市","city_kana":"モオカシ","town":"堀内","town_kana":"ホリウチ","prefecture_code":9},"4544":{"zip_code":"3214544","prefecture":"栃木県","prefecture_kana":"トチギケン","city":"真岡市","city_kana":"モオカシ","town":"堀込","town_kana":"ホリゴメ","prefecture_code":9},"4346":{"zip_code":"3214346","prefecture":"栃木県","prefecture_kana":"トチギケン","city":"真岡市","city_kana":"モオカシ","town":"松山町","town_kana":"マツヤマチョウ","prefecture_code":9},"4514":{"zip_code":"3214514","prefecture":"栃木県","prefecture_kana":"トチギケン","city":"真岡市","city_kana":"モオカシ","town":"水戸部","town_kana":"ミトベ","prefecture_code":9},"4314":{"zip_code":"3214314","prefecture":"栃木県","prefecture_kana":"トチギケン","city":"真岡市","city_kana":"モオカシ","town":"南高岡","town_kana":"ミナミタカオカ","prefecture_code":9},"4513":{"zip_code":"3214513","prefecture":"栃木県","prefecture_kana":"トチギケン","city":"真岡市","city_kana":"モオカシ","town":"三谷","town_kana":"ミヤ","prefecture_code":9},"4502":{"zip_code":"3214502","prefecture":"栃木県","prefecture_kana":"トチギケン","city":"真岡市","city_kana":"モオカシ","town":"物井","town_kana":"モノイ","prefecture_code":9},"4547":{"zip_code":"3214547","prefecture":"栃木県","prefecture_kana":"トチギケン","city":"真岡市","city_kana":"モオカシ","town":"谷貝新田","town_kana":"ヤガイシンデン","prefecture_code":9},"4334":{"zip_code":"3214334","prefecture":"栃木県","prefecture_kana":"トチギケン","city":"真岡市","city_kana":"モオカシ","town":"八木岡","town_kana":"ヤギオカ","prefecture_code":9},"4365":{"zip_code":"3214365","prefecture":"栃木県","prefecture_kana":"トチギケン","city":"真岡市","city_kana":"モオカシ","town":"柳林","town_kana":"ヤナギバヤシ","prefecture_code":9},"4501":{"zip_code":"3214501","prefecture":"栃木県","prefecture_kana":"トチギケン","city":"真岡市","city_kana":"モオカシ","town":"横田","town_kana":"ヨコタ","prefecture_code":9},"4551":{"zip_code":"3214551","prefecture":"栃木県","prefecture_kana":"トチギケン","city":"真岡市","city_kana":"モオカシ","town":"若旅五丁歩","town_kana":"ワカタビ5チョウブ","prefecture_code":9},"4352":{"zip_code":"3214352","prefecture":"栃木県","prefecture_kana":"トチギケン","city":"真岡市","city_kana":"モオカシ","town":"若旅","town_kana":"ワカタビ","prefecture_code":9},"4538":{"zip_code":"3214538","prefecture":"栃木県","prefecture_kana":"トチギケン","city":"真岡市","city_kana":"モオカシ","town":"鷲巣","town_kana":"ワシノス","prefecture_code":9},"0600":{"zip_code":"3210600","prefecture":"栃木県","prefecture_kana":"トチギケン","city":"那須烏山市","city_kana":"ナスカラスヤマシ","town":"","town_kana":"","prefecture_code":9},"0624":{"zip_code":"3210624","prefecture":"栃木県","prefecture_kana":"トチギケン","city":"那須烏山市","city_kana":"ナスカラスヤマシ","town":"旭","town_kana":"アサヒ","prefecture_code":9},"0629":{"zip_code":"3210629","prefecture":"栃木県","prefecture_kana":"トチギケン","city":"那須烏山市","city_kana":"ナスカラスヤマシ","town":"愛宕台","town_kana":"アタゴダイ","prefecture_code":9},"0521":{"zip_code":"3210521","prefecture":"栃木県","prefecture_kana":"トチギケン","city":"那須烏山市","city_kana":"ナスカラスヤマシ","town":"岩子","town_kana":"イワコ","prefecture_code":9},"0527":{"zip_code":"3210527","prefecture":"栃木県","prefecture_kana":"トチギケン","city":"那須烏山市","city_kana":"ナスカラスヤマシ","town":"宇井","town_kana":"ウイ","prefecture_code":9},"0522":{"zip_code":"3210522","prefecture":"栃木県","prefecture_kana":"トチギケン","city":"那須烏山市","city_kana":"ナスカラスヤマシ","town":"大金","town_kana":"オオガネ","prefecture_code":9},"0613":{"zip_code":"3210613","prefecture":"栃木県","prefecture_kana":"トチギケン","city":"那須烏山市","city_kana":"ナスカラスヤマシ","town":"大木須","town_kana":"オオギス","prefecture_code":9},"0602":{"zip_code":"3210602","prefecture":"栃木県","prefecture_kana":"トチギケン","city":"那須烏山市","city_kana":"ナスカラスヤマシ","town":"大桶","town_kana":"オオケ","prefecture_code":9},"0516":{"zip_code":"3210516","prefecture":"栃木県","prefecture_kana":"トチギケン","city":"那須烏山市","city_kana":"ナスカラスヤマシ","town":"大里","town_kana":"オオサト","prefecture_code":9},"0612":{"zip_code":"3210612","prefecture":"栃木県","prefecture_kana":"トチギケン","city":"那須烏山市","city_kana":"ナスカラスヤマシ","town":"大沢","town_kana":"オオサワ","prefecture_code":9},"0528":{"zip_code":"3210528","prefecture":"栃木県","prefecture_kana":"トチギケン","city":"那須烏山市","city_kana":"ナスカラスヤマシ","town":"小倉","town_kana":"オグラ","prefecture_code":9},"0636":{"zip_code":"3210636","prefecture":"栃木県","prefecture_kana":"トチギケン","city":"那須烏山市","city_kana":"ナスカラスヤマシ","town":"落合","town_kana":"オチアイ","prefecture_code":9},"0623":{"zip_code":"3210623","prefecture":"栃木県","prefecture_kana":"トチギケン","city":"那須烏山市","city_kana":"ナスカラスヤマシ","town":"表","town_kana":"オモテ","prefecture_code":9},"0628":{"zip_code":"3210628","prefecture":"栃木県","prefecture_kana":"トチギケン","city":"那須烏山市","city_kana":"ナスカラスヤマシ","town":"金井","town_kana":"カナイ","prefecture_code":9},"0632":{"zip_code":"3210632","prefecture":"栃木県","prefecture_kana":"トチギケン","city":"那須烏山市","city_kana":"ナスカラスヤマシ","town":"神長","town_kana":"カナガ","prefecture_code":9},"0505":{"zip_code":"3210505","prefecture":"栃木県","prefecture_kana":"トチギケン","city":"那須烏山市","city_kana":"ナスカラスヤマシ","town":"上川井","town_kana":"カミカワイ","prefecture_code":9},"0617":{"zip_code":"3210617","prefecture":"栃木県","prefecture_kana":"トチギケン","city":"那須烏山市","city_kana":"ナスカラスヤマシ","town":"上境","town_kana":"カミザカイ","prefecture_code":9},"0611":{"zip_code":"3210611","prefecture":"栃木県","prefecture_kana":"トチギケン","city":"那須烏山市","city_kana":"ナスカラスヤマシ","town":"興野","town_kana":"キョウノ","prefecture_code":9},"0502":{"zip_code":"3210502","prefecture":"栃木県","prefecture_kana":"トチギケン","city":"那須烏山市","city_kana":"ナスカラスヤマシ","town":"熊田","town_kana":"クマダ","prefecture_code":9},"0534":{"zip_code":"3210534","prefecture":"栃木県","prefecture_kana":"トチギケン","city":"那須烏山市","city_kana":"ナスカラスヤマシ","town":"鴻野山","town_kana":"コウノヤマ","prefecture_code":9},"0511":{"zip_code":"3210511","prefecture":"栃木県","prefecture_kana":"トチギケン","city":"那須烏山市","city_kana":"ナスカラスヤマシ","town":"小河原","town_kana":"コガワラ","prefecture_code":9},"0614":{"zip_code":"3210614","prefecture":"栃木県","prefecture_kana":"トチギケン","city":"那須烏山市","city_kana":"ナスカラスヤマシ","town":"小木須","town_kana":"コギス","prefecture_code":9},"0535":{"zip_code":"3210535","prefecture":"栃木県","prefecture_kana":"トチギケン","city":"那須烏山市","city_kana":"ナスカラスヤマシ","town":"小白井","town_kana":"コジロイ","prefecture_code":9},"0513":{"zip_code":"3210513","prefecture":"栃木県","prefecture_kana":"トチギケン","city":"那須烏山市","city_kana":"ナスカラスヤマシ","town":"小塙","town_kana":"コバナ","prefecture_code":9},"0615":{"zip_code":"3210615","prefecture":"栃木県","prefecture_kana":"トチギケン","city":"那須烏山市","city_kana":"ナスカラスヤマシ","town":"小原沢","town_kana":"コハラザワ","prefecture_code":9},"0531":{"zip_code":"3210531","prefecture":"栃木県","prefecture_kana":"トチギケン","city":"那須烏山市","city_kana":"ナスカラスヤマシ","town":"三箇","town_kana":"サンガ","prefecture_code":9},"0501":{"zip_code":"3210501","prefecture":"栃木県","prefecture_kana":"トチギケン","city":"那須烏山市","city_kana":"ナスカラスヤマシ","town":"志鳥","town_kana":"シトリ","prefecture_code":9},"0504":{"zip_code":"3210504","prefecture":"栃木県","prefecture_kana":"トチギケン","city":"那須烏山市","city_kana":"ナスカラスヤマシ","town":"下川井","town_kana":"シモカワイ","prefecture_code":9},"0616":{"zip_code":"3210616","prefecture":"栃木県","prefecture_kana":"トチギケン","city":"那須烏山市","city_kana":"ナスカラスヤマシ","town":"下境","town_kana":"シモザカイ","prefecture_code":9},"0622":{"zip_code":"3210622","prefecture":"栃木県","prefecture_kana":"トチギケン","city":"那須烏山市","city_kana":"ナスカラスヤマシ","town":"城東","town_kana":"ジョウトウ","prefecture_code":9},"0601":{"zip_code":"3210601","prefecture":"栃木県","prefecture_kana":"トチギケン","city":"那須烏山市","city_kana":"ナスカラスヤマシ","town":"白久","town_kana":"シラク","prefecture_code":9},"0631":{"zip_code":"3210631","prefecture":"栃木県","prefecture_kana":"トチギケン","city":"那須烏山市","city_kana":"ナスカラスヤマシ","town":"城山","town_kana":"シロヤマ","prefecture_code":9},"0523":{"zip_code":"3210523","prefecture":"栃木県","prefecture_kana":"トチギケン","city":"那須烏山市","city_kana":"ナスカラスヤマシ","town":"曲畑","town_kana":"ソリハタ","prefecture_code":9},"0512":{"zip_code":"3210512","prefecture":"栃木県","prefecture_kana":"トチギケン","city":"那須烏山市","city_kana":"ナスカラスヤマシ","town":"高瀬","town_kana":"タカセ","prefecture_code":9},"0633":{"zip_code":"3210633","prefecture":"栃木県","prefecture_kana":"トチギケン","city":"那須烏山市","city_kana":"ナスカラスヤマシ","town":"滝","town_kana":"タキ","prefecture_code":9},"0605":{"zip_code":"3210605","prefecture":"栃木県","prefecture_kana":"トチギケン","city":"那須烏山市","city_kana":"ナスカラスヤマシ","town":"滝田","town_kana":"タキタ","prefecture_code":9},"0526":{"zip_code":"3210526","prefecture":"栃木県","prefecture_kana":"トチギケン","city":"那須烏山市","city_kana":"ナスカラスヤマシ","town":"田野倉","town_kana":"タノクラ","prefecture_code":9},"0621":{"zip_code":"3210621","prefecture":"栃木県","prefecture_kana":"トチギケン","city":"那須烏山市","city_kana":"ナスカラスヤマシ","town":"中央","town_kana":"チュウオウ","prefecture_code":9},"0503":{"zip_code":"3210503","prefecture":"栃木県","prefecture_kana":"トチギケン","city":"那須烏山市","city_kana":"ナスカラスヤマシ","town":"月次","town_kana":"ツキナミ","prefecture_code":9},"0517":{"zip_code":"3210517","prefecture":"栃木県","prefecture_kana":"トチギケン","city":"那須烏山市","city_kana":"ナスカラスヤマシ","town":"東原","town_kana":"トウバラ","prefecture_code":9},"0604":{"zip_code":"3210604","prefecture":"栃木県","prefecture_kana":"トチギケン","city":"那須烏山市","city_kana":"ナスカラスヤマシ","town":"中山","town_kana":"ナカヤマ","prefecture_code":9},"0634":{"zip_code":"3210634","prefecture":"栃木県","prefecture_kana":"トチギケン","city":"那須烏山市","city_kana":"ナスカラスヤマシ","town":"野上","town_kana":"ノガミ","prefecture_code":9},"0626":{"zip_code":"3210626","prefecture":"栃木県","prefecture_kana":"トチギケン","city":"那須烏山市","city_kana":"ナスカラスヤマシ","town":"初音","town_kana":"ハツネ","prefecture_code":9},"0525":{"zip_code":"3210525","prefecture":"栃木県","prefecture_kana":"トチギケン","city":"那須烏山市","city_kana":"ナスカラスヤマシ","town":"福岡","town_kana":"フクオカ","prefecture_code":9},"0532":{"zip_code":"3210532","prefecture":"栃木県","prefecture_kana":"トチギケン","city":"那須烏山市","city_kana":"ナスカラスヤマシ","town":"藤田","town_kana":"フジタ","prefecture_code":9},"0515":{"zip_code":"3210515","prefecture":"栃木県","prefecture_kana":"トチギケン","city":"那須烏山市","city_kana":"ナスカラスヤマシ","town":"曲田","town_kana":"マガツタ","prefecture_code":9},"0627":{"zip_code":"3210627","prefecture":"栃木県","prefecture_kana":"トチギケン","city":"那須烏山市","city_kana":"ナスカラスヤマシ","town":"南","town_kana":"ミナミ","prefecture_code":9},"0533":{"zip_code":"3210533","prefecture":"栃木県","prefecture_kana":"トチギケン","city":"那須烏山市","city_kana":"ナスカラスヤマシ","town":"南大和久","town_kana":"ミナミオオワグ","prefecture_code":9},"0625":{"zip_code":"3210625","prefecture":"栃木県","prefecture_kana":"トチギケン","city":"那須烏山市","city_kana":"ナスカラスヤマシ","town":"宮原","town_kana":"ミヤバラ","prefecture_code":9},"0635":{"zip_code":"3210635","prefecture":"栃木県","prefecture_kana":"トチギケン","city":"那須烏山市","city_kana":"ナスカラスヤマシ","town":"向田","town_kana":"ムカダ","prefecture_code":9},"0514":{"zip_code":"3210514","prefecture":"栃木県","prefecture_kana":"トチギケン","city":"那須烏山市","city_kana":"ナスカラスヤマシ","town":"森田","town_kana":"モリタ","prefecture_code":9},"0603":{"zip_code":"3210603","prefecture":"栃木県","prefecture_kana":"トチギケン","city":"那須烏山市","city_kana":"ナスカラスヤマシ","town":"谷浅見","town_kana":"ヤアザミ","prefecture_code":9},"0524":{"zip_code":"3210524","prefecture":"栃木県","prefecture_kana":"トチギケン","city":"那須烏山市","city_kana":"ナスカラスヤマシ","town":"八ケ代","town_kana":"ヤカシロ","prefecture_code":9},"0618":{"zip_code":"3210618","prefecture":"栃木県","prefecture_kana":"トチギケン","city":"那須烏山市","city_kana":"ナスカラスヤマシ","town":"横枕","town_kana":"ヨコマクラ","prefecture_code":9},"4200":{"zip_code":"3214200","prefecture":"栃木県","prefecture_kana":"トチギケン","city":"芳賀郡益子町","city_kana":"ハガグンマシコマチ","town":"","town_kana":"","prefecture_code":9},"4102":{"zip_code":"3214102","prefecture":"栃木県","prefecture_kana":"トチギケン","city":"芳賀郡益子町","city_kana":"ハガグンマシコマチ","town":"芦沼","town_kana":"アシヌマ","prefecture_code":9},"4223":{"zip_code":"3214223","prefecture":"栃木県","prefecture_kana":"トチギケン","city":"芳賀郡益子町","city_kana":"ハガグンマシコマチ","town":"梅ケ内","town_kana":"ウメガウチ","prefecture_code":9},"4221":{"zip_code":"3214221","prefecture":"栃木県","prefecture_kana":"トチギケン","city":"芳賀郡益子町","city_kana":"ハガグンマシコマチ","town":"大郷戸","town_kana":"オオゴウド","prefecture_code":9},"4104":{"zip_code":"3214104","prefecture":"栃木県","prefecture_kana":"トチギケン","city":"芳賀郡益子町","city_kana":"ハガグンマシコマチ","town":"大沢","town_kana":"オオサワ","prefecture_code":9},"4103":{"zip_code":"3214103","prefecture":"栃木県","prefecture_kana":"トチギケン","city":"芳賀郡益子町","city_kana":"ハガグンマシコマチ","town":"大平","town_kana":"オオヒラ","prefecture_code":9},"4101":{"zip_code":"3214101","prefecture":"栃木県","prefecture_kana":"トチギケン","city":"芳賀郡益子町","city_kana":"ハガグンマシコマチ","town":"小宅","town_kana":"オヤケ","prefecture_code":9},"4212":{"zip_code":"3214212","prefecture":"栃木県","prefecture_kana":"トチギケン","city":"芳賀郡益子町","city_kana":"ハガグンマシコマチ","town":"上大羽","town_kana":"カミオオバ","prefecture_code":9},"4226":{"zip_code":"3214226","prefecture":"栃木県","prefecture_kana":"トチギケン","city":"芳賀郡益子町","city_kana":"ハガグンマシコマチ","town":"上山","town_kana":"カミヤマ","prefecture_code":9},"4105":{"zip_code":"3214105","prefecture":"栃木県","prefecture_kana":"トチギケン","city":"芳賀郡益子町","city_kana":"ハガグンマシコマチ","town":"北中","town_kana":"キタナカ","prefecture_code":9},"4222":{"zip_code":"3214222","prefecture":"栃木県","prefecture_kana":"トチギケン","city":"芳賀郡益子町","city_kana":"ハガグンマシコマチ","town":"小泉","town_kana":"コイズミ","prefecture_code":9},"4211":{"zip_code":"3214211","prefecture":"栃木県","prefecture_kana":"トチギケン","city":"芳賀郡益子町","city_kana":"ハガグンマシコマチ","town":"下大羽","town_kana":"シモオオバ","prefecture_code":9},"4218":{"zip_code":"3214218","prefecture":"栃木県","prefecture_kana":"トチギケン","city":"芳賀郡益子町","city_kana":"ハガグンマシコマチ","town":"城内坂","town_kana":"ジョウナイザカ","prefecture_code":9},"4225":{"zip_code":"3214225","prefecture":"栃木県","prefecture_kana":"トチギケン","city":"芳賀郡益子町","city_kana":"ハガグンマシコマチ","town":"長堤","town_kana":"ナガツツミ","prefecture_code":9},"4106":{"zip_code":"3214106","prefecture":"栃木県","prefecture_kana":"トチギケン","city":"芳賀郡益子町","city_kana":"ハガグンマシコマチ","town":"七井","town_kana":"ナナイ","prefecture_code":9},"4107":{"zip_code":"3214107","prefecture":"栃木県","prefecture_kana":"トチギケン","city":"芳賀郡益子町","city_kana":"ハガグンマシコマチ","town":"七井中央","town_kana":"ナナイチュウオウ","prefecture_code":9},"4215":{"zip_code":"3214215","prefecture":"栃木県","prefecture_kana":"トチギケン","city":"芳賀郡益子町","city_kana":"ハガグンマシコマチ","town":"生田目","town_kana":"ナバタメ","prefecture_code":9},"4216":{"zip_code":"3214216","prefecture":"栃木県","prefecture_kana":"トチギケン","city":"芳賀郡益子町","city_kana":"ハガグンマシコマチ","town":"塙","town_kana":"ハナワ","prefecture_code":9},"4227":{"zip_code":"3214227","prefecture":"栃木県","prefecture_kana":"トチギケン","city":"芳賀郡益子町","city_kana":"ハガグンマシコマチ","town":"東田井","town_kana":"ヒガシダイ","prefecture_code":9},"4214":{"zip_code":"3214214","prefecture":"栃木県","prefecture_kana":"トチギケン","city":"芳賀郡益子町","city_kana":"ハガグンマシコマチ","town":"前沢","town_kana":"マエザワ","prefecture_code":9},"4217":{"zip_code":"3214217","prefecture":"栃木県","prefecture_kana":"トチギケン","city":"芳賀郡益子町","city_kana":"ハガグンマシコマチ","town":"益子","town_kana":"マシコ","prefecture_code":9},"4224":{"zip_code":"3214224","prefecture":"栃木県","prefecture_kana":"トチギケン","city":"芳賀郡益子町","city_kana":"ハガグンマシコマチ","town":"本沼","town_kana":"モトヌマ","prefecture_code":9},"4213":{"zip_code":"3214213","prefecture":"栃木県","prefecture_kana":"トチギケン","city":"芳賀郡益子町","city_kana":"ハガグンマシコマチ","town":"山本","town_kana":"ヤマモト","prefecture_code":9},"3500":{"zip_code":"3213500","prefecture":"栃木県","prefecture_kana":"トチギケン","city":"芳賀郡茂木町","city_kana":"ハガグンモテギマチ","town":"","town_kana":"","prefecture_code":9},"3535":{"zip_code":"3213535","prefecture":"栃木県","prefecture_kana":"トチギケン","city":"芳賀郡茂木町","city_kana":"ハガグンモテギマチ","town":"鮎田","town_kana":"アイダ","prefecture_code":9},"3621":{"zip_code":"3213621","prefecture":"栃木県","prefecture_kana":"トチギケン","city":"芳賀郡茂木町","city_kana":"ハガグンモテギマチ","town":"天子","town_kana":"アマコ","prefecture_code":9},"3626":{"zip_code":"3213626","prefecture":"栃木県","prefecture_kana":"トチギケン","city":"芳賀郡茂木町","city_kana":"ハガグンモテギマチ","town":"飯","town_kana":"イイ","prefecture_code":9},"3702":{"zip_code":"3213702","prefecture":"栃木県","prefecture_kana":"トチギケン","city":"芳賀郡茂木町","city_kana":"ハガグンモテギマチ","town":"飯野","town_kana":"イイノ","prefecture_code":9},"3705":{"zip_code":"3213705","prefecture":"栃木県","prefecture_kana":"トチギケン","city":"芳賀郡茂木町","city_kana":"ハガグンモテギマチ","town":"入郷","town_kana":"イリゴウ","prefecture_code":9},"3541":{"zip_code":"3213541","prefecture":"栃木県","prefecture_kana":"トチギケン","city":"芳賀郡茂木町","city_kana":"ハガグンモテギマチ","town":"烏生田","town_kana":"ウゴウダ","prefecture_code":9},"3561":{"zip_code":"3213561","prefecture":"栃木県","prefecture_kana":"トチギケン","city":"芳賀郡茂木町","city_kana":"ハガグンモテギマチ","town":"後郷","town_kana":"ウラゴウ","prefecture_code":9},"3534":{"zip_code":"3213534","prefecture":"栃木県","prefecture_kana":"トチギケン","city":"芳賀郡茂木町","city_kana":"ハガグンモテギマチ","town":"青梅","town_kana":"オウメ","prefecture_code":9},"3554":{"zip_code":"3213554","prefecture":"栃木県","prefecture_kana":"トチギケン","city":"芳賀郡茂木町","city_kana":"ハガグンモテギマチ","town":"大瀬","town_kana":"オオセ","prefecture_code":9},"3553":{"zip_code":"3213553","prefecture":"栃木県","prefecture_kana":"トチギケン","city":"芳賀郡茂木町","city_kana":"ハガグンモテギマチ","town":"大畑","town_kana":"オオバタケ","prefecture_code":9},"3627":{"zip_code":"3213627","prefecture":"栃木県","prefecture_kana":"トチギケン","city":"芳賀郡茂木町","city_kana":"ハガグンモテギマチ","town":"小貫","town_kana":"オヌキ","prefecture_code":9},"3707":{"zip_code":"3213707","prefecture":"栃木県","prefecture_kana":"トチギケン","city":"芳賀郡茂木町","city_kana":"ハガグンモテギマチ","town":"小深","town_kana":"オブカ","prefecture_code":9},"3624":{"zip_code":"3213624","prefecture":"栃木県","prefecture_kana":"トチギケン","city":"芳賀郡茂木町","city_kana":"ハガグンモテギマチ","town":"小山","town_kana":"オヤマ","prefecture_code":9},"3536":{"zip_code":"3213536","prefecture":"栃木県","prefecture_kana":"トチギケン","city":"芳賀郡茂木町","city_kana":"ハガグンモテギマチ","town":"神井","town_kana":"カノイ","prefecture_code":9},"3543":{"zip_code":"3213543","prefecture":"栃木県","prefecture_kana":"トチギケン","city":"芳賀郡茂木町","city_kana":"ハガグンモテギマチ","town":"上後郷","town_kana":"カミウラゴウ","prefecture_code":9},"3546":{"zip_code":"3213546","prefecture":"栃木県","prefecture_kana":"トチギケン","city":"芳賀郡茂木町","city_kana":"ハガグンモテギマチ","town":"上菅又","town_kana":"カミスガマタ","prefecture_code":9},"3703":{"zip_code":"3213703","prefecture":"栃木県","prefecture_kana":"トチギケン","city":"芳賀郡茂木町","city_kana":"ハガグンモテギマチ","town":"河井","town_kana":"カワイ","prefecture_code":9},"3706":{"zip_code":"3213706","prefecture":"栃木県","prefecture_kana":"トチギケン","city":"芳賀郡茂木町","city_kana":"ハガグンモテギマチ","town":"河又","town_kana":"カワマタ","prefecture_code":9},"3622":{"zip_code":"3213622","prefecture":"栃木県","prefecture_kana":"トチギケン","city":"芳賀郡茂木町","city_kana":"ハガグンモテギマチ","town":"北高岡","town_kana":"キタタカオカ","prefecture_code":9},"3623":{"zip_code":"3213623","prefecture":"栃木県","prefecture_kana":"トチギケン","city":"芳賀郡茂木町","city_kana":"ハガグンモテギマチ","town":"木幡","town_kana":"キバタ","prefecture_code":9},"3557":{"zip_code":"3213557","prefecture":"栃木県","prefecture_kana":"トチギケン","city":"芳賀郡茂木町","city_kana":"ハガグンモテギマチ","town":"黒田","town_kana":"クロダ","prefecture_code":9},"3566":{"zip_code":"3213566","prefecture":"栃木県","prefecture_kana":"トチギケン","city":"芳賀郡茂木町","city_kana":"ハガグンモテギマチ","town":"小井戸","town_kana":"コイド","prefecture_code":9},"3544":{"zip_code":"3213544","prefecture":"栃木県","prefecture_kana":"トチギケン","city":"芳賀郡茂木町","city_kana":"ハガグンモテギマチ","town":"坂井","town_kana":"サカノイ","prefecture_code":9},"3542":{"zip_code":"3213542","prefecture":"栃木県","prefecture_kana":"トチギケン","city":"芳賀郡茂木町","city_kana":"ハガグンモテギマチ","town":"九石","town_kana":"サザラシ","prefecture_code":9},"3565":{"zip_code":"3213565","prefecture":"栃木県","prefecture_kana":"トチギケン","city":"芳賀郡茂木町","city_kana":"ハガグンモテギマチ","town":"塩田","town_kana":"シオダ","prefecture_code":9},"3545":{"zip_code":"3213545","prefecture":"栃木県","prefecture_kana":"トチギケン","city":"芳賀郡茂木町","city_kana":"ハガグンモテギマチ","town":"下菅又","town_kana":"シモスガマタ","prefecture_code":9},"3547":{"zip_code":"3213547","prefecture":"栃木県","prefecture_kana":"トチギケン","city":"芳賀郡茂木町","city_kana":"ハガグンモテギマチ","town":"千本","town_kana":"センボ","prefecture_code":9},"3552":{"zip_code":"3213552","prefecture":"栃木県","prefecture_kana":"トチギケン","city":"芳賀郡茂木町","city_kana":"ハガグンモテギマチ","town":"竹原","town_kana":"タケワラ","prefecture_code":9},"3555":{"zip_code":"3213555","prefecture":"栃木県","prefecture_kana":"トチギケン","city":"芳賀郡茂木町","city_kana":"ハガグンモテギマチ","town":"所草","town_kana":"トコロクサ","prefecture_code":9},"3551":{"zip_code":"3213551","prefecture":"栃木県","prefecture_kana":"トチギケン","city":"芳賀郡茂木町","city_kana":"ハガグンモテギマチ","town":"生井","town_kana":"ナマイ","prefecture_code":9},"3563":{"zip_code":"3213563","prefecture":"栃木県","prefecture_kana":"トチギケン","city":"芳賀郡茂木町","city_kana":"ハガグンモテギマチ","town":"林","town_kana":"ハヤシ","prefecture_code":9},"3533":{"zip_code":"3213533","prefecture":"栃木県","prefecture_kana":"トチギケン","city":"芳賀郡茂木町","city_kana":"ハガグンモテギマチ","town":"桧山","town_kana":"ヒヤマ","prefecture_code":9},"3628":{"zip_code":"3213628","prefecture":"栃木県","prefecture_kana":"トチギケン","city":"芳賀郡茂木町","city_kana":"ハガグンモテギマチ","town":"深沢","town_kana":"フカサワ","prefecture_code":9},"3625":{"zip_code":"3213625","prefecture":"栃木県","prefecture_kana":"トチギケン","city":"芳賀郡茂木町","city_kana":"ハガグンモテギマチ","town":"福手","town_kana":"フグテ","prefecture_code":9},"3562":{"zip_code":"3213562","prefecture":"栃木県","prefecture_kana":"トチギケン","city":"芳賀郡茂木町","city_kana":"ハガグンモテギマチ","town":"馬門","town_kana":"マカド","prefecture_code":9},"3704":{"zip_code":"3213704","prefecture":"栃木県","prefecture_kana":"トチギケン","city":"芳賀郡茂木町","city_kana":"ハガグンモテギマチ","town":"牧野","town_kana":"マギノ","prefecture_code":9},"3564":{"zip_code":"3213564","prefecture":"栃木県","prefecture_kana":"トチギケン","city":"芳賀郡茂木町","city_kana":"ハガグンモテギマチ","town":"増井","town_kana":"マシイ","prefecture_code":9},"3556":{"zip_code":"3213556","prefecture":"栃木県","prefecture_kana":"トチギケン","city":"芳賀郡茂木町","city_kana":"ハガグンモテギマチ","town":"町田","town_kana":"マチダ","prefecture_code":9},"3532":{"zip_code":"3213532","prefecture":"栃木県","prefecture_kana":"トチギケン","city":"芳賀郡茂木町","city_kana":"ハガグンモテギマチ","town":"三坂","town_kana":"ミサカ","prefecture_code":9},"3531":{"zip_code":"3213531","prefecture":"栃木県","prefecture_kana":"トチギケン","city":"芳賀郡茂木町","city_kana":"ハガグンモテギマチ","town":"茂木","town_kana":"モテギ","prefecture_code":9},"3701":{"zip_code":"3213701","prefecture":"栃木県","prefecture_kana":"トチギケン","city":"芳賀郡茂木町","city_kana":"ハガグンモテギマチ","town":"山内","town_kana":"ヤマウチ","prefecture_code":9},"3400":{"zip_code":"3213400","prefecture":"栃木県","prefecture_kana":"トチギケン","city":"芳賀郡市貝町","city_kana":"ハガグンイチカイマチ","town":"","town_kana":"","prefecture_code":9},"3426":{"zip_code":"3213426","prefecture":"栃木県","prefecture_kana":"トチギケン","city":"芳賀郡市貝町","city_kana":"ハガグンイチカイマチ","town":"赤羽","town_kana":"アカバネ","prefecture_code":9},"3422":{"zip_code":"3213422","prefecture":"栃木県","prefecture_kana":"トチギケン","city":"芳賀郡市貝町","city_kana":"ハガグンイチカイマチ","town":"石下","town_kana":"イシオロシ","prefecture_code":9},"3423":{"zip_code":"3213423","prefecture":"栃木県","prefecture_kana":"トチギケン","city":"芳賀郡市貝町","city_kana":"ハガグンイチカイマチ","town":"市塙","town_kana":"イチハナ","prefecture_code":9},"3405":{"zip_code":"3213405","prefecture":"栃木県","prefecture_kana":"トチギケン","city":"芳賀郡市貝町","city_kana":"ハガグンイチカイマチ","town":"大谷津","town_kana":"オオヤツ","prefecture_code":9},"3424":{"zip_code":"3213424","prefecture":"栃木県","prefecture_kana":"トチギケン","city":"芳賀郡市貝町","city_kana":"ハガグンイチカイマチ","town":"上根","town_kana":"カミネ","prefecture_code":9},"3411":{"zip_code":"3213411","prefecture":"栃木県","prefecture_kana":"トチギケン","city":"芳賀郡市貝町","city_kana":"ハガグンイチカイマチ","town":"刈生田","town_kana":"カリウタ","prefecture_code":9},"3421":{"zip_code":"3213421","prefecture":"栃木県","prefecture_kana":"トチギケン","city":"芳賀郡市貝町","city_kana":"ハガグンイチカイマチ","town":"笹原田","town_kana":"ササハラダ","prefecture_code":9},"3406":{"zip_code":"3213406","prefecture":"栃木県","prefecture_kana":"トチギケン","city":"芳賀郡市貝町","city_kana":"ハガグンイチカイマチ","town":"塩田","town_kana":"シオダ","prefecture_code":9},"3414":{"zip_code":"3213414","prefecture":"栃木県","prefecture_kana":"トチギケン","city":"芳賀郡市貝町","city_kana":"ハガグンイチカイマチ","town":"椎谷","town_kana":"シュウガイ","prefecture_code":9},"3415":{"zip_code":"3213415","prefecture":"栃木県","prefecture_kana":"トチギケン","city":"芳賀郡市貝町","city_kana":"ハガグンイチカイマチ","town":"杉山","town_kana":"スギヤマ","prefecture_code":9},"3401":{"zip_code":"3213401","prefecture":"栃木県","prefecture_kana":"トチギケン","city":"芳賀郡市貝町","city_kana":"ハガグンイチカイマチ","town":"竹内","town_kana":"タケウチ","prefecture_code":9},"3425":{"zip_code":"3213425","prefecture":"栃木県","prefecture_kana":"トチギケン","city":"芳賀郡市貝町","city_kana":"ハガグンイチカイマチ","town":"多田羅","town_kana":"タタラ","prefecture_code":9},"3412":{"zip_code":"3213412","prefecture":"栃木県","prefecture_kana":"トチギケン","city":"芳賀郡市貝町","city_kana":"ハガグンイチカイマチ","town":"田野辺","town_kana":"タノベ","prefecture_code":9},"3404":{"zip_code":"3213404","prefecture":"栃木県","prefecture_kana":"トチギケン","city":"芳賀郡市貝町","city_kana":"ハガグンイチカイマチ","town":"続谷","town_kana":"ツヅキヤ","prefecture_code":9},"3403":{"zip_code":"3213403","prefecture":"栃木県","prefecture_kana":"トチギケン","city":"芳賀郡市貝町","city_kana":"ハガグンイチカイマチ","town":"羽仏","town_kana":"ハブツ","prefecture_code":9},"3413":{"zip_code":"3213413","prefecture":"栃木県","prefecture_kana":"トチギケン","city":"芳賀郡市貝町","city_kana":"ハガグンイチカイマチ","town":"文谷","town_kana":"フミヤ","prefecture_code":9},"3402":{"zip_code":"3213402","prefecture":"栃木県","prefecture_kana":"トチギケン","city":"芳賀郡市貝町","city_kana":"ハガグンイチカイマチ","town":"見上","town_kana":"ミアゲ","prefecture_code":9},"3300":{"zip_code":"3213300","prefecture":"栃木県","prefecture_kana":"トチギケン","city":"芳賀郡芳賀町","city_kana":"ハガグンハガマチ","town":"","town_kana":"","prefecture_code":9},"3303":{"zip_code":"3213303","prefecture":"栃木県","prefecture_kana":"トチギケン","city":"芳賀郡芳賀町","city_kana":"ハガグンハガマチ","town":"稲毛田","town_kana":"イナゲタ","prefecture_code":9},"3314":{"zip_code":"3213314","prefecture":"栃木県","prefecture_kana":"トチギケン","city":"芳賀郡芳賀町","city_kana":"ハガグンハガマチ","town":"打越新田","town_kana":"ウチゴシンデン","prefecture_code":9},"3304":{"zip_code":"3213304","prefecture":"栃木県","prefecture_kana":"トチギケン","city":"芳賀郡芳賀町","city_kana":"ハガグンハガマチ","town":"祖母井","town_kana":"ウバガイ","prefecture_code":9},"3302":{"zip_code":"3213302","prefecture":"栃木県","prefecture_kana":"トチギケン","city":"芳賀郡芳賀町","city_kana":"ハガグンハガマチ","town":"上稲毛田","town_kana":"カミイナゲタ","prefecture_code":9},"3311":{"zip_code":"3213311","prefecture":"栃木県","prefecture_kana":"トチギケン","city":"芳賀郡芳賀町","city_kana":"ハガグンハガマチ","town":"上延生","town_kana":"カミノブ","prefecture_code":9},"3323":{"zip_code":"3213323","prefecture":"栃木県","prefecture_kana":"トチギケン","city":"芳賀郡芳賀町","city_kana":"ハガグンハガマチ","town":"北長島","town_kana":"キタナガシマ","prefecture_code":9},"3301":{"zip_code":"3213301","prefecture":"栃木県","prefecture_kana":"トチギケン","city":"芳賀郡芳賀町","city_kana":"ハガグンハガマチ","town":"給部","town_kana":"キュウブ","prefecture_code":9},"3321":{"zip_code":"3213321","prefecture":"栃木県","prefecture_kana":"トチギケン","city":"芳賀郡芳賀町","city_kana":"ハガグンハガマチ","town":"下高根沢","town_kana":"シモタカネサワ","prefecture_code":9},"3312":{"zip_code":"3213312","prefecture":"栃木県","prefecture_kana":"トチギケン","city":"芳賀郡芳賀町","city_kana":"ハガグンハガマチ","town":"下延生","town_kana":"シモノブ","prefecture_code":9},"3315":{"zip_code":"3213315","prefecture":"栃木県","prefecture_kana":"トチギケン","city":"芳賀郡芳賀町","city_kana":"ハガグンハガマチ","town":"西高橋","town_kana":"ニシタカハシ","prefecture_code":9},"3324":{"zip_code":"3213324","prefecture":"栃木県","prefecture_kana":"トチギケン","city":"芳賀郡芳賀町","city_kana":"ハガグンハガマチ","town":"西水沼","town_kana":"ニシミズヌマ","prefecture_code":9},"3325":{"zip_code":"3213325","prefecture":"栃木県","prefecture_kana":"トチギケン","city":"芳賀郡芳賀町","city_kana":"ハガグンハガマチ","town":"芳賀台","town_kana":"ハガダイ","prefecture_code":9},"3313":{"zip_code":"3213313","prefecture":"栃木県","prefecture_kana":"トチギケン","city":"芳賀郡芳賀町","city_kana":"ハガグンハガマチ","town":"東高橋","town_kana":"ヒガシタカハシ","prefecture_code":9},"3322":{"zip_code":"3213322","prefecture":"栃木県","prefecture_kana":"トチギケン","city":"芳賀郡芳賀町","city_kana":"ハガグンハガマチ","town":"東水沼","town_kana":"ヒガシミズヌマ","prefecture_code":9},"3305":{"zip_code":"3213305","prefecture":"栃木県","prefecture_kana":"トチギケン","city":"芳賀郡芳賀町","city_kana":"ハガグンハガマチ","town":"芳志戸","town_kana":"ホウシト","prefecture_code":9},"3306":{"zip_code":"3213306","prefecture":"栃木県","prefecture_kana":"トチギケン","city":"芳賀郡芳賀町","city_kana":"ハガグンハガマチ","town":"八ッ木","town_kana":"ヤツキ","prefecture_code":9},"3316":{"zip_code":"3213316","prefecture":"栃木県","prefecture_kana":"トチギケン","city":"芳賀郡芳賀町","city_kana":"ハガグンハガマチ","town":"与能","town_kana":"ヨノウ","prefecture_code":9},"0200":{"zip_code":"3210200","prefecture":"栃木県","prefecture_kana":"トチギケン","city":"下都賀郡壬生町","city_kana":"シモツガグンミブマチ","town":"","town_kana":"","prefecture_code":9},"0206":{"zip_code":"3210206","prefecture":"栃木県","prefecture_kana":"トチギケン","city":"下都賀郡壬生町","city_kana":"シモツガグンミブマチ","town":"あけぼの町","town_kana":"アケボノチョウ","prefecture_code":9},"0213":{"zip_code":"3210213","prefecture":"栃木県","prefecture_kana":"トチギケン","city":"下都賀郡壬生町","city_kana":"シモツガグンミブマチ","town":"いずみ町","town_kana":"イズミチョウ","prefecture_code":9},"0222":{"zip_code":"3210222","prefecture":"栃木県","prefecture_kana":"トチギケン","city":"下都賀郡壬生町","city_kana":"シモツガグンミブマチ","town":"駅東町","town_kana":"エキヒガシマチ","prefecture_code":9},"0218":{"zip_code":"3210218","prefecture":"栃木県","prefecture_kana":"トチギケン","city":"下都賀郡壬生町","city_kana":"シモツガグンミブマチ","town":"落合","town_kana":"オチアイ","prefecture_code":9},"0202":{"zip_code":"3210202","prefecture":"栃木県","prefecture_kana":"トチギケン","city":"下都賀郡壬生町","city_kana":"シモツガグンミブマチ","town":"おもちゃのまち","town_kana":"オモチャノマチ","prefecture_code":9},"0224":{"zip_code":"3210224","prefecture":"栃木県","prefecture_kana":"トチギケン","city":"下都賀郡壬生町","city_kana":"シモツガグンミブマチ","town":"表町","town_kana":"オモテマチ","prefecture_code":9},"0236":{"zip_code":"3210236","prefecture":"栃木県","prefecture_kana":"トチギケン","city":"下都賀郡壬生町","city_kana":"シモツガグンミブマチ","town":"上稲葉","town_kana":"カミイナバ","prefecture_code":9},"0231":{"zip_code":"3210231","prefecture":"栃木県","prefecture_kana":"トチギケン","city":"下都賀郡壬生町","city_kana":"シモツガグンミブマチ","town":"上田","town_kana":"カミダ","prefecture_code":9},"0207":{"zip_code":"3210207","prefecture":"栃木県","prefecture_kana":"トチギケン","city":"下都賀郡壬生町","city_kana":"シモツガグンミブマチ","town":"北小林","town_kana":"キタコバヤシ","prefecture_code":9},"0211":{"zip_code":"3210211","prefecture":"栃木県","prefecture_kana":"トチギケン","city":"下都賀郡壬生町","city_kana":"シモツガグンミブマチ","town":"国谷","town_kana":"クニヤ","prefecture_code":9},"0212":{"zip_code":"3210212","prefecture":"栃木県","prefecture_kana":"トチギケン","city":"下都賀郡壬生町","city_kana":"シモツガグンミブマチ","town":"寿町","town_kana":"コトブキチョウ","prefecture_code":9},"0203":{"zip_code":"3210203","prefecture":"栃木県","prefecture_kana":"トチギケン","city":"下都賀郡壬生町","city_kana":"シモツガグンミブマチ","town":"幸町","town_kana":"サイワイチョウ","prefecture_code":9},"0217":{"zip_code":"3210217","prefecture":"栃木県","prefecture_kana":"トチギケン","city":"下都賀郡壬生町","city_kana":"シモツガグンミブマチ","town":"至宝","town_kana":"シホウ","prefecture_code":9},"0237":{"zip_code":"3210237","prefecture":"栃木県","prefecture_kana":"トチギケン","city":"下都賀郡壬生町","city_kana":"シモツガグンミブマチ","town":"下稲葉","town_kana":"シモイナバ","prefecture_code":9},"0233":{"zip_code":"3210233","prefecture":"栃木県","prefecture_kana":"トチギケン","city":"下都賀郡壬生町","city_kana":"シモツガグンミブマチ","town":"助谷","town_kana":"スケガイ","prefecture_code":9},"0228":{"zip_code":"3210228","prefecture":"栃木県","prefecture_kana":"トチギケン","city":"下都賀郡壬生町","city_kana":"シモツガグンミブマチ","town":"大師町","town_kana":"ダイシマチ","prefecture_code":9},"0226":{"zip_code":"3210226","prefecture":"栃木県","prefecture_kana":"トチギケン","city":"下都賀郡壬生町","city_kana":"シモツガグンミブマチ","town":"中央町","town_kana":"チュウオウチョウ","prefecture_code":9},"0227":{"zip_code":"3210227","prefecture":"栃木県","prefecture_kana":"トチギケン","city":"下都賀郡壬生町","city_kana":"シモツガグンミブマチ","town":"通町","town_kana":"トオリマチ","prefecture_code":9},"0232":{"zip_code":"3210232","prefecture":"栃木県","prefecture_kana":"トチギケン","city":"下都賀郡壬生町","city_kana":"シモツガグンミブマチ","town":"中泉","town_kana":"ナカイズミ","prefecture_code":9},"0235":{"zip_code":"3210235","prefecture":"栃木県","prefecture_kana":"トチギケン","city":"下都賀郡壬生町","city_kana":"シモツガグンミブマチ","town":"七ツ石","town_kana":"ナナツイシ","prefecture_code":9},"0234":{"zip_code":"3210234","prefecture":"栃木県","prefecture_kana":"トチギケン","city":"下都賀郡壬生町","city_kana":"シモツガグンミブマチ","town":"羽生田","town_kana":"ハニュウダ","prefecture_code":9},"0219":{"zip_code":"3210219","prefecture":"栃木県","prefecture_kana":"トチギケン","city":"下都賀郡壬生町","city_kana":"シモツガグンミブマチ","town":"福和田","town_kana":"フクワダ","prefecture_code":9},"0221":{"zip_code":"3210221","prefecture":"栃木県","prefecture_kana":"トチギケン","city":"下都賀郡壬生町","city_kana":"シモツガグンミブマチ","town":"藤井","town_kana":"フジイ","prefecture_code":9},"0225":{"zip_code":"3210225","prefecture":"栃木県","prefecture_kana":"トチギケン","city":"下都賀郡壬生町","city_kana":"シモツガグンミブマチ","town":"本丸","town_kana":"ホンマル","prefecture_code":9},"0204":{"zip_code":"3210204","prefecture":"栃木県","prefecture_kana":"トチギケン","city":"下都賀郡壬生町","city_kana":"シモツガグンミブマチ","town":"緑町","town_kana":"ミドリチョウ","prefecture_code":9},"0214":{"zip_code":"3210214","prefecture":"栃木県","prefecture_kana":"トチギケン","city":"下都賀郡壬生町","city_kana":"シモツガグンミブマチ","town":"壬生甲","town_kana":"ミブコウ","prefecture_code":9},"0215":{"zip_code":"3210215","prefecture":"栃木県","prefecture_kana":"トチギケン","city":"下都賀郡壬生町","city_kana":"シモツガグンミブマチ","town":"壬生乙","town_kana":"ミブオツ","prefecture_code":9},"0216":{"zip_code":"3210216","prefecture":"栃木県","prefecture_kana":"トチギケン","city":"下都賀郡壬生町","city_kana":"シモツガグンミブマチ","town":"壬生丁","town_kana":"ミブテイ","prefecture_code":9},"0238":{"zip_code":"3210238","prefecture":"栃木県","prefecture_kana":"トチギケン","city":"下都賀郡壬生町","city_kana":"シモツガグンミブマチ","town":"みぶ羽生田産業団地","town_kana":"ミブハニュウダサンギョウダンチ","prefecture_code":9},"0223":{"zip_code":"3210223","prefecture":"栃木県","prefecture_kana":"トチギケン","city":"下都賀郡壬生町","city_kana":"シモツガグンミブマチ","town":"元町","town_kana":"モトマチ","prefecture_code":9},"0201":{"zip_code":"3210201","prefecture":"栃木県","prefecture_kana":"トチギケン","city":"下都賀郡壬生町","city_kana":"シモツガグンミブマチ","town":"安塚","town_kana":"ヤスヅカ","prefecture_code":9},"0205":{"zip_code":"3210205","prefecture":"栃木県","prefecture_kana":"トチギケン","city":"下都賀郡壬生町","city_kana":"シモツガグンミブマチ","town":"若草町","town_kana":"ワカクサチョウ","prefecture_code":9},"2501":{"zip_code":"3212501","prefecture":"栃木県","prefecture_kana":"トチギケン","city":"塩谷郡塩谷町","city_kana":"シオヤグンシオヤマチ","town":"上寺島","town_kana":"カミテラシマ","prefecture_code":9}}