{"0602":{"zip_code":"3220602","prefecture":"栃木県","prefecture_kana":"トチギケン","city":"栃木市","city_kana":"トチギシ","town":"西方町金井","town_kana":"ニシカタマチカナイ","prefecture_code":9},"0601":{"zip_code":"3220601","prefecture":"栃木県","prefecture_kana":"トチギケン","city":"栃木市","city_kana":"トチギシ","town":"西方町金崎","town_kana":"ニシカタマチカナサキ","prefecture_code":9},"0603":{"zip_code":"3220603","prefecture":"栃木県","prefecture_kana":"トチギケン","city":"栃木市","city_kana":"トチギシ","town":"西方町本郷","town_kana":"ニシカタマチホンゴウ","prefecture_code":9},"0606":{"zip_code":"3220606","prefecture":"栃木県","prefecture_kana":"トチギケン","city":"栃木市","city_kana":"トチギシ","town":"西方町本城","town_kana":"ニシカタマチホンジョウ","prefecture_code":9},"0605":{"zip_code":"3220605","prefecture":"栃木県","prefecture_kana":"トチギケン","city":"栃木市","city_kana":"トチギシ","town":"西方町真名子","town_kana":"ニシカタマチマナゴ","prefecture_code":9},"0604":{"zip_code":"3220604","prefecture":"栃木県","prefecture_kana":"トチギケン","city":"栃木市","city_kana":"トチギシ","town":"西方町元","town_kana":"ニシカタマチモト","prefecture_code":9},"0000":{"zip_code":"3220000","prefecture":"栃木県","prefecture_kana":"トチギケン","city":"鹿沼市","city_kana":"カヌマシ","town":"","town_kana":"","prefecture_code":9},"0058":{"zip_code":"3220058","prefecture":"栃木県","prefecture_kana":"トチギケン","city":"鹿沼市","city_kana":"カヌマシ","town":"麻苧町","town_kana":"アサウチョウ","prefecture_code":9},"0345":{"zip_code":"3220345","prefecture":"栃木県","prefecture_kana":"トチギケン","city":"鹿沼市","city_kana":"カヌマシ","town":"旭が丘","town_kana":"アサヒガオカ","prefecture_code":9},"0035":{"zip_code":"3220035","prefecture":"栃木県","prefecture_kana":"トチギケン","city":"鹿沼市","city_kana":"カヌマシ","town":"朝日町","town_kana":"アサヒチョウ","prefecture_code":9},"0022":{"zip_code":"3220022","prefecture":"栃木県","prefecture_kana":"トチギケン","city":"鹿沼市","city_kana":"カヌマシ","town":"東町","town_kana":"アズマチョウ","prefecture_code":9},"0342":{"zip_code":"3220342","prefecture":"栃木県","prefecture_kana":"トチギケン","city":"鹿沼市","city_kana":"カヌマシ","town":"油田町","town_kana":"アブラデンマチ","prefecture_code":9},"0018":{"zip_code":"3220018","prefecture":"栃木県","prefecture_kana":"トチギケン","city":"鹿沼市","city_kana":"カヌマシ","town":"池ノ森","town_kana":"イケノモリ","prefecture_code":9},"0055":{"zip_code":"3220055","prefecture":"栃木県","prefecture_kana":"トチギケン","city":"鹿沼市","city_kana":"カヌマシ","town":"石橋町","town_kana":"イシバシチョウ","prefecture_code":9},"0062":{"zip_code":"3220062","prefecture":"栃木県","prefecture_kana":"トチギケン","city":"鹿沼市","city_kana":"カヌマシ","town":"泉町","town_kana":"イズミチョウ","prefecture_code":9},"0536":{"zip_code":"3220536","prefecture":"栃木県","prefecture_kana":"トチギケン","city":"鹿沼市","city_kana":"カヌマシ","town":"磯町","town_kana":"イソマチ","prefecture_code":9},"0068":{"zip_code":"3220068","prefecture":"栃木県","prefecture_kana":"トチギケン","city":"鹿沼市","city_kana":"カヌマシ","town":"今宮町","town_kana":"イマミヤチョウ","prefecture_code":9},"0307":{"zip_code":"3220307","prefecture":"栃木県","prefecture_kana":"トチギケン","city":"鹿沼市","city_kana":"カヌマシ","town":"入粟野","town_kana":"イリアワノ","prefecture_code":9},"0021":{"zip_code":"3220021","prefecture":"栃木県","prefecture_kana":"トチギケン","city":"鹿沼市","city_kana":"カヌマシ","town":"上野町","town_kana":"ウワノマチ","prefecture_code":9},"0525":{"zip_code":"3220525","prefecture":"栃木県","prefecture_kana":"トチギケン","city":"鹿沼市","city_kana":"カヌマシ","town":"大和田町","town_kana":"オオワダマチ","prefecture_code":9},"0005":{"zip_code":"3220005","prefecture":"栃木県","prefecture_kana":"トチギケン","city":"鹿沼市","city_kana":"カヌマシ","town":"御成橋町","town_kana":"オナリバシチョウ","prefecture_code":9},"0027":{"zip_code":"3220027","prefecture":"栃木県","prefecture_kana":"トチギケン","city":"鹿沼市","city_kana":"カヌマシ","town":"貝島町","town_kana":"カイジママチ","prefecture_code":9},"0304":{"zip_code":"3220304","prefecture":"栃木県","prefecture_kana":"トチギケン","city":"鹿沼市","city_kana":"カヌマシ","town":"柏木","town_kana":"カシワギ","prefecture_code":9},"0252":{"zip_code":"3220252","prefecture":"栃木県","prefecture_kana":"トチギケン","city":"鹿沼市","city_kana":"カヌマシ","town":"加園","town_kana":"カゾノ","prefecture_code":9},"0015":{"zip_code":"3220015","prefecture":"栃木県","prefecture_kana":"トチギケン","city":"鹿沼市","city_kana":"カヌマシ","town":"上石川","town_kana":"カミイシカワ","prefecture_code":9},"0102":{"zip_code":"3220102","prefecture":"栃木県","prefecture_kana":"トチギケン","city":"鹿沼市","city_kana":"カヌマシ","town":"上大久保","town_kana":"カミオオクボ","prefecture_code":9},"0423":{"zip_code":"3220423","prefecture":"栃木県","prefecture_kana":"トチギケン","city":"鹿沼市","city_kana":"カヌマシ","town":"上粕尾","town_kana":"カミカスオ","prefecture_code":9},"0254":{"zip_code":"3220254","prefecture":"栃木県","prefecture_kana":"トチギケン","city":"鹿沼市","city_kana":"カヌマシ","town":"上久我","town_kana":"カミクガ","prefecture_code":9},"0065":{"zip_code":"3220065","prefecture":"栃木県","prefecture_kana":"トチギケン","city":"鹿沼市","city_kana":"カヌマシ","town":"上材木町","town_kana":"カミザイモクチョウ","prefecture_code":9},"0066":{"zip_code":"3220066","prefecture":"栃木県","prefecture_kana":"トチギケン","city":"鹿沼市","city_kana":"カヌマシ","town":"上田町","town_kana":"カミタマチ","prefecture_code":9},"0045":{"zip_code":"3220045","prefecture":"栃木県","prefecture_kana":"トチギケン","city":"鹿沼市","city_kana":"カヌマシ","town":"上殿町","town_kana":"カミドノマチ","prefecture_code":9},"0522":{"zip_code":"3220522","prefecture":"栃木県","prefecture_kana":"トチギケン","city":"鹿沼市","city_kana":"カヌマシ","town":"上奈良部町","town_kana":"カミナラブマチ","prefecture_code":9},"0346":{"zip_code":"3220346","prefecture":"栃木県","prefecture_kana":"トチギケン","city":"鹿沼市","city_kana":"カヌマシ","town":"上南摩町","town_kana":"カミナンママチ","prefecture_code":9},"0076":{"zip_code":"3220076","prefecture":"栃木県","prefecture_kana":"トチギケン","city":"鹿沼市","city_kana":"カヌマシ","town":"上日向","town_kana":"カミヒナタ","prefecture_code":9},"0534":{"zip_code":"3220534","prefecture":"栃木県","prefecture_kana":"トチギケン","city":"鹿沼市","city_kana":"カヌマシ","town":"亀和田町","town_kana":"カメワダマチ","prefecture_code":9},"0533":{"zip_code":"3220533","prefecture":"栃木県","prefecture_kana":"トチギケン","city":"鹿沼市","city_kana":"カヌマシ","town":"北赤塚町","town_kana":"キタアカヅカマチ","prefecture_code":9},"0301":{"zip_code":"3220301","prefecture":"栃木県","prefecture_kana":"トチギケン","city":"鹿沼市","city_kana":"カヌマシ","town":"北半田","town_kana":"キタハンダ","prefecture_code":9},"0052":{"zip_code":"3220052","prefecture":"栃木県","prefecture_kana":"トチギケン","city":"鹿沼市","city_kana":"カヌマシ","town":"銀座","town_kana":"ギンザ","prefecture_code":9},"0101":{"zip_code":"3220101","prefecture":"栃木県","prefecture_kana":"トチギケン","city":"鹿沼市","city_kana":"カヌマシ","town":"草久","town_kana":"クサギュウ","prefecture_code":9},"0305":{"zip_code":"3220305","prefecture":"栃木県","prefecture_kana":"トチギケン","city":"鹿沼市","city_kana":"カヌマシ","town":"口粟野","town_kana":"クチアワノ","prefecture_code":9},"0303":{"zip_code":"3220303","prefecture":"栃木県","prefecture_kana":"トチギケン","city":"鹿沼市","city_kana":"カヌマシ","town":"久野","town_kana":"クノ","prefecture_code":9},"0051":{"zip_code":"3220051","prefecture":"栃木県","prefecture_kana":"トチギケン","city":"鹿沼市","city_kana":"カヌマシ","town":"久保町","town_kana":"クボチョウ","prefecture_code":9},"0024":{"zip_code":"3220024","prefecture":"栃木県","prefecture_kana":"トチギケン","city":"鹿沼市","city_kana":"カヌマシ","town":"晃望台","town_kana":"コウボウダイ","prefecture_code":9},"0009":{"zip_code":"3220009","prefecture":"栃木県","prefecture_kana":"トチギケン","city":"鹿沼市","city_kana":"カヌマシ","town":"高谷","town_kana":"コウヤ","prefecture_code":9},"0008":{"zip_code":"3220008","prefecture":"栃木県","prefecture_kana":"トチギケン","city":"鹿沼市","city_kana":"カヌマシ","town":"古賀志町","town_kana":"コガシマチ","prefecture_code":9},"0023":{"zip_code":"3220023","prefecture":"栃木県","prefecture_kana":"トチギケン","city":"鹿沼市","city_kana":"カヌマシ","town":"幸町","town_kana":"サイワイチョウ","prefecture_code":9},"0028":{"zip_code":"3220028","prefecture":"栃木県","prefecture_kana":"トチギケン","city":"鹿沼市","city_kana":"カヌマシ","town":"栄町","town_kana":"サカエチョウ","prefecture_code":9},"0069":{"zip_code":"3220069","prefecture":"栃木県","prefecture_kana":"トチギケン","city":"鹿沼市","city_kana":"カヌマシ","town":"坂田山","town_kana":"サカタヤマ","prefecture_code":9},"0047":{"zip_code":"3220047","prefecture":"栃木県","prefecture_kana":"トチギケン","city":"鹿沼市","city_kana":"カヌマシ","town":"酒野谷","town_kana":"サケノヤ","prefecture_code":9},"0078":{"zip_code":"3220078","prefecture":"栃木県","prefecture_kana":"トチギケン","city":"鹿沼市","city_kana":"カヌマシ","town":"笹原田","town_kana":"ササハラダ","prefecture_code":9},"0014":{"zip_code":"3220014","prefecture":"栃木県","prefecture_kana":"トチギケン","city":"鹿沼市","city_kana":"カヌマシ","town":"さつき町","town_kana":"サツキチョウ","prefecture_code":9},"0343":{"zip_code":"3220343","prefecture":"栃木県","prefecture_kana":"トチギケン","city":"鹿沼市","city_kana":"カヌマシ","town":"佐目町","town_kana":"サメマチ","prefecture_code":9},"0041":{"zip_code":"3220041","prefecture":"栃木県","prefecture_kana":"トチギケン","city":"鹿沼市","city_kana":"カヌマシ","town":"三幸町","town_kana":"サンコウチョウ","prefecture_code":9},"0527":{"zip_code":"3220527","prefecture":"栃木県","prefecture_kana":"トチギケン","city":"鹿沼市","city_kana":"カヌマシ","town":"塩山町","town_kana":"シオヤママチ","prefecture_code":9},"0017":{"zip_code":"3220017","prefecture":"栃木県","prefecture_kana":"トチギケン","city":"鹿沼市","city_kana":"カヌマシ","town":"下石川","town_kana":"シモイシカワ","prefecture_code":9},"0103":{"zip_code":"3220103","prefecture":"栃木県","prefecture_kana":"トチギケン","city":"鹿沼市","city_kana":"カヌマシ","town":"下大久保","town_kana":"シモオオクボ","prefecture_code":9},"0421":{"zip_code":"3220421","prefecture":"栃木県","prefecture_kana":"トチギケン","city":"鹿沼市","city_kana":"カヌマシ","town":"下粕尾","town_kana":"シモカスオ","prefecture_code":9},"0253":{"zip_code":"3220253","prefecture":"栃木県","prefecture_kana":"トチギケン","city":"鹿沼市","city_kana":"カヌマシ","town":"下久我","town_kana":"シモクガ","prefecture_code":9},"0056":{"zip_code":"3220056","prefecture":"栃木県","prefecture_kana":"トチギケン","city":"鹿沼市","city_kana":"カヌマシ","town":"下材木町","town_kana":"シモザイモクチョウ","prefecture_code":9},"0256":{"zip_code":"3220256","prefecture":"栃木県","prefecture_kana":"トチギケン","city":"鹿沼市","city_kana":"カヌマシ","town":"下沢","town_kana":"シモザワ","prefecture_code":9},"0004":{"zip_code":"3220004","prefecture":"栃木県","prefecture_kana":"トチギケン","city":"鹿沼市","city_kana":"カヌマシ","town":"下武子町","town_kana":"シモタケシマチ","prefecture_code":9},"0036":{"zip_code":"3220036","prefecture":"栃木県","prefecture_kana":"トチギケン","city":"鹿沼市","city_kana":"カヌマシ","town":"下田町","town_kana":"シモタマチ","prefecture_code":9},"0079":{"zip_code":"3220079","prefecture":"栃木県","prefecture_kana":"トチギケン","city":"鹿沼市","city_kana":"カヌマシ","town":"下遠部","town_kana":"シモトオベ","prefecture_code":9},"0523":{"zip_code":"3220523","prefecture":"栃木県","prefecture_kana":"トチギケン","city":"鹿沼市","city_kana":"カヌマシ","town":"下奈良部町","town_kana":"シモナラブマチ","prefecture_code":9},"0341":{"zip_code":"3220341","prefecture":"栃木県","prefecture_kana":"トチギケン","city":"鹿沼市","city_kana":"カヌマシ","town":"下南摩町","town_kana":"シモナンママチ","prefecture_code":9},"0075":{"zip_code":"3220075","prefecture":"栃木県","prefecture_kana":"トチギケン","city":"鹿沼市","city_kana":"カヌマシ","town":"下日向","town_kana":"シモヒナタ","prefecture_code":9},"0054":{"zip_code":"3220054","prefecture":"栃木県","prefecture_kana":"トチギケン","city":"鹿沼市","city_kana":"カヌマシ","town":"下横町","town_kana":"シモヨコマチ","prefecture_code":9},"0011":{"zip_code":"3220011","prefecture":"栃木県","prefecture_kana":"トチギケン","city":"鹿沼市","city_kana":"カヌマシ","town":"白桑田","town_kana":"シラクワダ","prefecture_code":9},"0038":{"zip_code":"3220038","prefecture":"栃木県","prefecture_kana":"トチギケン","city":"鹿沼市","city_kana":"カヌマシ","town":"末広町","town_kana":"スエヒロチョウ","prefecture_code":9},"0061":{"zip_code":"3220061","prefecture":"栃木県","prefecture_kana":"トチギケン","city":"鹿沼市","city_kana":"カヌマシ","town":"千手町","town_kana":"センジュマチ","prefecture_code":9},"0002":{"zip_code":"3220002","prefecture":"栃木県","prefecture_kana":"トチギケン","city":"鹿沼市","city_kana":"カヌマシ","town":"千渡","town_kana":"センド","prefecture_code":9},"0007":{"zip_code":"3220007","prefecture":"栃木県","prefecture_kana":"トチギケン","city":"鹿沼市","city_kana":"カヌマシ","town":"武子","town_kana":"タケシ","prefecture_code":9},"0072":{"zip_code":"3220072","prefecture":"栃木県","prefecture_kana":"トチギケン","city":"鹿沼市","city_kana":"カヌマシ","town":"玉田町","town_kana":"タマダマチ","prefecture_code":9},"0057":{"zip_code":"3220057","prefecture":"栃木県","prefecture_kana":"トチギケン","city":"鹿沼市","city_kana":"カヌマシ","town":"寺町","town_kana":"テラマチ","prefecture_code":9},"0067":{"zip_code":"3220067","prefecture":"栃木県","prefecture_kana":"トチギケン","city":"鹿沼市","city_kana":"カヌマシ","town":"天神町","town_kana":"テンジンチョウ","prefecture_code":9},"0001":{"zip_code":"3220001","prefecture":"栃木県","prefecture_kana":"トチギケン","city":"鹿沼市","city_kana":"カヌマシ","town":"栃窪","town_kana":"トチクボ","prefecture_code":9},"0063":{"zip_code":"3220063","prefecture":"栃木県","prefecture_kana":"トチギケン","city":"鹿沼市","city_kana":"カヌマシ","town":"戸張町","town_kana":"トハリチョウ","prefecture_code":9},"0006":{"zip_code":"3220006","prefecture":"栃木県","prefecture_kana":"トチギケン","city":"鹿沼市","city_kana":"カヌマシ","town":"富岡","town_kana":"トミオカ","prefecture_code":9},"0044":{"zip_code":"3220044","prefecture":"栃木県","prefecture_kana":"トチギケン","city":"鹿沼市","city_kana":"カヌマシ","town":"鳥居跡町","town_kana":"トリイドチョウ","prefecture_code":9},"0306":{"zip_code":"3220306","prefecture":"栃木県","prefecture_kana":"トチギケン","city":"鹿沼市","city_kana":"カヌマシ","town":"中粟野","town_kana":"ナカアワノ","prefecture_code":9},"0422":{"zip_code":"3220422","prefecture":"栃木県","prefecture_kana":"トチギケン","city":"鹿沼市","city_kana":"カヌマシ","town":"中粕尾","town_kana":"ナカカスオ","prefecture_code":9},"0037":{"zip_code":"3220037","prefecture":"栃木県","prefecture_kana":"トチギケン","city":"鹿沼市","city_kana":"カヌマシ","town":"中田町","town_kana":"ナカタマチ","prefecture_code":9},"0053":{"zip_code":"3220053","prefecture":"栃木県","prefecture_kana":"トチギケン","city":"鹿沼市","city_kana":"カヌマシ","town":"仲町","town_kana":"ナカマチ","prefecture_code":9},"0528":{"zip_code":"3220528","prefecture":"栃木県","prefecture_kana":"トチギケン","city":"鹿沼市","city_kana":"カヌマシ","town":"奈佐原町","town_kana":"ナサハラマチ","prefecture_code":9},"0003":{"zip_code":"3220003","prefecture":"栃木県","prefecture_kana":"トチギケン","city":"鹿沼市","city_kana":"カヌマシ","town":"仁神堂町","town_kana":"ニガミドウマチ","prefecture_code":9},"0073":{"zip_code":"3220073","prefecture":"栃木県","prefecture_kana":"トチギケン","city":"鹿沼市","city_kana":"カヌマシ","town":"西鹿沼町","town_kana":"ニシカヌママチ","prefecture_code":9},"0344":{"zip_code":"3220344","prefecture":"栃木県","prefecture_kana":"トチギケン","city":"鹿沼市","city_kana":"カヌマシ","town":"西沢町","town_kana":"ニシザワマチ","prefecture_code":9},"0029":{"zip_code":"3220029","prefecture":"栃木県","prefecture_kana":"トチギケン","city":"鹿沼市","city_kana":"カヌマシ","town":"西茂呂","town_kana":"ニシモロ","prefecture_code":9},"0521":{"zip_code":"3220521","prefecture":"栃木県","prefecture_kana":"トチギケン","city":"鹿沼市","city_kana":"カヌマシ","town":"日光奈良部町","town_kana":"ニッコウナラブマチ","prefecture_code":9},"0526":{"zip_code":"3220526","prefecture":"栃木県","prefecture_kana":"トチギケン","city":"鹿沼市","city_kana":"カヌマシ","town":"楡木町","town_kana":"ニレギマチ","prefecture_code":9},"0535":{"zip_code":"3220535","prefecture":"栃木県","prefecture_kana":"トチギケン","city":"鹿沼市","city_kana":"カヌマシ","town":"野沢町","town_kana":"ノザワマチ","prefecture_code":9},"0251":{"zip_code":"3220251","prefecture":"栃木県","prefecture_kana":"トチギケン","city":"鹿沼市","city_kana":"カヌマシ","town":"野尻","town_kana":"ノジリ","prefecture_code":9},"0049":{"zip_code":"3220049","prefecture":"栃木県","prefecture_kana":"トチギケン","city":"鹿沼市","city_kana":"カヌマシ","town":"花岡町","town_kana":"ハナオカマチ","prefecture_code":9},"0039":{"zip_code":"3220039","prefecture":"栃木県","prefecture_kana":"トチギケン","city":"鹿沼市","city_kana":"カヌマシ","town":"東末広町","town_kana":"ヒガシスエヒロチョウ","prefecture_code":9},"0255":{"zip_code":"3220255","prefecture":"栃木県","prefecture_kana":"トチギケン","city":"鹿沼市","city_kana":"カヌマシ","town":"引田","town_kana":"ヒキダ","prefecture_code":9},"0074":{"zip_code":"3220074","prefecture":"栃木県","prefecture_kana":"トチギケン","city":"鹿沼市","city_kana":"カヌマシ","town":"日吉町","town_kana":"ヒヨシチョウ","prefecture_code":9},"0077":{"zip_code":"3220077","prefecture":"栃木県","prefecture_kana":"トチギケン","city":"鹿沼市","city_kana":"カヌマシ","town":"深岩","town_kana":"フカイワ","prefecture_code":9},"0013":{"zip_code":"3220013","prefecture":"栃木県","prefecture_kana":"トチギケン","city":"鹿沼市","city_kana":"カヌマシ","town":"深津","town_kana":"フカヅ","prefecture_code":9},"0302":{"zip_code":"3220302","prefecture":"栃木県","prefecture_kana":"トチギケン","city":"鹿沼市","city_kana":"カヌマシ","town":"深程","town_kana":"フカホド","prefecture_code":9},"0532":{"zip_code":"3220532","prefecture":"栃木県","prefecture_kana":"トチギケン","city":"鹿沼市","city_kana":"カヌマシ","town":"藤江町","town_kana":"フジエマチ","prefecture_code":9},"0034":{"zip_code":"3220034","prefecture":"栃木県","prefecture_kana":"トチギケン","city":"鹿沼市","city_kana":"カヌマシ","town":"府中町","town_kana":"フチュウマチ","prefecture_code":9},"0033":{"zip_code":"3220033","prefecture":"栃木県","prefecture_kana":"トチギケン","city":"鹿沼市","city_kana":"カヌマシ","town":"府所町","town_kana":"フドコロチョウ","prefecture_code":9},"0032":{"zip_code":"3220032","prefecture":"栃木県","prefecture_kana":"トチギケン","city":"鹿沼市","city_kana":"カヌマシ","town":"府所本町","town_kana":"フドコロホンチョウ","prefecture_code":9},"0064":{"zip_code":"3220064","prefecture":"栃木県","prefecture_kana":"トチギケン","city":"鹿沼市","city_kana":"カヌマシ","town":"文化橋町","town_kana":"ブンカバシチョウ","prefecture_code":9},"0042":{"zip_code":"3220042","prefecture":"栃木県","prefecture_kana":"トチギケン","city":"鹿沼市","city_kana":"カヌマシ","town":"蓬莱町","town_kana":"ホウライチョウ","prefecture_code":9},"0012":{"zip_code":"3220012","prefecture":"栃木県","prefecture_kana":"トチギケン","city":"鹿沼市","city_kana":"カヌマシ","town":"松原","town_kana":"マツバラ","prefecture_code":9},"0025":{"zip_code":"3220025","prefecture":"栃木県","prefecture_kana":"トチギケン","city":"鹿沼市","city_kana":"カヌマシ","town":"緑町","town_kana":"ミドリチョウ","prefecture_code":9},"0531":{"zip_code":"3220531","prefecture":"栃木県","prefecture_kana":"トチギケン","city":"鹿沼市","city_kana":"カヌマシ","town":"南上野町","town_kana":"ミナミウエノマチ","prefecture_code":9},"0524":{"zip_code":"3220524","prefecture":"栃木県","prefecture_kana":"トチギケン","city":"鹿沼市","city_kana":"カヌマシ","town":"みなみ町","town_kana":"ミナミチョウ","prefecture_code":9},"0071":{"zip_code":"3220071","prefecture":"栃木県","prefecture_kana":"トチギケン","city":"鹿沼市","city_kana":"カヌマシ","town":"見野","town_kana":"ミノ","prefecture_code":9},"0031":{"zip_code":"3220031","prefecture":"栃木県","prefecture_kana":"トチギケン","city":"鹿沼市","city_kana":"カヌマシ","town":"睦町","town_kana":"ムツミチョウ","prefecture_code":9},"0048":{"zip_code":"3220048","prefecture":"栃木県","prefecture_kana":"トチギケン","city":"鹿沼市","city_kana":"カヌマシ","town":"村井町","town_kana":"ムライマチ","prefecture_code":9},"0046":{"zip_code":"3220046","prefecture":"栃木県","prefecture_kana":"トチギケン","city":"鹿沼市","city_kana":"カヌマシ","town":"樅山町","town_kana":"モミヤママチ","prefecture_code":9},"0026":{"zip_code":"3220026","prefecture":"栃木県","prefecture_kana":"トチギケン","city":"鹿沼市","city_kana":"カヌマシ","town":"茂呂","town_kana":"モロ","prefecture_code":9},"0043":{"zip_code":"3220043","prefecture":"栃木県","prefecture_kana":"トチギケン","city":"鹿沼市","city_kana":"カヌマシ","town":"万町","town_kana":"ヨロズチョウ","prefecture_code":9},"0016":{"zip_code":"3220016","prefecture":"栃木県","prefecture_kana":"トチギケン","city":"鹿沼市","city_kana":"カヌマシ","town":"流通センター","town_kana":"リュウツウセンター","prefecture_code":9}}