{"1102":{"zip_code":"3231102","prefecture":"栃木県","prefecture_kana":"トチギケン","city":"栃木市","city_kana":"トチギシ","town":"藤岡町赤麻","town_kana":"フジオカマチアカマ","prefecture_code":9},"1103":{"zip_code":"3231103","prefecture":"栃木県","prefecture_kana":"トチギケン","city":"栃木市","city_kana":"トチギシ","town":"藤岡町内野","town_kana":"フジオカマチウチノ","prefecture_code":9},"1108":{"zip_code":"3231108","prefecture":"栃木県","prefecture_kana":"トチギケン","city":"栃木市","city_kana":"トチギシ","town":"藤岡町太田","town_kana":"フジオカマチオオタ","prefecture_code":9},"1107":{"zip_code":"3231107","prefecture":"栃木県","prefecture_kana":"トチギケン","city":"栃木市","city_kana":"トチギシ","town":"藤岡町大田和","town_kana":"フジオカマチオオダワ","prefecture_code":9},"1101":{"zip_code":"3231101","prefecture":"栃木県","prefecture_kana":"トチギケン","city":"栃木市","city_kana":"トチギシ","town":"藤岡町大前","town_kana":"フジオカマチオオマエ","prefecture_code":9},"1105":{"zip_code":"3231105","prefecture":"栃木県","prefecture_kana":"トチギケン","city":"栃木市","city_kana":"トチギシ","town":"藤岡町甲","town_kana":"フジオカマチコウ","prefecture_code":9},"1106":{"zip_code":"3231106","prefecture":"栃木県","prefecture_kana":"トチギケン","city":"栃木市","city_kana":"トチギシ","town":"藤岡町都賀","town_kana":"フジオカマチツガ","prefecture_code":9},"1104":{"zip_code":"3231104","prefecture":"栃木県","prefecture_kana":"トチギケン","city":"栃木市","city_kana":"トチギシ","town":"藤岡町藤岡","town_kana":"フジオカマチフジオカ","prefecture_code":9},"0000":{"zip_code":"3230000","prefecture":"栃木県","prefecture_kana":"トチギケン","city":"小山市","city_kana":"オヤマシ","town":"","town_kana":"","prefecture_code":9},"0826":{"zip_code":"3230826","prefecture":"栃木県","prefecture_kana":"トチギケン","city":"小山市","city_kana":"オヤマシ","town":"雨ケ谷","town_kana":"アマガヤ","prefecture_code":9},"0824":{"zip_code":"3230824","prefecture":"栃木県","prefecture_kana":"トチギケン","city":"小山市","city_kana":"オヤマシ","town":"雨ケ谷新田","town_kana":"アマガヤシンデン","prefecture_code":9},"0013":{"zip_code":"3230013","prefecture":"栃木県","prefecture_kana":"トチギケン","city":"小山市","city_kana":"オヤマシ","town":"荒井","town_kana":"アライ","prefecture_code":9},"0006":{"zip_code":"3230006","prefecture":"栃木県","prefecture_kana":"トチギケン","city":"小山市","city_kana":"オヤマシ","town":"荒川","town_kana":"アラカワ","prefecture_code":9},"0017":{"zip_code":"3230017","prefecture":"栃木県","prefecture_kana":"トチギケン","city":"小山市","city_kana":"オヤマシ","town":"飯塚","town_kana":"イイヅカ","prefecture_code":9},"0054":{"zip_code":"3230054","prefecture":"栃木県","prefecture_kana":"トチギケン","city":"小山市","city_kana":"オヤマシ","town":"井岡","town_kana":"イオカ","prefecture_code":9},"0051":{"zip_code":"3230051","prefecture":"栃木県","prefecture_kana":"トチギケン","city":"小山市","city_kana":"オヤマシ","town":"生駒","town_kana":"イコマ","prefecture_code":9},"0045":{"zip_code":"3230045","prefecture":"栃木県","prefecture_kana":"トチギケン","city":"小山市","city_kana":"オヤマシ","town":"石ノ上","town_kana":"イシノウエ","prefecture_code":9},"0808":{"zip_code":"3230808","prefecture":"栃木県","prefecture_kana":"トチギケン","city":"小山市","city_kana":"オヤマシ","town":"出井","town_kana":"イデイ","prefecture_code":9},"0021":{"zip_code":"3230021","prefecture":"栃木県","prefecture_kana":"トチギケン","city":"小山市","city_kana":"オヤマシ","town":"稲葉郷","town_kana":"イナバゴウ","prefecture_code":9},"0811":{"zip_code":"3230811","prefecture":"栃木県","prefecture_kana":"トチギケン","city":"小山市","city_kana":"オヤマシ","town":"犬塚","town_kana":"イヌヅカ","prefecture_code":9},"0067":{"zip_code":"3230067","prefecture":"栃木県","prefecture_kana":"トチギケン","city":"小山市","city_kana":"オヤマシ","town":"今里","town_kana":"イマザト","prefecture_code":9},"0022":{"zip_code":"3230022","prefecture":"栃木県","prefecture_kana":"トチギケン","city":"小山市","city_kana":"オヤマシ","town":"駅東通り","town_kana":"エキヒガシドオリ","prefecture_code":9},"0822":{"zip_code":"3230822","prefecture":"栃木県","prefecture_kana":"トチギケン","city":"小山市","city_kana":"オヤマシ","town":"駅南町","town_kana":"エキミナミチョウ","prefecture_code":9},"0058":{"zip_code":"3230058","prefecture":"栃木県","prefecture_kana":"トチギケン","city":"小山市","city_kana":"オヤマシ","town":"大川島","town_kana":"オオカワシマ","prefecture_code":9},"0009":{"zip_code":"3230009","prefecture":"栃木県","prefecture_kana":"トチギケン","city":"小山市","city_kana":"オヤマシ","town":"大本","town_kana":"オオモト","prefecture_code":9},"0001":{"zip_code":"3230001","prefecture":"栃木県","prefecture_kana":"トチギケン","city":"小山市","city_kana":"オヤマシ","town":"小宅","town_kana":"オヤケ","prefecture_code":9},"0825":{"zip_code":"3230825","prefecture":"栃木県","prefecture_kana":"トチギケン","city":"小山市","city_kana":"オヤマシ","town":"小山","town_kana":"オヤマ","prefecture_code":9},"0063":{"zip_code":"3230063","prefecture":"栃木県","prefecture_kana":"トチギケン","city":"小山市","city_kana":"オヤマシ","town":"上石塚","town_kana":"カミイシヅカ","prefecture_code":9},"0056":{"zip_code":"3230056","prefecture":"栃木県","prefecture_kana":"トチギケン","city":"小山市","city_kana":"オヤマシ","town":"上泉","town_kana":"カミイズミ","prefecture_code":9},"0066":{"zip_code":"3230066","prefecture":"栃木県","prefecture_kana":"トチギケン","city":"小山市","city_kana":"オヤマシ","town":"上国府塚","town_kana":"カミコウヅカ","prefecture_code":9},"0069":{"zip_code":"3230069","prefecture":"栃木県","prefecture_kana":"トチギケン","city":"小山市","city_kana":"オヤマシ","town":"上初田","town_kana":"カミハツダ","prefecture_code":9},"0828":{"zip_code":"3230828","prefecture":"栃木県","prefecture_kana":"トチギケン","city":"小山市","city_kana":"オヤマシ","town":"神山","town_kana":"カミヤマ","prefecture_code":9},"0804":{"zip_code":"3230804","prefecture":"栃木県","prefecture_kana":"トチギケン","city":"小山市","city_kana":"オヤマシ","town":"萱橋","town_kana":"カヤバシ","prefecture_code":9},"0014":{"zip_code":"3230014","prefecture":"栃木県","prefecture_kana":"トチギケン","city":"小山市","city_kana":"オヤマシ","town":"喜沢","town_kana":"キザワ","prefecture_code":9},"0803":{"zip_code":"3230803","prefecture":"栃木県","prefecture_kana":"トチギケン","city":"小山市","city_kana":"オヤマシ","town":"北飯田","town_kana":"キタイイダ","prefecture_code":9},"0002":{"zip_code":"3230002","prefecture":"栃木県","prefecture_kana":"トチギケン","city":"小山市","city_kana":"オヤマシ","town":"黒本","town_kana":"クロモト","prefecture_code":9},"0008":{"zip_code":"3230008","prefecture":"栃木県","prefecture_kana":"トチギケン","city":"小山市","city_kana":"オヤマシ","town":"小薬","town_kana":"コグスリ","prefecture_code":9},"0053":{"zip_code":"3230053","prefecture":"栃木県","prefecture_kana":"トチギケン","city":"小山市","city_kana":"オヤマシ","town":"小袋","town_kana":"コブクロ","prefecture_code":9},"0015":{"zip_code":"3230015","prefecture":"栃木県","prefecture_kana":"トチギケン","city":"小山市","city_kana":"オヤマシ","town":"三拝川岸","town_kana":"サンバイカワギシ","prefecture_code":9},"0043":{"zip_code":"3230043","prefecture":"栃木県","prefecture_kana":"トチギケン","city":"小山市","city_kana":"オヤマシ","town":"塩沢","town_kana":"シオザワ","prefecture_code":9},"0005":{"zip_code":"3230005","prefecture":"栃木県","prefecture_kana":"トチギケン","city":"小山市","city_kana":"オヤマシ","town":"渋井","town_kana":"シブイ","prefecture_code":9},"0004":{"zip_code":"3230004","prefecture":"栃木県","prefecture_kana":"トチギケン","city":"小山市","city_kana":"オヤマシ","town":"島田","town_kana":"シマダ","prefecture_code":9},"0064":{"zip_code":"3230064","prefecture":"栃木県","prefecture_kana":"トチギケン","city":"小山市","city_kana":"オヤマシ","town":"下石塚","town_kana":"シモイシヅカ","prefecture_code":9},"0055":{"zip_code":"3230055","prefecture":"栃木県","prefecture_kana":"トチギケン","city":"小山市","city_kana":"オヤマシ","town":"下泉","town_kana":"シモイズミ","prefecture_code":9},"0052":{"zip_code":"3230052","prefecture":"栃木県","prefecture_kana":"トチギケン","city":"小山市","city_kana":"オヤマシ","town":"下河原田","town_kana":"シモカワラダ","prefecture_code":9},"0065":{"zip_code":"3230065","prefecture":"栃木県","prefecture_kana":"トチギケン","city":"小山市","city_kana":"オヤマシ","town":"下国府塚","town_kana":"シモコウヅカ","prefecture_code":9},"0068":{"zip_code":"3230068","prefecture":"栃木県","prefecture_kana":"トチギケン","city":"小山市","city_kana":"オヤマシ","town":"下初田","town_kana":"シモハツダ","prefecture_code":9},"0807":{"zip_code":"3230807","prefecture":"栃木県","prefecture_kana":"トチギケン","city":"小山市","city_kana":"オヤマシ","town":"城東","town_kana":"ジョウトウ","prefecture_code":9},"0029":{"zip_code":"3230029","prefecture":"栃木県","prefecture_kana":"トチギケン","city":"小山市","city_kana":"オヤマシ","town":"城北","town_kana":"ジョウホク","prefecture_code":9},"0025":{"zip_code":"3230025","prefecture":"栃木県","prefecture_kana":"トチギケン","city":"小山市","city_kana":"オヤマシ","town":"城山町","town_kana":"シロヤマチョウ","prefecture_code":9},"0033":{"zip_code":"3230033","prefecture":"栃木県","prefecture_kana":"トチギケン","city":"小山市","city_kana":"オヤマシ","town":"神明町","town_kana":"シンメイチョウ","prefecture_code":9},"0061":{"zip_code":"3230061","prefecture":"栃木県","prefecture_kana":"トチギケン","city":"小山市","city_kana":"オヤマシ","town":"卒島","town_kana":"ソシマ","prefecture_code":9},"0041":{"zip_code":"3230041","prefecture":"栃木県","prefecture_kana":"トチギケン","city":"小山市","city_kana":"オヤマシ","town":"大行寺","town_kana":"ダイギョウジ","prefecture_code":9},"0154":{"zip_code":"3230154","prefecture":"栃木県","prefecture_kana":"トチギケン","city":"小山市","city_kana":"オヤマシ","town":"高椅","town_kana":"タカハシ","prefecture_code":9},"0151":{"zip_code":"3230151","prefecture":"栃木県","prefecture_kana":"トチギケン","city":"小山市","city_kana":"オヤマシ","town":"田川","town_kana":"タガワ","prefecture_code":9},"0815":{"zip_code":"3230815","prefecture":"栃木県","prefecture_kana":"トチギケン","city":"小山市","city_kana":"オヤマシ","town":"武井","town_kana":"タケイ","prefecture_code":9},"0062":{"zip_code":"3230062","prefecture":"栃木県","prefecture_kana":"トチギケン","city":"小山市","city_kana":"オヤマシ","town":"立木","town_kana":"タツギ","prefecture_code":9},"0814":{"zip_code":"3230814","prefecture":"栃木県","prefecture_kana":"トチギケン","city":"小山市","city_kana":"オヤマシ","town":"田間","town_kana":"タマ","prefecture_code":9},"0023":{"zip_code":"3230023","prefecture":"栃木県","prefecture_kana":"トチギケン","city":"小山市","city_kana":"オヤマシ","town":"中央町","town_kana":"チュウオウチョウ","prefecture_code":9},"0818":{"zip_code":"3230818","prefecture":"栃木県","prefecture_kana":"トチギケン","city":"小山市","city_kana":"オヤマシ","town":"塚崎","town_kana":"ツカザキ","prefecture_code":9},"0032":{"zip_code":"3230032","prefecture":"栃木県","prefecture_kana":"トチギケン","city":"小山市","city_kana":"オヤマシ","town":"天神町","town_kana":"テンジンチョウ","prefecture_code":9},"0042":{"zip_code":"3230042","prefecture":"栃木県","prefecture_kana":"トチギケン","city":"小山市","city_kana":"オヤマシ","town":"外城","town_kana":"トジョウ","prefecture_code":9},"0812":{"zip_code":"3230812","prefecture":"栃木県","prefecture_kana":"トチギケン","city":"小山市","city_kana":"オヤマシ","town":"土塔","town_kana":"ドトウ","prefecture_code":9},"0157":{"zip_code":"3230157","prefecture":"栃木県","prefecture_kana":"トチギケン","city":"小山市","city_kana":"オヤマシ","town":"中河原","town_kana":"ナカガワラ","prefecture_code":9},"0806":{"zip_code":"3230806","prefecture":"栃木県","prefecture_kana":"トチギケン","city":"小山市","city_kana":"オヤマシ","town":"中久喜","town_kana":"ナカクキ","prefecture_code":9},"0156":{"zip_code":"3230156","prefecture":"栃木県","prefecture_kana":"トチギケン","city":"小山市","city_kana":"オヤマシ","town":"中島","town_kana":"ナカジマ","prefecture_code":9},"0820":{"zip_code":"3230820","prefecture":"栃木県","prefecture_kana":"トチギケン","city":"小山市","city_kana":"オヤマシ","town":"西城南","town_kana":"ニシジョウナン","prefecture_code":9},"0152":{"zip_code":"3230152","prefecture":"栃木県","prefecture_kana":"トチギケン","city":"小山市","city_kana":"オヤマシ","town":"延島","town_kana":"ノブシマ","prefecture_code":9},"0153":{"zip_code":"3230153","prefecture":"栃木県","prefecture_kana":"トチギケン","city":"小山市","city_kana":"オヤマシ","town":"延島新田","town_kana":"ノブシマシンデン","prefecture_code":9},"0046":{"zip_code":"3230046","prefecture":"栃木県","prefecture_kana":"トチギケン","city":"小山市","city_kana":"オヤマシ","town":"萩島","town_kana":"ハギシマ","prefecture_code":9},"0801":{"zip_code":"3230801","prefecture":"栃木県","prefecture_kana":"トチギケン","city":"小山市","city_kana":"オヤマシ","town":"鉢形","town_kana":"ハチガタ","prefecture_code":9},"0027":{"zip_code":"3230027","prefecture":"栃木県","prefecture_kana":"トチギケン","city":"小山市","city_kana":"オヤマシ","town":"花垣町","town_kana":"ハナガキチョウ","prefecture_code":9},"0012":{"zip_code":"3230012","prefecture":"栃木県","prefecture_kana":"トチギケン","city":"小山市","city_kana":"オヤマシ","town":"羽川","town_kana":"ハネカワ","prefecture_code":9},"0003":{"zip_code":"3230003","prefecture":"栃木県","prefecture_kana":"トチギケン","city":"小山市","city_kana":"オヤマシ","town":"東島田","town_kana":"ヒガシシマダ","prefecture_code":9},"0829":{"zip_code":"3230829","prefecture":"栃木県","prefecture_kana":"トチギケン","city":"小山市","city_kana":"オヤマシ","town":"東城南","town_kana":"ヒガシジョウナン","prefecture_code":9},"0817":{"zip_code":"3230817","prefecture":"栃木県","prefecture_kana":"トチギケン","city":"小山市","city_kana":"オヤマシ","town":"東野田","town_kana":"ヒガシノダ","prefecture_code":9},"0802":{"zip_code":"3230802","prefecture":"栃木県","prefecture_kana":"トチギケン","city":"小山市","city_kana":"オヤマシ","town":"東山田","town_kana":"ヒガシヤマダ","prefecture_code":9},"0034":{"zip_code":"3230034","prefecture":"栃木県","prefecture_kana":"トチギケン","city":"小山市","city_kana":"オヤマシ","town":"神鳥谷","town_kana":"ヒトトノヤ","prefecture_code":9},"0827":{"zip_code":"3230827","prefecture":"栃木県","prefecture_kana":"トチギケン","city":"小山市","city_kana":"オヤマシ","town":"神鳥谷","town_kana":"ヒトトノヤ","prefecture_code":9},"0155":{"zip_code":"3230155","prefecture":"栃木県","prefecture_kana":"トチギケン","city":"小山市","city_kana":"オヤマシ","town":"福良","town_kana":"フクラ","prefecture_code":9},"0016":{"zip_code":"3230016","prefecture":"栃木県","prefecture_kana":"トチギケン","city":"小山市","city_kana":"オヤマシ","town":"扶桑","town_kana":"フソウ","prefecture_code":9},"0026":{"zip_code":"3230026","prefecture":"栃木県","prefecture_kana":"トチギケン","city":"小山市","city_kana":"オヤマシ","town":"本郷町","town_kana":"ホンゴウチョウ","prefecture_code":9},"0007":{"zip_code":"3230007","prefecture":"栃木県","prefecture_kana":"トチギケン","city":"小山市","city_kana":"オヤマシ","town":"松沼","town_kana":"マツヌマ","prefecture_code":9},"0044":{"zip_code":"3230044","prefecture":"栃木県","prefecture_kana":"トチギケン","city":"小山市","city_kana":"オヤマシ","town":"間中","town_kana":"マナカ","prefecture_code":9},"0821":{"zip_code":"3230821","prefecture":"栃木県","prefecture_kana":"トチギケン","city":"小山市","city_kana":"オヤマシ","town":"三峯","town_kana":"ミツミネ","prefecture_code":9},"0816":{"zip_code":"3230816","prefecture":"栃木県","prefecture_kana":"トチギケン","city":"小山市","city_kana":"オヤマシ","town":"南和泉","town_kana":"ミナミイズミ","prefecture_code":9},"0057":{"zip_code":"3230057","prefecture":"栃木県","prefecture_kana":"トチギケン","city":"小山市","city_kana":"オヤマシ","town":"南小林","town_kana":"ミナミオバヤシ","prefecture_code":9},"0011":{"zip_code":"3230011","prefecture":"栃木県","prefecture_kana":"トチギケン","city":"小山市","city_kana":"オヤマシ","town":"南半田","town_kana":"ミナミハンダ","prefecture_code":9},"0024":{"zip_code":"3230024","prefecture":"栃木県","prefecture_kana":"トチギケン","city":"小山市","city_kana":"オヤマシ","town":"宮本町","town_kana":"ミヤモトチョウ","prefecture_code":9},"0805":{"zip_code":"3230805","prefecture":"栃木県","prefecture_kana":"トチギケン","city":"小山市","city_kana":"オヤマシ","town":"向野","town_kana":"ムカイノ","prefecture_code":9},"0823":{"zip_code":"3230823","prefecture":"栃木県","prefecture_kana":"トチギケン","city":"小山市","city_kana":"オヤマシ","town":"向原新田","town_kana":"ムカイハラシンデン","prefecture_code":9},"0158":{"zip_code":"3230158","prefecture":"栃木県","prefecture_kana":"トチギケン","city":"小山市","city_kana":"オヤマシ","town":"梁","town_kana":"ヤナ","prefecture_code":9},"0031":{"zip_code":"3230031","prefecture":"栃木県","prefecture_kana":"トチギケン","city":"小山市","city_kana":"オヤマシ","town":"八幡町","town_kana":"ヤハタチョウ","prefecture_code":9},"0813":{"zip_code":"3230813","prefecture":"栃木県","prefecture_kana":"トチギケン","city":"小山市","city_kana":"オヤマシ","town":"横倉","town_kana":"ヨコクラ","prefecture_code":9},"0819":{"zip_code":"3230819","prefecture":"栃木県","prefecture_kana":"トチギケン","city":"小山市","city_kana":"オヤマシ","town":"横倉新田","town_kana":"ヨコクラシンデン","prefecture_code":9},"0028":{"zip_code":"3230028","prefecture":"栃木県","prefecture_kana":"トチギケン","city":"小山市","city_kana":"オヤマシ","town":"若木町","town_kana":"ワカギチョウ","prefecture_code":9},"0111":{"zip_code":"3230111","prefecture":"栃木県","prefecture_kana":"トチギケン","city":"下野市","city_kana":"シモツケシ","town":"磯部","town_kana":"イソベ","prefecture_code":9},"0103":{"zip_code":"3230103","prefecture":"栃木県","prefecture_kana":"トチギケン","city":"下野市","city_kana":"シモツケシ","town":"上川島","town_kana":"カミカワシマ","prefecture_code":9},"0113":{"zip_code":"3230113","prefecture":"栃木県","prefecture_kana":"トチギケン","city":"下野市","city_kana":"シモツケシ","town":"上坪山","town_kana":"カミツボヤマ","prefecture_code":9},"0102":{"zip_code":"3230102","prefecture":"栃木県","prefecture_kana":"トチギケン","city":"下野市","city_kana":"シモツケシ","town":"上吉田","town_kana":"カミヨシダ","prefecture_code":9},"0114":{"zip_code":"3230114","prefecture":"栃木県","prefecture_kana":"トチギケン","city":"下野市","city_kana":"シモツケシ","town":"絹板","town_kana":"キヌイタ","prefecture_code":9},"0101":{"zip_code":"3230101","prefecture":"栃木県","prefecture_kana":"トチギケン","city":"下野市","city_kana":"シモツケシ","town":"三王山","town_kana":"サンノウヤマ","prefecture_code":9},"0115":{"zip_code":"3230115","prefecture":"栃木県","prefecture_kana":"トチギケン","city":"下野市","city_kana":"シモツケシ","town":"下坪山","town_kana":"シモツボヤマ","prefecture_code":9},"0106":{"zip_code":"3230106","prefecture":"栃木県","prefecture_kana":"トチギケン","city":"下野市","city_kana":"シモツケシ","town":"下吉田","town_kana":"シモヨシダ","prefecture_code":9},"0104":{"zip_code":"3230104","prefecture":"栃木県","prefecture_kana":"トチギケン","city":"下野市","city_kana":"シモツケシ","town":"中川島","town_kana":"ナカカワシマ","prefecture_code":9},"0116":{"zip_code":"3230116","prefecture":"栃木県","prefecture_kana":"トチギケン","city":"下野市","city_kana":"シモツケシ","town":"花田","town_kana":"ハナダ","prefecture_code":9},"0112":{"zip_code":"3230112","prefecture":"栃木県","prefecture_kana":"トチギケン","city":"下野市","city_kana":"シモツケシ","town":"東根","town_kana":"ヒガシネ","prefecture_code":9},"0107":{"zip_code":"3230107","prefecture":"栃木県","prefecture_kana":"トチギケン","city":"下野市","city_kana":"シモツケシ","town":"別当河原","town_kana":"ベットウガワラ","prefecture_code":9},"0105":{"zip_code":"3230105","prefecture":"栃木県","prefecture_kana":"トチギケン","city":"下野市","city_kana":"シモツケシ","town":"本吉田","town_kana":"モトヨシダ","prefecture_code":9}}