{"0000":{"zip_code":"3250000","prefecture":"栃木県","prefecture_kana":"トチギケン","city":"那須塩原市","city_kana":"ナスシオバラシ","town":"","town_kana":"","prefecture_code":9},"0103":{"zip_code":"3250103","prefecture":"栃木県","prefecture_kana":"トチギケン","city":"那須塩原市","city_kana":"ナスシオバラシ","town":"青木","town_kana":"アオキ","prefecture_code":9},"0073":{"zip_code":"3250073","prefecture":"栃木県","prefecture_kana":"トチギケン","city":"那須塩原市","city_kana":"ナスシオバラシ","town":"阿波町","town_kana":"アワチョウ","prefecture_code":9},"0021":{"zip_code":"3250021","prefecture":"栃木県","prefecture_kana":"トチギケン","city":"那須塩原市","city_kana":"ナスシオバラシ","town":"安藤町","town_kana":"アンドウチョウ","prefecture_code":9},"0111":{"zip_code":"3250111","prefecture":"栃木県","prefecture_kana":"トチギケン","city":"那須塩原市","city_kana":"ナスシオバラシ","town":"板室","town_kana":"イタムロ","prefecture_code":9},"0075":{"zip_code":"3250075","prefecture":"栃木県","prefecture_kana":"トチギケン","city":"那須塩原市","city_kana":"ナスシオバラシ","town":"春日町","town_kana":"カスガチョウ","prefecture_code":9},"0104":{"zip_code":"3250104","prefecture":"栃木県","prefecture_kana":"トチギケン","city":"那須塩原市","city_kana":"ナスシオバラシ","town":"鹿野崎新田","town_kana":"カノサキシンデン","prefecture_code":9},"0026":{"zip_code":"3250026","prefecture":"栃木県","prefecture_kana":"トチギケン","city":"那須塩原市","city_kana":"ナスシオバラシ","town":"上厚崎","town_kana":"カミアツサキ","prefecture_code":9},"0102":{"zip_code":"3250102","prefecture":"栃木県","prefecture_kana":"トチギケン","city":"那須塩原市","city_kana":"ナスシオバラシ","town":"亀山","town_kana":"カメヤマ","prefecture_code":9},"0039":{"zip_code":"3250039","prefecture":"栃木県","prefecture_kana":"トチギケン","city":"那須塩原市","city_kana":"ナスシオバラシ","town":"北栄町","town_kana":"キタサカエチョウ","prefecture_code":9},"0027":{"zip_code":"3250027","prefecture":"栃木県","prefecture_kana":"トチギケン","city":"那須塩原市","city_kana":"ナスシオバラシ","town":"共墾社","town_kana":"キョウコンシャ","prefecture_code":9},"0067":{"zip_code":"3250067","prefecture":"栃木県","prefecture_kana":"トチギケン","city":"那須塩原市","city_kana":"ナスシオバラシ","town":"清住町","town_kana":"キヨスミチョウ","prefecture_code":9},"0116":{"zip_code":"3250116","prefecture":"栃木県","prefecture_kana":"トチギケン","city":"那須塩原市","city_kana":"ナスシオバラシ","town":"木綿畑","town_kana":"キワタハタ","prefecture_code":9},"0017":{"zip_code":"3250017","prefecture":"栃木県","prefecture_kana":"トチギケン","city":"那須塩原市","city_kana":"ナスシオバラシ","town":"黒磯","town_kana":"クロイソ","prefecture_code":9},"0057":{"zip_code":"3250057","prefecture":"栃木県","prefecture_kana":"トチギケン","city":"那須塩原市","city_kana":"ナスシオバラシ","town":"黒磯幸町","town_kana":"クロイソサイワイチョウ","prefecture_code":9},"0012":{"zip_code":"3250012","prefecture":"栃木県","prefecture_kana":"トチギケン","city":"那須塩原市","city_kana":"ナスシオバラシ","town":"越堀","town_kana":"コエボリ","prefecture_code":9},"0035":{"zip_code":"3250035","prefecture":"栃木県","prefecture_kana":"トチギケン","city":"那須塩原市","city_kana":"ナスシオバラシ","town":"小結","town_kana":"コユイ","prefecture_code":9},"0048":{"zip_code":"3250048","prefecture":"栃木県","prefecture_kana":"トチギケン","city":"那須塩原市","city_kana":"ナスシオバラシ","town":"材木町","town_kana":"ザイモクチョウ","prefecture_code":9},"0033":{"zip_code":"3250033","prefecture":"栃木県","prefecture_kana":"トチギケン","city":"那須塩原市","city_kana":"ナスシオバラシ","town":"埼玉","town_kana":"サキタマ","prefecture_code":9},"0042":{"zip_code":"3250042","prefecture":"栃木県","prefecture_kana":"トチギケン","city":"那須塩原市","city_kana":"ナスシオバラシ","town":"桜町","town_kana":"サクラチョウ","prefecture_code":9},"0118":{"zip_code":"3250118","prefecture":"栃木県","prefecture_kana":"トチギケン","city":"那須塩原市","city_kana":"ナスシオバラシ","town":"鴫内","town_kana":"シギウチ","prefecture_code":9},"0025":{"zip_code":"3250025","prefecture":"栃木県","prefecture_kana":"トチギケン","city":"那須塩原市","city_kana":"ナスシオバラシ","town":"下厚崎","town_kana":"シモアツサキ","prefecture_code":9},"0054":{"zip_code":"3250054","prefecture":"栃木県","prefecture_kana":"トチギケン","city":"那須塩原市","city_kana":"ナスシオバラシ","town":"新朝日","town_kana":"シンアサヒ","prefecture_code":9},"0071":{"zip_code":"3250071","prefecture":"栃木県","prefecture_kana":"トチギケン","city":"那須塩原市","city_kana":"ナスシオバラシ","town":"新町","town_kana":"シンマチ","prefecture_code":9},"0066":{"zip_code":"3250066","prefecture":"栃木県","prefecture_kana":"トチギケン","city":"那須塩原市","city_kana":"ナスシオバラシ","town":"新緑町","town_kana":"シンミドリチョウ","prefecture_code":9},"0061":{"zip_code":"3250061","prefecture":"栃木県","prefecture_kana":"トチギケン","city":"那須塩原市","city_kana":"ナスシオバラシ","town":"末広町","town_kana":"スエヒロチョウ","prefecture_code":9},"0062":{"zip_code":"3250062","prefecture":"栃木県","prefecture_kana":"トチギケン","city":"那須塩原市","city_kana":"ナスシオバラシ","town":"住吉町","town_kana":"スミヨシチョウ","prefecture_code":9},"0046":{"zip_code":"3250046","prefecture":"栃木県","prefecture_kana":"トチギケン","city":"那須塩原市","city_kana":"ナスシオバラシ","town":"大黒町","town_kana":"ダイコクチョウ","prefecture_code":9},"0045":{"zip_code":"3250045","prefecture":"栃木県","prefecture_kana":"トチギケン","city":"那須塩原市","city_kana":"ナスシオバラシ","town":"高砂町","town_kana":"タカサゴチョウ","prefecture_code":9},"0107":{"zip_code":"3250107","prefecture":"栃木県","prefecture_kana":"トチギケン","city":"那須塩原市","city_kana":"ナスシオバラシ","town":"高林","town_kana":"タカバヤシ","prefecture_code":9},"0052":{"zip_code":"3250052","prefecture":"栃木県","prefecture_kana":"トチギケン","city":"那須塩原市","city_kana":"ナスシオバラシ","town":"中央町","town_kana":"チュウオウチョウ","prefecture_code":9},"0011":{"zip_code":"3250011","prefecture":"栃木県","prefecture_kana":"トチギケン","city":"那須塩原市","city_kana":"ナスシオバラシ","town":"寺子","town_kana":"テラゴ","prefecture_code":9},"0016":{"zip_code":"3250016","prefecture":"栃木県","prefecture_kana":"トチギケン","city":"那須塩原市","city_kana":"ナスシオバラシ","town":"東栄","town_kana":"トウエイ","prefecture_code":9},"0106":{"zip_code":"3250106","prefecture":"栃木県","prefecture_kana":"トチギケン","city":"那須塩原市","city_kana":"ナスシオバラシ","town":"洞島","town_kana":"ドウジマ","prefecture_code":9},"0114":{"zip_code":"3250114","prefecture":"栃木県","prefecture_kana":"トチギケン","city":"那須塩原市","city_kana":"ナスシオバラシ","town":"戸田","town_kana":"トダ","prefecture_code":9},"0023":{"zip_code":"3250023","prefecture":"栃木県","prefecture_kana":"トチギケン","city":"那須塩原市","city_kana":"ナスシオバラシ","town":"豊浦","town_kana":"トヨウラ","prefecture_code":9},"0038":{"zip_code":"3250038","prefecture":"栃木県","prefecture_kana":"トチギケン","city":"那須塩原市","city_kana":"ナスシオバラシ","town":"豊浦北町","town_kana":"トヨウラキタマチ","prefecture_code":9},"0064":{"zip_code":"3250064","prefecture":"栃木県","prefecture_kana":"トチギケン","city":"那須塩原市","city_kana":"ナスシオバラシ","town":"豊浦町","town_kana":"トヨウラチョウ","prefecture_code":9},"0063":{"zip_code":"3250063","prefecture":"栃木県","prefecture_kana":"トチギケン","city":"那須塩原市","city_kana":"ナスシオバラシ","town":"豊浦中町","town_kana":"トヨウラナカマチ","prefecture_code":9},"0065":{"zip_code":"3250065","prefecture":"栃木県","prefecture_kana":"トチギケン","city":"那須塩原市","city_kana":"ナスシオバラシ","town":"豊浦南町","town_kana":"トヨウラミナミチョウ","prefecture_code":9},"0072":{"zip_code":"3250072","prefecture":"栃木県","prefecture_kana":"トチギケン","city":"那須塩原市","city_kana":"ナスシオバラシ","town":"豊住町","town_kana":"トヨスミチョウ","prefecture_code":9},"0036":{"zip_code":"3250036","prefecture":"栃木県","prefecture_kana":"トチギケン","city":"那須塩原市","city_kana":"ナスシオバラシ","town":"鳥野目","town_kana":"トリノメ","prefecture_code":9},"0013":{"zip_code":"3250013","prefecture":"栃木県","prefecture_kana":"トチギケン","city":"那須塩原市","city_kana":"ナスシオバラシ","town":"鍋掛","town_kana":"ナベカケ","prefecture_code":9},"0031":{"zip_code":"3250031","prefecture":"栃木県","prefecture_kana":"トチギケン","city":"那須塩原市","city_kana":"ナスシオバラシ","town":"並木町","town_kana":"ナミキチョウ","prefecture_code":9},"0101":{"zip_code":"3250101","prefecture":"栃木県","prefecture_kana":"トチギケン","city":"那須塩原市","city_kana":"ナスシオバラシ","town":"西岩崎","town_kana":"ニシイワザキ","prefecture_code":9},"0058":{"zip_code":"3250058","prefecture":"栃木県","prefecture_kana":"トチギケン","city":"那須塩原市","city_kana":"ナスシオバラシ","town":"錦町","town_kana":"ニシキチョウ","prefecture_code":9},"0076":{"zip_code":"3250076","prefecture":"栃木県","prefecture_kana":"トチギケン","city":"那須塩原市","city_kana":"ナスシオバラシ","town":"西新町","town_kana":"ニシシンマチ","prefecture_code":9},"0014":{"zip_code":"3250014","prefecture":"栃木県","prefecture_kana":"トチギケン","city":"那須塩原市","city_kana":"ナスシオバラシ","town":"野間","town_kana":"ノマ","prefecture_code":9},"0043":{"zip_code":"3250043","prefecture":"栃木県","prefecture_kana":"トチギケン","city":"那須塩原市","city_kana":"ナスシオバラシ","town":"橋本町","town_kana":"ハシモトチョウ","prefecture_code":9},"0015":{"zip_code":"3250015","prefecture":"栃木県","prefecture_kana":"トチギケン","city":"那須塩原市","city_kana":"ナスシオバラシ","town":"原町","town_kana":"ハラマチ","prefecture_code":9},"0022":{"zip_code":"3250022","prefecture":"栃木県","prefecture_kana":"トチギケン","city":"那須塩原市","city_kana":"ナスシオバラシ","town":"東豊浦","town_kana":"ヒガシトヨウラ","prefecture_code":9},"0034":{"zip_code":"3250034","prefecture":"栃木県","prefecture_kana":"トチギケン","city":"那須塩原市","city_kana":"ナスシオバラシ","town":"東原","town_kana":"ヒガシハラ","prefecture_code":9},"0041":{"zip_code":"3250041","prefecture":"栃木県","prefecture_kana":"トチギケン","city":"那須塩原市","city_kana":"ナスシオバラシ","town":"東大和町","town_kana":"ヒガシヤマトチョウ","prefecture_code":9},"0113":{"zip_code":"3250113","prefecture":"栃木県","prefecture_kana":"トチギケン","city":"那須塩原市","city_kana":"ナスシオバラシ","town":"細竹","town_kana":"ホソダケ","prefecture_code":9},"0053":{"zip_code":"3250053","prefecture":"栃木県","prefecture_kana":"トチギケン","city":"那須塩原市","city_kana":"ナスシオバラシ","town":"本郷町","town_kana":"ホンゴウチョウ","prefecture_code":9},"0056":{"zip_code":"3250056","prefecture":"栃木県","prefecture_kana":"トチギケン","city":"那須塩原市","city_kana":"ナスシオバラシ","town":"本町","town_kana":"ホンチョウ","prefecture_code":9},"0074":{"zip_code":"3250074","prefecture":"栃木県","prefecture_kana":"トチギケン","city":"那須塩原市","city_kana":"ナスシオバラシ","town":"松浦町","town_kana":"マツウラチョウ","prefecture_code":9},"0105":{"zip_code":"3250105","prefecture":"栃木県","prefecture_kana":"トチギケン","city":"那須塩原市","city_kana":"ナスシオバラシ","town":"箕輪","town_kana":"ミノワ","prefecture_code":9},"0037":{"zip_code":"3250037","prefecture":"栃木県","prefecture_kana":"トチギケン","city":"那須塩原市","city_kana":"ナスシオバラシ","town":"美原町","town_kana":"ミハラチョウ","prefecture_code":9},"0055":{"zip_code":"3250055","prefecture":"栃木県","prefecture_kana":"トチギケン","city":"那須塩原市","city_kana":"ナスシオバラシ","town":"宮町","town_kana":"ミヤチョウ","prefecture_code":9},"0115":{"zip_code":"3250115","prefecture":"栃木県","prefecture_kana":"トチギケン","city":"那須塩原市","city_kana":"ナスシオバラシ","town":"百村","town_kana":"モムラ","prefecture_code":9},"0108":{"zip_code":"3250108","prefecture":"栃木県","prefecture_kana":"トチギケン","city":"那須塩原市","city_kana":"ナスシオバラシ","town":"箭坪","town_kana":"ヤツボ","prefecture_code":9},"0044":{"zip_code":"3250044","prefecture":"栃木県","prefecture_kana":"トチギケン","city":"那須塩原市","city_kana":"ナスシオバラシ","town":"弥生町","town_kana":"ヤヨイチョウ","prefecture_code":9},"0112":{"zip_code":"3250112","prefecture":"栃木県","prefecture_kana":"トチギケン","city":"那須塩原市","city_kana":"ナスシオバラシ","town":"油井","town_kana":"ユイ","prefecture_code":9},"0117":{"zip_code":"3250117","prefecture":"栃木県","prefecture_kana":"トチギケン","city":"那須塩原市","city_kana":"ナスシオバラシ","town":"湯宮","town_kana":"ユグウ","prefecture_code":9},"0051":{"zip_code":"3250051","prefecture":"栃木県","prefecture_kana":"トチギケン","city":"那須塩原市","city_kana":"ナスシオバラシ","town":"豊町","town_kana":"ユタカチョウ","prefecture_code":9},"0032":{"zip_code":"3250032","prefecture":"栃木県","prefecture_kana":"トチギケン","city":"那須塩原市","city_kana":"ナスシオバラシ","town":"若草町","town_kana":"ワカクサチョウ","prefecture_code":9},"0047":{"zip_code":"3250047","prefecture":"栃木県","prefecture_kana":"トチギケン","city":"那須塩原市","city_kana":"ナスシオバラシ","town":"若葉町","town_kana":"ワカバチョウ","prefecture_code":9},"0024":{"zip_code":"3250024","prefecture":"栃木県","prefecture_kana":"トチギケン","city":"那須塩原市","city_kana":"ナスシオバラシ","town":"渡辺","town_kana":"ワタナベ","prefecture_code":9},"0304":{"zip_code":"3250304","prefecture":"栃木県","prefecture_kana":"トチギケン","city":"那須郡那須町","city_kana":"ナスグンナスマチ","town":"高久甲","town_kana":"タカクコウ","prefecture_code":9},"0001":{"zip_code":"3250001","prefecture":"栃木県","prefecture_kana":"トチギケン","city":"那須郡那須町","city_kana":"ナスグンナスマチ","town":"高久甲","town_kana":"タカクコウ","prefecture_code":9},"0303":{"zip_code":"3250303","prefecture":"栃木県","prefecture_kana":"トチギケン","city":"那須郡那須町","city_kana":"ナスグンナスマチ","town":"高久乙","town_kana":"タカクオツ","prefecture_code":9},"0002":[{"zip_code":"3250002","prefecture":"栃木県","prefecture_kana":"トチギケン","city":"那須郡那須町","city_kana":"ナスグンナスマチ","town":"高久丙穂積","town_kana":"タカクヘイホヅミ","prefecture_code":9},{"zip_code":"3250002","prefecture":"栃木県","prefecture_kana":"トチギケン","city":"那須郡那須町","city_kana":"ナスグンナスマチ","town":"高久丙山梨子","town_kana":"タカクヘイヤマナシ","prefecture_code":9}],"0302":{"zip_code":"3250302","prefecture":"栃木県","prefecture_kana":"トチギケン","city":"那須郡那須町","city_kana":"ナスグンナスマチ","town":"高久丙","town_kana":"タカクヘイ","prefecture_code":9},"0003":{"zip_code":"3250003","prefecture":"栃木県","prefecture_kana":"トチギケン","city":"那須郡那須町","city_kana":"ナスグンナスマチ","town":"寺子乙","town_kana":"テラコオツ","prefecture_code":9},"0301":{"zip_code":"3250301","prefecture":"栃木県","prefecture_kana":"トチギケン","city":"那須郡那須町","city_kana":"ナスグンナスマチ","town":"湯本","town_kana":"ユモト","prefecture_code":9}}