{"0000":{"zip_code":"3270000","prefecture":"栃木県","prefecture_kana":"トチギケン","city":"佐野市","city_kana":"サノシ","town":"","town_kana":"","prefecture_code":9},"0023":{"zip_code":"3270023","prefecture":"栃木県","prefecture_kana":"トチギケン","city":"佐野市","city_kana":"サノシ","town":"相生町","town_kana":"アイオイチョウ","prefecture_code":9},"0511":{"zip_code":"3270511","prefecture":"栃木県","prefecture_kana":"トチギケン","city":"佐野市","city_kana":"サノシ","town":"会沢町","town_kana":"アイサワチョウ","prefecture_code":9},"0004":{"zip_code":"3270004","prefecture":"栃木県","prefecture_kana":"トチギケン","city":"佐野市","city_kana":"サノシ","town":"赤坂町","town_kana":"アカサカチョウ","prefecture_code":9},"0104":{"zip_code":"3270104","prefecture":"栃木県","prefecture_kana":"トチギケン","city":"佐野市","city_kana":"サノシ","town":"赤見町","town_kana":"アカミチョウ","prefecture_code":9},"0517":{"zip_code":"3270517","prefecture":"栃木県","prefecture_kana":"トチギケン","city":"佐野市","city_kana":"サノシ","town":"秋山町","town_kana":"アキヤマチョウ","prefecture_code":9},"0525":{"zip_code":"3270525","prefecture":"栃木県","prefecture_kana":"トチギケン","city":"佐野市","city_kana":"サノシ","town":"あくと町","town_kana":"アクトチョウ","prefecture_code":9},"0831":{"zip_code":"3270831","prefecture":"栃木県","prefecture_kana":"トチギケン","city":"佐野市","city_kana":"サノシ","town":"浅沼町","town_kana":"アサヌマチョウ","prefecture_code":9},"0011":{"zip_code":"3270011","prefecture":"栃木県","prefecture_kana":"トチギケン","city":"佐野市","city_kana":"サノシ","town":"朝日町","town_kana":"アサヒチョウ","prefecture_code":9},"0815":{"zip_code":"3270815","prefecture":"栃木県","prefecture_kana":"トチギケン","city":"佐野市","city_kana":"サノシ","town":"鐙塚町","town_kana":"アブツカチョウ","prefecture_code":9},"0825":{"zip_code":"3270825","prefecture":"栃木県","prefecture_kana":"トチギケン","city":"佐野市","city_kana":"サノシ","town":"飯田町","town_kana":"イイタチョウ","prefecture_code":9},"0021":{"zip_code":"3270021","prefecture":"栃木県","prefecture_kana":"トチギケン","city":"佐野市","city_kana":"サノシ","town":"伊賀町","town_kana":"イガチョウ","prefecture_code":9},"0103":{"zip_code":"3270103","prefecture":"栃木県","prefecture_kana":"トチギケン","city":"佐野市","city_kana":"サノシ","town":"石塚町","town_kana":"イシヅカチョウ","prefecture_code":9},"0102":{"zip_code":"3270102","prefecture":"栃木県","prefecture_kana":"トチギケン","city":"佐野市","city_kana":"サノシ","town":"出流原町","town_kana":"イズルハラチョウ","prefecture_code":9},"0817":{"zip_code":"3270817","prefecture":"栃木県","prefecture_kana":"トチギケン","city":"佐野市","city_kana":"サノシ","town":"伊勢山町","town_kana":"イセヤマチョウ","prefecture_code":9},"0806":{"zip_code":"3270806","prefecture":"栃木県","prefecture_kana":"トチギケン","city":"佐野市","city_kana":"サノシ","town":"犬伏上町","town_kana":"イヌブシカミチョウ","prefecture_code":9},"0805":{"zip_code":"3270805","prefecture":"栃木県","prefecture_kana":"トチギケン","city":"佐野市","city_kana":"サノシ","town":"犬伏中町","town_kana":"イヌブシナカチョウ","prefecture_code":9},"0804":{"zip_code":"3270804","prefecture":"栃木県","prefecture_kana":"トチギケン","city":"佐野市","city_kana":"サノシ","town":"犬伏下町","town_kana":"イヌブシシモチョウ","prefecture_code":9},"0803":{"zip_code":"3270803","prefecture":"栃木県","prefecture_kana":"トチギケン","city":"佐野市","city_kana":"サノシ","town":"犬伏新町","town_kana":"イヌブシシンマチ","prefecture_code":9},"0034":{"zip_code":"3270034","prefecture":"栃木県","prefecture_kana":"トチギケン","city":"佐野市","city_kana":"サノシ","town":"伊保内町","town_kana":"イボウチチョウ","prefecture_code":9},"0307":{"zip_code":"3270307","prefecture":"栃木県","prefecture_kana":"トチギケン","city":"佐野市","city_kana":"サノシ","town":"岩崎町","town_kana":"イワザキチョウ","prefecture_code":9},"0832":{"zip_code":"3270832","prefecture":"栃木県","prefecture_kana":"トチギケン","city":"佐野市","city_kana":"サノシ","town":"植上町","town_kana":"ウエカミチョウ","prefecture_code":9},"0835":{"zip_code":"3270835","prefecture":"栃木県","prefecture_kana":"トチギケン","city":"佐野市","city_kana":"サノシ","town":"植下町","town_kana":"ウエシモチョウ","prefecture_code":9},"0837":{"zip_code":"3270837","prefecture":"栃木県","prefecture_kana":"トチギケン","city":"佐野市","city_kana":"サノシ","town":"植野町","town_kana":"ウエノチョウ","prefecture_code":9},"0322":{"zip_code":"3270322","prefecture":"栃木県","prefecture_kana":"トチギケン","city":"佐野市","city_kana":"サノシ","town":"梅園町","town_kana":"ウメゾノチョウ","prefecture_code":9},"0012":{"zip_code":"3270012","prefecture":"栃木県","prefecture_kana":"トチギケン","city":"佐野市","city_kana":"サノシ","town":"大蔵町","town_kana":"オオクラチョウ","prefecture_code":9},"0807":{"zip_code":"3270807","prefecture":"栃木県","prefecture_kana":"トチギケン","city":"佐野市","city_kana":"サノシ","town":"大栗町","town_kana":"オオグリチョウ","prefecture_code":9},"0033":{"zip_code":"3270033","prefecture":"栃木県","prefecture_kana":"トチギケン","city":"佐野市","city_kana":"サノシ","town":"大古屋町","town_kana":"オオゴヤチョウ","prefecture_code":9},"0003":{"zip_code":"3270003","prefecture":"栃木県","prefecture_kana":"トチギケン","city":"佐野市","city_kana":"サノシ","town":"大橋町","town_kana":"オオハシチョウ","prefecture_code":9},"0316":{"zip_code":"3270316","prefecture":"栃木県","prefecture_kana":"トチギケン","city":"佐野市","city_kana":"サノシ","town":"小見町","town_kana":"オミチョウ","prefecture_code":9},"0515":{"zip_code":"3270515","prefecture":"栃木県","prefecture_kana":"トチギケン","city":"佐野市","city_kana":"サノシ","town":"柿平町","town_kana":"カキダイラチョウ","prefecture_code":9},"0523":{"zip_code":"3270523","prefecture":"栃木県","prefecture_kana":"トチギケン","city":"佐野市","city_kana":"サノシ","town":"嘉多山町","town_kana":"カタヤマチョウ","prefecture_code":9},"0015":{"zip_code":"3270015","prefecture":"栃木県","prefecture_kana":"トチギケン","city":"佐野市","city_kana":"サノシ","town":"金井上町","town_kana":"カナイカミチョウ","prefecture_code":9},"0007":{"zip_code":"3270007","prefecture":"栃木県","prefecture_kana":"トチギケン","city":"佐野市","city_kana":"サノシ","town":"金吹町","town_kana":"カナフキチョウ","prefecture_code":9},"0025":{"zip_code":"3270025","prefecture":"栃木県","prefecture_kana":"トチギケン","city":"佐野市","city_kana":"サノシ","town":"金屋下町","town_kana":"カナヤシモチョウ","prefecture_code":9},"0026":{"zip_code":"3270026","prefecture":"栃木県","prefecture_kana":"トチギケン","city":"佐野市","city_kana":"サノシ","town":"金屋仲町","town_kana":"カナヤナカチョウ","prefecture_code":9},"0032":{"zip_code":"3270032","prefecture":"栃木県","prefecture_kana":"トチギケン","city":"佐野市","city_kana":"サノシ","town":"庚申塚町","town_kana":"カネヅカチョウ","prefecture_code":9},"0006":{"zip_code":"3270006","prefecture":"栃木県","prefecture_kana":"トチギケン","city":"佐野市","city_kana":"サノシ","town":"上台町","town_kana":"カミダイチョウ","prefecture_code":9},"0042":{"zip_code":"3270042","prefecture":"栃木県","prefecture_kana":"トチギケン","city":"佐野市","city_kana":"サノシ","town":"上羽田町","town_kana":"カミハネダチョウ","prefecture_code":9},"0024":{"zip_code":"3270024","prefecture":"栃木県","prefecture_kana":"トチギケン","city":"佐野市","city_kana":"サノシ","town":"亀井町","town_kana":"カメイチョウ","prefecture_code":9},"0321":{"zip_code":"3270321","prefecture":"栃木県","prefecture_kana":"トチギケン","city":"佐野市","city_kana":"サノシ","town":"閑馬町","town_kana":"カンマチョウ","prefecture_code":9},"0827":{"zip_code":"3270827","prefecture":"栃木県","prefecture_kana":"トチギケン","city":"佐野市","city_kana":"サノシ","town":"北茂呂町","town_kana":"キタモロチョウ","prefecture_code":9},"0043":{"zip_code":"3270043","prefecture":"栃木県","prefecture_kana":"トチギケン","city":"佐野市","city_kana":"サノシ","town":"君田町","town_kana":"キミタチョウ","prefecture_code":9},"0507":{"zip_code":"3270507","prefecture":"栃木県","prefecture_kana":"トチギケン","city":"佐野市","city_kana":"サノシ","town":"葛生西","town_kana":"クズウニシ","prefecture_code":9},"0501":{"zip_code":"3270501","prefecture":"栃木県","prefecture_kana":"トチギケン","city":"佐野市","city_kana":"サノシ","town":"葛生東","town_kana":"クズウヒガシ","prefecture_code":9},"0845":{"zip_code":"3270845","prefecture":"栃木県","prefecture_kana":"トチギケン","city":"佐野市","city_kana":"サノシ","town":"久保町","town_kana":"クボチョウ","prefecture_code":9},"0813":{"zip_code":"3270813","prefecture":"栃木県","prefecture_kana":"トチギケン","city":"佐野市","city_kana":"サノシ","town":"黒袴町","town_kana":"クロハカマチョウ","prefecture_code":9},"0822":{"zip_code":"3270822","prefecture":"栃木県","prefecture_kana":"トチギケン","city":"佐野市","city_kana":"サノシ","town":"越名町","town_kana":"コエナチョウ","prefecture_code":9},"0001":{"zip_code":"3270001","prefecture":"栃木県","prefecture_kana":"トチギケン","city":"佐野市","city_kana":"サノシ","town":"小中町","town_kana":"コナカチョウ","prefecture_code":9},"0816":{"zip_code":"3270816","prefecture":"栃木県","prefecture_kana":"トチギケン","city":"佐野市","city_kana":"サノシ","town":"栄町","town_kana":"サカエチョウ","prefecture_code":9},"0301":{"zip_code":"3270301","prefecture":"栃木県","prefecture_kana":"トチギケン","city":"佐野市","city_kana":"サノシ","town":"作原町","town_kana":"サクハラチョウ","prefecture_code":9},"0005":{"zip_code":"3270005","prefecture":"栃木県","prefecture_kana":"トチギケン","city":"佐野市","city_kana":"サノシ","town":"七軒町","town_kana":"シチケンチョウ","prefecture_code":9},"0836":{"zip_code":"3270836","prefecture":"栃木県","prefecture_kana":"トチギケン","city":"佐野市","city_kana":"サノシ","town":"寺中町","town_kana":"ジチュウチョウ","prefecture_code":9},"0044":{"zip_code":"3270044","prefecture":"栃木県","prefecture_kana":"トチギケン","city":"佐野市","city_kana":"サノシ","town":"下羽田町","town_kana":"シモハネダチョウ","prefecture_code":9},"0325":{"zip_code":"3270325","prefecture":"栃木県","prefecture_kana":"トチギケン","city":"佐野市","city_kana":"サノシ","town":"下彦間町","town_kana":"シモヒコマチョウ","prefecture_code":9},"0302":{"zip_code":"3270302","prefecture":"栃木県","prefecture_kana":"トチギケン","city":"佐野市","city_kana":"サノシ","town":"白岩町","town_kana":"シライワチョウ","prefecture_code":9},"0314":{"zip_code":"3270314","prefecture":"栃木県","prefecture_kana":"トチギケン","city":"佐野市","city_kana":"サノシ","town":"新吉水町","town_kana":"シンヨシミズチョウ","prefecture_code":9},"0811":{"zip_code":"3270811","prefecture":"栃木県","prefecture_kana":"トチギケン","city":"佐野市","city_kana":"サノシ","town":"関川町","town_kana":"セキガワチョウ","prefecture_code":9},"0514":{"zip_code":"3270514","prefecture":"栃木県","prefecture_kana":"トチギケン","city":"佐野市","city_kana":"サノシ","town":"仙波町","town_kana":"センバチョウ","prefecture_code":9},"0016":{"zip_code":"3270016","prefecture":"栃木県","prefecture_kana":"トチギケン","city":"佐野市","city_kana":"サノシ","town":"大祝町","town_kana":"ダイシュクチョウ","prefecture_code":9},"0017":{"zip_code":"3270017","prefecture":"栃木県","prefecture_kana":"トチギケン","city":"佐野市","city_kana":"サノシ","town":"大町","town_kana":"ダイチョウ","prefecture_code":9},"0022":{"zip_code":"3270022","prefecture":"栃木県","prefecture_kana":"トチギケン","city":"佐野市","city_kana":"サノシ","town":"高砂町","town_kana":"タカサゴチョウ","prefecture_code":9},"0821":{"zip_code":"3270821","prefecture":"栃木県","prefecture_kana":"トチギケン","city":"佐野市","city_kana":"サノシ","town":"高萩町","town_kana":"タカハギチョウ","prefecture_code":9},"0045":{"zip_code":"3270045","prefecture":"栃木県","prefecture_kana":"トチギケン","city":"佐野市","city_kana":"サノシ","town":"高橋町","town_kana":"タカハシチョウ","prefecture_code":9},"0823":{"zip_code":"3270823","prefecture":"栃木県","prefecture_kana":"トチギケン","city":"佐野市","city_kana":"サノシ","town":"高山町","town_kana":"タカヤマチョウ","prefecture_code":9},"0031":{"zip_code":"3270031","prefecture":"栃木県","prefecture_kana":"トチギケン","city":"佐野市","city_kana":"サノシ","town":"田島町","town_kana":"タジマチョウ","prefecture_code":9},"0311":{"zip_code":"3270311","prefecture":"栃木県","prefecture_kana":"トチギケン","city":"佐野市","city_kana":"サノシ","town":"多田町","town_kana":"タダチョウ","prefecture_code":9},"0317":{"zip_code":"3270317","prefecture":"栃木県","prefecture_kana":"トチギケン","city":"佐野市","city_kana":"サノシ","town":"田沼町","town_kana":"タヌマチョウ","prefecture_code":9},"0841":{"zip_code":"3270841","prefecture":"栃木県","prefecture_kana":"トチギケン","city":"佐野市","city_kana":"サノシ","town":"田之入町","town_kana":"タノイリチョウ","prefecture_code":9},"0502":{"zip_code":"3270502","prefecture":"栃木県","prefecture_kana":"トチギケン","city":"佐野市","city_kana":"サノシ","town":"築地町","town_kana":"ツイジチョウ","prefecture_code":9},"0101":{"zip_code":"3270101","prefecture":"栃木県","prefecture_kana":"トチギケン","city":"佐野市","city_kana":"サノシ","town":"寺久保町","town_kana":"テラクボチョウ","prefecture_code":9},"0847":{"zip_code":"3270847","prefecture":"栃木県","prefecture_kana":"トチギケン","city":"佐野市","city_kana":"サノシ","town":"天神町","town_kana":"テンジンチョウ","prefecture_code":9},"0014":{"zip_code":"3270014","prefecture":"栃木県","prefecture_kana":"トチギケン","city":"佐野市","city_kana":"サノシ","town":"天明町","town_kana":"テンミョウチョウ","prefecture_code":9},"0312":{"zip_code":"3270312","prefecture":"栃木県","prefecture_kana":"トチギケン","city":"佐野市","city_kana":"サノシ","town":"栃本町","town_kana":"トチモトチョウ","prefecture_code":9},"0323":{"zip_code":"3270323","prefecture":"栃木県","prefecture_kana":"トチギケン","city":"佐野市","city_kana":"サノシ","town":"戸奈良町","town_kana":"トナラチョウ","prefecture_code":9},"0844":{"zip_code":"3270844","prefecture":"栃木県","prefecture_kana":"トチギケン","city":"佐野市","city_kana":"サノシ","town":"富岡町","town_kana":"トミオカチョウ","prefecture_code":9},"0306":{"zip_code":"3270306","prefecture":"栃木県","prefecture_kana":"トチギケン","city":"佐野市","city_kana":"サノシ","town":"戸室町","town_kana":"トムロチョウ","prefecture_code":9},"0512":{"zip_code":"3270512","prefecture":"栃木県","prefecture_kana":"トチギケン","city":"佐野市","city_kana":"サノシ","town":"豊代町","town_kana":"トヨシロチョウ","prefecture_code":9},"0524":{"zip_code":"3270524","prefecture":"栃木県","prefecture_kana":"トチギケン","city":"佐野市","city_kana":"サノシ","town":"長坂町","town_kana":"ナガサカチョウ","prefecture_code":9},"0504":{"zip_code":"3270504","prefecture":"栃木県","prefecture_kana":"トチギケン","city":"佐野市","city_kana":"サノシ","town":"中町","town_kana":"ナカチョウ","prefecture_code":9},"0002":{"zip_code":"3270002","prefecture":"栃木県","prefecture_kana":"トチギケン","city":"佐野市","city_kana":"サノシ","town":"並木町","town_kana":"ナミキチョウ","prefecture_code":9},"0842":{"zip_code":"3270842","prefecture":"栃木県","prefecture_kana":"トチギケン","city":"佐野市","city_kana":"サノシ","town":"奈良渕町","town_kana":"ナラブチチョウ","prefecture_code":9},"0814":{"zip_code":"3270814","prefecture":"栃木県","prefecture_kana":"トチギケン","city":"佐野市","city_kana":"サノシ","town":"西浦町","town_kana":"ニシウラチョウ","prefecture_code":9},"0802":{"zip_code":"3270802","prefecture":"栃木県","prefecture_kana":"トチギケン","city":"佐野市","city_kana":"サノシ","town":"韮川町","town_kana":"ニラガワチョウ","prefecture_code":9},"0303":{"zip_code":"3270303","prefecture":"栃木県","prefecture_kana":"トチギケン","city":"佐野市","city_kana":"サノシ","town":"長谷場町","town_kana":"ハセバチョウ","prefecture_code":9},"0508":{"zip_code":"3270508","prefecture":"栃木県","prefecture_kana":"トチギケン","city":"佐野市","city_kana":"サノシ","town":"鉢木町","town_kana":"ハチノキチョウ","prefecture_code":9},"0231":{"zip_code":"3270231","prefecture":"栃木県","prefecture_kana":"トチギケン","city":"佐野市","city_kana":"サノシ","town":"飛駒町","town_kana":"ヒコマチョウ","prefecture_code":9},"0801":{"zip_code":"3270801","prefecture":"栃木県","prefecture_kana":"トチギケン","city":"佐野市","city_kana":"サノシ","town":"富士町","town_kana":"フジチョウ","prefecture_code":9},"0503":{"zip_code":"3270503","prefecture":"栃木県","prefecture_kana":"トチギケン","city":"佐野市","city_kana":"サノシ","town":"富士見町","town_kana":"フジミチョウ","prefecture_code":9},"0305":{"zip_code":"3270305","prefecture":"栃木県","prefecture_kana":"トチギケン","city":"佐野市","city_kana":"サノシ","town":"船越町","town_kana":"フナコシチョウ","prefecture_code":9},"0035":{"zip_code":"3270035","prefecture":"栃木県","prefecture_kana":"トチギケン","city":"佐野市","city_kana":"サノシ","town":"船津川町","town_kana":"フナツガワチョウ","prefecture_code":9},"0843":{"zip_code":"3270843","prefecture":"栃木県","prefecture_kana":"トチギケン","city":"佐野市","city_kana":"サノシ","town":"堀米町","town_kana":"ホリゴメチョウ","prefecture_code":9},"0013":{"zip_code":"3270013","prefecture":"栃木県","prefecture_kana":"トチギケン","city":"佐野市","city_kana":"サノシ","town":"本町","town_kana":"ホンチョウ","prefecture_code":9},"0824":{"zip_code":"3270824","prefecture":"栃木県","prefecture_kana":"トチギケン","city":"佐野市","city_kana":"サノシ","town":"馬門町","town_kana":"マカドチョウ","prefecture_code":9},"0513":{"zip_code":"3270513","prefecture":"栃木県","prefecture_kana":"トチギケン","city":"佐野市","city_kana":"サノシ","town":"牧町","town_kana":"マギチョウ","prefecture_code":9},"0812":{"zip_code":"3270812","prefecture":"栃木県","prefecture_kana":"トチギケン","city":"佐野市","city_kana":"サノシ","town":"町谷町","town_kana":"マチヤチョウ","prefecture_code":9},"0304":{"zip_code":"3270304","prefecture":"栃木県","prefecture_kana":"トチギケン","city":"佐野市","city_kana":"サノシ","town":"御神楽町","town_kana":"ミカグラチョウ","prefecture_code":9},"0516":{"zip_code":"3270516","prefecture":"栃木県","prefecture_kana":"トチギケン","city":"佐野市","city_kana":"サノシ","town":"水木町","town_kana":"ミズキチョウ","prefecture_code":9},"0509":{"zip_code":"3270509","prefecture":"栃木県","prefecture_kana":"トチギケン","city":"佐野市","city_kana":"サノシ","town":"宮下町","town_kana":"ミヤシタチョウ","prefecture_code":9},"0046":{"zip_code":"3270046","prefecture":"栃木県","prefecture_kana":"トチギケン","city":"佐野市","city_kana":"サノシ","town":"村上町","town_kana":"ムラカミチョウ","prefecture_code":9},"0041":{"zip_code":"3270041","prefecture":"栃木県","prefecture_kana":"トチギケン","city":"佐野市","city_kana":"サノシ","town":"免鳥町","town_kana":"メンドリチョウ","prefecture_code":9},"0826":{"zip_code":"3270826","prefecture":"栃木県","prefecture_kana":"トチギケン","city":"佐野市","city_kana":"サノシ","town":"茂呂山町","town_kana":"モロヤマチョウ","prefecture_code":9},"0324":{"zip_code":"3270324","prefecture":"栃木県","prefecture_kana":"トチギケン","city":"佐野市","city_kana":"サノシ","town":"山形町","town_kana":"ヤマガタチョウ","prefecture_code":9},"0318":{"zip_code":"3270318","prefecture":"栃木県","prefecture_kana":"トチギケン","city":"佐野市","city_kana":"サノシ","town":"山越町","town_kana":"ヤマコシチョウ","prefecture_code":9},"0505":{"zip_code":"3270505","prefecture":"栃木県","prefecture_kana":"トチギケン","city":"佐野市","city_kana":"サノシ","town":"山菅町","town_kana":"ヤマスゲチョウ","prefecture_code":9},"0027":{"zip_code":"3270027","prefecture":"栃木県","prefecture_kana":"トチギケン","city":"佐野市","city_kana":"サノシ","town":"大和町","town_kana":"ヤマトチョウ","prefecture_code":9},"0315":{"zip_code":"3270315","prefecture":"栃木県","prefecture_kana":"トチギケン","city":"佐野市","city_kana":"サノシ","town":"吉水駅前","town_kana":"ヨシミズエキマエ","prefecture_code":9},"0313":{"zip_code":"3270313","prefecture":"栃木県","prefecture_kana":"トチギケン","city":"佐野市","city_kana":"サノシ","town":"吉水町","town_kana":"ヨシミズチョウ","prefecture_code":9},"0818":{"zip_code":"3270818","prefecture":"栃木県","prefecture_kana":"トチギケン","city":"佐野市","city_kana":"サノシ","town":"米山南町","town_kana":"ヨネヤマミナミチョウ","prefecture_code":9},"0028":{"zip_code":"3270028","prefecture":"栃木県","prefecture_kana":"トチギケン","city":"佐野市","city_kana":"サノシ","town":"万町","town_kana":"ヨロズチョウ","prefecture_code":9},"0846":{"zip_code":"3270846","prefecture":"栃木県","prefecture_kana":"トチギケン","city":"佐野市","city_kana":"サノシ","town":"若松町","town_kana":"ワカマツチョウ","prefecture_code":9},"0833":{"zip_code":"3270833","prefecture":"栃木県","prefecture_kana":"トチギケン","city":"佐野市","city_kana":"サノシ","town":"若宮上町","town_kana":"ワカミヤカミチョウ","prefecture_code":9},"0834":{"zip_code":"3270834","prefecture":"栃木県","prefecture_kana":"トチギケン","city":"佐野市","city_kana":"サノシ","town":"若宮下町","town_kana":"ワカミヤシモチョウ","prefecture_code":9}}