{"0000":{"zip_code":"3280000","prefecture":"栃木県","prefecture_kana":"トチギケン","city":"栃木市","city_kana":"トチギシ","town":"","town_kana":"","prefecture_code":9},"0035":{"zip_code":"3280035","prefecture":"栃木県","prefecture_kana":"トチギケン","city":"栃木市","city_kana":"トチギシ","town":"旭町","town_kana":"アサヒチョウ","prefecture_code":9},"0131":{"zip_code":"3280131","prefecture":"栃木県","prefecture_kana":"トチギケン","city":"栃木市","city_kana":"トチギシ","town":"梓町","town_kana":"アズサマチ","prefecture_code":9},"0061":{"zip_code":"3280061","prefecture":"栃木県","prefecture_kana":"トチギケン","city":"栃木市","city_kana":"トチギシ","town":"新井町","town_kana":"アライマチ","prefecture_code":9},"0062":{"zip_code":"3280062","prefecture":"栃木県","prefecture_kana":"トチギケン","city":"栃木市","city_kana":"トチギシ","town":"泉川町","town_kana":"イズミガワマチ","prefecture_code":9},"0014":{"zip_code":"3280014","prefecture":"栃木県","prefecture_kana":"トチギケン","city":"栃木市","city_kana":"トチギシ","town":"泉町","town_kana":"イズミチョウ","prefecture_code":9},"0206":{"zip_code":"3280206","prefecture":"栃木県","prefecture_kana":"トチギケン","city":"栃木市","city_kana":"トチギシ","town":"出流町","town_kana":"イズルマチ","prefecture_code":9},"0027":{"zip_code":"3280027","prefecture":"栃木県","prefecture_kana":"トチギケン","city":"栃木市","city_kana":"トチギシ","town":"今泉町","town_kana":"イマイズミマチ","prefecture_code":9},"0016":{"zip_code":"3280016","prefecture":"栃木県","prefecture_kana":"トチギケン","city":"栃木市","city_kana":"トチギシ","town":"入舟町","town_kana":"イリフネチョウ","prefecture_code":9},"0052":{"zip_code":"3280052","prefecture":"栃木県","prefecture_kana":"トチギケン","city":"栃木市","city_kana":"トチギシ","town":"祝町","town_kana":"イワイチョウ","prefecture_code":9},"0063":{"zip_code":"3280063","prefecture":"栃木県","prefecture_kana":"トチギケン","city":"栃木市","city_kana":"トチギシ","town":"岩出町","town_kana":"イワデマチ","prefecture_code":9},"0204":{"zip_code":"3280204","prefecture":"栃木県","prefecture_kana":"トチギケン","city":"栃木市","city_kana":"トチギシ","town":"梅沢町","town_kana":"ウメザワマチ","prefecture_code":9},"0202":{"zip_code":"3280202","prefecture":"栃木県","prefecture_kana":"トチギケン","city":"栃木市","city_kana":"トチギシ","town":"大久保町","town_kana":"オオクボマチ","prefecture_code":9},"0007":{"zip_code":"3280007","prefecture":"栃木県","prefecture_kana":"トチギケン","city":"栃木市","city_kana":"トチギシ","town":"大塚町","town_kana":"オオツカマチ","prefecture_code":9},"0068":{"zip_code":"3280068","prefecture":"栃木県","prefecture_kana":"トチギケン","city":"栃木市","city_kana":"トチギシ","town":"大皆川町","town_kana":"オオミナガワマチ","prefecture_code":9},"0011":{"zip_code":"3280011","prefecture":"栃木県","prefecture_kana":"トチギケン","city":"栃木市","city_kana":"トチギシ","town":"大宮町","town_kana":"オオミヤマチ","prefecture_code":9},"0133":{"zip_code":"3280133","prefecture":"栃木県","prefecture_kana":"トチギケン","city":"栃木市","city_kana":"トチギシ","town":"大森町","town_kana":"オオモリマチ","prefecture_code":9},"0065":{"zip_code":"3280065","prefecture":"栃木県","prefecture_kana":"トチギケン","city":"栃木市","city_kana":"トチギシ","town":"小野口町","town_kana":"オノグチマチ","prefecture_code":9},"0072":{"zip_code":"3280072","prefecture":"栃木県","prefecture_kana":"トチギケン","city":"栃木市","city_kana":"トチギシ","town":"嘉右衛門町","town_kana":"カウエモンチョウ","prefecture_code":9},"0066":{"zip_code":"3280066","prefecture":"栃木県","prefecture_kana":"トチギケン","city":"栃木市","city_kana":"トチギシ","town":"柏倉町","town_kana":"カシワグラマチ","prefecture_code":9},"0053":{"zip_code":"3280053","prefecture":"栃木県","prefecture_kana":"トチギケン","city":"栃木市","city_kana":"トチギシ","town":"片柳町","town_kana":"カタヤナギチョウ","prefecture_code":9},"0041":{"zip_code":"3280041","prefecture":"栃木県","prefecture_kana":"トチギケン","city":"栃木市","city_kana":"トチギシ","town":"河合町","town_kana":"カワイチョウ","prefecture_code":9},"0123":{"zip_code":"3280123","prefecture":"栃木県","prefecture_kana":"トチギケン","city":"栃木市","city_kana":"トチギシ","town":"川原田町","town_kana":"カワラダマチ","prefecture_code":9},"0032":{"zip_code":"3280032","prefecture":"栃木県","prefecture_kana":"トチギケン","city":"栃木市","city_kana":"トチギシ","town":"神田町","town_kana":"カンダチョウ","prefecture_code":9},"0122":{"zip_code":"3280122","prefecture":"栃木県","prefecture_kana":"トチギケン","city":"栃木市","city_kana":"トチギシ","town":"木野地町","town_kana":"キノジマチ","prefecture_code":9},"0021":{"zip_code":"3280021","prefecture":"栃木県","prefecture_kana":"トチギケン","city":"栃木市","city_kana":"トチギシ","town":"久保田町","town_kana":"クボタマチ","prefecture_code":9},"0006":{"zip_code":"3280006","prefecture":"栃木県","prefecture_kana":"トチギケン","city":"栃木市","city_kana":"トチギシ","town":"国府町","town_kana":"コウマチ","prefecture_code":9},"0023":{"zip_code":"3280023","prefecture":"栃木県","prefecture_kana":"トチギケン","city":"栃木市","city_kana":"トチギシ","town":"高谷町","town_kana":"コウヤマチ","prefecture_code":9},"0073":{"zip_code":"3280073","prefecture":"栃木県","prefecture_kana":"トチギケン","city":"栃木市","city_kana":"トチギシ","town":"小平町","town_kana":"コヒラチョウ","prefecture_code":9},"0043":{"zip_code":"3280043","prefecture":"栃木県","prefecture_kana":"トチギケン","city":"栃木市","city_kana":"トチギシ","town":"境町","town_kana":"サカイチョウ","prefecture_code":9},"0064":{"zip_code":"3280064","prefecture":"栃木県","prefecture_kana":"トチギケン","city":"栃木市","city_kana":"トチギシ","town":"志鳥町","town_kana":"シトリマチ","prefecture_code":9},"0033":{"zip_code":"3280033","prefecture":"栃木県","prefecture_kana":"トチギケン","city":"栃木市","city_kana":"トチギシ","town":"城内町","town_kana":"ジョウナイチョウ","prefecture_code":9},"0013":{"zip_code":"3280013","prefecture":"栃木県","prefecture_kana":"トチギケン","city":"栃木市","city_kana":"トチギシ","town":"昭和町","town_kana":"ショウワチョウ","prefecture_code":9},"0203":{"zip_code":"3280203","prefecture":"栃木県","prefecture_kana":"トチギケン","city":"栃木市","city_kana":"トチギシ","town":"尻内町","town_kana":"シリウチマチ","prefecture_code":9},"0002":{"zip_code":"3280002","prefecture":"栃木県","prefecture_kana":"トチギケン","city":"栃木市","city_kana":"トチギシ","town":"惣社町","town_kana":"ソウジャマチ","prefecture_code":9},"0074":{"zip_code":"3280074","prefecture":"栃木県","prefecture_kana":"トチギケン","city":"栃木市","city_kana":"トチギシ","town":"薗部町","town_kana":"ソノベチョウ","prefecture_code":9},"0003":{"zip_code":"3280003","prefecture":"栃木県","prefecture_kana":"トチギケン","city":"栃木市","city_kana":"トチギシ","town":"大光寺町","town_kana":"ダイコウジマチ","prefecture_code":9},"0071":{"zip_code":"3280071","prefecture":"栃木県","prefecture_kana":"トチギケン","city":"栃木市","city_kana":"トチギシ","town":"大町","town_kana":"ダイチョウ","prefecture_code":9},"0004":{"zip_code":"3280004","prefecture":"栃木県","prefecture_kana":"トチギケン","city":"栃木市","city_kana":"トチギシ","town":"田村町","town_kana":"タムラマチ","prefecture_code":9},"0135":{"zip_code":"3280135","prefecture":"栃木県","prefecture_kana":"トチギケン","city":"栃木市","city_kana":"トチギシ","town":"千塚町","town_kana":"チヅカマチ","prefecture_code":9},"0111":{"zip_code":"3280111","prefecture":"栃木県","prefecture_kana":"トチギケン","city":"栃木市","city_kana":"トチギシ","town":"都賀町家中","town_kana":"ツガマチイエナカ","prefecture_code":9},"0105":{"zip_code":"3280105","prefecture":"栃木県","prefecture_kana":"トチギケン","city":"栃木市","city_kana":"トチギシ","town":"都賀町臼久保","town_kana":"ツガマチウスクボ","prefecture_code":9},"0101":{"zip_code":"3280101","prefecture":"栃木県","prefecture_kana":"トチギケン","city":"栃木市","city_kana":"トチギシ","town":"都賀町大柿","town_kana":"ツガマチオオガキ","prefecture_code":9},"0106":{"zip_code":"3280106","prefecture":"栃木県","prefecture_kana":"トチギケン","city":"栃木市","city_kana":"トチギシ","town":"都賀町大橋","town_kana":"ツガマチオオハシ","prefecture_code":9},"0113":{"zip_code":"3280113","prefecture":"栃木県","prefecture_kana":"トチギケン","city":"栃木市","city_kana":"トチギシ","town":"都賀町合戦場","town_kana":"ツガマチカッセンバ","prefecture_code":9},"0104":{"zip_code":"3280104","prefecture":"栃木県","prefecture_kana":"トチギケン","city":"栃木市","city_kana":"トチギシ","town":"都賀町木","town_kana":"ツガマチキ","prefecture_code":9},"0102":{"zip_code":"3280102","prefecture":"栃木県","prefecture_kana":"トチギケン","city":"栃木市","city_kana":"トチギシ","town":"都賀町富張","town_kana":"ツガマチトミハリ","prefecture_code":9},"0103":{"zip_code":"3280103","prefecture":"栃木県","prefecture_kana":"トチギケン","city":"栃木市","city_kana":"トチギシ","town":"都賀町原宿","town_kana":"ツガマチハラジュク","prefecture_code":9},"0112":{"zip_code":"3280112","prefecture":"栃木県","prefecture_kana":"トチギケン","city":"栃木市","city_kana":"トチギシ","town":"都賀町平川","town_kana":"ツガマチヒラカワ","prefecture_code":9},"0107":{"zip_code":"3280107","prefecture":"栃木県","prefecture_kana":"トチギケン","city":"栃木市","city_kana":"トチギシ","town":"都賀町深沢","town_kana":"ツガマチフカサワ","prefecture_code":9},"0114":{"zip_code":"3280114","prefecture":"栃木県","prefecture_kana":"トチギケン","city":"栃木市","city_kana":"トチギシ","town":"都賀町升塚","town_kana":"ツガマチマスヅカ","prefecture_code":9},"0132":{"zip_code":"3280132","prefecture":"栃木県","prefecture_kana":"トチギケン","city":"栃木市","city_kana":"トチギシ","town":"仲方町","town_kana":"ナカガタマチ","prefecture_code":9},"0025":{"zip_code":"3280025","prefecture":"栃木県","prefecture_kana":"トチギケン","city":"栃木市","city_kana":"トチギシ","town":"仲仕上町","town_kana":"ナカシアゲマチ","prefecture_code":9},"0205":{"zip_code":"3280205","prefecture":"栃木県","prefecture_kana":"トチギケン","city":"栃木市","city_kana":"トチギシ","town":"鍋山町","town_kana":"ナベヤママチ","prefecture_code":9},"0017":{"zip_code":"3280017","prefecture":"栃木県","prefecture_kana":"トチギケン","city":"栃木市","city_kana":"トチギシ","town":"錦町","town_kana":"ニシキチョウ","prefecture_code":9},"0042":{"zip_code":"3280042","prefecture":"栃木県","prefecture_kana":"トチギケン","city":"栃木市","city_kana":"トチギシ","town":"沼和田町","town_kana":"ヌマワダチョウ","prefecture_code":9},"0124":{"zip_code":"3280124","prefecture":"栃木県","prefecture_kana":"トチギケン","city":"栃木市","city_kana":"トチギシ","town":"野中町","town_kana":"ノナカマチ","prefecture_code":9},"0075":{"zip_code":"3280075","prefecture":"栃木県","prefecture_kana":"トチギケン","city":"栃木市","city_kana":"トチギシ","town":"箱森町","town_kana":"ハコノモリマチ","prefecture_code":9},"0024":{"zip_code":"3280024","prefecture":"栃木県","prefecture_kana":"トチギケン","city":"栃木市","city_kana":"トチギシ","town":"樋ノ口町","town_kana":"ヒノクチマチ","prefecture_code":9},"0031":{"zip_code":"3280031","prefecture":"栃木県","prefecture_kana":"トチギケン","city":"栃木市","city_kana":"トチギシ","town":"日ノ出町","town_kana":"ヒノデチョウ","prefecture_code":9},"0054":{"zip_code":"3280054","prefecture":"栃木県","prefecture_kana":"トチギケン","city":"栃木市","city_kana":"トチギシ","town":"平井町","town_kana":"ヒライチョウ","prefecture_code":9},"0012":{"zip_code":"3280012","prefecture":"栃木県","prefecture_kana":"トチギケン","city":"栃木市","city_kana":"トチギシ","town":"平柳町","town_kana":"ヒラヤナギマチ","prefecture_code":9},"0125":{"zip_code":"3280125","prefecture":"栃木県","prefecture_kana":"トチギケン","city":"栃木市","city_kana":"トチギシ","town":"吹上町","town_kana":"フキアゲマチ","prefecture_code":9},"0026":{"zip_code":"3280026","prefecture":"栃木県","prefecture_kana":"トチギケン","city":"栃木市","city_kana":"トチギシ","town":"藤田町","town_kana":"フジタマチ","prefecture_code":9},"0044":{"zip_code":"3280044","prefecture":"栃木県","prefecture_kana":"トチギケン","city":"栃木市","city_kana":"トチギシ","town":"富士見町","town_kana":"フジミチョウ","prefecture_code":9},"0201":{"zip_code":"3280201","prefecture":"栃木県","prefecture_kana":"トチギケン","city":"栃木市","city_kana":"トチギシ","town":"星野町","town_kana":"ホシノマチ","prefecture_code":9},"0121":{"zip_code":"3280121","prefecture":"栃木県","prefecture_kana":"トチギケン","city":"栃木市","city_kana":"トチギシ","town":"細堀町","town_kana":"ホソボリマチ","prefecture_code":9},"0034":{"zip_code":"3280034","prefecture":"栃木県","prefecture_kana":"トチギケン","city":"栃木市","city_kana":"トチギシ","town":"本町","town_kana":"ホンチョウ","prefecture_code":9},"0067":{"zip_code":"3280067","prefecture":"栃木県","prefecture_kana":"トチギケン","city":"栃木市","city_kana":"トチギシ","town":"皆川城内町","town_kana":"ミナガワジョウナイマチ","prefecture_code":9},"0045":{"zip_code":"3280045","prefecture":"栃木県","prefecture_kana":"トチギケン","city":"栃木市","city_kana":"トチギシ","town":"湊町","town_kana":"ミナトチョウ","prefecture_code":9},"0022":{"zip_code":"3280022","prefecture":"栃木県","prefecture_kana":"トチギケン","city":"栃木市","city_kana":"トチギシ","town":"宮田町","town_kana":"ミヤタマチ","prefecture_code":9},"0134":{"zip_code":"3280134","prefecture":"栃木県","prefecture_kana":"トチギケン","city":"栃木市","city_kana":"トチギシ","town":"宮町","town_kana":"ミヤマチ","prefecture_code":9},"0036":{"zip_code":"3280036","prefecture":"栃木県","prefecture_kana":"トチギケン","city":"栃木市","city_kana":"トチギシ","town":"室町","town_kana":"ムロマチ","prefecture_code":9},"0051":{"zip_code":"3280051","prefecture":"栃木県","prefecture_kana":"トチギケン","city":"栃木市","city_kana":"トチギシ","town":"柳橋町","town_kana":"ヤナギバシチョウ","prefecture_code":9},"0001":{"zip_code":"3280001","prefecture":"栃木県","prefecture_kana":"トチギケン","city":"栃木市","city_kana":"トチギシ","town":"柳原町","town_kana":"ヤナギハラマチ","prefecture_code":9},"0037":{"zip_code":"3280037","prefecture":"栃木県","prefecture_kana":"トチギケン","city":"栃木市","city_kana":"トチギシ","town":"倭町","town_kana":"ヤマトチョウ","prefecture_code":9},"0005":{"zip_code":"3280005","prefecture":"栃木県","prefecture_kana":"トチギケン","city":"栃木市","city_kana":"トチギシ","town":"寄居町","town_kana":"ヨリイマチ","prefecture_code":9},"0015":{"zip_code":"3280015","prefecture":"栃木県","prefecture_kana":"トチギケン","city":"栃木市","city_kana":"トチギシ","town":"万町","town_kana":"ヨロズチョウ","prefecture_code":9},"0221":{"zip_code":"3280221","prefecture":"栃木県","prefecture_kana":"トチギケン","city":"佐野市","city_kana":"サノシ","town":"仙波町","town_kana":"センバチョウ","prefecture_code":9},"0211":{"zip_code":"3280211","prefecture":"栃木県","prefecture_kana":"トチギケン","city":"鹿沼市","city_kana":"カヌマシ","town":"上永野","town_kana":"カミナガノ","prefecture_code":9},"0212":{"zip_code":"3280212","prefecture":"栃木県","prefecture_kana":"トチギケン","city":"鹿沼市","city_kana":"カヌマシ","town":"下永野","town_kana":"シモナガノ","prefecture_code":9}}