{"1113":{"zip_code":"3291113","prefecture":"栃木県","prefecture_kana":"トチギケン","city":"宇都宮市","city_kana":"ウツノミヤシ","town":"相野沢町","town_kana":"アイノサワチョウ","prefecture_code":9},"1117":{"zip_code":"3291117","prefecture":"栃木県","prefecture_kana":"トチギケン","city":"宇都宮市","city_kana":"ウツノミヤシ","town":"叶谷町","town_kana":"カノウヤチョウ","prefecture_code":9},"1106":{"zip_code":"3291106","prefecture":"栃木県","prefecture_kana":"トチギケン","city":"宇都宮市","city_kana":"ウツノミヤシ","town":"上大塚町","town_kana":"カミオオツカチョウ","prefecture_code":9},"1112":{"zip_code":"3291112","prefecture":"栃木県","prefecture_kana":"トチギケン","city":"宇都宮市","city_kana":"ウツノミヤシ","town":"上田原町","town_kana":"カミタワラチョウ","prefecture_code":9},"1111":{"zip_code":"3291111","prefecture":"栃木県","prefecture_kana":"トチギケン","city":"宇都宮市","city_kana":"ウツノミヤシ","town":"逆面町","town_kana":"サカヅラチョウ","prefecture_code":9},"1101":{"zip_code":"3291101","prefecture":"栃木県","prefecture_kana":"トチギケン","city":"宇都宮市","city_kana":"ウツノミヤシ","town":"下ケ橋町","town_kana":"サゲハシチョウ","prefecture_code":9},"1104":{"zip_code":"3291104","prefecture":"栃木県","prefecture_kana":"トチギケン","city":"宇都宮市","city_kana":"ウツノミヤシ","town":"下岡本町","town_kana":"シモオカモトチョウ","prefecture_code":9},"1115":{"zip_code":"3291115","prefecture":"栃木県","prefecture_kana":"トチギケン","city":"宇都宮市","city_kana":"ウツノミヤシ","town":"下田原町","town_kana":"シモタワラチョウ","prefecture_code":9},"1102":{"zip_code":"3291102","prefecture":"栃木県","prefecture_kana":"トチギケン","city":"宇都宮市","city_kana":"ウツノミヤシ","town":"白沢町","town_kana":"シラサワチョウ","prefecture_code":9},"1114":{"zip_code":"3291114","prefecture":"栃木県","prefecture_kana":"トチギケン","city":"宇都宮市","city_kana":"ウツノミヤシ","town":"宝井町","town_kana":"タカライチョウ","prefecture_code":9},"1105":{"zip_code":"3291105","prefecture":"栃木県","prefecture_kana":"トチギケン","city":"宇都宮市","city_kana":"ウツノミヤシ","town":"中岡本町","town_kana":"ナカオカモトチョウ","prefecture_code":9},"1107":{"zip_code":"3291107","prefecture":"栃木県","prefecture_kana":"トチギケン","city":"宇都宮市","city_kana":"ウツノミヤシ","town":"長峰町","town_kana":"ナガミネチョウ","prefecture_code":9},"1103":{"zip_code":"3291103","prefecture":"栃木県","prefecture_kana":"トチギケン","city":"宇都宮市","city_kana":"ウツノミヤシ","town":"東岡本町","town_kana":"ヒガシオカモトチョウ","prefecture_code":9},"1108":{"zip_code":"3291108","prefecture":"栃木県","prefecture_kana":"トチギケン","city":"宇都宮市","city_kana":"ウツノミヤシ","town":"古田町","town_kana":"フルタチョウ","prefecture_code":9},"1116":{"zip_code":"3291116","prefecture":"栃木県","prefecture_kana":"トチギケン","city":"宇都宮市","city_kana":"ウツノミヤシ","town":"立伏町","town_kana":"リュウブクチョウ","prefecture_code":9},"4212":{"zip_code":"3294212","prefecture":"栃木県","prefecture_kana":"トチギケン","city":"足利市","city_kana":"アシカガシ","town":"稲岡町","town_kana":"イナオカチョウ","prefecture_code":9},"4215":{"zip_code":"3294215","prefecture":"栃木県","prefecture_kana":"トチギケン","city":"足利市","city_kana":"アシカガシ","town":"奥戸町","town_kana":"オクドチョウ","prefecture_code":9},"4217":{"zip_code":"3294217","prefecture":"栃木県","prefecture_kana":"トチギケン","city":"足利市","city_kana":"アシカガシ","town":"駒場町","town_kana":"コマバチョウ","prefecture_code":9},"4214":{"zip_code":"3294214","prefecture":"栃木県","prefecture_kana":"トチギケン","city":"足利市","city_kana":"アシカガシ","town":"多田木町","town_kana":"タダキチョウ","prefecture_code":9},"4213":{"zip_code":"3294213","prefecture":"栃木県","prefecture_kana":"トチギケン","city":"足利市","city_kana":"アシカガシ","town":"寺岡町","town_kana":"テラオカチョウ","prefecture_code":9},"4211":{"zip_code":"3294211","prefecture":"栃木県","prefecture_kana":"トチギケン","city":"足利市","city_kana":"アシカガシ","town":"西場町","town_kana":"ニシバチョウ","prefecture_code":9},"4216":{"zip_code":"3294216","prefecture":"栃木県","prefecture_kana":"トチギケン","city":"足利市","city_kana":"アシカガシ","town":"迫間町","town_kana":"ハサマチョウ","prefecture_code":9},"4302":{"zip_code":"3294302","prefecture":"栃木県","prefecture_kana":"トチギケン","city":"栃木市","city_kana":"トチギシ","town":"岩舟町五十畑","town_kana":"イワフネマチイカバタ","prefecture_code":9},"4303":{"zip_code":"3294303","prefecture":"栃木県","prefecture_kana":"トチギケン","city":"栃木市","city_kana":"トチギシ","town":"岩舟町和泉","town_kana":"イワフネマチイズミ","prefecture_code":9},"4314":{"zip_code":"3294314","prefecture":"栃木県","prefecture_kana":"トチギケン","city":"栃木市","city_kana":"トチギシ","town":"岩舟町小野寺","town_kana":"イワフネマチオノデラ","prefecture_code":9},"4313":{"zip_code":"3294313","prefecture":"栃木県","prefecture_kana":"トチギケン","city":"栃木市","city_kana":"トチギシ","town":"岩舟町上岡","town_kana":"イワフネマチカミオカ","prefecture_code":9},"4307":{"zip_code":"3294307","prefecture":"栃木県","prefecture_kana":"トチギケン","city":"栃木市","city_kana":"トチギシ","town":"岩舟町静","town_kana":"イワフネマチシズカ","prefecture_code":9},"4305":{"zip_code":"3294305","prefecture":"栃木県","prefecture_kana":"トチギケン","city":"栃木市","city_kana":"トチギシ","town":"岩舟町静戸","town_kana":"イワフネマチシズコ","prefecture_code":9},"4304":{"zip_code":"3294304","prefecture":"栃木県","prefecture_kana":"トチギケン","city":"栃木市","city_kana":"トチギシ","town":"岩舟町静和","town_kana":"イワフネマチシズワ","prefecture_code":9},"4312":{"zip_code":"3294312","prefecture":"栃木県","prefecture_kana":"トチギケン","city":"栃木市","city_kana":"トチギシ","town":"岩舟町下岡","town_kana":"イワフネマチシモオカ","prefecture_code":9},"4308":{"zip_code":"3294308","prefecture":"栃木県","prefecture_kana":"トチギケン","city":"栃木市","city_kana":"トチギシ","town":"岩舟町下津原","town_kana":"イワフネマチシモツバラ","prefecture_code":9},"4309":{"zip_code":"3294309","prefecture":"栃木県","prefecture_kana":"トチギケン","city":"栃木市","city_kana":"トチギシ","town":"岩舟町畳岡","town_kana":"イワフネマチタタミオカ","prefecture_code":9},"4316":{"zip_code":"3294316","prefecture":"栃木県","prefecture_kana":"トチギケン","city":"栃木市","city_kana":"トチギシ","town":"岩舟町新里","town_kana":"イワフネマチニッサト","prefecture_code":9},"4311":{"zip_code":"3294311","prefecture":"栃木県","prefecture_kana":"トチギケン","city":"栃木市","city_kana":"トチギシ","town":"岩舟町古江","town_kana":"イワフネマチフルエ","prefecture_code":9},"4306":{"zip_code":"3294306","prefecture":"栃木県","prefecture_kana":"トチギケン","city":"栃木市","city_kana":"トチギシ","town":"岩舟町曲ケ島","town_kana":"イワフネマチマガノシマ","prefecture_code":9},"4315":{"zip_code":"3294315","prefecture":"栃木県","prefecture_kana":"トチギケン","city":"栃木市","city_kana":"トチギシ","town":"岩舟町三谷","town_kana":"イワフネマチミヤ","prefecture_code":9},"4301":{"zip_code":"3294301","prefecture":"栃木県","prefecture_kana":"トチギケン","city":"栃木市","city_kana":"トチギシ","town":"岩舟町鷲巣","town_kana":"イワフネマチワシノス","prefecture_code":9},"4425":{"zip_code":"3294425","prefecture":"栃木県","prefecture_kana":"トチギケン","city":"栃木市","city_kana":"トチギシ","town":"大平町新","town_kana":"オオヒラマチアライ","prefecture_code":9},"4401":{"zip_code":"3294401","prefecture":"栃木県","prefecture_kana":"トチギケン","city":"栃木市","city_kana":"トチギシ","town":"大平町牛久","town_kana":"オオヒラマチウシク","prefecture_code":9},"4422":{"zip_code":"3294422","prefecture":"栃木県","prefecture_kana":"トチギケン","city":"栃木市","city_kana":"トチギシ","town":"大平町榎本","town_kana":"オオヒラマチエノモト","prefecture_code":9},"4413":{"zip_code":"3294413","prefecture":"栃木県","prefecture_kana":"トチギケン","city":"栃木市","city_kana":"トチギシ","town":"大平町上高島","town_kana":"オオヒラマチカミタカシマ","prefecture_code":9},"4407":{"zip_code":"3294407","prefecture":"栃木県","prefecture_kana":"トチギケン","city":"栃木市","city_kana":"トチギシ","town":"大平町川連","town_kana":"オオヒラマチカワツレ","prefecture_code":9},"4412":{"zip_code":"3294412","prefecture":"栃木県","prefecture_kana":"トチギケン","city":"栃木市","city_kana":"トチギシ","town":"大平町北武井","town_kana":"オオヒラマチキタタケイ","prefecture_code":9},"4403":{"zip_code":"3294403","prefecture":"栃木県","prefecture_kana":"トチギケン","city":"栃木市","city_kana":"トチギシ","town":"大平町蔵井","town_kana":"オオヒラマチクライ","prefecture_code":9},"4414":{"zip_code":"3294414","prefecture":"栃木県","prefecture_kana":"トチギケン","city":"栃木市","city_kana":"トチギシ","town":"大平町下高島","town_kana":"オオヒラマチシモタカシマ","prefecture_code":9},"4406":{"zip_code":"3294406","prefecture":"栃木県","prefecture_kana":"トチギケン","city":"栃木市","city_kana":"トチギシ","town":"大平町下皆川","town_kana":"オオヒラマチシモミナガワ","prefecture_code":9},"4404":{"zip_code":"3294404","prefecture":"栃木県","prefecture_kana":"トチギケン","city":"栃木市","city_kana":"トチギシ","town":"大平町富田","town_kana":"オオヒラマチトミダ","prefecture_code":9},"4402":{"zip_code":"3294402","prefecture":"栃木県","prefecture_kana":"トチギケン","city":"栃木市","city_kana":"トチギシ","town":"大平町土与","town_kana":"オオヒラマチドヨ","prefecture_code":9},"4421":{"zip_code":"3294421","prefecture":"栃木県","prefecture_kana":"トチギケン","city":"栃木市","city_kana":"トチギシ","town":"大平町西野田","town_kana":"オオヒラマチニシノダ","prefecture_code":9},"4423":{"zip_code":"3294423","prefecture":"栃木県","prefecture_kana":"トチギケン","city":"栃木市","city_kana":"トチギシ","town":"大平町西水代","town_kana":"オオヒラマチニシミズシロ","prefecture_code":9},"4405":{"zip_code":"3294405","prefecture":"栃木県","prefecture_kana":"トチギケン","city":"栃木市","city_kana":"トチギシ","town":"大平町西山田","town_kana":"オオヒラマチニシヤマダ","prefecture_code":9},"4424":{"zip_code":"3294424","prefecture":"栃木県","prefecture_kana":"トチギケン","city":"栃木市","city_kana":"トチギシ","town":"大平町伯仲","town_kana":"オオヒラマチハクチュウ","prefecture_code":9},"4415":{"zip_code":"3294415","prefecture":"栃木県","prefecture_kana":"トチギケン","city":"栃木市","city_kana":"トチギシ","town":"大平町真弓","town_kana":"オオヒラマチマユミ","prefecture_code":9},"4411":{"zip_code":"3294411","prefecture":"栃木県","prefecture_kana":"トチギケン","city":"栃木市","city_kana":"トチギシ","town":"大平町横堀","town_kana":"オオヒラマチヨコボリ","prefecture_code":9},"0316":{"zip_code":"3290316","prefecture":"栃木県","prefecture_kana":"トチギケン","city":"栃木市","city_kana":"トチギシ","town":"藤岡町石川","town_kana":"フジオカマチイシカワ","prefecture_code":9},"0317":{"zip_code":"3290317","prefecture":"栃木県","prefecture_kana":"トチギケン","city":"栃木市","city_kana":"トチギシ","town":"藤岡町帯刀","town_kana":"フジオカマチタテワキ","prefecture_code":9},"0311":{"zip_code":"3290311","prefecture":"栃木県","prefecture_kana":"トチギケン","city":"栃木市","city_kana":"トチギシ","town":"藤岡町富吉","town_kana":"フジオカマチトミヨシ","prefecture_code":9},"0319":{"zip_code":"3290319","prefecture":"栃木県","prefecture_kana":"トチギケン","city":"栃木市","city_kana":"トチギシ","town":"藤岡町中根","town_kana":"フジオカマチナカネ","prefecture_code":9},"0318":{"zip_code":"3290318","prefecture":"栃木県","prefecture_kana":"トチギケン","city":"栃木市","city_kana":"トチギシ","town":"藤岡町西前原","town_kana":"フジオカマチニシマエハラ","prefecture_code":9},"0314":{"zip_code":"3290314","prefecture":"栃木県","prefecture_kana":"トチギケン","city":"栃木市","city_kana":"トチギシ","town":"藤岡町新波","town_kana":"フジオカマチニッパ","prefecture_code":9},"0312":{"zip_code":"3290312","prefecture":"栃木県","prefecture_kana":"トチギケン","city":"栃木市","city_kana":"トチギシ","town":"藤岡町蛭沼","town_kana":"フジオカマチヒルヌマ","prefecture_code":9},"0315":{"zip_code":"3290315","prefecture":"栃木県","prefecture_kana":"トチギケン","city":"栃木市","city_kana":"トチギシ","town":"藤岡町部屋","town_kana":"フジオカマチヘヤ","prefecture_code":9},"0313":{"zip_code":"3290313","prefecture":"栃木県","prefecture_kana":"トチギケン","city":"栃木市","city_kana":"トチギシ","town":"藤岡町緑川","town_kana":"フジオカマチミドリカワ","prefecture_code":9},"0211":{"zip_code":"3290211","prefecture":"栃木県","prefecture_kana":"トチギケン","city":"小山市","city_kana":"オヤマシ","town":"暁","town_kana":"アカツキ","prefecture_code":9},"0215":{"zip_code":"3290215","prefecture":"栃木県","prefecture_kana":"トチギケン","city":"小山市","city_kana":"オヤマシ","town":"網戸","town_kana":"アジト","prefecture_code":9},"0201":{"zip_code":"3290201","prefecture":"栃木県","prefecture_kana":"トチギケン","city":"小山市","city_kana":"オヤマシ","town":"粟宮","town_kana":"アワノミヤ","prefecture_code":9},"0207":{"zip_code":"3290207","prefecture":"栃木県","prefecture_kana":"トチギケン","city":"小山市","city_kana":"オヤマシ","town":"美しが丘","town_kana":"ウツクシガオカ","prefecture_code":9},"0228":{"zip_code":"3290228","prefecture":"栃木県","prefecture_kana":"トチギケン","city":"小山市","city_kana":"オヤマシ","town":"押切","town_kana":"オシキリ","prefecture_code":9},"0214":{"zip_code":"3290214","prefecture":"栃木県","prefecture_kana":"トチギケン","city":"小山市","city_kana":"オヤマシ","town":"乙女","town_kana":"オトメ","prefecture_code":9},"0229":{"zip_code":"3290229","prefecture":"栃木県","prefecture_kana":"トチギケン","city":"小山市","city_kana":"オヤマシ","town":"鏡","town_kana":"カガミ","prefecture_code":9},"0222":{"zip_code":"3290222","prefecture":"栃木県","prefecture_kana":"トチギケン","city":"小山市","city_kana":"オヤマシ","town":"上生井","town_kana":"カミナマイ","prefecture_code":9},"0221":{"zip_code":"3290221","prefecture":"栃木県","prefecture_kana":"トチギケン","city":"小山市","city_kana":"オヤマシ","town":"生良","town_kana":"キラ","prefecture_code":9},"0226":{"zip_code":"3290226","prefecture":"栃木県","prefecture_kana":"トチギケン","city":"小山市","city_kana":"オヤマシ","town":"寒川","town_kana":"サムカワ","prefecture_code":9},"0223":{"zip_code":"3290223","prefecture":"栃木県","prefecture_kana":"トチギケン","city":"小山市","city_kana":"オヤマシ","town":"下生井","town_kana":"シモナマイ","prefecture_code":9},"0224":{"zip_code":"3290224","prefecture":"栃木県","prefecture_kana":"トチギケン","city":"小山市","city_kana":"オヤマシ","town":"白鳥","town_kana":"シラトリ","prefecture_code":9},"0202":{"zip_code":"3290202","prefecture":"栃木県","prefecture_kana":"トチギケン","city":"小山市","city_kana":"オヤマシ","town":"千駄塚","town_kana":"センダヅカ","prefecture_code":9},"0227":{"zip_code":"3290227","prefecture":"栃木県","prefecture_kana":"トチギケン","city":"小山市","city_kana":"オヤマシ","town":"中里","town_kana":"ナカザト","prefecture_code":9},"0216":{"zip_code":"3290216","prefecture":"栃木県","prefecture_kana":"トチギケン","city":"小山市","city_kana":"オヤマシ","town":"楢木","town_kana":"ナラノキ","prefecture_code":9},"0203":{"zip_code":"3290203","prefecture":"栃木県","prefecture_kana":"トチギケン","city":"小山市","city_kana":"オヤマシ","town":"西黒田","town_kana":"ニシクロダ","prefecture_code":9},"0225":{"zip_code":"3290225","prefecture":"栃木県","prefecture_kana":"トチギケン","city":"小山市","city_kana":"オヤマシ","town":"迫間田","town_kana":"ハサマダ","prefecture_code":9},"0204":{"zip_code":"3290204","prefecture":"栃木県","prefecture_kana":"トチギケン","city":"小山市","city_kana":"オヤマシ","town":"東黒田","town_kana":"ヒガシクロダ","prefecture_code":9},"0206":{"zip_code":"3290206","prefecture":"栃木県","prefecture_kana":"トチギケン","city":"小山市","city_kana":"オヤマシ","town":"東間々田","town_kana":"ヒガシママダ","prefecture_code":9},"0212":{"zip_code":"3290212","prefecture":"栃木県","prefecture_kana":"トチギケン","city":"小山市","city_kana":"オヤマシ","town":"平和","town_kana":"ヒラワ","prefecture_code":9},"0205":{"zip_code":"3290205","prefecture":"栃木県","prefecture_kana":"トチギケン","city":"小山市","city_kana":"オヤマシ","town":"間々田","town_kana":"ママダ","prefecture_code":9},"0213":{"zip_code":"3290213","prefecture":"栃木県","prefecture_kana":"トチギケン","city":"小山市","city_kana":"オヤマシ","town":"南飯田","town_kana":"ミナミイイダ","prefecture_code":9},"0217":{"zip_code":"3290217","prefecture":"栃木県","prefecture_kana":"トチギケン","city":"小山市","city_kana":"オヤマシ","town":"南乙女","town_kana":"ミナミオトメ","prefecture_code":9},"2100":{"zip_code":"3292100","prefecture":"栃木県","prefecture_kana":"トチギケン","city":"矢板市","city_kana":"ヤイタシ","town":"","town_kana":"","prefecture_code":9},"2136":{"zip_code":"3292136","prefecture":"栃木県","prefecture_kana":"トチギケン","city":"矢板市","city_kana":"ヤイタシ","town":"東町","town_kana":"アズマチョウ","prefecture_code":9},"2121":{"zip_code":"3292121","prefecture":"栃木県","prefecture_kana":"トチギケン","city":"矢板市","city_kana":"ヤイタシ","town":"荒井","town_kana":"アライ","prefecture_code":9},"1572":{"zip_code":"3291572","prefecture":"栃木県","prefecture_kana":"トチギケン","city":"矢板市","city_kana":"ヤイタシ","town":"安沢","town_kana":"アンザワ","prefecture_code":9},"1576":{"zip_code":"3291576","prefecture":"栃木県","prefecture_kana":"トチギケン","city":"矢板市","city_kana":"ヤイタシ","town":"石関","town_kana":"イシゼキ","prefecture_code":9},"2504":{"zip_code":"3292504","prefecture":"栃木県","prefecture_kana":"トチギケン","city":"矢板市","city_kana":"ヤイタシ","town":"泉","town_kana":"イズミ","prefecture_code":9},"2161":{"zip_code":"3292161","prefecture":"栃木県","prefecture_kana":"トチギケン","city":"矢板市","city_kana":"ヤイタシ","town":"扇町","town_kana":"オウギチョウ","prefecture_code":9},"1575":{"zip_code":"3291575","prefecture":"栃木県","prefecture_kana":"トチギケン","city":"矢板市","city_kana":"ヤイタシ","town":"大槻","town_kana":"オオツキ","prefecture_code":9},"1574":{"zip_code":"3291574","prefecture":"栃木県","prefecture_kana":"トチギケン","city":"矢板市","city_kana":"ヤイタシ","town":"乙畑","town_kana":"オツハタ","prefecture_code":9},"2163":{"zip_code":"3292163","prefecture":"栃木県","prefecture_kana":"トチギケン","city":"矢板市","city_kana":"ヤイタシ","town":"鹿島町","town_kana":"カシマチョウ","prefecture_code":9},"1571":{"zip_code":"3291571","prefecture":"栃木県","prefecture_kana":"トチギケン","city":"矢板市","city_kana":"ヤイタシ","town":"片岡","town_kana":"カタオカ","prefecture_code":9},"2155":{"zip_code":"3292155","prefecture":"栃木県","prefecture_kana":"トチギケン","city":"矢板市","city_kana":"ヤイタシ","town":"片俣","town_kana":"カタマタ","prefecture_code":9},"2501":{"zip_code":"3292501","prefecture":"栃木県","prefecture_kana":"トチギケン","city":"矢板市","city_kana":"ヤイタシ","town":"上伊佐野","town_kana":"カミイサノ","prefecture_code":9},"2513":{"zip_code":"3292513","prefecture":"栃木県","prefecture_kana":"トチギケン","city":"矢板市","city_kana":"ヤイタシ","town":"上太田","town_kana":"カミオオタ","prefecture_code":9},"2123":{"zip_code":"3292123","prefecture":"栃木県","prefecture_kana":"トチギケン","city":"矢板市","city_kana":"ヤイタシ","town":"上町","town_kana":"カミチョウ","prefecture_code":9},"2144":{"zip_code":"3292144","prefecture":"栃木県","prefecture_kana":"トチギケン","city":"矢板市","city_kana":"ヤイタシ","town":"川崎反町","town_kana":"カワサキソリマチ","prefecture_code":9},"2142":{"zip_code":"3292142","prefecture":"栃木県","prefecture_kana":"トチギケン","city":"矢板市","city_kana":"ヤイタシ","town":"木幡","town_kana":"キバタ","prefecture_code":9},"2154":{"zip_code":"3292154","prefecture":"栃木県","prefecture_kana":"トチギケン","city":"矢板市","city_kana":"ヤイタシ","town":"倉掛","town_kana":"クラカケ","prefecture_code":9},"2151":{"zip_code":"3292151","prefecture":"栃木県","prefecture_kana":"トチギケン","city":"矢板市","city_kana":"ヤイタシ","town":"幸岡","town_kana":"コウオカ","prefecture_code":9},"1573":{"zip_code":"3291573","prefecture":"栃木県","prefecture_kana":"トチギケン","city":"矢板市","city_kana":"ヤイタシ","town":"越畑","town_kana":"コエハタ","prefecture_code":9},"1579":{"zip_code":"3291579","prefecture":"栃木県","prefecture_kana":"トチギケン","city":"矢板市","city_kana":"ヤイタシ","town":"こぶし台","town_kana":"コブシダイ","prefecture_code":9},"2143":{"zip_code":"3292143","prefecture":"栃木県","prefecture_kana":"トチギケン","city":"矢板市","city_kana":"ヤイタシ","town":"境林","town_kana":"サカイバヤシ","prefecture_code":9},"2132":{"zip_code":"3292132","prefecture":"栃木県","prefecture_kana":"トチギケン","city":"矢板市","city_kana":"ヤイタシ","town":"沢","town_kana":"サワ","prefecture_code":9},"2156":{"zip_code":"3292156","prefecture":"栃木県","prefecture_kana":"トチギケン","city":"矢板市","city_kana":"ヤイタシ","town":"塩田","town_kana":"シオダ","prefecture_code":9},"2502":{"zip_code":"3292502","prefecture":"栃木県","prefecture_kana":"トチギケン","city":"矢板市","city_kana":"ヤイタシ","town":"下伊佐野","town_kana":"シモイサノ","prefecture_code":9},"2124":{"zip_code":"3292124","prefecture":"栃木県","prefecture_kana":"トチギケン","city":"矢板市","city_kana":"ヤイタシ","town":"下太田","town_kana":"シモオオタ","prefecture_code":9},"2162":{"zip_code":"3292162","prefecture":"栃木県","prefecture_kana":"トチギケン","city":"矢板市","city_kana":"ヤイタシ","town":"末広町","town_kana":"スエヒロチョウ","prefecture_code":9},"2153":{"zip_code":"3292153","prefecture":"栃木県","prefecture_kana":"トチギケン","city":"矢板市","city_kana":"ヤイタシ","town":"高塩","town_kana":"タカシオ","prefecture_code":9},"2505":{"zip_code":"3292505","prefecture":"栃木県","prefecture_kana":"トチギケン","city":"矢板市","city_kana":"ヤイタシ","town":"立足","town_kana":"タツアシ","prefecture_code":9},"2152":{"zip_code":"3292152","prefecture":"栃木県","prefecture_kana":"トチギケン","city":"矢板市","city_kana":"ヤイタシ","town":"館ノ川","town_kana":"タテノカワ","prefecture_code":9},"2503":{"zip_code":"3292503","prefecture":"栃木県","prefecture_kana":"トチギケン","city":"矢板市","city_kana":"ヤイタシ","town":"田野原","town_kana":"タノハラ","prefecture_code":9},"1577":{"zip_code":"3291577","prefecture":"栃木県","prefecture_kana":"トチギケン","city":"矢板市","city_kana":"ヤイタシ","town":"玉田","town_kana":"タマダ","prefecture_code":9},"2131":{"zip_code":"3292131","prefecture":"栃木県","prefecture_kana":"トチギケン","city":"矢板市","city_kana":"ヤイタシ","town":"土屋","town_kana":"ツチヤ","prefecture_code":9},"2145":{"zip_code":"3292145","prefecture":"栃木県","prefecture_kana":"トチギケン","city":"矢板市","city_kana":"ヤイタシ","town":"富田","town_kana":"トミタ","prefecture_code":9},"2133":{"zip_code":"3292133","prefecture":"栃木県","prefecture_kana":"トチギケン","city":"矢板市","city_kana":"ヤイタシ","town":"豊田","town_kana":"トヨダ","prefecture_code":9},"2135":{"zip_code":"3292135","prefecture":"栃木県","prefecture_kana":"トチギケン","city":"矢板市","city_kana":"ヤイタシ","town":"中","town_kana":"ナカ","prefecture_code":9},"2514":{"zip_code":"3292514","prefecture":"栃木県","prefecture_kana":"トチギケン","city":"矢板市","city_kana":"ヤイタシ","town":"長井","town_kana":"ナガイ","prefecture_code":9},"2134":{"zip_code":"3292134","prefecture":"栃木県","prefecture_kana":"トチギケン","city":"矢板市","city_kana":"ヤイタシ","town":"成田","town_kana":"ナリタ","prefecture_code":9},"2141":{"zip_code":"3292141","prefecture":"栃木県","prefecture_kana":"トチギケン","city":"矢板市","city_kana":"ヤイタシ","town":"早川町","town_kana":"ハヤカワチョウ","prefecture_code":9},"2122":{"zip_code":"3292122","prefecture":"栃木県","prefecture_kana":"トチギケン","city":"矢板市","city_kana":"ヤイタシ","town":"針生","town_kana":"ハリウ","prefecture_code":9},"2512":{"zip_code":"3292512","prefecture":"栃木県","prefecture_kana":"トチギケン","city":"矢板市","city_kana":"ヤイタシ","town":"東泉","town_kana":"ヒガシイズミ","prefecture_code":9},"2506":{"zip_code":"3292506","prefecture":"栃木県","prefecture_kana":"トチギケン","city":"矢板市","city_kana":"ヤイタシ","town":"平野","town_kana":"ヒラノ","prefecture_code":9},"2164":{"zip_code":"3292164","prefecture":"栃木県","prefecture_kana":"トチギケン","city":"矢板市","city_kana":"ヤイタシ","town":"本町","town_kana":"ホンチョウ","prefecture_code":9},"2165":{"zip_code":"3292165","prefecture":"栃木県","prefecture_kana":"トチギケン","city":"矢板市","city_kana":"ヤイタシ","town":"矢板","town_kana":"ヤイタ","prefecture_code":9},"2511":{"zip_code":"3292511","prefecture":"栃木県","prefecture_kana":"トチギケン","city":"矢板市","city_kana":"ヤイタシ","town":"山田","town_kana":"ヤマダ","prefecture_code":9},"1578":{"zip_code":"3291578","prefecture":"栃木県","prefecture_kana":"トチギケン","city":"矢板市","city_kana":"ヤイタシ","town":"山苗代","town_kana":"ヤマナワシロ","prefecture_code":9},"2721":{"zip_code":"3292721","prefecture":"栃木県","prefecture_kana":"トチギケン","city":"那須塩原市","city_kana":"ナスシオバラシ","town":"東町","town_kana":"アズマチョウ","prefecture_code":9},"2725":{"zip_code":"3292725","prefecture":"栃木県","prefecture_kana":"トチギケン","city":"那須塩原市","city_kana":"ナスシオバラシ","town":"あたご町","town_kana":"アタゴチョウ","prefecture_code":9},"2763":{"zip_code":"3292763","prefecture":"栃木県","prefecture_kana":"トチギケン","city":"那須塩原市","city_kana":"ナスシオバラシ","town":"井口","town_kana":"イグチ","prefecture_code":9},"2711":{"zip_code":"3292711","prefecture":"栃木県","prefecture_kana":"トチギケン","city":"那須塩原市","city_kana":"ナスシオバラシ","town":"石林","town_kana":"イシバヤシ","prefecture_code":9},"2732":{"zip_code":"3292732","prefecture":"栃木県","prefecture_kana":"トチギケン","city":"那須塩原市","city_kana":"ナスシオバラシ","town":"一区町","town_kana":"イックチョウ","prefecture_code":9},"2816":{"zip_code":"3292816","prefecture":"栃木県","prefecture_kana":"トチギケン","city":"那須塩原市","city_kana":"ナスシオバラシ","town":"宇都野","town_kana":"ウツノ","prefecture_code":9},"2726":{"zip_code":"3292726","prefecture":"栃木県","prefecture_kana":"トチギケン","city":"那須塩原市","city_kana":"ナスシオバラシ","town":"扇町","town_kana":"オウギチョウ","prefecture_code":9},"3153":{"zip_code":"3293153","prefecture":"栃木県","prefecture_kana":"トチギケン","city":"那須塩原市","city_kana":"ナスシオバラシ","town":"大原間","town_kana":"オオハラマ","prefecture_code":9},"3157":{"zip_code":"3293157","prefecture":"栃木県","prefecture_kana":"トチギケン","city":"那須塩原市","city_kana":"ナスシオバラシ","town":"大原間西","town_kana":"オオハラマニシ","prefecture_code":9},"2803":{"zip_code":"3292803","prefecture":"栃木県","prefecture_kana":"トチギケン","city":"那須塩原市","city_kana":"ナスシオバラシ","town":"遅野沢","town_kana":"オソノサワ","prefecture_code":9},"2804":{"zip_code":"3292804","prefecture":"栃木県","prefecture_kana":"トチギケン","city":"那須塩原市","city_kana":"ナスシオバラシ","town":"折戸","town_kana":"オリド","prefecture_code":9},"2812":{"zip_code":"3292812","prefecture":"栃木県","prefecture_kana":"トチギケン","city":"那須塩原市","city_kana":"ナスシオバラシ","town":"金沢","town_kana":"カネザワ","prefecture_code":9},"3121":{"zip_code":"3293121","prefecture":"栃木県","prefecture_kana":"トチギケン","city":"那須塩原市","city_kana":"ナスシオバラシ","town":"鹿野崎","town_kana":"カノサキ","prefecture_code":9},"2748":{"zip_code":"3292748","prefecture":"栃木県","prefecture_kana":"トチギケン","city":"那須塩原市","city_kana":"ナスシオバラシ","town":"上赤田","town_kana":"カミアカダ","prefecture_code":9},"3134":{"zip_code":"3293134","prefecture":"栃木県","prefecture_kana":"トチギケン","city":"那須塩原市","city_kana":"ナスシオバラシ","town":"上大塚新田","town_kana":"カミオオツカシンデン","prefecture_code":9},"2814":{"zip_code":"3292814","prefecture":"栃木県","prefecture_kana":"トチギケン","city":"那須塩原市","city_kana":"ナスシオバラシ","town":"上大貫","town_kana":"カミオオヌキ","prefecture_code":9},"3127":{"zip_code":"3293127","prefecture":"栃木県","prefecture_kana":"トチギケン","city":"那須塩原市","city_kana":"ナスシオバラシ","town":"上郷屋","town_kana":"カミゴウヤ","prefecture_code":9},"2923":{"zip_code":"3292923","prefecture":"栃木県","prefecture_kana":"トチギケン","city":"那須塩原市","city_kana":"ナスシオバラシ","town":"上塩原","town_kana":"カミシオバラ","prefecture_code":9},"3154":{"zip_code":"3293154","prefecture":"栃木県","prefecture_kana":"トチギケン","city":"那須塩原市","city_kana":"ナスシオバラシ","town":"上中野","town_kana":"カミナカノ","prefecture_code":9},"2805":{"zip_code":"3292805","prefecture":"栃木県","prefecture_kana":"トチギケン","city":"那須塩原市","city_kana":"ナスシオバラシ","town":"上横林","town_kana":"カミヨコバヤシ","prefecture_code":9},"3131":{"zip_code":"3293131","prefecture":"栃木県","prefecture_kana":"トチギケン","city":"那須塩原市","city_kana":"ナスシオバラシ","town":"唐杉","town_kana":"カラスギ","prefecture_code":9},"3145":{"zip_code":"3293145","prefecture":"栃木県","prefecture_kana":"トチギケン","city":"那須塩原市","city_kana":"ナスシオバラシ","town":"木曾畑中","town_kana":"キソハタナカ","prefecture_code":9},"2741":{"zip_code":"3292741","prefecture":"栃木県","prefecture_kana":"トチギケン","city":"那須塩原市","city_kana":"ナスシオバラシ","town":"北赤田","town_kana":"キタアカダ","prefecture_code":9},"2734":{"zip_code":"3292734","prefecture":"栃木県","prefecture_kana":"トチギケン","city":"那須塩原市","city_kana":"ナスシオバラシ","town":"北二つ室","town_kana":"キタフタツムロ","prefecture_code":9},"3132":{"zip_code":"3293132","prefecture":"栃木県","prefecture_kana":"トチギケン","city":"那須塩原市","city_kana":"ナスシオバラシ","town":"北弥六","town_kana":"キタヤロク","prefecture_code":9},"3151":{"zip_code":"3293151","prefecture":"栃木県","prefecture_kana":"トチギケン","city":"那須塩原市","city_kana":"ナスシオバラシ","town":"北和田","town_kana":"キタワダ","prefecture_code":9},"3133":{"zip_code":"3293133","prefecture":"栃木県","prefecture_kana":"トチギケン","city":"那須塩原市","city_kana":"ナスシオバラシ","town":"沓掛","town_kana":"クツカケ","prefecture_code":9},"2753":{"zip_code":"3292753","prefecture":"栃木県","prefecture_kana":"トチギケン","city":"那須塩原市","city_kana":"ナスシオバラシ","town":"五軒町","town_kana":"ゴケンチョウ","prefecture_code":9},"3155":{"zip_code":"3293155","prefecture":"栃木県","prefecture_kana":"トチギケン","city":"那須塩原市","city_kana":"ナスシオバラシ","town":"笹沼","town_kana":"ササヌマ","prefecture_code":9},"3142":{"zip_code":"3293142","prefecture":"栃木県","prefecture_kana":"トチギケン","city":"那須塩原市","city_kana":"ナスシオバラシ","town":"佐野","town_kana":"サノ","prefecture_code":9},"2745":{"zip_code":"3292745","prefecture":"栃木県","prefecture_kana":"トチギケン","city":"那須塩原市","city_kana":"ナスシオバラシ","town":"三区町","town_kana":"サンクチョウ","prefecture_code":9},"3143":{"zip_code":"3293143","prefecture":"栃木県","prefecture_kana":"トチギケン","city":"那須塩原市","city_kana":"ナスシオバラシ","town":"三本木","town_kana":"サンボンギ","prefecture_code":9},"3122":{"zip_code":"3293122","prefecture":"栃木県","prefecture_kana":"トチギケン","city":"那須塩原市","city_kana":"ナスシオバラシ","town":"塩野崎","town_kana":"シオノサキ","prefecture_code":9},"3123":{"zip_code":"3293123","prefecture":"栃木県","prefecture_kana":"トチギケン","city":"那須塩原市","city_kana":"ナスシオバラシ","town":"塩野崎新田","town_kana":"シオノサキシンデン","prefecture_code":9},"2921":{"zip_code":"3292921","prefecture":"栃木県","prefecture_kana":"トチギケン","city":"那須塩原市","city_kana":"ナスシオバラシ","town":"塩原","town_kana":"シオバラ","prefecture_code":9},"3152":{"zip_code":"3293152","prefecture":"栃木県","prefecture_kana":"トチギケン","city":"那須塩原市","city_kana":"ナスシオバラシ","town":"島方","town_kana":"シマカタ","prefecture_code":9},"2815":{"zip_code":"3292815","prefecture":"栃木県","prefecture_kana":"トチギケン","city":"那須塩原市","city_kana":"ナスシオバラシ","town":"下大貫","town_kana":"シモオオヌキ","prefecture_code":9},"2811":{"zip_code":"3292811","prefecture":"栃木県","prefecture_kana":"トチギケン","city":"那須塩原市","city_kana":"ナスシオバラシ","town":"下田野","town_kana":"シモタノ","prefecture_code":9},"2712":{"zip_code":"3292712","prefecture":"栃木県","prefecture_kana":"トチギケン","city":"那須塩原市","city_kana":"ナスシオバラシ","town":"下永田","town_kana":"シモナガタ","prefecture_code":9},"3146":{"zip_code":"3293146","prefecture":"栃木県","prefecture_kana":"トチギケン","city":"那須塩原市","city_kana":"ナスシオバラシ","town":"下中野","town_kana":"シモナカノ","prefecture_code":9},"2704":{"zip_code":"3292704","prefecture":"栃木県","prefecture_kana":"トチギケン","city":"那須塩原市","city_kana":"ナスシオバラシ","town":"新南","town_kana":"シンナン","prefecture_code":9},"2701":{"zip_code":"3292701","prefecture":"栃木県","prefecture_kana":"トチギケン","city":"那須塩原市","city_kana":"ナスシオバラシ","town":"関根","town_kana":"セキネ","prefecture_code":9},"2801":{"zip_code":"3292801","prefecture":"栃木県","prefecture_kana":"トチギケン","city":"那須塩原市","city_kana":"ナスシオバラシ","town":"関谷","town_kana":"セキヤ","prefecture_code":9},"2747":{"zip_code":"3292747","prefecture":"栃木県","prefecture_kana":"トチギケン","city":"那須塩原市","city_kana":"ナスシオバラシ","town":"千本松","town_kana":"センボンマツ","prefecture_code":9},"2813":{"zip_code":"3292813","prefecture":"栃木県","prefecture_kana":"トチギケン","city":"那須塩原市","city_kana":"ナスシオバラシ","town":"高阿津","town_kana":"タカアツ","prefecture_code":9},"2707":{"zip_code":"3292707","prefecture":"栃木県","prefecture_kana":"トチギケン","city":"那須塩原市","city_kana":"ナスシオバラシ","town":"高柳","town_kana":"タカヤナギ","prefecture_code":9},"2735":{"zip_code":"3292735","prefecture":"栃木県","prefecture_kana":"トチギケン","city":"那須塩原市","city_kana":"ナスシオバラシ","town":"太夫塚","town_kana":"タユウヅカ","prefecture_code":9},"2703":{"zip_code":"3292703","prefecture":"栃木県","prefecture_kana":"トチギケン","city":"那須塩原市","city_kana":"ナスシオバラシ","town":"槻沢","town_kana":"ツキヌキザワ","prefecture_code":9},"3126":{"zip_code":"3293126","prefecture":"栃木県","prefecture_kana":"トチギケン","city":"那須塩原市","city_kana":"ナスシオバラシ","town":"中内","town_kana":"ナカウチ","prefecture_code":9},"2924":{"zip_code":"3292924","prefecture":"栃木県","prefecture_kana":"トチギケン","city":"那須塩原市","city_kana":"ナスシオバラシ","town":"中塩原","town_kana":"ナカシオバラ","prefecture_code":9},"2727":{"zip_code":"3292727","prefecture":"栃木県","prefecture_kana":"トチギケン","city":"那須塩原市","city_kana":"ナスシオバラシ","town":"永田町","town_kana":"ナガタチョウ","prefecture_code":9},"2733":{"zip_code":"3292733","prefecture":"栃木県","prefecture_kana":"トチギケン","city":"那須塩原市","city_kana":"ナスシオバラシ","town":"二区町","town_kana":"ニクチョウ","prefecture_code":9},"2744":{"zip_code":"3292744","prefecture":"栃木県","prefecture_kana":"トチギケン","city":"那須塩原市","city_kana":"ナスシオバラシ","town":"西赤田","town_kana":"ニシアカダ","prefecture_code":9},"2722":{"zip_code":"3292722","prefecture":"栃木県","prefecture_kana":"トチギケン","city":"那須塩原市","city_kana":"ナスシオバラシ","town":"西朝日町","town_kana":"ニシアサヒチョウ","prefecture_code":9},"2764":{"zip_code":"3292764","prefecture":"栃木県","prefecture_kana":"トチギケン","city":"那須塩原市","city_kana":"ナスシオバラシ","town":"西遅沢","town_kana":"ニシオソザワ","prefecture_code":9},"2724":{"zip_code":"3292724","prefecture":"栃木県","prefecture_kana":"トチギケン","city":"那須塩原市","city_kana":"ナスシオバラシ","town":"西幸町","town_kana":"ニシサイワイチョウ","prefecture_code":9},"2728":{"zip_code":"3292728","prefecture":"栃木県","prefecture_kana":"トチギケン","city":"那須塩原市","city_kana":"ナスシオバラシ","town":"西栄町","town_kana":"ニシサカエチョウ","prefecture_code":9},"2762":{"zip_code":"3292762","prefecture":"栃木県","prefecture_kana":"トチギケン","city":"那須塩原市","city_kana":"ナスシオバラシ","town":"西富山","town_kana":"ニシトミヤマ","prefecture_code":9},"2755":{"zip_code":"3292755","prefecture":"栃木県","prefecture_kana":"トチギケン","city":"那須塩原市","city_kana":"ナスシオバラシ","town":"西原町","town_kana":"ニシハラチョウ","prefecture_code":9},"2756":{"zip_code":"3292756","prefecture":"栃木県","prefecture_kana":"トチギケン","city":"那須塩原市","city_kana":"ナスシオバラシ","town":"西三島","town_kana":"ニシミシマ","prefecture_code":9},"2754":{"zip_code":"3292754","prefecture":"栃木県","prefecture_kana":"トチギケン","city":"那須塩原市","city_kana":"ナスシオバラシ","town":"西大和","town_kana":"ニシヤマト","prefecture_code":9},"2807":{"zip_code":"3292807","prefecture":"栃木県","prefecture_kana":"トチギケン","city":"那須塩原市","city_kana":"ナスシオバラシ","town":"接骨木","town_kana":"ニワトコ","prefecture_code":9},"3144":{"zip_code":"3293144","prefecture":"栃木県","prefecture_kana":"トチギケン","city":"那須塩原市","city_kana":"ナスシオバラシ","town":"沼野田和","town_kana":"ヌマノタワ","prefecture_code":9},"3124":{"zip_code":"3293124","prefecture":"栃木県","prefecture_kana":"トチギケン","city":"那須塩原市","city_kana":"ナスシオバラシ","town":"波立","town_kana":"ハッタチ","prefecture_code":9},"2742":{"zip_code":"3292742","prefecture":"栃木県","prefecture_kana":"トチギケン","city":"那須塩原市","city_kana":"ナスシオバラシ","town":"東赤田","town_kana":"ヒガシアカダ","prefecture_code":9},"2761":{"zip_code":"3292761","prefecture":"栃木県","prefecture_kana":"トチギケン","city":"那須塩原市","city_kana":"ナスシオバラシ","town":"東遅沢","town_kana":"ヒガシオソザワ","prefecture_code":9},"3147":{"zip_code":"3293147","prefecture":"栃木県","prefecture_kana":"トチギケン","city":"那須塩原市","city_kana":"ナスシオバラシ","town":"東小屋","town_kana":"ヒガシコヤ","prefecture_code":9},"2702":{"zip_code":"3292702","prefecture":"栃木県","prefecture_kana":"トチギケン","city":"那須塩原市","city_kana":"ナスシオバラシ","town":"東関根","town_kana":"ヒガシセキネ","prefecture_code":9},"2751":{"zip_code":"3292751","prefecture":"栃木県","prefecture_kana":"トチギケン","city":"那須塩原市","city_kana":"ナスシオバラシ","town":"東三島","town_kana":"ヒガシミシマ","prefecture_code":9},"2802":{"zip_code":"3292802","prefecture":"栃木県","prefecture_kana":"トチギケン","city":"那須塩原市","city_kana":"ナスシオバラシ","town":"蟇沼","town_kana":"ヒキヌマ","prefecture_code":9},"2731":{"zip_code":"3292731","prefecture":"栃木県","prefecture_kana":"トチギケン","city":"那須塩原市","city_kana":"ナスシオバラシ","town":"二つ室","town_kana":"フタツムロ","prefecture_code":9},"3156":{"zip_code":"3293156","prefecture":"栃木県","prefecture_kana":"トチギケン","city":"那須塩原市","city_kana":"ナスシオバラシ","town":"方京","town_kana":"ホウキョウ","prefecture_code":9},"3135":{"zip_code":"3293135","prefecture":"栃木県","prefecture_kana":"トチギケン","city":"那須塩原市","city_kana":"ナスシオバラシ","town":"前弥六","town_kana":"マエヤロク","prefecture_code":9},"3136":{"zip_code":"3293136","prefecture":"栃木県","prefecture_kana":"トチギケン","city":"那須塩原市","city_kana":"ナスシオバラシ","town":"前弥六南町","town_kana":"マエヤロクミナミチョウ","prefecture_code":9},"2752":{"zip_code":"3292752","prefecture":"栃木県","prefecture_kana":"トチギケン","city":"那須塩原市","city_kana":"ナスシオバラシ","town":"三島","town_kana":"ミシマ","prefecture_code":9},"2713":{"zip_code":"3292713","prefecture":"栃木県","prefecture_kana":"トチギケン","city":"那須塩原市","city_kana":"ナスシオバラシ","town":"緑","town_kana":"ミドリ","prefecture_code":9},"2743":{"zip_code":"3292743","prefecture":"栃木県","prefecture_kana":"トチギケン","city":"那須塩原市","city_kana":"ナスシオバラシ","town":"南赤田","town_kana":"ミナミアカダ","prefecture_code":9},"2705":{"zip_code":"3292705","prefecture":"栃木県","prefecture_kana":"トチギケン","city":"那須塩原市","city_kana":"ナスシオバラシ","town":"南郷屋","town_kana":"ミナミゴウヤ","prefecture_code":9},"2723":{"zip_code":"3292723","prefecture":"栃木県","prefecture_kana":"トチギケン","city":"那須塩原市","city_kana":"ナスシオバラシ","town":"南町","town_kana":"ミナミチョウ","prefecture_code":9},"3125":{"zip_code":"3293125","prefecture":"栃木県","prefecture_kana":"トチギケン","city":"那須塩原市","city_kana":"ナスシオバラシ","town":"無栗屋","town_kana":"ムクリヤ","prefecture_code":9},"2706":{"zip_code":"3292706","prefecture":"栃木県","prefecture_kana":"トチギケン","city":"那須塩原市","city_kana":"ナスシオバラシ","town":"睦","town_kana":"ムツミ","prefecture_code":9},"3141":{"zip_code":"3293141","prefecture":"栃木県","prefecture_kana":"トチギケン","city":"那須塩原市","city_kana":"ナスシオバラシ","town":"山中新田","town_kana":"ヤマナカシンデン","prefecture_code":9},"2922":{"zip_code":"3292922","prefecture":"栃木県","prefecture_kana":"トチギケン","city":"那須塩原市","city_kana":"ナスシオバラシ","town":"湯本塩原","town_kana":"ユモトシオバラ","prefecture_code":9},"2806":{"zip_code":"3292806","prefecture":"栃木県","prefecture_kana":"トチギケン","city":"那須塩原市","city_kana":"ナスシオバラシ","town":"横林","town_kana":"ヨコバヤシ","prefecture_code":9},"2746":{"zip_code":"3292746","prefecture":"栃木県","prefecture_kana":"トチギケン","city":"那須塩原市","city_kana":"ナスシオバラシ","town":"四区町","town_kana":"ヨンクチョウ","prefecture_code":9},"1300":{"zip_code":"3291300","prefecture":"栃木県","prefecture_kana":"トチギケン","city":"さくら市","city_kana":"サクラシ","town":"","town_kana":"","prefecture_code":9},"1311":{"zip_code":"3291311","prefecture":"栃木県","prefecture_kana":"トチギケン","city":"さくら市","city_kana":"サクラシ","town":"氏家","town_kana":"ウジイエ","prefecture_code":9},"1315":{"zip_code":"3291315","prefecture":"栃木県","prefecture_kana":"トチギケン","city":"さくら市","city_kana":"サクラシ","town":"氏家新田","town_kana":"ウジイエシンデン","prefecture_code":9},"1323":{"zip_code":"3291323","prefecture":"栃木県","prefecture_kana":"トチギケン","city":"さくら市","city_kana":"サクラシ","town":"卯の里","town_kana":"ウノサト","prefecture_code":9},"1306":{"zip_code":"3291306","prefecture":"栃木県","prefecture_kana":"トチギケン","city":"さくら市","city_kana":"サクラシ","town":"上野","town_kana":"ウワノ","prefecture_code":9},"1415":{"zip_code":"3291415","prefecture":"栃木県","prefecture_kana":"トチギケン","city":"さくら市","city_kana":"サクラシ","town":"小入","town_kana":"オイレ","prefecture_code":9},"1325":{"zip_code":"3291325","prefecture":"栃木県","prefecture_kana":"トチギケン","city":"さくら市","city_kana":"サクラシ","town":"大中","town_kana":"オオナカ","prefecture_code":9},"1334":{"zip_code":"3291334","prefecture":"栃木県","prefecture_kana":"トチギケン","city":"さくら市","city_kana":"サクラシ","town":"押上","town_kana":"オシアゲ","prefecture_code":9},"1314":{"zip_code":"3291314","prefecture":"栃木県","prefecture_kana":"トチギケン","city":"さくら市","city_kana":"サクラシ","town":"柿木沢","town_kana":"カキノキザワ","prefecture_code":9},"1313":{"zip_code":"3291313","prefecture":"栃木県","prefecture_kana":"トチギケン","city":"さくら市","city_kana":"サクラシ","town":"柿木沢新田","town_kana":"カキノキザワシンデン","prefecture_code":9},"1304":{"zip_code":"3291304","prefecture":"栃木県","prefecture_kana":"トチギケン","city":"さくら市","city_kana":"サクラシ","town":"鍛冶ケ沢","town_kana":"カジガサワ","prefecture_code":9},"1413":{"zip_code":"3291413","prefecture":"栃木県","prefecture_kana":"トチギケン","city":"さくら市","city_kana":"サクラシ","town":"葛城","town_kana":"カツラギ","prefecture_code":9},"1405":{"zip_code":"3291405","prefecture":"栃木県","prefecture_kana":"トチギケン","city":"さくら市","city_kana":"サクラシ","town":"金枝","town_kana":"カナエダ","prefecture_code":9},"1404":{"zip_code":"3291404","prefecture":"栃木県","prefecture_kana":"トチギケン","city":"さくら市","city_kana":"サクラシ","town":"鹿子畑","town_kana":"カノコハタ","prefecture_code":9},"1332":{"zip_code":"3291332","prefecture":"栃木県","prefecture_kana":"トチギケン","city":"さくら市","city_kana":"サクラシ","town":"蒲須坂","town_kana":"カマスサカ","prefecture_code":9},"1316":{"zip_code":"3291316","prefecture":"栃木県","prefecture_kana":"トチギケン","city":"さくら市","city_kana":"サクラシ","town":"上阿久津","town_kana":"カミアクツ","prefecture_code":9},"1401":{"zip_code":"3291401","prefecture":"栃木県","prefecture_kana":"トチギケン","city":"さくら市","city_kana":"サクラシ","town":"上河戸","town_kana":"カミコウド","prefecture_code":9},"1322":{"zip_code":"3291322","prefecture":"栃木県","prefecture_kana":"トチギケン","city":"さくら市","city_kana":"サクラシ","town":"北草川","town_kana":"キタクサガワ","prefecture_code":9},"1412":{"zip_code":"3291412","prefecture":"栃木県","prefecture_kana":"トチギケン","city":"さくら市","city_kana":"サクラシ","town":"喜連川","town_kana":"キツレガワ","prefecture_code":9},"1324":{"zip_code":"3291324","prefecture":"栃木県","prefecture_kana":"トチギケン","city":"さくら市","city_kana":"サクラシ","town":"草川","town_kana":"クサガワ","prefecture_code":9},"1416":{"zip_code":"3291416","prefecture":"栃木県","prefecture_kana":"トチギケン","city":"さくら市","city_kana":"サクラシ","town":"桜ケ丘","town_kana":"サクラガオカ","prefecture_code":9},"1312":{"zip_code":"3291312","prefecture":"栃木県","prefecture_kana":"トチギケン","city":"さくら市","city_kana":"サクラシ","town":"櫻野","town_kana":"サクラノ","prefecture_code":9},"1402":{"zip_code":"3291402","prefecture":"栃木県","prefecture_kana":"トチギケン","city":"さくら市","city_kana":"サクラシ","town":"下河戸","town_kana":"シモコウド","prefecture_code":9},"1414":{"zip_code":"3291414","prefecture":"栃木県","prefecture_kana":"トチギケン","city":"さくら市","city_kana":"サクラシ","town":"早乙女","town_kana":"ソウトメ","prefecture_code":9},"1327":{"zip_code":"3291327","prefecture":"栃木県","prefecture_kana":"トチギケン","city":"さくら市","city_kana":"サクラシ","town":"富野岡","town_kana":"トミノオカ","prefecture_code":9},"1333":{"zip_code":"3291333","prefecture":"栃木県","prefecture_kana":"トチギケン","city":"さくら市","city_kana":"サクラシ","town":"長久保","town_kana":"ナガクボ","prefecture_code":9},"1301":{"zip_code":"3291301","prefecture":"栃木県","prefecture_kana":"トチギケン","city":"さくら市","city_kana":"サクラシ","town":"箱森新田","town_kana":"ハコノモリシンデン","prefecture_code":9},"1305":{"zip_code":"3291305","prefecture":"栃木県","prefecture_kana":"トチギケン","city":"さくら市","city_kana":"サクラシ","town":"狹間田","town_kana":"ハサマダ","prefecture_code":9},"1321":{"zip_code":"3291321","prefecture":"栃木県","prefecture_kana":"トチギケン","city":"さくら市","city_kana":"サクラシ","town":"馬場","town_kana":"ババ","prefecture_code":9},"1417":{"zip_code":"3291417","prefecture":"栃木県","prefecture_kana":"トチギケン","city":"さくら市","city_kana":"サクラシ","town":"フィオーレ喜連川","town_kana":"フィオーレキツレガワ","prefecture_code":9},"1403":{"zip_code":"3291403","prefecture":"栃木県","prefecture_kana":"トチギケン","city":"さくら市","city_kana":"サクラシ","town":"穂積","town_kana":"ホヅミ","prefecture_code":9},"1331":{"zip_code":"3291331","prefecture":"栃木県","prefecture_kana":"トチギケン","city":"さくら市","city_kana":"サクラシ","town":"松島","town_kana":"マツシマ","prefecture_code":9},"1303":{"zip_code":"3291303","prefecture":"栃木県","prefecture_kana":"トチギケン","city":"さくら市","city_kana":"サクラシ","town":"松山","town_kana":"マツヤマ","prefecture_code":9},"1302":{"zip_code":"3291302","prefecture":"栃木県","prefecture_kana":"トチギケン","city":"さくら市","city_kana":"サクラシ","town":"松山新田","town_kana":"マツヤマシンデン","prefecture_code":9},"1406":{"zip_code":"3291406","prefecture":"栃木県","prefecture_kana":"トチギケン","city":"さくら市","city_kana":"サクラシ","town":"南和田","town_kana":"ミナミワダ","prefecture_code":9},"1326":{"zip_code":"3291326","prefecture":"栃木県","prefecture_kana":"トチギケン","city":"さくら市","city_kana":"サクラシ","town":"向河原","town_kana":"ムコウガワラ","prefecture_code":9},"1411":{"zip_code":"3291411","prefecture":"栃木県","prefecture_kana":"トチギケン","city":"さくら市","city_kana":"サクラシ","town":"鷲宿","town_kana":"ワシジュク","prefecture_code":9},"0400":{"zip_code":"3290400","prefecture":"栃木県","prefecture_kana":"トチギケン","city":"下野市","city_kana":"シモツケシ","town":"","town_kana":"","prefecture_code":9},"0511":{"zip_code":"3290511","prefecture":"栃木県","prefecture_kana":"トチギケン","city":"下野市","city_kana":"シモツケシ","town":"石橋","town_kana":"イシバシ","prefecture_code":9},"0403":{"zip_code":"3290403","prefecture":"栃木県","prefecture_kana":"トチギケン","city":"下野市","city_kana":"シモツケシ","town":"医大前","town_kana":"イダイマエ","prefecture_code":9},"0413":{"zip_code":"3290413","prefecture":"栃木県","prefecture_kana":"トチギケン","city":"下野市","city_kana":"シモツケシ","town":"駅東","town_kana":"エキヒガシ","prefecture_code":9},"0519":{"zip_code":"3290519","prefecture":"栃木県","prefecture_kana":"トチギケン","city":"下野市","city_kana":"シモツケシ","town":"大松山","town_kana":"オオマツヤマ","prefecture_code":9},"0501":{"zip_code":"3290501","prefecture":"栃木県","prefecture_kana":"トチギケン","city":"下野市","city_kana":"シモツケシ","town":"上古山","town_kana":"カミコヤマ","prefecture_code":9},"0504":{"zip_code":"3290504","prefecture":"栃木県","prefecture_kana":"トチギケン","city":"下野市","city_kana":"シモツケシ","town":"上台","town_kana":"カミダイ","prefecture_code":9},"0517":{"zip_code":"3290517","prefecture":"栃木県","prefecture_kana":"トチギケン","city":"下野市","city_kana":"シモツケシ","town":"上大領","town_kana":"カミダイリョウ","prefecture_code":9},"0411":{"zip_code":"3290411","prefecture":"栃木県","prefecture_kana":"トチギケン","city":"下野市","city_kana":"シモツケシ","town":"烏ケ森","town_kana":"カラスガモリ","prefecture_code":9},"0415":{"zip_code":"3290415","prefecture":"栃木県","prefecture_kana":"トチギケン","city":"下野市","city_kana":"シモツケシ","town":"川中子","town_kana":"カワナゴ","prefecture_code":9},"0434":{"zip_code":"3290434","prefecture":"栃木県","prefecture_kana":"トチギケン","city":"下野市","city_kana":"シモツケシ","town":"祇園","town_kana":"ギオン","prefecture_code":9},"0414":{"zip_code":"3290414","prefecture":"栃木県","prefecture_kana":"トチギケン","city":"下野市","city_kana":"シモツケシ","town":"小金井","town_kana":"コガネイ","prefecture_code":9},"0417":{"zip_code":"3290417","prefecture":"栃木県","prefecture_kana":"トチギケン","city":"下野市","city_kana":"シモツケシ","town":"国分寺","town_kana":"コクブンジ","prefecture_code":9},"0402":{"zip_code":"3290402","prefecture":"栃木県","prefecture_kana":"トチギケン","city":"下野市","city_kana":"シモツケシ","town":"笹原","town_kana":"ササハラ","prefecture_code":9},"0412":{"zip_code":"3290412","prefecture":"栃木県","prefecture_kana":"トチギケン","city":"下野市","city_kana":"シモツケシ","town":"柴","town_kana":"シバ","prefecture_code":9},"0512":{"zip_code":"3290512","prefecture":"栃木県","prefecture_kana":"トチギケン","city":"下野市","city_kana":"シモツケシ","town":"下石橋","town_kana":"シモイシバシ","prefecture_code":9},"0502":{"zip_code":"3290502","prefecture":"栃木県","prefecture_kana":"トチギケン","city":"下野市","city_kana":"シモツケシ","town":"下古山","town_kana":"シモコヤマ","prefecture_code":9},"0513":{"zip_code":"3290513","prefecture":"栃木県","prefecture_kana":"トチギケン","city":"下野市","city_kana":"シモツケシ","town":"下大領","town_kana":"シモダイリョウ","prefecture_code":9},"0503":{"zip_code":"3290503","prefecture":"栃木県","prefecture_kana":"トチギケン","city":"下野市","city_kana":"シモツケシ","town":"下長田","town_kana":"シモナガタ","prefecture_code":9},"0424":{"zip_code":"3290424","prefecture":"栃木県","prefecture_kana":"トチギケン","city":"下野市","city_kana":"シモツケシ","town":"下文狹","town_kana":"シモフバサミ","prefecture_code":9},"0516":{"zip_code":"3290516","prefecture":"栃木県","prefecture_kana":"トチギケン","city":"下野市","city_kana":"シモツケシ","town":"大光寺","town_kana":"ダイコウジ","prefecture_code":9},"0425":{"zip_code":"3290425","prefecture":"栃木県","prefecture_kana":"トチギケン","city":"下野市","city_kana":"シモツケシ","town":"田中","town_kana":"タナカ","prefecture_code":9},"0515":{"zip_code":"3290515","prefecture":"栃木県","prefecture_kana":"トチギケン","city":"下野市","city_kana":"シモツケシ","town":"中大領","town_kana":"ナカダイリョウ","prefecture_code":9},"0421":{"zip_code":"3290421","prefecture":"栃木県","prefecture_kana":"トチギケン","city":"下野市","city_kana":"シモツケシ","town":"成田","town_kana":"ナリタ","prefecture_code":9},"0432":{"zip_code":"3290432","prefecture":"栃木県","prefecture_kana":"トチギケン","city":"下野市","city_kana":"シモツケシ","town":"仁良川","town_kana":"ニラガワ","prefecture_code":9},"0506":{"zip_code":"3290506","prefecture":"栃木県","prefecture_kana":"トチギケン","city":"下野市","city_kana":"シモツケシ","town":"橋本","town_kana":"ハシモト","prefecture_code":9},"0518":{"zip_code":"3290518","prefecture":"栃木県","prefecture_kana":"トチギケン","city":"下野市","city_kana":"シモツケシ","town":"花の木","town_kana":"ハナノキ","prefecture_code":9},"0514":{"zip_code":"3290514","prefecture":"栃木県","prefecture_kana":"トチギケン","city":"下野市","city_kana":"シモツケシ","town":"東前原","town_kana":"ヒガシマエハラ","prefecture_code":9},"0507":{"zip_code":"3290507","prefecture":"栃木県","prefecture_kana":"トチギケン","city":"下野市","city_kana":"シモツケシ","town":"文教","town_kana":"ブンキョウ","prefecture_code":9},"0505":{"zip_code":"3290505","prefecture":"栃木県","prefecture_kana":"トチギケン","city":"下野市","city_kana":"シモツケシ","town":"細谷","town_kana":"ホソヤ","prefecture_code":9},"0422":{"zip_code":"3290422","prefecture":"栃木県","prefecture_kana":"トチギケン","city":"下野市","city_kana":"シモツケシ","town":"町田","town_kana":"マチダ","prefecture_code":9},"0433":{"zip_code":"3290433","prefecture":"栃木県","prefecture_kana":"トチギケン","city":"下野市","city_kana":"シモツケシ","town":"緑","town_kana":"ミドリ","prefecture_code":9},"0401":{"zip_code":"3290401","prefecture":"栃木県","prefecture_kana":"トチギケン","city":"下野市","city_kana":"シモツケシ","town":"箕輪","town_kana":"ミノワ","prefecture_code":9},"0418":{"zip_code":"3290418","prefecture":"栃木県","prefecture_kana":"トチギケン","city":"下野市","city_kana":"シモツケシ","town":"紫","town_kana":"ムラサキ","prefecture_code":9},"0431":{"zip_code":"3290431","prefecture":"栃木県","prefecture_kana":"トチギケン","city":"下野市","city_kana":"シモツケシ","town":"薬師寺","town_kana":"ヤクシジ","prefecture_code":9},"0423":{"zip_code":"3290423","prefecture":"栃木県","prefecture_kana":"トチギケン","city":"下野市","city_kana":"シモツケシ","town":"谷地賀","town_kana":"ヤジツカ","prefecture_code":9},"0600":{"zip_code":"3290600","prefecture":"栃木県","prefecture_kana":"トチギケン","city":"河内郡上三川町","city_kana":"カワチグンカミノカワマチ","town":"","town_kana":"","prefecture_code":9},"0521":{"zip_code":"3290521","prefecture":"栃木県","prefecture_kana":"トチギケン","city":"河内郡上三川町","city_kana":"カワチグンカミノカワマチ","town":"石田","town_kana":"イシタ","prefecture_code":9},"0606":{"zip_code":"3290606","prefecture":"栃木県","prefecture_kana":"トチギケン","city":"河内郡上三川町","city_kana":"カワチグンカミノカワマチ","town":"磯岡","town_kana":"イソオカ","prefecture_code":9},"0525":{"zip_code":"3290525","prefecture":"栃木県","prefecture_kana":"トチギケン","city":"河内郡上三川町","city_kana":"カワチグンカミノカワマチ","town":"大山","town_kana":"オオヤマ","prefecture_code":9},"0617":{"zip_code":"3290617","prefecture":"栃木県","prefecture_kana":"トチギケン","city":"河内郡上三川町","city_kana":"カワチグンカミノカワマチ","town":"上蒲生","town_kana":"カミカモウ","prefecture_code":9},"0527":{"zip_code":"3290527","prefecture":"栃木県","prefecture_kana":"トチギケン","city":"河内郡上三川町","city_kana":"カワチグンカミノカワマチ","town":"上神主","town_kana":"カミコウヌシ","prefecture_code":9},"0604":{"zip_code":"3290604","prefecture":"栃木県","prefecture_kana":"トチギケン","city":"河内郡上三川町","city_kana":"カワチグンカミノカワマチ","town":"上郷","town_kana":"カミゴウ","prefecture_code":9},"0611":{"zip_code":"3290611","prefecture":"栃木県","prefecture_kana":"トチギケン","city":"河内郡上三川町","city_kana":"カワチグンカミノカワマチ","town":"上三川","town_kana":"カミノカワ","prefecture_code":9},"0601":{"zip_code":"3290601","prefecture":"栃木県","prefecture_kana":"トチギケン","city":"河内郡上三川町","city_kana":"カワチグンカミノカワマチ","town":"上文挾","town_kana":"カミフバサミ","prefecture_code":9},"0522":{"zip_code":"3290522","prefecture":"栃木県","prefecture_kana":"トチギケン","city":"河内郡上三川町","city_kana":"カワチグンカミノカワマチ","town":"川中子","town_kana":"カワナゴ","prefecture_code":9},"0614":{"zip_code":"3290614","prefecture":"栃木県","prefecture_kana":"トチギケン","city":"河内郡上三川町","city_kana":"カワチグンカミノカワマチ","town":"五分一","town_kana":"ゴブイチ","prefecture_code":9},"0613":{"zip_code":"3290613","prefecture":"栃木県","prefecture_kana":"トチギケン","city":"河内郡上三川町","city_kana":"カワチグンカミノカワマチ","town":"坂上","town_kana":"サカウエ","prefecture_code":9},"0526":{"zip_code":"3290526","prefecture":"栃木県","prefecture_kana":"トチギケン","city":"河内郡上三川町","city_kana":"カワチグンカミノカワマチ","town":"鞘堂","town_kana":"サヤドウ","prefecture_code":9},"0612":{"zip_code":"3290612","prefecture":"栃木県","prefecture_kana":"トチギケン","city":"河内郡上三川町","city_kana":"カワチグンカミノカワマチ","town":"三本木","town_kana":"サンボンギ","prefecture_code":9},"0616":{"zip_code":"3290616","prefecture":"栃木県","prefecture_kana":"トチギケン","city":"河内郡上三川町","city_kana":"カワチグンカミノカワマチ","town":"下蒲生","town_kana":"シモカモウ","prefecture_code":9},"0529":{"zip_code":"3290529","prefecture":"栃木県","prefecture_kana":"トチギケン","city":"河内郡上三川町","city_kana":"カワチグンカミノカワマチ","town":"下神主","town_kana":"シモコウヌシ","prefecture_code":9},"0618":{"zip_code":"3290618","prefecture":"栃木県","prefecture_kana":"トチギケン","city":"河内郡上三川町","city_kana":"カワチグンカミノカワマチ","town":"しらさぎ","town_kana":"シラサギ","prefecture_code":9},"0524":{"zip_code":"3290524","prefecture":"栃木県","prefecture_kana":"トチギケン","city":"河内郡上三川町","city_kana":"カワチグンカミノカワマチ","town":"多功","town_kana":"タコウ","prefecture_code":9},"0530":{"zip_code":"3290530","prefecture":"栃木県","prefecture_kana":"トチギケン","city":"河内郡上三川町","city_kana":"カワチグンカミノカワマチ","town":"天神町","town_kana":"テンジンチョウ","prefecture_code":9},"0608":{"zip_code":"3290608","prefecture":"栃木県","prefecture_kana":"トチギケン","city":"河内郡上三川町","city_kana":"カワチグンカミノカワマチ","town":"西木代","town_kana":"ニシキノシロ","prefecture_code":9},"0605":{"zip_code":"3290605","prefecture":"栃木県","prefecture_kana":"トチギケン","city":"河内郡上三川町","city_kana":"カワチグンカミノカワマチ","town":"西蓼沼","town_kana":"ニシタテヌマ","prefecture_code":9},"0607":{"zip_code":"3290607","prefecture":"栃木県","prefecture_kana":"トチギケン","city":"河内郡上三川町","city_kana":"カワチグンカミノカワマチ","town":"西汗","town_kana":"ニシフザカシ","prefecture_code":9},"0603":{"zip_code":"3290603","prefecture":"栃木県","prefecture_kana":"トチギケン","city":"河内郡上三川町","city_kana":"カワチグンカミノカワマチ","town":"東蓼沼","town_kana":"ヒガシタテヌマ","prefecture_code":9},"0602":{"zip_code":"3290602","prefecture":"栃木県","prefecture_kana":"トチギケン","city":"河内郡上三川町","city_kana":"カワチグンカミノカワマチ","town":"東汗","town_kana":"ヒガシフザカシ","prefecture_code":9},"0615":{"zip_code":"3290615","prefecture":"栃木県","prefecture_kana":"トチギケン","city":"河内郡上三川町","city_kana":"カワチグンカミノカワマチ","town":"三村","town_kana":"ミムラ","prefecture_code":9},"0523":{"zip_code":"3290523","prefecture":"栃木県","prefecture_kana":"トチギケン","city":"河内郡上三川町","city_kana":"カワチグンカミノカワマチ","town":"梁","town_kana":"ヤナ","prefecture_code":9},"0528":{"zip_code":"3290528","prefecture":"栃木県","prefecture_kana":"トチギケン","city":"河内郡上三川町","city_kana":"カワチグンカミノカワマチ","town":"ゆうきが丘","town_kana":"ユウキガオカ","prefecture_code":9},"0100":{"zip_code":"3290100","prefecture":"栃木県","prefecture_kana":"トチギケン","city":"下都賀郡野木町","city_kana":"シモツガグンノギマチ","town":"","town_kana":"","prefecture_code":9},"0102":{"zip_code":"3290102","prefecture":"栃木県","prefecture_kana":"トチギケン","city":"下都賀郡野木町","city_kana":"シモツガグンノギマチ","town":"潤島","town_kana":"ウルウジマ","prefecture_code":9},"0105":{"zip_code":"3290105","prefecture":"栃木県","prefecture_kana":"トチギケン","city":"下都賀郡野木町","city_kana":"シモツガグンノギマチ","town":"川田","town_kana":"カワダ","prefecture_code":9},"0104":{"zip_code":"3290104","prefecture":"栃木県","prefecture_kana":"トチギケン","city":"下都賀郡野木町","city_kana":"シモツガグンノギマチ","town":"佐川野","town_kana":"サガワノ","prefecture_code":9},"0101":{"zip_code":"3290101","prefecture":"栃木県","prefecture_kana":"トチギケン","city":"下都賀郡野木町","city_kana":"シモツガグンノギマチ","town":"友沼","town_kana":"トモヌマ","prefecture_code":9},"0113":{"zip_code":"3290113","prefecture":"栃木県","prefecture_kana":"トチギケン","city":"下都賀郡野木町","city_kana":"シモツガグンノギマチ","town":"中谷","town_kana":"ナカヤ","prefecture_code":9},"0114":{"zip_code":"3290114","prefecture":"栃木県","prefecture_kana":"トチギケン","city":"下都賀郡野木町","city_kana":"シモツガグンノギマチ","town":"野木","town_kana":"ノギ","prefecture_code":9},"0115":{"zip_code":"3290115","prefecture":"栃木県","prefecture_kana":"トチギケン","city":"下都賀郡野木町","city_kana":"シモツガグンノギマチ","town":"野渡","town_kana":"ノワタ","prefecture_code":9},"0111":{"zip_code":"3290111","prefecture":"栃木県","prefecture_kana":"トチギケン","city":"下都賀郡野木町","city_kana":"シモツガグンノギマチ","town":"丸林","town_kana":"マルバヤシ","prefecture_code":9},"0112":{"zip_code":"3290112","prefecture":"栃木県","prefecture_kana":"トチギケン","city":"下都賀郡野木町","city_kana":"シモツガグンノギマチ","town":"南赤塚","town_kana":"ミナミアカツカ","prefecture_code":9},"0103":{"zip_code":"3290103","prefecture":"栃木県","prefecture_kana":"トチギケン","city":"下都賀郡野木町","city_kana":"シモツガグンノギマチ","town":"若林","town_kana":"ワカバヤシ","prefecture_code":9},"2200":{"zip_code":"3292200","prefecture":"栃木県","prefecture_kana":"トチギケン","city":"塩谷郡塩谷町","city_kana":"シオヤグンシオヤマチ","town":"","town_kana":"","prefecture_code":9},"2225":{"zip_code":"3292225","prefecture":"栃木県","prefecture_kana":"トチギケン","city":"塩谷郡塩谷町","city_kana":"シオヤグンシオヤマチ","town":"飯岡","town_kana":"イイオカ","prefecture_code":9},"2337":{"zip_code":"3292337","prefecture":"栃木県","prefecture_kana":"トチギケン","city":"塩谷郡塩谷町","city_kana":"シオヤグンシオヤマチ","town":"泉","town_kana":"イズミ","prefecture_code":9},"2339":{"zip_code":"3292339","prefecture":"栃木県","prefecture_kana":"トチギケン","city":"塩谷郡塩谷町","city_kana":"シオヤグンシオヤマチ","town":"上沢","town_kana":"ウワサワ","prefecture_code":9},"2335":{"zip_code":"3292335","prefecture":"栃木県","prefecture_kana":"トチギケン","city":"塩谷郡塩谷町","city_kana":"シオヤグンシオヤマチ","town":"上平","town_kana":"ウワタイラ","prefecture_code":9},"2334":{"zip_code":"3292334","prefecture":"栃木県","prefecture_kana":"トチギケン","city":"塩谷郡塩谷町","city_kana":"シオヤグンシオヤマチ","town":"大久保","town_kana":"オオクボ","prefecture_code":9},"2332":{"zip_code":"3292332","prefecture":"栃木県","prefecture_kana":"トチギケン","city":"塩谷郡塩谷町","city_kana":"シオヤグンシオヤマチ","town":"大宮","town_kana":"オオミヤ","prefecture_code":9},"2336":{"zip_code":"3292336","prefecture":"栃木県","prefecture_kana":"トチギケン","city":"塩谷郡塩谷町","city_kana":"シオヤグンシオヤマチ","town":"風見","town_kana":"カザミ","prefecture_code":9},"2338":{"zip_code":"3292338","prefecture":"栃木県","prefecture_kana":"トチギケン","city":"塩谷郡塩谷町","city_kana":"シオヤグンシオヤマチ","town":"風見山田","town_kana":"カザミヤマダ","prefecture_code":9},"2224":{"zip_code":"3292224","prefecture":"栃木県","prefecture_kana":"トチギケン","city":"塩谷郡塩谷町","city_kana":"シオヤグンシオヤマチ","town":"金枝","town_kana":"カナエダ","prefecture_code":9},"2216":{"zip_code":"3292216","prefecture":"栃木県","prefecture_kana":"トチギケン","city":"塩谷郡塩谷町","city_kana":"シオヤグンシオヤマチ","town":"上寺島","town_kana":"カミテラシマ","prefecture_code":9},"2212":{"zip_code":"3292212","prefecture":"栃木県","prefecture_kana":"トチギケン","city":"塩谷郡塩谷町","city_kana":"シオヤグンシオヤマチ","town":"喜佐見","town_kana":"キザミ","prefecture_code":9},"2213":{"zip_code":"3292213","prefecture":"栃木県","prefecture_kana":"トチギケン","city":"塩谷郡塩谷町","city_kana":"シオヤグンシオヤマチ","town":"熊ノ木","town_kana":"クマノキ","prefecture_code":9},"2442":{"zip_code":"3292442","prefecture":"栃木県","prefecture_kana":"トチギケン","city":"塩谷郡塩谷町","city_kana":"シオヤグンシオヤマチ","town":"佐貫","town_kana":"サヌキ","prefecture_code":9},"2215":{"zip_code":"3292215","prefecture":"栃木県","prefecture_kana":"トチギケン","city":"塩谷郡塩谷町","city_kana":"シオヤグンシオヤマチ","town":"下寺島","town_kana":"シモテラシマ","prefecture_code":9},"2331":{"zip_code":"3292331","prefecture":"栃木県","prefecture_kana":"トチギケン","city":"塩谷郡塩谷町","city_kana":"シオヤグンシオヤマチ","town":"田所","town_kana":"タドコロ","prefecture_code":9},"2221":{"zip_code":"3292221","prefecture":"栃木県","prefecture_kana":"トチギケン","city":"塩谷郡塩谷町","city_kana":"シオヤグンシオヤマチ","town":"玉生","town_kana":"タマニュウ","prefecture_code":9},"2222":{"zip_code":"3292222","prefecture":"栃木県","prefecture_kana":"トチギケン","city":"塩谷郡塩谷町","city_kana":"シオヤグンシオヤマチ","town":"道下","town_kana":"ドウシタ","prefecture_code":9},"2211":{"zip_code":"3292211","prefecture":"栃木県","prefecture_kana":"トチギケン","city":"塩谷郡塩谷町","city_kana":"シオヤグンシオヤマチ","town":"鳥羽新田","town_kana":"トバシンデン","prefecture_code":9},"2223":{"zip_code":"3292223","prefecture":"栃木県","prefecture_kana":"トチギケン","city":"塩谷郡塩谷町","city_kana":"シオヤグンシオヤマチ","town":"原荻野目","town_kana":"ハラオギノメ","prefecture_code":9},"2214":{"zip_code":"3292214","prefecture":"栃木県","prefecture_kana":"トチギケン","city":"塩谷郡塩谷町","city_kana":"シオヤグンシオヤマチ","town":"東房","town_kana":"ヒガシボウ","prefecture_code":9},"2333":{"zip_code":"3292333","prefecture":"栃木県","prefecture_kana":"トチギケン","city":"塩谷郡塩谷町","city_kana":"シオヤグンシオヤマチ","town":"肘内","town_kana":"ヒジウチ","prefecture_code":9},"2441":{"zip_code":"3292441","prefecture":"栃木県","prefecture_kana":"トチギケン","city":"塩谷郡塩谷町","city_kana":"シオヤグンシオヤマチ","town":"船生","town_kana":"フニュウ","prefecture_code":9},"2226":{"zip_code":"3292226","prefecture":"栃木県","prefecture_kana":"トチギケン","city":"塩谷郡塩谷町","city_kana":"シオヤグンシオヤマチ","town":"芦場新田","town_kana":"ヨシバシンデン","prefecture_code":9},"1200":{"zip_code":"3291200","prefecture":"栃木県","prefecture_kana":"トチギケン","city":"塩谷郡高根沢町","city_kana":"シオヤグンタカネザワマチ","town":"","town_kana":"","prefecture_code":9},"1205":{"zip_code":"3291205","prefecture":"栃木県","prefecture_kana":"トチギケン","city":"塩谷郡高根沢町","city_kana":"シオヤグンタカネザワマチ","town":"飯室","town_kana":"イイムロ","prefecture_code":9},"1225":{"zip_code":"3291225","prefecture":"栃木県","prefecture_kana":"トチギケン","city":"塩谷郡高根沢町","city_kana":"シオヤグンタカネザワマチ","town":"石末","town_kana":"イシヅエ","prefecture_code":9},"1217":{"zip_code":"3291217","prefecture":"栃木県","prefecture_kana":"トチギケン","city":"塩谷郡高根沢町","city_kana":"シオヤグンタカネザワマチ","town":"太田","town_kana":"オオタ","prefecture_code":9},"1226":{"zip_code":"3291226","prefecture":"栃木県","prefecture_kana":"トチギケン","city":"塩谷郡高根沢町","city_kana":"シオヤグンタカネザワマチ","town":"大谷","town_kana":"オオヤ","prefecture_code":9},"1201":{"zip_code":"3291201","prefecture":"栃木県","prefecture_kana":"トチギケン","city":"塩谷郡高根沢町","city_kana":"シオヤグンタカネザワマチ","town":"柿木沢","town_kana":"カキノキザワ","prefecture_code":9},"1235":{"zip_code":"3291235","prefecture":"栃木県","prefecture_kana":"トチギケン","city":"塩谷郡高根沢町","city_kana":"シオヤグンタカネザワマチ","town":"上阿久津","town_kana":"カミアクツ","prefecture_code":9},"1212":{"zip_code":"3291212","prefecture":"栃木県","prefecture_kana":"トチギケン","city":"塩谷郡高根沢町","city_kana":"シオヤグンタカネザワマチ","town":"上柏崎","town_kana":"カミカシワザキ","prefecture_code":9},"1224":{"zip_code":"3291224","prefecture":"栃木県","prefecture_kana":"トチギケン","city":"塩谷郡高根沢町","city_kana":"シオヤグンタカネザワマチ","town":"上高根沢","town_kana":"カミタカネザワ","prefecture_code":9},"1211":{"zip_code":"3291211","prefecture":"栃木県","prefecture_kana":"トチギケン","city":"塩谷郡高根沢町","city_kana":"シオヤグンタカネザワマチ","town":"亀梨","town_kana":"カメナシ","prefecture_code":9},"1215":{"zip_code":"3291215","prefecture":"栃木県","prefecture_kana":"トチギケン","city":"塩谷郡高根沢町","city_kana":"シオヤグンタカネザワマチ","town":"給部","town_kana":"キュウブ","prefecture_code":9},"1223":{"zip_code":"3291223","prefecture":"栃木県","prefecture_kana":"トチギケン","city":"塩谷郡高根沢町","city_kana":"シオヤグンタカネザワマチ","town":"栗ケ島","town_kana":"クリガシマ","prefecture_code":9},"1216":{"zip_code":"3291216","prefecture":"栃木県","prefecture_kana":"トチギケン","city":"塩谷郡高根沢町","city_kana":"シオヤグンタカネザワマチ","town":"桑窪","town_kana":"クワクボ","prefecture_code":9},"1232":{"zip_code":"3291232","prefecture":"栃木県","prefecture_kana":"トチギケン","city":"塩谷郡高根沢町","city_kana":"シオヤグンタカネザワマチ","town":"光陽台","town_kana":"コウヨウダイ","prefecture_code":9},"1213":{"zip_code":"3291213","prefecture":"栃木県","prefecture_kana":"トチギケン","city":"塩谷郡高根沢町","city_kana":"シオヤグンタカネザワマチ","town":"下柏崎","town_kana":"シモカシワザキ","prefecture_code":9},"1222":{"zip_code":"3291222","prefecture":"栃木県","prefecture_kana":"トチギケン","city":"塩谷郡高根沢町","city_kana":"シオヤグンタカネザワマチ","town":"寺渡戸","town_kana":"テラワタド","prefecture_code":9},"1234":{"zip_code":"3291234","prefecture":"栃木県","prefecture_kana":"トチギケン","city":"塩谷郡高根沢町","city_kana":"シオヤグンタカネザワマチ","town":"中阿久津","town_kana":"ナカアクツ","prefecture_code":9},"1214":{"zip_code":"3291214","prefecture":"栃木県","prefecture_kana":"トチギケン","city":"塩谷郡高根沢町","city_kana":"シオヤグンタカネザワマチ","town":"中柏崎","town_kana":"ナカカシワザキ","prefecture_code":9},"1221":{"zip_code":"3291221","prefecture":"栃木県","prefecture_kana":"トチギケン","city":"塩谷郡高根沢町","city_kana":"シオヤグンタカネザワマチ","town":"西高谷","town_kana":"ニシゴウヤ","prefecture_code":9},"1202":{"zip_code":"3291202","prefecture":"栃木県","prefecture_kana":"トチギケン","city":"塩谷郡高根沢町","city_kana":"シオヤグンタカネザワマチ","town":"狭間田","town_kana":"ハサマタ","prefecture_code":9},"1207":{"zip_code":"3291207","prefecture":"栃木県","prefecture_kana":"トチギケン","city":"塩谷郡高根沢町","city_kana":"シオヤグンタカネザワマチ","town":"花岡","town_kana":"ハナオカ","prefecture_code":9},"1206":{"zip_code":"3291206","prefecture":"栃木県","prefecture_kana":"トチギケン","city":"塩谷郡高根沢町","city_kana":"シオヤグンタカネザワマチ","town":"平田","town_kana":"ヒラタ","prefecture_code":9},"1203":{"zip_code":"3291203","prefecture":"栃木県","prefecture_kana":"トチギケン","city":"塩谷郡高根沢町","city_kana":"シオヤグンタカネザワマチ","town":"伏久","town_kana":"フスク","prefecture_code":9},"1204":{"zip_code":"3291204","prefecture":"栃木県","prefecture_kana":"トチギケン","city":"塩谷郡高根沢町","city_kana":"シオヤグンタカネザワマチ","town":"文挾","town_kana":"フバサミ","prefecture_code":9},"1233":{"zip_code":"3291233","prefecture":"栃木県","prefecture_kana":"トチギケン","city":"塩谷郡高根沢町","city_kana":"シオヤグンタカネザワマチ","town":"宝積寺","town_kana":"ホウシャクジ","prefecture_code":9},"1231":{"zip_code":"3291231","prefecture":"栃木県","prefecture_kana":"トチギケン","city":"塩谷郡高根沢町","city_kana":"シオヤグンタカネザワマチ","town":"宝石台","town_kana":"ホウセキダイ","prefecture_code":9},"3200":{"zip_code":"3293200","prefecture":"栃木県","prefecture_kana":"トチギケン","city":"那須郡那須町","city_kana":"ナスグンナスマチ","town":"","town_kana":"","prefecture_code":9},"3443":{"zip_code":"3293443","prefecture":"栃木県","prefecture_kana":"トチギケン","city":"那須郡那須町","city_kana":"ナスグンナスマチ","town":"芦野","town_kana":"アシノ","prefecture_code":9},"3432":{"zip_code":"3293432","prefecture":"栃木県","prefecture_kana":"トチギケン","city":"那須郡那須町","city_kana":"ナスグンナスマチ","town":"梓","town_kana":"アズサ","prefecture_code":9},"3436":{"zip_code":"3293436","prefecture":"栃木県","prefecture_kana":"トチギケン","city":"那須郡那須町","city_kana":"ナスグンナスマチ","town":"伊王野","town_kana":"イオウノ","prefecture_code":9},"3447":{"zip_code":"3293447","prefecture":"栃木県","prefecture_kana":"トチギケン","city":"那須郡那須町","city_kana":"ナスグンナスマチ","town":"稲沢","town_kana":"イナザワ","prefecture_code":9},"3221":{"zip_code":"3293221","prefecture":"栃木県","prefecture_kana":"トチギケン","city":"那須郡那須町","city_kana":"ナスグンナスマチ","town":"漆塚","town_kana":"ウルシツカ","prefecture_code":9},"3223":{"zip_code":"3293223","prefecture":"栃木県","prefecture_kana":"トチギケン","city":"那須郡那須町","city_kana":"ナスグンナスマチ","town":"大島","town_kana":"オオシマ","prefecture_code":9},"3431":{"zip_code":"3293431","prefecture":"栃木県","prefecture_kana":"トチギケン","city":"那須郡那須町","city_kana":"ナスグンナスマチ","town":"大畑","town_kana":"オオハタ","prefecture_code":9},"3433":{"zip_code":"3293433","prefecture":"栃木県","prefecture_kana":"トチギケン","city":"那須郡那須町","city_kana":"ナスグンナスマチ","town":"大和須","town_kana":"オオワス","prefecture_code":9},"3444":{"zip_code":"3293444","prefecture":"栃木県","prefecture_kana":"トチギケン","city":"那須郡那須町","city_kana":"ナスグンナスマチ","town":"寺子","town_kana":"テラコ","prefecture_code":9},"3215":{"zip_code":"3293215","prefecture":"栃木県","prefecture_kana":"トチギケン","city":"那須郡那須町","city_kana":"ナスグンナスマチ","town":"寺子乙","town_kana":"テラコオツ","prefecture_code":9},"3222":{"zip_code":"3293222","prefecture":"栃木県","prefecture_kana":"トチギケン","city":"那須郡那須町","city_kana":"ナスグンナスマチ","town":"寺子丙","town_kana":"テラコヘイ","prefecture_code":9},"3212":{"zip_code":"3293212","prefecture":"栃木県","prefecture_kana":"トチギケン","city":"那須郡那須町","city_kana":"ナスグンナスマチ","town":"富岡","town_kana":"トミオカ","prefecture_code":9},"3213":{"zip_code":"3293213","prefecture":"栃木県","prefecture_kana":"トチギケン","city":"那須郡那須町","city_kana":"ナスグンナスマチ","town":"豊原","town_kana":"トヨハラ","prefecture_code":9},"3211":{"zip_code":"3293211","prefecture":"栃木県","prefecture_kana":"トチギケン","city":"那須郡那須町","city_kana":"ナスグンナスマチ","town":"豊原甲","town_kana":"トヨハラコウ","prefecture_code":9},"3224":{"zip_code":"3293224","prefecture":"栃木県","prefecture_kana":"トチギケン","city":"那須郡那須町","city_kana":"ナスグンナスマチ","town":"豊原乙","town_kana":"トヨハラオツ","prefecture_code":9},"3225":{"zip_code":"3293225","prefecture":"栃木県","prefecture_kana":"トチギケン","city":"那須郡那須町","city_kana":"ナスグンナスマチ","town":"豊原丙","town_kana":"トヨハラヘイ","prefecture_code":9},"3446":{"zip_code":"3293446","prefecture":"栃木県","prefecture_kana":"トチギケン","city":"那須郡那須町","city_kana":"ナスグンナスマチ","town":"沼野井","town_kana":"ヌマノイ","prefecture_code":9},"3445":{"zip_code":"3293445","prefecture":"栃木県","prefecture_kana":"トチギケン","city":"那須郡那須町","city_kana":"ナスグンナスマチ","town":"東岩崎","town_kana":"ヒガシイワザキ","prefecture_code":9},"3437":{"zip_code":"3293437","prefecture":"栃木県","prefecture_kana":"トチギケン","city":"那須郡那須町","city_kana":"ナスグンナスマチ","town":"蓑沢","town_kana":"ミノザワ","prefecture_code":9},"3435":{"zip_code":"3293435","prefecture":"栃木県","prefecture_kana":"トチギケン","city":"那須郡那須町","city_kana":"ナスグンナスマチ","town":"睦家","town_kana":"ムツヤ","prefecture_code":9},"3434":{"zip_code":"3293434","prefecture":"栃木県","prefecture_kana":"トチギケン","city":"那須郡那須町","city_kana":"ナスグンナスマチ","town":"梁瀬","town_kana":"ヤナゼ","prefecture_code":9},"3214":{"zip_code":"3293214","prefecture":"栃木県","prefecture_kana":"トチギケン","city":"那須郡那須町","city_kana":"ナスグンナスマチ","town":"横岡","town_kana":"ヨコオカ","prefecture_code":9},"3442":{"zip_code":"3293442","prefecture":"栃木県","prefecture_kana":"トチギケン","city":"那須郡那須町","city_kana":"ナスグンナスマチ","town":"横岡","town_kana":"ヨコオカ","prefecture_code":9},"3441":{"zip_code":"3293441","prefecture":"栃木県","prefecture_kana":"トチギケン","city":"那須郡那須町","city_kana":"ナスグンナスマチ","town":"寄居","town_kana":"ヨリイ","prefecture_code":9}}