{"0000":{"zip_code":"3310000","prefecture":"埼玉県","prefecture_kana":"サイタマケン","city":"さいたま市西区","city_kana":"サイタマシニシク","town":"以下に掲載がない場合","town_kana":"イカニケイサイガナイバアイ","prefecture_code":11},"0058":{"zip_code":"3310058","prefecture":"埼玉県","prefecture_kana":"サイタマケン","city":"さいたま市西区","city_kana":"サイタマシニシク","town":"飯田","town_kana":"イイダ","prefecture_code":11},"0068":{"zip_code":"3310068","prefecture":"埼玉県","prefecture_kana":"サイタマケン","city":"さいたま市西区","city_kana":"サイタマシニシク","town":"飯田新田","town_kana":"イイダシンデン","prefecture_code":11},"0053":{"zip_code":"3310053","prefecture":"埼玉県","prefecture_kana":"サイタマケン","city":"さいたま市西区","city_kana":"サイタマシニシク","town":"植田谷本","town_kana":"ウエタヤホン","prefecture_code":11},"0067":{"zip_code":"3310067","prefecture":"埼玉県","prefecture_kana":"サイタマケン","city":"さいたま市西区","city_kana":"サイタマシニシク","town":"植田谷本村新田","town_kana":"ウエタヤホンムラシンデン","prefecture_code":11},"0045":{"zip_code":"3310045","prefecture":"埼玉県","prefecture_kana":"サイタマケン","city":"さいたま市西区","city_kana":"サイタマシニシク","town":"内野本郷","town_kana":"ウチノホンゴウ","prefecture_code":11},"0047":{"zip_code":"3310047","prefecture":"埼玉県","prefecture_kana":"サイタマケン","city":"さいたま市西区","city_kana":"サイタマシニシク","town":"指扇","town_kana":"サシオウギ","prefecture_code":11},"0076":{"zip_code":"3310076","prefecture":"埼玉県","prefecture_kana":"サイタマケン","city":"さいたま市西区","city_kana":"サイタマシニシク","town":"指扇領辻","town_kana":"サシオウギリョウツジ","prefecture_code":11},"0073":{"zip_code":"3310073","prefecture":"埼玉県","prefecture_kana":"サイタマケン","city":"さいたま市西区","city_kana":"サイタマシニシク","town":"指扇領別所","town_kana":"サシオウギリョウベッショ","prefecture_code":11},"0064":{"zip_code":"3310064","prefecture":"埼玉県","prefecture_kana":"サイタマケン","city":"さいたま市西区","city_kana":"サイタマシニシク","town":"佐知川","town_kana":"サジカワ","prefecture_code":11},"0056":{"zip_code":"3310056","prefecture":"埼玉県","prefecture_kana":"サイタマケン","city":"さいたま市西区","city_kana":"サイタマシニシク","town":"三条町","town_kana":"サンジョウマチ","prefecture_code":11},"0054":{"zip_code":"3310054","prefecture":"埼玉県","prefecture_kana":"サイタマケン","city":"さいたま市西区","city_kana":"サイタマシニシク","town":"島根","town_kana":"シマネ","prefecture_code":11},"0055":{"zip_code":"3310055","prefecture":"埼玉県","prefecture_kana":"サイタマケン","city":"さいたま市西区","city_kana":"サイタマシニシク","town":"昭和","town_kana":"ショウワ","prefecture_code":11},"0048":{"zip_code":"3310048","prefecture":"埼玉県","prefecture_kana":"サイタマケン","city":"さいたま市西区","city_kana":"サイタマシニシク","town":"清河寺","town_kana":"セイガンジ","prefecture_code":11},"0071":{"zip_code":"3310071","prefecture":"埼玉県","prefecture_kana":"サイタマケン","city":"さいたま市西区","city_kana":"サイタマシニシク","town":"高木","town_kana":"タカギ","prefecture_code":11},"0066":{"zip_code":"3310066","prefecture":"埼玉県","prefecture_kana":"サイタマケン","city":"さいたま市西区","city_kana":"サイタマシニシク","town":"塚本","town_kana":"ツカモト","prefecture_code":11},"0060":{"zip_code":"3310060","prefecture":"埼玉県","prefecture_kana":"サイタマケン","city":"さいたま市西区","city_kana":"サイタマシニシク","town":"塚本町","town_kana":"ツカモトチョウ","prefecture_code":11},"0062":{"zip_code":"3310062","prefecture":"埼玉県","prefecture_kana":"サイタマケン","city":"さいたま市西区","city_kana":"サイタマシニシク","town":"土屋","town_kana":"ツチヤ","prefecture_code":11},"0077":{"zip_code":"3310077","prefecture":"埼玉県","prefecture_kana":"サイタマケン","city":"さいたま市西区","city_kana":"サイタマシニシク","town":"中釘","town_kana":"ナカクギ","prefecture_code":11},"0057":{"zip_code":"3310057","prefecture":"埼玉県","prefecture_kana":"サイタマケン","city":"さいたま市西区","city_kana":"サイタマシニシク","town":"中野林","town_kana":"ナカノバヤシ","prefecture_code":11},"0061":{"zip_code":"3310061","prefecture":"埼玉県","prefecture_kana":"サイタマケン","city":"さいたま市西区","city_kana":"サイタマシニシク","town":"西遊馬","town_kana":"ニシアスマ","prefecture_code":11},"0049":{"zip_code":"3310049","prefecture":"埼玉県","prefecture_kana":"サイタマケン","city":"さいたま市西区","city_kana":"サイタマシニシク","town":"西新井","town_kana":"ニシアライ","prefecture_code":11},"0072":{"zip_code":"3310072","prefecture":"埼玉県","prefecture_kana":"サイタマケン","city":"さいたま市西区","city_kana":"サイタマシニシク","town":"平方領々家","town_kana":"ヒラカタリョウリョウケ","prefecture_code":11},"0065":{"zip_code":"3310065","prefecture":"埼玉県","prefecture_kana":"サイタマケン","city":"さいたま市西区","city_kana":"サイタマシニシク","town":"二ツ宮","town_kana":"フタツミヤ","prefecture_code":11},"0063":{"zip_code":"3310063","prefecture":"埼玉県","prefecture_kana":"サイタマケン","city":"さいたま市西区","city_kana":"サイタマシニシク","town":"プラザ","town_kana":"プラザ","prefecture_code":11},"0074":{"zip_code":"3310074","prefecture":"埼玉県","prefecture_kana":"サイタマケン","city":"さいたま市西区","city_kana":"サイタマシニシク","town":"宝来","town_kana":"ホウライ","prefecture_code":11},"0059":{"zip_code":"3310059","prefecture":"埼玉県","prefecture_kana":"サイタマケン","city":"さいたま市西区","city_kana":"サイタマシニシク","town":"水判土","town_kana":"ミズハタ","prefecture_code":11},"0075":{"zip_code":"3310075","prefecture":"埼玉県","prefecture_kana":"サイタマケン","city":"さいたま市西区","city_kana":"サイタマシニシク","town":"峰岸","town_kana":"ミネギシ","prefecture_code":11},"0052":{"zip_code":"3310052","prefecture":"埼玉県","prefecture_kana":"サイタマケン","city":"さいたま市西区","city_kana":"サイタマシニシク","town":"三橋","town_kana":"ミハシ","prefecture_code":11},"0046":{"zip_code":"3310046","prefecture":"埼玉県","prefecture_kana":"サイタマケン","city":"さいたま市西区","city_kana":"サイタマシニシク","town":"宮前町","town_kana":"ミヤマエチョウ","prefecture_code":11},"0069":{"zip_code":"3310069","prefecture":"埼玉県","prefecture_kana":"サイタマケン","city":"さいたま市西区","city_kana":"サイタマシニシク","town":"湯木町","town_kana":"ユギチョウ","prefecture_code":11},"0800":{"zip_code":"3310800","prefecture":"埼玉県","prefecture_kana":"サイタマケン","city":"さいたま市北区","city_kana":"サイタマシキタク","town":"以下に掲載がない場合","town_kana":"イカニケイサイガナイバアイ","prefecture_code":11},"0813":{"zip_code":"3310813","prefecture":"埼玉県","prefecture_kana":"サイタマケン","city":"さいたま市北区","city_kana":"サイタマシキタク","town":"植竹町","town_kana":"ウエタケチョウ","prefecture_code":11},"0815":{"zip_code":"3310815","prefecture":"埼玉県","prefecture_kana":"サイタマケン","city":"さいたま市北区","city_kana":"サイタマシキタク","town":"大成町","town_kana":"オオナリチョウ","prefecture_code":11},"0824":{"zip_code":"3310824","prefecture":"埼玉県","prefecture_kana":"サイタマケン","city":"さいたま市北区","city_kana":"サイタマシキタク","town":"上加","town_kana":"カミカ","prefecture_code":11},"0825":{"zip_code":"3310825","prefecture":"埼玉県","prefecture_kana":"サイタマケン","city":"さいたま市北区","city_kana":"サイタマシキタク","town":"櫛引町","town_kana":"クシヒキチョウ","prefecture_code":11},"0801":{"zip_code":"3310801","prefecture":"埼玉県","prefecture_kana":"サイタマケン","city":"さいたま市北区","city_kana":"サイタマシキタク","town":"今羽町","town_kana":"コンバチョウ","prefecture_code":11},"0804":{"zip_code":"3310804","prefecture":"埼玉県","prefecture_kana":"サイタマケン","city":"さいたま市北区","city_kana":"サイタマシキタク","town":"土呂町","town_kana":"トロチョウ","prefecture_code":11},"0822":{"zip_code":"3310822","prefecture":"埼玉県","prefecture_kana":"サイタマケン","city":"さいたま市北区","city_kana":"サイタマシキタク","town":"奈良町","town_kana":"ナラチョウ","prefecture_code":11},"0823":{"zip_code":"3310823","prefecture":"埼玉県","prefecture_kana":"サイタマケン","city":"さいたま市北区","city_kana":"サイタマシキタク","town":"日進町","town_kana":"ニッシンチョウ","prefecture_code":11},"0814":{"zip_code":"3310814","prefecture":"埼玉県","prefecture_kana":"サイタマケン","city":"さいたま市北区","city_kana":"サイタマシキタク","town":"東大成町","town_kana":"ヒガシオオナリチョウ","prefecture_code":11},"0821":{"zip_code":"3310821","prefecture":"埼玉県","prefecture_kana":"サイタマケン","city":"さいたま市北区","city_kana":"サイタマシキタク","town":"別所町","town_kana":"ベッショチョウ","prefecture_code":11},"0802":{"zip_code":"3310802","prefecture":"埼玉県","prefecture_kana":"サイタマケン","city":"さいたま市北区","city_kana":"サイタマシキタク","town":"本郷町","town_kana":"ホンゴウチョウ","prefecture_code":11},"0805":{"zip_code":"3310805","prefecture":"埼玉県","prefecture_kana":"サイタマケン","city":"さいたま市北区","city_kana":"サイタマシキタク","town":"盆栽町","town_kana":"ボンサイチョウ","prefecture_code":11},"0803":{"zip_code":"3310803","prefecture":"埼玉県","prefecture_kana":"サイタマケン","city":"さいたま市北区","city_kana":"サイタマシキタク","town":"見沼","town_kana":"ミヌマ","prefecture_code":11},"0812":{"zip_code":"3310812","prefecture":"埼玉県","prefecture_kana":"サイタマケン","city":"さいたま市北区","city_kana":"サイタマシキタク","town":"宮原町","town_kana":"ミヤハラチョウ","prefecture_code":11},"0811":{"zip_code":"3310811","prefecture":"埼玉県","prefecture_kana":"サイタマケン","city":"さいたま市北区","city_kana":"サイタマシキタク","town":"吉野町","town_kana":"ヨシノチョウ","prefecture_code":11}}