{"0073":{"zip_code":"3340073","prefecture":"埼玉県","prefecture_kana":"サイタマケン","city":"川口市","city_kana":"カワグチシ","town":"赤井","town_kana":"アカイ","prefecture_code":11},"0059":{"zip_code":"3340059","prefecture":"埼玉県","prefecture_kana":"サイタマケン","city":"川口市","city_kana":"カワグチシ","town":"安行","town_kana":"アンギョウ","prefecture_code":11},"0054":{"zip_code":"3340054","prefecture":"埼玉県","prefecture_kana":"サイタマケン","city":"川口市","city_kana":"カワグチシ","town":"安行北谷","town_kana":"アンギョウキタヤ","prefecture_code":11},"0053":{"zip_code":"3340053","prefecture":"埼玉県","prefecture_kana":"サイタマケン","city":"川口市","city_kana":"カワグチシ","town":"安行吉蔵","town_kana":"アンギョウキチゾウ","prefecture_code":11},"0055":{"zip_code":"3340055","prefecture":"埼玉県","prefecture_kana":"サイタマケン","city":"川口市","city_kana":"カワグチシ","town":"安行小山","town_kana":"アンギョウコヤマ","prefecture_code":11},"0071":{"zip_code":"3340071","prefecture":"埼玉県","prefecture_kana":"サイタマケン","city":"川口市","city_kana":"カワグチシ","town":"安行慈林","town_kana":"アンギョウジリン","prefecture_code":11},"0051":{"zip_code":"3340051","prefecture":"埼玉県","prefecture_kana":"サイタマケン","city":"川口市","city_kana":"カワグチシ","town":"安行藤八","town_kana":"アンギョウトウハチ","prefecture_code":11},"0057":{"zip_code":"3340057","prefecture":"埼玉県","prefecture_kana":"サイタマケン","city":"川口市","city_kana":"カワグチシ","town":"安行原","town_kana":"アンギョウハラ","prefecture_code":11},"0072":{"zip_code":"3340072","prefecture":"埼玉県","prefecture_kana":"サイタマケン","city":"川口市","city_kana":"カワグチシ","town":"安行吉岡","town_kana":"アンギョウヨシオカ","prefecture_code":11},"0058":{"zip_code":"3340058","prefecture":"埼玉県","prefecture_kana":"サイタマケン","city":"川口市","city_kana":"カワグチシ","town":"安行領家","town_kana":"アンギョウリョウケ","prefecture_code":11},"0052":{"zip_code":"3340052","prefecture":"埼玉県","prefecture_kana":"サイタマケン","city":"川口市","city_kana":"カワグチシ","town":"安行出羽","town_kana":"アンギョウデワ","prefecture_code":11},"0074":{"zip_code":"3340074","prefecture":"埼玉県","prefecture_kana":"サイタマケン","city":"川口市","city_kana":"カワグチシ","town":"江戸","town_kana":"エド","prefecture_code":11},"0075":{"zip_code":"3340075","prefecture":"埼玉県","prefecture_kana":"サイタマケン","city":"川口市","city_kana":"カワグチシ","town":"江戸袋","town_kana":"エドブクロ","prefecture_code":11},"0067":{"zip_code":"3340067","prefecture":"埼玉県","prefecture_kana":"サイタマケン","city":"川口市","city_kana":"カワグチシ","town":"大竹","town_kana":"オオタケ","prefecture_code":11},"0003":{"zip_code":"3340003","prefecture":"埼玉県","prefecture_kana":"サイタマケン","city":"川口市","city_kana":"カワグチシ","town":"坂下町","town_kana":"サカシタチョウ","prefecture_code":11},"0001":{"zip_code":"3340001","prefecture":"埼玉県","prefecture_kana":"サイタマケン","city":"川口市","city_kana":"カワグチシ","town":"桜町","town_kana":"サクラチョウ","prefecture_code":11},"0005":{"zip_code":"3340005","prefecture":"埼玉県","prefecture_kana":"サイタマケン","city":"川口市","city_kana":"カワグチシ","town":"里","town_kana":"サト","prefecture_code":11},"0004":{"zip_code":"3340004","prefecture":"埼玉県","prefecture_kana":"サイタマケン","city":"川口市","city_kana":"カワグチシ","town":"辻","town_kana":"ツジ","prefecture_code":11},"0061":{"zip_code":"3340061","prefecture":"埼玉県","prefecture_kana":"サイタマケン","city":"川口市","city_kana":"カワグチシ","town":"新堀","town_kana":"ニイホリ","prefecture_code":11},"0068":{"zip_code":"3340068","prefecture":"埼玉県","prefecture_kana":"サイタマケン","city":"川口市","city_kana":"カワグチシ","town":"新堀町","town_kana":"ニイホリチョウ","prefecture_code":11},"0062":{"zip_code":"3340062","prefecture":"埼玉県","prefecture_kana":"サイタマケン","city":"川口市","city_kana":"カワグチシ","town":"榛松","town_kana":"ハエマツ","prefecture_code":11},"0064":{"zip_code":"3340064","prefecture":"埼玉県","prefecture_kana":"サイタマケン","city":"川口市","city_kana":"カワグチシ","town":"蓮沼","town_kana":"ハスヌマ","prefecture_code":11},"0012":{"zip_code":"3340012","prefecture":"埼玉県","prefecture_kana":"サイタマケン","city":"川口市","city_kana":"カワグチシ","town":"八幡木","town_kana":"ハチマンギ","prefecture_code":11},"0002":{"zip_code":"3340002","prefecture":"埼玉県","prefecture_kana":"サイタマケン","city":"川口市","city_kana":"カワグチシ","town":"鳩ヶ谷本町","town_kana":"ハトガヤホンチョウ","prefecture_code":11},"0015":{"zip_code":"3340015","prefecture":"埼玉県","prefecture_kana":"サイタマケン","city":"川口市","city_kana":"カワグチシ","town":"鳩ヶ谷緑町","town_kana":"ハトガヤミドリチョウ","prefecture_code":11},"0066":{"zip_code":"3340066","prefecture":"埼玉県","prefecture_kana":"サイタマケン","city":"川口市","city_kana":"カワグチシ","town":"東貝塚","town_kana":"ヒガシカイヅカ","prefecture_code":11},"0063":{"zip_code":"3340063","prefecture":"埼玉県","prefecture_kana":"サイタマケン","city":"川口市","city_kana":"カワグチシ","town":"東本郷","town_kana":"ヒガシホンゴウ","prefecture_code":11},"0076":{"zip_code":"3340076","prefecture":"埼玉県","prefecture_kana":"サイタマケン","city":"川口市","city_kana":"カワグチシ","town":"本蓮","town_kana":"ホンバス","prefecture_code":11},"0014":{"zip_code":"3340014","prefecture":"埼玉県","prefecture_kana":"サイタマケン","city":"川口市","city_kana":"カワグチシ","town":"前田","town_kana":"マエタ","prefecture_code":11},"0065":{"zip_code":"3340065","prefecture":"埼玉県","prefecture_kana":"サイタマケン","city":"川口市","city_kana":"カワグチシ","town":"前野宿","town_kana":"マエノシュク","prefecture_code":11},"0011":{"zip_code":"3340011","prefecture":"埼玉県","prefecture_kana":"サイタマケン","city":"川口市","city_kana":"カワグチシ","town":"三ツ和","town_kana":"ミツワ","prefecture_code":11},"0013":{"zip_code":"3340013","prefecture":"埼玉県","prefecture_kana":"サイタマケン","city":"川口市","city_kana":"カワグチシ","town":"南鳩ヶ谷","town_kana":"ミナミハトガヤ","prefecture_code":11},"0056":{"zip_code":"3340056","prefecture":"埼玉県","prefecture_kana":"サイタマケン","city":"川口市","city_kana":"カワグチシ","town":"峯","town_kana":"ミネ","prefecture_code":11}}