{"0000":{"zip_code":"3360000","prefecture":"埼玉県","prefecture_kana":"サイタマケン","city":"さいたま市南区","city_kana":"サイタマシミナミク","town":"","town_kana":"","prefecture_code":11},"0034":{"zip_code":"3360034","prefecture":"埼玉県","prefecture_kana":"サイタマケン","city":"さいたま市南区","city_kana":"サイタマシミナミク","town":"内谷","town_kana":"ウチヤ","prefecture_code":11},"0043":{"zip_code":"3360043","prefecture":"埼玉県","prefecture_kana":"サイタマケン","city":"さいたま市南区","city_kana":"サイタマシミナミク","town":"円正寺","town_kana":"エンショウジ","prefecture_code":11},"0042":{"zip_code":"3360042","prefecture":"埼玉県","prefecture_kana":"サイタマケン","city":"さいたま市南区","city_kana":"サイタマシミナミク","town":"大谷口","town_kana":"オオヤグチ","prefecture_code":11},"0016":{"zip_code":"3360016","prefecture":"埼玉県","prefecture_kana":"サイタマケン","city":"さいたま市南区","city_kana":"サイタマシミナミク","town":"大谷場","town_kana":"オオヤバ","prefecture_code":11},"0031":{"zip_code":"3360031","prefecture":"埼玉県","prefecture_kana":"サイタマケン","city":"さいたま市南区","city_kana":"サイタマシミナミク","town":"鹿手袋","town_kana":"シカテブクロ","prefecture_code":11},"0022":{"zip_code":"3360022","prefecture":"埼玉県","prefecture_kana":"サイタマケン","city":"さいたま市南区","city_kana":"サイタマシミナミク","town":"白幡","town_kana":"シラハタ","prefecture_code":11},"0023":{"zip_code":"3360023","prefecture":"埼玉県","prefecture_kana":"サイタマケン","city":"さいたま市南区","city_kana":"サイタマシミナミク","town":"神明","town_kana":"シンメイ","prefecture_code":11},"0038":{"zip_code":"3360038","prefecture":"埼玉県","prefecture_kana":"サイタマケン","city":"さいたま市南区","city_kana":"サイタマシミナミク","town":"関","town_kana":"セキ","prefecture_code":11},"0015":{"zip_code":"3360015","prefecture":"埼玉県","prefecture_kana":"サイタマケン","city":"さいたま市南区","city_kana":"サイタマシミナミク","town":"太田窪","town_kana":"ダイタクボ","prefecture_code":11},"0026":{"zip_code":"3360026","prefecture":"埼玉県","prefecture_kana":"サイタマケン","city":"さいたま市南区","city_kana":"サイタマシミナミク","town":"辻","town_kana":"ツジ","prefecture_code":11},"0036":{"zip_code":"3360036","prefecture":"埼玉県","prefecture_kana":"サイタマケン","city":"さいたま市南区","city_kana":"サイタマシミナミク","town":"堤外","town_kana":"テイガイ","prefecture_code":11},"0027":{"zip_code":"3360027","prefecture":"埼玉県","prefecture_kana":"サイタマケン","city":"さいたま市南区","city_kana":"サイタマシミナミク","town":"沼影","town_kana":"ヌマカゲ","prefecture_code":11},"0024":{"zip_code":"3360024","prefecture":"埼玉県","prefecture_kana":"サイタマケン","city":"さいたま市南区","city_kana":"サイタマシミナミク","town":"根岸","town_kana":"ネギシ","prefecture_code":11},"0041":{"zip_code":"3360041","prefecture":"埼玉県","prefecture_kana":"サイタマケン","city":"さいたま市南区","city_kana":"サイタマシミナミク","town":"広ケ谷戸","town_kana":"ヒロガヤト","prefecture_code":11},"0025":{"zip_code":"3360025","prefecture":"埼玉県","prefecture_kana":"サイタマケン","city":"さいたま市南区","city_kana":"サイタマシミナミク","town":"文蔵","town_kana":"ブゾウ","prefecture_code":11},"0021":{"zip_code":"3360021","prefecture":"埼玉県","prefecture_kana":"サイタマケン","city":"さいたま市南区","city_kana":"サイタマシミナミク","town":"別所","town_kana":"ベッショ","prefecture_code":11},"0033":{"zip_code":"3360033","prefecture":"埼玉県","prefecture_kana":"サイタマケン","city":"さいたま市南区","city_kana":"サイタマシミナミク","town":"曲本","town_kana":"マガモト","prefecture_code":11},"0035":{"zip_code":"3360035","prefecture":"埼玉県","prefecture_kana":"サイタマケン","city":"さいたま市南区","city_kana":"サイタマシミナミク","town":"松本","town_kana":"マツモト","prefecture_code":11},"0017":{"zip_code":"3360017","prefecture":"埼玉県","prefecture_kana":"サイタマケン","city":"さいたま市南区","city_kana":"サイタマシミナミク","town":"南浦和","town_kana":"ミナミウラワ","prefecture_code":11},"0018":{"zip_code":"3360018","prefecture":"埼玉県","prefecture_kana":"サイタマケン","city":"さいたま市南区","city_kana":"サイタマシミナミク","town":"南本町","town_kana":"ミナミホンチョウ","prefecture_code":11},"0032":{"zip_code":"3360032","prefecture":"埼玉県","prefecture_kana":"サイタマケン","city":"さいたま市南区","city_kana":"サイタマシミナミク","town":"四谷","town_kana":"ヨツヤ","prefecture_code":11},"0900":{"zip_code":"3360900","prefecture":"埼玉県","prefecture_kana":"サイタマケン","city":"さいたま市緑区","city_kana":"サイタマシミドリク","town":"","town_kana":"","prefecture_code":11},"0921":{"zip_code":"3360921","prefecture":"埼玉県","prefecture_kana":"サイタマケン","city":"さいたま市緑区","city_kana":"サイタマシミドリク","town":"井沼方","town_kana":"イヌマカタ","prefecture_code":11},"0974":{"zip_code":"3360974","prefecture":"埼玉県","prefecture_kana":"サイタマケン","city":"さいたま市緑区","city_kana":"サイタマシミドリク","town":"大崎","town_kana":"オオサキ","prefecture_code":11},"0922":{"zip_code":"3360922","prefecture":"埼玉県","prefecture_kana":"サイタマケン","city":"さいたま市緑区","city_kana":"サイタマシミドリク","town":"大牧","town_kana":"オオマキ","prefecture_code":11},"0923":{"zip_code":"3360923","prefecture":"埼玉県","prefecture_kana":"サイタマケン","city":"さいたま市緑区","city_kana":"サイタマシミドリク","town":"大間木","town_kana":"オオマギ","prefecture_code":11},"0934":{"zip_code":"3360934","prefecture":"埼玉県","prefecture_kana":"サイタマケン","city":"さいたま市緑区","city_kana":"サイタマシミドリク","town":"大谷口","town_kana":"オオヤグチ","prefecture_code":11},"0977":{"zip_code":"3360977","prefecture":"埼玉県","prefecture_kana":"サイタマケン","city":"さいたま市緑区","city_kana":"サイタマシミドリク","town":"上野田","town_kana":"カミノダ","prefecture_code":11},"0966":{"zip_code":"3360966","prefecture":"埼玉県","prefecture_kana":"サイタマケン","city":"さいたま市緑区","city_kana":"サイタマシミドリク","town":"北原","town_kana":"キタハラ","prefecture_code":11},"0961":{"zip_code":"3360961","prefecture":"埼玉県","prefecture_kana":"サイタマケン","city":"さいたま市緑区","city_kana":"サイタマシミドリク","town":"玄蕃新田","town_kana":"ゲンバシンデン","prefecture_code":11},"0907":{"zip_code":"3360907","prefecture":"埼玉県","prefecture_kana":"サイタマケン","city":"さいたま市緑区","city_kana":"サイタマシミドリク","town":"道祖土","town_kana":"サイド","prefecture_code":11},"0917":{"zip_code":"3360917","prefecture":"埼玉県","prefecture_kana":"サイタマケン","city":"さいたま市緑区","city_kana":"サイタマシミドリク","town":"芝原","town_kana":"シバハラ","prefecture_code":11},"0962":{"zip_code":"3360962","prefecture":"埼玉県","prefecture_kana":"サイタマケン","city":"さいたま市緑区","city_kana":"サイタマシミドリク","town":"下野田","town_kana":"シモノダ","prefecture_code":11},"0925":{"zip_code":"3360925","prefecture":"埼玉県","prefecture_kana":"サイタマケン","city":"さいたま市緑区","city_kana":"サイタマシミドリク","town":"下山口新田","town_kana":"シモヤマグチシンデン","prefecture_code":11},"0913":{"zip_code":"3360913","prefecture":"埼玉県","prefecture_kana":"サイタマケン","city":"さいたま市緑区","city_kana":"サイタマシミドリク","town":"新宿","town_kana":"シンジュク","prefecture_code":11},"0936":{"zip_code":"3360936","prefecture":"埼玉県","prefecture_kana":"サイタマケン","city":"さいたま市緑区","city_kana":"サイタマシミドリク","town":"太田窪","town_kana":"ダイタクボ","prefecture_code":11},"0905":{"zip_code":"3360905","prefecture":"埼玉県","prefecture_kana":"サイタマケン","city":"さいたま市緑区","city_kana":"サイタマシミドリク","town":"大道","town_kana":"ダイドウ","prefecture_code":11},"0963":{"zip_code":"3360963","prefecture":"埼玉県","prefecture_kana":"サイタマケン","city":"さいたま市緑区","city_kana":"サイタマシミドリク","town":"大門","town_kana":"ダイモン","prefecture_code":11},"0975":{"zip_code":"3360975","prefecture":"埼玉県","prefecture_kana":"サイタマケン","city":"さいたま市緑区","city_kana":"サイタマシミドリク","town":"代山","town_kana":"ダイヤマ","prefecture_code":11},"0971":{"zip_code":"3360971","prefecture":"埼玉県","prefecture_kana":"サイタマケン","city":"さいたま市緑区","city_kana":"サイタマシミドリク","town":"高畑","town_kana":"タカバタケ","prefecture_code":11},"0976":{"zip_code":"3360976","prefecture":"埼玉県","prefecture_kana":"サイタマケン","city":"さいたま市緑区","city_kana":"サイタマシミドリク","town":"寺山","town_kana":"テラヤマ","prefecture_code":11},"0932":{"zip_code":"3360932","prefecture":"埼玉県","prefecture_kana":"サイタマケン","city":"さいたま市緑区","city_kana":"サイタマシミドリク","town":"中尾","town_kana":"ナカオ","prefecture_code":11},"0972":{"zip_code":"3360972","prefecture":"埼玉県","prefecture_kana":"サイタマケン","city":"さいたま市緑区","city_kana":"サイタマシミドリク","town":"中野田","town_kana":"ナカノダ","prefecture_code":11},"0973":{"zip_code":"3360973","prefecture":"埼玉県","prefecture_kana":"サイタマケン","city":"さいたま市緑区","city_kana":"サイタマシミドリク","town":"南部領辻","town_kana":"ナンブリョウツジ","prefecture_code":11},"0924":{"zip_code":"3360924","prefecture":"埼玉県","prefecture_kana":"サイタマケン","city":"さいたま市緑区","city_kana":"サイタマシミドリク","town":"蓮見新田","town_kana":"ハスミシンデン","prefecture_code":11},"0931":{"zip_code":"3360931","prefecture":"埼玉県","prefecture_kana":"サイタマケン","city":"さいたま市緑区","city_kana":"サイタマシミドリク","town":"原山","town_kana":"ハラヤマ","prefecture_code":11},"0912":{"zip_code":"3360912","prefecture":"埼玉県","prefecture_kana":"サイタマケン","city":"さいたま市緑区","city_kana":"サイタマシミドリク","town":"馬場","town_kana":"バンバ","prefecture_code":11},"0926":{"zip_code":"3360926","prefecture":"埼玉県","prefecture_kana":"サイタマケン","city":"さいたま市緑区","city_kana":"サイタマシミドリク","town":"東浦和","town_kana":"ヒガシウラワ","prefecture_code":11},"0964":{"zip_code":"3360964","prefecture":"埼玉県","prefecture_kana":"サイタマケン","city":"さいたま市緑区","city_kana":"サイタマシミドリク","town":"東大門","town_kana":"ヒガシダイモン","prefecture_code":11},"0918":{"zip_code":"3360918","prefecture":"埼玉県","prefecture_kana":"サイタマケン","city":"さいたま市緑区","city_kana":"サイタマシミドリク","town":"松木","town_kana":"マツキ","prefecture_code":11},"0965":{"zip_code":"3360965","prefecture":"埼玉県","prefecture_kana":"サイタマケン","city":"さいたま市緑区","city_kana":"サイタマシミドリク","town":"間宮","town_kana":"マミヤ","prefecture_code":11},"0906":{"zip_code":"3360906","prefecture":"埼玉県","prefecture_kana":"サイタマケン","city":"さいたま市緑区","city_kana":"サイタマシミドリク","town":"三浦","town_kana":"ミウラ","prefecture_code":11},"0915":{"zip_code":"3360915","prefecture":"埼玉県","prefecture_kana":"サイタマケン","city":"さいたま市緑区","city_kana":"サイタマシミドリク","town":"見沼","town_kana":"ミヌマ","prefecture_code":11},"0911":{"zip_code":"3360911","prefecture":"埼玉県","prefecture_kana":"サイタマケン","city":"さいたま市緑区","city_kana":"サイタマシミドリク","town":"三室","town_kana":"ミムロ","prefecture_code":11},"0914":{"zip_code":"3360914","prefecture":"埼玉県","prefecture_kana":"サイタマケン","city":"さいたま市緑区","city_kana":"サイタマシミドリク","town":"宮後","town_kana":"ミヤウシロ","prefecture_code":11},"0916":{"zip_code":"3360916","prefecture":"埼玉県","prefecture_kana":"サイタマケン","city":"さいたま市緑区","city_kana":"サイタマシミドリク","town":"宮本","town_kana":"ミヤモト","prefecture_code":11},"0903":{"zip_code":"3360903","prefecture":"埼玉県","prefecture_kana":"サイタマケン","city":"さいたま市緑区","city_kana":"サイタマシミドリク","town":"山崎","town_kana":"ヤマザキ","prefecture_code":11}}