{"0014":{"zip_code":"3380014","prefecture":"埼玉県","prefecture_kana":"サイタマケン","city":"さいたま市中央区","city_kana":"サイタマシチュウオウク","town":"上峰","town_kana":"ウエミネ","prefecture_code":11},"0007":{"zip_code":"3380007","prefecture":"埼玉県","prefecture_kana":"サイタマケン","city":"さいたま市中央区","city_kana":"サイタマシチュウオウク","town":"円阿弥","town_kana":"エンナミ","prefecture_code":11},"0012":{"zip_code":"3380012","prefecture":"埼玉県","prefecture_kana":"サイタマケン","city":"さいたま市中央区","city_kana":"サイタマシチュウオウク","town":"大戸","town_kana":"オオト","prefecture_code":11},"0001":{"zip_code":"3380001","prefecture":"埼玉県","prefecture_kana":"サイタマケン","city":"さいたま市中央区","city_kana":"サイタマシチュウオウク","town":"上落合","town_kana":"カミオチアイ","prefecture_code":11},"0005":{"zip_code":"3380005","prefecture":"埼玉県","prefecture_kana":"サイタマケン","city":"さいたま市中央区","city_kana":"サイタマシチュウオウク","town":"桜丘","town_kana":"サクラオカ","prefecture_code":11},"0002":{"zip_code":"3380002","prefecture":"埼玉県","prefecture_kana":"サイタマケン","city":"さいたま市中央区","city_kana":"サイタマシチュウオウク","town":"下落合","town_kana":"シモオチアイ","prefecture_code":11},"0011":{"zip_code":"3380011","prefecture":"埼玉県","prefecture_kana":"サイタマケン","city":"さいたま市中央区","city_kana":"サイタマシチュウオウク","town":"新中里","town_kana":"シンナカザト","prefecture_code":11},"0013":{"zip_code":"3380013","prefecture":"埼玉県","prefecture_kana":"サイタマケン","city":"さいたま市中央区","city_kana":"サイタマシチュウオウク","town":"鈴谷","town_kana":"スズヤ","prefecture_code":11},"0006":{"zip_code":"3380006","prefecture":"埼玉県","prefecture_kana":"サイタマケン","city":"さいたま市中央区","city_kana":"サイタマシチュウオウク","town":"八王子","town_kana":"ハチオウジ","prefecture_code":11},"0004":{"zip_code":"3380004","prefecture":"埼玉県","prefecture_kana":"サイタマケン","city":"さいたま市中央区","city_kana":"サイタマシチュウオウク","town":"本町西","town_kana":"ホンマチニシ","prefecture_code":11},"0003":{"zip_code":"3380003","prefecture":"埼玉県","prefecture_kana":"サイタマケン","city":"さいたま市中央区","city_kana":"サイタマシチュウオウク","town":"本町東","town_kana":"ホンマチヒガシ","prefecture_code":11},"0800":{"zip_code":"3380800","prefecture":"埼玉県","prefecture_kana":"サイタマケン","city":"さいたま市桜区","city_kana":"サイタマシサクラク","town":"以下に掲載がない場合","town_kana":"イカニケイサイガナイバアイ","prefecture_code":11},"0826":{"zip_code":"3380826","prefecture":"埼玉県","prefecture_kana":"サイタマケン","city":"さいたま市桜区","city_kana":"サイタマシサクラク","town":"大久保領家","town_kana":"オオクボリョウケ","prefecture_code":11},"0824":{"zip_code":"3380824","prefecture":"埼玉県","prefecture_kana":"サイタマケン","city":"さいたま市桜区","city_kana":"サイタマシサクラク","town":"上大久保","town_kana":"カミオオクボ","prefecture_code":11},"0815":{"zip_code":"3380815","prefecture":"埼玉県","prefecture_kana":"サイタマケン","city":"さいたま市桜区","city_kana":"サイタマシサクラク","town":"五関","town_kana":"ゴセキ","prefecture_code":11},"0813":{"zip_code":"3380813","prefecture":"埼玉県","prefecture_kana":"サイタマケン","city":"さいたま市桜区","city_kana":"サイタマシサクラク","town":"在家","town_kana":"ザイケ","prefecture_code":11},"0823":{"zip_code":"3380823","prefecture":"埼玉県","prefecture_kana":"サイタマケン","city":"さいたま市桜区","city_kana":"サイタマシサクラク","town":"栄和","town_kana":"サカワ","prefecture_code":11},"0833":{"zip_code":"3380833","prefecture":"埼玉県","prefecture_kana":"サイタマケン","city":"さいたま市桜区","city_kana":"サイタマシサクラク","town":"桜田","town_kana":"サクラダ","prefecture_code":11},"0834":{"zip_code":"3380834","prefecture":"埼玉県","prefecture_kana":"サイタマケン","city":"さいたま市桜区","city_kana":"サイタマシサクラク","town":"新開","town_kana":"シビラキ","prefecture_code":11},"0825":{"zip_code":"3380825","prefecture":"埼玉県","prefecture_kana":"サイタマケン","city":"さいたま市桜区","city_kana":"サイタマシサクラク","town":"下大久保","town_kana":"シモオオクボ","prefecture_code":11},"0814":{"zip_code":"3380814","prefecture":"埼玉県","prefecture_kana":"サイタマケン","city":"さいたま市桜区","city_kana":"サイタマシサクラク","town":"宿","town_kana":"シュク","prefecture_code":11},"0817":{"zip_code":"3380817","prefecture":"埼玉県","prefecture_kana":"サイタマケン","city":"さいたま市桜区","city_kana":"サイタマシサクラク","town":"昭和","town_kana":"ショウワ","prefecture_code":11},"0811":{"zip_code":"3380811","prefecture":"埼玉県","prefecture_kana":"サイタマケン","city":"さいたま市桜区","city_kana":"サイタマシサクラク","town":"白鍬","town_kana":"シラクワ","prefecture_code":11},"0812":{"zip_code":"3380812","prefecture":"埼玉県","prefecture_kana":"サイタマケン","city":"さいたま市桜区","city_kana":"サイタマシサクラク","town":"神田","town_kana":"ジンデ","prefecture_code":11},"0837":{"zip_code":"3380837","prefecture":"埼玉県","prefecture_kana":"サイタマケン","city":"さいたま市桜区","city_kana":"サイタマシサクラク","town":"田島","town_kana":"タジマ","prefecture_code":11},"0816":{"zip_code":"3380816","prefecture":"埼玉県","prefecture_kana":"サイタマケン","city":"さいたま市桜区","city_kana":"サイタマシサクラク","town":"塚本","town_kana":"ツカモト","prefecture_code":11},"0835":{"zip_code":"3380835","prefecture":"埼玉県","prefecture_kana":"サイタマケン","city":"さいたま市桜区","city_kana":"サイタマシサクラク","town":"道場","town_kana":"ドウジョウ","prefecture_code":11},"0822":{"zip_code":"3380822","prefecture":"埼玉県","prefecture_kana":"サイタマケン","city":"さいたま市桜区","city_kana":"サイタマシサクラク","town":"中島","town_kana":"ナカジマ","prefecture_code":11},"0832":{"zip_code":"3380832","prefecture":"埼玉県","prefecture_kana":"サイタマケン","city":"さいたま市桜区","city_kana":"サイタマシサクラク","town":"西堀","town_kana":"ニシボリ","prefecture_code":11},"0836":{"zip_code":"3380836","prefecture":"埼玉県","prefecture_kana":"サイタマケン","city":"さいたま市桜区","city_kana":"サイタマシサクラク","town":"町谷","town_kana":"マチヤ","prefecture_code":11},"0831":{"zip_code":"3380831","prefecture":"埼玉県","prefecture_kana":"サイタマケン","city":"さいたま市桜区","city_kana":"サイタマシサクラク","town":"南元宿","town_kana":"ミナミモトジュク","prefecture_code":11},"0821":{"zip_code":"3380821","prefecture":"埼玉県","prefecture_kana":"サイタマケン","city":"さいたま市桜区","city_kana":"サイタマシサクラク","town":"山久保","town_kana":"ヤマクボ","prefecture_code":11}}