{"0000":{"zip_code":"3390000","prefecture":"埼玉県","prefecture_kana":"サイタマケン","city":"さいたま市岩槻区","city_kana":"サイタマシイワツキク","town":"","town_kana":"","prefecture_code":11},"0071":{"zip_code":"3390071","prefecture":"埼玉県","prefecture_kana":"サイタマケン","city":"さいたま市岩槻区","city_kana":"サイタマシイワツキク","town":"相野原","town_kana":"アイノハラ","prefecture_code":11},"0066":{"zip_code":"3390066","prefecture":"埼玉県","prefecture_kana":"サイタマケン","city":"さいたま市岩槻区","city_kana":"サイタマシイワツキク","town":"愛宕町","town_kana":"アタゴチョウ","prefecture_code":11},"0031":{"zip_code":"3390031","prefecture":"埼玉県","prefecture_kana":"サイタマケン","city":"さいたま市岩槻区","city_kana":"サイタマシイワツキク","town":"飯塚","town_kana":"イイヅカ","prefecture_code":11},"0061":{"zip_code":"3390061","prefecture":"埼玉県","prefecture_kana":"サイタマケン","city":"さいたま市岩槻区","city_kana":"サイタマシイワツキク","town":"岩槻","town_kana":"イワツキ","prefecture_code":11},"0073":{"zip_code":"3390073","prefecture":"埼玉県","prefecture_kana":"サイタマケン","city":"さいたま市岩槻区","city_kana":"サイタマシイワツキク","town":"上野","town_kana":"ウエノ","prefecture_code":11},"0037":{"zip_code":"3390037","prefecture":"埼玉県","prefecture_kana":"サイタマケン","city":"さいたま市岩槻区","city_kana":"サイタマシイワツキク","town":"浮谷","town_kana":"ウキヤ","prefecture_code":11},"0002":{"zip_code":"3390002","prefecture":"埼玉県","prefecture_kana":"サイタマケン","city":"さいたま市岩槻区","city_kana":"サイタマシイワツキク","town":"裏慈恩寺","town_kana":"ウラジオンジ","prefecture_code":11},"0013":{"zip_code":"3390013","prefecture":"埼玉県","prefecture_kana":"サイタマケン","city":"さいたま市岩槻区","city_kana":"サイタマシイワツキク","town":"大口","town_kana":"オオグチ","prefecture_code":11},"0052":{"zip_code":"3390052","prefecture":"埼玉県","prefecture_kana":"サイタマケン","city":"さいたま市岩槻区","city_kana":"サイタマシイワツキク","town":"太田","town_kana":"オオタ","prefecture_code":11},"0014":{"zip_code":"3390014","prefecture":"埼玉県","prefecture_kana":"サイタマケン","city":"さいたま市岩槻区","city_kana":"サイタマシイワツキク","town":"大戸","town_kana":"オオト","prefecture_code":11},"0018":{"zip_code":"3390018","prefecture":"埼玉県","prefecture_kana":"サイタマケン","city":"さいたま市岩槻区","city_kana":"サイタマシイワツキク","town":"大野島","town_kana":"オオノジマ","prefecture_code":11},"0017":{"zip_code":"3390017","prefecture":"埼玉県","prefecture_kana":"サイタマケン","city":"さいたま市岩槻区","city_kana":"サイタマシイワツキク","town":"大森","town_kana":"オオモリ","prefecture_code":11},"0015":{"zip_code":"3390015","prefecture":"埼玉県","prefecture_kana":"サイタマケン","city":"さいたま市岩槻区","city_kana":"サイタマシイワツキク","town":"大谷","town_kana":"オオヤ","prefecture_code":11},"0027":{"zip_code":"3390027","prefecture":"埼玉県","prefecture_kana":"サイタマケン","city":"さいたま市岩槻区","city_kana":"サイタマシイワツキク","town":"尾ケ崎","town_kana":"オガサキ","prefecture_code":11},"0026":{"zip_code":"3390026","prefecture":"埼玉県","prefecture_kana":"サイタマケン","city":"さいたま市岩槻区","city_kana":"サイタマシイワツキク","town":"尾ケ崎新田","town_kana":"オガサキシンデン","prefecture_code":11},"0008":{"zip_code":"3390008","prefecture":"埼玉県","prefecture_kana":"サイタマケン","city":"さいたま市岩槻区","city_kana":"サイタマシイワツキク","town":"表慈恩寺","town_kana":"オモテジオンジ","prefecture_code":11},"0024":{"zip_code":"3390024","prefecture":"埼玉県","prefecture_kana":"サイタマケン","city":"さいたま市岩槻区","city_kana":"サイタマシイワツキク","town":"釣上","town_kana":"カギアゲ","prefecture_code":11},"0025":{"zip_code":"3390025","prefecture":"埼玉県","prefecture_kana":"サイタマケン","city":"さいたま市岩槻区","city_kana":"サイタマシイワツキク","town":"釣上新田","town_kana":"カギアゲシンデン","prefecture_code":11},"0056":{"zip_code":"3390056","prefecture":"埼玉県","prefecture_kana":"サイタマケン","city":"さいたま市岩槻区","city_kana":"サイタマシイワツキク","town":"加倉","town_kana":"カクラ","prefecture_code":11},"0078":{"zip_code":"3390078","prefecture":"埼玉県","prefecture_kana":"サイタマケン","city":"さいたま市岩槻区","city_kana":"サイタマシイワツキク","town":"掛","town_kana":"カケ","prefecture_code":11},"0045":{"zip_code":"3390045","prefecture":"埼玉県","prefecture_kana":"サイタマケン","city":"さいたま市岩槻区","city_kana":"サイタマシイワツキク","town":"柏崎","town_kana":"カシワザキ","prefecture_code":11},"0075":{"zip_code":"3390075","prefecture":"埼玉県","prefecture_kana":"サイタマケン","city":"さいたま市岩槻区","city_kana":"サイタマシイワツキク","town":"金重","town_kana":"カナシゲ","prefecture_code":11},"0001":{"zip_code":"3390001","prefecture":"埼玉県","prefecture_kana":"サイタマケン","city":"さいたま市岩槻区","city_kana":"サイタマシイワツキク","town":"鹿室","town_kana":"カナムロ","prefecture_code":11},"0006":{"zip_code":"3390006","prefecture":"埼玉県","prefecture_kana":"サイタマケン","city":"さいたま市岩槻区","city_kana":"サイタマシイワツキク","town":"上里","town_kana":"カミサト","prefecture_code":11},"0033":{"zip_code":"3390033","prefecture":"埼玉県","prefecture_kana":"サイタマケン","city":"さいたま市岩槻区","city_kana":"サイタマシイワツキク","town":"黒谷","town_kana":"クロヤ","prefecture_code":11},"0072":{"zip_code":"3390072","prefecture":"埼玉県","prefecture_kana":"サイタマケン","city":"さいたま市岩槻区","city_kana":"サイタマシイワツキク","town":"古ケ場","town_kana":"コカバ","prefecture_code":11},"0003":{"zip_code":"3390003","prefecture":"埼玉県","prefecture_kana":"サイタマケン","city":"さいたま市岩槻区","city_kana":"サイタマシイワツキク","town":"小溝","town_kana":"コミゾ","prefecture_code":11},"0034":{"zip_code":"3390034","prefecture":"埼玉県","prefecture_kana":"サイタマケン","city":"さいたま市岩槻区","city_kana":"サイタマシイワツキク","town":"笹久保","town_kana":"ササクボ","prefecture_code":11},"0035":{"zip_code":"3390035","prefecture":"埼玉県","prefecture_kana":"サイタマケン","city":"さいたま市岩槻区","city_kana":"サイタマシイワツキク","town":"笹久保新田","town_kana":"ササクボシンデン","prefecture_code":11},"0009":{"zip_code":"3390009","prefecture":"埼玉県","prefecture_kana":"サイタマケン","city":"さいたま市岩槻区","city_kana":"サイタマシイワツキク","town":"慈恩寺","town_kana":"ジオンジ","prefecture_code":11},"0043":{"zip_code":"3390043","prefecture":"埼玉県","prefecture_kana":"サイタマケン","city":"さいたま市岩槻区","city_kana":"サイタマシイワツキク","town":"城南","town_kana":"ジョウナン","prefecture_code":11},"0053":{"zip_code":"3390053","prefecture":"埼玉県","prefecture_kana":"サイタマケン","city":"さいたま市岩槻区","city_kana":"サイタマシイワツキク","town":"城町","town_kana":"シロマチ","prefecture_code":11},"0044":{"zip_code":"3390044","prefecture":"埼玉県","prefecture_kana":"サイタマケン","city":"さいたま市岩槻区","city_kana":"サイタマシイワツキク","town":"真福寺","town_kana":"シンプクジ","prefecture_code":11},"0021":{"zip_code":"3390021","prefecture":"埼玉県","prefecture_kana":"サイタマケン","city":"さいたま市岩槻区","city_kana":"サイタマシイワツキク","town":"末田","town_kana":"スエダ","prefecture_code":11},"0007":{"zip_code":"3390007","prefecture":"埼玉県","prefecture_kana":"サイタマケン","city":"さいたま市岩槻区","city_kana":"サイタマシイワツキク","town":"諏訪","town_kana":"スワ","prefecture_code":11},"0022":{"zip_code":"3390022","prefecture":"埼玉県","prefecture_kana":"サイタマケン","city":"さいたま市岩槻区","city_kana":"サイタマシイワツキク","town":"高曽根","town_kana":"タカソネ","prefecture_code":11},"0004":{"zip_code":"3390004","prefecture":"埼玉県","prefecture_kana":"サイタマケン","city":"さいたま市岩槻区","city_kana":"サイタマシイワツキク","town":"徳力","town_kana":"トクリキ","prefecture_code":11},"0054":{"zip_code":"3390054","prefecture":"埼玉県","prefecture_kana":"サイタマケン","city":"さいたま市岩槻区","city_kana":"サイタマシイワツキク","town":"仲町","town_kana":"ナカチョウ","prefecture_code":11},"0011":{"zip_code":"3390011","prefecture":"埼玉県","prefecture_kana":"サイタマケン","city":"さいたま市岩槻区","city_kana":"サイタマシイワツキク","town":"長宮","town_kana":"ナガミヤ","prefecture_code":11},"0068":{"zip_code":"3390068","prefecture":"埼玉県","prefecture_kana":"サイタマケン","city":"さいたま市岩槻区","city_kana":"サイタマシイワツキク","town":"並木","town_kana":"ナミキ","prefecture_code":11},"0016":{"zip_code":"3390016","prefecture":"埼玉県","prefecture_kana":"サイタマケン","city":"さいたま市岩槻区","city_kana":"サイタマシイワツキク","town":"新方須賀","town_kana":"ニイガタスカ","prefecture_code":11},"0081":{"zip_code":"3390081","prefecture":"埼玉県","prefecture_kana":"サイタマケン","city":"さいたま市岩槻区","city_kana":"サイタマシイワツキク","town":"西原","town_kana":"ニシハラ","prefecture_code":11},"0082":{"zip_code":"3390082","prefecture":"埼玉県","prefecture_kana":"サイタマケン","city":"さいたま市岩槻区","city_kana":"サイタマシイワツキク","town":"西原台","town_kana":"ニシハラダイ","prefecture_code":11},"0067":{"zip_code":"3390067","prefecture":"埼玉県","prefecture_kana":"サイタマケン","city":"さいたま市岩槻区","city_kana":"サイタマシイワツキク","town":"西町","town_kana":"ニシマチ","prefecture_code":11},"0023":{"zip_code":"3390023","prefecture":"埼玉県","prefecture_kana":"サイタマケン","city":"さいたま市岩槻区","city_kana":"サイタマシイワツキク","town":"野孫","town_kana":"ノマゴ","prefecture_code":11},"0047":{"zip_code":"3390047","prefecture":"埼玉県","prefecture_kana":"サイタマケン","city":"さいたま市岩槻区","city_kana":"サイタマシイワツキク","town":"原町","town_kana":"ハラマチ","prefecture_code":11},"0005":{"zip_code":"3390005","prefecture":"埼玉県","prefecture_kana":"サイタマケン","city":"さいたま市岩槻区","city_kana":"サイタマシイワツキク","town":"東岩槻","town_kana":"ヒガシイワツキ","prefecture_code":11},"0055":{"zip_code":"3390055","prefecture":"埼玉県","prefecture_kana":"サイタマケン","city":"さいたま市岩槻区","city_kana":"サイタマシイワツキク","town":"東町","town_kana":"ヒガシチョウ","prefecture_code":11},"0064":{"zip_code":"3390064","prefecture":"埼玉県","prefecture_kana":"サイタマケン","city":"さいたま市岩槻区","city_kana":"サイタマシイワツキク","town":"日の出町","town_kana":"ヒノデチョウ","prefecture_code":11},"0042":{"zip_code":"3390042","prefecture":"埼玉県","prefecture_kana":"サイタマケン","city":"さいたま市岩槻区","city_kana":"サイタマシイワツキク","town":"府内","town_kana":"フナイ","prefecture_code":11},"0076":{"zip_code":"3390076","prefecture":"埼玉県","prefecture_kana":"サイタマケン","city":"さいたま市岩槻区","city_kana":"サイタマシイワツキク","town":"平林寺","town_kana":"ヘイリンジ","prefecture_code":11},"0074":{"zip_code":"3390074","prefecture":"埼玉県","prefecture_kana":"サイタマケン","city":"さいたま市岩槻区","city_kana":"サイタマシイワツキク","town":"本宿","town_kana":"ホンジュク","prefecture_code":11},"0057":{"zip_code":"3390057","prefecture":"埼玉県","prefecture_kana":"サイタマケン","city":"さいたま市岩槻区","city_kana":"サイタマシイワツキク","town":"本町","town_kana":"ホンチョウ","prefecture_code":11},"0058":{"zip_code":"3390058","prefecture":"埼玉県","prefecture_kana":"サイタマケン","city":"さいたま市岩槻区","city_kana":"サイタマシイワツキク","town":"本丸","town_kana":"ホンマル","prefecture_code":11},"0077":{"zip_code":"3390077","prefecture":"埼玉県","prefecture_kana":"サイタマケン","city":"さいたま市岩槻区","city_kana":"サイタマシイワツキク","town":"馬込","town_kana":"マゴメ","prefecture_code":11},"0012":{"zip_code":"3390012","prefecture":"埼玉県","prefecture_kana":"サイタマケン","city":"さいたま市岩槻区","city_kana":"サイタマシイワツキク","town":"増長","town_kana":"マシナガ","prefecture_code":11},"0032":{"zip_code":"3390032","prefecture":"埼玉県","prefecture_kana":"サイタマケン","city":"さいたま市岩槻区","city_kana":"サイタマシイワツキク","town":"南下新井","town_kana":"ミナミシモアライ","prefecture_code":11},"0062":{"zip_code":"3390062","prefecture":"埼玉県","prefecture_kana":"サイタマケン","city":"さいたま市岩槻区","city_kana":"サイタマシイワツキク","town":"南辻","town_kana":"ミナミツジ","prefecture_code":11},"0051":{"zip_code":"3390051","prefecture":"埼玉県","prefecture_kana":"サイタマケン","city":"さいたま市岩槻区","city_kana":"サイタマシイワツキク","town":"南平野","town_kana":"ミナミヒラノ","prefecture_code":11},"0069":{"zip_code":"3390069","prefecture":"埼玉県","prefecture_kana":"サイタマケン","city":"さいたま市岩槻区","city_kana":"サイタマシイワツキク","town":"箕輪","town_kana":"ミノワ","prefecture_code":11},"0065":{"zip_code":"3390065","prefecture":"埼玉県","prefecture_kana":"サイタマケン","city":"さいたま市岩槻区","city_kana":"サイタマシイワツキク","town":"宮町","town_kana":"ミヤチョウ","prefecture_code":11},"0063":{"zip_code":"3390063","prefecture":"埼玉県","prefecture_kana":"サイタマケン","city":"さいたま市岩槻区","city_kana":"サイタマシイワツキク","town":"美幸町","town_kana":"ミユキチョウ","prefecture_code":11},"0041":{"zip_code":"3390041","prefecture":"埼玉県","prefecture_kana":"サイタマケン","city":"さいたま市岩槻区","city_kana":"サイタマシイワツキク","town":"村国","town_kana":"ムラクニ","prefecture_code":11},"0046":{"zip_code":"3390046","prefecture":"埼玉県","prefecture_kana":"サイタマケン","city":"さいたま市岩槻区","city_kana":"サイタマシイワツキク","town":"谷下","town_kana":"ヤジタ","prefecture_code":11},"0036":{"zip_code":"3390036","prefecture":"埼玉県","prefecture_kana":"サイタマケン","city":"さいたま市岩槻区","city_kana":"サイタマシイワツキク","town":"横根","town_kana":"ヨコネ","prefecture_code":11}}