{"0000":{"zip_code":"3410000","prefecture":"埼玉県","prefecture_kana":"サイタマケン","city":"三郷市","city_kana":"ミサトシ","town":"以下に掲載がない場合","town_kana":"イカニケイサイガナイバアイ","prefecture_code":11},"0036":{"zip_code":"3410036","prefecture":"埼玉県","prefecture_kana":"サイタマケン","city":"三郷市","city_kana":"ミサトシ","town":"東町","town_kana":"アズマチョウ","prefecture_code":11},"0054":{"zip_code":"3410054","prefecture":"埼玉県","prefecture_kana":"サイタマケン","city":"三郷市","city_kana":"ミサトシ","town":"泉","town_kana":"イズミ","prefecture_code":11},"0033":{"zip_code":"3410033","prefecture":"埼玉県","prefecture_kana":"サイタマケン","city":"三郷市","city_kana":"ミサトシ","town":"市助","town_kana":"イチスケ","prefecture_code":11},"0031":{"zip_code":"3410031","prefecture":"埼玉県","prefecture_kana":"サイタマケン","city":"三郷市","city_kana":"ミサトシ","town":"岩野木","town_kana":"イワノキ","prefecture_code":11},"0059":{"zip_code":"3410059","prefecture":"埼玉県","prefecture_kana":"サイタマケン","city":"三郷市","city_kana":"ミサトシ","town":"インター南","town_kana":"インターミナミ","prefecture_code":11},"0014":{"zip_code":"3410014","prefecture":"埼玉県","prefecture_kana":"サイタマケン","city":"三郷市","city_kana":"ミサトシ","town":"後谷","town_kana":"ウシロヤ","prefecture_code":11},"0011":{"zip_code":"3410011","prefecture":"埼玉県","prefecture_kana":"サイタマケン","city":"三郷市","city_kana":"ミサトシ","town":"采女","town_kana":"ウネメ","prefecture_code":11},"0022":{"zip_code":"3410022","prefecture":"埼玉県","prefecture_kana":"サイタマケン","city":"三郷市","city_kana":"ミサトシ","town":"大広戸","town_kana":"オオヒロト","prefecture_code":11},"0046":{"zip_code":"3410046","prefecture":"埼玉県","prefecture_kana":"サイタマケン","city":"三郷市","city_kana":"ミサトシ","town":"鎌倉","town_kana":"カマクラ","prefecture_code":11},"0055":{"zip_code":"3410055","prefecture":"埼玉県","prefecture_kana":"サイタマケン","city":"三郷市","city_kana":"ミサトシ","town":"上口","town_kana":"カミグチ","prefecture_code":11},"0006":{"zip_code":"3410006","prefecture":"埼玉県","prefecture_kana":"サイタマケン","city":"三郷市","city_kana":"ミサトシ","town":"上彦川戸","town_kana":"カミヒコカワド","prefecture_code":11},"0004":{"zip_code":"3410004","prefecture":"埼玉県","prefecture_kana":"サイタマケン","city":"三郷市","city_kana":"ミサトシ","town":"上彦名","town_kana":"カミヒコナ","prefecture_code":11},"0026":{"zip_code":"3410026","prefecture":"埼玉県","prefecture_kana":"サイタマケン","city":"三郷市","city_kana":"ミサトシ","town":"幸房","town_kana":"コウボウ","prefecture_code":11},"0008":{"zip_code":"3410008","prefecture":"埼玉県","prefecture_kana":"サイタマケン","city":"三郷市","city_kana":"ミサトシ","town":"駒形","town_kana":"コマガタ","prefecture_code":11},"0013":{"zip_code":"3410013","prefecture":"埼玉県","prefecture_kana":"サイタマケン","city":"三郷市","city_kana":"ミサトシ","town":"小谷堀","town_kana":"コヤボリ","prefecture_code":11},"0043":{"zip_code":"3410043","prefecture":"埼玉県","prefecture_kana":"サイタマケン","city":"三郷市","city_kana":"ミサトシ","town":"栄","town_kana":"サカエ","prefecture_code":11},"0027":{"zip_code":"3410027","prefecture":"埼玉県","prefecture_kana":"サイタマケン","city":"三郷市","city_kana":"ミサトシ","town":"笹塚","town_kana":"ササヅカ","prefecture_code":11},"0021":{"zip_code":"3410021","prefecture":"埼玉県","prefecture_kana":"サイタマケン","city":"三郷市","city_kana":"ミサトシ","town":"さつき平","town_kana":"サツキダイラ","prefecture_code":11},"0007":{"zip_code":"3410007","prefecture":"埼玉県","prefecture_kana":"サイタマケン","city":"三郷市","city_kana":"ミサトシ","town":"下彦川戸","town_kana":"シモヒコカワド","prefecture_code":11},"0009":{"zip_code":"3410009","prefecture":"埼玉県","prefecture_kana":"サイタマケン","city":"三郷市","city_kana":"ミサトシ","town":"新三郷ららシティ","town_kana":"シンミサトララシティ","prefecture_code":11},"0034":{"zip_code":"3410034","prefecture":"埼玉県","prefecture_kana":"サイタマケン","city":"三郷市","city_kana":"ミサトシ","town":"新和","town_kana":"シンワ","prefecture_code":11},"0015":{"zip_code":"3410015","prefecture":"埼玉県","prefecture_kana":"サイタマケン","city":"三郷市","city_kana":"ミサトシ","town":"前間","town_kana":"ゼンマ","prefecture_code":11},"0037":{"zip_code":"3410037","prefecture":"埼玉県","prefecture_kana":"サイタマケン","city":"三郷市","city_kana":"ミサトシ","town":"高州","town_kana":"タカス","prefecture_code":11},"0035":{"zip_code":"3410035","prefecture":"埼玉県","prefecture_kana":"サイタマケン","city":"三郷市","city_kana":"ミサトシ","town":"鷹野","town_kana":"タカノ","prefecture_code":11},"0016":{"zip_code":"3410016","prefecture":"埼玉県","prefecture_kana":"サイタマケン","city":"三郷市","city_kana":"ミサトシ","town":"田中新田","town_kana":"タナカシンデン","prefecture_code":11},"0017":{"zip_code":"3410017","prefecture":"埼玉県","prefecture_kana":"サイタマケン","city":"三郷市","city_kana":"ミサトシ","town":"丹後","town_kana":"タンゴ","prefecture_code":11},"0038":{"zip_code":"3410038","prefecture":"埼玉県","prefecture_kana":"サイタマケン","city":"三郷市","city_kana":"ミサトシ","town":"中央","town_kana":"チュウオウ","prefecture_code":11},"0051":{"zip_code":"3410051","prefecture":"埼玉県","prefecture_kana":"サイタマケン","city":"三郷市","city_kana":"ミサトシ","town":"天神","town_kana":"テンジン","prefecture_code":11},"0044":{"zip_code":"3410044","prefecture":"埼玉県","prefecture_kana":"サイタマケン","city":"三郷市","city_kana":"ミサトシ","town":"戸ケ崎","town_kana":"トガサキ","prefecture_code":11},"0023":{"zip_code":"3410023","prefecture":"埼玉県","prefecture_kana":"サイタマケン","city":"三郷市","city_kana":"ミサトシ","town":"仁蔵","town_kana":"ニゾウ","prefecture_code":11},"0041":{"zip_code":"3410041","prefecture":"埼玉県","prefecture_kana":"サイタマケン","city":"三郷市","city_kana":"ミサトシ","town":"花和田","town_kana":"ハナワダ","prefecture_code":11},"0056":{"zip_code":"3410056","prefecture":"埼玉県","prefecture_kana":"サイタマケン","city":"三郷市","city_kana":"ミサトシ","town":"番匠免","town_kana":"バンショウメン","prefecture_code":11},"0012":{"zip_code":"3410012","prefecture":"埼玉県","prefecture_kana":"サイタマケン","city":"三郷市","city_kana":"ミサトシ","town":"半田","town_kana":"ハンタ","prefecture_code":11},"0050":{"zip_code":"3410050","prefecture":"埼玉県","prefecture_kana":"サイタマケン","city":"三郷市","city_kana":"ミサトシ","town":"ピアラシティ","town_kana":"ピアラシティ","prefecture_code":11},"0001":{"zip_code":"3410001","prefecture":"埼玉県","prefecture_kana":"サイタマケン","city":"三郷市","city_kana":"ミサトシ","town":"彦糸","town_kana":"ヒコイト","prefecture_code":11},"0058":{"zip_code":"3410058","prefecture":"埼玉県","prefecture_kana":"サイタマケン","city":"三郷市","city_kana":"ミサトシ","town":"彦江","town_kana":"ヒコエ","prefecture_code":11},"0002":{"zip_code":"3410002","prefecture":"埼玉県","prefecture_kana":"サイタマケン","city":"三郷市","city_kana":"ミサトシ","town":"彦音","town_kana":"ヒコオト","prefecture_code":11},"0005":{"zip_code":"3410005","prefecture":"埼玉県","prefecture_kana":"サイタマケン","city":"三郷市","city_kana":"ミサトシ","town":"彦川戸","town_kana":"ヒコカワド","prefecture_code":11},"0053":{"zip_code":"3410053","prefecture":"埼玉県","prefecture_kana":"サイタマケン","city":"三郷市","city_kana":"ミサトシ","town":"彦倉","town_kana":"ヒコクラ","prefecture_code":11},"0057":{"zip_code":"3410057","prefecture":"埼玉県","prefecture_kana":"サイタマケン","city":"三郷市","city_kana":"ミサトシ","town":"彦沢","town_kana":"ヒコサワ","prefecture_code":11},"0003":{"zip_code":"3410003","prefecture":"埼玉県","prefecture_kana":"サイタマケン","city":"三郷市","city_kana":"ミサトシ","town":"彦成","town_kana":"ヒコナリ","prefecture_code":11},"0052":{"zip_code":"3410052","prefecture":"埼玉県","prefecture_kana":"サイタマケン","city":"三郷市","city_kana":"ミサトシ","town":"彦野","town_kana":"ヒコノ","prefecture_code":11},"0024":{"zip_code":"3410024","prefecture":"埼玉県","prefecture_kana":"サイタマケン","city":"三郷市","city_kana":"ミサトシ","town":"三郷","town_kana":"ミサト","prefecture_code":11},"0028":{"zip_code":"3410028","prefecture":"埼玉県","prefecture_kana":"サイタマケン","city":"三郷市","city_kana":"ミサトシ","town":"南蓮沼","town_kana":"ミナミハスヌマ","prefecture_code":11},"0025":{"zip_code":"3410025","prefecture":"埼玉県","prefecture_kana":"サイタマケン","city":"三郷市","city_kana":"ミサトシ","town":"茂田井","town_kana":"モタイ","prefecture_code":11},"0042":{"zip_code":"3410042","prefecture":"埼玉県","prefecture_kana":"サイタマケン","city":"三郷市","city_kana":"ミサトシ","town":"谷口","town_kana":"ヤグチ","prefecture_code":11},"0032":{"zip_code":"3410032","prefecture":"埼玉県","prefecture_kana":"サイタマケン","city":"三郷市","city_kana":"ミサトシ","town":"谷中","town_kana":"ヤナカ","prefecture_code":11},"0045":{"zip_code":"3410045","prefecture":"埼玉県","prefecture_kana":"サイタマケン","city":"三郷市","city_kana":"ミサトシ","town":"寄巻","town_kana":"ヨマキ","prefecture_code":11},"0018":{"zip_code":"3410018","prefecture":"埼玉県","prefecture_kana":"サイタマケン","city":"三郷市","city_kana":"ミサトシ","town":"早稲田","town_kana":"ワセダ","prefecture_code":11}}