{"0000":{"zip_code":"3430000","prefecture":"埼玉県","prefecture_kana":"サイタマケン","city":"越谷市","city_kana":"コシガヤシ","town":"","town_kana":"","prefecture_code":11},"0807":{"zip_code":"3430807","prefecture":"埼玉県","prefecture_kana":"サイタマケン","city":"越谷市","city_kana":"コシガヤシ","town":"赤山町","town_kana":"アカヤマチョウ","prefecture_code":11},"0808":{"zip_code":"3430808","prefecture":"埼玉県","prefecture_kana":"サイタマケン","city":"越谷市","city_kana":"コシガヤシ","town":"赤山本町","town_kana":"アカヤマホンチョウ","prefecture_code":11},"0826":{"zip_code":"3430826","prefecture":"埼玉県","prefecture_kana":"サイタマケン","city":"越谷市","city_kana":"コシガヤシ","town":"東町","town_kana":"アズマチョウ","prefecture_code":11},"0831":{"zip_code":"3430831","prefecture":"埼玉県","prefecture_kana":"サイタマケン","city":"越谷市","city_kana":"コシガヤシ","town":"伊原","town_kana":"イハラ","prefecture_code":11},"0025":{"zip_code":"3430025","prefecture":"埼玉県","prefecture_kana":"サイタマケン","city":"越谷市","city_kana":"コシガヤシ","town":"大沢","town_kana":"オオサワ","prefecture_code":11},"0031":{"zip_code":"3430031","prefecture":"埼玉県","prefecture_kana":"サイタマケン","city":"越谷市","city_kana":"コシガヤシ","town":"大里","town_kana":"オオザト","prefecture_code":11},"0005":{"zip_code":"3430005","prefecture":"埼玉県","prefecture_kana":"サイタマケン","city":"越谷市","city_kana":"コシガヤシ","town":"大杉","town_kana":"オオスギ","prefecture_code":11},"0034":{"zip_code":"3430034","prefecture":"埼玉県","prefecture_kana":"サイタマケン","city":"越谷市","city_kana":"コシガヤシ","town":"大竹","town_kana":"オオタケ","prefecture_code":11},"0044":{"zip_code":"3430044","prefecture":"埼玉県","prefecture_kana":"サイタマケン","city":"越谷市","city_kana":"コシガヤシ","town":"大泊","town_kana":"オオドマリ","prefecture_code":11},"0021":{"zip_code":"3430021","prefecture":"埼玉県","prefecture_kana":"サイタマケン","city":"越谷市","city_kana":"コシガヤシ","town":"大林","town_kana":"オオバヤシ","prefecture_code":11},"0027":{"zip_code":"3430027","prefecture":"埼玉県","prefecture_kana":"サイタマケン","city":"越谷市","city_kana":"コシガヤシ","town":"大房","town_kana":"オオフサ","prefecture_code":11},"0004":{"zip_code":"3430004","prefecture":"埼玉県","prefecture_kana":"サイタマケン","city":"越谷市","city_kana":"コシガヤシ","town":"大松","town_kana":"オオマツ","prefecture_code":11},"0844":{"zip_code":"3430844","prefecture":"埼玉県","prefecture_kana":"サイタマケン","city":"越谷市","city_kana":"コシガヤシ","town":"大間野町","town_kana":"オオマノチョウ","prefecture_code":11},"0035":{"zip_code":"3430035","prefecture":"埼玉県","prefecture_kana":"サイタマケン","city":"越谷市","city_kana":"コシガヤシ","town":"大道","town_kana":"オオミチ","prefecture_code":11},"0008":{"zip_code":"3430008","prefecture":"埼玉県","prefecture_kana":"サイタマケン","city":"越谷市","city_kana":"コシガヤシ","town":"大吉","town_kana":"オオヨシ","prefecture_code":11},"0802":{"zip_code":"3430802","prefecture":"埼玉県","prefecture_kana":"サイタマケン","city":"越谷市","city_kana":"コシガヤシ","town":"小曽川","town_kana":"オソガワ","prefecture_code":11},"0033":{"zip_code":"3430033","prefecture":"埼玉県","prefecture_kana":"サイタマケン","city":"越谷市","city_kana":"コシガヤシ","town":"恩間","town_kana":"オンマ","prefecture_code":11},"0037":{"zip_code":"3430037","prefecture":"埼玉県","prefecture_kana":"サイタマケン","city":"越谷市","city_kana":"コシガヤシ","town":"恩間新田","town_kana":"オンマシンデン","prefecture_code":11},"0043":{"zip_code":"3430043","prefecture":"埼玉県","prefecture_kana":"サイタマケン","city":"越谷市","city_kana":"コシガヤシ","town":"上間久里","town_kana":"カミマクリ","prefecture_code":11},"0838":{"zip_code":"3430838","prefecture":"埼玉県","prefecture_kana":"サイタマケン","city":"越谷市","city_kana":"コシガヤシ","town":"蒲生","town_kana":"ガモウ","prefecture_code":11},"0843":{"zip_code":"3430843","prefecture":"埼玉県","prefecture_kana":"サイタマケン","city":"越谷市","city_kana":"コシガヤシ","town":"蒲生茜町","town_kana":"ガモウアカネチョウ","prefecture_code":11},"0842":{"zip_code":"3430842","prefecture":"埼玉県","prefecture_kana":"サイタマケン","city":"越谷市","city_kana":"コシガヤシ","town":"蒲生旭町","town_kana":"ガモウアサヒチョウ","prefecture_code":11},"0834":{"zip_code":"3430834","prefecture":"埼玉県","prefecture_kana":"サイタマケン","city":"越谷市","city_kana":"コシガヤシ","town":"蒲生愛宕町","town_kana":"ガモウアタゴチョウ","prefecture_code":11},"0836":{"zip_code":"3430836","prefecture":"埼玉県","prefecture_kana":"サイタマケン","city":"越谷市","city_kana":"コシガヤシ","town":"蒲生寿町","town_kana":"ガモウコトブキチョウ","prefecture_code":11},"0841":{"zip_code":"3430841","prefecture":"埼玉県","prefecture_kana":"サイタマケン","city":"越谷市","city_kana":"コシガヤシ","town":"蒲生東町","town_kana":"ガモウヒガシチョウ","prefecture_code":11},"0835":{"zip_code":"3430835","prefecture":"埼玉県","prefecture_kana":"サイタマケン","city":"越谷市","city_kana":"コシガヤシ","town":"蒲生西町","town_kana":"ガモウニシマチ","prefecture_code":11},"0833":{"zip_code":"3430833","prefecture":"埼玉県","prefecture_kana":"サイタマケン","city":"越谷市","city_kana":"コシガヤシ","town":"蒲生南町","town_kana":"ガモウミナミチョウ","prefecture_code":11},"0837":{"zip_code":"3430837","prefecture":"埼玉県","prefecture_kana":"サイタマケン","city":"越谷市","city_kana":"コシガヤシ","town":"蒲生本町","town_kana":"ガモウホンチョウ","prefecture_code":11},"0827":{"zip_code":"3430827","prefecture":"埼玉県","prefecture_kana":"サイタマケン","city":"越谷市","city_kana":"コシガヤシ","town":"川柳町","town_kana":"カワヤナギチョウ","prefecture_code":11},"0821":{"zip_code":"3430821","prefecture":"埼玉県","prefecture_kana":"サイタマケン","city":"越谷市","city_kana":"コシガヤシ","town":"瓦曽根","town_kana":"カワラゾネ","prefecture_code":11},"0854":{"zip_code":"3430854","prefecture":"埼玉県","prefecture_kana":"サイタマケン","city":"越谷市","city_kana":"コシガヤシ","town":"北後谷","town_kana":"キタウシロヤ","prefecture_code":11},"0006":{"zip_code":"3430006","prefecture":"埼玉県","prefecture_kana":"サイタマケン","city":"越谷市","city_kana":"コシガヤシ","town":"北川崎","town_kana":"キタカワサキ","prefecture_code":11},"0026":{"zip_code":"3430026","prefecture":"埼玉県","prefecture_kana":"サイタマケン","city":"越谷市","city_kana":"コシガヤシ","town":"北越谷","town_kana":"キタコシガヤ","prefecture_code":11},"0024":{"zip_code":"3430024","prefecture":"埼玉県","prefecture_kana":"サイタマケン","city":"越谷市","city_kana":"コシガヤシ","town":"越ケ谷","town_kana":"コシガヤ","prefecture_code":11},"0813":{"zip_code":"3430813","prefecture":"埼玉県","prefecture_kana":"サイタマケン","city":"越谷市","city_kana":"コシガヤシ","town":"越ケ谷","town_kana":"コシガヤ","prefecture_code":11},"0818":{"zip_code":"3430818","prefecture":"埼玉県","prefecture_kana":"サイタマケン","city":"越谷市","city_kana":"コシガヤシ","town":"越ケ谷本町","town_kana":"コシガヤホンチョウ","prefecture_code":11},"0811":{"zip_code":"3430811","prefecture":"埼玉県","prefecture_kana":"サイタマケン","city":"越谷市","city_kana":"コシガヤシ","town":"御殿町","town_kana":"ゴテンチョウ","prefecture_code":11},"0823":{"zip_code":"3430823","prefecture":"埼玉県","prefecture_kana":"サイタマケン","city":"越谷市","city_kana":"コシガヤシ","town":"相模町","town_kana":"サガミチョウ","prefecture_code":11},"0036":{"zip_code":"3430036","prefecture":"埼玉県","prefecture_kana":"サイタマケン","city":"越谷市","city_kana":"コシガヤシ","town":"三野宮","town_kana":"サンノミヤ","prefecture_code":11},"0851":{"zip_code":"3430851","prefecture":"埼玉県","prefecture_kana":"サイタマケン","city":"越谷市","city_kana":"コシガヤシ","town":"七左町","town_kana":"シチザチョウ","prefecture_code":11},"0045":{"zip_code":"3430045","prefecture":"埼玉県","prefecture_kana":"サイタマケン","city":"越谷市","city_kana":"コシガヤシ","town":"下間久里","town_kana":"シモマクリ","prefecture_code":11},"0852":{"zip_code":"3430852","prefecture":"埼玉県","prefecture_kana":"サイタマケン","city":"越谷市","city_kana":"コシガヤシ","town":"新川町","town_kana":"シンカワチョウ","prefecture_code":11},"0805":{"zip_code":"3430805","prefecture":"埼玉県","prefecture_kana":"サイタマケン","city":"越谷市","city_kana":"コシガヤシ","town":"神明町","town_kana":"シンメイチョウ","prefecture_code":11},"0803":{"zip_code":"3430803","prefecture":"埼玉県","prefecture_kana":"サイタマケン","city":"越谷市","city_kana":"コシガヤシ","town":"砂原","town_kana":"スナハラ","prefecture_code":11},"0042":{"zip_code":"3430042","prefecture":"埼玉県","prefecture_kana":"サイタマケン","city":"越谷市","city_kana":"コシガヤシ","town":"千間台東","town_kana":"センゲンダイヒガシ","prefecture_code":11},"0041":{"zip_code":"3430041","prefecture":"埼玉県","prefecture_kana":"サイタマケン","city":"越谷市","city_kana":"コシガヤシ","town":"千間台西","town_kana":"センゲンダイニシ","prefecture_code":11},"0825":{"zip_code":"3430825","prefecture":"埼玉県","prefecture_kana":"サイタマケン","city":"越谷市","city_kana":"コシガヤシ","town":"大成町","town_kana":"タイセイチョウ","prefecture_code":11},"0013":{"zip_code":"3430013","prefecture":"埼玉県","prefecture_kana":"サイタマケン","city":"越谷市","city_kana":"コシガヤシ","town":"中島","town_kana":"ナカジマ","prefecture_code":11},"0817":{"zip_code":"3430817","prefecture":"埼玉県","prefecture_kana":"サイタマケン","city":"越谷市","city_kana":"コシガヤシ","town":"中町","town_kana":"ナカマチ","prefecture_code":11},"0853":{"zip_code":"3430853","prefecture":"埼玉県","prefecture_kana":"サイタマケン","city":"越谷市","city_kana":"コシガヤシ","town":"長島","town_kana":"ナガシマ","prefecture_code":11},"0855":{"zip_code":"3430855","prefecture":"埼玉県","prefecture_kana":"サイタマケン","city":"越谷市","city_kana":"コシガヤシ","town":"西新井","town_kana":"ニシアライ","prefecture_code":11},"0822":{"zip_code":"3430822","prefecture":"埼玉県","prefecture_kana":"サイタマケン","city":"越谷市","city_kana":"コシガヤシ","town":"西方","town_kana":"ニシカタ","prefecture_code":11},"0801":{"zip_code":"3430801","prefecture":"埼玉県","prefecture_kana":"サイタマケン","city":"越谷市","city_kana":"コシガヤシ","town":"野島","town_kana":"ノジマ","prefecture_code":11},"0846":{"zip_code":"3430846","prefecture":"埼玉県","prefecture_kana":"サイタマケン","city":"越谷市","city_kana":"コシガヤシ","town":"登戸町","town_kana":"ノボリトチョウ","prefecture_code":11},"0015":{"zip_code":"3430015","prefecture":"埼玉県","prefecture_kana":"サイタマケン","city":"越谷市","city_kana":"コシガヤシ","town":"花田","town_kana":"ハナタ","prefecture_code":11},"0022":{"zip_code":"3430022","prefecture":"埼玉県","prefecture_kana":"サイタマケン","city":"越谷市","city_kana":"コシガヤシ","town":"東大沢","town_kana":"ヒガシオオサワ","prefecture_code":11},"0023":{"zip_code":"3430023","prefecture":"埼玉県","prefecture_kana":"サイタマケン","city":"越谷市","city_kana":"コシガヤシ","town":"東越谷","town_kana":"ヒガシコシガヤ","prefecture_code":11},"0814":{"zip_code":"3430814","prefecture":"埼玉県","prefecture_kana":"サイタマケン","city":"越谷市","city_kana":"コシガヤシ","town":"東柳田町","town_kana":"ヒガシヤナギダチョウ","prefecture_code":11},"0002":{"zip_code":"3430002","prefecture":"埼玉県","prefecture_kana":"サイタマケン","city":"越谷市","city_kana":"コシガヤシ","town":"平方","town_kana":"ヒラカタ","prefecture_code":11},"0001":{"zip_code":"3430001","prefecture":"埼玉県","prefecture_kana":"サイタマケン","city":"越谷市","city_kana":"コシガヤシ","town":"平方南町","town_kana":"ヒラカタミナミチョウ","prefecture_code":11},"0032":{"zip_code":"3430032","prefecture":"埼玉県","prefecture_kana":"サイタマケン","city":"越谷市","city_kana":"コシガヤシ","town":"袋山","town_kana":"フクロヤマ","prefecture_code":11},"0003":{"zip_code":"3430003","prefecture":"埼玉県","prefecture_kana":"サイタマケン","city":"越谷市","city_kana":"コシガヤシ","town":"船渡","town_kana":"フナト","prefecture_code":11},"0011":{"zip_code":"3430011","prefecture":"埼玉県","prefecture_kana":"サイタマケン","city":"越谷市","city_kana":"コシガヤシ","town":"増林","town_kana":"マシバヤシ","prefecture_code":11},"0012":{"zip_code":"3430012","prefecture":"埼玉県","prefecture_kana":"サイタマケン","city":"越谷市","city_kana":"コシガヤシ","town":"増森","town_kana":"マシモリ","prefecture_code":11},"0804":{"zip_code":"3430804","prefecture":"埼玉県","prefecture_kana":"サイタマケン","city":"越谷市","city_kana":"コシガヤシ","town":"南荻島","town_kana":"ミナミオギシマ","prefecture_code":11},"0845":{"zip_code":"3430845","prefecture":"埼玉県","prefecture_kana":"サイタマケン","city":"越谷市","city_kana":"コシガヤシ","town":"南越谷","town_kana":"ミナミコシガヤ","prefecture_code":11},"0832":{"zip_code":"3430832","prefecture":"埼玉県","prefecture_kana":"サイタマケン","city":"越谷市","city_kana":"コシガヤシ","town":"南町","town_kana":"ミナミチョウ","prefecture_code":11},"0014":{"zip_code":"3430014","prefecture":"埼玉県","prefecture_kana":"サイタマケン","city":"越谷市","city_kana":"コシガヤシ","town":"宮前","town_kana":"ミヤマエ","prefecture_code":11},"0806":{"zip_code":"3430806","prefecture":"埼玉県","prefecture_kana":"サイタマケン","city":"越谷市","city_kana":"コシガヤシ","town":"宮本町","town_kana":"ミヤモトチョウ","prefecture_code":11},"0007":{"zip_code":"3430007","prefecture":"埼玉県","prefecture_kana":"サイタマケン","city":"越谷市","city_kana":"コシガヤシ","town":"向畑","town_kana":"ムコウバタケ","prefecture_code":11},"0815":{"zip_code":"3430815","prefecture":"埼玉県","prefecture_kana":"サイタマケン","city":"越谷市","city_kana":"コシガヤシ","town":"元柳田町","town_kana":"モトヤナギダチョウ","prefecture_code":11},"0046":{"zip_code":"3430046","prefecture":"埼玉県","prefecture_kana":"サイタマケン","city":"越谷市","city_kana":"コシガヤシ","town":"弥栄町","town_kana":"ヤサカチョウ","prefecture_code":11},"0047":{"zip_code":"3430047","prefecture":"埼玉県","prefecture_kana":"サイタマケン","city":"越谷市","city_kana":"コシガヤシ","town":"弥十郎","town_kana":"ヤジュウロウ","prefecture_code":11},"0856":{"zip_code":"3430856","prefecture":"埼玉県","prefecture_kana":"サイタマケン","city":"越谷市","city_kana":"コシガヤシ","town":"谷中町","town_kana":"ヤナカチョウ","prefecture_code":11},"0812":{"zip_code":"3430812","prefecture":"埼玉県","prefecture_kana":"サイタマケン","city":"越谷市","city_kana":"コシガヤシ","town":"柳町","town_kana":"ヤナギチョウ","prefecture_code":11},"0816":{"zip_code":"3430816","prefecture":"埼玉県","prefecture_kana":"サイタマケン","city":"越谷市","city_kana":"コシガヤシ","town":"弥生町","town_kana":"ヤヨイチョウ","prefecture_code":11},"0824":{"zip_code":"3430824","prefecture":"埼玉県","prefecture_kana":"サイタマケン","city":"越谷市","city_kana":"コシガヤシ","town":"流通団地","town_kana":"リュウツウダンチ","prefecture_code":11},"0100":{"zip_code":"3430100","prefecture":"埼玉県","prefecture_kana":"サイタマケン","city":"北葛飾郡松伏町","city_kana":"キタカツシカグンマツブシマチ","town":"","town_kana":"","prefecture_code":11},"0101":{"zip_code":"3430101","prefecture":"埼玉県","prefecture_kana":"サイタマケン","city":"北葛飾郡松伏町","city_kana":"キタカツシカグンマツブシマチ","town":"魚沼","town_kana":"ウオヌマ","prefecture_code":11},"0106":{"zip_code":"3430106","prefecture":"埼玉県","prefecture_kana":"サイタマケン","city":"北葛飾郡松伏町","city_kana":"キタカツシカグンマツブシマチ","town":"大川戸","town_kana":"オオカワド","prefecture_code":11},"0103":{"zip_code":"3430103","prefecture":"埼玉県","prefecture_kana":"サイタマケン","city":"北葛飾郡松伏町","city_kana":"キタカツシカグンマツブシマチ","town":"金杉","town_kana":"カナスギ","prefecture_code":11},"0115":{"zip_code":"3430115","prefecture":"埼玉県","prefecture_kana":"サイタマケン","city":"北葛飾郡松伏町","city_kana":"キタカツシカグンマツブシマチ","town":"上赤岩","town_kana":"カミアカイワ","prefecture_code":11},"0116":{"zip_code":"3430116","prefecture":"埼玉県","prefecture_kana":"サイタマケン","city":"北葛飾郡松伏町","city_kana":"キタカツシカグンマツブシマチ","town":"下赤岩","town_kana":"シモアカイワ","prefecture_code":11},"0105":{"zip_code":"3430105","prefecture":"埼玉県","prefecture_kana":"サイタマケン","city":"北葛飾郡松伏町","city_kana":"キタカツシカグンマツブシマチ","town":"田島","town_kana":"タジマ","prefecture_code":11},"0104":{"zip_code":"3430104","prefecture":"埼玉県","prefecture_kana":"サイタマケン","city":"北葛飾郡松伏町","city_kana":"キタカツシカグンマツブシマチ","town":"田島東","town_kana":"タジマヒガシ","prefecture_code":11},"0117":{"zip_code":"3430117","prefecture":"埼玉県","prefecture_kana":"サイタマケン","city":"北葛飾郡松伏町","city_kana":"キタカツシカグンマツブシマチ","town":"田中","town_kana":"タナカ","prefecture_code":11},"0102":{"zip_code":"3430102","prefecture":"埼玉県","prefecture_kana":"サイタマケン","city":"北葛飾郡松伏町","city_kana":"キタカツシカグンマツブシマチ","town":"築比地","town_kana":"ツキヒジ","prefecture_code":11},"0112":{"zip_code":"3430112","prefecture":"埼玉県","prefecture_kana":"サイタマケン","city":"北葛飾郡松伏町","city_kana":"キタカツシカグンマツブシマチ","town":"松葉","town_kana":"マツバ","prefecture_code":11},"0111":{"zip_code":"3430111","prefecture":"埼玉県","prefecture_kana":"サイタマケン","city":"北葛飾郡松伏町","city_kana":"キタカツシカグンマツブシマチ","town":"松伏","town_kana":"マツブシ","prefecture_code":11},"0113":{"zip_code":"3430113","prefecture":"埼玉県","prefecture_kana":"サイタマケン","city":"北葛飾郡松伏町","city_kana":"キタカツシカグンマツブシマチ","town":"ゆめみ野","town_kana":"ユメミノ","prefecture_code":11},"0114":{"zip_code":"3430114","prefecture":"埼玉県","prefecture_kana":"サイタマケン","city":"北葛飾郡松伏町","city_kana":"キタカツシカグンマツブシマチ","town":"ゆめみ野東","town_kana":"ユメミノヒガシ","prefecture_code":11}}