{"0000":{"zip_code":"3460000","prefecture":"埼玉県","prefecture_kana":"サイタマケン","city":"久喜市","city_kana":"クキシ","town":"","town_kana":"","prefecture_code":11},"0011":{"zip_code":"3460011","prefecture":"埼玉県","prefecture_kana":"サイタマケン","city":"久喜市","city_kana":"クキシ","town":"青毛","town_kana":"アオゲ","prefecture_code":11},"0013":{"zip_code":"3460013","prefecture":"埼玉県","prefecture_kana":"サイタマケン","city":"久喜市","city_kana":"クキシ","town":"青葉","town_kana":"アオバ","prefecture_code":11},"0029":{"zip_code":"3460029","prefecture":"埼玉県","prefecture_kana":"サイタマケン","city":"久喜市","city_kana":"クキシ","town":"江面","town_kana":"エヅラ","prefecture_code":11},"0023":{"zip_code":"3460023","prefecture":"埼玉県","prefecture_kana":"サイタマケン","city":"久喜市","city_kana":"クキシ","town":"太田袋","town_kana":"オオタブクロ","prefecture_code":11},"0038":{"zip_code":"3460038","prefecture":"埼玉県","prefecture_kana":"サイタマケン","city":"久喜市","city_kana":"クキシ","town":"上清久","town_kana":"カミキヨク","prefecture_code":11},"0021":{"zip_code":"3460021","prefecture":"埼玉県","prefecture_kana":"サイタマケン","city":"久喜市","city_kana":"クキシ","town":"上早見","town_kana":"カミハヤミ","prefecture_code":11},"0006":{"zip_code":"3460006","prefecture":"埼玉県","prefecture_kana":"サイタマケン","city":"久喜市","city_kana":"クキシ","town":"上町","town_kana":"カミマチ","prefecture_code":11},"0028":{"zip_code":"3460028","prefecture":"埼玉県","prefecture_kana":"サイタマケン","city":"久喜市","city_kana":"クキシ","town":"河原井町","town_kana":"カワライチョウ","prefecture_code":11},"0024":{"zip_code":"3460024","prefecture":"埼玉県","prefecture_kana":"サイタマケン","city":"久喜市","city_kana":"クキシ","town":"北青柳","town_kana":"キタアオヤギ","prefecture_code":11},"0036":{"zip_code":"3460036","prefecture":"埼玉県","prefecture_kana":"サイタマケン","city":"久喜市","city_kana":"クキシ","town":"北中曽根","town_kana":"キタナカソネ","prefecture_code":11},"0035":{"zip_code":"3460035","prefecture":"埼玉県","prefecture_kana":"サイタマケン","city":"久喜市","city_kana":"クキシ","town":"清久町","town_kana":"キヨクチョウ","prefecture_code":11},"0007":{"zip_code":"3460007","prefecture":"埼玉県","prefecture_kana":"サイタマケン","city":"久喜市","city_kana":"クキシ","town":"久喜北","town_kana":"クキキタ","prefecture_code":11},"0032":{"zip_code":"3460032","prefecture":"埼玉県","prefecture_kana":"サイタマケン","city":"久喜市","city_kana":"クキシ","town":"久喜新","town_kana":"クキシン","prefecture_code":11},"0003":{"zip_code":"3460003","prefecture":"埼玉県","prefecture_kana":"サイタマケン","city":"久喜市","city_kana":"クキシ","town":"久喜中央","town_kana":"クキチュウオウ","prefecture_code":11},"0016":{"zip_code":"3460016","prefecture":"埼玉県","prefecture_kana":"サイタマケン","city":"久喜市","city_kana":"クキシ","town":"久喜東","town_kana":"クキヒガシ","prefecture_code":11},"0031":{"zip_code":"3460031","prefecture":"埼玉県","prefecture_kana":"サイタマケン","city":"久喜市","city_kana":"クキシ","town":"久喜本","town_kana":"クキホン","prefecture_code":11},"0012":{"zip_code":"3460012","prefecture":"埼玉県","prefecture_kana":"サイタマケン","city":"久喜市","city_kana":"クキシ","town":"栗原","town_kana":"クリハラ","prefecture_code":11},"0001":{"zip_code":"3460001","prefecture":"埼玉県","prefecture_kana":"サイタマケン","city":"久喜市","city_kana":"クキシ","town":"古久喜","town_kana":"コグキ","prefecture_code":11},"0033":{"zip_code":"3460033","prefecture":"埼玉県","prefecture_kana":"サイタマケン","city":"久喜市","city_kana":"クキシ","town":"下清久","town_kana":"シモキヨク","prefecture_code":11},"0022":{"zip_code":"3460022","prefecture":"埼玉県","prefecture_kana":"サイタマケン","city":"久喜市","city_kana":"クキシ","town":"下早見","town_kana":"シモハヤミ","prefecture_code":11},"0115":{"zip_code":"3460115","prefecture":"埼玉県","prefecture_kana":"サイタマケン","city":"久喜市","city_kana":"クキシ","town":"菖蒲町小林","town_kana":"ショウブチョウオバヤシ","prefecture_code":11},"0111":{"zip_code":"3460111","prefecture":"埼玉県","prefecture_kana":"サイタマケン","city":"久喜市","city_kana":"クキシ","town":"菖蒲町上大崎","town_kana":"ショウブチョウカミオオサキ","prefecture_code":11},"0114":{"zip_code":"3460114","prefecture":"埼玉県","prefecture_kana":"サイタマケン","city":"久喜市","city_kana":"クキシ","town":"菖蒲町上栢間","town_kana":"ショウブチョウカミカヤマ","prefecture_code":11},"0102":{"zip_code":"3460102","prefecture":"埼玉県","prefecture_kana":"サイタマケン","city":"久喜市","city_kana":"クキシ","town":"菖蒲町河原井","town_kana":"ショウブチョウカワハライ","prefecture_code":11},"0104":{"zip_code":"3460104","prefecture":"埼玉県","prefecture_kana":"サイタマケン","city":"久喜市","city_kana":"クキシ","town":"菖蒲町三箇","town_kana":"ショウブチョウサンガ","prefecture_code":11},"0112":{"zip_code":"3460112","prefecture":"埼玉県","prefecture_kana":"サイタマケン","city":"久喜市","city_kana":"クキシ","town":"菖蒲町柴山枝郷","town_kana":"ショウブチョウシバヤマシゴウ","prefecture_code":11},"0113":{"zip_code":"3460113","prefecture":"埼玉県","prefecture_kana":"サイタマケン","city":"久喜市","city_kana":"クキシ","town":"菖蒲町下栢間","town_kana":"ショウブチョウシモカヤマ","prefecture_code":11},"0106":{"zip_code":"3460106","prefecture":"埼玉県","prefecture_kana":"サイタマケン","city":"久喜市","city_kana":"クキシ","town":"菖蒲町菖蒲","town_kana":"ショウブチョウショウブ","prefecture_code":11},"0101":{"zip_code":"3460101","prefecture":"埼玉県","prefecture_kana":"サイタマケン","city":"久喜市","city_kana":"クキシ","town":"菖蒲町昭和沼","town_kana":"ショウブチョウショウワヌマ","prefecture_code":11},"0103":{"zip_code":"3460103","prefecture":"埼玉県","prefecture_kana":"サイタマケン","city":"久喜市","city_kana":"クキシ","town":"菖蒲町台","town_kana":"ショウブチョウダイ","prefecture_code":11},"0105":{"zip_code":"3460105","prefecture":"埼玉県","prefecture_kana":"サイタマケン","city":"久喜市","city_kana":"クキシ","town":"菖蒲町新堀","town_kana":"ショウブチョウニイボリ","prefecture_code":11},"0034":{"zip_code":"3460034","prefecture":"埼玉県","prefecture_kana":"サイタマケン","city":"久喜市","city_kana":"クキシ","town":"所久喜","town_kana":"トコログキ","prefecture_code":11},"0015":{"zip_code":"3460015","prefecture":"埼玉県","prefecture_kana":"サイタマケン","city":"久喜市","city_kana":"クキシ","town":"西","town_kana":"ニシ","prefecture_code":11},"0002":{"zip_code":"3460002","prefecture":"埼玉県","prefecture_kana":"サイタマケン","city":"久喜市","city_kana":"クキシ","town":"野久喜","town_kana":"ノグキ","prefecture_code":11},"0026":{"zip_code":"3460026","prefecture":"埼玉県","prefecture_kana":"サイタマケン","city":"久喜市","city_kana":"クキシ","town":"原","town_kana":"ハラ","prefecture_code":11},"0025":{"zip_code":"3460025","prefecture":"埼玉県","prefecture_kana":"サイタマケン","city":"久喜市","city_kana":"クキシ","town":"樋ノ口","town_kana":"ヒノクチ","prefecture_code":11},"0005":{"zip_code":"3460005","prefecture":"埼玉県","prefecture_kana":"サイタマケン","city":"久喜市","city_kana":"クキシ","town":"本町","town_kana":"ホンチョウ","prefecture_code":11},"0004":{"zip_code":"3460004","prefecture":"埼玉県","prefecture_kana":"サイタマケン","city":"久喜市","city_kana":"クキシ","town":"南","town_kana":"ミナミ","prefecture_code":11},"0027":{"zip_code":"3460027","prefecture":"埼玉県","prefecture_kana":"サイタマケン","city":"久喜市","city_kana":"クキシ","town":"除堀","town_kana":"ヨケボリ","prefecture_code":11},"0014":{"zip_code":"3460014","prefecture":"埼玉県","prefecture_kana":"サイタマケン","city":"久喜市","city_kana":"クキシ","town":"吉羽","town_kana":"ヨシバ","prefecture_code":11},"0037":{"zip_code":"3460037","prefecture":"埼玉県","prefecture_kana":"サイタマケン","city":"久喜市","city_kana":"クキシ","town":"六万部","town_kana":"ロクマンブ","prefecture_code":11}}