{"0000":{"zip_code":"3470000","prefecture":"埼玉県","prefecture_kana":"サイタマケン","city":"加須市","city_kana":"カゾシ","town":"","town_kana":"","prefecture_code":11},"0057":{"zip_code":"3470057","prefecture":"埼玉県","prefecture_kana":"サイタマケン","city":"加須市","city_kana":"カゾシ","town":"愛宕","town_kana":"アタゴ","prefecture_code":11},"0047":{"zip_code":"3470047","prefecture":"埼玉県","prefecture_kana":"サイタマケン","city":"加須市","city_kana":"カゾシ","town":"阿良川","town_kana":"アラカワ","prefecture_code":11},"0024":{"zip_code":"3470024","prefecture":"埼玉県","prefecture_kana":"サイタマケン","city":"加須市","city_kana":"カゾシ","town":"今鉾","town_kana":"イマボコ","prefecture_code":11},"0112":{"zip_code":"3470112","prefecture":"埼玉県","prefecture_kana":"サイタマケン","city":"加須市","city_kana":"カゾシ","town":"芋茎","town_kana":"イモグキ","prefecture_code":11},"0103":{"zip_code":"3470103","prefecture":"埼玉県","prefecture_kana":"サイタマケン","city":"加須市","city_kana":"カゾシ","town":"牛重","town_kana":"ウシガサネ","prefecture_code":11},"0122":{"zip_code":"3470122","prefecture":"埼玉県","prefecture_kana":"サイタマケン","city":"加須市","city_kana":"カゾシ","town":"内田ケ谷","town_kana":"ウチタガヤ","prefecture_code":11},"0010":{"zip_code":"3470010","prefecture":"埼玉県","prefecture_kana":"サイタマケン","city":"加須市","city_kana":"カゾシ","town":"大桑","town_kana":"オオクワ","prefecture_code":11},"0001":{"zip_code":"3470001","prefecture":"埼玉県","prefecture_kana":"サイタマケン","city":"加須市","city_kana":"カゾシ","town":"大越","town_kana":"オオゴエ","prefecture_code":11},"0027":{"zip_code":"3470027","prefecture":"埼玉県","prefecture_kana":"サイタマケン","city":"加須市","city_kana":"カゾシ","town":"大室","town_kana":"オオムロ","prefecture_code":11},"0058":{"zip_code":"3470058","prefecture":"埼玉県","prefecture_kana":"サイタマケン","city":"加須市","city_kana":"カゾシ","town":"岡古井","town_kana":"オカフルイ","prefecture_code":11},"0125":{"zip_code":"3470125","prefecture":"埼玉県","prefecture_kana":"サイタマケン","city":"加須市","city_kana":"カゾシ","town":"上崎","town_kana":"カミサキ","prefecture_code":11},"0101":{"zip_code":"3470101","prefecture":"埼玉県","prefecture_kana":"サイタマケン","city":"加須市","city_kana":"カゾシ","town":"上高柳","town_kana":"カミタカヤナギ","prefecture_code":11},"0115":{"zip_code":"3470115","prefecture":"埼玉県","prefecture_kana":"サイタマケン","city":"加須市","city_kana":"カゾシ","town":"上種足","town_kana":"カミタナダレ","prefecture_code":11},"0003":{"zip_code":"3470003","prefecture":"埼玉県","prefecture_kana":"サイタマケン","city":"加須市","city_kana":"カゾシ","town":"上樋遣川","town_kana":"カミヒヤリカワ","prefecture_code":11},"0006":{"zip_code":"3470006","prefecture":"埼玉県","prefecture_kana":"サイタマケン","city":"加須市","city_kana":"カゾシ","town":"上三俣","town_kana":"カミミツマタ","prefecture_code":11},"0014":{"zip_code":"3470014","prefecture":"埼玉県","prefecture_kana":"サイタマケン","city":"加須市","city_kana":"カゾシ","town":"川口","town_kana":"カワグチ","prefecture_code":11},"0105":{"zip_code":"3470105","prefecture":"埼玉県","prefecture_kana":"サイタマケン","city":"加須市","city_kana":"カゾシ","town":"騎西","town_kana":"キサイ","prefecture_code":11},"0011":{"zip_code":"3470011","prefecture":"埼玉県","prefecture_kana":"サイタマケン","city":"加須市","city_kana":"カゾシ","town":"北小浜","town_kana":"キタコバマ","prefecture_code":11},"0013":{"zip_code":"3470013","prefecture":"埼玉県","prefecture_kana":"サイタマケン","city":"加須市","city_kana":"カゾシ","town":"北篠崎","town_kana":"キタシノザキ","prefecture_code":11},"0023":{"zip_code":"3470023","prefecture":"埼玉県","prefecture_kana":"サイタマケン","city":"加須市","city_kana":"カゾシ","town":"北辻","town_kana":"キタツジ","prefecture_code":11},"0063":{"zip_code":"3470063","prefecture":"埼玉県","prefecture_kana":"サイタマケン","city":"加須市","city_kana":"カゾシ","town":"久下","town_kana":"クゲ","prefecture_code":11},"0041":{"zip_code":"3470041","prefecture":"埼玉県","prefecture_kana":"サイタマケン","city":"加須市","city_kana":"カゾシ","town":"串作","town_kana":"クシツクリ","prefecture_code":11},"0111":{"zip_code":"3470111","prefecture":"埼玉県","prefecture_kana":"サイタマケン","city":"加須市","city_kana":"カゾシ","town":"鴻茎","town_kana":"コウグキ","prefecture_code":11},"0042":{"zip_code":"3470042","prefecture":"埼玉県","prefecture_kana":"サイタマケン","city":"加須市","city_kana":"カゾシ","town":"志多見","town_kana":"シダミ","prefecture_code":11},"0123":{"zip_code":"3470123","prefecture":"埼玉県","prefecture_kana":"サイタマケン","city":"加須市","city_kana":"カゾシ","town":"下崎","town_kana":"シモサキ","prefecture_code":11},"0033":{"zip_code":"3470033","prefecture":"埼玉県","prefecture_kana":"サイタマケン","city":"加須市","city_kana":"カゾシ","town":"下高柳","town_kana":"シモタカヤナギ","prefecture_code":11},"0113":{"zip_code":"3470113","prefecture":"埼玉県","prefecture_kana":"サイタマケン","city":"加須市","city_kana":"カゾシ","town":"下種足","town_kana":"シモタナダレ","prefecture_code":11},"0005":{"zip_code":"3470005","prefecture":"埼玉県","prefecture_kana":"サイタマケン","city":"加須市","city_kana":"カゾシ","town":"下樋遣川","town_kana":"シモヒヤリカワ","prefecture_code":11},"0007":{"zip_code":"3470007","prefecture":"埼玉県","prefecture_kana":"サイタマケン","city":"加須市","city_kana":"カゾシ","town":"下三俣","town_kana":"シモミツマタ","prefecture_code":11},"0053":{"zip_code":"3470053","prefecture":"埼玉県","prefecture_kana":"サイタマケン","city":"加須市","city_kana":"カゾシ","town":"下谷","town_kana":"シモヤ","prefecture_code":11},"0107":{"zip_code":"3470107","prefecture":"埼玉県","prefecture_kana":"サイタマケン","city":"加須市","city_kana":"カゾシ","town":"正能","town_kana":"ショウノウ","prefecture_code":11},"0061":{"zip_code":"3470061","prefecture":"埼玉県","prefecture_kana":"サイタマケン","city":"加須市","city_kana":"カゾシ","town":"諏訪","town_kana":"スワ","prefecture_code":11},"0106":{"zip_code":"3470106","prefecture":"埼玉県","prefecture_kana":"サイタマケン","city":"加須市","city_kana":"カゾシ","town":"外川","town_kana":"ソトカワ","prefecture_code":11},"0126":{"zip_code":"3470126","prefecture":"埼玉県","prefecture_kana":"サイタマケン","city":"加須市","city_kana":"カゾシ","town":"外田ケ谷","town_kana":"ソトタガヤ","prefecture_code":11},"0002":{"zip_code":"3470002","prefecture":"埼玉県","prefecture_kana":"サイタマケン","city":"加須市","city_kana":"カゾシ","town":"外野","town_kana":"ソトノ","prefecture_code":11},"0068":{"zip_code":"3470068","prefecture":"埼玉県","prefecture_kana":"サイタマケン","city":"加須市","city_kana":"カゾシ","town":"大門町","town_kana":"ダイモンチョウ","prefecture_code":11},"0012":{"zip_code":"3470012","prefecture":"埼玉県","prefecture_kana":"サイタマケン","city":"加須市","city_kana":"カゾシ","town":"多門寺","town_kana":"タモンジ","prefecture_code":11},"0055":{"zip_code":"3470055","prefecture":"埼玉県","prefecture_kana":"サイタマケン","city":"加須市","city_kana":"カゾシ","town":"中央","town_kana":"チュウオウ","prefecture_code":11},"0034":{"zip_code":"3470034","prefecture":"埼玉県","prefecture_kana":"サイタマケン","city":"加須市","city_kana":"カゾシ","town":"常泉","town_kana":"ツネイズミ","prefecture_code":11},"0064":{"zip_code":"3470064","prefecture":"埼玉県","prefecture_kana":"サイタマケン","city":"加須市","city_kana":"カゾシ","town":"東栄","town_kana":"トウエイ","prefecture_code":11},"0121":{"zip_code":"3470121","prefecture":"埼玉県","prefecture_kana":"サイタマケン","city":"加須市","city_kana":"カゾシ","town":"道地","town_kana":"ドウチ","prefecture_code":11},"0051":{"zip_code":"3470051","prefecture":"埼玉県","prefecture_kana":"サイタマケン","city":"加須市","city_kana":"カゾシ","town":"戸川","town_kana":"トガワ","prefecture_code":11},"0108":{"zip_code":"3470108","prefecture":"埼玉県","prefecture_kana":"サイタマケン","city":"加須市","city_kana":"カゾシ","town":"戸崎","town_kana":"トサキ","prefecture_code":11},"0056":{"zip_code":"3470056","prefecture":"埼玉県","prefecture_kana":"サイタマケン","city":"加須市","city_kana":"カゾシ","town":"土手","town_kana":"ドテ","prefecture_code":11},"0116":{"zip_code":"3470116","prefecture":"埼玉県","prefecture_kana":"サイタマケン","city":"加須市","city_kana":"カゾシ","town":"戸室","town_kana":"トムロ","prefecture_code":11},"0114":{"zip_code":"3470114","prefecture":"埼玉県","prefecture_kana":"サイタマケン","city":"加須市","city_kana":"カゾシ","town":"中種足","town_kana":"ナカタナダレ","prefecture_code":11},"0124":{"zip_code":"3470124","prefecture":"埼玉県","prefecture_kana":"サイタマケン","city":"加須市","city_kana":"カゾシ","town":"中ノ目","town_kana":"ナカノメ","prefecture_code":11},"0008":{"zip_code":"3470008","prefecture":"埼玉県","prefecture_kana":"サイタマケン","city":"加須市","city_kana":"カゾシ","town":"中樋遣川","town_kana":"ナカヒヤリカワ","prefecture_code":11},"0117":{"zip_code":"3470117","prefecture":"埼玉県","prefecture_kana":"サイタマケン","city":"加須市","city_kana":"カゾシ","town":"西ノ谷","town_kana":"ニシノヤ","prefecture_code":11},"0104":{"zip_code":"3470104","prefecture":"埼玉県","prefecture_kana":"サイタマケン","city":"加須市","city_kana":"カゾシ","town":"根古屋","town_kana":"ネゴヤ","prefecture_code":11},"0019":{"zip_code":"3470019","prefecture":"埼玉県","prefecture_kana":"サイタマケン","city":"加須市","city_kana":"カゾシ","town":"鳩山町","town_kana":"ハトヤマチョウ","prefecture_code":11},"0032":{"zip_code":"3470032","prefecture":"埼玉県","prefecture_kana":"サイタマケン","city":"加須市","city_kana":"カゾシ","town":"花崎","town_kana":"ハナサキ","prefecture_code":11},"0016":{"zip_code":"3470016","prefecture":"埼玉県","prefecture_kana":"サイタマケン","city":"加須市","city_kana":"カゾシ","town":"花崎北","town_kana":"ハナサキキタ","prefecture_code":11},"0018":{"zip_code":"3470018","prefecture":"埼玉県","prefecture_kana":"サイタマケン","city":"加須市","city_kana":"カゾシ","town":"浜町","town_kana":"ハマチョウ","prefecture_code":11},"0102":{"zip_code":"3470102","prefecture":"埼玉県","prefecture_kana":"サイタマケン","city":"加須市","city_kana":"カゾシ","town":"日出安","town_kana":"ヒデヤス","prefecture_code":11},"0046":{"zip_code":"3470046","prefecture":"埼玉県","prefecture_kana":"サイタマケン","city":"加須市","city_kana":"カゾシ","town":"平永","town_kana":"ヒラナガ","prefecture_code":11},"0045":{"zip_code":"3470045","prefecture":"埼玉県","prefecture_kana":"サイタマケン","city":"加須市","city_kana":"カゾシ","town":"富士見町","town_kana":"フジミチョウ","prefecture_code":11},"0054":{"zip_code":"3470054","prefecture":"埼玉県","prefecture_kana":"サイタマケン","city":"加須市","city_kana":"カゾシ","town":"不動岡","town_kana":"フドオカ","prefecture_code":11},"0021":{"zip_code":"3470021","prefecture":"埼玉県","prefecture_kana":"サイタマケン","city":"加須市","city_kana":"カゾシ","town":"船越","town_kana":"フナコシ","prefecture_code":11},"0004":{"zip_code":"3470004","prefecture":"埼玉県","prefecture_kana":"サイタマケン","city":"加須市","city_kana":"カゾシ","town":"古川","town_kana":"フルカワ","prefecture_code":11},"0066":{"zip_code":"3470066","prefecture":"埼玉県","prefecture_kana":"サイタマケン","city":"加須市","city_kana":"カゾシ","town":"本町","town_kana":"ホンチョウ","prefecture_code":11},"0052":{"zip_code":"3470052","prefecture":"埼玉県","prefecture_kana":"サイタマケン","city":"加須市","city_kana":"カゾシ","town":"町屋新田","town_kana":"マチヤシンデン","prefecture_code":11},"0022":{"zip_code":"3470022","prefecture":"埼玉県","prefecture_kana":"サイタマケン","city":"加須市","city_kana":"カゾシ","town":"水深","town_kana":"ミズブカ","prefecture_code":11},"0015":{"zip_code":"3470015","prefecture":"埼玉県","prefecture_kana":"サイタマケン","city":"加須市","city_kana":"カゾシ","town":"南大桑","town_kana":"ミナミオオクワ","prefecture_code":11},"0028":{"zip_code":"3470028","prefecture":"埼玉県","prefecture_kana":"サイタマケン","city":"加須市","city_kana":"カゾシ","town":"南小浜","town_kana":"ミナミオバマ","prefecture_code":11},"0017":{"zip_code":"3470017","prefecture":"埼玉県","prefecture_kana":"サイタマケン","city":"加須市","city_kana":"カゾシ","town":"南篠崎","town_kana":"ミナミシノザキ","prefecture_code":11},"0031":{"zip_code":"3470031","prefecture":"埼玉県","prefecture_kana":"サイタマケン","city":"加須市","city_kana":"カゾシ","town":"南町","town_kana":"ミナミチョウ","prefecture_code":11},"0067":{"zip_code":"3470067","prefecture":"埼玉県","prefecture_kana":"サイタマケン","city":"加須市","city_kana":"カゾシ","town":"向川岸町","town_kana":"ムコウガシチョウ","prefecture_code":11},"0062":{"zip_code":"3470062","prefecture":"埼玉県","prefecture_kana":"サイタマケン","city":"加須市","city_kana":"カゾシ","town":"睦町","town_kana":"ムツミチョウ","prefecture_code":11},"0043":{"zip_code":"3470043","prefecture":"埼玉県","prefecture_kana":"サイタマケン","city":"加須市","city_kana":"カゾシ","town":"馬内","town_kana":"モウチ","prefecture_code":11},"0065":{"zip_code":"3470065","prefecture":"埼玉県","prefecture_kana":"サイタマケン","city":"加須市","city_kana":"カゾシ","town":"元町","town_kana":"モトマチ","prefecture_code":11},"0026":{"zip_code":"3470026","prefecture":"埼玉県","prefecture_kana":"サイタマケン","city":"加須市","city_kana":"カゾシ","town":"油井ケ島","town_kana":"ユイガシマ","prefecture_code":11},"0044":{"zip_code":"3470044","prefecture":"埼玉県","prefecture_kana":"サイタマケン","city":"加須市","city_kana":"カゾシ","town":"礼羽","town_kana":"ライハ","prefecture_code":11},"0025":{"zip_code":"3470025","prefecture":"埼玉県","prefecture_kana":"サイタマケン","city":"加須市","city_kana":"カゾシ","town":"割目","town_kana":"ワリメ","prefecture_code":11}}