{"0000":{"zip_code":"3480000","prefecture":"埼玉県","prefecture_kana":"サイタマケン","city":"羽生市","city_kana":"ハニュウシ","town":"以下に掲載がない場合","town_kana":"イカニケイサイガナイバアイ","prefecture_code":11},"0061":{"zip_code":"3480061","prefecture":"埼玉県","prefecture_kana":"サイタマケン","city":"羽生市","city_kana":"ハニュウシ","town":"稲子","town_kana":"イナゴ","prefecture_code":11},"0017":{"zip_code":"3480017","prefecture":"埼玉県","prefecture_kana":"サイタマケン","city":"羽生市","city_kana":"ハニュウシ","town":"今泉","town_kana":"イマイズミ","prefecture_code":11},"0016":{"zip_code":"3480016","prefecture":"埼玉県","prefecture_kana":"サイタマケン","city":"羽生市","city_kana":"ハニュウシ","town":"大沼","town_kana":"オオヌマ","prefecture_code":11},"0062":{"zip_code":"3480062","prefecture":"埼玉県","prefecture_kana":"サイタマケン","city":"羽生市","city_kana":"ハニュウシ","town":"尾崎","town_kana":"オサキ","prefecture_code":11},"0031":{"zip_code":"3480031","prefecture":"埼玉県","prefecture_kana":"サイタマケン","city":"羽生市","city_kana":"ハニュウシ","town":"加羽ケ崎","town_kana":"カバガサキ","prefecture_code":11},"0044":{"zip_code":"3480044","prefecture":"埼玉県","prefecture_kana":"サイタマケン","city":"羽生市","city_kana":"ハニュウシ","town":"上岩瀬","town_kana":"カミイワセ","prefecture_code":11},"0035":{"zip_code":"3480035","prefecture":"埼玉県","prefecture_kana":"サイタマケン","city":"羽生市","city_kana":"ハニュウシ","town":"上川崎","town_kana":"カミカワサキ","prefecture_code":11},"0056":{"zip_code":"3480056","prefecture":"埼玉県","prefecture_kana":"サイタマケン","city":"羽生市","city_kana":"ハニュウシ","town":"上川俣","town_kana":"カミカワマタ","prefecture_code":11},"0041":{"zip_code":"3480041","prefecture":"埼玉県","prefecture_kana":"サイタマケン","city":"羽生市","city_kana":"ハニュウシ","town":"上新郷","town_kana":"カミシンゴウ","prefecture_code":11},"0025":{"zip_code":"3480025","prefecture":"埼玉県","prefecture_kana":"サイタマケン","city":"羽生市","city_kana":"ハニュウシ","town":"上手子林","town_kana":"カミテコバヤシ","prefecture_code":11},"0027":{"zip_code":"3480027","prefecture":"埼玉県","prefecture_kana":"サイタマケン","city":"羽生市","city_kana":"ハニュウシ","town":"上羽生","town_kana":"カミハニュウ","prefecture_code":11},"0005":{"zip_code":"3480005","prefecture":"埼玉県","prefecture_kana":"サイタマケン","city":"羽生市","city_kana":"ハニュウシ","town":"上村君","town_kana":"カミムラキミ","prefecture_code":11},"0039":{"zip_code":"3480039","prefecture":"埼玉県","prefecture_kana":"サイタマケン","city":"羽生市","city_kana":"ハニュウシ","town":"川崎","town_kana":"カワサキ","prefecture_code":11},"0014":{"zip_code":"3480014","prefecture":"埼玉県","prefecture_kana":"サイタマケン","city":"羽生市","city_kana":"ハニュウシ","town":"喜右エ門新田","town_kana":"キウエモンシンデン","prefecture_code":11},"0057":{"zip_code":"3480057","prefecture":"埼玉県","prefecture_kana":"サイタマケン","city":"羽生市","city_kana":"ハニュウシ","town":"北","town_kana":"キタ","prefecture_code":11},"0015":{"zip_code":"3480015","prefecture":"埼玉県","prefecture_kana":"サイタマケン","city":"羽生市","city_kana":"ハニュウシ","town":"北荻島","town_kana":"キタオギシマ","prefecture_code":11},"0028":{"zip_code":"3480028","prefecture":"埼玉県","prefecture_kana":"サイタマケン","city":"羽生市","city_kana":"ハニュウシ","town":"北袋","town_kana":"キタブクロ","prefecture_code":11},"0043":{"zip_code":"3480043","prefecture":"埼玉県","prefecture_kana":"サイタマケン","city":"羽生市","city_kana":"ハニュウシ","town":"桑崎","town_kana":"クワサキ","prefecture_code":11},"0024":{"zip_code":"3480024","prefecture":"埼玉県","prefecture_kana":"サイタマケン","city":"羽生市","city_kana":"ハニュウシ","town":"神戸","town_kana":"ゴウド","prefecture_code":11},"0042":{"zip_code":"3480042","prefecture":"埼玉県","prefecture_kana":"サイタマケン","city":"羽生市","city_kana":"ハニュウシ","town":"小須賀","town_kana":"コスカ","prefecture_code":11},"0037":{"zip_code":"3480037","prefecture":"埼玉県","prefecture_kana":"サイタマケン","city":"羽生市","city_kana":"ハニュウシ","town":"小松","town_kana":"コマツ","prefecture_code":11},"0038":{"zip_code":"3480038","prefecture":"埼玉県","prefecture_kana":"サイタマケン","city":"羽生市","city_kana":"ハニュウシ","town":"小松台","town_kana":"コマツダイ","prefecture_code":11},"0045":{"zip_code":"3480045","prefecture":"埼玉県","prefecture_kana":"サイタマケン","city":"羽生市","city_kana":"ハニュウシ","town":"下岩瀬","town_kana":"シモイワセ","prefecture_code":11},"0034":{"zip_code":"3480034","prefecture":"埼玉県","prefecture_kana":"サイタマケン","city":"羽生市","city_kana":"ハニュウシ","town":"下川崎","town_kana":"シモカワサキ","prefecture_code":11},"0047":{"zip_code":"3480047","prefecture":"埼玉県","prefecture_kana":"サイタマケン","city":"羽生市","city_kana":"ハニュウシ","town":"下新郷","town_kana":"シモシンゴウ","prefecture_code":11},"0048":{"zip_code":"3480048","prefecture":"埼玉県","prefecture_kana":"サイタマケン","city":"羽生市","city_kana":"ハニュウシ","town":"下新田","town_kana":"シモシンデン","prefecture_code":11},"0022":{"zip_code":"3480022","prefecture":"埼玉県","prefecture_kana":"サイタマケン","city":"羽生市","city_kana":"ハニュウシ","town":"下手子林","town_kana":"シモテコバヤシ","prefecture_code":11},"0026":{"zip_code":"3480026","prefecture":"埼玉県","prefecture_kana":"サイタマケン","city":"羽生市","city_kana":"ハニュウシ","town":"下羽生","town_kana":"シモハニュウ","prefecture_code":11},"0006":{"zip_code":"3480006","prefecture":"埼玉県","prefecture_kana":"サイタマケン","city":"羽生市","city_kana":"ハニュウシ","town":"下村君","town_kana":"シモムラキミ","prefecture_code":11},"0033":{"zip_code":"3480033","prefecture":"埼玉県","prefecture_kana":"サイタマケン","city":"羽生市","city_kana":"ハニュウシ","town":"須影","town_kana":"スカゲ","prefecture_code":11},"0036":{"zip_code":"3480036","prefecture":"埼玉県","prefecture_kana":"サイタマケン","city":"羽生市","city_kana":"ハニュウシ","town":"砂山","town_kana":"スナヤマ","prefecture_code":11},"0058":{"zip_code":"3480058","prefecture":"埼玉県","prefecture_kana":"サイタマケン","city":"羽生市","city_kana":"ハニュウシ","town":"中央","town_kana":"チュウオウ","prefecture_code":11},"0001":{"zip_code":"3480001","prefecture":"埼玉県","prefecture_kana":"サイタマケン","city":"羽生市","city_kana":"ハニュウシ","town":"堤","town_kana":"ツツミ","prefecture_code":11},"0003":{"zip_code":"3480003","prefecture":"埼玉県","prefecture_kana":"サイタマケン","city":"羽生市","city_kana":"ハニュウシ","town":"常木","town_kana":"ツネギ","prefecture_code":11},"0046":{"zip_code":"3480046","prefecture":"埼玉県","prefecture_kana":"サイタマケン","city":"羽生市","city_kana":"ハニュウシ","town":"中岩瀬","town_kana":"ナカイワセ","prefecture_code":11},"0021":{"zip_code":"3480021","prefecture":"埼玉県","prefecture_kana":"サイタマケン","city":"羽生市","city_kana":"ハニュウシ","town":"中手子林","town_kana":"ナカテコバヤシ","prefecture_code":11},"0054":{"zip_code":"3480054","prefecture":"埼玉県","prefecture_kana":"サイタマケン","city":"羽生市","city_kana":"ハニュウシ","town":"西","town_kana":"ニシ","prefecture_code":11},"0055":{"zip_code":"3480055","prefecture":"埼玉県","prefecture_kana":"サイタマケン","city":"羽生市","city_kana":"ハニュウシ","town":"羽生","town_kana":"ハニュウ","prefecture_code":11},"0052":{"zip_code":"3480052","prefecture":"埼玉県","prefecture_kana":"サイタマケン","city":"羽生市","city_kana":"ハニュウシ","town":"東","town_kana":"ヒガシ","prefecture_code":11},"0032":{"zip_code":"3480032","prefecture":"埼玉県","prefecture_kana":"サイタマケン","city":"羽生市","city_kana":"ハニュウシ","town":"秀安","town_kana":"ヒデヤス","prefecture_code":11},"0013":{"zip_code":"3480013","prefecture":"埼玉県","prefecture_kana":"サイタマケン","city":"羽生市","city_kana":"ハニュウシ","town":"日野手新田","town_kana":"ヒノテシンデン","prefecture_code":11},"0064":{"zip_code":"3480064","prefecture":"埼玉県","prefecture_kana":"サイタマケン","city":"羽生市","city_kana":"ハニュウシ","town":"藤井上組","town_kana":"フジイカミグミ","prefecture_code":11},"0065":{"zip_code":"3480065","prefecture":"埼玉県","prefecture_kana":"サイタマケン","city":"羽生市","city_kana":"ハニュウシ","town":"藤井下組","town_kana":"フジイシモグミ","prefecture_code":11},"0063":{"zip_code":"3480063","prefecture":"埼玉県","prefecture_kana":"サイタマケン","city":"羽生市","city_kana":"ハニュウシ","town":"発戸","town_kana":"ホット","prefecture_code":11},"0051":{"zip_code":"3480051","prefecture":"埼玉県","prefecture_kana":"サイタマケン","city":"羽生市","city_kana":"ハニュウシ","town":"本川俣","town_kana":"ホンカワマタ","prefecture_code":11},"0023":{"zip_code":"3480023","prefecture":"埼玉県","prefecture_kana":"サイタマケン","city":"羽生市","city_kana":"ハニュウシ","town":"町屋","town_kana":"マチヤ","prefecture_code":11},"0011":{"zip_code":"3480011","prefecture":"埼玉県","prefecture_kana":"サイタマケン","city":"羽生市","city_kana":"ハニュウシ","town":"三田ケ谷","town_kana":"ミタカヤ","prefecture_code":11},"0053":{"zip_code":"3480053","prefecture":"埼玉県","prefecture_kana":"サイタマケン","city":"羽生市","city_kana":"ハニュウシ","town":"南","town_kana":"ミナミ","prefecture_code":11},"0071":{"zip_code":"3480071","prefecture":"埼玉県","prefecture_kana":"サイタマケン","city":"羽生市","city_kana":"ハニュウシ","town":"南羽生","town_kana":"ミナミハニュウ","prefecture_code":11},"0002":{"zip_code":"3480002","prefecture":"埼玉県","prefecture_kana":"サイタマケン","city":"羽生市","city_kana":"ハニュウシ","town":"名","town_kana":"ミョウ","prefecture_code":11},"0004":{"zip_code":"3480004","prefecture":"埼玉県","prefecture_kana":"サイタマケン","city":"羽生市","city_kana":"ハニュウシ","town":"弥勒","town_kana":"ミロク","prefecture_code":11},"0012":{"zip_code":"3480012","prefecture":"埼玉県","prefecture_kana":"サイタマケン","city":"羽生市","city_kana":"ハニュウシ","town":"与兵エ新田","town_kana":"ヨヘエシンデン","prefecture_code":11}}