{"1221":{"zip_code":"3491221","prefecture":"栃木県","prefecture_kana":"トチギケン","city":"栃木市","city_kana":"トチギシ","town":"藤岡町下宮","town_kana":"フジオカマチシタミヤ","prefecture_code":9},"1144":{"zip_code":"3491144","prefecture":"埼玉県","prefecture_kana":"サイタマケン","city":"加須市","city_kana":"カゾシ","town":"阿佐間","town_kana":"アザマ","prefecture_code":11},"1146":{"zip_code":"3491146","prefecture":"埼玉県","prefecture_kana":"サイタマケン","city":"加須市","city_kana":"カゾシ","town":"新井新田","town_kana":"アライシンデン","prefecture_code":11},"1211":{"zip_code":"3491211","prefecture":"埼玉県","prefecture_kana":"サイタマケン","city":"加須市","city_kana":"カゾシ","town":"飯積","town_kana":"イイヅミ","prefecture_code":11},"1215":{"zip_code":"3491215","prefecture":"埼玉県","prefecture_kana":"サイタマケン","city":"加須市","city_kana":"カゾシ","town":"伊賀袋","town_kana":"イガフクロ","prefecture_code":11},"1143":{"zip_code":"3491143","prefecture":"埼玉県","prefecture_kana":"サイタマケン","city":"加須市","city_kana":"カゾシ","town":"生出","town_kana":"オイデ","prefecture_code":11},"1202":{"zip_code":"3491202","prefecture":"埼玉県","prefecture_kana":"サイタマケン","city":"加須市","city_kana":"カゾシ","town":"小野袋","town_kana":"オノフクロ","prefecture_code":11},"1203":{"zip_code":"3491203","prefecture":"埼玉県","prefecture_kana":"サイタマケン","city":"加須市","city_kana":"カゾシ","town":"柏戸","town_kana":"カシワド","prefecture_code":11},"1147":{"zip_code":"3491147","prefecture":"埼玉県","prefecture_kana":"サイタマケン","city":"加須市","city_kana":"カゾシ","town":"北大桑","town_kana":"キタオオクワ","prefecture_code":11},"1134":{"zip_code":"3491134","prefecture":"埼玉県","prefecture_kana":"サイタマケン","city":"加須市","city_kana":"カゾシ","town":"北下新井","town_kana":"キタシモアライ","prefecture_code":11},"1135":{"zip_code":"3491135","prefecture":"埼玉県","prefecture_kana":"サイタマケン","city":"加須市","city_kana":"カゾシ","town":"北平野","town_kana":"キタヒラノ","prefecture_code":11},"1154":{"zip_code":"3491154","prefecture":"埼玉県","prefecture_kana":"サイタマケン","city":"加須市","city_kana":"カゾシ","town":"外記新田","town_kana":"ゲキシンデン","prefecture_code":11},"1133":{"zip_code":"3491133","prefecture":"埼玉県","prefecture_kana":"サイタマケン","city":"加須市","city_kana":"カゾシ","town":"琴寄","town_kana":"コトヨリ","prefecture_code":11},"1214":{"zip_code":"3491214","prefecture":"埼玉県","prefecture_kana":"サイタマケン","city":"加須市","city_kana":"カゾシ","town":"駒場","town_kana":"コマバ","prefecture_code":11},"1213":{"zip_code":"3491213","prefecture":"埼玉県","prefecture_kana":"サイタマケン","city":"加須市","city_kana":"カゾシ","town":"栄","town_kana":"サカエ","prefecture_code":11},"1151":{"zip_code":"3491151","prefecture":"埼玉県","prefecture_kana":"サイタマケン","city":"加須市","city_kana":"カゾシ","town":"佐波","town_kana":"ザワ","prefecture_code":11},"1142":{"zip_code":"3491142","prefecture":"埼玉県","prefecture_kana":"サイタマケン","city":"加須市","city_kana":"カゾシ","town":"杓子木","town_kana":"シャクシギ","prefecture_code":11},"1153":{"zip_code":"3491153","prefecture":"埼玉県","prefecture_kana":"サイタマケン","city":"加須市","city_kana":"カゾシ","town":"新川通","town_kana":"シンカワドオリ","prefecture_code":11},"1158":{"zip_code":"3491158","prefecture":"埼玉県","prefecture_kana":"サイタマケン","city":"加須市","city_kana":"カゾシ","town":"新利根","town_kana":"シントネ","prefecture_code":11},"1155":{"zip_code":"3491155","prefecture":"埼玉県","prefecture_kana":"サイタマケン","city":"加須市","city_kana":"カゾシ","town":"砂原","town_kana":"スナハラ","prefecture_code":11},"1157":{"zip_code":"3491157","prefecture":"埼玉県","prefecture_kana":"サイタマケン","city":"加須市","city_kana":"カゾシ","town":"道目","town_kana":"ドウメ","prefecture_code":11},"1148":{"zip_code":"3491148","prefecture":"埼玉県","prefecture_kana":"サイタマケン","city":"加須市","city_kana":"カゾシ","town":"豊野台","town_kana":"トヨノダイ","prefecture_code":11},"1131":{"zip_code":"3491131","prefecture":"埼玉県","prefecture_kana":"サイタマケン","city":"加須市","city_kana":"カゾシ","town":"中渡","town_kana":"ナカワタ","prefecture_code":11},"1132":{"zip_code":"3491132","prefecture":"埼玉県","prefecture_kana":"サイタマケン","city":"加須市","city_kana":"カゾシ","town":"旗井","town_kana":"ハタイ","prefecture_code":11},"1156":{"zip_code":"3491156","prefecture":"埼玉県","prefecture_kana":"サイタマケン","city":"加須市","city_kana":"カゾシ","town":"細間","town_kana":"ホソマ","prefecture_code":11},"1216":{"zip_code":"3491216","prefecture":"埼玉県","prefecture_kana":"サイタマケン","city":"加須市","city_kana":"カゾシ","town":"本郷","town_kana":"ホンゴウ","prefecture_code":11},"1145":{"zip_code":"3491145","prefecture":"埼玉県","prefecture_kana":"サイタマケン","city":"加須市","city_kana":"カゾシ","town":"間口","town_kana":"マクチ","prefecture_code":11},"1141":{"zip_code":"3491141","prefecture":"埼玉県","prefecture_kana":"サイタマケン","city":"加須市","city_kana":"カゾシ","town":"松永新田","town_kana":"マツナガシンデン","prefecture_code":11},"1205":{"zip_code":"3491205","prefecture":"埼玉県","prefecture_kana":"サイタマケン","city":"加須市","city_kana":"カゾシ","town":"向古河","town_kana":"ムカイコガ","prefecture_code":11},"1212":{"zip_code":"3491212","prefecture":"埼玉県","prefecture_kana":"サイタマケン","city":"加須市","city_kana":"カゾシ","town":"麦倉","town_kana":"ムギクラ","prefecture_code":11},"1201":{"zip_code":"3491201","prefecture":"埼玉県","prefecture_kana":"サイタマケン","city":"加須市","city_kana":"カゾシ","town":"柳生","town_kana":"ヤギュウ","prefecture_code":11},"1152":{"zip_code":"3491152","prefecture":"埼玉県","prefecture_kana":"サイタマケン","city":"加須市","city_kana":"カゾシ","town":"弥兵衛","town_kana":"ヤヘエ","prefecture_code":11},"1204":{"zip_code":"3491204","prefecture":"埼玉県","prefecture_kana":"サイタマケン","city":"加須市","city_kana":"カゾシ","town":"陽光台","town_kana":"ヨウコウダイ","prefecture_code":11},"1115":{"zip_code":"3491115","prefecture":"埼玉県","prefecture_kana":"サイタマケン","city":"久喜市","city_kana":"クキシ","town":"新井","town_kana":"アライ","prefecture_code":11},"1121":{"zip_code":"3491121","prefecture":"埼玉県","prefecture_kana":"サイタマケン","city":"久喜市","city_kana":"クキシ","town":"伊坂","town_kana":"イサカ","prefecture_code":11},"1114":{"zip_code":"3491114","prefecture":"埼玉県","prefecture_kana":"サイタマケン","city":"久喜市","city_kana":"クキシ","town":"河原代","town_kana":"カワラダイ","prefecture_code":11},"1111":{"zip_code":"3491111","prefecture":"埼玉県","prefecture_kana":"サイタマケン","city":"久喜市","city_kana":"クキシ","town":"北広島","town_kana":"キタヒロシマ","prefecture_code":11},"1113":{"zip_code":"3491113","prefecture":"埼玉県","prefecture_kana":"サイタマケン","city":"久喜市","city_kana":"クキシ","town":"狐塚","town_kana":"キツネヅカ","prefecture_code":11},"1104":{"zip_code":"3491104","prefecture":"埼玉県","prefecture_kana":"サイタマケン","city":"久喜市","city_kana":"クキシ","town":"栗橋","town_kana":"クリハシ","prefecture_code":11},"1101":{"zip_code":"3491101","prefecture":"埼玉県","prefecture_kana":"サイタマケン","city":"久喜市","city_kana":"クキシ","town":"栗橋北","town_kana":"クリハシキタ","prefecture_code":11},"1102":{"zip_code":"3491102","prefecture":"埼玉県","prefecture_kana":"サイタマケン","city":"久喜市","city_kana":"クキシ","town":"栗橋中央","town_kana":"クリハシチュウオウ","prefecture_code":11},"1103":{"zip_code":"3491103","prefecture":"埼玉県","prefecture_kana":"サイタマケン","city":"久喜市","city_kana":"クキシ","town":"栗橋東","town_kana":"クリハシヒガシ","prefecture_code":11},"1105":{"zip_code":"3491105","prefecture":"埼玉県","prefecture_kana":"サイタマケン","city":"久喜市","city_kana":"クキシ","town":"小右衛門","town_kana":"コエモン","prefecture_code":11},"1124":{"zip_code":"3491124","prefecture":"埼玉県","prefecture_kana":"サイタマケン","city":"久喜市","city_kana":"クキシ","town":"佐間","town_kana":"サマ","prefecture_code":11},"1116":{"zip_code":"3491116","prefecture":"埼玉県","prefecture_kana":"サイタマケン","city":"久喜市","city_kana":"クキシ","town":"島川","town_kana":"シマガワ","prefecture_code":11},"1125":{"zip_code":"3491125","prefecture":"埼玉県","prefecture_kana":"サイタマケン","city":"久喜市","city_kana":"クキシ","town":"高柳","town_kana":"タカヤナギ","prefecture_code":11},"1112":{"zip_code":"3491112","prefecture":"埼玉県","prefecture_kana":"サイタマケン","city":"久喜市","city_kana":"クキシ","town":"中里","town_kana":"ナカザト","prefecture_code":11},"1123":{"zip_code":"3491123","prefecture":"埼玉県","prefecture_kana":"サイタマケン","city":"久喜市","city_kana":"クキシ","town":"間鎌","town_kana":"マガマ","prefecture_code":11},"1122":{"zip_code":"3491122","prefecture":"埼玉県","prefecture_kana":"サイタマケン","city":"久喜市","city_kana":"クキシ","town":"松永","town_kana":"マツナガ","prefecture_code":11},"1106":{"zip_code":"3491106","prefecture":"埼玉県","prefecture_kana":"サイタマケン","city":"久喜市","city_kana":"クキシ","town":"緑","town_kana":"ミドリ","prefecture_code":11},"1117":{"zip_code":"3491117","prefecture":"埼玉県","prefecture_kana":"サイタマケン","city":"久喜市","city_kana":"クキシ","town":"南栗橋","town_kana":"ミナミクリハシ","prefecture_code":11},"0100":{"zip_code":"3490100","prefecture":"埼玉県","prefecture_kana":"サイタマケン","city":"蓮田市","city_kana":"ハスダシ","town":"","town_kana":"","prefecture_code":11},"0126":{"zip_code":"3490126","prefecture":"埼玉県","prefecture_kana":"サイタマケン","city":"蓮田市","city_kana":"ハスダシ","town":"綾瀬","town_kana":"アヤセ","prefecture_code":11},"0135":{"zip_code":"3490135","prefecture":"埼玉県","prefecture_kana":"サイタマケン","city":"蓮田市","city_kana":"ハスダシ","town":"井沼","town_kana":"イヌマ","prefecture_code":11},"0133":{"zip_code":"3490133","prefecture":"埼玉県","prefecture_kana":"サイタマケン","city":"蓮田市","city_kana":"ハスダシ","town":"閏戸","town_kana":"ウルイド","prefecture_code":11},"0102":{"zip_code":"3490102","prefecture":"埼玉県","prefecture_kana":"サイタマケン","city":"蓮田市","city_kana":"ハスダシ","town":"江ケ崎","town_kana":"エガサキ","prefecture_code":11},"0125":{"zip_code":"3490125","prefecture":"埼玉県","prefecture_kana":"サイタマケン","city":"蓮田市","city_kana":"ハスダシ","town":"御前橋","town_kana":"オマエバシ","prefecture_code":11},"0132":{"zip_code":"3490132","prefecture":"埼玉県","prefecture_kana":"サイタマケン","city":"蓮田市","city_kana":"ハスダシ","town":"貝塚","town_kana":"カイヅカ","prefecture_code":11},"0122":{"zip_code":"3490122","prefecture":"埼玉県","prefecture_kana":"サイタマケン","city":"蓮田市","city_kana":"ハスダシ","town":"上","town_kana":"カミ","prefecture_code":11},"0136":{"zip_code":"3490136","prefecture":"埼玉県","prefecture_kana":"サイタマケン","city":"蓮田市","city_kana":"ハスダシ","town":"上平野","town_kana":"カミヒラノ","prefecture_code":11},"0112":{"zip_code":"3490112","prefecture":"埼玉県","prefecture_kana":"サイタマケン","city":"蓮田市","city_kana":"ハスダシ","town":"川島","town_kana":"カワジマ","prefecture_code":11},"0101":{"zip_code":"3490101","prefecture":"埼玉県","prefecture_kana":"サイタマケン","city":"蓮田市","city_kana":"ハスダシ","town":"黒浜","town_kana":"クロハマ","prefecture_code":11},"0134":{"zip_code":"3490134","prefecture":"埼玉県","prefecture_kana":"サイタマケン","city":"蓮田市","city_kana":"ハスダシ","town":"駒崎","town_kana":"コマサキ","prefecture_code":11},"0113":{"zip_code":"3490113","prefecture":"埼玉県","prefecture_kana":"サイタマケン","city":"蓮田市","city_kana":"ハスダシ","town":"桜台","town_kana":"サクラダイ","prefecture_code":11},"0103":{"zip_code":"3490103","prefecture":"埼玉県","prefecture_kana":"サイタマケン","city":"蓮田市","city_kana":"ハスダシ","town":"笹山","town_kana":"ササヤマ","prefecture_code":11},"0143":{"zip_code":"3490143","prefecture":"埼玉県","prefecture_kana":"サイタマケン","city":"蓮田市","city_kana":"ハスダシ","town":"城","town_kana":"ジョウ","prefecture_code":11},"0124":{"zip_code":"3490124","prefecture":"埼玉県","prefecture_kana":"サイタマケン","city":"蓮田市","city_kana":"ハスダシ","town":"末広","town_kana":"スエヒロ","prefecture_code":11},"0121":{"zip_code":"3490121","prefecture":"埼玉県","prefecture_kana":"サイタマケン","city":"蓮田市","city_kana":"ハスダシ","town":"関山","town_kana":"セキヤマ","prefecture_code":11},"0137":{"zip_code":"3490137","prefecture":"埼玉県","prefecture_kana":"サイタマケン","city":"蓮田市","city_kana":"ハスダシ","town":"高虫","town_kana":"タカムシ","prefecture_code":11},"0144":{"zip_code":"3490144","prefecture":"埼玉県","prefecture_kana":"サイタマケン","city":"蓮田市","city_kana":"ハスダシ","town":"椿山","town_kana":"ツバキヤマ","prefecture_code":11},"0141":{"zip_code":"3490141","prefecture":"埼玉県","prefecture_kana":"サイタマケン","city":"蓮田市","city_kana":"ハスダシ","town":"西新宿","town_kana":"ニシシンシュク","prefecture_code":11},"0145":{"zip_code":"3490145","prefecture":"埼玉県","prefecture_kana":"サイタマケン","city":"蓮田市","city_kana":"ハスダシ","town":"西城","town_kana":"ニシジョウ","prefecture_code":11},"0131":{"zip_code":"3490131","prefecture":"埼玉県","prefecture_kana":"サイタマケン","city":"蓮田市","city_kana":"ハスダシ","town":"根金","town_kana":"ネガネ","prefecture_code":11},"0115":{"zip_code":"3490115","prefecture":"埼玉県","prefecture_kana":"サイタマケン","city":"蓮田市","city_kana":"ハスダシ","town":"蓮田","town_kana":"ハスダ","prefecture_code":11},"0111":{"zip_code":"3490111","prefecture":"埼玉県","prefecture_kana":"サイタマケン","city":"蓮田市","city_kana":"ハスダシ","town":"東","town_kana":"ヒガシ","prefecture_code":11},"0123":{"zip_code":"3490123","prefecture":"埼玉県","prefecture_kana":"サイタマケン","city":"蓮田市","city_kana":"ハスダシ","town":"本町","town_kana":"ホンチョウ","prefecture_code":11},"0114":{"zip_code":"3490114","prefecture":"埼玉県","prefecture_kana":"サイタマケン","city":"蓮田市","city_kana":"ハスダシ","town":"馬込","town_kana":"マゴメ","prefecture_code":11},"0104":{"zip_code":"3490104","prefecture":"埼玉県","prefecture_kana":"サイタマケン","city":"蓮田市","city_kana":"ハスダシ","town":"緑町","town_kana":"ミドリチョウ","prefecture_code":11},"0142":{"zip_code":"3490142","prefecture":"埼玉県","prefecture_kana":"サイタマケン","city":"蓮田市","city_kana":"ハスダシ","town":"南新宿","town_kana":"ミナミシンシュク","prefecture_code":11},"0127":{"zip_code":"3490127","prefecture":"埼玉県","prefecture_kana":"サイタマケン","city":"蓮田市","city_kana":"ハスダシ","town":"見沼町","town_kana":"ミヌマチョウ","prefecture_code":11},"0128":{"zip_code":"3490128","prefecture":"埼玉県","prefecture_kana":"サイタマケン","city":"蓮田市","city_kana":"ハスダシ","town":"山ノ内","town_kana":"ヤマノウチ","prefecture_code":11},"0200":{"zip_code":"3490200","prefecture":"埼玉県","prefecture_kana":"サイタマケン","city":"白岡市","city_kana":"シラオカシ","town":"","town_kana":"","prefecture_code":11},"0202":{"zip_code":"3490202","prefecture":"埼玉県","prefecture_kana":"サイタマケン","city":"白岡市","city_kana":"シラオカシ","town":"荒井新田","town_kana":"アライシンデン","prefecture_code":11},"0225":{"zip_code":"3490225","prefecture":"埼玉県","prefecture_kana":"サイタマケン","city":"白岡市","city_kana":"シラオカシ","town":"太田新井","town_kana":"オオタアライ","prefecture_code":11},"0226":{"zip_code":"3490226","prefecture":"埼玉県","prefecture_kana":"サイタマケン","city":"白岡市","city_kana":"シラオカシ","town":"岡泉","town_kana":"オカイズミ","prefecture_code":11},"0221":{"zip_code":"3490221","prefecture":"埼玉県","prefecture_kana":"サイタマケン","city":"白岡市","city_kana":"シラオカシ","town":"上野田","town_kana":"カミノダ","prefecture_code":11},"0217":{"zip_code":"3490217","prefecture":"埼玉県","prefecture_kana":"サイタマケン","city":"白岡市","city_kana":"シラオカシ","town":"小久喜","town_kana":"コグキ","prefecture_code":11},"0216":{"zip_code":"3490216","prefecture":"埼玉県","prefecture_kana":"サイタマケン","city":"白岡市","city_kana":"シラオカシ","town":"実ケ谷","town_kana":"サナガヤ","prefecture_code":11},"0204":{"zip_code":"3490204","prefecture":"埼玉県","prefecture_kana":"サイタマケン","city":"白岡市","city_kana":"シラオカシ","town":"篠津","town_kana":"シノヅ","prefecture_code":11},"0201":{"zip_code":"3490201","prefecture":"埼玉県","prefecture_kana":"サイタマケン","city":"白岡市","city_kana":"シラオカシ","town":"柴山","town_kana":"シバヤマ","prefecture_code":11},"0203":{"zip_code":"3490203","prefecture":"埼玉県","prefecture_kana":"サイタマケン","city":"白岡市","city_kana":"シラオカシ","town":"下大崎","town_kana":"シモオオサキ","prefecture_code":11},"0223":{"zip_code":"3490223","prefecture":"埼玉県","prefecture_kana":"サイタマケン","city":"白岡市","city_kana":"シラオカシ","town":"下野田","town_kana":"シモノダ","prefecture_code":11},"0218":{"zip_code":"3490218","prefecture":"埼玉県","prefecture_kana":"サイタマケン","city":"白岡市","city_kana":"シラオカシ","town":"白岡","town_kana":"シラオカ","prefecture_code":11},"0219":{"zip_code":"3490219","prefecture":"埼玉県","prefecture_kana":"サイタマケン","city":"白岡市","city_kana":"シラオカシ","town":"白岡東","town_kana":"シラオカヒガシ","prefecture_code":11},"0212":{"zip_code":"3490212","prefecture":"埼玉県","prefecture_kana":"サイタマケン","city":"白岡市","city_kana":"シラオカシ","town":"新白岡","town_kana":"シンシラオカ","prefecture_code":11},"0215":{"zip_code":"3490215","prefecture":"埼玉県","prefecture_kana":"サイタマケン","city":"白岡市","city_kana":"シラオカシ","town":"千駄野","town_kana":"センダノ","prefecture_code":11},"0213":{"zip_code":"3490213","prefecture":"埼玉県","prefecture_kana":"サイタマケン","city":"白岡市","city_kana":"シラオカシ","town":"高岩","town_kana":"タカイワ","prefecture_code":11},"0222":{"zip_code":"3490222","prefecture":"埼玉県","prefecture_kana":"サイタマケン","city":"白岡市","city_kana":"シラオカシ","town":"爪田ケ谷","town_kana":"ツメタガヤ","prefecture_code":11},"0214":{"zip_code":"3490214","prefecture":"埼玉県","prefecture_kana":"サイタマケン","city":"白岡市","city_kana":"シラオカシ","town":"寺塚","town_kana":"テラツカ","prefecture_code":11},"0205":{"zip_code":"3490205","prefecture":"埼玉県","prefecture_kana":"サイタマケン","city":"白岡市","city_kana":"シラオカシ","town":"西","town_kana":"ニシ","prefecture_code":11},"0224":{"zip_code":"3490224","prefecture":"埼玉県","prefecture_kana":"サイタマケン","city":"白岡市","city_kana":"シラオカシ","town":"彦兵衛","town_kana":"ヒコベエ","prefecture_code":11},"0211":{"zip_code":"3490211","prefecture":"埼玉県","prefecture_kana":"サイタマケン","city":"白岡市","city_kana":"シラオカシ","town":"野牛","town_kana":"ヤギュウ","prefecture_code":11}}