{"1100":{"zip_code":"3501100","prefecture":"埼玉県","prefecture_kana":"サイタマケン","city":"川越市","city_kana":"カワゴエシ","town":"","town_kana":"","prefecture_code":11},"1173":{"zip_code":"3501173","prefecture":"埼玉県","prefecture_kana":"サイタマケン","city":"川越市","city_kana":"カワゴエシ","town":"安比奈新田","town_kana":"アイナシンデン","prefecture_code":11},"1164":{"zip_code":"3501164","prefecture":"埼玉県","prefecture_kana":"サイタマケン","city":"川越市","city_kana":"カワゴエシ","town":"青柳","town_kana":"アオヤギ","prefecture_code":11},"1126":{"zip_code":"3501126","prefecture":"埼玉県","prefecture_kana":"サイタマケン","city":"川越市","city_kana":"カワゴエシ","town":"旭町","town_kana":"アサヒチョウ","prefecture_code":11},"0806":{"zip_code":"3500806","prefecture":"埼玉県","prefecture_kana":"サイタマケン","city":"川越市","city_kana":"カワゴエシ","town":"天沼新田","town_kana":"アマヌマシンデン","prefecture_code":11},"1125":{"zip_code":"3501125","prefecture":"埼玉県","prefecture_kana":"サイタマケン","city":"川越市","city_kana":"カワゴエシ","town":"新宿","town_kana":"アラジュク","prefecture_code":11},"1124":{"zip_code":"3501124","prefecture":"埼玉県","prefecture_kana":"サイタマケン","city":"川越市","city_kana":"カワゴエシ","town":"新宿町","town_kana":"アラジュクマチ","prefecture_code":11},"1171":{"zip_code":"3501171","prefecture":"埼玉県","prefecture_kana":"サイタマケン","city":"川越市","city_kana":"カワゴエシ","town":"池辺","town_kana":"イケノベ","prefecture_code":11},"0855":{"zip_code":"3500855","prefecture":"埼玉県","prefecture_kana":"サイタマケン","city":"川越市","city_kana":"カワゴエシ","town":"伊佐沼","town_kana":"イサヌマ","prefecture_code":11},"0837":{"zip_code":"3500837","prefecture":"埼玉県","prefecture_kana":"サイタマケン","city":"川越市","city_kana":"カワゴエシ","town":"石田","town_kana":"イシダ","prefecture_code":11},"0835":{"zip_code":"3500835","prefecture":"埼玉県","prefecture_kana":"サイタマケン","city":"川越市","city_kana":"カワゴエシ","town":"石田本郷","town_kana":"イシダホンゴウ","prefecture_code":11},"0824":{"zip_code":"3500824","prefecture":"埼玉県","prefecture_kana":"サイタマケン","city":"川越市","city_kana":"カワゴエシ","town":"石原町","town_kana":"イシワラマチ","prefecture_code":11},"0026":{"zip_code":"3500026","prefecture":"埼玉県","prefecture_kana":"サイタマケン","city":"川越市","city_kana":"カワゴエシ","town":"泉町","town_kana":"イズミチョウ","prefecture_code":11},"1108":{"zip_code":"3501108","prefecture":"埼玉県","prefecture_kana":"サイタマケン","city":"川越市","city_kana":"カワゴエシ","town":"伊勢原町","town_kana":"イセハラチョウ","prefecture_code":11},"1144":{"zip_code":"3501144","prefecture":"埼玉県","prefecture_kana":"サイタマケン","city":"川越市","city_kana":"カワゴエシ","town":"稲荷町","town_kana":"イナリチョウ","prefecture_code":11},"0015":{"zip_code":"3500015","prefecture":"埼玉県","prefecture_kana":"サイタマケン","city":"川越市","city_kana":"カワゴエシ","town":"今泉","town_kana":"イマイズミ","prefecture_code":11},"1105":{"zip_code":"3501105","prefecture":"埼玉県","prefecture_kana":"サイタマケン","city":"川越市","city_kana":"カワゴエシ","town":"今成","town_kana":"イマナリ","prefecture_code":11},"1151":{"zip_code":"3501151","prefecture":"埼玉県","prefecture_kana":"サイタマケン","city":"川越市","city_kana":"カワゴエシ","town":"今福","town_kana":"イマフク","prefecture_code":11},"0017":{"zip_code":"3500017","prefecture":"埼玉県","prefecture_kana":"サイタマケン","city":"川越市","city_kana":"カワゴエシ","town":"牛子","town_kana":"ウシコ","prefecture_code":11},"0816":{"zip_code":"3500816","prefecture":"埼玉県","prefecture_kana":"サイタマケン","city":"川越市","city_kana":"カワゴエシ","town":"上戸","town_kana":"ウワド","prefecture_code":11},"0817":{"zip_code":"3500817","prefecture":"埼玉県","prefecture_kana":"サイタマケン","city":"川越市","city_kana":"カワゴエシ","town":"上戸新町","town_kana":"ウワドシンマチ","prefecture_code":11},"1134":{"zip_code":"3501134","prefecture":"埼玉県","prefecture_kana":"サイタマケン","city":"川越市","city_kana":"カワゴエシ","town":"扇河岸","town_kana":"オウギガシ","prefecture_code":11},"0032":{"zip_code":"3500032","prefecture":"埼玉県","prefecture_kana":"サイタマケン","city":"川越市","city_kana":"カワゴエシ","town":"大仙波","town_kana":"オオセンバ","prefecture_code":11},"1128":{"zip_code":"3501128","prefecture":"埼玉県","prefecture_kana":"サイタマケン","city":"川越市","city_kana":"カワゴエシ","town":"大仙波新田","town_kana":"オオセンバシンデン","prefecture_code":11},"1129":{"zip_code":"3501129","prefecture":"埼玉県","prefecture_kana":"サイタマケン","city":"川越市","city_kana":"カワゴエシ","town":"大塚","town_kana":"オオツカ","prefecture_code":11},"1161":{"zip_code":"3501161","prefecture":"埼玉県","prefecture_kana":"サイタマケン","city":"川越市","city_kana":"カワゴエシ","town":"大塚新田","town_kana":"オオツカシンデン","prefecture_code":11},"1178":{"zip_code":"3501178","prefecture":"埼玉県","prefecture_kana":"サイタマケン","city":"川越市","city_kana":"カワゴエシ","town":"大塚新町","town_kana":"オオツカシンマチ","prefecture_code":11},"0057":{"zip_code":"3500057","prefecture":"埼玉県","prefecture_kana":"サイタマケン","city":"川越市","city_kana":"カワゴエシ","town":"大手町","town_kana":"オオテマチ","prefecture_code":11},"0021":{"zip_code":"3500021","prefecture":"埼玉県","prefecture_kana":"サイタマケン","city":"川越市","city_kana":"カワゴエシ","town":"大中居","town_kana":"オオナカイ","prefecture_code":11},"1168":{"zip_code":"3501168","prefecture":"埼玉県","prefecture_kana":"サイタマケン","city":"川越市","city_kana":"カワゴエシ","town":"大袋","town_kana":"オオフクロ","prefecture_code":11},"1167":{"zip_code":"3501167","prefecture":"埼玉県","prefecture_kana":"サイタマケン","city":"川越市","city_kana":"カワゴエシ","town":"大袋新田","town_kana":"オオフクロシンデン","prefecture_code":11},"1104":{"zip_code":"3501104","prefecture":"埼玉県","prefecture_kana":"サイタマケン","city":"川越市","city_kana":"カワゴエシ","town":"小ケ谷","town_kana":"オガヤ","prefecture_code":11},"0841":{"zip_code":"3500841","prefecture":"埼玉県","prefecture_kana":"サイタマケン","city":"川越市","city_kana":"カワゴエシ","town":"御成町","town_kana":"オナリチョウ","prefecture_code":11},"0012":{"zip_code":"3500012","prefecture":"埼玉県","prefecture_kana":"サイタマケン","city":"川越市","city_kana":"カワゴエシ","town":"萱沼","town_kana":"カイヌマ","prefecture_code":11},"1175":{"zip_code":"3501175","prefecture":"埼玉県","prefecture_kana":"サイタマケン","city":"川越市","city_kana":"カワゴエシ","town":"笠幡","town_kana":"カサハタ","prefecture_code":11},"1179":{"zip_code":"3501179","prefecture":"埼玉県","prefecture_kana":"サイタマケン","city":"川越市","city_kana":"カワゴエシ","town":"かし野台","town_kana":"カシノダイ","prefecture_code":11},"1103":{"zip_code":"3501103","prefecture":"埼玉県","prefecture_kana":"サイタマケン","city":"川越市","city_kana":"カワゴエシ","town":"霞ケ関東","town_kana":"カスミガセキヒガシ","prefecture_code":11},"1109":{"zip_code":"3501109","prefecture":"埼玉県","prefecture_kana":"サイタマケン","city":"川越市","city_kana":"カワゴエシ","town":"霞ケ関北","town_kana":"カスミガセキキタ","prefecture_code":11},"1174":{"zip_code":"3501174","prefecture":"埼玉県","prefecture_kana":"サイタマケン","city":"川越市","city_kana":"カワゴエシ","town":"かすみ野","town_kana":"カスミノ","prefecture_code":11},"0845":{"zip_code":"3500845","prefecture":"埼玉県","prefecture_kana":"サイタマケン","city":"川越市","city_kana":"カワゴエシ","town":"上老袋","town_kana":"カミオイブクロ","prefecture_code":11},"1135":{"zip_code":"3501135","prefecture":"埼玉県","prefecture_kana":"サイタマケン","city":"川越市","city_kana":"カワゴエシ","town":"上新河岸","town_kana":"カミシンガシ","prefecture_code":11},"0826":{"zip_code":"3500826","prefecture":"埼玉県","prefecture_kana":"サイタマケン","city":"川越市","city_kana":"カワゴエシ","town":"上寺山","town_kana":"カミテラヤマ","prefecture_code":11},"1112":{"zip_code":"3501112","prefecture":"埼玉県","prefecture_kana":"サイタマケン","city":"川越市","city_kana":"カワゴエシ","town":"上野田町","town_kana":"カミノダマチ","prefecture_code":11},"1154":{"zip_code":"3501154","prefecture":"埼玉県","prefecture_kana":"サイタマケン","city":"川越市","city_kana":"カワゴエシ","town":"上松原","town_kana":"カミマツバラ","prefecture_code":11},"0844":{"zip_code":"3500844","prefecture":"埼玉県","prefecture_kana":"サイタマケン","city":"川越市","city_kana":"カワゴエシ","town":"鴨田","town_kana":"カモダ","prefecture_code":11},"0852":{"zip_code":"3500852","prefecture":"埼玉県","prefecture_kana":"サイタマケン","city":"川越市","city_kana":"カワゴエシ","town":"川越","town_kana":"カワゴエ","prefecture_code":11},"1176":{"zip_code":"3501176","prefecture":"埼玉県","prefecture_kana":"サイタマケン","city":"川越市","city_kana":"カワゴエシ","town":"川鶴","town_kana":"カワツル","prefecture_code":11},"1177":{"zip_code":"3501177","prefecture":"埼玉県","prefecture_kana":"サイタマケン","city":"川越市","city_kana":"カワゴエシ","town":"かわつる三芳野","town_kana":"カワツルミヨシノ","prefecture_code":11},"1132":{"zip_code":"3501132","prefecture":"埼玉県","prefecture_kana":"サイタマケン","city":"川越市","city_kana":"カワゴエシ","town":"岸","town_kana":"キシ","prefecture_code":11},"1131":{"zip_code":"3501131","prefecture":"埼玉県","prefecture_kana":"サイタマケン","city":"川越市","city_kana":"カワゴエシ","town":"岸町","town_kana":"キシマチ","prefecture_code":11},"0842":{"zip_code":"3500842","prefecture":"埼玉県","prefecture_kana":"サイタマケン","city":"川越市","city_kana":"カワゴエシ","town":"北田島","town_kana":"キタタジマ","prefecture_code":11},"0061":{"zip_code":"3500061","prefecture":"埼玉県","prefecture_kana":"サイタマケン","city":"川越市","city_kana":"カワゴエシ","town":"喜多町","town_kana":"キタマチ","prefecture_code":11},"0016":{"zip_code":"3500016","prefecture":"埼玉県","prefecture_kana":"サイタマケン","city":"川越市","city_kana":"カワゴエシ","town":"木野目","town_kana":"キノメ","prefecture_code":11},"0011":{"zip_code":"3500011","prefecture":"埼玉県","prefecture_kana":"サイタマケン","city":"川越市","city_kana":"カワゴエシ","town":"久下戸","town_kana":"クゲド","prefecture_code":11},"0815":{"zip_code":"3500815","prefecture":"埼玉県","prefecture_kana":"サイタマケン","city":"川越市","city_kana":"カワゴエシ","town":"鯨井","town_kana":"クジライ","prefecture_code":11},"0809":{"zip_code":"3500809","prefecture":"埼玉県","prefecture_kana":"サイタマケン","city":"川越市","city_kana":"カワゴエシ","town":"鯨井新田","town_kana":"クジライシンデン","prefecture_code":11},"0055":{"zip_code":"3500055","prefecture":"埼玉県","prefecture_kana":"サイタマケン","city":"川越市","city_kana":"カワゴエシ","town":"久保町","town_kana":"クボマチ","prefecture_code":11},"1146":{"zip_code":"3501146","prefecture":"埼玉県","prefecture_kana":"サイタマケン","city":"川越市","city_kana":"カワゴエシ","town":"熊野町","town_kana":"クマノチョウ","prefecture_code":11},"0053":{"zip_code":"3500053","prefecture":"埼玉県","prefecture_kana":"サイタマケン","city":"川越市","city_kana":"カワゴエシ","town":"郭町","town_kana":"クルワマチ","prefecture_code":11},"1117":{"zip_code":"3501117","prefecture":"埼玉県","prefecture_kana":"サイタマケン","city":"川越市","city_kana":"カワゴエシ","town":"広栄町","town_kana":"コウエイチョウ","prefecture_code":11},"0031":{"zip_code":"3500031","prefecture":"埼玉県","prefecture_kana":"サイタマケン","city":"川越市","city_kana":"カワゴエシ","town":"小仙波","town_kana":"コセンバ","prefecture_code":11},"0036":{"zip_code":"3500036","prefecture":"埼玉県","prefecture_kana":"サイタマケン","city":"川越市","city_kana":"カワゴエシ","town":"小仙波町","town_kana":"コセンバマチ","prefecture_code":11},"0811":{"zip_code":"3500811","prefecture":"埼玉県","prefecture_kana":"サイタマケン","city":"川越市","city_kana":"カワゴエシ","town":"小堤","town_kana":"コヅツミ","prefecture_code":11},"1116":{"zip_code":"3501116","prefecture":"埼玉県","prefecture_kana":"サイタマケン","city":"川越市","city_kana":"カワゴエシ","town":"寿町","town_kana":"コトブキチョウ","prefecture_code":11},"0022":{"zip_code":"3500022","prefecture":"埼玉県","prefecture_kana":"サイタマケン","city":"川越市","city_kana":"カワゴエシ","town":"小中居","town_kana":"コナカイ","prefecture_code":11},"1106":{"zip_code":"3501106","prefecture":"埼玉県","prefecture_kana":"サイタマケン","city":"川越市","city_kana":"カワゴエシ","town":"小室","town_kana":"コムロ","prefecture_code":11},"0063":{"zip_code":"3500063","prefecture":"埼玉県","prefecture_kana":"サイタマケン","city":"川越市","city_kana":"カワゴエシ","town":"幸町","town_kana":"サイワイチョウ","prefecture_code":11},"0803":{"zip_code":"3500803","prefecture":"埼玉県","prefecture_kana":"サイタマケン","city":"川越市","city_kana":"カワゴエシ","town":"栄","town_kana":"サカエ","prefecture_code":11},"0054":{"zip_code":"3500054","prefecture":"埼玉県","prefecture_kana":"サイタマケン","city":"川越市","city_kana":"カワゴエシ","town":"三久保町","town_kana":"サンクボチョウ","prefecture_code":11},"0067":{"zip_code":"3500067","prefecture":"埼玉県","prefecture_kana":"サイタマケン","city":"川越市","city_kana":"カワゴエシ","town":"三光町","town_kana":"サンコウチョウ","prefecture_code":11},"0834":{"zip_code":"3500834","prefecture":"埼玉県","prefecture_kana":"サイタマケン","city":"川越市","city_kana":"カワゴエシ","town":"鹿飼","town_kana":"シシカイ","prefecture_code":11},"0051":{"zip_code":"3500051","prefecture":"埼玉県","prefecture_kana":"サイタマケン","city":"川越市","city_kana":"カワゴエシ","town":"志多町","town_kana":"シタマチ","prefecture_code":11},"0013":{"zip_code":"3500013","prefecture":"埼玉県","prefecture_kana":"サイタマケン","city":"川越市","city_kana":"カワゴエシ","town":"渋井","town_kana":"シブイ","prefecture_code":11},"1145":{"zip_code":"3501145","prefecture":"埼玉県","prefecture_kana":"サイタマケン","city":"川越市","city_kana":"カワゴエシ","town":"清水町","town_kana":"シミズチョウ","prefecture_code":11},"1155":{"zip_code":"3501155","prefecture":"埼玉県","prefecture_kana":"サイタマケン","city":"川越市","city_kana":"カワゴエシ","town":"下赤坂","town_kana":"シモアカサカ","prefecture_code":11},"0848":{"zip_code":"3500848","prefecture":"埼玉県","prefecture_kana":"サイタマケン","city":"川越市","city_kana":"カワゴエシ","town":"下老袋","town_kana":"シモオイブクロ","prefecture_code":11},"0812":{"zip_code":"3500812","prefecture":"埼玉県","prefecture_kana":"サイタマケン","city":"川越市","city_kana":"カワゴエシ","town":"下小坂","town_kana":"シモオサカ","prefecture_code":11},"1136":{"zip_code":"3501136","prefecture":"埼玉県","prefecture_kana":"サイタマケン","city":"川越市","city_kana":"カワゴエシ","town":"下新河岸","town_kana":"シモシンガシ","prefecture_code":11},"0804":{"zip_code":"3500804","prefecture":"埼玉県","prefecture_kana":"サイタマケン","city":"川越市","city_kana":"カワゴエシ","town":"下広谷","town_kana":"シモヒロヤ","prefecture_code":11},"1153":{"zip_code":"3501153","prefecture":"埼玉県","prefecture_kana":"サイタマケン","city":"川越市","city_kana":"カワゴエシ","town":"下松原","town_kana":"シモマツバラ","prefecture_code":11},"0853":{"zip_code":"3500853","prefecture":"埼玉県","prefecture_kana":"サイタマケン","city":"川越市","city_kana":"カワゴエシ","town":"城下町","town_kana":"シロシタマチ","prefecture_code":11},"0043":{"zip_code":"3500043","prefecture":"埼玉県","prefecture_kana":"サイタマケン","city":"川越市","city_kana":"カワゴエシ","town":"新富町","town_kana":"シントミチョウ","prefecture_code":11},"0823":{"zip_code":"3500823","prefecture":"埼玉県","prefecture_kana":"サイタマケン","city":"川越市","city_kana":"カワゴエシ","town":"神明町","town_kana":"シンメイチョウ","prefecture_code":11},"0064":{"zip_code":"3500064","prefecture":"埼玉県","prefecture_kana":"サイタマケン","city":"川越市","city_kana":"カワゴエシ","town":"末広町","town_kana":"スエヒロチョウ","prefecture_code":11},"0832":{"zip_code":"3500832","prefecture":"埼玉県","prefecture_kana":"サイタマケン","city":"川越市","city_kana":"カワゴエシ","town":"菅間","town_kana":"スガマ","prefecture_code":11},"0046":{"zip_code":"3500046","prefecture":"埼玉県","prefecture_kana":"サイタマケン","city":"川越市","city_kana":"カワゴエシ","town":"菅原町","town_kana":"スガワラマチ","prefecture_code":11},"1133":{"zip_code":"3501133","prefecture":"埼玉県","prefecture_kana":"サイタマケン","city":"川越市","city_kana":"カワゴエシ","town":"砂","town_kana":"スナ","prefecture_code":11},"1152":{"zip_code":"3501152","prefecture":"埼玉県","prefecture_kana":"サイタマケン","city":"川越市","city_kana":"カワゴエシ","town":"砂久保","town_kana":"スナクボ","prefecture_code":11},"1137":{"zip_code":"3501137","prefecture":"埼玉県","prefecture_kana":"サイタマケン","city":"川越市","city_kana":"カワゴエシ","town":"砂新田","town_kana":"スナシンデン","prefecture_code":11},"1147":{"zip_code":"3501147","prefecture":"埼玉県","prefecture_kana":"サイタマケン","city":"川越市","city_kana":"カワゴエシ","town":"諏訪町","town_kana":"スワチョウ","prefecture_code":11},"0034":{"zip_code":"3500034","prefecture":"埼玉県","prefecture_kana":"サイタマケン","city":"川越市","city_kana":"カワゴエシ","town":"仙波町","town_kana":"センバマチ","prefecture_code":11},"0004":{"zip_code":"3500004","prefecture":"埼玉県","prefecture_kana":"サイタマケン","city":"川越市","city_kana":"カワゴエシ","town":"高島","town_kana":"タカシマ","prefecture_code":11},"0801":{"zip_code":"3500801","prefecture":"埼玉県","prefecture_kana":"サイタマケン","city":"川越市","city_kana":"カワゴエシ","town":"竹野","town_kana":"タケノ","prefecture_code":11},"1113":{"zip_code":"3501113","prefecture":"埼玉県","prefecture_kana":"サイタマケン","city":"川越市","city_kana":"カワゴエシ","town":"田町","town_kana":"タマチ","prefecture_code":11},"0825":{"zip_code":"3500825","prefecture":"埼玉県","prefecture_kana":"サイタマケン","city":"川越市","city_kana":"カワゴエシ","town":"月吉町","town_kana":"ツキヨシマチ","prefecture_code":11},"0854":{"zip_code":"3500854","prefecture":"埼玉県","prefecture_kana":"サイタマケン","city":"川越市","city_kana":"カワゴエシ","town":"寺井","town_kana":"テライ","prefecture_code":11},"1141":{"zip_code":"3501141","prefecture":"埼玉県","prefecture_kana":"サイタマケン","city":"川越市","city_kana":"カワゴエシ","town":"寺尾","town_kana":"テラオ","prefecture_code":11},"0827":{"zip_code":"3500827","prefecture":"埼玉県","prefecture_kana":"サイタマケン","city":"川越市","city_kana":"カワゴエシ","town":"寺山","town_kana":"テラヤマ","prefecture_code":11},"0843":{"zip_code":"3500843","prefecture":"埼玉県","prefecture_kana":"サイタマケン","city":"川越市","city_kana":"カワゴエシ","town":"東明寺","town_kana":"トウミョウジ","prefecture_code":11},"0044":{"zip_code":"3500044","prefecture":"埼玉県","prefecture_kana":"サイタマケン","city":"川越市","city_kana":"カワゴエシ","town":"通町","town_kana":"トオリマチ","prefecture_code":11},"1119":{"zip_code":"3501119","prefecture":"埼玉県","prefecture_kana":"サイタマケン","city":"川越市","city_kana":"カワゴエシ","town":"豊田新田","town_kana":"トヨダシンデン","prefecture_code":11},"1110":{"zip_code":"3501110","prefecture":"埼玉県","prefecture_kana":"サイタマケン","city":"川越市","city_kana":"カワゴエシ","town":"豊田町","town_kana":"トヨダチョウ","prefecture_code":11},"1118":{"zip_code":"3501118","prefecture":"埼玉県","prefecture_kana":"サイタマケン","city":"川越市","city_kana":"カワゴエシ","town":"豊田本","town_kana":"トヨダホン","prefecture_code":11},"0856":{"zip_code":"3500856","prefecture":"埼玉県","prefecture_kana":"サイタマケン","city":"川越市","city_kana":"カワゴエシ","town":"問屋町","town_kana":"トンヤマチ","prefecture_code":11},"0846":{"zip_code":"3500846","prefecture":"埼玉県","prefecture_kana":"サイタマケン","city":"川越市","city_kana":"カワゴエシ","town":"中老袋","town_kana":"ナカオイブクロ","prefecture_code":11},"1159":{"zip_code":"3501159","prefecture":"埼玉県","prefecture_kana":"サイタマケン","city":"川越市","city_kana":"カワゴエシ","town":"中台","town_kana":"ナカダイ","prefecture_code":11},"0065":{"zip_code":"3500065","prefecture":"埼玉県","prefecture_kana":"サイタマケン","city":"川越市","city_kana":"カワゴエシ","town":"仲町","town_kana":"ナカチョウ","prefecture_code":11},"0042":{"zip_code":"3500042","prefecture":"埼玉県","prefecture_kana":"サイタマケン","city":"川越市","city_kana":"カワゴエシ","town":"中原町","town_kana":"ナカハラマチ","prefecture_code":11},"1156":{"zip_code":"3501156","prefecture":"埼玉県","prefecture_kana":"サイタマケン","city":"川越市","city_kana":"カワゴエシ","town":"中福","town_kana":"ナカフク","prefecture_code":11},"1157":{"zip_code":"3501157","prefecture":"埼玉県","prefecture_kana":"サイタマケン","city":"川越市","city_kana":"カワゴエシ","town":"中福東","town_kana":"ナカフクヒガシ","prefecture_code":11},"0023":{"zip_code":"3500023","prefecture":"埼玉県","prefecture_kana":"サイタマケン","city":"川越市","city_kana":"カワゴエシ","town":"並木","town_kana":"ナミキ","prefecture_code":11},"0024":{"zip_code":"3500024","prefecture":"埼玉県","prefecture_kana":"サイタマケン","city":"川越市","city_kana":"カワゴエシ","town":"並木新町","town_kana":"ナミキシンマチ","prefecture_code":11},"0025":{"zip_code":"3500025","prefecture":"埼玉県","prefecture_kana":"サイタマケン","city":"川越市","city_kana":"カワゴエシ","town":"並木西町","town_kana":"ナミキニシマチ","prefecture_code":11},"0035":{"zip_code":"3500035","prefecture":"埼玉県","prefecture_kana":"サイタマケン","city":"川越市","city_kana":"カワゴエシ","town":"西小仙波町","town_kana":"ニシコセンバマチ","prefecture_code":11},"1160":{"zip_code":"3501160","prefecture":"埼玉県","prefecture_kana":"サイタマケン","city":"川越市","city_kana":"カワゴエシ","town":"日東町","town_kana":"ニットウチョウ","prefecture_code":11},"1111":{"zip_code":"3501111","prefecture":"埼玉県","prefecture_kana":"サイタマケン","city":"川越市","city_kana":"カワゴエシ","town":"野田","town_kana":"ノダ","prefecture_code":11},"1115":{"zip_code":"3501115","prefecture":"埼玉県","prefecture_kana":"サイタマケン","city":"川越市","city_kana":"カワゴエシ","town":"野田町","town_kana":"ノダマチ","prefecture_code":11},"0851":{"zip_code":"3500851","prefecture":"埼玉県","prefecture_kana":"サイタマケン","city":"川越市","city_kana":"カワゴエシ","town":"氷川町","town_kana":"ヒカワチョウ","prefecture_code":11},"1114":{"zip_code":"3501114","prefecture":"埼玉県","prefecture_kana":"サイタマケン","city":"川越市","city_kana":"カワゴエシ","town":"東田町","town_kana":"ヒガシタマチ","prefecture_code":11},"0847":{"zip_code":"3500847","prefecture":"埼玉県","prefecture_kana":"サイタマケン","city":"川越市","city_kana":"カワゴエシ","town":"東本宿","town_kana":"ヒガシホンジュク","prefecture_code":11},"0814":{"zip_code":"3500814","prefecture":"埼玉県","prefecture_kana":"サイタマケン","city":"川越市","city_kana":"カワゴエシ","town":"平塚","town_kana":"ヒラツカ","prefecture_code":11},"0813":{"zip_code":"3500813","prefecture":"埼玉県","prefecture_kana":"サイタマケン","city":"川越市","city_kana":"カワゴエシ","town":"平塚新田","town_kana":"ヒラツカシンデン","prefecture_code":11},"0805":{"zip_code":"3500805","prefecture":"埼玉県","prefecture_kana":"サイタマケン","city":"川越市","city_kana":"カワゴエシ","town":"広谷新町","town_kana":"ヒロヤシンマチ","prefecture_code":11},"0831":{"zip_code":"3500831","prefecture":"埼玉県","prefecture_kana":"サイタマケン","city":"川越市","city_kana":"カワゴエシ","town":"府川","town_kana":"フカワ","prefecture_code":11},"0821":{"zip_code":"3500821","prefecture":"埼玉県","prefecture_kana":"サイタマケン","city":"川越市","city_kana":"カワゴエシ","town":"福田","town_kana":"フクダ","prefecture_code":11},"0018":{"zip_code":"3500018","prefecture":"埼玉県","prefecture_kana":"サイタマケン","city":"川越市","city_kana":"カワゴエシ","town":"藤木町","town_kana":"フジキチョウ","prefecture_code":11},"1166":{"zip_code":"3501166","prefecture":"埼玉県","prefecture_kana":"サイタマケン","city":"川越市","city_kana":"カワゴエシ","town":"藤倉","town_kana":"フジクラ","prefecture_code":11},"1142":{"zip_code":"3501142","prefecture":"埼玉県","prefecture_kana":"サイタマケン","city":"川越市","city_kana":"カワゴエシ","town":"藤間","town_kana":"フジマ","prefecture_code":11},"0802":{"zip_code":"3500802","prefecture":"埼玉県","prefecture_kana":"サイタマケン","city":"川越市","city_kana":"カワゴエシ","town":"富士見","town_kana":"フジミ","prefecture_code":11},"0033":{"zip_code":"3500033","prefecture":"埼玉県","prefecture_kana":"サイタマケン","city":"川越市","city_kana":"カワゴエシ","town":"富士見町","town_kana":"フジミチョウ","prefecture_code":11},"1143":{"zip_code":"3501143","prefecture":"埼玉県","prefecture_kana":"サイタマケン","city":"川越市","city_kana":"カワゴエシ","town":"藤原町","town_kana":"フジワラチョウ","prefecture_code":11},"0014":{"zip_code":"3500014","prefecture":"埼玉県","prefecture_kana":"サイタマケン","city":"川越市","city_kana":"カワゴエシ","town":"古市場","town_kana":"フルイチバ","prefecture_code":11},"0001":{"zip_code":"3500001","prefecture":"埼玉県","prefecture_kana":"サイタマケン","city":"川越市","city_kana":"カワゴエシ","town":"古谷上","town_kana":"フルヤカミ","prefecture_code":11},"0002":{"zip_code":"3500002","prefecture":"埼玉県","prefecture_kana":"サイタマケン","city":"川越市","city_kana":"カワゴエシ","town":"古谷本郷","town_kana":"フルヤホンゴウ","prefecture_code":11},"1172":{"zip_code":"3501172","prefecture":"埼玉県","prefecture_kana":"サイタマケン","city":"川越市","city_kana":"カワゴエシ","town":"増形","town_kana":"マスカタ","prefecture_code":11},"0056":{"zip_code":"3500056","prefecture":"埼玉県","prefecture_kana":"サイタマケン","city":"川越市","city_kana":"カワゴエシ","town":"松江町","town_kana":"マツエチョウ","prefecture_code":11},"0857":{"zip_code":"3500857","prefecture":"埼玉県","prefecture_kana":"サイタマケン","city":"川越市","city_kana":"カワゴエシ","town":"松郷","town_kana":"マツゴウ","prefecture_code":11},"1101":{"zip_code":"3501101","prefecture":"埼玉県","prefecture_kana":"サイタマケン","city":"川越市","city_kana":"カワゴエシ","town":"的場","town_kana":"マトバ","prefecture_code":11},"1107":{"zip_code":"3501107","prefecture":"埼玉県","prefecture_kana":"サイタマケン","city":"川越市","city_kana":"カワゴエシ","town":"的場新町","town_kana":"マトバシンマチ","prefecture_code":11},"1102":{"zip_code":"3501102","prefecture":"埼玉県","prefecture_kana":"サイタマケン","city":"川越市","city_kana":"カワゴエシ","town":"的場北","town_kana":"マトバキタ","prefecture_code":11},"1162":{"zip_code":"3501162","prefecture":"埼玉県","prefecture_kana":"サイタマケン","city":"川越市","city_kana":"カワゴエシ","town":"南大塚","town_kana":"ミナミオオツカ","prefecture_code":11},"0027":{"zip_code":"3500027","prefecture":"埼玉県","prefecture_kana":"サイタマケン","city":"川越市","city_kana":"カワゴエシ","town":"南田島","town_kana":"ミナミタジマ","prefecture_code":11},"1165":{"zip_code":"3501165","prefecture":"埼玉県","prefecture_kana":"サイタマケン","city":"川越市","city_kana":"カワゴエシ","town":"南台","town_kana":"ミナミダイ","prefecture_code":11},"0045":{"zip_code":"3500045","prefecture":"埼玉県","prefecture_kana":"サイタマケン","city":"川越市","city_kana":"カワゴエシ","town":"南通町","town_kana":"ミナミトオリマチ","prefecture_code":11},"0052":{"zip_code":"3500052","prefecture":"埼玉県","prefecture_kana":"サイタマケン","city":"川越市","city_kana":"カワゴエシ","town":"宮下町","town_kana":"ミヤシタマチ","prefecture_code":11},"0838":{"zip_code":"3500838","prefecture":"埼玉県","prefecture_kana":"サイタマケン","city":"川越市","city_kana":"カワゴエシ","town":"宮元町","town_kana":"ミヤモトチョウ","prefecture_code":11},"1170":{"zip_code":"3501170","prefecture":"埼玉県","prefecture_kana":"サイタマケン","city":"川越市","city_kana":"カワゴエシ","town":"むさし野","town_kana":"ムサシノ","prefecture_code":11},"1158":{"zip_code":"3501158","prefecture":"埼玉県","prefecture_kana":"サイタマケン","city":"川越市","city_kana":"カワゴエシ","town":"むさし野南","town_kana":"ムサシノミナミ","prefecture_code":11},"0062":{"zip_code":"3500062","prefecture":"埼玉県","prefecture_kana":"サイタマケン","city":"川越市","city_kana":"カワゴエシ","town":"元町","town_kana":"モトマチ","prefecture_code":11},"0003":{"zip_code":"3500003","prefecture":"埼玉県","prefecture_kana":"サイタマケン","city":"川越市","city_kana":"カワゴエシ","town":"八ツ島","town_kana":"ヤツシマ","prefecture_code":11},"0836":{"zip_code":"3500836","prefecture":"埼玉県","prefecture_kana":"サイタマケン","city":"川越市","city_kana":"カワゴエシ","town":"谷中","town_kana":"ヤナカ","prefecture_code":11},"1169":{"zip_code":"3501169","prefecture":"埼玉県","prefecture_kana":"サイタマケン","city":"川越市","city_kana":"カワゴエシ","town":"山城","town_kana":"ヤマシロ","prefecture_code":11},"0822":{"zip_code":"3500822","prefecture":"埼玉県","prefecture_kana":"サイタマケン","city":"川越市","city_kana":"カワゴエシ","town":"山田","town_kana":"ヤマダ","prefecture_code":11},"0807":{"zip_code":"3500807","prefecture":"埼玉県","prefecture_kana":"サイタマケン","city":"川越市","city_kana":"カワゴエシ","town":"吉田","town_kana":"ヨシダ","prefecture_code":11},"0808":{"zip_code":"3500808","prefecture":"埼玉県","prefecture_kana":"サイタマケン","city":"川越市","city_kana":"カワゴエシ","town":"吉田新町","town_kana":"ヨシダシンマチ","prefecture_code":11},"0833":{"zip_code":"3500833","prefecture":"埼玉県","prefecture_kana":"サイタマケン","city":"川越市","city_kana":"カワゴエシ","town":"芳野台","town_kana":"ヨシノダイ","prefecture_code":11},"1163":{"zip_code":"3501163","prefecture":"埼玉県","prefecture_kana":"サイタマケン","city":"川越市","city_kana":"カワゴエシ","town":"四都野台","town_kana":"ヨツヤダイ","prefecture_code":11},"0066":{"zip_code":"3500066","prefecture":"埼玉県","prefecture_kana":"サイタマケン","city":"川越市","city_kana":"カワゴエシ","town":"連雀町","town_kana":"レンジャクチョウ","prefecture_code":11},"0041":{"zip_code":"3500041","prefecture":"埼玉県","prefecture_kana":"サイタマケン","city":"川越市","city_kana":"カワゴエシ","town":"六軒町","town_kana":"ロッケンマチ","prefecture_code":11},"1121":{"zip_code":"3501121","prefecture":"埼玉県","prefecture_kana":"サイタマケン","city":"川越市","city_kana":"カワゴエシ","town":"脇田新町","town_kana":"ワキタシンマチ","prefecture_code":11},"1123":{"zip_code":"3501123","prefecture":"埼玉県","prefecture_kana":"サイタマケン","city":"川越市","city_kana":"カワゴエシ","town":"脇田本町","town_kana":"ワキタホンチョウ","prefecture_code":11},"1122":{"zip_code":"3501122","prefecture":"埼玉県","prefecture_kana":"サイタマケン","city":"川越市","city_kana":"カワゴエシ","town":"脇田町","town_kana":"ワキタマチ","prefecture_code":11},"1300":{"zip_code":"3501300","prefecture":"埼玉県","prefecture_kana":"サイタマケン","city":"狭山市","city_kana":"サヤマシ","town":"","town_kana":"","prefecture_code":11},"1301":{"zip_code":"3501301","prefecture":"埼玉県","prefecture_kana":"サイタマケン","city":"狭山市","city_kana":"サヤマシ","town":"青柳","town_kana":"アオヤギ","prefecture_code":11},"1324":{"zip_code":"3501324","prefecture":"埼玉県","prefecture_kana":"サイタマケン","city":"狭山市","city_kana":"サヤマシ","town":"稲荷山","town_kana":"イナリヤマ","prefecture_code":11},"1305":{"zip_code":"3501305","prefecture":"埼玉県","prefecture_kana":"サイタマケン","city":"狭山市","city_kana":"サヤマシ","town":"入間川","town_kana":"イルマガワ","prefecture_code":11},"1323":{"zip_code":"3501323","prefecture":"埼玉県","prefecture_kana":"サイタマケン","city":"狭山市","city_kana":"サヤマシ","town":"鵜ノ木","town_kana":"ウノキ","prefecture_code":11},"1314":{"zip_code":"3501314","prefecture":"埼玉県","prefecture_kana":"サイタマケン","city":"狭山市","city_kana":"サヤマシ","town":"加佐志","town_kana":"カザシ","prefecture_code":11},"1335":{"zip_code":"3501335","prefecture":"埼玉県","prefecture_kana":"サイタマケン","city":"狭山市","city_kana":"サヤマシ","town":"柏原","town_kana":"カシワバラ","prefecture_code":11},"1336":{"zip_code":"3501336","prefecture":"埼玉県","prefecture_kana":"サイタマケン","city":"狭山市","city_kana":"サヤマシ","town":"柏原新田","town_kana":"カシワバラシンデン","prefecture_code":11},"1313":{"zip_code":"3501313","prefecture":"埼玉県","prefecture_kana":"サイタマケン","city":"狭山市","city_kana":"サヤマシ","town":"上赤坂","town_kana":"カミアカサカ","prefecture_code":11},"1333":{"zip_code":"3501333","prefecture":"埼玉県","prefecture_kana":"サイタマケン","city":"狭山市","city_kana":"サヤマシ","town":"上奥富","town_kana":"カミオクドミ","prefecture_code":11},"1321":{"zip_code":"3501321","prefecture":"埼玉県","prefecture_kana":"サイタマケン","city":"狭山市","city_kana":"サヤマシ","town":"上広瀬","town_kana":"カミヒロセ","prefecture_code":11},"1307":{"zip_code":"3501307","prefecture":"埼玉県","prefecture_kana":"サイタマケン","city":"狭山市","city_kana":"サヤマシ","town":"祇園","town_kana":"ギオン","prefecture_code":11},"1315":{"zip_code":"3501315","prefecture":"埼玉県","prefecture_kana":"サイタマケン","city":"狭山市","city_kana":"サヤマシ","town":"北入曽","town_kana":"キタイリソ","prefecture_code":11},"1327":{"zip_code":"3501327","prefecture":"埼玉県","prefecture_kana":"サイタマケン","city":"狭山市","city_kana":"サヤマシ","town":"笹井","town_kana":"ササイ","prefecture_code":11},"1334":{"zip_code":"3501334","prefecture":"埼玉県","prefecture_kana":"サイタマケン","city":"狭山市","city_kana":"サヤマシ","town":"狭山","town_kana":"サヤマ","prefecture_code":11},"1304":{"zip_code":"3501304","prefecture":"埼玉県","prefecture_kana":"サイタマケン","city":"狭山市","city_kana":"サヤマシ","town":"狭山台","town_kana":"サヤマダイ","prefecture_code":11},"1303":{"zip_code":"3501303","prefecture":"埼玉県","prefecture_kana":"サイタマケン","city":"狭山市","city_kana":"サヤマシ","town":"沢","town_kana":"サワ","prefecture_code":11},"1332":{"zip_code":"3501332","prefecture":"埼玉県","prefecture_kana":"サイタマケン","city":"狭山市","city_kana":"サヤマシ","town":"下奥富","town_kana":"シモオクドミ","prefecture_code":11},"1322":{"zip_code":"3501322","prefecture":"埼玉県","prefecture_kana":"サイタマケン","city":"狭山市","city_kana":"サヤマシ","town":"下広瀬","town_kana":"シモヒロセ","prefecture_code":11},"1331":{"zip_code":"3501331","prefecture":"埼玉県","prefecture_kana":"サイタマケン","city":"狭山市","city_kana":"サヤマシ","town":"新狭山","town_kana":"シンサヤマ","prefecture_code":11},"1308":{"zip_code":"3501308","prefecture":"埼玉県","prefecture_kana":"サイタマケン","city":"狭山市","city_kana":"サヤマシ","town":"中央","town_kana":"チュウオウ","prefecture_code":11},"1326":{"zip_code":"3501326","prefecture":"埼玉県","prefecture_kana":"サイタマケン","city":"狭山市","city_kana":"サヤマシ","town":"つつじ野","town_kana":"ツツジノ","prefecture_code":11},"1311":{"zip_code":"3501311","prefecture":"埼玉県","prefecture_kana":"サイタマケン","city":"狭山市","city_kana":"サヤマシ","town":"中新田","town_kana":"ナカシンデン","prefecture_code":11},"1325":{"zip_code":"3501325","prefecture":"埼玉県","prefecture_kana":"サイタマケン","city":"狭山市","city_kana":"サヤマシ","town":"根岸","town_kana":"ネギシ","prefecture_code":11},"1302":{"zip_code":"3501302","prefecture":"埼玉県","prefecture_kana":"サイタマケン","city":"狭山市","city_kana":"サヤマシ","town":"東三ツ木","town_kana":"ヒガシミツギ","prefecture_code":11},"1319":{"zip_code":"3501319","prefecture":"埼玉県","prefecture_kana":"サイタマケン","city":"狭山市","city_kana":"サヤマシ","town":"広瀬","town_kana":"ヒロセ","prefecture_code":11},"1328":{"zip_code":"3501328","prefecture":"埼玉県","prefecture_kana":"サイタマケン","city":"狭山市","city_kana":"サヤマシ","town":"広瀬台","town_kana":"ヒロセダイ","prefecture_code":11},"1320":{"zip_code":"3501320","prefecture":"埼玉県","prefecture_kana":"サイタマケン","city":"狭山市","city_kana":"サヤマシ","town":"広瀬東","town_kana":"ヒロセヒガシ","prefecture_code":11},"1306":{"zip_code":"3501306","prefecture":"埼玉県","prefecture_kana":"サイタマケン","city":"狭山市","city_kana":"サヤマシ","town":"富士見","town_kana":"フジミ","prefecture_code":11},"1312":{"zip_code":"3501312","prefecture":"埼玉県","prefecture_kana":"サイタマケン","city":"狭山市","city_kana":"サヤマシ","town":"堀兼","town_kana":"ホリガネ","prefecture_code":11},"1317":{"zip_code":"3501317","prefecture":"埼玉県","prefecture_kana":"サイタマケン","city":"狭山市","city_kana":"サヤマシ","town":"水野","town_kana":"ミズノ","prefecture_code":11},"1316":{"zip_code":"3501316","prefecture":"埼玉県","prefecture_kana":"サイタマケン","city":"狭山市","city_kana":"サヤマシ","town":"南入曽","town_kana":"ミナミイリソ","prefecture_code":11},"0200":{"zip_code":"3500200","prefecture":"埼玉県","prefecture_kana":"サイタマケン","city":"坂戸市","city_kana":"サカドシ","town":"","town_kana":"","prefecture_code":11},"0239":{"zip_code":"3500239","prefecture":"埼玉県","prefecture_kana":"サイタマケン","city":"坂戸市","city_kana":"サカドシ","town":"粟生田","town_kana":"アオタ","prefecture_code":11},"0207":{"zip_code":"3500207","prefecture":"埼玉県","prefecture_kana":"サイタマケン","city":"坂戸市","city_kana":"サカドシ","town":"青木","town_kana":"アオキ","prefecture_code":11},"0201":{"zip_code":"3500201","prefecture":"埼玉県","prefecture_kana":"サイタマケン","city":"坂戸市","city_kana":"サカドシ","town":"赤尾","town_kana":"アカオ","prefecture_code":11},"0238":{"zip_code":"3500238","prefecture":"埼玉県","prefecture_kana":"サイタマケン","city":"坂戸市","city_kana":"サカドシ","town":"浅羽","town_kana":"アサバ","prefecture_code":11},"0237":{"zip_code":"3500237","prefecture":"埼玉県","prefecture_kana":"サイタマケン","city":"坂戸市","city_kana":"サカドシ","town":"浅羽野","town_kana":"アサバノ","prefecture_code":11},"0273":{"zip_code":"3500273","prefecture":"埼玉県","prefecture_kana":"サイタマケン","city":"坂戸市","city_kana":"サカドシ","town":"芦山町","town_kana":"アシヤマチョウ","prefecture_code":11},"0242":{"zip_code":"3500242","prefecture":"埼玉県","prefecture_kana":"サイタマケン","city":"坂戸市","city_kana":"サカドシ","town":"厚川","town_kana":"アツガワ","prefecture_code":11},"0212":{"zip_code":"3500212","prefecture":"埼玉県","prefecture_kana":"サイタマケン","city":"坂戸市","city_kana":"サカドシ","town":"石井","town_kana":"イシイ","prefecture_code":11},"0275":{"zip_code":"3500275","prefecture":"埼玉県","prefecture_kana":"サイタマケン","city":"坂戸市","city_kana":"サカドシ","town":"伊豆の山町","town_kana":"イズノヤマチョウ","prefecture_code":11},"0231":{"zip_code":"3500231","prefecture":"埼玉県","prefecture_kana":"サイタマケン","city":"坂戸市","city_kana":"サカドシ","town":"泉町","town_kana":"イズミチョウ","prefecture_code":11},"0267":{"zip_code":"3500267","prefecture":"埼玉県","prefecture_kana":"サイタマケン","city":"坂戸市","city_kana":"サカドシ","town":"今西","town_kana":"イマニシ","prefecture_code":11},"0254":{"zip_code":"3500254","prefecture":"埼玉県","prefecture_kana":"サイタマケン","city":"坂戸市","city_kana":"サカドシ","town":"欠ノ上","town_kana":"カケノウエ","prefecture_code":11},"0219":{"zip_code":"3500219","prefecture":"埼玉県","prefecture_kana":"サイタマケン","city":"坂戸市","city_kana":"サカドシ","town":"片柳","town_kana":"カタヤナギ","prefecture_code":11},"0218":{"zip_code":"3500218","prefecture":"埼玉県","prefecture_kana":"サイタマケン","city":"坂戸市","city_kana":"サカドシ","town":"片柳新田","town_kana":"カタヤナギシンデン","prefecture_code":11},"0268":{"zip_code":"3500268","prefecture":"埼玉県","prefecture_kana":"サイタマケン","city":"坂戸市","city_kana":"サカドシ","town":"金田","town_kana":"カネダ","prefecture_code":11},"0221":{"zip_code":"3500221","prefecture":"埼玉県","prefecture_kana":"サイタマケン","city":"坂戸市","city_kana":"サカドシ","town":"鎌倉町","town_kana":"カマクラチョウ","prefecture_code":11},"0271":{"zip_code":"3500271","prefecture":"埼玉県","prefecture_kana":"サイタマケン","city":"坂戸市","city_kana":"サカドシ","town":"上吉田","town_kana":"カミヨシダ","prefecture_code":11},"0243":{"zip_code":"3500243","prefecture":"埼玉県","prefecture_kana":"サイタマケン","city":"坂戸市","city_kana":"サカドシ","town":"萱方","town_kana":"カヤガタ","prefecture_code":11},"0266":{"zip_code":"3500266","prefecture":"埼玉県","prefecture_kana":"サイタマケン","city":"坂戸市","city_kana":"サカドシ","town":"北浅羽","town_kana":"キタアサバ","prefecture_code":11},"0253":{"zip_code":"3500253","prefecture":"埼玉県","prefecture_kana":"サイタマケン","city":"坂戸市","city_kana":"サカドシ","town":"北大塚","town_kana":"キタオオツカ","prefecture_code":11},"0258":{"zip_code":"3500258","prefecture":"埼玉県","prefecture_kana":"サイタマケン","city":"坂戸市","city_kana":"サカドシ","town":"北峰","town_kana":"キタミネ","prefecture_code":11},"0248":{"zip_code":"3500248","prefecture":"埼玉県","prefecture_kana":"サイタマケン","city":"坂戸市","city_kana":"サカドシ","town":"けやき台","town_kana":"ケヤキダイ","prefecture_code":11},"0204":{"zip_code":"3500204","prefecture":"埼玉県","prefecture_kana":"サイタマケン","city":"坂戸市","city_kana":"サカドシ","town":"紺屋","town_kana":"コウヤ","prefecture_code":11},"0202":{"zip_code":"3500202","prefecture":"埼玉県","prefecture_kana":"サイタマケン","city":"坂戸市","city_kana":"サカドシ","town":"小沼","town_kana":"コヌマ","prefecture_code":11},"0257":{"zip_code":"3500257","prefecture":"埼玉県","prefecture_kana":"サイタマケン","city":"坂戸市","city_kana":"サカドシ","town":"小山","town_kana":"コヤマ","prefecture_code":11},"0213":{"zip_code":"3500213","prefecture":"埼玉県","prefecture_kana":"サイタマケン","city":"坂戸市","city_kana":"サカドシ","town":"栄","town_kana":"サカエ","prefecture_code":11},"0217":{"zip_code":"3500217","prefecture":"埼玉県","prefecture_kana":"サイタマケン","city":"坂戸市","city_kana":"サカドシ","town":"坂戸","town_kana":"サカド","prefecture_code":11},"0261":{"zip_code":"3500261","prefecture":"埼玉県","prefecture_kana":"サイタマケン","city":"坂戸市","city_kana":"サカドシ","town":"沢木","town_kana":"サワキ","prefecture_code":11},"0235":{"zip_code":"3500235","prefecture":"埼玉県","prefecture_kana":"サイタマケン","city":"坂戸市","city_kana":"サカドシ","town":"三光町","town_kana":"サンコウチョウ","prefecture_code":11},"0211":{"zip_code":"3500211","prefecture":"埼玉県","prefecture_kana":"サイタマケン","city":"坂戸市","city_kana":"サカドシ","town":"島田","town_kana":"シマダ","prefecture_code":11},"0222":{"zip_code":"3500222","prefecture":"埼玉県","prefecture_kana":"サイタマケン","city":"坂戸市","city_kana":"サカドシ","town":"清水町","town_kana":"シミズチョウ","prefecture_code":11},"0255":{"zip_code":"3500255","prefecture":"埼玉県","prefecture_kana":"サイタマケン","city":"坂戸市","city_kana":"サカドシ","town":"成願寺","town_kana":"ジョウガンジ","prefecture_code":11},"0278":{"zip_code":"3500278","prefecture":"埼玉県","prefecture_kana":"サイタマケン","city":"坂戸市","city_kana":"サカドシ","town":"新ケ谷","town_kana":"シンガヤ","prefecture_code":11},"0272":{"zip_code":"3500272","prefecture":"埼玉県","prefecture_kana":"サイタマケン","city":"坂戸市","city_kana":"サカドシ","town":"末広町","town_kana":"スエヒロチョウ","prefecture_code":11},"0215":{"zip_code":"3500215","prefecture":"埼玉県","prefecture_kana":"サイタマケン","city":"坂戸市","city_kana":"サカドシ","town":"関間","town_kana":"セキマ","prefecture_code":11},"0256":{"zip_code":"3500256","prefecture":"埼玉県","prefecture_kana":"サイタマケン","city":"坂戸市","city_kana":"サカドシ","town":"善能寺","town_kana":"ゼンノウジ","prefecture_code":11},"0264":{"zip_code":"3500264","prefecture":"埼玉県","prefecture_kana":"サイタマケン","city":"坂戸市","city_kana":"サカドシ","town":"竹之内","town_kana":"タケノウチ","prefecture_code":11},"0246":{"zip_code":"3500246","prefecture":"埼玉県","prefecture_kana":"サイタマケン","city":"坂戸市","city_kana":"サカドシ","town":"多和目","town_kana":"タワメ","prefecture_code":11},"0214":{"zip_code":"3500214","prefecture":"埼玉県","prefecture_kana":"サイタマケン","city":"坂戸市","city_kana":"サカドシ","town":"千代田","town_kana":"チヨダ","prefecture_code":11},"0209":{"zip_code":"3500209","prefecture":"埼玉県","prefecture_kana":"サイタマケン","city":"坂戸市","city_kana":"サカドシ","town":"塚越","town_kana":"ツカゴシ","prefecture_code":11},"0251":{"zip_code":"3500251","prefecture":"埼玉県","prefecture_kana":"サイタマケン","city":"坂戸市","city_kana":"サカドシ","town":"塚崎","town_kana":"ツカサキ","prefecture_code":11},"0241":{"zip_code":"3500241","prefecture":"埼玉県","prefecture_kana":"サイタマケン","city":"坂戸市","city_kana":"サカドシ","town":"鶴舞","town_kana":"ツルマイ","prefecture_code":11},"0276":{"zip_code":"3500276","prefecture":"埼玉県","prefecture_kana":"サイタマケン","city":"坂戸市","city_kana":"サカドシ","town":"戸口","town_kana":"トグチ","prefecture_code":11},"0208":{"zip_code":"3500208","prefecture":"埼玉県","prefecture_kana":"サイタマケン","city":"坂戸市","city_kana":"サカドシ","town":"戸宮","town_kana":"トミヤ","prefecture_code":11},"0206":{"zip_code":"3500206","prefecture":"埼玉県","prefecture_kana":"サイタマケン","city":"坂戸市","city_kana":"サカドシ","town":"中小坂","town_kana":"ナカオサカ","prefecture_code":11},"0252":{"zip_code":"3500252","prefecture":"埼玉県","prefecture_kana":"サイタマケン","city":"坂戸市","city_kana":"サカドシ","town":"中里","town_kana":"ナカザト","prefecture_code":11},"0227":{"zip_code":"3500227","prefecture":"埼玉県","prefecture_kana":"サイタマケン","city":"坂戸市","city_kana":"サカドシ","town":"仲町","town_kana":"ナカチョウ","prefecture_code":11},"0232":{"zip_code":"3500232","prefecture":"埼玉県","prefecture_kana":"サイタマケン","city":"坂戸市","city_kana":"サカドシ","town":"中富町","town_kana":"ナカトミチョウ","prefecture_code":11},"0265":{"zip_code":"3500265","prefecture":"埼玉県","prefecture_kana":"サイタマケン","city":"坂戸市","city_kana":"サカドシ","town":"長岡","town_kana":"ナガオカ","prefecture_code":11},"0262":{"zip_code":"3500262","prefecture":"埼玉県","prefecture_kana":"サイタマケン","city":"坂戸市","city_kana":"サカドシ","town":"新堀","town_kana":"ニイホリ","prefecture_code":11},"0247":{"zip_code":"3500247","prefecture":"埼玉県","prefecture_kana":"サイタマケン","city":"坂戸市","city_kana":"サカドシ","town":"西坂戸","town_kana":"ニシサカド","prefecture_code":11},"0269":{"zip_code":"3500269","prefecture":"埼玉県","prefecture_kana":"サイタマケン","city":"坂戸市","city_kana":"サカドシ","town":"にっさい花みず木","town_kana":"ニッサイハナミズキ","prefecture_code":11},"0236":{"zip_code":"3500236","prefecture":"埼玉県","prefecture_kana":"サイタマケン","city":"坂戸市","city_kana":"サカドシ","town":"花影町","town_kana":"ハナカゲチョウ","prefecture_code":11},"0205":{"zip_code":"3500205","prefecture":"埼玉県","prefecture_kana":"サイタマケン","city":"坂戸市","city_kana":"サカドシ","town":"東坂戸","town_kana":"ヒガシサカド","prefecture_code":11},"0277":{"zip_code":"3500277","prefecture":"埼玉県","prefecture_kana":"サイタマケン","city":"坂戸市","city_kana":"サカドシ","town":"東和田","town_kana":"ヒガシワダ","prefecture_code":11},"0225":{"zip_code":"3500225","prefecture":"埼玉県","prefecture_kana":"サイタマケン","city":"坂戸市","city_kana":"サカドシ","town":"日の出町","town_kana":"ヒノデチョウ","prefecture_code":11},"0263":{"zip_code":"3500263","prefecture":"埼玉県","prefecture_kana":"サイタマケン","city":"坂戸市","city_kana":"サカドシ","town":"堀込","town_kana":"ホリゴメ","prefecture_code":11},"0226":{"zip_code":"3500226","prefecture":"埼玉県","prefecture_kana":"サイタマケン","city":"坂戸市","city_kana":"サカドシ","town":"本町","town_kana":"ホンチョウ","prefecture_code":11},"0274":{"zip_code":"3500274","prefecture":"埼玉県","prefecture_kana":"サイタマケン","city":"坂戸市","city_kana":"サカドシ","town":"溝端町","town_kana":"ミゾハタチョウ","prefecture_code":11},"0234":{"zip_code":"3500234","prefecture":"埼玉県","prefecture_kana":"サイタマケン","city":"坂戸市","city_kana":"サカドシ","town":"緑町","town_kana":"ミドリチョウ","prefecture_code":11},"0233":{"zip_code":"3500233","prefecture":"埼玉県","prefecture_kana":"サイタマケン","city":"坂戸市","city_kana":"サカドシ","town":"南町","town_kana":"ミナミチョウ","prefecture_code":11},"0228":{"zip_code":"3500228","prefecture":"埼玉県","prefecture_kana":"サイタマケン","city":"坂戸市","city_kana":"サカドシ","town":"元町","town_kana":"モトチョウ","prefecture_code":11},"0244":{"zip_code":"3500244","prefecture":"埼玉県","prefecture_kana":"サイタマケン","city":"坂戸市","city_kana":"サカドシ","town":"森戸","town_kana":"モリド","prefecture_code":11},"0229":{"zip_code":"3500229","prefecture":"埼玉県","prefecture_kana":"サイタマケン","city":"坂戸市","city_kana":"サカドシ","town":"薬師町","town_kana":"ヤクシチョウ","prefecture_code":11},"0216":{"zip_code":"3500216","prefecture":"埼玉県","prefecture_kana":"サイタマケン","city":"坂戸市","city_kana":"サカドシ","town":"柳町","town_kana":"ヤナギチョウ","prefecture_code":11},"0223":{"zip_code":"3500223","prefecture":"埼玉県","prefecture_kana":"サイタマケン","city":"坂戸市","city_kana":"サカドシ","town":"八幡","town_kana":"ヤハタ","prefecture_code":11},"0224":{"zip_code":"3500224","prefecture":"埼玉県","prefecture_kana":"サイタマケン","city":"坂戸市","city_kana":"サカドシ","town":"山田町","town_kana":"ヤマタチョウ","prefecture_code":11},"0203":{"zip_code":"3500203","prefecture":"埼玉県","prefecture_kana":"サイタマケン","city":"坂戸市","city_kana":"サカドシ","town":"横沼","town_kana":"ヨコヌマ","prefecture_code":11},"0245":{"zip_code":"3500245","prefecture":"埼玉県","prefecture_kana":"サイタマケン","city":"坂戸市","city_kana":"サカドシ","town":"四日市場","town_kana":"ヨッカイチバ","prefecture_code":11},"2200":{"zip_code":"3502200","prefecture":"埼玉県","prefecture_kana":"サイタマケン","city":"鶴ヶ島市","city_kana":"ツルガシマシ","town":"","town_kana":"","prefecture_code":11},"2214":{"zip_code":"3502214","prefecture":"埼玉県","prefecture_kana":"サイタマケン","city":"鶴ヶ島市","city_kana":"ツルガシマシ","town":"太田ヶ谷","town_kana":"オオタガヤ","prefecture_code":11},"2225":{"zip_code":"3502225","prefecture":"埼玉県","prefecture_kana":"サイタマケン","city":"鶴ヶ島市","city_kana":"ツルガシマシ","town":"上新田","town_kana":"カミシンデン","prefecture_code":11},"2203":{"zip_code":"3502203","prefecture":"埼玉県","prefecture_kana":"サイタマケン","city":"鶴ヶ島市","city_kana":"ツルガシマシ","town":"上広谷","town_kana":"カミヒロヤ","prefecture_code":11},"2212":{"zip_code":"3502212","prefecture":"埼玉県","prefecture_kana":"サイタマケン","city":"鶴ヶ島市","city_kana":"ツルガシマシ","town":"共栄町","town_kana":"キョウエイチョウ","prefecture_code":11},"2202":{"zip_code":"3502202","prefecture":"埼玉県","prefecture_kana":"サイタマケン","city":"鶴ヶ島市","city_kana":"ツルガシマシ","town":"五味ヶ谷","town_kana":"ゴミガヤ","prefecture_code":11},"2222":{"zip_code":"3502222","prefecture":"埼玉県","prefecture_kana":"サイタマケン","city":"鶴ヶ島市","city_kana":"ツルガシマシ","town":"下新田","town_kana":"シモシンデン","prefecture_code":11},"2227":{"zip_code":"3502227","prefecture":"埼玉県","prefecture_kana":"サイタマケン","city":"鶴ヶ島市","city_kana":"ツルガシマシ","town":"新町","town_kana":"シンマチ","prefecture_code":11},"2213":{"zip_code":"3502213","prefecture":"埼玉県","prefecture_kana":"サイタマケン","city":"鶴ヶ島市","city_kana":"ツルガシマシ","town":"脚折","town_kana":"スネオリ","prefecture_code":11},"2211":{"zip_code":"3502211","prefecture":"埼玉県","prefecture_kana":"サイタマケン","city":"鶴ヶ島市","city_kana":"ツルガシマシ","town":"脚折町","town_kana":"スネオリチョウ","prefecture_code":11},"2223":{"zip_code":"3502223","prefecture":"埼玉県","prefecture_kana":"サイタマケン","city":"鶴ヶ島市","city_kana":"ツルガシマシ","town":"高倉","town_kana":"タカクラ","prefecture_code":11},"2204":{"zip_code":"3502204","prefecture":"埼玉県","prefecture_kana":"サイタマケン","city":"鶴ヶ島市","city_kana":"ツルガシマシ","town":"鶴ヶ丘","town_kana":"ツルガオカ","prefecture_code":11},"2226":{"zip_code":"3502226","prefecture":"埼玉県","prefecture_kana":"サイタマケン","city":"鶴ヶ島市","city_kana":"ツルガシマシ","town":"中新田","town_kana":"ナカシンデン","prefecture_code":11},"2221":{"zip_code":"3502221","prefecture":"埼玉県","prefecture_kana":"サイタマケン","city":"鶴ヶ島市","city_kana":"ツルガシマシ","town":"羽折町","town_kana":"ハネオリチョウ","prefecture_code":11},"2206":{"zip_code":"3502206","prefecture":"埼玉県","prefecture_kana":"サイタマケン","city":"鶴ヶ島市","city_kana":"ツルガシマシ","town":"藤金","town_kana":"フジガネ","prefecture_code":11},"2201":{"zip_code":"3502201","prefecture":"埼玉県","prefecture_kana":"サイタマケン","city":"鶴ヶ島市","city_kana":"ツルガシマシ","town":"富士見","town_kana":"フジミ","prefecture_code":11},"2224":{"zip_code":"3502224","prefecture":"埼玉県","prefecture_kana":"サイタマケン","city":"鶴ヶ島市","city_kana":"ツルガシマシ","town":"町屋","town_kana":"マチヤ","prefecture_code":11},"2205":{"zip_code":"3502205","prefecture":"埼玉県","prefecture_kana":"サイタマケン","city":"鶴ヶ島市","city_kana":"ツルガシマシ","town":"松ヶ丘","town_kana":"マツガオカ","prefecture_code":11},"2217":{"zip_code":"3502217","prefecture":"埼玉県","prefecture_kana":"サイタマケン","city":"鶴ヶ島市","city_kana":"ツルガシマシ","town":"三ツ木","town_kana":"ミツギ","prefecture_code":11},"2216":{"zip_code":"3502216","prefecture":"埼玉県","prefecture_kana":"サイタマケン","city":"鶴ヶ島市","city_kana":"ツルガシマシ","town":"三ツ木新田","town_kana":"ミツギシンデン","prefecture_code":11},"2219":{"zip_code":"3502219","prefecture":"埼玉県","prefecture_kana":"サイタマケン","city":"鶴ヶ島市","city_kana":"ツルガシマシ","town":"三ツ木新町","town_kana":"ミツギシンマチ","prefecture_code":11},"2215":{"zip_code":"3502215","prefecture":"埼玉県","prefecture_kana":"サイタマケン","city":"鶴ヶ島市","city_kana":"ツルガシマシ","town":"南町","town_kana":"ミナミチョウ","prefecture_code":11},"2218":{"zip_code":"3502218","prefecture":"埼玉県","prefecture_kana":"サイタマケン","city":"鶴ヶ島市","city_kana":"ツルガシマシ","town":"柳戸町","town_kana":"ヤナギドチョウ","prefecture_code":11},"1200":{"zip_code":"3501200","prefecture":"埼玉県","prefecture_kana":"サイタマケン","city":"日高市","city_kana":"ヒダカシ","town":"","town_kana":"","prefecture_code":11},"1203":{"zip_code":"3501203","prefecture":"埼玉県","prefecture_kana":"サイタマケン","city":"日高市","city_kana":"ヒダカシ","town":"旭ケ丘","town_kana":"アサヒガオカ","prefecture_code":11},"1225":{"zip_code":"3501225","prefecture":"埼玉県","prefecture_kana":"サイタマケン","city":"日高市","city_kana":"ヒダカシ","town":"馬引沢","town_kana":"ウマヒキザワ","prefecture_code":11},"1246":{"zip_code":"3501246","prefecture":"埼玉県","prefecture_kana":"サイタマケン","city":"日高市","city_kana":"ヒダカシ","town":"梅原","town_kana":"ウメハラ","prefecture_code":11},"1222":{"zip_code":"3501222","prefecture":"埼玉県","prefecture_kana":"サイタマケン","city":"日高市","city_kana":"ヒダカシ","town":"大谷沢","town_kana":"オオヤザワ","prefecture_code":11},"1227":{"zip_code":"3501227","prefecture":"埼玉県","prefecture_kana":"サイタマケン","city":"日高市","city_kana":"ヒダカシ","town":"女影","town_kana":"オナカゲ","prefecture_code":11},"1214":{"zip_code":"3501214","prefecture":"埼玉県","prefecture_kana":"サイタマケン","city":"日高市","city_kana":"ヒダカシ","town":"女影新田","town_kana":"オナカゲシンデン","prefecture_code":11},"1234":{"zip_code":"3501234","prefecture":"埼玉県","prefecture_kana":"サイタマケン","city":"日高市","city_kana":"ヒダカシ","town":"上鹿山","town_kana":"カミカヤマ","prefecture_code":11},"1231":{"zip_code":"3501231","prefecture":"埼玉県","prefecture_kana":"サイタマケン","city":"日高市","city_kana":"ヒダカシ","town":"鹿山","town_kana":"カヤマ","prefecture_code":11},"1242":{"zip_code":"3501242","prefecture":"埼玉県","prefecture_kana":"サイタマケン","city":"日高市","city_kana":"ヒダカシ","town":"北平沢","town_kana":"キタヒラサワ","prefecture_code":11},"1254":{"zip_code":"3501254","prefecture":"埼玉県","prefecture_kana":"サイタマケン","city":"日高市","city_kana":"ヒダカシ","town":"久保","town_kana":"クボ","prefecture_code":11},"1245":{"zip_code":"3501245","prefecture":"埼玉県","prefecture_kana":"サイタマケン","city":"日高市","city_kana":"ヒダカシ","town":"栗坪","town_kana":"クリツボ","prefecture_code":11},"1202":{"zip_code":"3501202","prefecture":"埼玉県","prefecture_kana":"サイタマケン","city":"日高市","city_kana":"ヒダカシ","town":"駒寺野新田","town_kana":"コマデラノシンデン","prefecture_code":11},"1251":{"zip_code":"3501251","prefecture":"埼玉県","prefecture_kana":"サイタマケン","city":"日高市","city_kana":"ヒダカシ","town":"高麗本郷","town_kana":"コマホンゴウ","prefecture_code":11},"1221":{"zip_code":"3501221","prefecture":"埼玉県","prefecture_kana":"サイタマケン","city":"日高市","city_kana":"ヒダカシ","town":"下大谷沢","town_kana":"シモオオヤザワ","prefecture_code":11},"1233":{"zip_code":"3501233","prefecture":"埼玉県","prefecture_kana":"サイタマケン","city":"日高市","city_kana":"ヒダカシ","town":"下鹿山","town_kana":"シモカヤマ","prefecture_code":11},"1212":{"zip_code":"3501212","prefecture":"埼玉県","prefecture_kana":"サイタマケン","city":"日高市","city_kana":"ヒダカシ","town":"下高萩新田","town_kana":"シモタカハギシンデン","prefecture_code":11},"1252":{"zip_code":"3501252","prefecture":"埼玉県","prefecture_kana":"サイタマケン","city":"日高市","city_kana":"ヒダカシ","town":"清流","town_kana":"セイリュウ","prefecture_code":11},"1253":{"zip_code":"3501253","prefecture":"埼玉県","prefecture_kana":"サイタマケン","city":"日高市","city_kana":"ヒダカシ","town":"台","town_kana":"ダイ","prefecture_code":11},"1247":{"zip_code":"3501247","prefecture":"埼玉県","prefecture_kana":"サイタマケン","city":"日高市","city_kana":"ヒダカシ","town":"高岡","town_kana":"タカオカ","prefecture_code":11},"1223":{"zip_code":"3501223","prefecture":"埼玉県","prefecture_kana":"サイタマケン","city":"日高市","city_kana":"ヒダカシ","town":"高富","town_kana":"タカトミ","prefecture_code":11},"1213":{"zip_code":"3501213","prefecture":"埼玉県","prefecture_kana":"サイタマケン","city":"日高市","city_kana":"ヒダカシ","town":"高萩","town_kana":"タカハギ","prefecture_code":11},"1215":{"zip_code":"3501215","prefecture":"埼玉県","prefecture_kana":"サイタマケン","city":"日高市","city_kana":"ヒダカシ","town":"高萩東","town_kana":"タカハギヒガシ","prefecture_code":11},"1224":{"zip_code":"3501224","prefecture":"埼玉県","prefecture_kana":"サイタマケン","city":"日高市","city_kana":"ヒダカシ","town":"田木","town_kana":"タギ","prefecture_code":11},"1201":{"zip_code":"3501201","prefecture":"埼玉県","prefecture_kana":"サイタマケン","city":"日高市","city_kana":"ヒダカシ","town":"田波目","town_kana":"タバメ","prefecture_code":11},"1232":{"zip_code":"3501232","prefecture":"埼玉県","prefecture_kana":"サイタマケン","city":"日高市","city_kana":"ヒダカシ","town":"中鹿山","town_kana":"ナカカヤマ","prefecture_code":11},"1226":{"zip_code":"3501226","prefecture":"埼玉県","prefecture_kana":"サイタマケン","city":"日高市","city_kana":"ヒダカシ","town":"中沢","town_kana":"ナカザワ","prefecture_code":11},"1243":{"zip_code":"3501243","prefecture":"埼玉県","prefecture_kana":"サイタマケン","city":"日高市","city_kana":"ヒダカシ","town":"新堀","town_kana":"ニイホリ","prefecture_code":11},"1204":{"zip_code":"3501204","prefecture":"埼玉県","prefecture_kana":"サイタマケン","city":"日高市","city_kana":"ヒダカシ","town":"新堀新田","town_kana":"ニイホリシンデン","prefecture_code":11},"1235":{"zip_code":"3501235","prefecture":"埼玉県","prefecture_kana":"サイタマケン","city":"日高市","city_kana":"ヒダカシ","town":"楡木","town_kana":"ニレギ","prefecture_code":11},"1244":{"zip_code":"3501244","prefecture":"埼玉県","prefecture_kana":"サイタマケン","city":"日高市","city_kana":"ヒダカシ","town":"野々宮","town_kana":"ノノミヤ","prefecture_code":11},"1205":{"zip_code":"3501205","prefecture":"埼玉県","prefecture_kana":"サイタマケン","city":"日高市","city_kana":"ヒダカシ","town":"原宿","town_kana":"ハラジュク","prefecture_code":11},"1206":{"zip_code":"3501206","prefecture":"埼玉県","prefecture_kana":"サイタマケン","city":"日高市","city_kana":"ヒダカシ","town":"南平沢","town_kana":"ミナミヒラサワ","prefecture_code":11},"1255":{"zip_code":"3501255","prefecture":"埼玉県","prefecture_kana":"サイタマケン","city":"日高市","city_kana":"ヒダカシ","town":"武蔵台","town_kana":"ムサシダイ","prefecture_code":11},"1211":{"zip_code":"3501211","prefecture":"埼玉県","prefecture_kana":"サイタマケン","city":"日高市","city_kana":"ヒダカシ","town":"森戸新田","town_kana":"モリドシンデン","prefecture_code":11},"1236":{"zip_code":"3501236","prefecture":"埼玉県","prefecture_kana":"サイタマケン","city":"日高市","city_kana":"ヒダカシ","town":"猿田","town_kana":"ヤエンダ","prefecture_code":11},"1241":{"zip_code":"3501241","prefecture":"埼玉県","prefecture_kana":"サイタマケン","city":"日高市","city_kana":"ヒダカシ","town":"山根","town_kana":"ヤマネ","prefecture_code":11},"1257":{"zip_code":"3501257","prefecture":"埼玉県","prefecture_kana":"サイタマケン","city":"日高市","city_kana":"ヒダカシ","town":"横手","town_kana":"ヨコテ","prefecture_code":11},"0400":{"zip_code":"3500400","prefecture":"埼玉県","prefecture_kana":"サイタマケン","city":"入間郡越生町","city_kana":"イルマグンオゴセマチ","town":"","town_kana":"","prefecture_code":11},"0444":{"zip_code":"3500444","prefecture":"埼玉県","prefecture_kana":"サイタマケン","city":"入間郡毛呂山町","city_kana":"イルマグンモロヤママチ","town":"旭台","town_kana":"アサヒダイ","prefecture_code":11},"0455":{"zip_code":"3500455","prefecture":"埼玉県","prefecture_kana":"サイタマケン","city":"入間郡毛呂山町","city_kana":"イルマグンモロヤママチ","town":"阿諏訪","town_kana":"アスワ","prefecture_code":11},"0434":{"zip_code":"3500434","prefecture":"埼玉県","prefecture_kana":"サイタマケン","city":"入間郡毛呂山町","city_kana":"イルマグンモロヤママチ","town":"市場","town_kana":"イチバ","prefecture_code":11},"0441":{"zip_code":"3500441","prefecture":"埼玉県","prefecture_kana":"サイタマケン","city":"入間郡毛呂山町","city_kana":"イルマグンモロヤママチ","town":"岩井","town_kana":"イワイ","prefecture_code":11},"0465":{"zip_code":"3500465","prefecture":"埼玉県","prefecture_kana":"サイタマケン","city":"入間郡毛呂山町","city_kana":"イルマグンモロヤママチ","town":"岩井西","town_kana":"イワイニシ","prefecture_code":11},"0467":{"zip_code":"3500467","prefecture":"埼玉県","prefecture_kana":"サイタマケン","city":"入間郡毛呂山町","city_kana":"イルマグンモロヤママチ","town":"岩井東","town_kana":"イワイヒガシ","prefecture_code":11},"0452":{"zip_code":"3500452","prefecture":"埼玉県","prefecture_kana":"サイタマケン","city":"入間郡毛呂山町","city_kana":"イルマグンモロヤママチ","town":"大谷木","town_kana":"オオヤギ","prefecture_code":11},"0432":{"zip_code":"3500432","prefecture":"埼玉県","prefecture_kana":"サイタマケン","city":"入間郡毛呂山町","city_kana":"イルマグンモロヤママチ","town":"大類","town_kana":"オオルイ","prefecture_code":11},"0436":{"zip_code":"3500436","prefecture":"埼玉県","prefecture_kana":"サイタマケン","city":"入間郡毛呂山町","city_kana":"イルマグンモロヤママチ","town":"川角","town_kana":"カワカド","prefecture_code":11},"0446":{"zip_code":"3500446","prefecture":"埼玉県","prefecture_kana":"サイタマケン","city":"入間郡毛呂山町","city_kana":"イルマグンモロヤママチ","town":"小田谷","town_kana":"コダヤ","prefecture_code":11},"0454":{"zip_code":"3500454","prefecture":"埼玉県","prefecture_kana":"サイタマケン","city":"入間郡毛呂山町","city_kana":"イルマグンモロヤママチ","town":"権現堂","town_kana":"ゴンゲンドウ","prefecture_code":11},"0438":{"zip_code":"3500438","prefecture":"埼玉県","prefecture_kana":"サイタマケン","city":"入間郡毛呂山町","city_kana":"イルマグンモロヤママチ","town":"西戸","town_kana":"サイド","prefecture_code":11},"0435":{"zip_code":"3500435","prefecture":"埼玉県","prefecture_kana":"サイタマケン","city":"入間郡毛呂山町","city_kana":"イルマグンモロヤママチ","town":"下川原","town_kana":"シモガワラ","prefecture_code":11},"0453":{"zip_code":"3500453","prefecture":"埼玉県","prefecture_kana":"サイタマケン","city":"入間郡毛呂山町","city_kana":"イルマグンモロヤママチ","town":"宿谷","town_kana":"シュクヤ","prefecture_code":11},"0456":{"zip_code":"3500456","prefecture":"埼玉県","prefecture_kana":"サイタマケン","city":"入間郡毛呂山町","city_kana":"イルマグンモロヤママチ","town":"滝ノ入","town_kana":"タキノイリ","prefecture_code":11},"0461":{"zip_code":"3500461","prefecture":"埼玉県","prefecture_kana":"サイタマケン","city":"入間郡毛呂山町","city_kana":"イルマグンモロヤママチ","town":"中央","town_kana":"チュウオウ","prefecture_code":11},"0445":{"zip_code":"3500445","prefecture":"埼玉県","prefecture_kana":"サイタマケン","city":"入間郡毛呂山町","city_kana":"イルマグンモロヤママチ","town":"葛貫","town_kana":"ツヅラヌキ","prefecture_code":11},"0443":{"zip_code":"3500443","prefecture":"埼玉県","prefecture_kana":"サイタマケン","city":"入間郡毛呂山町","city_kana":"イルマグンモロヤママチ","town":"長瀬","town_kana":"ナガセ","prefecture_code":11},"0431":{"zip_code":"3500431","prefecture":"埼玉県","prefecture_kana":"サイタマケン","city":"入間郡毛呂山町","city_kana":"イルマグンモロヤママチ","town":"苦林","town_kana":"ニガバヤシ","prefecture_code":11},"0433":{"zip_code":"3500433","prefecture":"埼玉県","prefecture_kana":"サイタマケン","city":"入間郡毛呂山町","city_kana":"イルマグンモロヤママチ","town":"西大久保","town_kana":"ニシオオクボ","prefecture_code":11},"0466":{"zip_code":"3500466","prefecture":"埼玉県","prefecture_kana":"サイタマケン","city":"入間郡毛呂山町","city_kana":"イルマグンモロヤママチ","town":"平山","town_kana":"ヒラヤマ","prefecture_code":11},"0442":{"zip_code":"3500442","prefecture":"埼玉県","prefecture_kana":"サイタマケン","city":"入間郡毛呂山町","city_kana":"イルマグンモロヤママチ","town":"前久保","town_kana":"マエクボ","prefecture_code":11},"0463":{"zip_code":"3500463","prefecture":"埼玉県","prefecture_kana":"サイタマケン","city":"入間郡毛呂山町","city_kana":"イルマグンモロヤママチ","town":"前久保南","town_kana":"マエクボミナミ","prefecture_code":11},"0464":{"zip_code":"3500464","prefecture":"埼玉県","prefecture_kana":"サイタマケン","city":"入間郡毛呂山町","city_kana":"イルマグンモロヤママチ","town":"南台","town_kana":"ミナミダイ","prefecture_code":11},"0437":{"zip_code":"3500437","prefecture":"埼玉県","prefecture_kana":"サイタマケン","city":"入間郡毛呂山町","city_kana":"イルマグンモロヤママチ","town":"箕和田","town_kana":"ミノワダ","prefecture_code":11},"0439":{"zip_code":"3500439","prefecture":"埼玉県","prefecture_kana":"サイタマケン","city":"入間郡毛呂山町","city_kana":"イルマグンモロヤママチ","town":"目白台","town_kana":"メジロダイ","prefecture_code":11},"0451":{"zip_code":"3500451","prefecture":"埼玉県","prefecture_kana":"サイタマケン","city":"入間郡毛呂山町","city_kana":"イルマグンモロヤママチ","town":"毛呂本郷","town_kana":"モロホンゴウ","prefecture_code":11},"0462":{"zip_code":"3500462","prefecture":"埼玉県","prefecture_kana":"サイタマケン","city":"入間郡毛呂山町","city_kana":"イルマグンモロヤママチ","town":"若山","town_kana":"ワカヤマ","prefecture_code":11},"0415":{"zip_code":"3500415","prefecture":"埼玉県","prefecture_kana":"サイタマケン","city":"入間郡越生町","city_kana":"イルマグンオゴセマチ","town":"上野","town_kana":"ウエノ","prefecture_code":11},"0417":{"zip_code":"3500417","prefecture":"埼玉県","prefecture_kana":"サイタマケン","city":"入間郡越生町","city_kana":"イルマグンオゴセマチ","town":"上野東","town_kana":"ウエノヒガシ","prefecture_code":11},"0403":{"zip_code":"3500403","prefecture":"埼玉県","prefecture_kana":"サイタマケン","city":"入間郡越生町","city_kana":"イルマグンオゴセマチ","town":"大谷","town_kana":"オオヤ","prefecture_code":11},"0416":{"zip_code":"3500416","prefecture":"埼玉県","prefecture_kana":"サイタマケン","city":"入間郡越生町","city_kana":"イルマグンオゴセマチ","town":"越生","town_kana":"オゴセ","prefecture_code":11},"0414":{"zip_code":"3500414","prefecture":"埼玉県","prefecture_kana":"サイタマケン","city":"入間郡越生町","city_kana":"イルマグンオゴセマチ","town":"越生東","town_kana":"オゴセヒガシ","prefecture_code":11},"0402":{"zip_code":"3500402","prefecture":"埼玉県","prefecture_kana":"サイタマケン","city":"入間郡越生町","city_kana":"イルマグンオゴセマチ","town":"鹿下","town_kana":"カノシタ","prefecture_code":11},"0407":{"zip_code":"3500407","prefecture":"埼玉県","prefecture_kana":"サイタマケン","city":"入間郡越生町","city_kana":"イルマグンオゴセマチ","town":"上谷","town_kana":"カミヤツ","prefecture_code":11},"0411":{"zip_code":"3500411","prefecture":"埼玉県","prefecture_kana":"サイタマケン","city":"入間郡越生町","city_kana":"イルマグンオゴセマチ","town":"黒岩","town_kana":"クロイワ","prefecture_code":11},"0424":{"zip_code":"3500424","prefecture":"埼玉県","prefecture_kana":"サイタマケン","city":"入間郡越生町","city_kana":"イルマグンオゴセマチ","town":"黒山","town_kana":"クロヤマ","prefecture_code":11},"0422":{"zip_code":"3500422","prefecture":"埼玉県","prefecture_kana":"サイタマケン","city":"入間郡越生町","city_kana":"イルマグンオゴセマチ","town":"小杉","town_kana":"コスギ","prefecture_code":11},"0423":{"zip_code":"3500423","prefecture":"埼玉県","prefecture_kana":"サイタマケン","city":"入間郡越生町","city_kana":"イルマグンオゴセマチ","town":"大満","town_kana":"ダイマ","prefecture_code":11},"0425":{"zip_code":"3500425","prefecture":"埼玉県","prefecture_kana":"サイタマケン","city":"入間郡越生町","city_kana":"イルマグンオゴセマチ","town":"龍ケ谷","town_kana":"タツガヤ","prefecture_code":11},"0405":{"zip_code":"3500405","prefecture":"埼玉県","prefecture_kana":"サイタマケン","city":"入間郡越生町","city_kana":"イルマグンオゴセマチ","town":"津久根","town_kana":"ツクネ","prefecture_code":11},"0406":{"zip_code":"3500406","prefecture":"埼玉県","prefecture_kana":"サイタマケン","city":"入間郡越生町","city_kana":"イルマグンオゴセマチ","town":"堂山","town_kana":"ドウヤマ","prefecture_code":11},"0404":{"zip_code":"3500404","prefecture":"埼玉県","prefecture_kana":"サイタマケン","city":"入間郡越生町","city_kana":"イルマグンオゴセマチ","town":"成瀬","town_kana":"ナルセ","prefecture_code":11},"0412":{"zip_code":"3500412","prefecture":"埼玉県","prefecture_kana":"サイタマケン","city":"入間郡越生町","city_kana":"イルマグンオゴセマチ","town":"西和田","town_kana":"ニシワダ","prefecture_code":11},"0413":{"zip_code":"3500413","prefecture":"埼玉県","prefecture_kana":"サイタマケン","city":"入間郡越生町","city_kana":"イルマグンオゴセマチ","town":"如意","town_kana":"ネオイ","prefecture_code":11},"0401":{"zip_code":"3500401","prefecture":"埼玉県","prefecture_kana":"サイタマケン","city":"入間郡越生町","city_kana":"イルマグンオゴセマチ","town":"古池","town_kana":"フルイケ","prefecture_code":11},"0421":{"zip_code":"3500421","prefecture":"埼玉県","prefecture_kana":"サイタマケン","city":"入間郡越生町","city_kana":"イルマグンオゴセマチ","town":"麦原","town_kana":"ムギハラ","prefecture_code":11},"0100":{"zip_code":"3500100","prefecture":"埼玉県","prefecture_kana":"サイタマケン","city":"比企郡川島町","city_kana":"ヒキグンカワジママチ","town":"","town_kana":"","prefecture_code":11},"0153":{"zip_code":"3500153","prefecture":"埼玉県","prefecture_kana":"サイタマケン","city":"比企郡川島町","city_kana":"ヒキグンカワジママチ","town":"飯島","town_kana":"イイジマ","prefecture_code":11},"0158":{"zip_code":"3500158","prefecture":"埼玉県","prefecture_kana":"サイタマケン","city":"比企郡川島町","city_kana":"ヒキグンカワジママチ","town":"伊草","town_kana":"イグサ","prefecture_code":11},"0115":{"zip_code":"3500115","prefecture":"埼玉県","prefecture_kana":"サイタマケン","city":"比企郡川島町","city_kana":"ヒキグンカワジママチ","town":"一本木","town_kana":"イッポンギ","prefecture_code":11},"0127":{"zip_code":"3500127","prefecture":"埼玉県","prefecture_kana":"サイタマケン","city":"比企郡川島町","city_kana":"ヒキグンカワジママチ","town":"牛ケ谷戸","town_kana":"ウシガヤト","prefecture_code":11},"0101":{"zip_code":"3500101","prefecture":"埼玉県","prefecture_kana":"サイタマケン","city":"比企郡川島町","city_kana":"ヒキグンカワジママチ","town":"梅ノ木","town_kana":"ウメノキ","prefecture_code":11},"0105":{"zip_code":"3500105","prefecture":"埼玉県","prefecture_kana":"サイタマケン","city":"比企郡川島町","city_kana":"ヒキグンカワジママチ","town":"小見野","town_kana":"オミノ","prefecture_code":11},"0133":{"zip_code":"3500133","prefecture":"埼玉県","prefecture_kana":"サイタマケン","city":"比企郡川島町","city_kana":"ヒキグンカワジママチ","town":"表","town_kana":"オモテ","prefecture_code":11},"0156":{"zip_code":"3500156","prefecture":"埼玉県","prefecture_kana":"サイタマケン","city":"比企郡川島町","city_kana":"ヒキグンカワジママチ","town":"角泉","town_kana":"カクセン","prefecture_code":11},"0107":{"zip_code":"3500107","prefecture":"埼玉県","prefecture_kana":"サイタマケン","city":"比企郡川島町","city_kana":"ヒキグンカワジママチ","town":"加胡","town_kana":"カゴ","prefecture_code":11},"0152":{"zip_code":"3500152","prefecture":"埼玉県","prefecture_kana":"サイタマケン","city":"比企郡川島町","city_kana":"ヒキグンカワジママチ","town":"上伊草","town_kana":"カミイグサ","prefecture_code":11},"0142":{"zip_code":"3500142","prefecture":"埼玉県","prefecture_kana":"サイタマケン","city":"比企郡川島町","city_kana":"ヒキグンカワジママチ","town":"上大屋敷","town_kana":"カミオオヤシキ","prefecture_code":11},"0106":{"zip_code":"3500106","prefecture":"埼玉県","prefecture_kana":"サイタマケン","city":"比企郡川島町","city_kana":"ヒキグンカワジママチ","town":"上小見野","town_kana":"カミオミノ","prefecture_code":11},"0136":{"zip_code":"3500136","prefecture":"埼玉県","prefecture_kana":"サイタマケン","city":"比企郡川島町","city_kana":"ヒキグンカワジママチ","town":"上狢","town_kana":"カミムジナ","prefecture_code":11},"0121":{"zip_code":"3500121","prefecture":"埼玉県","prefecture_kana":"サイタマケン","city":"比企郡川島町","city_kana":"ヒキグンカワジママチ","town":"上八ツ林","town_kana":"カミヤツバヤシ","prefecture_code":11},"0168":{"zip_code":"3500168","prefecture":"埼玉県","prefecture_kana":"サイタマケン","city":"比企郡川島町","city_kana":"ヒキグンカワジママチ","town":"かわじま","town_kana":"カワジマ","prefecture_code":11},"0163":{"zip_code":"3500163","prefecture":"埼玉県","prefecture_kana":"サイタマケン","city":"比企郡川島町","city_kana":"ヒキグンカワジママチ","town":"北園部","town_kana":"キタソノベ","prefecture_code":11},"0155":{"zip_code":"3500155","prefecture":"埼玉県","prefecture_kana":"サイタマケン","city":"比企郡川島町","city_kana":"ヒキグンカワジママチ","town":"釘無","town_kana":"クギナシ","prefecture_code":11},"0132":{"zip_code":"3500132","prefecture":"埼玉県","prefecture_kana":"サイタマケン","city":"比企郡川島町","city_kana":"ヒキグンカワジママチ","town":"紫竹","town_kana":"シチク","prefecture_code":11},"0104":{"zip_code":"3500104","prefecture":"埼玉県","prefecture_kana":"サイタマケン","city":"比企郡川島町","city_kana":"ヒキグンカワジママチ","town":"芝沼","town_kana":"シバヌマ","prefecture_code":11},"0157":{"zip_code":"3500157","prefecture":"埼玉県","prefecture_kana":"サイタマケン","city":"比企郡川島町","city_kana":"ヒキグンカワジママチ","town":"下伊草","town_kana":"シモイグサ","prefecture_code":11},"0144":{"zip_code":"3500144","prefecture":"埼玉県","prefecture_kana":"サイタマケン","city":"比企郡川島町","city_kana":"ヒキグンカワジママチ","town":"下大屋敷","town_kana":"シモオオヤシキ","prefecture_code":11},"0102":{"zip_code":"3500102","prefecture":"埼玉県","prefecture_kana":"サイタマケン","city":"比企郡川島町","city_kana":"ヒキグンカワジママチ","town":"下小見野","town_kana":"シモオミノ","prefecture_code":11},"0135":{"zip_code":"3500135","prefecture":"埼玉県","prefecture_kana":"サイタマケン","city":"比企郡川島町","city_kana":"ヒキグンカワジママチ","town":"下狢","town_kana":"シモムジナ","prefecture_code":11},"0122":{"zip_code":"3500122","prefecture":"埼玉県","prefecture_kana":"サイタマケン","city":"比企郡川島町","city_kana":"ヒキグンカワジママチ","town":"下八ツ林","town_kana":"シモヤツバヤシ","prefecture_code":11},"0162":{"zip_code":"3500162","prefecture":"埼玉県","prefecture_kana":"サイタマケン","city":"比企郡川島町","city_kana":"ヒキグンカワジママチ","town":"正直","town_kana":"ショウジキ","prefecture_code":11},"0128":{"zip_code":"3500128","prefecture":"埼玉県","prefecture_kana":"サイタマケン","city":"比企郡川島町","city_kana":"ヒキグンカワジママチ","town":"白井沼","town_kana":"シロイヌマ","prefecture_code":11},"0141":{"zip_code":"3500141","prefecture":"埼玉県","prefecture_kana":"サイタマケン","city":"比企郡川島町","city_kana":"ヒキグンカワジママチ","town":"出丸下郷","town_kana":"デマルシモゴウ","prefecture_code":11},"0143":{"zip_code":"3500143","prefecture":"埼玉県","prefecture_kana":"サイタマケン","city":"比企郡川島町","city_kana":"ヒキグンカワジママチ","town":"出丸中郷","town_kana":"デマルナカゴウ","prefecture_code":11},"0145":{"zip_code":"3500145","prefecture":"埼玉県","prefecture_kana":"サイタマケン","city":"比企郡川島町","city_kana":"ヒキグンカワジママチ","town":"出丸本","town_kana":"デマルホン","prefecture_code":11},"0113":{"zip_code":"3500113","prefecture":"埼玉県","prefecture_kana":"サイタマケン","city":"比企郡川島町","city_kana":"ヒキグンカワジママチ","town":"東部","town_kana":"トウブ","prefecture_code":11},"0117":{"zip_code":"3500117","prefecture":"埼玉県","prefecture_kana":"サイタマケン","city":"比企郡川島町","city_kana":"ヒキグンカワジママチ","town":"鳥羽井","town_kana":"トバイ","prefecture_code":11},"0112":{"zip_code":"3500112","prefecture":"埼玉県","prefecture_kana":"サイタマケン","city":"比企郡川島町","city_kana":"ヒキグンカワジママチ","town":"鳥羽井新田","town_kana":"トバイシンデン","prefecture_code":11},"0166":{"zip_code":"3500166","prefecture":"埼玉県","prefecture_kana":"サイタマケン","city":"比企郡川島町","city_kana":"ヒキグンカワジママチ","town":"戸守","town_kana":"トモリ","prefecture_code":11},"0165":{"zip_code":"3500165","prefecture":"埼玉県","prefecture_kana":"サイタマケン","city":"比企郡川島町","city_kana":"ヒキグンカワジママチ","town":"中山","town_kana":"ナカヤマ","prefecture_code":11},"0161":{"zip_code":"3500161","prefecture":"埼玉県","prefecture_kana":"サイタマケン","city":"比企郡川島町","city_kana":"ヒキグンカワジママチ","town":"長楽","town_kana":"ナガラク","prefecture_code":11},"0134":{"zip_code":"3500134","prefecture":"埼玉県","prefecture_kana":"サイタマケン","city":"比企郡川島町","city_kana":"ヒキグンカワジママチ","town":"新堀","town_kana":"ニイボリ","prefecture_code":11},"0147":{"zip_code":"3500147","prefecture":"埼玉県","prefecture_kana":"サイタマケン","city":"比企郡川島町","city_kana":"ヒキグンカワジママチ","town":"西谷","town_kana":"ニシヤ","prefecture_code":11},"0123":{"zip_code":"3500123","prefecture":"埼玉県","prefecture_kana":"サイタマケン","city":"比企郡川島町","city_kana":"ヒキグンカワジママチ","town":"畑中","town_kana":"ハタナカ","prefecture_code":11},"0151":{"zip_code":"3500151","prefecture":"埼玉県","prefecture_kana":"サイタマケン","city":"比企郡川島町","city_kana":"ヒキグンカワジママチ","town":"八幡","town_kana":"ハチマン","prefecture_code":11},"0114":{"zip_code":"3500114","prefecture":"埼玉県","prefecture_kana":"サイタマケン","city":"比企郡川島町","city_kana":"ヒキグンカワジママチ","town":"東大塚","town_kana":"ヒガシオオヅカ","prefecture_code":11},"0125":{"zip_code":"3500125","prefecture":"埼玉県","prefecture_kana":"サイタマケン","city":"比企郡川島町","city_kana":"ヒキグンカワジママチ","town":"東野","town_kana":"ヒガシノ","prefecture_code":11},"0131":{"zip_code":"3500131","prefecture":"埼玉県","prefecture_kana":"サイタマケン","city":"比企郡川島町","city_kana":"ヒキグンカワジママチ","town":"平沼","town_kana":"ヒラヌマ","prefecture_code":11},"0164":{"zip_code":"3500164","prefecture":"埼玉県","prefecture_kana":"サイタマケン","city":"比企郡川島町","city_kana":"ヒキグンカワジママチ","town":"吹塚","town_kana":"フキヅカ","prefecture_code":11},"0146":{"zip_code":"3500146","prefecture":"埼玉県","prefecture_kana":"サイタマケン","city":"比企郡川島町","city_kana":"ヒキグンカワジママチ","town":"曲師","town_kana":"マゲシ","prefecture_code":11},"0103":{"zip_code":"3500103","prefecture":"埼玉県","prefecture_kana":"サイタマケン","city":"比企郡川島町","city_kana":"ヒキグンカワジママチ","town":"松永","town_kana":"マツナガ","prefecture_code":11},"0167":{"zip_code":"3500167","prefecture":"埼玉県","prefecture_kana":"サイタマケン","city":"比企郡川島町","city_kana":"ヒキグンカワジママチ","town":"南園部","town_kana":"ミナミソノベ","prefecture_code":11},"0124":{"zip_code":"3500124","prefecture":"埼玉県","prefecture_kana":"サイタマケン","city":"比企郡川島町","city_kana":"ヒキグンカワジママチ","town":"三保谷宿","town_kana":"ミホヤジュク","prefecture_code":11},"0137":{"zip_code":"3500137","prefecture":"埼玉県","prefecture_kana":"サイタマケン","city":"比企郡川島町","city_kana":"ヒキグンカワジママチ","town":"宮前","town_kana":"ミヤマエ","prefecture_code":11},"0116":{"zip_code":"3500116","prefecture":"埼玉県","prefecture_kana":"サイタマケン","city":"比企郡川島町","city_kana":"ヒキグンカワジママチ","town":"虫塚","town_kana":"ムシヅカ","prefecture_code":11},"0154":{"zip_code":"3500154","prefecture":"埼玉県","prefecture_kana":"サイタマケン","city":"比企郡川島町","city_kana":"ヒキグンカワジママチ","town":"安塚","town_kana":"ヤスヅカ","prefecture_code":11},"0111":{"zip_code":"3500111","prefecture":"埼玉県","prefecture_kana":"サイタマケン","city":"比企郡川島町","city_kana":"ヒキグンカワジママチ","town":"谷中","town_kana":"ヤナカ","prefecture_code":11},"0126":{"zip_code":"3500126","prefecture":"埼玉県","prefecture_kana":"サイタマケン","city":"比企郡川島町","city_kana":"ヒキグンカワジママチ","town":"山ケ谷戸","town_kana":"ヤマガヤト","prefecture_code":11},"0138":{"zip_code":"3500138","prefecture":"埼玉県","prefecture_kana":"サイタマケン","city":"比企郡川島町","city_kana":"ヒキグンカワジママチ","town":"吉原","town_kana":"ヨシワラ","prefecture_code":11},"0300":{"zip_code":"3500300","prefecture":"埼玉県","prefecture_kana":"サイタマケン","city":"比企郡鳩山町","city_kana":"ヒキグンハトヤママチ","town":"","town_kana":"","prefecture_code":11},"0321":{"zip_code":"3500321","prefecture":"埼玉県","prefecture_kana":"サイタマケン","city":"比企郡鳩山町","city_kana":"ヒキグンハトヤママチ","town":"赤沼","town_kana":"アカヌマ","prefecture_code":11},"0311":{"zip_code":"3500311","prefecture":"埼玉県","prefecture_kana":"サイタマケン","city":"比企郡鳩山町","city_kana":"ヒキグンハトヤママチ","town":"石坂","town_kana":"イシザカ","prefecture_code":11},"0305":{"zip_code":"3500305","prefecture":"埼玉県","prefecture_kana":"サイタマケン","city":"比企郡鳩山町","city_kana":"ヒキグンハトヤママチ","town":"泉井","town_kana":"イズイ","prefecture_code":11},"0322":{"zip_code":"3500322","prefecture":"埼玉県","prefecture_kana":"サイタマケン","city":"比企郡鳩山町","city_kana":"ヒキグンハトヤママチ","town":"今宿","town_kana":"イマジュク","prefecture_code":11},"0302":{"zip_code":"3500302","prefecture":"埼玉県","prefecture_kana":"サイタマケン","city":"比企郡鳩山町","city_kana":"ヒキグンハトヤママチ","town":"大橋","town_kana":"オオハシ","prefecture_code":11},"0301":{"zip_code":"3500301","prefecture":"埼玉県","prefecture_kana":"サイタマケン","city":"比企郡鳩山町","city_kana":"ヒキグンハトヤママチ","town":"奥田","town_kana":"オクダ","prefecture_code":11},"0314":{"zip_code":"3500314","prefecture":"埼玉県","prefecture_kana":"サイタマケン","city":"比企郡鳩山町","city_kana":"ヒキグンハトヤママチ","town":"楓ケ丘","town_kana":"カエデガオカ","prefecture_code":11},"0303":{"zip_code":"3500303","prefecture":"埼玉県","prefecture_kana":"サイタマケン","city":"比企郡鳩山町","city_kana":"ヒキグンハトヤママチ","town":"熊井","town_kana":"クマイ","prefecture_code":11},"0323":{"zip_code":"3500323","prefecture":"埼玉県","prefecture_kana":"サイタマケン","city":"比企郡鳩山町","city_kana":"ヒキグンハトヤママチ","town":"小用","town_kana":"コヨウ","prefecture_code":11},"0307":{"zip_code":"3500307","prefecture":"埼玉県","prefecture_kana":"サイタマケン","city":"比企郡鳩山町","city_kana":"ヒキグンハトヤママチ","town":"須江","town_kana":"スエ","prefecture_code":11},"0304":{"zip_code":"3500304","prefecture":"埼玉県","prefecture_kana":"サイタマケン","city":"比企郡鳩山町","city_kana":"ヒキグンハトヤママチ","town":"高野倉","town_kana":"タカノクラ","prefecture_code":11},"0306":{"zip_code":"3500306","prefecture":"埼玉県","prefecture_kana":"サイタマケン","city":"比企郡鳩山町","city_kana":"ヒキグンハトヤママチ","town":"竹本","town_kana":"タケモト","prefecture_code":11},"0312":{"zip_code":"3500312","prefecture":"埼玉県","prefecture_kana":"サイタマケン","city":"比企郡鳩山町","city_kana":"ヒキグンハトヤママチ","town":"鳩ケ丘","town_kana":"ハトガオカ","prefecture_code":11},"0313":{"zip_code":"3500313","prefecture":"埼玉県","prefecture_kana":"サイタマケン","city":"比企郡鳩山町","city_kana":"ヒキグンハトヤママチ","town":"松ケ丘","town_kana":"マツガオカ","prefecture_code":11},"0324":{"zip_code":"3500324","prefecture":"埼玉県","prefecture_kana":"サイタマケン","city":"比企郡鳩山町","city_kana":"ヒキグンハトヤママチ","town":"大豆戸","town_kana":"マメド","prefecture_code":11}}