{"0000":{"zip_code":"3510000","prefecture":"埼玉県","prefecture_kana":"サイタマケン","city":"朝霞市","city_kana":"アサカシ","town":"","town_kana":"","prefecture_code":11},"0016":{"zip_code":"3510016","prefecture":"埼玉県","prefecture_kana":"サイタマケン","city":"朝霞市","city_kana":"アサカシ","town":"青葉台","town_kana":"アオバダイ","prefecture_code":11},"0035":{"zip_code":"3510035","prefecture":"埼玉県","prefecture_kana":"サイタマケン","city":"朝霞市","city_kana":"アサカシ","town":"朝志ケ丘","town_kana":"アサシガオカ","prefecture_code":11},"0007":{"zip_code":"3510007","prefecture":"埼玉県","prefecture_kana":"サイタマケン","city":"朝霞市","city_kana":"アサカシ","town":"岡","town_kana":"オカ","prefecture_code":11},"0001":{"zip_code":"3510001","prefecture":"埼玉県","prefecture_kana":"サイタマケン","city":"朝霞市","city_kana":"アサカシ","town":"上内間木","town_kana":"カミウチマギ","prefecture_code":11},"0036":{"zip_code":"3510036","prefecture":"埼玉県","prefecture_kana":"サイタマケン","city":"朝霞市","city_kana":"アサカシ","town":"北原","town_kana":"キタハラ","prefecture_code":11},"0015":{"zip_code":"3510015","prefecture":"埼玉県","prefecture_kana":"サイタマケン","city":"朝霞市","city_kana":"アサカシ","town":"幸町","town_kana":"サイワイチョウ","prefecture_code":11},"0012":{"zip_code":"3510012","prefecture":"埼玉県","prefecture_kana":"サイタマケン","city":"朝霞市","city_kana":"アサカシ","town":"栄町","town_kana":"サカエチョウ","prefecture_code":11},"0002":{"zip_code":"3510002","prefecture":"埼玉県","prefecture_kana":"サイタマケン","city":"朝霞市","city_kana":"アサカシ","town":"下内間木","town_kana":"シモウチマギ","prefecture_code":11},"0024":{"zip_code":"3510024","prefecture":"埼玉県","prefecture_kana":"サイタマケン","city":"朝霞市","city_kana":"アサカシ","town":"泉水","town_kana":"センズイ","prefecture_code":11},"0003":{"zip_code":"3510003","prefecture":"埼玉県","prefecture_kana":"サイタマケン","city":"朝霞市","city_kana":"アサカシ","town":"台","town_kana":"ダイ","prefecture_code":11},"0032":{"zip_code":"3510032","prefecture":"埼玉県","prefecture_kana":"サイタマケン","city":"朝霞市","city_kana":"アサカシ","town":"田島","town_kana":"タジマ","prefecture_code":11},"0006":{"zip_code":"3510006","prefecture":"埼玉県","prefecture_kana":"サイタマケン","city":"朝霞市","city_kana":"アサカシ","town":"仲町","town_kana":"ナカチョウ","prefecture_code":11},"0034":{"zip_code":"3510034","prefecture":"埼玉県","prefecture_kana":"サイタマケン","city":"朝霞市","city_kana":"アサカシ","town":"西原","town_kana":"ニシハラ","prefecture_code":11},"0021":{"zip_code":"3510021","prefecture":"埼玉県","prefecture_kana":"サイタマケン","city":"朝霞市","city_kana":"アサカシ","town":"西弁財","town_kana":"ニシベンザイ","prefecture_code":11},"0004":{"zip_code":"3510004","prefecture":"埼玉県","prefecture_kana":"サイタマケン","city":"朝霞市","city_kana":"アサカシ","town":"根岸","town_kana":"ネギシ","prefecture_code":11},"0005":{"zip_code":"3510005","prefecture":"埼玉県","prefecture_kana":"サイタマケン","city":"朝霞市","city_kana":"アサカシ","town":"根岸台","town_kana":"ネギシダイ","prefecture_code":11},"0033":{"zip_code":"3510033","prefecture":"埼玉県","prefecture_kana":"サイタマケン","city":"朝霞市","city_kana":"アサカシ","town":"浜崎","town_kana":"ハマサキ","prefecture_code":11},"0022":{"zip_code":"3510022","prefecture":"埼玉県","prefecture_kana":"サイタマケン","city":"朝霞市","city_kana":"アサカシ","town":"東弁財","town_kana":"ヒガシベンザイ","prefecture_code":11},"0013":{"zip_code":"3510013","prefecture":"埼玉県","prefecture_kana":"サイタマケン","city":"朝霞市","city_kana":"アサカシ","town":"膝折","town_kana":"ヒザオリ","prefecture_code":11},"0014":{"zip_code":"3510014","prefecture":"埼玉県","prefecture_kana":"サイタマケン","city":"朝霞市","city_kana":"アサカシ","town":"膝折町","town_kana":"ヒザオリチョウ","prefecture_code":11},"0011":{"zip_code":"3510011","prefecture":"埼玉県","prefecture_kana":"サイタマケン","city":"朝霞市","city_kana":"アサカシ","town":"本町","town_kana":"ホンチョウ","prefecture_code":11},"0023":{"zip_code":"3510023","prefecture":"埼玉県","prefecture_kana":"サイタマケン","city":"朝霞市","city_kana":"アサカシ","town":"溝沼","town_kana":"ミゾヌマ","prefecture_code":11},"0025":{"zip_code":"3510025","prefecture":"埼玉県","prefecture_kana":"サイタマケン","city":"朝霞市","city_kana":"アサカシ","town":"三原","town_kana":"ミハラ","prefecture_code":11},"0031":{"zip_code":"3510031","prefecture":"埼玉県","prefecture_kana":"サイタマケン","city":"朝霞市","city_kana":"アサカシ","town":"宮戸","town_kana":"ミヤド","prefecture_code":11},"0100":{"zip_code":"3510100","prefecture":"埼玉県","prefecture_kana":"サイタマケン","city":"和光市","city_kana":"ワコウシ","town":"","town_kana":"","prefecture_code":11},"0111":{"zip_code":"3510111","prefecture":"埼玉県","prefecture_kana":"サイタマケン","city":"和光市","city_kana":"ワコウシ","town":"下新倉","town_kana":"シモニイクラ","prefecture_code":11},"0101":{"zip_code":"3510101","prefecture":"埼玉県","prefecture_kana":"サイタマケン","city":"和光市","city_kana":"ワコウシ","town":"白子","town_kana":"シラコ","prefecture_code":11},"0102":{"zip_code":"3510102","prefecture":"埼玉県","prefecture_kana":"サイタマケン","city":"和光市","city_kana":"ワコウシ","town":"諏訪","town_kana":"スワ","prefecture_code":11},"0103":{"zip_code":"3510103","prefecture":"埼玉県","prefecture_kana":"サイタマケン","city":"和光市","city_kana":"ワコウシ","town":"諏訪原団地","town_kana":"スワハラダンチ","prefecture_code":11},"0113":{"zip_code":"3510113","prefecture":"埼玉県","prefecture_kana":"サイタマケン","city":"和光市","city_kana":"ワコウシ","town":"中央","town_kana":"チュウオウ","prefecture_code":11},"0115":{"zip_code":"3510115","prefecture":"埼玉県","prefecture_kana":"サイタマケン","city":"和光市","city_kana":"ワコウシ","town":"新倉","town_kana":"ニイクラ","prefecture_code":11},"0105":{"zip_code":"3510105","prefecture":"埼玉県","prefecture_kana":"サイタマケン","city":"和光市","city_kana":"ワコウシ","town":"西大和団地","town_kana":"ニシヤマトダンチ","prefecture_code":11},"0106":{"zip_code":"3510106","prefecture":"埼玉県","prefecture_kana":"サイタマケン","city":"和光市","city_kana":"ワコウシ","town":"広沢","town_kana":"ヒロサワ","prefecture_code":11},"0114":{"zip_code":"3510114","prefecture":"埼玉県","prefecture_kana":"サイタマケン","city":"和光市","city_kana":"ワコウシ","town":"本町","town_kana":"ホンチョウ","prefecture_code":11},"0116":{"zip_code":"3510116","prefecture":"埼玉県","prefecture_kana":"サイタマケン","city":"和光市","city_kana":"ワコウシ","town":"松ノ木島町","town_kana":"マツノキジマチョウ","prefecture_code":11},"0112":{"zip_code":"3510112","prefecture":"埼玉県","prefecture_kana":"サイタマケン","city":"和光市","city_kana":"ワコウシ","town":"丸山台","town_kana":"マルヤマダイ","prefecture_code":11},"0104":{"zip_code":"3510104","prefecture":"埼玉県","prefecture_kana":"サイタマケン","city":"和光市","city_kana":"ワコウシ","town":"南","town_kana":"ミナミ","prefecture_code":11}}