{"0000":{"zip_code":"3520000","prefecture":"埼玉県","prefecture_kana":"サイタマケン","city":"新座市","city_kana":"ニイザシ","town":"","town_kana":"","prefecture_code":11},"0021":{"zip_code":"3520021","prefecture":"埼玉県","prefecture_kana":"サイタマケン","city":"新座市","city_kana":"ニイザシ","town":"あたご","town_kana":"アタゴ","prefecture_code":11},"0015":{"zip_code":"3520015","prefecture":"埼玉県","prefecture_kana":"サイタマケン","city":"新座市","city_kana":"ニイザシ","town":"池田","town_kana":"イケダ","prefecture_code":11},"0033":{"zip_code":"3520033","prefecture":"埼玉県","prefecture_kana":"サイタマケン","city":"新座市","city_kana":"ニイザシ","town":"石神","town_kana":"イシガミ","prefecture_code":11},"0004":{"zip_code":"3520004","prefecture":"埼玉県","prefecture_kana":"サイタマケン","city":"新座市","city_kana":"ニイザシ","town":"大和田","town_kana":"オオワダ","prefecture_code":11},"0025":{"zip_code":"3520025","prefecture":"埼玉県","prefecture_kana":"サイタマケン","city":"新座市","city_kana":"ニイザシ","town":"片山","town_kana":"カタヤマ","prefecture_code":11},"0003":{"zip_code":"3520003","prefecture":"埼玉県","prefecture_kana":"サイタマケン","city":"新座市","city_kana":"ニイザシ","town":"北野","town_kana":"キタノ","prefecture_code":11},"0035":{"zip_code":"3520035","prefecture":"埼玉県","prefecture_kana":"サイタマケン","city":"新座市","city_kana":"ニイザシ","town":"栗原","town_kana":"クリハラ","prefecture_code":11},"0014":{"zip_code":"3520014","prefecture":"埼玉県","prefecture_kana":"サイタマケン","city":"新座市","city_kana":"ニイザシ","town":"栄","town_kana":"サカエ","prefecture_code":11},"0032":{"zip_code":"3520032","prefecture":"埼玉県","prefecture_kana":"サイタマケン","city":"新座市","city_kana":"ニイザシ","town":"新堀","town_kana":"シンボリ","prefecture_code":11},"0017":{"zip_code":"3520017","prefecture":"埼玉県","prefecture_kana":"サイタマケン","city":"新座市","city_kana":"ニイザシ","town":"菅沢","town_kana":"スガサワ","prefecture_code":11},"0024":{"zip_code":"3520024","prefecture":"埼玉県","prefecture_kana":"サイタマケン","city":"新座市","city_kana":"ニイザシ","town":"道場","town_kana":"ドウジョウ","prefecture_code":11},"0001":{"zip_code":"3520001","prefecture":"埼玉県","prefecture_kana":"サイタマケン","city":"新座市","city_kana":"ニイザシ","town":"東北","town_kana":"トオホク","prefecture_code":11},"0005":{"zip_code":"3520005","prefecture":"埼玉県","prefecture_kana":"サイタマケン","city":"新座市","city_kana":"ニイザシ","town":"中野","town_kana":"ナカノ","prefecture_code":11},"0006":{"zip_code":"3520006","prefecture":"埼玉県","prefecture_kana":"サイタマケン","city":"新座市","city_kana":"ニイザシ","town":"新座","town_kana":"ニイザ","prefecture_code":11},"0013":{"zip_code":"3520013","prefecture":"埼玉県","prefecture_kana":"サイタマケン","city":"新座市","city_kana":"ニイザシ","town":"新塚","town_kana":"ニイヅカ","prefecture_code":11},"0031":{"zip_code":"3520031","prefecture":"埼玉県","prefecture_kana":"サイタマケン","city":"新座市","city_kana":"ニイザシ","town":"西堀","town_kana":"ニシボリ","prefecture_code":11},"0034":{"zip_code":"3520034","prefecture":"埼玉県","prefecture_kana":"サイタマケン","city":"新座市","city_kana":"ニイザシ","town":"野寺","town_kana":"ノデラ","prefecture_code":11},"0011":{"zip_code":"3520011","prefecture":"埼玉県","prefecture_kana":"サイタマケン","city":"新座市","city_kana":"ニイザシ","town":"野火止","town_kana":"ノビトメ","prefecture_code":11},"0012":{"zip_code":"3520012","prefecture":"埼玉県","prefecture_kana":"サイタマケン","city":"新座市","city_kana":"ニイザシ","town":"畑中","town_kana":"ハタナカ","prefecture_code":11},"0016":{"zip_code":"3520016","prefecture":"埼玉県","prefecture_kana":"サイタマケン","city":"新座市","city_kana":"ニイザシ","town":"馬場","town_kana":"ババ","prefecture_code":11},"0002":{"zip_code":"3520002","prefecture":"埼玉県","prefecture_kana":"サイタマケン","city":"新座市","city_kana":"ニイザシ","town":"東","town_kana":"ヒガシ","prefecture_code":11},"0023":{"zip_code":"3520023","prefecture":"埼玉県","prefecture_kana":"サイタマケン","city":"新座市","city_kana":"ニイザシ","town":"堀ノ内","town_kana":"ホリノウチ","prefecture_code":11},"0022":{"zip_code":"3520022","prefecture":"埼玉県","prefecture_kana":"サイタマケン","city":"新座市","city_kana":"ニイザシ","town":"本多","town_kana":"ホンダ","prefecture_code":11}}