{"0000":{"zip_code":"3530000","prefecture":"埼玉県","prefecture_kana":"サイタマケン","city":"志木市","city_kana":"シキシ","town":"","town_kana":"","prefecture_code":11},"0007":{"zip_code":"3530007","prefecture":"埼玉県","prefecture_kana":"サイタマケン","city":"志木市","city_kana":"シキシ","town":"柏町","town_kana":"カシワチョウ","prefecture_code":11},"0001":{"zip_code":"3530001","prefecture":"埼玉県","prefecture_kana":"サイタマケン","city":"志木市","city_kana":"シキシ","town":"上宗岡","town_kana":"カミムネオカ","prefecture_code":11},"0005":{"zip_code":"3530005","prefecture":"埼玉県","prefecture_kana":"サイタマケン","city":"志木市","city_kana":"シキシ","town":"幸町","town_kana":"サイワイチョウ","prefecture_code":11},"0003":{"zip_code":"3530003","prefecture":"埼玉県","prefecture_kana":"サイタマケン","city":"志木市","city_kana":"シキシ","town":"下宗岡","town_kana":"シモムネオカ","prefecture_code":11},"0006":{"zip_code":"3530006","prefecture":"埼玉県","prefecture_kana":"サイタマケン","city":"志木市","city_kana":"シキシ","town":"館","town_kana":"タテ","prefecture_code":11},"0002":{"zip_code":"3530002","prefecture":"埼玉県","prefecture_kana":"サイタマケン","city":"志木市","city_kana":"シキシ","town":"中宗岡","town_kana":"ナカムネオカ","prefecture_code":11},"0004":{"zip_code":"3530004","prefecture":"埼玉県","prefecture_kana":"サイタマケン","city":"志木市","city_kana":"シキシ","town":"本町","town_kana":"ホンチョウ","prefecture_code":11},"0008":{"zip_code":"3530008","prefecture":"埼玉県","prefecture_kana":"サイタマケン","city":"志木市","city_kana":"シキシ","town":"宗岡","town_kana":"ムネオカ","prefecture_code":11}}