{"0000":{"zip_code":"3540000","prefecture":"埼玉県","prefecture_kana":"サイタマケン","city":"入間郡三芳町","city_kana":"イルマグンミヨシマチ","town":"","town_kana":"","prefecture_code":11},"0016":{"zip_code":"3540016","prefecture":"埼玉県","prefecture_kana":"サイタマケン","city":"富士見市","city_kana":"フジミシ","town":"榎町","town_kana":"エノキチョウ","prefecture_code":11},"0012":{"zip_code":"3540012","prefecture":"埼玉県","prefecture_kana":"サイタマケン","city":"富士見市","city_kana":"フジミシ","town":"貝塚","town_kana":"カイヅカ","prefecture_code":11},"0031":{"zip_code":"3540031","prefecture":"埼玉県","prefecture_kana":"サイタマケン","city":"富士見市","city_kana":"フジミシ","town":"勝瀬","town_kana":"カツセ","prefecture_code":11},"0034":{"zip_code":"3540034","prefecture":"埼玉県","prefecture_kana":"サイタマケン","city":"富士見市","city_kana":"フジミシ","town":"上沢","town_kana":"カミサワ","prefecture_code":11},"0002":{"zip_code":"3540002","prefecture":"埼玉県","prefecture_kana":"サイタマケン","city":"富士見市","city_kana":"フジミシ","town":"上南畑","town_kana":"カミナンバタ","prefecture_code":11},"0004":{"zip_code":"3540004","prefecture":"埼玉県","prefecture_kana":"サイタマケン","city":"富士見市","city_kana":"フジミシ","town":"下南畑","town_kana":"シモナンバタ","prefecture_code":11},"0023":{"zip_code":"3540023","prefecture":"埼玉県","prefecture_kana":"サイタマケン","city":"富士見市","city_kana":"フジミシ","town":"諏訪","town_kana":"スワ","prefecture_code":11},"0025":{"zip_code":"3540025","prefecture":"埼玉県","prefecture_kana":"サイタマケン","city":"富士見市","city_kana":"フジミシ","town":"関沢","town_kana":"セキザワ","prefecture_code":11},"0024":{"zip_code":"3540024","prefecture":"埼玉県","prefecture_kana":"サイタマケン","city":"富士見市","city_kana":"フジミシ","town":"鶴瀬東","town_kana":"ツルセヒガシ","prefecture_code":11},"0026":{"zip_code":"3540026","prefecture":"埼玉県","prefecture_kana":"サイタマケン","city":"富士見市","city_kana":"フジミシ","town":"鶴瀬西","town_kana":"ツルセニシ","prefecture_code":11},"0021":{"zip_code":"3540021","prefecture":"埼玉県","prefecture_kana":"サイタマケン","city":"富士見市","city_kana":"フジミシ","town":"鶴馬","town_kana":"ツルマ","prefecture_code":11},"0003":{"zip_code":"3540003","prefecture":"埼玉県","prefecture_kana":"サイタマケン","city":"富士見市","city_kana":"フジミシ","town":"南畑新田","town_kana":"ナンバタシンデン","prefecture_code":11},"0018":{"zip_code":"3540018","prefecture":"埼玉県","prefecture_kana":"サイタマケン","city":"富士見市","city_kana":"フジミシ","town":"西みずほ台","town_kana":"ニシミズホダイ","prefecture_code":11},"0033":{"zip_code":"3540033","prefecture":"埼玉県","prefecture_kana":"サイタマケン","city":"富士見市","city_kana":"フジミシ","town":"羽沢","town_kana":"ハネサワ","prefecture_code":11},"0017":{"zip_code":"3540017","prefecture":"埼玉県","prefecture_kana":"サイタマケン","city":"富士見市","city_kana":"フジミシ","town":"針ケ谷","town_kana":"ハリガヤ","prefecture_code":11},"0001":{"zip_code":"3540001","prefecture":"埼玉県","prefecture_kana":"サイタマケン","city":"富士見市","city_kana":"フジミシ","town":"東大久保","town_kana":"ヒガシオオクボ","prefecture_code":11},"0015":{"zip_code":"3540015","prefecture":"埼玉県","prefecture_kana":"サイタマケン","city":"富士見市","city_kana":"フジミシ","town":"東みずほ台","town_kana":"ヒガシミズホダイ","prefecture_code":11},"0035":{"zip_code":"3540035","prefecture":"埼玉県","prefecture_kana":"サイタマケン","city":"富士見市","city_kana":"フジミシ","town":"ふじみ野西","town_kana":"フジミノニシ","prefecture_code":11},"0036":{"zip_code":"3540036","prefecture":"埼玉県","prefecture_kana":"サイタマケン","city":"富士見市","city_kana":"フジミシ","town":"ふじみ野東","town_kana":"フジミノヒガシ","prefecture_code":11},"0011":{"zip_code":"3540011","prefecture":"埼玉県","prefecture_kana":"サイタマケン","city":"富士見市","city_kana":"フジミシ","town":"水子","town_kana":"ミズコ","prefecture_code":11},"0014":{"zip_code":"3540014","prefecture":"埼玉県","prefecture_kana":"サイタマケン","city":"富士見市","city_kana":"フジミシ","town":"水谷","town_kana":"ミズタニ","prefecture_code":11},"0013":{"zip_code":"3540013","prefecture":"埼玉県","prefecture_kana":"サイタマケン","city":"富士見市","city_kana":"フジミシ","town":"水谷東","town_kana":"ミズタニヒガシ","prefecture_code":11},"0006":{"zip_code":"3540006","prefecture":"埼玉県","prefecture_kana":"サイタマケン","city":"富士見市","city_kana":"フジミシ","town":"みどり野東","town_kana":"ミドリノヒガシ","prefecture_code":11},"0008":{"zip_code":"3540008","prefecture":"埼玉県","prefecture_kana":"サイタマケン","city":"富士見市","city_kana":"フジミシ","town":"みどり野西","town_kana":"ミドリノニシ","prefecture_code":11},"0007":{"zip_code":"3540007","prefecture":"埼玉県","prefecture_kana":"サイタマケン","city":"富士見市","city_kana":"フジミシ","town":"みどり野南","town_kana":"ミドリノミナミ","prefecture_code":11},"0005":{"zip_code":"3540005","prefecture":"埼玉県","prefecture_kana":"サイタマケン","city":"富士見市","city_kana":"フジミシ","town":"みどり野北","town_kana":"ミドリノキタ","prefecture_code":11},"0022":{"zip_code":"3540022","prefecture":"埼玉県","prefecture_kana":"サイタマケン","city":"富士見市","city_kana":"フジミシ","town":"山室","town_kana":"ヤマムロ","prefecture_code":11},"0032":{"zip_code":"3540032","prefecture":"埼玉県","prefecture_kana":"サイタマケン","city":"富士見市","city_kana":"フジミシ","town":"渡戸","town_kana":"ワタド","prefecture_code":11},"0045":{"zip_code":"3540045","prefecture":"埼玉県","prefecture_kana":"サイタマケン","city":"入間郡三芳町","city_kana":"イルマグンミヨシマチ","town":"上富","town_kana":"カミトメ","prefecture_code":11},"0044":{"zip_code":"3540044","prefecture":"埼玉県","prefecture_kana":"サイタマケン","city":"入間郡三芳町","city_kana":"イルマグンミヨシマチ","town":"北永井","town_kana":"キタナガイ","prefecture_code":11},"0043":{"zip_code":"3540043","prefecture":"埼玉県","prefecture_kana":"サイタマケン","city":"入間郡三芳町","city_kana":"イルマグンミヨシマチ","town":"竹間沢","town_kana":"チクマザワ","prefecture_code":11},"0046":{"zip_code":"3540046","prefecture":"埼玉県","prefecture_kana":"サイタマケン","city":"入間郡三芳町","city_kana":"イルマグンミヨシマチ","town":"竹間沢東","town_kana":"チクマザワヒガシ","prefecture_code":11},"0041":{"zip_code":"3540041","prefecture":"埼玉県","prefecture_kana":"サイタマケン","city":"入間郡三芳町","city_kana":"イルマグンミヨシマチ","town":"藤久保","town_kana":"フジクボ","prefecture_code":11},"0042":{"zip_code":"3540042","prefecture":"埼玉県","prefecture_kana":"サイタマケン","city":"入間郡三芳町","city_kana":"イルマグンミヨシマチ","town":"みよし台","town_kana":"ミヨシダイ","prefecture_code":11}}