{"0000":{"zip_code":"3550000","prefecture":"埼玉県","prefecture_kana":"サイタマケン","city":"東松山市","city_kana":"ヒガシマツヤマシ","town":"","town_kana":"","prefecture_code":11},"0048":{"zip_code":"3550048","prefecture":"埼玉県","prefecture_kana":"サイタマケン","city":"東松山市","city_kana":"ヒガシマツヤマシ","town":"あずま町","town_kana":"アズマチョウ","prefecture_code":11},"0072":{"zip_code":"3550072","prefecture":"埼玉県","prefecture_kana":"サイタマケン","city":"東松山市","city_kana":"ヒガシマツヤマシ","town":"石橋","town_kana":"イシバシ","prefecture_code":11},"0026":{"zip_code":"3550026","prefecture":"埼玉県","prefecture_kana":"サイタマケン","city":"東松山市","city_kana":"ヒガシマツヤマシ","town":"和泉町","town_kana":"イズミチョウ","prefecture_code":11},"0006":{"zip_code":"3550006","prefecture":"埼玉県","prefecture_kana":"サイタマケン","city":"東松山市","city_kana":"ヒガシマツヤマシ","town":"市ノ川","town_kana":"イチノカワ","prefecture_code":11},"0042":{"zip_code":"3550042","prefecture":"埼玉県","prefecture_kana":"サイタマケン","city":"東松山市","city_kana":"ヒガシマツヤマシ","town":"今泉","town_kana":"イマイズミ","prefecture_code":11},"0065":{"zip_code":"3550065","prefecture":"埼玉県","prefecture_kana":"サイタマケン","city":"東松山市","city_kana":"ヒガシマツヤマシ","town":"岩殿","town_kana":"イワドノ","prefecture_code":11},"0046":{"zip_code":"3550046","prefecture":"埼玉県","prefecture_kana":"サイタマケン","city":"東松山市","city_kana":"ヒガシマツヤマシ","town":"大黒部","town_kana":"オオクロベ","prefecture_code":11},"0008":{"zip_code":"3550008","prefecture":"埼玉県","prefecture_kana":"サイタマケン","city":"東松山市","city_kana":"ヒガシマツヤマシ","town":"大谷","town_kana":"オオヤ","prefecture_code":11},"0001":{"zip_code":"3550001","prefecture":"埼玉県","prefecture_kana":"サイタマケン","city":"東松山市","city_kana":"ヒガシマツヤマシ","town":"岡","town_kana":"オカ","prefecture_code":11},"0022":{"zip_code":"3550022","prefecture":"埼玉県","prefecture_kana":"サイタマケン","city":"東松山市","city_kana":"ヒガシマツヤマシ","town":"御茶山町","town_kana":"オチャヤマチョウ","prefecture_code":11},"0034":{"zip_code":"3550034","prefecture":"埼玉県","prefecture_kana":"サイタマケン","city":"東松山市","city_kana":"ヒガシマツヤマシ","town":"柏崎","town_kana":"カシワザキ","prefecture_code":11},"0074":{"zip_code":"3550074","prefecture":"埼玉県","prefecture_kana":"サイタマケン","city":"東松山市","city_kana":"ヒガシマツヤマシ","town":"上押垂","town_kana":"カミオシダリ","prefecture_code":11},"0077":{"zip_code":"3550077","prefecture":"埼玉県","prefecture_kana":"サイタマケン","city":"東松山市","city_kana":"ヒガシマツヤマシ","town":"上唐子","town_kana":"カミガラコ","prefecture_code":11},"0011":{"zip_code":"3550011","prefecture":"埼玉県","prefecture_kana":"サイタマケン","city":"東松山市","city_kana":"ヒガシマツヤマシ","town":"加美町","town_kana":"カミチョウ","prefecture_code":11},"0073":{"zip_code":"3550073","prefecture":"埼玉県","prefecture_kana":"サイタマケン","city":"東松山市","city_kana":"ヒガシマツヤマシ","town":"上野本","town_kana":"カミノモト","prefecture_code":11},"0061":{"zip_code":"3550061","prefecture":"埼玉県","prefecture_kana":"サイタマケン","city":"東松山市","city_kana":"ヒガシマツヤマシ","town":"葛袋","town_kana":"クズブクロ","prefecture_code":11},"0064":{"zip_code":"3550064","prefecture":"埼玉県","prefecture_kana":"サイタマケン","city":"東松山市","city_kana":"ヒガシマツヤマシ","town":"毛塚","town_kana":"ケツカ","prefecture_code":11},"0066":{"zip_code":"3550066","prefecture":"埼玉県","prefecture_kana":"サイタマケン","city":"東松山市","city_kana":"ヒガシマツヤマシ","town":"神戸","town_kana":"ゴウド","prefecture_code":11},"0031":{"zip_code":"3550031","prefecture":"埼玉県","prefecture_kana":"サイタマケン","city":"東松山市","city_kana":"ヒガシマツヤマシ","town":"五領町","town_kana":"ゴリョウチョウ","prefecture_code":11},"0013":{"zip_code":"3550013","prefecture":"埼玉県","prefecture_kana":"サイタマケン","city":"東松山市","city_kana":"ヒガシマツヤマシ","town":"小松原町","town_kana":"コマツバラチョウ","prefecture_code":11},"0016":{"zip_code":"3550016","prefecture":"埼玉県","prefecture_kana":"サイタマケン","city":"東松山市","city_kana":"ヒガシマツヤマシ","town":"材木町","town_kana":"ザイモクチョウ","prefecture_code":11},"0025":{"zip_code":"3550025","prefecture":"埼玉県","prefecture_kana":"サイタマケン","city":"東松山市","city_kana":"ヒガシマツヤマシ","town":"幸町","town_kana":"サイワイチョウ","prefecture_code":11},"0052":{"zip_code":"3550052","prefecture":"埼玉県","prefecture_kana":"サイタマケン","city":"東松山市","city_kana":"ヒガシマツヤマシ","town":"桜山台","town_kana":"サクラヤマダイ","prefecture_code":11},"0004":{"zip_code":"3550004","prefecture":"埼玉県","prefecture_kana":"サイタマケン","city":"東松山市","city_kana":"ヒガシマツヤマシ","town":"沢口町","town_kana":"サワグチチョウ","prefecture_code":11},"0075":{"zip_code":"3550075","prefecture":"埼玉県","prefecture_kana":"サイタマケン","city":"東松山市","city_kana":"ヒガシマツヤマシ","town":"下青鳥","town_kana":"シモオオドリ","prefecture_code":11},"0041":{"zip_code":"3550041","prefecture":"埼玉県","prefecture_kana":"サイタマケン","city":"東松山市","city_kana":"ヒガシマツヤマシ","town":"下押垂","town_kana":"シモオシダリ","prefecture_code":11},"0076":{"zip_code":"3550076","prefecture":"埼玉県","prefecture_kana":"サイタマケン","city":"東松山市","city_kana":"ヒガシマツヤマシ","town":"下唐子","town_kana":"シモガラコ","prefecture_code":11},"0036":{"zip_code":"3550036","prefecture":"埼玉県","prefecture_kana":"サイタマケン","city":"東松山市","city_kana":"ヒガシマツヤマシ","town":"下野本","town_kana":"シモノモト","prefecture_code":11},"0044":{"zip_code":"3550044","prefecture":"埼玉県","prefecture_kana":"サイタマケン","city":"東松山市","city_kana":"ヒガシマツヤマシ","town":"正代","town_kana":"ショウダイ","prefecture_code":11},"0071":{"zip_code":"3550071","prefecture":"埼玉県","prefecture_kana":"サイタマケン","city":"東松山市","city_kana":"ヒガシマツヤマシ","town":"新郷","town_kana":"シンゴウ","prefecture_code":11},"0032":{"zip_code":"3550032","prefecture":"埼玉県","prefecture_kana":"サイタマケン","city":"東松山市","city_kana":"ヒガシマツヤマシ","town":"新宿町","town_kana":"シンジュクチョウ","prefecture_code":11},"0021":{"zip_code":"3550021","prefecture":"埼玉県","prefecture_kana":"サイタマケン","city":"東松山市","city_kana":"ヒガシマツヤマシ","town":"神明町","town_kana":"シンメイチョウ","prefecture_code":11},"0019":{"zip_code":"3550019","prefecture":"埼玉県","prefecture_kana":"サイタマケン","city":"東松山市","city_kana":"ヒガシマツヤマシ","town":"砂田町","town_kana":"スナダチョウ","prefecture_code":11},"0047":{"zip_code":"3550047","prefecture":"埼玉県","prefecture_kana":"サイタマケン","city":"東松山市","city_kana":"ヒガシマツヤマシ","town":"高坂","town_kana":"タカサカ","prefecture_code":11},"0053":{"zip_code":"3550053","prefecture":"埼玉県","prefecture_kana":"サイタマケン","city":"東松山市","city_kana":"ヒガシマツヤマシ","town":"田木","town_kana":"タギ","prefecture_code":11},"0003":{"zip_code":"3550003","prefecture":"埼玉県","prefecture_kana":"サイタマケン","city":"東松山市","city_kana":"ヒガシマツヤマシ","town":"殿山町","town_kana":"トノヤマチョウ","prefecture_code":11},"0062":{"zip_code":"3550062","prefecture":"埼玉県","prefecture_kana":"サイタマケン","city":"東松山市","city_kana":"ヒガシマツヤマシ","town":"西本宿","town_kana":"ニシモトジュク","prefecture_code":11},"0007":{"zip_code":"3550007","prefecture":"埼玉県","prefecture_kana":"サイタマケン","city":"東松山市","city_kana":"ヒガシマツヤマシ","town":"野田","town_kana":"ノダ","prefecture_code":11},"0051":{"zip_code":"3550051","prefecture":"埼玉県","prefecture_kana":"サイタマケン","city":"東松山市","city_kana":"ヒガシマツヤマシ","town":"白山台","town_kana":"ハクサンダイ","prefecture_code":11},"0054":{"zip_code":"3550054","prefecture":"埼玉県","prefecture_kana":"サイタマケン","city":"東松山市","city_kana":"ヒガシマツヤマシ","town":"旗立台","town_kana":"ハタタテダイ","prefecture_code":11},"0043":{"zip_code":"3550043","prefecture":"埼玉県","prefecture_kana":"サイタマケン","city":"東松山市","city_kana":"ヒガシマツヤマシ","town":"早俣","town_kana":"ハヤマタ","prefecture_code":11},"0067":{"zip_code":"3550067","prefecture":"埼玉県","prefecture_kana":"サイタマケン","city":"東松山市","city_kana":"ヒガシマツヤマシ","town":"坂東山","town_kana":"バンドウヤマ","prefecture_code":11},"0002":{"zip_code":"3550002","prefecture":"埼玉県","prefecture_kana":"サイタマケン","city":"東松山市","city_kana":"ヒガシマツヤマシ","town":"東平","town_kana":"ヒガシダイラ","prefecture_code":11},"0012":{"zip_code":"3550012","prefecture":"埼玉県","prefecture_kana":"サイタマケン","city":"東松山市","city_kana":"ヒガシマツヤマシ","town":"日吉町","town_kana":"ヒヨシチョウ","prefecture_code":11},"0035":{"zip_code":"3550035","prefecture":"埼玉県","prefecture_kana":"サイタマケン","city":"東松山市","city_kana":"ヒガシマツヤマシ","town":"古凍","town_kana":"フルコオリ","prefecture_code":11},"0015":{"zip_code":"3550015","prefecture":"埼玉県","prefecture_kana":"サイタマケン","city":"東松山市","city_kana":"ヒガシマツヤマシ","town":"本町","town_kana":"ホンチョウ","prefecture_code":11},"0055":{"zip_code":"3550055","prefecture":"埼玉県","prefecture_kana":"サイタマケン","city":"東松山市","city_kana":"ヒガシマツヤマシ","town":"松風台","town_kana":"マツカゼダイ","prefecture_code":11},"0017":{"zip_code":"3550017","prefecture":"埼玉県","prefecture_kana":"サイタマケン","city":"東松山市","city_kana":"ヒガシマツヤマシ","town":"松葉町","town_kana":"マツバチョウ","prefecture_code":11},"0014":{"zip_code":"3550014","prefecture":"埼玉県","prefecture_kana":"サイタマケン","city":"東松山市","city_kana":"ヒガシマツヤマシ","town":"松本町","town_kana":"マツモトチョウ","prefecture_code":11},"0005":{"zip_code":"3550005","prefecture":"埼玉県","prefecture_kana":"サイタマケン","city":"東松山市","city_kana":"ヒガシマツヤマシ","town":"松山","town_kana":"マツヤマ","prefecture_code":11},"0018":{"zip_code":"3550018","prefecture":"埼玉県","prefecture_kana":"サイタマケン","city":"東松山市","city_kana":"ヒガシマツヤマシ","town":"松山町","town_kana":"マツヤマチョウ","prefecture_code":11},"0027":{"zip_code":"3550027","prefecture":"埼玉県","prefecture_kana":"サイタマケン","city":"東松山市","city_kana":"ヒガシマツヤマシ","town":"美土里町","town_kana":"ミドリチョウ","prefecture_code":11},"0045":{"zip_code":"3550045","prefecture":"埼玉県","prefecture_kana":"サイタマケン","city":"東松山市","city_kana":"ヒガシマツヤマシ","town":"宮鼻","town_kana":"ミヤハナ","prefecture_code":11},"0063":{"zip_code":"3550063","prefecture":"埼玉県","prefecture_kana":"サイタマケン","city":"東松山市","city_kana":"ヒガシマツヤマシ","town":"元宿","town_kana":"モトジュク","prefecture_code":11},"0028":{"zip_code":"3550028","prefecture":"埼玉県","prefecture_kana":"サイタマケン","city":"東松山市","city_kana":"ヒガシマツヤマシ","town":"箭弓町","town_kana":"ヤキュウチョウ","prefecture_code":11},"0033":{"zip_code":"3550033","prefecture":"埼玉県","prefecture_kana":"サイタマケン","city":"東松山市","city_kana":"ヒガシマツヤマシ","town":"山崎町","town_kana":"ヤマザキチョウ","prefecture_code":11},"0023":{"zip_code":"3550023","prefecture":"埼玉県","prefecture_kana":"サイタマケン","city":"東松山市","city_kana":"ヒガシマツヤマシ","town":"六反町","town_kana":"ロクタンチョウ","prefecture_code":11},"0024":{"zip_code":"3550024","prefecture":"埼玉県","prefecture_kana":"サイタマケン","city":"東松山市","city_kana":"ヒガシマツヤマシ","town":"六軒町","town_kana":"ロッケンチョウ","prefecture_code":11},"0037":{"zip_code":"3550037","prefecture":"埼玉県","prefecture_kana":"サイタマケン","city":"東松山市","city_kana":"ヒガシマツヤマシ","town":"若松町","town_kana":"ワカマツチョウ","prefecture_code":11},"0800":{"zip_code":"3550800","prefecture":"埼玉県","prefecture_kana":"サイタマケン","city":"比企郡滑川町","city_kana":"ヒキグンナメガワマチ","town":"","town_kana":"","prefecture_code":11},"0806":{"zip_code":"3550806","prefecture":"埼玉県","prefecture_kana":"サイタマケン","city":"比企郡滑川町","city_kana":"ヒキグンナメガワマチ","town":"伊古","town_kana":"イコ","prefecture_code":11},"0807":{"zip_code":"3550807","prefecture":"埼玉県","prefecture_kana":"サイタマケン","city":"比企郡滑川町","city_kana":"ヒキグンナメガワマチ","town":"和泉","town_kana":"イズミ","prefecture_code":11},"0808":{"zip_code":"3550808","prefecture":"埼玉県","prefecture_kana":"サイタマケン","city":"比企郡滑川町","city_kana":"ヒキグンナメガワマチ","town":"菅田","town_kana":"スガダ","prefecture_code":11},"0813":{"zip_code":"3550813","prefecture":"埼玉県","prefecture_kana":"サイタマケン","city":"比企郡滑川町","city_kana":"ヒキグンナメガワマチ","town":"月輪","town_kana":"ツキノワ","prefecture_code":11},"0815":{"zip_code":"3550815","prefecture":"埼玉県","prefecture_kana":"サイタマケン","city":"比企郡滑川町","city_kana":"ヒキグンナメガワマチ","town":"月の輪","town_kana":"ツキノワ","prefecture_code":11},"0801":{"zip_code":"3550801","prefecture":"埼玉県","prefecture_kana":"サイタマケン","city":"比企郡滑川町","city_kana":"ヒキグンナメガワマチ","town":"土塩","town_kana":"ツチシオ","prefecture_code":11},"0804":{"zip_code":"3550804","prefecture":"埼玉県","prefecture_kana":"サイタマケン","city":"比企郡滑川町","city_kana":"ヒキグンナメガワマチ","town":"中尾","town_kana":"ナカオ","prefecture_code":11},"0811":{"zip_code":"3550811","prefecture":"埼玉県","prefecture_kana":"サイタマケン","city":"比企郡滑川町","city_kana":"ヒキグンナメガワマチ","town":"羽尾","town_kana":"ハネオ","prefecture_code":11},"0803":{"zip_code":"3550803","prefecture":"埼玉県","prefecture_kana":"サイタマケン","city":"比企郡滑川町","city_kana":"ヒキグンナメガワマチ","town":"福田","town_kana":"フクダ","prefecture_code":11},"0805":{"zip_code":"3550805","prefecture":"埼玉県","prefecture_kana":"サイタマケン","city":"比企郡滑川町","city_kana":"ヒキグンナメガワマチ","town":"水房","town_kana":"ミズフサ","prefecture_code":11},"0814":{"zip_code":"3550814","prefecture":"埼玉県","prefecture_kana":"サイタマケン","city":"比企郡滑川町","city_kana":"ヒキグンナメガワマチ","town":"みなみ野","town_kana":"ミナミノ","prefecture_code":11},"0812":{"zip_code":"3550812","prefecture":"埼玉県","prefecture_kana":"サイタマケン","city":"比企郡滑川町","city_kana":"ヒキグンナメガワマチ","town":"都","town_kana":"ミヤコ","prefecture_code":11},"0802":{"zip_code":"3550802","prefecture":"埼玉県","prefecture_kana":"サイタマケン","city":"比企郡滑川町","city_kana":"ヒキグンナメガワマチ","town":"山田","town_kana":"ヤマタ","prefecture_code":11},"0200":{"zip_code":"3550200","prefecture":"埼玉県","prefecture_kana":"サイタマケン","city":"比企郡嵐山町","city_kana":"ヒキグンランザンマチ","town":"","town_kana":"","prefecture_code":11},"0222":{"zip_code":"3550222","prefecture":"埼玉県","prefecture_kana":"サイタマケン","city":"比企郡嵐山町","city_kana":"ヒキグンランザンマチ","town":"大蔵","town_kana":"オオクラ","prefecture_code":11},"0206":{"zip_code":"3550206","prefecture":"埼玉県","prefecture_kana":"サイタマケン","city":"比企郡嵐山町","city_kana":"ヒキグンランザンマチ","town":"越畑","town_kana":"オツバタ","prefecture_code":11},"0203":{"zip_code":"3550203","prefecture":"埼玉県","prefecture_kana":"サイタマケン","city":"比企郡嵐山町","city_kana":"ヒキグンランザンマチ","town":"勝田","town_kana":"カチダ","prefecture_code":11},"0225":{"zip_code":"3550225","prefecture":"埼玉県","prefecture_kana":"サイタマケン","city":"比企郡嵐山町","city_kana":"ヒキグンランザンマチ","town":"鎌形","town_kana":"カマガタ","prefecture_code":11},"0213":{"zip_code":"3550213","prefecture":"埼玉県","prefecture_kana":"サイタマケン","city":"比企郡嵐山町","city_kana":"ヒキグンランザンマチ","town":"川島","town_kana":"カワシマ","prefecture_code":11},"0214":{"zip_code":"3550214","prefecture":"埼玉県","prefecture_kana":"サイタマケン","city":"比企郡嵐山町","city_kana":"ヒキグンランザンマチ","town":"志賀","town_kana":"シガ","prefecture_code":11},"0224":{"zip_code":"3550224","prefecture":"埼玉県","prefecture_kana":"サイタマケン","city":"比企郡嵐山町","city_kana":"ヒキグンランザンマチ","town":"将軍沢","town_kana":"ショウグンサワ","prefecture_code":11},"0221":{"zip_code":"3550221","prefecture":"埼玉県","prefecture_kana":"サイタマケン","city":"比企郡嵐山町","city_kana":"ヒキグンランザンマチ","town":"菅谷","town_kana":"スガヤ","prefecture_code":11},"0211":{"zip_code":"3550211","prefecture":"埼玉県","prefecture_kana":"サイタマケン","city":"比企郡嵐山町","city_kana":"ヒキグンランザンマチ","town":"杉山","town_kana":"スギヤマ","prefecture_code":11},"0227":{"zip_code":"3550227","prefecture":"埼玉県","prefecture_kana":"サイタマケン","city":"比企郡嵐山町","city_kana":"ヒキグンランザンマチ","town":"千手堂","town_kana":"センジュドウ","prefecture_code":11},"0212":{"zip_code":"3550212","prefecture":"埼玉県","prefecture_kana":"サイタマケン","city":"比企郡嵐山町","city_kana":"ヒキグンランザンマチ","town":"太郎丸","town_kana":"タロウマル","prefecture_code":11},"0226":{"zip_code":"3550226","prefecture":"埼玉県","prefecture_kana":"サイタマケン","city":"比企郡嵐山町","city_kana":"ヒキグンランザンマチ","town":"遠山","town_kana":"トオヤマ","prefecture_code":11},"0223":{"zip_code":"3550223","prefecture":"埼玉県","prefecture_kana":"サイタマケン","city":"比企郡嵐山町","city_kana":"ヒキグンランザンマチ","town":"根岸","town_kana":"ネギシ","prefecture_code":11},"0204":{"zip_code":"3550204","prefecture":"埼玉県","prefecture_kana":"サイタマケン","city":"比企郡嵐山町","city_kana":"ヒキグンランザンマチ","town":"花見台","town_kana":"ハナミダイ","prefecture_code":11},"0215":{"zip_code":"3550215","prefecture":"埼玉県","prefecture_kana":"サイタマケン","city":"比企郡嵐山町","city_kana":"ヒキグンランザンマチ","town":"平沢","town_kana":"ヒラサワ","prefecture_code":11},"0205":{"zip_code":"3550205","prefecture":"埼玉県","prefecture_kana":"サイタマケン","city":"比企郡嵐山町","city_kana":"ヒキグンランザンマチ","town":"広野","town_kana":"ヒロノ","prefecture_code":11},"0201":{"zip_code":"3550201","prefecture":"埼玉県","prefecture_kana":"サイタマケン","city":"比企郡嵐山町","city_kana":"ヒキグンランザンマチ","town":"古里","town_kana":"フルサト","prefecture_code":11},"0216":{"zip_code":"3550216","prefecture":"埼玉県","prefecture_kana":"サイタマケン","city":"比企郡嵐山町","city_kana":"ヒキグンランザンマチ","town":"むさし台","town_kana":"ムサシダイ","prefecture_code":11},"0202":{"zip_code":"3550202","prefecture":"埼玉県","prefecture_kana":"サイタマケン","city":"比企郡嵐山町","city_kana":"ヒキグンランザンマチ","town":"吉田","town_kana":"ヨシダ","prefecture_code":11},"0300":[{"zip_code":"3550300","prefecture":"埼玉県","prefecture_kana":"サイタマケン","city":"比企郡小川町","city_kana":"ヒキグンオガワマチ","town":"","town_kana":"","prefecture_code":11},{"zip_code":"3550300","prefecture":"埼玉県","prefecture_kana":"サイタマケン","city":"比企郡ときがわ町","city_kana":"ヒキグントキガワマチ","town":"","town_kana":"","prefecture_code":11},{"zip_code":"3550300","prefecture":"埼玉県","prefecture_kana":"サイタマケン","city":"秩父郡東秩父村","city_kana":"チチブグンヒガシチチブムラ","town":"","town_kana":"","prefecture_code":11}],"0324":{"zip_code":"3550324","prefecture":"埼玉県","prefecture_kana":"サイタマケン","city":"比企郡小川町","city_kana":"ヒキグンオガワマチ","town":"青山","town_kana":"アオヤマ","prefecture_code":11},"0333":{"zip_code":"3550333","prefecture":"埼玉県","prefecture_kana":"サイタマケン","city":"比企郡小川町","city_kana":"ヒキグンオガワマチ","town":"飯田","town_kana":"イイダ","prefecture_code":11},"0304":{"zip_code":"3550304","prefecture":"埼玉県","prefecture_kana":"サイタマケン","city":"比企郡小川町","city_kana":"ヒキグンオガワマチ","town":"伊勢根","town_kana":"イセネ","prefecture_code":11},"0328":{"zip_code":"3550328","prefecture":"埼玉県","prefecture_kana":"サイタマケン","city":"比企郡小川町","city_kana":"ヒキグンオガワマチ","town":"大塚","town_kana":"オオツカ","prefecture_code":11},"0321":{"zip_code":"3550321","prefecture":"埼玉県","prefecture_kana":"サイタマケン","city":"比企郡小川町","city_kana":"ヒキグンオガワマチ","town":"小川","town_kana":"オガワ","prefecture_code":11},"0316":{"zip_code":"3550316","prefecture":"埼玉県","prefecture_kana":"サイタマケン","city":"比企郡小川町","city_kana":"ヒキグンオガワマチ","town":"角山","town_kana":"カクヤマ","prefecture_code":11},"0334":{"zip_code":"3550334","prefecture":"埼玉県","prefecture_kana":"サイタマケン","city":"比企郡小川町","city_kana":"ヒキグンオガワマチ","town":"笠原","town_kana":"カサハラ","prefecture_code":11},"0325":{"zip_code":"3550325","prefecture":"埼玉県","prefecture_kana":"サイタマケン","city":"比企郡小川町","city_kana":"ヒキグンオガワマチ","town":"上古寺","town_kana":"カミフルテラ","prefecture_code":11},"0312":{"zip_code":"3550312","prefecture":"埼玉県","prefecture_kana":"サイタマケン","city":"比企郡小川町","city_kana":"ヒキグンオガワマチ","town":"上横田","town_kana":"カミヨコタ","prefecture_code":11},"0335":{"zip_code":"3550335","prefecture":"埼玉県","prefecture_kana":"サイタマケン","city":"比企郡小川町","city_kana":"ヒキグンオガワマチ","town":"木部","town_kana":"キベ","prefecture_code":11},"0337":{"zip_code":"3550337","prefecture":"埼玉県","prefecture_kana":"サイタマケン","city":"比企郡小川町","city_kana":"ヒキグンオガワマチ","town":"木呂子","town_kana":"キロコ","prefecture_code":11},"0311":{"zip_code":"3550311","prefecture":"埼玉県","prefecture_kana":"サイタマケン","city":"比企郡小川町","city_kana":"ヒキグンオガワマチ","town":"高谷","town_kana":"コウヤ","prefecture_code":11},"0327":{"zip_code":"3550327","prefecture":"埼玉県","prefecture_kana":"サイタマケン","city":"比企郡小川町","city_kana":"ヒキグンオガワマチ","town":"腰越","town_kana":"コシゴエ","prefecture_code":11},"0323":{"zip_code":"3550323","prefecture":"埼玉県","prefecture_kana":"サイタマケン","city":"比企郡小川町","city_kana":"ヒキグンオガワマチ","town":"下里","town_kana":"シモザト","prefecture_code":11},"0326":{"zip_code":"3550326","prefecture":"埼玉県","prefecture_kana":"サイタマケン","city":"比企郡小川町","city_kana":"ヒキグンオガワマチ","town":"下古寺","town_kana":"シモフルテラ","prefecture_code":11},"0313":{"zip_code":"3550313","prefecture":"埼玉県","prefecture_kana":"サイタマケン","city":"比企郡小川町","city_kana":"ヒキグンオガワマチ","town":"下横田","town_kana":"シモヨコタ","prefecture_code":11},"0336":{"zip_code":"3550336","prefecture":"埼玉県","prefecture_kana":"サイタマケン","city":"比企郡小川町","city_kana":"ヒキグンオガワマチ","town":"勝呂","town_kana":"スグロ","prefecture_code":11},"0302":{"zip_code":"3550302","prefecture":"埼玉県","prefecture_kana":"サイタマケン","city":"比企郡小川町","city_kana":"ヒキグンオガワマチ","town":"鷹巣","town_kana":"タカノス","prefecture_code":11},"0306":{"zip_code":"3550306","prefecture":"埼玉県","prefecture_kana":"サイタマケン","city":"比企郡小川町","city_kana":"ヒキグンオガワマチ","town":"高見","town_kana":"タカミ","prefecture_code":11},"0314":{"zip_code":"3550314","prefecture":"埼玉県","prefecture_kana":"サイタマケン","city":"比企郡小川町","city_kana":"ヒキグンオガワマチ","town":"中爪","town_kana":"ナカツメ","prefecture_code":11},"0303":{"zip_code":"3550303","prefecture":"埼玉県","prefecture_kana":"サイタマケン","city":"比企郡小川町","city_kana":"ヒキグンオガワマチ","town":"奈良梨","town_kana":"ナラナシ","prefecture_code":11},"0301":{"zip_code":"3550301","prefecture":"埼玉県","prefecture_kana":"サイタマケン","city":"比企郡小川町","city_kana":"ヒキグンオガワマチ","town":"西古里","town_kana":"ニシフルサト","prefecture_code":11},"0305":{"zip_code":"3550305","prefecture":"埼玉県","prefecture_kana":"サイタマケン","city":"比企郡小川町","city_kana":"ヒキグンオガワマチ","town":"能増","town_kana":"ノウマス","prefecture_code":11},"0317":{"zip_code":"3550317","prefecture":"埼玉県","prefecture_kana":"サイタマケン","city":"比企郡小川町","city_kana":"ヒキグンオガワマチ","town":"原川","town_kana":"ハラガワ","prefecture_code":11},"0322":{"zip_code":"3550322","prefecture":"埼玉県","prefecture_kana":"サイタマケン","city":"比企郡小川町","city_kana":"ヒキグンオガワマチ","town":"東小川","town_kana":"ヒガシオガワ","prefecture_code":11},"0318":{"zip_code":"3550318","prefecture":"埼玉県","prefecture_kana":"サイタマケン","city":"比企郡小川町","city_kana":"ヒキグンオガワマチ","town":"ひばり台","town_kana":"ヒバリダイ","prefecture_code":11},"0332":{"zip_code":"3550332","prefecture":"埼玉県","prefecture_kana":"サイタマケン","city":"比企郡小川町","city_kana":"ヒキグンオガワマチ","town":"増尾","town_kana":"マスオ","prefecture_code":11},"0315":{"zip_code":"3550315","prefecture":"埼玉県","prefecture_kana":"サイタマケン","city":"比企郡小川町","city_kana":"ヒキグンオガワマチ","town":"みどりが丘","town_kana":"ミドリガオカ","prefecture_code":11},"0331":{"zip_code":"3550331","prefecture":"埼玉県","prefecture_kana":"サイタマケン","city":"比企郡小川町","city_kana":"ヒキグンオガワマチ","town":"靱負","town_kana":"ユキエ","prefecture_code":11},"0100":{"zip_code":"3550100","prefecture":"埼玉県","prefecture_kana":"サイタマケン","city":"比企郡吉見町","city_kana":"ヒキグンヨシミマチ","town":"","town_kana":"","prefecture_code":11},"0131":{"zip_code":"3550131","prefecture":"埼玉県","prefecture_kana":"サイタマケン","city":"比企郡吉見町","city_kana":"ヒキグンヨシミマチ","town":"荒子","town_kana":"アラコ","prefecture_code":11},"0132":{"zip_code":"3550132","prefecture":"埼玉県","prefecture_kana":"サイタマケン","city":"比企郡吉見町","city_kana":"ヒキグンヨシミマチ","town":"飯島新田","town_kana":"イイジマシンデン","prefecture_code":11},"0103":{"zip_code":"3550103","prefecture":"埼玉県","prefecture_kana":"サイタマケン","city":"比企郡吉見町","city_kana":"ヒキグンヨシミマチ","town":"今泉","town_kana":"イマイズミ","prefecture_code":11},"0136":{"zip_code":"3550136","prefecture":"埼玉県","prefecture_kana":"サイタマケン","city":"比企郡吉見町","city_kana":"ヒキグンヨシミマチ","town":"江綱","town_kana":"エツナ","prefecture_code":11},"0133":{"zip_code":"3550133","prefecture":"埼玉県","prefecture_kana":"サイタマケン","city":"比企郡吉見町","city_kana":"ヒキグンヨシミマチ","town":"江和井","town_kana":"エワイ","prefecture_code":11},"0134":{"zip_code":"3550134","prefecture":"埼玉県","prefecture_kana":"サイタマケン","city":"比企郡吉見町","city_kana":"ヒキグンヨシミマチ","town":"大串","town_kana":"オオクシ","prefecture_code":11},"0127":{"zip_code":"3550127","prefecture":"埼玉県","prefecture_kana":"サイタマケン","city":"比企郡吉見町","city_kana":"ヒキグンヨシミマチ","town":"大和田","town_kana":"オオワダ","prefecture_code":11},"0125":{"zip_code":"3550125","prefecture":"埼玉県","prefecture_kana":"サイタマケン","city":"比企郡吉見町","city_kana":"ヒキグンヨシミマチ","town":"蚊斗谷","town_kana":"カバカリヤ","prefecture_code":11},"0115":{"zip_code":"3550115","prefecture":"埼玉県","prefecture_kana":"サイタマケン","city":"比企郡吉見町","city_kana":"ヒキグンヨシミマチ","town":"上銀谷","town_kana":"カミギンヤ","prefecture_code":11},"0105":{"zip_code":"3550105","prefecture":"埼玉県","prefecture_kana":"サイタマケン","city":"比企郡吉見町","city_kana":"ヒキグンヨシミマチ","town":"上砂","town_kana":"カミズナ","prefecture_code":11},"0165":{"zip_code":"3550165","prefecture":"埼玉県","prefecture_kana":"サイタマケン","city":"比企郡吉見町","city_kana":"ヒキグンヨシミマチ","town":"上細谷","town_kana":"カミホソヤ","prefecture_code":11},"0111":{"zip_code":"3550111","prefecture":"埼玉県","prefecture_kana":"サイタマケン","city":"比企郡吉見町","city_kana":"ヒキグンヨシミマチ","town":"北下砂","town_kana":"キタシモズナ","prefecture_code":11},"0155":{"zip_code":"3550155","prefecture":"埼玉県","prefecture_kana":"サイタマケン","city":"比企郡吉見町","city_kana":"ヒキグンヨシミマチ","town":"北吉見","town_kana":"キタヨシミ","prefecture_code":11},"0137":{"zip_code":"3550137","prefecture":"埼玉県","prefecture_kana":"サイタマケン","city":"比企郡吉見町","city_kana":"ヒキグンヨシミマチ","town":"久保田","town_kana":"クボタ","prefecture_code":11},"0124":{"zip_code":"3550124","prefecture":"埼玉県","prefecture_kana":"サイタマケン","city":"比企郡吉見町","city_kana":"ヒキグンヨシミマチ","town":"久保田新田","town_kana":"クボタシンデン","prefecture_code":11},"0153":{"zip_code":"3550153","prefecture":"埼玉県","prefecture_kana":"サイタマケン","city":"比企郡吉見町","city_kana":"ヒキグンヨシミマチ","town":"久米田","town_kana":"クメダ","prefecture_code":11},"0166":{"zip_code":"3550166","prefecture":"埼玉県","prefecture_kana":"サイタマケン","city":"比企郡吉見町","city_kana":"ヒキグンヨシミマチ","town":"黒岩","town_kana":"クロイワ","prefecture_code":11},"0164":{"zip_code":"3550164","prefecture":"埼玉県","prefecture_kana":"サイタマケン","city":"比企郡吉見町","city_kana":"ヒキグンヨシミマチ","town":"小新井","town_kana":"コアライ","prefecture_code":11},"0151":{"zip_code":"3550151","prefecture":"埼玉県","prefecture_kana":"サイタマケン","city":"比企郡吉見町","city_kana":"ヒキグンヨシミマチ","town":"御所","town_kana":"ゴショ","prefecture_code":11},"0114":{"zip_code":"3550114","prefecture":"埼玉県","prefecture_kana":"サイタマケン","city":"比企郡吉見町","city_kana":"ヒキグンヨシミマチ","town":"古名","town_kana":"コミョウ","prefecture_code":11},"0113":{"zip_code":"3550113","prefecture":"埼玉県","prefecture_kana":"サイタマケン","city":"比企郡吉見町","city_kana":"ヒキグンヨシミマチ","town":"古名新田","town_kana":"コミョウシンデン","prefecture_code":11},"0104":{"zip_code":"3550104","prefecture":"埼玉県","prefecture_kana":"サイタマケン","city":"比企郡吉見町","city_kana":"ヒキグンヨシミマチ","town":"地頭方","town_kana":"ジトウホウ","prefecture_code":11},"0116":{"zip_code":"3550116","prefecture":"埼玉県","prefecture_kana":"サイタマケン","city":"比企郡吉見町","city_kana":"ヒキグンヨシミマチ","town":"下銀谷","town_kana":"シモギンヤ","prefecture_code":11},"0118":{"zip_code":"3550118","prefecture":"埼玉県","prefecture_kana":"サイタマケン","city":"比企郡吉見町","city_kana":"ヒキグンヨシミマチ","town":"下細谷","town_kana":"シモホソヤ","prefecture_code":11},"0123":{"zip_code":"3550123","prefecture":"埼玉県","prefecture_kana":"サイタマケン","city":"比企郡吉見町","city_kana":"ヒキグンヨシミマチ","town":"須ノ子新田","town_kana":"スノコシンデン","prefecture_code":11},"0122":{"zip_code":"3550122","prefecture":"埼玉県","prefecture_kana":"サイタマケン","city":"比企郡吉見町","city_kana":"ヒキグンヨシミマチ","town":"高尾新田","town_kana":"タカオシンデン","prefecture_code":11},"0167":{"zip_code":"3550167","prefecture":"埼玉県","prefecture_kana":"サイタマケン","city":"比企郡吉見町","city_kana":"ヒキグンヨシミマチ","town":"田甲","town_kana":"タコウ","prefecture_code":11},"0119":{"zip_code":"3550119","prefecture":"埼玉県","prefecture_kana":"サイタマケン","city":"比企郡吉見町","city_kana":"ヒキグンヨシミマチ","town":"中新井","town_kana":"ナカアライ","prefecture_code":11},"0106":{"zip_code":"3550106","prefecture":"埼玉県","prefecture_kana":"サイタマケン","city":"比企郡吉見町","city_kana":"ヒキグンヨシミマチ","town":"中曽根","town_kana":"ナカゾネ","prefecture_code":11},"0156":{"zip_code":"3550156","prefecture":"埼玉県","prefecture_kana":"サイタマケン","city":"比企郡吉見町","city_kana":"ヒキグンヨシミマチ","town":"長谷","town_kana":"ナガヤツ","prefecture_code":11},"0157":{"zip_code":"3550157","prefecture":"埼玉県","prefecture_kana":"サイタマケン","city":"比企郡吉見町","city_kana":"ヒキグンヨシミマチ","town":"西吉見","town_kana":"ニシヨシミ","prefecture_code":11},"0121":{"zip_code":"3550121","prefecture":"埼玉県","prefecture_kana":"サイタマケン","city":"比企郡吉見町","city_kana":"ヒキグンヨシミマチ","town":"蓮沼新田","town_kana":"ハスヌマシンデン","prefecture_code":11},"0110":{"zip_code":"3550110","prefecture":"埼玉県","prefecture_kana":"サイタマケン","city":"比企郡吉見町","city_kana":"ヒキグンヨシミマチ","town":"東野","town_kana":"ヒガシノ","prefecture_code":11},"0101":{"zip_code":"3550101","prefecture":"埼玉県","prefecture_kana":"サイタマケン","city":"比企郡吉見町","city_kana":"ヒキグンヨシミマチ","town":"一ツ木","town_kana":"ヒトツギ","prefecture_code":11},"0163":{"zip_code":"3550163","prefecture":"埼玉県","prefecture_kana":"サイタマケン","city":"比企郡吉見町","city_kana":"ヒキグンヨシミマチ","town":"本沢","town_kana":"ホンザワ","prefecture_code":11},"0135":{"zip_code":"3550135","prefecture":"埼玉県","prefecture_kana":"サイタマケン","city":"比企郡吉見町","city_kana":"ヒキグンヨシミマチ","town":"前河内","town_kana":"マエゴウチ","prefecture_code":11},"0162":{"zip_code":"3550162","prefecture":"埼玉県","prefecture_kana":"サイタマケン","city":"比企郡吉見町","city_kana":"ヒキグンヨシミマチ","town":"松崎","town_kana":"マツザキ","prefecture_code":11},"0112":{"zip_code":"3550112","prefecture":"埼玉県","prefecture_kana":"サイタマケン","city":"比企郡吉見町","city_kana":"ヒキグンヨシミマチ","town":"丸貫","town_kana":"マルヌキ","prefecture_code":11},"0126":{"zip_code":"3550126","prefecture":"埼玉県","prefecture_kana":"サイタマケン","city":"比企郡吉見町","city_kana":"ヒキグンヨシミマチ","town":"万光寺","town_kana":"マンコウジ","prefecture_code":11},"0154":{"zip_code":"3550154","prefecture":"埼玉県","prefecture_kana":"サイタマケン","city":"比企郡吉見町","city_kana":"ヒキグンヨシミマチ","town":"南吉見","town_kana":"ミナミヨシミ","prefecture_code":11},"0102":{"zip_code":"3550102","prefecture":"埼玉県","prefecture_kana":"サイタマケン","city":"比企郡吉見町","city_kana":"ヒキグンヨシミマチ","town":"明秋","town_kana":"メイシュウ","prefecture_code":11},"0117":{"zip_code":"3550117","prefecture":"埼玉県","prefecture_kana":"サイタマケン","city":"比企郡吉見町","city_kana":"ヒキグンヨシミマチ","town":"谷口","town_kana":"ヤグチ","prefecture_code":11},"0161":{"zip_code":"3550161","prefecture":"埼玉県","prefecture_kana":"サイタマケン","city":"比企郡吉見町","city_kana":"ヒキグンヨシミマチ","town":"山ノ下","town_kana":"ヤマノシタ","prefecture_code":11},"0152":{"zip_code":"3550152","prefecture":"埼玉県","prefecture_kana":"サイタマケン","city":"比企郡吉見町","city_kana":"ヒキグンヨシミマチ","town":"和名","town_kana":"ワナ","prefecture_code":11},"0363":{"zip_code":"3550363","prefecture":"埼玉県","prefecture_kana":"サイタマケン","city":"比企郡ときがわ町","city_kana":"ヒキグントキガワマチ","town":"大附","town_kana":"オオツキ","prefecture_code":11},"0366":{"zip_code":"3550366","prefecture":"埼玉県","prefecture_kana":"サイタマケン","city":"比企郡ときがわ町","city_kana":"ヒキグントキガワマチ","town":"大野","town_kana":"オオノ","prefecture_code":11},"0365":{"zip_code":"3550365","prefecture":"埼玉県","prefecture_kana":"サイタマケン","city":"比企郡ときがわ町","city_kana":"ヒキグントキガワマチ","town":"椚平","town_kana":"クヌギダイラ","prefecture_code":11},"0351":{"zip_code":"3550351","prefecture":"埼玉県","prefecture_kana":"サイタマケン","city":"比企郡ときがわ町","city_kana":"ヒキグントキガワマチ","town":"雲河原","town_kana":"クモガワラ","prefecture_code":11},"0343":{"zip_code":"3550343","prefecture":"埼玉県","prefecture_kana":"サイタマケン","city":"比企郡ときがわ町","city_kana":"ヒキグントキガワマチ","town":"五明","town_kana":"ゴミョウ","prefecture_code":11},"0356":{"zip_code":"3550356","prefecture":"埼玉県","prefecture_kana":"サイタマケン","city":"比企郡ときがわ町","city_kana":"ヒキグントキガワマチ","town":"関堀","town_kana":"セキボリ","prefecture_code":11},"0358":{"zip_code":"3550358","prefecture":"埼玉県","prefecture_kana":"サイタマケン","city":"比企郡ときがわ町","city_kana":"ヒキグントキガワマチ","town":"瀬戸元上","town_kana":"セトモトカミ","prefecture_code":11},"0359":{"zip_code":"3550359","prefecture":"埼玉県","prefecture_kana":"サイタマケン","city":"比企郡ときがわ町","city_kana":"ヒキグントキガワマチ","town":"瀬戸元下","town_kana":"セトモトシモ","prefecture_code":11},"0341":{"zip_code":"3550341","prefecture":"埼玉県","prefecture_kana":"サイタマケン","city":"比企郡ときがわ町","city_kana":"ヒキグントキガワマチ","town":"田黒","town_kana":"タグロ","prefecture_code":11},"0357":{"zip_code":"3550357","prefecture":"埼玉県","prefecture_kana":"サイタマケン","city":"比企郡ときがわ町","city_kana":"ヒキグントキガワマチ","town":"田中","town_kana":"タナカ","prefecture_code":11},"0342":{"zip_code":"3550342","prefecture":"埼玉県","prefecture_kana":"サイタマケン","city":"比企郡ときがわ町","city_kana":"ヒキグントキガワマチ","town":"玉川","town_kana":"タマガワ","prefecture_code":11},"0364":{"zip_code":"3550364","prefecture":"埼玉県","prefecture_kana":"サイタマケン","city":"比企郡ときがわ町","city_kana":"ヒキグントキガワマチ","town":"西平","town_kana":"ニシダイラ","prefecture_code":11},"0354":{"zip_code":"3550354","prefecture":"埼玉県","prefecture_kana":"サイタマケン","city":"比企郡ときがわ町","city_kana":"ヒキグントキガワマチ","town":"番匠","town_kana":"バンジョウ","prefecture_code":11},"0355":{"zip_code":"3550355","prefecture":"埼玉県","prefecture_kana":"サイタマケン","city":"比企郡ときがわ町","city_kana":"ヒキグントキガワマチ","town":"馬場","town_kana":"バンバ","prefecture_code":11},"0344":{"zip_code":"3550344","prefecture":"埼玉県","prefecture_kana":"サイタマケン","city":"比企郡ときがわ町","city_kana":"ヒキグントキガワマチ","town":"日影","town_kana":"ヒカゲ","prefecture_code":11},"0352":{"zip_code":"3550352","prefecture":"埼玉県","prefecture_kana":"サイタマケン","city":"比企郡ときがわ町","city_kana":"ヒキグントキガワマチ","town":"別所","town_kana":"ベッショ","prefecture_code":11},"0353":{"zip_code":"3550353","prefecture":"埼玉県","prefecture_kana":"サイタマケン","city":"比企郡ときがわ町","city_kana":"ヒキグントキガワマチ","town":"本郷","town_kana":"ホンゴウ","prefecture_code":11},"0361":{"zip_code":"3550361","prefecture":"埼玉県","prefecture_kana":"サイタマケン","city":"比企郡ときがわ町","city_kana":"ヒキグントキガワマチ","town":"桃木","town_kana":"モモノキ","prefecture_code":11},"0371":{"zip_code":"3550371","prefecture":"埼玉県","prefecture_kana":"サイタマケン","city":"秩父郡東秩父村","city_kana":"チチブグンヒガシチチブムラ","town":"大内沢","town_kana":"オオウチザワ","prefecture_code":11},"0373":{"zip_code":"3550373","prefecture":"埼玉県","prefecture_kana":"サイタマケン","city":"秩父郡東秩父村","city_kana":"チチブグンヒガシチチブムラ","town":"奥沢","town_kana":"オクサワ","prefecture_code":11},"0376":{"zip_code":"3550376","prefecture":"埼玉県","prefecture_kana":"サイタマケン","city":"秩父郡東秩父村","city_kana":"チチブグンヒガシチチブムラ","town":"皆谷","town_kana":"カイヤ","prefecture_code":11},"0372":{"zip_code":"3550372","prefecture":"埼玉県","prefecture_kana":"サイタマケン","city":"秩父郡東秩父村","city_kana":"チチブグンヒガシチチブムラ","town":"坂本","town_kana":"サカモト","prefecture_code":11},"0377":{"zip_code":"3550377","prefecture":"埼玉県","prefecture_kana":"サイタマケン","city":"秩父郡東秩父村","city_kana":"チチブグンヒガシチチブムラ","town":"白石","town_kana":"シロイシ","prefecture_code":11},"0375":{"zip_code":"3550375","prefecture":"埼玉県","prefecture_kana":"サイタマケン","city":"秩父郡東秩父村","city_kana":"チチブグンヒガシチチブムラ","town":"御堂","town_kana":"ミドウ","prefecture_code":11},"0374":{"zip_code":"3550374","prefecture":"埼玉県","prefecture_kana":"サイタマケン","city":"秩父郡東秩父村","city_kana":"チチブグンヒガシチチブムラ","town":"安戸","town_kana":"ヤスド","prefecture_code":11}}