{"0000":{"zip_code":"3570000","prefecture":"埼玉県","prefecture_kana":"サイタマケン","city":"飯能市","city_kana":"ハンノウシ","town":"以下に掲載がない場合","town_kana":"イカニケイサイガナイバアイ","prefecture_code":11},"0003":{"zip_code":"3570003","prefecture":"埼玉県","prefecture_kana":"サイタマケン","city":"飯能市","city_kana":"ハンノウシ","town":"青木","town_kana":"アオキ","prefecture_code":11},"0128":{"zip_code":"3570128","prefecture":"埼玉県","prefecture_kana":"サイタマケン","city":"飯能市","city_kana":"ハンノウシ","town":"赤沢","town_kana":"アカザワ","prefecture_code":11},"0069":{"zip_code":"3570069","prefecture":"埼玉県","prefecture_kana":"サイタマケン","city":"飯能市","city_kana":"ハンノウシ","town":"茜台","town_kana":"アカネダイ","prefecture_code":11},"0216":{"zip_code":"3570216","prefecture":"埼玉県","prefecture_kana":"サイタマケン","city":"飯能市","city_kana":"ハンノウシ","town":"吾野","town_kana":"アガノ","prefecture_code":11},"0013":{"zip_code":"3570013","prefecture":"埼玉県","prefecture_kana":"サイタマケン","city":"飯能市","city_kana":"ハンノウシ","town":"芦苅場","town_kana":"アシカリバ","prefecture_code":11},"0046":{"zip_code":"3570046","prefecture":"埼玉県","prefecture_kana":"サイタマケン","city":"飯能市","city_kana":"ハンノウシ","town":"阿須","town_kana":"アズ","prefecture_code":11},"0034":{"zip_code":"3570034","prefecture":"埼玉県","prefecture_kana":"サイタマケン","city":"飯能市","city_kana":"ハンノウシ","town":"東町","town_kana":"アズマチョウ","prefecture_code":11},"0037":{"zip_code":"3570037","prefecture":"埼玉県","prefecture_kana":"サイタマケン","city":"飯能市","city_kana":"ハンノウシ","town":"稲荷町","town_kana":"イナリチョウ","prefecture_code":11},"0212":{"zip_code":"3570212","prefecture":"埼玉県","prefecture_kana":"サイタマケン","city":"飯能市","city_kana":"ハンノウシ","town":"井上","town_kana":"イノウエ","prefecture_code":11},"0023":{"zip_code":"3570023","prefecture":"埼玉県","prefecture_kana":"サイタマケン","city":"飯能市","city_kana":"ハンノウシ","town":"岩沢","town_kana":"イワサワ","prefecture_code":11},"0048":{"zip_code":"3570048","prefecture":"埼玉県","prefecture_kana":"サイタマケン","city":"飯能市","city_kana":"ハンノウシ","town":"岩渕","town_kana":"イワブチ","prefecture_code":11},"0065":{"zip_code":"3570065","prefecture":"埼玉県","prefecture_kana":"サイタマケン","city":"飯能市","city_kana":"ハンノウシ","town":"大河原","town_kana":"オオカワラ","prefecture_code":11},"0047":{"zip_code":"3570047","prefecture":"埼玉県","prefecture_kana":"サイタマケン","city":"飯能市","city_kana":"ハンノウシ","town":"落合","town_kana":"オチアイ","prefecture_code":11},"0045":{"zip_code":"3570045","prefecture":"埼玉県","prefecture_kana":"サイタマケン","city":"飯能市","city_kana":"ハンノウシ","town":"笠縫","town_kana":"カサヌイ","prefecture_code":11},"0125":{"zip_code":"3570125","prefecture":"埼玉県","prefecture_kana":"サイタマケン","city":"飯能市","city_kana":"ハンノウシ","town":"上赤工","town_kana":"カミアカダクミ","prefecture_code":11},"0056":{"zip_code":"3570056","prefecture":"埼玉県","prefecture_kana":"サイタマケン","city":"飯能市","city_kana":"ハンノウシ","town":"上直竹上分","town_kana":"カミナオタケカミブン","prefecture_code":11},"0055":{"zip_code":"3570055","prefecture":"埼玉県","prefecture_kana":"サイタマケン","city":"飯能市","city_kana":"ハンノウシ","town":"上直竹下分","town_kana":"カミナオタケシモブン","prefecture_code":11},"0206":{"zip_code":"3570206","prefecture":"埼玉県","prefecture_kana":"サイタマケン","city":"飯能市","city_kana":"ハンノウシ","town":"上長沢","town_kana":"カミナガサワ","prefecture_code":11},"0111":{"zip_code":"3570111","prefecture":"埼玉県","prefecture_kana":"サイタマケン","city":"飯能市","city_kana":"ハンノウシ","town":"上名栗","town_kana":"カミナグリ","prefecture_code":11},"0053":{"zip_code":"3570053","prefecture":"埼玉県","prefecture_kana":"サイタマケン","city":"飯能市","city_kana":"ハンノウシ","town":"上畑","town_kana":"カミハタ","prefecture_code":11},"0127":{"zip_code":"3570127","prefecture":"埼玉県","prefecture_kana":"サイタマケン","city":"飯能市","city_kana":"ハンノウシ","town":"唐竹","town_kana":"カラタケ","prefecture_code":11},"0051":{"zip_code":"3570051","prefecture":"埼玉県","prefecture_kana":"サイタマケン","city":"飯能市","city_kana":"ハンノウシ","town":"苅生","town_kana":"カロウ","prefecture_code":11},"0011":{"zip_code":"3570011","prefecture":"埼玉県","prefecture_kana":"サイタマケン","city":"飯能市","city_kana":"ハンノウシ","town":"川崎","town_kana":"カワサキ","prefecture_code":11},"0044":{"zip_code":"3570044","prefecture":"埼玉県","prefecture_kana":"サイタマケン","city":"飯能市","city_kana":"ハンノウシ","town":"川寺","town_kana":"カワデラ","prefecture_code":11},"0201":{"zip_code":"3570201","prefecture":"埼玉県","prefecture_kana":"サイタマケン","city":"飯能市","city_kana":"ハンノウシ","town":"北川","town_kana":"キタガワ","prefecture_code":11},"0064":{"zip_code":"3570064","prefecture":"埼玉県","prefecture_kana":"サイタマケン","city":"飯能市","city_kana":"ハンノウシ","town":"久下","town_kana":"クゲ","prefecture_code":11},"0068":{"zip_code":"3570068","prefecture":"埼玉県","prefecture_kana":"サイタマケン","city":"飯能市","city_kana":"ハンノウシ","town":"久須美","town_kana":"クスミ","prefecture_code":11},"0066":{"zip_code":"3570066","prefecture":"埼玉県","prefecture_kana":"サイタマケン","city":"飯能市","city_kana":"ハンノウシ","town":"小岩井","town_kana":"コイワイ","prefecture_code":11},"0015":{"zip_code":"3570015","prefecture":"埼玉県","prefecture_kana":"サイタマケン","city":"飯能市","city_kana":"ハンノウシ","town":"小久保","town_kana":"コクボ","prefecture_code":11},"0204":{"zip_code":"3570204","prefecture":"埼玉県","prefecture_kana":"サイタマケン","city":"飯能市","city_kana":"ハンノウシ","town":"虎秀","town_kana":"コシュウ","prefecture_code":11},"0067":{"zip_code":"3570067","prefecture":"埼玉県","prefecture_kana":"サイタマケン","city":"飯能市","city_kana":"ハンノウシ","town":"小瀬戸","town_kana":"コセド","prefecture_code":11},"0215":{"zip_code":"3570215","prefecture":"埼玉県","prefecture_kana":"サイタマケン","city":"飯能市","city_kana":"ハンノウシ","town":"坂石","town_kana":"サカイシ","prefecture_code":11},"0213":{"zip_code":"3570213","prefecture":"埼玉県","prefecture_kana":"サイタマケン","city":"飯能市","city_kana":"ハンノウシ","town":"坂石町分","town_kana":"サカイシマチブン","prefecture_code":11},"0025":{"zip_code":"3570025","prefecture":"埼玉県","prefecture_kana":"サイタマケン","city":"飯能市","city_kana":"ハンノウシ","town":"栄町","town_kana":"サカエチョウ","prefecture_code":11},"0218":{"zip_code":"3570218","prefecture":"埼玉県","prefecture_kana":"サイタマケン","city":"飯能市","city_kana":"ハンノウシ","town":"坂元","town_kana":"サカモト","prefecture_code":11},"0126":{"zip_code":"3570126","prefecture":"埼玉県","prefecture_kana":"サイタマケン","city":"飯能市","city_kana":"ハンノウシ","town":"下赤工","town_kana":"シモアカダクミ","prefecture_code":11},"0016":{"zip_code":"3570016","prefecture":"埼玉県","prefecture_kana":"サイタマケン","city":"飯能市","city_kana":"ハンノウシ","town":"下加治","town_kana":"シモカジ","prefecture_code":11},"0012":{"zip_code":"3570012","prefecture":"埼玉県","prefecture_kana":"サイタマケン","city":"飯能市","city_kana":"ハンノウシ","town":"下川崎","town_kana":"シモカワサキ","prefecture_code":11},"0054":{"zip_code":"3570054","prefecture":"埼玉県","prefecture_kana":"サイタマケン","city":"飯能市","city_kana":"ハンノウシ","town":"下直竹","town_kana":"シモナオタケ","prefecture_code":11},"0112":{"zip_code":"3570112","prefecture":"埼玉県","prefecture_kana":"サイタマケン","city":"飯能市","city_kana":"ハンノウシ","town":"下名栗","town_kana":"シモナグリ","prefecture_code":11},"0052":{"zip_code":"3570052","prefecture":"埼玉県","prefecture_kana":"サイタマケン","city":"飯能市","city_kana":"ハンノウシ","town":"下畑","town_kana":"シモハタ","prefecture_code":11},"0205":{"zip_code":"3570205","prefecture":"埼玉県","prefecture_kana":"サイタマケン","city":"飯能市","city_kana":"ハンノウシ","town":"白子","town_kana":"シラコ","prefecture_code":11},"0022":{"zip_code":"3570022","prefecture":"埼玉県","prefecture_kana":"サイタマケン","city":"飯能市","city_kana":"ハンノウシ","town":"新光","town_kana":"シンコウ","prefecture_code":11},"0004":{"zip_code":"3570004","prefecture":"埼玉県","prefecture_kana":"サイタマケン","city":"飯能市","city_kana":"ハンノウシ","town":"新町","town_kana":"シンマチ","prefecture_code":11},"0049":{"zip_code":"3570049","prefecture":"埼玉県","prefecture_kana":"サイタマケン","city":"飯能市","city_kana":"ハンノウシ","town":"征矢町","town_kana":"ソヤチョウ","prefecture_code":11},"0202":{"zip_code":"3570202","prefecture":"埼玉県","prefecture_kana":"サイタマケン","city":"飯能市","city_kana":"ハンノウシ","town":"高山","town_kana":"タカヤマ","prefecture_code":11},"0002":{"zip_code":"3570002","prefecture":"埼玉県","prefecture_kana":"サイタマケン","city":"飯能市","city_kana":"ハンノウシ","town":"中居","town_kana":"ナカイ","prefecture_code":11},"0038":{"zip_code":"3570038","prefecture":"埼玉県","prefecture_kana":"サイタマケン","city":"飯能市","city_kana":"ハンノウシ","town":"仲町","town_kana":"ナカチョウ","prefecture_code":11},"0121":{"zip_code":"3570121","prefecture":"埼玉県","prefecture_kana":"サイタマケン","city":"飯能市","city_kana":"ハンノウシ","town":"中藤上郷","town_kana":"ナカトウカミゴウ","prefecture_code":11},"0122":{"zip_code":"3570122","prefecture":"埼玉県","prefecture_kana":"サイタマケン","city":"飯能市","city_kana":"ハンノウシ","town":"中藤中郷","town_kana":"ナカトウナカゴウ","prefecture_code":11},"0123":{"zip_code":"3570123","prefecture":"埼玉県","prefecture_kana":"サイタマケン","city":"飯能市","city_kana":"ハンノウシ","town":"中藤下郷","town_kana":"ナカトウシモゴウ","prefecture_code":11},"0006":{"zip_code":"3570006","prefecture":"埼玉県","prefecture_kana":"サイタマケン","city":"飯能市","city_kana":"ハンノウシ","town":"中山","town_kana":"ナカヤマ","prefecture_code":11},"0203":{"zip_code":"3570203","prefecture":"埼玉県","prefecture_kana":"サイタマケン","city":"飯能市","city_kana":"ハンノウシ","town":"長沢","town_kana":"ナガサワ","prefecture_code":11},"0062":{"zip_code":"3570062","prefecture":"埼玉県","prefecture_kana":"サイタマケン","city":"飯能市","city_kana":"ハンノウシ","town":"永田","town_kana":"ナガタ","prefecture_code":11},"0061":{"zip_code":"3570061","prefecture":"埼玉県","prefecture_kana":"サイタマケン","city":"飯能市","city_kana":"ハンノウシ","town":"永田台","town_kana":"ナガタダイ","prefecture_code":11},"0021":{"zip_code":"3570021","prefecture":"埼玉県","prefecture_kana":"サイタマケン","city":"飯能市","city_kana":"ハンノウシ","town":"双柳","town_kana":"ナミヤナギ","prefecture_code":11},"0033":{"zip_code":"3570033","prefecture":"埼玉県","prefecture_kana":"サイタマケン","city":"飯能市","city_kana":"ハンノウシ","town":"八幡町","town_kana":"ハチマンチョウ","prefecture_code":11},"0124":{"zip_code":"3570124","prefecture":"埼玉県","prefecture_kana":"サイタマケン","city":"飯能市","city_kana":"ハンノウシ","town":"原市場","town_kana":"ハライチバ","prefecture_code":11},"0005":{"zip_code":"3570005","prefecture":"埼玉県","prefecture_kana":"サイタマケン","city":"飯能市","city_kana":"ハンノウシ","town":"原町","town_kana":"ハラマチ","prefecture_code":11},"0063":{"zip_code":"3570063","prefecture":"埼玉県","prefecture_kana":"サイタマケン","city":"飯能市","city_kana":"ハンノウシ","town":"飯能","town_kana":"ハンノウ","prefecture_code":11},"0211":{"zip_code":"3570211","prefecture":"埼玉県","prefecture_kana":"サイタマケン","city":"飯能市","city_kana":"ハンノウシ","town":"平戸","town_kana":"ヒラット","prefecture_code":11},"0014":{"zip_code":"3570014","prefecture":"埼玉県","prefecture_kana":"サイタマケン","city":"飯能市","city_kana":"ハンノウシ","town":"平松","town_kana":"ヒラマツ","prefecture_code":11},"0032":{"zip_code":"3570032","prefecture":"埼玉県","prefecture_kana":"サイタマケン","city":"飯能市","city_kana":"ハンノウシ","town":"本町","town_kana":"ホンチョウ","prefecture_code":11},"0043":{"zip_code":"3570043","prefecture":"埼玉県","prefecture_kana":"サイタマケン","city":"飯能市","city_kana":"ハンノウシ","town":"前ケ貫","town_kana":"マエガヌキ","prefecture_code":11},"0041":{"zip_code":"3570041","prefecture":"埼玉県","prefecture_kana":"サイタマケン","city":"飯能市","city_kana":"ハンノウシ","town":"美杉台","town_kana":"ミスギダイ","prefecture_code":11},"0024":{"zip_code":"3570024","prefecture":"埼玉県","prefecture_kana":"サイタマケン","city":"飯能市","city_kana":"ハンノウシ","town":"緑町","town_kana":"ミドリチョウ","prefecture_code":11},"0214":{"zip_code":"3570214","prefecture":"埼玉県","prefecture_kana":"サイタマケン","city":"飯能市","city_kana":"ハンノウシ","town":"南","town_kana":"ミナミ","prefecture_code":11},"0217":{"zip_code":"3570217","prefecture":"埼玉県","prefecture_kana":"サイタマケン","city":"飯能市","city_kana":"ハンノウシ","town":"南川","town_kana":"ミナミカワ","prefecture_code":11},"0036":{"zip_code":"3570036","prefecture":"埼玉県","prefecture_kana":"サイタマケン","city":"飯能市","city_kana":"ハンノウシ","town":"南町","town_kana":"ミナミチョウ","prefecture_code":11},"0001":{"zip_code":"3570001","prefecture":"埼玉県","prefecture_kana":"サイタマケン","city":"飯能市","city_kana":"ハンノウシ","town":"宮沢","town_kana":"ミヤザワ","prefecture_code":11},"0042":{"zip_code":"3570042","prefecture":"埼玉県","prefecture_kana":"サイタマケン","city":"飯能市","city_kana":"ハンノウシ","town":"矢颪","town_kana":"ヤオロシ","prefecture_code":11},"0035":{"zip_code":"3570035","prefecture":"埼玉県","prefecture_kana":"サイタマケン","city":"飯能市","city_kana":"ハンノウシ","town":"柳町","town_kana":"ヤナギチョウ","prefecture_code":11},"0031":{"zip_code":"3570031","prefecture":"埼玉県","prefecture_kana":"サイタマケン","city":"飯能市","city_kana":"ハンノウシ","town":"山手町","town_kana":"ヤマテチョウ","prefecture_code":11}}