{"0000":{"zip_code":"3580000","prefecture":"埼玉県","prefecture_kana":"サイタマケン","city":"入間市","city_kana":"イルマシ","town":"","town_kana":"","prefecture_code":11},"0002":{"zip_code":"3580002","prefecture":"埼玉県","prefecture_kana":"サイタマケン","city":"入間市","city_kana":"イルマシ","town":"東町","town_kana":"アズマチョウ","prefecture_code":11},"0031":{"zip_code":"3580031","prefecture":"埼玉県","prefecture_kana":"サイタマケン","city":"入間市","city_kana":"イルマシ","town":"新久","town_kana":"アラク","prefecture_code":11},"0027":{"zip_code":"3580027","prefecture":"埼玉県","prefecture_kana":"サイタマケン","city":"入間市","city_kana":"イルマシ","town":"上小谷田","town_kana":"ウエゴヤタ","prefecture_code":11},"0051":{"zip_code":"3580051","prefecture":"埼玉県","prefecture_kana":"サイタマケン","city":"入間市","city_kana":"イルマシ","town":"牛沢町","town_kana":"ウシザワチョウ","prefecture_code":11},"0023":{"zip_code":"3580023","prefecture":"埼玉県","prefecture_kana":"サイタマケン","city":"入間市","city_kana":"イルマシ","town":"扇台","town_kana":"オウギダイ","prefecture_code":11},"0022":{"zip_code":"3580022","prefecture":"埼玉県","prefecture_kana":"サイタマケン","city":"入間市","city_kana":"イルマシ","town":"扇町屋","town_kana":"オウギマチヤ","prefecture_code":11},"0004":{"zip_code":"3580004","prefecture":"埼玉県","prefecture_kana":"サイタマケン","city":"入間市","city_kana":"イルマシ","town":"鍵山","town_kana":"カギヤマ","prefecture_code":11},"0006":{"zip_code":"3580006","prefecture":"埼玉県","prefecture_kana":"サイタマケン","city":"入間市","city_kana":"イルマシ","town":"春日町","town_kana":"カスガチョウ","prefecture_code":11},"0048":{"zip_code":"3580048","prefecture":"埼玉県","prefecture_kana":"サイタマケン","city":"入間市","city_kana":"イルマシ","town":"金子中央","town_kana":"カネコチュウオウ","prefecture_code":11},"0013":{"zip_code":"3580013","prefecture":"埼玉県","prefecture_kana":"サイタマケン","city":"入間市","city_kana":"イルマシ","town":"上藤沢","town_kana":"カミフジサワ","prefecture_code":11},"0042":{"zip_code":"3580042","prefecture":"埼玉県","prefecture_kana":"サイタマケン","city":"入間市","city_kana":"イルマシ","town":"上谷ケ貫","town_kana":"カミヤガヌキ","prefecture_code":11},"0008":{"zip_code":"3580008","prefecture":"埼玉県","prefecture_kana":"サイタマケン","city":"入間市","city_kana":"イルマシ","town":"河原町","town_kana":"カワラマチ","prefecture_code":11},"0024":{"zip_code":"3580024","prefecture":"埼玉県","prefecture_kana":"サイタマケン","city":"入間市","city_kana":"イルマシ","town":"久保稲荷","town_kana":"クボイナリ","prefecture_code":11},"0007":{"zip_code":"3580007","prefecture":"埼玉県","prefecture_kana":"サイタマケン","city":"入間市","city_kana":"イルマシ","town":"黒須","town_kana":"クロス","prefecture_code":11},"0001":{"zip_code":"3580001","prefecture":"埼玉県","prefecture_kana":"サイタマケン","city":"入間市","city_kana":"イルマシ","town":"向陽台","town_kana":"コウヨウダイ","prefecture_code":11},"0017":{"zip_code":"3580017","prefecture":"埼玉県","prefecture_kana":"サイタマケン","city":"入間市","city_kana":"イルマシ","town":"駒形富士山","town_kana":"コマガタフジヤマ","prefecture_code":11},"0026":{"zip_code":"3580026","prefecture":"埼玉県","prefecture_kana":"サイタマケン","city":"入間市","city_kana":"イルマシ","town":"小谷田","town_kana":"コヤタ","prefecture_code":11},"0032":{"zip_code":"3580032","prefecture":"埼玉県","prefecture_kana":"サイタマケン","city":"入間市","city_kana":"イルマシ","town":"狭山ケ原","town_kana":"サヤマガハラ","prefecture_code":11},"0033":{"zip_code":"3580033","prefecture":"埼玉県","prefecture_kana":"サイタマケン","city":"入間市","city_kana":"イルマシ","town":"狭山台","town_kana":"サヤマダイ","prefecture_code":11},"0011":{"zip_code":"3580011","prefecture":"埼玉県","prefecture_kana":"サイタマケン","city":"入間市","city_kana":"イルマシ","town":"下藤沢","town_kana":"シモフジサワ","prefecture_code":11},"0041":{"zip_code":"3580041","prefecture":"埼玉県","prefecture_kana":"サイタマケン","city":"入間市","city_kana":"イルマシ","town":"下谷ケ貫","town_kana":"シモヤガヌキ","prefecture_code":11},"0055":{"zip_code":"3580055","prefecture":"埼玉県","prefecture_kana":"サイタマケン","city":"入間市","city_kana":"イルマシ","town":"新光","town_kana":"シンコウ","prefecture_code":11},"0025":{"zip_code":"3580025","prefecture":"埼玉県","prefecture_kana":"サイタマケン","city":"入間市","city_kana":"イルマシ","town":"善蔵新田","town_kana":"ゼンゾウシンデン","prefecture_code":11},"0021":{"zip_code":"3580021","prefecture":"埼玉県","prefecture_kana":"サイタマケン","city":"入間市","city_kana":"イルマシ","town":"高倉","town_kana":"タカクラ","prefecture_code":11},"0016":{"zip_code":"3580016","prefecture":"埼玉県","prefecture_kana":"サイタマケン","city":"入間市","city_kana":"イルマシ","town":"高根","town_kana":"タカネ","prefecture_code":11},"0045":{"zip_code":"3580045","prefecture":"埼玉県","prefecture_kana":"サイタマケン","city":"入間市","city_kana":"イルマシ","town":"寺竹","town_kana":"テラダケ","prefecture_code":11},"0003":{"zip_code":"3580003","prefecture":"埼玉県","prefecture_kana":"サイタマケン","city":"入間市","city_kana":"イルマシ","town":"豊岡","town_kana":"トヨオカ","prefecture_code":11},"0035":{"zip_code":"3580035","prefecture":"埼玉県","prefecture_kana":"サイタマケン","city":"入間市","city_kana":"イルマシ","town":"中神","town_kana":"ナカガミ","prefecture_code":11},"0043":{"zip_code":"3580043","prefecture":"埼玉県","prefecture_kana":"サイタマケン","city":"入間市","city_kana":"イルマシ","town":"西三ツ木","town_kana":"ニシミツギ","prefecture_code":11},"0015":{"zip_code":"3580015","prefecture":"埼玉県","prefecture_kana":"サイタマケン","city":"入間市","city_kana":"イルマシ","town":"二本木","town_kana":"ニホンギ","prefecture_code":11},"0034":{"zip_code":"3580034","prefecture":"埼玉県","prefecture_kana":"サイタマケン","city":"入間市","city_kana":"イルマシ","town":"根岸","town_kana":"ネギシ","prefecture_code":11},"0054":{"zip_code":"3580054","prefecture":"埼玉県","prefecture_kana":"サイタマケン","city":"入間市","city_kana":"イルマシ","town":"野田","town_kana":"ノダ","prefecture_code":11},"0036":{"zip_code":"3580036","prefecture":"埼玉県","prefecture_kana":"サイタマケン","city":"入間市","city_kana":"イルマシ","town":"花ノ木","town_kana":"ハナノキ","prefecture_code":11},"0012":{"zip_code":"3580012","prefecture":"埼玉県","prefecture_kana":"サイタマケン","city":"入間市","city_kana":"イルマシ","town":"東藤沢","town_kana":"ヒガシフジサワ","prefecture_code":11},"0053":{"zip_code":"3580053","prefecture":"埼玉県","prefecture_kana":"サイタマケン","city":"入間市","city_kana":"イルマシ","town":"仏子","town_kana":"ブシ","prefecture_code":11},"0044":{"zip_code":"3580044","prefecture":"埼玉県","prefecture_kana":"サイタマケン","city":"入間市","city_kana":"イルマシ","town":"三ツ木台","town_kana":"ミツギダイ","prefecture_code":11},"0046":{"zip_code":"3580046","prefecture":"埼玉県","prefecture_kana":"サイタマケン","city":"入間市","city_kana":"イルマシ","town":"南峯","town_kana":"ミナミミネ","prefecture_code":11},"0014":{"zip_code":"3580014","prefecture":"埼玉県","prefecture_kana":"サイタマケン","city":"入間市","city_kana":"イルマシ","town":"宮寺","town_kana":"ミヤデラ","prefecture_code":11},"0005":{"zip_code":"3580005","prefecture":"埼玉県","prefecture_kana":"サイタマケン","city":"入間市","city_kana":"イルマシ","town":"宮前町","town_kana":"ミヤマエチョウ","prefecture_code":11},"0047":{"zip_code":"3580047","prefecture":"埼玉県","prefecture_kana":"サイタマケン","city":"入間市","city_kana":"イルマシ","town":"木蓮寺","town_kana":"モクレンジ","prefecture_code":11},"0052":{"zip_code":"3580052","prefecture":"埼玉県","prefecture_kana":"サイタマケン","city":"入間市","city_kana":"イルマシ","town":"森坂","town_kana":"モリサカ","prefecture_code":11}}