{"0000":{"zip_code":"3600000","prefecture":"埼玉県","prefecture_kana":"サイタマケン","city":"熊谷市","city_kana":"クマガヤシ","town":"","town_kana":"","prefecture_code":11},"0826":{"zip_code":"3600826","prefecture":"埼玉県","prefecture_kana":"サイタマケン","city":"熊谷市","city_kana":"クマガヤシ","town":"赤城町","town_kana":"アカギチョウ","prefecture_code":11},"0033":{"zip_code":"3600033","prefecture":"埼玉県","prefecture_kana":"サイタマケン","city":"熊谷市","city_kana":"クマガヤシ","town":"曙町","town_kana":"アケボノチョウ","prefecture_code":11},"0231":{"zip_code":"3600231","prefecture":"埼玉県","prefecture_kana":"サイタマケン","city":"熊谷市","city_kana":"クマガヤシ","town":"飯塚","town_kana":"イイヅカ","prefecture_code":11},"0011":{"zip_code":"3600011","prefecture":"埼玉県","prefecture_kana":"サイタマケン","city":"熊谷市","city_kana":"クマガヤシ","town":"池上","town_kana":"イケガミ","prefecture_code":11},"0816":{"zip_code":"3600816","prefecture":"埼玉県","prefecture_kana":"サイタマケン","city":"熊谷市","city_kana":"クマガヤシ","town":"石原","town_kana":"イシハラ","prefecture_code":11},"0821":{"zip_code":"3600821","prefecture":"埼玉県","prefecture_kana":"サイタマケン","city":"熊谷市","city_kana":"クマガヤシ","town":"伊勢町","town_kana":"イセチョウ","prefecture_code":11},"0105":{"zip_code":"3600105","prefecture":"埼玉県","prefecture_kana":"サイタマケン","city":"熊谷市","city_kana":"クマガヤシ","town":"板井","town_kana":"イタイ","prefecture_code":11},"0236":{"zip_code":"3600236","prefecture":"埼玉県","prefecture_kana":"サイタマケン","city":"熊谷市","city_kana":"クマガヤシ","town":"市ノ坪","town_kana":"イチノツボ","prefecture_code":11},"0005":{"zip_code":"3600005","prefecture":"埼玉県","prefecture_kana":"サイタマケン","city":"熊谷市","city_kana":"クマガヤシ","town":"今井","town_kana":"イマイ","prefecture_code":11},"0212":{"zip_code":"3600212","prefecture":"埼玉県","prefecture_kana":"サイタマケン","city":"熊谷市","city_kana":"クマガヤシ","town":"江波","town_kana":"エナミ","prefecture_code":11},"0823":{"zip_code":"3600823","prefecture":"埼玉県","prefecture_kana":"サイタマケン","city":"熊谷市","city_kana":"クマガヤシ","town":"榎町","town_kana":"エノキチョウ","prefecture_code":11},"0813":{"zip_code":"3600813","prefecture":"埼玉県","prefecture_kana":"サイタマケン","city":"熊谷市","city_kana":"クマガヤシ","town":"円光","town_kana":"エンコウ","prefecture_code":11},"0103":{"zip_code":"3600103","prefecture":"埼玉県","prefecture_kana":"サイタマケン","city":"熊谷市","city_kana":"クマガヤシ","town":"小江川","town_kana":"オエガワ","prefecture_code":11},"0835":{"zip_code":"3600835","prefecture":"埼玉県","prefecture_kana":"サイタマケン","city":"熊谷市","city_kana":"クマガヤシ","town":"大麻生","town_kana":"オオアソウ","prefecture_code":11},"0025":{"zip_code":"3600025","prefecture":"埼玉県","prefecture_kana":"サイタマケン","city":"熊谷市","city_kana":"クマガヤシ","town":"太井","town_kana":"オオイ","prefecture_code":11},"0002":{"zip_code":"3600002","prefecture":"埼玉県","prefecture_kana":"サイタマケン","city":"熊谷市","city_kana":"クマガヤシ","town":"大塚","town_kana":"オオツカ","prefecture_code":11},"0221":{"zip_code":"3600221","prefecture":"埼玉県","prefecture_kana":"サイタマケン","city":"熊谷市","city_kana":"クマガヤシ","town":"大野","town_kana":"オオノ","prefecture_code":11},"0812":{"zip_code":"3600812","prefecture":"埼玉県","prefecture_kana":"サイタマケン","city":"熊谷市","city_kana":"クマガヤシ","town":"大原","town_kana":"オオハラ","prefecture_code":11},"0111":{"zip_code":"3600111","prefecture":"埼玉県","prefecture_kana":"サイタマケン","city":"熊谷市","city_kana":"クマガヤシ","town":"押切","town_kana":"オシキリ","prefecture_code":11},"0017":{"zip_code":"3600017","prefecture":"埼玉県","prefecture_kana":"サイタマケン","city":"熊谷市","city_kana":"クマガヤシ","town":"小曽根","town_kana":"オゾネ","prefecture_code":11},"0242":{"zip_code":"3600242","prefecture":"埼玉県","prefecture_kana":"サイタマケン","city":"熊谷市","city_kana":"クマガヤシ","town":"男沼","town_kana":"オヌマ","prefecture_code":11},"0803":{"zip_code":"3600803","prefecture":"埼玉県","prefecture_kana":"サイタマケン","city":"熊谷市","city_kana":"クマガヤシ","town":"柿沼","town_kana":"カキヌマ","prefecture_code":11},"0847":{"zip_code":"3600847","prefecture":"埼玉県","prefecture_kana":"サイタマケン","city":"熊谷市","city_kana":"クマガヤシ","town":"籠原南","town_kana":"カゴハラミナミ","prefecture_code":11},"0046":{"zip_code":"3600046","prefecture":"埼玉県","prefecture_kana":"サイタマケン","city":"熊谷市","city_kana":"クマガヤシ","town":"鎌倉町","town_kana":"カマクラチョウ","prefecture_code":11},"0234":{"zip_code":"3600234","prefecture":"埼玉県","prefecture_kana":"サイタマケン","city":"熊谷市","city_kana":"クマガヤシ","town":"上江袋","town_kana":"カミエブクロ","prefecture_code":11},"0125":{"zip_code":"3600125","prefecture":"埼玉県","prefecture_kana":"サイタマケン","city":"熊谷市","city_kana":"クマガヤシ","town":"上恩田","town_kana":"カミオンダ","prefecture_code":11},"0004":{"zip_code":"3600004","prefecture":"埼玉県","prefecture_kana":"サイタマケン","city":"熊谷市","city_kana":"クマガヤシ","town":"上川上","town_kana":"カミカワカミ","prefecture_code":11},"0117":{"zip_code":"3600117","prefecture":"埼玉県","prefecture_kana":"サイタマケン","city":"熊谷市","city_kana":"クマガヤシ","town":"上新田","town_kana":"カミシンデン","prefecture_code":11},"0213":{"zip_code":"3600213","prefecture":"埼玉県","prefecture_kana":"サイタマケン","city":"熊谷市","city_kana":"クマガヤシ","town":"上須戸","town_kana":"カミスド","prefecture_code":11},"0001":{"zip_code":"3600001","prefecture":"埼玉県","prefecture_kana":"サイタマケン","city":"熊谷市","city_kana":"クマガヤシ","town":"上中条","town_kana":"カミチュウジョウ","prefecture_code":11},"0805":{"zip_code":"3600805","prefecture":"埼玉県","prefecture_kana":"サイタマケン","city":"熊谷市","city_kana":"クマガヤシ","town":"上奈良","town_kana":"カミナラ","prefecture_code":11},"0217":{"zip_code":"3600217","prefecture":"埼玉県","prefecture_kana":"サイタマケン","city":"熊谷市","city_kana":"クマガヤシ","town":"上根","town_kana":"カミネ","prefecture_code":11},"0012":{"zip_code":"3600012","prefecture":"埼玉県","prefecture_kana":"サイタマケン","city":"熊谷市","city_kana":"クマガヤシ","town":"上之","town_kana":"カミノ","prefecture_code":11},"0837":{"zip_code":"3600837","prefecture":"埼玉県","prefecture_kana":"サイタマケン","city":"熊谷市","city_kana":"クマガヤシ","town":"川原明戸","town_kana":"カワハラアケト","prefecture_code":11},"0035":{"zip_code":"3600035","prefecture":"埼玉県","prefecture_kana":"サイタマケン","city":"熊谷市","city_kana":"クマガヤシ","town":"河原町","town_kana":"カワラチョウ","prefecture_code":11},"0136":{"zip_code":"3600136","prefecture":"埼玉県","prefecture_kana":"サイタマケン","city":"熊谷市","city_kana":"クマガヤシ","town":"吉所敷","town_kana":"キショシキ","prefecture_code":11},"0032":{"zip_code":"3600032","prefecture":"埼玉県","prefecture_kana":"サイタマケン","city":"熊谷市","city_kana":"クマガヤシ","town":"銀座","town_kana":"ギンザ","prefecture_code":11},"0026":{"zip_code":"3600026","prefecture":"埼玉県","prefecture_kana":"サイタマケン","city":"熊谷市","city_kana":"クマガヤシ","town":"久下","town_kana":"クゲ","prefecture_code":11},"0222":{"zip_code":"3600222","prefecture":"埼玉県","prefecture_kana":"サイタマケン","city":"熊谷市","city_kana":"クマガヤシ","town":"葛和田","town_kana":"クズワダ","prefecture_code":11},"0131":{"zip_code":"3600131","prefecture":"埼玉県","prefecture_kana":"サイタマケン","city":"熊谷市","city_kana":"クマガヤシ","town":"屈戸","town_kana":"クット","prefecture_code":11},"0831":{"zip_code":"3600831","prefecture":"埼玉県","prefecture_kana":"サイタマケン","city":"熊谷市","city_kana":"クマガヤシ","town":"久保島","town_kana":"クボジマ","prefecture_code":11},"0016":{"zip_code":"3600016","prefecture":"埼玉県","prefecture_kana":"サイタマケン","city":"熊谷市","city_kana":"クマガヤシ","town":"熊谷","town_kana":"クマガヤ","prefecture_code":11},"0122":{"zip_code":"3600122","prefecture":"埼玉県","prefecture_kana":"サイタマケン","city":"熊谷市","city_kana":"クマガヤシ","town":"小泉","town_kana":"コイズミ","prefecture_code":11},"0015":{"zip_code":"3600015","prefecture":"埼玉県","prefecture_kana":"サイタマケン","city":"熊谷市","city_kana":"クマガヤシ","town":"肥塚","town_kana":"コイヅカ","prefecture_code":11},"0114":{"zip_code":"3600114","prefecture":"埼玉県","prefecture_kana":"サイタマケン","city":"熊谷市","city_kana":"クマガヤシ","town":"江南中央","town_kana":"コウナンチュウオウ","prefecture_code":11},"0832":{"zip_code":"3600832","prefecture":"埼玉県","prefecture_kana":"サイタマケン","city":"熊谷市","city_kana":"クマガヤシ","town":"小島","town_kana":"コジマ","prefecture_code":11},"0036":{"zip_code":"3600036","prefecture":"埼玉県","prefecture_kana":"サイタマケン","city":"熊谷市","city_kana":"クマガヤシ","town":"桜木町","town_kana":"サクラギチョウ","prefecture_code":11},"0814":{"zip_code":"3600814","prefecture":"埼玉県","prefecture_kana":"サイタマケン","city":"熊谷市","city_kana":"クマガヤシ","town":"桜町","town_kana":"サクラチョウ","prefecture_code":11},"0023":{"zip_code":"3600023","prefecture":"埼玉県","prefecture_kana":"サイタマケン","city":"熊谷市","city_kana":"クマガヤシ","town":"佐谷田","town_kana":"サヤダ","prefecture_code":11},"0104":{"zip_code":"3600104","prefecture":"埼玉県","prefecture_kana":"サイタマケン","city":"熊谷市","city_kana":"クマガヤシ","town":"塩","town_kana":"シオ","prefecture_code":11},"0106":{"zip_code":"3600106","prefecture":"埼玉県","prefecture_kana":"サイタマケン","city":"熊谷市","city_kana":"クマガヤシ","town":"柴","town_kana":"シバ","prefecture_code":11},"0006":{"zip_code":"3600006","prefecture":"埼玉県","prefecture_kana":"サイタマケン","city":"熊谷市","city_kana":"クマガヤシ","town":"四方寺","town_kana":"シホウジ","prefecture_code":11},"0123":{"zip_code":"3600123","prefecture":"埼玉県","prefecture_kana":"サイタマケン","city":"熊谷市","city_kana":"クマガヤシ","town":"下恩田","town_kana":"シモオンダ","prefecture_code":11},"0003":{"zip_code":"3600003","prefecture":"埼玉県","prefecture_kana":"サイタマケン","city":"熊谷市","city_kana":"クマガヤシ","town":"下川上","town_kana":"シモカワカミ","prefecture_code":11},"0802":{"zip_code":"3600802","prefecture":"埼玉県","prefecture_kana":"サイタマケン","city":"熊谷市","city_kana":"クマガヤシ","town":"下奈良","town_kana":"シモナラ","prefecture_code":11},"0851":{"zip_code":"3600851","prefecture":"埼玉県","prefecture_kana":"サイタマケン","city":"熊谷市","city_kana":"クマガヤシ","town":"下増田","town_kana":"シモマスダ","prefecture_code":11},"0846":{"zip_code":"3600846","prefecture":"埼玉県","prefecture_kana":"サイタマケン","city":"熊谷市","city_kana":"クマガヤシ","town":"拾六間","town_kana":"ジュウロッケン","prefecture_code":11},"0027":{"zip_code":"3600027","prefecture":"埼玉県","prefecture_kana":"サイタマケン","city":"熊谷市","city_kana":"クマガヤシ","town":"新川","town_kana":"シンカワ","prefecture_code":11},"0031":{"zip_code":"3600031","prefecture":"埼玉県","prefecture_kana":"サイタマケン","city":"熊谷市","city_kana":"クマガヤシ","town":"末広","town_kana":"スエヒロ","prefecture_code":11},"0102":{"zip_code":"3600102","prefecture":"埼玉県","prefecture_kana":"サイタマケン","city":"熊谷市","city_kana":"クマガヤシ","town":"須賀広","town_kana":"スガヒロ","prefecture_code":11},"0834":{"zip_code":"3600834","prefecture":"埼玉県","prefecture_kana":"サイタマケン","city":"熊谷市","city_kana":"クマガヤシ","town":"瀬南","town_kana":"セナミ","prefecture_code":11},"0211":{"zip_code":"3600211","prefecture":"埼玉県","prefecture_kana":"サイタマケン","city":"熊谷市","city_kana":"クマガヤシ","town":"善ケ島","town_kana":"ゼンガシマ","prefecture_code":11},"0107":{"zip_code":"3600107","prefecture":"埼玉県","prefecture_kana":"サイタマケン","city":"熊谷市","city_kana":"クマガヤシ","town":"千代","town_kana":"センダイ","prefecture_code":11},"0804":{"zip_code":"3600804","prefecture":"埼玉県","prefecture_kana":"サイタマケン","city":"熊谷市","city_kana":"クマガヤシ","town":"代","town_kana":"ダイ","prefecture_code":11},"0134":{"zip_code":"3600134","prefecture":"埼玉県","prefecture_kana":"サイタマケン","city":"熊谷市","city_kana":"クマガヤシ","town":"高本","town_kana":"タカモト","prefecture_code":11},"0855":{"zip_code":"3600855","prefecture":"埼玉県","prefecture_kana":"サイタマケン","city":"熊谷市","city_kana":"クマガヤシ","town":"高柳","town_kana":"タカヤナギ","prefecture_code":11},"0215":{"zip_code":"3600215","prefecture":"埼玉県","prefecture_kana":"サイタマケン","city":"熊谷市","city_kana":"クマガヤシ","town":"田島","town_kana":"タジマ","prefecture_code":11},"0853":{"zip_code":"3600853","prefecture":"埼玉県","prefecture_kana":"サイタマケン","city":"熊谷市","city_kana":"クマガヤシ","town":"玉井","town_kana":"タマイ","prefecture_code":11},"0854":{"zip_code":"3600854","prefecture":"埼玉県","prefecture_kana":"サイタマケン","city":"熊谷市","city_kana":"クマガヤシ","town":"玉井南","town_kana":"タマイミナミ","prefecture_code":11},"0223":{"zip_code":"3600223","prefecture":"埼玉県","prefecture_kana":"サイタマケン","city":"熊谷市","city_kana":"クマガヤシ","town":"俵瀬","town_kana":"タワラセ","prefecture_code":11},"0018":{"zip_code":"3600018","prefecture":"埼玉県","prefecture_kana":"サイタマケン","city":"熊谷市","city_kana":"クマガヤシ","town":"中央","town_kana":"チュウオウ","prefecture_code":11},"0825":{"zip_code":"3600825","prefecture":"埼玉県","prefecture_kana":"サイタマケン","city":"熊谷市","city_kana":"クマガヤシ","town":"月見町","town_kana":"ツキミチョウ","prefecture_code":11},"0037":{"zip_code":"3600037","prefecture":"埼玉県","prefecture_kana":"サイタマケン","city":"熊谷市","city_kana":"クマガヤシ","town":"筑波","town_kana":"ツクバ","prefecture_code":11},"0132":{"zip_code":"3600132","prefecture":"埼玉県","prefecture_kana":"サイタマケン","city":"熊谷市","city_kana":"クマガヤシ","town":"津田新田","town_kana":"ツダシンデン","prefecture_code":11},"0244":{"zip_code":"3600244","prefecture":"埼玉県","prefecture_kana":"サイタマケン","city":"熊谷市","city_kana":"クマガヤシ","town":"出来島","town_kana":"デキジマ","prefecture_code":11},"0121":{"zip_code":"3600121","prefecture":"埼玉県","prefecture_kana":"サイタマケン","city":"熊谷市","city_kana":"クマガヤシ","town":"手島","town_kana":"テシマ","prefecture_code":11},"0232":{"zip_code":"3600232","prefecture":"埼玉県","prefecture_kana":"サイタマケン","city":"熊谷市","city_kana":"クマガヤシ","town":"道ケ谷戸","town_kana":"ドウガヤト","prefecture_code":11},"0022":{"zip_code":"3600022","prefecture":"埼玉県","prefecture_kana":"サイタマケン","city":"熊谷市","city_kana":"クマガヤシ","town":"戸出","town_kana":"トデ","prefecture_code":11},"0024":{"zip_code":"3600024","prefecture":"埼玉県","prefecture_kana":"サイタマケン","city":"熊谷市","city_kana":"クマガヤシ","town":"問屋町","town_kana":"トンヤチョウ","prefecture_code":11},"0237":{"zip_code":"3600237","prefecture":"埼玉県","prefecture_kana":"サイタマケン","city":"熊谷市","city_kana":"クマガヤシ","town":"永井太田","town_kana":"ナガイオオタ","prefecture_code":11},"0124":{"zip_code":"3600124","prefecture":"埼玉県","prefecture_kana":"サイタマケン","city":"熊谷市","city_kana":"クマガヤシ","town":"中恩田","town_kana":"ナカオンダ","prefecture_code":11},"0133":{"zip_code":"3600133","prefecture":"埼玉県","prefecture_kana":"サイタマケン","city":"熊谷市","city_kana":"クマガヤシ","town":"中曽根","town_kana":"ナカゾネ","prefecture_code":11},"0047":{"zip_code":"3600047","prefecture":"埼玉県","prefecture_kana":"サイタマケン","city":"熊谷市","city_kana":"クマガヤシ","town":"仲町","town_kana":"ナカチョウ","prefecture_code":11},"0801":{"zip_code":"3600801","prefecture":"埼玉県","prefecture_kana":"サイタマケン","city":"熊谷市","city_kana":"クマガヤシ","town":"中奈良","town_kana":"ナカナラ","prefecture_code":11},"0013":{"zip_code":"3600013","prefecture":"埼玉県","prefecture_kana":"サイタマケン","city":"熊谷市","city_kana":"クマガヤシ","town":"中西","town_kana":"ナカニシ","prefecture_code":11},"0806":{"zip_code":"3600806","prefecture":"埼玉県","prefecture_kana":"サイタマケン","city":"熊谷市","city_kana":"クマガヤシ","town":"奈良新田","town_kana":"ナラシンデン","prefecture_code":11},"0115":{"zip_code":"3600115","prefecture":"埼玉県","prefecture_kana":"サイタマケン","city":"熊谷市","city_kana":"クマガヤシ","town":"成沢","town_kana":"ナリサワ","prefecture_code":11},"0817":{"zip_code":"3600817","prefecture":"埼玉県","prefecture_kana":"サイタマケン","city":"熊谷市","city_kana":"クマガヤシ","town":"新島","town_kana":"ニイジマ","prefecture_code":11},"0841":{"zip_code":"3600841","prefecture":"埼玉県","prefecture_kana":"サイタマケン","city":"熊谷市","city_kana":"クマガヤシ","town":"新堀","town_kana":"ニイボリ","prefecture_code":11},"0842":{"zip_code":"3600842","prefecture":"埼玉県","prefecture_kana":"サイタマケン","city":"熊谷市","city_kana":"クマガヤシ","town":"新堀新田","town_kana":"ニイボリシンデン","prefecture_code":11},"0214":{"zip_code":"3600214","prefecture":"埼玉県","prefecture_kana":"サイタマケン","city":"熊谷市","city_kana":"クマガヤシ","town":"西城","town_kana":"ニシジョウ","prefecture_code":11},"0216":{"zip_code":"3600216","prefecture":"埼玉県","prefecture_kana":"サイタマケン","city":"熊谷市","city_kana":"クマガヤシ","town":"西野","town_kana":"ニシノ","prefecture_code":11},"0857":{"zip_code":"3600857","prefecture":"埼玉県","prefecture_kana":"サイタマケン","city":"熊谷市","city_kana":"クマガヤシ","town":"西別府","town_kana":"ニシベップ","prefecture_code":11},"0135":{"zip_code":"3600135","prefecture":"埼玉県","prefecture_kana":"サイタマケン","city":"熊谷市","city_kana":"クマガヤシ","town":"沼黒","town_kana":"ヌマグロ","prefecture_code":11},"0101":{"zip_code":"3600101","prefecture":"埼玉県","prefecture_kana":"サイタマケン","city":"熊谷市","city_kana":"クマガヤシ","town":"野原","town_kana":"ノハラ","prefecture_code":11},"0014":{"zip_code":"3600014","prefecture":"埼玉県","prefecture_kana":"サイタマケン","city":"熊谷市","city_kana":"クマガヤシ","town":"箱田","town_kana":"ハコダ","prefecture_code":11},"0235":{"zip_code":"3600235","prefecture":"埼玉県","prefecture_kana":"サイタマケン","city":"熊谷市","city_kana":"クマガヤシ","town":"原井","town_kana":"バライ","prefecture_code":11},"0811":{"zip_code":"3600811","prefecture":"埼玉県","prefecture_kana":"サイタマケン","city":"熊谷市","city_kana":"クマガヤシ","town":"原島","town_kana":"ハラジマ","prefecture_code":11},"0852":{"zip_code":"3600852","prefecture":"埼玉県","prefecture_kana":"サイタマケン","city":"熊谷市","city_kana":"クマガヤシ","town":"東別府","town_kana":"ヒガシベップ","prefecture_code":11},"0224":{"zip_code":"3600224","prefecture":"埼玉県","prefecture_kana":"サイタマケン","city":"熊谷市","city_kana":"クマガヤシ","town":"日向","town_kana":"ヒナタ","prefecture_code":11},"0112":{"zip_code":"3600112","prefecture":"埼玉県","prefecture_kana":"サイタマケン","city":"熊谷市","city_kana":"クマガヤシ","town":"樋春","town_kana":"ヒハル","prefecture_code":11},"0163":{"zip_code":"3600163","prefecture":"埼玉県","prefecture_kana":"サイタマケン","city":"熊谷市","city_kana":"クマガヤシ","town":"平塚新田","town_kana":"ヒラツカシンデン","prefecture_code":11},"0021":{"zip_code":"3600021","prefecture":"埼玉県","prefecture_kana":"サイタマケン","city":"熊谷市","city_kana":"クマガヤシ","town":"平戸","town_kana":"ヒラト","prefecture_code":11},"0833":{"zip_code":"3600833","prefecture":"埼玉県","prefecture_kana":"サイタマケン","city":"熊谷市","city_kana":"クマガヤシ","town":"広瀬","town_kana":"ヒロセ","prefecture_code":11},"0836":{"zip_code":"3600836","prefecture":"埼玉県","prefecture_kana":"サイタマケン","city":"熊谷市","city_kana":"クマガヤシ","town":"武体","town_kana":"ブタイ","prefecture_code":11},"0856":{"zip_code":"3600856","prefecture":"埼玉県","prefecture_kana":"サイタマケン","city":"熊谷市","city_kana":"クマガヤシ","town":"別府","town_kana":"ベップ","prefecture_code":11},"0225":{"zip_code":"3600225","prefecture":"埼玉県","prefecture_kana":"サイタマケン","city":"熊谷市","city_kana":"クマガヤシ","town":"弁財","town_kana":"ベンザイ","prefecture_code":11},"0043":{"zip_code":"3600043","prefecture":"埼玉県","prefecture_kana":"サイタマケン","city":"熊谷市","city_kana":"クマガヤシ","town":"星川","town_kana":"ホシカワ","prefecture_code":11},"0815":{"zip_code":"3600815","prefecture":"埼玉県","prefecture_kana":"サイタマケン","city":"熊谷市","city_kana":"クマガヤシ","town":"本石","town_kana":"ホンゴク","prefecture_code":11},"0042":{"zip_code":"3600042","prefecture":"埼玉県","prefecture_kana":"サイタマケン","city":"熊谷市","city_kana":"クマガヤシ","town":"本町","town_kana":"ホンチョウ","prefecture_code":11},"0161":{"zip_code":"3600161","prefecture":"埼玉県","prefecture_kana":"サイタマケン","city":"熊谷市","city_kana":"クマガヤシ","town":"万吉","town_kana":"マゲチ","prefecture_code":11},"0243":{"zip_code":"3600243","prefecture":"埼玉県","prefecture_kana":"サイタマケン","city":"熊谷市","city_kana":"クマガヤシ","town":"間々田","town_kana":"ママダ","prefecture_code":11},"0034":{"zip_code":"3600034","prefecture":"埼玉県","prefecture_kana":"サイタマケン","city":"熊谷市","city_kana":"クマガヤシ","town":"万平町","town_kana":"マンペイチョウ","prefecture_code":11},"0844":{"zip_code":"3600844","prefecture":"埼玉県","prefecture_kana":"サイタマケン","city":"熊谷市","city_kana":"クマガヤシ","town":"御稜威ケ原","town_kana":"ミイズガハラ","prefecture_code":11},"0843":{"zip_code":"3600843","prefecture":"埼玉県","prefecture_kana":"サイタマケン","city":"熊谷市","city_kana":"クマガヤシ","town":"三ケ尻","town_kana":"ミカジリ","prefecture_code":11},"0113":{"zip_code":"3600113","prefecture":"埼玉県","prefecture_kana":"サイタマケン","city":"熊谷市","city_kana":"クマガヤシ","town":"御正新田","town_kana":"ミショウシンデン","prefecture_code":11},"0116":{"zip_code":"3600116","prefecture":"埼玉県","prefecture_kana":"サイタマケン","city":"熊谷市","city_kana":"クマガヤシ","town":"三本","town_kana":"ミツモト","prefecture_code":11},"0845":{"zip_code":"3600845","prefecture":"埼玉県","prefecture_kana":"サイタマケン","city":"熊谷市","city_kana":"クマガヤシ","town":"美土里町","town_kana":"ミドリチョウ","prefecture_code":11},"0824":{"zip_code":"3600824","prefecture":"埼玉県","prefecture_kana":"サイタマケン","city":"熊谷市","city_kana":"クマガヤシ","town":"見晴町","town_kana":"ミハラシチョウ","prefecture_code":11},"0041":{"zip_code":"3600041","prefecture":"埼玉県","prefecture_kana":"サイタマケン","city":"熊谷市","city_kana":"クマガヤシ","town":"宮町","town_kana":"ミヤチョウ","prefecture_code":11},"0045":{"zip_code":"3600045","prefecture":"埼玉県","prefecture_kana":"サイタマケン","city":"熊谷市","city_kana":"クマガヤシ","town":"宮前町","town_kana":"ミヤマエチョウ","prefecture_code":11},"0822":{"zip_code":"3600822","prefecture":"埼玉県","prefecture_kana":"サイタマケン","city":"熊谷市","city_kana":"クマガヤシ","town":"宮本町","town_kana":"ミヤモトチョウ","prefecture_code":11},"0162":{"zip_code":"3600162","prefecture":"埼玉県","prefecture_kana":"サイタマケン","city":"熊谷市","city_kana":"クマガヤシ","town":"村岡","town_kana":"ムラオカ","prefecture_code":11},"0201":{"zip_code":"3600201","prefecture":"埼玉県","prefecture_kana":"サイタマケン","city":"熊谷市","city_kana":"クマガヤシ","town":"妻沼","town_kana":"メヌマ","prefecture_code":11},"0245":{"zip_code":"3600245","prefecture":"埼玉県","prefecture_kana":"サイタマケン","city":"熊谷市","city_kana":"クマガヤシ","town":"妻沼小島","town_kana":"メヌマコジマ","prefecture_code":11},"0241":{"zip_code":"3600241","prefecture":"埼玉県","prefecture_kana":"サイタマケン","city":"熊谷市","city_kana":"クマガヤシ","town":"妻沼台","town_kana":"メヌマダイ","prefecture_code":11},"0204":{"zip_code":"3600204","prefecture":"埼玉県","prefecture_kana":"サイタマケン","city":"熊谷市","city_kana":"クマガヤシ","town":"妻沼中央","town_kana":"メヌマチュウオウ","prefecture_code":11},"0238":{"zip_code":"3600238","prefecture":"埼玉県","prefecture_kana":"サイタマケン","city":"熊谷市","city_kana":"クマガヤシ","town":"妻沼西","town_kana":"メヌマニシ","prefecture_code":11},"0202":{"zip_code":"3600202","prefecture":"埼玉県","prefecture_kana":"サイタマケン","city":"熊谷市","city_kana":"クマガヤシ","town":"妻沼東","town_kana":"メヌマヒガシ","prefecture_code":11},"0164":{"zip_code":"3600164","prefecture":"埼玉県","prefecture_kana":"サイタマケン","city":"熊谷市","city_kana":"クマガヤシ","town":"楊井","town_kana":"ヤギイ","prefecture_code":11},"0233":{"zip_code":"3600233","prefecture":"埼玉県","prefecture_kana":"サイタマケン","city":"熊谷市","city_kana":"クマガヤシ","town":"八木田","town_kana":"ヤギタ","prefecture_code":11},"0218":{"zip_code":"3600218","prefecture":"埼玉県","prefecture_kana":"サイタマケン","city":"熊谷市","city_kana":"クマガヤシ","town":"八ツ口","town_kana":"ヤツクチ","prefecture_code":11},"0203":{"zip_code":"3600203","prefecture":"埼玉県","prefecture_kana":"サイタマケン","city":"熊谷市","city_kana":"クマガヤシ","town":"弥藤吾","town_kana":"ヤトウゴ","prefecture_code":11},"0044":{"zip_code":"3600044","prefecture":"埼玉県","prefecture_kana":"サイタマケン","city":"熊谷市","city_kana":"クマガヤシ","town":"弥生","town_kana":"ヤヨイ","prefecture_code":11}}