{"0000":{"zip_code":"3610000","prefecture":"埼玉県","prefecture_kana":"サイタマケン","city":"行田市","city_kana":"ギョウダシ","town":"以下に掲載がない場合","town_kana":"イカニケイサイガナイバアイ","prefecture_code":11},"0074":{"zip_code":"3610074","prefecture":"埼玉県","prefecture_kana":"サイタマケン","city":"行田市","city_kana":"ギョウダシ","town":"旭町","town_kana":"アサヒチョウ","prefecture_code":11},"0011":{"zip_code":"3610011","prefecture":"埼玉県","prefecture_kana":"サイタマケン","city":"行田市","city_kana":"ギョウダシ","town":"荒木","town_kana":"アラキ","prefecture_code":11},"0046":{"zip_code":"3610046","prefecture":"埼玉県","prefecture_kana":"サイタマケン","city":"行田市","city_kana":"ギョウダシ","town":"壱里山町","town_kana":"イチリヤマチョウ","prefecture_code":11},"0081":{"zip_code":"3610081","prefecture":"埼玉県","prefecture_kana":"サイタマケン","city":"行田市","city_kana":"ギョウダシ","town":"犬塚","town_kana":"イヌズカ","prefecture_code":11},"0077":{"zip_code":"3610077","prefecture":"埼玉県","prefecture_kana":"サイタマケン","city":"行田市","city_kana":"ギョウダシ","town":"忍","town_kana":"オシ","prefecture_code":11},"0045":{"zip_code":"3610045","prefecture":"埼玉県","prefecture_kana":"サイタマケン","city":"行田市","city_kana":"ギョウダシ","town":"押上町","town_kana":"オシアゲチョウ","prefecture_code":11},"0007":{"zip_code":"3610007","prefecture":"埼玉県","prefecture_kana":"サイタマケン","city":"行田市","city_kana":"ギョウダシ","town":"小見","town_kana":"オミ","prefecture_code":11},"0034":{"zip_code":"3610034","prefecture":"埼玉県","prefecture_kana":"サイタマケン","city":"行田市","city_kana":"ギョウダシ","town":"利田","town_kana":"カガダ","prefecture_code":11},"0044":{"zip_code":"3610044","prefecture":"埼玉県","prefecture_kana":"サイタマケン","city":"行田市","city_kana":"ギョウダシ","town":"門井町","town_kana":"カドイチョウ","prefecture_code":11},"0066":{"zip_code":"3610066","prefecture":"埼玉県","prefecture_kana":"サイタマケン","city":"行田市","city_kana":"ギョウダシ","town":"上池守","town_kana":"カミイケモリ","prefecture_code":11},"0001":{"zip_code":"3610001","prefecture":"埼玉県","prefecture_kana":"サイタマケン","city":"行田市","city_kana":"ギョウダシ","town":"北河原","town_kana":"キタガワラ","prefecture_code":11},"0073":{"zip_code":"3610073","prefecture":"埼玉県","prefecture_kana":"サイタマケン","city":"行田市","city_kana":"ギョウダシ","town":"行田","town_kana":"ギョウダ","prefecture_code":11},"0065":{"zip_code":"3610065","prefecture":"埼玉県","prefecture_kana":"サイタマケン","city":"行田市","city_kana":"ギョウダシ","town":"小敷田","town_kana":"コシキダ","prefecture_code":11},"0024":{"zip_code":"3610024","prefecture":"埼玉県","prefecture_kana":"サイタマケン","city":"行田市","city_kana":"ギョウダシ","town":"小針","town_kana":"コバリ","prefecture_code":11},"0055":{"zip_code":"3610055","prefecture":"埼玉県","prefecture_kana":"サイタマケン","city":"行田市","city_kana":"ギョウダシ","town":"駒形","town_kana":"コマガタ","prefecture_code":11},"0005":{"zip_code":"3610005","prefecture":"埼玉県","prefecture_kana":"サイタマケン","city":"行田市","city_kana":"ギョウダシ","town":"斎条","town_kana":"サイジョウ","prefecture_code":11},"0071":{"zip_code":"3610071","prefecture":"埼玉県","prefecture_kana":"サイタマケン","city":"行田市","city_kana":"ギョウダシ","town":"栄町","town_kana":"サカエチョウ","prefecture_code":11},"0002":{"zip_code":"3610002","prefecture":"埼玉県","prefecture_kana":"サイタマケン","city":"行田市","city_kana":"ギョウダシ","town":"酒巻","town_kana":"サカマキ","prefecture_code":11},"0025":{"zip_code":"3610025","prefecture":"埼玉県","prefecture_kana":"サイタマケン","city":"行田市","city_kana":"ギョウダシ","town":"埼玉","town_kana":"サキタマ","prefecture_code":11},"0022":{"zip_code":"3610022","prefecture":"埼玉県","prefecture_kana":"サイタマケン","city":"行田市","city_kana":"ギョウダシ","town":"桜町","town_kana":"サクラチョウ","prefecture_code":11},"0032":{"zip_code":"3610032","prefecture":"埼玉県","prefecture_kana":"サイタマケン","city":"行田市","city_kana":"ギョウダシ","town":"佐間","town_kana":"サマ","prefecture_code":11},"0063":{"zip_code":"3610063","prefecture":"埼玉県","prefecture_kana":"サイタマケン","city":"行田市","city_kana":"ギョウダシ","town":"皿尾","town_kana":"サラオ","prefecture_code":11},"0047":{"zip_code":"3610047","prefecture":"埼玉県","prefecture_kana":"サイタマケン","city":"行田市","city_kana":"ギョウダシ","town":"清水町","town_kana":"シミズチョウ","prefecture_code":11},"0067":{"zip_code":"3610067","prefecture":"埼玉県","prefecture_kana":"サイタマケン","city":"行田市","city_kana":"ギョウダシ","town":"下池守","town_kana":"シモイケモリ","prefecture_code":11},"0037":{"zip_code":"3610037","prefecture":"埼玉県","prefecture_kana":"サイタマケン","city":"行田市","city_kana":"ギョウダシ","town":"下忍","town_kana":"シモオシ","prefecture_code":11},"0012":{"zip_code":"3610012","prefecture":"埼玉県","prefecture_kana":"サイタマケン","city":"行田市","city_kana":"ギョウダシ","town":"下須戸","town_kana":"シモスド","prefecture_code":11},"0003":{"zip_code":"3610003","prefecture":"埼玉県","prefecture_kana":"サイタマケン","city":"行田市","city_kana":"ギョウダシ","town":"下中条","town_kana":"シモチュウジョウ","prefecture_code":11},"0057":{"zip_code":"3610057","prefecture":"埼玉県","prefecture_kana":"サイタマケン","city":"行田市","city_kana":"ギョウダシ","town":"城西","town_kana":"ジョウサイ","prefecture_code":11},"0054":{"zip_code":"3610054","prefecture":"埼玉県","prefecture_kana":"サイタマケン","city":"行田市","city_kana":"ギョウダシ","town":"城南","town_kana":"ジョウナン","prefecture_code":11},"0006":{"zip_code":"3610006","prefecture":"埼玉県","prefecture_kana":"サイタマケン","city":"行田市","city_kana":"ギョウダシ","town":"白川戸","town_kana":"シラカワド","prefecture_code":11},"0053":{"zip_code":"3610053","prefecture":"埼玉県","prefecture_kana":"サイタマケン","city":"行田市","city_kana":"ギョウダシ","town":"水城公園","town_kana":"スイジョウコウエン","prefecture_code":11},"0004":{"zip_code":"3610004","prefecture":"埼玉県","prefecture_kana":"サイタマケン","city":"行田市","city_kana":"ギョウダシ","town":"須加","town_kana":"スカ","prefecture_code":11},"0015":{"zip_code":"3610015","prefecture":"埼玉県","prefecture_kana":"サイタマケン","city":"行田市","city_kana":"ギョウダシ","town":"関根","town_kana":"セキネ","prefecture_code":11},"0041":{"zip_code":"3610041","prefecture":"埼玉県","prefecture_kana":"サイタマケン","city":"行田市","city_kana":"ギョウダシ","town":"棚田町","town_kana":"タナダチョウ","prefecture_code":11},"0078":{"zip_code":"3610078","prefecture":"埼玉県","prefecture_kana":"サイタマケン","city":"行田市","city_kana":"ギョウダシ","town":"中央","town_kana":"チュウオウ","prefecture_code":11},"0035":{"zip_code":"3610035","prefecture":"埼玉県","prefecture_kana":"サイタマケン","city":"行田市","city_kana":"ギョウダシ","town":"堤根","town_kana":"ツツミネ","prefecture_code":11},"0076":{"zip_code":"3610076","prefecture":"埼玉県","prefecture_kana":"サイタマケン","city":"行田市","city_kana":"ギョウダシ","town":"天満","town_kana":"テンマ","prefecture_code":11},"0014":{"zip_code":"3610014","prefecture":"埼玉県","prefecture_kana":"サイタマケン","city":"行田市","city_kana":"ギョウダシ","town":"藤間","town_kana":"トウマ","prefecture_code":11},"0083":{"zip_code":"3610083","prefecture":"埼玉県","prefecture_kana":"サイタマケン","city":"行田市","city_kana":"ギョウダシ","town":"中江袋","town_kana":"ナカエブクロ","prefecture_code":11},"0064":{"zip_code":"3610064","prefecture":"埼玉県","prefecture_kana":"サイタマケン","city":"行田市","city_kana":"ギョウダシ","town":"中里","town_kana":"ナカザト","prefecture_code":11},"0023":{"zip_code":"3610023","prefecture":"埼玉県","prefecture_kana":"サイタマケン","city":"行田市","city_kana":"ギョウダシ","town":"長野","town_kana":"ナガノ","prefecture_code":11},"0042":{"zip_code":"3610042","prefecture":"埼玉県","prefecture_kana":"サイタマケン","city":"行田市","city_kana":"ギョウダシ","town":"西新町","town_kana":"ニシシンマチ","prefecture_code":11},"0026":{"zip_code":"3610026","prefecture":"埼玉県","prefecture_kana":"サイタマケン","city":"行田市","city_kana":"ギョウダシ","town":"野","town_kana":"ノ","prefecture_code":11},"0036":{"zip_code":"3610036","prefecture":"埼玉県","prefecture_kana":"サイタマケン","city":"行田市","city_kana":"ギョウダシ","town":"樋上","town_kana":"ヒノウエ","prefecture_code":11},"0043":{"zip_code":"3610043","prefecture":"埼玉県","prefecture_kana":"サイタマケン","city":"行田市","city_kana":"ギョウダシ","town":"深水町","town_kana":"フカミチョウ","prefecture_code":11},"0021":{"zip_code":"3610021","prefecture":"埼玉県","prefecture_kana":"サイタマケン","city":"行田市","city_kana":"ギョウダシ","town":"富士見町","town_kana":"フジミチョウ","prefecture_code":11},"0016":{"zip_code":"3610016","prefecture":"埼玉県","prefecture_kana":"サイタマケン","city":"行田市","city_kana":"ギョウダシ","town":"藤原町","town_kana":"フジワラチョウ","prefecture_code":11},"0052":{"zip_code":"3610052","prefecture":"埼玉県","prefecture_kana":"サイタマケン","city":"行田市","city_kana":"ギョウダシ","town":"本丸","town_kana":"ホンマル","prefecture_code":11},"0038":{"zip_code":"3610038","prefecture":"埼玉県","prefecture_kana":"サイタマケン","city":"行田市","city_kana":"ギョウダシ","town":"前谷","town_kana":"マエヤ","prefecture_code":11},"0013":{"zip_code":"3610013","prefecture":"埼玉県","prefecture_kana":"サイタマケン","city":"行田市","city_kana":"ギョウダシ","town":"真名板","town_kana":"マナイタ","prefecture_code":11},"0082":{"zip_code":"3610082","prefecture":"埼玉県","prefecture_kana":"サイタマケン","city":"行田市","city_kana":"ギョウダシ","town":"馬見塚","town_kana":"マミヅカ","prefecture_code":11},"0031":{"zip_code":"3610031","prefecture":"埼玉県","prefecture_kana":"サイタマケン","city":"行田市","city_kana":"ギョウダシ","town":"緑町","town_kana":"ミドリチョウ","prefecture_code":11},"0084":{"zip_code":"3610084","prefecture":"埼玉県","prefecture_kana":"サイタマケン","city":"行田市","city_kana":"ギョウダシ","town":"南河原","town_kana":"ミナミカワラ","prefecture_code":11},"0072":{"zip_code":"3610072","prefecture":"埼玉県","prefecture_kana":"サイタマケン","city":"行田市","city_kana":"ギョウダシ","town":"宮本","town_kana":"ミヤモト","prefecture_code":11},"0075":{"zip_code":"3610075","prefecture":"埼玉県","prefecture_kana":"サイタマケン","city":"行田市","city_kana":"ギョウダシ","town":"向町","town_kana":"ムカイマチ","prefecture_code":11},"0056":{"zip_code":"3610056","prefecture":"埼玉県","prefecture_kana":"サイタマケン","city":"行田市","city_kana":"ギョウダシ","town":"持田","town_kana":"モチダ","prefecture_code":11},"0062":{"zip_code":"3610062","prefecture":"埼玉県","prefecture_kana":"サイタマケン","city":"行田市","city_kana":"ギョウダシ","town":"谷郷","town_kana":"ヤゴウ","prefecture_code":11},"0051":{"zip_code":"3610051","prefecture":"埼玉県","prefecture_kana":"サイタマケン","city":"行田市","city_kana":"ギョウダシ","town":"矢場","town_kana":"ヤバ","prefecture_code":11},"0017":{"zip_code":"3610017","prefecture":"埼玉県","prefecture_kana":"サイタマケン","city":"行田市","city_kana":"ギョウダシ","town":"若小玉","town_kana":"ワカコダマ","prefecture_code":11},"0033":{"zip_code":"3610033","prefecture":"埼玉県","prefecture_kana":"サイタマケン","city":"行田市","city_kana":"ギョウダシ","town":"渡柳","town_kana":"ワタリヤナギ","prefecture_code":11},"0061":{"zip_code":"3610061","prefecture":"埼玉県","prefecture_kana":"サイタマケン","city":"行田市","city_kana":"ギョウダシ","town":"和田","town_kana":"ワダ","prefecture_code":11}}