{"0000":{"zip_code":"3630000","prefecture":"埼玉県","prefecture_kana":"サイタマケン","city":"桶川市","city_kana":"オケガワシ","town":"以下に掲載がない場合","town_kana":"イカニケイサイガナイバアイ","prefecture_code":11},"0002":{"zip_code":"3630002","prefecture":"埼玉県","prefecture_kana":"サイタマケン","city":"桶川市","city_kana":"オケガワシ","town":"赤堀","town_kana":"アカボリ","prefecture_code":11},"0023":{"zip_code":"3630023","prefecture":"埼玉県","prefecture_kana":"サイタマケン","city":"桶川市","city_kana":"オケガワシ","town":"朝日","town_kana":"アサヒ","prefecture_code":11},"0021":{"zip_code":"3630021","prefecture":"埼玉県","prefecture_kana":"サイタマケン","city":"桶川市","city_kana":"オケガワシ","town":"泉","town_kana":"イズミ","prefecture_code":11},"0001":{"zip_code":"3630001","prefecture":"埼玉県","prefecture_kana":"サイタマケン","city":"桶川市","city_kana":"オケガワシ","town":"加納","town_kana":"カノウ","prefecture_code":11},"0026":{"zip_code":"3630026","prefecture":"埼玉県","prefecture_kana":"サイタマケン","city":"桶川市","city_kana":"オケガワシ","town":"上日出谷","town_kana":"カミヒデヤ","prefecture_code":11},"0024":{"zip_code":"3630024","prefecture":"埼玉県","prefecture_kana":"サイタマケン","city":"桶川市","city_kana":"オケガワシ","town":"鴨川","town_kana":"カモガワ","prefecture_code":11},"0027":{"zip_code":"3630027","prefecture":"埼玉県","prefecture_kana":"サイタマケン","city":"桶川市","city_kana":"オケガワシ","town":"川田谷","town_kana":"カワタヤ","prefecture_code":11},"0011":{"zip_code":"3630011","prefecture":"埼玉県","prefecture_kana":"サイタマケン","city":"桶川市","city_kana":"オケガワシ","town":"北","town_kana":"キタ","prefecture_code":11},"0006":{"zip_code":"3630006","prefecture":"埼玉県","prefecture_kana":"サイタマケン","city":"桶川市","city_kana":"オケガワシ","town":"倉田","town_kana":"クラタ","prefecture_code":11},"0004":{"zip_code":"3630004","prefecture":"埼玉県","prefecture_kana":"サイタマケン","city":"桶川市","city_kana":"オケガワシ","town":"五丁台","town_kana":"ゴチョウダイ","prefecture_code":11},"0016":{"zip_code":"3630016","prefecture":"埼玉県","prefecture_kana":"サイタマケン","city":"桶川市","city_kana":"オケガワシ","town":"寿","town_kana":"コトブキ","prefecture_code":11},"0007":{"zip_code":"3630007","prefecture":"埼玉県","prefecture_kana":"サイタマケン","city":"桶川市","city_kana":"オケガワシ","town":"小針領家","town_kana":"コバリリョウケ","prefecture_code":11},"0008":{"zip_code":"3630008","prefecture":"埼玉県","prefecture_kana":"サイタマケン","city":"桶川市","city_kana":"オケガワシ","town":"坂田","town_kana":"サカタ","prefecture_code":11},"0009":{"zip_code":"3630009","prefecture":"埼玉県","prefecture_kana":"サイタマケン","city":"桶川市","city_kana":"オケガワシ","town":"坂田東","town_kana":"サカタヒガシ","prefecture_code":11},"0003":{"zip_code":"3630003","prefecture":"埼玉県","prefecture_kana":"サイタマケン","city":"桶川市","city_kana":"オケガワシ","town":"篠津","town_kana":"シノヅ","prefecture_code":11},"0025":{"zip_code":"3630025","prefecture":"埼玉県","prefecture_kana":"サイタマケン","city":"桶川市","city_kana":"オケガワシ","town":"下日出谷","town_kana":"シモヒデヤ","prefecture_code":11},"0028":{"zip_code":"3630028","prefecture":"埼玉県","prefecture_kana":"サイタマケン","city":"桶川市","city_kana":"オケガワシ","town":"下日出谷西","town_kana":"シモヒデヤニシ","prefecture_code":11},"0014":{"zip_code":"3630014","prefecture":"埼玉県","prefecture_kana":"サイタマケン","city":"桶川市","city_kana":"オケガワシ","town":"神明","town_kana":"シンメイ","prefecture_code":11},"0012":{"zip_code":"3630012","prefecture":"埼玉県","prefecture_kana":"サイタマケン","city":"桶川市","city_kana":"オケガワシ","town":"末広","town_kana":"スエヒロ","prefecture_code":11},"0005":{"zip_code":"3630005","prefecture":"埼玉県","prefecture_kana":"サイタマケン","city":"桶川市","city_kana":"オケガワシ","town":"舎人新田","town_kana":"トネリシンデン","prefecture_code":11},"0017":{"zip_code":"3630017","prefecture":"埼玉県","prefecture_kana":"サイタマケン","city":"桶川市","city_kana":"オケガワシ","town":"西","town_kana":"ニシ","prefecture_code":11},"0013":{"zip_code":"3630013","prefecture":"埼玉県","prefecture_kana":"サイタマケン","city":"桶川市","city_kana":"オケガワシ","town":"東","town_kana":"ヒガシ","prefecture_code":11},"0015":{"zip_code":"3630015","prefecture":"埼玉県","prefecture_kana":"サイタマケン","city":"桶川市","city_kana":"オケガワシ","town":"南","town_kana":"ミナミ","prefecture_code":11},"0022":{"zip_code":"3630022","prefecture":"埼玉県","prefecture_kana":"サイタマケン","city":"桶川市","city_kana":"オケガワシ","town":"若宮","town_kana":"ワカミヤ","prefecture_code":11}}