{"0000":{"zip_code":"3640000","prefecture":"埼玉県","prefecture_kana":"サイタマケン","city":"北本市","city_kana":"キタモトシ","town":"","town_kana":"","prefecture_code":11},"0011":{"zip_code":"3640011","prefecture":"埼玉県","prefecture_kana":"サイタマケン","city":"北本市","city_kana":"キタモトシ","town":"朝日","town_kana":"アサヒ","prefecture_code":11},"0007":{"zip_code":"3640007","prefecture":"埼玉県","prefecture_kana":"サイタマケン","city":"北本市","city_kana":"キタモトシ","town":"東間","town_kana":"アズマ","prefecture_code":11},"0026":{"zip_code":"3640026","prefecture":"埼玉県","prefecture_kana":"サイタマケン","city":"北本市","city_kana":"キタモトシ","town":"荒井","town_kana":"アライ","prefecture_code":11},"0024":{"zip_code":"3640024","prefecture":"埼玉県","prefecture_kana":"サイタマケン","city":"北本市","city_kana":"キタモトシ","town":"石戸","town_kana":"イシト","prefecture_code":11},"0025":{"zip_code":"3640025","prefecture":"埼玉県","prefecture_kana":"サイタマケン","city":"北本市","city_kana":"キタモトシ","town":"石戸宿","town_kana":"イシトジュク","prefecture_code":11},"0012":{"zip_code":"3640012","prefecture":"埼玉県","prefecture_kana":"サイタマケン","city":"北本市","city_kana":"キタモトシ","town":"北中丸","town_kana":"キタナカマル","prefecture_code":11},"0006":{"zip_code":"3640006","prefecture":"埼玉県","prefecture_kana":"サイタマケン","city":"北本市","city_kana":"キタモトシ","town":"北本","town_kana":"キタモト","prefecture_code":11},"0021":{"zip_code":"3640021","prefecture":"埼玉県","prefecture_kana":"サイタマケン","city":"北本市","city_kana":"キタモトシ","town":"北本宿","town_kana":"キタモトジュク","prefecture_code":11},"0027":{"zip_code":"3640027","prefecture":"埼玉県","prefecture_kana":"サイタマケン","city":"北本市","city_kana":"キタモトシ","town":"栄","town_kana":"サカエ","prefecture_code":11},"0022":{"zip_code":"3640022","prefecture":"埼玉県","prefecture_kana":"サイタマケン","city":"北本市","city_kana":"キタモトシ","town":"下石戸上","town_kana":"シモイシトカミ","prefecture_code":11},"0023":{"zip_code":"3640023","prefecture":"埼玉県","prefecture_kana":"サイタマケン","city":"北本市","city_kana":"キタモトシ","town":"下石戸下","town_kana":"シモイシトシモ","prefecture_code":11},"0034":{"zip_code":"3640034","prefecture":"埼玉県","prefecture_kana":"サイタマケン","city":"北本市","city_kana":"キタモトシ","town":"高尾","town_kana":"タカオ","prefecture_code":11},"0031":{"zip_code":"3640031","prefecture":"埼玉県","prefecture_kana":"サイタマケン","city":"北本市","city_kana":"キタモトシ","town":"中央","town_kana":"チュウオウ","prefecture_code":11},"0013":{"zip_code":"3640013","prefecture":"埼玉県","prefecture_kana":"サイタマケン","city":"北本市","city_kana":"キタモトシ","town":"中丸","town_kana":"ナカマル","prefecture_code":11},"0035":{"zip_code":"3640035","prefecture":"埼玉県","prefecture_kana":"サイタマケン","city":"北本市","city_kana":"キタモトシ","town":"西高尾","town_kana":"ニシタカオ","prefecture_code":11},"0001":{"zip_code":"3640001","prefecture":"埼玉県","prefecture_kana":"サイタマケン","city":"北本市","city_kana":"キタモトシ","town":"深井","town_kana":"フカイ","prefecture_code":11},"0014":{"zip_code":"3640014","prefecture":"埼玉県","prefecture_kana":"サイタマケン","city":"北本市","city_kana":"キタモトシ","town":"二ツ家","town_kana":"フタツヤ","prefecture_code":11},"0003":{"zip_code":"3640003","prefecture":"埼玉県","prefecture_kana":"サイタマケン","city":"北本市","city_kana":"キタモトシ","town":"古市場","town_kana":"フルイチバ","prefecture_code":11},"0033":{"zip_code":"3640033","prefecture":"埼玉県","prefecture_kana":"サイタマケン","city":"北本市","city_kana":"キタモトシ","town":"本町","town_kana":"ホンチョウ","prefecture_code":11},"0032":{"zip_code":"3640032","prefecture":"埼玉県","prefecture_kana":"サイタマケン","city":"北本市","city_kana":"キタモトシ","town":"緑","town_kana":"ミドリ","prefecture_code":11},"0002":{"zip_code":"3640002","prefecture":"埼玉県","prefecture_kana":"サイタマケン","city":"北本市","city_kana":"キタモトシ","town":"宮内","town_kana":"ミヤウチ","prefecture_code":11},"0005":{"zip_code":"3640005","prefecture":"埼玉県","prefecture_kana":"サイタマケン","city":"北本市","city_kana":"キタモトシ","town":"本宿","town_kana":"モトジュク","prefecture_code":11},"0004":{"zip_code":"3640004","prefecture":"埼玉県","prefecture_kana":"サイタマケン","city":"北本市","city_kana":"キタモトシ","town":"山中","town_kana":"ヤマナカ","prefecture_code":11}}