{"0000":{"zip_code":"3650000","prefecture":"埼玉県","prefecture_kana":"サイタマケン","city":"鴻巣市","city_kana":"コウノスシ","town":"以下に掲載がない場合","town_kana":"イカニケイサイガナイバアイ","prefecture_code":11},"0068":{"zip_code":"3650068","prefecture":"埼玉県","prefecture_kana":"サイタマケン","city":"鴻巣市","city_kana":"コウノスシ","town":"愛の町","town_kana":"アイノマチ","prefecture_code":11},"0002":{"zip_code":"3650002","prefecture":"埼玉県","prefecture_kana":"サイタマケン","city":"鴻巣市","city_kana":"コウノスシ","town":"赤城","town_kana":"アカギ","prefecture_code":11},"0001":{"zip_code":"3650001","prefecture":"埼玉県","prefecture_kana":"サイタマケン","city":"鴻巣市","city_kana":"コウノスシ","town":"赤城台","town_kana":"アカギダイ","prefecture_code":11},"0064":{"zip_code":"3650064","prefecture":"埼玉県","prefecture_kana":"サイタマケン","city":"鴻巣市","city_kana":"コウノスシ","town":"赤見台","town_kana":"アカミダイ","prefecture_code":11},"0011":{"zip_code":"3650011","prefecture":"埼玉県","prefecture_kana":"サイタマケン","city":"鴻巣市","city_kana":"コウノスシ","town":"新井","town_kana":"アライ","prefecture_code":11},"0021":{"zip_code":"3650021","prefecture":"埼玉県","prefecture_kana":"サイタマケン","city":"鴻巣市","city_kana":"コウノスシ","town":"安養寺","town_kana":"アンヨウジ","prefecture_code":11},"0072":{"zip_code":"3650072","prefecture":"埼玉県","prefecture_kana":"サイタマケン","city":"鴻巣市","city_kana":"コウノスシ","town":"市ノ縄","town_kana":"イチノナワ","prefecture_code":11},"0063":{"zip_code":"3650063","prefecture":"埼玉県","prefecture_kana":"サイタマケン","city":"鴻巣市","city_kana":"コウノスシ","town":"稲荷町","town_kana":"イナリチョウ","prefecture_code":11},"0033":{"zip_code":"3650033","prefecture":"埼玉県","prefecture_kana":"サイタマケン","city":"鴻巣市","city_kana":"コウノスシ","town":"生出塚","town_kana":"オイネヅカ","prefecture_code":11},"0054":{"zip_code":"3650054","prefecture":"埼玉県","prefecture_kana":"サイタマケン","city":"鴻巣市","city_kana":"コウノスシ","town":"大間","town_kana":"オオマ","prefecture_code":11},"0023":{"zip_code":"3650023","prefecture":"埼玉県","prefecture_kana":"サイタマケン","city":"鴻巣市","city_kana":"コウノスシ","town":"笠原","town_kana":"カサハラ","prefecture_code":11},"0078":{"zip_code":"3650078","prefecture":"埼玉県","prefecture_kana":"サイタマケン","city":"鴻巣市","city_kana":"コウノスシ","town":"加美","town_kana":"カミ","prefecture_code":11},"0012":{"zip_code":"3650012","prefecture":"埼玉県","prefecture_kana":"サイタマケン","city":"鴻巣市","city_kana":"コウノスシ","town":"上会下","town_kana":"カミエゲ","prefecture_code":11},"0034":{"zip_code":"3650034","prefecture":"埼玉県","prefecture_kana":"サイタマケン","city":"鴻巣市","city_kana":"コウノスシ","town":"上生出塚","town_kana":"カミオイネヅカ","prefecture_code":11},"0027":{"zip_code":"3650027","prefecture":"埼玉県","prefecture_kana":"サイタマケン","city":"鴻巣市","city_kana":"コウノスシ","town":"上谷","town_kana":"カミヤ","prefecture_code":11},"0061":{"zip_code":"3650061","prefecture":"埼玉県","prefecture_kana":"サイタマケン","city":"鴻巣市","city_kana":"コウノスシ","town":"川面","town_kana":"カワヅラ","prefecture_code":11},"0058":{"zip_code":"3650058","prefecture":"埼玉県","prefecture_kana":"サイタマケン","city":"鴻巣市","city_kana":"コウノスシ","town":"北中野","town_kana":"キタナカノ","prefecture_code":11},"0003":{"zip_code":"3650003","prefecture":"埼玉県","prefecture_kana":"サイタマケン","city":"鴻巣市","city_kana":"コウノスシ","town":"北根","town_kana":"キタネ","prefecture_code":11},"0014":{"zip_code":"3650014","prefecture":"埼玉県","prefecture_kana":"サイタマケン","city":"鴻巣市","city_kana":"コウノスシ","town":"屈巣","town_kana":"クス","prefecture_code":11},"0022":{"zip_code":"3650022","prefecture":"埼玉県","prefecture_kana":"サイタマケン","city":"鴻巣市","city_kana":"コウノスシ","town":"郷地","town_kana":"ゴウジ","prefecture_code":11},"0028":{"zip_code":"3650028","prefecture":"埼玉県","prefecture_kana":"サイタマケン","city":"鴻巣市","city_kana":"コウノスシ","town":"鴻巣","town_kana":"コウノス","prefecture_code":11},"0041":{"zip_code":"3650041","prefecture":"埼玉県","prefecture_kana":"サイタマケン","city":"鴻巣市","city_kana":"コウノスシ","town":"小松","town_kana":"コマツ","prefecture_code":11},"0057":{"zip_code":"3650057","prefecture":"埼玉県","prefecture_kana":"サイタマケン","city":"鴻巣市","city_kana":"コウノスシ","town":"幸町","town_kana":"サイワイチョウ","prefecture_code":11},"0013":{"zip_code":"3650013","prefecture":"埼玉県","prefecture_kana":"サイタマケン","city":"鴻巣市","city_kana":"コウノスシ","town":"境","town_kana":"サカイ","prefecture_code":11},"0055":{"zip_code":"3650055","prefecture":"埼玉県","prefecture_kana":"サイタマケン","city":"鴻巣市","city_kana":"コウノスシ","town":"栄町","town_kana":"サカエチョウ","prefecture_code":11},"0047":{"zip_code":"3650047","prefecture":"埼玉県","prefecture_kana":"サイタマケン","city":"鴻巣市","city_kana":"コウノスシ","town":"逆川","town_kana":"サカサガワ","prefecture_code":11},"0035":{"zip_code":"3650035","prefecture":"埼玉県","prefecture_kana":"サイタマケン","city":"鴻巣市","city_kana":"コウノスシ","town":"下生出塚","town_kana":"シモオイネヅカ","prefecture_code":11},"0025":{"zip_code":"3650025","prefecture":"埼玉県","prefecture_kana":"サイタマケン","city":"鴻巣市","city_kana":"コウノスシ","town":"下谷","town_kana":"シモヤ","prefecture_code":11},"0024":{"zip_code":"3650024","prefecture":"埼玉県","prefecture_kana":"サイタマケン","city":"鴻巣市","city_kana":"コウノスシ","town":"常光","town_kana":"ジョウコウ","prefecture_code":11},"0074":{"zip_code":"3650074","prefecture":"埼玉県","prefecture_kana":"サイタマケン","city":"鴻巣市","city_kana":"コウノスシ","town":"神明","town_kana":"シンメイ","prefecture_code":11},"0067":{"zip_code":"3650067","prefecture":"埼玉県","prefecture_kana":"サイタマケン","city":"鴻巣市","city_kana":"コウノスシ","town":"すみれ野","town_kana":"スミレノ","prefecture_code":11},"0004":{"zip_code":"3650004","prefecture":"埼玉県","prefecture_kana":"サイタマケン","city":"鴻巣市","city_kana":"コウノスシ","town":"関新田","town_kana":"セキシンデン","prefecture_code":11},"0044":{"zip_code":"3650044","prefecture":"埼玉県","prefecture_kana":"サイタマケン","city":"鴻巣市","city_kana":"コウノスシ","town":"滝馬室","town_kana":"タキマムロ","prefecture_code":11},"0032":{"zip_code":"3650032","prefecture":"埼玉県","prefecture_kana":"サイタマケン","city":"鴻巣市","city_kana":"コウノスシ","town":"中央","town_kana":"チュウオウ","prefecture_code":11},"0056":{"zip_code":"3650056","prefecture":"埼玉県","prefecture_kana":"サイタマケン","city":"鴻巣市","city_kana":"コウノスシ","town":"堤町","town_kana":"ツツミチョウ","prefecture_code":11},"0071":{"zip_code":"3650071","prefecture":"埼玉県","prefecture_kana":"サイタマケン","city":"鴻巣市","city_kana":"コウノスシ","town":"寺谷","town_kana":"テラヤ","prefecture_code":11},"0036":{"zip_code":"3650036","prefecture":"埼玉県","prefecture_kana":"サイタマケン","city":"鴻巣市","city_kana":"コウノスシ","town":"天神","town_kana":"テンジン","prefecture_code":11},"0065":{"zip_code":"3650065","prefecture":"埼玉県","prefecture_kana":"サイタマケン","city":"鴻巣市","city_kana":"コウノスシ","town":"中井","town_kana":"ナカイ","prefecture_code":11},"0026":{"zip_code":"3650026","prefecture":"埼玉県","prefecture_kana":"サイタマケン","city":"鴻巣市","city_kana":"コウノスシ","town":"西中曽根","town_kana":"ニシナカゾネ","prefecture_code":11},"0037":{"zip_code":"3650037","prefecture":"埼玉県","prefecture_kana":"サイタマケン","city":"鴻巣市","city_kana":"コウノスシ","town":"人形","town_kana":"ニンギョウ","prefecture_code":11},"0059":{"zip_code":"3650059","prefecture":"埼玉県","prefecture_kana":"サイタマケン","city":"鴻巣市","city_kana":"コウノスシ","town":"糠田","town_kana":"ヌカタ","prefecture_code":11},"0052":{"zip_code":"3650052","prefecture":"埼玉県","prefecture_kana":"サイタマケン","city":"鴻巣市","city_kana":"コウノスシ","town":"登戸","town_kana":"ノボリト","prefecture_code":11},"0073":{"zip_code":"3650073","prefecture":"埼玉県","prefecture_kana":"サイタマケン","city":"鴻巣市","city_kana":"コウノスシ","town":"八幡田","town_kana":"ハチマンデン","prefecture_code":11},"0043":{"zip_code":"3650043","prefecture":"埼玉県","prefecture_kana":"サイタマケン","city":"鴻巣市","city_kana":"コウノスシ","town":"原馬室","town_kana":"ハラマムロ","prefecture_code":11},"0045":{"zip_code":"3650045","prefecture":"埼玉県","prefecture_kana":"サイタマケン","city":"鴻巣市","city_kana":"コウノスシ","town":"氷川町","town_kana":"ヒカワチョウ","prefecture_code":11},"0039":{"zip_code":"3650039","prefecture":"埼玉県","prefecture_kana":"サイタマケン","city":"鴻巣市","city_kana":"コウノスシ","town":"東","town_kana":"ヒガシ","prefecture_code":11},"0031":{"zip_code":"3650031","prefecture":"埼玉県","prefecture_kana":"サイタマケン","city":"鴻巣市","city_kana":"コウノスシ","town":"ひばり野","town_kana":"ヒバリノ","prefecture_code":11},"0005":{"zip_code":"3650005","prefecture":"埼玉県","prefecture_kana":"サイタマケン","city":"鴻巣市","city_kana":"コウノスシ","town":"広田","town_kana":"ヒロダ","prefecture_code":11},"0046":{"zip_code":"3650046","prefecture":"埼玉県","prefecture_kana":"サイタマケン","city":"鴻巣市","city_kana":"コウノスシ","town":"富士見町","town_kana":"フジミチョウ","prefecture_code":11},"0038":{"zip_code":"3650038","prefecture":"埼玉県","prefecture_kana":"サイタマケン","city":"鴻巣市","city_kana":"コウノスシ","town":"本町","town_kana":"ホンチョウ","prefecture_code":11},"0076":{"zip_code":"3650076","prefecture":"埼玉県","prefecture_kana":"サイタマケン","city":"鴻巣市","city_kana":"コウノスシ","town":"本宮町","town_kana":"ホンミヤチョウ","prefecture_code":11},"0042":{"zip_code":"3650042","prefecture":"埼玉県","prefecture_kana":"サイタマケン","city":"鴻巣市","city_kana":"コウノスシ","town":"松原","town_kana":"マツバラ","prefecture_code":11},"0062":{"zip_code":"3650062","prefecture":"埼玉県","prefecture_kana":"サイタマケン","city":"鴻巣市","city_kana":"コウノスシ","town":"箕田","town_kana":"ミダ","prefecture_code":11},"0066":{"zip_code":"3650066","prefecture":"埼玉県","prefecture_kana":"サイタマケン","city":"鴻巣市","city_kana":"コウノスシ","town":"三ツ木","town_kana":"ミツギ","prefecture_code":11},"0053":{"zip_code":"3650053","prefecture":"埼玉県","prefecture_kana":"サイタマケン","city":"鴻巣市","city_kana":"コウノスシ","town":"緑町","town_kana":"ミドリチョウ","prefecture_code":11},"0075":{"zip_code":"3650075","prefecture":"埼玉県","prefecture_kana":"サイタマケン","city":"鴻巣市","city_kana":"コウノスシ","town":"宮地","town_kana":"ミヤジ","prefecture_code":11},"0051":{"zip_code":"3650051","prefecture":"埼玉県","prefecture_kana":"サイタマケン","city":"鴻巣市","city_kana":"コウノスシ","town":"宮前","town_kana":"ミヤマエ","prefecture_code":11},"0077":{"zip_code":"3650077","prefecture":"埼玉県","prefecture_kana":"サイタマケン","city":"鴻巣市","city_kana":"コウノスシ","town":"雷電","town_kana":"ライデン","prefecture_code":11}}