{"0000":{"zip_code":"3660000","prefecture":"埼玉県","prefecture_kana":"サイタマケン","city":"深谷市","city_kana":"フカヤシ","town":"","town_kana":"","prefecture_code":11},"0053":{"zip_code":"3660053","prefecture":"埼玉県","prefecture_kana":"サイタマケン","city":"深谷市","city_kana":"フカヤシ","town":"秋元町","town_kana":"アキモトチョウ","prefecture_code":11},"0024":{"zip_code":"3660024","prefecture":"埼玉県","prefecture_kana":"サイタマケン","city":"深谷市","city_kana":"フカヤシ","town":"明戸","town_kana":"アケト","prefecture_code":11},"0016":{"zip_code":"3660016","prefecture":"埼玉県","prefecture_kana":"サイタマケン","city":"深谷市","city_kana":"フカヤシ","town":"新井","town_kana":"アライ","prefecture_code":11},"0011":{"zip_code":"3660011","prefecture":"埼玉県","prefecture_kana":"サイタマケン","city":"深谷市","city_kana":"フカヤシ","town":"石塚","town_kana":"イシヅカ","prefecture_code":11},"0836":{"zip_code":"3660836","prefecture":"埼玉県","prefecture_kana":"サイタマケン","city":"深谷市","city_kana":"フカヤシ","town":"伊勢方","town_kana":"イセガタ","prefecture_code":11},"0026":{"zip_code":"3660026","prefecture":"埼玉県","prefecture_kana":"サイタマケン","city":"深谷市","city_kana":"フカヤシ","town":"稲荷町","town_kana":"イナリチョウ","prefecture_code":11},"0028":{"zip_code":"3660028","prefecture":"埼玉県","prefecture_kana":"サイタマケン","city":"深谷市","city_kana":"フカヤシ","town":"稲荷町北","town_kana":"イナリチョウキタ","prefecture_code":11},"0831":{"zip_code":"3660831","prefecture":"埼玉県","prefecture_kana":"サイタマケン","city":"深谷市","city_kana":"フカヤシ","town":"内ケ島","town_kana":"ウチガシマ","prefecture_code":11},"0801":{"zip_code":"3660801","prefecture":"埼玉県","prefecture_kana":"サイタマケン","city":"深谷市","city_kana":"フカヤシ","town":"上野台","town_kana":"ウワノダイ","prefecture_code":11},"0012":{"zip_code":"3660012","prefecture":"埼玉県","prefecture_kana":"サイタマケン","city":"深谷市","city_kana":"フカヤシ","town":"江原","town_kana":"エバラ","prefecture_code":11},"0838":{"zip_code":"3660838","prefecture":"埼玉県","prefecture_kana":"サイタマケン","city":"深谷市","city_kana":"フカヤシ","town":"大塚島","town_kana":"オオツカジマ","prefecture_code":11},"0003":{"zip_code":"3660003","prefecture":"埼玉県","prefecture_kana":"サイタマケン","city":"深谷市","city_kana":"フカヤシ","town":"大塚","town_kana":"オオヅカ","prefecture_code":11},"0814":{"zip_code":"3660814","prefecture":"埼玉県","prefecture_kana":"サイタマケン","city":"深谷市","city_kana":"フカヤシ","town":"大谷","town_kana":"オオヤ","prefecture_code":11},"0837":{"zip_code":"3660837","prefecture":"埼玉県","prefecture_kana":"サイタマケン","city":"深谷市","city_kana":"フカヤシ","town":"起会","town_kana":"オキアイ","prefecture_code":11},"0812":{"zip_code":"3660812","prefecture":"埼玉県","prefecture_kana":"サイタマケン","city":"深谷市","city_kana":"フカヤシ","town":"折之口","town_kana":"オリノクチ","prefecture_code":11},"0816":{"zip_code":"3660816","prefecture":"埼玉県","prefecture_kana":"サイタマケン","city":"深谷市","city_kana":"フカヤシ","town":"樫合","town_kana":"カシアイ","prefecture_code":11},"0817":{"zip_code":"3660817","prefecture":"埼玉県","prefecture_kana":"サイタマケン","city":"深谷市","city_kana":"フカヤシ","town":"柏合","town_kana":"カシアイ","prefecture_code":11},"0051":{"zip_code":"3660051","prefecture":"埼玉県","prefecture_kana":"サイタマケン","city":"深谷市","city_kana":"フカヤシ","town":"上柴町東","town_kana":"カミシバチョウヒガシ","prefecture_code":11},"0052":{"zip_code":"3660052","prefecture":"埼玉県","prefecture_kana":"サイタマケン","city":"深谷市","city_kana":"フカヤシ","town":"上柴町西","town_kana":"カミシバチョウニシ","prefecture_code":11},"0004":{"zip_code":"3660004","prefecture":"埼玉県","prefecture_kana":"サイタマケン","city":"深谷市","city_kana":"フカヤシ","town":"上手計","town_kana":"カミテバカ","prefecture_code":11},"0021":{"zip_code":"3660021","prefecture":"埼玉県","prefecture_kana":"サイタマケン","city":"深谷市","city_kana":"フカヤシ","town":"上増田","town_kana":"カミマスダ","prefecture_code":11},"0818":{"zip_code":"3660818","prefecture":"埼玉県","prefecture_kana":"サイタマケン","city":"深谷市","city_kana":"フカヤシ","town":"萱場","town_kana":"カヤバ","prefecture_code":11},"0008":{"zip_code":"3660008","prefecture":"埼玉県","prefecture_kana":"サイタマケン","city":"深谷市","city_kana":"フカヤシ","town":"北阿賀野","town_kana":"キタアガノ","prefecture_code":11},"0815":{"zip_code":"3660815","prefecture":"埼玉県","prefecture_kana":"サイタマケン","city":"深谷市","city_kana":"フカヤシ","town":"櫛引","town_kana":"クシビキ","prefecture_code":11},"0033":{"zip_code":"3660033","prefecture":"埼玉県","prefecture_kana":"サイタマケン","city":"深谷市","city_kana":"フカヤシ","town":"国済寺","town_kana":"コクサイジ","prefecture_code":11},"0031":{"zip_code":"3660031","prefecture":"埼玉県","prefecture_kana":"サイタマケン","city":"深谷市","city_kana":"フカヤシ","town":"国済寺町","town_kana":"コクサイジチョウ","prefecture_code":11},"0025":{"zip_code":"3660025","prefecture":"埼玉県","prefecture_kana":"サイタマケン","city":"深谷市","city_kana":"フカヤシ","town":"寿町","town_kana":"コトブキチョウ","prefecture_code":11},"0813":{"zip_code":"3660813","prefecture":"埼玉県","prefecture_kana":"サイタマケン","city":"深谷市","city_kana":"フカヤシ","town":"境","town_kana":"サカイ","prefecture_code":11},"0827":{"zip_code":"3660827","prefecture":"埼玉県","prefecture_kana":"サイタマケン","city":"深谷市","city_kana":"フカヤシ","town":"栄町","town_kana":"サカエチョウ","prefecture_code":11},"0802":{"zip_code":"3660802","prefecture":"埼玉県","prefecture_kana":"サイタマケン","city":"深谷市","city_kana":"フカヤシ","town":"桜ケ丘","town_kana":"サクラガオカ","prefecture_code":11},"0002":{"zip_code":"3660002","prefecture":"埼玉県","prefecture_kana":"サイタマケン","city":"深谷市","city_kana":"フカヤシ","town":"下手計","town_kana":"シモテバカ","prefecture_code":11},"0810":{"zip_code":"3660810","prefecture":"埼玉県","prefecture_kana":"サイタマケン","city":"深谷市","city_kana":"フカヤシ","town":"宿根","town_kana":"シュクネ","prefecture_code":11},"0029":{"zip_code":"3660029","prefecture":"埼玉県","prefecture_kana":"サイタマケン","city":"深谷市","city_kana":"フカヤシ","town":"上敷免","town_kana":"ジョウシキメン","prefecture_code":11},"0019":{"zip_code":"3660019","prefecture":"埼玉県","prefecture_kana":"サイタマケン","city":"深谷市","city_kana":"フカヤシ","town":"新戒","town_kana":"シンガイ","prefecture_code":11},"0010":{"zip_code":"3660010","prefecture":"埼玉県","prefecture_kana":"サイタマケン","city":"深谷市","city_kana":"フカヤシ","town":"高島","town_kana":"タカシマ","prefecture_code":11},"0832":{"zip_code":"3660832","prefecture":"埼玉県","prefecture_kana":"サイタマケン","city":"深谷市","city_kana":"フカヤシ","town":"高畑","town_kana":"タカバタケ","prefecture_code":11},"0826":{"zip_code":"3660826","prefecture":"埼玉県","prefecture_kana":"サイタマケン","city":"深谷市","city_kana":"フカヤシ","town":"田所町","town_kana":"タドコロチョウ","prefecture_code":11},"0821":{"zip_code":"3660821","prefecture":"埼玉県","prefecture_kana":"サイタマケン","city":"深谷市","city_kana":"フカヤシ","town":"田谷","town_kana":"タヤ","prefecture_code":11},"0006":{"zip_code":"3660006","prefecture":"埼玉県","prefecture_kana":"サイタマケン","city":"深谷市","city_kana":"フカヤシ","town":"血洗島","town_kana":"チアライジマ","prefecture_code":11},"0027":{"zip_code":"3660027","prefecture":"埼玉県","prefecture_kana":"サイタマケン","city":"深谷市","city_kana":"フカヤシ","town":"天神町","town_kana":"テンジンチョウ","prefecture_code":11},"0034":{"zip_code":"3660034","prefecture":"埼玉県","prefecture_kana":"サイタマケン","city":"深谷市","city_kana":"フカヤシ","town":"常盤町","town_kana":"トキワチョウ","prefecture_code":11},"0833":{"zip_code":"3660833","prefecture":"埼玉県","prefecture_kana":"サイタマケン","city":"深谷市","city_kana":"フカヤシ","town":"戸森","town_kana":"トモリ","prefecture_code":11},"0001":{"zip_code":"3660001","prefecture":"埼玉県","prefecture_kana":"サイタマケン","city":"深谷市","city_kana":"フカヤシ","town":"中瀬","town_kana":"ナカゼ","prefecture_code":11},"0822":{"zip_code":"3660822","prefecture":"埼玉県","prefecture_kana":"サイタマケン","city":"深谷市","city_kana":"フカヤシ","town":"仲町","town_kana":"ナカチョウ","prefecture_code":11},"0018":{"zip_code":"3660018","prefecture":"埼玉県","prefecture_kana":"サイタマケン","city":"深谷市","city_kana":"フカヤシ","town":"成塚","town_kana":"ナリヅカ","prefecture_code":11},"0829":{"zip_code":"3660829","prefecture":"埼玉県","prefecture_kana":"サイタマケン","city":"深谷市","city_kana":"フカヤシ","town":"西大沼","town_kana":"ニシオオヌマ","prefecture_code":11},"0824":{"zip_code":"3660824","prefecture":"埼玉県","prefecture_kana":"サイタマケン","city":"深谷市","city_kana":"フカヤシ","town":"西島町西島","town_kana":"ニシジマチョウニシジマ","prefecture_code":11},"0017":{"zip_code":"3660017","prefecture":"埼玉県","prefecture_kana":"サイタマケン","city":"深谷市","city_kana":"フカヤシ","town":"沼尻","town_kana":"ヌマジリ","prefecture_code":11},"0015":{"zip_code":"3660015","prefecture":"埼玉県","prefecture_kana":"サイタマケン","city":"深谷市","city_kana":"フカヤシ","town":"蓮沼","town_kana":"ハスヌマ","prefecture_code":11},"0032":{"zip_code":"3660032","prefecture":"埼玉県","prefecture_kana":"サイタマケン","city":"深谷市","city_kana":"フカヤシ","town":"幡羅町","town_kana":"ハタラチョウ","prefecture_code":11},"0035":{"zip_code":"3660035","prefecture":"埼玉県","prefecture_kana":"サイタマケン","city":"深谷市","city_kana":"フカヤシ","town":"原郷","town_kana":"ハラゴウ","prefecture_code":11},"0828":{"zip_code":"3660828","prefecture":"埼玉県","prefecture_kana":"サイタマケン","city":"深谷市","city_kana":"フカヤシ","town":"東大沼","town_kana":"ヒガシオオヌマ","prefecture_code":11},"0041":{"zip_code":"3660041","prefecture":"埼玉県","prefecture_kana":"サイタマケン","city":"深谷市","city_kana":"フカヤシ","town":"東方","town_kana":"ヒガシガタ","prefecture_code":11},"0042":{"zip_code":"3660042","prefecture":"埼玉県","prefecture_kana":"サイタマケン","city":"深谷市","city_kana":"フカヤシ","town":"東方町","town_kana":"ヒガシガタチョウ","prefecture_code":11},"0811":{"zip_code":"3660811","prefecture":"埼玉県","prefecture_kana":"サイタマケン","city":"深谷市","city_kana":"フカヤシ","town":"人見","town_kana":"ヒトミ","prefecture_code":11},"0825":{"zip_code":"3660825","prefecture":"埼玉県","prefecture_kana":"サイタマケン","city":"深谷市","city_kana":"フカヤシ","town":"深谷町","town_kana":"フカヤチョウ","prefecture_code":11},"0014":{"zip_code":"3660014","prefecture":"埼玉県","prefecture_kana":"サイタマケン","city":"深谷市","city_kana":"フカヤシ","town":"藤野木","town_kana":"フジノキ","prefecture_code":11},"0061":{"zip_code":"3660061","prefecture":"埼玉県","prefecture_kana":"サイタマケン","city":"深谷市","city_kana":"フカヤシ","town":"二ツ小屋","town_kana":"フタツゴヤ","prefecture_code":11},"0013":{"zip_code":"3660013","prefecture":"埼玉県","prefecture_kana":"サイタマケン","city":"深谷市","city_kana":"フカヤシ","town":"堀米","town_kana":"ホリゴメ","prefecture_code":11},"0022":{"zip_code":"3660022","prefecture":"埼玉県","prefecture_kana":"サイタマケン","city":"深谷市","city_kana":"フカヤシ","town":"本田ケ谷","town_kana":"ホンダガヤ","prefecture_code":11},"0062":{"zip_code":"3660062","prefecture":"埼玉県","prefecture_kana":"サイタマケン","city":"深谷市","city_kana":"フカヤシ","town":"前小屋","town_kana":"マエゴヤ","prefecture_code":11},"0834":{"zip_code":"3660834","prefecture":"埼玉県","prefecture_kana":"サイタマケン","city":"深谷市","city_kana":"フカヤシ","town":"曲田錦町","town_kana":"マガツタニシキマチ","prefecture_code":11},"0005":{"zip_code":"3660005","prefecture":"埼玉県","prefecture_kana":"サイタマケン","city":"深谷市","city_kana":"フカヤシ","town":"町田","town_kana":"マチダ","prefecture_code":11},"0054":{"zip_code":"3660054","prefecture":"埼玉県","prefecture_kana":"サイタマケン","city":"深谷市","city_kana":"フカヤシ","town":"緑ケ丘","town_kana":"ミドリガオカ","prefecture_code":11},"0007":{"zip_code":"3660007","prefecture":"埼玉県","prefecture_kana":"サイタマケン","city":"深谷市","city_kana":"フカヤシ","town":"南阿賀野","town_kana":"ミナミアガノ","prefecture_code":11},"0819":{"zip_code":"3660819","prefecture":"埼玉県","prefecture_kana":"サイタマケン","city":"深谷市","city_kana":"フカヤシ","town":"見晴町","town_kana":"ミハラシチョウ","prefecture_code":11},"0023":{"zip_code":"3660023","prefecture":"埼玉県","prefecture_kana":"サイタマケン","city":"深谷市","city_kana":"フカヤシ","town":"宮ケ谷戸","town_kana":"ミヤガヤト","prefecture_code":11},"0823":{"zip_code":"3660823","prefecture":"埼玉県","prefecture_kana":"サイタマケン","city":"深谷市","city_kana":"フカヤシ","town":"本住町","town_kana":"モトスミチョウ","prefecture_code":11},"0839":{"zip_code":"3660839","prefecture":"埼玉県","prefecture_kana":"サイタマケン","city":"深谷市","city_kana":"フカヤシ","town":"矢島","town_kana":"ヤジマ","prefecture_code":11},"0835":{"zip_code":"3660835","prefecture":"埼玉県","prefecture_kana":"サイタマケン","city":"深谷市","city_kana":"フカヤシ","town":"谷之","town_kana":"ヤノ","prefecture_code":11},"0009":{"zip_code":"3660009","prefecture":"埼玉県","prefecture_kana":"サイタマケン","city":"深谷市","city_kana":"フカヤシ","town":"横瀬","town_kana":"ヨコゼ","prefecture_code":11}}