{"0000":{"zip_code":"3670000","prefecture":"埼玉県","prefecture_kana":"サイタマケン","city":"本庄市","city_kana":"ホンジョウシ","town":"以下に掲載がない場合","town_kana":"イカニケイサイガナイバアイ","prefecture_code":11},"0026":{"zip_code":"3670026","prefecture":"埼玉県","prefecture_kana":"サイタマケン","city":"本庄市","city_kana":"ホンジョウシ","town":"朝日町","town_kana":"アサヒチョウ","prefecture_code":11},"0075":{"zip_code":"3670075","prefecture":"埼玉県","prefecture_kana":"サイタマケン","city":"本庄市","city_kana":"ホンジョウシ","town":"新井","town_kana":"アライ","prefecture_code":11},"0027":{"zip_code":"3670027","prefecture":"埼玉県","prefecture_kana":"サイタマケン","city":"本庄市","city_kana":"ホンジョウシ","town":"五十子","town_kana":"イカッコ","prefecture_code":11},"0036":{"zip_code":"3670036","prefecture":"埼玉県","prefecture_kana":"サイタマケン","city":"本庄市","city_kana":"ホンジョウシ","town":"今井","town_kana":"イマイ","prefecture_code":11},"0038":{"zip_code":"3670038","prefecture":"埼玉県","prefecture_kana":"サイタマケン","city":"本庄市","city_kana":"ホンジョウシ","town":"いまい台","town_kana":"イマイダイ","prefecture_code":11},"0016":{"zip_code":"3670016","prefecture":"埼玉県","prefecture_kana":"サイタマケン","city":"本庄市","city_kana":"ホンジョウシ","town":"鵜森","town_kana":"ウノモリ","prefecture_code":11},"0041":{"zip_code":"3670041","prefecture":"埼玉県","prefecture_kana":"サイタマケン","city":"本庄市","city_kana":"ホンジョウシ","town":"駅南","town_kana":"エキナン","prefecture_code":11},"0061":{"zip_code":"3670061","prefecture":"埼玉県","prefecture_kana":"サイタマケン","city":"本庄市","city_kana":"ホンジョウシ","town":"小島","town_kana":"オジマ","prefecture_code":11},"0062":{"zip_code":"3670062","prefecture":"埼玉県","prefecture_kana":"サイタマケン","city":"本庄市","city_kana":"ホンジョウシ","town":"小島南","town_kana":"オジマミナミ","prefecture_code":11},"0045":{"zip_code":"3670045","prefecture":"埼玉県","prefecture_kana":"サイタマケン","city":"本庄市","city_kana":"ホンジョウシ","town":"柏","town_kana":"カシワ","prefecture_code":11},"0007":{"zip_code":"3670007","prefecture":"埼玉県","prefecture_kana":"サイタマケン","city":"本庄市","city_kana":"ホンジョウシ","town":"上仁手","town_kana":"カミニッテ","prefecture_code":11},"0031":{"zip_code":"3670031","prefecture":"埼玉県","prefecture_kana":"サイタマケン","city":"本庄市","city_kana":"ホンジョウシ","town":"北堀","town_kana":"キタボリ","prefecture_code":11},"0037":{"zip_code":"3670037","prefecture":"埼玉県","prefecture_kana":"サイタマケン","city":"本庄市","city_kana":"ホンジョウシ","town":"共栄","town_kana":"キョウエイ","prefecture_code":11},"0052":{"zip_code":"3670052","prefecture":"埼玉県","prefecture_kana":"サイタマケン","city":"本庄市","city_kana":"ホンジョウシ","town":"銀座","town_kana":"ギンザ","prefecture_code":11},"0005":{"zip_code":"3670005","prefecture":"埼玉県","prefecture_kana":"サイタマケン","city":"本庄市","city_kana":"ホンジョウシ","town":"久々宇","town_kana":"クグウ","prefecture_code":11},"0032":{"zip_code":"3670032","prefecture":"埼玉県","prefecture_kana":"サイタマケン","city":"本庄市","city_kana":"ホンジョウシ","town":"栗崎","town_kana":"クリザキ","prefecture_code":11},"0042":{"zip_code":"3670042","prefecture":"埼玉県","prefecture_kana":"サイタマケン","city":"本庄市","city_kana":"ホンジョウシ","town":"けや木","town_kana":"ケヤキ","prefecture_code":11},"0044":{"zip_code":"3670044","prefecture":"埼玉県","prefecture_kana":"サイタマケン","city":"本庄市","city_kana":"ホンジョウシ","town":"見福","town_kana":"ケンプク","prefecture_code":11},"0213":{"zip_code":"3670213","prefecture":"埼玉県","prefecture_kana":"サイタマケン","city":"本庄市","city_kana":"ホンジョウシ","town":"児玉町秋山","town_kana":"コダマチョウアキヤマ","prefecture_code":11},"0225":{"zip_code":"3670225","prefecture":"埼玉県","prefecture_kana":"サイタマケン","city":"本庄市","city_kana":"ホンジョウシ","town":"児玉町飯倉","town_kana":"コダマチョウイイグラ","prefecture_code":11},"0251":{"zip_code":"3670251","prefecture":"埼玉県","prefecture_kana":"サイタマケン","city":"本庄市","city_kana":"ホンジョウシ","town":"児玉町稲沢","town_kana":"コダマチョウイナザワ","prefecture_code":11},"0203":{"zip_code":"3670203","prefecture":"埼玉県","prefecture_kana":"サイタマケン","city":"本庄市","city_kana":"ホンジョウシ","town":"児玉町入浅見","town_kana":"コダマチョウイリアザミ","prefecture_code":11},"0254":{"zip_code":"3670254","prefecture":"埼玉県","prefecture_kana":"サイタマケン","city":"本庄市","city_kana":"ホンジョウシ","town":"児玉町太駄","town_kana":"コダマチョウオオダ","prefecture_code":11},"0216":{"zip_code":"3670216","prefecture":"埼玉県","prefecture_kana":"サイタマケン","city":"本庄市","city_kana":"ホンジョウシ","town":"児玉町金屋","town_kana":"コダマチョウカナヤ","prefecture_code":11},"0205":{"zip_code":"3670205","prefecture":"埼玉県","prefecture_kana":"サイタマケン","city":"本庄市","city_kana":"ホンジョウシ","town":"児玉町上真下","town_kana":"コダマチョウカミマシモ","prefecture_code":11},"0211":{"zip_code":"3670211","prefecture":"埼玉県","prefecture_kana":"サイタマケン","city":"本庄市","city_kana":"ホンジョウシ","town":"児玉町吉田林","town_kana":"コダマチョウキタバヤシ","prefecture_code":11},"0206":{"zip_code":"3670206","prefecture":"埼玉県","prefecture_kana":"サイタマケン","city":"本庄市","city_kana":"ホンジョウシ","town":"児玉町共栄","town_kana":"コダマチョウキョウエイ","prefecture_code":11},"0252":{"zip_code":"3670252","prefecture":"埼玉県","prefecture_kana":"サイタマケン","city":"本庄市","city_kana":"ホンジョウシ","town":"児玉町元田","town_kana":"コダマチョウゲンダ","prefecture_code":11},"0253":{"zip_code":"3670253","prefecture":"埼玉県","prefecture_kana":"サイタマケン","city":"本庄市","city_kana":"ホンジョウシ","town":"児玉町河内","town_kana":"コダマチョウコウチ","prefecture_code":11},"0214":{"zip_code":"3670214","prefecture":"埼玉県","prefecture_kana":"サイタマケン","city":"本庄市","city_kana":"ホンジョウシ","town":"児玉町小平","town_kana":"コダマチョウコダイラ","prefecture_code":11},"0212":{"zip_code":"3670212","prefecture":"埼玉県","prefecture_kana":"サイタマケン","city":"本庄市","city_kana":"ホンジョウシ","town":"児玉町児玉","town_kana":"コダマチョウコダマ","prefecture_code":11},"0218":{"zip_code":"3670218","prefecture":"埼玉県","prefecture_kana":"サイタマケン","city":"本庄市","city_kana":"ホンジョウシ","town":"児玉町児玉南","town_kana":"コダマチョウコダマミナミ","prefecture_code":11},"0223":{"zip_code":"3670223","prefecture":"埼玉県","prefecture_kana":"サイタマケン","city":"本庄市","city_kana":"ホンジョウシ","town":"児玉町塩谷","town_kana":"コダマチョウシオヤ","prefecture_code":11},"0202":{"zip_code":"3670202","prefecture":"埼玉県","prefecture_kana":"サイタマケン","city":"本庄市","city_kana":"ホンジョウシ","town":"児玉町下浅見","town_kana":"コダマチョウシモアザミ","prefecture_code":11},"0207":{"zip_code":"3670207","prefecture":"埼玉県","prefecture_kana":"サイタマケン","city":"本庄市","city_kana":"ホンジョウシ","town":"児玉町下真下","town_kana":"コダマチョウシモマシモ","prefecture_code":11},"0201":{"zip_code":"3670201","prefecture":"埼玉県","prefecture_kana":"サイタマケン","city":"本庄市","city_kana":"ホンジョウシ","town":"児玉町高関","town_kana":"コダマチョウタカゼキ","prefecture_code":11},"0224":{"zip_code":"3670224","prefecture":"埼玉県","prefecture_kana":"サイタマケン","city":"本庄市","city_kana":"ホンジョウシ","town":"児玉町高柳","town_kana":"コダマチョウタカヤナギ","prefecture_code":11},"0222":{"zip_code":"3670222","prefecture":"埼玉県","prefecture_kana":"サイタマケン","city":"本庄市","city_kana":"ホンジョウシ","town":"児玉町田端","town_kana":"コダマチョウタバタ","prefecture_code":11},"0215":{"zip_code":"3670215","prefecture":"埼玉県","prefecture_kana":"サイタマケン","city":"本庄市","city_kana":"ホンジョウシ","town":"児玉町長沖","town_kana":"コダマチョウナガオキ","prefecture_code":11},"0217":{"zip_code":"3670217","prefecture":"埼玉県","prefecture_kana":"サイタマケン","city":"本庄市","city_kana":"ホンジョウシ","town":"児玉町八幡山","town_kana":"コダマチョウハチマンヤマ","prefecture_code":11},"0204":{"zip_code":"3670204","prefecture":"埼玉県","prefecture_kana":"サイタマケン","city":"本庄市","city_kana":"ホンジョウシ","town":"児玉町蛭川","town_kana":"コダマチョウヒルガワ","prefecture_code":11},"0221":{"zip_code":"3670221","prefecture":"埼玉県","prefecture_kana":"サイタマケン","city":"本庄市","city_kana":"ホンジョウシ","town":"児玉町保木野","town_kana":"コダマチョウホキノ","prefecture_code":11},"0226":{"zip_code":"3670226","prefecture":"埼玉県","prefecture_kana":"サイタマケン","city":"本庄市","city_kana":"ホンジョウシ","town":"児玉町宮内","town_kana":"コダマチョウミヤウチ","prefecture_code":11},"0023":{"zip_code":"3670023","prefecture":"埼玉県","prefecture_kana":"サイタマケン","city":"本庄市","city_kana":"ホンジョウシ","town":"寿","town_kana":"コトブキ","prefecture_code":11},"0011":{"zip_code":"3670011","prefecture":"埼玉県","prefecture_kana":"サイタマケン","city":"本庄市","city_kana":"ホンジョウシ","town":"小和瀬","town_kana":"コワゼ","prefecture_code":11},"0046":{"zip_code":"3670046","prefecture":"埼玉県","prefecture_kana":"サイタマケン","city":"本庄市","city_kana":"ホンジョウシ","town":"栄","town_kana":"サカエ","prefecture_code":11},"0071":{"zip_code":"3670071","prefecture":"埼玉県","prefecture_kana":"サイタマケン","city":"本庄市","city_kana":"ホンジョウシ","town":"山王堂","town_kana":"サンノウドウ","prefecture_code":11},"0039":{"zip_code":"3670039","prefecture":"埼玉県","prefecture_kana":"サイタマケン","city":"本庄市","city_kana":"ホンジョウシ","town":"四季の里","town_kana":"シキノサト","prefecture_code":11},"0034":{"zip_code":"3670034","prefecture":"埼玉県","prefecture_kana":"サイタマケン","city":"本庄市","city_kana":"ホンジョウシ","town":"四方田","town_kana":"シホウデン","prefecture_code":11},"0001":{"zip_code":"3670001","prefecture":"埼玉県","prefecture_kana":"サイタマケン","city":"本庄市","city_kana":"ホンジョウシ","town":"下仁手","town_kana":"シモニツテ","prefecture_code":11},"0063":{"zip_code":"3670063","prefecture":"埼玉県","prefecture_kana":"サイタマケン","city":"本庄市","city_kana":"ホンジョウシ","town":"下野堂","town_kana":"シモノドウ","prefecture_code":11},"0074":{"zip_code":"3670074","prefecture":"埼玉県","prefecture_kana":"サイタマケン","city":"本庄市","city_kana":"ホンジョウシ","town":"杉山","town_kana":"スギヤマ","prefecture_code":11},"0018":{"zip_code":"3670018","prefecture":"埼玉県","prefecture_kana":"サイタマケン","city":"本庄市","city_kana":"ホンジョウシ","town":"諏訪町","town_kana":"スワチョウ","prefecture_code":11},"0003":{"zip_code":"3670003","prefecture":"埼玉県","prefecture_kana":"サイタマケン","city":"本庄市","city_kana":"ホンジョウシ","town":"台町","town_kana":"ダイマチ","prefecture_code":11},"0013":{"zip_code":"3670013","prefecture":"埼玉県","prefecture_kana":"サイタマケン","city":"本庄市","city_kana":"ホンジョウシ","town":"滝瀬","town_kana":"タキセ","prefecture_code":11},"0006":{"zip_code":"3670006","prefecture":"埼玉県","prefecture_kana":"サイタマケン","city":"本庄市","city_kana":"ホンジョウシ","town":"田中","town_kana":"タナカ","prefecture_code":11},"0053":{"zip_code":"3670053","prefecture":"埼玉県","prefecture_kana":"サイタマケン","city":"本庄市","city_kana":"ホンジョウシ","town":"中央","town_kana":"チュウオウ","prefecture_code":11},"0054":{"zip_code":"3670054","prefecture":"埼玉県","prefecture_kana":"サイタマケン","city":"本庄市","city_kana":"ホンジョウシ","town":"千代田","town_kana":"チヨダ","prefecture_code":11},"0056":{"zip_code":"3670056","prefecture":"埼玉県","prefecture_kana":"サイタマケン","city":"本庄市","city_kana":"ホンジョウシ","town":"照若町","town_kana":"テルワカチョウ","prefecture_code":11},"0025":{"zip_code":"3670025","prefecture":"埼玉県","prefecture_kana":"サイタマケン","city":"本庄市","city_kana":"ホンジョウシ","town":"西五十子","town_kana":"ニシイカツコ","prefecture_code":11},"0035":{"zip_code":"3670035","prefecture":"埼玉県","prefecture_kana":"サイタマケン","city":"本庄市","city_kana":"ホンジョウシ","town":"西富田","town_kana":"ニシトミダ","prefecture_code":11},"0002":{"zip_code":"3670002","prefecture":"埼玉県","prefecture_kana":"サイタマケン","city":"本庄市","city_kana":"ホンジョウシ","town":"仁手","town_kana":"ニッテ","prefecture_code":11},"0072":{"zip_code":"3670072","prefecture":"埼玉県","prefecture_kana":"サイタマケン","city":"本庄市","city_kana":"ホンジョウシ","town":"沼和田","town_kana":"ヌマワダ","prefecture_code":11},"0024":{"zip_code":"3670024","prefecture":"埼玉県","prefecture_kana":"サイタマケン","city":"本庄市","city_kana":"ホンジョウシ","town":"東五十子","town_kana":"ヒガシイカツコ","prefecture_code":11},"0021":{"zip_code":"3670021","prefecture":"埼玉県","prefecture_kana":"サイタマケン","city":"本庄市","city_kana":"ホンジョウシ","town":"東台","town_kana":"ヒガシダイ","prefecture_code":11},"0033":{"zip_code":"3670033","prefecture":"埼玉県","prefecture_kana":"サイタマケン","city":"本庄市","city_kana":"ホンジョウシ","town":"東富田","town_kana":"ヒガシトミダ","prefecture_code":11},"0022":{"zip_code":"3670022","prefecture":"埼玉県","prefecture_kana":"サイタマケン","city":"本庄市","city_kana":"ホンジョウシ","town":"日の出","town_kana":"ヒノデ","prefecture_code":11},"0017":{"zip_code":"3670017","prefecture":"埼玉県","prefecture_kana":"サイタマケン","city":"本庄市","city_kana":"ホンジョウシ","town":"傍示堂","town_kana":"ホウジドウ","prefecture_code":11},"0014":{"zip_code":"3670014","prefecture":"埼玉県","prefecture_kana":"サイタマケン","city":"本庄市","city_kana":"ホンジョウシ","town":"堀田","town_kana":"ホッタ","prefecture_code":11},"0051":{"zip_code":"3670051","prefecture":"埼玉県","prefecture_kana":"サイタマケン","city":"本庄市","city_kana":"ホンジョウシ","town":"本庄","town_kana":"ホンジョウ","prefecture_code":11},"0047":{"zip_code":"3670047","prefecture":"埼玉県","prefecture_kana":"サイタマケン","city":"本庄市","city_kana":"ホンジョウシ","town":"前原","town_kana":"マエハラ","prefecture_code":11},"0064":{"zip_code":"3670064","prefecture":"埼玉県","prefecture_kana":"サイタマケン","city":"本庄市","city_kana":"ホンジョウシ","town":"万年寺","town_kana":"マンネンジ","prefecture_code":11},"0043":{"zip_code":"3670043","prefecture":"埼玉県","prefecture_kana":"サイタマケン","city":"本庄市","city_kana":"ホンジョウシ","town":"緑","town_kana":"ミドリ","prefecture_code":11},"0048":{"zip_code":"3670048","prefecture":"埼玉県","prefecture_kana":"サイタマケン","city":"本庄市","city_kana":"ホンジョウシ","town":"南","town_kana":"ミナミ","prefecture_code":11},"0073":{"zip_code":"3670073","prefecture":"埼玉県","prefecture_kana":"サイタマケン","city":"本庄市","city_kana":"ホンジョウシ","town":"都島","town_kana":"ミヤコジマ","prefecture_code":11},"0012":{"zip_code":"3670012","prefecture":"埼玉県","prefecture_kana":"サイタマケン","city":"本庄市","city_kana":"ホンジョウシ","town":"宮戸","town_kana":"ミヤド","prefecture_code":11},"0015":{"zip_code":"3670015","prefecture":"埼玉県","prefecture_kana":"サイタマケン","city":"本庄市","city_kana":"ホンジョウシ","town":"牧西","town_kana":"モクサイ","prefecture_code":11},"0004":{"zip_code":"3670004","prefecture":"埼玉県","prefecture_kana":"サイタマケン","city":"本庄市","city_kana":"ホンジョウシ","town":"本町","town_kana":"モトマチ","prefecture_code":11},"0055":{"zip_code":"3670055","prefecture":"埼玉県","prefecture_kana":"サイタマケン","city":"本庄市","city_kana":"ホンジョウシ","town":"若泉","town_kana":"ワカイズミ","prefecture_code":11},"0030":{"zip_code":"3670030","prefecture":"埼玉県","prefecture_kana":"サイタマケン","city":"本庄市","city_kana":"ホンジョウシ","town":"早稲田の杜","town_kana":"ワセダノモリ","prefecture_code":11},"0100":{"zip_code":"3670100","prefecture":"埼玉県","prefecture_kana":"サイタマケン","city":"児玉郡美里町","city_kana":"コダマグンミサトマチ","town":"以下に掲載がない場合","town_kana":"イカニケイサイガナイバアイ","prefecture_code":11},"0103":{"zip_code":"3670103","prefecture":"埼玉県","prefecture_kana":"サイタマケン","city":"児玉郡美里町","city_kana":"コダマグンミサトマチ","town":"阿那志","town_kana":"アナシ","prefecture_code":11},"0113":{"zip_code":"3670113","prefecture":"埼玉県","prefecture_kana":"サイタマケン","city":"児玉郡美里町","city_kana":"コダマグンミサトマチ","town":"甘粕","town_kana":"アマガス","prefecture_code":11},"0115":{"zip_code":"3670115","prefecture":"埼玉県","prefecture_kana":"サイタマケン","city":"児玉郡美里町","city_kana":"コダマグンミサトマチ","town":"猪俣","town_kana":"イノマタ","prefecture_code":11},"0107":{"zip_code":"3670107","prefecture":"埼玉県","prefecture_kana":"サイタマケン","city":"児玉郡美里町","city_kana":"コダマグンミサトマチ","town":"北十条","town_kana":"キタジュウジョウ","prefecture_code":11},"0112":{"zip_code":"3670112","prefecture":"埼玉県","prefecture_kana":"サイタマケン","city":"児玉郡美里町","city_kana":"コダマグンミサトマチ","town":"木部","town_kana":"キベ","prefecture_code":11},"0119":{"zip_code":"3670119","prefecture":"埼玉県","prefecture_kana":"サイタマケン","city":"児玉郡美里町","city_kana":"コダマグンミサトマチ","town":"駒衣","town_kana":"コマギヌ","prefecture_code":11},"0101":{"zip_code":"3670101","prefecture":"埼玉県","prefecture_kana":"サイタマケン","city":"児玉郡美里町","city_kana":"コダマグンミサトマチ","town":"小茂田","town_kana":"コモダ","prefecture_code":11},"0108":{"zip_code":"3670108","prefecture":"埼玉県","prefecture_kana":"サイタマケン","city":"児玉郡美里町","city_kana":"コダマグンミサトマチ","town":"下児玉","town_kana":"シモコダマ","prefecture_code":11},"0117":{"zip_code":"3670117","prefecture":"埼玉県","prefecture_kana":"サイタマケン","city":"児玉郡美里町","city_kana":"コダマグンミサトマチ","town":"白石","town_kana":"シロイシ","prefecture_code":11},"0102":{"zip_code":"3670102","prefecture":"埼玉県","prefecture_kana":"サイタマケン","city":"児玉郡美里町","city_kana":"コダマグンミサトマチ","town":"関","town_kana":"セキ","prefecture_code":11},"0116":{"zip_code":"3670116","prefecture":"埼玉県","prefecture_kana":"サイタマケン","city":"児玉郡美里町","city_kana":"コダマグンミサトマチ","town":"円良田","town_kana":"ツブラタ","prefecture_code":11},"0114":{"zip_code":"3670114","prefecture":"埼玉県","prefecture_kana":"サイタマケン","city":"児玉郡美里町","city_kana":"コダマグンミサトマチ","town":"中里","town_kana":"ナカザト","prefecture_code":11},"0105":{"zip_code":"3670105","prefecture":"埼玉県","prefecture_kana":"サイタマケン","city":"児玉郡美里町","city_kana":"コダマグンミサトマチ","town":"沼上","town_kana":"ヌマガミ","prefecture_code":11},"0104":{"zip_code":"3670104","prefecture":"埼玉県","prefecture_kana":"サイタマケン","city":"児玉郡美里町","city_kana":"コダマグンミサトマチ","town":"根木","town_kana":"ネギ","prefecture_code":11},"0118":{"zip_code":"3670118","prefecture":"埼玉県","prefecture_kana":"サイタマケン","city":"児玉郡美里町","city_kana":"コダマグンミサトマチ","town":"広木","town_kana":"ヒロキ","prefecture_code":11},"0111":{"zip_code":"3670111","prefecture":"埼玉県","prefecture_kana":"サイタマケン","city":"児玉郡美里町","city_kana":"コダマグンミサトマチ","town":"古郡","town_kana":"フルコオリ","prefecture_code":11},"0106":{"zip_code":"3670106","prefecture":"埼玉県","prefecture_kana":"サイタマケン","city":"児玉郡美里町","city_kana":"コダマグンミサトマチ","town":"南十条","town_kana":"ミナミジュウジョウ","prefecture_code":11},"0200":{"zip_code":"3670200","prefecture":"埼玉県","prefecture_kana":"サイタマケン","city":"児玉郡神川町","city_kana":"コダマグンカミカワマチ","town":"以下に掲載がない場合","town_kana":"イカニケイサイガナイバアイ","prefecture_code":11},"0234":{"zip_code":"3670234","prefecture":"埼玉県","prefecture_kana":"サイタマケン","city":"児玉郡神川町","city_kana":"コダマグンカミカワマチ","town":"池田","town_kana":"イケダ","prefecture_code":11},"0245":{"zip_code":"3670245","prefecture":"埼玉県","prefecture_kana":"サイタマケン","city":"児玉郡神川町","city_kana":"コダマグンカミカワマチ","town":"植竹","town_kana":"ウエダケ","prefecture_code":11},"0312":{"zip_code":"3670312","prefecture":"埼玉県","prefecture_kana":"サイタマケン","city":"児玉郡神川町","city_kana":"コダマグンカミカワマチ","town":"上阿久原","town_kana":"カミアグハラ","prefecture_code":11},"0243":{"zip_code":"3670243","prefecture":"埼玉県","prefecture_kana":"サイタマケン","city":"児玉郡神川町","city_kana":"コダマグンカミカワマチ","town":"熊野堂","town_kana":"クマノドウ","prefecture_code":11},"0236":{"zip_code":"3670236","prefecture":"埼玉県","prefecture_kana":"サイタマケン","city":"児玉郡神川町","city_kana":"コダマグンカミカワマチ","town":"小浜","town_kana":"コバマ","prefecture_code":11},"0248":{"zip_code":"3670248","prefecture":"埼玉県","prefecture_kana":"サイタマケン","city":"児玉郡神川町","city_kana":"コダマグンカミカワマチ","town":"四軒在家","town_kana":"シケンザイケ","prefecture_code":11},"0311":{"zip_code":"3670311","prefecture":"埼玉県","prefecture_kana":"サイタマケン","city":"児玉郡神川町","city_kana":"コダマグンカミカワマチ","town":"下阿久原","town_kana":"シモアグハラ","prefecture_code":11},"0235":{"zip_code":"3670235","prefecture":"埼玉県","prefecture_kana":"サイタマケン","city":"児玉郡神川町","city_kana":"コダマグンカミカワマチ","town":"新宿","town_kana":"シンシュク","prefecture_code":11},"0246":{"zip_code":"3670246","prefecture":"埼玉県","prefecture_kana":"サイタマケン","city":"児玉郡神川町","city_kana":"コダマグンカミカワマチ","town":"関口","town_kana":"セキグチ","prefecture_code":11},"0231":{"zip_code":"3670231","prefecture":"埼玉県","prefecture_kana":"サイタマケン","city":"児玉郡神川町","city_kana":"コダマグンカミカワマチ","town":"中新里","town_kana":"ナカニイサト","prefecture_code":11},"0232":{"zip_code":"3670232","prefecture":"埼玉県","prefecture_kana":"サイタマケン","city":"児玉郡神川町","city_kana":"コダマグンカミカワマチ","town":"新里","town_kana":"ニイサト","prefecture_code":11},"0233":{"zip_code":"3670233","prefecture":"埼玉県","prefecture_kana":"サイタマケン","city":"児玉郡神川町","city_kana":"コダマグンカミカワマチ","town":"二ノ宮","town_kana":"ニノミヤ","prefecture_code":11},"0237":{"zip_code":"3670237","prefecture":"埼玉県","prefecture_kana":"サイタマケン","city":"児玉郡神川町","city_kana":"コダマグンカミカワマチ","town":"貫井","town_kana":"ヌクイ","prefecture_code":11},"0242":{"zip_code":"3670242","prefecture":"埼玉県","prefecture_kana":"サイタマケン","city":"児玉郡神川町","city_kana":"コダマグンカミカワマチ","town":"原新田","town_kana":"ハラシンデン","prefecture_code":11},"0238":{"zip_code":"3670238","prefecture":"埼玉県","prefecture_kana":"サイタマケン","city":"児玉郡神川町","city_kana":"コダマグンカミカワマチ","town":"肥土","town_kana":"ヒド","prefecture_code":11},"0247":{"zip_code":"3670247","prefecture":"埼玉県","prefecture_kana":"サイタマケン","city":"児玉郡神川町","city_kana":"コダマグンカミカワマチ","town":"元阿保","town_kana":"モトアボ","prefecture_code":11},"0241":{"zip_code":"3670241","prefecture":"埼玉県","prefecture_kana":"サイタマケン","city":"児玉郡神川町","city_kana":"コダマグンカミカワマチ","town":"元原","town_kana":"モトハラ","prefecture_code":11},"0313":{"zip_code":"3670313","prefecture":"埼玉県","prefecture_kana":"サイタマケン","city":"児玉郡神川町","city_kana":"コダマグンカミカワマチ","town":"矢納","town_kana":"ヤノウ","prefecture_code":11},"0244":{"zip_code":"3670244","prefecture":"埼玉県","prefecture_kana":"サイタマケン","city":"児玉郡神川町","city_kana":"コダマグンカミカワマチ","town":"八日市","town_kana":"ヨウカイチ","prefecture_code":11},"0301":{"zip_code":"3670301","prefecture":"埼玉県","prefecture_kana":"サイタマケン","city":"児玉郡神川町","city_kana":"コダマグンカミカワマチ","town":"渡瀬","town_kana":"ワタルセ","prefecture_code":11}}