{"0000":[{"zip_code":"3680000","prefecture":"埼玉県","prefecture_kana":"サイタマケン","city":"秩父市","city_kana":"チチブシ","town":"","town_kana":"","prefecture_code":11},{"zip_code":"3680000","prefecture":"埼玉県","prefecture_kana":"サイタマケン","city":"秩父郡横瀬町","city_kana":"チチブグンヨコゼマチ","town":"","town_kana":"","prefecture_code":11}],"0026":{"zip_code":"3680026","prefecture":"埼玉県","prefecture_kana":"サイタマケン","city":"秩父市","city_kana":"チチブシ","town":"相生町","town_kana":"アイオイチョウ","prefecture_code":11},"0016":{"zip_code":"3680016","prefecture":"埼玉県","prefecture_kana":"サイタマケン","city":"秩父市","city_kana":"チチブシ","town":"阿保町","town_kana":"アボマチ","prefecture_code":11},"0063":{"zip_code":"3680063","prefecture":"埼玉県","prefecture_kana":"サイタマケン","city":"秩父市","city_kana":"チチブシ","town":"伊古田","town_kana":"イコタ","prefecture_code":11},"0031":{"zip_code":"3680031","prefecture":"埼玉県","prefecture_kana":"サイタマケン","city":"秩父市","city_kana":"チチブシ","town":"上野町","town_kana":"ウエノマチ","prefecture_code":11},"0065":{"zip_code":"3680065","prefecture":"埼玉県","prefecture_kana":"サイタマケン","city":"秩父市","city_kana":"チチブシ","town":"太田","town_kana":"オオタ","prefecture_code":11},"0005":{"zip_code":"3680005","prefecture":"埼玉県","prefecture_kana":"サイタマケン","city":"秩父市","city_kana":"チチブシ","town":"大野原","town_kana":"オオノハラ","prefecture_code":11},"0011":{"zip_code":"3680011","prefecture":"埼玉県","prefecture_kana":"サイタマケン","city":"秩父市","city_kana":"チチブシ","town":"大畑町","town_kana":"オオバタケマチ","prefecture_code":11},"0023":{"zip_code":"3680023","prefecture":"埼玉県","prefecture_kana":"サイタマケン","city":"秩父市","city_kana":"チチブシ","town":"大宮","town_kana":"オオミヤ","prefecture_code":11},"0061":{"zip_code":"3680061","prefecture":"埼玉県","prefecture_kana":"サイタマケン","city":"秩父市","city_kana":"チチブシ","town":"小柱","town_kana":"オバシラ","prefecture_code":11},"0014":{"zip_code":"3680014","prefecture":"埼玉県","prefecture_kana":"サイタマケン","city":"秩父市","city_kana":"チチブシ","town":"金室町","town_kana":"カナムロマチ","prefecture_code":11},"0035":{"zip_code":"3680035","prefecture":"埼玉県","prefecture_kana":"サイタマケン","city":"秩父市","city_kana":"チチブシ","town":"上町","town_kana":"カミマチ","prefecture_code":11},"0024":{"zip_code":"3680024","prefecture":"埼玉県","prefecture_kana":"サイタマケン","city":"秩父市","city_kana":"チチブシ","town":"上宮地町","town_kana":"カミミヤジマチ","prefecture_code":11},"0053":{"zip_code":"3680053","prefecture":"埼玉県","prefecture_kana":"サイタマケン","city":"秩父市","city_kana":"チチブシ","town":"久那","town_kana":"クナ","prefecture_code":11},"0032":{"zip_code":"3680032","prefecture":"埼玉県","prefecture_kana":"サイタマケン","city":"秩父市","city_kana":"チチブシ","town":"熊木町","town_kana":"クマギマチ","prefecture_code":11},"0001":{"zip_code":"3680001","prefecture":"埼玉県","prefecture_kana":"サイタマケン","city":"秩父市","city_kana":"チチブシ","town":"黒谷","town_kana":"クロヤ","prefecture_code":11},"0025":{"zip_code":"3680025","prefecture":"埼玉県","prefecture_kana":"サイタマケン","city":"秩父市","city_kana":"チチブシ","town":"桜木町","town_kana":"サクラギマチ","prefecture_code":11},"0003":{"zip_code":"3680003","prefecture":"埼玉県","prefecture_kana":"サイタマケン","city":"秩父市","city_kana":"チチブシ","town":"定峰","town_kana":"サダミネ","prefecture_code":11},"0064":{"zip_code":"3680064","prefecture":"埼玉県","prefecture_kana":"サイタマケン","city":"秩父市","city_kana":"チチブシ","town":"品沢","town_kana":"シナザワ","prefecture_code":11},"0021":{"zip_code":"3680021","prefecture":"埼玉県","prefecture_kana":"サイタマケン","city":"秩父市","city_kana":"チチブシ","town":"下宮地町","town_kana":"シモミヤジマチ","prefecture_code":11},"0012":{"zip_code":"3680012","prefecture":"埼玉県","prefecture_kana":"サイタマケン","city":"秩父市","city_kana":"チチブシ","town":"滝の上町","town_kana":"タキノウエマチ","prefecture_code":11},"0055":{"zip_code":"3680055","prefecture":"埼玉県","prefecture_kana":"サイタマケン","city":"秩父市","city_kana":"チチブシ","town":"田村","town_kana":"タムラ","prefecture_code":11},"0052":{"zip_code":"3680052","prefecture":"埼玉県","prefecture_kana":"サイタマケン","city":"秩父市","city_kana":"チチブシ","town":"近戸町","town_kana":"チカトマチ","prefecture_code":11},"0056":{"zip_code":"3680056","prefecture":"埼玉県","prefecture_kana":"サイタマケン","city":"秩父市","city_kana":"チチブシ","town":"寺尾","town_kana":"テラオ","prefecture_code":11},"0045":{"zip_code":"3680045","prefecture":"埼玉県","prefecture_kana":"サイタマケン","city":"秩父市","city_kana":"チチブシ","town":"道生町","town_kana":"ドウジョウマチ","prefecture_code":11},"0002":{"zip_code":"3680002","prefecture":"埼玉県","prefecture_kana":"サイタマケン","city":"秩父市","city_kana":"チチブシ","town":"栃谷","town_kana":"トチヤ","prefecture_code":11},"0043":{"zip_code":"3680043","prefecture":"埼玉県","prefecture_kana":"サイタマケン","city":"秩父市","city_kana":"チチブシ","town":"中町","town_kana":"ナカマチ","prefecture_code":11},"0022":{"zip_code":"3680022","prefecture":"埼玉県","prefecture_kana":"サイタマケン","city":"秩父市","city_kana":"チチブシ","town":"中宮地町","town_kana":"ナカミヤジマチ","prefecture_code":11},"0051":{"zip_code":"3680051","prefecture":"埼玉県","prefecture_kana":"サイタマケン","city":"秩父市","city_kana":"チチブシ","town":"中村町","town_kana":"ナカムラマチ","prefecture_code":11},"0013":{"zip_code":"3680013","prefecture":"埼玉県","prefecture_kana":"サイタマケン","city":"秩父市","city_kana":"チチブシ","town":"永田町","town_kana":"ナガタマチ","prefecture_code":11},"0033":{"zip_code":"3680033","prefecture":"埼玉県","prefecture_kana":"サイタマケン","city":"秩父市","city_kana":"チチブシ","town":"野坂町","town_kana":"ノサカマチ","prefecture_code":11},"0041":{"zip_code":"3680041","prefecture":"埼玉県","prefecture_kana":"サイタマケン","city":"秩父市","city_kana":"チチブシ","town":"番場町","town_kana":"バンバマチ","prefecture_code":11},"0042":{"zip_code":"3680042","prefecture":"埼玉県","prefecture_kana":"サイタマケン","city":"秩父市","city_kana":"チチブシ","town":"東町","town_kana":"ヒガシマチ","prefecture_code":11},"0034":{"zip_code":"3680034","prefecture":"埼玉県","prefecture_kana":"サイタマケン","city":"秩父市","city_kana":"チチブシ","town":"日野田町","town_kana":"ヒノダマチ","prefecture_code":11},"0054":{"zip_code":"3680054","prefecture":"埼玉県","prefecture_kana":"サイタマケン","city":"秩父市","city_kana":"チチブシ","town":"別所","town_kana":"ベッショ","prefecture_code":11},"0066":{"zip_code":"3680066","prefecture":"埼玉県","prefecture_kana":"サイタマケン","city":"秩父市","city_kana":"チチブシ","town":"堀切","town_kana":"ホリキリ","prefecture_code":11},"0062":{"zip_code":"3680062","prefecture":"埼玉県","prefecture_kana":"サイタマケン","city":"秩父市","city_kana":"チチブシ","town":"蒔田","town_kana":"マイタ","prefecture_code":11},"0067":{"zip_code":"3680067","prefecture":"埼玉県","prefecture_kana":"サイタマケン","city":"秩父市","city_kana":"チチブシ","town":"みどりが丘","town_kana":"ミドリガオカ","prefecture_code":11},"0046":{"zip_code":"3680046","prefecture":"埼玉県","prefecture_kana":"サイタマケン","city":"秩父市","city_kana":"チチブシ","town":"宮側町","town_kana":"ミヤカワチョウ","prefecture_code":11},"0044":{"zip_code":"3680044","prefecture":"埼玉県","prefecture_kana":"サイタマケン","city":"秩父市","city_kana":"チチブシ","town":"本町","town_kana":"モトマチ","prefecture_code":11},"0015":{"zip_code":"3680015","prefecture":"埼玉県","prefecture_kana":"サイタマケン","city":"秩父市","city_kana":"チチブシ","town":"柳田町","town_kana":"ヤナギダマチ","prefecture_code":11},"0004":{"zip_code":"3680004","prefecture":"埼玉県","prefecture_kana":"サイタマケン","city":"秩父市","city_kana":"チチブシ","town":"山田","town_kana":"ヤマダ","prefecture_code":11},"0071":{"zip_code":"3680071","prefecture":"埼玉県","prefecture_kana":"サイタマケン","city":"秩父郡横瀬町","city_kana":"チチブグンヨコゼマチ","town":"芦ケ久保","town_kana":"アシガクボ","prefecture_code":11},"0072":{"zip_code":"3680072","prefecture":"埼玉県","prefecture_kana":"サイタマケン","city":"秩父郡横瀬町","city_kana":"チチブグンヨコゼマチ","town":"横瀬","town_kana":"ヨコゼ","prefecture_code":11},"0100":{"zip_code":"3680100","prefecture":"埼玉県","prefecture_kana":"サイタマケン","city":"秩父郡小鹿野町","city_kana":"チチブグンオガノマチ","town":"","town_kana":"","prefecture_code":11},"0111":{"zip_code":"3680111","prefecture":"埼玉県","prefecture_kana":"サイタマケン","city":"秩父郡小鹿野町","city_kana":"チチブグンオガノマチ","town":"飯田","town_kana":"イイダ","prefecture_code":11},"0104":{"zip_code":"3680104","prefecture":"埼玉県","prefecture_kana":"サイタマケン","city":"秩父郡小鹿野町","city_kana":"チチブグンオガノマチ","town":"伊豆沢","town_kana":"イズサワ","prefecture_code":11},"0105":{"zip_code":"3680105","prefecture":"埼玉県","prefecture_kana":"サイタマケン","city":"秩父郡小鹿野町","city_kana":"チチブグンオガノマチ","town":"小鹿野","town_kana":"オガノ","prefecture_code":11},"0113":{"zip_code":"3680113","prefecture":"埼玉県","prefecture_kana":"サイタマケン","city":"秩父郡小鹿野町","city_kana":"チチブグンオガノマチ","town":"河原沢","town_kana":"カワラサワ","prefecture_code":11},"0112":{"zip_code":"3680112","prefecture":"埼玉県","prefecture_kana":"サイタマケン","city":"秩父郡小鹿野町","city_kana":"チチブグンオガノマチ","town":"三山","town_kana":"サンヤマ","prefecture_code":11},"0101":{"zip_code":"3680101","prefecture":"埼玉県","prefecture_kana":"サイタマケン","city":"秩父郡小鹿野町","city_kana":"チチブグンオガノマチ","town":"下小鹿野","town_kana":"シモオガノ","prefecture_code":11},"0102":{"zip_code":"3680102","prefecture":"埼玉県","prefecture_kana":"サイタマケン","city":"秩父郡小鹿野町","city_kana":"チチブグンオガノマチ","town":"長留","town_kana":"ナガル","prefecture_code":11},"0103":{"zip_code":"3680103","prefecture":"埼玉県","prefecture_kana":"サイタマケン","city":"秩父郡小鹿野町","city_kana":"チチブグンオガノマチ","town":"般若","town_kana":"ハンニャ","prefecture_code":11},"0115":{"zip_code":"3680115","prefecture":"埼玉県","prefecture_kana":"サイタマケン","city":"秩父郡小鹿野町","city_kana":"チチブグンオガノマチ","town":"日尾","town_kana":"ヒオ","prefecture_code":11},"0114":{"zip_code":"3680114","prefecture":"埼玉県","prefecture_kana":"サイタマケン","city":"秩父郡小鹿野町","city_kana":"チチブグンオガノマチ","town":"藤倉","town_kana":"フジクラ","prefecture_code":11},"0202":{"zip_code":"3680202","prefecture":"埼玉県","prefecture_kana":"サイタマケン","city":"秩父郡小鹿野町","city_kana":"チチブグンオガノマチ","town":"両神小森","town_kana":"リョウカミコモリ","prefecture_code":11},"0201":{"zip_code":"3680201","prefecture":"埼玉県","prefecture_kana":"サイタマケン","city":"秩父郡小鹿野町","city_kana":"チチブグンオガノマチ","town":"両神薄","town_kana":"リョウカミススキ","prefecture_code":11}}