{"3573":{"zip_code":"3703573","prefecture":"群馬県","prefecture_kana":"グンマケン","city":"前橋市","city_kana":"マエバシシ","town":"青梨子町","town_kana":"アオナシマチ","prefecture_code":10},"3571":{"zip_code":"3703571","prefecture":"群馬県","prefecture_kana":"グンマケン","city":"前橋市","city_kana":"マエバシシ","town":"池端町","town_kana":"イケハタマチ","prefecture_code":10},"3572":{"zip_code":"3703572","prefecture":"群馬県","prefecture_kana":"グンマケン","city":"前橋市","city_kana":"マエバシシ","town":"上青梨子町","town_kana":"カミアオナシマチ","prefecture_code":10},"3574":{"zip_code":"3703574","prefecture":"群馬県","prefecture_kana":"グンマケン","city":"前橋市","city_kana":"マエバシシ","town":"清野町","town_kana":"キヨノマチ","prefecture_code":10},"0000":{"zip_code":"3700000","prefecture":"群馬県","prefecture_kana":"グンマケン","city":"高崎市","city_kana":"タカサキシ","town":"","town_kana":"","prefecture_code":10},"0811":{"zip_code":"3700811","prefecture":"群馬県","prefecture_kana":"グンマケン","city":"高崎市","city_kana":"タカサキシ","town":"相生町","town_kana":"アイオイチョウ","prefecture_code":10},"0818":{"zip_code":"3700818","prefecture":"群馬県","prefecture_kana":"グンマケン","city":"高崎市","city_kana":"タカサキシ","town":"赤坂町","town_kana":"アカサカマチ","prefecture_code":10},"1211":{"zip_code":"3701211","prefecture":"群馬県","prefecture_kana":"グンマケン","city":"高崎市","city_kana":"タカサキシ","town":"阿久津町","town_kana":"アクツマチ","prefecture_code":10},"0052":{"zip_code":"3700052","prefecture":"群馬県","prefecture_kana":"グンマケン","city":"高崎市","city_kana":"タカサキシ","town":"旭町","town_kana":"アサヒチョウ","prefecture_code":10},"3531":{"zip_code":"3703531","prefecture":"群馬県","prefecture_kana":"グンマケン","city":"高崎市","city_kana":"タカサキシ","town":"足門町","town_kana":"アシカドマチ","prefecture_code":10},"0045":{"zip_code":"3700045","prefecture":"群馬県","prefecture_kana":"グンマケン","city":"高崎市","city_kana":"タカサキシ","town":"東町","town_kana":"アズマチョウ","prefecture_code":10},"0831":{"zip_code":"3700831","prefecture":"群馬県","prefecture_kana":"グンマケン","city":"高崎市","city_kana":"タカサキシ","town":"あら町","town_kana":"アラマチ","prefecture_code":10},"0063":{"zip_code":"3700063","prefecture":"群馬県","prefecture_kana":"グンマケン","city":"高崎市","city_kana":"タカサキシ","town":"飯玉町","town_kana":"イイダママチ","prefecture_code":10},"0069":{"zip_code":"3700069","prefecture":"群馬県","prefecture_kana":"グンマケン","city":"高崎市","city_kana":"タカサキシ","town":"飯塚町","town_kana":"イイヅカマチ","prefecture_code":10},"0864":{"zip_code":"3700864","prefecture":"群馬県","prefecture_kana":"グンマケン","city":"高崎市","city_kana":"タカサキシ","town":"石原町","town_kana":"イシハラマチ","prefecture_code":10},"3534":{"zip_code":"3703534","prefecture":"群馬県","prefecture_kana":"グンマケン","city":"高崎市","city_kana":"タカサキシ","town":"井出町","town_kana":"イデマチ","prefecture_code":10},"0062":{"zip_code":"3700062","prefecture":"群馬県","prefecture_kana":"グンマケン","city":"高崎市","city_kana":"タカサキシ","town":"稲荷町","town_kana":"イナリチョウ","prefecture_code":10},"0004":{"zip_code":"3700004","prefecture":"群馬県","prefecture_kana":"グンマケン","city":"高崎市","city_kana":"タカサキシ","town":"井野町","town_kana":"イノマチ","prefecture_code":10},"0044":{"zip_code":"3700044","prefecture":"群馬県","prefecture_kana":"グンマケン","city":"高崎市","city_kana":"タカサキシ","town":"岩押町","town_kana":"イワオシマチ","prefecture_code":10},"1208":{"zip_code":"3701208","prefecture":"群馬県","prefecture_kana":"グンマケン","city":"高崎市","city_kana":"タカサキシ","town":"岩鼻町","town_kana":"イワハナマチ","prefecture_code":10},"0067":{"zip_code":"3700067","prefecture":"群馬県","prefecture_kana":"グンマケン","city":"高崎市","city_kana":"タカサキシ","town":"請地町","town_kana":"ウケチマチ","prefecture_code":10},"3518":{"zip_code":"3703518","prefecture":"群馬県","prefecture_kana":"グンマケン","city":"高崎市","city_kana":"タカサキシ","town":"後疋間町","town_kana":"ウシロヒキママチ","prefecture_code":10},"0807":{"zip_code":"3700807","prefecture":"群馬県","prefecture_kana":"グンマケン","city":"高崎市","city_kana":"タカサキシ","town":"歌川町","town_kana":"ウタガワチョウ","prefecture_code":10},"0046":{"zip_code":"3700046","prefecture":"群馬県","prefecture_kana":"グンマケン","city":"高崎市","city_kana":"タカサキシ","town":"江木町","town_kana":"エギマチ","prefecture_code":10},"0012":{"zip_code":"3700012","prefecture":"群馬県","prefecture_kana":"グンマケン","city":"高崎市","city_kana":"タカサキシ","town":"大沢町","town_kana":"オオサワマチ","prefecture_code":10},"0803":{"zip_code":"3700803","prefecture":"群馬県","prefecture_kana":"グンマケン","city":"高崎市","city_kana":"タカサキシ","town":"大橋町","town_kana":"オオハシマチ","prefecture_code":10},"0072":{"zip_code":"3700072","prefecture":"群馬県","prefecture_kana":"グンマケン","city":"高崎市","city_kana":"タカサキシ","town":"大八木町","town_kana":"オオヤギマチ","prefecture_code":10},"0086":{"zip_code":"3700086","prefecture":"群馬県","prefecture_kana":"グンマケン","city":"高崎市","city_kana":"タカサキシ","town":"沖町","town_kana":"オキマチ","prefecture_code":10},"0042":{"zip_code":"3700042","prefecture":"群馬県","prefecture_kana":"グンマケン","city":"高崎市","city_kana":"タカサキシ","town":"貝沢町","town_kana":"カイザワマチ","prefecture_code":10},"0838":{"zip_code":"3700838","prefecture":"群馬県","prefecture_kana":"グンマケン","city":"高崎市","city_kana":"タカサキシ","town":"鍛冶町","town_kana":"カジチョウ","prefecture_code":10},"0862":{"zip_code":"3700862","prefecture":"群馬県","prefecture_kana":"グンマケン","city":"高崎市","city_kana":"タカサキシ","town":"片岡町","town_kana":"カタオカマチ","prefecture_code":10},"0814":{"zip_code":"3700814","prefecture":"群馬県","prefecture_kana":"グンマケン","city":"高崎市","city_kana":"タカサキシ","town":"嘉多町","town_kana":"カタマチ","prefecture_code":10},"0882":{"zip_code":"3700882","prefecture":"群馬県","prefecture_kana":"グンマケン","city":"高崎市","city_kana":"タカサキシ","town":"金井淵町","town_kana":"カナイブチマチ","prefecture_code":10},"3511":{"zip_code":"3703511","prefecture":"群馬県","prefecture_kana":"グンマケン","city":"高崎市","city_kana":"タカサキシ","town":"金古町","town_kana":"カネコマチ","prefecture_code":10},"3335":{"zip_code":"3703335","prefecture":"群馬県","prefecture_kana":"グンマケン","city":"高崎市","city_kana":"タカサキシ","town":"上大島町","town_kana":"カミオオシママチ","prefecture_code":10},"0031":{"zip_code":"3700031","prefecture":"群馬県","prefecture_kana":"グンマケン","city":"高崎市","city_kana":"タカサキシ","town":"上大類町","town_kana":"カミオオルイマチ","prefecture_code":10},"0078":{"zip_code":"3700078","prefecture":"群馬県","prefecture_kana":"グンマケン","city":"高崎市","city_kana":"タカサキシ","town":"上小鳥町","town_kana":"カミコトリマチ","prefecture_code":10},"0077":{"zip_code":"3700077","prefecture":"群馬県","prefecture_kana":"グンマケン","city":"高崎市","city_kana":"タカサキシ","town":"上小塙町","town_kana":"カミコバナマチ","prefecture_code":10},"3345":{"zip_code":"3703345","prefecture":"群馬県","prefecture_kana":"グンマケン","city":"高崎市","city_kana":"タカサキシ","town":"上里見町","town_kana":"カミサトミマチ","prefecture_code":10},"0857":{"zip_code":"3700857","prefecture":"群馬県","prefecture_kana":"グンマケン","city":"高崎市","city_kana":"タカサキシ","town":"上佐野町","town_kana":"カミサノマチ","prefecture_code":10},"0027":{"zip_code":"3700027","prefecture":"群馬県","prefecture_kana":"グンマケン","city":"高崎市","city_kana":"タカサキシ","town":"上滝町","town_kana":"カミタキマチ","prefecture_code":10},"0871":{"zip_code":"3700871","prefecture":"群馬県","prefecture_kana":"グンマケン","city":"高崎市","city_kana":"タカサキシ","town":"上豊岡町","town_kana":"カミトヨオカマチ","prefecture_code":10},"0851":{"zip_code":"3700851","prefecture":"群馬県","prefecture_kana":"グンマケン","city":"高崎市","city_kana":"タカサキシ","town":"上中居町","town_kana":"カミナカイマチ","prefecture_code":10},"0801":{"zip_code":"3700801","prefecture":"群馬県","prefecture_kana":"グンマケン","city":"高崎市","city_kana":"タカサキシ","town":"上並榎町","town_kana":"カミナミエマチ","prefecture_code":10},"3346":{"zip_code":"3703346","prefecture":"群馬県","prefecture_kana":"グンマケン","city":"高崎市","city_kana":"タカサキシ","town":"上室田町","town_kana":"カミムロダマチ","prefecture_code":10},"0806":{"zip_code":"3700806","prefecture":"群馬県","prefecture_kana":"グンマケン","city":"高崎市","city_kana":"タカサキシ","town":"上和田町","town_kana":"カミワダマチ","prefecture_code":10},"0084":{"zip_code":"3700084","prefecture":"群馬県","prefecture_kana":"グンマケン","city":"高崎市","city_kana":"タカサキシ","town":"菊地町","town_kana":"キクヂマチ","prefecture_code":10},"0082":{"zip_code":"3700082","prefecture":"群馬県","prefecture_kana":"グンマケン","city":"高崎市","city_kana":"タカサキシ","town":"北新波町","town_kana":"キタアラナミマチ","prefecture_code":10},"0872":{"zip_code":"3700872","prefecture":"群馬県","prefecture_kana":"グンマケン","city":"高崎市","city_kana":"タカサキシ","town":"北久保町","town_kana":"キタクボマチ","prefecture_code":10},"0056":{"zip_code":"3700056","prefecture":"群馬県","prefecture_kana":"グンマケン","city":"高崎市","city_kana":"タカサキシ","town":"北通町","town_kana":"キタトオリマチ","prefecture_code":10},"3513":{"zip_code":"3703513","prefecture":"群馬県","prefecture_kana":"グンマケン","city":"高崎市","city_kana":"タカサキシ","town":"北原町","town_kana":"キタハラマチ","prefecture_code":10},"0842":{"zip_code":"3700842","prefecture":"群馬県","prefecture_kana":"グンマケン","city":"高崎市","city_kana":"タカサキシ","town":"北双葉町","town_kana":"キタフタバチョウ","prefecture_code":10},"1212":{"zip_code":"3701212","prefecture":"群馬県","prefecture_kana":"グンマケン","city":"高崎市","city_kana":"タカサキシ","town":"木部町","town_kana":"キベマチ","prefecture_code":10},"0011":{"zip_code":"3700011","prefecture":"群馬県","prefecture_kana":"グンマケン","city":"高崎市","city_kana":"タカサキシ","town":"京目町","town_kana":"キョウメマチ","prefecture_code":10},"0088":{"zip_code":"3700088","prefecture":"群馬県","prefecture_kana":"グンマケン","city":"高崎市","city_kana":"タカサキシ","town":"行力町","town_kana":"ギョウリキマチ","prefecture_code":10},"0058":{"zip_code":"3700058","prefecture":"群馬県","prefecture_kana":"グンマケン","city":"高崎市","city_kana":"タカサキシ","town":"九蔵町","town_kana":"クゾウマチ","prefecture_code":10},"1201":{"zip_code":"3701201","prefecture":"群馬県","prefecture_kana":"グンマケン","city":"高崎市","city_kana":"タカサキシ","town":"倉賀野町","town_kana":"クラガノマチ","prefecture_code":10},"3404":{"zip_code":"3703404","prefecture":"群馬県","prefecture_kana":"グンマケン","city":"高崎市","city_kana":"タカサキシ","town":"倉渕町岩氷","town_kana":"クラブチマチイワコオリ","prefecture_code":10},"3405":{"zip_code":"3703405","prefecture":"群馬県","prefecture_kana":"グンマケン","city":"高崎市","city_kana":"タカサキシ","town":"倉渕町川浦","town_kana":"クラブチマチカワウラ","prefecture_code":10},"3401":{"zip_code":"3703401","prefecture":"群馬県","prefecture_kana":"グンマケン","city":"高崎市","city_kana":"タカサキシ","town":"倉渕町権田","town_kana":"クラブチマチゴンダ","prefecture_code":10},"3402":{"zip_code":"3703402","prefecture":"群馬県","prefecture_kana":"グンマケン","city":"高崎市","city_kana":"タカサキシ","town":"倉渕町三ノ倉","town_kana":"クラブチマチサンノクラ","prefecture_code":10},"3403":{"zip_code":"3703403","prefecture":"群馬県","prefecture_kana":"グンマケン","city":"高崎市","city_kana":"タカサキシ","town":"倉渕町水沼","town_kana":"クラブチマチミズヌマ","prefecture_code":10},"1205":{"zip_code":"3701205","prefecture":"群馬県","prefecture_kana":"グンマケン","city":"高崎市","city_kana":"タカサキシ","town":"栗崎町","town_kana":"クリザキマチ","prefecture_code":10},"0883":{"zip_code":"3700883","prefecture":"群馬県","prefecture_kana":"グンマケン","city":"高崎市","city_kana":"タカサキシ","town":"剣崎町","town_kana":"ケンザキマチ","prefecture_code":10},"3336":{"zip_code":"3703336","prefecture":"群馬県","prefecture_kana":"グンマケン","city":"高崎市","city_kana":"タカサキシ","town":"神戸町","town_kana":"ゴウドマチ","prefecture_code":10},"0071":{"zip_code":"3700071","prefecture":"群馬県","prefecture_kana":"グンマケン","city":"高崎市","city_kana":"タカサキシ","town":"小八木町","town_kana":"コヤギマチ","prefecture_code":10},"0841":{"zip_code":"3700841","prefecture":"群馬県","prefecture_kana":"グンマケン","city":"高崎市","city_kana":"タカサキシ","town":"栄町","town_kana":"サカエチョウ","prefecture_code":10},"0856":{"zip_code":"3700856","prefecture":"群馬県","prefecture_kana":"グンマケン","city":"高崎市","city_kana":"タカサキシ","town":"佐野窪町","town_kana":"サノクボマチ","prefecture_code":10},"0827":{"zip_code":"3700827","prefecture":"群馬県","prefecture_kana":"グンマケン","city":"高崎市","city_kana":"タカサキシ","town":"鞘町","town_kana":"サヤチョウ","prefecture_code":10},"0845":{"zip_code":"3700845","prefecture":"群馬県","prefecture_kana":"グンマケン","city":"高崎市","city_kana":"タカサキシ","town":"新後閑町","town_kana":"シゴカマチ","prefecture_code":10},"0035":{"zip_code":"3700035","prefecture":"群馬県","prefecture_kana":"グンマケン","city":"高崎市","city_kana":"タカサキシ","town":"柴崎町","town_kana":"シバサキマチ","prefecture_code":10},"0064":{"zip_code":"3700064","prefecture":"群馬県","prefecture_kana":"グンマケン","city":"高崎市","city_kana":"タカサキシ","town":"芝塚町","town_kana":"シバヅカマチ","prefecture_code":10},"0015":{"zip_code":"3700015","prefecture":"群馬県","prefecture_kana":"グンマケン","city":"高崎市","city_kana":"タカサキシ","town":"島野町","town_kana":"シマノマチ","prefecture_code":10},"0886":{"zip_code":"3700886","prefecture":"群馬県","prefecture_kana":"グンマケン","city":"高崎市","city_kana":"タカサキシ","town":"下大島町","town_kana":"シモオオシママチ","prefecture_code":10},"0034":{"zip_code":"3700034","prefecture":"群馬県","prefecture_kana":"グンマケン","city":"高崎市","city_kana":"タカサキシ","town":"下大類町","town_kana":"シモオオルイマチ","prefecture_code":10},"0074":{"zip_code":"3700074","prefecture":"群馬県","prefecture_kana":"グンマケン","city":"高崎市","city_kana":"タカサキシ","town":"下小鳥町","town_kana":"シモコトリマチ","prefecture_code":10},"0076":{"zip_code":"3700076","prefecture":"群馬県","prefecture_kana":"グンマケン","city":"高崎市","city_kana":"タカサキシ","town":"下小塙町","town_kana":"シモコバナマチ","prefecture_code":10},"0025":{"zip_code":"3700025","prefecture":"群馬県","prefecture_kana":"グンマケン","city":"高崎市","city_kana":"タカサキシ","town":"下斉田町","town_kana":"シモサイダマチ","prefecture_code":10},"3343":{"zip_code":"3703343","prefecture":"群馬県","prefecture_kana":"グンマケン","city":"高崎市","city_kana":"タカサキシ","town":"下里見町","town_kana":"シモサトミマチ","prefecture_code":10},"0855":{"zip_code":"3700855","prefecture":"群馬県","prefecture_kana":"グンマケン","city":"高崎市","city_kana":"タカサキシ","town":"下佐野町","town_kana":"シモサノマチ","prefecture_code":10},"0026":{"zip_code":"3700026","prefecture":"群馬県","prefecture_kana":"グンマケン","city":"高崎市","city_kana":"タカサキシ","town":"下滝町","town_kana":"シモタキマチ","prefecture_code":10},"0873":{"zip_code":"3700873","prefecture":"群馬県","prefecture_kana":"グンマケン","city":"高崎市","city_kana":"タカサキシ","town":"下豊岡町","town_kana":"シモトヨオカマチ","prefecture_code":10},"0853":{"zip_code":"3700853","prefecture":"群馬県","prefecture_kana":"グンマケン","city":"高崎市","city_kana":"タカサキシ","town":"下中居町","town_kana":"シモナカイマチ","prefecture_code":10},"0854":{"zip_code":"3700854","prefecture":"群馬県","prefecture_kana":"グンマケン","city":"高崎市","city_kana":"タカサキシ","town":"下之城町","town_kana":"シモノジョウマチ","prefecture_code":10},"3342":{"zip_code":"3703342","prefecture":"群馬県","prefecture_kana":"グンマケン","city":"高崎市","city_kana":"タカサキシ","town":"下室田町","town_kana":"シモムロダマチ","prefecture_code":10},"0837":{"zip_code":"3700837","prefecture":"群馬県","prefecture_kana":"グンマケン","city":"高崎市","city_kana":"タカサキシ","town":"下横町","town_kana":"シモヨコチョウ","prefecture_code":10},"0846":{"zip_code":"3700846","prefecture":"群馬県","prefecture_kana":"グンマケン","city":"高崎市","city_kana":"タカサキシ","town":"下和田町","town_kana":"シモワダマチ","prefecture_code":10},"3331":{"zip_code":"3703331","prefecture":"群馬県","prefecture_kana":"グンマケン","city":"高崎市","city_kana":"タカサキシ","town":"十文字町","town_kana":"ジュウモンジマチ","prefecture_code":10},"0032":{"zip_code":"3700032","prefecture":"群馬県","prefecture_kana":"グンマケン","city":"高崎市","city_kana":"タカサキシ","town":"宿大類町","town_kana":"シュクオオルイマチ","prefecture_code":10},"0022":{"zip_code":"3700022","prefecture":"群馬県","prefecture_kana":"グンマケン","city":"高崎市","city_kana":"タカサキシ","town":"宿横手町","town_kana":"シュクヨコテマチ","prefecture_code":10},"0008":{"zip_code":"3700008","prefecture":"群馬県","prefecture_kana":"グンマケン","city":"高崎市","city_kana":"タカサキシ","town":"正観寺町","town_kana":"ショウカンジマチ","prefecture_code":10},"0068":{"zip_code":"3700068","prefecture":"群馬県","prefecture_kana":"グンマケン","city":"高崎市","city_kana":"タカサキシ","town":"昭和町","town_kana":"ショウワマチ","prefecture_code":10},"3332":{"zip_code":"3703332","prefecture":"群馬県","prefecture_kana":"グンマケン","city":"高崎市","city_kana":"タカサキシ","town":"白岩町","town_kana":"シライワマチ","prefecture_code":10},"0825":{"zip_code":"3700825","prefecture":"群馬県","prefecture_kana":"グンマケン","city":"高崎市","city_kana":"タカサキシ","town":"白銀町","town_kana":"シロガネチョウ","prefecture_code":10},"0866":{"zip_code":"3700866","prefecture":"群馬県","prefecture_kana":"グンマケン","city":"高崎市","city_kana":"タカサキシ","town":"城山町","town_kana":"シロヤママチ","prefecture_code":10},"0821":{"zip_code":"3700821","prefecture":"群馬県","prefecture_kana":"グンマケン","city":"高崎市","city_kana":"タカサキシ","town":"新紺屋町","town_kana":"シンコンヤマチ","prefecture_code":10},"0054":{"zip_code":"3700054","prefecture":"群馬県","prefecture_kana":"グンマケン","city":"高崎市","city_kana":"タカサキシ","town":"真町","town_kana":"シンチョウ","prefecture_code":10},"0833":{"zip_code":"3700833","prefecture":"群馬県","prefecture_kana":"グンマケン","city":"高崎市","city_kana":"タカサキシ","town":"新田町","town_kana":"シンデンマチ","prefecture_code":10},"0003":{"zip_code":"3700003","prefecture":"群馬県","prefecture_kana":"グンマケン","city":"高崎市","city_kana":"タカサキシ","town":"新保田中町","town_kana":"シンボタナカマチ","prefecture_code":10},"0018":{"zip_code":"3700018","prefecture":"群馬県","prefecture_kana":"グンマケン","city":"高崎市","city_kana":"タカサキシ","town":"新保町","town_kana":"シンボマチ","prefecture_code":10},"1301":{"zip_code":"3701301","prefecture":"群馬県","prefecture_kana":"グンマケン","city":"高崎市","city_kana":"タカサキシ","town":"新町","town_kana":"シンマチ","prefecture_code":10},"0065":{"zip_code":"3700065","prefecture":"群馬県","prefecture_kana":"グンマケン","city":"高崎市","city_kana":"タカサキシ","town":"末広町","town_kana":"スエヒロチョウ","prefecture_code":10},"3522":{"zip_code":"3703522","prefecture":"群馬県","prefecture_kana":"グンマケン","city":"高崎市","city_kana":"タカサキシ","town":"菅谷町","town_kana":"スガヤマチ","prefecture_code":10},"0832":{"zip_code":"3700832","prefecture":"群馬県","prefecture_kana":"グンマケン","city":"高崎市","city_kana":"タカサキシ","town":"砂賀町","town_kana":"スナガチョウ","prefecture_code":10},"0804":{"zip_code":"3700804","prefecture":"群馬県","prefecture_kana":"グンマケン","city":"高崎市","city_kana":"タカサキシ","town":"住吉町","town_kana":"スミヨシチョウ","prefecture_code":10},"0817":{"zip_code":"3700817","prefecture":"群馬県","prefecture_kana":"グンマケン","city":"高崎市","city_kana":"タカサキシ","town":"堰代町","town_kana":"セキシロチョウ","prefecture_code":10},"1206":{"zip_code":"3701206","prefecture":"群馬県","prefecture_kana":"グンマケン","city":"高崎市","city_kana":"タカサキシ","town":"台新田町","town_kana":"ダイシンデンマチ","prefecture_code":10},"0805":{"zip_code":"3700805","prefecture":"群馬県","prefecture_kana":"グンマケン","city":"高崎市","city_kana":"タカサキシ","town":"台町","town_kana":"ダイマチ","prefecture_code":10},"0047":{"zip_code":"3700047","prefecture":"群馬県","prefecture_kana":"グンマケン","city":"高崎市","city_kana":"タカサキシ","town":"高砂町","town_kana":"タカサゴチョウ","prefecture_code":10},"0043":{"zip_code":"3700043","prefecture":"群馬県","prefecture_kana":"グンマケン","city":"高崎市","city_kana":"タカサキシ","town":"高関町","town_kana":"タカゼキマチ","prefecture_code":10},"3333":{"zip_code":"3703333","prefecture":"群馬県","prefecture_kana":"グンマケン","city":"高崎市","city_kana":"タカサキシ","town":"高浜町","town_kana":"タカハママチ","prefecture_code":10},"0829":{"zip_code":"3700829","prefecture":"群馬県","prefecture_kana":"グンマケン","city":"高崎市","city_kana":"タカサキシ","town":"高松町","town_kana":"タカマツチョウ","prefecture_code":10},"0835":{"zip_code":"3700835","prefecture":"群馬県","prefecture_kana":"グンマケン","city":"高崎市","city_kana":"タカサキシ","town":"竜見町","town_kana":"タツミチョウ","prefecture_code":10},"0824":{"zip_code":"3700824","prefecture":"群馬県","prefecture_kana":"グンマケン","city":"高崎市","city_kana":"タカサキシ","town":"田町","town_kana":"タマチ","prefecture_code":10},"3515":{"zip_code":"3703515","prefecture":"群馬県","prefecture_kana":"グンマケン","city":"高崎市","city_kana":"タカサキシ","town":"塚田町","town_kana":"ツカダマチ","prefecture_code":10},"0075":{"zip_code":"3700075","prefecture":"群馬県","prefecture_kana":"グンマケン","city":"高崎市","city_kana":"タカサキシ","town":"筑縄町","town_kana":"ツクナワマチ","prefecture_code":10},"0059":{"zip_code":"3700059","prefecture":"群馬県","prefecture_kana":"グンマケン","city":"高崎市","city_kana":"タカサキシ","town":"椿町","town_kana":"ツバキチョウ","prefecture_code":10},"0848":{"zip_code":"3700848","prefecture":"群馬県","prefecture_kana":"グンマケン","city":"高崎市","city_kana":"タカサキシ","town":"鶴見町","town_kana":"ツルミチョウ","prefecture_code":10},"0865":{"zip_code":"3700865","prefecture":"群馬県","prefecture_kana":"グンマケン","city":"高崎市","city_kana":"タカサキシ","town":"寺尾町","town_kana":"テラオマチ","prefecture_code":10},"0061":{"zip_code":"3700061","prefecture":"群馬県","prefecture_kana":"グンマケン","city":"高崎市","city_kana":"タカサキシ","town":"天神町","town_kana":"テンジンチョウ","prefecture_code":10},"3516":{"zip_code":"3703516","prefecture":"群馬県","prefecture_kana":"グンマケン","city":"高崎市","city_kana":"タカサキシ","town":"稲荷台町","town_kana":"トウカダイマチ","prefecture_code":10},"0053":{"zip_code":"3700053","prefecture":"群馬県","prefecture_kana":"グンマケン","city":"高崎市","city_kana":"タカサキシ","town":"通町","town_kana":"トオリマチ","prefecture_code":10},"0816":{"zip_code":"3700816","prefecture":"群馬県","prefecture_kana":"グンマケン","city":"高崎市","city_kana":"タカサキシ","town":"常盤町","town_kana":"トキワチョウ","prefecture_code":10},"0006":{"zip_code":"3700006","prefecture":"群馬県","prefecture_kana":"グンマケン","city":"高崎市","city_kana":"タカサキシ","town":"問屋町","town_kana":"トンヤマチ","prefecture_code":10},"0007":{"zip_code":"3700007","prefecture":"群馬県","prefecture_kana":"グンマケン","city":"高崎市","city_kana":"タカサキシ","town":"問屋町西","town_kana":"トンヤマチニシ","prefecture_code":10},"3524":{"zip_code":"3703524","prefecture":"群馬県","prefecture_kana":"グンマケン","city":"高崎市","city_kana":"タカサキシ","town":"中泉町","town_kana":"ナカイズミマチ","prefecture_code":10},"0852":{"zip_code":"3700852","prefecture":"群馬県","prefecture_kana":"グンマケン","city":"高崎市","city_kana":"タカサキシ","town":"中居町","town_kana":"ナカイマチ","prefecture_code":10},"0033":{"zip_code":"3700033","prefecture":"群馬県","prefecture_kana":"グンマケン","city":"高崎市","city_kana":"タカサキシ","town":"中大類町","town_kana":"ナカオオルイマチ","prefecture_code":10},"0001":{"zip_code":"3700001","prefecture":"群馬県","prefecture_kana":"グンマケン","city":"高崎市","city_kana":"タカサキシ","town":"中尾町","town_kana":"ナカオマチ","prefecture_code":10},"0823":{"zip_code":"3700823","prefecture":"群馬県","prefecture_kana":"グンマケン","city":"高崎市","city_kana":"タカサキシ","town":"中紺屋町","town_kana":"ナカコンヤマチ","prefecture_code":10},"3532":{"zip_code":"3703532","prefecture":"群馬県","prefecture_kana":"グンマケン","city":"高崎市","city_kana":"タカサキシ","town":"中里町","town_kana":"ナカザトマチ","prefecture_code":10},"3344":{"zip_code":"3703344","prefecture":"群馬県","prefecture_kana":"グンマケン","city":"高崎市","city_kana":"タカサキシ","town":"中里見町","town_kana":"ナカサトミマチ","prefecture_code":10},"0023":{"zip_code":"3700023","prefecture":"群馬県","prefecture_kana":"グンマケン","city":"高崎市","city_kana":"タカサキシ","town":"中島町","town_kana":"ナカジママチ","prefecture_code":10},"0874":{"zip_code":"3700874","prefecture":"群馬県","prefecture_kana":"グンマケン","city":"高崎市","city_kana":"タカサキシ","town":"中豊岡町","town_kana":"ナカトヨオカマチ","prefecture_code":10},"3347":{"zip_code":"3703347","prefecture":"群馬県","prefecture_kana":"グンマケン","city":"高崎市","city_kana":"タカサキシ","town":"中室田町","town_kana":"ナカムロダマチ","prefecture_code":10},"0802":{"zip_code":"3700802","prefecture":"群馬県","prefecture_kana":"グンマケン","city":"高崎市","city_kana":"タカサキシ","town":"並榎町","town_kana":"ナミエマチ","prefecture_code":10},"0812":{"zip_code":"3700812","prefecture":"群馬県","prefecture_kana":"グンマケン","city":"高崎市","city_kana":"タカサキシ","town":"成田町","town_kana":"ナリタチョウ","prefecture_code":10},"3512":{"zip_code":"3703512","prefecture":"群馬県","prefecture_kana":"グンマケン","city":"高崎市","city_kana":"タカサキシ","town":"西国分町","town_kana":"ニシコクブマチ","prefecture_code":10},"0017":{"zip_code":"3700017","prefecture":"群馬県","prefecture_kana":"グンマケン","city":"高崎市","city_kana":"タカサキシ","town":"西島町","town_kana":"ニシジママチ","prefecture_code":10},"0021":{"zip_code":"3700021","prefecture":"群馬県","prefecture_kana":"グンマケン","city":"高崎市","city_kana":"タカサキシ","town":"西横手町","town_kana":"ニシヨコテマチ","prefecture_code":10},"0048":{"zip_code":"3700048","prefecture":"群馬県","prefecture_kana":"グンマケン","city":"高崎市","city_kana":"タカサキシ","town":"日光町","town_kana":"ニッコウチョウ","prefecture_code":10},"1214":{"zip_code":"3701214","prefecture":"群馬県","prefecture_kana":"グンマケン","city":"高崎市","city_kana":"タカサキシ","town":"根小屋町","town_kana":"ネゴヤマチ","prefecture_code":10},"0867":{"zip_code":"3700867","prefecture":"群馬県","prefecture_kana":"グンマケン","city":"高崎市","city_kana":"タカサキシ","town":"乗附町","town_kana":"ノツケマチ","prefecture_code":10},"0013":{"zip_code":"3700013","prefecture":"群馬県","prefecture_kana":"グンマケン","city":"高崎市","city_kana":"タカサキシ","town":"萩原町","town_kana":"ハギワラマチ","prefecture_code":10},"0868":{"zip_code":"3700868","prefecture":"群馬県","prefecture_kana":"グンマケン","city":"高崎市","city_kana":"タカサキシ","town":"鼻高町","town_kana":"ハナダカマチ","prefecture_code":10},"0081":{"zip_code":"3700081","prefecture":"群馬県","prefecture_kana":"グンマケン","city":"高崎市","city_kana":"タカサキシ","town":"浜川町","town_kana":"ハマガワマチ","prefecture_code":10},"0005":{"zip_code":"3700005","prefecture":"群馬県","prefecture_kana":"グンマケン","city":"高崎市","city_kana":"タカサキシ","town":"浜尻町","town_kana":"ハマジリマチ","prefecture_code":10},"3348":{"zip_code":"3703348","prefecture":"群馬県","prefecture_kana":"グンマケン","city":"高崎市","city_kana":"タカサキシ","town":"榛名湖町","town_kana":"ハルナコマチ","prefecture_code":10},"3341":{"zip_code":"3703341","prefecture":"群馬県","prefecture_kana":"グンマケン","city":"高崎市","city_kana":"タカサキシ","town":"榛名山町","town_kana":"ハルナサンマチ","prefecture_code":10},"0041":{"zip_code":"3700041","prefecture":"群馬県","prefecture_kana":"グンマケン","city":"高崎市","city_kana":"タカサキシ","town":"東貝沢町","town_kana":"ヒガシカイザワマチ","prefecture_code":10},"3514":{"zip_code":"3703514","prefecture":"群馬県","prefecture_kana":"グンマケン","city":"高崎市","city_kana":"タカサキシ","town":"東国分町","town_kana":"ヒガシコクブマチ","prefecture_code":10},"1204":{"zip_code":"3701204","prefecture":"群馬県","prefecture_kana":"グンマケン","city":"高崎市","city_kana":"タカサキシ","town":"東中里町","town_kana":"ヒガシナカサトマチ","prefecture_code":10},"3517":{"zip_code":"3703517","prefecture":"群馬県","prefecture_kana":"グンマケン","city":"高崎市","city_kana":"タカサキシ","town":"引間町","town_kana":"ヒキママチ","prefecture_code":10},"0863":{"zip_code":"3700863","prefecture":"群馬県","prefecture_kana":"グンマケン","city":"高崎市","city_kana":"タカサキシ","town":"聖石町","town_kana":"ヒジリイシマチ","prefecture_code":10},"0002":{"zip_code":"3700002","prefecture":"群馬県","prefecture_kana":"グンマケン","city":"高崎市","city_kana":"タカサキシ","town":"日高町","town_kana":"ヒダカマチ","prefecture_code":10},"0839":{"zip_code":"3700839","prefecture":"群馬県","prefecture_kana":"グンマケン","city":"高崎市","city_kana":"タカサキシ","town":"檜物町","town_kana":"ヒモノチョウ","prefecture_code":10},"3519":{"zip_code":"3703519","prefecture":"群馬県","prefecture_kana":"グンマケン","city":"高崎市","city_kana":"タカサキシ","town":"冷水町","town_kana":"ヒヤミズマチ","prefecture_code":10},"3523":{"zip_code":"3703523","prefecture":"群馬県","prefecture_kana":"グンマケン","city":"高崎市","city_kana":"タカサキシ","town":"福島町","town_kana":"フクシママチ","prefecture_code":10},"0875":{"zip_code":"3700875","prefecture":"群馬県","prefecture_kana":"グンマケン","city":"高崎市","city_kana":"タカサキシ","town":"藤塚町","town_kana":"フジヅカマチ","prefecture_code":10},"0843":{"zip_code":"3700843","prefecture":"群馬県","prefecture_kana":"グンマケン","city":"高崎市","city_kana":"タカサキシ","town":"双葉町","town_kana":"フタバチョウ","prefecture_code":10},"3533":{"zip_code":"3703533","prefecture":"群馬県","prefecture_kana":"グンマケン","city":"高崎市","city_kana":"タカサキシ","town":"保渡田町","town_kana":"ホドタマチ","prefecture_code":10},"3334":{"zip_code":"3703334","prefecture":"群馬県","prefecture_kana":"グンマケン","city":"高崎市","city_kana":"タカサキシ","town":"本郷町","town_kana":"ホンゴウマチ","prefecture_code":10},"0881":{"zip_code":"3700881","prefecture":"群馬県","prefecture_kana":"グンマケン","city":"高崎市","city_kana":"タカサキシ","town":"町屋町","town_kana":"マチヤマチ","prefecture_code":10},"3102":{"zip_code":"3703102","prefecture":"群馬県","prefecture_kana":"グンマケン","city":"高崎市","city_kana":"タカサキシ","town":"箕郷町生原","town_kana":"ミサトマチオイバラ","prefecture_code":10},"3101":{"zip_code":"3703101","prefecture":"群馬県","prefecture_kana":"グンマケン","city":"高崎市","city_kana":"タカサキシ","town":"箕郷町柏木沢","town_kana":"ミサトマチカシワギザワ","prefecture_code":10},"3114":{"zip_code":"3703114","prefecture":"群馬県","prefecture_kana":"グンマケン","city":"高崎市","city_kana":"タカサキシ","town":"箕郷町金敷平","town_kana":"ミサトマチカナシキダイラ","prefecture_code":10},"3104":{"zip_code":"3703104","prefecture":"群馬県","prefecture_kana":"グンマケン","city":"高崎市","city_kana":"タカサキシ","town":"箕郷町上芝","town_kana":"ミサトマチカミシバ","prefecture_code":10},"3103":{"zip_code":"3703103","prefecture":"群馬県","prefecture_kana":"グンマケン","city":"高崎市","city_kana":"タカサキシ","town":"箕郷町下芝","town_kana":"ミサトマチシモシバ","prefecture_code":10},"3117":{"zip_code":"3703117","prefecture":"群馬県","prefecture_kana":"グンマケン","city":"高崎市","city_kana":"タカサキシ","town":"箕郷町白川","town_kana":"ミサトマチシラカワ","prefecture_code":10},"3112":{"zip_code":"3703112","prefecture":"群馬県","prefecture_kana":"グンマケン","city":"高崎市","city_kana":"タカサキシ","town":"箕郷町善地","town_kana":"ミサトマチゼンジ","prefecture_code":10},"3115":{"zip_code":"3703115","prefecture":"群馬県","prefecture_kana":"グンマケン","city":"高崎市","city_kana":"タカサキシ","town":"箕郷町富岡","town_kana":"ミサトマチトミオカ","prefecture_code":10},"3111":{"zip_code":"3703111","prefecture":"群馬県","prefecture_kana":"グンマケン","city":"高崎市","city_kana":"タカサキシ","town":"箕郷町中野","town_kana":"ミサトマチナカノ","prefecture_code":10},"3105":{"zip_code":"3703105","prefecture":"群馬県","prefecture_kana":"グンマケン","city":"高崎市","city_kana":"タカサキシ","town":"箕郷町西明屋","town_kana":"ミサトマチニシアキヤ","prefecture_code":10},"3106":{"zip_code":"3703106","prefecture":"群馬県","prefecture_kana":"グンマケン","city":"高崎市","city_kana":"タカサキシ","town":"箕郷町東明屋","town_kana":"ミサトマチヒガシアキヤ","prefecture_code":10},"3113":{"zip_code":"3703113","prefecture":"群馬県","prefecture_kana":"グンマケン","city":"高崎市","city_kana":"タカサキシ","town":"箕郷町松之沢","town_kana":"ミサトマチマツノサワ","prefecture_code":10},"3107":{"zip_code":"3703107","prefecture":"群馬県","prefecture_kana":"グンマケン","city":"高崎市","city_kana":"タカサキシ","town":"箕郷町矢原","town_kana":"ミサトマチヤバラ","prefecture_code":10},"3116":{"zip_code":"3703116","prefecture":"群馬県","prefecture_kana":"グンマケン","city":"高崎市","city_kana":"タカサキシ","town":"箕郷町和田山","town_kana":"ミサトマチワダヤマ","prefecture_code":10},"3337":{"zip_code":"3703337","prefecture":"群馬県","prefecture_kana":"グンマケン","city":"高崎市","city_kana":"タカサキシ","town":"三ツ子沢町","town_kana":"ミツゴサワマチ","prefecture_code":10},"3525":{"zip_code":"3703525","prefecture":"群馬県","prefecture_kana":"グンマケン","city":"高崎市","city_kana":"タカサキシ","town":"三ツ寺町","town_kana":"ミツデラマチ","prefecture_code":10},"0073":{"zip_code":"3700073","prefecture":"群馬県","prefecture_kana":"グンマケン","city":"高崎市","city_kana":"タカサキシ","town":"緑町","town_kana":"ミドリチョウ","prefecture_code":10},"0083":{"zip_code":"3700083","prefecture":"群馬県","prefecture_kana":"グンマケン","city":"高崎市","city_kana":"タカサキシ","town":"南新波町","town_kana":"ミナミアラナミマチ","prefecture_code":10},"0036":{"zip_code":"3700036","prefecture":"群馬県","prefecture_kana":"グンマケン","city":"高崎市","city_kana":"タカサキシ","town":"南大類町","town_kana":"ミナミオオルイマチ","prefecture_code":10},"0834":{"zip_code":"3700834","prefecture":"群馬県","prefecture_kana":"グンマケン","city":"高崎市","city_kana":"タカサキシ","town":"南町","town_kana":"ミナミチョウ","prefecture_code":10},"3338":{"zip_code":"3703338","prefecture":"群馬県","prefecture_kana":"グンマケン","city":"高崎市","city_kana":"タカサキシ","town":"宮沢町","town_kana":"ミヤザワマチ","prefecture_code":10},"1202":{"zip_code":"3701202","prefecture":"群馬県","prefecture_kana":"グンマケン","city":"高崎市","city_kana":"タカサキシ","town":"宮原町","town_kana":"ミヤハラマチ","prefecture_code":10},"0828":{"zip_code":"3700828","prefecture":"群馬県","prefecture_kana":"グンマケン","city":"高崎市","city_kana":"タカサキシ","town":"宮元町","town_kana":"ミヤモトチョウ","prefecture_code":10},"3521":{"zip_code":"3703521","prefecture":"群馬県","prefecture_kana":"グンマケン","city":"高崎市","city_kana":"タカサキシ","town":"棟高町","town_kana":"ムナダカマチ","prefecture_code":10},"0057":{"zip_code":"3700057","prefecture":"群馬県","prefecture_kana":"グンマケン","city":"高崎市","city_kana":"タカサキシ","town":"元紺屋町","town_kana":"モトコンヤマチ","prefecture_code":10},"0014":{"zip_code":"3700014","prefecture":"群馬県","prefecture_kana":"グンマケン","city":"高崎市","city_kana":"タカサキシ","town":"元島名町","town_kana":"モトシマナマチ","prefecture_code":10},"0813":{"zip_code":"3700813","prefecture":"群馬県","prefecture_kana":"グンマケン","city":"高崎市","city_kana":"タカサキシ","town":"本町","town_kana":"モトマチ","prefecture_code":10},"0849":{"zip_code":"3700849","prefecture":"群馬県","prefecture_kana":"グンマケン","city":"高崎市","city_kana":"タカサキシ","town":"八島町","town_kana":"ヤシマチョウ","prefecture_code":10},"0016":{"zip_code":"3700016","prefecture":"群馬県","prefecture_kana":"グンマケン","city":"高崎市","city_kana":"タカサキシ","town":"矢島町","town_kana":"ヤジママチ","prefecture_code":10},"0861":{"zip_code":"3700861","prefecture":"群馬県","prefecture_kana":"グンマケン","city":"高崎市","city_kana":"タカサキシ","town":"八千代町","town_kana":"ヤチヨマチ","prefecture_code":10},"1203":{"zip_code":"3701203","prefecture":"群馬県","prefecture_kana":"グンマケン","city":"高崎市","city_kana":"タカサキシ","town":"矢中町","town_kana":"ヤナカマチ","prefecture_code":10},"0815":{"zip_code":"3700815","prefecture":"群馬県","prefecture_kana":"グンマケン","city":"高崎市","city_kana":"タカサキシ","town":"柳川町","town_kana":"ヤナガワチョウ","prefecture_code":10},"0066":{"zip_code":"3700066","prefecture":"群馬県","prefecture_kana":"グンマケン","city":"高崎市","city_kana":"タカサキシ","town":"山田町","town_kana":"ヤマダチョウ","prefecture_code":10},"1213":{"zip_code":"3701213","prefecture":"群馬県","prefecture_kana":"グンマケン","city":"高崎市","city_kana":"タカサキシ","town":"山名町","town_kana":"ヤマナマチ","prefecture_code":10},"0024":{"zip_code":"3700024","prefecture":"群馬県","prefecture_kana":"グンマケン","city":"高崎市","city_kana":"タカサキシ","town":"八幡原町","town_kana":"ヤワタバラマチ","prefecture_code":10},"0884":{"zip_code":"3700884","prefecture":"群馬県","prefecture_kana":"グンマケン","city":"高崎市","city_kana":"タカサキシ","town":"八幡町","town_kana":"ヤワタマチ","prefecture_code":10},"0051":{"zip_code":"3700051","prefecture":"群馬県","prefecture_kana":"グンマケン","city":"高崎市","city_kana":"タカサキシ","town":"弓町","town_kana":"ユミチョウ","prefecture_code":10},"2107":{"zip_code":"3702107","prefecture":"群馬県","prefecture_kana":"グンマケン","city":"高崎市","city_kana":"タカサキシ","town":"吉井町池","town_kana":"ヨシイマチイケ","prefecture_code":10},"2114":{"zip_code":"3702114","prefecture":"群馬県","prefecture_kana":"グンマケン","city":"高崎市","city_kana":"タカサキシ","town":"吉井町石神","town_kana":"ヨシイマチイシガミ","prefecture_code":10},"2103":{"zip_code":"3702103","prefecture":"群馬県","prefecture_kana":"グンマケン","city":"高崎市","city_kana":"タカサキシ","town":"吉井町岩井","town_kana":"ヨシイマチイワイ","prefecture_code":10},"2131":{"zip_code":"3702131","prefecture":"群馬県","prefecture_kana":"グンマケン","city":"高崎市","city_kana":"タカサキシ","town":"吉井町岩崎","town_kana":"ヨシイマチイワザキ","prefecture_code":10},"2125":{"zip_code":"3702125","prefecture":"群馬県","prefecture_kana":"グンマケン","city":"高崎市","city_kana":"タカサキシ","town":"吉井町大沢","town_kana":"ヨシイマチオオサワ","prefecture_code":10},"2111":{"zip_code":"3702111","prefecture":"群馬県","prefecture_kana":"グンマケン","city":"高崎市","city_kana":"タカサキシ","town":"吉井町小串","town_kana":"ヨシイマチオグシ","prefecture_code":10},"2135":{"zip_code":"3702135","prefecture":"群馬県","prefecture_kana":"グンマケン","city":"高崎市","city_kana":"タカサキシ","town":"吉井町片山","town_kana":"ヨシイマチカタヤマ","prefecture_code":10},"2139":{"zip_code":"3702139","prefecture":"群馬県","prefecture_kana":"グンマケン","city":"高崎市","city_kana":"タカサキシ","town":"吉井町上奥平","town_kana":"ヨシイマチカミオクダイラ","prefecture_code":10},"2112":{"zip_code":"3702112","prefecture":"群馬県","prefecture_kana":"グンマケン","city":"高崎市","city_kana":"タカサキシ","town":"吉井町黒熊","town_kana":"ヨシイマチクロクマ","prefecture_code":10},"2102":{"zip_code":"3702102","prefecture":"群馬県","prefecture_kana":"グンマケン","city":"高崎市","city_kana":"タカサキシ","town":"吉井町小暮","town_kana":"ヨシイマチコグレ","prefecture_code":10},"2136":{"zip_code":"3702136","prefecture":"群馬県","prefecture_kana":"グンマケン","city":"高崎市","city_kana":"タカサキシ","town":"吉井町小棚","town_kana":"ヨシイマチコタナ","prefecture_code":10},"2137":{"zip_code":"3702137","prefecture":"群馬県","prefecture_kana":"グンマケン","city":"高崎市","city_kana":"タカサキシ","town":"吉井町坂口","town_kana":"ヨシイマチサカグチ","prefecture_code":10},"2124":{"zip_code":"3702124","prefecture":"群馬県","prefecture_kana":"グンマケン","city":"高崎市","city_kana":"タカサキシ","town":"吉井町塩","town_kana":"ヨシイマチシオ","prefecture_code":10},"2134":{"zip_code":"3702134","prefecture":"群馬県","prefecture_kana":"グンマケン","city":"高崎市","city_kana":"タカサキシ","town":"吉井町塩川","town_kana":"ヨシイマチシオガワ","prefecture_code":10},"2138":{"zip_code":"3702138","prefecture":"群馬県","prefecture_kana":"グンマケン","city":"高崎市","city_kana":"タカサキシ","town":"吉井町下奥平","town_kana":"ヨシイマチシモオクダイラ","prefecture_code":10},"2121":{"zip_code":"3702121","prefecture":"群馬県","prefecture_kana":"グンマケン","city":"高崎市","city_kana":"タカサキシ","town":"吉井町下長根","town_kana":"ヨシイマチシモナガネ","prefecture_code":10},"2123":{"zip_code":"3702123","prefecture":"群馬県","prefecture_kana":"グンマケン","city":"高崎市","city_kana":"タカサキシ","town":"吉井町神保","town_kana":"ヨシイマチジンボ","prefecture_code":10},"2115":{"zip_code":"3702115","prefecture":"群馬県","prefecture_kana":"グンマケン","city":"高崎市","city_kana":"タカサキシ","town":"吉井町多比良","town_kana":"ヨシイマチタイラ","prefecture_code":10},"2122":{"zip_code":"3702122","prefecture":"群馬県","prefecture_kana":"グンマケン","city":"高崎市","city_kana":"タカサキシ","town":"吉井町高","town_kana":"ヨシイマチタカ","prefecture_code":10},"2116":{"zip_code":"3702116","prefecture":"群馬県","prefecture_kana":"グンマケン","city":"高崎市","city_kana":"タカサキシ","town":"吉井町多胡","town_kana":"ヨシイマチタゴ","prefecture_code":10},"2105":{"zip_code":"3702105","prefecture":"群馬県","prefecture_kana":"グンマケン","city":"高崎市","city_kana":"タカサキシ","town":"吉井町中島","town_kana":"ヨシイマチナカジマ","prefecture_code":10},"2127":{"zip_code":"3702127","prefecture":"群馬県","prefecture_kana":"グンマケン","city":"高崎市","city_kana":"タカサキシ","town":"吉井町長根","town_kana":"ヨシイマチナガネ","prefecture_code":10},"2101":{"zip_code":"3702101","prefecture":"群馬県","prefecture_kana":"グンマケン","city":"高崎市","city_kana":"タカサキシ","town":"吉井町南陽台","town_kana":"ヨシイマチナンヨウダイ","prefecture_code":10},"2126":{"zip_code":"3702126","prefecture":"群馬県","prefecture_kana":"グンマケン","city":"高崎市","city_kana":"タカサキシ","town":"吉井町東谷","town_kana":"ヨシイマチヒガシヤ","prefecture_code":10},"2113":{"zip_code":"3702113","prefecture":"群馬県","prefecture_kana":"グンマケン","city":"高崎市","city_kana":"タカサキシ","town":"吉井町深沢","town_kana":"ヨシイマチフカサワ","prefecture_code":10},"2128":{"zip_code":"3702128","prefecture":"群馬県","prefecture_kana":"グンマケン","city":"高崎市","city_kana":"タカサキシ","town":"吉井町本郷","town_kana":"ヨシイマチホンゴウ","prefecture_code":10},"2104":{"zip_code":"3702104","prefecture":"群馬県","prefecture_kana":"グンマケン","city":"高崎市","city_kana":"タカサキシ","town":"吉井町馬庭","town_kana":"ヨシイマチマニワ","prefecture_code":10},"2106":{"zip_code":"3702106","prefecture":"群馬県","prefecture_kana":"グンマケン","city":"高崎市","city_kana":"タカサキシ","town":"吉井町矢田","town_kana":"ヨシイマチヤタ","prefecture_code":10},"2132":{"zip_code":"3702132","prefecture":"群馬県","prefecture_kana":"グンマケン","city":"高崎市","city_kana":"タカサキシ","town":"吉井町吉井","town_kana":"ヨシイマチヨシイ","prefecture_code":10},"2133":{"zip_code":"3702133","prefecture":"群馬県","prefecture_kana":"グンマケン","city":"高崎市","city_kana":"タカサキシ","town":"吉井町吉井川","town_kana":"ヨシイマチヨシイカワ","prefecture_code":10},"0819":{"zip_code":"3700819","prefecture":"群馬県","prefecture_kana":"グンマケン","city":"高崎市","city_kana":"タカサキシ","town":"四ツ屋町","town_kana":"ヨツヤマチ","prefecture_code":10},"0822":{"zip_code":"3700822","prefecture":"群馬県","prefecture_kana":"グンマケン","city":"高崎市","city_kana":"タカサキシ","town":"寄合町","town_kana":"ヨリアイチョウ","prefecture_code":10},"0055":{"zip_code":"3700055","prefecture":"群馬県","prefecture_kana":"グンマケン","city":"高崎市","city_kana":"タカサキシ","town":"羅漢町","town_kana":"ラカンチョウ","prefecture_code":10},"0087":{"zip_code":"3700087","prefecture":"群馬県","prefecture_kana":"グンマケン","city":"高崎市","city_kana":"タカサキシ","town":"楽間町","town_kana":"ラクママチ","prefecture_code":10},"0826":{"zip_code":"3700826","prefecture":"群馬県","prefecture_kana":"グンマケン","city":"高崎市","city_kana":"タカサキシ","town":"連雀町","town_kana":"レンジャクチョウ","prefecture_code":10},"0885":{"zip_code":"3700885","prefecture":"群馬県","prefecture_kana":"グンマケン","city":"高崎市","city_kana":"タカサキシ","town":"若田町","town_kana":"ワカタマチ","prefecture_code":10},"0836":{"zip_code":"3700836","prefecture":"群馬県","prefecture_kana":"グンマケン","city":"高崎市","city_kana":"タカサキシ","town":"若松町","town_kana":"ワカマツチョウ","prefecture_code":10},"0085":{"zip_code":"3700085","prefecture":"群馬県","prefecture_kana":"グンマケン","city":"高崎市","city_kana":"タカサキシ","town":"我峰町","town_kana":"ワガミネマチ","prefecture_code":10},"0844":{"zip_code":"3700844","prefecture":"群馬県","prefecture_kana":"グンマケン","city":"高崎市","city_kana":"タカサキシ","town":"和田多中町","town_kana":"ワダタナカマチ","prefecture_code":10},"1207":{"zip_code":"3701207","prefecture":"群馬県","prefecture_kana":"グンマケン","city":"高崎市","city_kana":"タカサキシ","town":"綿貫町","town_kana":"ワタヌキマチ","prefecture_code":10},"0847":{"zip_code":"3700847","prefecture":"群馬県","prefecture_kana":"グンマケン","city":"高崎市","city_kana":"タカサキシ","town":"和田町","town_kana":"ワダマチ","prefecture_code":10},"0124":{"zip_code":"3700124","prefecture":"群馬県","prefecture_kana":"グンマケン","city":"伊勢崎市","city_kana":"イセサキシ","town":"境","town_kana":"サカイ","prefecture_code":10},"0123":{"zip_code":"3700123","prefecture":"群馬県","prefecture_kana":"グンマケン","city":"伊勢崎市","city_kana":"イセサキシ","town":"境東","town_kana":"サカイアズマ","prefecture_code":10},"0105":{"zip_code":"3700105","prefecture":"群馬県","prefecture_kana":"グンマケン","city":"伊勢崎市","city_kana":"イセサキシ","town":"境伊与久","town_kana":"サカイイヨク","prefecture_code":10},"0135":{"zip_code":"3700135","prefecture":"群馬県","prefecture_kana":"グンマケン","city":"伊勢崎市","city_kana":"イセサキシ","town":"境小此木","town_kana":"サカイオコノギ","prefecture_code":10},"0121":{"zip_code":"3700121","prefecture":"群馬県","prefecture_kana":"グンマケン","city":"伊勢崎市","city_kana":"イセサキシ","town":"境女塚","town_kana":"サカイオナヅカ","prefecture_code":10},"0127":{"zip_code":"3700127","prefecture":"群馬県","prefecture_kana":"グンマケン","city":"伊勢崎市","city_kana":"イセサキシ","town":"境上武士","town_kana":"サカイカミタケシ","prefecture_code":10},"0102":{"zip_code":"3700102","prefecture":"群馬県","prefecture_kana":"グンマケン","city":"伊勢崎市","city_kana":"イセサキシ","town":"境上渕名","town_kana":"サカイカミフチナ","prefecture_code":10},"0111":{"zip_code":"3700111","prefecture":"群馬県","prefecture_kana":"グンマケン","city":"伊勢崎市","city_kana":"イセサキシ","town":"境上矢島","town_kana":"サカイカミヤジマ","prefecture_code":10},"0104":{"zip_code":"3700104","prefecture":"群馬県","prefecture_kana":"グンマケン","city":"伊勢崎市","city_kana":"イセサキシ","town":"境木島","town_kana":"サカイキジマ","prefecture_code":10},"0122":{"zip_code":"3700122","prefecture":"群馬県","prefecture_kana":"グンマケン","city":"伊勢崎市","city_kana":"イセサキシ","town":"境栄","town_kana":"サカイサカエ","prefecture_code":10},"0134":{"zip_code":"3700134","prefecture":"群馬県","prefecture_kana":"グンマケン","city":"伊勢崎市","city_kana":"イセサキシ","town":"境島村","town_kana":"サカイシマムラ","prefecture_code":10},"0126":{"zip_code":"3700126","prefecture":"群馬県","prefecture_kana":"グンマケン","city":"伊勢崎市","city_kana":"イセサキシ","town":"境下武士","town_kana":"サカイシモタケシ","prefecture_code":10},"0103":{"zip_code":"3700103","prefecture":"群馬県","prefecture_kana":"グンマケン","city":"伊勢崎市","city_kana":"イセサキシ","town":"境下渕名","town_kana":"サカイシモフチナ","prefecture_code":10},"0114":{"zip_code":"3700114","prefecture":"群馬県","prefecture_kana":"グンマケン","city":"伊勢崎市","city_kana":"イセサキシ","town":"境新栄","town_kana":"サカイシンエイ","prefecture_code":10},"0117":{"zip_code":"3700117","prefecture":"群馬県","prefecture_kana":"グンマケン","city":"伊勢崎市","city_kana":"イセサキシ","town":"境百々","town_kana":"サカイドウドウ","prefecture_code":10},"0116":{"zip_code":"3700116","prefecture":"群馬県","prefecture_kana":"グンマケン","city":"伊勢崎市","city_kana":"イセサキシ","town":"境百々東","town_kana":"サカイドウドウヒガシ","prefecture_code":10},"0133":{"zip_code":"3700133","prefecture":"群馬県","prefecture_kana":"グンマケン","city":"伊勢崎市","city_kana":"イセサキシ","town":"境中島","town_kana":"サカイナカジマ","prefecture_code":10},"0112":{"zip_code":"3700112","prefecture":"群馬県","prefecture_kana":"グンマケン","city":"伊勢崎市","city_kana":"イセサキシ","town":"境西今井","town_kana":"サカイニシイマイ","prefecture_code":10},"0125":{"zip_code":"3700125","prefecture":"群馬県","prefecture_kana":"グンマケン","city":"伊勢崎市","city_kana":"イセサキシ","town":"境萩原","town_kana":"サカイハギワラ","prefecture_code":10},"0101":{"zip_code":"3700101","prefecture":"群馬県","prefecture_kana":"グンマケン","city":"伊勢崎市","city_kana":"イセサキシ","town":"境東新井","town_kana":"サカイヒガシアライ","prefecture_code":10},"0132":{"zip_code":"3700132","prefecture":"群馬県","prefecture_kana":"グンマケン","city":"伊勢崎市","city_kana":"イセサキシ","town":"境平塚","town_kana":"サカイヒラヅカ","prefecture_code":10},"0128":{"zip_code":"3700128","prefecture":"群馬県","prefecture_kana":"グンマケン","city":"伊勢崎市","city_kana":"イセサキシ","town":"境保泉","town_kana":"サカイホズミ","prefecture_code":10},"0113":{"zip_code":"3700113","prefecture":"群馬県","prefecture_kana":"グンマケン","city":"伊勢崎市","city_kana":"イセサキシ","town":"境三ツ木","town_kana":"サカイミツギ","prefecture_code":10},"0115":{"zip_code":"3700115","prefecture":"群馬県","prefecture_kana":"グンマケン","city":"伊勢崎市","city_kana":"イセサキシ","town":"境美原","town_kana":"サカイミハラ","prefecture_code":10},"0131":{"zip_code":"3700131","prefecture":"群馬県","prefecture_kana":"グンマケン","city":"伊勢崎市","city_kana":"イセサキシ","town":"境米岡","town_kana":"サカイヨネオカ","prefecture_code":10},"0402":{"zip_code":"3700402","prefecture":"群馬県","prefecture_kana":"グンマケン","city":"太田市","city_kana":"オオタシ","town":"阿久津町","town_kana":"アクツチョウ","prefecture_code":10},"0422":{"zip_code":"3700422","prefecture":"群馬県","prefecture_kana":"グンマケン","city":"太田市","city_kana":"オオタシ","town":"安養寺町","town_kana":"アンヨウジチョウ","prefecture_code":10},"0424":{"zip_code":"3700424","prefecture":"群馬県","prefecture_kana":"グンマケン","city":"太田市","city_kana":"オオタシ","town":"出塚町","town_kana":"イデヅカチョウ","prefecture_code":10},"0403":{"zip_code":"3700403","prefecture":"群馬県","prefecture_kana":"グンマケン","city":"太田市","city_kana":"オオタシ","town":"岩松町","town_kana":"イワマツチョウ","prefecture_code":10},"0423":{"zip_code":"3700423","prefecture":"群馬県","prefecture_kana":"グンマケン","city":"太田市","city_kana":"オオタシ","town":"大舘町","town_kana":"オオタチチョウ","prefecture_code":10},"0405":{"zip_code":"3700405","prefecture":"群馬県","prefecture_kana":"グンマケン","city":"太田市","city_kana":"オオタシ","town":"押切町","town_kana":"オシキリチョウ","prefecture_code":10},"0401":{"zip_code":"3700401","prefecture":"群馬県","prefecture_kana":"グンマケン","city":"太田市","city_kana":"オオタシ","town":"尾島町","town_kana":"オジマチョウ","prefecture_code":10},"0421":{"zip_code":"3700421","prefecture":"群馬県","prefecture_kana":"グンマケン","city":"太田市","city_kana":"オオタシ","town":"粕川町","town_kana":"カスカワチョウ","prefecture_code":10},"0411":{"zip_code":"3700411","prefecture":"群馬県","prefecture_kana":"グンマケン","city":"太田市","city_kana":"オオタシ","town":"亀岡町","town_kana":"カメオカチョウ","prefecture_code":10},"0427":{"zip_code":"3700427","prefecture":"群馬県","prefecture_kana":"グンマケン","city":"太田市","city_kana":"オオタシ","town":"小角田町","town_kana":"コズミダチョウ","prefecture_code":10},"0413":{"zip_code":"3700413","prefecture":"群馬県","prefecture_kana":"グンマケン","city":"太田市","city_kana":"オオタシ","town":"すずかけ町","town_kana":"スズカケチョウ","prefecture_code":10},"0426":{"zip_code":"3700426","prefecture":"群馬県","prefecture_kana":"グンマケン","city":"太田市","city_kana":"オオタシ","town":"世良田町","town_kana":"セラダチョウ","prefecture_code":10},"0412":{"zip_code":"3700412","prefecture":"群馬県","prefecture_kana":"グンマケン","city":"太田市","city_kana":"オオタシ","town":"太子町","town_kana":"タイシチョウ","prefecture_code":10},"0425":{"zip_code":"3700425","prefecture":"群馬県","prefecture_kana":"グンマケン","city":"太田市","city_kana":"オオタシ","town":"徳川町","town_kana":"トクガワチョウ","prefecture_code":10},"0331":{"zip_code":"3700331","prefecture":"群馬県","prefecture_kana":"グンマケン","city":"太田市","city_kana":"オオタシ","town":"新田赤堀町","town_kana":"ニッタアカボリチョウ","prefecture_code":10},"0304":{"zip_code":"3700304","prefecture":"群馬県","prefecture_kana":"グンマケン","city":"太田市","city_kana":"オオタシ","town":"新田市町","town_kana":"ニッタイチチョウ","prefecture_code":10},"0314":{"zip_code":"3700314","prefecture":"群馬県","prefecture_kana":"グンマケン","city":"太田市","city_kana":"オオタシ","town":"新田市野井町","town_kana":"ニッタイチノイチョウ","prefecture_code":10},"0306":{"zip_code":"3700306","prefecture":"群馬県","prefecture_kana":"グンマケン","city":"太田市","city_kana":"オオタシ","town":"新田市野倉町","town_kana":"ニッタイチノクラチョウ","prefecture_code":10},"0351":{"zip_code":"3700351","prefecture":"群馬県","prefecture_kana":"グンマケン","city":"太田市","city_kana":"オオタシ","town":"新田大町","town_kana":"ニッタオオチョウ","prefecture_code":10},"0347":{"zip_code":"3700347","prefecture":"群馬県","prefecture_kana":"グンマケン","city":"太田市","city_kana":"オオタシ","town":"新田大根町","town_kana":"ニッタオオネチョウ","prefecture_code":10},"0341":{"zip_code":"3700341","prefecture":"群馬県","prefecture_kana":"グンマケン","city":"太田市","city_kana":"オオタシ","town":"新田金井町","town_kana":"ニッタカナイチョウ","prefecture_code":10},"0352":{"zip_code":"3700352","prefecture":"群馬県","prefecture_kana":"グンマケン","city":"太田市","city_kana":"オオタシ","town":"新田嘉祢町","town_kana":"ニッタカネチョウ","prefecture_code":10},"0342":{"zip_code":"3700342","prefecture":"群馬県","prefecture_kana":"グンマケン","city":"太田市","city_kana":"オオタシ","town":"新田上江田町","town_kana":"ニッタカミエダチョウ","prefecture_code":10},"0346":{"zip_code":"3700346","prefecture":"群馬県","prefecture_kana":"グンマケン","city":"太田市","city_kana":"オオタシ","town":"新田上田中町","town_kana":"ニッタカミダナカチョウ","prefecture_code":10},"0353":{"zip_code":"3700353","prefecture":"群馬県","prefecture_kana":"グンマケン","city":"太田市","city_kana":"オオタシ","town":"新田上中町","town_kana":"ニッタカミナカチョウ","prefecture_code":10},"0321":{"zip_code":"3700321","prefecture":"群馬県","prefecture_kana":"グンマケン","city":"太田市","city_kana":"オオタシ","town":"新田木崎町","town_kana":"ニッタキザキチョウ","prefecture_code":10},"0303":{"zip_code":"3700303","prefecture":"群馬県","prefecture_kana":"グンマケン","city":"太田市","city_kana":"オオタシ","town":"新田小金井町","town_kana":"ニッタコガナイチョウ","prefecture_code":10},"0302":{"zip_code":"3700302","prefecture":"群馬県","prefecture_kana":"グンマケン","city":"太田市","city_kana":"オオタシ","town":"新田小金町","town_kana":"ニッタコキンチョウ","prefecture_code":10},"0355":{"zip_code":"3700355","prefecture":"群馬県","prefecture_kana":"グンマケン","city":"太田市","city_kana":"オオタシ","town":"新田権右衛門町","town_kana":"ニッタゴンエモンチョウ","prefecture_code":10},"0333":{"zip_code":"3700333","prefecture":"群馬県","prefecture_kana":"グンマケン","city":"太田市","city_kana":"オオタシ","town":"新田下江田町","town_kana":"ニッタシモエダチョウ","prefecture_code":10},"0343":{"zip_code":"3700343","prefecture":"群馬県","prefecture_kana":"グンマケン","city":"太田市","city_kana":"オオタシ","town":"新田下田中町","town_kana":"ニッタシモダナカチョウ","prefecture_code":10},"0313":{"zip_code":"3700313","prefecture":"群馬県","prefecture_kana":"グンマケン","city":"太田市","city_kana":"オオタシ","town":"新田反町町","town_kana":"ニッタソリマチチョウ","prefecture_code":10},"0334":{"zip_code":"3700334","prefecture":"群馬県","prefecture_kana":"グンマケン","city":"太田市","city_kana":"オオタシ","town":"新田高尾町","town_kana":"ニッタタカオチョウ","prefecture_code":10},"0305":{"zip_code":"3700305","prefecture":"群馬県","prefecture_kana":"グンマケン","city":"太田市","city_kana":"オオタシ","town":"新田多村新田町","town_kana":"ニッタタムラシンデンチョウ","prefecture_code":10},"0354":{"zip_code":"3700354","prefecture":"群馬県","prefecture_kana":"グンマケン","city":"太田市","city_kana":"オオタシ","town":"新田溜池町","town_kana":"ニッタタメイケチョウ","prefecture_code":10},"0301":{"zip_code":"3700301","prefecture":"群馬県","prefecture_kana":"グンマケン","city":"太田市","city_kana":"オオタシ","town":"新田天良町","town_kana":"ニッタテンラチョウ","prefecture_code":10},"0332":{"zip_code":"3700332","prefecture":"群馬県","prefecture_kana":"グンマケン","city":"太田市","city_kana":"オオタシ","town":"新田中江田町","town_kana":"ニッタナカエダチョウ","prefecture_code":10},"0356":{"zip_code":"3700356","prefecture":"群馬県","prefecture_kana":"グンマケン","city":"太田市","city_kana":"オオタシ","town":"新田萩町","town_kana":"ニッタハギチョウ","prefecture_code":10},"0345":{"zip_code":"3700345","prefecture":"群馬県","prefecture_kana":"グンマケン","city":"太田市","city_kana":"オオタシ","town":"新田花香塚町","town_kana":"ニッタハナカヅカチョウ","prefecture_code":10},"0344":{"zip_code":"3700344","prefecture":"群馬県","prefecture_kana":"グンマケン","city":"太田市","city_kana":"オオタシ","town":"新田早川町","town_kana":"ニッタハヤカワチョウ","prefecture_code":10},"0311":{"zip_code":"3700311","prefecture":"群馬県","prefecture_kana":"グンマケン","city":"太田市","city_kana":"オオタシ","town":"新田瑞木町","town_kana":"ニッタミズキチョウ","prefecture_code":10},"0312":{"zip_code":"3700312","prefecture":"群馬県","prefecture_kana":"グンマケン","city":"太田市","city_kana":"オオタシ","town":"新田村田町","town_kana":"ニッタムラタチョウ","prefecture_code":10},"0404":{"zip_code":"3700404","prefecture":"群馬県","prefecture_kana":"グンマケン","city":"太田市","city_kana":"オオタシ","town":"備前島町","town_kana":"ビゼンジマチョウ","prefecture_code":10},"0417":{"zip_code":"3700417","prefecture":"群馬県","prefecture_kana":"グンマケン","city":"太田市","city_kana":"オオタシ","town":"二ツ小屋町","town_kana":"フタツゴヤチョウ","prefecture_code":10},"0414":{"zip_code":"3700414","prefecture":"群馬県","prefecture_kana":"グンマケン","city":"太田市","city_kana":"オオタシ","town":"堀口町","town_kana":"ホリグチチョウ","prefecture_code":10},"0406":{"zip_code":"3700406","prefecture":"群馬県","prefecture_kana":"グンマケン","city":"太田市","city_kana":"オオタシ","town":"前小屋町","town_kana":"マエゴヤチョウ","prefecture_code":10},"0416":{"zip_code":"3700416","prefecture":"群馬県","prefecture_kana":"グンマケン","city":"太田市","city_kana":"オオタシ","town":"前島町","town_kana":"マエジマチョウ","prefecture_code":10},"0415":{"zip_code":"3700415","prefecture":"群馬県","prefecture_kana":"グンマケン","city":"太田市","city_kana":"オオタシ","town":"南ケ丘町","town_kana":"ミナミガオカチョウ","prefecture_code":10},"0418":{"zip_code":"3700418","prefecture":"群馬県","prefecture_kana":"グンマケン","city":"太田市","city_kana":"オオタシ","town":"武蔵島町","town_kana":"ムサシジマチョウ","prefecture_code":10},"1401":{"zip_code":"3701401","prefecture":"群馬県","prefecture_kana":"グンマケン","city":"藤岡市","city_kana":"フジオカシ","town":"鬼石","town_kana":"オニシ","prefecture_code":10},"1404":{"zip_code":"3701404","prefecture":"群馬県","prefecture_kana":"グンマケン","city":"藤岡市","city_kana":"フジオカシ","town":"坂原","town_kana":"サカハラ","prefecture_code":10},"1405":{"zip_code":"3701405","prefecture":"群馬県","prefecture_kana":"グンマケン","city":"藤岡市","city_kana":"フジオカシ","town":"三波川","town_kana":"サンバガワ","prefecture_code":10},"1406":{"zip_code":"3701406","prefecture":"群馬県","prefecture_kana":"グンマケン","city":"藤岡市","city_kana":"フジオカシ","town":"浄法寺","town_kana":"ジョウボウジ","prefecture_code":10},"1403":{"zip_code":"3701403","prefecture":"群馬県","prefecture_kana":"グンマケン","city":"藤岡市","city_kana":"フジオカシ","town":"保美濃山","town_kana":"ホミノヤマ","prefecture_code":10},"1402":{"zip_code":"3701402","prefecture":"群馬県","prefecture_kana":"グンマケン","city":"藤岡市","city_kana":"フジオカシ","town":"譲原","town_kana":"ユズリハラ","prefecture_code":10},"2300":{"zip_code":"3702300","prefecture":"群馬県","prefecture_kana":"グンマケン","city":"富岡市","city_kana":"トミオカシ","town":"","town_kana":"","prefecture_code":10},"2306":{"zip_code":"3702306","prefecture":"群馬県","prefecture_kana":"グンマケン","city":"富岡市","city_kana":"トミオカシ","town":"相野田","town_kana":"アイノタ","prefecture_code":10},"2452":{"zip_code":"3702452","prefecture":"群馬県","prefecture_kana":"グンマケン","city":"富岡市","city_kana":"トミオカシ","town":"一ノ宮","town_kana":"イチノミヤ","prefecture_code":10},"2322":{"zip_code":"3702322","prefecture":"群馬県","prefecture_kana":"グンマケン","city":"富岡市","city_kana":"トミオカシ","town":"岩染","town_kana":"イワソメ","prefecture_code":10},"2451":{"zip_code":"3702451","prefecture":"群馬県","prefecture_kana":"グンマケン","city":"富岡市","city_kana":"トミオカシ","town":"宇田","town_kana":"ウダ","prefecture_code":10},"2335":{"zip_code":"3702335","prefecture":"群馬県","prefecture_kana":"グンマケン","city":"富岡市","city_kana":"トミオカシ","town":"大島","town_kana":"オオシマ","prefecture_code":10},"2321":{"zip_code":"3702321","prefecture":"群馬県","prefecture_kana":"グンマケン","city":"富岡市","city_kana":"トミオカシ","town":"岡本","town_kana":"オカモト","prefecture_code":10},"2466":{"zip_code":"3702466","prefecture":"群馬県","prefecture_kana":"グンマケン","city":"富岡市","city_kana":"トミオカシ","town":"蚊沼","town_kana":"カヌマ","prefecture_code":10},"2455":{"zip_code":"3702455","prefecture":"群馬県","prefecture_kana":"グンマケン","city":"富岡市","city_kana":"トミオカシ","town":"神農原","town_kana":"カノハラ","prefecture_code":10},"2345":{"zip_code":"3702345","prefecture":"群馬県","prefecture_kana":"グンマケン","city":"富岡市","city_kana":"トミオカシ","town":"上黒岩","town_kana":"カミクロイワ","prefecture_code":10},"2456":{"zip_code":"3702456","prefecture":"群馬県","prefecture_kana":"グンマケン","city":"富岡市","city_kana":"トミオカシ","town":"上小林","town_kana":"カミコバヤシ","prefecture_code":10},"2317":{"zip_code":"3702317","prefecture":"群馬県","prefecture_kana":"グンマケン","city":"富岡市","city_kana":"トミオカシ","town":"上高尾","town_kana":"カミタカオ","prefecture_code":10},"2334":{"zip_code":"3702334","prefecture":"群馬県","prefecture_kana":"グンマケン","city":"富岡市","city_kana":"トミオカシ","town":"上高瀬","town_kana":"カミダカセ","prefecture_code":10},"2461":{"zip_code":"3702461","prefecture":"群馬県","prefecture_kana":"グンマケン","city":"富岡市","city_kana":"トミオカシ","town":"上丹生","town_kana":"カミニュウ","prefecture_code":10},"2463":{"zip_code":"3702463","prefecture":"群馬県","prefecture_kana":"グンマケン","city":"富岡市","city_kana":"トミオカシ","town":"神成","town_kana":"カンナリ","prefecture_code":10},"2313":{"zip_code":"3702313","prefecture":"群馬県","prefecture_kana":"グンマケン","city":"富岡市","city_kana":"トミオカシ","town":"君川","town_kana":"キミカワ","prefecture_code":10},"2344":{"zip_code":"3702344","prefecture":"群馬県","prefecture_kana":"グンマケン","city":"富岡市","city_kana":"トミオカシ","town":"黒川","town_kana":"クロカワ","prefecture_code":10},"2301":{"zip_code":"3702301","prefecture":"群馬県","prefecture_kana":"グンマケン","city":"富岡市","city_kana":"トミオカシ","town":"桑原","town_kana":"クワハラ","prefecture_code":10},"2304":{"zip_code":"3702304","prefecture":"群馬県","prefecture_kana":"グンマケン","city":"富岡市","city_kana":"トミオカシ","town":"後賀","town_kana":"ゴカ","prefecture_code":10},"2302":{"zip_code":"3702302","prefecture":"群馬県","prefecture_kana":"グンマケン","city":"富岡市","city_kana":"トミオカシ","town":"小桑原","town_kana":"コクワハラ","prefecture_code":10},"2341":{"zip_code":"3702341","prefecture":"群馬県","prefecture_kana":"グンマケン","city":"富岡市","city_kana":"トミオカシ","town":"下黒岩","town_kana":"シモクロイワ","prefecture_code":10},"2311":{"zip_code":"3702311","prefecture":"群馬県","prefecture_kana":"グンマケン","city":"富岡市","city_kana":"トミオカシ","town":"下高尾","town_kana":"シモタカオ","prefecture_code":10},"2332":{"zip_code":"3702332","prefecture":"群馬県","prefecture_kana":"グンマケン","city":"富岡市","city_kana":"トミオカシ","town":"下高瀬","town_kana":"シモダカセ","prefecture_code":10},"2462":{"zip_code":"3702462","prefecture":"群馬県","prefecture_kana":"グンマケン","city":"富岡市","city_kana":"トミオカシ","town":"下丹生","town_kana":"シモニュウ","prefecture_code":10},"2305":{"zip_code":"3702305","prefecture":"群馬県","prefecture_kana":"グンマケン","city":"富岡市","city_kana":"トミオカシ","town":"白岩","town_kana":"シライワ","prefecture_code":10},"2315":{"zip_code":"3702315","prefecture":"群馬県","prefecture_kana":"グンマケン","city":"富岡市","city_kana":"トミオカシ","town":"曾木","town_kana":"ソギ","prefecture_code":10},"2331":{"zip_code":"3702331","prefecture":"群馬県","prefecture_kana":"グンマケン","city":"富岡市","city_kana":"トミオカシ","town":"内匠","town_kana":"タクミ","prefecture_code":10},"2314":{"zip_code":"3702314","prefecture":"群馬県","prefecture_kana":"グンマケン","city":"富岡市","city_kana":"トミオカシ","town":"田篠","town_kana":"タジノ","prefecture_code":10},"2454":{"zip_code":"3702454","prefecture":"群馬県","prefecture_kana":"グンマケン","city":"富岡市","city_kana":"トミオカシ","town":"田島","town_kana":"タジマ","prefecture_code":10},"2316":{"zip_code":"3702316","prefecture":"群馬県","prefecture_kana":"グンマケン","city":"富岡市","city_kana":"トミオカシ","town":"富岡","town_kana":"トミオカ","prefecture_code":10},"2465":{"zip_code":"3702465","prefecture":"群馬県","prefecture_kana":"グンマケン","city":"富岡市","city_kana":"トミオカシ","town":"中沢","town_kana":"ナカザワ","prefecture_code":10},"2333":{"zip_code":"3702333","prefecture":"群馬県","prefecture_kana":"グンマケン","city":"富岡市","city_kana":"トミオカシ","town":"中高瀬","town_kana":"ナカダカセ","prefecture_code":10},"2343":{"zip_code":"3702343","prefecture":"群馬県","prefecture_kana":"グンマケン","city":"富岡市","city_kana":"トミオカシ","town":"七日市","town_kana":"ナノカイチ","prefecture_code":10},"2464":{"zip_code":"3702464","prefecture":"群馬県","prefecture_kana":"グンマケン","city":"富岡市","city_kana":"トミオカシ","town":"南蛇井","town_kana":"ナンジャイ","prefecture_code":10},"2323":{"zip_code":"3702323","prefecture":"群馬県","prefecture_kana":"グンマケン","city":"富岡市","city_kana":"トミオカシ","town":"野上","town_kana":"ノガミ","prefecture_code":10},"2467":{"zip_code":"3702467","prefecture":"群馬県","prefecture_kana":"グンマケン","city":"富岡市","city_kana":"トミオカシ","town":"原","town_kana":"ハラ","prefecture_code":10},"2307":{"zip_code":"3702307","prefecture":"群馬県","prefecture_kana":"グンマケン","city":"富岡市","city_kana":"トミオカシ","town":"藤木","town_kana":"フジキ","prefecture_code":10},"2342":{"zip_code":"3702342","prefecture":"群馬県","prefecture_kana":"グンマケン","city":"富岡市","city_kana":"トミオカシ","town":"別保","town_kana":"ベツポ","prefecture_code":10},"2312":{"zip_code":"3702312","prefecture":"群馬県","prefecture_kana":"グンマケン","city":"富岡市","city_kana":"トミオカシ","town":"星田","town_kana":"ホシダ","prefecture_code":10},"2324":{"zip_code":"3702324","prefecture":"群馬県","prefecture_kana":"グンマケン","city":"富岡市","city_kana":"トミオカシ","town":"南後箇","town_kana":"ミナミゴカ","prefecture_code":10},"2453":{"zip_code":"3702453","prefecture":"群馬県","prefecture_kana":"グンマケン","city":"富岡市","city_kana":"トミオカシ","town":"宮崎","town_kana":"ミヤザキ","prefecture_code":10},"2411":{"zip_code":"3702411","prefecture":"群馬県","prefecture_kana":"グンマケン","city":"富岡市","city_kana":"トミオカシ","town":"妙義町上高田","town_kana":"ミョウギマチカミタカタ","prefecture_code":10},"2412":{"zip_code":"3702412","prefecture":"群馬県","prefecture_kana":"グンマケン","city":"富岡市","city_kana":"トミオカシ","town":"妙義町下高田","town_kana":"ミョウギマチシモタカタ","prefecture_code":10},"2413":{"zip_code":"3702413","prefecture":"群馬県","prefecture_kana":"グンマケン","city":"富岡市","city_kana":"トミオカシ","town":"妙義町八木連","town_kana":"ミョウギマチヤギツレ","prefecture_code":10},"2303":{"zip_code":"3702303","prefecture":"群馬県","prefecture_kana":"グンマケン","city":"富岡市","city_kana":"トミオカシ","town":"蕨","town_kana":"ワラビ","prefecture_code":10},"3500":{"zip_code":"3703500","prefecture":"群馬県","prefecture_kana":"グンマケン","city":"北群馬郡榛東村","city_kana":"キタグンマグンシントウムラ","town":"","town_kana":"","prefecture_code":10},"3503":{"zip_code":"3703503","prefecture":"群馬県","prefecture_kana":"グンマケン","city":"北群馬郡榛東村","city_kana":"キタグンマグンシントウムラ","town":"新井","town_kana":"アライ","prefecture_code":10},"3505":{"zip_code":"3703505","prefecture":"群馬県","prefecture_kana":"グンマケン","city":"北群馬郡榛東村","city_kana":"キタグンマグンシントウムラ","town":"上野原","town_kana":"ウエノハラ","prefecture_code":10},"3501":{"zip_code":"3703501","prefecture":"群馬県","prefecture_kana":"グンマケン","city":"北群馬郡榛東村","city_kana":"キタグンマグンシントウムラ","town":"長岡","town_kana":"ナガオカ","prefecture_code":10},"3504":{"zip_code":"3703504","prefecture":"群馬県","prefecture_kana":"グンマケン","city":"北群馬郡榛東村","city_kana":"キタグンマグンシントウムラ","town":"広馬場","town_kana":"ヒロババ","prefecture_code":10},"3502":{"zip_code":"3703502","prefecture":"群馬県","prefecture_kana":"グンマケン","city":"北群馬郡榛東村","city_kana":"キタグンマグンシントウムラ","town":"山子田","town_kana":"ヤマコダ","prefecture_code":10},"3600":{"zip_code":"3703600","prefecture":"群馬県","prefecture_kana":"グンマケン","city":"北群馬郡吉岡町","city_kana":"キタグンマグンヨシオカマチ","town":"","town_kana":"","prefecture_code":10},"3601":{"zip_code":"3703601","prefecture":"群馬県","prefecture_kana":"グンマケン","city":"北群馬郡吉岡町","city_kana":"キタグンマグンヨシオカマチ","town":"漆原","town_kana":"ウルシバラ","prefecture_code":10},"3602":{"zip_code":"3703602","prefecture":"群馬県","prefecture_kana":"グンマケン","city":"北群馬郡吉岡町","city_kana":"キタグンマグンヨシオカマチ","town":"大久保","town_kana":"オオクボ","prefecture_code":10},"3607":{"zip_code":"3703607","prefecture":"群馬県","prefecture_kana":"グンマケン","city":"北群馬郡吉岡町","city_kana":"キタグンマグンヨシオカマチ","town":"小倉","town_kana":"オグラ","prefecture_code":10},"3606":{"zip_code":"3703606","prefecture":"群馬県","prefecture_kana":"グンマケン","city":"北群馬郡吉岡町","city_kana":"キタグンマグンヨシオカマチ","town":"上野田","town_kana":"カミノダ","prefecture_code":10},"3605":{"zip_code":"3703605","prefecture":"群馬県","prefecture_kana":"グンマケン","city":"北群馬郡吉岡町","city_kana":"キタグンマグンヨシオカマチ","town":"北下","town_kana":"キタシモ","prefecture_code":10},"3608":{"zip_code":"3703608","prefecture":"群馬県","prefecture_kana":"グンマケン","city":"北群馬郡吉岡町","city_kana":"キタグンマグンヨシオカマチ","town":"下野田","town_kana":"シモノダ","prefecture_code":10},"3603":{"zip_code":"3703603","prefecture":"群馬県","prefecture_kana":"グンマケン","city":"北群馬郡吉岡町","city_kana":"キタグンマグンヨシオカマチ","town":"陣場","town_kana":"ジンバ","prefecture_code":10},"3604":{"zip_code":"3703604","prefecture":"群馬県","prefecture_kana":"グンマケン","city":"北群馬郡吉岡町","city_kana":"キタグンマグンヨシオカマチ","town":"南下","town_kana":"ミナミシモ","prefecture_code":10},"1600":{"zip_code":"3701600","prefecture":"群馬県","prefecture_kana":"グンマケン","city":"多野郡神流町","city_kana":"タノグンカンナマチ","town":"","town_kana":"","prefecture_code":10},"1616":{"zip_code":"3701616","prefecture":"群馬県","prefecture_kana":"グンマケン","city":"多野郡上野村","city_kana":"タノグンウエノムラ","town":"乙父","town_kana":"オッチ","prefecture_code":10},"1615":{"zip_code":"3701615","prefecture":"群馬県","prefecture_kana":"グンマケン","city":"多野郡上野村","city_kana":"タノグンウエノムラ","town":"乙母","town_kana":"オトモ","prefecture_code":10},"1613":{"zip_code":"3701613","prefecture":"群馬県","prefecture_kana":"グンマケン","city":"多野郡上野村","city_kana":"タノグンウエノムラ","town":"勝山","town_kana":"カツヤマ","prefecture_code":10},"1614":{"zip_code":"3701614","prefecture":"群馬県","prefecture_kana":"グンマケン","city":"多野郡上野村","city_kana":"タノグンウエノムラ","town":"川和","town_kana":"カワワ","prefecture_code":10},"1617":{"zip_code":"3701617","prefecture":"群馬県","prefecture_kana":"グンマケン","city":"多野郡上野村","city_kana":"タノグンウエノムラ","town":"楢原","town_kana":"ナラハラ","prefecture_code":10},"1611":{"zip_code":"3701611","prefecture":"群馬県","prefecture_kana":"グンマケン","city":"多野郡上野村","city_kana":"タノグンウエノムラ","town":"新羽","town_kana":"ニッパ","prefecture_code":10},"1612":{"zip_code":"3701612","prefecture":"群馬県","prefecture_kana":"グンマケン","city":"多野郡上野村","city_kana":"タノグンウエノムラ","town":"野栗沢","town_kana":"ノグリサワ","prefecture_code":10},"1511":{"zip_code":"3701511","prefecture":"群馬県","prefecture_kana":"グンマケン","city":"多野郡神流町","city_kana":"タノグンカンナマチ","town":"相原","town_kana":"アイバラ","prefecture_code":10},"1512":{"zip_code":"3701512","prefecture":"群馬県","prefecture_kana":"グンマケン","city":"多野郡神流町","city_kana":"タノグンカンナマチ","town":"青梨","town_kana":"アオナシ","prefecture_code":10},"1502":{"zip_code":"3701502","prefecture":"群馬県","prefecture_kana":"グンマケン","city":"多野郡神流町","city_kana":"タノグンカンナマチ","town":"麻生","town_kana":"アソウ","prefecture_code":10},"1604":{"zip_code":"3701604","prefecture":"群馬県","prefecture_kana":"グンマケン","city":"多野郡神流町","city_kana":"タノグンカンナマチ","town":"尾附","town_kana":"オヅク","prefecture_code":10},"1602":{"zip_code":"3701602","prefecture":"群馬県","prefecture_kana":"グンマケン","city":"多野郡神流町","city_kana":"タノグンカンナマチ","town":"神ケ原","town_kana":"カガハラ","prefecture_code":10},"1501":{"zip_code":"3701501","prefecture":"群馬県","prefecture_kana":"グンマケン","city":"多野郡神流町","city_kana":"タノグンカンナマチ","town":"柏木","town_kana":"カシワギ","prefecture_code":10},"1506":{"zip_code":"3701506","prefecture":"群馬県","prefecture_kana":"グンマケン","city":"多野郡神流町","city_kana":"タノグンカンナマチ","town":"黒田","town_kana":"クロダ","prefecture_code":10},"1513":{"zip_code":"3701513","prefecture":"群馬県","prefecture_kana":"グンマケン","city":"多野郡神流町","city_kana":"タノグンカンナマチ","town":"小平","town_kana":"コダイラ","prefecture_code":10},"1514":{"zip_code":"3701514","prefecture":"群馬県","prefecture_kana":"グンマケン","city":"多野郡神流町","city_kana":"タノグンカンナマチ","town":"塩沢","town_kana":"シオザワ","prefecture_code":10},"1503":{"zip_code":"3701503","prefecture":"群馬県","prefecture_kana":"グンマケン","city":"多野郡神流町","city_kana":"タノグンカンナマチ","town":"生利","town_kana":"ショウリ","prefecture_code":10},"1515":{"zip_code":"3701515","prefecture":"群馬県","prefecture_kana":"グンマケン","city":"多野郡神流町","city_kana":"タノグンカンナマチ","town":"船子","town_kana":"フナコ","prefecture_code":10},"1603":{"zip_code":"3701603","prefecture":"群馬県","prefecture_kana":"グンマケン","city":"多野郡神流町","city_kana":"タノグンカンナマチ","town":"平原","town_kana":"ヘバラ","prefecture_code":10},"1504":{"zip_code":"3701504","prefecture":"群馬県","prefecture_kana":"グンマケン","city":"多野郡神流町","city_kana":"タノグンカンナマチ","town":"万場","town_kana":"マンバ","prefecture_code":10},"1505":{"zip_code":"3701505","prefecture":"群馬県","prefecture_kana":"グンマケン","city":"多野郡神流町","city_kana":"タノグンカンナマチ","town":"森戸","town_kana":"モリド","prefecture_code":10},"1601":{"zip_code":"3701601","prefecture":"群馬県","prefecture_kana":"グンマケン","city":"多野郡神流町","city_kana":"タノグンカンナマチ","town":"魚尾","town_kana":"ヨノオ","prefecture_code":10},"2600":{"zip_code":"3702600","prefecture":"群馬県","prefecture_kana":"グンマケン","city":"甘楽郡下仁田町","city_kana":"カンラグンシモニタマチ","town":"","town_kana":"","prefecture_code":10},"2611":{"zip_code":"3702611","prefecture":"群馬県","prefecture_kana":"グンマケン","city":"甘楽郡下仁田町","city_kana":"カンラグンシモニタマチ","town":"青倉","town_kana":"アオクラ","prefecture_code":10},"2613":{"zip_code":"3702613","prefecture":"群馬県","prefecture_kana":"グンマケン","city":"甘楽郡下仁田町","city_kana":"カンラグンシモニタマチ","town":"大桑原","town_kana":"オオクワハラ","prefecture_code":10},"2614":{"zip_code":"3702614","prefecture":"群馬県","prefecture_kana":"グンマケン","city":"甘楽郡下仁田町","city_kana":"カンラグンシモニタマチ","town":"風口","town_kana":"カザクチ","prefecture_code":10},"2621":{"zip_code":"3702621","prefecture":"群馬県","prefecture_kana":"グンマケン","city":"甘楽郡下仁田町","city_kana":"カンラグンシモニタマチ","town":"上小坂","town_kana":"カミオサカ","prefecture_code":10},"2606":{"zip_code":"3702606","prefecture":"群馬県","prefecture_kana":"グンマケン","city":"甘楽郡下仁田町","city_kana":"カンラグンシモニタマチ","town":"川井","town_kana":"カワイ","prefecture_code":10},"2605":{"zip_code":"3702605","prefecture":"群馬県","prefecture_kana":"グンマケン","city":"甘楽郡下仁田町","city_kana":"カンラグンシモニタマチ","town":"栗山","town_kana":"クリヤマ","prefecture_code":10},"2623":{"zip_code":"3702623","prefecture":"群馬県","prefecture_kana":"グンマケン","city":"甘楽郡下仁田町","city_kana":"カンラグンシモニタマチ","town":"下小坂","town_kana":"シモオサカ","prefecture_code":10},"2616":{"zip_code":"3702616","prefecture":"群馬県","prefecture_kana":"グンマケン","city":"甘楽郡下仁田町","city_kana":"カンラグンシモニタマチ","town":"下郷","town_kana":"シモゴウ","prefecture_code":10},"2601":{"zip_code":"3702601","prefecture":"群馬県","prefecture_kana":"グンマケン","city":"甘楽郡下仁田町","city_kana":"カンラグンシモニタマチ","town":"下仁田","town_kana":"シモニタ","prefecture_code":10},"2622":{"zip_code":"3702622","prefecture":"群馬県","prefecture_kana":"グンマケン","city":"甘楽郡下仁田町","city_kana":"カンラグンシモニタマチ","town":"中小坂","town_kana":"ナカオサカ","prefecture_code":10},"2627":{"zip_code":"3702627","prefecture":"群馬県","prefecture_kana":"グンマケン","city":"甘楽郡下仁田町","city_kana":"カンラグンシモニタマチ","town":"西野牧","town_kana":"ニシノマキ","prefecture_code":10},"2602":{"zip_code":"3702602","prefecture":"群馬県","prefecture_kana":"グンマケン","city":"甘楽郡下仁田町","city_kana":"カンラグンシモニタマチ","town":"白山","town_kana":"ハクサン","prefecture_code":10},"2624":{"zip_code":"3702624","prefecture":"群馬県","prefecture_kana":"グンマケン","city":"甘楽郡下仁田町","city_kana":"カンラグンシモニタマチ","town":"東野牧","town_kana":"ヒガシノマキ","prefecture_code":10},"2612":{"zip_code":"3702612","prefecture":"群馬県","prefecture_kana":"グンマケン","city":"甘楽郡下仁田町","city_kana":"カンラグンシモニタマチ","town":"平原","town_kana":"ヘバラ","prefecture_code":10},"2603":{"zip_code":"3702603","prefecture":"群馬県","prefecture_kana":"グンマケン","city":"甘楽郡下仁田町","city_kana":"カンラグンシモニタマチ","town":"馬山","town_kana":"マヤマ","prefecture_code":10},"2626":{"zip_code":"3702626","prefecture":"群馬県","prefecture_kana":"グンマケン","city":"甘楽郡下仁田町","city_kana":"カンラグンシモニタマチ","town":"南野牧","town_kana":"ミナミノマキ","prefecture_code":10},"2615":{"zip_code":"3702615","prefecture":"群馬県","prefecture_kana":"グンマケン","city":"甘楽郡下仁田町","city_kana":"カンラグンシモニタマチ","town":"宮室","town_kana":"ミヤムロ","prefecture_code":10},"2625":{"zip_code":"3702625","prefecture":"群馬県","prefecture_kana":"グンマケン","city":"甘楽郡下仁田町","city_kana":"カンラグンシモニタマチ","town":"本宿","town_kana":"モトジュク","prefecture_code":10},"2604":{"zip_code":"3702604","prefecture":"群馬県","prefecture_kana":"グンマケン","city":"甘楽郡下仁田町","city_kana":"カンラグンシモニタマチ","town":"吉崎","town_kana":"ヨシザキ","prefecture_code":10},"2800":{"zip_code":"3702800","prefecture":"群馬県","prefecture_kana":"グンマケン","city":"甘楽郡南牧村","city_kana":"カンラグンナンモクムラ","town":"","town_kana":"","prefecture_code":10},"2804":{"zip_code":"3702804","prefecture":"群馬県","prefecture_kana":"グンマケン","city":"甘楽郡南牧村","city_kana":"カンラグンナンモクムラ","town":"磐戸","town_kana":"イワド","prefecture_code":10},"2801":{"zip_code":"3702801","prefecture":"群馬県","prefecture_kana":"グンマケン","city":"甘楽郡南牧村","city_kana":"カンラグンナンモクムラ","town":"大塩沢","town_kana":"オオシオザワ","prefecture_code":10},"2812":{"zip_code":"3702812","prefecture":"群馬県","prefecture_kana":"グンマケン","city":"甘楽郡南牧村","city_kana":"カンラグンナンモクムラ","town":"大仁田","town_kana":"オオニタ","prefecture_code":10},"2806":{"zip_code":"3702806","prefecture":"群馬県","prefecture_kana":"グンマケン","city":"甘楽郡南牧村","city_kana":"カンラグンナンモクムラ","town":"大日向","town_kana":"オオヒナタ","prefecture_code":10},"2802":{"zip_code":"3702802","prefecture":"群馬県","prefecture_kana":"グンマケン","city":"甘楽郡南牧村","city_kana":"カンラグンナンモクムラ","town":"小沢","town_kana":"オザワ","prefecture_code":10},"2815":{"zip_code":"3702815","prefecture":"群馬県","prefecture_kana":"グンマケン","city":"甘楽郡南牧村","city_kana":"カンラグンナンモクムラ","town":"熊倉","town_kana":"クマクラ","prefecture_code":10},"2803":{"zip_code":"3702803","prefecture":"群馬県","prefecture_kana":"グンマケン","city":"甘楽郡南牧村","city_kana":"カンラグンナンモクムラ","town":"千原","town_kana":"チハラ","prefecture_code":10},"2813":{"zip_code":"3702813","prefecture":"群馬県","prefecture_kana":"グンマケン","city":"甘楽郡南牧村","city_kana":"カンラグンナンモクムラ","town":"砥沢","town_kana":"トザワ","prefecture_code":10},"2814":{"zip_code":"3702814","prefecture":"群馬県","prefecture_kana":"グンマケン","city":"甘楽郡南牧村","city_kana":"カンラグンナンモクムラ","town":"羽沢","town_kana":"ハザワ","prefecture_code":10},"2805":{"zip_code":"3702805","prefecture":"群馬県","prefecture_kana":"グンマケン","city":"甘楽郡南牧村","city_kana":"カンラグンナンモクムラ","town":"檜沢","town_kana":"ヒサワ","prefecture_code":10},"2816":{"zip_code":"3702816","prefecture":"群馬県","prefecture_kana":"グンマケン","city":"甘楽郡南牧村","city_kana":"カンラグンナンモクムラ","town":"星尾","town_kana":"ホシオ","prefecture_code":10},"2811":{"zip_code":"3702811","prefecture":"群馬県","prefecture_kana":"グンマケン","city":"甘楽郡南牧村","city_kana":"カンラグンナンモクムラ","town":"六車","town_kana":"ムクルマ","prefecture_code":10},"2200":{"zip_code":"3702200","prefecture":"群馬県","prefecture_kana":"グンマケン","city":"甘楽郡甘楽町","city_kana":"カンラグンカンラマチ","town":"","town_kana":"","prefecture_code":10},"2204":{"zip_code":"3702204","prefecture":"群馬県","prefecture_kana":"グンマケン","city":"甘楽郡甘楽町","city_kana":"カンラグンカンラマチ","town":"秋畑","town_kana":"アキハタ","prefecture_code":10},"2217":{"zip_code":"3702217","prefecture":"群馬県","prefecture_kana":"グンマケン","city":"甘楽郡甘楽町","city_kana":"カンラグンカンラマチ","town":"天引","town_kana":"アマビキ","prefecture_code":10},"2201":{"zip_code":"3702201","prefecture":"群馬県","prefecture_kana":"グンマケン","city":"甘楽郡甘楽町","city_kana":"カンラグンカンラマチ","town":"上野","town_kana":"ウエノ","prefecture_code":10},"2211":{"zip_code":"3702211","prefecture":"群馬県","prefecture_kana":"グンマケン","city":"甘楽郡甘楽町","city_kana":"カンラグンカンラマチ","town":"小川","town_kana":"オガワ","prefecture_code":10},"2202":{"zip_code":"3702202","prefecture":"群馬県","prefecture_kana":"グンマケン","city":"甘楽郡甘楽町","city_kana":"カンラグンカンラマチ","town":"小幡","town_kana":"オバタ","prefecture_code":10},"2216":{"zip_code":"3702216","prefecture":"群馬県","prefecture_kana":"グンマケン","city":"甘楽郡甘楽町","city_kana":"カンラグンカンラマチ","town":"金井","town_kana":"カナイ","prefecture_code":10},"2205":{"zip_code":"3702205","prefecture":"群馬県","prefecture_kana":"グンマケン","city":"甘楽郡甘楽町","city_kana":"カンラグンカンラマチ","town":"国峰","town_kana":"クニミネ","prefecture_code":10},"2213":{"zip_code":"3702213","prefecture":"群馬県","prefecture_kana":"グンマケン","city":"甘楽郡甘楽町","city_kana":"カンラグンカンラマチ","town":"白倉","town_kana":"シラクラ","prefecture_code":10},"2206":{"zip_code":"3702206","prefecture":"群馬県","prefecture_kana":"グンマケン","city":"甘楽郡甘楽町","city_kana":"カンラグンカンラマチ","town":"善慶寺","town_kana":"ゼンケイジ","prefecture_code":10},"2215":{"zip_code":"3702215","prefecture":"群馬県","prefecture_kana":"グンマケン","city":"甘楽郡甘楽町","city_kana":"カンラグンカンラマチ","town":"造石","town_kana":"ツクリイシ","prefecture_code":10},"2203":{"zip_code":"3702203","prefecture":"群馬県","prefecture_kana":"グンマケン","city":"甘楽郡甘楽町","city_kana":"カンラグンカンラマチ","town":"轟","town_kana":"トドロク","prefecture_code":10},"2214":{"zip_code":"3702214","prefecture":"群馬県","prefecture_kana":"グンマケン","city":"甘楽郡甘楽町","city_kana":"カンラグンカンラマチ","town":"庭谷","town_kana":"ニワヤ","prefecture_code":10},"2212":{"zip_code":"3702212","prefecture":"群馬県","prefecture_kana":"グンマケン","city":"甘楽郡甘楽町","city_kana":"カンラグンカンラマチ","town":"福島","town_kana":"フクシマ","prefecture_code":10},"3321":{"zip_code":"3703321","prefecture":"群馬県","prefecture_kana":"グンマケン","city":"吾妻郡東吾妻町","city_kana":"アガツマグンヒガシアガツママチ","town":"泉沢","town_kana":"イズミサワ","prefecture_code":10},"3311":{"zip_code":"3703311","prefecture":"群馬県","prefecture_kana":"グンマケン","city":"吾妻郡東吾妻町","city_kana":"アガツマグンヒガシアガツママチ","town":"岡崎","town_kana":"オカザキ","prefecture_code":10},"3322":{"zip_code":"3703322","prefecture":"群馬県","prefecture_kana":"グンマケン","city":"吾妻郡東吾妻町","city_kana":"アガツマグンヒガシアガツママチ","town":"川戸","town_kana":"カワド","prefecture_code":10},"1100":{"zip_code":"3701100","prefecture":"群馬県","prefecture_kana":"グンマケン","city":"佐波郡玉村町","city_kana":"サワグンタマムラマチ","town":"","town_kana":"","prefecture_code":10},"1116":{"zip_code":"3701116","prefecture":"群馬県","prefecture_kana":"グンマケン","city":"佐波郡玉村町","city_kana":"サワグンタマムラマチ","town":"飯倉","town_kana":"イイグラ","prefecture_code":10},"1102":{"zip_code":"3701102","prefecture":"群馬県","prefecture_kana":"グンマケン","city":"佐波郡玉村町","city_kana":"サワグンタマムラマチ","town":"飯塚","town_kana":"イイヅカ","prefecture_code":10},"1135":{"zip_code":"3701135","prefecture":"群馬県","prefecture_kana":"グンマケン","city":"佐波郡玉村町","city_kana":"サワグンタマムラマチ","town":"板井","town_kana":"イタイ","prefecture_code":10},"1126":{"zip_code":"3701126","prefecture":"群馬県","prefecture_kana":"グンマケン","city":"佐波郡玉村町","city_kana":"サワグンタマムラマチ","town":"宇貫","town_kana":"ウヌキ","prefecture_code":10},"1121":{"zip_code":"3701121","prefecture":"群馬県","prefecture_kana":"グンマケン","city":"佐波郡玉村町","city_kana":"サワグンタマムラマチ","town":"上飯島","town_kana":"カミイイジマ","prefecture_code":10},"1133":{"zip_code":"3701133","prefecture":"群馬県","prefecture_kana":"グンマケン","city":"佐波郡玉村町","city_kana":"サワグンタマムラマチ","town":"上新田","town_kana":"カミシンデン","prefecture_code":10},"1127":{"zip_code":"3701127","prefecture":"群馬県","prefecture_kana":"グンマケン","city":"佐波郡玉村町","city_kana":"サワグンタマムラマチ","town":"上之手","town_kana":"カミノテ","prefecture_code":10},"1104":{"zip_code":"3701104","prefecture":"群馬県","prefecture_kana":"グンマケン","city":"佐波郡玉村町","city_kana":"サワグンタマムラマチ","town":"上福島","town_kana":"カミフクシマ","prefecture_code":10},"1122":{"zip_code":"3701122","prefecture":"群馬県","prefecture_kana":"グンマケン","city":"佐波郡玉村町","city_kana":"サワグンタマムラマチ","town":"上茂木","town_kana":"カミモギ","prefecture_code":10},"1117":{"zip_code":"3701117","prefecture":"群馬県","prefecture_kana":"グンマケン","city":"佐波郡玉村町","city_kana":"サワグンタマムラマチ","town":"川井","town_kana":"カワイ","prefecture_code":10},"1114":{"zip_code":"3701114","prefecture":"群馬県","prefecture_kana":"グンマケン","city":"佐波郡玉村町","city_kana":"サワグンタマムラマチ","town":"小泉","town_kana":"コイズミ","prefecture_code":10},"1128":{"zip_code":"3701128","prefecture":"群馬県","prefecture_kana":"グンマケン","city":"佐波郡玉村町","city_kana":"サワグンタマムラマチ","town":"後箇","town_kana":"ゴカ","prefecture_code":10},"1115":{"zip_code":"3701115","prefecture":"群馬県","prefecture_kana":"グンマケン","city":"佐波郡玉村町","city_kana":"サワグンタマムラマチ","town":"五料","town_kana":"ゴリョウ","prefecture_code":10},"1131":{"zip_code":"3701131","prefecture":"群馬県","prefecture_kana":"グンマケン","city":"佐波郡玉村町","city_kana":"サワグンタマムラマチ","town":"斎田","town_kana":"サイダ","prefecture_code":10},"1132":{"zip_code":"3701132","prefecture":"群馬県","prefecture_kana":"グンマケン","city":"佐波郡玉村町","city_kana":"サワグンタマムラマチ","town":"下新田","town_kana":"シモシンデン","prefecture_code":10},"1112":{"zip_code":"3701112","prefecture":"群馬県","prefecture_kana":"グンマケン","city":"佐波郡玉村町","city_kana":"サワグンタマムラマチ","town":"下之宮","town_kana":"シモノミヤ","prefecture_code":10},"1123":{"zip_code":"3701123","prefecture":"群馬県","prefecture_kana":"グンマケン","city":"佐波郡玉村町","city_kana":"サワグンタマムラマチ","town":"下茂木","town_kana":"シモモギ","prefecture_code":10},"1124":{"zip_code":"3701124","prefecture":"群馬県","prefecture_kana":"グンマケン","city":"佐波郡玉村町","city_kana":"サワグンタマムラマチ","town":"角渕","town_kana":"ツノブチ","prefecture_code":10},"1111":{"zip_code":"3701111","prefecture":"群馬県","prefecture_kana":"グンマケン","city":"佐波郡玉村町","city_kana":"サワグンタマムラマチ","town":"南玉","town_kana":"ナンギョク","prefecture_code":10},"1113":{"zip_code":"3701113","prefecture":"群馬県","prefecture_kana":"グンマケン","city":"佐波郡玉村町","city_kana":"サワグンタマムラマチ","town":"箱石","town_kana":"ハコイシ","prefecture_code":10},"1103":{"zip_code":"3701103","prefecture":"群馬県","prefecture_kana":"グンマケン","city":"佐波郡玉村町","city_kana":"サワグンタマムラマチ","town":"樋越","town_kana":"ヒゴシ","prefecture_code":10},"1105":{"zip_code":"3701105","prefecture":"群馬県","prefecture_kana":"グンマケン","city":"佐波郡玉村町","city_kana":"サワグンタマムラマチ","town":"福島","town_kana":"フクジマ","prefecture_code":10},"1101":{"zip_code":"3701101","prefecture":"群馬県","prefecture_kana":"グンマケン","city":"佐波郡玉村町","city_kana":"サワグンタマムラマチ","town":"藤川","town_kana":"フジカワ","prefecture_code":10},"1125":{"zip_code":"3701125","prefecture":"群馬県","prefecture_kana":"グンマケン","city":"佐波郡玉村町","city_kana":"サワグンタマムラマチ","town":"八幡原","town_kana":"ヤワタバラ","prefecture_code":10},"1134":{"zip_code":"3701134","prefecture":"群馬県","prefecture_kana":"グンマケン","city":"佐波郡玉村町","city_kana":"サワグンタマムラマチ","town":"与六分","town_kana":"ヨロクブ","prefecture_code":10},"0700":{"zip_code":"3700700","prefecture":"群馬県","prefecture_kana":"グンマケン","city":"邑楽郡明和町","city_kana":"オウラグンメイワマチ","town":"","town_kana":"","prefecture_code":10},"0711":{"zip_code":"3700711","prefecture":"群馬県","prefecture_kana":"グンマケン","city":"邑楽郡明和町","city_kana":"オウラグンメイワマチ","town":"入ケ谷","town_kana":"イリカヤ","prefecture_code":10},"0714":{"zip_code":"3700714","prefecture":"群馬県","prefecture_kana":"グンマケン","city":"邑楽郡明和町","city_kana":"オウラグンメイワマチ","town":"梅原","town_kana":"ウメバラ","prefecture_code":10},"0706":{"zip_code":"3700706","prefecture":"群馬県","prefecture_kana":"グンマケン","city":"邑楽郡明和町","city_kana":"オウラグンメイワマチ","town":"江口","town_kana":"エグチ","prefecture_code":10},"0715":{"zip_code":"3700715","prefecture":"群馬県","prefecture_kana":"グンマケン","city":"邑楽郡明和町","city_kana":"オウラグンメイワマチ","town":"大佐貫","town_kana":"オオザヌキ","prefecture_code":10},"0718":{"zip_code":"3700718","prefecture":"群馬県","prefecture_kana":"グンマケン","city":"邑楽郡明和町","city_kana":"オウラグンメイワマチ","town":"大輪","town_kana":"オオワ","prefecture_code":10},"0702":{"zip_code":"3700702","prefecture":"群馬県","prefecture_kana":"グンマケン","city":"邑楽郡明和町","city_kana":"オウラグンメイワマチ","town":"上江黒","town_kana":"カミエグロ","prefecture_code":10},"0716":{"zip_code":"3700716","prefecture":"群馬県","prefecture_kana":"グンマケン","city":"邑楽郡明和町","city_kana":"オウラグンメイワマチ","town":"川俣","town_kana":"カワマタ","prefecture_code":10},"0703":{"zip_code":"3700703","prefecture":"群馬県","prefecture_kana":"グンマケン","city":"邑楽郡明和町","city_kana":"オウラグンメイワマチ","town":"下江黒","town_kana":"シモエグロ","prefecture_code":10},"0717":{"zip_code":"3700717","prefecture":"群馬県","prefecture_kana":"グンマケン","city":"邑楽郡明和町","city_kana":"オウラグンメイワマチ","town":"須賀","town_kana":"スカ","prefecture_code":10},"0705":{"zip_code":"3700705","prefecture":"群馬県","prefecture_kana":"グンマケン","city":"邑楽郡明和町","city_kana":"オウラグンメイワマチ","town":"千津井","town_kana":"センヅイ","prefecture_code":10},"0707":{"zip_code":"3700707","prefecture":"群馬県","prefecture_kana":"グンマケン","city":"邑楽郡明和町","city_kana":"オウラグンメイワマチ","town":"田島","town_kana":"タジマ","prefecture_code":10},"0704":{"zip_code":"3700704","prefecture":"群馬県","prefecture_kana":"グンマケン","city":"邑楽郡明和町","city_kana":"オウラグンメイワマチ","town":"斗合田","town_kana":"トゴウタ","prefecture_code":10},"0713":{"zip_code":"3700713","prefecture":"群馬県","prefecture_kana":"グンマケン","city":"邑楽郡明和町","city_kana":"オウラグンメイワマチ","town":"中谷","town_kana":"ナカヤ","prefecture_code":10},"0708":{"zip_code":"3700708","prefecture":"群馬県","prefecture_kana":"グンマケン","city":"邑楽郡明和町","city_kana":"オウラグンメイワマチ","town":"新里","town_kana":"ニッサト","prefecture_code":10},"0701":{"zip_code":"3700701","prefecture":"群馬県","prefecture_kana":"グンマケン","city":"邑楽郡明和町","city_kana":"オウラグンメイワマチ","town":"南大島","town_kana":"ミナミオオシマ","prefecture_code":10},"0712":{"zip_code":"3700712","prefecture":"群馬県","prefecture_kana":"グンマケン","city":"邑楽郡明和町","city_kana":"オウラグンメイワマチ","town":"矢島","town_kana":"ヤジマ","prefecture_code":10},"0500":{"zip_code":"3700500","prefecture":"群馬県","prefecture_kana":"グンマケン","city":"邑楽郡大泉町","city_kana":"オウラグンオオイズミマチ","town":"","town_kana":"","prefecture_code":10},"0503":{"zip_code":"3700503","prefecture":"群馬県","prefecture_kana":"グンマケン","city":"邑楽郡千代田町","city_kana":"オウラグンチヨダマチ","town":"赤岩","town_kana":"アカイワ","prefecture_code":10},"0726":{"zip_code":"3700726","prefecture":"群馬県","prefecture_kana":"グンマケン","city":"邑楽郡千代田町","city_kana":"オウラグンチヨダマチ","town":"上五箇","town_kana":"カミゴカ","prefecture_code":10},"0725":{"zip_code":"3700725","prefecture":"群馬県","prefecture_kana":"グンマケン","city":"邑楽郡千代田町","city_kana":"オウラグンチヨダマチ","town":"上中森","town_kana":"カミナカモリ","prefecture_code":10},"0722":{"zip_code":"3700722","prefecture":"群馬県","prefecture_kana":"グンマケン","city":"邑楽郡千代田町","city_kana":"オウラグンチヨダマチ","town":"萱野","town_kana":"カヤノ","prefecture_code":10},"0721":{"zip_code":"3700721","prefecture":"群馬県","prefecture_kana":"グンマケン","city":"邑楽郡千代田町","city_kana":"オウラグンチヨダマチ","town":"木崎","town_kana":"キザキ","prefecture_code":10},"0724":{"zip_code":"3700724","prefecture":"群馬県","prefecture_kana":"グンマケン","city":"邑楽郡千代田町","city_kana":"オウラグンチヨダマチ","town":"下中森","town_kana":"シモナカモリ","prefecture_code":10},"0723":{"zip_code":"3700723","prefecture":"群馬県","prefecture_kana":"グンマケン","city":"邑楽郡千代田町","city_kana":"オウラグンチヨダマチ","town":"昭和","town_kana":"ショウワ","prefecture_code":10},"0505":{"zip_code":"3700505","prefecture":"群馬県","prefecture_kana":"グンマケン","city":"邑楽郡千代田町","city_kana":"オウラグンチヨダマチ","town":"新福寺","town_kana":"シンプクジ","prefecture_code":10},"0727":{"zip_code":"3700727","prefecture":"群馬県","prefecture_kana":"グンマケン","city":"邑楽郡千代田町","city_kana":"オウラグンチヨダマチ","town":"瀬戸井","town_kana":"セドイ","prefecture_code":10},"0502":{"zip_code":"3700502","prefecture":"群馬県","prefecture_kana":"グンマケン","city":"邑楽郡千代田町","city_kana":"オウラグンチヨダマチ","town":"鍋谷","town_kana":"ナベヤ","prefecture_code":10},"0501":{"zip_code":"3700501","prefecture":"群馬県","prefecture_kana":"グンマケン","city":"邑楽郡千代田町","city_kana":"オウラグンチヨダマチ","town":"福島","town_kana":"フクジマ","prefecture_code":10},"0504":{"zip_code":"3700504","prefecture":"群馬県","prefecture_kana":"グンマケン","city":"邑楽郡千代田町","city_kana":"オウラグンチヨダマチ","town":"舞木","town_kana":"マイギ","prefecture_code":10},"0514":{"zip_code":"3700514","prefecture":"群馬県","prefecture_kana":"グンマケン","city":"邑楽郡大泉町","city_kana":"オウラグンオオイズミマチ","town":"朝日","town_kana":"アサヒ","prefecture_code":10},"0531":{"zip_code":"3700531","prefecture":"群馬県","prefecture_kana":"グンマケン","city":"邑楽郡大泉町","city_kana":"オウラグンオオイズミマチ","town":"いずみ","town_kana":"イズミ","prefecture_code":10},"0534":{"zip_code":"3700534","prefecture":"群馬県","prefecture_kana":"グンマケン","city":"邑楽郡大泉町","city_kana":"オウラグンオオイズミマチ","town":"丘山","town_kana":"オカヤマ","prefecture_code":10},"0512":{"zip_code":"3700512","prefecture":"群馬県","prefecture_kana":"グンマケン","city":"邑楽郡大泉町","city_kana":"オウラグンオオイズミマチ","town":"上小泉","town_kana":"カミコイズミ","prefecture_code":10},"0511":{"zip_code":"3700511","prefecture":"群馬県","prefecture_kana":"グンマケン","city":"邑楽郡大泉町","city_kana":"オウラグンオオイズミマチ","town":"北小泉","town_kana":"キタコイズミ","prefecture_code":10},"0524":{"zip_code":"3700524","prefecture":"群馬県","prefecture_kana":"グンマケン","city":"邑楽郡大泉町","city_kana":"オウラグンオオイズミマチ","town":"古海","town_kana":"コカイ","prefecture_code":10},"0532":{"zip_code":"3700532","prefecture":"群馬県","prefecture_kana":"グンマケン","city":"邑楽郡大泉町","city_kana":"オウラグンオオイズミマチ","town":"坂田","town_kana":"サカダ","prefecture_code":10},"0515":{"zip_code":"3700515","prefecture":"群馬県","prefecture_kana":"グンマケン","city":"邑楽郡大泉町","city_kana":"オウラグンオオイズミマチ","town":"下小泉","town_kana":"シモコイズミ","prefecture_code":10},"0518":{"zip_code":"3700518","prefecture":"群馬県","prefecture_kana":"グンマケン","city":"邑楽郡大泉町","city_kana":"オウラグンオオイズミマチ","town":"城之内","town_kana":"シロノウチ","prefecture_code":10},"0521":{"zip_code":"3700521","prefecture":"群馬県","prefecture_kana":"グンマケン","city":"邑楽郡大泉町","city_kana":"オウラグンオオイズミマチ","town":"住吉","town_kana":"スミヨシ","prefecture_code":10},"0533":{"zip_code":"3700533","prefecture":"群馬県","prefecture_kana":"グンマケン","city":"邑楽郡大泉町","city_kana":"オウラグンオオイズミマチ","town":"仙石","town_kana":"センゴク","prefecture_code":10},"0516":{"zip_code":"3700516","prefecture":"群馬県","prefecture_kana":"グンマケン","city":"邑楽郡大泉町","city_kana":"オウラグンオオイズミマチ","town":"中央","town_kana":"チュウオウ","prefecture_code":10},"0517":{"zip_code":"3700517","prefecture":"群馬県","prefecture_kana":"グンマケン","city":"邑楽郡大泉町","city_kana":"オウラグンオオイズミマチ","town":"西小泉","town_kana":"ニシコイズミ","prefecture_code":10},"0513":{"zip_code":"3700513","prefecture":"群馬県","prefecture_kana":"グンマケン","city":"邑楽郡大泉町","city_kana":"オウラグンオオイズミマチ","town":"東小泉","town_kana":"ヒガシコイズミ","prefecture_code":10},"0525":{"zip_code":"3700525","prefecture":"群馬県","prefecture_kana":"グンマケン","city":"邑楽郡大泉町","city_kana":"オウラグンオオイズミマチ","town":"日の出","town_kana":"ヒノデ","prefecture_code":10},"0522":{"zip_code":"3700522","prefecture":"群馬県","prefecture_kana":"グンマケン","city":"邑楽郡大泉町","city_kana":"オウラグンオオイズミマチ","town":"富士","town_kana":"フジ","prefecture_code":10},"0536":{"zip_code":"3700536","prefecture":"群馬県","prefecture_kana":"グンマケン","city":"邑楽郡大泉町","city_kana":"オウラグンオオイズミマチ","town":"古氷","town_kana":"フルコオリ","prefecture_code":10},"0523":{"zip_code":"3700523","prefecture":"群馬県","prefecture_kana":"グンマケン","city":"邑楽郡大泉町","city_kana":"オウラグンオオイズミマチ","town":"吉田","town_kana":"ヨシダ","prefecture_code":10},"0535":{"zip_code":"3700535","prefecture":"群馬県","prefecture_kana":"グンマケン","city":"邑楽郡大泉町","city_kana":"オウラグンオオイズミマチ","town":"寄木戸","town_kana":"ヨリキド","prefecture_code":10},"0600":{"zip_code":"3700600","prefecture":"群馬県","prefecture_kana":"グンマケン","city":"邑楽郡邑楽町","city_kana":"オウラグンオウラマチ","town":"","town_kana":"","prefecture_code":10},"0614":{"zip_code":"3700614","prefecture":"群馬県","prefecture_kana":"グンマケン","city":"邑楽郡邑楽町","city_kana":"オウラグンオウラマチ","town":"赤堀","town_kana":"アカホリ","prefecture_code":10},"0606":{"zip_code":"3700606","prefecture":"群馬県","prefecture_kana":"グンマケン","city":"邑楽郡邑楽町","city_kana":"オウラグンオウラマチ","town":"秋妻","town_kana":"アキヅマ","prefecture_code":10},"0602":{"zip_code":"3700602","prefecture":"群馬県","prefecture_kana":"グンマケン","city":"邑楽郡邑楽町","city_kana":"オウラグンオウラマチ","town":"明野","town_kana":"アケノ","prefecture_code":10},"0604":{"zip_code":"3700604","prefecture":"群馬県","prefecture_kana":"グンマケン","city":"邑楽郡邑楽町","city_kana":"オウラグンオウラマチ","town":"石打","town_kana":"イシウチ","prefecture_code":10},"0601":{"zip_code":"3700601","prefecture":"群馬県","prefecture_kana":"グンマケン","city":"邑楽郡邑楽町","city_kana":"オウラグンオウラマチ","town":"鶉","town_kana":"ウズラ","prefecture_code":10},"0611":{"zip_code":"3700611","prefecture":"群馬県","prefecture_kana":"グンマケン","city":"邑楽郡邑楽町","city_kana":"オウラグンオウラマチ","town":"鶉新田","town_kana":"ウズラシンデン","prefecture_code":10},"0616":{"zip_code":"3700616","prefecture":"群馬県","prefecture_kana":"グンマケン","city":"邑楽郡邑楽町","city_kana":"オウラグンオウラマチ","town":"光善寺","town_kana":"コウゼンジ","prefecture_code":10},"0615":{"zip_code":"3700615","prefecture":"群馬県","prefecture_kana":"グンマケン","city":"邑楽郡邑楽町","city_kana":"オウラグンオウラマチ","town":"篠塚","town_kana":"シノヅカ","prefecture_code":10},"0612":{"zip_code":"3700612","prefecture":"群馬県","prefecture_kana":"グンマケン","city":"邑楽郡邑楽町","city_kana":"オウラグンオウラマチ","town":"新中野","town_kana":"シンナカノ","prefecture_code":10},"0603":{"zip_code":"3700603","prefecture":"群馬県","prefecture_kana":"グンマケン","city":"邑楽郡邑楽町","city_kana":"オウラグンオウラマチ","town":"中野","town_kana":"ナカノ","prefecture_code":10},"0605":{"zip_code":"3700605","prefecture":"群馬県","prefecture_kana":"グンマケン","city":"邑楽郡邑楽町","city_kana":"オウラグンオウラマチ","town":"藤川","town_kana":"フジカワ","prefecture_code":10},"0613":{"zip_code":"3700613","prefecture":"群馬県","prefecture_kana":"グンマケン","city":"邑楽郡邑楽町","city_kana":"オウラグンオウラマチ","town":"狸塚","town_kana":"ムジナヅカ","prefecture_code":10}}