{"0000":{"zip_code":"3710000","prefecture":"群馬県","prefecture_kana":"グンマケン","city":"前橋市","city_kana":"マエバシシ","town":"","town_kana":"","prefecture_code":10},"0826":{"zip_code":"3710826","prefecture":"群馬県","prefecture_kana":"グンマケン","city":"前橋市","city_kana":"マエバシシ","town":"青葉町","town_kana":"アオバチョウ","prefecture_code":10},"0056":{"zip_code":"3710056","prefecture":"群馬県","prefecture_kana":"グンマケン","city":"前橋市","city_kana":"マエバシシ","town":"青柳町","town_kana":"アオヤギマチ","prefecture_code":10},"0811":{"zip_code":"3710811","prefecture":"群馬県","prefecture_kana":"グンマケン","city":"前橋市","city_kana":"マエバシシ","town":"朝倉町","town_kana":"アサクラマチ","prefecture_code":10},"0832":{"zip_code":"3710832","prefecture":"群馬県","prefecture_kana":"グンマケン","city":"前橋市","city_kana":"マエバシシ","town":"朝日が丘町","town_kana":"アサヒガオカマチ","prefecture_code":10},"0014":{"zip_code":"3710014","prefecture":"群馬県","prefecture_kana":"グンマケン","city":"前橋市","city_kana":"マエバシシ","town":"朝日町","town_kana":"アサヒチョウ","prefecture_code":10},"0803":{"zip_code":"3710803","prefecture":"群馬県","prefecture_kana":"グンマケン","city":"前橋市","city_kana":"マエバシシ","town":"天川原町","town_kana":"アマガワバラマチ","prefecture_code":10},"0802":{"zip_code":"3710802","prefecture":"群馬県","prefecture_kana":"グンマケン","city":"前橋市","city_kana":"マエバシシ","town":"天川町","town_kana":"アマガワマチ","prefecture_code":10},"0044":{"zip_code":"3710044","prefecture":"群馬県","prefecture_kana":"グンマケン","city":"前橋市","city_kana":"マエバシシ","town":"荒牧町","town_kana":"アラマキマチ","prefecture_code":10},"0841":{"zip_code":"3710841","prefecture":"群馬県","prefecture_kana":"グンマケン","city":"前橋市","city_kana":"マエバシシ","town":"石倉町","town_kana":"イシクラマチ","prefecture_code":10},"0006":{"zip_code":"3710006","prefecture":"群馬県","prefecture_kana":"グンマケン","city":"前橋市","city_kana":"マエバシシ","town":"石関町","town_kana":"イシゼキマチ","prefecture_code":10},"0245":{"zip_code":"3710245","prefecture":"群馬県","prefecture_kana":"グンマケン","city":"前橋市","city_kana":"マエバシシ","town":"市之関町","town_kana":"イチノセキマチ","prefecture_code":10},"0035":{"zip_code":"3710035","prefecture":"群馬県","prefecture_kana":"グンマケン","city":"前橋市","city_kana":"マエバシシ","town":"岩神町","town_kana":"イワガミマチ","prefecture_code":10},"0002":{"zip_code":"3710002","prefecture":"群馬県","prefecture_kana":"グンマケン","city":"前橋市","city_kana":"マエバシシ","town":"江木町","town_kana":"エギマチ","prefecture_code":10},"0836":{"zip_code":"3710836","prefecture":"群馬県","prefecture_kana":"グンマケン","city":"前橋市","city_kana":"マエバシシ","town":"江田町","town_kana":"エダマチ","prefecture_code":10},"0223":{"zip_code":"3710223","prefecture":"群馬県","prefecture_kana":"グンマケン","city":"前橋市","city_kana":"マエバシシ","town":"大胡町","town_kana":"オオゴマチ","prefecture_code":10},"0026":{"zip_code":"3710026","prefecture":"群馬県","prefecture_kana":"グンマケン","city":"前橋市","city_kana":"マエバシシ","town":"大手町","town_kana":"オオテマチ","prefecture_code":10},"0825":{"zip_code":"3710825","prefecture":"群馬県","prefecture_kana":"グンマケン","city":"前橋市","city_kana":"マエバシシ","town":"大利根町","town_kana":"オオトネマチ","prefecture_code":10},"0847":{"zip_code":"3710847","prefecture":"群馬県","prefecture_kana":"グンマケン","city":"前橋市","city_kana":"マエバシシ","town":"大友町","town_kana":"オオドモマチ","prefecture_code":10},"0243":{"zip_code":"3710243","prefecture":"群馬県","prefecture_kana":"グンマケン","city":"前橋市","city_kana":"マエバシシ","town":"大前田町","town_kana":"オオマエタマチ","prefecture_code":10},"0854":{"zip_code":"3710854","prefecture":"群馬県","prefecture_kana":"グンマケン","city":"前橋市","city_kana":"マエバシシ","town":"大渡町","town_kana":"オオワタリマチ","prefecture_code":10},"0001":{"zip_code":"3710001","prefecture":"群馬県","prefecture_kana":"グンマケン","city":"前橋市","city_kana":"マエバシシ","town":"荻窪町","town_kana":"オギクボマチ","prefecture_code":10},"0024":{"zip_code":"3710024","prefecture":"群馬県","prefecture_kana":"グンマケン","city":"前橋市","city_kana":"マエバシシ","town":"表町","town_kana":"オモテチョウ","prefecture_code":10},"0246":{"zip_code":"3710246","prefecture":"群馬県","prefecture_kana":"グンマケン","city":"前橋市","city_kana":"マエバシシ","town":"柏倉町","town_kana":"カシワグラマチ","prefecture_code":10},"0206":{"zip_code":"3710206","prefecture":"群馬県","prefecture_kana":"グンマケン","city":"前橋市","city_kana":"マエバシシ","town":"粕川町新屋","town_kana":"カスカワマチアラヤ","prefecture_code":10},"0207":{"zip_code":"3710207","prefecture":"群馬県","prefecture_kana":"グンマケン","city":"前橋市","city_kana":"マエバシシ","town":"粕川町稲里","town_kana":"カスカワマチイナサト","prefecture_code":10},"0214":{"zip_code":"3710214","prefecture":"群馬県","prefecture_kana":"グンマケン","city":"前橋市","city_kana":"マエバシシ","town":"粕川町女渕","town_kana":"カスカワマチオナブチ","prefecture_code":10},"0211":{"zip_code":"3710211","prefecture":"群馬県","prefecture_kana":"グンマケン","city":"前橋市","city_kana":"マエバシシ","town":"粕川町上東田面","town_kana":"カスカワマチカミヒガシタナボ","prefecture_code":10},"0216":{"zip_code":"3710216","prefecture":"群馬県","prefecture_kana":"グンマケン","city":"前橋市","city_kana":"マエバシシ","town":"粕川町込皆戸","town_kana":"カスカワマチコミガイト","prefecture_code":10},"0212":{"zip_code":"3710212","prefecture":"群馬県","prefecture_kana":"グンマケン","city":"前橋市","city_kana":"マエバシシ","town":"粕川町下東田面","town_kana":"カスカワマチシモヒガシタナボ","prefecture_code":10},"0204":{"zip_code":"3710204","prefecture":"群馬県","prefecture_kana":"グンマケン","city":"前橋市","city_kana":"マエバシシ","town":"粕川町膳","town_kana":"カスカワマチゼン","prefecture_code":10},"0203":{"zip_code":"3710203","prefecture":"群馬県","prefecture_kana":"グンマケン","city":"前橋市","city_kana":"マエバシシ","town":"粕川町月田","town_kana":"カスカワマチツキダ","prefecture_code":10},"0205":{"zip_code":"3710205","prefecture":"群馬県","prefecture_kana":"グンマケン","city":"前橋市","city_kana":"マエバシシ","town":"粕川町中","town_kana":"カスカワマチナカ","prefecture_code":10},"0201":{"zip_code":"3710201","prefecture":"群馬県","prefecture_kana":"グンマケン","city":"前橋市","city_kana":"マエバシシ","town":"粕川町中之沢","town_kana":"カスカワマチナカノサワ","prefecture_code":10},"0217":{"zip_code":"3710217","prefecture":"群馬県","prefecture_kana":"グンマケン","city":"前橋市","city_kana":"マエバシシ","town":"粕川町西田面","town_kana":"カスカワマチニシタナボ","prefecture_code":10},"0213":{"zip_code":"3710213","prefecture":"群馬県","prefecture_kana":"グンマケン","city":"前橋市","city_kana":"マエバシシ","town":"粕川町一日市","town_kana":"カスカワマチヒトイチ","prefecture_code":10},"0215":{"zip_code":"3710215","prefecture":"群馬県","prefecture_kana":"グンマケン","city":"前橋市","city_kana":"マエバシシ","town":"粕川町深津","town_kana":"カスカワマチフカヅ","prefecture_code":10},"0218":{"zip_code":"3710218","prefecture":"群馬県","prefecture_kana":"グンマケン","city":"前橋市","city_kana":"マエバシシ","town":"粕川町前皆戸","town_kana":"カスカワマチマエガイト","prefecture_code":10},"0202":{"zip_code":"3710202","prefecture":"群馬県","prefecture_kana":"グンマケン","city":"前橋市","city_kana":"マエバシシ","town":"粕川町室沢","town_kana":"カスカワマチムロサワ","prefecture_code":10},"0124":{"zip_code":"3710124","prefecture":"群馬県","prefecture_kana":"グンマケン","city":"前橋市","city_kana":"マエバシシ","town":"勝沢町","town_kana":"カツサワマチ","prefecture_code":10},"0121":{"zip_code":"3710121","prefecture":"群馬県","prefecture_kana":"グンマケン","city":"前橋市","city_kana":"マエバシシ","town":"金丸町","town_kana":"カナマルマチ","prefecture_code":10},"0007":{"zip_code":"3710007","prefecture":"群馬県","prefecture_kana":"グンマケン","city":"前橋市","city_kana":"マエバシシ","town":"上泉町","town_kana":"カミイズミマチ","prefecture_code":10},"0222":{"zip_code":"3710222","prefecture":"群馬県","prefecture_kana":"グンマケン","city":"前橋市","city_kana":"マエバシシ","town":"上大屋町","town_kana":"カミオオヤマチ","prefecture_code":10},"0052":{"zip_code":"3710052","prefecture":"群馬県","prefecture_kana":"グンマケン","city":"前橋市","city_kana":"マエバシシ","town":"上沖町","town_kana":"カミオキマチ","prefecture_code":10},"0037":{"zip_code":"3710037","prefecture":"群馬県","prefecture_kana":"グンマケン","city":"前橋市","city_kana":"マエバシシ","town":"上小出町","town_kana":"カミコイデマチ","prefecture_code":10},"0816":{"zip_code":"3710816","prefecture":"群馬県","prefecture_kana":"グンマケン","city":"前橋市","city_kana":"マエバシシ","town":"上佐鳥町","town_kana":"カミサドリマチ","prefecture_code":10},"0821":{"zip_code":"3710821","prefecture":"群馬県","prefecture_kana":"グンマケン","city":"前橋市","city_kana":"マエバシシ","town":"上新田町","town_kana":"カミシンデンマチ","prefecture_code":10},"0051":{"zip_code":"3710051","prefecture":"群馬県","prefecture_kana":"グンマケン","city":"前橋市","city_kana":"マエバシシ","town":"上細井町","town_kana":"カミホソイマチ","prefecture_code":10},"0004":{"zip_code":"3710004","prefecture":"群馬県","prefecture_kana":"グンマケン","city":"前橋市","city_kana":"マエバシシ","town":"亀泉町","town_kana":"カメイズミマチ","prefecture_code":10},"0041":{"zip_code":"3710041","prefecture":"群馬県","prefecture_kana":"グンマケン","city":"前橋市","city_kana":"マエバシシ","town":"川端町","town_kana":"カワバタマチ","prefecture_code":10},"0046":{"zip_code":"3710046","prefecture":"群馬県","prefecture_kana":"グンマケン","city":"前橋市","city_kana":"マエバシシ","town":"川原町","town_kana":"カワハラマチ","prefecture_code":10},"0823":{"zip_code":"3710823","prefecture":"群馬県","prefecture_kana":"グンマケン","city":"前橋市","city_kana":"マエバシシ","town":"川曲町","town_kana":"カワマガリマチ","prefecture_code":10},"0224":{"zip_code":"3710224","prefecture":"群馬県","prefecture_kana":"グンマケン","city":"前橋市","city_kana":"マエバシシ","town":"河原浜町","town_kana":"カワラハママチ","prefecture_code":10},"0055":{"zip_code":"3710055","prefecture":"群馬県","prefecture_kana":"グンマケン","city":"前橋市","city_kana":"マエバシシ","town":"北代田町","town_kana":"キタシロタマチ","prefecture_code":10},"0831":{"zip_code":"3710831","prefecture":"群馬県","prefecture_kana":"グンマケン","city":"前橋市","city_kana":"マエバシシ","town":"小相木町","town_kana":"コアイギマチ","prefecture_code":10},"0025":{"zip_code":"3710025","prefecture":"群馬県","prefecture_kana":"グンマケン","city":"前橋市","city_kana":"マエバシシ","town":"紅雲町","town_kana":"コウウンチョウ","prefecture_code":10},"0053":{"zip_code":"3710053","prefecture":"群馬県","prefecture_kana":"グンマケン","city":"前橋市","city_kana":"マエバシシ","town":"幸塚町","town_kana":"コウヅカマチ","prefecture_code":10},"0813":{"zip_code":"3710813","prefecture":"群馬県","prefecture_kana":"グンマケン","city":"前橋市","city_kana":"マエバシシ","town":"後閑町","town_kana":"ゴカンマチ","prefecture_code":10},"0033":{"zip_code":"3710033","prefecture":"群馬県","prefecture_kana":"グンマケン","city":"前橋市","city_kana":"マエバシシ","town":"国領町","town_kana":"コクリョウマチ","prefecture_code":10},"0834":{"zip_code":"3710834","prefecture":"群馬県","prefecture_kana":"グンマケン","city":"前橋市","city_kana":"マエバシシ","town":"後家町","town_kana":"ゴケマチ","prefecture_code":10},"0122":{"zip_code":"3710122","prefecture":"群馬県","prefecture_kana":"グンマケン","city":"前橋市","city_kana":"マエバシシ","town":"小坂子町","town_kana":"コザカシマチ","prefecture_code":10},"0134":{"zip_code":"3710134","prefecture":"群馬県","prefecture_kana":"グンマケン","city":"前橋市","city_kana":"マエバシシ","town":"小神明町","town_kana":"コジンメイマチ","prefecture_code":10},"0132":{"zip_code":"3710132","prefecture":"群馬県","prefecture_kana":"グンマケン","city":"前橋市","city_kana":"マエバシシ","town":"五代町","town_kana":"ゴダイマチ","prefecture_code":10},"0036":{"zip_code":"3710036","prefecture":"群馬県","prefecture_kana":"グンマケン","city":"前橋市","city_kana":"マエバシシ","town":"敷島町","town_kana":"シキシマチョウ","prefecture_code":10},"0842":{"zip_code":"3710842","prefecture":"群馬県","prefecture_kana":"グンマケン","city":"前橋市","city_kana":"マエバシシ","town":"下石倉町","town_kana":"シモイシクラマチ","prefecture_code":10},"0011":{"zip_code":"3710011","prefecture":"群馬県","prefecture_kana":"グンマケン","city":"前橋市","city_kana":"マエバシシ","town":"下沖町","town_kana":"シモオキマチ","prefecture_code":10},"0031":{"zip_code":"3710031","prefecture":"群馬県","prefecture_kana":"グンマケン","city":"前橋市","city_kana":"マエバシシ","town":"下小出町","town_kana":"シモコイデマチ","prefecture_code":10},"0815":{"zip_code":"3710815","prefecture":"群馬県","prefecture_kana":"グンマケン","city":"前橋市","city_kana":"マエバシシ","town":"下佐鳥町","town_kana":"シモサドリマチ","prefecture_code":10},"0822":{"zip_code":"3710822","prefecture":"群馬県","prefecture_kana":"グンマケン","city":"前橋市","city_kana":"マエバシシ","town":"下新田町","town_kana":"シモシンデンマチ","prefecture_code":10},"0054":{"zip_code":"3710054","prefecture":"群馬県","prefecture_kana":"グンマケン","city":"前橋市","city_kana":"マエバシシ","town":"下細井町","town_kana":"シモホソイマチ","prefecture_code":10},"0016":{"zip_code":"3710016","prefecture":"群馬県","prefecture_kana":"グンマケン","city":"前橋市","city_kana":"マエバシシ","town":"城東町","town_kana":"ジョウトウマチ","prefecture_code":10},"0034":{"zip_code":"3710034","prefecture":"群馬県","prefecture_kana":"グンマケン","city":"前橋市","city_kana":"マエバシシ","town":"昭和町","town_kana":"ショウワマチ","prefecture_code":10},"0843":{"zip_code":"3710843","prefecture":"群馬県","prefecture_kana":"グンマケン","city":"前橋市","city_kana":"マエバシシ","town":"新前橋町","town_kana":"シンマエバシマチ","prefecture_code":10},"0021":{"zip_code":"3710021","prefecture":"群馬県","prefecture_kana":"グンマケン","city":"前橋市","city_kana":"マエバシシ","town":"住吉町","town_kana":"スミヨシチョウ","prefecture_code":10},"0047":{"zip_code":"3710047","prefecture":"群馬県","prefecture_kana":"グンマケン","city":"前橋市","city_kana":"マエバシシ","town":"関根町","town_kana":"セキネマチ","prefecture_code":10},"0853":{"zip_code":"3710853","prefecture":"群馬県","prefecture_kana":"グンマケン","city":"前橋市","city_kana":"マエバシシ","town":"総社町","town_kana":"ソウジャマチ","prefecture_code":10},"0851":{"zip_code":"3710851","prefecture":"群馬県","prefecture_kana":"グンマケン","city":"前橋市","city_kana":"マエバシシ","town":"総社町植野","town_kana":"ソウジャマチウエノ","prefecture_code":10},"0858":{"zip_code":"3710858","prefecture":"群馬県","prefecture_kana":"グンマケン","city":"前橋市","city_kana":"マエバシシ","town":"総社町桜が丘","town_kana":"ソウジャマチサクラガオカ","prefecture_code":10},"0852":{"zip_code":"3710852","prefecture":"群馬県","prefecture_kana":"グンマケン","city":"前橋市","city_kana":"マエバシシ","town":"総社町総社","town_kana":"ソウジャマチソウジャ","prefecture_code":10},"0856":{"zip_code":"3710856","prefecture":"群馬県","prefecture_kana":"グンマケン","city":"前橋市","city_kana":"マエバシシ","town":"総社町高井","town_kana":"ソウジャマチタカイ","prefecture_code":10},"0857":{"zip_code":"3710857","prefecture":"群馬県","prefecture_kana":"グンマケン","city":"前橋市","city_kana":"マエバシシ","town":"高井町","town_kana":"タカイマチ","prefecture_code":10},"0123":{"zip_code":"3710123","prefecture":"群馬県","prefecture_kana":"グンマケン","city":"前橋市","city_kana":"マエバシシ","town":"高花台","town_kana":"タカハナダイ","prefecture_code":10},"0235":{"zip_code":"3710235","prefecture":"群馬県","prefecture_kana":"グンマケン","city":"前橋市","city_kana":"マエバシシ","town":"滝窪町","town_kana":"タキクボマチ","prefecture_code":10},"0048":{"zip_code":"3710048","prefecture":"群馬県","prefecture_kana":"グンマケン","city":"前橋市","city_kana":"マエバシシ","town":"田口町","town_kana":"タグチマチ","prefecture_code":10},"0022":{"zip_code":"3710022","prefecture":"群馬県","prefecture_kana":"グンマケン","city":"前橋市","city_kana":"マエバシシ","town":"千代田町","town_kana":"チヨダマチ","prefecture_code":10},"0003":{"zip_code":"3710003","prefecture":"群馬県","prefecture_kana":"グンマケン","city":"前橋市","city_kana":"マエバシシ","town":"堤町","town_kana":"ツツミマチ","prefecture_code":10},"0824":{"zip_code":"3710824","prefecture":"群馬県","prefecture_kana":"グンマケン","city":"前橋市","city_kana":"マエバシシ","town":"稲荷新田町","town_kana":"トウカシンデンマチ","prefecture_code":10},"0131":{"zip_code":"3710131","prefecture":"群馬県","prefecture_kana":"グンマケン","city":"前橋市","city_kana":"マエバシシ","town":"鳥取町","town_kana":"トットリマチ","prefecture_code":10},"0845":{"zip_code":"3710845","prefecture":"群馬県","prefecture_kana":"グンマケン","city":"前橋市","city_kana":"マエバシシ","town":"鳥羽町","town_kana":"トリバマチ","prefecture_code":10},"0855":{"zip_code":"3710855","prefecture":"群馬県","prefecture_kana":"グンマケン","city":"前橋市","city_kana":"マエバシシ","town":"問屋町","town_kana":"トンヤマチ","prefecture_code":10},"0241":{"zip_code":"3710241","prefecture":"群馬県","prefecture_kana":"グンマケン","city":"前橋市","city_kana":"マエバシシ","town":"苗ケ島町","town_kana":"ナエガシママチ","prefecture_code":10},"0043":{"zip_code":"3710043","prefecture":"群馬県","prefecture_kana":"グンマケン","city":"前橋市","city_kana":"マエバシシ","town":"南橘町","town_kana":"ナンキツマチ","prefecture_code":10},"0013":{"zip_code":"3710013","prefecture":"群馬県","prefecture_kana":"グンマケン","city":"前橋市","city_kana":"マエバシシ","town":"西片貝町","town_kana":"ニシカタカイマチ","prefecture_code":10},"0042":{"zip_code":"3710042","prefecture":"群馬県","prefecture_kana":"グンマケン","city":"前橋市","city_kana":"マエバシシ","town":"日輪寺町","town_kana":"ニチリンジマチ","prefecture_code":10},"0817":{"zip_code":"3710817","prefecture":"群馬県","prefecture_kana":"グンマケン","city":"前橋市","city_kana":"マエバシシ","town":"ぬで島町","town_kana":"ヌデジママチ","prefecture_code":10},"0133":{"zip_code":"3710133","prefecture":"群馬県","prefecture_kana":"グンマケン","city":"前橋市","city_kana":"マエバシシ","town":"端気町","town_kana":"ハケマチ","prefecture_code":10},"0837":{"zip_code":"3710837","prefecture":"群馬県","prefecture_kana":"グンマケン","city":"前橋市","city_kana":"マエバシシ","town":"箱田町","town_kana":"ハコダマチ","prefecture_code":10},"0244":{"zip_code":"3710244","prefecture":"群馬県","prefecture_kana":"グンマケン","city":"前橋市","city_kana":"マエバシシ","town":"鼻毛石町","town_kana":"ハナゲイシマチ","prefecture_code":10},"0242":{"zip_code":"3710242","prefecture":"群馬県","prefecture_kana":"グンマケン","city":"前橋市","city_kana":"マエバシシ","town":"馬場町","town_kana":"ババマチ","prefecture_code":10},"0012":{"zip_code":"3710012","prefecture":"群馬県","prefecture_kana":"グンマケン","city":"前橋市","city_kana":"マエバシシ","town":"東片貝町","town_kana":"ヒガシカタカイマチ","prefecture_code":10},"0234":{"zip_code":"3710234","prefecture":"群馬県","prefecture_kana":"グンマケン","city":"前橋市","city_kana":"マエバシシ","town":"東金丸町","town_kana":"ヒガシカナマルマチ","prefecture_code":10},"0833":{"zip_code":"3710833","prefecture":"群馬県","prefecture_kana":"グンマケン","city":"前橋市","city_kana":"マエバシシ","town":"光が丘町","town_kana":"ヒカリガオカマチ","prefecture_code":10},"0221":{"zip_code":"3710221","prefecture":"群馬県","prefecture_kana":"グンマケン","city":"前橋市","city_kana":"マエバシシ","town":"樋越町","town_kana":"ヒゴシマチ","prefecture_code":10},"0017":{"zip_code":"3710017","prefecture":"群馬県","prefecture_kana":"グンマケン","city":"前橋市","city_kana":"マエバシシ","town":"日吉町","town_kana":"ヒヨシチョウ","prefecture_code":10},"0812":{"zip_code":"3710812","prefecture":"群馬県","prefecture_kana":"グンマケン","city":"前橋市","city_kana":"マエバシシ","town":"広瀬町","town_kana":"ヒロセチョウ","prefecture_code":10},"0101":{"zip_code":"3710101","prefecture":"群馬県","prefecture_kana":"グンマケン","city":"前橋市","city_kana":"マエバシシ","town":"富士見町赤城山","town_kana":"フジミマチアカギサン","prefecture_code":10},"0105":{"zip_code":"3710105","prefecture":"群馬県","prefecture_kana":"グンマケン","city":"前橋市","city_kana":"マエバシシ","town":"富士見町石井","town_kana":"フジミマチイシイ","prefecture_code":10},"0106":{"zip_code":"3710106","prefecture":"群馬県","prefecture_kana":"グンマケン","city":"前橋市","city_kana":"マエバシシ","town":"富士見町市之木場","town_kana":"フジミマチイチノキバ","prefecture_code":10},"0113":{"zip_code":"3710113","prefecture":"群馬県","prefecture_kana":"グンマケン","city":"前橋市","city_kana":"マエバシシ","town":"富士見町漆窪","town_kana":"フジミマチウルクボ","prefecture_code":10},"0115":{"zip_code":"3710115","prefecture":"群馬県","prefecture_kana":"グンマケン","city":"前橋市","city_kana":"マエバシシ","town":"富士見町小沢","town_kana":"フジミマチオザワ","prefecture_code":10},"0103":{"zip_code":"3710103","prefecture":"群馬県","prefecture_kana":"グンマケン","city":"前橋市","city_kana":"マエバシシ","town":"富士見町小暮","town_kana":"フジミマチコグレ","prefecture_code":10},"0111":{"zip_code":"3710111","prefecture":"群馬県","prefecture_kana":"グンマケン","city":"前橋市","city_kana":"マエバシシ","town":"富士見町米野","town_kana":"フジミマチコメノ","prefecture_code":10},"0114":{"zip_code":"3710114","prefecture":"群馬県","prefecture_kana":"グンマケン","city":"前橋市","city_kana":"マエバシシ","town":"富士見町田島","town_kana":"フジミマチタジマ","prefecture_code":10},"0104":{"zip_code":"3710104","prefecture":"群馬県","prefecture_kana":"グンマケン","city":"前橋市","city_kana":"マエバシシ","town":"富士見町時沢","town_kana":"フジミマチトキザワ","prefecture_code":10},"0116":{"zip_code":"3710116","prefecture":"群馬県","prefecture_kana":"グンマケン","city":"前橋市","city_kana":"マエバシシ","town":"富士見町原之郷","town_kana":"フジミマチハラノゴウ","prefecture_code":10},"0112":{"zip_code":"3710112","prefecture":"群馬県","prefecture_kana":"グンマケン","city":"前橋市","city_kana":"マエバシシ","town":"富士見町引田","town_kana":"フジミマチヒキダ","prefecture_code":10},"0102":{"zip_code":"3710102","prefecture":"群馬県","prefecture_kana":"グンマケン","city":"前橋市","city_kana":"マエバシシ","town":"富士見町皆沢","town_kana":"フジミマチミナザワ","prefecture_code":10},"0107":{"zip_code":"3710107","prefecture":"群馬県","prefecture_kana":"グンマケン","city":"前橋市","city_kana":"マエバシシ","town":"富士見町山口","town_kana":"フジミマチヤマグチ","prefecture_code":10},"0117":{"zip_code":"3710117","prefecture":"群馬県","prefecture_kana":"グンマケン","city":"前橋市","city_kana":"マエバシシ","town":"富士見町横室","town_kana":"フジミマチヨコムロ","prefecture_code":10},"0844":{"zip_code":"3710844","prefecture":"群馬県","prefecture_kana":"グンマケン","city":"前橋市","city_kana":"マエバシシ","town":"古市町","town_kana":"フルイチマチ","prefecture_code":10},"0801":{"zip_code":"3710801","prefecture":"群馬県","prefecture_kana":"グンマケン","city":"前橋市","city_kana":"マエバシシ","town":"文京町","town_kana":"ブンキョウチョウ","prefecture_code":10},"0027":{"zip_code":"3710027","prefecture":"群馬県","prefecture_kana":"グンマケン","city":"前橋市","city_kana":"マエバシシ","town":"平和町","town_kana":"ヘイワマチ","prefecture_code":10},"0231":{"zip_code":"3710231","prefecture":"群馬県","prefecture_kana":"グンマケン","city":"前橋市","city_kana":"マエバシシ","town":"堀越町","town_kana":"ホリコシマチ","prefecture_code":10},"0005":{"zip_code":"3710005","prefecture":"群馬県","prefecture_kana":"グンマケン","city":"前橋市","city_kana":"マエバシシ","town":"堀之下町","town_kana":"ホリノシタマチ","prefecture_code":10},"0023":{"zip_code":"3710023","prefecture":"群馬県","prefecture_kana":"グンマケン","city":"前橋市","city_kana":"マエバシシ","town":"本町","town_kana":"ホンマチ","prefecture_code":10},"0835":{"zip_code":"3710835","prefecture":"群馬県","prefecture_kana":"グンマケン","city":"前橋市","city_kana":"マエバシシ","town":"前箱田町","town_kana":"マエハコダマチ","prefecture_code":10},"0015":{"zip_code":"3710015","prefecture":"群馬県","prefecture_kana":"グンマケン","city":"前橋市","city_kana":"マエバシシ","town":"三河町","town_kana":"ミカワチョウ","prefecture_code":10},"0018":{"zip_code":"3710018","prefecture":"群馬県","prefecture_kana":"グンマケン","city":"前橋市","city_kana":"マエバシシ","town":"三俣町","town_kana":"ミツマタマチ","prefecture_code":10},"0045":{"zip_code":"3710045","prefecture":"群馬県","prefecture_kana":"グンマケン","city":"前橋市","city_kana":"マエバシシ","town":"緑が丘町","town_kana":"ミドリガオカマチ","prefecture_code":10},"0805":{"zip_code":"3710805","prefecture":"群馬県","prefecture_kana":"グンマケン","city":"前橋市","city_kana":"マエバシシ","town":"南町","town_kana":"ミナミチョウ","prefecture_code":10},"0125":{"zip_code":"3710125","prefecture":"群馬県","prefecture_kana":"グンマケン","city":"前橋市","city_kana":"マエバシシ","town":"嶺町","town_kana":"ミネマチ","prefecture_code":10},"0814":{"zip_code":"3710814","prefecture":"群馬県","prefecture_kana":"グンマケン","city":"前橋市","city_kana":"マエバシシ","town":"宮地町","town_kana":"ミヤジマチ","prefecture_code":10},"0247":{"zip_code":"3710247","prefecture":"群馬県","prefecture_kana":"グンマケン","city":"前橋市","city_kana":"マエバシシ","town":"三夜沢町","town_kana":"ミヨサワマチ","prefecture_code":10},"0232":{"zip_code":"3710232","prefecture":"群馬県","prefecture_kana":"グンマケン","city":"前橋市","city_kana":"マエバシシ","town":"茂木町","town_kana":"モトギマチ","prefecture_code":10},"0846":{"zip_code":"3710846","prefecture":"群馬県","prefecture_kana":"グンマケン","city":"前橋市","city_kana":"マエバシシ","town":"元総社町","town_kana":"モトソウジャマチ","prefecture_code":10},"0233":{"zip_code":"3710233","prefecture":"群馬県","prefecture_kana":"グンマケン","city":"前橋市","city_kana":"マエバシシ","town":"横沢町","town_kana":"ヨコザワマチ","prefecture_code":10},"0057":{"zip_code":"3710057","prefecture":"群馬県","prefecture_kana":"グンマケン","city":"前橋市","city_kana":"マエバシシ","town":"龍蔵寺町","town_kana":"リュウゾウジマチ","prefecture_code":10},"0804":{"zip_code":"3710804","prefecture":"群馬県","prefecture_kana":"グンマケン","city":"前橋市","city_kana":"マエバシシ","town":"六供町","town_kana":"ロックマチ","prefecture_code":10},"0032":{"zip_code":"3710032","prefecture":"群馬県","prefecture_kana":"グンマケン","city":"前橋市","city_kana":"マエバシシ","town":"若宮町","town_kana":"ワカミヤチョウ","prefecture_code":10}}