{"0000":{"zip_code":"3720000","prefecture":"群馬県","prefecture_kana":"グンマケン","city":"伊勢崎市","city_kana":"イセサキシ","town":"","town_kana":"","prefecture_code":10},"0821":{"zip_code":"3720821","prefecture":"群馬県","prefecture_kana":"グンマケン","city":"伊勢崎市","city_kana":"イセサキシ","town":"阿弥大寺町","town_kana":"アミダイジマチ","prefecture_code":10},"0007":{"zip_code":"3720007","prefecture":"群馬県","prefecture_kana":"グンマケン","city":"伊勢崎市","city_kana":"イセサキシ","town":"安堀町","town_kana":"アンボリマチ","prefecture_code":10},"0854":{"zip_code":"3720854","prefecture":"群馬県","prefecture_kana":"グンマケン","city":"伊勢崎市","city_kana":"イセサキシ","town":"飯島町","town_kana":"イイジマチョウ","prefecture_code":10},"0804":{"zip_code":"3720804","prefecture":"群馬県","prefecture_kana":"グンマケン","city":"伊勢崎市","city_kana":"イセサキシ","town":"稲荷町","town_kana":"イナリチョウ","prefecture_code":10},"0005":{"zip_code":"3720005","prefecture":"群馬県","prefecture_kana":"グンマケン","city":"伊勢崎市","city_kana":"イセサキシ","town":"乾町","town_kana":"イヌイチョウ","prefecture_code":10},"0031":{"zip_code":"3720031","prefecture":"群馬県","prefecture_kana":"グンマケン","city":"伊勢崎市","city_kana":"イセサキシ","town":"今泉町","town_kana":"イマイズミチョウ","prefecture_code":10},"0823":{"zip_code":"3720823","prefecture":"群馬県","prefecture_kana":"グンマケン","city":"伊勢崎市","city_kana":"イセサキシ","town":"今井町","town_kana":"イマイチョウ","prefecture_code":10},"0006":{"zip_code":"3720006","prefecture":"群馬県","prefecture_kana":"グンマケン","city":"伊勢崎市","city_kana":"イセサキシ","town":"太田町","town_kana":"オオタマチ","prefecture_code":10},"0048":{"zip_code":"3720048","prefecture":"群馬県","prefecture_kana":"グンマケン","city":"伊勢崎市","city_kana":"イセサキシ","town":"大手町","town_kana":"オオテマチ","prefecture_code":10},"0015":{"zip_code":"3720015","prefecture":"群馬県","prefecture_kana":"グンマケン","city":"伊勢崎市","city_kana":"イセサキシ","town":"鹿島町","town_kana":"カシマチョウ","prefecture_code":10},"0023":{"zip_code":"3720023","prefecture":"群馬県","prefecture_kana":"グンマケン","city":"伊勢崎市","city_kana":"イセサキシ","town":"粕川町","town_kana":"カスカワチョウ","prefecture_code":10},"0045":{"zip_code":"3720045","prefecture":"群馬県","prefecture_kana":"グンマケン","city":"伊勢崎市","city_kana":"イセサキシ","town":"上泉町","town_kana":"カミイズミチョウ","prefecture_code":10},"0013":{"zip_code":"3720013","prefecture":"群馬県","prefecture_kana":"グンマケン","city":"伊勢崎市","city_kana":"イセサキシ","town":"上植木本町","town_kana":"カミウエキホンマチ","prefecture_code":10},"0021":{"zip_code":"3720021","prefecture":"群馬県","prefecture_kana":"グンマケン","city":"伊勢崎市","city_kana":"イセサキシ","town":"上諏訪町","town_kana":"カミスワチョウ","prefecture_code":10},"0851":{"zip_code":"3720851","prefecture":"群馬県","prefecture_kana":"グンマケン","city":"伊勢崎市","city_kana":"イセサキシ","town":"上蓮町","town_kana":"カミハスチョウ","prefecture_code":10},"0032":{"zip_code":"3720032","prefecture":"群馬県","prefecture_kana":"グンマケン","city":"伊勢崎市","city_kana":"イセサキシ","town":"北千木町","town_kana":"キタセンギチョウ","prefecture_code":10},"0056":{"zip_code":"3720056","prefecture":"群馬県","prefecture_kana":"グンマケン","city":"伊勢崎市","city_kana":"イセサキシ","town":"喜多町","town_kana":"キタマチ","prefecture_code":10},"0055":{"zip_code":"3720055","prefecture":"群馬県","prefecture_kana":"グンマケン","city":"伊勢崎市","city_kana":"イセサキシ","town":"曲輪町","town_kana":"クルワチョウ","prefecture_code":10},"0003":{"zip_code":"3720003","prefecture":"群馬県","prefecture_kana":"グンマケン","city":"伊勢崎市","city_kana":"イセサキシ","town":"華蔵寺町","town_kana":"ケゾウジマチ","prefecture_code":10},"0843":{"zip_code":"3720843","prefecture":"群馬県","prefecture_kana":"グンマケン","city":"伊勢崎市","city_kana":"イセサキシ","town":"下道寺町","town_kana":"ゲドウジチョウ","prefecture_code":10},"0853":{"zip_code":"3720853","prefecture":"群馬県","prefecture_kana":"グンマケン","city":"伊勢崎市","city_kana":"イセサキシ","town":"国領町","town_kana":"コクリョウチョウ","prefecture_code":10},"0052":{"zip_code":"3720052","prefecture":"群馬県","prefecture_kana":"グンマケン","city":"伊勢崎市","city_kana":"イセサキシ","town":"寿町","town_kana":"コトブキチョウ","prefecture_code":10},"0831":{"zip_code":"3720831","prefecture":"群馬県","prefecture_kana":"グンマケン","city":"伊勢崎市","city_kana":"イセサキシ","town":"山王町","town_kana":"サンノウチョウ","prefecture_code":10},"0046":{"zip_code":"3720046","prefecture":"群馬県","prefecture_kana":"グンマケン","city":"伊勢崎市","city_kana":"イセサキシ","town":"三光町","town_kana":"サンコウチョウ","prefecture_code":10},"0011":{"zip_code":"3720011","prefecture":"群馬県","prefecture_kana":"グンマケン","city":"伊勢崎市","city_kana":"イセサキシ","town":"三和町","town_kana":"サンワチョウ","prefecture_code":10},"0824":{"zip_code":"3720824","prefecture":"群馬県","prefecture_kana":"グンマケン","city":"伊勢崎市","city_kana":"イセサキシ","town":"柴町","town_kana":"シバマチ","prefecture_code":10},"0024":{"zip_code":"3720024","prefecture":"群馬県","prefecture_kana":"グンマケン","city":"伊勢崎市","city_kana":"イセサキシ","town":"下植木町","town_kana":"シモウエキチョウ","prefecture_code":10},"0852":{"zip_code":"3720852","prefecture":"群馬県","prefecture_kana":"グンマケン","city":"伊勢崎市","city_kana":"イセサキシ","town":"下蓮町","town_kana":"シモハスチョウ","prefecture_code":10},"0014":{"zip_code":"3720014","prefecture":"群馬県","prefecture_kana":"グンマケン","city":"伊勢崎市","city_kana":"イセサキシ","town":"昭和町","town_kana":"ショウワチョウ","prefecture_code":10},"0038":{"zip_code":"3720038","prefecture":"群馬県","prefecture_kana":"グンマケン","city":"伊勢崎市","city_kana":"イセサキシ","town":"新栄町","town_kana":"シンエイチョウ","prefecture_code":10},"0057":{"zip_code":"3720057","prefecture":"群馬県","prefecture_kana":"グンマケン","city":"伊勢崎市","city_kana":"イセサキシ","town":"末広町","town_kana":"スエヒロチョウ","prefecture_code":10},"0841":{"zip_code":"3720841","prefecture":"群馬県","prefecture_kana":"グンマケン","city":"伊勢崎市","city_kana":"イセサキシ","town":"大正寺町","town_kana":"ダイショウジチョウ","prefecture_code":10},"0802":{"zip_code":"3720802","prefecture":"群馬県","prefecture_kana":"グンマケン","city":"伊勢崎市","city_kana":"イセサキシ","town":"田中島町","town_kana":"タナカジママチ","prefecture_code":10},"0814":{"zip_code":"3720814","prefecture":"群馬県","prefecture_kana":"グンマケン","city":"伊勢崎市","city_kana":"イセサキシ","town":"田中町","town_kana":"タナカマチ","prefecture_code":10},"0042":{"zip_code":"3720042","prefecture":"群馬県","prefecture_kana":"グンマケン","city":"伊勢崎市","city_kana":"イセサキシ","town":"中央町","town_kana":"チュウオウチョウ","prefecture_code":10},"0004":{"zip_code":"3720004","prefecture":"群馬県","prefecture_kana":"グンマケン","city":"伊勢崎市","city_kana":"イセサキシ","town":"堤下町","town_kana":"ツツミシタチョウ","prefecture_code":10},"0002":{"zip_code":"3720002","prefecture":"群馬県","prefecture_kana":"グンマケン","city":"伊勢崎市","city_kana":"イセサキシ","town":"堤西町","town_kana":"ツツミニシマチ","prefecture_code":10},"0817":{"zip_code":"3720817","prefecture":"群馬県","prefecture_kana":"グンマケン","city":"伊勢崎市","city_kana":"イセサキシ","town":"連取本町","town_kana":"ツナトリホンマチ","prefecture_code":10},"0818":{"zip_code":"3720818","prefecture":"群馬県","prefecture_kana":"グンマケン","city":"伊勢崎市","city_kana":"イセサキシ","town":"連取元町","town_kana":"ツナトリモトマチ","prefecture_code":10},"0812":{"zip_code":"3720812","prefecture":"群馬県","prefecture_kana":"グンマケン","city":"伊勢崎市","city_kana":"イセサキシ","town":"連取町","town_kana":"ツナトリマチ","prefecture_code":10},"0833":{"zip_code":"3720833","prefecture":"群馬県","prefecture_kana":"グンマケン","city":"伊勢崎市","city_kana":"イセサキシ","town":"富塚町","town_kana":"トミヅカチョウ","prefecture_code":10},"0825":{"zip_code":"3720825","prefecture":"群馬県","prefecture_kana":"グンマケン","city":"伊勢崎市","city_kana":"イセサキシ","town":"戸谷塚町","town_kana":"トヤヅカマチ","prefecture_code":10},"0012":{"zip_code":"3720012","prefecture":"群馬県","prefecture_kana":"グンマケン","city":"伊勢崎市","city_kana":"イセサキシ","town":"豊城町","town_kana":"トヨシロチョウ","prefecture_code":10},"0822":{"zip_code":"3720822","prefecture":"群馬県","prefecture_kana":"グンマケン","city":"伊勢崎市","city_kana":"イセサキシ","town":"中町","town_kana":"ナカマチ","prefecture_code":10},"0855":{"zip_code":"3720855","prefecture":"群馬県","prefecture_kana":"グンマケン","city":"伊勢崎市","city_kana":"イセサキシ","town":"長沼町","town_kana":"ナガヌママチ","prefecture_code":10},"0816":{"zip_code":"3720816","prefecture":"群馬県","prefecture_kana":"グンマケン","city":"伊勢崎市","city_kana":"イセサキシ","town":"西上之宮町","town_kana":"ニシカミノミヤマチ","prefecture_code":10},"0058":{"zip_code":"3720058","prefecture":"群馬県","prefecture_kana":"グンマケン","city":"伊勢崎市","city_kana":"イセサキシ","town":"西田町","town_kana":"ニシダマチ","prefecture_code":10},"0813":{"zip_code":"3720813","prefecture":"群馬県","prefecture_kana":"グンマケン","city":"伊勢崎市","city_kana":"イセサキシ","town":"韮塚町","town_kana":"ニラヅカマチ","prefecture_code":10},"0844":{"zip_code":"3720844","prefecture":"群馬県","prefecture_kana":"グンマケン","city":"伊勢崎市","city_kana":"イセサキシ","town":"羽黒町","town_kana":"ハグロチョウ","prefecture_code":10},"0001":{"zip_code":"3720001","prefecture":"群馬県","prefecture_kana":"グンマケン","city":"伊勢崎市","city_kana":"イセサキシ","town":"波志江町","town_kana":"ハシエマチ","prefecture_code":10},"0815":{"zip_code":"3720815","prefecture":"群馬県","prefecture_kana":"グンマケン","city":"伊勢崎市","city_kana":"イセサキシ","town":"東上之宮町","town_kana":"ヒガシカミノミヤマチ","prefecture_code":10},"0025":{"zip_code":"3720025","prefecture":"群馬県","prefecture_kana":"グンマケン","city":"伊勢崎市","city_kana":"イセサキシ","town":"東本町","town_kana":"ヒガシホンマチ","prefecture_code":10},"0022":{"zip_code":"3720022","prefecture":"群馬県","prefecture_kana":"グンマケン","city":"伊勢崎市","city_kana":"イセサキシ","town":"日乃出町","town_kana":"ヒノデチョウ","prefecture_code":10},"0039":{"zip_code":"3720039","prefecture":"群馬県","prefecture_kana":"グンマケン","city":"伊勢崎市","city_kana":"イセサキシ","town":"ひろせ町","town_kana":"ヒロセチョウ","prefecture_code":10},"0826":{"zip_code":"3720826","prefecture":"群馬県","prefecture_kana":"グンマケン","city":"伊勢崎市","city_kana":"イセサキシ","town":"福島町","town_kana":"フクジママチ","prefecture_code":10},"0041":{"zip_code":"3720041","prefecture":"群馬県","prefecture_kana":"グンマケン","city":"伊勢崎市","city_kana":"イセサキシ","town":"平和町","town_kana":"ヘイワチョウ","prefecture_code":10},"0834":{"zip_code":"3720834","prefecture":"群馬県","prefecture_kana":"グンマケン","city":"伊勢崎市","city_kana":"イセサキシ","town":"堀口町","town_kana":"ホリグチマチ","prefecture_code":10},"0016":{"zip_code":"3720016","prefecture":"群馬県","prefecture_kana":"グンマケン","city":"伊勢崎市","city_kana":"イセサキシ","town":"本関町","town_kana":"ホンセキチョウ","prefecture_code":10},"0047":{"zip_code":"3720047","prefecture":"群馬県","prefecture_kana":"グンマケン","city":"伊勢崎市","city_kana":"イセサキシ","town":"本町","town_kana":"ホンマチ","prefecture_code":10},"0842":{"zip_code":"3720842","prefecture":"群馬県","prefecture_kana":"グンマケン","city":"伊勢崎市","city_kana":"イセサキシ","town":"馬見塚町","town_kana":"マミヅカマチ","prefecture_code":10},"0043":{"zip_code":"3720043","prefecture":"群馬県","prefecture_kana":"グンマケン","city":"伊勢崎市","city_kana":"イセサキシ","town":"緑町","town_kana":"ミドリチョウ","prefecture_code":10},"0033":{"zip_code":"3720033","prefecture":"群馬県","prefecture_kana":"グンマケン","city":"伊勢崎市","city_kana":"イセサキシ","town":"南千木町","town_kana":"ミナミセンギチョウ","prefecture_code":10},"0037":{"zip_code":"3720037","prefecture":"群馬県","prefecture_kana":"グンマケン","city":"伊勢崎市","city_kana":"イセサキシ","town":"美茂呂町","town_kana":"ミモロチョウ","prefecture_code":10},"0801":{"zip_code":"3720801","prefecture":"群馬県","prefecture_kana":"グンマケン","city":"伊勢崎市","city_kana":"イセサキシ","town":"宮子町","town_kana":"ミヤコマチ","prefecture_code":10},"0803":{"zip_code":"3720803","prefecture":"群馬県","prefecture_kana":"グンマケン","city":"伊勢崎市","city_kana":"イセサキシ","town":"宮古町","town_kana":"ミヤフルマチ","prefecture_code":10},"0026":{"zip_code":"3720026","prefecture":"群馬県","prefecture_kana":"グンマケン","city":"伊勢崎市","city_kana":"イセサキシ","town":"宮前町","town_kana":"ミヤマエチョウ","prefecture_code":10},"0053":{"zip_code":"3720053","prefecture":"群馬県","prefecture_kana":"グンマケン","city":"伊勢崎市","city_kana":"イセサキシ","town":"宗高町","town_kana":"ムネタカチョウ","prefecture_code":10},"0034":{"zip_code":"3720034","prefecture":"群馬県","prefecture_kana":"グンマケン","city":"伊勢崎市","city_kana":"イセサキシ","town":"茂呂町","town_kana":"モロマチ","prefecture_code":10},"0036":{"zip_code":"3720036","prefecture":"群馬県","prefecture_kana":"グンマケン","city":"伊勢崎市","city_kana":"イセサキシ","town":"茂呂南町","town_kana":"モロミナミチョウ","prefecture_code":10},"0044":{"zip_code":"3720044","prefecture":"群馬県","prefecture_kana":"グンマケン","city":"伊勢崎市","city_kana":"イセサキシ","town":"八坂町","town_kana":"ヤサカチョウ","prefecture_code":10},"0827":{"zip_code":"3720827","prefecture":"群馬県","prefecture_kana":"グンマケン","city":"伊勢崎市","city_kana":"イセサキシ","town":"八斗島町","town_kana":"ヤッタジママチ","prefecture_code":10},"0054":{"zip_code":"3720054","prefecture":"群馬県","prefecture_kana":"グンマケン","city":"伊勢崎市","city_kana":"イセサキシ","town":"柳原町","town_kana":"ヤナギハラチョウ","prefecture_code":10},"0051":{"zip_code":"3720051","prefecture":"群馬県","prefecture_kana":"グンマケン","city":"伊勢崎市","city_kana":"イセサキシ","town":"八幡町","town_kana":"ヤハタチョウ","prefecture_code":10},"0832":{"zip_code":"3720832","prefecture":"群馬県","prefecture_kana":"グンマケン","city":"伊勢崎市","city_kana":"イセサキシ","town":"除ケ町","town_kana":"ヨゲチョウ","prefecture_code":10},"0811":{"zip_code":"3720811","prefecture":"群馬県","prefecture_kana":"グンマケン","city":"伊勢崎市","city_kana":"イセサキシ","town":"若葉町","town_kana":"ワカバチョウ","prefecture_code":10}}