{"0000":{"zip_code":"3730000","prefecture":"群馬県","prefecture_kana":"グンマケン","city":"太田市","city_kana":"オオタシ","town":"以下に掲載がない場合","town_kana":"イカニケイサイガナイバアイ","prefecture_code":10},"0814":{"zip_code":"3730814","prefecture":"群馬県","prefecture_kana":"グンマケン","city":"太田市","city_kana":"オオタシ","town":"朝日町","town_kana":"アサヒチョウ","prefecture_code":10},"0852":{"zip_code":"3730852","prefecture":"群馬県","prefecture_kana":"グンマケン","city":"太田市","city_kana":"オオタシ","town":"新井町","town_kana":"アライチョウ","prefecture_code":10},"0851":{"zip_code":"3730851","prefecture":"群馬県","prefecture_kana":"グンマケン","city":"太田市","city_kana":"オオタシ","town":"飯田町","town_kana":"イイダチョウ","prefecture_code":10},"0817":{"zip_code":"3730817","prefecture":"群馬県","prefecture_kana":"グンマケン","city":"太田市","city_kana":"オオタシ","town":"飯塚町","town_kana":"イイヅカチョウ","prefecture_code":10},"0007":{"zip_code":"3730007","prefecture":"群馬県","prefecture_kana":"グンマケン","city":"太田市","city_kana":"オオタシ","town":"石橋町","town_kana":"イシバシチョウ","prefecture_code":10},"0808":{"zip_code":"3730808","prefecture":"群馬県","prefecture_kana":"グンマケン","city":"太田市","city_kana":"オオタシ","town":"石原町","town_kana":"イシハラチョウ","prefecture_code":10},"0845":{"zip_code":"3730845","prefecture":"群馬県","prefecture_kana":"グンマケン","city":"太田市","city_kana":"オオタシ","town":"泉町","town_kana":"イズミチョウ","prefecture_code":10},"0013":{"zip_code":"3730013","prefecture":"群馬県","prefecture_kana":"グンマケン","city":"太田市","city_kana":"オオタシ","town":"市場町","town_kana":"イチバチョウ","prefecture_code":10},"0841":{"zip_code":"3730841","prefecture":"群馬県","prefecture_kana":"グンマケン","city":"太田市","city_kana":"オオタシ","town":"岩瀬川町","town_kana":"イワセガワチョウ","prefecture_code":10},"0014":{"zip_code":"3730014","prefecture":"群馬県","prefecture_kana":"グンマケン","city":"太田市","city_kana":"オオタシ","town":"植木野町","town_kana":"ウエキノチョウ","prefecture_code":10},"0833":{"zip_code":"3730833","prefecture":"群馬県","prefecture_kana":"グンマケン","city":"太田市","city_kana":"オオタシ","town":"牛沢町","town_kana":"ウシザワチョウ","prefecture_code":10},"0813":{"zip_code":"3730813","prefecture":"群馬県","prefecture_kana":"グンマケン","city":"太田市","city_kana":"オオタシ","town":"内ケ島町","town_kana":"ウチガシマチョウ","prefecture_code":10},"0055":{"zip_code":"3730055","prefecture":"群馬県","prefecture_kana":"グンマケン","city":"太田市","city_kana":"オオタシ","town":"大島町","town_kana":"オオシマチョウ","prefecture_code":10},"0075":{"zip_code":"3730075","prefecture":"群馬県","prefecture_kana":"グンマケン","city":"太田市","city_kana":"オオタシ","town":"大鷲町","town_kana":"オオワシチョウ","prefecture_code":10},"0045":{"zip_code":"3730045","prefecture":"群馬県","prefecture_kana":"グンマケン","city":"太田市","city_kana":"オオタシ","town":"沖野町","town_kana":"オキノチョウ","prefecture_code":10},"0804":{"zip_code":"3730804","prefecture":"群馬県","prefecture_kana":"グンマケン","city":"太田市","city_kana":"オオタシ","town":"沖之郷町","town_kana":"オキノゴウチョウ","prefecture_code":10},"0027":{"zip_code":"3730027","prefecture":"群馬県","prefecture_kana":"グンマケン","city":"太田市","city_kana":"オオタシ","town":"金山町","town_kana":"カナヤマチョウ","prefecture_code":10},"0074":{"zip_code":"3730074","prefecture":"群馬県","prefecture_kana":"グンマケン","city":"太田市","city_kana":"オオタシ","town":"上強戸町","town_kana":"カミゴウドチョウ","prefecture_code":10},"0024":{"zip_code":"3730024","prefecture":"群馬県","prefecture_kana":"グンマケン","city":"太田市","city_kana":"オオタシ","town":"上小林町","town_kana":"カミコバヤシチョウ","prefecture_code":10},"0044":{"zip_code":"3730044","prefecture":"群馬県","prefecture_kana":"グンマケン","city":"太田市","city_kana":"オオタシ","town":"上田島町","town_kana":"カミタジマチョウ","prefecture_code":10},"0003":{"zip_code":"3730003","prefecture":"群馬県","prefecture_kana":"グンマケン","city":"太田市","city_kana":"オオタシ","town":"北金井町","town_kana":"キタカナイチョウ","prefecture_code":10},"0012":{"zip_code":"3730012","prefecture":"群馬県","prefecture_kana":"グンマケン","city":"太田市","city_kana":"オオタシ","town":"清原町","town_kana":"キヨハラチョウ","prefecture_code":10},"0025":{"zip_code":"3730025","prefecture":"群馬県","prefecture_kana":"グンマケン","city":"太田市","city_kana":"オオタシ","town":"熊野町","town_kana":"クマノチョウ","prefecture_code":10},"0004":{"zip_code":"3730004","prefecture":"群馬県","prefecture_kana":"グンマケン","city":"太田市","city_kana":"オオタシ","town":"強戸町","town_kana":"ゴウドチョウ","prefecture_code":10},"0818":{"zip_code":"3730818","prefecture":"群馬県","prefecture_kana":"グンマケン","city":"太田市","city_kana":"オオタシ","town":"小舞木町","town_kana":"コマイギチョウ","prefecture_code":10},"0807":{"zip_code":"3730807","prefecture":"群馬県","prefecture_kana":"グンマケン","city":"太田市","city_kana":"オオタシ","town":"下小林町","town_kana":"シモコバヤシチョウ","prefecture_code":10},"0844":{"zip_code":"3730844","prefecture":"群馬県","prefecture_kana":"グンマケン","city":"太田市","city_kana":"オオタシ","town":"下田島町","town_kana":"シモタジマチョウ","prefecture_code":10},"0821":{"zip_code":"3730821","prefecture":"群馬県","prefecture_kana":"グンマケン","city":"太田市","city_kana":"オオタシ","town":"下浜田町","town_kana":"シモハマダチョウ","prefecture_code":10},"0038":{"zip_code":"3730038","prefecture":"群馬県","prefecture_kana":"グンマケン","city":"太田市","city_kana":"オオタシ","town":"城西町","town_kana":"ジョウサイチョウ","prefecture_code":10},"0822":{"zip_code":"3730822","prefecture":"群馬県","prefecture_kana":"グンマケン","city":"太田市","city_kana":"オオタシ","town":"庄屋町","town_kana":"ショウヤマチ","prefecture_code":10},"0037":{"zip_code":"3730037","prefecture":"群馬県","prefecture_kana":"グンマケン","city":"太田市","city_kana":"オオタシ","town":"新道町","town_kana":"シンドウチョウ","prefecture_code":10},"0862":{"zip_code":"3730862","prefecture":"群馬県","prefecture_kana":"グンマケン","city":"太田市","city_kana":"オオタシ","town":"末広町","town_kana":"スエヒロチョウ","prefecture_code":10},"0002":{"zip_code":"3730002","prefecture":"群馬県","prefecture_kana":"グンマケン","city":"太田市","city_kana":"オオタシ","town":"菅塩町","town_kana":"スガシオチョウ","prefecture_code":10},"0028":{"zip_code":"3730028","prefecture":"群馬県","prefecture_kana":"グンマケン","city":"太田市","city_kana":"オオタシ","town":"スバル町","town_kana":"スバルチョウ","prefecture_code":10},"0801":{"zip_code":"3730801","prefecture":"群馬県","prefecture_kana":"グンマケン","city":"太田市","city_kana":"オオタシ","town":"台之郷町","town_kana":"ダイノゴウチョウ","prefecture_code":10},"0072":{"zip_code":"3730072","prefecture":"群馬県","prefecture_kana":"グンマケン","city":"太田市","city_kana":"オオタシ","town":"高瀬町","town_kana":"タカゼチョウ","prefecture_code":10},"0825":{"zip_code":"3730825","prefecture":"群馬県","prefecture_kana":"グンマケン","city":"太田市","city_kana":"オオタシ","town":"高林東町","town_kana":"タカハヤシヒガシチョウ","prefecture_code":10},"0828":{"zip_code":"3730828","prefecture":"群馬県","prefecture_kana":"グンマケン","city":"太田市","city_kana":"オオタシ","town":"高林西町","town_kana":"タカハヤシニシチョウ","prefecture_code":10},"0827":{"zip_code":"3730827","prefecture":"群馬県","prefecture_kana":"グンマケン","city":"太田市","city_kana":"オオタシ","town":"高林南町","town_kana":"タカハヤシミナミチョウ","prefecture_code":10},"0829":{"zip_code":"3730829","prefecture":"群馬県","prefecture_kana":"グンマケン","city":"太田市","city_kana":"オオタシ","town":"高林北町","town_kana":"タカハヤシキタチョウ","prefecture_code":10},"0824":{"zip_code":"3730824","prefecture":"群馬県","prefecture_kana":"グンマケン","city":"太田市","city_kana":"オオタシ","town":"高林寿町","town_kana":"タカハヤシコトブキチョウ","prefecture_code":10},"0042":{"zip_code":"3730042","prefecture":"群馬県","prefecture_kana":"グンマケン","city":"太田市","city_kana":"オオタシ","town":"宝町","town_kana":"タカラマチ","prefecture_code":10},"0011":{"zip_code":"3730011","prefecture":"群馬県","prefecture_kana":"グンマケン","city":"太田市","city_kana":"オオタシ","town":"只上町","town_kana":"タダカリチョウ","prefecture_code":10},"0008":{"zip_code":"3730008","prefecture":"群馬県","prefecture_kana":"グンマケン","city":"太田市","city_kana":"オオタシ","town":"鶴生田町","town_kana":"ツルウダチョウ","prefecture_code":10},"0052":{"zip_code":"3730052","prefecture":"群馬県","prefecture_kana":"グンマケン","city":"太田市","city_kana":"オオタシ","town":"寺井町","town_kana":"テライチョウ","prefecture_code":10},"0051":{"zip_code":"3730051","prefecture":"群馬県","prefecture_kana":"グンマケン","city":"太田市","city_kana":"オオタシ","town":"天良町","town_kana":"テンラチョウ","prefecture_code":10},"0832":{"zip_code":"3730832","prefecture":"群馬県","prefecture_kana":"グンマケン","city":"太田市","city_kana":"オオタシ","town":"富沢町","town_kana":"トミザワチョウ","prefecture_code":10},"0023":{"zip_code":"3730023","prefecture":"群馬県","prefecture_kana":"グンマケン","city":"太田市","city_kana":"オオタシ","town":"富若町","town_kana":"トミワカチョウ","prefecture_code":10},"0053":{"zip_code":"3730053","prefecture":"群馬県","prefecture_kana":"グンマケン","city":"太田市","city_kana":"オオタシ","town":"鳥山町","town_kana":"トリヤマチョウ","prefecture_code":10},"0061":{"zip_code":"3730061","prefecture":"群馬県","prefecture_kana":"グンマケン","city":"太田市","city_kana":"オオタシ","town":"鳥山上町","town_kana":"トリヤマカミチョウ","prefecture_code":10},"0062":{"zip_code":"3730062","prefecture":"群馬県","prefecture_kana":"グンマケン","city":"太田市","city_kana":"オオタシ","town":"鳥山中町","town_kana":"トリヤマナカチョウ","prefecture_code":10},"0063":{"zip_code":"3730063","prefecture":"群馬県","prefecture_kana":"グンマケン","city":"太田市","city_kana":"オオタシ","town":"鳥山下町","town_kana":"トリヤマシモチョウ","prefecture_code":10},"0846":{"zip_code":"3730846","prefecture":"群馬県","prefecture_kana":"グンマケン","city":"太田市","city_kana":"オオタシ","town":"中根町","town_kana":"ナカネチョウ","prefecture_code":10},"0054":{"zip_code":"3730054","prefecture":"群馬県","prefecture_kana":"グンマケン","city":"太田市","city_kana":"オオタシ","town":"長手町","town_kana":"ナガテチョウ","prefecture_code":10},"0006":{"zip_code":"3730006","prefecture":"群馬県","prefecture_kana":"グンマケン","city":"太田市","city_kana":"オオタシ","town":"成塚町","town_kana":"ナリヅカチョウ","prefecture_code":10},"0819":{"zip_code":"3730819","prefecture":"群馬県","prefecture_kana":"グンマケン","city":"太田市","city_kana":"オオタシ","town":"新島町","town_kana":"ニイジマチョウ","prefecture_code":10},"0032":{"zip_code":"3730032","prefecture":"群馬県","prefecture_kana":"グンマケン","city":"太田市","city_kana":"オオタシ","town":"新野町","town_kana":"ニイノチョウ","prefecture_code":10},"0847":{"zip_code":"3730847","prefecture":"群馬県","prefecture_kana":"グンマケン","city":"太田市","city_kana":"オオタシ","town":"西新町","town_kana":"ニシシンマチ","prefecture_code":10},"0001":{"zip_code":"3730001","prefecture":"群馬県","prefecture_kana":"グンマケン","city":"太田市","city_kana":"オオタシ","town":"西長岡町","town_kana":"ニシナガオカチョウ","prefecture_code":10},"0043":{"zip_code":"3730043","prefecture":"群馬県","prefecture_kana":"グンマケン","city":"太田市","city_kana":"オオタシ","town":"西野谷町","town_kana":"ニシノヤチョウ","prefecture_code":10},"0033":{"zip_code":"3730033","prefecture":"群馬県","prefecture_kana":"グンマケン","city":"太田市","city_kana":"オオタシ","town":"西本町","town_kana":"ニシホンチョウ","prefecture_code":10},"0823":{"zip_code":"3730823","prefecture":"群馬県","prefecture_kana":"グンマケン","city":"太田市","city_kana":"オオタシ","town":"西矢島町","town_kana":"ニシヤジマチョウ","prefecture_code":10},"0029":{"zip_code":"3730029","prefecture":"群馬県","prefecture_kana":"グンマケン","city":"太田市","city_kana":"オオタシ","town":"韮川町","town_kana":"ニラガワチョウ","prefecture_code":10},"0056":{"zip_code":"3730056","prefecture":"群馬県","prefecture_kana":"グンマケン","city":"太田市","city_kana":"オオタシ","town":"八幡町","town_kana":"ハチマンチョウ","prefecture_code":10},"0853":{"zip_code":"3730853","prefecture":"群馬県","prefecture_kana":"グンマケン","city":"太田市","city_kana":"オオタシ","town":"浜町","town_kana":"ハマチョウ","prefecture_code":10},"0071":{"zip_code":"3730071","prefecture":"群馬県","prefecture_kana":"グンマケン","city":"太田市","city_kana":"オオタシ","town":"原宿町","town_kana":"ハラジュクチョウ","prefecture_code":10},"0021":{"zip_code":"3730021","prefecture":"群馬県","prefecture_kana":"グンマケン","city":"太田市","city_kana":"オオタシ","town":"東今泉町","town_kana":"ヒガシイマイズミチョウ","prefecture_code":10},"0022":{"zip_code":"3730022","prefecture":"群馬県","prefecture_kana":"グンマケン","city":"太田市","city_kana":"オオタシ","town":"東金井町","town_kana":"ヒガシカナイチョウ","prefecture_code":10},"0015":{"zip_code":"3730015","prefecture":"群馬県","prefecture_kana":"グンマケン","city":"太田市","city_kana":"オオタシ","town":"東新町","town_kana":"ヒガシシンマチ","prefecture_code":10},"0812":{"zip_code":"3730812","prefecture":"群馬県","prefecture_kana":"グンマケン","city":"太田市","city_kana":"オオタシ","town":"東長岡町","town_kana":"ヒガシナガオカチョウ","prefecture_code":10},"0815":{"zip_code":"3730815","prefecture":"群馬県","prefecture_kana":"グンマケン","city":"太田市","city_kana":"オオタシ","town":"東別所町","town_kana":"ヒガシベッショチョウ","prefecture_code":10},"0026":{"zip_code":"3730026","prefecture":"群馬県","prefecture_kana":"グンマケン","city":"太田市","city_kana":"オオタシ","town":"東本町","town_kana":"ヒガシホンチョウ","prefecture_code":10},"0816":{"zip_code":"3730816","prefecture":"群馬県","prefecture_kana":"グンマケン","city":"太田市","city_kana":"オオタシ","town":"東矢島町","town_kana":"ヒガシヤジマチョウ","prefecture_code":10},"0831":{"zip_code":"3730831","prefecture":"群馬県","prefecture_kana":"グンマケン","city":"太田市","city_kana":"オオタシ","town":"福沢町","town_kana":"フクザワチョウ","prefecture_code":10},"0034":{"zip_code":"3730034","prefecture":"群馬県","prefecture_kana":"グンマケン","city":"太田市","city_kana":"オオタシ","town":"藤阿久町","town_kana":"フジアグチョウ","prefecture_code":10},"0035":{"zip_code":"3730035","prefecture":"群馬県","prefecture_kana":"グンマケン","city":"太田市","city_kana":"オオタシ","town":"藤久良町","town_kana":"フジクラチョウ","prefecture_code":10},"0826":{"zip_code":"3730826","prefecture":"群馬県","prefecture_kana":"グンマケン","city":"太田市","city_kana":"オオタシ","town":"古戸町","town_kana":"フルトチョウ","prefecture_code":10},"0041":{"zip_code":"3730041","prefecture":"群馬県","prefecture_kana":"グンマケン","city":"太田市","city_kana":"オオタシ","town":"別所町","town_kana":"ベッショチョウ","prefecture_code":10},"0842":{"zip_code":"3730842","prefecture":"群馬県","prefecture_kana":"グンマケン","city":"太田市","city_kana":"オオタシ","town":"細谷町","town_kana":"ホソヤチョウ","prefecture_code":10},"0057":{"zip_code":"3730057","prefecture":"群馬県","prefecture_kana":"グンマケン","city":"太田市","city_kana":"オオタシ","town":"本町","town_kana":"ホンチョウ","prefecture_code":10},"0018":{"zip_code":"3730018","prefecture":"群馬県","prefecture_kana":"グンマケン","city":"太田市","city_kana":"オオタシ","town":"丸山町","town_kana":"マルヤマチョウ","prefecture_code":10},"0073":{"zip_code":"3730073","prefecture":"群馬県","prefecture_kana":"グンマケン","city":"太田市","city_kana":"オオタシ","town":"緑町","town_kana":"ミドリチョウ","prefecture_code":10},"0861":{"zip_code":"3730861","prefecture":"群馬県","prefecture_kana":"グンマケン","city":"太田市","city_kana":"オオタシ","town":"南矢島町","town_kana":"ミナミヤジマチョウ","prefecture_code":10},"0809":{"zip_code":"3730809","prefecture":"群馬県","prefecture_kana":"グンマケン","city":"太田市","city_kana":"オオタシ","town":"茂木町","town_kana":"モテギチョウ","prefecture_code":10},"0805":{"zip_code":"3730805","prefecture":"群馬県","prefecture_kana":"グンマケン","city":"太田市","city_kana":"オオタシ","town":"八重笠町","town_kana":"ヤエガサチョウ","prefecture_code":10},"0811":{"zip_code":"3730811","prefecture":"群馬県","prefecture_kana":"グンマケン","city":"太田市","city_kana":"オオタシ","town":"安良岡町","town_kana":"ヤスラオカチョウ","prefecture_code":10},"0016":{"zip_code":"3730016","prefecture":"群馬県","prefecture_kana":"グンマケン","city":"太田市","city_kana":"オオタシ","town":"矢田堀町","town_kana":"ヤタボリチョウ","prefecture_code":10},"0803":{"zip_code":"3730803","prefecture":"群馬県","prefecture_kana":"グンマケン","city":"太田市","city_kana":"オオタシ","town":"矢場町","town_kana":"ヤバチョウ","prefecture_code":10},"0802":{"zip_code":"3730802","prefecture":"群馬県","prefecture_kana":"グンマケン","city":"太田市","city_kana":"オオタシ","town":"矢場新町","town_kana":"ヤバシンマチ","prefecture_code":10},"0036":{"zip_code":"3730036","prefecture":"群馬県","prefecture_kana":"グンマケン","city":"太田市","city_kana":"オオタシ","town":"由良町","town_kana":"ユラチョウ","prefecture_code":10},"0019":{"zip_code":"3730019","prefecture":"群馬県","prefecture_kana":"グンマケン","city":"太田市","city_kana":"オオタシ","town":"吉沢町","town_kana":"ヨシザワチョウ","prefecture_code":10},"0843":{"zip_code":"3730843","prefecture":"群馬県","prefecture_kana":"グンマケン","city":"太田市","city_kana":"オオタシ","town":"米沢町","town_kana":"ヨネザワチョウ","prefecture_code":10},"0806":{"zip_code":"3730806","prefecture":"群馬県","prefecture_kana":"グンマケン","city":"太田市","city_kana":"オオタシ","town":"龍舞町","town_kana":"リュウマイチョウ","prefecture_code":10},"0031":{"zip_code":"3730031","prefecture":"群馬県","prefecture_kana":"グンマケン","city":"太田市","city_kana":"オオタシ","town":"脇屋町","town_kana":"ワキヤチョウ","prefecture_code":10}}