{"0000":{"zip_code":"3740000","prefecture":"群馬県","prefecture_kana":"グンマケン","city":"館林市","city_kana":"タテバヤシシ","town":"以下に掲載がない場合","town_kana":"イカニケイサイガナイバアイ","prefecture_code":10},"0035":{"zip_code":"3740035","prefecture":"群馬県","prefecture_kana":"グンマケン","city":"館林市","city_kana":"タテバヤシシ","town":"青柳町","town_kana":"アオヤギチョウ","prefecture_code":10},"0053":{"zip_code":"3740053","prefecture":"群馬県","prefecture_kana":"グンマケン","city":"館林市","city_kana":"タテバヤシシ","town":"赤土町","town_kana":"アカツチチョウ","prefecture_code":10},"0013":{"zip_code":"3740013","prefecture":"群馬県","prefecture_kana":"グンマケン","city":"館林市","city_kana":"タテバヤシシ","town":"赤生田町","town_kana":"アコウダチョウ","prefecture_code":10},"0014":{"zip_code":"3740014","prefecture":"群馬県","prefecture_kana":"グンマケン","city":"館林市","city_kana":"タテバヤシシ","town":"赤生田本町","town_kana":"アコウダホンチョウ","prefecture_code":10},"0063":{"zip_code":"3740063","prefecture":"群馬県","prefecture_kana":"グンマケン","city":"館林市","city_kana":"タテバヤシシ","town":"朝日町","town_kana":"アサヒチョウ","prefecture_code":10},"0073":{"zip_code":"3740073","prefecture":"群馬県","prefecture_kana":"グンマケン","city":"館林市","city_kana":"タテバヤシシ","town":"足次町","town_kana":"アシツギチョウ","prefecture_code":10},"0045":{"zip_code":"3740045","prefecture":"群馬県","prefecture_kana":"グンマケン","city":"館林市","city_kana":"タテバヤシシ","town":"入ケ谷町","town_kana":"イリカヤチョウ","prefecture_code":10},"0066":{"zip_code":"3740066","prefecture":"群馬県","prefecture_kana":"グンマケン","city":"館林市","city_kana":"タテバヤシシ","town":"大街道","town_kana":"オオカイドウ","prefecture_code":10},"0001":{"zip_code":"3740001","prefecture":"群馬県","prefecture_kana":"グンマケン","city":"館林市","city_kana":"タテバヤシシ","town":"大島町","town_kana":"オオシマチョウ","prefecture_code":10},"0072":{"zip_code":"3740072","prefecture":"群馬県","prefecture_kana":"グンマケン","city":"館林市","city_kana":"タテバヤシシ","town":"大新田町","town_kana":"オオシンデンチョウ","prefecture_code":10},"0023":{"zip_code":"3740023","prefecture":"群馬県","prefecture_kana":"グンマケン","city":"館林市","city_kana":"タテバヤシシ","town":"大手町","town_kana":"オオテマチ","prefecture_code":10},"0054":{"zip_code":"3740054","prefecture":"群馬県","prefecture_kana":"グンマケン","city":"館林市","city_kana":"タテバヤシシ","town":"大谷町","town_kana":"オオヤチョウ","prefecture_code":10},"0067":{"zip_code":"3740067","prefecture":"群馬県","prefecture_kana":"グンマケン","city":"館林市","city_kana":"タテバヤシシ","town":"岡野町","town_kana":"オカノチョウ","prefecture_code":10},"0019":{"zip_code":"3740019","prefecture":"群馬県","prefecture_kana":"グンマケン","city":"館林市","city_kana":"タテバヤシシ","town":"尾曳町","town_kana":"オビキチョウ","prefecture_code":10},"0022":{"zip_code":"3740022","prefecture":"群馬県","prefecture_kana":"グンマケン","city":"館林市","city_kana":"タテバヤシシ","town":"加法師町","town_kana":"カボウシチョウ","prefecture_code":10},"0015":{"zip_code":"3740015","prefecture":"群馬県","prefecture_kana":"グンマケン","city":"館林市","city_kana":"タテバヤシシ","town":"上赤生田町","town_kana":"カミアコウダチョウ","prefecture_code":10},"0079":{"zip_code":"3740079","prefecture":"群馬県","prefecture_kana":"グンマケン","city":"館林市","city_kana":"タテバヤシシ","town":"上早川田町","town_kana":"カミサガワダチョウ","prefecture_code":10},"0046":{"zip_code":"3740046","prefecture":"群馬県","prefecture_kana":"グンマケン","city":"館林市","city_kana":"タテバヤシシ","town":"上三林町","town_kana":"カミミバヤシチョウ","prefecture_code":10},"0057":{"zip_code":"3740057","prefecture":"群馬県","prefecture_kana":"グンマケン","city":"館林市","city_kana":"タテバヤシシ","town":"北成島町","town_kana":"キタナルシマチョウ","prefecture_code":10},"0077":{"zip_code":"3740077","prefecture":"群馬県","prefecture_kana":"グンマケン","city":"館林市","city_kana":"タテバヤシシ","town":"木戸町","town_kana":"キドチョウ","prefecture_code":10},"0004":{"zip_code":"3740004","prefecture":"群馬県","prefecture_kana":"グンマケン","city":"館林市","city_kana":"タテバヤシシ","town":"楠町","town_kana":"クスノキチョウ","prefecture_code":10},"0037":{"zip_code":"3740037","prefecture":"群馬県","prefecture_kana":"グンマケン","city":"館林市","city_kana":"タテバヤシシ","town":"小桑原町","town_kana":"コクワバラチョウ","prefecture_code":10},"0042":{"zip_code":"3740042","prefecture":"群馬県","prefecture_kana":"グンマケン","city":"館林市","city_kana":"タテバヤシシ","town":"近藤町","town_kana":"コンドウチョウ","prefecture_code":10},"0052":{"zip_code":"3740052","prefecture":"群馬県","prefecture_kana":"グンマケン","city":"館林市","city_kana":"タテバヤシシ","town":"栄町","town_kana":"サカエチョウ","prefecture_code":10},"0069":{"zip_code":"3740069","prefecture":"群馬県","prefecture_kana":"グンマケン","city":"館林市","city_kana":"タテバヤシシ","town":"坂下町","town_kana":"サカシタチョウ","prefecture_code":10},"0071":{"zip_code":"3740071","prefecture":"群馬県","prefecture_kana":"グンマケン","city":"館林市","city_kana":"タテバヤシシ","town":"下早川田町","town_kana":"シモサガワダチョウ","prefecture_code":10},"0044":{"zip_code":"3740044","prefecture":"群馬県","prefecture_kana":"グンマケン","city":"館林市","city_kana":"タテバヤシシ","town":"下三林町","town_kana":"シモミバヤシチョウ","prefecture_code":10},"0018":{"zip_code":"3740018","prefecture":"群馬県","prefecture_kana":"グンマケン","city":"館林市","city_kana":"タテバヤシシ","town":"城町","town_kana":"シロマチ","prefecture_code":10},"0051":{"zip_code":"3740051","prefecture":"群馬県","prefecture_kana":"グンマケン","city":"館林市","city_kana":"タテバヤシシ","town":"新栄町","town_kana":"シンサカエチョウ","prefecture_code":10},"0026":{"zip_code":"3740026","prefecture":"群馬県","prefecture_kana":"グンマケン","city":"館林市","city_kana":"タテバヤシシ","town":"新宿","town_kana":"シンジュク","prefecture_code":10},"0036":{"zip_code":"3740036","prefecture":"群馬県","prefecture_kana":"グンマケン","city":"館林市","city_kana":"タテバヤシシ","town":"諏訪町","town_kana":"スワチョウ","prefecture_code":10},"0021":{"zip_code":"3740021","prefecture":"群馬県","prefecture_kana":"グンマケン","city":"館林市","city_kana":"タテバヤシシ","town":"瀬戸谷町","town_kana":"セドヤチョウ","prefecture_code":10},"0064":{"zip_code":"3740064","prefecture":"群馬県","prefecture_kana":"グンマケン","city":"館林市","city_kana":"タテバヤシシ","town":"代官町","town_kana":"ダイカンチョウ","prefecture_code":10},"0068":{"zip_code":"3740068","prefecture":"群馬県","prefecture_kana":"グンマケン","city":"館林市","city_kana":"タテバヤシシ","town":"台宿町","town_kana":"ダイジュクチョウ","prefecture_code":10},"0074":{"zip_code":"3740074","prefecture":"群馬県","prefecture_kana":"グンマケン","city":"館林市","city_kana":"タテバヤシシ","town":"高根町","town_kana":"タカネチョウ","prefecture_code":10},"0002":{"zip_code":"3740002","prefecture":"群馬県","prefecture_kana":"グンマケン","city":"館林市","city_kana":"タテバヤシシ","town":"田谷町","town_kana":"タヤチョウ","prefecture_code":10},"0009":{"zip_code":"3740009","prefecture":"群馬県","prefecture_kana":"グンマケン","city":"館林市","city_kana":"タテバヤシシ","town":"千塚町","town_kana":"チヅカチョウ","prefecture_code":10},"0028":{"zip_code":"3740028","prefecture":"群馬県","prefecture_kana":"グンマケン","city":"館林市","city_kana":"タテバヤシシ","town":"千代田町","town_kana":"チヨダチョウ","prefecture_code":10},"0017":{"zip_code":"3740017","prefecture":"群馬県","prefecture_kana":"グンマケン","city":"館林市","city_kana":"タテバヤシシ","town":"つつじ町","town_kana":"ツツジチョウ","prefecture_code":10},"0006":{"zip_code":"3740006","prefecture":"群馬県","prefecture_kana":"グンマケン","city":"館林市","city_kana":"タテバヤシシ","town":"当郷町","town_kana":"トウゴウチョウ","prefecture_code":10},"0043":{"zip_code":"3740043","prefecture":"群馬県","prefecture_kana":"グンマケン","city":"館林市","city_kana":"タテバヤシシ","town":"苗木町","town_kana":"ナエギチョウ","prefecture_code":10},"0029":{"zip_code":"3740029","prefecture":"群馬県","prefecture_kana":"グンマケン","city":"館林市","city_kana":"タテバヤシシ","town":"仲町","town_kana":"ナカマチ","prefecture_code":10},"0055":{"zip_code":"3740055","prefecture":"群馬県","prefecture_kana":"グンマケン","city":"館林市","city_kana":"タテバヤシシ","town":"成島町","town_kana":"ナルシマチョウ","prefecture_code":10},"0075":{"zip_code":"3740075","prefecture":"群馬県","prefecture_kana":"グンマケン","city":"館林市","city_kana":"タテバヤシシ","town":"西高根町","town_kana":"ニシタカネチョウ","prefecture_code":10},"0065":{"zip_code":"3740065","prefecture":"群馬県","prefecture_kana":"グンマケン","city":"館林市","city_kana":"タテバヤシシ","town":"西本町","town_kana":"ニシホンチョウ","prefecture_code":10},"0038":{"zip_code":"3740038","prefecture":"群馬県","prefecture_kana":"グンマケン","city":"館林市","city_kana":"タテバヤシシ","town":"西美園町","town_kana":"ニシミソノチョウ","prefecture_code":10},"0047":{"zip_code":"3740047","prefecture":"群馬県","prefecture_kana":"グンマケン","city":"館林市","city_kana":"タテバヤシシ","town":"野辺町","town_kana":"ノベチョウ","prefecture_code":10},"0005":{"zip_code":"3740005","prefecture":"群馬県","prefecture_kana":"グンマケン","city":"館林市","city_kana":"タテバヤシシ","town":"花山町","town_kana":"ハナヤマチョウ","prefecture_code":10},"0012":{"zip_code":"3740012","prefecture":"群馬県","prefecture_kana":"グンマケン","city":"館林市","city_kana":"タテバヤシシ","town":"羽附旭町","town_kana":"ハネツクアサヒチョウ","prefecture_code":10},"0011":{"zip_code":"3740011","prefecture":"群馬県","prefecture_kana":"グンマケン","city":"館林市","city_kana":"タテバヤシシ","town":"羽附町","town_kana":"ハネツクチョウ","prefecture_code":10},"0061":{"zip_code":"3740061","prefecture":"群馬県","prefecture_kana":"グンマケン","city":"館林市","city_kana":"タテバヤシシ","town":"東広内町","town_kana":"ヒガシヒロウチチョウ","prefecture_code":10},"0031":{"zip_code":"3740031","prefecture":"群馬県","prefecture_kana":"グンマケン","city":"館林市","city_kana":"タテバヤシシ","town":"東美園町","town_kana":"ヒガシミソノチョウ","prefecture_code":10},"0076":{"zip_code":"3740076","prefecture":"群馬県","prefecture_kana":"グンマケン","city":"館林市","city_kana":"タテバヤシシ","town":"日向町","town_kana":"ヒナタチョウ","prefecture_code":10},"0062":{"zip_code":"3740062","prefecture":"群馬県","prefecture_kana":"グンマケン","city":"館林市","city_kana":"タテバヤシシ","town":"広内町","town_kana":"ヒロウチチョウ","prefecture_code":10},"0041":{"zip_code":"3740041","prefecture":"群馬県","prefecture_kana":"グンマケン","city":"館林市","city_kana":"タテバヤシシ","town":"富士原町","town_kana":"フジハラチョウ","prefecture_code":10},"0027":{"zip_code":"3740027","prefecture":"群馬県","prefecture_kana":"グンマケン","city":"館林市","city_kana":"タテバヤシシ","town":"富士見町","town_kana":"フジミチョウ","prefecture_code":10},"0034":{"zip_code":"3740034","prefecture":"群馬県","prefecture_kana":"グンマケン","city":"館林市","city_kana":"タテバヤシシ","town":"分福町","town_kana":"ブンブクチョウ","prefecture_code":10},"0078":{"zip_code":"3740078","prefecture":"群馬県","prefecture_kana":"グンマケン","city":"館林市","city_kana":"タテバヤシシ","town":"傍示塚町","town_kana":"ホウジツカチョウ","prefecture_code":10},"0008":{"zip_code":"3740008","prefecture":"群馬県","prefecture_kana":"グンマケン","city":"館林市","city_kana":"タテバヤシシ","town":"細内町","town_kana":"ホソウチチョウ","prefecture_code":10},"0033":{"zip_code":"3740033","prefecture":"群馬県","prefecture_kana":"グンマケン","city":"館林市","city_kana":"タテバヤシシ","town":"堀工町","town_kana":"ホリクチョウ","prefecture_code":10},"0024":{"zip_code":"3740024","prefecture":"群馬県","prefecture_kana":"グンマケン","city":"館林市","city_kana":"タテバヤシシ","town":"本町","town_kana":"ホンチョウ","prefecture_code":10},"0056":{"zip_code":"3740056","prefecture":"群馬県","prefecture_kana":"グンマケン","city":"館林市","city_kana":"タテバヤシシ","town":"松沼町","town_kana":"マツヌマチョウ","prefecture_code":10},"0016":{"zip_code":"3740016","prefecture":"群馬県","prefecture_kana":"グンマケン","city":"館林市","city_kana":"タテバヤシシ","town":"松原","town_kana":"マツバラ","prefecture_code":10},"0039":{"zip_code":"3740039","prefecture":"群馬県","prefecture_kana":"グンマケン","city":"館林市","city_kana":"タテバヤシシ","town":"美園町","town_kana":"ミソノチョウ","prefecture_code":10},"0025":{"zip_code":"3740025","prefecture":"群馬県","prefecture_kana":"グンマケン","city":"館林市","city_kana":"タテバヤシシ","town":"緑町","town_kana":"ミドリチョウ","prefecture_code":10},"0032":{"zip_code":"3740032","prefecture":"群馬県","prefecture_kana":"グンマケン","city":"館林市","city_kana":"タテバヤシシ","town":"南美園町","town_kana":"ミナミミソノチョウ","prefecture_code":10},"0003":{"zip_code":"3740003","prefecture":"群馬県","prefecture_kana":"グンマケン","city":"館林市","city_kana":"タテバヤシシ","town":"四ツ谷町","town_kana":"ヨツヤチョウ","prefecture_code":10},"0007":{"zip_code":"3740007","prefecture":"群馬県","prefecture_kana":"グンマケン","city":"館林市","city_kana":"タテバヤシシ","town":"若宮町","town_kana":"ワカミヤチョウ","prefecture_code":10},"0100":{"zip_code":"3740100","prefecture":"群馬県","prefecture_kana":"グンマケン","city":"邑楽郡板倉町","city_kana":"オウラグンイタクラマチ","town":"以下に掲載がない場合","town_kana":"イカニケイサイガナイバアイ","prefecture_code":10},"0112":{"zip_code":"3740112","prefecture":"群馬県","prefecture_kana":"グンマケン","city":"邑楽郡板倉町","city_kana":"オウラグンイタクラマチ","town":"朝日野","town_kana":"アサヒノ","prefecture_code":10},"0123":{"zip_code":"3740123","prefecture":"群馬県","prefecture_kana":"グンマケン","city":"邑楽郡板倉町","city_kana":"オウラグンイタクラマチ","town":"飯野","town_kana":"イイノ","prefecture_code":10},"0113":{"zip_code":"3740113","prefecture":"群馬県","prefecture_kana":"グンマケン","city":"邑楽郡板倉町","city_kana":"オウラグンイタクラマチ","town":"泉野","town_kana":"イズミノ","prefecture_code":10},"0132":{"zip_code":"3740132","prefecture":"群馬県","prefecture_kana":"グンマケン","city":"邑楽郡板倉町","city_kana":"オウラグンイタクラマチ","town":"板倉","town_kana":"イタクラ","prefecture_code":10},"0133":{"zip_code":"3740133","prefecture":"群馬県","prefecture_kana":"グンマケン","city":"邑楽郡板倉町","city_kana":"オウラグンイタクラマチ","town":"岩田","town_kana":"イワタ","prefecture_code":10},"0135":{"zip_code":"3740135","prefecture":"群馬県","prefecture_kana":"グンマケン","city":"邑楽郡板倉町","city_kana":"オウラグンイタクラマチ","town":"内蔵新田","town_kana":"ウチクラシンデン","prefecture_code":10},"0111":{"zip_code":"3740111","prefecture":"群馬県","prefecture_kana":"グンマケン","city":"邑楽郡板倉町","city_kana":"オウラグンイタクラマチ","town":"海老瀬","town_kana":"エビセ","prefecture_code":10},"0131":{"zip_code":"3740131","prefecture":"群馬県","prefecture_kana":"グンマケン","city":"邑楽郡板倉町","city_kana":"オウラグンイタクラマチ","town":"大蔵","town_kana":"オオクラ","prefecture_code":10},"0122":{"zip_code":"3740122","prefecture":"群馬県","prefecture_kana":"グンマケン","city":"邑楽郡板倉町","city_kana":"オウラグンイタクラマチ","town":"大高嶋","town_kana":"オオタカシマ","prefecture_code":10},"0104":{"zip_code":"3740104","prefecture":"群馬県","prefecture_kana":"グンマケン","city":"邑楽郡板倉町","city_kana":"オウラグンイタクラマチ","town":"大荷場","town_kana":"オオニンバ","prefecture_code":10},"0105":{"zip_code":"3740105","prefecture":"群馬県","prefecture_kana":"グンマケン","city":"邑楽郡板倉町","city_kana":"オウラグンイタクラマチ","town":"大曲","town_kana":"オオマガリ","prefecture_code":10},"0121":{"zip_code":"3740121","prefecture":"群馬県","prefecture_kana":"グンマケン","city":"邑楽郡板倉町","city_kana":"オウラグンイタクラマチ","town":"下五箇","town_kana":"シモゴカ","prefecture_code":10},"0107":{"zip_code":"3740107","prefecture":"群馬県","prefecture_kana":"グンマケン","city":"邑楽郡板倉町","city_kana":"オウラグンイタクラマチ","town":"西岡","town_kana":"ニシオカ","prefecture_code":10},"0106":{"zip_code":"3740106","prefecture":"群馬県","prefecture_kana":"グンマケン","city":"邑楽郡板倉町","city_kana":"オウラグンイタクラマチ","town":"西岡新田","town_kana":"ニシオカシンデン","prefecture_code":10},"0102":{"zip_code":"3740102","prefecture":"群馬県","prefecture_kana":"グンマケン","city":"邑楽郡板倉町","city_kana":"オウラグンイタクラマチ","town":"離","town_kana":"ハナレ","prefecture_code":10},"0103":{"zip_code":"3740103","prefecture":"群馬県","prefecture_kana":"グンマケン","city":"邑楽郡板倉町","city_kana":"オウラグンイタクラマチ","town":"細谷","town_kana":"ホソヤ","prefecture_code":10},"0134":{"zip_code":"3740134","prefecture":"群馬県","prefecture_kana":"グンマケン","city":"邑楽郡板倉町","city_kana":"オウラグンイタクラマチ","town":"籾谷","town_kana":"モミヤ","prefecture_code":10},"0101":{"zip_code":"3740101","prefecture":"群馬県","prefecture_kana":"グンマケン","city":"邑楽郡板倉町","city_kana":"オウラグンイタクラマチ","town":"除川","town_kana":"ヨケガワ","prefecture_code":10}}