{"0000":{"zip_code":"3760000","prefecture":"群馬県","prefecture_kana":"グンマケン","city":"桐生市","city_kana":"キリュウシ","town":"","town_kana":"","prefecture_code":10},"0011":{"zip_code":"3760011","prefecture":"群馬県","prefecture_kana":"グンマケン","city":"桐生市","city_kana":"キリュウシ","town":"相生町","town_kana":"アイオイチョウ","prefecture_code":10},"0037":{"zip_code":"3760037","prefecture":"群馬県","prefecture_kana":"グンマケン","city":"桐生市","city_kana":"キリュウシ","town":"旭町","town_kana":"アサヒチョウ","prefecture_code":10},"0032":{"zip_code":"3760032","prefecture":"群馬県","prefecture_kana":"グンマケン","city":"桐生市","city_kana":"キリュウシ","town":"東町","town_kana":"アズマチョウ","prefecture_code":10},"0033":{"zip_code":"3760033","prefecture":"群馬県","prefecture_kana":"グンマケン","city":"桐生市","city_kana":"キリュウシ","town":"泉町","town_kana":"イズミチョウ","prefecture_code":10},"0022":{"zip_code":"3760022","prefecture":"群馬県","prefecture_kana":"グンマケン","city":"桐生市","city_kana":"キリュウシ","town":"稲荷町","town_kana":"イナリチョウ","prefecture_code":10},"0601":{"zip_code":"3760601","prefecture":"群馬県","prefecture_kana":"グンマケン","city":"桐生市","city_kana":"キリュウシ","town":"梅田町","town_kana":"ウメダチョウ","prefecture_code":10},"0044":{"zip_code":"3760044","prefecture":"群馬県","prefecture_kana":"グンマケン","city":"桐生市","city_kana":"キリュウシ","town":"永楽町","town_kana":"エイラクチョウ","prefecture_code":10},"0024":{"zip_code":"3760024","prefecture":"群馬県","prefecture_kana":"グンマケン","city":"桐生市","city_kana":"キリュウシ","town":"織姫町","town_kana":"オリヒメチョウ","prefecture_code":10},"0041":{"zip_code":"3760041","prefecture":"群馬県","prefecture_kana":"グンマケン","city":"桐生市","city_kana":"キリュウシ","town":"川内町","town_kana":"カワウチチョウ","prefecture_code":10},"0036":{"zip_code":"3760036","prefecture":"群馬県","prefecture_kana":"グンマケン","city":"桐生市","city_kana":"キリュウシ","town":"川岸町","town_kana":"カワギシチョウ","prefecture_code":10},"0026":{"zip_code":"3760026","prefecture":"群馬県","prefecture_kana":"グンマケン","city":"桐生市","city_kana":"キリュウシ","town":"清瀬町","town_kana":"キヨセチョウ","prefecture_code":10},"0145":{"zip_code":"3760145","prefecture":"群馬県","prefecture_kana":"グンマケン","city":"桐生市","city_kana":"キリュウシ","town":"黒保根町上田沢","town_kana":"クロホネチョウカミタザワ","prefecture_code":10},"0144":{"zip_code":"3760144","prefecture":"群馬県","prefecture_kana":"グンマケン","city":"桐生市","city_kana":"キリュウシ","town":"黒保根町下田沢","town_kana":"クロホネチョウシモタザワ","prefecture_code":10},"0143":{"zip_code":"3760143","prefecture":"群馬県","prefecture_kana":"グンマケン","city":"桐生市","city_kana":"キリュウシ","town":"黒保根町宿廻","town_kana":"クロホネチョウシュクメグリ","prefecture_code":10},"0141":{"zip_code":"3760141","prefecture":"群馬県","prefecture_kana":"グンマケン","city":"桐生市","city_kana":"キリュウシ","town":"黒保根町水沼","town_kana":"クロホネチョウミズヌマ","prefecture_code":10},"0142":{"zip_code":"3760142","prefecture":"群馬県","prefecture_kana":"グンマケン","city":"桐生市","city_kana":"キリュウシ","town":"黒保根町八木原","town_kana":"クロホネチョウヤギハラ","prefecture_code":10},"0004":{"zip_code":"3760004","prefecture":"群馬県","prefecture_kana":"グンマケン","city":"桐生市","city_kana":"キリュウシ","town":"小梅町","town_kana":"コウメチョウ","prefecture_code":10},"0043":{"zip_code":"3760043","prefecture":"群馬県","prefecture_kana":"グンマケン","city":"桐生市","city_kana":"キリュウシ","town":"小曾根町","town_kana":"コソネチョウ","prefecture_code":10},"0003":{"zip_code":"3760003","prefecture":"群馬県","prefecture_kana":"グンマケン","city":"桐生市","city_kana":"キリュウシ","town":"琴平町","town_kana":"コトヒラチョウ","prefecture_code":10},"0002":{"zip_code":"3760002","prefecture":"群馬県","prefecture_kana":"グンマケン","city":"桐生市","city_kana":"キリュウシ","town":"境野町","town_kana":"サカイノチョウ","prefecture_code":10},"0012":{"zip_code":"3760012","prefecture":"群馬県","prefecture_kana":"グンマケン","city":"桐生市","city_kana":"キリュウシ","town":"桜木町","town_kana":"サクラギチョウ","prefecture_code":10},"0006":{"zip_code":"3760006","prefecture":"群馬県","prefecture_kana":"グンマケン","city":"桐生市","city_kana":"キリュウシ","town":"新宿","town_kana":"シンシュク","prefecture_code":10},"0045":{"zip_code":"3760045","prefecture":"群馬県","prefecture_kana":"グンマケン","city":"桐生市","city_kana":"キリュウシ","town":"末広町","town_kana":"スエヒロチョウ","prefecture_code":10},"0038":{"zip_code":"3760038","prefecture":"群馬県","prefecture_kana":"グンマケン","city":"桐生市","city_kana":"キリュウシ","town":"高砂町","town_kana":"タカサゴチョウ","prefecture_code":10},"0042":{"zip_code":"3760042","prefecture":"群馬県","prefecture_kana":"グンマケン","city":"桐生市","city_kana":"キリュウシ","town":"堤町","town_kana":"ツツミチョウ","prefecture_code":10},"0052":{"zip_code":"3760052","prefecture":"群馬県","prefecture_kana":"グンマケン","city":"桐生市","city_kana":"キリュウシ","town":"天神町","town_kana":"テンジンチョウ","prefecture_code":10},"0021":{"zip_code":"3760021","prefecture":"群馬県","prefecture_kana":"グンマケン","city":"桐生市","city_kana":"キリュウシ","town":"巴町","town_kana":"トモエチョウ","prefecture_code":10},"0035":{"zip_code":"3760035","prefecture":"群馬県","prefecture_kana":"グンマケン","city":"桐生市","city_kana":"キリュウシ","town":"仲町","town_kana":"ナカマチ","prefecture_code":10},"0137":{"zip_code":"3760137","prefecture":"群馬県","prefecture_kana":"グンマケン","city":"桐生市","city_kana":"キリュウシ","town":"新里町赤城山","town_kana":"ニイサトチョウアカギサン","prefecture_code":10},"0136":{"zip_code":"3760136","prefecture":"群馬県","prefecture_kana":"グンマケン","city":"桐生市","city_kana":"キリュウシ","town":"新里町板橋","town_kana":"ニイサトチョウイタバシ","prefecture_code":10},"0133":{"zip_code":"3760133","prefecture":"群馬県","prefecture_kana":"グンマケン","city":"桐生市","city_kana":"キリュウシ","town":"新里町大久保","town_kana":"ニイサトチョウオオクボ","prefecture_code":10},"0131":{"zip_code":"3760131","prefecture":"群馬県","prefecture_kana":"グンマケン","city":"桐生市","city_kana":"キリュウシ","town":"新里町奥沢","town_kana":"ニイサトチョウオクザワ","prefecture_code":10},"0124":{"zip_code":"3760124","prefecture":"群馬県","prefecture_kana":"グンマケン","city":"桐生市","city_kana":"キリュウシ","town":"新里町小林","town_kana":"ニイサトチョウコバヤシ","prefecture_code":10},"0134":{"zip_code":"3760134","prefecture":"群馬県","prefecture_kana":"グンマケン","city":"桐生市","city_kana":"キリュウシ","town":"新里町関","town_kana":"ニイサトチョウセキ","prefecture_code":10},"0135":{"zip_code":"3760135","prefecture":"群馬県","prefecture_kana":"グンマケン","city":"桐生市","city_kana":"キリュウシ","town":"新里町高泉","town_kana":"ニイサトチョウタカイズミ","prefecture_code":10},"0123":{"zip_code":"3760123","prefecture":"群馬県","prefecture_kana":"グンマケン","city":"桐生市","city_kana":"キリュウシ","town":"新里町武井","town_kana":"ニイサトチョウタケイ","prefecture_code":10},"0132":{"zip_code":"3760132","prefecture":"群馬県","prefecture_kana":"グンマケン","city":"桐生市","city_kana":"キリュウシ","town":"新里町鶴ケ谷","town_kana":"ニイサトチョウツルガヤ","prefecture_code":10},"0121":{"zip_code":"3760121","prefecture":"群馬県","prefecture_kana":"グンマケン","city":"桐生市","city_kana":"キリュウシ","town":"新里町新川","town_kana":"ニイサトチョウニッカワ","prefecture_code":10},"0122":{"zip_code":"3760122","prefecture":"群馬県","prefecture_kana":"グンマケン","city":"桐生市","city_kana":"キリュウシ","town":"新里町野","town_kana":"ニイサトチョウノ","prefecture_code":10},"0125":{"zip_code":"3760125","prefecture":"群馬県","prefecture_kana":"グンマケン","city":"桐生市","city_kana":"キリュウシ","town":"新里町山上","town_kana":"ニイサトチョウヤマカミ","prefecture_code":10},"0023":{"zip_code":"3760023","prefecture":"群馬県","prefecture_kana":"グンマケン","city":"桐生市","city_kana":"キリュウシ","town":"錦町","town_kana":"ニシキチョウ","prefecture_code":10},"0054":{"zip_code":"3760054","prefecture":"群馬県","prefecture_kana":"グンマケン","city":"桐生市","city_kana":"キリュウシ","town":"西久方町","town_kana":"ニシヒサカタチョウ","prefecture_code":10},"0007":{"zip_code":"3760007","prefecture":"群馬県","prefecture_kana":"グンマケン","city":"桐生市","city_kana":"キリュウシ","town":"浜松町","town_kana":"ハママツチョウ","prefecture_code":10},"0034":{"zip_code":"3760034","prefecture":"群馬県","prefecture_kana":"グンマケン","city":"桐生市","city_kana":"キリュウシ","town":"東","town_kana":"ヒガシ","prefecture_code":10},"0053":{"zip_code":"3760053","prefecture":"群馬県","prefecture_kana":"グンマケン","city":"桐生市","city_kana":"キリュウシ","town":"東久方町","town_kana":"ヒガシヒサカタチョウ","prefecture_code":10},"0001":{"zip_code":"3760001","prefecture":"群馬県","prefecture_kana":"グンマケン","city":"桐生市","city_kana":"キリュウシ","town":"菱町","town_kana":"ヒシマチ","prefecture_code":10},"0051":{"zip_code":"3760051","prefecture":"群馬県","prefecture_kana":"グンマケン","city":"桐生市","city_kana":"キリュウシ","town":"平井町","town_kana":"ヒライチョウ","prefecture_code":10},"0013":{"zip_code":"3760013","prefecture":"群馬県","prefecture_kana":"グンマケン","city":"桐生市","city_kana":"キリュウシ","town":"広沢町","town_kana":"ヒロサワチョウ","prefecture_code":10},"0014":{"zip_code":"3760014","prefecture":"群馬県","prefecture_kana":"グンマケン","city":"桐生市","city_kana":"キリュウシ","town":"広沢町間ノ島","town_kana":"ヒロサワチョウアイノシマ","prefecture_code":10},"0031":{"zip_code":"3760031","prefecture":"群馬県","prefecture_kana":"グンマケン","city":"桐生市","city_kana":"キリュウシ","town":"本町","town_kana":"ホンチョウ","prefecture_code":10},"0025":{"zip_code":"3760025","prefecture":"群馬県","prefecture_kana":"グンマケン","city":"桐生市","city_kana":"キリュウシ","town":"美原町","town_kana":"ミハラチョウ","prefecture_code":10},"0046":{"zip_code":"3760046","prefecture":"群馬県","prefecture_kana":"グンマケン","city":"桐生市","city_kana":"キリュウシ","town":"宮前町","town_kana":"ミヤマエチョウ","prefecture_code":10},"0056":{"zip_code":"3760056","prefecture":"群馬県","prefecture_kana":"グンマケン","city":"桐生市","city_kana":"キリュウシ","town":"宮本町","town_kana":"ミヤモトチョウ","prefecture_code":10},"0005":{"zip_code":"3760005","prefecture":"群馬県","prefecture_kana":"グンマケン","city":"桐生市","city_kana":"キリュウシ","town":"三吉町","town_kana":"ミヨシチョウ","prefecture_code":10},"0027":{"zip_code":"3760027","prefecture":"群馬県","prefecture_kana":"グンマケン","city":"桐生市","city_kana":"キリュウシ","town":"元宿町","town_kana":"モトジュクチョウ","prefecture_code":10},"0055":{"zip_code":"3760055","prefecture":"群馬県","prefecture_kana":"グンマケン","city":"桐生市","city_kana":"キリュウシ","town":"横山町","town_kana":"ヨコヤマチョウ","prefecture_code":10},"0100":{"zip_code":"3760100","prefecture":"群馬県","prefecture_kana":"グンマケン","city":"みどり市","city_kana":"ミドリシ","town":"","town_kana":"","prefecture_code":10},"0306":{"zip_code":"3760306","prefecture":"群馬県","prefecture_kana":"グンマケン","city":"みどり市","city_kana":"ミドリシ","town":"東町荻原","town_kana":"アズマチョウオギハラ","prefecture_code":10},"0302":{"zip_code":"3760302","prefecture":"群馬県","prefecture_kana":"グンマケン","city":"みどり市","city_kana":"ミドリシ","town":"東町草木","town_kana":"アズマチョウクサギ","prefecture_code":10},"0304":{"zip_code":"3760304","prefecture":"群馬県","prefecture_kana":"グンマケン","city":"みどり市","city_kana":"ミドリシ","town":"東町神戸","town_kana":"アズマチョウゴウド","prefecture_code":10},"0308":{"zip_code":"3760308","prefecture":"群馬県","prefecture_kana":"グンマケン","city":"みどり市","city_kana":"ミドリシ","town":"東町小中","town_kana":"アズマチョウコナカ","prefecture_code":10},"0303":{"zip_code":"3760303","prefecture":"群馬県","prefecture_kana":"グンマケン","city":"みどり市","city_kana":"ミドリシ","town":"東町座間","town_kana":"アズマチョウザマ","prefecture_code":10},"0305":{"zip_code":"3760305","prefecture":"群馬県","prefecture_kana":"グンマケン","city":"みどり市","city_kana":"ミドリシ","town":"東町小夜戸","town_kana":"アズマチョウサヤド","prefecture_code":10},"0301":{"zip_code":"3760301","prefecture":"群馬県","prefecture_kana":"グンマケン","city":"みどり市","city_kana":"ミドリシ","town":"東町沢入","town_kana":"アズマチョウソウリ","prefecture_code":10},"0307":{"zip_code":"3760307","prefecture":"群馬県","prefecture_kana":"グンマケン","city":"みどり市","city_kana":"ミドリシ","town":"東町花輪","town_kana":"アズマチョウハナワ","prefecture_code":10},"0114":{"zip_code":"3760114","prefecture":"群馬県","prefecture_kana":"グンマケン","city":"みどり市","city_kana":"ミドリシ","town":"大間々町浅原","town_kana":"オオママチョウアサバラ","prefecture_code":10},"0101":{"zip_code":"3760101","prefecture":"群馬県","prefecture_kana":"グンマケン","city":"みどり市","city_kana":"ミドリシ","town":"大間々町大間々","town_kana":"オオママチョウオオママ","prefecture_code":10},"0111":{"zip_code":"3760111","prefecture":"群馬県","prefecture_kana":"グンマケン","city":"みどり市","city_kana":"ミドリシ","town":"大間々町小平","town_kana":"オオママチョウオダイラ","prefecture_code":10},"0104":{"zip_code":"3760104","prefecture":"群馬県","prefecture_kana":"グンマケン","city":"みどり市","city_kana":"ミドリシ","town":"大間々町上神梅","town_kana":"オオママチョウカミカンバイ","prefecture_code":10},"0102":{"zip_code":"3760102","prefecture":"群馬県","prefecture_kana":"グンマケン","city":"みどり市","city_kana":"ミドリシ","town":"大間々町桐原","town_kana":"オオママチョウキリバラ","prefecture_code":10},"0116":{"zip_code":"3760116","prefecture":"群馬県","prefecture_kana":"グンマケン","city":"みどり市","city_kana":"ミドリシ","town":"大間々町塩沢","town_kana":"オオママチョウシオザワ","prefecture_code":10},"0115":{"zip_code":"3760115","prefecture":"群馬県","prefecture_kana":"グンマケン","city":"みどり市","city_kana":"ミドリシ","town":"大間々町塩原","town_kana":"オオママチョウシオバラ","prefecture_code":10},"0103":{"zip_code":"3760103","prefecture":"群馬県","prefecture_kana":"グンマケン","city":"みどり市","city_kana":"ミドリシ","town":"大間々町下神梅","town_kana":"オオママチョウシモカンバイ","prefecture_code":10},"0113":{"zip_code":"3760113","prefecture":"群馬県","prefecture_kana":"グンマケン","city":"みどり市","city_kana":"ミドリシ","town":"大間々町高津戸","town_kana":"オオママチョウタカツド","prefecture_code":10},"0112":{"zip_code":"3760112","prefecture":"群馬県","prefecture_kana":"グンマケン","city":"みどり市","city_kana":"ミドリシ","town":"大間々町長尾根","town_kana":"オオママチョウナガオネ","prefecture_code":10}}