{"0000":{"zip_code":"3770000","prefecture":"群馬県","prefecture_kana":"グンマケン","city":"渋川市","city_kana":"シブカワシ","town":"","town_kana":"","prefecture_code":10},"0031":{"zip_code":"3770031","prefecture":"群馬県","prefecture_kana":"グンマケン","city":"渋川市","city_kana":"シブカワシ","town":"阿久津","town_kana":"アクツ","prefecture_code":10},"0005":{"zip_code":"3770005","prefecture":"群馬県","prefecture_kana":"グンマケン","city":"渋川市","city_kana":"シブカワシ","town":"有馬","town_kana":"アリマ","prefecture_code":10},"0102":{"zip_code":"3770102","prefecture":"群馬県","prefecture_kana":"グンマケン","city":"渋川市","city_kana":"シブカワシ","town":"伊香保町伊香保","town_kana":"イカホマチイカホ","prefecture_code":10},"0103":{"zip_code":"3770103","prefecture":"群馬県","prefecture_kana":"グンマケン","city":"渋川市","city_kana":"シブカワシ","town":"伊香保町水沢","town_kana":"イカホマチミズサワ","prefecture_code":10},"0101":{"zip_code":"3770101","prefecture":"群馬県","prefecture_kana":"グンマケン","city":"渋川市","city_kana":"シブカワシ","town":"伊香保町湯中子","town_kana":"イカホマチユナカゴ","prefecture_code":10},"0007":{"zip_code":"3770007","prefecture":"群馬県","prefecture_kana":"グンマケン","city":"渋川市","city_kana":"シブカワシ","town":"石原","town_kana":"イシハラ","prefecture_code":10},"0024":{"zip_code":"3770024","prefecture":"群馬県","prefecture_kana":"グンマケン","city":"渋川市","city_kana":"シブカワシ","town":"祖母島","town_kana":"ウバシマ","prefecture_code":10},"0312":{"zip_code":"3770312","prefecture":"群馬県","prefecture_kana":"グンマケン","city":"渋川市","city_kana":"シブカワシ","town":"小野子","town_kana":"オノコ","prefecture_code":10},"0027":{"zip_code":"3770027","prefecture":"群馬県","prefecture_kana":"グンマケン","city":"渋川市","city_kana":"シブカワシ","town":"金井","town_kana":"カナイ","prefecture_code":10},"0201":{"zip_code":"3770201","prefecture":"群馬県","prefecture_kana":"グンマケン","city":"渋川市","city_kana":"シブカワシ","town":"上白井","town_kana":"カミシロイ","prefecture_code":10},"0025":{"zip_code":"3770025","prefecture":"群馬県","prefecture_kana":"グンマケン","city":"渋川市","city_kana":"シブカワシ","town":"川島","town_kana":"カワシマ","prefecture_code":10},"0205":{"zip_code":"3770205","prefecture":"群馬県","prefecture_kana":"グンマケン","city":"渋川市","city_kana":"シブカワシ","town":"北牧","town_kana":"キタモク","prefecture_code":10},"0008":{"zip_code":"3770008","prefecture":"群馬県","prefecture_kana":"グンマケン","city":"渋川市","city_kana":"シブカワシ","town":"渋川","town_kana":"シブカワ","prefecture_code":10},"0204":{"zip_code":"3770204","prefecture":"群馬県","prefecture_kana":"グンマケン","city":"渋川市","city_kana":"シブカワシ","town":"白井","town_kana":"シロイ","prefecture_code":10},"0202":{"zip_code":"3770202","prefecture":"群馬県","prefecture_kana":"グンマケン","city":"渋川市","city_kana":"シブカワシ","town":"中郷","town_kana":"ナカゴウ","prefecture_code":10},"0002":{"zip_code":"3770002","prefecture":"群馬県","prefecture_kana":"グンマケン","city":"渋川市","city_kana":"シブカワシ","town":"中村","town_kana":"ナカムラ","prefecture_code":10},"0026":{"zip_code":"3770026","prefecture":"群馬県","prefecture_kana":"グンマケン","city":"渋川市","city_kana":"シブカワシ","town":"南牧","town_kana":"ナンモク","prefecture_code":10},"0004":{"zip_code":"3770004","prefecture":"群馬県","prefecture_kana":"グンマケン","city":"渋川市","city_kana":"シブカワシ","town":"半田","town_kana":"ハンダ","prefecture_code":10},"0203":{"zip_code":"3770203","prefecture":"群馬県","prefecture_kana":"グンマケン","city":"渋川市","city_kana":"シブカワシ","town":"吹屋","town_kana":"フキヤ","prefecture_code":10},"0051":{"zip_code":"3770051","prefecture":"群馬県","prefecture_kana":"グンマケン","city":"渋川市","city_kana":"シブカワシ","town":"北橘町赤城山","town_kana":"ホッキツマチアカギサン","prefecture_code":10},"0055":{"zip_code":"3770055","prefecture":"群馬県","prefecture_kana":"グンマケン","city":"渋川市","city_kana":"シブカワシ","town":"北橘町上南室","town_kana":"ホッキツマチカミナムロ","prefecture_code":10},"0052":{"zip_code":"3770052","prefecture":"群馬県","prefecture_kana":"グンマケン","city":"渋川市","city_kana":"シブカワシ","town":"北橘町上箱田","town_kana":"ホッキツマチカミハコダ","prefecture_code":10},"0065":{"zip_code":"3770065","prefecture":"群馬県","prefecture_kana":"グンマケン","city":"渋川市","city_kana":"シブカワシ","town":"北橘町小室","town_kana":"ホッキツマチコムロ","prefecture_code":10},"0054":{"zip_code":"3770054","prefecture":"群馬県","prefecture_kana":"グンマケン","city":"渋川市","city_kana":"シブカワシ","town":"北橘町下南室","town_kana":"ホッキツマチシモナムロ","prefecture_code":10},"0061":{"zip_code":"3770061","prefecture":"群馬県","prefecture_kana":"グンマケン","city":"渋川市","city_kana":"シブカワシ","town":"北橘町下箱田","town_kana":"ホッキツマチシモハコダ","prefecture_code":10},"0053":{"zip_code":"3770053","prefecture":"群馬県","prefecture_kana":"グンマケン","city":"渋川市","city_kana":"シブカワシ","town":"北橘町箱田","town_kana":"ホッキツマチハコダ","prefecture_code":10},"0064":{"zip_code":"3770064","prefecture":"群馬県","prefecture_kana":"グンマケン","city":"渋川市","city_kana":"シブカワシ","town":"北橘町八崎","town_kana":"ホッキツマチハッサキ","prefecture_code":10},"0063":{"zip_code":"3770063","prefecture":"群馬県","prefecture_kana":"グンマケン","city":"渋川市","city_kana":"シブカワシ","town":"北橘町分郷八崎","town_kana":"ホッキツマチブンゴウハッサキ","prefecture_code":10},"0062":{"zip_code":"3770062","prefecture":"群馬県","prefecture_kana":"グンマケン","city":"渋川市","city_kana":"シブカワシ","town":"北橘町真壁","town_kana":"ホッキツマチマカベ","prefecture_code":10},"0006":{"zip_code":"3770006","prefecture":"群馬県","prefecture_kana":"グンマケン","city":"渋川市","city_kana":"シブカワシ","town":"行幸田","town_kana":"ミユキダ","prefecture_code":10},"0311":{"zip_code":"3770311","prefecture":"群馬県","prefecture_kana":"グンマケン","city":"渋川市","city_kana":"シブカワシ","town":"村上","town_kana":"ムラカミ","prefecture_code":10},"0003":{"zip_code":"3770003","prefecture":"群馬県","prefecture_kana":"グンマケン","city":"渋川市","city_kana":"シブカワシ","town":"八木原","town_kana":"ヤギハラ","prefecture_code":10},"0206":{"zip_code":"3770206","prefecture":"群馬県","prefecture_kana":"グンマケン","city":"渋川市","city_kana":"シブカワシ","town":"横堀","town_kana":"ヨコボリ","prefecture_code":10},"0400":{"zip_code":"3770400","prefecture":"群馬県","prefecture_kana":"グンマケン","city":"吾妻郡中之条町","city_kana":"アガツマグンナカノジョウマチ","town":"","town_kana":"","prefecture_code":10},"0422":{"zip_code":"3770422","prefecture":"群馬県","prefecture_kana":"グンマケン","city":"吾妻郡中之条町","city_kana":"アガツマグンナカノジョウマチ","town":"青山","town_kana":"アオヤマ","prefecture_code":10},"1311":{"zip_code":"3771311","prefecture":"群馬県","prefecture_kana":"グンマケン","city":"吾妻郡中之条町","city_kana":"アガツマグンナカノジョウマチ","town":"赤岩","town_kana":"アカイワ","prefecture_code":10},"0417":{"zip_code":"3770417","prefecture":"群馬県","prefecture_kana":"グンマケン","city":"吾妻郡中之条町","city_kana":"アガツマグンナカノジョウマチ","town":"赤坂","town_kana":"アカサカ","prefecture_code":10},"0416":{"zip_code":"3770416","prefecture":"群馬県","prefecture_kana":"グンマケン","city":"吾妻郡中之条町","city_kana":"アガツマグンナカノジョウマチ","town":"蟻川","town_kana":"アリガワ","prefecture_code":10},"0423":{"zip_code":"3770423","prefecture":"群馬県","prefecture_kana":"グンマケン","city":"吾妻郡中之条町","city_kana":"アガツマグンナカノジョウマチ","town":"伊勢町","town_kana":"イセマチ","prefecture_code":10},"0421":{"zip_code":"3770421","prefecture":"群馬県","prefecture_kana":"グンマケン","city":"吾妻郡中之条町","city_kana":"アガツマグンナカノジョウマチ","town":"市城","town_kana":"イチシロ","prefecture_code":10},"1701":{"zip_code":"3771701","prefecture":"群馬県","prefecture_kana":"グンマケン","city":"吾妻郡中之条町","city_kana":"アガツマグンナカノジョウマチ","town":"入山","town_kana":"イリヤマ","prefecture_code":10},"0431":{"zip_code":"3770431","prefecture":"群馬県","prefecture_kana":"グンマケン","city":"吾妻郡中之条町","city_kana":"アガツマグンナカノジョウマチ","town":"岩本","town_kana":"イワモト","prefecture_code":10},"1703":{"zip_code":"3771703","prefecture":"群馬県","prefecture_kana":"グンマケン","city":"吾妻郡中之条町","city_kana":"アガツマグンナカノジョウマチ","town":"太子","town_kana":"オオシ","prefecture_code":10},"0413":{"zip_code":"3770413","prefecture":"群馬県","prefecture_kana":"グンマケン","city":"吾妻郡中之条町","city_kana":"アガツマグンナカノジョウマチ","town":"大塚","town_kana":"オオヅカ","prefecture_code":10},"0544":{"zip_code":"3770544","prefecture":"群馬県","prefecture_kana":"グンマケン","city":"吾妻郡中之条町","city_kana":"アガツマグンナカノジョウマチ","town":"折田","town_kana":"オリダ","prefecture_code":10},"0433":{"zip_code":"3770433","prefecture":"群馬県","prefecture_kana":"グンマケン","city":"吾妻郡中之条町","city_kana":"アガツマグンナカノジョウマチ","town":"折田","town_kana":"オリダ","prefecture_code":10},"0541":{"zip_code":"3770541","prefecture":"群馬県","prefecture_kana":"グンマケン","city":"吾妻郡中之条町","city_kana":"アガツマグンナカノジョウマチ","town":"上沢渡","town_kana":"カミサワタリ","prefecture_code":10},"1704":{"zip_code":"3771704","prefecture":"群馬県","prefecture_kana":"グンマケン","city":"吾妻郡中之条町","city_kana":"アガツマグンナカノジョウマチ","town":"小雨","town_kana":"コサメ","prefecture_code":10},"0432":{"zip_code":"3770432","prefecture":"群馬県","prefecture_kana":"グンマケン","city":"吾妻郡中之条町","city_kana":"アガツマグンナカノジョウマチ","town":"五反田","town_kana":"ゴタンダ","prefecture_code":10},"0601":{"zip_code":"3770601","prefecture":"群馬県","prefecture_kana":"グンマケン","city":"吾妻郡中之条町","city_kana":"アガツマグンナカノジョウマチ","town":"四万","town_kana":"シマ","prefecture_code":10},"0542":{"zip_code":"3770542","prefecture":"群馬県","prefecture_kana":"グンマケン","city":"吾妻郡中之条町","city_kana":"アガツマグンナカノジョウマチ","town":"下沢渡","town_kana":"シモサワタリ","prefecture_code":10},"0411":{"zip_code":"3770411","prefecture":"群馬県","prefecture_kana":"グンマケン","city":"吾妻郡中之条町","city_kana":"アガツマグンナカノジョウマチ","town":"大道","town_kana":"ダイドウ","prefecture_code":10},"0414":{"zip_code":"3770414","prefecture":"群馬県","prefecture_kana":"グンマケン","city":"吾妻郡中之条町","city_kana":"アガツマグンナカノジョウマチ","town":"平","town_kana":"タイラ","prefecture_code":10},"0412":{"zip_code":"3770412","prefecture":"群馬県","prefecture_kana":"グンマケン","city":"吾妻郡中之条町","city_kana":"アガツマグンナカノジョウマチ","town":"栃窪","town_kana":"トチクボ","prefecture_code":10},"0424":{"zip_code":"3770424","prefecture":"群馬県","prefecture_kana":"グンマケン","city":"吾妻郡中之条町","city_kana":"アガツマグンナカノジョウマチ","town":"中之条町","town_kana":"ナカノジョウマチ","prefecture_code":10},"1702":{"zip_code":"3771702","prefecture":"群馬県","prefecture_kana":"グンマケン","city":"吾妻郡中之条町","city_kana":"アガツマグンナカノジョウマチ","town":"生須","town_kana":"ナマス","prefecture_code":10},"0425":{"zip_code":"3770425","prefecture":"群馬県","prefecture_kana":"グンマケン","city":"吾妻郡中之条町","city_kana":"アガツマグンナカノジョウマチ","town":"西中之条","town_kana":"ニシナカノジョウ","prefecture_code":10},"1312":{"zip_code":"3771312","prefecture":"群馬県","prefecture_kana":"グンマケン","city":"吾妻郡中之条町","city_kana":"アガツマグンナカノジョウマチ","town":"日影","town_kana":"ヒカゲ","prefecture_code":10},"0543":{"zip_code":"3770543","prefecture":"群馬県","prefecture_kana":"グンマケン","city":"吾妻郡中之条町","city_kana":"アガツマグンナカノジョウマチ","town":"山田","town_kana":"ヤマダ","prefecture_code":10},"0434":{"zip_code":"3770434","prefecture":"群馬県","prefecture_kana":"グンマケン","city":"吾妻郡中之条町","city_kana":"アガツマグンナカノジョウマチ","town":"山田","town_kana":"ヤマダ","prefecture_code":10},"0415":{"zip_code":"3770415","prefecture":"群馬県","prefecture_kana":"グンマケン","city":"吾妻郡中之条町","city_kana":"アガツマグンナカノジョウマチ","town":"横尾","town_kana":"ヨコオ","prefecture_code":10},"1300":{"zip_code":"3771300","prefecture":"群馬県","prefecture_kana":"グンマケン","city":"吾妻郡長野原町","city_kana":"アガツマグンナガノハラマチ","town":"","town_kana":"","prefecture_code":10},"1310":{"zip_code":"3771310","prefecture":"群馬県","prefecture_kana":"グンマケン","city":"吾妻郡長野原町","city_kana":"アガツマグンナガノハラマチ","town":"応桑","town_kana":"オオクワ","prefecture_code":10},"1411":{"zip_code":"3771411","prefecture":"群馬県","prefecture_kana":"グンマケン","city":"吾妻郡長野原町","city_kana":"アガツマグンナガノハラマチ","town":"応桑","town_kana":"オオクワ","prefecture_code":10},"1308":{"zip_code":"3771308","prefecture":"群馬県","prefecture_kana":"グンマケン","city":"吾妻郡長野原町","city_kana":"アガツマグンナガノハラマチ","town":"大津","town_kana":"オオツ","prefecture_code":10},"1301":{"zip_code":"3771301","prefecture":"群馬県","prefecture_kana":"グンマケン","city":"吾妻郡長野原町","city_kana":"アガツマグンナガノハラマチ","town":"川原畑","town_kana":"カワラハタ","prefecture_code":10},"1302":{"zip_code":"3771302","prefecture":"群馬県","prefecture_kana":"グンマケン","city":"吾妻郡長野原町","city_kana":"アガツマグンナガノハラマチ","town":"川原湯","town_kana":"カワラユ","prefecture_code":10},"1412":{"zip_code":"3771412","prefecture":"群馬県","prefecture_kana":"グンマケン","city":"吾妻郡長野原町","city_kana":"アガツマグンナガノハラマチ","town":"北軽井沢","town_kana":"キタカルイザワ","prefecture_code":10},"1304":{"zip_code":"3771304","prefecture":"群馬県","prefecture_kana":"グンマケン","city":"吾妻郡長野原町","city_kana":"アガツマグンナガノハラマチ","town":"長野原","town_kana":"ナガノハラ","prefecture_code":10},"1307":{"zip_code":"3771307","prefecture":"群馬県","prefecture_kana":"グンマケン","city":"吾妻郡長野原町","city_kana":"アガツマグンナガノハラマチ","town":"羽根尾","town_kana":"ハネオ","prefecture_code":10},"1309":{"zip_code":"3771309","prefecture":"群馬県","prefecture_kana":"グンマケン","city":"吾妻郡長野原町","city_kana":"アガツマグンナガノハラマチ","town":"林","town_kana":"ハヤシ","prefecture_code":10},"1306":{"zip_code":"3771306","prefecture":"群馬県","prefecture_kana":"グンマケン","city":"吾妻郡長野原町","city_kana":"アガツマグンナガノハラマチ","town":"古森","town_kana":"フルモリ","prefecture_code":10},"1305":{"zip_code":"3771305","prefecture":"群馬県","prefecture_kana":"グンマケン","city":"吾妻郡長野原町","city_kana":"アガツマグンナガノハラマチ","town":"与喜屋","town_kana":"ヨキヤ","prefecture_code":10},"1303":{"zip_code":"3771303","prefecture":"群馬県","prefecture_kana":"グンマケン","city":"吾妻郡長野原町","city_kana":"アガツマグンナガノハラマチ","town":"横壁","town_kana":"ヨコカベ","prefecture_code":10},"1500":{"zip_code":"3771500","prefecture":"群馬県","prefecture_kana":"グンマケン","city":"吾妻郡嬬恋村","city_kana":"アガツマグンツマゴイムラ","town":"","town_kana":"","prefecture_code":10},"1523":{"zip_code":"3771523","prefecture":"群馬県","prefecture_kana":"グンマケン","city":"吾妻郡嬬恋村","city_kana":"アガツマグンツマゴイムラ","town":"芦生田","town_kana":"アシウダ","prefecture_code":10},"1521":{"zip_code":"3771521","prefecture":"群馬県","prefecture_kana":"グンマケン","city":"吾妻郡嬬恋村","city_kana":"アガツマグンツマゴイムラ","town":"今井","town_kana":"イマイ","prefecture_code":10},"1613":{"zip_code":"3771613","prefecture":"群馬県","prefecture_kana":"グンマケン","city":"吾妻郡嬬恋村","city_kana":"アガツマグンツマゴイムラ","town":"大笹","town_kana":"オオザサ","prefecture_code":10},"1512":{"zip_code":"3771512","prefecture":"群馬県","prefecture_kana":"グンマケン","city":"吾妻郡嬬恋村","city_kana":"アガツマグンツマゴイムラ","town":"大前","town_kana":"オオマエ","prefecture_code":10},"1612":{"zip_code":"3771612","prefecture":"群馬県","prefecture_kana":"グンマケン","city":"吾妻郡嬬恋村","city_kana":"アガツマグンツマゴイムラ","town":"大前","town_kana":"オオマエ","prefecture_code":10},"1527":{"zip_code":"3771527","prefecture":"群馬県","prefecture_kana":"グンマケン","city":"吾妻郡嬬恋村","city_kana":"アガツマグンツマゴイムラ","town":"門貝","town_kana":"カドガイ","prefecture_code":10},"1403":{"zip_code":"3771403","prefecture":"群馬県","prefecture_kana":"グンマケン","city":"吾妻郡嬬恋村","city_kana":"アガツマグンツマゴイムラ","town":"鎌原","town_kana":"カンバラ","prefecture_code":10},"1404":{"zip_code":"3771404","prefecture":"群馬県","prefecture_kana":"グンマケン","city":"吾妻郡嬬恋村","city_kana":"アガツマグンツマゴイムラ","town":"鎌原","town_kana":"カンバラ","prefecture_code":10},"1401":{"zip_code":"3771401","prefecture":"群馬県","prefecture_kana":"グンマケン","city":"吾妻郡嬬恋村","city_kana":"アガツマグンツマゴイムラ","town":"鎌原","town_kana":"カンバラ","prefecture_code":10},"1402":{"zip_code":"3771402","prefecture":"群馬県","prefecture_kana":"グンマケン","city":"吾妻郡嬬恋村","city_kana":"アガツマグンツマゴイムラ","town":"鎌原","town_kana":"カンバラ","prefecture_code":10},"1616":{"zip_code":"3771616","prefecture":"群馬県","prefecture_kana":"グンマケン","city":"吾妻郡嬬恋村","city_kana":"アガツマグンツマゴイムラ","town":"鎌原","town_kana":"カンバラ","prefecture_code":10},"1617":{"zip_code":"3771617","prefecture":"群馬県","prefecture_kana":"グンマケン","city":"吾妻郡嬬恋村","city_kana":"アガツマグンツマゴイムラ","town":"鎌原","town_kana":"カンバラ","prefecture_code":10},"1615":{"zip_code":"3771615","prefecture":"群馬県","prefecture_kana":"グンマケン","city":"吾妻郡嬬恋村","city_kana":"アガツマグンツマゴイムラ","town":"鎌原","town_kana":"カンバラ","prefecture_code":10},"1405":{"zip_code":"3771405","prefecture":"群馬県","prefecture_kana":"グンマケン","city":"吾妻郡嬬恋村","city_kana":"アガツマグンツマゴイムラ","town":"鎌原","town_kana":"カンバラ","prefecture_code":10},"1524":{"zip_code":"3771524","prefecture":"群馬県","prefecture_kana":"グンマケン","city":"吾妻郡嬬恋村","city_kana":"アガツマグンツマゴイムラ","town":"鎌原","town_kana":"カンバラ","prefecture_code":10},"1525":{"zip_code":"3771525","prefecture":"群馬県","prefecture_kana":"グンマケン","city":"吾妻郡嬬恋村","city_kana":"アガツマグンツマゴイムラ","town":"西窪","town_kana":"サイクボ","prefecture_code":10},"1614":{"zip_code":"3771614","prefecture":"群馬県","prefecture_kana":"グンマケン","city":"吾妻郡嬬恋村","city_kana":"アガツマグンツマゴイムラ","town":"田代","town_kana":"タシロ","prefecture_code":10},"1522":{"zip_code":"3771522","prefecture":"群馬県","prefecture_kana":"グンマケン","city":"吾妻郡嬬恋村","city_kana":"アガツマグンツマゴイムラ","town":"袋倉","town_kana":"フクログラ","prefecture_code":10},"1528":{"zip_code":"3771528","prefecture":"群馬県","prefecture_kana":"グンマケン","city":"吾妻郡嬬恋村","city_kana":"アガツマグンツマゴイムラ","town":"干俣","town_kana":"ホシマタ","prefecture_code":10},"1611":{"zip_code":"3771611","prefecture":"群馬県","prefecture_kana":"グンマケン","city":"吾妻郡嬬恋村","city_kana":"アガツマグンツマゴイムラ","town":"干俣","town_kana":"ホシマタ","prefecture_code":10},"1526":{"zip_code":"3771526","prefecture":"群馬県","prefecture_kana":"グンマケン","city":"吾妻郡嬬恋村","city_kana":"アガツマグンツマゴイムラ","town":"三原","town_kana":"ミハラ","prefecture_code":10},"1700":{"zip_code":"3771700","prefecture":"群馬県","prefecture_kana":"グンマケン","city":"吾妻郡草津町","city_kana":"アガツマグンクサツマチ","town":"","town_kana":"","prefecture_code":10},"1711":{"zip_code":"3771711","prefecture":"群馬県","prefecture_kana":"グンマケン","city":"吾妻郡草津町","city_kana":"アガツマグンクサツマチ","town":"草津","town_kana":"クサツ","prefecture_code":10},"1712":{"zip_code":"3771712","prefecture":"群馬県","prefecture_kana":"グンマケン","city":"吾妻郡草津町","city_kana":"アガツマグンクサツマチ","town":"前口","town_kana":"マエグチ","prefecture_code":10},"0700":{"zip_code":"3770700","prefecture":"群馬県","prefecture_kana":"グンマケン","city":"吾妻郡高山村","city_kana":"アガツマグンタカヤマムラ","town":"","town_kana":"","prefecture_code":10},"0701":{"zip_code":"3770701","prefecture":"群馬県","prefecture_kana":"グンマケン","city":"吾妻郡高山村","city_kana":"アガツマグンタカヤマムラ","town":"尻高","town_kana":"シッタカ","prefecture_code":10},"0702":{"zip_code":"3770702","prefecture":"群馬県","prefecture_kana":"グンマケン","city":"吾妻郡高山村","city_kana":"アガツマグンタカヤマムラ","town":"中山","town_kana":"ナカヤマ","prefecture_code":10},"0800":{"zip_code":"3770800","prefecture":"群馬県","prefecture_kana":"グンマケン","city":"吾妻郡東吾妻町","city_kana":"アガツマグンヒガシアガツママチ","town":"","town_kana":"","prefecture_code":10},"0812":{"zip_code":"3770812","prefecture":"群馬県","prefecture_kana":"グンマケン","city":"吾妻郡東吾妻町","city_kana":"アガツマグンヒガシアガツママチ","town":"厚田","town_kana":"アツダ","prefecture_code":10},"0303":{"zip_code":"3770303","prefecture":"群馬県","prefecture_kana":"グンマケン","city":"吾妻郡東吾妻町","city_kana":"アガツマグンヒガシアガツママチ","town":"新巻","town_kana":"アラマキ","prefecture_code":10},"0807":{"zip_code":"3770807","prefecture":"群馬県","prefecture_kana":"グンマケン","city":"吾妻郡東吾妻町","city_kana":"アガツマグンヒガシアガツママチ","town":"泉沢","town_kana":"イズミサワ","prefecture_code":10},"0804":{"zip_code":"3770804","prefecture":"群馬県","prefecture_kana":"グンマケン","city":"吾妻郡東吾妻町","city_kana":"アガツマグンヒガシアガツママチ","town":"岩井","town_kana":"イワイ","prefecture_code":10},"0815":{"zip_code":"3770815","prefecture":"群馬県","prefecture_kana":"グンマケン","city":"吾妻郡東吾妻町","city_kana":"アガツマグンヒガシアガツママチ","town":"岩下","town_kana":"イワシタ","prefecture_code":10},"0805":{"zip_code":"3770805","prefecture":"群馬県","prefecture_kana":"グンマケン","city":"吾妻郡東吾妻町","city_kana":"アガツマグンヒガシアガツママチ","town":"植栗","town_kana":"ウエグリ","prefecture_code":10},"0935":{"zip_code":"3770935","prefecture":"群馬県","prefecture_kana":"グンマケン","city":"吾妻郡東吾妻町","city_kana":"アガツマグンヒガシアガツママチ","town":"大柏木","town_kana":"オオカシワギ","prefecture_code":10},"0931":{"zip_code":"3770931","prefecture":"群馬県","prefecture_kana":"グンマケン","city":"吾妻郡東吾妻町","city_kana":"アガツマグンヒガシアガツママチ","town":"大戸","town_kana":"オオド","prefecture_code":10},"0302":{"zip_code":"3770302","prefecture":"群馬県","prefecture_kana":"グンマケン","city":"吾妻郡東吾妻町","city_kana":"アガツマグンヒガシアガツママチ","town":"岡崎","town_kana":"オカザキ","prefecture_code":10},"0304":{"zip_code":"3770304","prefecture":"群馬県","prefecture_kana":"グンマケン","city":"吾妻郡東吾妻町","city_kana":"アガツマグンヒガシアガツママチ","town":"奥田","town_kana":"オクダ","prefecture_code":10},"0803":{"zip_code":"3770803","prefecture":"群馬県","prefecture_kana":"グンマケン","city":"吾妻郡東吾妻町","city_kana":"アガツマグンヒガシアガツママチ","town":"金井","town_kana":"カナイ","prefecture_code":10},"0802":{"zip_code":"3770802","prefecture":"群馬県","prefecture_kana":"グンマケン","city":"吾妻郡東吾妻町","city_kana":"アガツマグンヒガシアガツママチ","town":"川戸","town_kana":"カワド","prefecture_code":10},"0806":{"zip_code":"3770806","prefecture":"群馬県","prefecture_kana":"グンマケン","city":"吾妻郡東吾妻町","city_kana":"アガツマグンヒガシアガツママチ","town":"小泉","town_kana":"コイズミ","prefecture_code":10},"0811":{"zip_code":"3770811","prefecture":"群馬県","prefecture_kana":"グンマケン","city":"吾妻郡東吾妻町","city_kana":"アガツマグンヒガシアガツママチ","town":"郷原","town_kana":"ゴウバラ","prefecture_code":10},"0305":{"zip_code":"3770305","prefecture":"群馬県","prefecture_kana":"グンマケン","city":"吾妻郡東吾妻町","city_kana":"アガツマグンヒガシアガツママチ","town":"五町田","town_kana":"ゴチョウダ","prefecture_code":10},"0934":{"zip_code":"3770934","prefecture":"群馬県","prefecture_kana":"グンマケン","city":"吾妻郡東吾妻町","city_kana":"アガツマグンヒガシアガツママチ","town":"須賀尾","town_kana":"スガオ","prefecture_code":10},"0932":{"zip_code":"3770932","prefecture":"群馬県","prefecture_kana":"グンマケン","city":"吾妻郡東吾妻町","city_kana":"アガツマグンヒガシアガツママチ","town":"萩生","town_kana":"ハギュウ","prefecture_code":10},"0301":{"zip_code":"3770301","prefecture":"群馬県","prefecture_kana":"グンマケン","city":"吾妻郡東吾妻町","city_kana":"アガツマグンヒガシアガツママチ","town":"箱島","town_kana":"ハコジマ","prefecture_code":10},"0801":{"zip_code":"3770801","prefecture":"群馬県","prefecture_kana":"グンマケン","city":"吾妻郡東吾妻町","city_kana":"アガツマグンヒガシアガツママチ","town":"原町","town_kana":"ハラマチ","prefecture_code":10},"0814":{"zip_code":"3770814","prefecture":"群馬県","prefecture_kana":"グンマケン","city":"吾妻郡東吾妻町","city_kana":"アガツマグンヒガシアガツママチ","town":"松谷","town_kana":"マツヤ","prefecture_code":10},"0813":{"zip_code":"3770813","prefecture":"群馬県","prefecture_kana":"グンマケン","city":"吾妻郡東吾妻町","city_kana":"アガツマグンヒガシアガツママチ","town":"三島","town_kana":"ミシマ","prefecture_code":10},"0933":{"zip_code":"3770933","prefecture":"群馬県","prefecture_kana":"グンマケン","city":"吾妻郡東吾妻町","city_kana":"アガツマグンヒガシアガツママチ","town":"本宿","town_kana":"モトジュク","prefecture_code":10},"0816":{"zip_code":"3770816","prefecture":"群馬県","prefecture_kana":"グンマケン","city":"吾妻郡東吾妻町","city_kana":"アガツマグンヒガシアガツママチ","town":"矢倉","town_kana":"ヤグラ","prefecture_code":10}}