{"0000":{"zip_code":"3780000","prefecture":"群馬県","prefecture_kana":"グンマケン","city":"沼田市","city_kana":"ヌマタシ","town":"","town_kana":"","prefecture_code":10},"0076":{"zip_code":"3780076","prefecture":"群馬県","prefecture_kana":"グンマケン","city":"沼田市","city_kana":"ヌマタシ","town":"秋塚町","town_kana":"アキヅカマチ","prefecture_code":10},"0077":{"zip_code":"3780077","prefecture":"群馬県","prefecture_kana":"グンマケン","city":"沼田市","city_kana":"ヌマタシ","town":"石墨町","town_kana":"イシズミマチ","prefecture_code":10},"0035":{"zip_code":"3780035","prefecture":"群馬県","prefecture_kana":"グンマケン","city":"沼田市","city_kana":"ヌマタシ","town":"井土上町","town_kana":"イドノウエマチ","prefecture_code":10},"0025":{"zip_code":"3780025","prefecture":"群馬県","prefecture_kana":"グンマケン","city":"沼田市","city_kana":"ヌマタシ","town":"今井町","town_kana":"イマイマチ","prefecture_code":10},"0021":{"zip_code":"3780021","prefecture":"群馬県","prefecture_kana":"グンマケン","city":"沼田市","city_kana":"ヌマタシ","town":"岩本町","town_kana":"イワモトマチ","prefecture_code":10},"0031":{"zip_code":"3780031","prefecture":"群馬県","prefecture_kana":"グンマケン","city":"沼田市","city_kana":"ヌマタシ","town":"薄根町","town_kana":"ウスネマチ","prefecture_code":10},"0068":{"zip_code":"3780068","prefecture":"群馬県","prefecture_kana":"グンマケン","city":"沼田市","city_kana":"ヌマタシ","town":"宇楚井町","town_kana":"ウソイマチ","prefecture_code":10},"0067":{"zip_code":"3780067","prefecture":"群馬県","prefecture_kana":"グンマケン","city":"沼田市","city_kana":"ヌマタシ","town":"大釜町","town_kana":"オオガママチ","prefecture_code":10},"0061":{"zip_code":"3780061","prefecture":"群馬県","prefecture_kana":"グンマケン","city":"沼田市","city_kana":"ヌマタシ","town":"岡谷町","town_kana":"オカヤマチ","prefecture_code":10},"0034":{"zip_code":"3780034","prefecture":"群馬県","prefecture_kana":"グンマケン","city":"沼田市","city_kana":"ヌマタシ","town":"恩田町","town_kana":"オンダマチ","prefecture_code":10},"0018":{"zip_code":"3780018","prefecture":"群馬県","prefecture_kana":"グンマケン","city":"沼田市","city_kana":"ヌマタシ","town":"鍛冶町","town_kana":"カジマチ","prefecture_code":10},"0026":{"zip_code":"3780026","prefecture":"群馬県","prefecture_kana":"グンマケン","city":"沼田市","city_kana":"ヌマタシ","town":"上川田町","town_kana":"カミカワダマチ","prefecture_code":10},"0003":{"zip_code":"3780003","prefecture":"群馬県","prefecture_kana":"グンマケン","city":"沼田市","city_kana":"ヌマタシ","town":"上久屋町","town_kana":"カミクヤマチ","prefecture_code":10},"0011":{"zip_code":"3780011","prefecture":"群馬県","prefecture_kana":"グンマケン","city":"沼田市","city_kana":"ヌマタシ","town":"上沼須町","town_kana":"カミヌマスマチ","prefecture_code":10},"0047":{"zip_code":"3780047","prefecture":"群馬県","prefecture_kana":"グンマケン","city":"沼田市","city_kana":"ヌマタシ","town":"上之町","town_kana":"カミノチョウ","prefecture_code":10},"0051":{"zip_code":"3780051","prefecture":"群馬県","prefecture_kana":"グンマケン","city":"沼田市","city_kana":"ヌマタシ","town":"上原町","town_kana":"カミハラマチ","prefecture_code":10},"0071":{"zip_code":"3780071","prefecture":"群馬県","prefecture_kana":"グンマケン","city":"沼田市","city_kana":"ヌマタシ","town":"上発知町","town_kana":"カミホッチマチ","prefecture_code":10},"0005":{"zip_code":"3780005","prefecture":"群馬県","prefecture_kana":"グンマケン","city":"沼田市","city_kana":"ヌマタシ","town":"久屋原町","town_kana":"クヤハラマチ","prefecture_code":10},"0045":{"zip_code":"3780045","prefecture":"群馬県","prefecture_kana":"グンマケン","city":"沼田市","city_kana":"ヌマタシ","town":"材木町","town_kana":"ザイモクチョウ","prefecture_code":10},"0014":{"zip_code":"3780014","prefecture":"群馬県","prefecture_kana":"グンマケン","city":"沼田市","city_kana":"ヌマタシ","town":"栄町","town_kana":"サカエマチ","prefecture_code":10},"0052":{"zip_code":"3780052","prefecture":"群馬県","prefecture_kana":"グンマケン","city":"沼田市","city_kana":"ヌマタシ","town":"桜町","town_kana":"サクラマチ","prefecture_code":10},"0023":{"zip_code":"3780023","prefecture":"群馬県","prefecture_kana":"グンマケン","city":"沼田市","city_kana":"ヌマタシ","town":"篠尾町","town_kana":"ササオマチ","prefecture_code":10},"0078":{"zip_code":"3780078","prefecture":"群馬県","prefecture_kana":"グンマケン","city":"沼田市","city_kana":"ヌマタシ","town":"佐山町","town_kana":"サヤママチ","prefecture_code":10},"0016":{"zip_code":"3780016","prefecture":"群馬県","prefecture_kana":"グンマケン","city":"沼田市","city_kana":"ヌマタシ","town":"清水町","town_kana":"シミズチョウ","prefecture_code":10},"0024":{"zip_code":"3780024","prefecture":"群馬県","prefecture_kana":"グンマケン","city":"沼田市","city_kana":"ヌマタシ","town":"下川田町","town_kana":"シモカワダマチ","prefecture_code":10},"0004":{"zip_code":"3780004","prefecture":"群馬県","prefecture_kana":"グンマケン","city":"沼田市","city_kana":"ヌマタシ","town":"下久屋町","town_kana":"シモクヤマチ","prefecture_code":10},"0063":{"zip_code":"3780063","prefecture":"群馬県","prefecture_kana":"グンマケン","city":"沼田市","city_kana":"ヌマタシ","town":"下沼田町","town_kana":"シモヌマタマチ","prefecture_code":10},"0044":{"zip_code":"3780044","prefecture":"群馬県","prefecture_kana":"グンマケン","city":"沼田市","city_kana":"ヌマタシ","town":"下之町","town_kana":"シモノチョウ","prefecture_code":10},"0074":{"zip_code":"3780074","prefecture":"群馬県","prefecture_kana":"グンマケン","city":"沼田市","city_kana":"ヌマタシ","town":"下発知町","town_kana":"シモホッチマチ","prefecture_code":10},"0033":{"zip_code":"3780033","prefecture":"群馬県","prefecture_kana":"グンマケン","city":"沼田市","city_kana":"ヌマタシ","town":"白岩町","town_kana":"シライワマチ","prefecture_code":10},"0123":{"zip_code":"3780123","prefecture":"群馬県","prefecture_kana":"グンマケン","city":"沼田市","city_kana":"ヌマタシ","town":"白沢町岩室","town_kana":"シラサワマチイワムロ","prefecture_code":10},"0124":{"zip_code":"3780124","prefecture":"群馬県","prefecture_kana":"グンマケン","city":"沼田市","city_kana":"ヌマタシ","town":"白沢町尾合","town_kana":"シラサワマチオアイ","prefecture_code":10},"0126":{"zip_code":"3780126","prefecture":"群馬県","prefecture_kana":"グンマケン","city":"沼田市","city_kana":"ヌマタシ","town":"白沢町上古語父","town_kana":"シラサワマチカミココブ","prefecture_code":10},"0127":{"zip_code":"3780127","prefecture":"群馬県","prefecture_kana":"グンマケン","city":"沼田市","city_kana":"ヌマタシ","town":"白沢町下古語父","town_kana":"シラサワマチシモココブ","prefecture_code":10},"0121":{"zip_code":"3780121","prefecture":"群馬県","prefecture_kana":"グンマケン","city":"沼田市","city_kana":"ヌマタシ","town":"白沢町高平","town_kana":"シラサワマチタカヒラ","prefecture_code":10},"0122":{"zip_code":"3780122","prefecture":"群馬県","prefecture_kana":"グンマケン","city":"沼田市","city_kana":"ヌマタシ","town":"白沢町生枝","town_kana":"シラサワマチナマエ","prefecture_code":10},"0125":{"zip_code":"3780125","prefecture":"群馬県","prefecture_kana":"グンマケン","city":"沼田市","city_kana":"ヌマタシ","town":"白沢町平出","town_kana":"シラサワマチヒライデ","prefecture_code":10},"0013":{"zip_code":"3780013","prefecture":"群馬県","prefecture_kana":"グンマケン","city":"沼田市","city_kana":"ヌマタシ","town":"新町","town_kana":"シンマチ","prefecture_code":10},"0032":{"zip_code":"3780032","prefecture":"群馬県","prefecture_kana":"グンマケン","city":"沼田市","city_kana":"ヌマタシ","town":"硯田町","town_kana":"スズリダマチ","prefecture_code":10},"0064":{"zip_code":"3780064","prefecture":"群馬県","prefecture_kana":"グンマケン","city":"沼田市","city_kana":"ヌマタシ","town":"善桂寺町","town_kana":"ゼンケイジマチ","prefecture_code":10},"0056":{"zip_code":"3780056","prefecture":"群馬県","prefecture_kana":"グンマケン","city":"沼田市","city_kana":"ヌマタシ","town":"高橋場町","town_kana":"タカハシバマチ","prefecture_code":10},"0015":{"zip_code":"3780015","prefecture":"群馬県","prefecture_kana":"グンマケン","city":"沼田市","city_kana":"ヌマタシ","town":"戸鹿野町","town_kana":"トガノマチ","prefecture_code":10},"0001":{"zip_code":"3780001","prefecture":"群馬県","prefecture_kana":"グンマケン","city":"沼田市","city_kana":"ヌマタシ","town":"戸神町","town_kana":"トカミマチ","prefecture_code":10},"0314":{"zip_code":"3780314","prefecture":"群馬県","prefecture_kana":"グンマケン","city":"沼田市","city_kana":"ヌマタシ","town":"利根町青木","town_kana":"トネマチアオキ","prefecture_code":10},"0305":{"zip_code":"3780305","prefecture":"群馬県","prefecture_kana":"グンマケン","city":"沼田市","city_kana":"ヌマタシ","town":"利根町穴原","town_kana":"トネマチアナバラ","prefecture_code":10},"0326":{"zip_code":"3780326","prefecture":"群馬県","prefecture_kana":"グンマケン","city":"沼田市","city_kana":"ヌマタシ","town":"利根町石戸新田","town_kana":"トネマチイシドシンデン","prefecture_code":10},"0322":{"zip_code":"3780322","prefecture":"群馬県","prefecture_kana":"グンマケン","city":"沼田市","city_kana":"ヌマタシ","town":"利根町老神","town_kana":"トネマチオイガミ","prefecture_code":10},"0323":{"zip_code":"3780323","prefecture":"群馬県","prefecture_kana":"グンマケン","city":"沼田市","city_kana":"ヌマタシ","town":"利根町大原","town_kana":"トネマチオオハラ","prefecture_code":10},"0304":{"zip_code":"3780304","prefecture":"群馬県","prefecture_kana":"グンマケン","city":"沼田市","city_kana":"ヌマタシ","town":"利根町大楊","town_kana":"トネマチオオヨウ","prefecture_code":10},"0303":{"zip_code":"3780303","prefecture":"群馬県","prefecture_kana":"グンマケン","city":"沼田市","city_kana":"ヌマタシ","town":"利根町追貝","town_kana":"トネマチオッカイ","prefecture_code":10},"0307":{"zip_code":"3780307","prefecture":"群馬県","prefecture_kana":"グンマケン","city":"沼田市","city_kana":"ヌマタシ","town":"利根町柿平","town_kana":"トネマチカキダイラ","prefecture_code":10},"0311":{"zip_code":"3780311","prefecture":"群馬県","prefecture_kana":"グンマケン","city":"沼田市","city_kana":"ヌマタシ","town":"利根町小松","town_kana":"トネマチコマツ","prefecture_code":10},"0315":{"zip_code":"3780315","prefecture":"群馬県","prefecture_kana":"グンマケン","city":"沼田市","city_kana":"ヌマタシ","town":"利根町砂川","town_kana":"トネマチスナガワ","prefecture_code":10},"0324":{"zip_code":"3780324","prefecture":"群馬県","prefecture_kana":"グンマケン","city":"沼田市","city_kana":"ヌマタシ","town":"利根町園原","town_kana":"トネマチソノハラ","prefecture_code":10},"0321":{"zip_code":"3780321","prefecture":"群馬県","prefecture_kana":"グンマケン","city":"沼田市","city_kana":"ヌマタシ","town":"利根町高戸谷","town_kana":"トネマチタカトヤ","prefecture_code":10},"0317":{"zip_code":"3780317","prefecture":"群馬県","prefecture_kana":"グンマケン","city":"沼田市","city_kana":"ヌマタシ","town":"利根町多那","town_kana":"トネマチタナ","prefecture_code":10},"0302":{"zip_code":"3780302","prefecture":"群馬県","prefecture_kana":"グンマケン","city":"沼田市","city_kana":"ヌマタシ","town":"利根町千鳥","town_kana":"トネマチチドリ","prefecture_code":10},"0316":{"zip_code":"3780316","prefecture":"群馬県","prefecture_kana":"グンマケン","city":"沼田市","city_kana":"ヌマタシ","town":"利根町二本松","town_kana":"トネマチニホンマツ","prefecture_code":10},"0312":{"zip_code":"3780312","prefecture":"群馬県","prefecture_kana":"グンマケン","city":"沼田市","city_kana":"ヌマタシ","town":"利根町根利","town_kana":"トネマチネリ","prefecture_code":10},"0313":{"zip_code":"3780313","prefecture":"群馬県","prefecture_kana":"グンマケン","city":"沼田市","city_kana":"ヌマタシ","town":"利根町日影南郷","town_kana":"トネマチヒカゲナンゴウ","prefecture_code":10},"0306":{"zip_code":"3780306","prefecture":"群馬県","prefecture_kana":"グンマケン","city":"沼田市","city_kana":"ヌマタシ","town":"利根町日向南郷","town_kana":"トネマチヒナタナンゴウ","prefecture_code":10},"0301":{"zip_code":"3780301","prefecture":"群馬県","prefecture_kana":"グンマケン","city":"沼田市","city_kana":"ヌマタシ","town":"利根町平川","town_kana":"トネマチヒラガワ","prefecture_code":10},"0325":{"zip_code":"3780325","prefecture":"群馬県","prefecture_kana":"グンマケン","city":"沼田市","city_kana":"ヌマタシ","town":"利根町輪組","town_kana":"トネマチワクミ","prefecture_code":10},"0072":{"zip_code":"3780072","prefecture":"群馬県","prefecture_kana":"グンマケン","city":"沼田市","city_kana":"ヌマタシ","town":"中発知町","town_kana":"ナカホッチマチ","prefecture_code":10},"0048":{"zip_code":"3780048","prefecture":"群馬県","prefecture_kana":"グンマケン","city":"沼田市","city_kana":"ヌマタシ","town":"中町","town_kana":"ナカマチ","prefecture_code":10},"0075":{"zip_code":"3780075","prefecture":"群馬県","prefecture_kana":"グンマケン","city":"沼田市","city_kana":"ヌマタシ","town":"奈良町","town_kana":"ナラマチ","prefecture_code":10},"0042":{"zip_code":"3780042","prefecture":"群馬県","prefecture_kana":"グンマケン","city":"沼田市","city_kana":"ヌマタシ","town":"西倉内町","town_kana":"ニシクラウチマチ","prefecture_code":10},"0054":{"zip_code":"3780054","prefecture":"群馬県","prefecture_kana":"グンマケン","city":"沼田市","city_kana":"ヌマタシ","town":"西原新町","town_kana":"ニシハラシンマチ","prefecture_code":10},"0012":{"zip_code":"3780012","prefecture":"群馬県","prefecture_kana":"グンマケン","city":"沼田市","city_kana":"ヌマタシ","town":"沼須町","town_kana":"ヌマスマチ","prefecture_code":10},"0046":{"zip_code":"3780046","prefecture":"群馬県","prefecture_kana":"グンマケン","city":"沼田市","city_kana":"ヌマタシ","town":"馬喰町","town_kana":"バクロウマチ","prefecture_code":10},"0066":{"zip_code":"3780066","prefecture":"群馬県","prefecture_kana":"グンマケン","city":"沼田市","city_kana":"ヌマタシ","town":"原町","town_kana":"ハラマチ","prefecture_code":10},"0041":{"zip_code":"3780041","prefecture":"群馬県","prefecture_kana":"グンマケン","city":"沼田市","city_kana":"ヌマタシ","town":"榛名町","town_kana":"ハルナマチ","prefecture_code":10},"0043":{"zip_code":"3780043","prefecture":"群馬県","prefecture_kana":"グンマケン","city":"沼田市","city_kana":"ヌマタシ","town":"東倉内町","town_kana":"ヒガシクラウチマチ","prefecture_code":10},"0053":{"zip_code":"3780053","prefecture":"群馬県","prefecture_kana":"グンマケン","city":"沼田市","city_kana":"ヌマタシ","town":"東原新町","town_kana":"ヒガシハラシンマチ","prefecture_code":10},"0017":{"zip_code":"3780017","prefecture":"群馬県","prefecture_kana":"グンマケン","city":"沼田市","city_kana":"ヌマタシ","town":"坊新田町","town_kana":"ボウシンデンマチ","prefecture_code":10},"0073":{"zip_code":"3780073","prefecture":"群馬県","prefecture_kana":"グンマケン","city":"沼田市","city_kana":"ヌマタシ","town":"発知新田町","town_kana":"ホッチシンデンマチ","prefecture_code":10},"0065":{"zip_code":"3780065","prefecture":"群馬県","prefecture_kana":"グンマケン","city":"沼田市","city_kana":"ヌマタシ","town":"堀廻町","town_kana":"ホリメグリマチ","prefecture_code":10},"0062":{"zip_code":"3780062","prefecture":"群馬県","prefecture_kana":"グンマケン","city":"沼田市","city_kana":"ヌマタシ","town":"町田町","town_kana":"マチダマチ","prefecture_code":10},"0022":{"zip_code":"3780022","prefecture":"群馬県","prefecture_kana":"グンマケン","city":"沼田市","city_kana":"ヌマタシ","town":"屋形原町","town_kana":"ヤカタバラマチ","prefecture_code":10},"0055":{"zip_code":"3780055","prefecture":"群馬県","prefecture_kana":"グンマケン","city":"沼田市","city_kana":"ヌマタシ","town":"柳町","town_kana":"ヤナギマチ","prefecture_code":10},"0002":{"zip_code":"3780002","prefecture":"群馬県","prefecture_kana":"グンマケン","city":"沼田市","city_kana":"ヌマタシ","town":"横塚町","town_kana":"ヨコヅカマチ","prefecture_code":10},"0400":{"zip_code":"3780400","prefecture":"群馬県","prefecture_kana":"グンマケン","city":"利根郡片品村","city_kana":"トネグンカタシナムラ","town":"","town_kana":"","prefecture_code":10},"0415":{"zip_code":"3780415","prefecture":"群馬県","prefecture_kana":"グンマケン","city":"利根郡片品村","city_kana":"トネグンカタシナムラ","town":"鎌田","town_kana":"カマダ","prefecture_code":10},"0413":{"zip_code":"3780413","prefecture":"群馬県","prefecture_kana":"グンマケン","city":"利根郡片品村","city_kana":"トネグンカタシナムラ","town":"越本","town_kana":"コシモト","prefecture_code":10},"0405":{"zip_code":"3780405","prefecture":"群馬県","prefecture_kana":"グンマケン","city":"利根郡片品村","city_kana":"トネグンカタシナムラ","town":"下平","town_kana":"シモダイラ","prefecture_code":10},"0401":{"zip_code":"3780401","prefecture":"群馬県","prefecture_kana":"グンマケン","city":"利根郡片品村","city_kana":"トネグンカタシナムラ","town":"須賀川","town_kana":"スカガワ","prefecture_code":10},"0403":{"zip_code":"3780403","prefecture":"群馬県","prefecture_kana":"グンマケン","city":"利根郡片品村","city_kana":"トネグンカタシナムラ","town":"菅沼","town_kana":"スガヌマ","prefecture_code":10},"0406":{"zip_code":"3780406","prefecture":"群馬県","prefecture_kana":"グンマケン","city":"利根郡片品村","city_kana":"トネグンカタシナムラ","town":"摺淵","town_kana":"スルブチ","prefecture_code":10},"0404":{"zip_code":"3780404","prefecture":"群馬県","prefecture_kana":"グンマケン","city":"利根郡片品村","city_kana":"トネグンカタシナムラ","town":"築地","town_kana":"ツイジ","prefecture_code":10},"0412":{"zip_code":"3780412","prefecture":"群馬県","prefecture_kana":"グンマケン","city":"利根郡片品村","city_kana":"トネグンカタシナムラ","town":"土出","town_kana":"ツチイデ","prefecture_code":10},"0411":{"zip_code":"3780411","prefecture":"群馬県","prefecture_kana":"グンマケン","city":"利根郡片品村","city_kana":"トネグンカタシナムラ","town":"戸倉","town_kana":"トクラ","prefecture_code":10},"0407":{"zip_code":"3780407","prefecture":"群馬県","prefecture_kana":"グンマケン","city":"利根郡片品村","city_kana":"トネグンカタシナムラ","town":"幡谷","town_kana":"ハタヤ","prefecture_code":10},"0408":{"zip_code":"3780408","prefecture":"群馬県","prefecture_kana":"グンマケン","city":"利根郡片品村","city_kana":"トネグンカタシナムラ","town":"花咲","town_kana":"ハナサク","prefecture_code":10},"0409":{"zip_code":"3780409","prefecture":"群馬県","prefecture_kana":"グンマケン","city":"利根郡片品村","city_kana":"トネグンカタシナムラ","town":"針山","town_kana":"ハリヤマ","prefecture_code":10},"0414":{"zip_code":"3780414","prefecture":"群馬県","prefecture_kana":"グンマケン","city":"利根郡片品村","city_kana":"トネグンカタシナムラ","town":"東小川","town_kana":"ヒガシオガワ","prefecture_code":10},"0402":{"zip_code":"3780402","prefecture":"群馬県","prefecture_kana":"グンマケン","city":"利根郡片品村","city_kana":"トネグンカタシナムラ","town":"御座入","town_kana":"ミザノリ","prefecture_code":10},"0100":{"zip_code":"3780100","prefecture":"群馬県","prefecture_kana":"グンマケン","city":"利根郡川場村","city_kana":"トネグンカワバムラ","town":"","town_kana":"","prefecture_code":10},"0104":{"zip_code":"3780104","prefecture":"群馬県","prefecture_kana":"グンマケン","city":"利根郡川場村","city_kana":"トネグンカワバムラ","town":"太田川","town_kana":"オオタガワ","prefecture_code":10},"0102":{"zip_code":"3780102","prefecture":"群馬県","prefecture_kana":"グンマケン","city":"利根郡川場村","city_kana":"トネグンカワバムラ","town":"川場湯原","town_kana":"カワバユバラ","prefecture_code":10},"0105":{"zip_code":"3780105","prefecture":"群馬県","prefecture_kana":"グンマケン","city":"利根郡川場村","city_kana":"トネグンカワバムラ","town":"小田川","town_kana":"コタガワ","prefecture_code":10},"0112":{"zip_code":"3780112","prefecture":"群馬県","prefecture_kana":"グンマケン","city":"利根郡川場村","city_kana":"トネグンカワバムラ","town":"立岩","town_kana":"タツイワ","prefecture_code":10},"0114":{"zip_code":"3780114","prefecture":"群馬県","prefecture_kana":"グンマケン","city":"利根郡川場村","city_kana":"トネグンカワバムラ","town":"天神","town_kana":"テンジン","prefecture_code":10},"0103":{"zip_code":"3780103","prefecture":"群馬県","prefecture_kana":"グンマケン","city":"利根郡川場村","city_kana":"トネグンカワバムラ","town":"中野","town_kana":"ナカノ","prefecture_code":10},"0113":{"zip_code":"3780113","prefecture":"群馬県","prefecture_kana":"グンマケン","city":"利根郡川場村","city_kana":"トネグンカワバムラ","town":"生品","town_kana":"ナマシナ","prefecture_code":10},"0111":{"zip_code":"3780111","prefecture":"群馬県","prefecture_kana":"グンマケン","city":"利根郡川場村","city_kana":"トネグンカワバムラ","town":"萩室","town_kana":"ハギムロ","prefecture_code":10},"0115":{"zip_code":"3780115","prefecture":"群馬県","prefecture_kana":"グンマケン","city":"利根郡川場村","city_kana":"トネグンカワバムラ","town":"門前","town_kana":"モンゼン","prefecture_code":10},"0101":{"zip_code":"3780101","prefecture":"群馬県","prefecture_kana":"グンマケン","city":"利根郡川場村","city_kana":"トネグンカワバムラ","town":"谷地","town_kana":"ヤチ","prefecture_code":10}}