{"2154":{"zip_code":"3792154","prefecture":"群馬県","prefecture_kana":"グンマケン","city":"前橋市","city_kana":"マエバシシ","town":"天川大島町","town_kana":"アマガワオオシママチ","prefecture_code":10},"2112":{"zip_code":"3792112","prefecture":"群馬県","prefecture_kana":"グンマケン","city":"前橋市","city_kana":"マエバシシ","town":"新井町","town_kana":"アライマチ","prefecture_code":10},"2107":{"zip_code":"3792107","prefecture":"群馬県","prefecture_kana":"グンマケン","city":"前橋市","city_kana":"マエバシシ","town":"荒口町","town_kana":"アラクチマチ","prefecture_code":10},"2106":{"zip_code":"3792106","prefecture":"群馬県","prefecture_kana":"グンマケン","city":"前橋市","city_kana":"マエバシシ","town":"荒子町","town_kana":"アラコマチ","prefecture_code":10},"2111":{"zip_code":"3792111","prefecture":"群馬県","prefecture_kana":"グンマケン","city":"前橋市","city_kana":"マエバシシ","town":"飯土井町","town_kana":"イイドイマチ","prefecture_code":10},"2101":{"zip_code":"3792101","prefecture":"群馬県","prefecture_kana":"グンマケン","city":"前橋市","city_kana":"マエバシシ","town":"泉沢町","town_kana":"イズミサワマチ","prefecture_code":10},"2116":{"zip_code":"3792116","prefecture":"群馬県","prefecture_kana":"グンマケン","city":"前橋市","city_kana":"マエバシシ","town":"今井町","town_kana":"イマイマチ","prefecture_code":10},"2115":{"zip_code":"3792115","prefecture":"群馬県","prefecture_kana":"グンマケン","city":"前橋市","city_kana":"マエバシシ","town":"笂井町","town_kana":"ウツボイマチ","prefecture_code":10},"2163":{"zip_code":"3792163","prefecture":"群馬県","prefecture_kana":"グンマケン","city":"前橋市","city_kana":"マエバシシ","town":"女屋町","town_kana":"オナヤマチ","prefecture_code":10},"2153":{"zip_code":"3792153","prefecture":"群馬県","prefecture_kana":"グンマケン","city":"前橋市","city_kana":"マエバシシ","town":"上大島町","town_kana":"カミオオシママチ","prefecture_code":10},"2165":{"zip_code":"3792165","prefecture":"群馬県","prefecture_kana":"グンマケン","city":"前橋市","city_kana":"マエバシシ","town":"上長磯町","town_kana":"カミナガイソマチ","prefecture_code":10},"2114":{"zip_code":"3792114","prefecture":"群馬県","prefecture_kana":"グンマケン","city":"前橋市","city_kana":"マエバシシ","town":"上増田町","town_kana":"カミマスダマチ","prefecture_code":10},"2147":{"zip_code":"3792147","prefecture":"群馬県","prefecture_kana":"グンマケン","city":"前橋市","city_kana":"マエバシシ","town":"亀里町","town_kana":"カメサトマチ","prefecture_code":10},"2103":{"zip_code":"3792103","prefecture":"群馬県","prefecture_kana":"グンマケン","city":"前橋市","city_kana":"マエバシシ","town":"神沢の森","town_kana":"カンザワノモリ","prefecture_code":10},"2146":{"zip_code":"3792146","prefecture":"群馬県","prefecture_kana":"グンマケン","city":"前橋市","city_kana":"マエバシシ","town":"公田町","town_kana":"クデンマチ","prefecture_code":10},"2162":{"zip_code":"3792162","prefecture":"群馬県","prefecture_kana":"グンマケン","city":"前橋市","city_kana":"マエバシシ","town":"小島田町","town_kana":"コジマタマチ","prefecture_code":10},"2122":{"zip_code":"3792122","prefecture":"群馬県","prefecture_kana":"グンマケン","city":"前橋市","city_kana":"マエバシシ","town":"駒形町","town_kana":"コマガタマチ","prefecture_code":10},"2121":{"zip_code":"3792121","prefecture":"群馬県","prefecture_kana":"グンマケン","city":"前橋市","city_kana":"マエバシシ","town":"小屋原町","town_kana":"コヤハラマチ","prefecture_code":10},"2123":{"zip_code":"3792123","prefecture":"群馬県","prefecture_kana":"グンマケン","city":"前橋市","city_kana":"マエバシシ","town":"山王町","town_kana":"サンノウマチ","prefecture_code":10},"2142":{"zip_code":"3792142","prefecture":"群馬県","prefecture_kana":"グンマケン","city":"前橋市","city_kana":"マエバシシ","town":"下阿内町","town_kana":"シモアウチマチ","prefecture_code":10},"2152":{"zip_code":"3792152","prefecture":"群馬県","prefecture_kana":"グンマケン","city":"前橋市","city_kana":"マエバシシ","town":"下大島町","town_kana":"シモオオシママチ","prefecture_code":10},"2102":{"zip_code":"3792102","prefecture":"群馬県","prefecture_kana":"グンマケン","city":"前橋市","city_kana":"マエバシシ","town":"下大屋町","town_kana":"シモオオヤマチ","prefecture_code":10},"2144":{"zip_code":"3792144","prefecture":"群馬県","prefecture_kana":"グンマケン","city":"前橋市","city_kana":"マエバシシ","town":"下川町","town_kana":"シモカワマチ","prefecture_code":10},"2151":{"zip_code":"3792151","prefecture":"群馬県","prefecture_kana":"グンマケン","city":"前橋市","city_kana":"マエバシシ","town":"下長磯町","town_kana":"シモナガイソマチ","prefecture_code":10},"2113":{"zip_code":"3792113","prefecture":"群馬県","prefecture_kana":"グンマケン","city":"前橋市","city_kana":"マエバシシ","town":"下増田町","town_kana":"シモマスダマチ","prefecture_code":10},"2108":{"zip_code":"3792108","prefecture":"群馬県","prefecture_kana":"グンマケン","city":"前橋市","city_kana":"マエバシシ","town":"鶴が谷町","town_kana":"ツルガヤマチ","prefecture_code":10},"2141":{"zip_code":"3792141","prefecture":"群馬県","prefecture_kana":"グンマケン","city":"前橋市","city_kana":"マエバシシ","town":"鶴光路町","town_kana":"ツルコウジマチ","prefecture_code":10},"2135":{"zip_code":"3792135","prefecture":"群馬県","prefecture_kana":"グンマケン","city":"前橋市","city_kana":"マエバシシ","town":"徳丸町","town_kana":"トクマルマチ","prefecture_code":10},"2161":{"zip_code":"3792161","prefecture":"群馬県","prefecture_kana":"グンマケン","city":"前橋市","city_kana":"マエバシシ","town":"富田町","town_kana":"トミダマチ","prefecture_code":10},"2133":{"zip_code":"3792133","prefecture":"群馬県","prefecture_kana":"グンマケン","city":"前橋市","city_kana":"マエバシシ","town":"中内町","town_kana":"ナカウチマチ","prefecture_code":10},"2143":{"zip_code":"3792143","prefecture":"群馬県","prefecture_kana":"グンマケン","city":"前橋市","city_kana":"マエバシシ","town":"新堀町","town_kana":"ニイボリマチ","prefecture_code":10},"2104":{"zip_code":"3792104","prefecture":"群馬県","prefecture_kana":"グンマケン","city":"前橋市","city_kana":"マエバシシ","town":"西大室町","town_kana":"ニシオオムロマチ","prefecture_code":10},"2131":{"zip_code":"3792131","prefecture":"群馬県","prefecture_kana":"グンマケン","city":"前橋市","city_kana":"マエバシシ","town":"西善町","town_kana":"ニシゼンマチ","prefecture_code":10},"2117":{"zip_code":"3792117","prefecture":"群馬県","prefecture_kana":"グンマケン","city":"前橋市","city_kana":"マエバシシ","town":"二之宮町","town_kana":"ニノミヤマチ","prefecture_code":10},"2166":{"zip_code":"3792166","prefecture":"群馬県","prefecture_kana":"グンマケン","city":"前橋市","city_kana":"マエバシシ","town":"野中町","town_kana":"ノナカマチ","prefecture_code":10},"2164":{"zip_code":"3792164","prefecture":"群馬県","prefecture_kana":"グンマケン","city":"前橋市","city_kana":"マエバシシ","town":"東上野町","town_kana":"ヒガシウエノマチ","prefecture_code":10},"2105":{"zip_code":"3792105","prefecture":"群馬県","prefecture_kana":"グンマケン","city":"前橋市","city_kana":"マエバシシ","town":"東大室町","town_kana":"ヒガシオオムロマチ","prefecture_code":10},"2132":{"zip_code":"3792132","prefecture":"群馬県","prefecture_kana":"グンマケン","city":"前橋市","city_kana":"マエバシシ","town":"東善町","town_kana":"ヒガシゼンマチ","prefecture_code":10},"2136":{"zip_code":"3792136","prefecture":"群馬県","prefecture_kana":"グンマケン","city":"前橋市","city_kana":"マエバシシ","town":"房丸町","town_kana":"ボウマルマチ","prefecture_code":10},"2145":{"zip_code":"3792145","prefecture":"群馬県","prefecture_kana":"グンマケン","city":"前橋市","city_kana":"マエバシシ","town":"横手町","town_kana":"ヨコテマチ","prefecture_code":10},"2134":{"zip_code":"3792134","prefecture":"群馬県","prefecture_kana":"グンマケン","city":"前橋市","city_kana":"マエバシシ","town":"力丸町","town_kana":"リキマルマチ","prefecture_code":10},"2201":{"zip_code":"3792201","prefecture":"群馬県","prefecture_kana":"グンマケン","city":"伊勢崎市","city_kana":"イセサキシ","town":"間野谷町","town_kana":"アイノヤチョウ","prefecture_code":10},"2215":{"zip_code":"3792215","prefecture":"群馬県","prefecture_kana":"グンマケン","city":"伊勢崎市","city_kana":"イセサキシ","town":"赤堀今井町","town_kana":"アカボリイマイチョウ","prefecture_code":10},"2202":{"zip_code":"3792202","prefecture":"群馬県","prefecture_kana":"グンマケン","city":"伊勢崎市","city_kana":"イセサキシ","town":"赤堀鹿島町","town_kana":"アカボリカシマチョウ","prefecture_code":10},"2231":{"zip_code":"3792231","prefecture":"群馬県","prefecture_kana":"グンマケン","city":"伊勢崎市","city_kana":"イセサキシ","town":"東町","town_kana":"アズマチョウ","prefecture_code":10},"2217":{"zip_code":"3792217","prefecture":"群馬県","prefecture_kana":"グンマケン","city":"伊勢崎市","city_kana":"イセサキシ","town":"磯町","town_kana":"イソチョウ","prefecture_code":10},"2211":{"zip_code":"3792211","prefecture":"群馬県","prefecture_kana":"グンマケン","city":"伊勢崎市","city_kana":"イセサキシ","town":"市場町","town_kana":"イチバチョウ","prefecture_code":10},"2225":{"zip_code":"3792225","prefecture":"群馬県","prefecture_kana":"グンマケン","city":"伊勢崎市","city_kana":"イセサキシ","town":"上田町","town_kana":"カミダチョウ","prefecture_code":10},"2221":{"zip_code":"3792221","prefecture":"群馬県","prefecture_kana":"グンマケン","city":"伊勢崎市","city_kana":"イセサキシ","town":"国定町","town_kana":"クニサダマチ","prefecture_code":10},"2232":{"zip_code":"3792232","prefecture":"群馬県","prefecture_kana":"グンマケン","city":"伊勢崎市","city_kana":"イセサキシ","town":"小泉町","town_kana":"コイズミチョウ","prefecture_code":10},"2206":{"zip_code":"3792206","prefecture":"群馬県","prefecture_kana":"グンマケン","city":"伊勢崎市","city_kana":"イセサキシ","town":"香林町","town_kana":"コウバヤシチョウ","prefecture_code":10},"2213":{"zip_code":"3792213","prefecture":"群馬県","prefecture_kana":"グンマケン","city":"伊勢崎市","city_kana":"イセサキシ","town":"五目牛町","town_kana":"ゴメウシチョウ","prefecture_code":10},"2214":{"zip_code":"3792214","prefecture":"群馬県","prefecture_kana":"グンマケン","city":"伊勢崎市","city_kana":"イセサキシ","town":"下触町","town_kana":"シモフレイチョウ","prefecture_code":10},"2222":{"zip_code":"3792222","prefecture":"群馬県","prefecture_kana":"グンマケン","city":"伊勢崎市","city_kana":"イセサキシ","town":"田部井町","town_kana":"タベイチョウ","prefecture_code":10},"2224":{"zip_code":"3792224","prefecture":"群馬県","prefecture_kana":"グンマケン","city":"伊勢崎市","city_kana":"イセサキシ","town":"西小保方町","town_kana":"ニシオボカタチョウ","prefecture_code":10},"2204":{"zip_code":"3792204","prefecture":"群馬県","prefecture_kana":"グンマケン","city":"伊勢崎市","city_kana":"イセサキシ","town":"西久保町","town_kana":"ニシクボチョウ","prefecture_code":10},"2216":{"zip_code":"3792216","prefecture":"群馬県","prefecture_kana":"グンマケン","city":"伊勢崎市","city_kana":"イセサキシ","town":"西野町","town_kana":"ニシノチョウ","prefecture_code":10},"2205":{"zip_code":"3792205","prefecture":"群馬県","prefecture_kana":"グンマケン","city":"伊勢崎市","city_kana":"イセサキシ","town":"野町","town_kana":"ノチョウ","prefecture_code":10},"2236":{"zip_code":"3792236","prefecture":"群馬県","prefecture_kana":"グンマケン","city":"伊勢崎市","city_kana":"イセサキシ","town":"八寸町","town_kana":"ハチスチョウ","prefecture_code":10},"2234":{"zip_code":"3792234","prefecture":"群馬県","prefecture_kana":"グンマケン","city":"伊勢崎市","city_kana":"イセサキシ","town":"東小保方町","town_kana":"ヒガシオボカタチョウ","prefecture_code":10},"2233":{"zip_code":"3792233","prefecture":"群馬県","prefecture_kana":"グンマケン","city":"伊勢崎市","city_kana":"イセサキシ","town":"平井町","town_kana":"ヒライチョウ","prefecture_code":10},"2212":{"zip_code":"3792212","prefecture":"群馬県","prefecture_kana":"グンマケン","city":"伊勢崎市","city_kana":"イセサキシ","town":"堀下町","town_kana":"ホリシタチョウ","prefecture_code":10},"2203":{"zip_code":"3792203","prefecture":"群馬県","prefecture_kana":"グンマケン","city":"伊勢崎市","city_kana":"イセサキシ","town":"曲沢町","town_kana":"マガリサワチョウ","prefecture_code":10},"2235":{"zip_code":"3792235","prefecture":"群馬県","prefecture_kana":"グンマケン","city":"伊勢崎市","city_kana":"イセサキシ","town":"三室町","town_kana":"ミムロチョウ","prefecture_code":10},"2306":{"zip_code":"3792306","prefecture":"群馬県","prefecture_kana":"グンマケン","city":"太田市","city_kana":"オオタシ","town":"大久保町","town_kana":"オオクボチョウ","prefecture_code":10},"2304":{"zip_code":"3792304","prefecture":"群馬県","prefecture_kana":"グンマケン","city":"太田市","city_kana":"オオタシ","town":"大原町","town_kana":"オオバラチョウ","prefecture_code":10},"2301":{"zip_code":"3792301","prefecture":"群馬県","prefecture_kana":"グンマケン","city":"太田市","city_kana":"オオタシ","town":"藪塚町","town_kana":"ヤブヅカチョウ","prefecture_code":10},"2302":{"zip_code":"3792302","prefecture":"群馬県","prefecture_kana":"グンマケン","city":"太田市","city_kana":"オオタシ","town":"山之神町","town_kana":"ヤマノカミチョウ","prefecture_code":10},"2303":{"zip_code":"3792303","prefecture":"群馬県","prefecture_kana":"グンマケン","city":"太田市","city_kana":"オオタシ","town":"寄合町","town_kana":"ヨリアイチョウ","prefecture_code":10},"2305":{"zip_code":"3792305","prefecture":"群馬県","prefecture_kana":"グンマケン","city":"太田市","city_kana":"オオタシ","town":"六千石町","town_kana":"ロクセンゴクチョウ","prefecture_code":10},"1122":{"zip_code":"3791122","prefecture":"群馬県","prefecture_kana":"グンマケン","city":"渋川市","city_kana":"シブカワシ","town":"赤城町勝保沢","town_kana":"アカギマチカツホザワ","prefecture_code":10},"1125":{"zip_code":"3791125","prefecture":"群馬県","prefecture_kana":"グンマケン","city":"渋川市","city_kana":"シブカワシ","town":"赤城町上三原田","town_kana":"アカギマチカミミハラダ","prefecture_code":10},"1111":{"zip_code":"3791111","prefecture":"群馬県","prefecture_kana":"グンマケン","city":"渋川市","city_kana":"シブカワシ","town":"赤城町北赤城山","town_kana":"アカギマチキタアカギサン","prefecture_code":10},"1105":{"zip_code":"3791105","prefecture":"群馬県","prefecture_kana":"グンマケン","city":"渋川市","city_kana":"シブカワシ","town":"赤城町北上野","town_kana":"アカギマチキタウエノ","prefecture_code":10},"1114":{"zip_code":"3791114","prefecture":"群馬県","prefecture_kana":"グンマケン","city":"渋川市","city_kana":"シブカワシ","town":"赤城町栄","town_kana":"アカギマチサカエ","prefecture_code":10},"1104":{"zip_code":"3791104","prefecture":"群馬県","prefecture_kana":"グンマケン","city":"渋川市","city_kana":"シブカワシ","town":"赤城町敷島","town_kana":"アカギマチシキシマ","prefecture_code":10},"1124":{"zip_code":"3791124","prefecture":"群馬県","prefecture_kana":"グンマケン","city":"渋川市","city_kana":"シブカワシ","town":"赤城町滝沢","town_kana":"アカギマチタキザワ","prefecture_code":10},"1101":{"zip_code":"3791101","prefecture":"群馬県","prefecture_kana":"グンマケン","city":"渋川市","city_kana":"シブカワシ","town":"赤城町棚下","town_kana":"アカギマチタナシタ","prefecture_code":10},"1127":{"zip_code":"3791127","prefecture":"群馬県","prefecture_kana":"グンマケン","city":"渋川市","city_kana":"シブカワシ","town":"赤城町樽","town_kana":"アカギマチタル","prefecture_code":10},"1103":{"zip_code":"3791103","prefecture":"群馬県","prefecture_kana":"グンマケン","city":"渋川市","city_kana":"シブカワシ","town":"赤城町津久田","town_kana":"アカギマチツクダ","prefecture_code":10},"1102":{"zip_code":"3791102","prefecture":"群馬県","prefecture_kana":"グンマケン","city":"渋川市","city_kana":"シブカワシ","town":"赤城町長井小川田","town_kana":"アカギマチナガイオガワダ","prefecture_code":10},"1115":{"zip_code":"3791115","prefecture":"群馬県","prefecture_kana":"グンマケン","city":"渋川市","city_kana":"シブカワシ","town":"赤城町溝呂木","town_kana":"アカギマチミゾロキ","prefecture_code":10},"1123":{"zip_code":"3791123","prefecture":"群馬県","prefecture_kana":"グンマケン","city":"渋川市","city_kana":"シブカワシ","town":"赤城町見立","town_kana":"アカギマチミタチ","prefecture_code":10},"1113":{"zip_code":"3791113","prefecture":"群馬県","prefecture_kana":"グンマケン","city":"渋川市","city_kana":"シブカワシ","town":"赤城町南赤城山","town_kana":"アカギマチミナミアカギサン","prefecture_code":10},"1126":{"zip_code":"3791126","prefecture":"群馬県","prefecture_kana":"グンマケン","city":"渋川市","city_kana":"シブカワシ","town":"赤城町三原田","town_kana":"アカギマチミハラダ","prefecture_code":10},"1121":{"zip_code":"3791121","prefecture":"群馬県","prefecture_kana":"グンマケン","city":"渋川市","city_kana":"シブカワシ","town":"赤城町宮田","town_kana":"アカギマチミヤダ","prefecture_code":10},"1112":{"zip_code":"3791112","prefecture":"群馬県","prefecture_kana":"グンマケン","city":"渋川市","city_kana":"シブカワシ","town":"赤城町深山","town_kana":"アカギマチミヤマ","prefecture_code":10},"1116":{"zip_code":"3791116","prefecture":"群馬県","prefecture_kana":"グンマケン","city":"渋川市","city_kana":"シブカワシ","town":"赤城町持柏木","town_kana":"アカギマチモチカシワギ","prefecture_code":10},"0202":{"zip_code":"3790202","prefecture":"群馬県","prefecture_kana":"グンマケン","city":"富岡市","city_kana":"トミオカシ","town":"妙義町大牛","town_kana":"ミョウギマチオオウシ","prefecture_code":10},"0205":{"zip_code":"3790205","prefecture":"群馬県","prefecture_kana":"グンマケン","city":"富岡市","city_kana":"トミオカシ","town":"妙義町北山","town_kana":"ミョウギマチキタヤマ","prefecture_code":10},"0208":{"zip_code":"3790208","prefecture":"群馬県","prefecture_kana":"グンマケン","city":"富岡市","city_kana":"トミオカシ","town":"妙義町菅原","town_kana":"ミョウギマチスガハラ","prefecture_code":10},"0203":{"zip_code":"3790203","prefecture":"群馬県","prefecture_kana":"グンマケン","city":"富岡市","city_kana":"トミオカシ","town":"妙義町岳","town_kana":"ミョウギマチタケ","prefecture_code":10},"0206":{"zip_code":"3790206","prefecture":"群馬県","prefecture_kana":"グンマケン","city":"富岡市","city_kana":"トミオカシ","town":"妙義町中里","town_kana":"ミョウギマチナカザト","prefecture_code":10},"0204":{"zip_code":"3790204","prefecture":"群馬県","prefecture_kana":"グンマケン","city":"富岡市","city_kana":"トミオカシ","town":"妙義町行沢","town_kana":"ミョウギマチナメザワ","prefecture_code":10},"0207":{"zip_code":"3790207","prefecture":"群馬県","prefecture_kana":"グンマケン","city":"富岡市","city_kana":"トミオカシ","town":"妙義町古立","town_kana":"ミョウギマチフルタチ","prefecture_code":10},"0201":{"zip_code":"3790201","prefecture":"群馬県","prefecture_kana":"グンマケン","city":"富岡市","city_kana":"トミオカシ","town":"妙義町妙義","town_kana":"ミョウギマチミョウギ","prefecture_code":10},"0209":{"zip_code":"3790209","prefecture":"群馬県","prefecture_kana":"グンマケン","city":"富岡市","city_kana":"トミオカシ","town":"妙義町諸戸","town_kana":"ミョウギマチモロト","prefecture_code":10},"0100":{"zip_code":"3790100","prefecture":"群馬県","prefecture_kana":"グンマケン","city":"安中市","city_kana":"アンナカシ","town":"","town_kana":"","prefecture_code":10},"0109":{"zip_code":"3790109","prefecture":"群馬県","prefecture_kana":"グンマケン","city":"安中市","city_kana":"アンナカシ","town":"秋間みのりが丘","town_kana":"アキマミノリガオカ","prefecture_code":10},"0116":{"zip_code":"3790116","prefecture":"群馬県","prefecture_kana":"グンマケン","city":"安中市","city_kana":"アンナカシ","town":"安中","town_kana":"アンナカ","prefecture_code":10},"0127":{"zip_code":"3790127","prefecture":"群馬県","prefecture_kana":"グンマケン","city":"安中市","city_kana":"アンナカシ","town":"磯部","town_kana":"イソベ","prefecture_code":10},"0111":{"zip_code":"3790111","prefecture":"群馬県","prefecture_kana":"グンマケン","city":"安中市","city_kana":"アンナカシ","town":"板鼻","town_kana":"イタハナ","prefecture_code":10},"0112":{"zip_code":"3790112","prefecture":"群馬県","prefecture_kana":"グンマケン","city":"安中市","city_kana":"アンナカシ","town":"岩井","town_kana":"イワイ","prefecture_code":10},"0121":{"zip_code":"3790121","prefecture":"群馬県","prefecture_kana":"グンマケン","city":"安中市","city_kana":"アンナカシ","town":"大竹","town_kana":"オオタケ","prefecture_code":10},"0113":{"zip_code":"3790113","prefecture":"群馬県","prefecture_kana":"グンマケン","city":"安中市","city_kana":"アンナカシ","town":"大谷","town_kana":"オオヤ","prefecture_code":10},"0105":{"zip_code":"3790105","prefecture":"群馬県","prefecture_kana":"グンマケン","city":"安中市","city_kana":"アンナカシ","town":"小俣","town_kana":"オマタ","prefecture_code":10},"0108":{"zip_code":"3790108","prefecture":"群馬県","prefecture_kana":"グンマケン","city":"安中市","city_kana":"アンナカシ","town":"上後閑","town_kana":"カミゴカン","prefecture_code":10},"0123":{"zip_code":"3790123","prefecture":"群馬県","prefecture_kana":"グンマケン","city":"安中市","city_kana":"アンナカシ","town":"上間仁田","town_kana":"カミマニタ","prefecture_code":10},"0135":{"zip_code":"3790135","prefecture":"群馬県","prefecture_kana":"グンマケン","city":"安中市","city_kana":"アンナカシ","town":"郷原","town_kana":"ゴウバラ","prefecture_code":10},"0132":{"zip_code":"3790132","prefecture":"群馬県","prefecture_kana":"グンマケン","city":"安中市","city_kana":"アンナカシ","town":"高別当","town_kana":"コウベツトウ","prefecture_code":10},"0124":{"zip_code":"3790124","prefecture":"群馬県","prefecture_kana":"グンマケン","city":"安中市","city_kana":"アンナカシ","town":"鷺宮","town_kana":"サギノミヤ","prefecture_code":10},"0104":{"zip_code":"3790104","prefecture":"群馬県","prefecture_kana":"グンマケン","city":"安中市","city_kana":"アンナカシ","town":"下秋間","town_kana":"シモアキマ","prefecture_code":10},"0129":{"zip_code":"3790129","prefecture":"群馬県","prefecture_kana":"グンマケン","city":"安中市","city_kana":"アンナカシ","town":"下磯部","town_kana":"シモイソベ","prefecture_code":10},"0106":{"zip_code":"3790106","prefecture":"群馬県","prefecture_kana":"グンマケン","city":"安中市","city_kana":"アンナカシ","town":"下後閑","town_kana":"シモゴカン","prefecture_code":10},"0122":{"zip_code":"3790122","prefecture":"群馬県","prefecture_kana":"グンマケン","city":"安中市","city_kana":"アンナカシ","town":"下間仁田","town_kana":"シモマニタ","prefecture_code":10},"0103":{"zip_code":"3790103","prefecture":"群馬県","prefecture_kana":"グンマケン","city":"安中市","city_kana":"アンナカシ","town":"中秋間","town_kana":"ナカアキマ","prefecture_code":10},"0107":{"zip_code":"3790107","prefecture":"群馬県","prefecture_kana":"グンマケン","city":"安中市","city_kana":"アンナカシ","town":"中後閑","town_kana":"ナカゴカン","prefecture_code":10},"0115":{"zip_code":"3790115","prefecture":"群馬県","prefecture_kana":"グンマケン","city":"安中市","city_kana":"アンナカシ","town":"中宿","town_kana":"ナカジュク","prefecture_code":10},"0125":{"zip_code":"3790125","prefecture":"群馬県","prefecture_kana":"グンマケン","city":"安中市","city_kana":"アンナカシ","town":"中野谷","town_kana":"ナカノヤ","prefecture_code":10},"0101":{"zip_code":"3790101","prefecture":"群馬県","prefecture_kana":"グンマケン","city":"安中市","city_kana":"アンナカシ","town":"西上秋間","town_kana":"ニシカミアキマ","prefecture_code":10},"0126":{"zip_code":"3790126","prefecture":"群馬県","prefecture_kana":"グンマケン","city":"安中市","city_kana":"アンナカシ","town":"西上磯部","town_kana":"ニシカミイソベ","prefecture_code":10},"0114":{"zip_code":"3790114","prefecture":"群馬県","prefecture_kana":"グンマケン","city":"安中市","city_kana":"アンナカシ","town":"野殿","town_kana":"ノドノ","prefecture_code":10},"0133":{"zip_code":"3790133","prefecture":"群馬県","prefecture_kana":"グンマケン","city":"安中市","city_kana":"アンナカシ","town":"原市","town_kana":"ハライチ","prefecture_code":10},"0102":{"zip_code":"3790102","prefecture":"群馬県","prefecture_kana":"グンマケン","city":"安中市","city_kana":"アンナカシ","town":"東上秋間","town_kana":"ヒガシカミアキマ","prefecture_code":10},"0128":{"zip_code":"3790128","prefecture":"群馬県","prefecture_kana":"グンマケン","city":"安中市","city_kana":"アンナカシ","town":"東上磯部","town_kana":"ヒガシカミイソベ","prefecture_code":10},"0131":{"zip_code":"3790131","prefecture":"群馬県","prefecture_kana":"グンマケン","city":"安中市","city_kana":"アンナカシ","town":"古屋","town_kana":"フルヤ","prefecture_code":10},"0216":{"zip_code":"3790216","prefecture":"群馬県","prefecture_kana":"グンマケン","city":"安中市","city_kana":"アンナカシ","town":"松井田町新井","town_kana":"マツイダマチアライ","prefecture_code":10},"0305":{"zip_code":"3790305","prefecture":"群馬県","prefecture_kana":"グンマケン","city":"安中市","city_kana":"アンナカシ","town":"松井田町入山","town_kana":"マツイダマチイリヤマ","prefecture_code":10},"0226":{"zip_code":"3790226","prefecture":"群馬県","prefecture_kana":"グンマケン","city":"安中市","city_kana":"アンナカシ","town":"松井田町行田","town_kana":"マツイダマチオクナダ","prefecture_code":10},"0213":{"zip_code":"3790213","prefecture":"群馬県","prefecture_kana":"グンマケン","city":"安中市","city_kana":"アンナカシ","town":"松井田町小日向","town_kana":"マツイダマチオビナタ","prefecture_code":10},"0211":{"zip_code":"3790211","prefecture":"群馬県","prefecture_kana":"グンマケン","city":"安中市","city_kana":"アンナカシ","town":"松井田町上増田","town_kana":"マツイダマチカミマスダ","prefecture_code":10},"0304":{"zip_code":"3790304","prefecture":"群馬県","prefecture_kana":"グンマケン","city":"安中市","city_kana":"アンナカシ","town":"松井田町北野牧","town_kana":"マツイダマチキタノマキ","prefecture_code":10},"0214":{"zip_code":"3790214","prefecture":"群馬県","prefecture_kana":"グンマケン","city":"安中市","city_kana":"アンナカシ","town":"松井田町国衙","town_kana":"マツイダマチコクガ","prefecture_code":10},"0302":{"zip_code":"3790302","prefecture":"群馬県","prefecture_kana":"グンマケン","city":"安中市","city_kana":"アンナカシ","town":"松井田町五料","town_kana":"マツイダマチゴリョウ","prefecture_code":10},"0307":{"zip_code":"3790307","prefecture":"群馬県","prefecture_kana":"グンマケン","city":"安中市","city_kana":"アンナカシ","town":"松井田町坂本","town_kana":"マツイダマチサカモト","prefecture_code":10},"0212":{"zip_code":"3790212","prefecture":"群馬県","prefecture_kana":"グンマケン","city":"安中市","city_kana":"アンナカシ","town":"松井田町下増田","town_kana":"マツイダマチシモマスダ","prefecture_code":10},"0215":{"zip_code":"3790215","prefecture":"群馬県","prefecture_kana":"グンマケン","city":"安中市","city_kana":"アンナカシ","town":"松井田町高梨子","town_kana":"マツイダマチタカナシ","prefecture_code":10},"0221":{"zip_code":"3790221","prefecture":"群馬県","prefecture_kana":"グンマケン","city":"安中市","city_kana":"アンナカシ","town":"松井田町新堀","town_kana":"マツイダマチニイボリ","prefecture_code":10},"0223":{"zip_code":"3790223","prefecture":"群馬県","prefecture_kana":"グンマケン","city":"安中市","city_kana":"アンナカシ","town":"松井田町二軒在家","town_kana":"マツイダマチニケンザイケ","prefecture_code":10},"0303":{"zip_code":"3790303","prefecture":"群馬県","prefecture_kana":"グンマケン","city":"安中市","city_kana":"アンナカシ","town":"松井田町西野牧","town_kana":"マツイダマチニシノマキ","prefecture_code":10},"0306":{"zip_code":"3790306","prefecture":"群馬県","prefecture_kana":"グンマケン","city":"安中市","city_kana":"アンナカシ","town":"松井田町原","town_kana":"マツイダマチハラ","prefecture_code":10},"0217":{"zip_code":"3790217","prefecture":"群馬県","prefecture_kana":"グンマケン","city":"安中市","city_kana":"アンナカシ","town":"松井田町土塩","town_kana":"マツイダマチヒジシオ","prefecture_code":10},"0224":{"zip_code":"3790224","prefecture":"群馬県","prefecture_kana":"グンマケン","city":"安中市","city_kana":"アンナカシ","town":"松井田町人見","town_kana":"マツイダマチヒトミ","prefecture_code":10},"0222":{"zip_code":"3790222","prefecture":"群馬県","prefecture_kana":"グンマケン","city":"安中市","city_kana":"アンナカシ","town":"松井田町松井田","town_kana":"マツイダマチマツイダ","prefecture_code":10},"0225":{"zip_code":"3790225","prefecture":"群馬県","prefecture_kana":"グンマケン","city":"安中市","city_kana":"アンナカシ","town":"松井田町八城","town_kana":"マツイダマチヤシロ","prefecture_code":10},"0301":{"zip_code":"3790301","prefecture":"群馬県","prefecture_kana":"グンマケン","city":"安中市","city_kana":"アンナカシ","town":"松井田町横川","town_kana":"マツイダマチヨコカワ","prefecture_code":10},"0136":{"zip_code":"3790136","prefecture":"群馬県","prefecture_kana":"グンマケン","city":"安中市","city_kana":"アンナカシ","town":"嶺","town_kana":"ミネ","prefecture_code":10},"0134":{"zip_code":"3790134","prefecture":"群馬県","prefecture_kana":"グンマケン","city":"安中市","city_kana":"アンナカシ","town":"簗瀬","town_kana":"ヤナセ","prefecture_code":10},"2311":{"zip_code":"3792311","prefecture":"群馬県","prefecture_kana":"グンマケン","city":"みどり市","city_kana":"ミドリシ","town":"笠懸町阿左美","town_kana":"カサカケチョウアザミ","prefecture_code":10},"2312":{"zip_code":"3792312","prefecture":"群馬県","prefecture_kana":"グンマケン","city":"みどり市","city_kana":"ミドリシ","town":"笠懸町久宮","town_kana":"カサカケチョウクグウ","prefecture_code":10},"2314":{"zip_code":"3792314","prefecture":"群馬県","prefecture_kana":"グンマケン","city":"みどり市","city_kana":"ミドリシ","town":"笠懸町西鹿田","town_kana":"カサカケチョウサイシカダ","prefecture_code":10},"2313":{"zip_code":"3792313","prefecture":"群馬県","prefecture_kana":"グンマケン","city":"みどり市","city_kana":"ミドリシ","town":"笠懸町鹿","town_kana":"カサカケチョウシカ","prefecture_code":10},"1200":{"zip_code":"3791200","prefecture":"群馬県","prefecture_kana":"グンマケン","city":"利根郡昭和村","city_kana":"トネグンショウワムラ","town":"","town_kana":"","prefecture_code":10},"1207":{"zip_code":"3791207","prefecture":"群馬県","prefecture_kana":"グンマケン","city":"利根郡昭和村","city_kana":"トネグンショウワムラ","town":"赤城原","town_kana":"アカギハラ","prefecture_code":10},"1203":{"zip_code":"3791203","prefecture":"群馬県","prefecture_kana":"グンマケン","city":"利根郡昭和村","city_kana":"トネグンショウワムラ","town":"糸井","town_kana":"イトイ","prefecture_code":10},"1201":{"zip_code":"3791201","prefecture":"群馬県","prefecture_kana":"グンマケン","city":"利根郡昭和村","city_kana":"トネグンショウワムラ","town":"生越","town_kana":"オゴセ","prefecture_code":10},"1202":{"zip_code":"3791202","prefecture":"群馬県","prefecture_kana":"グンマケン","city":"利根郡昭和村","city_kana":"トネグンショウワムラ","town":"貝野瀬","town_kana":"カイノセ","prefecture_code":10},"1205":{"zip_code":"3791205","prefecture":"群馬県","prefecture_kana":"グンマケン","city":"利根郡昭和村","city_kana":"トネグンショウワムラ","town":"川額","town_kana":"カワハケ","prefecture_code":10},"1206":{"zip_code":"3791206","prefecture":"群馬県","prefecture_kana":"グンマケン","city":"利根郡昭和村","city_kana":"トネグンショウワムラ","town":"橡久保","town_kana":"トチクボ","prefecture_code":10},"1204":{"zip_code":"3791204","prefecture":"群馬県","prefecture_kana":"グンマケン","city":"利根郡昭和村","city_kana":"トネグンショウワムラ","town":"森下","town_kana":"モリシタ","prefecture_code":10},"1300":{"zip_code":"3791300","prefecture":"群馬県","prefecture_kana":"グンマケン","city":"利根郡みなかみ町","city_kana":"トネグンミナカミマチ","town":"","town_kana":"","prefecture_code":10},"1404":{"zip_code":"3791404","prefecture":"群馬県","prefecture_kana":"グンマケン","city":"利根郡みなかみ町","city_kana":"トネグンミナカミマチ","town":"相俣","town_kana":"アイマタ","prefecture_code":10},"1618":{"zip_code":"3791618","prefecture":"群馬県","prefecture_kana":"グンマケン","city":"利根郡みなかみ町","city_kana":"トネグンミナカミマチ","town":"阿能川","town_kana":"アノウガワ","prefecture_code":10},"1411":{"zip_code":"3791411","prefecture":"群馬県","prefecture_kana":"グンマケン","city":"利根郡みなかみ町","city_kana":"トネグンミナカミマチ","town":"新巻","town_kana":"アラマキ","prefecture_code":10},"1723":{"zip_code":"3791723","prefecture":"群馬県","prefecture_kana":"グンマケン","city":"利根郡みなかみ町","city_kana":"トネグンミナカミマチ","town":"粟沢","town_kana":"アワザワ","prefecture_code":10},"1311":{"zip_code":"3791311","prefecture":"群馬県","prefecture_kana":"グンマケン","city":"利根郡みなかみ町","city_kana":"トネグンミナカミマチ","town":"石倉","town_kana":"イシクラ","prefecture_code":10},"1416":{"zip_code":"3791416","prefecture":"群馬県","prefecture_kana":"グンマケン","city":"利根郡みなかみ町","city_kana":"トネグンミナカミマチ","town":"入須川","town_kana":"イリスカワ","prefecture_code":10},"1727":{"zip_code":"3791727","prefecture":"群馬県","prefecture_kana":"グンマケン","city":"利根郡みなかみ町","city_kana":"トネグンミナカミマチ","town":"大穴","town_kana":"オオアナ","prefecture_code":10},"1302":{"zip_code":"3791302","prefecture":"群馬県","prefecture_kana":"グンマケン","city":"利根郡みなかみ町","city_kana":"トネグンミナカミマチ","town":"大沼","town_kana":"オオヌマ","prefecture_code":10},"1312":{"zip_code":"3791312","prefecture":"群馬県","prefecture_kana":"グンマケン","city":"利根郡みなかみ町","city_kana":"トネグンミナカミマチ","town":"小川","town_kana":"オガワ","prefecture_code":10},"1612":{"zip_code":"3791612","prefecture":"群馬県","prefecture_kana":"グンマケン","city":"利根郡みなかみ町","city_kana":"トネグンミナカミマチ","town":"小日向","town_kana":"オビナタ","prefecture_code":10},"1611":{"zip_code":"3791611","prefecture":"群馬県","prefecture_kana":"グンマケン","city":"利根郡みなかみ町","city_kana":"トネグンミナカミマチ","town":"鹿野沢","town_kana":"カノサワ","prefecture_code":10},"1315":{"zip_code":"3791315","prefecture":"群馬県","prefecture_kana":"グンマケン","city":"利根郡みなかみ町","city_kana":"トネグンミナカミマチ","town":"上津","town_kana":"カミヅ","prefecture_code":10},"1303":{"zip_code":"3791303","prefecture":"群馬県","prefecture_kana":"グンマケン","city":"利根郡みなかみ町","city_kana":"トネグンミナカミマチ","town":"上牧","town_kana":"カミモク","prefecture_code":10},"1616":{"zip_code":"3791616","prefecture":"群馬県","prefecture_kana":"グンマケン","city":"利根郡みなかみ町","city_kana":"トネグンミナカミマチ","town":"川上","town_kana":"カワカミ","prefecture_code":10},"1726":{"zip_code":"3791726","prefecture":"群馬県","prefecture_kana":"グンマケン","city":"利根郡みなかみ町","city_kana":"トネグンミナカミマチ","town":"幸知","town_kana":"コウチ","prefecture_code":10},"1305":{"zip_code":"3791305","prefecture":"群馬県","prefecture_kana":"グンマケン","city":"利根郡みなかみ町","city_kana":"トネグンミナカミマチ","town":"後閑","town_kana":"ゴカン","prefecture_code":10},"1615":{"zip_code":"3791615","prefecture":"群馬県","prefecture_kana":"グンマケン","city":"利根郡みなかみ町","city_kana":"トネグンミナカミマチ","town":"小仁田","town_kana":"コニタ","prefecture_code":10},"1403":{"zip_code":"3791403","prefecture":"群馬県","prefecture_kana":"グンマケン","city":"利根郡みなかみ町","city_kana":"トネグンミナカミマチ","town":"猿ケ京温泉","town_kana":"サルガキョウオンセン","prefecture_code":10},"1314":{"zip_code":"3791314","prefecture":"群馬県","prefecture_kana":"グンマケン","city":"利根郡みなかみ町","city_kana":"トネグンミナカミマチ","town":"下津","town_kana":"シモヅ","prefecture_code":10},"1304":{"zip_code":"3791304","prefecture":"群馬県","prefecture_kana":"グンマケン","city":"利根郡みなかみ町","city_kana":"トネグンミナカミマチ","town":"下牧","town_kana":"シモモク","prefecture_code":10},"1418":{"zip_code":"3791418","prefecture":"群馬県","prefecture_kana":"グンマケン","city":"利根郡みなかみ町","city_kana":"トネグンミナカミマチ","town":"須川","town_kana":"スカワ","prefecture_code":10},"1613":{"zip_code":"3791613","prefecture":"群馬県","prefecture_kana":"グンマケン","city":"利根郡みなかみ町","city_kana":"トネグンミナカミマチ","town":"高日向","town_kana":"タカヒナタ","prefecture_code":10},"1619":{"zip_code":"3791619","prefecture":"群馬県","prefecture_kana":"グンマケン","city":"利根郡みなかみ町","city_kana":"トネグンミナカミマチ","town":"谷川","town_kana":"タニガワ","prefecture_code":10},"1313":{"zip_code":"3791313","prefecture":"群馬県","prefecture_kana":"グンマケン","city":"利根郡みなかみ町","city_kana":"トネグンミナカミマチ","town":"月夜野","town_kana":"ツキヨノ","prefecture_code":10},"1725":{"zip_code":"3791725","prefecture":"群馬県","prefecture_kana":"グンマケン","city":"利根郡みなかみ町","city_kana":"トネグンミナカミマチ","town":"綱子","town_kana":"ツナゴ","prefecture_code":10},"1614":{"zip_code":"3791614","prefecture":"群馬県","prefecture_kana":"グンマケン","city":"利根郡みなかみ町","city_kana":"トネグンミナカミマチ","town":"寺間","town_kana":"テラマ","prefecture_code":10},"1401":{"zip_code":"3791401","prefecture":"群馬県","prefecture_kana":"グンマケン","city":"利根郡みなかみ町","city_kana":"トネグンミナカミマチ","town":"永井","town_kana":"ナガイ","prefecture_code":10},"1301":{"zip_code":"3791301","prefecture":"群馬県","prefecture_kana":"グンマケン","city":"利根郡みなかみ町","city_kana":"トネグンミナカミマチ","town":"奈女沢","town_kana":"ナメザワ","prefecture_code":10},"1415":{"zip_code":"3791415","prefecture":"群馬県","prefecture_kana":"グンマケン","city":"利根郡みなかみ町","city_kana":"トネグンミナカミマチ","town":"西峰須川","town_kana":"ニシミネスカワ","prefecture_code":10},"1412":{"zip_code":"3791412","prefecture":"群馬県","prefecture_kana":"グンマケン","city":"利根郡みなかみ町","city_kana":"トネグンミナカミマチ","town":"羽場","town_kana":"ハバ","prefecture_code":10},"1417":{"zip_code":"3791417","prefecture":"群馬県","prefecture_kana":"グンマケン","city":"利根郡みなかみ町","city_kana":"トネグンミナカミマチ","town":"東峰","town_kana":"ヒガシミネ","prefecture_code":10},"1402":{"zip_code":"3791402","prefecture":"群馬県","prefecture_kana":"グンマケン","city":"利根郡みなかみ町","city_kana":"トネグンミナカミマチ","town":"吹路","town_kana":"フクロ","prefecture_code":10},"1721":{"zip_code":"3791721","prefecture":"群馬県","prefecture_kana":"グンマケン","city":"利根郡みなかみ町","city_kana":"トネグンミナカミマチ","town":"藤原","town_kana":"フジワラ","prefecture_code":10},"1414":{"zip_code":"3791414","prefecture":"群馬県","prefecture_kana":"グンマケン","city":"利根郡みなかみ町","city_kana":"トネグンミナカミマチ","town":"布施","town_kana":"フセ","prefecture_code":10},"1308":{"zip_code":"3791308","prefecture":"群馬県","prefecture_kana":"グンマケン","city":"利根郡みなかみ町","city_kana":"トネグンミナカミマチ","town":"真庭","town_kana":"マニワ","prefecture_code":10},"1307":{"zip_code":"3791307","prefecture":"群馬県","prefecture_kana":"グンマケン","city":"利根郡みなかみ町","city_kana":"トネグンミナカミマチ","town":"政所","town_kana":"マンドコロ","prefecture_code":10},"1724":{"zip_code":"3791724","prefecture":"群馬県","prefecture_kana":"グンマケン","city":"利根郡みなかみ町","city_kana":"トネグンミナカミマチ","town":"向山","town_kana":"ムコウヤマ","prefecture_code":10},"1306":{"zip_code":"3791306","prefecture":"群馬県","prefecture_kana":"グンマケン","city":"利根郡みなかみ町","city_kana":"トネグンミナカミマチ","town":"師","town_kana":"モロ","prefecture_code":10},"1413":{"zip_code":"3791413","prefecture":"群馬県","prefecture_kana":"グンマケン","city":"利根郡みなかみ町","city_kana":"トネグンミナカミマチ","town":"師田","town_kana":"モロダ","prefecture_code":10},"1409":{"zip_code":"3791409","prefecture":"群馬県","prefecture_kana":"グンマケン","city":"利根郡みなかみ町","city_kana":"トネグンミナカミマチ","town":"湯宿温泉","town_kana":"ユジュクオンセン","prefecture_code":10},"1617":{"zip_code":"3791617","prefecture":"群馬県","prefecture_kana":"グンマケン","city":"利根郡みなかみ町","city_kana":"トネグンミナカミマチ","town":"湯原","town_kana":"ユバラ","prefecture_code":10},"1728":{"zip_code":"3791728","prefecture":"群馬県","prefecture_kana":"グンマケン","city":"利根郡みなかみ町","city_kana":"トネグンミナカミマチ","town":"湯桧曽","town_kana":"ユビソ","prefecture_code":10},"1722":{"zip_code":"3791722","prefecture":"群馬県","prefecture_kana":"グンマケン","city":"利根郡みなかみ町","city_kana":"トネグンミナカミマチ","town":"夜後","town_kana":"ヨゴ","prefecture_code":10},"1601":{"zip_code":"3791601","prefecture":"群馬県","prefecture_kana":"グンマケン","city":"利根郡みなかみ町","city_kana":"トネグンミナカミマチ","town":"吉本","town_kana":"ヨシモト","prefecture_code":10}}