{"0000":{"zip_code":"3830000","prefecture":"長野県","prefecture_kana":"ナガノケン","city":"中野市","city_kana":"ナカノシ","town":"","town_kana":"","prefecture_code":20},"0004":{"zip_code":"3830004","prefecture":"長野県","prefecture_kana":"ナガノケン","city":"中野市","city_kana":"ナカノシ","town":"赤岩","town_kana":"アカイワ","prefecture_code":20},"0066":{"zip_code":"3830066","prefecture":"長野県","prefecture_kana":"ナガノケン","city":"中野市","city_kana":"ナカノシ","town":"厚貝","town_kana":"アッカイ","prefecture_code":20},"0064":{"zip_code":"3830064","prefecture":"長野県","prefecture_kana":"ナガノケン","city":"中野市","city_kana":"ナカノシ","town":"新井","town_kana":"アライ","prefecture_code":20},"0052":{"zip_code":"3830052","prefecture":"長野県","prefecture_kana":"ナガノケン","city":"中野市","city_kana":"ナカノシ","town":"安源寺","town_kana":"アンゲンジ","prefecture_code":20},"0012":{"zip_code":"3830012","prefecture":"長野県","prefecture_kana":"ナガノケン","city":"中野市","city_kana":"ナカノシ","town":"一本木","town_kana":"イッポンギ","prefecture_code":20},"0001":{"zip_code":"3830001","prefecture":"長野県","prefecture_kana":"ナガノケン","city":"中野市","city_kana":"ナカノシ","town":"岩井","town_kana":"イワイ","prefecture_code":20},"0041":{"zip_code":"3830041","prefecture":"長野県","prefecture_kana":"ナガノケン","city":"中野市","city_kana":"ナカノシ","town":"岩船","town_kana":"イワフネ","prefecture_code":20},"0055":{"zip_code":"3830055","prefecture":"長野県","prefecture_kana":"ナガノケン","city":"中野市","city_kana":"ナカノシ","town":"牛出","town_kana":"ウシイデ","prefecture_code":20},"0045":{"zip_code":"3830045","prefecture":"長野県","prefecture_kana":"ナガノケン","city":"中野市","city_kana":"ナカノシ","town":"江部","town_kana":"エベ","prefecture_code":20},"0057":{"zip_code":"3830057","prefecture":"長野県","prefecture_kana":"ナガノケン","city":"中野市","city_kana":"ナカノシ","town":"大俣","town_kana":"オオマタ","prefecture_code":20},"0023":{"zip_code":"3830023","prefecture":"長野県","prefecture_kana":"ナガノケン","city":"中野市","city_kana":"ナカノシ","town":"小館","town_kana":"オタテ","prefecture_code":20},"0062":{"zip_code":"3830062","prefecture":"長野県","prefecture_kana":"ナガノケン","city":"中野市","city_kana":"ナカノシ","town":"笠原","town_kana":"カサハラ","prefecture_code":20},"0046":{"zip_code":"3830046","prefecture":"長野県","prefecture_kana":"ナガノケン","city":"中野市","city_kana":"ナカノシ","town":"片塩","town_kana":"カタシオ","prefecture_code":20},"0008":{"zip_code":"3830008","prefecture":"長野県","prefecture_kana":"ナガノケン","city":"中野市","city_kana":"ナカノシ","town":"金井","town_kana":"カナイ","prefecture_code":20},"0053":{"zip_code":"3830053","prefecture":"長野県","prefecture_kana":"ナガノケン","city":"中野市","city_kana":"ナカノシ","town":"草間","town_kana":"クサマ","prefecture_code":20},"0056":{"zip_code":"3830056","prefecture":"長野県","prefecture_kana":"ナガノケン","city":"中野市","city_kana":"ナカノシ","town":"栗林","town_kana":"クリバヤシ","prefecture_code":20},"0005":{"zip_code":"3830005","prefecture":"長野県","prefecture_kana":"ナガノケン","city":"中野市","city_kana":"ナカノシ","town":"越","town_kana":"コシ","prefecture_code":20},"0037":{"zip_code":"3830037","prefecture":"長野県","prefecture_kana":"ナガノケン","city":"中野市","city_kana":"ナカノシ","town":"小田中","town_kana":"コダナカ","prefecture_code":20},"0044":{"zip_code":"3830044","prefecture":"長野県","prefecture_kana":"ナガノケン","city":"中野市","city_kana":"ナカノシ","town":"桜沢","town_kana":"サクラサワ","prefecture_code":20},"0032":{"zip_code":"3830032","prefecture":"長野県","prefecture_kana":"ナガノケン","city":"中野市","city_kana":"ナカノシ","town":"更科","town_kana":"サラシナ","prefecture_code":20},"0035":{"zip_code":"3830035","prefecture":"長野県","prefecture_kana":"ナガノケン","city":"中野市","city_kana":"ナカノシ","town":"篠井","town_kana":"シノイ","prefecture_code":20},"0034":{"zip_code":"3830034","prefecture":"長野県","prefecture_kana":"ナガノケン","city":"中野市","city_kana":"ナカノシ","town":"新野","town_kana":"シンノ","prefecture_code":20},"0036":{"zip_code":"3830036","prefecture":"長野県","prefecture_kana":"ナガノケン","city":"中野市","city_kana":"ナカノシ","town":"新保","town_kana":"シンボ","prefecture_code":20},"0014":{"zip_code":"3830014","prefecture":"長野県","prefecture_kana":"ナガノケン","city":"中野市","city_kana":"ナカノシ","town":"諏訪町","town_kana":"スワチョウ","prefecture_code":20},"0002":{"zip_code":"3830002","prefecture":"長野県","prefecture_kana":"ナガノケン","city":"中野市","city_kana":"ナカノシ","town":"田上","town_kana":"タガミ","prefecture_code":20},"0007":{"zip_code":"3830007","prefecture":"長野県","prefecture_kana":"ナガノケン","city":"中野市","city_kana":"ナカノシ","town":"竹原","town_kana":"タケハラ","prefecture_code":20},"0054":{"zip_code":"3830054","prefecture":"長野県","prefecture_kana":"ナガノケン","city":"中野市","city_kana":"ナカノシ","town":"立ケ花","town_kana":"タテガハナ","prefecture_code":20},"0065":{"zip_code":"3830065","prefecture":"長野県","prefecture_kana":"ナガノケン","city":"中野市","city_kana":"ナカノシ","town":"田麦","town_kana":"タムギ","prefecture_code":20},"0022":{"zip_code":"3830022","prefecture":"長野県","prefecture_kana":"ナガノケン","city":"中野市","city_kana":"ナカノシ","town":"中央","town_kana":"チュウオウ","prefecture_code":20},"0013":{"zip_code":"3830013","prefecture":"長野県","prefecture_kana":"ナガノケン","city":"中野市","city_kana":"ナカノシ","town":"中野","town_kana":"ナカノ","prefecture_code":20},"0051":{"zip_code":"3830051","prefecture":"長野県","prefecture_kana":"ナガノケン","city":"中野市","city_kana":"ナカノシ","town":"七瀬","town_kana":"ナナセ","prefecture_code":20},"0031":{"zip_code":"3830031","prefecture":"長野県","prefecture_kana":"ナガノケン","city":"中野市","city_kana":"ナカノシ","town":"南宮","town_kana":"ナングウ","prefecture_code":20},"0021":{"zip_code":"3830021","prefecture":"長野県","prefecture_kana":"ナガノケン","city":"中野市","city_kana":"ナカノシ","town":"西","town_kana":"ニシ","prefecture_code":20},"0042":{"zip_code":"3830042","prefecture":"長野県","prefecture_kana":"ナガノケン","city":"中野市","city_kana":"ナカノシ","town":"西条","town_kana":"ニシジョウ","prefecture_code":20},"0024":{"zip_code":"3830024","prefecture":"長野県","prefecture_kana":"ナガノケン","city":"中野市","city_kana":"ナカノシ","town":"東山","town_kana":"ヒガシヤマ","prefecture_code":20},"0006":{"zip_code":"3830006","prefecture":"長野県","prefecture_kana":"ナガノケン","city":"中野市","city_kana":"ナカノシ","town":"深沢","town_kana":"フカサワ","prefecture_code":20},"0061":{"zip_code":"3830061","prefecture":"長野県","prefecture_kana":"ナガノケン","city":"中野市","city_kana":"ナカノシ","town":"壁田","town_kana":"ヘキダ","prefecture_code":20},"0063":{"zip_code":"3830063","prefecture":"長野県","prefecture_kana":"ナガノケン","city":"中野市","city_kana":"ナカノシ","town":"間長瀬","town_kana":"マナガセ","prefecture_code":20},"0033":{"zip_code":"3830033","prefecture":"長野県","prefecture_kana":"ナガノケン","city":"中野市","city_kana":"ナカノシ","town":"間山","town_kana":"マヤマ","prefecture_code":20},"0043":{"zip_code":"3830043","prefecture":"長野県","prefecture_kana":"ナガノケン","city":"中野市","city_kana":"ナカノシ","town":"三ツ和","town_kana":"ミツワ","prefecture_code":20},"0025":{"zip_code":"3830025","prefecture":"長野県","prefecture_kana":"ナガノケン","city":"中野市","city_kana":"ナカノシ","town":"三好町","town_kana":"ミヨシチョウ","prefecture_code":20},"0003":{"zip_code":"3830003","prefecture":"長野県","prefecture_kana":"ナガノケン","city":"中野市","city_kana":"ナカノシ","town":"柳沢","town_kana":"ヤナギサワ","prefecture_code":20},"0015":{"zip_code":"3830015","prefecture":"長野県","prefecture_kana":"ナガノケン","city":"中野市","city_kana":"ナカノシ","town":"吉田","town_kana":"ヨシダ","prefecture_code":20},"0011":{"zip_code":"3830011","prefecture":"長野県","prefecture_kana":"ナガノケン","city":"中野市","city_kana":"ナカノシ","town":"若宮","town_kana":"ワカミヤ","prefecture_code":20}}