{"0000":{"zip_code":"3850000","prefecture":"長野県","prefecture_kana":"ナガノケン","city":"佐久市","city_kana":"サクシ","town":"以下に掲載がない場合","town_kana":"イカニケイサイガナイバアイ","prefecture_code":20},"0054":{"zip_code":"3850054","prefecture":"長野県","prefecture_kana":"ナガノケン","city":"佐久市","city_kana":"サクシ","town":"跡部","town_kana":"アトベ","prefecture_code":20},"0007":{"zip_code":"3850007","prefecture":"長野県","prefecture_kana":"ナガノケン","city":"佐久市","city_kana":"サクシ","town":"新子田","town_kana":"アラコダ","prefecture_code":20},"0015":{"zip_code":"3850015","prefecture":"長野県","prefecture_kana":"ナガノケン","city":"佐久市","city_kana":"サクシ","town":"今井","town_kana":"イマイ","prefecture_code":20},"0022":{"zip_code":"3850022","prefecture":"長野県","prefecture_kana":"ナガノケン","city":"佐久市","city_kana":"サクシ","town":"岩村田","town_kana":"イワムラダ","prefecture_code":20},"0023":{"zip_code":"3850023","prefecture":"長野県","prefecture_kana":"ナガノケン","city":"佐久市","city_kana":"サクシ","town":"岩村田北","town_kana":"イワムラダキタ","prefecture_code":20},"0031":{"zip_code":"3850031","prefecture":"長野県","prefecture_kana":"ナガノケン","city":"佐久市","city_kana":"サクシ","town":"内山","town_kana":"ウチヤマ","prefecture_code":20},"0045":{"zip_code":"3850045","prefecture":"長野県","prefecture_kana":"ナガノケン","city":"佐久市","city_kana":"サクシ","town":"大沢","town_kana":"オオサワ","prefecture_code":20},"0033":{"zip_code":"3850033","prefecture":"長野県","prefecture_kana":"ナガノケン","city":"佐久市","city_kana":"サクシ","town":"太田部","town_kana":"オオタベ","prefecture_code":20},"0009":{"zip_code":"3850009","prefecture":"長野県","prefecture_kana":"ナガノケン","city":"佐久市","city_kana":"サクシ","town":"小田井","town_kana":"オタイ","prefecture_code":20},"0041":{"zip_code":"3850041","prefecture":"長野県","prefecture_kana":"ナガノケン","city":"佐久市","city_kana":"サクシ","town":"鍛冶屋","town_kana":"カジヤ","prefecture_code":20},"0002":{"zip_code":"3850002","prefecture":"長野県","prefecture_kana":"ナガノケン","city":"佐久市","city_kana":"サクシ","town":"上平尾","town_kana":"カミヒラオ","prefecture_code":20},"0005":{"zip_code":"3850005","prefecture":"長野県","prefecture_kana":"ナガノケン","city":"佐久市","city_kana":"サクシ","town":"香坂","town_kana":"コウサカ","prefecture_code":20},"0047":{"zip_code":"3850047","prefecture":"長野県","prefecture_kana":"ナガノケン","city":"佐久市","city_kana":"サクシ","town":"小宮山","town_kana":"コミヤマ","prefecture_code":20},"0028":{"zip_code":"3850028","prefecture":"長野県","prefecture_kana":"ナガノケン","city":"佐久市","city_kana":"サクシ","town":"佐久平駅東","town_kana":"サクダイラエキヒガシ","prefecture_code":20},"0029":{"zip_code":"3850029","prefecture":"長野県","prefecture_kana":"ナガノケン","city":"佐久市","city_kana":"サクシ","town":"佐久平駅南","town_kana":"サクダイラエキミナミ","prefecture_code":20},"0027":{"zip_code":"3850027","prefecture":"長野県","prefecture_kana":"ナガノケン","city":"佐久市","city_kana":"サクシ","town":"佐久平駅北","town_kana":"サクダイラエキキタ","prefecture_code":20},"0056":{"zip_code":"3850056","prefecture":"長野県","prefecture_kana":"ナガノケン","city":"佐久市","city_kana":"サクシ","town":"桜井","town_kana":"サクライ","prefecture_code":20},"0011":{"zip_code":"3850011","prefecture":"長野県","prefecture_kana":"ナガノケン","city":"佐久市","city_kana":"サクシ","town":"猿久保","town_kana":"サルクボ","prefecture_code":20},"0006":{"zip_code":"3850006","prefecture":"長野県","prefecture_kana":"ナガノケン","city":"佐久市","city_kana":"サクシ","town":"志賀","town_kana":"シガ","prefecture_code":20},"0003":{"zip_code":"3850003","prefecture":"長野県","prefecture_kana":"ナガノケン","city":"佐久市","city_kana":"サクシ","town":"下平尾","town_kana":"シモヒラオ","prefecture_code":20},"0035":{"zip_code":"3850035","prefecture":"長野県","prefecture_kana":"ナガノケン","city":"佐久市","city_kana":"サクシ","town":"瀬戸","town_kana":"セト","prefecture_code":20},"0042":{"zip_code":"3850042","prefecture":"長野県","prefecture_kana":"ナガノケン","city":"佐久市","city_kana":"サクシ","town":"高柳","town_kana":"タカヤギ","prefecture_code":20},"0025":{"zip_code":"3850025","prefecture":"長野県","prefecture_kana":"ナガノケン","city":"佐久市","city_kana":"サクシ","town":"塚原","town_kana":"ツカバラ","prefecture_code":20},"0026":{"zip_code":"3850026","prefecture":"長野県","prefecture_kana":"ナガノケン","city":"佐久市","city_kana":"サクシ","town":"常田","town_kana":"トキダ","prefecture_code":20},"0032":{"zip_code":"3850032","prefecture":"長野県","prefecture_kana":"ナガノケン","city":"佐久市","city_kana":"サクシ","town":"常和","town_kana":"トキワ","prefecture_code":20},"0061":{"zip_code":"3850061","prefecture":"長野県","prefecture_kana":"ナガノケン","city":"佐久市","city_kana":"サクシ","town":"伴野","town_kana":"トモノ","prefecture_code":20},"0043":{"zip_code":"3850043","prefecture":"長野県","prefecture_kana":"ナガノケン","city":"佐久市","city_kana":"サクシ","town":"取出町","town_kana":"トリデマチ","prefecture_code":20},"0051":{"zip_code":"3850051","prefecture":"長野県","prefecture_kana":"ナガノケン","city":"佐久市","city_kana":"サクシ","town":"中込","town_kana":"ナカゴミ","prefecture_code":20},"0021":{"zip_code":"3850021","prefecture":"長野県","prefecture_kana":"ナガノケン","city":"佐久市","city_kana":"サクシ","town":"長土呂","town_kana":"ナガトロ","prefecture_code":20},"0016":{"zip_code":"3850016","prefecture":"長野県","prefecture_kana":"ナガノケン","city":"佐久市","city_kana":"サクシ","town":"鳴瀬","town_kana":"ナルセ","prefecture_code":20},"0062":{"zip_code":"3850062","prefecture":"長野県","prefecture_kana":"ナガノケン","city":"佐久市","city_kana":"サクシ","town":"根岸","town_kana":"ネギシ","prefecture_code":20},"0012":{"zip_code":"3850012","prefecture":"長野県","prefecture_kana":"ナガノケン","city":"佐久市","city_kana":"サクシ","town":"根々井","town_kana":"ネネイ","prefecture_code":20},"0053":{"zip_code":"3850053","prefecture":"長野県","prefecture_kana":"ナガノケン","city":"佐久市","city_kana":"サクシ","town":"野沢","town_kana":"ノザワ","prefecture_code":20},"0052":{"zip_code":"3850052","prefecture":"長野県","prefecture_kana":"ナガノケン","city":"佐久市","city_kana":"サクシ","town":"原","town_kana":"ハラ","prefecture_code":20},"0063":{"zip_code":"3850063","prefecture":"長野県","prefecture_kana":"ナガノケン","city":"佐久市","city_kana":"サクシ","town":"東立科","town_kana":"ヒガシタテシナ","prefecture_code":20},"0034":{"zip_code":"3850034","prefecture":"長野県","prefecture_kana":"ナガノケン","city":"佐久市","city_kana":"サクシ","town":"平賀","town_kana":"ヒラカ","prefecture_code":20},"0024":{"zip_code":"3850024","prefecture":"長野県","prefecture_kana":"ナガノケン","city":"佐久市","city_kana":"サクシ","town":"平塚","town_kana":"ヒラツカ","prefecture_code":20},"0044":{"zip_code":"3850044","prefecture":"長野県","prefecture_kana":"ナガノケン","city":"佐久市","city_kana":"サクシ","town":"本新町","town_kana":"ホンシンマチ","prefecture_code":20},"0046":{"zip_code":"3850046","prefecture":"長野県","prefecture_kana":"ナガノケン","city":"佐久市","city_kana":"サクシ","town":"前山","town_kana":"マエヤマ","prefecture_code":20},"0014":{"zip_code":"3850014","prefecture":"長野県","prefecture_kana":"ナガノケン","city":"佐久市","city_kana":"サクシ","town":"三河田","town_kana":"ミカワダ","prefecture_code":20},"0055":{"zip_code":"3850055","prefecture":"長野県","prefecture_kana":"ナガノケン","city":"佐久市","city_kana":"サクシ","town":"三塚","town_kana":"ミチヅカ","prefecture_code":20},"0004":{"zip_code":"3850004","prefecture":"長野県","prefecture_kana":"ナガノケン","city":"佐久市","city_kana":"サクシ","town":"安原","town_kana":"ヤスハラ","prefecture_code":20},"0001":{"zip_code":"3850001","prefecture":"長野県","prefecture_kana":"ナガノケン","city":"佐久市","city_kana":"サクシ","town":"横根","town_kana":"ヨコネ","prefecture_code":20},"0013":{"zip_code":"3850013","prefecture":"長野県","prefecture_kana":"ナガノケン","city":"佐久市","city_kana":"サクシ","town":"横和","town_kana":"ヨコワ","prefecture_code":20}}