{"0000":{"zip_code":"3860000","prefecture":"長野県","prefecture_kana":"ナガノケン","city":"上田市","city_kana":"ウエダシ","town":"","town_kana":"","prefecture_code":20},"0155":{"zip_code":"3860155","prefecture":"長野県","prefecture_kana":"ナガノケン","city":"上田市","city_kana":"ウエダシ","town":"蒼久保","town_kana":"アオクボ","prefecture_code":20},"0041":{"zip_code":"3860041","prefecture":"長野県","prefecture_kana":"ナガノケン","city":"上田市","city_kana":"ウエダシ","town":"秋和","town_kana":"アキワ","prefecture_code":20},"0411":{"zip_code":"3860411","prefecture":"長野県","prefecture_kana":"ナガノケン","city":"上田市","city_kana":"ウエダシ","town":"生田","town_kana":"イクタ","prefecture_code":20},"0153":{"zip_code":"3860153","prefecture":"長野県","prefecture_kana":"ナガノケン","city":"上田市","city_kana":"ウエダシ","town":"岩下","town_kana":"イワシタ","prefecture_code":20},"0001":{"zip_code":"3860001","prefecture":"長野県","prefecture_kana":"ナガノケン","city":"上田市","city_kana":"ウエダシ","town":"上田","town_kana":"ウエダ","prefecture_code":20},"1102":{"zip_code":"3861102","prefecture":"長野県","prefecture_kana":"ナガノケン","city":"上田市","city_kana":"ウエダシ","town":"上田原","town_kana":"ウエダハラ","prefecture_code":20},"0003":{"zip_code":"3860003","prefecture":"長野県","prefecture_kana":"ナガノケン","city":"上田市","city_kana":"ウエダシ","town":"上野","town_kana":"ウエノ","prefecture_code":20},"1546":{"zip_code":"3861546","prefecture":"長野県","prefecture_kana":"ナガノケン","city":"上田市","city_kana":"ウエダシ","town":"浦野","town_kana":"ウラノ","prefecture_code":20},"0006":{"zip_code":"3860006","prefecture":"長野県","prefecture_kana":"ナガノケン","city":"上田市","city_kana":"ウエダシ","town":"漆戸","town_kana":"ウルシド","prefecture_code":20},"0024":{"zip_code":"3860024","prefecture":"長野県","prefecture_kana":"ナガノケン","city":"上田市","city_kana":"ウエダシ","town":"大手","town_kana":"オオテ","prefecture_code":20},"0152":{"zip_code":"3860152","prefecture":"長野県","prefecture_kana":"ナガノケン","city":"上田市","city_kana":"ウエダシ","town":"大屋","town_kana":"オオヤ","prefecture_code":20},"1543":{"zip_code":"3861543","prefecture":"長野県","prefecture_kana":"ナガノケン","city":"上田市","city_kana":"ウエダシ","town":"岡","town_kana":"オカ","prefecture_code":20},"0323":{"zip_code":"3860323","prefecture":"長野県","prefecture_kana":"ナガノケン","city":"上田市","city_kana":"ウエダシ","town":"鹿教湯温泉","town_kana":"カケユオンセン","prefecture_code":20},"1103":{"zip_code":"3861103","prefecture":"長野県","prefecture_kana":"ナガノケン","city":"上田市","city_kana":"ウエダシ","town":"神畑","town_kana":"カバタケ","prefecture_code":20},"1108":{"zip_code":"3861108","prefecture":"長野県","prefecture_kana":"ナガノケン","city":"上田市","city_kana":"ウエダシ","town":"神畑乙","town_kana":"カバタケオツ","prefecture_code":20},"0042":{"zip_code":"3860042","prefecture":"長野県","prefecture_kana":"ナガノケン","city":"上田市","city_kana":"ウエダシ","town":"上塩尻","town_kana":"カミシオジリ","prefecture_code":20},"0508":{"zip_code":"3860508","prefecture":"長野県","prefecture_kana":"ナガノケン","city":"上田市","city_kana":"ウエダシ","town":"上武石","town_kana":"カミタケシ","prefecture_code":20},"0404":{"zip_code":"3860404","prefecture":"長野県","prefecture_kana":"ナガノケン","city":"上田市","city_kana":"ウエダシ","town":"上丸子","town_kana":"カミマルコ","prefecture_code":20},"1541":{"zip_code":"3861541","prefecture":"長野県","prefecture_kana":"ナガノケン","city":"上田市","city_kana":"ウエダシ","town":"上室賀","town_kana":"カミムロガ","prefecture_code":20},"1213":{"zip_code":"3861213","prefecture":"長野県","prefecture_kana":"ナガノケン","city":"上田市","city_kana":"ウエダシ","town":"古安曽","town_kana":"コアソ","prefecture_code":20},"1106":{"zip_code":"3861106","prefecture":"長野県","prefecture_kana":"ナガノケン","city":"上田市","city_kana":"ウエダシ","town":"小泉","town_kana":"コイズミ","prefecture_code":20},"1545":{"zip_code":"3861545","prefecture":"長野県","prefecture_kana":"ナガノケン","city":"上田市","city_kana":"ウエダシ","town":"越戸","town_kana":"コウド","prefecture_code":20},"1324":{"zip_code":"3861324","prefecture":"長野県","prefecture_kana":"ナガノケン","city":"上田市","city_kana":"ウエダシ","town":"五加","town_kana":"ゴカ","prefecture_code":20},"0016":{"zip_code":"3860016","prefecture":"長野県","prefecture_kana":"ナガノケン","city":"上田市","city_kana":"ウエダシ","town":"国分","town_kana":"コクブ","prefecture_code":20},"0005":{"zip_code":"3860005","prefecture":"長野県","prefecture_kana":"ナガノケン","city":"上田市","city_kana":"ウエダシ","town":"古里","town_kana":"コサト","prefecture_code":20},"0403":{"zip_code":"3860403","prefecture":"長野県","prefecture_kana":"ナガノケン","city":"上田市","city_kana":"ウエダシ","town":"腰越","town_kana":"コシゴエ","prefecture_code":20},"1322":{"zip_code":"3861322","prefecture":"長野県","prefecture_kana":"ナガノケン","city":"上田市","city_kana":"ウエダシ","town":"小島","town_kana":"コジマ","prefecture_code":20},"0033":{"zip_code":"3860033","prefecture":"長野県","prefecture_kana":"ナガノケン","city":"上田市","city_kana":"ウエダシ","town":"御所","town_kana":"ゴショ","prefecture_code":20},"0031":{"zip_code":"3860031","prefecture":"長野県","prefecture_kana":"ナガノケン","city":"上田市","city_kana":"ウエダシ","town":"小牧","town_kana":"コマキ","prefecture_code":20},"0014":{"zip_code":"3860014","prefecture":"長野県","prefecture_kana":"ナガノケン","city":"上田市","city_kana":"ウエダシ","town":"材木町","town_kana":"ザイモクチョウ","prefecture_code":20},"2201":{"zip_code":"3862201","prefecture":"長野県","prefecture_kana":"ナガノケン","city":"上田市","city_kana":"ウエダシ","town":"真田町長","town_kana":"サナダマチオサ","prefecture_code":20},"2203":{"zip_code":"3862203","prefecture":"長野県","prefecture_kana":"ナガノケン","city":"上田市","city_kana":"ウエダシ","town":"真田町傍陽","town_kana":"サナダマチソエヒ","prefecture_code":20},"2202":{"zip_code":"3862202","prefecture":"長野県","prefecture_kana":"ナガノケン","city":"上田市","city_kana":"ウエダシ","town":"真田町本原","town_kana":"サナダマチモトハラ","prefecture_code":20},"0401":{"zip_code":"3860401","prefecture":"長野県","prefecture_kana":"ナガノケン","city":"上田市","city_kana":"ウエダシ","town":"塩川","town_kana":"シオカワ","prefecture_code":20},"0043":{"zip_code":"3860043","prefecture":"長野県","prefecture_kana":"ナガノケン","city":"上田市","city_kana":"ウエダシ","town":"下塩尻","town_kana":"シモシオジリ","prefecture_code":20},"0503":{"zip_code":"3860503","prefecture":"長野県","prefecture_kana":"ナガノケン","city":"上田市","city_kana":"ウエダシ","town":"下武石","town_kana":"シモタケシ","prefecture_code":20},"1211":{"zip_code":"3861211","prefecture":"長野県","prefecture_kana":"ナガノケン","city":"上田市","city_kana":"ウエダシ","town":"下之郷","town_kana":"シモノゴウ","prefecture_code":20},"1214":{"zip_code":"3861214","prefecture":"長野県","prefecture_kana":"ナガノケン","city":"上田市","city_kana":"ウエダシ","town":"下之郷乙","town_kana":"シモノゴウオツ","prefecture_code":20},"1101":{"zip_code":"3861101","prefecture":"長野県","prefecture_kana":"ナガノケン","city":"上田市","city_kana":"ウエダシ","town":"下之条","town_kana":"シモノジョウ","prefecture_code":20},"0406":{"zip_code":"3860406","prefecture":"長野県","prefecture_kana":"ナガノケン","city":"上田市","city_kana":"ウエダシ","town":"下丸子","town_kana":"シモマルコ","prefecture_code":20},"1542":{"zip_code":"3861542","prefecture":"長野県","prefecture_kana":"ナガノケン","city":"上田市","city_kana":"ウエダシ","town":"下室賀","town_kana":"シモムロガ","prefecture_code":20},"1435":{"zip_code":"3861435","prefecture":"長野県","prefecture_kana":"ナガノケン","city":"上田市","city_kana":"ウエダシ","town":"十人","town_kana":"ジュウニン","prefecture_code":20},"1434":{"zip_code":"3861434","prefecture":"長野県","prefecture_kana":"ナガノケン","city":"上田市","city_kana":"ウエダシ","town":"新町","town_kana":"シンマチ","prefecture_code":20},"2204":{"zip_code":"3862204","prefecture":"長野県","prefecture_kana":"ナガノケン","city":"上田市","city_kana":"ウエダシ","town":"菅平高原","town_kana":"スガダイラコウゲン","prefecture_code":20},"0002":{"zip_code":"3860002","prefecture":"長野県","prefecture_kana":"ナガノケン","city":"上田市","city_kana":"ウエダシ","town":"住吉","town_kana":"スミヨシ","prefecture_code":20},"0032":{"zip_code":"3860032","prefecture":"長野県","prefecture_kana":"ナガノケン","city":"上田市","city_kana":"ウエダシ","town":"諏訪形","town_kana":"スワガタ","prefecture_code":20},"0502":{"zip_code":"3860502","prefecture":"長野県","prefecture_kana":"ナガノケン","city":"上田市","city_kana":"ウエダシ","town":"武石沖","town_kana":"タケシオキ","prefecture_code":20},"0504":{"zip_code":"3860504","prefecture":"長野県","prefecture_kana":"ナガノケン","city":"上田市","city_kana":"ウエダシ","town":"武石小沢根","town_kana":"タケシオザワネ","prefecture_code":20},"0507":{"zip_code":"3860507","prefecture":"長野県","prefecture_kana":"ナガノケン","city":"上田市","city_kana":"ウエダシ","town":"武石上本入","town_kana":"タケシカミホンイリ","prefecture_code":20},"0506":{"zip_code":"3860506","prefecture":"長野県","prefecture_kana":"ナガノケン","city":"上田市","city_kana":"ウエダシ","town":"武石下本入","town_kana":"タケシシモホンイリ","prefecture_code":20},"0501":{"zip_code":"3860501","prefecture":"長野県","prefecture_kana":"ナガノケン","city":"上田市","city_kana":"ウエダシ","town":"武石鳥屋","town_kana":"タケシトヤ","prefecture_code":20},"0505":{"zip_code":"3860505","prefecture":"長野県","prefecture_kana":"ナガノケン","city":"上田市","city_kana":"ウエダシ","town":"武石余里","town_kana":"タケシヨリ","prefecture_code":20},"0012":{"zip_code":"3860012","prefecture":"長野県","prefecture_kana":"ナガノケン","city":"上田市","city_kana":"ウエダシ","town":"中央","town_kana":"チュウオウ","prefecture_code":20},"0013":{"zip_code":"3860013","prefecture":"長野県","prefecture_kana":"ナガノケン","city":"上田市","city_kana":"ウエダシ","town":"中央東","town_kana":"チュウオウヒガシ","prefecture_code":20},"0023":{"zip_code":"3860023","prefecture":"長野県","prefecture_kana":"ナガノケン","city":"上田市","city_kana":"ウエダシ","town":"中央西","town_kana":"チュウオウニシ","prefecture_code":20},"0011":{"zip_code":"3860011","prefecture":"長野県","prefecture_kana":"ナガノケン","city":"上田市","city_kana":"ウエダシ","town":"中央北","town_kana":"チュウオウキタ","prefecture_code":20},"1107":{"zip_code":"3861107","prefecture":"長野県","prefecture_kana":"ナガノケン","city":"上田市","city_kana":"ウエダシ","town":"築地","town_kana":"ツイジ","prefecture_code":20},"1433":{"zip_code":"3861433","prefecture":"長野県","prefecture_kana":"ナガノケン","city":"上田市","city_kana":"ウエダシ","town":"手塚","town_kana":"テヅカ","prefecture_code":20},"0025":{"zip_code":"3860025","prefecture":"長野県","prefecture_kana":"ナガノケン","city":"上田市","city_kana":"ウエダシ","town":"天神","town_kana":"テンジン","prefecture_code":20},"0015":{"zip_code":"3860015","prefecture":"長野県","prefecture_kana":"ナガノケン","city":"上田市","city_kana":"ウエダシ","town":"常入","town_kana":"トキイリ","prefecture_code":20},"0018":{"zip_code":"3860018","prefecture":"長野県","prefecture_kana":"ナガノケン","city":"上田市","city_kana":"ウエダシ","town":"常田","town_kana":"トキダ","prefecture_code":20},"0027":{"zip_code":"3860027","prefecture":"長野県","prefecture_kana":"ナガノケン","city":"上田市","city_kana":"ウエダシ","town":"常磐城","town_kana":"トキワギ","prefecture_code":20},"0004":{"zip_code":"3860004","prefecture":"長野県","prefecture_kana":"ナガノケン","city":"上田市","city_kana":"ウエダシ","town":"殿城","town_kana":"トノシロ","prefecture_code":20},"0407":{"zip_code":"3860407","prefecture":"長野県","prefecture_kana":"ナガノケン","city":"上田市","city_kana":"ウエダシ","town":"長瀬","town_kana":"ナガセ","prefecture_code":20},"1325":{"zip_code":"3861325","prefecture":"長野県","prefecture_kana":"ナガノケン","city":"上田市","city_kana":"ウエダシ","town":"中野","town_kana":"ナカノ","prefecture_code":20},"0034":{"zip_code":"3860034","prefecture":"長野県","prefecture_kana":"ナガノケン","city":"上田市","city_kana":"ウエダシ","town":"中之条","town_kana":"ナカノジョウ","prefecture_code":20},"0405":{"zip_code":"3860405","prefecture":"長野県","prefecture_kana":"ナガノケン","city":"上田市","city_kana":"ウエダシ","town":"中丸子","town_kana":"ナカマルコ","prefecture_code":20},"1544":{"zip_code":"3861544","prefecture":"長野県","prefecture_kana":"ナガノケン","city":"上田市","city_kana":"ウエダシ","town":"仁古田","town_kana":"ニコダ","prefecture_code":20},"0322":{"zip_code":"3860322","prefecture":"長野県","prefecture_kana":"ナガノケン","city":"上田市","city_kana":"ウエダシ","town":"西内","town_kana":"ニシウチ","prefecture_code":20},"0026":{"zip_code":"3860026","prefecture":"長野県","prefecture_kana":"ナガノケン","city":"上田市","city_kana":"ウエダシ","town":"二の丸","town_kana":"ニノマル","prefecture_code":20},"1437":{"zip_code":"3861437","prefecture":"長野県","prefecture_kana":"ナガノケン","city":"上田市","city_kana":"ウエダシ","town":"野倉","town_kana":"ノグラ","prefecture_code":20},"0156":{"zip_code":"3860156","prefecture":"長野県","prefecture_kana":"ナガノケン","city":"上田市","city_kana":"ウエダシ","town":"林之郷","town_kana":"ハヤシノゴウ","prefecture_code":20},"0413":{"zip_code":"3860413","prefecture":"長野県","prefecture_kana":"ナガノケン","city":"上田市","city_kana":"ウエダシ","town":"東内","town_kana":"ヒガシウチ","prefecture_code":20},"0321":{"zip_code":"3860321","prefecture":"長野県","prefecture_kana":"ナガノケン","city":"上田市","city_kana":"ウエダシ","town":"平井","town_kana":"ヒライ","prefecture_code":20},"1104":{"zip_code":"3861104","prefecture":"長野県","prefecture_kana":"ナガノケン","city":"上田市","city_kana":"ウエダシ","town":"福田","town_kana":"フクタ","prefecture_code":20},"1212":{"zip_code":"3861212","prefecture":"長野県","prefecture_kana":"ナガノケン","city":"上田市","city_kana":"ウエダシ","town":"富士山","town_kana":"フジヤマ","prefecture_code":20},"0402":{"zip_code":"3860402","prefecture":"長野県","prefecture_kana":"ナガノケン","city":"上田市","city_kana":"ウエダシ","town":"藤原田","town_kana":"フジワラダ","prefecture_code":20},"0017":{"zip_code":"3860017","prefecture":"長野県","prefecture_kana":"ナガノケン","city":"上田市","city_kana":"ウエダシ","town":"踏入","town_kana":"フミイリ","prefecture_code":20},"1431":{"zip_code":"3861431","prefecture":"長野県","prefecture_kana":"ナガノケン","city":"上田市","city_kana":"ウエダシ","town":"別所温泉","town_kana":"ベッショオンセン","prefecture_code":20},"1321":{"zip_code":"3861321","prefecture":"長野県","prefecture_kana":"ナガノケン","city":"上田市","city_kana":"ウエダシ","town":"保野","town_kana":"ホヤ","prefecture_code":20},"1323":{"zip_code":"3861323","prefecture":"長野県","prefecture_kana":"ナガノケン","city":"上田市","city_kana":"ウエダシ","town":"本郷","town_kana":"ホンゴウ","prefecture_code":20},"1326":{"zip_code":"3861326","prefecture":"長野県","prefecture_kana":"ナガノケン","city":"上田市","city_kana":"ウエダシ","town":"舞田","town_kana":"マイタ","prefecture_code":20},"1436":{"zip_code":"3861436","prefecture":"長野県","prefecture_kana":"ナガノケン","city":"上田市","city_kana":"ウエダシ","town":"前山","town_kana":"マエヤマ","prefecture_code":20},"0412":{"zip_code":"3860412","prefecture":"長野県","prefecture_kana":"ナガノケン","city":"上田市","city_kana":"ウエダシ","town":"御嶽堂","town_kana":"ミタケドウ","prefecture_code":20},"0022":{"zip_code":"3860022","prefecture":"長野県","prefecture_kana":"ナガノケン","city":"上田市","city_kana":"ウエダシ","town":"緑が丘","town_kana":"ミドリガオカ","prefecture_code":20},"0408":{"zip_code":"3860408","prefecture":"長野県","prefecture_kana":"ナガノケン","city":"上田市","city_kana":"ウエダシ","town":"本海野","town_kana":"モトウンノ","prefecture_code":20},"1327":{"zip_code":"3861327","prefecture":"長野県","prefecture_kana":"ナガノケン","city":"上田市","city_kana":"ウエダシ","town":"八木沢","town_kana":"ヤギサワ","prefecture_code":20},"1432":{"zip_code":"3861432","prefecture":"長野県","prefecture_kana":"ナガノケン","city":"上田市","city_kana":"ウエダシ","town":"山田","town_kana":"ヤマダ","prefecture_code":20},"0151":{"zip_code":"3860151","prefecture":"長野県","prefecture_kana":"ナガノケン","city":"上田市","city_kana":"ウエダシ","town":"芳田","town_kana":"ヨシダ","prefecture_code":20},"1105":{"zip_code":"3861105","prefecture":"長野県","prefecture_kana":"ナガノケン","city":"上田市","city_kana":"ウエダシ","town":"吉田","town_kana":"ヨシダ","prefecture_code":20},"2211":{"zip_code":"3862211","prefecture":"長野県","prefecture_kana":"ナガノケン","city":"須坂市","city_kana":"スザカシ","town":"仁礼町","town_kana":"ニレイマチ","prefecture_code":20},"1600":{"zip_code":"3861600","prefecture":"長野県","prefecture_kana":"ナガノケン","city":"小県郡青木村","city_kana":"チイサガタグンアオキムラ","town":"","town_kana":"","prefecture_code":20},"1605":{"zip_code":"3861605","prefecture":"長野県","prefecture_kana":"ナガノケン","city":"小県郡青木村","city_kana":"チイサガタグンアオキムラ","town":"夫神","town_kana":"オカミ","prefecture_code":20},"1606":{"zip_code":"3861606","prefecture":"長野県","prefecture_kana":"ナガノケン","city":"小県郡青木村","city_kana":"チイサガタグンアオキムラ","town":"沓掛","town_kana":"クツカケ","prefecture_code":20},"1601":{"zip_code":"3861601","prefecture":"長野県","prefecture_kana":"ナガノケン","city":"小県郡青木村","city_kana":"チイサガタグンアオキムラ","town":"田沢","town_kana":"タザワ","prefecture_code":20},"1603":{"zip_code":"3861603","prefecture":"長野県","prefecture_kana":"ナガノケン","city":"小県郡青木村","city_kana":"チイサガタグンアオキムラ","town":"当郷","town_kana":"トウゴウ","prefecture_code":20},"1604":{"zip_code":"3861604","prefecture":"長野県","prefecture_kana":"ナガノケン","city":"小県郡青木村","city_kana":"チイサガタグンアオキムラ","town":"殿戸","town_kana":"トノド","prefecture_code":20},"1607":{"zip_code":"3861607","prefecture":"長野県","prefecture_kana":"ナガノケン","city":"小県郡青木村","city_kana":"チイサガタグンアオキムラ","town":"奈良本","town_kana":"ナラモト","prefecture_code":20},"1602":{"zip_code":"3861602","prefecture":"長野県","prefecture_kana":"ナガノケン","city":"小県郡青木村","city_kana":"チイサガタグンアオキムラ","town":"村松","town_kana":"ムラマツ","prefecture_code":20},"0600":{"zip_code":"3860600","prefecture":"長野県","prefecture_kana":"ナガノケン","city":"小県郡長和町","city_kana":"チイサガタグンナガワマチ","town":"","town_kana":"","prefecture_code":20},"0601":{"zip_code":"3860601","prefecture":"長野県","prefecture_kana":"ナガノケン","city":"小県郡長和町","city_kana":"チイサガタグンナガワマチ","town":"大門","town_kana":"ダイモン","prefecture_code":20},"0602":{"zip_code":"3860602","prefecture":"長野県","prefecture_kana":"ナガノケン","city":"小県郡長和町","city_kana":"チイサガタグンナガワマチ","town":"長久保","town_kana":"ナガクボ","prefecture_code":20},"0603":{"zip_code":"3860603","prefecture":"長野県","prefecture_kana":"ナガノケン","city":"小県郡長和町","city_kana":"チイサガタグンナガワマチ","town":"古町","town_kana":"フルマチ","prefecture_code":20},"0701":{"zip_code":"3860701","prefecture":"長野県","prefecture_kana":"ナガノケン","city":"小県郡長和町","city_kana":"チイサガタグンナガワマチ","town":"和田","town_kana":"ワダ","prefecture_code":20}}