{"0000":{"zip_code":"3920000","prefecture":"長野県","prefecture_kana":"ナガノケン","city":"諏訪市","city_kana":"スワシ","town":"","town_kana":"","prefecture_code":20},"0011":{"zip_code":"3920011","prefecture":"長野県","prefecture_kana":"ナガノケン","city":"諏訪市","city_kana":"スワシ","town":"赤羽根","town_kana":"アカハネ","prefecture_code":20},"0026":{"zip_code":"3920026","prefecture":"長野県","prefecture_kana":"ナガノケン","city":"諏訪市","city_kana":"スワシ","town":"大手","town_kana":"オオテ","prefecture_code":20},"0005":{"zip_code":"3920005","prefecture":"長野県","prefecture_kana":"ナガノケン","city":"諏訪市","city_kana":"スワシ","town":"岡村","town_kana":"オカムラ","prefecture_code":20},"0013":{"zip_code":"3920013","prefecture":"長野県","prefecture_kana":"ナガノケン","city":"諏訪市","city_kana":"スワシ","town":"沖田町","town_kana":"オキタマチ","prefecture_code":20},"0001":{"zip_code":"3920001","prefecture":"長野県","prefecture_kana":"ナガノケン","city":"諏訪市","city_kana":"スワシ","town":"大和","town_kana":"オワ","prefecture_code":20},"0021":{"zip_code":"3920021","prefecture":"長野県","prefecture_kana":"ナガノケン","city":"諏訪市","city_kana":"スワシ","town":"上川","town_kana":"カミガワ","prefecture_code":20},"0003":{"zip_code":"3920003","prefecture":"長野県","prefecture_kana":"ナガノケン","city":"諏訪市","city_kana":"スワシ","town":"上諏訪","town_kana":"カミスワ","prefecture_code":20},"0008":{"zip_code":"3920008","prefecture":"長野県","prefecture_kana":"ナガノケン","city":"諏訪市","city_kana":"スワシ","town":"霧ケ峰","town_kana":"キリガミネ","prefecture_code":20},"0027":{"zip_code":"3920027","prefecture":"長野県","prefecture_kana":"ナガノケン","city":"諏訪市","city_kana":"スワシ","town":"湖岸通り","town_kana":"コガンドオリ","prefecture_code":20},"0131":{"zip_code":"3920131","prefecture":"長野県","prefecture_kana":"ナガノケン","city":"諏訪市","city_kana":"スワシ","town":"湖南","town_kana":"コナミ","prefecture_code":20},"0024":{"zip_code":"3920024","prefecture":"長野県","prefecture_kana":"ナガノケン","city":"諏訪市","city_kana":"スワシ","town":"小和田","town_kana":"コワタ","prefecture_code":20},"0023":{"zip_code":"3920023","prefecture":"長野県","prefecture_kana":"ナガノケン","city":"諏訪市","city_kana":"スワシ","town":"小和田南","town_kana":"コワタミナミ","prefecture_code":20},"0012":{"zip_code":"3920012","prefecture":"長野県","prefecture_kana":"ナガノケン","city":"諏訪市","city_kana":"スワシ","town":"四賀","town_kana":"シガ","prefecture_code":20},"0010":{"zip_code":"3920010","prefecture":"長野県","prefecture_kana":"ナガノケン","city":"諏訪市","city_kana":"スワシ","town":"渋崎","town_kana":"シブサキ","prefecture_code":20},"0007":{"zip_code":"3920007","prefecture":"長野県","prefecture_kana":"ナガノケン","city":"諏訪市","city_kana":"スワシ","town":"清水","town_kana":"シミズ","prefecture_code":20},"0017":{"zip_code":"3920017","prefecture":"長野県","prefecture_kana":"ナガノケン","city":"諏訪市","city_kana":"スワシ","town":"城南","town_kana":"ジョウナン","prefecture_code":20},"0025":{"zip_code":"3920025","prefecture":"長野県","prefecture_kana":"ナガノケン","city":"諏訪市","city_kana":"スワシ","town":"末広","town_kana":"スエヒロ","prefecture_code":20},"0009":{"zip_code":"3920009","prefecture":"長野県","prefecture_kana":"ナガノケン","city":"諏訪市","city_kana":"スワシ","town":"杉菜池","town_kana":"スギナイケ","prefecture_code":20},"0004":{"zip_code":"3920004","prefecture":"長野県","prefecture_kana":"ナガノケン","city":"諏訪市","city_kana":"スワシ","town":"諏訪","town_kana":"スワ","prefecture_code":20},"0022":{"zip_code":"3920022","prefecture":"長野県","prefecture_kana":"ナガノケン","city":"諏訪市","city_kana":"スワシ","town":"高島","town_kana":"タカシマ","prefecture_code":20},"0016":{"zip_code":"3920016","prefecture":"長野県","prefecture_kana":"ナガノケン","city":"諏訪市","city_kana":"スワシ","town":"豊田","town_kana":"トヨダ","prefecture_code":20},"0015":{"zip_code":"3920015","prefecture":"長野県","prefecture_kana":"ナガノケン","city":"諏訪市","city_kana":"スワシ","town":"中洲","town_kana":"ナカス","prefecture_code":20},"0014":{"zip_code":"3920014","prefecture":"長野県","prefecture_kana":"ナガノケン","city":"諏訪市","city_kana":"スワシ","town":"南町","town_kana":"ミナミマチ","prefecture_code":20},"0006":{"zip_code":"3920006","prefecture":"長野県","prefecture_kana":"ナガノケン","city":"諏訪市","city_kana":"スワシ","town":"元町","town_kana":"モトマチ","prefecture_code":20},"0002":{"zip_code":"3920002","prefecture":"長野県","prefecture_kana":"ナガノケン","city":"諏訪市","city_kana":"スワシ","town":"湯の脇","town_kana":"ユノワキ","prefecture_code":20}}