{"0000":{"zip_code":"3930000","prefecture":"長野県","prefecture_kana":"ナガノケン","city":"諏訪郡下諏訪町","city_kana":"スワグンシモスワマチ","town":"以下に掲載がない場合","town_kana":"イカニケイサイガナイバアイ","prefecture_code":20},"0066":{"zip_code":"3930066","prefecture":"長野県","prefecture_kana":"ナガノケン","city":"諏訪郡下諏訪町","city_kana":"スワグンシモスワマチ","town":"曙町","town_kana":"アケボノチョウ","prefecture_code":20},"0068":{"zip_code":"3930068","prefecture":"長野県","prefecture_kana":"ナガノケン","city":"諏訪郡下諏訪町","city_kana":"スワグンシモスワマチ","town":"春日町","town_kana":"カスガチョウ","prefecture_code":20},"0052":{"zip_code":"3930052","prefecture":"長野県","prefecture_kana":"ナガノケン","city":"諏訪郡下諏訪町","city_kana":"スワグンシモスワマチ","town":"上久保","town_kana":"カミクボ","prefecture_code":20},"0053":{"zip_code":"3930053","prefecture":"長野県","prefecture_kana":"ナガノケン","city":"諏訪郡下諏訪町","city_kana":"スワグンシモスワマチ","town":"上馬場","town_kana":"カミバッパ","prefecture_code":20},"0042":{"zip_code":"3930042","prefecture":"長野県","prefecture_kana":"ナガノケン","city":"諏訪郡下諏訪町","city_kana":"スワグンシモスワマチ","town":"北四王","town_kana":"キタシオウ","prefecture_code":20},"0014":{"zip_code":"3930014","prefecture":"長野県","prefecture_kana":"ナガノケン","city":"諏訪郡下諏訪町","city_kana":"スワグンシモスワマチ","town":"木の下","town_kana":"キノシタ","prefecture_code":20},"0026":{"zip_code":"3930026","prefecture":"長野県","prefecture_kana":"ナガノケン","city":"諏訪郡下諏訪町","city_kana":"スワグンシモスワマチ","town":"久保海道","town_kana":"クボカイドウ","prefecture_code":20},"0024":{"zip_code":"3930024","prefecture":"長野県","prefecture_kana":"ナガノケン","city":"諏訪郡下諏訪町","city_kana":"スワグンシモスワマチ","town":"五官","town_kana":"ゴカン","prefecture_code":20},"0044":{"zip_code":"3930044","prefecture":"長野県","prefecture_kana":"ナガノケン","city":"諏訪郡下諏訪町","city_kana":"スワグンシモスワマチ","town":"湖畔町","town_kana":"コハンチョウ","prefecture_code":20},"0013":{"zip_code":"3930013","prefecture":"長野県","prefecture_kana":"ナガノケン","city":"諏訪郡下諏訪町","city_kana":"スワグンシモスワマチ","town":"小湯の上","town_kana":"コユノウエ","prefecture_code":20},"0084":{"zip_code":"3930084","prefecture":"長野県","prefecture_kana":"ナガノケン","city":"諏訪郡下諏訪町","city_kana":"スワグンシモスワマチ","town":"栄町","town_kana":"サカエチョウ","prefecture_code":20},"0065":{"zip_code":"3930065","prefecture":"長野県","prefecture_kana":"ナガノケン","city":"諏訪郡下諏訪町","city_kana":"スワグンシモスワマチ","town":"魁町","town_kana":"サキガケチョウ","prefecture_code":20},"0072":{"zip_code":"3930072","prefecture":"長野県","prefecture_kana":"ナガノケン","city":"諏訪郡下諏訪町","city_kana":"スワグンシモスワマチ","town":"桜町","town_kana":"サクラマチ","prefecture_code":20},"0086":{"zip_code":"3930086","prefecture":"長野県","prefecture_kana":"ナガノケン","city":"諏訪郡下諏訪町","city_kana":"スワグンシモスワマチ","town":"清水町","town_kana":"シミズマチ","prefecture_code":20},"0007":{"zip_code":"3930007","prefecture":"長野県","prefecture_kana":"ナガノケン","city":"諏訪郡下諏訪町","city_kana":"スワグンシモスワマチ","town":"下屋敷","town_kana":"シモヤシキ","prefecture_code":20},"0011":{"zip_code":"3930011","prefecture":"長野県","prefecture_kana":"ナガノケン","city":"諏訪郡下諏訪町","city_kana":"スワグンシモスワマチ","town":"新町上","town_kana":"シンマチウエ","prefecture_code":20},"0018":{"zip_code":"3930018","prefecture":"長野県","prefecture_kana":"ナガノケン","city":"諏訪郡下諏訪町","city_kana":"スワグンシモスワマチ","town":"新町下","town_kana":"シンマチシタ","prefecture_code":20},"0054":{"zip_code":"3930054","prefecture":"長野県","prefecture_kana":"ナガノケン","city":"諏訪郡下諏訪町","city_kana":"スワグンシモスワマチ","town":"菅野町","town_kana":"スゲノマチ","prefecture_code":20},"0022":{"zip_code":"3930022","prefecture":"長野県","prefecture_kana":"ナガノケン","city":"諏訪郡下諏訪町","city_kana":"スワグンシモスワマチ","town":"関屋","town_kana":"セキヤ","prefecture_code":20},"0051":{"zip_code":"3930051","prefecture":"長野県","prefecture_kana":"ナガノケン","city":"諏訪郡下諏訪町","city_kana":"スワグンシモスワマチ","town":"大社通","town_kana":"タイシャドオリ","prefecture_code":20},"0092":{"zip_code":"3930092","prefecture":"長野県","prefecture_kana":"ナガノケン","city":"諏訪郡下諏訪町","city_kana":"スワグンシモスワマチ","town":"大門","town_kana":"ダイモン","prefecture_code":20},"0033":{"zip_code":"3930033","prefecture":"長野県","prefecture_kana":"ナガノケン","city":"諏訪郡下諏訪町","city_kana":"スワグンシモスワマチ","town":"高木","town_kana":"タカキ","prefecture_code":20},"0034":{"zip_code":"3930034","prefecture":"長野県","prefecture_kana":"ナガノケン","city":"諏訪郡下諏訪町","city_kana":"スワグンシモスワマチ","town":"高浜","town_kana":"タカハマ","prefecture_code":20},"0021":{"zip_code":"3930021","prefecture":"長野県","prefecture_kana":"ナガノケン","city":"諏訪郡下諏訪町","city_kana":"スワグンシモスワマチ","town":"武居","town_kana":"タケイ","prefecture_code":20},"0015":{"zip_code":"3930015","prefecture":"長野県","prefecture_kana":"ナガノケン","city":"諏訪郡下諏訪町","city_kana":"スワグンシモスワマチ","town":"立町","town_kana":"タツマチ","prefecture_code":20},"0078":{"zip_code":"3930078","prefecture":"長野県","prefecture_kana":"ナガノケン","city":"諏訪郡下諏訪町","city_kana":"スワグンシモスワマチ","town":"田中町","town_kana":"タナカマチ","prefecture_code":20},"0075":{"zip_code":"3930075","prefecture":"長野県","prefecture_kana":"ナガノケン","city":"諏訪郡下諏訪町","city_kana":"スワグンシモスワマチ","town":"中央通","town_kana":"チュウオウドオリ","prefecture_code":20},"0073":{"zip_code":"3930073","prefecture":"長野県","prefecture_kana":"ナガノケン","city":"諏訪郡下諏訪町","city_kana":"スワグンシモスワマチ","town":"塚田町","town_kana":"ツカダマチ","prefecture_code":20},"0023":{"zip_code":"3930023","prefecture":"長野県","prefecture_kana":"ナガノケン","city":"諏訪郡下諏訪町","city_kana":"スワグンシモスワマチ","town":"富ケ丘","town_kana":"トミガオカ","prefecture_code":20},"0057":{"zip_code":"3930057","prefecture":"長野県","prefecture_kana":"ナガノケン","city":"諏訪郡下諏訪町","city_kana":"スワグンシモスワマチ","town":"友之町","town_kana":"トモノマチ","prefecture_code":20},"0001":{"zip_code":"3930001","prefecture":"長野県","prefecture_kana":"ナガノケン","city":"諏訪郡下諏訪町","city_kana":"スワグンシモスワマチ","town":"樋橋","town_kana":"トヨハシ","prefecture_code":20},"0064":{"zip_code":"3930064","prefecture":"長野県","prefecture_kana":"ナガノケン","city":"諏訪郡下諏訪町","city_kana":"スワグンシモスワマチ","town":"中汐町","town_kana":"ナカシオチョウ","prefecture_code":20},"0071":{"zip_code":"3930071","prefecture":"長野県","prefecture_kana":"ナガノケン","city":"諏訪郡下諏訪町","city_kana":"スワグンシモスワマチ","town":"仲町","town_kana":"ナカマチ","prefecture_code":20},"0047":{"zip_code":"3930047","prefecture":"長野県","prefecture_kana":"ナガノケン","city":"諏訪郡下諏訪町","city_kana":"スワグンシモスワマチ","town":"西赤砂","town_kana":"ニシアカスナ","prefecture_code":20},"0041":{"zip_code":"3930041","prefecture":"長野県","prefecture_kana":"ナガノケン","city":"諏訪郡下諏訪町","city_kana":"スワグンシモスワマチ","town":"西四王","town_kana":"ニシシオウ","prefecture_code":20},"0087":{"zip_code":"3930087","prefecture":"長野県","prefecture_kana":"ナガノケン","city":"諏訪郡下諏訪町","city_kana":"スワグンシモスワマチ","town":"西鷹野町","town_kana":"ニシタカノマチ","prefecture_code":20},"0032":{"zip_code":"3930032","prefecture":"長野県","prefecture_kana":"ナガノケン","city":"諏訪郡下諏訪町","city_kana":"スワグンシモスワマチ","town":"西浜","town_kana":"ニシハマ","prefecture_code":20},"0082":{"zip_code":"3930082","prefecture":"長野県","prefecture_kana":"ナガノケン","city":"諏訪郡下諏訪町","city_kana":"スワグンシモスワマチ","town":"西弥生町","town_kana":"ニシヤヨイチョウ","prefecture_code":20},"0035":{"zip_code":"3930035","prefecture":"長野県","prefecture_kana":"ナガノケン","city":"諏訪郡下諏訪町","city_kana":"スワグンシモスワマチ","town":"西豊","town_kana":"ニシユタカ","prefecture_code":20},"0003":{"zip_code":"3930003","prefecture":"長野県","prefecture_kana":"ナガノケン","city":"諏訪郡下諏訪町","city_kana":"スワグンシモスワマチ","town":"萩倉","town_kana":"ハギクラ","prefecture_code":20},"0063":{"zip_code":"3930063","prefecture":"長野県","prefecture_kana":"ナガノケン","city":"諏訪郡下諏訪町","city_kana":"スワグンシモスワマチ","town":"花咲町","town_kana":"ハナサキチョウ","prefecture_code":20},"0046":{"zip_code":"3930046","prefecture":"長野県","prefecture_kana":"ナガノケン","city":"諏訪郡下諏訪町","city_kana":"スワグンシモスワマチ","town":"東赤砂","town_kana":"ヒガシアカスナ","prefecture_code":20},"0043":{"zip_code":"3930043","prefecture":"長野県","prefecture_kana":"ナガノケン","city":"諏訪郡下諏訪町","city_kana":"スワグンシモスワマチ","town":"東四王","town_kana":"ヒガシシオウ","prefecture_code":20},"0085":{"zip_code":"3930085","prefecture":"長野県","prefecture_kana":"ナガノケン","city":"諏訪郡下諏訪町","city_kana":"スワグンシモスワマチ","town":"東鷹野町","town_kana":"ヒガシタカノマチ","prefecture_code":20},"0002":{"zip_code":"3930002","prefecture":"長野県","prefecture_kana":"ナガノケン","city":"諏訪郡下諏訪町","city_kana":"スワグンシモスワマチ","town":"東俣","town_kana":"ヒガシマタ","prefecture_code":20},"0006":{"zip_code":"3930006","prefecture":"長野県","prefecture_kana":"ナガノケン","city":"諏訪郡下諏訪町","city_kana":"スワグンシモスワマチ","town":"東町上","town_kana":"ヒガシマチウエ","prefecture_code":20},"0005":{"zip_code":"3930005","prefecture":"長野県","prefecture_kana":"ナガノケン","city":"諏訪郡下諏訪町","city_kana":"スワグンシモスワマチ","town":"東町中","town_kana":"ヒガシマチナカ","prefecture_code":20},"0004":{"zip_code":"3930004","prefecture":"長野県","prefecture_kana":"ナガノケン","city":"諏訪郡下諏訪町","city_kana":"スワグンシモスワマチ","town":"東町下","town_kana":"ヒガシマチシタ","prefecture_code":20},"0093":{"zip_code":"3930093","prefecture":"長野県","prefecture_kana":"ナガノケン","city":"諏訪郡下諏訪町","city_kana":"スワグンシモスワマチ","town":"東山田","town_kana":"ヒガシヤマダ","prefecture_code":20},"0083":{"zip_code":"3930083","prefecture":"長野県","prefecture_kana":"ナガノケン","city":"諏訪郡下諏訪町","city_kana":"スワグンシモスワマチ","town":"東弥生町","town_kana":"ヒガシヤヨイチョウ","prefecture_code":20},"0031":{"zip_code":"3930031","prefecture":"長野県","prefecture_kana":"ナガノケン","city":"諏訪郡下諏訪町","city_kana":"スワグンシモスワマチ","town":"東豊","town_kana":"ヒガシユタカ","prefecture_code":20},"0062":{"zip_code":"3930062","prefecture":"長野県","prefecture_kana":"ナガノケン","city":"諏訪郡下諏訪町","city_kana":"スワグンシモスワマチ","town":"平沢町","town_kana":"ヒラサワチョウ","prefecture_code":20},"0056":{"zip_code":"3930056","prefecture":"長野県","prefecture_kana":"ナガノケン","city":"諏訪郡下諏訪町","city_kana":"スワグンシモスワマチ","town":"広瀬町","town_kana":"ヒロセチョウ","prefecture_code":20},"0055":{"zip_code":"3930055","prefecture":"長野県","prefecture_kana":"ナガノケン","city":"諏訪郡下諏訪町","city_kana":"スワグンシモスワマチ","town":"富士見町","town_kana":"フジミチョウ","prefecture_code":20},"0091":{"zip_code":"3930091","prefecture":"長野県","prefecture_kana":"ナガノケン","city":"諏訪郡下諏訪町","city_kana":"スワグンシモスワマチ","town":"星が丘","town_kana":"ホシガオカ","prefecture_code":20},"0025":{"zip_code":"3930025","prefecture":"長野県","prefecture_kana":"ナガノケン","city":"諏訪郡下諏訪町","city_kana":"スワグンシモスワマチ","town":"本郷","town_kana":"ホンゴウ","prefecture_code":20},"0008":{"zip_code":"3930008","prefecture":"長野県","prefecture_kana":"ナガノケン","city":"諏訪郡下諏訪町","city_kana":"スワグンシモスワマチ","town":"町屋敷","town_kana":"マチヤシキ","prefecture_code":20},"0061":{"zip_code":"3930061","prefecture":"長野県","prefecture_kana":"ナガノケン","city":"諏訪郡下諏訪町","city_kana":"スワグンシモスワマチ","town":"御田町","town_kana":"ミタマチ","prefecture_code":20},"0074":{"zip_code":"3930074","prefecture":"長野県","prefecture_kana":"ナガノケン","city":"諏訪郡下諏訪町","city_kana":"スワグンシモスワマチ","town":"緑町","town_kana":"ミドリマチ","prefecture_code":20},"0045":{"zip_code":"3930045","prefecture":"長野県","prefecture_kana":"ナガノケン","city":"諏訪郡下諏訪町","city_kana":"スワグンシモスワマチ","town":"南四王","town_kana":"ミナミシオウ","prefecture_code":20},"0067":{"zip_code":"3930067","prefecture":"長野県","prefecture_kana":"ナガノケン","city":"諏訪郡下諏訪町","city_kana":"スワグンシモスワマチ","town":"矢木東","town_kana":"ヤギヒガシ","prefecture_code":20},"0076":{"zip_code":"3930076","prefecture":"長野県","prefecture_kana":"ナガノケン","city":"諏訪郡下諏訪町","city_kana":"スワグンシモスワマチ","town":"矢木西","town_kana":"ヤギニシ","prefecture_code":20},"0077":{"zip_code":"3930077","prefecture":"長野県","prefecture_kana":"ナガノケン","city":"諏訪郡下諏訪町","city_kana":"スワグンシモスワマチ","town":"矢木町","town_kana":"ヤギマチ","prefecture_code":20},"0081":{"zip_code":"3930081","prefecture":"長野県","prefecture_kana":"ナガノケン","city":"諏訪郡下諏訪町","city_kana":"スワグンシモスワマチ","town":"社東町","town_kana":"ヤシロヒガシマチ","prefecture_code":20},"0017":{"zip_code":"3930017","prefecture":"長野県","prefecture_kana":"ナガノケン","city":"諏訪郡下諏訪町","city_kana":"スワグンシモスワマチ","town":"湯田仲町","town_kana":"ユダナカマチ","prefecture_code":20},"0016":{"zip_code":"3930016","prefecture":"長野県","prefecture_kana":"ナガノケン","city":"諏訪郡下諏訪町","city_kana":"スワグンシモスワマチ","town":"湯田町","town_kana":"ユダマチ","prefecture_code":20},"0012":{"zip_code":"3930012","prefecture":"長野県","prefecture_kana":"ナガノケン","city":"諏訪郡下諏訪町","city_kana":"スワグンシモスワマチ","town":"横町","town_kana":"ヨコマチ","prefecture_code":20},"0019":{"zip_code":"3930019","prefecture":"長野県","prefecture_kana":"ナガノケン","city":"諏訪郡下諏訪町","city_kana":"スワグンシモスワマチ","town":"横町木の下","town_kana":"ヨコマチキノシタ","prefecture_code":20}}