{"0000":{"zip_code":"3940000","prefecture":"長野県","prefecture_kana":"ナガノケン","city":"岡谷市","city_kana":"オカヤシ","town":"以下に掲載がない場合","town_kana":"イカニケイサイガナイバアイ","prefecture_code":20},"0091":{"zip_code":"3940091","prefecture":"長野県","prefecture_kana":"ナガノケン","city":"岡谷市","city_kana":"オカヤシ","town":"岡谷市の次に番地がくる場合","town_kana":"オカヤシノツギニバンチガクルバアイ","prefecture_code":20},"0002":{"zip_code":"3940002","prefecture":"長野県","prefecture_kana":"ナガノケン","city":"岡谷市","city_kana":"オカヤシ","town":"赤羽","town_kana":"アカハネ","prefecture_code":20},"0053":[{"zip_code":"3940053","prefecture":"長野県","prefecture_kana":"ナガノケン","city":"岡谷市","city_kana":"オカヤシ","town":"芦ノ沢","town_kana":"アシノサワ","prefecture_code":20},{"zip_code":"3940053","prefecture":"長野県","prefecture_kana":"ナガノケン","city":"岡谷市","city_kana":"オカヤシ","town":"ヨギトギ沢","town_kana":"ヨギトギサワ","prefecture_code":20}],"0001":{"zip_code":"3940001","prefecture":"長野県","prefecture_kana":"ナガノケン","city":"岡谷市","city_kana":"オカヤシ","town":"今井","town_kana":"イマイ","prefecture_code":20},"0055":{"zip_code":"3940055","prefecture":"長野県","prefecture_kana":"ナガノケン","city":"岡谷市","city_kana":"オカヤシ","town":"内山","town_kana":"ウチヤマ","prefecture_code":20},"0051":{"zip_code":"3940051","prefecture":"長野県","prefecture_kana":"ナガノケン","city":"岡谷市","city_kana":"オカヤシ","town":"塩嶺","town_kana":"エンレイ","prefecture_code":20},"0043":{"zip_code":"3940043","prefecture":"長野県","prefecture_kana":"ナガノケン","city":"岡谷市","city_kana":"オカヤシ","town":"御倉町","town_kana":"オクラチョウ","prefecture_code":20},"0011":{"zip_code":"3940011","prefecture":"長野県","prefecture_kana":"ナガノケン","city":"岡谷市","city_kana":"オカヤシ","town":"長地","town_kana":"オサチ","prefecture_code":20},"0089":{"zip_code":"3940089","prefecture":"長野県","prefecture_kana":"ナガノケン","city":"岡谷市","city_kana":"オカヤシ","town":"長地出早","town_kana":"オサチイズハヤ","prefecture_code":20},"0084":{"zip_code":"3940084","prefecture":"長野県","prefecture_kana":"ナガノケン","city":"岡谷市","city_kana":"オカヤシ","town":"長地片間町","town_kana":"オサチカタマチョウ","prefecture_code":20},"0082":{"zip_code":"3940082","prefecture":"長野県","prefecture_kana":"ナガノケン","city":"岡谷市","city_kana":"オカヤシ","town":"長地御所","town_kana":"オサチゴショ","prefecture_code":20},"0085":{"zip_code":"3940085","prefecture":"長野県","prefecture_kana":"ナガノケン","city":"岡谷市","city_kana":"オカヤシ","town":"長地小萩","town_kana":"オサチコハギ","prefecture_code":20},"0081":{"zip_code":"3940081","prefecture":"長野県","prefecture_kana":"ナガノケン","city":"岡谷市","city_kana":"オカヤシ","town":"長地権現町","town_kana":"オサチゴンゲンチョウ","prefecture_code":20},"0087":{"zip_code":"3940087","prefecture":"長野県","prefecture_kana":"ナガノケン","city":"岡谷市","city_kana":"オカヤシ","town":"長地鎮","town_kana":"オサチシズメ","prefecture_code":20},"0083":{"zip_code":"3940083","prefecture":"長野県","prefecture_kana":"ナガノケン","city":"岡谷市","city_kana":"オカヤシ","town":"長地柴宮","town_kana":"オサチシバミヤ","prefecture_code":20},"0088":{"zip_code":"3940088","prefecture":"長野県","prefecture_kana":"ナガノケン","city":"岡谷市","city_kana":"オカヤシ","town":"長地梨久保","town_kana":"オサチナシクボ","prefecture_code":20},"0086":{"zip_code":"3940086","prefecture":"長野県","prefecture_kana":"ナガノケン","city":"岡谷市","city_kana":"オカヤシ","town":"長地源","town_kana":"オサチミナモト","prefecture_code":20},"0003":{"zip_code":"3940003","prefecture":"長野県","prefecture_kana":"ナガノケン","city":"岡谷市","city_kana":"オカヤシ","town":"加茂町","town_kana":"カモチョウ","prefecture_code":20},"0048":{"zip_code":"3940048","prefecture":"長野県","prefecture_kana":"ナガノケン","city":"岡谷市","city_kana":"オカヤシ","town":"川岸上","town_kana":"カワギシカミ","prefecture_code":20},"0047":{"zip_code":"3940047","prefecture":"長野県","prefecture_kana":"ナガノケン","city":"岡谷市","city_kana":"オカヤシ","town":"川岸中","town_kana":"カワギシナカ","prefecture_code":20},"0045":{"zip_code":"3940045","prefecture":"長野県","prefecture_kana":"ナガノケン","city":"岡谷市","city_kana":"オカヤシ","town":"川岸東","town_kana":"カワギシヒガシ","prefecture_code":20},"0046":{"zip_code":"3940046","prefecture":"長野県","prefecture_kana":"ナガノケン","city":"岡谷市","city_kana":"オカヤシ","town":"川岸西","town_kana":"カワギシニシ","prefecture_code":20},"0022":{"zip_code":"3940022","prefecture":"長野県","prefecture_kana":"ナガノケン","city":"岡谷市","city_kana":"オカヤシ","town":"銀座","town_kana":"ギンザ","prefecture_code":20},"0021":{"zip_code":"3940021","prefecture":"長野県","prefecture_kana":"ナガノケン","city":"岡谷市","city_kana":"オカヤシ","town":"郷田","town_kana":"ゴウダ","prefecture_code":20},"0034":{"zip_code":"3940034","prefecture":"長野県","prefecture_kana":"ナガノケン","city":"岡谷市","city_kana":"オカヤシ","town":"湖畔","town_kana":"コハン","prefecture_code":20},"0029":{"zip_code":"3940029","prefecture":"長野県","prefecture_kana":"ナガノケン","city":"岡谷市","city_kana":"オカヤシ","town":"幸町","town_kana":"サイワイチョウ","prefecture_code":20},"0004":{"zip_code":"3940004","prefecture":"長野県","prefecture_kana":"ナガノケン","city":"岡谷市","city_kana":"オカヤシ","town":"神明町","town_kana":"シンメイチョウ","prefecture_code":20},"0025":{"zip_code":"3940025","prefecture":"長野県","prefecture_kana":"ナガノケン","city":"岡谷市","city_kana":"オカヤシ","town":"大栄町","town_kana":"ダイエイチョウ","prefecture_code":20},"0031":{"zip_code":"3940031","prefecture":"長野県","prefecture_kana":"ナガノケン","city":"岡谷市","city_kana":"オカヤシ","town":"田中町","town_kana":"タナカチョウ","prefecture_code":20},"0027":{"zip_code":"3940027","prefecture":"長野県","prefecture_kana":"ナガノケン","city":"岡谷市","city_kana":"オカヤシ","town":"中央町","town_kana":"チュウオウチョウ","prefecture_code":20},"0026":{"zip_code":"3940026","prefecture":"長野県","prefecture_kana":"ナガノケン","city":"岡谷市","city_kana":"オカヤシ","town":"塚間町","town_kana":"ツカマチョウ","prefecture_code":20},"0035":{"zip_code":"3940035","prefecture":"長野県","prefecture_kana":"ナガノケン","city":"岡谷市","city_kana":"オカヤシ","town":"天竜町","town_kana":"テンリュウチョウ","prefecture_code":20},"0042":{"zip_code":"3940042","prefecture":"長野県","prefecture_kana":"ナガノケン","city":"岡谷市","city_kana":"オカヤシ","town":"成田町","town_kana":"ナルタチョウ","prefecture_code":20},"0033":{"zip_code":"3940033","prefecture":"長野県","prefecture_kana":"ナガノケン","city":"岡谷市","city_kana":"オカヤシ","town":"南宮","town_kana":"ナングウ","prefecture_code":20},"0052":{"zip_code":"3940052","prefecture":"長野県","prefecture_kana":"ナガノケン","city":"岡谷市","city_kana":"オカヤシ","town":"西林","town_kana":"ニシバヤシ","prefecture_code":20},"0054":{"zip_code":"3940054","prefecture":"長野県","prefecture_kana":"ナガノケン","city":"岡谷市","city_kana":"オカヤシ","town":"半ノ木","town_kana":"ハンノキ","prefecture_code":20},"0023":{"zip_code":"3940023","prefecture":"長野県","prefecture_kana":"ナガノケン","city":"岡谷市","city_kana":"オカヤシ","town":"東銀座","town_kana":"ヒガシギンザ","prefecture_code":20},"0056":{"zip_code":"3940056","prefecture":"長野県","prefecture_kana":"ナガノケン","city":"岡谷市","city_kana":"オカヤシ","town":"樋沢","town_kana":"ヒザワ","prefecture_code":20},"0024":{"zip_code":"3940024","prefecture":"長野県","prefecture_kana":"ナガノケン","city":"岡谷市","city_kana":"オカヤシ","town":"堀ノ内","town_kana":"ホリノウチ","prefecture_code":20},"0028":{"zip_code":"3940028","prefecture":"長野県","prefecture_kana":"ナガノケン","city":"岡谷市","city_kana":"オカヤシ","town":"本町","town_kana":"ホンチョウ","prefecture_code":20},"0044":{"zip_code":"3940044","prefecture":"長野県","prefecture_kana":"ナガノケン","city":"岡谷市","city_kana":"オカヤシ","town":"湊","town_kana":"ミナト","prefecture_code":20},"0005":{"zip_code":"3940005","prefecture":"長野県","prefecture_kana":"ナガノケン","city":"岡谷市","city_kana":"オカヤシ","town":"山下町","town_kana":"ヤマシタチョウ","prefecture_code":20},"0041":{"zip_code":"3940041","prefecture":"長野県","prefecture_kana":"ナガノケン","city":"岡谷市","city_kana":"オカヤシ","town":"山手町","town_kana":"ヤマテチョウ","prefecture_code":20},"0032":{"zip_code":"3940032","prefecture":"長野県","prefecture_kana":"ナガノケン","city":"岡谷市","city_kana":"オカヤシ","town":"若宮","town_kana":"ワカミヤ","prefecture_code":20}}