{"0000":{"zip_code":"3950000","prefecture":"長野県","prefecture_kana":"ナガノケン","city":"飯田市","city_kana":"イイダシ","town":"","town_kana":"","prefecture_code":20},"0072":{"zip_code":"3950072","prefecture":"長野県","prefecture_kana":"ナガノケン","city":"飯田市","city_kana":"イイダシ","town":"曙町","town_kana":"アケボノチョウ","prefecture_code":20},"0055":{"zip_code":"3950055","prefecture":"長野県","prefecture_kana":"ナガノケン","city":"飯田市","city_kana":"イイダシ","town":"旭町","town_kana":"アサヒマチ","prefecture_code":20},"0085":{"zip_code":"3950085","prefecture":"長野県","prefecture_kana":"ナガノケン","city":"飯田市","city_kana":"イイダシ","town":"吾妻町","town_kana":"アズマチョウ","prefecture_code":20},"0036":{"zip_code":"3950036","prefecture":"長野県","prefecture_kana":"ナガノケン","city":"飯田市","city_kana":"イイダシ","town":"愛宕町","town_kana":"アタゴチョウ","prefecture_code":20},"0152":{"zip_code":"3950152","prefecture":"長野県","prefecture_kana":"ナガノケン","city":"飯田市","city_kana":"イイダシ","town":"育良町","town_kana":"イクラチョウ","prefecture_code":20},"0071":{"zip_code":"3950071","prefecture":"長野県","prefecture_kana":"ナガノケン","city":"飯田市","city_kana":"イイダシ","town":"今宮町","town_kana":"イマミヤチョウ","prefecture_code":20},"0023":{"zip_code":"3950023","prefecture":"長野県","prefecture_kana":"ナガノケン","city":"飯田市","city_kana":"イイダシ","town":"江戸浜町","town_kana":"エドハマチョウ","prefecture_code":20},"0015":{"zip_code":"3950015","prefecture":"長野県","prefecture_kana":"ナガノケン","city":"飯田市","city_kana":"イイダシ","town":"江戸町","town_kana":"エドマチ","prefecture_code":20},"0046":{"zip_code":"3950046","prefecture":"長野県","prefecture_kana":"ナガノケン","city":"飯田市","city_kana":"イイダシ","town":"扇町","town_kana":"オウギマチ","prefecture_code":20},"0034":{"zip_code":"3950034","prefecture":"長野県","prefecture_kana":"ナガノケン","city":"飯田市","city_kana":"イイダシ","town":"追手町","town_kana":"オウテマチ","prefecture_code":20},"0053":{"zip_code":"3950053","prefecture":"長野県","prefecture_kana":"ナガノケン","city":"飯田市","city_kana":"イイダシ","town":"大久保町","town_kana":"オオクボチョウ","prefecture_code":20},"0157":{"zip_code":"3950157","prefecture":"長野県","prefecture_kana":"ナガノケン","city":"飯田市","city_kana":"イイダシ","town":"大瀬木","town_kana":"オオセギ","prefecture_code":20},"0056":{"zip_code":"3950056","prefecture":"長野県","prefecture_kana":"ナガノケン","city":"飯田市","city_kana":"イイダシ","town":"大通","town_kana":"オオドオリ","prefecture_code":20},"0068":{"zip_code":"3950068","prefecture":"長野県","prefecture_kana":"ナガノケン","city":"飯田市","city_kana":"イイダシ","town":"大休","town_kana":"オオヤスミ","prefecture_code":20},"0028":{"zip_code":"3950028","prefecture":"長野県","prefecture_kana":"ナガノケン","city":"飯田市","city_kana":"イイダシ","town":"長姫町","town_kana":"オサヒメチョウ","prefecture_code":20},"0805":{"zip_code":"3950805","prefecture":"長野県","prefecture_kana":"ナガノケン","city":"飯田市","city_kana":"イイダシ","town":"鼎一色","town_kana":"カナエイッシキ","prefecture_code":20},"0808":{"zip_code":"3950808","prefecture":"長野県","prefecture_kana":"ナガノケン","city":"飯田市","city_kana":"イイダシ","town":"鼎上茶屋","town_kana":"カナエカミチャヤ","prefecture_code":20},"0802":{"zip_code":"3950802","prefecture":"長野県","prefecture_kana":"ナガノケン","city":"飯田市","city_kana":"イイダシ","town":"鼎下茶屋","town_kana":"カナエシモチャヤ","prefecture_code":20},"0806":{"zip_code":"3950806","prefecture":"長野県","prefecture_kana":"ナガノケン","city":"飯田市","city_kana":"イイダシ","town":"鼎上山","town_kana":"カナエカミヤマ","prefecture_code":20},"0803":{"zip_code":"3950803","prefecture":"長野県","prefecture_kana":"ナガノケン","city":"飯田市","city_kana":"イイダシ","town":"鼎下山","town_kana":"カナエシモヤマ","prefecture_code":20},"0807":{"zip_code":"3950807","prefecture":"長野県","prefecture_kana":"ナガノケン","city":"飯田市","city_kana":"イイダシ","town":"鼎切石","town_kana":"カナエキリイシ","prefecture_code":20},"0801":{"zip_code":"3950801","prefecture":"長野県","prefecture_kana":"ナガノケン","city":"飯田市","city_kana":"イイダシ","town":"鼎中平","town_kana":"カナエナカダイラ","prefecture_code":20},"0804":{"zip_code":"3950804","prefecture":"長野県","prefecture_kana":"ナガノケン","city":"飯田市","city_kana":"イイダシ","town":"鼎名古熊","town_kana":"カナエナゴクマ","prefecture_code":20},"0817":{"zip_code":"3950817","prefecture":"長野県","prefecture_kana":"ナガノケン","city":"飯田市","city_kana":"イイダシ","town":"鼎東鼎","town_kana":"カナエヒガシカナエ","prefecture_code":20},"0026":{"zip_code":"3950026","prefecture":"長野県","prefecture_kana":"ナガノケン","city":"飯田市","city_kana":"イイダシ","town":"鼎西鼎","town_kana":"カナエニシカナエ","prefecture_code":20},"0002":{"zip_code":"3950002","prefecture":"長野県","prefecture_kana":"ナガノケン","city":"飯田市","city_kana":"イイダシ","town":"上郷飯沼","town_kana":"カミサトイイヌマ","prefecture_code":20},"0003":{"zip_code":"3950003","prefecture":"長野県","prefecture_kana":"ナガノケン","city":"飯田市","city_kana":"イイダシ","town":"上郷別府","town_kana":"カミサトベップ","prefecture_code":20},"0004":{"zip_code":"3950004","prefecture":"長野県","prefecture_kana":"ナガノケン","city":"飯田市","city_kana":"イイダシ","town":"上郷黒田","town_kana":"カミサトクロダ","prefecture_code":20},"0153":{"zip_code":"3950153","prefecture":"長野県","prefecture_kana":"ナガノケン","city":"飯田市","city_kana":"イイダシ","town":"上殿岡","town_kana":"カミトノオカ","prefecture_code":20},"0151":{"zip_code":"3950151","prefecture":"長野県","prefecture_kana":"ナガノケン","city":"飯田市","city_kana":"イイダシ","town":"北方","town_kana":"キタガタ","prefecture_code":20},"0031":{"zip_code":"3950031","prefecture":"長野県","prefecture_kana":"ナガノケン","city":"飯田市","city_kana":"イイダシ","town":"銀座","town_kana":"ギンザ","prefecture_code":20},"0241":{"zip_code":"3950241","prefecture":"長野県","prefecture_kana":"ナガノケン","city":"飯田市","city_kana":"イイダシ","town":"久米","town_kana":"クメ","prefecture_code":20},"0813":{"zip_code":"3950813","prefecture":"長野県","prefecture_kana":"ナガノケン","city":"飯田市","city_kana":"イイダシ","town":"毛賀","town_kana":"ケガ","prefecture_code":20},"0013":{"zip_code":"3950013","prefecture":"長野県","prefecture_kana":"ナガノケン","city":"飯田市","city_kana":"イイダシ","town":"小伝馬町","town_kana":"コデンマチョウ","prefecture_code":20},"0014":{"zip_code":"3950014","prefecture":"長野県","prefecture_kana":"ナガノケン","city":"飯田市","city_kana":"イイダシ","town":"桜町","town_kana":"サクラマチ","prefecture_code":20},"0001":{"zip_code":"3950001","prefecture":"長野県","prefecture_kana":"ナガノケン","city":"飯田市","city_kana":"イイダシ","town":"座光寺","town_kana":"ザコウジ","prefecture_code":20},"0154":{"zip_code":"3950154","prefecture":"長野県","prefecture_kana":"ナガノケン","city":"飯田市","city_kana":"イイダシ","town":"下殿岡","town_kana":"シモトノオカ","prefecture_code":20},"0061":{"zip_code":"3950061","prefecture":"長野県","prefecture_kana":"ナガノケン","city":"飯田市","city_kana":"イイダシ","town":"正永町","town_kana":"ショウエイチョウ","prefecture_code":20},"0084":{"zip_code":"3950084","prefecture":"長野県","prefecture_kana":"ナガノケン","city":"飯田市","city_kana":"イイダシ","town":"鈴加町","town_kana":"スズカチョウ","prefecture_code":20},"0062":{"zip_code":"3950062","prefecture":"長野県","prefecture_kana":"ナガノケン","city":"飯田市","city_kana":"イイダシ","town":"砂払町","town_kana":"スナハライチョウ","prefecture_code":20},"0018":{"zip_code":"3950018","prefecture":"長野県","prefecture_kana":"ナガノケン","city":"飯田市","city_kana":"イイダシ","town":"諏訪町","town_kana":"スワチョウ","prefecture_code":20},"0012":{"zip_code":"3950012","prefecture":"長野県","prefecture_kana":"ナガノケン","city":"飯田市","city_kana":"イイダシ","town":"大王路","town_kana":"ダイオウジ","prefecture_code":20},"0011":{"zip_code":"3950011","prefecture":"長野県","prefecture_kana":"ナガノケン","city":"飯田市","city_kana":"イイダシ","town":"大門町","town_kana":"ダイモンチョウ","prefecture_code":20},"0051":{"zip_code":"3950051","prefecture":"長野県","prefecture_kana":"ナガノケン","city":"飯田市","city_kana":"イイダシ","town":"高羽町","town_kana":"タカハチョウ","prefecture_code":20},"0048":{"zip_code":"3950048","prefecture":"長野県","prefecture_kana":"ナガノケン","city":"飯田市","city_kana":"イイダシ","town":"滝の沢","town_kana":"タキノサワ","prefecture_code":20},"0242":{"zip_code":"3950242","prefecture":"長野県","prefecture_kana":"ナガノケン","city":"飯田市","city_kana":"イイダシ","town":"竹佐","town_kana":"タケサ","prefecture_code":20},"0032":{"zip_code":"3950032","prefecture":"長野県","prefecture_kana":"ナガノケン","city":"飯田市","city_kana":"イイダシ","town":"主税町","town_kana":"チカラマチ","prefecture_code":20},"0045":{"zip_code":"3950045","prefecture":"長野県","prefecture_kana":"ナガノケン","city":"飯田市","city_kana":"イイダシ","town":"知久町","town_kana":"チクマチ","prefecture_code":20},"0041":{"zip_code":"3950041","prefecture":"長野県","prefecture_kana":"ナガノケン","city":"飯田市","city_kana":"イイダシ","town":"中央通り","town_kana":"チュウオウドオリ","prefecture_code":20},"0016":{"zip_code":"3950016","prefecture":"長野県","prefecture_kana":"ナガノケン","city":"飯田市","city_kana":"イイダシ","town":"伝馬町","town_kana":"テンマチョウ","prefecture_code":20},"0024":{"zip_code":"3950024","prefecture":"長野県","prefecture_kana":"ナガノケン","city":"飯田市","city_kana":"イイダシ","town":"東栄町","town_kana":"トウエイチョウ","prefecture_code":20},"0017":{"zip_code":"3950017","prefecture":"長野県","prefecture_kana":"ナガノケン","city":"飯田市","city_kana":"イイダシ","town":"東新町","town_kana":"トウシンチョウ","prefecture_code":20},"0086":{"zip_code":"3950086","prefecture":"長野県","prefecture_kana":"ナガノケン","city":"飯田市","city_kana":"イイダシ","town":"東和町","town_kana":"トウワチョウ","prefecture_code":20},"0043":{"zip_code":"3950043","prefecture":"長野県","prefecture_kana":"ナガノケン","city":"飯田市","city_kana":"イイダシ","town":"通り町","town_kana":"トオリマチ","prefecture_code":20},"0033":{"zip_code":"3950033","prefecture":"長野県","prefecture_kana":"ナガノケン","city":"飯田市","city_kana":"イイダシ","town":"常盤町","town_kana":"トキワマチ","prefecture_code":20},"0021":{"zip_code":"3950021","prefecture":"長野県","prefecture_kana":"ナガノケン","city":"飯田市","city_kana":"イイダシ","town":"仲ノ町","town_kana":"ナカノチョウ","prefecture_code":20},"0156":{"zip_code":"3950156","prefecture":"長野県","prefecture_kana":"ナガノケン","city":"飯田市","city_kana":"イイダシ","town":"中村","town_kana":"ナカムラ","prefecture_code":20},"0083":{"zip_code":"3950083","prefecture":"長野県","prefecture_kana":"ナガノケン","city":"飯田市","city_kana":"イイダシ","town":"錦町","town_kana":"ニシキチョウ","prefecture_code":20},"0029":{"zip_code":"3950029","prefecture":"長野県","prefecture_kana":"ナガノケン","city":"飯田市","city_kana":"イイダシ","town":"二本松","town_kana":"ニホンマツ","prefecture_code":20},"0076":{"zip_code":"3950076","prefecture":"長野県","prefecture_kana":"ナガノケン","city":"飯田市","city_kana":"イイダシ","town":"白山町","town_kana":"ハクサンチョウ","prefecture_code":20},"0075":{"zip_code":"3950075","prefecture":"長野県","prefecture_kana":"ナガノケン","city":"飯田市","city_kana":"イイダシ","town":"白山通り","town_kana":"ハクサンドオリ","prefecture_code":20},"0243":{"zip_code":"3950243","prefecture":"長野県","prefecture_kana":"ナガノケン","city":"飯田市","city_kana":"イイダシ","town":"箱川","town_kana":"ハコガワ","prefecture_code":20},"0066":{"zip_code":"3950066","prefecture":"長野県","prefecture_kana":"ナガノケン","city":"飯田市","city_kana":"イイダシ","town":"羽場赤坂","town_kana":"ハバアカサカ","prefecture_code":20},"0065":{"zip_code":"3950065","prefecture":"長野県","prefecture_kana":"ナガノケン","city":"飯田市","city_kana":"イイダシ","town":"羽場上河原","town_kana":"ハバカミガワラ","prefecture_code":20},"0067":{"zip_code":"3950067","prefecture":"長野県","prefecture_kana":"ナガノケン","city":"飯田市","city_kana":"イイダシ","town":"羽場権現","town_kana":"ハバゴンゲン","prefecture_code":20},"0073":{"zip_code":"3950073","prefecture":"長野県","prefecture_kana":"ナガノケン","city":"飯田市","city_kana":"イイダシ","town":"羽場坂町","town_kana":"ハバザカチョウ","prefecture_code":20},"0063":{"zip_code":"3950063","prefecture":"長野県","prefecture_kana":"ナガノケン","city":"飯田市","city_kana":"イイダシ","town":"羽場町","town_kana":"ハバチョウ","prefecture_code":20},"0064":{"zip_code":"3950064","prefecture":"長野県","prefecture_kana":"ナガノケン","city":"飯田市","city_kana":"イイダシ","town":"羽場仲畑","town_kana":"ハバナカハタ","prefecture_code":20},"0027":{"zip_code":"3950027","prefecture":"長野県","prefecture_kana":"ナガノケン","city":"飯田市","city_kana":"イイダシ","town":"馬場町","town_kana":"ババンチョウ","prefecture_code":20},"0022":{"zip_code":"3950022","prefecture":"長野県","prefecture_kana":"ナガノケン","city":"飯田市","city_kana":"イイダシ","town":"浜井町","town_kana":"ハマイチョウ","prefecture_code":20},"0025":{"zip_code":"3950025","prefecture":"長野県","prefecture_kana":"ナガノケン","city":"飯田市","city_kana":"イイダシ","town":"東中央通り","town_kana":"ヒガシチュウオウドオリ","prefecture_code":20},"0044":{"zip_code":"3950044","prefecture":"長野県","prefecture_kana":"ナガノケン","city":"飯田市","city_kana":"イイダシ","town":"本町","town_kana":"ホンマチ","prefecture_code":20},"0811":{"zip_code":"3950811","prefecture":"長野県","prefecture_kana":"ナガノケン","city":"飯田市","city_kana":"イイダシ","town":"松尾上溝","town_kana":"マツオアゲミゾ","prefecture_code":20},"0821":{"zip_code":"3950821","prefecture":"長野県","prefecture_kana":"ナガノケン","city":"飯田市","city_kana":"イイダシ","town":"松尾新井","town_kana":"マツオアライ","prefecture_code":20},"0824":{"zip_code":"3950824","prefecture":"長野県","prefecture_kana":"ナガノケン","city":"飯田市","city_kana":"イイダシ","town":"松尾清水","town_kana":"マツオシミズ","prefecture_code":20},"0812":{"zip_code":"3950812","prefecture":"長野県","prefecture_kana":"ナガノケン","city":"飯田市","city_kana":"イイダシ","town":"松尾代田","town_kana":"マツオシロダ","prefecture_code":20},"0825":{"zip_code":"3950825","prefecture":"長野県","prefecture_kana":"ナガノケン","city":"飯田市","city_kana":"イイダシ","town":"松尾城","town_kana":"マツオジョウ","prefecture_code":20},"0822":{"zip_code":"3950822","prefecture":"長野県","prefecture_kana":"ナガノケン","city":"飯田市","city_kana":"イイダシ","town":"松尾寺所","town_kana":"マツオテラドコ","prefecture_code":20},"0815":{"zip_code":"3950815","prefecture":"長野県","prefecture_kana":"ナガノケン","city":"飯田市","city_kana":"イイダシ","town":"松尾常盤台","town_kana":"マツオトキワダイ","prefecture_code":20},"0816":{"zip_code":"3950816","prefecture":"長野県","prefecture_kana":"ナガノケン","city":"飯田市","city_kana":"イイダシ","town":"松尾久井","town_kana":"マツオヒサイ","prefecture_code":20},"0042":{"zip_code":"3950042","prefecture":"長野県","prefecture_kana":"ナガノケン","city":"飯田市","city_kana":"イイダシ","town":"松尾町","town_kana":"マツオマチ","prefecture_code":20},"0826":{"zip_code":"3950826","prefecture":"長野県","prefecture_kana":"ナガノケン","city":"飯田市","city_kana":"イイダシ","town":"松尾水城","town_kana":"マツオミサジロ","prefecture_code":20},"0823":{"zip_code":"3950823","prefecture":"長野県","prefecture_kana":"ナガノケン","city":"飯田市","city_kana":"イイダシ","town":"松尾明","town_kana":"マツオミョウ","prefecture_code":20},"0074":{"zip_code":"3950074","prefecture":"長野県","prefecture_kana":"ナガノケン","city":"飯田市","city_kana":"イイダシ","town":"松川町","town_kana":"マツカワチョウ","prefecture_code":20},"0077":{"zip_code":"3950077","prefecture":"長野県","prefecture_kana":"ナガノケン","city":"飯田市","city_kana":"イイダシ","town":"丸山町","town_kana":"マルヤマチョウ","prefecture_code":20},"0035":{"zip_code":"3950035","prefecture":"長野県","prefecture_kana":"ナガノケン","city":"飯田市","city_kana":"イイダシ","town":"水の手町","town_kana":"ミズノテチョウ","prefecture_code":20},"0155":{"zip_code":"3950155","prefecture":"長野県","prefecture_kana":"ナガノケン","city":"飯田市","city_kana":"イイダシ","town":"三日市場","town_kana":"ミッカイチバ","prefecture_code":20},"0037":{"zip_code":"3950037","prefecture":"長野県","prefecture_kana":"ナガノケン","city":"飯田市","city_kana":"イイダシ","town":"南常盤町","town_kana":"ミナミトキワマチ","prefecture_code":20},"0054":{"zip_code":"3950054","prefecture":"長野県","prefecture_kana":"ナガノケン","city":"飯田市","city_kana":"イイダシ","town":"箕瀬町","town_kana":"ミノゼチョウ","prefecture_code":20},"0081":{"zip_code":"3950081","prefecture":"長野県","prefecture_kana":"ナガノケン","city":"飯田市","city_kana":"イイダシ","town":"宮ノ上","town_kana":"ミヤノウエ","prefecture_code":20},"0082":{"zip_code":"3950082","prefecture":"長野県","prefecture_kana":"ナガノケン","city":"飯田市","city_kana":"イイダシ","town":"宮の前","town_kana":"ミヤノマエ","prefecture_code":20},"0052":{"zip_code":"3950052","prefecture":"長野県","prefecture_kana":"ナガノケン","city":"飯田市","city_kana":"イイダシ","town":"元町","town_kana":"モトマチ","prefecture_code":20},"0244":{"zip_code":"3950244","prefecture":"長野県","prefecture_kana":"ナガノケン","city":"飯田市","city_kana":"イイダシ","town":"山本","town_kana":"ヤマモト","prefecture_code":20},"0245":{"zip_code":"3950245","prefecture":"長野県","prefecture_kana":"ナガノケン","city":"飯田市","city_kana":"イイダシ","town":"山本二ツ山団地","town_kana":"ヤマモトフタツヤマダンチ","prefecture_code":20},"0814":{"zip_code":"3950814","prefecture":"長野県","prefecture_kana":"ナガノケン","city":"飯田市","city_kana":"イイダシ","town":"八幡町","town_kana":"ヤワタマチ","prefecture_code":20},"0300":{"zip_code":"3950300","prefecture":"長野県","prefecture_kana":"ナガノケン","city":"下伊那郡阿智村","city_kana":"シモイナグンアチムラ","town":"","town_kana":"","prefecture_code":20},"0301":{"zip_code":"3950301","prefecture":"長野県","prefecture_kana":"ナガノケン","city":"下伊那郡阿智村","city_kana":"シモイナグンアチムラ","town":"春日","town_kana":"カスガ","prefecture_code":20},"0302":{"zip_code":"3950302","prefecture":"長野県","prefecture_kana":"ナガノケン","city":"下伊那郡阿智村","city_kana":"シモイナグンアチムラ","town":"伍和","town_kana":"ゴカ","prefecture_code":20},"0305":{"zip_code":"3950305","prefecture":"長野県","prefecture_kana":"ナガノケン","city":"下伊那郡阿智村","city_kana":"シモイナグンアチムラ","town":"駒","town_kana":"コマ","prefecture_code":20},"0303":{"zip_code":"3950303","prefecture":"長野県","prefecture_kana":"ナガノケン","city":"下伊那郡阿智村","city_kana":"シモイナグンアチムラ","town":"駒場","town_kana":"コマバ","prefecture_code":20},"0401":{"zip_code":"3950401","prefecture":"長野県","prefecture_kana":"ナガノケン","city":"下伊那郡阿智村","city_kana":"シモイナグンアチムラ","town":"清内路","town_kana":"セイナイジ","prefecture_code":20},"0304":{"zip_code":"3950304","prefecture":"長野県","prefecture_kana":"ナガノケン","city":"下伊那郡阿智村","city_kana":"シモイナグンアチムラ","town":"智里","town_kana":"チサト","prefecture_code":20},"0501":{"zip_code":"3950501","prefecture":"長野県","prefecture_kana":"ナガノケン","city":"下伊那郡阿智村","city_kana":"シモイナグンアチムラ","town":"浪合","town_kana":"ナミアイ","prefecture_code":20},"0601":{"zip_code":"3950601","prefecture":"長野県","prefecture_kana":"ナガノケン","city":"下伊那郡平谷村","city_kana":"シモイナグンヒラヤムラ","town":"","town_kana":"","prefecture_code":20},"0701":{"zip_code":"3950701","prefecture":"長野県","prefecture_kana":"ナガノケン","city":"下伊那郡根羽村","city_kana":"シモイナグンネバムラ","town":"","town_kana":"","prefecture_code":20},"1100":{"zip_code":"3951100","prefecture":"長野県","prefecture_kana":"ナガノケン","city":"下伊那郡喬木村","city_kana":"シモイナグンタカギムラ","town":"","town_kana":"","prefecture_code":20},"1101":{"zip_code":"3951101","prefecture":"長野県","prefecture_kana":"ナガノケン","city":"下伊那郡喬木村","city_kana":"シモイナグンタカギムラ","town":"阿島","town_kana":"アジマ","prefecture_code":20},"1108":{"zip_code":"3951108","prefecture":"長野県","prefecture_kana":"ナガノケン","city":"下伊那郡喬木村","city_kana":"シモイナグンタカギムラ","town":"伊久間","town_kana":"イクマ","prefecture_code":20},"1104":{"zip_code":"3951104","prefecture":"長野県","prefecture_kana":"ナガノケン","city":"下伊那郡喬木村","city_kana":"シモイナグンタカギムラ","town":"氏乗","town_kana":"ウジノリ","prefecture_code":20},"1103":{"zip_code":"3951103","prefecture":"長野県","prefecture_kana":"ナガノケン","city":"下伊那郡喬木村","city_kana":"シモイナグンタカギムラ","town":"大島","town_kana":"オオシマ","prefecture_code":20},"1105":{"zip_code":"3951105","prefecture":"長野県","prefecture_kana":"ナガノケン","city":"下伊那郡喬木村","city_kana":"シモイナグンタカギムラ","town":"大和知","town_kana":"オオワチ","prefecture_code":20},"1107":{"zip_code":"3951107","prefecture":"長野県","prefecture_kana":"ナガノケン","city":"下伊那郡喬木村","city_kana":"シモイナグンタカギムラ","town":"小川","town_kana":"オガワ","prefecture_code":20},"1102":{"zip_code":"3951102","prefecture":"長野県","prefecture_kana":"ナガノケン","city":"下伊那郡喬木村","city_kana":"シモイナグンタカギムラ","town":"加々須","town_kana":"カカス","prefecture_code":20},"1106":{"zip_code":"3951106","prefecture":"長野県","prefecture_kana":"ナガノケン","city":"下伊那郡喬木村","city_kana":"シモイナグンタカギムラ","town":"富田","town_kana":"トミダ","prefecture_code":20}}