{"0201":{"zip_code":"3970201","prefecture":"長野県","prefecture_kana":"ナガノケン","city":"木曽郡王滝村","city_kana":"キソグンオウタキムラ","town":"","town_kana":"","prefecture_code":20},"0000":{"zip_code":"3970000","prefecture":"長野県","prefecture_kana":"ナガノケン","city":"木曽郡木曽町","city_kana":"キソグンキソマチ","town":"","town_kana":"","prefecture_code":20},"0301":{"zip_code":"3970301","prefecture":"長野県","prefecture_kana":"ナガノケン","city":"木曽郡木曽町","city_kana":"キソグンキソマチ","town":"開田高原末川","town_kana":"カイダコウゲンスエカワ","prefecture_code":20},"0302":{"zip_code":"3970302","prefecture":"長野県","prefecture_kana":"ナガノケン","city":"木曽郡木曽町","city_kana":"キソグンキソマチ","town":"開田高原西野","town_kana":"カイダコウゲンニシノ","prefecture_code":20},"0002":{"zip_code":"3970002","prefecture":"長野県","prefecture_kana":"ナガノケン","city":"木曽郡木曽町","city_kana":"キソグンキソマチ","town":"新開","town_kana":"シンカイ","prefecture_code":20},"0003":{"zip_code":"3970003","prefecture":"長野県","prefecture_kana":"ナガノケン","city":"木曽郡木曽町","city_kana":"キソグンキソマチ","town":"新開福","town_kana":"シンカイフク","prefecture_code":20},"0001":{"zip_code":"3970001","prefecture":"長野県","prefecture_kana":"ナガノケン","city":"木曽郡木曽町","city_kana":"キソグンキソマチ","town":"福島","town_kana":"フクシマ","prefecture_code":20},"0101":{"zip_code":"3970101","prefecture":"長野県","prefecture_kana":"ナガノケン","city":"木曽郡木曽町","city_kana":"キソグンキソマチ","town":"三岳","town_kana":"ミタケ","prefecture_code":20}}