{"0000":{"zip_code":"4010000","prefecture":"山梨県","prefecture_kana":"ヤマナシケン","city":"大月市","city_kana":"オオツキシ","town":"","town_kana":"","prefecture_code":19},"0013":{"zip_code":"4010013","prefecture":"山梨県","prefecture_kana":"ヤマナシケン","city":"大月市","city_kana":"オオツキシ","town":"大月","town_kana":"オオツキ","prefecture_code":19},"0014":{"zip_code":"4010014","prefecture":"山梨県","prefecture_kana":"ヤマナシケン","city":"大月市","city_kana":"オオツキシ","town":"大月町大月","town_kana":"オオツキマチオオツキ","prefecture_code":19},"0015":{"zip_code":"4010015","prefecture":"山梨県","prefecture_kana":"ヤマナシケン","city":"大月市","city_kana":"オオツキシ","town":"大月町花咲","town_kana":"オオツキマチハナサキ","prefecture_code":19},"0016":{"zip_code":"4010016","prefecture":"山梨県","prefecture_kana":"ヤマナシケン","city":"大月市","city_kana":"オオツキシ","town":"大月町真木","town_kana":"オオツキマチマギ","prefecture_code":19},"0011":{"zip_code":"4010011","prefecture":"山梨県","prefecture_kana":"ヤマナシケン","city":"大月市","city_kana":"オオツキシ","town":"駒橋","town_kana":"コマハシ","prefecture_code":19},"0025":{"zip_code":"4010025","prefecture":"山梨県","prefecture_kana":"ヤマナシケン","city":"大月市","city_kana":"オオツキシ","town":"笹子町黒野田","town_kana":"ササゴマチクロノダ","prefecture_code":19},"0023":{"zip_code":"4010023","prefecture":"山梨県","prefecture_kana":"ヤマナシケン","city":"大月市","city_kana":"オオツキシ","town":"笹子町白野","town_kana":"ササゴマチシラノ","prefecture_code":19},"0024":{"zip_code":"4010024","prefecture":"山梨県","prefecture_kana":"ヤマナシケン","city":"大月市","city_kana":"オオツキシ","town":"笹子町吉久保","town_kana":"ササゴマチヨシクボ","prefecture_code":19},"0005":{"zip_code":"4010005","prefecture":"山梨県","prefecture_kana":"ヤマナシケン","city":"大月市","city_kana":"オオツキシ","town":"賑岡町浅利","town_kana":"ニギオカマチアサリ","prefecture_code":19},"0002":{"zip_code":"4010002","prefecture":"山梨県","prefecture_kana":"ヤマナシケン","city":"大月市","city_kana":"オオツキシ","town":"賑岡町岩殿","town_kana":"ニギオカマチイワドノ","prefecture_code":19},"0006":{"zip_code":"4010006","prefecture":"山梨県","prefecture_kana":"ヤマナシケン","city":"大月市","city_kana":"オオツキシ","town":"賑岡町奥山","town_kana":"ニギオカマチオクヤマ","prefecture_code":19},"0004":{"zip_code":"4010004","prefecture":"山梨県","prefecture_kana":"ヤマナシケン","city":"大月市","city_kana":"オオツキシ","town":"賑岡町強瀬","town_kana":"ニギオカマチコワゼ","prefecture_code":19},"0001":{"zip_code":"4010001","prefecture":"山梨県","prefecture_kana":"ヤマナシケン","city":"大月市","city_kana":"オオツキシ","town":"賑岡町畑倉","town_kana":"ニギオカマチハタグラ","prefecture_code":19},"0003":{"zip_code":"4010003","prefecture":"山梨県","prefecture_kana":"ヤマナシケン","city":"大月市","city_kana":"オオツキシ","town":"賑岡町ゆりケ丘","town_kana":"ニギオカマチユリガオカ","prefecture_code":19},"0021":{"zip_code":"4010021","prefecture":"山梨県","prefecture_kana":"ヤマナシケン","city":"大月市","city_kana":"オオツキシ","town":"初狩町下初狩","town_kana":"ハツカリマチシモハツカリ","prefecture_code":19},"0022":{"zip_code":"4010022","prefecture":"山梨県","prefecture_kana":"ヤマナシケン","city":"大月市","city_kana":"オオツキシ","town":"初狩町中初狩","town_kana":"ハツカリマチナカハツカリ","prefecture_code":19},"0012":{"zip_code":"4010012","prefecture":"山梨県","prefecture_kana":"ヤマナシケン","city":"大月市","city_kana":"オオツキシ","town":"御太刀","town_kana":"ミタチ","prefecture_code":19},"0201":{"zip_code":"4010201","prefecture":"山梨県","prefecture_kana":"ヤマナシケン","city":"上野原市","city_kana":"ウエノハラシ","town":"秋山","town_kana":"アキヤマ","prefecture_code":19},"0500":[{"zip_code":"4010500","prefecture":"山梨県","prefecture_kana":"ヤマナシケン","city":"南都留郡忍野村","city_kana":"ミナミツルグンオシノムラ","town":"","town_kana":"","prefecture_code":19},{"zip_code":"4010500","prefecture":"山梨県","prefecture_kana":"ヤマナシケン","city":"南都留郡山中湖村","city_kana":"ミナミツルグンヤマナカコムラ","town":"","town_kana":"","prefecture_code":19}],"0512":{"zip_code":"4010512","prefecture":"山梨県","prefecture_kana":"ヤマナシケン","city":"南都留郡忍野村","city_kana":"ミナミツルグンオシノムラ","town":"内野","town_kana":"ウチノ","prefecture_code":19},"0511":{"zip_code":"4010511","prefecture":"山梨県","prefecture_kana":"ヤマナシケン","city":"南都留郡忍野村","city_kana":"ミナミツルグンオシノムラ","town":"忍草","town_kana":"シボクサ","prefecture_code":19},"0502":{"zip_code":"4010502","prefecture":"山梨県","prefecture_kana":"ヤマナシケン","city":"南都留郡山中湖村","city_kana":"ミナミツルグンヤマナカコムラ","town":"平野","town_kana":"ヒラノ","prefecture_code":19},"0501":{"zip_code":"4010501","prefecture":"山梨県","prefecture_kana":"ヤマナシケン","city":"南都留郡山中湖村","city_kana":"ミナミツルグンヤマナカコムラ","town":"山中","town_kana":"ヤマナカ","prefecture_code":19},"0320":{"zip_code":"4010320","prefecture":"山梨県","prefecture_kana":"ヤマナシケン","city":"南都留郡鳴沢村","city_kana":"ミナミツルグンナルサワムラ","town":"","town_kana":"","prefecture_code":19},"0300":{"zip_code":"4010300","prefecture":"山梨県","prefecture_kana":"ヤマナシケン","city":"南都留郡富士河口湖町","city_kana":"ミナミツルグンフジカワグチコマチ","town":"","town_kana":"","prefecture_code":19},"0303":{"zip_code":"4010303","prefecture":"山梨県","prefecture_kana":"ヤマナシケン","city":"南都留郡富士河口湖町","city_kana":"ミナミツルグンフジカワグチコマチ","town":"浅川","town_kana":"アザガワ","prefecture_code":19},"0335":{"zip_code":"4010335","prefecture":"山梨県","prefecture_kana":"ヤマナシケン","city":"南都留郡富士河口湖町","city_kana":"ミナミツルグンフジカワグチコマチ","town":"大嵐","town_kana":"オオアラシ","prefecture_code":19},"0305":{"zip_code":"4010305","prefecture":"山梨県","prefecture_kana":"ヤマナシケン","city":"南都留郡富士河口湖町","city_kana":"ミナミツルグンフジカワグチコマチ","town":"大石","town_kana":"オオイシ","prefecture_code":19},"0310":{"zip_code":"4010310","prefecture":"山梨県","prefecture_kana":"ヤマナシケン","city":"南都留郡富士河口湖町","city_kana":"ミナミツルグンフジカワグチコマチ","town":"勝山","town_kana":"カツヤマ","prefecture_code":19},"0304":{"zip_code":"4010304","prefecture":"山梨県","prefecture_kana":"ヤマナシケン","city":"南都留郡富士河口湖町","city_kana":"ミナミツルグンフジカワグチコマチ","town":"河口","town_kana":"カワグチ","prefecture_code":19},"0302":{"zip_code":"4010302","prefecture":"山梨県","prefecture_kana":"ヤマナシケン","city":"南都留郡富士河口湖町","city_kana":"ミナミツルグンフジカワグチコマチ","town":"小立","town_kana":"コダチ","prefecture_code":19},"0332":{"zip_code":"4010332","prefecture":"山梨県","prefecture_kana":"ヤマナシケン","city":"南都留郡富士河口湖町","city_kana":"ミナミツルグンフジカワグチコマチ","town":"西湖","town_kana":"サイコ","prefecture_code":19},"0333":{"zip_code":"4010333","prefecture":"山梨県","prefecture_kana":"ヤマナシケン","city":"南都留郡富士河口湖町","city_kana":"ミナミツルグンフジカワグチコマチ","town":"西湖西","town_kana":"サイコニシ","prefecture_code":19},"0334":{"zip_code":"4010334","prefecture":"山梨県","prefecture_kana":"ヤマナシケン","city":"南都留郡富士河口湖町","city_kana":"ミナミツルグンフジカワグチコマチ","town":"西湖南","town_kana":"サイコミナミ","prefecture_code":19},"0336":{"zip_code":"4010336","prefecture":"山梨県","prefecture_kana":"ヤマナシケン","city":"南都留郡富士河口湖町","city_kana":"ミナミツルグンフジカワグチコマチ","town":"精進","town_kana":"ショウジ","prefecture_code":19},"0331":{"zip_code":"4010331","prefecture":"山梨県","prefecture_kana":"ヤマナシケン","city":"南都留郡富士河口湖町","city_kana":"ミナミツルグンフジカワグチコマチ","town":"長浜","town_kana":"ナガハマ","prefecture_code":19},"0338":{"zip_code":"4010338","prefecture":"山梨県","prefecture_kana":"ヤマナシケン","city":"南都留郡富士河口湖町","city_kana":"ミナミツルグンフジカワグチコマチ","town":"富士ケ嶺","town_kana":"フジガネ","prefecture_code":19},"0301":{"zip_code":"4010301","prefecture":"山梨県","prefecture_kana":"ヤマナシケン","city":"南都留郡富士河口湖町","city_kana":"ミナミツルグンフジカワグチコマチ","town":"船津","town_kana":"フナツ","prefecture_code":19},"0337":{"zip_code":"4010337","prefecture":"山梨県","prefecture_kana":"ヤマナシケン","city":"南都留郡富士河口湖町","city_kana":"ミナミツルグンフジカワグチコマチ","town":"本栖","town_kana":"モトス","prefecture_code":19}}