{"0000":{"zip_code":"4020000","prefecture":"山梨県","prefecture_kana":"ヤマナシケン","city":"都留市","city_kana":"ツルシ","town":"以下に掲載がない場合","town_kana":"イカニケイサイガナイバアイ","prefecture_code":19},"0015":{"zip_code":"4020015","prefecture":"山梨県","prefecture_kana":"ヤマナシケン","city":"都留市","city_kana":"ツルシ","town":"朝日曽雌","town_kana":"アサヒソシ","prefecture_code":19},"0014":{"zip_code":"4020014","prefecture":"山梨県","prefecture_kana":"ヤマナシケン","city":"都留市","city_kana":"ツルシ","town":"朝日馬場","town_kana":"アサヒババ","prefecture_code":19},"0042":{"zip_code":"4020042","prefecture":"山梨県","prefecture_kana":"ヤマナシケン","city":"都留市","city_kana":"ツルシ","town":"厚原","town_kana":"アツハラ","prefecture_code":19},"0011":{"zip_code":"4020011","prefecture":"山梨県","prefecture_kana":"ヤマナシケン","city":"都留市","city_kana":"ツルシ","town":"井倉","town_kana":"イグラ","prefecture_code":19},"0023":{"zip_code":"4020023","prefecture":"山梨県","prefecture_kana":"ヤマナシケン","city":"都留市","city_kana":"ツルシ","town":"大野","town_kana":"オオノ","prefecture_code":19},"0045":{"zip_code":"4020045","prefecture":"山梨県","prefecture_kana":"ヤマナシケン","city":"都留市","city_kana":"ツルシ","town":"大幡","town_kana":"オオハタ","prefecture_code":19},"0002":{"zip_code":"4020002","prefecture":"山梨県","prefecture_kana":"ヤマナシケン","city":"都留市","city_kana":"ツルシ","town":"大原","town_kana":"オオハラ","prefecture_code":19},"0006":{"zip_code":"4020006","prefecture":"山梨県","prefecture_kana":"ヤマナシケン","city":"都留市","city_kana":"ツルシ","town":"小形山","town_kana":"オガタヤマ","prefecture_code":19},"0024":{"zip_code":"4020024","prefecture":"山梨県","prefecture_kana":"ヤマナシケン","city":"都留市","city_kana":"ツルシ","town":"小野","town_kana":"オノ","prefecture_code":19},"0034":{"zip_code":"4020034","prefecture":"山梨県","prefecture_kana":"ヤマナシケン","city":"都留市","city_kana":"ツルシ","town":"桂町","town_kana":"カツラマチ","prefecture_code":19},"0041":{"zip_code":"4020041","prefecture":"山梨県","prefecture_kana":"ヤマナシケン","city":"都留市","city_kana":"ツルシ","town":"金井","town_kana":"カナイ","prefecture_code":19},"0044":{"zip_code":"4020044","prefecture":"山梨県","prefecture_kana":"ヤマナシケン","city":"都留市","city_kana":"ツルシ","town":"加畑","town_kana":"カハタ","prefecture_code":19},"0053":{"zip_code":"4020053","prefecture":"山梨県","prefecture_kana":"ヤマナシケン","city":"都留市","city_kana":"ツルシ","town":"上谷","town_kana":"カミヤ","prefecture_code":19},"0055":{"zip_code":"4020055","prefecture":"山梨県","prefecture_kana":"ヤマナシケン","city":"都留市","city_kana":"ツルシ","town":"川棚","town_kana":"カワダナ","prefecture_code":19},"0003":{"zip_code":"4020003","prefecture":"山梨県","prefecture_kana":"ヤマナシケン","city":"都留市","city_kana":"ツルシ","town":"川茂","town_kana":"カワモ","prefecture_code":19},"0033":{"zip_code":"4020033","prefecture":"山梨県","prefecture_kana":"ヤマナシケン","city":"都留市","city_kana":"ツルシ","town":"境","town_kana":"サカイ","prefecture_code":19},"0032":{"zip_code":"4020032","prefecture":"山梨県","prefecture_kana":"ヤマナシケン","city":"都留市","city_kana":"ツルシ","town":"鹿留","town_kana":"シシドメ","prefecture_code":19},"0051":{"zip_code":"4020051","prefecture":"山梨県","prefecture_kana":"ヤマナシケン","city":"都留市","city_kana":"ツルシ","town":"下谷","town_kana":"シモヤ","prefecture_code":19},"0001":{"zip_code":"4020001","prefecture":"山梨県","prefecture_kana":"ヤマナシケン","city":"都留市","city_kana":"ツルシ","town":"田野倉","town_kana":"タノクラ","prefecture_code":19},"0054":{"zip_code":"4020054","prefecture":"山梨県","prefecture_kana":"ヤマナシケン","city":"都留市","city_kana":"ツルシ","town":"田原","town_kana":"タハラ","prefecture_code":19},"0021":{"zip_code":"4020021","prefecture":"山梨県","prefecture_kana":"ヤマナシケン","city":"都留市","city_kana":"ツルシ","town":"玉川","town_kana":"タマガワ","prefecture_code":19},"0052":{"zip_code":"4020052","prefecture":"山梨県","prefecture_kana":"ヤマナシケン","city":"都留市","city_kana":"ツルシ","town":"中央","town_kana":"チュウオウ","prefecture_code":19},"0056":{"zip_code":"4020056","prefecture":"山梨県","prefecture_kana":"ヤマナシケン","city":"都留市","city_kana":"ツルシ","town":"つる","town_kana":"ツル","prefecture_code":19},"0031":{"zip_code":"4020031","prefecture":"山梨県","prefecture_kana":"ヤマナシケン","city":"都留市","city_kana":"ツルシ","town":"十日市場","town_kana":"トオカイチバ","prefecture_code":19},"0022":{"zip_code":"4020022","prefecture":"山梨県","prefecture_kana":"ヤマナシケン","city":"都留市","city_kana":"ツルシ","town":"戸沢","town_kana":"トザワ","prefecture_code":19},"0046":{"zip_code":"4020046","prefecture":"山梨県","prefecture_kana":"ヤマナシケン","city":"都留市","city_kana":"ツルシ","town":"中津森","town_kana":"ナカツモリ","prefecture_code":19},"0035":{"zip_code":"4020035","prefecture":"山梨県","prefecture_kana":"ヤマナシケン","city":"都留市","city_kana":"ツルシ","town":"夏狩","town_kana":"ナツガリ","prefecture_code":19},"0043":{"zip_code":"4020043","prefecture":"山梨県","prefecture_kana":"ヤマナシケン","city":"都留市","city_kana":"ツルシ","town":"平栗","town_kana":"ヒラグリ","prefecture_code":19},"0004":{"zip_code":"4020004","prefecture":"山梨県","prefecture_kana":"ヤマナシケン","city":"都留市","city_kana":"ツルシ","town":"古川渡","town_kana":"フルカワド","prefecture_code":19},"0025":{"zip_code":"4020025","prefecture":"山梨県","prefecture_kana":"ヤマナシケン","city":"都留市","city_kana":"ツルシ","town":"法能","town_kana":"ホウノウ","prefecture_code":19},"0013":{"zip_code":"4020013","prefecture":"山梨県","prefecture_kana":"ヤマナシケン","city":"都留市","city_kana":"ツルシ","town":"盛里","town_kana":"モリサト","prefecture_code":19},"0005":{"zip_code":"4020005","prefecture":"山梨県","prefecture_kana":"ヤマナシケン","city":"都留市","city_kana":"ツルシ","town":"四日市場","town_kana":"ヨッカイチバ","prefecture_code":19},"0012":{"zip_code":"4020012","prefecture":"山梨県","prefecture_kana":"ヤマナシケン","city":"都留市","city_kana":"ツルシ","town":"与縄","town_kana":"ヨナワ","prefecture_code":19},"0200":{"zip_code":"4020200","prefecture":"山梨県","prefecture_kana":"ヤマナシケン","city":"南都留郡道志村","city_kana":"ミナミツルグンドウシムラ","town":"以下に掲載がない場合","town_kana":"イカニケイサイガナイバアイ","prefecture_code":19},"0225":{"zip_code":"4020225","prefecture":"山梨県","prefecture_kana":"ヤマナシケン","city":"南都留郡道志村","city_kana":"ミナミツルグンドウシムラ","town":"板橋","town_kana":"イタバシ","prefecture_code":19},"0207":{"zip_code":"4020207","prefecture":"山梨県","prefecture_kana":"ヤマナシケン","city":"南都留郡道志村","city_kana":"ミナミツルグンドウシムラ","town":"大栗","town_kana":"オオグリ","prefecture_code":19},"0215":{"zip_code":"4020215","prefecture":"山梨県","prefecture_kana":"ヤマナシケン","city":"南都留郡道志村","city_kana":"ミナミツルグンドウシムラ","town":"大指","town_kana":"オオザス","prefecture_code":19},"0202":{"zip_code":"4020202","prefecture":"山梨県","prefecture_kana":"ヤマナシケン","city":"南都留郡道志村","city_kana":"ミナミツルグンドウシムラ","town":"大野","town_kana":"オオノ","prefecture_code":19},"0204":{"zip_code":"4020204","prefecture":"山梨県","prefecture_kana":"ヤマナシケン","city":"南都留郡道志村","city_kana":"ミナミツルグンドウシムラ","town":"大室指","town_kana":"オオムロザス","prefecture_code":19},"0214":{"zip_code":"4020214","prefecture":"山梨県","prefecture_kana":"ヤマナシケン","city":"南都留郡道志村","city_kana":"ミナミツルグンドウシムラ","town":"川原畑","town_kana":"カワラハタ","prefecture_code":19},"0216":{"zip_code":"4020216","prefecture":"山梨県","prefecture_kana":"ヤマナシケン","city":"南都留郡道志村","city_kana":"ミナミツルグンドウシムラ","town":"釜之前","town_kana":"カマノマエ","prefecture_code":19},"0227":{"zip_code":"4020227","prefecture":"山梨県","prefecture_kana":"ヤマナシケン","city":"南都留郡道志村","city_kana":"ミナミツルグンドウシムラ","town":"上白井平","town_kana":"カミシロイタイラ","prefecture_code":19},"0223":{"zip_code":"4020223","prefecture":"山梨県","prefecture_kana":"ヤマナシケン","city":"南都留郡道志村","city_kana":"ミナミツルグンドウシムラ","town":"上善之木","town_kana":"カミゼンノキ","prefecture_code":19},"0221":{"zip_code":"4020221","prefecture":"山梨県","prefecture_kana":"ヤマナシケン","city":"南都留郡道志村","city_kana":"ミナミツルグンドウシムラ","town":"上中山","town_kana":"カミナカヤマ","prefecture_code":19},"0224":{"zip_code":"4020224","prefecture":"山梨県","prefecture_kana":"ヤマナシケン","city":"南都留郡道志村","city_kana":"ミナミツルグンドウシムラ","town":"川村","town_kana":"カワムラ","prefecture_code":19},"0203":{"zip_code":"4020203","prefecture":"山梨県","prefecture_kana":"ヤマナシケン","city":"南都留郡道志村","city_kana":"ミナミツルグンドウシムラ","town":"久保","town_kana":"クボ","prefecture_code":19},"0206":{"zip_code":"4020206","prefecture":"山梨県","prefecture_kana":"ヤマナシケン","city":"南都留郡道志村","city_kana":"ミナミツルグンドウシムラ","town":"小善地","town_kana":"コゼンジ","prefecture_code":19},"0226":{"zip_code":"4020226","prefecture":"山梨県","prefecture_kana":"ヤマナシケン","city":"南都留郡道志村","city_kana":"ミナミツルグンドウシムラ","town":"下白井平","town_kana":"シモシロイタイラ","prefecture_code":19},"0222":{"zip_code":"4020222","prefecture":"山梨県","prefecture_kana":"ヤマナシケン","city":"南都留郡道志村","city_kana":"ミナミツルグンドウシムラ","town":"下善之木","town_kana":"シモゼンノキ","prefecture_code":19},"0219":{"zip_code":"4020219","prefecture":"山梨県","prefecture_kana":"ヤマナシケン","city":"南都留郡道志村","city_kana":"ミナミツルグンドウシムラ","town":"下中山","town_kana":"シモナカヤマ","prefecture_code":19},"0209":{"zip_code":"4020209","prefecture":"山梨県","prefecture_kana":"ヤマナシケン","city":"南都留郡道志村","city_kana":"ミナミツルグンドウシムラ","town":"竹之本","town_kana":"タケノモト","prefecture_code":19},"0201":{"zip_code":"4020201","prefecture":"山梨県","prefecture_kana":"ヤマナシケン","city":"南都留郡道志村","city_kana":"ミナミツルグンドウシムラ","town":"月夜野","town_kana":"ツキヨノ","prefecture_code":19},"0205":{"zip_code":"4020205","prefecture":"山梨県","prefecture_kana":"ヤマナシケン","city":"南都留郡道志村","city_kana":"ミナミツルグンドウシムラ","town":"椿","town_kana":"ツバキ","prefecture_code":19},"0218":{"zip_code":"4020218","prefecture":"山梨県","prefecture_kana":"ヤマナシケン","city":"南都留郡道志村","city_kana":"ミナミツルグンドウシムラ","town":"中神地","town_kana":"ナカカンジ","prefecture_code":19},"0228":{"zip_code":"4020228","prefecture":"山梨県","prefecture_kana":"ヤマナシケン","city":"南都留郡道志村","city_kana":"ミナミツルグンドウシムラ","town":"長又","town_kana":"ナガマタ","prefecture_code":19},"0212":{"zip_code":"4020212","prefecture":"山梨県","prefecture_kana":"ヤマナシケン","city":"南都留郡道志村","city_kana":"ミナミツルグンドウシムラ","town":"西和出村","town_kana":"ニシワデムラ","prefecture_code":19},"0208":{"zip_code":"4020208","prefecture":"山梨県","prefecture_kana":"ヤマナシケン","city":"南都留郡道志村","city_kana":"ミナミツルグンドウシムラ","town":"馬場","town_kana":"バンバ","prefecture_code":19},"0217":{"zip_code":"4020217","prefecture":"山梨県","prefecture_kana":"ヤマナシケン","city":"南都留郡道志村","city_kana":"ミナミツルグンドウシムラ","town":"東神地","town_kana":"ヒガシカンジ","prefecture_code":19},"0211":{"zip_code":"4020211","prefecture":"山梨県","prefecture_kana":"ヤマナシケン","city":"南都留郡道志村","city_kana":"ミナミツルグンドウシムラ","town":"東和出村","town_kana":"ヒガシワデムラ","prefecture_code":19},"0213":{"zip_code":"4020213","prefecture":"山梨県","prefecture_kana":"ヤマナシケン","city":"南都留郡道志村","city_kana":"ミナミツルグンドウシムラ","town":"谷相","town_kana":"ヤソウ","prefecture_code":19}}