{"0000":[{"zip_code":"4030000","prefecture":"山梨県","prefecture_kana":"ヤマナシケン","city":"富士吉田市","city_kana":"フジヨシダシ","town":"","town_kana":"","prefecture_code":19},{"zip_code":"4030000","prefecture":"山梨県","prefecture_kana":"ヤマナシケン","city":"南都留郡西桂町","city_kana":"ミナミツルグンニシカツラチョウ","town":"","town_kana":"","prefecture_code":19}],"0012":{"zip_code":"4030012","prefecture":"山梨県","prefecture_kana":"ヤマナシケン","city":"富士吉田市","city_kana":"フジヨシダシ","town":"旭","town_kana":"アサヒ","prefecture_code":19},"0011":{"zip_code":"4030011","prefecture":"山梨県","prefecture_kana":"ヤマナシケン","city":"富士吉田市","city_kana":"フジヨシダシ","town":"新倉","town_kana":"アラクラ","prefecture_code":19},"0006":{"zip_code":"4030006","prefecture":"山梨県","prefecture_kana":"ヤマナシケン","city":"富士吉田市","city_kana":"フジヨシダシ","town":"新屋","town_kana":"アラヤ","prefecture_code":19},"0003":{"zip_code":"4030003","prefecture":"山梨県","prefecture_kana":"ヤマナシケン","city":"富士吉田市","city_kana":"フジヨシダシ","town":"大明見","town_kana":"オオアスミ","prefecture_code":19},"0001":{"zip_code":"4030001","prefecture":"山梨県","prefecture_kana":"ヤマナシケン","city":"富士吉田市","city_kana":"フジヨシダシ","town":"上暮地","town_kana":"カミクレチ","prefecture_code":19},"0005":{"zip_code":"4030005","prefecture":"山梨県","prefecture_kana":"ヤマナシケン","city":"富士吉田市","city_kana":"フジヨシダシ","town":"上吉田","town_kana":"カミヨシダ","prefecture_code":19},"0002":{"zip_code":"4030002","prefecture":"山梨県","prefecture_kana":"ヤマナシケン","city":"富士吉田市","city_kana":"フジヨシダシ","town":"小明見","town_kana":"コアスミ","prefecture_code":19},"0004":{"zip_code":"4030004","prefecture":"山梨県","prefecture_kana":"ヤマナシケン","city":"富士吉田市","city_kana":"フジヨシダシ","town":"下吉田","town_kana":"シモヨシダ","prefecture_code":19},"0017":{"zip_code":"4030017","prefecture":"山梨県","prefecture_kana":"ヤマナシケン","city":"富士吉田市","city_kana":"フジヨシダシ","town":"新西原","town_kana":"シンニシハラ","prefecture_code":19},"0014":{"zip_code":"4030014","prefecture":"山梨県","prefecture_kana":"ヤマナシケン","city":"富士吉田市","city_kana":"フジヨシダシ","town":"竜ケ丘","town_kana":"タツガオカ","prefecture_code":19},"0015":{"zip_code":"4030015","prefecture":"山梨県","prefecture_kana":"ヤマナシケン","city":"富士吉田市","city_kana":"フジヨシダシ","town":"ときわ台","town_kana":"トキワダイ","prefecture_code":19},"0007":{"zip_code":"4030007","prefecture":"山梨県","prefecture_kana":"ヤマナシケン","city":"富士吉田市","city_kana":"フジヨシダシ","town":"中曽根","town_kana":"ナカゾネ","prefecture_code":19},"0016":{"zip_code":"4030016","prefecture":"山梨県","prefecture_kana":"ヤマナシケン","city":"富士吉田市","city_kana":"フジヨシダシ","town":"松山","town_kana":"マツヤマ","prefecture_code":19},"0013":{"zip_code":"4030013","prefecture":"山梨県","prefecture_kana":"ヤマナシケン","city":"富士吉田市","city_kana":"フジヨシダシ","town":"緑ケ丘","town_kana":"ミドリガオカ","prefecture_code":19},"0022":{"zip_code":"4030022","prefecture":"山梨県","prefecture_kana":"ヤマナシケン","city":"南都留郡西桂町","city_kana":"ミナミツルグンニシカツラチョウ","town":"小沼","town_kana":"オヌマ","prefecture_code":19},"0023":{"zip_code":"4030023","prefecture":"山梨県","prefecture_kana":"ヤマナシケン","city":"南都留郡西桂町","city_kana":"ミナミツルグンニシカツラチョウ","town":"倉見","town_kana":"クラミ","prefecture_code":19},"0021":{"zip_code":"4030021","prefecture":"山梨県","prefecture_kana":"ヤマナシケン","city":"南都留郡西桂町","city_kana":"ミナミツルグンニシカツラチョウ","town":"下暮地","town_kana":"シモクレチ","prefecture_code":19}}