{"0000":{"zip_code":"4060000","prefecture":"山梨県","prefecture_kana":"ヤマナシケン","city":"笛吹市","city_kana":"フエフキシ","town":"","town_kana":"","prefecture_code":19},"0031":{"zip_code":"4060031","prefecture":"山梨県","prefecture_kana":"ヤマナシケン","city":"笛吹市","city_kana":"フエフキシ","town":"石和町市部","town_kana":"イサワチョウイチベ","prefecture_code":19},"0045":{"zip_code":"4060045","prefecture":"山梨県","prefecture_kana":"ヤマナシケン","city":"笛吹市","city_kana":"フエフキシ","town":"石和町井戸","town_kana":"イサワチョウイド","prefecture_code":19},"0042":{"zip_code":"4060042","prefecture":"山梨県","prefecture_kana":"ヤマナシケン","city":"笛吹市","city_kana":"フエフキシ","town":"石和町今井","town_kana":"イサワチョウイマイ","prefecture_code":19},"0028":{"zip_code":"4060028","prefecture":"山梨県","prefecture_kana":"ヤマナシケン","city":"笛吹市","city_kana":"フエフキシ","town":"石和町駅前","town_kana":"イサワチョウエキマエ","prefecture_code":19},"0025":{"zip_code":"4060025","prefecture":"山梨県","prefecture_kana":"ヤマナシケン","city":"笛吹市","city_kana":"フエフキシ","town":"石和町上平井","town_kana":"イサワチョウカミヒライ","prefecture_code":19},"0034":{"zip_code":"4060034","prefecture":"山梨県","prefecture_kana":"ヤマナシケン","city":"笛吹市","city_kana":"フエフキシ","town":"石和町唐柏","town_kana":"イサワチョウカラカシワ","prefecture_code":19},"0024":{"zip_code":"4060024","prefecture":"山梨県","prefecture_kana":"ヤマナシケン","city":"笛吹市","city_kana":"フエフキシ","town":"石和町川中島","town_kana":"イサワチョウカワナカジマ","prefecture_code":19},"0036":{"zip_code":"4060036","prefecture":"山梨県","prefecture_kana":"ヤマナシケン","city":"笛吹市","city_kana":"フエフキシ","town":"石和町窪中島","town_kana":"イサワチョウクボナカジマ","prefecture_code":19},"0033":{"zip_code":"4060033","prefecture":"山梨県","prefecture_kana":"ヤマナシケン","city":"笛吹市","city_kana":"フエフキシ","town":"石和町小石和","town_kana":"イサワチョウコイサワ","prefecture_code":19},"0043":{"zip_code":"4060043","prefecture":"山梨県","prefecture_kana":"ヤマナシケン","city":"笛吹市","city_kana":"フエフキシ","town":"石和町河内","town_kana":"イサワチョウコウチ","prefecture_code":19},"0027":{"zip_code":"4060027","prefecture":"山梨県","prefecture_kana":"ヤマナシケン","city":"笛吹市","city_kana":"フエフキシ","town":"石和町下平井","town_kana":"イサワチョウシモヒライ","prefecture_code":19},"0044":{"zip_code":"4060044","prefecture":"山梨県","prefecture_kana":"ヤマナシケン","city":"笛吹市","city_kana":"フエフキシ","town":"石和町砂原","town_kana":"イサワチョウスナハラ","prefecture_code":19},"0026":{"zip_code":"4060026","prefecture":"山梨県","prefecture_kana":"ヤマナシケン","city":"笛吹市","city_kana":"フエフキシ","town":"石和町中川","town_kana":"イサワチョウナカガワ","prefecture_code":19},"0023":{"zip_code":"4060023","prefecture":"山梨県","prefecture_kana":"ヤマナシケン","city":"笛吹市","city_kana":"フエフキシ","town":"石和町八田","town_kana":"イサワチョウハツタ","prefecture_code":19},"0046":{"zip_code":"4060046","prefecture":"山梨県","prefecture_kana":"ヤマナシケン","city":"笛吹市","city_kana":"フエフキシ","town":"石和町東油川","town_kana":"イサワチョウヒガシアブラカワ","prefecture_code":19},"0041":{"zip_code":"4060041","prefecture":"山梨県","prefecture_kana":"ヤマナシケン","city":"笛吹市","city_kana":"フエフキシ","town":"石和町東高橋","town_kana":"イサワチョウヒガシタカハシ","prefecture_code":19},"0035":{"zip_code":"4060035","prefecture":"山梨県","prefecture_kana":"ヤマナシケン","city":"笛吹市","city_kana":"フエフキシ","town":"石和町広瀬","town_kana":"イサワチョウヒロセ","prefecture_code":19},"0021":{"zip_code":"4060021","prefecture":"山梨県","prefecture_kana":"ヤマナシケン","city":"笛吹市","city_kana":"フエフキシ","town":"石和町松本","town_kana":"イサワチョウマツモト","prefecture_code":19},"0022":{"zip_code":"4060022","prefecture":"山梨県","prefecture_kana":"ヤマナシケン","city":"笛吹市","city_kana":"フエフキシ","town":"石和町山崎","town_kana":"イサワチョウヤマサキ","prefecture_code":19},"0032":{"zip_code":"4060032","prefecture":"山梨県","prefecture_kana":"ヤマナシケン","city":"笛吹市","city_kana":"フエフキシ","town":"石和町四日市場","town_kana":"イサワチョウヨッカイチバ","prefecture_code":19},"0005":{"zip_code":"4060005","prefecture":"山梨県","prefecture_kana":"ヤマナシケン","city":"笛吹市","city_kana":"フエフキシ","town":"春日居町加茂","town_kana":"カスガイチョウカモ","prefecture_code":19},"0012":{"zip_code":"4060012","prefecture":"山梨県","prefecture_kana":"ヤマナシケン","city":"笛吹市","city_kana":"フエフキシ","town":"春日居町熊野堂","town_kana":"カスガイチョウクマノドウ","prefecture_code":19},"0003":{"zip_code":"4060003","prefecture":"山梨県","prefecture_kana":"ヤマナシケン","city":"笛吹市","city_kana":"フエフキシ","town":"春日居町桑戸","town_kana":"カスガイチョウクワド","prefecture_code":19},"0014":{"zip_code":"4060014","prefecture":"山梨県","prefecture_kana":"ヤマナシケン","city":"笛吹市","city_kana":"フエフキシ","town":"春日居町国府","town_kana":"カスガイチョウコクフ","prefecture_code":19},"0004":{"zip_code":"4060004","prefecture":"山梨県","prefecture_kana":"ヤマナシケン","city":"笛吹市","city_kana":"フエフキシ","town":"春日居町小松","town_kana":"カスガイチョウコマツ","prefecture_code":19},"0015":{"zip_code":"4060015","prefecture":"山梨県","prefecture_kana":"ヤマナシケン","city":"笛吹市","city_kana":"フエフキシ","town":"春日居町鎮目","town_kana":"カスガイチョウシズメ","prefecture_code":19},"0001":{"zip_code":"4060001","prefecture":"山梨県","prefecture_kana":"ヤマナシケン","city":"笛吹市","city_kana":"フエフキシ","town":"春日居町下岩下","town_kana":"カスガイチョウシモイワシタ","prefecture_code":19},"0013":{"zip_code":"4060013","prefecture":"山梨県","prefecture_kana":"ヤマナシケン","city":"笛吹市","city_kana":"フエフキシ","town":"春日居町寺本","town_kana":"カスガイチョウテラモト","prefecture_code":19},"0011":{"zip_code":"4060011","prefecture":"山梨県","prefecture_kana":"ヤマナシケン","city":"笛吹市","city_kana":"フエフキシ","town":"春日居町徳条","town_kana":"カスガイチョウトクジョウ","prefecture_code":19},"0002":{"zip_code":"4060002","prefecture":"山梨県","prefecture_kana":"ヤマナシケン","city":"笛吹市","city_kana":"フエフキシ","town":"春日居町別田","town_kana":"カスガイチョウベツデン","prefecture_code":19},"0842":{"zip_code":"4060842","prefecture":"山梨県","prefecture_kana":"ヤマナシケン","city":"笛吹市","city_kana":"フエフキシ","town":"境川町石橋","town_kana":"サカイガワチョウイシバシ","prefecture_code":19},"0855":{"zip_code":"4060855","prefecture":"山梨県","prefecture_kana":"ヤマナシケン","city":"笛吹市","city_kana":"フエフキシ","town":"境川町大窪","town_kana":"サカイガワチョウオオクボ","prefecture_code":19},"0852":{"zip_code":"4060852","prefecture":"山梨県","prefecture_kana":"ヤマナシケン","city":"笛吹市","city_kana":"フエフキシ","town":"境川町大黒坂","town_kana":"サカイガワチョウオオグロサカ","prefecture_code":19},"0841":{"zip_code":"4060841","prefecture":"山梨県","prefecture_kana":"ヤマナシケン","city":"笛吹市","city_kana":"フエフキシ","town":"境川町大坪","town_kana":"サカイガワチョウオオツボ","prefecture_code":19},"0851":{"zip_code":"4060851","prefecture":"山梨県","prefecture_kana":"ヤマナシケン","city":"笛吹市","city_kana":"フエフキシ","town":"境川町小黒坂","town_kana":"サカイガワチョウコグロサカ","prefecture_code":19},"0844":{"zip_code":"4060844","prefecture":"山梨県","prefecture_kana":"ヤマナシケン","city":"笛吹市","city_kana":"フエフキシ","town":"境川町小山","town_kana":"サカイガワチョウコヤマ","prefecture_code":19},"0854":{"zip_code":"4060854","prefecture":"山梨県","prefecture_kana":"ヤマナシケン","city":"笛吹市","city_kana":"フエフキシ","town":"境川町寺尾","town_kana":"サカイガワチョウテラオ","prefecture_code":19},"0853":{"zip_code":"4060853","prefecture":"山梨県","prefecture_kana":"ヤマナシケン","city":"笛吹市","city_kana":"フエフキシ","town":"境川町藤垈","town_kana":"サカイガワチョウフジヌタ","prefecture_code":19},"0845":{"zip_code":"4060845","prefecture":"山梨県","prefecture_kana":"ヤマナシケン","city":"笛吹市","city_kana":"フエフキシ","town":"境川町坊ケ峰","town_kana":"サカイガワチョウボウガミネ","prefecture_code":19},"0843":{"zip_code":"4060843","prefecture":"山梨県","prefecture_kana":"ヤマナシケン","city":"笛吹市","city_kana":"フエフキシ","town":"境川町前間田","town_kana":"サカイガワチョウマエマダ","prefecture_code":19},"0846":{"zip_code":"4060846","prefecture":"山梨県","prefecture_kana":"ヤマナシケン","city":"笛吹市","city_kana":"フエフキシ","town":"境川町三椚","town_kana":"サカイガワチョウミツクヌギ","prefecture_code":19},"0803":{"zip_code":"4060803","prefecture":"山梨県","prefecture_kana":"ヤマナシケン","city":"笛吹市","city_kana":"フエフキシ","town":"御坂町井之上","town_kana":"ミサカチョウイノウエ","prefecture_code":19},"0817":{"zip_code":"4060817","prefecture":"山梨県","prefecture_kana":"ヤマナシケン","city":"笛吹市","city_kana":"フエフキシ","town":"御坂町大野寺","town_kana":"ミサカチョウオオノジ","prefecture_code":19},"0815":{"zip_code":"4060815","prefecture":"山梨県","prefecture_kana":"ヤマナシケン","city":"笛吹市","city_kana":"フエフキシ","town":"御坂町尾山","town_kana":"ミサカチョウオヤマ","prefecture_code":19},"0802":{"zip_code":"4060802","prefecture":"山梨県","prefecture_kana":"ヤマナシケン","city":"笛吹市","city_kana":"フエフキシ","town":"御坂町金川原","town_kana":"ミサカチョウカネガワバラ","prefecture_code":19},"0813":{"zip_code":"4060813","prefecture":"山梨県","prefecture_kana":"ヤマナシケン","city":"笛吹市","city_kana":"フエフキシ","town":"御坂町上黒駒","town_kana":"ミサカチョウカミクロコマ","prefecture_code":19},"0805":{"zip_code":"4060805","prefecture":"山梨県","prefecture_kana":"ヤマナシケン","city":"笛吹市","city_kana":"フエフキシ","town":"御坂町栗合","town_kana":"ミサカチョウクリアイ","prefecture_code":19},"0808":{"zip_code":"4060808","prefecture":"山梨県","prefecture_kana":"ヤマナシケン","city":"笛吹市","city_kana":"フエフキシ","town":"御坂町国衙","town_kana":"ミサカチョウコクガ","prefecture_code":19},"0812":{"zip_code":"4060812","prefecture":"山梨県","prefecture_kana":"ヤマナシケン","city":"笛吹市","city_kana":"フエフキシ","town":"御坂町下黒駒","town_kana":"ミサカチョウシモクロコマ","prefecture_code":19},"0811":{"zip_code":"4060811","prefecture":"山梨県","prefecture_kana":"ヤマナシケン","city":"笛吹市","city_kana":"フエフキシ","town":"御坂町下野原","town_kana":"ミサカチョウシモノハラ","prefecture_code":19},"0818":{"zip_code":"4060818","prefecture":"山梨県","prefecture_kana":"ヤマナシケン","city":"笛吹市","city_kana":"フエフキシ","town":"御坂町蕎麦塚","town_kana":"ミサカチョウソバツカ","prefecture_code":19},"0816":{"zip_code":"4060816","prefecture":"山梨県","prefecture_kana":"ヤマナシケン","city":"笛吹市","city_kana":"フエフキシ","town":"御坂町竹居","town_kana":"ミサカチョウタケイ","prefecture_code":19},"0814":{"zip_code":"4060814","prefecture":"山梨県","prefecture_kana":"ヤマナシケン","city":"笛吹市","city_kana":"フエフキシ","town":"御坂町藤野木","town_kana":"ミサカチョウトウノキ","prefecture_code":19},"0804":{"zip_code":"4060804","prefecture":"山梨県","prefecture_kana":"ヤマナシケン","city":"笛吹市","city_kana":"フエフキシ","town":"御坂町夏目原","town_kana":"ミサカチョウナツメハラ","prefecture_code":19},"0801":{"zip_code":"4060801","prefecture":"山梨県","prefecture_kana":"ヤマナシケン","city":"笛吹市","city_kana":"フエフキシ","town":"御坂町成田","town_kana":"ミサカチョウナリタ","prefecture_code":19},"0807":{"zip_code":"4060807","prefecture":"山梨県","prefecture_kana":"ヤマナシケン","city":"笛吹市","city_kana":"フエフキシ","town":"御坂町二之宮","town_kana":"ミサカチョウニノミヤ","prefecture_code":19},"0806":{"zip_code":"4060806","prefecture":"山梨県","prefecture_kana":"ヤマナシケン","city":"笛吹市","city_kana":"フエフキシ","town":"御坂町八千蔵","town_kana":"ミサカチョウヤチクラ","prefecture_code":19},"0825":{"zip_code":"4060825","prefecture":"山梨県","prefecture_kana":"ヤマナシケン","city":"笛吹市","city_kana":"フエフキシ","town":"八代町大間田","town_kana":"ヤツシロチョウオオマダ","prefecture_code":19},"0834":{"zip_code":"4060834","prefecture":"山梨県","prefecture_kana":"ヤマナシケン","city":"笛吹市","city_kana":"フエフキシ","town":"八代町岡","town_kana":"ヤツシロチョウオカ","prefecture_code":19},"0821":{"zip_code":"4060821","prefecture":"山梨県","prefecture_kana":"ヤマナシケン","city":"笛吹市","city_kana":"フエフキシ","town":"八代町北","town_kana":"ヤツシロチョウキタ","prefecture_code":19},"0831":{"zip_code":"4060831","prefecture":"山梨県","prefecture_kana":"ヤマナシケン","city":"笛吹市","city_kana":"フエフキシ","town":"八代町高家","town_kana":"ヤツシロチョウコウカ","prefecture_code":19},"0832":{"zip_code":"4060832","prefecture":"山梨県","prefecture_kana":"ヤマナシケン","city":"笛吹市","city_kana":"フエフキシ","town":"八代町竹居","town_kana":"ヤツシロチョウタケイ","prefecture_code":19},"0823":{"zip_code":"4060823","prefecture":"山梨県","prefecture_kana":"ヤマナシケン","city":"笛吹市","city_kana":"フエフキシ","town":"八代町永井","town_kana":"ヤツシロチョウナガイ","prefecture_code":19},"0833":{"zip_code":"4060833","prefecture":"山梨県","prefecture_kana":"ヤマナシケン","city":"笛吹市","city_kana":"フエフキシ","town":"八代町奈良原","town_kana":"ヤツシロチョウナラバラ","prefecture_code":19},"0824":{"zip_code":"4060824","prefecture":"山梨県","prefecture_kana":"ヤマナシケン","city":"笛吹市","city_kana":"フエフキシ","town":"八代町増利","town_kana":"ヤツシロチョウマサリ","prefecture_code":19},"0822":{"zip_code":"4060822","prefecture":"山梨県","prefecture_kana":"ヤマナシケン","city":"笛吹市","city_kana":"フエフキシ","town":"八代町南","town_kana":"ヤツシロチョウミナミ","prefecture_code":19},"0835":{"zip_code":"4060835","prefecture":"山梨県","prefecture_kana":"ヤマナシケン","city":"笛吹市","city_kana":"フエフキシ","town":"八代町米倉","town_kana":"ヤツシロチョウヨネクラ","prefecture_code":19}}