{"0000":{"zip_code":"4070000","prefecture":"山梨県","prefecture_kana":"ヤマナシケン","city":"韮崎市","city_kana":"ニラサキシ","town":"","town_kana":"","prefecture_code":19},"0045":{"zip_code":"4070045","prefecture":"山梨県","prefecture_kana":"ヤマナシケン","city":"韮崎市","city_kana":"ニラサキシ","town":"旭町上條中割","town_kana":"アサヒマチカミジョウナカワリ","prefecture_code":19},"0046":{"zip_code":"4070046","prefecture":"山梨県","prefecture_kana":"ヤマナシケン","city":"韮崎市","city_kana":"ニラサキシ","town":"旭町上條南割","town_kana":"アサヒマチカミジョウミナミワリ","prefecture_code":19},"0044":{"zip_code":"4070044","prefecture":"山梨県","prefecture_kana":"ヤマナシケン","city":"韮崎市","city_kana":"ニラサキシ","town":"旭町上條北割","town_kana":"アサヒマチカミジョウキタワリ","prefecture_code":19},"0263":{"zip_code":"4070263","prefecture":"山梨県","prefecture_kana":"ヤマナシケン","city":"韮崎市","city_kana":"ニラサキシ","town":"穴山町","town_kana":"アナヤママチ","prefecture_code":19},"0012":{"zip_code":"4070012","prefecture":"山梨県","prefecture_kana":"ヤマナシケン","city":"韮崎市","city_kana":"ニラサキシ","town":"岩下","town_kana":"イワシタ","prefecture_code":19},"0011":{"zip_code":"4070011","prefecture":"山梨県","prefecture_kana":"ヤマナシケン","city":"韮崎市","city_kana":"ニラサキシ","town":"上ノ山","town_kana":"ウエノヤマ","prefecture_code":19},"0036":{"zip_code":"4070036","prefecture":"山梨県","prefecture_kana":"ヤマナシケン","city":"韮崎市","city_kana":"ニラサキシ","town":"大草町上條東割","town_kana":"オオクサマチカミジョウヒガシワリ","prefecture_code":19},"0035":{"zip_code":"4070035","prefecture":"山梨県","prefecture_kana":"ヤマナシケン","city":"韮崎市","city_kana":"ニラサキシ","town":"大草町下條西割","town_kana":"オオクサマチシモジョウニシワリ","prefecture_code":19},"0034":{"zip_code":"4070034","prefecture":"山梨県","prefecture_kana":"ヤマナシケン","city":"韮崎市","city_kana":"ニラサキシ","town":"大草町下條中割","town_kana":"オオクサマチシモジョウナカワリ","prefecture_code":19},"0037":{"zip_code":"4070037","prefecture":"山梨県","prefecture_kana":"ヤマナシケン","city":"韮崎市","city_kana":"ニラサキシ","town":"大草町若尾","town_kana":"オオクサマチワカオ","prefecture_code":19},"0007":{"zip_code":"4070007","prefecture":"山梨県","prefecture_kana":"ヤマナシケン","city":"韮崎市","city_kana":"ニラサキシ","town":"上祖母石","town_kana":"カミウバイシ","prefecture_code":19},"0042":{"zip_code":"4070042","prefecture":"山梨県","prefecture_kana":"ヤマナシケン","city":"韮崎市","city_kana":"ニラサキシ","town":"神山町北宮地","town_kana":"カミヤママチキタミヤジ","prefecture_code":19},"0041":{"zip_code":"4070041","prefecture":"山梨県","prefecture_kana":"ヤマナシケン","city":"韮崎市","city_kana":"ニラサキシ","town":"神山町武田","town_kana":"カミヤママチタケタ","prefecture_code":19},"0043":{"zip_code":"4070043","prefecture":"山梨県","prefecture_kana":"ヤマナシケン","city":"韮崎市","city_kana":"ニラサキシ","town":"神山町鍋山","town_kana":"カミヤママチナベヤマ","prefecture_code":19},"0025":{"zip_code":"4070025","prefecture":"山梨県","prefecture_kana":"ヤマナシケン","city":"韮崎市","city_kana":"ニラサキシ","town":"栄","town_kana":"サカエ","prefecture_code":19},"0006":{"zip_code":"4070006","prefecture":"山梨県","prefecture_kana":"ヤマナシケン","city":"韮崎市","city_kana":"ニラサキシ","town":"下祖母石","town_kana":"シモウバイシ","prefecture_code":19},"0022":{"zip_code":"4070022","prefecture":"山梨県","prefecture_kana":"ヤマナシケン","city":"韮崎市","city_kana":"ニラサキシ","town":"水神","town_kana":"スイジン","prefecture_code":19},"0055":{"zip_code":"4070055","prefecture":"山梨県","prefecture_kana":"ヤマナシケン","city":"韮崎市","city_kana":"ニラサキシ","town":"清哲町青木","town_kana":"セイテツマチアオキ","prefecture_code":19},"0054":{"zip_code":"4070054","prefecture":"山梨県","prefecture_kana":"ヤマナシケン","city":"韮崎市","city_kana":"ニラサキシ","town":"清哲町折居","town_kana":"セイテツマチオリイ","prefecture_code":19},"0057":{"zip_code":"4070057","prefecture":"山梨県","prefecture_kana":"ヤマナシケン","city":"韮崎市","city_kana":"ニラサキシ","town":"清哲町樋口","town_kana":"セイテツマチヒノグチ","prefecture_code":19},"0058":{"zip_code":"4070058","prefecture":"山梨県","prefecture_kana":"ヤマナシケン","city":"韮崎市","city_kana":"ニラサキシ","town":"清哲町水上","town_kana":"セイテツマチミズカミ","prefecture_code":19},"0032":{"zip_code":"4070032","prefecture":"山梨県","prefecture_kana":"ヤマナシケン","city":"韮崎市","city_kana":"ニラサキシ","town":"龍岡町下條東割","town_kana":"タツオカマチシモジョウヒガシワリ","prefecture_code":19},"0033":{"zip_code":"4070033","prefecture":"山梨県","prefecture_kana":"ヤマナシケン","city":"韮崎市","city_kana":"ニラサキシ","town":"龍岡町下條南割","town_kana":"タツオカマチシモジョウミナミワリ","prefecture_code":19},"0031":{"zip_code":"4070031","prefecture":"山梨県","prefecture_kana":"ヤマナシケン","city":"韮崎市","city_kana":"ニラサキシ","town":"龍岡町若尾新田","town_kana":"タツオカマチワカオシンデン","prefecture_code":19},"0023":{"zip_code":"4070023","prefecture":"山梨県","prefecture_kana":"ヤマナシケン","city":"韮崎市","city_kana":"ニラサキシ","town":"中央町","town_kana":"チュウオウチョウ","prefecture_code":19},"0013":{"zip_code":"4070013","prefecture":"山梨県","prefecture_kana":"ヤマナシケン","city":"韮崎市","city_kana":"ニラサキシ","town":"中島","town_kana":"ナカジマ","prefecture_code":19},"0261":{"zip_code":"4070261","prefecture":"山梨県","prefecture_kana":"ヤマナシケン","city":"韮崎市","city_kana":"ニラサキシ","town":"中田町小田川","town_kana":"ナカダマチコタガワ","prefecture_code":19},"0262":{"zip_code":"4070262","prefecture":"山梨県","prefecture_kana":"ヤマナシケン","city":"韮崎市","city_kana":"ニラサキシ","town":"中田町中條","town_kana":"ナカダマチナカジョウ","prefecture_code":19},"0005":{"zip_code":"4070005","prefecture":"山梨県","prefecture_kana":"ヤマナシケン","city":"韮崎市","city_kana":"ニラサキシ","town":"一ツ谷","town_kana":"ヒトツヤ","prefecture_code":19},"0001":{"zip_code":"4070001","prefecture":"山梨県","prefecture_kana":"ヤマナシケン","city":"韮崎市","city_kana":"ニラサキシ","town":"藤井町駒井","town_kana":"フジイマチコマイ","prefecture_code":19},"0002":{"zip_code":"4070002","prefecture":"山梨県","prefecture_kana":"ヤマナシケン","city":"韮崎市","city_kana":"ニラサキシ","town":"藤井町坂井","town_kana":"フジイマチサカイ","prefecture_code":19},"0004":{"zip_code":"4070004","prefecture":"山梨県","prefecture_kana":"ヤマナシケン","city":"韮崎市","city_kana":"ニラサキシ","town":"藤井町南下條","town_kana":"フジイマチミナミゲジョウ","prefecture_code":19},"0003":{"zip_code":"4070003","prefecture":"山梨県","prefecture_kana":"ヤマナシケン","city":"韮崎市","city_kana":"ニラサキシ","town":"藤井町北下條","town_kana":"フジイマチキタゲジョウ","prefecture_code":19},"0014":{"zip_code":"4070014","prefecture":"山梨県","prefecture_kana":"ヤマナシケン","city":"韮崎市","city_kana":"ニラサキシ","town":"富士見","town_kana":"フジミ","prefecture_code":19},"0021":{"zip_code":"4070021","prefecture":"山梨県","prefecture_kana":"ヤマナシケン","city":"韮崎市","city_kana":"ニラサキシ","town":"富士見ケ丘","town_kana":"フジミガオカ","prefecture_code":19},"0172":{"zip_code":"4070172","prefecture":"山梨県","prefecture_kana":"ヤマナシケン","city":"韮崎市","city_kana":"ニラサキシ","town":"穂坂町上今井","town_kana":"ホサカマチカミイマイ","prefecture_code":19},"0176":{"zip_code":"4070176","prefecture":"山梨県","prefecture_kana":"ヤマナシケン","city":"韮崎市","city_kana":"ニラサキシ","town":"穂坂町三之蔵","town_kana":"ホサカマチサンノクラ","prefecture_code":19},"0173":{"zip_code":"4070173","prefecture":"山梨県","prefecture_kana":"ヤマナシケン","city":"韮崎市","city_kana":"ニラサキシ","town":"穂坂町長久保","town_kana":"ホサカマチナガクボ","prefecture_code":19},"0174":{"zip_code":"4070174","prefecture":"山梨県","prefecture_kana":"ヤマナシケン","city":"韮崎市","city_kana":"ニラサキシ","town":"穂坂町三ツ沢","town_kana":"ホサカマチミツサワ","prefecture_code":19},"0175":{"zip_code":"4070175","prefecture":"山梨県","prefecture_kana":"ヤマナシケン","city":"韮崎市","city_kana":"ニラサキシ","town":"穂坂町宮久保","town_kana":"ホサカマチミヤクボ","prefecture_code":19},"0171":{"zip_code":"4070171","prefecture":"山梨県","prefecture_kana":"ヤマナシケン","city":"韮崎市","city_kana":"ニラサキシ","town":"穂坂町柳平","town_kana":"ホサカマチヤナギダイラ","prefecture_code":19},"0024":{"zip_code":"4070024","prefecture":"山梨県","prefecture_kana":"ヤマナシケン","city":"韮崎市","city_kana":"ニラサキシ","town":"本町","town_kana":"ホンチョウ","prefecture_code":19},"0051":{"zip_code":"4070051","prefecture":"山梨県","prefecture_kana":"ヤマナシケン","city":"韮崎市","city_kana":"ニラサキシ","town":"円野町上円井","town_kana":"マルノマチカミツブライ","prefecture_code":19},"0052":{"zip_code":"4070052","prefecture":"山梨県","prefecture_kana":"ヤマナシケン","city":"韮崎市","city_kana":"ニラサキシ","town":"円野町下円井","town_kana":"マルノマチシモツブライ","prefecture_code":19},"0053":{"zip_code":"4070053","prefecture":"山梨県","prefecture_kana":"ヤマナシケン","city":"韮崎市","city_kana":"ニラサキシ","town":"円野町入戸野","town_kana":"マルノマチニットノ","prefecture_code":19},"0015":{"zip_code":"4070015","prefecture":"山梨県","prefecture_kana":"ヤマナシケン","city":"韮崎市","city_kana":"ニラサキシ","town":"若宮","town_kana":"ワカミヤ","prefecture_code":19},"0311":{"zip_code":"4070311","prefecture":"山梨県","prefecture_kana":"ヤマナシケン","city":"北杜市","city_kana":"ホクトシ","town":"大泉町西井出８２４０−１","town_kana":"オオイズミチョウニシイデ8240-1","prefecture_code":19},"0321":{"zip_code":"4070321","prefecture":"山梨県","prefecture_kana":"ヤマナシケン","city":"北杜市","city_kana":"ホクトシ","town":"須玉町上津金","town_kana":"スタマチョウカミツガネ","prefecture_code":19},"0322":{"zip_code":"4070322","prefecture":"山梨県","prefecture_kana":"ヤマナシケン","city":"北杜市","city_kana":"ホクトシ","town":"須玉町下津金","town_kana":"スタマチョウシモツガネ","prefecture_code":19},"0302":{"zip_code":"4070302","prefecture":"山梨県","prefecture_kana":"ヤマナシケン","city":"北杜市","city_kana":"ホクトシ","town":"高根町浅川","town_kana":"タカネチョウアサカワ","prefecture_code":19},"0301":{"zip_code":"4070301","prefecture":"山梨県","prefecture_kana":"ヤマナシケン","city":"北杜市","city_kana":"ホクトシ","town":"高根町清里","town_kana":"タカネチョウキヨサト","prefecture_code":19}}