{"3711":{"zip_code":"4093711","prefecture":"山梨県","prefecture_kana":"ヤマナシケン","city":"甲府市","city_kana":"コウフシ","town":"梯町","town_kana":"カケハシマチ","prefecture_code":19},"3712":{"zip_code":"4093712","prefecture":"山梨県","prefecture_kana":"ヤマナシケン","city":"甲府市","city_kana":"コウフシ","town":"古関町","town_kana":"フルセキマチ","prefecture_code":19},"0615":{"zip_code":"4090615","prefecture":"山梨県","prefecture_kana":"ヤマナシケン","city":"大月市","city_kana":"オオツキシ","town":"猿橋町朝日小沢","town_kana":"サルハシマチアサヒオザワ","prefecture_code":19},"0613":{"zip_code":"4090613","prefecture":"山梨県","prefecture_kana":"ヤマナシケン","city":"大月市","city_kana":"オオツキシ","town":"猿橋町伊良原","town_kana":"サルハシマチイラバラ","prefecture_code":19},"0616":{"zip_code":"4090616","prefecture":"山梨県","prefecture_kana":"ヤマナシケン","city":"大月市","city_kana":"オオツキシ","town":"猿橋町小沢","town_kana":"サルハシマチオザワ","prefecture_code":19},"0611":{"zip_code":"4090611","prefecture":"山梨県","prefecture_kana":"ヤマナシケン","city":"大月市","city_kana":"オオツキシ","town":"猿橋町小篠","town_kana":"サルハシマチオシノ","prefecture_code":19},"0618":{"zip_code":"4090618","prefecture":"山梨県","prefecture_kana":"ヤマナシケン","city":"大月市","city_kana":"オオツキシ","town":"猿橋町桂台","town_kana":"サルハシマチカツラダイ","prefecture_code":19},"0614":{"zip_code":"4090614","prefecture":"山梨県","prefecture_kana":"ヤマナシケン","city":"大月市","city_kana":"オオツキシ","town":"猿橋町猿橋","town_kana":"サルハシマチサルハシ","prefecture_code":19},"0617":{"zip_code":"4090617","prefecture":"山梨県","prefecture_kana":"ヤマナシケン","city":"大月市","city_kana":"オオツキシ","town":"猿橋町殿上","town_kana":"サルハシマチトノウエ","prefecture_code":19},"0612":{"zip_code":"4090612","prefecture":"山梨県","prefecture_kana":"ヤマナシケン","city":"大月市","city_kana":"オオツキシ","town":"猿橋町藤崎","town_kana":"サルハシマチフジサキ","prefecture_code":19},"0502":{"zip_code":"4090502","prefecture":"山梨県","prefecture_kana":"ヤマナシケン","city":"大月市","city_kana":"オオツキシ","town":"富浜町鳥沢","town_kana":"トミハママチトリサワ","prefecture_code":19},"0501":{"zip_code":"4090501","prefecture":"山梨県","prefecture_kana":"ヤマナシケン","city":"大月市","city_kana":"オオツキシ","town":"富浜町宮谷","town_kana":"トミハママチミヤタニ","prefecture_code":19},"0621":{"zip_code":"4090621","prefecture":"山梨県","prefecture_kana":"ヤマナシケン","city":"大月市","city_kana":"オオツキシ","town":"七保町浅川","town_kana":"ナナホマチアサカワ","prefecture_code":19},"0623":{"zip_code":"4090623","prefecture":"山梨県","prefecture_kana":"ヤマナシケン","city":"大月市","city_kana":"オオツキシ","town":"七保町葛野","town_kana":"ナナホマチカズノ","prefecture_code":19},"0627":{"zip_code":"4090627","prefecture":"山梨県","prefecture_kana":"ヤマナシケン","city":"大月市","city_kana":"オオツキシ","town":"七保町駒宮","town_kana":"ナナホマチコマミヤ","prefecture_code":19},"0622":{"zip_code":"4090622","prefecture":"山梨県","prefecture_kana":"ヤマナシケン","city":"大月市","city_kana":"オオツキシ","town":"七保町下和田","town_kana":"ナナホマチシモワダ","prefecture_code":19},"0626":{"zip_code":"4090626","prefecture":"山梨県","prefecture_kana":"ヤマナシケン","city":"大月市","city_kana":"オオツキシ","town":"七保町瀬戸","town_kana":"ナナホマチセト","prefecture_code":19},"0625":{"zip_code":"4090625","prefecture":"山梨県","prefecture_kana":"ヤマナシケン","city":"大月市","city_kana":"オオツキシ","town":"七保町奈良子","town_kana":"ナナホマチナラゴ","prefecture_code":19},"0624":{"zip_code":"4090624","prefecture":"山梨県","prefecture_kana":"ヤマナシケン","city":"大月市","city_kana":"オオツキシ","town":"七保町林","town_kana":"ナナホマチハヤシ","prefecture_code":19},"0504":{"zip_code":"4090504","prefecture":"山梨県","prefecture_kana":"ヤマナシケン","city":"大月市","city_kana":"オオツキシ","town":"梁川町新倉","town_kana":"ヤナガワマチアラクラ","prefecture_code":19},"0505":{"zip_code":"4090505","prefecture":"山梨県","prefecture_kana":"ヤマナシケン","city":"大月市","city_kana":"オオツキシ","town":"梁川町塩瀬","town_kana":"ヤナガワマチシオゼ","prefecture_code":19},"0506":{"zip_code":"4090506","prefecture":"山梨県","prefecture_kana":"ヤマナシケン","city":"大月市","city_kana":"オオツキシ","town":"梁川町立野","town_kana":"ヤナガワマチタチノ","prefecture_code":19},"0503":{"zip_code":"4090503","prefecture":"山梨県","prefecture_kana":"ヤマナシケン","city":"大月市","city_kana":"オオツキシ","town":"梁川町綱の上","town_kana":"ヤナガワマチツナノウエ","prefecture_code":19},"1501":{"zip_code":"4091501","prefecture":"山梨県","prefecture_kana":"ヤマナシケン","city":"北杜市","city_kana":"ホクトシ","town":"大泉町西井出","town_kana":"オオイズミチョウニシイデ","prefecture_code":19},"1502":{"zip_code":"4091502","prefecture":"山梨県","prefecture_kana":"ヤマナシケン","city":"北杜市","city_kana":"ホクトシ","town":"大泉町谷戸","town_kana":"オオイズミチョウヤト","prefecture_code":19},"3702":{"zip_code":"4093702","prefecture":"山梨県","prefecture_kana":"ヤマナシケン","city":"笛吹市","city_kana":"フエフキシ","town":"芦川町新井原","town_kana":"アシガワチョウアライバラ","prefecture_code":19},"3704":{"zip_code":"4093704","prefecture":"山梨県","prefecture_kana":"ヤマナシケン","city":"笛吹市","city_kana":"フエフキシ","town":"芦川町鶯宿","town_kana":"アシガワチョウオウシュク","prefecture_code":19},"3701":{"zip_code":"4093701","prefecture":"山梨県","prefecture_kana":"ヤマナシケン","city":"笛吹市","city_kana":"フエフキシ","town":"芦川町上芦川","town_kana":"アシガワチョウカミアシガワ","prefecture_code":19},"3703":{"zip_code":"4093703","prefecture":"山梨県","prefecture_kana":"ヤマナシケン","city":"笛吹市","city_kana":"フエフキシ","town":"芦川町中芦川","town_kana":"アシガワチョウナカアシガワ","prefecture_code":19},"0100":{"zip_code":"4090100","prefecture":"山梨県","prefecture_kana":"ヤマナシケン","city":"上野原市","city_kana":"ウエノハラシ","town":"","town_kana":"","prefecture_code":19},"0135":{"zip_code":"4090135","prefecture":"山梨県","prefecture_kana":"ヤマナシケン","city":"上野原市","city_kana":"ウエノハラシ","town":"芦垣","town_kana":"アシガキ","prefecture_code":19},"0113":{"zip_code":"4090113","prefecture":"山梨県","prefecture_kana":"ヤマナシケン","city":"上野原市","city_kana":"ウエノハラシ","town":"新田","town_kana":"アラタ","prefecture_code":19},"0124":{"zip_code":"4090124","prefecture":"山梨県","prefecture_kana":"ヤマナシケン","city":"上野原市","city_kana":"ウエノハラシ","town":"犬目","town_kana":"イヌメ","prefecture_code":19},"0112":{"zip_code":"4090112","prefecture":"山梨県","prefecture_kana":"ヤマナシケン","city":"上野原市","city_kana":"ウエノハラシ","town":"上野原","town_kana":"ウエノハラ","prefecture_code":19},"0134":{"zip_code":"4090134","prefecture":"山梨県","prefecture_kana":"ヤマナシケン","city":"上野原市","city_kana":"ウエノハラシ","town":"大椚","town_kana":"オオクヌギ","prefecture_code":19},"0138":{"zip_code":"4090138","prefecture":"山梨県","prefecture_kana":"ヤマナシケン","city":"上野原市","city_kana":"ウエノハラシ","town":"大倉","town_kana":"オオクラ","prefecture_code":19},"0131":{"zip_code":"4090131","prefecture":"山梨県","prefecture_kana":"ヤマナシケン","city":"上野原市","city_kana":"ウエノハラシ","town":"大曽根","town_kana":"オオゾネ","prefecture_code":19},"0123":{"zip_code":"4090123","prefecture":"山梨県","prefecture_kana":"ヤマナシケン","city":"上野原市","city_kana":"ウエノハラシ","town":"大野","town_kana":"オオノ","prefecture_code":19},"0122":{"zip_code":"4090122","prefecture":"山梨県","prefecture_kana":"ヤマナシケン","city":"上野原市","city_kana":"ウエノハラシ","town":"川合","town_kana":"カワイ","prefecture_code":19},"0136":{"zip_code":"4090136","prefecture":"山梨県","prefecture_kana":"ヤマナシケン","city":"上野原市","city_kana":"ウエノハラシ","town":"桑久保","town_kana":"クワクボ","prefecture_code":19},"0126":{"zip_code":"4090126","prefecture":"山梨県","prefecture_kana":"ヤマナシケン","city":"上野原市","city_kana":"ウエノハラシ","town":"コモアしおつ","town_kana":"コモアシオツ","prefecture_code":19},"0141":{"zip_code":"4090141","prefecture":"山梨県","prefecture_kana":"ヤマナシケン","city":"上野原市","city_kana":"ウエノハラシ","town":"西原","town_kana":"サイハラ","prefecture_code":19},"0121":{"zip_code":"4090121","prefecture":"山梨県","prefecture_kana":"ヤマナシケン","city":"上野原市","city_kana":"ウエノハラシ","town":"四方津","town_kana":"シオツ","prefecture_code":19},"0132":{"zip_code":"4090132","prefecture":"山梨県","prefecture_kana":"ヤマナシケン","city":"上野原市","city_kana":"ウエノハラシ","town":"鶴川","town_kana":"ツルガワ","prefecture_code":19},"0114":{"zip_code":"4090114","prefecture":"山梨県","prefecture_kana":"ヤマナシケン","city":"上野原市","city_kana":"ウエノハラシ","town":"鶴島","town_kana":"ツルシマ","prefecture_code":19},"0125":{"zip_code":"4090125","prefecture":"山梨県","prefecture_kana":"ヤマナシケン","city":"上野原市","city_kana":"ウエノハラシ","town":"野田尻","town_kana":"ノタジリ","prefecture_code":19},"0115":{"zip_code":"4090115","prefecture":"山梨県","prefecture_kana":"ヤマナシケン","city":"上野原市","city_kana":"ウエノハラシ","town":"松留","town_kana":"マツドメ","prefecture_code":19},"0133":{"zip_code":"4090133","prefecture":"山梨県","prefecture_kana":"ヤマナシケン","city":"上野原市","city_kana":"ウエノハラシ","town":"八ツ沢","town_kana":"ヤツサワ","prefecture_code":19},"0111":{"zip_code":"4090111","prefecture":"山梨県","prefecture_kana":"ヤマナシケン","city":"上野原市","city_kana":"ウエノハラシ","town":"棡原","town_kana":"ユズリハラ","prefecture_code":19},"0137":{"zip_code":"4090137","prefecture":"山梨県","prefecture_kana":"ヤマナシケン","city":"上野原市","city_kana":"ウエノハラシ","town":"和見","town_kana":"ワミ","prefecture_code":19},"1213":{"zip_code":"4091213","prefecture":"山梨県","prefecture_kana":"ヤマナシケン","city":"甲州市","city_kana":"コウシュウシ","town":"塩山牛奥","town_kana":"エンザンウシオク","prefecture_code":19},"1321":{"zip_code":"4091321","prefecture":"山梨県","prefecture_kana":"ヤマナシケン","city":"甲州市","city_kana":"コウシュウシ","town":"−２、５２８９−１５）","town_kana":"-2、5289-15)","prefecture_code":19},"1211":{"zip_code":"4091211","prefecture":"山梨県","prefecture_kana":"ヤマナシケン","city":"甲州市","city_kana":"コウシュウシ","town":"塩山上萩原","town_kana":"エンザンカミハギハラ","prefecture_code":19},"1212":{"zip_code":"4091212","prefecture":"山梨県","prefecture_kana":"ヤマナシケン","city":"甲州市","city_kana":"コウシュウシ","town":"塩山中萩原","town_kana":"エンザンナカハギハラ","prefecture_code":19},"1303":{"zip_code":"4091303","prefecture":"山梨県","prefecture_kana":"ヤマナシケン","city":"甲州市","city_kana":"コウシュウシ","town":"勝沼町小佐手","town_kana":"カツヌマチョウオサデ","prefecture_code":19},"1316":{"zip_code":"4091316","prefecture":"山梨県","prefecture_kana":"ヤマナシケン","city":"甲州市","city_kana":"コウシュウシ","town":"勝沼町勝沼","town_kana":"カツヌマチョウカツヌマ","prefecture_code":19},"1312":{"zip_code":"4091312","prefecture":"山梨県","prefecture_kana":"ヤマナシケン","city":"甲州市","city_kana":"コウシュウシ","town":"勝沼町上岩崎","town_kana":"カツヌマチョウカミイワサキ","prefecture_code":19},"1304":{"zip_code":"4091304","prefecture":"山梨県","prefecture_kana":"ヤマナシケン","city":"甲州市","city_kana":"コウシュウシ","town":"勝沼町休息","town_kana":"カツヌマチョウキュウソク","prefecture_code":19},"1313":{"zip_code":"4091313","prefecture":"山梨県","prefecture_kana":"ヤマナシケン","city":"甲州市","city_kana":"コウシュウシ","town":"勝沼町下岩崎","town_kana":"カツヌマチョウシモイワサキ","prefecture_code":19},"1315":{"zip_code":"4091315","prefecture":"山梨県","prefecture_kana":"ヤマナシケン","city":"甲州市","city_kana":"コウシュウシ","town":"勝沼町等々力","town_kana":"カツヌマチョウトドロキ","prefecture_code":19},"1301":{"zip_code":"4091301","prefecture":"山梨県","prefecture_kana":"ヤマナシケン","city":"甲州市","city_kana":"コウシュウシ","town":"勝沼町中原","town_kana":"カツヌマチョウナカハラ","prefecture_code":19},"1302":{"zip_code":"4091302","prefecture":"山梨県","prefecture_kana":"ヤマナシケン","city":"甲州市","city_kana":"コウシュウシ","town":"勝沼町菱山","town_kana":"カツヌマチョウヒシヤマ","prefecture_code":19},"1311":{"zip_code":"4091311","prefecture":"山梨県","prefecture_kana":"ヤマナシケン","city":"甲州市","city_kana":"コウシュウシ","town":"勝沼町深沢","town_kana":"カツヌマチョウフカサワ","prefecture_code":19},"1314":{"zip_code":"4091314","prefecture":"山梨県","prefecture_kana":"ヤマナシケン","city":"甲州市","city_kana":"コウシュウシ","town":"勝沼町藤井","town_kana":"カツヌマチョウフジイ","prefecture_code":19},"1306":{"zip_code":"4091306","prefecture":"山梨県","prefecture_kana":"ヤマナシケン","city":"甲州市","city_kana":"コウシュウシ","town":"勝沼町山","town_kana":"カツヌマチョウヤマ","prefecture_code":19},"1305":{"zip_code":"4091305","prefecture":"山梨県","prefecture_kana":"ヤマナシケン","city":"甲州市","city_kana":"コウシュウシ","town":"勝沼町綿塚","town_kana":"カツヌマチョウワタヅカ","prefecture_code":19},"1202":{"zip_code":"4091202","prefecture":"山梨県","prefecture_kana":"ヤマナシケン","city":"甲州市","city_kana":"コウシュウシ","town":"大和町田野","town_kana":"ヤマトチョウタノ","prefecture_code":19},"1205":{"zip_code":"4091205","prefecture":"山梨県","prefecture_kana":"ヤマナシケン","city":"甲州市","city_kana":"コウシュウシ","town":"大和町鶴瀬","town_kana":"ヤマトチョウツルセ","prefecture_code":19},"1201":{"zip_code":"4091201","prefecture":"山梨県","prefecture_kana":"ヤマナシケン","city":"甲州市","city_kana":"コウシュウシ","town":"大和町木賊","town_kana":"ヤマトチョウトクサ","prefecture_code":19},"1203":{"zip_code":"4091203","prefecture":"山梨県","prefecture_kana":"ヤマナシケン","city":"甲州市","city_kana":"コウシュウシ","town":"大和町初鹿野","town_kana":"ヤマトチョウハジカノ","prefecture_code":19},"1204":{"zip_code":"4091204","prefecture":"山梨県","prefecture_kana":"ヤマナシケン","city":"甲州市","city_kana":"コウシュウシ","town":"大和町日影","town_kana":"ヤマトチョウヒカゲ","prefecture_code":19},"3800":{"zip_code":"4093800","prefecture":"山梨県","prefecture_kana":"ヤマナシケン","city":"中巨摩郡昭和町","city_kana":"ナカコマグンショウワチョウ","town":"","town_kana":"","prefecture_code":19},"3813":{"zip_code":"4093813","prefecture":"山梨県","prefecture_kana":"ヤマナシケン","city":"中央市","city_kana":"チュウオウシ","town":"一町畑","town_kana":"イッチョウハタ","prefecture_code":19},"3804":{"zip_code":"4093804","prefecture":"山梨県","prefecture_kana":"ヤマナシケン","city":"中央市","city_kana":"チュウオウシ","town":"井之口","town_kana":"イノクチ","prefecture_code":19},"3834":{"zip_code":"4093834","prefecture":"山梨県","prefecture_kana":"ヤマナシケン","city":"中央市","city_kana":"チュウオウシ","town":"今福","town_kana":"イマフク","prefecture_code":19},"3835":{"zip_code":"4093835","prefecture":"山梨県","prefecture_kana":"ヤマナシケン","city":"中央市","city_kana":"チュウオウシ","town":"今福新田","town_kana":"イマフクシンデン","prefecture_code":19},"3844":{"zip_code":"4093844","prefecture":"山梨県","prefecture_kana":"ヤマナシケン","city":"中央市","city_kana":"チュウオウシ","town":"臼井阿原","town_kana":"ウスイアワラ","prefecture_code":19},"3831":{"zip_code":"4093831","prefecture":"山梨県","prefecture_kana":"ヤマナシケン","city":"中央市","city_kana":"チュウオウシ","town":"大田和","town_kana":"オオダワ","prefecture_code":19},"3812":{"zip_code":"4093812","prefecture":"山梨県","prefecture_kana":"ヤマナシケン","city":"中央市","city_kana":"チュウオウシ","town":"乙黒","town_kana":"オトグロ","prefecture_code":19},"3823":{"zip_code":"4093823","prefecture":"山梨県","prefecture_kana":"ヤマナシケン","city":"中央市","city_kana":"チュウオウシ","town":"上三條","town_kana":"カミサンジョウ","prefecture_code":19},"3811":{"zip_code":"4093811","prefecture":"山梨県","prefecture_kana":"ヤマナシケン","city":"中央市","city_kana":"チュウオウシ","town":"極楽寺","town_kana":"ゴクラクジ","prefecture_code":19},"3821":{"zip_code":"4093821","prefecture":"山梨県","prefecture_kana":"ヤマナシケン","city":"中央市","city_kana":"チュウオウシ","town":"下河東","town_kana":"シモカトウ","prefecture_code":19},"3822":{"zip_code":"4093822","prefecture":"山梨県","prefecture_kana":"ヤマナシケン","city":"中央市","city_kana":"チュウオウシ","town":"下三條","town_kana":"シモサンジョウ","prefecture_code":19},"3801":{"zip_code":"4093801","prefecture":"山梨県","prefecture_kana":"ヤマナシケン","city":"中央市","city_kana":"チュウオウシ","town":"中楯","town_kana":"ナカダテ","prefecture_code":19},"3815":{"zip_code":"4093815","prefecture":"山梨県","prefecture_kana":"ヤマナシケン","city":"中央市","city_kana":"チュウオウシ","town":"成島","town_kana":"ナルシマ","prefecture_code":19},"3802":{"zip_code":"4093802","prefecture":"山梨県","prefecture_kana":"ヤマナシケン","city":"中央市","city_kana":"チュウオウシ","town":"西新居","town_kana":"ニシアライ","prefecture_code":19},"3843":{"zip_code":"4093843","prefecture":"山梨県","prefecture_kana":"ヤマナシケン","city":"中央市","city_kana":"チュウオウシ","town":"西花輪","town_kana":"ニシハナワ","prefecture_code":19},"3842":{"zip_code":"4093842","prefecture":"山梨県","prefecture_kana":"ヤマナシケン","city":"中央市","city_kana":"チュウオウシ","town":"東花輪","town_kana":"ヒガシハナワ","prefecture_code":19},"3833":{"zip_code":"4093833","prefecture":"山梨県","prefecture_kana":"ヤマナシケン","city":"中央市","city_kana":"チュウオウシ","town":"藤巻","town_kana":"フジマキ","prefecture_code":19},"3841":{"zip_code":"4093841","prefecture":"山梨県","prefecture_kana":"ヤマナシケン","city":"中央市","city_kana":"チュウオウシ","town":"布施","town_kana":"フセ","prefecture_code":19},"3832":{"zip_code":"4093832","prefecture":"山梨県","prefecture_kana":"ヤマナシケン","city":"中央市","city_kana":"チュウオウシ","town":"馬籠","town_kana":"マゴメ","prefecture_code":19},"3814":{"zip_code":"4093814","prefecture":"山梨県","prefecture_kana":"ヤマナシケン","city":"中央市","city_kana":"チュウオウシ","town":"町之田","town_kana":"マチノタ","prefecture_code":19},"3845":{"zip_code":"4093845","prefecture":"山梨県","prefecture_kana":"ヤマナシケン","city":"中央市","city_kana":"チュウオウシ","town":"山之神","town_kana":"ヤマノカミ","prefecture_code":19},"3803":{"zip_code":"4093803","prefecture":"山梨県","prefecture_kana":"ヤマナシケン","city":"中央市","city_kana":"チュウオウシ","town":"若宮","town_kana":"ワカミヤ","prefecture_code":19},"3600":{"zip_code":"4093600","prefecture":"山梨県","prefecture_kana":"ヤマナシケン","city":"西八代郡市川三郷町","city_kana":"ニシヤツシログンイチカワミサトチョウ","town":"","town_kana":"","prefecture_code":19},"3601":{"zip_code":"4093601","prefecture":"山梨県","prefecture_kana":"ヤマナシケン","city":"西八代郡市川三郷町","city_kana":"ニシヤツシログンイチカワミサトチョウ","town":"市川大門","town_kana":"イチカワダイモン","prefecture_code":19},"3234":{"zip_code":"4093234","prefecture":"山梨県","prefecture_kana":"ヤマナシケン","city":"西八代郡市川三郷町","city_kana":"ニシヤツシログンイチカワミサトチョウ","town":"岩下","town_kana":"イワシタ","prefecture_code":19},"3244":{"zip_code":"4093244","prefecture":"山梨県","prefecture_kana":"ヤマナシケン","city":"西八代郡市川三郷町","city_kana":"ニシヤツシログンイチカワミサトチョウ","town":"岩間","town_kana":"イワマ","prefecture_code":19},"3607":{"zip_code":"4093607","prefecture":"山梨県","prefecture_kana":"ヤマナシケン","city":"西八代郡市川三郷町","city_kana":"ニシヤツシログンイチカワミサトチョウ","town":"印沢","town_kana":"インザワ","prefecture_code":19},"3612":{"zip_code":"4093612","prefecture":"山梨県","prefecture_kana":"ヤマナシケン","city":"西八代郡市川三郷町","city_kana":"ニシヤツシログンイチカワミサトチョウ","town":"上野","town_kana":"ウエノ","prefecture_code":19},"3611":{"zip_code":"4093611","prefecture":"山梨県","prefecture_kana":"ヤマナシケン","city":"西八代郡市川三郷町","city_kana":"ニシヤツシログンイチカワミサトチョウ","town":"大塚","town_kana":"オオツカ","prefecture_code":19},"3231":{"zip_code":"4093231","prefecture":"山梨県","prefecture_kana":"ヤマナシケン","city":"西八代郡市川三郷町","city_kana":"ニシヤツシログンイチカワミサトチョウ","town":"落居","town_kana":"オチイ","prefecture_code":19},"3243":{"zip_code":"4093243","prefecture":"山梨県","prefecture_kana":"ヤマナシケン","city":"西八代郡市川三郷町","city_kana":"ニシヤツシログンイチカワミサトチョウ","town":"鴨狩津向","town_kana":"カモガリツムギ","prefecture_code":19},"3245":{"zip_code":"4093245","prefecture":"山梨県","prefecture_kana":"ヤマナシケン","city":"西八代郡市川三郷町","city_kana":"ニシヤツシログンイチカワミサトチョウ","town":"楠甫","town_kana":"クスホ","prefecture_code":19},"3603":{"zip_code":"4093603","prefecture":"山梨県","prefecture_kana":"ヤマナシケン","city":"西八代郡市川三郷町","city_kana":"ニシヤツシログンイチカワミサトチョウ","town":"黒沢","town_kana":"クロザワ","prefecture_code":19},"3233":{"zip_code":"4093233","prefecture":"山梨県","prefecture_kana":"ヤマナシケン","city":"西八代郡市川三郷町","city_kana":"ニシヤツシログンイチカワミサトチョウ","town":"五八","town_kana":"ゴハチ","prefecture_code":19},"3622":{"zip_code":"4093622","prefecture":"山梨県","prefecture_kana":"ヤマナシケン","city":"西八代郡市川三郷町","city_kana":"ニシヤツシログンイチカワミサトチョウ","town":"三帳","town_kana":"サンチョウ","prefecture_code":19},"3621":{"zip_code":"4093621","prefecture":"山梨県","prefecture_kana":"ヤマナシケン","city":"西八代郡市川三郷町","city_kana":"ニシヤツシログンイチカワミサトチョウ","town":"下芦川","town_kana":"シモアシガワ","prefecture_code":19},"3605":{"zip_code":"4093605","prefecture":"山梨県","prefecture_kana":"ヤマナシケン","city":"西八代郡市川三郷町","city_kana":"ニシヤツシログンイチカワミサトチョウ","town":"下大鳥居","town_kana":"シモオオドリイ","prefecture_code":19},"3606":{"zip_code":"4093606","prefecture":"山梨県","prefecture_kana":"ヤマナシケン","city":"西八代郡市川三郷町","city_kana":"ニシヤツシログンイチカワミサトチョウ","town":"高田","town_kana":"タカタ","prefecture_code":19},"3623":{"zip_code":"4093623","prefecture":"山梨県","prefecture_kana":"ヤマナシケン","city":"西八代郡市川三郷町","city_kana":"ニシヤツシログンイチカワミサトチョウ","town":"高萩","town_kana":"タカハギ","prefecture_code":19},"3241":{"zip_code":"4093241","prefecture":"山梨県","prefecture_kana":"ヤマナシケン","city":"西八代郡市川三郷町","city_kana":"ニシヤツシログンイチカワミサトチョウ","town":"葛籠沢","town_kana":"ツヅラサワ","prefecture_code":19},"3232":{"zip_code":"4093232","prefecture":"山梨県","prefecture_kana":"ヤマナシケン","city":"西八代郡市川三郷町","city_kana":"ニシヤツシログンイチカワミサトチョウ","town":"寺所","town_kana":"テラドコ","prefecture_code":19},"3625":{"zip_code":"4093625","prefecture":"山梨県","prefecture_kana":"ヤマナシケン","city":"西八代郡市川三郷町","city_kana":"ニシヤツシログンイチカワミサトチョウ","town":"中山","town_kana":"ナカヤマ","prefecture_code":19},"3624":{"zip_code":"4093624","prefecture":"山梨県","prefecture_kana":"ヤマナシケン","city":"西八代郡市川三郷町","city_kana":"ニシヤツシログンイチカワミサトチョウ","town":"垈","town_kana":"ヌタ","prefecture_code":19},"3626":{"zip_code":"4093626","prefecture":"山梨県","prefecture_kana":"ヤマナシケン","city":"西八代郡市川三郷町","city_kana":"ニシヤツシログンイチカワミサトチョウ","town":"畑熊","town_kana":"ハタクマ","prefecture_code":19},"3604":{"zip_code":"4093604","prefecture":"山梨県","prefecture_kana":"ヤマナシケン","city":"西八代郡市川三郷町","city_kana":"ニシヤツシログンイチカワミサトチョウ","town":"八之尻","town_kana":"ハチノシリ","prefecture_code":19},"3242":{"zip_code":"4093242","prefecture":"山梨県","prefecture_kana":"ヤマナシケン","city":"西八代郡市川三郷町","city_kana":"ニシヤツシログンイチカワミサトチョウ","town":"宮原","town_kana":"ミヤバラ","prefecture_code":19},"3602":{"zip_code":"4093602","prefecture":"山梨県","prefecture_kana":"ヤマナシケン","city":"西八代郡市川三郷町","city_kana":"ニシヤツシログンイチカワミサトチョウ","town":"山保","town_kana":"ヤマホ","prefecture_code":19},"2700":{"zip_code":"4092700","prefecture":"山梨県","prefecture_kana":"ヤマナシケン","city":"南巨摩郡早川町","city_kana":"ミナミコマグンハヤカワチョウ","town":"","town_kana":"","prefecture_code":19},"2733":{"zip_code":"4092733","prefecture":"山梨県","prefecture_kana":"ヤマナシケン","city":"南巨摩郡早川町","city_kana":"ミナミコマグンハヤカワチョウ","town":"赤沢","town_kana":"アカサワ","prefecture_code":19},"2734":{"zip_code":"4092734","prefecture":"山梨県","prefecture_kana":"ヤマナシケン","city":"南巨摩郡早川町","city_kana":"ミナミコマグンハヤカワチョウ","town":"雨畑","town_kana":"アメハタ","prefecture_code":19},"2703":{"zip_code":"4092703","prefecture":"山梨県","prefecture_kana":"ヤマナシケン","city":"南巨摩郡早川町","city_kana":"ミナミコマグンハヤカワチョウ","town":"新倉","town_kana":"アラクラ","prefecture_code":19},"2731":{"zip_code":"4092731","prefecture":"山梨県","prefecture_kana":"ヤマナシケン","city":"南巨摩郡早川町","city_kana":"ミナミコマグンハヤカワチョウ","town":"大島","town_kana":"オオシマ","prefecture_code":19},"2704":{"zip_code":"4092704","prefecture":"山梨県","prefecture_kana":"ヤマナシケン","city":"南巨摩郡早川町","city_kana":"ミナミコマグンハヤカワチョウ","town":"大原野","town_kana":"オオハラノ","prefecture_code":19},"2715":{"zip_code":"4092715","prefecture":"山梨県","prefecture_kana":"ヤマナシケン","city":"南巨摩郡早川町","city_kana":"ミナミコマグンハヤカワチョウ","town":"京ケ島","town_kana":"キョウガシマ","prefecture_code":19},"2714":{"zip_code":"4092714","prefecture":"山梨県","prefecture_kana":"ヤマナシケン","city":"南巨摩郡早川町","city_kana":"ミナミコマグンハヤカワチョウ","town":"草塩","town_kana":"クサシオ","prefecture_code":19},"2723":{"zip_code":"4092723","prefecture":"山梨県","prefecture_kana":"ヤマナシケン","city":"南巨摩郡早川町","city_kana":"ミナミコマグンハヤカワチョウ","town":"榑坪","town_kana":"クレツボ","prefecture_code":19},"2732":{"zip_code":"4092732","prefecture":"山梨県","prefecture_kana":"ヤマナシケン","city":"南巨摩郡早川町","city_kana":"ミナミコマグンハヤカワチョウ","town":"高住","town_kana":"コウジュウ","prefecture_code":19},"2725":{"zip_code":"4092725","prefecture":"山梨県","prefecture_kana":"ヤマナシケン","city":"南巨摩郡早川町","city_kana":"ミナミコマグンハヤカワチョウ","town":"小縄","town_kana":"コナワ","prefecture_code":19},"2722":{"zip_code":"4092722","prefecture":"山梨県","prefecture_kana":"ヤマナシケン","city":"南巨摩郡早川町","city_kana":"ミナミコマグンハヤカワチョウ","town":"笹走","town_kana":"ササバシリ","prefecture_code":19},"2721":{"zip_code":"4092721","prefecture":"山梨県","prefecture_kana":"ヤマナシケン","city":"南巨摩郡早川町","city_kana":"ミナミコマグンハヤカワチョウ","town":"塩之上","town_kana":"シオノウエ","prefecture_code":19},"2726":{"zip_code":"4092726","prefecture":"山梨県","prefecture_kana":"ヤマナシケン","city":"南巨摩郡早川町","city_kana":"ミナミコマグンハヤカワチョウ","town":"千須和","town_kana":"センズワ","prefecture_code":19},"2711":{"zip_code":"4092711","prefecture":"山梨県","prefecture_kana":"ヤマナシケン","city":"南巨摩郡早川町","city_kana":"ミナミコマグンハヤカワチョウ","town":"黒桂","town_kana":"ツヅラ","prefecture_code":19},"2701":{"zip_code":"4092701","prefecture":"山梨県","prefecture_kana":"ヤマナシケン","city":"南巨摩郡早川町","city_kana":"ミナミコマグンハヤカワチョウ","town":"奈良田","town_kana":"ナラダ","prefecture_code":19},"2712":{"zip_code":"4092712","prefecture":"山梨県","prefecture_kana":"ヤマナシケン","city":"南巨摩郡早川町","city_kana":"ミナミコマグンハヤカワチョウ","town":"西之宮","town_kana":"ニシノミヤ","prefecture_code":19},"2724":{"zip_code":"4092724","prefecture":"山梨県","prefecture_kana":"ヤマナシケン","city":"南巨摩郡早川町","city_kana":"ミナミコマグンハヤカワチョウ","town":"初鹿島","town_kana":"ハジカジマ","prefecture_code":19},"2705":{"zip_code":"4092705","prefecture":"山梨県","prefecture_kana":"ヤマナシケン","city":"南巨摩郡早川町","city_kana":"ミナミコマグンハヤカワチョウ","town":"早川","town_kana":"ハヤカワ","prefecture_code":19},"2713":{"zip_code":"4092713","prefecture":"山梨県","prefecture_kana":"ヤマナシケン","city":"南巨摩郡早川町","city_kana":"ミナミコマグンハヤカワチョウ","town":"保","town_kana":"ホ","prefecture_code":19},"2727":{"zip_code":"4092727","prefecture":"山梨県","prefecture_kana":"ヤマナシケン","city":"南巨摩郡早川町","city_kana":"ミナミコマグンハヤカワチョウ","town":"薬袋","town_kana":"ミナイ","prefecture_code":19},"2702":{"zip_code":"4092702","prefecture":"山梨県","prefecture_kana":"ヤマナシケン","city":"南巨摩郡早川町","city_kana":"ミナミコマグンハヤカワチョウ","town":"湯島","town_kana":"ユジマ","prefecture_code":19},"2500":{"zip_code":"4092500","prefecture":"山梨県","prefecture_kana":"ヤマナシケン","city":"南巨摩郡身延町","city_kana":"ミナミコマグンミノブチョウ","town":"","town_kana":"","prefecture_code":19},"2536":{"zip_code":"4092536","prefecture":"山梨県","prefecture_kana":"ヤマナシケン","city":"南巨摩郡身延町","city_kana":"ミナミコマグンミノブチョウ","town":"相又","town_kana":"アイマタ","prefecture_code":19},"2521":{"zip_code":"4092521","prefecture":"山梨県","prefecture_kana":"ヤマナシケン","city":"南巨摩郡身延町","city_kana":"ミナミコマグンミノブチョウ","town":"粟倉","town_kana":"アワグラ","prefecture_code":19},"3423":{"zip_code":"4093423","prefecture":"山梨県","prefecture_kana":"ヤマナシケン","city":"南巨摩郡身延町","city_kana":"ミナミコマグンミノブチョウ","town":"飯富","town_kana":"イイトミ","prefecture_code":19},"2938":{"zip_code":"4092938","prefecture":"山梨県","prefecture_kana":"ヤマナシケン","city":"南巨摩郡身延町","city_kana":"ミナミコマグンミノブチョウ","town":"市之瀬","town_kana":"イチノセ","prefecture_code":19},"2937":{"zip_code":"4092937","prefecture":"山梨県","prefecture_kana":"ヤマナシケン","city":"南巨摩郡身延町","city_kana":"ミナミコマグンミノブチョウ","town":"一色","town_kana":"イッシキ","prefecture_code":19},"3424":{"zip_code":"4093424","prefecture":"山梨県","prefecture_kana":"ヤマナシケン","city":"南巨摩郡身延町","city_kana":"ミナミコマグンミノブチョウ","town":"伊沼","town_kana":"イヌマ","prefecture_code":19},"2933":{"zip_code":"4092933","prefecture":"山梨県","prefecture_kana":"ヤマナシケン","city":"南巨摩郡身延町","city_kana":"ミナミコマグンミノブチョウ","town":"岩欠","town_kana":"イワカケ","prefecture_code":19},"2947":{"zip_code":"4092947","prefecture":"山梨県","prefecture_kana":"ヤマナシケン","city":"南巨摩郡身延町","city_kana":"ミナミコマグンミノブチョウ","town":"上之平","town_kana":"ウエノタイラ","prefecture_code":19},"2531":{"zip_code":"4092531","prefecture":"山梨県","prefecture_kana":"ヤマナシケン","city":"南巨摩郡身延町","city_kana":"ミナミコマグンミノブチョウ","town":"梅平","town_kana":"ウメダイラ","prefecture_code":19},"3434":{"zip_code":"4093434","prefecture":"山梨県","prefecture_kana":"ヤマナシケン","city":"南巨摩郡身延町","city_kana":"ミナミコマグンミノブチョウ","town":"江尻窪","town_kana":"エジリクボ","prefecture_code":19},"2934":{"zip_code":"4092934","prefecture":"山梨県","prefecture_kana":"ヤマナシケン","city":"南巨摩郡身延町","city_kana":"ミナミコマグンミノブチョウ","town":"大炊平","town_kana":"オイダイラ","prefecture_code":19},"3111":{"zip_code":"4093111","prefecture":"山梨県","prefecture_kana":"ヤマナシケン","city":"南巨摩郡身延町","city_kana":"ミナミコマグンミノブチョウ","town":"大磯小磯","town_kana":"オオイソコイソ","prefecture_code":19},"2406":{"zip_code":"4092406","prefecture":"山梨県","prefecture_kana":"ヤマナシケン","city":"南巨摩郡身延町","city_kana":"ミナミコマグンミノブチョウ","town":"大崩","town_kana":"オオクズレ","prefecture_code":19},"3311":{"zip_code":"4093311","prefecture":"山梨県","prefecture_kana":"ヤマナシケン","city":"南巨摩郡身延町","city_kana":"ミナミコマグンミノブチョウ","town":"大塩","town_kana":"オオシオ","prefecture_code":19},"2415":{"zip_code":"4092415","prefecture":"山梨県","prefecture_kana":"ヤマナシケン","city":"南巨摩郡身延町","city_kana":"ミナミコマグンミノブチョウ","town":"大島","town_kana":"オオシマ","prefecture_code":19},"2537":{"zip_code":"4092537","prefecture":"山梨県","prefecture_kana":"ヤマナシケン","city":"南巨摩郡身延町","city_kana":"ミナミコマグンミノブチョウ","town":"大城","town_kana":"オオジロ","prefecture_code":19},"2404":{"zip_code":"4092404","prefecture":"山梨県","prefecture_kana":"ヤマナシケン","city":"南巨摩郡身延町","city_kana":"ミナミコマグンミノブチョウ","town":"大垈","town_kana":"オオヌタ","prefecture_code":19},"2532":{"zip_code":"4092532","prefecture":"山梨県","prefecture_kana":"ヤマナシケン","city":"南巨摩郡身延町","city_kana":"ミナミコマグンミノブチョウ","town":"大野","town_kana":"オオノ","prefecture_code":19},"3121":{"zip_code":"4093121","prefecture":"山梨県","prefecture_kana":"ヤマナシケン","city":"南巨摩郡身延町","city_kana":"ミナミコマグンミノブチョウ","town":"大山","town_kana":"オオヤマ","prefecture_code":19},"3433":{"zip_code":"4093433","prefecture":"山梨県","prefecture_kana":"ヤマナシケン","city":"南巨摩郡身延町","city_kana":"ミナミコマグンミノブチョウ","town":"遅沢","town_kana":"オソザワ","prefecture_code":19},"2539":{"zip_code":"4092539","prefecture":"山梨県","prefecture_kana":"ヤマナシケン","city":"南巨摩郡身延町","city_kana":"ミナミコマグンミノブチョウ","town":"小田船原","town_kana":"オダフナハラ","prefecture_code":19},"2403":{"zip_code":"4092403","prefecture":"山梨県","prefecture_kana":"ヤマナシケン","city":"南巨摩郡身延町","city_kana":"ミナミコマグンミノブチョウ","town":"帯金","town_kana":"オビカネ","prefecture_code":19},"3101":{"zip_code":"4093101","prefecture":"山梨県","prefecture_kana":"ヤマナシケン","city":"南巨摩郡身延町","city_kana":"ミナミコマグンミノブチョウ","town":"折門","town_kana":"オリカド","prefecture_code":19},"2538":{"zip_code":"4092538","prefecture":"山梨県","prefecture_kana":"ヤマナシケン","city":"南巨摩郡身延町","city_kana":"ミナミコマグンミノブチョウ","town":"門野","town_kana":"カドノ","prefecture_code":19},"3105":{"zip_code":"4093105","prefecture":"山梨県","prefecture_kana":"ヤマナシケン","city":"南巨摩郡身延町","city_kana":"ミナミコマグンミノブチョウ","town":"釜額","town_kana":"カマヒタイ","prefecture_code":19},"3118":{"zip_code":"4093118","prefecture":"山梨県","prefecture_kana":"ヤマナシケン","city":"南巨摩郡身延町","city_kana":"ミナミコマグンミノブチョウ","town":"上田原","town_kana":"カミタンバラ","prefecture_code":19},"2401":{"zip_code":"4092401","prefecture":"山梨県","prefecture_kana":"ヤマナシケン","city":"南巨摩郡身延町","city_kana":"ミナミコマグンミノブチョウ","town":"上八木沢","town_kana":"カミヤギサワ","prefecture_code":19},"2943":{"zip_code":"4092943","prefecture":"山梨県","prefecture_kana":"ヤマナシケン","city":"南巨摩郡身延町","city_kana":"ミナミコマグンミノブチョウ","town":"川向","town_kana":"カワムキ","prefecture_code":19},"2931":{"zip_code":"4092931","prefecture":"山梨県","prefecture_kana":"ヤマナシケン","city":"南巨摩郡身延町","city_kana":"ミナミコマグンミノブチョウ","town":"北川","town_kana":"キタガワ","prefecture_code":19},"2935":{"zip_code":"4092935","prefecture":"山梨県","prefecture_kana":"ヤマナシケン","city":"南巨摩郡身延町","city_kana":"ミナミコマグンミノブチョウ","town":"清沢","town_kana":"キヨザワ","prefecture_code":19},"3304":{"zip_code":"4093304","prefecture":"山梨県","prefecture_kana":"ヤマナシケン","city":"南巨摩郡身延町","city_kana":"ミナミコマグンミノブチョウ","town":"切石","town_kana":"キリイシ","prefecture_code":19},"3115":{"zip_code":"4093115","prefecture":"山梨県","prefecture_kana":"ヤマナシケン","city":"南巨摩郡身延町","city_kana":"ミナミコマグンミノブチョウ","town":"切房木","town_kana":"キリフサギ","prefecture_code":19},"3312":{"zip_code":"4093312","prefecture":"山梨県","prefecture_kana":"ヤマナシケン","city":"南巨摩郡身延町","city_kana":"ミナミコマグンミノブチョウ","town":"久成","town_kana":"クナリ","prefecture_code":19},"3122":{"zip_code":"4093122","prefecture":"山梨県","prefecture_kana":"ヤマナシケン","city":"南巨摩郡身延町","city_kana":"ミナミコマグンミノブチョウ","town":"久保","town_kana":"クボ","prefecture_code":19},"3123":{"zip_code":"4093123","prefecture":"山梨県","prefecture_kana":"ヤマナシケン","city":"南巨摩郡身延町","city_kana":"ミナミコマグンミノブチョウ","town":"熊沢","town_kana":"クマザワ","prefecture_code":19},"3116":{"zip_code":"4093116","prefecture":"山梨県","prefecture_kana":"ヤマナシケン","city":"南巨摩郡身延町","city_kana":"ミナミコマグンミノブチョウ","town":"車田","town_kana":"クルマダ","prefecture_code":19},"3112":{"zip_code":"4093112","prefecture":"山梨県","prefecture_kana":"ヤマナシケン","city":"南巨摩郡身延町","city_kana":"ミナミコマグンミノブチョウ","town":"芝草","town_kana":"シバクサ","prefecture_code":19},"3305":{"zip_code":"4093305","prefecture":"山梨県","prefecture_kana":"ヤマナシケン","city":"南巨摩郡身延町","city_kana":"ミナミコマグンミノブチョウ","town":"下田原","town_kana":"シモタンバラ","prefecture_code":19},"2942":{"zip_code":"4092942","prefecture":"山梨県","prefecture_kana":"ヤマナシケン","city":"南巨摩郡身延町","city_kana":"ミナミコマグンミノブチョウ","town":"下部","town_kana":"シモベ","prefecture_code":19},"2402":{"zip_code":"4092402","prefecture":"山梨県","prefecture_kana":"ヤマナシケン","city":"南巨摩郡身延町","city_kana":"ミナミコマグンミノブチョウ","town":"下八木沢","town_kana":"シモヤギサワ","prefecture_code":19},"2522":{"zip_code":"4092522","prefecture":"山梨県","prefecture_kana":"ヤマナシケン","city":"南巨摩郡身延町","city_kana":"ミナミコマグンミノブチョウ","town":"下山","town_kana":"シモヤマ","prefecture_code":19},"2932":{"zip_code":"4092932","prefecture":"山梨県","prefecture_kana":"ヤマナシケン","city":"南巨摩郡身延町","city_kana":"ミナミコマグンミノブチョウ","town":"杉山","town_kana":"スギヤマ","prefecture_code":19},"2533":{"zip_code":"4092533","prefecture":"山梨県","prefecture_kana":"ヤマナシケン","city":"南巨摩郡身延町","city_kana":"ミナミコマグンミノブチョウ","town":"清子","town_kana":"セイゴ","prefecture_code":19},"3107":{"zip_code":"4093107","prefecture":"山梨県","prefecture_kana":"ヤマナシケン","city":"南巨摩郡身延町","city_kana":"ミナミコマグンミノブチョウ","town":"瀬戸","town_kana":"セト","prefecture_code":19},"2946":{"zip_code":"4092946","prefecture":"山梨県","prefecture_kana":"ヤマナシケン","city":"南巨摩郡身延町","city_kana":"ミナミコマグンミノブチョウ","town":"大子","town_kana":"ダイゴ","prefecture_code":19},"2412":{"zip_code":"4092412","prefecture":"山梨県","prefecture_kana":"ヤマナシケン","city":"南巨摩郡身延町","city_kana":"ミナミコマグンミノブチョウ","town":"角打","town_kana":"ツノウチ","prefecture_code":19},"2405":{"zip_code":"4092405","prefecture":"山梨県","prefecture_kana":"ヤマナシケン","city":"南巨摩郡身延町","city_kana":"ミナミコマグンミノブチョウ","town":"椿草里","town_kana":"ツバキゾウリ","prefecture_code":19},"3302":{"zip_code":"4093302","prefecture":"山梨県","prefecture_kana":"ヤマナシケン","city":"南巨摩郡身延町","city_kana":"ミナミコマグンミノブチョウ","town":"手打沢","town_kana":"テウチザワ","prefecture_code":19},"3303":{"zip_code":"4093303","prefecture":"山梨県","prefecture_kana":"ヤマナシケン","city":"南巨摩郡身延町","city_kana":"ミナミコマグンミノブチョウ","town":"寺沢","town_kana":"テラサワ","prefecture_code":19},"3124":{"zip_code":"4093124","prefecture":"山梨県","prefecture_kana":"ヤマナシケン","city":"南巨摩郡身延町","city_kana":"ミナミコマグンミノブチョウ","town":"樋田","town_kana":"トイダ","prefecture_code":19},"2936":{"zip_code":"4092936","prefecture":"山梨県","prefecture_kana":"ヤマナシケン","city":"南巨摩郡身延町","city_kana":"ミナミコマグンミノブチョウ","town":"常葉","town_kana":"トキワ","prefecture_code":19},"3104":{"zip_code":"4093104","prefecture":"山梨県","prefecture_kana":"ヤマナシケン","city":"南巨摩郡身延町","city_kana":"ミナミコマグンミノブチョウ","town":"中之倉","town_kana":"ナカノクラ","prefecture_code":19},"3432":{"zip_code":"4093432","prefecture":"山梨県","prefecture_kana":"ヤマナシケン","city":"南巨摩郡身延町","city_kana":"ミナミコマグンミノブチョウ","town":"中山","town_kana":"ナカヤマ","prefecture_code":19},"3435":{"zip_code":"4093435","prefecture":"山梨県","prefecture_kana":"ヤマナシケン","city":"南巨摩郡身延町","city_kana":"ミナミコマグンミノブチョウ","town":"梨子","town_kana":"ナシゴ","prefecture_code":19},"3301":{"zip_code":"4093301","prefecture":"山梨県","prefecture_kana":"ヤマナシケン","city":"南巨摩郡身延町","city_kana":"ミナミコマグンミノブチョウ","town":"西嶋","town_kana":"ニシジマ","prefecture_code":19},"3103":{"zip_code":"4093103","prefecture":"山梨県","prefecture_kana":"ヤマナシケン","city":"南巨摩郡身延町","city_kana":"ミナミコマグンミノブチョウ","town":"根子","town_kana":"ネッコ","prefecture_code":19},"2523":{"zip_code":"4092523","prefecture":"山梨県","prefecture_kana":"ヤマナシケン","city":"南巨摩郡身延町","city_kana":"ミナミコマグンミノブチョウ","town":"波木井","town_kana":"ハキイ","prefecture_code":19},"2945":{"zip_code":"4092945","prefecture":"山梨県","prefecture_kana":"ヤマナシケン","city":"南巨摩郡身延町","city_kana":"ミナミコマグンミノブチョウ","town":"波高島","town_kana":"ハダカジマ","prefecture_code":19},"3102":{"zip_code":"4093102","prefecture":"山梨県","prefecture_kana":"ヤマナシケン","city":"南巨摩郡身延町","city_kana":"ミナミコマグンミノブチョウ","town":"八坂","town_kana":"ハッサカ","prefecture_code":19},"3307":{"zip_code":"4093307","prefecture":"山梨県","prefecture_kana":"ヤマナシケン","city":"南巨摩郡身延町","city_kana":"ミナミコマグンミノブチョウ","town":"日向南沢","town_kana":"ヒナタミナミザワ","prefecture_code":19},"2414":{"zip_code":"4092414","prefecture":"山梨県","prefecture_kana":"ヤマナシケン","city":"南巨摩郡身延町","city_kana":"ミナミコマグンミノブチョウ","town":"樋之上","town_kana":"ヒノウエ","prefecture_code":19},"3313":{"zip_code":"4093313","prefecture":"山梨県","prefecture_kana":"ヤマナシケン","city":"南巨摩郡身延町","city_kana":"ミナミコマグンミノブチョウ","town":"平須","town_kana":"ヒラス","prefecture_code":19},"3436":{"zip_code":"4093436","prefecture":"山梨県","prefecture_kana":"ヤマナシケン","city":"南巨摩郡身延町","city_kana":"ミナミコマグンミノブチョウ","town":"福原","town_kana":"フクハラ","prefecture_code":19},"3106":{"zip_code":"4093106","prefecture":"山梨県","prefecture_kana":"ヤマナシケン","city":"南巨摩郡身延町","city_kana":"ミナミコマグンミノブチョウ","town":"古関","town_kana":"フルセキ","prefecture_code":19},"3437":{"zip_code":"4093437","prefecture":"山梨県","prefecture_kana":"ヤマナシケン","city":"南巨摩郡身延町","city_kana":"ミナミコマグンミノブチョウ","town":"古長谷","town_kana":"フルハセ","prefecture_code":19},"2411":{"zip_code":"4092411","prefecture":"山梨県","prefecture_kana":"ヤマナシケン","city":"南巨摩郡身延町","city_kana":"ミナミコマグンミノブチョウ","town":"丸滝","town_kana":"マルタキ","prefecture_code":19},"3117":{"zip_code":"4093117","prefecture":"山梨県","prefecture_kana":"ヤマナシケン","city":"南巨摩郡身延町","city_kana":"ミナミコマグンミノブチョウ","town":"三沢","town_kana":"ミサワ","prefecture_code":19},"3113":{"zip_code":"4093113","prefecture":"山梨県","prefecture_kana":"ヤマナシケン","city":"南巨摩郡身延町","city_kana":"ミナミコマグンミノブチョウ","town":"水船","town_kana":"ミズフネ","prefecture_code":19},"3114":{"zip_code":"4093114","prefecture":"山梨県","prefecture_kana":"ヤマナシケン","city":"南巨摩郡身延町","city_kana":"ミナミコマグンミノブチョウ","town":"道","town_kana":"ミチ","prefecture_code":19},"2534":{"zip_code":"4092534","prefecture":"山梨県","prefecture_kana":"ヤマナシケン","city":"南巨摩郡身延町","city_kana":"ミナミコマグンミノブチョウ","town":"光子沢","town_kana":"ミツゴザワ","prefecture_code":19},"3125":{"zip_code":"4093125","prefecture":"山梨県","prefecture_kana":"ヤマナシケン","city":"南巨摩郡身延町","city_kana":"ミナミコマグンミノブチョウ","town":"嶺","town_kana":"ミネ","prefecture_code":19},"2524":{"zip_code":"4092524","prefecture":"山梨県","prefecture_kana":"ヤマナシケン","city":"南巨摩郡身延町","city_kana":"ミナミコマグンミノブチョウ","town":"身延","town_kana":"ミノブ","prefecture_code":19},"3422":{"zip_code":"4093422","prefecture":"山梨県","prefecture_kana":"ヤマナシケン","city":"南巨摩郡身延町","city_kana":"ミナミコマグンミノブチョウ","town":"宮木","town_kana":"ミヤキ","prefecture_code":19},"2944":{"zip_code":"4092944","prefecture":"山梨県","prefecture_kana":"ヤマナシケン","city":"南巨摩郡身延町","city_kana":"ミナミコマグンミノブチョウ","town":"桃ケ窪","town_kana":"モモガクボ","prefecture_code":19},"3431":{"zip_code":"4093431","prefecture":"山梨県","prefecture_kana":"ヤマナシケン","city":"南巨摩郡身延町","city_kana":"ミナミコマグンミノブチョウ","town":"矢細工","town_kana":"ヤサイク","prefecture_code":19},"3126":{"zip_code":"4093126","prefecture":"山梨県","prefecture_kana":"ヤマナシケン","city":"南巨摩郡身延町","city_kana":"ミナミコマグンミノブチョウ","town":"山家","town_kana":"ヤマガ","prefecture_code":19},"2941":{"zip_code":"4092941","prefecture":"山梨県","prefecture_kana":"ヤマナシケン","city":"南巨摩郡身延町","city_kana":"ミナミコマグンミノブチョウ","town":"湯之奥","town_kana":"ユノオク","prefecture_code":19},"3421":{"zip_code":"4093421","prefecture":"山梨県","prefecture_kana":"ヤマナシケン","city":"南巨摩郡身延町","city_kana":"ミナミコマグンミノブチョウ","town":"八日市場","town_kana":"ヨウカイチバ","prefecture_code":19},"3306":{"zip_code":"4093306","prefecture":"山梨県","prefecture_kana":"ヤマナシケン","city":"南巨摩郡身延町","city_kana":"ミナミコマグンミノブチョウ","town":"夜子沢","town_kana":"ヨゴサワ","prefecture_code":19},"2535":{"zip_code":"4092535","prefecture":"山梨県","prefecture_kana":"ヤマナシケン","city":"南巨摩郡身延町","city_kana":"ミナミコマグンミノブチョウ","town":"横根中","town_kana":"ヨコネナカ","prefecture_code":19},"2413":{"zip_code":"4092413","prefecture":"山梨県","prefecture_kana":"ヤマナシケン","city":"南巨摩郡身延町","city_kana":"ミナミコマグンミノブチョウ","town":"和田","town_kana":"ワダ","prefecture_code":19},"2100":{"zip_code":"4092100","prefecture":"山梨県","prefecture_kana":"ヤマナシケン","city":"南巨摩郡南部町","city_kana":"ミナミコマグンナンブチョウ","town":"","town_kana":"","prefecture_code":19},"2304":{"zip_code":"4092304","prefecture":"山梨県","prefecture_kana":"ヤマナシケン","city":"南巨摩郡南部町","city_kana":"ミナミコマグンナンブチョウ","town":"井出","town_kana":"イデ","prefecture_code":19},"2305":{"zip_code":"4092305","prefecture":"山梨県","prefecture_kana":"ヤマナシケン","city":"南巨摩郡南部町","city_kana":"ミナミコマグンナンブチョウ","town":"内船","town_kana":"ウツブナ","prefecture_code":19},"2213":{"zip_code":"4092213","prefecture":"山梨県","prefecture_kana":"ヤマナシケン","city":"南巨摩郡南部町","city_kana":"ミナミコマグンナンブチョウ","town":"大和","town_kana":"オオワ","prefecture_code":19},"2101":{"zip_code":"4092101","prefecture":"山梨県","prefecture_kana":"ヤマナシケン","city":"南巨摩郡南部町","city_kana":"ミナミコマグンナンブチョウ","town":"楮根","town_kana":"カゾネ","prefecture_code":19},"2301":{"zip_code":"4092301","prefecture":"山梨県","prefecture_kana":"ヤマナシケン","city":"南巨摩郡南部町","city_kana":"ミナミコマグンナンブチョウ","town":"上佐野","town_kana":"カミサノ","prefecture_code":19},"2214":{"zip_code":"4092214","prefecture":"山梨県","prefecture_kana":"ヤマナシケン","city":"南巨摩郡南部町","city_kana":"ミナミコマグンナンブチョウ","town":"塩沢","town_kana":"シオザワ","prefecture_code":19},"2302":{"zip_code":"4092302","prefecture":"山梨県","prefecture_kana":"ヤマナシケン","city":"南巨摩郡南部町","city_kana":"ミナミコマグンナンブチョウ","town":"下佐野","town_kana":"シモサノ","prefecture_code":19},"2303":{"zip_code":"4092303","prefecture":"山梨県","prefecture_kana":"ヤマナシケン","city":"南巨摩郡南部町","city_kana":"ミナミコマグンナンブチョウ","town":"十島","town_kana":"トオシマ","prefecture_code":19},"2211":{"zip_code":"4092211","prefecture":"山梨県","prefecture_kana":"ヤマナシケン","city":"南巨摩郡南部町","city_kana":"ミナミコマグンナンブチョウ","town":"中野","town_kana":"ナカノ","prefecture_code":19},"2216":{"zip_code":"4092216","prefecture":"山梨県","prefecture_kana":"ヤマナシケン","city":"南巨摩郡南部町","city_kana":"ミナミコマグンナンブチョウ","town":"成島","town_kana":"ナルシマ","prefecture_code":19},"2212":{"zip_code":"4092212","prefecture":"山梨県","prefecture_kana":"ヤマナシケン","city":"南巨摩郡南部町","city_kana":"ミナミコマグンナンブチョウ","town":"南部","town_kana":"ナンブ","prefecture_code":19},"2102":{"zip_code":"4092102","prefecture":"山梨県","prefecture_kana":"ヤマナシケン","city":"南巨摩郡南部町","city_kana":"ミナミコマグンナンブチョウ","town":"福士","town_kana":"フクシ","prefecture_code":19},"2217":{"zip_code":"4092217","prefecture":"山梨県","prefecture_kana":"ヤマナシケン","city":"南巨摩郡南部町","city_kana":"ミナミコマグンナンブチョウ","town":"本郷","town_kana":"ホンゴウ","prefecture_code":19},"2103":{"zip_code":"4092103","prefecture":"山梨県","prefecture_kana":"ヤマナシケン","city":"南巨摩郡南部町","city_kana":"ミナミコマグンナンブチョウ","town":"万沢","town_kana":"マンザワ","prefecture_code":19},"2215":{"zip_code":"4092215","prefecture":"山梨県","prefecture_kana":"ヤマナシケン","city":"南巨摩郡南部町","city_kana":"ミナミコマグンナンブチョウ","town":"柳島","town_kana":"ヤナギシマ","prefecture_code":19},"3852":{"zip_code":"4093852","prefecture":"山梨県","prefecture_kana":"ヤマナシケン","city":"中巨摩郡昭和町","city_kana":"ナカコマグンショウワチョウ","town":"飯喰","town_kana":"イックイ","prefecture_code":19},"3864":{"zip_code":"4093864","prefecture":"山梨県","prefecture_kana":"ヤマナシケン","city":"中巨摩郡昭和町","city_kana":"ナカコマグンショウワチョウ","town":"押越","town_kana":"オシコシ","prefecture_code":19},"3851":{"zip_code":"4093851","prefecture":"山梨県","prefecture_kana":"ヤマナシケン","city":"中巨摩郡昭和町","city_kana":"ナカコマグンショウワチョウ","town":"河西","town_kana":"カサイ","prefecture_code":19},"3863":{"zip_code":"4093863","prefecture":"山梨県","prefecture_kana":"ヤマナシケン","city":"中巨摩郡昭和町","city_kana":"ナカコマグンショウワチョウ","town":"河東中島","town_kana":"カトウナカジマ","prefecture_code":19},"3862":{"zip_code":"4093862","prefecture":"山梨県","prefecture_kana":"ヤマナシケン","city":"中巨摩郡昭和町","city_kana":"ナカコマグンショウワチョウ","town":"上河東","town_kana":"カミガトウ","prefecture_code":19},"3861":{"zip_code":"4093861","prefecture":"山梨県","prefecture_kana":"ヤマナシケン","city":"中巨摩郡昭和町","city_kana":"ナカコマグンショウワチョウ","town":"紙漉阿原","town_kana":"カミスキアワラ","prefecture_code":19},"3866":{"zip_code":"4093866","prefecture":"山梨県","prefecture_kana":"ヤマナシケン","city":"中巨摩郡昭和町","city_kana":"ナカコマグンショウワチョウ","town":"西条","town_kana":"サイジョウ","prefecture_code":19},"3865":{"zip_code":"4093865","prefecture":"山梨県","prefecture_kana":"ヤマナシケン","city":"中巨摩郡昭和町","city_kana":"ナカコマグンショウワチョウ","town":"西条新田","town_kana":"サイジョウシンデン","prefecture_code":19},"3867":{"zip_code":"4093867","prefecture":"山梨県","prefecture_kana":"ヤマナシケン","city":"中巨摩郡昭和町","city_kana":"ナカコマグンショウワチョウ","town":"清水新居","town_kana":"シミズアライ","prefecture_code":19},"3853":{"zip_code":"4093853","prefecture":"山梨県","prefecture_kana":"ヤマナシケン","city":"中巨摩郡昭和町","city_kana":"ナカコマグンショウワチョウ","town":"築地新居","town_kana":"ツイジアライ","prefecture_code":19},"3854":{"zip_code":"4093854","prefecture":"山梨県","prefecture_kana":"ヤマナシケン","city":"中巨摩郡昭和町","city_kana":"ナカコマグンショウワチョウ","town":"築地新田","town_kana":"ツイジシンデン","prefecture_code":19},"0200":{"zip_code":"4090200","prefecture":"山梨県","prefecture_kana":"ヤマナシケン","city":"北都留郡小菅村","city_kana":"キタツルグンコスゲムラ","town":"","town_kana":"","prefecture_code":19},"0142":{"zip_code":"4090142","prefecture":"山梨県","prefecture_kana":"ヤマナシケン","city":"北都留郡小菅村","city_kana":"キタツルグンコスゲムラ","town":"小菅村","town_kana":"コスゲムラ","prefecture_code":19},"0211":{"zip_code":"4090211","prefecture":"山梨県","prefecture_kana":"ヤマナシケン","city":"北都留郡小菅村","city_kana":"キタツルグンコスゲムラ","town":"小菅村","town_kana":"コスゲムラ","prefecture_code":19},"0300":{"zip_code":"4090300","prefecture":"山梨県","prefecture_kana":"ヤマナシケン","city":"北都留郡丹波山村","city_kana":"キタツルグンタバヤマムラ","town":"","town_kana":"","prefecture_code":19},"0301":{"zip_code":"4090301","prefecture":"山梨県","prefecture_kana":"ヤマナシケン","city":"北都留郡丹波山村","city_kana":"キタツルグンタバヤマムラ","town":"奥秋","town_kana":"オクアキ","prefecture_code":19},"0306":{"zip_code":"4090306","prefecture":"山梨県","prefecture_kana":"ヤマナシケン","city":"北都留郡丹波山村","city_kana":"キタツルグンタバヤマムラ","town":"押垣外","town_kana":"オシガイト","prefecture_code":19},"0314":{"zip_code":"4090314","prefecture":"山梨県","prefecture_kana":"ヤマナシケン","city":"北都留郡丹波山村","city_kana":"キタツルグンタバヤマムラ","town":"御祭","town_kana":"オマツリ","prefecture_code":19},"0313":{"zip_code":"4090313","prefecture":"山梨県","prefecture_kana":"ヤマナシケン","city":"北都留郡丹波山村","city_kana":"キタツルグンタバヤマムラ","town":"親川","town_kana":"オヤガワ","prefecture_code":19},"0302":{"zip_code":"4090302","prefecture":"山梨県","prefecture_kana":"ヤマナシケン","city":"北都留郡丹波山村","city_kana":"キタツルグンタバヤマムラ","town":"上組","town_kana":"カミグミ","prefecture_code":19},"0318":{"zip_code":"4090318","prefecture":"山梨県","prefecture_kana":"ヤマナシケン","city":"北都留郡丹波山村","city_kana":"キタツルグンタバヤマムラ","town":"鴨沢","town_kana":"カモサワ","prefecture_code":19},"0317":{"zip_code":"4090317","prefecture":"山梨県","prefecture_kana":"ヤマナシケン","city":"北都留郡丹波山村","city_kana":"キタツルグンタバヤマムラ","town":"小袖","town_kana":"コソデ","prefecture_code":19},"0304":{"zip_code":"4090304","prefecture":"山梨県","prefecture_kana":"ヤマナシケン","city":"北都留郡丹波山村","city_kana":"キタツルグンタバヤマムラ","town":"下組","town_kana":"シモグミ","prefecture_code":19},"0315":{"zip_code":"4090315","prefecture":"山梨県","prefecture_kana":"ヤマナシケン","city":"北都留郡丹波山村","city_kana":"キタツルグンタバヤマムラ","town":"杉奈久保","town_kana":"スギナクボ","prefecture_code":19},"0305":{"zip_code":"4090305","prefecture":"山梨県","prefecture_kana":"ヤマナシケン","city":"北都留郡丹波山村","city_kana":"キタツルグンタバヤマムラ","town":"高尾","town_kana":"タカオ","prefecture_code":19},"0312":{"zip_code":"4090312","prefecture":"山梨県","prefecture_kana":"ヤマナシケン","city":"北都留郡丹波山村","city_kana":"キタツルグンタバヤマムラ","town":"高畑","town_kana":"タカハタ","prefecture_code":19},"0316":{"zip_code":"4090316","prefecture":"山梨県","prefecture_kana":"ヤマナシケン","city":"北都留郡丹波山村","city_kana":"キタツルグンタバヤマムラ","town":"所畑","town_kana":"トコロハタ","prefecture_code":19},"0303":{"zip_code":"4090303","prefecture":"山梨県","prefecture_kana":"ヤマナシケン","city":"北都留郡丹波山村","city_kana":"キタツルグンタバヤマムラ","town":"中組","town_kana":"ナカグミ","prefecture_code":19},"0311":{"zip_code":"4090311","prefecture":"山梨県","prefecture_kana":"ヤマナシケン","city":"北都留郡丹波山村","city_kana":"キタツルグンタバヤマムラ","town":"保之瀬","town_kana":"ホノセ","prefecture_code":19}}