{"0000":[{"zip_code":"4110000","prefecture":"静岡県","prefecture_kana":"シズオカケン","city":"三島市","city_kana":"ミシマシ","town":"以下に掲載がない場合","town_kana":"イカニケイサイガナイバアイ","prefecture_code":22},{"zip_code":"4110000","prefecture":"静岡県","prefecture_kana":"シズオカケン","city":"駿東郡清水町","city_kana":"スントウグンシミズチョウ","town":"以下に掲載がない場合","town_kana":"イカニケイサイガナイバアイ","prefecture_code":22},{"zip_code":"4110000","prefecture":"静岡県","prefecture_kana":"シズオカケン","city":"駿東郡長泉町","city_kana":"スントウグンナガイズミチョウ","town":"以下に掲載がない場合","town_kana":"イカニケイサイガナイバアイ","prefecture_code":22}],"0811":{"zip_code":"4110811","prefecture":"静岡県","prefecture_kana":"シズオカケン","city":"三島市","city_kana":"ミシマシ","town":"青木","town_kana":"アオキ","prefecture_code":22},"0020":{"zip_code":"4110020","prefecture":"静岡県","prefecture_kana":"シズオカケン","city":"三島市","city_kana":"ミシマシ","town":"旭ケ丘","town_kana":"アサヒガオカ","prefecture_code":22},"0834":{"zip_code":"4110834","prefecture":"静岡県","prefecture_kana":"シズオカケン","city":"三島市","city_kana":"ミシマシ","town":"新谷","town_kana":"アラヤ","prefecture_code":22},"0037":{"zip_code":"4110037","prefecture":"静岡県","prefecture_kana":"シズオカケン","city":"三島市","city_kana":"ミシマシ","town":"泉町","town_kana":"イズミチョウ","prefecture_code":22},"0015":{"zip_code":"4110015","prefecture":"静岡県","prefecture_kana":"シズオカケン","city":"三島市","city_kana":"ミシマシ","town":"市山新田","town_kana":"イチノヤマシンデン","prefecture_code":22},"0036":{"zip_code":"4110036","prefecture":"静岡県","prefecture_kana":"シズオカケン","city":"三島市","city_kana":"ミシマシ","town":"一番町","town_kana":"イチバンチョウ","prefecture_code":22},"0025":{"zip_code":"4110025","prefecture":"静岡県","prefecture_kana":"シズオカケン","city":"三島市","city_kana":"ミシマシ","town":"壱町田","town_kana":"イッチョウダ","prefecture_code":22},"0816":{"zip_code":"4110816","prefecture":"静岡県","prefecture_kana":"シズオカケン","city":"三島市","city_kana":"ミシマシ","town":"梅名","town_kana":"ウメナ","prefecture_code":22},"0035":{"zip_code":"4110035","prefecture":"静岡県","prefecture_kana":"シズオカケン","city":"三島市","city_kana":"ミシマシ","town":"大宮町","town_kana":"オオミヤチョウ","prefecture_code":22},"0023":{"zip_code":"4110023","prefecture":"静岡県","prefecture_kana":"シズオカケン","city":"三島市","city_kana":"ミシマシ","town":"加茂","town_kana":"カモ","prefecture_code":22},"0034":{"zip_code":"4110034","prefecture":"静岡県","prefecture_kana":"シズオカケン","city":"三島市","city_kana":"ミシマシ","town":"加茂川町","town_kana":"カモガワチョウ","prefecture_code":22},"0845":{"zip_code":"4110845","prefecture":"静岡県","prefecture_kana":"シズオカケン","city":"三島市","city_kana":"ミシマシ","town":"加屋町","town_kana":"カヤマチ","prefecture_code":22},"0022":{"zip_code":"4110022","prefecture":"静岡県","prefecture_kana":"シズオカケン","city":"三島市","city_kana":"ミシマシ","town":"川原ケ谷","town_kana":"カワハラガヤ","prefecture_code":22},"0805":{"zip_code":"4110805","prefecture":"静岡県","prefecture_kana":"シズオカケン","city":"三島市","city_kana":"ミシマシ","town":"北沢","town_kana":"キタザワ","prefecture_code":22},"0854":{"zip_code":"4110854","prefecture":"静岡県","prefecture_kana":"シズオカケン","city":"三島市","city_kana":"ミシマシ","town":"北田町","town_kana":"キタタマチ","prefecture_code":22},"0844":{"zip_code":"4110844","prefecture":"静岡県","prefecture_kana":"シズオカケン","city":"三島市","city_kana":"ミシマシ","town":"清住町","town_kana":"キヨズミチョウ","prefecture_code":22},"0031":{"zip_code":"4110031","prefecture":"静岡県","prefecture_kana":"シズオカケン","city":"三島市","city_kana":"ミシマシ","town":"幸原町","town_kana":"コウバラチョウ","prefecture_code":22},"0039":{"zip_code":"4110039","prefecture":"静岡県","prefecture_kana":"シズオカケン","city":"三島市","city_kana":"ミシマシ","town":"寿町","town_kana":"コトブキチョウ","prefecture_code":22},"0846":{"zip_code":"4110846","prefecture":"静岡県","prefecture_kana":"シズオカケン","city":"三島市","city_kana":"ミシマシ","town":"栄町","town_kana":"サカエチョウ","prefecture_code":22},"0012":{"zip_code":"4110012","prefecture":"静岡県","prefecture_kana":"シズオカケン","city":"三島市","city_kana":"ミシマシ","town":"笹原新田","town_kana":"ササハラシンデン","prefecture_code":22},"0047":{"zip_code":"4110047","prefecture":"静岡県","prefecture_kana":"シズオカケン","city":"三島市","city_kana":"ミシマシ","town":"佐野","town_kana":"サノ","prefecture_code":22},"0041":{"zip_code":"4110041","prefecture":"静岡県","prefecture_kana":"シズオカケン","city":"三島市","city_kana":"ミシマシ","town":"佐野見晴台","town_kana":"サノミハラシダイ","prefecture_code":22},"0043":{"zip_code":"4110043","prefecture":"静岡県","prefecture_kana":"シズオカケン","city":"三島市","city_kana":"ミシマシ","town":"沢地","town_kana":"サワジ","prefecture_code":22},"0017":{"zip_code":"4110017","prefecture":"静岡県","prefecture_kana":"シズオカケン","city":"三島市","city_kana":"ミシマシ","town":"三恵台","town_kana":"サンケイダイ","prefecture_code":22},"0857":{"zip_code":"4110857","prefecture":"静岡県","prefecture_kana":"シズオカケン","city":"三島市","city_kana":"ミシマシ","town":"芝本町","town_kana":"シバホンチョウ","prefecture_code":22},"0032":{"zip_code":"4110032","prefecture":"静岡県","prefecture_kana":"シズオカケン","city":"三島市","city_kana":"ミシマシ","town":"末広町","town_kana":"スエヒロチョウ","prefecture_code":22},"0027":{"zip_code":"4110027","prefecture":"静岡県","prefecture_kana":"シズオカケン","city":"三島市","city_kana":"ミシマシ","town":"千枚原","town_kana":"センマイバラ","prefecture_code":22},"0853":{"zip_code":"4110853","prefecture":"静岡県","prefecture_kana":"シズオカケン","city":"三島市","city_kana":"ミシマシ","town":"大社町","town_kana":"タイシャチョウ","prefecture_code":22},"0803":{"zip_code":"4110803","prefecture":"静岡県","prefecture_kana":"シズオカケン","city":"三島市","city_kana":"ミシマシ","town":"大場","town_kana":"ダイバ","prefecture_code":22},"0807":{"zip_code":"4110807","prefecture":"静岡県","prefecture_kana":"シズオカケン","city":"三島市","city_kana":"ミシマシ","town":"竹倉","town_kana":"タケクラ","prefecture_code":22},"0835":{"zip_code":"4110835","prefecture":"静岡県","prefecture_kana":"シズオカケン","city":"三島市","city_kana":"ミシマシ","town":"玉川","town_kana":"タマガワ","prefecture_code":22},"0014":{"zip_code":"4110014","prefecture":"静岡県","prefecture_kana":"シズオカケン","city":"三島市","city_kana":"ミシマシ","town":"玉沢","town_kana":"タマザワ","prefecture_code":22},"0804":{"zip_code":"4110804","prefecture":"静岡県","prefecture_kana":"シズオカケン","city":"三島市","city_kana":"ミシマシ","town":"多呂","town_kana":"タロ","prefecture_code":22},"0858":{"zip_code":"4110858","prefecture":"静岡県","prefecture_kana":"シズオカケン","city":"三島市","city_kana":"ミシマシ","town":"中央町","town_kana":"チュウオウチョウ","prefecture_code":22},"0016":{"zip_code":"4110016","prefecture":"静岡県","prefecture_kana":"シズオカケン","city":"三島市","city_kana":"ミシマシ","town":"塚原新田","town_kana":"ツカハラシンデン","prefecture_code":22},"0813":{"zip_code":"4110813","prefecture":"静岡県","prefecture_kana":"シズオカケン","city":"三島市","city_kana":"ミシマシ","town":"鶴喰","town_kana":"ツルハミ","prefecture_code":22},"0044":{"zip_code":"4110044","prefecture":"静岡県","prefecture_kana":"シズオカケン","city":"三島市","city_kana":"ミシマシ","town":"徳倉","town_kana":"トクラ","prefecture_code":22},"0836":{"zip_code":"4110836","prefecture":"静岡県","prefecture_kana":"シズオカケン","city":"三島市","city_kana":"ミシマシ","town":"富田町","town_kana":"トミタマチ","prefecture_code":22},"0833":{"zip_code":"4110833","prefecture":"静岡県","prefecture_kana":"シズオカケン","city":"三島市","city_kana":"ミシマシ","town":"中","town_kana":"ナカ","prefecture_code":22},"0814":{"zip_code":"4110814","prefecture":"静岡県","prefecture_kana":"シズオカケン","city":"三島市","city_kana":"ミシマシ","town":"中島","town_kana":"ナカジマ","prefecture_code":22},"0838":{"zip_code":"4110838","prefecture":"静岡県","prefecture_kana":"シズオカケン","city":"三島市","city_kana":"ミシマシ","town":"中田町","town_kana":"ナカタマチ","prefecture_code":22},"0824":{"zip_code":"4110824","prefecture":"静岡県","prefecture_kana":"シズオカケン","city":"三島市","city_kana":"ミシマシ","town":"長伏","town_kana":"ナガブセ","prefecture_code":22},"0808":{"zip_code":"4110808","prefecture":"静岡県","prefecture_kana":"シズオカケン","city":"三島市","city_kana":"ミシマシ","town":"錦が丘","town_kana":"ニシキガオカ","prefecture_code":22},"0847":{"zip_code":"4110847","prefecture":"静岡県","prefecture_kana":"シズオカケン","city":"三島市","city_kana":"ミシマシ","town":"西本町","town_kana":"ニシホンチョウ","prefecture_code":22},"0038":{"zip_code":"4110038","prefecture":"静岡県","prefecture_kana":"シズオカケン","city":"三島市","city_kana":"ミシマシ","town":"西若町","town_kana":"ニシワカチョウ","prefecture_code":22},"0045":{"zip_code":"4110045","prefecture":"静岡県","prefecture_kana":"シズオカケン","city":"三島市","city_kana":"ミシマシ","town":"萩","town_kana":"ハギ","prefecture_code":22},"0817":{"zip_code":"4110817","prefecture":"静岡県","prefecture_kana":"シズオカケン","city":"三島市","city_kana":"ミシマシ","town":"八反畑","town_kana":"ハッタバタ","prefecture_code":22},"0018":{"zip_code":"4110018","prefecture":"静岡県","prefecture_kana":"シズオカケン","city":"三島市","city_kana":"ミシマシ","town":"初音台","town_kana":"ハツネダイ","prefecture_code":22},"0029":{"zip_code":"4110029","prefecture":"静岡県","prefecture_kana":"シズオカケン","city":"三島市","city_kana":"ミシマシ","town":"光ケ丘","town_kana":"ヒカリガオカ","prefecture_code":22},"0026":{"zip_code":"4110026","prefecture":"静岡県","prefecture_kana":"シズオカケン","city":"三島市","city_kana":"ミシマシ","town":"東壱町田","town_kana":"ヒガシイッチョウダ","prefecture_code":22},"0802":{"zip_code":"4110802","prefecture":"静岡県","prefecture_kana":"シズオカケン","city":"三島市","city_kana":"ミシマシ","town":"東大場","town_kana":"ヒガシダイバ","prefecture_code":22},"0852":{"zip_code":"4110852","prefecture":"静岡県","prefecture_kana":"シズオカケン","city":"三島市","city_kana":"ミシマシ","town":"東町","town_kana":"ヒガシチョウ","prefecture_code":22},"0831":{"zip_code":"4110831","prefecture":"静岡県","prefecture_kana":"シズオカケン","city":"三島市","city_kana":"ミシマシ","town":"東本町","town_kana":"ヒガシホンチョウ","prefecture_code":22},"0851":{"zip_code":"4110851","prefecture":"静岡県","prefecture_kana":"シズオカケン","city":"三島市","city_kana":"ミシマシ","town":"日の出町","town_kana":"ヒノデチョウ","prefecture_code":22},"0821":{"zip_code":"4110821","prefecture":"静岡県","prefecture_kana":"シズオカケン","city":"三島市","city_kana":"ミシマシ","town":"平田","town_kana":"ヒラタ","prefecture_code":22},"0856":{"zip_code":"4110856","prefecture":"静岡県","prefecture_kana":"シズオカケン","city":"三島市","city_kana":"ミシマシ","town":"広小路町","town_kana":"ヒロコウジチョウ","prefecture_code":22},"0812":{"zip_code":"4110812","prefecture":"静岡県","prefecture_kana":"シズオカケン","city":"三島市","city_kana":"ミシマシ","town":"藤代町","town_kana":"フジシロチョウ","prefecture_code":22},"0028":{"zip_code":"4110028","prefecture":"静岡県","prefecture_kana":"シズオカケン","city":"三島市","city_kana":"ミシマシ","town":"富士ビレッジ","town_kana":"フジビレッジ","prefecture_code":22},"0021":{"zip_code":"4110021","prefecture":"静岡県","prefecture_kana":"シズオカケン","city":"三島市","city_kana":"ミシマシ","town":"富士見台","town_kana":"フジミダイ","prefecture_code":22},"0046":{"zip_code":"4110046","prefecture":"静岡県","prefecture_kana":"シズオカケン","city":"三島市","city_kana":"ミシマシ","town":"芙蓉台","town_kana":"フヨウダイ","prefecture_code":22},"0033":{"zip_code":"4110033","prefecture":"静岡県","prefecture_kana":"シズオカケン","city":"三島市","city_kana":"ミシマシ","town":"文教町","town_kana":"ブンキョウチョウ","prefecture_code":22},"0042":{"zip_code":"4110042","prefecture":"静岡県","prefecture_kana":"シズオカケン","city":"三島市","city_kana":"ミシマシ","town":"平成台","town_kana":"ヘイセイダイ","prefecture_code":22},"0855":{"zip_code":"4110855","prefecture":"静岡県","prefecture_kana":"シズオカケン","city":"三島市","city_kana":"ミシマシ","town":"本町","town_kana":"ホンチョウ","prefecture_code":22},"0019":{"zip_code":"4110019","prefecture":"静岡県","prefecture_kana":"シズオカケン","city":"三島市","city_kana":"ミシマシ","town":"松が丘","town_kana":"マツガオカ","prefecture_code":22},"0822":{"zip_code":"4110822","prefecture":"静岡県","prefecture_kana":"シズオカケン","city":"三島市","city_kana":"ミシマシ","town":"松本","town_kana":"マツモト","prefecture_code":22},"0823":{"zip_code":"4110823","prefecture":"静岡県","prefecture_kana":"シズオカケン","city":"三島市","city_kana":"ミシマシ","town":"御園","town_kana":"ミソノ","prefecture_code":22},"0013":{"zip_code":"4110013","prefecture":"静岡県","prefecture_kana":"シズオカケン","city":"三島市","city_kana":"ミシマシ","town":"三ツ谷新田","town_kana":"ミツヤシンデン","prefecture_code":22},"0848":{"zip_code":"4110848","prefecture":"静岡県","prefecture_kana":"シズオカケン","city":"三島市","city_kana":"ミシマシ","town":"緑町","town_kana":"ミドリチョウ","prefecture_code":22},"0837":{"zip_code":"4110837","prefecture":"静岡県","prefecture_kana":"シズオカケン","city":"三島市","city_kana":"ミシマシ","town":"南田町","town_kana":"ミナミタマチ","prefecture_code":22},"0842":{"zip_code":"4110842","prefecture":"静岡県","prefecture_kana":"シズオカケン","city":"三島市","city_kana":"ミシマシ","town":"南町","town_kana":"ミナミチョウ","prefecture_code":22},"0832":{"zip_code":"4110832","prefecture":"静岡県","prefecture_kana":"シズオカケン","city":"三島市","city_kana":"ミシマシ","town":"南二日町","town_kana":"ミナミフツカマチ","prefecture_code":22},"0841":{"zip_code":"4110841","prefecture":"静岡県","prefecture_kana":"シズオカケン","city":"三島市","city_kana":"ミシマシ","town":"南本町","town_kana":"ミナミホンチョウ","prefecture_code":22},"0843":{"zip_code":"4110843","prefecture":"静岡県","prefecture_kana":"シズオカケン","city":"三島市","city_kana":"ミシマシ","town":"三好町","town_kana":"ミヨシチョウ","prefecture_code":22},"0815":{"zip_code":"4110815","prefecture":"静岡県","prefecture_kana":"シズオカケン","city":"三島市","city_kana":"ミシマシ","town":"安久","town_kana":"ヤスヒサ","prefecture_code":22},"0801":{"zip_code":"4110801","prefecture":"静岡県","prefecture_kana":"シズオカケン","city":"三島市","city_kana":"ミシマシ","town":"谷田","town_kana":"ヤタ","prefecture_code":22},"0806":{"zip_code":"4110806","prefecture":"静岡県","prefecture_kana":"シズオカケン","city":"三島市","city_kana":"ミシマシ","town":"柳郷地","town_kana":"ヤナギゴウチ","prefecture_code":22},"0011":{"zip_code":"4110011","prefecture":"静岡県","prefecture_kana":"シズオカケン","city":"三島市","city_kana":"ミシマシ","town":"山中新田","town_kana":"ヤマナカシンデン","prefecture_code":22},"0024":{"zip_code":"4110024","prefecture":"静岡県","prefecture_kana":"シズオカケン","city":"三島市","city_kana":"ミシマシ","town":"若松町","town_kana":"ワカマツチョウ","prefecture_code":22},"0001":[{"zip_code":"4110001","prefecture":"静岡県","prefecture_kana":"シズオカケン","city":"田方郡函南町","city_kana":"タガタグンカンナミチョウ","town":"桑原（茨ケ平）","town_kana":"クワハラ(イバラガヒラ)","prefecture_code":22},{"zip_code":"4110001","prefecture":"静岡県","prefecture_kana":"シズオカケン","city":"田方郡函南町","city_kana":"タガタグンカンナミチョウ","town":"桑原（箱根峠）","town_kana":"クワハラ(ハコネトウゲ)","prefecture_code":22}],"0912":{"zip_code":"4110912","prefecture":"静岡県","prefecture_kana":"シズオカケン","city":"駿東郡清水町","city_kana":"スントウグンシミズチョウ","town":"卸団地","town_kana":"オロシダンチ","prefecture_code":22},"0904":{"zip_code":"4110904","prefecture":"静岡県","prefecture_kana":"シズオカケン","city":"駿東郡清水町","city_kana":"スントウグンシミズチョウ","town":"柿田","town_kana":"カキダ","prefecture_code":22},"0911":{"zip_code":"4110911","prefecture":"静岡県","prefecture_kana":"シズオカケン","city":"駿東郡清水町","city_kana":"スントウグンシミズチョウ","town":"久米田","town_kana":"クマイデン","prefecture_code":22},"0901":{"zip_code":"4110901","prefecture":"静岡県","prefecture_kana":"シズオカケン","city":"駿東郡清水町","city_kana":"スントウグンシミズチョウ","town":"新宿","town_kana":"シンシュク","prefecture_code":22},"0902":{"zip_code":"4110902","prefecture":"静岡県","prefecture_kana":"シズオカケン","city":"駿東郡清水町","city_kana":"スントウグンシミズチョウ","town":"玉川","town_kana":"タマガワ","prefecture_code":22},"0903":{"zip_code":"4110903","prefecture":"静岡県","prefecture_kana":"シズオカケン","city":"駿東郡清水町","city_kana":"スントウグンシミズチョウ","town":"堂庭","town_kana":"ドウニワ","prefecture_code":22},"0917":{"zip_code":"4110917","prefecture":"静岡県","prefecture_kana":"シズオカケン","city":"駿東郡清水町","city_kana":"スントウグンシミズチョウ","town":"徳倉（上徳倉、下徳倉、外原）","town_kana":"トクラ(カミトクラ、シモトクラ、ソトハラ)","prefecture_code":22},"0913":{"zip_code":"4110913","prefecture":"静岡県","prefecture_kana":"シズオカケン","city":"駿東郡清水町","city_kana":"スントウグンシミズチョウ","town":"戸田","town_kana":"トダ","prefecture_code":22},"0916":{"zip_code":"4110916","prefecture":"静岡県","prefecture_kana":"シズオカケン","city":"駿東郡清水町","city_kana":"スントウグンシミズチョウ","town":"中徳倉","town_kana":"ナカトクラ","prefecture_code":22},"0905":{"zip_code":"4110905","prefecture":"静岡県","prefecture_kana":"シズオカケン","city":"駿東郡清水町","city_kana":"スントウグンシミズチョウ","town":"長沢","town_kana":"ナガサワ","prefecture_code":22},"0914":{"zip_code":"4110914","prefecture":"静岡県","prefecture_kana":"シズオカケン","city":"駿東郡清水町","city_kana":"スントウグンシミズチョウ","town":"畑中","town_kana":"ハタケナカ","prefecture_code":22},"0907":{"zip_code":"4110907","prefecture":"静岡県","prefecture_kana":"シズオカケン","city":"駿東郡清水町","city_kana":"スントウグンシミズチョウ","town":"伏見","town_kana":"フシミ","prefecture_code":22},"0915":{"zip_code":"4110915","prefecture":"静岡県","prefecture_kana":"シズオカケン","city":"駿東郡清水町","city_kana":"スントウグンシミズチョウ","town":"的場","town_kana":"マトバ","prefecture_code":22},"0906":{"zip_code":"4110906","prefecture":"静岡県","prefecture_kana":"シズオカケン","city":"駿東郡清水町","city_kana":"スントウグンシミズチョウ","town":"八幡","town_kana":"ヤハタ","prefecture_code":22},"0918":{"zip_code":"4110918","prefecture":"静岡県","prefecture_kana":"シズオカケン","city":"駿東郡清水町","city_kana":"スントウグンシミズチョウ","town":"湯川","town_kana":"ユカワ","prefecture_code":22},"0941":{"zip_code":"4110941","prefecture":"静岡県","prefecture_kana":"シズオカケン","city":"駿東郡長泉町","city_kana":"スントウグンナガイズミチョウ","town":"上土狩","town_kana":"カミトガリ","prefecture_code":22},"0935":{"zip_code":"4110935","prefecture":"静岡県","prefecture_kana":"シズオカケン","city":"駿東郡長泉町","city_kana":"スントウグンナガイズミチョウ","town":"上長窪","town_kana":"カミナガクボ","prefecture_code":22},"0951":{"zip_code":"4110951","prefecture":"静岡県","prefecture_kana":"シズオカケン","city":"駿東郡長泉町","city_kana":"スントウグンナガイズミチョウ","town":"桜堤","town_kana":"サクラヅツミ","prefecture_code":22},"0943":{"zip_code":"4110943","prefecture":"静岡県","prefecture_kana":"シズオカケン","city":"駿東郡長泉町","city_kana":"スントウグンナガイズミチョウ","town":"下土狩","town_kana":"シモトガリ","prefecture_code":22},"0934":{"zip_code":"4110934","prefecture":"静岡県","prefecture_kana":"シズオカケン","city":"駿東郡長泉町","city_kana":"スントウグンナガイズミチョウ","town":"下長窪","town_kana":"シモナガクボ","prefecture_code":22},"0944":{"zip_code":"4110944","prefecture":"静岡県","prefecture_kana":"シズオカケン","city":"駿東郡長泉町","city_kana":"スントウグンナガイズミチョウ","town":"竹原","town_kana":"タケハラ","prefecture_code":22},"0942":{"zip_code":"4110942","prefecture":"静岡県","prefecture_kana":"シズオカケン","city":"駿東郡長泉町","city_kana":"スントウグンナガイズミチョウ","town":"中土狩","town_kana":"ナカトガリ","prefecture_code":22},"0933":{"zip_code":"4110933","prefecture":"静岡県","prefecture_kana":"シズオカケン","city":"駿東郡長泉町","city_kana":"スントウグンナガイズミチョウ","town":"納米里","town_kana":"ナメリ","prefecture_code":22},"0931":{"zip_code":"4110931","prefecture":"静岡県","prefecture_kana":"シズオカケン","city":"駿東郡長泉町","city_kana":"スントウグンナガイズミチョウ","town":"東野","town_kana":"ヒガシノ","prefecture_code":22},"0945":{"zip_code":"4110945","prefecture":"静岡県","prefecture_kana":"シズオカケン","city":"駿東郡長泉町","city_kana":"スントウグンナガイズミチョウ","town":"本宿","town_kana":"ホンジュク","prefecture_code":22},"0932":{"zip_code":"4110932","prefecture":"静岡県","prefecture_kana":"シズオカケン","city":"駿東郡長泉町","city_kana":"スントウグンナガイズミチョウ","town":"南一色","town_kana":"ミナミイシキ","prefecture_code":22},"0936":{"zip_code":"4110936","prefecture":"静岡県","prefecture_kana":"シズオカケン","city":"駿東郡長泉町","city_kana":"スントウグンナガイズミチョウ","town":"元長窪","town_kana":"モトナガクボ","prefecture_code":22}}