{"0000":{"zip_code":"4120000","prefecture":"静岡県","prefecture_kana":"シズオカケン","city":"御殿場市","city_kana":"ゴテンバシ","town":"以下に掲載がない場合","town_kana":"イカニケイサイガナイバアイ","prefecture_code":22},"0048":{"zip_code":"4120048","prefecture":"静岡県","prefecture_kana":"シズオカケン","city":"御殿場市","city_kana":"ゴテンバシ","town":"板妻","town_kana":"イタヅマ","prefecture_code":22},"0008":{"zip_code":"4120008","prefecture":"静岡県","prefecture_kana":"シズオカケン","city":"御殿場市","city_kana":"ゴテンバシ","town":"印野","town_kana":"インノ","prefecture_code":22},"0034":{"zip_code":"4120034","prefecture":"静岡県","prefecture_kana":"シズオカケン","city":"御殿場市","city_kana":"ゴテンバシ","town":"大坂","town_kana":"オオサカ","prefecture_code":22},"0014":{"zip_code":"4120014","prefecture":"静岡県","prefecture_kana":"シズオカケン","city":"御殿場市","city_kana":"ゴテンバシ","town":"大堰","town_kana":"オオセギ","prefecture_code":22},"0013":{"zip_code":"4120013","prefecture":"静岡県","prefecture_kana":"シズオカケン","city":"御殿場市","city_kana":"ゴテンバシ","town":"小倉野","town_kana":"オグラノ","prefecture_code":22},"0039":{"zip_code":"4120039","prefecture":"静岡県","prefecture_kana":"シズオカケン","city":"御殿場市","city_kana":"ゴテンバシ","town":"竈","town_kana":"カマド","prefecture_code":22},"0002":{"zip_code":"4120002","prefecture":"静岡県","prefecture_kana":"シズオカケン","city":"御殿場市","city_kana":"ゴテンバシ","town":"上小林","town_kana":"カミコバヤシ","prefecture_code":22},"0045":{"zip_code":"4120045","prefecture":"静岡県","prefecture_kana":"シズオカケン","city":"御殿場市","city_kana":"ゴテンバシ","town":"川島田","town_kana":"カワシマタ","prefecture_code":22},"0009":{"zip_code":"4120009","prefecture":"静岡県","prefecture_kana":"シズオカケン","city":"御殿場市","city_kana":"ゴテンバシ","town":"川柳","town_kana":"カワヤナギ","prefecture_code":22},"0041":{"zip_code":"4120041","prefecture":"静岡県","prefecture_kana":"シズオカケン","city":"御殿場市","city_kana":"ゴテンバシ","town":"茱萸沢","town_kana":"グミザワ","prefecture_code":22},"0033":{"zip_code":"4120033","prefecture":"静岡県","prefecture_kana":"シズオカケン","city":"御殿場市","city_kana":"ゴテンバシ","town":"神山","town_kana":"コウヤマ","prefecture_code":22},"0029":{"zip_code":"4120029","prefecture":"静岡県","prefecture_kana":"シズオカケン","city":"御殿場市","city_kana":"ゴテンバシ","town":"神山平","town_kana":"コウヤマダイラ","prefecture_code":22},"0028":{"zip_code":"4120028","prefecture":"静岡県","prefecture_kana":"シズオカケン","city":"御殿場市","city_kana":"ゴテンバシ","town":"御殿場","town_kana":"ゴテンバ","prefecture_code":22},"0038":{"zip_code":"4120038","prefecture":"静岡県","prefecture_kana":"シズオカケン","city":"御殿場市","city_kana":"ゴテンバシ","town":"駒門","town_kana":"コマカド","prefecture_code":22},"0003":{"zip_code":"4120003","prefecture":"静岡県","prefecture_kana":"シズオカケン","city":"御殿場市","city_kana":"ゴテンバシ","town":"柴怒田","town_kana":"シバンタ","prefecture_code":22},"0047":{"zip_code":"4120047","prefecture":"静岡県","prefecture_kana":"シズオカケン","city":"御殿場市","city_kana":"ゴテンバシ","town":"神場","town_kana":"ジンバ","prefecture_code":22},"0044":{"zip_code":"4120044","prefecture":"静岡県","prefecture_kana":"シズオカケン","city":"御殿場市","city_kana":"ゴテンバシ","town":"杉名沢","town_kana":"スギナザワ","prefecture_code":22},"0022":{"zip_code":"4120022","prefecture":"静岡県","prefecture_kana":"シズオカケン","city":"御殿場市","city_kana":"ゴテンバシ","town":"清後","town_kana":"セイゴ","prefecture_code":22},"0017":{"zip_code":"4120017","prefecture":"静岡県","prefecture_kana":"シズオカケン","city":"御殿場市","city_kana":"ゴテンバシ","town":"塚原","town_kana":"ツカバラ","prefecture_code":22},"0037":{"zip_code":"4120037","prefecture":"静岡県","prefecture_kana":"シズオカケン","city":"御殿場市","city_kana":"ゴテンバシ","town":"中清水","town_kana":"ナカシミズ","prefecture_code":22},"0006":{"zip_code":"4120006","prefecture":"静岡県","prefecture_kana":"シズオカケン","city":"御殿場市","city_kana":"ゴテンバシ","town":"中畑","town_kana":"ナカバタ","prefecture_code":22},"0015":{"zip_code":"4120015","prefecture":"静岡県","prefecture_kana":"シズオカケン","city":"御殿場市","city_kana":"ゴテンバシ","town":"中丸","town_kana":"ナカマル","prefecture_code":22},"0035":{"zip_code":"4120035","prefecture":"静岡県","prefecture_kana":"シズオカケン","city":"御殿場市","city_kana":"ゴテンバシ","town":"中山","town_kana":"ナカヤマ","prefecture_code":22},"0007":{"zip_code":"4120007","prefecture":"静岡県","prefecture_kana":"シズオカケン","city":"御殿場市","city_kana":"ゴテンバシ","town":"永塚","town_kana":"ナガツカ","prefecture_code":22},"0043":{"zip_code":"4120043","prefecture":"静岡県","prefecture_kana":"シズオカケン","city":"御殿場市","city_kana":"ゴテンバシ","town":"新橋","town_kana":"ニイハシ","prefecture_code":22},"0027":{"zip_code":"4120027","prefecture":"静岡県","prefecture_kana":"シズオカケン","city":"御殿場市","city_kana":"ゴテンバシ","town":"西田中","town_kana":"ニシタナカ","prefecture_code":22},"0025":{"zip_code":"4120025","prefecture":"静岡県","prefecture_kana":"シズオカケン","city":"御殿場市","city_kana":"ゴテンバシ","town":"二の岡","town_kana":"ニノオカ","prefecture_code":22},"0021":{"zip_code":"4120021","prefecture":"静岡県","prefecture_kana":"シズオカケン","city":"御殿場市","city_kana":"ゴテンバシ","town":"二枚橋","town_kana":"ニマイバシ","prefecture_code":22},"0031":{"zip_code":"4120031","prefecture":"静岡県","prefecture_kana":"シズオカケン","city":"御殿場市","city_kana":"ゴテンバシ","town":"沼田","town_kana":"ヌマタ","prefecture_code":22},"0036":{"zip_code":"4120036","prefecture":"静岡県","prefecture_kana":"シズオカケン","city":"御殿場市","city_kana":"ゴテンバシ","town":"萩蕪","town_kana":"ハギカブ","prefecture_code":22},"0042":{"zip_code":"4120042","prefecture":"静岡県","prefecture_kana":"シズオカケン","city":"御殿場市","city_kana":"ゴテンバシ","town":"萩原","town_kana":"ハギワラ","prefecture_code":22},"0026":{"zip_code":"4120026","prefecture":"静岡県","prefecture_kana":"シズオカケン","city":"御殿場市","city_kana":"ゴテンバシ","town":"東田中","town_kana":"ヒガシタナカ","prefecture_code":22},"0024":{"zip_code":"4120024","prefecture":"静岡県","prefecture_kana":"シズオカケン","city":"御殿場市","city_kana":"ゴテンバシ","town":"東山","town_kana":"ヒガシヤマ","prefecture_code":22},"0005":{"zip_code":"4120005","prefecture":"静岡県","prefecture_kana":"シズオカケン","city":"御殿場市","city_kana":"ゴテンバシ","town":"仁杉","town_kana":"ヒトスギ","prefecture_code":22},"0023":{"zip_code":"4120023","prefecture":"静岡県","prefecture_kana":"シズオカケン","city":"御殿場市","city_kana":"ゴテンバシ","town":"深沢","town_kana":"フカサワ","prefecture_code":22},"0051":{"zip_code":"4120051","prefecture":"静岡県","prefecture_kana":"シズオカケン","city":"御殿場市","city_kana":"ゴテンバシ","town":"富士見原","town_kana":"フジミハラ","prefecture_code":22},"0032":{"zip_code":"4120032","prefecture":"静岡県","prefecture_kana":"シズオカケン","city":"御殿場市","city_kana":"ゴテンバシ","town":"二子","town_kana":"フタゴ","prefecture_code":22},"0011":{"zip_code":"4120011","prefecture":"静岡県","prefecture_kana":"シズオカケン","city":"御殿場市","city_kana":"ゴテンバシ","town":"古沢","town_kana":"フルサワ","prefecture_code":22},"0004":{"zip_code":"4120004","prefecture":"静岡県","prefecture_kana":"シズオカケン","city":"御殿場市","city_kana":"ゴテンバシ","town":"北久原","town_kana":"ホックバラ","prefecture_code":22},"0046":{"zip_code":"4120046","prefecture":"静岡県","prefecture_kana":"シズオカケン","city":"御殿場市","city_kana":"ゴテンバシ","town":"保土沢","town_kana":"ホトザワ","prefecture_code":22},"0012":{"zip_code":"4120012","prefecture":"静岡県","prefecture_kana":"シズオカケン","city":"御殿場市","city_kana":"ゴテンバシ","town":"増田","town_kana":"マシダ","prefecture_code":22},"0001":{"zip_code":"4120001","prefecture":"静岡県","prefecture_kana":"シズオカケン","city":"御殿場市","city_kana":"ゴテンバシ","town":"水土野","town_kana":"ミドノ","prefecture_code":22},"0016":{"zip_code":"4120016","prefecture":"静岡県","prefecture_kana":"シズオカケン","city":"御殿場市","city_kana":"ゴテンバシ","town":"六日市場","town_kana":"ムイカイチバ","prefecture_code":22},"0019":{"zip_code":"4120019","prefecture":"静岡県","prefecture_kana":"シズオカケン","city":"御殿場市","city_kana":"ゴテンバシ","town":"山尾田","town_kana":"ヤマオダ","prefecture_code":22},"0018":{"zip_code":"4120018","prefecture":"静岡県","prefecture_kana":"シズオカケン","city":"御殿場市","city_kana":"ゴテンバシ","town":"山之尻","town_kana":"ヤマノシリ","prefecture_code":22}}