{"0000":{"zip_code":"4140000","prefecture":"静岡県","prefecture_kana":"シズオカケン","city":"伊東市","city_kana":"イトウシ","town":"","town_kana":"","prefecture_code":22},"0043":{"zip_code":"4140043","prefecture":"静岡県","prefecture_kana":"シズオカケン","city":"伊東市","city_kana":"イトウシ","town":"新井","town_kana":"アライ","prefecture_code":22},"0001":{"zip_code":"4140001","prefecture":"静岡県","prefecture_kana":"シズオカケン","city":"伊東市","city_kana":"イトウシ","town":"宇佐美","town_kana":"ウサミ","prefecture_code":22},"0046":{"zip_code":"4140046","prefecture":"静岡県","prefecture_kana":"シズオカケン","city":"伊東市","city_kana":"イトウシ","town":"大原","town_kana":"オオハラ","prefecture_code":22},"0055":{"zip_code":"4140055","prefecture":"静岡県","prefecture_kana":"シズオカケン","city":"伊東市","city_kana":"イトウシ","town":"岡","town_kana":"オカ","prefecture_code":22},"0016":{"zip_code":"4140016","prefecture":"静岡県","prefecture_kana":"シズオカケン","city":"伊東市","city_kana":"イトウシ","town":"岡広町","town_kana":"オカヒロチョウ","prefecture_code":22},"0053":{"zip_code":"4140053","prefecture":"静岡県","prefecture_kana":"シズオカケン","city":"伊東市","city_kana":"イトウシ","town":"荻","town_kana":"オギ","prefecture_code":22},"0032":{"zip_code":"4140032","prefecture":"静岡県","prefecture_kana":"シズオカケン","city":"伊東市","city_kana":"イトウシ","town":"音無町","town_kana":"オトナシチョウ","prefecture_code":22},"0054":{"zip_code":"4140054","prefecture":"静岡県","prefecture_kana":"シズオカケン","city":"伊東市","city_kana":"イトウシ","town":"鎌田","town_kana":"カマタ","prefecture_code":22},"0034":{"zip_code":"4140034","prefecture":"静岡県","prefecture_kana":"シズオカケン","city":"伊東市","city_kana":"イトウシ","town":"瓶山","town_kana":"カメヤマ","prefecture_code":22},"0044":{"zip_code":"4140044","prefecture":"静岡県","prefecture_kana":"シズオカケン","city":"伊東市","city_kana":"イトウシ","town":"川奈","town_kana":"カワナ","prefecture_code":22},"0028":{"zip_code":"4140028","prefecture":"静岡県","prefecture_kana":"シズオカケン","city":"伊東市","city_kana":"イトウシ","town":"銀座元町","town_kana":"ギンザモトマチ","prefecture_code":22},"0045":{"zip_code":"4140045","prefecture":"静岡県","prefecture_kana":"シズオカケン","city":"伊東市","city_kana":"イトウシ","town":"玖須美元和田","town_kana":"クスミモトワダ","prefecture_code":22},"0018":{"zip_code":"4140018","prefecture":"静岡県","prefecture_kana":"シズオカケン","city":"伊東市","city_kana":"イトウシ","town":"寿町","town_kana":"コトブキチョウ","prefecture_code":22},"0017":{"zip_code":"4140017","prefecture":"静岡県","prefecture_kana":"シズオカケン","city":"伊東市","city_kana":"イトウシ","town":"幸町","town_kana":"サイワイチョウ","prefecture_code":22},"0037":{"zip_code":"4140037","prefecture":"静岡県","prefecture_kana":"シズオカケン","city":"伊東市","city_kana":"イトウシ","town":"桜が丘","town_kana":"サクラガオカ","prefecture_code":22},"0013":{"zip_code":"4140013","prefecture":"静岡県","prefecture_kana":"シズオカケン","city":"伊東市","city_kana":"イトウシ","town":"桜木町","town_kana":"サクラギチョウ","prefecture_code":22},"0004":{"zip_code":"4140004","prefecture":"静岡県","prefecture_kana":"シズオカケン","city":"伊東市","city_kana":"イトウシ","town":"猪戸","town_kana":"シシド","prefecture_code":22},"0042":{"zip_code":"4140042","prefecture":"静岡県","prefecture_kana":"シズオカケン","city":"伊東市","city_kana":"イトウシ","town":"静海町","town_kana":"シズミチョウ","prefecture_code":22},"0041":{"zip_code":"4140041","prefecture":"静岡県","prefecture_kana":"シズオカケン","city":"伊東市","city_kana":"イトウシ","town":"芝町","town_kana":"シバチョウ","prefecture_code":22},"0015":{"zip_code":"4140015","prefecture":"静岡県","prefecture_kana":"シズオカケン","city":"伊東市","city_kana":"イトウシ","town":"末広町","town_kana":"スエヒロチョウ","prefecture_code":22},"0012":{"zip_code":"4140012","prefecture":"静岡県","prefecture_kana":"シズオカケン","city":"伊東市","city_kana":"イトウシ","town":"宝町","town_kana":"タカラチョウ","prefecture_code":22},"0027":{"zip_code":"4140027","prefecture":"静岡県","prefecture_kana":"シズオカケン","city":"伊東市","city_kana":"イトウシ","town":"竹の内","town_kana":"タケノウチ","prefecture_code":22},"0026":{"zip_code":"4140026","prefecture":"静岡県","prefecture_kana":"シズオカケン","city":"伊東市","city_kana":"イトウシ","town":"竹の台","town_kana":"タケノダイ","prefecture_code":22},"0003":{"zip_code":"4140003","prefecture":"静岡県","prefecture_kana":"シズオカケン","city":"伊東市","city_kana":"イトウシ","town":"中央町","town_kana":"チュウオウチョウ","prefecture_code":22},"0052":{"zip_code":"4140052","prefecture":"静岡県","prefecture_kana":"シズオカケン","city":"伊東市","city_kana":"イトウシ","town":"十足","town_kana":"トオタリ","prefecture_code":22},"0023":{"zip_code":"4140023","prefecture":"静岡県","prefecture_kana":"シズオカケン","city":"伊東市","city_kana":"イトウシ","town":"渚町","town_kana":"ナギサチョウ","prefecture_code":22},"0033":{"zip_code":"4140033","prefecture":"静岡県","prefecture_kana":"シズオカケン","city":"伊東市","city_kana":"イトウシ","town":"馬場町","town_kana":"ババチョウ","prefecture_code":22},"0022":{"zip_code":"4140022","prefecture":"静岡県","prefecture_kana":"シズオカケン","city":"伊東市","city_kana":"イトウシ","town":"東松原町","town_kana":"ヒガシマツバラチョウ","prefecture_code":22},"0038":{"zip_code":"4140038","prefecture":"静岡県","prefecture_kana":"シズオカケン","city":"伊東市","city_kana":"イトウシ","town":"広野","town_kana":"ヒロノ","prefecture_code":22},"0011":{"zip_code":"4140011","prefecture":"静岡県","prefecture_kana":"シズオカケン","city":"伊東市","city_kana":"イトウシ","town":"松川町","town_kana":"マツカワチョウ","prefecture_code":22},"0006":{"zip_code":"4140006","prefecture":"静岡県","prefecture_kana":"シズオカケン","city":"伊東市","city_kana":"イトウシ","town":"松原","town_kana":"マツバラ","prefecture_code":22},"0021":{"zip_code":"4140021","prefecture":"静岡県","prefecture_kana":"シズオカケン","city":"伊東市","city_kana":"イトウシ","town":"松原本町","town_kana":"マツバラホンチョウ","prefecture_code":22},"0005":{"zip_code":"4140005","prefecture":"静岡県","prefecture_kana":"シズオカケン","city":"伊東市","city_kana":"イトウシ","town":"松原湯端町","town_kana":"マツバラユバタチョウ","prefecture_code":22},"0035":{"zip_code":"4140035","prefecture":"静岡県","prefecture_kana":"シズオカケン","city":"伊東市","city_kana":"イトウシ","town":"南町","town_kana":"ミナミチョウ","prefecture_code":22},"0036":{"zip_code":"4140036","prefecture":"静岡県","prefecture_kana":"シズオカケン","city":"伊東市","city_kana":"イトウシ","town":"宮川町","town_kana":"ミヤガワチョウ","prefecture_code":22},"0025":{"zip_code":"4140025","prefecture":"静岡県","prefecture_kana":"シズオカケン","city":"伊東市","city_kana":"イトウシ","town":"物見が丘","town_kana":"モノミガオカ","prefecture_code":22},"0014":{"zip_code":"4140014","prefecture":"静岡県","prefecture_kana":"シズオカケン","city":"伊東市","city_kana":"イトウシ","town":"弥生町","town_kana":"ヤヨイチョウ","prefecture_code":22},"0002":{"zip_code":"4140002","prefecture":"静岡県","prefecture_kana":"シズオカケン","city":"伊東市","city_kana":"イトウシ","town":"湯川","town_kana":"ユカワ","prefecture_code":22},"0031":{"zip_code":"4140031","prefecture":"静岡県","prefecture_kana":"シズオカケン","city":"伊東市","city_kana":"イトウシ","town":"湯田町","town_kana":"ユダチョウ","prefecture_code":22},"0051":{"zip_code":"4140051","prefecture":"静岡県","prefecture_kana":"シズオカケン","city":"伊東市","city_kana":"イトウシ","town":"吉田","town_kana":"ヨシダ","prefecture_code":22},"0024":{"zip_code":"4140024","prefecture":"静岡県","prefecture_kana":"シズオカケン","city":"伊東市","city_kana":"イトウシ","town":"和田","town_kana":"ワダ","prefecture_code":22}}