{"0000":{"zip_code":"4150000","prefecture":"静岡県","prefecture_kana":"シズオカケン","city":"下田市","city_kana":"シモダシ","town":"","town_kana":"","prefecture_code":22},"0001":{"zip_code":"4150001","prefecture":"静岡県","prefecture_kana":"シズオカケン","city":"下田市","city_kana":"シモダシ","town":"下田市の次に番地がくる場合","town_kana":"シモダシノツギニバンチガクルバアイ","prefecture_code":22},"0021":{"zip_code":"4150021","prefecture":"静岡県","prefecture_kana":"シズオカケン","city":"下田市","city_kana":"シモダシ","town":"一丁目","town_kana":"イッチョウメ","prefecture_code":22},"0038":{"zip_code":"4150038","prefecture":"静岡県","prefecture_kana":"シズオカケン","city":"下田市","city_kana":"シモダシ","town":"大賀茂","town_kana":"オオガモ","prefecture_code":22},"0039":{"zip_code":"4150039","prefecture":"静岡県","prefecture_kana":"シズオカケン","city":"下田市","city_kana":"シモダシ","town":"大沢","town_kana":"オオサワ","prefecture_code":22},"0013":{"zip_code":"4150013","prefecture":"静岡県","prefecture_kana":"シズオカケン","city":"下田市","city_kana":"シモダシ","town":"柿崎","town_kana":"カキサキ","prefecture_code":22},"0028":{"zip_code":"4150028","prefecture":"静岡県","prefecture_kana":"シズオカケン","city":"下田市","city_kana":"シモダシ","town":"吉佐美","town_kana":"キサミ","prefecture_code":22},"0027":{"zip_code":"4150027","prefecture":"静岡県","prefecture_kana":"シズオカケン","city":"下田市","city_kana":"シモダシ","town":"旧岡方村","town_kana":"キュウオカガタムラ","prefecture_code":22},"0011":{"zip_code":"4150011","prefecture":"静岡県","prefecture_kana":"シズオカケン","city":"下田市","city_kana":"シモダシ","town":"河内","town_kana":"コウチ","prefecture_code":22},"0025":{"zip_code":"4150025","prefecture":"静岡県","prefecture_kana":"シズオカケン","city":"下田市","city_kana":"シモダシ","town":"五丁目","town_kana":"ゴチョウメ","prefecture_code":22},"0023":{"zip_code":"4150023","prefecture":"静岡県","prefecture_kana":"シズオカケン","city":"下田市","city_kana":"シモダシ","town":"三丁目","town_kana":"サンチョウメ","prefecture_code":22},"0037":{"zip_code":"4150037","prefecture":"静岡県","prefecture_kana":"シズオカケン","city":"下田市","city_kana":"シモダシ","town":"敷根","town_kana":"シキネ","prefecture_code":22},"0012":{"zip_code":"4150012","prefecture":"静岡県","prefecture_kana":"シズオカケン","city":"下田市","city_kana":"シモダシ","town":"白浜","town_kana":"シラハマ","prefecture_code":22},"0014":{"zip_code":"4150014","prefecture":"静岡県","prefecture_kana":"シズオカケン","city":"下田市","city_kana":"シモダシ","town":"須崎","town_kana":"スザキ","prefecture_code":22},"0015":{"zip_code":"4150015","prefecture":"静岡県","prefecture_kana":"シズオカケン","city":"下田市","city_kana":"シモダシ","town":"武ガ浜","town_kana":"タケガハマ","prefecture_code":22},"0034":{"zip_code":"4150034","prefecture":"静岡県","prefecture_kana":"シズオカケン","city":"下田市","city_kana":"シモダシ","town":"高馬","town_kana":"タコウマ","prefecture_code":22},"0032":{"zip_code":"4150032","prefecture":"静岡県","prefecture_kana":"シズオカケン","city":"下田市","city_kana":"シモダシ","town":"立野","town_kana":"タチノ","prefecture_code":22},"0029":{"zip_code":"4150029","prefecture":"静岡県","prefecture_kana":"シズオカケン","city":"下田市","city_kana":"シモダシ","town":"田牛","town_kana":"トウジ","prefecture_code":22},"0016":{"zip_code":"4150016","prefecture":"静岡県","prefecture_kana":"シズオカケン","city":"下田市","city_kana":"シモダシ","town":"中","town_kana":"ナカ","prefecture_code":22},"0018":{"zip_code":"4150018","prefecture":"静岡県","prefecture_kana":"シズオカケン","city":"下田市","city_kana":"シモダシ","town":"西中","town_kana":"ニシナカ","prefecture_code":22},"0036":{"zip_code":"4150036","prefecture":"静岡県","prefecture_kana":"シズオカケン","city":"下田市","city_kana":"シモダシ","town":"西本郷","town_kana":"ニシホンゴウ","prefecture_code":22},"0022":{"zip_code":"4150022","prefecture":"静岡県","prefecture_kana":"シズオカケン","city":"下田市","city_kana":"シモダシ","town":"二丁目","town_kana":"ニチョウメ","prefecture_code":22},"0017":{"zip_code":"4150017","prefecture":"静岡県","prefecture_kana":"シズオカケン","city":"下田市","city_kana":"シモダシ","town":"東中","town_kana":"ヒガシナカ","prefecture_code":22},"0035":{"zip_code":"4150035","prefecture":"静岡県","prefecture_kana":"シズオカケン","city":"下田市","city_kana":"シモダシ","town":"東本郷","town_kana":"ヒガシホンゴウ","prefecture_code":22},"0033":{"zip_code":"4150033","prefecture":"静岡県","prefecture_kana":"シズオカケン","city":"下田市","city_kana":"シモダシ","town":"本郷","town_kana":"ホンゴウ","prefecture_code":22},"0024":{"zip_code":"4150024","prefecture":"静岡県","prefecture_kana":"シズオカケン","city":"下田市","city_kana":"シモダシ","town":"四丁目","town_kana":"ヨンチョウメ","prefecture_code":22},"0031":{"zip_code":"4150031","prefecture":"静岡県","prefecture_kana":"シズオカケン","city":"下田市","city_kana":"シモダシ","town":"蓮台寺","town_kana":"レンダイジ","prefecture_code":22},"0026":{"zip_code":"4150026","prefecture":"静岡県","prefecture_kana":"シズオカケン","city":"下田市","city_kana":"シモダシ","town":"六丁目","town_kana":"ロクチョウメ","prefecture_code":22},"0300":{"zip_code":"4150300","prefecture":"静岡県","prefecture_kana":"シズオカケン","city":"賀茂郡南伊豆町","city_kana":"カモグンミナミイズチョウ","town":"","town_kana":"","prefecture_code":22},"0151":{"zip_code":"4150151","prefecture":"静岡県","prefecture_kana":"シズオカケン","city":"賀茂郡南伊豆町","city_kana":"カモグンミナミイズチョウ","town":"青市","town_kana":"アオイチ","prefecture_code":22},"0327":{"zip_code":"4150327","prefecture":"静岡県","prefecture_kana":"シズオカケン","city":"賀茂郡南伊豆町","city_kana":"カモグンミナミイズチョウ","town":"青野","town_kana":"アオノ","prefecture_code":22},"0306":{"zip_code":"4150306","prefecture":"静岡県","prefecture_kana":"シズオカケン","city":"賀茂郡南伊豆町","city_kana":"カモグンミナミイズチョウ","town":"石井","town_kana":"イシイ","prefecture_code":22},"0313":{"zip_code":"4150313","prefecture":"静岡県","prefecture_kana":"シズオカケン","city":"賀茂郡南伊豆町","city_kana":"カモグンミナミイズチョウ","town":"一色","town_kana":"イシキ","prefecture_code":22},"0301":{"zip_code":"4150301","prefecture":"静岡県","prefecture_kana":"シズオカケン","city":"賀茂郡南伊豆町","city_kana":"カモグンミナミイズチョウ","town":"一條","town_kana":"イチジョウ","prefecture_code":22},"0325":{"zip_code":"4150325","prefecture":"静岡県","prefecture_kana":"シズオカケン","city":"賀茂郡南伊豆町","city_kana":"カモグンミナミイズチョウ","town":"平戸","town_kana":"ヒラド","prefecture_code":22},"0531":{"zip_code":"4150531","prefecture":"静岡県","prefecture_kana":"シズオカケン","city":"賀茂郡南伊豆町","city_kana":"カモグンミナミイズチョウ","town":"天神原","town_kana":"テンジンバラ","prefecture_code":22},"0312":{"zip_code":"4150312","prefecture":"静岡県","prefecture_kana":"シズオカケン","city":"賀茂郡南伊豆町","city_kana":"カモグンミナミイズチョウ","town":"差田","town_kana":"サシダ","prefecture_code":22},"0156":{"zip_code":"4150156","prefecture":"静岡県","prefecture_kana":"シズオカケン","city":"賀茂郡南伊豆町","city_kana":"カモグンミナミイズチョウ","town":"石廊崎","town_kana":"イロウザキ","prefecture_code":22},"0322":{"zip_code":"4150322","prefecture":"静岡県","prefecture_kana":"シズオカケン","city":"賀茂郡南伊豆町","city_kana":"カモグンミナミイズチョウ","town":"岩殿","town_kana":"イワドノ","prefecture_code":22},"0155":{"zip_code":"4150155","prefecture":"静岡県","prefecture_kana":"シズオカケン","city":"賀茂郡南伊豆町","city_kana":"カモグンミナミイズチョウ","town":"大瀬","town_kana":"オオセ","prefecture_code":22},"0304":{"zip_code":"4150304","prefecture":"静岡県","prefecture_kana":"シズオカケン","city":"賀茂郡南伊豆町","city_kana":"カモグンミナミイズチョウ","town":"加納","town_kana":"カノウ","prefecture_code":22},"0324":{"zip_code":"4150324","prefecture":"静岡県","prefecture_kana":"シズオカケン","city":"賀茂郡南伊豆町","city_kana":"カモグンミナミイズチョウ","town":"上小野","town_kana":"カミオノ","prefecture_code":22},"0302":{"zip_code":"4150302","prefecture":"静岡県","prefecture_kana":"シズオカケン","city":"賀茂郡南伊豆町","city_kana":"カモグンミナミイズチョウ","town":"上賀茂","town_kana":"カミガモ","prefecture_code":22},"0323":{"zip_code":"4150323","prefecture":"静岡県","prefecture_kana":"シズオカケン","city":"賀茂郡南伊豆町","city_kana":"カモグンミナミイズチョウ","town":"下小野","town_kana":"シモオノ","prefecture_code":22},"0321":{"zip_code":"4150321","prefecture":"静岡県","prefecture_kana":"シズオカケン","city":"賀茂郡南伊豆町","city_kana":"カモグンミナミイズチョウ","town":"毛倉野","town_kana":"ケグラノ","prefecture_code":22},"0532":{"zip_code":"4150532","prefecture":"静岡県","prefecture_kana":"シズオカケン","city":"賀茂郡南伊豆町","city_kana":"カモグンミナミイズチョウ","town":"子浦","town_kana":"コウラ","prefecture_code":22},"0154":{"zip_code":"4150154","prefecture":"静岡県","prefecture_kana":"シズオカケン","city":"賀茂郡南伊豆町","city_kana":"カモグンミナミイズチョウ","town":"下流","town_kana":"シタル","prefecture_code":22},"0303":{"zip_code":"4150303","prefecture":"静岡県","prefecture_kana":"シズオカケン","city":"賀茂郡南伊豆町","city_kana":"カモグンミナミイズチョウ","town":"下賀茂","town_kana":"シモガモ","prefecture_code":22},"0326":{"zip_code":"4150326","prefecture":"静岡県","prefecture_kana":"シズオカケン","city":"賀茂郡南伊豆町","city_kana":"カモグンミナミイズチョウ","town":"蛇石","town_kana":"ジャイシ","prefecture_code":22},"0533":{"zip_code":"4150533","prefecture":"静岡県","prefecture_kana":"シズオカケン","city":"賀茂郡南伊豆町","city_kana":"カモグンミナミイズチョウ","town":"吉田","town_kana":"ヨシダ","prefecture_code":22},"0314":{"zip_code":"4150314","prefecture":"静岡県","prefecture_kana":"シズオカケン","city":"賀茂郡南伊豆町","city_kana":"カモグンミナミイズチョウ","town":"蝶ケ野","town_kana":"チョウガノ","prefecture_code":22},"0153":{"zip_code":"4150153","prefecture":"静岡県","prefecture_kana":"シズオカケン","city":"賀茂郡南伊豆町","city_kana":"カモグンミナミイズチョウ","town":"手石","town_kana":"テイシ","prefecture_code":22},"0311":{"zip_code":"4150311","prefecture":"静岡県","prefecture_kana":"シズオカケン","city":"賀茂郡南伊豆町","city_kana":"カモグンミナミイズチョウ","town":"中木","town_kana":"ナカギ","prefecture_code":22},"0305":{"zip_code":"4150305","prefecture":"静岡県","prefecture_kana":"シズオカケン","city":"賀茂郡南伊豆町","city_kana":"カモグンミナミイズチョウ","town":"二條","town_kana":"ニジョウ","prefecture_code":22},"0152":{"zip_code":"4150152","prefecture":"静岡県","prefecture_kana":"シズオカケン","city":"賀茂郡南伊豆町","city_kana":"カモグンミナミイズチョウ","town":"湊","town_kana":"ミナト","prefecture_code":22}}