{"0952":{"zip_code":"4160952","prefecture":"静岡県","prefecture_kana":"シズオカケン","city":"富士市","city_kana":"フジシ","town":"青葉町","town_kana":"アオバチョウ","prefecture_code":22},"0901":{"zip_code":"4160901","prefecture":"静岡県","prefecture_kana":"シズオカケン","city":"富士市","city_kana":"フジシ","town":"岩本","town_kana":"イワモト","prefecture_code":22},"0912":{"zip_code":"4160912","prefecture":"静岡県","prefecture_kana":"シズオカケン","city":"富士市","city_kana":"フジシ","town":"加島町","town_kana":"カジマチョウ","prefecture_code":22},"0942":{"zip_code":"4160942","prefecture":"静岡県","prefecture_kana":"シズオカケン","city":"富士市","city_kana":"フジシ","town":"上横割","town_kana":"カミヨコワリ","prefecture_code":22},"0939":{"zip_code":"4160939","prefecture":"静岡県","prefecture_kana":"シズオカケン","city":"富士市","city_kana":"フジシ","town":"川成島","town_kana":"カワナリジマ","prefecture_code":22},"0955":{"zip_code":"4160955","prefecture":"静岡県","prefecture_kana":"シズオカケン","city":"富士市","city_kana":"フジシ","town":"川成新町","town_kana":"カワナリシンマチ","prefecture_code":22},"0946":{"zip_code":"4160946","prefecture":"静岡県","prefecture_kana":"シズオカケン","city":"富士市","city_kana":"フジシ","town":"五貫島","town_kana":"ゴカンジマ","prefecture_code":22},"0905":{"zip_code":"4160905","prefecture":"静岡県","prefecture_kana":"シズオカケン","city":"富士市","city_kana":"フジシ","town":"五味島","town_kana":"ゴミジマ","prefecture_code":22},"0934":{"zip_code":"4160934","prefecture":"静岡県","prefecture_kana":"シズオカケン","city":"富士市","city_kana":"フジシ","town":"鮫島","town_kana":"サメジマ","prefecture_code":22},"0943":{"zip_code":"4160943","prefecture":"静岡県","prefecture_kana":"シズオカケン","city":"富士市","city_kana":"フジシ","town":"下横割","town_kana":"シモヨコワリ","prefecture_code":22},"0941":{"zip_code":"4160941","prefecture":"静岡県","prefecture_kana":"シズオカケン","city":"富士市","city_kana":"フジシ","town":"十兵衛","town_kana":"ジュウベエ","prefecture_code":22},"0935":{"zip_code":"4160935","prefecture":"静岡県","prefecture_kana":"シズオカケン","city":"富士市","city_kana":"フジシ","town":"田子","town_kana":"タゴ","prefecture_code":22},"0931":{"zip_code":"4160931","prefecture":"静岡県","prefecture_kana":"シズオカケン","city":"富士市","city_kana":"フジシ","town":"蓼原","town_kana":"タデハラ","prefecture_code":22},"0953":{"zip_code":"4160953","prefecture":"静岡県","prefecture_kana":"シズオカケン","city":"富士市","city_kana":"フジシ","town":"蓼原町","town_kana":"タデハラチョウ","prefecture_code":22},"0936":{"zip_code":"4160936","prefecture":"静岡県","prefecture_kana":"シズオカケン","city":"富士市","city_kana":"フジシ","town":"中河原（その他）","town_kana":"ナカカワハラ(ソノタ)","prefecture_code":22},"0907":{"zip_code":"4160907","prefecture":"静岡県","prefecture_kana":"シズオカケン","city":"富士市","city_kana":"フジシ","town":"中島","town_kana":"ナカジマ","prefecture_code":22},"0933":{"zip_code":"4160933","prefecture":"静岡県","prefecture_kana":"シズオカケン","city":"富士市","city_kana":"フジシ","town":"中丸","town_kana":"ナカマル","prefecture_code":22},"0902":{"zip_code":"4160902","prefecture":"静岡県","prefecture_kana":"シズオカケン","city":"富士市","city_kana":"フジシ","town":"長通","town_kana":"ナガドオリ","prefecture_code":22},"0911":{"zip_code":"4160911","prefecture":"静岡県","prefecture_kana":"シズオカケン","city":"富士市","city_kana":"フジシ","town":"八幡町","town_kana":"ハチマンチョウ","prefecture_code":22},"0938":{"zip_code":"4160938","prefecture":"静岡県","prefecture_kana":"シズオカケン","city":"富士市","city_kana":"フジシ","town":"浜田町","town_kana":"ハマダチョウ","prefecture_code":22},"0915":{"zip_code":"4160915","prefecture":"静岡県","prefecture_kana":"シズオカケン","city":"富士市","city_kana":"フジシ","town":"富士町","town_kana":"フジチョウ","prefecture_code":22},"0916":{"zip_code":"4160916","prefecture":"静岡県","prefecture_kana":"シズオカケン","city":"富士市","city_kana":"フジシ","town":"平垣","town_kana":"ヘイガキ","prefecture_code":22},"0918":{"zip_code":"4160918","prefecture":"静岡県","prefecture_kana":"シズオカケン","city":"富士市","city_kana":"フジシ","town":"平垣町","town_kana":"ヘイガキチョウ","prefecture_code":22},"0913":{"zip_code":"4160913","prefecture":"静岡県","prefecture_kana":"シズオカケン","city":"富士市","city_kana":"フジシ","town":"平垣本町","town_kana":"ヘイガキホンチョウ","prefecture_code":22},"0914":{"zip_code":"4160914","prefecture":"静岡県","prefecture_kana":"シズオカケン","city":"富士市","city_kana":"フジシ","town":"本町","town_kana":"ホンチョウ","prefecture_code":22},"0937":{"zip_code":"4160937","prefecture":"静岡県","prefecture_kana":"シズオカケン","city":"富士市","city_kana":"フジシ","town":"前田","town_kana":"マエダ","prefecture_code":22},"0909":{"zip_code":"4160909","prefecture":"静岡県","prefecture_kana":"シズオカケン","city":"富士市","city_kana":"フジシ","town":"松岡","town_kana":"マツオカ","prefecture_code":22},"0919":{"zip_code":"4160919","prefecture":"静岡県","prefecture_kana":"シズオカケン","city":"富士市","city_kana":"フジシ","town":"松富町","town_kana":"マツトミマチ","prefecture_code":22},"0903":{"zip_code":"4160903","prefecture":"静岡県","prefecture_kana":"シズオカケン","city":"富士市","city_kana":"フジシ","town":"松本","town_kana":"マツモト","prefecture_code":22},"0921":{"zip_code":"4160921","prefecture":"静岡県","prefecture_kana":"シズオカケン","city":"富士市","city_kana":"フジシ","town":"水戸島","town_kana":"ミトジマ","prefecture_code":22},"0924":{"zip_code":"4160924","prefecture":"静岡県","prefecture_kana":"シズオカケン","city":"富士市","city_kana":"フジシ","town":"水戸島本町","town_kana":"ミトジマホンチョウ","prefecture_code":22},"0922":{"zip_code":"4160922","prefecture":"静岡県","prefecture_kana":"シズオカケン","city":"富士市","city_kana":"フジシ","town":"水戸島元町","town_kana":"ミトジマモトチョウ","prefecture_code":22},"0947":{"zip_code":"4160947","prefecture":"静岡県","prefecture_kana":"シズオカケン","city":"富士市","city_kana":"フジシ","town":"宮下","town_kana":"ミヤシタ","prefecture_code":22},"0945":{"zip_code":"4160945","prefecture":"静岡県","prefecture_kana":"シズオカケン","city":"富士市","city_kana":"フジシ","town":"宮島","town_kana":"ミヤジマ","prefecture_code":22},"0906":{"zip_code":"4160906","prefecture":"静岡県","prefecture_kana":"シズオカケン","city":"富士市","city_kana":"フジシ","town":"本市場","town_kana":"モトイチバ","prefecture_code":22},"0904":{"zip_code":"4160904","prefecture":"静岡県","prefecture_kana":"シズオカケン","city":"富士市","city_kana":"フジシ","town":"本市場新田","town_kana":"モトイチバシンデン","prefecture_code":22},"0954":{"zip_code":"4160954","prefecture":"静岡県","prefecture_kana":"シズオカケン","city":"富士市","city_kana":"フジシ","town":"本市場町","town_kana":"モトイチバチョウ","prefecture_code":22},"0917":{"zip_code":"4160917","prefecture":"静岡県","prefecture_kana":"シズオカケン","city":"富士市","city_kana":"フジシ","town":"元町","town_kana":"モトチョウ","prefecture_code":22},"0949":{"zip_code":"4160949","prefecture":"静岡県","prefecture_kana":"シズオカケン","city":"富士市","city_kana":"フジシ","town":"森下","town_kana":"モリシタ","prefecture_code":22},"0948":{"zip_code":"4160948","prefecture":"静岡県","prefecture_kana":"シズオカケン","city":"富士市","city_kana":"フジシ","town":"森島","town_kana":"モリジマ","prefecture_code":22},"0932":{"zip_code":"4160932","prefecture":"静岡県","prefecture_kana":"シズオカケン","city":"富士市","city_kana":"フジシ","town":"柳島","town_kana":"ヤナギシマ","prefecture_code":22},"0908":{"zip_code":"4160908","prefecture":"静岡県","prefecture_kana":"シズオカケン","city":"富士市","city_kana":"フジシ","town":"柚木","town_kana":"ユノキ","prefecture_code":22},"0944":{"zip_code":"4160944","prefecture":"静岡県","prefecture_kana":"シズオカケン","city":"富士市","city_kana":"フジシ","town":"横割","town_kana":"ヨコワリ","prefecture_code":22},"0923":{"zip_code":"4160923","prefecture":"静岡県","prefecture_kana":"シズオカケン","city":"富士市","city_kana":"フジシ","town":"横割本町","town_kana":"ヨコワリホンチョウ","prefecture_code":22},"0951":{"zip_code":"4160951","prefecture":"静岡県","prefecture_kana":"シズオカケン","city":"富士市","city_kana":"フジシ","town":"米之宮町","town_kana":"ヨネノミヤチョウ","prefecture_code":22}}