{"0838":{"zip_code":"4200838","prefecture":"静岡県","prefecture_kana":"シズオカケン","city":"静岡市葵区","city_kana":"シズオカシアオイク","town":"相生町","town_kana":"アイオイチョウ","prefecture_code":22},"0017":{"zip_code":"4200017","prefecture":"静岡県","prefecture_kana":"シズオカケン","city":"静岡市葵区","city_kana":"シズオカシアオイク","town":"葵町","town_kana":"アオイチョウ","prefecture_code":22},"0963":{"zip_code":"4200963","prefecture":"静岡県","prefecture_kana":"シズオカケン","city":"静岡市葵区","city_kana":"シズオカシアオイク","town":"赤松","town_kana":"アカマツ","prefecture_code":22},"0948":{"zip_code":"4200948","prefecture":"静岡県","prefecture_kana":"シズオカケン","city":"静岡市葵区","city_kana":"シズオカシアオイク","town":"秋山町","town_kana":"アキヤマチョウ","prefecture_code":22},"0810":{"zip_code":"4200810","prefecture":"静岡県","prefecture_kana":"シズオカケン","city":"静岡市葵区","city_kana":"シズオカシアオイク","town":"上土","town_kana":"アゲツチ","prefecture_code":22},"0811":{"zip_code":"4200811","prefecture":"静岡県","prefecture_kana":"シズオカケン","city":"静岡市葵区","city_kana":"シズオカシアオイク","town":"上土新田","town_kana":"アゲツチシンデン","prefecture_code":22},"0968":{"zip_code":"4200968","prefecture":"静岡県","prefecture_kana":"シズオカケン","city":"静岡市葵区","city_kana":"シズオカシアオイク","town":"あさはた","town_kana":"アサハタ","prefecture_code":22},"0836":{"zip_code":"4200836","prefecture":"静岡県","prefecture_kana":"シズオカケン","city":"静岡市葵区","city_kana":"シズオカシアオイク","town":"東町","town_kana":"アズマチョウ","prefecture_code":22},"0869":{"zip_code":"4200869","prefecture":"静岡県","prefecture_kana":"シズオカケン","city":"静岡市葵区","city_kana":"シズオカシアオイク","town":"安倍町","town_kana":"アベチョウ","prefecture_code":22},"0965":{"zip_code":"4200965","prefecture":"静岡県","prefecture_kana":"シズオカケン","city":"静岡市葵区","city_kana":"シズオカシアオイク","town":"有永","town_kana":"アリナガ","prefecture_code":22},"0011":{"zip_code":"4200011","prefecture":"静岡県","prefecture_kana":"シズオカケン","city":"静岡市葵区","city_kana":"シズオカシアオイク","town":"安西","town_kana":"アンザイ","prefecture_code":22},"0882":{"zip_code":"4200882","prefecture":"静岡県","prefecture_kana":"シズオカケン","city":"静岡市葵区","city_kana":"シズオカシアオイク","town":"安東","town_kana":"アンドウ","prefecture_code":22},"0863":{"zip_code":"4200863","prefecture":"静岡県","prefecture_kana":"シズオカケン","city":"静岡市葵区","city_kana":"シズオカシアオイク","town":"安東柳町","town_kana":"アンドウヤナギチョウ","prefecture_code":22},"0936":{"zip_code":"4200936","prefecture":"静岡県","prefecture_kana":"シズオカケン","city":"静岡市葵区","city_kana":"シズオカシアオイク","town":"池ケ谷","town_kana":"イケガヤ","prefecture_code":22},"0935":{"zip_code":"4200935","prefecture":"静岡県","prefecture_kana":"シズオカケン","city":"静岡市葵区","city_kana":"シズオカシアオイク","town":"池ケ谷東","town_kana":"イケガヤヒガシ","prefecture_code":22},"0071":{"zip_code":"4200071","prefecture":"静岡県","prefecture_kana":"シズオカケン","city":"静岡市葵区","city_kana":"シズオカシアオイク","town":"一番町","town_kana":"イチバンチョウ","prefecture_code":22},"0001":{"zip_code":"4200001","prefecture":"静岡県","prefecture_kana":"シズオカケン","city":"静岡市葵区","city_kana":"シズオカシアオイク","town":"井宮町","town_kana":"イノミヤチョウ","prefecture_code":22},"0946":{"zip_code":"4200946","prefecture":"静岡県","prefecture_kana":"シズオカケン","city":"静岡市葵区","city_kana":"シズオカシアオイク","town":"伊呂波町","town_kana":"イロハチョウ","prefecture_code":22},"0952":{"zip_code":"4200952","prefecture":"静岡県","prefecture_kana":"シズオカケン","city":"静岡市葵区","city_kana":"シズオカシアオイク","town":"牛田","town_kana":"ウシダ","prefecture_code":22},"0038":{"zip_code":"4200038","prefecture":"静岡県","prefecture_kana":"シズオカケン","city":"静岡市葵区","city_kana":"シズオカシアオイク","town":"梅屋町","town_kana":"ウメヤチョウ","prefecture_code":22},"0953":{"zip_code":"4200953","prefecture":"静岡県","prefecture_kana":"シズオカケン","city":"静岡市葵区","city_kana":"シズオカシアオイク","town":"漆山","town_kana":"ウルシヤマ","prefecture_code":22},"0853":{"zip_code":"4200853","prefecture":"静岡県","prefecture_kana":"シズオカケン","city":"静岡市葵区","city_kana":"シズオカシアオイク","town":"追手町","town_kana":"オウテマチ","prefecture_code":22},"0886":{"zip_code":"4200886","prefecture":"静岡県","prefecture_kana":"シズオカケン","city":"静岡市葵区","city_kana":"シズオカシアオイク","town":"大岩","town_kana":"オオイワ","prefecture_code":22},"0884":{"zip_code":"4200884","prefecture":"静岡県","prefecture_kana":"シズオカケン","city":"静岡市葵区","city_kana":"シズオカシアオイク","town":"大岩本町","town_kana":"オオイワホンチョウ","prefecture_code":22},"0883":{"zip_code":"4200883","prefecture":"静岡県","prefecture_kana":"シズオカケン","city":"静岡市葵区","city_kana":"シズオカシアオイク","town":"大岩宮下町","town_kana":"オオイワミヤシタチョウ","prefecture_code":22},"0885":{"zip_code":"4200885","prefecture":"静岡県","prefecture_kana":"シズオカケン","city":"静岡市葵区","city_kana":"シズオカシアオイク","town":"大岩町","town_kana":"オオイワチョウ","prefecture_code":22},"0026":{"zip_code":"4200026","prefecture":"静岡県","prefecture_kana":"シズオカケン","city":"静岡市葵区","city_kana":"シズオカシアオイク","town":"大鋸町","town_kana":"オオガマチ","prefecture_code":22},"0845":{"zip_code":"4200845","prefecture":"静岡県","prefecture_kana":"シズオカケン","city":"静岡市葵区","city_kana":"シズオカシアオイク","town":"太田町","town_kana":"オオタマチ","prefecture_code":22},"0834":{"zip_code":"4200834","prefecture":"静岡県","prefecture_kana":"シズオカケン","city":"静岡市葵区","city_kana":"シズオカシアオイク","town":"音羽町","town_kana":"オトワチョウ","prefecture_code":22},"0873":{"zip_code":"4200873","prefecture":"静岡県","prefecture_kana":"シズオカケン","city":"静岡市葵区","city_kana":"シズオカシアオイク","town":"籠上","town_kana":"カゴウエ","prefecture_code":22},"0823":{"zip_code":"4200823","prefecture":"静岡県","prefecture_kana":"シズオカケン","city":"静岡市葵区","city_kana":"シズオカシアオイク","town":"春日","town_kana":"カスガ","prefecture_code":22},"0824":{"zip_code":"4200824","prefecture":"静岡県","prefecture_kana":"シズオカケン","city":"静岡市葵区","city_kana":"シズオカシアオイク","town":"春日町","town_kana":"カスガチョウ","prefecture_code":22},"0003":{"zip_code":"4200003","prefecture":"静岡県","prefecture_kana":"シズオカケン","city":"静岡市葵区","city_kana":"シズオカシアオイク","town":"片羽町","town_kana":"カタハチョウ","prefecture_code":22},"0925":{"zip_code":"4200925","prefecture":"静岡県","prefecture_kana":"シズオカケン","city":"静岡市葵区","city_kana":"シズオカシアオイク","town":"加藤島","town_kana":"カトウジマ","prefecture_code":22},"0841":{"zip_code":"4200841","prefecture":"静岡県","prefecture_kana":"シズオカケン","city":"静岡市葵区","city_kana":"シズオカシアオイク","town":"上足洗","town_kana":"カミアシアライ","prefecture_code":22},"0014":{"zip_code":"4200014","prefecture":"静岡県","prefecture_kana":"シズオカケン","city":"静岡市葵区","city_kana":"シズオカシアオイク","town":"上桶屋町","town_kana":"カミオケヤチョウ","prefecture_code":22},"0815":{"zip_code":"4200815","prefecture":"静岡県","prefecture_kana":"シズオカケン","city":"静岡市葵区","city_kana":"シズオカシアオイク","town":"上沓谷町","town_kana":"カミクツノヤチョウ","prefecture_code":22},"0039":{"zip_code":"4200039","prefecture":"静岡県","prefecture_kana":"シズオカケン","city":"静岡市葵区","city_kana":"シズオカシアオイク","town":"上石町","town_kana":"カミゴクチョウ","prefecture_code":22},"0062":{"zip_code":"4200062","prefecture":"静岡県","prefecture_kana":"シズオカケン","city":"静岡市葵区","city_kana":"シズオカシアオイク","town":"上新富町","town_kana":"カミシントミチョウ","prefecture_code":22},"0943":{"zip_code":"4200943","prefecture":"静岡県","prefecture_kana":"シズオカケン","city":"静岡市葵区","city_kana":"シズオカシアオイク","town":"上伝馬","town_kana":"カミテンマ","prefecture_code":22},"0937":{"zip_code":"4200937","prefecture":"静岡県","prefecture_kana":"シズオカケン","city":"静岡市葵区","city_kana":"シズオカシアオイク","town":"唐瀬","town_kana":"カラセ","prefecture_code":22},"0923":{"zip_code":"4200923","prefecture":"静岡県","prefecture_kana":"シズオカケン","city":"静岡市葵区","city_kana":"シズオカシアオイク","town":"川合","town_kana":"カワイ","prefecture_code":22},"0924":{"zip_code":"4200924","prefecture":"静岡県","prefecture_kana":"シズオカケン","city":"静岡市葵区","city_kana":"シズオカシアオイク","town":"川合新田","town_kana":"カワイシンデン","prefecture_code":22},"0052":{"zip_code":"4200052","prefecture":"静岡県","prefecture_kana":"シズオカケン","city":"静岡市葵区","city_kana":"シズオカシアオイク","town":"川越町","town_kana":"カワゴシチョウ","prefecture_code":22},"0043":{"zip_code":"4200043","prefecture":"静岡県","prefecture_kana":"シズオカケン","city":"静岡市葵区","city_kana":"シズオカシアオイク","town":"川辺町","town_kana":"カワナベチョウ","prefecture_code":22},"0825":{"zip_code":"4200825","prefecture":"静岡県","prefecture_kana":"シズオカケン","city":"静岡市葵区","city_kana":"シズオカシアオイク","town":"瓦場町","town_kana":"カワラバチョウ","prefecture_code":22},"0931":{"zip_code":"4200931","prefecture":"静岡県","prefecture_kana":"シズオカケン","city":"静岡市葵区","city_kana":"シズオカシアオイク","town":"観山","town_kana":"カンザン","prefecture_code":22},"0961":{"zip_code":"4200961","prefecture":"静岡県","prefecture_kana":"シズオカケン","city":"静岡市葵区","city_kana":"シズオカシアオイク","town":"北","town_kana":"キタ","prefecture_code":22},"0881":{"zip_code":"4200881","prefecture":"静岡県","prefecture_kana":"シズオカケン","city":"静岡市葵区","city_kana":"シズオカシアオイク","town":"北安東","town_kana":"キタアンドウ","prefecture_code":22},"0901":{"zip_code":"4200901","prefecture":"静岡県","prefecture_kana":"シズオカケン","city":"静岡市葵区","city_kana":"シズオカシアオイク","town":"北沼上","town_kana":"キタヌマガミ","prefecture_code":22},"0005":{"zip_code":"4200005","prefecture":"静岡県","prefecture_kana":"シズオカケン","city":"静岡市葵区","city_kana":"シズオカシアオイク","town":"北番町","town_kana":"キタバンチョウ","prefecture_code":22},"0025":{"zip_code":"4200025","prefecture":"静岡県","prefecture_kana":"シズオカケン","city":"静岡市葵区","city_kana":"シズオカシアオイク","town":"金座町","town_kana":"キンザマチ","prefecture_code":22},"0816":{"zip_code":"4200816","prefecture":"静岡県","prefecture_kana":"シズオカケン","city":"静岡市葵区","city_kana":"シズオカシアオイク","town":"沓谷","town_kana":"クツノヤ","prefecture_code":22},"0022":{"zip_code":"4200022","prefecture":"静岡県","prefecture_kana":"シズオカケン","city":"静岡市葵区","city_kana":"シズオカシアオイク","town":"車町","town_kana":"クルマチョウ","prefecture_code":22},"0851":{"zip_code":"4200851","prefecture":"静岡県","prefecture_kana":"シズオカケン","city":"静岡市葵区","city_kana":"シズオカシアオイク","town":"黒金町","town_kana":"クロガネチョウ","prefecture_code":22},"0852":{"zip_code":"4200852","prefecture":"静岡県","prefecture_kana":"シズオカケン","city":"静岡市葵区","city_kana":"シズオカシアオイク","town":"紺屋町","town_kana":"コウヤマチ","prefecture_code":22},"0075":{"zip_code":"4200075","prefecture":"静岡県","prefecture_kana":"シズオカケン","city":"静岡市葵区","city_kana":"シズオカシアオイク","town":"五番町","town_kana":"ゴバンチョウ","prefecture_code":22},"0031":{"zip_code":"4200031","prefecture":"静岡県","prefecture_kana":"シズオカケン","city":"静岡市葵区","city_kana":"シズオカシアオイク","town":"呉服町","town_kana":"ゴフクチョウ","prefecture_code":22},"0042":{"zip_code":"4200042","prefecture":"静岡県","prefecture_kana":"シズオカケン","city":"静岡市葵区","city_kana":"シズオカシアオイク","town":"駒形通","town_kana":"コマガタドオリ","prefecture_code":22},"0002":{"zip_code":"4200002","prefecture":"静岡県","prefecture_kana":"シズオカケン","city":"静岡市葵区","city_kana":"シズオカシアオイク","town":"材木町","town_kana":"ザイモクチョウ","prefecture_code":22},"0067":{"zip_code":"4200067","prefecture":"静岡県","prefecture_kana":"シズオカケン","city":"静岡市葵区","city_kana":"シズオカシアオイク","town":"幸町","town_kana":"サイワイチョウ","prefecture_code":22},"0859":{"zip_code":"4200859","prefecture":"静岡県","prefecture_kana":"シズオカケン","city":"静岡市葵区","city_kana":"シズオカシアオイク","town":"栄町","town_kana":"サカエチョウ","prefecture_code":22},"0048":{"zip_code":"4200048","prefecture":"静岡県","prefecture_kana":"シズオカケン","city":"静岡市葵区","city_kana":"シズオカシアオイク","town":"桜木町","town_kana":"サクラギチョウ","prefecture_code":22},"0945":{"zip_code":"4200945","prefecture":"静岡県","prefecture_kana":"シズオカケン","city":"静岡市葵区","city_kana":"シズオカシアオイク","town":"桜町","town_kana":"サクラチョウ","prefecture_code":22},"0073":{"zip_code":"4200073","prefecture":"静岡県","prefecture_kana":"シズオカケン","city":"静岡市葵区","city_kana":"シズオカシアオイク","town":"三番町","town_kana":"サンバンチョウ","prefecture_code":22},"0035":{"zip_code":"4200035","prefecture":"静岡県","prefecture_kana":"シズオカケン","city":"静岡市葵区","city_kana":"シズオカシアオイク","town":"七間町","town_kana":"シチケンチョウ","prefecture_code":22},"0077":{"zip_code":"4200077","prefecture":"静岡県","prefecture_kana":"シズオカケン","city":"静岡市葵区","city_kana":"シズオカシアオイク","town":"七番町","town_kana":"シチバンチョウ","prefecture_code":22},"0955":{"zip_code":"4200955","prefecture":"静岡県","prefecture_kana":"シズオカケン","city":"静岡市葵区","city_kana":"シズオカシアオイク","town":"芝原","town_kana":"シバハラ","prefecture_code":22},"0846":{"zip_code":"4200846","prefecture":"静岡県","prefecture_kana":"シズオカケン","city":"静岡市葵区","city_kana":"シズオカシアオイク","town":"城東町","town_kana":"ジョウトウチョウ","prefecture_code":22},"0854":{"zip_code":"4200854","prefecture":"静岡県","prefecture_kana":"シズオカケン","city":"静岡市葵区","city_kana":"シズオカシアオイク","town":"城内町","town_kana":"ジョウナイチョウ","prefecture_code":22},"0871":{"zip_code":"4200871","prefecture":"静岡県","prefecture_kana":"シズオカケン","city":"静岡市葵区","city_kana":"シズオカシアオイク","town":"昭府","town_kana":"ショウブ","prefecture_code":22},"0872":{"zip_code":"4200872","prefecture":"静岡県","prefecture_kana":"シズオカケン","city":"静岡市葵区","city_kana":"シズオカシアオイク","town":"昭府町","town_kana":"ショウブチョウ","prefecture_code":22},"0805":{"zip_code":"4200805","prefecture":"静岡県","prefecture_kana":"シズオカケン","city":"静岡市葵区","city_kana":"シズオカシアオイク","town":"城北","town_kana":"ジョウホク","prefecture_code":22},"0033":{"zip_code":"4200033","prefecture":"静岡県","prefecture_kana":"シズオカケン","city":"静岡市葵区","city_kana":"シズオカシアオイク","town":"昭和町","town_kana":"ショウワチョウ","prefecture_code":22},"0944":{"zip_code":"4200944","prefecture":"静岡県","prefecture_kana":"シズオカケン","city":"静岡市葵区","city_kana":"シズオカシアオイク","town":"新伝馬","town_kana":"シンテンマ","prefecture_code":22},"0065":{"zip_code":"4200065","prefecture":"静岡県","prefecture_kana":"シズオカケン","city":"静岡市葵区","city_kana":"シズオカシアオイク","town":"新通","town_kana":"シントオリ","prefecture_code":22},"0061":{"zip_code":"4200061","prefecture":"静岡県","prefecture_kana":"シズオカケン","city":"静岡市葵区","city_kana":"シズオカシアオイク","town":"新富町","town_kana":"シントミチョウ","prefecture_code":22},"0009":{"zip_code":"4200009","prefecture":"静岡県","prefecture_kana":"シズオカケン","city":"静岡市葵区","city_kana":"シズオカシアオイク","town":"神明町","town_kana":"シンメイチョウ","prefecture_code":22},"0008":{"zip_code":"4200008","prefecture":"静岡県","prefecture_kana":"シズオカケン","city":"静岡市葵区","city_kana":"シズオカシアオイク","town":"水道町","town_kana":"スイドウチョウ","prefecture_code":22},"0004":{"zip_code":"4200004","prefecture":"静岡県","prefecture_kana":"シズオカケン","city":"静岡市葵区","city_kana":"シズオカシアオイク","town":"末広町","town_kana":"スエヒロチョウ","prefecture_code":22},"0016":{"zip_code":"4200016","prefecture":"静岡県","prefecture_kana":"シズオカケン","city":"静岡市葵区","city_kana":"シズオカシアオイク","town":"住吉町","town_kana":"スミヨシチョウ","prefecture_code":22},"0036":{"zip_code":"4200036","prefecture":"静岡県","prefecture_kana":"シズオカケン","city":"静岡市葵区","city_kana":"シズオカシアオイク","town":"駿河町","town_kana":"スルガチョウ","prefecture_code":22},"0902":{"zip_code":"4200902","prefecture":"静岡県","prefecture_kana":"シズオカケン","city":"静岡市葵区","city_kana":"シズオカシアオイク","town":"諏訪","town_kana":"スワ","prefecture_code":22},"0855":{"zip_code":"4200855","prefecture":"静岡県","prefecture_kana":"シズオカケン","city":"静岡市葵区","city_kana":"シズオカシアオイク","town":"駿府城公園","town_kana":"スンプジョウコウエン","prefecture_code":22},"0856":{"zip_code":"4200856","prefecture":"静岡県","prefecture_kana":"シズオカケン","city":"静岡市葵区","city_kana":"シズオカシアオイク","town":"駿府町","town_kana":"スンプチョウ","prefecture_code":22},"0047":{"zip_code":"4200047","prefecture":"静岡県","prefecture_kana":"シズオカケン","city":"静岡市葵区","city_kana":"シズオカシアオイク","town":"清閑町","town_kana":"セイカンチョウ","prefecture_code":22},"0911":{"zip_code":"4200911","prefecture":"静岡県","prefecture_kana":"シズオカケン","city":"静岡市葵区","city_kana":"シズオカシアオイク","town":"瀬名","town_kana":"セナ","prefecture_code":22},"0916":{"zip_code":"4200916","prefecture":"静岡県","prefecture_kana":"シズオカケン","city":"静岡市葵区","city_kana":"シズオカシアオイク","town":"瀬名中央","town_kana":"セナチュウオウ","prefecture_code":22},"0913":{"zip_code":"4200913","prefecture":"静岡県","prefecture_kana":"シズオカケン","city":"静岡市葵区","city_kana":"シズオカシアオイク","town":"瀬名川","town_kana":"セナガワ","prefecture_code":22},"0862":{"zip_code":"4200862","prefecture":"静岡県","prefecture_kana":"シズオカケン","city":"静岡市葵区","city_kana":"シズオカシアオイク","town":"浅間町","town_kana":"センゲンチョウ","prefecture_code":22},"0842":{"zip_code":"4200842","prefecture":"静岡県","prefecture_kana":"シズオカケン","city":"静岡市葵区","city_kana":"シズオカシアオイク","town":"銭座町","town_kana":"ゼンザマチ","prefecture_code":22},"0027":{"zip_code":"4200027","prefecture":"静岡県","prefecture_kana":"シズオカケン","city":"静岡市葵区","city_kana":"シズオカシアオイク","town":"大工町","town_kana":"ダイクチョウ","prefecture_code":22},"0839":{"zip_code":"4200839","prefecture":"静岡県","prefecture_kana":"シズオカケン","city":"静岡市葵区","city_kana":"シズオカシアオイク","town":"鷹匠","town_kana":"タカジョウ","prefecture_code":22},"0934":{"zip_code":"4200934","prefecture":"静岡県","prefecture_kana":"シズオカケン","city":"静岡市葵区","city_kana":"シズオカシアオイク","town":"岳美","town_kana":"タケミ","prefecture_code":22},"0874":{"zip_code":"4200874","prefecture":"静岡県","prefecture_kana":"シズオカケン","city":"静岡市葵区","city_kana":"シズオカシアオイク","town":"辰起町","town_kana":"タツキチョウ","prefecture_code":22},"0933":{"zip_code":"4200933","prefecture":"静岡県","prefecture_kana":"シズオカケン","city":"静岡市葵区","city_kana":"シズオカシアオイク","town":"立石","town_kana":"タテイシ","prefecture_code":22},"0068":{"zip_code":"4200068","prefecture":"静岡県","prefecture_kana":"シズオカケン","city":"静岡市葵区","city_kana":"シズオカシアオイク","town":"田町","town_kana":"タマチ","prefecture_code":22},"0021":{"zip_code":"4200021","prefecture":"静岡県","prefecture_kana":"シズオカケン","city":"静岡市葵区","city_kana":"シズオカシアオイク","town":"茶町","town_kana":"チャマチ","prefecture_code":22},"0803":{"zip_code":"4200803","prefecture":"静岡県","prefecture_kana":"シズオカケン","city":"静岡市葵区","city_kana":"シズオカシアオイク","town":"千代田","town_kana":"チヨダ","prefecture_code":22},"0947":{"zip_code":"4200947","prefecture":"静岡県","prefecture_kana":"シズオカケン","city":"静岡市葵区","city_kana":"シズオカシアオイク","town":"堤町","town_kana":"ツツミチョウ","prefecture_code":22},"0951":{"zip_code":"4200951","prefecture":"静岡県","prefecture_kana":"シズオカケン","city":"静岡市葵区","city_kana":"シズオカシアオイク","town":"天神前","town_kana":"テンジンマエ","prefecture_code":22},"0045":{"zip_code":"4200045","prefecture":"静岡県","prefecture_kana":"シズオカケン","city":"静岡市葵区","city_kana":"シズオカシアオイク","town":"天王町","town_kana":"テンノウチョウ","prefecture_code":22},"0858":{"zip_code":"4200858","prefecture":"静岡県","prefecture_kana":"シズオカケン","city":"静岡市葵区","city_kana":"シズオカシアオイク","town":"伝馬町","town_kana":"テンマチョウ","prefecture_code":22},"0063":{"zip_code":"4200063","prefecture":"静岡県","prefecture_kana":"シズオカケン","city":"静岡市葵区","city_kana":"シズオカシアオイク","town":"通車町","town_kana":"トオリクルマチョウ","prefecture_code":22},"0029":{"zip_code":"4200029","prefecture":"静岡県","prefecture_kana":"シズオカケン","city":"静岡市葵区","city_kana":"シズオカシアオイク","town":"研屋町","town_kana":"トギヤチョウ","prefecture_code":22},"0034":{"zip_code":"4200034","prefecture":"静岡県","prefecture_kana":"シズオカケン","city":"静岡市葵区","city_kana":"シズオカシアオイク","town":"常磐町","town_kana":"トキワチョウ","prefecture_code":22},"0018":{"zip_code":"4200018","prefecture":"静岡県","prefecture_kana":"シズオカケン","city":"静岡市葵区","city_kana":"シズオカシアオイク","town":"土太夫町","town_kana":"ドダユウチョウ","prefecture_code":22},"0843":{"zip_code":"4200843","prefecture":"静岡県","prefecture_kana":"シズオカケン","city":"静岡市葵区","city_kana":"シズオカシアオイク","town":"巴町","town_kana":"トモエチョウ","prefecture_code":22},"0932":{"zip_code":"4200932","prefecture":"静岡県","prefecture_kana":"シズオカケン","city":"静岡市葵区","city_kana":"シズオカシアオイク","town":"豊地","town_kana":"トヨチ","prefecture_code":22},"0903":{"zip_code":"4200903","prefecture":"静岡県","prefecture_kana":"シズオカケン","city":"静岡市葵区","city_kana":"シズオカシアオイク","town":"長尾","town_kana":"ナガオ","prefecture_code":22},"0024":{"zip_code":"4200024","prefecture":"静岡県","prefecture_kana":"シズオカケン","city":"静岡市葵区","city_kana":"シズオカシアオイク","town":"中町","town_kana":"ナカチョウ","prefecture_code":22},"0813":{"zip_code":"4200813","prefecture":"静岡県","prefecture_kana":"シズオカケン","city":"静岡市葵区","city_kana":"シズオカシアオイク","town":"長沼","town_kana":"ナガヌマ","prefecture_code":22},"0015":{"zip_code":"4200015","prefecture":"静岡県","prefecture_kana":"シズオカケン","city":"静岡市葵区","city_kana":"シズオカシアオイク","town":"錦町","town_kana":"ニシキチョウ","prefecture_code":22},"0866":{"zip_code":"4200866","prefecture":"静岡県","prefecture_kana":"シズオカケン","city":"静岡市葵区","city_kana":"シズオカシアオイク","town":"西草深町","town_kana":"ニシクサブカチョウ","prefecture_code":22},"0914":{"zip_code":"4200914","prefecture":"静岡県","prefecture_kana":"シズオカケン","city":"静岡市葵区","city_kana":"シズオカシアオイク","town":"西瀬名町","town_kana":"ニシセナチョウ","prefecture_code":22},"0847":{"zip_code":"4200847","prefecture":"静岡県","prefecture_kana":"シズオカケン","city":"静岡市葵区","city_kana":"シズオカシアオイク","town":"西千代田町","town_kana":"ニシチヨダチョウ","prefecture_code":22},"0044":{"zip_code":"4200044","prefecture":"静岡県","prefecture_kana":"シズオカケン","city":"静岡市葵区","city_kana":"シズオカシアオイク","town":"西門町","town_kana":"ニシモンチョウ","prefecture_code":22},"0072":{"zip_code":"4200072","prefecture":"静岡県","prefecture_kana":"シズオカケン","city":"静岡市葵区","city_kana":"シズオカシアオイク","town":"二番町","town_kana":"ニバンチョウ","prefecture_code":22},"0921":{"zip_code":"4200921","prefecture":"静岡県","prefecture_kana":"シズオカケン","city":"静岡市葵区","city_kana":"シズオカシアオイク","town":"野丈","town_kana":"ノダケ","prefecture_code":22},"0864":{"zip_code":"4200864","prefecture":"静岡県","prefecture_kana":"シズオカケン","city":"静岡市葵区","city_kana":"シズオカシアオイク","town":"長谷町","town_kana":"ハセチョウ","prefecture_code":22},"0966":{"zip_code":"4200966","prefecture":"静岡県","prefecture_kana":"シズオカケン","city":"静岡市葵区","city_kana":"シズオカシアオイク","town":"羽高","town_kana":"ハタカ","prefecture_code":22},"0967":{"zip_code":"4200967","prefecture":"静岡県","prefecture_kana":"シズオカケン","city":"静岡市葵区","city_kana":"シズオカシアオイク","town":"羽高町","town_kana":"ハタカチョウ","prefecture_code":22},"0078":{"zip_code":"4200078","prefecture":"静岡県","prefecture_kana":"シズオカケン","city":"静岡市葵区","city_kana":"シズオカシアオイク","town":"八番町","town_kana":"ハチバンチョウ","prefecture_code":22},"0867":{"zip_code":"4200867","prefecture":"静岡県","prefecture_kana":"シズオカケン","city":"静岡市葵区","city_kana":"シズオカシアオイク","town":"馬場町","town_kana":"ババンチョウ","prefecture_code":22},"0962":{"zip_code":"4200962","prefecture":"静岡県","prefecture_kana":"シズオカケン","city":"静岡市葵区","city_kana":"シズオカシアオイク","town":"東","town_kana":"ヒガシ","prefecture_code":22},"0865":{"zip_code":"4200865","prefecture":"静岡県","prefecture_kana":"シズオカケン","city":"静岡市葵区","city_kana":"シズオカシアオイク","town":"東草深町","town_kana":"ヒガシクサブカチョウ","prefecture_code":22},"0912":{"zip_code":"4200912","prefecture":"静岡県","prefecture_kana":"シズオカケン","city":"静岡市葵区","city_kana":"シズオカシアオイク","town":"東瀬名町","town_kana":"ヒガシセナチョウ","prefecture_code":22},"0833":{"zip_code":"4200833","prefecture":"静岡県","prefecture_kana":"シズオカケン","city":"静岡市葵区","city_kana":"シズオカシアオイク","town":"東鷹匠町","town_kana":"ヒガシタカジョウマチ","prefecture_code":22},"0801":{"zip_code":"4200801","prefecture":"静岡県","prefecture_kana":"シズオカケン","city":"静岡市葵区","city_kana":"シズオカシアオイク","town":"東千代田","town_kana":"ヒガシチヨダ","prefecture_code":22},"0037":{"zip_code":"4200037","prefecture":"静岡県","prefecture_kana":"シズオカケン","city":"静岡市葵区","city_kana":"シズオカシアオイク","town":"人宿町","town_kana":"ヒトヤドチョウ","prefecture_code":22},"0837":{"zip_code":"4200837","prefecture":"静岡県","prefecture_kana":"シズオカケン","city":"静岡市葵区","city_kana":"シズオカシアオイク","town":"日出町","town_kana":"ヒノデチョウ","prefecture_code":22},"0954":{"zip_code":"4200954","prefecture":"静岡県","prefecture_kana":"シズオカケン","city":"静岡市葵区","city_kana":"シズオカシアオイク","town":"平柳","town_kana":"ヒラヤナギ","prefecture_code":22},"0904":{"zip_code":"4200904","prefecture":"静岡県","prefecture_kana":"シズオカケン","city":"静岡市葵区","city_kana":"シズオカシアオイク","town":"平山","town_kana":"ヒラヤマ","prefecture_code":22},"0023":{"zip_code":"4200023","prefecture":"静岡県","prefecture_kana":"シズオカケン","city":"静岡市葵区","city_kana":"シズオカシアオイク","town":"富士見町","town_kana":"フジミチョウ","prefecture_code":22},"0041":{"zip_code":"4200041","prefecture":"静岡県","prefecture_kana":"シズオカケン","city":"静岡市葵区","city_kana":"シズオカシアオイク","town":"双葉町","town_kana":"フタバチョウ","prefecture_code":22},"0812":{"zip_code":"4200812","prefecture":"静岡県","prefecture_kana":"シズオカケン","city":"静岡市葵区","city_kana":"シズオカシアオイク","town":"古庄","town_kana":"フルショウ","prefecture_code":22},"0876":{"zip_code":"4200876","prefecture":"静岡県","prefecture_kana":"シズオカケン","city":"静岡市葵区","city_kana":"シズオカシアオイク","town":"平和","town_kana":"ヘイワ","prefecture_code":22},"0064":{"zip_code":"4200064","prefecture":"静岡県","prefecture_kana":"シズオカケン","city":"静岡市葵区","city_kana":"シズオカシアオイク","town":"本通","town_kana":"ホントオリ","prefecture_code":22},"0066":{"zip_code":"4200066","prefecture":"静岡県","prefecture_kana":"シズオカケン","city":"静岡市葵区","city_kana":"シズオカシアオイク","town":"本通西町","town_kana":"ホントオリニシマチ","prefecture_code":22},"0957":{"zip_code":"4200957","prefecture":"静岡県","prefecture_kana":"シズオカケン","city":"静岡市葵区","city_kana":"シズオカシアオイク","town":"前林","town_kana":"マエバヤシ","prefecture_code":22},"0941":{"zip_code":"4200941","prefecture":"静岡県","prefecture_kana":"シズオカケン","city":"静岡市葵区","city_kana":"シズオカシアオイク","town":"松富","town_kana":"マツドミ","prefecture_code":22},"0942":{"zip_code":"4200942","prefecture":"静岡県","prefecture_kana":"シズオカケン","city":"静岡市葵区","city_kana":"シズオカシアオイク","town":"松富上組","town_kana":"マツドミカミグミ","prefecture_code":22},"0861":{"zip_code":"4200861","prefecture":"静岡県","prefecture_kana":"シズオカケン","city":"静岡市葵区","city_kana":"シズオカシアオイク","town":"丸山町","town_kana":"マルヤマチョウ","prefecture_code":22},"0875":{"zip_code":"4200875","prefecture":"静岡県","prefecture_kana":"シズオカケン","city":"静岡市葵区","city_kana":"シズオカシアオイク","town":"美川町","town_kana":"ミカワチョウ","prefecture_code":22},"0831":{"zip_code":"4200831","prefecture":"静岡県","prefecture_kana":"シズオカケン","city":"静岡市葵区","city_kana":"シズオカシアオイク","town":"水落町","town_kana":"ミズオチチョウ","prefecture_code":22},"0844":{"zip_code":"4200844","prefecture":"静岡県","prefecture_kana":"シズオカケン","city":"静岡市葵区","city_kana":"シズオカシアオイク","town":"緑町","town_kana":"ミドリチョウ","prefecture_code":22},"0956":{"zip_code":"4200956","prefecture":"静岡県","prefecture_kana":"シズオカケン","city":"静岡市葵区","city_kana":"シズオカシアオイク","town":"南","town_kana":"ミナミ","prefecture_code":22},"0054":{"zip_code":"4200054","prefecture":"静岡県","prefecture_kana":"シズオカケン","city":"静岡市葵区","city_kana":"シズオカシアオイク","town":"南安倍","town_kana":"ミナミアベ","prefecture_code":22},"0915":{"zip_code":"4200915","prefecture":"静岡県","prefecture_kana":"シズオカケン","city":"静岡市葵区","city_kana":"シズオカシアオイク","town":"南瀬名町","town_kana":"ミナミセナチョウ","prefecture_code":22},"0051":{"zip_code":"4200051","prefecture":"静岡県","prefecture_kana":"シズオカケン","city":"静岡市葵区","city_kana":"シズオカシアオイク","town":"南田町","town_kana":"ミナミタマチ","prefecture_code":22},"0905":{"zip_code":"4200905","prefecture":"静岡県","prefecture_kana":"シズオカケン","city":"静岡市葵区","city_kana":"シズオカシアオイク","town":"南沼上","town_kana":"ミナミヌマガミ","prefecture_code":22},"0868":{"zip_code":"4200868","prefecture":"静岡県","prefecture_kana":"シズオカケン","city":"静岡市葵区","city_kana":"シズオカシアオイク","town":"宮ケ崎町","town_kana":"ミヤガサキチョウ","prefecture_code":22},"0822":{"zip_code":"4200822","prefecture":"静岡県","prefecture_kana":"シズオカケン","city":"静岡市葵区","city_kana":"シズオカシアオイク","town":"宮前町","town_kana":"ミヤマエチョウ","prefecture_code":22},"0857":{"zip_code":"4200857","prefecture":"静岡県","prefecture_kana":"シズオカケン","city":"静岡市葵区","city_kana":"シズオカシアオイク","town":"御幸町","town_kana":"ミユキチョウ","prefecture_code":22},"0053":{"zip_code":"4200053","prefecture":"静岡県","prefecture_kana":"シズオカケン","city":"静岡市葵区","city_kana":"シズオカシアオイク","town":"弥勒","town_kana":"ミロク","prefecture_code":22},"0028":{"zip_code":"4200028","prefecture":"静岡県","prefecture_kana":"シズオカケン","city":"静岡市葵区","city_kana":"シズオカシアオイク","town":"屋形町","town_kana":"ヤカタマチ","prefecture_code":22},"0906":{"zip_code":"4200906","prefecture":"静岡県","prefecture_kana":"シズオカケン","city":"静岡市葵区","city_kana":"シズオカシアオイク","town":"薬師","town_kana":"ヤクシ","prefecture_code":22},"0013":{"zip_code":"4200013","prefecture":"静岡県","prefecture_kana":"シズオカケン","city":"静岡市葵区","city_kana":"シズオカシアオイク","town":"八千代町","town_kana":"ヤチヨチョウ","prefecture_code":22},"0007":{"zip_code":"4200007","prefecture":"静岡県","prefecture_kana":"シズオカケン","city":"静岡市葵区","city_kana":"シズオカシアオイク","town":"柳町","town_kana":"ヤナギチョウ","prefecture_code":22},"0964":{"zip_code":"4200964","prefecture":"静岡県","prefecture_kana":"シズオカケン","city":"静岡市葵区","city_kana":"シズオカシアオイク","town":"柳原","town_kana":"ヤナギハラ","prefecture_code":22},"0012":{"zip_code":"4200012","prefecture":"静岡県","prefecture_kana":"シズオカケン","city":"静岡市葵区","city_kana":"シズオカシアオイク","town":"柚木町","town_kana":"ユズノキチョウ","prefecture_code":22},"0821":{"zip_code":"4200821","prefecture":"静岡県","prefecture_kana":"シズオカケン","city":"静岡市葵区","city_kana":"シズオカシアオイク","town":"柚木","town_kana":"ユノキ","prefecture_code":22},"0949":{"zip_code":"4200949","prefecture":"静岡県","prefecture_kana":"シズオカケン","city":"静岡市葵区","city_kana":"シズオカシアオイク","town":"与一","town_kana":"ヨイチ","prefecture_code":22},"0832":{"zip_code":"4200832","prefecture":"静岡県","prefecture_kana":"シズオカケン","city":"静岡市葵区","city_kana":"シズオカシアオイク","town":"横内町","town_kana":"ヨコウチチョウ","prefecture_code":22},"0835":{"zip_code":"4200835","prefecture":"静岡県","prefecture_kana":"シズオカケン","city":"静岡市葵区","city_kana":"シズオカシアオイク","town":"横田町","town_kana":"ヨコタマチ","prefecture_code":22},"0046":{"zip_code":"4200046","prefecture":"静岡県","prefecture_kana":"シズオカケン","city":"静岡市葵区","city_kana":"シズオカシアオイク","town":"吉野町","town_kana":"ヨシノチョウ","prefecture_code":22},"0074":{"zip_code":"4200074","prefecture":"静岡県","prefecture_kana":"シズオカケン","city":"静岡市葵区","city_kana":"シズオカシアオイク","town":"四番町","town_kana":"ヨンバンチョウ","prefecture_code":22},"0922":{"zip_code":"4200922","prefecture":"静岡県","prefecture_kana":"シズオカケン","city":"静岡市葵区","city_kana":"シズオカシアオイク","town":"流通センター","town_kana":"リュウツウセンター","prefecture_code":22},"0804":{"zip_code":"4200804","prefecture":"静岡県","prefecture_kana":"シズオカケン","city":"静岡市葵区","city_kana":"シズオカシアオイク","town":"竜南","town_kana":"リュウナン","prefecture_code":22},"0032":{"zip_code":"4200032","prefecture":"静岡県","prefecture_kana":"シズオカケン","city":"静岡市葵区","city_kana":"シズオカシアオイク","town":"両替町","town_kana":"リョウガエチョウ","prefecture_code":22},"0076":{"zip_code":"4200076","prefecture":"静岡県","prefecture_kana":"シズオカケン","city":"静岡市葵区","city_kana":"シズオカシアオイク","town":"六番町","town_kana":"ロクバンチョウ","prefecture_code":22},"0006":{"zip_code":"4200006","prefecture":"静岡県","prefecture_kana":"シズオカケン","city":"静岡市葵区","city_kana":"シズオカシアオイク","town":"若松町","town_kana":"ワカマツチョウ","prefecture_code":22}}