{"2309":{"zip_code":"4212309","prefecture":"静岡県","prefecture_kana":"シズオカケン","city":"静岡市葵区","city_kana":"シズオカシアオイク","town":"相淵","town_kana":"アイブチ","prefecture_code":22},"1307":{"zip_code":"4211307","prefecture":"静岡県","prefecture_kana":"シズオカケン","city":"静岡市葵区","city_kana":"シズオカシアオイク","town":"相俣","town_kana":"アイマタ","prefecture_code":22},"1305":{"zip_code":"4211305","prefecture":"静岡県","prefecture_kana":"シズオカケン","city":"静岡市葵区","city_kana":"シズオカシアオイク","town":"赤沢","town_kana":"アカザワ","prefecture_code":22},"2125":{"zip_code":"4212125","prefecture":"静岡県","prefecture_kana":"シズオカケン","city":"静岡市葵区","city_kana":"シズオカシアオイク","town":"足久保奥組","town_kana":"アシクボオクグミ","prefecture_code":22},"2124":{"zip_code":"4212124","prefecture":"静岡県","prefecture_kana":"シズオカケン","city":"静岡市葵区","city_kana":"シズオカシアオイク","town":"足久保口組","town_kana":"アシクボクチグミ","prefecture_code":22},"2114":{"zip_code":"4212114","prefecture":"静岡県","prefecture_kana":"シズオカケン","city":"静岡市葵区","city_kana":"シズオカシアオイク","town":"安倍口新田","town_kana":"アベグチシンデン","prefecture_code":22},"2113":{"zip_code":"4212113","prefecture":"静岡県","prefecture_kana":"シズオカケン","city":"静岡市葵区","city_kana":"シズオカシアオイク","town":"安倍口団地","town_kana":"アベグチダンチ","prefecture_code":22},"2106":{"zip_code":"4212106","prefecture":"静岡県","prefecture_kana":"シズオカケン","city":"静岡市葵区","city_kana":"シズオカシアオイク","town":"牛妻","town_kana":"ウシヅマ","prefecture_code":22},"2118":{"zip_code":"4212118","prefecture":"静岡県","prefecture_kana":"シズオカケン","city":"静岡市葵区","city_kana":"シズオカシアオイク","town":"内牧","town_kana":"ウチマキ","prefecture_code":22},"2303":{"zip_code":"4212303","prefecture":"静岡県","prefecture_kana":"シズオカケン","city":"静岡市葵区","city_kana":"シズオカシアオイク","town":"有東木","town_kana":"ウトウギ","prefecture_code":22},"1222":{"zip_code":"4211222","prefecture":"静岡県","prefecture_kana":"シズオカケン","city":"静岡市葵区","city_kana":"シズオカシアオイク","town":"産女","town_kana":"ウブメ","prefecture_code":22},"2301":{"zip_code":"4212301","prefecture":"静岡県","prefecture_kana":"シズオカケン","city":"静岡市葵区","city_kana":"シズオカシアオイク","town":"梅ケ島","town_kana":"ウメガシマ","prefecture_code":22},"2112":{"zip_code":"4212112","prefecture":"静岡県","prefecture_kana":"シズオカケン","city":"静岡市葵区","city_kana":"シズオカシアオイク","town":"遠藤新田","town_kana":"エンドウシンデン","prefecture_code":22},"2227":{"zip_code":"4212227","prefecture":"静岡県","prefecture_kana":"シズオカケン","city":"静岡市葵区","city_kana":"シズオカシアオイク","town":"大沢","town_kana":"オオサワ","prefecture_code":22},"1314":{"zip_code":"4211314","prefecture":"静岡県","prefecture_kana":"シズオカケン","city":"静岡市葵区","city_kana":"シズオカシアオイク","town":"大原","town_kana":"オオハラ","prefecture_code":22},"1401":{"zip_code":"4211401","prefecture":"静岡県","prefecture_kana":"シズオカケン","city":"静岡市葵区","city_kana":"シズオカシアオイク","town":"大間","town_kana":"オオマ","prefecture_code":22},"2215":{"zip_code":"4212215","prefecture":"静岡県","prefecture_kana":"シズオカケン","city":"静岡市葵区","city_kana":"シズオカシアオイク","town":"奥池ケ谷","town_kana":"オクイケガヤ","prefecture_code":22},"2201":{"zip_code":"4212201","prefecture":"静岡県","prefecture_kana":"シズオカケン","city":"静岡市葵区","city_kana":"シズオカシアオイク","town":"奥仙俣","town_kana":"オクセンマタ","prefecture_code":22},"2223":{"zip_code":"4212223","prefecture":"静岡県","prefecture_kana":"シズオカケン","city":"静岡市葵区","city_kana":"シズオカシアオイク","town":"落合","town_kana":"オチアイ","prefecture_code":22},"1302":{"zip_code":"4211302","prefecture":"静岡県","prefecture_kana":"シズオカケン","city":"静岡市葵区","city_kana":"シズオカシアオイク","town":"鍵穴","town_kana":"カギアナ","prefecture_code":22},"2214":{"zip_code":"4212214","prefecture":"静岡県","prefecture_kana":"シズオカケン","city":"静岡市葵区","city_kana":"シズオカシアオイク","town":"柿島","town_kana":"カキシマ","prefecture_code":22},"2107":{"zip_code":"4212107","prefecture":"静岡県","prefecture_kana":"シズオカケン","city":"静岡市葵区","city_kana":"シズオカシアオイク","town":"門屋","town_kana":"カドヤ","prefecture_code":22},"2211":{"zip_code":"4212211","prefecture":"静岡県","prefecture_kana":"シズオカケン","city":"静岡市葵区","city_kana":"シズオカシアオイク","town":"上落合","town_kana":"カミオチアイ","prefecture_code":22},"2222":{"zip_code":"4212222","prefecture":"静岡県","prefecture_kana":"シズオカケン","city":"静岡市葵区","city_kana":"シズオカシアオイク","town":"桂山","town_kana":"カヤマ","prefecture_code":22},"1408":{"zip_code":"4211408","prefecture":"静岡県","prefecture_kana":"シズオカケン","city":"静岡市葵区","city_kana":"シズオカシアオイク","town":"崩野","town_kana":"クズレノ","prefecture_code":22},"2203":{"zip_code":"4212203","prefecture":"静岡県","prefecture_kana":"シズオカケン","city":"静岡市葵区","city_kana":"シズオカシアオイク","town":"口坂本","town_kana":"クチサカモト","prefecture_code":22},"2202":{"zip_code":"4212202","prefecture":"静岡県","prefecture_kana":"シズオカケン","city":"静岡市葵区","city_kana":"シズオカシアオイク","town":"口仙俣","town_kana":"クチセンマタ","prefecture_code":22},"1308":{"zip_code":"4211308","prefecture":"静岡県","prefecture_kana":"シズオカケン","city":"静岡市葵区","city_kana":"シズオカシアオイク","town":"黒俣","town_kana":"クロマタ","prefecture_code":22},"2117":{"zip_code":"4212117","prefecture":"静岡県","prefecture_kana":"シズオカケン","city":"静岡市葵区","city_kana":"シズオカシアオイク","town":"幸庵新田","town_kana":"コウアンシンデン","prefecture_code":22},"2105":{"zip_code":"4212105","prefecture":"静岡県","prefecture_kana":"シズオカケン","city":"静岡市葵区","city_kana":"シズオカシアオイク","town":"郷島","town_kana":"ゴウジマ","prefecture_code":22},"2225":{"zip_code":"4212225","prefecture":"静岡県","prefecture_kana":"シズオカケン","city":"静岡市葵区","city_kana":"シズオカシアオイク","town":"腰越","town_kana":"コシゴエ","prefecture_code":22},"1301":{"zip_code":"4211301","prefecture":"静岡県","prefecture_kana":"シズオカケン","city":"静岡市葵区","city_kana":"シズオカシアオイク","town":"小島","town_kana":"コジマ","prefecture_code":22},"1225":{"zip_code":"4211225","prefecture":"静岡県","prefecture_kana":"シズオカケン","city":"静岡市葵区","city_kana":"シズオカシアオイク","town":"小瀬戸","town_kana":"コゼト","prefecture_code":22},"1316":{"zip_code":"4211316","prefecture":"静岡県","prefecture_kana":"シズオカケン","city":"静岡市葵区","city_kana":"シズオカシアオイク","town":"小布杉","town_kana":"コブスギ","prefecture_code":22},"1405":{"zip_code":"4211405","prefecture":"静岡県","prefecture_kana":"シズオカケン","city":"静岡市葵区","city_kana":"シズオカシアオイク","town":"坂ノ上","town_kana":"サカノカミ","prefecture_code":22},"1303":{"zip_code":"4211303","prefecture":"静岡県","prefecture_kana":"シズオカケン","city":"静岡市葵区","city_kana":"シズオカシアオイク","town":"坂本","town_kana":"サカモト","prefecture_code":22},"1211":{"zip_code":"4211211","prefecture":"静岡県","prefecture_kana":"シズオカケン","city":"静岡市葵区","city_kana":"シズオカシアオイク","town":"慈悲尾","town_kana":"シイノオ","prefecture_code":22},"2108":{"zip_code":"4212108","prefecture":"静岡県","prefecture_kana":"シズオカケン","city":"静岡市葵区","city_kana":"シズオカシアオイク","town":"下","town_kana":"シモ","prefecture_code":22},"1201":{"zip_code":"4211201","prefecture":"静岡県","prefecture_kana":"シズオカケン","city":"静岡市葵区","city_kana":"シズオカシアオイク","town":"新間","town_kana":"シンマ","prefecture_code":22},"1309":{"zip_code":"4211309","prefecture":"静岡県","prefecture_kana":"シズオカケン","city":"静岡市葵区","city_kana":"シズオカシアオイク","town":"杉尾","town_kana":"スギオ","prefecture_code":22},"1212":{"zip_code":"4211212","prefecture":"静岡県","prefecture_kana":"シズオカケン","city":"静岡市葵区","city_kana":"シズオカシアオイク","town":"千代","town_kana":"センダイ","prefecture_code":22},"1214":{"zip_code":"4211214","prefecture":"静岡県","prefecture_kana":"シズオカケン","city":"静岡市葵区","city_kana":"シズオカシアオイク","town":"建穂","town_kana":"タキョウ","prefecture_code":22},"2224":{"zip_code":"4212224","prefecture":"静岡県","prefecture_kana":"シズオカケン","city":"静岡市葵区","city_kana":"シズオカシアオイク","town":"内匠","town_kana":"タクミ","prefecture_code":22},"2103":{"zip_code":"4212103","prefecture":"静岡県","prefecture_kana":"シズオカケン","city":"静岡市葵区","city_kana":"シズオカシアオイク","town":"俵沢","town_kana":"タワラザワ","prefecture_code":22},"2101":{"zip_code":"4212101","prefecture":"静岡県","prefecture_kana":"シズオカケン","city":"静岡市葵区","city_kana":"シズオカシアオイク","town":"俵峰","town_kana":"タワラミネ","prefecture_code":22},"2121":{"zip_code":"4212121","prefecture":"静岡県","prefecture_kana":"シズオカケン","city":"静岡市葵区","city_kana":"シズオカシアオイク","town":"津渡野","town_kana":"ツドノ","prefecture_code":22},"1304":{"zip_code":"4211304","prefecture":"静岡県","prefecture_kana":"シズオカケン","city":"静岡市葵区","city_kana":"シズオカシアオイク","town":"寺島","town_kana":"テラジマ","prefecture_code":22},"2304":{"zip_code":"4212304","prefecture":"静岡県","prefecture_kana":"シズオカケン","city":"静岡市葵区","city_kana":"シズオカシアオイク","town":"渡","town_kana":"ド","prefecture_code":22},"1404":{"zip_code":"4211404","prefecture":"静岡県","prefecture_kana":"シズオカケン","city":"静岡市葵区","city_kana":"シズオカシアオイク","town":"栃沢","town_kana":"トチザワ","prefecture_code":22},"1311":{"zip_code":"4211311","prefecture":"静岡県","prefecture_kana":"シズオカケン","city":"静岡市葵区","city_kana":"シズオカシアオイク","town":"富沢","town_kana":"トンザワ","prefecture_code":22},"2216":{"zip_code":"4212216","prefecture":"静岡県","prefecture_kana":"シズオカケン","city":"静岡市葵区","city_kana":"シズオカシアオイク","town":"長熊","town_kana":"ナガクマ","prefecture_code":22},"2221":{"zip_code":"4212221","prefecture":"静岡県","prefecture_kana":"シズオカケン","city":"静岡市葵区","city_kana":"シズオカシアオイク","town":"中沢","town_kana":"ナカザワ","prefecture_code":22},"2213":{"zip_code":"4212213","prefecture":"静岡県","prefecture_kana":"シズオカケン","city":"静岡市葵区","city_kana":"シズオカシアオイク","town":"長妻田","town_kana":"ナガツマタ","prefecture_code":22},"2111":{"zip_code":"4212111","prefecture":"静岡県","prefecture_kana":"シズオカケン","city":"静岡市葵区","city_kana":"シズオカシアオイク","town":"中ノ郷","town_kana":"ナカノゴウ","prefecture_code":22},"2305":{"zip_code":"4212305","prefecture":"静岡県","prefecture_kana":"シズオカケン","city":"静岡市葵区","city_kana":"シズオカシアオイク","town":"中平","town_kana":"ナカヒラ","prefecture_code":22},"1407":{"zip_code":"4211407","prefecture":"静岡県","prefecture_kana":"シズオカケン","city":"静岡市葵区","city_kana":"シズオカシアオイク","town":"楢尾","town_kana":"ナラオ","prefecture_code":22},"1312":{"zip_code":"4211312","prefecture":"静岡県","prefecture_kana":"シズオカケン","city":"静岡市葵区","city_kana":"シズオカシアオイク","town":"奈良間","town_kana":"ナラマ","prefecture_code":22},"2116":{"zip_code":"4212116","prefecture":"静岡県","prefecture_kana":"シズオカケン","city":"静岡市葵区","city_kana":"シズオカシアオイク","town":"西ケ谷","town_kana":"ニシガヤ","prefecture_code":22},"1226":{"zip_code":"4211226","prefecture":"静岡県","prefecture_kana":"シズオカケン","city":"静岡市葵区","city_kana":"シズオカシアオイク","town":"西又","town_kana":"ニシマタ","prefecture_code":22},"2302":{"zip_code":"4212302","prefecture":"静岡県","prefecture_kana":"シズオカケン","city":"静岡市葵区","city_kana":"シズオカシアオイク","town":"入島","town_kana":"ニュウジマ","prefecture_code":22},"2104":{"zip_code":"4212104","prefecture":"静岡県","prefecture_kana":"シズオカケン","city":"静岡市葵区","city_kana":"シズオカシアオイク","town":"野田平","town_kana":"ノタヒラ","prefecture_code":22},"1215":{"zip_code":"4211215","prefecture":"静岡県","prefecture_kana":"シズオカケン","city":"静岡市葵区","city_kana":"シズオカシアオイク","town":"羽鳥","town_kana":"ハトリ","prefecture_code":22},"1216":{"zip_code":"4211216","prefecture":"静岡県","prefecture_kana":"シズオカケン","city":"静岡市葵区","city_kana":"シズオカシアオイク","town":"羽鳥大門町","town_kana":"ハトリダイモンチョウ","prefecture_code":22},"1217":{"zip_code":"4211217","prefecture":"静岡県","prefecture_kana":"シズオカケン","city":"静岡市葵区","city_kana":"シズオカシアオイク","town":"羽鳥本町","town_kana":"ハトリホンチョウ","prefecture_code":22},"1224":{"zip_code":"4211224","prefecture":"静岡県","prefecture_kana":"シズオカケン","city":"静岡市葵区","city_kana":"シズオカシアオイク","town":"飯間","town_kana":"ハンマ","prefecture_code":22},"1403":{"zip_code":"4211403","prefecture":"静岡県","prefecture_kana":"シズオカケン","city":"静岡市葵区","city_kana":"シズオカシアオイク","town":"日向","town_kana":"ヒナタ","prefecture_code":22},"2306":{"zip_code":"4212306","prefecture":"静岡県","prefecture_kana":"シズオカケン","city":"静岡市葵区","city_kana":"シズオカシアオイク","town":"平野","town_kana":"ヒラノ","prefecture_code":22},"1306":{"zip_code":"4211306","prefecture":"静岡県","prefecture_kana":"シズオカケン","city":"静岡市葵区","city_kana":"シズオカシアオイク","town":"昼居渡","town_kana":"ヒルイド","prefecture_code":22},"2109":{"zip_code":"4212109","prefecture":"静岡県","prefecture_kana":"シズオカケン","city":"静岡市葵区","city_kana":"シズオカシアオイク","town":"福田ケ谷","town_kana":"フクダガヤ","prefecture_code":22},"1315":{"zip_code":"4211315","prefecture":"静岡県","prefecture_kana":"シズオカケン","city":"静岡市葵区","city_kana":"シズオカシアオイク","town":"富厚里","town_kana":"フコウリ","prefecture_code":22},"1221":{"zip_code":"4211221","prefecture":"静岡県","prefecture_kana":"シズオカケン","city":"静岡市葵区","city_kana":"シズオカシアオイク","town":"牧ケ谷","town_kana":"マキガヤ","prefecture_code":22},"2122":{"zip_code":"4212122","prefecture":"静岡県","prefecture_kana":"シズオカケン","city":"静岡市葵区","city_kana":"シズオカシアオイク","town":"松野","town_kana":"マツノ","prefecture_code":22},"1313":{"zip_code":"4211313","prefecture":"静岡県","prefecture_kana":"シズオカケン","city":"静岡市葵区","city_kana":"シズオカシアオイク","town":"水見色","town_kana":"ミズミイロ","prefecture_code":22},"2217":{"zip_code":"4212217","prefecture":"静岡県","prefecture_kana":"シズオカケン","city":"静岡市葵区","city_kana":"シズオカシアオイク","town":"森腰","town_kana":"モリコシ","prefecture_code":22},"1402":{"zip_code":"4211402","prefecture":"静岡県","prefecture_kana":"シズオカケン","city":"静岡市葵区","city_kana":"シズオカシアオイク","town":"諸子沢","town_kana":"モロコザワ","prefecture_code":22},"1409":{"zip_code":"4211409","prefecture":"静岡県","prefecture_kana":"シズオカケン","city":"静岡市葵区","city_kana":"シズオカシアオイク","town":"八草","town_kana":"ヤクサ","prefecture_code":22},"1202":{"zip_code":"4211202","prefecture":"静岡県","prefecture_kana":"シズオカケン","city":"静岡市葵区","city_kana":"シズオカシアオイク","town":"谷津","town_kana":"ヤツ","prefecture_code":22},"1213":{"zip_code":"4211213","prefecture":"静岡県","prefecture_kana":"シズオカケン","city":"静岡市葵区","city_kana":"シズオカシアオイク","town":"山崎","town_kana":"ヤマザキ","prefecture_code":22},"2102":{"zip_code":"4212102","prefecture":"静岡県","prefecture_kana":"シズオカケン","city":"静岡市葵区","city_kana":"シズオカシアオイク","town":"油島","town_kana":"ユジマ","prefecture_code":22},"2212":{"zip_code":"4212212","prefecture":"静岡県","prefecture_kana":"シズオカケン","city":"静岡市葵区","city_kana":"シズオカシアオイク","town":"油野","town_kana":"ユノ","prefecture_code":22},"1406":{"zip_code":"4211406","prefecture":"静岡県","prefecture_kana":"シズオカケン","city":"静岡市葵区","city_kana":"シズオカシアオイク","town":"湯ノ島","town_kana":"ユノシマ","prefecture_code":22},"2123":{"zip_code":"4212123","prefecture":"静岡県","prefecture_kana":"シズオカケン","city":"静岡市葵区","city_kana":"シズオカシアオイク","town":"油山","town_kana":"ユヤマ","prefecture_code":22},"2226":{"zip_code":"4212226","prefecture":"静岡県","prefecture_kana":"シズオカケン","city":"静岡市葵区","city_kana":"シズオカシアオイク","town":"横沢","town_kana":"ヨコサワ","prefecture_code":22},"2307":{"zip_code":"4212307","prefecture":"静岡県","prefecture_kana":"シズオカケン","city":"静岡市葵区","city_kana":"シズオカシアオイク","town":"横山","town_kana":"ヨコヤマ","prefecture_code":22},"2115":{"zip_code":"4212115","prefecture":"静岡県","prefecture_kana":"シズオカケン","city":"静岡市葵区","city_kana":"シズオカシアオイク","town":"与左衛門新田","town_kana":"ヨザエモンシンデン","prefecture_code":22},"1223":{"zip_code":"4211223","prefecture":"静岡県","prefecture_kana":"シズオカケン","city":"静岡市葵区","city_kana":"シズオカシアオイク","town":"吉津","town_kana":"ヨシヅ","prefecture_code":22},"2308":{"zip_code":"4212308","prefecture":"静岡県","prefecture_kana":"シズオカケン","city":"静岡市葵区","city_kana":"シズオカシアオイク","town":"蕨野","town_kana":"ワラビノ","prefecture_code":22},"0134":{"zip_code":"4210134","prefecture":"静岡県","prefecture_kana":"シズオカケン","city":"静岡市駿河区","city_kana":"シズオカシスルガク","town":"青木","town_kana":"アオキ","prefecture_code":22},"0105":{"zip_code":"4210105","prefecture":"静岡県","prefecture_kana":"シズオカケン","city":"静岡市駿河区","city_kana":"シズオカシスルガク","town":"宇津ノ谷","town_kana":"ウツノヤ","prefecture_code":22},"0136":{"zip_code":"4210136","prefecture":"静岡県","prefecture_kana":"シズオカケン","city":"静岡市駿河区","city_kana":"シズオカシスルガク","town":"大和田","town_kana":"オオワダ","prefecture_code":22},"0135":{"zip_code":"4210135","prefecture":"静岡県","prefecture_kana":"シズオカケン","city":"静岡市駿河区","city_kana":"シズオカシスルガク","town":"小坂","town_kana":"オサカ","prefecture_code":22},"0133":{"zip_code":"4210133","prefecture":"静岡県","prefecture_kana":"シズオカケン","city":"静岡市駿河区","city_kana":"シズオカシスルガク","town":"鎌田","town_kana":"カマタ","prefecture_code":22},"0132":{"zip_code":"4210132","prefecture":"静岡県","prefecture_kana":"シズオカケン","city":"静岡市駿河区","city_kana":"シズオカシスルガク","town":"上川原","town_kana":"カミカワハラ","prefecture_code":22},"0106":{"zip_code":"4210106","prefecture":"静岡県","prefecture_kana":"シズオカケン","city":"静岡市駿河区","city_kana":"シズオカシスルガク","town":"北丸子","town_kana":"キタマリコ","prefecture_code":22},"0116":{"zip_code":"4210116","prefecture":"静岡県","prefecture_kana":"シズオカケン","city":"静岡市駿河区","city_kana":"シズオカシスルガク","town":"光陽町","town_kana":"コウヨウチョウ","prefecture_code":22},"0113":{"zip_code":"4210113","prefecture":"静岡県","prefecture_kana":"シズオカケン","city":"静岡市駿河区","city_kana":"シズオカシスルガク","town":"下川原","town_kana":"シモカワハラ","prefecture_code":22},"0117":{"zip_code":"4210117","prefecture":"静岡県","prefecture_kana":"シズオカケン","city":"静岡市駿河区","city_kana":"シズオカシスルガク","town":"下川原南","town_kana":"シモカワハラミナミ","prefecture_code":22},"0123":{"zip_code":"4210123","prefecture":"静岡県","prefecture_kana":"シズオカケン","city":"静岡市駿河区","city_kana":"シズオカシスルガク","town":"石部","town_kana":"セキベ","prefecture_code":22},"0102":{"zip_code":"4210102","prefecture":"静岡県","prefecture_kana":"シズオカケン","city":"静岡市駿河区","city_kana":"シズオカシスルガク","town":"手越","town_kana":"テゴシ","prefecture_code":22},"0131":{"zip_code":"4210131","prefecture":"静岡県","prefecture_kana":"シズオカケン","city":"静岡市駿河区","city_kana":"シズオカシスルガク","town":"手越原","town_kana":"テゴシハラ","prefecture_code":22},"0137":{"zip_code":"4210137","prefecture":"静岡県","prefecture_kana":"シズオカケン","city":"静岡市駿河区","city_kana":"シズオカシスルガク","town":"寺田","town_kana":"テラダ","prefecture_code":22},"0112":{"zip_code":"4210112","prefecture":"静岡県","prefecture_kana":"シズオカケン","city":"静岡市駿河区","city_kana":"シズオカシスルガク","town":"東新田","town_kana":"トウシンデン","prefecture_code":22},"0121":{"zip_code":"4210121","prefecture":"静岡県","prefecture_kana":"シズオカケン","city":"静岡市駿河区","city_kana":"シズオカシスルガク","town":"広野","town_kana":"ヒロノ","prefecture_code":22},"0103":{"zip_code":"4210103","prefecture":"静岡県","prefecture_kana":"シズオカケン","city":"静岡市駿河区","city_kana":"シズオカシスルガク","town":"丸子","town_kana":"マリコ","prefecture_code":22},"0111":{"zip_code":"4210111","prefecture":"静岡県","prefecture_kana":"シズオカケン","city":"静岡市駿河区","city_kana":"シズオカシスルガク","town":"丸子新田","town_kana":"マリコシンデン","prefecture_code":22},"0104":{"zip_code":"4210104","prefecture":"静岡県","prefecture_kana":"シズオカケン","city":"静岡市駿河区","city_kana":"シズオカシスルガク","town":"丸子芹が谷町","town_kana":"マリコセリガヤチョウ","prefecture_code":22},"0115":{"zip_code":"4210115","prefecture":"静岡県","prefecture_kana":"シズオカケン","city":"静岡市駿河区","city_kana":"シズオカシスルガク","town":"みずほ","town_kana":"ミズホ","prefecture_code":22},"0101":{"zip_code":"4210101","prefecture":"静岡県","prefecture_kana":"シズオカケン","city":"静岡市駿河区","city_kana":"シズオカシスルガク","town":"向敷地","town_kana":"ムコウシキジ","prefecture_code":22},"0122":{"zip_code":"4210122","prefecture":"静岡県","prefecture_kana":"シズオカケン","city":"静岡市駿河区","city_kana":"シズオカシスルガク","town":"用宗","town_kana":"モチムネ","prefecture_code":22},"0125":{"zip_code":"4210125","prefecture":"静岡県","prefecture_kana":"シズオカケン","city":"静岡市駿河区","city_kana":"シズオカシスルガク","town":"用宗小石町","town_kana":"モチムネコイシチョウ","prefecture_code":22},"0124":{"zip_code":"4210124","prefecture":"静岡県","prefecture_kana":"シズオカケン","city":"静岡市駿河区","city_kana":"シズオカシスルガク","town":"用宗城山町","town_kana":"モチムネシロヤマチョウ","prefecture_code":22},"0126":{"zip_code":"4210126","prefecture":"静岡県","prefecture_kana":"シズオカケン","city":"静岡市駿河区","city_kana":"シズオカシスルガク","town":"用宗巴町","town_kana":"モチムネトモエチョウ","prefecture_code":22},"0114":{"zip_code":"4210114","prefecture":"静岡県","prefecture_kana":"シズオカケン","city":"静岡市駿河区","city_kana":"シズオカシスルガク","town":"桃園町","town_kana":"モモゾノチョウ","prefecture_code":22},"3203":{"zip_code":"4213203","prefecture":"静岡県","prefecture_kana":"シズオカケン","city":"静岡市清水区","city_kana":"シズオカシシミズク","town":"蒲原","town_kana":"カンバラ","prefecture_code":22},"3215":{"zip_code":"4213215","prefecture":"静岡県","prefecture_kana":"シズオカケン","city":"静岡市清水区","city_kana":"シズオカシシミズク","town":"蒲原神沢","town_kana":"カンバラカンザワ","prefecture_code":22},"3212":{"zip_code":"4213212","prefecture":"静岡県","prefecture_kana":"シズオカケン","city":"静岡市清水区","city_kana":"シズオカシシミズク","town":"蒲原小金","town_kana":"カンバラコガネ","prefecture_code":22},"3202":{"zip_code":"4213202","prefecture":"静岡県","prefecture_kana":"シズオカケン","city":"静岡市清水区","city_kana":"シズオカシシミズク","town":"蒲原新栄","town_kana":"カンバラシンエイ","prefecture_code":22},"3211":{"zip_code":"4213211","prefecture":"静岡県","prefecture_kana":"シズオカケン","city":"静岡市清水区","city_kana":"シズオカシシミズク","town":"蒲原新田","town_kana":"カンバラシンデン","prefecture_code":22},"3214":{"zip_code":"4213214","prefecture":"静岡県","prefecture_kana":"シズオカケン","city":"静岡市清水区","city_kana":"シズオカシシミズク","town":"蒲原堰沢","town_kana":"カンバラセギザワ","prefecture_code":22},"3213":{"zip_code":"4213213","prefecture":"静岡県","prefecture_kana":"シズオカケン","city":"静岡市清水区","city_kana":"シズオカシシミズク","town":"蒲原中","town_kana":"カンバラナカ","prefecture_code":22},"3201":{"zip_code":"4213201","prefecture":"静岡県","prefecture_kana":"シズオカケン","city":"静岡市清水区","city_kana":"シズオカシシミズク","town":"蒲原東","town_kana":"カンバラヒガシ","prefecture_code":22},"3103":{"zip_code":"4213103","prefecture":"静岡県","prefecture_kana":"シズオカケン","city":"静岡市清水区","city_kana":"シズオカシシミズク","town":"由比","town_kana":"ユイ","prefecture_code":22},"3107":{"zip_code":"4213107","prefecture":"静岡県","prefecture_kana":"シズオカケン","city":"静岡市清水区","city_kana":"シズオカシシミズク","town":"由比阿僧","town_kana":"ユイアソウ","prefecture_code":22},"3111":{"zip_code":"4213111","prefecture":"静岡県","prefecture_kana":"シズオカケン","city":"静岡市清水区","city_kana":"シズオカシシミズク","town":"由比今宿","town_kana":"ユイイマジュク","prefecture_code":22},"3101":{"zip_code":"4213101","prefecture":"静岡県","prefecture_kana":"シズオカケン","city":"静岡市清水区","city_kana":"シズオカシシミズク","town":"由比入山","town_kana":"ユイイリヤマ","prefecture_code":22},"3104":{"zip_code":"4213104","prefecture":"静岡県","prefecture_kana":"シズオカケン","city":"静岡市清水区","city_kana":"シズオカシシミズク","town":"由比北田","town_kana":"ユイキタダ","prefecture_code":22},"3112":{"zip_code":"4213112","prefecture":"静岡県","prefecture_kana":"シズオカケン","city":"静岡市清水区","city_kana":"シズオカシシミズク","town":"由比寺尾","town_kana":"ユイテラオ","prefecture_code":22},"3115":{"zip_code":"4213115","prefecture":"静岡県","prefecture_kana":"シズオカケン","city":"静岡市清水区","city_kana":"シズオカシシミズク","town":"由比西倉澤","town_kana":"ユイニシクラサワ","prefecture_code":22},"3106":{"zip_code":"4213106","prefecture":"静岡県","prefecture_kana":"シズオカケン","city":"静岡市清水区","city_kana":"シズオカシシミズク","town":"由比西山寺","town_kana":"ユイニシヤマデラ","prefecture_code":22},"3114":{"zip_code":"4213114","prefecture":"静岡県","prefecture_kana":"シズオカケン","city":"静岡市清水区","city_kana":"シズオカシシミズク","town":"由比東倉澤","town_kana":"ユイヒガシクラサワ","prefecture_code":22},"3102":{"zip_code":"4213102","prefecture":"静岡県","prefecture_kana":"シズオカケン","city":"静岡市清水区","city_kana":"シズオカシシミズク","town":"由比東山寺","town_kana":"ユイヒガシヤマデラ","prefecture_code":22},"3105":{"zip_code":"4213105","prefecture":"静岡県","prefecture_kana":"シズオカケン","city":"静岡市清水区","city_kana":"シズオカシシミズク","town":"由比町屋原","town_kana":"ユイマチヤハラ","prefecture_code":22},"3305":{"zip_code":"4213305","prefecture":"静岡県","prefecture_kana":"シズオカケン","city":"富士市","city_kana":"フジシ","town":"岩淵","town_kana":"イワブチ","prefecture_code":22},"3304":{"zip_code":"4213304","prefecture":"静岡県","prefecture_kana":"シズオカケン","city":"富士市","city_kana":"フジシ","town":"木島","town_kana":"キジマ","prefecture_code":22},"3301":{"zip_code":"4213301","prefecture":"静岡県","prefecture_kana":"シズオカケン","city":"富士市","city_kana":"フジシ","town":"北松野","town_kana":"キタマツノ","prefecture_code":22},"3306":{"zip_code":"4213306","prefecture":"静岡県","prefecture_kana":"シズオカケン","city":"富士市","city_kana":"フジシ","town":"中之郷","town_kana":"ナカノゴウ","prefecture_code":22},"3302":{"zip_code":"4213302","prefecture":"静岡県","prefecture_kana":"シズオカケン","city":"富士市","city_kana":"フジシ","town":"中野台","town_kana":"ナカノダイ","prefecture_code":22},"3303":{"zip_code":"4213303","prefecture":"静岡県","prefecture_kana":"シズオカケン","city":"富士市","city_kana":"フジシ","town":"南松野","town_kana":"ミナミマツノ","prefecture_code":22},"0216":{"zip_code":"4210216","prefecture":"静岡県","prefecture_kana":"シズオカケン","city":"焼津市","city_kana":"ヤイヅシ","town":"相川","town_kana":"アイカワ","prefecture_code":22},"0217":{"zip_code":"4210217","prefecture":"静岡県","prefecture_kana":"シズオカケン","city":"焼津市","city_kana":"ヤイヅシ","town":"上泉","town_kana":"カミイズミ","prefecture_code":22},"0201":{"zip_code":"4210201","prefecture":"静岡県","prefecture_kana":"シズオカケン","city":"焼津市","city_kana":"ヤイヅシ","town":"上小杉","town_kana":"カミコスギ","prefecture_code":22},"0206":{"zip_code":"4210206","prefecture":"静岡県","prefecture_kana":"シズオカケン","city":"焼津市","city_kana":"ヤイヅシ","town":"上新田","town_kana":"カミシンデン","prefecture_code":22},"0218":{"zip_code":"4210218","prefecture":"静岡県","prefecture_kana":"シズオカケン","city":"焼津市","city_kana":"ヤイヅシ","town":"下江留","town_kana":"シモエドメ","prefecture_code":22},"0202":{"zip_code":"4210202","prefecture":"静岡県","prefecture_kana":"シズオカケン","city":"焼津市","city_kana":"ヤイヅシ","town":"下小杉","town_kana":"シモコスギ","prefecture_code":22},"0204":{"zip_code":"4210204","prefecture":"静岡県","prefecture_kana":"シズオカケン","city":"焼津市","city_kana":"ヤイヅシ","town":"高新田","town_kana":"タカシンデン","prefecture_code":22},"0214":{"zip_code":"4210214","prefecture":"静岡県","prefecture_kana":"シズオカケン","city":"焼津市","city_kana":"ヤイヅシ","town":"中島","town_kana":"ナカジマ","prefecture_code":22},"0215":{"zip_code":"4210215","prefecture":"静岡県","prefecture_kana":"シズオカケン","city":"焼津市","city_kana":"ヤイヅシ","town":"西島","town_kana":"ニシジマ","prefecture_code":22},"0213":{"zip_code":"4210213","prefecture":"静岡県","prefecture_kana":"シズオカケン","city":"焼津市","city_kana":"ヤイヅシ","town":"飯淵","town_kana":"ハブチ","prefecture_code":22},"0203":{"zip_code":"4210203","prefecture":"静岡県","prefecture_kana":"シズオカケン","city":"焼津市","city_kana":"ヤイヅシ","town":"藤守","town_kana":"フジモリ","prefecture_code":22},"0205":{"zip_code":"4210205","prefecture":"静岡県","prefecture_kana":"シズオカケン","city":"焼津市","city_kana":"ヤイヅシ","town":"宗高","town_kana":"ムナダカ","prefecture_code":22},"0211":{"zip_code":"4210211","prefecture":"静岡県","prefecture_kana":"シズオカケン","city":"焼津市","city_kana":"ヤイヅシ","town":"吉永","town_kana":"ヨシナガ","prefecture_code":22},"0212":{"zip_code":"4210212","prefecture":"静岡県","prefecture_kana":"シズオカケン","city":"焼津市","city_kana":"ヤイヅシ","town":"利右衛門","town_kana":"リエモン","prefecture_code":22},"1103":{"zip_code":"4211103","prefecture":"静岡県","prefecture_kana":"シズオカケン","city":"藤枝市","city_kana":"フジエダシ","town":"岡部町青羽根","town_kana":"オカベチョウアオハネ","prefecture_code":22},"1123":{"zip_code":"4211123","prefecture":"静岡県","prefecture_kana":"シズオカケン","city":"藤枝市","city_kana":"フジエダシ","town":"岡部町入野","town_kana":"オカベチョウイリノ","prefecture_code":22},"1131":{"zip_code":"4211131","prefecture":"静岡県","prefecture_kana":"シズオカケン","city":"藤枝市","city_kana":"フジエダシ","town":"岡部町内谷","town_kana":"オカベチョウウツタニ","prefecture_code":22},"1121":{"zip_code":"4211121","prefecture":"静岡県","prefecture_kana":"シズオカケン","city":"藤枝市","city_kana":"フジエダシ","town":"岡部町岡部","town_kana":"オカベチョウオカベ","prefecture_code":22},"1113":{"zip_code":"4211113","prefecture":"静岡県","prefecture_kana":"シズオカケン","city":"藤枝市","city_kana":"フジエダシ","town":"岡部町桂島","town_kana":"オカベチョウカツラシマ","prefecture_code":22},"1122":{"zip_code":"4211122","prefecture":"静岡県","prefecture_kana":"シズオカケン","city":"藤枝市","city_kana":"フジエダシ","town":"岡部町子持坂","town_kana":"オカベチョウコモチザカ","prefecture_code":22},"1101":{"zip_code":"4211101","prefecture":"静岡県","prefecture_kana":"シズオカケン","city":"藤枝市","city_kana":"フジエダシ","town":"岡部町玉取","town_kana":"オカベチョウタマトリ","prefecture_code":22},"1112":{"zip_code":"4211112","prefecture":"静岡県","prefecture_kana":"シズオカケン","city":"藤枝市","city_kana":"フジエダシ","town":"岡部町殿","town_kana":"オカベチョウトノ","prefecture_code":22},"1115":{"zip_code":"4211115","prefecture":"静岡県","prefecture_kana":"シズオカケン","city":"藤枝市","city_kana":"フジエダシ","town":"岡部町新舟","town_kana":"オカベチョウニュウフネ","prefecture_code":22},"1111":{"zip_code":"4211111","prefecture":"静岡県","prefecture_kana":"シズオカケン","city":"藤枝市","city_kana":"フジエダシ","town":"岡部町野田沢","town_kana":"オカベチョウノタザワ","prefecture_code":22},"1114":{"zip_code":"4211114","prefecture":"静岡県","prefecture_kana":"シズオカケン","city":"藤枝市","city_kana":"フジエダシ","town":"岡部町羽佐間","town_kana":"オカベチョウハサマ","prefecture_code":22},"1102":{"zip_code":"4211102","prefecture":"静岡県","prefecture_kana":"シズオカケン","city":"藤枝市","city_kana":"フジエダシ","town":"岡部町宮島","town_kana":"オカベチョウミヤジマ","prefecture_code":22},"1132":{"zip_code":"4211132","prefecture":"静岡県","prefecture_kana":"シズオカケン","city":"藤枝市","city_kana":"フジエダシ","town":"岡部町三輪","town_kana":"オカベチョウミワ","prefecture_code":22},"1124":{"zip_code":"4211124","prefecture":"静岡県","prefecture_kana":"シズオカケン","city":"藤枝市","city_kana":"フジエダシ","town":"岡部町村良","town_kana":"オカベチョウムララ","prefecture_code":22},"0500":{"zip_code":"4210500","prefecture":"静岡県","prefecture_kana":"シズオカケン","city":"牧之原市","city_kana":"マキノハラシ","town":"以下に掲載がない場合","town_kana":"イカニケイサイガナイバアイ","prefecture_code":22},"0512":{"zip_code":"4210512","prefecture":"静岡県","prefecture_kana":"シズオカケン","city":"牧之原市","city_kana":"マキノハラシ","town":"大江","town_kana":"オオエ","prefecture_code":22},"0526":{"zip_code":"4210526","prefecture":"静岡県","prefecture_kana":"シズオカケン","city":"牧之原市","city_kana":"マキノハラシ","town":"大沢","town_kana":"オオサワ","prefecture_code":22},"0506":{"zip_code":"4210506","prefecture":"静岡県","prefecture_kana":"シズオカケン","city":"牧之原市","city_kana":"マキノハラシ","town":"大寄","town_kana":"オオヨリ","prefecture_code":22},"0517":{"zip_code":"4210517","prefecture":"静岡県","prefecture_kana":"シズオカケン","city":"牧之原市","city_kana":"マキノハラシ","town":"男神","town_kana":"オカミ","prefecture_code":22},"0531":{"zip_code":"4210531","prefecture":"静岡県","prefecture_kana":"シズオカケン","city":"牧之原市","city_kana":"マキノハラシ","town":"落居","town_kana":"オチイ","prefecture_code":22},"0535":{"zip_code":"4210535","prefecture":"静岡県","prefecture_kana":"シズオカケン","city":"牧之原市","city_kana":"マキノハラシ","town":"笠名","town_kana":"カサナ","prefecture_code":22},"0511":{"zip_code":"4210511","prefecture":"静岡県","prefecture_kana":"シズオカケン","city":"牧之原市","city_kana":"マキノハラシ","town":"片浜","town_kana":"カタハマ","prefecture_code":22},"0406":{"zip_code":"4210406","prefecture":"静岡県","prefecture_kana":"シズオカケン","city":"牧之原市","city_kana":"マキノハラシ","town":"勝田","town_kana":"カツタ","prefecture_code":22},"0402":{"zip_code":"4210402","prefecture":"静岡県","prefecture_kana":"シズオカケン","city":"牧之原市","city_kana":"マキノハラシ","town":"勝間","town_kana":"カツマ","prefecture_code":22},"0414":{"zip_code":"4210414","prefecture":"静岡県","prefecture_kana":"シズオカケン","city":"牧之原市","city_kana":"マキノハラシ","town":"勝俣","town_kana":"カツマタ","prefecture_code":22},"0525":{"zip_code":"4210525","prefecture":"静岡県","prefecture_kana":"シズオカケン","city":"牧之原市","city_kana":"マキノハラシ","town":"鬼女新田","town_kana":"キジョシンデン","prefecture_code":22},"0401":{"zip_code":"4210401","prefecture":"静岡県","prefecture_kana":"シズオカケン","city":"牧之原市","city_kana":"マキノハラシ","town":"切山","town_kana":"キリヤマ","prefecture_code":22},"0504":{"zip_code":"4210504","prefecture":"静岡県","prefecture_kana":"シズオカケン","city":"牧之原市","city_kana":"マキノハラシ","town":"黒子","town_kana":"クロコ","prefecture_code":22},"0515":{"zip_code":"4210515","prefecture":"静岡県","prefecture_kana":"シズオカケン","city":"牧之原市","city_kana":"マキノハラシ","town":"西山寺","town_kana":"サイサンジ","prefecture_code":22},"0411":{"zip_code":"4210411","prefecture":"静岡県","prefecture_kana":"シズオカケン","city":"牧之原市","city_kana":"マキノハラシ","town":"坂口","town_kana":"サカグチ","prefecture_code":22},"0412":{"zip_code":"4210412","prefecture":"静岡県","prefecture_kana":"シズオカケン","city":"牧之原市","city_kana":"マキノハラシ","town":"坂部","town_kana":"サカベ","prefecture_code":22},"0522":{"zip_code":"4210522","prefecture":"静岡県","prefecture_kana":"シズオカケン","city":"牧之原市","city_kana":"マキノハラシ","town":"相良","town_kana":"サガラ","prefecture_code":22},"0527":{"zip_code":"4210527","prefecture":"静岡県","prefecture_kana":"シズオカケン","city":"牧之原市","city_kana":"マキノハラシ","town":"汐見台","town_kana":"シオミダイ","prefecture_code":22},"0404":{"zip_code":"4210404","prefecture":"静岡県","prefecture_kana":"シズオカケン","city":"牧之原市","city_kana":"マキノハラシ","town":"静谷","town_kana":"シズタニ","prefecture_code":22},"0422":{"zip_code":"4210422","prefecture":"静岡県","prefecture_kana":"シズオカケン","city":"牧之原市","city_kana":"マキノハラシ","town":"静波","town_kana":"シズナミ","prefecture_code":22},"0532":{"zip_code":"4210532","prefecture":"静岡県","prefecture_kana":"シズオカケン","city":"牧之原市","city_kana":"マキノハラシ","town":"地頭方","town_kana":"ジトウガタ","prefecture_code":22},"0408":{"zip_code":"4210408","prefecture":"静岡県","prefecture_kana":"シズオカケン","city":"牧之原市","city_kana":"マキノハラシ","town":"嶋","town_kana":"シマ","prefecture_code":22},"0405":{"zip_code":"4210405","prefecture":"静岡県","prefecture_kana":"シズオカケン","city":"牧之原市","city_kana":"マキノハラシ","town":"白井（１２９１〜１６８２、１８３９〜１８４０番地）","town_kana":"シライ(1291-1682、1839-1840バンチ)","prefecture_code":22},"0502":{"zip_code":"4210502","prefecture":"静岡県","prefecture_kana":"シズオカケン","city":"牧之原市","city_kana":"マキノハラシ","town":"白井（その他）","town_kana":"シライ(ソノタ)","prefecture_code":22},"0533":{"zip_code":"4210533","prefecture":"静岡県","prefecture_kana":"シズオカケン","city":"牧之原市","city_kana":"マキノハラシ","town":"新庄","town_kana":"シンショウ","prefecture_code":22},"0514":{"zip_code":"4210514","prefecture":"静岡県","prefecture_kana":"シズオカケン","city":"牧之原市","city_kana":"マキノハラシ","town":"菅ケ谷","town_kana":"スゲガヤ","prefecture_code":22},"0524":{"zip_code":"4210524","prefecture":"静岡県","prefecture_kana":"シズオカケン","city":"牧之原市","city_kana":"マキノハラシ","town":"須々木","town_kana":"ススキ","prefecture_code":22},"0415":{"zip_code":"4210415","prefecture":"静岡県","prefecture_kana":"シズオカケン","city":"牧之原市","city_kana":"マキノハラシ","town":"道場","town_kana":"ドウジョウ","prefecture_code":22},"0403":{"zip_code":"4210403","prefecture":"静岡県","prefecture_kana":"シズオカケン","city":"牧之原市","city_kana":"マキノハラシ","town":"中","town_kana":"ナカ","prefecture_code":22},"0505":{"zip_code":"4210505","prefecture":"静岡県","prefecture_kana":"シズオカケン","city":"牧之原市","city_kana":"マキノハラシ","town":"中西","town_kana":"ナカニシ","prefecture_code":22},"0508":{"zip_code":"4210508","prefecture":"静岡県","prefecture_kana":"シズオカケン","city":"牧之原市","city_kana":"マキノハラシ","town":"西萩間","town_kana":"ニシハギマ","prefecture_code":22},"0413":{"zip_code":"4210413","prefecture":"静岡県","prefecture_kana":"シズオカケン","city":"牧之原市","city_kana":"マキノハラシ","town":"仁田","town_kana":"ニタ","prefecture_code":22},"0407":{"zip_code":"4210407","prefecture":"静岡県","prefecture_kana":"シズオカケン","city":"牧之原市","city_kana":"マキノハラシ","town":"布引原","town_kana":"ヌノヒキハラ","prefecture_code":22},"0523":{"zip_code":"4210523","prefecture":"静岡県","prefecture_kana":"シズオカケン","city":"牧之原市","city_kana":"マキノハラシ","town":"波津","town_kana":"ハヅ","prefecture_code":22},"0501":{"zip_code":"4210501","prefecture":"静岡県","prefecture_kana":"シズオカケン","city":"牧之原市","city_kana":"マキノハラシ","town":"東萩間","town_kana":"ヒガシハギマ","prefecture_code":22},"0503":{"zip_code":"4210503","prefecture":"静岡県","prefecture_kana":"シズオカケン","city":"牧之原市","city_kana":"マキノハラシ","town":"蛭ケ谷","town_kana":"ヒルガヤ","prefecture_code":22},"0521":{"zip_code":"4210521","prefecture":"静岡県","prefecture_kana":"シズオカケン","city":"牧之原市","city_kana":"マキノハラシ","town":"福岡","town_kana":"フクオカ","prefecture_code":22},"0421":{"zip_code":"4210421","prefecture":"静岡県","prefecture_kana":"シズオカケン","city":"牧之原市","city_kana":"マキノハラシ","town":"細江","town_kana":"ホソエ","prefecture_code":22},"0534":{"zip_code":"4210534","prefecture":"静岡県","prefecture_kana":"シズオカケン","city":"牧之原市","city_kana":"マキノハラシ","town":"堀野新田","town_kana":"ホリノシンデン","prefecture_code":22},"0509":{"zip_code":"4210509","prefecture":"静岡県","prefecture_kana":"シズオカケン","city":"牧之原市","city_kana":"マキノハラシ","town":"牧之原（１３６〜１４４番地）","town_kana":"マキノハラ(136-144バンチ)","prefecture_code":22},"0409":{"zip_code":"4210409","prefecture":"静岡県","prefecture_kana":"シズオカケン","city":"牧之原市","city_kana":"マキノハラシ","town":"牧之原（その他）","town_kana":"マキノハラ(ソノタ)","prefecture_code":22},"0513":{"zip_code":"4210513","prefecture":"静岡県","prefecture_kana":"シズオカケン","city":"牧之原市","city_kana":"マキノハラシ","town":"松本","town_kana":"マツモト","prefecture_code":22},"0516":{"zip_code":"4210516","prefecture":"静岡県","prefecture_kana":"シズオカケン","city":"牧之原市","city_kana":"マキノハラシ","town":"女神","town_kana":"メカミ","prefecture_code":22},"0507":{"zip_code":"4210507","prefecture":"静岡県","prefecture_kana":"シズオカケン","city":"牧之原市","city_kana":"マキノハラシ","town":"和田","town_kana":"ワダ","prefecture_code":22},"0300":{"zip_code":"4210300","prefecture":"静岡県","prefecture_kana":"シズオカケン","city":"榛原郡吉田町","city_kana":"ハイバラグンヨシダチョウ","town":"以下に掲載がない場合","town_kana":"イカニケイサイガナイバアイ","prefecture_code":22},"0305":{"zip_code":"4210305","prefecture":"静岡県","prefecture_kana":"シズオカケン","city":"榛原郡吉田町","city_kana":"ハイバラグンヨシダチョウ","town":"大幡","town_kana":"オオハタ","prefecture_code":22},"0303":{"zip_code":"4210303","prefecture":"静岡県","prefecture_kana":"シズオカケン","city":"榛原郡吉田町","city_kana":"ハイバラグンヨシダチョウ","town":"片岡","town_kana":"カタオカ","prefecture_code":22},"0302":{"zip_code":"4210302","prefecture":"静岡県","prefecture_kana":"シズオカケン","city":"榛原郡吉田町","city_kana":"ハイバラグンヨシダチョウ","town":"川尻","town_kana":"カワシリ","prefecture_code":22},"0304":{"zip_code":"4210304","prefecture":"静岡県","prefecture_kana":"シズオカケン","city":"榛原郡吉田町","city_kana":"ハイバラグンヨシダチョウ","town":"神戸","town_kana":"カンド","prefecture_code":22},"0301":{"zip_code":"4210301","prefecture":"静岡県","prefecture_kana":"シズオカケン","city":"榛原郡吉田町","city_kana":"ハイバラグンヨシダチョウ","town":"住吉","town_kana":"スミヨシ","prefecture_code":22}}