{"0000":{"zip_code":"4250000","prefecture":"静岡県","prefecture_kana":"シズオカケン","city":"焼津市","city_kana":"ヤイヅシ","town":"以下に掲載がない場合","town_kana":"イカニケイサイガナイバアイ","prefecture_code":22},"0023":{"zip_code":"4250023","prefecture":"静岡県","prefecture_kana":"シズオカケン","city":"焼津市","city_kana":"ヤイヅシ","town":"新屋","town_kana":"アラヤ","prefecture_code":22},"0041":{"zip_code":"4250041","prefecture":"静岡県","prefecture_kana":"シズオカケン","city":"焼津市","city_kana":"ヤイヅシ","town":"石津","town_kana":"イシヅ","prefecture_code":22},"0043":{"zip_code":"4250043","prefecture":"静岡県","prefecture_kana":"シズオカケン","city":"焼津市","city_kana":"ヤイヅシ","town":"石津中町","town_kana":"イシヅナカチョウ","prefecture_code":22},"0042":{"zip_code":"4250042","prefecture":"静岡県","prefecture_kana":"シズオカケン","city":"焼津市","city_kana":"ヤイヅシ","town":"石津港町","town_kana":"イシヅミナトチョウ","prefecture_code":22},"0044":{"zip_code":"4250044","prefecture":"静岡県","prefecture_kana":"シズオカケン","city":"焼津市","city_kana":"ヤイヅシ","town":"石津向町","town_kana":"イシヅムカイチョウ","prefecture_code":22},"0015":{"zip_code":"4250015","prefecture":"静岡県","prefecture_kana":"シズオカケン","city":"焼津市","city_kana":"ヤイヅシ","town":"石脇上","town_kana":"イシワキカミ","prefecture_code":22},"0016":{"zip_code":"4250016","prefecture":"静岡県","prefecture_kana":"シズオカケン","city":"焼津市","city_kana":"ヤイヅシ","town":"石脇下","town_kana":"イシワキシモ","prefecture_code":22},"0054":{"zip_code":"4250054","prefecture":"静岡県","prefecture_kana":"シズオカケン","city":"焼津市","city_kana":"ヤイヅシ","town":"一色","town_kana":"イッシキ","prefecture_code":22},"0032":{"zip_code":"4250032","prefecture":"静岡県","prefecture_kana":"シズオカケン","city":"焼津市","city_kana":"ヤイヅシ","town":"鰯ケ島","town_kana":"イワシガシマ","prefecture_code":22},"0028":{"zip_code":"4250028","prefecture":"静岡県","prefecture_kana":"シズオカケン","city":"焼津市","city_kana":"ヤイヅシ","town":"駅北","town_kana":"エキキタ","prefecture_code":22},"0092":{"zip_code":"4250092","prefecture":"静岡県","prefecture_kana":"シズオカケン","city":"焼津市","city_kana":"ヤイヅシ","town":"越後島","town_kana":"エチゴシマ","prefecture_code":22},"0083":{"zip_code":"4250083","prefecture":"静岡県","prefecture_kana":"シズオカケン","city":"焼津市","city_kana":"ヤイヅシ","town":"大","town_kana":"オオ","prefecture_code":22},"0066":{"zip_code":"4250066","prefecture":"静岡県","prefecture_kana":"シズオカケン","city":"焼津市","city_kana":"ヤイヅシ","town":"大島","town_kana":"オオジマ","prefecture_code":22},"0069":{"zip_code":"4250069","prefecture":"静岡県","prefecture_kana":"シズオカケン","city":"焼津市","city_kana":"ヤイヅシ","town":"大島新田","town_kana":"オオシマシンデン","prefecture_code":22},"0072":{"zip_code":"4250072","prefecture":"静岡県","prefecture_kana":"シズオカケン","city":"焼津市","city_kana":"ヤイヅシ","town":"大住","town_kana":"オオズミ","prefecture_code":22},"0082":{"zip_code":"4250082","prefecture":"静岡県","prefecture_kana":"シズオカケン","city":"焼津市","city_kana":"ヤイヅシ","town":"大村","town_kana":"オオムラ","prefecture_code":22},"0084":{"zip_code":"4250084","prefecture":"静岡県","prefecture_kana":"シズオカケン","city":"焼津市","city_kana":"ヤイヅシ","town":"大村新田","town_kana":"オオムラシンデン","prefecture_code":22},"0013":{"zip_code":"4250013","prefecture":"静岡県","prefecture_kana":"シズオカケン","city":"焼津市","city_kana":"ヤイヅシ","town":"岡当目","town_kana":"オカトウメ","prefecture_code":22},"0011":{"zip_code":"4250011","prefecture":"静岡県","prefecture_kana":"シズオカケン","city":"焼津市","city_kana":"ヤイヅシ","town":"小浜","town_kana":"オバマ","prefecture_code":22},"0073":{"zip_code":"4250073","prefecture":"静岡県","prefecture_kana":"シズオカケン","city":"焼津市","city_kana":"ヤイヅシ","town":"小柳津","town_kana":"オヤイヅ","prefecture_code":22},"0005":{"zip_code":"4250005","prefecture":"静岡県","prefecture_kana":"シズオカケン","city":"焼津市","city_kana":"ヤイヅシ","town":"方ノ上","town_kana":"カタノカミ","prefecture_code":22},"0058":{"zip_code":"4250058","prefecture":"静岡県","prefecture_kana":"シズオカケン","city":"焼津市","city_kana":"ヤイヅシ","town":"北新田","town_kana":"キタシンデン","prefecture_code":22},"0024":{"zip_code":"4250024","prefecture":"静岡県","prefecture_kana":"シズオカケン","city":"焼津市","city_kana":"ヤイヅシ","town":"北浜通","town_kana":"キタハマドオリ","prefecture_code":22},"0077":{"zip_code":"4250077","prefecture":"静岡県","prefecture_kana":"シズオカケン","city":"焼津市","city_kana":"ヤイヅシ","town":"五ケ堀之内","town_kana":"ゴカホリノウチ","prefecture_code":22},"0033":{"zip_code":"4250033","prefecture":"静岡県","prefecture_kana":"シズオカケン","city":"焼津市","city_kana":"ヤイヅシ","town":"小川","town_kana":"コガワ","prefecture_code":22},"0031":{"zip_code":"4250031","prefecture":"静岡県","prefecture_kana":"シズオカケン","city":"焼津市","city_kana":"ヤイヅシ","town":"小川新町","town_kana":"コガワシンマチ","prefecture_code":22},"0086":{"zip_code":"4250086","prefecture":"静岡県","prefecture_kana":"シズオカケン","city":"焼津市","city_kana":"ヤイヅシ","town":"小土","town_kana":"コヒジ","prefecture_code":22},"0076":{"zip_code":"4250076","prefecture":"静岡県","prefecture_kana":"シズオカケン","city":"焼津市","city_kana":"ヤイヅシ","town":"小屋敷","town_kana":"コヤシキ","prefecture_code":22},"0027":{"zip_code":"4250027","prefecture":"静岡県","prefecture_kana":"シズオカケン","city":"焼津市","city_kana":"ヤイヅシ","town":"栄町","town_kana":"サカエマチ","prefecture_code":22},"0004":{"zip_code":"4250004","prefecture":"静岡県","prefecture_kana":"シズオカケン","city":"焼津市","city_kana":"ヤイヅシ","town":"坂本","town_kana":"サカモト","prefecture_code":22},"0046":{"zip_code":"4250046","prefecture":"静岡県","prefecture_kana":"シズオカケン","city":"焼津市","city_kana":"ヤイヅシ","town":"三右衛門新田","town_kana":"サンウエモンシンデン","prefecture_code":22},"0071":{"zip_code":"4250071","prefecture":"静岡県","prefecture_kana":"シズオカケン","city":"焼津市","city_kana":"ヤイヅシ","town":"三ケ名","town_kana":"サンガミョウ","prefecture_code":22},"0085":{"zip_code":"4250085","prefecture":"静岡県","prefecture_kana":"シズオカケン","city":"焼津市","city_kana":"ヤイヅシ","town":"塩津","town_kana":"シオツ","prefecture_code":22},"0057":{"zip_code":"4250057","prefecture":"静岡県","prefecture_kana":"シズオカケン","city":"焼津市","city_kana":"ヤイヅシ","town":"下小田","town_kana":"シモオダ","prefecture_code":22},"0056":{"zip_code":"4250056","prefecture":"静岡県","prefecture_kana":"シズオカケン","city":"焼津市","city_kana":"ヤイヅシ","town":"下小田中町","town_kana":"シモオダナカマチ","prefecture_code":22},"0067":{"zip_code":"4250067","prefecture":"静岡県","prefecture_kana":"シズオカケン","city":"焼津市","city_kana":"ヤイヅシ","town":"治長請所","town_kana":"ジチョウウケショ","prefecture_code":22},"0025":{"zip_code":"4250025","prefecture":"静岡県","prefecture_kana":"シズオカケン","city":"焼津市","city_kana":"ヤイヅシ","town":"城之腰","town_kana":"ジョウノコシ","prefecture_code":22},"0053":{"zip_code":"4250053","prefecture":"静岡県","prefecture_kana":"シズオカケン","city":"焼津市","city_kana":"ヤイヅシ","town":"すみれ台","town_kana":"スミレダイ","prefecture_code":22},"0006":{"zip_code":"4250006","prefecture":"静岡県","prefecture_kana":"シズオカケン","city":"焼津市","city_kana":"ヤイヅシ","town":"関方","town_kana":"セキガタ","prefecture_code":22},"0065":{"zip_code":"4250065","prefecture":"静岡県","prefecture_kana":"シズオカケン","city":"焼津市","city_kana":"ヤイヅシ","town":"惣右衛門","town_kana":"ソウウエモン","prefecture_code":22},"0081":{"zip_code":"4250081","prefecture":"静岡県","prefecture_kana":"シズオカケン","city":"焼津市","city_kana":"ヤイヅシ","town":"大栄町","town_kana":"ダイエイチョウ","prefecture_code":22},"0088":{"zip_code":"4250088","prefecture":"静岡県","prefecture_kana":"シズオカケン","city":"焼津市","city_kana":"ヤイヅシ","town":"大覚寺","town_kana":"ダイカクジ","prefecture_code":22},"0003":{"zip_code":"4250003","prefecture":"静岡県","prefecture_kana":"シズオカケン","city":"焼津市","city_kana":"ヤイヅシ","town":"高崎","town_kana":"タカサキ","prefecture_code":22},"0052":{"zip_code":"4250052","prefecture":"静岡県","prefecture_kana":"シズオカケン","city":"焼津市","city_kana":"ヤイヅシ","town":"田尻","town_kana":"タジリ","prefecture_code":22},"0051":{"zip_code":"4250051","prefecture":"静岡県","prefecture_kana":"シズオカケン","city":"焼津市","city_kana":"ヤイヅシ","town":"田尻北","town_kana":"タジリキタ","prefecture_code":22},"0055":{"zip_code":"4250055","prefecture":"静岡県","prefecture_kana":"シズオカケン","city":"焼津市","city_kana":"ヤイヅシ","town":"道原","town_kana":"ドウバラ","prefecture_code":22},"0014":{"zip_code":"4250014","prefecture":"静岡県","prefecture_kana":"シズオカケン","city":"焼津市","city_kana":"ヤイヅシ","town":"中里","town_kana":"ナカザト","prefecture_code":22},"0068":{"zip_code":"4250068","prefecture":"静岡県","prefecture_kana":"シズオカケン","city":"焼津市","city_kana":"ヤイヅシ","town":"中新田","town_kana":"ナカシンデン","prefecture_code":22},"0061":{"zip_code":"4250061","prefecture":"静岡県","prefecture_kana":"シズオカケン","city":"焼津市","city_kana":"ヤイヅシ","town":"中根","town_kana":"ナカネ","prefecture_code":22},"0062":{"zip_code":"4250062","prefecture":"静岡県","prefecture_kana":"シズオカケン","city":"焼津市","city_kana":"ヤイヅシ","town":"中根新田","town_kana":"ナカネシンデン","prefecture_code":22},"0021":{"zip_code":"4250021","prefecture":"静岡県","prefecture_kana":"シズオカケン","city":"焼津市","city_kana":"ヤイヅシ","town":"中港","town_kana":"ナカミナト","prefecture_code":22},"0036":{"zip_code":"4250036","prefecture":"静岡県","prefecture_kana":"シズオカケン","city":"焼津市","city_kana":"ヤイヅシ","town":"西小川","town_kana":"ニシコガワ","prefecture_code":22},"0075":{"zip_code":"4250075","prefecture":"静岡県","prefecture_kana":"シズオカケン","city":"焼津市","city_kana":"ヤイヅシ","town":"西焼津","town_kana":"ニシヤイヅ","prefecture_code":22},"0045":{"zip_code":"4250045","prefecture":"静岡県","prefecture_kana":"シズオカケン","city":"焼津市","city_kana":"ヤイヅシ","town":"祢宜島","town_kana":"ネギシマ","prefecture_code":22},"0017":{"zip_code":"4250017","prefecture":"静岡県","prefecture_kana":"シズオカケン","city":"焼津市","city_kana":"ヤイヅシ","town":"野秋","town_kana":"ノアキ","prefecture_code":22},"0001":{"zip_code":"4250001","prefecture":"静岡県","prefecture_kana":"シズオカケン","city":"焼津市","city_kana":"ヤイヅシ","town":"花沢","town_kana":"ハナザワ","prefecture_code":22},"0012":{"zip_code":"4250012","prefecture":"静岡県","prefecture_kana":"シズオカケン","city":"焼津市","city_kana":"ヤイヅシ","town":"浜当目","town_kana":"ハマトウメ","prefecture_code":22},"0035":{"zip_code":"4250035","prefecture":"静岡県","prefecture_kana":"シズオカケン","city":"焼津市","city_kana":"ヤイヅシ","town":"東小川","town_kana":"ヒガシコガワ","prefecture_code":22},"0087":{"zip_code":"4250087","prefecture":"静岡県","prefecture_kana":"シズオカケン","city":"焼津市","city_kana":"ヤイヅシ","town":"保福島","town_kana":"ホフクジマ","prefecture_code":22},"0063":{"zip_code":"4250063","prefecture":"静岡県","prefecture_kana":"シズオカケン","city":"焼津市","city_kana":"ヤイヅシ","town":"本中根","town_kana":"ホンナカネ","prefecture_code":22},"0022":{"zip_code":"4250022","prefecture":"静岡県","prefecture_kana":"シズオカケン","city":"焼津市","city_kana":"ヤイヅシ","town":"本町","town_kana":"ホンマチ","prefecture_code":22},"0064":{"zip_code":"4250064","prefecture":"静岡県","prefecture_kana":"シズオカケン","city":"焼津市","city_kana":"ヤイヅシ","town":"三和","town_kana":"ミワ","prefecture_code":22},"0007":{"zip_code":"4250007","prefecture":"静岡県","prefecture_kana":"シズオカケン","city":"焼津市","city_kana":"ヤイヅシ","town":"策牛","town_kana":"ムチウシ","prefecture_code":22},"0026":{"zip_code":"4250026","prefecture":"静岡県","prefecture_kana":"シズオカケン","city":"焼津市","city_kana":"ヤイヅシ","town":"焼津","town_kana":"ヤイヅ","prefecture_code":22},"0091":{"zip_code":"4250091","prefecture":"静岡県","prefecture_kana":"シズオカケン","city":"焼津市","city_kana":"ヤイヅシ","town":"八楠","town_kana":"ヤグス","prefecture_code":22},"0074":{"zip_code":"4250074","prefecture":"静岡県","prefecture_kana":"シズオカケン","city":"焼津市","city_kana":"ヤイヅシ","town":"柳新屋","town_kana":"ヤナギアラヤ","prefecture_code":22},"0002":{"zip_code":"4250002","prefecture":"静岡県","prefecture_kana":"シズオカケン","city":"焼津市","city_kana":"ヤイヅシ","town":"吉津","town_kana":"ヨシヅ","prefecture_code":22},"0034":{"zip_code":"4250034","prefecture":"静岡県","prefecture_kana":"シズオカケン","city":"焼津市","city_kana":"ヤイヅシ","town":"与惣次","town_kana":"ヨソウジ","prefecture_code":22}}