{"0000":{"zip_code":"4260000","prefecture":"静岡県","prefecture_kana":"シズオカケン","city":"藤枝市","city_kana":"フジエダシ","town":"","town_kana":"","prefecture_code":22},"0037":{"zip_code":"4260037","prefecture":"静岡県","prefecture_kana":"シズオカケン","city":"藤枝市","city_kana":"フジエダシ","town":"青木","town_kana":"アオキ","prefecture_code":22},"0066":{"zip_code":"4260066","prefecture":"静岡県","prefecture_kana":"シズオカケン","city":"藤枝市","city_kana":"フジエダシ","town":"青葉町","town_kana":"アオバチョウ","prefecture_code":22},"0081":{"zip_code":"4260081","prefecture":"静岡県","prefecture_kana":"シズオカケン","city":"藤枝市","city_kana":"フジエダシ","town":"旭が丘","town_kana":"アサヒガオカ","prefecture_code":22},"0015":{"zip_code":"4260015","prefecture":"静岡県","prefecture_kana":"シズオカケン","city":"藤枝市","city_kana":"フジエダシ","town":"五十海","town_kana":"イカルミ","prefecture_code":22},"0045":{"zip_code":"4260045","prefecture":"静岡県","prefecture_kana":"シズオカケン","city":"藤枝市","city_kana":"フジエダシ","town":"泉町","town_kana":"イズミチョウ","prefecture_code":22},"0022":{"zip_code":"4260022","prefecture":"静岡県","prefecture_kana":"シズオカケン","city":"藤枝市","city_kana":"フジエダシ","town":"稲川","town_kana":"イナガワ","prefecture_code":22},"0007":{"zip_code":"4260007","prefecture":"静岡県","prefecture_kana":"シズオカケン","city":"藤枝市","city_kana":"フジエダシ","town":"潮","town_kana":"ウシオ","prefecture_code":22},"0076":{"zip_code":"4260076","prefecture":"静岡県","prefecture_kana":"シズオカケン","city":"藤枝市","city_kana":"フジエダシ","town":"内瀬戸","town_kana":"ウチセト","prefecture_code":22},"0034":{"zip_code":"4260034","prefecture":"静岡県","prefecture_kana":"シズオカケン","city":"藤枝市","city_kana":"フジエダシ","town":"駅前","town_kana":"エキマエ","prefecture_code":22},"0051":{"zip_code":"4260051","prefecture":"静岡県","prefecture_kana":"シズオカケン","city":"藤枝市","city_kana":"フジエダシ","town":"大洲","town_kana":"オオス","prefecture_code":22},"0017":{"zip_code":"4260017","prefecture":"静岡県","prefecture_kana":"シズオカケン","city":"藤枝市","city_kana":"フジエダシ","town":"大手","town_kana":"オオテ","prefecture_code":22},"0026":{"zip_code":"4260026","prefecture":"静岡県","prefecture_kana":"シズオカケン","city":"藤枝市","city_kana":"フジエダシ","town":"岡出山","town_kana":"オカデヤマ","prefecture_code":22},"0087":{"zip_code":"4260087","prefecture":"静岡県","prefecture_kana":"シズオカケン","city":"藤枝市","city_kana":"フジエダシ","town":"音羽町","town_kana":"オトワチョウ","prefecture_code":22},"0008":{"zip_code":"4260008","prefecture":"静岡県","prefecture_kana":"シズオカケン","city":"藤枝市","city_kana":"フジエダシ","town":"鬼島","town_kana":"オニジマ","prefecture_code":22},"0036":{"zip_code":"4260036","prefecture":"静岡県","prefecture_kana":"シズオカケン","city":"藤枝市","city_kana":"フジエダシ","town":"上青島","town_kana":"カミアオジマ","prefecture_code":22},"0004":{"zip_code":"4260004","prefecture":"静岡県","prefecture_kana":"シズオカケン","city":"藤枝市","city_kana":"フジエダシ","town":"上当間","town_kana":"カミドウマ","prefecture_code":22},"0202":{"zip_code":"4260202","prefecture":"静岡県","prefecture_kana":"シズオカケン","city":"藤枝市","city_kana":"フジエダシ","town":"上藪田","town_kana":"カミヤブタ","prefecture_code":22},"0001":{"zip_code":"4260001","prefecture":"静岡県","prefecture_kana":"シズオカケン","city":"藤枝市","city_kana":"フジエダシ","town":"仮宿","town_kana":"カリヤド","prefecture_code":22},"0024":{"zip_code":"4260024","prefecture":"静岡県","prefecture_kana":"シズオカケン","city":"藤枝市","city_kana":"フジエダシ","town":"鬼岩寺","town_kana":"キガンジ","prefecture_code":22},"0212":{"zip_code":"4260212","prefecture":"静岡県","prefecture_kana":"シズオカケン","city":"藤枝市","city_kana":"フジエダシ","town":"北方","town_kana":"キタガタ","prefecture_code":22},"0064":{"zip_code":"4260064","prefecture":"静岡県","prefecture_kana":"シズオカケン","city":"藤枝市","city_kana":"フジエダシ","town":"久兵衛市右衛門請新田","town_kana":"キュウベエイチウエモンウケシンデン","prefecture_code":22},"0223":{"zip_code":"4260223","prefecture":"静岡県","prefecture_kana":"シズオカケン","city":"藤枝市","city_kana":"フジエダシ","town":"清里","town_kana":"キヨサト","prefecture_code":22},"0054":{"zip_code":"4260054","prefecture":"静岡県","prefecture_kana":"シズオカケン","city":"藤枝市","city_kana":"フジエダシ","town":"源助","town_kana":"ゲンスケ","prefecture_code":22},"0033":{"zip_code":"4260033","prefecture":"静岡県","prefecture_kana":"シズオカケン","city":"藤枝市","city_kana":"フジエダシ","town":"小石川町","town_kana":"コイシガワチョウ","prefecture_code":22},"0079":{"zip_code":"4260079","prefecture":"静岡県","prefecture_kana":"シズオカケン","city":"藤枝市","city_kana":"フジエダシ","town":"光洋台","town_kana":"コウヨウダイ","prefecture_code":22},"0016":{"zip_code":"4260016","prefecture":"静岡県","prefecture_kana":"シズオカケン","city":"藤枝市","city_kana":"フジエダシ","town":"郡","town_kana":"コオリ","prefecture_code":22},"0056":{"zip_code":"4260056","prefecture":"静岡県","prefecture_kana":"シズオカケン","city":"藤枝市","city_kana":"フジエダシ","town":"五平","town_kana":"ゴヘイ","prefecture_code":22},"0071":{"zip_code":"4260071","prefecture":"静岡県","prefecture_kana":"シズオカケン","city":"藤枝市","city_kana":"フジエダシ","town":"志太","town_kana":"シダ","prefecture_code":22},"0035":{"zip_code":"4260035","prefecture":"静岡県","prefecture_kana":"シズオカケン","city":"藤枝市","city_kana":"フジエダシ","town":"下青島","town_kana":"シモアオジマ","prefecture_code":22},"0003":{"zip_code":"4260003","prefecture":"静岡県","prefecture_kana":"シズオカケン","city":"藤枝市","city_kana":"フジエダシ","town":"下当間","town_kana":"シモドウマ","prefecture_code":22},"0203":{"zip_code":"4260203","prefecture":"静岡県","prefecture_kana":"シズオカケン","city":"藤枝市","city_kana":"フジエダシ","town":"下之郷","town_kana":"シモノゴウ","prefecture_code":22},"0201":{"zip_code":"4260201","prefecture":"静岡県","prefecture_kana":"シズオカケン","city":"藤枝市","city_kana":"フジエダシ","town":"下藪田","town_kana":"シモヤブタ","prefecture_code":22},"0021":{"zip_code":"4260021","prefecture":"静岡県","prefecture_kana":"シズオカケン","city":"藤枝市","city_kana":"フジエダシ","town":"城南","town_kana":"ジョウナン","prefecture_code":22},"0073":{"zip_code":"4260073","prefecture":"静岡県","prefecture_kana":"シズオカケン","city":"藤枝市","city_kana":"フジエダシ","town":"新南新屋","town_kana":"シンミナミアラヤ","prefecture_code":22},"0065":{"zip_code":"4260065","prefecture":"静岡県","prefecture_kana":"シズオカケン","city":"藤枝市","city_kana":"フジエダシ","town":"末広","town_kana":"スエヒロ","prefecture_code":22},"0085":{"zip_code":"4260085","prefecture":"静岡県","prefecture_kana":"シズオカケン","city":"藤枝市","city_kana":"フジエダシ","town":"助宗","town_kana":"スケムネ","prefecture_code":22},"0077":{"zip_code":"4260077","prefecture":"静岡県","prefecture_kana":"シズオカケン","city":"藤枝市","city_kana":"フジエダシ","town":"駿河台","town_kana":"スルガダイ","prefecture_code":22},"0063":{"zip_code":"4260063","prefecture":"静岡県","prefecture_kana":"シズオカケン","city":"藤枝市","city_kana":"フジエダシ","town":"青南町","town_kana":"セイナンチョウ","prefecture_code":22},"0082":{"zip_code":"4260082","prefecture":"静岡県","prefecture_kana":"シズオカケン","city":"藤枝市","city_kana":"フジエダシ","town":"瀬古","town_kana":"セコ","prefecture_code":22},"0075":{"zip_code":"4260075","prefecture":"静岡県","prefecture_kana":"シズオカケン","city":"藤枝市","city_kana":"フジエダシ","town":"瀬戸新屋","town_kana":"セトアラヤ","prefecture_code":22},"0131":{"zip_code":"4260131","prefecture":"静岡県","prefecture_kana":"シズオカケン","city":"藤枝市","city_kana":"フジエダシ","town":"瀬戸ノ谷","town_kana":"セトノヤ","prefecture_code":22},"0053":{"zip_code":"4260053","prefecture":"静岡県","prefecture_kana":"シズオカケン","city":"藤枝市","city_kana":"フジエダシ","town":"善左衛門","town_kana":"ゼンザエモン","prefecture_code":22},"0043":{"zip_code":"4260043","prefecture":"静岡県","prefecture_kana":"シズオカケン","city":"藤枝市","city_kana":"フジエダシ","town":"大新島","town_kana":"タイシンジマ","prefecture_code":22},"0055":{"zip_code":"4260055","prefecture":"静岡県","prefecture_kana":"シズオカケン","city":"藤枝市","city_kana":"フジエダシ","town":"大西町","town_kana":"ダイセイチョウ","prefecture_code":22},"0044":{"zip_code":"4260044","prefecture":"静岡県","prefecture_kana":"シズオカケン","city":"藤枝市","city_kana":"フジエダシ","town":"大東町","town_kana":"ダイトウチョウ","prefecture_code":22},"0062":{"zip_code":"4260062","prefecture":"静岡県","prefecture_kana":"シズオカケン","city":"藤枝市","city_kana":"フジエダシ","town":"高岡","town_kana":"タカオカ","prefecture_code":22},"0046":{"zip_code":"4260046","prefecture":"静岡県","prefecture_kana":"シズオカケン","city":"藤枝市","city_kana":"フジエダシ","town":"高洲","town_kana":"タカス","prefecture_code":22},"0221":{"zip_code":"4260221","prefecture":"静岡県","prefecture_kana":"シズオカケン","city":"藤枝市","city_kana":"フジエダシ","town":"高田","town_kana":"タカタ","prefecture_code":22},"0041":{"zip_code":"4260041","prefecture":"静岡県","prefecture_kana":"シズオカケン","city":"藤枝市","city_kana":"フジエダシ","town":"高柳","town_kana":"タカヤナギ","prefecture_code":22},"0134":{"zip_code":"4260134","prefecture":"静岡県","prefecture_kana":"シズオカケン","city":"藤枝市","city_kana":"フジエダシ","town":"滝沢","town_kana":"タキサワ","prefecture_code":22},"0013":{"zip_code":"4260013","prefecture":"静岡県","prefecture_kana":"シズオカケン","city":"藤枝市","city_kana":"フジエダシ","town":"立花","town_kana":"タチバナ","prefecture_code":22},"0012":{"zip_code":"4260012","prefecture":"静岡県","prefecture_kana":"シズオカケン","city":"藤枝市","city_kana":"フジエダシ","town":"田中","town_kana":"タナカ","prefecture_code":22},"0061":{"zip_code":"4260061","prefecture":"静岡県","prefecture_kana":"シズオカケン","city":"藤枝市","city_kana":"フジエダシ","town":"田沼","town_kana":"タヌマ","prefecture_code":22},"0023":{"zip_code":"4260023","prefecture":"静岡県","prefecture_kana":"シズオカケン","city":"藤枝市","city_kana":"フジエダシ","town":"茶町","town_kana":"チャマチ","prefecture_code":22},"0057":{"zip_code":"4260057","prefecture":"静岡県","prefecture_kana":"シズオカケン","city":"藤枝市","city_kana":"フジエダシ","town":"忠兵衛","town_kana":"チュウベエ","prefecture_code":22},"0031":{"zip_code":"4260031","prefecture":"静岡県","prefecture_kana":"シズオカケン","city":"藤枝市","city_kana":"フジエダシ","town":"築地","town_kana":"ツイジ","prefecture_code":22},"0032":{"zip_code":"4260032","prefecture":"静岡県","prefecture_kana":"シズオカケン","city":"藤枝市","city_kana":"フジエダシ","town":"築地上","town_kana":"ツイジカミ","prefecture_code":22},"0084":{"zip_code":"4260084","prefecture":"静岡県","prefecture_kana":"シズオカケン","city":"藤枝市","city_kana":"フジエダシ","town":"寺島","town_kana":"テラジマ","prefecture_code":22},"0019":{"zip_code":"4260019","prefecture":"静岡県","prefecture_kana":"シズオカケン","city":"藤枝市","city_kana":"フジエダシ","town":"天王町","town_kana":"テンノウチョウ","prefecture_code":22},"0204":{"zip_code":"4260204","prefecture":"静岡県","prefecture_kana":"シズオカケン","city":"藤枝市","city_kana":"フジエダシ","town":"時ケ谷","town_kana":"トキガヤ","prefecture_code":22},"0213":{"zip_code":"4260213","prefecture":"静岡県","prefecture_kana":"シズオカケン","city":"藤枝市","city_kana":"フジエダシ","town":"中ノ合","town_kana":"ナカノゴウ","prefecture_code":22},"0222":{"zip_code":"4260222","prefecture":"静岡県","prefecture_kana":"シズオカケン","city":"藤枝市","city_kana":"フジエダシ","town":"中藪田","town_kana":"ナカヤブタ","prefecture_code":22},"0211":{"zip_code":"4260211","prefecture":"静岡県","prefecture_kana":"シズオカケン","city":"藤枝市","city_kana":"フジエダシ","town":"西方","town_kana":"ニシガタ","prefecture_code":22},"0014":{"zip_code":"4260014","prefecture":"静岡県","prefecture_kana":"シズオカケン","city":"藤枝市","city_kana":"フジエダシ","town":"若王子","town_kana":"ニャクオウジ","prefecture_code":22},"0205":{"zip_code":"4260205","prefecture":"静岡県","prefecture_kana":"シズオカケン","city":"藤枝市","city_kana":"フジエダシ","town":"花倉","town_kana":"ハナグラ","prefecture_code":22},"0086":{"zip_code":"4260086","prefecture":"静岡県","prefecture_kana":"シズオカケン","city":"藤枝市","city_kana":"フジエダシ","town":"原","town_kana":"ハラ","prefecture_code":22},"0038":{"zip_code":"4260038","prefecture":"静岡県","prefecture_kana":"シズオカケン","city":"藤枝市","city_kana":"フジエダシ","town":"東町","town_kana":"ヒガシチョウ","prefecture_code":22},"0042":{"zip_code":"4260042","prefecture":"静岡県","prefecture_kana":"シズオカケン","city":"藤枝市","city_kana":"フジエダシ","town":"兵太夫","town_kana":"ヒョウダユウ","prefecture_code":22},"0011":{"zip_code":"4260011","prefecture":"静岡県","prefecture_kana":"シズオカケン","city":"藤枝市","city_kana":"フジエダシ","town":"平島","town_kana":"ヒラシマ","prefecture_code":22},"0025":{"zip_code":"4260025","prefecture":"静岡県","prefecture_kana":"シズオカケン","city":"藤枝市","city_kana":"フジエダシ","town":"藤枝","town_kana":"フジエダ","prefecture_code":22},"0006":{"zip_code":"4260006","prefecture":"静岡県","prefecture_kana":"シズオカケン","city":"藤枝市","city_kana":"フジエダシ","town":"藤岡","town_kana":"フジオカ","prefecture_code":22},"0088":{"zip_code":"4260088","prefecture":"静岡県","prefecture_kana":"シズオカケン","city":"藤枝市","city_kana":"フジエダシ","town":"堀之内","town_kana":"ホリノウチ","prefecture_code":22},"0132":{"zip_code":"4260132","prefecture":"静岡県","prefecture_kana":"シズオカケン","city":"藤枝市","city_kana":"フジエダシ","town":"本郷","town_kana":"ホンゴウ","prefecture_code":22},"0018":{"zip_code":"4260018","prefecture":"静岡県","prefecture_kana":"シズオカケン","city":"藤枝市","city_kana":"フジエダシ","town":"本町","town_kana":"ホンマチ","prefecture_code":22},"0067":{"zip_code":"4260067","prefecture":"静岡県","prefecture_kana":"シズオカケン","city":"藤枝市","city_kana":"フジエダシ","town":"前島","town_kana":"マエジマ","prefecture_code":22},"0029":{"zip_code":"4260029","prefecture":"静岡県","prefecture_kana":"シズオカケン","city":"藤枝市","city_kana":"フジエダシ","town":"益津","town_kana":"マシヅ","prefecture_code":22},"0028":{"zip_code":"4260028","prefecture":"静岡県","prefecture_kana":"シズオカケン","city":"藤枝市","city_kana":"フジエダシ","town":"益津下","town_kana":"マシヅシモ","prefecture_code":22},"0074":{"zip_code":"4260074","prefecture":"静岡県","prefecture_kana":"シズオカケン","city":"藤枝市","city_kana":"フジエダシ","town":"水上","town_kana":"ミズカミ","prefecture_code":22},"0005":{"zip_code":"4260005","prefecture":"静岡県","prefecture_kana":"シズオカケン","city":"藤枝市","city_kana":"フジエダシ","town":"水守","town_kana":"ミズモリ","prefecture_code":22},"0027":{"zip_code":"4260027","prefecture":"静岡県","prefecture_kana":"シズオカケン","city":"藤枝市","city_kana":"フジエダシ","town":"緑町","town_kana":"ミドリチョウ","prefecture_code":22},"0070":{"zip_code":"4260070","prefecture":"静岡県","prefecture_kana":"シズオカケン","city":"藤枝市","city_kana":"フジエダシ","town":"緑の丘","town_kana":"ミドリノオカ","prefecture_code":22},"0072":{"zip_code":"4260072","prefecture":"静岡県","prefecture_kana":"シズオカケン","city":"藤枝市","city_kana":"フジエダシ","town":"南新屋","town_kana":"ミナミアラヤ","prefecture_code":22},"0224":{"zip_code":"4260224","prefecture":"静岡県","prefecture_kana":"シズオカケン","city":"藤枝市","city_kana":"フジエダシ","town":"南清里","town_kana":"ミナミキヨサト","prefecture_code":22},"0078":{"zip_code":"4260078","prefecture":"静岡県","prefecture_kana":"シズオカケン","city":"藤枝市","city_kana":"フジエダシ","town":"南駿河台","town_kana":"ミナミスルガダイ","prefecture_code":22},"0133":{"zip_code":"4260133","prefecture":"静岡県","prefecture_kana":"シズオカケン","city":"藤枝市","city_kana":"フジエダシ","town":"宮原","town_kana":"ミヤバラ","prefecture_code":22},"0083":{"zip_code":"4260083","prefecture":"静岡県","prefecture_kana":"シズオカケン","city":"藤枝市","city_kana":"フジエダシ","town":"谷稲葉","town_kana":"ヤイナバ","prefecture_code":22},"0052":{"zip_code":"4260052","prefecture":"静岡県","prefecture_kana":"シズオカケン","city":"藤枝市","city_kana":"フジエダシ","town":"弥左衛門","town_kana":"ヤザエモン","prefecture_code":22},"0009":{"zip_code":"4260009","prefecture":"静岡県","prefecture_kana":"シズオカケン","city":"藤枝市","city_kana":"フジエダシ","town":"八幡","town_kana":"ヤワタ","prefecture_code":22},"0002":{"zip_code":"4260002","prefecture":"静岡県","prefecture_kana":"シズオカケン","city":"藤枝市","city_kana":"フジエダシ","town":"横内","town_kana":"ヨコウチ","prefecture_code":22},"0047":{"zip_code":"4260047","prefecture":"静岡県","prefecture_kana":"シズオカケン","city":"藤枝市","city_kana":"フジエダシ","town":"与左衛門","town_kana":"ヨザエモン","prefecture_code":22}}