{"0000":[{"zip_code":"4320000","prefecture":"静岡県","prefecture_kana":"シズオカケン","city":"浜松市中区","city_kana":"ハママツシナカク","town":"","town_kana":"","prefecture_code":22},{"zip_code":"4320000","prefecture":"静岡県","prefecture_kana":"シズオカケン","city":"浜松市東区","city_kana":"ハママツシヒガシク","town":"","town_kana":"","prefecture_code":22},{"zip_code":"4320000","prefecture":"静岡県","prefecture_kana":"シズオカケン","city":"浜松市西区","city_kana":"ハママツシニシク","town":"","town_kana":"","prefecture_code":22},{"zip_code":"4320000","prefecture":"静岡県","prefecture_kana":"シズオカケン","city":"浜松市南区","city_kana":"ハママツシミナミク","town":"","town_kana":"","prefecture_code":22},{"zip_code":"4320000","prefecture":"静岡県","prefecture_kana":"シズオカケン","city":"浜松市北区","city_kana":"ハママツシキタク","town":"","town_kana":"","prefecture_code":22},{"zip_code":"4320000","prefecture":"静岡県","prefecture_kana":"シズオカケン","city":"浜松市天竜区","city_kana":"ハママツシテンリュウク","town":"","town_kana":"","prefecture_code":22}],"8043":{"zip_code":"4328043","prefecture":"静岡県","prefecture_kana":"シズオカケン","city":"浜松市中区","city_kana":"ハママツシナカク","town":"浅田町","town_kana":"アサダチョウ","prefecture_code":22},"8033":{"zip_code":"4328033","prefecture":"静岡県","prefecture_kana":"シズオカケン","city":"浜松市中区","city_kana":"ハママツシナカク","town":"海老塚","town_kana":"エビツカ","prefecture_code":22},"8032":{"zip_code":"4328032","prefecture":"静岡県","prefecture_kana":"シズオカケン","city":"浜松市中区","city_kana":"ハママツシナカク","town":"海老塚町","town_kana":"エビツカチョウ","prefecture_code":22},"8046":{"zip_code":"4328046","prefecture":"静岡県","prefecture_kana":"シズオカケン","city":"浜松市中区","city_kana":"ハママツシナカク","town":"春日町","town_kana":"カスガチョウ","prefecture_code":22},"8042":{"zip_code":"4328042","prefecture":"静岡県","prefecture_kana":"シズオカケン","city":"浜松市中区","city_kana":"ハママツシナカク","town":"上浅田","town_kana":"カミアサダ","prefecture_code":22},"8047":{"zip_code":"4328047","prefecture":"静岡県","prefecture_kana":"シズオカケン","city":"浜松市中区","city_kana":"ハママツシナカク","town":"神田町","town_kana":"カミダマチ","prefecture_code":22},"8023":{"zip_code":"4328023","prefecture":"静岡県","prefecture_kana":"シズオカケン","city":"浜松市中区","city_kana":"ハママツシナカク","town":"鴨江","town_kana":"カモエ","prefecture_code":22},"8024":{"zip_code":"4328024","prefecture":"静岡県","prefecture_kana":"シズオカケン","city":"浜松市中区","city_kana":"ハママツシナカク","town":"鴨江町","town_kana":"カモエチョウ","prefecture_code":22},"8025":{"zip_code":"4328025","prefecture":"静岡県","prefecture_kana":"シズオカケン","city":"浜松市中区","city_kana":"ハママツシナカク","town":"栄町","town_kana":"サカエマチ","prefecture_code":22},"8021":{"zip_code":"4328021","prefecture":"静岡県","prefecture_kana":"シズオカケン","city":"浜松市中区","city_kana":"ハママツシナカク","town":"佐鳴台","town_kana":"サナルダイ","prefecture_code":22},"8034":{"zip_code":"4328034","prefecture":"静岡県","prefecture_kana":"シズオカケン","city":"浜松市中区","city_kana":"ハママツシナカク","town":"塩町","town_kana":"シオマチ","prefecture_code":22},"8014":{"zip_code":"4328014","prefecture":"静岡県","prefecture_kana":"シズオカケン","city":"浜松市中区","city_kana":"ハママツシナカク","town":"鹿谷町","town_kana":"シカタニチョウ","prefecture_code":22},"8018":{"zip_code":"4328018","prefecture":"静岡県","prefecture_kana":"シズオカケン","city":"浜松市中区","city_kana":"ハママツシナカク","town":"蜆塚","town_kana":"シジミヅカ","prefecture_code":22},"8011":{"zip_code":"4328011","prefecture":"静岡県","prefecture_kana":"シズオカケン","city":"浜松市中区","city_kana":"ハママツシナカク","town":"城北","town_kana":"ジョウホク","prefecture_code":22},"8041":{"zip_code":"4328041","prefecture":"静岡県","prefecture_kana":"シズオカケン","city":"浜松市中区","city_kana":"ハママツシナカク","town":"菅原町","town_kana":"スガワラチョウ","prefecture_code":22},"8015":{"zip_code":"4328015","prefecture":"静岡県","prefecture_kana":"シズオカケン","city":"浜松市中区","city_kana":"ハママツシナカク","town":"高町","town_kana":"タカマチ","prefecture_code":22},"8002":{"zip_code":"4328002","prefecture":"静岡県","prefecture_kana":"シズオカケン","city":"浜松市中区","city_kana":"ハママツシナカク","town":"富塚町","town_kana":"トミツカチョウ","prefecture_code":22},"8016":{"zip_code":"4328016","prefecture":"静岡県","prefecture_kana":"シズオカケン","city":"浜松市中区","city_kana":"ハママツシナカク","town":"中山町","town_kana":"ナカヤマチョウ","prefecture_code":22},"8031":{"zip_code":"4328031","prefecture":"静岡県","prefecture_kana":"シズオカケン","city":"浜松市中区","city_kana":"ハママツシナカク","town":"平田町","town_kana":"ナメダチョウ","prefecture_code":22},"8035":{"zip_code":"4328035","prefecture":"静岡県","prefecture_kana":"シズオカケン","city":"浜松市中区","city_kana":"ハママツシナカク","town":"成子町","town_kana":"ナルコチョウ","prefecture_code":22},"8045":{"zip_code":"4328045","prefecture":"静岡県","prefecture_kana":"シズオカケン","city":"浜松市中区","city_kana":"ハママツシナカク","town":"西浅田","town_kana":"ニシアサダ","prefecture_code":22},"8038":{"zip_code":"4328038","prefecture":"静岡県","prefecture_kana":"シズオカケン","city":"浜松市中区","city_kana":"ハママツシナカク","town":"西伊場町","town_kana":"ニシイバチョウ","prefecture_code":22},"8012":{"zip_code":"4328012","prefecture":"静岡県","prefecture_kana":"シズオカケン","city":"浜松市中区","city_kana":"ハママツシナカク","town":"布橋","town_kana":"ヌノハシ","prefecture_code":22},"8053":[{"zip_code":"4328053","prefecture":"静岡県","prefecture_kana":"シズオカケン","city":"浜松市中区","city_kana":"ハママツシナカク","town":"法枝町","town_kana":"ノリエダチョウ","prefecture_code":22},{"zip_code":"4328053","prefecture":"静岡県","prefecture_kana":"シズオカケン","city":"浜松市南区","city_kana":"ハママツシミナミク","town":"法枝町","town_kana":"ノリエダチョウ","prefecture_code":22}],"8027":{"zip_code":"4328027","prefecture":"静岡県","prefecture_kana":"シズオカケン","city":"浜松市中区","city_kana":"ハママツシナカク","town":"旅籠町","town_kana":"ハタゴマチ","prefecture_code":22},"8036":{"zip_code":"4328036","prefecture":"静岡県","prefecture_kana":"シズオカケン","city":"浜松市中区","city_kana":"ハママツシナカク","town":"東伊場","town_kana":"ヒガシイバ","prefecture_code":22},"8013":{"zip_code":"4328013","prefecture":"静岡県","prefecture_kana":"シズオカケン","city":"浜松市中区","city_kana":"ハママツシナカク","town":"広沢","town_kana":"ヒロサワ","prefecture_code":22},"8004":{"zip_code":"4328004","prefecture":"静岡県","prefecture_kana":"シズオカケン","city":"浜松市中区","city_kana":"ハママツシナカク","town":"文丘町","town_kana":"フミオカチョウ","prefecture_code":22},"8017":{"zip_code":"4328017","prefecture":"静岡県","prefecture_kana":"シズオカケン","city":"浜松市中区","city_kana":"ハママツシナカク","town":"三組町","town_kana":"ミクミチョウ","prefecture_code":22},"8044":{"zip_code":"4328044","prefecture":"静岡県","prefecture_kana":"シズオカケン","city":"浜松市中区","city_kana":"ハママツシナカク","town":"南浅田","town_kana":"ミナミアサダ","prefecture_code":22},"8037":{"zip_code":"4328037","prefecture":"静岡県","prefecture_kana":"シズオカケン","city":"浜松市中区","city_kana":"ハママツシナカク","town":"南伊場町","town_kana":"ミナミイバチョウ","prefecture_code":22},"8026":{"zip_code":"4328026","prefecture":"静岡県","prefecture_kana":"シズオカケン","city":"浜松市中区","city_kana":"ハママツシナカク","town":"元魚町","town_kana":"モトウオチョウ","prefecture_code":22},"8048":{"zip_code":"4328048","prefecture":"静岡県","prefecture_kana":"シズオカケン","city":"浜松市中区","city_kana":"ハママツシナカク","town":"森田町","town_kana":"モリタチョウ","prefecture_code":22},"8022":{"zip_code":"4328022","prefecture":"静岡県","prefecture_kana":"シズオカケン","city":"浜松市中区","city_kana":"ハママツシナカク","town":"山手町","town_kana":"ヤマテチョウ","prefecture_code":22},"8003":{"zip_code":"4328003","prefecture":"静岡県","prefecture_kana":"シズオカケン","city":"浜松市中区","city_kana":"ハママツシナカク","town":"和地山","town_kana":"ワジヤマ","prefecture_code":22},"8061":{"zip_code":"4328061","prefecture":"静岡県","prefecture_kana":"シズオカケン","city":"浜松市西区","city_kana":"ハママツシニシク","town":"入野町","town_kana":"イリノチョウ","prefecture_code":22},"8006":{"zip_code":"4328006","prefecture":"静岡県","prefecture_kana":"シズオカケン","city":"浜松市西区","city_kana":"ハママツシニシク","town":"大久保町","town_kana":"オオクボチョウ","prefecture_code":22},"8068":{"zip_code":"4328068","prefecture":"静岡県","prefecture_kana":"シズオカケン","city":"浜松市西区","city_kana":"ハママツシニシク","town":"大平台","town_kana":"オオヒラダイ","prefecture_code":22},"8005":{"zip_code":"4328005","prefecture":"静岡県","prefecture_kana":"シズオカケン","city":"浜松市西区","city_kana":"ハママツシニシク","town":"神ケ谷町","town_kana":"カミガヤチョウ","prefecture_code":22},"8007":{"zip_code":"4328007","prefecture":"静岡県","prefecture_kana":"シズオカケン","city":"浜松市西区","city_kana":"ハママツシニシク","town":"神原町","town_kana":"カミハラチョウ","prefecture_code":22},"8066":{"zip_code":"4328066","prefecture":"静岡県","prefecture_kana":"シズオカケン","city":"浜松市西区","city_kana":"ハママツシニシク","town":"志都呂町","town_kana":"シトロチョウ","prefecture_code":22},"8067":{"zip_code":"4328067","prefecture":"静岡県","prefecture_kana":"シズオカケン","city":"浜松市西区","city_kana":"ハママツシニシク","town":"西鴨江町","town_kana":"ニシカモエチョウ","prefecture_code":22},"8001":{"zip_code":"4328001","prefecture":"静岡県","prefecture_kana":"シズオカケン","city":"浜松市西区","city_kana":"ハママツシニシク","town":"西山町","town_kana":"ニシヤマチョウ","prefecture_code":22},"8055":{"zip_code":"4328055","prefecture":"静岡県","prefecture_kana":"シズオカケン","city":"浜松市南区","city_kana":"ハママツシミナミク","town":"卸本町","town_kana":"オロシホンマチ","prefecture_code":22},"8064":{"zip_code":"4328064","prefecture":"静岡県","prefecture_kana":"シズオカケン","city":"浜松市南区","city_kana":"ハママツシミナミク","town":"倉松町","town_kana":"クラマツチョウ","prefecture_code":22},"8063":{"zip_code":"4328063","prefecture":"静岡県","prefecture_kana":"シズオカケン","city":"浜松市南区","city_kana":"ハママツシミナミク","town":"小沢渡町","town_kana":"コザワタリチョウ","prefecture_code":22},"8062":{"zip_code":"4328062","prefecture":"静岡県","prefecture_kana":"シズオカケン","city":"浜松市南区","city_kana":"ハママツシミナミク","town":"増楽町","town_kana":"ゾウラチョウ","prefecture_code":22},"8065":{"zip_code":"4328065","prefecture":"静岡県","prefecture_kana":"シズオカケン","city":"浜松市南区","city_kana":"ハママツシミナミク","town":"高塚町","town_kana":"タカツカチョウ","prefecture_code":22},"8054":{"zip_code":"4328054","prefecture":"静岡県","prefecture_kana":"シズオカケン","city":"浜松市南区","city_kana":"ハママツシミナミク","town":"田尻町","town_kana":"タジリチョウ","prefecture_code":22},"8057":{"zip_code":"4328057","prefecture":"静岡県","prefecture_kana":"シズオカケン","city":"浜松市南区","city_kana":"ハママツシミナミク","town":"堤町","town_kana":"ツツミチョウ","prefecture_code":22},"8058":{"zip_code":"4328058","prefecture":"静岡県","prefecture_kana":"シズオカケン","city":"浜松市南区","city_kana":"ハママツシミナミク","town":"新橋町","town_kana":"ニッパシチョウ","prefecture_code":22},"8052":{"zip_code":"4328052","prefecture":"静岡県","prefecture_kana":"シズオカケン","city":"浜松市南区","city_kana":"ハママツシミナミク","town":"東若林町","town_kana":"ヒガシワカバヤシチョウ","prefecture_code":22},"8056":{"zip_code":"4328056","prefecture":"静岡県","prefecture_kana":"シズオカケン","city":"浜松市南区","city_kana":"ハママツシミナミク","town":"米津町","town_kana":"ヨネヅチョウ","prefecture_code":22},"8051":{"zip_code":"4328051","prefecture":"静岡県","prefecture_kana":"シズオカケン","city":"浜松市南区","city_kana":"ハママツシミナミク","town":"若林町","town_kana":"ワカバヤシチョウ","prefecture_code":22}}