{"0000":{"zip_code":"4360000","prefecture":"静岡県","prefecture_kana":"シズオカケン","city":"掛川市","city_kana":"カケガワシ","town":"","town_kana":"","prefecture_code":22},"0018":{"zip_code":"4360018","prefecture":"静岡県","prefecture_kana":"シズオカケン","city":"掛川市","city_kana":"カケガワシ","town":"葵町","town_kana":"アオイチョウ","prefecture_code":22},"0019":{"zip_code":"4360019","prefecture":"静岡県","prefecture_kana":"シズオカケン","city":"掛川市","city_kana":"カケガワシ","town":"青葉台","town_kana":"アオバダイ","prefecture_code":22},"0041":{"zip_code":"4360041","prefecture":"静岡県","prefecture_kana":"シズオカケン","city":"掛川市","city_kana":"カケガワシ","town":"秋葉路","town_kana":"アキハミチ","prefecture_code":22},"0022":{"zip_code":"4360022","prefecture":"静岡県","prefecture_kana":"シズオカケン","city":"掛川市","city_kana":"カケガワシ","town":"上張","town_kana":"アゲハリ","prefecture_code":22},"0062":{"zip_code":"4360062","prefecture":"静岡県","prefecture_kana":"シズオカケン","city":"掛川市","city_kana":"カケガワシ","town":"旭ケ丘","town_kana":"アサヒガオカ","prefecture_code":22},"0069":{"zip_code":"4360069","prefecture":"静岡県","prefecture_kana":"シズオカケン","city":"掛川市","city_kana":"カケガワシ","town":"旭台","town_kana":"アサヒダイ","prefecture_code":22},"0089":{"zip_code":"4360089","prefecture":"静岡県","prefecture_kana":"シズオカケン","city":"掛川市","city_kana":"カケガワシ","town":"安養寺","town_kana":"アンヨウジ","prefecture_code":22},"0225":{"zip_code":"4360225","prefecture":"静岡県","prefecture_kana":"シズオカケン","city":"掛川市","city_kana":"カケガワシ","town":"家代","town_kana":"イエシロ","prefecture_code":22},"0227":{"zip_code":"4360227","prefecture":"静岡県","prefecture_kana":"シズオカケン","city":"掛川市","city_kana":"カケガワシ","town":"家代の里","town_kana":"イエシロノサト","prefecture_code":22},"0332":{"zip_code":"4360332","prefecture":"静岡県","prefecture_kana":"シズオカケン","city":"掛川市","city_kana":"カケガワシ","town":"居尻","town_kana":"イジリ","prefecture_code":22},"0016":{"zip_code":"4360016","prefecture":"静岡県","prefecture_kana":"シズオカケン","city":"掛川市","city_kana":"カケガワシ","town":"板沢","town_kana":"イタサワ","prefecture_code":22},"0072":{"zip_code":"4360072","prefecture":"静岡県","prefecture_kana":"シズオカケン","city":"掛川市","city_kana":"カケガワシ","town":"印内","town_kana":"インナイ","prefecture_code":22},"0034":{"zip_code":"4360034","prefecture":"静岡県","prefecture_kana":"シズオカケン","city":"掛川市","city_kana":"カケガワシ","town":"梅橋","town_kana":"ウメバシ","prefecture_code":22},"0077":{"zip_code":"4360077","prefecture":"静岡県","prefecture_kana":"シズオカケン","city":"掛川市","city_kana":"カケガワシ","town":"駅前","town_kana":"エキマエ","prefecture_code":22},"0043":{"zip_code":"4360043","prefecture":"静岡県","prefecture_kana":"シズオカケン","city":"掛川市","city_kana":"カケガワシ","town":"大池","town_kana":"オオイケ","prefecture_code":22},"0087":{"zip_code":"4360087","prefecture":"静岡県","prefecture_kana":"シズオカケン","city":"掛川市","city_kana":"カケガワシ","town":"大多郎","town_kana":"オオタロウ","prefecture_code":22},"0009":{"zip_code":"4360009","prefecture":"静岡県","prefecture_kana":"シズオカケン","city":"掛川市","city_kana":"カケガワシ","town":"大野","town_kana":"オオノ","prefecture_code":22},"0335":{"zip_code":"4360335","prefecture":"静岡県","prefecture_kana":"シズオカケン","city":"掛川市","city_kana":"カケガワシ","town":"大和田","town_kana":"オオワダ","prefecture_code":22},"0037":{"zip_code":"4360037","prefecture":"静岡県","prefecture_kana":"シズオカケン","city":"掛川市","city_kana":"カケガワシ","town":"岡津","town_kana":"オカツ","prefecture_code":22},"0045":{"zip_code":"4360045","prefecture":"静岡県","prefecture_kana":"シズオカケン","city":"掛川市","city_kana":"カケガワシ","town":"小鷹町","town_kana":"オダカチョウ","prefecture_code":22},"0113":{"zip_code":"4360113","prefecture":"静岡県","prefecture_kana":"シズオカケン","city":"掛川市","city_kana":"カケガワシ","town":"各和","town_kana":"カクワ","prefecture_code":22},"0079":{"zip_code":"4360079","prefecture":"静岡県","prefecture_kana":"シズオカケン","city":"掛川市","city_kana":"カケガワシ","town":"掛川","town_kana":"カケガワ","prefecture_code":22},"0088":{"zip_code":"4360088","prefecture":"静岡県","prefecture_kana":"シズオカケン","city":"掛川市","city_kana":"カケガワシ","town":"葛ケ丘","town_kana":"カツラガオカ","prefecture_code":22},"0073":{"zip_code":"4360073","prefecture":"静岡県","prefecture_kana":"シズオカケン","city":"掛川市","city_kana":"カケガワシ","town":"金城","town_kana":"カネシロ","prefecture_code":22},"0012":{"zip_code":"4360012","prefecture":"静岡県","prefecture_kana":"シズオカケン","city":"掛川市","city_kana":"カケガワシ","town":"上内田","town_kana":"カミウチダ","prefecture_code":22},"0342":{"zip_code":"4360342","prefecture":"静岡県","prefecture_kana":"シズオカケン","city":"掛川市","city_kana":"カケガワシ","town":"上西郷","town_kana":"カミサイゴウ","prefecture_code":22},"0221":{"zip_code":"4360221","prefecture":"静岡県","prefecture_kana":"シズオカケン","city":"掛川市","city_kana":"カケガワシ","town":"上垂木","town_kana":"カミタルキ","prefecture_code":22},"0101":{"zip_code":"4360101","prefecture":"静岡県","prefecture_kana":"シズオカケン","city":"掛川市","city_kana":"カケガワシ","town":"上西之谷","town_kana":"カミニシノヤ","prefecture_code":22},"0049":{"zip_code":"4360049","prefecture":"静岡県","prefecture_kana":"シズオカケン","city":"掛川市","city_kana":"カケガワシ","town":"上屋敷","town_kana":"カミヤシキ","prefecture_code":22},"0028":{"zip_code":"4360028","prefecture":"静岡県","prefecture_kana":"シズオカケン","city":"掛川市","city_kana":"カケガワシ","town":"亀の甲","town_kana":"カメノコウ","prefecture_code":22},"0014":{"zip_code":"4360014","prefecture":"静岡県","prefecture_kana":"シズオカケン","city":"掛川市","city_kana":"カケガワシ","town":"岩井寺","town_kana":"ガンショウジ","prefecture_code":22},"0063":{"zip_code":"4360063","prefecture":"静岡県","prefecture_kana":"シズオカケン","city":"掛川市","city_kana":"カケガワシ","town":"北池新田","town_kana":"キタイケシンデン","prefecture_code":22},"0064":{"zip_code":"4360064","prefecture":"静岡県","prefecture_kana":"シズオカケン","city":"掛川市","city_kana":"カケガワシ","town":"北門","town_kana":"キタモン","prefecture_code":22},"0094":{"zip_code":"4360094","prefecture":"静岡県","prefecture_kana":"シズオカケン","city":"掛川市","city_kana":"カケガワシ","town":"喜町","town_kana":"キマチ","prefecture_code":22},"0044":{"zip_code":"4360044","prefecture":"静岡県","prefecture_kana":"シズオカケン","city":"掛川市","city_kana":"カケガワシ","town":"清崎","town_kana":"キヨサキ","prefecture_code":22},"0074":{"zip_code":"4360074","prefecture":"静岡県","prefecture_kana":"シズオカケン","city":"掛川市","city_kana":"カケガワシ","town":"葛川","town_kana":"クズカワ","prefecture_code":22},"0027":{"zip_code":"4360027","prefecture":"静岡県","prefecture_kana":"シズオカケン","city":"掛川市","city_kana":"カケガワシ","town":"久保","town_kana":"クボ","prefecture_code":22},"0341":{"zip_code":"4360341","prefecture":"静岡県","prefecture_kana":"シズオカケン","city":"掛川市","city_kana":"カケガワシ","town":"倉真","town_kana":"クラミ","prefecture_code":22},"0223":{"zip_code":"4360223","prefecture":"静岡県","prefecture_kana":"シズオカケン","city":"掛川市","city_kana":"カケガワシ","town":"黒田","town_kana":"クロダ","prefecture_code":22},"0331":{"zip_code":"4360331","prefecture":"静岡県","prefecture_kana":"シズオカケン","city":"掛川市","city_kana":"カケガワシ","town":"黒俣","town_kana":"クロマタ","prefecture_code":22},"0023":{"zip_code":"4360023","prefecture":"静岡県","prefecture_kana":"シズオカケン","city":"掛川市","city_kana":"カケガワシ","town":"結縁寺","town_kana":"ケツエンジ","prefecture_code":22},"0031":{"zip_code":"4360031","prefecture":"静岡県","prefecture_kana":"シズオカケン","city":"掛川市","city_kana":"カケガワシ","town":"高御所","town_kana":"コウゴショ","prefecture_code":22},"0055":{"zip_code":"4360055","prefecture":"静岡県","prefecture_kana":"シズオカケン","city":"掛川市","city_kana":"カケガワシ","town":"紺屋町","town_kana":"コウヤマチ","prefecture_code":22},"0090":{"zip_code":"4360090","prefecture":"静岡県","prefecture_kana":"シズオカケン","city":"掛川市","city_kana":"カケガワシ","town":"光陽","town_kana":"コウヨウ","prefecture_code":22},"0068":{"zip_code":"4360068","prefecture":"静岡県","prefecture_kana":"シズオカケン","city":"掛川市","city_kana":"カケガワシ","town":"御所原","town_kana":"ゴショバラ","prefecture_code":22},"0013":{"zip_code":"4360013","prefecture":"静岡県","prefecture_kana":"シズオカケン","city":"掛川市","city_kana":"カケガワシ","town":"子隣","town_kana":"コトナリ","prefecture_code":22},"0007":{"zip_code":"4360007","prefecture":"静岡県","prefecture_kana":"シズオカケン","city":"掛川市","city_kana":"カケガワシ","town":"小原子","town_kana":"コバラコ","prefecture_code":22},"0343":{"zip_code":"4360343","prefecture":"静岡県","prefecture_kana":"シズオカケン","city":"掛川市","city_kana":"カケガワシ","town":"五明","town_kana":"ゴミョウ","prefecture_code":22},"0048":{"zip_code":"4360048","prefecture":"静岡県","prefecture_kana":"シズオカケン","city":"掛川市","city_kana":"カケガワシ","town":"細田","town_kana":"サイダ","prefecture_code":22},"0084":{"zip_code":"4360084","prefecture":"静岡県","prefecture_kana":"シズオカケン","city":"掛川市","city_kana":"カケガワシ","town":"逆川","town_kana":"サカガワ","prefecture_code":22},"0078":{"zip_code":"4360078","prefecture":"静岡県","prefecture_kana":"シズオカケン","city":"掛川市","city_kana":"カケガワシ","town":"肴町","town_kana":"サカナマチ","prefecture_code":22},"0002":{"zip_code":"4360002","prefecture":"静岡県","prefecture_kana":"シズオカケン","city":"掛川市","city_kana":"カケガワシ","town":"佐夜鹿","town_kana":"サヨシカ","prefecture_code":22},"0039":{"zip_code":"4360039","prefecture":"静岡県","prefecture_kana":"シズオカケン","city":"掛川市","city_kana":"カケガワシ","town":"沢田","town_kana":"サワダ","prefecture_code":22},"0076":{"zip_code":"4360076","prefecture":"静岡県","prefecture_kana":"シズオカケン","city":"掛川市","city_kana":"カケガワシ","town":"塩町","town_kana":"シオマチ","prefecture_code":22},"0033":{"zip_code":"4360033","prefecture":"静岡県","prefecture_kana":"シズオカケン","city":"掛川市","city_kana":"カケガワシ","town":"篠場","town_kana":"シノンバ","prefecture_code":22},"0067":{"zip_code":"4360067","prefecture":"静岡県","prefecture_kana":"シズオカケン","city":"掛川市","city_kana":"カケガワシ","town":"下西郷","town_kana":"シモサイゴウ","prefecture_code":22},"0222":{"zip_code":"4360222","prefecture":"静岡県","prefecture_kana":"シズオカケン","city":"掛川市","city_kana":"カケガワシ","town":"下垂木","town_kana":"シモタルキ","prefecture_code":22},"0025":{"zip_code":"4360025","prefecture":"静岡県","prefecture_kana":"シズオカケン","city":"掛川市","city_kana":"カケガワシ","town":"下俣","town_kana":"シモマタ","prefecture_code":22},"0026":{"zip_code":"4360026","prefecture":"静岡県","prefecture_kana":"シズオカケン","city":"掛川市","city_kana":"カケガワシ","town":"下俣南","town_kana":"シモマタミナミ","prefecture_code":22},"0057":{"zip_code":"4360057","prefecture":"静岡県","prefecture_kana":"シズオカケン","city":"掛川市","city_kana":"カケガワシ","town":"十九首","town_kana":"ジュウクシュ","prefecture_code":22},"0040":{"zip_code":"4360040","prefecture":"静岡県","prefecture_kana":"シズオカケン","city":"掛川市","city_kana":"カケガワシ","town":"菖蒲ヶ池","town_kana":"ショウブガイケ","prefecture_code":22},"0091":{"zip_code":"4360091","prefecture":"静岡県","prefecture_kana":"シズオカケン","city":"掛川市","city_kana":"カケガワシ","town":"城下","town_kana":"シロシタ","prefecture_code":22},"0054":{"zip_code":"4360054","prefecture":"静岡県","prefecture_kana":"シズオカケン","city":"掛川市","city_kana":"カケガワシ","town":"城西","town_kana":"シロニシ","prefecture_code":22},"0059":{"zip_code":"4360059","prefecture":"静岡県","prefecture_kana":"シズオカケン","city":"掛川市","city_kana":"カケガワシ","town":"城北","town_kana":"ジョウホク","prefecture_code":22},"0017":{"zip_code":"4360017","prefecture":"静岡県","prefecture_kana":"シズオカケン","city":"掛川市","city_kana":"カケガワシ","town":"杉谷","town_kana":"スギヤ","prefecture_code":22},"0030":{"zip_code":"4360030","prefecture":"静岡県","prefecture_kana":"シズオカケン","city":"掛川市","city_kana":"カケガワシ","town":"杉谷南","town_kana":"スギヤミナミ","prefecture_code":22},"0337":{"zip_code":"4360337","prefecture":"静岡県","prefecture_kana":"シズオカケン","city":"掛川市","city_kana":"カケガワシ","town":"炭焼","town_kana":"スミヤキ","prefecture_code":22},"0008":{"zip_code":"4360008","prefecture":"静岡県","prefecture_kana":"シズオカケン","city":"掛川市","city_kana":"カケガワシ","town":"千羽","town_kana":"センバ","prefecture_code":22},"0083":{"zip_code":"4360083","prefecture":"静岡県","prefecture_kana":"シズオカケン","city":"掛川市","city_kana":"カケガワシ","town":"薗ケ谷","town_kana":"ソノガヤ","prefecture_code":22},"0114":{"zip_code":"4360114","prefecture":"静岡県","prefecture_kana":"シズオカケン","city":"掛川市","city_kana":"カケガワシ","town":"高田","town_kana":"タカダ","prefecture_code":22},"0005":{"zip_code":"4360005","prefecture":"静岡県","prefecture_kana":"シズオカケン","city":"掛川市","city_kana":"カケガワシ","town":"伊達方","town_kana":"ダテガタ","prefecture_code":22},"0011":{"zip_code":"4360011","prefecture":"静岡県","prefecture_kana":"シズオカケン","city":"掛川市","city_kana":"カケガワシ","town":"満水","town_kana":"タマリ","prefecture_code":22},"0333":{"zip_code":"4360333","prefecture":"静岡県","prefecture_kana":"シズオカケン","city":"掛川市","city_kana":"カケガワシ","town":"丹間","town_kana":"タンマ","prefecture_code":22},"0082":{"zip_code":"4360082","prefecture":"静岡県","prefecture_kana":"シズオカケン","city":"掛川市","city_kana":"カケガワシ","town":"淡陽","town_kana":"タンヨウ","prefecture_code":22},"0056":{"zip_code":"4360056","prefecture":"静岡県","prefecture_kana":"シズオカケン","city":"掛川市","city_kana":"カケガワシ","town":"中央","town_kana":"チュウオウ","prefecture_code":22},"0046":{"zip_code":"4360046","prefecture":"静岡県","prefecture_kana":"シズオカケン","city":"掛川市","city_kana":"カケガワシ","town":"中央高町","town_kana":"チュウオウタカマチ","prefecture_code":22},"0106":{"zip_code":"4360106","prefecture":"静岡県","prefecture_kana":"シズオカケン","city":"掛川市","city_kana":"カケガワシ","town":"寺島","town_kana":"テラシマ","prefecture_code":22},"0065":{"zip_code":"4360065","prefecture":"静岡県","prefecture_kana":"シズオカケン","city":"掛川市","city_kana":"カケガワシ","town":"天王町","town_kana":"テンノウチョウ","prefecture_code":22},"0035":{"zip_code":"4360035","prefecture":"静岡県","prefecture_kana":"シズオカケン","city":"掛川市","city_kana":"カケガワシ","town":"徳泉","town_kana":"トクイズミ","prefecture_code":22},"0224":{"zip_code":"4360224","prefecture":"静岡県","prefecture_kana":"シズオカケン","city":"掛川市","city_kana":"カケガワシ","town":"富部","town_kana":"トンベ","prefecture_code":22},"0051":{"zip_code":"4360051","prefecture":"静岡県","prefecture_kana":"シズオカケン","city":"掛川市","city_kana":"カケガワシ","town":"中宿","town_kana":"ナカジュク","prefecture_code":22},"0102":{"zip_code":"4360102","prefecture":"静岡県","prefecture_kana":"シズオカケン","city":"掛川市","city_kana":"カケガワシ","town":"中西之谷","town_kana":"ナカニシノヤ","prefecture_code":22},"0092":{"zip_code":"4360092","prefecture":"静岡県","prefecture_kana":"シズオカケン","city":"掛川市","city_kana":"カケガワシ","town":"中町","town_kana":"ナカマチ","prefecture_code":22},"0047":{"zip_code":"4360047","prefecture":"静岡県","prefecture_kana":"シズオカケン","city":"掛川市","city_kana":"カケガワシ","town":"長谷","town_kana":"ナガヤ","prefecture_code":22},"0058":{"zip_code":"4360058","prefecture":"静岡県","prefecture_kana":"シズオカケン","city":"掛川市","city_kana":"カケガワシ","town":"七日町","town_kana":"ナノカマチ","prefecture_code":22},"0085":{"zip_code":"4360085","prefecture":"静岡県","prefecture_kana":"シズオカケン","city":"掛川市","city_kana":"カケガワシ","town":"成滝","town_kana":"ナルタキ","prefecture_code":22},"0116":{"zip_code":"4360116","prefecture":"静岡県","prefecture_kana":"シズオカケン","city":"掛川市","city_kana":"カケガワシ","town":"西山","town_kana":"ニシヤマ","prefecture_code":22},"0003":{"zip_code":"4360003","prefecture":"静岡県","prefecture_kana":"シズオカケン","city":"掛川市","city_kana":"カケガワシ","town":"日坂","town_kana":"ニッサカ","prefecture_code":22},"0071":{"zip_code":"4360071","prefecture":"静岡県","prefecture_kana":"シズオカケン","city":"掛川市","city_kana":"カケガワシ","town":"仁藤","town_kana":"ニトウ","prefecture_code":22},"0075":{"zip_code":"4360075","prefecture":"静岡県","prefecture_kana":"シズオカケン","city":"掛川市","city_kana":"カケガワシ","town":"仁藤町","town_kana":"ニトウマチ","prefecture_code":22},"0336":{"zip_code":"4360336","prefecture":"静岡県","prefecture_kana":"シズオカケン","city":"掛川市","city_kana":"カケガワシ","town":"萩間","town_kana":"ハギマ","prefecture_code":22},"0117":{"zip_code":"4360117","prefecture":"静岡県","prefecture_kana":"シズオカケン","city":"掛川市","city_kana":"カケガワシ","town":"幡鎌","town_kana":"ハタカマ","prefecture_code":22},"0081":{"zip_code":"4360081","prefecture":"静岡県","prefecture_kana":"シズオカケン","city":"掛川市","city_kana":"カケガワシ","town":"初馬","town_kana":"ハツマ","prefecture_code":22},"0036":{"zip_code":"4360036","prefecture":"静岡県","prefecture_kana":"シズオカケン","city":"掛川市","city_kana":"カケガワシ","town":"原川","town_kana":"ハラガワ","prefecture_code":22},"0105":{"zip_code":"4360105","prefecture":"静岡県","prefecture_kana":"シズオカケン","city":"掛川市","city_kana":"カケガワシ","town":"原里","town_kana":"ハラサト","prefecture_code":22},"0334":{"zip_code":"4360334","prefecture":"静岡県","prefecture_kana":"シズオカケン","city":"掛川市","city_kana":"カケガワシ","town":"孕石","town_kana":"ハラミイシ","prefecture_code":22},"0001":{"zip_code":"4360001","prefecture":"静岡県","prefecture_kana":"シズオカケン","city":"掛川市","city_kana":"カケガワシ","town":"東山","town_kana":"ヒガシヤマ","prefecture_code":22},"0103":{"zip_code":"4360103","prefecture":"静岡県","prefecture_kana":"シズオカケン","city":"掛川市","city_kana":"カケガワシ","town":"久居島","town_kana":"ヒサイジマ","prefecture_code":22},"0104":{"zip_code":"4360104","prefecture":"静岡県","prefecture_kana":"シズオカケン","city":"掛川市","city_kana":"カケガワシ","town":"平島","town_kana":"ヒラシマ","prefecture_code":22},"0032":{"zip_code":"4360032","prefecture":"静岡県","prefecture_kana":"シズオカケン","city":"掛川市","city_kana":"カケガワシ","town":"平野","town_kana":"ヒラノ","prefecture_code":22},"0042":{"zip_code":"4360042","prefecture":"静岡県","prefecture_kana":"シズオカケン","city":"掛川市","city_kana":"カケガワシ","town":"二瀬川","town_kana":"フタセガワ","prefecture_code":22},"0112":{"zip_code":"4360112","prefecture":"静岡県","prefecture_kana":"シズオカケン","city":"掛川市","city_kana":"カケガワシ","town":"細谷","town_kana":"ホソヤ","prefecture_code":22},"0111":{"zip_code":"4360111","prefecture":"静岡県","prefecture_kana":"シズオカケン","city":"掛川市","city_kana":"カケガワシ","town":"本郷","town_kana":"ホンゴウ","prefecture_code":22},"0006":{"zip_code":"4360006","prefecture":"静岡県","prefecture_kana":"シズオカケン","city":"掛川市","city_kana":"カケガワシ","town":"本所","town_kana":"ホンジョ","prefecture_code":22},"0061":{"zip_code":"4360061","prefecture":"静岡県","prefecture_kana":"シズオカケン","city":"掛川市","city_kana":"カケガワシ","town":"水垂","town_kana":"ミズタリ","prefecture_code":22},"0021":{"zip_code":"4360021","prefecture":"静岡県","prefecture_kana":"シズオカケン","city":"掛川市","city_kana":"カケガワシ","town":"緑ケ丘","town_kana":"ミドリガオカ","prefecture_code":22},"0029":{"zip_code":"4360029","prefecture":"静岡県","prefecture_kana":"シズオカケン","city":"掛川市","city_kana":"カケガワシ","town":"南","town_kana":"ミナミ","prefecture_code":22},"0024":{"zip_code":"4360024","prefecture":"静岡県","prefecture_kana":"シズオカケン","city":"掛川市","city_kana":"カケガワシ","town":"南西郷","town_kana":"ミナミサイゴウ","prefecture_code":22},"0086":{"zip_code":"4360086","prefecture":"静岡県","prefecture_kana":"シズオカケン","city":"掛川市","city_kana":"カケガワシ","town":"宮脇","town_kana":"ミヤワキ","prefecture_code":22},"0004":{"zip_code":"4360004","prefecture":"静岡県","prefecture_kana":"シズオカケン","city":"掛川市","city_kana":"カケガワシ","town":"八坂","town_kana":"ヤサカ","prefecture_code":22},"0020":{"zip_code":"4360020","prefecture":"静岡県","prefecture_kana":"シズオカケン","city":"掛川市","city_kana":"カケガワシ","town":"矢崎町","town_kana":"ヤサキチョウ","prefecture_code":22},"0052":{"zip_code":"4360052","prefecture":"静岡県","prefecture_kana":"シズオカケン","city":"掛川市","city_kana":"カケガワシ","town":"柳町","town_kana":"ヤナギチョウ","prefecture_code":22},"0066":{"zip_code":"4360066","prefecture":"静岡県","prefecture_kana":"シズオカケン","city":"掛川市","city_kana":"カケガワシ","town":"谷の口町","town_kana":"ヤノクチチョウ","prefecture_code":22},"0053":{"zip_code":"4360053","prefecture":"静岡県","prefecture_kana":"シズオカケン","city":"掛川市","city_kana":"カケガワシ","town":"弥生町","town_kana":"ヤヨイチョウ","prefecture_code":22},"0226":{"zip_code":"4360226","prefecture":"静岡県","prefecture_kana":"シズオカケン","city":"掛川市","city_kana":"カケガワシ","town":"遊家","town_kana":"ユケ","prefecture_code":22},"0115":{"zip_code":"4360115","prefecture":"静岡県","prefecture_kana":"シズオカケン","city":"掛川市","city_kana":"カケガワシ","town":"吉岡","town_kana":"ヨシオカ","prefecture_code":22},"0038":{"zip_code":"4360038","prefecture":"静岡県","prefecture_kana":"シズオカケン","city":"掛川市","city_kana":"カケガワシ","town":"領家","town_kana":"リョウケ","prefecture_code":22},"0093":{"zip_code":"4360093","prefecture":"静岡県","prefecture_kana":"シズオカケン","city":"掛川市","city_kana":"カケガワシ","town":"連雀","town_kana":"レンジャク","prefecture_code":22},"0338":{"zip_code":"4360338","prefecture":"静岡県","prefecture_kana":"シズオカケン","city":"掛川市","city_kana":"カケガワシ","town":"和光","town_kana":"ワコウ","prefecture_code":22},"0015":{"zip_code":"4360015","prefecture":"静岡県","prefecture_kana":"シズオカケン","city":"掛川市","city_kana":"カケガワシ","town":"和田","town_kana":"ワダ","prefecture_code":22}}