{"0617":{"zip_code":"4370617","prefecture":"静岡県","prefecture_kana":"シズオカケン","city":"浜松市天竜区","city_kana":"ハママツシテンリュウク","town":"春野町筏戸大上","town_kana":"ハルノチョウイカンドオオカミ","prefecture_code":22},"0621":{"zip_code":"4370621","prefecture":"静岡県","prefecture_kana":"シズオカケン","city":"浜松市天竜区","city_kana":"ハママツシテンリュウク","town":"春野町砂川","town_kana":"ハルノチョウイサガワ","prefecture_code":22},"0615":{"zip_code":"4370615","prefecture":"静岡県","prefecture_kana":"シズオカケン","city":"浜松市天竜区","city_kana":"ハママツシテンリュウク","town":"春野町石打松下","town_kana":"ハルノチョウイシウチマツシタ","prefecture_code":22},"0607":{"zip_code":"4370607","prefecture":"静岡県","prefecture_kana":"シズオカケン","city":"浜松市天竜区","city_kana":"ハママツシテンリュウク","town":"春野町石切","town_kana":"ハルノチョウイシキリ","prefecture_code":22},"0624":{"zip_code":"4370624","prefecture":"静岡県","prefecture_kana":"シズオカケン","city":"浜松市天竜区","city_kana":"ハママツシテンリュウク","town":"春野町和泉平","town_kana":"ハルノチョウイズミダイラ","prefecture_code":22},"0622":{"zip_code":"4370622","prefecture":"静岡県","prefecture_kana":"シズオカケン","city":"浜松市天竜区","city_kana":"ハママツシテンリュウク","town":"春野町大時","town_kana":"ハルノチョウオオトキ","prefecture_code":22},"0608":{"zip_code":"4370608","prefecture":"静岡県","prefecture_kana":"シズオカケン","city":"浜松市天竜区","city_kana":"ハママツシテンリュウク","town":"春野町小俣京丸","town_kana":"ハルノチョウオマタキョウマル","prefecture_code":22},"0601":{"zip_code":"4370601","prefecture":"静岡県","prefecture_kana":"シズオカケン","city":"浜松市天竜区","city_kana":"ハママツシテンリュウク","town":"春野町川上","town_kana":"ハルノチョウカワカミ","prefecture_code":22},"0623":{"zip_code":"4370623","prefecture":"静岡県","prefecture_kana":"シズオカケン","city":"浜松市天竜区","city_kana":"ハママツシテンリュウク","town":"春野町胡桃平","town_kana":"ハルノチョウクルミダイラ","prefecture_code":22},"0605":{"zip_code":"4370605","prefecture":"静岡県","prefecture_kana":"シズオカケン","city":"浜松市天竜区","city_kana":"ハママツシテンリュウク","town":"春野町気田","town_kana":"ハルノチョウケタ","prefecture_code":22},"0618":{"zip_code":"4370618","prefecture":"静岡県","prefecture_kana":"シズオカケン","city":"浜松市天竜区","city_kana":"ハママツシテンリュウク","town":"春野町越木平","town_kana":"ハルノチョウコシキダイラ","prefecture_code":22},"0603":{"zip_code":"4370603","prefecture":"静岡県","prefecture_kana":"シズオカケン","city":"浜松市天竜区","city_kana":"ハママツシテンリュウク","town":"春野町五和","town_kana":"ハルノチョウゴワ","prefecture_code":22},"0602":{"zip_code":"4370602","prefecture":"静岡県","prefecture_kana":"シズオカケン","city":"浜松市天竜区","city_kana":"ハママツシテンリュウク","town":"春野町杉","town_kana":"ハルノチョウスギ","prefecture_code":22},"0616":{"zip_code":"4370616","prefecture":"静岡県","prefecture_kana":"シズオカケン","city":"浜松市天竜区","city_kana":"ハママツシテンリュウク","town":"春野町田黒","town_kana":"ハルノチョウタグロ","prefecture_code":22},"0611":{"zip_code":"4370611","prefecture":"静岡県","prefecture_kana":"シズオカケン","city":"浜松市天竜区","city_kana":"ハママツシテンリュウク","town":"春野町田河内","town_kana":"ハルノチョウタゴウチ","prefecture_code":22},"0614":{"zip_code":"4370614","prefecture":"静岡県","prefecture_kana":"シズオカケン","city":"浜松市天竜区","city_kana":"ハママツシテンリュウク","town":"春野町長蔵寺","town_kana":"ハルノチョウチョウゾウジ","prefecture_code":22},"0606":{"zip_code":"4370606","prefecture":"静岡県","prefecture_kana":"シズオカケン","city":"浜松市天竜区","city_kana":"ハママツシテンリュウク","town":"春野町豊岡","town_kana":"ハルノチョウトヨオカ","prefecture_code":22},"0612":{"zip_code":"4370612","prefecture":"静岡県","prefecture_kana":"シズオカケン","city":"浜松市天竜区","city_kana":"ハママツシテンリュウク","town":"春野町花島","town_kana":"ハルノチョウハナジマ","prefecture_code":22},"0625":{"zip_code":"4370625","prefecture":"静岡県","prefecture_kana":"シズオカケン","city":"浜松市天竜区","city_kana":"ハママツシテンリュウク","town":"春野町堀之内","town_kana":"ハルノチョウホリノウチ","prefecture_code":22},"0613":{"zip_code":"4370613","prefecture":"静岡県","prefecture_kana":"シズオカケン","city":"浜松市天竜区","city_kana":"ハママツシテンリュウク","town":"春野町牧野","town_kana":"ハルノチョウマキノ","prefecture_code":22},"0604":{"zip_code":"4370604","prefecture":"静岡県","prefecture_kana":"シズオカケン","city":"浜松市天竜区","city_kana":"ハママツシテンリュウク","town":"春野町宮川","town_kana":"ハルノチョウミヤガワ","prefecture_code":22},"0626":{"zip_code":"4370626","prefecture":"静岡県","prefecture_kana":"シズオカケン","city":"浜松市天竜区","city_kana":"ハママツシテンリュウク","town":"春野町領家","town_kana":"ハルノチョウリョウケ","prefecture_code":22},"1206":{"zip_code":"4371206","prefecture":"静岡県","prefecture_kana":"シズオカケン","city":"磐田市","city_kana":"イワタシ","town":"五十子","town_kana":"イカゴ","prefecture_code":22},"1216":{"zip_code":"4371216","prefecture":"静岡県","prefecture_kana":"シズオカケン","city":"磐田市","city_kana":"イワタシ","town":"一色","town_kana":"イッシキ","prefecture_code":22},"1217":{"zip_code":"4371217","prefecture":"静岡県","prefecture_kana":"シズオカケン","city":"磐田市","city_kana":"イワタシ","town":"宇兵衛新田","town_kana":"ウヘエシンデン","prefecture_code":22},"1211":{"zip_code":"4371211","prefecture":"静岡県","prefecture_kana":"シズオカケン","city":"磐田市","city_kana":"イワタシ","town":"大原","town_kana":"オオワラ","prefecture_code":22},"1213":{"zip_code":"4371213","prefecture":"静岡県","prefecture_kana":"シズオカケン","city":"磐田市","city_kana":"イワタシ","town":"塩新田","town_kana":"シオシンデン","prefecture_code":22},"1205":{"zip_code":"4371205","prefecture":"静岡県","prefecture_kana":"シズオカケン","city":"磐田市","city_kana":"イワタシ","town":"下太","town_kana":"シモフト","prefecture_code":22},"1214":{"zip_code":"4371214","prefecture":"静岡県","prefecture_kana":"シズオカケン","city":"磐田市","city_kana":"イワタシ","town":"清庵新田","town_kana":"セイアンシンデン","prefecture_code":22},"1215":{"zip_code":"4371215","prefecture":"静岡県","prefecture_kana":"シズオカケン","city":"磐田市","city_kana":"イワタシ","town":"太郎馬新田","town_kana":"タロマシンデン","prefecture_code":22},"1202":{"zip_code":"4371202","prefecture":"静岡県","prefecture_kana":"シズオカケン","city":"磐田市","city_kana":"イワタシ","town":"豊浜","town_kana":"トヨハマ","prefecture_code":22},"1201":{"zip_code":"4371201","prefecture":"静岡県","prefecture_kana":"シズオカケン","city":"磐田市","city_kana":"イワタシ","town":"豊浜中野","town_kana":"トヨハマナカノ","prefecture_code":22},"1208":{"zip_code":"4371208","prefecture":"静岡県","prefecture_kana":"シズオカケン","city":"磐田市","city_kana":"イワタシ","town":"東小島","town_kana":"ヒガシコジマ","prefecture_code":22},"1207":{"zip_code":"4371207","prefecture":"静岡県","prefecture_kana":"シズオカケン","city":"磐田市","city_kana":"イワタシ","town":"蛭池","town_kana":"ヒルイケ","prefecture_code":22},"1203":{"zip_code":"4371203","prefecture":"静岡県","prefecture_kana":"シズオカケン","city":"磐田市","city_kana":"イワタシ","town":"福田","town_kana":"フクデ","prefecture_code":22},"1204":{"zip_code":"4371204","prefecture":"静岡県","prefecture_kana":"シズオカケン","city":"磐田市","city_kana":"イワタシ","town":"福田中島","town_kana":"フクデナカジマ","prefecture_code":22},"1209":{"zip_code":"4371209","prefecture":"静岡県","prefecture_kana":"シズオカケン","city":"磐田市","city_kana":"イワタシ","town":"南島","town_kana":"ミナミシマ","prefecture_code":22},"1212":{"zip_code":"4371212","prefecture":"静岡県","prefecture_kana":"シズオカケン","city":"磐田市","city_kana":"イワタシ","town":"南田","town_kana":"ミナミダ","prefecture_code":22},"1218":{"zip_code":"4371218","prefecture":"静岡県","prefecture_kana":"シズオカケン","city":"磐田市","city_kana":"イワタシ","town":"南田伊兵衛新田","town_kana":"ミナミダイヘエシンデン","prefecture_code":22},"1436":{"zip_code":"4371436","prefecture":"静岡県","prefecture_kana":"シズオカケン","city":"掛川市","city_kana":"カケガワシ","town":"今滝","town_kana":"イマタキ","prefecture_code":22},"1438":{"zip_code":"4371438","prefecture":"静岡県","prefecture_kana":"シズオカケン","city":"掛川市","city_kana":"カケガワシ","town":"入山瀬","town_kana":"イリヤマセ","prefecture_code":22},"1403":{"zip_code":"4371403","prefecture":"静岡県","prefecture_kana":"シズオカケン","city":"掛川市","city_kana":"カケガワシ","town":"岩滑","town_kana":"イワナメ","prefecture_code":22},"1421":{"zip_code":"4371421","prefecture":"静岡県","prefecture_kana":"シズオカケン","city":"掛川市","city_kana":"カケガワシ","town":"大坂","town_kana":"オオサカ","prefecture_code":22},"1439":{"zip_code":"4371439","prefecture":"静岡県","prefecture_kana":"シズオカケン","city":"掛川市","city_kana":"カケガワシ","town":"大坪台","town_kana":"オオツボダイ","prefecture_code":22},"1302":{"zip_code":"4371302","prefecture":"静岡県","prefecture_kana":"シズオカケン","city":"掛川市","city_kana":"カケガワシ","town":"大渕","town_kana":"オオブチ","prefecture_code":22},"1303":{"zip_code":"4371303","prefecture":"静岡県","prefecture_kana":"シズオカケン","city":"掛川市","city_kana":"カケガワシ","town":"沖之須","town_kana":"オキノス","prefecture_code":22},"1407":{"zip_code":"4371407","prefecture":"静岡県","prefecture_kana":"シズオカケン","city":"掛川市","city_kana":"カケガワシ","town":"小貫","town_kana":"オヌキ","prefecture_code":22},"1422":{"zip_code":"4371422","prefecture":"静岡県","prefecture_kana":"シズオカケン","city":"掛川市","city_kana":"カケガワシ","town":"海戸","town_kana":"カイト","prefecture_code":22},"1433":{"zip_code":"4371433","prefecture":"静岡県","prefecture_kana":"シズオカケン","city":"掛川市","city_kana":"カケガワシ","town":"上土方","town_kana":"カミヒジカタ","prefecture_code":22},"1431":{"zip_code":"4371431","prefecture":"静岡県","prefecture_kana":"シズオカケン","city":"掛川市","city_kana":"カケガワシ","town":"上土方落合","town_kana":"カミヒジカタオチアイ","prefecture_code":22},"1432":{"zip_code":"4371432","prefecture":"静岡県","prefecture_kana":"シズオカケン","city":"掛川市","city_kana":"カケガワシ","town":"上土方工業団地","town_kana":"カミヒジカタコウギョウダンチ","prefecture_code":22},"1437":{"zip_code":"4371437","prefecture":"静岡県","prefecture_kana":"シズオカケン","city":"掛川市","city_kana":"カケガワシ","town":"上土方旦付新田","town_kana":"カミヒジカタダンヅクシンデン","prefecture_code":22},"1435":{"zip_code":"4371435","prefecture":"静岡県","prefecture_kana":"シズオカケン","city":"掛川市","city_kana":"カケガワシ","town":"上土方嶺向","town_kana":"カミヒジカタミネムカイ","prefecture_code":22},"1406":{"zip_code":"4371406","prefecture":"静岡県","prefecture_kana":"シズオカケン","city":"掛川市","city_kana":"カケガワシ","town":"川久保","town_kana":"カワクボ","prefecture_code":22},"1415":{"zip_code":"4371415","prefecture":"静岡県","prefecture_kana":"シズオカケン","city":"掛川市","city_kana":"カケガワシ","town":"菊浜","town_kana":"キクハマ","prefecture_code":22},"1414":{"zip_code":"4371414","prefecture":"静岡県","prefecture_kana":"シズオカケン","city":"掛川市","city_kana":"カケガワシ","town":"国包","town_kana":"クニカネ","prefecture_code":22},"1413":{"zip_code":"4371413","prefecture":"静岡県","prefecture_kana":"シズオカケン","city":"掛川市","city_kana":"カケガワシ","town":"国安","town_kana":"クニヤス","prefecture_code":22},"1411":{"zip_code":"4371411","prefecture":"静岡県","prefecture_kana":"シズオカケン","city":"掛川市","city_kana":"カケガワシ","town":"坂里","town_kana":"サカサト","prefecture_code":22},"1434":{"zip_code":"4371434","prefecture":"静岡県","prefecture_kana":"シズオカケン","city":"掛川市","city_kana":"カケガワシ","town":"下土方","town_kana":"シモヒジカタ","prefecture_code":22},"1401":{"zip_code":"4371401","prefecture":"静岡県","prefecture_kana":"シズオカケン","city":"掛川市","city_kana":"カケガワシ","town":"高瀬","town_kana":"タカセ","prefecture_code":22},"1412":{"zip_code":"4371412","prefecture":"静岡県","prefecture_kana":"シズオカケン","city":"掛川市","city_kana":"カケガワシ","town":"千浜","town_kana":"チハマ","prefecture_code":22},"1405":{"zip_code":"4371405","prefecture":"静岡県","prefecture_kana":"シズオカケン","city":"掛川市","city_kana":"カケガワシ","town":"中","town_kana":"ナカ","prefecture_code":22},"1402":{"zip_code":"4371402","prefecture":"静岡県","prefecture_kana":"シズオカケン","city":"掛川市","city_kana":"カケガワシ","town":"中方","town_kana":"ナカホウ","prefecture_code":22},"1304":{"zip_code":"4371304","prefecture":"静岡県","prefecture_kana":"シズオカケン","city":"掛川市","city_kana":"カケガワシ","town":"西大渕","town_kana":"ニシオオブチ","prefecture_code":22},"1404":{"zip_code":"4371404","prefecture":"静岡県","prefecture_kana":"シズオカケン","city":"掛川市","city_kana":"カケガワシ","town":"西之谷","town_kana":"ニシノヤ","prefecture_code":22},"1423":{"zip_code":"4371423","prefecture":"静岡県","prefecture_kana":"シズオカケン","city":"掛川市","city_kana":"カケガワシ","town":"浜川新田","town_kana":"ハマガワシンデン","prefecture_code":22},"1424":{"zip_code":"4371424","prefecture":"静岡県","prefecture_kana":"シズオカケン","city":"掛川市","city_kana":"カケガワシ","town":"浜野","town_kana":"ハマノ","prefecture_code":22},"1425":{"zip_code":"4371425","prefecture":"静岡県","prefecture_kana":"シズオカケン","city":"掛川市","city_kana":"カケガワシ","town":"浜野新田","town_kana":"ハマノシンデン","prefecture_code":22},"1416":{"zip_code":"4371416","prefecture":"静岡県","prefecture_kana":"シズオカケン","city":"掛川市","city_kana":"カケガワシ","town":"三俣","town_kana":"ミツマタ","prefecture_code":22},"1305":{"zip_code":"4371305","prefecture":"静岡県","prefecture_kana":"シズオカケン","city":"掛川市","city_kana":"カケガワシ","town":"山崎","town_kana":"ヤマザキ","prefecture_code":22},"1306":{"zip_code":"4371306","prefecture":"静岡県","prefecture_kana":"シズオカケン","city":"掛川市","city_kana":"カケガワシ","town":"洋望台","town_kana":"ヨウボウダイ","prefecture_code":22},"1301":{"zip_code":"4371301","prefecture":"静岡県","prefecture_kana":"シズオカケン","city":"掛川市","city_kana":"カケガワシ","town":"横須賀","town_kana":"ヨコスカ","prefecture_code":22},"0000":{"zip_code":"4370000","prefecture":"静岡県","prefecture_kana":"シズオカケン","city":"袋井市","city_kana":"フクロイシ","town":"","town_kana":"","prefecture_code":22},"0031":{"zip_code":"4370031","prefecture":"静岡県","prefecture_kana":"シズオカケン","city":"袋井市","city_kana":"フクロイシ","town":"愛野","town_kana":"アイノ","prefecture_code":22},"0039":{"zip_code":"4370039","prefecture":"静岡県","prefecture_kana":"シズオカケン","city":"袋井市","city_kana":"フクロイシ","town":"愛野東","town_kana":"アイノヒガシ","prefecture_code":22},"0040":{"zip_code":"4370040","prefecture":"静岡県","prefecture_kana":"シズオカケン","city":"袋井市","city_kana":"フクロイシ","town":"愛野南","town_kana":"アイノミナミ","prefecture_code":22},"0016":{"zip_code":"4370016","prefecture":"静岡県","prefecture_kana":"シズオカケン","city":"袋井市","city_kana":"フクロイシ","town":"葵町","town_kana":"アオイチョウ","prefecture_code":22},"0034":{"zip_code":"4370034","prefecture":"静岡県","prefecture_kana":"シズオカケン","city":"袋井市","city_kana":"フクロイシ","town":"青木町","town_kana":"アオキチョウ","prefecture_code":22},"1122":{"zip_code":"4371122","prefecture":"静岡県","prefecture_kana":"シズオカケン","city":"袋井市","city_kana":"フクロイシ","town":"浅岡","town_kana":"アサオカ","prefecture_code":22},"1102":{"zip_code":"4371102","prefecture":"静岡県","prefecture_kana":"シズオカケン","city":"袋井市","city_kana":"フクロイシ","town":"浅名","town_kana":"アサナ","prefecture_code":22},"1101":{"zip_code":"4371101","prefecture":"静岡県","prefecture_kana":"シズオカケン","city":"袋井市","city_kana":"フクロイシ","town":"浅羽","town_kana":"アサバ","prefecture_code":22},"1123":{"zip_code":"4371123","prefecture":"静岡県","prefecture_kana":"シズオカケン","city":"袋井市","city_kana":"フクロイシ","town":"浅羽一色","town_kana":"アサバイシキ","prefecture_code":22},"0015":{"zip_code":"4370015","prefecture":"静岡県","prefecture_kana":"シズオカケン","city":"袋井市","city_kana":"フクロイシ","town":"旭町","town_kana":"アサヒチョウ","prefecture_code":22},"0013":{"zip_code":"4370013","prefecture":"静岡県","prefecture_kana":"シズオカケン","city":"袋井市","city_kana":"フクロイシ","town":"新屋","town_kana":"アラヤ","prefecture_code":22},"0062":{"zip_code":"4370062","prefecture":"静岡県","prefecture_kana":"シズオカケン","city":"袋井市","city_kana":"フクロイシ","town":"泉町","town_kana":"イズミチョウ","prefecture_code":22},"0033":{"zip_code":"4370033","prefecture":"静岡県","prefecture_kana":"シズオカケン","city":"袋井市","city_kana":"フクロイシ","town":"上田町","town_kana":"ウエダチョウ","prefecture_code":22},"0121":{"zip_code":"4370121","prefecture":"静岡県","prefecture_kana":"シズオカケン","city":"袋井市","city_kana":"フクロイシ","town":"宇刈","town_kana":"ウガリ","prefecture_code":22},"1105":{"zip_code":"4371105","prefecture":"静岡県","prefecture_kana":"シズオカケン","city":"袋井市","city_kana":"フクロイシ","town":"梅山","town_kana":"ウメヤマ","prefecture_code":22},"0014":{"zip_code":"4370014","prefecture":"静岡県","prefecture_kana":"シズオカケン","city":"袋井市","city_kana":"フクロイシ","town":"永楽町","town_kana":"エイラクチョウ","prefecture_code":22},"0052":{"zip_code":"4370052","prefecture":"静岡県","prefecture_kana":"シズオカケン","city":"袋井市","city_kana":"フクロイシ","town":"太田","town_kana":"オオタ","prefecture_code":22},"1112":{"zip_code":"4371112","prefecture":"静岡県","prefecture_kana":"シズオカケン","city":"袋井市","city_kana":"フクロイシ","town":"大野","town_kana":"オオノ","prefecture_code":22},"0006":{"zip_code":"4370006","prefecture":"静岡県","prefecture_kana":"シズオカケン","city":"袋井市","city_kana":"フクロイシ","town":"大谷","town_kana":"オオヤ","prefecture_code":22},"1312":{"zip_code":"4371312","prefecture":"静岡県","prefecture_kana":"シズオカケン","city":"袋井市","city_kana":"フクロイシ","town":"岡崎","town_kana":"オカザキ","prefecture_code":22},"0036":{"zip_code":"4370036","prefecture":"静岡県","prefecture_kana":"シズオカケン","city":"袋井市","city_kana":"フクロイシ","town":"小川町","town_kana":"オガワチョウ","prefecture_code":22},"0124":{"zip_code":"4370124","prefecture":"静岡県","prefecture_kana":"シズオカケン","city":"袋井市","city_kana":"フクロイシ","town":"沖山梨","town_kana":"オキヤマナシ","prefecture_code":22},"0056":{"zip_code":"4370056","prefecture":"静岡県","prefecture_kana":"シズオカケン","city":"袋井市","city_kana":"フクロイシ","town":"小山","town_kana":"オヤマ","prefecture_code":22},"0029":{"zip_code":"4370029","prefecture":"静岡県","prefecture_kana":"シズオカケン","city":"袋井市","city_kana":"フクロイシ","town":"掛之上","town_kana":"カケノウエ","prefecture_code":22},"0127":{"zip_code":"4370127","prefecture":"静岡県","prefecture_kana":"シズオカケン","city":"袋井市","city_kana":"フクロイシ","town":"可睡の杜","town_kana":"カスイノモリ","prefecture_code":22},"0028":{"zip_code":"4370028","prefecture":"静岡県","prefecture_kana":"シズオカケン","city":"袋井市","city_kana":"フクロイシ","town":"神長","town_kana":"カミナガ","prefecture_code":22},"0125":{"zip_code":"4370125","prefecture":"静岡県","prefecture_kana":"シズオカケン","city":"袋井市","city_kana":"フクロイシ","town":"上山梨","town_kana":"カミヤマナシ","prefecture_code":22},"0003":{"zip_code":"4370003","prefecture":"静岡県","prefecture_kana":"シズオカケン","city":"袋井市","city_kana":"フクロイシ","town":"萱間","town_kana":"カヤマ","prefecture_code":22},"0064":{"zip_code":"4370064","prefecture":"静岡県","prefecture_kana":"シズオカケン","city":"袋井市","city_kana":"フクロイシ","town":"川井","town_kana":"カワイ","prefecture_code":22},"0002":{"zip_code":"4370002","prefecture":"静岡県","prefecture_kana":"シズオカケン","city":"袋井市","city_kana":"フクロイシ","town":"川会","town_kana":"カワエ","prefecture_code":22},"0046":{"zip_code":"4370046","prefecture":"静岡県","prefecture_kana":"シズオカケン","city":"袋井市","city_kana":"フクロイシ","town":"木原","town_kana":"キワラ","prefecture_code":22},"0012":{"zip_code":"4370012","prefecture":"静岡県","prefecture_kana":"シズオカケン","city":"袋井市","city_kana":"フクロイシ","town":"国本","town_kana":"クニモト","prefecture_code":22},"0061":{"zip_code":"4370061","prefecture":"静岡県","prefecture_kana":"シズオカケン","city":"袋井市","city_kana":"フクロイシ","town":"久能","town_kana":"クノ","prefecture_code":22},"0025":{"zip_code":"4370025","prefecture":"静岡県","prefecture_kana":"シズオカケン","city":"袋井市","city_kana":"フクロイシ","town":"栄町","town_kana":"サカエマチ","prefecture_code":22},"0037":{"zip_code":"4370037","prefecture":"静岡県","prefecture_kana":"シズオカケン","city":"袋井市","city_kana":"フクロイシ","town":"清水町","town_kana":"シミズチョウ","prefecture_code":22},"0123":{"zip_code":"4370123","prefecture":"静岡県","prefecture_kana":"シズオカケン","city":"袋井市","city_kana":"フクロイシ","town":"下山梨","town_kana":"シモヤマナシ","prefecture_code":22},"0035":{"zip_code":"4370035","prefecture":"静岡県","prefecture_kana":"シズオカケン","city":"袋井市","city_kana":"フクロイシ","town":"砂本町","town_kana":"スナモトチョウ","prefecture_code":22},"0038":{"zip_code":"4370038","prefecture":"静岡県","prefecture_kana":"シズオカケン","city":"袋井市","city_kana":"フクロイシ","town":"大門","town_kana":"ダイモン","prefecture_code":22},"0023":{"zip_code":"4370023","prefecture":"静岡県","prefecture_kana":"シズオカケン","city":"袋井市","city_kana":"フクロイシ","town":"高尾","town_kana":"タカオ","prefecture_code":22},"0027":{"zip_code":"4370027","prefecture":"静岡県","prefecture_kana":"シズオカケン","city":"袋井市","city_kana":"フクロイシ","town":"高尾町","town_kana":"タカオチョウ","prefecture_code":22},"0063":{"zip_code":"4370063","prefecture":"静岡県","prefecture_kana":"シズオカケン","city":"袋井市","city_kana":"フクロイシ","town":"田町","town_kana":"タマチ","prefecture_code":22},"1116":{"zip_code":"4371116","prefecture":"静岡県","prefecture_kana":"シズオカケン","city":"袋井市","city_kana":"フクロイシ","town":"太郎助","town_kana":"タロスケ","prefecture_code":22},"0126":{"zip_code":"4370126","prefecture":"静岡県","prefecture_kana":"シズオカケン","city":"袋井市","city_kana":"フクロイシ","town":"月見町","town_kana":"ツキミチョウ","prefecture_code":22},"0055":{"zip_code":"4370055","prefecture":"静岡県","prefecture_kana":"シズオカケン","city":"袋井市","city_kana":"フクロイシ","town":"土橋","town_kana":"ツチハシ","prefecture_code":22},"0067":{"zip_code":"4370067","prefecture":"静岡県","prefecture_kana":"シズオカケン","city":"袋井市","city_kana":"フクロイシ","town":"天神町","town_kana":"テンジンチョウ","prefecture_code":22},"0054":{"zip_code":"4370054","prefecture":"静岡県","prefecture_kana":"シズオカケン","city":"袋井市","city_kana":"フクロイシ","town":"徳光","town_kana":"トクミツ","prefecture_code":22},"1124":{"zip_code":"4371124","prefecture":"静岡県","prefecture_kana":"シズオカケン","city":"袋井市","city_kana":"フクロイシ","town":"富里","town_kana":"トミサト","prefecture_code":22},"0004":{"zip_code":"4370004","prefecture":"静岡県","prefecture_kana":"シズオカケン","city":"袋井市","city_kana":"フクロイシ","town":"友永","town_kana":"トモナガ","prefecture_code":22},"0032":{"zip_code":"4370032","prefecture":"静岡県","prefecture_kana":"シズオカケン","city":"袋井市","city_kana":"フクロイシ","town":"豊沢","town_kana":"トヨサワ","prefecture_code":22},"1103":{"zip_code":"4371103","prefecture":"静岡県","prefecture_kana":"シズオカケン","city":"袋井市","city_kana":"フクロイシ","town":"豊住","town_kana":"トヨズミ","prefecture_code":22},"1125":{"zip_code":"4371125","prefecture":"静岡県","prefecture_kana":"シズオカケン","city":"袋井市","city_kana":"フクロイシ","town":"中","town_kana":"ナカ","prefecture_code":22},"1111":{"zip_code":"4371111","prefecture":"静岡県","prefecture_kana":"シズオカケン","city":"袋井市","city_kana":"フクロイシ","town":"中新田","town_kana":"ナカシンデン","prefecture_code":22},"1126":{"zip_code":"4371126","prefecture":"静岡県","prefecture_kana":"シズオカケン","city":"袋井市","city_kana":"フクロイシ","town":"長溝","town_kana":"ナガミゾ","prefecture_code":22},"0043":{"zip_code":"4370043","prefecture":"静岡県","prefecture_kana":"シズオカケン","city":"袋井市","city_kana":"フクロイシ","town":"新池","town_kana":"ニイケ","prefecture_code":22},"1104":{"zip_code":"4371104","prefecture":"静岡県","prefecture_kana":"シズオカケン","city":"袋井市","city_kana":"フクロイシ","town":"新堀","town_kana":"ニイボリ","prefecture_code":22},"1118":{"zip_code":"4371118","prefecture":"静岡県","prefecture_kana":"シズオカケン","city":"袋井市","city_kana":"フクロイシ","town":"西ケ崎","town_kana":"ニシガサキ","prefecture_code":22},"0047":{"zip_code":"4370047","prefecture":"静岡県","prefecture_kana":"シズオカケン","city":"袋井市","city_kana":"フクロイシ","town":"西田","town_kana":"ニシダ","prefecture_code":22},"1114":{"zip_code":"4371114","prefecture":"静岡県","prefecture_kana":"シズオカケン","city":"袋井市","city_kana":"フクロイシ","town":"西同笠","town_kana":"ニシドウリ","prefecture_code":22},"0053":{"zip_code":"4370053","prefecture":"静岡県","prefecture_kana":"シズオカケン","city":"袋井市","city_kana":"フクロイシ","town":"延久","town_kana":"ノベヒサ","prefecture_code":22},"1119":{"zip_code":"4371119","prefecture":"静岡県","prefecture_kana":"シズオカケン","city":"袋井市","city_kana":"フクロイシ","town":"初越","town_kana":"ハヅコシ","prefecture_code":22},"0122":{"zip_code":"4370122","prefecture":"静岡県","prefecture_kana":"シズオカケン","city":"袋井市","city_kana":"フクロイシ","town":"春岡","town_kana":"ハルオカ","prefecture_code":22},"1113":{"zip_code":"4371113","prefecture":"静岡県","prefecture_kana":"シズオカケン","city":"袋井市","city_kana":"フクロイシ","town":"東同笠","town_kana":"ヒガシドウリ","prefecture_code":22},"0045":{"zip_code":"4370045","prefecture":"静岡県","prefecture_kana":"シズオカケン","city":"袋井市","city_kana":"フクロイシ","town":"彦島","town_kana":"ヒコジマ","prefecture_code":22},"0021":{"zip_code":"4370021","prefecture":"静岡県","prefecture_kana":"シズオカケン","city":"袋井市","city_kana":"フクロイシ","town":"広岡","town_kana":"ヒロオカ","prefecture_code":22},"0051":{"zip_code":"4370051","prefecture":"静岡県","prefecture_kana":"シズオカケン","city":"袋井市","city_kana":"フクロイシ","town":"深見","town_kana":"フカミ","prefecture_code":22},"0026":{"zip_code":"4370026","prefecture":"静岡県","prefecture_kana":"シズオカケン","city":"袋井市","city_kana":"フクロイシ","town":"袋井","town_kana":"フクロイ","prefecture_code":22},"0022":{"zip_code":"4370022","prefecture":"静岡県","prefecture_kana":"シズオカケン","city":"袋井市","city_kana":"フクロイシ","town":"方丈","town_kana":"ホウジョウ","prefecture_code":22},"0065":{"zip_code":"4370065","prefecture":"静岡県","prefecture_kana":"シズオカケン","city":"袋井市","city_kana":"フクロイシ","town":"堀越","town_kana":"ホリコシ","prefecture_code":22},"1117":{"zip_code":"4371117","prefecture":"静岡県","prefecture_kana":"シズオカケン","city":"袋井市","city_kana":"フクロイシ","town":"松原","town_kana":"マツバラ","prefecture_code":22},"0044":{"zip_code":"4370044","prefecture":"静岡県","prefecture_kana":"シズオカケン","city":"袋井市","city_kana":"フクロイシ","town":"松袋井","town_kana":"マツブクロイ","prefecture_code":22},"0024":{"zip_code":"4370024","prefecture":"静岡県","prefecture_kana":"シズオカケン","city":"袋井市","city_kana":"フクロイシ","town":"三門町","town_kana":"ミカドチョウ","prefecture_code":22},"0005":{"zip_code":"4370005","prefecture":"静岡県","prefecture_kana":"シズオカケン","city":"袋井市","city_kana":"フクロイシ","town":"見取","town_kana":"ミドリ","prefecture_code":22},"1115":{"zip_code":"4371115","prefecture":"静岡県","prefecture_kana":"シズオカケン","city":"袋井市","city_kana":"フクロイシ","town":"湊","town_kana":"ミナト","prefecture_code":22},"0041":{"zip_code":"4370041","prefecture":"静岡県","prefecture_kana":"シズオカケン","city":"袋井市","city_kana":"フクロイシ","town":"睦町","town_kana":"ムツミチョウ","prefecture_code":22},"0011":{"zip_code":"4370011","prefecture":"静岡県","prefecture_kana":"シズオカケン","city":"袋井市","city_kana":"フクロイシ","town":"村松","town_kana":"ムラマツ","prefecture_code":22},"1121":{"zip_code":"4371121","prefecture":"静岡県","prefecture_kana":"シズオカケン","city":"袋井市","city_kana":"フクロイシ","town":"諸井","town_kana":"モロイ","prefecture_code":22},"1311":{"zip_code":"4371311","prefecture":"静岡県","prefecture_kana":"シズオカケン","city":"袋井市","city_kana":"フクロイシ","town":"山崎","town_kana":"ヤマザキ","prefecture_code":22},"0066":{"zip_code":"4370066","prefecture":"静岡県","prefecture_kana":"シズオカケン","city":"袋井市","city_kana":"フクロイシ","town":"山科","town_kana":"ヤマシナ","prefecture_code":22},"0001":{"zip_code":"4370001","prefecture":"静岡県","prefecture_kana":"シズオカケン","city":"袋井市","city_kana":"フクロイシ","town":"山田","town_kana":"ヤマダ","prefecture_code":22},"0042":{"zip_code":"4370042","prefecture":"静岡県","prefecture_kana":"シズオカケン","city":"袋井市","city_kana":"フクロイシ","town":"山名町","town_kana":"ヤマナチョウ","prefecture_code":22},"0057":{"zip_code":"4370057","prefecture":"静岡県","prefecture_kana":"シズオカケン","city":"袋井市","city_kana":"フクロイシ","town":"横井","town_kana":"ヨコイ","prefecture_code":22},"0017":{"zip_code":"4370017","prefecture":"静岡県","prefecture_kana":"シズオカケン","city":"袋井市","city_kana":"フクロイシ","town":"鷲巣","town_kana":"ワシズ","prefecture_code":22},"1600":{"zip_code":"4371600","prefecture":"静岡県","prefecture_kana":"シズオカケン","city":"御前崎市","city_kana":"オマエザキシ","town":"","town_kana":"","prefecture_code":22},"1612":{"zip_code":"4371612","prefecture":"静岡県","prefecture_kana":"シズオカケン","city":"御前崎市","city_kana":"オマエザキシ","town":"池新田","town_kana":"イケシンデン","prefecture_code":22},"1621":{"zip_code":"4371621","prefecture":"静岡県","prefecture_kana":"シズオカケン","city":"御前崎市","city_kana":"オマエザキシ","town":"御前崎","town_kana":"オマエザキ","prefecture_code":22},"1615":{"zip_code":"4371615","prefecture":"静岡県","prefecture_kana":"シズオカケン","city":"御前崎市","city_kana":"オマエザキシ","town":"門屋","town_kana":"カドヤ","prefecture_code":22},"1601":{"zip_code":"4371601","prefecture":"静岡県","prefecture_kana":"シズオカケン","city":"御前崎市","city_kana":"オマエザキシ","town":"上朝比奈","town_kana":"カミアサヒナ","prefecture_code":22},"1613":{"zip_code":"4371613","prefecture":"静岡県","prefecture_kana":"シズオカケン","city":"御前崎市","city_kana":"オマエザキシ","town":"合戸","town_kana":"ゴウド","prefecture_code":22},"1604":{"zip_code":"4371604","prefecture":"静岡県","prefecture_kana":"シズオカケン","city":"御前崎市","city_kana":"オマエザキシ","town":"佐倉","town_kana":"サクラ","prefecture_code":22},"1614":{"zip_code":"4371614","prefecture":"静岡県","prefecture_kana":"シズオカケン","city":"御前崎市","city_kana":"オマエザキシ","town":"塩原新田","town_kana":"シオバラシンデン","prefecture_code":22},"1605":{"zip_code":"4371605","prefecture":"静岡県","prefecture_kana":"シズオカケン","city":"御前崎市","city_kana":"オマエザキシ","town":"下朝比奈","town_kana":"シモアサヒナ","prefecture_code":22},"1622":{"zip_code":"4371622","prefecture":"静岡県","prefecture_kana":"シズオカケン","city":"御前崎市","city_kana":"オマエザキシ","town":"白羽","town_kana":"シロワ","prefecture_code":22},"1611":{"zip_code":"4371611","prefecture":"静岡県","prefecture_kana":"シズオカケン","city":"御前崎市","city_kana":"オマエザキシ","town":"新野","town_kana":"ニイノ","prefecture_code":22},"1602":{"zip_code":"4371602","prefecture":"静岡県","prefecture_kana":"シズオカケン","city":"御前崎市","city_kana":"オマエザキシ","town":"比木","town_kana":"ヒキ","prefecture_code":22},"1623":{"zip_code":"4371623","prefecture":"静岡県","prefecture_kana":"シズオカケン","city":"御前崎市","city_kana":"オマエザキシ","town":"港","town_kana":"ミナト","prefecture_code":22},"1603":{"zip_code":"4371603","prefecture":"静岡県","prefecture_kana":"シズオカケン","city":"御前崎市","city_kana":"オマエザキシ","town":"宮内","town_kana":"ミヤウチ","prefecture_code":22},"1507":{"zip_code":"4371507","prefecture":"静岡県","prefecture_kana":"シズオカケン","city":"菊川市","city_kana":"キクガワシ","town":"赤土","town_kana":"アカツチ","prefecture_code":22},"1524":{"zip_code":"4371524","prefecture":"静岡県","prefecture_kana":"シズオカケン","city":"菊川市","city_kana":"キクガワシ","town":"大石","town_kana":"オオイシ","prefecture_code":22},"1506":{"zip_code":"4371506","prefecture":"静岡県","prefecture_kana":"シズオカケン","city":"菊川市","city_kana":"キクガワシ","town":"河東","town_kana":"カトウ","prefecture_code":22},"1521":{"zip_code":"4371521","prefecture":"静岡県","prefecture_kana":"シズオカケン","city":"菊川市","city_kana":"キクガワシ","town":"上平川","town_kana":"カミヒラカワ","prefecture_code":22},"1503":{"zip_code":"4371503","prefecture":"静岡県","prefecture_kana":"シズオカケン","city":"菊川市","city_kana":"キクガワシ","town":"川上","town_kana":"カワカミ","prefecture_code":22},"1512":{"zip_code":"4371512","prefecture":"静岡県","prefecture_kana":"シズオカケン","city":"菊川市","city_kana":"キクガワシ","town":"猿渡","town_kana":"サルワタリ","prefecture_code":22},"1514":{"zip_code":"4371514","prefecture":"静岡県","prefecture_kana":"シズオカケン","city":"菊川市","city_kana":"キクガワシ","town":"下平川","town_kana":"シモヒラカワ","prefecture_code":22},"1505":{"zip_code":"4371505","prefecture":"静岡県","prefecture_kana":"シズオカケン","city":"菊川市","city_kana":"キクガワシ","town":"高橋","town_kana":"タカハシ","prefecture_code":22},"1513":{"zip_code":"4371513","prefecture":"静岡県","prefecture_kana":"シズオカケン","city":"菊川市","city_kana":"キクガワシ","town":"棚草","town_kana":"タナクサ","prefecture_code":22},"1501":{"zip_code":"4371501","prefecture":"静岡県","prefecture_kana":"シズオカケン","city":"菊川市","city_kana":"キクガワシ","town":"丹野","town_kana":"タンノ","prefecture_code":22},"1523":{"zip_code":"4371523","prefecture":"静岡県","prefecture_kana":"シズオカケン","city":"菊川市","city_kana":"キクガワシ","town":"堂山新田","town_kana":"ドウヤマシンデン","prefecture_code":22},"1504":{"zip_code":"4371504","prefecture":"静岡県","prefecture_kana":"シズオカケン","city":"菊川市","city_kana":"キクガワシ","town":"花水木","town_kana":"ハナミズキ","prefecture_code":22},"1502":{"zip_code":"4371502","prefecture":"静岡県","prefecture_kana":"シズオカケン","city":"菊川市","city_kana":"キクガワシ","town":"古谷","town_kana":"フルヤ","prefecture_code":22},"1522":{"zip_code":"4371522","prefecture":"静岡県","prefecture_kana":"シズオカケン","city":"菊川市","city_kana":"キクガワシ","town":"嶺田","town_kana":"ミネダ","prefecture_code":22},"1511":{"zip_code":"4371511","prefecture":"静岡県","prefecture_kana":"シズオカケン","city":"菊川市","city_kana":"キクガワシ","town":"目木","town_kana":"モッキ","prefecture_code":22},"0200":{"zip_code":"4370200","prefecture":"静岡県","prefecture_kana":"シズオカケン","city":"周智郡森町","city_kana":"シュウチグンモリマチ","town":"","town_kana":"","prefecture_code":22},"0216":{"zip_code":"4370216","prefecture":"静岡県","prefecture_kana":"シズオカケン","city":"周智郡森町","city_kana":"シュウチグンモリマチ","town":"天宮","town_kana":"アメノミヤ","prefecture_code":22},"0222":{"zip_code":"4370222","prefecture":"静岡県","prefecture_kana":"シズオカケン","city":"周智郡森町","city_kana":"シュウチグンモリマチ","town":"飯田","town_kana":"イイダ","prefecture_code":22},"0226":{"zip_code":"4370226","prefecture":"静岡県","prefecture_kana":"シズオカケン","city":"周智郡森町","city_kana":"シュウチグンモリマチ","town":"一宮","town_kana":"イチミヤ","prefecture_code":22},"0224":{"zip_code":"4370224","prefecture":"静岡県","prefecture_kana":"シズオカケン","city":"周智郡森町","city_kana":"シュウチグンモリマチ","town":"牛飼","town_kana":"ウシカイ","prefecture_code":22},"0217":{"zip_code":"4370217","prefecture":"静岡県","prefecture_kana":"シズオカケン","city":"周智郡森町","city_kana":"シュウチグンモリマチ","town":"薄場","town_kana":"ウスバ","prefecture_code":22},"0221":{"zip_code":"4370221","prefecture":"静岡県","prefecture_kana":"シズオカケン","city":"周智郡森町","city_kana":"シュウチグンモリマチ","town":"円田","town_kana":"エンデン","prefecture_code":22},"0205":{"zip_code":"4370205","prefecture":"静岡県","prefecture_kana":"シズオカケン","city":"周智郡森町","city_kana":"シュウチグンモリマチ","town":"大鳥居","town_kana":"オオトリイ","prefecture_code":22},"0203":{"zip_code":"4370203","prefecture":"静岡県","prefecture_kana":"シズオカケン","city":"周智郡森町","city_kana":"シュウチグンモリマチ","town":"鍛冶島","town_kana":"カジシマ","prefecture_code":22},"0206":{"zip_code":"4370206","prefecture":"静岡県","prefecture_kana":"シズオカケン","city":"周智郡森町","city_kana":"シュウチグンモリマチ","town":"葛布","town_kana":"カツブ","prefecture_code":22},"0202":{"zip_code":"4370202","prefecture":"静岡県","prefecture_kana":"シズオカケン","city":"周智郡森町","city_kana":"シュウチグンモリマチ","town":"亀久保","town_kana":"カメクボ","prefecture_code":22},"0214":{"zip_code":"4370214","prefecture":"静岡県","prefecture_kana":"シズオカケン","city":"周智郡森町","city_kana":"シュウチグンモリマチ","town":"草ケ谷","town_kana":"クサガヤ","prefecture_code":22},"0201":{"zip_code":"4370201","prefecture":"静岡県","prefecture_kana":"シズオカケン","city":"周智郡森町","city_kana":"シュウチグンモリマチ","town":"嵯塚","town_kana":"サヅカ","prefecture_code":22},"0211":{"zip_code":"4370211","prefecture":"静岡県","prefecture_kana":"シズオカケン","city":"周智郡森町","city_kana":"シュウチグンモリマチ","town":"城下","town_kana":"シロシタ","prefecture_code":22},"0227":{"zip_code":"4370227","prefecture":"静岡県","prefecture_kana":"シズオカケン","city":"周智郡森町","city_kana":"シュウチグンモリマチ","town":"橘","town_kana":"タチバナ","prefecture_code":22},"0204":{"zip_code":"4370204","prefecture":"静岡県","prefecture_kana":"シズオカケン","city":"周智郡森町","city_kana":"シュウチグンモリマチ","town":"問詰","town_kana":"トイヅメ","prefecture_code":22},"0223":{"zip_code":"4370223","prefecture":"静岡県","prefecture_kana":"シズオカケン","city":"周智郡森町","city_kana":"シュウチグンモリマチ","town":"中川","town_kana":"ナカガワ","prefecture_code":22},"0207":{"zip_code":"4370207","prefecture":"静岡県","prefecture_kana":"シズオカケン","city":"周智郡森町","city_kana":"シュウチグンモリマチ","town":"西俣","town_kana":"ニシマタ","prefecture_code":22},"0208":{"zip_code":"4370208","prefecture":"静岡県","prefecture_kana":"シズオカケン","city":"周智郡森町","city_kana":"シュウチグンモリマチ","town":"三倉","town_kana":"ミクラ","prefecture_code":22},"0212":{"zip_code":"4370212","prefecture":"静岡県","prefecture_kana":"シズオカケン","city":"周智郡森町","city_kana":"シュウチグンモリマチ","town":"向天方","town_kana":"ムカイアマガタ","prefecture_code":22},"0213":{"zip_code":"4370213","prefecture":"静岡県","prefecture_kana":"シズオカケン","city":"周智郡森町","city_kana":"シュウチグンモリマチ","town":"睦実","town_kana":"ムツミ","prefecture_code":22},"0215":{"zip_code":"4370215","prefecture":"静岡県","prefecture_kana":"シズオカケン","city":"周智郡森町","city_kana":"シュウチグンモリマチ","town":"森","town_kana":"モリ","prefecture_code":22},"0225":{"zip_code":"4370225","prefecture":"静岡県","prefecture_kana":"シズオカケン","city":"周智郡森町","city_kana":"シュウチグンモリマチ","town":"谷中","town_kana":"ヤナカ","prefecture_code":22}}