{"0000":{"zip_code":"4380000","prefecture":"静岡県","prefecture_kana":"シズオカケン","city":"磐田市","city_kana":"イワタシ","town":"以下に掲載がない場合","town_kana":"イカニケイサイガナイバアイ","prefecture_code":22},"0824":{"zip_code":"4380824","prefecture":"静岡県","prefecture_kana":"シズオカケン","city":"磐田市","city_kana":"イワタシ","town":"赤池","town_kana":"アカイケ","prefecture_code":22},"0017":{"zip_code":"4380017","prefecture":"静岡県","prefecture_kana":"シズオカケン","city":"磐田市","city_kana":"イワタシ","town":"安久路","town_kana":"アクロ","prefecture_code":22},"0078":[{"zip_code":"4380078","prefecture":"静岡県","prefecture_kana":"シズオカケン","city":"磐田市","city_kana":"イワタシ","town":"旭ケ丘","town_kana":"アサヒガオカ","prefecture_code":22},{"zip_code":"4380078","prefecture":"静岡県","prefecture_kana":"シズオカケン","city":"磐田市","city_kana":"イワタシ","town":"石原町","town_kana":"イシワラチョウ","prefecture_code":22},{"zip_code":"4380078","prefecture":"静岡県","prefecture_kana":"シズオカケン","city":"磐田市","city_kana":"イワタシ","town":"泉町","town_kana":"イズミチョウ","prefecture_code":22},{"zip_code":"4380078","prefecture":"静岡県","prefecture_kana":"シズオカケン","city":"磐田市","city_kana":"イワタシ","town":"久保町","town_kana":"クボチョウ","prefecture_code":22},{"zip_code":"4380078","prefecture":"静岡県","prefecture_kana":"シズオカケン","city":"磐田市","city_kana":"イワタシ","town":"御殿","town_kana":"ゴテン","prefecture_code":22},{"zip_code":"4380078","prefecture":"静岡県","prefecture_kana":"シズオカケン","city":"磐田市","city_kana":"イワタシ","town":"坂上町","town_kana":"サカウエチョウ","prefecture_code":22},{"zip_code":"4380078","prefecture":"静岡県","prefecture_kana":"シズオカケン","city":"磐田市","city_kana":"イワタシ","town":"栄町","town_kana":"サカエチョウ","prefecture_code":22},{"zip_code":"4380078","prefecture":"静岡県","prefecture_kana":"シズオカケン","city":"磐田市","city_kana":"イワタシ","town":"桜ケ丘","town_kana":"サクラガオカ","prefecture_code":22},{"zip_code":"4380078","prefecture":"静岡県","prefecture_kana":"シズオカケン","city":"磐田市","city_kana":"イワタシ","town":"七軒町","town_kana":"シチケンチョウ","prefecture_code":22},{"zip_code":"4380078","prefecture":"静岡県","prefecture_kana":"シズオカケン","city":"磐田市","city_kana":"イワタシ","town":"田町","town_kana":"タマチ","prefecture_code":22},{"zip_code":"4380078","prefecture":"静岡県","prefecture_kana":"シズオカケン","city":"磐田市","city_kana":"イワタシ","town":"中央町","town_kana":"チュウオウチョウ","prefecture_code":22},{"zip_code":"4380078","prefecture":"静岡県","prefecture_kana":"シズオカケン","city":"磐田市","city_kana":"イワタシ","town":"中泉","town_kana":"ナカイズミ","prefecture_code":22},{"zip_code":"4380078","prefecture":"静岡県","prefecture_kana":"シズオカケン","city":"磐田市","city_kana":"イワタシ","town":"中町","town_kana":"ナカマチ","prefecture_code":22},{"zip_code":"4380078","prefecture":"静岡県","prefecture_kana":"シズオカケン","city":"磐田市","city_kana":"イワタシ","town":"西新町","town_kana":"ニシシンマチ","prefecture_code":22},{"zip_code":"4380078","prefecture":"静岡県","prefecture_kana":"シズオカケン","city":"磐田市","city_kana":"イワタシ","town":"西町","town_kana":"ニシマチ","prefecture_code":22},{"zip_code":"4380078","prefecture":"静岡県","prefecture_kana":"シズオカケン","city":"磐田市","city_kana":"イワタシ","town":"東町","town_kana":"ヒガシマチ","prefecture_code":22},{"zip_code":"4380078","prefecture":"静岡県","prefecture_kana":"シズオカケン","city":"磐田市","city_kana":"イワタシ","town":"本町","town_kana":"ホンマチ","prefecture_code":22}],"0062":{"zip_code":"4380062","prefecture":"静岡県","prefecture_kana":"シズオカケン","city":"磐田市","city_kana":"イワタシ","town":"新島","town_kana":"アラシマ","prefecture_code":22},"0105":{"zip_code":"4380105","prefecture":"静岡県","prefecture_kana":"シズオカケン","city":"磐田市","city_kana":"イワタシ","town":"家田","town_kana":"イエタ","prefecture_code":22},"0805":{"zip_code":"4380805","prefecture":"静岡県","prefecture_kana":"シズオカケン","city":"磐田市","city_kana":"イワタシ","town":"池田","town_kana":"イケダ","prefecture_code":22},"0086":[{"zip_code":"4380086","prefecture":"静岡県","prefecture_kana":"シズオカケン","city":"磐田市","city_kana":"イワタシ","town":"一番町","town_kana":"イチバンチョウ","prefecture_code":22},{"zip_code":"4380086","prefecture":"静岡県","prefecture_kana":"シズオカケン","city":"磐田市","city_kana":"イワタシ","town":"梅屋町","town_kana":"ウメヤチョウ","prefecture_code":22},{"zip_code":"4380086","prefecture":"静岡県","prefecture_kana":"シズオカケン","city":"磐田市","city_kana":"イワタシ","town":"加茂川通","town_kana":"カモガワドオリ","prefecture_code":22},{"zip_code":"4380086","prefecture":"静岡県","prefecture_kana":"シズオカケン","city":"磐田市","city_kana":"イワタシ","town":"河原町","town_kana":"カワラチョウ","prefecture_code":22},{"zip_code":"4380086","prefecture":"静岡県","prefecture_kana":"シズオカケン","city":"磐田市","city_kana":"イワタシ","town":"北見町","town_kana":"キタミチョウ","prefecture_code":22},{"zip_code":"4380086","prefecture":"静岡県","prefecture_kana":"シズオカケン","city":"磐田市","city_kana":"イワタシ","town":"権現町","town_kana":"ゴンゲンチョウ","prefecture_code":22},{"zip_code":"4380086","prefecture":"静岡県","prefecture_kana":"シズオカケン","city":"磐田市","city_kana":"イワタシ","town":"幸町","town_kana":"サイワイチョウ","prefecture_code":22},{"zip_code":"4380086","prefecture":"静岡県","prefecture_kana":"シズオカケン","city":"磐田市","city_kana":"イワタシ","town":"清水町","town_kana":"シミズチョウ","prefecture_code":22},{"zip_code":"4380086","prefecture":"静岡県","prefecture_kana":"シズオカケン","city":"磐田市","city_kana":"イワタシ","town":"宿町","town_kana":"シュクマチ","prefecture_code":22},{"zip_code":"4380086","prefecture":"静岡県","prefecture_kana":"シズオカケン","city":"磐田市","city_kana":"イワタシ","town":"地脇町","town_kana":"ジワキチョウ","prefecture_code":22},{"zip_code":"4380086","prefecture":"静岡県","prefecture_kana":"シズオカケン","city":"磐田市","city_kana":"イワタシ","town":"新通町","town_kana":"シンドオリチョウ","prefecture_code":22},{"zip_code":"4380086","prefecture":"静岡県","prefecture_kana":"シズオカケン","city":"磐田市","city_kana":"イワタシ","town":"住吉町","town_kana":"スミヨシチョウ","prefecture_code":22},{"zip_code":"4380086","prefecture":"静岡県","prefecture_kana":"シズオカケン","city":"磐田市","city_kana":"イワタシ","town":"天王町","town_kana":"テンノウチョウ","prefecture_code":22},{"zip_code":"4380086","prefecture":"静岡県","prefecture_kana":"シズオカケン","city":"磐田市","city_kana":"イワタシ","town":"中川町","town_kana":"ナカガワチョウ","prefecture_code":22},{"zip_code":"4380086","prefecture":"静岡県","prefecture_kana":"シズオカケン","city":"磐田市","city_kana":"イワタシ","town":"西坂町","town_kana":"ニシザカチョウ","prefecture_code":22},{"zip_code":"4380086","prefecture":"静岡県","prefecture_kana":"シズオカケン","city":"磐田市","city_kana":"イワタシ","town":"二番町","town_kana":"ニバンチョウ","prefecture_code":22},{"zip_code":"4380086","prefecture":"静岡県","prefecture_kana":"シズオカケン","city":"磐田市","city_kana":"イワタシ","town":"馬場町","town_kana":"ババチョウ","prefecture_code":22},{"zip_code":"4380086","prefecture":"静岡県","prefecture_kana":"シズオカケン","city":"磐田市","city_kana":"イワタシ","town":"東坂町","town_kana":"ヒガシザカチョウ","prefecture_code":22},{"zip_code":"4380086","prefecture":"静岡県","prefecture_kana":"シズオカケン","city":"磐田市","city_kana":"イワタシ","town":"見付","town_kana":"ミツケ","prefecture_code":22},{"zip_code":"4380086","prefecture":"静岡県","prefecture_kana":"シズオカケン","city":"磐田市","city_kana":"イワタシ","town":"美登里町","town_kana":"ミドリチョウ","prefecture_code":22},{"zip_code":"4380086","prefecture":"静岡県","prefecture_kana":"シズオカケン","city":"磐田市","city_kana":"イワタシ","town":"元倉町","town_kana":"モトクラチョウ","prefecture_code":22},{"zip_code":"4380086","prefecture":"静岡県","prefecture_kana":"シズオカケン","city":"磐田市","city_kana":"イワタシ","town":"元宮町","town_kana":"モトミヤチョウ","prefecture_code":22}],"0116":{"zip_code":"4380116","prefecture":"静岡県","prefecture_kana":"シズオカケン","city":"磐田市","city_kana":"イワタシ","town":"壱貫地","town_kana":"イッカンジ","prefecture_code":22},"0071":{"zip_code":"4380071","prefecture":"静岡県","prefecture_kana":"シズオカケン","city":"磐田市","city_kana":"イワタシ","town":"今之浦","town_kana":"イマノウラ","prefecture_code":22},"0016":{"zip_code":"4380016","prefecture":"静岡県","prefecture_kana":"シズオカケン","city":"磐田市","city_kana":"イワタシ","town":"岩井","town_kana":"イワイ","prefecture_code":22},"0104":{"zip_code":"4380104","prefecture":"静岡県","prefecture_kana":"シズオカケン","city":"磐田市","city_kana":"イワタシ","town":"岩室","town_kana":"イワムロ","prefecture_code":22},"0223":{"zip_code":"4380223","prefecture":"静岡県","prefecture_kana":"シズオカケン","city":"磐田市","city_kana":"イワタシ","town":"請負新田","town_kana":"ウケオイシンデン","prefecture_code":22},"0212":{"zip_code":"4380212","prefecture":"静岡県","prefecture_kana":"シズオカケン","city":"磐田市","city_kana":"イワタシ","town":"海老島","town_kana":"エビジマ","prefecture_code":22},"0812":{"zip_code":"4380812","prefecture":"静岡県","prefecture_kana":"シズオカケン","city":"磐田市","city_kana":"イワタシ","town":"海老塚","town_kana":"エビツカ","prefecture_code":22},"0103":{"zip_code":"4380103","prefecture":"静岡県","prefecture_kana":"シズオカケン","city":"磐田市","city_kana":"イワタシ","town":"大平","town_kana":"オイダイラ","prefecture_code":22},"0044":{"zip_code":"4380044","prefecture":"静岡県","prefecture_kana":"シズオカケン","city":"磐田市","city_kana":"イワタシ","town":"大泉町","town_kana":"オオイズミチョウ","prefecture_code":22},"0002":{"zip_code":"4380002","prefecture":"静岡県","prefecture_kana":"シズオカケン","city":"磐田市","city_kana":"イワタシ","town":"大久保","town_kana":"オオクボ","prefecture_code":22},"0036":{"zip_code":"4380036","prefecture":"静岡県","prefecture_kana":"シズオカケン","city":"磐田市","city_kana":"イワタシ","town":"大立野","town_kana":"オオダテノ","prefecture_code":22},"0107":{"zip_code":"4380107","prefecture":"静岡県","prefecture_kana":"シズオカケン","city":"磐田市","city_kana":"イワタシ","town":"大当所","town_kana":"オオトウショ","prefecture_code":22},"0214":{"zip_code":"4380214","prefecture":"静岡県","prefecture_kana":"シズオカケン","city":"磐田市","city_kana":"イワタシ","town":"大中瀬","town_kana":"オオナカゼ","prefecture_code":22},"0043":{"zip_code":"4380043","prefecture":"静岡県","prefecture_kana":"シズオカケン","city":"磐田市","city_kana":"イワタシ","town":"大原（１番地〜２０６１番地、２７５７番地〜２７６８番地）","town_kana":"オオワラ(1バンチ-2061バンチ、2757バンチ-2768バンチ)","prefecture_code":22},"0204":{"zip_code":"4380204","prefecture":"静岡県","prefecture_kana":"シズオカケン","city":"磐田市","city_kana":"イワタシ","town":"岡","town_kana":"オカ","prefecture_code":22},"0124":{"zip_code":"4380124","prefecture":"静岡県","prefecture_kana":"シズオカケン","city":"磐田市","city_kana":"イワタシ","town":"掛下","town_kana":"カケシタ","prefecture_code":22},"0234":{"zip_code":"4380234","prefecture":"静岡県","prefecture_kana":"シズオカケン","city":"磐田市","city_kana":"イワタシ","town":"掛塚","town_kana":"カケツカ","prefecture_code":22},"0011":{"zip_code":"4380011","prefecture":"静岡県","prefecture_kana":"シズオカケン","city":"磐田市","city_kana":"イワタシ","town":"笠梅","town_kana":"カサウメ","prefecture_code":22},"0038":{"zip_code":"4380038","prefecture":"静岡県","prefecture_kana":"シズオカケン","city":"磐田市","city_kana":"イワタシ","town":"鎌田","town_kana":"カマダ","prefecture_code":22},"0831":{"zip_code":"4380831","prefecture":"静岡県","prefecture_kana":"シズオカケン","city":"磐田市","city_kana":"イワタシ","town":"上新屋","town_kana":"カミアラヤ","prefecture_code":22},"0051":{"zip_code":"4380051","prefecture":"静岡県","prefecture_kana":"シズオカケン","city":"磐田市","city_kana":"イワタシ","town":"上大之郷","town_kana":"カミオオノゴウ","prefecture_code":22},"0045":{"zip_code":"4380045","prefecture":"静岡県","prefecture_kana":"シズオカケン","city":"磐田市","city_kana":"イワタシ","town":"上岡田","town_kana":"カミオカタ","prefecture_code":22},"0115":{"zip_code":"4380115","prefecture":"静岡県","prefecture_kana":"シズオカケン","city":"磐田市","city_kana":"イワタシ","town":"上神増","town_kana":"カミカンゾ","prefecture_code":22},"0111":{"zip_code":"4380111","prefecture":"静岡県","prefecture_kana":"シズオカケン","city":"磐田市","city_kana":"イワタシ","town":"上野部","town_kana":"カミノベ","prefecture_code":22},"0822":{"zip_code":"4380822","prefecture":"静岡県","prefecture_kana":"シズオカケン","city":"磐田市","city_kana":"イワタシ","town":"上本郷","town_kana":"カミホンゴウ","prefecture_code":22},"0817":{"zip_code":"4380817","prefecture":"静岡県","prefecture_kana":"シズオカケン","city":"磐田市","city_kana":"イワタシ","town":"上万能","town_kana":"カミマンノウ","prefecture_code":22},"0042":{"zip_code":"4380042","prefecture":"静岡県","prefecture_kana":"シズオカケン","city":"磐田市","city_kana":"イワタシ","town":"上南田","town_kana":"カミミナミダ","prefecture_code":22},"0804":{"zip_code":"4380804","prefecture":"静岡県","prefecture_kana":"シズオカケン","city":"磐田市","city_kana":"イワタシ","town":"加茂","town_kana":"カモ","prefecture_code":22},"0232":{"zip_code":"4380232","prefecture":"静岡県","prefecture_kana":"シズオカケン","city":"磐田市","city_kana":"イワタシ","town":"川袋","town_kana":"カワブクロ","prefecture_code":22},"0121":{"zip_code":"4380121","prefecture":"静岡県","prefecture_kana":"シズオカケン","city":"磐田市","city_kana":"イワタシ","town":"神増","town_kana":"カンゾ","prefecture_code":22},"0064":{"zip_code":"4380064","prefecture":"静岡県","prefecture_kana":"シズオカケン","city":"磐田市","city_kana":"イワタシ","town":"北島","town_kana":"キタジマ","prefecture_code":22},"0084":{"zip_code":"4380084","prefecture":"静岡県","prefecture_kana":"シズオカケン","city":"磐田市","city_kana":"イワタシ","town":"城之崎","town_kana":"キノサキ","prefecture_code":22},"0061":{"zip_code":"4380061","prefecture":"静岡県","prefecture_kana":"シズオカケン","city":"磐田市","city_kana":"イワタシ","town":"刑部島","town_kana":"ギョウブジマ","prefecture_code":22},"0067":{"zip_code":"4380067","prefecture":"静岡県","prefecture_kana":"シズオカケン","city":"磐田市","city_kana":"イワタシ","town":"草崎","town_kana":"クササキ","prefecture_code":22},"0814":{"zip_code":"4380814","prefecture":"静岡県","prefecture_kana":"シズオカケン","city":"磐田市","city_kana":"イワタシ","town":"気子島","town_kana":"ケゴジマ","prefecture_code":22},"0837":{"zip_code":"4380837","prefecture":"静岡県","prefecture_kana":"シズオカケン","city":"磐田市","city_kana":"イワタシ","town":"源平新田","town_kana":"ゲンペイシンデン","prefecture_code":22},"0114":{"zip_code":"4380114","prefecture":"静岡県","prefecture_kana":"シズオカケン","city":"磐田市","city_kana":"イワタシ","town":"合代島","town_kana":"ゴウダイジマ","prefecture_code":22},"0077":{"zip_code":"4380077","prefecture":"静岡県","prefecture_kana":"シズオカケン","city":"磐田市","city_kana":"イワタシ","town":"国府台","town_kana":"コウノダイ","prefecture_code":22},"0056":{"zip_code":"4380056","prefecture":"静岡県","prefecture_kana":"シズオカケン","city":"磐田市","city_kana":"イワタシ","town":"小島","town_kana":"コジマ","prefecture_code":22},"0838":{"zip_code":"4380838","prefecture":"静岡県","prefecture_kana":"シズオカケン","city":"磐田市","city_kana":"イワタシ","town":"小立野","town_kana":"コダテノ","prefecture_code":22},"0215":{"zip_code":"4380215","prefecture":"静岡県","prefecture_kana":"シズオカケン","city":"磐田市","city_kana":"イワタシ","town":"小中瀬","town_kana":"コナカゼ","prefecture_code":22},"0233":{"zip_code":"4380233","prefecture":"静岡県","prefecture_kana":"シズオカケン","city":"磐田市","city_kana":"イワタシ","town":"駒場","town_kana":"コマバ","prefecture_code":22},"0005":{"zip_code":"4380005","prefecture":"静岡県","prefecture_kana":"シズオカケン","city":"磐田市","city_kana":"イワタシ","town":"匂坂上","town_kana":"サギサカカミ","prefecture_code":22},"0003":{"zip_code":"4380003","prefecture":"静岡県","prefecture_kana":"シズオカケン","city":"磐田市","city_kana":"イワタシ","town":"匂坂新","town_kana":"サギサカシン","prefecture_code":22},"0004":{"zip_code":"4380004","prefecture":"静岡県","prefecture_kana":"シズオカケン","city":"磐田市","city_kana":"イワタシ","town":"匂坂中","town_kana":"サギサカナカ","prefecture_code":22},"0813":{"zip_code":"4380813","prefecture":"静岡県","prefecture_kana":"シズオカケン","city":"磐田市","city_kana":"イワタシ","town":"笹原島","town_kana":"ササハラジマ","prefecture_code":22},"0055":{"zip_code":"4380055","prefecture":"静岡県","prefecture_kana":"シズオカケン","city":"磐田市","city_kana":"イワタシ","town":"鮫島","town_kana":"サメジマ","prefecture_code":22},"0106":{"zip_code":"4380106","prefecture":"静岡県","prefecture_kana":"シズオカケン","city":"磐田市","city_kana":"イワタシ","town":"敷地","town_kana":"シキジ","prefecture_code":22},"0015":{"zip_code":"4380015","prefecture":"静岡県","prefecture_kana":"シズオカケン","city":"磐田市","city_kana":"イワタシ","town":"篠原","town_kana":"シノハラ","prefecture_code":22},"0052":{"zip_code":"4380052","prefecture":"静岡県","prefecture_kana":"シズオカケン","city":"磐田市","city_kana":"イワタシ","town":"下大之郷","town_kana":"シモオオノゴウ","prefecture_code":22},"0046":{"zip_code":"4380046","prefecture":"静岡県","prefecture_kana":"シズオカケン","city":"磐田市","city_kana":"イワタシ","town":"下岡田","town_kana":"シモオカタ","prefecture_code":22},"0126":{"zip_code":"4380126","prefecture":"静岡県","prefecture_kana":"シズオカケン","city":"磐田市","city_kana":"イワタシ","town":"下神増","town_kana":"シモカンゾ","prefecture_code":22},"0112":{"zip_code":"4380112","prefecture":"静岡県","prefecture_kana":"シズオカケン","city":"磐田市","city_kana":"イワタシ","town":"下野部","town_kana":"シモノベ","prefecture_code":22},"0823":{"zip_code":"4380823","prefecture":"静岡県","prefecture_kana":"シズオカケン","city":"磐田市","city_kana":"イワタシ","town":"下本郷","town_kana":"シモホンゴウ","prefecture_code":22},"0818":{"zip_code":"4380818","prefecture":"静岡県","prefecture_kana":"シズオカケン","city":"磐田市","city_kana":"イワタシ","town":"下万能","town_kana":"シモマンノウ","prefecture_code":22},"0236":{"zip_code":"4380236","prefecture":"静岡県","prefecture_kana":"シズオカケン","city":"磐田市","city_kana":"イワタシ","town":"十郎島","town_kana":"ジュウロウジマ","prefecture_code":22},"0066":{"zip_code":"4380066","prefecture":"静岡県","prefecture_kana":"シズオカケン","city":"磐田市","city_kana":"イワタシ","town":"白拍子","town_kana":"シラビョウシ","prefecture_code":22},"0235":{"zip_code":"4380235","prefecture":"静岡県","prefecture_kana":"シズオカケン","city":"磐田市","city_kana":"イワタシ","town":"白羽","town_kana":"シロワ","prefecture_code":22},"0113":{"zip_code":"4380113","prefecture":"静岡県","prefecture_kana":"シズオカケン","city":"磐田市","city_kana":"イワタシ","town":"新開","town_kana":"シンカイ","prefecture_code":22},"0025":{"zip_code":"4380025","prefecture":"静岡県","prefecture_kana":"シズオカケン","city":"磐田市","city_kana":"イワタシ","town":"新貝","town_kana":"シンガイ","prefecture_code":22},"0063":{"zip_code":"4380063","prefecture":"静岡県","prefecture_kana":"シズオカケン","city":"磐田市","city_kana":"イワタシ","town":"真光寺","town_kana":"シンコウジ","prefecture_code":22},"0033":{"zip_code":"4380033","prefecture":"静岡県","prefecture_kana":"シズオカケン","city":"磐田市","city_kana":"イワタシ","town":"新出","town_kana":"シンデ","prefecture_code":22},"0222":{"zip_code":"4380222","prefecture":"静岡県","prefecture_kana":"シズオカケン","city":"磐田市","city_kana":"イワタシ","town":"須恵新田","town_kana":"スエシンデン","prefecture_code":22},"0057":{"zip_code":"4380057","prefecture":"静岡県","prefecture_kana":"シズオカケン","city":"磐田市","city_kana":"イワタシ","town":"千手堂","town_kana":"センズドウ","prefecture_code":22},"0122":{"zip_code":"4380122","prefecture":"静岡県","prefecture_kana":"シズオカケン","city":"磐田市","city_kana":"イワタシ","town":"惣兵衛下新田","town_kana":"ソウベエシモシンデン","prefecture_code":22},"0202":{"zip_code":"4380202","prefecture":"静岡県","prefecture_kana":"シズオカケン","city":"磐田市","city_kana":"イワタシ","town":"高木","town_kana":"タカギ","prefecture_code":22},"0801":{"zip_code":"4380801","prefecture":"静岡県","prefecture_kana":"シズオカケン","city":"磐田市","city_kana":"イワタシ","town":"高見丘","town_kana":"タカミガオカ","prefecture_code":22},"0821":{"zip_code":"4380821","prefecture":"静岡県","prefecture_kana":"シズオカケン","city":"磐田市","city_kana":"イワタシ","town":"立野","town_kana":"タテノ","prefecture_code":22},"0021":{"zip_code":"4380021","prefecture":"静岡県","prefecture_kana":"シズオカケン","city":"磐田市","city_kana":"イワタシ","town":"玉越","town_kana":"タマコシ","prefecture_code":22},"0006":{"zip_code":"4380006","prefecture":"静岡県","prefecture_kana":"シズオカケン","city":"磐田市","city_kana":"イワタシ","town":"寺谷","town_kana":"テラダニ","prefecture_code":22},"0007":{"zip_code":"4380007","prefecture":"静岡県","prefecture_kana":"シズオカケン","city":"磐田市","city_kana":"イワタシ","town":"寺谷新田","town_kana":"テラダニシンデン","prefecture_code":22},"0075":{"zip_code":"4380075","prefecture":"静岡県","prefecture_kana":"シズオカケン","city":"磐田市","city_kana":"イワタシ","town":"天龍","town_kana":"テンリュウ","prefecture_code":22},"0039":{"zip_code":"4380039","prefecture":"静岡県","prefecture_kana":"シズオカケン","city":"磐田市","city_kana":"イワタシ","town":"東新町","town_kana":"トウシンチョウ","prefecture_code":22},"0806":{"zip_code":"4380806","prefecture":"静岡県","prefecture_kana":"シズオカケン","city":"磐田市","city_kana":"イワタシ","town":"東名","town_kana":"トウメイ","prefecture_code":22},"0216":{"zip_code":"4380216","prefecture":"静岡県","prefecture_kana":"シズオカケン","city":"磐田市","city_kana":"イワタシ","town":"飛平松","town_kana":"トビヒラマツ","prefecture_code":22},"0803":{"zip_code":"4380803","prefecture":"静岡県","prefecture_kana":"シズオカケン","city":"磐田市","city_kana":"イワタシ","town":"富丘","town_kana":"トミガオカ","prefecture_code":22},"0807":{"zip_code":"4380807","prefecture":"静岡県","prefecture_kana":"シズオカケン","city":"磐田市","city_kana":"イワタシ","town":"富里","town_kana":"トミサト","prefecture_code":22},"0231":{"zip_code":"4380231","prefecture":"静岡県","prefecture_kana":"シズオカケン","city":"磐田市","city_kana":"イワタシ","town":"豊岡","town_kana":"トヨオカ","prefecture_code":22},"0047":{"zip_code":"4380047","prefecture":"静岡県","prefecture_kana":"シズオカケン","city":"磐田市","city_kana":"イワタシ","town":"豊島","town_kana":"トヨシマ","prefecture_code":22},"0808":{"zip_code":"4380808","prefecture":"静岡県","prefecture_kana":"シズオカケン","city":"磐田市","city_kana":"イワタシ","town":"豊田","town_kana":"トヨダ","prefecture_code":22},"0835":{"zip_code":"4380835","prefecture":"静岡県","prefecture_kana":"シズオカケン","city":"磐田市","city_kana":"イワタシ","town":"豊田西之島","town_kana":"トヨダニシノシマ","prefecture_code":22},"0072":{"zip_code":"4380072","prefecture":"静岡県","prefecture_kana":"シズオカケン","city":"磐田市","city_kana":"イワタシ","town":"鳥之瀬","town_kana":"トリノセ","prefecture_code":22},"0053":{"zip_code":"4380053","prefecture":"静岡県","prefecture_kana":"シズオカケン","city":"磐田市","city_kana":"イワタシ","town":"中野","town_kana":"ナカノ","prefecture_code":22},"0218":{"zip_code":"4380218","prefecture":"静岡県","prefecture_kana":"シズオカケン","city":"磐田市","city_kana":"イワタシ","town":"中平松","town_kana":"ナカヒラマツ","prefecture_code":22},"0836":{"zip_code":"4380836","prefecture":"静岡県","prefecture_kana":"シズオカケン","city":"磐田市","city_kana":"イワタシ","town":"長森","town_kana":"ナガモリ","prefecture_code":22},"0069":{"zip_code":"4380069","prefecture":"静岡県","prefecture_kana":"シズオカケン","city":"磐田市","city_kana":"イワタシ","town":"長須賀","town_kana":"ナガスカ","prefecture_code":22},"0815":{"zip_code":"4380815","prefecture":"静岡県","prefecture_kana":"シズオカケン","city":"磐田市","city_kana":"イワタシ","town":"中田","town_kana":"ナカダ","prefecture_code":22},"0026":{"zip_code":"4380026","prefecture":"静岡県","prefecture_kana":"シズオカケン","city":"磐田市","city_kana":"イワタシ","town":"西貝塚","town_kana":"ニシカイヅカ","prefecture_code":22},"0022":{"zip_code":"4380022","prefecture":"静岡県","prefecture_kana":"シズオカケン","city":"磐田市","city_kana":"イワタシ","town":"西島","town_kana":"ニシジマ","prefecture_code":22},"0041":{"zip_code":"4380041","prefecture":"静岡県","prefecture_kana":"シズオカケン","city":"磐田市","city_kana":"イワタシ","town":"西之島","town_kana":"ニシノシマ","prefecture_code":22},"0217":{"zip_code":"4380217","prefecture":"静岡県","prefecture_kana":"シズオカケン","city":"磐田市","city_kana":"イワタシ","town":"西平松","town_kana":"ニシヒラマツ","prefecture_code":22},"0074":[{"zip_code":"4380074","prefecture":"静岡県","prefecture_kana":"シズオカケン","city":"磐田市","city_kana":"イワタシ","town":"二之宮","town_kana":"ニノミヤ","prefecture_code":22},{"zip_code":"4380074","prefecture":"静岡県","prefecture_kana":"シズオカケン","city":"磐田市","city_kana":"イワタシ","town":"二之宮浅間","town_kana":"ニノミヤセンゲン","prefecture_code":22}],"0073":{"zip_code":"4380073","prefecture":"静岡県","prefecture_kana":"シズオカケン","city":"磐田市","city_kana":"イワタシ","town":"二之宮東","town_kana":"ニノミヤヒガシ","prefecture_code":22},"0065":{"zip_code":"4380065","prefecture":"静岡県","prefecture_kana":"シズオカケン","city":"磐田市","city_kana":"イワタシ","town":"野箱","town_kana":"ノバコ","prefecture_code":22},"0224":{"zip_code":"4380224","prefecture":"静岡県","prefecture_kana":"シズオカケン","city":"磐田市","city_kana":"イワタシ","town":"浜新田","town_kana":"ハマシンデン","prefecture_code":22},"0054":{"zip_code":"4380054","prefecture":"静岡県","prefecture_kana":"シズオカケン","city":"磐田市","city_kana":"イワタシ","town":"浜部","town_kana":"ハマベ","prefecture_code":22},"0031":{"zip_code":"4380031","prefecture":"静岡県","prefecture_kana":"シズオカケン","city":"磐田市","city_kana":"イワタシ","town":"稗原","town_kana":"ヒエバラ","prefecture_code":22},"0035":{"zip_code":"4380035","prefecture":"静岡県","prefecture_kana":"シズオカケン","city":"磐田市","city_kana":"イワタシ","town":"東新屋","town_kana":"ヒガシアラヤ","prefecture_code":22},"0037":{"zip_code":"4380037","prefecture":"静岡県","prefecture_kana":"シズオカケン","city":"磐田市","city_kana":"イワタシ","town":"東貝塚","town_kana":"ヒガシカイヅカ","prefecture_code":22},"0802":{"zip_code":"4380802","prefecture":"静岡県","prefecture_kana":"シズオカケン","city":"磐田市","city_kana":"イワタシ","town":"東原","town_kana":"ヒガシバラ","prefecture_code":22},"0211":{"zip_code":"4380211","prefecture":"静岡県","prefecture_kana":"シズオカケン","city":"磐田市","city_kana":"イワタシ","town":"東平松","town_kana":"ヒガシヒラマツ","prefecture_code":22},"0028":{"zip_code":"4380028","prefecture":"静岡県","prefecture_kana":"シズオカケン","city":"磐田市","city_kana":"イワタシ","town":"東山","town_kana":"ヒガシヤマ","prefecture_code":22},"0032":{"zip_code":"4380032","prefecture":"静岡県","prefecture_kana":"シズオカケン","city":"磐田市","city_kana":"イワタシ","town":"東脇","town_kana":"ヒガシワキ","prefecture_code":22},"0023":{"zip_code":"4380023","prefecture":"静岡県","prefecture_kana":"シズオカケン","city":"磐田市","city_kana":"イワタシ","town":"彦島","town_kana":"ヒコジマ","prefecture_code":22},"0811":{"zip_code":"4380811","prefecture":"静岡県","prefecture_kana":"シズオカケン","city":"磐田市","city_kana":"イワタシ","town":"一言","town_kana":"ヒトコト","prefecture_code":22},"0203":{"zip_code":"4380203","prefecture":"静岡県","prefecture_kana":"シズオカケン","city":"磐田市","city_kana":"イワタシ","town":"平間","town_kana":"ヒラマ","prefecture_code":22},"0123":{"zip_code":"4380123","prefecture":"静岡県","prefecture_kana":"シズオカケン","city":"磐田市","city_kana":"イワタシ","town":"平松","town_kana":"ヒラマツ","prefecture_code":22},"0008":{"zip_code":"4380008","prefecture":"静岡県","prefecture_kana":"シズオカケン","city":"磐田市","city_kana":"イワタシ","town":"平松掛下入作","town_kana":"ヒラマツカケシタイリサク","prefecture_code":22},"0001":{"zip_code":"4380001","prefecture":"静岡県","prefecture_kana":"シズオカケン","city":"磐田市","city_kana":"イワタシ","town":"藤上原","town_kana":"フジカンバラ","prefecture_code":22},"0088":{"zip_code":"4380088","prefecture":"静岡県","prefecture_kana":"シズオカケン","city":"磐田市","city_kana":"イワタシ","town":"富士見台","town_kana":"フジミダイ","prefecture_code":22},"0083":{"zip_code":"4380083","prefecture":"静岡県","prefecture_kana":"シズオカケン","city":"磐田市","city_kana":"イワタシ","town":"富士見町","town_kana":"フジミチョウ","prefecture_code":22},"0205":{"zip_code":"4380205","prefecture":"静岡県","prefecture_kana":"シズオカケン","city":"磐田市","city_kana":"イワタシ","town":"堀之内","town_kana":"ホリノウチ","prefecture_code":22},"0068":{"zip_code":"4380068","prefecture":"静岡県","prefecture_kana":"シズオカケン","city":"磐田市","city_kana":"イワタシ","town":"前野","town_kana":"マエノ","prefecture_code":22},"0125":{"zip_code":"4380125","prefecture":"静岡県","prefecture_kana":"シズオカケン","city":"磐田市","city_kana":"イワタシ","town":"松之木島","town_kana":"マツノキジマ","prefecture_code":22},"0206":{"zip_code":"4380206","prefecture":"静岡県","prefecture_kana":"シズオカケン","city":"磐田市","city_kana":"イワタシ","town":"松本","town_kana":"マツモト","prefecture_code":22},"0058":{"zip_code":"4380058","prefecture":"静岡県","prefecture_kana":"シズオカケン","city":"磐田市","city_kana":"イワタシ","town":"万正寺","town_kana":"マンショウジ","prefecture_code":22},"0101":{"zip_code":"4380101","prefecture":"静岡県","prefecture_kana":"シズオカケン","city":"磐田市","city_kana":"イワタシ","town":"万瀬","town_kana":"マンゼ","prefecture_code":22},"0027":{"zip_code":"4380027","prefecture":"静岡県","prefecture_kana":"シズオカケン","city":"磐田市","city_kana":"イワタシ","town":"三ケ野","town_kana":"ミカノ","prefecture_code":22},"0018":{"zip_code":"4380018","prefecture":"静岡県","prefecture_kana":"シズオカケン","city":"磐田市","city_kana":"イワタシ","town":"三ケ野台","town_kana":"ミカノダイ","prefecture_code":22},"0085":{"zip_code":"4380085","prefecture":"静岡県","prefecture_kana":"シズオカケン","city":"磐田市","city_kana":"イワタシ","town":"水堀","town_kana":"ミズホリ","prefecture_code":22},"0127":{"zip_code":"4380127","prefecture":"静岡県","prefecture_kana":"シズオカケン","city":"磐田市","city_kana":"イワタシ","town":"三家","town_kana":"ミツエ","prefecture_code":22},"0081":{"zip_code":"4380081","prefecture":"静岡県","prefecture_kana":"シズオカケン","city":"磐田市","city_kana":"イワタシ","town":"緑ケ丘","town_kana":"ミドリガオカ","prefecture_code":22},"0221":{"zip_code":"4380221","prefecture":"静岡県","prefecture_kana":"シズオカケン","city":"磐田市","city_kana":"イワタシ","town":"南平松","town_kana":"ミナミヒラマツ","prefecture_code":22},"0816":{"zip_code":"4380816","prefecture":"静岡県","prefecture_kana":"シズオカケン","city":"磐田市","city_kana":"イワタシ","town":"宮之一色","town_kana":"ミヤノイシキ","prefecture_code":22},"0207":{"zip_code":"4380207","prefecture":"静岡県","prefecture_kana":"シズオカケン","city":"磐田市","city_kana":"イワタシ","town":"宮本","town_kana":"ミヤモト","prefecture_code":22},"0024":{"zip_code":"4380024","prefecture":"静岡県","prefecture_kana":"シズオカケン","city":"磐田市","city_kana":"イワタシ","town":"明ケ島","town_kana":"ミョウガジマ","prefecture_code":22},"0019":{"zip_code":"4380019","prefecture":"静岡県","prefecture_kana":"シズオカケン","city":"磐田市","city_kana":"イワタシ","town":"明ケ島原","town_kana":"ミョウガジマハラ","prefecture_code":22},"0012":{"zip_code":"4380012","prefecture":"静岡県","prefecture_kana":"シズオカケン","city":"磐田市","city_kana":"イワタシ","town":"向笠新屋","town_kana":"ムカサアラヤ","prefecture_code":22},"0013":{"zip_code":"4380013","prefecture":"静岡県","prefecture_kana":"シズオカケン","city":"磐田市","city_kana":"イワタシ","town":"向笠竹之内","town_kana":"ムカサタケノウチ","prefecture_code":22},"0014":{"zip_code":"4380014","prefecture":"静岡県","prefecture_kana":"シズオカケン","city":"磐田市","city_kana":"イワタシ","town":"向笠西","town_kana":"ムカサニシ","prefecture_code":22},"0102":{"zip_code":"4380102","prefecture":"静岡県","prefecture_kana":"シズオカケン","city":"磐田市","city_kana":"イワタシ","town":"虫生","town_kana":"ムシュウ","prefecture_code":22},"0082":{"zip_code":"4380082","prefecture":"静岡県","prefecture_kana":"シズオカケン","city":"磐田市","city_kana":"イワタシ","town":"元天神町","town_kana":"モトテンジンチョウ","prefecture_code":22},"0832":{"zip_code":"4380832","prefecture":"静岡県","prefecture_kana":"シズオカケン","city":"磐田市","city_kana":"イワタシ","town":"森岡","town_kana":"モリオカ","prefecture_code":22},"0834":{"zip_code":"4380834","prefecture":"静岡県","prefecture_kana":"シズオカケン","city":"磐田市","city_kana":"イワタシ","town":"森下","town_kana":"モリシタ","prefecture_code":22},"0825":{"zip_code":"4380825","prefecture":"静岡県","prefecture_kana":"シズオカケン","city":"磐田市","city_kana":"イワタシ","town":"森本","town_kana":"モリモト","prefecture_code":22},"0108":{"zip_code":"4380108","prefecture":"静岡県","prefecture_kana":"シズオカケン","city":"磐田市","city_kana":"イワタシ","town":"社山","town_kana":"ヤシロヤマ","prefecture_code":22},"0833":{"zip_code":"4380833","prefecture":"静岡県","prefecture_kana":"シズオカケン","city":"磐田市","city_kana":"イワタシ","town":"弥藤太島","town_kana":"ヤトウタジマ","prefecture_code":22},"0201":{"zip_code":"4380201","prefecture":"静岡県","prefecture_kana":"シズオカケン","city":"磐田市","city_kana":"イワタシ","town":"竜洋中島","town_kana":"リュウヨウナカジマ","prefecture_code":22},"0213":{"zip_code":"4380213","prefecture":"静岡県","prefecture_kana":"シズオカケン","city":"磐田市","city_kana":"イワタシ","town":"竜洋稗原","town_kana":"リュウヨウヒエバラ","prefecture_code":22},"0034":{"zip_code":"4380034","prefecture":"静岡県","prefecture_kana":"シズオカケン","city":"磐田市","city_kana":"イワタシ","town":"和口","town_kana":"ワグチ","prefecture_code":22}}