{"0061":{"zip_code":"4400061","prefecture":"愛知県","prefecture_kana":"アイチケン","city":"豊橋市","city_kana":"トヨハシシ","town":"飽海町","town_kana":"アクミチョウ","prefecture_code":23},"0043":{"zip_code":"4400043","prefecture":"愛知県","prefecture_kana":"アイチケン","city":"豊橋市","city_kana":"トヨハシシ","town":"朝丘町","town_kana":"アサオカチョウ","prefecture_code":23},"0058":{"zip_code":"4400058","prefecture":"愛知県","prefecture_kana":"アイチケン","city":"豊橋市","city_kana":"トヨハシシ","town":"旭本町","town_kana":"アサヒホンマチ","prefecture_code":23},"0057":{"zip_code":"4400057","prefecture":"愛知県","prefecture_kana":"アイチケン","city":"豊橋市","city_kana":"トヨハシシ","town":"旭町","town_kana":"アサヒマチ","prefecture_code":23},"0063":{"zip_code":"4400063","prefecture":"愛知県","prefecture_kana":"アイチケン","city":"豊橋市","city_kana":"トヨハシシ","town":"東田中郷町","town_kana":"アズマダナカゴウチョウ","prefecture_code":23},"0024":{"zip_code":"4400024","prefecture":"愛知県","prefecture_kana":"アイチケン","city":"豊橋市","city_kana":"トヨハシシ","town":"東田町井原","town_kana":"アズマダチョウイハラ","prefecture_code":23},"0054":[{"zip_code":"4400054","prefecture":"愛知県","prefecture_kana":"アイチケン","city":"豊橋市","city_kana":"トヨハシシ","town":"東田町北蓮田","town_kana":"アズマダチョウキタレンダ","prefecture_code":23},{"zip_code":"4400054","prefecture":"愛知県","prefecture_kana":"アイチケン","city":"豊橋市","city_kana":"トヨハシシ","town":"東田町東前山","town_kana":"アズマダチョウヒガシマエヤマ","prefecture_code":23},{"zip_code":"4400054","prefecture":"愛知県","prefecture_kana":"アイチケン","city":"豊橋市","city_kana":"トヨハシシ","town":"東田町西前山","town_kana":"アズマダチョウニシマエヤマ","prefecture_code":23}],"0062":[{"zip_code":"4400062","prefecture":"愛知県","prefecture_kana":"アイチケン","city":"豊橋市","city_kana":"トヨハシシ","town":"東田町西郷","town_kana":"アズマダチョウサイゴウ","prefecture_code":23},{"zip_code":"4400062","prefecture":"愛知県","prefecture_kana":"アイチケン","city":"豊橋市","city_kana":"トヨハシシ","town":"東田町中郷","town_kana":"アズマダチョウナカゴウ","prefecture_code":23},{"zip_code":"4400062","prefecture":"愛知県","prefecture_kana":"アイチケン","city":"豊橋市","city_kana":"トヨハシシ","town":"東田町西脇","town_kana":"アズマダチョウニシワキ","prefecture_code":23}],"0066":{"zip_code":"4400066","prefecture":"愛知県","prefecture_kana":"アイチケン","city":"豊橋市","city_kana":"トヨハシシ","town":"東田町","town_kana":"アズマダチョウ","prefecture_code":23},"0048":{"zip_code":"4400048","prefecture":"愛知県","prefecture_kana":"アイチケン","city":"豊橋市","city_kana":"トヨハシシ","town":"東田町","town_kana":"アズマダチョウ","prefecture_code":23},"0047":{"zip_code":"4400047","prefecture":"愛知県","prefecture_kana":"アイチケン","city":"豊橋市","city_kana":"トヨハシシ","town":"東田仲の町","town_kana":"アズマダナカノマチ","prefecture_code":23},"0045":{"zip_code":"4400045","prefecture":"愛知県","prefecture_kana":"アイチケン","city":"豊橋市","city_kana":"トヨハシシ","town":"吾妻町","town_kana":"アヅマチョウ","prefecture_code":23},"0827":{"zip_code":"4400827","prefecture":"愛知県","prefecture_kana":"アイチケン","city":"豊橋市","city_kana":"トヨハシシ","town":"池見町","town_kana":"イケミチョウ","prefecture_code":23},"0025":{"zip_code":"4400025","prefecture":"愛知県","prefecture_kana":"アイチケン","city":"豊橋市","city_kana":"トヨハシシ","town":"井原町","town_kana":"イハラチョウ","prefecture_code":23},"0801":{"zip_code":"4400801","prefecture":"愛知県","prefecture_kana":"アイチケン","city":"豊橋市","city_kana":"トヨハシシ","town":"今橋町","town_kana":"イマハシチョウ","prefecture_code":23},"0833":{"zip_code":"4400833","prefecture":"愛知県","prefecture_kana":"アイチケン","city":"豊橋市","city_kana":"トヨハシシ","town":"飯村町西山、高山","town_kana":"イムレチョウニシヤマ、タカヤマ","prefecture_code":23},"0836":{"zip_code":"4400836","prefecture":"愛知県","prefecture_kana":"アイチケン","city":"豊橋市","city_kana":"トヨハシシ","town":"飯村町","town_kana":"イムレチョウ","prefecture_code":23},"0835":{"zip_code":"4400835","prefecture":"愛知県","prefecture_kana":"アイチケン","city":"豊橋市","city_kana":"トヨハシシ","town":"飯村南","town_kana":"イムレミナミ","prefecture_code":23},"0834":{"zip_code":"4400834","prefecture":"愛知県","prefecture_kana":"アイチケン","city":"豊橋市","city_kana":"トヨハシシ","town":"飯村北","town_kana":"イムレキタ","prefecture_code":23},"0022":{"zip_code":"4400022","prefecture":"愛知県","prefecture_kana":"アイチケン","city":"豊橋市","city_kana":"トヨハシシ","town":"岩崎町","town_kana":"イワサキチョウ","prefecture_code":23},"0832":[{"zip_code":"4400832","prefecture":"愛知県","prefecture_kana":"アイチケン","city":"豊橋市","city_kana":"トヨハシシ","town":"岩田町","town_kana":"イワタチョウ","prefecture_code":23},{"zip_code":"4400832","prefecture":"愛知県","prefecture_kana":"アイチケン","city":"豊橋市","city_kana":"トヨハシシ","town":"中岩田","town_kana":"ナカイワタ","prefecture_code":23}],"0023":{"zip_code":"4400023","prefecture":"愛知県","prefecture_kana":"アイチケン","city":"豊橋市","city_kana":"トヨハシシ","town":"岩田町影岩","town_kana":"イワタチョウカゲイワ","prefecture_code":23},"0032":{"zip_code":"4400032","prefecture":"愛知県","prefecture_kana":"アイチケン","city":"豊橋市","city_kana":"トヨハシシ","town":"岩田町居村、北郷中","town_kana":"イワタチョウイムラ、キタゴウナカ","prefecture_code":23},"0041":{"zip_code":"4400041","prefecture":"愛知県","prefecture_kana":"アイチケン","city":"豊橋市","city_kana":"トヨハシシ","town":"岩田町宮下、道合","town_kana":"イワタチョウミヤシタ、ミチアイ","prefecture_code":23},"0842":{"zip_code":"4400842","prefecture":"愛知県","prefecture_kana":"アイチケン","city":"豊橋市","city_kana":"トヨハシシ","town":"岩屋町","town_kana":"イワヤチョウ","prefecture_code":23},"0067":{"zip_code":"4400067","prefecture":"愛知県","prefecture_kana":"アイチケン","city":"豊橋市","city_kana":"トヨハシシ","town":"上地町","town_kana":"ウエジチョウ","prefecture_code":23},"0894":{"zip_code":"4400894","prefecture":"愛知県","prefecture_kana":"アイチケン","city":"豊橋市","city_kana":"トヨハシシ","town":"魚町","town_kana":"ウオマチ","prefecture_code":23},"0006":[{"zip_code":"4400006","prefecture":"愛知県","prefecture_kana":"アイチケン","city":"豊橋市","city_kana":"トヨハシシ","town":"牛川町池下","town_kana":"ウシカワチョウイケシタ","prefecture_code":23},{"zip_code":"4400006","prefecture":"愛知県","prefecture_kana":"アイチケン","city":"豊橋市","city_kana":"トヨハシシ","town":"牛川町押川","town_kana":"ウシカワチョウオシカワ","prefecture_code":23},{"zip_code":"4400006","prefecture":"愛知県","prefecture_kana":"アイチケン","city":"豊橋市","city_kana":"トヨハシシ","town":"牛川町東仲田","town_kana":"ウシカワチョウヒガシナカダ","prefecture_code":23},{"zip_code":"4400006","prefecture":"愛知県","prefecture_kana":"アイチケン","city":"豊橋市","city_kana":"トヨハシシ","town":"牛川町西仲田","town_kana":"ウシカワチョウニシナカダ","prefecture_code":23},{"zip_code":"4400006","prefecture":"愛知県","prefecture_kana":"アイチケン","city":"豊橋市","city_kana":"トヨハシシ","town":"牛川町乗小路","town_kana":"ウシカワチョウノリコウジ","prefecture_code":23}],"0016":{"zip_code":"4400016","prefecture":"愛知県","prefecture_kana":"アイチケン","city":"豊橋市","city_kana":"トヨハシシ","town":"牛川町","town_kana":"ウシカワチョウ","prefecture_code":23},"0011":{"zip_code":"4400011","prefecture":"愛知県","prefecture_kana":"アイチケン","city":"豊橋市","city_kana":"トヨハシシ","town":"牛川通","town_kana":"ウシカワドオリ","prefecture_code":23},"0015":{"zip_code":"4400015","prefecture":"愛知県","prefecture_kana":"アイチケン","city":"豊橋市","city_kana":"トヨハシシ","town":"牛川薬師町","town_kana":"ウシカワヤクシチョウ","prefecture_code":23},"0092":{"zip_code":"4400092","prefecture":"愛知県","prefecture_kana":"アイチケン","city":"豊橋市","city_kana":"トヨハシシ","town":"瓜郷町","town_kana":"ウリゴウチョウ","prefecture_code":23},"0888":{"zip_code":"4400888","prefecture":"愛知県","prefecture_kana":"アイチケン","city":"豊橋市","city_kana":"トヨハシシ","town":"駅前大通","town_kana":"エキマエオオドオリ","prefecture_code":23},"0053":{"zip_code":"4400053","prefecture":"愛知県","prefecture_kana":"アイチケン","city":"豊橋市","city_kana":"トヨハシシ","town":"老松町","town_kana":"オイマツチョウ","prefecture_code":23},"0826":{"zip_code":"4400826","prefecture":"愛知県","prefecture_kana":"アイチケン","city":"豊橋市","city_kana":"トヨハシシ","town":"大井町","town_kana":"オオイチョウ","prefecture_code":23},"0805":{"zip_code":"4400805","prefecture":"愛知県","prefecture_kana":"アイチケン","city":"豊橋市","city_kana":"トヨハシシ","town":"大手町","town_kana":"オオテマチ","prefecture_code":23},"0076":{"zip_code":"4400076","prefecture":"愛知県","prefecture_kana":"アイチケン","city":"豊橋市","city_kana":"トヨハシシ","town":"大橋通","town_kana":"オオハシドオリ","prefecture_code":23},"0081":{"zip_code":"4400081","prefecture":"愛知県","prefecture_kana":"アイチケン","city":"豊橋市","city_kana":"トヨハシシ","town":"大村町","town_kana":"オオムラチョウ","prefecture_code":23},"0856":{"zip_code":"4400856","prefecture":"愛知県","prefecture_kana":"アイチケン","city":"豊橋市","city_kana":"トヨハシシ","town":"鍵田町","town_kana":"カギタチョウ","prefecture_code":23},"0802":{"zip_code":"4400802","prefecture":"愛知県","prefecture_kana":"アイチケン","city":"豊橋市","city_kana":"トヨハシシ","town":"鍛冶町","town_kana":"カジマチ","prefecture_code":23},"0821":{"zip_code":"4400821","prefecture":"愛知県","prefecture_kana":"アイチケン","city":"豊橋市","city_kana":"トヨハシシ","town":"春日町","town_kana":"カスガチョウ","prefecture_code":23},"0803":{"zip_code":"4400803","prefecture":"愛知県","prefecture_kana":"アイチケン","city":"豊橋市","city_kana":"トヨハシシ","town":"曲尺手町","town_kana":"カネンテチョウ","prefecture_code":23},"0074":{"zip_code":"4400074","prefecture":"愛知県","prefecture_kana":"アイチケン","city":"豊橋市","city_kana":"トヨハシシ","town":"上伝馬町","town_kana":"カミデンマチョウ","prefecture_code":23},"0896":{"zip_code":"4400896","prefecture":"愛知県","prefecture_kana":"アイチケン","city":"豊橋市","city_kana":"トヨハシシ","town":"萱町","town_kana":"カヤマチ","prefecture_code":23},"0094":{"zip_code":"4400094","prefecture":"愛知県","prefecture_kana":"アイチケン","city":"豊橋市","city_kana":"トヨハシシ","town":"川崎町","town_kana":"カワサキチョウ","prefecture_code":23},"0825":{"zip_code":"4400825","prefecture":"愛知県","prefecture_kana":"アイチケン","city":"豊橋市","city_kana":"トヨハシシ","town":"瓦町","town_kana":"カワラマチ","prefecture_code":23},"0824":{"zip_code":"4400824","prefecture":"愛知県","prefecture_kana":"アイチケン","city":"豊橋市","city_kana":"トヨハシシ","town":"瓦町通","town_kana":"カワラマチドオリ","prefecture_code":23},"0031":{"zip_code":"4400031","prefecture":"愛知県","prefecture_kana":"アイチケン","city":"豊橋市","city_kana":"トヨハシシ","town":"北岩田","town_kana":"キタイワタ","prefecture_code":23},"0071":{"zip_code":"4400071","prefecture":"愛知県","prefecture_kana":"アイチケン","city":"豊橋市","city_kana":"トヨハシシ","town":"北島町","town_kana":"キタジマチョウ","prefecture_code":23},"0078":{"zip_code":"4400078","prefecture":"愛知県","prefecture_kana":"アイチケン","city":"豊橋市","city_kana":"トヨハシシ","town":"絹田町","town_kana":"キヌタチョウ","prefecture_code":23},"0095":{"zip_code":"4400095","prefecture":"愛知県","prefecture_kana":"アイチケン","city":"豊橋市","city_kana":"トヨハシシ","town":"清須町","town_kana":"キヨスチョウ","prefecture_code":23},"0002":{"zip_code":"4400002","prefecture":"愛知県","prefecture_kana":"アイチケン","city":"豊橋市","city_kana":"トヨハシシ","town":"下条東町","town_kana":"ゲジョウヒガシマチ","prefecture_code":23},"0001":{"zip_code":"4400001","prefecture":"愛知県","prefecture_kana":"アイチケン","city":"豊橋市","city_kana":"トヨハシシ","town":"下条西町","town_kana":"ゲジョウニシマチ","prefecture_code":23},"0873":{"zip_code":"4400873","prefecture":"愛知県","prefecture_kana":"アイチケン","city":"豊橋市","city_kana":"トヨハシシ","town":"小畷町","town_kana":"コナワテチョウ","prefecture_code":23},"0804":{"zip_code":"4400804","prefecture":"愛知県","prefecture_kana":"アイチケン","city":"豊橋市","city_kana":"トヨハシシ","town":"呉服町","town_kana":"ゴフクマチ","prefecture_code":23},"0064":{"zip_code":"4400064","prefecture":"愛知県","prefecture_kana":"アイチケン","city":"豊橋市","city_kana":"トヨハシシ","town":"西郷町","town_kana":"サイゴウチョウ","prefecture_code":23},"0042":{"zip_code":"4400042","prefecture":"愛知県","prefecture_kana":"アイチケン","city":"豊橋市","city_kana":"トヨハシシ","town":"栄町","town_kana":"サカエマチ","prefecture_code":23},"0853":[{"zip_code":"4400853","prefecture":"愛知県","prefecture_kana":"アイチケン","city":"豊橋市","city_kana":"トヨハシシ","town":"佐藤","town_kana":"サトウ","prefecture_code":23},{"zip_code":"4400853","prefecture":"愛知県","prefecture_kana":"アイチケン","city":"豊橋市","city_kana":"トヨハシシ","town":"佐藤町","town_kana":"サトウチョウ","prefecture_code":23}],"0051":{"zip_code":"4400051","prefecture":"愛知県","prefecture_kana":"アイチケン","city":"豊橋市","city_kana":"トヨハシシ","town":"東雲町","town_kana":"シノノメチョウ","prefecture_code":23},"0091":{"zip_code":"4400091","prefecture":"愛知県","prefecture_kana":"アイチケン","city":"豊橋市","city_kana":"トヨハシシ","town":"下五井町","town_kana":"シモゴイチョウ","prefecture_code":23},"0083":[{"zip_code":"4400083","prefecture":"愛知県","prefecture_kana":"アイチケン","city":"豊橋市","city_kana":"トヨハシシ","town":"下地町大圦","town_kana":"シモジチョウオオイリ","prefecture_code":23},{"zip_code":"4400083","prefecture":"愛知県","prefecture_kana":"アイチケン","city":"豊橋市","city_kana":"トヨハシシ","town":"下地町北村","town_kana":"シモジチョウキタムラ","prefecture_code":23},{"zip_code":"4400083","prefecture":"愛知県","prefecture_kana":"アイチケン","city":"豊橋市","city_kana":"トヨハシシ","town":"下地町操穴","town_kana":"シモジチョウクリアナ","prefecture_code":23},{"zip_code":"4400083","prefecture":"愛知県","prefecture_kana":"アイチケン","city":"豊橋市","city_kana":"トヨハシシ","town":"下地町五貫","town_kana":"シモジチョウゴカン","prefecture_code":23},{"zip_code":"4400083","prefecture":"愛知県","prefecture_kana":"アイチケン","city":"豊橋市","city_kana":"トヨハシシ","town":"下地町境田","town_kana":"シモジチョウサカイダ","prefecture_code":23},{"zip_code":"4400083","prefecture":"愛知県","prefecture_kana":"アイチケン","city":"豊橋市","city_kana":"トヨハシシ","town":"下地町天神","town_kana":"シモジチョウテンジン","prefecture_code":23},{"zip_code":"4400083","prefecture":"愛知県","prefecture_kana":"アイチケン","city":"豊橋市","city_kana":"トヨハシシ","town":"下地町野箱","town_kana":"シモジチョウノバコ","prefecture_code":23},{"zip_code":"4400083","prefecture":"愛知県","prefecture_kana":"アイチケン","city":"豊橋市","city_kana":"トヨハシシ","town":"下地町柳目","town_kana":"シモジチョウヤナメ","prefecture_code":23},{"zip_code":"4400083","prefecture":"愛知県","prefecture_kana":"アイチケン","city":"豊橋市","city_kana":"トヨハシシ","town":"下地町横山","town_kana":"シモジチョウヨコヤマ","prefecture_code":23},{"zip_code":"4400083","prefecture":"愛知県","prefecture_kana":"アイチケン","city":"豊橋市","city_kana":"トヨハシシ","town":"下地町若宮","town_kana":"シモジチョウワカミヤ","prefecture_code":23}],"0084":[{"zip_code":"4400084","prefecture":"愛知県","prefecture_kana":"アイチケン","city":"豊橋市","city_kana":"トヨハシシ","town":"下地町神田","town_kana":"シモジチョウカンダ","prefecture_code":23},{"zip_code":"4400084","prefecture":"愛知県","prefecture_kana":"アイチケン","city":"豊橋市","city_kana":"トヨハシシ","town":"下地町瀬上","town_kana":"シモジチョウセガミ","prefecture_code":23},{"zip_code":"4400084","prefecture":"愛知県","prefecture_kana":"アイチケン","city":"豊橋市","city_kana":"トヨハシシ","town":"下地町緑","town_kana":"シモジチョウミドリ","prefecture_code":23},{"zip_code":"4400084","prefecture":"愛知県","prefecture_kana":"アイチケン","city":"豊橋市","city_kana":"トヨハシシ","town":"下地町宮腰","town_kana":"シモジチョウミヤコシ","prefecture_code":23}],"0085":{"zip_code":"4400085","prefecture":"愛知県","prefecture_kana":"アイチケン","city":"豊橋市","city_kana":"トヨハシシ","town":"下地町","town_kana":"シモジチョウ","prefecture_code":23},"0086":{"zip_code":"4400086","prefecture":"愛知県","prefecture_kana":"アイチケン","city":"豊橋市","city_kana":"トヨハシシ","town":"下地町","town_kana":"シモジチョウ","prefecture_code":23},"0883":{"zip_code":"4400883","prefecture":"愛知県","prefecture_kana":"アイチケン","city":"豊橋市","city_kana":"トヨハシシ","town":"新川町","town_kana":"シンカワチョウ","prefecture_code":23},"0892":{"zip_code":"4400892","prefecture":"愛知県","prefecture_kana":"アイチケン","city":"豊橋市","city_kana":"トヨハシシ","town":"新本町","town_kana":"シンホンマチ","prefecture_code":23},"0882":{"zip_code":"4400882","prefecture":"愛知県","prefecture_kana":"アイチケン","city":"豊橋市","city_kana":"トヨハシシ","town":"神明町","town_kana":"シンメイチョウ","prefecture_code":23},"0871":{"zip_code":"4400871","prefecture":"愛知県","prefecture_kana":"アイチケン","city":"豊橋市","city_kana":"トヨハシシ","town":"新吉町","town_kana":"シンヨシチョウ","prefecture_code":23},"0052":{"zip_code":"4400052","prefecture":"愛知県","prefecture_kana":"アイチケン","city":"豊橋市","city_kana":"トヨハシシ","town":"住吉町","town_kana":"スミヨシチョウ","prefecture_code":23},"0891":{"zip_code":"4400891","prefecture":"愛知県","prefecture_kana":"アイチケン","city":"豊橋市","city_kana":"トヨハシシ","town":"関屋町","town_kana":"セキヤチョウ","prefecture_code":23},"0884":{"zip_code":"4400884","prefecture":"愛知県","prefecture_kana":"アイチケン","city":"豊橋市","city_kana":"トヨハシシ","town":"大国町","town_kana":"ダイコクチョウ","prefecture_code":23},"0844":[{"zip_code":"4400844","prefecture":"愛知県","prefecture_kana":"アイチケン","city":"豊橋市","city_kana":"トヨハシシ","town":"高師町奥山田","town_kana":"タカシチョウオクヤマダ","prefecture_code":23},{"zip_code":"4400844","prefecture":"愛知県","prefecture_kana":"アイチケン","city":"豊橋市","city_kana":"トヨハシシ","town":"高師町清水","town_kana":"タカシチョウシミズ","prefecture_code":23},{"zip_code":"4400844","prefecture":"愛知県","prefecture_kana":"アイチケン","city":"豊橋市","city_kana":"トヨハシシ","town":"高師町水神","town_kana":"タカシチョウスイジン","prefecture_code":23},{"zip_code":"4400844","prefecture":"愛知県","prefecture_kana":"アイチケン","city":"豊橋市","city_kana":"トヨハシシ","town":"高師町丸田","town_kana":"タカシチョウマルダ","prefecture_code":23}],"0845":[{"zip_code":"4400845","prefecture":"愛知県","prefecture_kana":"アイチケン","city":"豊橋市","city_kana":"トヨハシシ","town":"高師町北原","town_kana":"タカシチョウキタハラ","prefecture_code":23},{"zip_code":"4400845","prefecture":"愛知県","prefecture_kana":"アイチケン","city":"豊橋市","city_kana":"トヨハシシ","town":"高師町","town_kana":"タカシチョウ","prefecture_code":23},{"zip_code":"4400845","prefecture":"愛知県","prefecture_kana":"アイチケン","city":"豊橋市","city_kana":"トヨハシシ","town":"高師町","town_kana":"タカシチョウ","prefecture_code":23}],"0004":{"zip_code":"4400004","prefecture":"愛知県","prefecture_kana":"アイチケン","city":"豊橋市","city_kana":"トヨハシシ","town":"忠興","town_kana":"タダコウ","prefecture_code":23},"0021":{"zip_code":"4400021","prefecture":"愛知県","prefecture_kana":"アイチケン","city":"豊橋市","city_kana":"トヨハシシ","town":"多米町","town_kana":"タメチョウ","prefecture_code":23},"0027":{"zip_code":"4400027","prefecture":"愛知県","prefecture_kana":"アイチケン","city":"豊橋市","city_kana":"トヨハシシ","town":"多米中町","town_kana":"タメナカマチ","prefecture_code":23},"0028":{"zip_code":"4400028","prefecture":"愛知県","prefecture_kana":"アイチケン","city":"豊橋市","city_kana":"トヨハシシ","town":"多米東町","town_kana":"タメヒガシマチ","prefecture_code":23},"0026":{"zip_code":"4400026","prefecture":"愛知県","prefecture_kana":"アイチケン","city":"豊橋市","city_kana":"トヨハシシ","town":"多米西町","town_kana":"タメニシマチ","prefecture_code":23},"0816":{"zip_code":"4400816","prefecture":"愛知県","prefecture_kana":"アイチケン","city":"豊橋市","city_kana":"トヨハシシ","town":"談合町","town_kana":"ダンゴウチョウ","prefecture_code":23},"0858":{"zip_code":"4400858","prefecture":"愛知県","prefecture_kana":"アイチケン","city":"豊橋市","city_kana":"トヨハシシ","town":"つつじが丘","town_kana":"ツツジガオカ","prefecture_code":23},"0822":{"zip_code":"4400822","prefecture":"愛知県","prefecture_kana":"アイチケン","city":"豊橋市","city_kana":"トヨハシシ","town":"伝馬町","town_kana":"デンマチョウ","prefecture_code":23},"0857":{"zip_code":"4400857","prefecture":"愛知県","prefecture_kana":"アイチケン","city":"豊橋市","city_kana":"トヨハシシ","town":"堂浦町","town_kana":"ドウウラチョウ","prefecture_code":23},"0036":{"zip_code":"4400036","prefecture":"愛知県","prefecture_kana":"アイチケン","city":"豊橋市","city_kana":"トヨハシシ","town":"東光町","town_kana":"トウコウチョウ","prefecture_code":23},"0068":{"zip_code":"4400068","prefecture":"愛知県","prefecture_kana":"アイチケン","city":"豊橋市","city_kana":"トヨハシシ","town":"東郷町","town_kana":"トウゴウチョウ","prefecture_code":23},"0034":{"zip_code":"4400034","prefecture":"愛知県","prefecture_kana":"アイチケン","city":"豊橋市","city_kana":"トヨハシシ","town":"豊岡町","town_kana":"トヨオカチョウ","prefecture_code":23},"0885":{"zip_code":"4400885","prefecture":"愛知県","prefecture_kana":"アイチケン","city":"豊橋市","city_kana":"トヨハシシ","town":"中柴町","town_kana":"ナカシバチョウ","prefecture_code":23},"0815":{"zip_code":"4400815","prefecture":"愛知県","prefecture_kana":"アイチケン","city":"豊橋市","city_kana":"トヨハシシ","town":"中世古町","town_kana":"ナカセコチョウ","prefecture_code":23},"0046":{"zip_code":"4400046","prefecture":"愛知県","prefecture_kana":"アイチケン","city":"豊橋市","city_kana":"トヨハシシ","town":"仲ノ町","town_kana":"ナカノマチ","prefecture_code":23},"0875":{"zip_code":"4400875","prefecture":"愛知県","prefecture_kana":"アイチケン","city":"豊橋市","city_kana":"トヨハシシ","town":"中松山町","town_kana":"ナカマツヤマチョウ","prefecture_code":23},"0082":{"zip_code":"4400082","prefecture":"愛知県","prefecture_kana":"アイチケン","city":"豊橋市","city_kana":"トヨハシシ","town":"長瀬町","town_kana":"ナガセチョウ","prefecture_code":23},"0003":{"zip_code":"4400003","prefecture":"愛知県","prefecture_kana":"アイチケン","city":"豊橋市","city_kana":"トヨハシシ","town":"浪の上町","town_kana":"ナミノウエチョウ","prefecture_code":23},"0831":{"zip_code":"4400831","prefecture":"愛知県","prefecture_kana":"アイチケン","city":"豊橋市","city_kana":"トヨハシシ","town":"西岩田","town_kana":"ニシイワタ","prefecture_code":23},"0013":{"zip_code":"4400013","prefecture":"愛知県","prefecture_kana":"アイチケン","city":"豊橋市","city_kana":"トヨハシシ","town":"西小鷹野","town_kana":"ニシオダカノ","prefecture_code":23},"0887":{"zip_code":"4400887","prefecture":"愛知県","prefecture_kana":"アイチケン","city":"豊橋市","city_kana":"トヨハシシ","town":"西小田原町","town_kana":"ニシオダワラチョウ","prefecture_code":23},"0841":{"zip_code":"4400841","prefecture":"愛知県","prefecture_kana":"アイチケン","city":"豊橋市","city_kana":"トヨハシシ","town":"西口町","town_kana":"ニシグチチョウ","prefecture_code":23},"0811":{"zip_code":"4400811","prefecture":"愛知県","prefecture_kana":"アイチケン","city":"豊橋市","city_kana":"トヨハシシ","town":"西新町","town_kana":"ニシシンマチ","prefecture_code":23},"0876":{"zip_code":"4400876","prefecture":"愛知県","prefecture_kana":"アイチケン","city":"豊橋市","city_kana":"トヨハシシ","town":"西松山町","town_kana":"ニシマツヤマチョウ","prefecture_code":23},"0065":{"zip_code":"4400065","prefecture":"愛知県","prefecture_kana":"アイチケン","city":"豊橋市","city_kana":"トヨハシシ","town":"仁連木町","town_kana":"ニレンギチョウ","prefecture_code":23},"0806":{"zip_code":"4400806","prefecture":"愛知県","prefecture_kana":"アイチケン","city":"豊橋市","city_kana":"トヨハシシ","town":"八町通","town_kana":"ハッチョウドオリ","prefecture_code":23},"0895":{"zip_code":"4400895","prefecture":"愛知県","prefecture_kana":"アイチケン","city":"豊橋市","city_kana":"トヨハシシ","town":"花園町","town_kana":"ハナゾノチョウ","prefecture_code":23},"0075":[{"zip_code":"4400075","prefecture":"愛知県","prefecture_kana":"アイチケン","city":"豊橋市","city_kana":"トヨハシシ","town":"花田町石塚","town_kana":"ハナダチョウイシヅカ","prefecture_code":23},{"zip_code":"4400075","prefecture":"愛知県","prefecture_kana":"アイチケン","city":"豊橋市","city_kana":"トヨハシシ","town":"花田町官有地","town_kana":"ハナダチョウカンユウチ","prefecture_code":23},{"zip_code":"4400075","prefecture":"愛知県","prefecture_kana":"アイチケン","city":"豊橋市","city_kana":"トヨハシシ","town":"花田町西宿","town_kana":"ハナダチョウニシジュク","prefecture_code":23},{"zip_code":"4400075","prefecture":"愛知県","prefecture_kana":"アイチケン","city":"豊橋市","city_kana":"トヨハシシ","town":"花田町","town_kana":"ハナダチョウ","prefecture_code":23}],"0033":{"zip_code":"4400033","prefecture":"愛知県","prefecture_kana":"アイチケン","city":"豊橋市","city_kana":"トヨハシシ","town":"東岩田","town_kana":"ヒガシイワタ","prefecture_code":23},"0012":{"zip_code":"4400012","prefecture":"愛知県","prefecture_kana":"アイチケン","city":"豊橋市","city_kana":"トヨハシシ","town":"東小鷹野","town_kana":"ヒガシオダカノ","prefecture_code":23},"0886":{"zip_code":"4400886","prefecture":"愛知県","prefecture_kana":"アイチケン","city":"豊橋市","city_kana":"トヨハシシ","town":"東小田原町","town_kana":"ヒガシオダワラチョウ","prefecture_code":23},"0855":{"zip_code":"4400855","prefecture":"愛知県","prefecture_kana":"アイチケン","city":"豊橋市","city_kana":"トヨハシシ","town":"東小池町","town_kana":"ヒガシコイケチョウ","prefecture_code":23},"0812":{"zip_code":"4400812","prefecture":"愛知県","prefecture_kana":"アイチケン","city":"豊橋市","city_kana":"トヨハシシ","town":"東新町","town_kana":"ヒガシシンマチ","prefecture_code":23},"0874":{"zip_code":"4400874","prefecture":"愛知県","prefecture_kana":"アイチケン","city":"豊橋市","city_kana":"トヨハシシ","town":"東松山町","town_kana":"ヒガシマツヤマチョウ","prefecture_code":23},"0843":{"zip_code":"4400843","prefecture":"愛知県","prefecture_kana":"アイチケン","city":"豊橋市","city_kana":"トヨハシシ","town":"東幸町","town_kana":"ヒガシミユキチョウ","prefecture_code":23},"0038":{"zip_code":"4400038","prefecture":"愛知県","prefecture_kana":"アイチケン","city":"豊橋市","city_kana":"トヨハシシ","town":"平川本町","town_kana":"ヒラカワホンマチ","prefecture_code":23},"0035":{"zip_code":"4400035","prefecture":"愛知県","prefecture_kana":"アイチケン","city":"豊橋市","city_kana":"トヨハシシ","town":"平川南町","town_kana":"ヒラカワミナミマチ","prefecture_code":23},"0037":{"zip_code":"4400037","prefecture":"愛知県","prefecture_kana":"アイチケン","city":"豊橋市","city_kana":"トヨハシシ","town":"平川町","town_kana":"ヒラカワチョウ","prefecture_code":23},"0881":{"zip_code":"4400881","prefecture":"愛知県","prefecture_kana":"アイチケン","city":"豊橋市","city_kana":"トヨハシシ","town":"広小路","town_kana":"ヒロコウジ","prefecture_code":23},"0893":{"zip_code":"4400893","prefecture":"愛知県","prefecture_kana":"アイチケン","city":"豊橋市","city_kana":"トヨハシシ","town":"札木町","town_kana":"フダギチョウ","prefecture_code":23},"0813":{"zip_code":"4400813","prefecture":"愛知県","prefecture_kana":"アイチケン","city":"豊橋市","city_kana":"トヨハシシ","town":"舟原町","town_kana":"フナハラチョウ","prefecture_code":23},"0072":{"zip_code":"4400072","prefecture":"愛知県","prefecture_kana":"アイチケン","city":"豊橋市","city_kana":"トヨハシシ","town":"船町","town_kana":"フナマチ","prefecture_code":23},"0814":{"zip_code":"4400814","prefecture":"愛知県","prefecture_kana":"アイチケン","city":"豊橋市","city_kana":"トヨハシシ","town":"前田町","town_kana":"マエダチョウ","prefecture_code":23},"0872":{"zip_code":"4400872","prefecture":"愛知県","prefecture_kana":"アイチケン","city":"豊橋市","city_kana":"トヨハシシ","town":"前田中町","town_kana":"マエダナカマチ","prefecture_code":23},"0851":{"zip_code":"4400851","prefecture":"愛知県","prefecture_kana":"アイチケン","city":"豊橋市","city_kana":"トヨハシシ","town":"前田南町","town_kana":"マエダミナミマチ","prefecture_code":23},"0055":{"zip_code":"4400055","prefecture":"愛知県","prefecture_kana":"アイチケン","city":"豊橋市","city_kana":"トヨハシシ","town":"前畑町","town_kana":"マエハタチョウ","prefecture_code":23},"0897":{"zip_code":"4400897","prefecture":"愛知県","prefecture_kana":"アイチケン","city":"豊橋市","city_kana":"トヨハシシ","town":"松葉町","town_kana":"マツバチョウ","prefecture_code":23},"0069":{"zip_code":"4400069","prefecture":"愛知県","prefecture_kana":"アイチケン","city":"豊橋市","city_kana":"トヨハシシ","town":"御園町","town_kana":"ミソノチョウ","prefecture_code":23},"0005":{"zip_code":"4400005","prefecture":"愛知県","prefecture_kana":"アイチケン","city":"豊橋市","city_kana":"トヨハシシ","town":"緑ケ丘","town_kana":"ミドリガオカ","prefecture_code":23},"0073":{"zip_code":"4400073","prefecture":"愛知県","prefecture_kana":"アイチケン","city":"豊橋市","city_kana":"トヨハシシ","town":"湊町","town_kana":"ミナトマチ","prefecture_code":23},"0056":{"zip_code":"4400056","prefecture":"愛知県","prefecture_kana":"アイチケン","city":"豊橋市","city_kana":"トヨハシシ","town":"南旭町","town_kana":"ミナミアサヒマチ","prefecture_code":23},"0014":{"zip_code":"4400014","prefecture":"愛知県","prefecture_kana":"アイチケン","city":"豊橋市","city_kana":"トヨハシシ","town":"南牛川","town_kana":"ミナミウシカワ","prefecture_code":23},"0823":{"zip_code":"4400823","prefecture":"愛知県","prefecture_kana":"アイチケン","city":"豊橋市","city_kana":"トヨハシシ","town":"南瓦町","town_kana":"ミナミカワラマチ","prefecture_code":23},"0077":{"zip_code":"4400077","prefecture":"愛知県","prefecture_kana":"アイチケン","city":"豊橋市","city_kana":"トヨハシシ","town":"南島町","town_kana":"ミナミジマチョウ","prefecture_code":23},"0877":{"zip_code":"4400877","prefecture":"愛知県","prefecture_kana":"アイチケン","city":"豊橋市","city_kana":"トヨハシシ","town":"南松山町","town_kana":"ミナミマツヤマチョウ","prefecture_code":23},"0838":{"zip_code":"4400838","prefecture":"愛知県","prefecture_kana":"アイチケン","city":"豊橋市","city_kana":"トヨハシシ","town":"三ノ輪町","town_kana":"ミノワチョウ","prefecture_code":23},"0837":[{"zip_code":"4400837","prefecture":"愛知県","prefecture_kana":"アイチケン","city":"豊橋市","city_kana":"トヨハシシ","town":"三ノ輪町本興寺","town_kana":"ミノワチョウホンコウジ","prefecture_code":23},{"zip_code":"4400837","prefecture":"愛知県","prefecture_kana":"アイチケン","city":"豊橋市","city_kana":"トヨハシシ","town":"三ノ輪町三ノ輪","town_kana":"ミノワチョウミノワ","prefecture_code":23}],"0044":{"zip_code":"4400044","prefecture":"愛知県","prefecture_kana":"アイチケン","city":"豊橋市","city_kana":"トヨハシシ","town":"宮下町","town_kana":"ミヤシタチョウ","prefecture_code":23},"0862":{"zip_code":"4400862","prefecture":"愛知県","prefecture_kana":"アイチケン","city":"豊橋市","city_kana":"トヨハシシ","town":"向山大池町","town_kana":"ムカイヤマオオイケチョウ","prefecture_code":23},"0865":{"zip_code":"4400865","prefecture":"愛知県","prefecture_kana":"アイチケン","city":"豊橋市","city_kana":"トヨハシシ","town":"向山台町","town_kana":"ムカイヤマダイマチ","prefecture_code":23},"0863":{"zip_code":"4400863","prefecture":"愛知県","prefecture_kana":"アイチケン","city":"豊橋市","city_kana":"トヨハシシ","town":"向山東町","town_kana":"ムカイヤマヒガシマチ","prefecture_code":23},"0861":{"zip_code":"4400861","prefecture":"愛知県","prefecture_kana":"アイチケン","city":"豊橋市","city_kana":"トヨハシシ","town":"向山西町","town_kana":"ムカイヤマニシマチ","prefecture_code":23},"0864":{"zip_code":"4400864","prefecture":"愛知県","prefecture_kana":"アイチケン","city":"豊橋市","city_kana":"トヨハシシ","town":"向山町","town_kana":"ムカイヤマチョウ","prefecture_code":23},"0854":{"zip_code":"4400854","prefecture":"愛知県","prefecture_kana":"アイチケン","city":"豊橋市","city_kana":"トヨハシシ","town":"山田町","town_kana":"ヤマダチョウ","prefecture_code":23},"0093":{"zip_code":"4400093","prefecture":"愛知県","prefecture_kana":"アイチケン","city":"豊橋市","city_kana":"トヨハシシ","town":"横須賀町","town_kana":"ヨコスカチョウ","prefecture_code":23}}