{"0000":{"zip_code":"4420000","prefecture":"愛知県","prefecture_kana":"アイチケン","city":"豊川市","city_kana":"トヨカワシ","town":"以下に掲載がない場合","town_kana":"イカニケイサイガナイバアイ","prefecture_code":23},"0054":{"zip_code":"4420054","prefecture":"愛知県","prefecture_kana":"アイチケン","city":"豊川市","city_kana":"トヨカワシ","town":"赤代町","town_kana":"アカシロチョウ","prefecture_code":23},"0887":{"zip_code":"4420887","prefecture":"愛知県","prefecture_kana":"アイチケン","city":"豊川市","city_kana":"トヨカワシ","town":"明野町","town_kana":"アケノチョウ","prefecture_code":23},"0015":{"zip_code":"4420015","prefecture":"愛知県","prefecture_kana":"アイチケン","city":"豊川市","city_kana":"トヨカワシ","town":"曙町","town_kana":"アケボノチョウ","prefecture_code":23},"0041":{"zip_code":"4420041","prefecture":"愛知県","prefecture_kana":"アイチケン","city":"豊川市","city_kana":"トヨカワシ","town":"旭町","town_kana":"アサヒマチ","prefecture_code":23},"0802":{"zip_code":"4420802","prefecture":"愛知県","prefecture_kana":"アイチケン","city":"豊川市","city_kana":"トヨカワシ","town":"麻生田町","town_kana":"アソウダチョウ","prefecture_code":23},"0862":{"zip_code":"4420862","prefecture":"愛知県","prefecture_kana":"アイチケン","city":"豊川市","city_kana":"トヨカワシ","town":"市田町","town_kana":"イチダチョウ","prefecture_code":23},"0023":{"zip_code":"4420023","prefecture":"愛知県","prefecture_kana":"アイチケン","city":"豊川市","city_kana":"トヨカワシ","town":"稲荷通","town_kana":"イナリドオリ","prefecture_code":23},"0814":{"zip_code":"4420814","prefecture":"愛知県","prefecture_kana":"アイチケン","city":"豊川市","city_kana":"トヨカワシ","town":"院之子町","town_kana":"インノコチョウ","prefecture_code":23},"0801":{"zip_code":"4420801","prefecture":"愛知県","prefecture_kana":"アイチケン","city":"豊川市","city_kana":"トヨカワシ","town":"上野","town_kana":"ウエノ","prefecture_code":23},"0886":{"zip_code":"4420886","prefecture":"愛知県","prefecture_kana":"アイチケン","city":"豊川市","city_kana":"トヨカワシ","town":"牛久保駅通","town_kana":"ウシクボエキドオリ","prefecture_code":23},"0826":{"zip_code":"4420826","prefecture":"愛知県","prefecture_kana":"アイチケン","city":"豊川市","city_kana":"トヨカワシ","town":"牛久保町","town_kana":"ウシクボチョウ","prefecture_code":23},"0045":{"zip_code":"4420045","prefecture":"愛知県","prefecture_kana":"アイチケン","city":"豊川市","city_kana":"トヨカワシ","town":"駅前通","town_kana":"エキマエドオリ","prefecture_code":23},"0007":{"zip_code":"4420007","prefecture":"愛知県","prefecture_kana":"アイチケン","city":"豊川市","city_kana":"トヨカワシ","town":"大崎町","town_kana":"オオサキチョウ","prefecture_code":23},"0809":{"zip_code":"4420809","prefecture":"愛知県","prefecture_kana":"アイチケン","city":"豊川市","city_kana":"トヨカワシ","town":"大橋町","town_kana":"オオハシチョウ","prefecture_code":23},"0013":{"zip_code":"4420013","prefecture":"愛知県","prefecture_kana":"アイチケン","city":"豊川市","city_kana":"トヨカワシ","town":"大堀町","town_kana":"オオボリチョウ","prefecture_code":23},"0844":{"zip_code":"4420844","prefecture":"愛知県","prefecture_kana":"アイチケン","city":"豊川市","city_kana":"トヨカワシ","town":"小田渕町","town_kana":"オダブチチョウ","prefecture_code":23},"0048":{"zip_code":"4420048","prefecture":"愛知県","prefecture_kana":"アイチケン","city":"豊川市","city_kana":"トヨカワシ","town":"開運通","town_kana":"カイウンドオリ","prefecture_code":23},"0872":{"zip_code":"4420872","prefecture":"愛知県","prefecture_kana":"アイチケン","city":"豊川市","city_kana":"トヨカワシ","town":"金塚町","town_kana":"カナヅカチョウ","prefecture_code":23},"0053":{"zip_code":"4420053","prefecture":"愛知県","prefecture_kana":"アイチケン","city":"豊川市","city_kana":"トヨカワシ","town":"金屋町","town_kana":"カナヤチョウ","prefecture_code":23},"0067":{"zip_code":"4420067","prefecture":"愛知県","prefecture_kana":"アイチケン","city":"豊川市","city_kana":"トヨカワシ","town":"金屋西町","town_kana":"カナヤニシマチ","prefecture_code":23},"0055":{"zip_code":"4420055","prefecture":"愛知県","prefecture_kana":"アイチケン","city":"豊川市","city_kana":"トヨカワシ","town":"金屋橋町","town_kana":"カナヤバシチョウ","prefecture_code":23},"0052":{"zip_code":"4420052","prefecture":"愛知県","prefecture_kana":"アイチケン","city":"豊川市","city_kana":"トヨカワシ","town":"金屋本町","town_kana":"カナヤホンマチ","prefecture_code":23},"0066":{"zip_code":"4420066","prefecture":"愛知県","prefecture_kana":"アイチケン","city":"豊川市","city_kana":"トヨカワシ","town":"金屋元町","town_kana":"カナヤモトマチ","prefecture_code":23},"0837":{"zip_code":"4420837","prefecture":"愛知県","prefecture_kana":"アイチケン","city":"豊川市","city_kana":"トヨカワシ","town":"川花町","town_kana":"カワハナチョウ","prefecture_code":23},"0042":{"zip_code":"4420042","prefecture":"愛知県","prefecture_kana":"アイチケン","city":"豊川市","city_kana":"トヨカワシ","town":"北浦町","town_kana":"キタウラチョウ","prefecture_code":23},"0822":{"zip_code":"4420822","prefecture":"愛知県","prefecture_kana":"アイチケン","city":"豊川市","city_kana":"トヨカワシ","town":"行明町","town_kana":"ギョウメイチョウ","prefecture_code":23},"0856":{"zip_code":"4420856","prefecture":"愛知県","prefecture_kana":"アイチケン","city":"豊川市","city_kana":"トヨカワシ","town":"久保町","town_kana":"クボチョウ","prefecture_code":23},"0882":{"zip_code":"4420882","prefecture":"愛知県","prefecture_kana":"アイチケン","city":"豊川市","city_kana":"トヨカワシ","town":"光輝町","town_kana":"コウキチョウ","prefecture_code":23},"0828":{"zip_code":"4420828","prefecture":"愛知県","prefecture_kana":"アイチケン","city":"豊川市","city_kana":"トヨカワシ","town":"柑子町","town_kana":"コウジチョウ","prefecture_code":23},"0854":{"zip_code":"4420854","prefecture":"愛知県","prefecture_kana":"アイチケン","city":"豊川市","city_kana":"トヨカワシ","town":"国府町","town_kana":"コウチョウ","prefecture_code":23},"0852":{"zip_code":"4420852","prefecture":"愛知県","prefecture_kana":"アイチケン","city":"豊川市","city_kana":"トヨカワシ","town":"国府南","town_kana":"コウミナミ","prefecture_code":23},"0884":{"zip_code":"4420884","prefecture":"愛知県","prefecture_kana":"アイチケン","city":"豊川市","city_kana":"トヨカワシ","town":"光明町","town_kana":"コウメイチョウ","prefecture_code":23},"0038":{"zip_code":"4420038","prefecture":"愛知県","prefecture_kana":"アイチケン","city":"豊川市","city_kana":"トヨカワシ","town":"光陽町","town_kana":"コウヨウチョウ","prefecture_code":23},"0021":{"zip_code":"4420021","prefecture":"愛知県","prefecture_kana":"アイチケン","city":"豊川市","city_kana":"トヨカワシ","town":"小桜町","town_kana":"コザクラチョウ","prefecture_code":23},"0832":{"zip_code":"4420832","prefecture":"愛知県","prefecture_kana":"アイチケン","city":"豊川市","city_kana":"トヨカワシ","town":"寿通","town_kana":"コトブキドオリ","prefecture_code":23},"0861":{"zip_code":"4420861","prefecture":"愛知県","prefecture_kana":"アイチケン","city":"豊川市","city_kana":"トヨカワシ","town":"財賀町","town_kana":"ザイカチョウ","prefecture_code":23},"0046":{"zip_code":"4420046","prefecture":"愛知県","prefecture_kana":"アイチケン","city":"豊川市","city_kana":"トヨカワシ","town":"幸町","town_kana":"サイワイチョウ","prefecture_code":23},"0836":{"zip_code":"4420836","prefecture":"愛知県","prefecture_kana":"アイチケン","city":"豊川市","city_kana":"トヨカワシ","town":"堺町","town_kana":"サカイマチ","prefecture_code":23},"0064":{"zip_code":"4420064","prefecture":"愛知県","prefecture_kana":"アイチケン","city":"豊川市","city_kana":"トヨカワシ","town":"桜ケ丘町","town_kana":"サクラガオカチョウ","prefecture_code":23},"0027":{"zip_code":"4420027","prefecture":"愛知県","prefecture_kana":"アイチケン","city":"豊川市","city_kana":"トヨカワシ","town":"桜木通","town_kana":"サクラギドオリ","prefecture_code":23},"0843":{"zip_code":"4420843","prefecture":"愛知県","prefecture_kana":"アイチケン","city":"豊川市","city_kana":"トヨカワシ","town":"桜町","town_kana":"サクラマチ","prefecture_code":23},"0017":{"zip_code":"4420017","prefecture":"愛知県","prefecture_kana":"アイチケン","city":"豊川市","city_kana":"トヨカワシ","town":"佐土町","town_kana":"サドチョウ","prefecture_code":23},"0875":{"zip_code":"4420875","prefecture":"愛知県","prefecture_kana":"アイチケン","city":"豊川市","city_kana":"トヨカワシ","town":"佐奈川町","town_kana":"サナガワチョウ","prefecture_code":23},"0006":{"zip_code":"4420006","prefecture":"愛知県","prefecture_kana":"アイチケン","city":"豊川市","city_kana":"トヨカワシ","town":"三蔵子町","town_kana":"サンゾウゴチョウ","prefecture_code":23},"0824":{"zip_code":"4420824","prefecture":"愛知県","prefecture_kana":"アイチケン","city":"豊川市","city_kana":"トヨカワシ","town":"下長山町","town_kana":"シモナガヤマチョウ","prefecture_code":23},"0877":{"zip_code":"4420877","prefecture":"愛知県","prefecture_kana":"アイチケン","city":"豊川市","city_kana":"トヨカワシ","town":"下野川町","town_kana":"シモノガワチョウ","prefecture_code":23},"0018":{"zip_code":"4420018","prefecture":"愛知県","prefecture_kana":"アイチケン","city":"豊川市","city_kana":"トヨカワシ","town":"白雲町","town_kana":"シラクモチョウ","prefecture_code":23},"0847":{"zip_code":"4420847","prefecture":"愛知県","prefecture_kana":"アイチケン","city":"豊川市","city_kana":"トヨカワシ","town":"白鳥","town_kana":"シロトリ","prefecture_code":23},"0848":{"zip_code":"4420848","prefecture":"愛知県","prefecture_kana":"アイチケン","city":"豊川市","city_kana":"トヨカワシ","town":"白鳥町","town_kana":"シロトリチョウ","prefecture_code":23},"0853":{"zip_code":"4420853","prefecture":"愛知県","prefecture_kana":"アイチケン","city":"豊川市","city_kana":"トヨカワシ","town":"新青馬町","town_kana":"シンアオウマチョウ","prefecture_code":23},"0855":{"zip_code":"4420855","prefecture":"愛知県","prefecture_kana":"アイチケン","city":"豊川市","city_kana":"トヨカワシ","town":"新栄町","town_kana":"シンサカエマチ","prefecture_code":23},"0835":{"zip_code":"4420835","prefecture":"愛知県","prefecture_kana":"アイチケン","city":"豊川市","city_kana":"トヨカワシ","town":"新桜町通","town_kana":"シンサクラマチドオリ","prefecture_code":23},"0043":{"zip_code":"4420043","prefecture":"愛知県","prefecture_kana":"アイチケン","city":"豊川市","city_kana":"トヨカワシ","town":"新宿町","town_kana":"シンジュクチョウ","prefecture_code":23},"0878":{"zip_code":"4420878","prefecture":"愛知県","prefecture_kana":"アイチケン","city":"豊川市","city_kana":"トヨカワシ","town":"新道町","town_kana":"シンミチチョウ","prefecture_code":23},"0012":{"zip_code":"4420012","prefecture":"愛知県","prefecture_kana":"アイチケン","city":"豊川市","city_kana":"トヨカワシ","town":"新豊町","town_kana":"シンユタカマチ","prefecture_code":23},"0029":{"zip_code":"4420029","prefecture":"愛知県","prefecture_kana":"アイチケン","city":"豊川市","city_kana":"トヨカワシ","town":"末広通","town_kana":"スエヒロドオリ","prefecture_code":23},"0819":{"zip_code":"4420819","prefecture":"愛知県","prefecture_kana":"アイチケン","city":"豊川市","city_kana":"トヨカワシ","town":"住吉町","town_kana":"スミヨシチョウ","prefecture_code":23},"0068":{"zip_code":"4420068","prefecture":"愛知県","prefecture_kana":"アイチケン","city":"豊川市","city_kana":"トヨカワシ","town":"諏訪","town_kana":"スワ","prefecture_code":23},"0069":{"zip_code":"4420069","prefecture":"愛知県","prefecture_kana":"アイチケン","city":"豊川市","city_kana":"トヨカワシ","town":"諏訪西町","town_kana":"スワニシマチ","prefecture_code":23},"0815":{"zip_code":"4420815","prefecture":"愛知県","prefecture_kana":"アイチケン","city":"豊川市","city_kana":"トヨカワシ","town":"瀬木町","town_kana":"セギチョウ","prefecture_code":23},"0842":{"zip_code":"4420842","prefecture":"愛知県","prefecture_kana":"アイチケン","city":"豊川市","city_kana":"トヨカワシ","town":"蔵子","town_kana":"ゾウシ","prefecture_code":23},"0841":{"zip_code":"4420841","prefecture":"愛知県","prefecture_kana":"アイチケン","city":"豊川市","city_kana":"トヨカワシ","town":"代田町","town_kana":"ダイダチョウ","prefecture_code":23},"0883":{"zip_code":"4420883","prefecture":"愛知県","prefecture_kana":"アイチケン","city":"豊川市","city_kana":"トヨカワシ","town":"高見町","town_kana":"タカミチョウ","prefecture_code":23},"0845":{"zip_code":"4420845","prefecture":"愛知県","prefecture_kana":"アイチケン","city":"豊川市","city_kana":"トヨカワシ","town":"為当町","town_kana":"タメトウチョウ","prefecture_code":23},"0004":{"zip_code":"4420004","prefecture":"愛知県","prefecture_kana":"アイチケン","city":"豊川市","city_kana":"トヨカワシ","town":"樽井町","town_kana":"タルイチョウ","prefecture_code":23},"0001":{"zip_code":"4420001","prefecture":"愛知県","prefecture_kana":"アイチケン","city":"豊川市","city_kana":"トヨカワシ","town":"千両町","town_kana":"チギリチョウ","prefecture_code":23},"0888":{"zip_code":"4420888","prefecture":"愛知県","prefecture_kana":"アイチケン","city":"豊川市","city_kana":"トヨカワシ","town":"千歳通","town_kana":"チトセドオリ","prefecture_code":23},"0051":{"zip_code":"4420051","prefecture":"愛知県","prefecture_kana":"アイチケン","city":"豊川市","city_kana":"トヨカワシ","town":"中央通","town_kana":"チュウオウドオリ","prefecture_code":23},"0818":{"zip_code":"4420818","prefecture":"愛知県","prefecture_kana":"アイチケン","city":"豊川市","city_kana":"トヨカワシ","town":"中条町","town_kana":"チュウジョウチョウ","prefecture_code":23},"0876":{"zip_code":"4420876","prefecture":"愛知県","prefecture_kana":"アイチケン","city":"豊川市","city_kana":"トヨカワシ","town":"中部町","town_kana":"チュウブチョウ","prefecture_code":23},"0039":{"zip_code":"4420039","prefecture":"愛知県","prefecture_kana":"アイチケン","city":"豊川市","city_kana":"トヨカワシ","town":"天神町","town_kana":"テンジンチョウ","prefecture_code":23},"0022":{"zip_code":"4420022","prefecture":"愛知県","prefecture_kana":"アイチケン","city":"豊川市","city_kana":"トヨカワシ","town":"東光町","town_kana":"トウコウチョウ","prefecture_code":23},"0821":{"zip_code":"4420821","prefecture":"愛知県","prefecture_kana":"アイチケン","city":"豊川市","city_kana":"トヨカワシ","town":"当古町","town_kana":"トウゴチョウ","prefecture_code":23},"0026":{"zip_code":"4420026","prefecture":"愛知県","prefecture_kana":"アイチケン","city":"豊川市","city_kana":"トヨカワシ","town":"東新町","town_kana":"トウシンチョウ","prefecture_code":23},"0881":{"zip_code":"4420881","prefecture":"愛知県","prefecture_kana":"アイチケン","city":"豊川市","city_kana":"トヨカワシ","town":"塔ノ木町","town_kana":"トウノギチョウ","prefecture_code":23},"0019":{"zip_code":"4420019","prefecture":"愛知県","prefecture_kana":"アイチケン","city":"豊川市","city_kana":"トヨカワシ","town":"東名町","town_kana":"トウメイチョウ","prefecture_code":23},"0813":{"zip_code":"4420813","prefecture":"愛知県","prefecture_kana":"アイチケン","city":"豊川市","city_kana":"トヨカワシ","town":"土筒町","town_kana":"ドドウチョウ","prefecture_code":23},"0036":{"zip_code":"4420036","prefecture":"愛知県","prefecture_kana":"アイチケン","city":"豊川市","city_kana":"トヨカワシ","town":"豊川栄町","town_kana":"トヨカワサカエマチ","prefecture_code":23},"0032":{"zip_code":"4420032","prefecture":"愛知県","prefecture_kana":"アイチケン","city":"豊川市","city_kana":"トヨカワシ","town":"豊川仲町","town_kana":"トヨカワナカマチ","prefecture_code":23},"0031":{"zip_code":"4420031","prefecture":"愛知県","prefecture_kana":"アイチケン","city":"豊川市","city_kana":"トヨカワシ","town":"豊川西町","town_kana":"トヨカワニシマチ","prefecture_code":23},"0035":{"zip_code":"4420035","prefecture":"愛知県","prefecture_kana":"アイチケン","city":"豊川市","city_kana":"トヨカワシ","town":"豊川元町","town_kana":"トヨカワモトマチ","prefecture_code":23},"0033":{"zip_code":"4420033","prefecture":"愛知県","prefecture_kana":"アイチケン","city":"豊川市","city_kana":"トヨカワシ","town":"豊川町","town_kana":"トヨカワチョウ","prefecture_code":23},"0003":{"zip_code":"4420003","prefecture":"愛知県","prefecture_kana":"アイチケン","city":"豊川市","city_kana":"トヨカワシ","town":"長草町","town_kana":"ナガクサチョウ","prefecture_code":23},"0885":{"zip_code":"4420885","prefecture":"愛知県","prefecture_kana":"アイチケン","city":"豊川市","city_kana":"トヨカワシ","town":"中野川町","town_kana":"ナカノガワチョウ","prefecture_code":23},"0833":{"zip_code":"4420833","prefecture":"愛知県","prefecture_kana":"アイチケン","city":"豊川市","city_kana":"トヨカワシ","town":"西口町","town_kana":"ニシグチチョウ","prefecture_code":23},"0834":{"zip_code":"4420834","prefecture":"愛知県","prefecture_kana":"アイチケン","city":"豊川市","city_kana":"トヨカワシ","town":"西香ノ木町","town_kana":"ニシコウノギチョウ","prefecture_code":23},"0063":{"zip_code":"4420063","prefecture":"愛知県","prefecture_kana":"アイチケン","city":"豊川市","city_kana":"トヨカワシ","town":"西桜木町","town_kana":"ニシサクラギチョウ","prefecture_code":23},"0827":{"zip_code":"4420827","prefecture":"愛知県","prefecture_kana":"アイチケン","city":"豊川市","city_kana":"トヨカワシ","town":"西島町","town_kana":"ニシジマチョウ","prefecture_code":23},"0838":{"zip_code":"4420838","prefecture":"愛知県","prefecture_kana":"アイチケン","city":"豊川市","city_kana":"トヨカワシ","town":"西塚町","town_kana":"ニシヅカチョウ","prefecture_code":23},"0034":{"zip_code":"4420034","prefecture":"愛知県","prefecture_kana":"アイチケン","city":"豊川市","city_kana":"トヨカワシ","town":"西本町","town_kana":"ニシホンマチ","prefecture_code":23},"0024":{"zip_code":"4420024","prefecture":"愛知県","prefecture_kana":"アイチケン","city":"豊川市","city_kana":"トヨカワシ","town":"西豊町","town_kana":"ニシユタカマチ","prefecture_code":23},"0851":{"zip_code":"4420851","prefecture":"愛知県","prefecture_kana":"アイチケン","city":"豊川市","city_kana":"トヨカワシ","town":"野口町","town_kana":"ノグチチョウ","prefecture_code":23},"0879":{"zip_code":"4420879","prefecture":"愛知県","prefecture_kana":"アイチケン","city":"豊川市","city_kana":"トヨカワシ","town":"萩山町","town_kana":"ハギヤマチョウ","prefecture_code":23},"0816":{"zip_code":"4420816","prefecture":"愛知県","prefecture_kana":"アイチケン","city":"豊川市","city_kana":"トヨカワシ","town":"花井町","town_kana":"ハナイチョウ","prefecture_code":23},"0811":{"zip_code":"4420811","prefecture":"愛知県","prefecture_kana":"アイチケン","city":"豊川市","city_kana":"トヨカワシ","town":"馬場町","town_kana":"ババチョウ","prefecture_code":23},"0011":{"zip_code":"4420011","prefecture":"愛知県","prefecture_kana":"アイチケン","city":"豊川市","city_kana":"トヨカワシ","town":"東曙町","town_kana":"ヒガシアケボノチョウ","prefecture_code":23},"0028":{"zip_code":"4420028","prefecture":"愛知県","prefecture_kana":"アイチケン","city":"豊川市","city_kana":"トヨカワシ","town":"東桜木町","town_kana":"ヒガシサクラギチョウ","prefecture_code":23},"0025":{"zip_code":"4420025","prefecture":"愛知県","prefecture_kana":"アイチケン","city":"豊川市","city_kana":"トヨカワシ","town":"東豊町","town_kana":"ヒガシユタカマチ","prefecture_code":23},"0863":{"zip_code":"4420863","prefecture":"愛知県","prefecture_kana":"アイチケン","city":"豊川市","city_kana":"トヨカワシ","town":"平尾町","town_kana":"ヒラオチョウ","prefecture_code":23},"0804":{"zip_code":"4420804","prefecture":"愛知県","prefecture_kana":"アイチケン","city":"豊川市","city_kana":"トヨカワシ","town":"二葉町","town_kana":"フタバチョウ","prefecture_code":23},"0044":{"zip_code":"4420044","prefecture":"愛知県","prefecture_kana":"アイチケン","city":"豊川市","city_kana":"トヨカワシ","town":"二見町","town_kana":"フタミチョウ","prefecture_code":23},"0817":{"zip_code":"4420817","prefecture":"愛知県","prefecture_kana":"アイチケン","city":"豊川市","city_kana":"トヨカワシ","town":"古宿町","town_kana":"フルジュクチョウ","prefecture_code":23},"0014":{"zip_code":"4420014","prefecture":"愛知県","prefecture_kana":"アイチケン","city":"豊川市","city_kana":"トヨカワシ","town":"豊栄町","town_kana":"ホウエイチョウ","prefecture_code":23},"0061":{"zip_code":"4420061","prefecture":"愛知県","prefecture_kana":"アイチケン","city":"豊川市","city_kana":"トヨカワシ","town":"穂ノ原","town_kana":"ホノハラ","prefecture_code":23},"0005":{"zip_code":"4420005","prefecture":"愛知県","prefecture_kana":"アイチケン","city":"豊川市","city_kana":"トヨカワシ","town":"本野ケ原","town_kana":"ホンノガハラ","prefecture_code":23},"0062":{"zip_code":"4420062","prefecture":"愛知県","prefecture_kana":"アイチケン","city":"豊川市","city_kana":"トヨカワシ","town":"本野町","town_kana":"ホンノチョウ","prefecture_code":23},"0806":{"zip_code":"4420806","prefecture":"愛知県","prefecture_kana":"アイチケン","city":"豊川市","city_kana":"トヨカワシ","town":"牧野町","town_kana":"マキノチョウ","prefecture_code":23},"0823":{"zip_code":"4420823","prefecture":"愛知県","prefecture_kana":"アイチケン","city":"豊川市","city_kana":"トヨカワシ","town":"正岡町","town_kana":"マサオカチョウ","prefecture_code":23},"0871":{"zip_code":"4420871","prefecture":"愛知県","prefecture_kana":"アイチケン","city":"豊川市","city_kana":"トヨカワシ","town":"松風町","town_kana":"マツカゼチョウ","prefecture_code":23},"0874":{"zip_code":"4420874","prefecture":"愛知県","prefecture_kana":"アイチケン","city":"豊川市","city_kana":"トヨカワシ","town":"松久町","town_kana":"マツヒサチョウ","prefecture_code":23},"0812":{"zip_code":"4420812","prefecture":"愛知県","prefecture_kana":"アイチケン","city":"豊川市","city_kana":"トヨカワシ","town":"三上町","town_kana":"ミカミチョウ","prefecture_code":23},"0049":{"zip_code":"4420049","prefecture":"愛知県","prefecture_kana":"アイチケン","city":"豊川市","city_kana":"トヨカワシ","town":"緑町","town_kana":"ミドリマチ","prefecture_code":23},"0889":{"zip_code":"4420889","prefecture":"愛知県","prefecture_kana":"アイチケン","city":"豊川市","city_kana":"トヨカワシ","town":"南大通","town_kana":"ミナミオオドオリ","prefecture_code":23},"0008":{"zip_code":"4420008","prefecture":"愛知県","prefecture_kana":"アイチケン","city":"豊川市","city_kana":"トヨカワシ","town":"南千両","town_kana":"ミナミチギリ","prefecture_code":23},"0805":{"zip_code":"4420805","prefecture":"愛知県","prefecture_kana":"アイチケン","city":"豊川市","city_kana":"トヨカワシ","town":"三谷原町","town_kana":"ミヤハラチョウ","prefecture_code":23},"0016":{"zip_code":"4420016","prefecture":"愛知県","prefecture_kana":"アイチケン","city":"豊川市","city_kana":"トヨカワシ","town":"美幸町","town_kana":"ミユキチョウ","prefecture_code":23},"0825":{"zip_code":"4420825","prefecture":"愛知県","prefecture_kana":"アイチケン","city":"豊川市","city_kana":"トヨカワシ","town":"美和通","town_kana":"ミワドオリ","prefecture_code":23},"0803":{"zip_code":"4420803","prefecture":"愛知県","prefecture_kana":"アイチケン","city":"豊川市","city_kana":"トヨカワシ","town":"向河原町","town_kana":"ムコウガワラチョウ","prefecture_code":23},"0846":{"zip_code":"4420846","prefecture":"愛知県","prefecture_kana":"アイチケン","city":"豊川市","city_kana":"トヨカワシ","town":"森","town_kana":"モリ","prefecture_code":23},"0037":{"zip_code":"4420037","prefecture":"愛知県","prefecture_kana":"アイチケン","city":"豊川市","city_kana":"トヨカワシ","town":"門前町","town_kana":"モンゼンチョウ","prefecture_code":23},"0807":{"zip_code":"4420807","prefecture":"愛知県","prefecture_kana":"アイチケン","city":"豊川市","city_kana":"トヨカワシ","town":"谷川町","town_kana":"ヤガワチョウ","prefecture_code":23},"0873":{"zip_code":"4420873","prefecture":"愛知県","prefecture_kana":"アイチケン","city":"豊川市","city_kana":"トヨカワシ","town":"山道町","town_kana":"ヤマミチチョウ","prefecture_code":23},"0831":{"zip_code":"4420831","prefecture":"愛知県","prefecture_kana":"アイチケン","city":"豊川市","city_kana":"トヨカワシ","town":"弥生町","town_kana":"ヤヨイチョウ","prefecture_code":23},"0857":{"zip_code":"4420857","prefecture":"愛知県","prefecture_kana":"アイチケン","city":"豊川市","city_kana":"トヨカワシ","town":"八幡町","town_kana":"ヤワタチョウ","prefecture_code":23},"0808":{"zip_code":"4420808","prefecture":"愛知県","prefecture_kana":"アイチケン","city":"豊川市","city_kana":"トヨカワシ","town":"豊が丘町","town_kana":"ユタカガオカチョウ","prefecture_code":23},"0839":{"zip_code":"4420839","prefecture":"愛知県","prefecture_kana":"アイチケン","city":"豊川市","city_kana":"トヨカワシ","town":"四ツ谷町","town_kana":"ヨツヤチョウ","prefecture_code":23},"0002":{"zip_code":"4420002","prefecture":"愛知県","prefecture_kana":"アイチケン","city":"豊川市","city_kana":"トヨカワシ","town":"六角町","town_kana":"ロッカクチョウ","prefecture_code":23},"0065":{"zip_code":"4420065","prefecture":"愛知県","prefecture_kana":"アイチケン","city":"豊川市","city_kana":"トヨカワシ","town":"若鳩町","town_kana":"ワカバトチョウ","prefecture_code":23},"0047":{"zip_code":"4420047","prefecture":"愛知県","prefecture_kana":"アイチケン","city":"豊川市","city_kana":"トヨカワシ","town":"若宮町","town_kana":"ワカミヤチョウ","prefecture_code":23}}