{"0000":{"zip_code":"4430000","prefecture":"愛知県","prefecture_kana":"アイチケン","city":"蒲郡市","city_kana":"ガマゴオリシ","town":"","town_kana":"","prefecture_code":23},"0045":{"zip_code":"4430045","prefecture":"愛知県","prefecture_kana":"アイチケン","city":"蒲郡市","city_kana":"ガマゴオリシ","town":"旭町","town_kana":"アサヒマチ","prefecture_code":23},"0051":{"zip_code":"4430051","prefecture":"愛知県","prefecture_kana":"アイチケン","city":"蒲郡市","city_kana":"ガマゴオリシ","town":"新井形町","town_kana":"アライガタチョウ","prefecture_code":23},"0052":{"zip_code":"4430052","prefecture":"愛知県","prefecture_kana":"アイチケン","city":"蒲郡市","city_kana":"ガマゴオリシ","town":"新井町","town_kana":"アライチョウ","prefecture_code":23},"0101":{"zip_code":"4430101","prefecture":"愛知県","prefecture_kana":"アイチケン","city":"蒲郡市","city_kana":"ガマゴオリシ","town":"一色町","town_kana":"イシキチョウ","prefecture_code":23},"0058":{"zip_code":"4430058","prefecture":"愛知県","prefecture_kana":"アイチケン","city":"蒲郡市","city_kana":"ガマゴオリシ","town":"上本町","town_kana":"ウエホンマチ","prefecture_code":23},"0013":{"zip_code":"4430013","prefecture":"愛知県","prefecture_kana":"アイチケン","city":"蒲郡市","city_kana":"ガマゴオリシ","town":"大塚町","town_kana":"オオツカチョウ","prefecture_code":23},"0014":{"zip_code":"4430014","prefecture":"愛知県","prefecture_kana":"アイチケン","city":"蒲郡市","city_kana":"ガマゴオリシ","town":"海陽町","town_kana":"カイヨウチョウ","prefecture_code":23},"0037":{"zip_code":"4430037","prefecture":"愛知県","prefecture_kana":"アイチケン","city":"蒲郡市","city_kana":"ガマゴオリシ","town":"鹿島町","town_kana":"カシマチョウ","prefecture_code":23},"0008":{"zip_code":"4430008","prefecture":"愛知県","prefecture_kana":"アイチケン","city":"蒲郡市","city_kana":"ガマゴオリシ","town":"柏原町","town_kana":"カシワバラチョウ","prefecture_code":23},"0104":{"zip_code":"4430104","prefecture":"愛知県","prefecture_kana":"アイチケン","city":"蒲郡市","city_kana":"ガマゴオリシ","town":"形原町","town_kana":"カタハラチョウ","prefecture_code":23},"0106":{"zip_code":"4430106","prefecture":"愛知県","prefecture_kana":"アイチケン","city":"蒲郡市","city_kana":"ガマゴオリシ","town":"形原町春日浦","town_kana":"カタハラチョウカスガウラ","prefecture_code":23},"0103":{"zip_code":"4430103","prefecture":"愛知県","prefecture_kana":"アイチケン","city":"蒲郡市","city_kana":"ガマゴオリシ","town":"形原町北浜","town_kana":"カタハラチョウキタハマ","prefecture_code":23},"0102":{"zip_code":"4430102","prefecture":"愛知県","prefecture_kana":"アイチケン","city":"蒲郡市","city_kana":"ガマゴオリシ","town":"金平町","town_kana":"カネヒラチョウ","prefecture_code":23},"0006":{"zip_code":"4430006","prefecture":"愛知県","prefecture_kana":"アイチケン","city":"蒲郡市","city_kana":"ガマゴオリシ","town":"蒲郡町","town_kana":"ガマゴオリチョウ","prefecture_code":23},"0007":{"zip_code":"4430007","prefecture":"愛知県","prefecture_kana":"アイチケン","city":"蒲郡市","city_kana":"ガマゴオリシ","town":"神ノ郷町","town_kana":"カミノゴウチョウ","prefecture_code":23},"0003":{"zip_code":"4430003","prefecture":"愛知県","prefecture_kana":"アイチケン","city":"蒲郡市","city_kana":"ガマゴオリシ","town":"五井町","town_kana":"ゴイチョウ","prefecture_code":23},"0035":{"zip_code":"4430035","prefecture":"愛知県","prefecture_kana":"アイチケン","city":"蒲郡市","city_kana":"ガマゴオリシ","town":"栄町","town_kana":"サカエマチ","prefecture_code":23},"0001":{"zip_code":"4430001","prefecture":"愛知県","prefecture_kana":"アイチケン","city":"蒲郡市","city_kana":"ガマゴオリシ","town":"坂本町","town_kana":"サカモトチョウ","prefecture_code":23},"0012":{"zip_code":"4430012","prefecture":"愛知県","prefecture_kana":"アイチケン","city":"蒲郡市","city_kana":"ガマゴオリシ","town":"相楽町","town_kana":"サガラチョウ","prefecture_code":23},"0056":{"zip_code":"4430056","prefecture":"愛知県","prefecture_kana":"アイチケン","city":"蒲郡市","city_kana":"ガマゴオリシ","town":"神明町","town_kana":"シンメイチョウ","prefecture_code":23},"0002":{"zip_code":"4430002","prefecture":"愛知県","prefecture_kana":"アイチケン","city":"蒲郡市","city_kana":"ガマゴオリシ","town":"清田町","town_kana":"セイダチョウ","prefecture_code":23},"0044":{"zip_code":"4430044","prefecture":"愛知県","prefecture_kana":"アイチケン","city":"蒲郡市","city_kana":"ガマゴオリシ","town":"宝町","town_kana":"タカラマチ","prefecture_code":23},"0031":{"zip_code":"4430031","prefecture":"愛知県","prefecture_kana":"アイチケン","city":"蒲郡市","city_kana":"ガマゴオリシ","town":"竹島町","town_kana":"タケシマチョウ","prefecture_code":23},"0046":{"zip_code":"4430046","prefecture":"愛知県","prefecture_kana":"アイチケン","city":"蒲郡市","city_kana":"ガマゴオリシ","town":"竹谷町","town_kana":"タケノヤチョウ","prefecture_code":23},"0057":{"zip_code":"4430057","prefecture":"愛知県","prefecture_kana":"アイチケン","city":"蒲郡市","city_kana":"ガマゴオリシ","town":"中央本町","town_kana":"チュウオウホンマチ","prefecture_code":23},"0011":{"zip_code":"4430011","prefecture":"愛知県","prefecture_kana":"アイチケン","city":"蒲郡市","city_kana":"ガマゴオリシ","town":"豊岡町","town_kana":"トヨオカチョウ","prefecture_code":23},"0105":{"zip_code":"4430105","prefecture":"愛知県","prefecture_kana":"アイチケン","city":"蒲郡市","city_kana":"ガマゴオリシ","town":"西浦町","town_kana":"ニシウラチョウ","prefecture_code":23},"0047":{"zip_code":"4430047","prefecture":"愛知県","prefecture_kana":"アイチケン","city":"蒲郡市","city_kana":"ガマゴオリシ","town":"西迫町","town_kana":"ニシハサマチョウ","prefecture_code":23},"0036":{"zip_code":"4430036","prefecture":"愛知県","prefecture_kana":"アイチケン","city":"蒲郡市","city_kana":"ガマゴオリシ","town":"浜町","town_kana":"ハマチョウ","prefecture_code":23},"0004":{"zip_code":"4430004","prefecture":"愛知県","prefecture_kana":"アイチケン","city":"蒲郡市","city_kana":"ガマゴオリシ","town":"平田町","town_kana":"ヒラタチョウ","prefecture_code":23},"0038":{"zip_code":"4430038","prefecture":"愛知県","prefecture_kana":"アイチケン","city":"蒲郡市","city_kana":"ガマゴオリシ","town":"拾石町","town_kana":"ヒロイシチョウ","prefecture_code":23},"0054":{"zip_code":"4430054","prefecture":"愛知県","prefecture_kana":"アイチケン","city":"蒲郡市","city_kana":"ガマゴオリシ","town":"府相町","town_kana":"フソウチョウ","prefecture_code":23},"0053":{"zip_code":"4430053","prefecture":"愛知県","prefecture_kana":"アイチケン","city":"蒲郡市","city_kana":"ガマゴオリシ","town":"堀込町","town_kana":"ホリゴミチョウ","prefecture_code":23},"0059":{"zip_code":"4430059","prefecture":"愛知県","prefecture_kana":"アイチケン","city":"蒲郡市","city_kana":"ガマゴオリシ","town":"本町","town_kana":"ホンマチ","prefecture_code":23},"0033":{"zip_code":"4430033","prefecture":"愛知県","prefecture_kana":"アイチケン","city":"蒲郡市","city_kana":"ガマゴオリシ","town":"松原町","town_kana":"マツバラチョウ","prefecture_code":23},"0032":{"zip_code":"4430032","prefecture":"愛知県","prefecture_kana":"アイチケン","city":"蒲郡市","city_kana":"ガマゴオリシ","town":"丸山町","town_kana":"マルヤマチョウ","prefecture_code":23},"0005":{"zip_code":"4430005","prefecture":"愛知県","prefecture_kana":"アイチケン","city":"蒲郡市","city_kana":"ガマゴオリシ","town":"水竹町","town_kana":"ミズタケチョウ","prefecture_code":23},"0048":{"zip_code":"4430048","prefecture":"愛知県","prefecture_kana":"アイチケン","city":"蒲郡市","city_kana":"ガマゴオリシ","town":"緑町","town_kana":"ミドリマチ","prefecture_code":23},"0034":{"zip_code":"4430034","prefecture":"愛知県","prefecture_kana":"アイチケン","city":"蒲郡市","city_kana":"ガマゴオリシ","town":"港町","town_kana":"ミナトマチ","prefecture_code":23},"0022":{"zip_code":"4430022","prefecture":"愛知県","prefecture_kana":"アイチケン","city":"蒲郡市","city_kana":"ガマゴオリシ","town":"三谷北通","town_kana":"ミヤキタドオリ","prefecture_code":23},"0021":{"zip_code":"4430021","prefecture":"愛知県","prefecture_kana":"アイチケン","city":"蒲郡市","city_kana":"ガマゴオリシ","town":"三谷町","town_kana":"ミヤチョウ","prefecture_code":23},"0041":{"zip_code":"4430041","prefecture":"愛知県","prefecture_kana":"アイチケン","city":"蒲郡市","city_kana":"ガマゴオリシ","town":"宮成町","town_kana":"ミヤナリチョウ","prefecture_code":23},"0042":{"zip_code":"4430042","prefecture":"愛知県","prefecture_kana":"アイチケン","city":"蒲郡市","city_kana":"ガマゴオリシ","town":"御幸町","town_kana":"ミユキチョウ","prefecture_code":23},"0043":{"zip_code":"4430043","prefecture":"愛知県","prefecture_kana":"アイチケン","city":"蒲郡市","city_kana":"ガマゴオリシ","town":"元町","town_kana":"モトマチ","prefecture_code":23},"0055":{"zip_code":"4430055","prefecture":"愛知県","prefecture_kana":"アイチケン","city":"蒲郡市","city_kana":"ガマゴオリシ","town":"八百富町","town_kana":"ヤオトミチョウ","prefecture_code":23}}