{"0000":{"zip_code":"4440000","prefecture":"愛知県","prefecture_kana":"アイチケン","city":"岡崎市","city_kana":"オカザキシ","town":"","town_kana":"","prefecture_code":23},"0913":{"zip_code":"4440913","prefecture":"愛知県","prefecture_kana":"アイチケン","city":"岡崎市","city_kana":"オカザキシ","town":"葵町","town_kana":"アオイチョウ","prefecture_code":23},"2131":{"zip_code":"4442131","prefecture":"愛知県","prefecture_kana":"アイチケン","city":"岡崎市","city_kana":"オカザキシ","town":"青木町","town_kana":"アオキチョウ","prefecture_code":23},"0241":{"zip_code":"4440241","prefecture":"愛知県","prefecture_kana":"アイチケン","city":"岡崎市","city_kana":"オカザキシ","town":"赤渋町","town_kana":"アカシブチョウ","prefecture_code":23},"0025":{"zip_code":"4440025","prefecture":"愛知県","prefecture_kana":"アイチケン","city":"岡崎市","city_kana":"オカザキシ","town":"曙町","town_kana":"アケボノチョウ","prefecture_code":23},"0022":{"zip_code":"4440022","prefecture":"愛知県","prefecture_kana":"アイチケン","city":"岡崎市","city_kana":"オカザキシ","town":"朝日町","town_kana":"アサヒチョウ","prefecture_code":23},"3603":{"zip_code":"4443603","prefecture":"愛知県","prefecture_kana":"アイチケン","city":"岡崎市","city_kana":"オカザキシ","town":"雨山町","town_kana":"アメヤマチョウ","prefecture_code":23},"3162":{"zip_code":"4443162","prefecture":"愛知県","prefecture_kana":"アイチケン","city":"岡崎市","city_kana":"オカザキシ","town":"新居町","town_kana":"アライチョウ","prefecture_code":23},"3617":{"zip_code":"4443617","prefecture":"愛知県","prefecture_kana":"アイチケン","city":"岡崎市","city_kana":"オカザキシ","town":"淡渕町","town_kana":"アワブチチョウ","prefecture_code":23},"0234":{"zip_code":"4440234","prefecture":"愛知県","prefecture_kana":"アイチケン","city":"岡崎市","city_kana":"オカザキシ","town":"安藤町","town_kana":"アンドウチョウ","prefecture_code":23},"0078":{"zip_code":"4440078","prefecture":"愛知県","prefecture_kana":"アイチケン","city":"岡崎市","city_kana":"オカザキシ","town":"伊賀新町","town_kana":"イガシンマチ","prefecture_code":23},"0075":{"zip_code":"4440075","prefecture":"愛知県","prefecture_kana":"アイチケン","city":"岡崎市","city_kana":"オカザキシ","town":"伊賀町","town_kana":"イガチョウ","prefecture_code":23},"3501":{"zip_code":"4443501","prefecture":"愛知県","prefecture_kana":"アイチケン","city":"岡崎市","city_kana":"オカザキシ","town":"池金町","town_kana":"イケガネチョウ","prefecture_code":23},"3434":{"zip_code":"4443434","prefecture":"愛知県","prefecture_kana":"アイチケン","city":"岡崎市","city_kana":"オカザキシ","town":"井沢町","town_kana":"イザワチョウ","prefecture_code":23},"0079":{"zip_code":"4440079","prefecture":"愛知県","prefecture_kana":"アイチケン","city":"岡崎市","city_kana":"オカザキシ","town":"石神町","town_kana":"イシガミチョウ","prefecture_code":23},"3447":{"zip_code":"4443447","prefecture":"愛知県","prefecture_kana":"アイチケン","city":"岡崎市","city_kana":"オカザキシ","town":"一色町","town_kana":"イッシキチョウ","prefecture_code":23},"3601":{"zip_code":"4443601","prefecture":"愛知県","prefecture_kana":"アイチケン","city":"岡崎市","city_kana":"オカザキシ","town":"石原町","town_kana":"イシハラチョウ","prefecture_code":23},"3171":{"zip_code":"4443171","prefecture":"愛知県","prefecture_kana":"アイチケン","city":"岡崎市","city_kana":"オカザキシ","town":"板田町","town_kana":"イタダチョウ","prefecture_code":23},"0053":{"zip_code":"4440053","prefecture":"愛知県","prefecture_kana":"アイチケン","city":"岡崎市","city_kana":"オカザキシ","town":"板屋町","town_kana":"イタヤマチ","prefecture_code":23},"0069":{"zip_code":"4440069","prefecture":"愛知県","prefecture_kana":"アイチケン","city":"岡崎市","city_kana":"オカザキシ","town":"井田新町","town_kana":"イダシンマチ","prefecture_code":23},"0912":{"zip_code":"4440912","prefecture":"愛知県","prefecture_kana":"アイチケン","city":"岡崎市","city_kana":"オカザキシ","town":"井田西町","town_kana":"イダニシマチ","prefecture_code":23},"0068":{"zip_code":"4440068","prefecture":"愛知県","prefecture_kana":"アイチケン","city":"岡崎市","city_kana":"オカザキシ","town":"井田南町","town_kana":"イダミナミマチ","prefecture_code":23},"0076":{"zip_code":"4440076","prefecture":"愛知県","prefecture_kana":"アイチケン","city":"岡崎市","city_kana":"オカザキシ","town":"井田町","town_kana":"イダチョウ","prefecture_code":23},"0077":{"zip_code":"4440077","prefecture":"愛知県","prefecture_kana":"アイチケン","city":"岡崎市","city_kana":"オカザキシ","town":"井田町茨坪","town_kana":"イダチョウバラツボ","prefecture_code":23},"3521":{"zip_code":"4443521","prefecture":"愛知県","prefecture_kana":"アイチケン","city":"岡崎市","city_kana":"オカザキシ","town":"市場町","town_kana":"イチバチョウ","prefecture_code":23},"0203":{"zip_code":"4440203","prefecture":"愛知県","prefecture_kana":"アイチケン","city":"岡崎市","city_kana":"オカザキシ","town":"井内町","town_kana":"イナイチョウ","prefecture_code":23},"0071":{"zip_code":"4440071","prefecture":"愛知県","prefecture_kana":"アイチケン","city":"岡崎市","city_kana":"オカザキシ","town":"稲熊町","town_kana":"イナグマチョウ","prefecture_code":23},"2132":{"zip_code":"4442132","prefecture":"愛知県","prefecture_kana":"アイチケン","city":"岡崎市","city_kana":"オカザキシ","town":"井ノ口新町","town_kana":"イノクチシンマチ","prefecture_code":23},"2133":{"zip_code":"4442133","prefecture":"愛知県","prefecture_kana":"アイチケン","city":"岡崎市","city_kana":"オカザキシ","town":"井ノ口町","town_kana":"イノクチチョウ","prefecture_code":23},"2144":{"zip_code":"4442144","prefecture":"愛知県","prefecture_kana":"アイチケン","city":"岡崎市","city_kana":"オカザキシ","town":"岩津町","town_kana":"イワヅチョウ","prefecture_code":23},"3344":{"zip_code":"4443344","prefecture":"愛知県","prefecture_kana":"アイチケン","city":"岡崎市","city_kana":"オカザキシ","town":"岩戸町","town_kana":"イワトチョウ","prefecture_code":23},"3165":{"zip_code":"4443165","prefecture":"愛知県","prefecture_kana":"アイチケン","city":"岡崎市","city_kana":"オカザキシ","town":"岩中町","town_kana":"イワナカチョウ","prefecture_code":23},"0823":{"zip_code":"4440823","prefecture":"愛知県","prefecture_kana":"アイチケン","city":"岡崎市","city_kana":"オカザキシ","town":"上地","town_kana":"ウエジ","prefecture_code":23},"0824":{"zip_code":"4440824","prefecture":"愛知県","prefecture_kana":"アイチケン","city":"岡崎市","city_kana":"オカザキシ","town":"上地町","town_kana":"ウエジチョウ","prefecture_code":23},"0058":{"zip_code":"4440058","prefecture":"愛知県","prefecture_kana":"アイチケン","city":"岡崎市","city_kana":"オカザキシ","town":"魚町","town_kana":"ウオマチ","prefecture_code":23},"0906":{"zip_code":"4440906","prefecture":"愛知県","prefecture_kana":"アイチケン","city":"岡崎市","city_kana":"オカザキシ","town":"宇頭北町","town_kana":"ウトウキタマチ","prefecture_code":23},"0905":{"zip_code":"4440905","prefecture":"愛知県","prefecture_kana":"アイチケン","city":"岡崎市","city_kana":"オカザキシ","town":"宇頭町","town_kana":"ウトウチョウ","prefecture_code":23},"0950":{"zip_code":"4440950","prefecture":"愛知県","prefecture_kana":"アイチケン","city":"岡崎市","city_kana":"オカザキシ","town":"宇頭東町","town_kana":"ウトウヒガシマチ","prefecture_code":23},"0949":{"zip_code":"4440949","prefecture":"愛知県","prefecture_kana":"アイチケン","city":"岡崎市","city_kana":"オカザキシ","town":"宇頭南町","town_kana":"ウトウミナミマチ","prefecture_code":23},"0031":{"zip_code":"4440031","prefecture":"愛知県","prefecture_kana":"アイチケン","city":"岡崎市","city_kana":"オカザキシ","town":"梅園町","town_kana":"ウメゾノチョウ","prefecture_code":23},"0843":{"zip_code":"4440843","prefecture":"愛知県","prefecture_kana":"アイチケン","city":"岡崎市","city_kana":"オカザキシ","town":"江口","town_kana":"エグチ","prefecture_code":23},"2107":{"zip_code":"4442107","prefecture":"愛知県","prefecture_kana":"アイチケン","city":"岡崎市","city_kana":"オカザキシ","town":"恵田町","town_kana":"エタチョウ","prefecture_code":23},"3334":{"zip_code":"4443334","prefecture":"愛知県","prefecture_kana":"アイチケン","city":"岡崎市","city_kana":"オカザキシ","town":"生平町","town_kana":"オイダイラチョウ","prefecture_code":23},"0003":{"zip_code":"4440003","prefecture":"愛知県","prefecture_kana":"アイチケン","city":"岡崎市","city_kana":"オカザキシ","town":"小美町","town_kana":"オイチョウ","prefecture_code":23},"3166":{"zip_code":"4443166","prefecture":"愛知県","prefecture_kana":"アイチケン","city":"岡崎市","city_kana":"オカザキシ","town":"大井野町","town_kana":"オオイノチョウ","prefecture_code":23},"3604":{"zip_code":"4443604","prefecture":"愛知県","prefecture_kana":"アイチケン","city":"岡崎市","city_kana":"オカザキシ","town":"大代町","town_kana":"オオジロチョウ","prefecture_code":23},"3445":{"zip_code":"4443445","prefecture":"愛知県","prefecture_kana":"アイチケン","city":"岡崎市","city_kana":"オカザキシ","town":"大高味町","town_kana":"オオタカミチョウ","prefecture_code":23},"0811":{"zip_code":"4440811","prefecture":"愛知県","prefecture_kana":"アイチケン","city":"岡崎市","city_kana":"オカザキシ","town":"大西町","town_kana":"オオニシチョウ","prefecture_code":23},"0812":{"zip_code":"4440812","prefecture":"愛知県","prefecture_kana":"アイチケン","city":"岡崎市","city_kana":"オカザキシ","town":"大西町南ケ原","town_kana":"オオニシチョウミナミガハラ","prefecture_code":23},"3502":{"zip_code":"4443502","prefecture":"愛知県","prefecture_kana":"アイチケン","city":"岡崎市","city_kana":"オカザキシ","town":"大幡町","town_kana":"オオバタチョウ","prefecture_code":23},"0007":{"zip_code":"4440007","prefecture":"愛知県","prefecture_kana":"アイチケン","city":"岡崎市","city_kana":"オカザキシ","town":"大平町","town_kana":"オオヒラチョウ","prefecture_code":23},"3161":{"zip_code":"4443161","prefecture":"愛知県","prefecture_kana":"アイチケン","city":"岡崎市","city_kana":"オカザキシ","town":"大柳町","town_kana":"オオヤナギチョウ","prefecture_code":23},"0871":{"zip_code":"4440871","prefecture":"愛知県","prefecture_kana":"アイチケン","city":"岡崎市","city_kana":"オカザキシ","town":"大西","town_kana":"オオニシ","prefecture_code":23},"0005":{"zip_code":"4440005","prefecture":"愛知県","prefecture_kana":"アイチケン","city":"岡崎市","city_kana":"オカザキシ","town":"岡町","town_kana":"オカチョウ","prefecture_code":23},"3436":{"zip_code":"4443436","prefecture":"愛知県","prefecture_kana":"アイチケン","city":"岡崎市","city_kana":"オカザキシ","town":"小久田町","town_kana":"オクダチョウ","prefecture_code":23},"2108":{"zip_code":"4442108","prefecture":"愛知県","prefecture_kana":"アイチケン","city":"岡崎市","city_kana":"オカザキシ","town":"奥殿町","town_kana":"オクトノチョウ","prefecture_code":23},"2142":{"zip_code":"4442142","prefecture":"愛知県","prefecture_kana":"アイチケン","city":"岡崎市","city_kana":"オカザキシ","town":"奥山田町","town_kana":"オクヤマダチョウ","prefecture_code":23},"0009":{"zip_code":"4440009","prefecture":"愛知県","prefecture_kana":"アイチケン","city":"岡崎市","city_kana":"オカザキシ","town":"小呂町","town_kana":"オロチョウ","prefecture_code":23},"3623":{"zip_code":"4443623","prefecture":"愛知県","prefecture_kana":"アイチケン","city":"岡崎市","city_kana":"オカザキシ","town":"鹿勝川町","town_kana":"カカツガワチョウ","prefecture_code":23},"0065":{"zip_code":"4440065","prefecture":"愛知県","prefecture_kana":"アイチケン","city":"岡崎市","city_kana":"オカザキシ","town":"柿田町","town_kana":"カキタチョウ","prefecture_code":23},"0011":{"zip_code":"4440011","prefecture":"愛知県","prefecture_kana":"アイチケン","city":"岡崎市","city_kana":"オカザキシ","town":"欠町","town_kana":"カケマチ","prefecture_code":23},"0041":{"zip_code":"4440041","prefecture":"愛知県","prefecture_kana":"アイチケン","city":"岡崎市","city_kana":"オカザキシ","town":"籠田町","town_kana":"カゴダチョウ","prefecture_code":23},"3443":{"zip_code":"4443443","prefecture":"愛知県","prefecture_kana":"アイチケン","city":"岡崎市","city_kana":"オカザキシ","town":"鍛埜町","town_kana":"カジノチョウ","prefecture_code":23},"3622":{"zip_code":"4443622","prefecture":"愛知県","prefecture_kana":"アイチケン","city":"岡崎市","city_kana":"オカザキシ","town":"樫山町","town_kana":"カシヤマチョウ","prefecture_code":23},"3616":{"zip_code":"4443616","prefecture":"愛知県","prefecture_kana":"アイチケン","city":"岡崎市","city_kana":"オカザキシ","town":"片寄町","town_kana":"カタヨセチョウ","prefecture_code":23},"0243":{"zip_code":"4440243","prefecture":"愛知県","prefecture_kana":"アイチケン","city":"岡崎市","city_kana":"オカザキシ","town":"上青野町","town_kana":"カミアオノチョウ","prefecture_code":23},"0936":{"zip_code":"4440936","prefecture":"愛知県","prefecture_kana":"アイチケン","city":"岡崎市","city_kana":"オカザキシ","town":"上佐々木町","town_kana":"カミササキチョウ","prefecture_code":23},"2136":{"zip_code":"4442136","prefecture":"愛知県","prefecture_kana":"アイチケン","city":"岡崎市","city_kana":"オカザキシ","town":"上里","town_kana":"カミサト","prefecture_code":23},"3504":{"zip_code":"4443504","prefecture":"愛知県","prefecture_kana":"アイチケン","city":"岡崎市","city_kana":"オカザキシ","town":"上衣文町","town_kana":"カミソブミチョウ","prefecture_code":23},"0246":{"zip_code":"4440246","prefecture":"愛知県","prefecture_kana":"アイチケン","city":"岡崎市","city_kana":"オカザキシ","town":"上三ツ木町","town_kana":"カミミツギチョウ","prefecture_code":23},"0861":{"zip_code":"4440861","prefecture":"愛知県","prefecture_kana":"アイチケン","city":"岡崎市","city_kana":"オカザキシ","town":"上明大寺町","town_kana":"カミミョウダイジチョウ","prefecture_code":23},"0858":{"zip_code":"4440858","prefecture":"愛知県","prefecture_kana":"アイチケン","city":"岡崎市","city_kana":"オカザキシ","town":"上六名","town_kana":"カミムツナ","prefecture_code":23},"0859":{"zip_code":"4440859","prefecture":"愛知県","prefecture_kana":"アイチケン","city":"岡崎市","city_kana":"オカザキシ","town":"上六名町","town_kana":"カミムツナチョウ","prefecture_code":23},"0201":{"zip_code":"4440201","prefecture":"愛知県","prefecture_kana":"アイチケン","city":"岡崎市","city_kana":"オカザキシ","town":"上和田町","town_kana":"カミワダチョウ","prefecture_code":23},"0049":{"zip_code":"4440049","prefecture":"愛知県","prefecture_kana":"アイチケン","city":"岡崎市","city_kana":"オカザキシ","town":"亀井町","town_kana":"カメイチョウ","prefecture_code":23},"2122":{"zip_code":"4442122","prefecture":"愛知県","prefecture_kana":"アイチケン","city":"岡崎市","city_kana":"オカザキシ","town":"鴨田本町","town_kana":"カモダホンマチ","prefecture_code":23},"2123":{"zip_code":"4442123","prefecture":"愛知県","prefecture_kana":"アイチケン","city":"岡崎市","city_kana":"オカザキシ","town":"鴨田南町","town_kana":"カモダミナミマチ","prefecture_code":23},"2121":{"zip_code":"4442121","prefecture":"愛知県","prefecture_kana":"アイチケン","city":"岡崎市","city_kana":"オカザキシ","town":"鴨田町","town_kana":"カモダチョウ","prefecture_code":23},"0043":{"zip_code":"4440043","prefecture":"愛知県","prefecture_kana":"アイチケン","city":"岡崎市","city_kana":"オカザキシ","town":"唐沢町","town_kana":"カラサワチョウ","prefecture_code":23},"2101":{"zip_code":"4442101","prefecture":"愛知県","prefecture_kana":"アイチケン","city":"岡崎市","city_kana":"オカザキシ","town":"川向町","town_kana":"カワムキチョウ","prefecture_code":23},"2118":{"zip_code":"4442118","prefecture":"愛知県","prefecture_kana":"アイチケン","city":"岡崎市","city_kana":"オカザキシ","town":"河原町","town_kana":"カワラチョウ","prefecture_code":23},"3433":{"zip_code":"4443433","prefecture":"愛知県","prefecture_kana":"アイチケン","city":"岡崎市","city_kana":"オカザキシ","town":"木下町","town_kana":"キクダシチョウ","prefecture_code":23},"0951":{"zip_code":"4440951","prefecture":"愛知県","prefecture_kana":"アイチケン","city":"岡崎市","city_kana":"オカザキシ","town":"北野町","town_kana":"キタノチョウ","prefecture_code":23},"0944":{"zip_code":"4440944","prefecture":"愛知県","prefecture_kana":"アイチケン","city":"岡崎市","city_kana":"オカザキシ","town":"北本郷町","town_kana":"キタホンゴウチョウ","prefecture_code":23},"0033":{"zip_code":"4440033","prefecture":"愛知県","prefecture_kana":"アイチケン","city":"岡崎市","city_kana":"オカザキシ","town":"久右ヱ門町","town_kana":"キュウエモンチョウ","prefecture_code":23},"3332":{"zip_code":"4443332","prefecture":"愛知県","prefecture_kana":"アイチケン","city":"岡崎市","city_kana":"オカザキシ","town":"切越町","town_kana":"キリコシチョウ","prefecture_code":23},"3431":{"zip_code":"4443431","prefecture":"愛知県","prefecture_kana":"アイチケン","city":"岡崎市","city_kana":"オカザキシ","town":"切山町","town_kana":"キリヤマチョウ","prefecture_code":23},"0851":{"zip_code":"4440851","prefecture":"愛知県","prefecture_kana":"アイチケン","city":"岡崎市","city_kana":"オカザキシ","town":"久後崎町","town_kana":"クゴサキチョウ","prefecture_code":23},"0214":{"zip_code":"4440214","prefecture":"愛知県","prefecture_kana":"アイチケン","city":"岡崎市","city_kana":"オカザキシ","town":"国正町","town_kana":"クニマサチョウ","prefecture_code":23},"3164":{"zip_code":"4443164","prefecture":"愛知県","prefecture_kana":"アイチケン","city":"岡崎市","city_kana":"オカザキシ","town":"蔵次町","town_kana":"クラナミチョウ","prefecture_code":23},"0941":{"zip_code":"4440941","prefecture":"愛知県","prefecture_kana":"アイチケン","city":"岡崎市","city_kana":"オカザキシ","town":"暮戸町","town_kana":"クレドチョウ","prefecture_code":23},"3515":{"zip_code":"4443515","prefecture":"愛知県","prefecture_kana":"アイチケン","city":"岡崎市","city_kana":"オカザキシ","town":"桑谷町","town_kana":"クワガイチョウ","prefecture_code":23},"2141":{"zip_code":"4442141","prefecture":"愛知県","prefecture_kana":"アイチケン","city":"岡崎市","city_kana":"オカザキシ","town":"桑原町","town_kana":"クワバラチョウ","prefecture_code":23},"3437":{"zip_code":"4443437","prefecture":"愛知県","prefecture_kana":"アイチケン","city":"岡崎市","city_kana":"オカザキシ","town":"毛呂町","town_kana":"ケロチョウ","prefecture_code":23},"0052":{"zip_code":"4440052","prefecture":"愛知県","prefecture_kana":"アイチケン","city":"岡崎市","city_kana":"オカザキシ","town":"康生町","town_kana":"コウセイチョウ","prefecture_code":23},"0045":{"zip_code":"4440045","prefecture":"愛知県","prefecture_kana":"アイチケン","city":"岡崎市","city_kana":"オカザキシ","town":"康生通東","town_kana":"コウセイドオリヒガシ","prefecture_code":23},"0059":{"zip_code":"4440059","prefecture":"愛知県","prefecture_kana":"アイチケン","city":"岡崎市","city_kana":"オカザキシ","town":"康生通西","town_kana":"コウセイドオリニシ","prefecture_code":23},"0044":{"zip_code":"4440044","prefecture":"愛知県","prefecture_kana":"アイチケン","city":"岡崎市","city_kana":"オカザキシ","town":"康生通南","town_kana":"コウセイドオリミナミ","prefecture_code":23},"0002":{"zip_code":"4440002","prefecture":"愛知県","prefecture_kana":"アイチケン","city":"岡崎市","city_kana":"オカザキシ","town":"高隆寺町","town_kana":"コウリュウジチョウ","prefecture_code":23},"2116":{"zip_code":"4442116","prefecture":"愛知県","prefecture_kana":"アイチケン","city":"岡崎市","city_kana":"オカザキシ","town":"寿町","town_kana":"コトブキチョウ","prefecture_code":23},"0907":{"zip_code":"4440907","prefecture":"愛知県","prefecture_kana":"アイチケン","city":"岡崎市","city_kana":"オカザキシ","town":"小針町","town_kana":"コバリチョウ","prefecture_code":23},"3331":{"zip_code":"4443331","prefecture":"愛知県","prefecture_kana":"アイチケン","city":"岡崎市","city_kana":"オカザキシ","town":"古部町","town_kana":"コブチョウ","prefecture_code":23},"2104":{"zip_code":"4442104","prefecture":"愛知県","prefecture_kana":"アイチケン","city":"岡崎市","city_kana":"オカザキシ","town":"駒立町","town_kana":"コマダチチョウ","prefecture_code":23},"3163":{"zip_code":"4443163","prefecture":"愛知県","prefecture_kana":"アイチケン","city":"岡崎市","city_kana":"オカザキシ","town":"小丸町","town_kana":"コマルチョウ","prefecture_code":23},"3342":{"zip_code":"4443342","prefecture":"愛知県","prefecture_kana":"アイチケン","city":"岡崎市","city_kana":"オカザキシ","town":"才栗町","town_kana":"サイクリチョウ","prefecture_code":23},"0245":{"zip_code":"4440245","prefecture":"愛知県","prefecture_kana":"アイチケン","city":"岡崎市","city_kana":"オカザキシ","town":"在家町","town_kana":"ザイケチョウ","prefecture_code":23},"0057":{"zip_code":"4440057","prefecture":"愛知県","prefecture_kana":"アイチケン","city":"岡崎市","city_kana":"オカザキシ","town":"材木町","town_kana":"ザイモクチョウ","prefecture_code":23},"0012":{"zip_code":"4440012","prefecture":"愛知県","prefecture_kana":"アイチケン","city":"岡崎市","city_kana":"オカザキシ","town":"栄町","town_kana":"サカエマチ","prefecture_code":23},"0213":{"zip_code":"4440213","prefecture":"愛知県","prefecture_kana":"アイチケン","city":"岡崎市","city_kana":"オカザキシ","town":"坂左右町","town_kana":"サカソウチョウ","prefecture_code":23},"3626":{"zip_code":"4443626","prefecture":"愛知県","prefecture_kana":"アイチケン","city":"岡崎市","city_kana":"オカザキシ","town":"桜井寺町","town_kana":"サクライジチョウ","prefecture_code":23},"3435":{"zip_code":"4443435","prefecture":"愛知県","prefecture_kana":"アイチケン","city":"岡崎市","city_kana":"オカザキシ","town":"桜形町","town_kana":"サクラガタチョウ","prefecture_code":23},"0216":{"zip_code":"4440216","prefecture":"愛知県","prefecture_kana":"アイチケン","city":"岡崎市","city_kana":"オカザキシ","town":"定国町","town_kana":"サダクニチョウ","prefecture_code":23},"0937":{"zip_code":"4440937","prefecture":"愛知県","prefecture_kana":"アイチケン","city":"岡崎市","city_kana":"オカザキシ","town":"島坂町","town_kana":"シマサカチョウ","prefecture_code":23},"0036":{"zip_code":"4440036","prefecture":"愛知県","prefecture_kana":"アイチケン","city":"岡崎市","city_kana":"オカザキシ","town":"島町","town_kana":"シマチョウ","prefecture_code":23},"0244":{"zip_code":"4440244","prefecture":"愛知県","prefecture_kana":"アイチケン","city":"岡崎市","city_kana":"オカザキシ","town":"下青野町","town_kana":"シモアオノチョウ","prefecture_code":23},"0935":{"zip_code":"4440935","prefecture":"愛知県","prefecture_kana":"アイチケン","city":"岡崎市","city_kana":"オカザキシ","town":"下佐々木町","town_kana":"シモササキチョウ","prefecture_code":23},"3625":{"zip_code":"4443625","prefecture":"愛知県","prefecture_kana":"アイチケン","city":"岡崎市","city_kana":"オカザキシ","town":"下衣文町","town_kana":"シモソブミチョウ","prefecture_code":23},"0247":{"zip_code":"4440247","prefecture":"愛知県","prefecture_kana":"アイチケン","city":"岡崎市","city_kana":"オカザキシ","town":"下三ツ木町","town_kana":"シモミツギチョウ","prefecture_code":23},"0212":{"zip_code":"4440212","prefecture":"愛知県","prefecture_kana":"アイチケン","city":"岡崎市","city_kana":"オカザキシ","town":"下和田町","town_kana":"シモワダチョウ","prefecture_code":23},"0034":{"zip_code":"4440034","prefecture":"愛知県","prefecture_kana":"アイチケン","city":"岡崎市","city_kana":"オカザキシ","town":"十王町","town_kana":"ジュウオウチョウ","prefecture_code":23},"0821":{"zip_code":"4440821","prefecture":"愛知県","prefecture_kana":"アイチケン","city":"岡崎市","city_kana":"オカザキシ","town":"庄司田","town_kana":"ショウジダ","prefecture_code":23},"0221":{"zip_code":"4440221","prefecture":"愛知県","prefecture_kana":"アイチケン","city":"岡崎市","city_kana":"オカザキシ","town":"正名町","town_kana":"ショウナチョウ","prefecture_code":23},"0835":{"zip_code":"4440835","prefecture":"愛知県","prefecture_kana":"アイチケン","city":"岡崎市","city_kana":"オカザキシ","town":"城南町","town_kana":"ジョウナンチョウ","prefecture_code":23},"0064":{"zip_code":"4440064","prefecture":"愛知県","prefecture_kana":"アイチケン","city":"岡崎市","city_kana":"オカザキシ","town":"城北町","town_kana":"ジョウホクチョウ","prefecture_code":23},"0938":{"zip_code":"4440938","prefecture":"愛知県","prefecture_kana":"アイチケン","city":"岡崎市","city_kana":"オカザキシ","town":"昭和町","town_kana":"ショウワチョウ","prefecture_code":23},"0855":{"zip_code":"4440855","prefecture":"愛知県","prefecture_kana":"アイチケン","city":"岡崎市","city_kana":"オカザキシ","town":"真宮町","town_kana":"シングウチョウ","prefecture_code":23},"3175":{"zip_code":"4443175","prefecture":"愛知県","prefecture_kana":"アイチケン","city":"岡崎市","city_kana":"オカザキシ","town":"真伝","town_kana":"シンデン","prefecture_code":23},"3174":{"zip_code":"4443174","prefecture":"愛知県","prefecture_kana":"アイチケン","city":"岡崎市","city_kana":"オカザキシ","town":"真伝町","town_kana":"シンデンチョウ","prefecture_code":23},"2106":{"zip_code":"4442106","prefecture":"愛知県","prefecture_kana":"アイチケン","city":"岡崎市","city_kana":"オカザキシ","town":"真福寺町","town_kana":"シンプクジチョウ","prefecture_code":23},"0914":{"zip_code":"4440914","prefecture":"愛知県","prefecture_kana":"アイチケン","city":"岡崎市","city_kana":"オカザキシ","town":"末広町","town_kana":"スエヒロチョウ","prefecture_code":23},"0035":{"zip_code":"4440035","prefecture":"愛知県","prefecture_kana":"アイチケン","city":"岡崎市","city_kana":"オカザキシ","town":"菅生町","town_kana":"スゴウチョウ","prefecture_code":23},"3341":{"zip_code":"4443341","prefecture":"愛知県","prefecture_kana":"アイチケン","city":"岡崎市","city_kana":"オカザキシ","town":"須渕町","town_kana":"スブチチョウ","prefecture_code":23},"3432":{"zip_code":"4443432","prefecture":"愛知県","prefecture_kana":"アイチケン","city":"岡崎市","city_kana":"オカザキシ","town":"千万町町","town_kana":"ゼマンヂョウチョウ","prefecture_code":23},"3448":{"zip_code":"4443448","prefecture":"愛知県","prefecture_kana":"アイチケン","city":"岡崎市","city_kana":"オカザキシ","town":"外山町","town_kana":"ソトヤマチョウ","prefecture_code":23},"2134":{"zip_code":"4442134","prefecture":"愛知県","prefecture_kana":"アイチケン","city":"岡崎市","city_kana":"オカザキシ","town":"大樹寺","town_kana":"ダイジュウジ","prefecture_code":23},"2135":{"zip_code":"4442135","prefecture":"愛知県","prefecture_kana":"アイチケン","city":"岡崎市","city_kana":"オカザキシ","town":"大門","town_kana":"ダイモン","prefecture_code":23},"0231":{"zip_code":"4440231","prefecture":"愛知県","prefecture_kana":"アイチケン","city":"岡崎市","city_kana":"オカザキシ","town":"高橋町","town_kana":"タカハシチョウ","prefecture_code":23},"3613":{"zip_code":"4443613","prefecture":"愛知県","prefecture_kana":"アイチケン","city":"岡崎市","city_kana":"オカザキシ","town":"滝尻町","town_kana":"タキジリチョウ","prefecture_code":23},"3173":{"zip_code":"4443173","prefecture":"愛知県","prefecture_kana":"アイチケン","city":"岡崎市","city_kana":"オカザキシ","town":"滝町","town_kana":"タキチョウ","prefecture_code":23},"3172":{"zip_code":"4443172","prefecture":"愛知県","prefecture_kana":"アイチケン","city":"岡崎市","city_kana":"オカザキシ","town":"田口町","town_kana":"タグチチョウ","prefecture_code":23},"0877":{"zip_code":"4440877","prefecture":"愛知県","prefecture_kana":"アイチケン","city":"岡崎市","city_kana":"オカザキシ","town":"竜美旭町","town_kana":"タツミアサヒマチ","prefecture_code":23},"0870":{"zip_code":"4440870","prefecture":"愛知県","prefecture_kana":"アイチケン","city":"岡崎市","city_kana":"オカザキシ","town":"竜美大入町","town_kana":"タツミオオイリチョウ","prefecture_code":23},"0872":{"zip_code":"4440872","prefecture":"愛知県","prefecture_kana":"アイチケン","city":"岡崎市","city_kana":"オカザキシ","town":"竜美新町","town_kana":"タツミシンマチ","prefecture_code":23},"0873":{"zip_code":"4440873","prefecture":"愛知県","prefecture_kana":"アイチケン","city":"岡崎市","city_kana":"オカザキシ","town":"竜美台","town_kana":"タツミダイ","prefecture_code":23},"0879":{"zip_code":"4440879","prefecture":"愛知県","prefecture_kana":"アイチケン","city":"岡崎市","city_kana":"オカザキシ","town":"竜美中","town_kana":"タツミナカ","prefecture_code":23},"0878":{"zip_code":"4440878","prefecture":"愛知県","prefecture_kana":"アイチケン","city":"岡崎市","city_kana":"オカザキシ","town":"竜美東","town_kana":"タツミヒガシ","prefecture_code":23},"0875":{"zip_code":"4440875","prefecture":"愛知県","prefecture_kana":"アイチケン","city":"岡崎市","city_kana":"オカザキシ","town":"竜美西","town_kana":"タツミニシ","prefecture_code":23},"0874":{"zip_code":"4440874","prefecture":"愛知県","prefecture_kana":"アイチケン","city":"岡崎市","city_kana":"オカザキシ","town":"竜美南","town_kana":"タツミミナミ","prefecture_code":23},"0876":{"zip_code":"4440876","prefecture":"愛知県","prefecture_kana":"アイチケン","city":"岡崎市","city_kana":"オカザキシ","town":"竜美北","town_kana":"タツミキタ","prefecture_code":23},"0054":{"zip_code":"4440054","prefecture":"愛知県","prefecture_kana":"アイチケン","city":"岡崎市","city_kana":"オカザキシ","town":"田町","town_kana":"タマチ","prefecture_code":23},"2105":{"zip_code":"4442105","prefecture":"愛知県","prefecture_kana":"アイチケン","city":"岡崎市","city_kana":"オカザキシ","town":"丹坂町","town_kana":"タンザカチョウ","prefecture_code":23},"0931":{"zip_code":"4440931","prefecture":"愛知県","prefecture_kana":"アイチケン","city":"岡崎市","city_kana":"オカザキシ","town":"大和町","town_kana":"ダイワチョウ","prefecture_code":23},"3335":{"zip_code":"4443335","prefecture":"愛知県","prefecture_kana":"アイチケン","city":"岡崎市","city_kana":"オカザキシ","town":"茅原沢町","town_kana":"チハラザワチョウ","prefecture_code":23},"0932":{"zip_code":"4440932","prefecture":"愛知県","prefecture_kana":"アイチケン","city":"岡崎市","city_kana":"オカザキシ","town":"筒針町","town_kana":"ツツバリチョウ","prefecture_code":23},"0844":{"zip_code":"4440844","prefecture":"愛知県","prefecture_kana":"アイチケン","city":"岡崎市","city_kana":"オカザキシ","town":"天白町","town_kana":"テンパクチョウ","prefecture_code":23},"0038":{"zip_code":"4440038","prefecture":"愛知県","prefecture_kana":"アイチケン","city":"岡崎市","city_kana":"オカザキシ","town":"伝馬通","town_kana":"テンマドオリ","prefecture_code":23},"0204":{"zip_code":"4440204","prefecture":"愛知県","prefecture_kana":"アイチケン","city":"岡崎市","city_kana":"オカザキシ","town":"土井町","town_kana":"ドイチョウ","prefecture_code":23},"2115":{"zip_code":"4442115","prefecture":"愛知県","prefecture_kana":"アイチケン","city":"岡崎市","city_kana":"オカザキシ","town":"百々町","town_kana":"ドウドチョウ","prefecture_code":23},"2117":{"zip_code":"4442117","prefecture":"愛知県","prefecture_kana":"アイチケン","city":"岡崎市","city_kana":"オカザキシ","town":"百々西町","town_kana":"ドウドニシマチ","prefecture_code":23},"3503":{"zip_code":"4443503","prefecture":"愛知県","prefecture_kana":"アイチケン","city":"岡崎市","city_kana":"オカザキシ","town":"鶇巣町","town_kana":"トウノスチョウ","prefecture_code":23},"2114":{"zip_code":"4442114","prefecture":"愛知県","prefecture_kana":"アイチケン","city":"岡崎市","city_kana":"オカザキシ","town":"堂前町","town_kana":"ドウマエチョウ","prefecture_code":23},"0849":{"zip_code":"4440849","prefecture":"愛知県","prefecture_kana":"アイチケン","city":"岡崎市","city_kana":"オカザキシ","town":"戸崎新町","town_kana":"トサキシンマチ","prefecture_code":23},"0842":{"zip_code":"4440842","prefecture":"愛知県","prefecture_kana":"アイチケン","city":"岡崎市","city_kana":"オカザキシ","town":"戸崎元町","town_kana":"トサキモトマチ","prefecture_code":23},"0840":{"zip_code":"4440840","prefecture":"愛知県","prefecture_kana":"アイチケン","city":"岡崎市","city_kana":"オカザキシ","town":"戸崎町","town_kana":"トサキチョウ","prefecture_code":23},"0841":{"zip_code":"4440841","prefecture":"愛知県","prefecture_kana":"アイチケン","city":"岡崎市","city_kana":"オカザキシ","town":"戸崎町藤狭","town_kana":"トサキチョウフジバサミ","prefecture_code":23},"0946":{"zip_code":"4440946","prefecture":"愛知県","prefecture_kana":"アイチケン","city":"岡崎市","city_kana":"オカザキシ","town":"富永町","town_kana":"トミナガチョウ","prefecture_code":23},"3614":{"zip_code":"4443614","prefecture":"愛知県","prefecture_kana":"アイチケン","city":"岡崎市","city_kana":"オカザキシ","town":"鳥川町","town_kana":"トリカワチョウ","prefecture_code":23},"3441":{"zip_code":"4443441","prefecture":"愛知県","prefecture_kana":"アイチケン","city":"岡崎市","city_kana":"オカザキシ","town":"冨尾町","town_kana":"トンビュウチョウ","prefecture_code":23},"3446":{"zip_code":"4443446","prefecture":"愛知県","prefecture_kana":"アイチケン","city":"岡崎市","city_kana":"オカザキシ","town":"中伊町","town_kana":"ナカイチョウ","prefecture_code":23},"3449":{"zip_code":"4443449","prefecture":"愛知県","prefecture_kana":"アイチケン","city":"岡崎市","city_kana":"オカザキシ","town":"中伊西町","town_kana":"ナカイニシチョウ","prefecture_code":23},"0921":{"zip_code":"4440921","prefecture":"愛知県","prefecture_kana":"アイチケン","city":"岡崎市","city_kana":"オカザキシ","town":"中岡崎町","town_kana":"ナカオカザキチョウ","prefecture_code":23},"3605":{"zip_code":"4443605","prefecture":"愛知県","prefecture_kana":"アイチケン","city":"岡崎市","city_kana":"オカザキシ","town":"中金町","town_kana":"ナカガネチョウ","prefecture_code":23},"0226":{"zip_code":"4440226","prefecture":"愛知県","prefecture_kana":"アイチケン","city":"岡崎市","city_kana":"オカザキシ","town":"中島町","town_kana":"ナカジマチョウ","prefecture_code":23},"0224":{"zip_code":"4440224","prefecture":"愛知県","prefecture_kana":"アイチケン","city":"岡崎市","city_kana":"オカザキシ","town":"中島中町","town_kana":"ナカジマナカマチ","prefecture_code":23},"0225":{"zip_code":"4440225","prefecture":"愛知県","prefecture_kana":"アイチケン","city":"岡崎市","city_kana":"オカザキシ","town":"中島西町","town_kana":"ナカジマニシマチ","prefecture_code":23},"0223":{"zip_code":"4440223","prefecture":"愛知県","prefecture_kana":"アイチケン","city":"岡崎市","city_kana":"オカザキシ","town":"中島東町","town_kana":"ナカジマヒガシマチ","prefecture_code":23},"0942":{"zip_code":"4440942","prefecture":"愛知県","prefecture_kana":"アイチケン","city":"岡崎市","city_kana":"オカザキシ","town":"中園町","town_kana":"ナカゾノチョウ","prefecture_code":23},"0836":{"zip_code":"4440836","prefecture":"愛知県","prefecture_kana":"アイチケン","city":"岡崎市","city_kana":"オカザキシ","town":"中田町","town_kana":"ナカダチョウ","prefecture_code":23},"0242":{"zip_code":"4440242","prefecture":"愛知県","prefecture_kana":"アイチケン","city":"岡崎市","city_kana":"オカザキシ","town":"中之郷町","town_kana":"ナカノゴウチョウ","prefecture_code":23},"0015":{"zip_code":"4440015","prefecture":"愛知県","prefecture_kana":"アイチケン","city":"岡崎市","city_kana":"オカザキシ","town":"中町","town_kana":"ナカマチ","prefecture_code":23},"0215":{"zip_code":"4440215","prefecture":"愛知県","prefecture_kana":"アイチケン","city":"岡崎市","city_kana":"オカザキシ","town":"中村町","town_kana":"ナカムラチョウ","prefecture_code":23},"3621":{"zip_code":"4443621","prefecture":"愛知県","prefecture_kana":"アイチケン","city":"岡崎市","city_kana":"オカザキシ","town":"夏山町","town_kana":"ナツヤマチョウ","prefecture_code":23},"0939":{"zip_code":"4440939","prefecture":"愛知県","prefecture_kana":"アイチケン","city":"岡崎市","city_kana":"オカザキシ","town":"新堀町","town_kana":"ニイボリチョウ","prefecture_code":23},"0222":{"zip_code":"4440222","prefecture":"愛知県","prefecture_kana":"アイチケン","city":"岡崎市","city_kana":"オカザキシ","town":"二軒屋町","town_kana":"ニケンヤチョウ","prefecture_code":23},"2111":{"zip_code":"4442111","prefecture":"愛知県","prefecture_kana":"アイチケン","city":"岡崎市","city_kana":"オカザキシ","town":"西阿知和町","town_kana":"ニシアチワチョウ","prefecture_code":23},"0055":{"zip_code":"4440055","prefecture":"愛知県","prefecture_kana":"アイチケン","city":"岡崎市","city_kana":"オカザキシ","town":"西魚町","town_kana":"ニシウオマチ","prefecture_code":23},"0904":{"zip_code":"4440904","prefecture":"愛知県","prefecture_kana":"アイチケン","city":"岡崎市","city_kana":"オカザキシ","town":"西大友町","town_kana":"ニシオオドモチョウ","prefecture_code":23},"0067":{"zip_code":"4440067","prefecture":"愛知県","prefecture_kana":"アイチケン","city":"岡崎市","city_kana":"オカザキシ","town":"錦町","town_kana":"ニシキマチ","prefecture_code":23},"2147":{"zip_code":"4442147","prefecture":"愛知県","prefecture_kana":"アイチケン","city":"岡崎市","city_kana":"オカザキシ","town":"西蔵前町","town_kana":"ニシクラマエチョウ","prefecture_code":23},"0024":{"zip_code":"4440024","prefecture":"愛知県","prefecture_kana":"アイチケン","city":"岡崎市","city_kana":"オカザキシ","town":"西中町","town_kana":"ニシナカマチ","prefecture_code":23},"0947":{"zip_code":"4440947","prefecture":"愛知県","prefecture_kana":"アイチケン","city":"岡崎市","city_kana":"オカザキシ","town":"西本郷町","town_kana":"ニシホンゴウチョウ","prefecture_code":23},"0948":{"zip_code":"4440948","prefecture":"愛知県","prefecture_kana":"アイチケン","city":"岡崎市","city_kana":"オカザキシ","town":"西本郷町和志山","town_kana":"ニシホンゴウチョウワシヤマ","prefecture_code":23},"2148":{"zip_code":"4442148","prefecture":"愛知県","prefecture_kana":"アイチケン","city":"岡崎市","city_kana":"オカザキシ","town":"仁木町","town_kana":"ニッキチョウ","prefecture_code":23},"0013":{"zip_code":"4440013","prefecture":"愛知県","prefecture_kana":"アイチケン","city":"岡崎市","city_kana":"オカザキシ","town":"根石町","town_kana":"ネイシチョウ","prefecture_code":23},"0232":{"zip_code":"4440232","prefecture":"愛知県","prefecture_kana":"アイチケン","city":"岡崎市","city_kana":"オカザキシ","town":"合歓木町","town_kana":"ネムノキチョウ","prefecture_code":23},"0211":{"zip_code":"4440211","prefecture":"愛知県","prefecture_kana":"アイチケン","city":"岡崎市","city_kana":"オカザキシ","town":"野畑町","town_kana":"ノバタチョウ","prefecture_code":23},"0061":{"zip_code":"4440061","prefecture":"愛知県","prefecture_kana":"アイチケン","city":"岡崎市","city_kana":"オカザキシ","town":"能見町","town_kana":"ノミチョウ","prefecture_code":23},"0073":{"zip_code":"4440073","prefecture":"愛知県","prefecture_kana":"アイチケン","city":"岡崎市","city_kana":"オカザキシ","town":"能見通","town_kana":"ノミドオリ","prefecture_code":23},"3514":{"zip_code":"4443514","prefecture":"愛知県","prefecture_kana":"アイチケン","city":"岡崎市","city_kana":"オカザキシ","town":"羽栗町","town_kana":"ハグリチョウ","prefecture_code":23},"3151":{"zip_code":"4443151","prefecture":"愛知県","prefecture_kana":"アイチケン","city":"岡崎市","city_kana":"オカザキシ","town":"箱柳町中立","town_kana":"ハコヤナギチョウナカダチ","prefecture_code":23},"0001":{"zip_code":"4440001","prefecture":"愛知県","prefecture_kana":"アイチケン","city":"岡崎市","city_kana":"オカザキシ","town":"箱柳町","town_kana":"ハコヤナギチョウ","prefecture_code":23},"0908":{"zip_code":"4440908","prefecture":"愛知県","prefecture_kana":"アイチケン","city":"岡崎市","city_kana":"オカザキシ","town":"橋目町","town_kana":"ハシメチョウ","prefecture_code":23},"0909":{"zip_code":"4440909","prefecture":"愛知県","prefecture_kana":"アイチケン","city":"岡崎市","city_kana":"オカザキシ","town":"橋目町御小屋西","town_kana":"ハシメチョウオコヤニシ","prefecture_code":23},"0837":{"zip_code":"4440837","prefecture":"愛知県","prefecture_kana":"アイチケン","city":"岡崎市","city_kana":"オカザキシ","town":"柱","town_kana":"ハシラ","prefecture_code":23},"0833":{"zip_code":"4440833","prefecture":"愛知県","prefecture_kana":"アイチケン","city":"岡崎市","city_kana":"オカザキシ","town":"柱曙","town_kana":"ハシラアケボノ","prefecture_code":23},"0834":{"zip_code":"4440834","prefecture":"愛知県","prefecture_kana":"アイチケン","city":"岡崎市","city_kana":"オカザキシ","town":"柱町","town_kana":"ハシラチョウ","prefecture_code":23},"3343":{"zip_code":"4443343","prefecture":"愛知県","prefecture_kana":"アイチケン","city":"岡崎市","city_kana":"オカザキシ","town":"秦梨町","town_kana":"ハダナシチョウ","prefecture_code":23},"0047":{"zip_code":"4440047","prefecture":"愛知県","prefecture_kana":"アイチケン","city":"岡崎市","city_kana":"オカザキシ","town":"八幡町","town_kana":"ハチマンチョウ","prefecture_code":23},"3512":{"zip_code":"4443512","prefecture":"愛知県","prefecture_kana":"アイチケン","city":"岡崎市","city_kana":"オカザキシ","town":"鉢地町","town_kana":"ハツチチョウ","prefecture_code":23},"0922":{"zip_code":"4440922","prefecture":"愛知県","prefecture_kana":"アイチケン","city":"岡崎市","city_kana":"オカザキシ","town":"八帖南町","town_kana":"ハッチョウミナミマチ","prefecture_code":23},"0924":{"zip_code":"4440924","prefecture":"愛知県","prefecture_kana":"アイチケン","city":"岡崎市","city_kana":"オカザキシ","town":"八帖北町","town_kana":"ハッチョウキタマチ","prefecture_code":23},"0923":{"zip_code":"4440923","prefecture":"愛知県","prefecture_kana":"アイチケン","city":"岡崎市","city_kana":"オカザキシ","town":"八帖町","town_kana":"ハッチョウチョウ","prefecture_code":23},"0832":{"zip_code":"4440832","prefecture":"愛知県","prefecture_kana":"アイチケン","city":"岡崎市","city_kana":"オカザキシ","town":"羽根東町","town_kana":"ハネヒガシマチ","prefecture_code":23},"0838":{"zip_code":"4440838","prefecture":"愛知県","prefecture_kana":"アイチケン","city":"岡崎市","city_kana":"オカザキシ","town":"羽根西","town_kana":"ハネニシ","prefecture_code":23},"0839":{"zip_code":"4440839","prefecture":"愛知県","prefecture_kana":"アイチケン","city":"岡崎市","city_kana":"オカザキシ","town":"羽根西新町","town_kana":"ハネニシシンマチ","prefecture_code":23},"0831":{"zip_code":"4440831","prefecture":"愛知県","prefecture_kana":"アイチケン","city":"岡崎市","city_kana":"オカザキシ","town":"羽根北町","town_kana":"ハネキタマチ","prefecture_code":23},"0813":{"zip_code":"4440813","prefecture":"愛知県","prefecture_kana":"アイチケン","city":"岡崎市","city_kana":"オカザキシ","town":"羽根町","town_kana":"ハネチョウ","prefecture_code":23},"0814":{"zip_code":"4440814","prefecture":"愛知県","prefecture_kana":"アイチケン","city":"岡崎市","city_kana":"オカザキシ","town":"羽根町小豆坂","town_kana":"ハネチョウアズキサカ","prefecture_code":23},"0816":{"zip_code":"4440816","prefecture":"愛知県","prefecture_kana":"アイチケン","city":"岡崎市","city_kana":"オカザキシ","town":"羽根町大池","town_kana":"ハネチョウオオイケ","prefecture_code":23},"0815":{"zip_code":"4440815","prefecture":"愛知県","prefecture_kana":"アイチケン","city":"岡崎市","city_kana":"オカザキシ","town":"羽根町陣場","town_kana":"ハネチョウジンバ","prefecture_code":23},"0828":{"zip_code":"4440828","prefecture":"愛知県","prefecture_kana":"アイチケン","city":"岡崎市","city_kana":"オカザキシ","town":"針崎","town_kana":"ハリサキ","prefecture_code":23},"0827":{"zip_code":"4440827","prefecture":"愛知県","prefecture_kana":"アイチケン","city":"岡崎市","city_kana":"オカザキシ","town":"針崎町","town_kana":"ハリサキチョウ","prefecture_code":23},"2102":{"zip_code":"4442102","prefecture":"愛知県","prefecture_kana":"アイチケン","city":"岡崎市","city_kana":"オカザキシ","town":"日影町","town_kana":"ヒカゲチョウ","prefecture_code":23},"2112":{"zip_code":"4442112","prefecture":"愛知県","prefecture_kana":"アイチケン","city":"岡崎市","city_kana":"オカザキシ","town":"東阿知和町","town_kana":"ヒガシアチワチョウ","prefecture_code":23},"0903":{"zip_code":"4440903","prefecture":"愛知県","prefecture_kana":"アイチケン","city":"岡崎市","city_kana":"オカザキシ","town":"東大友町","town_kana":"ヒガシオオドモチョウ","prefecture_code":23},"3602":{"zip_code":"4443602","prefecture":"愛知県","prefecture_kana":"アイチケン","city":"岡崎市","city_kana":"オカザキシ","town":"東河原町","town_kana":"ヒガシカワハラチョウ","prefecture_code":23},"2145":{"zip_code":"4442145","prefecture":"愛知県","prefecture_kana":"アイチケン","city":"岡崎市","city_kana":"オカザキシ","town":"東蔵前","town_kana":"ヒガシクラマエ","prefecture_code":23},"2146":{"zip_code":"4442146","prefecture":"愛知県","prefecture_kana":"アイチケン","city":"岡崎市","city_kana":"オカザキシ","town":"東蔵前町","town_kana":"ヒガシクラマエチョウ","prefecture_code":23},"0074":{"zip_code":"4440074","prefecture":"愛知県","prefecture_kana":"アイチケン","city":"岡崎市","city_kana":"オカザキシ","town":"東能見町","town_kana":"ヒガシノミチョウ","prefecture_code":23},"0945":{"zip_code":"4440945","prefecture":"愛知県","prefecture_kana":"アイチケン","city":"岡崎市","city_kana":"オカザキシ","town":"東本郷町","town_kana":"ヒガシホンゴウチョウ","prefecture_code":23},"0934":{"zip_code":"4440934","prefecture":"愛知県","prefecture_kana":"アイチケン","city":"岡崎市","city_kana":"オカザキシ","town":"東牧内町","town_kana":"ヒガシマキウチチョウ","prefecture_code":23},"0863":{"zip_code":"4440863","prefecture":"愛知県","prefecture_kana":"アイチケン","city":"岡崎市","city_kana":"オカザキシ","town":"東明大寺町","town_kana":"ヒガシミョウダイジチョウ","prefecture_code":23},"0917":{"zip_code":"4440917","prefecture":"愛知県","prefecture_kana":"アイチケン","city":"岡崎市","city_kana":"オカザキシ","town":"日名西町","town_kana":"ヒナニシマチ","prefecture_code":23},"0915":{"zip_code":"4440915","prefecture":"愛知県","prefecture_kana":"アイチケン","city":"岡崎市","city_kana":"オカザキシ","town":"日名南町","town_kana":"ヒナミナミマチ","prefecture_code":23},"0911":{"zip_code":"4440911","prefecture":"愛知県","prefecture_kana":"アイチケン","city":"岡崎市","city_kana":"オカザキシ","town":"日名北町","town_kana":"ヒナキタマチ","prefecture_code":23},"0918":{"zip_code":"4440918","prefecture":"愛知県","prefecture_kana":"アイチケン","city":"岡崎市","city_kana":"オカザキシ","town":"日名中町","town_kana":"ヒナナカマチ","prefecture_code":23},"0916":{"zip_code":"4440916","prefecture":"愛知県","prefecture_kana":"アイチケン","city":"岡崎市","city_kana":"オカザキシ","town":"日名本町","town_kana":"ヒナホンマチ","prefecture_code":23},"0066":{"zip_code":"4440066","prefecture":"愛知県","prefecture_kana":"アイチケン","city":"岡崎市","city_kana":"オカザキシ","town":"広幡町","town_kana":"ヒロハタチョウ","prefecture_code":23},"0862":{"zip_code":"4440862","prefecture":"愛知県","prefecture_kana":"アイチケン","city":"岡崎市","city_kana":"オカザキシ","town":"吹矢町","town_kana":"フキヤチョウ","prefecture_code":23},"0825":{"zip_code":"4440825","prefecture":"愛知県","prefecture_kana":"アイチケン","city":"岡崎市","city_kana":"オカザキシ","town":"福岡町","town_kana":"フクオカチョウ","prefecture_code":23},"0233":{"zip_code":"4440233","prefecture":"愛知県","prefecture_kana":"アイチケン","city":"岡崎市","city_kana":"オカザキシ","town":"福桶町","town_kana":"フクオケチョウ","prefecture_code":23},"0056":{"zip_code":"4440056","prefecture":"愛知県","prefecture_kana":"アイチケン","city":"岡崎市","city_kana":"オカザキシ","town":"福寿町","town_kana":"フクジュチョウ","prefecture_code":23},"3527":{"zip_code":"4443527","prefecture":"愛知県","prefecture_kana":"アイチケン","city":"岡崎市","city_kana":"オカザキシ","town":"藤川荒古","town_kana":"フジカワアラコ","prefecture_code":23},"3522":{"zip_code":"4443522","prefecture":"愛知県","prefecture_kana":"アイチケン","city":"岡崎市","city_kana":"オカザキシ","town":"藤川台","town_kana":"フジカワダイ","prefecture_code":23},"3523":{"zip_code":"4443523","prefecture":"愛知県","prefecture_kana":"アイチケン","city":"岡崎市","city_kana":"オカザキシ","town":"藤川町","town_kana":"フジカワチョウ","prefecture_code":23},"0817":{"zip_code":"4440817","prefecture":"愛知県","prefecture_kana":"アイチケン","city":"岡崎市","city_kana":"オカザキシ","town":"不吹町","town_kana":"フブキチョウ","prefecture_code":23},"0902":{"zip_code":"4440902","prefecture":"愛知県","prefecture_kana":"アイチケン","city":"岡崎市","city_kana":"オカザキシ","town":"舳越町","town_kana":"ヘゴシチョウ","prefecture_code":23},"0021":{"zip_code":"4440021","prefecture":"愛知県","prefecture_kana":"アイチケン","city":"岡崎市","city_kana":"オカザキシ","town":"蓬莱町","town_kana":"ホウライチョウ","prefecture_code":23},"2149":{"zip_code":"4442149","prefecture":"愛知県","prefecture_kana":"アイチケン","city":"岡崎市","city_kana":"オカザキシ","town":"細川町","town_kana":"ホソカワチョウ","prefecture_code":23},"3615":{"zip_code":"4443615","prefecture":"愛知県","prefecture_kana":"アイチケン","city":"岡崎市","city_kana":"オカザキシ","town":"細光町","town_kana":"ホソミツチョウ","prefecture_code":23},"3442":{"zip_code":"4443442","prefecture":"愛知県","prefecture_kana":"アイチケン","city":"岡崎市","city_kana":"オカザキシ","town":"保久町","town_kana":"ホッキュウチョウ","prefecture_code":23},"0206":{"zip_code":"4440206","prefecture":"愛知県","prefecture_kana":"アイチケン","city":"岡崎市","city_kana":"オカザキシ","town":"法性寺町","town_kana":"ホツショウジチョウ","prefecture_code":23},"0004":{"zip_code":"4440004","prefecture":"愛知県","prefecture_kana":"アイチケン","city":"岡崎市","city_kana":"オカザキシ","town":"保母町","town_kana":"ホボチョウ","prefecture_code":23},"0008":{"zip_code":"4440008","prefecture":"愛知県","prefecture_kana":"アイチケン","city":"岡崎市","city_kana":"オカザキシ","town":"洞町","town_kana":"ホラチョウ","prefecture_code":23},"0051":{"zip_code":"4440051","prefecture":"愛知県","prefecture_kana":"アイチケン","city":"岡崎市","city_kana":"オカザキシ","town":"本町通","town_kana":"ホンマチドオリ","prefecture_code":23},"3511":{"zip_code":"4443511","prefecture":"愛知県","prefecture_kana":"アイチケン","city":"岡崎市","city_kana":"オカザキシ","town":"舞木町","town_kana":"マイギチョウ","prefecture_code":23},"3624":{"zip_code":"4443624","prefecture":"愛知県","prefecture_kana":"アイチケン","city":"岡崎市","city_kana":"オカザキシ","town":"牧平町","town_kana":"マキヒラチョウ","prefecture_code":23},"0205":{"zip_code":"4440205","prefecture":"愛知県","prefecture_kana":"アイチケン","city":"岡崎市","city_kana":"オカザキシ","town":"牧御堂町","town_kana":"マキミドウチョウ","prefecture_code":23},"2113":{"zip_code":"4442113","prefecture":"愛知県","prefecture_kana":"アイチケン","city":"岡崎市","city_kana":"オカザキシ","town":"松橋町","town_kana":"マツハシチョウ","prefecture_code":23},"0062":{"zip_code":"4440062","prefecture":"愛知県","prefecture_kana":"アイチケン","city":"岡崎市","city_kana":"オカザキシ","town":"松本町","town_kana":"マツモトチョウ","prefecture_code":23},"0006":{"zip_code":"4440006","prefecture":"愛知県","prefecture_kana":"アイチケン","city":"岡崎市","city_kana":"オカザキシ","town":"丸山町","town_kana":"マルヤマチョウ","prefecture_code":23},"0801":{"zip_code":"4440801","prefecture":"愛知県","prefecture_kana":"アイチケン","city":"岡崎市","city_kana":"オカザキシ","town":"美合新町","town_kana":"ミアイシンマチ","prefecture_code":23},"0807":{"zip_code":"4440807","prefecture":"愛知県","prefecture_kana":"アイチケン","city":"岡崎市","city_kana":"オカザキシ","town":"美合西町","town_kana":"ミアイニシマチ","prefecture_code":23},"0802":{"zip_code":"4440802","prefecture":"愛知県","prefecture_kana":"アイチケン","city":"岡崎市","city_kana":"オカザキシ","town":"美合町","town_kana":"ミアイチョウ","prefecture_code":23},"0803":{"zip_code":"4440803","prefecture":"愛知県","prefecture_kana":"アイチケン","city":"岡崎市","city_kana":"オカザキシ","town":"美合町入込","town_kana":"ミアイチョウイリコミ","prefecture_code":23},"0804":{"zip_code":"4440804","prefecture":"愛知県","prefecture_kana":"アイチケン","city":"岡崎市","city_kana":"オカザキシ","town":"美合町生田","town_kana":"ミアイチョウショウダ","prefecture_code":23},"0805":{"zip_code":"4440805","prefecture":"愛知県","prefecture_kana":"アイチケン","city":"岡崎市","city_kana":"オカザキシ","town":"美合町地蔵野","town_kana":"ミアイチョウジゾウノ","prefecture_code":23},"0039":{"zip_code":"4440039","prefecture":"愛知県","prefecture_kana":"アイチケン","city":"岡崎市","city_kana":"オカザキシ","town":"花崗町","town_kana":"ミカゲチョウ","prefecture_code":23},"0853":{"zip_code":"4440853","prefecture":"愛知県","prefecture_kana":"アイチケン","city":"岡崎市","city_kana":"オカザキシ","town":"三崎町","town_kana":"ミサキチョウ","prefecture_code":23},"0806":{"zip_code":"4440806","prefecture":"愛知県","prefecture_kana":"アイチケン","city":"岡崎市","city_kana":"オカザキシ","town":"緑丘","town_kana":"ミドリガオカ","prefecture_code":23},"3444":{"zip_code":"4443444","prefecture":"愛知県","prefecture_kana":"アイチケン","city":"岡崎市","city_kana":"オカザキシ","town":"南大須町","town_kana":"ミナミオオスチョウ","prefecture_code":23},"0852":{"zip_code":"4440852","prefecture":"愛知県","prefecture_kana":"アイチケン","city":"岡崎市","city_kana":"オカザキシ","town":"南明大寺町","town_kana":"ミナミミョウダイジチョウ","prefecture_code":23},"3526":{"zip_code":"4443526","prefecture":"愛知県","prefecture_kana":"アイチケン","city":"岡崎市","city_kana":"オカザキシ","town":"蓑川新町","town_kana":"ミノカワシンマチ","prefecture_code":23},"3525":{"zip_code":"4443525","prefecture":"愛知県","prefecture_kana":"アイチケン","city":"岡崎市","city_kana":"オカザキシ","town":"蓑川町","town_kana":"ミノガワチョウ","prefecture_code":23},"2109":{"zip_code":"4442109","prefecture":"愛知県","prefecture_kana":"アイチケン","city":"岡崎市","city_kana":"オカザキシ","town":"宮石町","town_kana":"ミヤイシチョウ","prefecture_code":23},"3611":{"zip_code":"4443611","prefecture":"愛知県","prefecture_kana":"アイチケン","city":"岡崎市","city_kana":"オカザキシ","town":"宮崎町","town_kana":"ミヤザキチョウ","prefecture_code":23},"0202":{"zip_code":"4440202","prefecture":"愛知県","prefecture_kana":"アイチケン","city":"岡崎市","city_kana":"オカザキシ","town":"宮地町","town_kana":"ミヤジチョウ","prefecture_code":23},"3612":{"zip_code":"4443612","prefecture":"愛知県","prefecture_kana":"アイチケン","city":"岡崎市","city_kana":"オカザキシ","town":"明見町","town_kana":"ミョウケンチョウ","prefecture_code":23},"0869":{"zip_code":"4440869","prefecture":"愛知県","prefecture_kana":"アイチケン","city":"岡崎市","city_kana":"オカザキシ","town":"明大寺町出口","town_kana":"ミョウダイジチョウデグチ","prefecture_code":23},"0866":{"zip_code":"4440866","prefecture":"愛知県","prefecture_kana":"アイチケン","city":"岡崎市","city_kana":"オカザキシ","town":"明大寺町仲ケ入","town_kana":"ミョウダイジチョウナカガイリ","prefecture_code":23},"0867":{"zip_code":"4440867","prefecture":"愛知県","prefecture_kana":"アイチケン","city":"岡崎市","city_kana":"オカザキシ","town":"明大寺町西郷中","town_kana":"ミョウダイジチョウニシゴウナカ","prefecture_code":23},"0868":{"zip_code":"4440868","prefecture":"愛知県","prefecture_kana":"アイチケン","city":"岡崎市","city_kana":"オカザキシ","town":"明大寺町馬場東","town_kana":"ミョウダイジチョウババヒガシ","prefecture_code":23},"0864":{"zip_code":"4440864","prefecture":"愛知県","prefecture_kana":"アイチケン","city":"岡崎市","city_kana":"オカザキシ","town":"明大寺町","town_kana":"ミョウダイジチョウ","prefecture_code":23},"0865":{"zip_code":"4440865","prefecture":"愛知県","prefecture_kana":"アイチケン","city":"岡崎市","city_kana":"オカザキシ","town":"明大寺町大圦","town_kana":"ミョウダイジチョウオオイリ","prefecture_code":23},"0860":{"zip_code":"4440860","prefecture":"愛知県","prefecture_kana":"アイチケン","city":"岡崎市","city_kana":"オカザキシ","town":"明大寺本町","town_kana":"ミョウダイジホンマチ","prefecture_code":23},"0848":{"zip_code":"4440848","prefecture":"愛知県","prefecture_kana":"アイチケン","city":"岡崎市","city_kana":"オカザキシ","town":"向山町","town_kana":"ムカイヤマチョウ","prefecture_code":23},"0856":{"zip_code":"4440856","prefecture":"愛知県","prefecture_kana":"アイチケン","city":"岡崎市","city_kana":"オカザキシ","town":"六名","town_kana":"ムツナ","prefecture_code":23},"0846":{"zip_code":"4440846","prefecture":"愛知県","prefecture_kana":"アイチケン","city":"岡崎市","city_kana":"オカザキシ","town":"六名新町","town_kana":"ムツナシンマチ","prefecture_code":23},"0847":{"zip_code":"4440847","prefecture":"愛知県","prefecture_kana":"アイチケン","city":"岡崎市","city_kana":"オカザキシ","town":"六名東町","town_kana":"ムツナヒガシマチ","prefecture_code":23},"0854":{"zip_code":"4440854","prefecture":"愛知県","prefecture_kana":"アイチケン","city":"岡崎市","city_kana":"オカザキシ","town":"六名本町","town_kana":"ムツナホンマチ","prefecture_code":23},"0845":{"zip_code":"4440845","prefecture":"愛知県","prefecture_kana":"アイチケン","city":"岡崎市","city_kana":"オカザキシ","town":"六名南","town_kana":"ムツナミナミ","prefecture_code":23},"0857":{"zip_code":"4440857","prefecture":"愛知県","prefecture_kana":"アイチケン","city":"岡崎市","city_kana":"オカザキシ","town":"六名町","town_kana":"ムツナチョウ","prefecture_code":23},"0016":{"zip_code":"4440016","prefecture":"愛知県","prefecture_kana":"アイチケン","city":"岡崎市","city_kana":"オカザキシ","town":"元欠町","town_kana":"モトカケマチ","prefecture_code":23},"3508":{"zip_code":"4443508","prefecture":"愛知県","prefecture_kana":"アイチケン","city":"岡崎市","city_kana":"オカザキシ","town":"本宿茜","town_kana":"モトジュクアカネ","prefecture_code":23},"3507":{"zip_code":"4443507","prefecture":"愛知県","prefecture_kana":"アイチケン","city":"岡崎市","city_kana":"オカザキシ","town":"本宿台","town_kana":"モトジュクダイ","prefecture_code":23},"3505":{"zip_code":"4443505","prefecture":"愛知県","prefecture_kana":"アイチケン","city":"岡崎市","city_kana":"オカザキシ","town":"本宿町","town_kana":"モトジュクチョウ","prefecture_code":23},"3506":{"zip_code":"4443506","prefecture":"愛知県","prefecture_kana":"アイチケン","city":"岡崎市","city_kana":"オカザキシ","town":"本宿西","town_kana":"モトジュクニシ","prefecture_code":23},"0063":{"zip_code":"4440063","prefecture":"愛知県","prefecture_kana":"アイチケン","city":"岡崎市","city_kana":"オカザキシ","town":"元能見町","town_kana":"モトノミチョウ","prefecture_code":23},"0901":{"zip_code":"4440901","prefecture":"愛知県","prefecture_kana":"アイチケン","city":"岡崎市","city_kana":"オカザキシ","town":"森越町","town_kana":"モリコシチョウ","prefecture_code":23},"0032":{"zip_code":"4440032","prefecture":"愛知県","prefecture_kana":"アイチケン","city":"岡崎市","city_kana":"オカザキシ","town":"門前町","town_kana":"モンゼンチョウ","prefecture_code":23},"3168":{"zip_code":"4443168","prefecture":"愛知県","prefecture_kana":"アイチケン","city":"岡崎市","city_kana":"オカザキシ","town":"安戸町","town_kana":"ヤスドチョウ","prefecture_code":23},"2143":{"zip_code":"4442143","prefecture":"愛知県","prefecture_kana":"アイチケン","city":"岡崎市","city_kana":"オカザキシ","town":"八ツ木町","town_kana":"ヤツギチョウ","prefecture_code":23},"0943":{"zip_code":"4440943","prefecture":"愛知県","prefecture_kana":"アイチケン","city":"岡崎市","city_kana":"オカザキシ","town":"矢作町","town_kana":"ヤハギチョウ","prefecture_code":23},"2137":{"zip_code":"4442137","prefecture":"愛知県","prefecture_kana":"アイチケン","city":"岡崎市","city_kana":"オカザキシ","town":"薮田","town_kana":"ヤブタ","prefecture_code":23},"3516":{"zip_code":"4443516","prefecture":"愛知県","prefecture_kana":"アイチケン","city":"岡崎市","city_kana":"オカザキシ","town":"山綱町","town_kana":"ヤマツナチョウ","prefecture_code":23},"3513":{"zip_code":"4443513","prefecture":"愛知県","prefecture_kana":"アイチケン","city":"岡崎市","city_kana":"オカザキシ","town":"山綱町","town_kana":"ヤマツナチョウ","prefecture_code":23},"0037":{"zip_code":"4440037","prefecture":"愛知県","prefecture_kana":"アイチケン","city":"岡崎市","city_kana":"オカザキシ","town":"祐金町","town_kana":"ユウキンチョウ","prefecture_code":23},"3167":{"zip_code":"4443167","prefecture":"愛知県","prefecture_kana":"アイチケン","city":"岡崎市","city_kana":"オカザキシ","town":"米河内町","town_kana":"ヨナゴウチチョウ","prefecture_code":23},"3333":{"zip_code":"4443333","prefecture":"愛知県","prefecture_kana":"アイチケン","city":"岡崎市","city_kana":"オカザキシ","town":"蓬生町","town_kana":"ヨモギュウチョウ","prefecture_code":23},"3524":{"zip_code":"4443524","prefecture":"愛知県","prefecture_kana":"アイチケン","city":"岡崎市","city_kana":"オカザキシ","town":"竜泉寺町","town_kana":"リュウセンジチョウ","prefecture_code":23},"0023":{"zip_code":"4440023","prefecture":"愛知県","prefecture_kana":"アイチケン","city":"岡崎市","city_kana":"オカザキシ","town":"両町","town_kana":"リョウマチ","prefecture_code":23},"0046":{"zip_code":"4440046","prefecture":"愛知県","prefecture_kana":"アイチケン","city":"岡崎市","city_kana":"オカザキシ","town":"連尺通","town_kana":"レンジャクドオリ","prefecture_code":23},"0042":{"zip_code":"4440042","prefecture":"愛知県","prefecture_kana":"アイチケン","city":"岡崎市","city_kana":"オカザキシ","town":"六地蔵町","town_kana":"ロクジゾウチョウ","prefecture_code":23},"0072":{"zip_code":"4440072","prefecture":"愛知県","prefecture_kana":"アイチケン","city":"岡崎市","city_kana":"オカザキシ","town":"六供町","town_kana":"ロックチョウ","prefecture_code":23},"0048":{"zip_code":"4440048","prefecture":"愛知県","prefecture_kana":"アイチケン","city":"岡崎市","city_kana":"オカザキシ","town":"六供本町","town_kana":"ロックホンマチ","prefecture_code":23},"0826":{"zip_code":"4440826","prefecture":"愛知県","prefecture_kana":"アイチケン","city":"岡崎市","city_kana":"オカザキシ","town":"若松町","town_kana":"ワカマツチョウ","prefecture_code":23},"0822":{"zip_code":"4440822","prefecture":"愛知県","prefecture_kana":"アイチケン","city":"岡崎市","city_kana":"オカザキシ","town":"若松東","town_kana":"ワカマツヒガシ","prefecture_code":23},"0014":{"zip_code":"4440014","prefecture":"愛知県","prefecture_kana":"アイチケン","city":"岡崎市","city_kana":"オカザキシ","town":"若宮町","town_kana":"ワカミヤチョウ","prefecture_code":23},"0933":{"zip_code":"4440933","prefecture":"愛知県","prefecture_kana":"アイチケン","city":"岡崎市","city_kana":"オカザキシ","town":"渡町","town_kana":"ワタリチョウ","prefecture_code":23},"2103":{"zip_code":"4442103","prefecture":"愛知県","prefecture_kana":"アイチケン","city":"岡崎市","city_kana":"オカザキシ","town":"渡通津町","town_kana":"ワツヅチョウ","prefecture_code":23},"2832":{"zip_code":"4442832","prefecture":"愛知県","prefecture_kana":"アイチケン","city":"豊田市","city_kana":"トヨタシ","town":"浅谷町","town_kana":"アザカイチョウ","prefecture_code":23},"2843":{"zip_code":"4442843","prefecture":"愛知県","prefecture_kana":"アイチケン","city":"豊田市","city_kana":"トヨタシ","town":"旭八幡町","town_kana":"アサヒヤワタチョウ","prefecture_code":23},"2423":{"zip_code":"4442423","prefecture":"愛知県","prefecture_kana":"アイチケン","city":"豊田市","city_kana":"トヨタシ","town":"安実京町","town_kana":"アジキョウチョウ","prefecture_code":23},"2817":{"zip_code":"4442817","prefecture":"愛知県","prefecture_kana":"アイチケン","city":"豊田市","city_kana":"トヨタシ","town":"明賀町","town_kana":"アスガチョウ","prefecture_code":23},"2601":{"zip_code":"4442601","prefecture":"愛知県","prefecture_kana":"アイチケン","city":"豊田市","city_kana":"トヨタシ","town":"明川町","town_kana":"アスガワチョウ","prefecture_code":23},"2513":{"zip_code":"4442513","prefecture":"愛知県","prefecture_kana":"アイチケン","city":"豊田市","city_kana":"トヨタシ","town":"足助白山町","town_kana":"アスケシラヤマチョウ","prefecture_code":23},"2424":{"zip_code":"4442424","prefecture":"愛知県","prefecture_kana":"アイチケン","city":"豊田市","city_kana":"トヨタシ","town":"足助町","town_kana":"アスケチョウ","prefecture_code":23},"3202":{"zip_code":"4443202","prefecture":"愛知県","prefecture_kana":"アイチケン","city":"豊田市","city_kana":"トヨタシ","town":"阿蔵町","town_kana":"アゾウチョウ","prefecture_code":23},"2418":{"zip_code":"4442418","prefecture":"愛知県","prefecture_kana":"アイチケン","city":"豊田市","city_kana":"トヨタシ","town":"綾渡町","town_kana":"アヤドチョウ","prefecture_code":23},"3216":{"zip_code":"4443216","prefecture":"愛知県","prefecture_kana":"アイチケン","city":"豊田市","city_kana":"トヨタシ","town":"蘭町","town_kana":"アララギチョウ","prefecture_code":23},"2827":{"zip_code":"4442827","prefecture":"愛知県","prefecture_kana":"アイチケン","city":"豊田市","city_kana":"トヨタシ","town":"有間町","town_kana":"アンマチョウ","prefecture_code":23},"2807":{"zip_code":"4442807","prefecture":"愛知県","prefecture_kana":"アイチケン","city":"豊田市","city_kana":"トヨタシ","town":"伊熊町","town_kana":"イクマチョウ","prefecture_code":23},"2824":{"zip_code":"4442824","prefecture":"愛知県","prefecture_kana":"アイチケン","city":"豊田市","city_kana":"トヨタシ","town":"池島町","town_kana":"イケジマチョウ","prefecture_code":23},"2837":{"zip_code":"4442837","prefecture":"愛知県","prefecture_kana":"アイチケン","city":"豊田市","city_kana":"トヨタシ","town":"一色町","town_kana":"イシキチョウ","prefecture_code":23},"2825":{"zip_code":"4442825","prefecture":"愛知県","prefecture_kana":"アイチケン","city":"豊田市","city_kana":"トヨタシ","town":"市平町","town_kana":"イチダイラチョウ","prefecture_code":23},"2354":{"zip_code":"4442354","prefecture":"愛知県","prefecture_kana":"アイチケン","city":"豊田市","city_kana":"トヨタシ","town":"井ノ口町","town_kana":"イノクチチョウ","prefecture_code":23},"2225":{"zip_code":"4442225","prefecture":"愛知県","prefecture_kana":"アイチケン","city":"豊田市","city_kana":"トヨタシ","town":"岩倉町","town_kana":"イワクラチョウ","prefecture_code":23},"2331":{"zip_code":"4442331","prefecture":"愛知県","prefecture_kana":"アイチケン","city":"豊田市","city_kana":"トヨタシ","town":"岩谷町","town_kana":"イワヤチョウ","prefecture_code":23},"2204":{"zip_code":"4442204","prefecture":"愛知県","prefecture_kana":"アイチケン","city":"豊田市","city_kana":"トヨタシ","town":"鵜ケ瀬町","town_kana":"ウガセチョウ","prefecture_code":23},"2801":{"zip_code":"4442801","prefecture":"愛知県","prefecture_kana":"アイチケン","city":"豊田市","city_kana":"トヨタシ","town":"牛地町","town_kana":"ウシジチョウ","prefecture_code":23},"2416":{"zip_code":"4442416","prefecture":"愛知県","prefecture_kana":"アイチケン","city":"豊田市","city_kana":"トヨタシ","town":"有洞町","town_kana":"ウトウチョウ","prefecture_code":23},"2604":{"zip_code":"4442604","prefecture":"愛知県","prefecture_kana":"アイチケン","city":"豊田市","city_kana":"トヨタシ","town":"上八木町","town_kana":"ウバヤギチョウ","prefecture_code":23},"2406":{"zip_code":"4442406","prefecture":"愛知県","prefecture_kana":"アイチケン","city":"豊田市","city_kana":"トヨタシ","town":"漆畑町","town_kana":"ウルシバタチョウ","prefecture_code":23},"3203":{"zip_code":"4443203","prefecture":"愛知県","prefecture_kana":"アイチケン","city":"豊田市","city_kana":"トヨタシ","town":"宇連野町","town_kana":"ウレノチョウ","prefecture_code":23},"2206":{"zip_code":"4442206","prefecture":"愛知県","prefecture_kana":"アイチケン","city":"豊田市","city_kana":"トヨタシ","town":"王滝町","town_kana":"オウタキチョウ","prefecture_code":23},"2501":{"zip_code":"4442501","prefecture":"愛知県","prefecture_kana":"アイチケン","city":"豊田市","city_kana":"トヨタシ","town":"大井町","town_kana":"オオイチョウ","prefecture_code":23},"2217":{"zip_code":"4442217","prefecture":"愛知県","prefecture_kana":"アイチケン","city":"豊田市","city_kana":"トヨタシ","town":"大内町","town_kana":"オオウチチョウ","prefecture_code":23},"2525":{"zip_code":"4442525","prefecture":"愛知県","prefecture_kana":"アイチケン","city":"豊田市","city_kana":"トヨタシ","town":"大河原町","town_kana":"オオカワラチョウ","prefecture_code":23},"2511":{"zip_code":"4442511","prefecture":"愛知県","prefecture_kana":"アイチケン","city":"豊田市","city_kana":"トヨタシ","town":"大蔵町","town_kana":"オオクラチョウ","prefecture_code":23},"3207":{"zip_code":"4443207","prefecture":"愛知県","prefecture_kana":"アイチケン","city":"豊田市","city_kana":"トヨタシ","town":"大桑町","town_kana":"オオクワチョウ","prefecture_code":23},"2405":{"zip_code":"4442405","prefecture":"愛知県","prefecture_kana":"アイチケン","city":"豊田市","city_kana":"トヨタシ","town":"大蔵連町","town_kana":"オオゾウレンチョウ","prefecture_code":23},"2603":{"zip_code":"4442603","prefecture":"愛知県","prefecture_kana":"アイチケン","city":"豊田市","city_kana":"トヨタシ","town":"大多賀町","town_kana":"オオタガチョウ","prefecture_code":23},"2811":{"zip_code":"4442811","prefecture":"愛知県","prefecture_kana":"アイチケン","city":"豊田市","city_kana":"トヨタシ","town":"太田町","town_kana":"オオダチョウ","prefecture_code":23},"2515":{"zip_code":"4442515","prefecture":"愛知県","prefecture_kana":"アイチケン","city":"豊田市","city_kana":"トヨタシ","town":"大塚町","town_kana":"オオツカチョウ","prefecture_code":23},"2822":{"zip_code":"4442822","prefecture":"愛知県","prefecture_kana":"アイチケン","city":"豊田市","city_kana":"トヨタシ","town":"大坪町","town_kana":"オオツボチョウ","prefecture_code":23},"3242":{"zip_code":"4443242","prefecture":"愛知県","prefecture_kana":"アイチケン","city":"豊田市","city_kana":"トヨタシ","town":"大沼町","town_kana":"オオヌマチョウ","prefecture_code":23},"2812":{"zip_code":"4442812","prefecture":"愛知県","prefecture_kana":"アイチケン","city":"豊田市","city_kana":"トヨタシ","town":"押井町","town_kana":"オシイチョウ","prefecture_code":23},"2809":{"zip_code":"4442809","prefecture":"愛知県","prefecture_kana":"アイチケン","city":"豊田市","city_kana":"トヨタシ","town":"小滝野町","town_kana":"オタギノチョウ","prefecture_code":23},"2846":{"zip_code":"4442846","prefecture":"愛知県","prefecture_kana":"アイチケン","city":"豊田市","city_kana":"トヨタシ","town":"小渡町","town_kana":"オドチョウ","prefecture_code":23},"2844":{"zip_code":"4442844","prefecture":"愛知県","prefecture_kana":"アイチケン","city":"豊田市","city_kana":"トヨタシ","town":"伯母沢町","town_kana":"オバザワチョウ","prefecture_code":23},"2334":{"zip_code":"4442334","prefecture":"愛知県","prefecture_kana":"アイチケン","city":"豊田市","city_kana":"トヨタシ","town":"国閑町","town_kana":"カイゴチョウ","prefecture_code":23},"2352":{"zip_code":"4442352","prefecture":"愛知県","prefecture_kana":"アイチケン","city":"豊田市","city_kana":"トヨタシ","town":"篭林町","town_kana":"カゴハヤシチョウ","prefecture_code":23},"2813":{"zip_code":"4442813","prefecture":"愛知県","prefecture_kana":"アイチケン","city":"豊田市","city_kana":"トヨタシ","town":"加塩町","town_kana":"カシオチョウ","prefecture_code":23},"2214":{"zip_code":"4442214","prefecture":"愛知県","prefecture_kana":"アイチケン","city":"豊田市","city_kana":"トヨタシ","town":"桂野町","town_kana":"カツラノチョウ","prefecture_code":23},"3223":{"zip_code":"4443223","prefecture":"愛知県","prefecture_kana":"アイチケン","city":"豊田市","city_kana":"トヨタシ","town":"蕪木町","town_kana":"カブラキチョウ","prefecture_code":23},"2836":{"zip_code":"4442836","prefecture":"愛知県","prefecture_kana":"アイチケン","city":"豊田市","city_kana":"トヨタシ","town":"上切町","town_kana":"カミギリチョウ","prefecture_code":23},"2531":{"zip_code":"4442531","prefecture":"愛知県","prefecture_kana":"アイチケン","city":"豊田市","city_kana":"トヨタシ","town":"上切山町","town_kana":"カミキリヤマチョウ","prefecture_code":23},"2314":{"zip_code":"4442314","prefecture":"愛知県","prefecture_kana":"アイチケン","city":"豊田市","city_kana":"トヨタシ","town":"上小田町","town_kana":"カミコダチョウ","prefecture_code":23},"2337":{"zip_code":"4442337","prefecture":"愛知県","prefecture_kana":"アイチケン","city":"豊田市","city_kana":"トヨタシ","town":"上佐切町","town_kana":"カミサギリチョウ","prefecture_code":23},"2835":{"zip_code":"4442835","prefecture":"愛知県","prefecture_kana":"アイチケン","city":"豊田市","city_kana":"トヨタシ","town":"上中町","town_kana":"カミナカチョウ","prefecture_code":23},"2335":{"zip_code":"4442335","prefecture":"愛知県","prefecture_kana":"アイチケン","city":"豊田市","city_kana":"トヨタシ","town":"上脇町","town_kana":"カミワキチョウ","prefecture_code":23},"2213":{"zip_code":"4442213","prefecture":"愛知県","prefecture_kana":"アイチケン","city":"豊田市","city_kana":"トヨタシ","town":"加茂川町","town_kana":"カモガワチョウ","prefecture_code":23},"2403":{"zip_code":"4442403","prefecture":"愛知県","prefecture_kana":"アイチケン","city":"豊田市","city_kana":"トヨタシ","town":"川面町","town_kana":"カワオモテチョウ","prefecture_code":23},"3252":{"zip_code":"4443252","prefecture":"愛知県","prefecture_kana":"アイチケン","city":"豊田市","city_kana":"トヨタシ","town":"神殿町","town_kana":"カンドノチョウ","prefecture_code":23},"2502":{"zip_code":"4442502","prefecture":"愛知県","prefecture_kana":"アイチケン","city":"豊田市","city_kana":"トヨタシ","town":"北小田町","town_kana":"キタコダチョウ","prefecture_code":23},"2343":{"zip_code":"4442343","prefecture":"愛知県","prefecture_kana":"アイチケン","city":"豊田市","city_kana":"トヨタシ","town":"霧山町","town_kana":"キリヤマチョウ","prefecture_code":23},"2216":{"zip_code":"4442216","prefecture":"愛知県","prefecture_kana":"アイチケン","city":"豊田市","city_kana":"トヨタシ","town":"九久平町","town_kana":"クギュウダイラチョウ","prefecture_code":23},"2804":{"zip_code":"4442804","prefecture":"愛知県","prefecture_kana":"アイチケン","city":"豊田市","city_kana":"トヨタシ","town":"日下部町","town_kana":"クサカベチョウ","prefecture_code":23},"2326":{"zip_code":"4442326","prefecture":"愛知県","prefecture_kana":"アイチケン","city":"豊田市","city_kana":"トヨタシ","town":"国谷町","town_kana":"クニヤチョウ","prefecture_code":23},"3212":{"zip_code":"4443212","prefecture":"愛知県","prefecture_kana":"アイチケン","city":"豊田市","city_kana":"トヨタシ","town":"黒坂町","town_kana":"クロサカチョウ","prefecture_code":23},"2407":{"zip_code":"4442407","prefecture":"愛知県","prefecture_kana":"アイチケン","city":"豊田市","city_kana":"トヨタシ","town":"桑田和町","town_kana":"クワダワチョウ","prefecture_code":23},"2325":{"zip_code":"4442325","prefecture":"愛知県","prefecture_kana":"アイチケン","city":"豊田市","city_kana":"トヨタシ","town":"桑原田町","town_kana":"クワハラダチョウ","prefecture_code":23},"2221":{"zip_code":"4442221","prefecture":"愛知県","prefecture_kana":"アイチケン","city":"豊田市","city_kana":"トヨタシ","town":"幸海町","town_kana":"コウカイチョウ","prefecture_code":23},"2821":{"zip_code":"4442821","prefecture":"愛知県","prefecture_kana":"アイチケン","city":"豊田市","city_kana":"トヨタシ","town":"小田町","town_kana":"コダチョウ","prefecture_code":23},"2608":{"zip_code":"4442608","prefecture":"愛知県","prefecture_kana":"アイチケン","city":"豊田市","city_kana":"トヨタシ","town":"五反田町","town_kana":"ゴタンダチョウ","prefecture_code":23},"2521":{"zip_code":"4442521","prefecture":"愛知県","prefecture_kana":"アイチケン","city":"豊田市","city_kana":"トヨタシ","town":"小町","town_kana":"コチョウ","prefecture_code":23},"2533":{"zip_code":"4442533","prefecture":"愛知県","prefecture_kana":"アイチケン","city":"豊田市","city_kana":"トヨタシ","town":"小手沢町","town_kana":"コテノサワチョウ","prefecture_code":23},"2805":{"zip_code":"4442805","prefecture":"愛知県","prefecture_kana":"アイチケン","city":"豊田市","city_kana":"トヨタシ","town":"小畑町","town_kana":"コバタチョウ","prefecture_code":23},"3213":{"zip_code":"4443213","prefecture":"愛知県","prefecture_kana":"アイチケン","city":"豊田市","city_kana":"トヨタシ","town":"小松野町","town_kana":"コマツノチョウ","prefecture_code":23},"2201":{"zip_code":"4442201","prefecture":"愛知県","prefecture_kana":"アイチケン","city":"豊田市","city_kana":"トヨタシ","town":"坂上町","town_kana":"サカウエチョウ","prefecture_code":23},"2814":{"zip_code":"4442814","prefecture":"愛知県","prefecture_kana":"アイチケン","city":"豊田市","city_kana":"トヨタシ","town":"榊野町","town_kana":"サカキノチョウ","prefecture_code":23},"2826":{"zip_code":"4442826","prefecture":"愛知県","prefecture_kana":"アイチケン","city":"豊田市","city_kana":"トヨタシ","town":"笹戸町","town_kana":"ササドチョウ","prefecture_code":23},"2226":{"zip_code":"4442226","prefecture":"愛知県","prefecture_kana":"アイチケン","city":"豊田市","city_kana":"トヨタシ","town":"幸穂台","town_kana":"サチホダイ","prefecture_code":23},"2311":{"zip_code":"4442311","prefecture":"愛知県","prefecture_kana":"アイチケン","city":"豊田市","city_kana":"トヨタシ","town":"沢ノ堂町","town_kana":"サワノドウチョウ","prefecture_code":23},"2839":{"zip_code":"4442839","prefecture":"愛知県","prefecture_kana":"アイチケン","city":"豊田市","city_kana":"トヨタシ","town":"三分山町","town_kana":"サンブヤマチョウ","prefecture_code":23},"2516":{"zip_code":"4442516","prefecture":"愛知県","prefecture_kana":"アイチケン","city":"豊田市","city_kana":"トヨタシ","town":"塩ノ沢町","town_kana":"シオノサワチョウ","prefecture_code":23},"2841":{"zip_code":"4442841","prefecture":"愛知県","prefecture_kana":"アイチケン","city":"豊田市","city_kana":"トヨタシ","town":"閑羅瀬町","town_kana":"シズラセチョウ","prefecture_code":23},"2834":{"zip_code":"4442834","prefecture":"愛知県","prefecture_kana":"アイチケン","city":"豊田市","city_kana":"トヨタシ","town":"島崎町","town_kana":"シマサキチョウ","prefecture_code":23},"2833":{"zip_code":"4442833","prefecture":"愛知県","prefecture_kana":"アイチケン","city":"豊田市","city_kana":"トヨタシ","town":"下切町","town_kana":"シモギリチョウ","prefecture_code":23},"2321":{"zip_code":"4442321","prefecture":"愛知県","prefecture_kana":"アイチケン","city":"豊田市","city_kana":"トヨタシ","town":"下国谷町","town_kana":"シモクニヤチョウ","prefecture_code":23},"2336":{"zip_code":"4442336","prefecture":"愛知県","prefecture_kana":"アイチケン","city":"豊田市","city_kana":"トヨタシ","town":"下佐切町","town_kana":"シモサギリチョウ","prefecture_code":23},"2332":{"zip_code":"4442332","prefecture":"愛知県","prefecture_kana":"アイチケン","city":"豊田市","city_kana":"トヨタシ","town":"下平町","town_kana":"シモダイラチョウ","prefecture_code":23},"2838":{"zip_code":"4442838","prefecture":"愛知県","prefecture_kana":"アイチケン","city":"豊田市","city_kana":"トヨタシ","town":"下中町","town_kana":"シモナカチョウ","prefecture_code":23},"3222":{"zip_code":"4443222","prefecture":"愛知県","prefecture_kana":"アイチケン","city":"豊田市","city_kana":"トヨタシ","town":"下山田代町","town_kana":"シモヤマタシロチョウ","prefecture_code":23},"2327":{"zip_code":"4442327","prefecture":"愛知県","prefecture_kana":"アイチケン","city":"豊田市","city_kana":"トヨタシ","town":"白倉町","town_kana":"シラクラチョウ","prefecture_code":23},"2505":{"zip_code":"4442505","prefecture":"愛知県","prefecture_kana":"アイチケン","city":"豊田市","city_kana":"トヨタシ","town":"新盛町","town_kana":"シンモリチョウ","prefecture_code":23},"2816":{"zip_code":"4442816","prefecture":"愛知県","prefecture_kana":"アイチケン","city":"豊田市","city_kana":"トヨタシ","town":"杉本町","town_kana":"スギモトチョウ","prefecture_code":23},"2409":{"zip_code":"4442409","prefecture":"愛知県","prefecture_kana":"アイチケン","city":"豊田市","city_kana":"トヨタシ","town":"菅生町","town_kana":"スゴウチョウ","prefecture_code":23},"2831":{"zip_code":"4442831","prefecture":"愛知県","prefecture_kana":"アイチケン","city":"豊田市","city_kana":"トヨタシ","town":"須渕町","town_kana":"スブチチョウ","prefecture_code":23},"2524":{"zip_code":"4442524","prefecture":"愛知県","prefecture_kana":"アイチケン","city":"豊田市","city_kana":"トヨタシ","town":"摺町","town_kana":"スリチョウ","prefecture_code":23},"2207":{"zip_code":"4442207","prefecture":"愛知県","prefecture_kana":"アイチケン","city":"豊田市","city_kana":"トヨタシ","town":"石楠町","town_kana":"セキナンチョウ","prefecture_code":23},"2606":{"zip_code":"4442606","prefecture":"愛知県","prefecture_kana":"アイチケン","city":"豊田市","city_kana":"トヨタシ","town":"千田町","town_kana":"センダチョウ","prefecture_code":23},"2806":{"zip_code":"4442806","prefecture":"愛知県","prefecture_kana":"アイチケン","city":"豊田市","city_kana":"トヨタシ","town":"惣田町","town_kana":"ソウダチョウ","prefecture_code":23},"3221":{"zip_code":"4443221","prefecture":"愛知県","prefecture_kana":"アイチケン","city":"豊田市","city_kana":"トヨタシ","town":"田折町","town_kana":"タオリチョウ","prefecture_code":23},"3208":{"zip_code":"4443208","prefecture":"愛知県","prefecture_kana":"アイチケン","city":"豊田市","city_kana":"トヨタシ","town":"高野町","town_kana":"タカノチョウ","prefecture_code":23},"2212":{"zip_code":"4442212","prefecture":"愛知県","prefecture_kana":"アイチケン","city":"豊田市","city_kana":"トヨタシ","town":"滝脇町","town_kana":"タキワキチョウ","prefecture_code":23},"2402":{"zip_code":"4442402","prefecture":"愛知県","prefecture_kana":"アイチケン","city":"豊田市","city_kana":"トヨタシ","town":"竜岡町","town_kana":"タツオカチョウ","prefecture_code":23},"2802":{"zip_code":"4442802","prefecture":"愛知県","prefecture_kana":"アイチケン","city":"豊田市","city_kana":"トヨタシ","town":"田津原町","town_kana":"タツハラチョウ","prefecture_code":23},"3262":{"zip_code":"4443262","prefecture":"愛知県","prefecture_kana":"アイチケン","city":"豊田市","city_kana":"トヨタシ","town":"立岩町","town_kana":"タテイワチョウ","prefecture_code":23},"3265":{"zip_code":"4443265","prefecture":"愛知県","prefecture_kana":"アイチケン","city":"豊田市","city_kana":"トヨタシ","town":"田平沢町","town_kana":"タヒラザワチョウ","prefecture_code":23},"2353":{"zip_code":"4442353","prefecture":"愛知県","prefecture_kana":"アイチケン","city":"豊田市","city_kana":"トヨタシ","town":"田振町","town_kana":"タブリチョウ","prefecture_code":23},"2605":{"zip_code":"4442605","prefecture":"愛知県","prefecture_kana":"アイチケン","city":"豊田市","city_kana":"トヨタシ","town":"玉野町","town_kana":"タマノチョウ","prefecture_code":23},"2355":{"zip_code":"4442355","prefecture":"愛知県","prefecture_kana":"アイチケン","city":"豊田市","city_kana":"トヨタシ","town":"近岡町","town_kana":"チカオカチョウ","prefecture_code":23},"2414":{"zip_code":"4442414","prefecture":"愛知県","prefecture_kana":"アイチケン","city":"豊田市","city_kana":"トヨタシ","town":"葛沢町","town_kana":"ツヅラサワチョウ","prefecture_code":23},"2526":{"zip_code":"4442526","prefecture":"愛知県","prefecture_kana":"アイチケン","city":"豊田市","city_kana":"トヨタシ","town":"葛町","town_kana":"ツヅラチョウ","prefecture_code":23},"2419":{"zip_code":"4442419","prefecture":"愛知県","prefecture_kana":"アイチケン","city":"豊田市","city_kana":"トヨタシ","town":"椿立町","town_kana":"ツバキダチチョウ","prefecture_code":23},"2803":{"zip_code":"4442803","prefecture":"愛知県","prefecture_kana":"アイチケン","city":"豊田市","city_kana":"トヨタシ","town":"坪崎町","town_kana":"ツボサキチョウ","prefecture_code":23},"2847":{"zip_code":"4442847","prefecture":"愛知県","prefecture_kana":"アイチケン","city":"豊田市","city_kana":"トヨタシ","town":"時瀬町","town_kana":"トキゼチョウ","prefecture_code":23},"3264":{"zip_code":"4443264","prefecture":"愛知県","prefecture_kana":"アイチケン","city":"豊田市","city_kana":"トヨタシ","town":"栃立町","town_kana":"トチダチチョウ","prefecture_code":23},"2514":{"zip_code":"4442514","prefecture":"愛知県","prefecture_kana":"アイチケン","city":"豊田市","city_kana":"トヨタシ","town":"栃ノ沢町","town_kana":"トチノサワチョウ","prefecture_code":23},"2324":{"zip_code":"4442324","prefecture":"愛知県","prefecture_kana":"アイチケン","city":"豊田市","city_kana":"トヨタシ","town":"栃本町","town_kana":"トチモトチョウ","prefecture_code":23},"2302":{"zip_code":"4442302","prefecture":"愛知県","prefecture_kana":"アイチケン","city":"豊田市","city_kana":"トヨタシ","town":"戸中町","town_kana":"トチュウチョウ","prefecture_code":23},"2510":{"zip_code":"4442510","prefecture":"愛知県","prefecture_kana":"アイチケン","city":"豊田市","city_kana":"トヨタシ","town":"富岡町","town_kana":"トミオカチョウ","prefecture_code":23},"2224":{"zip_code":"4442224","prefecture":"愛知県","prefecture_kana":"アイチケン","city":"豊田市","city_kana":"トヨタシ","town":"巴町","town_kana":"トモエチョウ","prefecture_code":23},"2203":{"zip_code":"4442203","prefecture":"愛知県","prefecture_kana":"アイチケン","city":"豊田市","city_kana":"トヨタシ","town":"豊松町","town_kana":"トヨマツチョウ","prefecture_code":23},"2215":{"zip_code":"4442215","prefecture":"愛知県","prefecture_kana":"アイチケン","city":"豊田市","city_kana":"トヨタシ","town":"中垣内町","town_kana":"ナカガイトチョウ","prefecture_code":23},"2517":{"zip_code":"4442517","prefecture":"愛知県","prefecture_kana":"アイチケン","city":"豊田市","city_kana":"トヨタシ","town":"中立町","town_kana":"ナカダチチョウ","prefecture_code":23},"2504":{"zip_code":"4442504","prefecture":"愛知県","prefecture_kana":"アイチケン","city":"豊田市","city_kana":"トヨタシ","town":"永野町","town_kana":"ナガノチョウ","prefecture_code":23},"3201":{"zip_code":"4443201","prefecture":"愛知県","prefecture_kana":"アイチケン","city":"豊田市","city_kana":"トヨタシ","town":"梨野町","town_kana":"ナシノチョウ","prefecture_code":23},"2211":{"zip_code":"4442211","prefecture":"愛知県","prefecture_kana":"アイチケン","city":"豊田市","city_kana":"トヨタシ","town":"長沢町","town_kana":"ナガサワチョウ","prefecture_code":23},"2205":{"zip_code":"4442205","prefecture":"愛知県","prefecture_kana":"アイチケン","city":"豊田市","city_kana":"トヨタシ","town":"鍋田町","town_kana":"ナベタチョウ","prefecture_code":23},"2532":{"zip_code":"4442532","prefecture":"愛知県","prefecture_kana":"アイチケン","city":"豊田市","city_kana":"トヨタシ","town":"西樫尾町","town_kana":"ニシガシオチョウ","prefecture_code":23},"2404":{"zip_code":"4442404","prefecture":"愛知県","prefecture_kana":"アイチケン","city":"豊田市","city_kana":"トヨタシ","town":"怒田沢町","town_kana":"ヌタザワチョウ","prefecture_code":23},"2303":{"zip_code":"4442303","prefecture":"愛知県","prefecture_kana":"アイチケン","city":"豊田市","city_kana":"トヨタシ","town":"野林町","town_kana":"ノバヤシチョウ","prefecture_code":23},"2342":{"zip_code":"4442342","prefecture":"愛知県","prefecture_kana":"アイチケン","city":"豊田市","city_kana":"トヨタシ","town":"則定町","town_kana":"ノリサダチョウ","prefecture_code":23},"3205":{"zip_code":"4443205","prefecture":"愛知県","prefecture_kana":"アイチケン","city":"豊田市","city_kana":"トヨタシ","town":"野原町","town_kana":"ノワラチョウ","prefecture_code":23},"3231":{"zip_code":"4443231","prefecture":"愛知県","prefecture_kana":"アイチケン","city":"豊田市","city_kana":"トヨタシ","town":"花沢町","town_kana":"ハナザワチョウ","prefecture_code":23},"3206":{"zip_code":"4443206","prefecture":"愛知県","prefecture_kana":"アイチケン","city":"豊田市","city_kana":"トヨタシ","town":"羽布町","town_kana":"ハブチョウ","prefecture_code":23},"2218":{"zip_code":"4442218","prefecture":"愛知県","prefecture_kana":"アイチケン","city":"豊田市","city_kana":"トヨタシ","town":"林添町","town_kana":"ハヤシゾレチョウ","prefecture_code":23},"2313":{"zip_code":"4442313","prefecture":"愛知県","prefecture_kana":"アイチケン","city":"豊田市","city_kana":"トヨタシ","town":"冷田町","town_kana":"ヒエダチョウ","prefecture_code":23},"2344":{"zip_code":"4442344","prefecture":"愛知県","prefecture_kana":"アイチケン","city":"豊田市","city_kana":"トヨタシ","town":"東大島町","town_kana":"ヒガシオオシマチョウ","prefecture_code":23},"3261":{"zip_code":"4443261","prefecture":"愛知県","prefecture_kana":"アイチケン","city":"豊田市","city_kana":"トヨタシ","town":"東大林町","town_kana":"ヒガシオオバヤシチョウ","prefecture_code":23},"2413":{"zip_code":"4442413","prefecture":"愛知県","prefecture_kana":"アイチケン","city":"豊田市","city_kana":"トヨタシ","town":"東大見町","town_kana":"ヒガシオオミチョウ","prefecture_code":23},"2301":{"zip_code":"4442301","prefecture":"愛知県","prefecture_kana":"アイチケン","city":"豊田市","city_kana":"トヨタシ","town":"東川端町","town_kana":"ヒガシカワバタチョウ","prefecture_code":23},"2528":{"zip_code":"4442528","prefecture":"愛知県","prefecture_kana":"アイチケン","city":"豊田市","city_kana":"トヨタシ","town":"東渡合町","town_kana":"ヒガシドアイチョウ","prefecture_code":23},"2512":{"zip_code":"4442512","prefecture":"愛知県","prefecture_kana":"アイチケン","city":"豊田市","city_kana":"トヨタシ","town":"東中山町","town_kana":"ヒガシナカヤマチョウ","prefecture_code":23},"2823":{"zip_code":"4442823","prefecture":"愛知県","prefecture_kana":"アイチケン","city":"豊田市","city_kana":"トヨタシ","town":"東萩平町","town_kana":"ヒガシハギヒラチョウ","prefecture_code":23},"2506":{"zip_code":"4442506","prefecture":"愛知県","prefecture_kana":"アイチケン","city":"豊田市","city_kana":"トヨタシ","town":"久木町","town_kana":"ヒサギチョウ","prefecture_code":23},"2607":{"zip_code":"4442607","prefecture":"愛知県","prefecture_kana":"アイチケン","city":"豊田市","city_kana":"トヨタシ","town":"平沢町","town_kana":"ヒラサワチョウ","prefecture_code":23},"3251":{"zip_code":"4443251","prefecture":"愛知県","prefecture_kana":"アイチケン","city":"豊田市","city_kana":"トヨタシ","town":"平瀬町","town_kana":"ヒラセチョウ","prefecture_code":23},"2333":{"zip_code":"4442333","prefecture":"愛知県","prefecture_kana":"アイチケン","city":"豊田市","city_kana":"トヨタシ","town":"平折町","town_kana":"ヒロリチョウ","prefecture_code":23},"2401":{"zip_code":"4442401","prefecture":"愛知県","prefecture_kana":"アイチケン","city":"豊田市","city_kana":"トヨタシ","town":"二タ宮町","town_kana":"フタミヤチョウ","prefecture_code":23},"2503":{"zip_code":"4442503","prefecture":"愛知県","prefecture_kana":"アイチケン","city":"豊田市","city_kana":"トヨタシ","town":"細田町","town_kana":"ホソダチョウ","prefecture_code":23},"2222":{"zip_code":"4442222","prefecture":"愛知県","prefecture_kana":"アイチケン","city":"豊田市","city_kana":"トヨタシ","town":"穂積町","town_kana":"ホヅミチョウ","prefecture_code":23},"2808":{"zip_code":"4442808","prefecture":"愛知県","prefecture_kana":"アイチケン","city":"豊田市","city_kana":"トヨタシ","town":"槇本町","town_kana":"マキモトチョウ","prefecture_code":23},"2223":{"zip_code":"4442223","prefecture":"愛知県","prefecture_kana":"アイチケン","city":"豊田市","city_kana":"トヨタシ","town":"松平志賀町","town_kana":"マツダイラシガチョウ","prefecture_code":23},"2202":{"zip_code":"4442202","prefecture":"愛知県","prefecture_kana":"アイチケン","city":"豊田市","city_kana":"トヨタシ","town":"松平町","town_kana":"マツダイラチョウ","prefecture_code":23},"2845":{"zip_code":"4442845","prefecture":"愛知県","prefecture_kana":"アイチケン","city":"豊田市","city_kana":"トヨタシ","town":"万町町","town_kana":"マンジョウチョウ","prefecture_code":23},"2815":{"zip_code":"4442815","prefecture":"愛知県","prefecture_kana":"アイチケン","city":"豊田市","city_kana":"トヨタシ","town":"万根町","town_kana":"マンネチョウ","prefecture_code":23},"2411":{"zip_code":"4442411","prefecture":"愛知県","prefecture_kana":"アイチケン","city":"豊田市","city_kana":"トヨタシ","town":"御内町","town_kana":"ミウチチョウ","prefecture_code":23},"2522":{"zip_code":"4442522","prefecture":"愛知県","prefecture_kana":"アイチケン","city":"豊田市","city_kana":"トヨタシ","town":"御蔵町","town_kana":"ミクラチョウ","prefecture_code":23},"2523":{"zip_code":"4442523","prefecture":"愛知県","prefecture_kana":"アイチケン","city":"豊田市","city_kana":"トヨタシ","town":"実栗町","town_kana":"ミグリチョウ","prefecture_code":23},"2417":{"zip_code":"4442417","prefecture":"愛知県","prefecture_kana":"アイチケン","city":"豊田市","city_kana":"トヨタシ","town":"室口町","town_kana":"ムログチチョウ","prefecture_code":23},"2451":{"zip_code":"4442451","prefecture":"愛知県","prefecture_kana":"アイチケン","city":"豊田市","city_kana":"トヨタシ","town":"岩神町","town_kana":"ヤガミチョウ","prefecture_code":23},"2351":{"zip_code":"4442351","prefecture":"愛知県","prefecture_kana":"アイチケン","city":"豊田市","city_kana":"トヨタシ","town":"岩神町","town_kana":"ヤガミチョウ","prefecture_code":23},"2415":{"zip_code":"4442415","prefecture":"愛知県","prefecture_kana":"アイチケン","city":"豊田市","city_kana":"トヨタシ","town":"山谷町","town_kana":"ヤマガイチョウ","prefecture_code":23},"2412":{"zip_code":"4442412","prefecture":"愛知県","prefecture_kana":"アイチケン","city":"豊田市","city_kana":"トヨタシ","town":"山ノ中立町","town_kana":"ヤマノナカダチチョウ","prefecture_code":23},"2842":{"zip_code":"4442842","prefecture":"愛知県","prefecture_kana":"アイチケン","city":"豊田市","city_kana":"トヨタシ","town":"余平町","town_kana":"ヨダイラチョウ","prefecture_code":23},"2312":{"zip_code":"4442312","prefecture":"愛知県","prefecture_kana":"アイチケン","city":"豊田市","city_kana":"トヨタシ","town":"四ツ松町","town_kana":"ヨツマツチョウ","prefecture_code":23},"2602":{"zip_code":"4442602","prefecture":"愛知県","prefecture_kana":"アイチケン","city":"豊田市","city_kana":"トヨタシ","town":"連谷町","town_kana":"レンダニチョウ","prefecture_code":23},"3211":{"zip_code":"4443211","prefecture":"愛知県","prefecture_kana":"アイチケン","city":"豊田市","city_kana":"トヨタシ","town":"和合町","town_kana":"ワゴウチョウ","prefecture_code":23},"2527":{"zip_code":"4442527","prefecture":"愛知県","prefecture_kana":"アイチケン","city":"豊田市","city_kana":"トヨタシ","town":"月原町","town_kana":"ワチバラチョウ","prefecture_code":23},"1201":{"zip_code":"4441201","prefecture":"愛知県","prefecture_kana":"アイチケン","city":"安城市","city_kana":"アンジョウシ","town":"石井町","town_kana":"イシイチョウ","prefecture_code":23},"1221":{"zip_code":"4441221","prefecture":"愛知県","prefecture_kana":"アイチケン","city":"安城市","city_kana":"アンジョウシ","town":"和泉町","town_kana":"イズミチョウ","prefecture_code":23},"1225":{"zip_code":"4441225","prefecture":"愛知県","prefecture_kana":"アイチケン","city":"安城市","city_kana":"アンジョウシ","town":"和泉町井上","town_kana":"イズミチョウイノウエ","prefecture_code":23},"1222":{"zip_code":"4441222","prefecture":"愛知県","prefecture_kana":"アイチケン","city":"安城市","city_kana":"アンジョウシ","town":"和泉町大海古","town_kana":"イズミチョウオオウミコ","prefecture_code":23},"1223":{"zip_code":"4441223","prefecture":"愛知県","prefecture_kana":"アイチケン","city":"安城市","city_kana":"アンジョウシ","town":"和泉町北大木","town_kana":"イズミチョウキタオオギ","prefecture_code":23},"1224":{"zip_code":"4441224","prefecture":"愛知県","prefecture_kana":"アイチケン","city":"安城市","city_kana":"アンジョウシ","town":"和泉町八兵エ","town_kana":"イズミチョウハチベエ","prefecture_code":23},"1214":{"zip_code":"4441214","prefecture":"愛知県","prefecture_kana":"アイチケン","city":"安城市","city_kana":"アンジョウシ","town":"榎前町","town_kana":"エノキマエチョウ","prefecture_code":23},"1215":{"zip_code":"4441215","prefecture":"愛知県","prefecture_kana":"アイチケン","city":"安城市","city_kana":"アンジョウシ","town":"榎前町井杭山","town_kana":"エノキマエチョウイグイヤマ","prefecture_code":23},"1162":{"zip_code":"4441162","prefecture":"愛知県","prefecture_kana":"アイチケン","city":"安城市","city_kana":"アンジョウシ","town":"小川町","town_kana":"オガワチョウ","prefecture_code":23},"1152":{"zip_code":"4441152","prefecture":"愛知県","prefecture_kana":"アイチケン","city":"安城市","city_kana":"アンジョウシ","town":"川島町","town_kana":"カワシマチョウ","prefecture_code":23},"1163":{"zip_code":"4441163","prefecture":"愛知県","prefecture_kana":"アイチケン","city":"安城市","city_kana":"アンジョウシ","town":"木戸町","town_kana":"キドチョウ","prefecture_code":23},"1154":{"zip_code":"4441154","prefecture":"愛知県","prefecture_kana":"アイチケン","city":"安城市","city_kana":"アンジョウシ","town":"桜井町","town_kana":"サクライチョウ","prefecture_code":23},"1206":{"zip_code":"4441206","prefecture":"愛知県","prefecture_kana":"アイチケン","city":"安城市","city_kana":"アンジョウシ","town":"城ケ入町","town_kana":"ジョウガイリチョウ","prefecture_code":23},"1204":{"zip_code":"4441204","prefecture":"愛知県","prefecture_kana":"アイチケン","city":"安城市","city_kana":"アンジョウシ","town":"城ケ入町北立出","town_kana":"ジョウガイリチョウキタタテダシ","prefecture_code":23},"1203":{"zip_code":"4441203","prefecture":"愛知県","prefecture_kana":"アイチケン","city":"安城市","city_kana":"アンジョウシ","town":"城ケ入町立出","town_kana":"ジョウガイリチョウタテダシ","prefecture_code":23},"1202":{"zip_code":"4441202","prefecture":"愛知県","prefecture_kana":"アイチケン","city":"安城市","city_kana":"アンジョウシ","town":"城ケ入町団戸","town_kana":"ジョウガイリチョウダンド","prefecture_code":23},"1205":{"zip_code":"4441205","prefecture":"愛知県","prefecture_kana":"アイチケン","city":"安城市","city_kana":"アンジョウシ","town":"城ケ入町広見","town_kana":"ジョウガイリチョウヒロミ","prefecture_code":23},"1166":{"zip_code":"4441166","prefecture":"愛知県","prefecture_kana":"アイチケン","city":"安城市","city_kana":"アンジョウシ","town":"寺領町","town_kana":"ジリョウチョウ","prefecture_code":23},"1211":{"zip_code":"4441211","prefecture":"愛知県","prefecture_kana":"アイチケン","city":"安城市","city_kana":"アンジョウシ","town":"根崎町","town_kana":"ネサキチョウ","prefecture_code":23},"1212":{"zip_code":"4441212","prefecture":"愛知県","prefecture_kana":"アイチケン","city":"安城市","city_kana":"アンジョウシ","town":"根崎町北根","town_kana":"ネサキチョウキタネ","prefecture_code":23},"1165":{"zip_code":"4441165","prefecture":"愛知県","prefecture_kana":"アイチケン","city":"安城市","city_kana":"アンジョウシ","town":"野寺町","town_kana":"ノデラチョウ","prefecture_code":23},"1213":{"zip_code":"4441213","prefecture":"愛知県","prefecture_kana":"アイチケン","city":"安城市","city_kana":"アンジョウシ","town":"東端町","town_kana":"ヒガシバタチョウ","prefecture_code":23},"1153":{"zip_code":"4441153","prefecture":"愛知県","prefecture_kana":"アイチケン","city":"安城市","city_kana":"アンジョウシ","town":"東町","town_kana":"ヒガシマチ","prefecture_code":23},"1161":{"zip_code":"4441161","prefecture":"愛知県","prefecture_kana":"アイチケン","city":"安城市","city_kana":"アンジョウシ","town":"姫小川町","town_kana":"ヒメオガワチョウ","prefecture_code":23},"1164":{"zip_code":"4441164","prefecture":"愛知県","prefecture_kana":"アイチケン","city":"安城市","city_kana":"アンジョウシ","town":"藤井町","town_kana":"フジイチョウ","prefecture_code":23},"1155":{"zip_code":"4441155","prefecture":"愛知県","prefecture_kana":"アイチケン","city":"安城市","city_kana":"アンジョウシ","town":"堀内町","town_kana":"ホリウチチョウ","prefecture_code":23},"1151":{"zip_code":"4441151","prefecture":"愛知県","prefecture_kana":"アイチケン","city":"安城市","city_kana":"アンジョウシ","town":"村高町","town_kana":"ムラダカチョウ","prefecture_code":23},"0427":{"zip_code":"4440427","prefecture":"愛知県","prefecture_kana":"アイチケン","city":"西尾市","city_kana":"ニシオシ","town":"一色町赤羽","town_kana":"イッシキチョウアカバネ","prefecture_code":23},"0422":{"zip_code":"4440422","prefecture":"愛知県","prefecture_kana":"アイチケン","city":"西尾市","city_kana":"ニシオシ","town":"一色町味浜","town_kana":"イッシキチョウアジハマ","prefecture_code":23},"0412":{"zip_code":"4440412","prefecture":"愛知県","prefecture_kana":"アイチケン","city":"西尾市","city_kana":"ニシオシ","town":"一色町生田","town_kana":"イッシキチョウイクタ","prefecture_code":23},"0401":{"zip_code":"4440401","prefecture":"愛知県","prefecture_kana":"アイチケン","city":"西尾市","city_kana":"ニシオシ","town":"一色町池田","town_kana":"イッシキチョウイケダ","prefecture_code":23},"0423":{"zip_code":"4440423","prefecture":"愛知県","prefecture_kana":"アイチケン","city":"西尾市","city_kana":"ニシオシ","town":"一色町一色","town_kana":"イッシキチョウイッシキ","prefecture_code":23},"0402":{"zip_code":"4440402","prefecture":"愛知県","prefecture_kana":"アイチケン","city":"西尾市","city_kana":"ニシオシ","town":"一色町大塚","town_kana":"イッシキチョウオオツカ","prefecture_code":23},"0421":{"zip_code":"4440421","prefecture":"愛知県","prefecture_kana":"アイチケン","city":"西尾市","city_kana":"ニシオシ","town":"一色町開正","town_kana":"イッシキチョウカイショウ","prefecture_code":23},"0424":{"zip_code":"4440424","prefecture":"愛知県","prefecture_kana":"アイチケン","city":"西尾市","city_kana":"ニシオシ","town":"一色町小薮","town_kana":"イッシキチョウコヤブ","prefecture_code":23},"0413":{"zip_code":"4440413","prefecture":"愛知県","prefecture_kana":"アイチケン","city":"西尾市","city_kana":"ニシオシ","town":"一色町坂田新田","town_kana":"イッシキチョウサカタシンデン","prefecture_code":23},"0415":{"zip_code":"4440415","prefecture":"愛知県","prefecture_kana":"アイチケン","city":"西尾市","city_kana":"ニシオシ","town":"一色町酒手島","town_kana":"イッシキチョウサカテジマ","prefecture_code":23},"0416":{"zip_code":"4440416","prefecture":"愛知県","prefecture_kana":"アイチケン","city":"西尾市","city_kana":"ニシオシ","town":"一色町佐久島","town_kana":"イッシキチョウサクシマ","prefecture_code":23},"0426":{"zip_code":"4440426","prefecture":"愛知県","prefecture_kana":"アイチケン","city":"西尾市","city_kana":"ニシオシ","town":"一色町治明","town_kana":"イッシキチョウジメイ","prefecture_code":23},"0411":{"zip_code":"4440411","prefecture":"愛知県","prefecture_kana":"アイチケン","city":"西尾市","city_kana":"ニシオシ","town":"一色町千間","town_kana":"イッシキチョウセンゲン","prefecture_code":23},"0405":{"zip_code":"4440405","prefecture":"愛知県","prefecture_kana":"アイチケン","city":"西尾市","city_kana":"ニシオシ","town":"一色町惣五郎","town_kana":"イッシキチョウソウゴロウ","prefecture_code":23},"0406":{"zip_code":"4440406","prefecture":"愛知県","prefecture_kana":"アイチケン","city":"西尾市","city_kana":"ニシオシ","town":"一色町対米","town_kana":"イッシキチョウツイゴメ","prefecture_code":23},"0428":{"zip_code":"4440428","prefecture":"愛知県","prefecture_kana":"アイチケン","city":"西尾市","city_kana":"ニシオシ","town":"一色町中外沢","town_kana":"イッシキチョウナカトザワ","prefecture_code":23},"0404":{"zip_code":"4440404","prefecture":"愛知県","prefecture_kana":"アイチケン","city":"西尾市","city_kana":"ニシオシ","town":"一色町野田","town_kana":"イッシキチョウノダ","prefecture_code":23},"0414":{"zip_code":"4440414","prefecture":"愛知県","prefecture_kana":"アイチケン","city":"西尾市","city_kana":"ニシオシ","town":"一色町藤江","town_kana":"イッシキチョウフジエ","prefecture_code":23},"0425":{"zip_code":"4440425","prefecture":"愛知県","prefecture_kana":"アイチケン","city":"西尾市","city_kana":"ニシオシ","town":"一色町細川","town_kana":"イッシキチョウホソカワ","prefecture_code":23},"0407":{"zip_code":"4440407","prefecture":"愛知県","prefecture_kana":"アイチケン","city":"西尾市","city_kana":"ニシオシ","town":"一色町前野","town_kana":"イッシキチョウマエノ","prefecture_code":23},"0403":{"zip_code":"4440403","prefecture":"愛知県","prefecture_kana":"アイチケン","city":"西尾市","city_kana":"ニシオシ","town":"一色町松木島","town_kana":"イッシキチョウマツキジマ","prefecture_code":23},"0429":{"zip_code":"4440429","prefecture":"愛知県","prefecture_kana":"アイチケン","city":"西尾市","city_kana":"ニシオシ","town":"一色町養ケ島","town_kana":"イッシキチョウヨガシマ","prefecture_code":23},"0333":{"zip_code":"4440333","prefecture":"愛知県","prefecture_kana":"アイチケン","city":"西尾市","city_kana":"ニシオシ","town":"奥田町","town_kana":"オクダチョウ","prefecture_code":23},"0332":{"zip_code":"4440332","prefecture":"愛知県","prefecture_kana":"アイチケン","city":"西尾市","city_kana":"ニシオシ","town":"小栗町","town_kana":"オグリチョウ","prefecture_code":23},"0313":{"zip_code":"4440313","prefecture":"愛知県","prefecture_kana":"アイチケン","city":"西尾市","city_kana":"ニシオシ","town":"上矢田町","town_kana":"カミヤタチョウ","prefecture_code":23},"0321":{"zip_code":"4440321","prefecture":"愛知県","prefecture_kana":"アイチケン","city":"西尾市","city_kana":"ニシオシ","town":"刈宿町","town_kana":"カリヤドチョウ","prefecture_code":23},"0523":{"zip_code":"4440523","prefecture":"愛知県","prefecture_kana":"アイチケン","city":"西尾市","city_kana":"ニシオシ","town":"吉良町饗庭","town_kana":"キラチョウアイバ","prefecture_code":23},"0517":{"zip_code":"4440517","prefecture":"愛知県","prefecture_kana":"アイチケン","city":"西尾市","city_kana":"ニシオシ","town":"吉良町大島","town_kana":"キラチョウオオジマ","prefecture_code":23},"0531":{"zip_code":"4440531","prefecture":"愛知県","prefecture_kana":"アイチケン","city":"西尾市","city_kana":"ニシオシ","town":"吉良町岡山","town_kana":"キラチョウオカヤマ","prefecture_code":23},"0524":{"zip_code":"4440524","prefecture":"愛知県","prefecture_kana":"アイチケン","city":"西尾市","city_kana":"ニシオシ","town":"吉良町荻原","town_kana":"キラチョウオギワラ","prefecture_code":23},"0512":{"zip_code":"4440512","prefecture":"愛知県","prefecture_kana":"アイチケン","city":"西尾市","city_kana":"ニシオシ","town":"吉良町乙川","town_kana":"キラチョウオッカワ","prefecture_code":23},"0511":{"zip_code":"4440511","prefecture":"愛知県","prefecture_kana":"アイチケン","city":"西尾市","city_kana":"ニシオシ","town":"吉良町小山田","town_kana":"キラチョウオヤマダ","prefecture_code":23},"0521":{"zip_code":"4440521","prefecture":"愛知県","prefecture_kana":"アイチケン","city":"西尾市","city_kana":"ニシオシ","town":"吉良町上横須賀","town_kana":"キラチョウカミヨコスカ","prefecture_code":23},"0534":{"zip_code":"4440534","prefecture":"愛知県","prefecture_kana":"アイチケン","city":"西尾市","city_kana":"ニシオシ","town":"吉良町木田","town_kana":"キラチョウキダ","prefecture_code":23},"0535":{"zip_code":"4440535","prefecture":"愛知県","prefecture_kana":"アイチケン","city":"西尾市","city_kana":"ニシオシ","town":"吉良町小牧","town_kana":"キラチョウコマキ","prefecture_code":23},"0537":{"zip_code":"4440537","prefecture":"愛知県","prefecture_kana":"アイチケン","city":"西尾市","city_kana":"ニシオシ","town":"吉良町酒井","town_kana":"キラチョウサカイ","prefecture_code":23},"0522":{"zip_code":"4440522","prefecture":"愛知県","prefecture_kana":"アイチケン","city":"西尾市","city_kana":"ニシオシ","town":"吉良町下横須賀","town_kana":"キラチョウシモヨコスカ","prefecture_code":23},"0514":{"zip_code":"4440514","prefecture":"愛知県","prefecture_kana":"アイチケン","city":"西尾市","city_kana":"ニシオシ","town":"吉良町白浜新田","town_kana":"キラチョウシラハマシンデン","prefecture_code":23},"0532":{"zip_code":"4440532","prefecture":"愛知県","prefecture_kana":"アイチケン","city":"西尾市","city_kana":"ニシオシ","town":"吉良町瀬戸","town_kana":"キラチョウセト","prefecture_code":23},"0503":{"zip_code":"4440503","prefecture":"愛知県","prefecture_kana":"アイチケン","city":"西尾市","city_kana":"ニシオシ","town":"吉良町津平","town_kana":"キラチョウツヒラ","prefecture_code":23},"0533":{"zip_code":"4440533","prefecture":"愛知県","prefecture_kana":"アイチケン","city":"西尾市","city_kana":"ニシオシ","town":"吉良町寺嶋","town_kana":"キラチョウテラジマ","prefecture_code":23},"0525":{"zip_code":"4440525","prefecture":"愛知県","prefecture_kana":"アイチケン","city":"西尾市","city_kana":"ニシオシ","town":"吉良町富田","town_kana":"キラチョウトミダ","prefecture_code":23},"0515":{"zip_code":"4440515","prefecture":"愛知県","prefecture_kana":"アイチケン","city":"西尾市","city_kana":"ニシオシ","town":"吉良町富好新田","town_kana":"キラチョウトミヨシシンデン","prefecture_code":23},"0504":{"zip_code":"4440504","prefecture":"愛知県","prefecture_kana":"アイチケン","city":"西尾市","city_kana":"ニシオシ","town":"吉良町友国","town_kana":"キラチョウトモクニ","prefecture_code":23},"0536":{"zip_code":"4440536","prefecture":"愛知県","prefecture_kana":"アイチケン","city":"西尾市","city_kana":"ニシオシ","town":"吉良町中野","town_kana":"キラチョウナカノ","prefecture_code":23},"0526":{"zip_code":"4440526","prefecture":"愛知県","prefecture_kana":"アイチケン","city":"西尾市","city_kana":"ニシオシ","town":"吉良町八幡川田","town_kana":"キラチョウハチマンカワダ","prefecture_code":23},"0501":{"zip_code":"4440501","prefecture":"愛知県","prefecture_kana":"アイチケン","city":"西尾市","city_kana":"ニシオシ","town":"吉良町駮馬","town_kana":"キラチョウマダラメ","prefecture_code":23},"0513":{"zip_code":"4440513","prefecture":"愛知県","prefecture_kana":"アイチケン","city":"西尾市","city_kana":"ニシオシ","town":"吉良町宮崎","town_kana":"キラチョウミヤザキ","prefecture_code":23},"0502":{"zip_code":"4440502","prefecture":"愛知県","prefecture_kana":"アイチケン","city":"西尾市","city_kana":"ニシオシ","town":"吉良町宮迫","town_kana":"キラチョウミヤバ","prefecture_code":23},"0516":{"zip_code":"4440516","prefecture":"愛知県","prefecture_kana":"アイチケン","city":"西尾市","city_kana":"ニシオシ","town":"吉良町吉田","town_kana":"キラチョウヨシダ","prefecture_code":23},"0325":{"zip_code":"4440325","prefecture":"愛知県","prefecture_kana":"アイチケン","city":"西尾市","city_kana":"ニシオシ","town":"楠村町","town_kana":"クスムラチョウ","prefecture_code":23},"0312":{"zip_code":"4440312","prefecture":"愛知県","prefecture_kana":"アイチケン","city":"西尾市","city_kana":"ニシオシ","town":"国森町","town_kana":"クニモリチョウ","prefecture_code":23},"0322":{"zip_code":"4440322","prefecture":"愛知県","prefecture_kana":"アイチケン","city":"西尾市","city_kana":"ニシオシ","town":"巨海町","town_kana":"コミチョウ","prefecture_code":23},"0314":{"zip_code":"4440314","prefecture":"愛知県","prefecture_kana":"アイチケン","city":"西尾市","city_kana":"ニシオシ","town":"下矢田町","town_kana":"シモヤタチョウ","prefecture_code":23},"0311":{"zip_code":"4440311","prefecture":"愛知県","prefecture_kana":"アイチケン","city":"西尾市","city_kana":"ニシオシ","town":"新在家町","town_kana":"シンザイケチョウ","prefecture_code":23},"0302":{"zip_code":"4440302","prefecture":"愛知県","prefecture_kana":"アイチケン","city":"西尾市","city_kana":"ニシオシ","town":"田貫","town_kana":"タヌキ","prefecture_code":23},"0301":{"zip_code":"4440301","prefecture":"愛知県","prefecture_kana":"アイチケン","city":"西尾市","city_kana":"ニシオシ","town":"田貫町","town_kana":"タヌキチョウ","prefecture_code":23},"0327":{"zip_code":"4440327","prefecture":"愛知県","prefecture_kana":"アイチケン","city":"西尾市","city_kana":"ニシオシ","town":"寺津","town_kana":"テラヅ","prefecture_code":23},"0324":{"zip_code":"4440324","prefecture":"愛知県","prefecture_kana":"アイチケン","city":"西尾市","city_kana":"ニシオシ","town":"寺津町","town_kana":"テラヅチョウ","prefecture_code":23},"0702":{"zip_code":"4440702","prefecture":"愛知県","prefecture_kana":"アイチケン","city":"西尾市","city_kana":"ニシオシ","town":"寺部町","town_kana":"テラベチョウ","prefecture_code":23},"0315":{"zip_code":"4440315","prefecture":"愛知県","prefecture_kana":"アイチケン","city":"西尾市","city_kana":"ニシオシ","town":"徳永町","town_kana":"トクナガチョウ","prefecture_code":23},"0704":{"zip_code":"4440704","prefecture":"愛知県","prefecture_kana":"アイチケン","city":"西尾市","city_kana":"ニシオシ","town":"鳥羽町","town_kana":"トバチョウ","prefecture_code":23},"0326":{"zip_code":"4440326","prefecture":"愛知県","prefecture_kana":"アイチケン","city":"西尾市","city_kana":"ニシオシ","town":"富山町","town_kana":"トミヤマチョウ","prefecture_code":23},"0323":{"zip_code":"4440323","prefecture":"愛知県","prefecture_kana":"アイチケン","city":"西尾市","city_kana":"ニシオシ","town":"中根町","town_kana":"ナカネチョウ","prefecture_code":23},"0304":{"zip_code":"4440304","prefecture":"愛知県","prefecture_kana":"アイチケン","city":"西尾市","city_kana":"ニシオシ","town":"中畑","town_kana":"ナカバタ","prefecture_code":23},"0303":{"zip_code":"4440303","prefecture":"愛知県","prefecture_kana":"アイチケン","city":"西尾市","city_kana":"ニシオシ","town":"中畑町","town_kana":"ナカバタチョウ","prefecture_code":23},"0336":{"zip_code":"4440336","prefecture":"愛知県","prefecture_kana":"アイチケン","city":"西尾市","city_kana":"ニシオシ","town":"西奥田町","town_kana":"ニシオクダチョウ","prefecture_code":23},"0331":{"zip_code":"4440331","prefecture":"愛知県","prefecture_kana":"アイチケン","city":"西尾市","city_kana":"ニシオシ","town":"西小梛町","town_kana":"ニシコナギチョウ","prefecture_code":23},"0703":{"zip_code":"4440703","prefecture":"愛知県","prefecture_kana":"アイチケン","city":"西尾市","city_kana":"ニシオシ","town":"西幡豆町","town_kana":"ニシハズチョウ","prefecture_code":23},"0316":{"zip_code":"4440316","prefecture":"愛知県","prefecture_kana":"アイチケン","city":"西尾市","city_kana":"ニシオシ","town":"羽塚町","town_kana":"ハツカチョウ","prefecture_code":23},"0701":{"zip_code":"4440701","prefecture":"愛知県","prefecture_kana":"アイチケン","city":"西尾市","city_kana":"ニシオシ","town":"東幡豆町","town_kana":"ヒガシハズチョウ","prefecture_code":23},"0305":{"zip_code":"4440305","prefecture":"愛知県","prefecture_kana":"アイチケン","city":"西尾市","city_kana":"ニシオシ","town":"平坂町","town_kana":"ヘイサカチョウ","prefecture_code":23},"0328":{"zip_code":"4440328","prefecture":"愛知県","prefecture_kana":"アイチケン","city":"西尾市","city_kana":"ニシオシ","town":"平坂吉山","town_kana":"ヘイサカヨシヤマ","prefecture_code":23},"0335":{"zip_code":"4440335","prefecture":"愛知県","prefecture_kana":"アイチケン","city":"西尾市","city_kana":"ニシオシ","town":"港町","town_kana":"ミナトマチ","prefecture_code":23},"0334":{"zip_code":"4440334","prefecture":"愛知県","prefecture_kana":"アイチケン","city":"西尾市","city_kana":"ニシオシ","town":"南奥田町","town_kana":"ミナミオクダチョウ","prefecture_code":23},"1300":{"zip_code":"4441300","prefecture":"愛知県","prefecture_kana":"アイチケン","city":"高浜市","city_kana":"タカハマシ","town":"","town_kana":"","prefecture_code":23},"1325":{"zip_code":"4441325","prefecture":"愛知県","prefecture_kana":"アイチケン","city":"高浜市","city_kana":"タカハマシ","town":"青木町","town_kana":"アオキチョウ","prefecture_code":23},"1324":{"zip_code":"4441324","prefecture":"愛知県","prefecture_kana":"アイチケン","city":"高浜市","city_kana":"タカハマシ","town":"碧海町","town_kana":"アオミチョウ","prefecture_code":23},"1334":{"zip_code":"4441334","prefecture":"愛知県","prefecture_kana":"アイチケン","city":"高浜市","city_kana":"タカハマシ","town":"春日町","town_kana":"カスガチョウ","prefecture_code":23},"1336":{"zip_code":"4441336","prefecture":"愛知県","prefecture_kana":"アイチケン","city":"高浜市","city_kana":"タカハマシ","town":"呉竹町","town_kana":"クレタケチョウ","prefecture_code":23},"1303":{"zip_code":"4441303","prefecture":"愛知県","prefecture_kana":"アイチケン","city":"高浜市","city_kana":"タカハマシ","town":"小池町","town_kana":"コイケチョウ","prefecture_code":23},"1333":{"zip_code":"4441333","prefecture":"愛知県","prefecture_kana":"アイチケン","city":"高浜市","city_kana":"タカハマシ","town":"沢渡町","town_kana":"サワタリチョウ","prefecture_code":23},"1312":{"zip_code":"4441312","prefecture":"愛知県","prefecture_kana":"アイチケン","city":"高浜市","city_kana":"タカハマシ","town":"清水町","town_kana":"シミズチョウ","prefecture_code":23},"1301":{"zip_code":"4441301","prefecture":"愛知県","prefecture_kana":"アイチケン","city":"高浜市","city_kana":"タカハマシ","town":"新田町","town_kana":"シンデンチョウ","prefecture_code":23},"1305":{"zip_code":"4441305","prefecture":"愛知県","prefecture_kana":"アイチケン","city":"高浜市","city_kana":"タカハマシ","town":"神明町","town_kana":"シンメイチョウ","prefecture_code":23},"1323":{"zip_code":"4441323","prefecture":"愛知県","prefecture_kana":"アイチケン","city":"高浜市","city_kana":"タカハマシ","town":"田戸町","town_kana":"タドチョウ","prefecture_code":23},"1304":{"zip_code":"4441304","prefecture":"愛知県","prefecture_kana":"アイチケン","city":"高浜市","city_kana":"タカハマシ","town":"豊田町","town_kana":"トヨダチョウ","prefecture_code":23},"1302":{"zip_code":"4441302","prefecture":"愛知県","prefecture_kana":"アイチケン","city":"高浜市","city_kana":"タカハマシ","town":"八幡町","town_kana":"ハチマンチョウ","prefecture_code":23},"1321":{"zip_code":"4441321","prefecture":"愛知県","prefecture_kana":"アイチケン","city":"高浜市","city_kana":"タカハマシ","town":"稗田町","town_kana":"ヒエダチョウ","prefecture_code":23},"1322":{"zip_code":"4441322","prefecture":"愛知県","prefecture_kana":"アイチケン","city":"高浜市","city_kana":"タカハマシ","town":"二池町","town_kana":"フタツイケチョウ","prefecture_code":23},"1311":{"zip_code":"4441311","prefecture":"愛知県","prefecture_kana":"アイチケン","city":"高浜市","city_kana":"タカハマシ","town":"本郷町","town_kana":"ホンゴウチョウ","prefecture_code":23},"1313":{"zip_code":"4441313","prefecture":"愛知県","prefecture_kana":"アイチケン","city":"高浜市","city_kana":"タカハマシ","town":"向山町","town_kana":"ムカイヤマチョウ","prefecture_code":23},"1331":{"zip_code":"4441331","prefecture":"愛知県","prefecture_kana":"アイチケン","city":"高浜市","city_kana":"タカハマシ","town":"屋敷町","town_kana":"ヤシキチョウ","prefecture_code":23},"1332":{"zip_code":"4441332","prefecture":"愛知県","prefecture_kana":"アイチケン","city":"高浜市","city_kana":"タカハマシ","town":"湯山町","town_kana":"ユヤマチョウ","prefecture_code":23},"1335":{"zip_code":"4441335","prefecture":"愛知県","prefecture_kana":"アイチケン","city":"高浜市","city_kana":"タカハマシ","town":"芳川町","town_kana":"ヨシカワチョウ","prefecture_code":23},"1314":{"zip_code":"4441314","prefecture":"愛知県","prefecture_kana":"アイチケン","city":"高浜市","city_kana":"タカハマシ","town":"論地町","town_kana":"ロンチチョウ","prefecture_code":23},"0100":{"zip_code":"4440100","prefecture":"愛知県","prefecture_kana":"アイチケン","city":"額田郡幸田町","city_kana":"ヌカタグンコウタチョウ","town":"","town_kana":"","prefecture_code":23},"0117":{"zip_code":"4440117","prefecture":"愛知県","prefecture_kana":"アイチケン","city":"額田郡幸田町","city_kana":"ヌカタグンコウタチョウ","town":"相見","town_kana":"アイミ","prefecture_code":23},"0116":{"zip_code":"4440116","prefecture":"愛知県","prefecture_kana":"アイチケン","city":"額田郡幸田町","city_kana":"ヌカタグンコウタチョウ","town":"芦谷","town_kana":"アシノヤ","prefecture_code":23},"0103":{"zip_code":"4440103","prefecture":"愛知県","prefecture_kana":"アイチケン","city":"額田郡幸田町","city_kana":"ヌカタグンコウタチョウ","town":"大草","town_kana":"オオクサ","prefecture_code":23},"0115":{"zip_code":"4440115","prefecture":"愛知県","prefecture_kana":"アイチケン","city":"額田郡幸田町","city_kana":"ヌカタグンコウタチョウ","town":"荻","town_kana":"オギ","prefecture_code":23},"0123":{"zip_code":"4440123","prefecture":"愛知県","prefecture_kana":"アイチケン","city":"額田郡幸田町","city_kana":"ヌカタグンコウタチョウ","town":"上六栗","town_kana":"カミムツグリ","prefecture_code":23},"0126":{"zip_code":"4440126","prefecture":"愛知県","prefecture_kana":"アイチケン","city":"額田郡幸田町","city_kana":"ヌカタグンコウタチョウ","town":"桐山","town_kana":"キリヤマ","prefecture_code":23},"0102":{"zip_code":"4440102","prefecture":"愛知県","prefecture_kana":"アイチケン","city":"額田郡幸田町","city_kana":"ヌカタグンコウタチョウ","town":"久保田","town_kana":"クボタ","prefecture_code":23},"0111":{"zip_code":"4440111","prefecture":"愛知県","prefecture_kana":"アイチケン","city":"額田郡幸田町","city_kana":"ヌカタグンコウタチョウ","town":"高力","town_kana":"コウリキ","prefecture_code":23},"0125":{"zip_code":"4440125","prefecture":"愛知県","prefecture_kana":"アイチケン","city":"額田郡幸田町","city_kana":"ヌカタグンコウタチョウ","town":"逆川","town_kana":"サカサガワ","prefecture_code":23},"0104":{"zip_code":"4440104","prefecture":"愛知県","prefecture_kana":"アイチケン","city":"額田郡幸田町","city_kana":"ヌカタグンコウタチョウ","town":"坂崎","town_kana":"サカザキ","prefecture_code":23},"0127":{"zip_code":"4440127","prefecture":"愛知県","prefecture_kana":"アイチケン","city":"額田郡幸田町","city_kana":"ヌカタグンコウタチョウ","town":"須美","town_kana":"スミ","prefecture_code":23},"0121":{"zip_code":"4440121","prefecture":"愛知県","prefecture_kana":"アイチケン","city":"額田郡幸田町","city_kana":"ヌカタグンコウタチョウ","town":"永野","town_kana":"ナガノ","prefecture_code":23},"0101":{"zip_code":"4440101","prefecture":"愛知県","prefecture_kana":"アイチケン","city":"額田郡幸田町","city_kana":"ヌカタグンコウタチョウ","town":"長嶺","town_kana":"ナガミネ","prefecture_code":23},"0128":{"zip_code":"4440128","prefecture":"愛知県","prefecture_kana":"アイチケン","city":"額田郡幸田町","city_kana":"ヌカタグンコウタチョウ","town":"野場","town_kana":"ノバ","prefecture_code":23},"0113":{"zip_code":"4440113","prefecture":"愛知県","prefecture_kana":"アイチケン","city":"額田郡幸田町","city_kana":"ヌカタグンコウタチョウ","town":"菱池","town_kana":"ヒシイケ","prefecture_code":23},"0124":{"zip_code":"4440124","prefecture":"愛知県","prefecture_kana":"アイチケン","city":"額田郡幸田町","city_kana":"ヌカタグンコウタチョウ","town":"深溝","town_kana":"フコウズ","prefecture_code":23},"0122":{"zip_code":"4440122","prefecture":"愛知県","prefecture_kana":"アイチケン","city":"額田郡幸田町","city_kana":"ヌカタグンコウタチョウ","town":"六栗","town_kana":"ムツグリ","prefecture_code":23},"0114":{"zip_code":"4440114","prefecture":"愛知県","prefecture_kana":"アイチケン","city":"額田郡幸田町","city_kana":"ヌカタグンコウタチョウ","town":"横落","town_kana":"ヨコオチ","prefecture_code":23}}