{"0000":{"zip_code":"4450000","prefecture":"愛知県","prefecture_kana":"アイチケン","city":"西尾市","city_kana":"ニシオシ","town":"以下に掲載がない場合","town_kana":"イカニケイサイガナイバアイ","prefecture_code":23},"0863":{"zip_code":"4450863","prefecture":"愛知県","prefecture_kana":"アイチケン","city":"西尾市","city_kana":"ニシオシ","town":"葵町","town_kana":"アオイチョウ","prefecture_code":23},"0861":{"zip_code":"4450861","prefecture":"愛知県","prefecture_kana":"アイチケン","city":"西尾市","city_kana":"ニシオシ","town":"吾妻町","town_kana":"アヅマチョウ","prefecture_code":23},"0824":{"zip_code":"4450824","prefecture":"愛知県","prefecture_kana":"アイチケン","city":"西尾市","city_kana":"ニシオシ","town":"和泉町","town_kana":"イズミチョウ","prefecture_code":23},"0055":{"zip_code":"4450055","prefecture":"愛知県","prefecture_kana":"アイチケン","city":"西尾市","city_kana":"ニシオシ","town":"市子町","town_kana":"イチゴチョウ","prefecture_code":23},"0807":{"zip_code":"4450807","prefecture":"愛知県","prefecture_kana":"アイチケン","city":"西尾市","city_kana":"ニシオシ","town":"伊藤","town_kana":"イトウ","prefecture_code":23},"0806":{"zip_code":"4450806","prefecture":"愛知県","prefecture_kana":"アイチケン","city":"西尾市","city_kana":"ニシオシ","town":"伊藤町","town_kana":"イトウチョウ","prefecture_code":23},"0822":{"zip_code":"4450822","prefecture":"愛知県","prefecture_kana":"アイチケン","city":"西尾市","city_kana":"ニシオシ","town":"伊文町","town_kana":"イブンチョウ","prefecture_code":23},"0063":{"zip_code":"4450063","prefecture":"愛知県","prefecture_kana":"アイチケン","city":"西尾市","city_kana":"ニシオシ","town":"今川町","town_kana":"イマガワチョウ","prefecture_code":23},"0043":{"zip_code":"4450043","prefecture":"愛知県","prefecture_kana":"アイチケン","city":"西尾市","city_kana":"ニシオシ","town":"鵜ケ池町","town_kana":"ウガイケチョウ","prefecture_code":23},"0854":{"zip_code":"4450854","prefecture":"愛知県","prefecture_kana":"アイチケン","city":"西尾市","city_kana":"ニシオシ","town":"永楽町","town_kana":"エイラクチョウ","prefecture_code":23},"0031":{"zip_code":"4450031","prefecture":"愛知県","prefecture_kana":"アイチケン","city":"西尾市","city_kana":"ニシオシ","town":"家武町","town_kana":"エタケチョウ","prefecture_code":23},"0026":{"zip_code":"4450026","prefecture":"愛知県","prefecture_kana":"アイチケン","city":"西尾市","city_kana":"ニシオシ","town":"江原町","town_kana":"エワラチョウ","prefecture_code":23},"0024":{"zip_code":"4450024","prefecture":"愛知県","prefecture_kana":"アイチケン","city":"西尾市","city_kana":"ニシオシ","town":"大和田町","town_kana":"オオワダチョウ","prefecture_code":23},"0022":{"zip_code":"4450022","prefecture":"愛知県","prefecture_kana":"アイチケン","city":"西尾市","city_kana":"ニシオシ","town":"岡島町","town_kana":"オカジマチョウ","prefecture_code":23},"0831":{"zip_code":"4450831","prefecture":"愛知県","prefecture_kana":"アイチケン","city":"西尾市","city_kana":"ニシオシ","town":"大給町","town_kana":"オギュウチョウ","prefecture_code":23},"0006":{"zip_code":"4450006","prefecture":"愛知県","prefecture_kana":"アイチケン","city":"西尾市","city_kana":"ニシオシ","town":"小島町","town_kana":"オジマチョウ","prefecture_code":23},"0027":{"zip_code":"4450027","prefecture":"愛知県","prefecture_kana":"アイチケン","city":"西尾市","city_kana":"ニシオシ","town":"尾花町","town_kana":"オバナチョウ","prefecture_code":23},"0893":{"zip_code":"4450893","prefecture":"愛知県","prefecture_kana":"アイチケン","city":"西尾市","city_kana":"ニシオシ","town":"小間町","town_kana":"オマチョウ","prefecture_code":23},"0825":{"zip_code":"4450825","prefecture":"愛知県","prefecture_kana":"アイチケン","city":"西尾市","city_kana":"ニシオシ","town":"会生町","town_kana":"カイセイチョウ","prefecture_code":23},"0013":{"zip_code":"4450013","prefecture":"愛知県","prefecture_kana":"アイチケン","city":"西尾市","city_kana":"ニシオシ","town":"貝吹町","town_kana":"カイフクチョウ","prefecture_code":23},"0044":{"zip_code":"4450044","prefecture":"愛知県","prefecture_kana":"アイチケン","city":"西尾市","city_kana":"ニシオシ","town":"鎌谷町","town_kana":"カマヤチョウ","prefecture_code":23},"0823":{"zip_code":"4450823","prefecture":"愛知県","prefecture_kana":"アイチケン","city":"西尾市","city_kana":"ニシオシ","town":"神下町","town_kana":"カミシタチョウ","prefecture_code":23},"0882":{"zip_code":"4450882","prefecture":"愛知県","prefecture_kana":"アイチケン","city":"西尾市","city_kana":"ニシオシ","town":"上道目記町","town_kana":"カミドウメキチョウ","prefecture_code":23},"0017":{"zip_code":"4450017","prefecture":"愛知県","prefecture_kana":"アイチケン","city":"西尾市","city_kana":"ニシオシ","town":"上永良町","town_kana":"カミナガラチョウ","prefecture_code":23},"0011":{"zip_code":"4450011","prefecture":"愛知県","prefecture_kana":"アイチケン","city":"西尾市","city_kana":"ニシオシ","town":"上羽角町","town_kana":"カミハスミチョウ","prefecture_code":23},"0894":{"zip_code":"4450894","prefecture":"愛知県","prefecture_kana":"アイチケン","city":"西尾市","city_kana":"ニシオシ","town":"上町","town_kana":"カミマチ","prefecture_code":23},"0847":{"zip_code":"4450847","prefecture":"愛知県","prefecture_kana":"アイチケン","city":"西尾市","city_kana":"ニシオシ","town":"亀沢町","town_kana":"カメザワチョウ","prefecture_code":23},"0873":{"zip_code":"4450873","prefecture":"愛知県","prefecture_kana":"アイチケン","city":"西尾市","city_kana":"ニシオシ","town":"川口町","town_kana":"カワグチチョウ","prefecture_code":23},"0832":{"zip_code":"4450832","prefecture":"愛知県","prefecture_kana":"アイチケン","city":"西尾市","city_kana":"ニシオシ","town":"瓦町","town_kana":"カワラマチ","prefecture_code":23},"0857":{"zip_code":"4450857","prefecture":"愛知県","prefecture_kana":"アイチケン","city":"西尾市","city_kana":"ニシオシ","town":"北旭町","town_kana":"キタアサヒマチ","prefecture_code":23},"0885":{"zip_code":"4450885","prefecture":"愛知県","prefecture_kana":"アイチケン","city":"西尾市","city_kana":"ニシオシ","town":"行用町","town_kana":"ギョウヨウチョウ","prefecture_code":23},"0864":{"zip_code":"4450864","prefecture":"愛知県","prefecture_kana":"アイチケン","city":"西尾市","city_kana":"ニシオシ","town":"錦城町","town_kana":"キンジョウチョウ","prefecture_code":23},"0071":{"zip_code":"4450071","prefecture":"愛知県","prefecture_kana":"アイチケン","city":"西尾市","city_kana":"ニシオシ","town":"熊味町","town_kana":"クマミチョウ","prefecture_code":23},"0035":{"zip_code":"4450035","prefecture":"愛知県","prefecture_kana":"アイチケン","city":"西尾市","city_kana":"ニシオシ","town":"花蔵寺町","town_kana":"ケゾウジチョウ","prefecture_code":23},"0021":{"zip_code":"4450021","prefecture":"愛知県","prefecture_kana":"アイチケン","city":"西尾市","city_kana":"ニシオシ","town":"駒場町","town_kana":"コマンバチョウ","prefecture_code":23},"0005":{"zip_code":"4450005","prefecture":"愛知県","prefecture_kana":"アイチケン","city":"西尾市","city_kana":"ニシオシ","town":"米野町","town_kana":"コメノチョウ","prefecture_code":23},"0041":{"zip_code":"4450041","prefecture":"愛知県","prefecture_kana":"アイチケン","city":"西尾市","city_kana":"ニシオシ","town":"小焼野町","town_kana":"コヤケノチョウ","prefecture_code":23},"0056":{"zip_code":"4450056","prefecture":"愛知県","prefecture_kana":"アイチケン","city":"西尾市","city_kana":"ニシオシ","town":"斉藤町","town_kana":"サイトウチョウ","prefecture_code":23},"0827":{"zip_code":"4450827","prefecture":"愛知県","prefecture_kana":"アイチケン","city":"西尾市","city_kana":"ニシオシ","town":"幸町","town_kana":"サイワイチョウ","prefecture_code":23},"0835":{"zip_code":"4450835","prefecture":"愛知県","prefecture_kana":"アイチケン","city":"西尾市","city_kana":"ニシオシ","town":"肴町","town_kana":"サカナマチ","prefecture_code":23},"0853":{"zip_code":"4450853","prefecture":"愛知県","prefecture_kana":"アイチケン","city":"西尾市","city_kana":"ニシオシ","town":"桜木町","town_kana":"サクラギチョウ","prefecture_code":23},"0803":{"zip_code":"4450803","prefecture":"愛知県","prefecture_kana":"アイチケン","city":"西尾市","city_kana":"ニシオシ","town":"桜町","town_kana":"サクラマチ","prefecture_code":23},"0053":{"zip_code":"4450053","prefecture":"愛知県","prefecture_kana":"アイチケン","city":"西尾市","city_kana":"ニシオシ","town":"笹曽根町","town_kana":"ササゾネチョウ","prefecture_code":23},"0866":{"zip_code":"4450866","prefecture":"愛知県","prefecture_kana":"アイチケン","city":"西尾市","city_kana":"ニシオシ","town":"塩町","town_kana":"シオマチ","prefecture_code":23},"0084":{"zip_code":"4450084","prefecture":"愛知県","prefecture_kana":"アイチケン","city":"西尾市","city_kana":"ニシオシ","town":"志貴野町","town_kana":"シキノチョウ","prefecture_code":23},"0081":{"zip_code":"4450081","prefecture":"愛知県","prefecture_kana":"アイチケン","city":"西尾市","city_kana":"ニシオシ","town":"志籠谷町","town_kana":"シコヤチョウ","prefecture_code":23},"0883":{"zip_code":"4450883","prefecture":"愛知県","prefecture_kana":"アイチケン","city":"西尾市","city_kana":"ニシオシ","town":"下道目記町","town_kana":"シモドウメキチョウ","prefecture_code":23},"0016":{"zip_code":"4450016","prefecture":"愛知県","prefecture_kana":"アイチケン","city":"西尾市","city_kana":"ニシオシ","town":"下永良町","town_kana":"シモナガラチョウ","prefecture_code":23},"0012":{"zip_code":"4450012","prefecture":"愛知県","prefecture_kana":"アイチケン","city":"西尾市","city_kana":"ニシオシ","town":"下羽角町","town_kana":"シモハスミチョウ","prefecture_code":23},"0891":{"zip_code":"4450891","prefecture":"愛知県","prefecture_kana":"アイチケン","city":"西尾市","city_kana":"ニシオシ","town":"下町","town_kana":"シモマチ","prefecture_code":23},"0045":{"zip_code":"4450045","prefecture":"愛知県","prefecture_kana":"アイチケン","city":"西尾市","city_kana":"ニシオシ","town":"十郎島町","town_kana":"ジュウロウシマチョウ","prefecture_code":23},"0834":{"zip_code":"4450834","prefecture":"愛知県","prefecture_kana":"アイチケン","city":"西尾市","city_kana":"ニシオシ","town":"順海町","town_kana":"ジュンカイマチ","prefecture_code":23},"0065":{"zip_code":"4450065","prefecture":"愛知県","prefecture_kana":"アイチケン","city":"西尾市","city_kana":"ニシオシ","town":"城崎町","town_kana":"シロサキチョウ","prefecture_code":23},"0878":{"zip_code":"4450878","prefecture":"愛知県","prefecture_kana":"アイチケン","city":"西尾市","city_kana":"ニシオシ","town":"新在家","town_kana":"シンザイケ","prefecture_code":23},"0076":{"zip_code":"4450076","prefecture":"愛知県","prefecture_kana":"アイチケン","city":"西尾市","city_kana":"ニシオシ","town":"新渡場","town_kana":"シンドバ","prefecture_code":23},"0077":{"zip_code":"4450077","prefecture":"愛知県","prefecture_kana":"アイチケン","city":"西尾市","city_kana":"ニシオシ","town":"新渡場町","town_kana":"シンドバチョウ","prefecture_code":23},"0002":{"zip_code":"4450002","prefecture":"愛知県","prefecture_kana":"アイチケン","city":"西尾市","city_kana":"ニシオシ","town":"新村町","town_kana":"シンムラチョウ","prefecture_code":23},"0814":{"zip_code":"4450814","prefecture":"愛知県","prefecture_kana":"アイチケン","city":"西尾市","city_kana":"ニシオシ","town":"新屋敷町","town_kana":"シンヤシキチョウ","prefecture_code":23},"0844":{"zip_code":"4450844","prefecture":"愛知県","prefecture_kana":"アイチケン","city":"西尾市","city_kana":"ニシオシ","town":"末広町","town_kana":"スエヒロチョウ","prefecture_code":23},"0815":{"zip_code":"4450815","prefecture":"愛知県","prefecture_kana":"アイチケン","city":"西尾市","city_kana":"ニシオシ","town":"菅原町","town_kana":"スガワラチョウ","prefecture_code":23},"0862":{"zip_code":"4450862","prefecture":"愛知県","prefecture_kana":"アイチケン","city":"西尾市","city_kana":"ニシオシ","town":"須田町","town_kana":"スダチョウ","prefecture_code":23},"0879":{"zip_code":"4450879","prefecture":"愛知県","prefecture_kana":"アイチケン","city":"西尾市","city_kana":"ニシオシ","town":"住崎","town_kana":"スミサキ","prefecture_code":23},"0876":{"zip_code":"4450876","prefecture":"愛知県","prefecture_kana":"アイチケン","city":"西尾市","city_kana":"ニシオシ","town":"住崎町","town_kana":"スミサキチョウ","prefecture_code":23},"0851":{"zip_code":"4450851","prefecture":"愛知県","prefecture_kana":"アイチケン","city":"西尾市","city_kana":"ニシオシ","town":"住吉町","town_kana":"スミヨシチョウ","prefecture_code":23},"0046":{"zip_code":"4450046","prefecture":"愛知県","prefecture_kana":"アイチケン","city":"西尾市","city_kana":"ニシオシ","town":"須脇町","town_kana":"スワキチョウ","prefecture_code":23},"0034":{"zip_code":"4450034","prefecture":"愛知県","prefecture_kana":"アイチケン","city":"西尾市","city_kana":"ニシオシ","town":"善明町","town_kana":"ゼンミョウチョウ","prefecture_code":23},"0001":{"zip_code":"4450001","prefecture":"愛知県","prefecture_kana":"アイチケン","city":"西尾市","city_kana":"ニシオシ","town":"高落町","town_kana":"タカオチチョウ","prefecture_code":23},"0023":{"zip_code":"4450023","prefecture":"愛知県","prefecture_kana":"アイチケン","city":"西尾市","city_kana":"ニシオシ","town":"高河原町","town_kana":"タカガワラチョウ","prefecture_code":23},"0856":{"zip_code":"4450856","prefecture":"愛知県","prefecture_kana":"アイチケン","city":"西尾市","city_kana":"ニシオシ","town":"高砂町","town_kana":"タカサゴチョウ","prefecture_code":23},"0064":{"zip_code":"4450064","prefecture":"愛知県","prefecture_kana":"アイチケン","city":"西尾市","city_kana":"ニシオシ","town":"高畠町","town_kana":"タカバタチョウ","prefecture_code":23},"0042":{"zip_code":"4450042","prefecture":"愛知県","prefecture_kana":"アイチケン","city":"西尾市","city_kana":"ニシオシ","town":"宅野島町","town_kana":"タクノシマチョウ","prefecture_code":23},"0015":{"zip_code":"4450015","prefecture":"愛知県","prefecture_kana":"アイチケン","city":"西尾市","city_kana":"ニシオシ","town":"竹山町","town_kana":"タケヤマチョウ","prefecture_code":23},"0846":{"zip_code":"4450846","prefecture":"愛知県","prefecture_kana":"アイチケン","city":"西尾市","city_kana":"ニシオシ","town":"千歳町","town_kana":"チトセチョウ","prefecture_code":23},"0062":{"zip_code":"4450062","prefecture":"愛知県","prefecture_kana":"アイチケン","city":"西尾市","city_kana":"ニシオシ","town":"丁田町","town_kana":"チョウダチョウ","prefecture_code":23},"0014":{"zip_code":"4450014","prefecture":"愛知県","prefecture_kana":"アイチケン","city":"西尾市","city_kana":"ニシオシ","town":"つくしが丘","town_kana":"ツクシガオカ","prefecture_code":23},"0837":{"zip_code":"4450837","prefecture":"愛知県","prefecture_kana":"アイチケン","city":"西尾市","city_kana":"ニシオシ","town":"鶴ケ崎町","town_kana":"ツルガサキチョウ","prefecture_code":23},"0805":{"zip_code":"4450805","prefecture":"愛知県","prefecture_kana":"アイチケン","city":"西尾市","city_kana":"ニシオシ","town":"鶴城町","town_kana":"ツルシロチョウ","prefecture_code":23},"0845":{"zip_code":"4450845","prefecture":"愛知県","prefecture_kana":"アイチケン","city":"西尾市","city_kana":"ニシオシ","town":"鶴舞町","town_kana":"ツルマイチョウ","prefecture_code":23},"0051":{"zip_code":"4450051","prefecture":"愛知県","prefecture_kana":"アイチケン","city":"西尾市","city_kana":"ニシオシ","town":"天竹町","town_kana":"テンジクチョウ","prefecture_code":23},"0843":{"zip_code":"4450843","prefecture":"愛知県","prefecture_kana":"アイチケン","city":"西尾市","city_kana":"ニシオシ","town":"天神町","town_kana":"テンジンチョウ","prefecture_code":23},"0833":{"zip_code":"4450833","prefecture":"愛知県","prefecture_kana":"アイチケン","city":"西尾市","city_kana":"ニシオシ","town":"天王町","town_kana":"テンノウマチ","prefecture_code":23},"0812":{"zip_code":"4450812","prefecture":"愛知県","prefecture_kana":"アイチケン","city":"西尾市","city_kana":"ニシオシ","town":"道光寺","town_kana":"ドウコウジ","prefecture_code":23},"0811":{"zip_code":"4450811","prefecture":"愛知県","prefecture_kana":"アイチケン","city":"西尾市","city_kana":"ニシオシ","town":"道光寺町","town_kana":"ドウコウジチョウ","prefecture_code":23},"0075":{"zip_code":"4450075","prefecture":"愛知県","prefecture_kana":"アイチケン","city":"西尾市","city_kana":"ニシオシ","town":"戸ケ崎","town_kana":"トガサキ","prefecture_code":23},"0074":{"zip_code":"4450074","prefecture":"愛知県","prefecture_kana":"アイチケン","city":"西尾市","city_kana":"ニシオシ","town":"戸ケ崎町","town_kana":"トガサキチョウ","prefecture_code":23},"0072":{"zip_code":"4450072","prefecture":"愛知県","prefecture_kana":"アイチケン","city":"西尾市","city_kana":"ニシオシ","town":"徳次町","town_kana":"トクツギチョウ","prefecture_code":23},"0887":{"zip_code":"4450887","prefecture":"愛知県","prefecture_kana":"アイチケン","city":"西尾市","city_kana":"ニシオシ","town":"長縄町","town_kana":"ナガナワチョウ","prefecture_code":23},"0083":{"zip_code":"4450083","prefecture":"愛知県","prefecture_kana":"アイチケン","city":"西尾市","city_kana":"ニシオシ","town":"中原町","town_kana":"ナカハラチョウ","prefecture_code":23},"0836":{"zip_code":"4450836","prefecture":"愛知県","prefecture_kana":"アイチケン","city":"西尾市","city_kana":"ニシオシ","town":"中町","town_kana":"ナカマチ","prefecture_code":23},"0870":{"zip_code":"4450870","prefecture":"愛知県","prefecture_kana":"アイチケン","city":"西尾市","city_kana":"ニシオシ","town":"永吉","town_kana":"ナガヨシ","prefecture_code":23},"0871":{"zip_code":"4450871","prefecture":"愛知県","prefecture_kana":"アイチケン","city":"西尾市","city_kana":"ニシオシ","town":"永吉町","town_kana":"ナガヨシチョウ","prefecture_code":23},"0881":{"zip_code":"4450881","prefecture":"愛知県","prefecture_kana":"アイチケン","city":"西尾市","city_kana":"ニシオシ","town":"熱池町","town_kana":"ニイケチョウ","prefecture_code":23},"0004":{"zip_code":"4450004","prefecture":"愛知県","prefecture_kana":"アイチケン","city":"西尾市","city_kana":"ニシオシ","town":"西浅井町","town_kana":"ニシアザイチョウ","prefecture_code":23},"0057":{"zip_code":"4450057","prefecture":"愛知県","prefecture_kana":"アイチケン","city":"西尾市","city_kana":"ニシオシ","town":"野々宮町","town_kana":"ノノミヤチョウ","prefecture_code":23},"0884":{"zip_code":"4450884","prefecture":"愛知県","prefecture_kana":"アイチケン","city":"西尾市","city_kana":"ニシオシ","town":"八ケ尻町","town_kana":"ハチガシリチョウ","prefecture_code":23},"0852":{"zip_code":"4450852","prefecture":"愛知県","prefecture_kana":"アイチケン","city":"西尾市","city_kana":"ニシオシ","town":"花ノ木町","town_kana":"ハナノキチョウ","prefecture_code":23},"0841":{"zip_code":"4450841","prefecture":"愛知県","prefecture_kana":"アイチケン","city":"西尾市","city_kana":"ニシオシ","town":"馬場町","town_kana":"ババチョウ","prefecture_code":23},"0886":{"zip_code":"4450886","prefecture":"愛知県","prefecture_kana":"アイチケン","city":"西尾市","city_kana":"ニシオシ","town":"針曽根町","town_kana":"ハリゾネチョウ","prefecture_code":23},"0003":{"zip_code":"4450003","prefecture":"愛知県","prefecture_kana":"アイチケン","city":"西尾市","city_kana":"ニシオシ","town":"東浅井町","town_kana":"ヒガシアザイチョウ","prefecture_code":23},"0874":{"zip_code":"4450874","prefecture":"愛知県","prefecture_kana":"アイチケン","city":"西尾市","city_kana":"ニシオシ","town":"菱池町","town_kana":"ヒシイケチョウ","prefecture_code":23},"0054":{"zip_code":"4450054","prefecture":"愛知県","prefecture_kana":"アイチケン","city":"西尾市","city_kana":"ニシオシ","town":"平口町","town_kana":"ヒラクチチョウ","prefecture_code":23},"0032":{"zip_code":"4450032","prefecture":"愛知県","prefecture_kana":"アイチケン","city":"西尾市","city_kana":"ニシオシ","town":"平原町","town_kana":"ヒラハラチョウ","prefecture_code":23},"0875":{"zip_code":"4450875","prefecture":"愛知県","prefecture_kana":"アイチケン","city":"西尾市","city_kana":"ニシオシ","town":"深池町","town_kana":"フカイケチョウ","prefecture_code":23},"0892":{"zip_code":"4450892","prefecture":"愛知県","prefecture_kana":"アイチケン","city":"西尾市","city_kana":"ニシオシ","town":"法光寺町","town_kana":"ホウコウジチョウ","prefecture_code":23},"0047":{"zip_code":"4450047","prefecture":"愛知県","prefecture_kana":"アイチケン","city":"西尾市","city_kana":"ニシオシ","town":"細池町","town_kana":"ホソイケチョウ","prefecture_code":23},"0865":{"zip_code":"4450865","prefecture":"愛知県","prefecture_kana":"アイチケン","city":"西尾市","city_kana":"ニシオシ","town":"本町","town_kana":"ホンマチ","prefecture_code":23},"0826":{"zip_code":"4450826","prefecture":"愛知県","prefecture_kana":"アイチケン","city":"西尾市","city_kana":"ニシオシ","town":"満全町","town_kana":"マンゼンチョウ","prefecture_code":23},"0804":{"zip_code":"4450804","prefecture":"愛知県","prefecture_kana":"アイチケン","city":"西尾市","city_kana":"ニシオシ","town":"緑町","town_kana":"ミドリマチ","prefecture_code":23},"0855":{"zip_code":"4450855","prefecture":"愛知県","prefecture_kana":"アイチケン","city":"西尾市","city_kana":"ニシオシ","town":"南旭町","town_kana":"ミナミアサヒマチ","prefecture_code":23},"0801":{"zip_code":"4450801","prefecture":"愛知県","prefecture_kana":"アイチケン","city":"西尾市","city_kana":"ニシオシ","town":"南中根町","town_kana":"ミナミナカネチョウ","prefecture_code":23},"0816":{"zip_code":"4450816","prefecture":"愛知県","prefecture_kana":"アイチケン","city":"西尾市","city_kana":"ニシオシ","town":"宮町","town_kana":"ミヤマチ","prefecture_code":23},"0033":{"zip_code":"4450033","prefecture":"愛知県","prefecture_kana":"アイチケン","city":"西尾市","city_kana":"ニシオシ","town":"室町","town_kana":"ムロチョウ","prefecture_code":23},"0872":{"zip_code":"4450872","prefecture":"愛知県","prefecture_kana":"アイチケン","city":"西尾市","city_kana":"ニシオシ","town":"矢曽根町","town_kana":"ヤゾネチョウ","prefecture_code":23},"0082":{"zip_code":"4450082","prefecture":"愛知県","prefecture_kana":"アイチケン","city":"西尾市","city_kana":"ニシオシ","town":"八ツ面町","town_kana":"ヤツオモテチョウ","prefecture_code":23},"0821":{"zip_code":"4450821","prefecture":"愛知県","prefecture_kana":"アイチケン","city":"西尾市","city_kana":"ニシオシ","town":"矢場町","town_kana":"ヤバチョウ","prefecture_code":23},"0877":{"zip_code":"4450877","prefecture":"愛知県","prefecture_kana":"アイチケン","city":"西尾市","city_kana":"ニシオシ","town":"山下町","town_kana":"ヤマシタチョウ","prefecture_code":23},"0842":{"zip_code":"4450842","prefecture":"愛知県","prefecture_kana":"アイチケン","city":"西尾市","city_kana":"ニシオシ","town":"弥生町","town_kana":"ヤヨイチョウ","prefecture_code":23},"0052":{"zip_code":"4450052","prefecture":"愛知県","prefecture_kana":"アイチケン","city":"西尾市","city_kana":"ニシオシ","town":"横手町","town_kana":"ヨコテチョウ","prefecture_code":23},"0802":{"zip_code":"4450802","prefecture":"愛知県","prefecture_kana":"アイチケン","city":"西尾市","city_kana":"ニシオシ","town":"米津町","town_kana":"ヨネヅチョウ","prefecture_code":23},"0073":{"zip_code":"4450073","prefecture":"愛知県","prefecture_kana":"アイチケン","city":"西尾市","city_kana":"ニシオシ","town":"寄住町","town_kana":"ヨリズミチョウ","prefecture_code":23},"0061":{"zip_code":"4450061","prefecture":"愛知県","prefecture_kana":"アイチケン","city":"西尾市","city_kana":"ニシオシ","town":"寄近町","town_kana":"ヨリチカチョウ","prefecture_code":23},"0813":{"zip_code":"4450813","prefecture":"愛知県","prefecture_kana":"アイチケン","city":"西尾市","city_kana":"ニシオシ","town":"若松町","town_kana":"ワカマツチョウ","prefecture_code":23},"0025":{"zip_code":"4450025","prefecture":"愛知県","prefecture_kana":"アイチケン","city":"西尾市","city_kana":"ニシオシ","town":"和気町","town_kana":"ワキチョウ","prefecture_code":23}}