{"0000":{"zip_code":"4460000","prefecture":"愛知県","prefecture_kana":"アイチケン","city":"安城市","city_kana":"アンジョウシ","town":"","town_kana":"","prefecture_code":23},"0037":{"zip_code":"4460037","prefecture":"愛知県","prefecture_kana":"アイチケン","city":"安城市","city_kana":"アンジョウシ","town":"相生町","town_kana":"アイオイチョウ","prefecture_code":23},"0046":{"zip_code":"4460046","prefecture":"愛知県","prefecture_kana":"アイチケン","city":"安城市","city_kana":"アンジョウシ","town":"赤松町","town_kana":"アカマツチョウ","prefecture_code":23},"0031":{"zip_code":"4460031","prefecture":"愛知県","prefecture_kana":"アイチケン","city":"安城市","city_kana":"アンジョウシ","town":"朝日町","town_kana":"アサヒマチ","prefecture_code":23},"0026":{"zip_code":"4460026","prefecture":"愛知県","prefecture_kana":"アイチケン","city":"安城市","city_kana":"アンジョウシ","town":"安城町","town_kana":"アンジョウチョウ","prefecture_code":23},"0074":{"zip_code":"4460074","prefecture":"愛知県","prefecture_kana":"アイチケン","city":"安城市","city_kana":"アンジョウシ","town":"井杭山町","town_kana":"イグイヤマチョウ","prefecture_code":23},"0066":{"zip_code":"4460066","prefecture":"愛知県","prefecture_kana":"アイチケン","city":"安城市","city_kana":"アンジョウシ","town":"池浦町","town_kana":"イケウラチョウ","prefecture_code":23},"0071":{"zip_code":"4460071","prefecture":"愛知県","prefecture_kana":"アイチケン","city":"安城市","city_kana":"アンジョウシ","town":"今池町","town_kana":"イマイケチョウ","prefecture_code":23},"0008":{"zip_code":"4460008","prefecture":"愛知県","prefecture_kana":"アイチケン","city":"安城市","city_kana":"アンジョウシ","town":"今本町","town_kana":"イマホンマチ","prefecture_code":23},"0005":{"zip_code":"4460005","prefecture":"愛知県","prefecture_kana":"アイチケン","city":"安城市","city_kana":"アンジョウシ","town":"宇頭茶屋町","town_kana":"ウトウチャヤチョウ","prefecture_code":23},"0017":{"zip_code":"4460017","prefecture":"愛知県","prefecture_kana":"アイチケン","city":"安城市","city_kana":"アンジョウシ","town":"大岡町","town_kana":"オオオカチョウ","prefecture_code":23},"0042":{"zip_code":"4460042","prefecture":"愛知県","prefecture_kana":"アイチケン","city":"安城市","city_kana":"アンジョウシ","town":"大山町","town_kana":"オオヤマチョウ","prefecture_code":23},"0004":{"zip_code":"4460004","prefecture":"愛知県","prefecture_kana":"アイチケン","city":"安城市","city_kana":"アンジョウシ","town":"尾崎町","town_kana":"オザキチョウ","prefecture_code":23},"0003":{"zip_code":"4460003","prefecture":"愛知県","prefecture_kana":"アイチケン","city":"安城市","city_kana":"アンジョウシ","town":"柿さき町","town_kana":"カキサキチョウ","prefecture_code":23},"0024":{"zip_code":"4460024","prefecture":"愛知県","prefecture_kana":"アイチケン","city":"安城市","city_kana":"アンジョウシ","town":"河野町","town_kana":"カワノチョウ","prefecture_code":23},"0011":{"zip_code":"4460011","prefecture":"愛知県","prefecture_kana":"アイチケン","city":"安城市","city_kana":"アンジョウシ","town":"北山崎町","town_kana":"キタヤマザキチョウ","prefecture_code":23},"0036":{"zip_code":"4460036","prefecture":"愛知県","prefecture_kana":"アイチケン","city":"安城市","city_kana":"アンジョウシ","town":"小堤町","town_kana":"コヅツミチョウ","prefecture_code":23},"0041":{"zip_code":"4460041","prefecture":"愛知県","prefecture_kana":"アイチケン","city":"安城市","city_kana":"アンジョウシ","town":"桜町","town_kana":"サクラマチ","prefecture_code":23},"0073":{"zip_code":"4460073","prefecture":"愛知県","prefecture_kana":"アイチケン","city":"安城市","city_kana":"アンジョウシ","town":"篠目町","town_kana":"ササメチョウ","prefecture_code":23},"0001":{"zip_code":"4460001","prefecture":"愛知県","prefecture_kana":"アイチケン","city":"安城市","city_kana":"アンジョウシ","town":"里町","town_kana":"サトチョウ","prefecture_code":23},"0023":{"zip_code":"4460023","prefecture":"愛知県","prefecture_kana":"アイチケン","city":"安城市","city_kana":"アンジョウシ","town":"上条町","town_kana":"ジョウジョウチョウ","prefecture_code":23},"0043":{"zip_code":"4460043","prefecture":"愛知県","prefecture_kana":"アイチケン","city":"安城市","city_kana":"アンジョウシ","town":"城南町","town_kana":"ジョウナンチョウ","prefecture_code":23},"0063":{"zip_code":"4460063","prefecture":"愛知県","prefecture_kana":"アイチケン","city":"安城市","city_kana":"アンジョウシ","town":"昭和町","town_kana":"ショウワチョウ","prefecture_code":23},"0061":{"zip_code":"4460061","prefecture":"愛知県","prefecture_kana":"アイチケン","city":"安城市","city_kana":"アンジョウシ","town":"新田町","town_kana":"シンデンチョウ","prefecture_code":23},"0019":{"zip_code":"4460019","prefecture":"愛知県","prefecture_kana":"アイチケン","city":"安城市","city_kana":"アンジョウシ","town":"新明町","town_kana":"シンメイチョウ","prefecture_code":23},"0038":{"zip_code":"4460038","prefecture":"愛知県","prefecture_kana":"アイチケン","city":"安城市","city_kana":"アンジョウシ","town":"末広町","town_kana":"スエヒロチョウ","prefecture_code":23},"0072":{"zip_code":"4460072","prefecture":"愛知県","prefecture_kana":"アイチケン","city":"安城市","city_kana":"アンジョウシ","town":"住吉町","town_kana":"スミヨシチョウ","prefecture_code":23},"0065":{"zip_code":"4460065","prefecture":"愛知県","prefecture_kana":"アイチケン","city":"安城市","city_kana":"アンジョウシ","town":"大東町","town_kana":"ダイトウチョウ","prefecture_code":23},"0015":{"zip_code":"4460015","prefecture":"愛知県","prefecture_kana":"アイチケン","city":"安城市","city_kana":"アンジョウシ","town":"高木町","town_kana":"タカギチョウ","prefecture_code":23},"0053":{"zip_code":"4460053","prefecture":"愛知県","prefecture_kana":"アイチケン","city":"安城市","city_kana":"アンジョウシ","town":"高棚町","town_kana":"タカタナチョウ","prefecture_code":23},"0007":{"zip_code":"4460007","prefecture":"愛知県","prefecture_kana":"アイチケン","city":"安城市","city_kana":"アンジョウシ","town":"東栄町","town_kana":"トウエイチョウ","prefecture_code":23},"0018":{"zip_code":"4460018","prefecture":"愛知県","prefecture_kana":"アイチケン","city":"安城市","city_kana":"アンジョウシ","town":"東新町","town_kana":"トウシンチョウ","prefecture_code":23},"0027":{"zip_code":"4460027","prefecture":"愛知県","prefecture_kana":"アイチケン","city":"安城市","city_kana":"アンジョウシ","town":"東明町","town_kana":"トウメイチョウ","prefecture_code":23},"0035":{"zip_code":"4460035","prefecture":"愛知県","prefecture_kana":"アイチケン","city":"安城市","city_kana":"アンジョウシ","town":"錦町","town_kana":"ニシキマチ","prefecture_code":23},"0012":{"zip_code":"4460012","prefecture":"愛知県","prefecture_kana":"アイチケン","city":"安城市","city_kana":"アンジョウシ","town":"西別所町","town_kana":"ニシベッショチョウ","prefecture_code":23},"0075":{"zip_code":"4460075","prefecture":"愛知県","prefecture_kana":"アイチケン","city":"安城市","city_kana":"アンジョウシ","town":"二本木新町","town_kana":"ニホンギシンマチ","prefecture_code":23},"0054":{"zip_code":"4460054","prefecture":"愛知県","prefecture_kana":"アイチケン","city":"安城市","city_kana":"アンジョウシ","town":"二本木町","town_kana":"ニホンギチョウ","prefecture_code":23},"0002":{"zip_code":"4460002","prefecture":"愛知県","prefecture_kana":"アイチケン","city":"安城市","city_kana":"アンジョウシ","town":"橋目町","town_kana":"ハシメチョウ","prefecture_code":23},"0039":{"zip_code":"4460039","prefecture":"愛知県","prefecture_kana":"アイチケン","city":"安城市","city_kana":"アンジョウシ","town":"花ノ木町","town_kana":"ハナノキチョウ","prefecture_code":23},"0022":{"zip_code":"4460022","prefecture":"愛知県","prefecture_kana":"アイチケン","city":"安城市","city_kana":"アンジョウシ","town":"浜富町","town_kana":"ハマトミチョウ","prefecture_code":23},"0006":{"zip_code":"4460006","prefecture":"愛知県","prefecture_kana":"アイチケン","city":"安城市","city_kana":"アンジョウシ","town":"浜屋町","town_kana":"ハマヤチョウ","prefecture_code":23},"0013":{"zip_code":"4460013","prefecture":"愛知県","prefecture_kana":"アイチケン","city":"安城市","city_kana":"アンジョウシ","town":"東別所町","town_kana":"ヒガシベッショチョウ","prefecture_code":23},"0033":{"zip_code":"4460033","prefecture":"愛知県","prefecture_kana":"アイチケン","city":"安城市","city_kana":"アンジョウシ","town":"日の出町","town_kana":"ヒノデチョウ","prefecture_code":23},"0044":{"zip_code":"4460044","prefecture":"愛知県","prefecture_kana":"アイチケン","city":"安城市","city_kana":"アンジョウシ","town":"百石町","town_kana":"ヒャッコクチョウ","prefecture_code":23},"0052":{"zip_code":"4460052","prefecture":"愛知県","prefecture_kana":"アイチケン","city":"安城市","city_kana":"アンジョウシ","town":"福釜町","town_kana":"フカマチョウ","prefecture_code":23},"0025":{"zip_code":"4460025","prefecture":"愛知県","prefecture_kana":"アイチケン","city":"安城市","city_kana":"アンジョウシ","town":"古井町","town_kana":"フルイチョウ","prefecture_code":23},"0014":{"zip_code":"4460014","prefecture":"愛知県","prefecture_kana":"アイチケン","city":"安城市","city_kana":"アンジョウシ","town":"別郷町","town_kana":"ベツゴウチョウ","prefecture_code":23},"0064":{"zip_code":"4460064","prefecture":"愛知県","prefecture_kana":"アイチケン","city":"安城市","city_kana":"アンジョウシ","town":"弁天町","town_kana":"ベンテンチョウ","prefecture_code":23},"0021":{"zip_code":"4460021","prefecture":"愛知県","prefecture_kana":"アイチケン","city":"安城市","city_kana":"アンジョウシ","town":"法連町","town_kana":"ホウレンチョウ","prefecture_code":23},"0056":{"zip_code":"4460056","prefecture":"愛知県","prefecture_kana":"アイチケン","city":"安城市","city_kana":"アンジョウシ","town":"三河安城町","town_kana":"ミカワアンジョウチョウ","prefecture_code":23},"0057":{"zip_code":"4460057","prefecture":"愛知県","prefecture_kana":"アイチケン","city":"安城市","city_kana":"アンジョウシ","town":"三河安城東町","town_kana":"ミカワアンジョウヒガシマチ","prefecture_code":23},"0059":{"zip_code":"4460059","prefecture":"愛知県","prefecture_kana":"アイチケン","city":"安城市","city_kana":"アンジョウシ","town":"三河安城本町","town_kana":"ミカワアンジョウホンマチ","prefecture_code":23},"0058":{"zip_code":"4460058","prefecture":"愛知県","prefecture_kana":"アイチケン","city":"安城市","city_kana":"アンジョウシ","town":"三河安城南町","town_kana":"ミカワアンジョウミナミマチ","prefecture_code":23},"0076":{"zip_code":"4460076","prefecture":"愛知県","prefecture_kana":"アイチケン","city":"安城市","city_kana":"アンジョウシ","town":"美園町","town_kana":"ミソノチョウ","prefecture_code":23},"0055":{"zip_code":"4460055","prefecture":"愛知県","prefecture_kana":"アイチケン","city":"安城市","city_kana":"アンジョウシ","town":"緑町","town_kana":"ミドリチョウ","prefecture_code":23},"0034":{"zip_code":"4460034","prefecture":"愛知県","prefecture_kana":"アイチケン","city":"安城市","city_kana":"アンジョウシ","town":"南町","town_kana":"ミナミマチ","prefecture_code":23},"0051":{"zip_code":"4460051","prefecture":"愛知県","prefecture_kana":"アイチケン","city":"安城市","city_kana":"アンジョウシ","town":"箕輪町","town_kana":"ミノワチョウ","prefecture_code":23},"0032":{"zip_code":"4460032","prefecture":"愛知県","prefecture_kana":"アイチケン","city":"安城市","city_kana":"アンジョウシ","town":"御幸本町","town_kana":"ミユキホンマチ","prefecture_code":23},"0062":{"zip_code":"4460062","prefecture":"愛知県","prefecture_kana":"アイチケン","city":"安城市","city_kana":"アンジョウシ","town":"明治本町","town_kana":"メイジホンマチ","prefecture_code":23},"0016":{"zip_code":"4460016","prefecture":"愛知県","prefecture_kana":"アイチケン","city":"安城市","city_kana":"アンジョウシ","town":"山崎町","town_kana":"ヤマザキチョウ","prefecture_code":23},"0045":{"zip_code":"4460045","prefecture":"愛知県","prefecture_kana":"アイチケン","city":"安城市","city_kana":"アンジョウシ","town":"横山町","town_kana":"ヨコヤマチョウ","prefecture_code":23}}