{"0000":{"zip_code":"4470000","prefecture":"愛知県","prefecture_kana":"アイチケン","city":"碧南市","city_kana":"ヘキナンシ","town":"","town_kana":"","prefecture_code":23},"0862":{"zip_code":"4470862","prefecture":"愛知県","prefecture_kana":"アイチケン","city":"碧南市","city_kana":"ヘキナンシ","town":"相生町","town_kana":"アイオイマチ","prefecture_code":23},"0866":{"zip_code":"4470866","prefecture":"愛知県","prefecture_kana":"アイチケン","city":"碧南市","city_kana":"ヘキナンシ","town":"明石町","town_kana":"アカシマチ","prefecture_code":23},"0022":{"zip_code":"4470022","prefecture":"愛知県","prefecture_kana":"アイチケン","city":"碧南市","city_kana":"ヘキナンシ","town":"旭町","town_kana":"アサヒマチ","prefecture_code":23},"0865":{"zip_code":"4470865","prefecture":"愛知県","prefecture_kana":"アイチケン","city":"碧南市","city_kana":"ヘキナンシ","town":"浅間町","town_kana":"アサママチ","prefecture_code":23},"0083":{"zip_code":"4470083","prefecture":"愛知県","prefecture_kana":"アイチケン","city":"碧南市","city_kana":"ヘキナンシ","town":"油渕町","town_kana":"アブラフチマチ","prefecture_code":23},"0813":{"zip_code":"4470813","prefecture":"愛知県","prefecture_kana":"アイチケン","city":"碧南市","city_kana":"ヘキナンシ","town":"雨池町","town_kana":"アマイケマチ","prefecture_code":23},"0068":{"zip_code":"4470068","prefecture":"愛知県","prefecture_kana":"アイチケン","city":"碧南市","city_kana":"ヘキナンシ","town":"荒居町","town_kana":"アライマチ","prefecture_code":23},"0038":{"zip_code":"4470038","prefecture":"愛知県","prefecture_kana":"アイチケン","city":"碧南市","city_kana":"ヘキナンシ","town":"荒子町","town_kana":"アラコマチ","prefecture_code":23},"0002":{"zip_code":"4470002","prefecture":"愛知県","prefecture_kana":"アイチケン","city":"碧南市","city_kana":"ヘキナンシ","town":"井口町","town_kana":"イグチマチ","prefecture_code":23},"0023":{"zip_code":"4470023","prefecture":"愛知県","prefecture_kana":"アイチケン","city":"碧南市","city_kana":"ヘキナンシ","town":"池下町","town_kana":"イケシタマチ","prefecture_code":23},"0858":{"zip_code":"4470858","prefecture":"愛知県","prefecture_kana":"アイチケン","city":"碧南市","city_kana":"ヘキナンシ","town":"石橋町","town_kana":"イシバシマチ","prefecture_code":23},"0837":{"zip_code":"4470837","prefecture":"愛知県","prefecture_kana":"アイチケン","city":"碧南市","city_kana":"ヘキナンシ","town":"伊勢町","town_kana":"イセマチ","prefecture_code":23},"0821":{"zip_code":"4470821","prefecture":"愛知県","prefecture_kana":"アイチケン","city":"碧南市","city_kana":"ヘキナンシ","town":"稲荷町","town_kana":"イナリマチ","prefecture_code":23},"0831":{"zip_code":"4470831","prefecture":"愛知県","prefecture_kana":"アイチケン","city":"碧南市","city_kana":"ヘキナンシ","town":"入船町","town_kana":"イリフネマチ","prefecture_code":23},"0047":{"zip_code":"4470047","prefecture":"愛知県","prefecture_kana":"アイチケン","city":"碧南市","city_kana":"ヘキナンシ","town":"植出町","town_kana":"ウエダシマチ","prefecture_code":23},"0825":{"zip_code":"4470825","prefecture":"愛知県","prefecture_kana":"アイチケン","city":"碧南市","city_kana":"ヘキナンシ","town":"江口町","town_kana":"エグチマチ","prefecture_code":23},"0008":{"zip_code":"4470008","prefecture":"愛知県","prefecture_kana":"アイチケン","city":"碧南市","city_kana":"ヘキナンシ","town":"大久手町","town_kana":"オオクテマチ","prefecture_code":23},"0012":{"zip_code":"4470012","prefecture":"愛知県","prefecture_kana":"アイチケン","city":"碧南市","city_kana":"ヘキナンシ","town":"大坪町","town_kana":"オオツボマチ","prefecture_code":23},"0025":{"zip_code":"4470025","prefecture":"愛知県","prefecture_kana":"アイチケン","city":"碧南市","city_kana":"ヘキナンシ","town":"大堤町","town_kana":"オオヅツミマチ","prefecture_code":23},"0857":{"zip_code":"4470857","prefecture":"愛知県","prefecture_kana":"アイチケン","city":"碧南市","city_kana":"ヘキナンシ","town":"大浜上町","town_kana":"オオハマカミマチ","prefecture_code":23},"0017":{"zip_code":"4470017","prefecture":"愛知県","prefecture_kana":"アイチケン","city":"碧南市","city_kana":"ヘキナンシ","town":"奥沢町","town_kana":"オクサワマチ","prefecture_code":23},"0014":{"zip_code":"4470014","prefecture":"愛知県","prefecture_kana":"アイチケン","city":"碧南市","city_kana":"ヘキナンシ","town":"長田町","town_kana":"オサダマチ","prefecture_code":23},"0036":{"zip_code":"4470036","prefecture":"愛知県","prefecture_kana":"アイチケン","city":"碧南市","city_kana":"ヘキナンシ","town":"尾城町","town_kana":"オジロマチ","prefecture_code":23},"0847":{"zip_code":"4470847","prefecture":"愛知県","prefecture_kana":"アイチケン","city":"碧南市","city_kana":"ヘキナンシ","town":"音羽町","town_kana":"オトハマチ","prefecture_code":23},"0045":{"zip_code":"4470045","prefecture":"愛知県","prefecture_kana":"アイチケン","city":"碧南市","city_kana":"ヘキナンシ","town":"篭田町","town_kana":"カゴタマチ","prefecture_code":23},"0888":{"zip_code":"4470888","prefecture":"愛知県","prefecture_kana":"アイチケン","city":"碧南市","city_kana":"ヘキナンシ","town":"春日町","town_kana":"カスガマチ","prefecture_code":23},"0881":{"zip_code":"4470881","prefecture":"愛知県","prefecture_kana":"アイチケン","city":"碧南市","city_kana":"ヘキナンシ","town":"霞浦町","town_kana":"カスミウラマチ","prefecture_code":23},"0085":{"zip_code":"4470085","prefecture":"愛知県","prefecture_kana":"アイチケン","city":"碧南市","city_kana":"ヘキナンシ","town":"金山町","town_kana":"カナヤママチ","prefecture_code":23},"0028":{"zip_code":"4470028","prefecture":"愛知県","prefecture_kana":"アイチケン","city":"碧南市","city_kana":"ヘキナンシ","town":"神有町","town_kana":"カミアリマチ","prefecture_code":23},"0074":{"zip_code":"4470074","prefecture":"愛知県","prefecture_kana":"アイチケン","city":"碧南市","city_kana":"ヘキナンシ","town":"上町","town_kana":"カミマチ","prefecture_code":23},"0024":{"zip_code":"4470024","prefecture":"愛知県","prefecture_kana":"アイチケン","city":"碧南市","city_kana":"ヘキナンシ","town":"亀穴町","town_kana":"カメアナマチ","prefecture_code":23},"0822":{"zip_code":"4470822","prefecture":"愛知県","prefecture_kana":"アイチケン","city":"碧南市","city_kana":"ヘキナンシ","town":"河方町","town_kana":"カワカタマチ","prefecture_code":23},"0823":{"zip_code":"4470823","prefecture":"愛知県","prefecture_kana":"アイチケン","city":"碧南市","city_kana":"ヘキナンシ","town":"川口町","town_kana":"カワグチチョウ","prefecture_code":23},"0817":{"zip_code":"4470817","prefecture":"愛知県","prefecture_kana":"アイチケン","city":"碧南市","city_kana":"ヘキナンシ","town":"川端町","town_kana":"カワバタマチ","prefecture_code":23},"0016":{"zip_code":"4470016","prefecture":"愛知県","prefecture_kana":"アイチケン","city":"碧南市","city_kana":"ヘキナンシ","town":"神田町","town_kana":"カンダマチ","prefecture_code":23},"0003":{"zip_code":"4470003","prefecture":"愛知県","prefecture_kana":"アイチケン","city":"碧南市","city_kana":"ヘキナンシ","town":"雁道町","town_kana":"ガンミチマチ","prefecture_code":23},"0032":{"zip_code":"4470032","prefecture":"愛知県","prefecture_kana":"アイチケン","city":"碧南市","city_kana":"ヘキナンシ","town":"北浦町","town_kana":"キタウラマチ","prefecture_code":23},"0001":{"zip_code":"4470001","prefecture":"愛知県","prefecture_kana":"アイチケン","city":"碧南市","city_kana":"ヘキナンシ","town":"北町","town_kana":"キタマチ","prefecture_code":23},"0065":{"zip_code":"4470065","prefecture":"愛知県","prefecture_kana":"アイチケン","city":"碧南市","city_kana":"ヘキナンシ","town":"久沓町","town_kana":"クグツマチ","prefecture_code":23},"0873":{"zip_code":"4470873","prefecture":"愛知県","prefecture_kana":"アイチケン","city":"碧南市","city_kana":"ヘキナンシ","town":"栗山町","town_kana":"クリヤママチ","prefecture_code":23},"0872":{"zip_code":"4470872","prefecture":"愛知県","prefecture_kana":"アイチケン","city":"碧南市","city_kana":"ヘキナンシ","town":"源氏神明町","town_kana":"ゲンジシンメイマチ","prefecture_code":23},"0886":{"zip_code":"4470886","prefecture":"愛知県","prefecture_kana":"アイチケン","city":"碧南市","city_kana":"ヘキナンシ","town":"源氏町","town_kana":"ゲンジマチ","prefecture_code":23},"0034":{"zip_code":"4470034","prefecture":"愛知県","prefecture_kana":"アイチケン","city":"碧南市","city_kana":"ヘキナンシ","town":"鴻島町","town_kana":"コウジママチ","prefecture_code":23},"0824":{"zip_code":"4470824","prefecture":"愛知県","prefecture_kana":"アイチケン","city":"碧南市","city_kana":"ヘキナンシ","town":"港南町","town_kana":"コウナンマチ","prefecture_code":23},"0871":{"zip_code":"4470871","prefecture":"愛知県","prefecture_kana":"アイチケン","city":"碧南市","city_kana":"ヘキナンシ","town":"向陽町","town_kana":"コウヨウマチ","prefecture_code":23},"0082":{"zip_code":"4470082","prefecture":"愛知県","prefecture_kana":"アイチケン","city":"碧南市","city_kana":"ヘキナンシ","town":"湖西町","town_kana":"コセイマチ","prefecture_code":23},"0809":{"zip_code":"4470809","prefecture":"愛知県","prefecture_kana":"アイチケン","city":"碧南市","city_kana":"ヘキナンシ","town":"小屋下町","town_kana":"コヤシタマチ","prefecture_code":23},"0833":{"zip_code":"4470833","prefecture":"愛知県","prefecture_kana":"アイチケン","city":"碧南市","city_kana":"ヘキナンシ","town":"権現町","town_kana":"ゴンゲンマチ","prefecture_code":23},"0838":{"zip_code":"4470838","prefecture":"愛知県","prefecture_kana":"アイチケン","city":"碧南市","city_kana":"ヘキナンシ","town":"権田町","town_kana":"ゴンダマチ","prefecture_code":23},"0043":{"zip_code":"4470043","prefecture":"愛知県","prefecture_kana":"アイチケン","city":"碧南市","city_kana":"ヘキナンシ","town":"幸町","town_kana":"サイワイマチ","prefecture_code":23},"0877":{"zip_code":"4470877","prefecture":"愛知県","prefecture_kana":"アイチケン","city":"碧南市","city_kana":"ヘキナンシ","town":"栄町","town_kana":"サカエマチ","prefecture_code":23},"0087":{"zip_code":"4470087","prefecture":"愛知県","prefecture_kana":"アイチケン","city":"碧南市","city_kana":"ヘキナンシ","town":"坂口町","town_kana":"サカグチマチ","prefecture_code":23},"0874":{"zip_code":"4470874","prefecture":"愛知県","prefecture_kana":"アイチケン","city":"碧南市","city_kana":"ヘキナンシ","town":"作塚町","town_kana":"サクヅカマチ","prefecture_code":23},"0053":{"zip_code":"4470053","prefecture":"愛知県","prefecture_kana":"アイチケン","city":"碧南市","city_kana":"ヘキナンシ","town":"笹山町","town_kana":"ササヤママチ","prefecture_code":23},"0879":{"zip_code":"4470879","prefecture":"愛知県","prefecture_kana":"アイチケン","city":"碧南市","city_kana":"ヘキナンシ","town":"沢渡町","town_kana":"サワタリマチ","prefecture_code":23},"0803":{"zip_code":"4470803","prefecture":"愛知県","prefecture_kana":"アイチケン","city":"碧南市","city_kana":"ヘキナンシ","town":"三角町","town_kana":"サンカクマチ","prefecture_code":23},"0806":{"zip_code":"4470806","prefecture":"愛知県","prefecture_kana":"アイチケン","city":"碧南市","city_kana":"ヘキナンシ","town":"三間町","town_kana":"サンゲンマチ","prefecture_code":23},"0061":{"zip_code":"4470061","prefecture":"愛知県","prefecture_kana":"アイチケン","city":"碧南市","city_kana":"ヘキナンシ","town":"三度山町","town_kana":"サンドヤママチ","prefecture_code":23},"0887":{"zip_code":"4470887","prefecture":"愛知県","prefecture_kana":"アイチケン","city":"碧南市","city_kana":"ヘキナンシ","town":"汐田町","town_kana":"シオタマチ","prefecture_code":23},"0841":{"zip_code":"4470841","prefecture":"愛知県","prefecture_kana":"アイチケン","city":"碧南市","city_kana":"ヘキナンシ","town":"塩浜町","town_kana":"シオハママチ","prefecture_code":23},"0828":{"zip_code":"4470828","prefecture":"愛知県","prefecture_kana":"アイチケン","city":"碧南市","city_kana":"ヘキナンシ","town":"潮見町","town_kana":"シオミマチ","prefecture_code":23},"0816":{"zip_code":"4470816","prefecture":"愛知県","prefecture_kana":"アイチケン","city":"碧南市","city_kana":"ヘキナンシ","town":"志貴崎町","town_kana":"シキサキマチ","prefecture_code":23},"0885":{"zip_code":"4470885","prefecture":"愛知県","prefecture_kana":"アイチケン","city":"碧南市","city_kana":"ヘキナンシ","town":"志貴町","town_kana":"シキマチ","prefecture_code":23},"0078":{"zip_code":"4470078","prefecture":"愛知県","prefecture_kana":"アイチケン","city":"碧南市","city_kana":"ヘキナンシ","town":"島池町","town_kana":"シマイケマチ","prefecture_code":23},"0072":{"zip_code":"4470072","prefecture":"愛知県","prefecture_kana":"アイチケン","city":"碧南市","city_kana":"ヘキナンシ","town":"清水町","town_kana":"シミズマチ","prefecture_code":23},"0883":{"zip_code":"4470883","prefecture":"愛知県","prefecture_kana":"アイチケン","city":"碧南市","city_kana":"ヘキナンシ","town":"下洲町","town_kana":"シモスマチ","prefecture_code":23},"0027":{"zip_code":"4470027","prefecture":"愛知県","prefecture_kana":"アイチケン","city":"碧南市","city_kana":"ヘキナンシ","town":"照光町","town_kana":"ショウコウマチ","prefecture_code":23},"0013":{"zip_code":"4470013","prefecture":"愛知県","prefecture_kana":"アイチケン","city":"碧南市","city_kana":"ヘキナンシ","town":"白沢町","town_kana":"シロサワマチ","prefecture_code":23},"0076":{"zip_code":"4470076","prefecture":"愛知県","prefecture_kana":"アイチケン","city":"碧南市","city_kana":"ヘキナンシ","town":"白砂町","town_kana":"シロスナマチ","prefecture_code":23},"0037":{"zip_code":"4470037","prefecture":"愛知県","prefecture_kana":"アイチケン","city":"碧南市","city_kana":"ヘキナンシ","town":"城山町","town_kana":"シロヤママチ","prefecture_code":23},"0863":{"zip_code":"4470863","prefecture":"愛知県","prefecture_kana":"アイチケン","city":"碧南市","city_kana":"ヘキナンシ","town":"新川町","town_kana":"シンカワマチ","prefecture_code":23},"0052":{"zip_code":"4470052","prefecture":"愛知県","prefecture_kana":"アイチケン","city":"碧南市","city_kana":"ヘキナンシ","town":"新道町","town_kana":"シンミチマチ","prefecture_code":23},"0044":{"zip_code":"4470044","prefecture":"愛知県","prefecture_kana":"アイチケン","city":"碧南市","city_kana":"ヘキナンシ","town":"末広町","town_kana":"スエヒロマチ","prefecture_code":23},"0086":{"zip_code":"4470086","prefecture":"愛知県","prefecture_kana":"アイチケン","city":"碧南市","city_kana":"ヘキナンシ","town":"洲先町","town_kana":"スサキマチ","prefecture_code":23},"0854":{"zip_code":"4470854","prefecture":"愛知県","prefecture_kana":"アイチケン","city":"碧南市","city_kana":"ヘキナンシ","town":"須磨町","town_kana":"スママチ","prefecture_code":23},"0058":{"zip_code":"4470058","prefecture":"愛知県","prefecture_kana":"アイチケン","city":"碧南市","city_kana":"ヘキナンシ","town":"住吉町","town_kana":"スミヨシマチ","prefecture_code":23},"0056":{"zip_code":"4470056","prefecture":"愛知県","prefecture_kana":"アイチケン","city":"碧南市","city_kana":"ヘキナンシ","town":"千福町","town_kana":"センブクマチ","prefecture_code":23},"0875":{"zip_code":"4470875","prefecture":"愛知県","prefecture_kana":"アイチケン","city":"碧南市","city_kana":"ヘキナンシ","town":"善明町","town_kana":"ゼンメイマチ","prefecture_code":23},"0006":{"zip_code":"4470006","prefecture":"愛知県","prefecture_kana":"アイチケン","city":"碧南市","city_kana":"ヘキナンシ","town":"宝町","town_kana":"タカラマチ","prefecture_code":23},"0007":{"zip_code":"4470007","prefecture":"愛知県","prefecture_kana":"アイチケン","city":"碧南市","city_kana":"ヘキナンシ","town":"竹原町","town_kana":"タケハラマチ","prefecture_code":23},"0867":{"zip_code":"4470867","prefecture":"愛知県","prefecture_kana":"アイチケン","city":"碧南市","city_kana":"ヘキナンシ","town":"田尻町","town_kana":"タジリマチ","prefecture_code":23},"0075":{"zip_code":"4470075","prefecture":"愛知県","prefecture_kana":"アイチケン","city":"碧南市","city_kana":"ヘキナンシ","town":"立山町","town_kana":"タテヤママチ","prefecture_code":23},"0815":{"zip_code":"4470815","prefecture":"愛知県","prefecture_kana":"アイチケン","city":"碧南市","city_kana":"ヘキナンシ","town":"棚尾本町","town_kana":"タナオホンマチ","prefecture_code":23},"0834":{"zip_code":"4470834","prefecture":"愛知県","prefecture_kana":"アイチケン","city":"碧南市","city_kana":"ヘキナンシ","town":"玉津浦町","town_kana":"タマツウラマチ","prefecture_code":23},"0849":{"zip_code":"4470849","prefecture":"愛知県","prefecture_kana":"アイチケン","city":"碧南市","city_kana":"ヘキナンシ","town":"築山町","town_kana":"ツキヤママチ","prefecture_code":23},"0057":{"zip_code":"4470057","prefecture":"愛知県","prefecture_kana":"アイチケン","city":"碧南市","city_kana":"ヘキナンシ","town":"鶴見町","town_kana":"ツルミマチ","prefecture_code":23},"0033":{"zip_code":"4470033","prefecture":"愛知県","prefecture_kana":"アイチケン","city":"碧南市","city_kana":"ヘキナンシ","town":"天神町","town_kana":"テンジンマチ","prefecture_code":23},"0855":{"zip_code":"4470855","prefecture":"愛知県","prefecture_kana":"アイチケン","city":"碧南市","city_kana":"ヘキナンシ","town":"天王町","town_kana":"テンノウマチ","prefecture_code":23},"0864":{"zip_code":"4470864","prefecture":"愛知県","prefecture_kana":"アイチケン","city":"碧南市","city_kana":"ヘキナンシ","town":"道場山町","town_kana":"ドウジョウヤママチ","prefecture_code":23},"0073":{"zip_code":"4470073","prefecture":"愛知県","prefecture_kana":"アイチケン","city":"碧南市","city_kana":"ヘキナンシ","town":"鳥追町","town_kana":"トリオイマチ","prefecture_code":23},"0812":{"zip_code":"4470812","prefecture":"愛知県","prefecture_kana":"アイチケン","city":"碧南市","city_kana":"ヘキナンシ","town":"中江町","town_kana":"ナカエマチ","prefecture_code":23},"0042":{"zip_code":"4470042","prefecture":"愛知県","prefecture_kana":"アイチケン","city":"碧南市","city_kana":"ヘキナンシ","town":"中後町","town_kana":"ナカゴマチ","prefecture_code":23},"0829":{"zip_code":"4470829","prefecture":"愛知県","prefecture_kana":"アイチケン","city":"碧南市","city_kana":"ヘキナンシ","town":"中田町","town_kana":"ナカタマチ","prefecture_code":23},"0846":{"zip_code":"4470846","prefecture":"愛知県","prefecture_kana":"アイチケン","city":"碧南市","city_kana":"ヘキナンシ","town":"中町","town_kana":"ナカマチ","prefecture_code":23},"0859":{"zip_code":"4470859","prefecture":"愛知県","prefecture_kana":"アイチケン","city":"碧南市","city_kana":"ヘキナンシ","town":"中松町","town_kana":"ナカマツマチ","prefecture_code":23},"0035":{"zip_code":"4470035","prefecture":"愛知県","prefecture_kana":"アイチケン","city":"碧南市","city_kana":"ヘキナンシ","town":"中山町","town_kana":"ナカヤママチ","prefecture_code":23},"0021":{"zip_code":"4470021","prefecture":"愛知県","prefecture_kana":"アイチケン","city":"碧南市","city_kana":"ヘキナンシ","town":"縄手町","town_kana":"ナワテマチ","prefecture_code":23},"0848":{"zip_code":"4470848","prefecture":"愛知県","prefecture_kana":"アイチケン","city":"碧南市","city_kana":"ヘキナンシ","town":"錦町","town_kana":"ニシキマチ","prefecture_code":23},"0843":{"zip_code":"4470843","prefecture":"愛知県","prefecture_kana":"アイチケン","city":"碧南市","city_kana":"ヘキナンシ","town":"西浜町","town_kana":"ニシハママチ","prefecture_code":23},"0064":{"zip_code":"4470064","prefecture":"愛知県","prefecture_kana":"アイチケン","city":"碧南市","city_kana":"ヘキナンシ","town":"西山町","town_kana":"ニシヤママチ","prefecture_code":23},"0882":{"zip_code":"4470882","prefecture":"愛知県","prefecture_kana":"アイチケン","city":"碧南市","city_kana":"ヘキナンシ","town":"日進町","town_kana":"ニッシンマチ","prefecture_code":23},"0029":{"zip_code":"4470029","prefecture":"愛知県","prefecture_kana":"アイチケン","city":"碧南市","city_kana":"ヘキナンシ","town":"二本木町","town_kana":"ニホンギマチ","prefecture_code":23},"0801":{"zip_code":"4470801","prefecture":"愛知県","prefecture_kana":"アイチケン","city":"碧南市","city_kana":"ヘキナンシ","town":"野銭町","town_kana":"ノセンマチ","prefecture_code":23},"0876":{"zip_code":"4470876","prefecture":"愛知県","prefecture_kana":"アイチケン","city":"碧南市","city_kana":"ヘキナンシ","town":"野田町","town_kana":"ノダマチ","prefecture_code":23},"0851":{"zip_code":"4470851","prefecture":"愛知県","prefecture_kana":"アイチケン","city":"碧南市","city_kana":"ヘキナンシ","town":"羽根町","town_kana":"ハネマチ","prefecture_code":23},"0055":{"zip_code":"4470055","prefecture":"愛知県","prefecture_kana":"アイチケン","city":"碧南市","city_kana":"ヘキナンシ","town":"浜尾町","town_kana":"ハマオマチ","prefecture_code":23},"0842":{"zip_code":"4470842","prefecture":"愛知県","prefecture_kana":"アイチケン","city":"碧南市","city_kana":"ヘキナンシ","town":"浜田町","town_kana":"ハマダマチ","prefecture_code":23},"0845":{"zip_code":"4470845","prefecture":"愛知県","prefecture_kana":"アイチケン","city":"碧南市","city_kana":"ヘキナンシ","town":"浜寺町","town_kana":"ハマデラマチ","prefecture_code":23},"0853":{"zip_code":"4470853","prefecture":"愛知県","prefecture_kana":"アイチケン","city":"碧南市","city_kana":"ヘキナンシ","town":"浜町","town_kana":"ハママチ","prefecture_code":23},"0015":{"zip_code":"4470015","prefecture":"愛知県","prefecture_kana":"アイチケン","city":"碧南市","city_kana":"ヘキナンシ","town":"半崎町","town_kana":"ハンザキマチ","prefecture_code":23},"0889":{"zip_code":"4470889","prefecture":"愛知県","prefecture_kana":"アイチケン","city":"碧南市","city_kana":"ヘキナンシ","town":"東浦町","town_kana":"ヒガシウラマチ","prefecture_code":23},"0051":{"zip_code":"4470051","prefecture":"愛知県","prefecture_kana":"アイチケン","city":"碧南市","city_kana":"ヘキナンシ","town":"東山町","town_kana":"ヒガシヤママチ","prefecture_code":23},"0011":{"zip_code":"4470011","prefecture":"愛知県","prefecture_kana":"アイチケン","city":"碧南市","city_kana":"ヘキナンシ","town":"平山町","town_kana":"ヒラヤママチ","prefecture_code":23},"0067":{"zip_code":"4470067","prefecture":"愛知県","prefecture_kana":"アイチケン","city":"碧南市","city_kana":"ヘキナンシ","town":"広見町","town_kana":"ヒロミマチ","prefecture_code":23},"0081":{"zip_code":"4470081","prefecture":"愛知県","prefecture_kana":"アイチケン","city":"碧南市","city_kana":"ヘキナンシ","town":"吹上町","town_kana":"フキアゲマチ","prefecture_code":23},"0048":{"zip_code":"4470048","prefecture":"愛知県","prefecture_kana":"アイチケン","city":"碧南市","city_kana":"ヘキナンシ","town":"福清水町","town_kana":"フクシミズマチ","prefecture_code":23},"0807":{"zip_code":"4470807","prefecture":"愛知県","prefecture_kana":"アイチケン","city":"碧南市","city_kana":"ヘキナンシ","town":"伏見町","town_kana":"フシミマチ","prefecture_code":23},"0088":{"zip_code":"4470088","prefecture":"愛知県","prefecture_kana":"アイチケン","city":"碧南市","city_kana":"ヘキナンシ","town":"札木町","town_kana":"フダキマチ","prefecture_code":23},"0811":{"zip_code":"4470811","prefecture":"愛知県","prefecture_kana":"アイチケン","city":"碧南市","city_kana":"ヘキナンシ","town":"舟江町","town_kana":"フナエマチ","prefecture_code":23},"0054":{"zip_code":"4470054","prefecture":"愛知県","prefecture_kana":"アイチケン","city":"碧南市","city_kana":"ヘキナンシ","town":"踏分町","town_kana":"フミワケマチ","prefecture_code":23},"0062":{"zip_code":"4470062","prefecture":"愛知県","prefecture_kana":"アイチケン","city":"碧南市","city_kana":"ヘキナンシ","town":"古川町","town_kana":"フルカワマチ","prefecture_code":23},"0884":{"zip_code":"4470884","prefecture":"愛知県","prefecture_kana":"アイチケン","city":"碧南市","city_kana":"ヘキナンシ","town":"平七町","town_kana":"ヘイシチマチ","prefecture_code":23},"0084":{"zip_code":"4470084","prefecture":"愛知県","prefecture_kana":"アイチケン","city":"碧南市","city_kana":"ヘキナンシ","town":"平和町","town_kana":"ヘイワマチ","prefecture_code":23},"0046":{"zip_code":"4470046","prefecture":"愛知県","prefecture_kana":"アイチケン","city":"碧南市","city_kana":"ヘキナンシ","town":"堀方町","town_kana":"ホリカタマチ","prefecture_code":23},"0852":{"zip_code":"4470852","prefecture":"愛知県","prefecture_kana":"アイチケン","city":"碧南市","city_kana":"ヘキナンシ","town":"本郷町","town_kana":"ホンゴウマチ","prefecture_code":23},"0827":{"zip_code":"4470827","prefecture":"愛知県","prefecture_kana":"アイチケン","city":"碧南市","city_kana":"ヘキナンシ","town":"前浜町","town_kana":"マエハママチ","prefecture_code":23},"0868":{"zip_code":"4470868","prefecture":"愛知県","prefecture_kana":"アイチケン","city":"碧南市","city_kana":"ヘキナンシ","town":"松江町","town_kana":"マツエマチ","prefecture_code":23},"0079":{"zip_code":"4470079","prefecture":"愛知県","prefecture_kana":"アイチケン","city":"碧南市","city_kana":"ヘキナンシ","town":"松原町","town_kana":"マツバラマチ","prefecture_code":23},"0878":{"zip_code":"4470878","prefecture":"愛知県","prefecture_kana":"アイチケン","city":"碧南市","city_kana":"ヘキナンシ","town":"松本町","town_kana":"マツモトマチ","prefecture_code":23},"0066":{"zip_code":"4470066","prefecture":"愛知県","prefecture_kana":"アイチケン","city":"碧南市","city_kana":"ヘキナンシ","town":"丸山町","town_kana":"マルヤママチ","prefecture_code":23},"0031":{"zip_code":"4470031","prefecture":"愛知県","prefecture_kana":"アイチケン","city":"碧南市","city_kana":"ヘキナンシ","town":"見合町","town_kana":"ミアイマチ","prefecture_code":23},"0832":{"zip_code":"4470832","prefecture":"愛知県","prefecture_kana":"アイチケン","city":"碧南市","city_kana":"ヘキナンシ","town":"岬町","town_kana":"ミサキマチ","prefecture_code":23},"0041":{"zip_code":"4470041","prefecture":"愛知県","prefecture_kana":"アイチケン","city":"碧南市","city_kana":"ヘキナンシ","town":"緑町","town_kana":"ミドリマチ","prefecture_code":23},"0844":{"zip_code":"4470844","prefecture":"愛知県","prefecture_kana":"アイチケン","city":"碧南市","city_kana":"ヘキナンシ","town":"港本町","town_kana":"ミナトホンマチ","prefecture_code":23},"0026":{"zip_code":"4470026","prefecture":"愛知県","prefecture_kana":"アイチケン","city":"碧南市","city_kana":"ヘキナンシ","town":"三宅町","town_kana":"ミヤケマチ","prefecture_code":23},"0856":{"zip_code":"4470856","prefecture":"愛知県","prefecture_kana":"アイチケン","city":"碧南市","city_kana":"ヘキナンシ","town":"宮後町","town_kana":"ミヤゴマチ","prefecture_code":23},"0835":{"zip_code":"4470835","prefecture":"愛知県","prefecture_kana":"アイチケン","city":"碧南市","city_kana":"ヘキナンシ","town":"宮町","town_kana":"ミヤマチ","prefecture_code":23},"0071":{"zip_code":"4470071","prefecture":"愛知県","prefecture_kana":"アイチケン","city":"碧南市","city_kana":"ヘキナンシ","town":"桃山町","town_kana":"モモヤママチ","prefecture_code":23},"0077":{"zip_code":"4470077","prefecture":"愛知県","prefecture_kana":"アイチケン","city":"碧南市","city_kana":"ヘキナンシ","town":"屋敷町","town_kana":"ヤシキマチ","prefecture_code":23},"0805":{"zip_code":"4470805","prefecture":"愛知県","prefecture_kana":"アイチケン","city":"碧南市","city_kana":"ヘキナンシ","town":"矢縄町","town_kana":"ヤナワマチ","prefecture_code":23},"0869":{"zip_code":"4470869","prefecture":"愛知県","prefecture_kana":"アイチケン","city":"碧南市","city_kana":"ヘキナンシ","town":"山神町","town_kana":"ヤマガミマチ","prefecture_code":23},"0063":{"zip_code":"4470063","prefecture":"愛知県","prefecture_kana":"アイチケン","city":"碧南市","city_kana":"ヘキナンシ","town":"山下町","town_kana":"ヤマシタマチ","prefecture_code":23},"0814":{"zip_code":"4470814","prefecture":"愛知県","prefecture_kana":"アイチケン","city":"碧南市","city_kana":"ヘキナンシ","town":"弥生町","town_kana":"ヤヨイマチ","prefecture_code":23},"0004":{"zip_code":"4470004","prefecture":"愛知県","prefecture_kana":"アイチケン","city":"碧南市","city_kana":"ヘキナンシ","town":"用久町","town_kana":"ヨウキュウマチ","prefecture_code":23},"0826":{"zip_code":"4470826","prefecture":"愛知県","prefecture_kana":"アイチケン","city":"碧南市","city_kana":"ヘキナンシ","town":"葭生町","town_kana":"ヨシオイマチ","prefecture_code":23},"0804":{"zip_code":"4470804","prefecture":"愛知県","prefecture_kana":"アイチケン","city":"碧南市","city_kana":"ヘキナンシ","town":"流作町","town_kana":"リュウサクマチ","prefecture_code":23},"0861":{"zip_code":"4470861","prefecture":"愛知県","prefecture_kana":"アイチケン","city":"碧南市","city_kana":"ヘキナンシ","town":"六軒町","town_kana":"ロッケンマチ","prefecture_code":23},"0836":{"zip_code":"4470836","prefecture":"愛知県","prefecture_kana":"アイチケン","city":"碧南市","city_kana":"ヘキナンシ","town":"若松町","town_kana":"ワカマツマチ","prefecture_code":23},"0005":{"zip_code":"4470005","prefecture":"愛知県","prefecture_kana":"アイチケン","city":"碧南市","city_kana":"ヘキナンシ","town":"若水町","town_kana":"ワカミズマチ","prefecture_code":23},"0818":{"zip_code":"4470818","prefecture":"愛知県","prefecture_kana":"アイチケン","city":"碧南市","city_kana":"ヘキナンシ","town":"若宮町","town_kana":"ワカミヤマチ","prefecture_code":23},"0808":{"zip_code":"4470808","prefecture":"愛知県","prefecture_kana":"アイチケン","city":"碧南市","city_kana":"ヘキナンシ","town":"鷲塚町","town_kana":"ワシヅカマチ","prefecture_code":23},"0802":{"zip_code":"4470802","prefecture":"愛知県","prefecture_kana":"アイチケン","city":"碧南市","city_kana":"ヘキナンシ","town":"鷲林町","town_kana":"ワシバヤシマチ","prefecture_code":23}}