{"0000":{"zip_code":"4480000","prefecture":"愛知県","prefecture_kana":"アイチケン","city":"刈谷市","city_kana":"カリヤシ","town":"","town_kana":"","prefecture_code":23},"0027":{"zip_code":"4480027","prefecture":"愛知県","prefecture_kana":"アイチケン","city":"刈谷市","city_kana":"カリヤシ","town":"相生町","town_kana":"アイオイチョウ","prefecture_code":23},"0838":{"zip_code":"4480838","prefecture":"愛知県","prefecture_kana":"アイチケン","city":"刈谷市","city_kana":"カリヤシ","town":"逢妻町","town_kana":"アイヅマチョウ","prefecture_code":23},"0014":{"zip_code":"4480014","prefecture":"愛知県","prefecture_kana":"アイチケン","city":"刈谷市","city_kana":"カリヤシ","town":"青山町","town_kana":"アオヤマチョウ","prefecture_code":23},"0032":{"zip_code":"4480032","prefecture":"愛知県","prefecture_kana":"アイチケン","city":"刈谷市","city_kana":"カリヤシ","town":"朝日町","town_kana":"アサヒマチ","prefecture_code":23},"0814":{"zip_code":"4480814","prefecture":"愛知県","prefecture_kana":"アイチケン","city":"刈谷市","city_kana":"カリヤシ","town":"荒井町","town_kana":"アライチョウ","prefecture_code":23},"0001":{"zip_code":"4480001","prefecture":"愛知県","prefecture_kana":"アイチケン","city":"刈谷市","city_kana":"カリヤシ","town":"井ケ谷町","town_kana":"イガヤチョウ","prefecture_code":23},"0044":{"zip_code":"4480044","prefecture":"愛知県","prefecture_kana":"アイチケン","city":"刈谷市","city_kana":"カリヤシ","town":"池田町","town_kana":"イケダチョウ","prefecture_code":23},"0022":{"zip_code":"4480022","prefecture":"愛知県","prefecture_kana":"アイチケン","city":"刈谷市","city_kana":"カリヤシ","town":"一色町","town_kana":"イシキチョウ","prefecture_code":23},"0004":{"zip_code":"4480004","prefecture":"愛知県","prefecture_kana":"アイチケン","city":"刈谷市","city_kana":"カリヤシ","town":"泉田町","town_kana":"イズミダチョウ","prefecture_code":23},"0801":{"zip_code":"4480801","prefecture":"愛知県","prefecture_kana":"アイチケン","city":"刈谷市","city_kana":"カリヤシ","town":"板倉町","town_kana":"イタクラチョウ","prefecture_code":23},"0041":{"zip_code":"4480041","prefecture":"愛知県","prefecture_kana":"アイチケン","city":"刈谷市","city_kana":"カリヤシ","town":"一番町","town_kana":"イチバンチョウ","prefecture_code":23},"0002":{"zip_code":"4480002","prefecture":"愛知県","prefecture_kana":"アイチケン","city":"刈谷市","city_kana":"カリヤシ","town":"一里山町","town_kana":"イチリヤマチョウ","prefecture_code":23},"0038":{"zip_code":"4480038","prefecture":"愛知県","prefecture_kana":"アイチケン","city":"刈谷市","city_kana":"カリヤシ","town":"稲場町","town_kana":"イナバチョウ","prefecture_code":23},"0008":{"zip_code":"4480008","prefecture":"愛知県","prefecture_kana":"アイチケン","city":"刈谷市","city_kana":"カリヤシ","town":"今岡町","town_kana":"イマオカチョウ","prefecture_code":23},"0005":{"zip_code":"4480005","prefecture":"愛知県","prefecture_kana":"アイチケン","city":"刈谷市","city_kana":"カリヤシ","town":"今川町","town_kana":"イマガワチョウ","prefecture_code":23},"0857":{"zip_code":"4480857","prefecture":"愛知県","prefecture_kana":"アイチケン","city":"刈谷市","city_kana":"カリヤシ","town":"大手町","town_kana":"オオテマチ","prefecture_code":23},"0813":{"zip_code":"4480813","prefecture":"愛知県","prefecture_kana":"アイチケン","city":"刈谷市","city_kana":"カリヤシ","town":"小垣江町","town_kana":"オガキエチョウ","prefecture_code":23},"0808":{"zip_code":"4480808","prefecture":"愛知県","prefecture_kana":"アイチケン","city":"刈谷市","city_kana":"カリヤシ","town":"沖野町","town_kana":"オキノチョウ","prefecture_code":23},"0043":{"zip_code":"4480043","prefecture":"愛知県","prefecture_kana":"アイチケン","city":"刈谷市","city_kana":"カリヤシ","town":"小山町","town_kana":"オヤマチョウ","prefecture_code":23},"0013":{"zip_code":"4480013","prefecture":"愛知県","prefecture_kana":"アイチケン","city":"刈谷市","city_kana":"カリヤシ","town":"恩田町","town_kana":"オンダチョウ","prefecture_code":23},"0012":{"zip_code":"4480012","prefecture":"愛知県","prefecture_kana":"アイチケン","city":"刈谷市","city_kana":"カリヤシ","town":"上重原町","town_kana":"カミシゲハラチョウ","prefecture_code":23},"0851":{"zip_code":"4480851","prefecture":"愛知県","prefecture_kana":"アイチケン","city":"刈谷市","city_kana":"カリヤシ","town":"神田町","town_kana":"カンダチョウ","prefecture_code":23},"0845":{"zip_code":"4480845","prefecture":"愛知県","prefecture_kana":"アイチケン","city":"刈谷市","city_kana":"カリヤシ","town":"銀座","town_kana":"ギンザ","prefecture_code":23},"0831":{"zip_code":"4480831","prefecture":"愛知県","prefecture_kana":"アイチケン","city":"刈谷市","city_kana":"カリヤシ","town":"熊野町","town_kana":"クマノチョウ","prefecture_code":23},"0856":{"zip_code":"4480856","prefecture":"愛知県","prefecture_kana":"アイチケン","city":"刈谷市","city_kana":"カリヤシ","town":"寿町","town_kana":"コトブキチョウ","prefecture_code":23},"0837":{"zip_code":"4480837","prefecture":"愛知県","prefecture_kana":"アイチケン","city":"刈谷市","city_kana":"カリヤシ","town":"衣崎町","town_kana":"コロモザキチョウ","prefecture_code":23},"0025":{"zip_code":"4480025","prefecture":"愛知県","prefecture_kana":"アイチケン","city":"刈谷市","city_kana":"カリヤシ","town":"幸町","town_kana":"サイワイチョウ","prefecture_code":23},"0028":{"zip_code":"4480028","prefecture":"愛知県","prefecture_kana":"アイチケン","city":"刈谷市","city_kana":"カリヤシ","town":"桜町","town_kana":"サクラマチ","prefecture_code":23},"0023":{"zip_code":"4480023","prefecture":"愛知県","prefecture_kana":"アイチケン","city":"刈谷市","city_kana":"カリヤシ","town":"重原本町","town_kana":"シゲハラホンマチ","prefecture_code":23},"0024":{"zip_code":"4480024","prefecture":"愛知県","prefecture_kana":"アイチケン","city":"刈谷市","city_kana":"カリヤシ","town":"下重原町","town_kana":"シモシゲハラチョウ","prefecture_code":23},"0806":{"zip_code":"4480806","prefecture":"愛知県","prefecture_kana":"アイチケン","city":"刈谷市","city_kana":"カリヤシ","town":"松栄町","town_kana":"ショウエイチョウ","prefecture_code":23},"0029":{"zip_code":"4480029","prefecture":"愛知県","prefecture_kana":"アイチケン","city":"刈谷市","city_kana":"カリヤシ","town":"昭和町","town_kana":"ショウワチョウ","prefecture_code":23},"0833":{"zip_code":"4480833","prefecture":"愛知県","prefecture_kana":"アイチケン","city":"刈谷市","city_kana":"カリヤシ","town":"城町","town_kana":"シロマチ","prefecture_code":23},"0843":{"zip_code":"4480843","prefecture":"愛知県","prefecture_kana":"アイチケン","city":"刈谷市","city_kana":"カリヤシ","town":"新栄町","town_kana":"シンサカエマチ","prefecture_code":23},"0015":{"zip_code":"4480015","prefecture":"愛知県","prefecture_kana":"アイチケン","city":"刈谷市","city_kana":"カリヤシ","town":"新田町","town_kana":"シンデンチョウ","prefecture_code":23},"0045":{"zip_code":"4480045","prefecture":"愛知県","prefecture_kana":"アイチケン","city":"刈谷市","city_kana":"カリヤシ","town":"新富町","town_kana":"シントミチョウ","prefecture_code":23},"0034":{"zip_code":"4480034","prefecture":"愛知県","prefecture_kana":"アイチケン","city":"刈谷市","city_kana":"カリヤシ","town":"神明町","town_kana":"シンメイチョウ","prefecture_code":23},"0802":{"zip_code":"4480802","prefecture":"愛知県","prefecture_kana":"アイチケン","city":"刈谷市","city_kana":"カリヤシ","town":"末広町","town_kana":"スエヒロチョウ","prefecture_code":23},"0852":{"zip_code":"4480852","prefecture":"愛知県","prefecture_kana":"アイチケン","city":"刈谷市","city_kana":"カリヤシ","town":"住吉町","town_kana":"スミヨシチョウ","prefecture_code":23},"0855":{"zip_code":"4480855","prefecture":"愛知県","prefecture_kana":"アイチケン","city":"刈谷市","city_kana":"カリヤシ","town":"大正町","town_kana":"タイショウマチ","prefecture_code":23},"0037":{"zip_code":"4480037","prefecture":"愛知県","prefecture_kana":"アイチケン","city":"刈谷市","city_kana":"カリヤシ","town":"高倉町","town_kana":"タカクラチョウ","prefecture_code":23},"0812":{"zip_code":"4480812","prefecture":"愛知県","prefecture_kana":"アイチケン","city":"刈谷市","city_kana":"カリヤシ","town":"高須町","town_kana":"タカスチョウ","prefecture_code":23},"0047":{"zip_code":"4480047","prefecture":"愛知県","prefecture_kana":"アイチケン","city":"刈谷市","city_kana":"カリヤシ","town":"高津波町","town_kana":"タカツナミチョウ","prefecture_code":23},"0853":{"zip_code":"4480853","prefecture":"愛知県","prefecture_kana":"アイチケン","city":"刈谷市","city_kana":"カリヤシ","town":"高松町","town_kana":"タカマツチョウ","prefecture_code":23},"0847":{"zip_code":"4480847","prefecture":"愛知県","prefecture_kana":"アイチケン","city":"刈谷市","city_kana":"カリヤシ","town":"宝町","town_kana":"タカラマチ","prefecture_code":23},"0811":{"zip_code":"4480811","prefecture":"愛知県","prefecture_kana":"アイチケン","city":"刈谷市","city_kana":"カリヤシ","town":"田町","town_kana":"タマチ","prefecture_code":23},"0011":{"zip_code":"4480011","prefecture":"愛知県","prefecture_kana":"アイチケン","city":"刈谷市","city_kana":"カリヤシ","town":"築地町","town_kana":"ツイジチョウ","prefecture_code":23},"0834":{"zip_code":"4480834","prefecture":"愛知県","prefecture_kana":"アイチケン","city":"刈谷市","city_kana":"カリヤシ","town":"司町","town_kana":"ツカサチョウ","prefecture_code":23},"0846":{"zip_code":"4480846","prefecture":"愛知県","prefecture_kana":"アイチケン","city":"刈谷市","city_kana":"カリヤシ","town":"寺横町","town_kana":"テラヨコチョウ","prefecture_code":23},"0824":{"zip_code":"4480824","prefecture":"愛知県","prefecture_kana":"アイチケン","city":"刈谷市","city_kana":"カリヤシ","town":"天王町","town_kana":"テンノウチョウ","prefecture_code":23},"0031":{"zip_code":"4480031","prefecture":"愛知県","prefecture_kana":"アイチケン","city":"刈谷市","city_kana":"カリヤシ","town":"東新町","town_kana":"トウシンチョウ","prefecture_code":23},"0842":{"zip_code":"4480842","prefecture":"愛知県","prefecture_kana":"アイチケン","city":"刈谷市","city_kana":"カリヤシ","town":"東陽町","town_kana":"トウヨウチョウ","prefecture_code":23},"0848":{"zip_code":"4480848","prefecture":"愛知県","prefecture_kana":"アイチケン","city":"刈谷市","city_kana":"カリヤシ","town":"豊田町","town_kana":"トヨダチョウ","prefecture_code":23},"0823":{"zip_code":"4480823","prefecture":"愛知県","prefecture_kana":"アイチケン","city":"刈谷市","city_kana":"カリヤシ","town":"中川町","town_kana":"ナカガワチョウ","prefecture_code":23},"0815":{"zip_code":"4480815","prefecture":"愛知県","prefecture_kana":"アイチケン","city":"刈谷市","city_kana":"カリヤシ","town":"中島町","town_kana":"ナカジマチョウ","prefecture_code":23},"0049":{"zip_code":"4480049","prefecture":"愛知県","prefecture_kana":"アイチケン","city":"刈谷市","city_kana":"カリヤシ","town":"中手町","town_kana":"ナカテチョウ","prefecture_code":23},"0026":{"zip_code":"4480026","prefecture":"愛知県","prefecture_kana":"アイチケン","city":"刈谷市","city_kana":"カリヤシ","town":"中山町","town_kana":"ナカヤマチョウ","prefecture_code":23},"0006":{"zip_code":"4480006","prefecture":"愛知県","prefecture_kana":"アイチケン","city":"刈谷市","city_kana":"カリヤシ","town":"西境町","town_kana":"ニシザカイチョウ","prefecture_code":23},"0862":{"zip_code":"4480862","prefecture":"愛知県","prefecture_kana":"アイチケン","city":"刈谷市","city_kana":"カリヤシ","town":"野田新町","town_kana":"ノダシンマチ","prefecture_code":23},"0803":{"zip_code":"4480803","prefecture":"愛知県","prefecture_kana":"アイチケン","city":"刈谷市","city_kana":"カリヤシ","town":"野田町","town_kana":"ノダチョウ","prefecture_code":23},"0861":{"zip_code":"4480861","prefecture":"愛知県","prefecture_kana":"アイチケン","city":"刈谷市","city_kana":"カリヤシ","town":"半城土北町","town_kana":"ハジョウドキタマチ","prefecture_code":23},"0804":{"zip_code":"4480804","prefecture":"愛知県","prefecture_kana":"アイチケン","city":"刈谷市","city_kana":"カリヤシ","town":"半城土町","town_kana":"ハジョウドチョウ","prefecture_code":23},"0805":{"zip_code":"4480805","prefecture":"愛知県","prefecture_kana":"アイチケン","city":"刈谷市","city_kana":"カリヤシ","town":"半城土中町","town_kana":"ハジョウドナカマチ","prefecture_code":23},"0816":{"zip_code":"4480816","prefecture":"愛知県","prefecture_kana":"アイチケン","city":"刈谷市","city_kana":"カリヤシ","town":"半城土西町","town_kana":"ハジョウドニシマチ","prefecture_code":23},"0021":{"zip_code":"4480021","prefecture":"愛知県","prefecture_kana":"アイチケン","city":"刈谷市","city_kana":"カリヤシ","town":"八軒町","town_kana":"ハチケンチョウ","prefecture_code":23},"0832":{"zip_code":"4480832","prefecture":"愛知県","prefecture_kana":"アイチケン","city":"刈谷市","city_kana":"カリヤシ","town":"八幡町","town_kana":"ハチマンチョウ","prefecture_code":23},"0836":{"zip_code":"4480836","prefecture":"愛知県","prefecture_kana":"アイチケン","city":"刈谷市","city_kana":"カリヤシ","town":"浜町","town_kana":"ハマチョウ","prefecture_code":23},"0039":{"zip_code":"4480039","prefecture":"愛知県","prefecture_kana":"アイチケン","city":"刈谷市","city_kana":"カリヤシ","town":"原崎町","town_kana":"ハラサキチョウ","prefecture_code":23},"0810":{"zip_code":"4480810","prefecture":"愛知県","prefecture_kana":"アイチケン","city":"刈谷市","city_kana":"カリヤシ","town":"場割町","town_kana":"バワリチョウ","prefecture_code":23},"0807":{"zip_code":"4480807","prefecture":"愛知県","prefecture_kana":"アイチケン","city":"刈谷市","city_kana":"カリヤシ","town":"東刈谷町","town_kana":"ヒガシカリヤチョウ","prefecture_code":23},"0007":{"zip_code":"4480007","prefecture":"愛知県","prefecture_kana":"アイチケン","city":"刈谷市","city_kana":"カリヤシ","town":"東境町","town_kana":"ヒガシザカイチョウ","prefecture_code":23},"0046":{"zip_code":"4480046","prefecture":"愛知県","prefecture_kana":"アイチケン","city":"刈谷市","city_kana":"カリヤシ","town":"日高町","town_kana":"ヒダカチョウ","prefecture_code":23},"0003":{"zip_code":"4480003","prefecture":"愛知県","prefecture_kana":"アイチケン","city":"刈谷市","city_kana":"カリヤシ","town":"一ツ木町","town_kana":"ヒトツギチョウ","prefecture_code":23},"0844":{"zip_code":"4480844","prefecture":"愛知県","prefecture_kana":"アイチケン","city":"刈谷市","city_kana":"カリヤシ","town":"広小路","town_kana":"ヒロコウジ","prefecture_code":23},"0042":{"zip_code":"4480042","prefecture":"愛知県","prefecture_kana":"アイチケン","city":"刈谷市","city_kana":"カリヤシ","town":"広見町","town_kana":"ヒロミチョウ","prefecture_code":23},"0854":{"zip_code":"4480854","prefecture":"愛知県","prefecture_kana":"アイチケン","city":"刈谷市","city_kana":"カリヤシ","town":"富士見町","town_kana":"フジミチョウ","prefecture_code":23},"0822":{"zip_code":"4480822","prefecture":"愛知県","prefecture_kana":"アイチケン","city":"刈谷市","city_kana":"カリヤシ","town":"松坂町","town_kana":"マツザカチョウ","prefecture_code":23},"0033":{"zip_code":"4480033","prefecture":"愛知県","prefecture_kana":"アイチケン","city":"刈谷市","city_kana":"カリヤシ","town":"丸田町","town_kana":"マルタチョウ","prefecture_code":23},"0048":{"zip_code":"4480048","prefecture":"愛知県","prefecture_kana":"アイチケン","city":"刈谷市","city_kana":"カリヤシ","town":"三田町","town_kana":"ミタチョウ","prefecture_code":23},"0835":{"zip_code":"4480835","prefecture":"愛知県","prefecture_kana":"アイチケン","city":"刈谷市","city_kana":"カリヤシ","town":"港町","town_kana":"ミナトマチ","prefecture_code":23},"0809":{"zip_code":"4480809","prefecture":"愛知県","prefecture_kana":"アイチケン","city":"刈谷市","city_kana":"カリヤシ","town":"南沖野町","town_kana":"ミナミオキノチョウ","prefecture_code":23},"0841":{"zip_code":"4480841","prefecture":"愛知県","prefecture_kana":"アイチケン","city":"刈谷市","city_kana":"カリヤシ","town":"南桜町","town_kana":"ミナミサクラマチ","prefecture_code":23},"0821":{"zip_code":"4480821","prefecture":"愛知県","prefecture_kana":"アイチケン","city":"刈谷市","city_kana":"カリヤシ","town":"御幸町","town_kana":"ミユキチョウ","prefecture_code":23},"0825":{"zip_code":"4480825","prefecture":"愛知県","prefecture_kana":"アイチケン","city":"刈谷市","city_kana":"カリヤシ","town":"元町","town_kana":"モトマチ","prefecture_code":23},"0035":{"zip_code":"4480035","prefecture":"愛知県","prefecture_kana":"アイチケン","city":"刈谷市","city_kana":"カリヤシ","town":"矢場町","town_kana":"ヤバチョウ","prefecture_code":23},"0036":{"zip_code":"4480036","prefecture":"愛知県","prefecture_kana":"アイチケン","city":"刈谷市","city_kana":"カリヤシ","town":"山池町","town_kana":"ヤマイケチョウ","prefecture_code":23},"0858":{"zip_code":"4480858","prefecture":"愛知県","prefecture_kana":"アイチケン","city":"刈谷市","city_kana":"カリヤシ","town":"若松町","town_kana":"ワカマツチョウ","prefecture_code":23}}