{"0813":{"zip_code":"4520813","prefecture":"愛知県","prefecture_kana":"アイチケン","city":"名古屋市西区","city_kana":"ナゴヤシニシク","town":"赤城町","town_kana":"アカシロチョウ","prefecture_code":23},"0823":{"zip_code":"4520823","prefecture":"愛知県","prefecture_kana":"アイチケン","city":"名古屋市西区","city_kana":"ナゴヤシニシク","town":"あし原町","town_kana":"アシハラチョウ","prefecture_code":23},"0836":{"zip_code":"4520836","prefecture":"愛知県","prefecture_kana":"アイチケン","city":"名古屋市西区","city_kana":"ナゴヤシニシク","town":"新木町","town_kana":"アラキチョウ","prefecture_code":23},"0805":{"zip_code":"4520805","prefecture":"愛知県","prefecture_kana":"アイチケン","city":"名古屋市西区","city_kana":"ナゴヤシニシク","town":"市場木町","town_kana":"イチバギチョウ","prefecture_code":23},"0846":{"zip_code":"4520846","prefecture":"愛知県","prefecture_kana":"アイチケン","city":"名古屋市西区","city_kana":"ナゴヤシニシク","town":"浮野町","town_kana":"ウキノチョウ","prefecture_code":23},"0807":{"zip_code":"4520807","prefecture":"愛知県","prefecture_kana":"アイチケン","city":"名古屋市西区","city_kana":"ナゴヤシニシク","town":"歌里町","town_kana":"ウタサトチョウ","prefecture_code":23},"0831":{"zip_code":"4520831","prefecture":"愛知県","prefecture_kana":"アイチケン","city":"名古屋市西区","city_kana":"ナゴヤシニシク","town":"円明町","town_kana":"エンメイチョウ","prefecture_code":23},"0803":{"zip_code":"4520803","prefecture":"愛知県","prefecture_kana":"アイチケン","city":"名古屋市西区","city_kana":"ナゴヤシニシク","town":"大野木","town_kana":"オオノギ","prefecture_code":23},"0821":{"zip_code":"4520821","prefecture":"愛知県","prefecture_kana":"アイチケン","city":"名古屋市西区","city_kana":"ナゴヤシニシク","town":"上小田井","town_kana":"カミオタイ","prefecture_code":23},"0844":{"zip_code":"4520844","prefecture":"愛知県","prefecture_kana":"アイチケン","city":"名古屋市西区","city_kana":"ナゴヤシニシク","town":"上橋町","town_kana":"カミバシチョウ","prefecture_code":23},"0816":{"zip_code":"4520816","prefecture":"愛知県","prefecture_kana":"アイチケン","city":"名古屋市西区","city_kana":"ナゴヤシニシク","town":"貴生町","town_kana":"キセイチョウ","prefecture_code":23},"0834":{"zip_code":"4520834","prefecture":"愛知県","prefecture_kana":"アイチケン","city":"名古屋市西区","city_kana":"ナゴヤシニシク","town":"木前町","town_kana":"キマエチョウ","prefecture_code":23},"0801":{"zip_code":"4520801","prefecture":"愛知県","prefecture_kana":"アイチケン","city":"名古屋市西区","city_kana":"ナゴヤシニシク","town":"清里町","town_kana":"キヨサトチョウ","prefecture_code":23},"0806":{"zip_code":"4520806","prefecture":"愛知県","prefecture_kana":"アイチケン","city":"名古屋市西区","city_kana":"ナゴヤシニシク","town":"五才美町","town_kana":"ゴサイビチョウ","prefecture_code":23},"0824":{"zip_code":"4520824","prefecture":"愛知県","prefecture_kana":"アイチケン","city":"名古屋市西区","city_kana":"ナゴヤシニシク","town":"こも原町","town_kana":"コモハラチョウ","prefecture_code":23},"0804":{"zip_code":"4520804","prefecture":"愛知県","prefecture_kana":"アイチケン","city":"名古屋市西区","city_kana":"ナゴヤシニシク","town":"坂井戸町","town_kana":"サカイドチョウ","prefecture_code":23},"0841":{"zip_code":"4520841","prefecture":"愛知県","prefecture_kana":"アイチケン","city":"名古屋市西区","city_kana":"ナゴヤシニシク","town":"城西町","town_kana":"シロニシチョウ","prefecture_code":23},"0842":{"zip_code":"4520842","prefecture":"愛知県","prefecture_kana":"アイチケン","city":"名古屋市西区","city_kana":"ナゴヤシニシク","town":"城町","town_kana":"シロマチ","prefecture_code":23},"0811":{"zip_code":"4520811","prefecture":"愛知県","prefecture_kana":"アイチケン","city":"名古屋市西区","city_kana":"ナゴヤシニシク","town":"砂原町","town_kana":"スナハラチョウ","prefecture_code":23},"0812":{"zip_code":"4520812","prefecture":"愛知県","prefecture_kana":"アイチケン","city":"名古屋市西区","city_kana":"ナゴヤシニシク","town":"玉池町","town_kana":"タマイケチョウ","prefecture_code":23},"0837":{"zip_code":"4520837","prefecture":"愛知県","prefecture_kana":"アイチケン","city":"名古屋市西区","city_kana":"ナゴヤシニシク","town":"十方町","town_kana":"トオホウチョウ","prefecture_code":23},"0822":{"zip_code":"4520822","prefecture":"愛知県","prefecture_kana":"アイチケン","city":"名古屋市西区","city_kana":"ナゴヤシニシク","town":"中小田井","town_kana":"ナカオタイ","prefecture_code":23},"0845":{"zip_code":"4520845","prefecture":"愛知県","prefecture_kana":"アイチケン","city":"名古屋市西区","city_kana":"ナゴヤシニシク","town":"中沼町","town_kana":"ナカヌマチョウ","prefecture_code":23},"0838":{"zip_code":"4520838","prefecture":"愛知県","prefecture_kana":"アイチケン","city":"名古屋市西区","city_kana":"ナゴヤシニシク","town":"長先町","town_kana":"ナガサキチョウ","prefecture_code":23},"0848":{"zip_code":"4520848","prefecture":"愛知県","prefecture_kana":"アイチケン","city":"名古屋市西区","city_kana":"ナゴヤシニシク","town":"西原町","town_kana":"ニシハラチョウ","prefecture_code":23},"0847":{"zip_code":"4520847","prefecture":"愛知県","prefecture_kana":"アイチケン","city":"名古屋市西区","city_kana":"ナゴヤシニシク","town":"野南町","town_kana":"ノミナミチョウ","prefecture_code":23},"0809":{"zip_code":"4520809","prefecture":"愛知県","prefecture_kana":"アイチケン","city":"名古屋市西区","city_kana":"ナゴヤシニシク","town":"花原町","town_kana":"ハナハラチョウ","prefecture_code":23},"0802":{"zip_code":"4520802","prefecture":"愛知県","prefecture_kana":"アイチケン","city":"名古屋市西区","city_kana":"ナゴヤシニシク","town":"比良","town_kana":"ヒラ","prefecture_code":23},"0832":{"zip_code":"4520832","prefecture":"愛知県","prefecture_kana":"アイチケン","city":"名古屋市西区","city_kana":"ナゴヤシニシク","town":"平出町","town_kana":"ヒラデチョウ","prefecture_code":23},"0843":{"zip_code":"4520843","prefecture":"愛知県","prefecture_kana":"アイチケン","city":"名古屋市西区","city_kana":"ナゴヤシニシク","town":"平中町","town_kana":"ヒラナカチョウ","prefecture_code":23},"0817":{"zip_code":"4520817","prefecture":"愛知県","prefecture_kana":"アイチケン","city":"名古屋市西区","city_kana":"ナゴヤシニシク","town":"二方町","town_kana":"フタカタチョウ","prefecture_code":23},"0808":{"zip_code":"4520808","prefecture":"愛知県","prefecture_kana":"アイチケン","city":"名古屋市西区","city_kana":"ナゴヤシニシク","town":"宝地町","town_kana":"ホウチチョウ","prefecture_code":23},"0835":{"zip_code":"4520835","prefecture":"愛知県","prefecture_kana":"アイチケン","city":"名古屋市西区","city_kana":"ナゴヤシニシク","town":"丸野","town_kana":"マルノ","prefecture_code":23},"0814":{"zip_code":"4520814","prefecture":"愛知県","prefecture_kana":"アイチケン","city":"名古屋市西区","city_kana":"ナゴヤシニシク","town":"南川町","town_kana":"ミナミカワチョウ","prefecture_code":23},"0839":{"zip_code":"4520839","prefecture":"愛知県","prefecture_kana":"アイチケン","city":"名古屋市西区","city_kana":"ナゴヤシニシク","town":"見寄町","town_kana":"ミヨリチョウ","prefecture_code":23},"0815":{"zip_code":"4520815","prefecture":"愛知県","prefecture_kana":"アイチケン","city":"名古屋市西区","city_kana":"ナゴヤシニシク","town":"八筋町","town_kana":"ヤスジチョウ","prefecture_code":23},"0833":{"zip_code":"4520833","prefecture":"愛知県","prefecture_kana":"アイチケン","city":"名古屋市西区","city_kana":"ナゴヤシニシク","town":"山木","town_kana":"ヤマキ","prefecture_code":23},"0818":{"zip_code":"4520818","prefecture":"愛知県","prefecture_kana":"アイチケン","city":"名古屋市西区","city_kana":"ナゴヤシニシク","town":"山田町","town_kana":"ヤマダチョウ","prefecture_code":23},"0000":{"zip_code":"4520000","prefecture":"愛知県","prefecture_kana":"アイチケン","city":"清須市","city_kana":"キヨスシ","town":"","town_kana":"","prefecture_code":23},"0932":{"zip_code":"4520932","prefecture":"愛知県","prefecture_kana":"アイチケン","city":"清須市","city_kana":"キヨスシ","town":"朝日","town_kana":"アサヒ","prefecture_code":23},"0901":{"zip_code":"4520901","prefecture":"愛知県","prefecture_kana":"アイチケン","city":"清須市","city_kana":"キヨスシ","town":"阿原","town_kana":"アワラ","prefecture_code":23},"0931":{"zip_code":"4520931","prefecture":"愛知県","prefecture_kana":"アイチケン","city":"清須市","city_kana":"キヨスシ","town":"一場","town_kana":"イチバ","prefecture_code":23},"0934":{"zip_code":"4520934","prefecture":"愛知県","prefecture_kana":"アイチケン","city":"清須市","city_kana":"キヨスシ","town":"大嶋","town_kana":"オオシマ","prefecture_code":23},"0963":{"zip_code":"4520963","prefecture":"愛知県","prefecture_kana":"アイチケン","city":"清須市","city_kana":"キヨスシ","town":"下津町","town_kana":"オリヅチョウ","prefecture_code":23},"0913":{"zip_code":"4520913","prefecture":"愛知県","prefecture_kana":"アイチケン","city":"清須市","city_kana":"キヨスシ","town":"上河原","town_kana":"カミガワラ","prefecture_code":23},"0935":{"zip_code":"4520935","prefecture":"愛知県","prefecture_kana":"アイチケン","city":"清須市","city_kana":"キヨスシ","town":"北市場本町","town_kana":"キタイチバホンマチ","prefecture_code":23},"0942":{"zip_code":"4520942","prefecture":"愛知県","prefecture_kana":"アイチケン","city":"清須市","city_kana":"キヨスシ","town":"清洲","town_kana":"キヨス","prefecture_code":23},"0916":{"zip_code":"4520916","prefecture":"愛知県","prefecture_kana":"アイチケン","city":"清須市","city_kana":"キヨスシ","town":"下河原","town_kana":"シモガワラ","prefecture_code":23},"0944":{"zip_code":"4520944","prefecture":"愛知県","prefecture_kana":"アイチケン","city":"清須市","city_kana":"キヨスシ","town":"上条","town_kana":"ジョウジョウ","prefecture_code":23},"0943":{"zip_code":"4520943","prefecture":"愛知県","prefecture_kana":"アイチケン","city":"清須市","city_kana":"キヨスシ","town":"新清洲","town_kana":"シンキヨス","prefecture_code":23},"0905":{"zip_code":"4520905","prefecture":"愛知県","prefecture_kana":"アイチケン","city":"清須市","city_kana":"キヨスシ","town":"須ケ口","town_kana":"スカグチ","prefecture_code":23},"0912":{"zip_code":"4520912","prefecture":"愛知県","prefecture_kana":"アイチケン","city":"清須市","city_kana":"キヨスシ","town":"須ケ口駅前","town_kana":"スカグチエキマエ","prefecture_code":23},"0903":{"zip_code":"4520903","prefecture":"愛知県","prefecture_kana":"アイチケン","city":"清須市","city_kana":"キヨスシ","town":"助七","town_kana":"スケシチ","prefecture_code":23},"0902":{"zip_code":"4520902","prefecture":"愛知県","prefecture_kana":"アイチケン","city":"清須市","city_kana":"キヨスシ","town":"助七","town_kana":"スケシチ","prefecture_code":23},"0945":{"zip_code":"4520945","prefecture":"愛知県","prefecture_kana":"アイチケン","city":"清須市","city_kana":"キヨスシ","town":"土田","town_kana":"ツチダ","prefecture_code":23},"0908":{"zip_code":"4520908","prefecture":"愛知県","prefecture_kana":"アイチケン","city":"清須市","city_kana":"キヨスシ","town":"寺野","town_kana":"テラノ","prefecture_code":23},"0918":{"zip_code":"4520918","prefecture":"愛知県","prefecture_kana":"アイチケン","city":"清須市","city_kana":"キヨスシ","town":"桃栄","town_kana":"トウエイ","prefecture_code":23},"0914":{"zip_code":"4520914","prefecture":"愛知県","prefecture_kana":"アイチケン","city":"清須市","city_kana":"キヨスシ","town":"土器野","town_kana":"ドキノ","prefecture_code":23},"0915":{"zip_code":"4520915","prefecture":"愛知県","prefecture_kana":"アイチケン","city":"清須市","city_kana":"キヨスシ","town":"中河原","town_kana":"ナカガワラ","prefecture_code":23},"0907":{"zip_code":"4520907","prefecture":"愛知県","prefecture_kana":"アイチケン","city":"清須市","city_kana":"キヨスシ","town":"鍋片","town_kana":"ナベカタ","prefecture_code":23},"0941":{"zip_code":"4520941","prefecture":"愛知県","prefecture_kana":"アイチケン","city":"清須市","city_kana":"キヨスシ","town":"西市場","town_kana":"ニシイチバ","prefecture_code":23},"0911":{"zip_code":"4520911","prefecture":"愛知県","prefecture_kana":"アイチケン","city":"清須市","city_kana":"キヨスシ","town":"西須ケ口","town_kana":"ニシスカグチ","prefecture_code":23},"0933":{"zip_code":"4520933","prefecture":"愛知県","prefecture_kana":"アイチケン","city":"清須市","city_kana":"キヨスシ","town":"西田中","town_kana":"ニシタナカ","prefecture_code":23},"0064":{"zip_code":"4520064","prefecture":"愛知県","prefecture_kana":"アイチケン","city":"清須市","city_kana":"キヨスシ","town":"西枇杷島町旭","town_kana":"ニシビワジマチョウアサヒ","prefecture_code":23},"0015":{"zip_code":"4520015","prefecture":"愛知県","prefecture_kana":"アイチケン","city":"清須市","city_kana":"キヨスシ","town":"西枇杷島町泉","town_kana":"ニシビワジマチョウイズミ","prefecture_code":23},"0007":{"zip_code":"4520007","prefecture":"愛知県","prefecture_kana":"アイチケン","city":"清須市","city_kana":"キヨスシ","town":"西枇杷島町一反五畝割","town_kana":"ニシビワジマチョウイッタンゴセワリ","prefecture_code":23},"0010":{"zip_code":"4520010","prefecture":"愛知県","prefecture_kana":"アイチケン","city":"清須市","city_kana":"キヨスシ","town":"西枇杷島町稲株","town_kana":"ニシビワジマチョウイナカブ","prefecture_code":23},"0005":{"zip_code":"4520005","prefecture":"愛知県","prefecture_kana":"アイチケン","city":"清須市","city_kana":"キヨスシ","town":"西枇杷島町恵比須","town_kana":"ニシビワジマチョウエビス","prefecture_code":23},"0051":{"zip_code":"4520051","prefecture":"愛知県","prefecture_kana":"アイチケン","city":"清須市","city_kana":"キヨスシ","town":"西枇杷島町大野","town_kana":"ニシビワジマチョウオオノ","prefecture_code":23},"0014":{"zip_code":"4520014","prefecture":"愛知県","prefecture_kana":"アイチケン","city":"清須市","city_kana":"キヨスシ","town":"西枇杷島町押花","town_kana":"ニシビワジマチョウオシバナ","prefecture_code":23},"0021":{"zip_code":"4520021","prefecture":"愛知県","prefecture_kana":"アイチケン","city":"清須市","city_kana":"キヨスシ","town":"西枇杷島町小田井","town_kana":"ニシビワジマチョウオタイ","prefecture_code":23},"0041":{"zip_code":"4520041","prefecture":"愛知県","prefecture_kana":"アイチケン","city":"清須市","city_kana":"キヨスシ","town":"西枇杷島町小野田","town_kana":"ニシビワジマチョウオノダ","prefecture_code":23},"0067":{"zip_code":"4520067","prefecture":"愛知県","prefecture_kana":"アイチケン","city":"清須市","city_kana":"キヨスシ","town":"西枇杷島町替地","town_kana":"ニシビワジマチョウカエチ","prefecture_code":23},"0024":{"zip_code":"4520024","prefecture":"愛知県","prefecture_kana":"アイチケン","city":"清須市","city_kana":"キヨスシ","town":"西枇杷島町片町","town_kana":"ニシビワジマチョウカタマチ","prefecture_code":23},"0022":{"zip_code":"4520022","prefecture":"愛知県","prefecture_kana":"アイチケン","city":"清須市","city_kana":"キヨスシ","town":"西枇杷島町上新","town_kana":"ニシビワジマチョウカミシン","prefecture_code":23},"0042":{"zip_code":"4520042","prefecture":"愛知県","prefecture_kana":"アイチケン","city":"清須市","city_kana":"キヨスシ","town":"西枇杷島町川口","town_kana":"ニシビワジマチョウカワグチ","prefecture_code":23},"0055":{"zip_code":"4520055","prefecture":"愛知県","prefecture_kana":"アイチケン","city":"清須市","city_kana":"キヨスシ","town":"西枇杷島町北二ツ杁","town_kana":"ニシビワジマチョウキタフタツイリ","prefecture_code":23},"0012":{"zip_code":"4520012","prefecture":"愛知県","prefecture_kana":"アイチケン","city":"清須市","city_kana":"キヨスシ","town":"西枇杷島町北大和","town_kana":"ニシビワジマチョウキタヤマト","prefecture_code":23},"0001":{"zip_code":"4520001","prefecture":"愛知県","prefecture_kana":"アイチケン","city":"清須市","city_kana":"キヨスシ","town":"西枇杷島町古城","town_kana":"ニシビワジマチョウコジョウ","prefecture_code":23},"0062":{"zip_code":"4520062","prefecture":"愛知県","prefecture_kana":"アイチケン","city":"清須市","city_kana":"キヨスシ","town":"西枇杷島町五畝割","town_kana":"ニシビワジマチョウゴセワリ","prefecture_code":23},"0061":{"zip_code":"4520061","prefecture":"愛知県","prefecture_kana":"アイチケン","city":"清須市","city_kana":"キヨスシ","town":"西枇杷島町小場塚","town_kana":"ニシビワジマチョウコバヅカ","prefecture_code":23},"0066":{"zip_code":"4520066","prefecture":"愛知県","prefecture_kana":"アイチケン","city":"清須市","city_kana":"キヨスシ","town":"西枇杷島町芝野新田","town_kana":"ニシビワジマチョウシバノシンデン","prefecture_code":23},"0023":{"zip_code":"4520023","prefecture":"愛知県","prefecture_kana":"アイチケン","city":"清須市","city_kana":"キヨスシ","town":"西枇杷島町下新","town_kana":"ニシビワジマチョウシモシン","prefecture_code":23},"0017":{"zip_code":"4520017","prefecture":"愛知県","prefecture_kana":"アイチケン","city":"清須市","city_kana":"キヨスシ","town":"西枇杷島町下砂入","town_kana":"ニシビワジマチョウシモスイリ","prefecture_code":23},"0025":{"zip_code":"4520025","prefecture":"愛知県","prefecture_kana":"アイチケン","city":"清須市","city_kana":"キヨスシ","town":"西枇杷島町十軒裏","town_kana":"ニシビワジマチョウジュツケンウラ","prefecture_code":23},"0011":{"zip_code":"4520011","prefecture":"愛知県","prefecture_kana":"アイチケン","city":"清須市","city_kana":"キヨスシ","town":"西枇杷島町城並","town_kana":"ニシビワジマチョウジョウナミ","prefecture_code":23},"0016":{"zip_code":"4520016","prefecture":"愛知県","prefecture_kana":"アイチケン","city":"清須市","city_kana":"キヨスシ","town":"西枇杷島町砂入","town_kana":"ニシビワジマチョウスイリ","prefecture_code":23},"0003":{"zip_code":"4520003","prefecture":"愛知県","prefecture_kana":"アイチケン","city":"清須市","city_kana":"キヨスシ","town":"西枇杷島町末広","town_kana":"ニシビワジマチョウスエヒロ","prefecture_code":23},"0018":{"zip_code":"4520018","prefecture":"愛知県","prefecture_kana":"アイチケン","city":"清須市","city_kana":"キヨスシ","town":"西枇杷島町住吉","town_kana":"ニシビワジマチョウスミヨシ","prefecture_code":23},"0004":{"zip_code":"4520004","prefecture":"愛知県","prefecture_kana":"アイチケン","city":"清須市","city_kana":"キヨスシ","town":"西枇杷島町大黒","town_kana":"ニシビワジマチョウダイコク","prefecture_code":23},"0052":{"zip_code":"4520052","prefecture":"愛知県","prefecture_kana":"アイチケン","city":"清須市","city_kana":"キヨスシ","town":"西枇杷島町辰新田","town_kana":"ニシビワジマチョウタツシンデン","prefecture_code":23},"0008":{"zip_code":"4520008","prefecture":"愛知県","prefecture_kana":"アイチケン","city":"清須市","city_kana":"キヨスシ","town":"西枇杷島町地領","town_kana":"ニシビワジマチョウチリョウ","prefecture_code":23},"0035":{"zip_code":"4520035","prefecture":"愛知県","prefecture_kana":"アイチケン","city":"清須市","city_kana":"キヨスシ","town":"西枇杷島町問屋","town_kana":"ニシビワジマチョウトンヤ","prefecture_code":23},"0063":{"zip_code":"4520063","prefecture":"愛知県","prefecture_kana":"アイチケン","city":"清須市","city_kana":"キヨスシ","town":"西枇杷島町七畝割","town_kana":"ニシビワジマチョウナナセワリ","prefecture_code":23},"0046":{"zip_code":"4520046","prefecture":"愛知県","prefecture_kana":"アイチケン","city":"清須市","city_kana":"キヨスシ","town":"西枇杷島町西笹子原","town_kana":"ニシビワジマチョウニシササコハラ","prefecture_code":23},"0009":{"zip_code":"4520009","prefecture":"愛知県","prefecture_kana":"アイチケン","city":"清須市","city_kana":"キヨスシ","town":"西枇杷島町西八丁","town_kana":"ニシビワジマチョウニシハッチョウ","prefecture_code":23},"0045":{"zip_code":"4520045","prefecture":"愛知県","prefecture_kana":"アイチケン","city":"清須市","city_kana":"キヨスシ","town":"西枇杷島町西六軒","town_kana":"ニシビワジマチョウニシロッケン","prefecture_code":23},"0068":{"zip_code":"4520068","prefecture":"愛知県","prefecture_kana":"アイチケン","city":"清須市","city_kana":"キヨスシ","town":"西枇杷島町子新田","town_kana":"ニシビワジマチョウネシンデン","prefecture_code":23},"0026":{"zip_code":"4520026","prefecture":"愛知県","prefecture_kana":"アイチケン","city":"清須市","city_kana":"キヨスシ","town":"西枇杷島町橋詰","town_kana":"ニシビワジマチョウハシヅメ","prefecture_code":23},"0002":{"zip_code":"4520002","prefecture":"愛知県","prefecture_kana":"アイチケン","city":"清須市","city_kana":"キヨスシ","town":"西枇杷島町花咲","town_kana":"ニシビワジマチョウハナサキ","prefecture_code":23},"0047":{"zip_code":"4520047","prefecture":"愛知県","prefecture_kana":"アイチケン","city":"清須市","city_kana":"キヨスシ","town":"西枇杷島町東笹子原","town_kana":"ニシビワジマチョウヒガシササコハラ","prefecture_code":23},"0043":{"zip_code":"4520043","prefecture":"愛知県","prefecture_kana":"アイチケン","city":"清須市","city_kana":"キヨスシ","town":"西枇杷島町東六軒","town_kana":"ニシビワジマチョウヒガシロッケン","prefecture_code":23},"0034":[{"zip_code":"4520034","prefecture":"愛知県","prefecture_kana":"アイチケン","city":"清須市","city_kana":"キヨスシ","town":"西枇杷島町日之出","town_kana":"ニシビワジマチョウヒノデ","prefecture_code":23},{"zip_code":"4520034","prefecture":"愛知県","prefecture_kana":"アイチケン","city":"清須市","city_kana":"キヨスシ","town":"西枇杷島町日の出","town_kana":"ニシビワジマチョウヒノデ","prefecture_code":23}],"0033":{"zip_code":"4520033","prefecture":"愛知県","prefecture_kana":"アイチケン","city":"清須市","city_kana":"キヨスシ","town":"西枇杷島町二見","town_kana":"ニシビワジマチョウフタミ","prefecture_code":23},"0006":{"zip_code":"4520006","prefecture":"愛知県","prefecture_kana":"アイチケン","city":"清須市","city_kana":"キヨスシ","town":"西枇杷島町弁天","town_kana":"ニシビワジマチョウベンテン","prefecture_code":23},"0036":{"zip_code":"4520036","prefecture":"愛知県","prefecture_kana":"アイチケン","city":"清須市","city_kana":"キヨスシ","town":"西枇杷島町南問屋","town_kana":"ニシビワジマチョウミナミトンヤ","prefecture_code":23},"0054":{"zip_code":"4520054","prefecture":"愛知県","prefecture_kana":"アイチケン","city":"清須市","city_kana":"キヨスシ","town":"西枇杷島町南二ツ杁","town_kana":"ニシビワジマチョウミナミフタツイリ","prefecture_code":23},"0053":{"zip_code":"4520053","prefecture":"愛知県","prefecture_kana":"アイチケン","city":"清須市","city_kana":"キヨスシ","town":"西枇杷島町南松原","town_kana":"ニシビワジマチョウミナミマツバラ","prefecture_code":23},"0013":{"zip_code":"4520013","prefecture":"愛知県","prefecture_kana":"アイチケン","city":"清須市","city_kana":"キヨスシ","town":"西枇杷島町南大和","town_kana":"ニシビワジマチョウミナミヤマト","prefecture_code":23},"0044":{"zip_code":"4520044","prefecture":"愛知県","prefecture_kana":"アイチケン","city":"清須市","city_kana":"キヨスシ","town":"西枇杷島町南六軒","town_kana":"ニシビワジマチョウミナミロッケン","prefecture_code":23},"0031":{"zip_code":"4520031","prefecture":"愛知県","prefecture_kana":"アイチケン","city":"清須市","city_kana":"キヨスシ","town":"西枇杷島町宮前","town_kana":"ニシビワジマチョウミヤマエ","prefecture_code":23},"0032":{"zip_code":"4520032","prefecture":"愛知県","prefecture_kana":"アイチケン","city":"清須市","city_kana":"キヨスシ","town":"西枇杷島町養和","town_kana":"ニシビワジマチョウヨウワ","prefecture_code":23},"0065":{"zip_code":"4520065","prefecture":"愛知県","prefecture_kana":"アイチケン","city":"清須市","city_kana":"キヨスシ","town":"西枇杷島町芳野","town_kana":"ニシビワジマチョウヨシノ","prefecture_code":23},"0917":{"zip_code":"4520917","prefecture":"愛知県","prefecture_kana":"アイチケン","city":"清須市","city_kana":"キヨスシ","town":"西堀江","town_kana":"ニシホリエ","prefecture_code":23},"0919":{"zip_code":"4520919","prefecture":"愛知県","prefecture_kana":"アイチケン","city":"清須市","city_kana":"キヨスシ","town":"萩野","town_kana":"ハギノ","prefecture_code":23},"0946":{"zip_code":"4520946","prefecture":"愛知県","prefecture_kana":"アイチケン","city":"清須市","city_kana":"キヨスシ","town":"廻間","town_kana":"ハサマ","prefecture_code":23},"0947":{"zip_code":"4520947","prefecture":"愛知県","prefecture_kana":"アイチケン","city":"清須市","city_kana":"キヨスシ","town":"花水木","town_kana":"ハナミズキ","prefecture_code":23},"0962":[{"zip_code":"4520962","prefecture":"愛知県","prefecture_kana":"アイチケン","city":"清須市","city_kana":"キヨスシ","town":"春日県","town_kana":"ハルヒアガタ","prefecture_code":23},{"zip_code":"4520962","prefecture":"愛知県","prefecture_kana":"アイチケン","city":"清須市","city_kana":"キヨスシ","town":"春日江先","town_kana":"ハルヒエサキ","prefecture_code":23},{"zip_code":"4520962","prefecture":"愛知県","prefecture_kana":"アイチケン","city":"清須市","city_kana":"キヨスシ","town":"春日川中","town_kana":"ハルヒカワナカ","prefecture_code":23},{"zip_code":"4520962","prefecture":"愛知県","prefecture_kana":"アイチケン","city":"清須市","city_kana":"キヨスシ","town":"春日郷ケ島","town_kana":"ハルヒゴウガシマ","prefecture_code":23},{"zip_code":"4520962","prefecture":"愛知県","prefecture_kana":"アイチケン","city":"清須市","city_kana":"キヨスシ","town":"春日高札","town_kana":"ハルヒコウサツ","prefecture_code":23},{"zip_code":"4520962","prefecture":"愛知県","prefecture_kana":"アイチケン","city":"清須市","city_kana":"キヨスシ","town":"春日五反地","town_kana":"ハルヒゴタンジ","prefecture_code":23},{"zip_code":"4520962","prefecture":"愛知県","prefecture_kana":"アイチケン","city":"清須市","city_kana":"キヨスシ","town":"春日社子地","town_kana":"ハルヒシャゴジ","prefecture_code":23},{"zip_code":"4520962","prefecture":"愛知県","prefecture_kana":"アイチケン","city":"清須市","city_kana":"キヨスシ","town":"春日白弓","town_kana":"ハルヒシラユミ","prefecture_code":23},{"zip_code":"4520962","prefecture":"愛知県","prefecture_kana":"アイチケン","city":"清須市","city_kana":"キヨスシ","town":"春日新田","town_kana":"ハルヒシンデン","prefecture_code":23},{"zip_code":"4520962","prefecture":"愛知県","prefecture_kana":"アイチケン","city":"清須市","city_kana":"キヨスシ","town":"春日新町","town_kana":"ハルヒシンマチ","prefecture_code":23},{"zip_code":"4520962","prefecture":"愛知県","prefecture_kana":"アイチケン","city":"清須市","city_kana":"キヨスシ","town":"春日神明","town_kana":"ハルヒシンメイ","prefecture_code":23},{"zip_code":"4520962","prefecture":"愛知県","prefecture_kana":"アイチケン","city":"清須市","city_kana":"キヨスシ","town":"春日砂賀東","town_kana":"ハルヒスカヒガシ","prefecture_code":23},{"zip_code":"4520962","prefecture":"愛知県","prefecture_kana":"アイチケン","city":"清須市","city_kana":"キヨスシ","town":"春日立作","town_kana":"ハルヒタテツクリ","prefecture_code":23},{"zip_code":"4520962","prefecture":"愛知県","prefecture_kana":"アイチケン","city":"清須市","city_kana":"キヨスシ","town":"春日長久寺","town_kana":"ハルヒチョウキュウジ","prefecture_code":23},{"zip_code":"4520962","prefecture":"愛知県","prefecture_kana":"アイチケン","city":"清須市","city_kana":"キヨスシ","town":"春日天神","town_kana":"ハルヒテンジン","prefecture_code":23},{"zip_code":"4520962","prefecture":"愛知県","prefecture_kana":"アイチケン","city":"清須市","city_kana":"キヨスシ","town":"春日鳥出","town_kana":"ハルヒトリデ","prefecture_code":23},{"zip_code":"4520962","prefecture":"愛知県","prefecture_kana":"アイチケン","city":"清須市","city_kana":"キヨスシ","town":"春日中沼","town_kana":"ハルヒナカヌマ","prefecture_code":23},{"zip_code":"4520962","prefecture":"愛知県","prefecture_kana":"アイチケン","city":"清須市","city_kana":"キヨスシ","town":"春日流","town_kana":"ハルヒナガレ","prefecture_code":23},{"zip_code":"4520962","prefecture":"愛知県","prefecture_kana":"アイチケン","city":"清須市","city_kana":"キヨスシ","town":"春日野田町","town_kana":"ハルヒノダマチ","prefecture_code":23},{"zip_code":"4520962","prefecture":"愛知県","prefecture_kana":"アイチケン","city":"清須市","city_kana":"キヨスシ","town":"春日冨士塚","town_kana":"ハルヒフジヅカ","prefecture_code":23},{"zip_code":"4520962","prefecture":"愛知県","prefecture_kana":"アイチケン","city":"清須市","city_kana":"キヨスシ","town":"春日舟付","town_kana":"ハルヒフナツキ","prefecture_code":23},{"zip_code":"4520962","prefecture":"愛知県","prefecture_kana":"アイチケン","city":"清須市","city_kana":"キヨスシ","town":"春日焼田","town_kana":"ハルヒヤケタ","prefecture_code":23}],"0961":[{"zip_code":"4520961","prefecture":"愛知県","prefecture_kana":"アイチケン","city":"清須市","city_kana":"キヨスシ","town":"春日明河原","town_kana":"ハルヒアケガワラ","prefecture_code":23},{"zip_code":"4520961","prefecture":"愛知県","prefecture_kana":"アイチケン","city":"清須市","city_kana":"キヨスシ","town":"春日一番割","town_kana":"ハルヒイチバンワリ","prefecture_code":23},{"zip_code":"4520961","prefecture":"愛知県","prefecture_kana":"アイチケン","city":"清須市","city_kana":"キヨスシ","town":"春日壱屋敷","town_kana":"ハルヒイチヤシキ","prefecture_code":23},{"zip_code":"4520961","prefecture":"愛知県","prefecture_kana":"アイチケン","city":"清須市","city_kana":"キヨスシ","town":"春日一本松","town_kana":"ハルヒイッポンマツ","prefecture_code":23},{"zip_code":"4520961","prefecture":"愛知県","prefecture_kana":"アイチケン","city":"清須市","city_kana":"キヨスシ","town":"春日稲荷","town_kana":"ハルヒイナリ","prefecture_code":23},{"zip_code":"4520961","prefecture":"愛知県","prefecture_kana":"アイチケン","city":"清須市","city_kana":"キヨスシ","town":"春日杁前","town_kana":"ハルヒイリマエ","prefecture_code":23},{"zip_code":"4520961","prefecture":"愛知県","prefecture_kana":"アイチケン","city":"清須市","city_kana":"キヨスシ","town":"春日午","town_kana":"ハルヒウマ","prefecture_code":23},{"zip_code":"4520961","prefecture":"愛知県","prefecture_kana":"アイチケン","city":"清須市","city_kana":"キヨスシ","town":"春日落合","town_kana":"ハルヒオチアイ","prefecture_code":23},{"zip_code":"4520961","prefecture":"愛知県","prefecture_kana":"アイチケン","city":"清須市","city_kana":"キヨスシ","town":"春日上丑","town_kana":"ハルヒカミウシ","prefecture_code":23},{"zip_code":"4520961","prefecture":"愛知県","prefecture_kana":"アイチケン","city":"清須市","city_kana":"キヨスシ","town":"春日上川畑","town_kana":"ハルヒカミカワバタ","prefecture_code":23},{"zip_code":"4520961","prefecture":"愛知県","prefecture_kana":"アイチケン","city":"清須市","city_kana":"キヨスシ","town":"春日上河原","town_kana":"ハルヒカミガワラ","prefecture_code":23},{"zip_code":"4520961","prefecture":"愛知県","prefecture_kana":"アイチケン","city":"清須市","city_kana":"キヨスシ","town":"春日上須ケ田","town_kana":"ハルヒカミスカタ","prefecture_code":23},{"zip_code":"4520961","prefecture":"愛知県","prefecture_kana":"アイチケン","city":"清須市","city_kana":"キヨスシ","town":"春日上高畑","town_kana":"ハルヒカミタカバタ","prefecture_code":23},{"zip_code":"4520961","prefecture":"愛知県","prefecture_kana":"アイチケン","city":"清須市","city_kana":"キヨスシ","town":"春日上堤クロ","town_kana":"ハルヒカミツツミクロ","prefecture_code":23},{"zip_code":"4520961","prefecture":"愛知県","prefecture_kana":"アイチケン","city":"清須市","city_kana":"キヨスシ","town":"春日上中割","town_kana":"ハルヒカミナカワリ","prefecture_code":23},{"zip_code":"4520961","prefecture":"愛知県","prefecture_kana":"アイチケン","city":"清須市","city_kana":"キヨスシ","town":"春日河原","town_kana":"ハルヒカワラ","prefecture_code":23},{"zip_code":"4520961","prefecture":"愛知県","prefecture_kana":"アイチケン","city":"清須市","city_kana":"キヨスシ","town":"春日桑","town_kana":"ハルヒクワ","prefecture_code":23},{"zip_code":"4520961","prefecture":"愛知県","prefecture_kana":"アイチケン","city":"清須市","city_kana":"キヨスシ","town":"春日郷裏","town_kana":"ハルヒゴウウラ","prefecture_code":23},{"zip_code":"4520961","prefecture":"愛知県","prefecture_kana":"アイチケン","city":"清須市","city_kana":"キヨスシ","town":"春日郷前","town_kana":"ハルヒゴウマエ","prefecture_code":23},{"zip_code":"4520961","prefecture":"愛知県","prefecture_kana":"アイチケン","city":"清須市","city_kana":"キヨスシ","town":"春日小塚西","town_kana":"ハルヒコヅカニシ","prefecture_code":23},{"zip_code":"4520961","prefecture":"愛知県","prefecture_kana":"アイチケン","city":"清須市","city_kana":"キヨスシ","town":"春日小塚南","town_kana":"ハルヒコヅカミナミ","prefecture_code":23},{"zip_code":"4520961","prefecture":"愛知県","prefecture_kana":"アイチケン","city":"清須市","city_kana":"キヨスシ","town":"春日小松生","town_kana":"ハルヒコマツバエ","prefecture_code":23},{"zip_code":"4520961","prefecture":"愛知県","prefecture_kana":"アイチケン","city":"清須市","city_kana":"キヨスシ","town":"春日三番割","town_kana":"ハルヒサンバンワリ","prefecture_code":23},{"zip_code":"4520961","prefecture":"愛知県","prefecture_kana":"アイチケン","city":"清須市","city_kana":"キヨスシ","town":"春日下丑","town_kana":"ハルヒシモウシ","prefecture_code":23},{"zip_code":"4520961","prefecture":"愛知県","prefecture_kana":"アイチケン","city":"清須市","city_kana":"キヨスシ","town":"春日下河原","town_kana":"ハルヒシモガワラ","prefecture_code":23},{"zip_code":"4520961","prefecture":"愛知県","prefecture_kana":"アイチケン","city":"清須市","city_kana":"キヨスシ","town":"春日下堤クロ","town_kana":"ハルヒシモツツミクロ","prefecture_code":23},{"zip_code":"4520961","prefecture":"愛知県","prefecture_kana":"アイチケン","city":"清須市","city_kana":"キヨスシ","town":"春日下中割","town_kana":"ハルヒシモナカワリ","prefecture_code":23},{"zip_code":"4520961","prefecture":"愛知県","prefecture_kana":"アイチケン","city":"清須市","city_kana":"キヨスシ","town":"春日定ノ割","town_kana":"ハルヒジョウノワリ","prefecture_code":23},{"zip_code":"4520961","prefecture":"愛知県","prefecture_kana":"アイチケン","city":"清須市","city_kana":"キヨスシ","town":"春日新田畑","town_kana":"ハルヒシンデンバタ","prefecture_code":23},{"zip_code":"4520961","prefecture":"愛知県","prefecture_kana":"アイチケン","city":"清須市","city_kana":"キヨスシ","town":"春日新堀","town_kana":"ハルヒシンボリ","prefecture_code":23},{"zip_code":"4520961","prefecture":"愛知県","prefecture_kana":"アイチケン","city":"清須市","city_kana":"キヨスシ","town":"春日新堀北","town_kana":"ハルヒシンボリキタ","prefecture_code":23},{"zip_code":"4520961","prefecture":"愛知県","prefecture_kana":"アイチケン","city":"清須市","city_kana":"キヨスシ","town":"春日須ケ田","town_kana":"ハルヒスカタ","prefecture_code":23},{"zip_code":"4520961","prefecture":"愛知県","prefecture_kana":"アイチケン","city":"清須市","city_kana":"キヨスシ","town":"春日須ケ畑","town_kana":"ハルヒスカバタ","prefecture_code":23},{"zip_code":"4520961","prefecture":"愛知県","prefecture_kana":"アイチケン","city":"清須市","city_kana":"キヨスシ","town":"春日大河戸","town_kana":"ハルヒタイコウド","prefecture_code":23},{"zip_code":"4520961","prefecture":"愛知県","prefecture_kana":"アイチケン","city":"清須市","city_kana":"キヨスシ","town":"春日高畑","town_kana":"ハルヒタカバタ","prefecture_code":23},{"zip_code":"4520961","prefecture":"愛知県","prefecture_kana":"アイチケン","city":"清須市","city_kana":"キヨスシ","town":"春日堤クロ","town_kana":"ハルヒツツミクロ","prefecture_code":23},{"zip_code":"4520961","prefecture":"愛知県","prefecture_kana":"アイチケン","city":"清須市","city_kana":"キヨスシ","town":"春日寺廻り","town_kana":"ハルヒテラマワリ","prefecture_code":23},{"zip_code":"4520961","prefecture":"愛知県","prefecture_kana":"アイチケン","city":"清須市","city_kana":"キヨスシ","town":"春日樋","town_kana":"ハルヒトイ","prefecture_code":23},{"zip_code":"4520961","prefecture":"愛知県","prefecture_kana":"アイチケン","city":"清須市","city_kana":"キヨスシ","town":"春日酉","town_kana":"ハルヒトリ","prefecture_code":23},{"zip_code":"4520961","prefecture":"愛知県","prefecture_kana":"アイチケン","city":"清須市","city_kana":"キヨスシ","town":"春日中河原","town_kana":"ハルヒナカガワラ","prefecture_code":23},{"zip_code":"4520961","prefecture":"愛知県","prefecture_kana":"アイチケン","city":"清須市","city_kana":"キヨスシ","town":"春日長畑","town_kana":"ハルヒナガハタ","prefecture_code":23},{"zip_code":"4520961","prefecture":"愛知県","prefecture_kana":"アイチケン","city":"清須市","city_kana":"キヨスシ","town":"春日西須ケ畑","town_kana":"ハルヒニシスカバタ","prefecture_code":23},{"zip_code":"4520961","prefecture":"愛知県","prefecture_kana":"アイチケン","city":"清須市","city_kana":"キヨスシ","town":"春日西牧前","town_kana":"ハルヒニシマキマエ","prefecture_code":23},{"zip_code":"4520961","prefecture":"愛知県","prefecture_kana":"アイチケン","city":"清須市","city_kana":"キヨスシ","town":"春日西牧南","town_kana":"ハルヒニシマキミナミ","prefecture_code":23},{"zip_code":"4520961","prefecture":"愛知県","prefecture_kana":"アイチケン","city":"清須市","city_kana":"キヨスシ","town":"春日西余部","town_kana":"ハルヒニシヨベ","prefecture_code":23},{"zip_code":"4520961","prefecture":"愛知県","prefecture_kana":"アイチケン","city":"清須市","city_kana":"キヨスシ","town":"春日二番割","town_kana":"ハルヒニバンワリ","prefecture_code":23},{"zip_code":"4520961","prefecture":"愛知県","prefecture_kana":"アイチケン","city":"清須市","city_kana":"キヨスシ","town":"春日弐屋敷","town_kana":"ハルヒニヤシキ","prefecture_code":23},{"zip_code":"4520961","prefecture":"愛知県","prefecture_kana":"アイチケン","city":"清須市","city_kana":"キヨスシ","town":"春日野方","town_kana":"ハルヒノカタ","prefecture_code":23},{"zip_code":"4520961","prefecture":"愛知県","prefecture_kana":"アイチケン","city":"清須市","city_kana":"キヨスシ","town":"春日八幡","town_kana":"ハルヒハチマン","prefecture_code":23},{"zip_code":"4520961","prefecture":"愛知県","prefecture_kana":"アイチケン","city":"清須市","city_kana":"キヨスシ","town":"春日八幡裏","town_kana":"ハルヒハチマンウラ","prefecture_code":23},{"zip_code":"4520961","prefecture":"愛知県","prefecture_kana":"アイチケン","city":"清須市","city_kana":"キヨスシ","town":"春日八幡前","town_kana":"ハルヒハチマンマエ","prefecture_code":23},{"zip_code":"4520961","prefecture":"愛知県","prefecture_kana":"アイチケン","city":"清須市","city_kana":"キヨスシ","town":"春日八幡南","town_kana":"ハルヒハチマンミナミ","prefecture_code":23},{"zip_code":"4520961","prefecture":"愛知県","prefecture_kana":"アイチケン","city":"清須市","city_kana":"キヨスシ","town":"春日東小塚","town_kana":"ハルヒヒガシコヅカ","prefecture_code":23},{"zip_code":"4520961","prefecture":"愛知県","prefecture_kana":"アイチケン","city":"清須市","city_kana":"キヨスシ","town":"春日東須ケ畑","town_kana":"ハルヒヒガシスカバタ","prefecture_code":23},{"zip_code":"4520961","prefecture":"愛知県","prefecture_kana":"アイチケン","city":"清須市","city_kana":"キヨスシ","town":"春日東出","town_kana":"ハルヒヒガシデ","prefecture_code":23},{"zip_code":"4520961","prefecture":"愛知県","prefecture_kana":"アイチケン","city":"清須市","city_kana":"キヨスシ","town":"春日二ツ池","town_kana":"ハルヒフタツイケ","prefecture_code":23},{"zip_code":"4520961","prefecture":"愛知県","prefecture_kana":"アイチケン","city":"清須市","city_kana":"キヨスシ","town":"春日振形","town_kana":"ハルヒフリカタ","prefecture_code":23},{"zip_code":"4520961","prefecture":"愛知県","prefecture_kana":"アイチケン","city":"清須市","city_kana":"キヨスシ","town":"春日堀田","town_kana":"ハルヒホリタ","prefecture_code":23},{"zip_code":"4520961","prefecture":"愛知県","prefecture_kana":"アイチケン","city":"清須市","city_kana":"キヨスシ","town":"春日宮越","town_kana":"ハルヒミヤコシ","prefecture_code":23},{"zip_code":"4520961","prefecture":"愛知県","prefecture_kana":"アイチケン","city":"清須市","city_kana":"キヨスシ","town":"春日宮重","town_kana":"ハルヒミヤシゲ","prefecture_code":23},{"zip_code":"4520961","prefecture":"愛知県","prefecture_kana":"アイチケン","city":"清須市","city_kana":"キヨスシ","town":"春日宮重町","town_kana":"ハルヒミヤシゲマチ","prefecture_code":23},{"zip_code":"4520961","prefecture":"愛知県","prefecture_kana":"アイチケン","city":"清須市","city_kana":"キヨスシ","town":"春日向河原","town_kana":"ハルヒムコウガワラ","prefecture_code":23},{"zip_code":"4520961","prefecture":"愛知県","prefecture_kana":"アイチケン","city":"清須市","city_kana":"キヨスシ","town":"春日屋敷","town_kana":"ハルヒヤシキ","prefecture_code":23},{"zip_code":"4520961","prefecture":"愛知県","prefecture_kana":"アイチケン","city":"清須市","city_kana":"キヨスシ","town":"春日夢の森","town_kana":"ハルヒユメノモリ","prefecture_code":23},{"zip_code":"4520961","prefecture":"愛知県","prefecture_kana":"アイチケン","city":"清須市","city_kana":"キヨスシ","town":"春日四番割","town_kana":"ハルヒヨンバンワリ","prefecture_code":23},{"zip_code":"4520961","prefecture":"愛知県","prefecture_kana":"アイチケン","city":"清須市","city_kana":"キヨスシ","town":"春日蓮花寺前","town_kana":"ハルヒレンゲジマエ","prefecture_code":23}],"0904":{"zip_code":"4520904","prefecture":"愛知県","prefecture_kana":"アイチケン","city":"清須市","city_kana":"キヨスシ","town":"東須ケ口","town_kana":"ヒガシスカグチ","prefecture_code":23},"0906":{"zip_code":"4520906","prefecture":"愛知県","prefecture_kana":"アイチケン","city":"清須市","city_kana":"キヨスシ","town":"東外町","town_kana":"ヒガシソトマチ","prefecture_code":23},"0037":{"zip_code":"4520037","prefecture":"愛知県","prefecture_kana":"アイチケン","city":"清須市","city_kana":"キヨスシ","town":"枇杷島駅前東","town_kana":"ビワジマエキマエヒガシ","prefecture_code":23}}