{"0000":{"zip_code":"4530000","prefecture":"愛知県","prefecture_kana":"アイチケン","city":"名古屋市中村区","city_kana":"ナゴヤシナカムラク","town":"","town_kana":"","prefecture_code":23},"0848":{"zip_code":"4530848","prefecture":"愛知県","prefecture_kana":"アイチケン","city":"名古屋市中村区","city_kana":"ナゴヤシナカムラク","town":"荒輪井町","town_kana":"アラワイチョウ","prefecture_code":23},"0066":{"zip_code":"4530066","prefecture":"愛知県","prefecture_kana":"アイチケン","city":"名古屋市中村区","city_kana":"ナゴヤシナカムラク","town":"稲上町","town_kana":"イナカミチョウ","prefecture_code":23},"0849":{"zip_code":"4530849","prefecture":"愛知県","prefecture_kana":"アイチケン","city":"名古屋市中村区","city_kana":"ナゴヤシナカムラク","town":"稲西町","town_kana":"イナニシチョウ","prefecture_code":23},"0841":{"zip_code":"4530841","prefecture":"愛知県","prefecture_kana":"アイチケン","city":"名古屋市中村区","city_kana":"ナゴヤシナカムラク","town":"稲葉地町","town_kana":"イナバジチョウ","prefecture_code":23},"0057":{"zip_code":"4530057","prefecture":"愛知県","prefecture_kana":"アイチケン","city":"名古屋市中村区","city_kana":"ナゴヤシナカムラク","town":"稲葉地本通","town_kana":"イナバジホントオリ","prefecture_code":23},"0832":{"zip_code":"4530832","prefecture":"愛知県","prefecture_kana":"アイチケン","city":"名古屋市中村区","city_kana":"ナゴヤシナカムラク","town":"乾出町","town_kana":"イヌイデチョウ","prefecture_code":23},"0038":{"zip_code":"4530038","prefecture":"愛知県","prefecture_kana":"アイチケン","city":"名古屋市中村区","city_kana":"ナゴヤシナカムラク","town":"猪之越町","town_kana":"イノコシチョウ","prefecture_code":23},"0012":{"zip_code":"4530012","prefecture":"愛知県","prefecture_kana":"アイチケン","city":"名古屋市中村区","city_kana":"ナゴヤシナカムラク","town":"井深町","town_kana":"イブカチョウ","prefecture_code":23},"0847":{"zip_code":"4530847","prefecture":"愛知県","prefecture_kana":"アイチケン","city":"名古屋市中村区","city_kana":"ナゴヤシナカムラク","town":"岩上町","town_kana":"イワカミチョウ","prefecture_code":23},"0862":{"zip_code":"4530862","prefecture":"愛知県","prefecture_kana":"アイチケン","city":"名古屋市中村区","city_kana":"ナゴヤシナカムラク","town":"岩塚町","town_kana":"イワツカチョウ","prefecture_code":23},"0861":{"zip_code":"4530861","prefecture":"愛知県","prefecture_kana":"アイチケン","city":"名古屋市中村区","city_kana":"ナゴヤシナカムラク","town":"岩塚本通","town_kana":"イワツカホントオリ","prefecture_code":23},"0853":{"zip_code":"4530853","prefecture":"愛知県","prefecture_kana":"アイチケン","city":"名古屋市中村区","city_kana":"ナゴヤシナカムラク","town":"牛田通","town_kana":"ウシダトオリ","prefecture_code":23},"0873":{"zip_code":"4530873","prefecture":"愛知県","prefecture_kana":"アイチケン","city":"名古屋市中村区","city_kana":"ナゴヤシナカムラク","town":"運河町","town_kana":"ウンガチョウ","prefecture_code":23},"0804":{"zip_code":"4530804","prefecture":"愛知県","prefecture_kana":"アイチケン","city":"名古屋市中村区","city_kana":"ナゴヤシナカムラク","town":"黄金通","town_kana":"オウゴンドオリ","prefecture_code":23},"0042":{"zip_code":"4530042","prefecture":"愛知県","prefecture_kana":"アイチケン","city":"名古屋市中村区","city_kana":"ナゴヤシナカムラク","town":"大秋町","town_kana":"オオアキチョウ","prefecture_code":23},"0821":{"zip_code":"4530821","prefecture":"愛知県","prefecture_kana":"アイチケン","city":"名古屋市中村区","city_kana":"ナゴヤシナカムラク","town":"大宮町","town_kana":"オオミヤチョウ","prefecture_code":23},"0027":{"zip_code":"4530027","prefecture":"愛知県","prefecture_kana":"アイチケン","city":"名古屋市中村区","city_kana":"ナゴヤシナカムラク","town":"大門町","town_kana":"オオモンチョウ","prefecture_code":23},"0825":{"zip_code":"4530825","prefecture":"愛知県","prefecture_kana":"アイチケン","city":"名古屋市中村区","city_kana":"ナゴヤシナカムラク","town":"沖田町","town_kana":"オキタチョウ","prefecture_code":23},"0833":{"zip_code":"4530833","prefecture":"愛知県","prefecture_kana":"アイチケン","city":"名古屋市中村区","city_kana":"ナゴヤシナカムラク","town":"押木田町","town_kana":"オシキダチョウ","prefecture_code":23},"0852":{"zip_code":"4530852","prefecture":"愛知県","prefecture_kana":"アイチケン","city":"名古屋市中村区","city_kana":"ナゴヤシナカムラク","town":"角割町","town_kana":"カクワリチョウ","prefecture_code":23},"0855":{"zip_code":"4530855","prefecture":"愛知県","prefecture_kana":"アイチケン","city":"名古屋市中村区","city_kana":"ナゴヤシナカムラク","town":"烏森町","town_kana":"カスモリチョウ","prefecture_code":23},"0055":{"zip_code":"4530055","prefecture":"愛知県","prefecture_kana":"アイチケン","city":"名古屋市中村区","city_kana":"ナゴヤシナカムラク","town":"香取町","town_kana":"カトリチョウ","prefecture_code":23},"0835":{"zip_code":"4530835","prefecture":"愛知県","prefecture_kana":"アイチケン","city":"名古屋市中村区","city_kana":"ナゴヤシナカムラク","town":"上石川町","town_kana":"カミイシカワチョウ","prefecture_code":23},"0809":{"zip_code":"4530809","prefecture":"愛知県","prefecture_kana":"アイチケン","city":"名古屋市中村区","city_kana":"ナゴヤシナカムラク","town":"上米野町","town_kana":"カミコメノチョウ","prefecture_code":23},"0043":{"zip_code":"4530043","prefecture":"愛知県","prefecture_kana":"アイチケン","city":"名古屋市中村区","city_kana":"ナゴヤシナカムラク","town":"上ノ宮町","town_kana":"カミノミヤチョウ","prefecture_code":23},"0013":{"zip_code":"4530013","prefecture":"愛知県","prefecture_kana":"アイチケン","city":"名古屋市中村区","city_kana":"ナゴヤシナカムラク","town":"亀島","town_kana":"カメジマ","prefecture_code":23},"0843":{"zip_code":"4530843","prefecture":"愛知県","prefecture_kana":"アイチケン","city":"名古屋市中村区","city_kana":"ナゴヤシナカムラク","town":"鴨付町","town_kana":"カモツキチョウ","prefecture_code":23},"0865":{"zip_code":"4530865","prefecture":"愛知県","prefecture_kana":"アイチケン","city":"名古屋市中村区","city_kana":"ナゴヤシナカムラク","town":"川前町","town_kana":"カワマエチョウ","prefecture_code":23},"0068":{"zip_code":"4530068","prefecture":"愛知県","prefecture_kana":"アイチケン","city":"名古屋市中村区","city_kana":"ナゴヤシナカムラク","town":"菊水町","town_kana":"キクスイチョウ","prefecture_code":23},"0824":{"zip_code":"4530824","prefecture":"愛知県","prefecture_kana":"アイチケン","city":"名古屋市中村区","city_kana":"ナゴヤシナカムラク","town":"北浦町","town_kana":"キタウラチョウ","prefecture_code":23},"0815":{"zip_code":"4530815","prefecture":"愛知県","prefecture_kana":"アイチケン","city":"名古屋市中村区","city_kana":"ナゴヤシナカムラク","town":"北畑町","town_kana":"キタハタチョウ","prefecture_code":23},"0816":{"zip_code":"4530816","prefecture":"愛知県","prefecture_kana":"アイチケン","city":"名古屋市中村区","city_kana":"ナゴヤシナカムラク","town":"京田町","town_kana":"キョウデンチョウ","prefecture_code":23},"0064":{"zip_code":"4530064","prefecture":"愛知県","prefecture_kana":"アイチケン","city":"名古屋市中村区","city_kana":"ナゴヤシナカムラク","town":"草薙町","town_kana":"クサナギチョウ","prefecture_code":23},"0814":{"zip_code":"4530814","prefecture":"愛知県","prefecture_kana":"アイチケン","city":"名古屋市中村区","city_kana":"ナゴヤシナカムラク","town":"熊野町","town_kana":"クマノチョウ","prefecture_code":23},"0808":{"zip_code":"4530808","prefecture":"愛知県","prefecture_kana":"アイチケン","city":"名古屋市中村区","city_kana":"ナゴヤシナカムラク","town":"郷前町","town_kana":"ゴウマエチョウ","prefecture_code":23},"0844":{"zip_code":"4530844","prefecture":"愛知県","prefecture_kana":"アイチケン","city":"名古屋市中村区","city_kana":"ナゴヤシナカムラク","town":"小鴨町","town_kana":"コカモチョウ","prefecture_code":23},"0836":{"zip_code":"4530836","prefecture":"愛知県","prefecture_kana":"アイチケン","city":"名古屋市中村区","city_kana":"ナゴヤシナカムラク","town":"五反城町","town_kana":"ゴタンジョウチョウ","prefecture_code":23},"0028":{"zip_code":"4530028","prefecture":"愛知県","prefecture_kana":"アイチケン","city":"名古屋市中村区","city_kana":"ナゴヤシナカムラク","town":"寿町","town_kana":"コトブキチョウ","prefecture_code":23},"0807":{"zip_code":"4530807","prefecture":"愛知県","prefecture_kana":"アイチケン","city":"名古屋市中村区","city_kana":"ナゴヤシナカムラク","town":"権現通","town_kana":"ゴンゲントオリ","prefecture_code":23},"0033":{"zip_code":"4530033","prefecture":"愛知県","prefecture_kana":"アイチケン","city":"名古屋市中村区","city_kana":"ナゴヤシナカムラク","town":"栄生町","town_kana":"サコチョウ","prefecture_code":23},"0018":{"zip_code":"4530018","prefecture":"愛知県","prefecture_kana":"アイチケン","city":"名古屋市中村区","city_kana":"ナゴヤシナカムラク","town":"佐古前町","town_kana":"サコマエチョウ","prefecture_code":23},"0032":{"zip_code":"4530032","prefecture":"愛知県","prefecture_kana":"アイチケン","city":"名古屋市中村区","city_kana":"ナゴヤシナカムラク","town":"塩池町","town_kana":"シオイケチョウ","prefecture_code":23},"0802":{"zip_code":"4530802","prefecture":"愛知県","prefecture_kana":"アイチケン","city":"名古屋市中村区","city_kana":"ナゴヤシナカムラク","town":"下米野町","town_kana":"シモコメノチョウ","prefecture_code":23},"0827":{"zip_code":"4530827","prefecture":"愛知県","prefecture_kana":"アイチケン","city":"名古屋市中村区","city_kana":"ナゴヤシナカムラク","town":"下中村町","town_kana":"シモナカムラチョウ","prefecture_code":23},"0035":{"zip_code":"4530035","prefecture":"愛知県","prefecture_kana":"アイチケン","city":"名古屋市中村区","city_kana":"ナゴヤシナカムラク","town":"十王町","town_kana":"ジュウオウチョウ","prefecture_code":23},"0067":{"zip_code":"4530067","prefecture":"愛知県","prefecture_kana":"アイチケン","city":"名古屋市中村区","city_kana":"ナゴヤシナカムラク","town":"宿跡町","town_kana":"シュクアトチョウ","prefecture_code":23},"0819":{"zip_code":"4530819","prefecture":"愛知県","prefecture_kana":"アイチケン","city":"名古屋市中村区","city_kana":"ナゴヤシナカムラク","town":"城主町","town_kana":"ジョウシュチョウ","prefecture_code":23},"0817":{"zip_code":"4530817","prefecture":"愛知県","prefecture_kana":"アイチケン","city":"名古屋市中村区","city_kana":"ナゴヤシナカムラク","town":"白子町","town_kana":"シラコチョウ","prefecture_code":23},"0058":{"zip_code":"4530058","prefecture":"愛知県","prefecture_kana":"アイチケン","city":"名古屋市中村区","city_kana":"ナゴヤシナカムラク","town":"城屋敷町","town_kana":"シロヤシキチョウ","prefecture_code":23},"0031":{"zip_code":"4530031","prefecture":"愛知県","prefecture_kana":"アイチケン","city":"名古屋市中村区","city_kana":"ナゴヤシナカムラク","town":"新富町","town_kana":"シントミチョウ","prefecture_code":23},"0056":{"zip_code":"4530056","prefecture":"愛知県","prefecture_kana":"アイチケン","city":"名古屋市中村区","city_kana":"ナゴヤシナカムラク","town":"砂田町","town_kana":"スナダチョウ","prefecture_code":23},"0062":{"zip_code":"4530062","prefecture":"愛知県","prefecture_kana":"アイチケン","city":"名古屋市中村区","city_kana":"ナゴヤシナカムラク","town":"諏訪町","town_kana":"スワチョウ","prefecture_code":23},"0818":{"zip_code":"4530818","prefecture":"愛知県","prefecture_kana":"アイチケン","city":"名古屋市中村区","city_kana":"ナゴヤシナカムラク","town":"千成通","town_kana":"センナリトオリ","prefecture_code":23},"0801":{"zip_code":"4530801","prefecture":"愛知県","prefecture_kana":"アイチケン","city":"名古屋市中村区","city_kana":"ナゴヤシナカムラク","town":"太閤","town_kana":"タイコウ","prefecture_code":23},"0811":{"zip_code":"4530811","prefecture":"愛知県","prefecture_kana":"アイチケン","city":"名古屋市中村区","city_kana":"ナゴヤシナカムラク","town":"太閤通","town_kana":"タイコウトオリ","prefecture_code":23},"0806":{"zip_code":"4530806","prefecture":"愛知県","prefecture_kana":"アイチケン","city":"名古屋市中村区","city_kana":"ナゴヤシナカムラク","town":"大正町","town_kana":"タイショウチョウ","prefecture_code":23},"0034":{"zip_code":"4530034","prefecture":"愛知県","prefecture_kana":"アイチケン","city":"名古屋市中村区","city_kana":"ナゴヤシナカムラク","town":"大日町","town_kana":"ダイニチチョウ","prefecture_code":23},"0854":{"zip_code":"4530854","prefecture":"愛知県","prefecture_kana":"アイチケン","city":"名古屋市中村区","city_kana":"ナゴヤシナカムラク","town":"高須賀町","town_kana":"タカスカチョウ","prefecture_code":23},"0037":{"zip_code":"4530037","prefecture":"愛知県","prefecture_kana":"アイチケン","city":"名古屋市中村区","city_kana":"ナゴヤシナカムラク","town":"高道町","town_kana":"タカミチチョウ","prefecture_code":23},"0016":{"zip_code":"4530016","prefecture":"愛知県","prefecture_kana":"アイチケン","city":"名古屋市中村区","city_kana":"ナゴヤシナカムラク","town":"竹橋町","town_kana":"タケバシチョウ","prefecture_code":23},"0011":{"zip_code":"4530011","prefecture":"愛知県","prefecture_kana":"アイチケン","city":"名古屋市中村区","city_kana":"ナゴヤシナカムラク","town":"千原町","town_kana":"チハラチョウ","prefecture_code":23},"0015":{"zip_code":"4530015","prefecture":"愛知県","prefecture_kana":"アイチケン","city":"名古屋市中村区","city_kana":"ナゴヤシナカムラク","town":"椿町","town_kana":"ツバキチョウ","prefecture_code":23},"0842":{"zip_code":"4530842","prefecture":"愛知県","prefecture_kana":"アイチケン","city":"名古屋市中村区","city_kana":"ナゴヤシナカムラク","town":"剣町","town_kana":"ツルギチョウ","prefecture_code":23},"0834":{"zip_code":"4530834","prefecture":"愛知県","prefecture_kana":"アイチケン","city":"名古屋市中村区","city_kana":"ナゴヤシナカムラク","town":"豊国通","town_kana":"トヨクニトオリ","prefecture_code":23},"0051":{"zip_code":"4530051","prefecture":"愛知県","prefecture_kana":"アイチケン","city":"名古屋市中村区","city_kana":"ナゴヤシナカムラク","town":"豊幡町","town_kana":"トヨバタチョウ","prefecture_code":23},"0044":{"zip_code":"4530044","prefecture":"愛知県","prefecture_kana":"アイチケン","city":"名古屋市中村区","city_kana":"ナゴヤシナカムラク","town":"鳥居通","town_kana":"トリイトオリ","prefecture_code":23},"0054":{"zip_code":"4530054","prefecture":"愛知県","prefecture_kana":"アイチケン","city":"名古屋市中村区","city_kana":"ナゴヤシナカムラク","town":"鳥居西通","town_kana":"トリイニシトオリ","prefecture_code":23},"0022":{"zip_code":"4530022","prefecture":"愛知県","prefecture_kana":"アイチケン","city":"名古屋市中村区","city_kana":"ナゴヤシナカムラク","town":"中島町","town_kana":"ナカジマチョウ","prefecture_code":23},"0053":{"zip_code":"4530053","prefecture":"愛知県","prefecture_kana":"アイチケン","city":"名古屋市中村区","city_kana":"ナゴヤシナカムラク","town":"中村町","town_kana":"ナカムラチョウ","prefecture_code":23},"0831":{"zip_code":"4530831","prefecture":"愛知県","prefecture_kana":"アイチケン","city":"名古屋市中村区","city_kana":"ナゴヤシナカムラク","town":"中村中町","town_kana":"ナカムラナカマチ","prefecture_code":23},"0828":{"zip_code":"4530828","prefecture":"愛知県","prefecture_kana":"アイチケン","city":"名古屋市中村区","city_kana":"ナゴヤシナカムラク","town":"中村本町","town_kana":"ナカムラホンマチ","prefecture_code":23},"0839":{"zip_code":"4530839","prefecture":"愛知県","prefecture_kana":"アイチケン","city":"名古屋市中村区","city_kana":"ナゴヤシナカムラク","town":"長筬町","town_kana":"ナガオサチョウ","prefecture_code":23},"0857":{"zip_code":"4530857","prefecture":"愛知県","prefecture_kana":"アイチケン","city":"名古屋市中村区","city_kana":"ナゴヤシナカムラク","town":"長草町","town_kana":"ナガクサチョウ","prefecture_code":23},"0803":{"zip_code":"4530803","prefecture":"愛知県","prefecture_kana":"アイチケン","city":"名古屋市中村区","city_kana":"ナゴヤシナカムラク","town":"長戸井町","town_kana":"ナガトイチョウ","prefecture_code":23},"0856":{"zip_code":"4530856","prefecture":"愛知県","prefecture_kana":"アイチケン","city":"名古屋市中村区","city_kana":"ナゴヤシナカムラク","town":"並木","town_kana":"ナミキ","prefecture_code":23},"0025":{"zip_code":"4530025","prefecture":"愛知県","prefecture_kana":"アイチケン","city":"名古屋市中村区","city_kana":"ナゴヤシナカムラク","town":"賑町","town_kana":"ニギワイチョウ","prefecture_code":23},"0812":{"zip_code":"4530812","prefecture":"愛知県","prefecture_kana":"アイチケン","city":"名古屋市中村区","city_kana":"ナゴヤシナカムラク","town":"西米野町","town_kana":"ニシコメノチョウ","prefecture_code":23},"0846":{"zip_code":"4530846","prefecture":"愛知県","prefecture_kana":"アイチケン","city":"名古屋市中村区","city_kana":"ナゴヤシナカムラク","town":"西栄町","town_kana":"ニシサカエチョウ","prefecture_code":23},"0826":{"zip_code":"4530826","prefecture":"愛知県","prefecture_kana":"アイチケン","city":"名古屋市中村区","city_kana":"ナゴヤシナカムラク","town":"鈍池町","town_kana":"ニブイケチョウ","prefecture_code":23},"0859":{"zip_code":"4530859","prefecture":"愛知県","prefecture_kana":"アイチケン","city":"名古屋市中村区","city_kana":"ナゴヤシナカムラク","town":"野上町","town_kana":"ノガミチョウ","prefecture_code":23},"0858":{"zip_code":"4530858","prefecture":"愛知県","prefecture_kana":"アイチケン","city":"名古屋市中村区","city_kana":"ナゴヤシナカムラク","town":"野田町","town_kana":"ノダチョウ","prefecture_code":23},"0014":{"zip_code":"4530014","prefecture":"愛知県","prefecture_kana":"アイチケン","city":"名古屋市中村区","city_kana":"ナゴヤシナカムラク","town":"則武","town_kana":"ノリタケ","prefecture_code":23},"0017":{"zip_code":"4530017","prefecture":"愛知県","prefecture_kana":"アイチケン","city":"名古屋市中村区","city_kana":"ナゴヤシナカムラク","town":"則武本通","town_kana":"ノリタケホントオリ","prefecture_code":23},"0026":{"zip_code":"4530026","prefecture":"愛知県","prefecture_kana":"アイチケン","city":"名古屋市中村区","city_kana":"ナゴヤシナカムラク","town":"羽衣町","town_kana":"ハゴロモチョウ","prefecture_code":23},"0069":{"zip_code":"4530069","prefecture":"愛知県","prefecture_kana":"アイチケン","city":"名古屋市中村区","city_kana":"ナゴヤシナカムラク","town":"橋下町","town_kana":"ハシシタチョウ","prefecture_code":23},"0851":{"zip_code":"4530851","prefecture":"愛知県","prefecture_kana":"アイチケン","city":"名古屋市中村区","city_kana":"ナゴヤシナカムラク","town":"畑江通","town_kana":"ハタエトオリ","prefecture_code":23},"0863":{"zip_code":"4530863","prefecture":"愛知県","prefecture_kana":"アイチケン","city":"名古屋市中村区","city_kana":"ナゴヤシナカムラク","town":"八社","town_kana":"ハッシャ","prefecture_code":23},"0063":{"zip_code":"4530063","prefecture":"愛知県","prefecture_kana":"アイチケン","city":"名古屋市中村区","city_kana":"ナゴヤシナカムラク","town":"東宿町","town_kana":"ヒガシジュクチョウ","prefecture_code":23},"0823":{"zip_code":"4530823","prefecture":"愛知県","prefecture_kana":"アイチケン","city":"名古屋市中村区","city_kana":"ナゴヤシナカムラク","town":"日ノ宮町","town_kana":"ヒノミヤチョウ","prefecture_code":23},"0061":{"zip_code":"4530061","prefecture":"愛知県","prefecture_kana":"アイチケン","city":"名古屋市中村区","city_kana":"ナゴヤシナカムラク","town":"日比津町","town_kana":"ヒビツチョウ","prefecture_code":23},"0029":{"zip_code":"4530029","prefecture":"愛知県","prefecture_kana":"アイチケン","city":"名古屋市中村区","city_kana":"ナゴヤシナカムラク","town":"日吉町","town_kana":"ヒヨシチョウ","prefecture_code":23},"0872":{"zip_code":"4530872","prefecture":"愛知県","prefecture_kana":"アイチケン","city":"名古屋市中村区","city_kana":"ナゴヤシナカムラク","town":"平池町","town_kana":"ヒライケチョウ","prefecture_code":23},"0805":{"zip_code":"4530805","prefecture":"愛知県","prefecture_kana":"アイチケン","city":"名古屋市中村区","city_kana":"ナゴヤシナカムラク","town":"深川町","town_kana":"フカガワチョウ","prefecture_code":23},"0045":{"zip_code":"4530045","prefecture":"愛知県","prefecture_kana":"アイチケン","city":"名古屋市中村区","city_kana":"ナゴヤシナカムラク","town":"藤江町","town_kana":"フジエチョウ","prefecture_code":23},"0837":{"zip_code":"4530837","prefecture":"愛知県","prefecture_kana":"アイチケン","city":"名古屋市中村区","city_kana":"ナゴヤシナカムラク","town":"二瀬町","town_kana":"フタセチョウ","prefecture_code":23},"0813":{"zip_code":"4530813","prefecture":"愛知県","prefecture_kana":"アイチケン","city":"名古屋市中村区","city_kana":"ナゴヤシナカムラク","town":"二ツ橋町","town_kana":"フタツバシチョウ","prefecture_code":23},"0041":{"zip_code":"4530041","prefecture":"愛知県","prefecture_kana":"アイチケン","city":"名古屋市中村区","city_kana":"ナゴヤシナカムラク","town":"本陣通","town_kana":"ホンジントオリ","prefecture_code":23},"0871":{"zip_code":"4530871","prefecture":"愛知県","prefecture_kana":"アイチケン","city":"名古屋市中村区","city_kana":"ナゴヤシナカムラク","town":"牧野町","town_kana":"マキノチョウ","prefecture_code":23},"0021":{"zip_code":"4530021","prefecture":"愛知県","prefecture_kana":"アイチケン","city":"名古屋市中村区","city_kana":"ナゴヤシナカムラク","town":"松原町","town_kana":"マツバラチョウ","prefecture_code":23},"0046":{"zip_code":"4530046","prefecture":"愛知県","prefecture_kana":"アイチケン","city":"名古屋市中村区","city_kana":"ナゴヤシナカムラク","town":"道下町","town_kana":"ミチシタチョウ","prefecture_code":23},"0845":{"zip_code":"4530845","prefecture":"愛知県","prefecture_kana":"アイチケン","city":"名古屋市中村区","city_kana":"ナゴヤシナカムラク","town":"宮塚町","town_kana":"ミヤツカチョウ","prefecture_code":23},"0838":{"zip_code":"4530838","prefecture":"愛知県","prefecture_kana":"アイチケン","city":"名古屋市中村区","city_kana":"ナゴヤシナカムラク","town":"向島町","town_kana":"ムコウジマチョウ","prefecture_code":23},"0002":{"zip_code":"4530002","prefecture":"愛知県","prefecture_kana":"アイチケン","city":"名古屋市中村区","city_kana":"ナゴヤシナカムラク","town":"名駅","town_kana":"メイエキ","prefecture_code":23},"0822":{"zip_code":"4530822","prefecture":"愛知県","prefecture_kana":"アイチケン","city":"名古屋市中村区","city_kana":"ナゴヤシナカムラク","town":"名西通","town_kana":"メイセイトオリ","prefecture_code":23},"0024":{"zip_code":"4530024","prefecture":"愛知県","prefecture_kana":"アイチケン","city":"名古屋市中村区","city_kana":"ナゴヤシナカムラク","town":"名楽町","town_kana":"メイラクチョウ","prefecture_code":23},"0047":{"zip_code":"4530047","prefecture":"愛知県","prefecture_kana":"アイチケン","city":"名古屋市中村区","city_kana":"ナゴヤシナカムラク","town":"元中村町","town_kana":"モトナカムラチョウ","prefecture_code":23},"0052":{"zip_code":"4530052","prefecture":"愛知県","prefecture_kana":"アイチケン","city":"名古屋市中村区","city_kana":"ナゴヤシナカムラク","town":"森末町","town_kana":"モリスエチョウ","prefecture_code":23},"0036":{"zip_code":"4530036","prefecture":"愛知県","prefecture_kana":"アイチケン","city":"名古屋市中村区","city_kana":"ナゴヤシナカムラク","town":"森田町","town_kana":"モリタチョウ","prefecture_code":23},"0065":{"zip_code":"4530065","prefecture":"愛知県","prefecture_kana":"アイチケン","city":"名古屋市中村区","city_kana":"ナゴヤシナカムラク","town":"靖国町","town_kana":"ヤスクニチョウ","prefecture_code":23},"0866":{"zip_code":"4530866","prefecture":"愛知県","prefecture_kana":"アイチケン","city":"名古屋市中村区","city_kana":"ナゴヤシナカムラク","town":"横井","town_kana":"ヨコイ","prefecture_code":23},"0867":{"zip_code":"4530867","prefecture":"愛知県","prefecture_kana":"アイチケン","city":"名古屋市中村区","city_kana":"ナゴヤシナカムラク","town":"横井町","town_kana":"ヨコイチョウ","prefecture_code":23},"0864":{"zip_code":"4530864","prefecture":"愛知県","prefecture_kana":"アイチケン","city":"名古屋市中村区","city_kana":"ナゴヤシナカムラク","town":"横前町","town_kana":"ヨコマエチョウ","prefecture_code":23},"0023":{"zip_code":"4530023","prefecture":"愛知県","prefecture_kana":"アイチケン","city":"名古屋市中村区","city_kana":"ナゴヤシナカムラク","town":"若宮町","town_kana":"ワカミヤチョウ","prefecture_code":23}}