{"0000":{"zip_code":"4540000","prefecture":"愛知県","prefecture_kana":"アイチケン","city":"名古屋市中川区","city_kana":"ナゴヤシナカガワク","town":"","town_kana":"","prefecture_code":23},"0807":{"zip_code":"4540807","prefecture":"愛知県","prefecture_kana":"アイチケン","city":"名古屋市中川区","city_kana":"ナゴヤシナカガワク","town":"愛知町","town_kana":"アイチチョウ","prefecture_code":23},"0057":{"zip_code":"4540057","prefecture":"愛知県","prefecture_kana":"アイチケン","city":"名古屋市中川区","city_kana":"ナゴヤシナカガワク","town":"熱田新田東組","town_kana":"アツタシンデンヒガシグミ","prefecture_code":23},"0032":{"zip_code":"4540032","prefecture":"愛知県","prefecture_kana":"アイチケン","city":"名古屋市中川区","city_kana":"ナゴヤシナカガワク","town":"荒江町","town_kana":"アラエチョウ","prefecture_code":23},"0869":{"zip_code":"4540869","prefecture":"愛知県","prefecture_kana":"アイチケン","city":"名古屋市中川区","city_kana":"ナゴヤシナカガワク","town":"荒子","town_kana":"アラコ","prefecture_code":23},"0044":{"zip_code":"4540044","prefecture":"愛知県","prefecture_kana":"アイチケン","city":"名古屋市中川区","city_kana":"ナゴヤシナカガワク","town":"荒越町","town_kana":"アラコシチョウ","prefecture_code":23},"0861":{"zip_code":"4540861","prefecture":"愛知県","prefecture_kana":"アイチケン","city":"名古屋市中川区","city_kana":"ナゴヤシナカガワク","town":"荒子町","town_kana":"アラコチョウ","prefecture_code":23},"0922":{"zip_code":"4540922","prefecture":"愛知県","prefecture_kana":"アイチケン","city":"名古屋市中川区","city_kana":"ナゴヤシナカガワク","town":"荒中町","town_kana":"アラナカチョウ","prefecture_code":23},"0946":{"zip_code":"4540946","prefecture":"愛知県","prefecture_kana":"アイチケン","city":"名古屋市中川区","city_kana":"ナゴヤシナカガワク","town":"一色新町","town_kana":"イシキシンマチ","prefecture_code":23},"0023":{"zip_code":"4540023","prefecture":"愛知県","prefecture_kana":"アイチケン","city":"名古屋市中川区","city_kana":"ナゴヤシナカガワク","town":"石場町","town_kana":"イシバチョウ","prefecture_code":23},"0905":{"zip_code":"4540905","prefecture":"愛知県","prefecture_kana":"アイチケン","city":"名古屋市中川区","city_kana":"ナゴヤシナカガワク","town":"一柳通","town_kana":"イチヤナギドオリ","prefecture_code":23},"0901":{"zip_code":"4540901","prefecture":"愛知県","prefecture_kana":"アイチケン","city":"名古屋市中川区","city_kana":"ナゴヤシナカガワク","town":"岩塚町","town_kana":"イワツカチョウ","prefecture_code":23},"0043":{"zip_code":"4540043","prefecture":"愛知県","prefecture_kana":"アイチケン","city":"名古屋市中川区","city_kana":"ナゴヤシナカガワク","town":"牛立町","town_kana":"ウシダテチョウ","prefecture_code":23},"0926":{"zip_code":"4540926","prefecture":"愛知県","prefecture_kana":"アイチケン","city":"名古屋市中川区","city_kana":"ナゴヤシナカガワク","town":"打出","town_kana":"ウチデ","prefecture_code":23},"0924":{"zip_code":"4540924","prefecture":"愛知県","prefecture_kana":"アイチケン","city":"名古屋市中川区","city_kana":"ナゴヤシナカガワク","town":"打出町","town_kana":"ウチデチョウ","prefecture_code":23},"0923":{"zip_code":"4540923","prefecture":"愛知県","prefecture_kana":"アイチケン","city":"名古屋市中川区","city_kana":"ナゴヤシナカガワク","town":"打出本町","town_kana":"ウチデホンマチ","prefecture_code":23},"0927":{"zip_code":"4540927","prefecture":"愛知県","prefecture_kana":"アイチケン","city":"名古屋市中川区","city_kana":"ナゴヤシナカガワク","town":"打中","town_kana":"ウチナカ","prefecture_code":23},"0845":{"zip_code":"4540845","prefecture":"愛知県","prefecture_kana":"アイチケン","city":"名古屋市中川区","city_kana":"ナゴヤシナカガワク","town":"馬手町","town_kana":"ウマテチョウ","prefecture_code":23},"0001":{"zip_code":"4540001","prefecture":"愛知県","prefecture_kana":"アイチケン","city":"名古屋市中川区","city_kana":"ナゴヤシナカガワク","town":"運河町","town_kana":"ウンガチョウ","prefecture_code":23},"0002":{"zip_code":"4540002","prefecture":"愛知県","prefecture_kana":"アイチケン","city":"名古屋市中川区","city_kana":"ナゴヤシナカガワク","town":"運河通","town_kana":"ウンガトオリ","prefecture_code":23},"0951":{"zip_code":"4540951","prefecture":"愛知県","prefecture_kana":"アイチケン","city":"名古屋市中川区","city_kana":"ナゴヤシナカガワク","town":"榎津西町","town_kana":"エノキヅニシマチ","prefecture_code":23},"0952":{"zip_code":"4540952","prefecture":"愛知県","prefecture_kana":"アイチケン","city":"名古屋市中川区","city_kana":"ナゴヤシナカガワク","town":"榎松町","town_kana":"エノキマツチョウ","prefecture_code":23},"0954":{"zip_code":"4540954","prefecture":"愛知県","prefecture_kana":"アイチケン","city":"名古屋市中川区","city_kana":"ナゴヤシナカガワク","town":"富田町江松","town_kana":"トミダチョウエマツ","prefecture_code":23},"0959":{"zip_code":"4540959","prefecture":"愛知県","prefecture_kana":"アイチケン","city":"名古屋市中川区","city_kana":"ナゴヤシナカガワク","town":"江松西町","town_kana":"エマツニシマチ","prefecture_code":23},"0026":{"zip_code":"4540026","prefecture":"愛知県","prefecture_kana":"アイチケン","city":"名古屋市中川区","city_kana":"ナゴヤシナカガワク","town":"笈瀬町","town_kana":"オイセチョウ","prefecture_code":23},"0042":{"zip_code":"4540042","prefecture":"愛知県","prefecture_kana":"アイチケン","city":"名古屋市中川区","city_kana":"ナゴヤシナカガワク","town":"応仁町","town_kana":"オウジンチョウ","prefecture_code":23},"0863":{"zip_code":"4540863","prefecture":"愛知県","prefecture_kana":"アイチケン","city":"名古屋市中川区","city_kana":"ナゴヤシナカガワク","town":"大塩町","town_kana":"オオシオチョウ","prefecture_code":23},"0843":{"zip_code":"4540843","prefecture":"愛知県","prefecture_kana":"アイチケン","city":"名古屋市中川区","city_kana":"ナゴヤシナカガワク","town":"大畑町","town_kana":"オオハタチョウ","prefecture_code":23},"0051":{"zip_code":"4540051","prefecture":"愛知県","prefecture_kana":"アイチケン","city":"名古屋市中川区","city_kana":"ナゴヤシナカガワク","town":"大山町","town_kana":"オオヤマチョウ","prefecture_code":23},"0841":{"zip_code":"4540841","prefecture":"愛知県","prefecture_kana":"アイチケン","city":"名古屋市中川区","city_kana":"ナゴヤシナカガワク","town":"押元町","town_kana":"オシモトチョウ","prefecture_code":23},"0012":{"zip_code":"4540012","prefecture":"愛知県","prefecture_kana":"アイチケン","city":"名古屋市中川区","city_kana":"ナゴヤシナカガワク","town":"尾頭橋","town_kana":"オトウバシ","prefecture_code":23},"0829":{"zip_code":"4540829","prefecture":"愛知県","prefecture_kana":"アイチケン","city":"名古屋市中川区","city_kana":"ナゴヤシナカガワク","town":"小本町","town_kana":"オモトチョウ","prefecture_code":23},"0906":{"zip_code":"4540906","prefecture":"愛知県","prefecture_kana":"アイチケン","city":"名古屋市中川区","city_kana":"ナゴヤシナカガワク","town":"開平町","town_kana":"カイヘイチョウ","prefecture_code":23},"0865":{"zip_code":"4540865","prefecture":"愛知県","prefecture_kana":"アイチケン","city":"名古屋市中川区","city_kana":"ナゴヤシナカガワク","town":"掛入町","town_kana":"カケイリチョウ","prefecture_code":23},"0819":{"zip_code":"4540819","prefecture":"愛知県","prefecture_kana":"アイチケン","city":"名古屋市中川区","city_kana":"ナゴヤシナカガワク","town":"烏森町","town_kana":"カスモリチョウ","prefecture_code":23},"0957":{"zip_code":"4540957","prefecture":"愛知県","prefecture_kana":"アイチケン","city":"名古屋市中川区","city_kana":"ナゴヤシナカガワク","town":"かの里","town_kana":"カノサト","prefecture_code":23},"0873":{"zip_code":"4540873","prefecture":"愛知県","prefecture_kana":"アイチケン","city":"名古屋市中川区","city_kana":"ナゴヤシナカガワク","town":"上高畑","town_kana":"カミタカバタ","prefecture_code":23},"0846":{"zip_code":"4540846","prefecture":"愛知県","prefecture_kana":"アイチケン","city":"名古屋市中川区","city_kana":"ナゴヤシナカガワク","town":"上流町","town_kana":"カミナガレチョウ","prefecture_code":23},"0833":{"zip_code":"4540833","prefecture":"愛知県","prefecture_kana":"アイチケン","city":"名古屋市中川区","city_kana":"ナゴヤシナカガワク","town":"上脇町","town_kana":"カミワキチョウ","prefecture_code":23},"0916":{"zip_code":"4540916","prefecture":"愛知県","prefecture_kana":"アイチケン","city":"名古屋市中川区","city_kana":"ナゴヤシナカガワク","town":"川前町","town_kana":"カワマエチョウ","prefecture_code":23},"0851":{"zip_code":"4540851","prefecture":"愛知県","prefecture_kana":"アイチケン","city":"名古屋市中川区","city_kana":"ナゴヤシナカガワク","town":"北江町","town_kana":"キタエチョウ","prefecture_code":23},"0049":{"zip_code":"4540049","prefecture":"愛知県","prefecture_kana":"アイチケン","city":"名古屋市中川区","city_kana":"ナゴヤシナカガワク","town":"清川町","town_kana":"キヨカワチョウ","prefecture_code":23},"0832":{"zip_code":"4540832","prefecture":"愛知県","prefecture_kana":"アイチケン","city":"名古屋市中川区","city_kana":"ナゴヤシナカガワク","town":"清船町","town_kana":"キヨフネチョウ","prefecture_code":23},"0874":{"zip_code":"4540874","prefecture":"愛知県","prefecture_kana":"アイチケン","city":"名古屋市中川区","city_kana":"ナゴヤシナカガワク","town":"吉良町","town_kana":"キラチョウ","prefecture_code":23},"0868":{"zip_code":"4540868","prefecture":"愛知県","prefecture_kana":"アイチケン","city":"名古屋市中川区","city_kana":"ナゴヤシナカガワク","town":"草平町","town_kana":"クサヒラチョウ","prefecture_code":23},"0984":{"zip_code":"4540984","prefecture":"愛知県","prefecture_kana":"アイチケン","city":"名古屋市中川区","city_kana":"ナゴヤシナカガワク","town":"供米田","town_kana":"クマイデン","prefecture_code":23},"0856":{"zip_code":"4540856","prefecture":"愛知県","prefecture_kana":"アイチケン","city":"名古屋市中川区","city_kana":"ナゴヤシナカガワク","town":"小碓通","town_kana":"コウスドオリ","prefecture_code":23},"0808":{"zip_code":"4540808","prefecture":"愛知県","prefecture_kana":"アイチケン","city":"名古屋市中川区","city_kana":"ナゴヤシナカガワク","town":"九重町","town_kana":"ココノエチョウ","prefecture_code":23},"0875":{"zip_code":"4540875","prefecture":"愛知県","prefecture_kana":"アイチケン","city":"名古屋市中川区","city_kana":"ナゴヤシナカガワク","town":"小城町","town_kana":"コシロチョウ","prefecture_code":23},"0849":{"zip_code":"4540849","prefecture":"愛知県","prefecture_kana":"アイチケン","city":"名古屋市中川区","city_kana":"ナゴヤシナカガワク","town":"小塚町","town_kana":"コヅカチョウ","prefecture_code":23},"0033":{"zip_code":"4540033","prefecture":"愛知県","prefecture_kana":"アイチケン","city":"名古屋市中川区","city_kana":"ナゴヤシナカガワク","town":"五女子","town_kana":"ゴニョウシ","prefecture_code":23},"0034":{"zip_code":"4540034","prefecture":"愛知県","prefecture_kana":"アイチケン","city":"名古屋市中川区","city_kana":"ナゴヤシナカガワク","town":"五女子町","town_kana":"ゴニョシチョウ","prefecture_code":23},"0828":{"zip_code":"4540828","prefecture":"愛知県","prefecture_kana":"アイチケン","city":"名古屋市中川区","city_kana":"ナゴヤシナカガワク","town":"小本","town_kana":"コモト","prefecture_code":23},"0826":{"zip_code":"4540826","prefecture":"愛知県","prefecture_kana":"アイチケン","city":"名古屋市中川区","city_kana":"ナゴヤシナカガワク","town":"小本本町","town_kana":"コモトホンマチ","prefecture_code":23},"0812":{"zip_code":"4540812","prefecture":"愛知県","prefecture_kana":"アイチケン","city":"名古屋市中川区","city_kana":"ナゴヤシナカガワク","town":"五月通","town_kana":"サツキトオリ","prefecture_code":23},"0814":{"zip_code":"4540814","prefecture":"愛知県","prefecture_kana":"アイチケン","city":"名古屋市中川区","city_kana":"ナゴヤシナカガワク","town":"五月南通","town_kana":"サツキミナミトオリ","prefecture_code":23},"0011":{"zip_code":"4540011","prefecture":"愛知県","prefecture_kana":"アイチケン","city":"名古屋市中川区","city_kana":"ナゴヤシナカガワク","town":"山王","town_kana":"サンノウ","prefecture_code":23},"0822":{"zip_code":"4540822","prefecture":"愛知県","prefecture_kana":"アイチケン","city":"名古屋市中川区","city_kana":"ナゴヤシナカガワク","town":"四女子町","town_kana":"シニョシチョウ","prefecture_code":23},"0839":{"zip_code":"4540839","prefecture":"愛知県","prefecture_kana":"アイチケン","city":"名古屋市中川区","city_kana":"ナゴヤシナカガワク","town":"篠原橋通","town_kana":"シノハラバシトオリ","prefecture_code":23},"0974":{"zip_code":"4540974","prefecture":"愛知県","prefecture_kana":"アイチケン","city":"名古屋市中川区","city_kana":"ナゴヤシナカガワク","town":"島井町","town_kana":"シマイチョウ","prefecture_code":23},"0945":{"zip_code":"4540945","prefecture":"愛知県","prefecture_kana":"アイチケン","city":"名古屋市中川区","city_kana":"ナゴヤシナカガワク","town":"下之一色町","town_kana":"シモノイッシキチョウ","prefecture_code":23},"0858":{"zip_code":"4540858","prefecture":"愛知県","prefecture_kana":"アイチケン","city":"名古屋市中川区","city_kana":"ナゴヤシナカガワク","town":"正徳町","town_kana":"ショウトクチョウ","prefecture_code":23},"0854":{"zip_code":"4540854","prefecture":"愛知県","prefecture_kana":"アイチケン","city":"名古屋市中川区","city_kana":"ナゴヤシナカガワク","town":"松年町","town_kana":"ショウネンチョウ","prefecture_code":23},"0855":{"zip_code":"4540855","prefecture":"愛知県","prefecture_kana":"アイチケン","city":"名古屋市中川区","city_kana":"ナゴヤシナカガワク","town":"昭明町","town_kana":"ショウメイチョウ","prefecture_code":23},"0852":{"zip_code":"4540852","prefecture":"愛知県","prefecture_kana":"アイチケン","city":"名古屋市中川区","city_kana":"ナゴヤシナカガワク","town":"昭和橋通","town_kana":"ショウワバシトオリ","prefecture_code":23},"0046":{"zip_code":"4540046","prefecture":"愛知県","prefecture_kana":"アイチケン","city":"名古屋市中川区","city_kana":"ナゴヤシナカガワク","town":"神郷町","town_kana":"シンゴウチョウ","prefecture_code":23},"0055":{"zip_code":"4540055","prefecture":"愛知県","prefecture_kana":"アイチケン","city":"名古屋市中川区","city_kana":"ナゴヤシナカガワク","town":"十番町","town_kana":"ジュウバンチョウ","prefecture_code":23},"0056":{"zip_code":"4540056","prefecture":"愛知県","prefecture_kana":"アイチケン","city":"名古屋市中川区","city_kana":"ナゴヤシナカガワク","town":"十一番町","town_kana":"ジュウイチバンチョウ","prefecture_code":23},"0947":{"zip_code":"4540947","prefecture":"愛知県","prefecture_kana":"アイチケン","city":"名古屋市中川区","city_kana":"ナゴヤシナカガワク","town":"助光","town_kana":"スケミツ","prefecture_code":23},"0806":{"zip_code":"4540806","prefecture":"愛知県","prefecture_kana":"アイチケン","city":"名古屋市中川区","city_kana":"ナゴヤシナカガワク","town":"澄池町","town_kana":"スミイケチョウ","prefecture_code":23},"0821":{"zip_code":"4540821","prefecture":"愛知県","prefecture_kana":"アイチケン","city":"名古屋市中川区","city_kana":"ナゴヤシナカガワク","town":"宗円町","town_kana":"ソウエンチョウ","prefecture_code":23},"0053":{"zip_code":"4540053","prefecture":"愛知県","prefecture_kana":"アイチケン","city":"名古屋市中川区","city_kana":"ナゴヤシナカガワク","town":"外新町","town_kana":"ソトシンチョウ","prefecture_code":23},"0991":{"zip_code":"4540991","prefecture":"愛知県","prefecture_kana":"アイチケン","city":"名古屋市中川区","city_kana":"ナゴヤシナカガワク","town":"大地","town_kana":"ダイチ","prefecture_code":23},"0943":{"zip_code":"4540943","prefecture":"愛知県","prefecture_kana":"アイチケン","city":"名古屋市中川区","city_kana":"ナゴヤシナカガワク","town":"大当郎","town_kana":"ダイトウロウ","prefecture_code":23},"0944":{"zip_code":"4540944","prefecture":"愛知県","prefecture_kana":"アイチケン","city":"名古屋市中川区","city_kana":"ナゴヤシナカガワク","town":"大蟷螂町","town_kana":"ダイトウロウチョウ","prefecture_code":23},"0838":{"zip_code":"4540838","prefecture":"愛知県","prefecture_kana":"アイチケン","city":"名古屋市中川区","city_kana":"ナゴヤシナカガワク","town":"太平通","town_kana":"タイヘイトオリ","prefecture_code":23},"0936":{"zip_code":"4540936","prefecture":"愛知県","prefecture_kana":"アイチケン","city":"名古屋市中川区","city_kana":"ナゴヤシナカガワク","town":"高杉町","town_kana":"タカスギチョウ","prefecture_code":23},"0911":{"zip_code":"4540911","prefecture":"愛知県","prefecture_kana":"アイチケン","city":"名古屋市中川区","city_kana":"ナゴヤシナカガワク","town":"高畑","town_kana":"タカバタ","prefecture_code":23},"0058":{"zip_code":"4540058","prefecture":"愛知県","prefecture_kana":"アイチケン","city":"名古屋市中川区","city_kana":"ナゴヤシナカガワク","town":"玉川町","town_kana":"タマカワチョウ","prefecture_code":23},"0853":{"zip_code":"4540853","prefecture":"愛知県","prefecture_kana":"アイチケン","city":"名古屋市中川区","city_kana":"ナゴヤシナカガワク","town":"玉船町","town_kana":"タマフネチョウ","prefecture_code":23},"0045":{"zip_code":"4540045","prefecture":"愛知県","prefecture_kana":"アイチケン","city":"名古屋市中川区","city_kana":"ナゴヤシナカガワク","town":"丹後町","town_kana":"タンゴチョウ","prefecture_code":23},"0816":{"zip_code":"4540816","prefecture":"愛知県","prefecture_kana":"アイチケン","city":"名古屋市中川区","city_kana":"ナゴヤシナカガワク","town":"中京南通","town_kana":"チュウキョウミナミトオリ","prefecture_code":23},"0921":{"zip_code":"4540921","prefecture":"愛知県","prefecture_kana":"アイチケン","city":"名古屋市中川区","city_kana":"ナゴヤシナカガワク","town":"中郷","town_kana":"チュウゴウ","prefecture_code":23},"0804":{"zip_code":"4540804","prefecture":"愛知県","prefecture_kana":"アイチケン","city":"名古屋市中川区","city_kana":"ナゴヤシナカガワク","town":"月島町","town_kana":"ツキシマチョウ","prefecture_code":23},"0827":{"zip_code":"4540827","prefecture":"愛知県","prefecture_kana":"アイチケン","city":"名古屋市中川区","city_kana":"ナゴヤシナカガワク","town":"辻畑町","town_kana":"ツジバタチョウ","prefecture_code":23},"0824":{"zip_code":"4540824","prefecture":"愛知県","prefecture_kana":"アイチケン","city":"名古屋市中川区","city_kana":"ナゴヤシナカガワク","town":"蔦元町","town_kana":"ツタモトチョウ","prefecture_code":23},"0913":{"zip_code":"4540913","prefecture":"愛知県","prefecture_kana":"アイチケン","city":"名古屋市中川区","city_kana":"ナゴヤシナカガワク","town":"土野町","town_kana":"ツチノチョウ","prefecture_code":23},"0022":{"zip_code":"4540022","prefecture":"愛知県","prefecture_kana":"アイチケン","city":"名古屋市中川区","city_kana":"ナゴヤシナカガワク","town":"露橋","town_kana":"ツユハシ","prefecture_code":23},"0028":{"zip_code":"4540028","prefecture":"愛知県","prefecture_kana":"アイチケン","city":"名古屋市中川区","city_kana":"ナゴヤシナカガワク","town":"露橋町","town_kana":"ツユハシチョウ","prefecture_code":23},"0962":{"zip_code":"4540962","prefecture":"愛知県","prefecture_kana":"アイチケン","city":"名古屋市中川区","city_kana":"ナゴヤシナカガワク","town":"戸田","town_kana":"トダ","prefecture_code":23},"0967":{"zip_code":"4540967","prefecture":"愛知県","prefecture_kana":"アイチケン","city":"名古屋市中川区","city_kana":"ナゴヤシナカガワク","town":"戸田西","town_kana":"トダニシ","prefecture_code":23},"0961":{"zip_code":"4540961","prefecture":"愛知県","prefecture_kana":"アイチケン","city":"名古屋市中川区","city_kana":"ナゴヤシナカガワク","town":"富田町戸田","town_kana":"トミダチョウトダ","prefecture_code":23},"0966":{"zip_code":"4540966","prefecture":"愛知県","prefecture_kana":"アイチケン","city":"名古屋市中川区","city_kana":"ナゴヤシナカガワク","town":"戸田ゆたか","town_kana":"トダユタカ","prefecture_code":23},"0037":{"zip_code":"4540037","prefecture":"愛知県","prefecture_kana":"アイチケン","city":"名古屋市中川区","city_kana":"ナゴヤシナカガワク","town":"富川町","town_kana":"トミカワチョウ","prefecture_code":23},"0955":{"zip_code":"4540955","prefecture":"愛知県","prefecture_kana":"アイチケン","city":"名古屋市中川区","city_kana":"ナゴヤシナカガワク","town":"富田町包里","town_kana":"トミダチョウカノサト","prefecture_code":23},"0956":{"zip_code":"4540956","prefecture":"愛知県","prefecture_kana":"アイチケン","city":"名古屋市中川区","city_kana":"ナゴヤシナカガワク","town":"富田町供米田","town_kana":"トミダチョウクマイデン","prefecture_code":23},"0971":{"zip_code":"4540971","prefecture":"愛知県","prefecture_kana":"アイチケン","city":"名古屋市中川区","city_kana":"ナゴヤシナカガワク","town":"富田町千音寺","town_kana":"トミダチョウセンノンジ","prefecture_code":23},"0973":{"zip_code":"4540973","prefecture":"愛知県","prefecture_kana":"アイチケン","city":"名古屋市中川区","city_kana":"ナゴヤシナカガワク","town":"富田町服部","town_kana":"トミダチョウハットリ","prefecture_code":23},"0986":{"zip_code":"4540986","prefecture":"愛知県","prefecture_kana":"アイチケン","city":"名古屋市中川区","city_kana":"ナゴヤシナカガワク","town":"富田町春田","town_kana":"トミダチョウハルタ","prefecture_code":23},"0995":{"zip_code":"4540995","prefecture":"愛知県","prefecture_kana":"アイチケン","city":"名古屋市中川区","city_kana":"ナゴヤシナカガワク","town":"富田町伏屋","town_kana":"トミダチョウフシヤ","prefecture_code":23},"0942":{"zip_code":"4540942","prefecture":"愛知県","prefecture_kana":"アイチケン","city":"名古屋市中川区","city_kana":"ナゴヤシナカガワク","town":"富田町前田","town_kana":"トミダチョウマエダ","prefecture_code":23},"0993":{"zip_code":"4540993","prefecture":"愛知県","prefecture_kana":"アイチケン","city":"名古屋市中川区","city_kana":"ナゴヤシナカガワク","town":"富田町松下","town_kana":"トミダチョウマツシタ","prefecture_code":23},"0992":{"zip_code":"4540992","prefecture":"愛知県","prefecture_kana":"アイチケン","city":"名古屋市中川区","city_kana":"ナゴヤシナカガワク","town":"富田町万場","town_kana":"トミダチョウマンバ","prefecture_code":23},"0953":{"zip_code":"4540953","prefecture":"愛知県","prefecture_kana":"アイチケン","city":"名古屋市中川区","city_kana":"ナゴヤシナカガワク","town":"富田町榎津","town_kana":"トミダチョウヨノキヅ","prefecture_code":23},"0964":{"zip_code":"4540964","prefecture":"愛知県","prefecture_kana":"アイチケン","city":"名古屋市中川区","city_kana":"ナゴヤシナカガワク","town":"富永","town_kana":"トミナガ","prefecture_code":23},"0823":{"zip_code":"4540823","prefecture":"愛知県","prefecture_kana":"アイチケン","city":"名古屋市中川区","city_kana":"ナゴヤシナカガワク","town":"富船町","town_kana":"トミフネチョウ","prefecture_code":23},"0932":{"zip_code":"4540932","prefecture":"愛知県","prefecture_kana":"アイチケン","city":"名古屋市中川区","city_kana":"ナゴヤシナカガワク","town":"中島新町","town_kana":"ナカジマシンチョウ","prefecture_code":23},"0994":{"zip_code":"4540994","prefecture":"愛知県","prefecture_kana":"アイチケン","city":"名古屋市中川区","city_kana":"ナゴヤシナカガワク","town":"長須賀","town_kana":"ナガスカ","prefecture_code":23},"0925":{"zip_code":"4540925","prefecture":"愛知県","prefecture_kana":"アイチケン","city":"名古屋市中川区","city_kana":"ナゴヤシナカガワク","town":"中須町","town_kana":"ナカスチョウ","prefecture_code":23},"0837":{"zip_code":"4540837","prefecture":"愛知県","prefecture_kana":"アイチケン","city":"名古屋市中川区","city_kana":"ナゴヤシナカガワク","town":"中野新町","town_kana":"ナカノシンチョウ","prefecture_code":23},"0047":{"zip_code":"4540047","prefecture":"愛知県","prefecture_kana":"アイチケン","city":"名古屋市中川区","city_kana":"ナゴヤシナカガワク","town":"中野本町","town_kana":"ナカノホンマチ","prefecture_code":23},"0931":{"zip_code":"4540931","prefecture":"愛知県","prefecture_kana":"アイチケン","city":"名古屋市中川区","city_kana":"ナゴヤシナカガワク","town":"中花町","town_kana":"ナカハナチョウ","prefecture_code":23},"0815":{"zip_code":"4540815","prefecture":"愛知県","prefecture_kana":"アイチケン","city":"名古屋市中川区","city_kana":"ナゴヤシナカガワク","town":"長良町","town_kana":"ナガラチョウ","prefecture_code":23},"0972":{"zip_code":"4540972","prefecture":"愛知県","prefecture_kana":"アイチケン","city":"名古屋市中川区","city_kana":"ナゴヤシナカガワク","town":"新家","town_kana":"ニイエ","prefecture_code":23},"0934":{"zip_code":"4540934","prefecture":"愛知県","prefecture_kana":"アイチケン","city":"名古屋市中川区","city_kana":"ナゴヤシナカガワク","town":"西中島","town_kana":"ニシナカジマ","prefecture_code":23},"0004":{"zip_code":"4540004","prefecture":"愛知県","prefecture_kana":"アイチケン","city":"名古屋市中川区","city_kana":"ナゴヤシナカガワク","town":"西日置","town_kana":"ニシヒオキ","prefecture_code":23},"0005":{"zip_code":"4540005","prefecture":"愛知県","prefecture_kana":"アイチケン","city":"名古屋市中川区","city_kana":"ナゴヤシナカガワク","town":"西日置町","town_kana":"ニシヒオキチョウ","prefecture_code":23},"0982":{"zip_code":"4540982","prefecture":"愛知県","prefecture_kana":"アイチケン","city":"名古屋市中川区","city_kana":"ナゴヤシナカガワク","town":"西伏屋","town_kana":"ニシフシヤ","prefecture_code":23},"0036":{"zip_code":"4540036","prefecture":"愛知県","prefecture_kana":"アイチケン","city":"名古屋市中川区","city_kana":"ナゴヤシナカガワク","town":"二女子町","town_kana":"ニニョシチョウ","prefecture_code":23},"0912":{"zip_code":"4540912","prefecture":"愛知県","prefecture_kana":"アイチケン","city":"名古屋市中川区","city_kana":"ナゴヤシナカガワク","town":"野田","town_kana":"ノダ","prefecture_code":23},"0813":{"zip_code":"4540813","prefecture":"愛知県","prefecture_kana":"アイチケン","city":"名古屋市中川区","city_kana":"ナゴヤシナカガワク","town":"乗越町","town_kana":"ノリコシチョウ","prefecture_code":23},"0844":{"zip_code":"4540844","prefecture":"愛知県","prefecture_kana":"アイチケン","city":"名古屋市中川区","city_kana":"ナゴヤシナカガワク","town":"葉池町","town_kana":"ハイケチョウ","prefecture_code":23},"0860":{"zip_code":"4540860","prefecture":"愛知県","prefecture_kana":"アイチケン","city":"名古屋市中川区","city_kana":"ナゴヤシナカガワク","town":"畑田町","town_kana":"ハタダチョウ","prefecture_code":23},"0016":{"zip_code":"4540016","prefecture":"愛知県","prefecture_kana":"アイチケン","city":"名古屋市中川区","city_kana":"ナゴヤシナカガワク","town":"幡野町","town_kana":"ハタノチョウ","prefecture_code":23},"0054":{"zip_code":"4540054","prefecture":"愛知県","prefecture_kana":"アイチケン","city":"名古屋市中川区","city_kana":"ナゴヤシナカガワク","town":"八剱町","town_kana":"ハチケンチョウ","prefecture_code":23},"0877":{"zip_code":"4540877","prefecture":"愛知県","prefecture_kana":"アイチケン","city":"名古屋市中川区","city_kana":"ナゴヤシナカガワク","town":"八田町","town_kana":"ハッタチョウ","prefecture_code":23},"0904":{"zip_code":"4540904","prefecture":"愛知県","prefecture_kana":"アイチケン","city":"名古屋市中川区","city_kana":"ナゴヤシナカガワク","town":"八田本町","town_kana":"ハッタホンマチ","prefecture_code":23},"0976":{"zip_code":"4540976","prefecture":"愛知県","prefecture_kana":"アイチケン","city":"名古屋市中川区","city_kana":"ナゴヤシナカガワク","town":"服部","town_kana":"ハットリ","prefecture_code":23},"0902":{"zip_code":"4540902","prefecture":"愛知県","prefecture_kana":"アイチケン","city":"名古屋市中川区","city_kana":"ナゴヤシナカガワク","town":"花池町","town_kana":"ハナイケチョウ","prefecture_code":23},"0052":{"zip_code":"4540052","prefecture":"愛知県","prefecture_kana":"アイチケン","city":"名古屋市中川区","city_kana":"ナゴヤシナカガワク","town":"花塚町","town_kana":"ハナヅカチョウ","prefecture_code":23},"0985":{"zip_code":"4540985","prefecture":"愛知県","prefecture_kana":"アイチケン","city":"名古屋市中川区","city_kana":"ナゴヤシナカガワク","town":"春田","town_kana":"ハルタ","prefecture_code":23},"0935":{"zip_code":"4540935","prefecture":"愛知県","prefecture_kana":"アイチケン","city":"名古屋市中川区","city_kana":"ナゴヤシナカガワク","town":"東起町","town_kana":"ヒガシオコシチョウ","prefecture_code":23},"0958":{"zip_code":"4540958","prefecture":"愛知県","prefecture_kana":"アイチケン","city":"名古屋市中川区","city_kana":"ナゴヤシナカガワク","town":"東かの里町","town_kana":"ヒガシカノサトチョウ","prefecture_code":23},"0866":{"zip_code":"4540866","prefecture":"愛知県","prefecture_kana":"アイチケン","city":"名古屋市中川区","city_kana":"ナゴヤシナカガワク","town":"東中島町","town_kana":"ヒガシナカジマチョウ","prefecture_code":23},"0983":{"zip_code":"4540983","prefecture":"愛知県","prefecture_kana":"アイチケン","city":"名古屋市中川区","city_kana":"ナゴヤシナカガワク","town":"東春田","town_kana":"ヒガシハルタ","prefecture_code":23},"0975":{"zip_code":"4540975","prefecture":"愛知県","prefecture_kana":"アイチケン","city":"名古屋市中川区","city_kana":"ナゴヤシナカガワク","town":"七反田町","town_kana":"ヒチタンダチョウ","prefecture_code":23},"0864":{"zip_code":"4540864","prefecture":"愛知県","prefecture_kana":"アイチケン","city":"名古屋市中川区","city_kana":"ナゴヤシナカガワク","town":"平戸町","town_kana":"ヒラトチョウ","prefecture_code":23},"0027":{"zip_code":"4540027","prefecture":"愛知県","prefecture_kana":"アイチケン","city":"名古屋市中川区","city_kana":"ナゴヤシナカガワク","town":"広川町","town_kana":"ヒロカワチョウ","prefecture_code":23},"0007":{"zip_code":"4540007","prefecture":"愛知県","prefecture_kana":"アイチケン","city":"名古屋市中川区","city_kana":"ナゴヤシナカガワク","town":"広住町","town_kana":"ヒロスミチョウ","prefecture_code":23},"0867":{"zip_code":"4540867","prefecture":"愛知県","prefecture_kana":"アイチケン","city":"名古屋市中川区","city_kana":"ナゴヤシナカガワク","town":"広田町","town_kana":"ヒロタチョウ","prefecture_code":23},"0059":{"zip_code":"4540059","prefecture":"愛知県","prefecture_kana":"アイチケン","city":"名古屋市中川区","city_kana":"ナゴヤシナカガワク","town":"福川町","town_kana":"フクカワチョウ","prefecture_code":23},"0965":{"zip_code":"4540965","prefecture":"愛知県","prefecture_kana":"アイチケン","city":"名古屋市中川区","city_kana":"ナゴヤシナカガワク","town":"福島","town_kana":"フクシマ","prefecture_code":23},"0802":{"zip_code":"4540802","prefecture":"愛知県","prefecture_kana":"アイチケン","city":"名古屋市中川区","city_kana":"ナゴヤシナカガワク","town":"福住町","town_kana":"フクズミチョウ","prefecture_code":23},"0836":{"zip_code":"4540836","prefecture":"愛知県","prefecture_kana":"アイチケン","city":"名古屋市中川区","city_kana":"ナゴヤシナカガワク","town":"福船町","town_kana":"フクフネチョウ","prefecture_code":23},"0996":{"zip_code":"4540996","prefecture":"愛知県","prefecture_kana":"アイチケン","city":"名古屋市中川区","city_kana":"ナゴヤシナカガワク","town":"伏屋","town_kana":"フシヤ","prefecture_code":23},"0805":{"zip_code":"4540805","prefecture":"愛知県","prefecture_kana":"アイチケン","city":"名古屋市中川区","city_kana":"ナゴヤシナカガワク","town":"舟戸町","town_kana":"フナトチョウ","prefecture_code":23},"0803":{"zip_code":"4540803","prefecture":"愛知県","prefecture_kana":"アイチケン","city":"名古屋市中川区","city_kana":"ナゴヤシナカガワク","town":"豊成町","town_kana":"ホウセイチョウ","prefecture_code":23},"0859":{"zip_code":"4540859","prefecture":"愛知県","prefecture_kana":"アイチケン","city":"名古屋市中川区","city_kana":"ナゴヤシナカガワク","town":"法蔵町","town_kana":"ホウゾウチョウ","prefecture_code":23},"0847":{"zip_code":"4540847","prefecture":"愛知県","prefecture_kana":"アイチケン","city":"名古屋市中川区","city_kana":"ナゴヤシナカガワク","town":"細米町","town_kana":"ホソコメチョウ","prefecture_code":23},"0933":{"zip_code":"4540933","prefecture":"愛知県","prefecture_kana":"アイチケン","city":"名古屋市中川区","city_kana":"ナゴヤシナカガワク","town":"法華","town_kana":"ホッケ","prefecture_code":23},"0937":{"zip_code":"4540937","prefecture":"愛知県","prefecture_kana":"アイチケン","city":"名古屋市中川区","city_kana":"ナゴヤシナカガワク","town":"法華西町","town_kana":"ホッケニシマチ","prefecture_code":23},"0914":{"zip_code":"4540914","prefecture":"愛知県","prefecture_kana":"アイチケン","city":"名古屋市中川区","city_kana":"ナゴヤシナカガワク","town":"本前田町","town_kana":"ホンマエダチョウ","prefecture_code":23},"0941":{"zip_code":"4540941","prefecture":"愛知県","prefecture_kana":"アイチケン","city":"名古屋市中川区","city_kana":"ナゴヤシナカガワク","town":"前田西町","town_kana":"マエダニシマチ","prefecture_code":23},"0025":{"zip_code":"4540025","prefecture":"愛知県","prefecture_kana":"アイチケン","city":"名古屋市中川区","city_kana":"ナゴヤシナカガワク","town":"前並町","town_kana":"マエナミチョウ","prefecture_code":23},"0003":{"zip_code":"4540003","prefecture":"愛知県","prefecture_kana":"アイチケン","city":"名古屋市中川区","city_kana":"ナゴヤシナカガワク","town":"松重町","town_kana":"マツシゲチョウ","prefecture_code":23},"0848":{"zip_code":"4540848","prefecture":"愛知県","prefecture_kana":"アイチケン","city":"名古屋市中川区","city_kana":"ナゴヤシナカガワク","town":"松ノ木町","town_kana":"マツノキチョウ","prefecture_code":23},"0818":{"zip_code":"4540818","prefecture":"愛知県","prefecture_kana":"アイチケン","city":"名古屋市中川区","city_kana":"ナゴヤシナカガワク","town":"松葉町","town_kana":"マツバチョウ","prefecture_code":23},"0862":{"zip_code":"4540862","prefecture":"愛知県","prefecture_kana":"アイチケン","city":"名古屋市中川区","city_kana":"ナゴヤシナカガワク","town":"的場町","town_kana":"マトバチョウ","prefecture_code":23},"0834":{"zip_code":"4540834","prefecture":"愛知県","prefecture_kana":"アイチケン","city":"名古屋市中川区","city_kana":"ナゴヤシナカガワク","town":"丸米町","town_kana":"マルコメチョウ","prefecture_code":23},"0872":{"zip_code":"4540872","prefecture":"愛知県","prefecture_kana":"アイチケン","city":"名古屋市中川区","city_kana":"ナゴヤシナカガワク","town":"万町","town_kana":"マンチョウ","prefecture_code":23},"0997":{"zip_code":"4540997","prefecture":"愛知県","prefecture_kana":"アイチケン","city":"名古屋市中川区","city_kana":"ナゴヤシナカガワク","town":"万場","town_kana":"マンバ","prefecture_code":23},"0963":{"zip_code":"4540963","prefecture":"愛知県","prefecture_kana":"アイチケン","city":"名古屋市中川区","city_kana":"ナゴヤシナカガワク","town":"水里","town_kana":"ミズサト","prefecture_code":23},"0811":{"zip_code":"4540811","prefecture":"愛知県","prefecture_kana":"アイチケン","city":"名古屋市中川区","city_kana":"ナゴヤシナカガワク","town":"三ツ池町","town_kana":"ミツイケチョウ","prefecture_code":23},"0831":{"zip_code":"4540831","prefecture":"愛知県","prefecture_kana":"アイチケン","city":"名古屋市中川区","city_kana":"ナゴヤシナカガワク","town":"三ツ屋町","town_kana":"ミツヤチョウ","prefecture_code":23},"0015":{"zip_code":"4540015","prefecture":"愛知県","prefecture_kana":"アイチケン","city":"名古屋市中川区","city_kana":"ナゴヤシナカガワク","town":"南八熊町","town_kana":"ミナミヤグマチョウ","prefecture_code":23},"0817":{"zip_code":"4540817","prefecture":"愛知県","prefecture_kana":"アイチケン","city":"名古屋市中川区","city_kana":"ナゴヤシナカガワク","town":"南脇町","town_kana":"ミナミワキチョウ","prefecture_code":23},"0842":{"zip_code":"4540842","prefecture":"愛知県","prefecture_kana":"アイチケン","city":"名古屋市中川区","city_kana":"ナゴヤシナカガワク","town":"宮脇町","town_kana":"ミヤワキチョウ","prefecture_code":23},"0857":{"zip_code":"4540857","prefecture":"愛知県","prefecture_kana":"アイチケン","city":"名古屋市中川区","city_kana":"ナゴヤシナカガワク","town":"明徳町","town_kana":"メイトクチョウ","prefecture_code":23},"0048":{"zip_code":"4540048","prefecture":"愛知県","prefecture_kana":"アイチケン","city":"名古屋市中川区","city_kana":"ナゴヤシナカガワク","town":"元中野町","town_kana":"モトナカノチョウ","prefecture_code":23},"0801":{"zip_code":"4540801","prefecture":"愛知県","prefecture_kana":"アイチケン","city":"名古屋市中川区","city_kana":"ナゴヤシナカガワク","town":"百船町","town_kana":"モモフネチョウ","prefecture_code":23},"0041":{"zip_code":"4540041","prefecture":"愛知県","prefecture_kana":"アイチケン","city":"名古屋市中川区","city_kana":"ナゴヤシナカガワク","town":"八神町","town_kana":"ヤガミチョウ","prefecture_code":23},"0013":{"zip_code":"4540013","prefecture":"愛知県","prefecture_kana":"アイチケン","city":"名古屋市中川区","city_kana":"ナゴヤシナカガワク","town":"八熊","town_kana":"ヤグマ","prefecture_code":23},"0035":{"zip_code":"4540035","prefecture":"愛知県","prefecture_kana":"アイチケン","city":"名古屋市中川区","city_kana":"ナゴヤシナカガワク","town":"八熊通","town_kana":"ヤグマドオリ","prefecture_code":23},"0835":{"zip_code":"4540835","prefecture":"愛知県","prefecture_kana":"アイチケン","city":"名古屋市中川区","city_kana":"ナゴヤシナカガワク","town":"八家町","town_kana":"ヤツヤチョウ","prefecture_code":23},"0014":{"zip_code":"4540014","prefecture":"愛知県","prefecture_kana":"アイチケン","city":"名古屋市中川区","city_kana":"ナゴヤシナカガワク","town":"柳川町","town_kana":"ヤナガワチョウ","prefecture_code":23},"0024":{"zip_code":"4540024","prefecture":"愛知県","prefecture_kana":"アイチケン","city":"名古屋市中川区","city_kana":"ナゴヤシナカガワク","town":"柳島町","town_kana":"ヤナギシマチョウ","prefecture_code":23},"0907":{"zip_code":"4540907","prefecture":"愛知県","prefecture_kana":"アイチケン","city":"名古屋市中川区","city_kana":"ナゴヤシナカガワク","town":"柳田町","town_kana":"ヤナギダチョウ","prefecture_code":23},"0006":{"zip_code":"4540006","prefecture":"愛知県","prefecture_kana":"アイチケン","city":"名古屋市中川区","city_kana":"ナゴヤシナカガワク","town":"柳堀町","town_kana":"ヤナギボリチョウ","prefecture_code":23},"0903":{"zip_code":"4540903","prefecture":"愛知県","prefecture_kana":"アイチケン","city":"名古屋市中川区","city_kana":"ナゴヤシナカガワク","town":"柳瀬町","town_kana":"ヤナセチョウ","prefecture_code":23},"0871":{"zip_code":"4540871","prefecture":"愛知県","prefecture_kana":"アイチケン","city":"名古屋市中川区","city_kana":"ナゴヤシナカガワク","town":"柳森町","town_kana":"ヤナモリチョウ","prefecture_code":23},"0031":{"zip_code":"4540031","prefecture":"愛知県","prefecture_kana":"アイチケン","city":"名古屋市中川区","city_kana":"ナゴヤシナカガワク","town":"八幡本通","town_kana":"ヤハタホントオリ","prefecture_code":23},"0915":{"zip_code":"4540915","prefecture":"愛知県","prefecture_kana":"アイチケン","city":"名古屋市中川区","city_kana":"ナゴヤシナカガワク","town":"横井","town_kana":"ヨコイ","prefecture_code":23},"0021":{"zip_code":"4540021","prefecture":"愛知県","prefecture_kana":"アイチケン","city":"名古屋市中川区","city_kana":"ナゴヤシナカガワク","town":"横堀町","town_kana":"ヨコボリチョウ","prefecture_code":23},"0917":{"zip_code":"4540917","prefecture":"愛知県","prefecture_kana":"アイチケン","city":"名古屋市中川区","city_kana":"ナゴヤシナカガワク","town":"横前町","town_kana":"ヨコマエチョウ","prefecture_code":23},"0981":{"zip_code":"4540981","prefecture":"愛知県","prefecture_kana":"アイチケン","city":"名古屋市中川区","city_kana":"ナゴヤシナカガワク","town":"吉津","town_kana":"ヨシヅ","prefecture_code":23},"0825":{"zip_code":"4540825","prefecture":"愛知県","prefecture_kana":"アイチケン","city":"名古屋市中川区","city_kana":"ナゴヤシナカガワク","town":"好本町","town_kana":"ヨシモトチョウ","prefecture_code":23},"0876":{"zip_code":"4540876","prefecture":"愛知県","prefecture_kana":"アイチケン","city":"名古屋市中川区","city_kana":"ナゴヤシナカガワク","town":"若山町","town_kana":"ワカヤマチョウ","prefecture_code":23}}