{"0000":{"zip_code":"4550000","prefecture":"愛知県","prefecture_kana":"アイチケン","city":"名古屋市港区","city_kana":"ナゴヤシミナトク","town":"","town_kana":"","prefecture_code":23},"0857":{"zip_code":"4550857","prefecture":"愛知県","prefecture_kana":"アイチケン","city":"名古屋市港区","city_kana":"ナゴヤシミナトク","town":"秋葉","town_kana":"アキハ","prefecture_code":23},"0035":{"zip_code":"4550035","prefecture":"愛知県","prefecture_kana":"アイチケン","city":"名古屋市港区","city_kana":"ナゴヤシミナトク","town":"熱田前新田","town_kana":"アツタマエシンデン","prefecture_code":23},"0815":{"zip_code":"4550815","prefecture":"愛知県","prefecture_kana":"アイチケン","city":"名古屋市港区","city_kana":"ナゴヤシミナトク","town":"油屋町","town_kana":"アブラヤチョウ","prefecture_code":23},"0823":{"zip_code":"4550823","prefecture":"愛知県","prefecture_kana":"アイチケン","city":"名古屋市港区","city_kana":"ナゴヤシミナトク","town":"惟信町","town_kana":"イシンチョウ","prefecture_code":23},"0841":{"zip_code":"4550841","prefecture":"愛知県","prefecture_kana":"アイチケン","city":"名古屋市港区","city_kana":"ナゴヤシミナトク","town":"一州町","town_kana":"イッシュウチョウ","prefecture_code":23},"0842":{"zip_code":"4550842","prefecture":"愛知県","prefecture_kana":"アイチケン","city":"名古屋市港区","city_kana":"ナゴヤシミナトク","town":"稲永","town_kana":"イナエイ","prefecture_code":23},"0803":{"zip_code":"4550803","prefecture":"愛知県","prefecture_kana":"アイチケン","city":"名古屋市港区","city_kana":"ナゴヤシミナトク","town":"入場","town_kana":"イリバ","prefecture_code":23},"0802":{"zip_code":"4550802","prefecture":"愛知県","prefecture_kana":"アイチケン","city":"名古屋市港区","city_kana":"ナゴヤシミナトク","town":"入場町","town_kana":"イリバチョウ","prefecture_code":23},"0032":{"zip_code":"4550032","prefecture":"愛知県","prefecture_kana":"アイチケン","city":"名古屋市港区","city_kana":"ナゴヤシミナトク","town":"入船","town_kana":"イリフネ","prefecture_code":23},"0052":{"zip_code":"4550052","prefecture":"愛知県","prefecture_kana":"アイチケン","city":"名古屋市港区","city_kana":"ナゴヤシミナトク","town":"いろは町","town_kana":"イロハチョウ","prefecture_code":23},"0054":{"zip_code":"4550054","prefecture":"愛知県","prefecture_kana":"アイチケン","city":"名古屋市港区","city_kana":"ナゴヤシミナトク","town":"遠若町","town_kana":"エンジャクチョウ","prefecture_code":23},"0801":{"zip_code":"4550801","prefecture":"愛知県","prefecture_kana":"アイチケン","city":"名古屋市港区","city_kana":"ナゴヤシミナトク","town":"小碓","town_kana":"オウス","prefecture_code":23},"0062":{"zip_code":"4550062","prefecture":"愛知県","prefecture_kana":"アイチケン","city":"名古屋市港区","city_kana":"ナゴヤシミナトク","town":"小碓町","town_kana":"オウスチョウ","prefecture_code":23},"0024":{"zip_code":"4550024","prefecture":"愛知県","prefecture_kana":"アイチケン","city":"名古屋市港区","city_kana":"ナゴヤシミナトク","town":"大江町","town_kana":"オオエチョウ","prefecture_code":23},"0046":{"zip_code":"4550046","prefecture":"愛知県","prefecture_kana":"アイチケン","city":"名古屋市港区","city_kana":"ナゴヤシミナトク","town":"大手町","town_kana":"オオテマチ","prefecture_code":23},"0861":{"zip_code":"4550861","prefecture":"愛知県","prefecture_kana":"アイチケン","city":"名古屋市港区","city_kana":"ナゴヤシミナトク","town":"大西","town_kana":"オオニシ","prefecture_code":23},"0864":{"zip_code":"4550864","prefecture":"愛知県","prefecture_kana":"アイチケン","city":"名古屋市港区","city_kana":"ナゴヤシミナトク","town":"小川","town_kana":"オガワ","prefecture_code":23},"0017":{"zip_code":"4550017","prefecture":"愛知県","prefecture_kana":"アイチケン","city":"名古屋市港区","city_kana":"ナゴヤシミナトク","town":"金川町","town_kana":"カネカワチョウ","prefecture_code":23},"0063":{"zip_code":"4550063","prefecture":"愛知県","prefecture_kana":"アイチケン","city":"名古屋市港区","city_kana":"ナゴヤシミナトク","town":"金船町","town_kana":"カネフネチョウ","prefecture_code":23},"0016":{"zip_code":"4550016","prefecture":"愛知県","prefecture_kana":"アイチケン","city":"名古屋市港区","city_kana":"ナゴヤシミナトク","town":"河口町","town_kana":"カワクチチョウ","prefecture_code":23},"0856":{"zip_code":"4550856","prefecture":"愛知県","prefecture_kana":"アイチケン","city":"名古屋市港区","city_kana":"ナゴヤシミナトク","town":"川園","town_kana":"カワソノ","prefecture_code":23},"0073":{"zip_code":"4550073","prefecture":"愛知県","prefecture_kana":"アイチケン","city":"名古屋市港区","city_kana":"ナゴヤシミナトク","town":"川西通","town_kana":"カワニシドオリ","prefecture_code":23},"0076":{"zip_code":"4550076","prefecture":"愛知県","prefecture_kana":"アイチケン","city":"名古屋市港区","city_kana":"ナゴヤシミナトク","town":"川間町","town_kana":"カワマチョウ","prefecture_code":23},"0066":{"zip_code":"4550066","prefecture":"愛知県","prefecture_kana":"アイチケン","city":"名古屋市港区","city_kana":"ナゴヤシミナトク","town":"寛政町","town_kana":"カンセイチョウ","prefecture_code":23},"0021":{"zip_code":"4550021","prefecture":"愛知県","prefecture_kana":"アイチケン","city":"名古屋市港区","city_kana":"ナゴヤシミナトク","town":"木場町","town_kana":"キバチョウ","prefecture_code":23},"0869":{"zip_code":"4550869","prefecture":"愛知県","prefecture_kana":"アイチケン","city":"名古屋市港区","city_kana":"ナゴヤシミナトク","town":"協和","town_kana":"キョウワ","prefecture_code":23},"0848":{"zip_code":"4550848","prefecture":"愛知県","prefecture_kana":"アイチケン","city":"名古屋市港区","city_kana":"ナゴヤシミナトク","town":"金城ふ頭","town_kana":"キンジョウフトウ","prefecture_code":23},"0008":{"zip_code":"4550008","prefecture":"愛知県","prefecture_kana":"アイチケン","city":"名古屋市港区","city_kana":"ナゴヤシミナトク","town":"九番町","town_kana":"クバンチョウ","prefecture_code":23},"0015":{"zip_code":"4550015","prefecture":"愛知県","prefecture_kana":"アイチケン","city":"名古屋市港区","city_kana":"ナゴヤシミナトク","town":"港栄","town_kana":"コウエイ","prefecture_code":23},"0067":{"zip_code":"4550067","prefecture":"愛知県","prefecture_kana":"アイチケン","city":"名古屋市港区","city_kana":"ナゴヤシミナトク","town":"港北町","town_kana":"コウホクチョウ","prefecture_code":23},"0018":{"zip_code":"4550018","prefecture":"愛知県","prefecture_kana":"アイチケン","city":"名古屋市港区","city_kana":"ナゴヤシミナトク","town":"港明","town_kana":"コウメイ","prefecture_code":23},"0013":{"zip_code":"4550013","prefecture":"愛知県","prefecture_kana":"アイチケン","city":"名古屋市港区","city_kana":"ナゴヤシミナトク","town":"港陽","town_kana":"コウヨウ","prefecture_code":23},"0014":{"zip_code":"4550014","prefecture":"愛知県","prefecture_kana":"アイチケン","city":"名古屋市港区","city_kana":"ナゴヤシミナトク","town":"港楽","town_kana":"コウラク","prefecture_code":23},"0882":{"zip_code":"4550882","prefecture":"愛知県","prefecture_kana":"アイチケン","city":"名古屋市港区","city_kana":"ナゴヤシミナトク","town":"小賀須","town_kana":"コガス","prefecture_code":23},"0077":{"zip_code":"4550077","prefecture":"愛知県","prefecture_kana":"アイチケン","city":"名古屋市港区","city_kana":"ナゴヤシミナトク","town":"小割通","town_kana":"コワリドオリ","prefecture_code":23},"0041":{"zip_code":"4550041","prefecture":"愛知県","prefecture_kana":"アイチケン","city":"名古屋市港区","city_kana":"ナゴヤシミナトク","town":"幸町","town_kana":"サイワイチョウ","prefecture_code":23},"0043":{"zip_code":"4550043","prefecture":"愛知県","prefecture_kana":"アイチケン","city":"名古屋市港区","city_kana":"ナゴヤシミナトク","town":"魁町","town_kana":"サキガケチョウ","prefecture_code":23},"0012":{"zip_code":"4550012","prefecture":"愛知県","prefecture_kana":"アイチケン","city":"名古屋市港区","city_kana":"ナゴヤシミナトク","town":"作倉町","town_kana":"サクラチョウ","prefecture_code":23},"0042":{"zip_code":"4550042","prefecture":"愛知県","prefecture_kana":"アイチケン","city":"名古屋市港区","city_kana":"ナゴヤシミナトク","town":"佐野町","town_kana":"サノマチ","prefecture_code":23},"0846":{"zip_code":"4550846","prefecture":"愛知県","prefecture_kana":"アイチケン","city":"名古屋市港区","city_kana":"ナゴヤシミナトク","town":"汐止町","town_kana":"シオトメチョウ","prefecture_code":23},"0844":{"zip_code":"4550844","prefecture":"愛知県","prefecture_kana":"アイチケン","city":"名古屋市港区","city_kana":"ナゴヤシミナトク","town":"潮凪町","town_kana":"シオナギチョウ","prefecture_code":23},"0028":{"zip_code":"4550028","prefecture":"愛知県","prefecture_kana":"アイチケン","city":"名古屋市港区","city_kana":"ナゴヤシミナトク","town":"潮見町","town_kana":"シオミチョウ","prefecture_code":23},"0884":{"zip_code":"4550884","prefecture":"愛知県","prefecture_kana":"アイチケン","city":"名古屋市港区","city_kana":"ナゴヤシミナトク","town":"七反野","town_kana":"シチタンノ","prefecture_code":23},"0001":{"zip_code":"4550001","prefecture":"愛知県","prefecture_kana":"アイチケン","city":"名古屋市港区","city_kana":"ナゴヤシミナトク","town":"七番町","town_kana":"シチバンチョウ","prefecture_code":23},"0055":{"zip_code":"4550055","prefecture":"愛知県","prefecture_kana":"アイチケン","city":"名古屋市港区","city_kana":"ナゴヤシミナトク","town":"品川町","town_kana":"シナガワチョウ","prefecture_code":23},"0831":{"zip_code":"4550831","prefecture":"愛知県","prefecture_kana":"アイチケン","city":"名古屋市港区","city_kana":"ナゴヤシミナトク","town":"十一屋","town_kana":"ジュウイチヤ","prefecture_code":23},"0835":{"zip_code":"4550835","prefecture":"愛知県","prefecture_kana":"アイチケン","city":"名古屋市港区","city_kana":"ナゴヤシミナトク","town":"十一屋町","town_kana":"ジュウイチヤチョウ","prefecture_code":23},"0075":{"zip_code":"4550075","prefecture":"愛知県","prefecture_kana":"アイチケン","city":"名古屋市港区","city_kana":"ナゴヤシミナトク","town":"正徳町","town_kana":"ショウトクチョウ","prefecture_code":23},"0074":{"zip_code":"4550074","prefecture":"愛知県","prefecture_kana":"アイチケン","city":"名古屋市港区","city_kana":"ナゴヤシミナトク","town":"正保町","town_kana":"ショウホウチョウ","prefecture_code":23},"0026":{"zip_code":"4550026","prefecture":"愛知県","prefecture_kana":"アイチケン","city":"名古屋市港区","city_kana":"ナゴヤシミナトク","town":"昭和町","town_kana":"ショウワチョウ","prefecture_code":23},"0005":{"zip_code":"4550005","prefecture":"愛知県","prefecture_kana":"アイチケン","city":"名古屋市港区","city_kana":"ナゴヤシミナトク","town":"新川町","town_kana":"シンカワチョウ","prefecture_code":23},"0834":{"zip_code":"4550834","prefecture":"愛知県","prefecture_kana":"アイチケン","city":"名古屋市港区","city_kana":"ナゴヤシミナトク","town":"神宮寺","town_kana":"ジングウジ","prefecture_code":23},"0863":{"zip_code":"4550863","prefecture":"愛知県","prefecture_kana":"アイチケン","city":"名古屋市港区","city_kana":"ナゴヤシミナトク","town":"新茶屋","town_kana":"シンチャヤ","prefecture_code":23},"0071":{"zip_code":"4550071","prefecture":"愛知県","prefecture_kana":"アイチケン","city":"名古屋市港区","city_kana":"ナゴヤシミナトク","town":"新船町","town_kana":"シンフネチョウ","prefecture_code":23},"0822":{"zip_code":"4550822","prefecture":"愛知県","prefecture_kana":"アイチケン","city":"名古屋市港区","city_kana":"ナゴヤシミナトク","town":"甚兵衛通","town_kana":"ジンベエトオリ","prefecture_code":23},"0056":{"zip_code":"4550056","prefecture":"愛知県","prefecture_kana":"アイチケン","city":"名古屋市港区","city_kana":"ナゴヤシミナトク","town":"砂美町","town_kana":"スナミチョウ","prefecture_code":23},"0072":{"zip_code":"4550072","prefecture":"愛知県","prefecture_kana":"アイチケン","city":"名古屋市港区","city_kana":"ナゴヤシミナトク","town":"須成町","town_kana":"スナリチョウ","prefecture_code":23},"0811":{"zip_code":"4550811","prefecture":"愛知県","prefecture_kana":"アイチケン","city":"名古屋市港区","city_kana":"ナゴヤシミナトク","town":"善進町","town_kana":"ゼンシンチョウ","prefecture_code":23},"0813":{"zip_code":"4550813","prefecture":"愛知県","prefecture_kana":"アイチケン","city":"名古屋市港区","city_kana":"ナゴヤシミナトク","town":"善進本町","town_kana":"ゼンシンホンマチ","prefecture_code":23},"0881":{"zip_code":"4550881","prefecture":"愛知県","prefecture_kana":"アイチケン","city":"名古屋市港区","city_kana":"ナゴヤシミナトク","town":"船頭場","town_kana":"センドウバ","prefecture_code":23},"0814":{"zip_code":"4550814","prefecture":"愛知県","prefecture_kana":"アイチケン","city":"名古屋市港区","city_kana":"ナゴヤシミナトク","town":"善南町","town_kana":"ゼンナンチョウ","prefecture_code":23},"0812":{"zip_code":"4550812","prefecture":"愛知県","prefecture_kana":"アイチケン","city":"名古屋市港区","city_kana":"ナゴヤシミナトク","town":"善北町","town_kana":"ゼンホクチョウ","prefecture_code":23},"0847":{"zip_code":"4550847","prefecture":"愛知県","prefecture_kana":"アイチケン","city":"名古屋市港区","city_kana":"ナゴヤシミナトク","town":"空見町","town_kana":"ソラミチョウ","prefecture_code":23},"0069":{"zip_code":"4550069","prefecture":"愛知県","prefecture_kana":"アイチケン","city":"名古屋市港区","city_kana":"ナゴヤシミナトク","town":"泰明町","town_kana":"タイメイチョウ","prefecture_code":23},"0821":{"zip_code":"4550821","prefecture":"愛知県","prefecture_kana":"アイチケン","city":"名古屋市港区","city_kana":"ナゴヤシミナトク","town":"高木町","town_kana":"タカギチョウ","prefecture_code":23},"0825":{"zip_code":"4550825","prefecture":"愛知県","prefecture_kana":"アイチケン","city":"名古屋市港区","city_kana":"ナゴヤシミナトク","town":"多加良浦町","town_kana":"タカラウラチョウ","prefecture_code":23},"0003":{"zip_code":"4550003","prefecture":"愛知県","prefecture_kana":"アイチケン","city":"名古屋市港区","city_kana":"ナゴヤシミナトク","town":"辰巳町","town_kana":"タツミチョウ","prefecture_code":23},"0057":{"zip_code":"4550057","prefecture":"愛知県","prefecture_kana":"アイチケン","city":"名古屋市港区","city_kana":"ナゴヤシミナトク","town":"築盛町","town_kana":"チクモリチョウ","prefecture_code":23},"0883":{"zip_code":"4550883","prefecture":"愛知県","prefecture_kana":"アイチケン","city":"名古屋市港区","city_kana":"ナゴヤシミナトク","town":"知多","town_kana":"チタ","prefecture_code":23},"0011":{"zip_code":"4550011","prefecture":"愛知県","prefecture_kana":"アイチケン","city":"名古屋市港区","city_kana":"ナゴヤシミナトク","town":"千年","town_kana":"チトセ","prefecture_code":23},"0031":{"zip_code":"4550031","prefecture":"愛知県","prefecture_kana":"アイチケン","city":"名古屋市港区","city_kana":"ナゴヤシミナトク","town":"千鳥","town_kana":"チドリ","prefecture_code":23},"0004":{"zip_code":"4550004","prefecture":"愛知県","prefecture_kana":"アイチケン","city":"名古屋市港区","city_kana":"ナゴヤシミナトク","town":"津金","town_kana":"ツカネ","prefecture_code":23},"0044":{"zip_code":"4550044","prefecture":"愛知県","prefecture_kana":"アイチケン","city":"名古屋市港区","city_kana":"ナゴヤシミナトク","town":"築三町","town_kana":"ツキサンチョウ","prefecture_code":23},"0045":{"zip_code":"4550045","prefecture":"愛知県","prefecture_kana":"アイチケン","city":"名古屋市港区","city_kana":"ナゴヤシミナトク","town":"築地町","town_kana":"ツキジチョウ","prefecture_code":23},"0875":{"zip_code":"4550875","prefecture":"愛知県","prefecture_kana":"アイチケン","city":"名古屋市港区","city_kana":"ナゴヤシミナトク","town":"寺前町","town_kana":"テラマエチョウ","prefecture_code":23},"0865":{"zip_code":"4550865","prefecture":"愛知県","prefecture_kana":"アイチケン","city":"名古屋市港区","city_kana":"ナゴヤシミナトク","town":"天目町","town_kana":"テンモクチョウ","prefecture_code":23},"0002":{"zip_code":"4550002","prefecture":"愛知県","prefecture_kana":"アイチケン","city":"名古屋市港区","city_kana":"ナゴヤシミナトク","town":"東海通","town_kana":"トウカイドオリ","prefecture_code":23},"0804":{"zip_code":"4550804","prefecture":"愛知県","prefecture_kana":"アイチケン","city":"名古屋市港区","city_kana":"ナゴヤシミナトク","town":"当知","town_kana":"トウチ","prefecture_code":23},"0805":{"zip_code":"4550805","prefecture":"愛知県","prefecture_kana":"アイチケン","city":"名古屋市港区","city_kana":"ナゴヤシミナトク","town":"当知町","town_kana":"トウチチョウ","prefecture_code":23},"0068":{"zip_code":"4550068","prefecture":"愛知県","prefecture_kana":"アイチケン","city":"名古屋市港区","city_kana":"ナゴヤシミナトク","town":"土古町","town_kana":"ドンゴチョウ","prefecture_code":23},"0051":{"zip_code":"4550051","prefecture":"愛知県","prefecture_kana":"アイチケン","city":"名古屋市港区","city_kana":"ナゴヤシミナトク","town":"中川本町","town_kana":"ナカガワホンマチ","prefecture_code":23},"0047":{"zip_code":"4550047","prefecture":"愛知県","prefecture_kana":"アイチケン","city":"名古屋市港区","city_kana":"ナゴヤシミナトク","town":"中之島通","town_kana":"ナカノジマトオリ","prefecture_code":23},"0852":{"zip_code":"4550852","prefecture":"愛知県","prefecture_kana":"アイチケン","city":"名古屋市港区","city_kana":"ナゴヤシミナトク","town":"七島","town_kana":"ナナシマ","prefecture_code":23},"0862":{"zip_code":"4550862","prefecture":"愛知県","prefecture_kana":"アイチケン","city":"名古屋市港区","city_kana":"ナゴヤシミナトク","town":"南陽町茶屋新田","town_kana":"ナンヨウチョウチャヤシンデン","prefecture_code":23},"0866":{"zip_code":"4550866","prefecture":"愛知県","prefecture_kana":"アイチケン","city":"名古屋市港区","city_kana":"ナゴヤシミナトク","town":"南陽町茶屋後新田","town_kana":"ナンヨウチョウチャヤノチシンデン","prefecture_code":23},"0853":{"zip_code":"4550853","prefecture":"愛知県","prefecture_kana":"アイチケン","city":"名古屋市港区","city_kana":"ナゴヤシミナトク","town":"南陽町七島新田","town_kana":"ナンヨウチョウナナシマシンデン","prefecture_code":23},"0868":{"zip_code":"4550868","prefecture":"愛知県","prefecture_kana":"アイチケン","city":"名古屋市港区","city_kana":"ナゴヤシミナトク","town":"南陽町西福田","town_kana":"ナンヨウチョウニシフクタ","prefecture_code":23},"0871":{"zip_code":"4550871","prefecture":"愛知県","prefecture_kana":"アイチケン","city":"名古屋市港区","city_kana":"ナゴヤシミナトク","town":"南陽町福田","town_kana":"ナンヨウチョウフクタ","prefecture_code":23},"0867":{"zip_code":"4550867","prefecture":"愛知県","prefecture_kana":"アイチケン","city":"名古屋市港区","city_kana":"ナゴヤシミナトク","town":"南陽町福田前新田","town_kana":"ナンヨウチョウフクダマエシンデン","prefecture_code":23},"0872":{"zip_code":"4550872","prefecture":"愛知県","prefecture_kana":"アイチケン","city":"名古屋市港区","city_kana":"ナゴヤシミナトク","town":"西蟹田","town_kana":"ニシカニタ","prefecture_code":23},"0824":{"zip_code":"4550824","prefecture":"愛知県","prefecture_kana":"アイチケン","city":"名古屋市港区","city_kana":"ナゴヤシミナトク","town":"西川町","town_kana":"ニシカワチョウ","prefecture_code":23},"0843":{"zip_code":"4550843","prefecture":"愛知県","prefecture_kana":"アイチケン","city":"名古屋市港区","city_kana":"ナゴヤシミナトク","town":"錦町","town_kana":"ニシキマチ","prefecture_code":23},"0034":{"zip_code":"4550034","prefecture":"愛知県","prefecture_kana":"アイチケン","city":"名古屋市港区","city_kana":"ナゴヤシミナトク","town":"西倉町","town_kana":"ニシクラチョウ","prefecture_code":23},"0858":{"zip_code":"4550858","prefecture":"愛知県","prefecture_kana":"アイチケン","city":"名古屋市港区","city_kana":"ナゴヤシミナトク","town":"西茶屋","town_kana":"ニシチャヤ","prefecture_code":23},"0874":{"zip_code":"4550874","prefecture":"愛知県","prefecture_kana":"アイチケン","city":"名古屋市港区","city_kana":"ナゴヤシミナトク","town":"西福田","town_kana":"ニシフクタ","prefecture_code":23},"0845":{"zip_code":"4550845","prefecture":"愛知県","prefecture_kana":"アイチケン","city":"名古屋市港区","city_kana":"ナゴヤシミナトク","town":"野跡","town_kana":"ノセキ","prefecture_code":23},"0879":{"zip_code":"4550879","prefecture":"愛知県","prefecture_kana":"アイチケン","city":"名古屋市港区","city_kana":"ナゴヤシミナトク","town":"畑中","town_kana":"ハタナカ","prefecture_code":23},"0885":{"zip_code":"4550885","prefecture":"愛知県","prefecture_kana":"アイチケン","city":"名古屋市港区","city_kana":"ナゴヤシミナトク","town":"八百島","town_kana":"ハッピャクジマ","prefecture_code":23},"0036":{"zip_code":"4550036","prefecture":"愛知県","prefecture_kana":"アイチケン","city":"名古屋市港区","city_kana":"ナゴヤシミナトク","town":"浜","town_kana":"ハマ","prefecture_code":23},"0873":{"zip_code":"4550873","prefecture":"愛知県","prefecture_kana":"アイチケン","city":"名古屋市港区","city_kana":"ナゴヤシミナトク","town":"春田野","town_kana":"ハルタノ","prefecture_code":23},"0886":{"zip_code":"4550886","prefecture":"愛知県","prefecture_kana":"アイチケン","city":"名古屋市港区","city_kana":"ナゴヤシミナトク","town":"東蟹田","town_kana":"ヒガシカニタ","prefecture_code":23},"0851":{"zip_code":"4550851","prefecture":"愛知県","prefecture_kana":"アイチケン","city":"名古屋市港区","city_kana":"ナゴヤシミナトク","town":"東茶屋","town_kana":"ヒガシチャヤ","prefecture_code":23},"0023":{"zip_code":"4550023","prefecture":"愛知県","prefecture_kana":"アイチケン","city":"名古屋市港区","city_kana":"ナゴヤシミナトク","town":"東築地町","town_kana":"ヒガシツキジチョウ","prefecture_code":23},"0061":{"zip_code":"4550061","prefecture":"愛知県","prefecture_kana":"アイチケン","city":"名古屋市港区","city_kana":"ナゴヤシミナトク","town":"東土古町","town_kana":"ヒガシドンゴチョウ","prefecture_code":23},"0887":{"zip_code":"4550887","prefecture":"愛知県","prefecture_kana":"アイチケン","city":"名古屋市港区","city_kana":"ナゴヤシミナトク","town":"福田","town_kana":"フクタ","prefecture_code":23},"0878":{"zip_code":"4550878","prefecture":"愛知県","prefecture_kana":"アイチケン","city":"名古屋市港区","city_kana":"ナゴヤシミナトク","town":"福前","town_kana":"フクマエ","prefecture_code":23},"0876":{"zip_code":"4550876","prefecture":"愛知県","prefecture_kana":"アイチケン","city":"名古屋市港区","city_kana":"ナゴヤシミナトク","town":"福屋","town_kana":"フクヤ","prefecture_code":23},"0854":{"zip_code":"4550854","prefecture":"愛知県","prefecture_kana":"アイチケン","city":"名古屋市港区","city_kana":"ナゴヤシミナトク","town":"藤高","town_kana":"フジタカ","prefecture_code":23},"0855":{"zip_code":"4550855","prefecture":"愛知県","prefecture_kana":"アイチケン","city":"名古屋市港区","city_kana":"ナゴヤシミナトク","town":"藤前","town_kana":"フジマエ","prefecture_code":23},"0027":{"zip_code":"4550027","prefecture":"愛知県","prefecture_kana":"アイチケン","city":"名古屋市港区","city_kana":"ナゴヤシミナトク","town":"船見町","town_kana":"フナミチョウ","prefecture_code":23},"0832":{"zip_code":"4550832","prefecture":"愛知県","prefecture_kana":"アイチケン","city":"名古屋市港区","city_kana":"ナゴヤシミナトク","town":"宝神","town_kana":"ホウジン","prefecture_code":23},"0833":{"zip_code":"4550833","prefecture":"愛知県","prefecture_kana":"アイチケン","city":"名古屋市港区","city_kana":"ナゴヤシミナトク","town":"宝神町","town_kana":"ホウジンチョウ","prefecture_code":23},"0065":{"zip_code":"4550065","prefecture":"愛知県","prefecture_kana":"アイチケン","city":"名古屋市港区","city_kana":"ナゴヤシミナトク","town":"本宮新町","town_kana":"ホングウシンマチ","prefecture_code":23},"0064":{"zip_code":"4550064","prefecture":"愛知県","prefecture_kana":"アイチケン","city":"名古屋市港区","city_kana":"ナゴヤシミナトク","town":"本宮町","town_kana":"ホングウチョウ","prefecture_code":23},"0078":{"zip_code":"4550078","prefecture":"愛知県","prefecture_kana":"アイチケン","city":"名古屋市港区","city_kana":"ナゴヤシミナトク","town":"丸池町","town_kana":"マルイケチョウ","prefecture_code":23},"0033":{"zip_code":"4550033","prefecture":"愛知県","prefecture_kana":"アイチケン","city":"名古屋市港区","city_kana":"ナゴヤシミナトク","town":"港町","town_kana":"ミナトマチ","prefecture_code":23},"0007":{"zip_code":"4550007","prefecture":"愛知県","prefecture_kana":"アイチケン","city":"名古屋市港区","city_kana":"ナゴヤシミナトク","town":"南十番町","town_kana":"ミナミ10バンチョウ","prefecture_code":23},"0006":{"zip_code":"4550006","prefecture":"愛知県","prefecture_kana":"アイチケン","city":"名古屋市港区","city_kana":"ナゴヤシミナトク","town":"南十一番町","town_kana":"ミナミ11バンチョウ","prefecture_code":23},"0037":{"zip_code":"4550037","prefecture":"愛知県","prefecture_kana":"アイチケン","city":"名古屋市港区","city_kana":"ナゴヤシミナトク","town":"名港","town_kana":"メイコウ","prefecture_code":23},"0053":{"zip_code":"4550053","prefecture":"愛知県","prefecture_kana":"アイチケン","city":"名古屋市港区","city_kana":"ナゴヤシミナトク","town":"名四町","town_kana":"メイシチョウ","prefecture_code":23},"0806":{"zip_code":"4550806","prefecture":"愛知県","prefecture_kana":"アイチケン","city":"名古屋市港区","city_kana":"ナゴヤシミナトク","town":"明正","town_kana":"メイショウ","prefecture_code":23},"0025":{"zip_code":"4550025","prefecture":"愛知県","prefecture_kana":"アイチケン","city":"名古屋市港区","city_kana":"ナゴヤシミナトク","town":"本星崎町","town_kana":"モトホシザキチョウ","prefecture_code":23},"0022":{"zip_code":"4550022","prefecture":"愛知県","prefecture_kana":"アイチケン","city":"名古屋市港区","city_kana":"ナゴヤシミナトク","town":"竜宮町","town_kana":"リュウグウチョウ","prefecture_code":23},"0877":{"zip_code":"4550877","prefecture":"愛知県","prefecture_kana":"アイチケン","city":"名古屋市港区","city_kana":"ナゴヤシミナトク","town":"六軒家","town_kana":"ロッケンヤ","prefecture_code":23}}