{"0000":{"zip_code":"4570000","prefecture":"愛知県","prefecture_kana":"アイチケン","city":"名古屋市南区","city_kana":"ナゴヤシミナミク","town":"","town_kana":"","prefecture_code":23},"0024":{"zip_code":"4570024","prefecture":"愛知県","prefecture_kana":"アイチケン","city":"名古屋市南区","city_kana":"ナゴヤシミナミク","town":"赤坪町","town_kana":"アカツボチョウ","prefecture_code":23},"0063":{"zip_code":"4570063","prefecture":"愛知県","prefecture_kana":"アイチケン","city":"名古屋市南区","city_kana":"ナゴヤシミナミク","town":"阿原町","town_kana":"アハラチョウ","prefecture_code":23},"0831":{"zip_code":"4570831","prefecture":"愛知県","prefecture_kana":"アイチケン","city":"名古屋市南区","city_kana":"ナゴヤシミナミク","town":"荒浜町","town_kana":"アラハマチョウ","prefecture_code":23},"0075":{"zip_code":"4570075","prefecture":"愛知県","prefecture_kana":"アイチケン","city":"名古屋市南区","city_kana":"ナゴヤシミナミク","town":"石元町","town_kana":"イシモトチョウ","prefecture_code":23},"0015":{"zip_code":"4570015","prefecture":"愛知県","prefecture_kana":"アイチケン","city":"名古屋市南区","city_kana":"ナゴヤシミナミク","town":"岩戸町","town_kana":"イワトチョウ","prefecture_code":23},"0862":{"zip_code":"4570862","prefecture":"愛知県","prefecture_kana":"アイチケン","city":"名古屋市南区","city_kana":"ナゴヤシミナミク","town":"内田橋","town_kana":"ウチダバシ","prefecture_code":23},"0037":{"zip_code":"4570037","prefecture":"愛知県","prefecture_kana":"アイチケン","city":"名古屋市南区","city_kana":"ナゴヤシミナミク","town":"扇田町","town_kana":"オウギダチョウ","prefecture_code":23},"0048":{"zip_code":"4570048","prefecture":"愛知県","prefecture_kana":"アイチケン","city":"名古屋市南区","city_kana":"ナゴヤシミナミク","town":"大磯通","town_kana":"オオイソトオリ","prefecture_code":23},"0002":{"zip_code":"4570002","prefecture":"愛知県","prefecture_kana":"アイチケン","city":"名古屋市南区","city_kana":"ナゴヤシミナミク","town":"大堀町","town_kana":"オオホリチョウ","prefecture_code":23},"0035":{"zip_code":"4570035","prefecture":"愛知県","prefecture_kana":"アイチケン","city":"名古屋市南区","city_kana":"ナゴヤシミナミク","town":"貝塚町","town_kana":"カイヅカチョウ","prefecture_code":23},"0007":{"zip_code":"4570007","prefecture":"愛知県","prefecture_kana":"アイチケン","city":"名古屋市南区","city_kana":"ナゴヤシミナミク","town":"駈上","town_kana":"カケアゲ","prefecture_code":23},"0051":{"zip_code":"4570051","prefecture":"愛知県","prefecture_kana":"アイチケン","city":"名古屋市南区","city_kana":"ナゴヤシミナミク","town":"笠寺町","town_kana":"カサデラチョウ","prefecture_code":23},"0034":{"zip_code":"4570034","prefecture":"愛知県","prefecture_kana":"アイチケン","city":"名古屋市南区","city_kana":"ナゴヤシミナミク","town":"春日野町","town_kana":"カスガノチョウ","prefecture_code":23},"0052":{"zip_code":"4570052","prefecture":"愛知県","prefecture_kana":"アイチケン","city":"名古屋市南区","city_kana":"ナゴヤシミナミク","town":"粕畠町","town_kana":"カスバタチョウ","prefecture_code":23},"0033":{"zip_code":"4570033","prefecture":"愛知県","prefecture_kana":"アイチケン","city":"名古屋市南区","city_kana":"ナゴヤシミナミク","town":"霞町","town_kana":"カスミチョウ","prefecture_code":23},"0802":{"zip_code":"4570802","prefecture":"愛知県","prefecture_kana":"アイチケン","city":"名古屋市南区","city_kana":"ナゴヤシミナミク","town":"要町","town_kana":"カナメチョウ","prefecture_code":23},"0837":{"zip_code":"4570837","prefecture":"愛知県","prefecture_kana":"アイチケン","city":"名古屋市南区","city_kana":"ナゴヤシミナミク","town":"加福町","town_kana":"カフクチョウ","prefecture_code":23},"0836":{"zip_code":"4570836","prefecture":"愛知県","prefecture_kana":"アイチケン","city":"名古屋市南区","city_kana":"ナゴヤシミナミク","town":"加福本通","town_kana":"カフクホントオリ","prefecture_code":23},"0067":{"zip_code":"4570067","prefecture":"愛知県","prefecture_kana":"アイチケン","city":"名古屋市南区","city_kana":"ナゴヤシミナミク","town":"上浜町","town_kana":"カミハマチョウ","prefecture_code":23},"0824":{"zip_code":"4570824","prefecture":"愛知県","prefecture_kana":"アイチケン","city":"名古屋市南区","city_kana":"ナゴヤシミナミク","town":"神松町","town_kana":"カミマツチョウ","prefecture_code":23},"0845":{"zip_code":"4570845","prefecture":"愛知県","prefecture_kana":"アイチケン","city":"名古屋市南区","city_kana":"ナゴヤシミナミク","town":"観音町","town_kana":"カンノンチョウ","prefecture_code":23},"0012":{"zip_code":"4570012","prefecture":"愛知県","prefecture_kana":"アイチケン","city":"名古屋市南区","city_kana":"ナゴヤシミナミク","town":"菊住","town_kana":"キクスミ","prefecture_code":23},"0049":{"zip_code":"4570049","prefecture":"愛知県","prefecture_kana":"アイチケン","city":"名古屋市南区","city_kana":"ナゴヤシミナミク","town":"北内町","town_kana":"キタウチチョウ","prefecture_code":23},"0827":{"zip_code":"4570827","prefecture":"愛知県","prefecture_kana":"アイチケン","city":"名古屋市南区","city_kana":"ナゴヤシミナミク","town":"北頭町","town_kana":"キタガシラチョウ","prefecture_code":23},"0028":{"zip_code":"4570028","prefecture":"愛知県","prefecture_kana":"アイチケン","city":"名古屋市南区","city_kana":"ナゴヤシミナミク","town":"楠町","town_kana":"クスノキチョウ","prefecture_code":23},"0804":{"zip_code":"4570804","prefecture":"愛知県","prefecture_kana":"アイチケン","city":"名古屋市南区","city_kana":"ナゴヤシミナミク","town":"源兵衛町","town_kana":"ゲンベエチョウ","prefecture_code":23},"0834":{"zip_code":"4570834","prefecture":"愛知県","prefecture_kana":"アイチケン","city":"名古屋市南区","city_kana":"ナゴヤシミナミク","town":"港東通","town_kana":"コウトウドオリ","prefecture_code":23},"0851":{"zip_code":"4570851","prefecture":"愛知県","prefecture_kana":"アイチケン","city":"名古屋市南区","city_kana":"ナゴヤシミナミク","town":"五条町","town_kana":"ゴジョウチョウ","prefecture_code":23},"0044":{"zip_code":"4570044","prefecture":"愛知県","prefecture_kana":"アイチケン","city":"名古屋市南区","city_kana":"ナゴヤシミナミク","town":"柵下町","town_kana":"サクシタチョウ","prefecture_code":23},"0005":{"zip_code":"4570005","prefecture":"愛知県","prefecture_kana":"アイチケン","city":"名古屋市南区","city_kana":"ナゴヤシミナミク","town":"桜台","town_kana":"サクラダイ","prefecture_code":23},"0038":{"zip_code":"4570038","prefecture":"愛知県","prefecture_kana":"アイチケン","city":"名古屋市南区","city_kana":"ナゴヤシミナミク","town":"桜本町","town_kana":"サクラホンマチ","prefecture_code":23},"0866":{"zip_code":"4570866","prefecture":"愛知県","prefecture_kana":"アイチケン","city":"名古屋市南区","city_kana":"ナゴヤシミナミク","town":"三条","town_kana":"サンジョウ","prefecture_code":23},"0016":{"zip_code":"4570016","prefecture":"愛知県","prefecture_kana":"アイチケン","city":"名古屋市南区","city_kana":"ナゴヤシミナミク","town":"汐田町","town_kana":"シオダチョウ","prefecture_code":23},"0078":{"zip_code":"4570078","prefecture":"愛知県","prefecture_kana":"アイチケン","city":"名古屋市南区","city_kana":"ナゴヤシミナミク","town":"塩屋町","town_kana":"シオヤチョウ","prefecture_code":23},"0854":{"zip_code":"4570854","prefecture":"愛知県","prefecture_kana":"アイチケン","city":"名古屋市南区","city_kana":"ナゴヤシミナミク","town":"七条町","town_kana":"シチジョウチョウ","prefecture_code":23},"0815":{"zip_code":"4570815","prefecture":"愛知県","prefecture_kana":"アイチケン","city":"名古屋市南区","city_kana":"ナゴヤシミナミク","town":"柴田町","town_kana":"シバタチョウ","prefecture_code":23},"0814":{"zip_code":"4570814","prefecture":"愛知県","prefecture_kana":"アイチケン","city":"名古屋市南区","city_kana":"ナゴヤシミナミク","town":"柴田本通","town_kana":"シバタホンドオリ","prefecture_code":23},"0023":{"zip_code":"4570023","prefecture":"愛知県","prefecture_kana":"アイチケン","city":"名古屋市南区","city_kana":"ナゴヤシミナミク","town":"芝町","town_kana":"シバチョウ","prefecture_code":23},"0047":{"zip_code":"4570047","prefecture":"愛知県","prefecture_kana":"アイチケン","city":"名古屋市南区","city_kana":"ナゴヤシミナミク","town":"城下町","town_kana":"シロシタチョウ","prefecture_code":23},"0054":{"zip_code":"4570054","prefecture":"愛知県","prefecture_kana":"アイチケン","city":"名古屋市南区","city_kana":"ナゴヤシミナミク","town":"砂口町","town_kana":"スナクチチョウ","prefecture_code":23},"0852":{"zip_code":"4570852","prefecture":"愛知県","prefecture_kana":"アイチケン","city":"名古屋市南区","city_kana":"ナゴヤシミナミク","town":"泉楽通","town_kana":"センラクトオリ","prefecture_code":23},"0042":{"zip_code":"4570042","prefecture":"愛知県","prefecture_kana":"アイチケン","city":"名古屋市南区","city_kana":"ナゴヤシミナミク","town":"曽池町","town_kana":"ソイケチョウ","prefecture_code":23},"0008":{"zip_code":"4570008","prefecture":"愛知県","prefecture_kana":"アイチケン","city":"名古屋市南区","city_kana":"ナゴヤシミナミク","town":"外山","town_kana":"ソトヤマ","prefecture_code":23},"0811":{"zip_code":"4570811","prefecture":"愛知県","prefecture_kana":"アイチケン","city":"名古屋市南区","city_kana":"ナゴヤシミナミク","town":"大同町","town_kana":"ダイドウチョウ","prefecture_code":23},"0031":{"zip_code":"4570031","prefecture":"愛知県","prefecture_kana":"アイチケン","city":"名古屋市南区","city_kana":"ナゴヤシミナミク","town":"鯛取通","town_kana":"タイトリトオリ","prefecture_code":23},"0819":{"zip_code":"4570819","prefecture":"愛知県","prefecture_kana":"アイチケン","city":"名古屋市南区","city_kana":"ナゴヤシミナミク","town":"滝春町","town_kana":"タキハルチョウ","prefecture_code":23},"0077":{"zip_code":"4570077","prefecture":"愛知県","prefecture_kana":"アイチケン","city":"名古屋市南区","city_kana":"ナゴヤシミナミク","town":"立脇町","town_kana":"タテワキチョウ","prefecture_code":23},"0801":{"zip_code":"4570801","prefecture":"愛知県","prefecture_kana":"アイチケン","city":"名古屋市南区","city_kana":"ナゴヤシミナミク","town":"丹後通","town_kana":"タンゴトオリ","prefecture_code":23},"0071":{"zip_code":"4570071","prefecture":"愛知県","prefecture_kana":"アイチケン","city":"名古屋市南区","city_kana":"ナゴヤシミナミク","town":"千竈通","town_kana":"チカマトオリ","prefecture_code":23},"0843":{"zip_code":"4570843","prefecture":"愛知県","prefecture_kana":"アイチケン","city":"名古屋市南区","city_kana":"ナゴヤシミナミク","town":"忠次","town_kana":"チュウジ","prefecture_code":23},"0825":{"zip_code":"4570825","prefecture":"愛知県","prefecture_kana":"アイチケン","city":"名古屋市南区","city_kana":"ナゴヤシミナミク","town":"堤起町","town_kana":"ツツミオコシチョウ","prefecture_code":23},"0844":{"zip_code":"4570844","prefecture":"愛知県","prefecture_kana":"アイチケン","city":"名古屋市南区","city_kana":"ナゴヤシミナミク","town":"堤町","town_kana":"ツツミチョウ","prefecture_code":23},"0021":{"zip_code":"4570021","prefecture":"愛知県","prefecture_kana":"アイチケン","city":"名古屋市南区","city_kana":"ナゴヤシミナミク","town":"鶴里町","town_kana":"ツルサトチョウ","prefecture_code":23},"0003":{"zip_code":"4570003","prefecture":"愛知県","prefecture_kana":"アイチケン","city":"名古屋市南区","city_kana":"ナゴヤシミナミク","town":"鶴田","town_kana":"ツルタ","prefecture_code":23},"0807":{"zip_code":"4570807","prefecture":"愛知県","prefecture_kana":"アイチケン","city":"名古屋市南区","city_kana":"ナゴヤシミナミク","town":"鶴見通","town_kana":"ツルミトオリ","prefecture_code":23},"0013":{"zip_code":"4570013","prefecture":"愛知県","prefecture_kana":"アイチケン","city":"名古屋市南区","city_kana":"ナゴヤシミナミク","town":"寺崎町","town_kana":"テラサキチョウ","prefecture_code":23},"0072":{"zip_code":"4570072","prefecture":"愛知県","prefecture_kana":"アイチケン","city":"名古屋市南区","city_kana":"ナゴヤシミナミク","town":"寺部通","town_kana":"テラベドオリ","prefecture_code":23},"0803":{"zip_code":"4570803","prefecture":"愛知県","prefecture_kana":"アイチケン","city":"名古屋市南区","city_kana":"ナゴヤシミナミク","town":"天白町","town_kana":"テンパクチョウ","prefecture_code":23},"0076":{"zip_code":"4570076","prefecture":"愛知県","prefecture_kana":"アイチケン","city":"名古屋市南区","city_kana":"ナゴヤシミナミク","town":"道全町","town_kana":"ドウゼンチョウ","prefecture_code":23},"0864":{"zip_code":"4570864","prefecture":"愛知県","prefecture_kana":"アイチケン","city":"名古屋市南区","city_kana":"ナゴヤシミナミク","town":"道徳北町","town_kana":"ドウトクキタマチ","prefecture_code":23},"0847":{"zip_code":"4570847","prefecture":"愛知県","prefecture_kana":"アイチケン","city":"名古屋市南区","city_kana":"ナゴヤシミナミク","town":"道徳新町","town_kana":"ドウトクシンマチ","prefecture_code":23},"0846":{"zip_code":"4570846","prefecture":"愛知県","prefecture_kana":"アイチケン","city":"名古屋市南区","city_kana":"ナゴヤシミナミク","town":"道徳通","town_kana":"ドウトクトオリ","prefecture_code":23},"0842":{"zip_code":"4570842","prefecture":"愛知県","prefecture_kana":"アイチケン","city":"名古屋市南区","city_kana":"ナゴヤシミナミク","town":"戸部下","town_kana":"トベシタ","prefecture_code":23},"0043":{"zip_code":"4570043","prefecture":"愛知県","prefecture_kana":"アイチケン","city":"名古屋市南区","city_kana":"ナゴヤシミナミク","town":"戸部町","town_kana":"トベチョウ","prefecture_code":23},"0841":{"zip_code":"4570841","prefecture":"愛知県","prefecture_kana":"アイチケン","city":"名古屋市南区","city_kana":"ナゴヤシミナミク","town":"豊田","town_kana":"トヨダ","prefecture_code":23},"0855":{"zip_code":"4570855","prefecture":"愛知県","prefecture_kana":"アイチケン","city":"名古屋市南区","city_kana":"ナゴヤシミナミク","town":"豊田町","town_kana":"トヨダチョウ","prefecture_code":23},"0006":{"zip_code":"4570006","prefecture":"愛知県","prefecture_kana":"アイチケン","city":"名古屋市南区","city_kana":"ナゴヤシミナミク","town":"鳥栖","town_kana":"トリス","prefecture_code":23},"0057":{"zip_code":"4570057","prefecture":"愛知県","prefecture_kana":"アイチケン","city":"名古屋市南区","city_kana":"ナゴヤシミナミク","town":"鳥山町","town_kana":"トリヤマチョウ","prefecture_code":23},"0004":{"zip_code":"4570004","prefecture":"愛知県","prefecture_kana":"アイチケン","city":"名古屋市南区","city_kana":"ナゴヤシミナミク","town":"中江","town_kana":"ナカエ","prefecture_code":23},"0826":{"zip_code":"4570826","prefecture":"愛知県","prefecture_kana":"アイチケン","city":"名古屋市南区","city_kana":"ナゴヤシミナミク","town":"中割町","town_kana":"ナカワリチョウ","prefecture_code":23},"0066":{"zip_code":"4570066","prefecture":"愛知県","prefecture_kana":"アイチケン","city":"名古屋市南区","city_kana":"ナゴヤシミナミク","town":"鳴尾","town_kana":"ナルオ","prefecture_code":23},"0813":{"zip_code":"4570813","prefecture":"愛知県","prefecture_kana":"アイチケン","city":"名古屋市南区","city_kana":"ナゴヤシミナミク","town":"鳴尾町丹後江","town_kana":"ナルオチョウタンゴエ","prefecture_code":23},"0806":{"zip_code":"4570806","prefecture":"愛知県","prefecture_kana":"アイチケン","city":"名古屋市南区","city_kana":"ナゴヤシミナミク","town":"鳴浜町","town_kana":"ナルハマチョウ","prefecture_code":23},"0856":{"zip_code":"4570856","prefecture":"愛知県","prefecture_kana":"アイチケン","city":"名古屋市南区","city_kana":"ナゴヤシミナミク","town":"南陽通","town_kana":"ナンヨウドオリ","prefecture_code":23},"0039":{"zip_code":"4570039","prefecture":"愛知県","prefecture_kana":"アイチケン","city":"名古屋市南区","city_kana":"ナゴヤシミナミク","town":"西桜町","town_kana":"ニシサクラチョウ","prefecture_code":23},"0073":{"zip_code":"4570073","prefecture":"愛知県","prefecture_kana":"アイチケン","city":"名古屋市南区","city_kana":"ナゴヤシミナミク","town":"西田町","town_kana":"ニシダチョウ","prefecture_code":23},"0835":{"zip_code":"4570835","prefecture":"愛知県","prefecture_kana":"アイチケン","city":"名古屋市南区","city_kana":"ナゴヤシミナミク","town":"西又兵ヱ町","town_kana":"ニシマタベエチョウ","prefecture_code":23},"0025":{"zip_code":"4570025","prefecture":"愛知県","prefecture_kana":"アイチケン","city":"名古屋市南区","city_kana":"ナゴヤシミナミク","town":"白雲町","town_kana":"ハクウンチョウ","prefecture_code":23},"0818":{"zip_code":"4570818","prefecture":"愛知県","prefecture_kana":"アイチケン","city":"名古屋市南区","city_kana":"ナゴヤシミナミク","town":"白水町","town_kana":"ハクスイチョウ","prefecture_code":23},"0822":{"zip_code":"4570822","prefecture":"愛知県","prefecture_kana":"アイチケン","city":"名古屋市南区","city_kana":"ナゴヤシミナミク","town":"浜田町","town_kana":"ハマダチョウ","prefecture_code":23},"0832":{"zip_code":"4570832","prefecture":"愛知県","prefecture_kana":"アイチケン","city":"名古屋市南区","city_kana":"ナゴヤシミナミク","town":"浜中町","town_kana":"ハマナカチョウ","prefecture_code":23},"0833":{"zip_code":"4570833","prefecture":"愛知県","prefecture_kana":"アイチケン","city":"名古屋市南区","city_kana":"ナゴヤシミナミク","town":"東又兵ヱ町","town_kana":"ヒガシマタベエチョウ","prefecture_code":23},"0865":{"zip_code":"4570865","prefecture":"愛知県","prefecture_kana":"アイチケン","city":"名古屋市南区","city_kana":"ナゴヤシミナミク","town":"氷室町","town_kana":"ヒムロチョウ","prefecture_code":23},"0001":{"zip_code":"4570001","prefecture":"愛知県","prefecture_kana":"アイチケン","city":"名古屋市南区","city_kana":"ナゴヤシミナミク","town":"平子","town_kana":"ヒラコ","prefecture_code":23},"0828":{"zip_code":"4570828","prefecture":"愛知県","prefecture_kana":"アイチケン","city":"名古屋市南区","city_kana":"ナゴヤシミナミク","town":"宝生町","town_kana":"ホウショウチョウ","prefecture_code":23},"0064":{"zip_code":"4570064","prefecture":"愛知県","prefecture_kana":"アイチケン","city":"名古屋市南区","city_kana":"ナゴヤシミナミク","town":"星崎","town_kana":"ホシザキ","prefecture_code":23},"0812":{"zip_code":"4570812","prefecture":"愛知県","prefecture_kana":"アイチケン","city":"名古屋市南区","city_kana":"ナゴヤシミナミク","town":"星崎町","town_kana":"ホシザキチョウ","prefecture_code":23},"0062":{"zip_code":"4570062","prefecture":"愛知県","prefecture_kana":"アイチケン","city":"名古屋市南区","city_kana":"ナゴヤシミナミク","town":"星崎町阿原","town_kana":"ホシザキチョウアハラ","prefecture_code":23},"0061":{"zip_code":"4570061","prefecture":"愛知県","prefecture_kana":"アイチケン","city":"名古屋市南区","city_kana":"ナゴヤシミナミク","town":"星崎町殿海道","town_kana":"ホシザキチョウトノカイドウ","prefecture_code":23},"0069":{"zip_code":"4570069","prefecture":"愛知県","prefecture_kana":"アイチケン","city":"名古屋市南区","city_kana":"ナゴヤシミナミク","town":"星園町","town_kana":"ホシゾノチョウ","prefecture_code":23},"0055":{"zip_code":"4570055","prefecture":"愛知県","prefecture_kana":"アイチケン","city":"名古屋市南区","city_kana":"ナゴヤシミナミク","town":"星宮町","town_kana":"ホシミヤチョウ","prefecture_code":23},"0074":{"zip_code":"4570074","prefecture":"愛知県","prefecture_kana":"アイチケン","city":"名古屋市南区","city_kana":"ナゴヤシミナミク","town":"本地通","town_kana":"ホンジドオリ","prefecture_code":23},"0053":{"zip_code":"4570053","prefecture":"愛知県","prefecture_kana":"アイチケン","city":"名古屋市南区","city_kana":"ナゴヤシミナミク","town":"本城町","town_kana":"ホンジョウチョウ","prefecture_code":23},"0058":{"zip_code":"4570058","prefecture":"愛知県","prefecture_kana":"アイチケン","city":"名古屋市南区","city_kana":"ナゴヤシミナミク","town":"前浜通","town_kana":"マエハマドオリ","prefecture_code":23},"0046":{"zip_code":"4570046","prefecture":"愛知県","prefecture_kana":"アイチケン","city":"名古屋市南区","city_kana":"ナゴヤシミナミク","town":"松池町","town_kana":"マツイケチョウ","prefecture_code":23},"0808":{"zip_code":"4570808","prefecture":"愛知県","prefecture_kana":"アイチケン","city":"名古屋市南区","city_kana":"ナゴヤシミナミク","town":"松下町","town_kana":"マツシタチョウ","prefecture_code":23},"0045":{"zip_code":"4570045","prefecture":"愛知県","prefecture_kana":"アイチケン","city":"名古屋市南区","city_kana":"ナゴヤシミナミク","town":"松城町","town_kana":"マツシロチョウ","prefecture_code":23},"0068":{"zip_code":"4570068","prefecture":"愛知県","prefecture_kana":"アイチケン","city":"名古屋市南区","city_kana":"ナゴヤシミナミク","town":"南野","town_kana":"ミナミノ","prefecture_code":23},"0026":{"zip_code":"4570026","prefecture":"愛知県","prefecture_kana":"アイチケン","city":"名古屋市南区","city_kana":"ナゴヤシミナミク","town":"見晴町","town_kana":"ミハラシチョウ","prefecture_code":23},"0022":{"zip_code":"4570022","prefecture":"愛知県","prefecture_kana":"アイチケン","city":"名古屋市南区","city_kana":"ナゴヤシミナミク","town":"明円町","town_kana":"ミョウエンチョウ","prefecture_code":23},"0805":{"zip_code":"4570805","prefecture":"愛知県","prefecture_kana":"アイチケン","city":"名古屋市南区","city_kana":"ナゴヤシミナミク","town":"三吉町","town_kana":"ミヨシチョウ","prefecture_code":23},"0861":{"zip_code":"4570861","prefecture":"愛知県","prefecture_kana":"アイチケン","city":"名古屋市南区","city_kana":"ナゴヤシミナミク","town":"明治","town_kana":"メイジ","prefecture_code":23},"0032":{"zip_code":"4570032","prefecture":"愛知県","prefecture_kana":"アイチケン","city":"名古屋市南区","city_kana":"ナゴヤシミナミク","town":"元桜田町","town_kana":"モトサクラダチョウ","prefecture_code":23},"0823":{"zip_code":"4570823","prefecture":"愛知県","prefecture_kana":"アイチケン","city":"名古屋市南区","city_kana":"ナゴヤシミナミク","town":"元塩町","town_kana":"モトシオチョウ","prefecture_code":23},"0816":{"zip_code":"4570816","prefecture":"愛知県","prefecture_kana":"アイチケン","city":"名古屋市南区","city_kana":"ナゴヤシミナミク","town":"元柴田東町","town_kana":"モトシバタヒガシマチ","prefecture_code":23},"0817":{"zip_code":"4570817","prefecture":"愛知県","prefecture_kana":"アイチケン","city":"名古屋市南区","city_kana":"ナゴヤシミナミク","town":"元柴田西町","town_kana":"モトシバタニシマチ","prefecture_code":23},"0065":{"zip_code":"4570065","prefecture":"愛知県","prefecture_kana":"アイチケン","city":"名古屋市南区","city_kana":"ナゴヤシミナミク","town":"元鳴尾町","town_kana":"モトナルオチョウ","prefecture_code":23},"0056":{"zip_code":"4570056","prefecture":"愛知県","prefecture_kana":"アイチケン","city":"名古屋市南区","city_kana":"ナゴヤシミナミク","town":"本星崎町","town_kana":"モトホシザキチョウ","prefecture_code":23},"0041":{"zip_code":"4570041","prefecture":"愛知県","prefecture_kana":"アイチケン","city":"名古屋市南区","city_kana":"ナゴヤシミナミク","town":"薬師通","town_kana":"ヤクシドオリ","prefecture_code":23},"0821":{"zip_code":"4570821","prefecture":"愛知県","prefecture_kana":"アイチケン","city":"名古屋市南区","city_kana":"ナゴヤシミナミク","town":"弥次ヱ町","town_kana":"ヤジエチョウ","prefecture_code":23},"0027":{"zip_code":"4570027","prefecture":"愛知県","prefecture_kana":"アイチケン","city":"名古屋市南区","city_kana":"ナゴヤシミナミク","town":"弥生町","town_kana":"ヤヨイチョウ","prefecture_code":23},"0863":{"zip_code":"4570863","prefecture":"愛知県","prefecture_kana":"アイチケン","city":"名古屋市南区","city_kana":"ナゴヤシミナミク","town":"豊","town_kana":"ユタカ","prefecture_code":23},"0014":{"zip_code":"4570014","prefecture":"愛知県","prefecture_kana":"アイチケン","city":"名古屋市南区","city_kana":"ナゴヤシミナミク","town":"呼続","town_kana":"ヨビツギ","prefecture_code":23},"0011":{"zip_code":"4570011","prefecture":"愛知県","prefecture_kana":"アイチケン","city":"名古屋市南区","city_kana":"ナゴヤシミナミク","town":"呼続元町","town_kana":"ヨビツギモトマチ","prefecture_code":23},"0853":{"zip_code":"4570853","prefecture":"愛知県","prefecture_kana":"アイチケン","city":"名古屋市南区","city_kana":"ナゴヤシミナミク","town":"六条町","town_kana":"ロクジョウチョウ","prefecture_code":23},"0036":{"zip_code":"4570036","prefecture":"愛知県","prefecture_kana":"アイチケン","city":"名古屋市南区","city_kana":"ナゴヤシミナミク","town":"若草町","town_kana":"ワカクサチョウ","prefecture_code":23}}