{"0000":{"zip_code":"4580000","prefecture":"愛知県","prefecture_kana":"アイチケン","city":"名古屋市緑区","city_kana":"ナゴヤシミドリク","town":"","town_kana":"","prefecture_code":23},"0011":{"zip_code":"4580011","prefecture":"愛知県","prefecture_kana":"アイチケン","city":"名古屋市緑区","city_kana":"ナゴヤシミドリク","town":"相川","town_kana":"アイカワ","prefecture_code":23},"0033":{"zip_code":"4580033","prefecture":"愛知県","prefecture_kana":"アイチケン","city":"名古屋市緑区","city_kana":"ナゴヤシミドリク","town":"相原郷","town_kana":"アイバラゴウ","prefecture_code":23},"0833":{"zip_code":"4580833","prefecture":"愛知県","prefecture_kana":"アイチケン","city":"名古屋市緑区","city_kana":"ナゴヤシミドリク","town":"青山","town_kana":"アオヤマ","prefecture_code":23},"0837":{"zip_code":"4580837","prefecture":"愛知県","prefecture_kana":"アイチケン","city":"名古屋市緑区","city_kana":"ナゴヤシミドリク","town":"赤松","town_kana":"アカマツ","prefecture_code":23},"0031":{"zip_code":"4580031","prefecture":"愛知県","prefecture_kana":"アイチケン","city":"名古屋市緑区","city_kana":"ナゴヤシミドリク","town":"旭出","town_kana":"アサヒデ","prefecture_code":23},"0924":{"zip_code":"4580924","prefecture":"愛知県","prefecture_kana":"アイチケン","city":"名古屋市緑区","city_kana":"ナゴヤシミドリク","town":"有松","town_kana":"アリマツ","prefecture_code":23},"0903":{"zip_code":"4580903","prefecture":"愛知県","prefecture_kana":"アイチケン","city":"名古屋市緑区","city_kana":"ナゴヤシミドリク","town":"有松愛宕","town_kana":"アリマツアタゴ","prefecture_code":23},"0902":{"zip_code":"4580902","prefecture":"愛知県","prefecture_kana":"アイチケン","city":"名古屋市緑区","city_kana":"ナゴヤシミドリク","town":"有松三丁山","town_kana":"アリマツサンチョウヤマ","prefecture_code":23},"0901":{"zip_code":"4580901","prefecture":"愛知県","prefecture_kana":"アイチケン","city":"名古屋市緑区","city_kana":"ナゴヤシミドリク","town":"有松町有松","town_kana":"アリマツチョウアリマツ","prefecture_code":23},"0916":[{"zip_code":"4580916","prefecture":"愛知県","prefecture_kana":"アイチケン","city":"名古屋市緑区","city_kana":"ナゴヤシミドリク","town":"有松町桶狭間","town_kana":"アリマツチョウオケハザマ","prefecture_code":23},{"zip_code":"4580916","prefecture":"愛知県","prefecture_kana":"アイチケン","city":"名古屋市緑区","city_kana":"ナゴヤシミドリク","town":"有松町桶狭間愛宕西","town_kana":"アリマツチョウオケハザマアタゴニシ","prefecture_code":23}],"0912":[{"zip_code":"4580912","prefecture":"愛知県","prefecture_kana":"アイチケン","city":"名古屋市緑区","city_kana":"ナゴヤシミドリク","town":"有松町桶狭間","town_kana":"アリマツチョウオケハザマ","prefecture_code":23},{"zip_code":"4580912","prefecture":"愛知県","prefecture_kana":"アイチケン","city":"名古屋市緑区","city_kana":"ナゴヤシミドリク","town":"有松町桶狭間生山","town_kana":"アリマツチョウオケハザマハエヤマ","prefecture_code":23}],"0911":{"zip_code":"4580911","prefecture":"愛知県","prefecture_kana":"アイチケン","city":"名古屋市緑区","city_kana":"ナゴヤシミドリク","town":"有松町桶狭間","town_kana":"アリマツチョウオケハザマ","prefecture_code":23},"0928":{"zip_code":"4580928","prefecture":"愛知県","prefecture_kana":"アイチケン","city":"名古屋市緑区","city_kana":"ナゴヤシミドリク","town":"有松幕山","town_kana":"アリマツマクヤマ","prefecture_code":23},"0044":{"zip_code":"4580044","prefecture":"愛知県","prefecture_kana":"アイチケン","city":"名古屋市緑区","city_kana":"ナゴヤシミドリク","town":"池上台","town_kana":"イケガミダイ","prefecture_code":23},"0830":{"zip_code":"4580830","prefecture":"愛知県","prefecture_kana":"アイチケン","city":"名古屋市緑区","city_kana":"ナゴヤシミドリク","town":"姥子山","town_kana":"ウバコヤマ","prefecture_code":23},"0001":{"zip_code":"4580001","prefecture":"愛知県","prefecture_kana":"アイチケン","city":"名古屋市緑区","city_kana":"ナゴヤシミドリク","town":"梅里","town_kana":"ウメサト","prefecture_code":23},"0847":{"zip_code":"4580847","prefecture":"愛知県","prefecture_kana":"アイチケン","city":"名古屋市緑区","city_kana":"ナゴヤシミドリク","town":"浦里","town_kana":"ウラサト","prefecture_code":23},"0832":{"zip_code":"4580832","prefecture":"愛知県","prefecture_kana":"アイチケン","city":"名古屋市緑区","city_kana":"ナゴヤシミドリク","town":"漆山","town_kana":"ウルシヤマ","prefecture_code":23},"0032":{"zip_code":"4580032","prefecture":"愛知県","prefecture_kana":"アイチケン","city":"名古屋市緑区","city_kana":"ナゴヤシミドリク","town":"大形山","town_kana":"オオガタヤマ","prefecture_code":23},"0805":{"zip_code":"4580805","prefecture":"愛知県","prefecture_kana":"アイチケン","city":"名古屋市緑区","city_kana":"ナゴヤシミドリク","town":"大清水","town_kana":"オオシミズ","prefecture_code":23},"0806":{"zip_code":"4580806","prefecture":"愛知県","prefecture_kana":"アイチケン","city":"名古屋市緑区","city_kana":"ナゴヤシミドリク","town":"大清水西","town_kana":"オオシミズニシ","prefecture_code":23},"0849":{"zip_code":"4580849","prefecture":"愛知県","prefecture_kana":"アイチケン","city":"名古屋市緑区","city_kana":"ナゴヤシミドリク","town":"大清水東","town_kana":"オオシミズヒガシ","prefecture_code":23},"0925":{"zip_code":"4580925","prefecture":"愛知県","prefecture_kana":"アイチケン","city":"名古屋市緑区","city_kana":"ナゴヤシミドリク","town":"桶狭間","town_kana":"オケハザマ","prefecture_code":23},"0926":{"zip_code":"4580926","prefecture":"愛知県","prefecture_kana":"アイチケン","city":"名古屋市緑区","city_kana":"ナゴヤシミドリク","town":"桶狭間上の山","town_kana":"オケハザマウエノヤマ","prefecture_code":23},"0913":{"zip_code":"4580913","prefecture":"愛知県","prefecture_kana":"アイチケン","city":"名古屋市緑区","city_kana":"ナゴヤシミドリク","town":"桶狭間北","town_kana":"オケハザマキタ","prefecture_code":23},"0922":{"zip_code":"4580922","prefecture":"愛知県","prefecture_kana":"アイチケン","city":"名古屋市緑区","city_kana":"ナゴヤシミドリク","town":"桶狭間切戸","town_kana":"オケハザマキリト","prefecture_code":23},"0921":{"zip_code":"4580921","prefecture":"愛知県","prefecture_kana":"アイチケン","city":"名古屋市緑区","city_kana":"ナゴヤシミドリク","town":"桶狭間清水山","town_kana":"オケハザマシミズヤマ","prefecture_code":23},"0919":{"zip_code":"4580919","prefecture":"愛知県","prefecture_kana":"アイチケン","city":"名古屋市緑区","city_kana":"ナゴヤシミドリク","town":"桶狭間神明","town_kana":"オケハザマシンメイ","prefecture_code":23},"0929":{"zip_code":"4580929","prefecture":"愛知県","prefecture_kana":"アイチケン","city":"名古屋市緑区","city_kana":"ナゴヤシミドリク","town":"桶狭間西","town_kana":"オケハザマニシ","prefecture_code":23},"0920":{"zip_code":"4580920","prefecture":"愛知県","prefecture_kana":"アイチケン","city":"名古屋市緑区","city_kana":"ナゴヤシミドリク","town":"桶狭間巻山","town_kana":"オケハザママキヤマ","prefecture_code":23},"0927":{"zip_code":"4580927","prefecture":"愛知県","prefecture_kana":"アイチケン","city":"名古屋市緑区","city_kana":"ナゴヤシミドリク","town":"桶狭間南","town_kana":"オケハザマミナミ","prefecture_code":23},"0910":{"zip_code":"4580910","prefecture":"愛知県","prefecture_kana":"アイチケン","city":"名古屋市緑区","city_kana":"ナゴヤシミドリク","town":"桶狭間森前","town_kana":"オケハザマモリマエ","prefecture_code":23},"0024":{"zip_code":"4580024","prefecture":"愛知県","prefecture_kana":"アイチケン","city":"名古屋市緑区","city_kana":"ナゴヤシミドリク","town":"尾崎山","town_kana":"オザキヤマ","prefecture_code":23},"0803":{"zip_code":"4580803","prefecture":"愛知県","prefecture_kana":"アイチケン","city":"名古屋市緑区","city_kana":"ナゴヤシミドリク","town":"鏡田","town_kana":"カガミダ","prefecture_code":23},"0007":{"zip_code":"4580007","prefecture":"愛知県","prefecture_kana":"アイチケン","city":"名古屋市緑区","city_kana":"ナゴヤシミドリク","town":"篭山","town_kana":"カゴヤマ","prefecture_code":23},"0829":{"zip_code":"4580829","prefecture":"愛知県","prefecture_kana":"アイチケン","city":"名古屋市緑区","city_kana":"ナゴヤシミドリク","town":"鎌倉台","town_kana":"カマクラダイ","prefecture_code":23},"0016":{"zip_code":"4580016","prefecture":"愛知県","prefecture_kana":"アイチケン","city":"名古屋市緑区","city_kana":"ナゴヤシミドリク","town":"上旭","town_kana":"カミアサヒ","prefecture_code":23},"0014":{"zip_code":"4580014","prefecture":"愛知県","prefecture_kana":"アイチケン","city":"名古屋市緑区","city_kana":"ナゴヤシミドリク","town":"神沢","town_kana":"カミサワ","prefecture_code":23},"0812":{"zip_code":"4580812","prefecture":"愛知県","prefecture_kana":"アイチケン","city":"名古屋市緑区","city_kana":"ナゴヤシミドリク","town":"神の倉","town_kana":"カミノクラ","prefecture_code":23},"0804":{"zip_code":"4580804","prefecture":"愛知県","prefecture_kana":"アイチケン","city":"名古屋市緑区","city_kana":"ナゴヤシミドリク","town":"亀が洞","town_kana":"カメガホラ","prefecture_code":23},"0003":{"zip_code":"4580003","prefecture":"愛知県","prefecture_kana":"アイチケン","city":"名古屋市緑区","city_kana":"ナゴヤシミドリク","town":"黒沢台","town_kana":"クロサワダイ","prefecture_code":23},"0023":{"zip_code":"4580023","prefecture":"愛知県","prefecture_kana":"アイチケン","city":"名古屋市緑区","city_kana":"ナゴヤシミドリク","town":"鴻仏目","town_kana":"コウブツメ","prefecture_code":23},"0022":{"zip_code":"4580022","prefecture":"愛知県","prefecture_kana":"アイチケン","city":"名古屋市緑区","city_kana":"ナゴヤシミドリク","town":"小坂","town_kana":"コサカ","prefecture_code":23},"0047":{"zip_code":"4580047","prefecture":"愛知県","prefecture_kana":"アイチケン","city":"名古屋市緑区","city_kana":"ナゴヤシミドリク","town":"古鳴海","town_kana":"コナルミ","prefecture_code":23},"0820":{"zip_code":"4580820","prefecture":"愛知県","prefecture_kana":"アイチケン","city":"名古屋市緑区","city_kana":"ナゴヤシミドリク","town":"境松","town_kana":"サカイマツ","prefecture_code":23},"0825":{"zip_code":"4580825","prefecture":"愛知県","prefecture_kana":"アイチケン","city":"名古屋市緑区","city_kana":"ナゴヤシミドリク","town":"左京山","town_kana":"サキョウヤマ","prefecture_code":23},"0038":{"zip_code":"4580038","prefecture":"愛知県","prefecture_kana":"アイチケン","city":"名古屋市緑区","city_kana":"ナゴヤシミドリク","town":"作の山町","town_kana":"サクノヤマチョウ","prefecture_code":23},"0037":{"zip_code":"4580037","prefecture":"愛知県","prefecture_kana":"アイチケン","city":"名古屋市緑区","city_kana":"ナゴヤシミドリク","town":"潮見が丘","town_kana":"シオミガオカ","prefecture_code":23},"0045":{"zip_code":"4580045","prefecture":"愛知県","prefecture_kana":"アイチケン","city":"名古屋市緑区","city_kana":"ナゴヤシミドリク","town":"鹿山","town_kana":"シカヤマ","prefecture_code":23},"0015":{"zip_code":"4580015","prefecture":"愛知県","prefecture_kana":"アイチケン","city":"名古屋市緑区","city_kana":"ナゴヤシミドリク","town":"篠の風","town_kana":"シノノカゼ","prefecture_code":23},"0039":{"zip_code":"4580039","prefecture":"愛知県","prefecture_kana":"アイチケン","city":"名古屋市緑区","city_kana":"ナゴヤシミドリク","town":"四本木","town_kana":"シホンギ","prefecture_code":23},"0836":{"zip_code":"4580836","prefecture":"愛知県","prefecture_kana":"アイチケン","city":"名古屋市緑区","city_kana":"ナゴヤシミドリク","town":"白土","town_kana":"シロツチ","prefecture_code":23},"0807":{"zip_code":"4580807","prefecture":"愛知県","prefecture_kana":"アイチケン","city":"名古屋市緑区","city_kana":"ナゴヤシミドリク","town":"砂田","town_kana":"スナダ","prefecture_code":23},"0035":{"zip_code":"4580035","prefecture":"愛知県","prefecture_kana":"アイチケン","city":"名古屋市緑区","city_kana":"ナゴヤシミドリク","town":"曽根","town_kana":"ソネ","prefecture_code":23},"0823":{"zip_code":"4580823","prefecture":"愛知県","prefecture_kana":"アイチケン","city":"名古屋市緑区","city_kana":"ナゴヤシミドリク","town":"太子","town_kana":"タイシ","prefecture_code":23},"0822":{"zip_code":"4580822","prefecture":"愛知県","prefecture_kana":"アイチケン","city":"名古屋市緑区","city_kana":"ナゴヤシミドリク","town":"大将ケ根","town_kana":"タイショウガネ","prefecture_code":23},"0042":{"zip_code":"4580042","prefecture":"愛知県","prefecture_kana":"アイチケン","city":"名古屋市緑区","city_kana":"ナゴヤシミドリク","town":"高根台","town_kana":"タカネダイ","prefecture_code":23},"0021":{"zip_code":"4580021","prefecture":"愛知県","prefecture_kana":"アイチケン","city":"名古屋市緑区","city_kana":"ナゴヤシミドリク","town":"滝ノ水","town_kana":"タキノミズ","prefecture_code":23},"0917":{"zip_code":"4580917","prefecture":"愛知県","prefecture_kana":"アイチケン","city":"名古屋市緑区","city_kana":"ナゴヤシミドリク","town":"武路町","town_kana":"タケジチョウ","prefecture_code":23},"0814":{"zip_code":"4580814","prefecture":"愛知県","prefecture_kana":"アイチケン","city":"名古屋市緑区","city_kana":"ナゴヤシミドリク","town":"鶴が沢","town_kana":"ツルガサワ","prefecture_code":23},"0815":{"zip_code":"4580815","prefecture":"愛知県","prefecture_kana":"アイチケン","city":"名古屋市緑区","city_kana":"ナゴヤシミドリク","town":"徳重","town_kana":"トクシゲ","prefecture_code":23},"0025":{"zip_code":"4580025","prefecture":"愛知県","prefecture_kana":"アイチケン","city":"名古屋市緑区","city_kana":"ナゴヤシミドリク","town":"鳥澄","town_kana":"トリスミ","prefecture_code":23},"0046":{"zip_code":"4580046","prefecture":"愛知県","prefecture_kana":"アイチケン","city":"名古屋市緑区","city_kana":"ナゴヤシミドリク","town":"長根町","town_kana":"ナガネチョウ","prefecture_code":23},"0005":{"zip_code":"4580005","prefecture":"愛知県","prefecture_kana":"アイチケン","city":"名古屋市緑区","city_kana":"ナゴヤシミドリク","town":"鳴丘","town_kana":"ナルオカ","prefecture_code":23},"0041":{"zip_code":"4580041","prefecture":"愛知県","prefecture_kana":"アイチケン","city":"名古屋市緑区","city_kana":"ナゴヤシミドリク","town":"鳴子町","town_kana":"ナルコチョウ","prefecture_code":23},"0845":[{"zip_code":"4580845","prefecture":"愛知県","prefecture_kana":"アイチケン","city":"名古屋市緑区","city_kana":"ナゴヤシミドリク","town":"鳴海町","town_kana":"ナルミチョウ","prefecture_code":23},{"zip_code":"4580845","prefecture":"愛知県","prefecture_kana":"アイチケン","city":"名古屋市緑区","city_kana":"ナゴヤシミドリク","town":"鳴海町赤塚","town_kana":"ナルミチョウアカツカ","prefecture_code":23}],"0824":[{"zip_code":"4580824","prefecture":"愛知県","prefecture_kana":"アイチケン","city":"名古屋市緑区","city_kana":"ナゴヤシミドリク","town":"鳴海町","town_kana":"ナルミチョウ","prefecture_code":23},{"zip_code":"4580824","prefecture":"愛知県","prefecture_kana":"アイチケン","city":"名古屋市緑区","city_kana":"ナゴヤシミドリク","town":"鳴海町有松裏","town_kana":"ナルミチョウアリマツウラ","prefecture_code":23}],"0842":[{"zip_code":"4580842","prefecture":"愛知県","prefecture_kana":"アイチケン","city":"名古屋市緑区","city_kana":"ナゴヤシミドリク","town":"鳴海町","town_kana":"ナルミチョウ","prefecture_code":23},{"zip_code":"4580842","prefecture":"愛知県","prefecture_kana":"アイチケン","city":"名古屋市緑区","city_kana":"ナゴヤシミドリク","town":"鳴海町上ノ山","town_kana":"ナルミチョウウエノヤマ","prefecture_code":23}],"0828":[{"zip_code":"4580828","prefecture":"愛知県","prefecture_kana":"アイチケン","city":"名古屋市緑区","city_kana":"ナゴヤシミドリク","town":"鳴海町","town_kana":"ナルミチョウ","prefecture_code":23},{"zip_code":"4580828","prefecture":"愛知県","prefecture_kana":"アイチケン","city":"名古屋市緑区","city_kana":"ナゴヤシミドリク","town":"鳴海町姥子山","town_kana":"ナルミチョウウバコヤマ","prefecture_code":23}],"0818":[{"zip_code":"4580818","prefecture":"愛知県","prefecture_kana":"アイチケン","city":"名古屋市緑区","city_kana":"ナゴヤシミドリク","town":"鳴海町","town_kana":"ナルミチョウ","prefecture_code":23},{"zip_code":"4580818","prefecture":"愛知県","prefecture_kana":"アイチケン","city":"名古屋市緑区","city_kana":"ナゴヤシミドリク","town":"鳴海町大清水","town_kana":"ナルミチョウオオシミズ","prefecture_code":23}],"0821":[{"zip_code":"4580821","prefecture":"愛知県","prefecture_kana":"アイチケン","city":"名古屋市緑区","city_kana":"ナゴヤシミドリク","town":"鳴海町","town_kana":"ナルミチョウ","prefecture_code":23},{"zip_code":"4580821","prefecture":"愛知県","prefecture_kana":"アイチケン","city":"名古屋市緑区","city_kana":"ナゴヤシミドリク","town":"鳴海町尾崎山","town_kana":"ナルミチョウオザキヤマ","prefecture_code":23}],"0835":[{"zip_code":"4580835","prefecture":"愛知県","prefecture_kana":"アイチケン","city":"名古屋市緑区","city_kana":"ナゴヤシミドリク","town":"鳴海町","town_kana":"ナルミチョウ","prefecture_code":23},{"zip_code":"4580835","prefecture":"愛知県","prefecture_kana":"アイチケン","city":"名古屋市緑区","city_kana":"ナゴヤシミドリク","town":"鳴海町上汐田","town_kana":"ナルミチョウカミシオタ","prefecture_code":23}],"0811":[{"zip_code":"4580811","prefecture":"愛知県","prefecture_kana":"アイチケン","city":"名古屋市緑区","city_kana":"ナゴヤシミドリク","town":"鳴海町","town_kana":"ナルミチョウ","prefecture_code":23},{"zip_code":"4580811","prefecture":"愛知県","prefecture_kana":"アイチケン","city":"名古屋市緑区","city_kana":"ナゴヤシミドリク","town":"鳴海町神ノ倉","town_kana":"ナルミチョウカンノクラ","prefecture_code":23}],"0841":[{"zip_code":"4580841","prefecture":"愛知県","prefecture_kana":"アイチケン","city":"名古屋市緑区","city_kana":"ナゴヤシミドリク","town":"鳴海町","town_kana":"ナルミチョウ","prefecture_code":23},{"zip_code":"4580841","prefecture":"愛知県","prefecture_kana":"アイチケン","city":"名古屋市緑区","city_kana":"ナゴヤシミドリク","town":"鳴海町小森","town_kana":"ナルミチョウコモリ","prefecture_code":23}],"0834":[{"zip_code":"4580834","prefecture":"愛知県","prefecture_kana":"アイチケン","city":"名古屋市緑区","city_kana":"ナゴヤシミドリク","town":"鳴海町","town_kana":"ナルミチョウ","prefecture_code":23},{"zip_code":"4580834","prefecture":"愛知県","prefecture_kana":"アイチケン","city":"名古屋市緑区","city_kana":"ナゴヤシミドリク","town":"鳴海町前之輪","town_kana":"ナルミチョウゼンノワ","prefecture_code":23}],"0844":[{"zip_code":"4580844","prefecture":"愛知県","prefecture_kana":"アイチケン","city":"名古屋市緑区","city_kana":"ナゴヤシミドリク","town":"鳴海町","town_kana":"ナルミチョウ","prefecture_code":23},{"zip_code":"4580844","prefecture":"愛知県","prefecture_kana":"アイチケン","city":"名古屋市緑区","city_kana":"ナゴヤシミドリク","town":"鳴海町伝治山","town_kana":"ナルミチョウデンジヤマ","prefecture_code":23}],"0827":[{"zip_code":"4580827","prefecture":"愛知県","prefecture_kana":"アイチケン","city":"名古屋市緑区","city_kana":"ナゴヤシミドリク","town":"鳴海町","town_kana":"ナルミチョウ","prefecture_code":23},{"zip_code":"4580827","prefecture":"愛知県","prefecture_kana":"アイチケン","city":"名古屋市緑区","city_kana":"ナゴヤシミドリク","town":"鳴海町細根","town_kana":"ナルミチョウホソネ","prefecture_code":23}],"0831":[{"zip_code":"4580831","prefecture":"愛知県","prefecture_kana":"アイチケン","city":"名古屋市緑区","city_kana":"ナゴヤシミドリク","town":"鳴海町","town_kana":"ナルミチョウ","prefecture_code":23},{"zip_code":"4580831","prefecture":"愛知県","prefecture_kana":"アイチケン","city":"名古屋市緑区","city_kana":"ナゴヤシミドリク","town":"鳴海町向田","town_kana":"ナルミチョウムカエダ","prefecture_code":23}],"0817":[{"zip_code":"4580817","prefecture":"愛知県","prefecture_kana":"アイチケン","city":"名古屋市緑区","city_kana":"ナゴヤシミドリク","town":"鳴海町","town_kana":"ナルミチョウ","prefecture_code":23},{"zip_code":"4580817","prefecture":"愛知県","prefecture_kana":"アイチケン","city":"名古屋市緑区","city_kana":"ナゴヤシミドリク","town":"鳴海町諸の木","town_kana":"ナルミチョウモロノキ","prefecture_code":23},{"zip_code":"4580817","prefecture":"愛知県","prefecture_kana":"アイチケン","city":"名古屋市緑区","city_kana":"ナゴヤシミドリク","town":"諸の木","town_kana":"モロノキ","prefecture_code":23}],"0846":[{"zip_code":"4580846","prefecture":"愛知県","prefecture_kana":"アイチケン","city":"名古屋市緑区","city_kana":"ナゴヤシミドリク","town":"鳴海町","town_kana":"ナルミチョウ","prefecture_code":23},{"zip_code":"4580846","prefecture":"愛知県","prefecture_kana":"アイチケン","city":"名古屋市緑区","city_kana":"ナゴヤシミドリク","town":"鳴海町薬師山","town_kana":"ナルミチョウヤクシヤマ","prefecture_code":23}],"0819":[{"zip_code":"4580819","prefecture":"愛知県","prefecture_kana":"アイチケン","city":"名古屋市緑区","city_kana":"ナゴヤシミドリク","town":"鳴海町","town_kana":"ナルミチョウ","prefecture_code":23},{"zip_code":"4580819","prefecture":"愛知県","prefecture_kana":"アイチケン","city":"名古屋市緑区","city_kana":"ナゴヤシミドリク","town":"鳴海町八ツ松","town_kana":"ナルミチョウヤツマツ","prefecture_code":23}],"0801":{"zip_code":"4580801","prefecture":"愛知県","prefecture_kana":"アイチケン","city":"名古屋市緑区","city_kana":"ナゴヤシミドリク","town":"鳴海町","town_kana":"ナルミチョウ","prefecture_code":23},"0918":{"zip_code":"4580918","prefecture":"愛知県","prefecture_kana":"アイチケン","city":"名古屋市緑区","city_kana":"ナゴヤシミドリク","town":"南陵","town_kana":"ナンリョウ","prefecture_code":23},"0809":{"zip_code":"4580809","prefecture":"愛知県","prefecture_kana":"アイチケン","city":"名古屋市緑区","city_kana":"ナゴヤシミドリク","town":"西神の倉","town_kana":"ニシカミノクラ","prefecture_code":23},"0915":{"zip_code":"4580915","prefecture":"愛知県","prefecture_kana":"アイチケン","city":"名古屋市緑区","city_kana":"ナゴヤシミドリク","town":"野末町","town_kana":"ノズエチョウ","prefecture_code":23},"0004":{"zip_code":"4580004","prefecture":"愛知県","prefecture_kana":"アイチケン","city":"名古屋市緑区","city_kana":"ナゴヤシミドリク","town":"乗鞍","town_kana":"ノリクラ","prefecture_code":23},"0808":{"zip_code":"4580808","prefecture":"愛知県","prefecture_kana":"アイチケン","city":"名古屋市緑区","city_kana":"ナゴヤシミドリク","town":"東神の倉","town_kana":"ヒガシカミノクラ","prefecture_code":23},"0012":{"zip_code":"4580012","prefecture":"愛知県","prefecture_kana":"アイチケン","city":"名古屋市緑区","city_kana":"ナゴヤシミドリク","town":"久方","town_kana":"ヒサカタ","prefecture_code":23},"0802":{"zip_code":"4580802","prefecture":"愛知県","prefecture_kana":"アイチケン","city":"名古屋市緑区","city_kana":"ナゴヤシミドリク","town":"兵庫","town_kana":"ヒョウゴ","prefecture_code":23},"0826":{"zip_code":"4580826","prefecture":"愛知県","prefecture_kana":"アイチケン","city":"名古屋市緑区","city_kana":"ナゴヤシミドリク","town":"平子が丘","town_kana":"ヒラコガオカ","prefecture_code":23},"0009":{"zip_code":"4580009","prefecture":"愛知県","prefecture_kana":"アイチケン","city":"名古屋市緑区","city_kana":"ナゴヤシミドリク","town":"平手南","town_kana":"ヒラテミナミ","prefecture_code":23},"0008":{"zip_code":"4580008","prefecture":"愛知県","prefecture_kana":"アイチケン","city":"名古屋市緑区","city_kana":"ナゴヤシミドリク","town":"平手北","town_kana":"ヒラテキタ","prefecture_code":23},"0813":{"zip_code":"4580813","prefecture":"愛知県","prefecture_kana":"アイチケン","city":"名古屋市緑区","city_kana":"ナゴヤシミドリク","town":"藤塚","town_kana":"フジヅカ","prefecture_code":23},"0006":{"zip_code":"4580006","prefecture":"愛知県","prefecture_kana":"アイチケン","city":"名古屋市緑区","city_kana":"ナゴヤシミドリク","town":"細口","town_kana":"ホソグチ","prefecture_code":23},"0013":{"zip_code":"4580013","prefecture":"愛知県","prefecture_kana":"アイチケン","city":"名古屋市緑区","city_kana":"ナゴヤシミドリク","town":"ほら貝","town_kana":"ホラガイ","prefecture_code":23},"0843":{"zip_code":"4580843","prefecture":"愛知県","prefecture_kana":"アイチケン","city":"名古屋市緑区","city_kana":"ナゴヤシミドリク","town":"松が根台","town_kana":"マツガネダイ","prefecture_code":23},"0043":{"zip_code":"4580043","prefecture":"愛知県","prefecture_kana":"アイチケン","city":"名古屋市緑区","city_kana":"ナゴヤシミドリク","town":"万場山","town_kana":"マンバヤマ","prefecture_code":23},"0848":{"zip_code":"4580848","prefecture":"愛知県","prefecture_kana":"アイチケン","city":"名古屋市緑区","city_kana":"ナゴヤシミドリク","town":"水広","town_kana":"ミズヒロ","prefecture_code":23},"0002":{"zip_code":"4580002","prefecture":"愛知県","prefecture_kana":"アイチケン","city":"名古屋市緑区","city_kana":"ナゴヤシミドリク","town":"桃山","town_kana":"モモヤマ","prefecture_code":23},"0810":{"zip_code":"4580810","prefecture":"愛知県","prefecture_kana":"アイチケン","city":"名古屋市緑区","city_kana":"ナゴヤシミドリク","town":"八つ松","town_kana":"ヤツマツ","prefecture_code":23},"0816":{"zip_code":"4580816","prefecture":"愛知県","prefecture_kana":"アイチケン","city":"名古屋市緑区","city_kana":"ナゴヤシミドリク","town":"横吹町","town_kana":"ヨコブキチョウ","prefecture_code":23},"0036":{"zip_code":"4580036","prefecture":"愛知県","prefecture_kana":"アイチケン","city":"名古屋市緑区","city_kana":"ナゴヤシミドリク","town":"六田","town_kana":"ロクデン","prefecture_code":23},"0034":{"zip_code":"4580034","prefecture":"愛知県","prefecture_kana":"アイチケン","city":"名古屋市緑区","city_kana":"ナゴヤシミドリク","town":"若田","town_kana":"ワカタ","prefecture_code":23}}