{"0000":{"zip_code":"4610000","prefecture":"愛知県","prefecture_kana":"アイチケン","city":"名古屋市東区","city_kana":"ナゴヤシヒガシク","town":"","town_kana":"","prefecture_code":23},"0012":{"zip_code":"4610012","prefecture":"愛知県","prefecture_kana":"アイチケン","city":"名古屋市東区","city_kana":"ナゴヤシヒガシク","town":"相生町","town_kana":"アイオイチョウ","prefecture_code":23},"0004":{"zip_code":"4610004","prefecture":"愛知県","prefecture_kana":"アイチケン","city":"名古屋市東区","city_kana":"ナゴヤシヒガシク","town":"葵","town_kana":"アオイ","prefecture_code":23},"0026":{"zip_code":"4610026","prefecture":"愛知県","prefecture_kana":"アイチケン","city":"名古屋市東区","city_kana":"ナゴヤシヒガシク","town":"赤塚町","town_kana":"アカツカチョウ","prefecture_code":23},"0013":{"zip_code":"4610013","prefecture":"愛知県","prefecture_kana":"アイチケン","city":"名古屋市東区","city_kana":"ナゴヤシヒガシク","town":"飯田町","town_kana":"イイダマチ","prefecture_code":23},"0001":{"zip_code":"4610001","prefecture":"愛知県","prefecture_kana":"アイチケン","city":"名古屋市東区","city_kana":"ナゴヤシヒガシク","town":"泉","town_kana":"イズミ","prefecture_code":23},"0021":{"zip_code":"4610021","prefecture":"愛知県","prefecture_kana":"アイチケン","city":"名古屋市東区","city_kana":"ナゴヤシヒガシク","town":"大曽根","town_kana":"オオゾネ","prefecture_code":23},"0033":{"zip_code":"4610033","prefecture":"愛知県","prefecture_kana":"アイチケン","city":"名古屋市東区","city_kana":"ナゴヤシヒガシク","town":"大松町","town_kana":"オオマツチョウ","prefecture_code":23},"0016":{"zip_code":"4610016","prefecture":"愛知県","prefecture_kana":"アイチケン","city":"名古屋市東区","city_kana":"ナゴヤシヒガシク","town":"上竪杉町","town_kana":"カミタテスギノチョウ","prefecture_code":23},"0036":{"zip_code":"4610036","prefecture":"愛知県","prefecture_kana":"アイチケン","city":"名古屋市東区","city_kana":"ナゴヤシヒガシク","town":"車道町","town_kana":"クルマミチチョウ","prefecture_code":23},"0035":{"zip_code":"4610035","prefecture":"愛知県","prefecture_kana":"アイチケン","city":"名古屋市東区","city_kana":"ナゴヤシヒガシク","town":"黒門町","town_kana":"クロモンチョウ","prefecture_code":23},"0049":{"zip_code":"4610049","prefecture":"愛知県","prefecture_kana":"アイチケン","city":"名古屋市東区","city_kana":"ナゴヤシヒガシク","town":"古出来","town_kana":"コデキ","prefecture_code":23},"0019":{"zip_code":"4610019","prefecture":"愛知県","prefecture_kana":"アイチケン","city":"名古屋市東区","city_kana":"ナゴヤシヒガシク","town":"三の丸","town_kana":"サンノマル","prefecture_code":23},"0014":{"zip_code":"4610014","prefecture":"愛知県","prefecture_kana":"アイチケン","city":"名古屋市東区","city_kana":"ナゴヤシヒガシク","town":"橦木町","town_kana":"シュモクチョウ","prefecture_code":23},"0011":{"zip_code":"4610011","prefecture":"愛知県","prefecture_kana":"アイチケン","city":"名古屋市東区","city_kana":"ナゴヤシヒガシク","town":"白壁","town_kana":"シラカベ","prefecture_code":23},"0038":{"zip_code":"4610038","prefecture":"愛知県","prefecture_kana":"アイチケン","city":"名古屋市東区","city_kana":"ナゴヤシヒガシク","town":"新出来","town_kana":"シンデキ","prefecture_code":23},"0045":{"zip_code":"4610045","prefecture":"愛知県","prefecture_kana":"アイチケン","city":"名古屋市東区","city_kana":"ナゴヤシヒガシク","town":"砂田橋","town_kana":"スナダバシ","prefecture_code":23},"0002":{"zip_code":"4610002","prefecture":"愛知県","prefecture_kana":"アイチケン","city":"名古屋市東区","city_kana":"ナゴヤシヒガシク","town":"代官町","town_kana":"ダイカンチョウ","prefecture_code":23},"0043":{"zip_code":"4610043","prefecture":"愛知県","prefecture_kana":"アイチケン","city":"名古屋市東区","city_kana":"ナゴヤシヒガシク","town":"大幸","town_kana":"ダイコウ","prefecture_code":23},"0047":{"zip_code":"4610047","prefecture":"愛知県","prefecture_kana":"アイチケン","city":"名古屋市東区","city_kana":"ナゴヤシヒガシク","town":"大幸南","town_kana":"ダイコウミナミ","prefecture_code":23},"0018":{"zip_code":"4610018","prefecture":"愛知県","prefecture_kana":"アイチケン","city":"名古屋市東区","city_kana":"ナゴヤシヒガシク","town":"主税町","town_kana":"チカラマチ","prefecture_code":23},"0003":{"zip_code":"4610003","prefecture":"愛知県","prefecture_kana":"アイチケン","city":"名古屋市東区","city_kana":"ナゴヤシヒガシク","town":"筒井町","town_kana":"ツツイチョウ","prefecture_code":23},"0032":{"zip_code":"4610032","prefecture":"愛知県","prefecture_kana":"アイチケン","city":"名古屋市東区","city_kana":"ナゴヤシヒガシク","town":"出来町","town_kana":"デキマチ","prefecture_code":23},"0025":{"zip_code":"4610025","prefecture":"愛知県","prefecture_kana":"アイチケン","city":"名古屋市東区","city_kana":"ナゴヤシヒガシク","town":"徳川","town_kana":"トクガワ","prefecture_code":23},"0023":{"zip_code":"4610023","prefecture":"愛知県","prefecture_kana":"アイチケン","city":"名古屋市東区","city_kana":"ナゴヤシヒガシク","town":"徳川町","town_kana":"トクガワチョウ","prefecture_code":23},"0034":{"zip_code":"4610034","prefecture":"愛知県","prefecture_kana":"アイチケン","city":"名古屋市東区","city_kana":"ナゴヤシヒガシク","town":"豊前町","town_kana":"トヨマエチョウ","prefecture_code":23},"0007":{"zip_code":"4610007","prefecture":"愛知県","prefecture_kana":"アイチケン","city":"名古屋市東区","city_kana":"ナゴヤシヒガシク","town":"西新町","town_kana":"ニシシンチョウ","prefecture_code":23},"0022":{"zip_code":"4610022","prefecture":"愛知県","prefecture_kana":"アイチケン","city":"名古屋市東区","city_kana":"ナゴヤシヒガシク","town":"東大曽根町","town_kana":"ヒガシオオゾネチョウ","prefecture_code":23},"0015":{"zip_code":"4610015","prefecture":"愛知県","prefecture_kana":"アイチケン","city":"名古屋市東区","city_kana":"ナゴヤシヒガシク","town":"東片端町","town_kana":"ヒガシカタハマチ","prefecture_code":23},"0005":{"zip_code":"4610005","prefecture":"愛知県","prefecture_kana":"アイチケン","city":"名古屋市東区","city_kana":"ナゴヤシヒガシク","town":"東桜","town_kana":"ヒガシサクラ","prefecture_code":23},"0006":{"zip_code":"4610006","prefecture":"愛知県","prefecture_kana":"アイチケン","city":"名古屋市東区","city_kana":"ナゴヤシヒガシク","town":"東新町","town_kana":"ヒガシシンチョウ","prefecture_code":23},"0017":{"zip_code":"4610017","prefecture":"愛知県","prefecture_kana":"アイチケン","city":"名古屋市東区","city_kana":"ナゴヤシヒガシク","town":"東外堀町","town_kana":"ヒガシソトボリチョウ","prefecture_code":23},"0009":{"zip_code":"4610009","prefecture":"愛知県","prefecture_kana":"アイチケン","city":"名古屋市東区","city_kana":"ナゴヤシヒガシク","town":"久屋町","town_kana":"ヒサヤチョウ","prefecture_code":23},"0037":{"zip_code":"4610037","prefecture":"愛知県","prefecture_kana":"アイチケン","city":"名古屋市東区","city_kana":"ナゴヤシヒガシク","town":"百人町","town_kana":"ヒャクニンチョウ","prefecture_code":23},"0008":{"zip_code":"4610008","prefecture":"愛知県","prefecture_kana":"アイチケン","city":"名古屋市東区","city_kana":"ナゴヤシヒガシク","town":"武平町","town_kana":"ブヘイチョウ","prefecture_code":23},"0046":{"zip_code":"4610046","prefecture":"愛知県","prefecture_kana":"アイチケン","city":"名古屋市東区","city_kana":"ナゴヤシヒガシク","town":"前浪町","town_kana":"マエナミチョウ","prefecture_code":23},"0031":{"zip_code":"4610031","prefecture":"愛知県","prefecture_kana":"アイチケン","city":"名古屋市東区","city_kana":"ナゴヤシヒガシク","town":"明倫町","town_kana":"メイリンチョウ","prefecture_code":23},"0040":{"zip_code":"4610040","prefecture":"愛知県","prefecture_kana":"アイチケン","city":"名古屋市東区","city_kana":"ナゴヤシヒガシク","town":"矢田","town_kana":"ヤダ","prefecture_code":23},"0044":{"zip_code":"4610044","prefecture":"愛知県","prefecture_kana":"アイチケン","city":"名古屋市東区","city_kana":"ナゴヤシヒガシク","town":"矢田東","town_kana":"ヤダヒガシ","prefecture_code":23},"0048":{"zip_code":"4610048","prefecture":"愛知県","prefecture_kana":"アイチケン","city":"名古屋市東区","city_kana":"ナゴヤシヒガシク","town":"矢田南","town_kana":"ヤダミナミ","prefecture_code":23},"0024":{"zip_code":"4610024","prefecture":"愛知県","prefecture_kana":"アイチケン","city":"名古屋市東区","city_kana":"ナゴヤシヒガシク","town":"山口町","town_kana":"ヤマグチチョウ","prefecture_code":23},"0027":{"zip_code":"4610027","prefecture":"愛知県","prefecture_kana":"アイチケン","city":"名古屋市東区","city_kana":"ナゴヤシヒガシク","town":"芳野","town_kana":"ヨシノ","prefecture_code":23}}