{"0000":{"zip_code":"4620000","prefecture":"愛知県","prefecture_kana":"アイチケン","city":"名古屋市北区","city_kana":"ナゴヤシキタク","town":"","town_kana":"","prefecture_code":23},"0856":{"zip_code":"4620856","prefecture":"愛知県","prefecture_kana":"アイチケン","city":"名古屋市北区","city_kana":"ナゴヤシキタク","town":"芦辺町","town_kana":"アシベチョウ","prefecture_code":23},"0005":{"zip_code":"4620005","prefecture":"愛知県","prefecture_kana":"アイチケン","city":"名古屋市北区","city_kana":"ナゴヤシキタク","town":"池花町","town_kana":"イケハナチョウ","prefecture_code":23},"0832":{"zip_code":"4620832","prefecture":"愛知県","prefecture_kana":"アイチケン","city":"名古屋市北区","city_kana":"ナゴヤシキタク","town":"生駒町","town_kana":"イコマチョウ","prefecture_code":23},"0855":{"zip_code":"4620855","prefecture":"愛知県","prefecture_kana":"アイチケン","city":"名古屋市北区","city_kana":"ナゴヤシキタク","town":"石園町","town_kana":"イソノチョウ","prefecture_code":23},"0064":{"zip_code":"4620064","prefecture":"愛知県","prefecture_kana":"アイチケン","city":"名古屋市北区","city_kana":"ナゴヤシキタク","town":"大我麻町","town_kana":"オオガマチョウ","prefecture_code":23},"0858":{"zip_code":"4620858","prefecture":"愛知県","prefecture_kana":"アイチケン","city":"名古屋市北区","city_kana":"ナゴヤシキタク","town":"大蔵町","town_kana":"オオクラチョウ","prefecture_code":23},"0837":{"zip_code":"4620837","prefecture":"愛知県","prefecture_kana":"アイチケン","city":"名古屋市北区","city_kana":"ナゴヤシキタク","town":"大杉","town_kana":"オオスギ","prefecture_code":23},"0836":{"zip_code":"4620836","prefecture":"愛知県","prefecture_kana":"アイチケン","city":"名古屋市北区","city_kana":"ナゴヤシキタク","town":"大杉町","town_kana":"オオスギチョウ","prefecture_code":23},"0825":{"zip_code":"4620825","prefecture":"愛知県","prefecture_kana":"アイチケン","city":"名古屋市北区","city_kana":"ナゴヤシキタク","town":"大曽根","town_kana":"オオゾネ","prefecture_code":23},"0035":{"zip_code":"4620035","prefecture":"愛知県","prefecture_kana":"アイチケン","city":"名古屋市北区","city_kana":"ナゴヤシキタク","town":"大野町","town_kana":"オオノチョウ","prefecture_code":23},"0017":{"zip_code":"4620017","prefecture":"愛知県","prefecture_kana":"アイチケン","city":"名古屋市北区","city_kana":"ナゴヤシキタク","town":"落合町","town_kana":"オチアイチョウ","prefecture_code":23},"0807":{"zip_code":"4620807","prefecture":"愛知県","prefecture_kana":"アイチケン","city":"名古屋市北区","city_kana":"ナゴヤシキタク","town":"御成通","town_kana":"オナリトオリ","prefecture_code":23},"0863":{"zip_code":"4620863","prefecture":"愛知県","prefecture_kana":"アイチケン","city":"名古屋市北区","city_kana":"ナゴヤシキタク","town":"尾上町","town_kana":"オノエチョウ","prefecture_code":23},"0864":{"zip_code":"4620864","prefecture":"愛知県","prefecture_kana":"アイチケン","city":"名古屋市北区","city_kana":"ナゴヤシキタク","town":"織部町","town_kana":"オベチョウ","prefecture_code":23},"0061":{"zip_code":"4620061","prefecture":"愛知県","prefecture_kana":"アイチケン","city":"名古屋市北区","city_kana":"ナゴヤシキタク","town":"会所町","town_kana":"カイショチョウ","prefecture_code":23},"0867":{"zip_code":"4620867","prefecture":"愛知県","prefecture_kana":"アイチケン","city":"名古屋市北区","city_kana":"ナゴヤシキタク","town":"垣戸町","town_kana":"ガイドチョウ","prefecture_code":23},"0033":{"zip_code":"4620033","prefecture":"愛知県","prefecture_kana":"アイチケン","city":"名古屋市北区","city_kana":"ナゴヤシキタク","town":"金田町","town_kana":"カネダチョウ","prefecture_code":23},"0808":{"zip_code":"4620808","prefecture":"愛知県","prefecture_kana":"アイチケン","city":"名古屋市北区","city_kana":"ナゴヤシキタク","town":"上飯田通","town_kana":"カミイイダトオリ","prefecture_code":23},"0803":{"zip_code":"4620803","prefecture":"愛知県","prefecture_kana":"アイチケン","city":"名古屋市北区","city_kana":"ナゴヤシキタク","town":"上飯田東町","town_kana":"カミイイダヒガシマチ","prefecture_code":23},"0809":{"zip_code":"4620809","prefecture":"愛知県","prefecture_kana":"アイチケン","city":"名古屋市北区","city_kana":"ナゴヤシキタク","town":"上飯田西町","town_kana":"カミイイダニシマチ","prefecture_code":23},"0804":{"zip_code":"4620804","prefecture":"愛知県","prefecture_kana":"アイチケン","city":"名古屋市北区","city_kana":"ナゴヤシキタク","town":"上飯田南町","town_kana":"カミイイダミナミマチ","prefecture_code":23},"0802":{"zip_code":"4620802","prefecture":"愛知県","prefecture_kana":"アイチケン","city":"名古屋市北区","city_kana":"ナゴヤシキタク","town":"上飯田北町","town_kana":"カミイイダキタマチ","prefecture_code":23},"0022":{"zip_code":"4620022","prefecture":"愛知県","prefecture_kana":"アイチケン","city":"名古屋市北区","city_kana":"ナゴヤシキタク","town":"川中町","town_kana":"カワナカチョウ","prefecture_code":23},"0065":{"zip_code":"4620065","prefecture":"愛知県","prefecture_kana":"アイチケン","city":"名古屋市北区","city_kana":"ナゴヤシキタク","town":"喜惣治","town_kana":"キソウジ","prefecture_code":23},"0001":{"zip_code":"4620001","prefecture":"愛知県","prefecture_kana":"アイチケン","city":"名古屋市北区","city_kana":"ナゴヤシキタク","town":"北久手町","town_kana":"キタクテチョウ","prefecture_code":23},"0851":{"zip_code":"4620851","prefecture":"愛知県","prefecture_kana":"アイチケン","city":"名古屋市北区","city_kana":"ナゴヤシキタク","town":"木津根町","town_kana":"キヅネチョウ","prefecture_code":23},"0003":{"zip_code":"4620003","prefecture":"愛知県","prefecture_kana":"アイチケン","city":"名古屋市北区","city_kana":"ナゴヤシキタク","town":"桐畑町","town_kana":"キリハタチョウ","prefecture_code":23},"0847":{"zip_code":"4620847","prefecture":"愛知県","prefecture_kana":"アイチケン","city":"名古屋市北区","city_kana":"ナゴヤシキタク","town":"金城","town_kana":"キンジョウ","prefecture_code":23},"0047":{"zip_code":"4620047","prefecture":"愛知県","prefecture_kana":"アイチケン","city":"名古屋市北区","city_kana":"ナゴヤシキタク","town":"金城町","town_kana":"キンジョウチョウ","prefecture_code":23},"0012":{"zip_code":"4620012","prefecture":"愛知県","prefecture_kana":"アイチケン","city":"名古屋市北区","city_kana":"ナゴヤシキタク","town":"楠","town_kana":"クスノキ","prefecture_code":23},"0014":{"zip_code":"4620014","prefecture":"愛知県","prefecture_kana":"アイチケン","city":"名古屋市北区","city_kana":"ナゴヤシキタク","town":"楠味鋺","town_kana":"クスノキアジマ","prefecture_code":23},"0066":{"zip_code":"4620066","prefecture":"愛知県","prefecture_kana":"アイチケン","city":"名古屋市北区","city_kana":"ナゴヤシキタク","town":"楠町喜惣治新田","town_kana":"クスノキチョウキソウジシンデン","prefecture_code":23},"0841":{"zip_code":"4620841","prefecture":"愛知県","prefecture_kana":"アイチケン","city":"名古屋市北区","city_kana":"ナゴヤシキタク","town":"黒川本通","town_kana":"クロカワホントオリ","prefecture_code":23},"0018":{"zip_code":"4620018","prefecture":"愛知県","prefecture_kana":"アイチケン","city":"名古屋市北区","city_kana":"ナゴヤシキタク","town":"玄馬町","town_kana":"ゲンバチョウ","prefecture_code":23},"0857":{"zip_code":"4620857","prefecture":"愛知県","prefecture_kana":"アイチケン","city":"名古屋市北区","city_kana":"ナゴヤシキタク","town":"紅雲町","town_kana":"コウウンチョウ","prefecture_code":23},"0053":{"zip_code":"4620053","prefecture":"愛知県","prefecture_kana":"アイチケン","city":"名古屋市北区","city_kana":"ナゴヤシキタク","town":"光音寺町","town_kana":"コウオンジチョウ","prefecture_code":23},"0011":{"zip_code":"4620011","prefecture":"愛知県","prefecture_kana":"アイチケン","city":"名古屋市北区","city_kana":"ナゴヤシキタク","town":"五反田町","town_kana":"ゴタンダチョウ","prefecture_code":23},"0059":{"zip_code":"4620059","prefecture":"愛知県","prefecture_kana":"アイチケン","city":"名古屋市北区","city_kana":"ナゴヤシキタク","town":"駒止町","town_kana":"コマドメチョウ","prefecture_code":23},"0031":{"zip_code":"4620031","prefecture":"愛知県","prefecture_kana":"アイチケン","city":"名古屋市北区","city_kana":"ナゴヤシキタク","town":"米が瀬町","town_kana":"コメガセチョウ","prefecture_code":23},"0818":{"zip_code":"4620818","prefecture":"愛知県","prefecture_kana":"アイチケン","city":"名古屋市北区","city_kana":"ナゴヤシキタク","town":"彩紅橋通","town_kana":"サイコウバシトオリ","prefecture_code":23},"0852":{"zip_code":"4620852","prefecture":"愛知県","prefecture_kana":"アイチケン","city":"名古屋市北区","city_kana":"ナゴヤシキタク","town":"猿投町","town_kana":"サナゲチョウ","prefecture_code":23},"0004":{"zip_code":"4620004","prefecture":"愛知県","prefecture_kana":"アイチケン","city":"名古屋市北区","city_kana":"ナゴヤシキタク","town":"三軒町","town_kana":"サンゲンチョウ","prefecture_code":23},"0037":{"zip_code":"4620037","prefecture":"愛知県","prefecture_kana":"アイチケン","city":"名古屋市北区","city_kana":"ナゴヤシキタク","town":"志賀町","town_kana":"シガチョウ","prefecture_code":23},"0853":{"zip_code":"4620853","prefecture":"愛知県","prefecture_kana":"アイチケン","city":"名古屋市北区","city_kana":"ナゴヤシキタク","town":"志賀本通","town_kana":"シガホントオリ","prefecture_code":23},"0842":{"zip_code":"4620842","prefecture":"愛知県","prefecture_kana":"アイチケン","city":"名古屋市北区","city_kana":"ナゴヤシキタク","town":"志賀南通","town_kana":"シガミナミトオリ","prefecture_code":23},"0045":{"zip_code":"4620045","prefecture":"愛知県","prefecture_kana":"アイチケン","city":"名古屋市北区","city_kana":"ナゴヤシキタク","town":"敷島町","town_kana":"シキシマチョウ","prefecture_code":23},"0844":{"zip_code":"4620844","prefecture":"愛知県","prefecture_kana":"アイチケン","city":"名古屋市北区","city_kana":"ナゴヤシキタク","town":"清水","town_kana":"シミズ","prefecture_code":23},"0865":{"zip_code":"4620865","prefecture":"愛知県","prefecture_kana":"アイチケン","city":"名古屋市北区","city_kana":"ナゴヤシキタク","town":"下飯田町","town_kana":"シモイイダチョウ","prefecture_code":23},"0021":{"zip_code":"4620021","prefecture":"愛知県","prefecture_kana":"アイチケン","city":"名古屋市北区","city_kana":"ナゴヤシキタク","town":"成願寺","town_kana":"ジョウガンジ","prefecture_code":23},"0831":{"zip_code":"4620831","prefecture":"愛知県","prefecture_kana":"アイチケン","city":"名古屋市北区","city_kana":"ナゴヤシキタク","town":"城東町","town_kana":"ジョウトウチョウ","prefecture_code":23},"0046":{"zip_code":"4620046","prefecture":"愛知県","prefecture_kana":"アイチケン","city":"名古屋市北区","city_kana":"ナゴヤシキタク","town":"城見通","town_kana":"シロミトオリ","prefecture_code":23},"0062":{"zip_code":"4620062","prefecture":"愛知県","prefecture_kana":"アイチケン","city":"名古屋市北区","city_kana":"ナゴヤシキタク","town":"新沼町","town_kana":"シンヌマチョウ","prefecture_code":23},"0801":{"zip_code":"4620801","prefecture":"愛知県","prefecture_kana":"アイチケン","city":"名古屋市北区","city_kana":"ナゴヤシキタク","town":"新堀町","town_kana":"シンボリチョウ","prefecture_code":23},"0859":{"zip_code":"4620859","prefecture":"愛知県","prefecture_kana":"アイチケン","city":"名古屋市北区","city_kana":"ナゴヤシキタク","town":"神明町","town_kana":"シンメイチョウ","prefecture_code":23},"0829":{"zip_code":"4620829","prefecture":"愛知県","prefecture_kana":"アイチケン","city":"名古屋市北区","city_kana":"ナゴヤシキタク","town":"杉栄町","town_kana":"スギサカエチョウ","prefecture_code":23},"0835":{"zip_code":"4620835","prefecture":"愛知県","prefecture_kana":"アイチケン","city":"名古屋市北区","city_kana":"ナゴヤシキタク","town":"杉村","town_kana":"スギムラ","prefecture_code":23},"0869":{"zip_code":"4620869","prefecture":"愛知県","prefecture_kana":"アイチケン","city":"名古屋市北区","city_kana":"ナゴヤシキタク","town":"龍ノ口町","town_kana":"タツノクチチョウ","prefecture_code":23},"0843":{"zip_code":"4620843","prefecture":"愛知県","prefecture_kana":"アイチケン","city":"名古屋市北区","city_kana":"ナゴヤシキタク","town":"田幡","town_kana":"タバタ","prefecture_code":23},"0038":{"zip_code":"4620038","prefecture":"愛知県","prefecture_kana":"アイチケン","city":"名古屋市北区","city_kana":"ナゴヤシキタク","town":"稚児宮通","town_kana":"チゴノミヤトオリ","prefecture_code":23},"0056":{"zip_code":"4620056","prefecture":"愛知県","prefecture_kana":"アイチケン","city":"名古屋市北区","city_kana":"ナゴヤシキタク","town":"中丸町","town_kana":"チュウマルチョウ","prefecture_code":23},"0834":{"zip_code":"4620834","prefecture":"愛知県","prefecture_kana":"アイチケン","city":"名古屋市北区","city_kana":"ナゴヤシキタク","town":"長田町","town_kana":"チョウダチョウ","prefecture_code":23},"0032":{"zip_code":"4620032","prefecture":"愛知県","prefecture_kana":"アイチケン","city":"名古屋市北区","city_kana":"ナゴヤシキタク","town":"辻町","town_kana":"ツジチョウ","prefecture_code":23},"0861":{"zip_code":"4620861","prefecture":"愛知県","prefecture_kana":"アイチケン","city":"名古屋市北区","city_kana":"ナゴヤシキタク","town":"辻本通","town_kana":"ツジホンドオリ","prefecture_code":23},"0034":{"zip_code":"4620034","prefecture":"愛知県","prefecture_kana":"アイチケン","city":"名古屋市北区","city_kana":"ナゴヤシキタク","town":"天道町","town_kana":"テンドウチョウ","prefecture_code":23},"0868":{"zip_code":"4620868","prefecture":"愛知県","prefecture_kana":"アイチケン","city":"名古屋市北区","city_kana":"ナゴヤシキタク","town":"憧旛町","town_kana":"ドウバンチョウ","prefecture_code":23},"0009":{"zip_code":"4620009","prefecture":"愛知県","prefecture_kana":"アイチケン","city":"名古屋市北区","city_kana":"ナゴヤシキタク","town":"苗田町","town_kana":"ナエダチョウ","prefecture_code":23},"0015":{"zip_code":"4620015","prefecture":"愛知県","prefecture_kana":"アイチケン","city":"名古屋市北区","city_kana":"ナゴヤシキタク","town":"中味鋺","town_kana":"ナカアジマ","prefecture_code":23},"0051":{"zip_code":"4620051","prefecture":"愛知県","prefecture_kana":"アイチケン","city":"名古屋市北区","city_kana":"ナゴヤシキタク","town":"中切町","town_kana":"ナカギリチョウ","prefecture_code":23},"0838":{"zip_code":"4620838","prefecture":"愛知県","prefecture_kana":"アイチケン","city":"名古屋市北区","city_kana":"ナゴヤシキタク","town":"中杉町","town_kana":"ナカスギチョウ","prefecture_code":23},"0036":{"zip_code":"4620036","prefecture":"愛知県","prefecture_kana":"アイチケン","city":"名古屋市北区","city_kana":"ナゴヤシキタク","town":"長喜町","town_kana":"ナガキチョウ","prefecture_code":23},"0041":{"zip_code":"4620041","prefecture":"愛知県","prefecture_kana":"アイチケン","city":"名古屋市北区","city_kana":"ナゴヤシキタク","town":"浪打町","town_kana":"ナミウチチョウ","prefecture_code":23},"0016":{"zip_code":"4620016","prefecture":"愛知県","prefecture_kana":"アイチケン","city":"名古屋市北区","city_kana":"ナゴヤシキタク","town":"西味鋺","town_kana":"ニシアジマ","prefecture_code":23},"0058":{"zip_code":"4620058","prefecture":"愛知県","prefecture_kana":"アイチケン","city":"名古屋市北区","city_kana":"ナゴヤシキタク","town":"西志賀町","town_kana":"ニシシガチョウ","prefecture_code":23},"0007":{"zip_code":"4620007","prefecture":"愛知県","prefecture_kana":"アイチケン","city":"名古屋市北区","city_kana":"ナゴヤシキタク","town":"如意","town_kana":"ニョイ","prefecture_code":23},"0008":{"zip_code":"4620008","prefecture":"愛知県","prefecture_kana":"アイチケン","city":"名古屋市北区","city_kana":"ナゴヤシキタク","town":"如来町","town_kana":"ニョライチョウ","prefecture_code":23},"0054":{"zip_code":"4620054","prefecture":"愛知県","prefecture_kana":"アイチケン","city":"名古屋市北区","city_kana":"ナゴヤシキタク","town":"野方通","town_kana":"ノカタトオリ","prefecture_code":23},"0026":{"zip_code":"4620026","prefecture":"愛知県","prefecture_kana":"アイチケン","city":"名古屋市北区","city_kana":"ナゴヤシキタク","town":"萩野通","town_kana":"ハギノトオリ","prefecture_code":23},"0805":{"zip_code":"4620805","prefecture":"愛知県","prefecture_kana":"アイチケン","city":"名古屋市北区","city_kana":"ナゴヤシキタク","town":"八龍町","town_kana":"ハチリュウチョウ","prefecture_code":23},"0024":{"zip_code":"4620024","prefecture":"愛知県","prefecture_kana":"アイチケン","city":"名古屋市北区","city_kana":"ナゴヤシキタク","town":"鳩岡","town_kana":"ハトオカ","prefecture_code":23},"0025":{"zip_code":"4620025","prefecture":"愛知県","prefecture_kana":"アイチケン","city":"名古屋市北区","city_kana":"ナゴヤシキタク","town":"鳩岡町","town_kana":"ハトオカチョウ","prefecture_code":23},"0013":{"zip_code":"4620013","prefecture":"愛知県","prefecture_kana":"アイチケン","city":"名古屋市北区","city_kana":"ナゴヤシキタク","town":"東味鋺","town_kana":"ヒガシアジマ","prefecture_code":23},"0826":{"zip_code":"4620826","prefecture":"愛知県","prefecture_kana":"アイチケン","city":"名古屋市北区","city_kana":"ナゴヤシキタク","town":"東大杉町","town_kana":"ヒガシオオスギチョウ","prefecture_code":23},"0823":{"zip_code":"4620823","prefecture":"愛知県","prefecture_kana":"アイチケン","city":"名古屋市北区","city_kana":"ナゴヤシキタク","town":"東大曽根町上","town_kana":"ヒガシオオゾネチョウカミ","prefecture_code":23},"0821":{"zip_code":"4620821","prefecture":"愛知県","prefecture_kana":"アイチケン","city":"名古屋市北区","city_kana":"ナゴヤシキタク","town":"東大曽根町中","town_kana":"ヒガシオオゾネチョウナカ","prefecture_code":23},"0822":{"zip_code":"4620822","prefecture":"愛知県","prefecture_kana":"アイチケン","city":"名古屋市北区","city_kana":"ナゴヤシキタク","town":"東大曽根町本通","town_kana":"ヒガシオオゾネチョウホントオリ","prefecture_code":23},"0827":{"zip_code":"4620827","prefecture":"愛知県","prefecture_kana":"アイチケン","city":"名古屋市北区","city_kana":"ナゴヤシキタク","town":"東長田町","town_kana":"ヒガシチョウダチョウ","prefecture_code":23},"0828":{"zip_code":"4620828","prefecture":"愛知県","prefecture_kana":"アイチケン","city":"名古屋市北区","city_kana":"ナゴヤシキタク","town":"東水切町","town_kana":"ヒガシミズキリチョウ","prefecture_code":23},"0057":{"zip_code":"4620057","prefecture":"愛知県","prefecture_kana":"アイチケン","city":"名古屋市北区","city_kana":"ナゴヤシキタク","town":"平手町","town_kana":"ヒラテチョウ","prefecture_code":23},"0052":{"zip_code":"4620052","prefecture":"愛知県","prefecture_kana":"アイチケン","city":"名古屋市北区","city_kana":"ナゴヤシキタク","town":"福徳町","town_kana":"フクトクチョウ","prefecture_code":23},"0819":{"zip_code":"4620819","prefecture":"愛知県","prefecture_kana":"アイチケン","city":"名古屋市北区","city_kana":"ナゴヤシキタク","town":"平安","town_kana":"ヘイアン","prefecture_code":23},"0816":{"zip_code":"4620816","prefecture":"愛知県","prefecture_kana":"アイチケン","city":"名古屋市北区","city_kana":"ナゴヤシキタク","town":"平安通","town_kana":"ヘイアントオリ","prefecture_code":23},"0862":{"zip_code":"4620862","prefecture":"愛知県","prefecture_kana":"アイチケン","city":"名古屋市北区","city_kana":"ナゴヤシキタク","town":"真畔町","town_kana":"マグロチョウ","prefecture_code":23},"0055":{"zip_code":"4620055","prefecture":"愛知県","prefecture_kana":"アイチケン","city":"名古屋市北区","city_kana":"ナゴヤシキタク","town":"桝形町","town_kana":"マスガタチョウ","prefecture_code":23},"0063":{"zip_code":"4620063","prefecture":"愛知県","prefecture_kana":"アイチケン","city":"名古屋市北区","city_kana":"ナゴヤシキタク","town":"丸新町","town_kana":"マルシンチョウ","prefecture_code":23},"0833":{"zip_code":"4620833","prefecture":"愛知県","prefecture_kana":"アイチケン","city":"名古屋市北区","city_kana":"ナゴヤシキタク","town":"水切町","town_kana":"ミズキリチョウ","prefecture_code":23},"0042":{"zip_code":"4620042","prefecture":"愛知県","prefecture_kana":"アイチケン","city":"名古屋市北区","city_kana":"ナゴヤシキタク","town":"水草町","town_kana":"ミズクサチョウ","prefecture_code":23},"0846":{"zip_code":"4620846","prefecture":"愛知県","prefecture_kana":"アイチケン","city":"名古屋市北区","city_kana":"ナゴヤシキタク","town":"名城","town_kana":"メイジョウ","prefecture_code":23},"0044":{"zip_code":"4620044","prefecture":"愛知県","prefecture_kana":"アイチケン","city":"名古屋市北区","city_kana":"ナゴヤシキタク","town":"元志賀町","town_kana":"モトシガチョウ","prefecture_code":23},"0043":{"zip_code":"4620043","prefecture":"愛知県","prefecture_kana":"アイチケン","city":"名古屋市北区","city_kana":"ナゴヤシキタク","town":"八代町","town_kana":"ヤシロチョウ","prefecture_code":23},"0023":{"zip_code":"4620023","prefecture":"愛知県","prefecture_kana":"アイチケン","city":"名古屋市北区","city_kana":"ナゴヤシキタク","town":"安井","town_kana":"ヤスイ","prefecture_code":23},"0812":{"zip_code":"4620812","prefecture":"愛知県","prefecture_kana":"アイチケン","city":"名古屋市北区","city_kana":"ナゴヤシキタク","town":"矢田町","town_kana":"ヤダチョウ","prefecture_code":23},"0845":{"zip_code":"4620845","prefecture":"愛知県","prefecture_kana":"アイチケン","city":"名古屋市北区","city_kana":"ナゴヤシキタク","town":"柳原","town_kana":"ヤナギハラ","prefecture_code":23},"0810":{"zip_code":"4620810","prefecture":"愛知県","prefecture_kana":"アイチケン","city":"名古屋市北区","city_kana":"ナゴヤシキタク","town":"山田","town_kana":"ヤマダ","prefecture_code":23},"0813":{"zip_code":"4620813","prefecture":"愛知県","prefecture_kana":"アイチケン","city":"名古屋市北区","city_kana":"ナゴヤシキタク","town":"山田町","town_kana":"ヤマダチョウ","prefecture_code":23},"0814":{"zip_code":"4620814","prefecture":"愛知県","prefecture_kana":"アイチケン","city":"名古屋市北区","city_kana":"ナゴヤシキタク","town":"山田西町","town_kana":"ヤマダニシマチ","prefecture_code":23},"0811":{"zip_code":"4620811","prefecture":"愛知県","prefecture_kana":"アイチケン","city":"名古屋市北区","city_kana":"ナゴヤシキタク","town":"山田北町","town_kana":"ヤマダキタマチ","prefecture_code":23},"0824":{"zip_code":"4620824","prefecture":"愛知県","prefecture_kana":"アイチケン","city":"名古屋市北区","city_kana":"ナゴヤシキタク","town":"芳野","town_kana":"ヨシノ","prefecture_code":23},"0866":{"zip_code":"4620866","prefecture":"愛知県","prefecture_kana":"アイチケン","city":"名古屋市北区","city_kana":"ナゴヤシキタク","town":"瑠璃光町","town_kana":"ルリコウチョウ","prefecture_code":23},"0002":{"zip_code":"4620002","prefecture":"愛知県","prefecture_kana":"アイチケン","city":"名古屋市北区","city_kana":"ナゴヤシキタク","town":"六が池町","town_kana":"ロクガイケチョウ","prefecture_code":23},"0006":{"zip_code":"4620006","prefecture":"愛知県","prefecture_kana":"アイチケン","city":"名古屋市北区","city_kana":"ナゴヤシキタク","town":"若鶴町","town_kana":"ワカヅルチョウ","prefecture_code":23},"0854":{"zip_code":"4620854","prefecture":"愛知県","prefecture_kana":"アイチケン","city":"名古屋市北区","city_kana":"ナゴヤシキタク","town":"若葉通","town_kana":"ワカバトオリ","prefecture_code":23}}