{"0000":{"zip_code":"4630000","prefecture":"愛知県","prefecture_kana":"アイチケン","city":"名古屋市守山区","city_kana":"ナゴヤシモリヤマク","town":"","town_kana":"","prefecture_code":23},"0815":{"zip_code":"4630815","prefecture":"愛知県","prefecture_kana":"アイチケン","city":"名古屋市守山区","city_kana":"ナゴヤシモリヤマク","town":"青葉台","town_kana":"アオバダイ","prefecture_code":23},"0805":{"zip_code":"4630805","prefecture":"愛知県","prefecture_kana":"アイチケン","city":"名古屋市守山区","city_kana":"ナゴヤシモリヤマク","town":"青山台","town_kana":"アオヤマダイ","prefecture_code":23},"0037":{"zip_code":"4630037","prefecture":"愛知県","prefecture_kana":"アイチケン","city":"名古屋市守山区","city_kana":"ナゴヤシモリヤマク","town":"天子田","town_kana":"アマコダ","prefecture_code":23},"0804":{"zip_code":"4630804","prefecture":"愛知県","prefecture_kana":"アイチケン","city":"名古屋市守山区","city_kana":"ナゴヤシモリヤマク","town":"泉が丘","town_kana":"イズミガオカ","prefecture_code":23},"0075":{"zip_code":"4630075","prefecture":"愛知県","prefecture_kana":"アイチケン","city":"名古屋市守山区","city_kana":"ナゴヤシモリヤマク","town":"市場","town_kana":"イチバ","prefecture_code":23},"0023":{"zip_code":"4630023","prefecture":"愛知県","prefecture_kana":"アイチケン","city":"名古屋市守山区","city_kana":"ナゴヤシモリヤマク","town":"今尻町","town_kana":"イマジリチョウ","prefecture_code":23},"0094":{"zip_code":"4630094","prefecture":"愛知県","prefecture_kana":"アイチケン","city":"名古屋市守山区","city_kana":"ナゴヤシモリヤマク","town":"牛牧","town_kana":"ウシマキ","prefecture_code":23},"0044":{"zip_code":"4630044","prefecture":"愛知県","prefecture_kana":"アイチケン","city":"名古屋市守山区","city_kana":"ナゴヤシモリヤマク","town":"太田井","town_kana":"オオタイ","prefecture_code":23},"0041":{"zip_code":"4630041","prefecture":"愛知県","prefecture_kana":"アイチケン","city":"名古屋市守山区","city_kana":"ナゴヤシモリヤマク","town":"大谷町","town_kana":"オオタニチョウ","prefecture_code":23},"0085":{"zip_code":"4630085","prefecture":"愛知県","prefecture_kana":"アイチケン","city":"名古屋市守山区","city_kana":"ナゴヤシモリヤマク","town":"大牧町","town_kana":"オオマキチョウ","prefecture_code":23},"0021":{"zip_code":"4630021","prefecture":"愛知県","prefecture_kana":"アイチケン","city":"名古屋市守山区","city_kana":"ナゴヤシモリヤマク","town":"大森","town_kana":"オオモリ","prefecture_code":23},"0802":{"zip_code":"4630802","prefecture":"愛知県","prefecture_kana":"アイチケン","city":"名古屋市守山区","city_kana":"ナゴヤシモリヤマク","town":"大森北","town_kana":"オオモリキタ","prefecture_code":23},"0028":{"zip_code":"4630028","prefecture":"愛知県","prefecture_kana":"アイチケン","city":"名古屋市守山区","city_kana":"ナゴヤシモリヤマク","town":"大森八龍","town_kana":"オオモリハチリュウ","prefecture_code":23},"0016":{"zip_code":"4630016","prefecture":"愛知県","prefecture_kana":"アイチケン","city":"名古屋市守山区","city_kana":"ナゴヤシモリヤマク","town":"大屋敷","town_kana":"オオヤシキ","prefecture_code":23},"0011":{"zip_code":"4630011","prefecture":"愛知県","prefecture_kana":"アイチケン","city":"名古屋市守山区","city_kana":"ナゴヤシモリヤマク","town":"小幡","town_kana":"オバタ","prefecture_code":23},"0051":{"zip_code":"4630051","prefecture":"愛知県","prefecture_kana":"アイチケン","city":"名古屋市守山区","city_kana":"ナゴヤシモリヤマク","town":"小幡太田","town_kana":"オバタオオタ","prefecture_code":23},"0008":{"zip_code":"4630008","prefecture":"愛知県","prefecture_kana":"アイチケン","city":"名古屋市守山区","city_kana":"ナゴヤシモリヤマク","town":"小幡北","town_kana":"オバタキタ","prefecture_code":23},"0047":{"zip_code":"4630047","prefecture":"愛知県","prefecture_kana":"アイチケン","city":"名古屋市守山区","city_kana":"ナゴヤシモリヤマク","town":"小幡常燈","town_kana":"オバタジョウトウ","prefecture_code":23},"0053":{"zip_code":"4630053","prefecture":"愛知県","prefecture_kana":"アイチケン","city":"名古屋市守山区","city_kana":"ナゴヤシモリヤマク","town":"小幡千代田","town_kana":"オバタチヨダ","prefecture_code":23},"0013":{"zip_code":"4630013","prefecture":"愛知県","prefecture_kana":"アイチケン","city":"名古屋市守山区","city_kana":"ナゴヤシモリヤマク","town":"小幡中","town_kana":"オバタナカ","prefecture_code":23},"0052":{"zip_code":"4630052","prefecture":"愛知県","prefecture_kana":"アイチケン","city":"名古屋市守山区","city_kana":"ナゴヤシモリヤマク","town":"小幡宮ノ腰","town_kana":"オバタミヤノコシ","prefecture_code":23},"0048":{"zip_code":"4630048","prefecture":"愛知県","prefecture_kana":"アイチケン","city":"名古屋市守山区","city_kana":"ナゴヤシモリヤマク","town":"小幡南","town_kana":"オバタミナミ","prefecture_code":23},"0072":{"zip_code":"4630072","prefecture":"愛知県","prefecture_kana":"アイチケン","city":"名古屋市守山区","city_kana":"ナゴヤシモリヤマク","town":"金屋","town_kana":"カナヤ","prefecture_code":23},"0001":{"zip_code":"4630001","prefecture":"愛知県","prefecture_kana":"アイチケン","city":"名古屋市守山区","city_kana":"ナゴヤシモリヤマク","town":"上志段味","town_kana":"カミシダミ","prefecture_code":23},"0005":{"zip_code":"4630005","prefecture":"愛知県","prefecture_kana":"アイチケン","city":"名古屋市守山区","city_kana":"ナゴヤシモリヤマク","town":"川","town_kana":"カワ","prefecture_code":23},"0091":{"zip_code":"4630091","prefecture":"愛知県","prefecture_kana":"アイチケン","city":"名古屋市守山区","city_kana":"ナゴヤシモリヤマク","town":"川上町","town_kana":"カワカミチョウ","prefecture_code":23},"0098":{"zip_code":"4630098","prefecture":"愛知県","prefecture_kana":"アイチケン","city":"名古屋市守山区","city_kana":"ナゴヤシモリヤマク","town":"川北町","town_kana":"カワキタチョウ","prefecture_code":23},"0080":{"zip_code":"4630080","prefecture":"愛知県","prefecture_kana":"アイチケン","city":"名古屋市守山区","city_kana":"ナゴヤシモリヤマク","town":"川西","town_kana":"カワニシ","prefecture_code":23},"0006":{"zip_code":"4630006","prefecture":"愛知県","prefecture_kana":"アイチケン","city":"名古屋市守山区","city_kana":"ナゴヤシモリヤマク","town":"川東山","town_kana":"カワヒガシヤマ","prefecture_code":23},"0081":{"zip_code":"4630081","prefecture":"愛知県","prefecture_kana":"アイチケン","city":"名古屋市守山区","city_kana":"ナゴヤシモリヤマク","town":"川宮町","town_kana":"カワミヤチョウ","prefecture_code":23},"0097":{"zip_code":"4630097","prefecture":"愛知県","prefecture_kana":"アイチケン","city":"名古屋市守山区","city_kana":"ナゴヤシモリヤマク","town":"川村町","town_kana":"カワムラチョウ","prefecture_code":23},"0814":{"zip_code":"4630814","prefecture":"愛知県","prefecture_kana":"アイチケン","city":"名古屋市守山区","city_kana":"ナゴヤシモリヤマク","town":"桔梗平","town_kana":"キキョウダイラ","prefecture_code":23},"0017":{"zip_code":"4630017","prefecture":"愛知県","prefecture_kana":"アイチケン","city":"名古屋市守山区","city_kana":"ナゴヤシモリヤマク","town":"喜多山","town_kana":"キタヤマ","prefecture_code":23},"0043":{"zip_code":"4630043","prefecture":"愛知県","prefecture_kana":"アイチケン","city":"名古屋市守山区","city_kana":"ナゴヤシモリヤマク","town":"喜多山南","town_kana":"キタヤマミナミ","prefecture_code":23},"0004":{"zip_code":"4630004","prefecture":"愛知県","prefecture_kana":"アイチケン","city":"名古屋市守山区","city_kana":"ナゴヤシモリヤマク","town":"吉根","town_kana":"キッコ","prefecture_code":23},"0813":{"zip_code":"4630813","prefecture":"愛知県","prefecture_kana":"アイチケン","city":"名古屋市守山区","city_kana":"ナゴヤシモリヤマク","town":"吉根南","town_kana":"キッコミナミ","prefecture_code":23},"0079":{"zip_code":"4630079","prefecture":"愛知県","prefecture_kana":"アイチケン","city":"名古屋市守山区","city_kana":"ナゴヤシモリヤマク","town":"幸心","town_kana":"コウシン","prefecture_code":23},"0029":{"zip_code":"4630029","prefecture":"愛知県","prefecture_kana":"アイチケン","city":"名古屋市守山区","city_kana":"ナゴヤシモリヤマク","town":"御膳洞","town_kana":"ゴゼンボラ","prefecture_code":23},"0054":{"zip_code":"4630054","prefecture":"愛知県","prefecture_kana":"アイチケン","city":"名古屋市守山区","city_kana":"ナゴヤシモリヤマク","town":"小六町","town_kana":"コロクチョウ","prefecture_code":23},"0812":{"zip_code":"4630812","prefecture":"愛知県","prefecture_kana":"アイチケン","city":"名古屋市守山区","city_kana":"ナゴヤシモリヤマク","town":"笹ヶ根","town_kana":"ササガネ","prefecture_code":23},"0064":{"zip_code":"4630064","prefecture":"愛知県","prefecture_kana":"アイチケン","city":"名古屋市守山区","city_kana":"ナゴヤシモリヤマク","town":"更屋敷","town_kana":"サラヤシキ","prefecture_code":23},"0034":{"zip_code":"4630034","prefecture":"愛知県","prefecture_kana":"アイチケン","city":"名古屋市守山区","city_kana":"ナゴヤシモリヤマク","town":"四軒家","town_kana":"シケンヤ","prefecture_code":23},"0003":{"zip_code":"4630003","prefecture":"愛知県","prefecture_kana":"アイチケン","city":"名古屋市守山区","city_kana":"ナゴヤシモリヤマク","town":"下志段味","town_kana":"シモシダミ","prefecture_code":23},"0092":{"zip_code":"4630092","prefecture":"愛知県","prefecture_kana":"アイチケン","city":"名古屋市守山区","city_kana":"ナゴヤシモリヤマク","town":"白沢町","town_kana":"シラサワチョウ","prefecture_code":23},"0093":{"zip_code":"4630093","prefecture":"愛知県","prefecture_kana":"アイチケン","city":"名古屋市守山区","city_kana":"ナゴヤシモリヤマク","town":"城土町","town_kana":"シロツチチョウ","prefecture_code":23},"0014":{"zip_code":"4630014","prefecture":"愛知県","prefecture_kana":"アイチケン","city":"名古屋市守山区","city_kana":"ナゴヤシモリヤマク","town":"城南町","town_kana":"ジョウナンチョウ","prefecture_code":23},"0056":{"zip_code":"4630056","prefecture":"愛知県","prefecture_kana":"アイチケン","city":"名古屋市守山区","city_kana":"ナゴヤシモリヤマク","town":"新城","town_kana":"シンシロ","prefecture_code":23},"0071":{"zip_code":"4630071","prefecture":"愛知県","prefecture_kana":"アイチケン","city":"名古屋市守山区","city_kana":"ナゴヤシモリヤマク","town":"新守町","town_kana":"シンモリチョウ","prefecture_code":23},"0069":{"zip_code":"4630069","prefecture":"愛知県","prefecture_kana":"アイチケン","city":"名古屋市守山区","city_kana":"ナゴヤシモリヤマク","town":"新守西","town_kana":"シンモリニシ","prefecture_code":23},"0070":{"zip_code":"4630070","prefecture":"愛知県","prefecture_kana":"アイチケン","city":"名古屋市守山区","city_kana":"ナゴヤシモリヤマク","town":"新守山","town_kana":"シンモリヤマ","prefecture_code":23},"0010":{"zip_code":"4630010","prefecture":"愛知県","prefecture_kana":"アイチケン","city":"名古屋市守山区","city_kana":"ナゴヤシモリヤマク","town":"翠松園","town_kana":"スイショウエン","prefecture_code":23},"0078":{"zip_code":"4630078","prefecture":"愛知県","prefecture_kana":"アイチケン","city":"名古屋市守山区","city_kana":"ナゴヤシモリヤマク","town":"瀬古大字","town_kana":"セコオオアザ","prefecture_code":23},"0068":{"zip_code":"4630068","prefecture":"愛知県","prefecture_kana":"アイチケン","city":"名古屋市守山区","city_kana":"ナゴヤシモリヤマク","town":"瀬古","town_kana":"セコ","prefecture_code":23},"0090":{"zip_code":"4630090","prefecture":"愛知県","prefecture_kana":"アイチケン","city":"名古屋市守山区","city_kana":"ナゴヤシモリヤマク","town":"瀬古東","town_kana":"セコヒガシ","prefecture_code":23},"0087":{"zip_code":"4630087","prefecture":"愛知県","prefecture_kana":"アイチケン","city":"名古屋市守山区","city_kana":"ナゴヤシモリヤマク","town":"大永寺町","town_kana":"ダイエイジチョウ","prefecture_code":23},"0095":{"zip_code":"4630095","prefecture":"愛知県","prefecture_kana":"アイチケン","city":"名古屋市守山区","city_kana":"ナゴヤシモリヤマク","town":"高島町","town_kana":"タカシマチョウ","prefecture_code":23},"0012":{"zip_code":"4630012","prefecture":"愛知県","prefecture_kana":"アイチケン","city":"名古屋市守山区","city_kana":"ナゴヤシモリヤマク","town":"茶臼前","town_kana":"チャウスマエ","prefecture_code":23},"0062":{"zip_code":"4630062","prefecture":"愛知県","prefecture_kana":"アイチケン","city":"名古屋市守山区","city_kana":"ナゴヤシモリヤマク","town":"長栄","town_kana":"チョウエイ","prefecture_code":23},"0807":{"zip_code":"4630807","prefecture":"愛知県","prefecture_kana":"アイチケン","city":"名古屋市守山区","city_kana":"ナゴヤシモリヤマク","town":"鼓が丘","town_kana":"ツヅミガオカ","prefecture_code":23},"0088":{"zip_code":"4630088","prefecture":"愛知県","prefecture_kana":"アイチケン","city":"名古屋市守山区","city_kana":"ナゴヤシモリヤマク","town":"鳥神町","town_kana":"トリガミチョウ","prefecture_code":23},"0076":{"zip_code":"4630076","prefecture":"愛知県","prefecture_kana":"アイチケン","city":"名古屋市守山区","city_kana":"ナゴヤシモリヤマク","town":"鳥羽見","town_kana":"トリバミ","prefecture_code":23},"0046":{"zip_code":"4630046","prefecture":"愛知県","prefecture_kana":"アイチケン","city":"名古屋市守山区","city_kana":"ナゴヤシモリヤマク","town":"苗代","town_kana":"ナエシロ","prefecture_code":23},"0002":{"zip_code":"4630002","prefecture":"愛知県","prefecture_kana":"アイチケン","city":"名古屋市守山区","city_kana":"ナゴヤシモリヤマク","town":"中志段味","town_kana":"ナカシダミ","prefecture_code":23},"0057":{"zip_code":"4630057","prefecture":"愛知県","prefecture_kana":"アイチケン","city":"名古屋市守山区","city_kana":"ナゴヤシモリヤマク","town":"中新","town_kana":"ナカシン","prefecture_code":23},"0086":{"zip_code":"4630086","prefecture":"愛知県","prefecture_kana":"アイチケン","city":"名古屋市守山区","city_kana":"ナゴヤシモリヤマク","town":"永森町","town_kana":"ナガモリチョウ","prefecture_code":23},"0089":{"zip_code":"4630089","prefecture":"愛知県","prefecture_kana":"アイチケン","city":"名古屋市守山区","city_kana":"ナゴヤシモリヤマク","town":"西川原町","town_kana":"ニシガワラチョウ","prefecture_code":23},"0084":{"zip_code":"4630084","prefecture":"愛知県","prefecture_kana":"アイチケン","city":"名古屋市守山区","city_kana":"ナゴヤシモリヤマク","town":"西城","town_kana":"ニシシロ","prefecture_code":23},"0055":{"zip_code":"4630055","prefecture":"愛知県","prefecture_kana":"アイチケン","city":"名古屋市守山区","city_kana":"ナゴヤシモリヤマク","town":"西新","town_kana":"ニシシン","prefecture_code":23},"0015":{"zip_code":"4630015","prefecture":"愛知県","prefecture_kana":"アイチケン","city":"名古屋市守山区","city_kana":"ナゴヤシモリヤマク","town":"西島町","town_kana":"ニシジマチョウ","prefecture_code":23},"0065":{"zip_code":"4630065","prefecture":"愛知県","prefecture_kana":"アイチケン","city":"名古屋市守山区","city_kana":"ナゴヤシモリヤマク","town":"廿軒家","town_kana":"ニジッケンヤ","prefecture_code":23},"0032":{"zip_code":"4630032","prefecture":"愛知県","prefecture_kana":"アイチケン","city":"名古屋市守山区","city_kana":"ナゴヤシモリヤマク","town":"白山","town_kana":"ハクサン","prefecture_code":23},"0063":{"zip_code":"4630063","prefecture":"愛知県","prefecture_kana":"アイチケン","city":"名古屋市守山区","city_kana":"ナゴヤシモリヤマク","town":"八反","town_kana":"ハッタン","prefecture_code":23},"0808":{"zip_code":"4630808","prefecture":"愛知県","prefecture_kana":"アイチケン","city":"名古屋市守山区","city_kana":"ナゴヤシモリヤマク","town":"花咲台","town_kana":"ハナサキダイ","prefecture_code":23},"0038":{"zip_code":"4630038","prefecture":"愛知県","prefecture_kana":"アイチケン","city":"名古屋市守山区","city_kana":"ナゴヤシモリヤマク","town":"原境町","town_kana":"ハラザカイチョウ","prefecture_code":23},"0061":{"zip_code":"4630061","prefecture":"愛知県","prefecture_kana":"アイチケン","city":"名古屋市守山区","city_kana":"ナゴヤシモリヤマク","town":"東山町","town_kana":"ヒガシヤマチョウ","prefecture_code":23},"0045":{"zip_code":"4630045","prefecture":"愛知県","prefecture_kana":"アイチケン","city":"名古屋市守山区","city_kana":"ナゴヤシモリヤマク","town":"菱池町","town_kana":"ヒシイケチョウ","prefecture_code":23},"0803":{"zip_code":"4630803","prefecture":"愛知県","prefecture_kana":"アイチケン","city":"名古屋市守山区","city_kana":"ナゴヤシモリヤマク","town":"日の後","town_kana":"ヒノゴ","prefecture_code":23},"0809":{"zip_code":"4630809","prefecture":"愛知県","prefecture_kana":"アイチケン","city":"名古屋市守山区","city_kana":"ナゴヤシモリヤマク","town":"平池東","town_kana":"ヒライケヒガシ","prefecture_code":23},"0811":{"zip_code":"4630811","prefecture":"愛知県","prefecture_kana":"アイチケン","city":"名古屋市守山区","city_kana":"ナゴヤシモリヤマク","town":"深沢","town_kana":"フカサワ","prefecture_code":23},"0027":{"zip_code":"4630027","prefecture":"愛知県","prefecture_kana":"アイチケン","city":"名古屋市守山区","city_kana":"ナゴヤシモリヤマク","town":"弁天が丘","town_kana":"ベンテンガオカ","prefecture_code":23},"0031":{"zip_code":"4630031","prefecture":"愛知県","prefecture_kana":"アイチケン","city":"名古屋市守山区","city_kana":"ナゴヤシモリヤマク","town":"本地が丘","town_kana":"ホンジガオカ","prefecture_code":23},"0066":{"zip_code":"4630066","prefecture":"愛知県","prefecture_kana":"アイチケン","city":"名古屋市守山区","city_kana":"ナゴヤシモリヤマク","town":"町南","town_kana":"マチミナミ","prefecture_code":23},"0074":{"zip_code":"4630074","prefecture":"愛知県","prefecture_kana":"アイチケン","city":"名古屋市守山区","city_kana":"ナゴヤシモリヤマク","town":"町北","town_kana":"マチキタ","prefecture_code":23},"0007":{"zip_code":"4630007","prefecture":"愛知県","prefecture_kana":"アイチケン","city":"名古屋市守山区","city_kana":"ナゴヤシモリヤマク","town":"松坂町","town_kana":"マツサカチョウ","prefecture_code":23},"0009":{"zip_code":"4630009","prefecture":"愛知県","prefecture_kana":"アイチケン","city":"名古屋市守山区","city_kana":"ナゴヤシモリヤマク","town":"緑ケ丘","town_kana":"ミドリガオカ","prefecture_code":23},"0036":{"zip_code":"4630036","prefecture":"愛知県","prefecture_kana":"アイチケン","city":"名古屋市守山区","city_kana":"ナゴヤシモリヤマク","town":"向台","town_kana":"ムカエダイ","prefecture_code":23},"0083":{"zip_code":"4630083","prefecture":"愛知県","prefecture_kana":"アイチケン","city":"名古屋市守山区","city_kana":"ナゴヤシモリヤマク","town":"村合町","town_kana":"ムラアイチョウ","prefecture_code":23},"0082":{"zip_code":"4630082","prefecture":"愛知県","prefecture_kana":"アイチケン","city":"名古屋市守山区","city_kana":"ナゴヤシモリヤマク","town":"村前町","town_kana":"ムラマエチョウ","prefecture_code":23},"0025":{"zip_code":"4630025","prefecture":"愛知県","prefecture_kana":"アイチケン","city":"名古屋市守山区","city_kana":"ナゴヤシモリヤマク","town":"元郷","town_kana":"モトゴウ","prefecture_code":23},"0035":{"zip_code":"4630035","prefecture":"愛知県","prefecture_kana":"アイチケン","city":"名古屋市守山区","city_kana":"ナゴヤシモリヤマク","town":"森孝","town_kana":"モリタカ","prefecture_code":23},"0033":{"zip_code":"4630033","prefecture":"愛知県","prefecture_kana":"アイチケン","city":"名古屋市守山区","city_kana":"ナゴヤシモリヤマク","town":"森孝東","town_kana":"モリタカヒガシ","prefecture_code":23},"0073":{"zip_code":"4630073","prefecture":"愛知県","prefecture_kana":"アイチケン","city":"名古屋市守山区","city_kana":"ナゴヤシモリヤマク","town":"守牧町","town_kana":"モリマキチョウ","prefecture_code":23},"0096":{"zip_code":"4630096","prefecture":"愛知県","prefecture_kana":"アイチケン","city":"名古屋市守山区","city_kana":"ナゴヤシモリヤマク","town":"森宮町","town_kana":"モリミヤチョウ","prefecture_code":23},"0067":{"zip_code":"4630067","prefecture":"愛知県","prefecture_kana":"アイチケン","city":"名古屋市守山区","city_kana":"ナゴヤシモリヤマク","town":"守山","town_kana":"モリヤマ","prefecture_code":23},"0077":{"zip_code":"4630077","prefecture":"愛知県","prefecture_kana":"アイチケン","city":"名古屋市守山区","city_kana":"ナゴヤシモリヤマク","town":"守山","town_kana":"モリヤマ","prefecture_code":23},"0022":{"zip_code":"4630022","prefecture":"愛知県","prefecture_kana":"アイチケン","city":"名古屋市守山区","city_kana":"ナゴヤシモリヤマク","town":"八剣","town_kana":"ヤツルギ","prefecture_code":23},"0042":{"zip_code":"4630042","prefecture":"愛知県","prefecture_kana":"アイチケン","city":"名古屋市守山区","city_kana":"ナゴヤシモリヤマク","town":"野萩町","town_kana":"ヤハギチョウ","prefecture_code":23},"0026":{"zip_code":"4630026","prefecture":"愛知県","prefecture_kana":"アイチケン","city":"名古屋市守山区","city_kana":"ナゴヤシモリヤマク","town":"藪田町","town_kana":"ヤブタチョウ","prefecture_code":23},"0806":{"zip_code":"4630806","prefecture":"愛知県","prefecture_kana":"アイチケン","city":"名古屋市守山区","city_kana":"ナゴヤシモリヤマク","town":"百合が丘","town_kana":"ユリガオカ","prefecture_code":23},"0801":{"zip_code":"4630801","prefecture":"愛知県","prefecture_kana":"アイチケン","city":"名古屋市守山区","city_kana":"ナゴヤシモリヤマク","town":"竜泉寺","town_kana":"リュウセンジ","prefecture_code":23},"0024":{"zip_code":"4630024","prefecture":"愛知県","prefecture_kana":"アイチケン","city":"名古屋市守山区","city_kana":"ナゴヤシモリヤマク","town":"脇田町","town_kana":"ワキタチョウ","prefecture_code":23}}