{"0000":{"zip_code":"4640000","prefecture":"愛知県","prefecture_kana":"アイチケン","city":"名古屋市千種区","city_kana":"ナゴヤシチクサク","town":"","town_kana":"","prefecture_code":23},"0852":{"zip_code":"4640852","prefecture":"愛知県","prefecture_kana":"アイチケン","city":"名古屋市千種区","city_kana":"ナゴヤシチクサク","town":"青柳町","town_kana":"アオヤギチョウ","prefecture_code":23},"0094":{"zip_code":"4640094","prefecture":"愛知県","prefecture_kana":"アイチケン","city":"名古屋市千種区","city_kana":"ナゴヤシチクサク","town":"赤坂町","town_kana":"アカサカチョウ","prefecture_code":23},"0019":{"zip_code":"4640019","prefecture":"愛知県","prefecture_kana":"アイチケン","city":"名古屋市千種区","city_kana":"ナゴヤシチクサク","town":"揚羽町","town_kana":"アゲハチョウ","prefecture_code":23},"0811":{"zip_code":"4640811","prefecture":"愛知県","prefecture_kana":"アイチケン","city":"名古屋市千種区","city_kana":"ナゴヤシチクサク","town":"朝岡町","town_kana":"アサオカチョウ","prefecture_code":23},"0029":{"zip_code":"4640029","prefecture":"愛知県","prefecture_kana":"アイチケン","city":"名古屋市千種区","city_kana":"ナゴヤシチクサク","town":"池上町","town_kana":"イケガミチョウ","prefecture_code":23},"0067":{"zip_code":"4640067","prefecture":"愛知県","prefecture_kana":"アイチケン","city":"名古屋市千種区","city_kana":"ナゴヤシチクサク","town":"池下","town_kana":"イケシタ","prefecture_code":23},"0066":{"zip_code":"4640066","prefecture":"愛知県","prefecture_kana":"アイチケン","city":"名古屋市千種区","city_kana":"ナゴヤシチクサク","town":"池下町","town_kana":"イケシタチョウ","prefecture_code":23},"0818":{"zip_code":"4640818","prefecture":"愛知県","prefecture_kana":"アイチケン","city":"名古屋市千種区","city_kana":"ナゴヤシチクサク","town":"池園町","town_kana":"イケソノチョウ","prefecture_code":23},"0012":{"zip_code":"4640012","prefecture":"愛知県","prefecture_kana":"アイチケン","city":"名古屋市千種区","city_kana":"ナゴヤシチクサク","town":"猪高町猪子石猪々道","town_kana":"イタカチョウイノコイシシシミチ","prefecture_code":23},"0824":{"zip_code":"4640824","prefecture":"愛知県","prefecture_kana":"アイチケン","city":"名古屋市千種区","city_kana":"ナゴヤシチクサク","town":"稲舟通","town_kana":"イナフネトオリ","prefecture_code":23},"0026":{"zip_code":"4640026","prefecture":"愛知県","prefecture_kana":"アイチケン","city":"名古屋市千種区","city_kana":"ナゴヤシチクサク","town":"井上町","town_kana":"イノウエチョウ","prefecture_code":23},"0850":{"zip_code":"4640850","prefecture":"愛知県","prefecture_kana":"アイチケン","city":"名古屋市千種区","city_kana":"ナゴヤシチクサク","town":"今池","town_kana":"イマイケ","prefecture_code":23},"0851":{"zip_code":"4640851","prefecture":"愛知県","prefecture_kana":"アイチケン","city":"名古屋市千種区","city_kana":"ナゴヤシチクサク","town":"今池南","town_kana":"イマイケミナミ","prefecture_code":23},"0082":{"zip_code":"4640082","prefecture":"愛知県","prefecture_kana":"アイチケン","city":"名古屋市千種区","city_kana":"ナゴヤシチクサク","town":"上野","town_kana":"ウエノ","prefecture_code":23},"0075":{"zip_code":"4640075","prefecture":"愛知県","prefecture_kana":"アイチケン","city":"名古屋市千種区","city_kana":"ナゴヤシチクサク","town":"内山","town_kana":"ウチヤマ","prefecture_code":23},"0854":{"zip_code":"4640854","prefecture":"愛知県","prefecture_kana":"アイチケン","city":"名古屋市千種区","city_kana":"ナゴヤシチクサク","town":"大久手町","town_kana":"オオクテチョウ","prefecture_code":23},"0833":{"zip_code":"4640833","prefecture":"愛知県","prefecture_kana":"アイチケン","city":"名古屋市千種区","city_kana":"ナゴヤシチクサク","town":"大島町","town_kana":"オオシマチョウ","prefecture_code":23},"0837":{"zip_code":"4640837","prefecture":"愛知県","prefecture_kana":"アイチケン","city":"名古屋市千種区","city_kana":"ナゴヤシチクサク","town":"丘上町","town_kana":"オカウエチョウ","prefecture_code":23},"0835":{"zip_code":"4640835","prefecture":"愛知県","prefecture_kana":"アイチケン","city":"名古屋市千種区","city_kana":"ナゴヤシチクサク","town":"御棚町","town_kana":"オタナチョウ","prefecture_code":23},"0816":{"zip_code":"4640816","prefecture":"愛知県","prefecture_kana":"アイチケン","city":"名古屋市千種区","city_kana":"ナゴヤシチクサク","town":"鏡池通","town_kana":"カガミイケトオリ","prefecture_code":23},"0841":{"zip_code":"4640841","prefecture":"愛知県","prefecture_kana":"アイチケン","city":"名古屋市千種区","city_kana":"ナゴヤシチクサク","town":"覚王山通","town_kana":"カクオウザントオリ","prefecture_code":23},"0041":{"zip_code":"4640041","prefecture":"愛知県","prefecture_kana":"アイチケン","city":"名古屋市千種区","city_kana":"ナゴヤシチクサク","town":"霞ケ丘","town_kana":"カスミガオカ","prefecture_code":23},"0002":{"zip_code":"4640002","prefecture":"愛知県","prefecture_kana":"アイチケン","city":"名古屋市千種区","city_kana":"ナゴヤシチクサク","town":"香流橋","town_kana":"カナレバシ","prefecture_code":23},"0033":{"zip_code":"4640033","prefecture":"愛知県","prefecture_kana":"アイチケン","city":"名古屋市千種区","city_kana":"ナゴヤシチクサク","town":"鹿子町","town_kana":"カノコチョウ","prefecture_code":23},"0021":{"zip_code":"4640021","prefecture":"愛知県","prefecture_kana":"アイチケン","city":"名古屋市千種区","city_kana":"ナゴヤシチクサク","town":"鹿子殿","town_kana":"カノコデン","prefecture_code":23},"0086":{"zip_code":"4640086","prefecture":"愛知県","prefecture_kana":"アイチケン","city":"名古屋市千種区","city_kana":"ナゴヤシチクサク","town":"萱場","town_kana":"カヤバ","prefecture_code":23},"0806":{"zip_code":"4640806","prefecture":"愛知県","prefecture_kana":"アイチケン","city":"名古屋市千種区","city_kana":"ナゴヤシチクサク","town":"唐山町","town_kana":"カラヤマチョウ","prefecture_code":23},"0826":{"zip_code":"4640826","prefecture":"愛知県","prefecture_kana":"アイチケン","city":"名古屋市千種区","city_kana":"ナゴヤシチクサク","town":"川崎町","town_kana":"カワサキチョウ","prefecture_code":23},"0831":{"zip_code":"4640831","prefecture":"愛知県","prefecture_kana":"アイチケン","city":"名古屋市千種区","city_kana":"ナゴヤシチクサク","town":"観月町","town_kana":"カンゲツチョウ","prefecture_code":23},"0077":{"zip_code":"4640077","prefecture":"愛知県","prefecture_kana":"アイチケン","city":"名古屋市千種区","city_kana":"ナゴヤシチクサク","town":"神田町","town_kana":"カンダチョウ","prefecture_code":23},"0836":{"zip_code":"4640836","prefecture":"愛知県","prefecture_kana":"アイチケン","city":"名古屋市千種区","city_kana":"ナゴヤシチクサク","town":"菊坂町","town_kana":"キクザカチョウ","prefecture_code":23},"0083":{"zip_code":"4640083","prefecture":"愛知県","prefecture_kana":"アイチケン","city":"名古屋市千種区","city_kana":"ナゴヤシチクサク","town":"北千種","town_kana":"キタチクサ","prefecture_code":23},"0016":{"zip_code":"4640016","prefecture":"愛知県","prefecture_kana":"アイチケン","city":"名古屋市千種区","city_kana":"ナゴヤシチクサク","town":"希望ケ丘","town_kana":"キボウガオカ","prefecture_code":23},"0004":{"zip_code":"4640004","prefecture":"愛知県","prefecture_kana":"アイチケン","city":"名古屋市千種区","city_kana":"ナゴヤシチクサク","town":"京命","town_kana":"キョウメイ","prefecture_code":23},"0034":{"zip_code":"4640034","prefecture":"愛知県","prefecture_kana":"アイチケン","city":"名古屋市千種区","city_kana":"ナゴヤシチクサク","town":"清住町","town_kana":"キヨズミチョウ","prefecture_code":23},"0842":{"zip_code":"4640842","prefecture":"愛知県","prefecture_kana":"アイチケン","city":"名古屋市千種区","city_kana":"ナゴヤシチクサク","town":"桐林町","town_kana":"キリバヤシチョウ","prefecture_code":23},"0037":{"zip_code":"4640037","prefecture":"愛知県","prefecture_kana":"アイチケン","city":"名古屋市千種区","city_kana":"ナゴヤシチクサク","town":"楠元町","town_kana":"クスモトチョウ","prefecture_code":23},"0815":{"zip_code":"4640815","prefecture":"愛知県","prefecture_kana":"アイチケン","city":"名古屋市千種区","city_kana":"ナゴヤシチクサク","town":"幸川町","town_kana":"コウガワチョウ","prefecture_code":23},"0061":{"zip_code":"4640061","prefecture":"愛知県","prefecture_kana":"アイチケン","city":"名古屋市千種区","city_kana":"ナゴヤシチクサク","town":"向陽","town_kana":"コウヨウ","prefecture_code":23},"0062":{"zip_code":"4640062","prefecture":"愛知県","prefecture_kana":"アイチケン","city":"名古屋市千種区","city_kana":"ナゴヤシチクサク","town":"向陽町","town_kana":"コウヨウチョウ","prefecture_code":23},"0085":{"zip_code":"4640085","prefecture":"愛知県","prefecture_kana":"アイチケン","city":"名古屋市千種区","city_kana":"ナゴヤシチクサク","town":"古出来","town_kana":"コデキ","prefecture_code":23},"0853":{"zip_code":"4640853","prefecture":"愛知県","prefecture_kana":"アイチケン","city":"名古屋市千種区","city_kana":"ナゴヤシチクサク","town":"小松町","town_kana":"コマツチョウ","prefecture_code":23},"0025":{"zip_code":"4640025","prefecture":"愛知県","prefecture_kana":"アイチケン","city":"名古屋市千種区","city_kana":"ナゴヤシチクサク","town":"桜が丘","town_kana":"サクラガオカ","prefecture_code":23},"0064":{"zip_code":"4640064","prefecture":"愛知県","prefecture_kana":"アイチケン","city":"名古屋市千種区","city_kana":"ナゴヤシチクサク","town":"山門町","town_kana":"サンモンチョウ","prefecture_code":23},"0096":{"zip_code":"4640096","prefecture":"愛知県","prefecture_kana":"アイチケン","city":"名古屋市千種区","city_kana":"ナゴヤシチクサク","town":"下方町","town_kana":"シモカタチョウ","prefecture_code":23},"0044":{"zip_code":"4640044","prefecture":"愛知県","prefecture_kana":"アイチケン","city":"名古屋市千種区","city_kana":"ナゴヤシチクサク","town":"自由ケ丘","town_kana":"ジユウガオカ","prefecture_code":23},"0084":{"zip_code":"4640084","prefecture":"愛知県","prefecture_kana":"アイチケン","city":"名古屋市千種区","city_kana":"ナゴヤシチクサク","town":"松軒","town_kana":"ショウケン","prefecture_code":23},"0823":{"zip_code":"4640823","prefecture":"愛知県","prefecture_kana":"アイチケン","city":"名古屋市千種区","city_kana":"ナゴヤシチクサク","town":"松竹町","town_kana":"ショウチクチョウ","prefecture_code":23},"0013":{"zip_code":"4640013","prefecture":"愛知県","prefecture_kana":"アイチケン","city":"名古屋市千種区","city_kana":"ナゴヤシチクサク","town":"汁谷町","town_kana":"シルタニチョウ","prefecture_code":23},"0046":{"zip_code":"4640046","prefecture":"愛知県","prefecture_kana":"アイチケン","city":"名古屋市千種区","city_kana":"ナゴヤシチクサク","town":"城山新町","town_kana":"シロヤマシンマチ","prefecture_code":23},"0846":{"zip_code":"4640846","prefecture":"愛知県","prefecture_kana":"アイチケン","city":"名古屋市千種区","city_kana":"ナゴヤシチクサク","town":"城木町","town_kana":"シロキチョウ","prefecture_code":23},"0045":{"zip_code":"4640045","prefecture":"愛知県","prefecture_kana":"アイチケン","city":"名古屋市千種区","city_kana":"ナゴヤシチクサク","town":"城山町","town_kana":"シロヤマチョウ","prefecture_code":23},"0027":{"zip_code":"4640027","prefecture":"愛知県","prefecture_kana":"アイチケン","city":"名古屋市千種区","city_kana":"ナゴヤシチクサク","town":"新池町","town_kana":"シンイケチョウ","prefecture_code":23},"0859":{"zip_code":"4640859","prefecture":"愛知県","prefecture_kana":"アイチケン","city":"名古屋市千種区","city_kana":"ナゴヤシチクサク","town":"新栄","town_kana":"シンサカエ","prefecture_code":23},"0072":{"zip_code":"4640072","prefecture":"愛知県","prefecture_kana":"アイチケン","city":"名古屋市千種区","city_kana":"ナゴヤシチクサク","town":"振甫町","town_kana":"シンポチョウ","prefecture_code":23},"0003":{"zip_code":"4640003","prefecture":"愛知県","prefecture_kana":"アイチケン","city":"名古屋市千種区","city_kana":"ナゴヤシチクサク","town":"新西","town_kana":"シンニシ","prefecture_code":23},"0821":{"zip_code":"4640821","prefecture":"愛知県","prefecture_kana":"アイチケン","city":"名古屋市千種区","city_kana":"ナゴヤシチクサク","town":"末盛通","town_kana":"スエモリトオリ","prefecture_code":23},"0087":{"zip_code":"4640087","prefecture":"愛知県","prefecture_kana":"アイチケン","city":"名古屋市千種区","city_kana":"ナゴヤシチクサク","town":"清明山","town_kana":"セイメイヤマ","prefecture_code":23},"0812":{"zip_code":"4640812","prefecture":"愛知県","prefecture_kana":"アイチケン","city":"名古屋市千種区","city_kana":"ナゴヤシチクサク","town":"園山町","town_kana":"ソノヤマチョウ","prefecture_code":23},"0073":{"zip_code":"4640073","prefecture":"愛知県","prefecture_kana":"アイチケン","city":"名古屋市千種区","city_kana":"ナゴヤシチクサク","town":"高見","town_kana":"タカミ","prefecture_code":23},"0007":{"zip_code":"4640007","prefecture":"愛知県","prefecture_kana":"アイチケン","city":"名古屋市千種区","city_kana":"ナゴヤシチクサク","town":"竹越","town_kana":"タケコシ","prefecture_code":23},"0053":{"zip_code":"4640053","prefecture":"愛知県","prefecture_kana":"アイチケン","city":"名古屋市千種区","city_kana":"ナゴヤシチクサク","town":"田代町岩谷","town_kana":"タシロチョウイワヤ","prefecture_code":23},"0023":{"zip_code":"4640023","prefecture":"愛知県","prefecture_kana":"アイチケン","city":"名古屋市千種区","city_kana":"ナゴヤシチクサク","town":"田代町鹿子殿","town_kana":"タシロチョウカノコデン","prefecture_code":23},"0803":{"zip_code":"4640803","prefecture":"愛知県","prefecture_kana":"アイチケン","city":"名古屋市千種区","city_kana":"ナゴヤシチクサク","town":"田代町瓶杁","town_kana":"タシロチョウカメイリ","prefecture_code":23},"0051":{"zip_code":"4640051","prefecture":"愛知県","prefecture_kana":"アイチケン","city":"名古屋市千種区","city_kana":"ナゴヤシチクサク","town":"田代町四観音道東","town_kana":"タシロチョウシカンノンミチヒガシ","prefecture_code":23},"0052":{"zip_code":"4640052","prefecture":"愛知県","prefecture_kana":"アイチケン","city":"名古屋市千種区","city_kana":"ナゴヤシチクサク","town":"田代町四観音道西","town_kana":"タシロチョウシカンノンミチニシ","prefecture_code":23},"0054":{"zip_code":"4640054","prefecture":"愛知県","prefecture_kana":"アイチケン","city":"名古屋市千種区","city_kana":"ナゴヤシチクサク","town":"田代町蝮ケ池上","town_kana":"タシロチョウマムシガイケガミ","prefecture_code":23},"0827":{"zip_code":"4640827","prefecture":"愛知県","prefecture_kana":"アイチケン","city":"名古屋市千種区","city_kana":"ナゴヤシチクサク","town":"田代本通","town_kana":"タシロホントオリ","prefecture_code":23},"0081":{"zip_code":"4640081","prefecture":"愛知県","prefecture_kana":"アイチケン","city":"名古屋市千種区","city_kana":"ナゴヤシチクサク","town":"谷口町","town_kana":"タニグチチョウ","prefecture_code":23},"0858":{"zip_code":"4640858","prefecture":"愛知県","prefecture_kana":"アイチケン","city":"名古屋市千種区","city_kana":"ナゴヤシチクサク","town":"千種","town_kana":"チクサ","prefecture_code":23},"0855":{"zip_code":"4640855","prefecture":"愛知県","prefecture_kana":"アイチケン","city":"名古屋市千種区","city_kana":"ナゴヤシチクサク","town":"千種通","town_kana":"チクサトオリ","prefecture_code":23},"0092":{"zip_code":"4640092","prefecture":"愛知県","prefecture_kana":"アイチケン","city":"名古屋市千種区","city_kana":"ナゴヤシチクサク","town":"茶屋が坂","town_kana":"チャヤガサカ","prefecture_code":23},"0093":{"zip_code":"4640093","prefecture":"愛知県","prefecture_kana":"アイチケン","city":"名古屋市千種区","city_kana":"ナゴヤシチクサク","town":"茶屋坂通","town_kana":"チャヤサカトオリ","prefecture_code":23},"0005":{"zip_code":"4640005","prefecture":"愛知県","prefecture_kana":"アイチケン","city":"名古屋市千種区","city_kana":"ナゴヤシチクサク","town":"千代が丘","town_kana":"チヨガオカ","prefecture_code":23},"0011":{"zip_code":"4640011","prefecture":"愛知県","prefecture_kana":"アイチケン","city":"名古屋市千種区","city_kana":"ナゴヤシチクサク","town":"千代田橋","town_kana":"チヨダバシ","prefecture_code":23},"0043":{"zip_code":"4640043","prefecture":"愛知県","prefecture_kana":"アイチケン","city":"名古屋市千種区","city_kana":"ナゴヤシチクサク","town":"月ケ丘","town_kana":"ツキガオカ","prefecture_code":23},"0056":{"zip_code":"4640056","prefecture":"愛知県","prefecture_kana":"アイチケン","city":"名古屋市千種区","city_kana":"ナゴヤシチクサク","town":"月見坂町","town_kana":"ツキミザカチョウ","prefecture_code":23},"0871":{"zip_code":"4640871","prefecture":"愛知県","prefecture_kana":"アイチケン","city":"名古屋市千種区","city_kana":"ナゴヤシチクサク","town":"天白町植田","town_kana":"テンパクチョウウエダ","prefecture_code":23},"0095":{"zip_code":"4640095","prefecture":"愛知県","prefecture_kana":"アイチケン","city":"名古屋市千種区","city_kana":"ナゴヤシチクサク","town":"天満通","town_kana":"テンマドオリ","prefecture_code":23},"0028":{"zip_code":"4640028","prefecture":"愛知県","prefecture_kana":"アイチケン","city":"名古屋市千種区","city_kana":"ナゴヤシチクサク","town":"東明町","town_kana":"トウメイチョウ","prefecture_code":23},"0031":{"zip_code":"4640031","prefecture":"愛知県","prefecture_kana":"アイチケン","city":"名古屋市千種区","city_kana":"ナゴヤシチクサク","town":"徳川山町","town_kana":"トクガワヤマチョウ","prefecture_code":23},"0074":{"zip_code":"4640074","prefecture":"愛知県","prefecture_kana":"アイチケン","city":"名古屋市千種区","city_kana":"ナゴヤシチクサク","town":"仲田","town_kana":"ナカタ","prefecture_code":23},"0017":{"zip_code":"4640017","prefecture":"愛知県","prefecture_kana":"アイチケン","city":"名古屋市千種区","city_kana":"ナゴヤシチクサク","town":"鍋屋上野町汁谷","town_kana":"ナベヤウエノチョウシルタニ","prefecture_code":23},"0097":{"zip_code":"4640097","prefecture":"愛知県","prefecture_kana":"アイチケン","city":"名古屋市千種区","city_kana":"ナゴヤシチクサク","town":"鍋屋上野町東脇","town_kana":"ナベヤウエノチョウヒガシワキ","prefecture_code":23},"0018":{"zip_code":"4640018","prefecture":"愛知県","prefecture_kana":"アイチケン","city":"名古屋市千種区","city_kana":"ナゴヤシチクサク","town":"鍋屋上野町北山","town_kana":"ナベヤウエノチョウキタヤマ","prefecture_code":23},"0845":{"zip_code":"4640845","prefecture":"愛知県","prefecture_kana":"アイチケン","city":"名古屋市千種区","city_kana":"ナゴヤシチクサク","town":"南明町","town_kana":"ナンメイチョウ","prefecture_code":23},"0813":{"zip_code":"4640813","prefecture":"愛知県","prefecture_kana":"アイチケン","city":"名古屋市千種区","city_kana":"ナゴヤシチクサク","town":"仁座町","town_kana":"ニザチョウ","prefecture_code":23},"0825":{"zip_code":"4640825","prefecture":"愛知県","prefecture_kana":"アイチケン","city":"名古屋市千種区","city_kana":"ナゴヤシチクサク","town":"西崎町","town_kana":"ニシサキチョウ","prefecture_code":23},"0063":{"zip_code":"4640063","prefecture":"愛知県","prefecture_kana":"アイチケン","city":"名古屋市千種区","city_kana":"ナゴヤシチクサク","town":"西山元町","town_kana":"ニシヤマモトマチ","prefecture_code":23},"0844":{"zip_code":"4640844","prefecture":"愛知県","prefecture_kana":"アイチケン","city":"名古屋市千種区","city_kana":"ナゴヤシチクサク","town":"日進通","town_kana":"ニッシントオリ","prefecture_code":23},"0032":{"zip_code":"4640032","prefecture":"愛知県","prefecture_kana":"アイチケン","city":"名古屋市千種区","city_kana":"ナゴヤシチクサク","town":"猫洞通","town_kana":"ネコガホラトオリ","prefecture_code":23},"0805":{"zip_code":"4640805","prefecture":"愛知県","prefecture_kana":"アイチケン","city":"名古屋市千種区","city_kana":"ナゴヤシチクサク","town":"萩岡町","town_kana":"ハギオカチョウ","prefecture_code":23},"0035":{"zip_code":"4640035","prefecture":"愛知県","prefecture_kana":"アイチケン","city":"名古屋市千種区","city_kana":"ナゴヤシチクサク","town":"橋本町","town_kana":"ハシモトチョウ","prefecture_code":23},"0857":{"zip_code":"4640857","prefecture":"愛知県","prefecture_kana":"アイチケン","city":"名古屋市千種区","city_kana":"ナゴヤシチクサク","town":"花田町","town_kana":"ハナダチョウ","prefecture_code":23},"0848":{"zip_code":"4640848","prefecture":"愛知県","prefecture_kana":"アイチケン","city":"名古屋市千種区","city_kana":"ナゴヤシチクサク","town":"春岡","town_kana":"ハルオカ","prefecture_code":23},"0847":{"zip_code":"4640847","prefecture":"愛知県","prefecture_kana":"アイチケン","city":"名古屋市千種区","city_kana":"ナゴヤシチクサク","town":"春岡通","town_kana":"ハルオカトオリ","prefecture_code":23},"0038":{"zip_code":"4640038","prefecture":"愛知県","prefecture_kana":"アイチケン","city":"名古屋市千種区","city_kana":"ナゴヤシチクサク","town":"春里町","town_kana":"ハルサトチョウ","prefecture_code":23},"0006":{"zip_code":"4640006","prefecture":"愛知県","prefecture_kana":"アイチケン","city":"名古屋市千種区","city_kana":"ナゴヤシチクサク","town":"光が丘","town_kana":"ヒカリガオカ","prefecture_code":23},"0001":{"zip_code":"4640001","prefecture":"愛知県","prefecture_kana":"アイチケン","city":"名古屋市千種区","city_kana":"ナゴヤシチクサク","town":"東千種台","town_kana":"ヒガシチクサダイ","prefecture_code":23},"0807":{"zip_code":"4640807","prefecture":"愛知県","prefecture_kana":"アイチケン","city":"名古屋市千種区","city_kana":"ナゴヤシチクサク","town":"東山通","town_kana":"ヒガシヤマトオリ","prefecture_code":23},"0804":{"zip_code":"4640804","prefecture":"愛知県","prefecture_kana":"アイチケン","city":"名古屋市千種区","city_kana":"ナゴヤシチクサク","town":"東山元町","town_kana":"ヒガシヤマモトマチ","prefecture_code":23},"0834":{"zip_code":"4640834","prefecture":"愛知県","prefecture_kana":"アイチケン","city":"名古屋市千種区","city_kana":"ナゴヤシチクサク","town":"日岡町","town_kana":"ヒノオカチョウ","prefecture_code":23},"0055":{"zip_code":"4640055","prefecture":"愛知県","prefecture_kana":"アイチケン","city":"名古屋市千種区","city_kana":"ナゴヤシチクサク","town":"姫池通","town_kana":"ヒメイケドオリ","prefecture_code":23},"0039":{"zip_code":"4640039","prefecture":"愛知県","prefecture_kana":"アイチケン","city":"名古屋市千種区","city_kana":"ナゴヤシチクサク","town":"日和町","town_kana":"ヒヨリチョウ","prefecture_code":23},"0856":{"zip_code":"4640856","prefecture":"愛知県","prefecture_kana":"アイチケン","city":"名古屋市千種区","city_kana":"ナゴヤシチクサク","town":"吹上","town_kana":"フキアゲ","prefecture_code":23},"0015":{"zip_code":"4640015","prefecture":"愛知県","prefecture_kana":"アイチケン","city":"名古屋市千種区","city_kana":"ナゴヤシチクサク","town":"富士見台","town_kana":"フジミダイ","prefecture_code":23},"0814":{"zip_code":"4640814","prefecture":"愛知県","prefecture_kana":"アイチケン","city":"名古屋市千種区","city_kana":"ナゴヤシチクサク","town":"不老町","town_kana":"フロウチョウ","prefecture_code":23},"0024":{"zip_code":"4640024","prefecture":"愛知県","prefecture_kana":"アイチケン","city":"名古屋市千種区","city_kana":"ナゴヤシチクサク","town":"平和が丘","town_kana":"ヘイワガオカ","prefecture_code":23},"0022":{"zip_code":"4640022","prefecture":"愛知県","prefecture_kana":"アイチケン","city":"名古屋市千種区","city_kana":"ナゴヤシチクサク","town":"平和公園","town_kana":"ヘイワコウエン","prefecture_code":23},"0057":{"zip_code":"4640057","prefecture":"愛知県","prefecture_kana":"アイチケン","city":"名古屋市千種区","city_kana":"ナゴヤシチクサク","town":"法王町","town_kana":"ホウオウチョウ","prefecture_code":23},"0076":{"zip_code":"4640076","prefecture":"愛知県","prefecture_kana":"アイチケン","city":"名古屋市千種区","city_kana":"ナゴヤシチクサク","town":"豊年町","town_kana":"ホウネンチョウ","prefecture_code":23},"0801":{"zip_code":"4640801","prefecture":"愛知県","prefecture_kana":"アイチケン","city":"名古屋市千種区","city_kana":"ナゴヤシチクサク","town":"星ケ丘","town_kana":"ホシガオカ","prefecture_code":23},"0802":{"zip_code":"4640802","prefecture":"愛知県","prefecture_kana":"アイチケン","city":"名古屋市千種区","city_kana":"ナゴヤシチクサク","town":"星が丘元町","town_kana":"ホシガオカモトマチ","prefecture_code":23},"0808":{"zip_code":"4640808","prefecture":"愛知県","prefecture_kana":"アイチケン","city":"名古屋市千種区","city_kana":"ナゴヤシチクサク","town":"星が丘山手","town_kana":"ホシガオカヤマテ","prefecture_code":23},"0822":{"zip_code":"4640822","prefecture":"愛知県","prefecture_kana":"アイチケン","city":"名古屋市千種区","city_kana":"ナゴヤシチクサク","town":"穂波町","town_kana":"ホナミチョウ","prefecture_code":23},"0065":{"zip_code":"4640065","prefecture":"愛知県","prefecture_kana":"アイチケン","city":"名古屋市千種区","city_kana":"ナゴヤシチクサク","town":"堀割町","town_kana":"ホリワリチョウ","prefecture_code":23},"0036":{"zip_code":"4640036","prefecture":"愛知県","prefecture_kana":"アイチケン","city":"名古屋市千種区","city_kana":"ナゴヤシチクサク","town":"本山町","town_kana":"ホンヤマチョウ","prefecture_code":23},"0843":{"zip_code":"4640843","prefecture":"愛知県","prefecture_kana":"アイチケン","city":"名古屋市千種区","city_kana":"ナゴヤシチクサク","town":"丸山町","town_kana":"マルヤマチョウ","prefecture_code":23},"0014":{"zip_code":"4640014","prefecture":"愛知県","prefecture_kana":"アイチケン","city":"名古屋市千種区","city_kana":"ナゴヤシチクサク","town":"御影町","town_kana":"ミカゲチョウ","prefecture_code":23},"0817":{"zip_code":"4640817","prefecture":"愛知県","prefecture_kana":"アイチケン","city":"名古屋市千種区","city_kana":"ナゴヤシチクサク","town":"見附町","town_kana":"ミツケチョウ","prefecture_code":23},"0042":{"zip_code":"4640042","prefecture":"愛知県","prefecture_kana":"アイチケン","city":"名古屋市千種区","city_kana":"ナゴヤシチクサク","town":"南ケ丘","town_kana":"ミナミガオカ","prefecture_code":23},"0008":{"zip_code":"4640008","prefecture":"愛知県","prefecture_kana":"アイチケン","city":"名古屋市千種区","city_kana":"ナゴヤシチクサク","town":"宮根台","town_kana":"ミヤネダイ","prefecture_code":23},"0091":{"zip_code":"4640091","prefecture":"愛知県","prefecture_kana":"アイチケン","city":"名古屋市千種区","city_kana":"ナゴヤシチクサク","town":"宮の腰町","town_kana":"ミヤノコシチョウ","prefecture_code":23},"0832":{"zip_code":"4640832","prefecture":"愛知県","prefecture_kana":"アイチケン","city":"名古屋市千種区","city_kana":"ナゴヤシチクサク","town":"山添町","town_kana":"ヤマゾエチョウ","prefecture_code":23},"0819":{"zip_code":"4640819","prefecture":"愛知県","prefecture_kana":"アイチケン","city":"名古屋市千種区","city_kana":"ナゴヤシチクサク","town":"四谷通","town_kana":"ヨツヤトオリ","prefecture_code":23},"0071":{"zip_code":"4640071","prefecture":"愛知県","prefecture_kana":"アイチケン","city":"名古屋市千種区","city_kana":"ナゴヤシチクサク","town":"若水","town_kana":"ワカミズ","prefecture_code":23}}