{"0000":{"zip_code":"4650000","prefecture":"愛知県","prefecture_kana":"アイチケン","city":"名古屋市名東区","city_kana":"ナゴヤシメイトウク","town":"","town_kana":"","prefecture_code":23},"0016":{"zip_code":"4650016","prefecture":"愛知県","prefecture_kana":"アイチケン","city":"名古屋市名東区","city_kana":"ナゴヤシメイトウク","town":"赤松台","town_kana":"アカマツダイ","prefecture_code":23},"0033":{"zip_code":"4650033","prefecture":"愛知県","prefecture_kana":"アイチケン","city":"名古屋市名東区","city_kana":"ナゴヤシメイトウク","town":"明が丘","town_kana":"アケガオカ","prefecture_code":23},"0041":{"zip_code":"4650041","prefecture":"愛知県","prefecture_kana":"アイチケン","city":"名古屋市名東区","city_kana":"ナゴヤシメイトウク","town":"朝日が丘","town_kana":"アサヒガオカ","prefecture_code":23},"0023":{"zip_code":"4650023","prefecture":"愛知県","prefecture_kana":"アイチケン","city":"名古屋市名東区","city_kana":"ナゴヤシメイトウク","town":"石が根町","town_kana":"イシガネチョウ","prefecture_code":23},"0001":{"zip_code":"4650001","prefecture":"愛知県","prefecture_kana":"アイチケン","city":"名古屋市名東区","city_kana":"ナゴヤシメイトウク","town":"猪高町猪子石原","town_kana":"イタカチョウイノコイシハラ","prefecture_code":23},"0052":{"zip_code":"4650052","prefecture":"愛知県","prefecture_kana":"アイチケン","city":"名古屋市名東区","city_kana":"ナゴヤシメイトウク","town":"猪高町上社","town_kana":"イタカチョウカミヤシロ","prefecture_code":23},"0067":{"zip_code":"4650067","prefecture":"愛知県","prefecture_kana":"アイチケン","city":"名古屋市名東区","city_kana":"ナゴヤシメイトウク","town":"猪高町高針","town_kana":"イタカチョウタカバリ","prefecture_code":23},"0028":{"zip_code":"4650028","prefecture":"愛知県","prefecture_kana":"アイチケン","city":"名古屋市名東区","city_kana":"ナゴヤシメイトウク","town":"猪高台","town_kana":"イダカダイ","prefecture_code":23},"0093":{"zip_code":"4650093","prefecture":"愛知県","prefecture_kana":"アイチケン","city":"名古屋市名東区","city_kana":"ナゴヤシメイトウク","town":"一社","town_kana":"イッシャ","prefecture_code":23},"0021":{"zip_code":"4650021","prefecture":"愛知県","prefecture_kana":"アイチケン","city":"名古屋市名東区","city_kana":"ナゴヤシメイトウク","town":"猪子石","town_kana":"イノコイシ","prefecture_code":23},"0008":{"zip_code":"4650008","prefecture":"愛知県","prefecture_kana":"アイチケン","city":"名古屋市名東区","city_kana":"ナゴヤシメイトウク","town":"猪子石原","town_kana":"イノコイシハラ","prefecture_code":23},"0077":{"zip_code":"4650077","prefecture":"愛知県","prefecture_kana":"アイチケン","city":"名古屋市名東区","city_kana":"ナゴヤシメイトウク","town":"植園町","town_kana":"ウエソノチョウ","prefecture_code":23},"0065":{"zip_code":"4650065","prefecture":"愛知県","prefecture_kana":"アイチケン","city":"名古屋市名東区","city_kana":"ナゴヤシメイトウク","town":"梅森坂","town_kana":"ウメモリザカ","prefecture_code":23},"0066":{"zip_code":"4650066","prefecture":"愛知県","prefecture_kana":"アイチケン","city":"名古屋市名東区","city_kana":"ナゴヤシメイトウク","town":"梅森坂西","town_kana":"ウメモリザカニシ","prefecture_code":23},"0003":{"zip_code":"4650003","prefecture":"愛知県","prefecture_kana":"アイチケン","city":"名古屋市名東区","city_kana":"ナゴヤシメイトウク","town":"延珠町","town_kana":"エンジュチョウ","prefecture_code":23},"0076":{"zip_code":"4650076","prefecture":"愛知県","prefecture_kana":"アイチケン","city":"名古屋市名東区","city_kana":"ナゴヤシメイトウク","town":"扇町","town_kana":"オウギマチ","prefecture_code":23},"0064":{"zip_code":"4650064","prefecture":"愛知県","prefecture_kana":"アイチケン","city":"名古屋市名東区","city_kana":"ナゴヤシメイトウク","town":"大針","town_kana":"オオバリ","prefecture_code":23},"0005":{"zip_code":"4650005","prefecture":"愛知県","prefecture_kana":"アイチケン","city":"名古屋市名東区","city_kana":"ナゴヤシメイトウク","town":"香流","town_kana":"カナレ","prefecture_code":23},"0083":{"zip_code":"4650083","prefecture":"愛知県","prefecture_kana":"アイチケン","city":"名古屋市名東区","city_kana":"ナゴヤシメイトウク","town":"神丘町","town_kana":"カミオカチョウ","prefecture_code":23},"0082":{"zip_code":"4650082","prefecture":"愛知県","prefecture_kana":"アイチケン","city":"名古屋市名東区","city_kana":"ナゴヤシメイトウク","town":"神里","town_kana":"カミサト","prefecture_code":23},"0014":{"zip_code":"4650014","prefecture":"愛知県","prefecture_kana":"アイチケン","city":"名古屋市名東区","city_kana":"ナゴヤシメイトウク","town":"上菅","town_kana":"カミスゲ","prefecture_code":23},"0025":{"zip_code":"4650025","prefecture":"愛知県","prefecture_kana":"アイチケン","city":"名古屋市名東区","city_kana":"ナゴヤシメイトウク","town":"上社","town_kana":"カミヤシロ","prefecture_code":23},"0094":{"zip_code":"4650094","prefecture":"愛知県","prefecture_kana":"アイチケン","city":"名古屋市名東区","city_kana":"ナゴヤシメイトウク","town":"亀の井","town_kana":"カメノイ","prefecture_code":23},"0058":{"zip_code":"4650058","prefecture":"愛知県","prefecture_kana":"アイチケン","city":"名古屋市名東区","city_kana":"ナゴヤシメイトウク","town":"貴船","town_kana":"キフネ","prefecture_code":23},"0047":{"zip_code":"4650047","prefecture":"愛知県","prefecture_kana":"アイチケン","city":"名古屋市名東区","city_kana":"ナゴヤシメイトウク","town":"小池町","town_kana":"コイケチョウ","prefecture_code":23},"0044":{"zip_code":"4650044","prefecture":"愛知県","prefecture_kana":"アイチケン","city":"名古屋市名東区","city_kana":"ナゴヤシメイトウク","town":"小井堀町","town_kana":"コイボリチョウ","prefecture_code":23},"0007":{"zip_code":"4650007","prefecture":"愛知県","prefecture_kana":"アイチケン","city":"名古屋市名東区","city_kana":"ナゴヤシメイトウク","town":"香坂","town_kana":"コウサカ","prefecture_code":23},"0004":{"zip_code":"4650004","prefecture":"愛知県","prefecture_kana":"アイチケン","city":"名古屋市名東区","city_kana":"ナゴヤシメイトウク","town":"香南","town_kana":"コウナン","prefecture_code":23},"0053":{"zip_code":"4650053","prefecture":"愛知県","prefecture_kana":"アイチケン","city":"名古屋市名東区","city_kana":"ナゴヤシメイトウク","town":"極楽","town_kana":"ゴクラク","prefecture_code":23},"0096":{"zip_code":"4650096","prefecture":"愛知県","prefecture_kana":"アイチケン","city":"名古屋市名東区","city_kana":"ナゴヤシメイトウク","town":"桜が丘","town_kana":"サクラガオカ","prefecture_code":23},"0074":{"zip_code":"4650074","prefecture":"愛知県","prefecture_kana":"アイチケン","city":"名古屋市名東区","city_kana":"ナゴヤシメイトウク","town":"山香町","town_kana":"サンコウチョウ","prefecture_code":23},"0006":{"zip_code":"4650006","prefecture":"愛知県","prefecture_kana":"アイチケン","city":"名古屋市名東区","city_kana":"ナゴヤシメイトウク","town":"神月町","town_kana":"シンゲツチョウ","prefecture_code":23},"0063":{"zip_code":"4650063","prefecture":"愛知県","prefecture_kana":"アイチケン","city":"名古屋市名東区","city_kana":"ナゴヤシメイトウク","town":"新宿","town_kana":"シンジュク","prefecture_code":23},"0055":{"zip_code":"4650055","prefecture":"愛知県","prefecture_kana":"アイチケン","city":"名古屋市名東区","city_kana":"ナゴヤシメイトウク","town":"勢子坊","town_kana":"セコボウ","prefecture_code":23},"0086":{"zip_code":"4650086","prefecture":"愛知県","prefecture_kana":"アイチケン","city":"名古屋市名東区","city_kana":"ナゴヤシメイトウク","town":"代万町","town_kana":"ダイマンチョウ","prefecture_code":23},"0061":{"zip_code":"4650061","prefecture":"愛知県","prefecture_kana":"アイチケン","city":"名古屋市名東区","city_kana":"ナゴヤシメイトウク","town":"高針","town_kana":"タカバリ","prefecture_code":23},"0069":{"zip_code":"4650069","prefecture":"愛知県","prefecture_kana":"アイチケン","city":"名古屋市名東区","city_kana":"ナゴヤシメイトウク","town":"高針荒田","town_kana":"タカバリアラタ","prefecture_code":23},"0054":{"zip_code":"4650054","prefecture":"愛知県","prefecture_kana":"アイチケン","city":"名古屋市名東区","city_kana":"ナゴヤシメイトウク","town":"高針台","town_kana":"タカバリダイ","prefecture_code":23},"0073":{"zip_code":"4650073","prefecture":"愛知県","prefecture_kana":"アイチケン","city":"名古屋市名東区","city_kana":"ナゴヤシメイトウク","town":"高針原","town_kana":"タカバリハラ","prefecture_code":23},"0081":{"zip_code":"4650081","prefecture":"愛知県","prefecture_kana":"アイチケン","city":"名古屋市名東区","city_kana":"ナゴヤシメイトウク","town":"高間町","town_kana":"タカマチョウ","prefecture_code":23},"0095":{"zip_code":"4650095","prefecture":"愛知県","prefecture_kana":"アイチケン","city":"名古屋市名東区","city_kana":"ナゴヤシメイトウク","town":"高社","town_kana":"タカヤシロ","prefecture_code":23},"0034":{"zip_code":"4650034","prefecture":"愛知県","prefecture_kana":"アイチケン","city":"名古屋市名東区","city_kana":"ナゴヤシメイトウク","town":"高柳町","town_kana":"タカヤナギチョウ","prefecture_code":23},"0043":{"zip_code":"4650043","prefecture":"愛知県","prefecture_kana":"アイチケン","city":"名古屋市名東区","city_kana":"ナゴヤシメイトウク","town":"宝が丘","town_kana":"タカラガオカ","prefecture_code":23},"0027":{"zip_code":"4650027","prefecture":"愛知県","prefecture_kana":"アイチケン","city":"名古屋市名東区","city_kana":"ナゴヤシメイトウク","town":"丁田町","town_kana":"チョウダチョウ","prefecture_code":23},"0017":{"zip_code":"4650017","prefecture":"愛知県","prefecture_kana":"アイチケン","city":"名古屋市名東区","city_kana":"ナゴヤシメイトウク","town":"つつじが丘","town_kana":"ツツジガオカ","prefecture_code":23},"0042":{"zip_code":"4650042","prefecture":"愛知県","prefecture_kana":"アイチケン","city":"名古屋市名東区","city_kana":"ナゴヤシメイトウク","town":"照が丘","town_kana":"テルガオカ","prefecture_code":23},"0009":{"zip_code":"4650009","prefecture":"愛知県","prefecture_kana":"アイチケン","city":"名古屋市名東区","city_kana":"ナゴヤシメイトウク","town":"天神下","town_kana":"テンジンシタ","prefecture_code":23},"0031":{"zip_code":"4650031","prefecture":"愛知県","prefecture_kana":"アイチケン","city":"名古屋市名東区","city_kana":"ナゴヤシメイトウク","town":"富が丘","town_kana":"トミガオカ","prefecture_code":23},"0084":{"zip_code":"4650084","prefecture":"愛知県","prefecture_kana":"アイチケン","city":"名古屋市名東区","city_kana":"ナゴヤシメイトウク","town":"西里町","town_kana":"ニシサトチョウ","prefecture_code":23},"0071":{"zip_code":"4650071","prefecture":"愛知県","prefecture_kana":"アイチケン","city":"名古屋市名東区","city_kana":"ナゴヤシメイトウク","town":"西山台","town_kana":"ニシヤマダイ","prefecture_code":23},"0085":{"zip_code":"4650085","prefecture":"愛知県","prefecture_kana":"アイチケン","city":"名古屋市名東区","city_kana":"ナゴヤシメイトウク","town":"西山本通","town_kana":"ニシヤマホントオリ","prefecture_code":23},"0078":{"zip_code":"4650078","prefecture":"愛知県","prefecture_kana":"アイチケン","city":"名古屋市名東区","city_kana":"ナゴヤシメイトウク","town":"にじが丘","town_kana":"ニジガオカ","prefecture_code":23},"0046":{"zip_code":"4650046","prefecture":"愛知県","prefecture_kana":"アイチケン","city":"名古屋市名東区","city_kana":"ナゴヤシメイトウク","town":"望が丘","town_kana":"ノゾミガオカ","prefecture_code":23},"0056":{"zip_code":"4650056","prefecture":"愛知県","prefecture_kana":"アイチケン","city":"名古屋市名東区","city_kana":"ナゴヤシメイトウク","town":"野間町","town_kana":"ノマチョウ","prefecture_code":23},"0018":{"zip_code":"4650018","prefecture":"愛知県","prefecture_kana":"アイチケン","city":"名古屋市名東区","city_kana":"ナゴヤシメイトウク","town":"八前","town_kana":"ハチマエ","prefecture_code":23},"0002":{"zip_code":"4650002","prefecture":"愛知県","prefecture_kana":"アイチケン","city":"名古屋市名東区","city_kana":"ナゴヤシメイトウク","town":"引山","town_kana":"ヒキヤマ","prefecture_code":23},"0045":{"zip_code":"4650045","prefecture":"愛知県","prefecture_kana":"アイチケン","city":"名古屋市名東区","city_kana":"ナゴヤシメイトウク","town":"姫若町","town_kana":"ヒメワカチョウ","prefecture_code":23},"0037":{"zip_code":"4650037","prefecture":"愛知県","prefecture_kana":"アイチケン","city":"名古屋市名東区","city_kana":"ナゴヤシメイトウク","town":"藤香町","town_kana":"フジカチョウ","prefecture_code":23},"0032":{"zip_code":"4650032","prefecture":"愛知県","prefecture_kana":"アイチケン","city":"名古屋市名東区","city_kana":"ナゴヤシメイトウク","town":"藤が丘","town_kana":"フジガオカ","prefecture_code":23},"0036":{"zip_code":"4650036","prefecture":"愛知県","prefecture_kana":"アイチケン","city":"名古屋市名東区","city_kana":"ナゴヤシメイトウク","town":"藤里町","town_kana":"フジサトチョウ","prefecture_code":23},"0075":{"zip_code":"4650075","prefecture":"愛知県","prefecture_kana":"アイチケン","city":"名古屋市名東区","city_kana":"ナゴヤシメイトウク","town":"藤巻町","town_kana":"フジマキチョウ","prefecture_code":23},"0048":{"zip_code":"4650048","prefecture":"愛知県","prefecture_kana":"アイチケン","city":"名古屋市名東区","city_kana":"ナゴヤシメイトウク","town":"藤見が丘","town_kana":"フジミガオカ","prefecture_code":23},"0026":{"zip_code":"4650026","prefecture":"愛知県","prefecture_kana":"アイチケン","city":"名古屋市名東区","city_kana":"ナゴヤシメイトウク","town":"藤森","town_kana":"フジモリ","prefecture_code":23},"0022":{"zip_code":"4650022","prefecture":"愛知県","prefecture_kana":"アイチケン","city":"名古屋市名東区","city_kana":"ナゴヤシメイトウク","town":"藤森西町","town_kana":"フジモリニシマチ","prefecture_code":23},"0012":{"zip_code":"4650012","prefecture":"愛知県","prefecture_kana":"アイチケン","city":"名古屋市名東区","city_kana":"ナゴヤシメイトウク","town":"文教台","town_kana":"ブンキョウダイ","prefecture_code":23},"0097":{"zip_code":"4650097","prefecture":"愛知県","prefecture_kana":"アイチケン","city":"名古屋市名東区","city_kana":"ナゴヤシメイトウク","town":"平和が丘","town_kana":"ヘイワガオカ","prefecture_code":23},"0024":{"zip_code":"4650024","prefecture":"愛知県","prefecture_kana":"アイチケン","city":"名古屋市名東区","city_kana":"ナゴヤシメイトウク","town":"本郷","town_kana":"ホンゴウ","prefecture_code":23},"0068":{"zip_code":"4650068","prefecture":"愛知県","prefecture_kana":"アイチケン","city":"名古屋市名東区","city_kana":"ナゴヤシメイトウク","town":"牧の里","town_kana":"マキノサト","prefecture_code":23},"0072":{"zip_code":"4650072","prefecture":"愛知県","prefecture_kana":"アイチケン","city":"名古屋市名東区","city_kana":"ナゴヤシメイトウク","town":"牧の原","town_kana":"マキノハラ","prefecture_code":23},"0062":{"zip_code":"4650062","prefecture":"愛知県","prefecture_kana":"アイチケン","city":"名古屋市名東区","city_kana":"ナゴヤシメイトウク","town":"松井町","town_kana":"マツイチョウ","prefecture_code":23},"0087":{"zip_code":"4650087","prefecture":"愛知県","prefecture_kana":"アイチケン","city":"名古屋市名東区","city_kana":"ナゴヤシメイトウク","town":"名東本通","town_kana":"メイトウホンドオリ","prefecture_code":23},"0088":{"zip_code":"4650088","prefecture":"愛知県","prefecture_kana":"アイチケン","city":"名古屋市名東区","city_kana":"ナゴヤシメイトウク","town":"名東本町","town_kana":"メイトウホンマチ","prefecture_code":23},"0051":{"zip_code":"4650051","prefecture":"愛知県","prefecture_kana":"アイチケン","city":"名古屋市名東区","city_kana":"ナゴヤシメイトウク","town":"社が丘","town_kana":"ヤシロガオカ","prefecture_code":23},"0013":{"zip_code":"4650013","prefecture":"愛知県","prefecture_kana":"アイチケン","city":"名古屋市名東区","city_kana":"ナゴヤシメイトウク","town":"社口","town_kana":"ヤシログチ","prefecture_code":23},"0092":{"zip_code":"4650092","prefecture":"愛知県","prefecture_kana":"アイチケン","city":"名古屋市名東区","city_kana":"ナゴヤシメイトウク","town":"社台","town_kana":"ヤシロダイ","prefecture_code":23},"0011":{"zip_code":"4650011","prefecture":"愛知県","prefecture_kana":"アイチケン","city":"名古屋市名東区","city_kana":"ナゴヤシメイトウク","town":"山の手","town_kana":"ヤマノテ","prefecture_code":23},"0035":{"zip_code":"4650035","prefecture":"愛知県","prefecture_kana":"アイチケン","city":"名古屋市名東区","city_kana":"ナゴヤシメイトウク","town":"豊が丘","town_kana":"ユタカガオカ","prefecture_code":23},"0091":{"zip_code":"4650091","prefecture":"愛知県","prefecture_kana":"アイチケン","city":"名古屋市名東区","city_kana":"ナゴヤシメイトウク","town":"よもぎ台","town_kana":"ヨモギダイ","prefecture_code":23},"0057":{"zip_code":"4650057","prefecture":"愛知県","prefecture_kana":"アイチケン","city":"名古屋市名東区","city_kana":"ナゴヤシメイトウク","town":"陸前町","town_kana":"リクマエチョウ","prefecture_code":23},"0015":{"zip_code":"4650015","prefecture":"愛知県","prefecture_kana":"アイチケン","city":"名古屋市名東区","city_kana":"ナゴヤシメイトウク","town":"若葉台","town_kana":"ワカバダイ","prefecture_code":23}}