{"0000":{"zip_code":"4660000","prefecture":"愛知県","prefecture_kana":"アイチケン","city":"名古屋市昭和区","city_kana":"ナゴヤシショウワク","town":"","town_kana":"","prefecture_code":23},"0003":{"zip_code":"4660003","prefecture":"愛知県","prefecture_kana":"アイチケン","city":"名古屋市昭和区","city_kana":"ナゴヤシショウワク","town":"曙町","town_kana":"アケボノチョウ","prefecture_code":23},"0027":{"zip_code":"4660027","prefecture":"愛知県","prefecture_kana":"アイチケン","city":"名古屋市昭和区","city_kana":"ナゴヤシショウワク","town":"阿由知通","town_kana":"アユチトオリ","prefecture_code":23},"0844":{"zip_code":"4660844","prefecture":"愛知県","prefecture_kana":"アイチケン","city":"名古屋市昭和区","city_kana":"ナゴヤシショウワク","town":"荒田町","town_kana":"アラタチョウ","prefecture_code":23},"0805":{"zip_code":"4660805","prefecture":"愛知県","prefecture_kana":"アイチケン","city":"名古屋市昭和区","city_kana":"ナゴヤシショウワク","town":"伊勝町","town_kana":"イカツチョウ","prefecture_code":23},"0043":{"zip_code":"4660043","prefecture":"愛知県","prefecture_kana":"アイチケン","city":"名古屋市昭和区","city_kana":"ナゴヤシショウワク","town":"池端町","town_kana":"イケバタチョウ","prefecture_code":23},"0023":{"zip_code":"4660023","prefecture":"愛知県","prefecture_kana":"アイチケン","city":"名古屋市昭和区","city_kana":"ナゴヤシショウワク","town":"石仏町","town_kana":"イシボトケチョウ","prefecture_code":23},"0047":{"zip_code":"4660047","prefecture":"愛知県","prefecture_kana":"アイチケン","city":"名古屋市昭和区","city_kana":"ナゴヤシショウワク","town":"永金町","town_kana":"エイキンチョウ","prefecture_code":23},"0037":{"zip_code":"4660037","prefecture":"愛知県","prefecture_kana":"アイチケン","city":"名古屋市昭和区","city_kana":"ナゴヤシショウワク","town":"恵方町","town_kana":"エホウチョウ","prefecture_code":23},"0054":{"zip_code":"4660054","prefecture":"愛知県","prefecture_kana":"アイチケン","city":"名古屋市昭和区","city_kana":"ナゴヤシショウワク","town":"円上町","town_kana":"エンジョウチョウ","prefecture_code":23},"0858":{"zip_code":"4660858","prefecture":"愛知県","prefecture_kana":"アイチケン","city":"名古屋市昭和区","city_kana":"ナゴヤシショウワク","town":"折戸町","town_kana":"オリドチョウ","prefecture_code":23},"0802":{"zip_code":"4660802","prefecture":"愛知県","prefecture_kana":"アイチケン","city":"名古屋市昭和区","city_kana":"ナゴヤシショウワク","town":"神村町","town_kana":"カミムラチョウ","prefecture_code":23},"0836":{"zip_code":"4660836","prefecture":"愛知県","prefecture_kana":"アイチケン","city":"名古屋市昭和区","city_kana":"ナゴヤシショウワク","town":"上山町","town_kana":"カミヤマチョウ","prefecture_code":23},"0856":{"zip_code":"4660856","prefecture":"愛知県","prefecture_kana":"アイチケン","city":"名古屋市昭和区","city_kana":"ナゴヤシショウワク","town":"川名町","town_kana":"カワナチョウ","prefecture_code":23},"0855":{"zip_code":"4660855","prefecture":"愛知県","prefecture_kana":"アイチケン","city":"名古屋市昭和区","city_kana":"ナゴヤシショウワク","town":"川名本町","town_kana":"カワナホンマチ","prefecture_code":23},"0827":{"zip_code":"4660827","prefecture":"愛知県","prefecture_kana":"アイチケン","city":"名古屋市昭和区","city_kana":"ナゴヤシショウワク","town":"川名山町","town_kana":"カワナヤマチョウ","prefecture_code":23},"0853":{"zip_code":"4660853","prefecture":"愛知県","prefecture_kana":"アイチケン","city":"名古屋市昭和区","city_kana":"ナゴヤシショウワク","town":"川原通","town_kana":"カワハラトオリ","prefecture_code":23},"0843":{"zip_code":"4660843","prefecture":"愛知県","prefecture_kana":"アイチケン","city":"名古屋市昭和区","city_kana":"ナゴヤシショウワク","town":"菊園町","town_kana":"キクゾノチョウ","prefecture_code":23},"0006":{"zip_code":"4660006","prefecture":"愛知県","prefecture_kana":"アイチケン","city":"名古屋市昭和区","city_kana":"ナゴヤシショウワク","town":"北山町","town_kana":"キタヤマチョウ","prefecture_code":23},"0016":{"zip_code":"4660016","prefecture":"愛知県","prefecture_kana":"アイチケン","city":"名古屋市昭和区","city_kana":"ナゴヤシショウワク","town":"北山本町","town_kana":"キタヤマホンマチ","prefecture_code":23},"0001":{"zip_code":"4660001","prefecture":"愛知県","prefecture_kana":"アイチケン","city":"名古屋市昭和区","city_kana":"ナゴヤシショウワク","town":"車田町","town_kana":"クルマダチョウ","prefecture_code":23},"0031":{"zip_code":"4660031","prefecture":"愛知県","prefecture_kana":"アイチケン","city":"名古屋市昭和区","city_kana":"ナゴヤシショウワク","town":"紅梅町","town_kana":"コウバイチョウ","prefecture_code":23},"0051":{"zip_code":"4660051","prefecture":"愛知県","prefecture_kana":"アイチケン","city":"名古屋市昭和区","city_kana":"ナゴヤシショウワク","town":"御器所","town_kana":"ゴキソ","prefecture_code":23},"0061":{"zip_code":"4660061","prefecture":"愛知県","prefecture_kana":"アイチケン","city":"名古屋市昭和区","city_kana":"ナゴヤシショウワク","town":"御器所町","town_kana":"ゴキソチョウ","prefecture_code":23},"0015":{"zip_code":"4660015","prefecture":"愛知県","prefecture_kana":"アイチケン","city":"名古屋市昭和区","city_kana":"ナゴヤシショウワク","town":"御器所通","town_kana":"ゴキソトオリ","prefecture_code":23},"0838":{"zip_code":"4660838","prefecture":"愛知県","prefecture_kana":"アイチケン","city":"名古屋市昭和区","city_kana":"ナゴヤシショウワク","town":"五軒家町","town_kana":"ゴケンヤチョウ","prefecture_code":23},"0021":{"zip_code":"4660021","prefecture":"愛知県","prefecture_kana":"アイチケン","city":"名古屋市昭和区","city_kana":"ナゴヤシショウワク","town":"小坂町","town_kana":"コサカチョウ","prefecture_code":23},"0012":{"zip_code":"4660012","prefecture":"愛知県","prefecture_kana":"アイチケン","city":"名古屋市昭和区","city_kana":"ナゴヤシショウワク","town":"小桜町","town_kana":"コサクラチョウ","prefecture_code":23},"0832":{"zip_code":"4660832","prefecture":"愛知県","prefecture_kana":"アイチケン","city":"名古屋市昭和区","city_kana":"ナゴヤシショウワク","town":"駒方町","town_kana":"コマガタチョウ","prefecture_code":23},"0044":{"zip_code":"4660044","prefecture":"愛知県","prefecture_kana":"アイチケン","city":"名古屋市昭和区","city_kana":"ナゴヤシショウワク","town":"桜山町","town_kana":"サクラヤマチョウ","prefecture_code":23},"0022":{"zip_code":"4660022","prefecture":"愛知県","prefecture_kana":"アイチケン","city":"名古屋市昭和区","city_kana":"ナゴヤシショウワク","town":"塩付通","town_kana":"シオツケトオリ","prefecture_code":23},"0837":{"zip_code":"4660837","prefecture":"愛知県","prefecture_kana":"アイチケン","city":"名古屋市昭和区","city_kana":"ナゴヤシショウワク","town":"汐見町","town_kana":"シオミチョウ","prefecture_code":23},"0025":{"zip_code":"4660025","prefecture":"愛知県","prefecture_kana":"アイチケン","city":"名古屋市昭和区","city_kana":"ナゴヤシショウワク","town":"下構町","town_kana":"シモガマエチョウ","prefecture_code":23},"0058":{"zip_code":"4660058","prefecture":"愛知県","prefecture_kana":"アイチケン","city":"名古屋市昭和区","city_kana":"ナゴヤシショウワク","town":"白金","town_kana":"シラカネ","prefecture_code":23},"0033":{"zip_code":"4660033","prefecture":"愛知県","prefecture_kana":"アイチケン","city":"名古屋市昭和区","city_kana":"ナゴヤシショウワク","town":"台町","town_kana":"ダイマチ","prefecture_code":23},"0801":{"zip_code":"4660801","prefecture":"愛知県","prefecture_kana":"アイチケン","city":"名古屋市昭和区","city_kana":"ナゴヤシショウワク","town":"田面町","town_kana":"タオモチョウ","prefecture_code":23},"0057":{"zip_code":"4660057","prefecture":"愛知県","prefecture_kana":"アイチケン","city":"名古屋市昭和区","city_kana":"ナゴヤシショウワク","town":"高辻町","town_kana":"タカツジチョウ","prefecture_code":23},"0811":{"zip_code":"4660811","prefecture":"愛知県","prefecture_kana":"アイチケン","city":"名古屋市昭和区","city_kana":"ナゴヤシショウワク","town":"高峯町","town_kana":"タカミネチョウ","prefecture_code":23},"0826":{"zip_code":"4660826","prefecture":"愛知県","prefecture_kana":"アイチケン","city":"名古屋市昭和区","city_kana":"ナゴヤシショウワク","town":"滝川町","town_kana":"タキカワチョウ","prefecture_code":23},"0053":{"zip_code":"4660053","prefecture":"愛知県","prefecture_kana":"アイチケン","city":"名古屋市昭和区","city_kana":"ナゴヤシショウワク","town":"滝子町","town_kana":"タキコチョウ","prefecture_code":23},"0055":{"zip_code":"4660055","prefecture":"愛知県","prefecture_kana":"アイチケン","city":"名古屋市昭和区","city_kana":"ナゴヤシショウワク","town":"滝子通","town_kana":"タキゴトオリ","prefecture_code":23},"0842":{"zip_code":"4660842","prefecture":"愛知県","prefecture_kana":"アイチケン","city":"名古屋市昭和区","city_kana":"ナゴヤシショウワク","town":"檀溪通","town_kana":"ダンケイトオリ","prefecture_code":23},"0011":{"zip_code":"4660011","prefecture":"愛知県","prefecture_kana":"アイチケン","city":"名古屋市昭和区","city_kana":"ナゴヤシショウワク","town":"鶴羽町","town_kana":"ツルハチョウ","prefecture_code":23},"0064":{"zip_code":"4660064","prefecture":"愛知県","prefecture_kana":"アイチケン","city":"名古屋市昭和区","city_kana":"ナゴヤシショウワク","town":"鶴舞","town_kana":"ツルマイ","prefecture_code":23},"0065":{"zip_code":"4660065","prefecture":"愛知県","prefecture_kana":"アイチケン","city":"名古屋市昭和区","city_kana":"ナゴヤシショウワク","town":"鶴舞町","town_kana":"ツルマイチョウ","prefecture_code":23},"0041":{"zip_code":"4660041","prefecture":"愛知県","prefecture_kana":"アイチケン","city":"名古屋市昭和区","city_kana":"ナゴヤシショウワク","town":"出口町","town_kana":"デグチチョウ","prefecture_code":23},"0032":{"zip_code":"4660032","prefecture":"愛知県","prefecture_kana":"アイチケン","city":"名古屋市昭和区","city_kana":"ナゴヤシショウワク","town":"天神町","town_kana":"テンジンチョウ","prefecture_code":23},"0056":{"zip_code":"4660056","prefecture":"愛知県","prefecture_kana":"アイチケン","city":"名古屋市昭和区","city_kana":"ナゴヤシショウワク","town":"東郊通","town_kana":"トウコウトオリ","prefecture_code":23},"0026":{"zip_code":"4660026","prefecture":"愛知県","prefecture_kana":"アイチケン","city":"名古屋市昭和区","city_kana":"ナゴヤシショウワク","town":"陶生町","town_kana":"トウセイチョウ","prefecture_code":23},"0014":{"zip_code":"4660014","prefecture":"愛知県","prefecture_kana":"アイチケン","city":"名古屋市昭和区","city_kana":"ナゴヤシショウワク","town":"東畑町","town_kana":"トウハタチョウ","prefecture_code":23},"0846":{"zip_code":"4660846","prefecture":"愛知県","prefecture_kana":"アイチケン","city":"名古屋市昭和区","city_kana":"ナゴヤシショウワク","town":"戸田町","town_kana":"トダチョウ","prefecture_code":23},"0847":{"zip_code":"4660847","prefecture":"愛知県","prefecture_kana":"アイチケン","city":"名古屋市昭和区","city_kana":"ナゴヤシショウワク","town":"長池町","town_kana":"ナガイケチョウ","prefecture_code":23},"0848":{"zip_code":"4660848","prefecture":"愛知県","prefecture_kana":"アイチケン","city":"名古屋市昭和区","city_kana":"ナゴヤシショウワク","town":"長戸町","town_kana":"ナガトチョウ","prefecture_code":23},"0806":{"zip_code":"4660806","prefecture":"愛知県","prefecture_kana":"アイチケン","city":"名古屋市昭和区","city_kana":"ナゴヤシショウワク","town":"西畑町","town_kana":"ニシバタチョウ","prefecture_code":23},"0852":{"zip_code":"4660852","prefecture":"愛知県","prefecture_kana":"アイチケン","city":"名古屋市昭和区","city_kana":"ナゴヤシショウワク","town":"萩原町","town_kana":"ハギワラチョウ","prefecture_code":23},"0062":{"zip_code":"4660062","prefecture":"愛知県","prefecture_kana":"アイチケン","city":"名古屋市昭和区","city_kana":"ナゴヤシショウワク","town":"狭間町","town_kana":"ハザマチョウ","prefecture_code":23},"0831":{"zip_code":"4660831","prefecture":"愛知県","prefecture_kana":"アイチケン","city":"名古屋市昭和区","city_kana":"ナゴヤシショウワク","town":"花見通","town_kana":"ハナミトオリ","prefecture_code":23},"0833":{"zip_code":"4660833","prefecture":"愛知県","prefecture_kana":"アイチケン","city":"名古屋市昭和区","city_kana":"ナゴヤシショウワク","town":"隼人町","town_kana":"ハヤトチョウ","prefecture_code":23},"0042":{"zip_code":"4660042","prefecture":"愛知県","prefecture_kana":"アイチケン","city":"名古屋市昭和区","city_kana":"ナゴヤシショウワク","town":"広池町","town_kana":"ヒロイケチョウ","prefecture_code":23},"0834":{"zip_code":"4660834","prefecture":"愛知県","prefecture_kana":"アイチケン","city":"名古屋市昭和区","city_kana":"ナゴヤシショウワク","town":"広路町","town_kana":"ヒロジチョウ","prefecture_code":23},"0854":{"zip_code":"4660854","prefecture":"愛知県","prefecture_kana":"アイチケン","city":"名古屋市昭和区","city_kana":"ナゴヤシショウワク","town":"広路通","town_kana":"ヒロジトオリ","prefecture_code":23},"0841":{"zip_code":"4660841","prefecture":"愛知県","prefecture_kana":"アイチケン","city":"名古屋市昭和区","city_kana":"ナゴヤシショウワク","town":"広路本町","town_kana":"ヒロジホンマチ","prefecture_code":23},"0004":{"zip_code":"4660004","prefecture":"愛知県","prefecture_kana":"アイチケン","city":"名古屋市昭和区","city_kana":"ナゴヤシショウワク","town":"広瀬町","town_kana":"ヒロセチョウ","prefecture_code":23},"0046":{"zip_code":"4660046","prefecture":"愛知県","prefecture_kana":"アイチケン","city":"名古屋市昭和区","city_kana":"ナゴヤシショウワク","town":"広見町","town_kana":"ヒロミチョウ","prefecture_code":23},"0002":{"zip_code":"4660002","prefecture":"愛知県","prefecture_kana":"アイチケン","city":"名古屋市昭和区","city_kana":"ナゴヤシショウワク","town":"吹上町","town_kana":"フキアゲチョウ","prefecture_code":23},"0059":{"zip_code":"4660059","prefecture":"愛知県","prefecture_kana":"アイチケン","city":"名古屋市昭和区","city_kana":"ナゴヤシショウワク","town":"福江","town_kana":"フクエ","prefecture_code":23},"0803":{"zip_code":"4660803","prefecture":"愛知県","prefecture_kana":"アイチケン","city":"名古屋市昭和区","city_kana":"ナゴヤシショウワク","town":"福原町","town_kana":"フクハラチョウ","prefecture_code":23},"0845":{"zip_code":"4660845","prefecture":"愛知県","prefecture_kana":"アイチケン","city":"名古屋市昭和区","city_kana":"ナゴヤシショウワク","town":"藤成通","town_kana":"フジナリトオリ","prefecture_code":23},"0821":{"zip_code":"4660821","prefecture":"愛知県","prefecture_kana":"アイチケン","city":"名古屋市昭和区","city_kana":"ナゴヤシショウワク","town":"前山町","town_kana":"マエヤマチョウ","prefecture_code":23},"0035":{"zip_code":"4660035","prefecture":"愛知県","prefecture_kana":"アイチケン","city":"名古屋市昭和区","city_kana":"ナゴヤシショウワク","town":"松風町","town_kana":"マツカゼチョウ","prefecture_code":23},"0045":{"zip_code":"4660045","prefecture":"愛知県","prefecture_kana":"アイチケン","city":"名古屋市昭和区","city_kana":"ナゴヤシショウワク","town":"丸屋町","town_kana":"マルヤチョウ","prefecture_code":23},"0013":{"zip_code":"4660013","prefecture":"愛知県","prefecture_kana":"アイチケン","city":"名古屋市昭和区","city_kana":"ナゴヤシショウワク","town":"緑町","town_kana":"ミドリチョウ","prefecture_code":23},"0835":{"zip_code":"4660835","prefecture":"愛知県","prefecture_kana":"アイチケン","city":"名古屋市昭和区","city_kana":"ナゴヤシショウワク","town":"南山町","town_kana":"ミナミヤマチョウ","prefecture_code":23},"0849":{"zip_code":"4660849","prefecture":"愛知県","prefecture_kana":"アイチケン","city":"名古屋市昭和区","city_kana":"ナゴヤシショウワク","town":"南分町","town_kana":"ミナミワケチョウ","prefecture_code":23},"0804":{"zip_code":"4660804","prefecture":"愛知県","prefecture_kana":"アイチケン","city":"名古屋市昭和区","city_kana":"ナゴヤシショウワク","town":"宮東町","town_kana":"ミヤヒガシチョウ","prefecture_code":23},"0814":{"zip_code":"4660814","prefecture":"愛知県","prefecture_kana":"アイチケン","city":"名古屋市昭和区","city_kana":"ナゴヤシショウワク","town":"妙見町","town_kana":"ミョウケンチョウ","prefecture_code":23},"0829":{"zip_code":"4660829","prefecture":"愛知県","prefecture_kana":"アイチケン","city":"名古屋市昭和区","city_kana":"ナゴヤシショウワク","town":"向山町","town_kana":"ムカイヤマチョウ","prefecture_code":23},"0052":{"zip_code":"4660052","prefecture":"愛知県","prefecture_kana":"アイチケン","city":"名古屋市昭和区","city_kana":"ナゴヤシショウワク","town":"村雲町","town_kana":"ムラクモチョウ","prefecture_code":23},"0034":{"zip_code":"4660034","prefecture":"愛知県","prefecture_kana":"アイチケン","city":"名古屋市昭和区","city_kana":"ナゴヤシショウワク","town":"明月町","town_kana":"メイゲツチョウ","prefecture_code":23},"0851":{"zip_code":"4660851","prefecture":"愛知県","prefecture_kana":"アイチケン","city":"名古屋市昭和区","city_kana":"ナゴヤシショウワク","town":"元宮町","town_kana":"モトミヤチョウ","prefecture_code":23},"0823":{"zip_code":"4660823","prefecture":"愛知県","prefecture_kana":"アイチケン","city":"名古屋市昭和区","city_kana":"ナゴヤシショウワク","town":"八雲町","town_kana":"ヤクモチョウ","prefecture_code":23},"0812":{"zip_code":"4660812","prefecture":"愛知県","prefecture_kana":"アイチケン","city":"名古屋市昭和区","city_kana":"ナゴヤシショウワク","town":"八事富士見","town_kana":"ヤゴトフジミ","prefecture_code":23},"0825":{"zip_code":"4660825","prefecture":"愛知県","prefecture_kana":"アイチケン","city":"名古屋市昭和区","city_kana":"ナゴヤシショウワク","town":"八事本町","town_kana":"ヤゴトホンマチ","prefecture_code":23},"0857":{"zip_code":"4660857","prefecture":"愛知県","prefecture_kana":"アイチケン","city":"名古屋市昭和区","city_kana":"ナゴヤシショウワク","town":"安田通","town_kana":"ヤスダトオリ","prefecture_code":23},"0824":{"zip_code":"4660824","prefecture":"愛知県","prefecture_kana":"アイチケン","city":"名古屋市昭和区","city_kana":"ナゴヤシショウワク","town":"山里町","town_kana":"ヤマザトチョウ","prefecture_code":23},"0024":{"zip_code":"4660024","prefecture":"愛知県","prefecture_kana":"アイチケン","city":"名古屋市昭和区","city_kana":"ナゴヤシショウワク","town":"大和町","town_kana":"ヤマトチョウ","prefecture_code":23},"0828":{"zip_code":"4660828","prefecture":"愛知県","prefecture_kana":"アイチケン","city":"名古屋市昭和区","city_kana":"ナゴヤシショウワク","town":"山中町","town_kana":"ヤマナカチョウ","prefecture_code":23},"0815":{"zip_code":"4660815","prefecture":"愛知県","prefecture_kana":"アイチケン","city":"名古屋市昭和区","city_kana":"ナゴヤシショウワク","town":"山手通","town_kana":"ヤマノテトオリ","prefecture_code":23},"0807":{"zip_code":"4660807","prefecture":"愛知県","prefecture_kana":"アイチケン","city":"名古屋市昭和区","city_kana":"ナゴヤシショウワク","town":"山花町","town_kana":"ヤマハナチョウ","prefecture_code":23},"0063":{"zip_code":"4660063","prefecture":"愛知県","prefecture_kana":"アイチケン","city":"名古屋市昭和区","city_kana":"ナゴヤシショウワク","town":"山脇町","town_kana":"ヤマワキチョウ","prefecture_code":23},"0005":{"zip_code":"4660005","prefecture":"愛知県","prefecture_kana":"アイチケン","city":"名古屋市昭和区","city_kana":"ナゴヤシショウワク","town":"雪見町","town_kana":"ユキミチョウ","prefecture_code":23},"0822":{"zip_code":"4660822","prefecture":"愛知県","prefecture_kana":"アイチケン","city":"名古屋市昭和区","city_kana":"ナゴヤシショウワク","town":"楽園町","town_kana":"ラクエンチョウ","prefecture_code":23},"0036":{"zip_code":"4660036","prefecture":"愛知県","prefecture_kana":"アイチケン","city":"名古屋市昭和区","city_kana":"ナゴヤシショウワク","town":"若柳町","town_kana":"ワカヤギチョウ","prefecture_code":23}}