{"0000":{"zip_code":"4670000","prefecture":"愛知県","prefecture_kana":"アイチケン","city":"名古屋市瑞穂区","city_kana":"ナゴヤシミズホク","town":"","town_kana":"","prefecture_code":23},"0846":{"zip_code":"4670846","prefecture":"愛知県","prefecture_kana":"アイチケン","city":"名古屋市瑞穂区","city_kana":"ナゴヤシミズホク","town":"荒崎町","town_kana":"アラサキチョウ","prefecture_code":23},"0005":{"zip_code":"4670005","prefecture":"愛知県","prefecture_kana":"アイチケン","city":"名古屋市瑞穂区","city_kana":"ナゴヤシミズホク","town":"石川町","town_kana":"イシカワチョウ","prefecture_code":23},"0067":{"zip_code":"4670067","prefecture":"愛知県","prefecture_kana":"アイチケン","city":"名古屋市瑞穂区","city_kana":"ナゴヤシミズホク","town":"石田町","town_kana":"イシダチョウ","prefecture_code":23},"0063":{"zip_code":"4670063","prefecture":"愛知県","prefecture_kana":"アイチケン","city":"名古屋市瑞穂区","city_kana":"ナゴヤシミズホク","town":"市丘町","town_kana":"イチオカチョウ","prefecture_code":23},"0835":{"zip_code":"4670835","prefecture":"愛知県","prefecture_kana":"アイチケン","city":"名古屋市瑞穂区","city_kana":"ナゴヤシミズホク","town":"井戸田町","town_kana":"イドタチョウ","prefecture_code":23},"0057":{"zip_code":"4670057","prefecture":"愛知県","prefecture_kana":"アイチケン","city":"名古屋市瑞穂区","city_kana":"ナゴヤシミズホク","town":"井の元町","town_kana":"イノモトチョウ","prefecture_code":23},"0045":{"zip_code":"4670045","prefecture":"愛知県","prefecture_kana":"アイチケン","city":"名古屋市瑞穂区","city_kana":"ナゴヤシミズホク","town":"茨木町","town_kana":"イバラギチョウ","prefecture_code":23},"0854":{"zip_code":"4670854","prefecture":"愛知県","prefecture_kana":"アイチケン","city":"名古屋市瑞穂区","city_kana":"ナゴヤシミズホク","town":"浮島町","town_kana":"ウキシマチョウ","prefecture_code":23},"0863":{"zip_code":"4670863","prefecture":"愛知県","prefecture_kana":"アイチケン","city":"名古屋市瑞穂区","city_kana":"ナゴヤシミズホク","town":"牛巻町","town_kana":"ウシマキチョウ","prefecture_code":23},"0068":{"zip_code":"4670068","prefecture":"愛知県","prefecture_kana":"アイチケン","city":"名古屋市瑞穂区","city_kana":"ナゴヤシミズホク","town":"内方町","town_kana":"ウチカタチョウ","prefecture_code":23},"0853":{"zip_code":"4670853","prefecture":"愛知県","prefecture_kana":"アイチケン","city":"名古屋市瑞穂区","city_kana":"ナゴヤシミズホク","town":"内浜町","town_kana":"ウチハマチョウ","prefecture_code":23},"0874":{"zip_code":"4670874","prefecture":"愛知県","prefecture_kana":"アイチケン","city":"名古屋市瑞穂区","city_kana":"ナゴヤシミズホク","town":"太田町","town_kana":"オオタチョウ","prefecture_code":23},"0006":{"zip_code":"4670006","prefecture":"愛知県","prefecture_kana":"アイチケン","city":"名古屋市瑞穂区","city_kana":"ナゴヤシミズホク","town":"御莨町","town_kana":"オタバコチョウ","prefecture_code":23},"0007":{"zip_code":"4670007","prefecture":"愛知県","prefecture_kana":"アイチケン","city":"名古屋市瑞穂区","city_kana":"ナゴヤシミズホク","town":"大殿町","town_kana":"オトドマチ","prefecture_code":23},"0833":{"zip_code":"4670833","prefecture":"愛知県","prefecture_kana":"アイチケン","city":"名古屋市瑞穂区","city_kana":"ナゴヤシミズホク","town":"鍵田町","town_kana":"カギタチョウ","prefecture_code":23},"0044":{"zip_code":"4670044","prefecture":"愛知県","prefecture_kana":"アイチケン","city":"名古屋市瑞穂区","city_kana":"ナゴヤシミズホク","town":"柏木町","town_kana":"カシワギチョウ","prefecture_code":23},"0052":{"zip_code":"4670052","prefecture":"愛知県","prefecture_kana":"アイチケン","city":"名古屋市瑞穂区","city_kana":"ナゴヤシミズホク","town":"片坂町","town_kana":"カタサカチョウ","prefecture_code":23},"0824":{"zip_code":"4670824","prefecture":"愛知県","prefecture_kana":"アイチケン","city":"名古屋市瑞穂区","city_kana":"ナゴヤシミズホク","town":"甲山町","town_kana":"カブトヤマチョウ","prefecture_code":23},"0051":{"zip_code":"4670051","prefecture":"愛知県","prefecture_kana":"アイチケン","city":"名古屋市瑞穂区","city_kana":"ナゴヤシミズホク","town":"釜塚町","town_kana":"カマヅカチョウ","prefecture_code":23},"0821":{"zip_code":"4670821","prefecture":"愛知県","prefecture_kana":"アイチケン","city":"名古屋市瑞穂区","city_kana":"ナゴヤシミズホク","town":"上坂町","town_kana":"カミサカチョウ","prefecture_code":23},"0847":{"zip_code":"4670847","prefecture":"愛知県","prefecture_kana":"アイチケン","city":"名古屋市瑞穂区","city_kana":"ナゴヤシミズホク","town":"神穂町","town_kana":"カミホチョウ","prefecture_code":23},"0832":{"zip_code":"4670832","prefecture":"愛知県","prefecture_kana":"アイチケン","city":"名古屋市瑞穂区","city_kana":"ナゴヤシミズホク","town":"神前町","town_kana":"カミマエチョウ","prefecture_code":23},"0022":{"zip_code":"4670022","prefecture":"愛知県","prefecture_kana":"アイチケン","city":"名古屋市瑞穂区","city_kana":"ナゴヤシミズホク","town":"上山町","town_kana":"カミヤマチョウ","prefecture_code":23},"0876":{"zip_code":"4670876","prefecture":"愛知県","prefecture_kana":"アイチケン","city":"名古屋市瑞穂区","city_kana":"ナゴヤシミズホク","town":"亀城町","town_kana":"カメシロチョウ","prefecture_code":23},"0845":{"zip_code":"4670845","prefecture":"愛知県","prefecture_kana":"アイチケン","city":"名古屋市瑞穂区","city_kana":"ナゴヤシミズホク","town":"河岸","town_kana":"カワギシ","prefecture_code":23},"0844":{"zip_code":"4670844","prefecture":"愛知県","prefecture_kana":"アイチケン","city":"名古屋市瑞穂区","city_kana":"ナゴヤシミズホク","town":"河岸町","town_kana":"カワギシチョウ","prefecture_code":23},"0002":{"zip_code":"4670002","prefecture":"愛知県","prefecture_kana":"アイチケン","city":"名古屋市瑞穂区","city_kana":"ナゴヤシミズホク","town":"川澄町","town_kana":"カワスミチョウ","prefecture_code":23},"0877":{"zip_code":"4670877","prefecture":"愛知県","prefecture_kana":"アイチケン","city":"名古屋市瑞穂区","city_kana":"ナゴヤシミズホク","town":"雁道町","town_kana":"ガンミチチョウ","prefecture_code":23},"0811":{"zip_code":"4670811","prefecture":"愛知県","prefecture_kana":"アイチケン","city":"名古屋市瑞穂区","city_kana":"ナゴヤシミズホク","town":"北原町","town_kana":"キタハラチョウ","prefecture_code":23},"0059":{"zip_code":"4670059","prefecture":"愛知県","prefecture_kana":"アイチケン","city":"名古屋市瑞穂区","city_kana":"ナゴヤシミズホク","town":"軍水町","town_kana":"グンスイチョウ","prefecture_code":23},"0807":{"zip_code":"4670807","prefecture":"愛知県","prefecture_kana":"アイチケン","city":"名古屋市瑞穂区","city_kana":"ナゴヤシミズホク","town":"駒場町","town_kana":"コマバチョウ","prefecture_code":23},"0805":{"zip_code":"4670805","prefecture":"愛知県","prefecture_kana":"アイチケン","city":"名古屋市瑞穂区","city_kana":"ナゴヤシミズホク","town":"桜見町","town_kana":"サクラミチョウ","prefecture_code":23},"0812":{"zip_code":"4670812","prefecture":"愛知県","prefecture_kana":"アイチケン","city":"名古屋市瑞穂区","city_kana":"ナゴヤシミズホク","town":"薩摩町","town_kana":"サツマチョウ","prefecture_code":23},"0016":{"zip_code":"4670016","prefecture":"愛知県","prefecture_kana":"アイチケン","city":"名古屋市瑞穂区","city_kana":"ナゴヤシミズホク","town":"佐渡町","town_kana":"サワタリチョウ","prefecture_code":23},"0851":{"zip_code":"4670851","prefecture":"愛知県","prefecture_kana":"アイチケン","city":"名古屋市瑞穂区","city_kana":"ナゴヤシミズホク","town":"塩入町","town_kana":"シオイリチョウ","prefecture_code":23},"0003":{"zip_code":"4670003","prefecture":"愛知県","prefecture_kana":"アイチケン","city":"名古屋市瑞穂区","city_kana":"ナゴヤシミズホク","town":"汐路町","town_kana":"シオジチョウ","prefecture_code":23},"0827":{"zip_code":"4670827","prefecture":"愛知県","prefecture_kana":"アイチケン","city":"名古屋市瑞穂区","city_kana":"ナゴヤシミズホク","town":"下坂町","town_kana":"シモサカチョウ","prefecture_code":23},"0049":{"zip_code":"4670049","prefecture":"愛知県","prefecture_kana":"アイチケン","city":"名古屋市瑞穂区","city_kana":"ナゴヤシミズホク","town":"下山町","town_kana":"シモヤマチョウ","prefecture_code":23},"0867":{"zip_code":"4670867","prefecture":"愛知県","prefecture_kana":"アイチケン","city":"名古屋市瑞穂区","city_kana":"ナゴヤシミズホク","town":"春敲町","town_kana":"シュンコウチョウ","prefecture_code":23},"0004":{"zip_code":"4670004","prefecture":"愛知県","prefecture_kana":"アイチケン","city":"名古屋市瑞穂区","city_kana":"ナゴヤシミズホク","town":"松月町","town_kana":"ショウゲツチョウ","prefecture_code":23},"0056":{"zip_code":"4670056","prefecture":"愛知県","prefecture_kana":"アイチケン","city":"名古屋市瑞穂区","city_kana":"ナゴヤシミズホク","town":"白砂町","town_kana":"シラスナチョウ","prefecture_code":23},"0014":{"zip_code":"4670014","prefecture":"愛知県","prefecture_kana":"アイチケン","city":"名古屋市瑞穂区","city_kana":"ナゴヤシミズホク","town":"白羽根町","town_kana":"シラハネチョウ","prefecture_code":23},"0856":{"zip_code":"4670856","prefecture":"愛知県","prefecture_kana":"アイチケン","city":"名古屋市瑞穂区","city_kana":"ナゴヤシミズホク","town":"新開町","town_kana":"シンカイチョウ","prefecture_code":23},"0804":{"zip_code":"4670804","prefecture":"愛知県","prefecture_kana":"アイチケン","city":"名古屋市瑞穂区","city_kana":"ナゴヤシミズホク","town":"洲雲町","town_kana":"スグモチョウ","prefecture_code":23},"0871":{"zip_code":"4670871","prefecture":"愛知県","prefecture_kana":"アイチケン","city":"名古屋市瑞穂区","city_kana":"ナゴヤシミズホク","town":"須田町","town_kana":"スダチョウ","prefecture_code":23},"0066":{"zip_code":"4670066","prefecture":"愛知県","prefecture_kana":"アイチケン","city":"名古屋市瑞穂区","city_kana":"ナゴヤシミズホク","town":"洲山町","town_kana":"スヤマチョウ","prefecture_code":23},"0058":{"zip_code":"4670058","prefecture":"愛知県","prefecture_kana":"アイチケン","city":"名古屋市瑞穂区","city_kana":"ナゴヤシミズホク","town":"関取町","town_kana":"セキトリチョウ","prefecture_code":23},"0013":{"zip_code":"4670013","prefecture":"愛知県","prefecture_kana":"アイチケン","city":"名古屋市瑞穂区","city_kana":"ナゴヤシミズホク","town":"膳棚町","town_kana":"ゼンダナチョウ","prefecture_code":23},"0831":{"zip_code":"4670831","prefecture":"愛知県","prefecture_kana":"アイチケン","city":"名古屋市瑞穂区","city_kana":"ナゴヤシミズホク","town":"惣作町","town_kana":"ソウサクチョウ","prefecture_code":23},"0015":{"zip_code":"4670015","prefecture":"愛知県","prefecture_kana":"アイチケン","city":"名古屋市瑞穂区","city_kana":"ナゴヤシミズホク","town":"十六町","town_kana":"ソロチョウ","prefecture_code":23},"0868":{"zip_code":"4670868","prefecture":"愛知県","prefecture_kana":"アイチケン","city":"名古屋市瑞穂区","city_kana":"ナゴヤシミズホク","town":"大喜新町","town_kana":"ダイギシンチョウ","prefecture_code":23},"0822":{"zip_code":"4670822","prefecture":"愛知県","prefecture_kana":"アイチケン","city":"名古屋市瑞穂区","city_kana":"ナゴヤシミズホク","town":"大喜町","town_kana":"ダイギチョウ","prefecture_code":23},"0808":{"zip_code":"4670808","prefecture":"愛知県","prefecture_kana":"アイチケン","city":"名古屋市瑞穂区","city_kana":"ナゴヤシミズホク","town":"高田町","town_kana":"タカタチョウ","prefecture_code":23},"0872":{"zip_code":"4670872","prefecture":"愛知県","prefecture_kana":"アイチケン","city":"名古屋市瑞穂区","city_kana":"ナゴヤシミズホク","town":"高辻町","town_kana":"タカツジチョウ","prefecture_code":23},"0873":{"zip_code":"4670873","prefecture":"愛知県","prefecture_kana":"アイチケン","city":"名古屋市瑞穂区","city_kana":"ナゴヤシミズホク","town":"竹田町","town_kana":"タケダチョウ","prefecture_code":23},"0043":{"zip_code":"4670043","prefecture":"愛知県","prefecture_kana":"アイチケン","city":"名古屋市瑞穂区","city_kana":"ナゴヤシミズホク","town":"岳見町","town_kana":"タケミチョウ","prefecture_code":23},"0828":{"zip_code":"4670828","prefecture":"愛知県","prefecture_kana":"アイチケン","city":"名古屋市瑞穂区","city_kana":"ナゴヤシミズホク","town":"田光町","town_kana":"タコウチョウ","prefecture_code":23},"0027":{"zip_code":"4670027","prefecture":"愛知県","prefecture_kana":"アイチケン","city":"名古屋市瑞穂区","city_kana":"ナゴヤシミズホク","town":"田辺通","town_kana":"タナベトオリ","prefecture_code":23},"0046":{"zip_code":"4670046","prefecture":"愛知県","prefecture_kana":"アイチケン","city":"名古屋市瑞穂区","city_kana":"ナゴヤシミズホク","town":"玉水町","town_kana":"タマミズチョウ","prefecture_code":23},"0021":{"zip_code":"4670021","prefecture":"愛知県","prefecture_kana":"アイチケン","city":"名古屋市瑞穂区","city_kana":"ナゴヤシミズホク","town":"檀渓通","town_kana":"ダンケイトオリ","prefecture_code":23},"0823":{"zip_code":"4670823","prefecture":"愛知県","prefecture_kana":"アイチケン","city":"名古屋市瑞穂区","city_kana":"ナゴヤシミズホク","town":"津賀田町","town_kana":"ツカタチョウ","prefecture_code":23},"0836":{"zip_code":"4670836","prefecture":"愛知県","prefecture_kana":"アイチケン","city":"名古屋市瑞穂区","city_kana":"ナゴヤシミズホク","town":"佃町","town_kana":"ツクダチョウ","prefecture_code":23},"0843":{"zip_code":"4670843","prefecture":"愛知県","prefecture_kana":"アイチケン","city":"名古屋市瑞穂区","city_kana":"ナゴヤシミズホク","town":"土市町","town_kana":"ドイチチョウ","prefecture_code":23},"0017":{"zip_code":"4670017","prefecture":"愛知県","prefecture_kana":"アイチケン","city":"名古屋市瑞穂区","city_kana":"ナゴヤシミズホク","town":"東栄町","town_kana":"トウエイチョウ","prefecture_code":23},"0012":{"zip_code":"4670012","prefecture":"愛知県","prefecture_kana":"アイチケン","city":"名古屋市瑞穂区","city_kana":"ナゴヤシミズホク","town":"豊岡通","town_kana":"トヨオカドオリ","prefecture_code":23},"0841":{"zip_code":"4670841","prefecture":"愛知県","prefecture_kana":"アイチケン","city":"名古屋市瑞穂区","city_kana":"ナゴヤシミズホク","town":"苗代町","town_kana":"ナエシロチョウ","prefecture_code":23},"0865":{"zip_code":"4670865","prefecture":"愛知県","prefecture_kana":"アイチケン","city":"名古屋市瑞穂区","city_kana":"ナゴヤシミズホク","town":"直来町","town_kana":"ナオライチョウ","prefecture_code":23},"0055":{"zip_code":"4670055","prefecture":"愛知県","prefecture_kana":"アイチケン","city":"名古屋市瑞穂区","city_kana":"ナゴヤシミズホク","town":"中根町","town_kana":"ナカネチョウ","prefecture_code":23},"0803":{"zip_code":"4670803","prefecture":"愛知県","prefecture_kana":"アイチケン","city":"名古屋市瑞穂区","city_kana":"ナゴヤシミズホク","town":"中山町","town_kana":"ナカヤマチョウ","prefecture_code":23},"0813":{"zip_code":"4670813","prefecture":"愛知県","prefecture_kana":"アイチケン","city":"名古屋市瑞穂区","city_kana":"ナゴヤシミズホク","town":"西ノ割町","town_kana":"ニシノワリチョウ","prefecture_code":23},"0053":{"zip_code":"4670053","prefecture":"愛知県","prefecture_kana":"アイチケン","city":"名古屋市瑞穂区","city_kana":"ナゴヤシミズホク","town":"仁所町","town_kana":"ニショチョウ","prefecture_code":23},"0011":{"zip_code":"4670011","prefecture":"愛知県","prefecture_kana":"アイチケン","city":"名古屋市瑞穂区","city_kana":"ナゴヤシミズホク","town":"萩山町","town_kana":"ハギヤマチョウ","prefecture_code":23},"0826":{"zip_code":"4670826","prefecture":"愛知県","prefecture_kana":"アイチケン","city":"名古屋市瑞穂区","city_kana":"ナゴヤシミズホク","town":"白龍町","town_kana":"ハクリュウチョウ","prefecture_code":23},"0042":{"zip_code":"4670042","prefecture":"愛知県","prefecture_kana":"アイチケン","city":"名古屋市瑞穂区","city_kana":"ナゴヤシミズホク","town":"八勝通","town_kana":"ハッショウトオリ","prefecture_code":23},"0028":{"zip_code":"4670028","prefecture":"愛知県","prefecture_kana":"アイチケン","city":"名古屋市瑞穂区","city_kana":"ナゴヤシミズホク","town":"初日町","town_kana":"ハツヒチョウ","prefecture_code":23},"0837":{"zip_code":"4670837","prefecture":"愛知県","prefecture_kana":"アイチケン","city":"名古屋市瑞穂区","city_kana":"ナゴヤシミズホク","town":"花目町","town_kana":"ハナメチョウ","prefecture_code":23},"0024":{"zip_code":"4670024","prefecture":"愛知県","prefecture_kana":"アイチケン","city":"名古屋市瑞穂区","city_kana":"ナゴヤシミズホク","town":"春山町","town_kana":"ハルヤマチョウ","prefecture_code":23},"0047":{"zip_code":"4670047","prefecture":"愛知県","prefecture_kana":"アイチケン","city":"名古屋市瑞穂区","city_kana":"ナゴヤシミズホク","town":"日向町","town_kana":"ヒナタマチ","prefecture_code":23},"0834":{"zip_code":"4670834","prefecture":"愛知県","prefecture_kana":"アイチケン","city":"名古屋市瑞穂区","city_kana":"ナゴヤシミズホク","town":"姫宮町","town_kana":"ヒメミヤチョウ","prefecture_code":23},"0861":{"zip_code":"4670861","prefecture":"愛知県","prefecture_kana":"アイチケン","city":"名古屋市瑞穂区","city_kana":"ナゴヤシミズホク","town":"二野町","town_kana":"フタノチョウ","prefecture_code":23},"0878":{"zip_code":"4670878","prefecture":"愛知県","prefecture_kana":"アイチケン","city":"名古屋市瑞穂区","city_kana":"ナゴヤシミズホク","town":"船原町","town_kana":"フナバラチョウ","prefecture_code":23},"0879":{"zip_code":"4670879","prefecture":"愛知県","prefecture_kana":"アイチケン","city":"名古屋市瑞穂区","city_kana":"ナゴヤシミズホク","town":"平郷町","town_kana":"ヘイゴウチョウ","prefecture_code":23},"0866":{"zip_code":"4670866","prefecture":"愛知県","prefecture_kana":"アイチケン","city":"名古屋市瑞穂区","city_kana":"ナゴヤシミズホク","town":"宝田町","town_kana":"ホウデンチョウ","prefecture_code":23},"0862":{"zip_code":"4670862","prefecture":"愛知県","prefecture_kana":"アイチケン","city":"名古屋市瑞穂区","city_kana":"ナゴヤシミズホク","town":"堀田通","town_kana":"ホリタトオリ","prefecture_code":23},"0814":{"zip_code":"4670814","prefecture":"愛知県","prefecture_kana":"アイチケン","city":"名古屋市瑞穂区","city_kana":"ナゴヤシミズホク","town":"本願寺町","town_kana":"ホンガンジチョウ","prefecture_code":23},"0815":{"zip_code":"4670815","prefecture":"愛知県","prefecture_kana":"アイチケン","city":"名古屋市瑞穂区","city_kana":"ナゴヤシミズホク","town":"前田町","town_kana":"マエダチョウ","prefecture_code":23},"0816":{"zip_code":"4670816","prefecture":"愛知県","prefecture_kana":"アイチケン","city":"名古屋市瑞穂区","city_kana":"ナゴヤシミズホク","town":"牧町","town_kana":"マキチョウ","prefecture_code":23},"0025":{"zip_code":"4670025","prefecture":"愛知県","prefecture_kana":"アイチケン","city":"名古屋市瑞穂区","city_kana":"ナゴヤシミズホク","town":"松栄町","town_kana":"マツサカエチョウ","prefecture_code":23},"0065":{"zip_code":"4670065","prefecture":"愛知県","prefecture_kana":"アイチケン","city":"名古屋市瑞穂区","city_kana":"ナゴヤシミズホク","town":"松園町","town_kana":"マツソノチョウ","prefecture_code":23},"0864":{"zip_code":"4670864","prefecture":"愛知県","prefecture_kana":"アイチケン","city":"名古屋市瑞穂区","city_kana":"ナゴヤシミズホク","town":"豆田町","town_kana":"マメダチョウ","prefecture_code":23},"0054":{"zip_code":"4670054","prefecture":"愛知県","prefecture_kana":"アイチケン","city":"名古屋市瑞穂区","city_kana":"ナゴヤシミズホク","town":"丸根町","town_kana":"マルネチョウ","prefecture_code":23},"0041":{"zip_code":"4670041","prefecture":"愛知県","prefecture_kana":"アイチケン","city":"名古屋市瑞穂区","city_kana":"ナゴヤシミズホク","town":"密柑山町","town_kana":"ミカンヤマチョウ","prefecture_code":23},"0001":{"zip_code":"4670001","prefecture":"愛知県","prefecture_kana":"アイチケン","city":"名古屋市瑞穂区","city_kana":"ナゴヤシミズホク","town":"瑞穂町川澄","town_kana":"ミズホチョウカワスミ","prefecture_code":23},"0801":{"zip_code":"4670801","prefecture":"愛知県","prefecture_kana":"アイチケン","city":"名古屋市瑞穂区","city_kana":"ナゴヤシミズホク","town":"瑞穂町西藤塚","town_kana":"ミズホチョウニシフジツカ","prefecture_code":23},"0802":{"zip_code":"4670802","prefecture":"愛知県","prefecture_kana":"アイチケン","city":"名古屋市瑞穂区","city_kana":"ナゴヤシミズホク","town":"瑞穂町山の畑","town_kana":"ミズホチョウヤマノバタ","prefecture_code":23},"0806":{"zip_code":"4670806","prefecture":"愛知県","prefecture_kana":"アイチケン","city":"名古屋市瑞穂区","city_kana":"ナゴヤシミズホク","town":"瑞穂通","town_kana":"ミズホトオリ","prefecture_code":23},"0875":{"zip_code":"4670875","prefecture":"愛知県","prefecture_kana":"アイチケン","city":"名古屋市瑞穂区","city_kana":"ナゴヤシミズホク","town":"御劔町","town_kana":"ミツルギチョウ","prefecture_code":23},"0023":{"zip_code":"4670023","prefecture":"愛知県","prefecture_kana":"アイチケン","city":"名古屋市瑞穂区","city_kana":"ナゴヤシミズホク","town":"南山町","town_kana":"ミナミヤマチョウ","prefecture_code":23},"0842":{"zip_code":"4670842","prefecture":"愛知県","prefecture_kana":"アイチケン","city":"名古屋市瑞穂区","city_kana":"ナゴヤシミズホク","town":"妙音通","town_kana":"ミョウオントオリ","prefecture_code":23},"0008":{"zip_code":"4670008","prefecture":"愛知県","prefecture_kana":"アイチケン","city":"名古屋市瑞穂区","city_kana":"ナゴヤシミズホク","town":"村上町","town_kana":"ムラカミチョウ","prefecture_code":23},"0852":{"zip_code":"4670852","prefecture":"愛知県","prefecture_kana":"アイチケン","city":"名古屋市瑞穂区","city_kana":"ナゴヤシミズホク","town":"明前町","town_kana":"メイゼンチョウ","prefecture_code":23},"0855":{"zip_code":"4670855","prefecture":"愛知県","prefecture_kana":"アイチケン","city":"名古屋市瑞穂区","city_kana":"ナゴヤシミズホク","town":"桃園町","town_kana":"モモゾノチョウ","prefecture_code":23},"0061":{"zip_code":"4670061","prefecture":"愛知県","prefecture_kana":"アイチケン","city":"名古屋市瑞穂区","city_kana":"ナゴヤシミズホク","town":"師長町","town_kana":"モロナガチョウ","prefecture_code":23},"0048":{"zip_code":"4670048","prefecture":"愛知県","prefecture_kana":"アイチケン","city":"名古屋市瑞穂区","city_kana":"ナゴヤシミズホク","town":"弥富ケ丘町","town_kana":"ヤトミガオカチョウ","prefecture_code":23},"0036":{"zip_code":"4670036","prefecture":"愛知県","prefecture_kana":"アイチケン","city":"名古屋市瑞穂区","city_kana":"ナゴヤシミズホク","town":"弥富町密柑山","town_kana":"ヤトミチョウミカンヤマ","prefecture_code":23},"0039":{"zip_code":"4670039","prefecture":"愛知県","prefecture_kana":"アイチケン","city":"名古屋市瑞穂区","city_kana":"ナゴヤシミズホク","town":"弥富町茨山","town_kana":"ヤトミチョウイバラヤマ","prefecture_code":23},"0037":{"zip_code":"4670037","prefecture":"愛知県","prefecture_kana":"アイチケン","city":"名古屋市瑞穂区","city_kana":"ナゴヤシミズホク","town":"弥富町上山","town_kana":"ヤトミチョウカミヤマ","prefecture_code":23},"0032":{"zip_code":"4670032","prefecture":"愛知県","prefecture_kana":"アイチケン","city":"名古屋市瑞穂区","city_kana":"ナゴヤシミズホク","town":"弥富町紅葉園","town_kana":"ヤトミチョウコウヨウエン","prefecture_code":23},"0034":{"zip_code":"4670034","prefecture":"愛知県","prefecture_kana":"アイチケン","city":"名古屋市瑞穂区","city_kana":"ナゴヤシミズホク","town":"弥富町桜ケ岡","town_kana":"ヤトミチョウサクラガオカ","prefecture_code":23},"0038":{"zip_code":"4670038","prefecture":"愛知県","prefecture_kana":"アイチケン","city":"名古屋市瑞穂区","city_kana":"ナゴヤシミズホク","town":"弥富町清水ケ岡","town_kana":"ヤトミチョウシミズガオカ","prefecture_code":23},"0035":{"zip_code":"4670035","prefecture":"愛知県","prefecture_kana":"アイチケン","city":"名古屋市瑞穂区","city_kana":"ナゴヤシミズホク","town":"弥富町月見ケ岡","town_kana":"ヤトミチョウツキミガオカ","prefecture_code":23},"0033":{"zip_code":"4670033","prefecture":"愛知県","prefecture_kana":"アイチケン","city":"名古屋市瑞穂区","city_kana":"ナゴヤシミズホク","town":"弥富町円山","town_kana":"ヤトミチョウマルヤマ","prefecture_code":23},"0031":{"zip_code":"4670031","prefecture":"愛知県","prefecture_kana":"アイチケン","city":"名古屋市瑞穂区","city_kana":"ナゴヤシミズホク","town":"弥富町緑ケ岡","town_kana":"ヤトミチョウミドリガオカ","prefecture_code":23},"0064":{"zip_code":"4670064","prefecture":"愛知県","prefecture_kana":"アイチケン","city":"名古屋市瑞穂区","city_kana":"ナゴヤシミズホク","town":"弥富通","town_kana":"ヤトミドオリ","prefecture_code":23},"0825":{"zip_code":"4670825","prefecture":"愛知県","prefecture_kana":"アイチケン","city":"名古屋市瑞穂区","city_kana":"ナゴヤシミズホク","town":"柳ケ枝町","town_kana":"ヤナガエチョウ","prefecture_code":23},"0062":{"zip_code":"4670062","prefecture":"愛知県","prefecture_kana":"アイチケン","city":"名古屋市瑞穂区","city_kana":"ナゴヤシミズホク","town":"山下通","town_kana":"ヤマシタドオリ","prefecture_code":23},"0026":{"zip_code":"4670026","prefecture":"愛知県","prefecture_kana":"アイチケン","city":"名古屋市瑞穂区","city_kana":"ナゴヤシミズホク","town":"陽明町","town_kana":"ヨウメイチョウ","prefecture_code":23}}