{"0335":{"zip_code":"4700335","prefecture":"愛知県","prefecture_kana":"アイチケン","city":"豊田市","city_kana":"トヨタシ","town":"青木町","town_kana":"アオキチョウ","prefecture_code":23},"0333":{"zip_code":"4700333","prefecture":"愛知県","prefecture_kana":"アイチケン","city":"豊田市","city_kana":"トヨタシ","town":"荒井町","town_kana":"アライチョウ","prefecture_code":23},"0471":{"zip_code":"4700471","prefecture":"愛知県","prefecture_kana":"アイチケン","city":"豊田市","city_kana":"トヨタシ","town":"石畳町","town_kana":"イシダタミチョウ","prefecture_code":23},"0463":{"zip_code":"4700463","prefecture":"愛知県","prefecture_kana":"アイチケン","city":"豊田市","city_kana":"トヨタシ","town":"石飛町","town_kana":"イシトビチョウ","prefecture_code":23},"0329":{"zip_code":"4700329","prefecture":"愛知県","prefecture_kana":"アイチケン","city":"豊田市","city_kana":"トヨタシ","town":"石野町","town_kana":"イシノチョウ","prefecture_code":23},"0574":{"zip_code":"4700574","prefecture":"愛知県","prefecture_kana":"アイチケン","city":"豊田市","city_kana":"トヨタシ","town":"市場町","town_kana":"イチバチョウ","prefecture_code":23},"0372":{"zip_code":"4700372","prefecture":"愛知県","prefecture_kana":"アイチケン","city":"豊田市","city_kana":"トヨタシ","town":"井上町","town_kana":"イノウエチョウ","prefecture_code":23},"0374":{"zip_code":"4700374","prefecture":"愛知県","prefecture_kana":"アイチケン","city":"豊田市","city_kana":"トヨタシ","town":"伊保町","town_kana":"イボチョウ","prefecture_code":23},"0515":{"zip_code":"4700515","prefecture":"愛知県","prefecture_kana":"アイチケン","city":"豊田市","city_kana":"トヨタシ","town":"岩下町","town_kana":"イワシタチョウ","prefecture_code":23},"1211":{"zip_code":"4701211","prefecture":"愛知県","prefecture_kana":"アイチケン","city":"豊田市","city_kana":"トヨタシ","town":"畝部東町","town_kana":"ウネベヒガシマチ","prefecture_code":23},"1219":{"zip_code":"4701219","prefecture":"愛知県","prefecture_kana":"アイチケン","city":"豊田市","city_kana":"トヨタシ","town":"畝部西町","town_kana":"ウネベニシマチ","prefecture_code":23},"0341":{"zip_code":"4700341","prefecture":"愛知県","prefecture_kana":"アイチケン","city":"豊田市","city_kana":"トヨタシ","town":"上原町","town_kana":"ウワハラチョウ","prefecture_code":23},"0562":{"zip_code":"4700562","prefecture":"愛知県","prefecture_kana":"アイチケン","city":"豊田市","city_kana":"トヨタシ","town":"永太郎町","town_kana":"エイタロウチョウ","prefecture_code":23},"1206":{"zip_code":"4701206","prefecture":"愛知県","prefecture_kana":"アイチケン","city":"豊田市","city_kana":"トヨタシ","town":"永覚新町","town_kana":"エカクシンマチ","prefecture_code":23},"1205":{"zip_code":"4701205","prefecture":"愛知県","prefecture_kana":"アイチケン","city":"豊田市","city_kana":"トヨタシ","town":"永覚町","town_kana":"エカクチョウ","prefecture_code":23},"0401":{"zip_code":"4700401","prefecture":"愛知県","prefecture_kana":"アイチケン","city":"豊田市","city_kana":"トヨタシ","town":"大岩町","town_kana":"オオイワチョウ","prefecture_code":23},"0511":{"zip_code":"4700511","prefecture":"愛知県","prefecture_kana":"アイチケン","city":"豊田市","city_kana":"トヨタシ","town":"大ケ蔵連町","town_kana":"オオガゾレチョウ","prefecture_code":23},"0532":{"zip_code":"4700532","prefecture":"愛知県","prefecture_kana":"アイチケン","city":"豊田市","city_kana":"トヨタシ","town":"大坂町","town_kana":"オオサカチョウ","prefecture_code":23},"0342":{"zip_code":"4700342","prefecture":"愛知県","prefecture_kana":"アイチケン","city":"豊田市","city_kana":"トヨタシ","town":"大清水町","town_kana":"オオシミズチョウ","prefecture_code":23},"0555":{"zip_code":"4700555","prefecture":"愛知県","prefecture_kana":"アイチケン","city":"豊田市","city_kana":"トヨタシ","town":"大平町","town_kana":"オオダイラチョウ","prefecture_code":23},"0355":{"zip_code":"4700355","prefecture":"愛知県","prefecture_kana":"アイチケン","city":"豊田市","city_kana":"トヨタシ","town":"大畑町","town_kana":"オオバタチョウ","prefecture_code":23},"0553":{"zip_code":"4700553","prefecture":"愛知県","prefecture_kana":"アイチケン","city":"豊田市","city_kana":"トヨタシ","town":"大洞町","town_kana":"オオボラチョウ","prefecture_code":23},"0552":{"zip_code":"4700552","prefecture":"愛知県","prefecture_kana":"アイチケン","city":"豊田市","city_kana":"トヨタシ","town":"乙ケ林町","town_kana":"オカバヤシチョウ","prefecture_code":23},"1207":{"zip_code":"4701207","prefecture":"愛知県","prefecture_kana":"アイチケン","city":"豊田市","city_kana":"トヨタシ","town":"鴛鴨町","town_kana":"オシカモチョウ","prefecture_code":23},"0303":{"zip_code":"4700303","prefecture":"愛知県","prefecture_kana":"アイチケン","city":"豊田市","city_kana":"トヨタシ","town":"押沢町","town_kana":"オシザワチョウ","prefecture_code":23},"0346":{"zip_code":"4700346","prefecture":"愛知県","prefecture_kana":"アイチケン","city":"豊田市","city_kana":"トヨタシ","town":"乙部ケ丘","town_kana":"オトベガオカ","prefecture_code":23},"0347":{"zip_code":"4700347","prefecture":"愛知県","prefecture_kana":"アイチケン","city":"豊田市","city_kana":"トヨタシ","town":"乙部町","town_kana":"オトベチョウ","prefecture_code":23},"0572":{"zip_code":"4700572","prefecture":"愛知県","prefecture_kana":"アイチケン","city":"豊田市","city_kana":"トヨタシ","town":"小原大倉町","town_kana":"オバラオオクラチョウ","prefecture_code":23},"0502":{"zip_code":"4700502","prefecture":"愛知県","prefecture_kana":"アイチケン","city":"豊田市","city_kana":"トヨタシ","town":"小原北町","town_kana":"オバラキタチョウ","prefecture_code":23},"0501":{"zip_code":"4700501","prefecture":"愛知県","prefecture_kana":"アイチケン","city":"豊田市","city_kana":"トヨタシ","town":"小原田代町","town_kana":"オバラタシロチョウ","prefecture_code":23},"0531":{"zip_code":"4700531","prefecture":"愛知県","prefecture_kana":"アイチケン","city":"豊田市","city_kana":"トヨタシ","town":"小原町","town_kana":"オバラチョウ","prefecture_code":23},"0464":{"zip_code":"4700464","prefecture":"愛知県","prefecture_kana":"アイチケン","city":"豊田市","city_kana":"トヨタシ","town":"折平町","town_kana":"オリダイラチョウ","prefecture_code":23},"0323":{"zip_code":"4700323","prefecture":"愛知県","prefecture_kana":"アイチケン","city":"豊田市","city_kana":"トヨタシ","town":"小呂町","town_kana":"オロチョウ","prefecture_code":23},"0348":{"zip_code":"4700348","prefecture":"愛知県","prefecture_kana":"アイチケン","city":"豊田市","city_kana":"トヨタシ","town":"貝津町","town_kana":"カイヅチョウ","prefecture_code":23},"0505":{"zip_code":"4700505","prefecture":"愛知県","prefecture_kana":"アイチケン","city":"豊田市","city_kana":"トヨタシ","town":"柏ケ洞町","town_kana":"カシガホラチョウ","prefecture_code":23},"0533":{"zip_code":"4700533","prefecture":"愛知県","prefecture_kana":"アイチケン","city":"豊田市","city_kana":"トヨタシ","town":"鍛治屋敷町","town_kana":"カジヤシキチョウ","prefecture_code":23},"1216":{"zip_code":"4701216","prefecture":"愛知県","prefecture_kana":"アイチケン","city":"豊田市","city_kana":"トヨタシ","town":"和会町","town_kana":"カズエチョウ","prefecture_code":23},"0364":{"zip_code":"4700364","prefecture":"愛知県","prefecture_kana":"アイチケン","city":"豊田市","city_kana":"トヨタシ","town":"加納町","town_kana":"カノウチョウ","prefecture_code":23},"0421":{"zip_code":"4700421","prefecture":"愛知県","prefecture_kana":"アイチケン","city":"豊田市","city_kana":"トヨタシ","town":"上川口町","town_kana":"カミカワグチチョウ","prefecture_code":23},"1218":{"zip_code":"4701218","prefecture":"愛知県","prefecture_kana":"アイチケン","city":"豊田市","city_kana":"トヨタシ","town":"上郷町","town_kana":"カミゴウチョウ","prefecture_code":23},"0322":{"zip_code":"4700322","prefecture":"愛知県","prefecture_kana":"アイチケン","city":"豊田市","city_kana":"トヨタシ","town":"上高町","town_kana":"カミタカチョウ","prefecture_code":23},"0462":{"zip_code":"4700462","prefecture":"愛知県","prefecture_kana":"アイチケン","city":"豊田市","city_kana":"トヨタシ","town":"上渡合町","town_kana":"カミドアイチョウ","prefecture_code":23},"0561":{"zip_code":"4700561","prefecture":"愛知県","prefecture_kana":"アイチケン","city":"豊田市","city_kana":"トヨタシ","town":"上仁木町","town_kana":"カミニギチョウ","prefecture_code":23},"0375":{"zip_code":"4700375","prefecture":"愛知県","prefecture_kana":"アイチケン","city":"豊田市","city_kana":"トヨタシ","town":"亀首町","town_kana":"カメクビチョウ","prefecture_code":23},"0513":{"zip_code":"4700513","prefecture":"愛知県","prefecture_kana":"アイチケン","city":"豊田市","city_kana":"トヨタシ","town":"苅萱町","town_kana":"カルカヤチョウ","prefecture_code":23},"0575":{"zip_code":"4700575","prefecture":"愛知県","prefecture_kana":"アイチケン","city":"豊田市","city_kana":"トヨタシ","town":"川下町","town_kana":"カワシモチョウ","prefecture_code":23},"0328":{"zip_code":"4700328","prefecture":"愛知県","prefecture_kana":"アイチケン","city":"豊田市","city_kana":"トヨタシ","town":"勘八町","town_kana":"カンパチチョウ","prefecture_code":23},"0542":{"zip_code":"4700542","prefecture":"愛知県","prefecture_kana":"アイチケン","city":"豊田市","city_kana":"トヨタシ","town":"喜佐平町","town_kana":"キサダイラチョウ","prefecture_code":23},"0411":{"zip_code":"4700411","prefecture":"愛知県","prefecture_kana":"アイチケン","city":"豊田市","city_kana":"トヨタシ","town":"木瀬町","town_kana":"キセチョウ","prefecture_code":23},"0453":{"zip_code":"4700453","prefecture":"愛知県","prefecture_kana":"アイチケン","city":"豊田市","city_kana":"トヨタシ","town":"北一色町","town_kana":"キタイシキチョウ","prefecture_code":23},"0573":{"zip_code":"4700573","prefecture":"愛知県","prefecture_kana":"アイチケン","city":"豊田市","city_kana":"トヨタシ","town":"北大野町","town_kana":"キタオオノチョウ","prefecture_code":23},"0543":{"zip_code":"4700543","prefecture":"愛知県","prefecture_kana":"アイチケン","city":"豊田市","city_kana":"トヨタシ","town":"北篠平町","town_kana":"キタササダイラチョウ","prefecture_code":23},"0305":{"zip_code":"4700305","prefecture":"愛知県","prefecture_kana":"アイチケン","city":"豊田市","city_kana":"トヨタシ","town":"国附町","town_kana":"クニツキチョウ","prefecture_code":23},"0522":{"zip_code":"4700522","prefecture":"愛知県","prefecture_kana":"アイチケン","city":"豊田市","city_kana":"トヨタシ","town":"榑俣町","town_kana":"クレマタチョウ","prefecture_code":23},"0332":{"zip_code":"4700332","prefecture":"愛知県","prefecture_kana":"アイチケン","city":"豊田市","city_kana":"トヨタシ","town":"越戸町","town_kana":"コシドチョウ","prefecture_code":23},"0306":{"zip_code":"4700306","prefecture":"愛知県","prefecture_kana":"アイチケン","city":"豊田市","city_kana":"トヨタシ","town":"小峯町","town_kana":"コミネチョウ","prefecture_code":23},"1203":{"zip_code":"4701203","prefecture":"愛知県","prefecture_kana":"アイチケン","city":"豊田市","city_kana":"トヨタシ","town":"幸町","town_kana":"サイワイチョウ","prefecture_code":23},"0352":{"zip_code":"4700352","prefecture":"愛知県","prefecture_kana":"アイチケン","city":"豊田市","city_kana":"トヨタシ","town":"篠原町","town_kana":"ササバラチョウ","prefecture_code":23},"0504":{"zip_code":"4700504","prefecture":"愛知県","prefecture_kana":"アイチケン","city":"豊田市","city_kana":"トヨタシ","town":"雑敷町","town_kana":"ザッシキチョウ","prefecture_code":23},"0361":{"zip_code":"4700361","prefecture":"愛知県","prefecture_kana":"アイチケン","city":"豊田市","city_kana":"トヨタシ","town":"猿投町","town_kana":"サナゲチョウ","prefecture_code":23},"0564":{"zip_code":"4700564","prefecture":"愛知県","prefecture_kana":"アイチケン","city":"豊田市","city_kana":"トヨタシ","town":"沢田町","town_kana":"サワダチョウ","prefecture_code":23},"0402":{"zip_code":"4700402","prefecture":"愛知県","prefecture_kana":"アイチケン","city":"豊田市","city_kana":"トヨタシ","town":"三箇町","town_kana":"サンガチョウ","prefecture_code":23},"0373":{"zip_code":"4700373","prefecture":"愛知県","prefecture_kana":"アイチケン","city":"豊田市","city_kana":"トヨタシ","town":"四郷町","town_kana":"シゴウチョウ","prefecture_code":23},"0308":{"zip_code":"4700308","prefecture":"愛知県","prefecture_kana":"アイチケン","city":"豊田市","city_kana":"トヨタシ","town":"枝下町","town_kana":"シダレチョウ","prefecture_code":23},"0422":{"zip_code":"4700422","prefecture":"愛知県","prefecture_kana":"アイチケン","city":"豊田市","city_kana":"トヨタシ","town":"下川口町","town_kana":"シモカワグチチョウ","prefecture_code":23},"0565":{"zip_code":"4700565","prefecture":"愛知県","prefecture_kana":"アイチケン","city":"豊田市","city_kana":"トヨタシ","town":"下仁木町","town_kana":"シモニギチョウ","prefecture_code":23},"0319":{"zip_code":"4700319","prefecture":"愛知県","prefecture_kana":"アイチケン","city":"豊田市","city_kana":"トヨタシ","town":"下室町","town_kana":"シモムロチョウ","prefecture_code":23},"0343":{"zip_code":"4700343","prefecture":"愛知県","prefecture_kana":"アイチケン","city":"豊田市","city_kana":"トヨタシ","town":"浄水町","town_kana":"ジョウスイチョウ","prefecture_code":23},"0403":{"zip_code":"4700403","prefecture":"愛知県","prefecture_kana":"アイチケン","city":"豊田市","city_kana":"トヨタシ","town":"白川町","town_kana":"シラカワチョウ","prefecture_code":23},"0313":{"zip_code":"4700313","prefecture":"愛知県","prefecture_kana":"アイチケン","city":"豊田市","city_kana":"トヨタシ","town":"城見町","town_kana":"シロミチョウ","prefecture_code":23},"0534":{"zip_code":"4700534","prefecture":"愛知県","prefecture_kana":"アイチケン","city":"豊田市","city_kana":"トヨタシ","town":"李町","town_kana":"スモモチョウ","prefecture_code":23},"0506":{"zip_code":"4700506","prefecture":"愛知県","prefecture_kana":"アイチケン","city":"豊田市","city_kana":"トヨタシ","town":"川見町","town_kana":"センミチョウ","prefecture_code":23},"1217":{"zip_code":"4701217","prefecture":"愛知県","prefecture_kana":"アイチケン","city":"豊田市","city_kana":"トヨタシ","town":"大成町","town_kana":"タイセイチョウ","prefecture_code":23},"0376":{"zip_code":"4700376","prefecture":"愛知県","prefecture_kana":"アイチケン","city":"豊田市","city_kana":"トヨタシ","town":"高町","town_kana":"タカマチ","prefecture_code":23},"0324":{"zip_code":"4700324","prefecture":"愛知県","prefecture_kana":"アイチケン","city":"豊田市","city_kana":"トヨタシ","town":"滝見町","town_kana":"タキミチョウ","prefecture_code":23},"0423":{"zip_code":"4700423","prefecture":"愛知県","prefecture_kana":"アイチケン","city":"豊田市","city_kana":"トヨタシ","town":"田茂平町","town_kana":"タモダイラチョウ","prefecture_code":23},"0354":{"zip_code":"4700354","prefecture":"愛知県","prefecture_kana":"アイチケン","city":"豊田市","city_kana":"トヨタシ","town":"田籾町","town_kana":"タモミチョウ","prefecture_code":23},"0545":{"zip_code":"4700545","prefecture":"愛知県","prefecture_kana":"アイチケン","city":"豊田市","city_kana":"トヨタシ","town":"千洗町","town_kana":"チアライチョウ","prefecture_code":23},"0318":{"zip_code":"4700318","prefecture":"愛知県","prefecture_kana":"アイチケン","city":"豊田市","city_kana":"トヨタシ","town":"力石町","town_kana":"チカライシチョウ","prefecture_code":23},"0316":{"zip_code":"4700316","prefecture":"愛知県","prefecture_kana":"アイチケン","city":"豊田市","city_kana":"トヨタシ","town":"千鳥町","town_kana":"チドリチョウ","prefecture_code":23},"0327":{"zip_code":"4700327","prefecture":"愛知県","prefecture_kana":"アイチケン","city":"豊田市","city_kana":"トヨタシ","town":"寺下町","town_kana":"テラシタチョウ","prefecture_code":23},"0544":{"zip_code":"4700544","prefecture":"愛知県","prefecture_kana":"アイチケン","city":"豊田市","city_kana":"トヨタシ","town":"寺平町","town_kana":"テラダイラチョウ","prefecture_code":23},"0325":{"zip_code":"4700325","prefecture":"愛知県","prefecture_kana":"アイチケン","city":"豊田市","city_kana":"トヨタシ","town":"手呂町","town_kana":"テロチョウ","prefecture_code":23},"0326":{"zip_code":"4700326","prefecture":"愛知県","prefecture_kana":"アイチケン","city":"豊田市","city_kana":"トヨタシ","town":"手呂町樋田","town_kana":"テロチョウトイタ","prefecture_code":23},"0512":{"zip_code":"4700512","prefecture":"愛知県","prefecture_kana":"アイチケン","city":"豊田市","city_kana":"トヨタシ","town":"東郷町","town_kana":"トウゴウチョウ","prefecture_code":23},"0535":{"zip_code":"4700535","prefecture":"愛知県","prefecture_kana":"アイチケン","city":"豊田市","city_kana":"トヨタシ","town":"百月町","town_kana":"ドウヅキチョウ","prefecture_code":23},"1202":{"zip_code":"4701202","prefecture":"愛知県","prefecture_kana":"アイチケン","city":"豊田市","city_kana":"トヨタシ","town":"渡刈町","town_kana":"トガリチョウ","prefecture_code":23},"0304":{"zip_code":"4700304","prefecture":"愛知県","prefecture_kana":"アイチケン","city":"豊田市","city_kana":"トヨタシ","town":"富田町","town_kana":"トミダチョウ","prefecture_code":23},"0312":{"zip_code":"4700312","prefecture":"愛知県","prefecture_kana":"アイチケン","city":"豊田市","city_kana":"トヨタシ","town":"中金町","town_kana":"ナカガネチョウ","prefecture_code":23},"0315":{"zip_code":"4700315","prefecture":"愛知県","prefecture_kana":"アイチケン","city":"豊田市","city_kana":"トヨタシ","town":"中切町","town_kana":"ナカギリチョウ","prefecture_code":23},"0317":{"zip_code":"4700317","prefecture":"愛知県","prefecture_kana":"アイチケン","city":"豊田市","city_kana":"トヨタシ","town":"成合町","town_kana":"ナライチョウ","prefecture_code":23},"0554":{"zip_code":"4700554","prefecture":"愛知県","prefecture_kana":"アイチケン","city":"豊田市","city_kana":"トヨタシ","town":"荷掛町","town_kana":"ニカケチョウ","prefecture_code":23},"0404":{"zip_code":"4700404","prefecture":"愛知県","prefecture_kana":"アイチケン","city":"豊田市","city_kana":"トヨタシ","town":"西市野々町","town_kana":"ニシイチノノチョウ","prefecture_code":23},"0521":{"zip_code":"4700521","prefecture":"愛知県","prefecture_kana":"アイチケン","city":"豊田市","city_kana":"トヨタシ","town":"西丹波町","town_kana":"ニシタンバチョウ","prefecture_code":23},"0431":{"zip_code":"4700431","prefecture":"愛知県","prefecture_kana":"アイチケン","city":"豊田市","city_kana":"トヨタシ","town":"西中山町","town_kana":"ニシナカヤマチョウ","prefecture_code":23},"0541":{"zip_code":"4700541","prefecture":"愛知県","prefecture_kana":"アイチケン","city":"豊田市","city_kana":"トヨタシ","town":"西萩平町","town_kana":"ニシハギノヒラチョウ","prefecture_code":23},"0309":{"zip_code":"4700309","prefecture":"愛知県","prefecture_kana":"アイチケン","city":"豊田市","city_kana":"トヨタシ","town":"西広瀬町","town_kana":"ニシヒロセチョウ","prefecture_code":23},"0526":{"zip_code":"4700526","prefecture":"愛知県","prefecture_kana":"アイチケン","city":"豊田市","city_kana":"トヨタシ","town":"西細田町","town_kana":"ニシホソダチョウ","prefecture_code":23},"0314":{"zip_code":"4700314","prefecture":"愛知県","prefecture_kana":"アイチケン","city":"豊田市","city_kana":"トヨタシ","town":"野口町","town_kana":"ノグチチョウ","prefecture_code":23},"1204":{"zip_code":"4701204","prefecture":"愛知県","prefecture_kana":"アイチケン","city":"豊田市","city_kana":"トヨタシ","town":"配津町","town_kana":"ハイヅチョウ","prefecture_code":23},"0452":{"zip_code":"4700452","prefecture":"愛知県","prefecture_kana":"アイチケン","city":"豊田市","city_kana":"トヨタシ","town":"迫町","town_kana":"ハサマチョウ","prefecture_code":23},"0334":{"zip_code":"4700334","prefecture":"愛知県","prefecture_kana":"アイチケン","city":"豊田市","city_kana":"トヨタシ","town":"花本町","town_kana":"ハナモトチョウ","prefecture_code":23},"0524":{"zip_code":"4700524","prefecture":"愛知県","prefecture_kana":"アイチケン","city":"豊田市","city_kana":"トヨタシ","town":"日面町","town_kana":"ヒオモチョウ","prefecture_code":23},"0307":{"zip_code":"4700307","prefecture":"愛知県","prefecture_kana":"アイチケン","city":"豊田市","city_kana":"トヨタシ","town":"東広瀬町","town_kana":"ヒガシヒロセチョウ","prefecture_code":23},"0345":{"zip_code":"4700345","prefecture":"愛知県","prefecture_kana":"アイチケン","city":"豊田市","city_kana":"トヨタシ","town":"東保見町","town_kana":"ヒガシホミチョウ","prefecture_code":23},"0514":{"zip_code":"4700514","prefecture":"愛知県","prefecture_kana":"アイチケン","city":"豊田市","city_kana":"トヨタシ","town":"平岩町","town_kana":"ヒライワチョウ","prefecture_code":23},"0331":{"zip_code":"4700331","prefecture":"愛知県","prefecture_kana":"アイチケン","city":"豊田市","city_kana":"トヨタシ","town":"平戸橋町","town_kana":"ヒラトバシチョウ","prefecture_code":23},"0523":{"zip_code":"4700523","prefecture":"愛知県","prefecture_kana":"アイチケン","city":"豊田市","city_kana":"トヨタシ","town":"平畑町","town_kana":"ヒラハタチョウ","prefecture_code":23},"0351":{"zip_code":"4700351","prefecture":"愛知県","prefecture_kana":"アイチケン","city":"豊田市","city_kana":"トヨタシ","town":"広幡町","town_kana":"ヒロハタチョウ","prefecture_code":23},"1215":{"zip_code":"4701215","prefecture":"愛知県","prefecture_kana":"アイチケン","city":"豊田市","city_kana":"トヨタシ","town":"広美町","town_kana":"ヒロミチョウ","prefecture_code":23},"0441":{"zip_code":"4700441","prefecture":"愛知県","prefecture_kana":"アイチケン","city":"豊田市","city_kana":"トヨタシ","town":"深見町","town_kana":"フカミチョウ","prefecture_code":23},"1214":{"zip_code":"4701214","prefecture":"愛知県","prefecture_kana":"アイチケン","city":"豊田市","city_kana":"トヨタシ","town":"福受町","town_kana":"フクジュチョウ","prefecture_code":23},"0451":{"zip_code":"4700451","prefecture":"愛知県","prefecture_kana":"アイチケン","city":"豊田市","city_kana":"トヨタシ","town":"藤岡飯野町","town_kana":"フジオカイイノチョウ","prefecture_code":23},"0302":{"zip_code":"4700302","prefecture":"愛知県","prefecture_kana":"アイチケン","city":"豊田市","city_kana":"トヨタシ","town":"藤沢町","town_kana":"フジサワチョウ","prefecture_code":23},"1201":{"zip_code":"4701201","prefecture":"愛知県","prefecture_kana":"アイチケン","city":"豊田市","city_kana":"トヨタシ","town":"豊栄町","town_kana":"ホウエイチョウ","prefecture_code":23},"0311":{"zip_code":"4700311","prefecture":"愛知県","prefecture_kana":"アイチケン","city":"豊田市","city_kana":"トヨタシ","town":"芳友町","town_kana":"ホウユウチョウ","prefecture_code":23},"0461":{"zip_code":"4700461","prefecture":"愛知県","prefecture_kana":"アイチケン","city":"豊田市","city_kana":"トヨタシ","town":"北曽木町","town_kana":"ホクソギチョウ","prefecture_code":23},"0353":{"zip_code":"4700353","prefecture":"愛知県","prefecture_kana":"アイチケン","city":"豊田市","city_kana":"トヨタシ","town":"保見ケ丘","town_kana":"ホミガオカ","prefecture_code":23},"0344":{"zip_code":"4700344","prefecture":"愛知県","prefecture_kana":"アイチケン","city":"豊田市","city_kana":"トヨタシ","town":"保見町","town_kana":"ホミチョウ","prefecture_code":23},"0363":{"zip_code":"4700363","prefecture":"愛知県","prefecture_kana":"アイチケン","city":"豊田市","city_kana":"トヨタシ","town":"本徳町","town_kana":"ホントクチョウ","prefecture_code":23},"0362":{"zip_code":"4700362","prefecture":"愛知県","prefecture_kana":"アイチケン","city":"豊田市","city_kana":"トヨタシ","town":"舞木町","town_kana":"マイギチョウ","prefecture_code":23},"0503":{"zip_code":"4700503","prefecture":"愛知県","prefecture_kana":"アイチケン","city":"豊田市","city_kana":"トヨタシ","town":"前洞町","town_kana":"マエボラチョウ","prefecture_code":23},"1212":{"zip_code":"4701212","prefecture":"愛知県","prefecture_kana":"アイチケン","city":"豊田市","city_kana":"トヨタシ","town":"桝塚東町","town_kana":"マスヅカヒガシマチ","prefecture_code":23},"1213":{"zip_code":"4701213","prefecture":"愛知県","prefecture_kana":"アイチケン","city":"豊田市","city_kana":"トヨタシ","town":"桝塚西町","town_kana":"マスヅカニシマチ","prefecture_code":23},"0571":{"zip_code":"4700571","prefecture":"愛知県","prefecture_kana":"アイチケン","city":"豊田市","city_kana":"トヨタシ","town":"松名町","town_kana":"マツナチョウ","prefecture_code":23},"0301":{"zip_code":"4700301","prefecture":"愛知県","prefecture_kana":"アイチケン","city":"豊田市","city_kana":"トヨタシ","town":"松嶺町","town_kana":"マツミネチョウ","prefecture_code":23},"0551":{"zip_code":"4700551","prefecture":"愛知県","prefecture_kana":"アイチケン","city":"豊田市","city_kana":"トヨタシ","town":"三ツ久保町","town_kana":"ミツクボチョウ","prefecture_code":23},"0424":{"zip_code":"4700424","prefecture":"愛知県","prefecture_kana":"アイチケン","city":"豊田市","city_kana":"トヨタシ","town":"御作町","town_kana":"ミツクリチョウ","prefecture_code":23},"0371":{"zip_code":"4700371","prefecture":"愛知県","prefecture_kana":"アイチケン","city":"豊田市","city_kana":"トヨタシ","town":"御船町","town_kana":"ミフネチョウ","prefecture_code":23},"0516":{"zip_code":"4700516","prefecture":"愛知県","prefecture_kana":"アイチケン","city":"豊田市","city_kana":"トヨタシ","town":"宮代町","town_kana":"ミヤシロチョウ","prefecture_code":23},"0356":{"zip_code":"4700356","prefecture":"愛知県","prefecture_kana":"アイチケン","city":"豊田市","city_kana":"トヨタシ","town":"八草町","town_kana":"ヤクサチョウ","prefecture_code":23},"0525":{"zip_code":"4700525","prefecture":"愛知県","prefecture_kana":"アイチケン","city":"豊田市","city_kana":"トヨタシ","town":"簗平町","town_kana":"ヤナダイラチョウ","prefecture_code":23},"0321":{"zip_code":"4700321","prefecture":"愛知県","prefecture_kana":"アイチケン","city":"豊田市","city_kana":"トヨタシ","town":"山中町","town_kana":"ヤマナカチョウ","prefecture_code":23},"0563":{"zip_code":"4700563","prefecture":"愛知県","prefecture_kana":"アイチケン","city":"豊田市","city_kana":"トヨタシ","town":"遊屋町","town_kana":"ユヤチョウ","prefecture_code":23},"1100":{"zip_code":"4701100","prefecture":"愛知県","prefecture_kana":"アイチケン","city":"豊明市","city_kana":"トヨアケシ","town":"","town_kana":"","prefecture_code":23},"1141":{"zip_code":"4701141","prefecture":"愛知県","prefecture_kana":"アイチケン","city":"豊明市","city_kana":"トヨアケシ","town":"阿野町","town_kana":"アノチョウ","prefecture_code":23},"1144":{"zip_code":"4701144","prefecture":"愛知県","prefecture_kana":"アイチケン","city":"豊明市","city_kana":"トヨアケシ","town":"阿野町稲葉","town_kana":"アノチョウイナバ","prefecture_code":23},"1145":{"zip_code":"4701145","prefecture":"愛知県","prefecture_kana":"アイチケン","city":"豊明市","city_kana":"トヨアケシ","town":"阿野町北上ノ山","town_kana":"アノチョウキタウエノヤマ","prefecture_code":23},"1146":{"zip_code":"4701146","prefecture":"愛知県","prefecture_kana":"アイチケン","city":"豊明市","city_kana":"トヨアケシ","town":"阿野町黒部","town_kana":"アノチョウクロベ","prefecture_code":23},"1147":{"zip_code":"4701147","prefecture":"愛知県","prefecture_kana":"アイチケン","city":"豊明市","city_kana":"トヨアケシ","town":"阿野町坂部","town_kana":"アノチョウサカベ","prefecture_code":23},"1143":{"zip_code":"4701143","prefecture":"愛知県","prefecture_kana":"アイチケン","city":"豊明市","city_kana":"トヨアケシ","town":"阿野町上納","town_kana":"アノチョウジョウノウ","prefecture_code":23},"1148":{"zip_code":"4701148","prefecture":"愛知県","prefecture_kana":"アイチケン","city":"豊明市","city_kana":"トヨアケシ","town":"阿野町滑","town_kana":"アノチョウナメリ","prefecture_code":23},"1142":{"zip_code":"4701142","prefecture":"愛知県","prefecture_kana":"アイチケン","city":"豊明市","city_kana":"トヨアケシ","town":"阿野町東阿野","town_kana":"アノチョウヒガシアノ","prefecture_code":23},"1111":{"zip_code":"4701111","prefecture":"愛知県","prefecture_kana":"アイチケン","city":"豊明市","city_kana":"トヨアケシ","town":"大久伝町","town_kana":"オオクテチョウ","prefecture_code":23},"1101":{"zip_code":"4701101","prefecture":"愛知県","prefecture_kana":"アイチケン","city":"豊明市","city_kana":"トヨアケシ","town":"沓掛町","town_kana":"クツカケチョウ","prefecture_code":23},"1108":{"zip_code":"4701108","prefecture":"愛知県","prefecture_kana":"アイチケン","city":"豊明市","city_kana":"トヨアケシ","town":"沓掛町荒井","town_kana":"クツカケチョウアライ","prefecture_code":23},"1107":{"zip_code":"4701107","prefecture":"愛知県","prefecture_kana":"アイチケン","city":"豊明市","city_kana":"トヨアケシ","town":"沓掛町泉","town_kana":"クツカケチョウイズミ","prefecture_code":23},"1105":{"zip_code":"4701105","prefecture":"愛知県","prefecture_kana":"アイチケン","city":"豊明市","city_kana":"トヨアケシ","town":"沓掛町上高根","town_kana":"クツカケチョウカミタカネ","prefecture_code":23},"1106":{"zip_code":"4701106","prefecture":"愛知県","prefecture_kana":"アイチケン","city":"豊明市","city_kana":"トヨアケシ","town":"沓掛町下高根","town_kana":"クツカケチョウシモタカネ","prefecture_code":23},"1103":{"zip_code":"4701103","prefecture":"愛知県","prefecture_kana":"アイチケン","city":"豊明市","city_kana":"トヨアケシ","town":"沓掛町小廻間","town_kana":"クツカケチョウコハザマ","prefecture_code":23},"1104":{"zip_code":"4701104","prefecture":"愛知県","prefecture_kana":"アイチケン","city":"豊明市","city_kana":"トヨアケシ","town":"沓掛町五反田","town_kana":"クツカケチョウゴタンダ","prefecture_code":23},"1109":{"zip_code":"4701109","prefecture":"愛知県","prefecture_kana":"アイチケン","city":"豊明市","city_kana":"トヨアケシ","town":"沓掛町宿","town_kana":"クツカケチョウシュク","prefecture_code":23},"1102":{"zip_code":"4701102","prefecture":"愛知県","prefecture_kana":"アイチケン","city":"豊明市","city_kana":"トヨアケシ","town":"沓掛町勅使","town_kana":"クツカケチョウチョクシ","prefecture_code":23},"1161":{"zip_code":"4701161","prefecture":"愛知県","prefecture_kana":"アイチケン","city":"豊明市","city_kana":"トヨアケシ","town":"栄町","town_kana":"サカエチョウ","prefecture_code":23},"1165":{"zip_code":"4701165","prefecture":"愛知県","prefecture_kana":"アイチケン","city":"豊明市","city_kana":"トヨアケシ","town":"栄町内山","town_kana":"サカエチョウウチヤマ","prefecture_code":23},"1163":{"zip_code":"4701163","prefecture":"愛知県","prefecture_kana":"アイチケン","city":"豊明市","city_kana":"トヨアケシ","town":"栄町姥子","town_kana":"サカエチョウウバコ","prefecture_code":23},"1164":{"zip_code":"4701164","prefecture":"愛知県","prefecture_kana":"アイチケン","city":"豊明市","city_kana":"トヨアケシ","town":"栄町大蔵下","town_kana":"サカエチョウオオグラシタ","prefecture_code":23},"1166":{"zip_code":"4701166","prefecture":"愛知県","prefecture_kana":"アイチケン","city":"豊明市","city_kana":"トヨアケシ","town":"栄町大根","town_kana":"サカエチョウオオネ","prefecture_code":23},"1162":{"zip_code":"4701162","prefecture":"愛知県","prefecture_kana":"アイチケン","city":"豊明市","city_kana":"トヨアケシ","town":"栄町上姥子","town_kana":"サカエチョウカミウバコ","prefecture_code":23},"1167":{"zip_code":"4701167","prefecture":"愛知県","prefecture_kana":"アイチケン","city":"豊明市","city_kana":"トヨアケシ","town":"栄町西大根","town_kana":"サカエチョウニシオオネ","prefecture_code":23},"1168":{"zip_code":"4701168","prefecture":"愛知県","prefecture_kana":"アイチケン","city":"豊明市","city_kana":"トヨアケシ","town":"栄町南舘","town_kana":"サカエチョウミナミヤカタ","prefecture_code":23},"1154":{"zip_code":"4701154","prefecture":"愛知県","prefecture_kana":"アイチケン","city":"豊明市","city_kana":"トヨアケシ","town":"新栄町","town_kana":"シンサカエチョウ","prefecture_code":23},"1112":{"zip_code":"4701112","prefecture":"愛知県","prefecture_kana":"アイチケン","city":"豊明市","city_kana":"トヨアケシ","town":"新田町","town_kana":"シンデンチョウ","prefecture_code":23},"1113":{"zip_code":"4701113","prefecture":"愛知県","prefecture_kana":"アイチケン","city":"豊明市","city_kana":"トヨアケシ","town":"新田町錦","town_kana":"シンデンチョウニシキ","prefecture_code":23},"1114":{"zip_code":"4701114","prefecture":"愛知県","prefecture_kana":"アイチケン","city":"豊明市","city_kana":"トヨアケシ","town":"新田町広長","town_kana":"シンデンチョウヒロナガ","prefecture_code":23},"1115":{"zip_code":"4701115","prefecture":"愛知県","prefecture_kana":"アイチケン","city":"豊明市","city_kana":"トヨアケシ","town":"新田町前原","town_kana":"シンデンチョウマエバラ","prefecture_code":23},"1116":{"zip_code":"4701116","prefecture":"愛知県","prefecture_kana":"アイチケン","city":"豊明市","city_kana":"トヨアケシ","town":"新田町吉池","town_kana":"シンデンチョウヨシイケ","prefecture_code":23},"1151":{"zip_code":"4701151","prefecture":"愛知県","prefecture_kana":"アイチケン","city":"豊明市","city_kana":"トヨアケシ","town":"前後町","town_kana":"ゼンゴチョウ","prefecture_code":23},"1152":{"zip_code":"4701152","prefecture":"愛知県","prefecture_kana":"アイチケン","city":"豊明市","city_kana":"トヨアケシ","town":"前後町仙人塚","town_kana":"ゼンゴチョウセンニンヅカ","prefecture_code":23},"1153":{"zip_code":"4701153","prefecture":"愛知県","prefecture_kana":"アイチケン","city":"豊明市","city_kana":"トヨアケシ","town":"前後町三ツ谷","town_kana":"ゼンゴチョウミツヤ","prefecture_code":23},"1121":{"zip_code":"4701121","prefecture":"愛知県","prefecture_kana":"アイチケン","city":"豊明市","city_kana":"トヨアケシ","town":"西川町","town_kana":"ニシガワチョウ","prefecture_code":23},"1122":{"zip_code":"4701122","prefecture":"愛知県","prefecture_kana":"アイチケン","city":"豊明市","city_kana":"トヨアケシ","town":"西川町長田","town_kana":"ニシガワチョウオサダ","prefecture_code":23},"1123":{"zip_code":"4701123","prefecture":"愛知県","prefecture_kana":"アイチケン","city":"豊明市","city_kana":"トヨアケシ","town":"西川町笹原","town_kana":"ニシガワチョウササハラ","prefecture_code":23},"1131":{"zip_code":"4701131","prefecture":"愛知県","prefecture_kana":"アイチケン","city":"豊明市","city_kana":"トヨアケシ","town":"二村台","town_kana":"フタムラダイ","prefecture_code":23},"1132":{"zip_code":"4701132","prefecture":"愛知県","prefecture_kana":"アイチケン","city":"豊明市","city_kana":"トヨアケシ","town":"間米町","town_kana":"マゴメチョウ","prefecture_code":23},"1133":{"zip_code":"4701133","prefecture":"愛知県","prefecture_kana":"アイチケン","city":"豊明市","city_kana":"トヨアケシ","town":"間米町鶴根","town_kana":"マゴメチョウツルネ","prefecture_code":23},"1124":{"zip_code":"4701124","prefecture":"愛知県","prefecture_kana":"アイチケン","city":"豊明市","city_kana":"トヨアケシ","town":"三崎町","town_kana":"ミサキチョウ","prefecture_code":23},"1126":{"zip_code":"4701126","prefecture":"愛知県","prefecture_kana":"アイチケン","city":"豊明市","city_kana":"トヨアケシ","town":"三崎町高鴨","town_kana":"ミサキチョウタカガモ","prefecture_code":23},"1125":{"zip_code":"4701125","prefecture":"愛知県","prefecture_kana":"アイチケン","city":"豊明市","city_kana":"トヨアケシ","town":"三崎町中ノ坪","town_kana":"ミサキチョウナカノツボ","prefecture_code":23},"1127":{"zip_code":"4701127","prefecture":"愛知県","prefecture_kana":"アイチケン","city":"豊明市","city_kana":"トヨアケシ","town":"三崎町ゆたか台","town_kana":"ミサキチョウユタカダイ","prefecture_code":23},"0100":[{"zip_code":"4700100","prefecture":"愛知県","prefecture_kana":"アイチケン","city":"日進市","city_kana":"ニッシンシ","town":"","town_kana":"","prefecture_code":23},{"zip_code":"4700100","prefecture":"愛知県","prefecture_kana":"アイチケン","city":"愛知郡東郷町","city_kana":"アイチグントウゴウチョウ","town":"","town_kana":"","prefecture_code":23}],"0125":{"zip_code":"4700125","prefecture":"愛知県","prefecture_kana":"アイチケン","city":"日進市","city_kana":"ニッシンシ","town":"赤池","town_kana":"アカイケ","prefecture_code":23},"0126":{"zip_code":"4700126","prefecture":"愛知県","prefecture_kana":"アイチケン","city":"日進市","city_kana":"ニッシンシ","town":"赤池町","town_kana":"アカイケチョウ","prefecture_code":23},"0127":{"zip_code":"4700127","prefecture":"愛知県","prefecture_kana":"アイチケン","city":"日進市","city_kana":"ニッシンシ","town":"赤池南","town_kana":"アカイケミナミ","prefecture_code":23},"0124":{"zip_code":"4700124","prefecture":"愛知県","prefecture_kana":"アイチケン","city":"日進市","city_kana":"ニッシンシ","town":"浅田町","town_kana":"アサダチョウ","prefecture_code":23},"0128":{"zip_code":"4700128","prefecture":"愛知県","prefecture_kana":"アイチケン","city":"日進市","city_kana":"ニッシンシ","town":"浅田平子","town_kana":"アサダヒラコ","prefecture_code":23},"0135":{"zip_code":"4700135","prefecture":"愛知県","prefecture_kana":"アイチケン","city":"日進市","city_kana":"ニッシンシ","town":"岩崎台","town_kana":"イワサキダイ","prefecture_code":23},"0131":{"zip_code":"4700131","prefecture":"愛知県","prefecture_kana":"アイチケン","city":"日進市","city_kana":"ニッシンシ","town":"岩崎町","town_kana":"イワサキチョウ","prefecture_code":23},"0104":{"zip_code":"4700104","prefecture":"愛知県","prefecture_kana":"アイチケン","city":"日進市","city_kana":"ニッシンシ","town":"岩藤町","town_kana":"イワフジチョウ","prefecture_code":23},"0133":{"zip_code":"4700133","prefecture":"愛知県","prefecture_kana":"アイチケン","city":"日進市","city_kana":"ニッシンシ","town":"梅森台","town_kana":"ウメモリダイ","prefecture_code":23},"0132":{"zip_code":"4700132","prefecture":"愛知県","prefecture_kana":"アイチケン","city":"日進市","city_kana":"ニッシンシ","town":"梅森町","town_kana":"ウメモリチョウ","prefecture_code":23},"0115":{"zip_code":"4700115","prefecture":"愛知県","prefecture_kana":"アイチケン","city":"日進市","city_kana":"ニッシンシ","town":"折戸町","town_kana":"オリドチョウ","prefecture_code":23},"0134":{"zip_code":"4700134","prefecture":"愛知県","prefecture_kana":"アイチケン","city":"日進市","city_kana":"ニッシンシ","town":"香久山","town_kana":"カグヤマ","prefecture_code":23},"0122":{"zip_code":"4700122","prefecture":"愛知県","prefecture_kana":"アイチケン","city":"日進市","city_kana":"ニッシンシ","town":"蟹甲町","town_kana":"カニコウチョウ","prefecture_code":23},"0103":{"zip_code":"4700103","prefecture":"愛知県","prefecture_kana":"アイチケン","city":"日進市","city_kana":"ニッシンシ","town":"北新町","town_kana":"キタシンチョウ","prefecture_code":23},"0105":{"zip_code":"4700105","prefecture":"愛知県","prefecture_kana":"アイチケン","city":"日進市","city_kana":"ニッシンシ","town":"五色園","town_kana":"ゴシキエン","prefecture_code":23},"0111":{"zip_code":"4700111","prefecture":"愛知県","prefecture_kana":"アイチケン","city":"日進市","city_kana":"ニッシンシ","town":"米野木町","town_kana":"コメノキチョウ","prefecture_code":23},"0113":{"zip_code":"4700113","prefecture":"愛知県","prefecture_kana":"アイチケン","city":"日進市","city_kana":"ニッシンシ","town":"栄","town_kana":"サカエ","prefecture_code":23},"0101":{"zip_code":"4700101","prefecture":"愛知県","prefecture_kana":"アイチケン","city":"日進市","city_kana":"ニッシンシ","town":"三本木町","town_kana":"サンボンギチョウ","prefecture_code":23},"0136":{"zip_code":"4700136","prefecture":"愛知県","prefecture_kana":"アイチケン","city":"日進市","city_kana":"ニッシンシ","town":"竹の山","town_kana":"タケノヤマ","prefecture_code":23},"0123":{"zip_code":"4700123","prefecture":"愛知県","prefecture_kana":"アイチケン","city":"日進市","city_kana":"ニッシンシ","town":"野方町","town_kana":"ノカタチョウ","prefecture_code":23},"0116":{"zip_code":"4700116","prefecture":"愛知県","prefecture_kana":"アイチケン","city":"日進市","city_kana":"ニッシンシ","town":"東山","town_kana":"ヒガシヤマ","prefecture_code":23},"0112":{"zip_code":"4700112","prefecture":"愛知県","prefecture_kana":"アイチケン","city":"日進市","city_kana":"ニッシンシ","town":"藤枝町","town_kana":"フジエダチョウ","prefecture_code":23},"0102":{"zip_code":"4700102","prefecture":"愛知県","prefecture_kana":"アイチケン","city":"日進市","city_kana":"ニッシンシ","town":"藤島町","town_kana":"フジシマチョウ","prefecture_code":23},"0117":{"zip_code":"4700117","prefecture":"愛知県","prefecture_kana":"アイチケン","city":"日進市","city_kana":"ニッシンシ","town":"藤塚","town_kana":"フジツカ","prefecture_code":23},"0121":{"zip_code":"4700121","prefecture":"愛知県","prefecture_kana":"アイチケン","city":"日進市","city_kana":"ニッシンシ","town":"本郷町","town_kana":"ホンゴウチョウ","prefecture_code":23},"0114":{"zip_code":"4700114","prefecture":"愛知県","prefecture_kana":"アイチケン","city":"日進市","city_kana":"ニッシンシ","town":"南ケ丘","town_kana":"ミナミガオカ","prefecture_code":23},"0200":{"zip_code":"4700200","prefecture":"愛知県","prefecture_kana":"アイチケン","city":"みよし市","city_kana":"ミヨシシ","town":"","town_kana":"","prefecture_code":23},"0206":{"zip_code":"4700206","prefecture":"愛知県","prefecture_kana":"アイチケン","city":"みよし市","city_kana":"ミヨシシ","town":"莇生町","town_kana":"アザブチョウ","prefecture_code":23},"0207":{"zip_code":"4700207","prefecture":"愛知県","prefecture_kana":"アイチケン","city":"みよし市","city_kana":"ミヨシシ","town":"福谷町","town_kana":"ウキガイチョウ","prefecture_code":23},"0213":{"zip_code":"4700213","prefecture":"愛知県","prefecture_kana":"アイチケン","city":"みよし市","city_kana":"ミヨシシ","town":"打越町","town_kana":"ウチコシチョウ","prefecture_code":23},"0231":{"zip_code":"4700231","prefecture":"愛知県","prefecture_kana":"アイチケン","city":"みよし市","city_kana":"ミヨシシ","town":"黒笹","town_kana":"クロザサ","prefecture_code":23},"0232":{"zip_code":"4700232","prefecture":"愛知県","prefecture_kana":"アイチケン","city":"みよし市","city_kana":"ミヨシシ","town":"黒笹いずみ","town_kana":"クロザサイズミ","prefecture_code":23},"0201":{"zip_code":"4700201","prefecture":"愛知県","prefecture_kana":"アイチケン","city":"みよし市","city_kana":"ミヨシシ","town":"黒笹町","town_kana":"クロザサチョウ","prefecture_code":23},"0209":{"zip_code":"4700209","prefecture":"愛知県","prefecture_kana":"アイチケン","city":"みよし市","city_kana":"ミヨシシ","town":"潮見","town_kana":"シオミ","prefecture_code":23},"0227":{"zip_code":"4700227","prefecture":"愛知県","prefecture_kana":"アイチケン","city":"みよし市","city_kana":"ミヨシシ","town":"園原","town_kana":"ソノハラ","prefecture_code":23},"0211":{"zip_code":"4700211","prefecture":"愛知県","prefecture_kana":"アイチケン","city":"みよし市","city_kana":"ミヨシシ","town":"天王台","town_kana":"テンノウダイ","prefecture_code":23},"0226":{"zip_code":"4700226","prefecture":"愛知県","prefecture_kana":"アイチケン","city":"みよし市","city_kana":"ミヨシシ","town":"西一色町","town_kana":"ニシイシキチョウ","prefecture_code":23},"0221":{"zip_code":"4700221","prefecture":"愛知県","prefecture_kana":"アイチケン","city":"みよし市","city_kana":"ミヨシシ","town":"西陣取山","town_kana":"ニシジントリヤマ","prefecture_code":23},"0217":{"zip_code":"4700217","prefecture":"愛知県","prefecture_kana":"アイチケン","city":"みよし市","city_kana":"ミヨシシ","town":"根浦町","town_kana":"ネウラマチ","prefecture_code":23},"0222":{"zip_code":"4700222","prefecture":"愛知県","prefecture_kana":"アイチケン","city":"みよし市","city_kana":"ミヨシシ","town":"東陣取山","town_kana":"ヒガシジントリヤマ","prefecture_code":23},"0223":{"zip_code":"4700223","prefecture":"愛知県","prefecture_kana":"アイチケン","city":"みよし市","city_kana":"ミヨシシ","town":"東蜂ヶ池","town_kana":"ヒガシハチガイケ","prefecture_code":23},"0212":{"zip_code":"4700212","prefecture":"愛知県","prefecture_kana":"アイチケン","city":"みよし市","city_kana":"ミヨシシ","town":"東山台","town_kana":"ヒガシヤマダイ","prefecture_code":23},"0208":{"zip_code":"4700208","prefecture":"愛知県","prefecture_kana":"アイチケン","city":"みよし市","city_kana":"ミヨシシ","town":"ひばりヶ丘","town_kana":"ヒバリガオカ","prefecture_code":23},"0225":{"zip_code":"4700225","prefecture":"愛知県","prefecture_kana":"アイチケン","city":"みよし市","city_kana":"ミヨシシ","town":"福田町","town_kana":"フクタチョウ","prefecture_code":23},"0216":{"zip_code":"4700216","prefecture":"愛知県","prefecture_kana":"アイチケン","city":"みよし市","city_kana":"ミヨシシ","town":"南台","town_kana":"ミナミダイ","prefecture_code":23},"0215":{"zip_code":"4700215","prefecture":"愛知県","prefecture_kana":"アイチケン","city":"みよし市","city_kana":"ミヨシシ","town":"みなよし台","town_kana":"ミナヨシダイ","prefecture_code":23},"0214":{"zip_code":"4700214","prefecture":"愛知県","prefecture_kana":"アイチケン","city":"みよし市","city_kana":"ミヨシシ","town":"明知町","town_kana":"ミョウチチョウ","prefecture_code":23},"0202":{"zip_code":"4700202","prefecture":"愛知県","prefecture_kana":"アイチケン","city":"みよし市","city_kana":"ミヨシシ","town":"三好丘","town_kana":"ミヨシガオカ","prefecture_code":23},"0233":{"zip_code":"4700233","prefecture":"愛知県","prefecture_kana":"アイチケン","city":"みよし市","city_kana":"ミヨシシ","town":"三好丘あおば","town_kana":"ミヨシガオカアオバ","prefecture_code":23},"0203":{"zip_code":"4700203","prefecture":"愛知県","prefecture_kana":"アイチケン","city":"みよし市","city_kana":"ミヨシシ","town":"三好丘旭","town_kana":"ミヨシガオカアサヒ","prefecture_code":23},"0204":{"zip_code":"4700204","prefecture":"愛知県","prefecture_kana":"アイチケン","city":"みよし市","city_kana":"ミヨシシ","town":"三好丘桜","town_kana":"ミヨシガオカサクラ","prefecture_code":23},"0205":{"zip_code":"4700205","prefecture":"愛知県","prefecture_kana":"アイチケン","city":"みよし市","city_kana":"ミヨシシ","town":"三好丘緑","town_kana":"ミヨシガオカミドリ","prefecture_code":23},"0224":{"zip_code":"4700224","prefecture":"愛知県","prefecture_kana":"アイチケン","city":"みよし市","city_kana":"ミヨシシ","town":"三好町","town_kana":"ミヨシチョウ","prefecture_code":23},"0152":{"zip_code":"4700152","prefecture":"愛知県","prefecture_kana":"アイチケン","city":"愛知郡東郷町","city_kana":"アイチグントウゴウチョウ","town":"北山台","town_kana":"キタヤマダイ","prefecture_code":23},"0155":{"zip_code":"4700155","prefecture":"愛知県","prefecture_kana":"アイチケン","city":"愛知郡東郷町","city_kana":"アイチグントウゴウチョウ","town":"白鳥","town_kana":"シラトリ","prefecture_code":23},"0165":{"zip_code":"4700165","prefecture":"愛知県","prefecture_kana":"アイチケン","city":"愛知郡東郷町","city_kana":"アイチグントウゴウチョウ","town":"清水","town_kana":"シミズ","prefecture_code":23},"0163":{"zip_code":"4700163","prefecture":"愛知県","prefecture_kana":"アイチケン","city":"愛知郡東郷町","city_kana":"アイチグントウゴウチョウ","town":"涼松","town_kana":"スズミマツ","prefecture_code":23},"0162":{"zip_code":"4700162","prefecture":"愛知県","prefecture_kana":"アイチケン","city":"愛知郡東郷町","city_kana":"アイチグントウゴウチョウ","town":"春木","town_kana":"ハルキ","prefecture_code":23},"0161":{"zip_code":"4700161","prefecture":"愛知県","prefecture_kana":"アイチケン","city":"愛知郡東郷町","city_kana":"アイチグントウゴウチョウ","town":"春木台","town_kana":"ハルキダイ","prefecture_code":23},"0166":{"zip_code":"4700166","prefecture":"愛知県","prefecture_kana":"アイチケン","city":"愛知郡東郷町","city_kana":"アイチグントウゴウチョウ","town":"兵庫","town_kana":"ヒョウゴ","prefecture_code":23},"0156":{"zip_code":"4700156","prefecture":"愛知県","prefecture_kana":"アイチケン","city":"愛知郡東郷町","city_kana":"アイチグントウゴウチョウ","town":"御岳","town_kana":"ミタケ","prefecture_code":23},"0164":{"zip_code":"4700164","prefecture":"愛知県","prefecture_kana":"アイチケン","city":"愛知郡東郷町","city_kana":"アイチグントウゴウチョウ","town":"三ツ池","town_kana":"ミツイケ","prefecture_code":23},"0151":{"zip_code":"4700151","prefecture":"愛知県","prefecture_kana":"アイチケン","city":"愛知郡東郷町","city_kana":"アイチグントウゴウチョウ","town":"諸輪","town_kana":"モロワ","prefecture_code":23},"0153":{"zip_code":"4700153","prefecture":"愛知県","prefecture_kana":"アイチケン","city":"愛知郡東郷町","city_kana":"アイチグントウゴウチョウ","town":"和合","town_kana":"ワゴウ","prefecture_code":23},"0154":{"zip_code":"4700154","prefecture":"愛知県","prefecture_kana":"アイチケン","city":"愛知郡東郷町","city_kana":"アイチグントウゴウチョウ","town":"和合ケ丘","town_kana":"ワゴウガオカ","prefecture_code":23},"2200":{"zip_code":"4702200","prefecture":"愛知県","prefecture_kana":"アイチケン","city":"知多郡阿久比町","city_kana":"チタグンアグイチョウ","town":"","town_kana":"","prefecture_code":23},"2213":{"zip_code":"4702213","prefecture":"愛知県","prefecture_kana":"アイチケン","city":"知多郡阿久比町","city_kana":"チタグンアグイチョウ","town":"阿久比","town_kana":"アグイ","prefecture_code":23},"2203":{"zip_code":"4702203","prefecture":"愛知県","prefecture_kana":"アイチケン","city":"知多郡阿久比町","city_kana":"チタグンアグイチョウ","town":"板山","town_kana":"イタヤマ","prefecture_code":23},"2216":{"zip_code":"4702216","prefecture":"愛知県","prefecture_kana":"アイチケン","city":"知多郡阿久比町","city_kana":"チタグンアグイチョウ","town":"植大","town_kana":"ウエダイ","prefecture_code":23},"2212":{"zip_code":"4702212","prefecture":"愛知県","prefecture_kana":"アイチケン","city":"知多郡阿久比町","city_kana":"チタグンアグイチョウ","town":"卯坂","town_kana":"ウサカ","prefecture_code":23},"2217":{"zip_code":"4702217","prefecture":"愛知県","prefecture_kana":"アイチケン","city":"知多郡阿久比町","city_kana":"チタグンアグイチョウ","town":"卯坂南","town_kana":"ウサカミナミ","prefecture_code":23},"2211":{"zip_code":"4702211","prefecture":"愛知県","prefecture_kana":"アイチケン","city":"知多郡阿久比町","city_kana":"チタグンアグイチョウ","town":"草木","town_kana":"クサギ","prefecture_code":23},"2201":{"zip_code":"4702201","prefecture":"愛知県","prefecture_kana":"アイチケン","city":"知多郡阿久比町","city_kana":"チタグンアグイチョウ","town":"白沢","town_kana":"シラサワ","prefecture_code":23},"2205":{"zip_code":"4702205","prefecture":"愛知県","prefecture_kana":"アイチケン","city":"知多郡阿久比町","city_kana":"チタグンアグイチョウ","town":"萩","town_kana":"ハギ","prefecture_code":23},"2207":{"zip_code":"4702207","prefecture":"愛知県","prefecture_kana":"アイチケン","city":"知多郡阿久比町","city_kana":"チタグンアグイチョウ","town":"陽なたの丘","town_kana":"ヒナタノオカ","prefecture_code":23},"2202":{"zip_code":"4702202","prefecture":"愛知県","prefecture_kana":"アイチケン","city":"知多郡阿久比町","city_kana":"チタグンアグイチョウ","town":"福住","town_kana":"フクスミ","prefecture_code":23},"2204":{"zip_code":"4702204","prefecture":"愛知県","prefecture_kana":"アイチケン","city":"知多郡阿久比町","city_kana":"チタグンアグイチョウ","town":"宮津","town_kana":"ミヤヅ","prefecture_code":23},"2214":{"zip_code":"4702214","prefecture":"愛知県","prefecture_kana":"アイチケン","city":"知多郡阿久比町","city_kana":"チタグンアグイチョウ","town":"椋岡","town_kana":"ムクオカ","prefecture_code":23},"2215":{"zip_code":"4702215","prefecture":"愛知県","prefecture_kana":"アイチケン","city":"知多郡阿久比町","city_kana":"チタグンアグイチョウ","town":"矢高","town_kana":"ヤタカ","prefecture_code":23},"2206":{"zip_code":"4702206","prefecture":"愛知県","prefecture_kana":"アイチケン","city":"知多郡阿久比町","city_kana":"チタグンアグイチョウ","town":"横松","town_kana":"ヨコマツ","prefecture_code":23},"2100":{"zip_code":"4702100","prefecture":"愛知県","prefecture_kana":"アイチケン","city":"知多郡東浦町","city_kana":"チタグンヒガシウラチョウ","town":"","town_kana":"","prefecture_code":23},"2104":{"zip_code":"4702104","prefecture":"愛知県","prefecture_kana":"アイチケン","city":"知多郡東浦町","city_kana":"チタグンヒガシウラチョウ","town":"生路","town_kana":"イクジ","prefecture_code":23},"2103":{"zip_code":"4702103","prefecture":"愛知県","prefecture_kana":"アイチケン","city":"知多郡東浦町","city_kana":"チタグンヒガシウラチョウ","town":"石浜","town_kana":"イシハマ","prefecture_code":23},"2102":{"zip_code":"4702102","prefecture":"愛知県","prefecture_kana":"アイチケン","city":"知多郡東浦町","city_kana":"チタグンヒガシウラチョウ","town":"緒川","town_kana":"オガワ","prefecture_code":23},"2105":{"zip_code":"4702105","prefecture":"愛知県","prefecture_kana":"アイチケン","city":"知多郡東浦町","city_kana":"チタグンヒガシウラチョウ","town":"藤江","town_kana":"フジエ","prefecture_code":23},"2101":{"zip_code":"4702101","prefecture":"愛知県","prefecture_kana":"アイチケン","city":"知多郡東浦町","city_kana":"チタグンヒガシウラチョウ","town":"森岡","town_kana":"モリオカ","prefecture_code":23},"3300":{"zip_code":"4703300","prefecture":"愛知県","prefecture_kana":"アイチケン","city":"知多郡南知多町","city_kana":"チタグンミナミチタチョウ","town":"","town_kana":"","prefecture_code":23},"3321":{"zip_code":"4703321","prefecture":"愛知県","prefecture_kana":"アイチケン","city":"知多郡南知多町","city_kana":"チタグンミナミチタチョウ","town":"内海","town_kana":"ウツミ","prefecture_code":23},"3501":{"zip_code":"4703501","prefecture":"愛知県","prefecture_kana":"アイチケン","city":"知多郡南知多町","city_kana":"チタグンミナミチタチョウ","town":"大井","town_kana":"オオイ","prefecture_code":23},"3502":{"zip_code":"4703502","prefecture":"愛知県","prefecture_kana":"アイチケン","city":"知多郡南知多町","city_kana":"チタグンミナミチタチョウ","town":"片名","town_kana":"カタナ","prefecture_code":23},"3505":{"zip_code":"4703505","prefecture":"愛知県","prefecture_kana":"アイチケン","city":"知多郡南知多町","city_kana":"チタグンミナミチタチョウ","town":"篠島","town_kana":"シノジマ","prefecture_code":23},"3411":{"zip_code":"4703411","prefecture":"愛知県","prefecture_kana":"アイチケン","city":"知多郡南知多町","city_kana":"チタグンミナミチタチョウ","town":"豊丘","town_kana":"トヨオカ","prefecture_code":23},"3412":{"zip_code":"4703412","prefecture":"愛知県","prefecture_kana":"アイチケン","city":"知多郡南知多町","city_kana":"チタグンミナミチタチョウ","town":"豊浜","town_kana":"トヨハマ","prefecture_code":23},"3504":{"zip_code":"4703504","prefecture":"愛知県","prefecture_kana":"アイチケン","city":"知多郡南知多町","city_kana":"チタグンミナミチタチョウ","town":"日間賀島","town_kana":"ヒマカジマ","prefecture_code":23},"3503":{"zip_code":"4703503","prefecture":"愛知県","prefecture_kana":"アイチケン","city":"知多郡南知多町","city_kana":"チタグンミナミチタチョウ","town":"師崎","town_kana":"モロザキ","prefecture_code":23},"3322":{"zip_code":"4703322","prefecture":"愛知県","prefecture_kana":"アイチケン","city":"知多郡南知多町","city_kana":"チタグンミナミチタチョウ","town":"山海","town_kana":"ヤマミ","prefecture_code":23},"3200":{"zip_code":"4703200","prefecture":"愛知県","prefecture_kana":"アイチケン","city":"知多郡美浜町","city_kana":"チタグンミハマチョウ","town":"","town_kana":"","prefecture_code":23},"2412":{"zip_code":"4702412","prefecture":"愛知県","prefecture_kana":"アイチケン","city":"知多郡美浜町","city_kana":"チタグンミハマチョウ","town":"浦戸","town_kana":"ウラト","prefecture_code":23},"3233":{"zip_code":"4703233","prefecture":"愛知県","prefecture_kana":"アイチケン","city":"知多郡美浜町","city_kana":"チタグンミハマチョウ","town":"奥田","town_kana":"オクダ","prefecture_code":23},"3236":{"zip_code":"4703236","prefecture":"愛知県","prefecture_kana":"アイチケン","city":"知多郡美浜町","city_kana":"チタグンミハマチョウ","town":"小野浦","town_kana":"オノウラ","prefecture_code":23},"3231":{"zip_code":"4703231","prefecture":"愛知県","prefecture_kana":"アイチケン","city":"知多郡美浜町","city_kana":"チタグンミハマチョウ","town":"上野間","town_kana":"カミノマ","prefecture_code":23},"2403":{"zip_code":"4702403","prefecture":"愛知県","prefecture_kana":"アイチケン","city":"知多郡美浜町","city_kana":"チタグンミハマチョウ","town":"北方","town_kana":"キタガタ","prefecture_code":23},"2413":{"zip_code":"4702413","prefecture":"愛知県","prefecture_kana":"アイチケン","city":"知多郡美浜町","city_kana":"チタグンミハマチョウ","town":"古布","town_kana":"コウ","prefecture_code":23},"2404":{"zip_code":"4702404","prefecture":"愛知県","prefecture_kana":"アイチケン","city":"知多郡美浜町","city_kana":"チタグンミハマチョウ","town":"河和","town_kana":"コウワ","prefecture_code":23},"2409":{"zip_code":"4702409","prefecture":"愛知県","prefecture_kana":"アイチケン","city":"知多郡美浜町","city_kana":"チタグンミハマチョウ","town":"河和上前田","town_kana":"コウワカミマエダ","prefecture_code":23},"2406":{"zip_code":"4702406","prefecture":"愛知県","prefecture_kana":"アイチケン","city":"知多郡美浜町","city_kana":"チタグンミハマチョウ","town":"河和北田面","town_kana":"コウワキタダメン","prefecture_code":23},"2407":{"zip_code":"4702407","prefecture":"愛知県","prefecture_kana":"アイチケン","city":"知多郡美浜町","city_kana":"チタグンミハマチョウ","town":"河和北屋敷","town_kana":"コウワキタヤシキ","prefecture_code":23},"2408":{"zip_code":"4702408","prefecture":"愛知県","prefecture_kana":"アイチケン","city":"知多郡美浜町","city_kana":"チタグンミハマチョウ","town":"河和南屋敷","town_kana":"コウワミナミヤシキ","prefecture_code":23},"2405":{"zip_code":"4702405","prefecture":"愛知県","prefecture_kana":"アイチケン","city":"知多郡美浜町","city_kana":"チタグンミハマチョウ","town":"河和台","town_kana":"コウワダイ","prefecture_code":23},"2411":{"zip_code":"4702411","prefecture":"愛知県","prefecture_kana":"アイチケン","city":"知多郡美浜町","city_kana":"チタグンミハマチョウ","town":"新浦戸","town_kana":"シンウラト","prefecture_code":23},"3234":{"zip_code":"4703234","prefecture":"愛知県","prefecture_kana":"アイチケン","city":"知多郡美浜町","city_kana":"チタグンミハマチョウ","town":"新栄","town_kana":"シンサカエ","prefecture_code":23},"2402":{"zip_code":"4702402","prefecture":"愛知県","prefecture_kana":"アイチケン","city":"知多郡美浜町","city_kana":"チタグンミハマチョウ","town":"時志","town_kana":"トキシ","prefecture_code":23},"2414":{"zip_code":"4702414","prefecture":"愛知県","prefecture_kana":"アイチケン","city":"知多郡美浜町","city_kana":"チタグンミハマチョウ","town":"豊丘","town_kana":"トヨオカ","prefecture_code":23},"3235":{"zip_code":"4703235","prefecture":"愛知県","prefecture_kana":"アイチケン","city":"知多郡美浜町","city_kana":"チタグンミハマチョウ","town":"野間","town_kana":"ノマ","prefecture_code":23},"2401":{"zip_code":"4702401","prefecture":"愛知県","prefecture_kana":"アイチケン","city":"知多郡美浜町","city_kana":"チタグンミハマチョウ","town":"布土","town_kana":"フット","prefecture_code":23},"3232":{"zip_code":"4703232","prefecture":"愛知県","prefecture_kana":"アイチケン","city":"知多郡美浜町","city_kana":"チタグンミハマチョウ","town":"美浜緑苑","town_kana":"ミハマリョクエン","prefecture_code":23},"2300":{"zip_code":"4702300","prefecture":"愛知県","prefecture_kana":"アイチケン","city":"知多郡武豊町","city_kana":"チタグンタケトヨチョウ","town":"","town_kana":"","prefecture_code":23},"2384":{"zip_code":"4702384","prefecture":"愛知県","prefecture_kana":"アイチケン","city":"知多郡武豊町","city_kana":"チタグンタケトヨチョウ","town":"青木ケ丘","town_kana":"アオキガオカ","prefecture_code":23},"2332":{"zip_code":"4702332","prefecture":"愛知県","prefecture_kana":"アイチケン","city":"知多郡武豊町","city_kana":"チタグンタケトヨチョウ","town":"上ケ","town_kana":"アゲ","prefecture_code":23},"2514":{"zip_code":"4702514","prefecture":"愛知県","prefecture_kana":"アイチケン","city":"知多郡武豊町","city_kana":"チタグンタケトヨチョウ","town":"旭","town_kana":"アサヒ","prefecture_code":23},"2363":{"zip_code":"4702363","prefecture":"愛知県","prefecture_kana":"アイチケン","city":"知多郡武豊町","city_kana":"チタグンタケトヨチョウ","town":"旭ケ丘","town_kana":"アサヒガオカ","prefecture_code":23},"2314":{"zip_code":"4702314","prefecture":"愛知県","prefecture_kana":"アイチケン","city":"知多郡武豊町","city_kana":"チタグンタケトヨチョウ","town":"浅水","town_kana":"アサミズ","prefecture_code":23},"2329":{"zip_code":"4702329","prefecture":"愛知県","prefecture_kana":"アイチケン","city":"知多郡武豊町","city_kana":"チタグンタケトヨチョウ","town":"池田","town_kana":"イケダ","prefecture_code":23},"2311":{"zip_code":"4702311","prefecture":"愛知県","prefecture_kana":"アイチケン","city":"知多郡武豊町","city_kana":"チタグンタケトヨチョウ","town":"石川","town_kana":"イシカワ","prefecture_code":23},"2551":{"zip_code":"4702551","prefecture":"愛知県","prefecture_kana":"アイチケン","city":"知多郡武豊町","city_kana":"チタグンタケトヨチョウ","town":"石田","town_kana":"イシダ","prefecture_code":23},"2513":{"zip_code":"4702513","prefecture":"愛知県","prefecture_kana":"アイチケン","city":"知多郡武豊町","city_kana":"チタグンタケトヨチョウ","town":"一号地","town_kana":"イチゴウチ","prefecture_code":23},"2301":{"zip_code":"4702301","prefecture":"愛知県","prefecture_kana":"アイチケン","city":"知多郡武豊町","city_kana":"チタグンタケトヨチョウ","town":"壱町田","town_kana":"イッチョウダ","prefecture_code":23},"2506":{"zip_code":"4702506","prefecture":"愛知県","prefecture_kana":"アイチケン","city":"知多郡武豊町","city_kana":"チタグンタケトヨチョウ","town":"後田","town_kana":"ウシロダ","prefecture_code":23},"2503":{"zip_code":"4702503","prefecture":"愛知県","prefecture_kana":"アイチケン","city":"知多郡武豊町","city_kana":"チタグンタケトヨチョウ","town":"後畑","town_kana":"ウシロバタ","prefecture_code":23},"2324":{"zip_code":"4702324","prefecture":"愛知県","prefecture_kana":"アイチケン","city":"知多郡武豊町","city_kana":"チタグンタケトヨチョウ","town":"内鉋","town_kana":"ウチカンナ","prefecture_code":23},"2377":{"zip_code":"4702377","prefecture":"愛知県","prefecture_kana":"アイチケン","city":"知多郡武豊町","city_kana":"チタグンタケトヨチョウ","town":"会下","town_kana":"エゲ","prefecture_code":23},"2337":{"zip_code":"4702337","prefecture":"愛知県","prefecture_kana":"アイチケン","city":"知多郡武豊町","city_kana":"チタグンタケトヨチョウ","town":"ヱケ屋敷","town_kana":"エゲヤシキ","prefecture_code":23},"2366":{"zip_code":"4702366","prefecture":"愛知県","prefecture_kana":"アイチケン","city":"知多郡武豊町","city_kana":"チタグンタケトヨチョウ","town":"ヲヲガケ","town_kana":"オオガケ","prefecture_code":23},"2543":{"zip_code":"4702543","prefecture":"愛知県","prefecture_kana":"アイチケン","city":"知多郡武豊町","city_kana":"チタグンタケトヨチョウ","town":"大屋敷","town_kana":"オオヤシキ","prefecture_code":23},"2344":{"zip_code":"4702344","prefecture":"愛知県","prefecture_kana":"アイチケン","city":"知多郡武豊町","city_kana":"チタグンタケトヨチョウ","town":"金下","town_kana":"カナゲ","prefecture_code":23},"2302":{"zip_code":"4702302","prefecture":"愛知県","prefecture_kana":"アイチケン","city":"知多郡武豊町","city_kana":"チタグンタケトヨチョウ","town":"鹿ノ子田","town_kana":"カノコダ","prefecture_code":23},"2364":{"zip_code":"4702364","prefecture":"愛知県","prefecture_kana":"アイチケン","city":"知多郡武豊町","city_kana":"チタグンタケトヨチョウ","town":"上起","town_kana":"カミオコシ","prefecture_code":23},"2376":{"zip_code":"4702376","prefecture":"愛知県","prefecture_kana":"アイチケン","city":"知多郡武豊町","city_kana":"チタグンタケトヨチョウ","town":"上原","town_kana":"カミハラ","prefecture_code":23},"2387":{"zip_code":"4702387","prefecture":"愛知県","prefecture_kana":"アイチケン","city":"知多郡武豊町","city_kana":"チタグンタケトヨチョウ","town":"上山","town_kana":"カミヤマ","prefecture_code":23},"2306":{"zip_code":"4702306","prefecture":"愛知県","prefecture_kana":"アイチケン","city":"知多郡武豊町","city_kana":"チタグンタケトヨチョウ","town":"上山ノ田","town_kana":"カミヤマノタ","prefecture_code":23},"2354":{"zip_code":"4702354","prefecture":"愛知県","prefecture_kana":"アイチケン","city":"知多郡武豊町","city_kana":"チタグンタケトヨチョウ","town":"川尻","town_kana":"カワジリ","prefecture_code":23},"2508":{"zip_code":"4702508","prefecture":"愛知県","prefecture_kana":"アイチケン","city":"知多郡武豊町","city_kana":"チタグンタケトヨチョウ","town":"川脇","town_kana":"カワワキ","prefecture_code":23},"2312":{"zip_code":"4702312","prefecture":"愛知県","prefecture_kana":"アイチケン","city":"知多郡武豊町","city_kana":"チタグンタケトヨチョウ","town":"北曲輪","town_kana":"キタグルワ","prefecture_code":23},"2379":{"zip_code":"4702379","prefecture":"愛知県","prefecture_kana":"アイチケン","city":"知多郡武豊町","city_kana":"チタグンタケトヨチョウ","town":"北小松谷","town_kana":"キタコマツダニ","prefecture_code":23},"2547":{"zip_code":"4702547","prefecture":"愛知県","prefecture_kana":"アイチケン","city":"知多郡武豊町","city_kana":"チタグンタケトヨチョウ","town":"北新田","town_kana":"キタシンデン","prefecture_code":23},"2385":{"zip_code":"4702385","prefecture":"愛知県","prefecture_kana":"アイチケン","city":"知多郡武豊町","city_kana":"チタグンタケトヨチョウ","town":"北中根","town_kana":"キタナカネ","prefecture_code":23},"2383":{"zip_code":"4702383","prefecture":"愛知県","prefecture_kana":"アイチケン","city":"知多郡武豊町","city_kana":"チタグンタケトヨチョウ","town":"北長宗","town_kana":"キタナガムネ","prefecture_code":23},"2313":{"zip_code":"4702313","prefecture":"愛知県","prefecture_kana":"アイチケン","city":"知多郡武豊町","city_kana":"チタグンタケトヨチョウ","town":"九号地","town_kana":"キュウゴウチ","prefecture_code":23},"2552":{"zip_code":"4702552","prefecture":"愛知県","prefecture_kana":"アイチケン","city":"知多郡武豊町","city_kana":"チタグンタケトヨチョウ","town":"草口","town_kana":"クサグチ","prefecture_code":23},"2358":{"zip_code":"4702358","prefecture":"愛知県","prefecture_kana":"アイチケン","city":"知多郡武豊町","city_kana":"チタグンタケトヨチョウ","town":"楠","town_kana":"クスノキ","prefecture_code":23},"2323":{"zip_code":"4702323","prefecture":"愛知県","prefecture_kana":"アイチケン","city":"知多郡武豊町","city_kana":"チタグンタケトヨチョウ","town":"口田","town_kana":"クチダ","prefecture_code":23},"2504":{"zip_code":"4702504","prefecture":"愛知県","prefecture_kana":"アイチケン","city":"知多郡武豊町","city_kana":"チタグンタケトヨチョウ","town":"熊野","town_kana":"クマノ","prefecture_code":23},"2357":{"zip_code":"4702357","prefecture":"愛知県","prefecture_kana":"アイチケン","city":"知多郡武豊町","city_kana":"チタグンタケトヨチョウ","town":"向陽","town_kana":"コウヨウ","prefecture_code":23},"2341":{"zip_code":"4702341","prefecture":"愛知県","prefecture_kana":"アイチケン","city":"知多郡武豊町","city_kana":"チタグンタケトヨチョウ","town":"五号地","town_kana":"ゴゴウチ","prefecture_code":23},"2343":{"zip_code":"4702343","prefecture":"愛知県","prefecture_kana":"アイチケン","city":"知多郡武豊町","city_kana":"チタグンタケトヨチョウ","town":"小迎","town_kana":"コムカエ","prefecture_code":23},"2359":{"zip_code":"4702359","prefecture":"愛知県","prefecture_kana":"アイチケン","city":"知多郡武豊町","city_kana":"チタグンタケトヨチョウ","town":"桜ケ丘","town_kana":"サクラガオカ","prefecture_code":23},"2544":{"zip_code":"4702544","prefecture":"愛知県","prefecture_kana":"アイチケン","city":"知多郡武豊町","city_kana":"チタグンタケトヨチョウ","town":"里中","town_kana":"サトナカ","prefecture_code":23},"2342":{"zip_code":"4702342","prefecture":"愛知県","prefecture_kana":"アイチケン","city":"知多郡武豊町","city_kana":"チタグンタケトヨチョウ","town":"沢田新田","town_kana":"サワダシンデン","prefecture_code":23},"2322":{"zip_code":"4702322","prefecture":"愛知県","prefecture_kana":"アイチケン","city":"知多郡武豊町","city_kana":"チタグンタケトヨチョウ","town":"塩田","town_kana":"シオタ","prefecture_code":23},"2339":{"zip_code":"4702339","prefecture":"愛知県","prefecture_kana":"アイチケン","city":"知多郡武豊町","city_kana":"チタグンタケトヨチョウ","town":"下門","town_kana":"シタモン","prefecture_code":23},"2373":{"zip_code":"4702373","prefecture":"愛知県","prefecture_kana":"アイチケン","city":"知多郡武豊町","city_kana":"チタグンタケトヨチョウ","town":"嶋田","town_kana":"シマダ","prefecture_code":23},"2356":{"zip_code":"4702356","prefecture":"愛知県","prefecture_kana":"アイチケン","city":"知多郡武豊町","city_kana":"チタグンタケトヨチョウ","town":"下起","town_kana":"シモオコシ","prefecture_code":23},"2515":{"zip_code":"4702515","prefecture":"愛知県","prefecture_kana":"アイチケン","city":"知多郡武豊町","city_kana":"チタグンタケトヨチョウ","town":"下田","town_kana":"シモダ","prefecture_code":23},"2371":{"zip_code":"4702371","prefecture":"愛知県","prefecture_kana":"アイチケン","city":"知多郡武豊町","city_kana":"チタグンタケトヨチョウ","town":"下原","town_kana":"シモハラ","prefecture_code":23},"2305":{"zip_code":"4702305","prefecture":"愛知県","prefecture_kana":"アイチケン","city":"知多郡武豊町","city_kana":"チタグンタケトヨチョウ","town":"下山ノ田","town_kana":"シモヤマノタ","prefecture_code":23},"2317":{"zip_code":"4702317","prefecture":"愛知県","prefecture_kana":"アイチケン","city":"知多郡武豊町","city_kana":"チタグンタケトヨチョウ","town":"砂川","town_kana":"スナガワ","prefecture_code":23},"2348":{"zip_code":"4702348","prefecture":"愛知県","prefecture_kana":"アイチケン","city":"知多郡武豊町","city_kana":"チタグンタケトヨチョウ","town":"瀬木","town_kana":"セギ","prefecture_code":23},"2555":{"zip_code":"4702555","prefecture":"愛知県","prefecture_kana":"アイチケン","city":"知多郡武豊町","city_kana":"チタグンタケトヨチョウ","town":"大門田","town_kana":"ダイモンダ","prefecture_code":23},"2361":{"zip_code":"4702361","prefecture":"愛知県","prefecture_kana":"アイチケン","city":"知多郡武豊町","city_kana":"チタグンタケトヨチョウ","town":"多賀","town_kana":"タガ","prefecture_code":23},"2333":{"zip_code":"4702333","prefecture":"愛知県","prefecture_kana":"アイチケン","city":"知多郡武豊町","city_kana":"チタグンタケトヨチョウ","town":"高野前","town_kana":"タカノマエ","prefecture_code":23},"2505":{"zip_code":"4702505","prefecture":"愛知県","prefecture_kana":"アイチケン","city":"知多郡武豊町","city_kana":"チタグンタケトヨチョウ","town":"田崎","town_kana":"タザキ","prefecture_code":23},"2335":{"zip_code":"4702335","prefecture":"愛知県","prefecture_kana":"アイチケン","city":"知多郡武豊町","city_kana":"チタグンタケトヨチョウ","town":"谷口","town_kana":"タニグチ","prefecture_code":23},"2512":{"zip_code":"4702512","prefecture":"愛知県","prefecture_kana":"アイチケン","city":"知多郡武豊町","city_kana":"チタグンタケトヨチョウ","town":"忠白田","town_kana":"チュウシロダ","prefecture_code":23},"2319":{"zip_code":"4702319","prefecture":"愛知県","prefecture_kana":"アイチケン","city":"知多郡武豊町","city_kana":"チタグンタケトヨチョウ","town":"中蓮","town_kana":"チュウレン","prefecture_code":23},"2307":{"zip_code":"4702307","prefecture":"愛知県","prefecture_kana":"アイチケン","city":"知多郡武豊町","city_kana":"チタグンタケトヨチョウ","town":"蛇ケ谷","town_kana":"ヂャガタニ","prefecture_code":23},"2328":{"zip_code":"4702328","prefecture":"愛知県","prefecture_kana":"アイチケン","city":"知多郡武豊町","city_kana":"チタグンタケトヨチョウ","town":"蛇渕","town_kana":"ヂャブチ","prefecture_code":23},"2372":{"zip_code":"4702372","prefecture":"愛知県","prefecture_kana":"アイチケン","city":"知多郡武豊町","city_kana":"チタグンタケトヨチョウ","town":"甚田","town_kana":"ヂンダ","prefecture_code":23},"2542":{"zip_code":"4702542","prefecture":"愛知県","prefecture_kana":"アイチケン","city":"知多郡武豊町","city_kana":"チタグンタケトヨチョウ","town":"土穴","town_kana":"ツチアナ","prefecture_code":23},"2327":{"zip_code":"4702327","prefecture":"愛知県","prefecture_kana":"アイチケン","city":"知多郡武豊町","city_kana":"チタグンタケトヨチョウ","town":"天神前","town_kana":"テンジンマエ","prefecture_code":23},"2347":{"zip_code":"4702347","prefecture":"愛知県","prefecture_kana":"アイチケン","city":"知多郡武豊町","city_kana":"チタグンタケトヨチョウ","town":"道崎","town_kana":"ドウサキ","prefecture_code":23},"2353":{"zip_code":"4702353","prefecture":"愛知県","prefecture_kana":"アイチケン","city":"知多郡武豊町","city_kana":"チタグンタケトヨチョウ","town":"道崎田","town_kana":"ドウサキダ","prefecture_code":23},"2511":{"zip_code":"4702511","prefecture":"愛知県","prefecture_kana":"アイチケン","city":"知多郡武豊町","city_kana":"チタグンタケトヨチョウ","town":"道仙田","town_kana":"ドウセンダ","prefecture_code":23},"2334":{"zip_code":"4702334","prefecture":"愛知県","prefecture_kana":"アイチケン","city":"知多郡武豊町","city_kana":"チタグンタケトヨチョウ","town":"中根","town_kana":"ナカネ","prefecture_code":23},"2315":{"zip_code":"4702315","prefecture":"愛知県","prefecture_kana":"アイチケン","city":"知多郡武豊町","city_kana":"チタグンタケトヨチョウ","town":"中狭","town_kana":"ナカバサミ","prefecture_code":23},"2388":{"zip_code":"4702388","prefecture":"愛知県","prefecture_kana":"アイチケン","city":"知多郡武豊町","city_kana":"チタグンタケトヨチョウ","town":"中山","town_kana":"ナカヤマ","prefecture_code":23},"2346":{"zip_code":"4702346","prefecture":"愛知県","prefecture_kana":"アイチケン","city":"知多郡武豊町","city_kana":"チタグンタケトヨチョウ","town":"長尾山","town_kana":"ナガオヤマ","prefecture_code":23},"2517":{"zip_code":"4702517","prefecture":"愛知県","prefecture_kana":"アイチケン","city":"知多郡武豊町","city_kana":"チタグンタケトヨチョウ","town":"長峰","town_kana":"ナガミネ","prefecture_code":23},"2389":{"zip_code":"4702389","prefecture":"愛知県","prefecture_kana":"アイチケン","city":"知多郡武豊町","city_kana":"チタグンタケトヨチョウ","town":"長宗","town_kana":"ナガムネ","prefecture_code":23},"2309":{"zip_code":"4702309","prefecture":"愛知県","prefecture_kana":"アイチケン","city":"知多郡武豊町","city_kana":"チタグンタケトヨチョウ","town":"梨子ノ木","town_kana":"ナシノキ","prefecture_code":23},"2321":{"zip_code":"4702321","prefecture":"愛知県","prefecture_kana":"アイチケン","city":"知多郡武豊町","city_kana":"チタグンタケトヨチョウ","town":"七号地","town_kana":"ナナゴウチ","prefecture_code":23},"2316":{"zip_code":"4702316","prefecture":"愛知県","prefecture_kana":"アイチケン","city":"知多郡武豊町","city_kana":"チタグンタケトヨチョウ","town":"二ケ崎","town_kana":"ニガサキ","prefecture_code":23},"2349":{"zip_code":"4702349","prefecture":"愛知県","prefecture_kana":"アイチケン","city":"知多郡武豊町","city_kana":"チタグンタケトヨチョウ","town":"西田崎","town_kana":"ニシタザキ","prefecture_code":23},"2345":{"zip_code":"4702345","prefecture":"愛知県","prefecture_kana":"アイチケン","city":"知多郡武豊町","city_kana":"チタグンタケトヨチョウ","town":"西門","town_kana":"ニシモン","prefecture_code":23},"2554":{"zip_code":"4702554","prefecture":"愛知県","prefecture_kana":"アイチケン","city":"知多郡武豊町","city_kana":"チタグンタケトヨチョウ","town":"白山","town_kana":"ハクサン","prefecture_code":23},"2516":{"zip_code":"4702516","prefecture":"愛知県","prefecture_kana":"アイチケン","city":"知多郡武豊町","city_kana":"チタグンタケトヨチョウ","town":"廻間","town_kana":"ハザマ","prefecture_code":23},"2374":{"zip_code":"4702374","prefecture":"愛知県","prefecture_kana":"アイチケン","city":"知多郡武豊町","city_kana":"チタグンタケトヨチョウ","town":"原田","town_kana":"ハラダ","prefecture_code":23},"2375":{"zip_code":"4702375","prefecture":"愛知県","prefecture_kana":"アイチケン","city":"知多郡武豊町","city_kana":"チタグンタケトヨチョウ","town":"原屋敷","town_kana":"ハラヤシキ","prefecture_code":23},"2521":{"zip_code":"4702521","prefecture":"愛知県","prefecture_kana":"アイチケン","city":"知多郡武豊町","city_kana":"チタグンタケトヨチョウ","town":"東大高","town_kana":"ヒガシオオダカ","prefecture_code":23},"2382":{"zip_code":"4702382","prefecture":"愛知県","prefecture_kana":"アイチケン","city":"知多郡武豊町","city_kana":"チタグンタケトヨチョウ","town":"東長宗","town_kana":"ヒガシナガムネ","prefecture_code":23},"2331":{"zip_code":"4702331","prefecture":"愛知県","prefecture_kana":"アイチケン","city":"知多郡武豊町","city_kana":"チタグンタケトヨチョウ","town":"ヒジリ田","town_kana":"ヒジリダ","prefecture_code":23},"2365":{"zip_code":"4702365","prefecture":"愛知県","prefecture_kana":"アイチケン","city":"知多郡武豊町","city_kana":"チタグンタケトヨチョウ","town":"壱畝町","town_kana":"ヒトセマチ","prefecture_code":23},"2380":{"zip_code":"4702380","prefecture":"愛知県","prefecture_kana":"アイチケン","city":"知多郡武豊町","city_kana":"チタグンタケトヨチョウ","town":"平井","town_kana":"ヒライ","prefecture_code":23},"2304":{"zip_code":"4702304","prefecture":"愛知県","prefecture_kana":"アイチケン","city":"知多郡武豊町","city_kana":"チタグンタケトヨチョウ","town":"平井田","town_kana":"ヒライダ","prefecture_code":23},"2326":{"zip_code":"4702326","prefecture":"愛知県","prefecture_kana":"アイチケン","city":"知多郡武豊町","city_kana":"チタグンタケトヨチョウ","town":"平井畑","town_kana":"ヒライバタ","prefecture_code":23},"2531":{"zip_code":"4702531","prefecture":"愛知県","prefecture_kana":"アイチケン","city":"知多郡武豊町","city_kana":"チタグンタケトヨチョウ","town":"冨貴","town_kana":"フキ","prefecture_code":23},"2308":{"zip_code":"4702308","prefecture":"愛知県","prefecture_kana":"アイチケン","city":"知多郡武豊町","city_kana":"チタグンタケトヨチョウ","town":"二ツ峰","town_kana":"フタツミネ","prefecture_code":23},"2507":{"zip_code":"4702507","prefecture":"愛知県","prefecture_kana":"アイチケン","city":"知多郡武豊町","city_kana":"チタグンタケトヨチョウ","town":"平海道","town_kana":"ヘイカイドウ","prefecture_code":23},"2318":{"zip_code":"4702318","prefecture":"愛知県","prefecture_kana":"アイチケン","city":"知多郡武豊町","city_kana":"チタグンタケトヨチョウ","town":"豊成","town_kana":"ホウセイ","prefecture_code":23},"2303":{"zip_code":"4702303","prefecture":"愛知県","prefecture_kana":"アイチケン","city":"知多郡武豊町","city_kana":"チタグンタケトヨチョウ","town":"祠峯","town_kana":"ホコラミネ","prefecture_code":23},"2501":{"zip_code":"4702501","prefecture":"愛知県","prefecture_kana":"アイチケン","city":"知多郡武豊町","city_kana":"チタグンタケトヨチョウ","town":"堀割","town_kana":"ホリワリ","prefecture_code":23},"2338":{"zip_code":"4702338","prefecture":"愛知県","prefecture_kana":"アイチケン","city":"知多郡武豊町","city_kana":"チタグンタケトヨチョウ","town":"前田","town_kana":"マエダ","prefecture_code":23},"2545":{"zip_code":"4702545","prefecture":"愛知県","prefecture_kana":"アイチケン","city":"知多郡武豊町","city_kana":"チタグンタケトヨチョウ","town":"前畑","town_kana":"マエハタ","prefecture_code":23},"2386":{"zip_code":"4702386","prefecture":"愛知県","prefecture_kana":"アイチケン","city":"知多郡武豊町","city_kana":"チタグンタケトヨチョウ","town":"緑台","town_kana":"ミドリダイ","prefecture_code":23},"2556":{"zip_code":"4702556","prefecture":"愛知県","prefecture_kana":"アイチケン","city":"知多郡武豊町","city_kana":"チタグンタケトヨチョウ","town":"南起","town_kana":"ミナミオコシ","prefecture_code":23},"2378":{"zip_code":"4702378","prefecture":"愛知県","prefecture_kana":"アイチケン","city":"知多郡武豊町","city_kana":"チタグンタケトヨチョウ","town":"南小松谷","town_kana":"ミナミコマツダニ","prefecture_code":23},"2351":{"zip_code":"4702351","prefecture":"愛知県","prefecture_kana":"アイチケン","city":"知多郡武豊町","city_kana":"チタグンタケトヨチョウ","town":"南中根","town_kana":"ミナミナカネ","prefecture_code":23},"2502":{"zip_code":"4702502","prefecture":"愛知県","prefecture_kana":"アイチケン","city":"知多郡武豊町","city_kana":"チタグンタケトヨチョウ","town":"明神戸","town_kana":"ミョウジンド","prefecture_code":23},"2355":{"zip_code":"4702355","prefecture":"愛知県","prefecture_kana":"アイチケン","city":"知多郡武豊町","city_kana":"チタグンタケトヨチョウ","town":"向田","town_kana":"ムカイダ","prefecture_code":23},"2352":{"zip_code":"4702352","prefecture":"愛知県","prefecture_kana":"アイチケン","city":"知多郡武豊町","city_kana":"チタグンタケトヨチョウ","town":"迎戸","town_kana":"ムカエド","prefecture_code":23},"2541":{"zip_code":"4702541","prefecture":"愛知県","prefecture_kana":"アイチケン","city":"知多郡武豊町","city_kana":"チタグンタケトヨチョウ","town":"目堀","town_kana":"メボリ","prefecture_code":23},"2546":{"zip_code":"4702546","prefecture":"愛知県","prefecture_kana":"アイチケン","city":"知多郡武豊町","city_kana":"チタグンタケトヨチョウ","town":"山起","town_kana":"ヤマオコシ","prefecture_code":23},"2336":{"zip_code":"4702336","prefecture":"愛知県","prefecture_kana":"アイチケン","city":"知多郡武豊町","city_kana":"チタグンタケトヨチョウ","town":"山ノ神","town_kana":"ヤマノカミ","prefecture_code":23},"2553":{"zip_code":"4702553","prefecture":"愛知県","prefecture_kana":"アイチケン","city":"知多郡武豊町","city_kana":"チタグンタケトヨチョウ","town":"四畝","town_kana":"ヨセ","prefecture_code":23},"2532":{"zip_code":"4702532","prefecture":"愛知県","prefecture_kana":"アイチケン","city":"知多郡武豊町","city_kana":"チタグンタケトヨチョウ","town":"竜宮","town_kana":"リュウグウ","prefecture_code":23},"2362":{"zip_code":"4702362","prefecture":"愛知県","prefecture_kana":"アイチケン","city":"知多郡武豊町","city_kana":"チタグンタケトヨチョウ","town":"六貫山","town_kana":"ロッカンヤマ","prefecture_code":23},"2325":{"zip_code":"4702325","prefecture":"愛知県","prefecture_kana":"アイチケン","city":"知多郡武豊町","city_kana":"チタグンタケトヨチョウ","town":"若宮","town_kana":"ワカミヤ","prefecture_code":23}}