{"0000":{"zip_code":"4710000","prefecture":"愛知県","prefecture_kana":"アイチケン","city":"豊田市","city_kana":"トヨタシ","town":"","town_kana":"","prefecture_code":23},"0052":{"zip_code":"4710052","prefecture":"愛知県","prefecture_kana":"アイチケン","city":"豊田市","city_kana":"トヨタシ","town":"逢妻町","town_kana":"アイヅマチョウ","prefecture_code":23},"0873":{"zip_code":"4710873","prefecture":"愛知県","prefecture_kana":"アイチケン","city":"豊田市","city_kana":"トヨタシ","town":"秋葉町","town_kana":"アキバチョウ","prefecture_code":23},"0835":{"zip_code":"4710835","prefecture":"愛知県","prefecture_kana":"アイチケン","city":"豊田市","city_kana":"トヨタシ","town":"曙町","town_kana":"アケボノチョウ","prefecture_code":23},"0858":{"zip_code":"4710858","prefecture":"愛知県","prefecture_kana":"アイチケン","city":"豊田市","city_kana":"トヨタシ","town":"朝日ケ丘","town_kana":"アサヒガオカ","prefecture_code":23},"0031":{"zip_code":"4710031","prefecture":"愛知県","prefecture_kana":"アイチケン","city":"豊田市","city_kana":"トヨタシ","town":"朝日町","town_kana":"アサヒマチ","prefecture_code":23},"0001":{"zip_code":"4710001","prefecture":"愛知県","prefecture_kana":"アイチケン","city":"豊田市","city_kana":"トヨタシ","town":"池田町","town_kana":"イケダチョウ","prefecture_code":23},"0803":{"zip_code":"4710803","prefecture":"愛知県","prefecture_kana":"アイチケン","city":"豊田市","city_kana":"トヨタシ","town":"泉町","town_kana":"イズミチョウ","prefecture_code":23},"0006":{"zip_code":"4710006","prefecture":"愛知県","prefecture_kana":"アイチケン","city":"豊田市","city_kana":"トヨタシ","town":"市木町","town_kana":"イチギチョウ","prefecture_code":23},"0814":{"zip_code":"4710814","prefecture":"愛知県","prefecture_kana":"アイチケン","city":"豊田市","city_kana":"トヨタシ","town":"五ケ丘","town_kana":"イツツガオカ","prefecture_code":23},"0823":{"zip_code":"4710823","prefecture":"愛知県","prefecture_kana":"アイチケン","city":"豊田市","city_kana":"トヨタシ","town":"今町","town_kana":"イマチョウ","prefecture_code":23},"0003":{"zip_code":"4710003","prefecture":"愛知県","prefecture_kana":"アイチケン","city":"豊田市","city_kana":"トヨタシ","town":"岩滝町","town_kana":"イワタキチョウ","prefecture_code":23},"0015":{"zip_code":"4710015","prefecture":"愛知県","prefecture_kana":"アイチケン","city":"豊田市","city_kana":"トヨタシ","town":"上野町","town_kana":"ウエノチョウ","prefecture_code":23},"0064":{"zip_code":"4710064","prefecture":"愛知県","prefecture_kana":"アイチケン","city":"豊田市","city_kana":"トヨタシ","town":"梅坪町","town_kana":"ウメツボチョウ","prefecture_code":23},"0866":{"zip_code":"4710866","prefecture":"愛知県","prefecture_kana":"アイチケン","city":"豊田市","city_kana":"トヨタシ","town":"上挙母","town_kana":"ウワゴロモ","prefecture_code":23},"0067":{"zip_code":"4710067","prefecture":"愛知県","prefecture_kana":"アイチケン","city":"豊田市","city_kana":"トヨタシ","town":"栄生町","town_kana":"エイセイチョウ","prefecture_code":23},"0058":{"zip_code":"4710058","prefecture":"愛知県","prefecture_kana":"アイチケン","city":"豊田市","city_kana":"トヨタシ","town":"大池町","town_kana":"オオイケチョウ","prefecture_code":23},"0815":{"zip_code":"4710815","prefecture":"愛知県","prefecture_kana":"アイチケン","city":"豊田市","city_kana":"トヨタシ","town":"大見町","town_kana":"オオミチョウ","prefecture_code":23},"0857":{"zip_code":"4710857","prefecture":"愛知県","prefecture_kana":"アイチケン","city":"豊田市","city_kana":"トヨタシ","town":"小川町","town_kana":"オガワチョウ","prefecture_code":23},"0072":{"zip_code":"4710072","prefecture":"愛知県","prefecture_kana":"アイチケン","city":"豊田市","city_kana":"トヨタシ","town":"落合町","town_kana":"オチアイチョウ","prefecture_code":23},"0855":{"zip_code":"4710855","prefecture":"愛知県","prefecture_kana":"アイチケン","city":"豊田市","city_kana":"トヨタシ","town":"柿本町","town_kana":"カキモトチョウ","prefecture_code":23},"0876":{"zip_code":"4710876","prefecture":"愛知県","prefecture_kana":"アイチケン","city":"豊田市","city_kana":"トヨタシ","town":"金谷町","town_kana":"カナヤチョウ","prefecture_code":23},"0804":{"zip_code":"4710804","prefecture":"愛知県","prefecture_kana":"アイチケン","city":"豊田市","city_kana":"トヨタシ","town":"神池町","town_kana":"カミイケチョウ","prefecture_code":23},"0824":{"zip_code":"4710824","prefecture":"愛知県","prefecture_kana":"アイチケン","city":"豊田市","city_kana":"トヨタシ","town":"河合町","town_kana":"カワイチョウ","prefecture_code":23},"0073":{"zip_code":"4710073","prefecture":"愛知県","prefecture_kana":"アイチケン","city":"豊田市","city_kana":"トヨタシ","town":"川田町","town_kana":"カワダチョウ","prefecture_code":23},"0074":{"zip_code":"4710074","prefecture":"愛知県","prefecture_kana":"アイチケン","city":"豊田市","city_kana":"トヨタシ","town":"川端町","town_kana":"カワバタチョウ","prefecture_code":23},"0868":{"zip_code":"4710868","prefecture":"愛知県","prefecture_kana":"アイチケン","city":"豊田市","city_kana":"トヨタシ","town":"神田町","town_kana":"カンダチョウ","prefecture_code":23},"0027":{"zip_code":"4710027","prefecture":"愛知県","prefecture_kana":"アイチケン","city":"豊田市","city_kana":"トヨタシ","town":"喜多町","town_kana":"キタマチ","prefecture_code":23},"0005":{"zip_code":"4710005","prefecture":"愛知県","prefecture_kana":"アイチケン","city":"豊田市","city_kana":"トヨタシ","town":"京ケ峰","town_kana":"キョウガミネ","prefecture_code":23},"0063":{"zip_code":"4710063","prefecture":"愛知県","prefecture_kana":"アイチケン","city":"豊田市","city_kana":"トヨタシ","town":"京町","town_kana":"キョウマチ","prefecture_code":23},"0076":{"zip_code":"4710076","prefecture":"愛知県","prefecture_kana":"アイチケン","city":"豊田市","city_kana":"トヨタシ","town":"久保町","town_kana":"クボチョウ","prefecture_code":23},"0836":{"zip_code":"4710836","prefecture":"愛知県","prefecture_kana":"アイチケン","city":"豊田市","city_kana":"トヨタシ","town":"鴻ノ巣町","town_kana":"コウノスチョウ","prefecture_code":23},"0035":{"zip_code":"4710035","prefecture":"愛知県","prefecture_kana":"アイチケン","city":"豊田市","city_kana":"トヨタシ","town":"小坂町","town_kana":"コザカチョウ","prefecture_code":23},"0034":{"zip_code":"4710034","prefecture":"愛知県","prefecture_kana":"アイチケン","city":"豊田市","city_kana":"トヨタシ","town":"小坂本町","town_kana":"コザカホンマチ","prefecture_code":23},"0801":{"zip_code":"4710801","prefecture":"愛知県","prefecture_kana":"アイチケン","city":"豊田市","city_kana":"トヨタシ","town":"古瀬間町","town_kana":"コセマチョウ","prefecture_code":23},"0816":{"zip_code":"4710816","prefecture":"愛知県","prefecture_kana":"アイチケン","city":"豊田市","city_kana":"トヨタシ","town":"琴平町","town_kana":"コトヒラチョウ","prefecture_code":23},"0834":{"zip_code":"4710834","prefecture":"愛知県","prefecture_kana":"アイチケン","city":"豊田市","city_kana":"トヨタシ","town":"寿町","town_kana":"コトブキチョウ","prefecture_code":23},"0856":{"zip_code":"4710856","prefecture":"愛知県","prefecture_kana":"アイチケン","city":"豊田市","city_kana":"トヨタシ","town":"衣ケ原","town_kana":"コロモガハラ","prefecture_code":23},"0023":{"zip_code":"4710023","prefecture":"愛知県","prefecture_kana":"アイチケン","city":"豊田市","city_kana":"トヨタシ","town":"挙母町","town_kana":"コロモチョウ","prefecture_code":23},"0066":{"zip_code":"4710066","prefecture":"愛知県","prefecture_kana":"アイチケン","city":"豊田市","city_kana":"トヨタシ","town":"栄町","town_kana":"サカエマチ","prefecture_code":23},"0029":{"zip_code":"4710029","prefecture":"愛知県","prefecture_kana":"アイチケン","city":"豊田市","city_kana":"トヨタシ","town":"桜町","town_kana":"サクラマチ","prefecture_code":23},"0037":{"zip_code":"4710037","prefecture":"愛知県","prefecture_kana":"アイチケン","city":"豊田市","city_kana":"トヨタシ","town":"三軒町","town_kana":"サンゲンチョウ","prefecture_code":23},"0041":{"zip_code":"4710041","prefecture":"愛知県","prefecture_kana":"アイチケン","city":"豊田市","city_kana":"トヨタシ","town":"汐見町","town_kana":"シオミチョウ","prefecture_code":23},"0802":{"zip_code":"4710802","prefecture":"愛知県","prefecture_kana":"アイチケン","city":"豊田市","city_kana":"トヨタシ","town":"志賀町","town_kana":"シガチョウ","prefecture_code":23},"0808":{"zip_code":"4710808","prefecture":"愛知県","prefecture_kana":"アイチケン","city":"豊田市","city_kana":"トヨタシ","town":"渋谷町","town_kana":"シブヤチョウ","prefecture_code":23},"0843":{"zip_code":"4710843","prefecture":"愛知県","prefecture_kana":"アイチケン","city":"豊田市","city_kana":"トヨタシ","town":"清水町","town_kana":"シミズチョウ","prefecture_code":23},"0875":{"zip_code":"4710875","prefecture":"愛知県","prefecture_kana":"アイチケン","city":"豊田市","city_kana":"トヨタシ","town":"下市場町","town_kana":"シモイチバチョウ","prefecture_code":23},"0878":{"zip_code":"4710878","prefecture":"愛知県","prefecture_kana":"アイチケン","city":"豊田市","city_kana":"トヨタシ","town":"下林町","town_kana":"シモバヤシチョウ","prefecture_code":23},"0851":{"zip_code":"4710851","prefecture":"愛知県","prefecture_kana":"アイチケン","city":"豊田市","city_kana":"トヨタシ","town":"樹木町","town_kana":"ジュモクチョウ","prefecture_code":23},"0078":{"zip_code":"4710078","prefecture":"愛知県","prefecture_kana":"アイチケン","city":"豊田市","city_kana":"トヨタシ","town":"昭和町","town_kana":"ショウワマチ","prefecture_code":23},"0022":{"zip_code":"4710022","prefecture":"愛知県","prefecture_kana":"アイチケン","city":"豊田市","city_kana":"トヨタシ","town":"白浜町","town_kana":"シラハマチョウ","prefecture_code":23},"0837":{"zip_code":"4710837","prefecture":"愛知県","prefecture_kana":"アイチケン","city":"豊田市","city_kana":"トヨタシ","town":"新生町","town_kana":"シンセイチョウ","prefecture_code":23},"0079":{"zip_code":"4710079","prefecture":"愛知県","prefecture_kana":"アイチケン","city":"豊田市","city_kana":"トヨタシ","town":"陣中町","town_kana":"ジンナカチョウ","prefecture_code":23},"0044":{"zip_code":"4710044","prefecture":"愛知県","prefecture_kana":"アイチケン","city":"豊田市","city_kana":"トヨタシ","town":"新町","town_kana":"シンマチ","prefecture_code":23},"0028":{"zip_code":"4710028","prefecture":"愛知県","prefecture_kana":"アイチケン","city":"豊田市","city_kana":"トヨタシ","town":"神明町","town_kana":"シンメイチョウ","prefecture_code":23},"0822":{"zip_code":"4710822","prefecture":"愛知県","prefecture_kana":"アイチケン","city":"豊田市","city_kana":"トヨタシ","town":"水源町","town_kana":"スイゲンチョウ","prefecture_code":23},"0862":{"zip_code":"4710862","prefecture":"愛知県","prefecture_kana":"アイチケン","city":"豊田市","city_kana":"トヨタシ","town":"砂町","town_kana":"スナチョウ","prefecture_code":23},"0844":{"zip_code":"4710844","prefecture":"愛知県","prefecture_kana":"アイチケン","city":"豊田市","city_kana":"トヨタシ","town":"聖心町","town_kana":"セイシンチョウ","prefecture_code":23},"0016":{"zip_code":"4710016","prefecture":"愛知県","prefecture_kana":"アイチケン","city":"豊田市","city_kana":"トヨタシ","town":"千石町","town_kana":"センゴクチョウ","prefecture_code":23},"0847":{"zip_code":"4710847","prefecture":"愛知県","prefecture_kana":"アイチケン","city":"豊田市","city_kana":"トヨタシ","town":"千足町","town_kana":"センゾクチョウ","prefecture_code":23},"0057":{"zip_code":"4710057","prefecture":"愛知県","prefecture_kana":"アイチケン","city":"豊田市","city_kana":"トヨタシ","town":"太平町","town_kana":"タイヘイチョウ","prefecture_code":23},"0013":{"zip_code":"4710013","prefecture":"愛知県","prefecture_kana":"アイチケン","city":"豊田市","city_kana":"トヨタシ","town":"高上","town_kana":"タカガミ","prefecture_code":23},"0048":{"zip_code":"4710048","prefecture":"愛知県","prefecture_kana":"アイチケン","city":"豊田市","city_kana":"トヨタシ","town":"高崎町","town_kana":"タカサキチョウ","prefecture_code":23},"0019":{"zip_code":"4710019","prefecture":"愛知県","prefecture_kana":"アイチケン","city":"豊田市","city_kana":"トヨタシ","town":"高橋町","town_kana":"タカハシチョウ","prefecture_code":23},"0069":{"zip_code":"4710069","prefecture":"愛知県","prefecture_kana":"アイチケン","city":"豊田市","city_kana":"トヨタシ","town":"高原町","town_kana":"タカハラチョウ","prefecture_code":23},"0077":{"zip_code":"4710077","prefecture":"愛知県","prefecture_kana":"アイチケン","city":"豊田市","city_kana":"トヨタシ","town":"竹生町","town_kana":"タキョウチョウ","prefecture_code":23},"0846":{"zip_code":"4710846","prefecture":"愛知県","prefecture_kana":"アイチケン","city":"豊田市","city_kana":"トヨタシ","town":"田代町","town_kana":"タシロチョウ","prefecture_code":23},"0845":{"zip_code":"4710845","prefecture":"愛知県","prefecture_kana":"アイチケン","city":"豊田市","city_kana":"トヨタシ","town":"田中町","town_kana":"タナカチョウ","prefecture_code":23},"0049":{"zip_code":"4710049","prefecture":"愛知県","prefecture_kana":"アイチケン","city":"豊田市","city_kana":"トヨタシ","town":"田町","town_kana":"タマチ","prefecture_code":23},"0879":{"zip_code":"4710879","prefecture":"愛知県","prefecture_kana":"アイチケン","city":"豊田市","city_kana":"トヨタシ","town":"長興寺","town_kana":"チョウコウジ","prefecture_code":23},"0831":{"zip_code":"4710831","prefecture":"愛知県","prefecture_kana":"アイチケン","city":"豊田市","city_kana":"トヨタシ","town":"司町","town_kana":"ツカサチョウ","prefecture_code":23},"0033":{"zip_code":"4710033","prefecture":"愛知県","prefecture_kana":"アイチケン","city":"豊田市","city_kana":"トヨタシ","town":"月見町","town_kana":"ツキミチョウ","prefecture_code":23},"0842":{"zip_code":"4710842","prefecture":"愛知県","prefecture_kana":"アイチケン","city":"豊田市","city_kana":"トヨタシ","town":"土橋町","town_kana":"ツチハシチョウ","prefecture_code":23},"0059":{"zip_code":"4710059","prefecture":"愛知県","prefecture_kana":"アイチケン","city":"豊田市","city_kana":"トヨタシ","town":"貞宝町","town_kana":"テイホウチョウ","prefecture_code":23},"0017":{"zip_code":"4710017","prefecture":"愛知県","prefecture_kana":"アイチケン","city":"豊田市","city_kana":"トヨタシ","town":"寺部町","town_kana":"テラベチョウ","prefecture_code":23},"0054":{"zip_code":"4710054","prefecture":"愛知県","prefecture_kana":"アイチケン","city":"豊田市","city_kana":"トヨタシ","town":"天王町","town_kana":"テンノウチョウ","prefecture_code":23},"0817":{"zip_code":"4710817","prefecture":"愛知県","prefecture_kana":"アイチケン","city":"豊田市","city_kana":"トヨタシ","town":"渡合町","town_kana":"ドアイチョウ","prefecture_code":23},"0045":{"zip_code":"4710045","prefecture":"愛知県","prefecture_kana":"アイチケン","city":"豊田市","city_kana":"トヨタシ","town":"東新町","town_kana":"トウシンチョウ","prefecture_code":23},"0008":{"zip_code":"4710008","prefecture":"愛知県","prefecture_kana":"アイチケン","city":"豊田市","city_kana":"トヨタシ","town":"百々町","town_kana":"ドウドチョウ","prefecture_code":23},"0867":{"zip_code":"4710867","prefecture":"愛知県","prefecture_kana":"アイチケン","city":"豊田市","city_kana":"トヨタシ","town":"常盤町","town_kana":"トキワチョウ","prefecture_code":23},"0869":{"zip_code":"4710869","prefecture":"愛知県","prefecture_kana":"アイチケン","city":"豊田市","city_kana":"トヨタシ","town":"十塚町","town_kana":"トヅカチョウ","prefecture_code":23},"0826":{"zip_code":"4710826","prefecture":"愛知県","prefecture_kana":"アイチケン","city":"豊田市","city_kana":"トヨタシ","town":"トヨタ町","town_kana":"トヨタチョウ","prefecture_code":23},"0021":{"zip_code":"4710021","prefecture":"愛知県","prefecture_kana":"アイチケン","city":"豊田市","city_kana":"トヨタシ","town":"中島町","town_kana":"ナカジマチョウ","prefecture_code":23},"0877":{"zip_code":"4710877","prefecture":"愛知県","prefecture_kana":"アイチケン","city":"豊田市","city_kana":"トヨタシ","town":"錦町","town_kana":"ニシキチョウ","prefecture_code":23},"0047":{"zip_code":"4710047","prefecture":"愛知県","prefecture_kana":"アイチケン","city":"豊田市","city_kana":"トヨタシ","town":"西新町","town_kana":"ニシシンチョウ","prefecture_code":23},"0025":{"zip_code":"4710025","prefecture":"愛知県","prefecture_kana":"アイチケン","city":"豊田市","city_kana":"トヨタシ","town":"西町","town_kana":"ニシマチ","prefecture_code":23},"0062":{"zip_code":"4710062","prefecture":"愛知県","prefecture_kana":"アイチケン","city":"豊田市","city_kana":"トヨタシ","town":"西山町","town_kana":"ニシヤマチョウ","prefecture_code":23},"0032":{"zip_code":"4710032","prefecture":"愛知県","prefecture_kana":"アイチケン","city":"豊田市","city_kana":"トヨタシ","town":"日南町","town_kana":"ニチナンチョウ","prefecture_code":23},"0812":{"zip_code":"4710812","prefecture":"愛知県","prefecture_kana":"アイチケン","city":"豊田市","city_kana":"トヨタシ","town":"野見町","town_kana":"ノミチョウ","prefecture_code":23},"0813":{"zip_code":"4710813","prefecture":"愛知県","prefecture_kana":"アイチケン","city":"豊田市","city_kana":"トヨタシ","town":"野見山町","town_kana":"ノミヤマチョウ","prefecture_code":23},"0056":{"zip_code":"4710056","prefecture":"愛知県","prefecture_kana":"アイチケン","city":"豊田市","city_kana":"トヨタシ","town":"白山町","town_kana":"ハクサンチョウ","prefecture_code":23},"0861":{"zip_code":"4710861","prefecture":"愛知県","prefecture_kana":"アイチケン","city":"豊田市","city_kana":"トヨタシ","town":"八幡町","town_kana":"ハチマンチョウ","prefecture_code":23},"0051":{"zip_code":"4710051","prefecture":"愛知県","prefecture_kana":"アイチケン","city":"豊田市","city_kana":"トヨタシ","town":"花丘町","town_kana":"ハナオカチョウ","prefecture_code":23},"0071":{"zip_code":"4710071","prefecture":"愛知県","prefecture_kana":"アイチケン","city":"豊田市","city_kana":"トヨタシ","town":"東梅坪町","town_kana":"ヒガシウメツボチョウ","prefecture_code":23},"0014":{"zip_code":"4710014","prefecture":"愛知県","prefecture_kana":"アイチケン","city":"豊田市","city_kana":"トヨタシ","town":"東山町","town_kana":"ヒガシヤマチョウ","prefecture_code":23},"0055":{"zip_code":"4710055","prefecture":"愛知県","prefecture_kana":"アイチケン","city":"豊田市","city_kana":"トヨタシ","town":"久岡町","town_kana":"ヒサオカチョウ","prefecture_code":23},"0075":{"zip_code":"4710075","prefecture":"愛知県","prefecture_kana":"アイチケン","city":"豊田市","city_kana":"トヨタシ","town":"日之出町","town_kana":"ヒノデチョウ","prefecture_code":23},"0011":{"zip_code":"4710011","prefecture":"愛知県","prefecture_kana":"アイチケン","city":"豊田市","city_kana":"トヨタシ","town":"平井町","town_kana":"ヒライチョウ","prefecture_code":23},"0065":{"zip_code":"4710065","prefecture":"愛知県","prefecture_kana":"アイチケン","city":"豊田市","city_kana":"トヨタシ","town":"平芝町","town_kana":"ヒラシバチョウ","prefecture_code":23},"0827":{"zip_code":"4710827","prefecture":"愛知県","prefecture_kana":"アイチケン","city":"豊田市","city_kana":"トヨタシ","town":"平山町","town_kana":"ヒラヤマチョウ","prefecture_code":23},"0807":{"zip_code":"4710807","prefecture":"愛知県","prefecture_kana":"アイチケン","city":"豊田市","city_kana":"トヨタシ","town":"広川町","town_kana":"ヒロカワチョウ","prefecture_code":23},"0036":{"zip_code":"4710036","prefecture":"愛知県","prefecture_kana":"アイチケン","city":"豊田市","city_kana":"トヨタシ","town":"広久手町","town_kana":"ヒロクテチョウ","prefecture_code":23},"0864":{"zip_code":"4710864","prefecture":"愛知県","prefecture_kana":"アイチケン","city":"豊田市","city_kana":"トヨタシ","town":"広路町","town_kana":"ヒロジチョウ","prefecture_code":23},"0841":{"zip_code":"4710841","prefecture":"愛知県","prefecture_kana":"アイチケン","city":"豊田市","city_kana":"トヨタシ","town":"深田町","town_kana":"フカダチョウ","prefecture_code":23},"0009":{"zip_code":"4710009","prefecture":"愛知県","prefecture_kana":"アイチケン","city":"豊田市","city_kana":"トヨタシ","town":"扶桑町","town_kana":"フソウチョウ","prefecture_code":23},"0004":{"zip_code":"4710004","prefecture":"愛知県","prefecture_kana":"アイチケン","city":"豊田市","city_kana":"トヨタシ","town":"双美町","town_kana":"フタミチョウ","prefecture_code":23},"0821":{"zip_code":"4710821","prefecture":"愛知県","prefecture_kana":"アイチケン","city":"豊田市","city_kana":"トヨタシ","town":"平和町","town_kana":"ヘイワチョウ","prefecture_code":23},"0809":{"zip_code":"4710809","prefecture":"愛知県","prefecture_kana":"アイチケン","city":"豊田市","city_kana":"トヨタシ","town":"宝来町","town_kana":"ホウライチョウ","prefecture_code":23},"0853":{"zip_code":"4710853","prefecture":"愛知県","prefecture_kana":"アイチケン","city":"豊田市","city_kana":"トヨタシ","town":"細谷町","town_kana":"ホソヤチョウ","prefecture_code":23},"0046":{"zip_code":"4710046","prefecture":"愛知県","prefecture_kana":"アイチケン","city":"豊田市","city_kana":"トヨタシ","town":"本新町","town_kana":"ホンシンチョウ","prefecture_code":23},"0848":{"zip_code":"4710848","prefecture":"愛知県","prefecture_kana":"アイチケン","city":"豊田市","city_kana":"トヨタシ","town":"本地町","town_kana":"ホンジチョウ","prefecture_code":23},"0874":{"zip_code":"4710874","prefecture":"愛知県","prefecture_kana":"アイチケン","city":"豊田市","city_kana":"トヨタシ","town":"前田町","town_kana":"マエダチョウ","prefecture_code":23},"0828":{"zip_code":"4710828","prefecture":"愛知県","prefecture_kana":"アイチケン","city":"豊田市","city_kana":"トヨタシ","town":"前山町","town_kana":"マエヤマチョウ","prefecture_code":23},"0865":{"zip_code":"4710865","prefecture":"愛知県","prefecture_kana":"アイチケン","city":"豊田市","city_kana":"トヨタシ","town":"松ケ枝町","town_kana":"マツガエチョウ","prefecture_code":23},"0053":{"zip_code":"4710053","prefecture":"愛知県","prefecture_kana":"アイチケン","city":"豊田市","city_kana":"トヨタシ","town":"丸根町","town_kana":"マルネチョウ","prefecture_code":23},"0832":{"zip_code":"4710832","prefecture":"愛知県","prefecture_kana":"アイチケン","city":"豊田市","city_kana":"トヨタシ","town":"丸山町","town_kana":"マルヤマチョウ","prefecture_code":23},"0805":{"zip_code":"4710805","prefecture":"愛知県","prefecture_kana":"アイチケン","city":"豊田市","city_kana":"トヨタシ","town":"美里","town_kana":"ミサト","prefecture_code":23},"0863":{"zip_code":"4710863","prefecture":"愛知県","prefecture_kana":"アイチケン","city":"豊田市","city_kana":"トヨタシ","town":"瑞穂町","town_kana":"ミズホチョウ","prefecture_code":23},"0012":{"zip_code":"4710012","prefecture":"愛知県","prefecture_kana":"アイチケン","city":"豊田市","city_kana":"トヨタシ","town":"水間町","town_kana":"ミズマチョウ","prefecture_code":23},"0811":{"zip_code":"4710811","prefecture":"愛知県","prefecture_kana":"アイチケン","city":"豊田市","city_kana":"トヨタシ","town":"御立町","town_kana":"ミタチチョウ","prefecture_code":23},"0838":{"zip_code":"4710838","prefecture":"愛知県","prefecture_kana":"アイチケン","city":"豊田市","city_kana":"トヨタシ","town":"緑ケ丘","town_kana":"ミドリガオカ","prefecture_code":23},"0038":{"zip_code":"4710038","prefecture":"愛知県","prefecture_kana":"アイチケン","city":"豊田市","city_kana":"トヨタシ","town":"宮上町","town_kana":"ミヤガミチョウ","prefecture_code":23},"0042":{"zip_code":"4710042","prefecture":"愛知県","prefecture_kana":"アイチケン","city":"豊田市","city_kana":"トヨタシ","town":"宮口町","town_kana":"ミヤグチチョウ","prefecture_code":23},"0819":{"zip_code":"4710819","prefecture":"愛知県","prefecture_kana":"アイチケン","city":"豊田市","city_kana":"トヨタシ","town":"宮前町","town_kana":"ミヤマエチョウ","prefecture_code":23},"0043":{"zip_code":"4710043","prefecture":"愛知県","prefecture_kana":"アイチケン","city":"豊田市","city_kana":"トヨタシ","town":"宮町","town_kana":"ミヤマチ","prefecture_code":23},"0849":{"zip_code":"4710849","prefecture":"愛知県","prefecture_kana":"アイチケン","city":"豊田市","city_kana":"トヨタシ","town":"美山町","town_kana":"ミヤマチョウ","prefecture_code":23},"0852":{"zip_code":"4710852","prefecture":"愛知県","prefecture_kana":"アイチケン","city":"豊田市","city_kana":"トヨタシ","town":"御幸町","town_kana":"ミユキチョウ","prefecture_code":23},"0007":{"zip_code":"4710007","prefecture":"愛知県","prefecture_kana":"アイチケン","city":"豊田市","city_kana":"トヨタシ","town":"美和町","town_kana":"ミワチョウ","prefecture_code":23},"0818":{"zip_code":"4710818","prefecture":"愛知県","prefecture_kana":"アイチケン","city":"豊田市","city_kana":"トヨタシ","town":"室町","town_kana":"ムロマチ","prefecture_code":23},"0825":{"zip_code":"4710825","prefecture":"愛知県","prefecture_kana":"アイチケン","city":"豊田市","city_kana":"トヨタシ","town":"明和町","town_kana":"メイワチョウ","prefecture_code":23},"0024":{"zip_code":"4710024","prefecture":"愛知県","prefecture_kana":"アイチケン","city":"豊田市","city_kana":"トヨタシ","town":"元城町","town_kana":"モトシロチョウ","prefecture_code":23},"0854":{"zip_code":"4710854","prefecture":"愛知県","prefecture_kana":"アイチケン","city":"豊田市","city_kana":"トヨタシ","town":"元町","town_kana":"モトマチ","prefecture_code":23},"0871":{"zip_code":"4710871","prefecture":"愛知県","prefecture_kana":"アイチケン","city":"豊田市","city_kana":"トヨタシ","town":"元宮町","town_kana":"モトミヤチョウ","prefecture_code":23},"0806":{"zip_code":"4710806","prefecture":"愛知県","prefecture_kana":"アイチケン","city":"豊田市","city_kana":"トヨタシ","town":"森町","town_kana":"モリチョウ","prefecture_code":23},"0018":{"zip_code":"4710018","prefecture":"愛知県","prefecture_kana":"アイチケン","city":"豊田市","city_kana":"トヨタシ","town":"社町","town_kana":"ヤシロチョウ","prefecture_code":23},"0002":{"zip_code":"4710002","prefecture":"愛知県","prefecture_kana":"アイチケン","city":"豊田市","city_kana":"トヨタシ","town":"矢並町","town_kana":"ヤナミチョウ","prefecture_code":23},"0833":{"zip_code":"4710833","prefecture":"愛知県","prefecture_kana":"アイチケン","city":"豊田市","city_kana":"トヨタシ","town":"山之手","town_kana":"ヤマノテ","prefecture_code":23},"0068":{"zip_code":"4710068","prefecture":"愛知県","prefecture_kana":"アイチケン","city":"豊田市","city_kana":"トヨタシ","town":"横山町","town_kana":"ヨコヤマチョウ","prefecture_code":23},"0872":{"zip_code":"4710872","prefecture":"愛知県","prefecture_kana":"アイチケン","city":"豊田市","city_kana":"トヨタシ","town":"竜宮町","town_kana":"リュウグウチョウ","prefecture_code":23},"0061":{"zip_code":"4710061","prefecture":"愛知県","prefecture_kana":"アイチケン","city":"豊田市","city_kana":"トヨタシ","town":"若草町","town_kana":"ワカクサチョウ","prefecture_code":23},"0026":{"zip_code":"4710026","prefecture":"愛知県","prefecture_kana":"アイチケン","city":"豊田市","city_kana":"トヨタシ","town":"若宮町","town_kana":"ワカミヤチョウ","prefecture_code":23}}