{"0000":{"zip_code":"4720000","prefecture":"愛知県","prefecture_kana":"アイチケン","city":"知立市","city_kana":"チリュウシ","town":"以下に掲載がない場合","town_kana":"イカニケイサイガナイバアイ","prefecture_code":23},"0021":{"zip_code":"4720021","prefecture":"愛知県","prefecture_kana":"アイチケン","city":"知立市","city_kana":"チリュウシ","town":"逢妻町","town_kana":"アイヅマチョウ","prefecture_code":23},"0025":{"zip_code":"4720025","prefecture":"愛知県","prefecture_kana":"アイチケン","city":"知立市","city_kana":"チリュウシ","town":"池端","town_kana":"イケハタ","prefecture_code":23},"0003":{"zip_code":"4720003","prefecture":"愛知県","prefecture_kana":"アイチケン","city":"知立市","city_kana":"チリュウシ","town":"牛田","town_kana":"ウシダ","prefecture_code":23},"0007":{"zip_code":"4720007","prefecture":"愛知県","prefecture_kana":"アイチケン","city":"知立市","city_kana":"チリュウシ","town":"牛田町","town_kana":"ウシタチョウ","prefecture_code":23},"0042":{"zip_code":"4720042","prefecture":"愛知県","prefecture_kana":"アイチケン","city":"知立市","city_kana":"チリュウシ","town":"内幸町","town_kana":"ウチサイワイチョウ","prefecture_code":23},"0058":{"zip_code":"4720058","prefecture":"愛知県","prefecture_kana":"アイチケン","city":"知立市","city_kana":"チリュウシ","town":"上重原","town_kana":"カミシゲハラ","prefecture_code":23},"0026":{"zip_code":"4720026","prefecture":"愛知県","prefecture_kana":"アイチケン","city":"知立市","city_kana":"チリュウシ","town":"上重原町","town_kana":"カミシゲハラチョウ","prefecture_code":23},"0034":{"zip_code":"4720034","prefecture":"愛知県","prefecture_kana":"アイチケン","city":"知立市","city_kana":"チリュウシ","town":"弘栄","town_kana":"コウエイ","prefecture_code":23},"0052":{"zip_code":"4720052","prefecture":"愛知県","prefecture_kana":"アイチケン","city":"知立市","city_kana":"チリュウシ","town":"弘法","town_kana":"コウボウ","prefecture_code":23},"0046":{"zip_code":"4720046","prefecture":"愛知県","prefecture_kana":"アイチケン","city":"知立市","city_kana":"チリュウシ","town":"弘法町","town_kana":"コウボウチョウ","prefecture_code":23},"0037":{"zip_code":"4720037","prefecture":"愛知県","prefecture_kana":"アイチケン","city":"知立市","city_kana":"チリュウシ","town":"栄","town_kana":"サカエ","prefecture_code":23},"0031":{"zip_code":"4720031","prefecture":"愛知県","prefecture_kana":"アイチケン","city":"知立市","city_kana":"チリュウシ","town":"桜木町","town_kana":"サクラギチョウ","prefecture_code":23},"0011":{"zip_code":"4720011","prefecture":"愛知県","prefecture_kana":"アイチケン","city":"知立市","city_kana":"チリュウシ","town":"昭和","town_kana":"ショウワ","prefecture_code":23},"0005":{"zip_code":"4720005","prefecture":"愛知県","prefecture_kana":"アイチケン","city":"知立市","city_kana":"チリュウシ","town":"新池","town_kana":"シンイケ","prefecture_code":23},"0041":{"zip_code":"4720041","prefecture":"愛知県","prefecture_kana":"アイチケン","city":"知立市","city_kana":"チリュウシ","town":"新地町","town_kana":"シンチチョウ","prefecture_code":23},"0047":{"zip_code":"4720047","prefecture":"愛知県","prefecture_kana":"アイチケン","city":"知立市","city_kana":"チリュウシ","town":"新富","town_kana":"シントミ","prefecture_code":23},"0017":{"zip_code":"4720017","prefecture":"愛知県","prefecture_kana":"アイチケン","city":"知立市","city_kana":"チリュウシ","town":"新林町","town_kana":"シンバヤシチョウ","prefecture_code":23},"0056":{"zip_code":"4720056","prefecture":"愛知県","prefecture_kana":"アイチケン","city":"知立市","city_kana":"チリュウシ","town":"宝","town_kana":"タカラ","prefecture_code":23},"0024":{"zip_code":"4720024","prefecture":"愛知県","prefecture_kana":"アイチケン","city":"知立市","city_kana":"チリュウシ","town":"宝町","town_kana":"タカラマチ","prefecture_code":23},"0043":{"zip_code":"4720043","prefecture":"愛知県","prefecture_kana":"アイチケン","city":"知立市","city_kana":"チリュウシ","town":"東栄","town_kana":"トウエイ","prefecture_code":23},"0055":{"zip_code":"4720055","prefecture":"愛知県","prefecture_kana":"アイチケン","city":"知立市","city_kana":"チリュウシ","town":"鳥居","town_kana":"トリイ","prefecture_code":23},"0033":{"zip_code":"4720033","prefecture":"愛知県","prefecture_kana":"アイチケン","city":"知立市","city_kana":"チリュウシ","town":"中町","town_kana":"ナカマチ","prefecture_code":23},"0032":{"zip_code":"4720032","prefecture":"愛知県","prefecture_kana":"アイチケン","city":"知立市","city_kana":"チリュウシ","town":"中山町","town_kana":"ナカヤママチ","prefecture_code":23},"0045":{"zip_code":"4720045","prefecture":"愛知県","prefecture_kana":"アイチケン","city":"知立市","city_kana":"チリュウシ","town":"長篠町","town_kana":"ナガシノチョウ","prefecture_code":23},"0035":{"zip_code":"4720035","prefecture":"愛知県","prefecture_kana":"アイチケン","city":"知立市","city_kana":"チリュウシ","town":"長田","town_kana":"ナガタ","prefecture_code":23},"0004":{"zip_code":"4720004","prefecture":"愛知県","prefecture_kana":"アイチケン","city":"知立市","city_kana":"チリュウシ","town":"南陽","town_kana":"ナンヨウ","prefecture_code":23},"0057":{"zip_code":"4720057","prefecture":"愛知県","prefecture_kana":"アイチケン","city":"知立市","city_kana":"チリュウシ","town":"西","town_kana":"ニシ","prefecture_code":23},"0027":{"zip_code":"4720027","prefecture":"愛知県","prefecture_kana":"アイチケン","city":"知立市","city_kana":"チリュウシ","town":"西丘町","town_kana":"ニシオカチョウ","prefecture_code":23},"0016":{"zip_code":"4720016","prefecture":"愛知県","prefecture_kana":"アイチケン","city":"知立市","city_kana":"チリュウシ","town":"西中町","town_kana":"ニシナカチョウ","prefecture_code":23},"0023":{"zip_code":"4720023","prefecture":"愛知県","prefecture_kana":"アイチケン","city":"知立市","city_kana":"チリュウシ","town":"西町","town_kana":"ニシマチ","prefecture_code":23},"0054":{"zip_code":"4720054","prefecture":"愛知県","prefecture_kana":"アイチケン","city":"知立市","city_kana":"チリュウシ","town":"東上重原","town_kana":"ヒガシカミシゲハラ","prefecture_code":23},"0051":{"zip_code":"4720051","prefecture":"愛知県","prefecture_kana":"アイチケン","city":"知立市","city_kana":"チリュウシ","town":"東長篠","town_kana":"ヒガシナガシノ","prefecture_code":23},"0044":{"zip_code":"4720044","prefecture":"愛知県","prefecture_kana":"アイチケン","city":"知立市","city_kana":"チリュウシ","town":"広見","town_kana":"ヒロミ","prefecture_code":23},"0036":{"zip_code":"4720036","prefecture":"愛知県","prefecture_kana":"アイチケン","city":"知立市","city_kana":"チリュウシ","town":"堀切","town_kana":"ホリキリ","prefecture_code":23},"0038":{"zip_code":"4720038","prefecture":"愛知県","prefecture_kana":"アイチケン","city":"知立市","city_kana":"チリュウシ","town":"本町","town_kana":"ホンマチ","prefecture_code":23},"0053":{"zip_code":"4720053","prefecture":"愛知県","prefecture_kana":"アイチケン","city":"知立市","city_kana":"チリュウシ","town":"南新地","town_kana":"ミナミシンチ","prefecture_code":23},"0013":{"zip_code":"4720013","prefecture":"愛知県","prefecture_kana":"アイチケン","city":"知立市","city_kana":"チリュウシ","town":"谷田町","town_kana":"ヤタチョウ","prefecture_code":23},"0015":{"zip_code":"4720015","prefecture":"愛知県","prefecture_kana":"アイチケン","city":"知立市","city_kana":"チリュウシ","town":"谷田町本林","town_kana":"ヤタチョウホンバヤシ","prefecture_code":23},"0014":{"zip_code":"4720014","prefecture":"愛知県","prefecture_kana":"アイチケン","city":"知立市","city_kana":"チリュウシ","town":"谷田町西","town_kana":"ヤタチョウニシ","prefecture_code":23},"0012":{"zip_code":"4720012","prefecture":"愛知県","prefecture_kana":"アイチケン","city":"知立市","city_kana":"チリュウシ","town":"八ツ田町","town_kana":"ヤツダチョウ","prefecture_code":23},"0001":{"zip_code":"4720001","prefecture":"愛知県","prefecture_kana":"アイチケン","city":"知立市","city_kana":"チリュウシ","town":"八橋町","town_kana":"ヤツハシチョウ","prefecture_code":23},"0006":{"zip_code":"4720006","prefecture":"愛知県","prefecture_kana":"アイチケン","city":"知立市","city_kana":"チリュウシ","town":"山町","town_kana":"ヤママチ","prefecture_code":23},"0022":{"zip_code":"4720022","prefecture":"愛知県","prefecture_kana":"アイチケン","city":"知立市","city_kana":"チリュウシ","town":"山屋敷町","town_kana":"ヤマヤシキチョウ","prefecture_code":23},"0002":{"zip_code":"4720002","prefecture":"愛知県","prefecture_kana":"アイチケン","city":"知立市","city_kana":"チリュウシ","town":"来迎寺町","town_kana":"ライコウジチョウ","prefecture_code":23}}