{"0000":{"zip_code":"4750000","prefecture":"愛知県","prefecture_kana":"アイチケン","city":"半田市","city_kana":"ハンダシ","town":"","town_kana":"","prefecture_code":23},"0836":{"zip_code":"4750836","prefecture":"愛知県","prefecture_kana":"アイチケン","city":"半田市","city_kana":"ハンダシ","town":"青山","town_kana":"アオヤマ","prefecture_code":23},"0838":{"zip_code":"4750838","prefecture":"愛知県","prefecture_kana":"アイチケン","city":"半田市","city_kana":"ハンダシ","town":"旭町","town_kana":"アサヒマチ","prefecture_code":23},"0039":{"zip_code":"4750039","prefecture":"愛知県","prefecture_kana":"アイチケン","city":"半田市","city_kana":"ハンダシ","town":"新居町","town_kana":"アライチョウ","prefecture_code":23},"0881":{"zip_code":"4750881","prefecture":"愛知県","prefecture_kana":"アイチケン","city":"半田市","city_kana":"ハンダシ","town":"荒古町","town_kana":"アラコチョウ","prefecture_code":23},"0017":{"zip_code":"4750017","prefecture":"愛知県","prefecture_kana":"アイチケン","city":"半田市","city_kana":"ハンダシ","town":"有脇町","town_kana":"アリワキチョウ","prefecture_code":23},"0031":{"zip_code":"4750031","prefecture":"愛知県","prefecture_kana":"アイチケン","city":"半田市","city_kana":"ハンダシ","town":"阿原町","town_kana":"アワラチョウ","prefecture_code":23},"0062":{"zip_code":"4750062","prefecture":"愛知県","prefecture_kana":"アイチケン","city":"半田市","city_kana":"ハンダシ","town":"飯森町","town_kana":"イイモリチョウ","prefecture_code":23},"0945":{"zip_code":"4750945","prefecture":"愛知県","prefecture_kana":"アイチケン","city":"半田市","city_kana":"ハンダシ","town":"池田町","town_kana":"イケダチョウ","prefecture_code":23},"0001":{"zip_code":"4750001","prefecture":"愛知県","prefecture_kana":"アイチケン","city":"半田市","city_kana":"ハンダシ","town":"石塚町","town_kana":"イシヅカチョウ","prefecture_code":23},"0858":{"zip_code":"4750858","prefecture":"愛知県","prefecture_kana":"アイチケン","city":"半田市","city_kana":"ハンダシ","town":"泉町","town_kana":"イズミマチ","prefecture_code":23},"0936":{"zip_code":"4750936","prefecture":"愛知県","prefecture_kana":"アイチケン","city":"半田市","city_kana":"ハンダシ","town":"板山町","town_kana":"イタヤマチョウ","prefecture_code":23},"0061":{"zip_code":"4750061","prefecture":"愛知県","prefecture_kana":"アイチケン","city":"半田市","city_kana":"ハンダシ","town":"一ノ草町","town_kana":"イチノクサチョウ","prefecture_code":23},"0014":{"zip_code":"4750014","prefecture":"愛知県","prefecture_kana":"アイチケン","city":"半田市","city_kana":"ハンダシ","town":"一本木町","town_kana":"イッポンギチョウ","prefecture_code":23},"0011":{"zip_code":"4750011","prefecture":"愛知県","prefecture_kana":"アイチケン","city":"半田市","city_kana":"ハンダシ","town":"稲穂町","town_kana":"イナホチョウ","prefecture_code":23},"0835":{"zip_code":"4750835","prefecture":"愛知県","prefecture_kana":"アイチケン","city":"半田市","city_kana":"ハンダシ","town":"稲荷町","town_kana":"イナリチョウ","prefecture_code":23},"0958":{"zip_code":"4750958","prefecture":"愛知県","prefecture_kana":"アイチケン","city":"半田市","city_kana":"ハンダシ","town":"鵜ノ池町","town_kana":"ウノイケチョウ","prefecture_code":23},"0952":{"zip_code":"4750952","prefecture":"愛知県","prefecture_kana":"アイチケン","city":"半田市","city_kana":"ハンダシ","town":"馬捨町","town_kana":"ウマステチョウ","prefecture_code":23},"0915":{"zip_code":"4750915","prefecture":"愛知県","prefecture_kana":"アイチケン","city":"半田市","city_kana":"ハンダシ","town":"枝山町","town_kana":"エダヤマチョウ","prefecture_code":23},"0867":{"zip_code":"4750867","prefecture":"愛知県","prefecture_kana":"アイチケン","city":"半田市","city_kana":"ハンダシ","town":"榎下町","town_kana":"エノキシタチョウ","prefecture_code":23},"0087":{"zip_code":"4750087","prefecture":"愛知県","prefecture_kana":"アイチケン","city":"半田市","city_kana":"ハンダシ","town":"大池町","town_kana":"オオイケチョウ","prefecture_code":23},"0015":{"zip_code":"4750015","prefecture":"愛知県","prefecture_kana":"アイチケン","city":"半田市","city_kana":"ハンダシ","town":"大高町","town_kana":"オオダカチョウ","prefecture_code":23},"0904":{"zip_code":"4750904","prefecture":"愛知県","prefecture_kana":"アイチケン","city":"半田市","city_kana":"ハンダシ","town":"大坪町","town_kana":"オオツボチョウ","prefecture_code":23},"0071":{"zip_code":"4750071","prefecture":"愛知県","prefecture_kana":"アイチケン","city":"半田市","city_kana":"ハンダシ","town":"大伝根町","town_kana":"オオデンネチョウ","prefecture_code":23},"0083":{"zip_code":"4750083","prefecture":"愛知県","prefecture_kana":"アイチケン","city":"半田市","city_kana":"ハンダシ","town":"大松町","town_kana":"オオマツチョウ","prefecture_code":23},"0935":{"zip_code":"4750935","prefecture":"愛知県","prefecture_kana":"アイチケン","city":"半田市","city_kana":"ハンダシ","town":"大湯町","town_kana":"オオユチョウ","prefecture_code":23},"0957":{"zip_code":"4750957","prefecture":"愛知県","prefecture_kana":"アイチケン","city":"半田市","city_kana":"ハンダシ","town":"奥町","town_kana":"オクマチ","prefecture_code":23},"0056":{"zip_code":"4750056","prefecture":"愛知県","prefecture_kana":"アイチケン","city":"半田市","city_kana":"ハンダシ","town":"乙川一色町","town_kana":"オツカワイシキチョウ","prefecture_code":23},"0046":{"zip_code":"4750046","prefecture":"愛知県","prefecture_kana":"アイチケン","city":"半田市","city_kana":"ハンダシ","town":"乙川市場町","town_kana":"オツカワイチバチョウ","prefecture_code":23},"0053":{"zip_code":"4750053","prefecture":"愛知県","prefecture_kana":"アイチケン","city":"半田市","city_kana":"ハンダシ","town":"乙川内山町","town_kana":"オツカワウチヤマチョウ","prefecture_code":23},"0041":{"zip_code":"4750041","prefecture":"愛知県","prefecture_kana":"アイチケン","city":"半田市","city_kana":"ハンダシ","town":"乙川太田町","town_kana":"オツカワオオタチョウ","prefecture_code":23},"0047":{"zip_code":"4750047","prefecture":"愛知県","prefecture_kana":"アイチケン","city":"半田市","city_kana":"ハンダシ","town":"乙川北側町","town_kana":"オツカワキタガワチョウ","prefecture_code":23},"0066":{"zip_code":"4750066","prefecture":"愛知県","prefecture_kana":"アイチケン","city":"半田市","city_kana":"ハンダシ","town":"乙川源内林町","town_kana":"オツカワゲンナイバヤシチョウ","prefecture_code":23},"0051":{"zip_code":"4750051","prefecture":"愛知県","prefecture_kana":"アイチケン","city":"半田市","city_kana":"ハンダシ","town":"乙川栄町","town_kana":"オツカワサカエマチ","prefecture_code":23},"0057":{"zip_code":"4750057","prefecture":"愛知県","prefecture_kana":"アイチケン","city":"半田市","city_kana":"ハンダシ","town":"乙川新町","town_kana":"オツカワシンマチ","prefecture_code":23},"0803":{"zip_code":"4750803","prefecture":"愛知県","prefecture_kana":"アイチケン","city":"半田市","city_kana":"ハンダシ","town":"乙川末広町","town_kana":"オツカワスエヒロチョウ","prefecture_code":23},"0052":{"zip_code":"4750052","prefecture":"愛知県","prefecture_kana":"アイチケン","city":"半田市","city_kana":"ハンダシ","town":"乙川高良町","town_kana":"オツカワタカラマチ","prefecture_code":23},"0045":{"zip_code":"4750045","prefecture":"愛知県","prefecture_kana":"アイチケン","city":"半田市","city_kana":"ハンダシ","town":"乙川殿町","town_kana":"オツカワトノマチ","prefecture_code":23},"0068":{"zip_code":"4750068","prefecture":"愛知県","prefecture_kana":"アイチケン","city":"半田市","city_kana":"ハンダシ","town":"乙川西ノ宮町","town_kana":"オツカワニシノミヤチョウ","prefecture_code":23},"0067":{"zip_code":"4750067","prefecture":"愛知県","prefecture_kana":"アイチケン","city":"半田市","city_kana":"ハンダシ","town":"乙川畑田町","town_kana":"オツカワハタダチョウ","prefecture_code":23},"0044":{"zip_code":"4750044","prefecture":"愛知県","prefecture_kana":"アイチケン","city":"半田市","city_kana":"ハンダシ","town":"乙川八幡町","town_kana":"オツカワハチマンチョウ","prefecture_code":23},"0043":{"zip_code":"4750043","prefecture":"愛知県","prefecture_kana":"アイチケン","city":"半田市","city_kana":"ハンダシ","town":"乙川浜側町","town_kana":"オツカワハマガワチョウ","prefecture_code":23},"0048":{"zip_code":"4750048","prefecture":"愛知県","prefecture_kana":"アイチケン","city":"半田市","city_kana":"ハンダシ","town":"乙川稗田町","town_kana":"オツカワヒエダチョウ","prefecture_code":23},"0065":{"zip_code":"4750065","prefecture":"愛知県","prefecture_kana":"アイチケン","city":"半田市","city_kana":"ハンダシ","town":"乙川深田町","town_kana":"オツカワフカダチョウ","prefecture_code":23},"0042":{"zip_code":"4750042","prefecture":"愛知県","prefecture_kana":"アイチケン","city":"半田市","city_kana":"ハンダシ","town":"乙川向田町","town_kana":"オツカワムカイダチョウ","prefecture_code":23},"0064":{"zip_code":"4750064","prefecture":"愛知県","prefecture_kana":"アイチケン","city":"半田市","city_kana":"ハンダシ","town":"乙川薬師町","town_kana":"オツカワヤクシチョウ","prefecture_code":23},"0058":{"zip_code":"4750058","prefecture":"愛知県","prefecture_kana":"アイチケン","city":"半田市","city_kana":"ハンダシ","town":"乙川吉野町","town_kana":"オツカワヨシノチョウ","prefecture_code":23},"0063":{"zip_code":"4750063","prefecture":"愛知県","prefecture_kana":"アイチケン","city":"半田市","city_kana":"ハンダシ","town":"乙川若宮町","town_kana":"オツカワワカミヤチョウ","prefecture_code":23},"0054":{"zip_code":"4750054","prefecture":"愛知県","prefecture_kana":"アイチケン","city":"半田市","city_kana":"ハンダシ","town":"乙川町","town_kana":"オツカワチョウ","prefecture_code":23},"0967":{"zip_code":"4750967","prefecture":"愛知県","prefecture_kana":"アイチケン","city":"半田市","city_kana":"ハンダシ","town":"欠ケ下町","town_kana":"カケガシタチョウ","prefecture_code":23},"0923":{"zip_code":"4750923","prefecture":"愛知県","prefecture_kana":"アイチケン","city":"半田市","city_kana":"ハンダシ","town":"春日町","town_kana":"カスガチョウ","prefecture_code":23},"0953":{"zip_code":"4750953","prefecture":"愛知県","prefecture_kana":"アイチケン","city":"半田市","city_kana":"ハンダシ","town":"金山町","town_kana":"カナヤマチョウ","prefecture_code":23},"0004":{"zip_code":"4750004","prefecture":"愛知県","prefecture_kana":"アイチケン","city":"半田市","city_kana":"ハンダシ","town":"上池町","town_kana":"カミイケチョウ","prefecture_code":23},"0944":{"zip_code":"4750944","prefecture":"愛知県","prefecture_kana":"アイチケン","city":"半田市","city_kana":"ハンダシ","town":"神代町","town_kana":"カミシロチョウ","prefecture_code":23},"0009":{"zip_code":"4750009","prefecture":"愛知県","prefecture_kana":"アイチケン","city":"半田市","city_kana":"ハンダシ","town":"上定光町","town_kana":"カミジョウコウチョウ","prefecture_code":23},"0804":{"zip_code":"4750804","prefecture":"愛知県","prefecture_kana":"アイチケン","city":"半田市","city_kana":"ハンダシ","town":"上浜町","town_kana":"カミハマチョウ","prefecture_code":23},"0028":{"zip_code":"4750028","prefecture":"愛知県","prefecture_kana":"アイチケン","city":"半田市","city_kana":"ハンダシ","town":"亀崎相生町","town_kana":"カメザキアイオイチョウ","prefecture_code":23},"0025":{"zip_code":"4750025","prefecture":"愛知県","prefecture_kana":"アイチケン","city":"半田市","city_kana":"ハンダシ","town":"亀崎大洞町","town_kana":"カメザキオオボラチョウ","prefecture_code":23},"0027":{"zip_code":"4750027","prefecture":"愛知県","prefecture_kana":"アイチケン","city":"半田市","city_kana":"ハンダシ","town":"亀崎北浦町","town_kana":"カメザキキタウラチョウ","prefecture_code":23},"0026":{"zip_code":"4750026","prefecture":"愛知県","prefecture_kana":"アイチケン","city":"半田市","city_kana":"ハンダシ","town":"亀崎新田町","town_kana":"カメザキシンデンチョウ","prefecture_code":23},"0024":{"zip_code":"4750024","prefecture":"愛知県","prefecture_kana":"アイチケン","city":"半田市","city_kana":"ハンダシ","town":"亀崎高根町","town_kana":"カメザキタカネチョウ","prefecture_code":23},"0022":{"zip_code":"4750022","prefecture":"愛知県","prefecture_kana":"アイチケン","city":"半田市","city_kana":"ハンダシ","town":"亀崎月見町","town_kana":"カメザキツキミチョウ","prefecture_code":23},"0029":{"zip_code":"4750029","prefecture":"愛知県","prefecture_kana":"アイチケン","city":"半田市","city_kana":"ハンダシ","town":"亀崎常盤町","town_kana":"カメザキトキワチョウ","prefecture_code":23},"0023":{"zip_code":"4750023","prefecture":"愛知県","prefecture_kana":"アイチケン","city":"半田市","city_kana":"ハンダシ","town":"亀崎町","town_kana":"カメザキチョウ","prefecture_code":23},"0932":{"zip_code":"4750932","prefecture":"愛知県","prefecture_kana":"アイチケン","city":"半田市","city_kana":"ハンダシ","town":"鴉根町","town_kana":"カラスネチョウ","prefecture_code":23},"0918":{"zip_code":"4750918","prefecture":"愛知県","prefecture_kana":"アイチケン","city":"半田市","city_kana":"ハンダシ","town":"雁宿町","town_kana":"カリヤドチョウ","prefecture_code":23},"0832":{"zip_code":"4750832","prefecture":"愛知県","prefecture_kana":"アイチケン","city":"半田市","city_kana":"ハンダシ","town":"川崎町","town_kana":"カワサキチョウ","prefecture_code":23},"0808":{"zip_code":"4750808","prefecture":"愛知県","prefecture_kana":"アイチケン","city":"半田市","city_kana":"ハンダシ","town":"川田町","town_kana":"カワダチョウ","prefecture_code":23},"0937":{"zip_code":"4750937","prefecture":"愛知県","prefecture_kana":"アイチケン","city":"半田市","city_kana":"ハンダシ","town":"神田町","town_kana":"カンダチョウ","prefecture_code":23},"0877":{"zip_code":"4750877","prefecture":"愛知県","prefecture_kana":"アイチケン","city":"半田市","city_kana":"ハンダシ","town":"勘内町","town_kana":"カンナイチョウ","prefecture_code":23},"0008":{"zip_code":"4750008","prefecture":"愛知県","prefecture_kana":"アイチケン","city":"半田市","city_kana":"ハンダシ","town":"北大矢知町","town_kana":"キタオオヤチチョウ","prefecture_code":23},"0852":{"zip_code":"4750852","prefecture":"愛知県","prefecture_kana":"アイチケン","city":"半田市","city_kana":"ハンダシ","town":"北末広町","town_kana":"キタスエヒロチョウ","prefecture_code":23},"0972":{"zip_code":"4750972","prefecture":"愛知県","prefecture_kana":"アイチケン","city":"半田市","city_kana":"ハンダシ","town":"北滑草町","town_kana":"キタナメソウチョウ","prefecture_code":23},"0055":{"zip_code":"4750055","prefecture":"愛知県","prefecture_kana":"アイチケン","city":"半田市","city_kana":"ハンダシ","town":"北浜田町","town_kana":"キタハマダチョウ","prefecture_code":23},"0927":{"zip_code":"4750927","prefecture":"愛知県","prefecture_kana":"アイチケン","city":"半田市","city_kana":"ハンダシ","town":"北二ツ坂町","town_kana":"キタフタツサカチョウ","prefecture_code":23},"0977":{"zip_code":"4750977","prefecture":"愛知県","prefecture_kana":"アイチケン","city":"半田市","city_kana":"ハンダシ","town":"吉田町","town_kana":"キッタチョウ","prefecture_code":23},"0938":{"zip_code":"4750938","prefecture":"愛知県","prefecture_kana":"アイチケン","city":"半田市","city_kana":"ハンダシ","town":"君ケ橋町","town_kana":"キミガハシチョウ","prefecture_code":23},"0955":{"zip_code":"4750955","prefecture":"愛知県","prefecture_kana":"アイチケン","city":"半田市","city_kana":"ハンダシ","town":"行人町","town_kana":"ギョウニンチョウ","prefecture_code":23},"0854":{"zip_code":"4750854","prefecture":"愛知県","prefecture_kana":"アイチケン","city":"半田市","city_kana":"ハンダシ","town":"協和町","town_kana":"キョウワチョウ","prefecture_code":23},"0928":{"zip_code":"4750928","prefecture":"愛知県","prefecture_kana":"アイチケン","city":"半田市","city_kana":"ハンダシ","town":"桐ケ丘","town_kana":"キリガオカ","prefecture_code":23},"0874":{"zip_code":"4750874","prefecture":"愛知県","prefecture_kana":"アイチケン","city":"半田市","city_kana":"ハンダシ","town":"銀座本町","town_kana":"ギンザホンマチ","prefecture_code":23},"0976":{"zip_code":"4750976","prefecture":"愛知県","prefecture_kana":"アイチケン","city":"半田市","city_kana":"ハンダシ","town":"黒石町","town_kana":"クロイシチョウ","prefecture_code":23},"0816":{"zip_code":"4750816","prefecture":"愛知県","prefecture_kana":"アイチケン","city":"半田市","city_kana":"ハンダシ","town":"源平町","town_kana":"ゲンペイチョウ","prefecture_code":23},"0086":{"zip_code":"4750086","prefecture":"愛知県","prefecture_kana":"アイチケン","city":"半田市","city_kana":"ハンダシ","town":"庚申町","town_kana":"コウシンチョウ","prefecture_code":23},"0856":{"zip_code":"4750856","prefecture":"愛知県","prefecture_kana":"アイチケン","city":"半田市","city_kana":"ハンダシ","town":"更生町","town_kana":"コウセイチョウ","prefecture_code":23},"0842":{"zip_code":"4750842","prefecture":"愛知県","prefecture_kana":"アイチケン","city":"半田市","city_kana":"ハンダシ","town":"郷中町","town_kana":"ゴウナカチョウ","prefecture_code":23},"0085":{"zip_code":"4750085","prefecture":"愛知県","prefecture_kana":"アイチケン","city":"半田市","city_kana":"ハンダシ","town":"小神町","town_kana":"コシンチョウ","prefecture_code":23},"0806":{"zip_code":"4750806","prefecture":"愛知県","prefecture_kana":"アイチケン","city":"半田市","city_kana":"ハンダシ","town":"古浜町","town_kana":"コハマチョウ","prefecture_code":23},"0814":{"zip_code":"4750814","prefecture":"愛知県","prefecture_kana":"アイチケン","city":"半田市","city_kana":"ハンダシ","town":"幸町","town_kana":"サイワイチョウ","prefecture_code":23},"0846":{"zip_code":"4750846","prefecture":"愛知県","prefecture_kana":"アイチケン","city":"半田市","city_kana":"ハンダシ","town":"栄町","town_kana":"サカエマチ","prefecture_code":23},"0934":{"zip_code":"4750934","prefecture":"愛知県","prefecture_kana":"アイチケン","city":"半田市","city_kana":"ハンダシ","town":"椎ノ木町","town_kana":"シイノキチョウ","prefecture_code":23},"0032":{"zip_code":"4750032","prefecture":"愛知県","prefecture_kana":"アイチケン","city":"半田市","city_kana":"ハンダシ","town":"潮干町","town_kana":"シオヒチョウ","prefecture_code":23},"0072":{"zip_code":"4750072","prefecture":"愛知県","prefecture_kana":"アイチケン","city":"半田市","city_kana":"ハンダシ","town":"七本木町","town_kana":"シチホンギチョウ","prefecture_code":23},"0872":{"zip_code":"4750872","prefecture":"愛知県","prefecture_kana":"アイチケン","city":"半田市","city_kana":"ハンダシ","town":"東雲町","town_kana":"シノノメチョウ","prefecture_code":23},"0869":{"zip_code":"4750869","prefecture":"愛知県","prefecture_kana":"アイチケン","city":"半田市","city_kana":"ハンダシ","town":"清水東町","town_kana":"シミズヒガシマチ","prefecture_code":23},"0865":{"zip_code":"4750865","prefecture":"愛知県","prefecture_kana":"アイチケン","city":"半田市","city_kana":"ハンダシ","town":"清水西町","town_kana":"シミズニシマチ","prefecture_code":23},"0866":{"zip_code":"4750866","prefecture":"愛知県","prefecture_kana":"アイチケン","city":"半田市","city_kana":"ハンダシ","town":"清水北町","town_kana":"シミズキタマチ","prefecture_code":23},"0922":{"zip_code":"4750922","prefecture":"愛知県","prefecture_kana":"アイチケン","city":"半田市","city_kana":"ハンダシ","town":"昭和町","town_kana":"ショウワチョウ","prefecture_code":23},"0078":{"zip_code":"4750078","prefecture":"愛知県","prefecture_kana":"アイチケン","city":"半田市","city_kana":"ハンダシ","town":"新池町","town_kana":"シンイケチョウ","prefecture_code":23},"0886":{"zip_code":"4750886","prefecture":"愛知県","prefecture_kana":"アイチケン","city":"半田市","city_kana":"ハンダシ","town":"新川町","town_kana":"シンカワチョウ","prefecture_code":23},"0931":{"zip_code":"4750931","prefecture":"愛知県","prefecture_kana":"アイチケン","city":"半田市","city_kana":"ハンダシ","town":"新宮町","town_kana":"シングウチョウ","prefecture_code":23},"0815":{"zip_code":"4750815","prefecture":"愛知県","prefecture_kana":"アイチケン","city":"半田市","city_kana":"ハンダシ","town":"新栄町","town_kana":"シンサカエマチ","prefecture_code":23},"0965":{"zip_code":"4750965","prefecture":"愛知県","prefecture_kana":"アイチケン","city":"半田市","city_kana":"ハンダシ","town":"新生町","town_kana":"シンセイチョウ","prefecture_code":23},"0824":{"zip_code":"4750824","prefecture":"愛知県","prefecture_kana":"アイチケン","city":"半田市","city_kana":"ハンダシ","town":"新浜町","town_kana":"シンハマチョウ","prefecture_code":23},"0826":{"zip_code":"4750826","prefecture":"愛知県","prefecture_kana":"アイチケン","city":"半田市","city_kana":"ハンダシ","town":"神明町","town_kana":"シンメイチョウ","prefecture_code":23},"0831":{"zip_code":"4750831","prefecture":"愛知県","prefecture_kana":"アイチケン","city":"半田市","city_kana":"ハンダシ","town":"十一号地","town_kana":"ジュウイチゴウチ","prefecture_code":23},"0954":{"zip_code":"4750954","prefecture":"愛知県","prefecture_kana":"アイチケン","city":"半田市","city_kana":"ハンダシ","town":"十三塚町","town_kana":"ジュウサンヅカチョウ","prefecture_code":23},"0947":{"zip_code":"4750947","prefecture":"愛知県","prefecture_kana":"アイチケン","city":"半田市","city_kana":"ハンダシ","town":"砂谷町","town_kana":"スナダニチョウ","prefecture_code":23},"0021":{"zip_code":"4750021","prefecture":"愛知県","prefecture_kana":"アイチケン","city":"半田市","city_kana":"ハンダシ","town":"州の崎町","town_kana":"スノサキチョウ","prefecture_code":23},"0862":{"zip_code":"4750862","prefecture":"愛知県","prefecture_kana":"アイチケン","city":"半田市","city_kana":"ハンダシ","town":"住吉町","town_kana":"スミヨシチョウ","prefecture_code":23},"0917":{"zip_code":"4750917","prefecture":"愛知県","prefecture_kana":"アイチケン","city":"半田市","city_kana":"ハンダシ","town":"清城町","town_kana":"セイシロチョウ","prefecture_code":23},"0801":{"zip_code":"4750801","prefecture":"愛知県","prefecture_kana":"アイチケン","city":"半田市","city_kana":"ハンダシ","town":"相賀町","town_kana":"ソウガチョウ","prefecture_code":23},"0036":{"zip_code":"4750036","prefecture":"愛知県","prefecture_kana":"アイチケン","city":"半田市","city_kana":"ハンダシ","town":"高砂町","town_kana":"タカサゴチョウ","prefecture_code":23},"0943":{"zip_code":"4750943","prefecture":"愛知県","prefecture_kana":"アイチケン","city":"半田市","city_kana":"ハンダシ","town":"高峯町","town_kana":"タカミネチョウ","prefecture_code":23},"0948":{"zip_code":"4750948","prefecture":"愛知県","prefecture_kana":"アイチケン","city":"半田市","city_kana":"ハンダシ","town":"田代町","town_kana":"タシロチョウ","prefecture_code":23},"0968":{"zip_code":"4750968","prefecture":"愛知県","prefecture_kana":"アイチケン","city":"半田市","city_kana":"ハンダシ","town":"丁田町","town_kana":"チョウダチョウ","prefecture_code":23},"0903":{"zip_code":"4750903","prefecture":"愛知県","prefecture_kana":"アイチケン","city":"半田市","city_kana":"ハンダシ","town":"出口町","town_kana":"デグチチョウ","prefecture_code":23},"0844":{"zip_code":"4750844","prefecture":"愛知県","prefecture_kana":"アイチケン","city":"半田市","city_kana":"ハンダシ","town":"寺町","town_kana":"テラマチ","prefecture_code":23},"0921":{"zip_code":"4750921","prefecture":"愛知県","prefecture_kana":"アイチケン","city":"半田市","city_kana":"ハンダシ","town":"天神町","town_kana":"テンジンチョウ","prefecture_code":23},"0859":{"zip_code":"4750859","prefecture":"愛知県","prefecture_kana":"アイチケン","city":"半田市","city_kana":"ハンダシ","town":"天王町","town_kana":"テンノウチョウ","prefecture_code":23},"0914":{"zip_code":"4750914","prefecture":"愛知県","prefecture_kana":"アイチケン","city":"半田市","city_kana":"ハンダシ","town":"土井山町","town_kana":"ドイヤマチョウ","prefecture_code":23},"0924":{"zip_code":"4750924","prefecture":"愛知県","prefecture_kana":"アイチケン","city":"半田市","city_kana":"ハンダシ","town":"東郷町","town_kana":"トウゴウチョウ","prefecture_code":23},"0817":{"zip_code":"4750817","prefecture":"愛知県","prefecture_kana":"アイチケン","city":"半田市","city_kana":"ハンダシ","town":"東洋町","town_kana":"トウヨウチョウ","prefecture_code":23},"0075":{"zip_code":"4750075","prefecture":"愛知県","prefecture_kana":"アイチケン","city":"半田市","city_kana":"ハンダシ","town":"苗代町","town_kana":"ナエシロチョウ","prefecture_code":23},"0037":{"zip_code":"4750037","prefecture":"愛知県","prefecture_kana":"アイチケン","city":"半田市","city_kana":"ハンダシ","town":"中午町","town_kana":"ナカウマチョウ","prefecture_code":23},"0035":{"zip_code":"4750035","prefecture":"愛知県","prefecture_kana":"アイチケン","city":"半田市","city_kana":"ハンダシ","town":"中億田町","town_kana":"ナカオクダチョウ","prefecture_code":23},"0843":{"zip_code":"4750843","prefecture":"愛知県","prefecture_kana":"アイチケン","city":"半田市","city_kana":"ハンダシ","town":"中島町","town_kana":"ナカシマチョウ","prefecture_code":23},"0929":{"zip_code":"4750929","prefecture":"愛知県","prefecture_kana":"アイチケン","city":"半田市","city_kana":"ハンダシ","town":"仲田町","town_kana":"ナカタチョウ","prefecture_code":23},"0018":{"zip_code":"4750018","prefecture":"愛知県","prefecture_kana":"アイチケン","city":"半田市","city_kana":"ハンダシ","town":"中生見町","town_kana":"ナカハエミチョウ","prefecture_code":23},"0855":{"zip_code":"4750855","prefecture":"愛知県","prefecture_kana":"アイチケン","city":"半田市","city_kana":"ハンダシ","town":"中町","town_kana":"ナカマチ","prefecture_code":23},"0873":{"zip_code":"4750873","prefecture":"愛知県","prefecture_kana":"アイチケン","city":"半田市","city_kana":"ハンダシ","town":"中村町","town_kana":"ナカムラチョウ","prefecture_code":23},"0074":{"zip_code":"4750074","prefecture":"愛知県","prefecture_kana":"アイチケン","city":"半田市","city_kana":"ハンダシ","town":"長根町","town_kana":"ナガネチョウ","prefecture_code":23},"0941":{"zip_code":"4750941","prefecture":"愛知県","prefecture_kana":"アイチケン","city":"半田市","city_kana":"ハンダシ","town":"滑楚町","town_kana":"ナメソチョウ","prefecture_code":23},"0845":{"zip_code":"4750845","prefecture":"愛知県","prefecture_kana":"アイチケン","city":"半田市","city_kana":"ハンダシ","town":"成岩東町","town_kana":"ナラワヒガシマチ","prefecture_code":23},"0848":{"zip_code":"4750848","prefecture":"愛知県","prefecture_kana":"アイチケン","city":"半田市","city_kana":"ハンダシ","town":"成岩本町","town_kana":"ナラワホンマチ","prefecture_code":23},"0933":{"zip_code":"4750933","prefecture":"愛知県","prefecture_kana":"アイチケン","city":"半田市","city_kana":"ハンダシ","town":"新野町","town_kana":"ニイノチョウ","prefecture_code":23},"0007":{"zip_code":"4750007","prefecture":"愛知県","prefecture_kana":"アイチケン","city":"半田市","city_kana":"ハンダシ","town":"西大矢知町","town_kana":"ニシオオヤチチョウ","prefecture_code":23},"0802":{"zip_code":"4750802","prefecture":"愛知県","prefecture_kana":"アイチケン","city":"半田市","city_kana":"ハンダシ","town":"西億田町","town_kana":"ニシオクダチョウ","prefecture_code":23},"0868":{"zip_code":"4750868","prefecture":"愛知県","prefecture_kana":"アイチケン","city":"半田市","city_kana":"ハンダシ","town":"西新町","town_kana":"ニシシンマチ","prefecture_code":23},"0016":{"zip_code":"4750016","prefecture":"愛知県","prefecture_kana":"アイチケン","city":"半田市","city_kana":"ハンダシ","town":"西生見町","town_kana":"ニシハエミチョウ","prefecture_code":23},"0884":{"zip_code":"4750884","prefecture":"愛知県","prefecture_kana":"アイチケン","city":"半田市","city_kana":"ハンダシ","town":"西端町","town_kana":"ニシバタチョウ","prefecture_code":23},"0033":{"zip_code":"4750033","prefecture":"愛知県","prefecture_kana":"アイチケン","city":"半田市","city_kana":"ハンダシ","town":"日東町","town_kana":"ニットウチョウ","prefecture_code":23},"0038":{"zip_code":"4750038","prefecture":"愛知県","prefecture_kana":"アイチケン","city":"半田市","city_kana":"ハンダシ","town":"祢宜町","town_kana":"ネギチョウ","prefecture_code":23},"0019":{"zip_code":"4750019","prefecture":"愛知県","prefecture_kana":"アイチケン","city":"半田市","city_kana":"ハンダシ","town":"のぞみが丘","town_kana":"ノゾミガオカ","prefecture_code":23},"0912":{"zip_code":"4750912","prefecture":"愛知県","prefecture_kana":"アイチケン","city":"半田市","city_kana":"ハンダシ","town":"白山町","town_kana":"ハクサンチョウ","prefecture_code":23},"0077":{"zip_code":"4750077","prefecture":"愛知県","prefecture_kana":"アイチケン","city":"半田市","city_kana":"ハンダシ","town":"兀山町","town_kana":"ハゲヤマチョウ","prefecture_code":23},"0847":{"zip_code":"4750847","prefecture":"愛知県","prefecture_kana":"アイチケン","city":"半田市","city_kana":"ハンダシ","town":"畑合町","town_kana":"ハタアイチョウ","prefecture_code":23},"0807":{"zip_code":"4750807","prefecture":"愛知県","prefecture_kana":"アイチケン","city":"半田市","city_kana":"ハンダシ","town":"八軒町","town_kana":"ハチケンチョウ","prefecture_code":23},"0833":{"zip_code":"4750833","prefecture":"愛知県","prefecture_kana":"アイチケン","city":"半田市","city_kana":"ハンダシ","town":"花園町","town_kana":"ハナゾノチョウ","prefecture_code":23},"0088":{"zip_code":"4750088","prefecture":"愛知県","prefecture_kana":"アイチケン","city":"半田市","city_kana":"ハンダシ","town":"花田町","town_kana":"ハナダチョウ","prefecture_code":23},"0805":{"zip_code":"4750805","prefecture":"愛知県","prefecture_kana":"アイチケン","city":"半田市","city_kana":"ハンダシ","town":"浜田町","town_kana":"ハマダチョウ","prefecture_code":23},"0822":{"zip_code":"4750822","prefecture":"愛知県","prefecture_kana":"アイチケン","city":"半田市","city_kana":"ハンダシ","town":"浜町","town_kana":"ハママチ","prefecture_code":23},"0916":{"zip_code":"4750916","prefecture":"愛知県","prefecture_kana":"アイチケン","city":"半田市","city_kana":"ハンダシ","town":"柊町","town_kana":"ヒイラギチョウ","prefecture_code":23},"0003":{"zip_code":"4750003","prefecture":"愛知県","prefecture_kana":"アイチケン","city":"半田市","city_kana":"ハンダシ","town":"東大矢知町","town_kana":"ヒガシオオヤチチョウ","prefecture_code":23},"0034":{"zip_code":"4750034","prefecture":"愛知県","prefecture_kana":"アイチケン","city":"半田市","city_kana":"ハンダシ","town":"東億田町","town_kana":"ヒガシオクダチョウ","prefecture_code":23},"0861":{"zip_code":"4750861","prefecture":"愛知県","prefecture_kana":"アイチケン","city":"半田市","city_kana":"ハンダシ","town":"東新町","town_kana":"ヒガシシンマチ","prefecture_code":23},"0876":{"zip_code":"4750876","prefecture":"愛知県","prefecture_kana":"アイチケン","city":"半田市","city_kana":"ハンダシ","town":"東天王町","town_kana":"ヒガシテンノウチョウ","prefecture_code":23},"0012":{"zip_code":"4750012","prefecture":"愛知県","prefecture_kana":"アイチケン","city":"半田市","city_kana":"ハンダシ","town":"東生見町","town_kana":"ヒガシハエミチョウ","prefecture_code":23},"0813":{"zip_code":"4750813","prefecture":"愛知県","prefecture_kana":"アイチケン","city":"半田市","city_kana":"ハンダシ","town":"東浜町","town_kana":"ヒガシハマチョウ","prefecture_code":23},"0878":{"zip_code":"4750878","prefecture":"愛知県","prefecture_kana":"アイチケン","city":"半田市","city_kana":"ハンダシ","town":"東本町","town_kana":"ヒガシホンマチ","prefecture_code":23},"0975":{"zip_code":"4750975","prefecture":"愛知県","prefecture_kana":"アイチケン","city":"半田市","city_kana":"ハンダシ","town":"彦洲町","town_kana":"ヒコズチョウ","prefecture_code":23},"0819":{"zip_code":"4750819","prefecture":"愛知県","prefecture_kana":"アイチケン","city":"半田市","city_kana":"ハンダシ","town":"日ノ出町","town_kana":"ヒノデチョウ","prefecture_code":23},"0964":{"zip_code":"4750964","prefecture":"愛知県","prefecture_kana":"アイチケン","city":"半田市","city_kana":"ハンダシ","town":"平井町","town_kana":"ヒライチョウ","prefecture_code":23},"0081":{"zip_code":"4750081","prefecture":"愛知県","prefecture_kana":"アイチケン","city":"半田市","city_kana":"ハンダシ","town":"平地町","town_kana":"ヒラチチョウ","prefecture_code":23},"0013":{"zip_code":"4750013","prefecture":"愛知県","prefecture_kana":"アイチケン","city":"半田市","city_kana":"ハンダシ","town":"平地馬場町","town_kana":"ヒラチバンバチョウ","prefecture_code":23},"0857":{"zip_code":"4750857","prefecture":"愛知県","prefecture_kana":"アイチケン","city":"半田市","city_kana":"ハンダシ","town":"広小路町","town_kana":"ヒロコウジチョウ","prefecture_code":23},"0971":{"zip_code":"4750971","prefecture":"愛知県","prefecture_kana":"アイチケン","city":"半田市","city_kana":"ハンダシ","town":"深谷町","town_kana":"フカダニチョウ","prefecture_code":23},"0978":{"zip_code":"4750978","prefecture":"愛知県","prefecture_kana":"アイチケン","city":"半田市","city_kana":"ハンダシ","town":"福地町","town_kana":"フクチチョウ","prefecture_code":23},"0834":{"zip_code":"4750834","prefecture":"愛知県","prefecture_kana":"アイチケン","city":"半田市","city_kana":"ハンダシ","town":"冨士ケ丘","town_kana":"フジガオカ","prefecture_code":23},"0821":{"zip_code":"4750821","prefecture":"愛知県","prefecture_kana":"アイチケン","city":"半田市","city_kana":"ハンダシ","town":"船入町","town_kana":"フナイリチョウ","prefecture_code":23},"0963":{"zip_code":"4750963","prefecture":"愛知県","prefecture_kana":"アイチケン","city":"半田市","city_kana":"ハンダシ","town":"平和町","town_kana":"ヘイワチョウ","prefecture_code":23},"0951":{"zip_code":"4750951","prefecture":"愛知県","prefecture_kana":"アイチケン","city":"半田市","city_kana":"ハンダシ","town":"宝来町","town_kana":"ホウライチョウ","prefecture_code":23},"0911":{"zip_code":"4750911","prefecture":"愛知県","prefecture_kana":"アイチケン","city":"半田市","city_kana":"ハンダシ","town":"星崎町","town_kana":"ホシザキチョウ","prefecture_code":23},"0851":{"zip_code":"4750851","prefecture":"愛知県","prefecture_kana":"アイチケン","city":"半田市","city_kana":"ハンダシ","town":"堀崎町","town_kana":"ホリサキチョウ","prefecture_code":23},"0871":{"zip_code":"4750871","prefecture":"愛知県","prefecture_kana":"アイチケン","city":"半田市","city_kana":"ハンダシ","town":"本町","town_kana":"ホンマチ","prefecture_code":23},"0825":{"zip_code":"4750825","prefecture":"愛知県","prefecture_kana":"アイチケン","city":"半田市","city_kana":"ハンダシ","town":"前潟町","town_kana":"マエガタチョウ","prefecture_code":23},"0863":{"zip_code":"4750863","prefecture":"愛知県","prefecture_kana":"アイチケン","city":"半田市","city_kana":"ハンダシ","town":"前崎東町","town_kana":"マエザキヒガシマチ","prefecture_code":23},"0864":{"zip_code":"4750864","prefecture":"愛知県","prefecture_kana":"アイチケン","city":"半田市","city_kana":"ハンダシ","town":"前崎西町","town_kana":"マエザキニシマチ","prefecture_code":23},"0082":{"zip_code":"4750082","prefecture":"愛知県","prefecture_kana":"アイチケン","city":"半田市","city_kana":"ハンダシ","town":"前田町","town_kana":"マエダチョウ","prefecture_code":23},"0942":{"zip_code":"4750942","prefecture":"愛知県","prefecture_kana":"アイチケン","city":"半田市","city_kana":"ハンダシ","town":"松堀町","town_kana":"マツボリチョウ","prefecture_code":23},"0828":{"zip_code":"4750828","prefecture":"愛知県","prefecture_kana":"アイチケン","city":"半田市","city_kana":"ハンダシ","town":"瑞穂町","town_kana":"ミズホチョウ","prefecture_code":23},"0956":{"zip_code":"4750956","prefecture":"愛知県","prefecture_kana":"アイチケン","city":"半田市","city_kana":"ハンダシ","town":"三ツ池町","town_kana":"ミツイケチョウ","prefecture_code":23},"0002":{"zip_code":"4750002","prefecture":"愛知県","prefecture_kana":"アイチケン","city":"半田市","city_kana":"ハンダシ","town":"緑ケ丘","town_kana":"ミドリガオカ","prefecture_code":23},"0827":{"zip_code":"4750827","prefecture":"愛知県","prefecture_kana":"アイチケン","city":"半田市","city_kana":"ハンダシ","town":"港本町","town_kana":"ミナトホンマチ","prefecture_code":23},"0823":{"zip_code":"4750823","prefecture":"愛知県","prefecture_kana":"アイチケン","city":"半田市","city_kana":"ハンダシ","town":"港町","town_kana":"ミナトマチ","prefecture_code":23},"0006":{"zip_code":"4750006","prefecture":"愛知県","prefecture_kana":"アイチケン","city":"半田市","city_kana":"ハンダシ","town":"南大矢知町","town_kana":"ミナミオオヤチチョウ","prefecture_code":23},"0853":{"zip_code":"4750853","prefecture":"愛知県","prefecture_kana":"アイチケン","city":"半田市","city_kana":"ハンダシ","town":"南末広町","town_kana":"ミナミスエヒロチョウ","prefecture_code":23},"0926":{"zip_code":"4750926","prefecture":"愛知県","prefecture_kana":"アイチケン","city":"半田市","city_kana":"ハンダシ","town":"南二ツ坂町","town_kana":"ミナミフタツザカチョウ","prefecture_code":23},"0882":{"zip_code":"4750882","prefecture":"愛知県","prefecture_kana":"アイチケン","city":"半田市","city_kana":"ハンダシ","town":"南本町","town_kana":"ミナミホンマチ","prefecture_code":23},"0073":{"zip_code":"4750073","prefecture":"愛知県","prefecture_kana":"アイチケン","city":"半田市","city_kana":"ハンダシ","town":"美原町","town_kana":"ミハラチョウ","prefecture_code":23},"0902":{"zip_code":"4750902","prefecture":"愛知県","prefecture_kana":"アイチケン","city":"半田市","city_kana":"ハンダシ","town":"宮路町","town_kana":"ミヤジチョウ","prefecture_code":23},"0925":{"zip_code":"4750925","prefecture":"愛知県","prefecture_kana":"アイチケン","city":"半田市","city_kana":"ハンダシ","town":"宮本町","town_kana":"ミヤモトチョウ","prefecture_code":23},"0887":{"zip_code":"4750887","prefecture":"愛知県","prefecture_kana":"アイチケン","city":"半田市","city_kana":"ハンダシ","town":"御幸町","town_kana":"ミユキマチ","prefecture_code":23},"0883":{"zip_code":"4750883","prefecture":"愛知県","prefecture_kana":"アイチケン","city":"半田市","city_kana":"ハンダシ","town":"妙見町","town_kana":"ミョウケンチョウ","prefecture_code":23},"0084":{"zip_code":"4750084","prefecture":"愛知県","prefecture_kana":"アイチケン","city":"半田市","city_kana":"ハンダシ","town":"向山町","town_kana":"ムカイヤマチョウ","prefecture_code":23},"0959":{"zip_code":"4750959","prefecture":"愛知県","prefecture_kana":"アイチケン","city":"半田市","city_kana":"ハンダシ","town":"桃山町","town_kana":"モモヤマチョウ","prefecture_code":23},"0962":{"zip_code":"4750962","prefecture":"愛知県","prefecture_kana":"アイチケン","city":"半田市","city_kana":"ハンダシ","town":"岩滑高山町","town_kana":"ヤナベタカヤマチョウ","prefecture_code":23},"0961":{"zip_code":"4750961","prefecture":"愛知県","prefecture_kana":"アイチケン","city":"半田市","city_kana":"ハンダシ","town":"岩滑中町","town_kana":"ヤナベナカマチ","prefecture_code":23},"0905":{"zip_code":"4750905","prefecture":"愛知県","prefecture_kana":"アイチケン","city":"半田市","city_kana":"ハンダシ","town":"岩滑東町","town_kana":"ヤナベヒガシマチ","prefecture_code":23},"0966":{"zip_code":"4750966","prefecture":"愛知県","prefecture_kana":"アイチケン","city":"半田市","city_kana":"ハンダシ","town":"岩滑西町","town_kana":"ヤナベニシマチ","prefecture_code":23},"0901":{"zip_code":"4750901","prefecture":"愛知県","prefecture_kana":"アイチケン","city":"半田市","city_kana":"ハンダシ","town":"岩滑南浜町","town_kana":"ヤナベミナミハマチョウ","prefecture_code":23},"0906":{"zip_code":"4750906","prefecture":"愛知県","prefecture_kana":"アイチケン","city":"半田市","city_kana":"ハンダシ","town":"岩滑北浜町","town_kana":"ヤナベキタハマチョウ","prefecture_code":23},"0875":{"zip_code":"4750875","prefecture":"愛知県","prefecture_kana":"アイチケン","city":"半田市","city_kana":"ハンダシ","town":"山崎町","town_kana":"ヤマザキチョウ","prefecture_code":23},"0974":{"zip_code":"4750974","prefecture":"愛知県","prefecture_kana":"アイチケン","city":"半田市","city_kana":"ハンダシ","town":"山代町","town_kana":"ヤマシロチョウ","prefecture_code":23},"0841":{"zip_code":"4750841","prefecture":"愛知県","prefecture_kana":"アイチケン","city":"半田市","city_kana":"ハンダシ","town":"大和町","town_kana":"ヤマトチョウ","prefecture_code":23},"0885":{"zip_code":"4750885","prefecture":"愛知県","prefecture_kana":"アイチケン","city":"半田市","city_kana":"ハンダシ","town":"山ノ神町","town_kana":"ヤマノカミチョウ","prefecture_code":23},"0837":{"zip_code":"4750837","prefecture":"愛知県","prefecture_kana":"アイチケン","city":"半田市","city_kana":"ハンダシ","town":"有楽町","town_kana":"ユウラクチョウ","prefecture_code":23},"0005":{"zip_code":"4750005","prefecture":"愛知県","prefecture_kana":"アイチケン","city":"半田市","city_kana":"ハンダシ","town":"横川町","town_kana":"ヨコガワチョウ","prefecture_code":23},"0076":{"zip_code":"4750076","prefecture":"愛知県","prefecture_kana":"アイチケン","city":"半田市","city_kana":"ハンダシ","town":"横松上町","town_kana":"ヨコマツカミチョウ","prefecture_code":23},"0946":{"zip_code":"4750946","prefecture":"愛知県","prefecture_kana":"アイチケン","city":"半田市","city_kana":"ハンダシ","town":"横山町","town_kana":"ヨコヤマチョウ","prefecture_code":23},"0973":{"zip_code":"4750973","prefecture":"愛知県","prefecture_kana":"アイチケン","city":"半田市","city_kana":"ハンダシ","town":"葭谷町","town_kana":"ヨシダニチョウ","prefecture_code":23},"0939":{"zip_code":"4750939","prefecture":"愛知県","prefecture_kana":"アイチケン","city":"半田市","city_kana":"ハンダシ","town":"四方木町","town_kana":"ヨモギチョウ","prefecture_code":23}}