{"0000":{"zip_code":"4760000","prefecture":"愛知県","prefecture_kana":"アイチケン","city":"東海市","city_kana":"トウカイシ","town":"","town_kana":"","prefecture_code":23},"0006":{"zip_code":"4760006","prefecture":"愛知県","prefecture_kana":"アイチケン","city":"東海市","city_kana":"トウカイシ","town":"浅山","town_kana":"アサヤマ","prefecture_code":23},"0003":{"zip_code":"4760003","prefecture":"愛知県","prefecture_kana":"アイチケン","city":"東海市","city_kana":"トウカイシ","town":"荒尾町","town_kana":"アラオマチ","prefecture_code":23},"0004":{"zip_code":"4760004","prefecture":"愛知県","prefecture_kana":"アイチケン","city":"東海市","city_kana":"トウカイシ","town":"荒尾町水深","town_kana":"アラオマチミズブカ","prefecture_code":23},"0005":{"zip_code":"4760005","prefecture":"愛知県","prefecture_kana":"アイチケン","city":"東海市","city_kana":"トウカイシ","town":"新宝町","town_kana":"シンポウマチ","prefecture_code":23},"0013":{"zip_code":"4760013","prefecture":"愛知県","prefecture_kana":"アイチケン","city":"東海市","city_kana":"トウカイシ","town":"中央町","town_kana":"チュウオウマチ","prefecture_code":23},"0015":{"zip_code":"4760015","prefecture":"愛知県","prefecture_kana":"アイチケン","city":"東海市","city_kana":"トウカイシ","town":"東海町","town_kana":"トウカイマチ","prefecture_code":23},"0002":{"zip_code":"4760002","prefecture":"愛知県","prefecture_kana":"アイチケン","city":"東海市","city_kana":"トウカイシ","town":"名和町","town_kana":"ナワマチ","prefecture_code":23},"0011":{"zip_code":"4760011","prefecture":"愛知県","prefecture_kana":"アイチケン","city":"東海市","city_kana":"トウカイシ","town":"富木島町","town_kana":"フキシママチ","prefecture_code":23},"0012":{"zip_code":"4760012","prefecture":"愛知県","prefecture_kana":"アイチケン","city":"東海市","city_kana":"トウカイシ","town":"富木島町伏見","town_kana":"フキシママチフシミ","prefecture_code":23},"0014":{"zip_code":"4760014","prefecture":"愛知県","prefecture_kana":"アイチケン","city":"東海市","city_kana":"トウカイシ","town":"富貴ノ台","town_kana":"フキノダイ","prefecture_code":23},"0001":{"zip_code":"4760001","prefecture":"愛知県","prefecture_kana":"アイチケン","city":"東海市","city_kana":"トウカイシ","town":"南柴田町","town_kana":"ミナミシバタマチ","prefecture_code":23}}