{"0000":{"zip_code":"4780000","prefecture":"愛知県","prefecture_kana":"アイチケン","city":"知多市","city_kana":"チタシ","town":"","town_kana":"","prefecture_code":23},"0058":{"zip_code":"4780058","prefecture":"愛知県","prefecture_kana":"アイチケン","city":"知多市","city_kana":"チタシ","town":"上り戸","town_kana":"アガリド","prefecture_code":23},"0051":{"zip_code":"4780051","prefecture":"愛知県","prefecture_kana":"アイチケン","city":"知多市","city_kana":"チタシ","town":"朝倉町","town_kana":"アサクラマチ","prefecture_code":23},"0031":{"zip_code":"4780031","prefecture":"愛知県","prefecture_kana":"アイチケン","city":"知多市","city_kana":"チタシ","town":"旭","town_kana":"アサヒ","prefecture_code":23},"0005":{"zip_code":"4780005","prefecture":"愛知県","prefecture_kana":"アイチケン","city":"知多市","city_kana":"チタシ","town":"阿原","town_kana":"アワラ","prefecture_code":23},"0004":{"zip_code":"4780004","prefecture":"愛知県","prefecture_kana":"アイチケン","city":"知多市","city_kana":"チタシ","town":"伊賀坂","town_kana":"イガサカ","prefecture_code":23},"0016":{"zip_code":"4780016","prefecture":"愛知県","prefecture_kana":"アイチケン","city":"知多市","city_kana":"チタシ","town":"梅が丘","town_kana":"ウメガオカ","prefecture_code":23},"0035":{"zip_code":"4780035","prefecture":"愛知県","prefecture_kana":"アイチケン","city":"知多市","city_kana":"チタシ","town":"大草","town_kana":"オオクサ","prefecture_code":23},"0067":{"zip_code":"4780067","prefecture":"愛知県","prefecture_kana":"アイチケン","city":"知多市","city_kana":"チタシ","town":"大僧","town_kana":"オオソウ","prefecture_code":23},"0021":{"zip_code":"4780021","prefecture":"愛知県","prefecture_kana":"アイチケン","city":"知多市","city_kana":"チタシ","town":"岡田","town_kana":"オカダ","prefecture_code":23},"0062":{"zip_code":"4780062","prefecture":"愛知県","prefecture_kana":"アイチケン","city":"知多市","city_kana":"チタシ","town":"岡田美里町","town_kana":"オカダミサトマチ","prefecture_code":23},"0028":{"zip_code":"4780028","prefecture":"愛知県","prefecture_kana":"アイチケン","city":"知多市","city_kana":"チタシ","town":"岡田緑が丘","town_kana":"オカダミドリガオカ","prefecture_code":23},"0032":{"zip_code":"4780032","prefecture":"愛知県","prefecture_kana":"アイチケン","city":"知多市","city_kana":"チタシ","town":"金沢","town_kana":"カナザワ","prefecture_code":23},"0033":{"zip_code":"4780033","prefecture":"愛知県","prefecture_kana":"アイチケン","city":"知多市","city_kana":"チタシ","town":"神田","town_kana":"カンダ","prefecture_code":23},"0046":{"zip_code":"4780046","prefecture":"愛知県","prefecture_kana":"アイチケン","city":"知多市","city_kana":"チタシ","town":"北浜町","town_kana":"キタハママチ","prefecture_code":23},"0044":{"zip_code":"4780044","prefecture":"愛知県","prefecture_kana":"アイチケン","city":"知多市","city_kana":"チタシ","town":"旭桃台","town_kana":"キョクトウダイ","prefecture_code":23},"0034":{"zip_code":"4780034","prefecture":"愛知県","prefecture_kana":"アイチケン","city":"知多市","city_kana":"チタシ","town":"旭南","town_kana":"キョクナン","prefecture_code":23},"0006":{"zip_code":"4780006","prefecture":"愛知県","prefecture_kana":"アイチケン","city":"知多市","city_kana":"チタシ","town":"三反田","town_kana":"サンタンダ","prefecture_code":23},"0053":{"zip_code":"4780053","prefecture":"愛知県","prefecture_kana":"アイチケン","city":"知多市","city_kana":"チタシ","town":"清水が丘","town_kana":"シミズガオカ","prefecture_code":23},"0069":{"zip_code":"4780069","prefecture":"愛知県","prefecture_kana":"アイチケン","city":"知多市","city_kana":"チタシ","town":"新刀池","town_kana":"シンカタナイケ","prefecture_code":23},"0017":{"zip_code":"4780017","prefecture":"愛知県","prefecture_kana":"アイチケン","city":"知多市","city_kana":"チタシ","town":"新知","town_kana":"シンチ","prefecture_code":23},"0064":{"zip_code":"4780064","prefecture":"愛知県","prefecture_kana":"アイチケン","city":"知多市","city_kana":"チタシ","town":"新知台","town_kana":"シンチダイ","prefecture_code":23},"0066":{"zip_code":"4780066","prefecture":"愛知県","prefecture_kana":"アイチケン","city":"知多市","city_kana":"チタシ","town":"新知西町","town_kana":"シンチニシマチ","prefecture_code":23},"0065":{"zip_code":"4780065","prefecture":"愛知県","prefecture_kana":"アイチケン","city":"知多市","city_kana":"チタシ","town":"新知東町","town_kana":"シンチヒガシマチ","prefecture_code":23},"0059":{"zip_code":"4780059","prefecture":"愛知県","prefecture_kana":"アイチケン","city":"知多市","city_kana":"チタシ","town":"新長根","town_kana":"シンナガネ","prefecture_code":23},"0027":{"zip_code":"4780027","prefecture":"愛知県","prefecture_kana":"アイチケン","city":"知多市","city_kana":"チタシ","town":"新広見","town_kana":"シンヒロミ","prefecture_code":23},"0036":{"zip_code":"4780036","prefecture":"愛知県","prefecture_kana":"アイチケン","city":"知多市","city_kana":"チタシ","town":"新舞子","town_kana":"シンマイコ","prefecture_code":23},"0037":{"zip_code":"4780037","prefecture":"愛知県","prefecture_kana":"アイチケン","city":"知多市","city_kana":"チタシ","town":"新舞子東町","town_kana":"シンマイコヒガシマチ","prefecture_code":23},"0015":{"zip_code":"4780015","prefecture":"愛知県","prefecture_kana":"アイチケン","city":"知多市","city_kana":"チタシ","town":"佐布里","town_kana":"ソウリ","prefecture_code":23},"0018":{"zip_code":"4780018","prefecture":"愛知県","prefecture_kana":"アイチケン","city":"知多市","city_kana":"チタシ","town":"佐布里台","town_kana":"ソウリダイ","prefecture_code":23},"0022":{"zip_code":"4780022","prefecture":"愛知県","prefecture_kana":"アイチケン","city":"知多市","city_kana":"チタシ","town":"大興寺","town_kana":"ダイコウジ","prefecture_code":23},"0012":{"zip_code":"4780012","prefecture":"愛知県","prefecture_kana":"アイチケン","city":"知多市","city_kana":"チタシ","town":"巽が丘","town_kana":"タツミガオカ","prefecture_code":23},"0054":{"zip_code":"4780054","prefecture":"愛知県","prefecture_kana":"アイチケン","city":"知多市","city_kana":"チタシ","town":"つつじが丘","town_kana":"ツツジガオカ","prefecture_code":23},"0063":{"zip_code":"4780063","prefecture":"愛知県","prefecture_kana":"アイチケン","city":"知多市","city_kana":"チタシ","town":"寺本新町","town_kana":"テラモトシンマチ","prefecture_code":23},"0003":{"zip_code":"4780003","prefecture":"愛知県","prefecture_kana":"アイチケン","city":"知多市","city_kana":"チタシ","town":"寺本台","town_kana":"テラモトダイ","prefecture_code":23},"0042":{"zip_code":"4780042","prefecture":"愛知県","prefecture_kana":"アイチケン","city":"知多市","city_kana":"チタシ","town":"長浦","town_kana":"ナガウラ","prefecture_code":23},"0068":{"zip_code":"4780068","prefecture":"愛知県","prefecture_kana":"アイチケン","city":"知多市","city_kana":"チタシ","town":"中原","town_kana":"ナカハラ","prefecture_code":23},"0014":{"zip_code":"4780014","prefecture":"愛知県","prefecture_kana":"アイチケン","city":"知多市","city_kana":"チタシ","town":"西巽が丘","town_kana":"ニシタツミガオカ","prefecture_code":23},"0055":{"zip_code":"4780055","prefecture":"愛知県","prefecture_kana":"アイチケン","city":"知多市","city_kana":"チタシ","town":"にしの台","town_kana":"ニシノダイ","prefecture_code":23},"0011":{"zip_code":"4780011","prefecture":"愛知県","prefecture_kana":"アイチケン","city":"知多市","city_kana":"チタシ","town":"原","town_kana":"ハラ","prefecture_code":23},"0061":{"zip_code":"4780061","prefecture":"愛知県","prefecture_kana":"アイチケン","city":"知多市","city_kana":"チタシ","town":"東大僧","town_kana":"ヒガシオオソウ","prefecture_code":23},"0041":{"zip_code":"4780041","prefecture":"愛知県","prefecture_kana":"アイチケン","city":"知多市","city_kana":"チタシ","town":"日長","town_kana":"ヒナガ","prefecture_code":23},"0043":{"zip_code":"4780043","prefecture":"愛知県","prefecture_kana":"アイチケン","city":"知多市","city_kana":"チタシ","town":"日長台","town_kana":"ヒナガダイ","prefecture_code":23},"0002":{"zip_code":"4780002","prefecture":"愛知県","prefecture_kana":"アイチケン","city":"知多市","city_kana":"チタシ","town":"平野","town_kana":"ヒラノ","prefecture_code":23},"0057":{"zip_code":"4780057","prefecture":"愛知県","prefecture_kana":"アイチケン","city":"知多市","city_kana":"チタシ","town":"吹込","town_kana":"フキコミ","prefecture_code":23},"0047":{"zip_code":"4780047","prefecture":"愛知県","prefecture_kana":"アイチケン","city":"知多市","city_kana":"チタシ","town":"緑町","town_kana":"ミドリマチ","prefecture_code":23},"0024":{"zip_code":"4780024","prefecture":"愛知県","prefecture_kana":"アイチケン","city":"知多市","city_kana":"チタシ","town":"南粕谷","town_kana":"ミナミカスヤ","prefecture_code":23},"0026":{"zip_code":"4780026","prefecture":"愛知県","prefecture_kana":"アイチケン","city":"知多市","city_kana":"チタシ","town":"南粕谷新海","town_kana":"ミナミカスヤシンカイ","prefecture_code":23},"0023":{"zip_code":"4780023","prefecture":"愛知県","prefecture_kana":"アイチケン","city":"知多市","city_kana":"チタシ","town":"南粕谷東坂","town_kana":"ミナミカスヤヒガシザカ","prefecture_code":23},"0025":{"zip_code":"4780025","prefecture":"愛知県","prefecture_kana":"アイチケン","city":"知多市","city_kana":"チタシ","town":"南粕谷本町","town_kana":"ミナミカスヤホンマチ","prefecture_code":23},"0013":{"zip_code":"4780013","prefecture":"愛知県","prefecture_kana":"アイチケン","city":"知多市","city_kana":"チタシ","town":"南巽が丘","town_kana":"ミナミタツミガオカ","prefecture_code":23},"0056":{"zip_code":"4780056","prefecture":"愛知県","prefecture_kana":"アイチケン","city":"知多市","city_kana":"チタシ","town":"南谷","town_kana":"ミナミダニ","prefecture_code":23},"0045":{"zip_code":"4780045","prefecture":"愛知県","prefecture_kana":"アイチケン","city":"知多市","city_kana":"チタシ","town":"南浜町","town_kana":"ミナミハママチ","prefecture_code":23},"0060":{"zip_code":"4780060","prefecture":"愛知県","prefecture_kana":"アイチケン","city":"知多市","city_kana":"チタシ","town":"山屋敷","town_kana":"ヤマヤシキ","prefecture_code":23},"0001":{"zip_code":"4780001","prefecture":"愛知県","prefecture_kana":"アイチケン","city":"知多市","city_kana":"チタシ","town":"八幡","town_kana":"ヤワタ","prefecture_code":23},"0052":{"zip_code":"4780052","prefecture":"愛知県","prefecture_kana":"アイチケン","city":"知多市","city_kana":"チタシ","town":"八幡新町","town_kana":"ヤワタシンマチ","prefecture_code":23}}