{"1217":{"zip_code":"4801217","prefecture":"愛知県","prefecture_kana":"アイチケン","city":"瀬戸市","city_kana":"セトシ","town":"井山町","town_kana":"イヤマチョウ","prefecture_code":23},"1215":{"zip_code":"4801215","prefecture":"愛知県","prefecture_kana":"アイチケン","city":"瀬戸市","city_kana":"セトシ","town":"岩屋町","town_kana":"イワヤチョウ","prefecture_code":23},"1205":{"zip_code":"4801205","prefecture":"愛知県","prefecture_kana":"アイチケン","city":"瀬戸市","city_kana":"セトシ","town":"落合町","town_kana":"オチアイチョウ","prefecture_code":23},"1212":{"zip_code":"4801212","prefecture":"愛知県","prefecture_kana":"アイチケン","city":"瀬戸市","city_kana":"セトシ","town":"片草町","town_kana":"カタクサチョウ","prefecture_code":23},"1219":{"zip_code":"4801219","prefecture":"愛知県","prefecture_kana":"アイチケン","city":"瀬戸市","city_kana":"セトシ","town":"窯町","town_kana":"カママチ","prefecture_code":23},"1214":{"zip_code":"4801214","prefecture":"愛知県","prefecture_kana":"アイチケン","city":"瀬戸市","city_kana":"セトシ","town":"上品野町","town_kana":"カミシナノチョウ","prefecture_code":23},"1211":{"zip_code":"4801211","prefecture":"愛知県","prefecture_kana":"アイチケン","city":"瀬戸市","city_kana":"セトシ","town":"上半田川町","town_kana":"カミハダガワチョウ","prefecture_code":23},"1204":{"zip_code":"4801204","prefecture":"愛知県","prefecture_kana":"アイチケン","city":"瀬戸市","city_kana":"セトシ","town":"北丘町","town_kana":"キタオカチョウ","prefecture_code":23},"1207":{"zip_code":"4801207","prefecture":"愛知県","prefecture_kana":"アイチケン","city":"瀬戸市","city_kana":"セトシ","town":"品野町","town_kana":"シナノチョウ","prefecture_code":23},"1202":{"zip_code":"4801202","prefecture":"愛知県","prefecture_kana":"アイチケン","city":"瀬戸市","city_kana":"セトシ","town":"下半田川町","town_kana":"シモハダガワチョウ","prefecture_code":23},"1201":{"zip_code":"4801201","prefecture":"愛知県","prefecture_kana":"アイチケン","city":"瀬戸市","city_kana":"セトシ","town":"定光寺町","town_kana":"ジョウコウジチョウ","prefecture_code":23},"1213":{"zip_code":"4801213","prefecture":"愛知県","prefecture_kana":"アイチケン","city":"瀬戸市","city_kana":"セトシ","town":"白岩町","town_kana":"シライワチョウ","prefecture_code":23},"1216":{"zip_code":"4801216","prefecture":"愛知県","prefecture_kana":"アイチケン","city":"瀬戸市","city_kana":"セトシ","town":"鳥原町","town_kana":"トリハラチョウ","prefecture_code":23},"1218":{"zip_code":"4801218","prefecture":"愛知県","prefecture_kana":"アイチケン","city":"瀬戸市","city_kana":"セトシ","town":"中品野町","town_kana":"ナカシナノチョウ","prefecture_code":23},"1203":{"zip_code":"4801203","prefecture":"愛知県","prefecture_kana":"アイチケン","city":"瀬戸市","city_kana":"セトシ","town":"広之田町","town_kana":"ヒロノタチョウ","prefecture_code":23},"1206":{"zip_code":"4801206","prefecture":"愛知県","prefecture_kana":"アイチケン","city":"瀬戸市","city_kana":"セトシ","town":"八床町","town_kana":"ヤトコチョウ","prefecture_code":23},"0303":{"zip_code":"4800303","prefecture":"愛知県","prefecture_kana":"アイチケン","city":"春日井市","city_kana":"カスガイシ","town":"明知町","town_kana":"アケチチョウ","prefecture_code":23},"0306":{"zip_code":"4800306","prefecture":"愛知県","prefecture_kana":"アイチケン","city":"春日井市","city_kana":"カスガイシ","town":"上野町","town_kana":"ウエノチョウ","prefecture_code":23},"0301":{"zip_code":"4800301","prefecture":"愛知県","prefecture_kana":"アイチケン","city":"春日井市","city_kana":"カスガイシ","town":"内津町","town_kana":"ウツツチョウ","prefecture_code":23},"0304":{"zip_code":"4800304","prefecture":"愛知県","prefecture_kana":"アイチケン","city":"春日井市","city_kana":"カスガイシ","town":"神屋町","town_kana":"カギヤチョウ","prefecture_code":23},"0302":{"zip_code":"4800302","prefecture":"愛知県","prefecture_kana":"アイチケン","city":"春日井市","city_kana":"カスガイシ","town":"西尾町","town_kana":"サイオチョウ","prefecture_code":23},"0305":{"zip_code":"4800305","prefecture":"愛知県","prefecture_kana":"アイチケン","city":"春日井市","city_kana":"カスガイシ","town":"坂下町","town_kana":"サカシタチョウ","prefecture_code":23},"1100":{"zip_code":"4801100","prefecture":"愛知県","prefecture_kana":"アイチケン","city":"長久手市","city_kana":"ナガクテシ","town":"","town_kana":"","prefecture_code":23},"1323":{"zip_code":"4801323","prefecture":"愛知県","prefecture_kana":"アイチケン","city":"長久手市","city_kana":"ナガクテシ","town":"阿畑","town_kana":"アバタ","prefecture_code":23},"1331":{"zip_code":"4801331","prefecture":"愛知県","prefecture_kana":"アイチケン","city":"長久手市","city_kana":"ナガクテシ","town":"雨堤","town_kana":"アマヅツミ","prefecture_code":23},"1161":{"zip_code":"4801161","prefecture":"愛知県","prefecture_kana":"アイチケン","city":"長久手市","city_kana":"ナガクテシ","town":"荒田","town_kana":"アラタ","prefecture_code":23},"1182":{"zip_code":"4801182","prefecture":"愛知県","prefecture_kana":"アイチケン","city":"長久手市","city_kana":"ナガクテシ","town":"池田","town_kana":"イケダ","prefecture_code":23},"1343":{"zip_code":"4801343","prefecture":"愛知県","prefecture_kana":"アイチケン","city":"長久手市","city_kana":"ナガクテシ","town":"石場","town_kana":"イシバ","prefecture_code":23},"1147":{"zip_code":"4801147","prefecture":"愛知県","prefecture_kana":"アイチケン","city":"長久手市","city_kana":"ナガクテシ","town":"市が洞","town_kana":"イチガホラ","prefecture_code":23},"1342":{"zip_code":"4801342","prefecture":"愛知県","prefecture_kana":"アイチケン","city":"長久手市","city_kana":"ナガクテシ","town":"茨ケ廻間","town_kana":"イバラガバサマ","prefecture_code":23},"1143":{"zip_code":"4801143","prefecture":"愛知県","prefecture_kana":"アイチケン","city":"長久手市","city_kana":"ナガクテシ","town":"井堀","town_kana":"イボリ","prefecture_code":23},"1116":{"zip_code":"4801116","prefecture":"愛知県","prefecture_kana":"アイチケン","city":"長久手市","city_kana":"ナガクテシ","town":"杁ケ池","town_kana":"イリガイケ","prefecture_code":23},"1325":{"zip_code":"4801325","prefecture":"愛知県","prefecture_kana":"アイチケン","city":"長久手市","city_kana":"ナガクテシ","town":"杁ケ根","town_kana":"イリガネ","prefecture_code":23},"1302":{"zip_code":"4801302","prefecture":"愛知県","prefecture_kana":"アイチケン","city":"長久手市","city_kana":"ナガクテシ","town":"杁ノ洞","town_kana":"イリノホラ","prefecture_code":23},"1308":{"zip_code":"4801308","prefecture":"愛知県","prefecture_kana":"アイチケン","city":"長久手市","city_kana":"ナガクテシ","town":"岩廻間","town_kana":"イワバサマ","prefecture_code":23},"1125":{"zip_code":"4801125","prefecture":"愛知県","prefecture_kana":"アイチケン","city":"長久手市","city_kana":"ナガクテシ","town":"氏神前","town_kana":"ウジガミマエ","prefecture_code":23},"1152":{"zip_code":"4801152","prefecture":"愛知県","prefecture_kana":"アイチケン","city":"長久手市","city_kana":"ナガクテシ","town":"打越","town_kana":"ウチコシ","prefecture_code":23},"1145":{"zip_code":"4801145","prefecture":"愛知県","prefecture_kana":"アイチケン","city":"長久手市","city_kana":"ナガクテシ","town":"卯塚","town_kana":"ウヅカ","prefecture_code":23},"1314":{"zip_code":"4801314","prefecture":"愛知県","prefecture_kana":"アイチケン","city":"長久手市","city_kana":"ナガクテシ","town":"馬堤","town_kana":"ウマヅツミ","prefecture_code":23},"1334":{"zip_code":"4801334","prefecture":"愛知県","prefecture_kana":"アイチケン","city":"長久手市","city_kana":"ナガクテシ","town":"榎ノ下","town_kana":"エノシタ","prefecture_code":23},"1333":{"zip_code":"4801333","prefecture":"愛知県","prefecture_kana":"アイチケン","city":"長久手市","city_kana":"ナガクテシ","town":"蛭子","town_kana":"エビス","prefecture_code":23},"1106":{"zip_code":"4801106","prefecture":"愛知県","prefecture_kana":"アイチケン","city":"長久手市","city_kana":"ナガクテシ","town":"大久手","town_kana":"オオクテ","prefecture_code":23},"1146":{"zip_code":"4801146","prefecture":"愛知県","prefecture_kana":"アイチケン","city":"長久手市","city_kana":"ナガクテシ","town":"片平","town_kana":"カタヒラ","prefecture_code":23},"1142":{"zip_code":"4801142","prefecture":"愛知県","prefecture_kana":"アイチケン","city":"長久手市","city_kana":"ナガクテシ","town":"蟹原","town_kana":"カニハラ","prefecture_code":23},"1132":{"zip_code":"4801132","prefecture":"愛知県","prefecture_kana":"アイチケン","city":"長久手市","city_kana":"ナガクテシ","town":"上川原","town_kana":"カミカワハラ","prefecture_code":23},"1165":{"zip_code":"4801165","prefecture":"愛知県","prefecture_kana":"アイチケン","city":"長久手市","city_kana":"ナガクテシ","town":"鴨田","town_kana":"カモダ","prefecture_code":23},"1327":{"zip_code":"4801327","prefecture":"愛知県","prefecture_kana":"アイチケン","city":"長久手市","city_kana":"ナガクテシ","town":"観音堂","town_kana":"カンノンドウ","prefecture_code":23},"1301":{"zip_code":"4801301","prefecture":"愛知県","prefecture_kana":"アイチケン","city":"長久手市","city_kana":"ナガクテシ","town":"北浦","town_kana":"キタウラ","prefecture_code":23},"1339":{"zip_code":"4801339","prefecture":"愛知県","prefecture_kana":"アイチケン","city":"長久手市","city_kana":"ナガクテシ","town":"北熊","town_kana":"キタグマ","prefecture_code":23},"1117":{"zip_code":"4801117","prefecture":"愛知県","prefecture_kana":"アイチケン","city":"長久手市","city_kana":"ナガクテシ","town":"喜婦嶽","town_kana":"キブタケ","prefecture_code":23},"1184":{"zip_code":"4801184","prefecture":"愛知県","prefecture_kana":"アイチケン","city":"長久手市","city_kana":"ナガクテシ","town":"草掛","town_kana":"クサカケ","prefecture_code":23},"1151":{"zip_code":"4801151","prefecture":"愛知県","prefecture_kana":"アイチケン","city":"長久手市","city_kana":"ナガクテシ","town":"久保山","town_kana":"クボヤマ","prefecture_code":23},"1144":{"zip_code":"4801144","prefecture":"愛知県","prefecture_kana":"アイチケン","city":"長久手市","city_kana":"ナガクテシ","town":"熊田","town_kana":"クマダ","prefecture_code":23},"1312":{"zip_code":"4801312","prefecture":"愛知県","prefecture_kana":"アイチケン","city":"長久手市","city_kana":"ナガクテシ","town":"熊張深田","town_kana":"クマハリフカダ","prefecture_code":23},"1347":{"zip_code":"4801347","prefecture":"愛知県","prefecture_kana":"アイチケン","city":"長久手市","city_kana":"ナガクテシ","town":"鯉ケ廻間","town_kana":"コイガバサマ","prefecture_code":23},"1336":{"zip_code":"4801336","prefecture":"愛知県","prefecture_kana":"アイチケン","city":"長久手市","city_kana":"ナガクテシ","town":"小稲葉","town_kana":"コイナバ","prefecture_code":23},"1304":{"zip_code":"4801304","prefecture":"愛知県","prefecture_kana":"アイチケン","city":"長久手市","city_kana":"ナガクテシ","town":"郷前","town_kana":"ゴウマエ","prefecture_code":23},"1176":{"zip_code":"4801176","prefecture":"愛知県","prefecture_kana":"アイチケン","city":"長久手市","city_kana":"ナガクテシ","town":"香桶","town_kana":"コオケ","prefecture_code":23},"1156":{"zip_code":"4801156","prefecture":"愛知県","prefecture_kana":"アイチケン","city":"長久手市","city_kana":"ナガクテシ","town":"五合池","town_kana":"ゴゴウイケ","prefecture_code":23},"1313":{"zip_code":"4801313","prefecture":"愛知県","prefecture_kana":"アイチケン","city":"長久手市","city_kana":"ナガクテシ","town":"小深","town_kana":"コブケ","prefecture_code":23},"1153":{"zip_code":"4801153","prefecture":"愛知県","prefecture_kana":"アイチケン","city":"長久手市","city_kana":"ナガクテシ","town":"作田","town_kana":"サクタ","prefecture_code":23},"1157":{"zip_code":"4801157","prefecture":"愛知県","prefecture_kana":"アイチケン","city":"長久手市","city_kana":"ナガクテシ","town":"桜作","town_kana":"サクラツクリ","prefecture_code":23},"1329":{"zip_code":"4801329","prefecture":"愛知県","prefecture_kana":"アイチケン","city":"長久手市","city_kana":"ナガクテシ","town":"申平","town_kana":"サルヒラ","prefecture_code":23},"1322":{"zip_code":"4801322","prefecture":"愛知県","prefecture_kana":"アイチケン","city":"長久手市","city_kana":"ナガクテシ","town":"汐見坂","town_kana":"シオミザカ","prefecture_code":23},"1137":{"zip_code":"4801137","prefecture":"愛知県","prefecture_kana":"アイチケン","city":"長久手市","city_kana":"ナガクテシ","town":"下川原","town_kana":"シモガワラ","prefecture_code":23},"1107":{"zip_code":"4801107","prefecture":"愛知県","prefecture_kana":"アイチケン","city":"長久手市","city_kana":"ナガクテシ","town":"下権田","town_kana":"シモゴンダ","prefecture_code":23},"1338":{"zip_code":"4801338","prefecture":"愛知県","prefecture_kana":"アイチケン","city":"長久手市","city_kana":"ナガクテシ","town":"下田","town_kana":"シモダ","prefecture_code":23},"1135":{"zip_code":"4801135","prefecture":"愛知県","prefecture_kana":"アイチケン","city":"長久手市","city_kana":"ナガクテシ","town":"下山","town_kana":"シモヤマ","prefecture_code":23},"1128":{"zip_code":"4801128","prefecture":"愛知県","prefecture_kana":"アイチケン","city":"長久手市","city_kana":"ナガクテシ","town":"勝入塚","town_kana":"ショウニュウヅカ","prefecture_code":23},"1115":{"zip_code":"4801115","prefecture":"愛知県","prefecture_kana":"アイチケン","city":"長久手市","city_kana":"ナガクテシ","town":"菖蒲池","town_kana":"ショウブイケ","prefecture_code":23},"1122":{"zip_code":"4801122","prefecture":"愛知県","prefecture_kana":"アイチケン","city":"長久手市","city_kana":"ナガクテシ","town":"城屋敷","town_kana":"シロヤシキ","prefecture_code":23},"1306":{"zip_code":"4801306","prefecture":"愛知県","prefecture_kana":"アイチケン","city":"長久手市","city_kana":"ナガクテシ","town":"真行田","town_kana":"シンギョウダ","prefecture_code":23},"1321":{"zip_code":"4801321","prefecture":"愛知県","prefecture_kana":"アイチケン","city":"長久手市","city_kana":"ナガクテシ","town":"神明","town_kana":"シンメイ","prefecture_code":23},"1332":{"zip_code":"4801332","prefecture":"愛知県","prefecture_kana":"アイチケン","city":"長久手市","city_kana":"ナガクテシ","town":"神門前","town_kana":"ジンモンマエ","prefecture_code":23},"1127":{"zip_code":"4801127","prefecture":"愛知県","prefecture_kana":"アイチケン","city":"長久手市","city_kana":"ナガクテシ","town":"菅池","town_kana":"スガイケ","prefecture_code":23},"1326":{"zip_code":"4801326","prefecture":"愛知県","prefecture_kana":"アイチケン","city":"長久手市","city_kana":"ナガクテシ","town":"助六","town_kana":"スケロク","prefecture_code":23},"1112":{"zip_code":"4801112","prefecture":"愛知県","prefecture_kana":"アイチケン","city":"長久手市","city_kana":"ナガクテシ","town":"砂子","town_kana":"スナゴ","prefecture_code":23},"1175":{"zip_code":"4801175","prefecture":"愛知県","prefecture_kana":"アイチケン","city":"長久手市","city_kana":"ナガクテシ","town":"先達","town_kana":"センダツ","prefecture_code":23},"1335":{"zip_code":"4801335","prefecture":"愛知県","prefecture_kana":"アイチケン","city":"長久手市","city_kana":"ナガクテシ","town":"大日","town_kana":"ダイニチ","prefecture_code":23},"1324":{"zip_code":"4801324","prefecture":"愛知県","prefecture_kana":"アイチケン","city":"長久手市","city_kana":"ナガクテシ","town":"段留","town_kana":"ダントメ","prefecture_code":23},"1162":{"zip_code":"4801162","prefecture":"愛知県","prefecture_kana":"アイチケン","city":"長久手市","city_kana":"ナガクテシ","town":"段の上","town_kana":"ダンノウエ","prefecture_code":23},"1178":{"zip_code":"4801178","prefecture":"愛知県","prefecture_kana":"アイチケン","city":"長久手市","city_kana":"ナガクテシ","town":"丁子田","town_kana":"チョウシダ","prefecture_code":23},"1114":{"zip_code":"4801114","prefecture":"愛知県","prefecture_kana":"アイチケン","city":"長久手市","city_kana":"ナガクテシ","town":"長配","town_kana":"チョウハイ","prefecture_code":23},"1154":{"zip_code":"4801154","prefecture":"愛知県","prefecture_kana":"アイチケン","city":"長久手市","city_kana":"ナガクテシ","town":"塚田","town_kana":"ツカダ","prefecture_code":23},"1346":{"zip_code":"4801346","prefecture":"愛知県","prefecture_kana":"アイチケン","city":"長久手市","city_kana":"ナガクテシ","town":"堂脇","town_kana":"ドウワキ","prefecture_code":23},"1124":{"zip_code":"4801124","prefecture":"愛知県","prefecture_kana":"アイチケン","city":"長久手市","city_kana":"ナガクテシ","town":"戸田谷","town_kana":"トダガイ","prefecture_code":23},"1305":{"zip_code":"4801305","prefecture":"愛知県","prefecture_kana":"アイチケン","city":"長久手市","city_kana":"ナガクテシ","town":"中井","town_kana":"ナカイ","prefecture_code":23},"1108":{"zip_code":"4801108","prefecture":"愛知県","prefecture_kana":"アイチケン","city":"長久手市","city_kana":"ナガクテシ","town":"中池","town_kana":"ナカイケ","prefecture_code":23},"1139":{"zip_code":"4801139","prefecture":"愛知県","prefecture_kana":"アイチケン","city":"長久手市","city_kana":"ナガクテシ","town":"中川原","town_kana":"ナカガワラ","prefecture_code":23},"1167":{"zip_code":"4801167","prefecture":"愛知県","prefecture_kana":"アイチケン","city":"長久手市","city_kana":"ナガクテシ","town":"仲田","town_kana":"ナカタ","prefecture_code":23},"1337":{"zip_code":"4801337","prefecture":"愛知県","prefecture_kana":"アイチケン","city":"長久手市","city_kana":"ナガクテシ","town":"中屋","town_kana":"ナカヤ","prefecture_code":23},"1171":{"zip_code":"4801171","prefecture":"愛知県","prefecture_kana":"アイチケン","city":"長久手市","city_kana":"ナガクテシ","town":"西浦","town_kana":"ニシウラ","prefecture_code":23},"1183":{"zip_code":"4801183","prefecture":"愛知県","prefecture_kana":"アイチケン","city":"長久手市","city_kana":"ナガクテシ","town":"西原","town_kana":"ニシハラ","prefecture_code":23},"1138":{"zip_code":"4801138","prefecture":"愛知県","prefecture_kana":"アイチケン","city":"長久手市","city_kana":"ナガクテシ","town":"西原山","town_kana":"ニシハラヤマ","prefecture_code":23},"1148":{"zip_code":"4801148","prefecture":"愛知県","prefecture_kana":"アイチケン","city":"長久手市","city_kana":"ナガクテシ","town":"根嶽","town_kana":"ネタケ","prefecture_code":23},"1141":{"zip_code":"4801141","prefecture":"愛知県","prefecture_kana":"アイチケン","city":"長久手市","city_kana":"ナガクテシ","town":"根の神","town_kana":"ネノガミ","prefecture_code":23},"1166":{"zip_code":"4801166","prefecture":"愛知県","prefecture_kana":"アイチケン","city":"長久手市","city_kana":"ナガクテシ","town":"野田農","town_kana":"ノダノウ","prefecture_code":23},"1163":{"zip_code":"4801163","prefecture":"愛知県","prefecture_kana":"アイチケン","city":"長久手市","city_kana":"ナガクテシ","town":"原邸","town_kana":"ハラヤシキ","prefecture_code":23},"1133":{"zip_code":"4801133","prefecture":"愛知県","prefecture_kana":"アイチケン","city":"長久手市","city_kana":"ナガクテシ","town":"原山","town_kana":"ハラヤマ","prefecture_code":23},"1174":{"zip_code":"4801174","prefecture":"愛知県","prefecture_kana":"アイチケン","city":"長久手市","city_kana":"ナガクテシ","town":"東浦","town_kana":"ヒガシウラ","prefecture_code":23},"1303":{"zip_code":"4801303","prefecture":"愛知県","prefecture_kana":"アイチケン","city":"長久手市","city_kana":"ナガクテシ","town":"東田","town_kana":"ヒガシダ","prefecture_code":23},"1123":{"zip_code":"4801123","prefecture":"愛知県","prefecture_kana":"アイチケン","city":"長久手市","city_kana":"ナガクテシ","town":"東狭間","town_kana":"ヒガシハザマ","prefecture_code":23},"1181":{"zip_code":"4801181","prefecture":"愛知県","prefecture_kana":"アイチケン","city":"長久手市","city_kana":"ナガクテシ","town":"東原","town_kana":"ヒガシハラ","prefecture_code":23},"1158":{"zip_code":"4801158","prefecture":"愛知県","prefecture_kana":"アイチケン","city":"長久手市","city_kana":"ナガクテシ","town":"東原山","town_kana":"ヒガシハラヤマ","prefecture_code":23},"1315":{"zip_code":"4801315","prefecture":"愛知県","prefecture_kana":"アイチケン","city":"長久手市","city_kana":"ナガクテシ","town":"東平地","town_kana":"ヒガシヒラチ","prefecture_code":23},"1318":{"zip_code":"4801318","prefecture":"愛知県","prefecture_kana":"アイチケン","city":"長久手市","city_kana":"ナガクテシ","town":"東山","town_kana":"ヒガシヤマ","prefecture_code":23},"1155":{"zip_code":"4801155","prefecture":"愛知県","prefecture_kana":"アイチケン","city":"長久手市","city_kana":"ナガクテシ","town":"平池","town_kana":"ヒライケ","prefecture_code":23},"1316":{"zip_code":"4801316","prefecture":"愛知県","prefecture_kana":"アイチケン","city":"長久手市","city_kana":"ナガクテシ","town":"平地","town_kana":"ヒラチ","prefecture_code":23},"1344":{"zip_code":"4801344","prefecture":"愛知県","prefecture_kana":"アイチケン","city":"長久手市","city_kana":"ナガクテシ","town":"広田","town_kana":"ヒロタ","prefecture_code":23},"1126":{"zip_code":"4801126","prefecture":"愛知県","prefecture_kana":"アイチケン","city":"長久手市","city_kana":"ナガクテシ","town":"深田","town_kana":"フカダ","prefecture_code":23},"1119":{"zip_code":"4801119","prefecture":"愛知県","prefecture_kana":"アイチケン","city":"長久手市","city_kana":"ナガクテシ","town":"深廻間","town_kana":"フカバサマ","prefecture_code":23},"1311":{"zip_code":"4801311","prefecture":"愛知県","prefecture_kana":"アイチケン","city":"長久手市","city_kana":"ナガクテシ","town":"福井","town_kana":"フクイ","prefecture_code":23},"1173":{"zip_code":"4801173","prefecture":"愛知県","prefecture_kana":"アイチケン","city":"長久手市","city_kana":"ナガクテシ","town":"富士浦","town_kana":"フジウラ","prefecture_code":23},"1168":{"zip_code":"4801168","prefecture":"愛知県","prefecture_kana":"アイチケン","city":"長久手市","city_kana":"ナガクテシ","town":"坊の後","town_kana":"ボウノウシロ","prefecture_code":23},"1104":{"zip_code":"4801104","prefecture":"愛知県","prefecture_kana":"アイチケン","city":"長久手市","city_kana":"ナガクテシ","town":"棒振","town_kana":"ボウフリ","prefecture_code":23},"1177":{"zip_code":"4801177","prefecture":"愛知県","prefecture_kana":"アイチケン","city":"長久手市","city_kana":"ナガクテシ","town":"仏が根","town_kana":"ホトケガネ","prefecture_code":23},"1102":[{"zip_code":"4801102","prefecture":"愛知県","prefecture_kana":"アイチケン","city":"長久手市","city_kana":"ナガクテシ","town":"前熊一ノ井","town_kana":"マエグマイチノイ","prefecture_code":23},{"zip_code":"4801102","prefecture":"愛知県","prefecture_kana":"アイチケン","city":"長久手市","city_kana":"ナガクテシ","town":"前熊志水","town_kana":"マエグマシミズ","prefecture_code":23},{"zip_code":"4801102","prefecture":"愛知県","prefecture_kana":"アイチケン","city":"長久手市","city_kana":"ナガクテシ","town":"前熊下田","town_kana":"マエグマシモダ","prefecture_code":23},{"zip_code":"4801102","prefecture":"愛知県","prefecture_kana":"アイチケン","city":"長久手市","city_kana":"ナガクテシ","town":"前熊寺田","town_kana":"マエグマテラダ","prefecture_code":23},{"zip_code":"4801102","prefecture":"愛知県","prefecture_kana":"アイチケン","city":"長久手市","city_kana":"ナガクテシ","town":"前熊中井","town_kana":"マエグマナカイ","prefecture_code":23},{"zip_code":"4801102","prefecture":"愛知県","prefecture_kana":"アイチケン","city":"長久手市","city_kana":"ナガクテシ","town":"前熊西脇","town_kana":"マエグマニシワキ","prefecture_code":23},{"zip_code":"4801102","prefecture":"愛知県","prefecture_kana":"アイチケン","city":"長久手市","city_kana":"ナガクテシ","town":"前熊根ノ上","town_kana":"マエグマネノウエ","prefecture_code":23},{"zip_code":"4801102","prefecture":"愛知県","prefecture_kana":"アイチケン","city":"長久手市","city_kana":"ナガクテシ","town":"前熊根ノ原","town_kana":"マエグマネノハラ","prefecture_code":23},{"zip_code":"4801102","prefecture":"愛知県","prefecture_kana":"アイチケン","city":"長久手市","city_kana":"ナガクテシ","town":"前熊橋ノ本","town_kana":"マエグマハシノモト","prefecture_code":23},{"zip_code":"4801102","prefecture":"愛知県","prefecture_kana":"アイチケン","city":"長久手市","city_kana":"ナガクテシ","town":"前熊原山","town_kana":"マエグマハラヤマ","prefecture_code":23},{"zip_code":"4801102","prefecture":"愛知県","prefecture_kana":"アイチケン","city":"長久手市","city_kana":"ナガクテシ","town":"前熊広面","town_kana":"マエグマヒロオモテ","prefecture_code":23},{"zip_code":"4801102","prefecture":"愛知県","prefecture_kana":"アイチケン","city":"長久手市","city_kana":"ナガクテシ","town":"前熊堀越","town_kana":"マエグマホリコシ","prefecture_code":23},{"zip_code":"4801102","prefecture":"愛知県","prefecture_kana":"アイチケン","city":"長久手市","city_kana":"ナガクテシ","town":"前熊前山","town_kana":"マエグママエヤマ","prefecture_code":23},{"zip_code":"4801102","prefecture":"愛知県","prefecture_kana":"アイチケン","city":"長久手市","city_kana":"ナガクテシ","town":"前熊溝下","town_kana":"マエグマミゾシタ","prefecture_code":23}],"1317":{"zip_code":"4801317","prefecture":"愛知県","prefecture_kana":"アイチケン","city":"長久手市","city_kana":"ナガクテシ","town":"松杁","town_kana":"マツイリ","prefecture_code":23},"1105":{"zip_code":"4801105","prefecture":"愛知県","prefecture_kana":"アイチケン","city":"長久手市","city_kana":"ナガクテシ","town":"丸根","town_kana":"マルネ","prefecture_code":23},"1345":{"zip_code":"4801345","prefecture":"愛知県","prefecture_kana":"アイチケン","city":"長久手市","city_kana":"ナガクテシ","town":"丸山","town_kana":"マルヤマ","prefecture_code":23},"1309":{"zip_code":"4801309","prefecture":"愛知県","prefecture_kana":"アイチケン","city":"長久手市","city_kana":"ナガクテシ","town":"溝之杁","town_kana":"ミゾノイリ","prefecture_code":23},"1134":{"zip_code":"4801134","prefecture":"愛知県","prefecture_kana":"アイチケン","city":"長久手市","city_kana":"ナガクテシ","town":"南原山","town_kana":"ミナミハラヤマ","prefecture_code":23},"1172":{"zip_code":"4801172","prefecture":"愛知県","prefecture_kana":"アイチケン","city":"長久手市","city_kana":"ナガクテシ","town":"宮脇","town_kana":"ミヤワキ","prefecture_code":23},"1121":{"zip_code":"4801121","prefecture":"愛知県","prefecture_kana":"アイチケン","city":"長久手市","city_kana":"ナガクテシ","town":"武蔵塚","town_kana":"ムサシヅカ","prefecture_code":23},"1103":[{"zip_code":"4801103","prefecture":"愛知県","prefecture_kana":"アイチケン","city":"長久手市","city_kana":"ナガクテシ","town":"岩作石田","town_kana":"ヤザコイシダ","prefecture_code":23},{"zip_code":"4801103","prefecture":"愛知県","prefecture_kana":"アイチケン","city":"長久手市","city_kana":"ナガクテシ","town":"岩作井戸ケ根","town_kana":"ヤザコイドガネ","prefecture_code":23},{"zip_code":"4801103","prefecture":"愛知県","prefecture_kana":"アイチケン","city":"長久手市","city_kana":"ナガクテシ","town":"岩作色金","town_kana":"ヤザコイロガネ","prefecture_code":23},{"zip_code":"4801103","prefecture":"愛知県","prefecture_kana":"アイチケン","city":"長久手市","city_kana":"ナガクテシ","town":"岩作浮江","town_kana":"ヤザコウキエ","prefecture_code":23},{"zip_code":"4801103","prefecture":"愛知県","prefecture_kana":"アイチケン","city":"長久手市","city_kana":"ナガクテシ","town":"岩作内万場","town_kana":"ヤザコウチマンバ","prefecture_code":23},{"zip_code":"4801103","prefecture":"愛知県","prefecture_kana":"アイチケン","city":"長久手市","city_kana":"ナガクテシ","town":"岩作大根","town_kana":"ヤザコオオネ","prefecture_code":23},{"zip_code":"4801103","prefecture":"愛知県","prefecture_kana":"アイチケン","city":"長久手市","city_kana":"ナガクテシ","town":"岩作落合","town_kana":"ヤザコオチアイ","prefecture_code":23},{"zip_code":"4801103","prefecture":"愛知県","prefecture_kana":"アイチケン","city":"長久手市","city_kana":"ナガクテシ","town":"岩作折戸ケ平","town_kana":"ヤザコオリドガヒラ","prefecture_code":23},{"zip_code":"4801103","prefecture":"愛知県","prefecture_kana":"アイチケン","city":"長久手市","city_kana":"ナガクテシ","town":"岩作欠花","town_kana":"ヤザコカケハナ","prefecture_code":23},{"zip_code":"4801103","prefecture":"愛知県","prefecture_kana":"アイチケン","city":"長久手市","city_kana":"ナガクテシ","town":"岩作壁ノ本","town_kana":"ヤザコカベノモト","prefecture_code":23},{"zip_code":"4801103","prefecture":"愛知県","prefecture_kana":"アイチケン","city":"長久手市","city_kana":"ナガクテシ","town":"岩作雁又","town_kana":"ヤザコカリマタ","prefecture_code":23},{"zip_code":"4801103","prefecture":"愛知県","prefecture_kana":"アイチケン","city":"長久手市","city_kana":"ナガクテシ","town":"岩作北山","town_kana":"ヤザコキタヤマ","prefecture_code":23},{"zip_code":"4801103","prefecture":"愛知県","prefecture_kana":"アイチケン","city":"長久手市","city_kana":"ナガクテシ","town":"岩作狐洞","town_kana":"ヤザコキツネボラ","prefecture_code":23},{"zip_code":"4801103","prefecture":"愛知県","prefecture_kana":"アイチケン","city":"長久手市","city_kana":"ナガクテシ","town":"岩作五反田","town_kana":"ヤザコゴタンダ","prefecture_code":23},{"zip_code":"4801103","prefecture":"愛知県","prefecture_kana":"アイチケン","city":"長久手市","city_kana":"ナガクテシ","town":"岩作権田","town_kana":"ヤザコゴンダ","prefecture_code":23},{"zip_code":"4801103","prefecture":"愛知県","prefecture_kana":"アイチケン","city":"長久手市","city_kana":"ナガクテシ","town":"岩作権代","town_kana":"ヤザコゴンダイ","prefecture_code":23},{"zip_code":"4801103","prefecture":"愛知県","prefecture_kana":"アイチケン","city":"長久手市","city_kana":"ナガクテシ","town":"岩作三ケ峯","town_kana":"ヤザコサガミネ","prefecture_code":23},{"zip_code":"4801103","prefecture":"愛知県","prefecture_kana":"アイチケン","city":"長久手市","city_kana":"ナガクテシ","town":"岩作申立花","town_kana":"ヤザコサルリッカ","prefecture_code":23},{"zip_code":"4801103","prefecture":"愛知県","prefecture_kana":"アイチケン","city":"長久手市","city_kana":"ナガクテシ","town":"岩作下島","town_kana":"ヤザコシモジマ","prefecture_code":23},{"zip_code":"4801103","prefecture":"愛知県","prefecture_kana":"アイチケン","city":"長久手市","city_kana":"ナガクテシ","town":"岩作下田","town_kana":"ヤザコシモダ","prefecture_code":23},{"zip_code":"4801103","prefecture":"愛知県","prefecture_kana":"アイチケン","city":"長久手市","city_kana":"ナガクテシ","town":"岩作下堀越","town_kana":"ヤザコシモホリコシ","prefecture_code":23},{"zip_code":"4801103","prefecture":"愛知県","prefecture_kana":"アイチケン","city":"長久手市","city_kana":"ナガクテシ","town":"岩作蛇洞","town_kana":"ヤザコジャボラ","prefecture_code":23},{"zip_code":"4801103","prefecture":"愛知県","prefecture_kana":"アイチケン","city":"長久手市","city_kana":"ナガクテシ","town":"岩作白針","town_kana":"ヤザコシラバリ","prefecture_code":23},{"zip_code":"4801103","prefecture":"愛知県","prefecture_kana":"アイチケン","city":"長久手市","city_kana":"ナガクテシ","town":"岩作城の内","town_kana":"ヤザコシロノウチ","prefecture_code":23},{"zip_code":"4801103","prefecture":"愛知県","prefecture_kana":"アイチケン","city":"長久手市","city_kana":"ナガクテシ","town":"岩作隅田","town_kana":"ヤザコスミダ","prefecture_code":23},{"zip_code":"4801103","prefecture":"愛知県","prefecture_kana":"アイチケン","city":"長久手市","city_kana":"ナガクテシ","town":"岩作高根","town_kana":"ヤザコタカネ","prefecture_code":23},{"zip_code":"4801103","prefecture":"愛知県","prefecture_kana":"アイチケン","city":"長久手市","city_kana":"ナガクテシ","town":"岩作高根前","town_kana":"ヤザコタカネマエ","prefecture_code":23},{"zip_code":"4801103","prefecture":"愛知県","prefecture_kana":"アイチケン","city":"長久手市","city_kana":"ナガクテシ","town":"岩作高山","town_kana":"ヤザコタカヤマ","prefecture_code":23},{"zip_code":"4801103","prefecture":"愛知県","prefecture_kana":"アイチケン","city":"長久手市","city_kana":"ナガクテシ","town":"岩作塚本","town_kana":"ヤザコツカモト","prefecture_code":23},{"zip_code":"4801103","prefecture":"愛知県","prefecture_kana":"アイチケン","city":"長久手市","city_kana":"ナガクテシ","town":"岩作寺田","town_kana":"ヤザコテラダ","prefecture_code":23},{"zip_code":"4801103","prefecture":"愛知県","prefecture_kana":"アイチケン","city":"長久手市","city_kana":"ナガクテシ","town":"岩作寺山","town_kana":"ヤザコテラヤマ","prefecture_code":23},{"zip_code":"4801103","prefecture":"愛知県","prefecture_kana":"アイチケン","city":"長久手市","city_kana":"ナガクテシ","town":"岩作床寒","town_kana":"ヤザコトコサム","prefecture_code":23},{"zip_code":"4801103","prefecture":"愛知県","prefecture_kana":"アイチケン","city":"長久手市","city_kana":"ナガクテシ","town":"岩作泥亀首","town_kana":"ヤザコトチクビ","prefecture_code":23},{"zip_code":"4801103","prefecture":"愛知県","prefecture_kana":"アイチケン","city":"長久手市","city_kana":"ナガクテシ","town":"岩作寅山","town_kana":"ヤザコトラヤマ","prefecture_code":23},{"zip_code":"4801103","prefecture":"愛知県","prefecture_kana":"アイチケン","city":"長久手市","city_kana":"ナガクテシ","town":"岩作酉立花","town_kana":"ヤザコトリリッカ","prefecture_code":23},{"zip_code":"4801103","prefecture":"愛知県","prefecture_kana":"アイチケン","city":"長久手市","city_kana":"ナガクテシ","town":"岩作長池","town_kana":"ヤザコナガイケ","prefecture_code":23},{"zip_code":"4801103","prefecture":"愛知県","prefecture_kana":"アイチケン","city":"長久手市","city_kana":"ナガクテシ","town":"岩作長筬","town_kana":"ヤザコナガオサ","prefecture_code":23},{"zip_code":"4801103","prefecture":"愛知県","prefecture_kana":"アイチケン","city":"長久手市","city_kana":"ナガクテシ","town":"岩作中権代","town_kana":"ヤザコナカゴンダイ","prefecture_code":23},{"zip_code":"4801103","prefecture":"愛知県","prefecture_kana":"アイチケン","city":"長久手市","city_kana":"ナガクテシ","town":"岩作中島","town_kana":"ヤザコナカジマ","prefecture_code":23},{"zip_code":"4801103","prefecture":"愛知県","prefecture_kana":"アイチケン","city":"長久手市","city_kana":"ナガクテシ","town":"岩作長鶴","town_kana":"ヤザコナガツル","prefecture_code":23},{"zip_code":"4801103","prefecture":"愛知県","prefecture_kana":"アイチケン","city":"長久手市","city_kana":"ナガクテシ","town":"岩作中縄手","town_kana":"ヤザコナカナワテ","prefecture_code":23},{"zip_code":"4801103","prefecture":"愛知県","prefecture_kana":"アイチケン","city":"長久手市","city_kana":"ナガクテシ","town":"岩作中根","town_kana":"ヤザコナカネ","prefecture_code":23},{"zip_code":"4801103","prefecture":"愛知県","prefecture_kana":"アイチケン","city":"長久手市","city_kana":"ナガクテシ","town":"岩作中根原","town_kana":"ヤザコナカネバラ","prefecture_code":23},{"zip_code":"4801103","prefecture":"愛知県","prefecture_kana":"アイチケン","city":"長久手市","city_kana":"ナガクテシ","town":"岩作中立花","town_kana":"ヤザコナカリッカ","prefecture_code":23},{"zip_code":"4801103","prefecture":"愛知県","prefecture_kana":"アイチケン","city":"長久手市","city_kana":"ナガクテシ","town":"岩作中脇","town_kana":"ヤザコナカワキ","prefecture_code":23},{"zip_code":"4801103","prefecture":"愛知県","prefecture_kana":"アイチケン","city":"長久手市","city_kana":"ナガクテシ","town":"岩作西浦","town_kana":"ヤザコニシウラ","prefecture_code":23},{"zip_code":"4801103","prefecture":"愛知県","prefecture_kana":"アイチケン","city":"長久手市","city_kana":"ナガクテシ","town":"岩作西島","town_kana":"ヤザコニシジマ","prefecture_code":23},{"zip_code":"4801103","prefecture":"愛知県","prefecture_kana":"アイチケン","city":"長久手市","city_kana":"ナガクテシ","town":"岩作東島","town_kana":"ヤザコヒガシジマ","prefecture_code":23},{"zip_code":"4801103","prefecture":"愛知県","prefecture_kana":"アイチケン","city":"長久手市","city_kana":"ナガクテシ","town":"岩作東中","town_kana":"ヤザコヒガシナカ","prefecture_code":23},{"zip_code":"4801103","prefecture":"愛知県","prefecture_kana":"アイチケン","city":"長久手市","city_kana":"ナガクテシ","town":"岩作平子","town_kana":"ヤザコヒラコ","prefecture_code":23},{"zip_code":"4801103","prefecture":"愛知県","prefecture_kana":"アイチケン","city":"長久手市","city_kana":"ナガクテシ","town":"岩作平地","town_kana":"ヤザコヒラチ","prefecture_code":23},{"zip_code":"4801103","prefecture":"愛知県","prefecture_kana":"アイチケン","city":"長久手市","city_kana":"ナガクテシ","town":"岩作琵琶ケ池","town_kana":"ヤザコビワガイケ","prefecture_code":23},{"zip_code":"4801103","prefecture":"愛知県","prefecture_kana":"アイチケン","city":"長久手市","city_kana":"ナガクテシ","town":"岩作福井","town_kana":"ヤザコフクイ","prefecture_code":23},{"zip_code":"4801103","prefecture":"愛知県","prefecture_kana":"アイチケン","city":"長久手市","city_kana":"ナガクテシ","town":"岩作丸根","town_kana":"ヤザコマルネ","prefecture_code":23},{"zip_code":"4801103","prefecture":"愛知県","prefecture_kana":"アイチケン","city":"長久手市","city_kana":"ナガクテシ","town":"岩作溝添","town_kana":"ヤザコミゾゾエ","prefecture_code":23},{"zip_code":"4801103","prefecture":"愛知県","prefecture_kana":"アイチケン","city":"長久手市","city_kana":"ナガクテシ","town":"岩作南島","town_kana":"ヤザコミナミジマ","prefecture_code":23},{"zip_code":"4801103","prefecture":"愛知県","prefecture_kana":"アイチケン","city":"長久手市","city_kana":"ナガクテシ","town":"岩作宮後","town_kana":"ヤザコミヤウシロ","prefecture_code":23},{"zip_code":"4801103","prefecture":"愛知県","prefecture_kana":"アイチケン","city":"長久手市","city_kana":"ナガクテシ","town":"岩作宮前","town_kana":"ヤザコミヤマエ","prefecture_code":23},{"zip_code":"4801103","prefecture":"愛知県","prefecture_kana":"アイチケン","city":"長久手市","city_kana":"ナガクテシ","town":"岩作向田","town_kana":"ヤザコムカイダ","prefecture_code":23},{"zip_code":"4801103","prefecture":"愛知県","prefecture_kana":"アイチケン","city":"長久手市","city_kana":"ナガクテシ","town":"岩作向畑","town_kana":"ヤザコムカエバタ","prefecture_code":23},{"zip_code":"4801103","prefecture":"愛知県","prefecture_kana":"アイチケン","city":"長久手市","city_kana":"ナガクテシ","town":"岩作元門","town_kana":"ヤザコモトカド","prefecture_code":23},{"zip_code":"4801103","prefecture":"愛知県","prefecture_kana":"アイチケン","city":"長久手市","city_kana":"ナガクテシ","town":"岩作桃ノ木洞","town_kana":"ヤザコモモノキボラ","prefecture_code":23},{"zip_code":"4801103","prefecture":"愛知県","prefecture_kana":"アイチケン","city":"長久手市","city_kana":"ナガクテシ","town":"岩作八瀬ノ木","town_kana":"ヤザコヤセノキ","prefecture_code":23},{"zip_code":"4801103","prefecture":"愛知県","prefecture_kana":"アイチケン","city":"長久手市","city_kana":"ナガクテシ","town":"岩作籔田","town_kana":"ヤザコヤブタ","prefecture_code":23},{"zip_code":"4801103","prefecture":"愛知県","prefecture_kana":"アイチケン","city":"長久手市","city_kana":"ナガクテシ","town":"岩作早稲田","town_kana":"ヤザコワセダ","prefecture_code":23}],"1164":{"zip_code":"4801164","prefecture":"愛知県","prefecture_kana":"アイチケン","city":"長久手市","city_kana":"ナガクテシ","town":"山桶","town_kana":"ヤマオケ","prefecture_code":23},"1111":{"zip_code":"4801111","prefecture":"愛知県","prefecture_kana":"アイチケン","city":"長久手市","city_kana":"ナガクテシ","town":"山越","town_kana":"ヤマゴエ","prefecture_code":23},"1113":{"zip_code":"4801113","prefecture":"愛知県","prefecture_kana":"アイチケン","city":"長久手市","city_kana":"ナガクテシ","town":"山野田","town_kana":"ヤマノタ","prefecture_code":23},"1118":{"zip_code":"4801118","prefecture":"愛知県","prefecture_kana":"アイチケン","city":"長久手市","city_kana":"ナガクテシ","town":"横道","town_kana":"ヨコミチ","prefecture_code":23},"1129":{"zip_code":"4801129","prefecture":"愛知県","prefecture_kana":"アイチケン","city":"長久手市","city_kana":"ナガクテシ","town":"よし池","town_kana":"ヨシイケ","prefecture_code":23},"1341":{"zip_code":"4801341","prefecture":"愛知県","prefecture_kana":"アイチケン","city":"長久手市","city_kana":"ナガクテシ","town":"葭ケ廻間","town_kana":"ヨシガバサマ","prefecture_code":23},"1307":{"zip_code":"4801307","prefecture":"愛知県","prefecture_kana":"アイチケン","city":"長久手市","city_kana":"ナガクテシ","town":"立花","town_kana":"リッカ","prefecture_code":23},"1136":{"zip_code":"4801136","prefecture":"愛知県","prefecture_kana":"アイチケン","city":"長久手市","city_kana":"ナガクテシ","town":"櫨木","town_kana":"ロウボク","prefecture_code":23},"1328":{"zip_code":"4801328","prefecture":"愛知県","prefecture_kana":"アイチケン","city":"長久手市","city_kana":"ナガクテシ","town":"早稲田","town_kana":"ワセダ","prefecture_code":23},"0200":{"zip_code":"4800200","prefecture":"愛知県","prefecture_kana":"アイチケン","city":"西春日井郡豊山町","city_kana":"ニシカスガイグントヨヤマチョウ","town":"","town_kana":"","prefecture_code":23},"0201":{"zip_code":"4800201","prefecture":"愛知県","prefecture_kana":"アイチケン","city":"西春日井郡豊山町","city_kana":"ニシカスガイグントヨヤマチョウ","town":"青山","town_kana":"アオヤマ","prefecture_code":23},"0202":{"zip_code":"4800202","prefecture":"愛知県","prefecture_kana":"アイチケン","city":"西春日井郡豊山町","city_kana":"ニシカスガイグントヨヤマチョウ","town":"豊場","town_kana":"トヨバ","prefecture_code":23},"0100":[{"zip_code":"4800100","prefecture":"愛知県","prefecture_kana":"アイチケン","city":"丹羽郡大口町","city_kana":"ニワグンオオグチチョウ","town":"","town_kana":"","prefecture_code":23},{"zip_code":"4800100","prefecture":"愛知県","prefecture_kana":"アイチケン","city":"丹羽郡扶桑町","city_kana":"ニワグンフソウチョウ","town":"","town_kana":"","prefecture_code":23}],"0132":{"zip_code":"4800132","prefecture":"愛知県","prefecture_kana":"アイチケン","city":"丹羽郡大口町","city_kana":"ニワグンオオグチチョウ","town":"秋田","town_kana":"アキタ","prefecture_code":23},"0137":{"zip_code":"4800137","prefecture":"愛知県","prefecture_kana":"アイチケン","city":"丹羽郡大口町","city_kana":"ニワグンオオグチチョウ","town":"大屋敷","town_kana":"オオヤシキ","prefecture_code":23},"0148":{"zip_code":"4800148","prefecture":"愛知県","prefecture_kana":"アイチケン","city":"丹羽郡大口町","city_kana":"ニワグンオオグチチョウ","town":"小口","town_kana":"オグチ","prefecture_code":23},"0138":{"zip_code":"4800138","prefecture":"愛知県","prefecture_kana":"アイチケン","city":"丹羽郡大口町","city_kana":"ニワグンオオグチチョウ","town":"大御堂","town_kana":"オミド","prefecture_code":23},"0133":{"zip_code":"4800133","prefecture":"愛知県","prefecture_kana":"アイチケン","city":"丹羽郡大口町","city_kana":"ニワグンオオグチチョウ","town":"替地","town_kana":"カエチ","prefecture_code":23},"0149":{"zip_code":"4800149","prefecture":"愛知県","prefecture_kana":"アイチケン","city":"丹羽郡大口町","city_kana":"ニワグンオオグチチョウ","town":"垣田","town_kana":"カキタ","prefecture_code":23},"0141":{"zip_code":"4800141","prefecture":"愛知県","prefecture_kana":"アイチケン","city":"丹羽郡大口町","city_kana":"ニワグンオオグチチョウ","town":"上小口","town_kana":"カミオグチ","prefecture_code":23},"0121":{"zip_code":"4800121","prefecture":"愛知県","prefecture_kana":"アイチケン","city":"丹羽郡大口町","city_kana":"ニワグンオオグチチョウ","town":"河北","town_kana":"コギタ","prefecture_code":23},"0135":{"zip_code":"4800135","prefecture":"愛知県","prefecture_kana":"アイチケン","city":"丹羽郡大口町","city_kana":"ニワグンオオグチチョウ","town":"御供所","town_kana":"ゴゴショ","prefecture_code":23},"0151":{"zip_code":"4800151","prefecture":"愛知県","prefecture_kana":"アイチケン","city":"丹羽郡大口町","city_kana":"ニワグンオオグチチョウ","town":"さつきケ丘","town_kana":"サツキガオカ","prefecture_code":23},"0144":{"zip_code":"4800144","prefecture":"愛知県","prefecture_kana":"アイチケン","city":"丹羽郡大口町","city_kana":"ニワグンオオグチチョウ","town":"下小口","town_kana":"シモオグチ","prefecture_code":23},"0143":{"zip_code":"4800143","prefecture":"愛知県","prefecture_kana":"アイチケン","city":"丹羽郡大口町","city_kana":"ニワグンオオグチチョウ","town":"城屋敷","town_kana":"シロヤシキ","prefecture_code":23},"0127":{"zip_code":"4800127","prefecture":"愛知県","prefecture_kana":"アイチケン","city":"丹羽郡大口町","city_kana":"ニワグンオオグチチョウ","town":"新宮","town_kana":"シンミヤ","prefecture_code":23},"0131":{"zip_code":"4800131","prefecture":"愛知県","prefecture_kana":"アイチケン","city":"丹羽郡大口町","city_kana":"ニワグンオオグチチョウ","town":"高橋","town_kana":"タカハシ","prefecture_code":23},"0147":{"zip_code":"4800147","prefecture":"愛知県","prefecture_kana":"アイチケン","city":"丹羽郡大口町","city_kana":"ニワグンオオグチチョウ","town":"竹田","town_kana":"タケダ","prefecture_code":23},"0126":{"zip_code":"4800126","prefecture":"愛知県","prefecture_kana":"アイチケン","city":"丹羽郡大口町","city_kana":"ニワグンオオグチチョウ","town":"伝右","town_kana":"デンネ","prefecture_code":23},"0125":{"zip_code":"4800125","prefecture":"愛知県","prefecture_kana":"アイチケン","city":"丹羽郡大口町","city_kana":"ニワグンオオグチチョウ","town":"外坪","town_kana":"トツボ","prefecture_code":23},"0134":{"zip_code":"4800134","prefecture":"愛知県","prefecture_kana":"アイチケン","city":"丹羽郡大口町","city_kana":"ニワグンオオグチチョウ","town":"豊田","town_kana":"トヨタ","prefecture_code":23},"0122":{"zip_code":"4800122","prefecture":"愛知県","prefecture_kana":"アイチケン","city":"丹羽郡大口町","city_kana":"ニワグンオオグチチョウ","town":"仲沖","town_kana":"ナカオキ","prefecture_code":23},"0142":{"zip_code":"4800142","prefecture":"愛知県","prefecture_kana":"アイチケン","city":"丹羽郡大口町","city_kana":"ニワグンオオグチチョウ","town":"中小口","town_kana":"ナカオグチ","prefecture_code":23},"0139":{"zip_code":"4800139","prefecture":"愛知県","prefecture_kana":"アイチケン","city":"丹羽郡大口町","city_kana":"ニワグンオオグチチョウ","town":"奈良子","town_kana":"ナラシ","prefecture_code":23},"0124":{"zip_code":"4800124","prefecture":"愛知県","prefecture_kana":"アイチケン","city":"丹羽郡大口町","city_kana":"ニワグンオオグチチョウ","town":"萩島","town_kana":"ハギシマ","prefecture_code":23},"0123":{"zip_code":"4800123","prefecture":"愛知県","prefecture_kana":"アイチケン","city":"丹羽郡大口町","city_kana":"ニワグンオオグチチョウ","town":"二ツ屋","town_kana":"フタツヤ","prefecture_code":23},"0136":{"zip_code":"4800136","prefecture":"愛知県","prefecture_kana":"アイチケン","city":"丹羽郡大口町","city_kana":"ニワグンオオグチチョウ","town":"堀尾跡","town_kana":"ホリオセキ","prefecture_code":23},"0145":{"zip_code":"4800145","prefecture":"愛知県","prefecture_kana":"アイチケン","city":"丹羽郡大口町","city_kana":"ニワグンオオグチチョウ","town":"丸","town_kana":"マル","prefecture_code":23},"0146":{"zip_code":"4800146","prefecture":"愛知県","prefecture_kana":"アイチケン","city":"丹羽郡大口町","city_kana":"ニワグンオオグチチョウ","town":"余野","town_kana":"ヨノ","prefecture_code":23},"0106":{"zip_code":"4800106","prefecture":"愛知県","prefecture_kana":"アイチケン","city":"丹羽郡扶桑町","city_kana":"ニワグンフソウチョウ","town":"小淵","town_kana":"オブチ","prefecture_code":23},"0103":{"zip_code":"4800103","prefecture":"愛知県","prefecture_kana":"アイチケン","city":"丹羽郡扶桑町","city_kana":"ニワグンフソウチョウ","town":"柏森","town_kana":"カシワモリ","prefecture_code":23},"0104":{"zip_code":"4800104","prefecture":"愛知県","prefecture_kana":"アイチケン","city":"丹羽郡扶桑町","city_kana":"ニワグンフソウチョウ","town":"斎藤","town_kana":"サイト","prefecture_code":23},"0102":{"zip_code":"4800102","prefecture":"愛知県","prefecture_kana":"アイチケン","city":"丹羽郡扶桑町","city_kana":"ニワグンフソウチョウ","town":"高雄","town_kana":"タカオ","prefecture_code":23},"0107":{"zip_code":"4800107","prefecture":"愛知県","prefecture_kana":"アイチケン","city":"丹羽郡扶桑町","city_kana":"ニワグンフソウチョウ","town":"高木","town_kana":"タカギ","prefecture_code":23},"0105":{"zip_code":"4800105","prefecture":"愛知県","prefecture_kana":"アイチケン","city":"丹羽郡扶桑町","city_kana":"ニワグンフソウチョウ","town":"南山名","town_kana":"ミナミヤナ","prefecture_code":23},"0101":{"zip_code":"4800101","prefecture":"愛知県","prefecture_kana":"アイチケン","city":"丹羽郡扶桑町","city_kana":"ニワグンフソウチョウ","town":"山那","town_kana":"ヤマナ","prefecture_code":23}}