{"0000":{"zip_code":"4820000","prefecture":"愛知県","prefecture_kana":"アイチケン","city":"岩倉市","city_kana":"イワクラシ","town":"","town_kana":"","prefecture_code":23},"0024":{"zip_code":"4820024","prefecture":"愛知県","prefecture_kana":"アイチケン","city":"岩倉市","city_kana":"イワクラシ","town":"旭町","town_kana":"アサヒマチ","prefecture_code":23},"0034":{"zip_code":"4820034","prefecture":"愛知県","prefecture_kana":"アイチケン","city":"岩倉市","city_kana":"イワクラシ","town":"石仏町","town_kana":"イシボトケチョウ","prefecture_code":23},"0045":{"zip_code":"4820045","prefecture":"愛知県","prefecture_kana":"アイチケン","city":"岩倉市","city_kana":"イワクラシ","town":"泉町","town_kana":"イズミチョウ","prefecture_code":23},"0012":{"zip_code":"4820012","prefecture":"愛知県","prefecture_kana":"アイチケン","city":"岩倉市","city_kana":"イワクラシ","town":"稲荷町","town_kana":"イナリチョウ","prefecture_code":23},"0006":{"zip_code":"4820006","prefecture":"愛知県","prefecture_kana":"アイチケン","city":"岩倉市","city_kana":"イワクラシ","town":"稲荷町羽根","town_kana":"イナリチョウハネ","prefecture_code":23},"0032":{"zip_code":"4820032","prefecture":"愛知県","prefecture_kana":"アイチケン","city":"岩倉市","city_kana":"イワクラシ","town":"井上町","town_kana":"イノウエチョウ","prefecture_code":23},"0033":{"zip_code":"4820033","prefecture":"愛知県","prefecture_kana":"アイチケン","city":"岩倉市","city_kana":"イワクラシ","town":"神野町","town_kana":"カミノチョウ","prefecture_code":23},"0015":{"zip_code":"4820015","prefecture":"愛知県","prefecture_kana":"アイチケン","city":"岩倉市","city_kana":"イワクラシ","town":"川井町","town_kana":"カワイチョウ","prefecture_code":23},"0017":{"zip_code":"4820017","prefecture":"愛知県","prefecture_kana":"アイチケン","city":"岩倉市","city_kana":"イワクラシ","town":"北島町","town_kana":"キタジマチョウ","prefecture_code":23},"0004":{"zip_code":"4820004","prefecture":"愛知県","prefecture_kana":"アイチケン","city":"岩倉市","city_kana":"イワクラシ","town":"五条町","town_kana":"ゴジョウチョウ","prefecture_code":23},"0036":{"zip_code":"4820036","prefecture":"愛知県","prefecture_kana":"アイチケン","city":"岩倉市","city_kana":"イワクラシ","town":"西市町","town_kana":"サイチチョウ","prefecture_code":23},"0022":{"zip_code":"4820022","prefecture":"愛知県","prefecture_kana":"アイチケン","city":"岩倉市","city_kana":"イワクラシ","town":"栄町","town_kana":"サカエマチ","prefecture_code":23},"0005":{"zip_code":"4820005","prefecture":"愛知県","prefecture_kana":"アイチケン","city":"岩倉市","city_kana":"イワクラシ","town":"下本町","town_kana":"シモホンマチ","prefecture_code":23},"0011":{"zip_code":"4820011","prefecture":"愛知県","prefecture_kana":"アイチケン","city":"岩倉市","city_kana":"イワクラシ","town":"昭和町","town_kana":"ショウワチョウ","prefecture_code":23},"0021":{"zip_code":"4820021","prefecture":"愛知県","prefecture_kana":"アイチケン","city":"岩倉市","city_kana":"イワクラシ","town":"新柳町","town_kana":"シンヤナギチョウ","prefecture_code":23},"0035":{"zip_code":"4820035","prefecture":"愛知県","prefecture_kana":"アイチケン","city":"岩倉市","city_kana":"イワクラシ","town":"鈴井町","town_kana":"スズイチョウ","prefecture_code":23},"0003":{"zip_code":"4820003","prefecture":"愛知県","prefecture_kana":"アイチケン","city":"岩倉市","city_kana":"イワクラシ","town":"曽野町","town_kana":"ソノチョウ","prefecture_code":23},"0002":{"zip_code":"4820002","prefecture":"愛知県","prefecture_kana":"アイチケン","city":"岩倉市","city_kana":"イワクラシ","town":"大市場町","town_kana":"ダイイチバチョウ","prefecture_code":23},"0014":{"zip_code":"4820014","prefecture":"愛知県","prefecture_kana":"アイチケン","city":"岩倉市","city_kana":"イワクラシ","town":"大山寺町","town_kana":"タイサンジチョウ","prefecture_code":23},"0018":{"zip_code":"4820018","prefecture":"愛知県","prefecture_kana":"アイチケン","city":"岩倉市","city_kana":"イワクラシ","town":"大山寺本町","town_kana":"タイサンジホンマチ","prefecture_code":23},"0007":{"zip_code":"4820007","prefecture":"愛知県","prefecture_kana":"アイチケン","city":"岩倉市","city_kana":"イワクラシ","town":"大山寺元町","town_kana":"タイサンジモトマチ","prefecture_code":23},"0025":{"zip_code":"4820025","prefecture":"愛知県","prefecture_kana":"アイチケン","city":"岩倉市","city_kana":"イワクラシ","town":"大地新町","town_kana":"ダイチシンマチ","prefecture_code":23},"0026":{"zip_code":"4820026","prefecture":"愛知県","prefecture_kana":"アイチケン","city":"岩倉市","city_kana":"イワクラシ","town":"大地町","town_kana":"ダイチチョウ","prefecture_code":23},"0023":{"zip_code":"4820023","prefecture":"愛知県","prefecture_kana":"アイチケン","city":"岩倉市","city_kana":"イワクラシ","town":"中央町","town_kana":"チュウオウチョウ","prefecture_code":23},"0046":{"zip_code":"4820046","prefecture":"愛知県","prefecture_kana":"アイチケン","city":"岩倉市","city_kana":"イワクラシ","town":"中野町","town_kana":"ナカノチョウ","prefecture_code":23},"0042":{"zip_code":"4820042","prefecture":"愛知県","prefecture_kana":"アイチケン","city":"岩倉市","city_kana":"イワクラシ","town":"中本町","town_kana":"ナカホンマチ","prefecture_code":23},"0016":{"zip_code":"4820016","prefecture":"愛知県","prefecture_kana":"アイチケン","city":"岩倉市","city_kana":"イワクラシ","town":"野寄町","town_kana":"ノヨリチョウ","prefecture_code":23},"0001":{"zip_code":"4820001","prefecture":"愛知県","prefecture_kana":"アイチケン","city":"岩倉市","city_kana":"イワクラシ","town":"東新町","town_kana":"ヒガシシンマチ","prefecture_code":23},"0041":{"zip_code":"4820041","prefecture":"愛知県","prefecture_kana":"アイチケン","city":"岩倉市","city_kana":"イワクラシ","town":"東町","town_kana":"ヒガシマチ","prefecture_code":23},"0043":{"zip_code":"4820043","prefecture":"愛知県","prefecture_kana":"アイチケン","city":"岩倉市","city_kana":"イワクラシ","town":"本町","town_kana":"ホンマチ","prefecture_code":23},"0013":{"zip_code":"4820013","prefecture":"愛知県","prefecture_kana":"アイチケン","city":"岩倉市","city_kana":"イワクラシ","town":"南新町","town_kana":"ミナミシンマチ","prefecture_code":23},"0044":{"zip_code":"4820044","prefecture":"愛知県","prefecture_kana":"アイチケン","city":"岩倉市","city_kana":"イワクラシ","town":"宮前町","town_kana":"ミヤマエチョウ","prefecture_code":23},"0031":{"zip_code":"4820031","prefecture":"愛知県","prefecture_kana":"アイチケン","city":"岩倉市","city_kana":"イワクラシ","town":"八剱町","town_kana":"ヤツルギチョウ","prefecture_code":23}}