{"0000":{"zip_code":"4830000","prefecture":"愛知県","prefecture_kana":"アイチケン","city":"江南市","city_kana":"コウナンシ","town":"","town_kana":"","prefecture_code":23},"8221":{"zip_code":"4838221","prefecture":"愛知県","prefecture_kana":"アイチケン","city":"江南市","city_kana":"コウナンシ","town":"赤童子町大堀","town_kana":"アカドウジチョウオオボリ","prefecture_code":23},"8226":{"zip_code":"4838226","prefecture":"愛知県","prefecture_kana":"アイチケン","city":"江南市","city_kana":"コウナンシ","town":"赤童子町大間","town_kana":"アカドウジチョウオオマ","prefecture_code":23},"8223":{"zip_code":"4838223","prefecture":"愛知県","prefecture_kana":"アイチケン","city":"江南市","city_kana":"コウナンシ","town":"赤童子町御宿","town_kana":"アカドウジチョウオヤド","prefecture_code":23},"8225":{"zip_code":"4838225","prefecture":"愛知県","prefecture_kana":"アイチケン","city":"江南市","city_kana":"コウナンシ","town":"赤童子町栄","town_kana":"アカドウジチョウサカエ","prefecture_code":23},"8228":{"zip_code":"4838228","prefecture":"愛知県","prefecture_kana":"アイチケン","city":"江南市","city_kana":"コウナンシ","town":"赤童子町桜道","town_kana":"アカドウジチョウサクラミチ","prefecture_code":23},"8224":{"zip_code":"4838224","prefecture":"愛知県","prefecture_kana":"アイチケン","city":"江南市","city_kana":"コウナンシ","town":"赤童子町白山","town_kana":"アカドウジチョウハクサン","prefecture_code":23},"8165":{"zip_code":"4838165","prefecture":"愛知県","prefecture_kana":"アイチケン","city":"江南市","city_kana":"コウナンシ","town":"赤童子町福住","town_kana":"アカドウジチョウフクズミ","prefecture_code":23},"8222":{"zip_code":"4838222","prefecture":"愛知県","prefecture_kana":"アイチケン","city":"江南市","city_kana":"コウナンシ","town":"赤童子町藤宮","town_kana":"アカドウジチョウフジミヤ","prefecture_code":23},"8167":{"zip_code":"4838167","prefecture":"愛知県","prefecture_kana":"アイチケン","city":"江南市","city_kana":"コウナンシ","town":"赤童子町南野","town_kana":"アカドウジチョウミナミノ","prefecture_code":23},"8166":{"zip_code":"4838166","prefecture":"愛知県","prefecture_kana":"アイチケン","city":"江南市","city_kana":"コウナンシ","town":"赤童子町南山","town_kana":"アカドウジチョウミナミヤマ","prefecture_code":23},"8227":{"zip_code":"4838227","prefecture":"愛知県","prefecture_kana":"アイチケン","city":"江南市","city_kana":"コウナンシ","town":"赤童子町良原","town_kana":"アカドウジチョウヨシハラ","prefecture_code":23},"8106":{"zip_code":"4838106","prefecture":"愛知県","prefecture_kana":"アイチケン","city":"江南市","city_kana":"コウナンシ","town":"石枕町神明","town_kana":"イシマクラチョウシンメイ","prefecture_code":23},"8107":{"zip_code":"4838107","prefecture":"愛知県","prefecture_kana":"アイチケン","city":"江南市","city_kana":"コウナンシ","town":"石枕町白山","town_kana":"イシマクラチョウハクサン","prefecture_code":23},"8181":{"zip_code":"4838181","prefecture":"愛知県","prefecture_kana":"アイチケン","city":"江南市","city_kana":"コウナンシ","town":"今市場町秋津","town_kana":"イマイチバチョウアキツ","prefecture_code":23},"8183":{"zip_code":"4838183","prefecture":"愛知県","prefecture_kana":"アイチケン","city":"江南市","city_kana":"コウナンシ","town":"今市場町高根","town_kana":"イマイチバチョウタカネ","prefecture_code":23},"8182":{"zip_code":"4838182","prefecture":"愛知県","prefecture_kana":"アイチケン","city":"江南市","city_kana":"コウナンシ","town":"今市場町宮前","town_kana":"イマイチバチョウミヤマエ","prefecture_code":23},"8188":{"zip_code":"4838188","prefecture":"愛知県","prefecture_kana":"アイチケン","city":"江南市","city_kana":"コウナンシ","town":"今市場町美和","town_kana":"イマイチバチョウミワ","prefecture_code":23},"8387":{"zip_code":"4838387","prefecture":"愛知県","prefecture_kana":"アイチケン","city":"江南市","city_kana":"コウナンシ","town":"後飛保町新開","town_kana":"ウシロヒボチョウシンカイ","prefecture_code":23},"8347":{"zip_code":"4838347","prefecture":"愛知県","prefecture_kana":"アイチケン","city":"江南市","city_kana":"コウナンシ","town":"後飛保町神明野","town_kana":"ウシロヒボチョウシンメイノ","prefecture_code":23},"8345":{"zip_code":"4838345","prefecture":"愛知県","prefecture_kana":"アイチケン","city":"江南市","city_kana":"コウナンシ","town":"後飛保町高瀬","town_kana":"ウシロヒボチョウタカセ","prefecture_code":23},"8381":{"zip_code":"4838381","prefecture":"愛知県","prefecture_kana":"アイチケン","city":"江南市","city_kana":"コウナンシ","town":"後飛保町出島","town_kana":"ウシロヒボチョウデシマ","prefecture_code":23},"8385":{"zip_code":"4838385","prefecture":"愛知県","prefecture_kana":"アイチケン","city":"江南市","city_kana":"コウナンシ","town":"後飛保町中町","town_kana":"ウシロヒボチョウナカマチ","prefecture_code":23},"8386":{"zip_code":"4838386","prefecture":"愛知県","prefecture_kana":"アイチケン","city":"江南市","city_kana":"コウナンシ","town":"後飛保町西町","town_kana":"ウシロヒボチョウニシマチ","prefecture_code":23},"8344":{"zip_code":"4838344","prefecture":"愛知県","prefecture_kana":"アイチケン","city":"江南市","city_kana":"コウナンシ","town":"後飛保町東高瀬","town_kana":"ウシロヒボチョウヒガシタカセ","prefecture_code":23},"8346":{"zip_code":"4838346","prefecture":"愛知県","prefecture_kana":"アイチケン","city":"江南市","city_kana":"コウナンシ","town":"後飛保町平野","town_kana":"ウシロヒボチョウヒラノ","prefecture_code":23},"8388":{"zip_code":"4838388","prefecture":"愛知県","prefecture_kana":"アイチケン","city":"江南市","city_kana":"コウナンシ","town":"後飛保町本郷","town_kana":"ウシロヒボチョウホンゴウ","prefecture_code":23},"8383":{"zip_code":"4838383","prefecture":"愛知県","prefecture_kana":"アイチケン","city":"江南市","city_kana":"コウナンシ","town":"後飛保町前川","town_kana":"ウシロヒボチョウマエカワ","prefecture_code":23},"8384":{"zip_code":"4838384","prefecture":"愛知県","prefecture_kana":"アイチケン","city":"江南市","city_kana":"コウナンシ","town":"後飛保町宮前","town_kana":"ウシロヒボチョウミヤマエ","prefecture_code":23},"8382":{"zip_code":"4838382","prefecture":"愛知県","prefecture_kana":"アイチケン","city":"江南市","city_kana":"コウナンシ","town":"後飛保町薬師","town_kana":"ウシロヒボチョウヤクシ","prefecture_code":23},"8389":{"zip_code":"4838389","prefecture":"愛知県","prefecture_kana":"アイチケン","city":"江南市","city_kana":"コウナンシ","town":"後飛保町両家","town_kana":"ウシロヒボチョウリョウケ","prefecture_code":23},"8041":{"zip_code":"4838041","prefecture":"愛知県","prefecture_kana":"アイチケン","city":"江南市","city_kana":"コウナンシ","town":"江森町上","town_kana":"エモリチョウカミ","prefecture_code":23},"8048":{"zip_code":"4838048","prefecture":"愛知県","prefecture_kana":"アイチケン","city":"江南市","city_kana":"コウナンシ","town":"江森町中","town_kana":"エモリチョウナカ","prefecture_code":23},"8042":{"zip_code":"4838042","prefecture":"愛知県","prefecture_kana":"アイチケン","city":"江南市","city_kana":"コウナンシ","town":"江森町東","town_kana":"エモリチョウヒガシ","prefecture_code":23},"8034":{"zip_code":"4838034","prefecture":"愛知県","prefecture_kana":"アイチケン","city":"江南市","city_kana":"コウナンシ","town":"江森町西","town_kana":"エモリチョウニシ","prefecture_code":23},"8043":{"zip_code":"4838043","prefecture":"愛知県","prefecture_kana":"アイチケン","city":"江南市","city_kana":"コウナンシ","town":"江森町南","town_kana":"エモリチョウミナミ","prefecture_code":23},"8414":{"zip_code":"4838414","prefecture":"愛知県","prefecture_kana":"アイチケン","city":"江南市","city_kana":"コウナンシ","town":"小杁町一色","town_kana":"オイリチョウイッシキ","prefecture_code":23},"8405":{"zip_code":"4838405","prefecture":"愛知県","prefecture_kana":"アイチケン","city":"江南市","city_kana":"コウナンシ","town":"小杁町鴨ケ池","town_kana":"オイリチョウカモガイケ","prefecture_code":23},"8409":{"zip_code":"4838409","prefecture":"愛知県","prefecture_kana":"アイチケン","city":"江南市","city_kana":"コウナンシ","town":"小杁町長者毛西","town_kana":"オイリチョウチョウジャゲニシ","prefecture_code":23},"8408":{"zip_code":"4838408","prefecture":"愛知県","prefecture_kana":"アイチケン","city":"江南市","city_kana":"コウナンシ","town":"小杁町長者毛東","town_kana":"オイリチョウチョウジャゲヒガシ","prefecture_code":23},"8403":{"zip_code":"4838403","prefecture":"愛知県","prefecture_kana":"アイチケン","city":"江南市","city_kana":"コウナンシ","town":"小杁町千代見","town_kana":"オイリチョウチヨミ","prefecture_code":23},"8412":{"zip_code":"4838412","prefecture":"愛知県","prefecture_kana":"アイチケン","city":"江南市","city_kana":"コウナンシ","town":"小杁町寺ノ内","town_kana":"オイリチョウテラノウチ","prefecture_code":23},"8411":{"zip_code":"4838411","prefecture":"愛知県","prefecture_kana":"アイチケン","city":"江南市","city_kana":"コウナンシ","town":"小杁町八幡","town_kana":"オイリチョウハチマン","prefecture_code":23},"8404":{"zip_code":"4838404","prefecture":"愛知県","prefecture_kana":"アイチケン","city":"江南市","city_kana":"コウナンシ","town":"小杁町林","town_kana":"オイリチョウハヤシ","prefecture_code":23},"8413":{"zip_code":"4838413","prefecture":"愛知県","prefecture_kana":"アイチケン","city":"江南市","city_kana":"コウナンシ","town":"小杁町本郷","town_kana":"オイリチョウホンゴウ","prefecture_code":23},"8407":{"zip_code":"4838407","prefecture":"愛知県","prefecture_kana":"アイチケン","city":"江南市","city_kana":"コウナンシ","town":"小杁町明土","town_kana":"オイリチョウミョウド","prefecture_code":23},"8187":{"zip_code":"4838187","prefecture":"愛知県","prefecture_kana":"アイチケン","city":"江南市","city_kana":"コウナンシ","town":"大海道町青木","town_kana":"オオガイドウチョウアオキ","prefecture_code":23},"8185":{"zip_code":"4838185","prefecture":"愛知県","prefecture_kana":"アイチケン","city":"江南市","city_kana":"コウナンシ","town":"大海道町神明","town_kana":"オオガイドウチョウシンメイ","prefecture_code":23},"8186":{"zip_code":"4838186","prefecture":"愛知県","prefecture_kana":"アイチケン","city":"江南市","city_kana":"コウナンシ","town":"大海道町中里","town_kana":"オオガイドウチョウナカサト","prefecture_code":23},"8251":{"zip_code":"4838251","prefecture":"愛知県","prefecture_kana":"アイチケン","city":"江南市","city_kana":"コウナンシ","town":"大間町新町","town_kana":"オオマチョウシンマチ","prefecture_code":23},"8252":{"zip_code":"4838252","prefecture":"愛知県","prefecture_kana":"アイチケン","city":"江南市","city_kana":"コウナンシ","town":"大間町南大間","town_kana":"オオマチョウミナミオオマ","prefecture_code":23},"8135":{"zip_code":"4838135","prefecture":"愛知県","prefecture_kana":"アイチケン","city":"江南市","city_kana":"コウナンシ","town":"小郷町粟田木","town_kana":"オゴウチョウアワタギ","prefecture_code":23},"8143":{"zip_code":"4838143","prefecture":"愛知県","prefecture_kana":"アイチケン","city":"江南市","city_kana":"コウナンシ","town":"小郷町伍大力","town_kana":"オゴウチョウゴダイリキ","prefecture_code":23},"8149":{"zip_code":"4838149","prefecture":"愛知県","prefecture_kana":"アイチケン","city":"江南市","city_kana":"コウナンシ","town":"小郷町手保ノ木","town_kana":"オゴウチョウテホノキ","prefecture_code":23},"8145":{"zip_code":"4838145","prefecture":"愛知県","prefecture_kana":"アイチケン","city":"江南市","city_kana":"コウナンシ","town":"小郷町西ノ山","town_kana":"オゴウチョウニシノヤマ","prefecture_code":23},"8144":{"zip_code":"4838144","prefecture":"愛知県","prefecture_kana":"アイチケン","city":"江南市","city_kana":"コウナンシ","town":"小郷町楽ノ山","town_kana":"オゴウチョウラクノヤマ","prefecture_code":23},"8161":{"zip_code":"4838161","prefecture":"愛知県","prefecture_kana":"アイチケン","city":"江南市","city_kana":"コウナンシ","town":"尾崎町上田","town_kana":"オサキチョウカミダ","prefecture_code":23},"8162":{"zip_code":"4838162","prefecture":"愛知県","prefecture_kana":"アイチケン","city":"江南市","city_kana":"コウナンシ","town":"尾崎町河原","town_kana":"オサキチョウカワハラ","prefecture_code":23},"8173":{"zip_code":"4838173","prefecture":"愛知県","prefecture_kana":"アイチケン","city":"江南市","city_kana":"コウナンシ","town":"尾崎町桐野","town_kana":"オサキチョウキリノ","prefecture_code":23},"8172":{"zip_code":"4838172","prefecture":"愛知県","prefecture_kana":"アイチケン","city":"江南市","city_kana":"コウナンシ","town":"尾崎町白山","town_kana":"オサキチョウハクサン","prefecture_code":23},"8168":{"zip_code":"4838168","prefecture":"愛知県","prefecture_kana":"アイチケン","city":"江南市","city_kana":"コウナンシ","town":"尾崎町屋敷","town_kana":"オサキチョウヤシキ","prefecture_code":23},"8171":{"zip_code":"4838171","prefecture":"愛知県","prefecture_kana":"アイチケン","city":"江南市","city_kana":"コウナンシ","town":"尾崎町若竹","town_kana":"オサキチョウワカタケ","prefecture_code":23},"8037":{"zip_code":"4838037","prefecture":"愛知県","prefecture_kana":"アイチケン","city":"江南市","city_kana":"コウナンシ","town":"勝佐町","town_kana":"カツサチョウ","prefecture_code":23},"8008":{"zip_code":"4838008","prefecture":"愛知県","prefecture_kana":"アイチケン","city":"江南市","city_kana":"コウナンシ","town":"鹿子島町","town_kana":"カノコジマチョウ","prefecture_code":23},"8259":{"zip_code":"4838259","prefecture":"愛知県","prefecture_kana":"アイチケン","city":"江南市","city_kana":"コウナンシ","town":"上奈良町","town_kana":"カミナラチョウ","prefecture_code":23},"8257":{"zip_code":"4838257","prefecture":"愛知県","prefecture_kana":"アイチケン","city":"江南市","city_kana":"コウナンシ","town":"上奈良町","town_kana":"カミナラチョウ","prefecture_code":23},"8258":{"zip_code":"4838258","prefecture":"愛知県","prefecture_kana":"アイチケン","city":"江南市","city_kana":"コウナンシ","town":"上奈良町","town_kana":"カミナラチョウ","prefecture_code":23},"8254":{"zip_code":"4838254","prefecture":"愛知県","prefecture_kana":"アイチケン","city":"江南市","city_kana":"コウナンシ","town":"木賀町新開","town_kana":"キガチョウシンガイ","prefecture_code":23},"8255":{"zip_code":"4838255","prefecture":"愛知県","prefecture_kana":"アイチケン","city":"江南市","city_kana":"コウナンシ","town":"木賀町定和","town_kana":"キガチョウジョウワ","prefecture_code":23},"8253":{"zip_code":"4838253","prefecture":"愛知県","prefecture_kana":"アイチケン","city":"江南市","city_kana":"コウナンシ","town":"木賀町杉","town_kana":"キガチョウスギ","prefecture_code":23},"8233":{"zip_code":"4838233","prefecture":"愛知県","prefecture_kana":"アイチケン","city":"江南市","city_kana":"コウナンシ","town":"木賀町大門","town_kana":"キガチョウダイモン","prefecture_code":23},"8163":{"zip_code":"4838163","prefecture":"愛知県","prefecture_kana":"アイチケン","city":"江南市","city_kana":"コウナンシ","town":"木賀東町新宮","town_kana":"キガヒガシチョウシングウ","prefecture_code":23},"8164":{"zip_code":"4838164","prefecture":"愛知県","prefecture_kana":"アイチケン","city":"江南市","city_kana":"コウナンシ","town":"木賀東町新塚","town_kana":"キガヒガシチョウシンヅカ","prefecture_code":23},"8232":{"zip_code":"4838232","prefecture":"愛知県","prefecture_kana":"アイチケン","city":"江南市","city_kana":"コウナンシ","town":"木賀本郷町緑","town_kana":"キガホンゴウチョウミドリ","prefecture_code":23},"8231":{"zip_code":"4838231","prefecture":"愛知県","prefecture_kana":"アイチケン","city":"江南市","city_kana":"コウナンシ","town":"木賀本郷町東","town_kana":"キガホンゴウチョウヒガシ","prefecture_code":23},"8239":{"zip_code":"4838239","prefecture":"愛知県","prefecture_kana":"アイチケン","city":"江南市","city_kana":"コウナンシ","town":"木賀本郷町西","town_kana":"キガホンゴウチョウニシ","prefecture_code":23},"8238":{"zip_code":"4838238","prefecture":"愛知県","prefecture_kana":"アイチケン","city":"江南市","city_kana":"コウナンシ","town":"木賀本郷町南","town_kana":"キガホンゴウチョウミナミ","prefecture_code":23},"8176":{"zip_code":"4838176","prefecture":"愛知県","prefecture_kana":"アイチケン","city":"江南市","city_kana":"コウナンシ","town":"北野町","town_kana":"キタノチョウ","prefecture_code":23},"8177":{"zip_code":"4838177","prefecture":"愛知県","prefecture_kana":"アイチケン","city":"江南市","city_kana":"コウナンシ","town":"北野町川石","town_kana":"キタノチョウカワイシ","prefecture_code":23},"8174":{"zip_code":"4838174","prefecture":"愛知県","prefecture_kana":"アイチケン","city":"江南市","city_kana":"コウナンシ","town":"北野町小松","town_kana":"キタノチョウコマツ","prefecture_code":23},"8175":{"zip_code":"4838175","prefecture":"愛知県","prefecture_kana":"アイチケン","city":"江南市","city_kana":"コウナンシ","town":"北野町天神","town_kana":"キタノチョウテンジン","prefecture_code":23},"8153":{"zip_code":"4838153","prefecture":"愛知県","prefecture_kana":"アイチケン","city":"江南市","city_kana":"コウナンシ","town":"北山町東","town_kana":"キタヤマチョウヒガシ","prefecture_code":23},"8157":{"zip_code":"4838157","prefecture":"愛知県","prefecture_kana":"アイチケン","city":"江南市","city_kana":"コウナンシ","town":"北山町西","town_kana":"キタヤマチョウニシ","prefecture_code":23},"8003":{"zip_code":"4838003","prefecture":"愛知県","prefecture_kana":"アイチケン","city":"江南市","city_kana":"コウナンシ","town":"中般若町","town_kana":"ナカハンニャチョウ","prefecture_code":23},"8006":{"zip_code":"4838006","prefecture":"愛知県","prefecture_kana":"アイチケン","city":"江南市","city_kana":"コウナンシ","town":"草井町中","town_kana":"クサイチョウナカ","prefecture_code":23},"8071":{"zip_code":"4838071","prefecture":"愛知県","prefecture_kana":"アイチケン","city":"江南市","city_kana":"コウナンシ","town":"草井町中野","town_kana":"クサイチョウナカノ","prefecture_code":23},"8004":{"zip_code":"4838004","prefecture":"愛知県","prefecture_kana":"アイチケン","city":"江南市","city_kana":"コウナンシ","town":"草井町宮東","town_kana":"クサイチョウミヤヒガシ","prefecture_code":23},"8005":{"zip_code":"4838005","prefecture":"愛知県","prefecture_kana":"アイチケン","city":"江南市","city_kana":"コウナンシ","town":"草井町宮西","town_kana":"クサイチョウミヤニシ","prefecture_code":23},"8072":{"zip_code":"4838072","prefecture":"愛知県","prefecture_kana":"アイチケン","city":"江南市","city_kana":"コウナンシ","town":"草井町若草","town_kana":"クサイチョウワカクサ","prefecture_code":23},"8007":{"zip_code":"4838007","prefecture":"愛知県","prefecture_kana":"アイチケン","city":"江南市","city_kana":"コウナンシ","town":"草井町西","town_kana":"クサイチョウニシ","prefecture_code":23},"8077":{"zip_code":"4838077","prefecture":"愛知県","prefecture_kana":"アイチケン","city":"江南市","city_kana":"コウナンシ","town":"草井町","town_kana":"クサイチョウ","prefecture_code":23},"8365":{"zip_code":"4838365","prefecture":"愛知県","prefecture_kana":"アイチケン","city":"江南市","city_kana":"コウナンシ","town":"河野町一色","town_kana":"コウノチョウイッシキ","prefecture_code":23},"8364":{"zip_code":"4838364","prefecture":"愛知県","prefecture_kana":"アイチケン","city":"江南市","city_kana":"コウナンシ","town":"河野町川西","town_kana":"コウノチョウカワニシ","prefecture_code":23},"8366":{"zip_code":"4838366","prefecture":"愛知県","prefecture_kana":"アイチケン","city":"江南市","city_kana":"コウナンシ","town":"河野町管竹","town_kana":"コウノチョウカンチク","prefecture_code":23},"8369":{"zip_code":"4838369","prefecture":"愛知県","prefecture_kana":"アイチケン","city":"江南市","city_kana":"コウナンシ","town":"河野町河野","town_kana":"コウノチョウコウノ","prefecture_code":23},"8363":{"zip_code":"4838363","prefecture":"愛知県","prefecture_kana":"アイチケン","city":"江南市","city_kana":"コウナンシ","town":"河野町五十間","town_kana":"コウノチョウゴジッケン","prefecture_code":23},"8362":{"zip_code":"4838362","prefecture":"愛知県","prefecture_kana":"アイチケン","city":"江南市","city_kana":"コウナンシ","town":"河野町小脇","town_kana":"コウノチョウコワキ","prefecture_code":23},"8136":{"zip_code":"4838136","prefecture":"愛知県","prefecture_kana":"アイチケン","city":"江南市","city_kana":"コウナンシ","town":"小折町","town_kana":"コオリチョウ","prefecture_code":23},"8137":{"zip_code":"4838137","prefecture":"愛知県","prefecture_kana":"アイチケン","city":"江南市","city_kana":"コウナンシ","town":"小折町","town_kana":"コオリチョウ","prefecture_code":23},"8134":{"zip_code":"4838134","prefecture":"愛知県","prefecture_kana":"アイチケン","city":"江南市","city_kana":"コウナンシ","town":"小折町","town_kana":"コオリチョウ","prefecture_code":23},"8131":{"zip_code":"4838131","prefecture":"愛知県","prefecture_kana":"アイチケン","city":"江南市","city_kana":"コウナンシ","town":"小折町","town_kana":"コオリチョウ","prefecture_code":23},"8125":{"zip_code":"4838125","prefecture":"愛知県","prefecture_kana":"アイチケン","city":"江南市","city_kana":"コウナンシ","town":"小折東町旭","town_kana":"コオリヒガシマチアサヒ","prefecture_code":23},"8127":{"zip_code":"4838127","prefecture":"愛知県","prefecture_kana":"アイチケン","city":"江南市","city_kana":"コウナンシ","town":"小折本町小松原","town_kana":"コオリホンマチコマツバラ","prefecture_code":23},"8126":{"zip_code":"4838126","prefecture":"愛知県","prefecture_kana":"アイチケン","city":"江南市","city_kana":"コウナンシ","town":"小折本町栄","town_kana":"コオリホンマチサカエ","prefecture_code":23},"8124":{"zip_code":"4838124","prefecture":"愛知県","prefecture_kana":"アイチケン","city":"江南市","city_kana":"コウナンシ","town":"小折本町白山","town_kana":"コオリホンマチハクサン","prefecture_code":23},"8128":{"zip_code":"4838128","prefecture":"愛知県","prefecture_kana":"アイチケン","city":"江南市","city_kana":"コウナンシ","town":"小折本町柳橋","town_kana":"コオリホンマチヤナギバシ","prefecture_code":23},"8213":{"zip_code":"4838213","prefecture":"愛知県","prefecture_kana":"アイチケン","city":"江南市","city_kana":"コウナンシ","town":"古知野町朝日","town_kana":"コチノチョウアサヒ","prefecture_code":23},"8207":{"zip_code":"4838207","prefecture":"愛知県","prefecture_kana":"アイチケン","city":"江南市","city_kana":"コウナンシ","town":"古知野町熱田","town_kana":"コチノチョウアツタ","prefecture_code":23},"8272":{"zip_code":"4838272","prefecture":"愛知県","prefecture_kana":"アイチケン","city":"江南市","city_kana":"コウナンシ","town":"古知野町北屋敷","town_kana":"コチノチョウキタヤシキ","prefecture_code":23},"8275":{"zip_code":"4838275","prefecture":"愛知県","prefecture_kana":"アイチケン","city":"江南市","city_kana":"コウナンシ","town":"古知野町久保見","town_kana":"コチノチョウクボミ","prefecture_code":23},"8205":{"zip_code":"4838205","prefecture":"愛知県","prefecture_kana":"アイチケン","city":"江南市","city_kana":"コウナンシ","town":"古知野町小金","town_kana":"コチノチョウコガネ","prefecture_code":23},"8211":{"zip_code":"4838211","prefecture":"愛知県","prefecture_kana":"アイチケン","city":"江南市","city_kana":"コウナンシ","town":"古知野町杉山","town_kana":"コチノチョウスギヤマ","prefecture_code":23},"8206":{"zip_code":"4838206","prefecture":"愛知県","prefecture_kana":"アイチケン","city":"江南市","city_kana":"コウナンシ","town":"古知野町千丸","town_kana":"コチノチョウセンマル","prefecture_code":23},"8331":{"zip_code":"4838331","prefecture":"愛知県","prefecture_kana":"アイチケン","city":"江南市","city_kana":"コウナンシ","town":"古知野町高瀬","town_kana":"コチノチョウタカセ","prefecture_code":23},"8215":{"zip_code":"4838215","prefecture":"愛知県","prefecture_kana":"アイチケン","city":"江南市","city_kana":"コウナンシ","town":"古知野町大塔","town_kana":"コチノチョウダイトウ","prefecture_code":23},"8271":{"zip_code":"4838271","prefecture":"愛知県","prefecture_kana":"アイチケン","city":"江南市","city_kana":"コウナンシ","town":"古知野町桃源","town_kana":"コチノチョウトウゲン","prefecture_code":23},"8216":{"zip_code":"4838216","prefecture":"愛知県","prefecture_kana":"アイチケン","city":"江南市","city_kana":"コウナンシ","town":"古知野町塔塚","town_kana":"コチノチョウトウヅカ","prefecture_code":23},"8208":{"zip_code":"4838208","prefecture":"愛知県","prefecture_kana":"アイチケン","city":"江南市","city_kana":"コウナンシ","town":"古知野町花霞","town_kana":"コチノチョウハナガスミ","prefecture_code":23},"8214":{"zip_code":"4838214","prefecture":"愛知県","prefecture_kana":"アイチケン","city":"江南市","city_kana":"コウナンシ","town":"古知野町日の出","town_kana":"コチノチョウヒノデ","prefecture_code":23},"8274":{"zip_code":"4838274","prefecture":"愛知県","prefecture_kana":"アイチケン","city":"江南市","city_kana":"コウナンシ","town":"古知野町広見","town_kana":"コチノチョウヒロミ","prefecture_code":23},"8277":{"zip_code":"4838277","prefecture":"愛知県","prefecture_kana":"アイチケン","city":"江南市","city_kana":"コウナンシ","town":"古知野町福寿","town_kana":"コチノチョウフクジュ","prefecture_code":23},"8217":{"zip_code":"4838217","prefecture":"愛知県","prefecture_kana":"アイチケン","city":"江南市","city_kana":"コウナンシ","town":"古知野町古渡","town_kana":"コチノチョウフルワタリ","prefecture_code":23},"8273":{"zip_code":"4838273","prefecture":"愛知県","prefecture_kana":"アイチケン","city":"江南市","city_kana":"コウナンシ","town":"古知野町本郷","town_kana":"コチノチョウホンゴウ","prefecture_code":23},"8278":{"zip_code":"4838278","prefecture":"愛知県","prefecture_kana":"アイチケン","city":"江南市","city_kana":"コウナンシ","town":"古知野町牧森","town_kana":"コチノチョウマキモリ","prefecture_code":23},"8212":{"zip_code":"4838212","prefecture":"愛知県","prefecture_kana":"アイチケン","city":"江南市","city_kana":"コウナンシ","town":"古知野町瑞穂","town_kana":"コチノチョウミズホ","prefecture_code":23},"8279":{"zip_code":"4838279","prefecture":"愛知県","prefecture_kana":"アイチケン","city":"江南市","city_kana":"コウナンシ","town":"古知野町宮裏","town_kana":"コチノチョウミヤウラ","prefecture_code":23},"8276":{"zip_code":"4838276","prefecture":"愛知県","prefecture_kana":"アイチケン","city":"江南市","city_kana":"コウナンシ","town":"古知野町宮前","town_kana":"コチノチョウミヤマエ","prefecture_code":23},"8241":{"zip_code":"4838241","prefecture":"愛知県","prefecture_kana":"アイチケン","city":"江南市","city_kana":"コウナンシ","town":"五明町青木","town_kana":"ゴミョウチョウアオキ","prefecture_code":23},"8243":{"zip_code":"4838243","prefecture":"愛知県","prefecture_kana":"アイチケン","city":"江南市","city_kana":"コウナンシ","town":"五明町石橋","town_kana":"ゴミョウチョウイシバシ","prefecture_code":23},"8247":{"zip_code":"4838247","prefecture":"愛知県","prefecture_kana":"アイチケン","city":"江南市","city_kana":"コウナンシ","town":"五明町太子堂","town_kana":"ゴミョウチョウタイシドウ","prefecture_code":23},"8244":{"zip_code":"4838244","prefecture":"愛知県","prefecture_kana":"アイチケン","city":"江南市","city_kana":"コウナンシ","town":"五明町高砂","town_kana":"ゴミョウチョウタカス","prefecture_code":23},"8245":{"zip_code":"4838245","prefecture":"愛知県","prefecture_kana":"アイチケン","city":"江南市","city_kana":"コウナンシ","town":"五明町大膳","town_kana":"ゴミョウチョウダイゼン","prefecture_code":23},"8248":{"zip_code":"4838248","prefecture":"愛知県","prefecture_kana":"アイチケン","city":"江南市","city_kana":"コウナンシ","town":"五明町天王","town_kana":"ゴミョウチョウテンノウ","prefecture_code":23},"8249":{"zip_code":"4838249","prefecture":"愛知県","prefecture_kana":"アイチケン","city":"江南市","city_kana":"コウナンシ","town":"五明町当光地","town_kana":"ゴミョウチョウトウコウチ","prefecture_code":23},"8242":{"zip_code":"4838242","prefecture":"愛知県","prefecture_kana":"アイチケン","city":"江南市","city_kana":"コウナンシ","town":"五明町根場","town_kana":"ゴミョウチョウネバ","prefecture_code":23},"8246":{"zip_code":"4838246","prefecture":"愛知県","prefecture_kana":"アイチケン","city":"江南市","city_kana":"コウナンシ","town":"五明町福森","town_kana":"ゴミョウチョウフクモリ","prefecture_code":23},"8406":{"zip_code":"4838406","prefecture":"愛知県","prefecture_kana":"アイチケン","city":"江南市","city_kana":"コウナンシ","town":"小脇町小脇","town_kana":"コワキチョウコワキ","prefecture_code":23},"8055":{"zip_code":"4838055","prefecture":"愛知県","prefecture_kana":"アイチケン","city":"江南市","city_kana":"コウナンシ","town":"山王町","town_kana":"サンノウチョウ","prefecture_code":23},"8401":{"zip_code":"4838401","prefecture":"愛知県","prefecture_kana":"アイチケン","city":"江南市","city_kana":"コウナンシ","town":"慈光堂町北","town_kana":"ジコウドウチョウキタ","prefecture_code":23},"8402":{"zip_code":"4838402","prefecture":"愛知県","prefecture_kana":"アイチケン","city":"江南市","city_kana":"コウナンシ","town":"慈光堂町南","town_kana":"ジコウドウチョウミナミ","prefecture_code":23},"8263":{"zip_code":"4838263","prefecture":"愛知県","prefecture_kana":"アイチケン","city":"江南市","city_kana":"コウナンシ","town":"島宮町桐野","town_kana":"シマミヤチョウキリノ","prefecture_code":23},"8267":{"zip_code":"4838267","prefecture":"愛知県","prefecture_kana":"アイチケン","city":"江南市","city_kana":"コウナンシ","town":"島宮町郷内","town_kana":"シマミヤチョウゴウナイ","prefecture_code":23},"8264":{"zip_code":"4838264","prefecture":"愛知県","prefecture_kana":"アイチケン","city":"江南市","city_kana":"コウナンシ","town":"島宮町城","town_kana":"シマミヤチョウシロ","prefecture_code":23},"8269":{"zip_code":"4838269","prefecture":"愛知県","prefecture_kana":"アイチケン","city":"江南市","city_kana":"コウナンシ","town":"島宮町巡見","town_kana":"シマミヤチョウジュンケン","prefecture_code":23},"8266":{"zip_code":"4838266","prefecture":"愛知県","prefecture_kana":"アイチケン","city":"江南市","city_kana":"コウナンシ","town":"島宮町西之宮","town_kana":"シマミヤチョウニシノミヤ","prefecture_code":23},"8268":{"zip_code":"4838268","prefecture":"愛知県","prefecture_kana":"アイチケン","city":"江南市","city_kana":"コウナンシ","town":"島宮町水堀","town_kana":"シマミヤチョウミズホリ","prefecture_code":23},"8262":{"zip_code":"4838262","prefecture":"愛知県","prefecture_kana":"アイチケン","city":"江南市","city_kana":"コウナンシ","town":"島宮町吉原","town_kana":"シマミヤチョウヨシハラ","prefecture_code":23},"8265":{"zip_code":"4838265","prefecture":"愛知県","prefecture_kana":"アイチケン","city":"江南市","city_kana":"コウナンシ","town":"島宮町四日市場","town_kana":"シマミヤチョウヨッカイチバ","prefecture_code":23},"8123":{"zip_code":"4838123","prefecture":"愛知県","prefecture_kana":"アイチケン","city":"江南市","city_kana":"コウナンシ","town":"曽本町幼川添","town_kana":"ソモトチョウオサナガワゾエ","prefecture_code":23},"8121":{"zip_code":"4838121","prefecture":"愛知県","prefecture_kana":"アイチケン","city":"江南市","city_kana":"コウナンシ","town":"曽本町二子","town_kana":"ソモトチョウフタゴ","prefecture_code":23},"8122":{"zip_code":"4838122","prefecture":"愛知県","prefecture_kana":"アイチケン","city":"江南市","city_kana":"コウナンシ","town":"曽本町二子前","town_kana":"ソモトチョウフタゴマエ","prefecture_code":23},"8065":{"zip_code":"4838065","prefecture":"愛知県","prefecture_kana":"アイチケン","city":"江南市","city_kana":"コウナンシ","town":"高屋町旭","town_kana":"タカヤチョウアサヒ","prefecture_code":23},"8088":{"zip_code":"4838088","prefecture":"愛知県","prefecture_kana":"アイチケン","city":"江南市","city_kana":"コウナンシ","town":"高屋町後山","town_kana":"タカヤチョウウシロヤマ","prefecture_code":23},"8086":{"zip_code":"4838086","prefecture":"愛知県","prefecture_kana":"アイチケン","city":"江南市","city_kana":"コウナンシ","town":"高屋町大松原","town_kana":"タカヤチョウオオマツバラ","prefecture_code":23},"8084":{"zip_code":"4838084","prefecture":"愛知県","prefecture_kana":"アイチケン","city":"江南市","city_kana":"コウナンシ","town":"高屋町御日塚","town_kana":"タカヤチョウオヒヅカ","prefecture_code":23},"8081":{"zip_code":"4838081","prefecture":"愛知県","prefecture_kana":"アイチケン","city":"江南市","city_kana":"コウナンシ","town":"高屋町上本郷","town_kana":"タカヤチョウカミホンゴウ","prefecture_code":23},"8087":{"zip_code":"4838087","prefecture":"愛知県","prefecture_kana":"アイチケン","city":"江南市","city_kana":"コウナンシ","town":"高屋町北上","town_kana":"タカヤチョウキタガミ","prefecture_code":23},"8062":{"zip_code":"4838062","prefecture":"愛知県","prefecture_kana":"アイチケン","city":"江南市","city_kana":"コウナンシ","town":"高屋町神戸","town_kana":"タカヤチョウゴウド","prefecture_code":23},"8061":{"zip_code":"4838061","prefecture":"愛知県","prefecture_kana":"アイチケン","city":"江南市","city_kana":"コウナンシ","town":"高屋町清水","town_kana":"タカヤチョウシミズ","prefecture_code":23},"8064":{"zip_code":"4838064","prefecture":"愛知県","prefecture_kana":"アイチケン","city":"江南市","city_kana":"コウナンシ","town":"高屋町十六田","town_kana":"タカヤチョウジュウロクデン","prefecture_code":23},"8047":{"zip_code":"4838047","prefecture":"愛知県","prefecture_kana":"アイチケン","city":"江南市","city_kana":"コウナンシ","town":"高屋町大師","town_kana":"タカヤチョウダイシ","prefecture_code":23},"8035":{"zip_code":"4838035","prefecture":"愛知県","prefecture_kana":"アイチケン","city":"江南市","city_kana":"コウナンシ","town":"高屋町大門","town_kana":"タカヤチョウダイモン","prefecture_code":23},"8045":{"zip_code":"4838045","prefecture":"愛知県","prefecture_kana":"アイチケン","city":"江南市","city_kana":"コウナンシ","town":"高屋町遠場","town_kana":"タカヤチョウトウバ","prefecture_code":23},"8083":{"zip_code":"4838083","prefecture":"愛知県","prefecture_kana":"アイチケン","city":"江南市","city_kana":"コウナンシ","town":"高屋町中屋舗","town_kana":"タカヤチョウナカヤシキ","prefecture_code":23},"8085":{"zip_code":"4838085","prefecture":"愛知県","prefecture_kana":"アイチケン","city":"江南市","city_kana":"コウナンシ","town":"高屋町西里","town_kana":"タカヤチョウニシサト","prefecture_code":23},"8066":{"zip_code":"4838066","prefecture":"愛知県","prefecture_kana":"アイチケン","city":"江南市","city_kana":"コウナンシ","town":"高屋町西町","town_kana":"タカヤチョウニシマチ","prefecture_code":23},"8063":{"zip_code":"4838063","prefecture":"愛知県","prefecture_kana":"アイチケン","city":"江南市","city_kana":"コウナンシ","town":"高屋町八幡","town_kana":"タカヤチョウハチマン","prefecture_code":23},"8046":{"zip_code":"4838046","prefecture":"愛知県","prefecture_kana":"アイチケン","city":"江南市","city_kana":"コウナンシ","town":"高屋町花戸","town_kana":"タカヤチョウハナド","prefecture_code":23},"8082":{"zip_code":"4838082","prefecture":"愛知県","prefecture_kana":"アイチケン","city":"江南市","city_kana":"コウナンシ","town":"高屋町本郷","town_kana":"タカヤチョウホンゴウ","prefecture_code":23},"8138":{"zip_code":"4838138","prefecture":"愛知県","prefecture_kana":"アイチケン","city":"江南市","city_kana":"コウナンシ","town":"田代町郷中","town_kana":"タシロチョウゴウナカ","prefecture_code":23},"8133":{"zip_code":"4838133","prefecture":"愛知県","prefecture_kana":"アイチケン","city":"江南市","city_kana":"コウナンシ","town":"田代町西ノ丸","town_kana":"タシロチョウニシノマル","prefecture_code":23},"8132":{"zip_code":"4838132","prefecture":"愛知県","prefecture_kana":"アイチケン","city":"江南市","city_kana":"コウナンシ","town":"田代町南出","town_kana":"タシロチョウミナミデ","prefecture_code":23},"8114":{"zip_code":"4838114","prefecture":"愛知県","prefecture_kana":"アイチケン","city":"江南市","city_kana":"コウナンシ","town":"天王町駒野","town_kana":"テンノウチョウコマノ","prefecture_code":23},"8113":{"zip_code":"4838113","prefecture":"愛知県","prefecture_kana":"アイチケン","city":"江南市","city_kana":"コウナンシ","town":"天王町五反林","town_kana":"テンノウチョウゴタンバヤシ","prefecture_code":23},"8256":{"zip_code":"4838256","prefecture":"愛知県","prefecture_kana":"アイチケン","city":"江南市","city_kana":"コウナンシ","town":"中奈良町","town_kana":"ナカナラチョウ","prefecture_code":23},"8001":{"zip_code":"4838001","prefecture":"愛知県","prefecture_kana":"アイチケン","city":"江南市","city_kana":"コウナンシ","town":"中般若町東","town_kana":"ナカハンニャチョウヒガシ","prefecture_code":23},"8002":{"zip_code":"4838002","prefecture":"愛知県","prefecture_kana":"アイチケン","city":"江南市","city_kana":"コウナンシ","town":"中般若町西","town_kana":"ナカハンニャチョウニシ","prefecture_code":23},"8203":{"zip_code":"4838203","prefecture":"愛知県","prefecture_kana":"アイチケン","city":"江南市","city_kana":"コウナンシ","town":"野白町西千丸","town_kana":"ノバクチョウニシセンマル","prefecture_code":23},"8202":{"zip_code":"4838202","prefecture":"愛知県","prefecture_kana":"アイチケン","city":"江南市","city_kana":"コウナンシ","town":"野白町野白","town_kana":"ノバクチョウノバク","prefecture_code":23},"8204":{"zip_code":"4838204","prefecture":"愛知県","prefecture_kana":"アイチケン","city":"江南市","city_kana":"コウナンシ","town":"野白町東千丸","town_kana":"ノバクチョウヒガシセンマル","prefecture_code":23},"8201":{"zip_code":"4838201","prefecture":"愛知県","prefecture_kana":"アイチケン","city":"江南市","city_kana":"コウナンシ","town":"野白町葭場","town_kana":"ノバクチョウヨシバ","prefecture_code":23},"8018":{"zip_code":"4838018","prefecture":"愛知県","prefecture_kana":"アイチケン","city":"江南市","city_kana":"コウナンシ","town":"般若町中山","town_kana":"ハンニャチョウナカヤマ","prefecture_code":23},"8017":{"zip_code":"4838017","prefecture":"愛知県","prefecture_kana":"アイチケン","city":"江南市","city_kana":"コウナンシ","town":"般若町前山","town_kana":"ハンニャチョウマエヤマ","prefecture_code":23},"8012":{"zip_code":"4838012","prefecture":"愛知県","prefecture_kana":"アイチケン","city":"江南市","city_kana":"コウナンシ","town":"般若町東山","town_kana":"ハンニャチョウヒガシヤマ","prefecture_code":23},"8013":{"zip_code":"4838013","prefecture":"愛知県","prefecture_kana":"アイチケン","city":"江南市","city_kana":"コウナンシ","town":"般若町南山","town_kana":"ハンニャチョウミナミヤマ","prefecture_code":23},"8011":{"zip_code":"4838011","prefecture":"愛知県","prefecture_kana":"アイチケン","city":"江南市","city_kana":"コウナンシ","town":"般若町宮山","town_kana":"ハンニャチョウミヤヤマ","prefecture_code":23},"8433":{"zip_code":"4838433","prefecture":"愛知県","prefecture_kana":"アイチケン","city":"江南市","city_kana":"コウナンシ","town":"東野町岩見","town_kana":"ヒガシノチョウイワミ","prefecture_code":23},"8415":{"zip_code":"4838415","prefecture":"愛知県","prefecture_kana":"アイチケン","city":"江南市","city_kana":"コウナンシ","town":"東野町鐘鋳山","town_kana":"ヒガシノチョウカネイリヤマ","prefecture_code":23},"8422":{"zip_code":"4838422","prefecture":"愛知県","prefecture_kana":"アイチケン","city":"江南市","city_kana":"コウナンシ","town":"東野町神上","town_kana":"ヒガシノチョウカミアゲ","prefecture_code":23},"8417":{"zip_code":"4838417","prefecture":"愛知県","prefecture_kana":"アイチケン","city":"江南市","city_kana":"コウナンシ","town":"東野町烏森","town_kana":"ヒガシノチョウカラスモリ","prefecture_code":23},"8426":{"zip_code":"4838426","prefecture":"愛知県","prefecture_kana":"アイチケン","city":"江南市","city_kana":"コウナンシ","town":"東野町河原","town_kana":"ヒガシノチョウカワラ","prefecture_code":23},"8425":{"zip_code":"4838425","prefecture":"愛知県","prefecture_kana":"アイチケン","city":"江南市","city_kana":"コウナンシ","town":"東野町河戸","town_kana":"ヒガシノチョウコウド","prefecture_code":23},"8418":{"zip_code":"4838418","prefecture":"愛知県","prefecture_kana":"アイチケン","city":"江南市","city_kana":"コウナンシ","town":"東野町米野","town_kana":"ヒガシノチョウコメノ","prefecture_code":23},"8421":{"zip_code":"4838421","prefecture":"愛知県","prefecture_kana":"アイチケン","city":"江南市","city_kana":"コウナンシ","town":"東野町郷前","town_kana":"ヒガシノチョウゴウマエ","prefecture_code":23},"8423":{"zip_code":"4838423","prefecture":"愛知県","prefecture_kana":"アイチケン","city":"江南市","city_kana":"コウナンシ","town":"東野町郷前西","town_kana":"ヒガシノチョウゴウマエニシ","prefecture_code":23},"8427":{"zip_code":"4838427","prefecture":"愛知県","prefecture_kana":"アイチケン","city":"江南市","city_kana":"コウナンシ","town":"東野町新田","town_kana":"ヒガシノチョウシンデン","prefecture_code":23},"8428":{"zip_code":"4838428","prefecture":"愛知県","prefecture_kana":"アイチケン","city":"江南市","city_kana":"コウナンシ","town":"東野町新田東","town_kana":"ヒガシノチョウシンデンヒガシ","prefecture_code":23},"8431":{"zip_code":"4838431","prefecture":"愛知県","prefecture_kana":"アイチケン","city":"江南市","city_kana":"コウナンシ","town":"東野町神田","town_kana":"ヒガシノチョウジンデン","prefecture_code":23},"8416":{"zip_code":"4838416","prefecture":"愛知県","prefecture_kana":"アイチケン","city":"江南市","city_kana":"コウナンシ","town":"東野町長幡寺","town_kana":"ヒガシノチョウチョウバンジ","prefecture_code":23},"8419":{"zip_code":"4838419","prefecture":"愛知県","prefecture_kana":"アイチケン","city":"江南市","city_kana":"コウナンシ","town":"東野町七社宮","town_kana":"ヒガシノチョウナナシャグウ","prefecture_code":23},"8429":{"zip_code":"4838429","prefecture":"愛知県","prefecture_kana":"アイチケン","city":"江南市","city_kana":"コウナンシ","town":"東野町西神田","town_kana":"ヒガシノチョウニシジンデン","prefecture_code":23},"8424":{"zip_code":"4838424","prefecture":"愛知県","prefecture_kana":"アイチケン","city":"江南市","city_kana":"コウナンシ","town":"東野町西出","town_kana":"ヒガシノチョウニシデ","prefecture_code":23},"8432":{"zip_code":"4838432","prefecture":"愛知県","prefecture_kana":"アイチケン","city":"江南市","city_kana":"コウナンシ","town":"東野町東神田","town_kana":"ヒガシノチョウヒガシジンデン","prefecture_code":23},"8333":{"zip_code":"4838333","prefecture":"愛知県","prefecture_kana":"アイチケン","city":"江南市","city_kana":"コウナンシ","town":"飛高町泉","town_kana":"ヒダカチョウイズミ","prefecture_code":23},"8332":{"zip_code":"4838332","prefecture":"愛知県","prefecture_kana":"アイチケン","city":"江南市","city_kana":"コウナンシ","town":"飛高町門野","town_kana":"ヒダカチョウカドノ","prefecture_code":23},"8067":{"zip_code":"4838067","prefecture":"愛知県","prefecture_kana":"アイチケン","city":"江南市","city_kana":"コウナンシ","town":"飛高町中町","town_kana":"ヒダカチョウナカマチ","prefecture_code":23},"8339":{"zip_code":"4838339","prefecture":"愛知県","prefecture_kana":"アイチケン","city":"江南市","city_kana":"コウナンシ","town":"飛高町","town_kana":"ヒダカチョウ","prefecture_code":23},"8068":{"zip_code":"4838068","prefecture":"愛知県","prefecture_kana":"アイチケン","city":"江南市","city_kana":"コウナンシ","town":"飛高町本町","town_kana":"ヒダカチョウホンマチ","prefecture_code":23},"8069":{"zip_code":"4838069","prefecture":"愛知県","prefecture_kana":"アイチケン","city":"江南市","city_kana":"コウナンシ","town":"飛高町宮町","town_kana":"ヒダカチョウミヤマチ","prefecture_code":23},"8337":{"zip_code":"4838337","prefecture":"愛知県","prefecture_kana":"アイチケン","city":"江南市","city_kana":"コウナンシ","town":"藤ケ丘","town_kana":"フジガオカ","prefecture_code":23},"8142":{"zip_code":"4838142","prefecture":"愛知県","prefecture_kana":"アイチケン","city":"江南市","city_kana":"コウナンシ","town":"布袋下山町東","town_kana":"ホテイシモヤマチョウヒガシ","prefecture_code":23},"8146":{"zip_code":"4838146","prefecture":"愛知県","prefecture_kana":"アイチケン","city":"江南市","city_kana":"コウナンシ","town":"布袋下山町西","town_kana":"ホテイシモヤマチョウニシ","prefecture_code":23},"8148":{"zip_code":"4838148","prefecture":"愛知県","prefecture_kana":"アイチケン","city":"江南市","city_kana":"コウナンシ","town":"布袋下山町南","town_kana":"ホテイシモヤマチョウミナミ","prefecture_code":23},"8147":{"zip_code":"4838147","prefecture":"愛知県","prefecture_kana":"アイチケン","city":"江南市","city_kana":"コウナンシ","town":"布袋下山町北","town_kana":"ホテイシモヤマチョウキタ","prefecture_code":23},"8235":{"zip_code":"4838235","prefecture":"愛知県","prefecture_kana":"アイチケン","city":"江南市","city_kana":"コウナンシ","town":"布袋町中","town_kana":"ホテイチョウナカ","prefecture_code":23},"8141":{"zip_code":"4838141","prefecture":"愛知県","prefecture_kana":"アイチケン","city":"江南市","city_kana":"コウナンシ","town":"布袋町西布","town_kana":"ホテイチョウニシホ","prefecture_code":23},"8158":{"zip_code":"4838158","prefecture":"愛知県","prefecture_kana":"アイチケン","city":"江南市","city_kana":"コウナンシ","town":"布袋町東","town_kana":"ホテイチョウヒガシ","prefecture_code":23},"8237":{"zip_code":"4838237","prefecture":"愛知県","prefecture_kana":"アイチケン","city":"江南市","city_kana":"コウナンシ","town":"布袋町西","town_kana":"ホテイチョウニシ","prefecture_code":23},"8236":{"zip_code":"4838236","prefecture":"愛知県","prefecture_kana":"アイチケン","city":"江南市","city_kana":"コウナンシ","town":"布袋町南","town_kana":"ホテイチョウミナミ","prefecture_code":23},"8234":{"zip_code":"4838234","prefecture":"愛知県","prefecture_kana":"アイチケン","city":"江南市","city_kana":"コウナンシ","town":"布袋町北","town_kana":"ホテイチョウキタ","prefecture_code":23},"8057":{"zip_code":"4838057","prefecture":"愛知県","prefecture_kana":"アイチケン","city":"江南市","city_kana":"コウナンシ","town":"前野町新田","town_kana":"マエノチョウシンデン","prefecture_code":23},"8051":{"zip_code":"4838051","prefecture":"愛知県","prefecture_kana":"アイチケン","city":"江南市","city_kana":"コウナンシ","town":"前野町新田北","town_kana":"マエノチョウシンデンキタ","prefecture_code":23},"8053":{"zip_code":"4838053","prefecture":"愛知県","prefecture_kana":"アイチケン","city":"江南市","city_kana":"コウナンシ","town":"前野町高島","town_kana":"マエノチョウタカシマ","prefecture_code":23},"8052":{"zip_code":"4838052","prefecture":"愛知県","prefecture_kana":"アイチケン","city":"江南市","city_kana":"コウナンシ","town":"前野町東","town_kana":"マエノチョウヒガシ","prefecture_code":23},"8058":{"zip_code":"4838058","prefecture":"愛知県","prefecture_kana":"アイチケン","city":"江南市","city_kana":"コウナンシ","town":"前野町西","town_kana":"マエノチョウニシ","prefecture_code":23},"8054":{"zip_code":"4838054","prefecture":"愛知県","prefecture_kana":"アイチケン","city":"江南市","city_kana":"コウナンシ","town":"前野町南","town_kana":"マエノチョウミナミ","prefecture_code":23},"8348":{"zip_code":"4838348","prefecture":"愛知県","prefecture_kana":"アイチケン","city":"江南市","city_kana":"コウナンシ","town":"前飛保町河原","town_kana":"マエヒボチョウカワハラ","prefecture_code":23},"8341":{"zip_code":"4838341","prefecture":"愛知県","prefecture_kana":"アイチケン","city":"江南市","city_kana":"コウナンシ","town":"前飛保町栄","town_kana":"マエヒボチョウサカエ","prefecture_code":23},"8335":{"zip_code":"4838335","prefecture":"愛知県","prefecture_kana":"アイチケン","city":"江南市","city_kana":"コウナンシ","town":"前飛保町寺前","town_kana":"マエヒボチョウテラマエ","prefecture_code":23},"8336":{"zip_code":"4838336","prefecture":"愛知県","prefecture_kana":"アイチケン","city":"江南市","city_kana":"コウナンシ","town":"前飛保町寺町","town_kana":"マエヒボチョウテラマチ","prefecture_code":23},"8349":{"zip_code":"4838349","prefecture":"愛知県","prefecture_kana":"アイチケン","city":"江南市","city_kana":"コウナンシ","town":"前飛保町西町","town_kana":"マエヒボチョウニシマチ","prefecture_code":23},"8338":{"zip_code":"4838338","prefecture":"愛知県","prefecture_kana":"アイチケン","city":"江南市","city_kana":"コウナンシ","town":"前飛保町藤町","town_kana":"マエヒボチョウフジマチ","prefecture_code":23},"8334":{"zip_code":"4838334","prefecture":"愛知県","prefecture_kana":"アイチケン","city":"江南市","city_kana":"コウナンシ","town":"前飛保町緑ケ丘","town_kana":"マエヒボチョウミドリガオカ","prefecture_code":23},"8342":{"zip_code":"4838342","prefecture":"愛知県","prefecture_kana":"アイチケン","city":"江南市","city_kana":"コウナンシ","town":"松竹町上野","town_kana":"マツタケチョウカミノ","prefecture_code":23},"8351":{"zip_code":"4838351","prefecture":"愛知県","prefecture_kana":"アイチケン","city":"江南市","city_kana":"コウナンシ","town":"松竹町切野","town_kana":"マツタケチョウキリノ","prefecture_code":23},"8343":{"zip_code":"4838343","prefecture":"愛知県","prefecture_kana":"アイチケン","city":"江南市","city_kana":"コウナンシ","town":"松竹町米野","town_kana":"マツタケチョウコメノ","prefecture_code":23},"8358":{"zip_code":"4838358","prefecture":"愛知県","prefecture_kana":"アイチケン","city":"江南市","city_kana":"コウナンシ","town":"松竹町郷浦","town_kana":"マツタケチョウゴウウラ","prefecture_code":23},"8352":{"zip_code":"4838352","prefecture":"愛知県","prefecture_kana":"アイチケン","city":"江南市","city_kana":"コウナンシ","town":"松竹町高山","town_kana":"マツタケチョウタカヤマ","prefecture_code":23},"8356":{"zip_code":"4838356","prefecture":"愛知県","prefecture_kana":"アイチケン","city":"江南市","city_kana":"コウナンシ","town":"松竹町西松竹","town_kana":"マツタケチョウニシマツタケ","prefecture_code":23},"8354":{"zip_code":"4838354","prefecture":"愛知県","prefecture_kana":"アイチケン","city":"江南市","city_kana":"コウナンシ","town":"松竹町八幡","town_kana":"マツタケチョウハチマン","prefecture_code":23},"8359":{"zip_code":"4838359","prefecture":"愛知県","prefecture_kana":"アイチケン","city":"江南市","city_kana":"コウナンシ","town":"松竹町東瀬古","town_kana":"マツタケチョウヒガシセコ","prefecture_code":23},"8355":{"zip_code":"4838355","prefecture":"愛知県","prefecture_kana":"アイチケン","city":"江南市","city_kana":"コウナンシ","town":"松竹町西瀬古","town_kana":"マツタケチョウニシセコ","prefecture_code":23},"8357":{"zip_code":"4838357","prefecture":"愛知県","prefecture_kana":"アイチケン","city":"江南市","city_kana":"コウナンシ","town":"松竹町向島","town_kana":"マツタケチョウムカイジマ","prefecture_code":23},"8353":{"zip_code":"4838353","prefecture":"愛知県","prefecture_kana":"アイチケン","city":"江南市","city_kana":"コウナンシ","town":"松竹町元屋敷","town_kana":"マツタケチョウモトヤシキ","prefecture_code":23},"8155":{"zip_code":"4838155","prefecture":"愛知県","prefecture_kana":"アイチケン","city":"江南市","city_kana":"コウナンシ","town":"南山町中","town_kana":"ミナミヤマチョウナカ","prefecture_code":23},"8154":{"zip_code":"4838154","prefecture":"愛知県","prefecture_kana":"アイチケン","city":"江南市","city_kana":"コウナンシ","town":"南山町東","town_kana":"ミナミヤマチョウヒガシ","prefecture_code":23},"8156":{"zip_code":"4838156","prefecture":"愛知県","prefecture_kana":"アイチケン","city":"江南市","city_kana":"コウナンシ","town":"南山町西","town_kana":"ミナミヤマチョウニシ","prefecture_code":23},"8044":{"zip_code":"4838044","prefecture":"愛知県","prefecture_kana":"アイチケン","city":"江南市","city_kana":"コウナンシ","town":"宮後町","town_kana":"ミヤウシロチョウ","prefecture_code":23},"8056":{"zip_code":"4838056","prefecture":"愛知県","prefecture_kana":"アイチケン","city":"江南市","city_kana":"コウナンシ","town":"宮後町清水","town_kana":"ミヤウシロチョウシミズ","prefecture_code":23},"8303":{"zip_code":"4838303","prefecture":"愛知県","prefecture_kana":"アイチケン","city":"江南市","city_kana":"コウナンシ","town":"宮田神明町旭","town_kana":"ミヤタシンメイチョウアサヒ","prefecture_code":23},"8308":{"zip_code":"4838308","prefecture":"愛知県","prefecture_kana":"アイチケン","city":"江南市","city_kana":"コウナンシ","town":"宮田神明町春日","town_kana":"ミヤタシンメイチョウカスガ","prefecture_code":23},"8304":{"zip_code":"4838304","prefecture":"愛知県","prefecture_kana":"アイチケン","city":"江南市","city_kana":"コウナンシ","town":"宮田神明町栄","town_kana":"ミヤタシンメイチョウサカエ","prefecture_code":23},"8302":{"zip_code":"4838302","prefecture":"愛知県","prefecture_kana":"アイチケン","city":"江南市","city_kana":"コウナンシ","town":"宮田神明町天王","town_kana":"ミヤタシンメイチョウテンノウ","prefecture_code":23},"8301":{"zip_code":"4838301","prefecture":"愛知県","prefecture_kana":"アイチケン","city":"江南市","city_kana":"コウナンシ","town":"宮田神明町緑","town_kana":"ミヤタシンメイチョウミドリ","prefecture_code":23},"8375":{"zip_code":"4838375","prefecture":"愛知県","prefecture_kana":"アイチケン","city":"江南市","city_kana":"コウナンシ","town":"宮田町泉","town_kana":"ミヤタチョウイズミ","prefecture_code":23},"8371":{"zip_code":"4838371","prefecture":"愛知県","prefecture_kana":"アイチケン","city":"江南市","city_kana":"コウナンシ","town":"宮田町河沼","town_kana":"ミヤタチョウカワヌマ","prefecture_code":23},"8374":{"zip_code":"4838374","prefecture":"愛知県","prefecture_kana":"アイチケン","city":"江南市","city_kana":"コウナンシ","town":"宮田町久保見","town_kana":"ミヤタチョウクボミ","prefecture_code":23},"8373":{"zip_code":"4838373","prefecture":"愛知県","prefecture_kana":"アイチケン","city":"江南市","city_kana":"コウナンシ","town":"宮田町菖蒲池","town_kana":"ミヤタチョウショウブイケ","prefecture_code":23},"8307":{"zip_code":"4838307","prefecture":"愛知県","prefecture_kana":"アイチケン","city":"江南市","city_kana":"コウナンシ","town":"宮田町新田","town_kana":"ミヤタチョウシンデン","prefecture_code":23},"8306":{"zip_code":"4838306","prefecture":"愛知県","prefecture_kana":"アイチケン","city":"江南市","city_kana":"コウナンシ","town":"宮田町中島","town_kana":"ミヤタチョウナカジマ","prefecture_code":23},"8305":{"zip_code":"4838305","prefecture":"愛知県","prefecture_kana":"アイチケン","city":"江南市","city_kana":"コウナンシ","town":"宮田町生原","town_kana":"ミヤタチョウハイバラ","prefecture_code":23},"8376":{"zip_code":"4838376","prefecture":"愛知県","prefecture_kana":"アイチケン","city":"江南市","city_kana":"コウナンシ","town":"宮田町藤ノ森","town_kana":"ミヤタチョウフジノモリ","prefecture_code":23},"8361":{"zip_code":"4838361","prefecture":"愛知県","prefecture_kana":"アイチケン","city":"江南市","city_kana":"コウナンシ","town":"宮田町平和","town_kana":"ミヤタチョウヘイワ","prefecture_code":23},"8379":{"zip_code":"4838379","prefecture":"愛知県","prefecture_kana":"アイチケン","city":"江南市","city_kana":"コウナンシ","town":"宮田町本郷","town_kana":"ミヤタチョウホンゴウ","prefecture_code":23},"8377":{"zip_code":"4838377","prefecture":"愛知県","prefecture_kana":"アイチケン","city":"江南市","city_kana":"コウナンシ","town":"宮田町本田島","town_kana":"ミヤタチョウホンダジマ","prefecture_code":23},"8367":{"zip_code":"4838367","prefecture":"愛知県","prefecture_kana":"アイチケン","city":"江南市","city_kana":"コウナンシ","town":"宮田町南野","town_kana":"ミヤタチョウミナミノ","prefecture_code":23},"8368":{"zip_code":"4838368","prefecture":"愛知県","prefecture_kana":"アイチケン","city":"江南市","city_kana":"コウナンシ","town":"宮田町南野東","town_kana":"ミヤタチョウミナミノヒガシ","prefecture_code":23},"8372":{"zip_code":"4838372","prefecture":"愛知県","prefecture_kana":"アイチケン","city":"江南市","city_kana":"コウナンシ","town":"宮田町宮東","town_kana":"ミヤタチョウミヤヒガシ","prefecture_code":23},"8378":{"zip_code":"4838378","prefecture":"愛知県","prefecture_kana":"アイチケン","city":"江南市","city_kana":"コウナンシ","town":"宮田町四ツ谷","town_kana":"ミヤタチョウヨツヤ","prefecture_code":23},"8076":{"zip_code":"4838076","prefecture":"愛知県","prefecture_kana":"アイチケン","city":"江南市","city_kana":"コウナンシ","town":"村久野町上原","town_kana":"ムラクノチョウウエハラ","prefecture_code":23},"8312":{"zip_code":"4838312","prefecture":"愛知県","prefecture_kana":"アイチケン","city":"江南市","city_kana":"コウナンシ","town":"村久野町金森","town_kana":"ムラクノチョウカナモリ","prefecture_code":23},"8316":{"zip_code":"4838316","prefecture":"愛知県","prefecture_kana":"アイチケン","city":"江南市","city_kana":"コウナンシ","town":"村久野町河戸","town_kana":"ムラクノチョウカワド","prefecture_code":23},"8311":{"zip_code":"4838311","prefecture":"愛知県","prefecture_kana":"アイチケン","city":"江南市","city_kana":"コウナンシ","town":"村久野町九郷","town_kana":"ムラクノチョウクゴウ","prefecture_code":23},"8328":{"zip_code":"4838328","prefecture":"愛知県","prefecture_kana":"アイチケン","city":"江南市","city_kana":"コウナンシ","town":"村久野町鈴道","town_kana":"ムラクノチョウスズミチ","prefecture_code":23},"8321":{"zip_code":"4838321","prefecture":"愛知県","prefecture_kana":"アイチケン","city":"江南市","city_kana":"コウナンシ","town":"村久野町瀬頭","town_kana":"ムラクノチョウセガシラ","prefecture_code":23},"8315":{"zip_code":"4838315","prefecture":"愛知県","prefecture_kana":"アイチケン","city":"江南市","city_kana":"コウナンシ","town":"村久野町大門","town_kana":"ムラクノチョウダイモン","prefecture_code":23},"8314":{"zip_code":"4838314","prefecture":"愛知県","prefecture_kana":"アイチケン","city":"江南市","city_kana":"コウナンシ","town":"村久野町寺町","town_kana":"ムラクノチョウテラマチ","prefecture_code":23},"8319":{"zip_code":"4838319","prefecture":"愛知県","prefecture_kana":"アイチケン","city":"江南市","city_kana":"コウナンシ","town":"村久野町寺東","town_kana":"ムラクノチョウテラヒガシ","prefecture_code":23},"8322":{"zip_code":"4838322","prefecture":"愛知県","prefecture_kana":"アイチケン","city":"江南市","city_kana":"コウナンシ","town":"村久野町鳥附","town_kana":"ムラクノチョウトリツキ","prefecture_code":23},"8313":{"zip_code":"4838313","prefecture":"愛知県","prefecture_kana":"アイチケン","city":"江南市","city_kana":"コウナンシ","town":"村久野町中郷","town_kana":"ムラクノチョウナカゴウ","prefecture_code":23},"8326":{"zip_code":"4838326","prefecture":"愛知県","prefecture_kana":"アイチケン","city":"江南市","city_kana":"コウナンシ","town":"村久野町仲原","town_kana":"ムラクノチョウナカハラ","prefecture_code":23},"8075":{"zip_code":"4838075","prefecture":"愛知県","prefecture_kana":"アイチケン","city":"江南市","city_kana":"コウナンシ","town":"村久野町平河","town_kana":"ムラクノチョウヒラカワ","prefecture_code":23},"8327":{"zip_code":"4838327","prefecture":"愛知県","prefecture_kana":"アイチケン","city":"江南市","city_kana":"コウナンシ","town":"村久野町平野","town_kana":"ムラクノチョウヒラノ","prefecture_code":23},"8074":{"zip_code":"4838074","prefecture":"愛知県","prefecture_kana":"アイチケン","city":"江南市","city_kana":"コウナンシ","town":"村久野町平松","town_kana":"ムラクノチョウヒラマツ","prefecture_code":23},"8317":{"zip_code":"4838317","prefecture":"愛知県","prefecture_kana":"アイチケン","city":"江南市","city_kana":"コウナンシ","town":"村久野町藤里","town_kana":"ムラクノチョウフジサト","prefecture_code":23},"8325":{"zip_code":"4838325","prefecture":"愛知県","prefecture_kana":"アイチケン","city":"江南市","city_kana":"コウナンシ","town":"村久野町冨士塚","town_kana":"ムラクノチョウフジヅカ","prefecture_code":23},"8324":{"zip_code":"4838324","prefecture":"愛知県","prefecture_kana":"アイチケン","city":"江南市","city_kana":"コウナンシ","town":"村久野町南大門","town_kana":"ムラクノチョウミナミダイモン","prefecture_code":23},"8318":{"zip_code":"4838318","prefecture":"愛知県","prefecture_kana":"アイチケン","city":"江南市","city_kana":"コウナンシ","town":"村久野町宮出","town_kana":"ムラクノチョウミヤデ","prefecture_code":23},"8323":{"zip_code":"4838323","prefecture":"愛知県","prefecture_kana":"アイチケン","city":"江南市","city_kana":"コウナンシ","town":"村久野町門弟山","town_kana":"ムラクノチョウモンテイヤマ","prefecture_code":23},"8112":{"zip_code":"4838112","prefecture":"愛知県","prefecture_kana":"アイチケン","city":"江南市","city_kana":"コウナンシ","town":"安良町池尻","town_kana":"ヤスラチョウイケジリ","prefecture_code":23},"8117":{"zip_code":"4838117","prefecture":"愛知県","prefecture_kana":"アイチケン","city":"江南市","city_kana":"コウナンシ","town":"安良町上郷","town_kana":"ヤスラチョウカミゴウ","prefecture_code":23},"8118":{"zip_code":"4838118","prefecture":"愛知県","prefecture_kana":"アイチケン","city":"江南市","city_kana":"コウナンシ","town":"安良町郷中","town_kana":"ヤスラチョウゴウナカ","prefecture_code":23},"8111":{"zip_code":"4838111","prefecture":"愛知県","prefecture_kana":"アイチケン","city":"江南市","city_kana":"コウナンシ","town":"安良町地蔵","town_kana":"ヤスラチョウジゾウ","prefecture_code":23},"8116":{"zip_code":"4838116","prefecture":"愛知県","prefecture_kana":"アイチケン","city":"江南市","city_kana":"コウナンシ","town":"安良町八王子","town_kana":"ヤスラチョウハチオウジ","prefecture_code":23},"8115":{"zip_code":"4838115","prefecture":"愛知県","prefecture_kana":"アイチケン","city":"江南市","city_kana":"コウナンシ","town":"安良町宮前","town_kana":"ヤスラチョウミヤマエ","prefecture_code":23},"8031":{"zip_code":"4838031","prefecture":"愛知県","prefecture_kana":"アイチケン","city":"江南市","city_kana":"コウナンシ","town":"山尻町朝日","town_kana":"ヤマジリチョウアサヒ","prefecture_code":23},"8032":{"zip_code":"4838032","prefecture":"愛知県","prefecture_kana":"アイチケン","city":"江南市","city_kana":"コウナンシ","town":"山尻町大桑","town_kana":"ヤマジリチョウオオクワ","prefecture_code":23},"8033":{"zip_code":"4838033","prefecture":"愛知県","prefecture_kana":"アイチケン","city":"江南市","city_kana":"コウナンシ","town":"山尻町川端","town_kana":"ヤマジリチョウカワバタ","prefecture_code":23},"8038":{"zip_code":"4838038","prefecture":"愛知県","prefecture_kana":"アイチケン","city":"江南市","city_kana":"コウナンシ","town":"山尻町本丸","town_kana":"ヤマジリチョウホンマル","prefecture_code":23},"8036":{"zip_code":"4838036","prefecture":"愛知県","prefecture_kana":"アイチケン","city":"江南市","city_kana":"コウナンシ","town":"山尻町本丸西","town_kana":"ヤマジリチョウホンマルニシ","prefecture_code":23},"8159":{"zip_code":"4838159","prefecture":"愛知県","prefecture_kana":"アイチケン","city":"江南市","city_kana":"コウナンシ","town":"寄木町秋葉","town_kana":"ヨリキチョウアキバ","prefecture_code":23},"8152":{"zip_code":"4838152","prefecture":"愛知県","prefecture_kana":"アイチケン","city":"江南市","city_kana":"コウナンシ","town":"寄木町稲木","town_kana":"ヨリキチョウイナキ","prefecture_code":23},"8184":{"zip_code":"4838184","prefecture":"愛知県","prefecture_kana":"アイチケン","city":"江南市","city_kana":"コウナンシ","town":"寄木町天道","town_kana":"ヨリキチョウテンドウ","prefecture_code":23},"8151":{"zip_code":"4838151","prefecture":"愛知県","prefecture_kana":"アイチケン","city":"江南市","city_kana":"コウナンシ","town":"寄木町白山","town_kana":"ヨリキチョウハクサン","prefecture_code":23},"8109":{"zip_code":"4838109","prefecture":"愛知県","prefecture_kana":"アイチケン","city":"江南市","city_kana":"コウナンシ","town":"力長町神出","town_kana":"リキナガチョウカミデ","prefecture_code":23},"8101":{"zip_code":"4838101","prefecture":"愛知県","prefecture_kana":"アイチケン","city":"江南市","city_kana":"コウナンシ","town":"力長町観音寺","town_kana":"リキナガチョウカンオンジ","prefecture_code":23},"8105":{"zip_code":"4838105","prefecture":"愛知県","prefecture_kana":"アイチケン","city":"江南市","city_kana":"コウナンシ","town":"力長町社宮司","town_kana":"リキナガチョウシャグウジ","prefecture_code":23},"8108":{"zip_code":"4838108","prefecture":"愛知県","prefecture_kana":"アイチケン","city":"江南市","city_kana":"コウナンシ","town":"力長町神明","town_kana":"リキナガチョウシンメイ","prefecture_code":23},"8104":{"zip_code":"4838104","prefecture":"愛知県","prefecture_kana":"アイチケン","city":"江南市","city_kana":"コウナンシ","town":"力長町大当寺","town_kana":"リキナガチョウダイトウジ","prefecture_code":23},"8103":{"zip_code":"4838103","prefecture":"愛知県","prefecture_kana":"アイチケン","city":"江南市","city_kana":"コウナンシ","town":"力長町宮前","town_kana":"リキナガチョウミヤマエ","prefecture_code":23},"8102":{"zip_code":"4838102","prefecture":"愛知県","prefecture_kana":"アイチケン","city":"江南市","city_kana":"コウナンシ","town":"力長町若宮","town_kana":"リキナガチョウワカミヤ","prefecture_code":23},"8022":{"zip_code":"4838022","prefecture":"愛知県","prefecture_kana":"アイチケン","city":"江南市","city_kana":"コウナンシ","town":"和田町旭","town_kana":"ワダチョウアサヒ","prefecture_code":23},"8014":{"zip_code":"4838014","prefecture":"愛知県","prefecture_kana":"アイチケン","city":"江南市","city_kana":"コウナンシ","town":"和田町川東","town_kana":"ワダチョウカワヒガシ","prefecture_code":23},"8021":{"zip_code":"4838021","prefecture":"愛知県","prefecture_kana":"アイチケン","city":"江南市","city_kana":"コウナンシ","town":"和田町小島","town_kana":"ワダチョウコジマ","prefecture_code":23},"8029":{"zip_code":"4838029","prefecture":"愛知県","prefecture_kana":"アイチケン","city":"江南市","city_kana":"コウナンシ","town":"和田町栄","town_kana":"ワダチョウサカエ","prefecture_code":23},"8024":{"zip_code":"4838024","prefecture":"愛知県","prefecture_kana":"アイチケン","city":"江南市","city_kana":"コウナンシ","town":"和田町天神","town_kana":"ワダチョウテンジン","prefecture_code":23},"8028":{"zip_code":"4838028","prefecture":"愛知県","prefecture_kana":"アイチケン","city":"江南市","city_kana":"コウナンシ","town":"和田町中","town_kana":"ワダチョウナカ","prefecture_code":23},"8015":{"zip_code":"4838015","prefecture":"愛知県","prefecture_kana":"アイチケン","city":"江南市","city_kana":"コウナンシ","town":"和田町中島","town_kana":"ワダチョウナカジマ","prefecture_code":23},"8026":{"zip_code":"4838026","prefecture":"愛知県","prefecture_kana":"アイチケン","city":"江南市","city_kana":"コウナンシ","town":"和田町中畑","town_kana":"ワダチョウナカハタ","prefecture_code":23},"8016":{"zip_code":"4838016","prefecture":"愛知県","prefecture_kana":"アイチケン","city":"江南市","city_kana":"コウナンシ","town":"和田町西島","town_kana":"ワダチョウニシジマ","prefecture_code":23},"8023":{"zip_code":"4838023","prefecture":"愛知県","prefecture_kana":"アイチケン","city":"江南市","city_kana":"コウナンシ","town":"和田町二タ子","town_kana":"ワダチョウフタゴ","prefecture_code":23},"8027":{"zip_code":"4838027","prefecture":"愛知県","prefecture_kana":"アイチケン","city":"江南市","city_kana":"コウナンシ","town":"和田町本郷","town_kana":"ワダチョウホンゴウ","prefecture_code":23},"8025":{"zip_code":"4838025","prefecture":"愛知県","prefecture_kana":"アイチケン","city":"江南市","city_kana":"コウナンシ","town":"和田町宮","town_kana":"ワダチョウミヤ","prefecture_code":23}}