{"0000":{"zip_code":"4840000","prefecture":"愛知県","prefecture_kana":"アイチケン","city":"犬山市","city_kana":"イヌヤマシ","town":"","town_kana":"","prefecture_code":23},"0945":{"zip_code":"4840945","prefecture":"愛知県","prefecture_kana":"アイチケン","city":"犬山市","city_kana":"イヌヤマシ","town":"青塚","town_kana":"アオツカ","prefecture_code":23},"0921":{"zip_code":"4840921","prefecture":"愛知県","prefecture_kana":"アイチケン","city":"犬山市","city_kana":"イヌヤマシ","town":"味加田","town_kana":"アジカタ","prefecture_code":23},"0837":{"zip_code":"4840837","prefecture":"愛知県","prefecture_kana":"アイチケン","city":"犬山市","city_kana":"イヌヤマシ","town":"荒井","town_kana":"アライ","prefecture_code":23},"0887":{"zip_code":"4840887","prefecture":"愛知県","prefecture_kana":"アイチケン","city":"犬山市","city_kana":"イヌヤマシ","town":"池田","town_kana":"イケダ","prefecture_code":23},"0032":{"zip_code":"4840032","prefecture":"愛知県","prefecture_kana":"アイチケン","city":"犬山市","city_kana":"イヌヤマシ","town":"池野安楽寺","town_kana":"イケノアズクシ","prefecture_code":23},"0862":{"zip_code":"4840862","prefecture":"愛知県","prefecture_kana":"アイチケン","city":"犬山市","city_kana":"イヌヤマシ","town":"石塚","town_kana":"イシヅカ","prefecture_code":23},"0053":{"zip_code":"4840053","prefecture":"愛知県","prefecture_kana":"アイチケン","city":"犬山市","city_kana":"イヌヤマシ","town":"石畑","town_kana":"イシハタ","prefecture_code":23},"0056":{"zip_code":"4840056","prefecture":"愛知県","prefecture_kana":"アイチケン","city":"犬山市","city_kana":"イヌヤマシ","town":"稲干場","town_kana":"イナホシバ","prefecture_code":23},"0081":{"zip_code":"4840081","prefecture":"愛知県","prefecture_kana":"アイチケン","city":"犬山市","city_kana":"イヌヤマシ","town":"犬山","town_kana":"イヌヤマ","prefecture_code":23},"0033":{"zip_code":"4840033","prefecture":"愛知県","prefecture_kana":"アイチケン","city":"犬山市","city_kana":"イヌヤマシ","town":"井ノ元","town_kana":"イノモト","prefecture_code":23},"0005":{"zip_code":"4840005","prefecture":"愛知県","prefecture_kana":"アイチケン","city":"犬山市","city_kana":"イヌヤマシ","town":"今井","town_kana":"イマイ","prefecture_code":23},"0021":{"zip_code":"4840021","prefecture":"愛知県","prefecture_kana":"アイチケン","city":"犬山市","city_kana":"イヌヤマシ","town":"杁下","town_kana":"イリシタ","prefecture_code":23},"0008":{"zip_code":"4840008","prefecture":"愛知県","prefecture_kana":"アイチケン","city":"犬山市","city_kana":"イヌヤマシ","town":"岩穴","town_kana":"イワアナ","prefecture_code":23},"0872":{"zip_code":"4840872","prefecture":"愛知県","prefecture_kana":"アイチケン","city":"犬山市","city_kana":"イヌヤマシ","town":"岩田","town_kana":"イワタ","prefecture_code":23},"0055":{"zip_code":"4840055","prefecture":"愛知県","prefecture_kana":"アイチケン","city":"犬山市","city_kana":"イヌヤマシ","town":"牛岩","town_kana":"ウシイワ","prefecture_code":23},"0047":{"zip_code":"4840047","prefecture":"愛知県","prefecture_kana":"アイチケン","city":"犬山市","city_kana":"イヌヤマシ","town":"内久保","town_kana":"ウチクボ","prefecture_code":23},"0071":{"zip_code":"4840071","prefecture":"愛知県","prefecture_kana":"アイチケン","city":"犬山市","city_kana":"イヌヤマシ","town":"内田東町","town_kana":"ウチダヒガシマチ","prefecture_code":23},"0026":{"zip_code":"4840026","prefecture":"愛知県","prefecture_kana":"アイチケン","city":"犬山市","city_kana":"イヌヤマシ","town":"内屋敷","town_kana":"ウチヤシキ","prefecture_code":23},"0074":{"zip_code":"4840074","prefecture":"愛知県","prefecture_kana":"アイチケン","city":"犬山市","city_kana":"イヌヤマシ","town":"梅坪","town_kana":"ウメツボ","prefecture_code":23},"0854":{"zip_code":"4840854","prefecture":"愛知県","prefecture_kana":"アイチケン","city":"犬山市","city_kana":"イヌヤマシ","town":"裏ノ門","town_kana":"ウラノモン","prefecture_code":23},"0035":{"zip_code":"4840035","prefecture":"愛知県","prefecture_kana":"アイチケン","city":"犬山市","city_kana":"イヌヤマシ","town":"裏山","town_kana":"ウラヤマ","prefecture_code":23},"0902":{"zip_code":"4840902","prefecture":"愛知県","prefecture_kana":"アイチケン","city":"犬山市","city_kana":"イヌヤマシ","town":"追分","town_kana":"オイワケ","prefecture_code":23},"0903":{"zip_code":"4840903","prefecture":"愛知県","prefecture_kana":"アイチケン","city":"犬山市","city_kana":"イヌヤマシ","town":"追分東","town_kana":"オイワケヒガシ","prefecture_code":23},"0034":{"zip_code":"4840034","prefecture":"愛知県","prefecture_kana":"アイチケン","city":"犬山市","city_kana":"イヌヤマシ","town":"大洞","town_kana":"オオボラ","prefecture_code":23},"0962":{"zip_code":"4840962","prefecture":"愛知県","prefecture_kana":"アイチケン","city":"犬山市","city_kana":"イヌヤマシ","town":"落添","town_kana":"オチゾエ","prefecture_code":23},"0001":{"zip_code":"4840001","prefecture":"愛知県","prefecture_kana":"アイチケン","city":"犬山市","city_kana":"イヌヤマシ","town":"垣ノ内","town_kana":"カキノウチ","prefecture_code":23},"0901":{"zip_code":"4840901","prefecture":"愛知県","prefecture_kana":"アイチケン","city":"犬山市","city_kana":"イヌヤマシ","town":"柿畑","town_kana":"カキバタ","prefecture_code":23},"0955":{"zip_code":"4840955","prefecture":"愛知県","prefecture_kana":"アイチケン","city":"犬山市","city_kana":"イヌヤマシ","town":"角池","town_kana":"カクイケ","prefecture_code":23},"0936":{"zip_code":"4840936","prefecture":"愛知県","prefecture_kana":"アイチケン","city":"犬山市","city_kana":"イヌヤマシ","town":"楽田青塚","town_kana":"ガクデンアオツカ","prefecture_code":23},"0944":{"zip_code":"4840944","prefecture":"愛知県","prefecture_kana":"アイチケン","city":"犬山市","city_kana":"イヌヤマシ","town":"楽田安師","town_kana":"ガクデンアンシ","prefecture_code":23},"0926":{"zip_code":"4840926","prefecture":"愛知県","prefecture_kana":"アイチケン","city":"犬山市","city_kana":"イヌヤマシ","town":"楽田一色浦","town_kana":"ガクデンイシキウラ","prefecture_code":23},"0874":{"zip_code":"4840874","prefecture":"愛知県","prefecture_kana":"アイチケン","city":"犬山市","city_kana":"イヌヤマシ","town":"楽田今村","town_kana":"ガクデンイマムラ","prefecture_code":23},"0048":{"zip_code":"4840048","prefecture":"愛知県","prefecture_kana":"アイチケン","city":"犬山市","city_kana":"イヌヤマシ","town":"楽田内久保","town_kana":"ガクデンウチクボ","prefecture_code":23},"0843":{"zip_code":"4840843","prefecture":"愛知県","prefecture_kana":"アイチケン","city":"犬山市","city_kana":"イヌヤマシ","town":"楽田打越","town_kana":"ガクデンウチコシ","prefecture_code":23},"0924":{"zip_code":"4840924","prefecture":"愛知県","prefecture_kana":"アイチケン","city":"犬山市","city_kana":"イヌヤマシ","town":"楽田大橋","town_kana":"ガクデンオオハシ","prefecture_code":23},"0904":{"zip_code":"4840904","prefecture":"愛知県","prefecture_kana":"アイチケン","city":"犬山市","city_kana":"イヌヤマシ","town":"楽田勝部前","town_kana":"ガクデンカチベマエ","prefecture_code":23},"0915":{"zip_code":"4840915","prefecture":"愛知県","prefecture_kana":"アイチケン","city":"犬山市","city_kana":"イヌヤマシ","town":"楽田上沼","town_kana":"ガクデンカミヌマ","prefecture_code":23},"0841":{"zip_code":"4840841","prefecture":"愛知県","prefecture_kana":"アイチケン","city":"犬山市","city_kana":"イヌヤマシ","town":"楽田小針","town_kana":"ガクデンコバリ","prefecture_code":23},"0907":{"zip_code":"4840907","prefecture":"愛知県","prefecture_kana":"アイチケン","city":"犬山市","city_kana":"イヌヤマシ","town":"楽田地蔵池","town_kana":"ガクデンジゾウイケ","prefecture_code":23},"0947":{"zip_code":"4840947","prefecture":"愛知県","prefecture_kana":"アイチケン","city":"犬山市","city_kana":"イヌヤマシ","town":"楽田大円","town_kana":"ガクデンダイエン","prefecture_code":23},"0963":{"zip_code":"4840963","prefecture":"愛知県","prefecture_kana":"アイチケン","city":"犬山市","city_kana":"イヌヤマシ","town":"楽田鶴池","town_kana":"ガクデンツルイケ","prefecture_code":23},"0856":{"zip_code":"4840856","prefecture":"愛知県","prefecture_kana":"アイチケン","city":"犬山市","city_kana":"イヌヤマシ","town":"楽田天神","town_kana":"ガクデンテンジン","prefecture_code":23},"0811":{"zip_code":"4840811","prefecture":"愛知県","prefecture_kana":"アイチケン","city":"犬山市","city_kana":"イヌヤマシ","town":"楽田長塚東","town_kana":"ガクデンナガツカヒガシ","prefecture_code":23},"0819":{"zip_code":"4840819","prefecture":"愛知県","prefecture_kana":"アイチケン","city":"犬山市","city_kana":"イヌヤマシ","town":"楽田長塚西","town_kana":"ガクデンナガツカニシ","prefecture_code":23},"0916":{"zip_code":"4840916","prefecture":"愛知県","prefecture_kana":"アイチケン","city":"犬山市","city_kana":"イヌヤマシ","town":"楽田西浦","town_kana":"ガクデンニシウラ","prefecture_code":23},"0925":{"zip_code":"4840925","prefecture":"愛知県","prefecture_kana":"アイチケン","city":"犬山市","city_kana":"イヌヤマシ","town":"楽田西野","town_kana":"ガクデンニシノ","prefecture_code":23},"0942":{"zip_code":"4840942","prefecture":"愛知県","prefecture_kana":"アイチケン","city":"犬山市","city_kana":"イヌヤマシ","town":"楽田巾","town_kana":"ガクデンハバ","prefecture_code":23},"0816":{"zip_code":"4840816","prefecture":"愛知県","prefecture_kana":"アイチケン","city":"犬山市","city_kana":"イヌヤマシ","town":"楽田原東","town_kana":"ガクデンハラヒガシ","prefecture_code":23},"0885":{"zip_code":"4840885","prefecture":"愛知県","prefecture_kana":"アイチケン","city":"犬山市","city_kana":"イヌヤマシ","town":"楽田原西","town_kana":"ガクデンハラニシ","prefecture_code":23},"0877":{"zip_code":"4840877","prefecture":"愛知県","prefecture_kana":"アイチケン","city":"犬山市","city_kana":"イヌヤマシ","town":"楽田東追分","town_kana":"ガクデンヒガシオイワケ","prefecture_code":23},"0879":{"zip_code":"4840879","prefecture":"愛知県","prefecture_kana":"アイチケン","city":"犬山市","city_kana":"イヌヤマシ","town":"楽田三ツ塚","town_kana":"ガクデンミツヅカ","prefecture_code":23},"0846":{"zip_code":"4840846","prefecture":"愛知県","prefecture_kana":"アイチケン","city":"犬山市","city_kana":"イヌヤマシ","town":"楽田山ノ田","town_kana":"ガクデンヤマノタ","prefecture_code":23},"0964":{"zip_code":"4840964","prefecture":"愛知県","prefecture_kana":"アイチケン","city":"犬山市","city_kana":"イヌヤマシ","town":"上榎島","town_kana":"カミエノキジマ","prefecture_code":23},"0059":{"zip_code":"4840059","prefecture":"愛知県","prefecture_kana":"アイチケン","city":"犬山市","city_kana":"イヌヤマシ","town":"上坂町","town_kana":"カミサカチョウ","prefecture_code":23},"0077":{"zip_code":"4840077","prefecture":"愛知県","prefecture_kana":"アイチケン","city":"犬山市","city_kana":"イヌヤマシ","town":"上野","town_kana":"カミノ","prefecture_code":23},"0078":{"zip_code":"4840078","prefecture":"愛知県","prefecture_kana":"アイチケン","city":"犬山市","city_kana":"イヌヤマシ","town":"上野新町","town_kana":"カミノシンマチ","prefecture_code":23},"0043":{"zip_code":"4840043","prefecture":"愛知県","prefecture_kana":"アイチケン","city":"犬山市","city_kana":"イヌヤマシ","town":"上ノ田","town_kana":"カミノタ","prefecture_code":23},"0952":{"zip_code":"4840952","prefecture":"愛知県","prefecture_kana":"アイチケン","city":"犬山市","city_kana":"イヌヤマシ","town":"上舞台","town_kana":"カミブタイ","prefecture_code":23},"0851":{"zip_code":"4840851","prefecture":"愛知県","prefecture_kana":"アイチケン","city":"犬山市","city_kana":"イヌヤマシ","town":"烏杜","town_kana":"カラスモリ","prefecture_code":23},"0914":{"zip_code":"4840914","prefecture":"愛知県","prefecture_kana":"アイチケン","city":"犬山市","city_kana":"イヌヤマシ","town":"観音浦","town_kana":"カンノンウラ","prefecture_code":23},"0818":{"zip_code":"4840818","prefecture":"愛知県","prefecture_kana":"アイチケン","city":"犬山市","city_kana":"イヌヤマシ","town":"北浦","town_kana":"キタウラ","prefecture_code":23},"0922":{"zip_code":"4840922","prefecture":"愛知県","prefecture_kana":"アイチケン","city":"犬山市","city_kana":"イヌヤマシ","town":"北大橋","town_kana":"キタオオハシ","prefecture_code":23},"0082":{"zip_code":"4840082","prefecture":"愛知県","prefecture_kana":"アイチケン","city":"犬山市","city_kana":"イヌヤマシ","town":"北古券","town_kana":"キタコケン","prefecture_code":23},"0011":{"zip_code":"4840011","prefecture":"愛知県","prefecture_kana":"アイチケン","city":"犬山市","city_kana":"イヌヤマシ","town":"北高根","town_kana":"キタタカネ","prefecture_code":23},"0823":{"zip_code":"4840823","prefecture":"愛知県","prefecture_kana":"アイチケン","city":"犬山市","city_kana":"イヌヤマシ","town":"北大門","town_kana":"キタダイモン","prefecture_code":23},"0911":{"zip_code":"4840911","prefecture":"愛知県","prefecture_kana":"アイチケン","city":"犬山市","city_kana":"イヌヤマシ","town":"北之門","town_kana":"キタノモン","prefecture_code":23},"0959":{"zip_code":"4840959","prefecture":"愛知県","prefecture_kana":"アイチケン","city":"犬山市","city_kana":"イヌヤマシ","town":"北平塚","town_kana":"キタヒラツカ","prefecture_code":23},"0824":{"zip_code":"4840824","prefecture":"愛知県","prefecture_kana":"アイチケン","city":"犬山市","city_kana":"イヌヤマシ","town":"北洞","town_kana":"キタボラ","prefecture_code":23},"0024":{"zip_code":"4840024","prefecture":"愛知県","prefecture_kana":"アイチケン","city":"犬山市","city_kana":"イヌヤマシ","town":"喜六屋敷","town_kana":"キロクヤシキ","prefecture_code":23},"0867":{"zip_code":"4840867","prefecture":"愛知県","prefecture_kana":"アイチケン","city":"犬山市","city_kana":"イヌヤマシ","town":"九左エ門廻り","town_kana":"クザエモンマワリ","prefecture_code":23},"0027":{"zip_code":"4840027","prefecture":"愛知県","prefecture_kana":"アイチケン","city":"犬山市","city_kana":"イヌヤマシ","town":"倉曽洞","town_kana":"クラソボラ","prefecture_code":23},"0002":{"zip_code":"4840002","prefecture":"愛知県","prefecture_kana":"アイチケン","city":"犬山市","city_kana":"イヌヤマシ","town":"栗栖","town_kana":"クリス","prefecture_code":23},"0878":{"zip_code":"4840878","prefecture":"愛知県","prefecture_kana":"アイチケン","city":"犬山市","city_kana":"イヌヤマシ","town":"栗林","town_kana":"クリバヤシ","prefecture_code":23},"0014":{"zip_code":"4840014","prefecture":"愛知県","prefecture_kana":"アイチケン","city":"犬山市","city_kana":"イヌヤマシ","town":"郷中","town_kana":"ゴウナカ","prefecture_code":23},"0815":{"zip_code":"4840815","prefecture":"愛知県","prefecture_kana":"アイチケン","city":"犬山市","city_kana":"イヌヤマシ","town":"郷東","town_kana":"ゴウヒガシ","prefecture_code":23},"0817":{"zip_code":"4840817","prefecture":"愛知県","prefecture_kana":"アイチケン","city":"犬山市","city_kana":"イヌヤマシ","town":"郷西","town_kana":"ゴウニシ","prefecture_code":23},"0838":{"zip_code":"4840838","prefecture":"愛知県","prefecture_kana":"アイチケン","city":"犬山市","city_kana":"イヌヤマシ","town":"小路","town_kana":"コジ","prefecture_code":23},"0957":{"zip_code":"4840957","prefecture":"愛知県","prefecture_kana":"アイチケン","city":"犬山市","city_kana":"イヌヤマシ","town":"五反田","town_kana":"ゴタンダ","prefecture_code":23},"0079":{"zip_code":"4840079","prefecture":"愛知県","prefecture_kana":"アイチケン","city":"犬山市","city_kana":"イヌヤマシ","town":"木津","town_kana":"コッツ","prefecture_code":23},"0015":{"zip_code":"4840015","prefecture":"愛知県","prefecture_kana":"アイチケン","city":"犬山市","city_kana":"イヌヤマシ","town":"御殿屋敷","town_kana":"ゴテンヤシキ","prefecture_code":23},"0855":{"zip_code":"4840855","prefecture":"愛知県","prefecture_kana":"アイチケン","city":"犬山市","city_kana":"イヌヤマシ","town":"小洞","town_kana":"コボラ","prefecture_code":23},"0066":{"zip_code":"4840066","prefecture":"愛知県","prefecture_kana":"アイチケン","city":"犬山市","city_kana":"イヌヤマシ","town":"五郎丸","town_kana":"ゴロウマル","prefecture_code":23},"0966":{"zip_code":"4840966","prefecture":"愛知県","prefecture_kana":"アイチケン","city":"犬山市","city_kana":"イヌヤマシ","town":"五郎丸二タ俣","town_kana":"ゴロウマルフタマタ","prefecture_code":23},"0065":{"zip_code":"4840065","prefecture":"愛知県","prefecture_kana":"アイチケン","city":"犬山市","city_kana":"イヌヤマシ","town":"五郎丸東","town_kana":"ゴロウマルヒガシ","prefecture_code":23},"0018":{"zip_code":"4840018","prefecture":"愛知県","prefecture_kana":"アイチケン","city":"犬山市","city_kana":"イヌヤマシ","town":"佐ケ瀬","town_kana":"サガセ","prefecture_code":23},"0844":{"zip_code":"4840844","prefecture":"愛知県","prefecture_kana":"アイチケン","city":"犬山市","city_kana":"イヌヤマシ","town":"鷺山","town_kana":"サギヤマ","prefecture_code":23},"0019":{"zip_code":"4840019","prefecture":"愛知県","prefecture_kana":"アイチケン","city":"犬山市","city_kana":"イヌヤマシ","town":"四季の丘","town_kana":"シキノオカ","prefecture_code":23},"0017":{"zip_code":"4840017","prefecture":"愛知県","prefecture_kana":"アイチケン","city":"犬山市","city_kana":"イヌヤマシ","town":"篠平","town_kana":"シノダイラ","prefecture_code":23},"0965":{"zip_code":"4840965","prefecture":"愛知県","prefecture_kana":"アイチケン","city":"犬山市","city_kana":"イヌヤマシ","town":"下榎島","town_kana":"シモエノキジマ","prefecture_code":23},"0842":{"zip_code":"4840842","prefecture":"愛知県","prefecture_kana":"アイチケン","city":"犬山市","city_kana":"イヌヤマシ","town":"下小針","town_kana":"シモコバリ","prefecture_code":23},"0923":{"zip_code":"4840923","prefecture":"愛知県","prefecture_kana":"アイチケン","city":"犬山市","city_kana":"イヌヤマシ","town":"下沼","town_kana":"シモヌマ","prefecture_code":23},"0953":{"zip_code":"4840953","prefecture":"愛知県","prefecture_kana":"アイチケン","city":"犬山市","city_kana":"イヌヤマシ","town":"下舞台","town_kana":"シモブタイ","prefecture_code":23},"0044":{"zip_code":"4840044","prefecture":"愛知県","prefecture_kana":"アイチケン","city":"犬山市","city_kana":"イヌヤマシ","town":"下屋敷","town_kana":"シモヤシキ","prefecture_code":23},"0007":{"zip_code":"4840007","prefecture":"愛知県","prefecture_kana":"アイチケン","city":"犬山市","city_kana":"イヌヤマシ","town":"十三塚","town_kana":"ジュウサンヅカ","prefecture_code":23},"0825":{"zip_code":"4840825","prefecture":"愛知県","prefecture_kana":"アイチケン","city":"犬山市","city_kana":"イヌヤマシ","town":"常福寺洞","town_kana":"ジョウフクジボラ","prefecture_code":23},"0858":{"zip_code":"4840858","prefecture":"愛知県","prefecture_kana":"アイチケン","city":"犬山市","city_kana":"イヌヤマシ","town":"城山","town_kana":"シロヤマ","prefecture_code":23},"0956":{"zip_code":"4840956","prefecture":"愛知県","prefecture_kana":"アイチケン","city":"犬山市","city_kana":"イヌヤマシ","town":"新川","town_kana":"シンカワ","prefecture_code":23},"0003":{"zip_code":"4840003","prefecture":"愛知県","prefecture_kana":"アイチケン","city":"犬山市","city_kana":"イヌヤマシ","town":"善師野","town_kana":"ゼンジノ","prefecture_code":23},"0004":{"zip_code":"4840004","prefecture":"愛知県","prefecture_kana":"アイチケン","city":"犬山市","city_kana":"イヌヤマシ","town":"善師野台","town_kana":"ゼンジノダイ","prefecture_code":23},"0869":{"zip_code":"4840869","prefecture":"愛知県","prefecture_kana":"アイチケン","city":"犬山市","city_kana":"イヌヤマシ","town":"惣作","town_kana":"ソウサク","prefecture_code":23},"0908":{"zip_code":"4840908","prefecture":"愛知県","prefecture_kana":"アイチケン","city":"犬山市","city_kana":"イヌヤマシ","town":"大上戸","town_kana":"ダイジョウド","prefecture_code":23},"0058":{"zip_code":"4840058","prefecture":"愛知県","prefecture_kana":"アイチケン","city":"犬山市","city_kana":"イヌヤマシ","town":"大門","town_kana":"ダイモン","prefecture_code":23},"0845":{"zip_code":"4840845","prefecture":"愛知県","prefecture_kana":"アイチケン","city":"犬山市","city_kana":"イヌヤマシ","town":"高坪","town_kana":"タカツボ","prefecture_code":23},"0814":{"zip_code":"4840814","prefecture":"愛知県","prefecture_kana":"アイチケン","city":"犬山市","city_kana":"イヌヤマシ","town":"高根","town_kana":"タカネ","prefecture_code":23},"0961":{"zip_code":"4840961","prefecture":"愛知県","prefecture_kana":"アイチケン","city":"犬山市","city_kana":"イヌヤマシ","town":"太吉屋敷","town_kana":"タキチヤシキ","prefecture_code":23},"0009":{"zip_code":"4840009","prefecture":"愛知県","prefecture_kana":"アイチケン","city":"犬山市","city_kana":"イヌヤマシ","town":"田口","town_kana":"タグチ","prefecture_code":23},"0041":{"zip_code":"4840041","prefecture":"愛知県","prefecture_kana":"アイチケン","city":"犬山市","city_kana":"イヌヤマシ","town":"長者町","town_kana":"チョウジャマチ","prefecture_code":23},"0091":{"zip_code":"4840091","prefecture":"愛知県","prefecture_kana":"アイチケン","city":"犬山市","city_kana":"イヌヤマシ","town":"継鹿尾","town_kana":"ツガオ","prefecture_code":23},"0917":{"zip_code":"4840917","prefecture":"愛知県","prefecture_kana":"アイチケン","city":"犬山市","city_kana":"イヌヤマシ","town":"土取","town_kana":"ツチトリ","prefecture_code":23},"0023":{"zip_code":"4840023","prefecture":"愛知県","prefecture_kana":"アイチケン","city":"犬山市","city_kana":"イヌヤマシ","town":"堤下","town_kana":"ツツミシタ","prefecture_code":23},"0013":{"zip_code":"4840013","prefecture":"愛知県","prefecture_kana":"アイチケン","city":"犬山市","city_kana":"イヌヤマシ","town":"寺洞","town_kana":"テラボラ","prefecture_code":23},"0866":{"zip_code":"4840866","prefecture":"愛知県","prefecture_kana":"アイチケン","city":"犬山市","city_kana":"イヌヤマシ","town":"寺西","town_kana":"テラニシ","prefecture_code":23},"0873":{"zip_code":"4840873","prefecture":"愛知県","prefecture_kana":"アイチケン","city":"犬山市","city_kana":"イヌヤマシ","town":"天王前","town_kana":"テンオウマエ","prefecture_code":23},"0073":{"zip_code":"4840073","prefecture":"愛知県","prefecture_kana":"アイチケン","city":"犬山市","city_kana":"イヌヤマシ","town":"天神町","town_kana":"テンジンチョウ","prefecture_code":23},"0094":{"zip_code":"4840094","prefecture":"愛知県","prefecture_kana":"アイチケン","city":"犬山市","city_kana":"イヌヤマシ","town":"塔野地","town_kana":"トウノジ","prefecture_code":23},"0095":{"zip_code":"4840095","prefecture":"愛知県","prefecture_kana":"アイチケン","city":"犬山市","city_kana":"イヌヤマシ","town":"塔野地杉","town_kana":"トウノジスギ","prefecture_code":23},"0096":{"zip_code":"4840096","prefecture":"愛知県","prefecture_kana":"アイチケン","city":"犬山市","city_kana":"イヌヤマシ","town":"塔野地西","town_kana":"トウノジニシ","prefecture_code":23},"0097":{"zip_code":"4840097","prefecture":"愛知県","prefecture_kana":"アイチケン","city":"犬山市","city_kana":"イヌヤマシ","town":"塔野地北","town_kana":"トウノジキタ","prefecture_code":23},"0831":{"zip_code":"4840831","prefecture":"愛知県","prefecture_kana":"アイチケン","city":"犬山市","city_kana":"イヌヤマシ","town":"堂屋敷","town_kana":"ドウヤシキ","prefecture_code":23},"0092":{"zip_code":"4840092","prefecture":"愛知県","prefecture_kana":"アイチケン","city":"犬山市","city_kana":"イヌヤマシ","town":"富岡","town_kana":"トミオカ","prefecture_code":23},"0099":{"zip_code":"4840099","prefecture":"愛知県","prefecture_kana":"アイチケン","city":"犬山市","city_kana":"イヌヤマシ","town":"富岡新町","town_kana":"トミオカシンマチ","prefecture_code":23},"0093":{"zip_code":"4840093","prefecture":"愛知県","prefecture_kana":"アイチケン","city":"犬山市","city_kana":"イヌヤマシ","town":"富岡東","town_kana":"トミオカヒガシ","prefecture_code":23},"0098":{"zip_code":"4840098","prefecture":"愛知県","prefecture_kana":"アイチケン","city":"犬山市","city_kana":"イヌヤマシ","town":"富岡南","town_kana":"トミオカミナミ","prefecture_code":23},"0857":{"zip_code":"4840857","prefecture":"愛知県","prefecture_kana":"アイチケン","city":"犬山市","city_kana":"イヌヤマシ","town":"外屋敷","town_kana":"トヤシキ","prefecture_code":23},"0913":{"zip_code":"4840913","prefecture":"愛知県","prefecture_kana":"アイチケン","city":"犬山市","city_kana":"イヌヤマシ","town":"鳥屋越","town_kana":"トリヤコシ","prefecture_code":23},"0934":{"zip_code":"4840934","prefecture":"愛知県","prefecture_kana":"アイチケン","city":"犬山市","city_kana":"イヌヤマシ","town":"中唐曽","town_kana":"ナカガラソ","prefecture_code":23},"0822":{"zip_code":"4840822","prefecture":"愛知県","prefecture_kana":"アイチケン","city":"犬山市","city_kana":"イヌヤマシ","town":"中切","town_kana":"ナカギリ","prefecture_code":23},"0852":{"zip_code":"4840852","prefecture":"愛知県","prefecture_kana":"アイチケン","city":"犬山市","city_kana":"イヌヤマシ","town":"中小針","town_kana":"ナカコバリ","prefecture_code":23},"0045":{"zip_code":"4840045","prefecture":"愛知県","prefecture_kana":"アイチケン","city":"犬山市","city_kana":"イヌヤマシ","town":"仲畑","town_kana":"ナカハタ","prefecture_code":23},"0919":{"zip_code":"4840919","prefecture":"愛知県","prefecture_kana":"アイチケン","city":"犬山市","city_kana":"イヌヤマシ","town":"中道","town_kana":"ナカミチ","prefecture_code":23},"0054":{"zip_code":"4840054","prefecture":"愛知県","prefecture_kana":"アイチケン","city":"犬山市","city_kana":"イヌヤマシ","town":"仲屋敷","town_kana":"ナカヤシキ","prefecture_code":23},"0087":{"zip_code":"4840087","prefecture":"愛知県","prefecture_kana":"アイチケン","city":"犬山市","city_kana":"イヌヤマシ","town":"中山町","town_kana":"ナカヤマチョウ","prefecture_code":23},"0928":{"zip_code":"4840928","prefecture":"愛知県","prefecture_kana":"アイチケン","city":"犬山市","city_kana":"イヌヤマシ","town":"七ツ屋","town_kana":"ナナツヤ","prefecture_code":23},"0037":{"zip_code":"4840037","prefecture":"愛知県","prefecture_kana":"アイチケン","city":"犬山市","city_kana":"イヌヤマシ","town":"西片草","town_kana":"ニシカタクサ","prefecture_code":23},"0935":{"zip_code":"4840935","prefecture":"愛知県","prefecture_kana":"アイチケン","city":"犬山市","city_kana":"イヌヤマシ","town":"西唐曽","town_kana":"ニシガラソ","prefecture_code":23},"0905":{"zip_code":"4840905","prefecture":"愛知県","prefecture_kana":"アイチケン","city":"犬山市","city_kana":"イヌヤマシ","town":"西北野","town_kana":"ニシキタノ","prefecture_code":23},"0036":{"zip_code":"4840036","prefecture":"愛知県","prefecture_kana":"アイチケン","city":"犬山市","city_kana":"イヌヤマシ","town":"西桑原","town_kana":"ニシクワバラ","prefecture_code":23},"0085":{"zip_code":"4840085","prefecture":"愛知県","prefecture_kana":"アイチケン","city":"犬山市","city_kana":"イヌヤマシ","town":"西古券","town_kana":"ニシコケン","prefecture_code":23},"0948":{"zip_code":"4840948","prefecture":"愛知県","prefecture_kana":"アイチケン","city":"犬山市","city_kana":"イヌヤマシ","town":"西大円","town_kana":"ニシダイエン","prefecture_code":23},"0932":{"zip_code":"4840932","prefecture":"愛知県","prefecture_kana":"アイチケン","city":"犬山市","city_kana":"イヌヤマシ","town":"西野","town_kana":"ニシノ","prefecture_code":23},"0029":{"zip_code":"4840029","prefecture":"愛知県","prefecture_kana":"アイチケン","city":"犬山市","city_kana":"イヌヤマシ","town":"西洞","town_kana":"ニシボラ","prefecture_code":23},"0918":{"zip_code":"4840918","prefecture":"愛知県","prefecture_kana":"アイチケン","city":"犬山市","city_kana":"イヌヤマシ","town":"ニタ田","town_kana":"ニタンダ","prefecture_code":23},"0042":{"zip_code":"4840042","prefecture":"愛知県","prefecture_kana":"アイチケン","city":"犬山市","city_kana":"イヌヤマシ","town":"二本木","town_kana":"ニホンギ","prefecture_code":23},"0863":{"zip_code":"4840863","prefecture":"愛知県","prefecture_kana":"アイチケン","city":"犬山市","city_kana":"イヌヤマシ","town":"野田","town_kana":"ノダ","prefecture_code":23},"0025":{"zip_code":"4840025","prefecture":"愛知県","prefecture_kana":"アイチケン","city":"犬山市","city_kana":"イヌヤマシ","town":"野中","town_kana":"ノナカ","prefecture_code":23},"0022":{"zip_code":"4840022","prefecture":"愛知県","prefecture_kana":"アイチケン","city":"犬山市","city_kana":"イヌヤマシ","town":"白山洞","town_kana":"ハクサンボラ","prefecture_code":23},"0894":{"zip_code":"4840894","prefecture":"愛知県","prefecture_kana":"アイチケン","city":"犬山市","city_kana":"イヌヤマシ","town":"羽黒","town_kana":"ハグロ","prefecture_code":23},"0806":{"zip_code":"4840806","prefecture":"愛知県","prefecture_kana":"アイチケン","city":"犬山市","city_kana":"イヌヤマシ","town":"羽黒朝日","town_kana":"ハグロアサヒ","prefecture_code":23},"0899":{"zip_code":"4840899","prefecture":"愛知県","prefecture_kana":"アイチケン","city":"犬山市","city_kana":"イヌヤマシ","town":"羽黒稲葉東","town_kana":"ハグロイナバヒガシ","prefecture_code":23},"0898":{"zip_code":"4840898","prefecture":"愛知県","prefecture_kana":"アイチケン","city":"犬山市","city_kana":"イヌヤマシ","town":"羽黒稲葉西","town_kana":"ハグロイナバニシ","prefecture_code":23},"0884":{"zip_code":"4840884","prefecture":"愛知県","prefecture_kana":"アイチケン","city":"犬山市","city_kana":"イヌヤマシ","town":"羽黒起","town_kana":"ハグロオコシ","prefecture_code":23},"0891":{"zip_code":"4840891","prefecture":"愛知県","prefecture_kana":"アイチケン","city":"犬山市","city_kana":"イヌヤマシ","town":"羽黒恩田島","town_kana":"ハグロオンダシマ","prefecture_code":23},"0882":{"zip_code":"4840882","prefecture":"愛知県","prefecture_kana":"アイチケン","city":"犬山市","city_kana":"イヌヤマシ","town":"羽黒菊川","town_kana":"ハグロキクカワ","prefecture_code":23},"0893":{"zip_code":"4840893","prefecture":"愛知県","prefecture_kana":"アイチケン","city":"犬山市","city_kana":"イヌヤマシ","town":"羽黒栄","town_kana":"ハグロサカエ","prefecture_code":23},"0804":{"zip_code":"4840804","prefecture":"愛知県","prefecture_kana":"アイチケン","city":"犬山市","city_kana":"イヌヤマシ","town":"羽黒桜海道","town_kana":"ハグロサクラカイドウ","prefecture_code":23},"0803":{"zip_code":"4840803","prefecture":"愛知県","prefecture_kana":"アイチケン","city":"犬山市","city_kana":"イヌヤマシ","town":"羽黒新赤坂","town_kana":"ハグロシンアカサカ","prefecture_code":23},"0888":{"zip_code":"4840888","prefecture":"愛知県","prefecture_kana":"アイチケン","city":"犬山市","city_kana":"イヌヤマシ","town":"羽黒新田","town_kana":"ハグロシンデン","prefecture_code":23},"0805":{"zip_code":"4840805","prefecture":"愛知県","prefecture_kana":"アイチケン","city":"犬山市","city_kana":"イヌヤマシ","town":"羽黒新外山","town_kana":"ハグロシントヤマ","prefecture_code":23},"0895":{"zip_code":"4840895","prefecture":"愛知県","prefecture_kana":"アイチケン","city":"犬山市","city_kana":"イヌヤマシ","town":"羽黒摺墨","town_kana":"ハグロスルスミ","prefecture_code":23},"0892":{"zip_code":"4840892","prefecture":"愛知県","prefecture_kana":"アイチケン","city":"犬山市","city_kana":"イヌヤマシ","town":"羽黒惣境","town_kana":"ハグロソウサカイ","prefecture_code":23},"0889":{"zip_code":"4840889","prefecture":"愛知県","prefecture_kana":"アイチケン","city":"犬山市","city_kana":"イヌヤマシ","town":"羽黒高橋","town_kana":"ハグロタカハシ","prefecture_code":23},"0897":{"zip_code":"4840897","prefecture":"愛知県","prefecture_kana":"アイチケン","city":"犬山市","city_kana":"イヌヤマシ","town":"羽黒堂前","town_kana":"ハグロドウマエ","prefecture_code":23},"0881":{"zip_code":"4840881","prefecture":"愛知県","prefecture_kana":"アイチケン","city":"犬山市","city_kana":"イヌヤマシ","town":"羽黒成海西","town_kana":"ハグロナルミニシ","prefecture_code":23},"0883":{"zip_code":"4840883","prefecture":"愛知県","prefecture_kana":"アイチケン","city":"犬山市","city_kana":"イヌヤマシ","town":"羽黒成海南","town_kana":"ハグロナルミミナミ","prefecture_code":23},"0807":{"zip_code":"4840807","prefecture":"愛知県","prefecture_kana":"アイチケン","city":"犬山市","city_kana":"イヌヤマシ","town":"羽黒鉾添","town_kana":"ハグロホコゾエ","prefecture_code":23},"0802":{"zip_code":"4840802","prefecture":"愛知県","prefecture_kana":"アイチケン","city":"犬山市","city_kana":"イヌヤマシ","town":"羽黒安戸西","town_kana":"ハグロヤスドニシ","prefecture_code":23},"0801":{"zip_code":"4840801","prefecture":"愛知県","prefecture_kana":"アイチケン","city":"犬山市","city_kana":"イヌヤマシ","town":"羽黒安戸南","town_kana":"ハグロヤスドミナミ","prefecture_code":23},"0896":{"zip_code":"4840896","prefecture":"愛知県","prefecture_kana":"アイチケン","city":"犬山市","city_kana":"イヌヤマシ","town":"羽黒余町","town_kana":"ハグロヨマチ","prefecture_code":23},"0076":{"zip_code":"4840076","prefecture":"愛知県","prefecture_kana":"アイチケン","city":"犬山市","city_kana":"イヌヤマシ","town":"橋爪","town_kana":"ハシヅメ","prefecture_code":23},"0075":{"zip_code":"4840075","prefecture":"愛知県","prefecture_kana":"アイチケン","city":"犬山市","city_kana":"イヌヤマシ","town":"橋爪東","town_kana":"ハシヅメヒガシ","prefecture_code":23},"0835":{"zip_code":"4840835","prefecture":"愛知県","prefecture_kana":"アイチケン","city":"犬山市","city_kana":"イヌヤマシ","town":"蓮池","town_kana":"ハスイケ","prefecture_code":23},"0006":{"zip_code":"4840006","prefecture":"愛知県","prefecture_kana":"アイチケン","city":"犬山市","city_kana":"イヌヤマシ","town":"八曽","town_kana":"ハッソ","prefecture_code":23},"0951":{"zip_code":"4840951","prefecture":"愛知県","prefecture_kana":"アイチケン","city":"犬山市","city_kana":"イヌヤマシ","town":"八反田","town_kana":"ハッタンダ","prefecture_code":23},"0943":{"zip_code":"4840943","prefecture":"愛知県","prefecture_kana":"アイチケン","city":"犬山市","city_kana":"イヌヤマシ","town":"巾前","town_kana":"ハバマエ","prefecture_code":23},"0941":{"zip_code":"4840941","prefecture":"愛知県","prefecture_kana":"アイチケン","city":"犬山市","city_kana":"イヌヤマシ","town":"巾廻り","town_kana":"ハバマワリ","prefecture_code":23},"0864":{"zip_code":"4840864","prefecture":"愛知県","prefecture_kana":"アイチケン","city":"犬山市","city_kana":"イヌヤマシ","town":"番前","town_kana":"バンマエ","prefecture_code":23},"0038":{"zip_code":"4840038","prefecture":"愛知県","prefecture_kana":"アイチケン","city":"犬山市","city_kana":"イヌヤマシ","town":"東片草","town_kana":"ヒガシカタクサ","prefecture_code":23},"0933":{"zip_code":"4840933","prefecture":"愛知県","prefecture_kana":"アイチケン","city":"犬山市","city_kana":"イヌヤマシ","town":"東唐曽","town_kana":"ヒガシガラソ","prefecture_code":23},"0868":{"zip_code":"4840868","prefecture":"愛知県","prefecture_kana":"アイチケン","city":"犬山市","city_kana":"イヌヤマシ","town":"東北野","town_kana":"ヒガシキタノ","prefecture_code":23},"0031":{"zip_code":"4840031","prefecture":"愛知県","prefecture_kana":"アイチケン","city":"犬山市","city_kana":"イヌヤマシ","town":"東桑原","town_kana":"ヒガシクワバラ","prefecture_code":23},"0083":{"zip_code":"4840083","prefecture":"愛知県","prefecture_kana":"アイチケン","city":"犬山市","city_kana":"イヌヤマシ","town":"東古券","town_kana":"ヒガシコケン","prefecture_code":23},"0946":{"zip_code":"4840946","prefecture":"愛知県","prefecture_kana":"アイチケン","city":"犬山市","city_kana":"イヌヤマシ","town":"東大円","town_kana":"ヒガシダイエン","prefecture_code":23},"0958":{"zip_code":"4840958","prefecture":"愛知県","prefecture_kana":"アイチケン","city":"犬山市","city_kana":"イヌヤマシ","town":"平塚","town_kana":"ヒラツカ","prefecture_code":23},"0836":{"zip_code":"4840836","prefecture":"愛知県","prefecture_kana":"アイチケン","city":"犬山市","city_kana":"イヌヤマシ","town":"笛田","town_kana":"フエダ","prefecture_code":23},"0057":{"zip_code":"4840057","prefecture":"愛知県","prefecture_kana":"アイチケン","city":"犬山市","city_kana":"イヌヤマシ","town":"富士山","town_kana":"フジヤマ","prefecture_code":23},"0912":{"zip_code":"4840912","prefecture":"愛知県","prefecture_kana":"アイチケン","city":"犬山市","city_kana":"イヌヤマシ","town":"舟田","town_kana":"フナダ","prefecture_code":23},"0049":{"zip_code":"4840049","prefecture":"愛知県","prefecture_kana":"アイチケン","city":"犬山市","city_kana":"イヌヤマシ","town":"前田面","town_kana":"マエダメン","prefecture_code":23},"0871":{"zip_code":"4840871","prefecture":"愛知県","prefecture_kana":"アイチケン","city":"犬山市","city_kana":"イヌヤマシ","town":"前並","town_kana":"マエナミ","prefecture_code":23},"0061":{"zip_code":"4840061","prefecture":"愛知県","prefecture_kana":"アイチケン","city":"犬山市","city_kana":"イヌヤマシ","town":"前原","town_kana":"マエハラ","prefecture_code":23},"0062":{"zip_code":"4840062","prefecture":"愛知県","prefecture_kana":"アイチケン","city":"犬山市","city_kana":"イヌヤマシ","town":"前原味鹿","town_kana":"マエハラアジカ","prefecture_code":23},"0064":{"zip_code":"4840064","prefecture":"愛知県","prefecture_kana":"アイチケン","city":"犬山市","city_kana":"イヌヤマシ","town":"前原西","town_kana":"マエハラニシ","prefecture_code":23},"0063":{"zip_code":"4840063","prefecture":"愛知県","prefecture_kana":"アイチケン","city":"犬山市","city_kana":"イヌヤマシ","town":"前原南","town_kana":"マエハラミナミ","prefecture_code":23},"0086":{"zip_code":"4840086","prefecture":"愛知県","prefecture_kana":"アイチケン","city":"犬山市","city_kana":"イヌヤマシ","town":"松本町","town_kana":"マツモトチョウ","prefecture_code":23},"0927":{"zip_code":"4840927","prefecture":"愛知県","prefecture_kana":"アイチケン","city":"犬山市","city_kana":"イヌヤマシ","town":"的場","town_kana":"マトバ","prefecture_code":23},"0072":{"zip_code":"4840072","prefecture":"愛知県","prefecture_kana":"アイチケン","city":"犬山市","city_kana":"イヌヤマシ","town":"丸山天白町","town_kana":"マルヤマテンパクチョウ","prefecture_code":23},"0931":{"zip_code":"4840931","prefecture":"愛知県","prefecture_kana":"アイチケン","city":"犬山市","city_kana":"イヌヤマシ","town":"南大橋","town_kana":"ミナミオオハシ","prefecture_code":23},"0084":{"zip_code":"4840084","prefecture":"愛知県","prefecture_kana":"アイチケン","city":"犬山市","city_kana":"イヌヤマシ","town":"南古券","town_kana":"ミナミコケン","prefecture_code":23},"0012":{"zip_code":"4840012","prefecture":"愛知県","prefecture_kana":"アイチケン","city":"犬山市","city_kana":"イヌヤマシ","town":"南高根","town_kana":"ミナミタカネ","prefecture_code":23},"0051":{"zip_code":"4840051","prefecture":"愛知県","prefecture_kana":"アイチケン","city":"犬山市","city_kana":"イヌヤマシ","town":"宮裏","town_kana":"ミヤウラ","prefecture_code":23},"0886":{"zip_code":"4840886","prefecture":"愛知県","prefecture_kana":"アイチケン","city":"犬山市","city_kana":"イヌヤマシ","town":"宮浦","town_kana":"ミヤウラ","prefecture_code":23},"0834":{"zip_code":"4840834","prefecture":"愛知県","prefecture_kana":"アイチケン","city":"犬山市","city_kana":"イヌヤマシ","town":"宮山","town_kana":"ミヤヤマ","prefecture_code":23},"0937":{"zip_code":"4840937","prefecture":"愛知県","prefecture_kana":"アイチケン","city":"犬山市","city_kana":"イヌヤマシ","town":"宮東","town_kana":"ミヤヒガシ","prefecture_code":23},"0833":{"zip_code":"4840833","prefecture":"愛知県","prefecture_kana":"アイチケン","city":"犬山市","city_kana":"イヌヤマシ","town":"宮西","town_kana":"ミヤニシ","prefecture_code":23},"0028":{"zip_code":"4840028","prefecture":"愛知県","prefecture_kana":"アイチケン","city":"犬山市","city_kana":"イヌヤマシ","town":"向田","town_kana":"ムコダ","prefecture_code":23},"0832":{"zip_code":"4840832","prefecture":"愛知県","prefecture_kana":"アイチケン","city":"犬山市","city_kana":"イヌヤマシ","town":"向山","town_kana":"ムコヤマ","prefecture_code":23},"0020":{"zip_code":"4840020","prefecture":"愛知県","prefecture_kana":"アイチケン","city":"犬山市","city_kana":"イヌヤマシ","town":"もえぎケ丘","town_kana":"モエギガオカ","prefecture_code":23},"0954":{"zip_code":"4840954","prefecture":"愛知県","prefecture_kana":"アイチケン","city":"犬山市","city_kana":"イヌヤマシ","town":"元散前","town_kana":"モトサンマエ","prefecture_code":23},"0839":{"zip_code":"4840839","prefecture":"愛知県","prefecture_kana":"アイチケン","city":"犬山市","city_kana":"イヌヤマシ","town":"桃山台","town_kana":"モモヤマダイ","prefecture_code":23},"0828":{"zip_code":"4840828","prefecture":"愛知県","prefecture_kana":"アイチケン","city":"犬山市","city_kana":"イヌヤマシ","town":"薬師浦","town_kana":"ヤクシウラ","prefecture_code":23},"0827":{"zip_code":"4840827","prefecture":"愛知県","prefecture_kana":"アイチケン","city":"犬山市","city_kana":"イヌヤマシ","town":"薬師前","town_kana":"ヤクシマエ","prefecture_code":23},"0906":{"zip_code":"4840906","prefecture":"愛知県","prefecture_kana":"アイチケン","city":"犬山市","city_kana":"イヌヤマシ","town":"焼野","town_kana":"ヤケノ","prefecture_code":23},"0046":{"zip_code":"4840046","prefecture":"愛知県","prefecture_kana":"アイチケン","city":"犬山市","city_kana":"イヌヤマシ","town":"屋敷裏","town_kana":"ヤシキウラ","prefecture_code":23},"0016":{"zip_code":"4840016","prefecture":"愛知県","prefecture_kana":"アイチケン","city":"犬山市","city_kana":"イヌヤマシ","town":"藪ケ洞","town_kana":"ヤブガホラ","prefecture_code":23},"0865":{"zip_code":"4840865","prefecture":"愛知県","prefecture_kana":"アイチケン","city":"犬山市","city_kana":"イヌヤマシ","town":"藪畔","town_kana":"ヤブグロ","prefecture_code":23},"0876":{"zip_code":"4840876","prefecture":"愛知県","prefecture_kana":"アイチケン","city":"犬山市","city_kana":"イヌヤマシ","town":"山神","town_kana":"ヤマガミ","prefecture_code":23},"0821":{"zip_code":"4840821","prefecture":"愛知県","prefecture_kana":"アイチケン","city":"犬山市","city_kana":"イヌヤマシ","town":"山崎西","town_kana":"ヤマザキニシ","prefecture_code":23},"0812":{"zip_code":"4840812","prefecture":"愛知県","prefecture_kana":"アイチケン","city":"犬山市","city_kana":"イヌヤマシ","town":"山ノ田","town_kana":"ヤマノタ","prefecture_code":23},"0813":{"zip_code":"4840813","prefecture":"愛知県","prefecture_kana":"アイチケン","city":"犬山市","city_kana":"イヌヤマシ","town":"山ノ田腰","town_kana":"ヤマノタゴシ","prefecture_code":23},"0826":{"zip_code":"4840826","prefecture":"愛知県","prefecture_kana":"アイチケン","city":"犬山市","city_kana":"イヌヤマシ","town":"山ノ鼻","town_kana":"ヤマノハナ","prefecture_code":23},"0853":{"zip_code":"4840853","prefecture":"愛知県","prefecture_kana":"アイチケン","city":"犬山市","city_kana":"イヌヤマシ","town":"横町","town_kana":"ヨコマチ","prefecture_code":23},"0875":{"zip_code":"4840875","prefecture":"愛知県","prefecture_kana":"アイチケン","city":"犬山市","city_kana":"イヌヤマシ","town":"林吾塚","town_kana":"リンゴヅカ","prefecture_code":23},"0861":{"zip_code":"4840861","prefecture":"愛知県","prefecture_kana":"アイチケン","city":"犬山市","city_kana":"イヌヤマシ","town":"若宮","town_kana":"ワカミヤ","prefecture_code":23},"0052":{"zip_code":"4840052","prefecture":"愛知県","prefecture_kana":"アイチケン","city":"犬山市","city_kana":"イヌヤマシ","town":"早稲田","town_kana":"ワセダ","prefecture_code":23}}