{"0000":{"zip_code":"4850000","prefecture":"愛知県","prefecture_kana":"アイチケン","city":"小牧市","city_kana":"コマキシ","town":"","town_kana":"","prefecture_code":23},"0047":{"zip_code":"4850047","prefecture":"愛知県","prefecture_kana":"アイチケン","city":"小牧市","city_kana":"コマキシ","town":"曙町","town_kana":"アケボノチョウ","prefecture_code":23},"0804":{"zip_code":"4850804","prefecture":"愛知県","prefecture_kana":"アイチケン","city":"小牧市","city_kana":"コマキシ","town":"池之内","town_kana":"イケノウチ","prefecture_code":23},"0034":{"zip_code":"4850034","prefecture":"愛知県","prefecture_kana":"アイチケン","city":"小牧市","city_kana":"コマキシ","town":"市之久田","town_kana":"イチノクタ","prefecture_code":23},"0084":{"zip_code":"4850084","prefecture":"愛知県","prefecture_kana":"アイチケン","city":"小牧市","city_kana":"コマキシ","town":"入鹿出新田","town_kana":"イルカデシンデン","prefecture_code":23},"0011":{"zip_code":"4850011","prefecture":"愛知県","prefecture_kana":"アイチケン","city":"小牧市","city_kana":"コマキシ","town":"岩崎","town_kana":"イワザキ","prefecture_code":23},"0017":{"zip_code":"4850017","prefecture":"愛知県","prefecture_kana":"アイチケン","city":"小牧市","city_kana":"コマキシ","town":"岩崎原","town_kana":"イワザキハラ","prefecture_code":23},"0832":{"zip_code":"4850832","prefecture":"愛知県","prefecture_kana":"アイチケン","city":"小牧市","city_kana":"コマキシ","town":"応時","town_kana":"オウジ","prefecture_code":23},"0802":{"zip_code":"4850802","prefecture":"愛知県","prefecture_kana":"アイチケン","city":"小牧市","city_kana":"コマキシ","town":"大草","town_kana":"オオクサ","prefecture_code":23},"0026":[{"zip_code":"4850026","prefecture":"愛知県","prefecture_kana":"アイチケン","city":"小牧市","city_kana":"コマキシ","town":"大山","town_kana":"オオヤマ","prefecture_code":23},{"zip_code":"4850026","prefecture":"愛知県","prefecture_kana":"アイチケン","city":"小牧市","city_kana":"コマキシ","town":"大山小牧大山","town_kana":"オオヤマコマキオオヤマ","prefecture_code":23}],"0801":[{"zip_code":"4850801","prefecture":"愛知県","prefecture_kana":"アイチケン","city":"小牧市","city_kana":"コマキシ","town":"大山","town_kana":"オオヤマ","prefecture_code":23},{"zip_code":"4850801","prefecture":"愛知県","prefecture_kana":"アイチケン","city":"小牧市","city_kana":"コマキシ","town":"大山篠岡大山","town_kana":"オオヤマシノオカオオヤマ","prefecture_code":23}],"0037":{"zip_code":"4850037","prefecture":"愛知県","prefecture_kana":"アイチケン","city":"小牧市","city_kana":"コマキシ","town":"小針","town_kana":"オバリ","prefecture_code":23},"0032":{"zip_code":"4850032","prefecture":"愛知県","prefecture_kana":"アイチケン","city":"小牧市","city_kana":"コマキシ","town":"掛割町","town_kana":"カケワリチョウ","prefecture_code":23},"0025":{"zip_code":"4850025","prefecture":"愛知県","prefecture_kana":"アイチケン","city":"小牧市","city_kana":"コマキシ","town":"春日寺","town_kana":"カスガンジ","prefecture_code":23},"0822":{"zip_code":"4850822","prefecture":"愛知県","prefecture_kana":"アイチケン","city":"小牧市","city_kana":"コマキシ","town":"上末","town_kana":"カミズエ","prefecture_code":23},"0085":{"zip_code":"4850085","prefecture":"愛知県","prefecture_kana":"アイチケン","city":"小牧市","city_kana":"コマキシ","town":"河内屋新田","town_kana":"カワチヤシンデン","prefecture_code":23},"0045":{"zip_code":"4850045","prefecture":"愛知県","prefecture_kana":"アイチケン","city":"小牧市","city_kana":"コマキシ","town":"川西","town_kana":"カワニシ","prefecture_code":23},"0023":{"zip_code":"4850023","prefecture":"愛知県","prefecture_kana":"アイチケン","city":"小牧市","city_kana":"コマキシ","town":"北外山","town_kana":"キタトヤマ","prefecture_code":23},"0022":{"zip_code":"4850022","prefecture":"愛知県","prefecture_kana":"アイチケン","city":"小牧市","city_kana":"コマキシ","town":"北外山入鹿新田","town_kana":"キタトヤマイルカシンデン","prefecture_code":23},"0003":{"zip_code":"4850003","prefecture":"愛知県","prefecture_kana":"アイチケン","city":"小牧市","city_kana":"コマキシ","town":"久保一色","town_kana":"クボイシキ","prefecture_code":23},"0001":{"zip_code":"4850001","prefecture":"愛知県","prefecture_kana":"アイチケン","city":"小牧市","city_kana":"コマキシ","town":"久保一色東","town_kana":"クボイシキヒガシ","prefecture_code":23},"0007":{"zip_code":"4850007","prefecture":"愛知県","prefecture_kana":"アイチケン","city":"小牧市","city_kana":"コマキシ","town":"久保一色南","town_kana":"クボイシキミナミ","prefecture_code":23},"0006":{"zip_code":"4850006","prefecture":"愛知県","prefecture_kana":"アイチケン","city":"小牧市","city_kana":"コマキシ","town":"久保新町","town_kana":"クボシンマチ","prefecture_code":23},"0005":{"zip_code":"4850005","prefecture":"愛知県","prefecture_kana":"アイチケン","city":"小牧市","city_kana":"コマキシ","town":"久保本町","town_kana":"クボホンマチ","prefecture_code":23},"0033":{"zip_code":"4850033","prefecture":"愛知県","prefecture_kana":"アイチケン","city":"小牧市","city_kana":"コマキシ","town":"郷中","town_kana":"ゴウナカ","prefecture_code":23},"0823":{"zip_code":"4850823","prefecture":"愛知県","prefecture_kana":"アイチケン","city":"小牧市","city_kana":"コマキシ","town":"郷西町","town_kana":"ゴウニシチョウ","prefecture_code":23},"0814":{"zip_code":"4850814","prefecture":"愛知県","prefecture_kana":"アイチケン","city":"小牧市","city_kana":"コマキシ","town":"古雅","town_kana":"コガ","prefecture_code":23},"0058":{"zip_code":"4850058","prefecture":"愛知県","prefecture_kana":"アイチケン","city":"小牧市","city_kana":"コマキシ","town":"小木","town_kana":"コキ","prefecture_code":23},"0059":{"zip_code":"4850059","prefecture":"愛知県","prefecture_kana":"アイチケン","city":"小牧市","city_kana":"コマキシ","town":"小木東","town_kana":"コキヒガシ","prefecture_code":23},"0057":{"zip_code":"4850057","prefecture":"愛知県","prefecture_kana":"アイチケン","city":"小牧市","city_kana":"コマキシ","town":"小木西","town_kana":"コキニシ","prefecture_code":23},"0056":{"zip_code":"4850056","prefecture":"愛知県","prefecture_kana":"アイチケン","city":"小牧市","city_kana":"コマキシ","town":"小木南","town_kana":"コキミナミ","prefecture_code":23},"0041":{"zip_code":"4850041","prefecture":"愛知県","prefecture_kana":"アイチケン","city":"小牧市","city_kana":"コマキシ","town":"小牧","town_kana":"コマキ","prefecture_code":23},"0829":{"zip_code":"4850829","prefecture":"愛知県","prefecture_kana":"アイチケン","city":"小牧市","city_kana":"コマキシ","town":"小牧原","town_kana":"コマキハラ","prefecture_code":23},"0012":{"zip_code":"4850012","prefecture":"愛知県","prefecture_kana":"アイチケン","city":"小牧市","city_kana":"コマキシ","town":"小牧原新田","town_kana":"コマキハラシンデン","prefecture_code":23},"0828":{"zip_code":"4850828","prefecture":"愛知県","prefecture_kana":"アイチケン","city":"小牧市","city_kana":"コマキシ","town":"小松寺","town_kana":"コマツジ","prefecture_code":23},"0042":{"zip_code":"4850042","prefecture":"愛知県","prefecture_kana":"アイチケン","city":"小牧市","city_kana":"コマキシ","town":"桜井","town_kana":"サクライ","prefecture_code":23},"0043":{"zip_code":"4850043","prefecture":"愛知県","prefecture_kana":"アイチケン","city":"小牧市","city_kana":"コマキシ","town":"桜井本町","town_kana":"サクライホンマチ","prefecture_code":23},"0815":{"zip_code":"4850815","prefecture":"愛知県","prefecture_kana":"アイチケン","city":"小牧市","city_kana":"コマキシ","town":"篠岡","town_kana":"シノオカ","prefecture_code":23},"0036":{"zip_code":"4850036","prefecture":"愛知県","prefecture_kana":"アイチケン","city":"小牧市","city_kana":"コマキシ","town":"下小針天神","town_kana":"シモオバリテンジン","prefecture_code":23},"0051":{"zip_code":"4850051","prefecture":"愛知県","prefecture_kana":"アイチケン","city":"小牧市","city_kana":"コマキシ","town":"下小針中島","town_kana":"シモオバリナカシマ","prefecture_code":23},"0825":{"zip_code":"4850825","prefecture":"愛知県","prefecture_kana":"アイチケン","city":"小牧市","city_kana":"コマキシ","town":"下末","town_kana":"シモズエ","prefecture_code":23},"0044":{"zip_code":"4850044","prefecture":"愛知県","prefecture_kana":"アイチケン","city":"小牧市","city_kana":"コマキシ","town":"常普請","town_kana":"ジョウブシ","prefecture_code":23},"0812":{"zip_code":"4850812","prefecture":"愛知県","prefecture_kana":"アイチケン","city":"小牧市","city_kana":"コマキシ","town":"城山","town_kana":"シロヤマ","prefecture_code":23},"0074":{"zip_code":"4850074","prefecture":"愛知県","prefecture_kana":"アイチケン","city":"小牧市","city_kana":"コマキシ","town":"新小木","town_kana":"シンコキ","prefecture_code":23},"0013":{"zip_code":"4850013","prefecture":"愛知県","prefecture_kana":"アイチケン","city":"小牧市","city_kana":"コマキシ","town":"新町","town_kana":"シンマチ","prefecture_code":23},"0039":{"zip_code":"4850039","prefecture":"愛知県","prefecture_kana":"アイチケン","city":"小牧市","city_kana":"コマキシ","town":"外堀","town_kana":"ソトボリ","prefecture_code":23},"0803":{"zip_code":"4850803","prefecture":"愛知県","prefecture_kana":"アイチケン","city":"小牧市","city_kana":"コマキシ","town":"高根","town_kana":"タカネ","prefecture_code":23},"0004":{"zip_code":"4850004","prefecture":"愛知県","prefecture_kana":"アイチケン","city":"小牧市","city_kana":"コマキシ","town":"田県町","town_kana":"タガタチョウ","prefecture_code":23},"0052":{"zip_code":"4850052","prefecture":"愛知県","prefecture_kana":"アイチケン","city":"小牧市","city_kana":"コマキシ","town":"多気中町","town_kana":"タキナカマチ","prefecture_code":23},"0035":{"zip_code":"4850035","prefecture":"愛知県","prefecture_kana":"アイチケン","city":"小牧市","city_kana":"コマキシ","town":"多気東町","town_kana":"タキヒガシマチ","prefecture_code":23},"0054":{"zip_code":"4850054","prefecture":"愛知県","prefecture_kana":"アイチケン","city":"小牧市","city_kana":"コマキシ","town":"多気西町","town_kana":"タキニシマチ","prefecture_code":23},"0053":{"zip_code":"4850053","prefecture":"愛知県","prefecture_kana":"アイチケン","city":"小牧市","city_kana":"コマキシ","town":"多気南町","town_kana":"タキミナミマチ","prefecture_code":23},"0055":{"zip_code":"4850055","prefecture":"愛知県","prefecture_kana":"アイチケン","city":"小牧市","city_kana":"コマキシ","town":"多気北町","town_kana":"タキキタマチ","prefecture_code":23},"0029":{"zip_code":"4850029","prefecture":"愛知県","prefecture_kana":"アイチケン","city":"小牧市","city_kana":"コマキシ","town":"中央","town_kana":"チュウオウ","prefecture_code":23},"0008":{"zip_code":"4850008","prefecture":"愛知県","prefecture_kana":"アイチケン","city":"小牧市","city_kana":"コマキシ","town":"寺西","town_kana":"テラニシ","prefecture_code":23},"0824":{"zip_code":"4850824","prefecture":"愛知県","prefecture_kana":"アイチケン","city":"小牧市","city_kana":"コマキシ","town":"長治町","town_kana":"ナガハルチョウ","prefecture_code":23},"0078":{"zip_code":"4850078","prefecture":"愛知県","prefecture_kana":"アイチケン","city":"小牧市","city_kana":"コマキシ","town":"西島町","town_kana":"ニシジマチョウ","prefecture_code":23},"0077":{"zip_code":"4850077","prefecture":"愛知県","prefecture_kana":"アイチケン","city":"小牧市","city_kana":"コマキシ","town":"西之島","town_kana":"ニシノシマ","prefecture_code":23},"0806":{"zip_code":"4850806","prefecture":"愛知県","prefecture_kana":"アイチケン","city":"小牧市","city_kana":"コマキシ","town":"野口","town_kana":"ノグチ","prefecture_code":23},"0805":{"zip_code":"4850805","prefecture":"愛知県","prefecture_kana":"アイチケン","city":"小牧市","city_kana":"コマキシ","town":"林","town_kana":"ハヤシ","prefecture_code":23},"0811":{"zip_code":"4850811","prefecture":"愛知県","prefecture_kana":"アイチケン","city":"小牧市","city_kana":"コマキシ","town":"光ケ丘","town_kana":"ヒカリガオカ","prefecture_code":23},"0831":{"zip_code":"4850831","prefecture":"愛知県","prefecture_kana":"アイチケン","city":"小牧市","city_kana":"コマキシ","town":"東","town_kana":"ヒガシ","prefecture_code":23},"0028":{"zip_code":"4850028","prefecture":"愛知県","prefecture_kana":"アイチケン","city":"小牧市","city_kana":"コマキシ","town":"東新町","town_kana":"ヒガシシンマチ","prefecture_code":23},"0826":{"zip_code":"4850826","prefecture":"愛知県","prefecture_kana":"アイチケン","city":"小牧市","city_kana":"コマキシ","town":"東田中","town_kana":"ヒガシタナカ","prefecture_code":23},"0068":{"zip_code":"4850068","prefecture":"愛知県","prefecture_kana":"アイチケン","city":"小牧市","city_kana":"コマキシ","town":"藤島","town_kana":"フジシマ","prefecture_code":23},"0067":{"zip_code":"4850067","prefecture":"愛知県","prefecture_kana":"アイチケン","city":"小牧市","city_kana":"コマキシ","town":"藤島町居屋敷","town_kana":"フジシマチョウイヤシキ","prefecture_code":23},"0063":{"zip_code":"4850063","prefecture":"愛知県","prefecture_kana":"アイチケン","city":"小牧市","city_kana":"コマキシ","town":"藤島町鏡池","town_kana":"フジシマチョウカガミイケ","prefecture_code":23},"0065":{"zip_code":"4850065","prefecture":"愛知県","prefecture_kana":"アイチケン","city":"小牧市","city_kana":"コマキシ","town":"藤島町五才田","town_kana":"フジシマチョウゴサイデン","prefecture_code":23},"0066":{"zip_code":"4850066","prefecture":"愛知県","prefecture_kana":"アイチケン","city":"小牧市","city_kana":"コマキシ","town":"藤島町出口","town_kana":"フジシマチョウデグチ","prefecture_code":23},"0064":{"zip_code":"4850064","prefecture":"愛知県","prefecture_kana":"アイチケン","city":"小牧市","city_kana":"コマキシ","town":"藤島町徳願寺","town_kana":"フジシマチョウトクガンジ","prefecture_code":23},"0062":{"zip_code":"4850062","prefecture":"愛知県","prefecture_kana":"アイチケン","city":"小牧市","city_kana":"コマキシ","town":"藤島町中島","town_kana":"フジシマチョウナカジマ","prefecture_code":23},"0069":{"zip_code":"4850069","prefecture":"愛知県","prefecture_kana":"アイチケン","city":"小牧市","city_kana":"コマキシ","town":"藤島町梵天","town_kana":"フジシマチョウボンテン","prefecture_code":23},"0061":{"zip_code":"4850061","prefecture":"愛知県","prefecture_kana":"アイチケン","city":"小牧市","city_kana":"コマキシ","town":"藤島町向江","town_kana":"フジシマチョウムカエ","prefecture_code":23},"0021":{"zip_code":"4850021","prefecture":"愛知県","prefecture_kana":"アイチケン","city":"小牧市","city_kana":"コマキシ","town":"二重堀","town_kana":"フタエボリ","prefecture_code":23},"0073":{"zip_code":"4850073","prefecture":"愛知県","prefecture_kana":"アイチケン","city":"小牧市","city_kana":"コマキシ","town":"舟津","town_kana":"フナツ","prefecture_code":23},"0827":{"zip_code":"4850827","prefecture":"愛知県","prefecture_kana":"アイチケン","city":"小牧市","city_kana":"コマキシ","town":"文津","town_kana":"フミツ","prefecture_code":23},"0046":{"zip_code":"4850046","prefecture":"愛知県","prefecture_kana":"アイチケン","city":"小牧市","city_kana":"コマキシ","town":"堀の内","town_kana":"ホリノウチ","prefecture_code":23},"0821":{"zip_code":"4850821","prefecture":"愛知県","prefecture_kana":"アイチケン","city":"小牧市","city_kana":"コマキシ","town":"本庄","town_kana":"ホンジョウ","prefecture_code":23},"0015":{"zip_code":"4850015","prefecture":"愛知県","prefecture_kana":"アイチケン","city":"小牧市","city_kana":"コマキシ","town":"間々","town_kana":"ママ","prefecture_code":23},"0016":{"zip_code":"4850016","prefecture":"愛知県","prefecture_kana":"アイチケン","city":"小牧市","city_kana":"コマキシ","town":"間々原新田","town_kana":"ママハラシンデン","prefecture_code":23},"0048":{"zip_code":"4850048","prefecture":"愛知県","prefecture_kana":"アイチケン","city":"小牧市","city_kana":"コマキシ","town":"間々本町","town_kana":"ママホンマチ","prefecture_code":23},"0075":{"zip_code":"4850075","prefecture":"愛知県","prefecture_kana":"アイチケン","city":"小牧市","city_kana":"コマキシ","town":"三ツ渕","town_kana":"ミツブチ","prefecture_code":23},"0076":{"zip_code":"4850076","prefecture":"愛知県","prefecture_kana":"アイチケン","city":"小牧市","city_kana":"コマキシ","town":"三ツ渕原新田","town_kana":"ミツブチハラシンデン","prefecture_code":23},"0027":{"zip_code":"4850027","prefecture":"愛知県","prefecture_kana":"アイチケン","city":"小牧市","city_kana":"コマキシ","town":"緑町","town_kana":"ミドリマチ","prefecture_code":23},"0024":{"zip_code":"4850024","prefecture":"愛知県","prefecture_kana":"アイチケン","city":"小牧市","city_kana":"コマキシ","town":"南外山","town_kana":"ミナミトヤマ","prefecture_code":23},"0082":{"zip_code":"4850082","prefecture":"愛知県","prefecture_kana":"アイチケン","city":"小牧市","city_kana":"コマキシ","town":"村中","town_kana":"ムラナカ","prefecture_code":23},"0083":{"zip_code":"4850083","prefecture":"愛知県","prefecture_kana":"アイチケン","city":"小牧市","city_kana":"コマキシ","town":"村中新町","town_kana":"ムラナカシンマチ","prefecture_code":23},"0072":{"zip_code":"4850072","prefecture":"愛知県","prefecture_kana":"アイチケン","city":"小牧市","city_kana":"コマキシ","town":"元町","town_kana":"モトマチ","prefecture_code":23},"0813":{"zip_code":"4850813","prefecture":"愛知県","prefecture_kana":"アイチケン","city":"小牧市","city_kana":"コマキシ","town":"桃ケ丘","town_kana":"モモガオカ","prefecture_code":23},"0014":{"zip_code":"4850014","prefecture":"愛知県","prefecture_kana":"アイチケン","city":"小牧市","city_kana":"コマキシ","town":"安田町","town_kana":"ヤスダチョウ","prefecture_code":23},"0049":{"zip_code":"4850049","prefecture":"愛知県","prefecture_kana":"アイチケン","city":"小牧市","city_kana":"コマキシ","town":"山北町","town_kana":"ヤマキタチョウ","prefecture_code":23},"0071":{"zip_code":"4850071","prefecture":"愛知県","prefecture_kana":"アイチケン","city":"小牧市","city_kana":"コマキシ","town":"弥生町","town_kana":"ヤヨイチョウ","prefecture_code":23},"0081":{"zip_code":"4850081","prefecture":"愛知県","prefecture_kana":"アイチケン","city":"小牧市","city_kana":"コマキシ","town":"横内","town_kana":"ヨコウチ","prefecture_code":23},"0002":{"zip_code":"4850002","prefecture":"愛知県","prefecture_kana":"アイチケン","city":"小牧市","city_kana":"コマキシ","town":"葭原","town_kana":"ヨシハラ","prefecture_code":23},"0031":{"zip_code":"4850031","prefecture":"愛知県","prefecture_kana":"アイチケン","city":"小牧市","city_kana":"コマキシ","town":"若草町","town_kana":"ワカクサチョウ","prefecture_code":23}}