{"0000":{"zip_code":"4860000","prefecture":"愛知県","prefecture_kana":"アイチケン","city":"春日井市","city_kana":"カスガイシ","town":"以下に掲載がない場合","town_kana":"イカニケイサイガナイバアイ","prefecture_code":23},"0933":{"zip_code":"4860933","prefecture":"愛知県","prefecture_kana":"アイチケン","city":"春日井市","city_kana":"カスガイシ","town":"愛知町","town_kana":"アイチチョウ","prefecture_code":23},"0929":{"zip_code":"4860929","prefecture":"愛知県","prefecture_kana":"アイチケン","city":"春日井市","city_kana":"カスガイシ","town":"旭町","town_kana":"アサヒマチ","prefecture_code":23},"0846":{"zip_code":"4860846","prefecture":"愛知県","prefecture_kana":"アイチケン","city":"春日井市","city_kana":"カスガイシ","town":"朝宮町","town_kana":"アサミヤチョウ","prefecture_code":23},"0857":{"zip_code":"4860857","prefecture":"愛知県","prefecture_kana":"アイチケン","city":"春日井市","city_kana":"カスガイシ","town":"浅山町","town_kana":"アサヤマチョウ","prefecture_code":23},"0965":{"zip_code":"4860965","prefecture":"愛知県","prefecture_kana":"アイチケン","city":"春日井市","city_kana":"カスガイシ","town":"味美上ノ町","town_kana":"アジヨシカミノチョウ","prefecture_code":23},"0967":{"zip_code":"4860967","prefecture":"愛知県","prefecture_kana":"アイチケン","city":"春日井市","city_kana":"カスガイシ","town":"味美西本町","town_kana":"アジヨシニシホンマチ","prefecture_code":23},"0969":{"zip_code":"4860969","prefecture":"愛知県","prefecture_kana":"アイチケン","city":"春日井市","city_kana":"カスガイシ","town":"味美白山町","town_kana":"アジヨシハクサンチョウ","prefecture_code":23},"0968":{"zip_code":"4860968","prefecture":"愛知県","prefecture_kana":"アイチケン","city":"春日井市","city_kana":"カスガイシ","town":"味美町","town_kana":"アジヨシチョウ","prefecture_code":23},"0853":{"zip_code":"4860853","prefecture":"愛知県","prefecture_kana":"アイチケン","city":"春日井市","city_kana":"カスガイシ","town":"穴橋町","town_kana":"アナハシチョウ","prefecture_code":23},"0905":{"zip_code":"4860905","prefecture":"愛知県","prefecture_kana":"アイチケン","city":"春日井市","city_kana":"カスガイシ","town":"稲口町","town_kana":"イナグチチョウ","prefecture_code":23},"0921":{"zip_code":"4860921","prefecture":"愛知県","prefecture_kana":"アイチケン","city":"春日井市","city_kana":"カスガイシ","town":"杁ケ島町","town_kana":"イリガシマチョウ","prefecture_code":23},"0805":{"zip_code":"4860805","prefecture":"愛知県","prefecture_kana":"アイチケン","city":"春日井市","city_kana":"カスガイシ","town":"岩野町","town_kana":"イワノチョウ","prefecture_code":23},"0901":{"zip_code":"4860901","prefecture":"愛知県","prefecture_kana":"アイチケン","city":"春日井市","city_kana":"カスガイシ","town":"牛山町","town_kana":"ウシヤマチョウ","prefecture_code":23},"0856":{"zip_code":"4860856","prefecture":"愛知県","prefecture_kana":"アイチケン","city":"春日井市","city_kana":"カスガイシ","town":"梅ケ坪町","town_kana":"ウメガツボチョウ","prefecture_code":23},"0834":{"zip_code":"4860834","prefecture":"愛知県","prefecture_kana":"アイチケン","city":"春日井市","city_kana":"カスガイシ","town":"王子町","town_kana":"オウジチョウ","prefecture_code":23},"0806":{"zip_code":"4860806","prefecture":"愛知県","prefecture_kana":"アイチケン","city":"春日井市","city_kana":"カスガイシ","town":"大手田酉町","town_kana":"オオデタトリチョウ","prefecture_code":23},"0807":{"zip_code":"4860807","prefecture":"愛知県","prefecture_kana":"アイチケン","city":"春日井市","city_kana":"カスガイシ","town":"大手町","town_kana":"オオデチョウ","prefecture_code":23},"0827":{"zip_code":"4860827","prefecture":"愛知県","prefecture_kana":"アイチケン","city":"春日井市","city_kana":"カスガイシ","town":"小木田町","town_kana":"オギタチョウ","prefecture_code":23},"0832":{"zip_code":"4860832","prefecture":"愛知県","prefecture_kana":"アイチケン","city":"春日井市","city_kana":"カスガイシ","town":"乙輪町","town_kana":"オトワチョウ","prefecture_code":23},"0926":{"zip_code":"4860926","prefecture":"愛知県","prefecture_kana":"アイチケン","city":"春日井市","city_kana":"カスガイシ","town":"小野町","town_kana":"オノチョウ","prefecture_code":23},"0927":{"zip_code":"4860927","prefecture":"愛知県","prefecture_kana":"アイチケン","city":"春日井市","city_kana":"カスガイシ","town":"柏井町","town_kana":"カシワイチョウ","prefecture_code":23},"0913":{"zip_code":"4860913","prefecture":"愛知県","prefecture_kana":"アイチケン","city":"春日井市","city_kana":"カスガイシ","town":"柏原町","town_kana":"カシハラチョウ","prefecture_code":23},"0961":{"zip_code":"4860961","prefecture":"愛知県","prefecture_kana":"アイチケン","city":"春日井市","city_kana":"カスガイシ","town":"春日井上ノ町","town_kana":"カスガイカミノチョウ","prefecture_code":23},"0963":{"zip_code":"4860963","prefecture":"愛知県","prefecture_kana":"アイチケン","city":"春日井市","city_kana":"カスガイシ","town":"春日井町","town_kana":"カスガイチョウ","prefecture_code":23},"0941":{"zip_code":"4860941","prefecture":"愛知県","prefecture_kana":"アイチケン","city":"春日井市","city_kana":"カスガイシ","town":"勝川新町","town_kana":"カチガワシンマチ","prefecture_code":23},"0945":{"zip_code":"4860945","prefecture":"愛知県","prefecture_kana":"アイチケン","city":"春日井市","city_kana":"カスガイシ","town":"勝川町","town_kana":"カチガワチョウ","prefecture_code":23},"0946":{"zip_code":"4860946","prefecture":"愛知県","prefecture_kana":"アイチケン","city":"春日井市","city_kana":"カスガイシ","town":"勝川町西","town_kana":"カチガワチョウニシ","prefecture_code":23},"0813":{"zip_code":"4860813","prefecture":"愛知県","prefecture_kana":"アイチケン","city":"春日井市","city_kana":"カスガイシ","town":"金ケ口町","town_kana":"カナガグチチョウ","prefecture_code":23},"0801":{"zip_code":"4860801","prefecture":"愛知県","prefecture_kana":"アイチケン","city":"春日井市","city_kana":"カスガイシ","town":"上田楽町","town_kana":"カミタラガチョウ","prefecture_code":23},"0966":{"zip_code":"4860966","prefecture":"愛知県","prefecture_kana":"アイチケン","city":"春日井市","city_kana":"カスガイシ","town":"上ノ町","town_kana":"カミノチョウ","prefecture_code":23},"0858":{"zip_code":"4860858","prefecture":"愛知県","prefecture_kana":"アイチケン","city":"春日井市","city_kana":"カスガイシ","town":"菅大臣町","town_kana":"カンダイジンチョウ","prefecture_code":23},"0814":{"zip_code":"4860814","prefecture":"愛知県","prefecture_kana":"アイチケン","city":"春日井市","city_kana":"カスガイシ","town":"北城町","town_kana":"キタシロチョウ","prefecture_code":23},"0826":{"zip_code":"4860826","prefecture":"愛知県","prefecture_kana":"アイチケン","city":"春日井市","city_kana":"カスガイシ","town":"貴船町","town_kana":"キブネチョウ","prefecture_code":23},"0822":{"zip_code":"4860822","prefecture":"愛知県","prefecture_kana":"アイチケン","city":"春日井市","city_kana":"カスガイシ","town":"熊野町","town_kana":"クマノチョウ","prefecture_code":23},"0820":{"zip_code":"4860820","prefecture":"愛知県","prefecture_kana":"アイチケン","city":"春日井市","city_kana":"カスガイシ","town":"熊野町北","town_kana":"クマノチョウキタ","prefecture_code":23},"0907":{"zip_code":"4860907","prefecture":"愛知県","prefecture_kana":"アイチケン","city":"春日井市","city_kana":"カスガイシ","town":"黒鉾町","town_kana":"クロボコチョウ","prefecture_code":23},"0923":{"zip_code":"4860923","prefecture":"愛知県","prefecture_kana":"アイチケン","city":"春日井市","city_kana":"カスガイシ","town":"下条町","town_kana":"ゲジョウチョウ","prefecture_code":23},"0831":{"zip_code":"4860831","prefecture":"愛知県","prefecture_kana":"アイチケン","city":"春日井市","city_kana":"カスガイシ","town":"ことぶき町","town_kana":"コトブキチョウ","prefecture_code":23},"0823":{"zip_code":"4860823","prefecture":"愛知県","prefecture_kana":"アイチケン","city":"春日井市","city_kana":"カスガイシ","town":"桜佐町","town_kana":"サクラサチョウ","prefecture_code":23},"0851":{"zip_code":"4860851","prefecture":"愛知県","prefecture_kana":"アイチケン","city":"春日井市","city_kana":"カスガイシ","town":"篠木町","town_kana":"シノギチョウ","prefecture_code":23},"0922":{"zip_code":"4860922","prefecture":"愛知県","prefecture_kana":"アイチケン","city":"春日井市","city_kana":"カスガイシ","town":"篠田町","town_kana":"シノダチョウ","prefecture_code":23},"0852":{"zip_code":"4860852","prefecture":"愛知県","prefecture_kana":"アイチケン","city":"春日井市","city_kana":"カスガイシ","town":"下市場町","town_kana":"シモイチバチョウ","prefecture_code":23},"0924":{"zip_code":"4860924","prefecture":"愛知県","prefecture_kana":"アイチケン","city":"春日井市","city_kana":"カスガイシ","town":"下津町","town_kana":"シモツチョウ","prefecture_code":23},"0819":{"zip_code":"4860819","prefecture":"愛知県","prefecture_kana":"アイチケン","city":"春日井市","city_kana":"カスガイシ","town":"下原町","town_kana":"シモハラチョウ","prefecture_code":23},"0906":{"zip_code":"4860906","prefecture":"愛知県","prefecture_kana":"アイチケン","city":"春日井市","city_kana":"カスガイシ","town":"下屋敷町","town_kana":"シモヤシキチョウ","prefecture_code":23},"0815":{"zip_code":"4860815","prefecture":"愛知県","prefecture_kana":"アイチケン","city":"春日井市","city_kana":"カスガイシ","town":"十三塚町","town_kana":"ジュウサンヅカチョウ","prefecture_code":23},"0833":{"zip_code":"4860833","prefecture":"愛知県","prefecture_kana":"アイチケン","city":"春日井市","city_kana":"カスガイシ","town":"上条町","town_kana":"ジョウジョウチョウ","prefecture_code":23},"0902":{"zip_code":"4860902","prefecture":"愛知県","prefecture_kana":"アイチケン","city":"春日井市","city_kana":"カスガイシ","town":"新開町","town_kana":"シンカイチョウ","prefecture_code":23},"0942":{"zip_code":"4860942","prefecture":"愛知県","prefecture_kana":"アイチケン","city":"春日井市","city_kana":"カスガイシ","town":"神明町","town_kana":"シンメイチョウ","prefecture_code":23},"0821":{"zip_code":"4860821","prefecture":"愛知県","prefecture_kana":"アイチケン","city":"春日井市","city_kana":"カスガイシ","town":"神領町","town_kana":"ジンリョウチョウ","prefecture_code":23},"0830":{"zip_code":"4860830","prefecture":"愛知県","prefecture_kana":"アイチケン","city":"春日井市","city_kana":"カスガイシ","town":"神領町北","town_kana":"ジンリョウチョウキタ","prefecture_code":23},"0855":{"zip_code":"4860855","prefecture":"愛知県","prefecture_kana":"アイチケン","city":"春日井市","city_kana":"カスガイシ","town":"関田町","town_kana":"セキダチョウ","prefecture_code":23},"0949":{"zip_code":"4860949","prefecture":"愛知県","prefecture_kana":"アイチケン","city":"春日井市","city_kana":"カスガイシ","town":"惣中町","town_kana":"ソウナカチョウ","prefecture_code":23},"0964":{"zip_code":"4860964","prefecture":"愛知県","prefecture_kana":"アイチケン","city":"春日井市","city_kana":"カスガイシ","town":"宗法町","town_kana":"ソウホウチョウ","prefecture_code":23},"0812":{"zip_code":"4860812","prefecture":"愛知県","prefecture_kana":"アイチケン","city":"春日井市","city_kana":"カスガイシ","town":"大泉寺町","town_kana":"ダイセンジチョウ","prefecture_code":23},"0804":{"zip_code":"4860804","prefecture":"愛知県","prefecture_kana":"アイチケン","city":"春日井市","city_kana":"カスガイシ","town":"鷹来町","town_kana":"タカキチョウ","prefecture_code":23},"0912":{"zip_code":"4860912","prefecture":"愛知県","prefecture_kana":"アイチケン","city":"春日井市","city_kana":"カスガイシ","town":"高山町","town_kana":"タカヤマチョウ","prefecture_code":23},"0808":{"zip_code":"4860808","prefecture":"愛知県","prefecture_kana":"アイチケン","city":"春日井市","city_kana":"カスガイシ","town":"田楽町","town_kana":"タラガチョウ","prefecture_code":23},"0947":{"zip_code":"4860947","prefecture":"愛知県","prefecture_kana":"アイチケン","city":"春日井市","city_kana":"カスガイシ","town":"知多町","town_kana":"チタチョウ","prefecture_code":23},"0825":{"zip_code":"4860825","prefecture":"愛知県","prefecture_kana":"アイチケン","city":"春日井市","city_kana":"カスガイシ","town":"中央通","town_kana":"チュウオウドオリ","prefecture_code":23},"0936":{"zip_code":"4860936","prefecture":"愛知県","prefecture_kana":"アイチケン","city":"春日井市","city_kana":"カスガイシ","town":"町田町","town_kana":"チョウダチョウ","prefecture_code":23},"0952":{"zip_code":"4860952","prefecture":"愛知県","prefecture_kana":"アイチケン","city":"春日井市","city_kana":"カスガイシ","town":"追進町","town_kana":"ツイシンチョウ","prefecture_code":23},"0835":{"zip_code":"4860835","prefecture":"愛知県","prefecture_kana":"アイチケン","city":"春日井市","city_kana":"カスガイシ","town":"月見町","town_kana":"ツキミチョウ","prefecture_code":23},"0943":{"zip_code":"4860943","prefecture":"愛知県","prefecture_kana":"アイチケン","city":"春日井市","city_kana":"カスガイシ","town":"角崎町","town_kana":"ツノサキチョウ","prefecture_code":23},"0948":{"zip_code":"4860948","prefecture":"愛知県","prefecture_kana":"アイチケン","city":"春日井市","city_kana":"カスガイシ","town":"天神町","town_kana":"テンジンチョウ","prefecture_code":23},"0844":{"zip_code":"4860844","prefecture":"愛知県","prefecture_kana":"アイチケン","city":"春日井市","city_kana":"カスガイシ","town":"鳥居松町","town_kana":"トリイマツチョウ","prefecture_code":23},"0925":{"zip_code":"4860925","prefecture":"愛知県","prefecture_kana":"アイチケン","city":"春日井市","city_kana":"カスガイシ","town":"中切町","town_kana":"ナカギリチョウ","prefecture_code":23},"0956":{"zip_code":"4860956","prefecture":"愛知県","prefecture_kana":"アイチケン","city":"春日井市","city_kana":"カスガイシ","town":"中新町","town_kana":"ナカシンチョウ","prefecture_code":23},"0957":{"zip_code":"4860957","prefecture":"愛知県","prefecture_kana":"アイチケン","city":"春日井市","city_kana":"カスガイシ","town":"中野町","town_kana":"ナカノチョウ","prefecture_code":23},"0962":{"zip_code":"4860962","prefecture":"愛知県","prefecture_kana":"アイチケン","city":"春日井市","city_kana":"カスガイシ","town":"中町","town_kana":"ナカマチ","prefecture_code":23},"0934":{"zip_code":"4860934","prefecture":"愛知県","prefecture_kana":"アイチケン","city":"春日井市","city_kana":"カスガイシ","town":"長塚町","town_kana":"ナガツカチョウ","prefecture_code":23},"0911":{"zip_code":"4860911","prefecture":"愛知県","prefecture_kana":"アイチケン","city":"春日井市","city_kana":"カスガイシ","town":"西高山町","town_kana":"ニシタカヤマチョウ","prefecture_code":23},"0958":{"zip_code":"4860958","prefecture":"愛知県","prefecture_kana":"アイチケン","city":"春日井市","city_kana":"カスガイシ","town":"西本町","town_kana":"ニシホンマチ","prefecture_code":23},"0908":{"zip_code":"4860908","prefecture":"愛知県","prefecture_kana":"アイチケン","city":"春日井市","city_kana":"カスガイシ","town":"西屋町","town_kana":"ニシヤチョウ","prefecture_code":23},"0803":{"zip_code":"4860803","prefecture":"愛知県","prefecture_kana":"アイチケン","city":"春日井市","city_kana":"カスガイシ","town":"西山町","town_kana":"ニシヤマチョウ","prefecture_code":23},"0918":{"zip_code":"4860918","prefecture":"愛知県","prefecture_kana":"アイチケン","city":"春日井市","city_kana":"カスガイシ","town":"如意申町","town_kana":"ニョイサルチョウ","prefecture_code":23},"0915":{"zip_code":"4860915","prefecture":"愛知県","prefecture_kana":"アイチケン","city":"春日井市","city_kana":"カスガイシ","town":"八幡町","town_kana":"ハチマンチョウ","prefecture_code":23},"0916":{"zip_code":"4860916","prefecture":"愛知県","prefecture_kana":"アイチケン","city":"春日井市","city_kana":"カスガイシ","town":"八光町","town_kana":"ハッコウチョウ","prefecture_code":23},"0849":{"zip_code":"4860849","prefecture":"愛知県","prefecture_kana":"アイチケン","city":"春日井市","city_kana":"カスガイシ","town":"八田町","town_kana":"ハッタチョウ","prefecture_code":23},"0951":{"zip_code":"4860951","prefecture":"愛知県","prefecture_kana":"アイチケン","city":"春日井市","city_kana":"カスガイシ","town":"花長町","town_kana":"ハナオサチョウ","prefecture_code":23},"0854":{"zip_code":"4860854","prefecture":"愛知県","prefecture_kana":"アイチケン","city":"春日井市","city_kana":"カスガイシ","town":"林島町","town_kana":"ハヤシジマチョウ","prefecture_code":23},"0837":{"zip_code":"4860837","prefecture":"愛知県","prefecture_kana":"アイチケン","city":"春日井市","city_kana":"カスガイシ","town":"春見町","town_kana":"ハルミチョウ","prefecture_code":23},"0816":{"zip_code":"4860816","prefecture":"愛知県","prefecture_kana":"アイチケン","city":"春日井市","city_kana":"カスガイシ","town":"東野新町","town_kana":"ヒガシノシンマチ","prefecture_code":23},"0817":{"zip_code":"4860817","prefecture":"愛知県","prefecture_kana":"アイチケン","city":"春日井市","city_kana":"カスガイシ","town":"東野町","town_kana":"ヒガシノチョウ","prefecture_code":23},"0818":{"zip_code":"4860818","prefecture":"愛知県","prefecture_kana":"アイチケン","city":"春日井市","city_kana":"カスガイシ","town":"東野町西","town_kana":"ヒガシノチョウニシ","prefecture_code":23},"0811":{"zip_code":"4860811","prefecture":"愛知県","prefecture_kana":"アイチケン","city":"春日井市","city_kana":"カスガイシ","town":"東山町","town_kana":"ヒガシヤマチョウ","prefecture_code":23},"0955":{"zip_code":"4860955","prefecture":"愛知県","prefecture_kana":"アイチケン","city":"春日井市","city_kana":"カスガイシ","town":"二子町","town_kana":"フタゴチョウ","prefecture_code":23},"0937":{"zip_code":"4860937","prefecture":"愛知県","prefecture_kana":"アイチケン","city":"春日井市","city_kana":"カスガイシ","town":"細木町","town_kana":"ホソキチョウ","prefecture_code":23},"0829":{"zip_code":"4860829","prefecture":"愛知県","prefecture_kana":"アイチケン","city":"春日井市","city_kana":"カスガイシ","town":"堀ノ内町","town_kana":"ホリノウチチョウ","prefecture_code":23},"0828":{"zip_code":"4860828","prefecture":"愛知県","prefecture_kana":"アイチケン","city":"春日井市","city_kana":"カスガイシ","town":"堀ノ内町北","town_kana":"ホリノウチチョウキタ","prefecture_code":23},"0903":{"zip_code":"4860903","prefecture":"愛知県","prefecture_kana":"アイチケン","city":"春日井市","city_kana":"カスガイシ","town":"前並町","town_kana":"マエナミチョウ","prefecture_code":23},"0809":{"zip_code":"4860809","prefecture":"愛知県","prefecture_kana":"アイチケン","city":"春日井市","city_kana":"カスガイシ","town":"町屋町","town_kana":"マチヤチョウ","prefecture_code":23},"0932":{"zip_code":"4860932","prefecture":"愛知県","prefecture_kana":"アイチケン","city":"春日井市","city_kana":"カスガイシ","town":"松河戸町","town_kana":"マツカワドチョウ","prefecture_code":23},"0931":{"zip_code":"4860931","prefecture":"愛知県","prefecture_kana":"アイチケン","city":"春日井市","city_kana":"カスガイシ","town":"松新町","town_kana":"マツシンチョウ","prefecture_code":23},"0845":{"zip_code":"4860845","prefecture":"愛知県","prefecture_kana":"アイチケン","city":"春日井市","city_kana":"カスガイシ","town":"瑞穂通","town_kana":"ミズホドオリ","prefecture_code":23},"0841":{"zip_code":"4860841","prefecture":"愛知県","prefecture_kana":"アイチケン","city":"春日井市","city_kana":"カスガイシ","town":"南下原町","town_kana":"ミナミシモハラチョウ","prefecture_code":23},"0954":{"zip_code":"4860954","prefecture":"愛知県","prefecture_kana":"アイチケン","city":"春日井市","city_kana":"カスガイシ","town":"南花長町","town_kana":"ミナミハナオサチョウ","prefecture_code":23},"0917":{"zip_code":"4860917","prefecture":"愛知県","prefecture_kana":"アイチケン","city":"春日井市","city_kana":"カスガイシ","town":"美濃町","town_kana":"ミノマチ","prefecture_code":23},"0904":{"zip_code":"4860904","prefecture":"愛知県","prefecture_kana":"アイチケン","city":"春日井市","city_kana":"カスガイシ","town":"宮町","town_kana":"ミヤマチ","prefecture_code":23},"0953":{"zip_code":"4860953","prefecture":"愛知県","prefecture_kana":"アイチケン","city":"春日井市","city_kana":"カスガイシ","town":"御幸町","town_kana":"ミユキチョウ","prefecture_code":23},"0928":{"zip_code":"4860928","prefecture":"愛知県","prefecture_kana":"アイチケン","city":"春日井市","city_kana":"カスガイシ","town":"妙慶町","town_kana":"ミョウケイチョウ","prefecture_code":23},"0802":{"zip_code":"4860802","prefecture":"愛知県","prefecture_kana":"アイチケン","city":"春日井市","city_kana":"カスガイシ","town":"桃山町","town_kana":"モモヤマチョウ","prefecture_code":23},"0935":{"zip_code":"4860935","prefecture":"愛知県","prefecture_kana":"アイチケン","city":"春日井市","city_kana":"カスガイシ","town":"森山田町","town_kana":"モリヤマダチョウ","prefecture_code":23},"0836":{"zip_code":"4860836","prefecture":"愛知県","prefecture_kana":"アイチケン","city":"春日井市","city_kana":"カスガイシ","town":"八事町","town_kana":"ヤゴトチョウ","prefecture_code":23},"0944":{"zip_code":"4860944","prefecture":"愛知県","prefecture_kana":"アイチケン","city":"春日井市","city_kana":"カスガイシ","town":"大和通","town_kana":"ヤマトドオリ","prefecture_code":23},"0838":{"zip_code":"4860838","prefecture":"愛知県","prefecture_kana":"アイチケン","city":"春日井市","city_kana":"カスガイシ","town":"弥生町","town_kana":"ヤヨイチョウ","prefecture_code":23},"0909":{"zip_code":"4860909","prefecture":"愛知県","prefecture_kana":"アイチケン","city":"春日井市","city_kana":"カスガイシ","town":"四ツ家町","town_kana":"ヨツヤチョウ","prefecture_code":23},"0842":{"zip_code":"4860842","prefecture":"愛知県","prefecture_kana":"アイチケン","city":"春日井市","city_kana":"カスガイシ","town":"六軒屋町","town_kana":"ロッケンヤチョウ","prefecture_code":23},"0839":{"zip_code":"4860839","prefecture":"愛知県","prefecture_kana":"アイチケン","city":"春日井市","city_kana":"カスガイシ","town":"六軒屋町西","town_kana":"ロッケンヤチョウニシ","prefecture_code":23},"0914":{"zip_code":"4860914","prefecture":"愛知県","prefecture_kana":"アイチケン","city":"春日井市","city_kana":"カスガイシ","town":"若草通","town_kana":"ワカクサドオリ","prefecture_code":23},"0824":{"zip_code":"4860824","prefecture":"愛知県","prefecture_kana":"アイチケン","city":"春日井市","city_kana":"カスガイシ","town":"割塚町","town_kana":"ワリヅカチョウ","prefecture_code":23}}