{"0000":{"zip_code":"4880000","prefecture":"愛知県","prefecture_kana":"アイチケン","city":"尾張旭市","city_kana":"オワリアサヒシ","town":"以下に掲載がない場合","town_kana":"イカニケイサイガナイバアイ","prefecture_code":23},"0083":{"zip_code":"4880083","prefecture":"愛知県","prefecture_kana":"アイチケン","city":"尾張旭市","city_kana":"オワリアサヒシ","town":"旭ケ丘町旭ケ丘","town_kana":"アサヒガオカチョウアサヒガオカ","prefecture_code":23},"0086":{"zip_code":"4880086","prefecture":"愛知県","prefecture_kana":"アイチケン","city":"尾張旭市","city_kana":"オワリアサヒシ","town":"旭ケ丘町長洞","town_kana":"アサヒガオカチョウナガボラ","prefecture_code":23},"0085":{"zip_code":"4880085","prefecture":"愛知県","prefecture_kana":"アイチケン","city":"尾張旭市","city_kana":"オワリアサヒシ","town":"旭ケ丘町濁池","town_kana":"アサヒガオカチョウニゴリイケ","prefecture_code":23},"0082":{"zip_code":"4880082","prefecture":"愛知県","prefecture_kana":"アイチケン","city":"尾張旭市","city_kana":"オワリアサヒシ","town":"旭ケ丘町森","town_kana":"アサヒガオカチョウモリ","prefecture_code":23},"0084":{"zip_code":"4880084","prefecture":"愛知県","prefecture_kana":"アイチケン","city":"尾張旭市","city_kana":"オワリアサヒシ","town":"旭ケ丘町山の手","town_kana":"アサヒガオカチョウヤマノテ","prefecture_code":23},"0001":{"zip_code":"4880001","prefecture":"愛知県","prefecture_kana":"アイチケン","city":"尾張旭市","city_kana":"オワリアサヒシ","town":"旭台","town_kana":"アサヒダイ","prefecture_code":23},"0852":{"zip_code":"4880852","prefecture":"愛知県","prefecture_kana":"アイチケン","city":"尾張旭市","city_kana":"オワリアサヒシ","town":"旭前町新田洞","town_kana":"アサヒマエチョウシンデンボラ","prefecture_code":23},"0854":{"zip_code":"4880854","prefecture":"愛知県","prefecture_kana":"アイチケン","city":"尾張旭市","city_kana":"オワリアサヒシ","town":"旭前町西新田","town_kana":"アサヒマエチョウニシシンデン","prefecture_code":23},"0853":{"zip_code":"4880853","prefecture":"愛知県","prefecture_kana":"アイチケン","city":"尾張旭市","city_kana":"オワリアサヒシ","town":"旭前町広久手","town_kana":"アサヒマエチョウヒロクテ","prefecture_code":23},"0851":{"zip_code":"4880851","prefecture":"愛知県","prefecture_kana":"アイチケン","city":"尾張旭市","city_kana":"オワリアサヒシ","town":"旭前町北","town_kana":"アサヒマエチョウキタ","prefecture_code":23},"0081":{"zip_code":"4880081","prefecture":"愛知県","prefecture_kana":"アイチケン","city":"尾張旭市","city_kana":"オワリアサヒシ","town":"新居","town_kana":"アライ","prefecture_code":23},"0079":{"zip_code":"4880079","prefecture":"愛知県","prefecture_kana":"アイチケン","city":"尾張旭市","city_kana":"オワリアサヒシ","town":"新居町今池下","town_kana":"アライチョウイマイケシタ","prefecture_code":23},"0073":{"zip_code":"4880073","prefecture":"愛知県","prefecture_kana":"アイチケン","city":"尾張旭市","city_kana":"オワリアサヒシ","town":"新居町上の田","town_kana":"アライチョウカミノタ","prefecture_code":23},"0075":{"zip_code":"4880075","prefecture":"愛知県","prefecture_kana":"アイチケン","city":"尾張旭市","city_kana":"オワリアサヒシ","town":"新居町木の本","town_kana":"アライチョウキノモト","prefecture_code":23},"0070":{"zip_code":"4880070","prefecture":"愛知県","prefecture_kana":"アイチケン","city":"尾張旭市","city_kana":"オワリアサヒシ","town":"新居町五反田","town_kana":"アライチョウゴタンダ","prefecture_code":23},"0071":{"zip_code":"4880071","prefecture":"愛知県","prefecture_kana":"アイチケン","city":"尾張旭市","city_kana":"オワリアサヒシ","town":"新居町下切戸","town_kana":"アライチョウシモキリド","prefecture_code":23},"0072":{"zip_code":"4880072","prefecture":"愛知県","prefecture_kana":"アイチケン","city":"尾張旭市","city_kana":"オワリアサヒシ","town":"新居町諏訪南","town_kana":"アライチョウスワミナミ","prefecture_code":23},"0078":{"zip_code":"4880078","prefecture":"愛知県","prefecture_kana":"アイチケン","city":"尾張旭市","city_kana":"オワリアサヒシ","town":"新居町寺田","town_kana":"アライチョウテラダ","prefecture_code":23},"0077":{"zip_code":"4880077","prefecture":"愛知県","prefecture_kana":"アイチケン","city":"尾張旭市","city_kana":"オワリアサヒシ","town":"新居町西浦","town_kana":"アライチョウニシウラ","prefecture_code":23},"0074":{"zip_code":"4880074","prefecture":"愛知県","prefecture_kana":"アイチケン","city":"尾張旭市","city_kana":"オワリアサヒシ","town":"新居町明才切","town_kana":"アライチョウメイサイギリ","prefecture_code":23},"0076":{"zip_code":"4880076","prefecture":"愛知県","prefecture_kana":"アイチケン","city":"尾張旭市","city_kana":"オワリアサヒシ","town":"新居町山の田","town_kana":"アライチョウヤマノタ","prefecture_code":23},"0024":{"zip_code":"4880024","prefecture":"愛知県","prefecture_kana":"アイチケン","city":"尾張旭市","city_kana":"オワリアサヒシ","town":"井田町","town_kana":"イダチョウ","prefecture_code":23},"0054":{"zip_code":"4880054","prefecture":"愛知県","prefecture_kana":"アイチケン","city":"尾張旭市","city_kana":"オワリアサヒシ","town":"稲葉町","town_kana":"イナバチョウ","prefecture_code":23},"0840":{"zip_code":"4880840","prefecture":"愛知県","prefecture_kana":"アイチケン","city":"尾張旭市","city_kana":"オワリアサヒシ","town":"印場元町","town_kana":"インバモトチョウ","prefecture_code":23},"0842":{"zip_code":"4880842","prefecture":"愛知県","prefecture_kana":"アイチケン","city":"尾張旭市","city_kana":"オワリアサヒシ","town":"印場元町北島","town_kana":"インバモトチョウキタジマ","prefecture_code":23},"0841":{"zip_code":"4880841","prefecture":"愛知県","prefecture_kana":"アイチケン","city":"尾張旭市","city_kana":"オワリアサヒシ","town":"印場元町北山","town_kana":"インバモトチョウキタヤマ","prefecture_code":23},"0843":{"zip_code":"4880843","prefecture":"愛知県","prefecture_kana":"アイチケン","city":"尾張旭市","city_kana":"オワリアサヒシ","town":"印場元町細田","town_kana":"インバモトチョウホソダ","prefecture_code":23},"0035":{"zip_code":"4880035","prefecture":"愛知県","prefecture_kana":"アイチケン","city":"尾張旭市","city_kana":"オワリアサヒシ","town":"上の山町間口","town_kana":"ウエノヤマチョウマグチ","prefecture_code":23},"0034":{"zip_code":"4880034","prefecture":"愛知県","prefecture_kana":"アイチケン","city":"尾張旭市","city_kana":"オワリアサヒシ","town":"上の山町山畑","town_kana":"ウエノヤマチョウヤマハタ","prefecture_code":23},"0004":{"zip_code":"4880004","prefecture":"愛知県","prefecture_kana":"アイチケン","city":"尾張旭市","city_kana":"オワリアサヒシ","town":"大久手町一の曾","town_kana":"オオクテチョウイチノソウ","prefecture_code":23},"0005":{"zip_code":"4880005","prefecture":"愛知県","prefecture_kana":"アイチケン","city":"尾張旭市","city_kana":"オワリアサヒシ","town":"大久手町上切戸","town_kana":"オオクテチョウカミキリド","prefecture_code":23},"0006":{"zip_code":"4880006","prefecture":"愛知県","prefecture_kana":"アイチケン","city":"尾張旭市","city_kana":"オワリアサヒシ","town":"大久手町中松原","town_kana":"オオクテチョウナカマツバラ","prefecture_code":23},"0826":{"zip_code":"4880826","prefecture":"愛知県","prefecture_kana":"アイチケン","city":"尾張旭市","city_kana":"オワリアサヒシ","town":"大塚町","town_kana":"オオツカチョウ","prefecture_code":23},"0008":{"zip_code":"4880008","prefecture":"愛知県","prefecture_kana":"アイチケン","city":"尾張旭市","city_kana":"オワリアサヒシ","town":"柏井町弥栄","town_kana":"カシワイチョウイヤサカ","prefecture_code":23},"0007":{"zip_code":"4880007","prefecture":"愛知県","prefecture_kana":"アイチケン","city":"尾張旭市","city_kana":"オワリアサヒシ","town":"柏井町公園通","town_kana":"カシワイチョウコウエンドオリ","prefecture_code":23},"0846":{"zip_code":"4880846","prefecture":"愛知県","prefecture_kana":"アイチケン","city":"尾張旭市","city_kana":"オワリアサヒシ","town":"霞ケ丘町中","town_kana":"カスミガオカチョウナカ","prefecture_code":23},"0845":{"zip_code":"4880845","prefecture":"愛知県","prefecture_kana":"アイチケン","city":"尾張旭市","city_kana":"オワリアサヒシ","town":"霞ケ丘町南","town_kana":"カスミガオカチョウミナミ","prefecture_code":23},"0847":{"zip_code":"4880847","prefecture":"愛知県","prefecture_kana":"アイチケン","city":"尾張旭市","city_kana":"オワリアサヒシ","town":"霞ケ丘町北","town_kana":"カスミガオカチョウキタ","prefecture_code":23},"0022":{"zip_code":"4880022","prefecture":"愛知県","prefecture_kana":"アイチケン","city":"尾張旭市","city_kana":"オワリアサヒシ","town":"狩宿新町","town_kana":"カリジュクシンチョウ","prefecture_code":23},"0021":{"zip_code":"4880021","prefecture":"愛知県","prefecture_kana":"アイチケン","city":"尾張旭市","city_kana":"オワリアサヒシ","town":"狩宿町","town_kana":"カリジュクチョウ","prefecture_code":23},"0065":{"zip_code":"4880065","prefecture":"愛知県","prefecture_kana":"アイチケン","city":"尾張旭市","city_kana":"オワリアサヒシ","town":"北原山町大久保見","town_kana":"キタハラヤマチョウオオクボミ","prefecture_code":23},"0063":{"zip_code":"4880063","prefecture":"愛知県","prefecture_kana":"アイチケン","city":"尾張旭市","city_kana":"オワリアサヒシ","town":"北原山町陀摩屋敷","town_kana":"キタハラヤマチョウダマヤシキ","prefecture_code":23},"0064":{"zip_code":"4880064","prefecture":"愛知県","prefecture_kana":"アイチケン","city":"尾張旭市","city_kana":"オワリアサヒシ","town":"北原山町鳴湫","town_kana":"キタハラヤマチョウナルクテ","prefecture_code":23},"0062":{"zip_code":"4880062","prefecture":"愛知県","prefecture_kana":"アイチケン","city":"尾張旭市","city_kana":"オワリアサヒシ","town":"北原山町平池浦","town_kana":"キタハラヤマチョウヒライケウラ","prefecture_code":23},"0061":{"zip_code":"4880061","prefecture":"愛知県","prefecture_kana":"アイチケン","city":"尾張旭市","city_kana":"オワリアサヒシ","town":"北原山町六田池","town_kana":"キタハラヤマチョウムタイケ","prefecture_code":23},"0043":{"zip_code":"4880043","prefecture":"愛知県","prefecture_kana":"アイチケン","city":"尾張旭市","city_kana":"オワリアサヒシ","town":"北本地ケ原町","town_kana":"キタホンジガハラチョウ","prefecture_code":23},"0057":{"zip_code":"4880057","prefecture":"愛知県","prefecture_kana":"アイチケン","city":"尾張旭市","city_kana":"オワリアサヒシ","town":"北山町北新田","town_kana":"キタヤマチョウキタシンデン","prefecture_code":23},"0056":{"zip_code":"4880056","prefecture":"愛知県","prefecture_kana":"アイチケン","city":"尾張旭市","city_kana":"オワリアサヒシ","town":"北山町北山","town_kana":"キタヤマチョウキタヤマ","prefecture_code":23},"0055":{"zip_code":"4880055","prefecture":"愛知県","prefecture_kana":"アイチケン","city":"尾張旭市","city_kana":"オワリアサヒシ","town":"北山町六反田","town_kana":"キタヤマチョウロクタンダ","prefecture_code":23},"0859":{"zip_code":"4880859","prefecture":"愛知県","prefecture_kana":"アイチケン","city":"尾張旭市","city_kana":"オワリアサヒシ","town":"桜ケ丘町","town_kana":"サクラガオカチョウ","prefecture_code":23},"0857":{"zip_code":"4880857","prefecture":"愛知県","prefecture_kana":"アイチケン","city":"尾張旭市","city_kana":"オワリアサヒシ","town":"桜ケ丘町西","town_kana":"サクラガオカチョウニシ","prefecture_code":23},"0015":{"zip_code":"4880015","prefecture":"愛知県","prefecture_kana":"アイチケン","city":"尾張旭市","city_kana":"オワリアサヒシ","town":"三郷町栄","town_kana":"サンゴウチョウサカエ","prefecture_code":23},"0012":{"zip_code":"4880012","prefecture":"愛知県","prefecture_kana":"アイチケン","city":"尾張旭市","city_kana":"オワリアサヒシ","town":"三郷町角田","town_kana":"サンゴウチョウツノダ","prefecture_code":23},"0016":{"zip_code":"4880016","prefecture":"愛知県","prefecture_kana":"アイチケン","city":"尾張旭市","city_kana":"オワリアサヒシ","town":"三郷町陶栄","town_kana":"サンゴウチョウトウエイ","prefecture_code":23},"0013":{"zip_code":"4880013","prefecture":"愛知県","prefecture_kana":"アイチケン","city":"尾張旭市","city_kana":"オワリアサヒシ","town":"三郷町富丘","town_kana":"サンゴウチョウトミオカ","prefecture_code":23},"0014":{"zip_code":"4880014","prefecture":"愛知県","prefecture_kana":"アイチケン","city":"尾張旭市","city_kana":"オワリアサヒシ","town":"三郷町中井田","town_kana":"サンゴウチョウナカイダ","prefecture_code":23},"0839":{"zip_code":"4880839","prefecture":"愛知県","prefecture_kana":"アイチケン","city":"尾張旭市","city_kana":"オワリアサヒシ","town":"渋川町","town_kana":"シブカワチョウ","prefecture_code":23},"0052":{"zip_code":"4880052","prefecture":"愛知県","prefecture_kana":"アイチケン","city":"尾張旭市","city_kana":"オワリアサヒシ","town":"下井町下井","town_kana":"シモイチョウシモイ","prefecture_code":23},"0053":{"zip_code":"4880053","prefecture":"愛知県","prefecture_kana":"アイチケン","city":"尾張旭市","city_kana":"オワリアサヒシ","town":"下井町刎内","town_kana":"シモイチョウハネウチ","prefecture_code":23},"0051":{"zip_code":"4880051","prefecture":"愛知県","prefecture_kana":"アイチケン","city":"尾張旭市","city_kana":"オワリアサヒシ","town":"下井町前の上","town_kana":"シモイチョウマエノカミ","prefecture_code":23},"0838":{"zip_code":"4880838","prefecture":"愛知県","prefecture_kana":"アイチケン","city":"尾張旭市","city_kana":"オワリアサヒシ","town":"庄中町","town_kana":"ショウナカチョウ","prefecture_code":23},"0836":{"zip_code":"4880836","prefecture":"愛知県","prefecture_kana":"アイチケン","city":"尾張旭市","city_kana":"オワリアサヒシ","town":"庄中町渋川","town_kana":"ショウナカチョウシブカワ","prefecture_code":23},"0835":{"zip_code":"4880835","prefecture":"愛知県","prefecture_kana":"アイチケン","city":"尾張旭市","city_kana":"オワリアサヒシ","town":"庄中町南島","town_kana":"ショウナカチョウミナミジマ","prefecture_code":23},"0823":{"zip_code":"4880823","prefecture":"愛知県","prefecture_kana":"アイチケン","city":"尾張旭市","city_kana":"オワリアサヒシ","town":"庄南町","town_kana":"ショウナンチョウ","prefecture_code":23},"0863":{"zip_code":"4880863","prefecture":"愛知県","prefecture_kana":"アイチケン","city":"尾張旭市","city_kana":"オワリアサヒシ","town":"城前町上大道","town_kana":"シロマエチョウカミダイドウ","prefecture_code":23},"0861":{"zip_code":"4880861","prefecture":"愛知県","prefecture_kana":"アイチケン","city":"尾張旭市","city_kana":"オワリアサヒシ","town":"城前町城前","town_kana":"シロマエチョウシロマエ","prefecture_code":23},"0865":{"zip_code":"4880865","prefecture":"愛知県","prefecture_kana":"アイチケン","city":"尾張旭市","city_kana":"オワリアサヒシ","town":"城前町砂川","town_kana":"シロマエチョウスガワ","prefecture_code":23},"0866":{"zip_code":"4880866","prefecture":"愛知県","prefecture_kana":"アイチケン","city":"尾張旭市","city_kana":"オワリアサヒシ","town":"城前町茅池","town_kana":"シロマエチョウチガイケ","prefecture_code":23},"0864":{"zip_code":"4880864","prefecture":"愛知県","prefecture_kana":"アイチケン","city":"尾張旭市","city_kana":"オワリアサヒシ","town":"城前町八瀬の木西","town_kana":"シロマエチョウヤセノキニシ","prefecture_code":23},"0884":{"zip_code":"4880884","prefecture":"愛知県","prefecture_kana":"アイチケン","city":"尾張旭市","city_kana":"オワリアサヒシ","town":"城山町城山","town_kana":"シロヤマチョウシロヤマ","prefecture_code":23},"0883":{"zip_code":"4880883","prefecture":"愛知県","prefecture_kana":"アイチケン","city":"尾張旭市","city_kana":"オワリアサヒシ","town":"城山町長池下","town_kana":"シロヤマチョウナガイケシモ","prefecture_code":23},"0881":{"zip_code":"4880881","prefecture":"愛知県","prefecture_kana":"アイチケン","city":"尾張旭市","city_kana":"オワリアサヒシ","town":"城山町三ツ池","town_kana":"シロヤマチョウミツイケ","prefecture_code":23},"0882":{"zip_code":"4880882","prefecture":"愛知県","prefecture_kana":"アイチケン","city":"尾張旭市","city_kana":"オワリアサヒシ","town":"城山町向ケ丘","town_kana":"シロヤマチョウムコウガオカ","prefecture_code":23},"0023":{"zip_code":"4880023","prefecture":"愛知県","prefecture_kana":"アイチケン","city":"尾張旭市","city_kana":"オワリアサヒシ","town":"瀬戸川町","town_kana":"セトガワチョウ","prefecture_code":23},"0011":{"zip_code":"4880011","prefecture":"愛知県","prefecture_kana":"アイチケン","city":"尾張旭市","city_kana":"オワリアサヒシ","town":"東栄町","town_kana":"トウエイチョウ","prefecture_code":23},"0844":{"zip_code":"4880844","prefecture":"愛知県","prefecture_kana":"アイチケン","city":"尾張旭市","city_kana":"オワリアサヒシ","town":"東名西町","town_kana":"トウメイニシチョウ","prefecture_code":23},"0821":{"zip_code":"4880821","prefecture":"愛知県","prefecture_kana":"アイチケン","city":"尾張旭市","city_kana":"オワリアサヒシ","town":"長坂町南山","town_kana":"ナガサカチョウミナミヤマ","prefecture_code":23},"0813":{"zip_code":"4880813","prefecture":"愛知県","prefecture_kana":"アイチケン","city":"尾張旭市","city_kana":"オワリアサヒシ","town":"西大道町五輪塚","town_kana":"ニシダイドウチョウゴリンヅカ","prefecture_code":23},"0816":{"zip_code":"4880816","prefecture":"愛知県","prefecture_kana":"アイチケン","city":"尾張旭市","city_kana":"オワリアサヒシ","town":"西大道町下大道","town_kana":"ニシダイドウチョウシモダイドウ","prefecture_code":23},"0814":{"zip_code":"4880814","prefecture":"愛知県","prefecture_kana":"アイチケン","city":"尾張旭市","city_kana":"オワリアサヒシ","town":"西大道町前田","town_kana":"ニシダイドウチョウマエダ","prefecture_code":23},"0817":{"zip_code":"4880817","prefecture":"愛知県","prefecture_kana":"アイチケン","city":"尾張旭市","city_kana":"オワリアサヒシ","town":"西大道町八瀬の木前","town_kana":"ニシダイドウチョウヤセノキマエ","prefecture_code":23},"0815":{"zip_code":"4880815","prefecture":"愛知県","prefecture_kana":"アイチケン","city":"尾張旭市","city_kana":"オワリアサヒシ","town":"西大道町六兵衛前","town_kana":"ニシダイドウチョウロクベエマエ","prefecture_code":23},"0804":{"zip_code":"4880804","prefecture":"愛知県","prefecture_kana":"アイチケン","city":"尾張旭市","city_kana":"オワリアサヒシ","town":"西の野町","town_kana":"ニシノノチョウ","prefecture_code":23},"0805":{"zip_code":"4880805","prefecture":"愛知県","prefecture_kana":"アイチケン","city":"尾張旭市","city_kana":"オワリアサヒシ","town":"西の野町豆塚","town_kana":"ニシノノチョウマメヅカ","prefecture_code":23},"0824":{"zip_code":"4880824","prefecture":"愛知県","prefecture_kana":"アイチケン","city":"尾張旭市","city_kana":"オワリアサヒシ","town":"西山町","town_kana":"ニシヤマチョウ","prefecture_code":23},"0002":{"zip_code":"4880002","prefecture":"愛知県","prefecture_kana":"アイチケン","city":"尾張旭市","city_kana":"オワリアサヒシ","town":"根の鼻町","town_kana":"ネノハナチョウ","prefecture_code":23},"0858":{"zip_code":"4880858","prefecture":"愛知県","prefecture_kana":"アイチケン","city":"尾張旭市","city_kana":"オワリアサヒシ","town":"白鳳町","town_kana":"ハクホウチョウ","prefecture_code":23},"0032":{"zip_code":"4880032","prefecture":"愛知県","prefecture_kana":"アイチケン","city":"尾張旭市","city_kana":"オワリアサヒシ","town":"晴丘町池上","town_kana":"ハルオカチョウイケガミ","prefecture_code":23},"0031":{"zip_code":"4880031","prefecture":"愛知県","prefecture_kana":"アイチケン","city":"尾張旭市","city_kana":"オワリアサヒシ","town":"晴丘町東","town_kana":"ハルオカチョウヒガシ","prefecture_code":23},"0830":{"zip_code":"4880830","prefecture":"愛知県","prefecture_kana":"アイチケン","city":"尾張旭市","city_kana":"オワリアサヒシ","town":"東印場町","town_kana":"ヒガシインバチョウ","prefecture_code":23},"0832":{"zip_code":"4880832","prefecture":"愛知県","prefecture_kana":"アイチケン","city":"尾張旭市","city_kana":"オワリアサヒシ","town":"東印場町一里山","town_kana":"ヒガシインバチョウイチリヤマ","prefecture_code":23},"0833":{"zip_code":"4880833","prefecture":"愛知県","prefecture_kana":"アイチケン","city":"尾張旭市","city_kana":"オワリアサヒシ","town":"東印場町二反田","town_kana":"ヒガシインバチョウニタンダ","prefecture_code":23},"0003":{"zip_code":"4880003","prefecture":"愛知県","prefecture_kana":"アイチケン","city":"尾張旭市","city_kana":"オワリアサヒシ","town":"東大久手町","town_kana":"ヒガシオオクテチョウ","prefecture_code":23},"0017":{"zip_code":"4880017","prefecture":"愛知県","prefecture_kana":"アイチケン","city":"尾張旭市","city_kana":"オワリアサヒシ","town":"東三郷町","town_kana":"ヒガシサンゴウチョウ","prefecture_code":23},"0802":{"zip_code":"4880802","prefecture":"愛知県","prefecture_kana":"アイチケン","city":"尾張旭市","city_kana":"オワリアサヒシ","town":"東大道町曽我廻間","town_kana":"ヒガシダイドウチョウソガサマ","prefecture_code":23},"0801":{"zip_code":"4880801","prefecture":"愛知県","prefecture_kana":"アイチケン","city":"尾張旭市","city_kana":"オワリアサヒシ","town":"東大道町原田","town_kana":"ヒガシダイドウチョウハラタ","prefecture_code":23},"0803":{"zip_code":"4880803","prefecture":"愛知県","prefecture_kana":"アイチケン","city":"尾張旭市","city_kana":"オワリアサヒシ","town":"東大道町山の内","town_kana":"ヒガシダイドウチョウヤマノウチ","prefecture_code":23},"0033":{"zip_code":"4880033","prefecture":"愛知県","prefecture_kana":"アイチケン","city":"尾張旭市","city_kana":"オワリアサヒシ","town":"東本地ケ原町","town_kana":"ヒガシホンジガハラチョウ","prefecture_code":23},"0825":{"zip_code":"4880825","prefecture":"愛知県","prefecture_kana":"アイチケン","city":"尾張旭市","city_kana":"オワリアサヒシ","town":"東山町","town_kana":"ヒガシヤマチョウ","prefecture_code":23},"0876":{"zip_code":"4880876","prefecture":"愛知県","prefecture_kana":"アイチケン","city":"尾張旭市","city_kana":"オワリアサヒシ","town":"平子ケ丘町","town_kana":"ヒラコガオカチョウ","prefecture_code":23},"0873":{"zip_code":"4880873","prefecture":"愛知県","prefecture_kana":"アイチケン","city":"尾張旭市","city_kana":"オワリアサヒシ","town":"平子町中通","town_kana":"ヒラコチョウナカドオリ","prefecture_code":23},"0872":{"zip_code":"4880872","prefecture":"愛知県","prefecture_kana":"アイチケン","city":"尾張旭市","city_kana":"オワリアサヒシ","town":"平子町長池上","town_kana":"ヒラコチョウナガイケカミ","prefecture_code":23},"0871":{"zip_code":"4880871","prefecture":"愛知県","prefecture_kana":"アイチケン","city":"尾張旭市","city_kana":"オワリアサヒシ","town":"平子町東","town_kana":"ヒラコチョウヒガシ","prefecture_code":23},"0874":{"zip_code":"4880874","prefecture":"愛知県","prefecture_kana":"アイチケン","city":"尾張旭市","city_kana":"オワリアサヒシ","town":"平子町西","town_kana":"ヒラコチョウニシ","prefecture_code":23},"0875":{"zip_code":"4880875","prefecture":"愛知県","prefecture_kana":"アイチケン","city":"尾張旭市","city_kana":"オワリアサヒシ","town":"平子町北","town_kana":"ヒラコチョウキタ","prefecture_code":23},"0822":{"zip_code":"4880822","prefecture":"愛知県","prefecture_kana":"アイチケン","city":"尾張旭市","city_kana":"オワリアサヒシ","town":"緑町緑ケ丘","town_kana":"ミドリチョウミドリガオカ","prefecture_code":23},"0045":{"zip_code":"4880045","prefecture":"愛知県","prefecture_kana":"アイチケン","city":"尾張旭市","city_kana":"オワリアサヒシ","town":"南栄町","town_kana":"ミナミサカエチョウ","prefecture_code":23},"0046":{"zip_code":"4880046","prefecture":"愛知県","prefecture_kana":"アイチケン","city":"尾張旭市","city_kana":"オワリアサヒシ","town":"南栄町旭ケ丘","town_kana":"ミナミサカエチョウアサヒガオカ","prefecture_code":23},"0047":{"zip_code":"4880047","prefecture":"愛知県","prefecture_kana":"アイチケン","city":"尾張旭市","city_kana":"オワリアサヒシ","town":"南栄町黒石","town_kana":"ミナミサカエチョウクロイシ","prefecture_code":23},"0041":{"zip_code":"4880041","prefecture":"愛知県","prefecture_kana":"アイチケン","city":"尾張旭市","city_kana":"オワリアサヒシ","town":"南新町中畑","town_kana":"ミナミシンチョウナカハタ","prefecture_code":23},"0042":{"zip_code":"4880042","prefecture":"愛知県","prefecture_kana":"アイチケン","city":"尾張旭市","city_kana":"オワリアサヒシ","town":"南新町白山","town_kana":"ミナミシンチョウハクサン","prefecture_code":23},"0066":{"zip_code":"4880066","prefecture":"愛知県","prefecture_kana":"アイチケン","city":"尾張旭市","city_kana":"オワリアサヒシ","town":"南原山町赤土","town_kana":"ミナミハラヤマチョウアカツチ","prefecture_code":23},"0067":{"zip_code":"4880067","prefecture":"愛知県","prefecture_kana":"アイチケン","city":"尾張旭市","city_kana":"オワリアサヒシ","town":"南原山町石原","town_kana":"ミナミハラヤマチョウイシハラ","prefecture_code":23},"0068":{"zip_code":"4880068","prefecture":"愛知県","prefecture_kana":"アイチケン","city":"尾張旭市","city_kana":"オワリアサヒシ","town":"南原山町南原山","town_kana":"ミナミハラヤマチョウミナミハラヤマ","prefecture_code":23},"0044":{"zip_code":"4880044","prefecture":"愛知県","prefecture_kana":"アイチケン","city":"尾張旭市","city_kana":"オワリアサヒシ","town":"南本地ケ原町","town_kana":"ミナミホンジガハラチョウ","prefecture_code":23},"0818":{"zip_code":"4880818","prefecture":"愛知県","prefecture_kana":"アイチケン","city":"尾張旭市","city_kana":"オワリアサヒシ","town":"向町","town_kana":"ムカエチョウ","prefecture_code":23},"0827":{"zip_code":"4880827","prefecture":"愛知県","prefecture_kana":"アイチケン","city":"尾張旭市","city_kana":"オワリアサヒシ","town":"吉岡町","town_kana":"ヨシオカチョウ","prefecture_code":23}}