{"0000":{"zip_code":"4890000","prefecture":"愛知県","prefecture_kana":"アイチケン","city":"瀬戸市","city_kana":"セトシ","town":"","town_kana":"","prefecture_code":23},"0878":{"zip_code":"4890878","prefecture":"愛知県","prefecture_kana":"アイチケン","city":"瀬戸市","city_kana":"セトシ","town":"赤重町","town_kana":"アカシゲチョウ","prefecture_code":23},"0071":{"zip_code":"4890071","prefecture":"愛知県","prefecture_kana":"アイチケン","city":"瀬戸市","city_kana":"セトシ","town":"暁町","town_kana":"アカツキチョウ","prefecture_code":23},"0022":{"zip_code":"4890022","prefecture":"愛知県","prefecture_kana":"アイチケン","city":"瀬戸市","city_kana":"セトシ","town":"赤津町","town_kana":"アカヅチョウ","prefecture_code":23},"0898":{"zip_code":"4890898","prefecture":"愛知県","prefecture_kana":"アイチケン","city":"瀬戸市","city_kana":"セトシ","town":"秋葉町","town_kana":"アキバチョウ","prefecture_code":23},"0043":{"zip_code":"4890043","prefecture":"愛知県","prefecture_kana":"アイチケン","city":"瀬戸市","city_kana":"セトシ","town":"朝日町","town_kana":"アサヒマチ","prefecture_code":23},"0847":{"zip_code":"4890847","prefecture":"愛知県","prefecture_kana":"アイチケン","city":"瀬戸市","city_kana":"セトシ","town":"東町","town_kana":"アズマチョウ","prefecture_code":23},"0801":{"zip_code":"4890801","prefecture":"愛知県","prefecture_kana":"アイチケン","city":"瀬戸市","city_kana":"セトシ","town":"汗干町","town_kana":"アセビチョウ","prefecture_code":23},"0003":{"zip_code":"4890003","prefecture":"愛知県","prefecture_kana":"アイチケン","city":"瀬戸市","city_kana":"セトシ","town":"穴田町","town_kana":"アナダチョウ","prefecture_code":23},"0952":{"zip_code":"4890952","prefecture":"愛知県","prefecture_kana":"アイチケン","city":"瀬戸市","city_kana":"セトシ","town":"池田町","town_kana":"イケダチョウ","prefecture_code":23},"0951":{"zip_code":"4890951","prefecture":"愛知県","prefecture_kana":"アイチケン","city":"瀬戸市","city_kana":"セトシ","town":"石田町","town_kana":"イシダチョウ","prefecture_code":23},"0073":{"zip_code":"4890073","prefecture":"愛知県","prefecture_kana":"アイチケン","city":"瀬戸市","city_kana":"セトシ","town":"泉町","town_kana":"イズミチョウ","prefecture_code":23},"0922":{"zip_code":"4890922","prefecture":"愛知県","prefecture_kana":"アイチケン","city":"瀬戸市","city_kana":"セトシ","town":"市場町","town_kana":"イチバチョウ","prefecture_code":23},"0817":{"zip_code":"4890817","prefecture":"愛知県","prefecture_kana":"アイチケン","city":"瀬戸市","city_kana":"セトシ","town":"銀杏木町","town_kana":"イチョノキチョウ","prefecture_code":23},"0836":{"zip_code":"4890836","prefecture":"愛知県","prefecture_kana":"アイチケン","city":"瀬戸市","city_kana":"セトシ","town":"一里塚町","town_kana":"イチリヅカチョウ","prefecture_code":23},"0976":{"zip_code":"4890976","prefecture":"愛知県","prefecture_kana":"アイチケン","city":"瀬戸市","city_kana":"セトシ","town":"井戸金町","town_kana":"イドガネチョウ","prefecture_code":23},"0802":{"zip_code":"4890802","prefecture":"愛知県","prefecture_kana":"アイチケン","city":"瀬戸市","city_kana":"セトシ","town":"今池町","town_kana":"イマイケチョウ","prefecture_code":23},"0868":{"zip_code":"4890868","prefecture":"愛知県","prefecture_kana":"アイチケン","city":"瀬戸市","city_kana":"セトシ","town":"今林町","town_kana":"イマバヤシチョウ","prefecture_code":23},"0964":{"zip_code":"4890964","prefecture":"愛知県","prefecture_kana":"アイチケン","city":"瀬戸市","city_kana":"セトシ","town":"上之山町","town_kana":"ウエノヤマチョウ","prefecture_code":23},"0902":{"zip_code":"4890902","prefecture":"愛知県","prefecture_kana":"アイチケン","city":"瀬戸市","city_kana":"セトシ","town":"内田町","town_kana":"ウチダチョウ","prefecture_code":23},"0021":{"zip_code":"4890021","prefecture":"愛知県","prefecture_kana":"アイチケン","city":"瀬戸市","city_kana":"セトシ","town":"馬ケ城町","town_kana":"ウマガジョウチョウ","prefecture_code":23},"0826":{"zip_code":"4890826","prefecture":"愛知県","prefecture_kana":"アイチケン","city":"瀬戸市","city_kana":"セトシ","town":"蛭子町","town_kana":"エビスチョウ","prefecture_code":23},"0803":{"zip_code":"4890803","prefecture":"愛知県","prefecture_kana":"アイチケン","city":"瀬戸市","city_kana":"セトシ","town":"追分町","town_kana":"オイワケチョウ","prefecture_code":23},"0832":{"zip_code":"4890832","prefecture":"愛知県","prefecture_kana":"アイチケン","city":"瀬戸市","city_kana":"セトシ","town":"王子沢町","town_kana":"オウジノサワチョウ","prefecture_code":23},"0867":{"zip_code":"4890867","prefecture":"愛知県","prefecture_kana":"アイチケン","city":"瀬戸市","city_kana":"セトシ","town":"大坂町","town_kana":"オオサカチョウ","prefecture_code":23},"0962":{"zip_code":"4890962","prefecture":"愛知県","prefecture_kana":"アイチケン","city":"瀬戸市","city_kana":"セトシ","town":"大坪町","town_kana":"オオツボチョウ","prefecture_code":23},"0064":{"zip_code":"4890064","prefecture":"愛知県","prefecture_kana":"アイチケン","city":"瀬戸市","city_kana":"セトシ","town":"小金町","town_kana":"オガネチョウ","prefecture_code":23},"0067":{"zip_code":"4890067","prefecture":"愛知県","prefecture_kana":"アイチケン","city":"瀬戸市","city_kana":"セトシ","town":"小田妻町","town_kana":"オダヅマチョウ","prefecture_code":23},"0855":{"zip_code":"4890855","prefecture":"愛知県","prefecture_kana":"アイチケン","city":"瀬戸市","city_kana":"セトシ","town":"海上町","town_kana":"カイショチョウ","prefecture_code":23},"0966":{"zip_code":"4890966","prefecture":"愛知県","prefecture_kana":"アイチケン","city":"瀬戸市","city_kana":"セトシ","town":"掛下町","town_kana":"カケシタチョウ","prefecture_code":23},"0845":{"zip_code":"4890845","prefecture":"愛知県","prefecture_kana":"アイチケン","city":"瀬戸市","city_kana":"セトシ","town":"鐘場町","town_kana":"カネバチョウ","prefecture_code":23},"0007":{"zip_code":"4890007","prefecture":"愛知県","prefecture_kana":"アイチケン","city":"瀬戸市","city_kana":"セトシ","town":"鹿乗町","town_kana":"カノリチョウ","prefecture_code":23},"0048":{"zip_code":"4890048","prefecture":"愛知県","prefecture_kana":"アイチケン","city":"瀬戸市","city_kana":"セトシ","town":"窯神町","town_kana":"カマガミチョウ","prefecture_code":23},"0023":{"zip_code":"4890023","prefecture":"愛知県","prefecture_kana":"アイチケン","city":"瀬戸市","city_kana":"セトシ","town":"窯元町","town_kana":"カマモトチョウ","prefecture_code":23},"0933":{"zip_code":"4890933","prefecture":"愛知県","prefecture_kana":"アイチケン","city":"瀬戸市","city_kana":"セトシ","town":"神川町","town_kana":"カミカワチョウ","prefecture_code":23},"0063":{"zip_code":"4890063","prefecture":"愛知県","prefecture_kana":"アイチケン","city":"瀬戸市","city_kana":"セトシ","town":"上陣屋町","town_kana":"カミジンヤチョウ","prefecture_code":23},"0892":{"zip_code":"4890892","prefecture":"愛知県","prefecture_kana":"アイチケン","city":"瀬戸市","city_kana":"セトシ","town":"上ノ切町","town_kana":"カミノキリチョウ","prefecture_code":23},"0061":{"zip_code":"4890061","prefecture":"愛知県","prefecture_kana":"アイチケン","city":"瀬戸市","city_kana":"セトシ","town":"上本町","town_kana":"カミホンマチ","prefecture_code":23},"0068":{"zip_code":"4890068","prefecture":"愛知県","prefecture_kana":"アイチケン","city":"瀬戸市","city_kana":"セトシ","town":"上松山町","town_kana":"カミマツヤマチョウ","prefecture_code":23},"0062":{"zip_code":"4890062","prefecture":"愛知県","prefecture_kana":"アイチケン","city":"瀬戸市","city_kana":"セトシ","town":"上水野町","town_kana":"カミミズノチョウ","prefecture_code":23},"0853":{"zip_code":"4890853","prefecture":"愛知県","prefecture_kana":"アイチケン","city":"瀬戸市","city_kana":"セトシ","town":"上山路町","town_kana":"カミヤマジチョウ","prefecture_code":23},"0894":{"zip_code":"4890894","prefecture":"愛知県","prefecture_kana":"アイチケン","city":"瀬戸市","city_kana":"セトシ","town":"川合町","town_kana":"カワイチョウ","prefecture_code":23},"0927":{"zip_code":"4890927","prefecture":"愛知県","prefecture_kana":"アイチケン","city":"瀬戸市","city_kana":"セトシ","town":"川北町","town_kana":"カワキタチョウ","prefecture_code":23},"0926":{"zip_code":"4890926","prefecture":"愛知県","prefecture_kana":"アイチケン","city":"瀬戸市","city_kana":"セトシ","town":"川西町","town_kana":"カワニシチョウ","prefecture_code":23},"0919":{"zip_code":"4890919","prefecture":"愛知県","prefecture_kana":"アイチケン","city":"瀬戸市","city_kana":"セトシ","town":"川端町","town_kana":"カワバタチョウ","prefecture_code":23},"0001":{"zip_code":"4890001","prefecture":"愛知県","prefecture_kana":"アイチケン","city":"瀬戸市","city_kana":"セトシ","town":"川平町","town_kana":"カワヒラチョウ","prefecture_code":23},"0908":{"zip_code":"4890908","prefecture":"愛知県","prefecture_kana":"アイチケン","city":"瀬戸市","city_kana":"セトシ","town":"ききょう台","town_kana":"キキョウダイ","prefecture_code":23},"0915":{"zip_code":"4890915","prefecture":"愛知県","prefecture_kana":"アイチケン","city":"瀬戸市","city_kana":"セトシ","town":"北浦町","town_kana":"キタウラチョウ","prefecture_code":23},"0014":{"zip_code":"4890014","prefecture":"愛知県","prefecture_kana":"アイチケン","city":"瀬戸市","city_kana":"セトシ","town":"北白坂町","town_kana":"キタシラサカチョウ","prefecture_code":23},"0911":{"zip_code":"4890911","prefecture":"愛知県","prefecture_kana":"アイチケン","city":"瀬戸市","city_kana":"セトシ","town":"北松山町","town_kana":"キタマツヤマチョウ","prefecture_code":23},"0910":{"zip_code":"4890910","prefecture":"愛知県","prefecture_kana":"アイチケン","city":"瀬戸市","city_kana":"セトシ","town":"北みずの坂","town_kana":"キタミズノザカ","prefecture_code":23},"0984":{"zip_code":"4890984","prefecture":"愛知県","prefecture_kana":"アイチケン","city":"瀬戸市","city_kana":"セトシ","town":"北山町","town_kana":"キタヤマチョウ","prefecture_code":23},"0918":{"zip_code":"4890918","prefecture":"愛知県","prefecture_kana":"アイチケン","city":"瀬戸市","city_kana":"セトシ","town":"北脇町","town_kana":"キタワキチョウ","prefecture_code":23},"0809":{"zip_code":"4890809","prefecture":"愛知県","prefecture_kana":"アイチケン","city":"瀬戸市","city_kana":"セトシ","town":"共栄通","town_kana":"キョウエイドオリ","prefecture_code":23},"0804":{"zip_code":"4890804","prefecture":"愛知県","prefecture_kana":"アイチケン","city":"瀬戸市","city_kana":"セトシ","town":"京町","town_kana":"キョウマチ","prefecture_code":23},"0881":{"zip_code":"4890881","prefecture":"愛知県","prefecture_kana":"アイチケン","city":"瀬戸市","city_kana":"セトシ","town":"熊野町","town_kana":"クマノチョウ","prefecture_code":23},"0813":{"zip_code":"4890813","prefecture":"愛知県","prefecture_kana":"アイチケン","city":"瀬戸市","city_kana":"セトシ","town":"蔵所町","town_kana":"クラショチョウ","prefecture_code":23},"0031":{"zip_code":"4890031","prefecture":"愛知県","prefecture_kana":"アイチケン","city":"瀬戸市","city_kana":"セトシ","town":"五位塚町","town_kana":"ゴイヅカチョウ","prefecture_code":23},"0917":{"zip_code":"4890917","prefecture":"愛知県","prefecture_kana":"アイチケン","city":"瀬戸市","city_kana":"セトシ","town":"效範町","town_kana":"コウハンチョウ","prefecture_code":23},"0978":{"zip_code":"4890978","prefecture":"愛知県","prefecture_kana":"アイチケン","city":"瀬戸市","city_kana":"セトシ","town":"小坂町","town_kana":"コサカチョウ","prefecture_code":23},"0032":{"zip_code":"4890032","prefecture":"愛知県","prefecture_kana":"アイチケン","city":"瀬戸市","city_kana":"セトシ","town":"古瀬戸町","town_kana":"コセトチョウ","prefecture_code":23},"0842":{"zip_code":"4890842","prefecture":"愛知県","prefecture_kana":"アイチケン","city":"瀬戸市","city_kana":"セトシ","town":"小空町","town_kana":"コソラチョウ","prefecture_code":23},"0879":{"zip_code":"4890879","prefecture":"愛知県","prefecture_kana":"アイチケン","city":"瀬戸市","city_kana":"セトシ","town":"瘤木町","town_kana":"コブキチョウ","prefecture_code":23},"0974":{"zip_code":"4890974","prefecture":"愛知県","prefecture_kana":"アイチケン","city":"瀬戸市","city_kana":"セトシ","town":"駒前町","town_kana":"コママエチョウ","prefecture_code":23},"0035":{"zip_code":"4890035","prefecture":"愛知県","prefecture_kana":"アイチケン","city":"瀬戸市","city_kana":"セトシ","town":"紺屋田町","town_kana":"コンヤダチョウ","prefecture_code":23},"0818":{"zip_code":"4890818","prefecture":"愛知県","prefecture_kana":"アイチケン","city":"瀬戸市","city_kana":"セトシ","town":"幸町","town_kana":"サイワイチョウ","prefecture_code":23},"0977":{"zip_code":"4890977","prefecture":"愛知県","prefecture_kana":"アイチケン","city":"瀬戸市","city_kana":"セトシ","town":"坂上町","town_kana":"サカウエチョウ","prefecture_code":23},"0044":{"zip_code":"4890044","prefecture":"愛知県","prefecture_kana":"アイチケン","city":"瀬戸市","city_kana":"セトシ","town":"栄町","town_kana":"サカエマチ","prefecture_code":23},"0982":{"zip_code":"4890982","prefecture":"愛知県","prefecture_kana":"アイチケン","city":"瀬戸市","city_kana":"セトシ","town":"さつき台","town_kana":"サツキダイ","prefecture_code":23},"0895":{"zip_code":"4890895","prefecture":"愛知県","prefecture_kana":"アイチケン","city":"瀬戸市","city_kana":"セトシ","town":"塩草町","town_kana":"シオクサチョウ","prefecture_code":23},"0901":{"zip_code":"4890901","prefecture":"愛知県","prefecture_kana":"アイチケン","city":"瀬戸市","city_kana":"セトシ","town":"十軒町","town_kana":"ジッケンチョウ","prefecture_code":23},"0051":{"zip_code":"4890051","prefecture":"愛知県","prefecture_kana":"アイチケン","city":"瀬戸市","city_kana":"セトシ","town":"下陣屋町","town_kana":"シモジンヤチョウ","prefecture_code":23},"0017":{"zip_code":"4890017","prefecture":"愛知県","prefecture_kana":"アイチケン","city":"瀬戸市","city_kana":"セトシ","town":"白坂町","town_kana":"シラサカチョウ","prefecture_code":23},"0924":{"zip_code":"4890924","prefecture":"愛知県","prefecture_kana":"アイチケン","city":"瀬戸市","city_kana":"セトシ","town":"城ケ根町","town_kana":"シロガネチョウ","prefecture_code":23},"0923":{"zip_code":"4890923","prefecture":"愛知県","prefecture_kana":"アイチケン","city":"瀬戸市","city_kana":"セトシ","town":"城屋敷町","town_kana":"シロヤシキチョウ","prefecture_code":23},"0873":{"zip_code":"4890873","prefecture":"愛知県","prefecture_kana":"アイチケン","city":"瀬戸市","city_kana":"セトシ","town":"新郷町","town_kana":"シンゴウチョウ","prefecture_code":23},"0949":{"zip_code":"4890949","prefecture":"愛知県","prefecture_kana":"アイチケン","city":"瀬戸市","city_kana":"セトシ","town":"新田町","town_kana":"シンデンチョウ","prefecture_code":23},"0058":{"zip_code":"4890058","prefecture":"愛知県","prefecture_kana":"アイチケン","city":"瀬戸市","city_kana":"セトシ","town":"進陶町","town_kana":"シントウチョウ","prefecture_code":23},"0075":{"zip_code":"4890075","prefecture":"愛知県","prefecture_kana":"アイチケン","city":"瀬戸市","city_kana":"セトシ","town":"新道町","town_kana":"シンドウチョウ","prefecture_code":23},"0849":{"zip_code":"4890849","prefecture":"愛知県","prefecture_kana":"アイチケン","city":"瀬戸市","city_kana":"セトシ","town":"新明町","town_kana":"シンメイチョウ","prefecture_code":23},"0913":{"zip_code":"4890913","prefecture":"愛知県","prefecture_kana":"アイチケン","city":"瀬戸市","city_kana":"セトシ","town":"水南町","town_kana":"スイナンチョウ","prefecture_code":23},"0009":{"zip_code":"4890009","prefecture":"愛知県","prefecture_kana":"アイチケン","city":"瀬戸市","city_kana":"セトシ","town":"水北町","town_kana":"スイホクチョウ","prefecture_code":23},"0814":{"zip_code":"4890814","prefecture":"愛知県","prefecture_kana":"アイチケン","city":"瀬戸市","city_kana":"セトシ","town":"末広町","town_kana":"スエヒロチョウ","prefecture_code":23},"0822":{"zip_code":"4890822","prefecture":"愛知県","prefecture_kana":"アイチケン","city":"瀬戸市","city_kana":"セトシ","town":"杉塚町","town_kana":"スギツカチョウ","prefecture_code":23},"0033":{"zip_code":"4890033","prefecture":"愛知県","prefecture_kana":"アイチケン","city":"瀬戸市","city_kana":"セトシ","town":"須原町","town_kana":"スハラチョウ","prefecture_code":23},"0904":{"zip_code":"4890904","prefecture":"愛知県","prefecture_kana":"アイチケン","city":"瀬戸市","city_kana":"セトシ","town":"すみれ台","town_kana":"スミレダイ","prefecture_code":23},"0863":{"zip_code":"4890863","prefecture":"愛知県","prefecture_kana":"アイチケン","city":"瀬戸市","city_kana":"セトシ","town":"せいれい町","town_kana":"セイレイチョウ","prefecture_code":23},"0041":{"zip_code":"4890041","prefecture":"愛知県","prefecture_kana":"アイチケン","city":"瀬戸市","city_kana":"セトシ","town":"背戸側町","town_kana":"セトガワチョウ","prefecture_code":23},"0941":{"zip_code":"4890941","prefecture":"愛知県","prefecture_kana":"アイチケン","city":"瀬戸市","city_kana":"セトシ","town":"瀬戸口町","town_kana":"セトグチチョウ","prefecture_code":23},"0843":{"zip_code":"4890843","prefecture":"愛知県","prefecture_kana":"アイチケン","city":"瀬戸市","city_kana":"セトシ","town":"惣作町","town_kana":"ソウサクチョウ","prefecture_code":23},"0008":{"zip_code":"4890008","prefecture":"愛知県","prefecture_kana":"アイチケン","city":"瀬戸市","city_kana":"セトシ","town":"曽野町","town_kana":"ソノチョウ","prefecture_code":23},"0825":{"zip_code":"4890825","prefecture":"愛知県","prefecture_kana":"アイチケン","city":"瀬戸市","city_kana":"セトシ","town":"祖母懐町","town_kana":"ソボカイチョウ","prefecture_code":23},"0846":{"zip_code":"4890846","prefecture":"愛知県","prefecture_kana":"アイチケン","city":"瀬戸市","city_kana":"セトシ","town":"太子町","town_kana":"タイシチョウ","prefecture_code":23},"0954":{"zip_code":"4890954","prefecture":"愛知県","prefecture_kana":"アイチケン","city":"瀬戸市","city_kana":"セトシ","town":"台六町","town_kana":"ダイロクチョウ","prefecture_code":23},"0931":{"zip_code":"4890931","prefecture":"愛知県","prefecture_kana":"アイチケン","city":"瀬戸市","city_kana":"セトシ","town":"高根町","town_kana":"タカネチョウ","prefecture_code":23},"0896":{"zip_code":"4890896","prefecture":"愛知県","prefecture_kana":"アイチケン","city":"瀬戸市","city_kana":"セトシ","town":"宝ケ丘町","town_kana":"タカラガオカチョウ","prefecture_code":23},"0055":{"zip_code":"4890055","prefecture":"愛知県","prefecture_kana":"アイチケン","city":"瀬戸市","city_kana":"セトシ","town":"滝之湯町","town_kana":"タキノユチョウ","prefecture_code":23},"0025":{"zip_code":"4890025","prefecture":"愛知県","prefecture_kana":"アイチケン","city":"瀬戸市","city_kana":"セトシ","town":"凧山町","town_kana":"タコヤマチョウ","prefecture_code":23},"0961":{"zip_code":"4890961","prefecture":"愛知県","prefecture_kana":"アイチケン","city":"瀬戸市","city_kana":"セトシ","town":"田中町","town_kana":"タナカチョウ","prefecture_code":23},"0921":{"zip_code":"4890921","prefecture":"愛知県","prefecture_kana":"アイチケン","city":"瀬戸市","city_kana":"セトシ","town":"田端町","town_kana":"タバタチョウ","prefecture_code":23},"0838":{"zip_code":"4890838","prefecture":"愛知県","prefecture_kana":"アイチケン","city":"瀬戸市","city_kana":"セトシ","town":"寺本町","town_kana":"テラモトチョウ","prefecture_code":23},"0891":{"zip_code":"4890891","prefecture":"愛知県","prefecture_kana":"アイチケン","city":"瀬戸市","city_kana":"セトシ","town":"陶栄町","town_kana":"トウエイチョウ","prefecture_code":23},"0805":{"zip_code":"4890805","prefecture":"愛知県","prefecture_kana":"アイチケン","city":"瀬戸市","city_kana":"セトシ","town":"陶原町","town_kana":"トウゲンチョウ","prefecture_code":23},"0823":{"zip_code":"4890823","prefecture":"愛知県","prefecture_kana":"アイチケン","city":"瀬戸市","city_kana":"セトシ","town":"東郷町","town_kana":"トウゴウチョウ","prefecture_code":23},"0831":{"zip_code":"4890831","prefecture":"愛知県","prefecture_kana":"アイチケン","city":"瀬戸市","city_kana":"セトシ","town":"藤四郎町","town_kana":"トウシロウチョウ","prefecture_code":23},"0827":{"zip_code":"4890827","prefecture":"愛知県","prefecture_kana":"アイチケン","city":"瀬戸市","city_kana":"セトシ","town":"陶生町","town_kana":"トウセイチョウ","prefecture_code":23},"0054":{"zip_code":"4890054","prefecture":"愛知県","prefecture_kana":"アイチケン","city":"瀬戸市","city_kana":"セトシ","town":"道泉町","town_kana":"ドウセンチョウ","prefecture_code":23},"0045":{"zip_code":"4890045","prefecture":"愛知県","prefecture_kana":"アイチケン","city":"瀬戸市","city_kana":"セトシ","town":"陶本町","town_kana":"トウホンチョウ","prefecture_code":23},"0026":{"zip_code":"4890026","prefecture":"愛知県","prefecture_kana":"アイチケン","city":"瀬戸市","city_kana":"セトシ","town":"東明町","town_kana":"トウメイチョウ","prefecture_code":23},"0983":{"zip_code":"4890983","prefecture":"愛知県","prefecture_kana":"アイチケン","city":"瀬戸市","city_kana":"セトシ","town":"苗場町","town_kana":"ナエバチョウ","prefecture_code":23},"0042":{"zip_code":"4890042","prefecture":"愛知県","prefecture_kana":"アイチケン","city":"瀬戸市","city_kana":"セトシ","town":"仲切町","town_kana":"ナカギリチョウ","prefecture_code":23},"0824":{"zip_code":"4890824","prefecture":"愛知県","prefecture_kana":"アイチケン","city":"瀬戸市","city_kana":"セトシ","town":"仲郷町","town_kana":"ナカゴウチョウ","prefecture_code":23},"0013":{"zip_code":"4890013","prefecture":"愛知県","prefecture_kana":"アイチケン","city":"瀬戸市","city_kana":"セトシ","town":"中白坂町","town_kana":"ナカシラサカチョウ","prefecture_code":23},"0029":{"zip_code":"4890029","prefecture":"愛知県","prefecture_kana":"アイチケン","city":"瀬戸市","city_kana":"セトシ","town":"中畑町","town_kana":"ナカバタチョウ","prefecture_code":23},"0833":{"zip_code":"4890833","prefecture":"愛知県","prefecture_kana":"アイチケン","city":"瀬戸市","city_kana":"セトシ","town":"仲洞町","town_kana":"ナカボラチョウ","prefecture_code":23},"0005":{"zip_code":"4890005","prefecture":"愛知県","prefecture_kana":"アイチケン","city":"瀬戸市","city_kana":"セトシ","town":"中水野町","town_kana":"ナカミズノチョウ","prefecture_code":23},"0835":{"zip_code":"4890835","prefecture":"愛知県","prefecture_kana":"アイチケン","city":"瀬戸市","city_kana":"セトシ","town":"中山町","town_kana":"ナカヤマチョウ","prefecture_code":23},"0884":{"zip_code":"4890884","prefecture":"愛知県","prefecture_kana":"アイチケン","city":"瀬戸市","city_kana":"セトシ","town":"西茨町","town_kana":"ニシイバラチョウ","prefecture_code":23},"0079":{"zip_code":"4890079","prefecture":"愛知県","prefecture_kana":"アイチケン","city":"瀬戸市","city_kana":"セトシ","town":"西印所町","town_kana":"ニシインゾチョウ","prefecture_code":23},"0065":{"zip_code":"4890065","prefecture":"愛知県","prefecture_kana":"アイチケン","city":"瀬戸市","city_kana":"セトシ","town":"西追分町","town_kana":"ニシオイワケチョウ","prefecture_code":23},"0028":{"zip_code":"4890028","prefecture":"愛知県","prefecture_kana":"アイチケン","city":"瀬戸市","city_kana":"セトシ","town":"西窯町","town_kana":"ニシガマチョウ","prefecture_code":23},"0812":{"zip_code":"4890812","prefecture":"愛知県","prefecture_kana":"アイチケン","city":"瀬戸市","city_kana":"セトシ","town":"西蔵所町","town_kana":"ニシクラショチョウ","prefecture_code":23},"0036":{"zip_code":"4890036","prefecture":"愛知県","prefecture_kana":"アイチケン","city":"瀬戸市","city_kana":"セトシ","town":"西古瀬戸町","town_kana":"ニシコセトチョウ","prefecture_code":23},"0943":{"zip_code":"4890943","prefecture":"愛知県","prefecture_kana":"アイチケン","city":"瀬戸市","city_kana":"セトシ","town":"西米泉町","town_kana":"ニシコメイズミチョウ","prefecture_code":23},"0829":{"zip_code":"4890829","prefecture":"愛知県","prefecture_kana":"アイチケン","city":"瀬戸市","city_kana":"セトシ","town":"西郷町","town_kana":"ニシゴウチョウ","prefecture_code":23},"0882":{"zip_code":"4890882","prefecture":"愛知県","prefecture_kana":"アイチケン","city":"瀬戸市","city_kana":"セトシ","town":"西権現町","town_kana":"ニシゴンゲンチョウ","prefecture_code":23},"0018":{"zip_code":"4890018","prefecture":"愛知県","prefecture_kana":"アイチケン","city":"瀬戸市","city_kana":"セトシ","town":"西白坂町","town_kana":"ニシシラサカチョウ","prefecture_code":23},"0047":{"zip_code":"4890047","prefecture":"愛知県","prefecture_kana":"アイチケン","city":"瀬戸市","city_kana":"セトシ","town":"西谷町","town_kana":"ニシダニチョウ","prefecture_code":23},"0925":{"zip_code":"4890925","prefecture":"愛知県","prefecture_kana":"アイチケン","city":"瀬戸市","city_kana":"セトシ","town":"西寺山町","town_kana":"ニシテラヤマチョウ","prefecture_code":23},"0057":{"zip_code":"4890057","prefecture":"愛知県","prefecture_kana":"アイチケン","city":"瀬戸市","city_kana":"セトシ","town":"西十三塚町","town_kana":"ニシトミヅカチョウ","prefecture_code":23},"0929":{"zip_code":"4890929","prefecture":"愛知県","prefecture_kana":"アイチケン","city":"瀬戸市","city_kana":"セトシ","town":"西長根町","town_kana":"ニシナガネチョウ","prefecture_code":23},"0848":{"zip_code":"4890848","prefecture":"愛知県","prefecture_kana":"アイチケン","city":"瀬戸市","city_kana":"セトシ","town":"西拝戸町","town_kana":"ニシハイトチョウ","prefecture_code":23},"0972":{"zip_code":"4890972","prefecture":"愛知県","prefecture_kana":"アイチケン","city":"瀬戸市","city_kana":"セトシ","town":"西原町","town_kana":"ニシハラチョウ","prefecture_code":23},"0971":{"zip_code":"4890971","prefecture":"愛知県","prefecture_kana":"アイチケン","city":"瀬戸市","city_kana":"セトシ","town":"西本地町","town_kana":"ニシホンジチョウ","prefecture_code":23},"0819":{"zip_code":"4890819","prefecture":"愛知県","prefecture_kana":"アイチケン","city":"瀬戸市","city_kana":"セトシ","town":"西本町","town_kana":"ニシホンマチ","prefecture_code":23},"0837":{"zip_code":"4890837","prefecture":"愛知県","prefecture_kana":"アイチケン","city":"瀬戸市","city_kana":"セトシ","town":"西洞町","town_kana":"ニシボラチョウ","prefecture_code":23},"0912":{"zip_code":"4890912","prefecture":"愛知県","prefecture_kana":"アイチケン","city":"瀬戸市","city_kana":"セトシ","town":"西松山町","town_kana":"ニシマツヤマチョウ","prefecture_code":23},"0851":{"zip_code":"4890851","prefecture":"愛知県","prefecture_kana":"アイチケン","city":"瀬戸市","city_kana":"セトシ","town":"西山路町","town_kana":"ニシヤマジチョウ","prefecture_code":23},"0987":{"zip_code":"4890987","prefecture":"愛知県","prefecture_kana":"アイチケン","city":"瀬戸市","city_kana":"セトシ","town":"西山町","town_kana":"ニシヤマチョウ","prefecture_code":23},"0807":{"zip_code":"4890807","prefecture":"愛知県","prefecture_kana":"アイチケン","city":"瀬戸市","city_kana":"セトシ","town":"西吉田町","town_kana":"ニシヨシダチョウ","prefecture_code":23},"0936":{"zip_code":"4890936","prefecture":"愛知県","prefecture_kana":"アイチケン","city":"瀬戸市","city_kana":"セトシ","town":"西脇町","town_kana":"ニシワキチョウ","prefecture_code":23},"0885":{"zip_code":"4890885","prefecture":"愛知県","prefecture_kana":"アイチケン","city":"瀬戸市","city_kana":"セトシ","town":"萩殿町","town_kana":"ハギドノチョウ","prefecture_code":23},"0905":{"zip_code":"4890905","prefecture":"愛知県","prefecture_kana":"アイチケン","city":"瀬戸市","city_kana":"セトシ","town":"はぎの台","town_kana":"ハギノダイ","prefecture_code":23},"0886":{"zip_code":"4890886","prefecture":"愛知県","prefecture_kana":"アイチケン","city":"瀬戸市","city_kana":"セトシ","town":"萩山台","town_kana":"ハギヤマダイ","prefecture_code":23},"0876":{"zip_code":"4890876","prefecture":"愛知県","prefecture_kana":"アイチケン","city":"瀬戸市","city_kana":"セトシ","town":"白山町","town_kana":"ハクサンチョウ","prefecture_code":23},"0852":{"zip_code":"4890852","prefecture":"愛知県","prefecture_kana":"アイチケン","city":"瀬戸市","city_kana":"セトシ","town":"巡間町","town_kana":"ハザマチョウ","prefecture_code":23},"0012":{"zip_code":"4890012","prefecture":"愛知県","prefecture_kana":"アイチケン","city":"瀬戸市","city_kana":"セトシ","town":"長谷口町","town_kana":"ハセグチチョウ","prefecture_code":23},"0946":{"zip_code":"4890946","prefecture":"愛知県","prefecture_kana":"アイチケン","city":"瀬戸市","city_kana":"セトシ","town":"幡中町","town_kana":"ハタナカチョウ","prefecture_code":23},"0938":{"zip_code":"4890938","prefecture":"愛知県","prefecture_kana":"アイチケン","city":"瀬戸市","city_kana":"セトシ","town":"幡西町","town_kana":"ハタニシチョウ","prefecture_code":23},"0874":{"zip_code":"4890874","prefecture":"愛知県","prefecture_kana":"アイチケン","city":"瀬戸市","city_kana":"セトシ","town":"幡野町","town_kana":"ハタノチョウ","prefecture_code":23},"0948":{"zip_code":"4890948","prefecture":"愛知県","prefecture_kana":"アイチケン","city":"瀬戸市","city_kana":"セトシ","town":"幡山町","town_kana":"ハタヤマチョウ","prefecture_code":23},"0024":{"zip_code":"4890024","prefecture":"愛知県","prefecture_kana":"アイチケン","city":"瀬戸市","city_kana":"セトシ","town":"八王子町","town_kana":"ハチオウジチョウ","prefecture_code":23},"0861":{"zip_code":"4890861","prefecture":"愛知県","prefecture_kana":"アイチケン","city":"瀬戸市","city_kana":"セトシ","town":"八幡台","town_kana":"ハチマンダイ","prefecture_code":23},"0862":{"zip_code":"4890862","prefecture":"愛知県","prefecture_kana":"アイチケン","city":"瀬戸市","city_kana":"セトシ","town":"八幡町","town_kana":"ハチマンチョウ","prefecture_code":23},"0034":{"zip_code":"4890034","prefecture":"愛知県","prefecture_kana":"アイチケン","city":"瀬戸市","city_kana":"セトシ","town":"刎田町","town_kana":"ハネダチョウ","prefecture_code":23},"0947":{"zip_code":"4890947","prefecture":"愛知県","prefecture_kana":"アイチケン","city":"瀬戸市","city_kana":"セトシ","town":"羽根町","town_kana":"ハネチョウ","prefecture_code":23},"0888":{"zip_code":"4890888","prefecture":"愛知県","prefecture_kana":"アイチケン","city":"瀬戸市","city_kana":"セトシ","town":"原山台","town_kana":"ハラヤマダイ","prefecture_code":23},"0889":{"zip_code":"4890889","prefecture":"愛知県","prefecture_kana":"アイチケン","city":"瀬戸市","city_kana":"セトシ","town":"原山町","town_kana":"ハラヤマチョウ","prefecture_code":23},"0011":{"zip_code":"4890011","prefecture":"愛知県","prefecture_kana":"アイチケン","city":"瀬戸市","city_kana":"セトシ","town":"針原町","town_kana":"ハリハラチョウ","prefecture_code":23},"0893":{"zip_code":"4890893","prefecture":"愛知県","prefecture_kana":"アイチケン","city":"瀬戸市","city_kana":"セトシ","town":"春雨町","town_kana":"ハルサメチョウ","prefecture_code":23},"0877":{"zip_code":"4890877","prefecture":"愛知県","prefecture_kana":"アイチケン","city":"瀬戸市","city_kana":"セトシ","town":"東赤重町","town_kana":"ヒガシアカシゲチョウ","prefecture_code":23},"0897":{"zip_code":"4890897","prefecture":"愛知県","prefecture_kana":"アイチケン","city":"瀬戸市","city_kana":"セトシ","town":"東茨町","town_kana":"ヒガシイバラチョウ","prefecture_code":23},"0072":{"zip_code":"4890072","prefecture":"愛知県","prefecture_kana":"アイチケン","city":"瀬戸市","city_kana":"セトシ","town":"東印所町","town_kana":"ヒガシインゾチョウ","prefecture_code":23},"0037":{"zip_code":"4890037","prefecture":"愛知県","prefecture_kana":"アイチケン","city":"瀬戸市","city_kana":"セトシ","town":"東古瀬戸町","town_kana":"ヒガシコセトチョウ","prefecture_code":23},"0944":{"zip_code":"4890944","prefecture":"愛知県","prefecture_kana":"アイチケン","city":"瀬戸市","city_kana":"セトシ","town":"東米泉町","town_kana":"ヒガシコメイズミチョウ","prefecture_code":23},"0883":{"zip_code":"4890883","prefecture":"愛知県","prefecture_kana":"アイチケン","city":"瀬戸市","city_kana":"セトシ","town":"東権現町","town_kana":"ヒガシゴンゲンチョウ","prefecture_code":23},"0015":{"zip_code":"4890015","prefecture":"愛知県","prefecture_kana":"アイチケン","city":"瀬戸市","city_kana":"セトシ","town":"東白坂町","town_kana":"ヒガシシラサカチョウ","prefecture_code":23},"0928":{"zip_code":"4890928","prefecture":"愛知県","prefecture_kana":"アイチケン","city":"瀬戸市","city_kana":"セトシ","town":"東寺山町","town_kana":"ヒガシテラヤマチョウ","prefecture_code":23},"0056":{"zip_code":"4890056","prefecture":"愛知県","prefecture_kana":"アイチケン","city":"瀬戸市","city_kana":"セトシ","town":"東十三塚町","town_kana":"ヒガシトミヅカチョウ","prefecture_code":23},"0871":{"zip_code":"4890871","prefecture":"愛知県","prefecture_kana":"アイチケン","city":"瀬戸市","city_kana":"セトシ","town":"東長根町","town_kana":"ヒガシナガネチョウ","prefecture_code":23},"0027":{"zip_code":"4890027","prefecture":"愛知県","prefecture_kana":"アイチケン","city":"瀬戸市","city_kana":"セトシ","town":"東拝戸町","town_kana":"ヒガシハイドチョウ","prefecture_code":23},"0942":{"zip_code":"4890942","prefecture":"愛知県","prefecture_kana":"アイチケン","city":"瀬戸市","city_kana":"セトシ","town":"東菱野町","town_kana":"ヒガシヒシノチョウ","prefecture_code":23},"0973":{"zip_code":"4890973","prefecture":"愛知県","prefecture_kana":"アイチケン","city":"瀬戸市","city_kana":"セトシ","town":"東本地町","town_kana":"ヒガシホンジチョウ","prefecture_code":23},"0816":{"zip_code":"4890816","prefecture":"愛知県","prefecture_kana":"アイチケン","city":"瀬戸市","city_kana":"セトシ","town":"東本町","town_kana":"ヒガシホンマチ","prefecture_code":23},"0841":{"zip_code":"4890841","prefecture":"愛知県","prefecture_kana":"アイチケン","city":"瀬戸市","city_kana":"セトシ","town":"東洞町","town_kana":"ヒガシボラチョウ","prefecture_code":23},"0069":{"zip_code":"4890069","prefecture":"愛知県","prefecture_kana":"アイチケン","city":"瀬戸市","city_kana":"セトシ","town":"東松山町","town_kana":"ヒガシマツヤマチョウ","prefecture_code":23},"0053":{"zip_code":"4890053","prefecture":"愛知県","prefecture_kana":"アイチケン","city":"瀬戸市","city_kana":"セトシ","town":"東安戸町","town_kana":"ヒガシヤスドチョウ","prefecture_code":23},"0854":{"zip_code":"4890854","prefecture":"愛知県","prefecture_kana":"アイチケン","city":"瀬戸市","city_kana":"セトシ","town":"東山路町","town_kana":"ヒガシヤマジチョウ","prefecture_code":23},"0988":{"zip_code":"4890988","prefecture":"愛知県","prefecture_kana":"アイチケン","city":"瀬戸市","city_kana":"セトシ","town":"東山町","town_kana":"ヒガシヤマチョウ","prefecture_code":23},"0066":{"zip_code":"4890066","prefecture":"愛知県","prefecture_kana":"アイチケン","city":"瀬戸市","city_kana":"セトシ","town":"東横山町","town_kana":"ヒガシヨコヤマチョウ","prefecture_code":23},"0806":{"zip_code":"4890806","prefecture":"愛知県","prefecture_kana":"アイチケン","city":"瀬戸市","city_kana":"セトシ","town":"東吉田町","town_kana":"ヒガシヨシダチョウ","prefecture_code":23},"0887":{"zip_code":"4890887","prefecture":"愛知県","prefecture_kana":"アイチケン","city":"瀬戸市","city_kana":"セトシ","town":"菱野台","town_kana":"ヒシノダイ","prefecture_code":23},"0934":{"zip_code":"4890934","prefecture":"愛知県","prefecture_kana":"アイチケン","city":"瀬戸市","city_kana":"セトシ","town":"菱野町","town_kana":"ヒシノチョウ","prefecture_code":23},"0004":{"zip_code":"4890004","prefecture":"愛知県","prefecture_kana":"アイチケン","city":"瀬戸市","city_kana":"セトシ","town":"日の出町","town_kana":"ヒノデチョウ","prefecture_code":23},"0981":{"zip_code":"4890981","prefecture":"愛知県","prefecture_kana":"アイチケン","city":"瀬戸市","city_kana":"セトシ","town":"ひまわり台","town_kana":"ヒマワリダイ","prefecture_code":23},"0916":{"zip_code":"4890916","prefecture":"愛知県","prefecture_kana":"アイチケン","city":"瀬戸市","city_kana":"セトシ","town":"平町","town_kana":"ヒラマチ","prefecture_code":23},"0856":{"zip_code":"4890856","prefecture":"愛知県","prefecture_kana":"アイチケン","city":"瀬戸市","city_kana":"セトシ","town":"広久手町","town_kana":"ヒロクテチョウ","prefecture_code":23},"0076":{"zip_code":"4890076","prefecture":"愛知県","prefecture_kana":"アイチケン","city":"瀬戸市","city_kana":"セトシ","town":"深川町","town_kana":"フカガワチョウ","prefecture_code":23},"0935":{"zip_code":"4890935","prefecture":"愛知県","prefecture_kana":"アイチケン","city":"瀬戸市","city_kana":"セトシ","town":"福元町","town_kana":"フクモトチョウ","prefecture_code":23},"0907":{"zip_code":"4890907","prefecture":"愛知県","prefecture_kana":"アイチケン","city":"瀬戸市","city_kana":"セトシ","town":"ふじの台","town_kana":"フジノダイ","prefecture_code":23},"0945":{"zip_code":"4890945","prefecture":"愛知県","prefecture_kana":"アイチケン","city":"瀬戸市","city_kana":"セトシ","town":"弁天町","town_kana":"ベンテンチョウ","prefecture_code":23},"0979":{"zip_code":"4890979","prefecture":"愛知県","prefecture_kana":"アイチケン","city":"瀬戸市","city_kana":"セトシ","town":"坊金町","town_kana":"ボウガネチョウ","prefecture_code":23},"0906":{"zip_code":"4890906","prefecture":"愛知県","prefecture_kana":"アイチケン","city":"瀬戸市","city_kana":"セトシ","town":"本郷町","town_kana":"ホンゴウチョウ","prefecture_code":23},"0828":{"zip_code":"4890828","prefecture":"愛知県","prefecture_kana":"アイチケン","city":"瀬戸市","city_kana":"セトシ","town":"前田町","town_kana":"マエダチョウ","prefecture_code":23},"0914":{"zip_code":"4890914","prefecture":"愛知県","prefecture_kana":"アイチケン","city":"瀬戸市","city_kana":"セトシ","town":"孫田町","town_kana":"マゴタチョウ","prefecture_code":23},"0985":{"zip_code":"4890985","prefecture":"愛知県","prefecture_kana":"アイチケン","city":"瀬戸市","city_kana":"セトシ","town":"松原町","town_kana":"マツバラチョウ","prefecture_code":23},"0006":{"zip_code":"4890006","prefecture":"愛知県","prefecture_kana":"アイチケン","city":"瀬戸市","city_kana":"セトシ","town":"三沢町","town_kana":"ミサワチョウ","prefecture_code":23},"0909":{"zip_code":"4890909","prefecture":"愛知県","prefecture_kana":"アイチケン","city":"瀬戸市","city_kana":"セトシ","town":"みずの坂","town_kana":"ミズノザカ","prefecture_code":23},"0808":{"zip_code":"4890808","prefecture":"愛知県","prefecture_kana":"アイチケン","city":"瀬戸市","city_kana":"セトシ","town":"見付町","town_kana":"ミツケチョウ","prefecture_code":23},"0875":{"zip_code":"4890875","prefecture":"愛知県","prefecture_kana":"アイチケン","city":"瀬戸市","city_kana":"セトシ","town":"緑町","town_kana":"ミドリチョウ","prefecture_code":23},"0872":{"zip_code":"4890872","prefecture":"愛知県","prefecture_kana":"アイチケン","city":"瀬戸市","city_kana":"セトシ","town":"水無瀬町","town_kana":"ミナセチョウ","prefecture_code":23},"0834":{"zip_code":"4890834","prefecture":"愛知県","prefecture_kana":"アイチケン","city":"瀬戸市","city_kana":"セトシ","town":"南東町","town_kana":"ミナミアズマチョウ","prefecture_code":23},"0955":{"zip_code":"4890955","prefecture":"愛知県","prefecture_kana":"アイチケン","city":"瀬戸市","city_kana":"セトシ","town":"南ケ丘町","town_kana":"ミナミガオカチョウ","prefecture_code":23},"0016":{"zip_code":"4890016","prefecture":"愛知県","prefecture_kana":"アイチケン","city":"瀬戸市","city_kana":"セトシ","town":"南白坂町","town_kana":"ミナミシラサカチョウ","prefecture_code":23},"0815":{"zip_code":"4890815","prefecture":"愛知県","prefecture_kana":"アイチケン","city":"瀬戸市","city_kana":"セトシ","town":"南仲之切町","town_kana":"ミナミナカノキリチョウ","prefecture_code":23},"0937":{"zip_code":"4890937","prefecture":"愛知県","prefecture_kana":"アイチケン","city":"瀬戸市","city_kana":"セトシ","town":"南菱野町","town_kana":"ミナミヒシノチョウ","prefecture_code":23},"0965":{"zip_code":"4890965","prefecture":"愛知県","prefecture_kana":"アイチケン","city":"瀬戸市","city_kana":"セトシ","town":"南山口町","town_kana":"ミナミヤマグチチョウ","prefecture_code":23},"0986":{"zip_code":"4890986","prefecture":"愛知県","prefecture_kana":"アイチケン","city":"瀬戸市","city_kana":"セトシ","town":"南山町","town_kana":"ミナミヤマチョウ","prefecture_code":23},"0932":{"zip_code":"4890932","prefecture":"愛知県","prefecture_kana":"アイチケン","city":"瀬戸市","city_kana":"セトシ","town":"美濃池町","town_kana":"ミノノイケチョウ","prefecture_code":23},"0077":{"zip_code":"4890077","prefecture":"愛知県","prefecture_kana":"アイチケン","city":"瀬戸市","city_kana":"セトシ","town":"宮里町","town_kana":"ミヤザトチョウ","prefecture_code":23},"0963":{"zip_code":"4890963","prefecture":"愛知県","prefecture_kana":"アイチケン","city":"瀬戸市","city_kana":"セトシ","town":"宮地町","town_kana":"ミヤジチョウ","prefecture_code":23},"0074":{"zip_code":"4890074","prefecture":"愛知県","prefecture_kana":"アイチケン","city":"瀬戸市","city_kana":"セトシ","town":"宮脇町","town_kana":"ミヤワキチョウ","prefecture_code":23},"0046":{"zip_code":"4890046","prefecture":"愛知県","prefecture_kana":"アイチケン","city":"瀬戸市","city_kana":"セトシ","town":"元町","town_kana":"モトマチ","prefecture_code":23},"0844":{"zip_code":"4890844","prefecture":"愛知県","prefecture_kana":"アイチケン","city":"瀬戸市","city_kana":"セトシ","town":"門前町","town_kana":"モンゼンチョウ","prefecture_code":23},"0866":{"zip_code":"4890866","prefecture":"愛知県","prefecture_kana":"アイチケン","city":"瀬戸市","city_kana":"セトシ","town":"矢形町","town_kana":"ヤカタチョウ","prefecture_code":23},"0821":{"zip_code":"4890821","prefecture":"愛知県","prefecture_kana":"アイチケン","city":"瀬戸市","city_kana":"セトシ","town":"薬師町","town_kana":"ヤクシマチ","prefecture_code":23},"0052":{"zip_code":"4890052","prefecture":"愛知県","prefecture_kana":"アイチケン","city":"瀬戸市","city_kana":"セトシ","town":"安戸町","town_kana":"ヤスドチョウ","prefecture_code":23},"0858":{"zip_code":"4890858","prefecture":"愛知県","prefecture_kana":"アイチケン","city":"瀬戸市","city_kana":"セトシ","town":"屋戸町","town_kana":"ヤトチョウ","prefecture_code":23},"0953":{"zip_code":"4890953","prefecture":"愛知県","prefecture_kana":"アイチケン","city":"瀬戸市","city_kana":"セトシ","town":"柳ケ坪町","town_kana":"ヤナガツボチョウ","prefecture_code":23},"0865":{"zip_code":"4890865","prefecture":"愛知県","prefecture_kana":"アイチケン","city":"瀬戸市","city_kana":"セトシ","town":"山口町","town_kana":"ヤマグチチョウ","prefecture_code":23},"0859":{"zip_code":"4890859","prefecture":"愛知県","prefecture_kana":"アイチケン","city":"瀬戸市","city_kana":"セトシ","town":"山路町","town_kana":"ヤマジチョウ","prefecture_code":23},"0980":{"zip_code":"4890980","prefecture":"愛知県","prefecture_kana":"アイチケン","city":"瀬戸市","city_kana":"セトシ","town":"やまて坂","town_kana":"ヤマテザカ","prefecture_code":23},"0989":{"zip_code":"4890989","prefecture":"愛知県","prefecture_kana":"アイチケン","city":"瀬戸市","city_kana":"セトシ","town":"山手町","town_kana":"ヤマテチョウ","prefecture_code":23},"0975":{"zip_code":"4890975","prefecture":"愛知県","prefecture_kana":"アイチケン","city":"瀬戸市","city_kana":"セトシ","town":"山の田町","town_kana":"ヤマノタチョウ","prefecture_code":23},"0811":{"zip_code":"4890811","prefecture":"愛知県","prefecture_kana":"アイチケン","city":"瀬戸市","city_kana":"セトシ","town":"山脇町","town_kana":"ヤマワキチョウ","prefecture_code":23},"0078":{"zip_code":"4890078","prefecture":"愛知県","prefecture_kana":"アイチケン","city":"瀬戸市","city_kana":"セトシ","town":"湯之根町","town_kana":"ユノネチョウ","prefecture_code":23},"0903":{"zip_code":"4890903","prefecture":"愛知県","prefecture_kana":"アイチケン","city":"瀬戸市","city_kana":"セトシ","town":"ゆりの台","town_kana":"ユリノダイ","prefecture_code":23},"0857":{"zip_code":"4890857","prefecture":"愛知県","prefecture_kana":"アイチケン","city":"瀬戸市","city_kana":"セトシ","town":"吉野町","town_kana":"ヨシノチョウ","prefecture_code":23},"0002":{"zip_code":"4890002","prefecture":"愛知県","prefecture_kana":"アイチケン","city":"瀬戸市","city_kana":"セトシ","town":"余床町","town_kana":"ヨドコチョウ","prefecture_code":23},"0864":{"zip_code":"4890864","prefecture":"愛知県","prefecture_kana":"アイチケン","city":"瀬戸市","city_kana":"セトシ","town":"若宮町","town_kana":"ワカミヤチョウ","prefecture_code":23}}