{"1303":{"zip_code":"4901303","prefecture":"愛知県","prefecture_kana":"アイチケン","city":"稲沢市","city_kana":"イナザワシ","town":"平和町上三宅","town_kana":"ヘイワチョウカミミヤケ","prefecture_code":23},"1302":{"zip_code":"4901302","prefecture":"愛知県","prefecture_kana":"アイチケン","city":"稲沢市","city_kana":"イナザワシ","town":"平和町観音堂","town_kana":"ヘイワチョウカンノンドウ","prefecture_code":23},"1314":{"zip_code":"4901314","prefecture":"愛知県","prefecture_kana":"アイチケン","city":"稲沢市","city_kana":"イナザワシ","town":"平和町西光坊","town_kana":"ヘイワチョウサイコウボウ","prefecture_code":23},"1312":{"zip_code":"4901312","prefecture":"愛知県","prefecture_kana":"アイチケン","city":"稲沢市","city_kana":"イナザワシ","town":"平和町下三宅","town_kana":"ヘイワチョウシモミヤケ","prefecture_code":23},"1301":{"zip_code":"4901301","prefecture":"愛知県","prefecture_kana":"アイチケン","city":"稲沢市","city_kana":"イナザワシ","town":"平和町須ケ谷","town_kana":"ヘイワチョウスカタニ","prefecture_code":23},"1321":{"zip_code":"4901321","prefecture":"愛知県","prefecture_kana":"アイチケン","city":"稲沢市","city_kana":"イナザワシ","town":"平和町東城","town_kana":"ヘイワチョウトウジョウ","prefecture_code":23},"1311":{"zip_code":"4901311","prefecture":"愛知県","prefecture_kana":"アイチケン","city":"稲沢市","city_kana":"イナザワシ","town":"平和町中三宅","town_kana":"ヘイワチョウナカミヤケ","prefecture_code":23},"1315":{"zip_code":"4901315","prefecture":"愛知県","prefecture_kana":"アイチケン","city":"稲沢市","city_kana":"イナザワシ","town":"平和町平池","town_kana":"ヘイワチョウヒライケ","prefecture_code":23},"1304":{"zip_code":"4901304","prefecture":"愛知県","prefecture_kana":"アイチケン","city":"稲沢市","city_kana":"イナザワシ","town":"平和町法立","town_kana":"ヘイワチョウホウリュウ","prefecture_code":23},"1313":{"zip_code":"4901313","prefecture":"愛知県","prefecture_kana":"アイチケン","city":"稲沢市","city_kana":"イナザワシ","town":"平和町横池","town_kana":"ヘイワチョウヨコイケ","prefecture_code":23},"1322":[{"zip_code":"4901322","prefecture":"愛知県","prefecture_kana":"アイチケン","city":"稲沢市","city_kana":"イナザワシ","town":"平和町上前浪","town_kana":"ヘイワチョウカミマエナミ","prefecture_code":23},{"zip_code":"4901322","prefecture":"愛知県","prefecture_kana":"アイチケン","city":"稲沢市","city_kana":"イナザワシ","town":"平和町下前浪","town_kana":"ヘイワチョウシモマエナミ","prefecture_code":23}],"1323":[{"zip_code":"4901323","prefecture":"愛知県","prefecture_kana":"アイチケン","city":"稲沢市","city_kana":"イナザワシ","town":"平和町光和","town_kana":"ヘイワチョウコウワ","prefecture_code":23},{"zip_code":"4901323","prefecture":"愛知県","prefecture_kana":"アイチケン","city":"稲沢市","city_kana":"イナザワシ","town":"平和町塩川","town_kana":"ヘイワチョウシオカワ","prefecture_code":23},{"zip_code":"4901323","prefecture":"愛知県","prefecture_kana":"アイチケン","city":"稲沢市","city_kana":"イナザワシ","town":"平和町下起北","town_kana":"ヘイワチョウシモコシキタ","prefecture_code":23},{"zip_code":"4901323","prefecture":"愛知県","prefecture_kana":"アイチケン","city":"稲沢市","city_kana":"イナザワシ","town":"平和町下起中","town_kana":"ヘイワチョウシモコシナカ","prefecture_code":23},{"zip_code":"4901323","prefecture":"愛知県","prefecture_kana":"アイチケン","city":"稲沢市","city_kana":"イナザワシ","town":"平和町下起東","town_kana":"ヘイワチョウシモコシヒガシ","prefecture_code":23},{"zip_code":"4901323","prefecture":"愛知県","prefecture_kana":"アイチケン","city":"稲沢市","city_kana":"イナザワシ","town":"平和町下起南","town_kana":"ヘイワチョウシモコシミナミ","prefecture_code":23},{"zip_code":"4901323","prefecture":"愛知県","prefecture_kana":"アイチケン","city":"稲沢市","city_kana":"イナザワシ","town":"平和町勝幡新田","town_kana":"ヘイワチョウショバタシンデン","prefecture_code":23},{"zip_code":"4901323","prefecture":"愛知県","prefecture_kana":"アイチケン","city":"稲沢市","city_kana":"イナザワシ","town":"平和町城西","town_kana":"ヘイワチョウシロニシ","prefecture_code":23},{"zip_code":"4901323","prefecture":"愛知県","prefecture_kana":"アイチケン","city":"稲沢市","city_kana":"イナザワシ","town":"平和町城之内","town_kana":"ヘイワチョウシロノウチ","prefecture_code":23},{"zip_code":"4901323","prefecture":"愛知県","prefecture_kana":"アイチケン","city":"稲沢市","city_kana":"イナザワシ","town":"平和町須ケ脇","town_kana":"ヘイワチョウスカワキ","prefecture_code":23},{"zip_code":"4901323","prefecture":"愛知県","prefecture_kana":"アイチケン","city":"稲沢市","city_kana":"イナザワシ","town":"平和町那古良","town_kana":"ヘイワチョウナコラ","prefecture_code":23},{"zip_code":"4901323","prefecture":"愛知県","prefecture_kana":"アイチケン","city":"稲沢市","city_kana":"イナザワシ","town":"平和町平六","town_kana":"ヘイワチョウヘイロク","prefecture_code":23},{"zip_code":"4901323","prefecture":"愛知県","prefecture_kana":"アイチケン","city":"稲沢市","city_kana":"イナザワシ","town":"平和町前平","town_kana":"ヘイワチョウマエヒラ","prefecture_code":23},{"zip_code":"4901323","prefecture":"愛知県","prefecture_kana":"アイチケン","city":"稲沢市","city_kana":"イナザワシ","town":"平和町明和","town_kana":"ヘイワチョウメイワ","prefecture_code":23},{"zip_code":"4901323","prefecture":"愛知県","prefecture_kana":"アイチケン","city":"稲沢市","city_kana":"イナザワシ","town":"平和町嫁振","town_kana":"ヘイワチョウヨメフリ","prefecture_code":23},{"zip_code":"4901323","prefecture":"愛知県","prefecture_kana":"アイチケン","city":"稲沢市","city_kana":"イナザワシ","town":"平和町嫁振北","town_kana":"ヘイワチョウヨメフリキタ","prefecture_code":23},{"zip_code":"4901323","prefecture":"愛知県","prefecture_kana":"アイチケン","city":"稲沢市","city_kana":"イナザワシ","town":"平和町嫁振東","town_kana":"ヘイワチョウヨメフリヒガシ","prefecture_code":23},{"zip_code":"4901323","prefecture":"愛知県","prefecture_kana":"アイチケン","city":"稲沢市","city_kana":"イナザワシ","town":"平和町領内","town_kana":"ヘイワチョウリョウナイ","prefecture_code":23}],"1305":[{"zip_code":"4901305","prefecture":"愛知県","prefecture_kana":"アイチケン","city":"稲沢市","city_kana":"イナザワシ","town":"平和町丸渕上","town_kana":"ヘイワチョウマルブチカミ","prefecture_code":23},{"zip_code":"4901305","prefecture":"愛知県","prefecture_kana":"アイチケン","city":"稲沢市","city_kana":"イナザワシ","town":"平和町丸渕下","town_kana":"ヘイワチョウマルブチシモ","prefecture_code":23},{"zip_code":"4901305","prefecture":"愛知県","prefecture_kana":"アイチケン","city":"稲沢市","city_kana":"イナザワシ","town":"平和町鷲尾","town_kana":"ヘイワチョウワシオ","prefecture_code":23}],"1404":{"zip_code":"4901404","prefecture":"愛知県","prefecture_kana":"アイチケン","city":"弥富市","city_kana":"ヤトミシ","town":"桴場","town_kana":"イカダバ","prefecture_code":23},"1412":{"zip_code":"4901412","prefecture":"愛知県","prefecture_kana":"アイチケン","city":"弥富市","city_kana":"ヤトミシ","town":"馬ケ地","town_kana":"ウマガンジ","prefecture_code":23},"1423":[{"zip_code":"4901423","prefecture":"愛知県","prefecture_kana":"アイチケン","city":"弥富市","city_kana":"ヤトミシ","town":"海屋","town_kana":"カイオク","prefecture_code":23},{"zip_code":"4901423","prefecture":"愛知県","prefecture_kana":"アイチケン","city":"弥富市","city_kana":"ヤトミシ","town":"海屋町","town_kana":"カイオクチョウ","prefecture_code":23}],"1421":[{"zip_code":"4901421","prefecture":"愛知県","prefecture_kana":"アイチケン","city":"弥富市","city_kana":"ヤトミシ","town":"上押萩","town_kana":"カミオシハギ","prefecture_code":23},{"zip_code":"4901421","prefecture":"愛知県","prefecture_kana":"アイチケン","city":"弥富市","city_kana":"ヤトミシ","town":"上押萩町","town_kana":"カミオシハギチョウ","prefecture_code":23}],"1424":{"zip_code":"4901424","prefecture":"愛知県","prefecture_kana":"アイチケン","city":"弥富市","city_kana":"ヤトミシ","town":"亀ケ地","town_kana":"カメガンジ","prefecture_code":23},"1405":[{"zip_code":"4901405","prefecture":"愛知県","prefecture_kana":"アイチケン","city":"弥富市","city_kana":"ヤトミシ","town":"神戸","town_kana":"カンド","prefecture_code":23},{"zip_code":"4901405","prefecture":"愛知県","prefecture_kana":"アイチケン","city":"弥富市","city_kana":"ヤトミシ","town":"神戸町","town_kana":"カンドチョウ","prefecture_code":23}],"1413":[{"zip_code":"4901413","prefecture":"愛知県","prefecture_kana":"アイチケン","city":"弥富市","city_kana":"ヤトミシ","town":"子宝","town_kana":"コダカラ","prefecture_code":23},{"zip_code":"4901413","prefecture":"愛知県","prefecture_kana":"アイチケン","city":"弥富市","city_kana":"ヤトミシ","town":"子宝町","town_kana":"コダカラチョウ","prefecture_code":23}],"1402":{"zip_code":"4901402","prefecture":"愛知県","prefecture_kana":"アイチケン","city":"弥富市","city_kana":"ヤトミシ","town":"五斗山","town_kana":"ゴトヤマ","prefecture_code":23},"1414":[{"zip_code":"4901414","prefecture":"愛知県","prefecture_kana":"アイチケン","city":"弥富市","city_kana":"ヤトミシ","town":"坂中地","town_kana":"サカナカジ","prefecture_code":23},{"zip_code":"4901414","prefecture":"愛知県","prefecture_kana":"アイチケン","city":"弥富市","city_kana":"ヤトミシ","town":"坂中地町","town_kana":"サカナカジチョウ","prefecture_code":23}],"1415":[{"zip_code":"4901415","prefecture":"愛知県","prefecture_kana":"アイチケン","city":"弥富市","city_kana":"ヤトミシ","town":"鮫ケ地","town_kana":"サメガンジ","prefecture_code":23},{"zip_code":"4901415","prefecture":"愛知県","prefecture_kana":"アイチケン","city":"弥富市","city_kana":"ヤトミシ","town":"鮫ケ地町","town_kana":"サメガンジチョウ","prefecture_code":23}],"1407":{"zip_code":"4901407","prefecture":"愛知県","prefecture_kana":"アイチケン","city":"弥富市","city_kana":"ヤトミシ","town":"三百島","town_kana":"サンビャクジマ","prefecture_code":23},"1422":[{"zip_code":"4901422","prefecture":"愛知県","prefecture_kana":"アイチケン","city":"弥富市","city_kana":"ヤトミシ","town":"下押萩","town_kana":"シモオシハギ","prefecture_code":23},{"zip_code":"4901422","prefecture":"愛知県","prefecture_kana":"アイチケン","city":"弥富市","city_kana":"ヤトミシ","town":"下押萩町","town_kana":"シモオシハギチョウ","prefecture_code":23}],"1426":[{"zip_code":"4901426","prefecture":"愛知県","prefecture_kana":"アイチケン","city":"弥富市","city_kana":"ヤトミシ","town":"四郎兵衛","town_kana":"シロベエ","prefecture_code":23},{"zip_code":"4901426","prefecture":"愛知県","prefecture_kana":"アイチケン","city":"弥富市","city_kana":"ヤトミシ","town":"四郎兵衛町","town_kana":"シロベエチョウ","prefecture_code":23}],"1411":{"zip_code":"4901411","prefecture":"愛知県","prefecture_kana":"アイチケン","city":"弥富市","city_kana":"ヤトミシ","town":"善太町","town_kana":"ゼンタチョウ","prefecture_code":23},"1428":{"zip_code":"4901428","prefecture":"愛知県","prefecture_kana":"アイチケン","city":"弥富市","city_kana":"ヤトミシ","town":"竹田","town_kana":"タケタ","prefecture_code":23},"1403":[{"zip_code":"4901403","prefecture":"愛知県","prefecture_kana":"アイチケン","city":"弥富市","city_kana":"ヤトミシ","town":"鳥ケ地","town_kana":"トリガンジ","prefecture_code":23},{"zip_code":"4901403","prefecture":"愛知県","prefecture_kana":"アイチケン","city":"弥富市","city_kana":"ヤトミシ","town":"鳥ケ地町","town_kana":"トリガンジチョウ","prefecture_code":23}],"1406":{"zip_code":"4901406","prefecture":"愛知県","prefecture_kana":"アイチケン","city":"弥富市","city_kana":"ヤトミシ","town":"鍋平","town_kana":"ナベヒラ","prefecture_code":23},"1427":{"zip_code":"4901427","prefecture":"愛知県","prefecture_kana":"アイチケン","city":"弥富市","city_kana":"ヤトミシ","town":"西蜆","town_kana":"ニシシジミ","prefecture_code":23},"1425":{"zip_code":"4901425","prefecture":"愛知県","prefecture_kana":"アイチケン","city":"弥富市","city_kana":"ヤトミシ","town":"東蜆","town_kana":"ヒガシシジミ","prefecture_code":23},"1401":{"zip_code":"4901401","prefecture":"愛知県","prefecture_kana":"アイチケン","city":"弥富市","city_kana":"ヤトミシ","town":"六條町","town_kana":"ロクジョウチョウ","prefecture_code":23},"1200":{"zip_code":"4901200","prefecture":"愛知県","prefecture_kana":"アイチケン","city":"あま市","city_kana":"アマシ","town":"","town_kana":"","prefecture_code":23},"1102":{"zip_code":"4901102","prefecture":"愛知県","prefecture_kana":"アイチケン","city":"あま市","city_kana":"アマシ","town":"石作","town_kana":"イシツクリ","prefecture_code":23},"1213":{"zip_code":"4901213","prefecture":"愛知県","prefecture_kana":"アイチケン","city":"あま市","city_kana":"アマシ","town":"乙之子","town_kana":"オトノコ","prefecture_code":23},"1221":{"zip_code":"4901221","prefecture":"愛知県","prefecture_kana":"アイチケン","city":"あま市","city_kana":"アマシ","town":"金岩","town_kana":"カナイワ","prefecture_code":23},"1112":{"zip_code":"4901112","prefecture":"愛知県","prefecture_kana":"アイチケン","city":"あま市","city_kana":"アマシ","town":"上萱津","town_kana":"カミカヤヅ","prefecture_code":23},"1203":{"zip_code":"4901203","prefecture":"愛知県","prefecture_kana":"アイチケン","city":"あま市","city_kana":"アマシ","town":"木折","town_kana":"キオリ","prefecture_code":23},"1222":{"zip_code":"4901222","prefecture":"愛知県","prefecture_kana":"アイチケン","city":"あま市","city_kana":"アマシ","town":"木田","town_kana":"キダ","prefecture_code":23},"1214":{"zip_code":"4901214","prefecture":"愛知県","prefecture_kana":"アイチケン","city":"あま市","city_kana":"アマシ","town":"北苅","town_kana":"キタガリ","prefecture_code":23},"1212":{"zip_code":"4901212","prefecture":"愛知県","prefecture_kana":"アイチケン","city":"あま市","city_kana":"アマシ","town":"小橋方","town_kana":"コバシガタ","prefecture_code":23},"1103":{"zip_code":"4901103","prefecture":"愛知県","prefecture_kana":"アイチケン","city":"あま市","city_kana":"アマシ","town":"栄","town_kana":"サカエ","prefecture_code":23},"1115":{"zip_code":"4901115","prefecture":"愛知県","prefecture_kana":"アイチケン","city":"あま市","city_kana":"アマシ","town":"坂牧","town_kana":"サカマキ","prefecture_code":23},"1211":{"zip_code":"4901211","prefecture":"愛知県","prefecture_kana":"アイチケン","city":"あま市","city_kana":"アマシ","town":"篠田","town_kana":"シノダ","prefecture_code":23},"1114":{"zip_code":"4901114","prefecture":"愛知県","prefecture_kana":"アイチケン","city":"あま市","city_kana":"アマシ","town":"下萱津","town_kana":"シモカヤヅ","prefecture_code":23},"1111":{"zip_code":"4901111","prefecture":"愛知県","prefecture_kana":"アイチケン","city":"あま市","city_kana":"アマシ","town":"甚目寺","town_kana":"ジモクジ","prefecture_code":23},"1106":{"zip_code":"4901106","prefecture":"愛知県","prefecture_kana":"アイチケン","city":"あま市","city_kana":"アマシ","town":"小路","town_kana":"ショウジ","prefecture_code":23},"1224":{"zip_code":"4901224","prefecture":"愛知県","prefecture_kana":"アイチケン","city":"あま市","city_kana":"アマシ","town":"丹波","town_kana":"タンバ","prefecture_code":23},"1202":{"zip_code":"4901202","prefecture":"愛知県","prefecture_kana":"アイチケン","city":"あま市","city_kana":"アマシ","town":"富塚","town_kana":"トミツカ","prefecture_code":23},"1113":{"zip_code":"4901113","prefecture":"愛知県","prefecture_kana":"アイチケン","city":"あま市","city_kana":"アマシ","town":"中萱津","town_kana":"ナカカヤヅ","prefecture_code":23},"1226":{"zip_code":"4901226","prefecture":"愛知県","prefecture_kana":"アイチケン","city":"あま市","city_kana":"アマシ","town":"中橋","town_kana":"ナカハシ","prefecture_code":23},"1105":{"zip_code":"4901105","prefecture":"愛知県","prefecture_kana":"アイチケン","city":"あま市","city_kana":"アマシ","town":"新居屋","town_kana":"ニイヤ","prefecture_code":23},"1104":{"zip_code":"4901104","prefecture":"愛知県","prefecture_kana":"アイチケン","city":"あま市","city_kana":"アマシ","town":"西今宿","town_kana":"ニシイマジュク","prefecture_code":23},"1225":{"zip_code":"4901225","prefecture":"愛知県","prefecture_kana":"アイチケン","city":"あま市","city_kana":"アマシ","town":"蜂須賀","town_kana":"ハチスカ","prefecture_code":23},"1204":{"zip_code":"4901204","prefecture":"愛知県","prefecture_kana":"アイチケン","city":"あま市","city_kana":"アマシ","town":"花長","town_kana":"ハナオサ","prefecture_code":23},"1205":{"zip_code":"4901205","prefecture":"愛知県","prefecture_kana":"アイチケン","city":"あま市","city_kana":"アマシ","town":"花正","town_kana":"ハナマサ","prefecture_code":23},"1206":{"zip_code":"4901206","prefecture":"愛知県","prefecture_kana":"アイチケン","city":"あま市","city_kana":"アマシ","town":"東溝口","town_kana":"ヒガシミゾグチ","prefecture_code":23},"1207":{"zip_code":"4901207","prefecture":"愛知県","prefecture_kana":"アイチケン","city":"あま市","city_kana":"アマシ","town":"二ツ寺","town_kana":"フタツデラ","prefecture_code":23},"1201":{"zip_code":"4901201","prefecture":"愛知県","prefecture_kana":"アイチケン","city":"あま市","city_kana":"アマシ","town":"古道","town_kana":"フルミチ","prefecture_code":23},"1101":{"zip_code":"4901101","prefecture":"愛知県","prefecture_kana":"アイチケン","city":"あま市","city_kana":"アマシ","town":"方領","town_kana":"ホウリョウ","prefecture_code":23},"1116":{"zip_code":"4901116","prefecture":"愛知県","prefecture_kana":"アイチケン","city":"あま市","city_kana":"アマシ","town":"本郷","town_kana":"ホンゴウ","prefecture_code":23},"1107":{"zip_code":"4901107","prefecture":"愛知県","prefecture_kana":"アイチケン","city":"あま市","city_kana":"アマシ","town":"森","town_kana":"モリ","prefecture_code":23},"1223":{"zip_code":"4901223","prefecture":"愛知県","prefecture_kana":"アイチケン","city":"あま市","city_kana":"アマシ","town":"森山","town_kana":"モリヤマ","prefecture_code":23},"1100":{"zip_code":"4901100","prefecture":"愛知県","prefecture_kana":"アイチケン","city":"海部郡大治町","city_kana":"アマグンオオハルチョウ","town":"","town_kana":"","prefecture_code":23},"1135":{"zip_code":"4901135","prefecture":"愛知県","prefecture_kana":"アイチケン","city":"海部郡大治町","city_kana":"アマグンオオハルチョウ","town":"鎌須賀","town_kana":"カマスカ","prefecture_code":23},"1132":{"zip_code":"4901132","prefecture":"愛知県","prefecture_kana":"アイチケン","city":"海部郡大治町","city_kana":"アマグンオオハルチョウ","town":"北間島","town_kana":"キタマジマ","prefecture_code":23},"1142":{"zip_code":"4901142","prefecture":"愛知県","prefecture_kana":"アイチケン","city":"海部郡大治町","city_kana":"アマグンオオハルチョウ","town":"三本木","town_kana":"サンボンギ","prefecture_code":23},"1143":{"zip_code":"4901143","prefecture":"愛知県","prefecture_kana":"アイチケン","city":"海部郡大治町","city_kana":"アマグンオオハルチョウ","town":"砂子","town_kana":"スナゴ","prefecture_code":23},"1145":{"zip_code":"4901145","prefecture":"愛知県","prefecture_kana":"アイチケン","city":"海部郡大治町","city_kana":"アマグンオオハルチョウ","town":"中島","town_kana":"ナカジマ","prefecture_code":23},"1131":{"zip_code":"4901131","prefecture":"愛知県","prefecture_kana":"アイチケン","city":"海部郡大治町","city_kana":"アマグンオオハルチョウ","town":"長牧","town_kana":"ナガマキ","prefecture_code":23},"1144":{"zip_code":"4901144","prefecture":"愛知県","prefecture_kana":"アイチケン","city":"海部郡大治町","city_kana":"アマグンオオハルチョウ","town":"西條","town_kana":"ニシジョウ","prefecture_code":23},"1136":{"zip_code":"4901136","prefecture":"愛知県","prefecture_kana":"アイチケン","city":"海部郡大治町","city_kana":"アマグンオオハルチョウ","town":"花常","town_kana":"ハナツネ","prefecture_code":23},"1134":{"zip_code":"4901134","prefecture":"愛知県","prefecture_kana":"アイチケン","city":"海部郡大治町","city_kana":"アマグンオオハルチョウ","town":"東條","town_kana":"ヒガシジョウ","prefecture_code":23},"1137":{"zip_code":"4901137","prefecture":"愛知県","prefecture_kana":"アイチケン","city":"海部郡大治町","city_kana":"アマグンオオハルチョウ","town":"堀之内","town_kana":"ホリノウチ","prefecture_code":23},"1141":{"zip_code":"4901141","prefecture":"愛知県","prefecture_kana":"アイチケン","city":"海部郡大治町","city_kana":"アマグンオオハルチョウ","town":"馬島","town_kana":"マジマ","prefecture_code":23},"1133":{"zip_code":"4901133","prefecture":"愛知県","prefecture_kana":"アイチケン","city":"海部郡大治町","city_kana":"アマグンオオハルチョウ","town":"八ツ屋","town_kana":"ヤツヤ","prefecture_code":23},"1400":{"zip_code":"4901400","prefecture":"愛知県","prefecture_kana":"アイチケン","city":"海部郡飛島村","city_kana":"アマグントビシマムラ","town":"","town_kana":"","prefecture_code":23},"1435":{"zip_code":"4901435","prefecture":"愛知県","prefecture_kana":"アイチケン","city":"海部郡飛島村","city_kana":"アマグントビシマムラ","town":"梅之郷","town_kana":"ウメノゴウ","prefecture_code":23},"1438":{"zip_code":"4901438","prefecture":"愛知県","prefecture_kana":"アイチケン","city":"海部郡飛島村","city_kana":"アマグントビシマムラ","town":"大宝","town_kana":"オオダカラ","prefecture_code":23},"1445":{"zip_code":"4901445","prefecture":"愛知県","prefecture_kana":"アイチケン","city":"海部郡飛島村","city_kana":"アマグントビシマムラ","town":"金岡","town_kana":"カナオカ","prefecture_code":23},"1444":{"zip_code":"4901444","prefecture":"愛知県","prefecture_kana":"アイチケン","city":"海部郡飛島村","city_kana":"アマグントビシマムラ","town":"木場","town_kana":"キバ","prefecture_code":23},"1442":{"zip_code":"4901442","prefecture":"愛知県","prefecture_kana":"アイチケン","city":"海部郡飛島村","city_kana":"アマグントビシマムラ","town":"古政成","town_kana":"コマサナリ","prefecture_code":23},"1443":{"zip_code":"4901443","prefecture":"愛知県","prefecture_kana":"アイチケン","city":"海部郡飛島村","city_kana":"アマグントビシマムラ","town":"新政成","town_kana":"シンマサナリ","prefecture_code":23},"1436":{"zip_code":"4901436","prefecture":"愛知県","prefecture_kana":"アイチケン","city":"海部郡飛島村","city_kana":"アマグントビシマムラ","town":"竹之郷","town_kana":"タケノゴウ","prefecture_code":23},"1437":[{"zip_code":"4901437","prefecture":"愛知県","prefecture_kana":"アイチケン","city":"海部郡飛島村","city_kana":"アマグントビシマムラ","town":"飛島新田元起之郷","town_kana":"トビシマシンデンモトキノゴウ","prefecture_code":23},{"zip_code":"4901437","prefecture":"愛知県","prefecture_kana":"アイチケン","city":"海部郡飛島村","city_kana":"アマグントビシマムラ","town":"元起","town_kana":"モトキ","prefecture_code":23}],"1433":{"zip_code":"4901433","prefecture":"愛知県","prefecture_kana":"アイチケン","city":"海部郡飛島村","city_kana":"アマグントビシマムラ","town":"渚","town_kana":"ナギサ","prefecture_code":23},"1447":{"zip_code":"4901447","prefecture":"愛知県","prefecture_kana":"アイチケン","city":"海部郡飛島村","city_kana":"アマグントビシマムラ","town":"西浜","town_kana":"ニシハマ","prefecture_code":23},"1446":{"zip_code":"4901446","prefecture":"愛知県","prefecture_kana":"アイチケン","city":"海部郡飛島村","city_kana":"アマグントビシマムラ","town":"東浜","town_kana":"ヒガシハマ","prefecture_code":23},"1431":{"zip_code":"4901431","prefecture":"愛知県","prefecture_kana":"アイチケン","city":"海部郡飛島村","city_kana":"アマグントビシマムラ","town":"服岡","town_kana":"フクオカ","prefecture_code":23},"1441":{"zip_code":"4901441","prefecture":"愛知県","prefecture_kana":"アイチケン","city":"海部郡飛島村","city_kana":"アマグントビシマムラ","town":"政成","town_kana":"マサナリ","prefecture_code":23},"1434":{"zip_code":"4901434","prefecture":"愛知県","prefecture_kana":"アイチケン","city":"海部郡飛島村","city_kana":"アマグントビシマムラ","town":"松之郷","town_kana":"マツノゴウ","prefecture_code":23},"1432":{"zip_code":"4901432","prefecture":"愛知県","prefecture_kana":"アイチケン","city":"海部郡飛島村","city_kana":"アマグントビシマムラ","town":"三福","town_kana":"ミフク","prefecture_code":23}}