{"0000":{"zip_code":"4910000","prefecture":"愛知県","prefecture_kana":"アイチケン","city":"一宮市","city_kana":"イチノミヤシ","town":"以下に掲載がない場合","town_kana":"イカニケイサイガナイバアイ","prefecture_code":23},"0882":{"zip_code":"4910882","prefecture":"愛知県","prefecture_kana":"アイチケン","city":"一宮市","city_kana":"イチノミヤシ","town":"相生","town_kana":"アイオイ","prefecture_code":23},"0023":{"zip_code":"4910023","prefecture":"愛知県","prefecture_kana":"アイチケン","city":"一宮市","city_kana":"イチノミヤシ","town":"赤見","town_kana":"アカミ","prefecture_code":23},"0871":{"zip_code":"4910871","prefecture":"愛知県","prefecture_kana":"アイチケン","city":"一宮市","city_kana":"イチノミヤシ","town":"浅野","town_kana":"アサノ","prefecture_code":23},"0028":{"zip_code":"4910028","prefecture":"愛知県","prefecture_kana":"アイチケン","city":"一宮市","city_kana":"イチノミヤシ","town":"朝日","town_kana":"アサヒ","prefecture_code":23},"0114":{"zip_code":"4910114","prefecture":"愛知県","prefecture_kana":"アイチケン","city":"一宮市","city_kana":"イチノミヤシ","town":"浅井町江森","town_kana":"アザイチョウエモリ","prefecture_code":23},"0143":{"zip_code":"4910143","prefecture":"愛知県","prefecture_kana":"アイチケン","city":"一宮市","city_kana":"イチノミヤシ","town":"浅井町大野","town_kana":"アザイチョウオオノ","prefecture_code":23},"0105":{"zip_code":"4910105","prefecture":"愛知県","prefecture_kana":"アイチケン","city":"一宮市","city_kana":"イチノミヤシ","town":"浅井町大日比野","town_kana":"アザイチョウオオヒビノ","prefecture_code":23},"0101":{"zip_code":"4910101","prefecture":"愛知県","prefecture_kana":"アイチケン","city":"一宮市","city_kana":"イチノミヤシ","town":"浅井町尾関","town_kana":"アザイチョウオゼキ","prefecture_code":23},"0102":{"zip_code":"4910102","prefecture":"愛知県","prefecture_kana":"アイチケン","city":"一宮市","city_kana":"イチノミヤシ","town":"浅井町尾関（長田）","town_kana":"アザイチョウオゼキ(ナガタ)","prefecture_code":23},"0141":{"zip_code":"4910141","prefecture":"愛知県","prefecture_kana":"アイチケン","city":"一宮市","city_kana":"イチノミヤシ","town":"浅井町黒岩","town_kana":"アザイチョウクロイワ","prefecture_code":23},"0142":{"zip_code":"4910142","prefecture":"愛知県","prefecture_kana":"アイチケン","city":"一宮市","city_kana":"イチノミヤシ","town":"浅井町河田","town_kana":"アザイチョウコウダ","prefecture_code":23},"0111":{"zip_code":"4910111","prefecture":"愛知県","prefecture_kana":"アイチケン","city":"一宮市","city_kana":"イチノミヤシ","town":"浅井町河端","town_kana":"アザイチョウコウバタ","prefecture_code":23},"0104":{"zip_code":"4910104","prefecture":"愛知県","prefecture_kana":"アイチケン","city":"一宮市","city_kana":"イチノミヤシ","town":"浅井町小日比野","town_kana":"アザイチョウコヒビノ","prefecture_code":23},"0144":{"zip_code":"4910144","prefecture":"愛知県","prefecture_kana":"アイチケン","city":"一宮市","city_kana":"イチノミヤシ","town":"浅井町極楽寺","town_kana":"アザイチョウゴクラクジ","prefecture_code":23},"0112":{"zip_code":"4910112","prefecture":"愛知県","prefecture_kana":"アイチケン","city":"一宮市","city_kana":"イチノミヤシ","town":"浅井町東浅井","town_kana":"アザイチョウヒガシアザイ","prefecture_code":23},"0113":{"zip_code":"4910113","prefecture":"愛知県","prefecture_kana":"アイチケン","city":"一宮市","city_kana":"イチノミヤシ","town":"浅井町西浅井","town_kana":"アザイチョウニシアザイ","prefecture_code":23},"0115":{"zip_code":"4910115","prefecture":"愛知県","prefecture_kana":"アイチケン","city":"一宮市","city_kana":"イチノミヤシ","town":"浅井町西海戸","town_kana":"アザイチョウニシガイド","prefecture_code":23},"0103":{"zip_code":"4910103","prefecture":"愛知県","prefecture_kana":"アイチケン","city":"一宮市","city_kana":"イチノミヤシ","town":"浅井町前野","town_kana":"アザイチョウマエノ","prefecture_code":23},"0835":{"zip_code":"4910835","prefecture":"愛知県","prefecture_kana":"アイチケン","city":"一宮市","city_kana":"イチノミヤシ","town":"あずら","town_kana":"アズラ","prefecture_code":23},"0902":{"zip_code":"4910902","prefecture":"愛知県","prefecture_kana":"アイチケン","city":"一宮市","city_kana":"イチノミヤシ","town":"一色町","town_kana":"イシキチョウ","prefecture_code":23},"0855":{"zip_code":"4910855","prefecture":"愛知県","prefecture_kana":"アイチケン","city":"一宮市","city_kana":"イチノミヤシ","town":"石山町","town_kana":"イシヤマチョウ","prefecture_code":23},"0861":{"zip_code":"4910861","prefecture":"愛知県","prefecture_kana":"アイチケン","city":"一宮市","city_kana":"イチノミヤシ","town":"泉","town_kana":"イズミ","prefecture_code":23},"0059":{"zip_code":"4910059","prefecture":"愛知県","prefecture_kana":"アイチケン","city":"一宮市","city_kana":"イチノミヤシ","town":"一宮","town_kana":"イチノミヤ","prefecture_code":23},"0061":{"zip_code":"4910061","prefecture":"愛知県","prefecture_kana":"アイチケン","city":"一宮市","city_kana":"イチノミヤシ","town":"乾町","town_kana":"イヌイチョウ","prefecture_code":23},"0058":{"zip_code":"4910058","prefecture":"愛知県","prefecture_kana":"アイチケン","city":"一宮市","city_kana":"イチノミヤシ","town":"今伊勢町馬寄（舟入）","town_kana":"イマイセチョウウマヨセ(フナイリ)","prefecture_code":23},"0051":{"zip_code":"4910051","prefecture":"愛知県","prefecture_kana":"アイチケン","city":"一宮市","city_kana":"イチノミヤシ","town":"今伊勢町馬寄（その他）","town_kana":"イマイセチョウウマヨセ(ソノタ)","prefecture_code":23},"0052":{"zip_code":"4910052","prefecture":"愛知県","prefecture_kana":"アイチケン","city":"一宮市","city_kana":"イチノミヤシ","town":"今伊勢町新神戸","town_kana":"イマイセチョウシンカンベ","prefecture_code":23},"0053":{"zip_code":"4910053","prefecture":"愛知県","prefecture_kana":"アイチケン","city":"一宮市","city_kana":"イチノミヤシ","town":"今伊勢町本神戸","town_kana":"イマイセチョウホンカンベ","prefecture_code":23},"0057":{"zip_code":"4910057","prefecture":"愛知県","prefecture_kana":"アイチケン","city":"一宮市","city_kana":"イチノミヤシ","town":"今伊勢町宮後","town_kana":"イマイセチョウミヤウシロ","prefecture_code":23},"0865":{"zip_code":"4910865","prefecture":"愛知県","prefecture_kana":"アイチケン","city":"一宮市","city_kana":"イチノミヤシ","town":"印田通","town_kana":"インデンドオリ","prefecture_code":23},"0846":{"zip_code":"4910846","prefecture":"愛知県","prefecture_kana":"アイチケン","city":"一宮市","city_kana":"イチノミヤシ","town":"牛野通","town_kana":"ウシノドオリ","prefecture_code":23},"0015":{"zip_code":"4910015","prefecture":"愛知県","prefecture_kana":"アイチケン","city":"一宮市","city_kana":"イチノミヤシ","town":"大赤見","town_kana":"オオアカミ","prefecture_code":23},"0851":{"zip_code":"4910851","prefecture":"愛知県","prefecture_kana":"アイチケン","city":"一宮市","city_kana":"イチノミヤシ","town":"大江","town_kana":"オオエ","prefecture_code":23},"0132":{"zip_code":"4910132","prefecture":"愛知県","prefecture_kana":"アイチケン","city":"一宮市","city_kana":"イチノミヤシ","town":"大毛","town_kana":"オオケ","prefecture_code":23},"0035":{"zip_code":"4910035","prefecture":"愛知県","prefecture_kana":"アイチケン","city":"一宮市","city_kana":"イチノミヤシ","town":"大浜","town_kana":"オオハマ","prefecture_code":23},"0044":{"zip_code":"4910044","prefecture":"愛知県","prefecture_kana":"アイチケン","city":"一宮市","city_kana":"イチノミヤシ","town":"大宮","town_kana":"オオミヤ","prefecture_code":23},"0201":{"zip_code":"4910201","prefecture":"愛知県","prefecture_kana":"アイチケン","city":"一宮市","city_kana":"イチノミヤシ","town":"奥町","town_kana":"オクチョウ","prefecture_code":23},"0068":{"zip_code":"4910068","prefecture":"愛知県","prefecture_kana":"アイチケン","city":"一宮市","city_kana":"イチノミヤシ","town":"小栗町","town_kana":"オグリチョウ","prefecture_code":23},"0045":{"zip_code":"4910045","prefecture":"愛知県","prefecture_kana":"アイチケン","city":"一宮市","city_kana":"イチノミヤシ","town":"音羽","town_kana":"オトワ","prefecture_code":23},"0082":{"zip_code":"4910082","prefecture":"愛知県","prefecture_kana":"アイチケン","city":"一宮市","city_kana":"イチノミヤシ","town":"小原町","town_kana":"オハラチョウ","prefecture_code":23},"0904":{"zip_code":"4910904","prefecture":"愛知県","prefecture_kana":"アイチケン","city":"一宮市","city_kana":"イチノミヤシ","town":"神山","town_kana":"カミヤマ","prefecture_code":23},"0933":{"zip_code":"4910933","prefecture":"愛知県","prefecture_kana":"アイチケン","city":"一宮市","city_kana":"イチノミヤシ","town":"苅安賀","town_kana":"カリヤスカ","prefecture_code":23},"0853":{"zip_code":"4910853","prefecture":"愛知県","prefecture_kana":"アイチケン","city":"一宮市","city_kana":"イチノミヤシ","town":"川田町","town_kana":"カワダチョウ","prefecture_code":23},"0916":{"zip_code":"4910916","prefecture":"愛知県","prefecture_kana":"アイチケン","city":"一宮市","city_kana":"イチノミヤシ","town":"観音寺","town_kana":"カンノンジ","prefecture_code":23},"0031":{"zip_code":"4910031","prefecture":"愛知県","prefecture_kana":"アイチケン","city":"一宮市","city_kana":"イチノミヤシ","town":"観音町","town_kana":"カンノンチョウ","prefecture_code":23},"0055":{"zip_code":"4910055","prefecture":"愛知県","prefecture_kana":"アイチケン","city":"一宮市","city_kana":"イチノミヤシ","town":"神戸町","town_kana":"カンベチョウ","prefecture_code":23},"0901":{"zip_code":"4910901","prefecture":"愛知県","prefecture_kana":"アイチケン","city":"一宮市","city_kana":"イチノミヤシ","town":"北浦町","town_kana":"キタウラチョウ","prefecture_code":23},"0013":{"zip_code":"4910013","prefecture":"愛知県","prefecture_kana":"アイチケン","city":"一宮市","city_kana":"イチノミヤシ","town":"北小渕","town_kana":"キタオブチ","prefecture_code":23},"0069":{"zip_code":"4910069","prefecture":"愛知県","prefecture_kana":"アイチケン","city":"一宮市","city_kana":"イチノミヤシ","town":"北神明町","town_kana":"キタシンメイチョウ","prefecture_code":23},"0854":{"zip_code":"4910854","prefecture":"愛知県","prefecture_kana":"アイチケン","city":"一宮市","city_kana":"イチノミヤシ","town":"北園通","town_kana":"キタゾノドオリ","prefecture_code":23},"0037":{"zip_code":"4910037","prefecture":"愛知県","prefecture_kana":"アイチケン","city":"一宮市","city_kana":"イチノミヤシ","town":"貴船","town_kana":"キフネ","prefecture_code":23},"0076":{"zip_code":"4910076","prefecture":"愛知県","prefecture_kana":"アイチケン","city":"一宮市","city_kana":"イチノミヤシ","town":"貴船町","town_kana":"キフネチョウ","prefecture_code":23},"0079":{"zip_code":"4910079","prefecture":"愛知県","prefecture_kana":"アイチケン","city":"一宮市","city_kana":"イチノミヤシ","town":"九品町","town_kana":"クホンチョウ","prefecture_code":23},"0012":{"zip_code":"4910012","prefecture":"愛知県","prefecture_kana":"アイチケン","city":"一宮市","city_kana":"イチノミヤシ","town":"小赤見","town_kana":"コアカミ","prefecture_code":23},"0842":{"zip_code":"4910842","prefecture":"愛知県","prefecture_kana":"アイチケン","city":"一宮市","city_kana":"イチノミヤシ","town":"公園通","town_kana":"コウエンドオリ","prefecture_code":23},"0135":{"zip_code":"4910135","prefecture":"愛知県","prefecture_kana":"アイチケン","city":"一宮市","city_kana":"イチノミヤシ","town":"光明寺","town_kana":"コウミョウジ","prefecture_code":23},"0867":{"zip_code":"4910867","prefecture":"愛知県","prefecture_kana":"アイチケン","city":"一宮市","city_kana":"イチノミヤシ","town":"古金町","town_kana":"コガネマチ","prefecture_code":23},"0084":{"zip_code":"4910084","prefecture":"愛知県","prefecture_kana":"アイチケン","city":"一宮市","city_kana":"イチノミヤシ","town":"古見町","town_kana":"コケンチョウ","prefecture_code":23},"0858":{"zip_code":"4910858","prefecture":"愛知県","prefecture_kana":"アイチケン","city":"一宮市","city_kana":"イチノミヤシ","town":"栄","town_kana":"サカエ","prefecture_code":23},"0036":{"zip_code":"4910036","prefecture":"愛知県","prefecture_kana":"アイチケン","city":"一宮市","city_kana":"イチノミヤシ","town":"桜","town_kana":"サクラ","prefecture_code":23},"0131":{"zip_code":"4910131","prefecture":"愛知県","prefecture_kana":"アイチケン","city":"一宮市","city_kana":"イチノミヤシ","town":"笹野","town_kana":"ササノ","prefecture_code":23},"0124":{"zip_code":"4910124","prefecture":"愛知県","prefecture_kana":"アイチケン","city":"一宮市","city_kana":"イチノミヤシ","town":"佐千原","town_kana":"サチハラ","prefecture_code":23},"0134":{"zip_code":"4910134","prefecture":"愛知県","prefecture_kana":"アイチケン","city":"一宮市","city_kana":"イチノミヤシ","town":"更屋敷","town_kana":"サラヤシキ","prefecture_code":23},"0838":[{"zip_code":"4910838","prefecture":"愛知県","prefecture_kana":"アイチケン","city":"一宮市","city_kana":"イチノミヤシ","town":"猿海道","town_kana":"サルカイドウ","prefecture_code":23},{"zip_code":"4910838","prefecture":"愛知県","prefecture_kana":"アイチケン","city":"一宮市","city_kana":"イチノミヤシ","town":"丹陽町猿海道","town_kana":"タンヨウチョウサルガイドウ","prefecture_code":23}],"0066":{"zip_code":"4910066","prefecture":"愛知県","prefecture_kana":"アイチケン","city":"一宮市","city_kana":"イチノミヤシ","town":"三丹町","town_kana":"サンタンチョウ","prefecture_code":23},"0834":{"zip_code":"4910834","prefecture":"愛知県","prefecture_kana":"アイチケン","city":"一宮市","city_kana":"イチノミヤシ","town":"島崎","town_kana":"シマサキ","prefecture_code":23},"0121":{"zip_code":"4910121","prefecture":"愛知県","prefecture_kana":"アイチケン","city":"一宮市","city_kana":"イチノミヤシ","town":"島村","town_kana":"シマムラ","prefecture_code":23},"0122":{"zip_code":"4910122","prefecture":"愛知県","prefecture_kana":"アイチケン","city":"一宮市","city_kana":"イチノミヤシ","town":"島村（西山）","town_kana":"シマムラ(ニシヤマ)","prefecture_code":23},"0845":{"zip_code":"4910845","prefecture":"愛知県","prefecture_kana":"アイチケン","city":"一宮市","city_kana":"イチノミヤシ","town":"下川田町","town_kana":"シモカワダチョウ","prefecture_code":23},"0883":{"zip_code":"4910883","prefecture":"愛知県","prefecture_kana":"アイチケン","city":"一宮市","city_kana":"イチノミヤシ","town":"下田","town_kana":"シモダ","prefecture_code":23},"0032":{"zip_code":"4910032","prefecture":"愛知県","prefecture_kana":"アイチケン","city":"一宮市","city_kana":"イチノミヤシ","town":"下沼町","town_kana":"シモヌマチョウ","prefecture_code":23},"0003":{"zip_code":"4910003","prefecture":"愛知県","prefecture_kana":"アイチケン","city":"一宮市","city_kana":"イチノミヤシ","town":"春明","town_kana":"シュンメイ","prefecture_code":23},"0063":{"zip_code":"4910063","prefecture":"愛知県","prefecture_kana":"アイチケン","city":"一宮市","city_kana":"イチノミヤシ","town":"常願通","town_kana":"ジョウガンドオリ","prefecture_code":23},"0004":{"zip_code":"4910004","prefecture":"愛知県","prefecture_kana":"アイチケン","city":"一宮市","city_kana":"イチノミヤシ","town":"定水寺","town_kana":"ジョウスイジ","prefecture_code":23},"0917":{"zip_code":"4910917","prefecture":"愛知県","prefecture_kana":"アイチケン","city":"一宮市","city_kana":"イチノミヤシ","town":"昭和","town_kana":"ショウワ","prefecture_code":23},"0866":{"zip_code":"4910866","prefecture":"愛知県","prefecture_kana":"アイチケン","city":"一宮市","city_kana":"イチノミヤシ","town":"城崎通","town_kana":"シロサキドオリ","prefecture_code":23},"0879":{"zip_code":"4910879","prefecture":"愛知県","prefecture_kana":"アイチケン","city":"一宮市","city_kana":"イチノミヤシ","town":"白旗通","town_kana":"シロハタドオリ","prefecture_code":23},"0912":{"zip_code":"4910912","prefecture":"愛知県","prefecture_kana":"アイチケン","city":"一宮市","city_kana":"イチノミヤシ","town":"新生","town_kana":"シンセイ","prefecture_code":23},"0918":{"zip_code":"4910918","prefecture":"愛知県","prefecture_kana":"アイチケン","city":"一宮市","city_kana":"イチノミヤシ","town":"末広","town_kana":"スエヒロ","prefecture_code":23},"0136":{"zip_code":"4910136","prefecture":"愛知県","prefecture_kana":"アイチケン","city":"一宮市","city_kana":"イチノミヤシ","town":"杉山","town_kana":"スギヤマ","prefecture_code":23},"0919":{"zip_code":"4910919","prefecture":"愛知県","prefecture_kana":"アイチケン","city":"一宮市","city_kana":"イチノミヤシ","town":"住吉","town_kana":"スミヨシ","prefecture_code":23},"0001":{"zip_code":"4910001","prefecture":"愛知県","prefecture_kana":"アイチケン","city":"一宮市","city_kana":"イチノミヤシ","town":"瀬部","town_kana":"セベ","prefecture_code":23},"0873":{"zip_code":"4910873","prefecture":"愛知県","prefecture_kana":"アイチケン","city":"一宮市","city_kana":"イチノミヤシ","town":"せんい","town_kana":"センイ","prefecture_code":23},"0852":{"zip_code":"4910852","prefecture":"愛知県","prefecture_kana":"アイチケン","city":"一宮市","city_kana":"イチノミヤシ","town":"大志","town_kana":"ダイシ","prefecture_code":23},"0054":{"zip_code":"4910054","prefecture":"愛知県","prefecture_kana":"アイチケン","city":"一宮市","city_kana":"イチノミヤシ","town":"大正通","town_kana":"タイショウドオリ","prefecture_code":23},"0837":{"zip_code":"4910837","prefecture":"愛知県","prefecture_kana":"アイチケン","city":"一宮市","city_kana":"イチノミヤシ","town":"多加木","town_kana":"タカキ","prefecture_code":23},"0125":{"zip_code":"4910125","prefecture":"愛知県","prefecture_kana":"アイチケン","city":"一宮市","city_kana":"イチノミヤシ","town":"高田","town_kana":"タカタ","prefecture_code":23},"0073":{"zip_code":"4910073","prefecture":"愛知県","prefecture_kana":"アイチケン","city":"一宮市","city_kana":"イチノミヤシ","town":"高畑町","town_kana":"タカハタチョウ","prefecture_code":23},"0937":{"zip_code":"4910937","prefecture":"愛知県","prefecture_kana":"アイチケン","city":"一宮市","city_kana":"イチノミヤシ","town":"竹橋町","town_kana":"タケハシチョウ","prefecture_code":23},"0086":{"zip_code":"4910086","prefecture":"愛知県","prefecture_kana":"アイチケン","city":"一宮市","city_kana":"イチノミヤシ","town":"田島町","town_kana":"タジマチョウ","prefecture_code":23},"0133":{"zip_code":"4910133","prefecture":"愛知県","prefecture_kana":"アイチケン","city":"一宮市","city_kana":"イチノミヤシ","town":"田所","town_kana":"タドコロ","prefecture_code":23},"0823":{"zip_code":"4910823","prefecture":"愛知県","prefecture_kana":"アイチケン","city":"一宮市","city_kana":"イチノミヤシ","town":"丹陽町五日市場","town_kana":"タンヨウチョウイツカイチバ","prefecture_code":23},"0824":{"zip_code":"4910824","prefecture":"愛知県","prefecture_kana":"アイチケン","city":"一宮市","city_kana":"イチノミヤシ","town":"丹陽町九日市場","town_kana":"タンヨウチョウココノカイチバ","prefecture_code":23},"0821":{"zip_code":"4910821","prefecture":"愛知県","prefecture_kana":"アイチケン","city":"一宮市","city_kana":"イチノミヤシ","town":"丹陽町重吉","town_kana":"タンヨウチョウシゲヨシ","prefecture_code":23},"0836":{"zip_code":"4910836","prefecture":"愛知県","prefecture_kana":"アイチケン","city":"一宮市","city_kana":"イチノミヤシ","town":"丹陽町多加木","town_kana":"タンヨウチョウタカキ","prefecture_code":23},"0822":{"zip_code":"4910822","prefecture":"愛知県","prefecture_kana":"アイチケン","city":"一宮市","city_kana":"イチノミヤシ","town":"丹陽町伝法寺","town_kana":"タンヨウチョウデンポウジ","prefecture_code":23},"0825":{"zip_code":"4910825","prefecture":"愛知県","prefecture_kana":"アイチケン","city":"一宮市","city_kana":"イチノミヤシ","town":"丹陽町外崎","town_kana":"タンヨウチョウドサキ","prefecture_code":23},"0826":{"zip_code":"4910826","prefecture":"愛知県","prefecture_kana":"アイチケン","city":"一宮市","city_kana":"イチノミヤシ","town":"丹陽町三ツ井","town_kana":"タンヨウチョウミツイ","prefecture_code":23},"0827":[{"zip_code":"4910827","prefecture":"愛知県","prefecture_kana":"アイチケン","city":"一宮市","city_kana":"イチノミヤシ","town":"丹陽町森本","town_kana":"タンヨウチョウモリモト","prefecture_code":23},{"zip_code":"4910827","prefecture":"愛知県","prefecture_kana":"アイチケン","city":"一宮市","city_kana":"イチノミヤシ","town":"三ツ井","town_kana":"ミツイ","prefecture_code":23}],"0816":{"zip_code":"4910816","prefecture":"愛知県","prefecture_kana":"アイチケン","city":"一宮市","city_kana":"イチノミヤシ","town":"千秋町浅野羽根","town_kana":"チアキチョウアサノハネ","prefecture_code":23},"0805":{"zip_code":"4910805","prefecture":"愛知県","prefecture_kana":"アイチケン","city":"一宮市","city_kana":"イチノミヤシ","town":"千秋町一色","town_kana":"チアキチョウイシキ","prefecture_code":23},"0806":{"zip_code":"4910806","prefecture":"愛知県","prefecture_kana":"アイチケン","city":"一宮市","city_kana":"イチノミヤシ","town":"千秋町浮野","town_kana":"チアキチョウウキノ","prefecture_code":23},"0814":{"zip_code":"4910814","prefecture":"愛知県","prefecture_kana":"アイチケン","city":"一宮市","city_kana":"イチノミヤシ","town":"千秋町小山","town_kana":"チアキチョウオヤマ","prefecture_code":23},"0802":{"zip_code":"4910802","prefecture":"愛知県","prefecture_kana":"アイチケン","city":"一宮市","city_kana":"イチノミヤシ","town":"千秋町勝栗","town_kana":"チアキチョウカチクリ","prefecture_code":23},"0811":{"zip_code":"4910811","prefecture":"愛知県","prefecture_kana":"アイチケン","city":"一宮市","city_kana":"イチノミヤシ","town":"千秋町加納馬場","town_kana":"チアキチョウカノウマンバ","prefecture_code":23},"0801":{"zip_code":"4910801","prefecture":"愛知県","prefecture_kana":"アイチケン","city":"一宮市","city_kana":"イチノミヤシ","town":"千秋町加茂","town_kana":"チアキチョウカモ","prefecture_code":23},"0804":{"zip_code":"4910804","prefecture":"愛知県","prefecture_kana":"アイチケン","city":"一宮市","city_kana":"イチノミヤシ","town":"千秋町佐野","town_kana":"チアキチョウサノ","prefecture_code":23},"0815":{"zip_code":"4910815","prefecture":"愛知県","prefecture_kana":"アイチケン","city":"一宮市","city_kana":"イチノミヤシ","town":"千秋町塩尻","town_kana":"チアキチョウシオジリ","prefecture_code":23},"0812":{"zip_code":"4910812","prefecture":"愛知県","prefecture_kana":"アイチケン","city":"一宮市","city_kana":"イチノミヤシ","town":"千秋町芝原","town_kana":"チアキチョウシバハラ","prefecture_code":23},"0817":{"zip_code":"4910817","prefecture":"愛知県","prefecture_kana":"アイチケン","city":"一宮市","city_kana":"イチノミヤシ","town":"千秋町天摩","town_kana":"チアキチョウテンマ","prefecture_code":23},"0803":{"zip_code":"4910803","prefecture":"愛知県","prefecture_kana":"アイチケン","city":"一宮市","city_kana":"イチノミヤシ","town":"千秋町穂積塚本","town_kana":"チアキチョウホヅミツカモト","prefecture_code":23},"0813":{"zip_code":"4910813","prefecture":"愛知県","prefecture_kana":"アイチケン","city":"一宮市","city_kana":"イチノミヤシ","town":"千秋町町屋","town_kana":"チアキチョウマチヤ","prefecture_code":23},"0075":{"zip_code":"4910075","prefecture":"愛知県","prefecture_kana":"アイチケン","city":"一宮市","city_kana":"イチノミヤシ","town":"寺島町","town_kana":"テラシマチョウ","prefecture_code":23},"0936":{"zip_code":"4910936","prefecture":"愛知県","prefecture_kana":"アイチケン","city":"一宮市","city_kana":"イチノミヤシ","town":"寺前町","town_kana":"テラマエチョウ","prefecture_code":23},"0046":{"zip_code":"4910046","prefecture":"愛知県","prefecture_kana":"アイチケン","city":"一宮市","city_kana":"イチノミヤシ","town":"天王","town_kana":"テンノウ","prefecture_code":23},"0002":{"zip_code":"4910002","prefecture":"愛知県","prefecture_kana":"アイチケン","city":"一宮市","city_kana":"イチノミヤシ","town":"時之島","town_kana":"トキノシマ","prefecture_code":23},"0848":{"zip_code":"4910848","prefecture":"愛知県","prefecture_kana":"アイチケン","city":"一宮市","city_kana":"イチノミヤシ","town":"殿町","town_kana":"トノマチ","prefecture_code":23},"0123":{"zip_code":"4910123","prefecture":"愛知県","prefecture_kana":"アイチケン","city":"一宮市","city_kana":"イチノミヤシ","town":"富塚","town_kana":"トミツカ","prefecture_code":23},"0072":{"zip_code":"4910072","prefecture":"愛知県","prefecture_kana":"アイチケン","city":"一宮市","city_kana":"イチノミヤシ","town":"中島通","town_kana":"ナカシマドオリ","prefecture_code":23},"0913":{"zip_code":"4910913","prefecture":"愛知県","prefecture_kana":"アイチケン","city":"一宮市","city_kana":"イチノミヤシ","town":"中町","town_kana":"ナカマチ","prefecture_code":23},"0071":{"zip_code":"4910071","prefecture":"愛知県","prefecture_kana":"アイチケン","city":"一宮市","city_kana":"イチノミヤシ","town":"長島町","town_kana":"ナガシマチョウ","prefecture_code":23},"0005":{"zip_code":"4910005","prefecture":"愛知県","prefecture_kana":"アイチケン","city":"一宮市","city_kana":"イチノミヤシ","town":"西大海道","town_kana":"ニシオオガイドウ","prefecture_code":23},"0081":{"zip_code":"4910081","prefecture":"愛知県","prefecture_kana":"アイチケン","city":"一宮市","city_kana":"イチノミヤシ","town":"西小原町","town_kana":"ニシオハラチョウ","prefecture_code":23},"0062":{"zip_code":"4910062","prefecture":"愛知県","prefecture_kana":"アイチケン","city":"一宮市","city_kana":"イチノミヤシ","town":"西島町","town_kana":"ニシジマチョウ","prefecture_code":23},"0907":{"zip_code":"4910907","prefecture":"愛知県","prefecture_kana":"アイチケン","city":"一宮市","city_kana":"イチノミヤシ","town":"西出町","town_kana":"ニシデチョウ","prefecture_code":23},"0938":{"zip_code":"4910938","prefecture":"愛知県","prefecture_kana":"アイチケン","city":"一宮市","city_kana":"イチノミヤシ","town":"日光町","town_kana":"ニッコウチョウ","prefecture_code":23},"0083":{"zip_code":"4910083","prefecture":"愛知県","prefecture_kana":"アイチケン","city":"一宮市","city_kana":"イチノミヤシ","town":"丹羽","town_kana":"ニワ","prefecture_code":23},"0911":{"zip_code":"4910911","prefecture":"愛知県","prefecture_kana":"アイチケン","city":"一宮市","city_kana":"イチノミヤシ","town":"野口","town_kana":"ノグチ","prefecture_code":23},"0354":{"zip_code":"4910354","prefecture":"愛知県","prefecture_kana":"アイチケン","city":"一宮市","city_kana":"イチノミヤシ","town":"萩原町朝宮","town_kana":"ハギワラチョウアサミヤ","prefecture_code":23},"0366":{"zip_code":"4910366","prefecture":"愛知県","prefecture_kana":"アイチケン","city":"一宮市","city_kana":"イチノミヤシ","town":"萩原町河田方","town_kana":"ハギワラチョウカワダガタ","prefecture_code":23},"0376":{"zip_code":"4910376","prefecture":"愛知県","prefecture_kana":"アイチケン","city":"一宮市","city_kana":"イチノミヤシ","town":"萩原町串作","town_kana":"ハギワラチョウクシツクリ","prefecture_code":23},"0371":{"zip_code":"4910371","prefecture":"愛知県","prefecture_kana":"アイチケン","city":"一宮市","city_kana":"イチノミヤシ","town":"萩原町高木","town_kana":"ハギワラチョウタカギ","prefecture_code":23},"0373":{"zip_code":"4910373","prefecture":"愛知県","prefecture_kana":"アイチケン","city":"一宮市","city_kana":"イチノミヤシ","town":"萩原町高松","town_kana":"ハギワラチョウタカマツ","prefecture_code":23},"0372":{"zip_code":"4910372","prefecture":"愛知県","prefecture_kana":"アイチケン","city":"一宮市","city_kana":"イチノミヤシ","town":"萩原町滝","town_kana":"ハギワラチョウタキ","prefecture_code":23},"0374":{"zip_code":"4910374","prefecture":"愛知県","prefecture_kana":"アイチケン","city":"一宮市","city_kana":"イチノミヤシ","town":"萩原町築込","town_kana":"ハギワラチョウツキコミ","prefecture_code":23},"0375":{"zip_code":"4910375","prefecture":"愛知県","prefecture_kana":"アイチケン","city":"一宮市","city_kana":"イチノミヤシ","town":"萩原町戸苅","town_kana":"ハギワラチョウトガリ","prefecture_code":23},"0352":{"zip_code":"4910352","prefecture":"愛知県","prefecture_kana":"アイチケン","city":"一宮市","city_kana":"イチノミヤシ","town":"萩原町富田方","town_kana":"ハギワラチョウトミダガタ","prefecture_code":23},"0364":{"zip_code":"4910364","prefecture":"愛知県","prefecture_kana":"アイチケン","city":"一宮市","city_kana":"イチノミヤシ","town":"萩原町中島","town_kana":"ハギワラチョウナカシマ","prefecture_code":23},"0365":{"zip_code":"4910365","prefecture":"愛知県","prefecture_kana":"アイチケン","city":"一宮市","city_kana":"イチノミヤシ","town":"萩原町西御堂","town_kana":"ハギワラチョウニシミドウ","prefecture_code":23},"0363":{"zip_code":"4910363","prefecture":"愛知県","prefecture_kana":"アイチケン","city":"一宮市","city_kana":"イチノミヤシ","town":"萩原町東宮重","town_kana":"ハギワラチョウヒガシミヤシゲ","prefecture_code":23},"0362":{"zip_code":"4910362","prefecture":"愛知県","prefecture_kana":"アイチケン","city":"一宮市","city_kana":"イチノミヤシ","town":"萩原町西宮重","town_kana":"ハギワラチョウニシミヤシゲ","prefecture_code":23},"0353":{"zip_code":"4910353","prefecture":"愛知県","prefecture_kana":"アイチケン","city":"一宮市","city_kana":"イチノミヤシ","town":"萩原町萩原","town_kana":"ハギワラチョウハギワラ","prefecture_code":23},"0351":{"zip_code":"4910351","prefecture":"愛知県","prefecture_kana":"アイチケン","city":"一宮市","city_kana":"イチノミヤシ","town":"萩原町花井方","town_kana":"ハギワラチョウハナイガタ","prefecture_code":23},"0361":{"zip_code":"4910361","prefecture":"愛知県","prefecture_kana":"アイチケン","city":"一宮市","city_kana":"イチノミヤシ","town":"萩原町林野","town_kana":"ハギワラチョウハヤシノ","prefecture_code":23},"0025":{"zip_code":"4910025","prefecture":"愛知県","prefecture_kana":"アイチケン","city":"一宮市","city_kana":"イチノミヤシ","town":"羽衣","town_kana":"ハゴロモ","prefecture_code":23},"0903":{"zip_code":"4910903","prefecture":"愛知県","prefecture_kana":"アイチケン","city":"一宮市","city_kana":"イチノミヤシ","town":"八幡","town_kana":"ハチマン","prefecture_code":23},"0844":{"zip_code":"4910844","prefecture":"愛知県","prefecture_kana":"アイチケン","city":"一宮市","city_kana":"イチノミヤシ","town":"八町通","town_kana":"ハッチョウドオリ","prefecture_code":23},"0914":{"zip_code":"4910914","prefecture":"愛知県","prefecture_kana":"アイチケン","city":"一宮市","city_kana":"イチノミヤシ","town":"花池","town_kana":"ハナイケ","prefecture_code":23},"0034":{"zip_code":"4910034","prefecture":"愛知県","prefecture_kana":"アイチケン","city":"一宮市","city_kana":"イチノミヤシ","town":"浜町","town_kana":"ハマチョウ","prefecture_code":23},"0863":{"zip_code":"4910863","prefecture":"愛知県","prefecture_kana":"アイチケン","city":"一宮市","city_kana":"イチノミヤシ","town":"東印田町","town_kana":"ヒガシインデンチョウ","prefecture_code":23},"0074":{"zip_code":"4910074","prefecture":"愛知県","prefecture_kana":"アイチケン","city":"一宮市","city_kana":"イチノミヤシ","town":"東島町","town_kana":"ヒガシシマチョウ","prefecture_code":23},"0056":{"zip_code":"4910056","prefecture":"愛知県","prefecture_kana":"アイチケン","city":"一宮市","city_kana":"イチノミヤシ","town":"東出町","town_kana":"ヒガシデチョウ","prefecture_code":23},"0021":{"zip_code":"4910021","prefecture":"愛知県","prefecture_kana":"アイチケン","city":"一宮市","city_kana":"イチノミヤシ","town":"東両郷町","town_kana":"ヒガシリョウゴウチョウ","prefecture_code":23},"0833":{"zip_code":"4910833","prefecture":"愛知県","prefecture_kana":"アイチケン","city":"一宮市","city_kana":"イチノミヤシ","town":"平島","town_kana":"ヒラシマ","prefecture_code":23},"0908":{"zip_code":"4910908","prefecture":"愛知県","prefecture_kana":"アイチケン","city":"一宮市","city_kana":"イチノミヤシ","town":"深坪町","town_kana":"フカツボチョウ","prefecture_code":23},"0024":{"zip_code":"4910024","prefecture":"愛知県","prefecture_kana":"アイチケン","city":"一宮市","city_kana":"イチノミヤシ","town":"富士","town_kana":"フジ","prefecture_code":23},"0027":{"zip_code":"4910027","prefecture":"愛知県","prefecture_kana":"アイチケン","city":"一宮市","city_kana":"イチノミヤシ","town":"藤塚町","town_kana":"フジツカチョウ","prefecture_code":23},"0041":{"zip_code":"4910041","prefecture":"愛知県","prefecture_kana":"アイチケン","city":"一宮市","city_kana":"イチノミヤシ","town":"文京","town_kana":"ブンキョウ","prefecture_code":23},"0872":{"zip_code":"4910872","prefecture":"愛知県","prefecture_kana":"アイチケン","city":"一宮市","city_kana":"イチノミヤシ","town":"平安","town_kana":"ヘイアン","prefecture_code":23},"0905":{"zip_code":"4910905","prefecture":"愛知県","prefecture_kana":"アイチケン","city":"一宮市","city_kana":"イチノミヤシ","town":"平和","town_kana":"ヘイワ","prefecture_code":23},"0033":{"zip_code":"4910033","prefecture":"愛知県","prefecture_kana":"アイチケン","city":"一宮市","city_kana":"イチノミヤシ","town":"別明町","town_kana":"ベツメイチョウ","prefecture_code":23},"0067":{"zip_code":"4910067","prefecture":"愛知県","prefecture_kana":"アイチケン","city":"一宮市","city_kana":"イチノミヤシ","town":"北丹町","town_kana":"ホクタンチョウ","prefecture_code":23},"0859":{"zip_code":"4910859","prefecture":"愛知県","prefecture_kana":"アイチケン","city":"一宮市","city_kana":"イチノミヤシ","town":"本町","town_kana":"ホンマチ","prefecture_code":23},"0856":{"zip_code":"4910856","prefecture":"愛知県","prefecture_kana":"アイチケン","city":"一宮市","city_kana":"イチノミヤシ","town":"本町通","town_kana":"ホンマチドオリ","prefecture_code":23},"0043":{"zip_code":"4910043","prefecture":"愛知県","prefecture_kana":"アイチケン","city":"一宮市","city_kana":"イチノミヤシ","town":"真清田","town_kana":"マスミダ","prefecture_code":23},"0841":{"zip_code":"4910841","prefecture":"愛知県","prefecture_kana":"アイチケン","city":"一宮市","city_kana":"イチノミヤシ","town":"松島町","town_kana":"マツシマチョウ","prefecture_code":23},"0042":{"zip_code":"4910042","prefecture":"愛知県","prefecture_kana":"アイチケン","city":"一宮市","city_kana":"イチノミヤシ","town":"松降","town_kana":"マツフリ","prefecture_code":23},"0078":{"zip_code":"4910078","prefecture":"愛知県","prefecture_kana":"アイチケン","city":"一宮市","city_kana":"イチノミヤシ","town":"松降通","town_kana":"マツフリドオリ","prefecture_code":23},"0085":{"zip_code":"4910085","prefecture":"愛知県","prefecture_kana":"アイチケン","city":"一宮市","city_kana":"イチノミヤシ","town":"松山町","town_kana":"マツヤマチョウ","prefecture_code":23},"0874":{"zip_code":"4910874","prefecture":"愛知県","prefecture_kana":"アイチケン","city":"一宮市","city_kana":"イチノミヤシ","town":"馬見塚","town_kana":"マミヅカ","prefecture_code":23},"0065":{"zip_code":"4910065","prefecture":"愛知県","prefecture_kana":"アイチケン","city":"一宮市","city_kana":"イチノミヤシ","town":"水落町","town_kana":"ミズオチチョウ","prefecture_code":23},"0878":{"zip_code":"4910878","prefecture":"愛知県","prefecture_kana":"アイチケン","city":"一宮市","city_kana":"イチノミヤシ","town":"水附町","town_kana":"ミズツキチョウ","prefecture_code":23},"0862":{"zip_code":"4910862","prefecture":"愛知県","prefecture_kana":"アイチケン","city":"一宮市","city_kana":"イチノミヤシ","town":"緑","town_kana":"ミドリ","prefecture_code":23},"0881":{"zip_code":"4910881","prefecture":"愛知県","prefecture_kana":"アイチケン","city":"一宮市","city_kana":"イチノミヤシ","town":"南印田","town_kana":"ミナミインデン","prefecture_code":23},"0014":{"zip_code":"4910014","prefecture":"愛知県","prefecture_kana":"アイチケン","city":"一宮市","city_kana":"イチノミヤシ","town":"南小渕","town_kana":"ミナミオブチ","prefecture_code":23},"0906":{"zip_code":"4910906","prefecture":"愛知県","prefecture_kana":"アイチケン","city":"一宮市","city_kana":"イチノミヤシ","town":"南出町","town_kana":"ミナミデチョウ","prefecture_code":23},"0915":{"zip_code":"4910915","prefecture":"愛知県","prefecture_kana":"アイチケン","city":"一宮市","city_kana":"イチノミヤシ","town":"宮地","town_kana":"ミヤジ","prefecture_code":23},"0064":{"zip_code":"4910064","prefecture":"愛知県","prefecture_kana":"アイチケン","city":"一宮市","city_kana":"イチノミヤシ","town":"宮西通","town_kana":"ミヤニシドオリ","prefecture_code":23},"0921":{"zip_code":"4910921","prefecture":"愛知県","prefecture_kana":"アイチケン","city":"一宮市","city_kana":"イチノミヤシ","town":"妙興寺","town_kana":"ミョウコウジ","prefecture_code":23},"0869":{"zip_code":"4910869","prefecture":"愛知県","prefecture_kana":"アイチケン","city":"一宮市","city_kana":"イチノミヤシ","town":"向山町","town_kana":"ムカイヤマチョウ","prefecture_code":23},"0868":{"zip_code":"4910868","prefecture":"愛知県","prefecture_kana":"アイチケン","city":"一宮市","city_kana":"イチノミヤシ","town":"向山南","town_kana":"ムカイヤマミナミ","prefecture_code":23},"0857":{"zip_code":"4910857","prefecture":"愛知県","prefecture_kana":"アイチケン","city":"一宮市","city_kana":"イチノミヤシ","town":"明治通","town_kana":"メイジドオリ","prefecture_code":23},"0831":{"zip_code":"4910831","prefecture":"愛知県","prefecture_kana":"アイチケン","city":"一宮市","city_kana":"イチノミヤシ","town":"森本","town_kana":"モリモト","prefecture_code":23},"0843":{"zip_code":"4910843","prefecture":"愛知県","prefecture_kana":"アイチケン","city":"一宮市","city_kana":"イチノミヤシ","town":"柳戸町","town_kana":"ヤナギドチョウ","prefecture_code":23},"0923":{"zip_code":"4910923","prefecture":"愛知県","prefecture_kana":"アイチケン","city":"一宮市","city_kana":"イチノミヤシ","town":"大和町氏永","town_kana":"ヤマトチョウウジナガ","prefecture_code":23},"0924":{"zip_code":"4910924","prefecture":"愛知県","prefecture_kana":"アイチケン","city":"一宮市","city_kana":"イチノミヤシ","town":"大和町於保","town_kana":"ヤマトチョウオホ","prefecture_code":23},"0934":{"zip_code":"4910934","prefecture":"愛知県","prefecture_kana":"アイチケン","city":"一宮市","city_kana":"イチノミヤシ","town":"大和町苅安賀","town_kana":"ヤマトチョウカリヤスカ","prefecture_code":23},"0927":{"zip_code":"4910927","prefecture":"愛知県","prefecture_kana":"アイチケン","city":"一宮市","city_kana":"イチノミヤシ","town":"大和町戸塚","town_kana":"ヤマトチョウトツカ","prefecture_code":23},"0935":{"zip_code":"4910935","prefecture":"愛知県","prefecture_kana":"アイチケン","city":"一宮市","city_kana":"イチノミヤシ","town":"大和町福森","town_kana":"ヤマトチョウフクモリ","prefecture_code":23},"0931":{"zip_code":"4910931","prefecture":"愛知県","prefecture_kana":"アイチケン","city":"一宮市","city_kana":"イチノミヤシ","town":"大和町馬引","town_kana":"ヤマトチョウマビキ","prefecture_code":23},"0925":{"zip_code":"4910925","prefecture":"愛知県","prefecture_kana":"アイチケン","city":"一宮市","city_kana":"イチノミヤシ","town":"大和町南高井","town_kana":"ヤマトチョウミナミタカイ","prefecture_code":23},"0926":{"zip_code":"4910926","prefecture":"愛知県","prefecture_kana":"アイチケン","city":"一宮市","city_kana":"イチノミヤシ","town":"大和町北高井","town_kana":"ヤマトチョウキタタカイ","prefecture_code":23},"0847":{"zip_code":"4910847","prefecture":"愛知県","prefecture_kana":"アイチケン","city":"一宮市","city_kana":"イチノミヤシ","town":"大和町宮地花池","town_kana":"ヤマトチョウミヤジハナイケ","prefecture_code":23},"0922":{"zip_code":"4910922","prefecture":"愛知県","prefecture_kana":"アイチケン","city":"一宮市","city_kana":"イチノミヤシ","town":"大和町妙興寺","town_kana":"ヤマトチョウミョウコウジ","prefecture_code":23},"0932":{"zip_code":"4910932","prefecture":"愛知県","prefecture_kana":"アイチケン","city":"一宮市","city_kana":"イチノミヤシ","town":"大和町毛受","town_kana":"ヤマトチョウメンジョ","prefecture_code":23},"0011":{"zip_code":"4910011","prefecture":"愛知県","prefecture_kana":"アイチケン","city":"一宮市","city_kana":"イチノミヤシ","town":"柚木颪","town_kana":"ユギオロシ","prefecture_code":23},"0022":{"zip_code":"4910022","prefecture":"愛知県","prefecture_kana":"アイチケン","city":"一宮市","city_kana":"イチノミヤシ","town":"両郷町","town_kana":"リョウゴウチョウ","prefecture_code":23},"0832":{"zip_code":"4910832","prefecture":"愛知県","prefecture_kana":"アイチケン","city":"一宮市","city_kana":"イチノミヤシ","town":"若竹","town_kana":"ワカタケ","prefecture_code":23},"0077":{"zip_code":"4910077","prefecture":"愛知県","prefecture_kana":"アイチケン","city":"一宮市","city_kana":"イチノミヤシ","town":"枠杁町","town_kana":"ワクイリチョウ","prefecture_code":23},"0026":{"zip_code":"4910026","prefecture":"愛知県","prefecture_kana":"アイチケン","city":"一宮市","city_kana":"イチノミヤシ","town":"和光","town_kana":"ワコウ","prefecture_code":23}}