{"0000":{"zip_code":"4920000","prefecture":"愛知県","prefecture_kana":"アイチケン","city":"稲沢市","city_kana":"イナザワシ","town":"","town_kana":"","prefecture_code":23},"8008":{"zip_code":"4928008","prefecture":"愛知県","prefecture_kana":"アイチケン","city":"稲沢市","city_kana":"イナザワシ","town":"赤池町","town_kana":"アカイケチョウ","prefecture_code":23},"8001":{"zip_code":"4928001","prefecture":"愛知県","prefecture_kana":"アイチケン","city":"稲沢市","city_kana":"イナザワシ","town":"赤池池田町","town_kana":"アカイケイケダチョウ","prefecture_code":23},"8002":{"zip_code":"4928002","prefecture":"愛知県","prefecture_kana":"アイチケン","city":"稲沢市","city_kana":"イナザワシ","town":"赤池居道町","town_kana":"アカイケイミチチョウ","prefecture_code":23},"8004":{"zip_code":"4928004","prefecture":"愛知県","prefecture_kana":"アイチケン","city":"稲沢市","city_kana":"イナザワシ","town":"赤池裏田町","town_kana":"アカイケウラダチョウ","prefecture_code":23},"8015":{"zip_code":"4928015","prefecture":"愛知県","prefecture_kana":"アイチケン","city":"稲沢市","city_kana":"イナザワシ","town":"赤池北池田町","town_kana":"アカイケキタイケダチョウ","prefecture_code":23},"8014":{"zip_code":"4928014","prefecture":"愛知県","prefecture_kana":"アイチケン","city":"稲沢市","city_kana":"イナザワシ","town":"赤池北町","town_kana":"アカイケキタマチ","prefecture_code":23},"8022":{"zip_code":"4928022","prefecture":"愛知県","prefecture_kana":"アイチケン","city":"稲沢市","city_kana":"イナザワシ","town":"赤池坂畑町","town_kana":"アカイケサカハタチョウ","prefecture_code":23},"8005":{"zip_code":"4928005","prefecture":"愛知県","prefecture_kana":"アイチケン","city":"稲沢市","city_kana":"イナザワシ","town":"赤池陣出町","town_kana":"アカイケジンデチョウ","prefecture_code":23},"8013":{"zip_code":"4928013","prefecture":"愛知県","prefecture_kana":"アイチケン","city":"稲沢市","city_kana":"イナザワシ","town":"赤池寺東町","town_kana":"アカイケテラヒガシチョウ","prefecture_code":23},"8012":{"zip_code":"4928012","prefecture":"愛知県","prefecture_kana":"アイチケン","city":"稲沢市","city_kana":"イナザワシ","town":"赤池天王町","town_kana":"アカイケテンノウチョウ","prefecture_code":23},"8025":{"zip_code":"4928025","prefecture":"愛知県","prefecture_kana":"アイチケン","city":"稲沢市","city_kana":"イナザワシ","town":"赤池中町","town_kana":"アカイケナカマチ","prefecture_code":23},"8003":{"zip_code":"4928003","prefecture":"愛知県","prefecture_kana":"アイチケン","city":"稲沢市","city_kana":"イナザワシ","town":"赤池西出町","town_kana":"アカイケニシデチョウ","prefecture_code":23},"8017":{"zip_code":"4928017","prefecture":"愛知県","prefecture_kana":"アイチケン","city":"稲沢市","city_kana":"イナザワシ","town":"赤池旗屋町","town_kana":"アカイケハタヤチョウ","prefecture_code":23},"8021":{"zip_code":"4928021","prefecture":"愛知県","prefecture_kana":"アイチケン","city":"稲沢市","city_kana":"イナザワシ","town":"赤池東山町","town_kana":"アカイケヒガシヤマチョウ","prefecture_code":23},"8023":{"zip_code":"4928023","prefecture":"愛知県","prefecture_kana":"アイチケン","city":"稲沢市","city_kana":"イナザワシ","town":"赤池広畑町","town_kana":"アカイケヒロハタチョウ","prefecture_code":23},"8011":{"zip_code":"4928011","prefecture":"愛知県","prefecture_kana":"アイチケン","city":"稲沢市","city_kana":"イナザワシ","town":"赤池前山町","town_kana":"アカイケマエヤマチョウ","prefecture_code":23},"8006":{"zip_code":"4928006","prefecture":"愛知県","prefecture_kana":"アイチケン","city":"稲沢市","city_kana":"イナザワシ","town":"赤池真崎町","town_kana":"アカイケマツサキチョウ","prefecture_code":23},"8024":{"zip_code":"4928024","prefecture":"愛知県","prefecture_kana":"アイチケン","city":"稲沢市","city_kana":"イナザワシ","town":"赤池南町","town_kana":"アカイケミナミマチ","prefecture_code":23},"8016":{"zip_code":"4928016","prefecture":"愛知県","prefecture_kana":"アイチケン","city":"稲沢市","city_kana":"イナザワシ","town":"赤池宮西町","town_kana":"アカイケミヤニシチョウ","prefecture_code":23},"8007":{"zip_code":"4928007","prefecture":"愛知県","prefecture_kana":"アイチケン","city":"稲沢市","city_kana":"イナザワシ","town":"赤池山中町","town_kana":"アカイケヤマナカチョウ","prefecture_code":23},"8318":{"zip_code":"4928318","prefecture":"愛知県","prefecture_kana":"アイチケン","city":"稲沢市","city_kana":"イナザワシ","town":"浅井町","town_kana":"アサイチョウ","prefecture_code":23},"8268":{"zip_code":"4928268","prefecture":"愛知県","prefecture_kana":"アイチケン","city":"稲沢市","city_kana":"イナザワシ","town":"朝府町","town_kana":"アザブチョウ","prefecture_code":23},"8278":{"zip_code":"4928278","prefecture":"愛知県","prefecture_kana":"アイチケン","city":"稲沢市","city_kana":"イナザワシ","town":"天池金山町","town_kana":"アマイケカナヤマチョウ","prefecture_code":23},"8274":{"zip_code":"4928274","prefecture":"愛知県","prefecture_kana":"アイチケン","city":"稲沢市","city_kana":"イナザワシ","town":"天池光田町","town_kana":"アマイケコウダチョウ","prefecture_code":23},"8275":{"zip_code":"4928275","prefecture":"愛知県","prefecture_kana":"アイチケン","city":"稲沢市","city_kana":"イナザワシ","town":"天池五反田町","town_kana":"アマイケゴタンダチョウ","prefecture_code":23},"8281":{"zip_code":"4928281","prefecture":"愛知県","prefecture_kana":"アイチケン","city":"稲沢市","city_kana":"イナザワシ","town":"天池伝代町","town_kana":"アマイケデンダイチョウ","prefecture_code":23},"8279":{"zip_code":"4928279","prefecture":"愛知県","prefecture_kana":"アイチケン","city":"稲沢市","city_kana":"イナザワシ","town":"天池遠松町","town_kana":"アマイケトオマツチョウ","prefecture_code":23},"8283":{"zip_code":"4928283","prefecture":"愛知県","prefecture_kana":"アイチケン","city":"稲沢市","city_kana":"イナザワシ","town":"天池浪寄町","town_kana":"アマイケナミヨセチョウ","prefecture_code":23},"8282":{"zip_code":"4928282","prefecture":"愛知県","prefecture_kana":"アイチケン","city":"稲沢市","city_kana":"イナザワシ","town":"天池東町","town_kana":"アマイケヒガシマチ","prefecture_code":23},"8284":{"zip_code":"4928284","prefecture":"愛知県","prefecture_kana":"アイチケン","city":"稲沢市","city_kana":"イナザワシ","town":"天池西町","town_kana":"アマイケニシマチ","prefecture_code":23},"8277":{"zip_code":"4928277","prefecture":"愛知県","prefecture_kana":"アイチケン","city":"稲沢市","city_kana":"イナザワシ","town":"天池牧作町","town_kana":"アマイケマキツクリチョウ","prefecture_code":23},"8276":{"zip_code":"4928276","prefecture":"愛知県","prefecture_kana":"アイチケン","city":"稲沢市","city_kana":"イナザワシ","town":"天池町","town_kana":"アマイケチョウ","prefecture_code":23},"8262":{"zip_code":"4928262","prefecture":"愛知県","prefecture_kana":"アイチケン","city":"稲沢市","city_kana":"イナザワシ","town":"池部町","town_kana":"イケベチョウ","prefecture_code":23},"8362":{"zip_code":"4928362","prefecture":"愛知県","prefecture_kana":"アイチケン","city":"稲沢市","city_kana":"イナザワシ","town":"一色青海町","town_kana":"イシキアオカイチョウ","prefecture_code":23},"8363":{"zip_code":"4928363","prefecture":"愛知県","prefecture_kana":"アイチケン","city":"稲沢市","city_kana":"イナザワシ","town":"一色跡之口町","town_kana":"イシキアトノクチチョウ","prefecture_code":23},"8356":{"zip_code":"4928356","prefecture":"愛知県","prefecture_kana":"アイチケン","city":"稲沢市","city_kana":"イナザワシ","town":"一色市場町","town_kana":"イシキイチバチョウ","prefecture_code":23},"8371":{"zip_code":"4928371","prefecture":"愛知県","prefecture_kana":"アイチケン","city":"稲沢市","city_kana":"イナザワシ","town":"一色上方町","town_kana":"イシキカミガタチョウ","prefecture_code":23},"8366":{"zip_code":"4928366","prefecture":"愛知県","prefecture_kana":"アイチケン","city":"稲沢市","city_kana":"イナザワシ","town":"一色川俣町","town_kana":"イシキカワマタチョウ","prefecture_code":23},"8354":{"zip_code":"4928354","prefecture":"愛知県","prefecture_kana":"アイチケン","city":"稲沢市","city_kana":"イナザワシ","town":"一色三反田町","town_kana":"イシキサンタンダチョウ","prefecture_code":23},"8365":{"zip_code":"4928365","prefecture":"愛知県","prefecture_kana":"アイチケン","city":"稲沢市","city_kana":"イナザワシ","town":"一色下方町","town_kana":"イシキシモカタチョウ","prefecture_code":23},"8375":{"zip_code":"4928375","prefecture":"愛知県","prefecture_kana":"アイチケン","city":"稲沢市","city_kana":"イナザワシ","town":"一色巡見町","town_kana":"イシキジュンケンチョウ","prefecture_code":23},"8352":{"zip_code":"4928352","prefecture":"愛知県","prefecture_kana":"アイチケン","city":"稲沢市","city_kana":"イナザワシ","town":"一色神宮町","town_kana":"イシキジングウチョウ","prefecture_code":23},"8351":{"zip_code":"4928351","prefecture":"愛知県","prefecture_kana":"アイチケン","city":"稲沢市","city_kana":"イナザワシ","town":"一色竹橋町","town_kana":"イシキタケハシチョウ","prefecture_code":23},"8373":{"zip_code":"4928373","prefecture":"愛知県","prefecture_kana":"アイチケン","city":"稲沢市","city_kana":"イナザワシ","town":"一色中通町","town_kana":"イシキナカドオリチョウ","prefecture_code":23},"8372":{"zip_code":"4928372","prefecture":"愛知県","prefecture_kana":"アイチケン","city":"稲沢市","city_kana":"イナザワシ","town":"一色中屋敷町","town_kana":"イシキナカヤシキチョウ","prefecture_code":23},"8361":{"zip_code":"4928361","prefecture":"愛知県","prefecture_kana":"アイチケン","city":"稲沢市","city_kana":"イナザワシ","town":"一色長畑町","town_kana":"イシキナガハタチョウ","prefecture_code":23},"8374":{"zip_code":"4928374","prefecture":"愛知県","prefecture_kana":"アイチケン","city":"稲沢市","city_kana":"イナザワシ","town":"一色西町","town_kana":"イシキニシマチ","prefecture_code":23},"8358":{"zip_code":"4928358","prefecture":"愛知県","prefecture_kana":"アイチケン","city":"稲沢市","city_kana":"イナザワシ","town":"一色白山町","town_kana":"イシキハクサンチョウ","prefecture_code":23},"8353":{"zip_code":"4928353","prefecture":"愛知県","prefecture_kana":"アイチケン","city":"稲沢市","city_kana":"イナザワシ","town":"一色藤塚町","town_kana":"イシキフジツカチョウ","prefecture_code":23},"8357":{"zip_code":"4928357","prefecture":"愛知県","prefecture_kana":"アイチケン","city":"稲沢市","city_kana":"イナザワシ","town":"一色道上町","town_kana":"イシキミチカミチョウ","prefecture_code":23},"8364":{"zip_code":"4928364","prefecture":"愛知県","prefecture_kana":"アイチケン","city":"稲沢市","city_kana":"イナザワシ","town":"一色森山町","town_kana":"イシキモリヤマチョウ","prefecture_code":23},"8271":{"zip_code":"4928271","prefecture":"愛知県","prefecture_kana":"アイチケン","city":"稲沢市","city_kana":"イナザワシ","town":"石橋","town_kana":"イシバシ","prefecture_code":23},"8451":{"zip_code":"4928451","prefecture":"愛知県","prefecture_kana":"アイチケン","city":"稲沢市","city_kana":"イナザワシ","town":"板葺町","town_kana":"イタブキチョウ","prefecture_code":23},"8217":{"zip_code":"4928217","prefecture":"愛知県","prefecture_kana":"アイチケン","city":"稲沢市","city_kana":"イナザワシ","town":"稲沢町","town_kana":"イナザワチョウ","prefecture_code":23},"8211":{"zip_code":"4928211","prefecture":"愛知県","prefecture_kana":"アイチケン","city":"稲沢市","city_kana":"イナザワシ","town":"稲沢町北山","town_kana":"イナザワチョウキタヤマ","prefecture_code":23},"8229":{"zip_code":"4928229","prefecture":"愛知県","prefecture_kana":"アイチケン","city":"稲沢市","city_kana":"イナザワシ","town":"稲島","town_kana":"イナジマ","prefecture_code":23},"8207":{"zip_code":"4928207","prefecture":"愛知県","prefecture_kana":"アイチケン","city":"稲沢市","city_kana":"イナザワシ","town":"稲島町","town_kana":"イナジマチョウ","prefecture_code":23},"8230":{"zip_code":"4928230","prefecture":"愛知県","prefecture_kana":"アイチケン","city":"稲沢市","city_kana":"イナザワシ","town":"稲島東","town_kana":"イナジマヒガシ","prefecture_code":23},"8206":{"zip_code":"4928206","prefecture":"愛知県","prefecture_kana":"アイチケン","city":"稲沢市","city_kana":"イナザワシ","town":"稲島法成寺町","town_kana":"イナジマホウジョウジチョウ","prefecture_code":23},"8219":{"zip_code":"4928219","prefecture":"愛知県","prefecture_kana":"アイチケン","city":"稲沢市","city_kana":"イナザワシ","town":"稲葉","town_kana":"イナバ","prefecture_code":23},"8269":{"zip_code":"4928269","prefecture":"愛知県","prefecture_kana":"アイチケン","city":"稲沢市","city_kana":"イナザワシ","town":"稲府町","town_kana":"イナブチョウ","prefecture_code":23},"8163":{"zip_code":"4928163","prefecture":"愛知県","prefecture_kana":"アイチケン","city":"稲沢市","city_kana":"イナザワシ","town":"井之口石塚町","town_kana":"イノクチイシヅカチョウ","prefecture_code":23},"8164":{"zip_code":"4928164","prefecture":"愛知県","prefecture_kana":"アイチケン","city":"稲沢市","city_kana":"イナザワシ","town":"井之口大坪町","town_kana":"イノクチオオツボチョウ","prefecture_code":23},"8152":{"zip_code":"4928152","prefecture":"愛知県","prefecture_kana":"アイチケン","city":"稲沢市","city_kana":"イナザワシ","town":"井之口大宮町","town_kana":"イノクチオオミヤチョウ","prefecture_code":23},"8166":{"zip_code":"4928166","prefecture":"愛知県","prefecture_kana":"アイチケン","city":"稲沢市","city_kana":"イナザワシ","town":"井之口沖ノ田町","town_kana":"イノクチオキノタチョウ","prefecture_code":23},"8156":{"zip_code":"4928156","prefecture":"愛知県","prefecture_kana":"アイチケン","city":"稲沢市","city_kana":"イナザワシ","town":"井之口親畑町","town_kana":"イノクチオヤバタチョウ","prefecture_code":23},"8157":{"zip_code":"4928157","prefecture":"愛知県","prefecture_kana":"アイチケン","city":"稲沢市","city_kana":"イナザワシ","town":"井之口柿ノ木町","town_kana":"イノクチカキノキチョウ","prefecture_code":23},"8151":{"zip_code":"4928151","prefecture":"愛知県","prefecture_kana":"アイチケン","city":"稲沢市","city_kana":"イナザワシ","town":"井之口北畑町","town_kana":"イノクチキタバタチョウ","prefecture_code":23},"8162":{"zip_code":"4928162","prefecture":"愛知県","prefecture_kana":"アイチケン","city":"稲沢市","city_kana":"イナザワシ","town":"井之口小番戸町","town_kana":"イノクチコバンドチョウ","prefecture_code":23},"8165":{"zip_code":"4928165","prefecture":"愛知県","prefecture_kana":"アイチケン","city":"稲沢市","city_kana":"イナザワシ","town":"井之口鶴田町","town_kana":"イノクチツルデンチョウ","prefecture_code":23},"8158":{"zip_code":"4928158","prefecture":"愛知県","prefecture_kana":"アイチケン","city":"稲沢市","city_kana":"イナザワシ","town":"井之口白山町","town_kana":"イノクチハクサンチョウ","prefecture_code":23},"8154":{"zip_code":"4928154","prefecture":"愛知県","prefecture_kana":"アイチケン","city":"稲沢市","city_kana":"イナザワシ","town":"井之口本町","town_kana":"イノクチホンマチ","prefecture_code":23},"8155":{"zip_code":"4928155","prefecture":"愛知県","prefecture_kana":"アイチケン","city":"稲沢市","city_kana":"イナザワシ","town":"井之口四家町","town_kana":"イノクチヨツヤチョウ","prefecture_code":23},"8153":{"zip_code":"4928153","prefecture":"愛知県","prefecture_kana":"アイチケン","city":"稲沢市","city_kana":"イナザワシ","town":"井之口町","town_kana":"イノクチチョウ","prefecture_code":23},"8465":{"zip_code":"4928465","prefecture":"愛知県","prefecture_kana":"アイチケン","city":"稲沢市","city_kana":"イナザワシ","town":"井堀犬城町","town_kana":"イボリイヌシロチョウ","prefecture_code":23},"8466":{"zip_code":"4928466","prefecture":"愛知県","prefecture_kana":"アイチケン","city":"稲沢市","city_kana":"イナザワシ","town":"井堀江西町","town_kana":"イボリエニシチョウ","prefecture_code":23},"8406":{"zip_code":"4928406","prefecture":"愛知県","prefecture_kana":"アイチケン","city":"稲沢市","city_kana":"イナザワシ","town":"井堀大縄町","town_kana":"イボリオオナワチョウ","prefecture_code":23},"8467":{"zip_code":"4928467","prefecture":"愛知県","prefecture_kana":"アイチケン","city":"稲沢市","city_kana":"イナザワシ","town":"井堀蒲六町","town_kana":"イボリガマロクチョウ","prefecture_code":23},"8408":{"zip_code":"4928408","prefecture":"愛知県","prefecture_kana":"アイチケン","city":"稲沢市","city_kana":"イナザワシ","town":"井堀川東町","town_kana":"イボリカワヒガシチョウ","prefecture_code":23},"8461":{"zip_code":"4928461","prefecture":"愛知県","prefecture_kana":"アイチケン","city":"稲沢市","city_kana":"イナザワシ","town":"井堀北出町","town_kana":"イボリキタデチョウ","prefecture_code":23},"8464":{"zip_code":"4928464","prefecture":"愛知県","prefecture_kana":"アイチケン","city":"稲沢市","city_kana":"イナザワシ","town":"井堀下郷町","town_kana":"イボリシモゴウチョウ","prefecture_code":23},"8407":{"zip_code":"4928407","prefecture":"愛知県","prefecture_kana":"アイチケン","city":"稲沢市","city_kana":"イナザワシ","town":"井堀宿塚町","town_kana":"イボリシュクヅカチョウ","prefecture_code":23},"8462":{"zip_code":"4928462","prefecture":"愛知県","prefecture_kana":"アイチケン","city":"稲沢市","city_kana":"イナザワシ","town":"井堀高見町","town_kana":"イボリタカミチョウ","prefecture_code":23},"8463":{"zip_code":"4928463","prefecture":"愛知県","prefecture_kana":"アイチケン","city":"稲沢市","city_kana":"イナザワシ","town":"井堀中郷町","town_kana":"イボリナカゴウチョウ","prefecture_code":23},"8468":{"zip_code":"4928468","prefecture":"愛知県","prefecture_kana":"アイチケン","city":"稲沢市","city_kana":"イナザワシ","town":"井堀野口町","town_kana":"イボリノグチチョウ","prefecture_code":23},"8409":{"zip_code":"4928409","prefecture":"愛知県","prefecture_kana":"アイチケン","city":"稲沢市","city_kana":"イナザワシ","town":"井堀橋下町","town_kana":"イボリハシシモチョウ","prefecture_code":23},"8453":{"zip_code":"4928453","prefecture":"愛知県","prefecture_kana":"アイチケン","city":"稲沢市","city_kana":"イナザワシ","town":"今村町","town_kana":"イマムラチョウ","prefecture_code":23},"8443":{"zip_code":"4928443","prefecture":"愛知県","prefecture_kana":"アイチケン","city":"稲沢市","city_kana":"イナザワシ","town":"牛踏町","town_kana":"ウシブミチョウ","prefecture_code":23},"8143":{"zip_code":"4928143","prefecture":"愛知県","prefecture_kana":"アイチケン","city":"稲沢市","city_kana":"イナザワシ","town":"駅前","town_kana":"エキマエ","prefecture_code":23},"8179":{"zip_code":"4928179","prefecture":"愛知県","prefecture_kana":"アイチケン","city":"稲沢市","city_kana":"イナザワシ","town":"大嶋","town_kana":"オオシマ","prefecture_code":23},"8214":{"zip_code":"4928214","prefecture":"愛知県","prefecture_kana":"アイチケン","city":"稲沢市","city_kana":"イナザワシ","town":"大塚南","town_kana":"オオツカミナミ","prefecture_code":23},"8215":{"zip_code":"4928215","prefecture":"愛知県","prefecture_kana":"アイチケン","city":"稲沢市","city_kana":"イナザワシ","town":"大塚北","town_kana":"オオツカキタ","prefecture_code":23},"8216":{"zip_code":"4928216","prefecture":"愛知県","prefecture_kana":"アイチケン","city":"稲沢市","city_kana":"イナザワシ","town":"大塚町","town_kana":"オオツカチョウ","prefecture_code":23},"8415":{"zip_code":"4928415","prefecture":"愛知県","prefecture_kana":"アイチケン","city":"稲沢市","city_kana":"イナザワシ","town":"大矢青山町","town_kana":"オオヤアオヤマチョウ","prefecture_code":23},"8413":{"zip_code":"4928413","prefecture":"愛知県","prefecture_kana":"アイチケン","city":"稲沢市","city_kana":"イナザワシ","town":"大矢江西町","town_kana":"オオヤエニシチョウ","prefecture_code":23},"8418":{"zip_code":"4928418","prefecture":"愛知県","prefecture_kana":"アイチケン","city":"稲沢市","city_kana":"イナザワシ","town":"大矢高田町","town_kana":"オオヤコウダチョウ","prefecture_code":23},"8414":{"zip_code":"4928414","prefecture":"愛知県","prefecture_kana":"アイチケン","city":"稲沢市","city_kana":"イナザワシ","town":"大矢浄土寺町","town_kana":"オオヤジョウドジチョウ","prefecture_code":23},"8416":{"zip_code":"4928416","prefecture":"愛知県","prefecture_kana":"アイチケン","city":"稲沢市","city_kana":"イナザワシ","town":"大矢白山町","town_kana":"オオヤシロヤマチョウ","prefecture_code":23},"8419":{"zip_code":"4928419","prefecture":"愛知県","prefecture_kana":"アイチケン","city":"稲沢市","city_kana":"イナザワシ","town":"大矢真宮町","town_kana":"オオヤシングウチョウ","prefecture_code":23},"8417":{"zip_code":"4928417","prefecture":"愛知県","prefecture_kana":"アイチケン","city":"稲沢市","city_kana":"イナザワシ","town":"大矢仙口町","town_kana":"オオヤセングチチョウ","prefecture_code":23},"8412":{"zip_code":"4928412","prefecture":"愛知県","prefecture_kana":"アイチケン","city":"稲沢市","city_kana":"イナザワシ","town":"大矢町","town_kana":"オオヤチョウ","prefecture_code":23},"8223":{"zip_code":"4928223","prefecture":"愛知県","prefecture_kana":"アイチケン","city":"稲沢市","city_kana":"イナザワシ","town":"奥田井之下町","town_kana":"オクダイノシタチョウ","prefecture_code":23},"8224":{"zip_code":"4928224","prefecture":"愛知県","prefecture_kana":"アイチケン","city":"稲沢市","city_kana":"イナザワシ","town":"奥田大沢町","town_kana":"オクダオオサワチョウ","prefecture_code":23},"8253":{"zip_code":"4928253","prefecture":"愛知県","prefecture_kana":"アイチケン","city":"稲沢市","city_kana":"イナザワシ","town":"奥田神ノ木町","town_kana":"オクダカミノキチョウ","prefecture_code":23},"8256":{"zip_code":"4928256","prefecture":"愛知県","prefecture_kana":"アイチケン","city":"稲沢市","city_kana":"イナザワシ","town":"奥田北花ノ木町","town_kana":"オクダキタハナノキチョウ","prefecture_code":23},"8243":{"zip_code":"4928243","prefecture":"愛知県","prefecture_kana":"アイチケン","city":"稲沢市","city_kana":"イナザワシ","town":"奥田木塚町","town_kana":"オクダキヅカチョウ","prefecture_code":23},"8234":{"zip_code":"4928234","prefecture":"愛知県","prefecture_kana":"アイチケン","city":"稲沢市","city_kana":"イナザワシ","town":"奥田切田町","town_kana":"オクダキリタチョウ","prefecture_code":23},"8246":{"zip_code":"4928246","prefecture":"愛知県","prefecture_kana":"アイチケン","city":"稲沢市","city_kana":"イナザワシ","town":"奥田計用町","town_kana":"オクダケイヨウチョウ","prefecture_code":23},"8232":{"zip_code":"4928232","prefecture":"愛知県","prefecture_kana":"アイチケン","city":"稲沢市","city_kana":"イナザワシ","town":"奥田酒伊町","town_kana":"オクダサカイチョウ","prefecture_code":23},"8257":{"zip_code":"4928257","prefecture":"愛知県","prefecture_kana":"アイチケン","city":"稲沢市","city_kana":"イナザワシ","town":"奥田島崎町","town_kana":"オクダシマザキチョウ","prefecture_code":23},"8244":{"zip_code":"4928244","prefecture":"愛知県","prefecture_kana":"アイチケン","city":"稲沢市","city_kana":"イナザワシ","town":"奥田下河町","town_kana":"オクダシモカワチョウ","prefecture_code":23},"8225":{"zip_code":"4928225","prefecture":"愛知県","prefecture_kana":"アイチケン","city":"稲沢市","city_kana":"イナザワシ","town":"奥田膳棚町","town_kana":"オクダゼンタナチョウ","prefecture_code":23},"8226":{"zip_code":"4928226","prefecture":"愛知県","prefecture_kana":"アイチケン","city":"稲沢市","city_kana":"イナザワシ","town":"奥田大門町","town_kana":"オクダダイモンチョウ","prefecture_code":23},"8235":{"zip_code":"4928235","prefecture":"愛知県","prefecture_kana":"アイチケン","city":"稲沢市","city_kana":"イナザワシ","town":"奥田立長町","town_kana":"オクダタテオサチョウ","prefecture_code":23},"8241":{"zip_code":"4928241","prefecture":"愛知県","prefecture_kana":"アイチケン","city":"稲沢市","city_kana":"イナザワシ","town":"奥田田畑町","town_kana":"オクダタバタチョウ","prefecture_code":23},"8236":{"zip_code":"4928236","prefecture":"愛知県","prefecture_kana":"アイチケン","city":"稲沢市","city_kana":"イナザワシ","town":"奥田寺切町","town_kana":"オクダテラギリチョウ","prefecture_code":23},"8255":{"zip_code":"4928255","prefecture":"愛知県","prefecture_kana":"アイチケン","city":"稲沢市","city_kana":"イナザワシ","town":"奥田天神町","town_kana":"オクダテンジンチョウ","prefecture_code":23},"8222":{"zip_code":"4928222","prefecture":"愛知県","prefecture_kana":"アイチケン","city":"稲沢市","city_kana":"イナザワシ","town":"奥田天目寺町","town_kana":"オクダテンモクジチョウ","prefecture_code":23},"8239":{"zip_code":"4928239","prefecture":"愛知県","prefecture_kana":"アイチケン","city":"稲沢市","city_kana":"イナザワシ","town":"奥田中切町","town_kana":"オクダナカキリチョウ","prefecture_code":23},"8228":{"zip_code":"4928228","prefecture":"愛知県","prefecture_kana":"アイチケン","city":"稲沢市","city_kana":"イナザワシ","town":"奥田長角町","town_kana":"オクダナガズミチョウ","prefecture_code":23},"8231":{"zip_code":"4928231","prefecture":"愛知県","prefecture_kana":"アイチケン","city":"稲沢市","city_kana":"イナザワシ","town":"奥田流町","town_kana":"オクダナガレチョウ","prefecture_code":23},"8227":{"zip_code":"4928227","prefecture":"愛知県","prefecture_kana":"アイチケン","city":"稲沢市","city_kana":"イナザワシ","town":"奥田白山町","town_kana":"オクダハクサンチョウ","prefecture_code":23},"8237":{"zip_code":"4928237","prefecture":"愛知県","prefecture_kana":"アイチケン","city":"稲沢市","city_kana":"イナザワシ","town":"奥田馬場町","town_kana":"オクダバンバチョウ","prefecture_code":23},"8238":{"zip_code":"4928238","prefecture":"愛知県","prefecture_kana":"アイチケン","city":"稲沢市","city_kana":"イナザワシ","town":"奥田堀畑町","town_kana":"オクダホリバタチョウ","prefecture_code":23},"8245":{"zip_code":"4928245","prefecture":"愛知県","prefecture_kana":"アイチケン","city":"稲沢市","city_kana":"イナザワシ","town":"奥田南花ノ木町","town_kana":"オクダミナミハナノキチョウ","prefecture_code":23},"8254":{"zip_code":"4928254","prefecture":"愛知県","prefecture_kana":"アイチケン","city":"稲沢市","city_kana":"イナザワシ","town":"奥田宮長町","town_kana":"オクダミヤナガチョウ","prefecture_code":23},"8233":{"zip_code":"4928233","prefecture":"愛知県","prefecture_kana":"アイチケン","city":"稲沢市","city_kana":"イナザワシ","town":"奥田町","town_kana":"オクダチョウ","prefecture_code":23},"8242":{"zip_code":"4928242","prefecture":"愛知県","prefecture_kana":"アイチケン","city":"稲沢市","city_kana":"イナザワシ","town":"奥田町文七西","town_kana":"オクダチョウブンヒチニシ","prefecture_code":23},"8081":{"zip_code":"4928081","prefecture":"愛知県","prefecture_kana":"アイチケン","city":"稲沢市","city_kana":"イナザワシ","town":"下津油田町","town_kana":"オリヅアブラデンチョウ","prefecture_code":23},"8058":{"zip_code":"4928058","prefecture":"愛知県","prefecture_kana":"アイチケン","city":"稲沢市","city_kana":"イナザワシ","town":"下津牛洗町","town_kana":"オリヅウシアライチョウ","prefecture_code":23},"8054":{"zip_code":"4928054","prefecture":"愛知県","prefecture_kana":"アイチケン","city":"稲沢市","city_kana":"イナザワシ","town":"下津片町","town_kana":"オリヅカタマチ","prefecture_code":23},"8072":{"zip_code":"4928072","prefecture":"愛知県","prefecture_kana":"アイチケン","city":"稲沢市","city_kana":"イナザワシ","town":"下津北信正寺町","town_kana":"オリヅキタシンショウジチョウ","prefecture_code":23},"8094":{"zip_code":"4928094","prefecture":"愛知県","prefecture_kana":"アイチケン","city":"稲沢市","city_kana":"イナザワシ","town":"下津北山","town_kana":"オリヅキタヤマ","prefecture_code":23},"8067":{"zip_code":"4928067","prefecture":"愛知県","prefecture_kana":"アイチケン","city":"稲沢市","city_kana":"イナザワシ","town":"下津北山町","town_kana":"オリヅキタヤマチョウ","prefecture_code":23},"8091":{"zip_code":"4928091","prefecture":"愛知県","prefecture_kana":"アイチケン","city":"稲沢市","city_kana":"イナザワシ","town":"下津鞍掛","town_kana":"オリヅクラカケ","prefecture_code":23},"8056":{"zip_code":"4928056","prefecture":"愛知県","prefecture_kana":"アイチケン","city":"稲沢市","city_kana":"イナザワシ","town":"下津鞍掛町","town_kana":"オリヅクラカケチョウ","prefecture_code":23},"8093":{"zip_code":"4928093","prefecture":"愛知県","prefecture_kana":"アイチケン","city":"稲沢市","city_kana":"イナザワシ","town":"下津小井戸","town_kana":"オリヅコイド","prefecture_code":23},"8068":{"zip_code":"4928068","prefecture":"愛知県","prefecture_kana":"アイチケン","city":"稲沢市","city_kana":"イナザワシ","town":"下津小井戸町","town_kana":"オリヅコイドチョウ","prefecture_code":23},"8051":{"zip_code":"4928051","prefecture":"愛知県","prefecture_kana":"アイチケン","city":"稲沢市","city_kana":"イナザワシ","town":"下津光明寺町","town_kana":"オリヅコウミョウジチョウ","prefecture_code":23},"8053":{"zip_code":"4928053","prefecture":"愛知県","prefecture_kana":"アイチケン","city":"稲沢市","city_kana":"イナザワシ","town":"下津蛇池町","town_kana":"オリヅジャイケチョウ","prefecture_code":23},"8066":{"zip_code":"4928066","prefecture":"愛知県","prefecture_kana":"アイチケン","city":"稲沢市","city_kana":"イナザワシ","town":"下津新町","town_kana":"オリヅシンマチ","prefecture_code":23},"8062":{"zip_code":"4928062","prefecture":"愛知県","prefecture_kana":"アイチケン","city":"稲沢市","city_kana":"イナザワシ","town":"下津住吉町","town_kana":"オリヅスミヨシチョウ","prefecture_code":23},"8065":{"zip_code":"4928065","prefecture":"愛知県","prefecture_kana":"アイチケン","city":"稲沢市","city_kana":"イナザワシ","town":"下津大門町","town_kana":"オリヅダイモンチョウ","prefecture_code":23},"8061":{"zip_code":"4928061","prefecture":"愛知県","prefecture_kana":"アイチケン","city":"稲沢市","city_kana":"イナザワシ","town":"下津高戸町","town_kana":"オリヅタカドチョウ","prefecture_code":23},"8085":{"zip_code":"4928085","prefecture":"愛知県","prefecture_kana":"アイチケン","city":"稲沢市","city_kana":"イナザワシ","town":"下津丹下田町","town_kana":"オリヅタンゲダチョウ","prefecture_code":23},"8078":{"zip_code":"4928078","prefecture":"愛知県","prefecture_kana":"アイチケン","city":"稲沢市","city_kana":"イナザワシ","town":"下津寺前町","town_kana":"オリヅテラマエチョウ","prefecture_code":23},"8077":{"zip_code":"4928077","prefecture":"愛知県","prefecture_kana":"アイチケン","city":"稲沢市","city_kana":"イナザワシ","town":"下津土山町","town_kana":"オリヅドヤマチョウ","prefecture_code":23},"8057":{"zip_code":"4928057","prefecture":"愛知県","prefecture_kana":"アイチケン","city":"稲沢市","city_kana":"イナザワシ","town":"下津長田町","town_kana":"オリヅナガタチョウ","prefecture_code":23},"8064":{"zip_code":"4928064","prefecture":"愛知県","prefecture_kana":"アイチケン","city":"稲沢市","city_kana":"イナザワシ","town":"下津二本杉町","town_kana":"オリヅニホンスギチョウ","prefecture_code":23},"8052":{"zip_code":"4928052","prefecture":"愛知県","prefecture_kana":"アイチケン","city":"稲沢市","city_kana":"イナザワシ","town":"下津ふじ塚町","town_kana":"オリヅフジツカチョウ","prefecture_code":23},"8092":{"zip_code":"4928092","prefecture":"愛知県","prefecture_kana":"アイチケン","city":"稲沢市","city_kana":"イナザワシ","town":"下津穂所","town_kana":"オリヅホドコロ","prefecture_code":23},"8055":{"zip_code":"4928055","prefecture":"愛知県","prefecture_kana":"アイチケン","city":"稲沢市","city_kana":"イナザワシ","town":"下津穂所町","town_kana":"オリヅホドコロチョウ","prefecture_code":23},"8071":{"zip_code":"4928071","prefecture":"愛知県","prefecture_kana":"アイチケン","city":"稲沢市","city_kana":"イナザワシ","town":"下津本郷町","town_kana":"オリヅホンゴウチョウ","prefecture_code":23},"8073":{"zip_code":"4928073","prefecture":"愛知県","prefecture_kana":"アイチケン","city":"稲沢市","city_kana":"イナザワシ","town":"下津南信正寺町","town_kana":"オリヅミナミシンショウジチョウ","prefecture_code":23},"8095":{"zip_code":"4928095","prefecture":"愛知県","prefecture_kana":"アイチケン","city":"稲沢市","city_kana":"イナザワシ","town":"下津南山","town_kana":"オリヅミナミヤマ","prefecture_code":23},"8084":{"zip_code":"4928084","prefecture":"愛知県","prefecture_kana":"アイチケン","city":"稲沢市","city_kana":"イナザワシ","town":"下津南山町","town_kana":"オリヅミナミヤマチョウ","prefecture_code":23},"8076":{"zip_code":"4928076","prefecture":"愛知県","prefecture_kana":"アイチケン","city":"稲沢市","city_kana":"イナザワシ","town":"下津宮西町","town_kana":"オリヅミヤニシチョウ","prefecture_code":23},"8083":{"zip_code":"4928083","prefecture":"愛知県","prefecture_kana":"アイチケン","city":"稲沢市","city_kana":"イナザワシ","town":"下津森町","town_kana":"オリヅモリマチ","prefecture_code":23},"8063":{"zip_code":"4928063","prefecture":"愛知県","prefecture_kana":"アイチケン","city":"稲沢市","city_kana":"イナザワシ","town":"下津矢口町","town_kana":"オリヅヤグチチョウ","prefecture_code":23},"8074":{"zip_code":"4928074","prefecture":"愛知県","prefecture_kana":"アイチケン","city":"稲沢市","city_kana":"イナザワシ","town":"下津下町東","town_kana":"オリヅシモマチヒガシ","prefecture_code":23},"8082":{"zip_code":"4928082","prefecture":"愛知県","prefecture_kana":"アイチケン","city":"稲沢市","city_kana":"イナザワシ","town":"下津下町西","town_kana":"オリヅシモマチニシ","prefecture_code":23},"8075":{"zip_code":"4928075","prefecture":"愛知県","prefecture_kana":"アイチケン","city":"稲沢市","city_kana":"イナザワシ","town":"下津町","town_kana":"オリヅチョウ","prefecture_code":23},"8355":{"zip_code":"4928355","prefecture":"愛知県","prefecture_kana":"アイチケン","city":"稲沢市","city_kana":"イナザワシ","town":"片原一色町","town_kana":"カタハライシキチョウ","prefecture_code":23},"8174":{"zip_code":"4928174","prefecture":"愛知県","prefecture_kana":"アイチケン","city":"稲沢市","city_kana":"イナザワシ","town":"北市場西町","town_kana":"キタイチバニシマチ","prefecture_code":23},"8178":{"zip_code":"4928178","prefecture":"愛知県","prefecture_kana":"アイチケン","city":"稲沢市","city_kana":"イナザワシ","town":"北市場本町","town_kana":"キタイチバホンマチ","prefecture_code":23},"8175":{"zip_code":"4928175","prefecture":"愛知県","prefecture_kana":"アイチケン","city":"稲沢市","city_kana":"イナザワシ","town":"北市場南町","town_kana":"キタイチバミナミマチ","prefecture_code":23},"8173":{"zip_code":"4928173","prefecture":"愛知県","prefecture_kana":"アイチケン","city":"稲沢市","city_kana":"イナザワシ","town":"北市場町","town_kana":"キタイチバチョウ","prefecture_code":23},"8448":{"zip_code":"4928448","prefecture":"愛知県","prefecture_kana":"アイチケン","city":"稲沢市","city_kana":"イナザワシ","town":"北麻績町","town_kana":"キタオウミチョウ","prefecture_code":23},"8410":{"zip_code":"4928410","prefecture":"愛知県","prefecture_kana":"アイチケン","city":"稲沢市","city_kana":"イナザワシ","town":"北島","town_kana":"キタジマ","prefecture_code":23},"8411":{"zip_code":"4928411","prefecture":"愛知県","prefecture_kana":"アイチケン","city":"稲沢市","city_kana":"イナザワシ","town":"北島町","town_kana":"キタジマチョウ","prefecture_code":23},"8349":{"zip_code":"4928349","prefecture":"愛知県","prefecture_kana":"アイチケン","city":"稲沢市","city_kana":"イナザワシ","town":"儀長","town_kana":"ギチョウ","prefecture_code":23},"8210":{"zip_code":"4928210","prefecture":"愛知県","prefecture_kana":"アイチケン","city":"稲沢市","city_kana":"イナザワシ","town":"木全","town_kana":"キマタ","prefecture_code":23},"8209":{"zip_code":"4928209","prefecture":"愛知県","prefecture_kana":"アイチケン","city":"稲沢市","city_kana":"イナザワシ","town":"木全町","town_kana":"キマタチョウ","prefecture_code":23},"8033":{"zip_code":"4928033","prefecture":"愛知県","prefecture_kana":"アイチケン","city":"稲沢市","city_kana":"イナザワシ","town":"陸田一里山町","town_kana":"クガタイチリヤマチョウ","prefecture_code":23},"8043":{"zip_code":"4928043","prefecture":"愛知県","prefecture_kana":"アイチケン","city":"稲沢市","city_kana":"イナザワシ","town":"陸田馬山町","town_kana":"クガタウマヤマチョウ","prefecture_code":23},"8034":{"zip_code":"4928034","prefecture":"愛知県","prefecture_kana":"アイチケン","city":"稲沢市","city_kana":"イナザワシ","town":"陸田栗林町","town_kana":"クガタクリバヤシチョウ","prefecture_code":23},"8031":{"zip_code":"4928031","prefecture":"愛知県","prefecture_kana":"アイチケン","city":"稲沢市","city_kana":"イナザワシ","town":"陸田高畑町","town_kana":"クガタタカバタチョウ","prefecture_code":23},"8037":{"zip_code":"4928037","prefecture":"愛知県","prefecture_kana":"アイチケン","city":"稲沢市","city_kana":"イナザワシ","town":"陸田白山町","town_kana":"クガタハクサンチョウ","prefecture_code":23},"8042":{"zip_code":"4928042","prefecture":"愛知県","prefecture_kana":"アイチケン","city":"稲沢市","city_kana":"イナザワシ","town":"陸田花塚町","town_kana":"クガタハナヅカチョウ","prefecture_code":23},"8032":{"zip_code":"4928032","prefecture":"愛知県","prefecture_kana":"アイチケン","city":"稲沢市","city_kana":"イナザワシ","town":"陸田東出町","town_kana":"クガタヒガシデチョウ","prefecture_code":23},"8036":{"zip_code":"4928036","prefecture":"愛知県","prefecture_kana":"アイチケン","city":"稲沢市","city_kana":"イナザワシ","town":"陸田本町","town_kana":"クガタホンマチ","prefecture_code":23},"8041":{"zip_code":"4928041","prefecture":"愛知県","prefecture_kana":"アイチケン","city":"稲沢市","city_kana":"イナザワシ","town":"陸田丸之内町","town_kana":"クガタマルノウチチョウ","prefecture_code":23},"8044":{"zip_code":"4928044","prefecture":"愛知県","prefecture_kana":"アイチケン","city":"稲沢市","city_kana":"イナザワシ","town":"陸田宮前","town_kana":"クガタミヤマエ","prefecture_code":23},"8035":{"zip_code":"4928035","prefecture":"愛知県","prefecture_kana":"アイチケン","city":"稲沢市","city_kana":"イナザワシ","town":"陸田宮前町","town_kana":"クガタミヤマエチョウ","prefecture_code":23},"8038":{"zip_code":"4928038","prefecture":"愛知県","prefecture_kana":"アイチケン","city":"稲沢市","city_kana":"イナザワシ","town":"陸田町","town_kana":"クガタチョウ","prefecture_code":23},"8177":{"zip_code":"4928177","prefecture":"愛知県","prefecture_kana":"アイチケン","city":"稲沢市","city_kana":"イナザワシ","town":"日下部東町","town_kana":"クサカベヒガシマチ","prefecture_code":23},"8185":{"zip_code":"4928185","prefecture":"愛知県","prefecture_kana":"アイチケン","city":"稲沢市","city_kana":"イナザワシ","town":"日下部西町","town_kana":"クサカベニシマチ","prefecture_code":23},"8183":{"zip_code":"4928183","prefecture":"愛知県","prefecture_kana":"アイチケン","city":"稲沢市","city_kana":"イナザワシ","town":"日下部南町","town_kana":"クサカベミナミマチ","prefecture_code":23},"8181":{"zip_code":"4928181","prefecture":"愛知県","prefecture_kana":"アイチケン","city":"稲沢市","city_kana":"イナザワシ","town":"日下部北町","town_kana":"クサカベキタマチ","prefecture_code":23},"8182":{"zip_code":"4928182","prefecture":"愛知県","prefecture_kana":"アイチケン","city":"稲沢市","city_kana":"イナザワシ","town":"日下部中町","town_kana":"クサカベナカマチ","prefecture_code":23},"8176":{"zip_code":"4928176","prefecture":"愛知県","prefecture_kana":"アイチケン","city":"稲沢市","city_kana":"イナザワシ","town":"日下部花ノ木町","town_kana":"クサカベハナノキチョウ","prefecture_code":23},"8184":{"zip_code":"4928184","prefecture":"愛知県","prefecture_kana":"アイチケン","city":"稲沢市","city_kana":"イナザワシ","town":"日下部松野町","town_kana":"クサカベマツノチョウ","prefecture_code":23},"8186":{"zip_code":"4928186","prefecture":"愛知県","prefecture_kana":"アイチケン","city":"稲沢市","city_kana":"イナザワシ","town":"日下部町","town_kana":"クサカベチョウ","prefecture_code":23},"8144":{"zip_code":"4928144","prefecture":"愛知県","prefecture_kana":"アイチケン","city":"稲沢市","city_kana":"イナザワシ","town":"小池","town_kana":"コイケ","prefecture_code":23},"8136":{"zip_code":"4928136","prefecture":"愛知県","prefecture_kana":"アイチケン","city":"稲沢市","city_kana":"イナザワシ","town":"小池正明寺北街道","town_kana":"コイケショウメイジキタカイドウ","prefecture_code":23},"8147":{"zip_code":"4928147","prefecture":"愛知県","prefecture_kana":"アイチケン","city":"稲沢市","city_kana":"イナザワシ","town":"小池正明寺町","town_kana":"コイケショウメイジチョウ","prefecture_code":23},"8137":{"zip_code":"4928137","prefecture":"愛知県","prefecture_kana":"アイチケン","city":"稲沢市","city_kana":"イナザワシ","town":"国府宮","town_kana":"コウノミヤ","prefecture_code":23},"8139":{"zip_code":"4928139","prefecture":"愛知県","prefecture_kana":"アイチケン","city":"稲沢市","city_kana":"イナザワシ","town":"国府宮神田町","town_kana":"コウノミヤジンデンチョウ","prefecture_code":23},"8138":{"zip_code":"4928138","prefecture":"愛知県","prefecture_kana":"アイチケン","city":"稲沢市","city_kana":"イナザワシ","town":"国府宮町","town_kana":"コウノミヤチョウ","prefecture_code":23},"8101":{"zip_code":"4928101","prefecture":"愛知県","prefecture_kana":"アイチケン","city":"稲沢市","city_kana":"イナザワシ","town":"子生和池田町","town_kana":"コウワイケダチョウ","prefecture_code":23},"8105":{"zip_code":"4928105","prefecture":"愛知県","prefecture_kana":"アイチケン","city":"稲沢市","city_kana":"イナザワシ","town":"子生和円場町","town_kana":"コウワエンバチョウ","prefecture_code":23},"8111":{"zip_code":"4928111","prefecture":"愛知県","prefecture_kana":"アイチケン","city":"稲沢市","city_kana":"イナザワシ","town":"子生和小原町","town_kana":"コウワコハラチョウ","prefecture_code":23},"8108":{"zip_code":"4928108","prefecture":"愛知県","prefecture_kana":"アイチケン","city":"稲沢市","city_kana":"イナザワシ","town":"子生和子安賀町","town_kana":"コウワコヤスガチョウ","prefecture_code":23},"8112":{"zip_code":"4928112","prefecture":"愛知県","prefecture_kana":"アイチケン","city":"稲沢市","city_kana":"イナザワシ","town":"子生和坂田町","town_kana":"コウワサカタチョウ","prefecture_code":23},"8109":{"zip_code":"4928109","prefecture":"愛知県","prefecture_kana":"アイチケン","city":"稲沢市","city_kana":"イナザワシ","town":"子生和山王町","town_kana":"コウワサンノウチョウ","prefecture_code":23},"8102":{"zip_code":"4928102","prefecture":"愛知県","prefecture_kana":"アイチケン","city":"稲沢市","city_kana":"イナザワシ","town":"子生和神明町","town_kana":"コウワシンメイチョウ","prefecture_code":23},"8107":{"zip_code":"4928107","prefecture":"愛知県","prefecture_kana":"アイチケン","city":"稲沢市","city_kana":"イナザワシ","town":"子生和住吉町","town_kana":"コウワスミヨシチョウ","prefecture_code":23},"8103":{"zip_code":"4928103","prefecture":"愛知県","prefecture_kana":"アイチケン","city":"稲沢市","city_kana":"イナザワシ","town":"子生和溝師町","town_kana":"コウワミゾシチョウ","prefecture_code":23},"8104":{"zip_code":"4928104","prefecture":"愛知県","prefecture_kana":"アイチケン","city":"稲沢市","city_kana":"イナザワシ","town":"子生和八島町","town_kana":"コウワヤシマチョウ","prefecture_code":23},"8106":{"zip_code":"4928106","prefecture":"愛知県","prefecture_kana":"アイチケン","city":"稲沢市","city_kana":"イナザワシ","town":"子生和町","town_kana":"コウワチョウ","prefecture_code":23},"8146":{"zip_code":"4928146","prefecture":"愛知県","prefecture_kana":"アイチケン","city":"稲沢市","city_kana":"イナザワシ","town":"御供所町","town_kana":"ゴクショチョウ","prefecture_code":23},"8212":{"zip_code":"4928212","prefecture":"愛知県","prefecture_kana":"アイチケン","city":"稲沢市","city_kana":"イナザワシ","town":"小沢","town_kana":"コザワ","prefecture_code":23},"8265":{"zip_code":"4928265","prefecture":"愛知県","prefecture_kana":"アイチケン","city":"稲沢市","city_kana":"イナザワシ","town":"小寺町","town_kana":"コデラチョウ","prefecture_code":23},"8444":{"zip_code":"4928444","prefecture":"愛知県","prefecture_kana":"アイチケン","city":"稲沢市","city_kana":"イナザワシ","town":"込野町","town_kana":"コミノチョウ","prefecture_code":23},"8221":{"zip_code":"4928221","prefecture":"愛知県","prefecture_kana":"アイチケン","city":"稲沢市","city_kana":"イナザワシ","town":"幸町","town_kana":"サイワイチョウ","prefecture_code":23},"8454":{"zip_code":"4928454","prefecture":"愛知県","prefecture_kana":"アイチケン","city":"稲沢市","city_kana":"イナザワシ","town":"坂田町","town_kana":"サカタチョウ","prefecture_code":23},"8272":{"zip_code":"4928272","prefecture":"愛知県","prefecture_kana":"アイチケン","city":"稲沢市","city_kana":"イナザワシ","town":"桜木","town_kana":"サクラギ","prefecture_code":23},"8273":{"zip_code":"4928273","prefecture":"愛知県","prefecture_kana":"アイチケン","city":"稲沢市","city_kana":"イナザワシ","town":"桜木宮前町","town_kana":"サクラギミヤマエチョウ","prefecture_code":23},"8261":{"zip_code":"4928261","prefecture":"愛知県","prefecture_kana":"アイチケン","city":"稲沢市","city_kana":"イナザワシ","town":"重本","town_kana":"シゲモト","prefecture_code":23},"8203":{"zip_code":"4928203","prefecture":"愛知県","prefecture_kana":"アイチケン","city":"稲沢市","city_kana":"イナザワシ","town":"島小原町","town_kana":"シマコハラチョウ","prefecture_code":23},"8201":{"zip_code":"4928201","prefecture":"愛知県","prefecture_kana":"アイチケン","city":"稲沢市","city_kana":"イナザワシ","town":"島子安賀町","town_kana":"シマコヤスカチョウ","prefecture_code":23},"8204":{"zip_code":"4928204","prefecture":"愛知県","prefecture_kana":"アイチケン","city":"稲沢市","city_kana":"イナザワシ","town":"島高須賀町","town_kana":"シマタカスカチョウ","prefecture_code":23},"8202":{"zip_code":"4928202","prefecture":"愛知県","prefecture_kana":"アイチケン","city":"稲沢市","city_kana":"イナザワシ","town":"島東之郷町","town_kana":"シマヒガシノゴウチョウ","prefecture_code":23},"8205":{"zip_code":"4928205","prefecture":"愛知県","prefecture_kana":"アイチケン","city":"稲沢市","city_kana":"イナザワシ","town":"島町","town_kana":"シマチョウ","prefecture_code":23},"8313":{"zip_code":"4928313","prefecture":"愛知県","prefecture_kana":"アイチケン","city":"稲沢市","city_kana":"イナザワシ","town":"清水阿原町","town_kana":"シミズアワラチョウ","prefecture_code":23},"8315":{"zip_code":"4928315","prefecture":"愛知県","prefecture_kana":"アイチケン","city":"稲沢市","city_kana":"イナザワシ","town":"清水郷西町","town_kana":"シミズゴウニシチョウ","prefecture_code":23},"8316":{"zip_code":"4928316","prefecture":"愛知県","prefecture_kana":"アイチケン","city":"稲沢市","city_kana":"イナザワシ","town":"清水寺前町","town_kana":"シミズテラマエチョウ","prefecture_code":23},"8311":{"zip_code":"4928311","prefecture":"愛知県","prefecture_kana":"アイチケン","city":"稲沢市","city_kana":"イナザワシ","town":"清水西川原町","town_kana":"シミズニシカワラチョウ","prefecture_code":23},"8312":{"zip_code":"4928312","prefecture":"愛知県","prefecture_kana":"アイチケン","city":"稲沢市","city_kana":"イナザワシ","town":"清水八尻町","town_kana":"シミズハチジリチョウ","prefecture_code":23},"8317":{"zip_code":"4928317","prefecture":"愛知県","prefecture_kana":"アイチケン","city":"稲沢市","city_kana":"イナザワシ","town":"清水八神町","town_kana":"シミズヤガミチョウ","prefecture_code":23},"8314":{"zip_code":"4928314","prefecture":"愛知県","prefecture_kana":"アイチケン","city":"稲沢市","city_kana":"イナザワシ","town":"清水町","town_kana":"シミズチョウ","prefecture_code":23},"8310":{"zip_code":"4928310","prefecture":"愛知県","prefecture_kana":"アイチケン","city":"稲沢市","city_kana":"イナザワシ","town":"下屋","town_kana":"シモヤ","prefecture_code":23},"8319":{"zip_code":"4928319","prefecture":"愛知県","prefecture_kana":"アイチケン","city":"稲沢市","city_kana":"イナザワシ","town":"下屋町","town_kana":"シモヤチョウ","prefecture_code":23},"8145":{"zip_code":"4928145","prefecture":"愛知県","prefecture_kana":"アイチケン","city":"稲沢市","city_kana":"イナザワシ","town":"正明寺","town_kana":"ショウメイジ","prefecture_code":23},"8135":{"zip_code":"4928135","prefecture":"愛知県","prefecture_kana":"アイチケン","city":"稲沢市","city_kana":"イナザワシ","town":"治郎丸石塚町","town_kana":"ジロマルイシヅカチョウ","prefecture_code":23},"8134":{"zip_code":"4928134","prefecture":"愛知県","prefecture_kana":"アイチケン","city":"稲沢市","city_kana":"イナザワシ","town":"治郎丸大角町","town_kana":"ジロマルオオスミチョウ","prefecture_code":23},"8115":{"zip_code":"4928115","prefecture":"愛知県","prefecture_kana":"アイチケン","city":"稲沢市","city_kana":"イナザワシ","town":"治郎丸東町","town_kana":"ジロマルヒガシマチ","prefecture_code":23},"8116":{"zip_code":"4928116","prefecture":"愛知県","prefecture_kana":"アイチケン","city":"稲沢市","city_kana":"イナザワシ","town":"治郎丸西町","town_kana":"ジロマルニシマチ","prefecture_code":23},"8127":{"zip_code":"4928127","prefecture":"愛知県","prefecture_kana":"アイチケン","city":"稲沢市","city_kana":"イナザワシ","town":"治郎丸南町","town_kana":"ジロマルミナミマチ","prefecture_code":23},"8118":{"zip_code":"4928118","prefecture":"愛知県","prefecture_kana":"アイチケン","city":"稲沢市","city_kana":"イナザワシ","town":"治郎丸北町","town_kana":"ジロマルキタマチ","prefecture_code":23},"8126":{"zip_code":"4928126","prefecture":"愛知県","prefecture_kana":"アイチケン","city":"稲沢市","city_kana":"イナザワシ","town":"治郎丸郷前町","town_kana":"ジロマルゴウマエチョウ","prefecture_code":23},"8113":{"zip_code":"4928113","prefecture":"愛知県","prefecture_kana":"アイチケン","city":"稲沢市","city_kana":"イナザワシ","town":"治郎丸神木町","town_kana":"ジロマルシンボクチョウ","prefecture_code":23},"8125":{"zip_code":"4928125","prefecture":"愛知県","prefecture_kana":"アイチケン","city":"稲沢市","city_kana":"イナザワシ","town":"治郎丸清敷町","town_kana":"ジロマルセイシキチョウ","prefecture_code":23},"8119":{"zip_code":"4928119","prefecture":"愛知県","prefecture_kana":"アイチケン","city":"稲沢市","city_kana":"イナザワシ","town":"治郎丸大明町","town_kana":"ジロマルダイミョウチョウ","prefecture_code":23},"8117":{"zip_code":"4928117","prefecture":"愛知県","prefecture_kana":"アイチケン","city":"稲沢市","city_kana":"イナザワシ","town":"治郎丸高須町","town_kana":"ジロマルタカスチョウ","prefecture_code":23},"8114":{"zip_code":"4928114","prefecture":"愛知県","prefecture_kana":"アイチケン","city":"稲沢市","city_kana":"イナザワシ","town":"治郎丸椿町","town_kana":"ジロマルツバキチョウ","prefecture_code":23},"8132":{"zip_code":"4928132","prefecture":"愛知県","prefecture_kana":"アイチケン","city":"稲沢市","city_kana":"イナザワシ","town":"治郎丸天神町","town_kana":"ジロマルテンジンチョウ","prefecture_code":23},"8124":{"zip_code":"4928124","prefecture":"愛知県","prefecture_kana":"アイチケン","city":"稲沢市","city_kana":"イナザワシ","town":"治郎丸土井町","town_kana":"ジロマルドイマチ","prefecture_code":23},"8128":{"zip_code":"4928128","prefecture":"愛知県","prefecture_kana":"アイチケン","city":"稲沢市","city_kana":"イナザワシ","town":"治郎丸中町","town_kana":"ジロマルナカマチ","prefecture_code":23},"8123":{"zip_code":"4928123","prefecture":"愛知県","prefecture_kana":"アイチケン","city":"稲沢市","city_kana":"イナザワシ","town":"治郎丸白山町","town_kana":"ジロマルハクサンチョウ","prefecture_code":23},"8131":{"zip_code":"4928131","prefecture":"愛知県","prefecture_kana":"アイチケン","city":"稲沢市","city_kana":"イナザワシ","town":"治郎丸古江町","town_kana":"ジロマルフルエチョウ","prefecture_code":23},"8133":{"zip_code":"4928133","prefecture":"愛知県","prefecture_kana":"アイチケン","city":"稲沢市","city_kana":"イナザワシ","town":"治郎丸細道町","town_kana":"ジロマルホソミチチョウ","prefecture_code":23},"8122":{"zip_code":"4928122","prefecture":"愛知県","prefecture_kana":"アイチケン","city":"稲沢市","city_kana":"イナザワシ","town":"治郎丸元町","town_kana":"ジロマルモトマチ","prefecture_code":23},"8121":{"zip_code":"4928121","prefecture":"愛知県","prefecture_kana":"アイチケン","city":"稲沢市","city_kana":"イナザワシ","town":"治郎丸柳町","town_kana":"ジロマルヤナギチョウ","prefecture_code":23},"8403":{"zip_code":"4928403","prefecture":"愛知県","prefecture_kana":"アイチケン","city":"稲沢市","city_kana":"イナザワシ","town":"千代","town_kana":"センダイ","prefecture_code":23},"8404":{"zip_code":"4928404","prefecture":"愛知県","prefecture_kana":"アイチケン","city":"稲沢市","city_kana":"イナザワシ","town":"千代西町","town_kana":"センダイニシマチ","prefecture_code":23},"8402":{"zip_code":"4928402","prefecture":"愛知県","prefecture_kana":"アイチケン","city":"稲沢市","city_kana":"イナザワシ","town":"千代町","town_kana":"センダイチョウ","prefecture_code":23},"8339":{"zip_code":"4928339","prefecture":"愛知県","prefecture_kana":"アイチケン","city":"稲沢市","city_kana":"イナザワシ","town":"平江向町","town_kana":"タイラエムカエチョウ","prefecture_code":23},"8332":{"zip_code":"4928332","prefecture":"愛知県","prefecture_kana":"アイチケン","city":"稲沢市","city_kana":"イナザワシ","town":"平尾苅町","town_kana":"タイラオガリチョウ","prefecture_code":23},"8338":{"zip_code":"4928338","prefecture":"愛知県","prefecture_kana":"アイチケン","city":"稲沢市","city_kana":"イナザワシ","town":"平金森町","town_kana":"タイラカナモリチョウ","prefecture_code":23},"8336":{"zip_code":"4928336","prefecture":"愛知県","prefecture_kana":"アイチケン","city":"稲沢市","city_kana":"イナザワシ","town":"平苅田町","town_kana":"タイラカリタチョウ","prefecture_code":23},"8337":{"zip_code":"4928337","prefecture":"愛知県","prefecture_kana":"アイチケン","city":"稲沢市","city_kana":"イナザワシ","town":"平細工蔵町","town_kana":"タイラサイクゾウチョウ","prefecture_code":23},"8334":{"zip_code":"4928334","prefecture":"愛知県","prefecture_kana":"アイチケン","city":"稲沢市","city_kana":"イナザワシ","town":"平高道町","town_kana":"タイラタカミチチョウ","prefecture_code":23},"8333":{"zip_code":"4928333","prefecture":"愛知県","prefecture_kana":"アイチケン","city":"稲沢市","city_kana":"イナザワシ","town":"平蜂ノ坪町","town_kana":"タイラハチノツボチョウ","prefecture_code":23},"8331":{"zip_code":"4928331","prefecture":"愛知県","prefecture_kana":"アイチケン","city":"稲沢市","city_kana":"イナザワシ","town":"平佛供田町","town_kana":"タイラブクデンチョウ","prefecture_code":23},"8423":{"zip_code":"4928423","prefecture":"愛知県","prefecture_kana":"アイチケン","city":"稲沢市","city_kana":"イナザワシ","town":"高重中町","town_kana":"タカシゲナカマチ","prefecture_code":23},"8424":{"zip_code":"4928424","prefecture":"愛知県","prefecture_kana":"アイチケン","city":"稲沢市","city_kana":"イナザワシ","town":"高重東町","town_kana":"タカシゲヒガシマチ","prefecture_code":23},"8421":{"zip_code":"4928421","prefecture":"愛知県","prefecture_kana":"アイチケン","city":"稲沢市","city_kana":"イナザワシ","town":"高重西町","town_kana":"タカシゲニシマチ","prefecture_code":23},"8422":{"zip_code":"4928422","prefecture":"愛知県","prefecture_kana":"アイチケン","city":"稲沢市","city_kana":"イナザワシ","town":"高重町","town_kana":"タカシゲチョウ","prefecture_code":23},"8213":{"zip_code":"4928213","prefecture":"愛知県","prefecture_kana":"アイチケン","city":"稲沢市","city_kana":"イナザワシ","town":"高御堂","town_kana":"タカミドウ","prefecture_code":23},"8285":{"zip_code":"4928285","prefecture":"愛知県","prefecture_kana":"アイチケン","city":"稲沢市","city_kana":"イナザワシ","town":"竹腰東町","town_kana":"タケノコシヒガシマチ","prefecture_code":23},"8287":{"zip_code":"4928287","prefecture":"愛知県","prefecture_kana":"アイチケン","city":"稲沢市","city_kana":"イナザワシ","town":"竹腰西町","town_kana":"タケノコシニシマチ","prefecture_code":23},"8288":{"zip_code":"4928288","prefecture":"愛知県","prefecture_kana":"アイチケン","city":"稲沢市","city_kana":"イナザワシ","town":"竹腰北町","town_kana":"タケノコシキタマチ","prefecture_code":23},"8286":{"zip_code":"4928286","prefecture":"愛知県","prefecture_kana":"アイチケン","city":"稲沢市","city_kana":"イナザワシ","town":"竹腰中町","town_kana":"タケノコシナカマチ","prefecture_code":23},"8289":{"zip_code":"4928289","prefecture":"愛知県","prefecture_kana":"アイチケン","city":"稲沢市","city_kana":"イナザワシ","town":"竹腰本町","town_kana":"タケノコシホンマチ","prefecture_code":23},"8455":{"zip_code":"4928455","prefecture":"愛知県","prefecture_kana":"アイチケン","city":"稲沢市","city_kana":"イナザワシ","town":"田代","town_kana":"タシロ","prefecture_code":23},"8442":{"zip_code":"4928442","prefecture":"愛知県","prefecture_kana":"アイチケン","city":"稲沢市","city_kana":"イナザワシ","town":"附島町","town_kana":"ツケシマチョウ","prefecture_code":23},"8391":{"zip_code":"4928391","prefecture":"愛知県","prefecture_kana":"アイチケン","city":"稲沢市","city_kana":"イナザワシ","town":"中野川端町","town_kana":"ナカノカワバタチョウ","prefecture_code":23},"8436":{"zip_code":"4928436","prefecture":"愛知県","prefecture_kana":"アイチケン","city":"稲沢市","city_kana":"イナザワシ","town":"中之庄海道町","town_kana":"ナカノショウカイドウチョウ","prefecture_code":23},"8431":{"zip_code":"4928431","prefecture":"愛知県","prefecture_kana":"アイチケン","city":"稲沢市","city_kana":"イナザワシ","town":"中之庄高畑町","town_kana":"ナカノショウタカバタチョウ","prefecture_code":23},"8434":{"zip_code":"4928434","prefecture":"愛知県","prefecture_kana":"アイチケン","city":"稲沢市","city_kana":"イナザワシ","town":"中之庄堤畔町","town_kana":"ナカノショウツツミグロチョウ","prefecture_code":23},"8437":{"zip_code":"4928437","prefecture":"愛知県","prefecture_kana":"アイチケン","city":"稲沢市","city_kana":"イナザワシ","town":"中之庄長堤町","town_kana":"ナカノショウナガツツミチョウ","prefecture_code":23},"8432":{"zip_code":"4928432","prefecture":"愛知県","prefecture_kana":"アイチケン","city":"稲沢市","city_kana":"イナザワシ","town":"中之庄半田町","town_kana":"ナカノショウハンダチョウ","prefecture_code":23},"8433":{"zip_code":"4928433","prefecture":"愛知県","prefecture_kana":"アイチケン","city":"稲沢市","city_kana":"イナザワシ","town":"中之庄元屋敷町","town_kana":"ナカノショウモトヤシキチョウ","prefecture_code":23},"8435":{"zip_code":"4928435","prefecture":"愛知県","prefecture_kana":"アイチケン","city":"稲沢市","city_kana":"イナザワシ","town":"中之庄町","town_kana":"ナカノショウチョウ","prefecture_code":23},"8142":{"zip_code":"4928142","prefecture":"愛知県","prefecture_kana":"アイチケン","city":"稲沢市","city_kana":"イナザワシ","town":"長野","town_kana":"ナガノ","prefecture_code":23},"8141":{"zip_code":"4928141","prefecture":"愛知県","prefecture_kana":"アイチケン","city":"稲沢市","city_kana":"イナザワシ","town":"長野町","town_kana":"ナガノチョウ","prefecture_code":23},"8393":{"zip_code":"4928393","prefecture":"愛知県","prefecture_kana":"アイチケン","city":"稲沢市","city_kana":"イナザワシ","town":"中野宮町","town_kana":"ナカノミヤマチ","prefecture_code":23},"8392":{"zip_code":"4928392","prefecture":"愛知県","prefecture_kana":"アイチケン","city":"稲沢市","city_kana":"イナザワシ","town":"中野元町","town_kana":"ナカノモトマチ","prefecture_code":23},"8167":{"zip_code":"4928167","prefecture":"愛知県","prefecture_kana":"アイチケン","city":"稲沢市","city_kana":"イナザワシ","town":"長束町","town_kana":"ナヅカチョウ","prefecture_code":23},"8439":{"zip_code":"4928439","prefecture":"愛知県","prefecture_kana":"アイチケン","city":"稲沢市","city_kana":"イナザワシ","town":"七ツ寺町","town_kana":"ナナツデラチョウ","prefecture_code":23},"8328":{"zip_code":"4928328","prefecture":"愛知県","prefecture_kana":"アイチケン","city":"稲沢市","city_kana":"イナザワシ","town":"西島","town_kana":"ニシジマ","prefecture_code":23},"8323":{"zip_code":"4928323","prefecture":"愛知県","prefecture_kana":"アイチケン","city":"稲沢市","city_kana":"イナザワシ","town":"西島新町","town_kana":"ニシジマシンマチ","prefecture_code":23},"8322":{"zip_code":"4928322","prefecture":"愛知県","prefecture_kana":"アイチケン","city":"稲沢市","city_kana":"イナザワシ","town":"西島出町","town_kana":"ニシジマデマチ","prefecture_code":23},"8327":{"zip_code":"4928327","prefecture":"愛知県","prefecture_kana":"アイチケン","city":"稲沢市","city_kana":"イナザワシ","town":"西島中町","town_kana":"ニシジマナカマチ","prefecture_code":23},"8325":{"zip_code":"4928325","prefecture":"愛知県","prefecture_kana":"アイチケン","city":"稲沢市","city_kana":"イナザワシ","town":"西島東町","town_kana":"ニシジマヒガシマチ","prefecture_code":23},"8321":{"zip_code":"4928321","prefecture":"愛知県","prefecture_kana":"アイチケン","city":"稲沢市","city_kana":"イナザワシ","town":"西島北町","town_kana":"ニシジマキタマチ","prefecture_code":23},"8326":{"zip_code":"4928326","prefecture":"愛知県","prefecture_kana":"アイチケン","city":"稲沢市","city_kana":"イナザワシ","town":"西島本町","town_kana":"ニシジマホンマチ","prefecture_code":23},"8329":{"zip_code":"4928329","prefecture":"愛知県","prefecture_kana":"アイチケン","city":"稲沢市","city_kana":"イナザワシ","town":"西島町","town_kana":"ニシジマチョウ","prefecture_code":23},"8218":{"zip_code":"4928218","prefecture":"愛知県","prefecture_kana":"アイチケン","city":"稲沢市","city_kana":"イナザワシ","town":"西町","town_kana":"ニシマチ","prefecture_code":23},"8452":{"zip_code":"4928452","prefecture":"愛知県","prefecture_kana":"アイチケン","city":"稲沢市","city_kana":"イナザワシ","town":"西溝口町","town_kana":"ニシミゾグチチョウ","prefecture_code":23},"8447":{"zip_code":"4928447","prefecture":"愛知県","prefecture_kana":"アイチケン","city":"稲沢市","city_kana":"イナザワシ","town":"野崎町","town_kana":"ノサキチョウ","prefecture_code":23},"8307":{"zip_code":"4928307","prefecture":"愛知県","prefecture_kana":"アイチケン","city":"稲沢市","city_kana":"イナザワシ","town":"生出上山町","town_kana":"ハイデカミヤマチョウ","prefecture_code":23},"8305":{"zip_code":"4928305","prefecture":"愛知県","prefecture_kana":"アイチケン","city":"稲沢市","city_kana":"イナザワシ","town":"生出郷前町","town_kana":"ハイデゴウマエチョウ","prefecture_code":23},"8308":{"zip_code":"4928308","prefecture":"愛知県","prefecture_kana":"アイチケン","city":"稲沢市","city_kana":"イナザワシ","town":"生出河戸町","town_kana":"ハイデコエドチョウ","prefecture_code":23},"8302":{"zip_code":"4928302","prefecture":"愛知県","prefecture_kana":"アイチケン","city":"稲沢市","city_kana":"イナザワシ","town":"生出西道根町","town_kana":"ハイデニシドウネチョウ","prefecture_code":23},"8303":{"zip_code":"4928303","prefecture":"愛知県","prefecture_kana":"アイチケン","city":"稲沢市","city_kana":"イナザワシ","town":"生出東道根町","town_kana":"ハイデヒガシドウネチョウ","prefecture_code":23},"8301":{"zip_code":"4928301","prefecture":"愛知県","prefecture_kana":"アイチケン","city":"稲沢市","city_kana":"イナザワシ","town":"生出本町","town_kana":"ハイデホンマチ","prefecture_code":23},"8304":{"zip_code":"4928304","prefecture":"愛知県","prefecture_kana":"アイチケン","city":"稲沢市","city_kana":"イナザワシ","town":"生出山田町","town_kana":"ハイデヤマダチョウ","prefecture_code":23},"8306":{"zip_code":"4928306","prefecture":"愛知県","prefecture_kana":"アイチケン","city":"稲沢市","city_kana":"イナザワシ","town":"生出横西町","town_kana":"ハイデヨコニシチョウ","prefecture_code":23},"8348":{"zip_code":"4928348","prefecture":"愛知県","prefecture_kana":"アイチケン","city":"稲沢市","city_kana":"イナザワシ","town":"馬場","town_kana":"バンバ","prefecture_code":23},"8341":{"zip_code":"4928341","prefecture":"愛知県","prefecture_kana":"アイチケン","city":"稲沢市","city_kana":"イナザワシ","town":"馬場町","town_kana":"バンバチョウ","prefecture_code":23},"8251":{"zip_code":"4928251","prefecture":"愛知県","prefecture_kana":"アイチケン","city":"稲沢市","city_kana":"イナザワシ","town":"東緑町","town_kana":"ヒガシミドリマチ","prefecture_code":23},"8161":{"zip_code":"4928161","prefecture":"愛知県","prefecture_kana":"アイチケン","city":"稲沢市","city_kana":"イナザワシ","town":"菱町","town_kana":"ヒシマチ","prefecture_code":23},"8456":{"zip_code":"4928456","prefecture":"愛知県","prefecture_kana":"アイチケン","city":"稲沢市","city_kana":"イナザワシ","town":"氷室町","town_kana":"ヒムロチョウ","prefecture_code":23},"8263":{"zip_code":"4928263","prefecture":"愛知県","prefecture_kana":"アイチケン","city":"稲沢市","city_kana":"イナザワシ","town":"平野","town_kana":"ヒラノ","prefecture_code":23},"8264":{"zip_code":"4928264","prefecture":"愛知県","prefecture_kana":"アイチケン","city":"稲沢市","city_kana":"イナザワシ","town":"平野町","town_kana":"ヒラノチョウ","prefecture_code":23},"8441":{"zip_code":"4928441","prefecture":"愛知県","prefecture_kana":"アイチケン","city":"稲沢市","city_kana":"イナザワシ","town":"福島町","town_kana":"フクジマチョウ","prefecture_code":23},"8267":{"zip_code":"4928267","prefecture":"愛知県","prefecture_kana":"アイチケン","city":"稲沢市","city_kana":"イナザワシ","town":"船橋町","town_kana":"フナバシチョウ","prefecture_code":23},"8335":{"zip_code":"4928335","prefecture":"愛知県","prefecture_kana":"アイチケン","city":"稲沢市","city_kana":"イナザワシ","town":"法花寺町","town_kana":"ホッケジチョウ","prefecture_code":23},"8438":{"zip_code":"4928438","prefecture":"愛知県","prefecture_kana":"アイチケン","city":"稲沢市","city_kana":"イナザワシ","town":"堀田町","town_kana":"ホッタチョウ","prefecture_code":23},"8405":{"zip_code":"4928405","prefecture":"愛知県","prefecture_kana":"アイチケン","city":"稲沢市","city_kana":"イナザワシ","town":"堀之内町","town_kana":"ホリノウチチョウ","prefecture_code":23},"8220":{"zip_code":"4928220","prefecture":"愛知県","prefecture_kana":"アイチケン","city":"稲沢市","city_kana":"イナザワシ","town":"前田","town_kana":"マエダ","prefecture_code":23},"8426":{"zip_code":"4928426","prefecture":"愛知県","prefecture_kana":"アイチケン","city":"稲沢市","city_kana":"イナザワシ","town":"増田東町","town_kana":"マシタヒガシマチ","prefecture_code":23},"8429":{"zip_code":"4928429","prefecture":"愛知県","prefecture_kana":"アイチケン","city":"稲沢市","city_kana":"イナザワシ","town":"増田西町","town_kana":"マシタニシマチ","prefecture_code":23},"8427":{"zip_code":"4928427","prefecture":"愛知県","prefecture_kana":"アイチケン","city":"稲沢市","city_kana":"イナザワシ","town":"増田南町","town_kana":"マシタミナミマチ","prefecture_code":23},"8425":{"zip_code":"4928425","prefecture":"愛知県","prefecture_kana":"アイチケン","city":"稲沢市","city_kana":"イナザワシ","town":"増田北町","town_kana":"マシタキタマチ","prefecture_code":23},"8428":{"zip_code":"4928428","prefecture":"愛知県","prefecture_kana":"アイチケン","city":"稲沢市","city_kana":"イナザワシ","town":"増田町","town_kana":"マシタチョウ","prefecture_code":23},"8208":{"zip_code":"4928208","prefecture":"愛知県","prefecture_kana":"アイチケン","city":"稲沢市","city_kana":"イナザワシ","town":"松下","town_kana":"マツシタ","prefecture_code":23},"8252":{"zip_code":"4928252","prefecture":"愛知県","prefecture_kana":"アイチケン","city":"稲沢市","city_kana":"イナザワシ","town":"緑町","town_kana":"ミドリマチ","prefecture_code":23},"8445":{"zip_code":"4928445","prefecture":"愛知県","prefecture_kana":"アイチケン","city":"稲沢市","city_kana":"イナザワシ","town":"南麻績町","town_kana":"ミナミオウミチョウ","prefecture_code":23},"8446":{"zip_code":"4928446","prefecture":"愛知県","prefecture_kana":"アイチケン","city":"稲沢市","city_kana":"イナザワシ","town":"目比町","town_kana":"ムクイチョウ","prefecture_code":23},"8401":{"zip_code":"4928401","prefecture":"愛知県","prefecture_kana":"アイチケン","city":"稲沢市","city_kana":"イナザワシ","town":"梅須賀町","town_kana":"メスカチョウ","prefecture_code":23},"8346":{"zip_code":"4928346","prefecture":"愛知県","prefecture_kana":"アイチケン","city":"稲沢市","city_kana":"イナザワシ","town":"山口本町","town_kana":"ヤマグチホンマチ","prefecture_code":23},"8344":{"zip_code":"4928344","prefecture":"愛知県","prefecture_kana":"アイチケン","city":"稲沢市","city_kana":"イナザワシ","town":"山口南町","town_kana":"ヤマグチミナミマチ","prefecture_code":23},"8345":{"zip_code":"4928345","prefecture":"愛知県","prefecture_kana":"アイチケン","city":"稲沢市","city_kana":"イナザワシ","town":"山口宮前町","town_kana":"ヤマグチミヤマエチョウ","prefecture_code":23},"8347":{"zip_code":"4928347","prefecture":"愛知県","prefecture_kana":"アイチケン","city":"稲沢市","city_kana":"イナザワシ","town":"山口町","town_kana":"ヤマグチチョウ","prefecture_code":23},"8342":{"zip_code":"4928342","prefecture":"愛知県","prefecture_kana":"アイチケン","city":"稲沢市","city_kana":"イナザワシ","town":"矢合町","town_kana":"ヤワセチョウ","prefecture_code":23},"8266":{"zip_code":"4928266","prefecture":"愛知県","prefecture_kana":"アイチケン","city":"稲沢市","city_kana":"イナザワシ","town":"横地","town_kana":"ヨコチ","prefecture_code":23},"8385":{"zip_code":"4928385","prefecture":"愛知県","prefecture_kana":"アイチケン","city":"稲沢市","city_kana":"イナザワシ","town":"横野河原町","town_kana":"ヨコノカワラチョウ","prefecture_code":23},"8388":{"zip_code":"4928388","prefecture":"愛知県","prefecture_kana":"アイチケン","city":"稲沢市","city_kana":"イナザワシ","town":"横野境塚町","town_kana":"ヨコノサカイヅカチョウ","prefecture_code":23},"8387":{"zip_code":"4928387","prefecture":"愛知県","prefecture_kana":"アイチケン","city":"稲沢市","city_kana":"イナザワシ","town":"横野神田町","town_kana":"ヨコノジンデンチョウ","prefecture_code":23},"8382":{"zip_code":"4928382","prefecture":"愛知県","prefecture_kana":"アイチケン","city":"稲沢市","city_kana":"イナザワシ","town":"横野堂根町","town_kana":"ヨコノドウネチョウ","prefecture_code":23},"8381":{"zip_code":"4928381","prefecture":"愛知県","prefecture_kana":"アイチケン","city":"稲沢市","city_kana":"イナザワシ","town":"横野西郷町","town_kana":"ヨコノニシゴウチョウ","prefecture_code":23},"8384":{"zip_code":"4928384","prefecture":"愛知県","prefecture_kana":"アイチケン","city":"稲沢市","city_kana":"イナザワシ","town":"横野東郷町","town_kana":"ヨコノヒガシゴウチョウ","prefecture_code":23},"8383":{"zip_code":"4928383","prefecture":"愛知県","prefecture_kana":"アイチケン","city":"稲沢市","city_kana":"イナザワシ","town":"横野東出町","town_kana":"ヨコノヒガシデチョウ","prefecture_code":23},"8386":{"zip_code":"4928386","prefecture":"愛知県","prefecture_kana":"アイチケン","city":"稲沢市","city_kana":"イナザワシ","town":"横野松前町","town_kana":"ヨコノマツマエチョウ","prefecture_code":23},"8389":{"zip_code":"4928389","prefecture":"愛知県","prefecture_kana":"アイチケン","city":"稲沢市","city_kana":"イナザワシ","town":"横野町","town_kana":"ヨコノチョウ","prefecture_code":23},"8172":{"zip_code":"4928172","prefecture":"愛知県","prefecture_kana":"アイチケン","city":"稲沢市","city_kana":"イナザワシ","town":"六角堂東町","town_kana":"ロッカクドウヒガシマチ","prefecture_code":23},"8171":{"zip_code":"4928171","prefecture":"愛知県","prefecture_kana":"アイチケン","city":"稲沢市","city_kana":"イナザワシ","town":"六角堂西町","town_kana":"ロッカクドウニシマチ","prefecture_code":23}}