{"0006":{"zip_code":"4940006","prefecture":"愛知県","prefecture_kana":"アイチケン","city":"一宮市","city_kana":"イチノミヤシ","town":"起","town_kana":"オコシ","prefecture_code":23},"0001":{"zip_code":"4940001","prefecture":"愛知県","prefecture_kana":"アイチケン","city":"一宮市","city_kana":"イチノミヤシ","town":"開明","town_kana":"カイメイ","prefecture_code":23},"0002":{"zip_code":"4940002","prefecture":"愛知県","prefecture_kana":"アイチケン","city":"一宮市","city_kana":"イチノミヤシ","town":"篭屋","town_kana":"カゴヤ","prefecture_code":23},"0014":{"zip_code":"4940014","prefecture":"愛知県","prefecture_kana":"アイチケン","city":"一宮市","city_kana":"イチノミヤシ","town":"上祖父江","town_kana":"カミソブエ","prefecture_code":23},"0004":{"zip_code":"4940004","prefecture":"愛知県","prefecture_kana":"アイチケン","city":"一宮市","city_kana":"イチノミヤシ","town":"北今","town_kana":"キタイマ","prefecture_code":23},"0007":{"zip_code":"4940007","prefecture":"愛知県","prefecture_kana":"アイチケン","city":"一宮市","city_kana":"イチノミヤシ","town":"小信中島","town_kana":"コノブナカシマ","prefecture_code":23},"0003":{"zip_code":"4940003","prefecture":"愛知県","prefecture_kana":"アイチケン","city":"一宮市","city_kana":"イチノミヤシ","town":"三条","town_kana":"サンジョウ","prefecture_code":23},"0013":{"zip_code":"4940013","prefecture":"愛知県","prefecture_kana":"アイチケン","city":"一宮市","city_kana":"イチノミヤシ","town":"玉野","town_kana":"タマノ","prefecture_code":23},"0018":{"zip_code":"4940018","prefecture":"愛知県","prefecture_kana":"アイチケン","city":"一宮市","city_kana":"イチノミヤシ","town":"冨田","town_kana":"トミダ","prefecture_code":23},"0005":{"zip_code":"4940005","prefecture":"愛知県","prefecture_kana":"アイチケン","city":"一宮市","city_kana":"イチノミヤシ","town":"西五城","town_kana":"ニシイツシロ","prefecture_code":23},"0015":{"zip_code":"4940015","prefecture":"愛知県","prefecture_kana":"アイチケン","city":"一宮市","city_kana":"イチノミヤシ","town":"西中野","town_kana":"ニシナカノ","prefecture_code":23},"0011":{"zip_code":"4940011","prefecture":"愛知県","prefecture_kana":"アイチケン","city":"一宮市","city_kana":"イチノミヤシ","town":"西萩原","town_kana":"ニシハギワラ","prefecture_code":23},"0019":{"zip_code":"4940019","prefecture":"愛知県","prefecture_kana":"アイチケン","city":"一宮市","city_kana":"イチノミヤシ","town":"蓮池","town_kana":"ハスイケ","prefecture_code":23},"0008":{"zip_code":"4940008","prefecture":"愛知県","prefecture_kana":"アイチケン","city":"一宮市","city_kana":"イチノミヤシ","town":"東五城","town_kana":"ヒガシイツシロ","prefecture_code":23},"0016":{"zip_code":"4940016","prefecture":"愛知県","prefecture_kana":"アイチケン","city":"一宮市","city_kana":"イチノミヤシ","town":"東加賀野井","town_kana":"ヒガシカガノイ","prefecture_code":23},"0012":{"zip_code":"4940012","prefecture":"愛知県","prefecture_kana":"アイチケン","city":"一宮市","city_kana":"イチノミヤシ","town":"明地","town_kana":"メイチ","prefecture_code":23},"0017":{"zip_code":"4940017","prefecture":"愛知県","prefecture_kana":"アイチケン","city":"一宮市","city_kana":"イチノミヤシ","town":"祐久","town_kana":"ユウク","prefecture_code":23}}