{"0000":{"zip_code":"4960000","prefecture":"愛知県","prefecture_kana":"アイチケン","city":"愛西市","city_kana":"アイサイシ","town":"","town_kana":"","prefecture_code":23},"0001":{"zip_code":"4960001","prefecture":"愛知県","prefecture_kana":"アイチケン","city":"津島市","city_kana":"ツシマシ","town":"青塚町","town_kana":"アオツカチョウ","prefecture_code":23},"0036":{"zip_code":"4960036","prefecture":"愛知県","prefecture_kana":"アイチケン","city":"津島市","city_kana":"ツシマシ","town":"愛宕町","town_kana":"アタゴチョウ","prefecture_code":23},"0842":{"zip_code":"4960842","prefecture":"愛知県","prefecture_kana":"アイチケン","city":"津島市","city_kana":"ツシマシ","town":"筏場町","town_kana":"イカダバチョウ","prefecture_code":23},"0828":{"zip_code":"4960828","prefecture":"愛知県","prefecture_kana":"アイチケン","city":"津島市","city_kana":"ツシマシ","town":"池須町","town_kana":"イケスチョウ","prefecture_code":23},"0806":{"zip_code":"4960806","prefecture":"愛知県","prefecture_kana":"アイチケン","city":"津島市","city_kana":"ツシマシ","town":"池麩町","town_kana":"イケフチョウ","prefecture_code":23},"0873":{"zip_code":"4960873","prefecture":"愛知県","prefecture_kana":"アイチケン","city":"津島市","city_kana":"ツシマシ","town":"一本木町","town_kana":"イッポンギチョウ","prefecture_code":23},"0803":{"zip_code":"4960803","prefecture":"愛知県","prefecture_kana":"アイチケン","city":"津島市","city_kana":"ツシマシ","town":"今市場町","town_kana":"イマイチバチョウ","prefecture_code":23},"0033":{"zip_code":"4960033","prefecture":"愛知県","prefecture_kana":"アイチケン","city":"津島市","city_kana":"ツシマシ","town":"杁前町","town_kana":"イリマエチョウ","prefecture_code":23},"0018":{"zip_code":"4960018","prefecture":"愛知県","prefecture_kana":"アイチケン","city":"津島市","city_kana":"ツシマシ","town":"牛田町","town_kana":"ウシダチョウ","prefecture_code":23},"0008":{"zip_code":"4960008","prefecture":"愛知県","prefecture_kana":"アイチケン","city":"津島市","city_kana":"ツシマシ","town":"宇治町","town_kana":"ウジチョウ","prefecture_code":23},"0031":{"zip_code":"4960031","prefecture":"愛知県","prefecture_kana":"アイチケン","city":"津島市","city_kana":"ツシマシ","town":"埋田町","town_kana":"ウメダチョウ","prefecture_code":23},"0827":{"zip_code":"4960827","prefecture":"愛知県","prefecture_kana":"アイチケン","city":"津島市","city_kana":"ツシマシ","town":"浦方町","town_kana":"ウラカタチョウ","prefecture_code":23},"0845":{"zip_code":"4960845","prefecture":"愛知県","prefecture_kana":"アイチケン","city":"津島市","city_kana":"ツシマシ","town":"永楽町","town_kana":"エイラクチョウ","prefecture_code":23},"0867":{"zip_code":"4960867","prefecture":"愛知県","prefecture_kana":"アイチケン","city":"津島市","city_kana":"ツシマシ","town":"江川町","town_kana":"エガワチョウ","prefecture_code":23},"0855":{"zip_code":"4960855","prefecture":"愛知県","prefecture_kana":"アイチケン","city":"津島市","city_kana":"ツシマシ","town":"江東町","town_kana":"エトウチョウ","prefecture_code":23},"0874":{"zip_code":"4960874","prefecture":"愛知県","prefecture_kana":"アイチケン","city":"津島市","city_kana":"ツシマシ","town":"江西町","town_kana":"エニシチョウ","prefecture_code":23},"0854":{"zip_code":"4960854","prefecture":"愛知県","prefecture_kana":"アイチケン","city":"津島市","city_kana":"ツシマシ","town":"老松町","town_kana":"オイマツチョウ","prefecture_code":23},"0012":{"zip_code":"4960012","prefecture":"愛知県","prefecture_kana":"アイチケン","city":"津島市","city_kana":"ツシマシ","town":"大坪町","town_kana":"オオツボチョウ","prefecture_code":23},"0876":{"zip_code":"4960876","prefecture":"愛知県","prefecture_kana":"アイチケン","city":"津島市","city_kana":"ツシマシ","town":"大縄町","town_kana":"オオナワチョウ","prefecture_code":23},"0813":{"zip_code":"4960813","prefecture":"愛知県","prefecture_kana":"アイチケン","city":"津島市","city_kana":"ツシマシ","town":"片岡町","town_kana":"カタオカチョウ","prefecture_code":23},"0826":{"zip_code":"4960826","prefecture":"愛知県","prefecture_kana":"アイチケン","city":"津島市","city_kana":"ツシマシ","town":"片町","town_kana":"カタマチ","prefecture_code":23},"0824":{"zip_code":"4960824","prefecture":"愛知県","prefecture_kana":"アイチケン","city":"津島市","city_kana":"ツシマシ","town":"金町","town_kana":"カナマチ","prefecture_code":23},"0014":{"zip_code":"4960014","prefecture":"愛知県","prefecture_kana":"アイチケン","city":"津島市","city_kana":"ツシマシ","town":"金柳町","town_kana":"カナヤナギチョウ","prefecture_code":23},"0812":{"zip_code":"4960812","prefecture":"愛知県","prefecture_kana":"アイチケン","city":"津島市","city_kana":"ツシマシ","town":"兼平町","town_kana":"カネヒラチョウ","prefecture_code":23},"0023":{"zip_code":"4960023","prefecture":"愛知県","prefecture_kana":"アイチケン","city":"津島市","city_kana":"ツシマシ","town":"鹿伏兎町","town_kana":"カブトチョウ","prefecture_code":23},"0823":{"zip_code":"4960823","prefecture":"愛知県","prefecture_kana":"アイチケン","city":"津島市","city_kana":"ツシマシ","town":"上河原町","town_kana":"カミガワラチョウ","prefecture_code":23},"0871":{"zip_code":"4960871","prefecture":"愛知県","prefecture_kana":"アイチケン","city":"津島市","city_kana":"ツシマシ","town":"上新田町","town_kana":"カミシンデンチョウ","prefecture_code":23},"0863":{"zip_code":"4960863","prefecture":"愛知県","prefecture_kana":"アイチケン","city":"津島市","city_kana":"ツシマシ","town":"上之町","town_kana":"カミノマチ","prefecture_code":23},"0005":{"zip_code":"4960005","prefecture":"愛知県","prefecture_kana":"アイチケン","city":"津島市","city_kana":"ツシマシ","town":"神守町","town_kana":"カモリチョウ","prefecture_code":23},"0026":{"zip_code":"4960026","prefecture":"愛知県","prefecture_kana":"アイチケン","city":"津島市","city_kana":"ツシマシ","town":"唐臼町","town_kana":"カラウスチョウ","prefecture_code":23},"0877":{"zip_code":"4960877","prefecture":"愛知県","prefecture_kana":"アイチケン","city":"津島市","city_kana":"ツシマシ","town":"河田町","town_kana":"カワダチョウ","prefecture_code":23},"0869":{"zip_code":"4960869","prefecture":"愛知県","prefecture_kana":"アイチケン","city":"津島市","city_kana":"ツシマシ","town":"河原町","town_kana":"カワラチョウ","prefecture_code":23},"0013":{"zip_code":"4960013","prefecture":"愛知県","prefecture_kana":"アイチケン","city":"津島市","city_kana":"ツシマシ","town":"神尾町","town_kana":"カンノチョウ","prefecture_code":23},"0861":{"zip_code":"4960861","prefecture":"愛知県","prefecture_kana":"アイチケン","city":"津島市","city_kana":"ツシマシ","town":"観音町","town_kana":"カンノンチョウ","prefecture_code":23},"0817":{"zip_code":"4960817","prefecture":"愛知県","prefecture_kana":"アイチケン","city":"津島市","city_kana":"ツシマシ","town":"北町","town_kana":"キタマチ","prefecture_code":23},"0811":{"zip_code":"4960811","prefecture":"愛知県","prefecture_kana":"アイチケン","city":"津島市","city_kana":"ツシマシ","town":"喜楽町","town_kana":"キラクチョウ","prefecture_code":23},"0007":{"zip_code":"4960007","prefecture":"愛知県","prefecture_kana":"アイチケン","city":"津島市","city_kana":"ツシマシ","town":"光正寺町","town_kana":"コウショウジチョウ","prefecture_code":23},"0015":{"zip_code":"4960015","prefecture":"愛知県","prefecture_kana":"アイチケン","city":"津島市","city_kana":"ツシマシ","town":"高台寺町","town_kana":"コウタイジチョウ","prefecture_code":23},"0022":{"zip_code":"4960022","prefecture":"愛知県","prefecture_kana":"アイチケン","city":"津島市","city_kana":"ツシマシ","town":"越津町","town_kana":"コシヅチョウ","prefecture_code":23},"0829":{"zip_code":"4960829","prefecture":"愛知県","prefecture_kana":"アイチケン","city":"津島市","city_kana":"ツシマシ","town":"寿町","town_kana":"コトブキチョウ","prefecture_code":23},"0815":{"zip_code":"4960815","prefecture":"愛知県","prefecture_kana":"アイチケン","city":"津島市","city_kana":"ツシマシ","town":"米之座町","town_kana":"コメノザチョウ","prefecture_code":23},"0816":{"zip_code":"4960816","prefecture":"愛知県","prefecture_kana":"アイチケン","city":"津島市","city_kana":"ツシマシ","town":"米町","town_kana":"コメマチ","prefecture_code":23},"0868":{"zip_code":"4960868","prefecture":"愛知県","prefecture_kana":"アイチケン","city":"津島市","city_kana":"ツシマシ","town":"申塚町","town_kana":"サルヅカチョウ","prefecture_code":23},"0029":{"zip_code":"4960029","prefecture":"愛知県","prefecture_kana":"アイチケン","city":"津島市","city_kana":"ツシマシ","town":"下切町","town_kana":"シモギリチョウ","prefecture_code":23},"0875":{"zip_code":"4960875","prefecture":"愛知県","prefecture_kana":"アイチケン","city":"津島市","city_kana":"ツシマシ","town":"下新田町","town_kana":"シモシンデンチョウ","prefecture_code":23},"0809":{"zip_code":"4960809","prefecture":"愛知県","prefecture_kana":"アイチケン","city":"津島市","city_kana":"ツシマシ","town":"昭和町","town_kana":"ショウワチョウ","prefecture_code":23},"0016":{"zip_code":"4960016","prefecture":"愛知県","prefecture_kana":"アイチケン","city":"津島市","city_kana":"ツシマシ","town":"白浜町","town_kana":"シラハマチョウ","prefecture_code":23},"0821":{"zip_code":"4960821","prefecture":"愛知県","prefecture_kana":"アイチケン","city":"津島市","city_kana":"ツシマシ","town":"城之越町","town_kana":"シロノコシチョウ","prefecture_code":23},"0862":{"zip_code":"4960862","prefecture":"愛知県","prefecture_kana":"アイチケン","city":"津島市","city_kana":"ツシマシ","town":"城山町","town_kana":"シロヤマチョウ","prefecture_code":23},"0027":{"zip_code":"4960027","prefecture":"愛知県","prefecture_kana":"アイチケン","city":"津島市","city_kana":"ツシマシ","town":"津島","town_kana":"ツシマ","prefecture_code":23},"0071":{"zip_code":"4960071","prefecture":"愛知県","prefecture_kana":"アイチケン","city":"津島市","city_kana":"ツシマシ","town":"新開町","town_kana":"シンガイチョウ","prefecture_code":23},"0851":{"zip_code":"4960851","prefecture":"愛知県","prefecture_kana":"アイチケン","city":"津島市","city_kana":"ツシマシ","town":"神明町","town_kana":"シンメイチョウ","prefecture_code":23},"0006":{"zip_code":"4960006","prefecture":"愛知県","prefecture_kana":"アイチケン","city":"津島市","city_kana":"ツシマシ","town":"大木町","town_kana":"ダイギチョウ","prefecture_code":23},"0848":{"zip_code":"4960848","prefecture":"愛知県","prefecture_kana":"アイチケン","city":"津島市","city_kana":"ツシマシ","town":"大慶寺町","town_kana":"タイケイジチョウ","prefecture_code":23},"0837":{"zip_code":"4960837","prefecture":"愛知県","prefecture_kana":"アイチケン","city":"津島市","city_kana":"ツシマシ","town":"大政町","town_kana":"タイセイチョウ","prefecture_code":23},"0041":{"zip_code":"4960041","prefecture":"愛知県","prefecture_kana":"アイチケン","city":"津島市","city_kana":"ツシマシ","town":"高畑町","town_kana":"タカハタチョウ","prefecture_code":23},"0822":{"zip_code":"4960822","prefecture":"愛知県","prefecture_kana":"アイチケン","city":"津島市","city_kana":"ツシマシ","town":"高屋敷町","town_kana":"タカヤシキチョウ","prefecture_code":23},"0808":{"zip_code":"4960808","prefecture":"愛知県","prefecture_kana":"アイチケン","city":"津島市","city_kana":"ツシマシ","town":"宝町","town_kana":"タカラマチ","prefecture_code":23},"0038":{"zip_code":"4960038","prefecture":"愛知県","prefecture_kana":"アイチケン","city":"津島市","city_kana":"ツシマシ","town":"橘町","town_kana":"タチバナチョウ","prefecture_code":23},"0044":{"zip_code":"4960044","prefecture":"愛知県","prefecture_kana":"アイチケン","city":"津島市","city_kana":"ツシマシ","town":"立込町","town_kana":"タテコミチョウ","prefecture_code":23},"0021":{"zip_code":"4960021","prefecture":"愛知県","prefecture_kana":"アイチケン","city":"津島市","city_kana":"ツシマシ","town":"椿市町","town_kana":"ツバイチチョウ","prefecture_code":23},"0003":{"zip_code":"4960003","prefecture":"愛知県","prefecture_kana":"アイチケン","city":"津島市","city_kana":"ツシマシ","town":"寺野町","town_kana":"テラノチョウ","prefecture_code":23},"0042":{"zip_code":"4960042","prefecture":"愛知県","prefecture_kana":"アイチケン","city":"津島市","city_kana":"ツシマシ","town":"寺前町","town_kana":"テラマエチョウ","prefecture_code":23},"0807":{"zip_code":"4960807","prefecture":"愛知県","prefecture_kana":"アイチケン","city":"津島市","city_kana":"ツシマシ","town":"天王通","town_kana":"テンノウドオリ","prefecture_code":23},"0832":{"zip_code":"4960832","prefecture":"愛知県","prefecture_kana":"アイチケン","city":"津島市","city_kana":"ツシマシ","town":"東洋町","town_kana":"トウヨウチョウ","prefecture_code":23},"0833":{"zip_code":"4960833","prefecture":"愛知県","prefecture_kana":"アイチケン","city":"津島市","city_kana":"ツシマシ","town":"常盤町","town_kana":"トキワチョウ","prefecture_code":23},"0025":{"zip_code":"4960025","prefecture":"愛知県","prefecture_kana":"アイチケン","city":"津島市","city_kana":"ツシマシ","town":"中一色町","town_kana":"ナカイシキチョウ","prefecture_code":23},"0847":{"zip_code":"4960847","prefecture":"愛知県","prefecture_kana":"アイチケン","city":"津島市","city_kana":"ツシマシ","town":"中地町","town_kana":"ナカジチョウ","prefecture_code":23},"0836":{"zip_code":"4960836","prefecture":"愛知県","prefecture_kana":"アイチケン","city":"津島市","city_kana":"ツシマシ","town":"中野町","town_kana":"ナカノチョウ","prefecture_code":23},"0864":{"zip_code":"4960864","prefecture":"愛知県","prefecture_kana":"アイチケン","city":"津島市","city_kana":"ツシマシ","town":"中之町","town_kana":"ナカノマチ","prefecture_code":23},"0037":{"zip_code":"4960037","prefecture":"愛知県","prefecture_kana":"アイチケン","city":"津島市","city_kana":"ツシマシ","town":"西愛宕町","town_kana":"ニシアタゴチョウ","prefecture_code":23},"0802":{"zip_code":"4960802","prefecture":"愛知県","prefecture_kana":"アイチケン","city":"津島市","city_kana":"ツシマシ","town":"錦町","town_kana":"ニシキマチ","prefecture_code":23},"0849":{"zip_code":"4960849","prefecture":"愛知県","prefecture_kana":"アイチケン","city":"津島市","city_kana":"ツシマシ","town":"西御堂町","town_kana":"ニシミドウチョウ","prefecture_code":23},"0047":{"zip_code":"4960047","prefecture":"愛知県","prefecture_kana":"アイチケン","city":"津島市","city_kana":"ツシマシ","town":"西柳原町","town_kana":"ニシヤナギハラチョウ","prefecture_code":23},"0028":{"zip_code":"4960028","prefecture":"愛知県","prefecture_kana":"アイチケン","city":"津島市","city_kana":"ツシマシ","town":"日光","town_kana":"ニッコウ","prefecture_code":23},"0852":{"zip_code":"4960852","prefecture":"愛知県","prefecture_kana":"アイチケン","city":"津島市","city_kana":"ツシマシ","town":"祢宜町","town_kana":"ネギマチ","prefecture_code":23},"0009":{"zip_code":"4960009","prefecture":"愛知県","prefecture_kana":"アイチケン","city":"津島市","city_kana":"ツシマシ","town":"葉苅町","town_kana":"ハカリチョウ","prefecture_code":23},"0825":{"zip_code":"4960825","prefecture":"愛知県","prefecture_kana":"アイチケン","city":"津島市","city_kana":"ツシマシ","town":"橋詰町","town_kana":"ハシヅメチョウ","prefecture_code":23},"0865":{"zip_code":"4960865","prefecture":"愛知県","prefecture_kana":"アイチケン","city":"津島市","city_kana":"ツシマシ","town":"馬場町","town_kana":"ババチョウ","prefecture_code":23},"0024":{"zip_code":"4960024","prefecture":"愛知県","prefecture_kana":"アイチケン","city":"津島市","city_kana":"ツシマシ","town":"半頭町","town_kana":"ハンガシラチョウ","prefecture_code":23},"0011":{"zip_code":"4960011","prefecture":"愛知県","prefecture_kana":"アイチケン","city":"津島市","city_kana":"ツシマシ","town":"莪原町","town_kana":"バイバラチョウ","prefecture_code":23},"0035":{"zip_code":"4960035","prefecture":"愛知県","prefecture_kana":"アイチケン","city":"津島市","city_kana":"ツシマシ","town":"東愛宕町","town_kana":"ヒガシアダゴチョウ","prefecture_code":23},"0846":{"zip_code":"4960846","prefecture":"愛知県","prefecture_kana":"アイチケン","city":"津島市","city_kana":"ツシマシ","town":"東中地町","town_kana":"ヒガシナカジチョウ","prefecture_code":23},"0045":{"zip_code":"4960045","prefecture":"愛知県","prefecture_kana":"アイチケン","city":"津島市","city_kana":"ツシマシ","town":"東柳原町","town_kana":"ヒガシヤナギハラチョウ","prefecture_code":23},"0017":{"zip_code":"4960017","prefecture":"愛知県","prefecture_kana":"アイチケン","city":"津島市","city_kana":"ツシマシ","town":"百町","town_kana":"ヒャクチョウ","prefecture_code":23},"0004":{"zip_code":"4960004","prefecture":"愛知県","prefecture_kana":"アイチケン","city":"津島市","city_kana":"ツシマシ","town":"蛭間町","town_kana":"ヒルマチョウ","prefecture_code":23},"0032":{"zip_code":"4960032","prefecture":"愛知県","prefecture_kana":"アイチケン","city":"津島市","city_kana":"ツシマシ","town":"深坪町","town_kana":"フカツボチョウ","prefecture_code":23},"0839":{"zip_code":"4960839","prefecture":"愛知県","prefecture_kana":"アイチケン","city":"津島市","city_kana":"ツシマシ","town":"藤川町","town_kana":"フジカワチョウ","prefecture_code":23},"0048":{"zip_code":"4960048","prefecture":"愛知県","prefecture_kana":"アイチケン","city":"津島市","city_kana":"ツシマシ","town":"藤里町","town_kana":"フジサトチョウ","prefecture_code":23},"0801":{"zip_code":"4960801","prefecture":"愛知県","prefecture_kana":"アイチケン","city":"津島市","city_kana":"ツシマシ","town":"藤浪町","town_kana":"フジナミチョウ","prefecture_code":23},"0843":{"zip_code":"4960843","prefecture":"愛知県","prefecture_kana":"アイチケン","city":"津島市","city_kana":"ツシマシ","town":"舟戸町","town_kana":"フナドチョウ","prefecture_code":23},"0043":{"zip_code":"4960043","prefecture":"愛知県","prefecture_kana":"アイチケン","city":"津島市","city_kana":"ツシマシ","town":"古川町","town_kana":"フルカワチョウ","prefecture_code":23},"0805":{"zip_code":"4960805","prefecture":"愛知県","prefecture_kana":"アイチケン","city":"津島市","city_kana":"ツシマシ","town":"本町","town_kana":"ホンマチ","prefecture_code":23},"0002":{"zip_code":"4960002","prefecture":"愛知県","prefecture_kana":"アイチケン","city":"津島市","city_kana":"ツシマシ","town":"牧野町","town_kana":"マキノチョウ","prefecture_code":23},"0819":{"zip_code":"4960819","prefecture":"愛知県","prefecture_kana":"アイチケン","city":"津島市","city_kana":"ツシマシ","town":"又吉町","town_kana":"マタキチチョウ","prefecture_code":23},"0872":{"zip_code":"4960872","prefecture":"愛知県","prefecture_kana":"アイチケン","city":"津島市","city_kana":"ツシマシ","town":"松ケ下町","town_kana":"マツガシタチョウ","prefecture_code":23},"0818":{"zip_code":"4960818","prefecture":"愛知県","prefecture_kana":"アイチケン","city":"津島市","city_kana":"ツシマシ","town":"松原町","town_kana":"マツバラチョウ","prefecture_code":23},"0831":{"zip_code":"4960831","prefecture":"愛知県","prefecture_kana":"アイチケン","city":"津島市","city_kana":"ツシマシ","town":"瑞穂町","town_kana":"ミズホチョウ","prefecture_code":23},"0835":{"zip_code":"4960835","prefecture":"愛知県","prefecture_kana":"アイチケン","city":"津島市","city_kana":"ツシマシ","town":"皆戸町","town_kana":"ミナトチョウ","prefecture_code":23},"0072":{"zip_code":"4960072","prefecture":"愛知県","prefecture_kana":"アイチケン","city":"津島市","city_kana":"ツシマシ","town":"南新開町","town_kana":"ミナミシンガイチョウ","prefecture_code":23},"0834":{"zip_code":"4960834","prefecture":"愛知県","prefecture_kana":"アイチケン","city":"津島市","city_kana":"ツシマシ","town":"南本町","town_kana":"ミナミホンマチ","prefecture_code":23},"0857":{"zip_code":"4960857","prefecture":"愛知県","prefecture_kana":"アイチケン","city":"津島市","city_kana":"ツシマシ","town":"南門前町","town_kana":"ミナミモンゼンチョウ","prefecture_code":23},"0853":{"zip_code":"4960853","prefecture":"愛知県","prefecture_kana":"アイチケン","city":"津島市","city_kana":"ツシマシ","town":"宮川町","town_kana":"ミヤガワチョウ","prefecture_code":23},"0838":{"zip_code":"4960838","prefecture":"愛知県","prefecture_kana":"アイチケン","city":"津島市","city_kana":"ツシマシ","town":"明天町","town_kana":"メイテンチョウ","prefecture_code":23},"0034":{"zip_code":"4960034","prefecture":"愛知県","prefecture_kana":"アイチケン","city":"津島市","city_kana":"ツシマシ","town":"元寺町","town_kana":"モトデラチョウ","prefecture_code":23},"0019":{"zip_code":"4960019","prefecture":"愛知県","prefecture_kana":"アイチケン","city":"津島市","city_kana":"ツシマシ","town":"百島町","town_kana":"モモジマチョウ","prefecture_code":23},"0844":{"zip_code":"4960844","prefecture":"愛知県","prefecture_kana":"アイチケン","city":"津島市","city_kana":"ツシマシ","town":"薬師町","town_kana":"ヤクシチョウ","prefecture_code":23},"0046":{"zip_code":"4960046","prefecture":"愛知県","prefecture_kana":"アイチケン","city":"津島市","city_kana":"ツシマシ","town":"柳原町","town_kana":"ヤナギハラチョウ","prefecture_code":23},"0866":{"zip_code":"4960866","prefecture":"愛知県","prefecture_kana":"アイチケン","city":"津島市","city_kana":"ツシマシ","town":"大和町","town_kana":"ヤマトチョウ","prefecture_code":23},"0804":{"zip_code":"4960804","prefecture":"愛知県","prefecture_kana":"アイチケン","city":"津島市","city_kana":"ツシマシ","town":"弥生町","town_kana":"ヤヨイチョウ","prefecture_code":23},"0841":{"zip_code":"4960841","prefecture":"愛知県","prefecture_kana":"アイチケン","city":"津島市","city_kana":"ツシマシ","town":"横町","town_kana":"ヨコマチ","prefecture_code":23},"0814":{"zip_code":"4960814","prefecture":"愛知県","prefecture_kana":"アイチケン","city":"津島市","city_kana":"ツシマシ","town":"良王町","town_kana":"リョウオウチョウ","prefecture_code":23},"0856":{"zip_code":"4960856","prefecture":"愛知県","prefecture_kana":"アイチケン","city":"津島市","city_kana":"ツシマシ","town":"瑠璃小路町","town_kana":"ルリコウジチョウ","prefecture_code":23},"8046":{"zip_code":"4968046","prefecture":"愛知県","prefecture_kana":"アイチケン","city":"愛西市","city_kana":"アイサイシ","town":"赤目町","town_kana":"アカメチョウ","prefecture_code":23},"0938":{"zip_code":"4960938","prefecture":"愛知県","prefecture_kana":"アイチケン","city":"愛西市","city_kana":"アイサイシ","town":"石田町","town_kana":"イシダチョウ","prefecture_code":23},"0907":{"zip_code":"4960907","prefecture":"愛知県","prefecture_kana":"アイチケン","city":"愛西市","city_kana":"アイサイシ","town":"稲葉町","town_kana":"イナバチョウ","prefecture_code":23},"0923":{"zip_code":"4960923","prefecture":"愛知県","prefecture_kana":"アイチケン","city":"愛西市","city_kana":"アイサイシ","town":"鰯江町","town_kana":"イワシエチョウ","prefecture_code":23},"8033":{"zip_code":"4968033","prefecture":"愛知県","prefecture_kana":"アイチケン","city":"愛西市","city_kana":"アイサイシ","town":"鵜多須町","town_kana":"ウタスチョウ","prefecture_code":23},"0903":{"zip_code":"4960903","prefecture":"愛知県","prefecture_kana":"アイチケン","city":"愛西市","city_kana":"アイサイシ","town":"内佐屋町","town_kana":"ウチザヤチョウ","prefecture_code":23},"8044":{"zip_code":"4968044","prefecture":"愛知県","prefecture_kana":"アイチケン","city":"愛西市","city_kana":"アイサイシ","town":"江西町","town_kana":"エニシチョウ","prefecture_code":23},"0921":{"zip_code":"4960921","prefecture":"愛知県","prefecture_kana":"アイチケン","city":"愛西市","city_kana":"アイサイシ","town":"大井町","town_kana":"オオイチョウ","prefecture_code":23},"0922":{"zip_code":"4960922","prefecture":"愛知県","prefecture_kana":"アイチケン","city":"愛西市","city_kana":"アイサイシ","town":"大野町","town_kana":"オオノチョウ","prefecture_code":23},"8017":{"zip_code":"4968017","prefecture":"愛知県","prefecture_kana":"アイチケン","city":"愛西市","city_kana":"アイサイシ","town":"大野山町","town_kana":"オオノヤマチョウ","prefecture_code":23},"0909":{"zip_code":"4960909","prefecture":"愛知県","prefecture_kana":"アイチケン","city":"愛西市","city_kana":"アイサイシ","town":"落合町","town_kana":"オチアイチョウ","prefecture_code":23},"8009":{"zip_code":"4968009","prefecture":"愛知県","prefecture_kana":"アイチケン","city":"愛西市","city_kana":"アイサイシ","town":"小津町","town_kana":"オヅチョウ","prefecture_code":23},"0932":{"zip_code":"4960932","prefecture":"愛知県","prefecture_kana":"アイチケン","city":"愛西市","city_kana":"アイサイシ","town":"葛木町","town_kana":"カツラギチョウ","prefecture_code":23},"0908":{"zip_code":"4960908","prefecture":"愛知県","prefecture_kana":"アイチケン","city":"愛西市","city_kana":"アイサイシ","town":"甘村井町","town_kana":"カムライチョウ","prefecture_code":23},"8031":{"zip_code":"4968031","prefecture":"愛知県","prefecture_kana":"アイチケン","city":"愛西市","city_kana":"アイサイシ","town":"上東川町","town_kana":"カミヒガシガワチョウ","prefecture_code":23},"8039":{"zip_code":"4968039","prefecture":"愛知県","prefecture_kana":"アイチケン","city":"愛西市","city_kana":"アイサイシ","town":"川北町","town_kana":"カワキタチョウ","prefecture_code":23},"0905":{"zip_code":"4960905","prefecture":"愛知県","prefecture_kana":"アイチケン","city":"愛西市","city_kana":"アイサイシ","town":"北一色町","town_kana":"キタイシキチョウ","prefecture_code":23},"8008":{"zip_code":"4968008","prefecture":"愛知県","prefecture_kana":"アイチケン","city":"愛西市","city_kana":"アイサイシ","town":"北河田町","town_kana":"キタゴウタチョウ","prefecture_code":23},"8042":{"zip_code":"4968042","prefecture":"愛知県","prefecture_kana":"アイチケン","city":"愛西市","city_kana":"アイサイシ","town":"給父町","town_kana":"キュウブチョウ","prefecture_code":23},"8015":{"zip_code":"4968015","prefecture":"愛知県","prefecture_kana":"アイチケン","city":"愛西市","city_kana":"アイサイシ","town":"草平町","town_kana":"クサヒラチョウ","prefecture_code":23},"8004":{"zip_code":"4968004","prefecture":"愛知県","prefecture_kana":"アイチケン","city":"愛西市","city_kana":"アイサイシ","town":"古瀬町","town_kana":"コセチョウ","prefecture_code":23},"0944":{"zip_code":"4960944","prefecture":"愛知県","prefecture_kana":"アイチケン","city":"愛西市","city_kana":"アイサイシ","town":"小茂井町","town_kana":"コモイチョウ","prefecture_code":23},"8002":{"zip_code":"4968002","prefecture":"愛知県","prefecture_kana":"アイチケン","city":"愛西市","city_kana":"アイサイシ","town":"佐折町","town_kana":"サオリチョウ","prefecture_code":23},"0901":{"zip_code":"4960901","prefecture":"愛知県","prefecture_kana":"アイチケン","city":"愛西市","city_kana":"アイサイシ","town":"佐屋町","town_kana":"サヤチョウ","prefecture_code":23},"8049":{"zip_code":"4968049","prefecture":"愛知県","prefecture_kana":"アイチケン","city":"愛西市","city_kana":"アイサイシ","town":"塩田町","town_kana":"シオタチョウ","prefecture_code":23},"0935":{"zip_code":"4960935","prefecture":"愛知県","prefecture_kana":"アイチケン","city":"愛西市","city_kana":"アイサイシ","town":"下一色町","town_kana":"シモイシキチョウ","prefecture_code":23},"8048":{"zip_code":"4968048","prefecture":"愛知県","prefecture_kana":"アイチケン","city":"愛西市","city_kana":"アイサイシ","town":"下大牧町","town_kana":"シモオオマキチョウ","prefecture_code":23},"8032":{"zip_code":"4968032","prefecture":"愛知県","prefecture_kana":"アイチケン","city":"愛西市","city_kana":"アイサイシ","town":"下東川町","town_kana":"シモヒガシガワチョウ","prefecture_code":23},"8001":{"zip_code":"4968001","prefecture":"愛知県","prefecture_kana":"アイチケン","city":"愛西市","city_kana":"アイサイシ","town":"勝幡町","town_kana":"ショバタチョウ","prefecture_code":23},"0934":{"zip_code":"4960934","prefecture":"愛知県","prefecture_kana":"アイチケン","city":"愛西市","city_kana":"アイサイシ","town":"新右エ門新田町","town_kana":"シンウエモンシンデンチョウ","prefecture_code":23},"0902":{"zip_code":"4960902","prefecture":"愛知県","prefecture_kana":"アイチケン","city":"愛西市","city_kana":"アイサイシ","town":"須依町","town_kana":"スエチョウ","prefecture_code":23},"0941":{"zip_code":"4960941","prefecture":"愛知県","prefecture_kana":"アイチケン","city":"愛西市","city_kana":"アイサイシ","town":"雀ケ森町","town_kana":"スズガモリチョウ","prefecture_code":23},"8011":{"zip_code":"4968011","prefecture":"愛知県","prefecture_kana":"アイチケン","city":"愛西市","city_kana":"アイサイシ","town":"諏訪町","town_kana":"スワチョウ","prefecture_code":23},"0924":{"zip_code":"4960924","prefecture":"愛知県","prefecture_kana":"アイチケン","city":"愛西市","city_kana":"アイサイシ","town":"善太新田町","town_kana":"ゼンタシンデンチョウ","prefecture_code":23},"8003":{"zip_code":"4968003","prefecture":"愛知県","prefecture_kana":"アイチケン","city":"愛西市","city_kana":"アイサイシ","town":"千引町","town_kana":"センビキチョウ","prefecture_code":23},"8043":{"zip_code":"4968043","prefecture":"愛知県","prefecture_kana":"アイチケン","city":"愛西市","city_kana":"アイサイシ","town":"高畑町","town_kana":"タカバタチョウ","prefecture_code":23},"8016":{"zip_code":"4968016","prefecture":"愛知県","prefecture_kana":"アイチケン","city":"愛西市","city_kana":"アイサイシ","town":"鷹場町","town_kana":"タカバチョウ","prefecture_code":23},"0946":{"zip_code":"4960946","prefecture":"愛知県","prefecture_kana":"アイチケン","city":"愛西市","city_kana":"アイサイシ","town":"立田町","town_kana":"タツダチョウ","prefecture_code":23},"8047":{"zip_code":"4968047","prefecture":"愛知県","prefecture_kana":"アイチケン","city":"愛西市","city_kana":"アイサイシ","town":"立石町","town_kana":"タテイシチョウ","prefecture_code":23},"0933":{"zip_code":"4960933","prefecture":"愛知県","prefecture_kana":"アイチケン","city":"愛西市","city_kana":"アイサイシ","town":"戸倉町","town_kana":"トクラチョウ","prefecture_code":23},"8019":{"zip_code":"4968019","prefecture":"愛知県","prefecture_kana":"アイチケン","city":"愛西市","city_kana":"アイサイシ","town":"西川端町","town_kana":"ニシカワバタチョウ","prefecture_code":23},"0913":{"zip_code":"4960913","prefecture":"愛知県","prefecture_kana":"アイチケン","city":"愛西市","city_kana":"アイサイシ","town":"西條町","town_kana":"ニシジョウチョウ","prefecture_code":23},"0911":{"zip_code":"4960911","prefecture":"愛知県","prefecture_kana":"アイチケン","city":"愛西市","city_kana":"アイサイシ","town":"西保町","town_kana":"ニシホチョウ","prefecture_code":23},"8012":{"zip_code":"4968012","prefecture":"愛知県","prefecture_kana":"アイチケン","city":"愛西市","city_kana":"アイサイシ","town":"根高町","town_kana":"ネダカチョウ","prefecture_code":23},"0931":{"zip_code":"4960931","prefecture":"愛知県","prefecture_kana":"アイチケン","city":"愛西市","city_kana":"アイサイシ","town":"早尾町","town_kana":"ハヤオチョウ","prefecture_code":23},"0914":{"zip_code":"4960914","prefecture":"愛知県","prefecture_kana":"アイチケン","city":"愛西市","city_kana":"アイサイシ","town":"東條町","town_kana":"ヒガシジョウチョウ","prefecture_code":23},"0912":{"zip_code":"4960912","prefecture":"愛知県","prefecture_kana":"アイチケン","city":"愛西市","city_kana":"アイサイシ","town":"東保町","town_kana":"ヒガシホチョウ","prefecture_code":23},"0939":{"zip_code":"4960939","prefecture":"愛知県","prefecture_kana":"アイチケン","city":"愛西市","city_kana":"アイサイシ","town":"後江町","town_kana":"ヒツエチョウ","prefecture_code":23},"0947":{"zip_code":"4960947","prefecture":"愛知県","prefecture_kana":"アイチケン","city":"愛西市","city_kana":"アイサイシ","town":"福原新田町","town_kana":"フクハラシンデンチョウ","prefecture_code":23},"8041":{"zip_code":"4968041","prefecture":"愛知県","prefecture_kana":"アイチケン","city":"愛西市","city_kana":"アイサイシ","town":"藤ケ瀬町","town_kana":"フジガセチョウ","prefecture_code":23},"8035":{"zip_code":"4968035","prefecture":"愛知県","prefecture_kana":"アイチケン","city":"愛西市","city_kana":"アイサイシ","town":"二子町上丸島","town_kana":"フタゴチョウカミマルジマ","prefecture_code":23},"8034":{"zip_code":"4968034","prefecture":"愛知県","prefecture_kana":"アイチケン","city":"愛西市","city_kana":"アイサイシ","town":"二子町小判山","town_kana":"フタゴチョウコバンヤマ","prefecture_code":23},"8038":{"zip_code":"4968038","prefecture":"愛知県","prefecture_kana":"アイチケン","city":"愛西市","city_kana":"アイサイシ","town":"二子町定納","town_kana":"フタゴチョウジョウノ","prefecture_code":23},"8037":{"zip_code":"4968037","prefecture":"愛知県","prefecture_kana":"アイチケン","city":"愛西市","city_kana":"アイサイシ","town":"二子町新田","town_kana":"フタゴチョウシンデン","prefecture_code":23},"8040":{"zip_code":"4968040","prefecture":"愛知県","prefecture_kana":"アイチケン","city":"愛西市","city_kana":"アイサイシ","town":"二子町松原","town_kana":"フタゴチョウマツバラ","prefecture_code":23},"8036":{"zip_code":"4968036","prefecture":"愛知県","prefecture_kana":"アイチケン","city":"愛西市","city_kana":"アイサイシ","town":"二子町丸島","town_kana":"フタゴチョウマルジマ","prefecture_code":23},"8030":{"zip_code":"4968030","prefecture":"愛知県","prefecture_kana":"アイチケン","city":"愛西市","city_kana":"アイサイシ","town":"二子町柳原","town_kana":"フタゴチョウヤナギハラ","prefecture_code":23},"8018":{"zip_code":"4968018","prefecture":"愛知県","prefecture_kana":"アイチケン","city":"愛西市","city_kana":"アイサイシ","town":"渕高町","town_kana":"フチダカチョウ","prefecture_code":23},"8020":{"zip_code":"4968020","prefecture":"愛知県","prefecture_kana":"アイチケン","city":"愛西市","city_kana":"アイサイシ","town":"平和町","town_kana":"ヘイワチョウ","prefecture_code":23},"0906":{"zip_code":"4960906","prefecture":"愛知県","prefecture_kana":"アイチケン","city":"愛西市","city_kana":"アイサイシ","town":"日置町","town_kana":"ヘキチョウ","prefecture_code":23},"0915":{"zip_code":"4960915","prefecture":"愛知県","prefecture_kana":"アイチケン","city":"愛西市","city_kana":"アイサイシ","town":"本部田町","town_kana":"ホンブタチョウ","prefecture_code":23},"8014":{"zip_code":"4968014","prefecture":"愛知県","prefecture_kana":"アイチケン","city":"愛西市","city_kana":"アイサイシ","town":"町方町","town_kana":"マチカタチョウ","prefecture_code":23},"8013":{"zip_code":"4968013","prefecture":"愛知県","prefecture_kana":"アイチケン","city":"愛西市","city_kana":"アイサイシ","town":"見越町","town_kana":"ミコシチョウ","prefecture_code":23},"0945":{"zip_code":"4960945","prefecture":"愛知県","prefecture_kana":"アイチケン","city":"愛西市","city_kana":"アイサイシ","town":"三和町","town_kana":"ミツワチョウ","prefecture_code":23},"8007":{"zip_code":"4968007","prefecture":"愛知県","prefecture_kana":"アイチケン","city":"愛西市","city_kana":"アイサイシ","town":"南河田町","town_kana":"ミナミゴウタチョウ","prefecture_code":23},"0937":{"zip_code":"4960937","prefecture":"愛知県","prefecture_kana":"アイチケン","city":"愛西市","city_kana":"アイサイシ","town":"宮地町","town_kana":"ミヤジチョウ","prefecture_code":23},"8006":{"zip_code":"4968006","prefecture":"愛知県","prefecture_kana":"アイチケン","city":"愛西市","city_kana":"アイサイシ","town":"持中町","town_kana":"モッチュウチョウ","prefecture_code":23},"8045":{"zip_code":"4968045","prefecture":"愛知県","prefecture_kana":"アイチケン","city":"愛西市","city_kana":"アイサイシ","town":"元赤目町","town_kana":"モトアカメチョウ","prefecture_code":23},"0943":{"zip_code":"4960943","prefecture":"愛知県","prefecture_kana":"アイチケン","city":"愛西市","city_kana":"アイサイシ","town":"森川町","town_kana":"モリカワチョウ","prefecture_code":23},"8005":{"zip_code":"4968005","prefecture":"愛知県","prefecture_kana":"アイチケン","city":"愛西市","city_kana":"アイサイシ","town":"諸桑町","town_kana":"モロクワチョウ","prefecture_code":23},"0942":{"zip_code":"4960942","prefecture":"愛知県","prefecture_kana":"アイチケン","city":"愛西市","city_kana":"アイサイシ","town":"山路町","town_kana":"ヤマジチョウ","prefecture_code":23},"0904":{"zip_code":"4960904","prefecture":"愛知県","prefecture_kana":"アイチケン","city":"愛西市","city_kana":"アイサイシ","town":"柚木町","town_kana":"ユギチョウ","prefecture_code":23},"0936":{"zip_code":"4960936","prefecture":"愛知県","prefecture_kana":"アイチケン","city":"愛西市","city_kana":"アイサイシ","town":"四会町","town_kana":"ヨツエチョウ","prefecture_code":23},"8010":{"zip_code":"4968010","prefecture":"愛知県","prefecture_kana":"アイチケン","city":"愛西市","city_kana":"アイサイシ","town":"六輪町","town_kana":"ロクワチョウ","prefecture_code":23}}