{"0003":{"zip_code":"4970003","prefecture":"愛知県","prefecture_kana":"アイチケン","city":"あま市","city_kana":"アマシ","town":"七宝町秋竹","town_kana":"シッポウチョウアキタケ","prefecture_code":23},"0005":{"zip_code":"4970005","prefecture":"愛知県","prefecture_kana":"アイチケン","city":"あま市","city_kana":"アマシ","town":"七宝町伊福","town_kana":"シッポウチョウイフク","prefecture_code":23},"0001":{"zip_code":"4970001","prefecture":"愛知県","prefecture_kana":"アイチケン","city":"あま市","city_kana":"アマシ","town":"七宝町沖之島","town_kana":"シッポウチョウオキノシマ","prefecture_code":23},"0004":{"zip_code":"4970004","prefecture":"愛知県","prefecture_kana":"アイチケン","city":"あま市","city_kana":"アマシ","town":"七宝町桂","town_kana":"シッポウチョウカツラ","prefecture_code":23},"0013":{"zip_code":"4970013","prefecture":"愛知県","prefecture_kana":"アイチケン","city":"あま市","city_kana":"アマシ","town":"七宝町川部","town_kana":"シッポウチョウカワベ","prefecture_code":23},"0012":{"zip_code":"4970012","prefecture":"愛知県","prefecture_kana":"アイチケン","city":"あま市","city_kana":"アマシ","town":"七宝町下田","town_kana":"シッポウチョウシモダ","prefecture_code":23},"0006":{"zip_code":"4970006","prefecture":"愛知県","prefecture_kana":"アイチケン","city":"あま市","city_kana":"アマシ","town":"七宝町下之森","town_kana":"シッポウチョウシモノモリ","prefecture_code":23},"0014":{"zip_code":"4970014","prefecture":"愛知県","prefecture_kana":"アイチケン","city":"あま市","city_kana":"アマシ","town":"七宝町鷹居","town_kana":"シッポウチョウタカイ","prefecture_code":23},"0002":{"zip_code":"4970002","prefecture":"愛知県","prefecture_kana":"アイチケン","city":"あま市","city_kana":"アマシ","town":"七宝町遠島","town_kana":"シッポウチョウトオシマ","prefecture_code":23},"0016":{"zip_code":"4970016","prefecture":"愛知県","prefecture_kana":"アイチケン","city":"あま市","city_kana":"アマシ","town":"七宝町徳実","town_kana":"シッポウチョウトクザネ","prefecture_code":23},"0015":{"zip_code":"4970015","prefecture":"愛知県","prefecture_kana":"アイチケン","city":"あま市","city_kana":"アマシ","town":"七宝町鯰橋","town_kana":"シッポウチョウナマズバシ","prefecture_code":23},"0011":{"zip_code":"4970011","prefecture":"愛知県","prefecture_kana":"アイチケン","city":"あま市","city_kana":"アマシ","town":"七宝町安松","town_kana":"シッポウチョウヤスマツ","prefecture_code":23},"0000":{"zip_code":"4970000","prefecture":"愛知県","prefecture_kana":"アイチケン","city":"海部郡蟹江町","city_kana":"アマグンカニエチョウ","town":"","town_kana":"","prefecture_code":23},"0046":{"zip_code":"4970046","prefecture":"愛知県","prefecture_kana":"アイチケン","city":"海部郡蟹江町","city_kana":"アマグンカニエチョウ","town":"旭","town_kana":"アサヒ","prefecture_code":23},"0047":{"zip_code":"4970047","prefecture":"愛知県","prefecture_kana":"アイチケン","city":"海部郡蟹江町","city_kana":"アマグンカニエチョウ","town":"泉","town_kana":"イズミ","prefecture_code":23},"0032":{"zip_code":"4970032","prefecture":"愛知県","prefecture_kana":"アイチケン","city":"海部郡蟹江町","city_kana":"アマグンカニエチョウ","town":"今","town_kana":"イマ","prefecture_code":23},"0037":{"zip_code":"4970037","prefecture":"愛知県","prefecture_kana":"アイチケン","city":"海部郡蟹江町","city_kana":"アマグンカニエチョウ","town":"今西","town_kana":"イマニシ","prefecture_code":23},"0050":{"zip_code":"4970050","prefecture":"愛知県","prefecture_kana":"アイチケン","city":"海部郡蟹江町","city_kana":"アマグンカニエチョウ","town":"学戸","town_kana":"ガクト","prefecture_code":23},"0044":{"zip_code":"4970044","prefecture":"愛知県","prefecture_kana":"アイチケン","city":"海部郡蟹江町","city_kana":"アマグンカニエチョウ","town":"蟹江新田","town_kana":"カニエシンデン","prefecture_code":23},"0035":{"zip_code":"4970035","prefecture":"愛知県","prefecture_kana":"アイチケン","city":"海部郡蟹江町","city_kana":"アマグンカニエチョウ","town":"蟹江新町","town_kana":"カニエシンマチ","prefecture_code":23},"0033":{"zip_code":"4970033","prefecture":"愛知県","prefecture_kana":"アイチケン","city":"海部郡蟹江町","city_kana":"アマグンカニエチョウ","town":"蟹江本町","town_kana":"カニエホンマチ","prefecture_code":23},"0057":{"zip_code":"4970057","prefecture":"愛知県","prefecture_kana":"アイチケン","city":"海部郡蟹江町","city_kana":"アマグンカニエチョウ","town":"上川田","town_kana":"カミカワタ","prefecture_code":23},"0051":{"zip_code":"4970051","prefecture":"愛知県","prefecture_kana":"アイチケン","city":"海部郡蟹江町","city_kana":"アマグンカニエチョウ","town":"北新田","town_kana":"キタシンデン","prefecture_code":23},"0055":{"zip_code":"4970055","prefecture":"愛知県","prefecture_kana":"アイチケン","city":"海部郡蟹江町","city_kana":"アマグンカニエチョウ","town":"源氏","town_kana":"ゲンジ","prefecture_code":23},"0038":{"zip_code":"4970038","prefecture":"愛知県","prefecture_kana":"アイチケン","city":"海部郡蟹江町","city_kana":"アマグンカニエチョウ","town":"桜","town_kana":"サクラ","prefecture_code":23},"0040":{"zip_code":"4970040","prefecture":"愛知県","prefecture_kana":"アイチケン","city":"海部郡蟹江町","city_kana":"アマグンカニエチョウ","town":"城","town_kana":"シロ","prefecture_code":23},"0043":{"zip_code":"4970043","prefecture":"愛知県","prefecture_kana":"アイチケン","city":"海部郡蟹江町","city_kana":"アマグンカニエチョウ","town":"新千秋","town_kana":"シンチアキ","prefecture_code":23},"0031":{"zip_code":"4970031","prefecture":"愛知県","prefecture_kana":"アイチケン","city":"海部郡蟹江町","city_kana":"アマグンカニエチョウ","town":"須成","town_kana":"スナリ","prefecture_code":23},"0036":{"zip_code":"4970036","prefecture":"愛知県","prefecture_kana":"アイチケン","city":"海部郡蟹江町","city_kana":"アマグンカニエチョウ","town":"須成西","town_kana":"スナリニシ","prefecture_code":23},"0030":{"zip_code":"4970030","prefecture":"愛知県","prefecture_kana":"アイチケン","city":"海部郡蟹江町","city_kana":"アマグンカニエチョウ","town":"宝","town_kana":"タカラ","prefecture_code":23},"0058":{"zip_code":"4970058","prefecture":"愛知県","prefecture_kana":"アイチケン","city":"海部郡蟹江町","city_kana":"アマグンカニエチョウ","town":"富吉","town_kana":"トミヨシ","prefecture_code":23},"0042":{"zip_code":"4970042","prefecture":"愛知県","prefecture_kana":"アイチケン","city":"海部郡蟹江町","city_kana":"アマグンカニエチョウ","town":"鍋蓋新田","town_kana":"ナベブタシンデン","prefecture_code":23},"0054":{"zip_code":"4970054","prefecture":"愛知県","prefecture_kana":"アイチケン","city":"海部郡蟹江町","city_kana":"アマグンカニエチョウ","town":"錦","town_kana":"ニシキ","prefecture_code":23},"0052":{"zip_code":"4970052","prefecture":"愛知県","prefecture_kana":"アイチケン","city":"海部郡蟹江町","city_kana":"アマグンカニエチョウ","town":"西之森","town_kana":"ニシノモリ","prefecture_code":23},"0056":{"zip_code":"4970056","prefecture":"愛知県","prefecture_kana":"アイチケン","city":"海部郡蟹江町","city_kana":"アマグンカニエチョウ","town":"八幡","town_kana":"ハチマン","prefecture_code":23},"0048":{"zip_code":"4970048","prefecture":"愛知県","prefecture_kana":"アイチケン","city":"海部郡蟹江町","city_kana":"アマグンカニエチョウ","town":"舟入","town_kana":"フナイリ","prefecture_code":23},"0053":{"zip_code":"4970053","prefecture":"愛知県","prefecture_kana":"アイチケン","city":"海部郡蟹江町","city_kana":"アマグンカニエチョウ","town":"平安","town_kana":"ヘイアン","prefecture_code":23},"0034":{"zip_code":"4970034","prefecture":"愛知県","prefecture_kana":"アイチケン","city":"海部郡蟹江町","city_kana":"アマグンカニエチョウ","town":"本町","town_kana":"ホンマチ","prefecture_code":23},"0045":{"zip_code":"4970045","prefecture":"愛知県","prefecture_kana":"アイチケン","city":"海部郡蟹江町","city_kana":"アマグンカニエチョウ","town":"緑","town_kana":"ミドリ","prefecture_code":23}}