{"0000":[{"zip_code":"4980000","prefecture":"愛知県","prefecture_kana":"アイチケン","city":"弥富市","city_kana":"ヤトミシ","town":"以下に掲載がない場合","town_kana":"イカニケイサイガナイバアイ","prefecture_code":23},{"zip_code":"4980000","prefecture":"三重県","prefecture_kana":"ミエケン","city":"桑名郡木曽岬町","city_kana":"クワナグンキソサキチョウ","town":"以下に掲載がない場合","town_kana":"イカニケイサイガナイバアイ","prefecture_code":24}],"0053":{"zip_code":"4980053","prefecture":"愛知県","prefecture_kana":"アイチケン","city":"弥富市","city_kana":"ヤトミシ","town":"稲狐町","town_kana":"イナコチョウ","prefecture_code":23},"0045":[{"zip_code":"4980045","prefecture":"愛知県","prefecture_kana":"アイチケン","city":"弥富市","city_kana":"ヤトミシ","town":"稲元","town_kana":"イナモト","prefecture_code":23},{"zip_code":"4980045","prefecture":"愛知県","prefecture_kana":"アイチケン","city":"弥富市","city_kana":"ヤトミシ","town":"稲元町","town_kana":"イナモトチョウ","prefecture_code":23}],"0048":{"zip_code":"4980048","prefecture":"愛知県","prefecture_kana":"アイチケン","city":"弥富市","city_kana":"ヤトミシ","town":"稲吉","town_kana":"イナヨシ","prefecture_code":23},"0052":[{"zip_code":"4980052","prefecture":"愛知県","prefecture_kana":"アイチケン","city":"弥富市","city_kana":"ヤトミシ","town":"稲荷","town_kana":"イナリ","prefecture_code":23},{"zip_code":"4980052","prefecture":"愛知県","prefecture_kana":"アイチケン","city":"弥富市","city_kana":"ヤトミシ","town":"稲荷町","town_kana":"イナリチョウ","prefecture_code":23}],"0056":[{"zip_code":"4980056","prefecture":"愛知県","prefecture_kana":"アイチケン","city":"弥富市","city_kana":"ヤトミシ","town":"稲荷崎","town_kana":"イナリザキ","prefecture_code":23},{"zip_code":"4980056","prefecture":"愛知県","prefecture_kana":"アイチケン","city":"弥富市","city_kana":"ヤトミシ","town":"稲荷崎町","town_kana":"イナリザキチョウ","prefecture_code":23}],"0067":{"zip_code":"4980067","prefecture":"愛知県","prefecture_kana":"アイチケン","city":"弥富市","city_kana":"ヤトミシ","town":"上野町","town_kana":"ウエノチョウ","prefecture_code":23},"0023":{"zip_code":"4980023","prefecture":"愛知県","prefecture_kana":"アイチケン","city":"弥富市","city_kana":"ヤトミシ","town":"鯏浦町（上六）","town_kana":"ウグイウラチョウ(カミロク)","prefecture_code":23},"0024":{"zip_code":"4980024","prefecture":"愛知県","prefecture_kana":"アイチケン","city":"弥富市","city_kana":"ヤトミシ","town":"鯏浦町（気開）","town_kana":"ウグイウラチョウ(キトケ)","prefecture_code":23},"0022":{"zip_code":"4980022","prefecture":"愛知県","prefecture_kana":"アイチケン","city":"弥富市","city_kana":"ヤトミシ","town":"鯏浦町（下六）","town_kana":"ウグイウラチョウ(シモロク)","prefecture_code":23},"0028":{"zip_code":"4980028","prefecture":"愛知県","prefecture_kana":"アイチケン","city":"弥富市","city_kana":"ヤトミシ","town":"鯏浦町（中六）","town_kana":"ウグイウラチョウ(ナカロク)","prefecture_code":23},"0026":{"zip_code":"4980026","prefecture":"愛知県","prefecture_kana":"アイチケン","city":"弥富市","city_kana":"ヤトミシ","town":"鯏浦町（西前新田）","town_kana":"ウグイウラチョウ(ニシマエシンデン)","prefecture_code":23},"0027":{"zip_code":"4980027","prefecture":"愛知県","prefecture_kana":"アイチケン","city":"弥富市","city_kana":"ヤトミシ","town":"鯏浦町（南前新田）","town_kana":"ウグイウラチョウ(ミナミマエシンデン)","prefecture_code":23},"0021":{"zip_code":"4980021","prefecture":"愛知県","prefecture_kana":"アイチケン","city":"弥富市","city_kana":"ヤトミシ","town":"鯏浦町（その他）","town_kana":"ウグイウラチョウ(ソノタ)","prefecture_code":23},"0015":{"zip_code":"4980015","prefecture":"愛知県","prefecture_kana":"アイチケン","city":"弥富市","city_kana":"ヤトミシ","town":"海老江","town_kana":"エビエ","prefecture_code":23},"0062":{"zip_code":"4980062","prefecture":"愛知県","prefecture_kana":"アイチケン","city":"弥富市","city_kana":"ヤトミシ","town":"大谷","town_kana":"オオタニ","prefecture_code":23},"0047":{"zip_code":"4980047","prefecture":"愛知県","prefecture_kana":"アイチケン","city":"弥富市","city_kana":"ヤトミシ","town":"加稲","town_kana":"カイナ","prefecture_code":23},"0007":{"zip_code":"4980007","prefecture":"愛知県","prefecture_kana":"アイチケン","city":"弥富市","city_kana":"ヤトミシ","town":"鎌倉町","town_kana":"カマクラチョウ","prefecture_code":23},"0035":{"zip_code":"4980035","prefecture":"愛知県","prefecture_kana":"アイチケン","city":"弥富市","city_kana":"ヤトミシ","town":"鎌島","town_kana":"カマジマ","prefecture_code":23},"0013":{"zip_code":"4980013","prefecture":"愛知県","prefecture_kana":"アイチケン","city":"弥富市","city_kana":"ヤトミシ","town":"川平","town_kana":"カワヒラ","prefecture_code":23},"0037":[{"zip_code":"4980037","prefecture":"愛知県","prefecture_kana":"アイチケン","city":"弥富市","city_kana":"ヤトミシ","town":"川原欠","town_kana":"カワラガケ","prefecture_code":23},{"zip_code":"4980037","prefecture":"愛知県","prefecture_kana":"アイチケン","city":"弥富市","city_kana":"ヤトミシ","town":"川原欠町","town_kana":"カワラガケチョウ","prefecture_code":23}],"0043":{"zip_code":"4980043","prefecture":"愛知県","prefecture_kana":"アイチケン","city":"弥富市","city_kana":"ヤトミシ","town":"寛延","town_kana":"カンエン","prefecture_code":23},"0044":[{"zip_code":"4980044","prefecture":"愛知県","prefecture_kana":"アイチケン","city":"弥富市","city_kana":"ヤトミシ","town":"間崎","town_kana":"カンザキ","prefecture_code":23},{"zip_code":"4980044","prefecture":"愛知県","prefecture_kana":"アイチケン","city":"弥富市","city_kana":"ヤトミシ","town":"間崎町","town_kana":"カンザキチョウ","prefecture_code":23}],"0051":[{"zip_code":"4980051","prefecture":"愛知県","prefecture_kana":"アイチケン","city":"弥富市","city_kana":"ヤトミシ","town":"狐地","town_kana":"キツネジ","prefecture_code":23},{"zip_code":"4980051","prefecture":"愛知県","prefecture_kana":"アイチケン","city":"弥富市","city_kana":"ヤトミシ","town":"狐地町","town_kana":"キツネジチョウ","prefecture_code":23}],"0066":{"zip_code":"4980066","prefecture":"愛知県","prefecture_kana":"アイチケン","city":"弥富市","city_kana":"ヤトミシ","town":"楠","town_kana":"クスノキ","prefecture_code":23},"0061":{"zip_code":"4980061","prefecture":"愛知県","prefecture_kana":"アイチケン","city":"弥富市","city_kana":"ヤトミシ","town":"操出","town_kana":"クリダシ","prefecture_code":23},"0016":{"zip_code":"4980016","prefecture":"愛知県","prefecture_kana":"アイチケン","city":"弥富市","city_kana":"ヤトミシ","town":"小島町","town_kana":"コジマチョウ","prefecture_code":23},"0018":{"zip_code":"4980018","prefecture":"愛知県","prefecture_kana":"アイチケン","city":"弥富市","city_kana":"ヤトミシ","town":"五之三川平","town_kana":"ゴノサンカワヒラ","prefecture_code":23},"0012":{"zip_code":"4980012","prefecture":"愛知県","prefecture_kana":"アイチケン","city":"弥富市","city_kana":"ヤトミシ","town":"五之三町","town_kana":"ゴノサンチョウ","prefecture_code":23},"0065":{"zip_code":"4980065","prefecture":"愛知県","prefecture_kana":"アイチケン","city":"弥富市","city_kana":"ヤトミシ","town":"駒野町","town_kana":"コマノチョウ","prefecture_code":23},"0014":[{"zip_code":"4980014","prefecture":"愛知県","prefecture_kana":"アイチケン","city":"弥富市","city_kana":"ヤトミシ","town":"五明","town_kana":"ゴミョウ","prefecture_code":23},{"zip_code":"4980014","prefecture":"愛知県","prefecture_kana":"アイチケン","city":"弥富市","city_kana":"ヤトミシ","town":"五明町","town_kana":"ゴミョウチョウ","prefecture_code":23}],"0055":{"zip_code":"4980055","prefecture":"愛知県","prefecture_kana":"アイチケン","city":"弥富市","city_kana":"ヤトミシ","town":"境町","town_kana":"サカイチョウ","prefecture_code":23},"0006":{"zip_code":"4980006","prefecture":"愛知県","prefecture_kana":"アイチケン","city":"弥富市","city_kana":"ヤトミシ","town":"佐古木","town_kana":"サコギ","prefecture_code":23},"0054":[{"zip_code":"4980054","prefecture":"愛知県","prefecture_kana":"アイチケン","city":"弥富市","city_kana":"ヤトミシ","town":"三稲","town_kana":"サント","prefecture_code":23},{"zip_code":"4980054","prefecture":"愛知県","prefecture_kana":"アイチケン","city":"弥富市","city_kana":"ヤトミシ","town":"三稲町","town_kana":"サントチョウ","prefecture_code":23}],"0041":[{"zip_code":"4980041","prefecture":"愛知県","prefecture_kana":"アイチケン","city":"弥富市","city_kana":"ヤトミシ","town":"芝井","town_kana":"シバイ","prefecture_code":23},{"zip_code":"4980041","prefecture":"愛知県","prefecture_kana":"アイチケン","city":"弥富市","city_kana":"ヤトミシ","town":"芝井町","town_kana":"シバイチョウ","prefecture_code":23}],"0058":[{"zip_code":"4980058","prefecture":"愛知県","prefecture_kana":"アイチケン","city":"弥富市","city_kana":"ヤトミシ","town":"富島","town_kana":"トミシマ","prefecture_code":23},{"zip_code":"4980058","prefecture":"愛知県","prefecture_kana":"アイチケン","city":"弥富市","city_kana":"ヤトミシ","town":"富島町","town_kana":"トミシマチョウ","prefecture_code":23}],"0069":{"zip_code":"4980069","prefecture":"愛知県","prefecture_kana":"アイチケン","city":"弥富市","city_kana":"ヤトミシ","town":"富浜","town_kana":"トミハマ","prefecture_code":23},"0057":[{"zip_code":"4980057","prefecture":"愛知県","prefecture_kana":"アイチケン","city":"弥富市","city_kana":"ヤトミシ","town":"中原","town_kana":"ナカハラ","prefecture_code":23},{"zip_code":"4980057","prefecture":"愛知県","prefecture_kana":"アイチケン","city":"弥富市","city_kana":"ヤトミシ","town":"中原町","town_kana":"ナカハラチョウ","prefecture_code":23}],"0038":{"zip_code":"4980038","prefecture":"愛知県","prefecture_kana":"アイチケン","city":"弥富市","city_kana":"ヤトミシ","town":"中山町","town_kana":"ナカヤマチョウ","prefecture_code":23},"0068":{"zip_code":"4980068","prefecture":"愛知県","prefecture_kana":"アイチケン","city":"弥富市","city_kana":"ヤトミシ","town":"鍋田町","town_kana":"ナベタチョウ","prefecture_code":23},"0064":{"zip_code":"4980064","prefecture":"愛知県","prefecture_kana":"アイチケン","city":"弥富市","city_kana":"ヤトミシ","town":"西末広","town_kana":"ニシスエヒロ","prefecture_code":23},"0001":{"zip_code":"4980001","prefecture":"愛知県","prefecture_kana":"アイチケン","city":"弥富市","city_kana":"ヤトミシ","town":"西中地町","town_kana":"ニシナカジチョウ","prefecture_code":23},"0011":{"zip_code":"4980011","prefecture":"愛知県","prefecture_kana":"アイチケン","city":"弥富市","city_kana":"ヤトミシ","town":"荷之上町","town_kana":"ニノウエチョウ","prefecture_code":23},"0063":{"zip_code":"4980063","prefecture":"愛知県","prefecture_kana":"アイチケン","city":"弥富市","city_kana":"ヤトミシ","town":"東末広","town_kana":"ヒガシスエヒロ","prefecture_code":23},"0002":{"zip_code":"4980002","prefecture":"愛知県","prefecture_kana":"アイチケン","city":"弥富市","city_kana":"ヤトミシ","town":"東中地","town_kana":"ヒガシナカジ","prefecture_code":23},"0025":{"zip_code":"4980025","prefecture":"愛知県","prefecture_kana":"アイチケン","city":"弥富市","city_kana":"ヤトミシ","town":"平島町（喜右味名）","town_kana":"ヘイジマチョウ(キアジナ)","prefecture_code":23},"0031":{"zip_code":"4980031","prefecture":"愛知県","prefecture_kana":"アイチケン","city":"弥富市","city_kana":"ヤトミシ","town":"平島町（その他）","town_kana":"ヘイジマチョウ(ソノタ)","prefecture_code":23},"0032":{"zip_code":"4980032","prefecture":"愛知県","prefecture_kana":"アイチケン","city":"弥富市","city_kana":"ヤトミシ","town":"平島中","town_kana":"ヘイジマナカ","prefecture_code":23},"0033":{"zip_code":"4980033","prefecture":"愛知県","prefecture_kana":"アイチケン","city":"弥富市","city_kana":"ヤトミシ","town":"平島西","town_kana":"ヘイジマニシ","prefecture_code":23},"0034":{"zip_code":"4980034","prefecture":"愛知県","prefecture_kana":"アイチケン","city":"弥富市","city_kana":"ヤトミシ","town":"平島東","town_kana":"ヘイジマヒガシ","prefecture_code":23},"0017":{"zip_code":"4980017","prefecture":"愛知県","prefecture_kana":"アイチケン","city":"弥富市","city_kana":"ヤトミシ","town":"前ケ須町","town_kana":"マエガスチョウ","prefecture_code":23},"0003":{"zip_code":"4980003","prefecture":"愛知県","prefecture_kana":"アイチケン","city":"弥富市","city_kana":"ヤトミシ","town":"前ケ平","town_kana":"マエガヒラ","prefecture_code":23},"0004":[{"zip_code":"4980004","prefecture":"愛知県","prefecture_kana":"アイチケン","city":"弥富市","city_kana":"ヤトミシ","town":"又八","town_kana":"マタハチ","prefecture_code":23},{"zip_code":"4980004","prefecture":"愛知県","prefecture_kana":"アイチケン","city":"弥富市","city_kana":"ヤトミシ","town":"又八町","town_kana":"マタハチチョウ","prefecture_code":23}],"0042":[{"zip_code":"4980042","prefecture":"愛知県","prefecture_kana":"アイチケン","city":"弥富市","city_kana":"ヤトミシ","town":"松名","town_kana":"マツナ","prefecture_code":23},{"zip_code":"4980042","prefecture":"愛知県","prefecture_kana":"アイチケン","city":"弥富市","city_kana":"ヤトミシ","town":"松名町","town_kana":"マツナチョウ","prefecture_code":23}],"0046":[{"zip_code":"4980046","prefecture":"愛知県","prefecture_kana":"アイチケン","city":"弥富市","city_kana":"ヤトミシ","town":"三好","town_kana":"ミヨシ","prefecture_code":23},{"zip_code":"4980046","prefecture":"愛知県","prefecture_kana":"アイチケン","city":"弥富市","city_kana":"ヤトミシ","town":"三好町","town_kana":"ミヨシチョウ","prefecture_code":23}],"0036":[{"zip_code":"4980036","prefecture":"愛知県","prefecture_kana":"アイチケン","city":"弥富市","city_kana":"ヤトミシ","town":"森津","town_kana":"モリヅ","prefecture_code":23},{"zip_code":"4980036","prefecture":"愛知県","prefecture_kana":"アイチケン","city":"弥富市","city_kana":"ヤトミシ","town":"森津町","town_kana":"モリヅチョウ","prefecture_code":23}],"0005":{"zip_code":"4980005","prefecture":"愛知県","prefecture_kana":"アイチケン","city":"弥富市","city_kana":"ヤトミシ","town":"楽平","town_kana":"ヨシヒラ","prefecture_code":23},"0803":{"zip_code":"4980803","prefecture":"三重県","prefecture_kana":"ミエケン","city":"桑名郡木曽岬町","city_kana":"クワナグンキソサキチョウ","town":"和泉","town_kana":"イズミ","prefecture_code":24},"0808":{"zip_code":"4980808","prefecture":"三重県","prefecture_kana":"ミエケン","city":"桑名郡木曽岬町","city_kana":"クワナグンキソサキチョウ","town":"近江島","town_kana":"オウミジマ","prefecture_code":24},"0823":{"zip_code":"4980823","prefecture":"三重県","prefecture_kana":"ミエケン","city":"桑名郡木曽岬町","city_kana":"クワナグンキソサキチョウ","town":"和富","town_kana":"カズトミ","prefecture_code":24},"0801":{"zip_code":"4980801","prefecture":"三重県","prefecture_kana":"ミエケン","city":"桑名郡木曽岬町","city_kana":"クワナグンキソサキチョウ","town":"加路戸","town_kana":"カロト","prefecture_code":24},"0818":{"zip_code":"4980818","prefecture":"三重県","prefecture_kana":"ミエケン","city":"桑名郡木曽岬町","city_kana":"クワナグンキソサキチョウ","town":"雁ケ地","town_kana":"ガンガジ","prefecture_code":24},"0802":{"zip_code":"4980802","prefecture":"三重県","prefecture_kana":"ミエケン","city":"桑名郡木曽岬町","city_kana":"クワナグンキソサキチョウ","town":"見入","town_kana":"ケンニュウ","prefecture_code":24},"0822":{"zip_code":"4980822","prefecture":"三重県","prefecture_kana":"ミエケン","city":"桑名郡木曽岬町","city_kana":"クワナグンキソサキチョウ","town":"見入流作","town_kana":"ケンニュウリュウサク","prefecture_code":24},"0816":{"zip_code":"4980816","prefecture":"三重県","prefecture_kana":"ミエケン","city":"桑名郡木曽岬町","city_kana":"クワナグンキソサキチョウ","town":"源緑輪中","town_kana":"ゲンロクワジュウ","prefecture_code":24},"0804":{"zip_code":"4980804","prefecture":"三重県","prefecture_kana":"ミエケン","city":"桑名郡木曽岬町","city_kana":"クワナグンキソサキチョウ","town":"小和泉","town_kana":"コイズミ","prefecture_code":24},"0805":{"zip_code":"4980805","prefecture":"三重県","prefecture_kana":"ミエケン","city":"桑名郡木曽岬町","city_kana":"クワナグンキソサキチョウ","town":"小林","town_kana":"コバヤシ","prefecture_code":24},"0811":{"zip_code":"4980811","prefecture":"三重県","prefecture_kana":"ミエケン","city":"桑名郡木曽岬町","city_kana":"クワナグンキソサキチョウ","town":"栄","town_kana":"サカエ","prefecture_code":24},"0821":{"zip_code":"4980821","prefecture":"三重県","prefecture_kana":"ミエケン","city":"桑名郡木曽岬町","city_kana":"クワナグンキソサキチョウ","town":"新加路戸","town_kana":"シンカロト","prefecture_code":24},"0806":{"zip_code":"4980806","prefecture":"三重県","prefecture_kana":"ミエケン","city":"桑名郡木曽岬町","city_kana":"クワナグンキソサキチョウ","town":"外平喜","town_kana":"ソトビラキ","prefecture_code":24},"0819":{"zip_code":"4980819","prefecture":"三重県","prefecture_kana":"ミエケン","city":"桑名郡木曽岬町","city_kana":"クワナグンキソサキチョウ","town":"田代","town_kana":"タシロ","prefecture_code":24},"0813":{"zip_code":"4980813","prefecture":"三重県","prefecture_kana":"ミエケン","city":"桑名郡木曽岬町","city_kana":"クワナグンキソサキチョウ","town":"富田子","town_kana":"トミタネ","prefecture_code":24},"0812":{"zip_code":"4980812","prefecture":"三重県","prefecture_kana":"ミエケン","city":"桑名郡木曽岬町","city_kana":"クワナグンキソサキチョウ","town":"中和泉","town_kana":"ナカイズミ","prefecture_code":24},"0807":{"zip_code":"4980807","prefecture":"三重県","prefecture_kana":"ミエケン","city":"桑名郡木曽岬町","city_kana":"クワナグンキソサキチョウ","town":"西対海地","town_kana":"ニシタイガンジ","prefecture_code":24},"0815":{"zip_code":"4980815","prefecture":"三重県","prefecture_kana":"ミエケン","city":"桑名郡木曽岬町","city_kana":"クワナグンキソサキチョウ","town":"白鷺","town_kana":"ハクロ","prefecture_code":24},"0817":{"zip_code":"4980817","prefecture":"三重県","prefecture_kana":"ミエケン","city":"桑名郡木曽岬町","city_kana":"クワナグンキソサキチョウ","town":"松永","town_kana":"マツナガ","prefecture_code":24},"0814":{"zip_code":"4980814","prefecture":"三重県","prefecture_kana":"ミエケン","city":"桑名郡木曽岬町","city_kana":"クワナグンキソサキチョウ","town":"三崎","town_kana":"ミサキ","prefecture_code":24}}