{"0000":{"zip_code":"5000000","prefecture":"岐阜県","prefecture_kana":"ギフケン","city":"岐阜市","city_kana":"ギフシ","town":"","town_kana":"","prefecture_code":21},"8103":{"zip_code":"5008103","prefecture":"岐阜県","prefecture_kana":"ギフケン","city":"岐阜市","city_kana":"ギフシ","town":"藍川町","town_kana":"アイカワチョウ","prefecture_code":21},"8083":{"zip_code":"5008083","prefecture":"岐阜県","prefecture_kana":"ギフケン","city":"岐阜市","city_kana":"ギフシ","town":"間之町","town_kana":"アイノマチ","prefecture_code":21},"8881":{"zip_code":"5008881","prefecture":"岐阜県","prefecture_kana":"ギフケン","city":"岐阜市","city_kana":"ギフシ","town":"青柳町","town_kana":"アオヤギチョウ","prefecture_code":21},"8282":{"zip_code":"5008282","prefecture":"岐阜県","prefecture_kana":"ギフケン","city":"岐阜市","city_kana":"ギフシ","town":"茜部大川","town_kana":"アカナベオオカワ","prefecture_code":21},"8261":{"zip_code":"5008261","prefecture":"岐阜県","prefecture_kana":"ギフケン","city":"岐阜市","city_kana":"ギフシ","town":"茜部大野","town_kana":"アカナベオオノ","prefecture_code":21},"8263":{"zip_code":"5008263","prefecture":"岐阜県","prefecture_kana":"ギフケン","city":"岐阜市","city_kana":"ギフシ","town":"茜部新所","town_kana":"アカナベシンショ","prefecture_code":21},"8265":{"zip_code":"5008265","prefecture":"岐阜県","prefecture_kana":"ギフケン","city":"岐阜市","city_kana":"ギフシ","town":"茜部神清寺","town_kana":"アカナベシンセイジ","prefecture_code":21},"8264":{"zip_code":"5008264","prefecture":"岐阜県","prefecture_kana":"ギフケン","city":"岐阜市","city_kana":"ギフシ","town":"茜部辰新","town_kana":"アカナベタツシン","prefecture_code":21},"8267":{"zip_code":"5008267","prefecture":"岐阜県","prefecture_kana":"ギフケン","city":"岐阜市","city_kana":"ギフシ","town":"茜部寺屋敷","town_kana":"アカナベテラヤシキ","prefecture_code":21},"8269":{"zip_code":"5008269","prefecture":"岐阜県","prefecture_kana":"ギフケン","city":"岐阜市","city_kana":"ギフシ","town":"茜部中島","town_kana":"アカナベナカシマ","prefecture_code":21},"8283":{"zip_code":"5008283","prefecture":"岐阜県","prefecture_kana":"ギフケン","city":"岐阜市","city_kana":"ギフシ","town":"茜部野瀬","town_kana":"アカナベノセ","prefecture_code":21},"8268":{"zip_code":"5008268","prefecture":"岐阜県","prefecture_kana":"ギフケン","city":"岐阜市","city_kana":"ギフシ","town":"茜部菱野","town_kana":"アカナベヒシノ","prefecture_code":21},"8262":{"zip_code":"5008262","prefecture":"岐阜県","prefecture_kana":"ギフケン","city":"岐阜市","city_kana":"ギフシ","town":"茜部本郷","town_kana":"アカナベホンゴウ","prefecture_code":21},"8284":{"zip_code":"5008284","prefecture":"岐阜県","prefecture_kana":"ギフケン","city":"岐阜市","city_kana":"ギフシ","town":"茜町","town_kana":"アカネチョウ","prefecture_code":21},"8176":{"zip_code":"5008176","prefecture":"岐阜県","prefecture_kana":"ギフケン","city":"岐阜市","city_kana":"ギフシ","town":"県町","town_kana":"アガタマチ","prefecture_code":21},"8067":{"zip_code":"5008067","prefecture":"岐阜県","prefecture_kana":"ギフケン","city":"岐阜市","city_kana":"ギフシ","town":"秋津町","town_kana":"アキツマチ","prefecture_code":21},"8148":{"zip_code":"5008148","prefecture":"岐阜県","prefecture_kana":"ギフケン","city":"岐阜市","city_kana":"ギフシ","town":"曙町","town_kana":"アケボノチョウ","prefecture_code":21},"8255":{"zip_code":"5008255","prefecture":"岐阜県","prefecture_kana":"ギフケン","city":"岐阜市","city_kana":"ギフシ","town":"朝霧町","town_kana":"アサギリチョウ","prefecture_code":21},"8109":{"zip_code":"5008109","prefecture":"岐阜県","prefecture_kana":"ギフケン","city":"岐阜市","city_kana":"ギフシ","town":"朝日町","town_kana":"アサヒマチ","prefecture_code":21},"8411":{"zip_code":"5008411","prefecture":"岐阜県","prefecture_kana":"ギフケン","city":"岐阜市","city_kana":"ギフシ","town":"安宅町","town_kana":"アタカマチ","prefecture_code":21},"8883":{"zip_code":"5008883","prefecture":"岐阜県","prefecture_kana":"ギフケン","city":"岐阜市","city_kana":"ギフシ","town":"吾妻町","town_kana":"アヅマチョウ","prefecture_code":21},"8221":{"zip_code":"5008221","prefecture":"岐阜県","prefecture_kana":"ギフケン","city":"岐阜市","city_kana":"ギフシ","town":"天池","town_kana":"アマイケ","prefecture_code":21},"8337":{"zip_code":"5008337","prefecture":"岐阜県","prefecture_kana":"ギフケン","city":"岐阜市","city_kana":"ギフシ","town":"雨踊町","town_kana":"アマオドリチョウ","prefecture_code":21},"8132":{"zip_code":"5008132","prefecture":"岐阜県","prefecture_kana":"ギフケン","city":"岐阜市","city_kana":"ギフシ","town":"尼ケ崎町","town_kana":"アマガサキチョウ","prefecture_code":21},"8449":{"zip_code":"5008449","prefecture":"岐阜県","prefecture_kana":"ギフケン","city":"岐阜市","city_kana":"ギフシ","town":"荒川町","town_kana":"アラカワチョウ","prefecture_code":21},"8401":{"zip_code":"5008401","prefecture":"岐阜県","prefecture_kana":"ギフケン","city":"岐阜市","city_kana":"ギフシ","town":"安良田町","town_kana":"アラタマチ","prefecture_code":21},"8139":{"zip_code":"5008139","prefecture":"岐阜県","prefecture_kana":"ギフケン","city":"岐阜市","city_kana":"ギフシ","town":"庵町","town_kana":"イオリマチ","prefecture_code":21},"8405":{"zip_code":"5008405","prefecture":"岐阜県","prefecture_kana":"ギフケン","city":"岐阜市","city_kana":"ギフシ","town":"生田町","town_kana":"イクタマチ","prefecture_code":21},"8884":{"zip_code":"5008884","prefecture":"岐阜県","prefecture_kana":"ギフケン","city":"岐阜市","city_kana":"ギフシ","town":"池田町","town_kana":"イケダマチ","prefecture_code":21},"8437":{"zip_code":"5008437","prefecture":"岐阜県","prefecture_kana":"ギフケン","city":"岐阜市","city_kana":"ギフシ","town":"石切町","town_kana":"イシキリチョウ","prefecture_code":21},"8153":{"zip_code":"5008153","prefecture":"岐阜県","prefecture_kana":"ギフケン","city":"岐阜市","city_kana":"ギフシ","town":"石長町","town_kana":"イシナガチョウ","prefecture_code":21},"8073":{"zip_code":"5008073","prefecture":"岐阜県","prefecture_kana":"ギフケン","city":"岐阜市","city_kana":"ギフシ","town":"泉町","town_kana":"イズミマチ","prefecture_code":21},"8155":{"zip_code":"5008155","prefecture":"岐阜県","prefecture_kana":"ギフケン","city":"岐阜市","city_kana":"ギフシ","town":"市ノ坪町","town_kana":"イチノツボチョウ","prefecture_code":21},"8381":{"zip_code":"5008381","prefecture":"岐阜県","prefecture_kana":"ギフケン","city":"岐阜市","city_kana":"ギフシ","town":"市橋","town_kana":"イチハシ","prefecture_code":21},"8183":{"zip_code":"5008183","prefecture":"岐阜県","prefecture_kana":"ギフケン","city":"岐阜市","city_kana":"ギフシ","town":"一番町","town_kana":"イチバンチョウ","prefecture_code":21},"8403":{"zip_code":"5008403","prefecture":"岐阜県","prefecture_kana":"ギフケン","city":"岐阜市","city_kana":"ギフシ","town":"一松道","town_kana":"イッショウドウ","prefecture_code":21},"8043":{"zip_code":"5008043","prefecture":"岐阜県","prefecture_kana":"ギフケン","city":"岐阜市","city_kana":"ギフシ","town":"伊奈波通","town_kana":"イナバドオリ","prefecture_code":21},"8336":{"zip_code":"5008336","prefecture":"岐阜県","prefecture_kana":"ギフケン","city":"岐阜市","city_kana":"ギフシ","town":"稲荷町","town_kana":"イナリチョウ","prefecture_code":21},"8489":{"zip_code":"5008489","prefecture":"岐阜県","prefecture_kana":"ギフケン","city":"岐阜市","city_kana":"ギフシ","town":"稲荷山","town_kana":"イナリヤマ","prefecture_code":21},"8161":{"zip_code":"5008161","prefecture":"岐阜県","prefecture_kana":"ギフケン","city":"岐阜市","city_kana":"ギフシ","town":"茨木町","town_kana":"イバラギチョウ","prefecture_code":21},"8077":{"zip_code":"5008077","prefecture":"岐阜県","prefecture_kana":"ギフケン","city":"岐阜市","city_kana":"ギフシ","town":"伊吹町","town_kana":"イブキチョウ","prefecture_code":21},"8814":{"zip_code":"5008814","prefecture":"岐阜県","prefecture_kana":"ギフケン","city":"岐阜市","city_kana":"ギフシ","town":"今川町","town_kana":"イマガワチョウ","prefecture_code":21},"8069":{"zip_code":"5008069","prefecture":"岐阜県","prefecture_kana":"ギフケン","city":"岐阜市","city_kana":"ギフシ","town":"今小町","town_kana":"イマコマチ","prefecture_code":21},"8822":{"zip_code":"5008822","prefecture":"岐阜県","prefecture_kana":"ギフケン","city":"岐阜市","city_kana":"ギフシ","town":"今沢町","town_kana":"イマザワチョウ","prefecture_code":21},"8023":{"zip_code":"5008023","prefecture":"岐阜県","prefecture_kana":"ギフケン","city":"岐阜市","city_kana":"ギフシ","town":"今町","town_kana":"イママチ","prefecture_code":21},"8388":{"zip_code":"5008388","prefecture":"岐阜県","prefecture_kana":"ギフケン","city":"岐阜市","city_kana":"ギフシ","town":"今嶺","town_kana":"イマミネ","prefecture_code":21},"8234":{"zip_code":"5008234","prefecture":"岐阜県","prefecture_kana":"ギフケン","city":"岐阜市","city_kana":"ギフシ","town":"芋島","town_kana":"イモジマ","prefecture_code":21},"8152":{"zip_code":"5008152","prefecture":"岐阜県","prefecture_kana":"ギフケン","city":"岐阜市","city_kana":"ギフシ","town":"入舟町","town_kana":"イリフネチョウ","prefecture_code":21},"8134":{"zip_code":"5008134","prefecture":"岐阜県","prefecture_kana":"ギフケン","city":"岐阜市","city_kana":"ギフシ","town":"岩栄町","town_kana":"イワエイチョウ","prefecture_code":21},"8225":{"zip_code":"5008225","prefecture":"岐阜県","prefecture_kana":"ギフケン","city":"岐阜市","city_kana":"ギフシ","town":"岩地","town_kana":"イワチ","prefecture_code":21},"8033":{"zip_code":"5008033","prefecture":"岐阜県","prefecture_kana":"ギフケン","city":"岐阜市","city_kana":"ギフシ","town":"魚屋町","town_kana":"ウオヤチョウ","prefecture_code":21},"8052":{"zip_code":"5008052","prefecture":"岐阜県","prefecture_kana":"ギフケン","city":"岐阜市","city_kana":"ギフシ","town":"鶯谷","town_kana":"ウグイスダニ","prefecture_code":21},"8053":{"zip_code":"5008053","prefecture":"岐阜県","prefecture_kana":"ギフケン","city":"岐阜市","city_kana":"ギフシ","town":"鶯谷町","town_kana":"ウグイスダニチョウ","prefecture_code":21},"8368":{"zip_code":"5008368","prefecture":"岐阜県","prefecture_kana":"ギフケン","city":"岐阜市","city_kana":"ギフシ","town":"宇佐","town_kana":"ウサ","prefecture_code":21},"8366":{"zip_code":"5008366","prefecture":"岐阜県","prefecture_kana":"ギフケン","city":"岐阜市","city_kana":"ギフシ","town":"宇佐東町","town_kana":"ウサヒガシマチ","prefecture_code":21},"8367":{"zip_code":"5008367","prefecture":"岐阜県","prefecture_kana":"ギフケン","city":"岐阜市","city_kana":"ギフシ","town":"宇佐南","town_kana":"ウサミナミ","prefecture_code":21},"8041":{"zip_code":"5008041","prefecture":"岐阜県","prefecture_kana":"ギフケン","city":"岐阜市","city_kana":"ギフシ","town":"靱屋町","town_kana":"ウツボヤチョウ","prefecture_code":21},"8818":{"zip_code":"5008818","prefecture":"岐阜県","prefecture_kana":"ギフケン","city":"岐阜市","city_kana":"ギフシ","town":"梅ケ枝町","town_kana":"ウメガエチョウ","prefecture_code":21},"8815":{"zip_code":"5008815","prefecture":"岐阜県","prefecture_kana":"ギフケン","city":"岐阜市","city_kana":"ギフシ","town":"梅河町","town_kana":"ウメガワチョウ","prefecture_code":21},"8371":{"zip_code":"5008371","prefecture":"岐阜県","prefecture_kana":"ギフケン","city":"岐阜市","city_kana":"ギフシ","town":"梅園町","town_kana":"ウメゾノチョウ","prefecture_code":21},"8123":{"zip_code":"5008123","prefecture":"岐阜県","prefecture_kana":"ギフケン","city":"岐阜市","city_kana":"ギフシ","town":"雲竜町","town_kana":"ウンリュウチョウ","prefecture_code":21},"8059":{"zip_code":"5008059","prefecture":"岐阜県","prefecture_kana":"ギフケン","city":"岐阜市","city_kana":"ギフシ","town":"栄扇町","town_kana":"エイセンチョウ","prefecture_code":21},"8133":{"zip_code":"5008133","prefecture":"岐阜県","prefecture_kana":"ギフケン","city":"岐阜市","city_kana":"ギフシ","town":"永楽町","town_kana":"エイラクチョウ","prefecture_code":21},"8823":{"zip_code":"5008823","prefecture":"岐阜県","prefecture_kana":"ギフケン","city":"岐阜市","city_kana":"ギフシ","town":"江川町","town_kana":"エガワチョウ","prefecture_code":21},"8383":{"zip_code":"5008383","prefecture":"岐阜県","prefecture_kana":"ギフケン","city":"岐阜市","city_kana":"ギフシ","town":"江添","town_kana":"エゾエ","prefecture_code":21},"8149":{"zip_code":"5008149","prefecture":"岐阜県","prefecture_kana":"ギフケン","city":"岐阜市","city_kana":"ギフシ","town":"戎町","town_kana":"エビスチョウ","prefecture_code":21},"8165":{"zip_code":"5008165","prefecture":"岐阜県","prefecture_kana":"ギフケン","city":"岐阜市","city_kana":"ギフシ","town":"老松町","town_kana":"オイマツチョウ","prefecture_code":21},"8373":{"zip_code":"5008373","prefecture":"岐阜県","prefecture_kana":"ギフケン","city":"岐阜市","city_kana":"ギフシ","town":"大池町","town_kana":"オオイケチョウ","prefecture_code":21},"8447":{"zip_code":"5008447","prefecture":"岐阜県","prefecture_kana":"ギフケン","city":"岐阜市","city_kana":"ギフシ","town":"大倉町","town_kana":"オオクラチョウ","prefecture_code":21},"8873":{"zip_code":"5008873","prefecture":"岐阜県","prefecture_kana":"ギフケン","city":"岐阜市","city_kana":"ギフシ","town":"大富町","town_kana":"オオトミチョウ","prefecture_code":21},"8889":{"zip_code":"5008889","prefecture":"岐阜県","prefecture_kana":"ギフケン","city":"岐阜市","city_kana":"ギフシ","town":"大縄場","town_kana":"オオナワバ","prefecture_code":21},"8003":{"zip_code":"5008003","prefecture":"岐阜県","prefecture_kana":"ギフケン","city":"岐阜市","city_kana":"ギフシ","town":"大宮町","town_kana":"オオミヤチョウ","prefecture_code":21},"8885":{"zip_code":"5008885","prefecture":"岐阜県","prefecture_kana":"ギフケン","city":"岐阜市","city_kana":"ギフシ","town":"大柳町","town_kana":"オオヤナギチョウ","prefecture_code":21},"8305":{"zip_code":"5008305","prefecture":"岐阜県","prefecture_kana":"ギフケン","city":"岐阜市","city_kana":"ギフシ","town":"沖ノ橋町","town_kana":"オキノハシチョウ","prefecture_code":21},"8061":{"zip_code":"5008061","prefecture":"岐阜県","prefecture_kana":"ギフケン","city":"岐阜市","city_kana":"ギフシ","town":"小熊町","town_kana":"オグマチョウ","prefecture_code":21},"8079":{"zip_code":"5008079","prefecture":"岐阜県","prefecture_kana":"ギフケン","city":"岐阜市","city_kana":"ギフシ","town":"御杉町","town_kana":"オスギチョウ","prefecture_code":21},"8135":{"zip_code":"5008135","prefecture":"岐阜県","prefecture_kana":"ギフケン","city":"岐阜市","city_kana":"ギフシ","town":"織田塚町","town_kana":"オダヅカチョウ","prefecture_code":21},"8181":{"zip_code":"5008181","prefecture":"岐阜県","prefecture_kana":"ギフケン","city":"岐阜市","city_kana":"ギフシ","town":"御浪町","town_kana":"オナミチョウ","prefecture_code":21},"8001":{"zip_code":"5008001","prefecture":"岐阜県","prefecture_kana":"ギフケン","city":"岐阜市","city_kana":"ギフシ","town":"鏡岩","town_kana":"カガミイワ","prefecture_code":21},"8313":{"zip_code":"5008313","prefecture":"岐阜県","prefecture_kana":"ギフケン","city":"岐阜市","city_kana":"ギフシ","town":"鍵屋中町","town_kana":"カギヤナカマチ","prefecture_code":21},"8306":{"zip_code":"5008306","prefecture":"岐阜県","prefecture_kana":"ギフケン","city":"岐阜市","city_kana":"ギフシ","town":"鍵屋東町","town_kana":"カギヤヒガシマチ","prefecture_code":21},"8314":{"zip_code":"5008314","prefecture":"岐阜県","prefecture_kana":"ギフケン","city":"岐阜市","city_kana":"ギフシ","town":"鍵屋西町","town_kana":"カギヤニシマチ","prefecture_code":21},"8443":{"zip_code":"5008443","prefecture":"岐阜県","prefecture_kana":"ギフケン","city":"岐阜市","city_kana":"ギフシ","town":"神楽町","town_kana":"カグラチョウ","prefecture_code":21},"8128":{"zip_code":"5008128","prefecture":"岐阜県","prefecture_kana":"ギフケン","city":"岐阜市","city_kana":"ギフシ","town":"花月町","town_kana":"カゲツチョウ","prefecture_code":21},"8259":{"zip_code":"5008259","prefecture":"岐阜県","prefecture_kana":"ギフケン","city":"岐阜市","city_kana":"ギフシ","town":"水主町","town_kana":"カコマチ","prefecture_code":21},"8323":{"zip_code":"5008323","prefecture":"岐阜県","prefecture_kana":"ギフケン","city":"岐阜市","city_kana":"ギフシ","town":"鹿島町","town_kana":"カシマチョウ","prefecture_code":21},"8102":{"zip_code":"5008102","prefecture":"岐阜県","prefecture_kana":"ギフケン","city":"岐阜市","city_kana":"ギフシ","town":"粕森町","town_kana":"カシモリチョウ","prefecture_code":21},"8017":{"zip_code":"5008017","prefecture":"岐阜県","prefecture_kana":"ギフケン","city":"岐阜市","city_kana":"ギフシ","town":"梶川町","town_kana":"カジカワチョウ","prefecture_code":21},"8303":{"zip_code":"5008303","prefecture":"岐阜県","prefecture_kana":"ギフケン","city":"岐阜市","city_kana":"ギフシ","town":"春日町","town_kana":"カスガマチ","prefecture_code":21},"8186":{"zip_code":"5008186","prefecture":"岐阜県","prefecture_kana":"ギフケン","city":"岐阜市","city_kana":"ギフシ","town":"霞町","town_kana":"カスミチョウ","prefecture_code":21},"8322":{"zip_code":"5008322","prefecture":"岐阜県","prefecture_kana":"ギフケン","city":"岐阜市","city_kana":"ギフシ","town":"香取町","town_kana":"カトリチョウ","prefecture_code":21},"8849":{"zip_code":"5008849","prefecture":"岐阜県","prefecture_kana":"ギフケン","city":"岐阜市","city_kana":"ギフシ","town":"金岡町","town_kana":"カナオカチョウ","prefecture_code":21},"8113":{"zip_code":"5008113","prefecture":"岐阜県","prefecture_kana":"ギフケン","city":"岐阜市","city_kana":"ギフシ","town":"金園町","town_kana":"カナゾノチョウ","prefecture_code":21},"8065":{"zip_code":"5008065","prefecture":"岐阜県","prefecture_kana":"ギフケン","city":"岐阜市","city_kana":"ギフシ","town":"金屋町","town_kana":"カナヤチョウ","prefecture_code":21},"8063":{"zip_code":"5008063","prefecture":"岐阜県","prefecture_kana":"ギフケン","city":"岐阜市","city_kana":"ギフシ","town":"金屋横町","town_kana":"カナヤヨコチョウ","prefecture_code":21},"8457":{"zip_code":"5008457","prefecture":"岐阜県","prefecture_kana":"ギフケン","city":"岐阜市","city_kana":"ギフシ","town":"加納青藤町","town_kana":"カノウアオフジチョウ","prefecture_code":21},"8452":{"zip_code":"5008452","prefecture":"岐阜県","prefecture_kana":"ギフケン","city":"岐阜市","city_kana":"ギフシ","town":"加納朝日町","town_kana":"カノウアサヒマチ","prefecture_code":21},"8476":{"zip_code":"5008476","prefecture":"岐阜県","prefecture_kana":"ギフケン","city":"岐阜市","city_kana":"ギフシ","town":"加納愛宕町","town_kana":"カノウアタゴチョウ","prefecture_code":21},"8422":{"zip_code":"5008422","prefecture":"岐阜県","prefecture_kana":"ギフケン","city":"岐阜市","city_kana":"ギフシ","town":"加納安良町","town_kana":"カノウアラマチ","prefecture_code":21},"8279":{"zip_code":"5008279","prefecture":"岐阜県","prefecture_kana":"ギフケン","city":"岐阜市","city_kana":"ギフシ","town":"加納梅田町","town_kana":"カノウウメダチョウ","prefecture_code":21},"8427":{"zip_code":"5008427","prefecture":"岐阜県","prefecture_kana":"ギフケン","city":"岐阜市","city_kana":"ギフシ","town":"加納大石町","town_kana":"カノウオオイシチョウ","prefecture_code":21},"8482":{"zip_code":"5008482","prefecture":"岐阜県","prefecture_kana":"ギフケン","city":"岐阜市","city_kana":"ギフシ","town":"加納大手町","town_kana":"カノウオオテマチ","prefecture_code":21},"8272":{"zip_code":"5008272","prefecture":"岐阜県","prefecture_kana":"ギフケン","city":"岐阜市","city_kana":"ギフシ","town":"加納奥平町","town_kana":"カノウオクダイラチョウ","prefecture_code":21},"8451":{"zip_code":"5008451","prefecture":"岐阜県","prefecture_kana":"ギフケン","city":"岐阜市","city_kana":"ギフシ","town":"加納上本町","town_kana":"カノウカミホンマチ","prefecture_code":21},"8419":{"zip_code":"5008419","prefecture":"岐阜県","prefecture_kana":"ギフケン","city":"岐阜市","city_kana":"ギフシ","town":"加納北広江町","town_kana":"カノウキタヒロエチョウ","prefecture_code":21},"8417":{"zip_code":"5008417","prefecture":"岐阜県","prefecture_kana":"ギフケン","city":"岐阜市","city_kana":"ギフシ","town":"加納清田町","town_kana":"カノウキヨダマチ","prefecture_code":21},"8472":{"zip_code":"5008472","prefecture":"岐阜県","prefecture_kana":"ギフケン","city":"岐阜市","city_kana":"ギフシ","town":"加納清野町","town_kana":"カノウキヨノマチ","prefecture_code":21},"8481":{"zip_code":"5008481","prefecture":"岐阜県","prefecture_kana":"ギフケン","city":"岐阜市","city_kana":"ギフシ","town":"加納沓井町","town_kana":"カノウクツイチョウ","prefecture_code":21},"8461":{"zip_code":"5008461","prefecture":"岐阜県","prefecture_kana":"ギフケン","city":"岐阜市","city_kana":"ギフシ","town":"加納黒木町","town_kana":"カノウクロキチョウ","prefecture_code":21},"8465":{"zip_code":"5008465","prefecture":"岐阜県","prefecture_kana":"ギフケン","city":"岐阜市","city_kana":"ギフシ","town":"加納寿町","town_kana":"カノウコトブキチョウ","prefecture_code":21},"8475":{"zip_code":"5008475","prefecture":"岐阜県","prefecture_kana":"ギフケン","city":"岐阜市","city_kana":"ギフシ","town":"加納坂井町","town_kana":"カノウサカイマチ","prefecture_code":21},"8455":{"zip_code":"5008455","prefecture":"岐阜県","prefecture_kana":"ギフケン","city":"岐阜市","city_kana":"ギフシ","town":"加納栄町通","town_kana":"カノウサカエマチドオリ","prefecture_code":21},"8468":{"zip_code":"5008468","prefecture":"岐阜県","prefecture_kana":"ギフケン","city":"岐阜市","city_kana":"ギフシ","town":"加納桜田町","town_kana":"カノウサクラダチョウ","prefecture_code":21},"8428":{"zip_code":"5008428","prefecture":"岐阜県","prefecture_kana":"ギフケン","city":"岐阜市","city_kana":"ギフシ","town":"加納桜道","town_kana":"カノウサクラミチ","prefecture_code":21},"8429":{"zip_code":"5008429","prefecture":"岐阜県","prefecture_kana":"ギフケン","city":"岐阜市","city_kana":"ギフシ","town":"加納清水町","town_kana":"カノウシミズチョウ","prefecture_code":21},"8463":{"zip_code":"5008463","prefecture":"岐阜県","prefecture_kana":"ギフケン","city":"岐阜市","city_kana":"ギフシ","town":"加納新本町","town_kana":"カノウシンホンマチ","prefecture_code":21},"8425":{"zip_code":"5008425","prefecture":"岐阜県","prefecture_kana":"ギフケン","city":"岐阜市","city_kana":"ギフシ","town":"加納新町","town_kana":"カノウシンマチ","prefecture_code":21},"8462":{"zip_code":"5008462","prefecture":"岐阜県","prefecture_kana":"ギフケン","city":"岐阜市","city_kana":"ギフシ","town":"加納神明町","town_kana":"カノウシンメイチョウ","prefecture_code":21},"8421":{"zip_code":"5008421","prefecture":"岐阜県","prefecture_kana":"ギフケン","city":"岐阜市","city_kana":"ギフシ","town":"加納新柳町","town_kana":"カノウシンヤナギマチ","prefecture_code":21},"8486":{"zip_code":"5008486","prefecture":"岐阜県","prefecture_kana":"ギフケン","city":"岐阜市","city_kana":"ギフシ","town":"加納城南通","town_kana":"カノウジョウナンドオリ","prefecture_code":21},"8274":{"zip_code":"5008274","prefecture":"岐阜県","prefecture_kana":"ギフケン","city":"岐阜市","city_kana":"ギフシ","town":"加納鷹匠町","town_kana":"カノウタカショウマチ","prefecture_code":21},"8459":{"zip_code":"5008459","prefecture":"岐阜県","prefecture_kana":"ギフケン","city":"岐阜市","city_kana":"ギフシ","town":"加納高柳町","town_kana":"カノウタカヤナギチョウ","prefecture_code":21},"8277":{"zip_code":"5008277","prefecture":"岐阜県","prefecture_kana":"ギフケン","city":"岐阜市","city_kana":"ギフシ","town":"加納立花町","town_kana":"カノウタチバナチョウ","prefecture_code":21},"8456":{"zip_code":"5008456","prefecture":"岐阜県","prefecture_kana":"ギフケン","city":"岐阜市","city_kana":"ギフシ","town":"加納大黒町","town_kana":"カノウダイコクチョウ","prefecture_code":21},"8453":{"zip_code":"5008453","prefecture":"岐阜県","prefecture_kana":"ギフケン","city":"岐阜市","city_kana":"ギフシ","town":"加納鉄砲町","town_kana":"カノウテッポウチョウ","prefecture_code":21},"8473":{"zip_code":"5008473","prefecture":"岐阜県","prefecture_kana":"ギフケン","city":"岐阜市","city_kana":"ギフシ","town":"加納天神町","town_kana":"カノウテンジンマチ","prefecture_code":21},"8413":{"zip_code":"5008413","prefecture":"岐阜県","prefecture_kana":"ギフケン","city":"岐阜市","city_kana":"ギフシ","town":"加納東陽町","town_kana":"カノウトウヨウチョウ","prefecture_code":21},"8416":{"zip_code":"5008416","prefecture":"岐阜県","prefecture_kana":"ギフケン","city":"岐阜市","city_kana":"ギフシ","town":"加納徳川町","town_kana":"カノウトクガワチョウ","prefecture_code":21},"8415":{"zip_code":"5008415","prefecture":"岐阜県","prefecture_kana":"ギフケン","city":"岐阜市","city_kana":"ギフシ","town":"加納中広江町","town_kana":"カノウナカヒロエチョウ","prefecture_code":21},"8454":{"zip_code":"5008454","prefecture":"岐阜県","prefecture_kana":"ギフケン","city":"岐阜市","city_kana":"ギフシ","town":"加納永井町","town_kana":"カノウナガイチョウ","prefecture_code":21},"8487":{"zip_code":"5008487","prefecture":"岐阜県","prefecture_kana":"ギフケン","city":"岐阜市","city_kana":"ギフシ","town":"加納長刀堀","town_kana":"カノウナギナタボリ","prefecture_code":21},"8276":{"zip_code":"5008276","prefecture":"岐阜県","prefecture_kana":"ギフケン","city":"岐阜市","city_kana":"ギフシ","town":"加納南陽町","town_kana":"カノウナンヨウチョウ","prefecture_code":21},"8418":{"zip_code":"5008418","prefecture":"岐阜県","prefecture_kana":"ギフケン","city":"岐阜市","city_kana":"ギフシ","town":"加納西広江町","town_kana":"カノウニシヒロエチョウ","prefecture_code":21},"8488":{"zip_code":"5008488","prefecture":"岐阜県","prefecture_kana":"ギフケン","city":"岐阜市","city_kana":"ギフシ","town":"加納西丸町","town_kana":"カノウニシマルチョウ","prefecture_code":21},"8278":{"zip_code":"5008278","prefecture":"岐阜県","prefecture_kana":"ギフケン","city":"岐阜市","city_kana":"ギフシ","town":"加納西山町","town_kana":"カノウニシヤマチョウ","prefecture_code":21},"8484":{"zip_code":"5008484","prefecture":"岐阜県","prefecture_kana":"ギフケン","city":"岐阜市","city_kana":"ギフシ","town":"加納二之丸","town_kana":"カノウニノマル","prefecture_code":21},"8431":{"zip_code":"5008431","prefecture":"岐阜県","prefecture_kana":"ギフケン","city":"岐阜市","city_kana":"ギフシ","town":"加納八幡町","town_kana":"カノウハチマンチョウ","prefecture_code":21},"8275":{"zip_code":"5008275","prefecture":"岐阜県","prefecture_kana":"ギフケン","city":"岐阜市","city_kana":"ギフシ","town":"加納花ノ木町","town_kana":"カノウハナノキチョウ","prefecture_code":21},"8414":{"zip_code":"5008414","prefecture":"岐阜県","prefecture_kana":"ギフケン","city":"岐阜市","city_kana":"ギフシ","town":"加納東広江町","town_kana":"カノウヒガシヒロエチョウ","prefecture_code":21},"8483":{"zip_code":"5008483","prefecture":"岐阜県","prefecture_kana":"ギフケン","city":"岐阜市","city_kana":"ギフシ","town":"加納東丸町","town_kana":"カノウヒガシマルチョウ","prefecture_code":21},"8479":{"zip_code":"5008479","prefecture":"岐阜県","prefecture_kana":"ギフケン","city":"岐阜市","city_kana":"ギフシ","town":"加納菱野町","town_kana":"カノウヒシノマチ","prefecture_code":21},"8478":{"zip_code":"5008478","prefecture":"岐阜県","prefecture_kana":"ギフケン","city":"岐阜市","city_kana":"ギフシ","town":"加納伏見町","town_kana":"カノウフシミチョウ","prefecture_code":21},"8471":{"zip_code":"5008471","prefecture":"岐阜県","prefecture_kana":"ギフケン","city":"岐阜市","city_kana":"ギフシ","town":"加納富士町","town_kana":"カノウフジマチ","prefecture_code":21},"8252":{"zip_code":"5008252","prefecture":"岐阜県","prefecture_kana":"ギフケン","city":"岐阜市","city_kana":"ギフシ","town":"加納舟田町","town_kana":"カノウフナダチョウ","prefecture_code":21},"8271":{"zip_code":"5008271","prefecture":"岐阜県","prefecture_kana":"ギフケン","city":"岐阜市","city_kana":"ギフシ","town":"加納堀田町","town_kana":"カノウホッタチョウ","prefecture_code":21},"8466":{"zip_code":"5008466","prefecture":"岐阜県","prefecture_kana":"ギフケン","city":"岐阜市","city_kana":"ギフシ","town":"加納本石町","town_kana":"カノウホンゴクチョウ","prefecture_code":21},"8474":{"zip_code":"5008474","prefecture":"岐阜県","prefecture_kana":"ギフケン","city":"岐阜市","city_kana":"ギフシ","town":"加納本町","town_kana":"カノウホンマチ","prefecture_code":21},"8464":{"zip_code":"5008464","prefecture":"岐阜県","prefecture_kana":"ギフケン","city":"岐阜市","city_kana":"ギフシ","town":"加納前田町","town_kana":"カノウマエダマチ","prefecture_code":21},"8485":{"zip_code":"5008485","prefecture":"岐阜県","prefecture_kana":"ギフケン","city":"岐阜市","city_kana":"ギフシ","town":"加納丸之内","town_kana":"カノウマルノウチ","prefecture_code":21},"8467":{"zip_code":"5008467","prefecture":"岐阜県","prefecture_kana":"ギフケン","city":"岐阜市","city_kana":"ギフシ","town":"加納三笠町","town_kana":"カノウミカサチョウ","prefecture_code":21},"8251":{"zip_code":"5008251","prefecture":"岐阜県","prefecture_kana":"ギフケン","city":"岐阜市","city_kana":"ギフシ","town":"加納御車町","town_kana":"カノウミクルマチョウ","prefecture_code":21},"8477":{"zip_code":"5008477","prefecture":"岐阜県","prefecture_kana":"ギフケン","city":"岐阜市","city_kana":"ギフシ","town":"加納水野町","town_kana":"カノウミズノマチ","prefecture_code":21},"8426":{"zip_code":"5008426","prefecture":"岐阜県","prefecture_kana":"ギフケン","city":"岐阜市","city_kana":"ギフシ","town":"加納南広江町","town_kana":"カノウミナミヒロエチョウ","prefecture_code":21},"8458":{"zip_code":"5008458","prefecture":"岐阜県","prefecture_kana":"ギフケン","city":"岐阜市","city_kana":"ギフシ","town":"加納村松町","town_kana":"カノウムラマツチョウ","prefecture_code":21},"8424":{"zip_code":"5008424","prefecture":"岐阜県","prefecture_kana":"ギフケン","city":"岐阜市","city_kana":"ギフシ","town":"加納柳町","town_kana":"カノウヤナギマチ","prefecture_code":21},"8273":{"zip_code":"5008273","prefecture":"岐阜県","prefecture_kana":"ギフケン","city":"岐阜市","city_kana":"ギフシ","town":"加納矢場町","town_kana":"カノウヤバチョウ","prefecture_code":21},"8469":{"zip_code":"5008469","prefecture":"岐阜県","prefecture_kana":"ギフケン","city":"岐阜市","city_kana":"ギフシ","town":"加納竜興町","town_kana":"カノウリュウコウチョウ","prefecture_code":21},"8839":{"zip_code":"5008839","prefecture":"岐阜県","prefecture_kana":"ギフケン","city":"岐阜市","city_kana":"ギフシ","town":"蕪城町","town_kana":"カブラギチョウ","prefecture_code":21},"8026":{"zip_code":"5008026","prefecture":"岐阜県","prefecture_kana":"ギフケン","city":"岐阜市","city_kana":"ギフシ","town":"上大久和町","town_kana":"カミオオクワチョウ","prefecture_code":21},"8068":{"zip_code":"5008068","prefecture":"岐阜県","prefecture_kana":"ギフケン","city":"岐阜市","city_kana":"ギフシ","town":"上太田町","town_kana":"カミオオタマチ","prefecture_code":21},"8121":{"zip_code":"5008121","prefecture":"岐阜県","prefecture_kana":"ギフケン","city":"岐阜市","city_kana":"ギフシ","town":"上加納山","town_kana":"カミカノウヤマ","prefecture_code":21},"8245":{"zip_code":"5008245","prefecture":"岐阜県","prefecture_kana":"ギフケン","city":"岐阜市","city_kana":"ギフシ","town":"上川手","town_kana":"カミカワテ","prefecture_code":21},"8005":{"zip_code":"5008005","prefecture":"岐阜県","prefecture_kana":"ギフケン","city":"岐阜市","city_kana":"ギフシ","town":"上材木町","town_kana":"カミザイモクチョウ","prefecture_code":21},"8024":{"zip_code":"5008024","prefecture":"岐阜県","prefecture_kana":"ギフケン","city":"岐阜市","city_kana":"ギフシ","town":"上新町","town_kana":"カミシンマチ","prefecture_code":21},"8057":{"zip_code":"5008057","prefecture":"岐阜県","prefecture_kana":"ギフケン","city":"岐阜市","city_kana":"ギフシ","town":"上竹町","town_kana":"カミタケチョウ","prefecture_code":21},"8049":{"zip_code":"5008049","prefecture":"岐阜県","prefecture_kana":"ギフケン","city":"岐阜市","city_kana":"ギフシ","town":"上竹屋町","town_kana":"カミタケヤチョウ","prefecture_code":21},"8021":{"zip_code":"5008021","prefecture":"岐阜県","prefecture_kana":"ギフケン","city":"岐阜市","city_kana":"ギフシ","town":"上茶屋町","town_kana":"カミチャヤマチ","prefecture_code":21},"8878":{"zip_code":"5008878","prefecture":"岐阜県","prefecture_kana":"ギフケン","city":"岐阜市","city_kana":"ギフシ","town":"神室町","town_kana":"カムロチョウ","prefecture_code":21},"8404":{"zip_code":"5008404","prefecture":"岐阜県","prefecture_kana":"ギフケン","city":"岐阜市","city_kana":"ギフシ","town":"華陽","town_kana":"カヨウ","prefecture_code":21},"8108":{"zip_code":"5008108","prefecture":"岐阜県","prefecture_kana":"ギフケン","city":"岐阜市","city_kana":"ギフシ","town":"川端町","town_kana":"カワバタチョウ","prefecture_code":21},"8833":{"zip_code":"5008833","prefecture":"岐阜県","prefecture_kana":"ギフケン","city":"岐阜市","city_kana":"ギフシ","town":"神田町","town_kana":"カンダマチ","prefecture_code":21},"8321":{"zip_code":"5008321","prefecture":"岐阜県","prefecture_kana":"ギフケン","city":"岐阜市","city_kana":"ギフシ","town":"菊井町","town_kana":"キクイチョウ","prefecture_code":21},"8345":{"zip_code":"5008345","prefecture":"岐阜県","prefecture_kana":"ギフケン","city":"岐阜市","city_kana":"ギフシ","town":"菊地町","town_kana":"キクチチョウ","prefecture_code":21},"8327":{"zip_code":"5008327","prefecture":"岐阜県","prefecture_kana":"ギフケン","city":"岐阜市","city_kana":"ギフシ","town":"如月町","town_kana":"キサラギチョウ","prefecture_code":21},"8227":{"zip_code":"5008227","prefecture":"岐阜県","prefecture_kana":"ギフケン","city":"岐阜市","city_kana":"ギフシ","town":"北一色","town_kana":"キタイッシキ","prefecture_code":21},"8287":{"zip_code":"5008287","prefecture":"岐阜県","prefecture_kana":"ギフケン","city":"岐阜市","city_kana":"ギフシ","town":"北鶉","town_kana":"キタウズラ","prefecture_code":21},"8807":{"zip_code":"5008807","prefecture":"岐阜県","prefecture_kana":"ギフケン","city":"岐阜市","city_kana":"ギフシ","town":"北野町","town_kana":"キタノマチ","prefecture_code":21},"8824":{"zip_code":"5008824","prefecture":"岐阜県","prefecture_kana":"ギフケン","city":"岐阜市","city_kana":"ギフシ","town":"北八ツ寺町","town_kana":"キタヤツデラマチ","prefecture_code":21},"8086":{"zip_code":"5008086","prefecture":"岐阜県","prefecture_kana":"ギフケン","city":"岐阜市","city_kana":"ギフシ","town":"木造町","town_kana":"キヅクリチョウ","prefecture_code":21},"8156":{"zip_code":"5008156","prefecture":"岐阜県","prefecture_kana":"ギフケン","city":"岐阜市","city_kana":"ギフシ","town":"祈年町","town_kana":"キネンチョウ","prefecture_code":21},"8154":{"zip_code":"5008154","prefecture":"岐阜県","prefecture_kana":"ギフケン","city":"岐阜市","city_kana":"ギフシ","town":"木ノ下町","town_kana":"キノシタチョウ","prefecture_code":21},"8867":{"zip_code":"5008867","prefecture":"岐阜県","prefecture_kana":"ギフケン","city":"岐阜市","city_kana":"ギフシ","town":"木ノ本町","town_kana":"キノモトチョウ","prefecture_code":21},"8804":{"zip_code":"5008804","prefecture":"岐阜県","prefecture_kana":"ギフケン","city":"岐阜市","city_kana":"ギフシ","town":"京町","town_kana":"キョウマチ","prefecture_code":21},"8846":{"zip_code":"5008846","prefecture":"岐阜県","prefecture_kana":"ギフケン","city":"岐阜市","city_kana":"ギフシ","town":"玉姓町","town_kana":"ギョクセイチョウ","prefecture_code":21},"8178":{"zip_code":"5008178","prefecture":"岐阜県","prefecture_kana":"ギフケン","city":"岐阜市","city_kana":"ギフシ","town":"清住町","town_kana":"キヨズミチョウ","prefecture_code":21},"8237":{"zip_code":"5008237","prefecture":"岐阜県","prefecture_kana":"ギフケン","city":"岐阜市","city_kana":"ギフシ","town":"切通","town_kana":"キリドオシ","prefecture_code":21},"8847":{"zip_code":"5008847","prefecture":"岐阜県","prefecture_kana":"ギフケン","city":"岐阜市","city_kana":"ギフシ","town":"金宝町","town_kana":"キンポウチョウ","prefecture_code":21},"8114":{"zip_code":"5008114","prefecture":"岐阜県","prefecture_kana":"ギフケン","city":"岐阜市","city_kana":"ギフシ","town":"金竜町","town_kana":"キンリュウチョウ","prefecture_code":21},"8349":{"zip_code":"5008349","prefecture":"岐阜県","prefecture_kana":"ギフケン","city":"岐阜市","city_kana":"ギフシ","town":"久保見町","town_kana":"クボミチョウ","prefecture_code":21},"8372":{"zip_code":"5008372","prefecture":"岐阜県","prefecture_kana":"ギフケン","city":"岐阜市","city_kana":"ギフシ","town":"熊野町","town_kana":"クマノチョウ","prefecture_code":21},"8145":{"zip_code":"5008145","prefecture":"岐阜県","prefecture_kana":"ギフケン","city":"岐阜市","city_kana":"ギフシ","town":"雲井町","town_kana":"クモイチョウ","prefecture_code":21},"8233":{"zip_code":"5008233","prefecture":"岐阜県","prefecture_kana":"ギフケン","city":"岐阜市","city_kana":"ギフシ","town":"蔵前","town_kana":"クラノマエ","prefecture_code":21},"8174":{"zip_code":"5008174","prefecture":"岐阜県","prefecture_kana":"ギフケン","city":"岐阜市","city_kana":"ギフシ","town":"栗矢田町","town_kana":"クリヤダチョウ","prefecture_code":21},"8081":{"zip_code":"5008081","prefecture":"岐阜県","prefecture_kana":"ギフケン","city":"岐阜市","city_kana":"ギフシ","town":"啓運町","town_kana":"ケイウンチョウ","prefecture_code":21},"8107":{"zip_code":"5008107","prefecture":"岐阜県","prefecture_kana":"ギフケン","city":"岐阜市","city_kana":"ギフシ","town":"高岩町","town_kana":"コウガンチョウ","prefecture_code":21},"8254":{"zip_code":"5008254","prefecture":"岐阜県","prefecture_kana":"ギフケン","city":"岐阜市","city_kana":"ギフシ","town":"光樹町","town_kana":"コウキチョウ","prefecture_code":21},"8409":{"zip_code":"5008409","prefecture":"岐阜県","prefecture_kana":"ギフケン","city":"岐阜市","city_kana":"ギフシ","town":"幸ノ町","town_kana":"コウノマチ","prefecture_code":21},"8868":{"zip_code":"5008868","prefecture":"岐阜県","prefecture_kana":"ギフケン","city":"岐阜市","city_kana":"ギフシ","town":"光明町","town_kana":"コウメイチョウ","prefecture_code":21},"8434":{"zip_code":"5008434","prefecture":"岐阜県","prefecture_kana":"ギフケン","city":"岐阜市","city_kana":"ギフシ","town":"向陽町","town_kana":"コウヨウチョウ","prefecture_code":21},"8891":{"zip_code":"5008891","prefecture":"岐阜県","prefecture_kana":"ギフケン","city":"岐阜市","city_kana":"ギフシ","town":"香蘭","town_kana":"コウラン","prefecture_code":21},"8842":{"zip_code":"5008842","prefecture":"岐阜県","prefecture_kana":"ギフケン","city":"岐阜市","city_kana":"ギフシ","town":"金町","town_kana":"コガネマチ","prefecture_code":21},"8146":{"zip_code":"5008146","prefecture":"岐阜県","prefecture_kana":"ギフケン","city":"岐阜市","city_kana":"ギフシ","town":"九重町","town_kana":"ココノエチョウ","prefecture_code":21},"8328":{"zip_code":"5008328","prefecture":"岐阜県","prefecture_kana":"ギフケン","city":"岐阜市","city_kana":"ギフシ","town":"五反田町","town_kana":"ゴタンダチョウ","prefecture_code":21},"8157":{"zip_code":"5008157","prefecture":"岐阜県","prefecture_kana":"ギフケン","city":"岐阜市","city_kana":"ギフシ","town":"五坪町","town_kana":"ゴツボチョウ","prefecture_code":21},"8222":{"zip_code":"5008222","prefecture":"岐阜県","prefecture_kana":"ギフケン","city":"岐阜市","city_kana":"ギフシ","town":"琴塚","town_kana":"コトヅカ","prefecture_code":21},"8325":{"zip_code":"5008325","prefecture":"岐阜県","prefecture_kana":"ギフケン","city":"岐阜市","city_kana":"ギフシ","town":"寿町","town_kana":"コトブキチョウ","prefecture_code":21},"8333":{"zip_code":"5008333","prefecture":"岐阜県","prefecture_kana":"ギフケン","city":"岐阜市","city_kana":"ギフシ","town":"此花町","town_kana":"コノハナチョウ","prefecture_code":21},"8011":{"zip_code":"5008011","prefecture":"岐阜県","prefecture_kana":"ギフケン","city":"岐阜市","city_kana":"ギフシ","town":"木挽町","town_kana":"コビキチョウ","prefecture_code":21},"8046":{"zip_code":"5008046","prefecture":"岐阜県","prefecture_kana":"ギフケン","city":"岐阜市","city_kana":"ギフシ","town":"米屋町","town_kana":"コメヤチョウ","prefecture_code":21},"8832":{"zip_code":"5008832","prefecture":"岐阜県","prefecture_kana":"ギフケン","city":"岐阜市","city_kana":"ギフシ","town":"小柳町","town_kana":"コヤナギチョウ","prefecture_code":21},"8379":{"zip_code":"5008379","prefecture":"岐阜県","prefecture_kana":"ギフケン","city":"岐阜市","city_kana":"ギフシ","town":"権現町","town_kana":"ゴンゲンチョウ","prefecture_code":21},"8266":{"zip_code":"5008266","prefecture":"岐阜県","prefecture_kana":"ギフケン","city":"岐阜市","city_kana":"ギフシ","town":"境川","town_kana":"サカイガワ","prefecture_code":21},"8857":{"zip_code":"5008857","prefecture":"岐阜県","prefecture_kana":"ギフケン","city":"岐阜市","city_kana":"ギフシ","town":"坂井町","town_kana":"サカイマチ","prefecture_code":21},"8872":{"zip_code":"5008872","prefecture":"岐阜県","prefecture_kana":"ギフケン","city":"岐阜市","city_kana":"ギフシ","town":"栄枝町","town_kana":"サカエダチョウ","prefecture_code":21},"8803":{"zip_code":"5008803","prefecture":"岐阜県","prefecture_kana":"ギフケン","city":"岐阜市","city_kana":"ギフシ","town":"佐久間町","town_kana":"サクマチョウ","prefecture_code":21},"8319":{"zip_code":"5008319","prefecture":"岐阜県","prefecture_kana":"ギフケン","city":"岐阜市","city_kana":"ギフシ","town":"早田","town_kana":"ソウデン","prefecture_code":21},"8318":{"zip_code":"5008318","prefecture":"岐阜県","prefecture_kana":"ギフケン","city":"岐阜市","city_kana":"ギフシ","town":"桜通","town_kana":"サクラドオリ","prefecture_code":21},"8055":{"zip_code":"5008055","prefecture":"岐阜県","prefecture_kana":"ギフケン","city":"岐阜市","city_kana":"ギフシ","town":"笹土居町","town_kana":"ササドイチョウ","prefecture_code":21},"8324":{"zip_code":"5008324","prefecture":"岐阜県","prefecture_kana":"ギフケン","city":"岐阜市","city_kana":"ギフシ","town":"早苗町","town_kana":"サナエチョウ","prefecture_code":21},"8189":{"zip_code":"5008189","prefecture":"岐阜県","prefecture_kana":"ギフケン","city":"岐阜市","city_kana":"ギフシ","town":"三番町","town_kana":"サンバンチョウ","prefecture_code":21},"8127":{"zip_code":"5008127","prefecture":"岐阜県","prefecture_kana":"ギフケン","city":"岐阜市","city_kana":"ギフシ","town":"塩町","town_kana":"シオマチ","prefecture_code":21},"8369":{"zip_code":"5008369","prefecture":"岐阜県","prefecture_kana":"ギフケン","city":"岐阜市","city_kana":"ギフシ","town":"敷島町","town_kana":"シキシマチョウ","prefecture_code":21},"8423":{"zip_code":"5008423","prefecture":"岐阜県","prefecture_kana":"ギフケン","city":"岐阜市","city_kana":"ギフシ","town":"渋谷町","town_kana":"シブヤチョウ","prefecture_code":21},"8316":{"zip_code":"5008316","prefecture":"岐阜県","prefecture_kana":"ギフケン","city":"岐阜市","city_kana":"ギフシ","town":"島田中町","town_kana":"シマダナカマチ","prefecture_code":21},"8315":{"zip_code":"5008315","prefecture":"岐阜県","prefecture_kana":"ギフケン","city":"岐阜市","city_kana":"ギフシ","town":"島田東町","town_kana":"シマダヒガシマチ","prefecture_code":21},"8317":{"zip_code":"5008317","prefecture":"岐阜県","prefecture_kana":"ギフケン","city":"岐阜市","city_kana":"ギフシ","town":"島田西町","town_kana":"シマダニシマチ","prefecture_code":21},"8438":{"zip_code":"5008438","prefecture":"岐阜県","prefecture_kana":"ギフケン","city":"岐阜市","city_kana":"ギフシ","town":"島原町","town_kana":"シマバラチョウ","prefecture_code":21},"8039":{"zip_code":"5008039","prefecture":"岐阜県","prefecture_kana":"ギフケン","city":"岐阜市","city_kana":"ギフシ","town":"下大桑町","town_kana":"シモオオクワチョウ","prefecture_code":21},"8066":{"zip_code":"5008066","prefecture":"岐阜県","prefecture_kana":"ギフケン","city":"岐阜市","city_kana":"ギフシ","town":"下太田町","town_kana":"シモオオタマチ","prefecture_code":21},"8246":{"zip_code":"5008246","prefecture":"岐阜県","prefecture_kana":"ギフケン","city":"岐阜市","city_kana":"ギフシ","town":"下川手","town_kana":"シモカワテ","prefecture_code":21},"8037":{"zip_code":"5008037","prefecture":"岐阜県","prefecture_kana":"ギフケン","city":"岐阜市","city_kana":"ギフシ","town":"下新町","town_kana":"シモシンマチ","prefecture_code":21},"8056":{"zip_code":"5008056","prefecture":"岐阜県","prefecture_kana":"ギフケン","city":"岐阜市","city_kana":"ギフシ","town":"下竹町","town_kana":"シモタケチョウ","prefecture_code":21},"8022":{"zip_code":"5008022","prefecture":"岐阜県","prefecture_kana":"ギフケン","city":"岐阜市","city_kana":"ギフシ","town":"下茶屋町","town_kana":"シモチャヤマチ","prefecture_code":21},"8385":{"zip_code":"5008385","prefecture":"岐阜県","prefecture_kana":"ギフケン","city":"岐阜市","city_kana":"ギフシ","town":"下奈良","town_kana":"シモナラ","prefecture_code":21},"8412":{"zip_code":"5008412","prefecture":"岐阜県","prefecture_kana":"ギフケン","city":"岐阜市","city_kana":"ギフシ","town":"松鴻町","town_kana":"ショウコウチョウ","prefecture_code":21},"8441":{"zip_code":"5008441","prefecture":"岐阜県","prefecture_kana":"ギフケン","city":"岐阜市","city_kana":"ギフシ","town":"城東通","town_kana":"ジョウトウドオリ","prefecture_code":21},"8442":{"zip_code":"5008442","prefecture":"岐阜県","prefecture_kana":"ギフケン","city":"岐阜市","city_kana":"ギフシ","town":"正法寺町","town_kana":"ショウホウジチョウ","prefecture_code":21},"8125":{"zip_code":"5008125","prefecture":"岐阜県","prefecture_kana":"ギフケン","city":"岐阜市","city_kana":"ギフシ","town":"城望町","town_kana":"ジョウボウチョウ","prefecture_code":21},"8865":{"zip_code":"5008865","prefecture":"岐阜県","prefecture_kana":"ギフケン","city":"岐阜市","city_kana":"ギフシ","town":"昭和町","town_kana":"ショウワマチ","prefecture_code":21},"8085":{"zip_code":"5008085","prefecture":"岐阜県","prefecture_kana":"ギフケン","city":"岐阜市","city_kana":"ギフシ","town":"白木町","town_kana":"シラキチョウ","prefecture_code":21},"8874":{"zip_code":"5008874","prefecture":"岐阜県","prefecture_kana":"ギフケン","city":"岐阜市","city_kana":"ギフシ","town":"銀町","town_kana":"シロガネマチ","prefecture_code":21},"8036":{"zip_code":"5008036","prefecture":"岐阜県","prefecture_kana":"ギフケン","city":"岐阜市","city_kana":"ギフシ","town":"甚衛町","town_kana":"ジンエイチョウ","prefecture_code":21},"8375":{"zip_code":"5008375","prefecture":"岐阜県","prefecture_kana":"ギフケン","city":"岐阜市","city_kana":"ギフシ","town":"新興町","town_kana":"シンコウチョウ","prefecture_code":21},"8855":{"zip_code":"5008855","prefecture":"岐阜県","prefecture_kana":"ギフケン","city":"岐阜市","city_kana":"ギフシ","town":"新栄町","town_kana":"シンサカエマチ","prefecture_code":21},"8045":{"zip_code":"5008045","prefecture":"岐阜県","prefecture_kana":"ギフケン","city":"岐阜市","city_kana":"ギフシ","town":"新桜町","town_kana":"シンサクラマチ","prefecture_code":21},"8848":{"zip_code":"5008848","prefecture":"岐阜県","prefecture_kana":"ギフケン","city":"岐阜市","city_kana":"ギフシ","town":"神明町","town_kana":"シンメイチョウ","prefecture_code":21},"8143":{"zip_code":"5008143","prefecture":"岐阜県","prefecture_kana":"ギフケン","city":"岐阜市","city_kana":"ギフシ","town":"瑞雲町","town_kana":"ズイウンチョウ","prefecture_code":21},"8042":{"zip_code":"5008042","prefecture":"岐阜県","prefecture_kana":"ギフケン","city":"岐阜市","city_kana":"ギフシ","town":"末広町","town_kana":"スエヒロチョウ","prefecture_code":21},"8289":{"zip_code":"5008289","prefecture":"岐阜県","prefecture_kana":"ギフケン","city":"岐阜市","city_kana":"ギフシ","town":"須賀","town_kana":"スガ","prefecture_code":21},"8816":{"zip_code":"5008816","prefecture":"岐阜県","prefecture_kana":"ギフケン","city":"岐阜市","city_kana":"ギフシ","town":"菅原町","town_kana":"スガハラチョウ","prefecture_code":21},"8829":{"zip_code":"5008829","prefecture":"岐阜県","prefecture_kana":"ギフケン","city":"岐阜市","city_kana":"ギフシ","town":"杉山町","town_kana":"スギヤマチョウ","prefecture_code":21},"8843":{"zip_code":"5008843","prefecture":"岐阜県","prefecture_kana":"ギフケン","city":"岐阜市","city_kana":"ギフシ","town":"住田町","town_kana":"スミダマチ","prefecture_code":21},"8408":{"zip_code":"5008408","prefecture":"岐阜県","prefecture_kana":"ギフケン","city":"岐阜市","city_kana":"ギフシ","town":"住ノ江町","town_kana":"スミノエチョウ","prefecture_code":21},"8826":{"zip_code":"5008826","prefecture":"岐阜県","prefecture_kana":"ギフケン","city":"岐阜市","city_kana":"ギフシ","town":"住吉町","town_kana":"スミヨシチョウ","prefecture_code":21},"8051":{"zip_code":"5008051","prefecture":"岐阜県","prefecture_kana":"ギフケン","city":"岐阜市","city_kana":"ギフシ","town":"駿河山","town_kana":"スルガヤマ","prefecture_code":21},"8346":{"zip_code":"5008346","prefecture":"岐阜県","prefecture_kana":"ギフケン","city":"岐阜市","city_kana":"ギフシ","town":"清","town_kana":"セイ","prefecture_code":21},"8351":{"zip_code":"5008351","prefecture":"岐阜県","prefecture_kana":"ギフケン","city":"岐阜市","city_kana":"ギフシ","town":"清本町","town_kana":"セイホンマチ","prefecture_code":21},"8819":{"zip_code":"5008819","prefecture":"岐阜県","prefecture_kana":"ギフケン","city":"岐阜市","city_kana":"ギフシ","town":"千石町","town_kana":"センゴクチョウ","prefecture_code":21},"8862":{"zip_code":"5008862","prefecture":"岐阜県","prefecture_kana":"ギフケン","city":"岐阜市","city_kana":"ギフシ","town":"千手堂中町","town_kana":"センジュドウナカマチ","prefecture_code":21},"8863":{"zip_code":"5008863","prefecture":"岐阜県","prefecture_kana":"ギフケン","city":"岐阜市","city_kana":"ギフシ","town":"千手堂南町","town_kana":"センジュドウミナミマチ","prefecture_code":21},"8861":{"zip_code":"5008861","prefecture":"岐阜県","prefecture_kana":"ギフケン","city":"岐阜市","city_kana":"ギフシ","town":"千手堂北町","town_kana":"センジュドウキタマチ","prefecture_code":21},"8004":{"zip_code":"5008004","prefecture":"岐阜県","prefecture_kana":"ギフケン","city":"岐阜市","city_kana":"ギフシ","town":"千畳敷","town_kana":"センジョウジキ","prefecture_code":21},"8038":{"zip_code":"5008038","prefecture":"岐阜県","prefecture_kana":"ギフケン","city":"岐阜市","city_kana":"ギフシ","town":"大工町","town_kana":"ダイクチョウ","prefecture_code":21},"8151":{"zip_code":"5008151","prefecture":"岐阜県","prefecture_kana":"ギフケン","city":"岐阜市","city_kana":"ギフシ","town":"大黒町","town_kana":"ダイコクマチ","prefecture_code":21},"8871":{"zip_code":"5008871","prefecture":"岐阜県","prefecture_kana":"ギフケン","city":"岐阜市","city_kana":"ギフシ","town":"大正町","town_kana":"タイショウマチ","prefecture_code":21},"8018":{"zip_code":"5008018","prefecture":"岐阜県","prefecture_kana":"ギフケン","city":"岐阜市","city_kana":"ギフシ","town":"大仏町","town_kana":"ダイブツチョウ","prefecture_code":21},"8851":{"zip_code":"5008851","prefecture":"岐阜県","prefecture_kana":"ギフケン","city":"岐阜市","city_kana":"ギフシ","town":"大宝町","town_kana":"ダイホウチョウ","prefecture_code":21},"8054":{"zip_code":"5008054","prefecture":"岐阜県","prefecture_kana":"ギフケン","city":"岐阜市","city_kana":"ギフシ","town":"大門町","town_kana":"ダイモンチョウ","prefecture_code":21},"8162":{"zip_code":"5008162","prefecture":"岐阜県","prefecture_kana":"ギフケン","city":"岐阜市","city_kana":"ギフシ","town":"高尾町","town_kana":"タカオチョウ","prefecture_code":21},"8407":{"zip_code":"5008407","prefecture":"岐阜県","prefecture_kana":"ギフケン","city":"岐阜市","city_kana":"ギフシ","town":"高砂町","town_kana":"タカサゴチョウ","prefecture_code":21},"8224":{"zip_code":"5008224","prefecture":"岐阜県","prefecture_kana":"ギフケン","city":"岐阜市","city_kana":"ギフシ","town":"高田","town_kana":"タカタ","prefecture_code":21},"8841":{"zip_code":"5008841","prefecture":"岐阜県","prefecture_kana":"ギフケン","city":"岐阜市","city_kana":"ギフシ","town":"高野町","town_kana":"タカノマチ","prefecture_code":21},"8821":{"zip_code":"5008821","prefecture":"岐阜県","prefecture_kana":"ギフケン","city":"岐阜市","city_kana":"ギフシ","town":"鷹見町","town_kana":"タカミチョウ","prefecture_code":21},"8171":{"zip_code":"5008171","prefecture":"岐阜県","prefecture_kana":"ギフケン","city":"岐阜市","city_kana":"ギフシ","town":"高森町","town_kana":"タカモリチョウ","prefecture_code":21},"8101":{"zip_code":"5008101","prefecture":"岐阜県","prefecture_kana":"ギフケン","city":"岐阜市","city_kana":"ギフシ","town":"多賀町","town_kana":"タガマチ","prefecture_code":21},"8158":{"zip_code":"5008158","prefecture":"岐阜県","prefecture_kana":"ギフケン","city":"岐阜市","city_kana":"ギフシ","town":"田神","town_kana":"タガミ","prefecture_code":21},"8159":{"zip_code":"5008159","prefecture":"岐阜県","prefecture_kana":"ギフケン","city":"岐阜市","city_kana":"ギフシ","town":"田神町","town_kana":"タガミチョウ","prefecture_code":21},"8173":{"zip_code":"5008173","prefecture":"岐阜県","prefecture_kana":"ギフケン","city":"岐阜市","city_kana":"ギフシ","town":"田生越町","town_kana":"タショウゴエチョウ","prefecture_code":21},"8402":{"zip_code":"5008402","prefecture":"岐阜県","prefecture_kana":"ギフケン","city":"岐阜市","city_kana":"ギフシ","town":"竜田町","town_kana":"タツタマチ","prefecture_code":21},"8115":{"zip_code":"5008115","prefecture":"岐阜県","prefecture_kana":"ギフケン","city":"岐阜市","city_kana":"ギフシ","town":"田端町","town_kana":"タバタチョウ","prefecture_code":21},"8008":{"zip_code":"5008008","prefecture":"岐阜県","prefecture_kana":"ギフケン","city":"岐阜市","city_kana":"ギフシ","town":"玉井町","town_kana":"タマイチョウ","prefecture_code":21},"8835":{"zip_code":"5008835","prefecture":"岐阜県","prefecture_kana":"ギフケン","city":"岐阜市","city_kana":"ギフシ","town":"玉宮町","town_kana":"タマミヤチョウ","prefecture_code":21},"8837":{"zip_code":"5008837","prefecture":"岐阜県","prefecture_kana":"ギフケン","city":"岐阜市","city_kana":"ギフシ","town":"玉森町","town_kana":"タマモリチョウ","prefecture_code":21},"8339":{"zip_code":"5008339","prefecture":"岐阜県","prefecture_kana":"ギフケン","city":"岐阜市","city_kana":"ギフシ","town":"千鳥町","town_kana":"チドリチョウ","prefecture_code":21},"8805":{"zip_code":"5008805","prefecture":"岐阜県","prefecture_kana":"ギフケン","city":"岐阜市","city_kana":"ギフシ","town":"忠節三丁目南町","town_kana":"チュウセツサンチョウメミナミマチ","prefecture_code":21},"8801":{"zip_code":"5008801","prefecture":"岐阜県","prefecture_kana":"ギフケン","city":"岐阜市","city_kana":"ギフシ","town":"忠節町","town_kana":"チュウセツチョウ","prefecture_code":21},"8311":{"zip_code":"5008311","prefecture":"岐阜県","prefecture_kana":"ギフケン","city":"岐阜市","city_kana":"ギフシ","town":"長者町","town_kana":"チョウジャマチ","prefecture_code":21},"8076":{"zip_code":"5008076","prefecture":"岐阜県","prefecture_kana":"ギフケン","city":"岐阜市","city_kana":"ギフシ","town":"司町","town_kana":"ツカサマチ","prefecture_code":21},"8141":{"zip_code":"5008141","prefecture":"岐阜県","prefecture_kana":"ギフケン","city":"岐阜市","city_kana":"ギフシ","town":"月丘町","town_kana":"ツキオカチョウ","prefecture_code":21},"8131":{"zip_code":"5008131","prefecture":"岐阜県","prefecture_kana":"ギフケン","city":"岐阜市","city_kana":"ギフシ","town":"月ノ会町","town_kana":"ツキノエチョウ","prefecture_code":21},"8363":{"zip_code":"5008363","prefecture":"岐阜県","prefecture_kana":"ギフケン","city":"岐阜市","city_kana":"ギフシ","town":"爪","town_kana":"ツメ","prefecture_code":21},"8164":{"zip_code":"5008164","prefecture":"岐阜県","prefecture_kana":"ギフケン","city":"岐阜市","city_kana":"ギフシ","town":"鶴田町","town_kana":"ツルタマチ","prefecture_code":21},"8163":{"zip_code":"5008163","prefecture":"岐阜県","prefecture_kana":"ギフケン","city":"岐阜市","city_kana":"ギフシ","town":"鶴舞町","town_kana":"ツルマイチョウ","prefecture_code":21},"8129":{"zip_code":"5008129","prefecture":"岐阜県","prefecture_kana":"ギフケン","city":"岐阜市","city_kana":"ギフシ","town":"鶴見町","town_kana":"ツルミチョウ","prefecture_code":21},"8006":{"zip_code":"5008006","prefecture":"岐阜県","prefecture_kana":"ギフケン","city":"岐阜市","city_kana":"ギフシ","town":"堤外","town_kana":"テイガイ","prefecture_code":21},"8236":{"zip_code":"5008236","prefecture":"岐阜県","prefecture_kana":"ギフケン","city":"岐阜市","city_kana":"ギフシ","town":"手力町","town_kana":"テヂカラチョウ","prefecture_code":21},"8879":{"zip_code":"5008879","prefecture":"岐阜県","prefecture_kana":"ギフケン","city":"岐阜市","city_kana":"ギフシ","town":"徹明通","town_kana":"テツメイドオリ","prefecture_code":21},"8866":{"zip_code":"5008866","prefecture":"岐阜県","prefecture_kana":"ギフケン","city":"岐阜市","city_kana":"ギフシ","town":"寺島町","town_kana":"テラジマチョウ","prefecture_code":21},"8118":{"zip_code":"5008118","prefecture":"岐阜県","prefecture_kana":"ギフケン","city":"岐阜市","city_kana":"ギフシ","town":"寺町","town_kana":"テラマチ","prefecture_code":21},"8806":{"zip_code":"5008806","prefecture":"岐阜県","prefecture_kana":"ギフケン","city":"岐阜市","city_kana":"ギフシ","town":"天神町","town_kana":"テンジンマチ","prefecture_code":21},"8166":{"zip_code":"5008166","prefecture":"岐阜県","prefecture_kana":"ギフケン","city":"岐阜市","city_kana":"ギフシ","town":"天王町","town_kana":"テンノウチョウ","prefecture_code":21},"8845":{"zip_code":"5008845","prefecture":"岐阜県","prefecture_kana":"ギフケン","city":"岐阜市","city_kana":"ギフシ","town":"問屋町","town_kana":"トイヤマチ","prefecture_code":21},"8144":{"zip_code":"5008144","prefecture":"岐阜県","prefecture_kana":"ギフケン","city":"岐阜市","city_kana":"ギフシ","town":"東栄町","town_kana":"トウエイチョウ","prefecture_code":21},"8137":{"zip_code":"5008137","prefecture":"岐阜県","prefecture_kana":"ギフケン","city":"岐阜市","city_kana":"ギフシ","town":"東興町","town_kana":"トウコウチョウ","prefecture_code":21},"8058":{"zip_code":"5008058","prefecture":"岐阜県","prefecture_kana":"ギフケン","city":"岐阜市","city_kana":"ギフシ","town":"常盤町","town_kana":"トキワチョウ","prefecture_code":21},"8116":{"zip_code":"5008116","prefecture":"岐阜県","prefecture_kana":"ギフケン","city":"岐阜市","city_kana":"ギフシ","town":"殿町","town_kana":"トノマチ","prefecture_code":21},"8376":{"zip_code":"5008376","prefecture":"岐阜県","prefecture_kana":"ギフケン","city":"岐阜市","city_kana":"ギフシ","town":"富沢町","town_kana":"トミザワチョウ","prefecture_code":21},"8374":{"zip_code":"5008374","prefecture":"岐阜県","prefecture_kana":"ギフケン","city":"岐阜市","city_kana":"ギフシ","town":"豊岡町","town_kana":"トヨオカチョウ","prefecture_code":21},"8288":{"zip_code":"5008288","prefecture":"岐阜県","prefecture_kana":"ギフケン","city":"岐阜市","city_kana":"ギフシ","town":"中鶉","town_kana":"ナカウズラ","prefecture_code":21},"8027":{"zip_code":"5008027","prefecture":"岐阜県","prefecture_kana":"ギフケン","city":"岐阜市","city_kana":"ギフシ","town":"中大桑町","town_kana":"ナカオオクワチョウ","prefecture_code":21},"8032":{"zip_code":"5008032","prefecture":"岐阜県","prefecture_kana":"ギフケン","city":"岐阜市","city_kana":"ギフシ","town":"中新町","town_kana":"ナカシンマチ","prefecture_code":21},"8448":{"zip_code":"5008448","prefecture":"岐阜県","prefecture_kana":"ギフケン","city":"岐阜市","city_kana":"ギフシ","town":"中洲町","town_kana":"ナカスチョウ","prefecture_code":21},"8047":{"zip_code":"5008047","prefecture":"岐阜県","prefecture_kana":"ギフケン","city":"岐阜市","city_kana":"ギフシ","town":"中竹屋町","town_kana":"ナカタケヤチョウ","prefecture_code":21},"8138":{"zip_code":"5008138","prefecture":"岐阜県","prefecture_kana":"ギフケン","city":"岐阜市","city_kana":"ギフシ","town":"中道北","town_kana":"ナカミチキタ","prefecture_code":21},"8175":{"zip_code":"5008175","prefecture":"岐阜県","prefecture_kana":"ギフケン","city":"岐阜市","city_kana":"ギフシ","town":"長住町","town_kana":"ナガズミチョウ","prefecture_code":21},"8808":{"zip_code":"5008808","prefecture":"岐阜県","prefecture_kana":"ギフケン","city":"岐阜市","city_kana":"ギフシ","town":"永田町","town_kana":"ナガタマチ","prefecture_code":21},"8177":{"zip_code":"5008177","prefecture":"岐阜県","prefecture_kana":"ギフケン","city":"岐阜市","city_kana":"ギフシ","town":"長旗町","town_kana":"ナガハタチョウ","prefecture_code":21},"8229":{"zip_code":"5008229","prefecture":"岐阜県","prefecture_kana":"ギフケン","city":"岐阜市","city_kana":"ギフシ","town":"長森岩戸","town_kana":"ナガモリイワド","prefecture_code":21},"8247":{"zip_code":"5008247","prefecture":"岐阜県","prefecture_kana":"ギフケン","city":"岐阜市","city_kana":"ギフシ","town":"長森細畑","town_kana":"ナガモリホソバタ","prefecture_code":21},"8228":{"zip_code":"5008228","prefecture":"岐阜県","prefecture_kana":"ギフケン","city":"岐阜市","city_kana":"ギフシ","town":"長森本町","town_kana":"ナガモリホンマチ","prefecture_code":21},"8301":{"zip_code":"5008301","prefecture":"岐阜県","prefecture_kana":"ギフケン","city":"岐阜市","city_kana":"ギフシ","town":"浪花町","town_kana":"ナニワチョウ","prefecture_code":21},"8432":{"zip_code":"5008432","prefecture":"岐阜県","prefecture_kana":"ギフケン","city":"岐阜市","city_kana":"ギフシ","town":"畷町","town_kana":"ナワテマチ","prefecture_code":21},"8444":{"zip_code":"5008444","prefecture":"岐阜県","prefecture_kana":"ギフケン","city":"岐阜市","city_kana":"ギフシ","town":"西明見町","town_kana":"ニシアケミチョウ","prefecture_code":21},"8286":{"zip_code":"5008286","prefecture":"岐阜県","prefecture_kana":"ギフケン","city":"岐阜市","city_kana":"ギフシ","town":"西鶉","town_kana":"ニシウズラ","prefecture_code":21},"8258":{"zip_code":"5008258","prefecture":"岐阜県","prefecture_kana":"ギフケン","city":"岐阜市","city_kana":"ギフシ","town":"西川手","town_kana":"ニシカワテ","prefecture_code":21},"8331":{"zip_code":"5008331","prefecture":"岐阜県","prefecture_kana":"ギフケン","city":"岐阜市","city_kana":"ギフシ","town":"錦町","town_kana":"ニシキチョウ","prefecture_code":21},"8184":{"zip_code":"5008184","prefecture":"岐阜県","prefecture_kana":"ギフケン","city":"岐阜市","city_kana":"ギフシ","town":"西駒爪町","town_kana":"ニシコマヅメチョウ","prefecture_code":21},"8028":{"zip_code":"5008028","prefecture":"岐阜県","prefecture_kana":"ギフケン","city":"岐阜市","city_kana":"ギフシ","town":"西材木町","town_kana":"ニシザイモクチョウ","prefecture_code":21},"8105":{"zip_code":"5008105","prefecture":"岐阜県","prefecture_kana":"ギフケン","city":"岐阜市","city_kana":"ギフシ","town":"西園町","town_kana":"ニシゾノチョウ","prefecture_code":21},"8836":{"zip_code":"5008836","prefecture":"岐阜県","prefecture_kana":"ギフケン","city":"岐阜市","city_kana":"ギフシ","town":"西玉宮町","town_kana":"ニシタマミヤチョウ","prefecture_code":21},"8853":{"zip_code":"5008853","prefecture":"岐阜県","prefecture_kana":"ギフケン","city":"岐阜市","city_kana":"ギフシ","town":"西問屋町","town_kana":"ニシトイヤマチ","prefecture_code":21},"8362":{"zip_code":"5008362","prefecture":"岐阜県","prefecture_kana":"ギフケン","city":"岐阜市","city_kana":"ギフシ","town":"西荘","town_kana":"ニシノショウ","prefecture_code":21},"8882":{"zip_code":"5008882","prefecture":"岐阜県","prefecture_kana":"ギフケン","city":"岐阜市","city_kana":"ギフシ","town":"西野町","town_kana":"ニシノマチ","prefecture_code":21},"8887":{"zip_code":"5008887","prefecture":"岐阜県","prefecture_kana":"ギフケン","city":"岐阜市","city_kana":"ギフシ","town":"西野町六丁目北町","town_kana":"ニシノマチロクチョウメキタマチ","prefecture_code":21},"8886":{"zip_code":"5008886","prefecture":"岐阜県","prefecture_kana":"ギフケン","city":"岐阜市","city_kana":"ギフシ","town":"西野町七丁目北町","town_kana":"ニシノマチナナチョウメキタマチ","prefecture_code":21},"8188":{"zip_code":"5008188","prefecture":"岐阜県","prefecture_kana":"ギフケン","city":"岐阜市","city_kana":"ギフシ","town":"二番町","town_kana":"ニバンチョウ","prefecture_code":21},"8035":{"zip_code":"5008035","prefecture":"岐阜県","prefecture_kana":"ギフケン","city":"岐阜市","city_kana":"ギフシ","town":"布屋町","town_kana":"ヌノヤチョウ","prefecture_code":21},"8226":{"zip_code":"5008226","prefecture":"岐阜県","prefecture_kana":"ギフケン","city":"岐阜市","city_kana":"ギフシ","town":"野一色","town_kana":"ノイッシキ","prefecture_code":21},"8111":{"zip_code":"5008111","prefecture":"岐阜県","prefecture_kana":"ギフケン","city":"岐阜市","city_kana":"ギフシ","town":"梅林","town_kana":"バイリン","prefecture_code":21},"8119":{"zip_code":"5008119","prefecture":"岐阜県","prefecture_kana":"ギフケン","city":"岐阜市","city_kana":"ギフシ","town":"梅林西町","town_kana":"バイリンニシマチ","prefecture_code":21},"8112":{"zip_code":"5008112","prefecture":"岐阜県","prefecture_kana":"ギフケン","city":"岐阜市","city_kana":"ギフシ","town":"梅林南町","town_kana":"バイリンミナミマチ","prefecture_code":21},"8172":{"zip_code":"5008172","prefecture":"岐阜県","prefecture_kana":"ギフケン","city":"岐阜市","city_kana":"ギフシ","town":"白山町","town_kana":"ハクサンチョウ","prefecture_code":21},"8332":{"zip_code":"5008332","prefecture":"岐阜県","prefecture_kana":"ギフケン","city":"岐阜市","city_kana":"ギフシ","town":"羽衣町","town_kana":"ハゴロモチョウ","prefecture_code":21},"8811":{"zip_code":"5008811","prefecture":"岐阜県","prefecture_kana":"ギフケン","city":"岐阜市","city_kana":"ギフシ","town":"端詰町","town_kana":"ハシヅメチョウ","prefecture_code":21},"8856":{"zip_code":"5008856","prefecture":"岐阜県","prefecture_kana":"ギフケン","city":"岐阜市","city_kana":"ギフシ","town":"橋本町","town_kana":"ハシモトチョウ","prefecture_code":21},"8838":{"zip_code":"5008838","prefecture":"岐阜県","prefecture_kana":"ギフケン","city":"岐阜市","city_kana":"ギフシ","town":"八幡町","town_kana":"ハチマンチョウ","prefecture_code":21},"8031":{"zip_code":"5008031","prefecture":"岐阜県","prefecture_kana":"ギフケン","city":"岐阜市","city_kana":"ギフシ","town":"蜂屋町","town_kana":"ハチヤチョウ","prefecture_code":21},"8062":{"zip_code":"5008062","prefecture":"岐阜県","prefecture_kana":"ギフケン","city":"岐阜市","city_kana":"ギフシ","town":"初音町","town_kana":"ハツネチョウ","prefecture_code":21},"8142":{"zip_code":"5008142","prefecture":"岐阜県","prefecture_kana":"ギフケン","city":"岐阜市","city_kana":"ギフシ","town":"花沢町","town_kana":"ハナザワチョウ","prefecture_code":21},"8854":{"zip_code":"5008854","prefecture":"岐阜県","prefecture_kana":"ギフケン","city":"岐阜市","city_kana":"ギフシ","town":"花園町","town_kana":"ハナゾノチョウ","prefecture_code":21},"8834":{"zip_code":"5008834","prefecture":"岐阜県","prefecture_kana":"ギフケン","city":"岐阜市","city_kana":"ギフシ","town":"羽根町","town_kana":"ハネマチ","prefecture_code":21},"8436":{"zip_code":"5008436","prefecture":"岐阜県","prefecture_kana":"ギフケン","city":"岐阜市","city_kana":"ギフシ","town":"東明見町","town_kana":"ヒガシアケミチョウ","prefecture_code":21},"8281":{"zip_code":"5008281","prefecture":"岐阜県","prefecture_kana":"ギフケン","city":"岐阜市","city_kana":"ギフシ","town":"東鶉","town_kana":"ヒガシウズラ","prefecture_code":21},"8257":{"zip_code":"5008257","prefecture":"岐阜県","prefecture_kana":"ギフケン","city":"岐阜市","city_kana":"ギフシ","town":"東川手","town_kana":"ヒガシカワテ","prefecture_code":21},"8167":{"zip_code":"5008167","prefecture":"岐阜県","prefecture_kana":"ギフケン","city":"岐阜市","city_kana":"ギフシ","town":"東金宝町","town_kana":"ヒガシキンポウチョウ","prefecture_code":21},"8106":{"zip_code":"5008106","prefecture":"岐阜県","prefecture_kana":"ギフケン","city":"岐阜市","city_kana":"ギフシ","town":"東高岩町","town_kana":"ヒガシコウガンチョウ","prefecture_code":21},"8168":{"zip_code":"5008168","prefecture":"岐阜県","prefecture_kana":"ギフケン","city":"岐阜市","city_kana":"ギフシ","town":"東駒爪町","town_kana":"ヒガシコマヅメチョウ","prefecture_code":21},"8029":{"zip_code":"5008029","prefecture":"岐阜県","prefecture_kana":"ギフケン","city":"岐阜市","city_kana":"ギフシ","town":"東材木町","town_kana":"ヒガシザイモクチョウ","prefecture_code":21},"8235":{"zip_code":"5008235","prefecture":"岐阜県","prefecture_kana":"ギフケン","city":"岐阜市","city_kana":"ギフシ","town":"東中島","town_kana":"ヒガシナカジマ","prefecture_code":21},"8025":{"zip_code":"5008025","prefecture":"岐阜県","prefecture_kana":"ギフケン","city":"岐阜市","city_kana":"ギフシ","town":"久屋町","town_kana":"ヒサヤチョウ","prefecture_code":21},"8074":{"zip_code":"5008074","prefecture":"岐阜県","prefecture_kana":"ギフケン","city":"岐阜市","city_kana":"ギフシ","town":"七軒町","town_kana":"ヒチケンチョウ","prefecture_code":21},"8207":{"zip_code":"5008207","prefecture":"岐阜県","prefecture_kana":"ギフケン","city":"岐阜市","city_kana":"ギフシ","town":"日野北","town_kana":"ヒノキタ","prefecture_code":21},"8213":{"zip_code":"5008213","prefecture":"岐阜県","prefecture_kana":"ギフケン","city":"岐阜市","city_kana":"ギフシ","town":"日野西","town_kana":"ヒノニシ","prefecture_code":21},"8211":{"zip_code":"5008211","prefecture":"岐阜県","prefecture_kana":"ギフケン","city":"岐阜市","city_kana":"ギフシ","town":"日野東","town_kana":"ヒノヒガシ","prefecture_code":21},"8212":{"zip_code":"5008212","prefecture":"岐阜県","prefecture_kana":"ギフケン","city":"岐阜市","city_kana":"ギフシ","town":"日野南","town_kana":"ヒノミナミ","prefecture_code":21},"8876":{"zip_code":"5008876","prefecture":"岐阜県","prefecture_kana":"ギフケン","city":"岐阜市","city_kana":"ギフシ","town":"日ノ出町","town_kana":"ヒノデマチ","prefecture_code":21},"8852":{"zip_code":"5008852","prefecture":"岐阜県","prefecture_kana":"ギフケン","city":"岐阜市","city_kana":"ギフシ","town":"日ノ本町","town_kana":"ヒノモトチョウ","prefecture_code":21},"8378":{"zip_code":"5008378","prefecture":"岐阜県","prefecture_kana":"ギフケン","city":"岐阜市","city_kana":"ギフシ","town":"雲雀ケ丘","town_kana":"ヒバリガオカ","prefecture_code":21},"8877":{"zip_code":"5008877","prefecture":"岐阜県","prefecture_kana":"ギフケン","city":"岐阜市","city_kana":"ギフシ","town":"雲雀町","town_kana":"ヒバリチョウ","prefecture_code":21},"8122":{"zip_code":"5008122","prefecture":"岐阜県","prefecture_kana":"ギフケン","city":"岐阜市","city_kana":"ギフシ","town":"旭見ケ池町","town_kana":"ヒミガイケチョウ","prefecture_code":21},"8809":{"zip_code":"5008809","prefecture":"岐阜県","prefecture_kana":"ギフケン","city":"岐阜市","city_kana":"ギフシ","town":"平河町","town_kana":"ヒラカワチョウ","prefecture_code":21},"8326":{"zip_code":"5008326","prefecture":"岐阜県","prefecture_kana":"ギフケン","city":"岐阜市","city_kana":"ギフシ","town":"吹上町","town_kana":"フキアゲチョウ","prefecture_code":21},"8858":{"zip_code":"5008858","prefecture":"岐阜県","prefecture_kana":"ギフケン","city":"岐阜市","city_kana":"ギフシ","town":"福住町","town_kana":"フクズミチョウ","prefecture_code":21},"8802":{"zip_code":"5008802","prefecture":"岐阜県","prefecture_kana":"ギフケン","city":"岐阜市","city_kana":"ギフシ","town":"不動町","town_kana":"フドウチョウ","prefecture_code":21},"8406":{"zip_code":"5008406","prefecture":"岐阜県","prefecture_kana":"ギフケン","city":"岐阜市","city_kana":"ギフシ","town":"平安町","town_kana":"ヘイアンチョウ","prefecture_code":21},"8307":{"zip_code":"5008307","prefecture":"岐阜県","prefecture_kana":"ギフケン","city":"岐阜市","city_kana":"ギフシ","town":"弁天町","town_kana":"ベンテンチョウ","prefecture_code":21},"8124":{"zip_code":"5008124","prefecture":"岐阜県","prefecture_kana":"ギフケン","city":"岐阜市","city_kana":"ギフシ","town":"宝来町","town_kana":"ホウライチョウ","prefecture_code":21},"8238":{"zip_code":"5008238","prefecture":"岐阜県","prefecture_kana":"ギフケン","city":"岐阜市","city_kana":"ギフシ","town":"細畑","town_kana":"ホソバタ","prefecture_code":21},"8243":{"zip_code":"5008243","prefecture":"岐阜県","prefecture_kana":"ギフケン","city":"岐阜市","city_kana":"ギフシ","town":"細畑華南","town_kana":"ホソバタカナン","prefecture_code":21},"8244":{"zip_code":"5008244","prefecture":"岐阜県","prefecture_kana":"ギフケン","city":"岐阜市","city_kana":"ギフシ","town":"細畑塚浦","town_kana":"ホソバタツカウラ","prefecture_code":21},"8242":{"zip_code":"5008242","prefecture":"岐阜県","prefecture_kana":"ギフケン","city":"岐阜市","city_kana":"ギフシ","town":"細畑野寄","town_kana":"ホソバタノヨリ","prefecture_code":21},"8087":{"zip_code":"5008087","prefecture":"岐阜県","prefecture_kana":"ギフケン","city":"岐阜市","city_kana":"ギフシ","town":"堀江町","town_kana":"ホリエチョウ","prefecture_code":21},"8302":{"zip_code":"5008302","prefecture":"岐阜県","prefecture_kana":"ギフケン","city":"岐阜市","city_kana":"ギフシ","town":"本郷町","town_kana":"ホンゴウチョウ","prefecture_code":21},"8389":{"zip_code":"5008389","prefecture":"岐阜県","prefecture_kana":"ギフケン","city":"岐阜市","city_kana":"ギフシ","town":"本荘","town_kana":"ホンジョウ","prefecture_code":21},"8364":{"zip_code":"5008364","prefecture":"岐阜県","prefecture_kana":"ギフケン","city":"岐阜市","city_kana":"ギフシ","town":"本荘中ノ町","town_kana":"ホンジョウナカノマチ","prefecture_code":21},"8361":{"zip_code":"5008361","prefecture":"岐阜県","prefecture_kana":"ギフケン","city":"岐阜市","city_kana":"ギフシ","town":"本荘西","town_kana":"ホンジョウニシ","prefecture_code":21},"8329":{"zip_code":"5008329","prefecture":"岐阜県","prefecture_kana":"ギフケン","city":"岐阜市","city_kana":"ギフシ","town":"本荘町","town_kana":"ホンジョウチョウ","prefecture_code":21},"8034":{"zip_code":"5008034","prefecture":"岐阜県","prefecture_kana":"ギフケン","city":"岐阜市","city_kana":"ギフシ","town":"本町","town_kana":"ホンマチ","prefecture_code":21},"8232":{"zip_code":"5008232","prefecture":"岐阜県","prefecture_kana":"ギフケン","city":"岐阜市","city_kana":"ギフシ","town":"前一色","town_kana":"マエイッシキ","prefecture_code":21},"8231":{"zip_code":"5008231","prefecture":"岐阜県","prefecture_kana":"ギフケン","city":"岐阜市","city_kana":"ギフシ","town":"前一色西町","town_kana":"マエイッシキニシマチ","prefecture_code":21},"8864":{"zip_code":"5008864","prefecture":"岐阜県","prefecture_kana":"ギフケン","city":"岐阜市","city_kana":"ギフシ","town":"真砂町","town_kana":"マサゴチョウ","prefecture_code":21},"8019":{"zip_code":"5008019","prefecture":"岐阜県","prefecture_kana":"ギフケン","city":"岐阜市","city_kana":"ギフシ","town":"益屋町","town_kana":"マスヤチョウ","prefecture_code":21},"8016":{"zip_code":"5008016","prefecture":"岐阜県","prefecture_kana":"ギフケン","city":"岐阜市","city_kana":"ギフシ","town":"松ケ枝町","town_kana":"マツガエチョウ","prefecture_code":21},"8013":{"zip_code":"5008013","prefecture":"岐阜県","prefecture_kana":"ギフケン","city":"岐阜市","city_kana":"ギフシ","town":"松下町","town_kana":"マツシタチョウ","prefecture_code":21},"8347":{"zip_code":"5008347","prefecture":"岐阜県","prefecture_kana":"ギフケン","city":"岐阜市","city_kana":"ギフシ","town":"松原町","town_kana":"マツバラチョウ","prefecture_code":21},"8084":{"zip_code":"5008084","prefecture":"岐阜県","prefecture_kana":"ギフケン","city":"岐阜市","city_kana":"ギフシ","town":"松屋町","town_kana":"マツヤチョウ","prefecture_code":21},"8015":{"zip_code":"5008015","prefecture":"岐阜県","prefecture_kana":"ギフケン","city":"岐阜市","city_kana":"ギフシ","town":"松山町","town_kana":"マツヤマチョウ","prefecture_code":21},"8888":{"zip_code":"5008888","prefecture":"岐阜県","prefecture_kana":"ギフケン","city":"岐阜市","city_kana":"ギフシ","town":"万年町","town_kana":"マンネンチョウ","prefecture_code":21},"8044":{"zip_code":"5008044","prefecture":"岐阜県","prefecture_kana":"ギフケン","city":"岐阜市","city_kana":"ギフシ","town":"万力町","town_kana":"マンリキチョウ","prefecture_code":21},"8812":{"zip_code":"5008812","prefecture":"岐阜県","prefecture_kana":"ギフケン","city":"岐阜市","city_kana":"ギフシ","town":"美江寺町","town_kana":"ミエジチョウ","prefecture_code":21},"8147":{"zip_code":"5008147","prefecture":"岐阜県","prefecture_kana":"ギフケン","city":"岐阜市","city_kana":"ギフシ","town":"三笠町","town_kana":"ミカサチョウ","prefecture_code":21},"8223":{"zip_code":"5008223","prefecture":"岐阜県","prefecture_kana":"ギフケン","city":"岐阜市","city_kana":"ギフシ","town":"水海道","town_kana":"ミズカイドウ","prefecture_code":21},"8377":{"zip_code":"5008377","prefecture":"岐阜県","prefecture_kana":"ギフケン","city":"岐阜市","city_kana":"ギフシ","town":"瑞穂町","town_kana":"ミズホチョウ","prefecture_code":21},"8104":{"zip_code":"5008104","prefecture":"岐阜県","prefecture_kana":"ギフケン","city":"岐阜市","city_kana":"ギフシ","town":"美園町","town_kana":"ミソノチョウ","prefecture_code":21},"8169":{"zip_code":"5008169","prefecture":"岐阜県","prefecture_kana":"ギフケン","city":"岐阜市","city_kana":"ギフシ","town":"溝旗町","town_kana":"ミゾバタチョウ","prefecture_code":21},"8002":{"zip_code":"5008002","prefecture":"岐阜県","prefecture_kana":"ギフケン","city":"岐阜市","city_kana":"ギフシ","town":"御手洗","town_kana":"ミタラシ","prefecture_code":21},"8308":{"zip_code":"5008308","prefecture":"岐阜県","prefecture_kana":"ギフケン","city":"岐阜市","city_kana":"ギフシ","town":"三橋町","town_kana":"ミツハシチョウ","prefecture_code":21},"8348":{"zip_code":"5008348","prefecture":"岐阜県","prefecture_kana":"ギフケン","city":"岐阜市","city_kana":"ギフシ","town":"三ツ又町","town_kana":"ミツマタチョウ","prefecture_code":21},"8335":{"zip_code":"5008335","prefecture":"岐阜県","prefecture_kana":"ギフケン","city":"岐阜市","city_kana":"ギフシ","town":"三歳町","town_kana":"ミトセチョウ","prefecture_code":21},"8182":{"zip_code":"5008182","prefecture":"岐阜県","prefecture_kana":"ギフケン","city":"岐阜市","city_kana":"ギフシ","town":"美殿町","town_kana":"ミトノチョウ","prefecture_code":21},"8072":{"zip_code":"5008072","prefecture":"岐阜県","prefecture_kana":"ギフケン","city":"岐阜市","city_kana":"ギフシ","town":"緑町","town_kana":"ミドリマチ","prefecture_code":21},"8009":{"zip_code":"5008009","prefecture":"岐阜県","prefecture_kana":"ギフケン","city":"岐阜市","city_kana":"ギフシ","town":"湊町","town_kana":"ミナトマチ","prefecture_code":21},"8285":{"zip_code":"5008285","prefecture":"岐阜県","prefecture_kana":"ギフケン","city":"岐阜市","city_kana":"ギフシ","town":"南鶉","town_kana":"ミナミウズラ","prefecture_code":21},"8117":{"zip_code":"5008117","prefecture":"岐阜県","prefecture_kana":"ギフケン","city":"岐阜市","city_kana":"ギフシ","town":"南殿町","town_kana":"ミナミトノマチ","prefecture_code":21},"8344":{"zip_code":"5008344","prefecture":"岐阜県","prefecture_kana":"ギフケン","city":"岐阜市","city_kana":"ギフシ","town":"南本荘一条通","town_kana":"ミナミホンジョウ1ジョウドオリ","prefecture_code":21},"8343":{"zip_code":"5008343","prefecture":"岐阜県","prefecture_kana":"ギフケン","city":"岐阜市","city_kana":"ギフシ","town":"南本荘二条通","town_kana":"ミナミホンジョウ2ジョウドオリ","prefecture_code":21},"8342":{"zip_code":"5008342","prefecture":"岐阜県","prefecture_kana":"ギフケン","city":"岐阜市","city_kana":"ギフシ","town":"南本荘三条通","town_kana":"ミナミホンジョウ3ジョウドオリ","prefecture_code":21},"8341":{"zip_code":"5008341","prefecture":"岐阜県","prefecture_kana":"ギフケン","city":"岐阜市","city_kana":"ギフシ","town":"南本荘四条通","town_kana":"ミナミホンジョウ4ジョウドオリ","prefecture_code":21},"8435":{"zip_code":"5008435","prefecture":"岐阜県","prefecture_kana":"ギフケン","city":"岐阜市","city_kana":"ギフシ","town":"宮北町","town_kana":"ミヤキタチョウ","prefecture_code":21},"8309":{"zip_code":"5008309","prefecture":"岐阜県","prefecture_kana":"ギフケン","city":"岐阜市","city_kana":"ギフシ","town":"都通","town_kana":"ミヤコドオリ","prefecture_code":21},"8439":{"zip_code":"5008439","prefecture":"岐阜県","prefecture_kana":"ギフケン","city":"岐阜市","city_kana":"ギフシ","town":"村里町","town_kana":"ムラサトチョウ","prefecture_code":21},"8312":{"zip_code":"5008312","prefecture":"岐阜県","prefecture_kana":"ギフケン","city":"岐阜市","city_kana":"ギフシ","town":"村雨町","town_kana":"ムラサメチョウ","prefecture_code":21},"8859":{"zip_code":"5008859","prefecture":"岐阜県","prefecture_kana":"ギフケン","city":"岐阜市","city_kana":"ギフシ","town":"室津町","town_kana":"ムロツマチ","prefecture_code":21},"8075":{"zip_code":"5008075","prefecture":"岐阜県","prefecture_kana":"ギフケン","city":"岐阜市","city_kana":"ギフシ","town":"室町","town_kana":"ムロマチ","prefecture_code":21},"8813":{"zip_code":"5008813","prefecture":"岐阜県","prefecture_kana":"ギフケン","city":"岐阜市","city_kana":"ギフシ","town":"明徳町","town_kana":"メイトクチョウ","prefecture_code":21},"8179":{"zip_code":"5008179","prefecture":"岐阜県","prefecture_kana":"ギフケン","city":"岐阜市","city_kana":"ギフシ","town":"元住町","town_kana":"モトズミチョウ","prefecture_code":21},"8007":{"zip_code":"5008007","prefecture":"岐阜県","prefecture_kana":"ギフケン","city":"岐阜市","city_kana":"ギフシ","town":"元浜町","town_kana":"モトハマチョウ","prefecture_code":21},"8185":{"zip_code":"5008185","prefecture":"岐阜県","prefecture_kana":"ギフケン","city":"岐阜市","city_kana":"ギフシ","town":"元町","town_kana":"モトマチ","prefecture_code":21},"8869":{"zip_code":"5008869","prefecture":"岐阜県","prefecture_kana":"ギフケン","city":"岐阜市","city_kana":"ギフシ","town":"元宮町","town_kana":"モトミヤチョウ","prefecture_code":21},"8078":{"zip_code":"5008078","prefecture":"岐阜県","prefecture_kana":"ギフケン","city":"岐阜市","city_kana":"ギフシ","town":"柳生町","town_kana":"ヤギュウチョウ","prefecture_code":21},"8253":{"zip_code":"5008253","prefecture":"岐阜県","prefecture_kana":"ギフケン","city":"岐阜市","city_kana":"ギフシ","town":"薬師町","town_kana":"ヤクシチョウ","prefecture_code":21},"8446":{"zip_code":"5008446","prefecture":"岐阜県","prefecture_kana":"ギフケン","city":"岐阜市","city_kana":"ギフシ","town":"矢倉町","town_kana":"ヤクラチョウ","prefecture_code":21},"8256":{"zip_code":"5008256","prefecture":"岐阜県","prefecture_kana":"ギフケン","city":"岐阜市","city_kana":"ギフシ","town":"八坂町","town_kana":"ヤサカチョウ","prefecture_code":21},"8445":{"zip_code":"5008445","prefecture":"岐阜県","prefecture_kana":"ギフケン","city":"岐阜市","city_kana":"ギフシ","town":"八島町","town_kana":"ヤシマチョウ","prefecture_code":21},"8082":{"zip_code":"5008082","prefecture":"岐阜県","prefecture_kana":"ギフケン","city":"岐阜市","city_kana":"ギフシ","town":"矢島町","town_kana":"ヤジマチョウ","prefecture_code":21},"8817":{"zip_code":"5008817","prefecture":"岐阜県","prefecture_kana":"ギフケン","city":"岐阜市","city_kana":"ギフシ","town":"八ツ梅町","town_kana":"ヤツウメチョウ","prefecture_code":21},"8825":{"zip_code":"5008825","prefecture":"岐阜県","prefecture_kana":"ギフケン","city":"岐阜市","city_kana":"ギフシ","town":"八ツ寺町","town_kana":"ヤツデラマチ","prefecture_code":21},"8875":{"zip_code":"5008875","prefecture":"岐阜県","prefecture_kana":"ギフケン","city":"岐阜市","city_kana":"ギフシ","town":"柳ケ瀬通","town_kana":"ヤナガセドオリ","prefecture_code":21},"8304":{"zip_code":"5008304","prefecture":"岐阜県","prefecture_kana":"ギフケン","city":"岐阜市","city_kana":"ギフシ","town":"柳川町","town_kana":"ヤナガワチョウ","prefecture_code":21},"8071":{"zip_code":"5008071","prefecture":"岐阜県","prefecture_kana":"ギフケン","city":"岐阜市","city_kana":"ギフシ","town":"柳町","town_kana":"ヤナギマチ","prefecture_code":21},"8365":{"zip_code":"5008365","prefecture":"岐阜県","prefecture_kana":"ギフケン","city":"岐阜市","city_kana":"ギフシ","town":"柳森町","town_kana":"ヤナギモリチョウ","prefecture_code":21},"8064":{"zip_code":"5008064","prefecture":"岐阜県","prefecture_kana":"ギフケン","city":"岐阜市","city_kana":"ギフシ","town":"柳沢町","town_kana":"ヤナザワチョウ","prefecture_code":21},"8827":{"zip_code":"5008827","prefecture":"岐阜県","prefecture_kana":"ギフケン","city":"岐阜市","city_kana":"ギフシ","town":"弥八町","town_kana":"ヤハチチョウ","prefecture_code":21},"8387":{"zip_code":"5008387","prefecture":"岐阜県","prefecture_kana":"ギフケン","city":"岐阜市","city_kana":"ギフシ","town":"薮田中","town_kana":"ヤブタナカ","prefecture_code":21},"8382":{"zip_code":"5008382","prefecture":"岐阜県","prefecture_kana":"ギフケン","city":"岐阜市","city_kana":"ギフシ","town":"薮田東","town_kana":"ヤブタヒガシ","prefecture_code":21},"8386":{"zip_code":"5008386","prefecture":"岐阜県","prefecture_kana":"ギフケン","city":"岐阜市","city_kana":"ギフシ","town":"薮田西","town_kana":"ヤブタニシ","prefecture_code":21},"8384":{"zip_code":"5008384","prefecture":"岐阜県","prefecture_kana":"ギフケン","city":"岐阜市","city_kana":"ギフシ","town":"薮田南","town_kana":"ヤブタミナミ","prefecture_code":21},"8012":{"zip_code":"5008012","prefecture":"岐阜県","prefecture_kana":"ギフケン","city":"岐阜市","city_kana":"ギフシ","town":"山口町","town_kana":"ヤマグチチョウ","prefecture_code":21},"8048":{"zip_code":"5008048","prefecture":"岐阜県","prefecture_kana":"ギフケン","city":"岐阜市","city_kana":"ギフシ","town":"大和町","town_kana":"ヤマトマチ","prefecture_code":21},"8831":{"zip_code":"5008831","prefecture":"岐阜県","prefecture_kana":"ギフケン","city":"岐阜市","city_kana":"ギフシ","town":"弥生町","town_kana":"ヤヨイチョウ","prefecture_code":21},"8014":{"zip_code":"5008014","prefecture":"岐阜県","prefecture_kana":"ギフケン","city":"岐阜市","city_kana":"ギフシ","town":"夕陽ケ丘","town_kana":"ユウヒガオカ","prefecture_code":21},"8136":{"zip_code":"5008136","prefecture":"岐阜県","prefecture_kana":"ギフケン","city":"岐阜市","city_kana":"ギフシ","town":"雪見町","town_kana":"ユキミチョウ","prefecture_code":21},"8334":{"zip_code":"5008334","prefecture":"岐阜県","prefecture_kana":"ギフケン","city":"岐阜市","city_kana":"ギフシ","town":"葭町","town_kana":"ヨシチョウ","prefecture_code":21},"8187":{"zip_code":"5008187","prefecture":"岐阜県","prefecture_kana":"ギフケン","city":"岐阜市","city_kana":"ギフシ","town":"吉津町","town_kana":"ヨシヅマチ","prefecture_code":21},"8844":{"zip_code":"5008844","prefecture":"岐阜県","prefecture_kana":"ギフケン","city":"岐阜市","city_kana":"ギフシ","town":"吉野町","town_kana":"ヨシノマチ","prefecture_code":21},"8088":{"zip_code":"5008088","prefecture":"岐阜県","prefecture_kana":"ギフケン","city":"岐阜市","city_kana":"ギフシ","town":"四屋町","town_kana":"ヨツヤチョウ","prefecture_code":21},"8126":{"zip_code":"5008126","prefecture":"岐阜県","prefecture_kana":"ギフケン","city":"岐阜市","city_kana":"ギフシ","town":"隆城町","town_kana":"リュウジョウチョウ","prefecture_code":21},"8241":{"zip_code":"5008241","prefecture":"岐阜県","prefecture_kana":"ギフケン","city":"岐阜市","city_kana":"ギフシ","town":"領下","town_kana":"リョウゲ","prefecture_code":21},"8352":{"zip_code":"5008352","prefecture":"岐阜県","prefecture_kana":"ギフケン","city":"岐阜市","city_kana":"ギフシ","town":"六条","town_kana":"ロクジョウ","prefecture_code":21},"8356":{"zip_code":"5008356","prefecture":"岐阜県","prefecture_kana":"ギフケン","city":"岐阜市","city_kana":"ギフシ","town":"六条江東","town_kana":"ロクジョウエヒガシ","prefecture_code":21},"8357":{"zip_code":"5008357","prefecture":"岐阜県","prefecture_kana":"ギフケン","city":"岐阜市","city_kana":"ギフシ","town":"六条大溝","town_kana":"ロクジョウオオミゾ","prefecture_code":21},"8355":{"zip_code":"5008355","prefecture":"岐阜県","prefecture_kana":"ギフケン","city":"岐阜市","city_kana":"ギフシ","town":"六条片田","town_kana":"ロクジョウカタダ","prefecture_code":21},"8354":{"zip_code":"5008354","prefecture":"岐阜県","prefecture_kana":"ギフケン","city":"岐阜市","city_kana":"ギフシ","town":"六条福寿町","town_kana":"ロクジョウフクジュチョウ","prefecture_code":21},"8353":{"zip_code":"5008353","prefecture":"岐阜県","prefecture_kana":"ギフケン","city":"岐阜市","city_kana":"ギフシ","town":"六条東","town_kana":"ロクジョウヒガシ","prefecture_code":21},"8358":{"zip_code":"5008358","prefecture":"岐阜県","prefecture_kana":"ギフケン","city":"岐阜市","city_kana":"ギフシ","town":"六条南","town_kana":"ロクジョウミナミ","prefecture_code":21},"8359":{"zip_code":"5008359","prefecture":"岐阜県","prefecture_kana":"ギフケン","city":"岐阜市","city_kana":"ギフシ","town":"六条北","town_kana":"ロクジョウキタ","prefecture_code":21},"8433":{"zip_code":"5008433","prefecture":"岐阜県","prefecture_kana":"ギフケン","city":"岐阜市","city_kana":"ギフシ","town":"若杉町","town_kana":"ワカスギチョウ","prefecture_code":21},"8089":{"zip_code":"5008089","prefecture":"岐阜県","prefecture_kana":"ギフケン","city":"岐阜市","city_kana":"ギフシ","town":"若松町","town_kana":"ワカマツチョウ","prefecture_code":21},"8828":{"zip_code":"5008828","prefecture":"岐阜県","prefecture_kana":"ギフケン","city":"岐阜市","city_kana":"ギフシ","town":"若宮町","town_kana":"ワカミヤチョウ","prefecture_code":21}}