{"1182":{"zip_code":"5011182","prefecture":"岐阜県","prefecture_kana":"ギフケン","city":"岐阜市","city_kana":"ギフシ","town":"秋沢","town_kana":"アキサワ","prefecture_code":21},"3134":{"zip_code":"5013134","prefecture":"岐阜県","prefecture_kana":"ギフケン","city":"岐阜市","city_kana":"ギフシ","town":"芥見","town_kana":"アクタミ","prefecture_code":21},"3111":{"zip_code":"5013111","prefecture":"岐阜県","prefecture_kana":"ギフケン","city":"岐阜市","city_kana":"ギフシ","town":"芥見大退","town_kana":"アクタミオオノギ","prefecture_code":21},"3114":{"zip_code":"5013114","prefecture":"岐阜県","prefecture_kana":"ギフケン","city":"岐阜市","city_kana":"ギフシ","town":"芥見大船","town_kana":"アクタミオオブネ","prefecture_code":21},"3136":{"zip_code":"5013136","prefecture":"岐阜県","prefecture_kana":"ギフケン","city":"岐阜市","city_kana":"ギフシ","town":"芥見海戸山","town_kana":"アクタミカイトヤマ","prefecture_code":21},"3143":{"zip_code":"5013143","prefecture":"岐阜県","prefecture_kana":"ギフケン","city":"岐阜市","city_kana":"ギフシ","town":"芥見影山","town_kana":"アクタミカゲヤマ","prefecture_code":21},"3135":{"zip_code":"5013135","prefecture":"岐阜県","prefecture_kana":"ギフケン","city":"岐阜市","city_kana":"ギフシ","town":"芥見清水","town_kana":"アクタミキヨミズ","prefecture_code":21},"3146":{"zip_code":"5013146","prefecture":"岐阜県","prefecture_kana":"ギフケン","city":"岐阜市","city_kana":"ギフシ","town":"芥見嵯峨","town_kana":"アクタミサガ","prefecture_code":21},"3144":{"zip_code":"5013144","prefecture":"岐阜県","prefecture_kana":"ギフケン","city":"岐阜市","city_kana":"ギフシ","town":"芥見大般若","town_kana":"アクタミダイハンニャ","prefecture_code":21},"3141":{"zip_code":"5013141","prefecture":"岐阜県","prefecture_kana":"ギフケン","city":"岐阜市","city_kana":"ギフシ","town":"芥見中野畑","town_kana":"アクタミナカノバタ","prefecture_code":21},"3132":{"zip_code":"5013132","prefecture":"岐阜県","prefecture_kana":"ギフケン","city":"岐阜市","city_kana":"ギフシ","town":"芥見長山","town_kana":"アクタミナガヤマ","prefecture_code":21},"3145":{"zip_code":"5013145","prefecture":"岐阜県","prefecture_kana":"ギフケン","city":"岐阜市","city_kana":"ギフシ","town":"芥見野畑","town_kana":"アクタミノバタ","prefecture_code":21},"3112":{"zip_code":"5013112","prefecture":"岐阜県","prefecture_kana":"ギフケン","city":"岐阜市","city_kana":"ギフシ","town":"芥見東山","town_kana":"アクタミヒガシヤマ","prefecture_code":21},"3147":{"zip_code":"5013147","prefecture":"岐阜県","prefecture_kana":"ギフケン","city":"岐阜市","city_kana":"ギフシ","town":"芥見堀田","town_kana":"アクタミホリタ","prefecture_code":21},"3116":{"zip_code":"5013116","prefecture":"岐阜県","prefecture_kana":"ギフケン","city":"岐阜市","city_kana":"ギフシ","town":"芥見町屋","town_kana":"アクタミマチヤ","prefecture_code":21},"3133":{"zip_code":"5013133","prefecture":"岐阜県","prefecture_kana":"ギフケン","city":"岐阜市","city_kana":"ギフシ","town":"芥見南山","town_kana":"アクタミミナミヤマ","prefecture_code":21},"1109":{"zip_code":"5011109","prefecture":"岐阜県","prefecture_kana":"ギフケン","city":"岐阜市","city_kana":"ギフシ","town":"安食","town_kana":"アジキ","prefecture_code":21},"1108":{"zip_code":"5011108","prefecture":"岐阜県","prefecture_kana":"ギフケン","city":"岐阜市","city_kana":"ギフシ","town":"安食志良古","town_kana":"アジキシラコ","prefecture_code":21},"1106":{"zip_code":"5011106","prefecture":"岐阜県","prefecture_kana":"ギフケン","city":"岐阜市","city_kana":"ギフシ","town":"石谷","town_kana":"イシガイ","prefecture_code":21},"2535":{"zip_code":"5012535","prefecture":"岐阜県","prefecture_kana":"ギフケン","city":"岐阜市","city_kana":"ギフシ","town":"石原","town_kana":"イシハラ","prefecture_code":21},"3104":{"zip_code":"5013104","prefecture":"岐阜県","prefecture_kana":"ギフケン","city":"岐阜市","city_kana":"ギフシ","town":"石原","town_kana":"イシハラ","prefecture_code":21},"1114":{"zip_code":"5011114","prefecture":"岐阜県","prefecture_kana":"ギフケン","city":"岐阜市","city_kana":"ギフシ","town":"今川","town_kana":"イマガワ","prefecture_code":21},"3101":{"zip_code":"5013101","prefecture":"岐阜県","prefecture_kana":"ギフケン","city":"岐阜市","city_kana":"ギフシ","town":"岩井","town_kana":"イワイ","prefecture_code":21},"3102":{"zip_code":"5013102","prefecture":"岐阜県","prefecture_kana":"ギフケン","city":"岐阜市","city_kana":"ギフシ","town":"岩井万場","town_kana":"イワイマンバ","prefecture_code":21},"3154":{"zip_code":"5013154","prefecture":"岐阜県","prefecture_kana":"ギフケン","city":"岐阜市","city_kana":"ギフシ","town":"岩田東","town_kana":"イワタヒガシ","prefecture_code":21},"3156":{"zip_code":"5013156","prefecture":"岐阜県","prefecture_kana":"ギフケン","city":"岐阜市","city_kana":"ギフシ","town":"岩田西","town_kana":"イワタニシ","prefecture_code":21},"3151":{"zip_code":"5013151","prefecture":"岐阜県","prefecture_kana":"ギフケン","city":"岐阜市","city_kana":"ギフシ","town":"岩滝東","town_kana":"イワタキヒガシ","prefecture_code":21},"3152":{"zip_code":"5013152","prefecture":"岐阜県","prefecture_kana":"ギフケン","city":"岐阜市","city_kana":"ギフシ","town":"岩滝西","town_kana":"イワタキニシ","prefecture_code":21},"3155":{"zip_code":"5013155","prefecture":"岐阜県","prefecture_kana":"ギフケン","city":"岐阜市","city_kana":"ギフシ","town":"岩田坂","town_kana":"イワタザカ","prefecture_code":21},"1102":{"zip_code":"5011102","prefecture":"岐阜県","prefecture_kana":"ギフケン","city":"岐阜市","city_kana":"ギフシ","town":"岩利","town_kana":"イワリ","prefecture_code":21},"0117":{"zip_code":"5010117","prefecture":"岐阜県","prefecture_kana":"ギフケン","city":"岐阜市","city_kana":"ギフシ","town":"江崎","town_kana":"エサキ","prefecture_code":21},"0121":{"zip_code":"5010121","prefecture":"岐阜県","prefecture_kana":"ギフケン","city":"岐阜市","city_kana":"ギフシ","town":"江崎北","town_kana":"エサキキタ","prefecture_code":21},"0122":{"zip_code":"5010122","prefecture":"岐阜県","prefecture_kana":"ギフケン","city":"岐阜市","city_kana":"ギフシ","town":"江崎南","town_kana":"エサキミナミ","prefecture_code":21},"3108":{"zip_code":"5013108","prefecture":"岐阜県","prefecture_kana":"ギフケン","city":"岐阜市","city_kana":"ギフシ","town":"大蔵台","town_kana":"オオクラダイ","prefecture_code":21},"0118":{"zip_code":"5010118","prefecture":"岐阜県","prefecture_kana":"ギフケン","city":"岐阜市","city_kana":"ギフシ","town":"大菅北","town_kana":"オオスガキタ","prefecture_code":21},"0119":{"zip_code":"5010119","prefecture":"岐阜県","prefecture_kana":"ギフケン","city":"岐阜市","city_kana":"ギフシ","town":"大菅南","town_kana":"オオスガミナミ","prefecture_code":21},"3124":{"zip_code":"5013124","prefecture":"岐阜県","prefecture_kana":"ギフケン","city":"岐阜市","city_kana":"ギフシ","town":"大洞","town_kana":"オオボラ","prefecture_code":21},"3123":{"zip_code":"5013123","prefecture":"岐阜県","prefecture_kana":"ギフケン","city":"岐阜市","city_kana":"ギフシ","town":"大洞柏台","town_kana":"オオボラカシワダイ","prefecture_code":21},"3121":{"zip_code":"5013121","prefecture":"岐阜県","prefecture_kana":"ギフケン","city":"岐阜市","city_kana":"ギフシ","town":"大洞桐が丘","town_kana":"オオボラキリガオカ","prefecture_code":21},"3127":{"zip_code":"5013127","prefecture":"岐阜県","prefecture_kana":"ギフケン","city":"岐阜市","city_kana":"ギフシ","town":"大洞桜台","town_kana":"オオボラサクラダイ","prefecture_code":21},"3125":{"zip_code":"5013125","prefecture":"岐阜県","prefecture_kana":"ギフケン","city":"岐阜市","city_kana":"ギフシ","town":"大洞緑山","town_kana":"オオボラミドリヤマ","prefecture_code":21},"3122":{"zip_code":"5013122","prefecture":"岐阜県","prefecture_kana":"ギフケン","city":"岐阜市","city_kana":"ギフシ","town":"大洞紅葉が丘","town_kana":"オオボラモミジガオカ","prefecture_code":21},"3126":{"zip_code":"5013126","prefecture":"岐阜県","prefecture_kana":"ギフケン","city":"岐阜市","city_kana":"ギフシ","town":"大洞西","town_kana":"オオボラニシ","prefecture_code":21},"6134":{"zip_code":"5016134","prefecture":"岐阜県","prefecture_kana":"ギフケン","city":"岐阜市","city_kana":"ギフシ","town":"大脇","town_kana":"オオワキ","prefecture_code":21},"1185":{"zip_code":"5011185","prefecture":"岐阜県","prefecture_kana":"ギフケン","city":"岐阜市","city_kana":"ギフシ","town":"奥","town_kana":"オク","prefecture_code":21},"1132":{"zip_code":"5011132","prefecture":"岐阜県","prefecture_kana":"ギフケン","city":"岐阜市","city_kana":"ギフシ","town":"折立","town_kana":"オリタテ","prefecture_code":21},"0111":{"zip_code":"5010111","prefecture":"岐阜県","prefecture_kana":"ギフケン","city":"岐阜市","city_kana":"ギフシ","town":"川原畑","town_kana":"カワハラバタ","prefecture_code":21},"0113":{"zip_code":"5010113","prefecture":"岐阜県","prefecture_kana":"ギフケン","city":"岐阜市","city_kana":"ギフシ","town":"鏡島市場","town_kana":"カガシマイチバ","prefecture_code":21},"0112":{"zip_code":"5010112","prefecture":"岐阜県","prefecture_kana":"ギフケン","city":"岐阜市","city_kana":"ギフシ","town":"鏡島精華","town_kana":"カガシマセイカ","prefecture_code":21},"0123":{"zip_code":"5010123","prefecture":"岐阜県","prefecture_kana":"ギフケン","city":"岐阜市","city_kana":"ギフシ","town":"鏡島西","town_kana":"カガシマニシ","prefecture_code":21},"0115":{"zip_code":"5010115","prefecture":"岐阜県","prefecture_kana":"ギフケン","city":"岐阜市","city_kana":"ギフシ","town":"鏡島南","town_kana":"カガシマミナミ","prefecture_code":21},"2521":{"zip_code":"5012521","prefecture":"岐阜県","prefecture_kana":"ギフケン","city":"岐阜市","city_kana":"ギフシ","town":"門屋","town_kana":"カドヤ","prefecture_code":21},"2528":{"zip_code":"5012528","prefecture":"岐阜県","prefecture_kana":"ギフケン","city":"岐阜市","city_kana":"ギフシ","town":"門屋門","town_kana":"カドヤカド","prefecture_code":21},"2527":{"zip_code":"5012527","prefecture":"岐阜県","prefecture_kana":"ギフケン","city":"岐阜市","city_kana":"ギフシ","town":"門屋勢引","town_kana":"カドヤセイヒキ","prefecture_code":21},"2526":{"zip_code":"5012526","prefecture":"岐阜県","prefecture_kana":"ギフケン","city":"岐阜市","city_kana":"ギフシ","town":"門屋野崎","town_kana":"カドヤノザキ","prefecture_code":21},"2522":{"zip_code":"5012522","prefecture":"岐阜県","prefecture_kana":"ギフケン","city":"岐阜市","city_kana":"ギフシ","town":"門屋溝上","town_kana":"カドヤミゾガミ","prefecture_code":21},"3107":{"zip_code":"5013107","prefecture":"岐阜県","prefecture_kana":"ギフケン","city":"岐阜市","city_kana":"ギフシ","town":"加野","town_kana":"カノ","prefecture_code":21},"3115":{"zip_code":"5013115","prefecture":"岐阜県","prefecture_kana":"ギフケン","city":"岐阜市","city_kana":"ギフシ","town":"上芥見","town_kana":"カミアクタミ","prefecture_code":21},"1178":{"zip_code":"5011178","prefecture":"岐阜県","prefecture_kana":"ギフケン","city":"岐阜市","city_kana":"ギフシ","town":"上西郷","town_kana":"カミサイゴウ","prefecture_code":21},"1150":{"zip_code":"5011150","prefecture":"岐阜県","prefecture_kana":"ギフケン","city":"岐阜市","city_kana":"ギフシ","town":"上尻毛","town_kana":"カミシッケ","prefecture_code":21},"1149":{"zip_code":"5011149","prefecture":"岐阜県","prefecture_kana":"ギフケン","city":"岐阜市","city_kana":"ギフシ","town":"上尻毛八幡","town_kana":"カミシッケハチマン","prefecture_code":21},"1148":{"zip_code":"5011148","prefecture":"岐阜県","prefecture_kana":"ギフケン","city":"岐阜市","city_kana":"ギフシ","town":"上尻毛日吉","town_kana":"カミシツケヒヨシ","prefecture_code":21},"1151":{"zip_code":"5011151","prefecture":"岐阜県","prefecture_kana":"ギフケン","city":"岐阜市","city_kana":"ギフシ","town":"川部","town_kana":"カワベ","prefecture_code":21},"3131":{"zip_code":"5013131","prefecture":"岐阜県","prefecture_kana":"ギフケン","city":"岐阜市","city_kana":"ギフシ","town":"祇園","town_kana":"ギオン","prefecture_code":21},"1133":{"zip_code":"5011133","prefecture":"岐阜県","prefecture_kana":"ギフケン","city":"岐阜市","city_kana":"ギフシ","town":"北柿ケ瀬","town_kana":"キタカキガセ","prefecture_code":21},"2503":{"zip_code":"5012503","prefecture":"岐阜県","prefecture_kana":"ギフケン","city":"岐阜市","city_kana":"ギフシ","town":"北野阿原","town_kana":"キタノアワラ","prefecture_code":21},"2519":{"zip_code":"5012519","prefecture":"岐阜県","prefecture_kana":"ギフケン","city":"岐阜市","city_kana":"ギフシ","town":"北野西山","town_kana":"キタノニシヤマ","prefecture_code":21},"2512":{"zip_code":"5012512","prefecture":"岐阜県","prefecture_kana":"ギフケン","city":"岐阜市","city_kana":"ギフシ","town":"北野東","town_kana":"キタノヒガシ","prefecture_code":21},"2518":{"zip_code":"5012518","prefecture":"岐阜県","prefecture_kana":"ギフケン","city":"岐阜市","city_kana":"ギフシ","town":"北野西","town_kana":"キタノニシ","prefecture_code":21},"2516":{"zip_code":"5012516","prefecture":"岐阜県","prefecture_kana":"ギフケン","city":"岐阜市","city_kana":"ギフシ","town":"北野南","town_kana":"キタノミナミ","prefecture_code":21},"2511":{"zip_code":"5012511","prefecture":"岐阜県","prefecture_kana":"ギフケン","city":"岐阜市","city_kana":"ギフシ","town":"北野北","town_kana":"キタノキタ","prefecture_code":21},"3113":{"zip_code":"5013113","prefecture":"岐阜県","prefecture_kana":"ギフケン","city":"岐阜市","city_kana":"ギフシ","town":"北山","town_kana":"キタヤマ","prefecture_code":21},"1135":{"zip_code":"5011135","prefecture":"岐阜県","prefecture_kana":"ギフケン","city":"岐阜市","city_kana":"ギフシ","town":"木田","town_kana":"キダ","prefecture_code":21},"1131":{"zip_code":"5011131","prefecture":"岐阜県","prefecture_kana":"ギフケン","city":"岐阜市","city_kana":"ギフシ","town":"黒野","town_kana":"クロノ","prefecture_code":21},"1136":{"zip_code":"5011136","prefecture":"岐阜県","prefecture_kana":"ギフケン","city":"岐阜市","city_kana":"ギフシ","town":"黒野南","town_kana":"クロノミナミ","prefecture_code":21},"0105":{"zip_code":"5010105","prefecture":"岐阜県","prefecture_kana":"ギフケン","city":"岐阜市","city_kana":"ギフシ","town":"河渡","town_kana":"ゴウド","prefecture_code":21},"1176":{"zip_code":"5011176","prefecture":"岐阜県","prefecture_kana":"ギフケン","city":"岐阜市","city_kana":"ギフシ","town":"小西郷","town_kana":"コサイゴウ","prefecture_code":21},"1174":{"zip_code":"5011174","prefecture":"岐阜県","prefecture_kana":"ギフケン","city":"岐阜市","city_kana":"ギフシ","town":"小野","town_kana":"コノ","prefecture_code":21},"1171":{"zip_code":"5011171","prefecture":"岐阜県","prefecture_kana":"ギフケン","city":"岐阜市","city_kana":"ギフシ","town":"御望","town_kana":"ゴモ","prefecture_code":21},"3117":{"zip_code":"5013117","prefecture":"岐阜県","prefecture_kana":"ギフケン","city":"岐阜市","city_kana":"ギフシ","town":"コモンヒルズ北山","town_kana":"コモンヒルズキタヤマ","prefecture_code":21},"1101":{"zip_code":"5011101","prefecture":"岐阜県","prefecture_kana":"ギフケン","city":"岐阜市","city_kana":"ギフシ","town":"佐野","town_kana":"サノ","prefecture_code":21},"3153":{"zip_code":"5013153","prefecture":"岐阜県","prefecture_kana":"ギフケン","city":"岐阜市","city_kana":"ギフシ","town":"静が丘町","town_kana":"シズガオカチョウ","prefecture_code":21},"1147":{"zip_code":"5011147","prefecture":"岐阜県","prefecture_kana":"ギフケン","city":"岐阜市","city_kana":"ギフシ","town":"尻毛","town_kana":"シッケ","prefecture_code":21},"1172":{"zip_code":"5011172","prefecture":"岐阜県","prefecture_kana":"ギフケン","city":"岐阜市","city_kana":"ギフシ","town":"下鵜飼","town_kana":"シモウカイ","prefecture_code":21},"1175":{"zip_code":"5011175","prefecture":"岐阜県","prefecture_kana":"ギフケン","city":"岐阜市","city_kana":"ギフシ","town":"下西郷","town_kana":"シモサイゴウ","prefecture_code":21},"1146":{"zip_code":"5011146","prefecture":"岐阜県","prefecture_kana":"ギフケン","city":"岐阜市","city_kana":"ギフシ","town":"下尻毛","town_kana":"シモシッケ","prefecture_code":21},"3142":{"zip_code":"5013142","prefecture":"岐阜県","prefecture_kana":"ギフケン","city":"岐阜市","city_kana":"ギフシ","town":"諏訪山","town_kana":"スワヤマ","prefecture_code":21},"0101":{"zip_code":"5010101","prefecture":"岐阜県","prefecture_kana":"ギフケン","city":"岐阜市","city_kana":"ギフシ","town":"曽我屋","town_kana":"ソガヤ","prefecture_code":21},"1113":{"zip_code":"5011113","prefecture":"岐阜県","prefecture_kana":"ギフケン","city":"岐阜市","city_kana":"ギフシ","town":"大学西","town_kana":"ダイガクニシ","prefecture_code":21},"1111":{"zip_code":"5011111","prefecture":"岐阜県","prefecture_kana":"ギフケン","city":"岐阜市","city_kana":"ギフシ","town":"大学北","town_kana":"ダイガクキタ","prefecture_code":21},"6131":{"zip_code":"5016131","prefecture":"岐阜県","prefecture_kana":"ギフケン","city":"岐阜市","city_kana":"ギフシ","town":"高河原","town_kana":"タカガワラ","prefecture_code":21},"2577":{"zip_code":"5012577","prefecture":"岐阜県","prefecture_kana":"ギフケン","city":"岐阜市","city_kana":"ギフシ","town":"太郎丸","town_kana":"タロウマル","prefecture_code":21},"2536":{"zip_code":"5012536","prefecture":"岐阜県","prefecture_kana":"ギフケン","city":"岐阜市","city_kana":"ギフシ","town":"太郎丸樫木","town_kana":"タロウマルカシキ","prefecture_code":21},"2574":{"zip_code":"5012574","prefecture":"岐阜県","prefecture_kana":"ギフケン","city":"岐阜市","city_kana":"ギフシ","town":"太郎丸北浦","town_kana":"タロウマルキタウラ","prefecture_code":21},"2572":{"zip_code":"5012572","prefecture":"岐阜県","prefecture_kana":"ギフケン","city":"岐阜市","city_kana":"ギフシ","town":"太郎丸北郷","town_kana":"タロウマルキタゴウ","prefecture_code":21},"2576":{"zip_code":"5012576","prefecture":"岐阜県","prefecture_kana":"ギフケン","city":"岐阜市","city_kana":"ギフシ","town":"太郎丸新屋敷","town_kana":"タロウマルシンヤシキ","prefecture_code":21},"2573":{"zip_code":"5012573","prefecture":"岐阜県","prefecture_kana":"ギフケン","city":"岐阜市","city_kana":"ギフシ","town":"太郎丸諏訪","town_kana":"タロウマルスワ","prefecture_code":21},"2579":{"zip_code":"5012579","prefecture":"岐阜県","prefecture_kana":"ギフケン","city":"岐阜市","city_kana":"ギフシ","town":"太郎丸知之道","town_kana":"タロウマルチノミチ","prefecture_code":21},"2575":{"zip_code":"5012575","prefecture":"岐阜県","prefecture_kana":"ギフケン","city":"岐阜市","city_kana":"ギフシ","town":"太郎丸中島","town_kana":"タロウマルナカジマ","prefecture_code":21},"2578":{"zip_code":"5012578","prefecture":"岐阜県","prefecture_kana":"ギフケン","city":"岐阜市","city_kana":"ギフシ","town":"太郎丸野田","town_kana":"タロウマルノダ","prefecture_code":21},"2571":{"zip_code":"5012571","prefecture":"岐阜県","prefecture_kana":"ギフケン","city":"岐阜市","city_kana":"ギフシ","town":"太郎丸向良","town_kana":"タロウマルムガイラ","prefecture_code":21},"6135":{"zip_code":"5016135","prefecture":"岐阜県","prefecture_kana":"ギフケン","city":"岐阜市","city_kana":"ギフシ","town":"茶屋新田","town_kana":"チャヤシンデン","prefecture_code":21},"2501":{"zip_code":"5012501","prefecture":"岐阜県","prefecture_kana":"ギフケン","city":"岐阜市","city_kana":"ギフシ","town":"出屋敷","town_kana":"デヤシキ","prefecture_code":21},"0104":{"zip_code":"5010104","prefecture":"岐阜県","prefecture_kana":"ギフケン","city":"岐阜市","city_kana":"ギフシ","town":"寺田","town_kana":"テラダ","prefecture_code":21},"1186":{"zip_code":"5011186","prefecture":"岐阜県","prefecture_kana":"ギフケン","city":"岐阜市","city_kana":"ギフシ","town":"外山","town_kana":"トヤマ","prefecture_code":21},"1173":{"zip_code":"5011173","prefecture":"岐阜県","prefecture_kana":"ギフケン","city":"岐阜市","city_kana":"ギフシ","town":"中","town_kana":"ナカ","prefecture_code":21},"1177":{"zip_code":"5011177","prefecture":"岐阜県","prefecture_kana":"ギフケン","city":"岐阜市","city_kana":"ギフシ","town":"中西郷","town_kana":"ナカサイゴウ","prefecture_code":21},"2531":{"zip_code":"5012531","prefecture":"岐阜県","prefecture_kana":"ギフケン","city":"岐阜市","city_kana":"ギフシ","town":"中屋東","town_kana":"ナカヤヒガシ","prefecture_code":21},"2532":{"zip_code":"5012532","prefecture":"岐阜県","prefecture_kana":"ギフケン","city":"岐阜市","city_kana":"ギフシ","town":"中屋西","town_kana":"ナカヤニシ","prefecture_code":21},"6132":{"zip_code":"5016132","prefecture":"岐阜県","prefecture_kana":"ギフケン","city":"岐阜市","city_kana":"ギフシ","town":"次木","town_kana":"ナメキ","prefecture_code":21},"1184":{"zip_code":"5011184","prefecture":"岐阜県","prefecture_kana":"ギフケン","city":"岐阜市","city_kana":"ギフシ","town":"西秋沢","town_kana":"ニシアキサワ","prefecture_code":21},"1159":{"zip_code":"5011159","prefecture":"岐阜県","prefecture_kana":"ギフケン","city":"岐阜市","city_kana":"ギフシ","town":"西改田松の木","town_kana":"ニシカイデンマツノキ","prefecture_code":21},"1168":{"zip_code":"5011168","prefecture":"岐阜県","prefecture_kana":"ギフケン","city":"岐阜市","city_kana":"ギフシ","town":"西改田上の町","town_kana":"ニシカイデンウエノマチ","prefecture_code":21},"1161":{"zip_code":"5011161","prefecture":"岐阜県","prefecture_kana":"ギフケン","city":"岐阜市","city_kana":"ギフシ","town":"西改田川向","town_kana":"ニシカイデンカワムカイ","prefecture_code":21},"1163":{"zip_code":"5011163","prefecture":"岐阜県","prefecture_kana":"ギフケン","city":"岐阜市","city_kana":"ギフシ","town":"西改田米野","town_kana":"ニシカイデンコメノ","prefecture_code":21},"1158":{"zip_code":"5011158","prefecture":"岐阜県","prefecture_kana":"ギフケン","city":"岐阜市","city_kana":"ギフシ","town":"西改田先道","town_kana":"ニシカイデンセンドウ","prefecture_code":21},"1167":{"zip_code":"5011167","prefecture":"岐阜県","prefecture_kana":"ギフケン","city":"岐阜市","city_kana":"ギフシ","town":"西改田夏梅","town_kana":"ニシカイデンナツメ","prefecture_code":21},"1164":{"zip_code":"5011164","prefecture":"岐阜県","prefecture_kana":"ギフケン","city":"岐阜市","city_kana":"ギフシ","town":"西改田東改田入会地","town_kana":"ニシカイデンヒガシカイデンイリアイチ","prefecture_code":21},"1169":{"zip_code":"5011169","prefecture":"岐阜県","prefecture_kana":"ギフケン","city":"岐阜市","city_kana":"ギフシ","town":"西改田七石","town_kana":"ニシカイデンヒチコク","prefecture_code":21},"1165":{"zip_code":"5011165","prefecture":"岐阜県","prefecture_kana":"ギフケン","city":"岐阜市","city_kana":"ギフシ","town":"西改田宮西","town_kana":"ニシカイデンミヤニシ","prefecture_code":21},"1166":{"zip_code":"5011166","prefecture":"岐阜県","prefecture_kana":"ギフケン","city":"岐阜市","city_kana":"ギフシ","town":"西改田村前","town_kana":"ニシカイデンムラマエ","prefecture_code":21},"1162":{"zip_code":"5011162","prefecture":"岐阜県","prefecture_kana":"ギフケン","city":"岐阜市","city_kana":"ギフシ","town":"西改田若宮","town_kana":"ニシカイデンワカミヤ","prefecture_code":21},"0106":{"zip_code":"5010106","prefecture":"岐阜県","prefecture_kana":"ギフケン","city":"岐阜市","city_kana":"ギフシ","town":"西河渡","town_kana":"ニシゴウド","prefecture_code":21},"1183":{"zip_code":"5011183","prefecture":"岐阜県","prefecture_kana":"ギフケン","city":"岐阜市","city_kana":"ギフシ","town":"則松","town_kana":"ノリマツ","prefecture_code":21},"2525":{"zip_code":"5012525","prefecture":"岐阜県","prefecture_kana":"ギフケン","city":"岐阜市","city_kana":"ギフシ","town":"春近古市場南","town_kana":"ハルチカフルイチバミナミ","prefecture_code":21},"2524":{"zip_code":"5012524","prefecture":"岐阜県","prefecture_kana":"ギフケン","city":"岐阜市","city_kana":"ギフシ","town":"春近古市場北","town_kana":"ハルチカフルイチバキタ","prefecture_code":21},"1141":{"zip_code":"5011141","prefecture":"岐阜県","prefecture_kana":"ギフケン","city":"岐阜市","city_kana":"ギフシ","town":"東板谷","town_kana":"ヒガシイタヤ","prefecture_code":21},"1142":{"zip_code":"5011142","prefecture":"岐阜県","prefecture_kana":"ギフケン","city":"岐阜市","city_kana":"ギフシ","town":"東改田","town_kana":"ヒガシカイデン","prefecture_code":21},"1145":{"zip_code":"5011145","prefecture":"岐阜県","prefecture_kana":"ギフケン","city":"岐阜市","city_kana":"ギフシ","town":"東改田腰前田","town_kana":"ヒガシカイデンコシマエダ","prefecture_code":21},"1144":{"zip_code":"5011144","prefecture":"岐阜県","prefecture_kana":"ギフケン","city":"岐阜市","city_kana":"ギフシ","town":"東改田再勝","town_kana":"ヒガシカイデンサイカチ","prefecture_code":21},"1143":{"zip_code":"5011143","prefecture":"岐阜県","prefecture_kana":"ギフケン","city":"岐阜市","city_kana":"ギフシ","town":"東改田鶴田","town_kana":"ヒガシカイデンツルタ","prefecture_code":21},"6133":{"zip_code":"5016133","prefecture":"岐阜県","prefecture_kana":"ギフケン","city":"岐阜市","city_kana":"ギフシ","town":"日置江","town_kana":"ヒキエ","prefecture_code":21},"1105":{"zip_code":"5011105","prefecture":"岐阜県","prefecture_kana":"ギフケン","city":"岐阜市","city_kana":"ギフシ","town":"彦坂","town_kana":"ヒコサカ","prefecture_code":21},"1104":{"zip_code":"5011104","prefecture":"岐阜県","prefecture_kana":"ギフケン","city":"岐阜市","city_kana":"ギフシ","town":"彦坂川上","town_kana":"ヒコサカカワカミ","prefecture_code":21},"1103":{"zip_code":"5011103","prefecture":"岐阜県","prefecture_kana":"ギフケン","city":"岐阜市","city_kana":"ギフシ","town":"彦坂川北","town_kana":"ヒコサカカワキタ","prefecture_code":21},"0103":{"zip_code":"5010103","prefecture":"岐阜県","prefecture_kana":"ギフケン","city":"岐阜市","city_kana":"ギフシ","town":"一日市場","town_kana":"ヒトイチバ","prefecture_code":21},"0102":{"zip_code":"5010102","prefecture":"岐阜県","prefecture_kana":"ギフケン","city":"岐阜市","city_kana":"ギフシ","town":"一日市場北町","town_kana":"ヒトイチバキタマチ","prefecture_code":21},"1181":{"zip_code":"5011181","prefecture":"岐阜県","prefecture_kana":"ギフケン","city":"岐阜市","city_kana":"ギフシ","town":"雛倉","town_kana":"ヒナクラ","prefecture_code":21},"1116":{"zip_code":"5011116","prefecture":"岐阜県","prefecture_kana":"ギフケン","city":"岐阜市","city_kana":"ギフシ","town":"深坂","town_kana":"フカサカ","prefecture_code":21},"2565":{"zip_code":"5012565","prefecture":"岐阜県","prefecture_kana":"ギフケン","city":"岐阜市","city_kana":"ギフシ","town":"福富","town_kana":"フクトミ","prefecture_code":21},"2561":{"zip_code":"5012561","prefecture":"岐阜県","prefecture_kana":"ギフケン","city":"岐阜市","city_kana":"ギフシ","town":"福富笠海道","town_kana":"フクトミカサカイドウ","prefecture_code":21},"2567":{"zip_code":"5012567","prefecture":"岐阜県","prefecture_kana":"ギフケン","city":"岐阜市","city_kana":"ギフシ","town":"福富町田","town_kana":"フクトミチョウダ","prefecture_code":21},"2566":{"zip_code":"5012566","prefecture":"岐阜県","prefecture_kana":"ギフケン","city":"岐阜市","city_kana":"ギフシ","town":"福富天神前","town_kana":"フクトミテンジンマエ","prefecture_code":21},"2562":{"zip_code":"5012562","prefecture":"岐阜県","prefecture_kana":"ギフケン","city":"岐阜市","city_kana":"ギフシ","town":"福富出口","town_kana":"フクトミデグチ","prefecture_code":21},"2564":{"zip_code":"5012564","prefecture":"岐阜県","prefecture_kana":"ギフケン","city":"岐阜市","city_kana":"ギフシ","town":"福富永田","town_kana":"フクトミナガタ","prefecture_code":21},"2563":{"zip_code":"5012563","prefecture":"岐阜県","prefecture_kana":"ギフケン","city":"岐阜市","city_kana":"ギフシ","town":"福富迎田","town_kana":"フクトミムカエダ","prefecture_code":21},"1121":{"zip_code":"5011121","prefecture":"岐阜県","prefecture_kana":"ギフケン","city":"岐阜市","city_kana":"ギフシ","town":"古市場","town_kana":"フルイチバ","prefecture_code":21},"1122":{"zip_code":"5011122","prefecture":"岐阜県","prefecture_kana":"ギフケン","city":"岐阜市","city_kana":"ギフシ","town":"古市場老ノ上","town_kana":"フルイチバオイノカミ","prefecture_code":21},"1127":{"zip_code":"5011127","prefecture":"岐阜県","prefecture_kana":"ギフケン","city":"岐阜市","city_kana":"ギフシ","town":"古市場神田","town_kana":"フルイチバジンデン","prefecture_code":21},"1123":{"zip_code":"5011123","prefecture":"岐阜県","prefecture_kana":"ギフケン","city":"岐阜市","city_kana":"ギフシ","town":"古市場高田","town_kana":"フルイチバタカダ","prefecture_code":21},"1126":{"zip_code":"5011126","prefecture":"岐阜県","prefecture_kana":"ギフケン","city":"岐阜市","city_kana":"ギフシ","town":"古市場高宮","town_kana":"フルイチバタカミヤ","prefecture_code":21},"1124":{"zip_code":"5011124","prefecture":"岐阜県","prefecture_kana":"ギフケン","city":"岐阜市","city_kana":"ギフシ","town":"古市場中原","town_kana":"フルイチバナカハラ","prefecture_code":21},"1125":{"zip_code":"5011125","prefecture":"岐阜県","prefecture_kana":"ギフケン","city":"岐阜市","city_kana":"ギフシ","town":"古市場東町田","town_kana":"フルイチバヒガシマチダ","prefecture_code":21},"1128":{"zip_code":"5011128","prefecture":"岐阜県","prefecture_kana":"ギフケン","city":"岐阜市","city_kana":"ギフシ","town":"洞","town_kana":"ホラ","prefecture_code":21},"1115":{"zip_code":"5011115","prefecture":"岐阜県","prefecture_kana":"ギフケン","city":"岐阜市","city_kana":"ギフシ","town":"交人","town_kana":"マシト","prefecture_code":21},"1152":{"zip_code":"5011152","prefecture":"岐阜県","prefecture_kana":"ギフケン","city":"岐阜市","city_kana":"ギフシ","town":"又丸","town_kana":"マタマル","prefecture_code":21},"1153":{"zip_code":"5011153","prefecture":"岐阜県","prefecture_kana":"ギフケン","city":"岐阜市","city_kana":"ギフシ","town":"又丸町畑","town_kana":"マタマルチョウバタ","prefecture_code":21},"1156":{"zip_code":"5011156","prefecture":"岐阜県","prefecture_kana":"ギフケン","city":"岐阜市","city_kana":"ギフシ","town":"又丸津島","town_kana":"マタマルツシマ","prefecture_code":21},"1155":{"zip_code":"5011155","prefecture":"岐阜県","prefecture_kana":"ギフケン","city":"岐阜市","city_kana":"ギフシ","town":"又丸宮東","town_kana":"マタマルミヤヒガシ","prefecture_code":21},"1157":{"zip_code":"5011157","prefecture":"岐阜県","prefecture_kana":"ギフケン","city":"岐阜市","city_kana":"ギフシ","town":"又丸村中","town_kana":"マタマルムラナカ","prefecture_code":21},"1154":{"zip_code":"5011154","prefecture":"岐阜県","prefecture_kana":"ギフケン","city":"岐阜市","city_kana":"ギフシ","town":"又丸柳町","town_kana":"マタマルヤナギマチ","prefecture_code":21},"2551":{"zip_code":"5012551","prefecture":"岐阜県","prefecture_kana":"ギフケン","city":"岐阜市","city_kana":"ギフシ","town":"溝口","town_kana":"ミゾグチ","prefecture_code":21},"2557":{"zip_code":"5012557","prefecture":"岐阜県","prefecture_kana":"ギフケン","city":"岐阜市","city_kana":"ギフシ","town":"溝口上","town_kana":"ミゾグチカミ","prefecture_code":21},"2556":{"zip_code":"5012556","prefecture":"岐阜県","prefecture_kana":"ギフケン","city":"岐阜市","city_kana":"ギフシ","town":"溝口中","town_kana":"ミゾグチナカ","prefecture_code":21},"2555":{"zip_code":"5012555","prefecture":"岐阜県","prefecture_kana":"ギフケン","city":"岐阜市","city_kana":"ギフシ","town":"溝口下","town_kana":"ミゾグチシモ","prefecture_code":21},"2554":{"zip_code":"5012554","prefecture":"岐阜県","prefecture_kana":"ギフケン","city":"岐阜市","city_kana":"ギフシ","town":"溝口童子","town_kana":"ミゾグチドウジ","prefecture_code":21},"2553":{"zip_code":"5012553","prefecture":"岐阜県","prefecture_kana":"ギフケン","city":"岐阜市","city_kana":"ギフシ","town":"溝口中野","town_kana":"ミゾグチナカノ","prefecture_code":21},"2552":{"zip_code":"5012552","prefecture":"岐阜県","prefecture_kana":"ギフケン","city":"岐阜市","city_kana":"ギフシ","town":"溝口東","town_kana":"ミゾグチヒガシ","prefecture_code":21},"1134":{"zip_code":"5011134","prefecture":"岐阜県","prefecture_kana":"ギフケン","city":"岐阜市","city_kana":"ギフシ","town":"南柿ケ瀬","town_kana":"ミナミカキガセ","prefecture_code":21},"2513":{"zip_code":"5012513","prefecture":"岐阜県","prefecture_kana":"ギフケン","city":"岐阜市","city_kana":"ギフシ","town":"三輪","town_kana":"ミワ","prefecture_code":21},"2514":{"zip_code":"5012514","prefecture":"岐阜県","prefecture_kana":"ギフケン","city":"岐阜市","city_kana":"ギフシ","town":"三輪宮前","town_kana":"ミワミヤマエ","prefecture_code":21},"2515":{"zip_code":"5012515","prefecture":"岐阜県","prefecture_kana":"ギフケン","city":"岐阜市","city_kana":"ギフシ","town":"三輪宮西","town_kana":"ミワミヤニシ","prefecture_code":21},"2517":{"zip_code":"5012517","prefecture":"岐阜県","prefecture_kana":"ギフケン","city":"岐阜市","city_kana":"ギフシ","town":"三輪ぷりんとぴあ","town_kana":"ミワプリントピア","prefecture_code":21},"3109":{"zip_code":"5013109","prefecture":"岐阜県","prefecture_kana":"ギフケン","city":"岐阜市","city_kana":"ギフシ","town":"向加野","town_kana":"ムカイカノ","prefecture_code":21},"1107":{"zip_code":"5011107","prefecture":"岐阜県","prefecture_kana":"ギフケン","city":"岐阜市","city_kana":"ギフシ","town":"村山","town_kana":"ムラヤマ","prefecture_code":21},"2523":{"zip_code":"5012523","prefecture":"岐阜県","prefecture_kana":"ギフケン","city":"岐阜市","city_kana":"ギフシ","town":"茂地","town_kana":"モチ","prefecture_code":21},"2533":{"zip_code":"5012533","prefecture":"岐阜県","prefecture_kana":"ギフケン","city":"岐阜市","city_kana":"ギフシ","town":"森東","town_kana":"モリヒガシ","prefecture_code":21},"2534":{"zip_code":"5012534","prefecture":"岐阜県","prefecture_kana":"ギフケン","city":"岐阜市","city_kana":"ギフシ","town":"森西","town_kana":"モリニシ","prefecture_code":21},"6105":{"zip_code":"5016105","prefecture":"岐阜県","prefecture_kana":"ギフケン","city":"岐阜市","city_kana":"ギフシ","town":"柳津町梅松","town_kana":"ヤナイヅチョウウメマツ","prefecture_code":21},"6121":{"zip_code":"5016121","prefecture":"岐阜県","prefecture_kana":"ギフケン","city":"岐阜市","city_kana":"ギフシ","town":"柳津町下佐波西","town_kana":"ヤナイヅチョウシモサバニシ","prefecture_code":21},"6112":{"zip_code":"5016112","prefecture":"岐阜県","prefecture_kana":"ギフケン","city":"岐阜市","city_kana":"ギフシ","town":"柳津町北塚","town_kana":"ヤナイヅチョウキタヅカ","prefecture_code":21},"6101":{"zip_code":"5016101","prefecture":"岐阜県","prefecture_kana":"ギフケン","city":"岐阜市","city_kana":"ギフシ","town":"柳津町栄町","town_kana":"ヤナイヅチョウサカエマチ","prefecture_code":21},"6122":{"zip_code":"5016122","prefecture":"岐阜県","prefecture_kana":"ギフケン","city":"岐阜市","city_kana":"ギフシ","town":"柳津町高桑東","town_kana":"ヤナイヅチョウタカクワヒガシ","prefecture_code":21},"6103":{"zip_code":"5016103","prefecture":"岐阜県","prefecture_kana":"ギフケン","city":"岐阜市","city_kana":"ギフシ","town":"柳津町蓮池","town_kana":"ヤナイヅチョウハスイケ","prefecture_code":21},"6102":{"zip_code":"5016102","prefecture":"岐阜県","prefecture_kana":"ギフケン","city":"岐阜市","city_kana":"ギフシ","town":"柳津町東塚","town_kana":"ヤナイヅチョウヒガシヅカ","prefecture_code":21},"6104":{"zip_code":"5016104","prefecture":"岐阜県","prefecture_kana":"ギフケン","city":"岐阜市","city_kana":"ギフシ","town":"柳津町本郷","town_kana":"ヤナイヅチョウホンゴウ","prefecture_code":21},"6115":{"zip_code":"5016115","prefecture":"岐阜県","prefecture_kana":"ギフケン","city":"岐阜市","city_kana":"ギフシ","town":"柳津町丸野","town_kana":"ヤナイヅチョウマルノ","prefecture_code":21},"6113":{"zip_code":"5016113","prefecture":"岐阜県","prefecture_kana":"ギフケン","city":"岐阜市","city_kana":"ギフシ","town":"柳津町南塚","town_kana":"ヤナイヅチョウミナミヅカ","prefecture_code":21},"6111":{"zip_code":"5016111","prefecture":"岐阜県","prefecture_kana":"ギフケン","city":"岐阜市","city_kana":"ギフシ","town":"柳津町宮東","town_kana":"ヤナイヅチョウミヤヒガシ","prefecture_code":21},"6123":{"zip_code":"5016123","prefecture":"岐阜県","prefecture_kana":"ギフケン","city":"岐阜市","city_kana":"ギフシ","town":"柳津町流通センター","town_kana":"ヤナイヅチョウリュウツウセンター","prefecture_code":21},"1112":{"zip_code":"5011112","prefecture":"岐阜県","prefecture_kana":"ギフケン","city":"岐阜市","city_kana":"ギフシ","town":"柳戸","town_kana":"ヤナギト","prefecture_code":21},"2504":{"zip_code":"5012504","prefecture":"岐阜県","prefecture_kana":"ギフケン","city":"岐阜市","city_kana":"ギフシ","town":"山県岩","town_kana":"ヤマガタイワ","prefecture_code":21},"2507":{"zip_code":"5012507","prefecture":"岐阜県","prefecture_kana":"ギフケン","city":"岐阜市","city_kana":"ギフシ","town":"山県岩中","town_kana":"ヤマガタイワナカ","prefecture_code":21},"2508":{"zip_code":"5012508","prefecture":"岐阜県","prefecture_kana":"ギフケン","city":"岐阜市","city_kana":"ギフシ","town":"山県岩明光","town_kana":"ヤマガタイワミョウコウ","prefecture_code":21},"2505":{"zip_code":"5012505","prefecture":"岐阜県","prefecture_kana":"ギフケン","city":"岐阜市","city_kana":"ギフシ","town":"山県岩東","town_kana":"ヤマガタイワヒガシ","prefecture_code":21},"2509":{"zip_code":"5012509","prefecture":"岐阜県","prefecture_kana":"ギフケン","city":"岐阜市","city_kana":"ギフシ","town":"山県岩西","town_kana":"ヤマガタイワニシ","prefecture_code":21},"2506":{"zip_code":"5012506","prefecture":"岐阜県","prefecture_kana":"ギフケン","city":"岐阜市","city_kana":"ギフシ","town":"山県岩南","town_kana":"ヤマガタイワミナミ","prefecture_code":21},"2502":{"zip_code":"5012502","prefecture":"岐阜県","prefecture_kana":"ギフケン","city":"岐阜市","city_kana":"ギフシ","town":"山県北野","town_kana":"ヤマガタキタノ","prefecture_code":21},"2541":{"zip_code":"5012541","prefecture":"岐阜県","prefecture_kana":"ギフケン","city":"岐阜市","city_kana":"ギフシ","town":"世保","town_kana":"ヨヤス","prefecture_code":21},"2542":{"zip_code":"5012542","prefecture":"岐阜県","prefecture_kana":"ギフケン","city":"岐阜市","city_kana":"ギフシ","town":"世保東","town_kana":"ヨヤスヒガシ","prefecture_code":21},"2544":{"zip_code":"5012544","prefecture":"岐阜県","prefecture_kana":"ギフケン","city":"岐阜市","city_kana":"ギフシ","town":"世保西","town_kana":"ヨヤスニシ","prefecture_code":21},"2543":{"zip_code":"5012543","prefecture":"岐阜県","prefecture_kana":"ギフケン","city":"岐阜市","city_kana":"ギフシ","town":"世保南","town_kana":"ヨヤスミナミ","prefecture_code":21},"2545":{"zip_code":"5012545","prefecture":"岐阜県","prefecture_kana":"ギフケン","city":"岐阜市","city_kana":"ギフシ","town":"世保北","town_kana":"ヨヤスキタ","prefecture_code":21},"5421":{"zip_code":"5015421","prefecture":"岐阜県","prefecture_kana":"ギフケン","city":"高山市","city_kana":"タカヤマシ","town":"荘川町赤谷","town_kana":"ショウカワチョウアカダニ","prefecture_code":21},"5413":{"zip_code":"5015413","prefecture":"岐阜県","prefecture_kana":"ギフケン","city":"高山市","city_kana":"タカヤマシ","town":"荘川町新渕","town_kana":"ショウカワチョウアラブチ","prefecture_code":21},"5415":{"zip_code":"5015415","prefecture":"岐阜県","prefecture_kana":"ギフケン","city":"高山市","city_kana":"タカヤマシ","town":"荘川町一色","town_kana":"ショウカワチョウイッシキ","prefecture_code":21},"5423":{"zip_code":"5015423","prefecture":"岐阜県","prefecture_kana":"ギフケン","city":"高山市","city_kana":"タカヤマシ","town":"荘川町岩瀬","town_kana":"ショウカワチョウイワゼ","prefecture_code":21},"5422":{"zip_code":"5015422","prefecture":"岐阜県","prefecture_kana":"ギフケン","city":"高山市","city_kana":"タカヤマシ","town":"荘川町牛丸","town_kana":"ショウカワチョウウシマル","prefecture_code":21},"5426":{"zip_code":"5015426","prefecture":"岐阜県","prefecture_kana":"ギフケン","city":"高山市","city_kana":"タカヤマシ","town":"荘川町尾上郷","town_kana":"ショウカワチョウオガミゴウ","prefecture_code":21},"5425":{"zip_code":"5015425","prefecture":"岐阜県","prefecture_kana":"ギフケン","city":"高山市","city_kana":"タカヤマシ","town":"荘川町海上","town_kana":"ショウカワチョウカイジョウ","prefecture_code":21},"5404":{"zip_code":"5015404","prefecture":"岐阜県","prefecture_kana":"ギフケン","city":"高山市","city_kana":"タカヤマシ","town":"荘川町黒谷","town_kana":"ショウカワチョウクロダニ","prefecture_code":21},"5414":{"zip_code":"5015414","prefecture":"岐阜県","prefecture_kana":"ギフケン","city":"高山市","city_kana":"タカヤマシ","town":"荘川町猿丸","town_kana":"ショウカワチョウサルマル","prefecture_code":21},"5402":{"zip_code":"5015402","prefecture":"岐阜県","prefecture_kana":"ギフケン","city":"高山市","city_kana":"タカヤマシ","town":"荘川町三谷","town_kana":"ショウカワチョウサンダニ","prefecture_code":21},"5406":{"zip_code":"5015406","prefecture":"岐阜県","prefecture_kana":"ギフケン","city":"高山市","city_kana":"タカヤマシ","town":"荘川町惣則","town_kana":"ショウカワチョウソウノリ","prefecture_code":21},"5405":{"zip_code":"5015405","prefecture":"岐阜県","prefecture_kana":"ギフケン","city":"高山市","city_kana":"タカヤマシ","town":"荘川町寺河戸","town_kana":"ショウカワチョウテラカワド","prefecture_code":21},"5424":{"zip_code":"5015424","prefecture":"岐阜県","prefecture_kana":"ギフケン","city":"高山市","city_kana":"タカヤマシ","town":"荘川町中野","town_kana":"ショウカワチョウナカノ","prefecture_code":21},"5412":{"zip_code":"5015412","prefecture":"岐阜県","prefecture_kana":"ギフケン","city":"高山市","city_kana":"タカヤマシ","town":"荘川町中畑","town_kana":"ショウカワチョウナカハタ","prefecture_code":21},"5417":{"zip_code":"5015417","prefecture":"岐阜県","prefecture_kana":"ギフケン","city":"高山市","city_kana":"タカヤマシ","town":"荘川町野々俣","town_kana":"ショウカワチョウノノマタ","prefecture_code":21},"5411":{"zip_code":"5015411","prefecture":"岐阜県","prefecture_kana":"ギフケン","city":"高山市","city_kana":"タカヤマシ","town":"荘川町牧戸","town_kana":"ショウカワチョウマキド","prefecture_code":21},"5416":{"zip_code":"5015416","prefecture":"岐阜県","prefecture_kana":"ギフケン","city":"高山市","city_kana":"タカヤマシ","town":"荘川町町屋","town_kana":"ショウカワチョウマチヤ","prefecture_code":21},"5403":{"zip_code":"5015403","prefecture":"岐阜県","prefecture_kana":"ギフケン","city":"高山市","city_kana":"タカヤマシ","town":"荘川町三尾河","town_kana":"ショウカワチョウミオゴ","prefecture_code":21},"5401":{"zip_code":"5015401","prefecture":"岐阜県","prefecture_kana":"ギフケン","city":"高山市","city_kana":"タカヤマシ","town":"荘川町六厩","town_kana":"ショウカワチョウムマヤ","prefecture_code":21},"3200":{"zip_code":"5013200","prefecture":"岐阜県","prefecture_kana":"ギフケン","city":"関市","city_kana":"セキシ","town":"","town_kana":"","prefecture_code":21},"3851":{"zip_code":"5013851","prefecture":"岐阜県","prefecture_kana":"ギフケン","city":"関市","city_kana":"セキシ","town":"相生町","town_kana":"アイオイチョウ","prefecture_code":21},"3978":{"zip_code":"5013978","prefecture":"岐阜県","prefecture_kana":"ギフケン","city":"関市","city_kana":"セキシ","town":"赤渕","town_kana":"アカフチ","prefecture_code":21},"3852":{"zip_code":"5013852","prefecture":"岐阜県","prefecture_kana":"ギフケン","city":"関市","city_kana":"セキシ","town":"上利町","town_kana":"アガリマチ","prefecture_code":21},"3853":{"zip_code":"5013853","prefecture":"岐阜県","prefecture_kana":"ギフケン","city":"関市","city_kana":"セキシ","town":"朝倉町","town_kana":"アサクラチョウ","prefecture_code":21},"3829":{"zip_code":"5013829","prefecture":"岐阜県","prefecture_kana":"ギフケン","city":"関市","city_kana":"セキシ","town":"旭ケ丘","town_kana":"アサヒガオカ","prefecture_code":21},"3808":{"zip_code":"5013808","prefecture":"岐阜県","prefecture_kana":"ギフケン","city":"関市","city_kana":"セキシ","town":"安桜台","town_kana":"アサクラダイ","prefecture_code":21},"3807":{"zip_code":"5013807","prefecture":"岐阜県","prefecture_kana":"ギフケン","city":"関市","city_kana":"セキシ","town":"安桜山","town_kana":"アサクラヤマ","prefecture_code":21},"3845":{"zip_code":"5013845","prefecture":"岐阜県","prefecture_kana":"ギフケン","city":"関市","city_kana":"セキシ","town":"吾妻町","town_kana":"アヅマチョウ","prefecture_code":21},"3264":{"zip_code":"5013264","prefecture":"岐阜県","prefecture_kana":"ギフケン","city":"関市","city_kana":"セキシ","town":"池尻","town_kana":"イケジリ","prefecture_code":21},"3247":{"zip_code":"5013247","prefecture":"岐阜県","prefecture_kana":"ギフケン","city":"関市","city_kana":"セキシ","town":"池田町","town_kana":"イケダチョウ","prefecture_code":21},"3966":{"zip_code":"5013966","prefecture":"岐阜県","prefecture_kana":"ギフケン","city":"関市","city_kana":"セキシ","town":"居敷町","town_kana":"イシキチョウ","prefecture_code":21},"3841":{"zip_code":"5013841","prefecture":"岐阜県","prefecture_kana":"ギフケン","city":"関市","city_kana":"セキシ","town":"伊勢町","town_kana":"イセマチ","prefecture_code":21},"2901":{"zip_code":"5012901","prefecture":"岐阜県","prefecture_kana":"ギフケン","city":"関市","city_kana":"セキシ","town":"板取","town_kana":"イタドリ","prefecture_code":21},"3822":{"zip_code":"5013822","prefecture":"岐阜県","prefecture_kana":"ギフケン","city":"関市","city_kana":"セキシ","town":"市平賀","town_kana":"イチヒラガ","prefecture_code":21},"3979":{"zip_code":"5013979","prefecture":"岐阜県","prefecture_kana":"ギフケン","city":"関市","city_kana":"セキシ","town":"一本木町","town_kana":"イッポンギチョウ","prefecture_code":21},"3932":{"zip_code":"5013932","prefecture":"岐阜県","prefecture_kana":"ギフケン","city":"関市","city_kana":"セキシ","town":"稲口","town_kana":"イナグチ","prefecture_code":21},"3913":{"zip_code":"5013913","prefecture":"岐阜県","prefecture_kana":"ギフケン","city":"関市","city_kana":"セキシ","town":"稲河町","town_kana":"イナゴチョウ","prefecture_code":21},"3914":{"zip_code":"5013914","prefecture":"岐阜県","prefecture_kana":"ギフケン","city":"関市","city_kana":"セキシ","town":"鋳物師屋","town_kana":"イモジヤ","prefecture_code":21},"3855":{"zip_code":"5013855","prefecture":"岐阜県","prefecture_kana":"ギフケン","city":"関市","city_kana":"セキシ","town":"いろは町","town_kana":"イロハチョウ","prefecture_code":21},"3951":{"zip_code":"5013951","prefecture":"岐阜県","prefecture_kana":"ギフケン","city":"関市","city_kana":"セキシ","town":"植野","town_kana":"ウエノ","prefecture_code":21},"3974":{"zip_code":"5013974","prefecture":"岐阜県","prefecture_kana":"ギフケン","city":"関市","city_kana":"セキシ","town":"梅ケ枝町","town_kana":"ウメガエチョウ","prefecture_code":21},"3804":{"zip_code":"5013804","prefecture":"岐阜県","prefecture_kana":"ギフケン","city":"関市","city_kana":"セキシ","town":"円保通","town_kana":"エンボドオリ","prefecture_code":21},"3922":{"zip_code":"5013922","prefecture":"岐阜県","prefecture_kana":"ギフケン","city":"関市","city_kana":"セキシ","town":"大杉","town_kana":"オオスギ","prefecture_code":21},"3801":{"zip_code":"5013801","prefecture":"岐阜県","prefecture_kana":"ギフケン","city":"関市","city_kana":"セキシ","town":"大坪","town_kana":"オオツボ","prefecture_code":21},"3265":{"zip_code":"5013265","prefecture":"岐阜県","prefecture_kana":"ギフケン","city":"関市","city_kana":"セキシ","town":"小瀬","town_kana":"オゼ","prefecture_code":21},"3268":{"zip_code":"5013268","prefecture":"岐阜県","prefecture_kana":"ギフケン","city":"関市","city_kana":"セキシ","town":"小瀬長池町","town_kana":"オゼナガイケチョウ","prefecture_code":21},"3266":{"zip_code":"5013266","prefecture":"岐阜県","prefecture_kana":"ギフケン","city":"関市","city_kana":"セキシ","town":"小瀬南","town_kana":"オゼミナミ","prefecture_code":21},"3201":{"zip_code":"5013201","prefecture":"岐阜県","prefecture_kana":"ギフケン","city":"関市","city_kana":"セキシ","town":"小野","town_kana":"オノ","prefecture_code":21},"3210":{"zip_code":"5013210","prefecture":"岐阜県","prefecture_kana":"ギフケン","city":"関市","city_kana":"セキシ","town":"尾太町","town_kana":"オブトチョウ","prefecture_code":21},"3941":{"zip_code":"5013941","prefecture":"岐阜県","prefecture_kana":"ギフケン","city":"関市","city_kana":"セキシ","town":"小屋名","town_kana":"オヤナ","prefecture_code":21},"3214":{"zip_code":"5013214","prefecture":"岐阜県","prefecture_kana":"ギフケン","city":"関市","city_kana":"セキシ","town":"貸上町","town_kana":"カシアゲチョウ","prefecture_code":21},"3871":{"zip_code":"5013871","prefecture":"岐阜県","prefecture_kana":"ギフケン","city":"関市","city_kana":"セキシ","town":"鍛冶町","town_kana":"カジチョウ","prefecture_code":21},"3865":{"zip_code":"5013865","prefecture":"岐阜県","prefecture_kana":"ギフケン","city":"関市","city_kana":"セキシ","town":"春日町","town_kana":"カスガチョウ","prefecture_code":21},"3963":{"zip_code":"5013963","prefecture":"岐阜県","prefecture_kana":"ギフケン","city":"関市","city_kana":"セキシ","town":"片倉町","town_kana":"カタクラチョウ","prefecture_code":21},"3872":{"zip_code":"5013872","prefecture":"岐阜県","prefecture_kana":"ギフケン","city":"関市","city_kana":"セキシ","town":"金屋町","town_kana":"カナヤチョウ","prefecture_code":21},"3862":{"zip_code":"5013862","prefecture":"岐阜県","prefecture_kana":"ギフケン","city":"関市","city_kana":"セキシ","town":"兼永町","town_kana":"カネナガチョウ","prefecture_code":21},"3204":{"zip_code":"5013204","prefecture":"岐阜県","prefecture_kana":"ギフケン","city":"関市","city_kana":"セキシ","town":"上大野","town_kana":"カミオオノ","prefecture_code":21},"3947":{"zip_code":"5013947","prefecture":"岐阜県","prefecture_kana":"ギフケン","city":"関市","city_kana":"セキシ","town":"上白金","town_kana":"カミシロカネ","prefecture_code":21},"3203":{"zip_code":"5013203","prefecture":"岐阜県","prefecture_kana":"ギフケン","city":"関市","city_kana":"セキシ","town":"神野","town_kana":"カミノ","prefecture_code":21},"3601":{"zip_code":"5013601","prefecture":"岐阜県","prefecture_kana":"ギフケン","city":"関市","city_kana":"セキシ","town":"上之保","town_kana":"カミノホ","prefecture_code":21},"3877":{"zip_code":"5013877","prefecture":"岐阜県","prefecture_kana":"ギフケン","city":"関市","city_kana":"セキシ","town":"河合町","town_kana":"カワイチョウ","prefecture_code":21},"3235":{"zip_code":"5013235","prefecture":"岐阜県","prefecture_kana":"ギフケン","city":"関市","city_kana":"セキシ","town":"川間町","town_kana":"カワマチョウ","prefecture_code":21},"3835":{"zip_code":"5013835","prefecture":"岐阜県","prefecture_kana":"ギフケン","city":"関市","city_kana":"セキシ","town":"観音前","town_kana":"カンノンマエ","prefecture_code":21},"3806":{"zip_code":"5013806","prefecture":"岐阜県","prefecture_kana":"ギフケン","city":"関市","city_kana":"セキシ","town":"観音山","town_kana":"カンノンヤマ","prefecture_code":21},"3917":{"zip_code":"5013917","prefecture":"岐阜県","prefecture_kana":"ギフケン","city":"関市","city_kana":"セキシ","town":"北天神","town_kana":"キタテンジン","prefecture_code":21},"3245":{"zip_code":"5013245","prefecture":"岐阜県","prefecture_kana":"ギフケン","city":"関市","city_kana":"セキシ","town":"北福野町","town_kana":"キタフクノチョウ","prefecture_code":21},"3843":{"zip_code":"5013843","prefecture":"岐阜県","prefecture_kana":"ギフケン","city":"関市","city_kana":"セキシ","town":"吉田町","town_kana":"キッタマチ","prefecture_code":21},"3876":{"zip_code":"5013876","prefecture":"岐阜県","prefecture_kana":"ギフケン","city":"関市","city_kana":"セキシ","town":"貴船町","town_kana":"キブネチョウ","prefecture_code":21},"3942":{"zip_code":"5013942","prefecture":"岐阜県","prefecture_kana":"ギフケン","city":"関市","city_kana":"セキシ","town":"希望ケ丘","town_kana":"キボウガオカ","prefecture_code":21},"3938":{"zip_code":"5013938","prefecture":"岐阜県","prefecture_kana":"ギフケン","city":"関市","city_kana":"セキシ","town":"桐ヶ丘","town_kana":"キリガオカ","prefecture_code":21},"3934":{"zip_code":"5013934","prefecture":"岐阜県","prefecture_kana":"ギフケン","city":"関市","city_kana":"セキシ","town":"桐谷台","town_kana":"キリヤダイ","prefecture_code":21},"3936":{"zip_code":"5013936","prefecture":"岐阜県","prefecture_kana":"ギフケン","city":"関市","city_kana":"セキシ","town":"倉知","town_kana":"クラチ","prefecture_code":21},"3930":{"zip_code":"5013930","prefecture":"岐阜県","prefecture_kana":"ギフケン","city":"関市","city_kana":"セキシ","town":"倉知南","town_kana":"クラチミナミ","prefecture_code":21},"3207":{"zip_code":"5013207","prefecture":"岐阜県","prefecture_kana":"ギフケン","city":"関市","city_kana":"セキシ","town":"黒屋","town_kana":"クロヤ","prefecture_code":21},"3927":{"zip_code":"5013927","prefecture":"岐阜県","prefecture_kana":"ギフケン","city":"関市","city_kana":"セキシ","town":"向陽台","town_kana":"コウヨウダイ","prefecture_code":21},"3908":{"zip_code":"5013908","prefecture":"岐阜県","prefecture_kana":"ギフケン","city":"関市","city_kana":"セキシ","town":"寿町","town_kana":"コトブキチョウ","prefecture_code":21},"3926":{"zip_code":"5013926","prefecture":"岐阜県","prefecture_kana":"ギフケン","city":"関市","city_kana":"セキシ","town":"小迫間","town_kana":"コバサマ","prefecture_code":21},"3861":{"zip_code":"5013861","prefecture":"岐阜県","prefecture_kana":"ギフケン","city":"関市","city_kana":"セキシ","town":"小柳町","town_kana":"コヤナギチョウ","prefecture_code":21},"3241":{"zip_code":"5013241","prefecture":"岐阜県","prefecture_kana":"ギフケン","city":"関市","city_kana":"セキシ","town":"西仙房","town_kana":"サイセンボウ","prefecture_code":21},"3253":{"zip_code":"5013253","prefecture":"岐阜県","prefecture_kana":"ギフケン","city":"関市","city_kana":"セキシ","town":"栄町","town_kana":"サカエマチ","prefecture_code":21},"3888":{"zip_code":"5013888","prefecture":"岐阜県","prefecture_kana":"ギフケン","city":"関市","city_kana":"セキシ","town":"坂下町","town_kana":"サカシタチョウ","prefecture_code":21},"3903":{"zip_code":"5013903","prefecture":"岐阜県","prefecture_kana":"ギフケン","city":"関市","city_kana":"セキシ","town":"桜ケ丘","town_kana":"サクラガオカ","prefecture_code":21},"3856":{"zip_code":"5013856","prefecture":"岐阜県","prefecture_kana":"ギフケン","city":"関市","city_kana":"セキシ","town":"桜木町","town_kana":"サクラギチョウ","prefecture_code":21},"3931":{"zip_code":"5013931","prefecture":"岐阜県","prefecture_kana":"ギフケン","city":"関市","city_kana":"セキシ","town":"桜台","town_kana":"サクラダイ","prefecture_code":21},"3232":{"zip_code":"5013232","prefecture":"岐阜県","prefecture_kana":"ギフケン","city":"関市","city_kana":"セキシ","town":"桜本町","town_kana":"サクラホンマチ","prefecture_code":21},"3252":{"zip_code":"5013252","prefecture":"岐阜県","prefecture_kana":"ギフケン","city":"関市","city_kana":"セキシ","town":"山王通","town_kana":"サンノウドオリ","prefecture_code":21},"3251":{"zip_code":"5013251","prefecture":"岐阜県","prefecture_kana":"ギフケン","city":"関市","city_kana":"セキシ","town":"山王通西","town_kana":"サンノウドオリニシ","prefecture_code":21},"3935":{"zip_code":"5013935","prefecture":"岐阜県","prefecture_kana":"ギフケン","city":"関市","city_kana":"セキシ","town":"四季ノ台","town_kana":"シキノダイ","prefecture_code":21},"3878":{"zip_code":"5013878","prefecture":"岐阜県","prefecture_kana":"ギフケン","city":"関市","city_kana":"セキシ","town":"十軒町","town_kana":"ジッケンチョウ","prefecture_code":21},"3205":{"zip_code":"5013205","prefecture":"岐阜県","prefecture_kana":"ギフケン","city":"関市","city_kana":"セキシ","town":"志津野","town_kana":"シツノ","prefecture_code":21},"3972":{"zip_code":"5013972","prefecture":"岐阜県","prefecture_kana":"ギフケン","city":"関市","city_kana":"セキシ","town":"寺内町","town_kana":"ジナイチョウ","prefecture_code":21},"3977":{"zip_code":"5013977","prefecture":"岐阜県","prefecture_kana":"ギフケン","city":"関市","city_kana":"セキシ","town":"清水町","town_kana":"シミズチョウ","prefecture_code":21},"3217":{"zip_code":"5013217","prefecture":"岐阜県","prefecture_kana":"ギフケン","city":"関市","city_kana":"セキシ","town":"下有知","town_kana":"シモウチ","prefecture_code":21},"3955":{"zip_code":"5013955","prefecture":"岐阜県","prefecture_kana":"ギフケン","city":"関市","city_kana":"セキシ","town":"下白金","town_kana":"シモシロカネ","prefecture_code":21},"3521":{"zip_code":"5013521","prefecture":"岐阜県","prefecture_kana":"ギフケン","city":"関市","city_kana":"セキシ","town":"下之保","town_kana":"シモノホ","prefecture_code":21},"3259":{"zip_code":"5013259","prefecture":"岐阜県","prefecture_kana":"ギフケン","city":"関市","city_kana":"セキシ","town":"十三塚北","town_kana":"ジュウサンヅカキタ","prefecture_code":21},"3250":{"zip_code":"5013250","prefecture":"岐阜県","prefecture_kana":"ギフケン","city":"関市","city_kana":"セキシ","town":"十三塚町","town_kana":"ジュウサンヅカチョウ","prefecture_code":21},"3258":{"zip_code":"5013258","prefecture":"岐阜県","prefecture_kana":"ギフケン","city":"関市","city_kana":"セキシ","town":"十三塚南","town_kana":"ジュウサンヅカミナミ","prefecture_code":21},"3965":{"zip_code":"5013965","prefecture":"岐阜県","prefecture_kana":"ギフケン","city":"関市","city_kana":"セキシ","town":"十六所","town_kana":"ジュウロクセン","prefecture_code":21},"3868":{"zip_code":"5013868","prefecture":"岐阜県","prefecture_kana":"ギフケン","city":"関市","city_kana":"セキシ","town":"白川町","town_kana":"シラカワチョウ","prefecture_code":21},"3257":{"zip_code":"5013257","prefecture":"岐阜県","prefecture_kana":"ギフケン","city":"関市","city_kana":"セキシ","town":"新田","town_kana":"シンデン","prefecture_code":21},"3923":{"zip_code":"5013923","prefecture":"岐阜県","prefecture_kana":"ギフケン","city":"関市","city_kana":"セキシ","town":"新迫間","town_kana":"シンハサマ","prefecture_code":21},"3909":{"zip_code":"5013909","prefecture":"岐阜県","prefecture_kana":"ギフケン","city":"関市","city_kana":"セキシ","town":"新堀町","town_kana":"シンボリチョウ","prefecture_code":21},"3847":{"zip_code":"5013847","prefecture":"岐阜県","prefecture_kana":"ギフケン","city":"関市","city_kana":"セキシ","town":"新町","town_kana":"シンマチ","prefecture_code":21},"3905":{"zip_code":"5013905","prefecture":"岐阜県","prefecture_kana":"ギフケン","city":"関市","city_kana":"セキシ","town":"神明町","town_kana":"シンメイチョウ","prefecture_code":21},"3848":{"zip_code":"5013848","prefecture":"岐阜県","prefecture_kana":"ギフケン","city":"関市","city_kana":"セキシ","town":"末広町","town_kana":"スエヒロチョウ","prefecture_code":21},"3846":{"zip_code":"5013846","prefecture":"岐阜県","prefecture_kana":"ギフケン","city":"関市","city_kana":"セキシ","town":"住吉町","town_kana":"スミヨシチョウ","prefecture_code":21},"3961":{"zip_code":"5013961","prefecture":"岐阜県","prefecture_kana":"ギフケン","city":"関市","city_kana":"セキシ","town":"清蔵寺","town_kana":"セイゾウジ","prefecture_code":21},"3826":{"zip_code":"5013826","prefecture":"岐阜県","prefecture_kana":"ギフケン","city":"関市","city_kana":"セキシ","town":"関口町","town_kana":"セキグチチョウ","prefecture_code":21},"3211":{"zip_code":"5013211","prefecture":"岐阜県","prefecture_kana":"ギフケン","city":"関市","city_kana":"セキシ","town":"関ノ上","town_kana":"セキノウエ","prefecture_code":21},"3866":{"zip_code":"5013866","prefecture":"岐阜県","prefecture_kana":"ギフケン","city":"関市","city_kana":"セキシ","town":"千年町","town_kana":"センネンチョウ","prefecture_code":21},"3954":{"zip_code":"5013954","prefecture":"岐阜県","prefecture_kana":"ギフケン","city":"関市","city_kana":"セキシ","town":"千疋","town_kana":"センビキ","prefecture_code":21},"3953":{"zip_code":"5013953","prefecture":"岐阜県","prefecture_kana":"ギフケン","city":"関市","city_kana":"セキシ","town":"千疋北","town_kana":"センビキキタ","prefecture_code":21},"3957":{"zip_code":"5013957","prefecture":"岐阜県","prefecture_kana":"ギフケン","city":"関市","city_kana":"セキシ","town":"側島","town_kana":"ソバシマ","prefecture_code":21},"3952":{"zip_code":"5013952","prefecture":"岐阜県","prefecture_kana":"ギフケン","city":"関市","city_kana":"セキシ","town":"大平台","town_kana":"タイヘイダイ","prefecture_code":21},"3833":{"zip_code":"5013833","prefecture":"岐阜県","prefecture_kana":"ギフケン","city":"関市","city_kana":"セキシ","town":"大平町","town_kana":"タイヘイチョウ","prefecture_code":21},"3834":{"zip_code":"5013834","prefecture":"岐阜県","prefecture_kana":"ギフケン","city":"関市","city_kana":"セキシ","town":"大門町","town_kana":"ダイモンチョウ","prefecture_code":21},"3964":{"zip_code":"5013964","prefecture":"岐阜県","prefecture_kana":"ギフケン","city":"関市","city_kana":"セキシ","town":"宝山町","town_kana":"タカラヤマチョウ","prefecture_code":21},"3223":{"zip_code":"5013223","prefecture":"岐阜県","prefecture_kana":"ギフケン","city":"関市","city_kana":"セキシ","town":"竪切南","town_kana":"タテキリミナミ","prefecture_code":21},"3228":{"zip_code":"5013228","prefecture":"岐阜県","prefecture_kana":"ギフケン","city":"関市","city_kana":"セキシ","town":"竪切北","town_kana":"タテキリキタ","prefecture_code":21},"3255":{"zip_code":"5013255","prefecture":"岐阜県","prefecture_kana":"ギフケン","city":"関市","city_kana":"セキシ","town":"段下","town_kana":"ダンシタ","prefecture_code":21},"3968":{"zip_code":"5013968","prefecture":"岐阜県","prefecture_kana":"ギフケン","city":"関市","city_kana":"セキシ","town":"力山","town_kana":"チカラヤマ","prefecture_code":21},"3854":{"zip_code":"5013854","prefecture":"岐阜県","prefecture_kana":"ギフケン","city":"関市","city_kana":"セキシ","town":"月見町","town_kana":"ツキミチョウ","prefecture_code":21},"3236":{"zip_code":"5013236","prefecture":"岐阜県","prefecture_kana":"ギフケン","city":"関市","city_kana":"セキシ","town":"辻井戸町","town_kana":"ツジイドチョウ","prefecture_code":21},"3946":{"zip_code":"5013946","prefecture":"岐阜県","prefecture_kana":"ギフケン","city":"関市","city_kana":"セキシ","town":"津保川台","town_kana":"ツボカワダイ","prefecture_code":21},"3842":{"zip_code":"5013842","prefecture":"岐阜県","prefecture_kana":"ギフケン","city":"関市","city_kana":"セキシ","town":"出来町","town_kana":"デキマチ","prefecture_code":21},"3212":{"zip_code":"5013212","prefecture":"岐阜県","prefecture_kana":"ギフケン","city":"関市","city_kana":"セキシ","town":"寺田","town_kana":"テラダ","prefecture_code":21},"3915":{"zip_code":"5013915","prefecture":"岐阜県","prefecture_kana":"ギフケン","city":"関市","city_kana":"セキシ","town":"天徳町","town_kana":"テントクチョウ","prefecture_code":21},"3939":{"zip_code":"5013939","prefecture":"岐阜県","prefecture_kana":"ギフケン","city":"関市","city_kana":"セキシ","town":"桃紅大地","town_kana":"トウコウダイチ","prefecture_code":21},"3824":{"zip_code":"5013824","prefecture":"岐阜県","prefecture_kana":"ギフケン","city":"関市","city_kana":"セキシ","town":"東新町","town_kana":"トウシンチョウ","prefecture_code":21},"3206":{"zip_code":"5013206","prefecture":"岐阜県","prefecture_kana":"ギフケン","city":"関市","city_kana":"セキシ","town":"塔ノ洞","town_kana":"トウノホラ","prefecture_code":21},"3867":{"zip_code":"5013867","prefecture":"岐阜県","prefecture_kana":"ギフケン","city":"関市","city_kana":"セキシ","town":"常盤町","town_kana":"トキワチョウ","prefecture_code":21},"3887":{"zip_code":"5013887","prefecture":"岐阜県","prefecture_kana":"ギフケン","city":"関市","city_kana":"セキシ","town":"吐月町","town_kana":"トゲツチョウ","prefecture_code":21},"3958":{"zip_code":"5013958","prefecture":"岐阜県","prefecture_kana":"ギフケン","city":"関市","city_kana":"セキシ","town":"戸田","town_kana":"トダ","prefecture_code":21},"3501":{"zip_code":"5013501","prefecture":"岐阜県","prefecture_kana":"ギフケン","city":"関市","city_kana":"セキシ","town":"富之保","town_kana":"トミノホ","prefecture_code":21},"3863":{"zip_code":"5013863","prefecture":"岐阜県","prefecture_kana":"ギフケン","city":"関市","city_kana":"セキシ","town":"富本町","town_kana":"トミモトチョウ","prefecture_code":21},"3916":{"zip_code":"5013916","prefecture":"岐阜県","prefecture_kana":"ギフケン","city":"関市","city_kana":"セキシ","town":"豊岡町","town_kana":"トヨオカチョウ","prefecture_code":21},"3975":{"zip_code":"5013975","prefecture":"岐阜県","prefecture_kana":"ギフケン","city":"関市","city_kana":"セキシ","town":"豊川町","town_kana":"トヨカワチョウ","prefecture_code":21},"3511":{"zip_code":"5013511","prefecture":"岐阜県","prefecture_kana":"ギフケン","city":"関市","city_kana":"セキシ","town":"中之保","town_kana":"ナカノホ","prefecture_code":21},"3243":{"zip_code":"5013243","prefecture":"岐阜県","prefecture_kana":"ギフケン","city":"関市","city_kana":"セキシ","town":"中福野町","town_kana":"ナカフクノチョウ","prefecture_code":21},"3817":{"zip_code":"5013817","prefecture":"岐阜県","prefecture_kana":"ギフケン","city":"関市","city_kana":"セキシ","town":"仲町","town_kana":"ナカマチ","prefecture_code":21},"3839":{"zip_code":"5013839","prefecture":"岐阜県","prefecture_kana":"ギフケン","city":"関市","city_kana":"セキシ","town":"長住町","town_kana":"ナガズミチョウ","prefecture_code":21},"3828":{"zip_code":"5013828","prefecture":"岐阜県","prefecture_kana":"ギフケン","city":"関市","city_kana":"セキシ","town":"西旭ケ丘","town_kana":"ニシアサヒガオカ","prefecture_code":21},"3967":{"zip_code":"5013967","prefecture":"岐阜県","prefecture_kana":"ギフケン","city":"関市","city_kana":"セキシ","town":"西居敷","town_kana":"ニシイシキ","prefecture_code":21},"3906":{"zip_code":"5013906","prefecture":"岐阜県","prefecture_kana":"ギフケン","city":"関市","city_kana":"セキシ","town":"西欠ノ下","town_kana":"ニシカケノシタ","prefecture_code":21},"3221":{"zip_code":"5013221","prefecture":"岐阜県","prefecture_kana":"ギフケン","city":"関市","city_kana":"セキシ","town":"西貸上","town_kana":"ニシカシアゲ","prefecture_code":21},"3202":{"zip_code":"5013202","prefecture":"岐阜県","prefecture_kana":"ギフケン","city":"関市","city_kana":"セキシ","town":"西神野","town_kana":"ニシカミノ","prefecture_code":21},"3233":{"zip_code":"5013233","prefecture":"岐阜県","prefecture_kana":"ギフケン","city":"関市","city_kana":"セキシ","town":"西木戸町","town_kana":"ニシキドチョウ","prefecture_code":21},"3215":{"zip_code":"5013215","prefecture":"岐阜県","prefecture_kana":"ギフケン","city":"関市","city_kana":"セキシ","town":"西境松町","town_kana":"ニシサカイマツチョウ","prefecture_code":21},"3928":{"zip_code":"5013928","prefecture":"岐阜県","prefecture_kana":"ギフケン","city":"関市","city_kana":"セキシ","town":"西田原","town_kana":"ニシタワラ","prefecture_code":21},"3882":{"zip_code":"5013882","prefecture":"岐阜県","prefecture_kana":"ギフケン","city":"関市","city_kana":"セキシ","town":"西日吉町","town_kana":"ニシヒヨシチョウ","prefecture_code":21},"3244":{"zip_code":"5013244","prefecture":"岐阜県","prefecture_kana":"ギフケン","city":"関市","city_kana":"セキシ","town":"西福野町","town_kana":"ニシフクノチョウ","prefecture_code":21},"3803":{"zip_code":"5013803","prefecture":"岐阜県","prefecture_kana":"ギフケン","city":"関市","city_kana":"セキシ","town":"西本郷通","town_kana":"ニシホンゴウドオリ","prefecture_code":21},"3819":{"zip_code":"5013819","prefecture":"岐阜県","prefecture_kana":"ギフケン","city":"関市","city_kana":"セキシ","town":"西町","town_kana":"ニシマチ","prefecture_code":21},"3837":{"zip_code":"5013837","prefecture":"岐阜県","prefecture_kana":"ギフケン","city":"関市","city_kana":"セキシ","town":"西門前町","town_kana":"ニシモンゼンチョウ","prefecture_code":21},"3943":{"zip_code":"5013943","prefecture":"岐阜県","prefecture_kana":"ギフケン","city":"関市","city_kana":"セキシ","town":"虹ケ丘南","town_kana":"ニジガオカミナミ","prefecture_code":21},"3945":{"zip_code":"5013945","prefecture":"岐阜県","prefecture_kana":"ギフケン","city":"関市","city_kana":"セキシ","town":"虹ケ丘北","town_kana":"ニジガオカキタ","prefecture_code":21},"3219":{"zip_code":"5013219","prefecture":"岐阜県","prefecture_kana":"ギフケン","city":"関市","city_kana":"セキシ","town":"のぞみケ丘","town_kana":"ノゾミガオカ","prefecture_code":21},"3976":{"zip_code":"5013976","prefecture":"岐阜県","prefecture_kana":"ギフケン","city":"関市","city_kana":"セキシ","town":"梅竜寺山","town_kana":"バイリュウジヤマ","prefecture_code":21},"3924":{"zip_code":"5013924","prefecture":"岐阜県","prefecture_kana":"ギフケン","city":"関市","city_kana":"セキシ","town":"迫間","town_kana":"ハサマ","prefecture_code":21},"3925":{"zip_code":"5013925","prefecture":"岐阜県","prefecture_kana":"ギフケン","city":"関市","city_kana":"セキシ","town":"迫間台","town_kana":"ハサマダイ","prefecture_code":21},"3831":{"zip_code":"5013831","prefecture":"岐阜県","prefecture_kana":"ギフケン","city":"関市","city_kana":"セキシ","town":"長谷寺町","town_kana":"ハセデラチョウ","prefecture_code":21},"3832":{"zip_code":"5013832","prefecture":"岐阜県","prefecture_kana":"ギフケン","city":"関市","city_kana":"セキシ","town":"花園町","town_kana":"ハナゾノチョウ","prefecture_code":21},"3256":{"zip_code":"5013256","prefecture":"岐阜県","prefecture_kana":"ギフケン","city":"関市","city_kana":"セキシ","town":"巾","town_kana":"ハバ","prefecture_code":21},"3969":{"zip_code":"5013969","prefecture":"岐阜県","prefecture_kana":"ギフケン","city":"関市","city_kana":"セキシ","town":"馬場出","town_kana":"ババダシ","prefecture_code":21},"3901":{"zip_code":"5013901","prefecture":"岐阜県","prefecture_kana":"ギフケン","city":"関市","city_kana":"セキシ","town":"春里町","town_kana":"ハルサトチョウ","prefecture_code":21},"3213":{"zip_code":"5013213","prefecture":"岐阜県","prefecture_kana":"ギフケン","city":"関市","city_kana":"セキシ","town":"東貸上","town_kana":"ヒガシカシアゲ","prefecture_code":21},"3231":{"zip_code":"5013231","prefecture":"岐阜県","prefecture_kana":"ギフケン","city":"関市","city_kana":"セキシ","town":"東桜町","town_kana":"ヒガシサクラマチ","prefecture_code":21},"3218":{"zip_code":"5013218","prefecture":"岐阜県","prefecture_kana":"ギフケン","city":"関市","city_kana":"セキシ","town":"東志摩","town_kana":"ヒガシシマ","prefecture_code":21},"3224":{"zip_code":"5013224","prefecture":"岐阜県","prefecture_kana":"ギフケン","city":"関市","city_kana":"セキシ","town":"東仙房","town_kana":"ヒガシセンボウ","prefecture_code":21},"3921":{"zip_code":"5013921","prefecture":"岐阜県","prefecture_kana":"ギフケン","city":"関市","city_kana":"セキシ","town":"東田原","town_kana":"ヒガシタワラ","prefecture_code":21},"3823":{"zip_code":"5013823","prefecture":"岐阜県","prefecture_kana":"ギフケン","city":"関市","city_kana":"セキシ","town":"東出町","town_kana":"ヒガシデチョウ","prefecture_code":21},"3813":{"zip_code":"5013813","prefecture":"岐阜県","prefecture_kana":"ギフケン","city":"関市","city_kana":"セキシ","town":"東野町","town_kana":"ヒガシノマチ","prefecture_code":21},"3883":{"zip_code":"5013883","prefecture":"岐阜県","prefecture_kana":"ギフケン","city":"関市","city_kana":"セキシ","town":"東日吉町","town_kana":"ヒガシヒヨシチョウ","prefecture_code":21},"3242":{"zip_code":"5013242","prefecture":"岐阜県","prefecture_kana":"ギフケン","city":"関市","city_kana":"セキシ","town":"東福野町","town_kana":"ヒガシフクノチョウ","prefecture_code":21},"3812":{"zip_code":"5013812","prefecture":"岐阜県","prefecture_kana":"ギフケン","city":"関市","city_kana":"セキシ","town":"東本郷","town_kana":"ヒガシホンゴウ","prefecture_code":21},"3811":{"zip_code":"5013811","prefecture":"岐阜県","prefecture_kana":"ギフケン","city":"関市","city_kana":"セキシ","town":"東本郷通","town_kana":"ヒガシホンゴウドオリ","prefecture_code":21},"3815":{"zip_code":"5013815","prefecture":"岐阜県","prefecture_kana":"ギフケン","city":"関市","city_kana":"セキシ","town":"東町","town_kana":"ヒガシマチ","prefecture_code":21},"3838":{"zip_code":"5013838","prefecture":"岐阜県","prefecture_kana":"ギフケン","city":"関市","city_kana":"セキシ","town":"東門前町","town_kana":"ヒガシモンゼンチョウ","prefecture_code":21},"3814":{"zip_code":"5013814","prefecture":"岐阜県","prefecture_kana":"ギフケン","city":"関市","city_kana":"セキシ","town":"東山","town_kana":"ヒガシヤマ","prefecture_code":21},"3911":{"zip_code":"5013911","prefecture":"岐阜県","prefecture_kana":"ギフケン","city":"関市","city_kana":"セキシ","town":"肥田瀬","town_kana":"ヒダセ","prefecture_code":21},"3973":{"zip_code":"5013973","prefecture":"岐阜県","prefecture_kana":"ギフケン","city":"関市","city_kana":"セキシ","town":"一ツ山町","town_kana":"ヒトツヤマチョウ","prefecture_code":21},"3873":{"zip_code":"5013873","prefecture":"岐阜県","prefecture_kana":"ギフケン","city":"関市","city_kana":"セキシ","town":"日ノ出町","town_kana":"ヒノデマチ","prefecture_code":21},"3821":{"zip_code":"5013821","prefecture":"岐阜県","prefecture_kana":"ギフケン","city":"関市","city_kana":"セキシ","town":"平賀町","town_kana":"ヒラガチョウ","prefecture_code":21},"3263":{"zip_code":"5013263","prefecture":"岐阜県","prefecture_kana":"ギフケン","city":"関市","city_kana":"セキシ","town":"広見","town_kana":"ヒロミ","prefecture_code":21},"3261":{"zip_code":"5013261","prefecture":"岐阜県","prefecture_kana":"ギフケン","city":"関市","city_kana":"セキシ","town":"広見北町","town_kana":"ヒロミキタマチ","prefecture_code":21},"3262":{"zip_code":"5013262","prefecture":"岐阜県","prefecture_kana":"ギフケン","city":"関市","city_kana":"セキシ","town":"広見東町","town_kana":"ヒロミヒガシマチ","prefecture_code":21},"3971":{"zip_code":"5013971","prefecture":"岐阜県","prefecture_kana":"ギフケン","city":"関市","city_kana":"セキシ","town":"古屋敷町","town_kana":"フルヤシキチョウ","prefecture_code":21},"3919":{"zip_code":"5013919","prefecture":"岐阜県","prefecture_kana":"ギフケン","city":"関市","city_kana":"セキシ","town":"平成通","town_kana":"ヘイセイドオリ","prefecture_code":21},"3874":{"zip_code":"5013874","prefecture":"岐阜県","prefecture_kana":"ギフケン","city":"関市","city_kana":"セキシ","town":"平和通","town_kana":"ヘイワドオリ","prefecture_code":21},"3956":{"zip_code":"5013956","prefecture":"岐阜県","prefecture_kana":"ギフケン","city":"関市","city_kana":"セキシ","town":"保明","town_kana":"ホウミョウ","prefecture_code":21},"3227":{"zip_code":"5013227","prefecture":"岐阜県","prefecture_kana":"ギフケン","city":"関市","city_kana":"セキシ","town":"北仙房","town_kana":"ホクセンボウ","prefecture_code":21},"3267":{"zip_code":"5013267","prefecture":"岐阜県","prefecture_kana":"ギフケン","city":"関市","city_kana":"セキシ","town":"星ケ丘","town_kana":"ホシガオカ","prefecture_code":21},"2807":{"zip_code":"5012807","prefecture":"岐阜県","prefecture_kana":"ギフケン","city":"関市","city_kana":"セキシ","town":"洞戸阿部","town_kana":"ホラドアベ","prefecture_code":21},"2812":{"zip_code":"5012812","prefecture":"岐阜県","prefecture_kana":"ギフケン","city":"関市","city_kana":"セキシ","town":"洞戸市場","town_kana":"ホラドイチバ","prefecture_code":21},"2816":{"zip_code":"5012816","prefecture":"岐阜県","prefecture_kana":"ギフケン","city":"関市","city_kana":"セキシ","town":"洞戸大野","town_kana":"ホラドオオノ","prefecture_code":21},"2805":{"zip_code":"5012805","prefecture":"岐阜県","prefecture_kana":"ギフケン","city":"関市","city_kana":"セキシ","town":"洞戸尾倉","town_kana":"ホラドオグラ","prefecture_code":21},"2809":{"zip_code":"5012809","prefecture":"岐阜県","prefecture_kana":"ギフケン","city":"関市","city_kana":"セキシ","town":"洞戸小瀬見","town_kana":"ホラドオゼミ","prefecture_code":21},"2811":{"zip_code":"5012811","prefecture":"岐阜県","prefecture_kana":"ギフケン","city":"関市","city_kana":"セキシ","town":"洞戸片","town_kana":"ホラドカタ","prefecture_code":21},"2801":{"zip_code":"5012801","prefecture":"岐阜県","prefecture_kana":"ギフケン","city":"関市","city_kana":"セキシ","town":"洞戸栗原","town_kana":"ホラドクリハラ","prefecture_code":21},"2815":{"zip_code":"5012815","prefecture":"岐阜県","prefecture_kana":"ギフケン","city":"関市","city_kana":"セキシ","town":"洞戸黒谷","town_kana":"ホラドクロダニ","prefecture_code":21},"2806":{"zip_code":"5012806","prefecture":"岐阜県","prefecture_kana":"ギフケン","city":"関市","city_kana":"セキシ","town":"洞戸高賀","town_kana":"ホラドコウカ","prefecture_code":21},"2808":{"zip_code":"5012808","prefecture":"岐阜県","prefecture_kana":"ギフケン","city":"関市","city_kana":"セキシ","town":"洞戸高見","town_kana":"ホラドコウミ","prefecture_code":21},"2817":{"zip_code":"5012817","prefecture":"岐阜県","prefecture_kana":"ギフケン","city":"関市","city_kana":"セキシ","town":"洞戸小坂","town_kana":"ホラドコサカ","prefecture_code":21},"2814":{"zip_code":"5012814","prefecture":"岐阜県","prefecture_kana":"ギフケン","city":"関市","city_kana":"セキシ","town":"洞戸菅谷","town_kana":"ホラドスガダニ","prefecture_code":21},"2802":{"zip_code":"5012802","prefecture":"岐阜県","prefecture_kana":"ギフケン","city":"関市","city_kana":"セキシ","town":"洞戸通元寺","town_kana":"ホラドツウゲンジ","prefecture_code":21},"2803":{"zip_code":"5012803","prefecture":"岐阜県","prefecture_kana":"ギフケン","city":"関市","city_kana":"セキシ","town":"洞戸飛瀬","town_kana":"ホラドヒセ","prefecture_code":21},"3805":{"zip_code":"5013805","prefecture":"岐阜県","prefecture_kana":"ギフケン","city":"関市","city_kana":"セキシ","town":"本郷町","town_kana":"ホンゴウチョウ","prefecture_code":21},"3886":{"zip_code":"5013886","prefecture":"岐阜県","prefecture_kana":"ギフケン","city":"関市","city_kana":"セキシ","town":"本町","town_kana":"ホンマチ","prefecture_code":21},"3864":{"zip_code":"5013864","prefecture":"岐阜県","prefecture_kana":"ギフケン","city":"関市","city_kana":"セキシ","town":"前町","town_kana":"マエチョウ","prefecture_code":21},"3937":{"zip_code":"5013937","prefecture":"岐阜県","prefecture_kana":"ギフケン","city":"関市","city_kana":"セキシ","town":"前山町","town_kana":"マエヤマチョウ","prefecture_code":21},"3884":{"zip_code":"5013884","prefecture":"岐阜県","prefecture_kana":"ギフケン","city":"関市","city_kana":"セキシ","town":"孫六町","town_kana":"マゴロクチョウ","prefecture_code":21},"3216":{"zip_code":"5013216","prefecture":"岐阜県","prefecture_kana":"ギフケン","city":"関市","city_kana":"セキシ","town":"水ノ輪町","town_kana":"ミズノワチョウ","prefecture_code":21},"3836":{"zip_code":"5013836","prefecture":"岐阜県","prefecture_kana":"ギフケン","city":"関市","city_kana":"セキシ","town":"美園町","town_kana":"ミソノチョウ","prefecture_code":21},"3246":{"zip_code":"5013246","prefecture":"岐阜県","prefecture_kana":"ギフケン","city":"関市","city_kana":"セキシ","town":"緑ケ丘","town_kana":"ミドリガオカ","prefecture_code":21},"3237":{"zip_code":"5013237","prefecture":"岐阜県","prefecture_kana":"ギフケン","city":"関市","city_kana":"セキシ","town":"緑町","town_kana":"ミドリマチ","prefecture_code":21},"3222":{"zip_code":"5013222","prefecture":"岐阜県","prefecture_kana":"ギフケン","city":"関市","city_kana":"セキシ","town":"南貸上","town_kana":"ミナミカシアゲ","prefecture_code":21},"3857":{"zip_code":"5013857","prefecture":"岐阜県","prefecture_kana":"ギフケン","city":"関市","city_kana":"セキシ","town":"南春日町","town_kana":"ミナミカスガチョウ","prefecture_code":21},"3225":{"zip_code":"5013225","prefecture":"岐阜県","prefecture_kana":"ギフケン","city":"関市","city_kana":"セキシ","town":"南仙房","town_kana":"ミナミセンボウ","prefecture_code":21},"3918":{"zip_code":"5013918","prefecture":"岐阜県","prefecture_kana":"ギフケン","city":"関市","city_kana":"セキシ","town":"南天神","town_kana":"ミナミテンジン","prefecture_code":21},"3825":{"zip_code":"5013825","prefecture":"岐阜県","prefecture_kana":"ギフケン","city":"関市","city_kana":"セキシ","town":"南出","town_kana":"ミナミデ","prefecture_code":21},"3907":{"zip_code":"5013907","prefecture":"岐阜県","prefecture_kana":"ギフケン","city":"関市","city_kana":"セキシ","town":"南町","town_kana":"ミナミマチ","prefecture_code":21},"3912":{"zip_code":"5013912","prefecture":"岐阜県","prefecture_kana":"ギフケン","city":"関市","city_kana":"セキシ","town":"宮河町","town_kana":"ミヤガワチョウ","prefecture_code":21},"3827":{"zip_code":"5013827","prefecture":"岐阜県","prefecture_kana":"ギフケン","city":"関市","city_kana":"セキシ","town":"宮地町","town_kana":"ミヤジチョウ","prefecture_code":21},"3844":{"zip_code":"5013844","prefecture":"岐阜県","prefecture_kana":"ギフケン","city":"関市","city_kana":"セキシ","town":"美和町","town_kana":"ミワチョウ","prefecture_code":21},"3226":{"zip_code":"5013226","prefecture":"岐阜県","prefecture_kana":"ギフケン","city":"関市","city_kana":"セキシ","town":"向西仙房","town_kana":"ムカイサイセンボウ","prefecture_code":21},"2605":{"zip_code":"5012605","prefecture":"岐阜県","prefecture_kana":"ギフケン","city":"関市","city_kana":"セキシ","town":"武芸川町跡部","town_kana":"ムゲガワチョウアトベ","prefecture_code":21},"2607":{"zip_code":"5012607","prefecture":"岐阜県","prefecture_kana":"ギフケン","city":"関市","city_kana":"セキシ","town":"武芸川町宇多院","town_kana":"ムゲガワチョウウダイン","prefecture_code":21},"2602":{"zip_code":"5012602","prefecture":"岐阜県","prefecture_kana":"ギフケン","city":"関市","city_kana":"セキシ","town":"武芸川町小知野","town_kana":"ムゲガワチョウオジノ","prefecture_code":21},"2604":{"zip_code":"5012604","prefecture":"岐阜県","prefecture_kana":"ギフケン","city":"関市","city_kana":"セキシ","town":"武芸川町高野","town_kana":"ムゲガワチョウタカノ","prefecture_code":21},"2601":{"zip_code":"5012601","prefecture":"岐阜県","prefecture_kana":"ギフケン","city":"関市","city_kana":"セキシ","town":"武芸川町谷口","town_kana":"ムゲガワチョウタニグチ","prefecture_code":21},"2603":{"zip_code":"5012603","prefecture":"岐阜県","prefecture_kana":"ギフケン","city":"関市","city_kana":"セキシ","town":"武芸川町八幡","town_kana":"ムゲガワチョウハチマン","prefecture_code":21},"2606":{"zip_code":"5012606","prefecture":"岐阜県","prefecture_kana":"ギフケン","city":"関市","city_kana":"セキシ","town":"武芸川町平","town_kana":"ムゲガワチョウヒラ","prefecture_code":21},"3933":{"zip_code":"5013933","prefecture":"岐阜県","prefecture_kana":"ギフケン","city":"関市","city_kana":"セキシ","town":"向山町","town_kana":"ムコウヤマチョウ","prefecture_code":21},"3904":{"zip_code":"5013904","prefecture":"岐阜県","prefecture_kana":"ギフケン","city":"関市","city_kana":"セキシ","town":"明生町","town_kana":"メイセイチョウ","prefecture_code":21},"3881":{"zip_code":"5013881","prefecture":"岐阜県","prefecture_kana":"ギフケン","city":"関市","city_kana":"セキシ","town":"元重町","town_kana":"モトシゲチョウ","prefecture_code":21},"3875":{"zip_code":"5013875","prefecture":"岐阜県","prefecture_kana":"ギフケン","city":"関市","city_kana":"セキシ","town":"森西町","town_kana":"モリニシチョウ","prefecture_code":21},"3962":{"zip_code":"5013962","prefecture":"岐阜県","prefecture_kana":"ギフケン","city":"関市","city_kana":"セキシ","town":"柳町","town_kana":"ヤナギマチ","prefecture_code":21},"3944":{"zip_code":"5013944","prefecture":"岐阜県","prefecture_kana":"ギフケン","city":"関市","city_kana":"セキシ","town":"山田","town_kana":"ヤマダ","prefecture_code":21},"3885":{"zip_code":"5013885","prefecture":"岐阜県","prefecture_kana":"ギフケン","city":"関市","city_kana":"セキシ","town":"山ノ手","town_kana":"ヤマノテ","prefecture_code":21},"3902":{"zip_code":"5013902","prefecture":"岐阜県","prefecture_kana":"ギフケン","city":"関市","city_kana":"セキシ","town":"弥生町","town_kana":"ヤヨイチョウ","prefecture_code":21},"3254":{"zip_code":"5013254","prefecture":"岐阜県","prefecture_kana":"ギフケン","city":"関市","city_kana":"セキシ","town":"雄飛ケ丘","town_kana":"ユウヒガオカ","prefecture_code":21},"3816":{"zip_code":"5013816","prefecture":"岐阜県","prefecture_kana":"ギフケン","city":"関市","city_kana":"セキシ","town":"吉野町","town_kana":"ヨシノマチ","prefecture_code":21},"3818":{"zip_code":"5013818","prefecture":"岐阜県","prefecture_kana":"ギフケン","city":"関市","city_kana":"セキシ","town":"吉本町","town_kana":"ヨシモトチョウ","prefecture_code":21},"3802":{"zip_code":"5013802","prefecture":"岐阜県","prefecture_kana":"ギフケン","city":"関市","city_kana":"セキシ","town":"若草通","town_kana":"ワカクサドオリ","prefecture_code":21},"3234":{"zip_code":"5013234","prefecture":"岐阜県","prefecture_kana":"ギフケン","city":"関市","city_kana":"セキシ","town":"若宮町","town_kana":"ワカミヤチョウ","prefecture_code":21},"3700":{"zip_code":"5013700","prefecture":"岐阜県","prefecture_kana":"ギフケン","city":"美濃市","city_kana":"ミノシ","town":"","town_kana":"","prefecture_code":21},"3701":{"zip_code":"5013701","prefecture":"岐阜県","prefecture_kana":"ギフケン","city":"美濃市","city_kana":"ミノシ","town":"美濃市の次に番地がくる場合","town_kana":"ミノシノツギニバンチガクルバアイ","prefecture_code":21},"3723":{"zip_code":"5013723","prefecture":"岐阜県","prefecture_kana":"ギフケン","city":"美濃市","city_kana":"ミノシ","town":"相生町","town_kana":"アイオイチョウ","prefecture_code":21},"3762":{"zip_code":"5013762","prefecture":"岐阜県","prefecture_kana":"ギフケン","city":"美濃市","city_kana":"ミノシ","town":"藍川","town_kana":"アイカワ","prefecture_code":21},"3717":{"zip_code":"5013717","prefecture":"岐阜県","prefecture_kana":"ギフケン","city":"美濃市","city_kana":"ミノシ","town":"安毛","town_kana":"アタゲ","prefecture_code":21},"3756":{"zip_code":"5013756","prefecture":"岐阜県","prefecture_kana":"ギフケン","city":"美濃市","city_kana":"ミノシ","town":"生櫛","town_kana":"イクシ","prefecture_code":21},"3729":{"zip_code":"5013729","prefecture":"岐阜県","prefecture_kana":"ギフケン","city":"美濃市","city_kana":"ミノシ","town":"泉町","town_kana":"イズミチョウ","prefecture_code":21},"3724":{"zip_code":"5013724","prefecture":"岐阜県","prefecture_kana":"ギフケン","city":"美濃市","city_kana":"ミノシ","town":"魚屋町","town_kana":"ウオヤチョウ","prefecture_code":21},"3715":{"zip_code":"5013715","prefecture":"岐阜県","prefecture_kana":"ギフケン","city":"美濃市","city_kana":"ミノシ","town":"梅山町","town_kana":"ウメヤマチョウ","prefecture_code":21},"3786":{"zip_code":"5013786","prefecture":"岐阜県","prefecture_kana":"ギフケン","city":"美濃市","city_kana":"ミノシ","town":"乙狩","town_kana":"オトガリ","prefecture_code":21},"3771":{"zip_code":"5013771","prefecture":"岐阜県","prefecture_kana":"ギフケン","city":"美濃市","city_kana":"ミノシ","town":"大矢田","town_kana":"オヤダ","prefecture_code":21},"3772":{"zip_code":"5013772","prefecture":"岐阜県","prefecture_kana":"ギフケン","city":"美濃市","city_kana":"ミノシ","town":"楓台","town_kana":"カエデダイ","prefecture_code":21},"3764":{"zip_code":"5013764","prefecture":"岐阜県","prefecture_kana":"ギフケン","city":"美濃市","city_kana":"ミノシ","town":"笠神","town_kana":"カサガミ","prefecture_code":21},"3726":{"zip_code":"5013726","prefecture":"岐阜県","prefecture_kana":"ギフケン","city":"美濃市","city_kana":"ミノシ","town":"加治屋町","town_kana":"カジヤチョウ","prefecture_code":21},"3781":{"zip_code":"5013781","prefecture":"岐阜県","prefecture_kana":"ギフケン","city":"美濃市","city_kana":"ミノシ","town":"片知","town_kana":"カタジ","prefecture_code":21},"3702":{"zip_code":"5013702","prefecture":"岐阜県","prefecture_kana":"ギフケン","city":"美濃市","city_kana":"ミノシ","town":"上河和","town_kana":"カミコウワ","prefecture_code":21},"3743":{"zip_code":"5013743","prefecture":"岐阜県","prefecture_kana":"ギフケン","city":"美濃市","city_kana":"ミノシ","town":"上条","town_kana":"カミジョウ","prefecture_code":21},"3787":{"zip_code":"5013787","prefecture":"岐阜県","prefecture_kana":"ギフケン","city":"美濃市","city_kana":"ミノシ","town":"上野","town_kana":"カミノ","prefecture_code":21},"3733":{"zip_code":"5013733","prefecture":"岐阜県","prefecture_kana":"ギフケン","city":"美濃市","city_kana":"ミノシ","town":"亀野町","town_kana":"カメノチョウ","prefecture_code":21},"3783":{"zip_code":"5013783","prefecture":"岐阜県","prefecture_kana":"ギフケン","city":"美濃市","city_kana":"ミノシ","town":"神洞","town_kana":"カンボラ","prefecture_code":21},"3712":{"zip_code":"5013712","prefecture":"岐阜県","prefecture_kana":"ギフケン","city":"美濃市","city_kana":"ミノシ","town":"口野々","town_kana":"クチノノ","prefecture_code":21},"3785":{"zip_code":"5013785","prefecture":"岐阜県","prefecture_kana":"ギフケン","city":"美濃市","city_kana":"ミノシ","town":"小倉","town_kana":"コクラ","prefecture_code":21},"3763":{"zip_code":"5013763","prefecture":"岐阜県","prefecture_kana":"ギフケン","city":"美濃市","city_kana":"ミノシ","town":"極楽寺","town_kana":"ゴクラクジ","prefecture_code":21},"3736":{"zip_code":"5013736","prefecture":"岐阜県","prefecture_kana":"ギフケン","city":"美濃市","city_kana":"ミノシ","town":"米屋町","town_kana":"コメヤチョウ","prefecture_code":21},"3754":{"zip_code":"5013754","prefecture":"岐阜県","prefecture_kana":"ギフケン","city":"美濃市","city_kana":"ミノシ","town":"さくらケ丘","town_kana":"サクラガオカ","prefecture_code":21},"3755":{"zip_code":"5013755","prefecture":"岐阜県","prefecture_kana":"ギフケン","city":"美濃市","city_kana":"ミノシ","town":"志摩","town_kana":"シマ","prefecture_code":21},"3703":{"zip_code":"5013703","prefecture":"岐阜県","prefecture_kana":"ギフケン","city":"美濃市","city_kana":"ミノシ","town":"下河和","town_kana":"シモコウワ","prefecture_code":21},"3745":{"zip_code":"5013745","prefecture":"岐阜県","prefecture_kana":"ギフケン","city":"美濃市","city_kana":"ミノシ","town":"下渡","town_kana":"シモワタリ","prefecture_code":21},"3752":{"zip_code":"5013752","prefecture":"岐阜県","prefecture_kana":"ギフケン","city":"美濃市","city_kana":"ミノシ","town":"松栄町","town_kana":"ショウエイチョウ","prefecture_code":21},"3737":{"zip_code":"5013737","prefecture":"岐阜県","prefecture_kana":"ギフケン","city":"美濃市","city_kana":"ミノシ","town":"新町","town_kana":"シンマチ","prefecture_code":21},"3706":{"zip_code":"5013706","prefecture":"岐阜県","prefecture_kana":"ギフケン","city":"美濃市","city_kana":"ミノシ","town":"須原","town_kana":"スハラ","prefecture_code":21},"3714":{"zip_code":"5013714","prefecture":"岐阜県","prefecture_kana":"ギフケン","city":"美濃市","city_kana":"ミノシ","town":"曽代","town_kana":"ソダイ","prefecture_code":21},"3705":{"zip_code":"5013705","prefecture":"岐阜県","prefecture_kana":"ギフケン","city":"美濃市","city_kana":"ミノシ","town":"立花","town_kana":"タチバナ","prefecture_code":21},"3725":{"zip_code":"5013725","prefecture":"岐阜県","prefecture_kana":"ギフケン","city":"美濃市","city_kana":"ミノシ","town":"俵町","town_kana":"タワラマチ","prefecture_code":21},"3744":{"zip_code":"5013744","prefecture":"岐阜県","prefecture_kana":"ギフケン","city":"美濃市","city_kana":"ミノシ","town":"段町","town_kana":"ダンチョウ","prefecture_code":21},"3734":{"zip_code":"5013734","prefecture":"岐阜県","prefecture_kana":"ギフケン","city":"美濃市","city_kana":"ミノシ","town":"千畝町","town_kana":"チウネチョウ","prefecture_code":21},"3746":{"zip_code":"5013746","prefecture":"岐阜県","prefecture_kana":"ギフケン","city":"美濃市","city_kana":"ミノシ","town":"中央","town_kana":"チュウオウ","prefecture_code":21},"3722":{"zip_code":"5013722","prefecture":"岐阜県","prefecture_kana":"ギフケン","city":"美濃市","city_kana":"ミノシ","town":"常盤町","town_kana":"トキワチョウ","prefecture_code":21},"3742":{"zip_code":"5013742","prefecture":"岐阜県","prefecture_kana":"ギフケン","city":"美濃市","city_kana":"ミノシ","town":"殿町","town_kana":"トノマチ","prefecture_code":21},"3713":{"zip_code":"5013713","prefecture":"岐阜県","prefecture_kana":"ギフケン","city":"美濃市","city_kana":"ミノシ","town":"富野","town_kana":"トミノ","prefecture_code":21},"3727":{"zip_code":"5013727","prefecture":"岐阜県","prefecture_kana":"ギフケン","city":"美濃市","city_kana":"ミノシ","town":"永重町","town_kana":"ナガシゲチョウ","prefecture_code":21},"3782":{"zip_code":"5013782","prefecture":"岐阜県","prefecture_kana":"ギフケン","city":"美濃市","city_kana":"ミノシ","town":"長瀬","town_kana":"ナガセ","prefecture_code":21},"3735":{"zip_code":"5013735","prefecture":"岐阜県","prefecture_kana":"ギフケン","city":"美濃市","city_kana":"ミノシ","town":"西市場町","town_kana":"ニシイチバチョウ","prefecture_code":21},"3731":{"zip_code":"5013731","prefecture":"岐阜県","prefecture_kana":"ギフケン","city":"美濃市","city_kana":"ミノシ","town":"東市場町","town_kana":"ヒガシイチバチョウ","prefecture_code":21},"3711":{"zip_code":"5013711","prefecture":"岐阜県","prefecture_kana":"ギフケン","city":"美濃市","city_kana":"ミノシ","town":"樋ケ洞","town_kana":"ヒガホラ","prefecture_code":21},"3732":{"zip_code":"5013732","prefecture":"岐阜県","prefecture_kana":"ギフケン","city":"美濃市","city_kana":"ミノシ","town":"広岡町","town_kana":"ヒロオカチョウ","prefecture_code":21},"3704":{"zip_code":"5013704","prefecture":"岐阜県","prefecture_kana":"ギフケン","city":"美濃市","city_kana":"ミノシ","town":"保木脇","town_kana":"ホキワキ","prefecture_code":21},"3716":{"zip_code":"5013716","prefecture":"岐阜県","prefecture_kana":"ギフケン","city":"美濃市","city_kana":"ミノシ","town":"前野","town_kana":"マエノ","prefecture_code":21},"3751":{"zip_code":"5013751","prefecture":"岐阜県","prefecture_kana":"ギフケン","city":"美濃市","city_kana":"ミノシ","town":"松倉台","town_kana":"マツクラダイ","prefecture_code":21},"3753":{"zip_code":"5013753","prefecture":"岐阜県","prefecture_kana":"ギフケン","city":"美濃市","city_kana":"ミノシ","town":"松森","town_kana":"マツモリ","prefecture_code":21},"3784":{"zip_code":"5013784","prefecture":"岐阜県","prefecture_kana":"ギフケン","city":"美濃市","city_kana":"ミノシ","town":"御手洗","town_kana":"ミタライ","prefecture_code":21},"3741":{"zip_code":"5013741","prefecture":"岐阜県","prefecture_kana":"ギフケン","city":"美濃市","city_kana":"ミノシ","town":"港町","town_kana":"ミナトマチ","prefecture_code":21},"3728":{"zip_code":"5013728","prefecture":"岐阜県","prefecture_kana":"ギフケン","city":"美濃市","city_kana":"ミノシ","town":"本住町","town_kana":"モトズミチョウ","prefecture_code":21},"3773":{"zip_code":"5013773","prefecture":"岐阜県","prefecture_kana":"ギフケン","city":"美濃市","city_kana":"ミノシ","town":"もみじが丘","town_kana":"モミジガオカ","prefecture_code":21},"3761":{"zip_code":"5013761","prefecture":"岐阜県","prefecture_kana":"ギフケン","city":"美濃市","city_kana":"ミノシ","town":"横越","town_kana":"ヨコゴシ","prefecture_code":21},"3721":{"zip_code":"5013721","prefecture":"岐阜県","prefecture_kana":"ギフケン","city":"美濃市","city_kana":"ミノシ","town":"吉川町","town_kana":"ヨシカワチョウ","prefecture_code":21},"3788":{"zip_code":"5013788","prefecture":"岐阜県","prefecture_kana":"ギフケン","city":"美濃市","city_kana":"ミノシ","town":"蕨生","town_kana":"ワラビ","prefecture_code":21},"6200":{"zip_code":"5016200","prefecture":"岐阜県","prefecture_kana":"ギフケン","city":"羽島市","city_kana":"ハシマシ","town":"","town_kana":"","prefecture_code":21},"6207":{"zip_code":"5016207","prefecture":"岐阜県","prefecture_kana":"ギフケン","city":"羽島市","city_kana":"ハシマシ","town":"足近町","town_kana":"アジカチョウ","prefecture_code":21},"6202":{"zip_code":"5016202","prefecture":"岐阜県","prefecture_kana":"ギフケン","city":"羽島市","city_kana":"ハシマシ","town":"足近町市場","town_kana":"アジカチョウイチバ","prefecture_code":21},"6201":{"zip_code":"5016201","prefecture":"岐阜県","prefecture_kana":"ギフケン","city":"羽島市","city_kana":"ハシマシ","town":"足近町北宿","town_kana":"アジカチョウキタジュク","prefecture_code":21},"6204":{"zip_code":"5016204","prefecture":"岐阜県","prefecture_kana":"ギフケン","city":"羽島市","city_kana":"ハシマシ","town":"足近町小荒井","town_kana":"アジカチョウコアライ","prefecture_code":21},"6208":{"zip_code":"5016208","prefecture":"岐阜県","prefecture_kana":"ギフケン","city":"羽島市","city_kana":"ハシマシ","town":"足近町坂井","town_kana":"アジカチョウサカイ","prefecture_code":21},"6209":{"zip_code":"5016209","prefecture":"岐阜県","prefecture_kana":"ギフケン","city":"羽島市","city_kana":"ハシマシ","town":"足近町直道","town_kana":"アジカチョウスグミチ","prefecture_code":21},"6203":{"zip_code":"5016203","prefecture":"岐阜県","prefecture_kana":"ギフケン","city":"羽島市","city_kana":"ハシマシ","town":"足近町南宿","town_kana":"アジカチョウミナミジュク","prefecture_code":21},"6205":{"zip_code":"5016205","prefecture":"岐阜県","prefecture_kana":"ギフケン","city":"羽島市","city_kana":"ハシマシ","town":"足近町南之川","town_kana":"アジカチョウミナミノカワ","prefecture_code":21},"6236":{"zip_code":"5016236","prefecture":"岐阜県","prefecture_kana":"ギフケン","city":"羽島市","city_kana":"ハシマシ","town":"江吉良町","town_kana":"エギラチョウ","prefecture_code":21},"6238":{"zip_code":"5016238","prefecture":"岐阜県","prefecture_kana":"ギフケン","city":"羽島市","city_kana":"ハシマシ","town":"江吉良町江中","town_kana":"エギラチョウエナカ","prefecture_code":21},"6237":{"zip_code":"5016237","prefecture":"岐阜県","prefecture_kana":"ギフケン","city":"羽島市","city_kana":"ハシマシ","town":"江吉良町江西","town_kana":"エギラチョウエニシ","prefecture_code":21},"6273":{"zip_code":"5016273","prefecture":"岐阜県","prefecture_kana":"ギフケン","city":"羽島市","city_kana":"ハシマシ","town":"小熊町","town_kana":"オグマチョウ","prefecture_code":21},"6272":{"zip_code":"5016272","prefecture":"岐阜県","prefecture_kana":"ギフケン","city":"羽島市","city_kana":"ハシマシ","town":"小熊町相田","town_kana":"オグマチョウアイダ","prefecture_code":21},"6262":{"zip_code":"5016262","prefecture":"岐阜県","prefecture_kana":"ギフケン","city":"羽島市","city_kana":"ハシマシ","town":"小熊町内粟野","town_kana":"オグマチョウウチアワノ","prefecture_code":21},"6263":{"zip_code":"5016263","prefecture":"岐阜県","prefecture_kana":"ギフケン","city":"羽島市","city_kana":"ハシマシ","town":"小熊町江頭","town_kana":"オグマチョウエガシラ","prefecture_code":21},"6266":{"zip_code":"5016266","prefecture":"岐阜県","prefecture_kana":"ギフケン","city":"羽島市","city_kana":"ハシマシ","town":"小熊町川口","town_kana":"オグマチョウカワクチ","prefecture_code":21},"6265":{"zip_code":"5016265","prefecture":"岐阜県","prefecture_kana":"ギフケン","city":"羽島市","city_kana":"ハシマシ","town":"小熊町川口前","town_kana":"オグマチョウカワクチマエ","prefecture_code":21},"6264":{"zip_code":"5016264","prefecture":"岐阜県","prefecture_kana":"ギフケン","city":"羽島市","city_kana":"ハシマシ","town":"小熊町島","town_kana":"オグマチョウシマ","prefecture_code":21},"6253":{"zip_code":"5016253","prefecture":"岐阜県","prefecture_kana":"ギフケン","city":"羽島市","city_kana":"ハシマシ","town":"小熊町島新道","town_kana":"オグマチョウシマシンドウ","prefecture_code":21},"6252":{"zip_code":"5016252","prefecture":"岐阜県","prefecture_kana":"ギフケン","city":"羽島市","city_kana":"ハシマシ","town":"小熊町島前","town_kana":"オグマチョウシママエ","prefecture_code":21},"6261":{"zip_code":"5016261","prefecture":"岐阜県","prefecture_kana":"ギフケン","city":"羽島市","city_kana":"ハシマシ","town":"小熊町外粟野","town_kana":"オグマチョウソトアワノ","prefecture_code":21},"6267":{"zip_code":"5016267","prefecture":"岐阜県","prefecture_kana":"ギフケン","city":"羽島市","city_kana":"ハシマシ","town":"小熊町天王","town_kana":"オグマチョウテンノウ","prefecture_code":21},"6271":{"zip_code":"5016271","prefecture":"岐阜県","prefecture_kana":"ギフケン","city":"羽島市","city_kana":"ハシマシ","town":"小熊町東小熊","town_kana":"オグマチョウヒガシオグマ","prefecture_code":21},"6274":{"zip_code":"5016274","prefecture":"岐阜県","prefecture_kana":"ギフケン","city":"羽島市","city_kana":"ハシマシ","town":"小熊町西小熊","town_kana":"オグマチョウニシオグマ","prefecture_code":21},"6312":{"zip_code":"5016312","prefecture":"岐阜県","prefecture_kana":"ギフケン","city":"羽島市","city_kana":"ハシマシ","town":"上中町一色","town_kana":"カミナカチョウイシキ","prefecture_code":21},"6317":{"zip_code":"5016317","prefecture":"岐阜県","prefecture_kana":"ギフケン","city":"羽島市","city_kana":"ハシマシ","town":"上中町午北","town_kana":"カミナカチョウウマキタ","prefecture_code":21},"6318":{"zip_code":"5016318","prefecture":"岐阜県","prefecture_kana":"ギフケン","city":"羽島市","city_kana":"ハシマシ","town":"上中町沖","town_kana":"カミナカチョウオキ","prefecture_code":21},"6319":{"zip_code":"5016319","prefecture":"岐阜県","prefecture_kana":"ギフケン","city":"羽島市","city_kana":"ハシマシ","town":"上中町中","town_kana":"カミナカチョウナカ","prefecture_code":21},"6311":{"zip_code":"5016311","prefecture":"岐阜県","prefecture_kana":"ギフケン","city":"羽島市","city_kana":"ハシマシ","town":"上中町長間","town_kana":"カミナカチョウナガマ","prefecture_code":21},"6323":{"zip_code":"5016323","prefecture":"岐阜県","prefecture_kana":"ギフケン","city":"羽島市","city_kana":"ハシマシ","town":"桑原町午南","town_kana":"クワバラチョウウマミナミ","prefecture_code":21},"6325":{"zip_code":"5016325","prefecture":"岐阜県","prefecture_kana":"ギフケン","city":"羽島市","city_kana":"ハシマシ","town":"桑原町大須","town_kana":"クワバラチョウオオス","prefecture_code":21},"6324":{"zip_code":"5016324","prefecture":"岐阜県","prefecture_kana":"ギフケン","city":"羽島市","city_kana":"ハシマシ","town":"桑原町小薮","town_kana":"クワバラチョウコヤブ","prefecture_code":21},"6327":{"zip_code":"5016327","prefecture":"岐阜県","prefecture_kana":"ギフケン","city":"羽島市","city_kana":"ハシマシ","town":"桑原町西小薮","town_kana":"クワバラチョウニシコヤブ","prefecture_code":21},"6326":{"zip_code":"5016326","prefecture":"岐阜県","prefecture_kana":"ギフケン","city":"羽島市","city_kana":"ハシマシ","town":"桑原町東方","town_kana":"クワバラチョウヒガシガタ","prefecture_code":21},"6328":{"zip_code":"5016328","prefecture":"岐阜県","prefecture_kana":"ギフケン","city":"羽島市","city_kana":"ハシマシ","town":"桑原町平太","town_kana":"クワバラチョウヘイタ","prefecture_code":21},"6322":{"zip_code":"5016322","prefecture":"岐阜県","prefecture_kana":"ギフケン","city":"羽島市","city_kana":"ハシマシ","town":"桑原町前野","town_kana":"クワバラチョウマエノ","prefecture_code":21},"6321":{"zip_code":"5016321","prefecture":"岐阜県","prefecture_kana":"ギフケン","city":"羽島市","city_kana":"ハシマシ","town":"桑原町八神","town_kana":"クワバラチョウヤガミ","prefecture_code":21},"6315":{"zip_code":"5016315","prefecture":"岐阜県","prefecture_kana":"ギフケン","city":"羽島市","city_kana":"ハシマシ","town":"下中町石田","town_kana":"シモナカチョウイシダ","prefecture_code":21},"6316":{"zip_code":"5016316","prefecture":"岐阜県","prefecture_kana":"ギフケン","city":"羽島市","city_kana":"ハシマシ","town":"下中町市之枝","town_kana":"シモナカチョウイチノエダ","prefecture_code":21},"6313":{"zip_code":"5016313","prefecture":"岐阜県","prefecture_kana":"ギフケン","city":"羽島市","city_kana":"ハシマシ","town":"下中町加賀野井","town_kana":"シモナカチョウカガノイ","prefecture_code":21},"6314":{"zip_code":"5016314","prefecture":"岐阜県","prefecture_kana":"ギフケン","city":"羽島市","city_kana":"ハシマシ","town":"下中町城屋敷","town_kana":"シモナカチョウシロヤシキ","prefecture_code":21},"6206":{"zip_code":"5016206","prefecture":"岐阜県","prefecture_kana":"ギフケン","city":"羽島市","city_kana":"ハシマシ","town":"新生町","town_kana":"シンセイチョウ","prefecture_code":21},"6241":{"zip_code":"5016241","prefecture":"岐阜県","prefecture_kana":"ギフケン","city":"羽島市","city_kana":"ハシマシ","town":"竹鼻町","town_kana":"タケハナチョウ","prefecture_code":21},"6233":{"zip_code":"5016233","prefecture":"岐阜県","prefecture_kana":"ギフケン","city":"羽島市","city_kana":"ハシマシ","town":"竹鼻町飯柄","town_kana":"タケハナチョウイイガラ","prefecture_code":21},"6231":{"zip_code":"5016231","prefecture":"岐阜県","prefecture_kana":"ギフケン","city":"羽島市","city_kana":"ハシマシ","town":"竹鼻町神楽","town_kana":"タケハナチョウカグラ","prefecture_code":21},"6232":{"zip_code":"5016232","prefecture":"岐阜県","prefecture_kana":"ギフケン","city":"羽島市","city_kana":"ハシマシ","town":"竹鼻町狐穴","town_kana":"タケハナチョウキツネアナ","prefecture_code":21},"6234":{"zip_code":"5016234","prefecture":"岐阜県","prefecture_kana":"ギフケン","city":"羽島市","city_kana":"ハシマシ","town":"竹鼻町駒塚","town_kana":"タケハナチョウコマヅカ","prefecture_code":21},"6242":{"zip_code":"5016242","prefecture":"岐阜県","prefecture_kana":"ギフケン","city":"羽島市","city_kana":"ハシマシ","town":"竹鼻町錦町","town_kana":"タケハナチョウニシキマチ","prefecture_code":21},"6243":{"zip_code":"5016243","prefecture":"岐阜県","prefecture_kana":"ギフケン","city":"羽島市","city_kana":"ハシマシ","town":"竹鼻町西野町","town_kana":"タケハナチョウニシノマチ","prefecture_code":21},"6235":{"zip_code":"5016235","prefecture":"岐阜県","prefecture_kana":"ギフケン","city":"羽島市","city_kana":"ハシマシ","town":"竹鼻町蜂尻","town_kana":"タケハナチョウハチジリ","prefecture_code":21},"6244":{"zip_code":"5016244","prefecture":"岐阜県","prefecture_kana":"ギフケン","city":"羽島市","city_kana":"ハシマシ","town":"竹鼻町丸の内","town_kana":"タケハナチョウマルノウチ","prefecture_code":21},"6255":{"zip_code":"5016255","prefecture":"岐阜県","prefecture_kana":"ギフケン","city":"羽島市","city_kana":"ハシマシ","town":"福寿町浅平","town_kana":"フクジュチョウアサヒラ","prefecture_code":21},"6256":{"zip_code":"5016256","prefecture":"岐阜県","prefecture_kana":"ギフケン","city":"羽島市","city_kana":"ハシマシ","town":"福寿町千代田","town_kana":"フクジュチョウチヨダ","prefecture_code":21},"6257":{"zip_code":"5016257","prefecture":"岐阜県","prefecture_kana":"ギフケン","city":"羽島市","city_kana":"ハシマシ","town":"福寿町平方","town_kana":"フクジュチョウヒラカタ","prefecture_code":21},"6254":{"zip_code":"5016254","prefecture":"岐阜県","prefecture_kana":"ギフケン","city":"羽島市","city_kana":"ハシマシ","town":"福寿町本郷","town_kana":"フクジュチョウホンゴウ","prefecture_code":21},"6251":{"zip_code":"5016251","prefecture":"岐阜県","prefecture_kana":"ギフケン","city":"羽島市","city_kana":"ハシマシ","town":"福寿町間島","town_kana":"フクジュチョウマジマ","prefecture_code":21},"6302":{"zip_code":"5016302","prefecture":"岐阜県","prefecture_kana":"ギフケン","city":"羽島市","city_kana":"ハシマシ","town":"舟橋町","town_kana":"フナバシチョウ","prefecture_code":21},"6304":{"zip_code":"5016304","prefecture":"岐阜県","prefecture_kana":"ギフケン","city":"羽島市","city_kana":"ハシマシ","town":"舟橋町出須賀","town_kana":"フナバシチョウデスカ","prefecture_code":21},"6303":{"zip_code":"5016303","prefecture":"岐阜県","prefecture_kana":"ギフケン","city":"羽島市","city_kana":"ハシマシ","town":"舟橋町本町","town_kana":"フナバシチョウホンマチ","prefecture_code":21},"6301":{"zip_code":"5016301","prefecture":"岐阜県","prefecture_kana":"ギフケン","city":"羽島市","city_kana":"ハシマシ","town":"舟橋町宮北","town_kana":"フナバシチョウミヤキタ","prefecture_code":21},"6338":{"zip_code":"5016338","prefecture":"岐阜県","prefecture_kana":"ギフケン","city":"羽島市","city_kana":"ハシマシ","town":"堀津町須賀中","town_kana":"ホッツチョウスカナカ","prefecture_code":21},"6336":{"zip_code":"5016336","prefecture":"岐阜県","prefecture_kana":"ギフケン","city":"羽島市","city_kana":"ハシマシ","town":"堀津町須賀西","town_kana":"ホッツチョウスカニシ","prefecture_code":21},"6335":{"zip_code":"5016335","prefecture":"岐阜県","prefecture_kana":"ギフケン","city":"羽島市","city_kana":"ハシマシ","town":"堀津町須賀南","town_kana":"ホッツチョウスカミナミ","prefecture_code":21},"6332":{"zip_code":"5016332","prefecture":"岐阜県","prefecture_kana":"ギフケン","city":"羽島市","city_kana":"ハシマシ","town":"堀津町須賀北","town_kana":"ホッツチョウスカキタ","prefecture_code":21},"6337":{"zip_code":"5016337","prefecture":"岐阜県","prefecture_kana":"ギフケン","city":"羽島市","city_kana":"ハシマシ","town":"堀津町中屋敷","town_kana":"ホッツチョウナカヤシキ","prefecture_code":21},"6333":{"zip_code":"5016333","prefecture":"岐阜県","prefecture_kana":"ギフケン","city":"羽島市","city_kana":"ハシマシ","town":"堀津町東山","town_kana":"ホッツチョウヒガシヤマ","prefecture_code":21},"6334":{"zip_code":"5016334","prefecture":"岐阜県","prefecture_kana":"ギフケン","city":"羽島市","city_kana":"ハシマシ","town":"堀津町前谷","town_kana":"ホッツチョウマエダニ","prefecture_code":21},"6331":{"zip_code":"5016331","prefecture":"岐阜県","prefecture_kana":"ギフケン","city":"羽島市","city_kana":"ハシマシ","town":"堀津町横手","town_kana":"ホッツチョウヨコテ","prefecture_code":21},"6330":{"zip_code":"5016330","prefecture":"岐阜県","prefecture_kana":"ギフケン","city":"羽島市","city_kana":"ハシマシ","town":"堀津町","town_kana":"ホッツチョウ","prefecture_code":21},"6225":{"zip_code":"5016225","prefecture":"岐阜県","prefecture_kana":"ギフケン","city":"羽島市","city_kana":"ハシマシ","town":"正木町新井","town_kana":"マサキチョウアライ","prefecture_code":21},"6224":{"zip_code":"5016224","prefecture":"岐阜県","prefecture_kana":"ギフケン","city":"羽島市","city_kana":"ハシマシ","town":"正木町大浦","town_kana":"マサキチョウオオウラ","prefecture_code":21},"6223":{"zip_code":"5016223","prefecture":"岐阜県","prefecture_kana":"ギフケン","city":"羽島市","city_kana":"ハシマシ","town":"正木町大浦新田","town_kana":"マサキチョウオオウラシンデン","prefecture_code":21},"6212":{"zip_code":"5016212","prefecture":"岐阜県","prefecture_kana":"ギフケン","city":"羽島市","city_kana":"ハシマシ","town":"正木町上大浦","town_kana":"マサキチョウカミオオウラ","prefecture_code":21},"6229":{"zip_code":"5016229","prefecture":"岐阜県","prefecture_kana":"ギフケン","city":"羽島市","city_kana":"ハシマシ","town":"正木町坂丸","town_kana":"マサキチョウサカマル","prefecture_code":21},"6216":{"zip_code":"5016216","prefecture":"岐阜県","prefecture_kana":"ギフケン","city":"羽島市","city_kana":"ハシマシ","town":"正木町須賀","town_kana":"マサキチョウスカ","prefecture_code":21},"6215":{"zip_code":"5016215","prefecture":"岐阜県","prefecture_kana":"ギフケン","city":"羽島市","city_kana":"ハシマシ","town":"正木町須賀赤松","town_kana":"マサキチョウスカアカマツ","prefecture_code":21},"6214":{"zip_code":"5016214","prefecture":"岐阜県","prefecture_kana":"ギフケン","city":"羽島市","city_kana":"ハシマシ","town":"正木町須賀池端","town_kana":"マサキチョウスカイケハタ","prefecture_code":21},"6217":{"zip_code":"5016217","prefecture":"岐阜県","prefecture_kana":"ギフケン","city":"羽島市","city_kana":"ハシマシ","town":"正木町須賀小松","town_kana":"マサキチョウスカコマツ","prefecture_code":21},"6218":{"zip_code":"5016218","prefecture":"岐阜県","prefecture_kana":"ギフケン","city":"羽島市","city_kana":"ハシマシ","town":"正木町須賀本村","town_kana":"マサキチョウスカホンムラ","prefecture_code":21},"6228":{"zip_code":"5016228","prefecture":"岐阜県","prefecture_kana":"ギフケン","city":"羽島市","city_kana":"ハシマシ","town":"正木町不破一色","town_kana":"マサキチョウフワイシキ","prefecture_code":21},"6227":{"zip_code":"5016227","prefecture":"岐阜県","prefecture_kana":"ギフケン","city":"羽島市","city_kana":"ハシマシ","town":"正木町曲利","town_kana":"マサキチョウマガリ","prefecture_code":21},"6213":{"zip_code":"5016213","prefecture":"岐阜県","prefecture_kana":"ギフケン","city":"羽島市","city_kana":"ハシマシ","town":"正木町光法寺","town_kana":"マサキチョウミツホウジ","prefecture_code":21},"6226":{"zip_code":"5016226","prefecture":"岐阜県","prefecture_kana":"ギフケン","city":"羽島市","city_kana":"ハシマシ","town":"正木町三ツ柳","town_kana":"マサキチョウミツヤナギ","prefecture_code":21},"6211":{"zip_code":"5016211","prefecture":"岐阜県","prefecture_kana":"ギフケン","city":"羽島市","city_kana":"ハシマシ","town":"正木町南及","town_kana":"マサキチョウミナミオヨビ","prefecture_code":21},"6221":{"zip_code":"5016221","prefecture":"岐阜県","prefecture_kana":"ギフケン","city":"羽島市","city_kana":"ハシマシ","town":"正木町森","town_kana":"マサキチョウモリ","prefecture_code":21},"6222":{"zip_code":"5016222","prefecture":"岐阜県","prefecture_kana":"ギフケン","city":"羽島市","city_kana":"ハシマシ","town":"正木町森新田","town_kana":"マサキチョウモリシンデン","prefecture_code":21},"6021":{"zip_code":"5016021","prefecture":"岐阜県","prefecture_kana":"ギフケン","city":"各務原市","city_kana":"カカミガハラシ","town":"川島笠田町","town_kana":"カワシマカサダマチ","prefecture_code":21},"6029":{"zip_code":"5016029","prefecture":"岐阜県","prefecture_kana":"ギフケン","city":"各務原市","city_kana":"カカミガハラシ","town":"川島北山町","town_kana":"カワシマキタヤママチ","prefecture_code":21},"6023":{"zip_code":"5016023","prefecture":"岐阜県","prefecture_kana":"ギフケン","city":"各務原市","city_kana":"カカミガハラシ","town":"川島小網町","town_kana":"カワシマコアミマチ","prefecture_code":21},"6025":{"zip_code":"5016025","prefecture":"岐阜県","prefecture_kana":"ギフケン","city":"各務原市","city_kana":"カカミガハラシ","town":"川島河田町","town_kana":"カワシマコウダマチ","prefecture_code":21},"6024":{"zip_code":"5016024","prefecture":"岐阜県","prefecture_kana":"ギフケン","city":"各務原市","city_kana":"カカミガハラシ","town":"川島竹早町","town_kana":"カワシマタケハヤマチ","prefecture_code":21},"6022":{"zip_code":"5016022","prefecture":"岐阜県","prefecture_kana":"ギフケン","city":"各務原市","city_kana":"カカミガハラシ","town":"川島松倉町","town_kana":"カワシママツクラマチ","prefecture_code":21},"6026":{"zip_code":"5016026","prefecture":"岐阜県","prefecture_kana":"ギフケン","city":"各務原市","city_kana":"カカミガハラシ","town":"川島松原町","town_kana":"カワシママツバラマチ","prefecture_code":21},"6027":{"zip_code":"5016027","prefecture":"岐阜県","prefecture_kana":"ギフケン","city":"各務原市","city_kana":"カカミガハラシ","town":"川島緑町","town_kana":"カワシマミドリマチ","prefecture_code":21},"6028":{"zip_code":"5016028","prefecture":"岐阜県","prefecture_kana":"ギフケン","city":"各務原市","city_kana":"カカミガハラシ","town":"川島渡町","town_kana":"カワシマワタリマチ","prefecture_code":21},"2100":{"zip_code":"5012100","prefecture":"岐阜県","prefecture_kana":"ギフケン","city":"山県市","city_kana":"ヤマガタシ","town":"","town_kana":"","prefecture_code":21},"2252":{"zip_code":"5012252","prefecture":"岐阜県","prefecture_kana":"ギフケン","city":"山県市","city_kana":"ヤマガタシ","town":"相戸","town_kana":"アイド","prefecture_code":21},"2256":{"zip_code":"5012256","prefecture":"岐阜県","prefecture_kana":"ギフケン","city":"山県市","city_kana":"ヤマガタシ","town":"青波","town_kana":"アオナミ","prefecture_code":21},"2111":{"zip_code":"5012111","prefecture":"岐阜県","prefecture_kana":"ギフケン","city":"山県市","city_kana":"ヤマガタシ","town":"赤尾","town_kana":"アカオ","prefecture_code":21},"2102":{"zip_code":"5012102","prefecture":"岐阜県","prefecture_kana":"ギフケン","city":"山県市","city_kana":"ヤマガタシ","town":"伊佐美","town_kana":"イサミ","prefecture_code":21},"2259":{"zip_code":"5012259","prefecture":"岐阜県","prefecture_kana":"ギフケン","city":"山県市","city_kana":"ヤマガタシ","town":"岩佐","town_kana":"イワサ","prefecture_code":21},"2115":{"zip_code":"5012115","prefecture":"岐阜県","prefecture_kana":"ギフケン","city":"山県市","city_kana":"ヤマガタシ","town":"梅原","town_kana":"ウメハラ","prefecture_code":21},"2302":{"zip_code":"5012302","prefecture":"岐阜県","prefecture_kana":"ギフケン","city":"山県市","city_kana":"ヤマガタシ","town":"円原","town_kana":"エンバラ","prefecture_code":21},"2101":{"zip_code":"5012101","prefecture":"岐阜県","prefecture_kana":"ギフケン","city":"山県市","city_kana":"ヤマガタシ","town":"大桑","town_kana":"オオガ","prefecture_code":21},"2123":{"zip_code":"5012123","prefecture":"岐阜県","prefecture_kana":"ギフケン","city":"山県市","city_kana":"ヤマガタシ","town":"大森","town_kana":"オオモリ","prefecture_code":21},"2251":{"zip_code":"5012251","prefecture":"岐阜県","prefecture_kana":"ギフケン","city":"山県市","city_kana":"ヤマガタシ","town":"柿野","town_kana":"カキノ","prefecture_code":21},"2132":{"zip_code":"5012132","prefecture":"岐阜県","prefecture_kana":"ギフケン","city":"山県市","city_kana":"ヤマガタシ","town":"掛","town_kana":"カケ","prefecture_code":21},"2303":{"zip_code":"5012303","prefecture":"岐阜県","prefecture_kana":"ギフケン","city":"山県市","city_kana":"ヤマガタシ","town":"片原","town_kana":"カタハラ","prefecture_code":21},"2301":{"zip_code":"5012301","prefecture":"岐阜県","prefecture_kana":"ギフケン","city":"山県市","city_kana":"ヤマガタシ","town":"神崎","town_kana":"カンザキ","prefecture_code":21},"2331":{"zip_code":"5012331","prefecture":"岐阜県","prefecture_kana":"ギフケン","city":"山県市","city_kana":"ヤマガタシ","town":"葛原","town_kana":"クズハラ","prefecture_code":21},"2124":{"zip_code":"5012124","prefecture":"岐阜県","prefecture_kana":"ギフケン","city":"山県市","city_kana":"ヤマガタシ","town":"小倉","town_kana":"コグラ","prefecture_code":21},"2114":{"zip_code":"5012114","prefecture":"岐阜県","prefecture_kana":"ギフケン","city":"山県市","city_kana":"ヤマガタシ","town":"佐賀","town_kana":"サガ","prefecture_code":21},"2314":{"zip_code":"5012314","prefecture":"岐阜県","prefecture_kana":"ギフケン","city":"山県市","city_kana":"ヤマガタシ","town":"笹賀","town_kana":"ササガ","prefecture_code":21},"2312":{"zip_code":"5012312","prefecture":"岐阜県","prefecture_kana":"ギフケン","city":"山県市","city_kana":"ヤマガタシ","town":"佐野","town_kana":"サノ","prefecture_code":21},"2103":{"zip_code":"5012103","prefecture":"岐阜県","prefecture_kana":"ギフケン","city":"山県市","city_kana":"ヤマガタシ","town":"椎倉","town_kana":"シグラ","prefecture_code":21},"2133":{"zip_code":"5012133","prefecture":"岐阜県","prefecture_kana":"ギフケン","city":"山県市","city_kana":"ヤマガタシ","town":"上願","town_kana":"ジョウガン","prefecture_code":21},"2121":{"zip_code":"5012121","prefecture":"岐阜県","prefecture_kana":"ギフケン","city":"山県市","city_kana":"ヤマガタシ","town":"大門","town_kana":"ダイモン","prefecture_code":21},"2113":{"zip_code":"5012113","prefecture":"岐阜県","prefecture_kana":"ギフケン","city":"山県市","city_kana":"ヤマガタシ","town":"高木","town_kana":"タカキ","prefecture_code":21},"2105":{"zip_code":"5012105","prefecture":"岐阜県","prefecture_kana":"ギフケン","city":"山県市","city_kana":"ヤマガタシ","town":"高富","town_kana":"タカトミ","prefecture_code":21},"2315":{"zip_code":"5012315","prefecture":"岐阜県","prefecture_kana":"ギフケン","city":"山県市","city_kana":"ヤマガタシ","town":"田栗","town_kana":"タグリ","prefecture_code":21},"2321":{"zip_code":"5012321","prefecture":"岐阜県","prefecture_kana":"ギフケン","city":"山県市","city_kana":"ヤマガタシ","town":"谷合","town_kana":"タニアイ","prefecture_code":21},"2311":{"zip_code":"5012311","prefecture":"岐阜県","prefecture_kana":"ギフケン","city":"山県市","city_kana":"ヤマガタシ","town":"椿","town_kana":"ツバキ","prefecture_code":21},"2254":{"zip_code":"5012254","prefecture":"岐阜県","prefecture_kana":"ギフケン","city":"山県市","city_kana":"ヤマガタシ","town":"出戸","town_kana":"デト","prefecture_code":21},"2313":{"zip_code":"5012313","prefecture":"岐阜県","prefecture_kana":"ギフケン","city":"山県市","city_kana":"ヤマガタシ","town":"徳永","town_kana":"トクナガ","prefecture_code":21},"2257":{"zip_code":"5012257","prefecture":"岐阜県","prefecture_kana":"ギフケン","city":"山県市","city_kana":"ヤマガタシ","town":"富永","town_kana":"トミナガ","prefecture_code":21},"2135":{"zip_code":"5012135","prefecture":"岐阜県","prefecture_kana":"ギフケン","city":"山県市","city_kana":"ヤマガタシ","town":"長滝","town_kana":"ナガタキ","prefecture_code":21},"2258":{"zip_code":"5012258","prefecture":"岐阜県","prefecture_kana":"ギフケン","city":"山県市","city_kana":"ヤマガタシ","town":"中洞","town_kana":"ナカホラ","prefecture_code":21},"2112":{"zip_code":"5012112","prefecture":"岐阜県","prefecture_kana":"ギフケン","city":"山県市","city_kana":"ヤマガタシ","town":"西深瀬","town_kana":"ニシフカセ","prefecture_code":21},"2104":{"zip_code":"5012104","prefecture":"岐阜県","prefecture_kana":"ギフケン","city":"山県市","city_kana":"ヤマガタシ","town":"東深瀬","town_kana":"ヒガシフカセ","prefecture_code":21},"2253":{"zip_code":"5012253","prefecture":"岐阜県","prefecture_kana":"ギフケン","city":"山県市","city_kana":"ヤマガタシ","town":"日永","town_kana":"ヒナガ","prefecture_code":21},"2131":{"zip_code":"5012131","prefecture":"岐阜県","prefecture_kana":"ギフケン","city":"山県市","city_kana":"ヤマガタシ","town":"平井","town_kana":"ヒライ","prefecture_code":21},"2122":{"zip_code":"5012122","prefecture":"岐阜県","prefecture_kana":"ギフケン","city":"山県市","city_kana":"ヤマガタシ","town":"藤倉","town_kana":"フジクラ","prefecture_code":21},"2255":{"zip_code":"5012255","prefecture":"岐阜県","prefecture_kana":"ギフケン","city":"山県市","city_kana":"ヤマガタシ","town":"船越","town_kana":"フナコシ","prefecture_code":21},"2125":{"zip_code":"5012125","prefecture":"岐阜県","prefecture_kana":"ギフケン","city":"山県市","city_kana":"ヤマガタシ","town":"洞田","town_kana":"ホラダ","prefecture_code":21},"2134":{"zip_code":"5012134","prefecture":"岐阜県","prefecture_kana":"ギフケン","city":"山県市","city_kana":"ヤマガタシ","town":"松尾","town_kana":"マツオ","prefecture_code":21},"0200":{"zip_code":"5010200","prefecture":"岐阜県","prefecture_kana":"ギフケン","city":"瑞穂市","city_kana":"ミズホシ","town":"","town_kana":"","prefecture_code":21},"0302":{"zip_code":"5010302","prefecture":"岐阜県","prefecture_kana":"ギフケン","city":"瑞穂市","city_kana":"ミズホシ","town":"居倉","town_kana":"イクラ","prefecture_code":21},"0224":{"zip_code":"5010224","prefecture":"岐阜県","prefecture_kana":"ギフケン","city":"瑞穂市","city_kana":"ミズホシ","town":"稲里","town_kana":"イナサト","prefecture_code":21},"0234":{"zip_code":"5010234","prefecture":"岐阜県","prefecture_kana":"ギフケン","city":"瑞穂市","city_kana":"ミズホシ","town":"牛牧","town_kana":"ウシキ","prefecture_code":21},"0306":{"zip_code":"5010306","prefecture":"岐阜県","prefecture_kana":"ギフケン","city":"瑞穂市","city_kana":"ミズホシ","town":"大月","town_kana":"オオツキ","prefecture_code":21},"0307":{"zip_code":"5010307","prefecture":"岐阜県","prefecture_kana":"ギフケン","city":"瑞穂市","city_kana":"ミズホシ","town":"唐栗","town_kana":"カラクリ","prefecture_code":21},"0237":{"zip_code":"5010237","prefecture":"岐阜県","prefecture_kana":"ギフケン","city":"瑞穂市","city_kana":"ミズホシ","town":"犀川","town_kana":"サイカワ","prefecture_code":21},"0311":{"zip_code":"5010311","prefecture":"岐阜県","prefecture_kana":"ギフケン","city":"瑞穂市","city_kana":"ミズホシ","town":"重里","town_kana":"シゲサト","prefecture_code":21},"0313":{"zip_code":"5010313","prefecture":"岐阜県","prefecture_kana":"ギフケン","city":"瑞穂市","city_kana":"ミズホシ","town":"十七条","town_kana":"ジュウシチジョウ","prefecture_code":21},"0314":{"zip_code":"5010314","prefecture":"岐阜県","prefecture_kana":"ギフケン","city":"瑞穂市","city_kana":"ミズホシ","town":"十八条","town_kana":"ジュウハチジョウ","prefecture_code":21},"0235":{"zip_code":"5010235","prefecture":"岐阜県","prefecture_kana":"ギフケン","city":"瑞穂市","city_kana":"ミズホシ","town":"十九条","town_kana":"ジュウクジョウ","prefecture_code":21},"0225":{"zip_code":"5010225","prefecture":"岐阜県","prefecture_kana":"ギフケン","city":"瑞穂市","city_kana":"ミズホシ","town":"祖父江","town_kana":"ソブエ","prefecture_code":21},"0221":{"zip_code":"5010221","prefecture":"岐阜県","prefecture_kana":"ギフケン","city":"瑞穂市","city_kana":"ミズホシ","town":"只越","town_kana":"タダコシ","prefecture_code":21},"0304":{"zip_code":"5010304","prefecture":"岐阜県","prefecture_kana":"ギフケン","city":"瑞穂市","city_kana":"ミズホシ","town":"田之上","town_kana":"タノカミ","prefecture_code":21},"0323":{"zip_code":"5010323","prefecture":"岐阜県","prefecture_kana":"ギフケン","city":"瑞穂市","city_kana":"ミズホシ","town":"中宮","town_kana":"ナカミヤ","prefecture_code":21},"0301":{"zip_code":"5010301","prefecture":"岐阜県","prefecture_kana":"ギフケン","city":"瑞穂市","city_kana":"ミズホシ","town":"七崎","town_kana":"ナナサキ","prefecture_code":21},"0211":{"zip_code":"5010211","prefecture":"岐阜県","prefecture_kana":"ギフケン","city":"瑞穂市","city_kana":"ミズホシ","town":"生津","town_kana":"ナマヅ","prefecture_code":21},"0214":{"zip_code":"5010214","prefecture":"岐阜県","prefecture_kana":"ギフケン","city":"瑞穂市","city_kana":"ミズホシ","town":"生津外宮東町","town_kana":"ナマヅゲグウヒガシマチ","prefecture_code":21},"0217":{"zip_code":"5010217","prefecture":"岐阜県","prefecture_kana":"ギフケン","city":"瑞穂市","city_kana":"ミズホシ","town":"生津外宮前町","town_kana":"ナマヅゲグウマエマチ","prefecture_code":21},"0212":{"zip_code":"5010212","prefecture":"岐阜県","prefecture_kana":"ギフケン","city":"瑞穂市","city_kana":"ミズホシ","town":"生津滝坪町","town_kana":"ナマヅタキツボマチ","prefecture_code":21},"0215":{"zip_code":"5010215","prefecture":"岐阜県","prefecture_kana":"ギフケン","city":"瑞穂市","city_kana":"ミズホシ","town":"生津天王東町","town_kana":"ナマヅテンノウヒガシマチ","prefecture_code":21},"0216":{"zip_code":"5010216","prefecture":"岐阜県","prefecture_kana":"ギフケン","city":"瑞穂市","city_kana":"ミズホシ","town":"生津天王町","town_kana":"ナマヅテンノウマチ","prefecture_code":21},"0213":{"zip_code":"5010213","prefecture":"岐阜県","prefecture_kana":"ギフケン","city":"瑞穂市","city_kana":"ミズホシ","town":"生津内宮町","town_kana":"ナマヅナイグウマチ","prefecture_code":21},"0232":{"zip_code":"5010232","prefecture":"岐阜県","prefecture_kana":"ギフケン","city":"瑞穂市","city_kana":"ミズホシ","town":"野田新田","town_kana":"ノダシンデン","prefecture_code":21},"0231":{"zip_code":"5010231","prefecture":"岐阜県","prefecture_kana":"ギフケン","city":"瑞穂市","city_kana":"ミズホシ","town":"野白新田","town_kana":"ノバクシンデン","prefecture_code":21},"0201":{"zip_code":"5010201","prefecture":"岐阜県","prefecture_kana":"ギフケン","city":"瑞穂市","city_kana":"ミズホシ","town":"馬場","town_kana":"ババ","prefecture_code":21},"0206":{"zip_code":"5010206","prefecture":"岐阜県","prefecture_kana":"ギフケン","city":"瑞穂市","city_kana":"ミズホシ","town":"馬場北町","town_kana":"ババキタマチ","prefecture_code":21},"0205":{"zip_code":"5010205","prefecture":"岐阜県","prefecture_kana":"ギフケン","city":"瑞穂市","city_kana":"ミズホシ","town":"馬場小城町","town_kana":"ババコシロマチ","prefecture_code":21},"0203":{"zip_code":"5010203","prefecture":"岐阜県","prefecture_kana":"ギフケン","city":"瑞穂市","city_kana":"ミズホシ","town":"馬場上光町","town_kana":"ババジョウコウマチ","prefecture_code":21},"0204":{"zip_code":"5010204","prefecture":"岐阜県","prefecture_kana":"ギフケン","city":"瑞穂市","city_kana":"ミズホシ","town":"馬場春雨町","town_kana":"ババハルサメマチ","prefecture_code":21},"0202":{"zip_code":"5010202","prefecture":"岐阜県","prefecture_kana":"ギフケン","city":"瑞穂市","city_kana":"ミズホシ","town":"馬場前畑町","town_kana":"ババマエハタマチ","prefecture_code":21},"0322":{"zip_code":"5010322","prefecture":"岐阜県","prefecture_kana":"ギフケン","city":"瑞穂市","city_kana":"ミズホシ","town":"古橋","town_kana":"フルハシ","prefecture_code":21},"0222":{"zip_code":"5010222","prefecture":"岐阜県","prefecture_kana":"ギフケン","city":"瑞穂市","city_kana":"ミズホシ","town":"別府","town_kana":"ベップ","prefecture_code":21},"0233":{"zip_code":"5010233","prefecture":"岐阜県","prefecture_kana":"ギフケン","city":"瑞穂市","city_kana":"ミズホシ","town":"宝江","town_kana":"ホウエ","prefecture_code":21},"0223":{"zip_code":"5010223","prefecture":"岐阜県","prefecture_kana":"ギフケン","city":"瑞穂市","city_kana":"ミズホシ","town":"穂積","town_kana":"ホヅミ","prefecture_code":21},"0236":{"zip_code":"5010236","prefecture":"岐阜県","prefecture_kana":"ギフケン","city":"瑞穂市","city_kana":"ミズホシ","town":"本田","town_kana":"ホンデン","prefecture_code":21},"0312":{"zip_code":"5010312","prefecture":"岐阜県","prefecture_kana":"ギフケン","city":"瑞穂市","city_kana":"ミズホシ","town":"美江寺","town_kana":"ミエジ","prefecture_code":21},"0305":{"zip_code":"5010305","prefecture":"岐阜県","prefecture_kana":"ギフケン","city":"瑞穂市","city_kana":"ミズホシ","town":"宮田","town_kana":"ミヤデン","prefecture_code":21},"0303":{"zip_code":"5010303","prefecture":"岐阜県","prefecture_kana":"ギフケン","city":"瑞穂市","city_kana":"ミズホシ","town":"森","town_kana":"モリ","prefecture_code":21},"0321":{"zip_code":"5010321","prefecture":"岐阜県","prefecture_kana":"ギフケン","city":"瑞穂市","city_kana":"ミズホシ","town":"横屋","town_kana":"ヨコヤ","prefecture_code":21},"0324":{"zip_code":"5010324","prefecture":"岐阜県","prefecture_kana":"ギフケン","city":"瑞穂市","city_kana":"ミズホシ","town":"呂久","town_kana":"ロク","prefecture_code":21},"0400":{"zip_code":"5010400","prefecture":"岐阜県","prefecture_kana":"ギフケン","city":"本巣郡北方町","city_kana":"モトスグンキタガタチョウ","town":"","town_kana":"","prefecture_code":21},"0475":{"zip_code":"5010475","prefecture":"岐阜県","prefecture_kana":"ギフケン","city":"本巣市","city_kana":"モトスシ","town":"浅木","town_kana":"アサギ","prefecture_code":21},"0415":{"zip_code":"5010415","prefecture":"岐阜県","prefecture_kana":"ギフケン","city":"本巣市","city_kana":"モトスシ","town":"有里","town_kana":"アリサト","prefecture_code":21},"0410":{"zip_code":"5010410","prefecture":"岐阜県","prefecture_kana":"ギフケン","city":"本巣市","city_kana":"モトスシ","town":"石神","town_kana":"イシガミ","prefecture_code":21},"0405":{"zip_code":"5010405","prefecture":"岐阜県","prefecture_kana":"ギフケン","city":"本巣市","city_kana":"モトスシ","town":"石原","town_kana":"イシハラ","prefecture_code":21},"0476":{"zip_code":"5010476","prefecture":"岐阜県","prefecture_kana":"ギフケン","city":"本巣市","city_kana":"モトスシ","town":"海老","town_kana":"カイロウ","prefecture_code":21},"0414":{"zip_code":"5010414","prefecture":"岐阜県","prefecture_kana":"ギフケン","city":"本巣市","city_kana":"モトスシ","town":"数屋","town_kana":"カズヤ","prefecture_code":21},"0411":{"zip_code":"5010411","prefecture":"岐阜県","prefecture_kana":"ギフケン","city":"本巣市","city_kana":"モトスシ","town":"上高屋","town_kana":"カミタカヤ","prefecture_code":21},"0401":{"zip_code":"5010401","prefecture":"岐阜県","prefecture_kana":"ギフケン","city":"本巣市","city_kana":"モトスシ","town":"上保","town_kana":"カミノホ","prefecture_code":21},"0461":{"zip_code":"5010461","prefecture":"岐阜県","prefecture_kana":"ギフケン","city":"本巣市","city_kana":"モトスシ","town":"上真桑","town_kana":"カミマクワ","prefecture_code":21},"0465":{"zip_code":"5010465","prefecture":"岐阜県","prefecture_kana":"ギフケン","city":"本巣市","city_kana":"モトスシ","town":"軽海","town_kana":"カルミ","prefecture_code":21},"0403":{"zip_code":"5010403","prefecture":"岐阜県","prefecture_kana":"ギフケン","city":"本巣市","city_kana":"モトスシ","town":"北野","town_kana":"キタノ","prefecture_code":21},"1232":{"zip_code":"5011232","prefecture":"岐阜県","prefecture_kana":"ギフケン","city":"本巣市","city_kana":"モトスシ","town":"金原","town_kana":"キンバラ","prefecture_code":21},"0402":{"zip_code":"5010402","prefecture":"岐阜県","prefecture_kana":"ギフケン","city":"本巣市","city_kana":"モトスシ","town":"郡府","town_kana":"グンブ","prefecture_code":21},"1235":{"zip_code":"5011235","prefecture":"岐阜県","prefecture_kana":"ギフケン","city":"本巣市","city_kana":"モトスシ","town":"神海","town_kana":"コウミ","prefecture_code":21},"0463":{"zip_code":"5010463","prefecture":"岐阜県","prefecture_kana":"ギフケン","city":"本巣市","city_kana":"モトスシ","town":"小柿","town_kana":"コガキ","prefecture_code":21},"0474":{"zip_code":"5010474","prefecture":"岐阜県","prefecture_kana":"ギフケン","city":"本巣市","city_kana":"モトスシ","town":"国領","town_kana":"コクリョウ","prefecture_code":21},"1234":{"zip_code":"5011234","prefecture":"岐阜県","prefecture_kana":"ギフケン","city":"本巣市","city_kana":"モトスシ","town":"木知原","town_kana":"コチボラ","prefecture_code":21},"1236":{"zip_code":"5011236","prefecture":"岐阜県","prefecture_kana":"ギフケン","city":"本巣市","city_kana":"モトスシ","town":"鍋原","town_kana":"ナベラ","prefecture_code":21},"0418":{"zip_code":"5010418","prefecture":"岐阜県","prefecture_kana":"ギフケン","city":"本巣市","city_kana":"モトスシ","town":"七五三","town_kana":"シメ","prefecture_code":21},"0472":{"zip_code":"5010472","prefecture":"岐阜県","prefecture_kana":"ギフケン","city":"本巣市","city_kana":"モトスシ","town":"下福島","town_kana":"シモフクジマ","prefecture_code":21},"0466":{"zip_code":"5010466","prefecture":"岐阜県","prefecture_kana":"ギフケン","city":"本巣市","city_kana":"モトスシ","town":"下真桑","town_kana":"シモマクワ","prefecture_code":21},"0464":{"zip_code":"5010464","prefecture":"岐阜県","prefecture_kana":"ギフケン","city":"本巣市","city_kana":"モトスシ","town":"十四条","town_kana":"ジュウシジョウ","prefecture_code":21},"0416":{"zip_code":"5010416","prefecture":"岐阜県","prefecture_kana":"ギフケン","city":"本巣市","city_kana":"モトスシ","town":"随原","town_kana":"ズイハラ","prefecture_code":21},"1205":{"zip_code":"5011205","prefecture":"岐阜県","prefecture_kana":"ギフケン","city":"本巣市","city_kana":"モトスシ","town":"曽井中島","town_kana":"ソイナカジマ","prefecture_code":21},"0462":{"zip_code":"5010462","prefecture":"岐阜県","prefecture_kana":"ギフケン","city":"本巣市","city_kana":"モトスシ","town":"宗慶","town_kana":"ソウケイ","prefecture_code":21},"1233":{"zip_code":"5011233","prefecture":"岐阜県","prefecture_kana":"ギフケン","city":"本巣市","city_kana":"モトスシ","town":"外山","town_kana":"トヤマ","prefecture_code":21},"0412":{"zip_code":"5010412","prefecture":"岐阜県","prefecture_kana":"ギフケン","city":"本巣市","city_kana":"モトスシ","town":"長屋","town_kana":"ナガヤ","prefecture_code":21},"0473":{"zip_code":"5010473","prefecture":"岐阜県","prefecture_kana":"ギフケン","city":"本巣市","city_kana":"モトスシ","town":"温井","town_kana":"ヌクイ","prefecture_code":21},"1524":{"zip_code":"5011524","prefecture":"岐阜県","prefecture_kana":"ギフケン","city":"本巣市","city_kana":"モトスシ","town":"根尾板所","town_kana":"ネオイタショ","prefecture_code":21},"1521":{"zip_code":"5011521","prefecture":"岐阜県","prefecture_kana":"ギフケン","city":"本巣市","city_kana":"モトスシ","town":"根尾市場","town_kana":"ネオイチバ","prefecture_code":21},"1525":{"zip_code":"5011525","prefecture":"岐阜県","prefecture_kana":"ギフケン","city":"本巣市","city_kana":"モトスシ","town":"根尾今村","town_kana":"ネオイマムラ","prefecture_code":21},"1527":{"zip_code":"5011527","prefecture":"岐阜県","prefecture_kana":"ギフケン","city":"本巣市","city_kana":"モトスシ","town":"根尾宇津志","town_kana":"ネオウツシ","prefecture_code":21},"1535":{"zip_code":"5011535","prefecture":"岐阜県","prefecture_kana":"ギフケン","city":"本巣市","city_kana":"モトスシ","town":"根尾大井","town_kana":"ネオオオイ","prefecture_code":21},"1507":{"zip_code":"5011507","prefecture":"岐阜県","prefecture_kana":"ギフケン","city":"本巣市","city_kana":"モトスシ","town":"根尾大河原","town_kana":"ネオオオカワラ","prefecture_code":21},"1514":{"zip_code":"5011514","prefecture":"岐阜県","prefecture_kana":"ギフケン","city":"本巣市","city_kana":"モトスシ","town":"根尾奥谷","town_kana":"ネオオクダニ","prefecture_code":21},"1518":{"zip_code":"5011518","prefecture":"岐阜県","prefecture_kana":"ギフケン","city":"本巣市","city_kana":"モトスシ","town":"根尾小鹿","town_kana":"ネオオジカ","prefecture_code":21},"1532":{"zip_code":"5011532","prefecture":"岐阜県","prefecture_kana":"ギフケン","city":"本巣市","city_kana":"モトスシ","town":"根尾越卒","town_kana":"ネオオッソ","prefecture_code":21},"1501":{"zip_code":"5011501","prefecture":"岐阜県","prefecture_kana":"ギフケン","city":"本巣市","city_kana":"モトスシ","town":"根尾越波","town_kana":"ネオオッパ","prefecture_code":21},"1531":{"zip_code":"5011531","prefecture":"岐阜県","prefecture_kana":"ギフケン","city":"本巣市","city_kana":"モトスシ","town":"根尾門脇","town_kana":"ネオカドワキ","prefecture_code":21},"1511":{"zip_code":"5011511","prefecture":"岐阜県","prefecture_kana":"ギフケン","city":"本巣市","city_kana":"モトスシ","town":"根尾上大須","town_kana":"ネオカミオオス","prefecture_code":21},"1523":{"zip_code":"5011523","prefecture":"岐阜県","prefecture_kana":"ギフケン","city":"本巣市","city_kana":"モトスシ","town":"根尾川原","town_kana":"ネオカワラ","prefecture_code":21},"1515":{"zip_code":"5011515","prefecture":"岐阜県","prefecture_kana":"ギフケン","city":"本巣市","city_kana":"モトスシ","town":"根尾口谷","town_kana":"ネオクチダニ","prefecture_code":21},"1502":{"zip_code":"5011502","prefecture":"岐阜県","prefecture_kana":"ギフケン","city":"本巣市","city_kana":"モトスシ","town":"根尾黒津","town_kana":"ネオクロヅ","prefecture_code":21},"1534":{"zip_code":"5011534","prefecture":"岐阜県","prefecture_kana":"ギフケン","city":"本巣市","city_kana":"モトスシ","town":"根尾神所","town_kana":"ネオコウドコロ","prefecture_code":21},"1512":{"zip_code":"5011512","prefecture":"岐阜県","prefecture_kana":"ギフケン","city":"本巣市","city_kana":"モトスシ","town":"根尾下大須","town_kana":"ネオシモオオス","prefecture_code":21},"1528":{"zip_code":"5011528","prefecture":"岐阜県","prefecture_kana":"ギフケン","city":"本巣市","city_kana":"モトスシ","town":"根尾高尾","town_kana":"ネオタカオ","prefecture_code":21},"1522":{"zip_code":"5011522","prefecture":"岐阜県","prefecture_kana":"ギフケン","city":"本巣市","city_kana":"モトスシ","town":"根尾樽見","town_kana":"ネオタルミ","prefecture_code":21},"1504":{"zip_code":"5011504","prefecture":"岐阜県","prefecture_kana":"ギフケン","city":"本巣市","city_kana":"モトスシ","town":"根尾天神堂","town_kana":"ネオテンジンドウ","prefecture_code":21},"1533":{"zip_code":"5011533","prefecture":"岐阜県","prefecture_kana":"ギフケン","city":"本巣市","city_kana":"モトスシ","town":"根尾中","town_kana":"ネオナカ","prefecture_code":21},"1505":{"zip_code":"5011505","prefecture":"岐阜県","prefecture_kana":"ギフケン","city":"本巣市","city_kana":"モトスシ","town":"根尾長島","town_kana":"ネオナガシマ","prefecture_code":21},"1503":{"zip_code":"5011503","prefecture":"岐阜県","prefecture_kana":"ギフケン","city":"本巣市","city_kana":"モトスシ","town":"根尾長嶺","town_kana":"ネオナガミネ","prefecture_code":21},"1517":{"zip_code":"5011517","prefecture":"岐阜県","prefecture_kana":"ギフケン","city":"本巣市","city_kana":"モトスシ","town":"根尾西板屋","town_kana":"ネオニシイタヤ","prefecture_code":21},"1506":{"zip_code":"5011506","prefecture":"岐阜県","prefecture_kana":"ギフケン","city":"本巣市","city_kana":"モトスシ","town":"根尾能郷","town_kana":"ネオノウゴウ","prefecture_code":21},"1516":{"zip_code":"5011516","prefecture":"岐阜県","prefecture_kana":"ギフケン","city":"本巣市","city_kana":"モトスシ","town":"根尾東板屋","town_kana":"ネオヒガシイタヤ","prefecture_code":21},"1526":{"zip_code":"5011526","prefecture":"岐阜県","prefecture_kana":"ギフケン","city":"本巣市","city_kana":"モトスシ","town":"根尾平野","town_kana":"ネオヒラノ","prefecture_code":21},"1513":{"zip_code":"5011513","prefecture":"岐阜県","prefecture_kana":"ギフケン","city":"本巣市","city_kana":"モトスシ","town":"根尾松田","town_kana":"ネオマツダ","prefecture_code":21},"1529":{"zip_code":"5011529","prefecture":"岐阜県","prefecture_kana":"ギフケン","city":"本巣市","city_kana":"モトスシ","town":"根尾水鳥","town_kana":"ネオミドリ","prefecture_code":21},"1536":{"zip_code":"5011536","prefecture":"岐阜県","prefecture_kana":"ギフケン","city":"本巣市","city_kana":"モトスシ","town":"根尾八谷","town_kana":"ネオヤタニ","prefecture_code":21},"0419":{"zip_code":"5010419","prefecture":"岐阜県","prefecture_kana":"ギフケン","city":"本巣市","city_kana":"モトスシ","town":"早野","town_kana":"ハヤノ","prefecture_code":21},"0404":{"zip_code":"5010404","prefecture":"岐阜県","prefecture_kana":"ギフケン","city":"本巣市","city_kana":"モトスシ","town":"春近","town_kana":"ハルチカ","prefecture_code":21},"1231":{"zip_code":"5011231","prefecture":"岐阜県","prefecture_kana":"ギフケン","city":"本巣市","city_kana":"モトスシ","town":"日当","town_kana":"ヒナタ","prefecture_code":21},"0407":{"zip_code":"5010407","prefecture":"岐阜県","prefecture_kana":"ギフケン","city":"本巣市","city_kana":"モトスシ","town":"仏生寺","town_kana":"ブッショウジ","prefecture_code":21},"1203":{"zip_code":"5011203","prefecture":"岐阜県","prefecture_kana":"ギフケン","city":"本巣市","city_kana":"モトスシ","town":"文殊","town_kana":"モンジュ","prefecture_code":21},"1202":{"zip_code":"5011202","prefecture":"岐阜県","prefecture_kana":"ギフケン","city":"本巣市","city_kana":"モトスシ","town":"法林寺","town_kana":"ホウリンジ","prefecture_code":21},"0471":{"zip_code":"5010471","prefecture":"岐阜県","prefecture_kana":"ギフケン","city":"本巣市","city_kana":"モトスシ","town":"政田","town_kana":"マサダ","prefecture_code":21},"0406":{"zip_code":"5010406","prefecture":"岐阜県","prefecture_kana":"ギフケン","city":"本巣市","city_kana":"モトスシ","town":"三橋","town_kana":"ミツハシ","prefecture_code":21},"0413":{"zip_code":"5010413","prefecture":"岐阜県","prefecture_kana":"ギフケン","city":"本巣市","city_kana":"モトスシ","town":"見延","town_kana":"ミノベ","prefecture_code":21},"0417":{"zip_code":"5010417","prefecture":"岐阜県","prefecture_kana":"ギフケン","city":"本巣市","city_kana":"モトスシ","town":"屋井","town_kana":"ヤイ","prefecture_code":21},"1201":{"zip_code":"5011201","prefecture":"岐阜県","prefecture_kana":"ギフケン","city":"本巣市","city_kana":"モトスシ","town":"山口","town_kana":"ヤマグチ","prefecture_code":21},"4200":{"zip_code":"5014200","prefecture":"岐阜県","prefecture_kana":"ギフケン","city":"郡上市","city_kana":"グジョウシ","town":"","town_kana":"","prefecture_code":21},"5111":{"zip_code":"5015111","prefecture":"岐阜県","prefecture_kana":"ギフケン","city":"郡上市","city_kana":"グジョウシ","town":"白鳥町阿多岐","town_kana":"シロトリチョウアタギ","prefecture_code":21},"5231":{"zip_code":"5015231","prefecture":"岐阜県","prefecture_kana":"ギフケン","city":"郡上市","city_kana":"グジョウシ","town":"白鳥町石徹白","town_kana":"シロトリチョウイトシロ","prefecture_code":21},"5124":{"zip_code":"5015124","prefecture":"岐阜県","prefecture_kana":"ギフケン","city":"郡上市","city_kana":"グジョウシ","town":"白鳥町大島","town_kana":"シロトリチョウオオシマ","prefecture_code":21},"5115":{"zip_code":"5015115","prefecture":"岐阜県","prefecture_kana":"ギフケン","city":"郡上市","city_kana":"グジョウシ","town":"白鳥町恩地","town_kana":"シロトリチョウオンジ","prefecture_code":21},"5125":{"zip_code":"5015125","prefecture":"岐阜県","prefecture_kana":"ギフケン","city":"郡上市","city_kana":"グジョウシ","town":"白鳥町越佐","town_kana":"シロトリチョウコッサ","prefecture_code":21},"5121":{"zip_code":"5015121","prefecture":"岐阜県","prefecture_kana":"ギフケン","city":"郡上市","city_kana":"グジョウシ","town":"白鳥町白鳥","town_kana":"シロトリチョウシロトリ","prefecture_code":21},"5122":{"zip_code":"5015122","prefecture":"岐阜県","prefecture_kana":"ギフケン","city":"郡上市","city_kana":"グジョウシ","town":"白鳥町為真","town_kana":"シロトリチョウタメザニ","prefecture_code":21},"5104":{"zip_code":"5015104","prefecture":"岐阜県","prefecture_kana":"ギフケン","city":"郡上市","city_kana":"グジョウシ","town":"白鳥町長滝","town_kana":"シロトリチョウナガタキ","prefecture_code":21},"5123":{"zip_code":"5015123","prefecture":"岐阜県","prefecture_kana":"ギフケン","city":"郡上市","city_kana":"グジョウシ","town":"白鳥町中津屋","town_kana":"シロトリチョウナカツヤ","prefecture_code":21},"5116":{"zip_code":"5015116","prefecture":"岐阜県","prefecture_kana":"ギフケン","city":"郡上市","city_kana":"グジョウシ","town":"白鳥町中西","town_kana":"シロトリチョウナカニシ","prefecture_code":21},"5114":{"zip_code":"5015114","prefecture":"岐阜県","prefecture_kana":"ギフケン","city":"郡上市","city_kana":"グジョウシ","town":"白鳥町那留","town_kana":"シロトリチョウナル","prefecture_code":21},"5113":{"zip_code":"5015113","prefecture":"岐阜県","prefecture_kana":"ギフケン","city":"郡上市","city_kana":"グジョウシ","town":"白鳥町野添","town_kana":"シロトリチョウノゾエ","prefecture_code":21},"5105":{"zip_code":"5015105","prefecture":"岐阜県","prefecture_kana":"ギフケン","city":"郡上市","city_kana":"グジョウシ","town":"白鳥町干田野","town_kana":"シロトリチョウヒタノ","prefecture_code":21},"5103":{"zip_code":"5015103","prefecture":"岐阜県","prefecture_kana":"ギフケン","city":"郡上市","city_kana":"グジョウシ","town":"白鳥町二日町","town_kana":"シロトリチョウフツカマチ","prefecture_code":21},"5102":{"zip_code":"5015102","prefecture":"岐阜県","prefecture_kana":"ギフケン","city":"郡上市","city_kana":"グジョウシ","town":"白鳥町歩岐島","town_kana":"シロトリチョウホキジマ","prefecture_code":21},"5101":{"zip_code":"5015101","prefecture":"岐阜県","prefecture_kana":"ギフケン","city":"郡上市","city_kana":"グジョウシ","town":"白鳥町前谷","town_kana":"シロトリチョウマエダニ","prefecture_code":21},"5126":{"zip_code":"5015126","prefecture":"岐阜県","prefecture_kana":"ギフケン","city":"郡上市","city_kana":"グジョウシ","town":"白鳥町向小駄良","town_kana":"シロトリチョウムカイコダラ","prefecture_code":21},"5112":{"zip_code":"5015112","prefecture":"岐阜県","prefecture_kana":"ギフケン","city":"郡上市","city_kana":"グジョウシ","town":"白鳥町六ノ里","town_kana":"シロトリチョウロクノリ","prefecture_code":21},"5304":{"zip_code":"5015304","prefecture":"岐阜県","prefecture_kana":"ギフケン","city":"郡上市","city_kana":"グジョウシ","town":"高鷲町切立","town_kana":"タカスチョウキッタテ","prefecture_code":21},"5303":{"zip_code":"5015303","prefecture":"岐阜県","prefecture_kana":"ギフケン","city":"郡上市","city_kana":"グジョウシ","town":"高鷲町大鷲","town_kana":"タカスチョウオオワシ","prefecture_code":21},"5305":{"zip_code":"5015305","prefecture":"岐阜県","prefecture_kana":"ギフケン","city":"郡上市","city_kana":"グジョウシ","town":"高鷲町西洞","town_kana":"タカスチョウニシボラ","prefecture_code":21},"5301":{"zip_code":"5015301","prefecture":"岐阜県","prefecture_kana":"ギフケン","city":"郡上市","city_kana":"グジョウシ","town":"高鷲町ひるがの","town_kana":"タカスチョウヒルガノ","prefecture_code":21},"5302":{"zip_code":"5015302","prefecture":"岐阜県","prefecture_kana":"ギフケン","city":"郡上市","city_kana":"グジョウシ","town":"高鷲町鷲見","town_kana":"タカスチョウワシミ","prefecture_code":21},"4236":{"zip_code":"5014236","prefecture":"岐阜県","prefecture_kana":"ギフケン","city":"郡上市","city_kana":"グジョウシ","town":"八幡町相生","town_kana":"ハチマンチョウアイオイ","prefecture_code":21},"4205":{"zip_code":"5014205","prefecture":"岐阜県","prefecture_kana":"ギフケン","city":"郡上市","city_kana":"グジョウシ","town":"八幡町安久田","town_kana":"ハチマンチョウアクダ","prefecture_code":21},"4204":{"zip_code":"5014204","prefecture":"岐阜県","prefecture_kana":"ギフケン","city":"郡上市","city_kana":"グジョウシ","town":"八幡町旭","town_kana":"ハチマンチョウアサヒ","prefecture_code":21},"4235":{"zip_code":"5014235","prefecture":"岐阜県","prefecture_kana":"ギフケン","city":"郡上市","city_kana":"グジョウシ","town":"八幡町有坂","town_kana":"ハチマンチョウアリサカ","prefecture_code":21},"4201":{"zip_code":"5014201","prefecture":"岐阜県","prefecture_kana":"ギフケン","city":"郡上市","city_kana":"グジョウシ","town":"八幡町有穂","town_kana":"ハチマンチョウアリホ","prefecture_code":21},"4202":{"zip_code":"5014202","prefecture":"岐阜県","prefecture_kana":"ギフケン","city":"郡上市","city_kana":"グジョウシ","town":"八幡町市島","town_kana":"ハチマンチョウイチシマ","prefecture_code":21},"4223":{"zip_code":"5014223","prefecture":"岐阜県","prefecture_kana":"ギフケン","city":"郡上市","city_kana":"グジョウシ","town":"八幡町稲成","town_kana":"ハチマンチョウイナリ","prefecture_code":21},"4451":{"zip_code":"5014451","prefecture":"岐阜県","prefecture_kana":"ギフケン","city":"郡上市","city_kana":"グジョウシ","town":"八幡町入間","town_kana":"ハチマンチョウイリマ","prefecture_code":21},"4219":{"zip_code":"5014219","prefecture":"岐阜県","prefecture_kana":"ギフケン","city":"郡上市","city_kana":"グジョウシ","town":"八幡町大手町","town_kana":"ハチマンチョウオオテマチ","prefecture_code":21},"4217":{"zip_code":"5014217","prefecture":"岐阜県","prefecture_kana":"ギフケン","city":"郡上市","city_kana":"グジョウシ","town":"八幡町尾崎町","town_kana":"ハチマンチョウオサキチョウ","prefecture_code":21},"4455":{"zip_code":"5014455","prefecture":"岐阜県","prefecture_kana":"ギフケン","city":"郡上市","city_kana":"グジョウシ","town":"八幡町小那比","town_kana":"ハチマンチョウオナビ","prefecture_code":21},"4221":{"zip_code":"5014221","prefecture":"岐阜県","prefecture_kana":"ギフケン","city":"郡上市","city_kana":"グジョウシ","town":"八幡町小野","town_kana":"ハチマンチョウオノ","prefecture_code":21},"4231":{"zip_code":"5014231","prefecture":"岐阜県","prefecture_kana":"ギフケン","city":"郡上市","city_kana":"グジョウシ","town":"八幡町河鹿","town_kana":"ハチマンチョウカジカ","prefecture_code":21},"4218":{"zip_code":"5014218","prefecture":"岐阜県","prefecture_kana":"ギフケン","city":"郡上市","city_kana":"グジョウシ","town":"八幡町鍛冶屋町","town_kana":"ハチマンチョウカジヤマチ","prefecture_code":21},"4234":{"zip_code":"5014234","prefecture":"岐阜県","prefecture_kana":"ギフケン","city":"郡上市","city_kana":"グジョウシ","town":"八幡町五町","town_kana":"ハチマンチョウゴチョウ","prefecture_code":21},"4215":{"zip_code":"5014215","prefecture":"岐阜県","prefecture_kana":"ギフケン","city":"郡上市","city_kana":"グジョウシ","town":"八幡町肴町","town_kana":"ハチマンチョウサカナマチ","prefecture_code":21},"4228":{"zip_code":"5014228","prefecture":"岐阜県","prefecture_kana":"ギフケン","city":"郡上市","city_kana":"グジョウシ","town":"八幡町桜町","town_kana":"ハチマンチョウサクラマチ","prefecture_code":21},"4238":{"zip_code":"5014238","prefecture":"岐阜県","prefecture_kana":"ギフケン","city":"郡上市","city_kana":"グジョウシ","town":"八幡町島","town_kana":"ハチマンチョウシマ","prefecture_code":21},"4222":{"zip_code":"5014222","prefecture":"岐阜県","prefecture_kana":"ギフケン","city":"郡上市","city_kana":"グジョウシ","town":"八幡町島谷","town_kana":"ハチマンチョウシマダニ","prefecture_code":21},"4224":{"zip_code":"5014224","prefecture":"岐阜県","prefecture_kana":"ギフケン","city":"郡上市","city_kana":"グジョウシ","town":"八幡町城南町","town_kana":"ハチマンチョウジョウナンチョウ","prefecture_code":21},"4212":{"zip_code":"5014212","prefecture":"岐阜県","prefecture_kana":"ギフケン","city":"郡上市","city_kana":"グジョウシ","town":"八幡町職人町","town_kana":"ハチマンチョウショクニンマチ","prefecture_code":21},"4203":{"zip_code":"5014203","prefecture":"岐阜県","prefecture_kana":"ギフケン","city":"郡上市","city_kana":"グジョウシ","town":"八幡町初納","town_kana":"ハチマンチョウショノウ","prefecture_code":21},"4226":{"zip_code":"5014226","prefecture":"岐阜県","prefecture_kana":"ギフケン","city":"郡上市","city_kana":"グジョウシ","town":"八幡町新町","town_kana":"ハチマンチョウシンマチ","prefecture_code":21},"4453":{"zip_code":"5014453","prefecture":"岐阜県","prefecture_kana":"ギフケン","city":"郡上市","city_kana":"グジョウシ","town":"八幡町洲河","town_kana":"ハチマンチョウスゴウ","prefecture_code":21},"4233":{"zip_code":"5014233","prefecture":"岐阜県","prefecture_kana":"ギフケン","city":"郡上市","city_kana":"グジョウシ","town":"八幡町瀬取","town_kana":"ハチマンチョウセトリ","prefecture_code":21},"4225":{"zip_code":"5014225","prefecture":"岐阜県","prefecture_kana":"ギフケン","city":"郡上市","city_kana":"グジョウシ","town":"八幡町大正町","town_kana":"ハチマンチョウタイショウマチ","prefecture_code":21},"4213":{"zip_code":"5014213","prefecture":"岐阜県","prefecture_kana":"ギフケン","city":"郡上市","city_kana":"グジョウシ","town":"八幡町殿町","town_kana":"ハチマンチョウトノマチ","prefecture_code":21},"4211":{"zip_code":"5014211","prefecture":"岐阜県","prefecture_kana":"ギフケン","city":"郡上市","city_kana":"グジョウシ","town":"八幡町中坪","town_kana":"ハチマンチョウナカツボ","prefecture_code":21},"4237":{"zip_code":"5014237","prefecture":"岐阜県","prefecture_kana":"ギフケン","city":"郡上市","city_kana":"グジョウシ","town":"八幡町那比","town_kana":"ハチマンチョウナビ","prefecture_code":21},"4207":{"zip_code":"5014207","prefecture":"岐阜県","prefecture_kana":"ギフケン","city":"郡上市","city_kana":"グジョウシ","town":"八幡町西乙原","town_kana":"ハチマンチョウニシオッパラ","prefecture_code":21},"4454":{"zip_code":"5014454","prefecture":"岐阜県","prefecture_kana":"ギフケン","city":"郡上市","city_kana":"グジョウシ","town":"八幡町野々倉","town_kana":"ハチマンチョウノノクラ","prefecture_code":21},"4227":{"zip_code":"5014227","prefecture":"岐阜県","prefecture_kana":"ギフケン","city":"郡上市","city_kana":"グジョウシ","town":"八幡町橋本町","town_kana":"ハチマンチョウハシモトチョウ","prefecture_code":21},"4232":{"zip_code":"5014232","prefecture":"岐阜県","prefecture_kana":"ギフケン","city":"郡上市","city_kana":"グジョウシ","town":"八幡町初音","town_kana":"ハチマンチョウハツネ","prefecture_code":21},"4216":{"zip_code":"5014216","prefecture":"岐阜県","prefecture_kana":"ギフケン","city":"郡上市","city_kana":"グジョウシ","town":"八幡町本町","town_kana":"ハチマンチョウホンマチ","prefecture_code":21},"4452":{"zip_code":"5014452","prefecture":"岐阜県","prefecture_kana":"ギフケン","city":"郡上市","city_kana":"グジョウシ","town":"八幡町美山","town_kana":"ハチマンチョウミヤマ","prefecture_code":21},"4241":{"zip_code":"5014241","prefecture":"岐阜県","prefecture_kana":"ギフケン","city":"郡上市","city_kana":"グジョウシ","town":"八幡町向山","town_kana":"ハチマンチョウムカイヤマ","prefecture_code":21},"4214":{"zip_code":"5014214","prefecture":"岐阜県","prefecture_kana":"ギフケン","city":"郡上市","city_kana":"グジョウシ","town":"八幡町柳町","town_kana":"ハチマンチョウヤナギマチ","prefecture_code":21},"4206":{"zip_code":"5014206","prefecture":"岐阜県","prefecture_kana":"ギフケン","city":"郡上市","city_kana":"グジョウシ","town":"八幡町吉野","town_kana":"ハチマンチョウヨシノ","prefecture_code":21},"4104":{"zip_code":"5014104","prefecture":"岐阜県","prefecture_kana":"ギフケン","city":"郡上市","city_kana":"グジョウシ","town":"美並町梅原","town_kana":"ミナミチョウウメハラ","prefecture_code":21},"4107":{"zip_code":"5014107","prefecture":"岐阜県","prefecture_kana":"ギフケン","city":"郡上市","city_kana":"グジョウシ","town":"美並町大原","town_kana":"ミナミチョウオオハラ","prefecture_code":21},"4101":{"zip_code":"5014101","prefecture":"岐阜県","prefecture_kana":"ギフケン","city":"郡上市","city_kana":"グジョウシ","town":"美並町上田","town_kana":"ミナミチョウカミタ","prefecture_code":21},"4102":{"zip_code":"5014102","prefecture":"岐阜県","prefecture_kana":"ギフケン","city":"郡上市","city_kana":"グジョウシ","town":"美並町高砂","town_kana":"ミナミチョウタカサゴ","prefecture_code":21},"4106":{"zip_code":"5014106","prefecture":"岐阜県","prefecture_kana":"ギフケン","city":"郡上市","city_kana":"グジョウシ","town":"美並町白山","town_kana":"ミナミチョウハクサン","prefecture_code":21},"4105":{"zip_code":"5014105","prefecture":"岐阜県","prefecture_kana":"ギフケン","city":"郡上市","city_kana":"グジョウシ","town":"美並町三戸","town_kana":"ミナミチョウミト","prefecture_code":21},"4103":{"zip_code":"5014103","prefecture":"岐阜県","prefecture_kana":"ギフケン","city":"郡上市","city_kana":"グジョウシ","town":"美並町山田","town_kana":"ミナミチョウヤマダ","prefecture_code":21},"4301":{"zip_code":"5014301","prefecture":"岐阜県","prefecture_kana":"ギフケン","city":"郡上市","city_kana":"グジョウシ","town":"明宝大谷","town_kana":"メイホウオオタニ","prefecture_code":21},"4305":{"zip_code":"5014305","prefecture":"岐阜県","prefecture_kana":"ギフケン","city":"郡上市","city_kana":"グジョウシ","town":"明宝小川","town_kana":"メイホウオガワ","prefecture_code":21},"4304":{"zip_code":"5014304","prefecture":"岐阜県","prefecture_kana":"ギフケン","city":"郡上市","city_kana":"グジョウシ","town":"明宝奥住","town_kana":"メイホウオクズミ","prefecture_code":21},"4302":{"zip_code":"5014302","prefecture":"岐阜県","prefecture_kana":"ギフケン","city":"郡上市","city_kana":"グジョウシ","town":"明宝寒水","town_kana":"メイホウカノミズ","prefecture_code":21},"4303":{"zip_code":"5014303","prefecture":"岐阜県","prefecture_kana":"ギフケン","city":"郡上市","city_kana":"グジョウシ","town":"明宝気良","town_kana":"メイホウケラ","prefecture_code":21},"4306":{"zip_code":"5014306","prefecture":"岐阜県","prefecture_kana":"ギフケン","city":"郡上市","city_kana":"グジョウシ","town":"明宝畑佐","town_kana":"メイホウハタサ","prefecture_code":21},"4307":{"zip_code":"5014307","prefecture":"岐阜県","prefecture_kana":"ギフケン","city":"郡上市","city_kana":"グジョウシ","town":"明宝二間手","town_kana":"メイホウフタマテ","prefecture_code":21},"4618":{"zip_code":"5014618","prefecture":"岐阜県","prefecture_kana":"ギフケン","city":"郡上市","city_kana":"グジョウシ","town":"大和町内ケ谷","town_kana":"ヤマトチョウウチガタニ","prefecture_code":21},"4601":{"zip_code":"5014601","prefecture":"岐阜県","prefecture_kana":"ギフケン","city":"郡上市","city_kana":"グジョウシ","town":"大和町大間見","town_kana":"ヤマトチョウオオマミ","prefecture_code":21},"4619":{"zip_code":"5014619","prefecture":"岐阜県","prefecture_kana":"ギフケン","city":"郡上市","city_kana":"グジョウシ","town":"大和町落部","town_kana":"ヤマトチョウオチベ","prefecture_code":21},"4606":{"zip_code":"5014606","prefecture":"岐阜県","prefecture_kana":"ギフケン","city":"郡上市","city_kana":"グジョウシ","town":"大和町河辺","town_kana":"ヤマトチョウカベ","prefecture_code":21},"4605":{"zip_code":"5014605","prefecture":"岐阜県","prefecture_kana":"ギフケン","city":"郡上市","city_kana":"グジョウシ","town":"大和町神路","town_kana":"ヤマトチョウカンジ","prefecture_code":21},"4603":{"zip_code":"5014603","prefecture":"岐阜県","prefecture_kana":"ギフケン","city":"郡上市","city_kana":"グジョウシ","town":"大和町栗巣","town_kana":"ヤマトチョウクリス","prefecture_code":21},"4602":{"zip_code":"5014602","prefecture":"岐阜県","prefecture_kana":"ギフケン","city":"郡上市","city_kana":"グジョウシ","town":"大和町小間見","town_kana":"ヤマトチョウコマミ","prefecture_code":21},"4610":{"zip_code":"5014610","prefecture":"岐阜県","prefecture_kana":"ギフケン","city":"郡上市","city_kana":"グジョウシ","town":"大和町島","town_kana":"ヤマトチョウシマ","prefecture_code":21},"4612":{"zip_code":"5014612","prefecture":"岐阜県","prefecture_kana":"ギフケン","city":"郡上市","city_kana":"グジョウシ","town":"大和町剣","town_kana":"ヤマトチョウツルギ","prefecture_code":21},"4607":{"zip_code":"5014607","prefecture":"岐阜県","prefecture_kana":"ギフケン","city":"郡上市","city_kana":"グジョウシ","town":"大和町徳永","town_kana":"ヤマトチョウトクナガ","prefecture_code":21},"4613":{"zip_code":"5014613","prefecture":"岐阜県","prefecture_kana":"ギフケン","city":"郡上市","city_kana":"グジョウシ","town":"大和町名皿部","town_kana":"ヤマトチョウナサラベ","prefecture_code":21},"4614":{"zip_code":"5014614","prefecture":"岐阜県","prefecture_kana":"ギフケン","city":"郡上市","city_kana":"グジョウシ","town":"大和町野口","town_kana":"ヤマトチョウノグチ","prefecture_code":21},"4615":{"zip_code":"5014615","prefecture":"岐阜県","prefecture_kana":"ギフケン","city":"郡上市","city_kana":"グジョウシ","town":"大和町場皿","town_kana":"ヤマトチョウバツサラ","prefecture_code":21},"4616":{"zip_code":"5014616","prefecture":"岐阜県","prefecture_kana":"ギフケン","city":"郡上市","city_kana":"グジョウシ","town":"大和町福田","town_kana":"ヤマトチョウフクダ","prefecture_code":21},"4604":{"zip_code":"5014604","prefecture":"岐阜県","prefecture_kana":"ギフケン","city":"郡上市","city_kana":"グジョウシ","town":"大和町古道","town_kana":"ヤマトチョウフルミチ","prefecture_code":21},"4617":{"zip_code":"5014617","prefecture":"岐阜県","prefecture_kana":"ギフケン","city":"郡上市","city_kana":"グジョウシ","town":"大和町洞口","town_kana":"ヤマトチョウホラグチ","prefecture_code":21},"4608":{"zip_code":"5014608","prefecture":"岐阜県","prefecture_kana":"ギフケン","city":"郡上市","city_kana":"グジョウシ","town":"大和町牧","town_kana":"ヤマトチョウマキ","prefecture_code":21},"4611":{"zip_code":"5014611","prefecture":"岐阜県","prefecture_kana":"ギフケン","city":"郡上市","city_kana":"グジョウシ","town":"大和町万場","town_kana":"ヤマトチョウマンバ","prefecture_code":21},"4514":{"zip_code":"5014514","prefecture":"岐阜県","prefecture_kana":"ギフケン","city":"郡上市","city_kana":"グジョウシ","town":"和良町安郷野","town_kana":"ワラチョウアゴノ","prefecture_code":21},"4501":{"zip_code":"5014501","prefecture":"岐阜県","prefecture_kana":"ギフケン","city":"郡上市","city_kana":"グジョウシ","town":"和良町鹿倉","town_kana":"ワラチョウカクラ","prefecture_code":21},"4508":{"zip_code":"5014508","prefecture":"岐阜県","prefecture_kana":"ギフケン","city":"郡上市","city_kana":"グジョウシ","town":"和良町上沢","town_kana":"ワラチョウカミザワ","prefecture_code":21},"4512":{"zip_code":"5014512","prefecture":"岐阜県","prefecture_kana":"ギフケン","city":"郡上市","city_kana":"グジョウシ","town":"和良町上土京","town_kana":"ワラチョウカミドキョウ","prefecture_code":21},"4517":{"zip_code":"5014517","prefecture":"岐阜県","prefecture_kana":"ギフケン","city":"郡上市","city_kana":"グジョウシ","town":"和良町沢","town_kana":"ワラチョウサワ","prefecture_code":21},"4509":{"zip_code":"5014509","prefecture":"岐阜県","prefecture_kana":"ギフケン","city":"郡上市","city_kana":"グジョウシ","town":"和良町下沢","town_kana":"ワラチョウシモザワ","prefecture_code":21},"4513":{"zip_code":"5014513","prefecture":"岐阜県","prefecture_kana":"ギフケン","city":"郡上市","city_kana":"グジョウシ","town":"和良町下土京","town_kana":"ワラチョウシモドキョウ","prefecture_code":21},"4511":{"zip_code":"5014511","prefecture":"岐阜県","prefecture_kana":"ギフケン","city":"郡上市","city_kana":"グジョウシ","town":"和良町下洞","town_kana":"ワラチョウシモボラ","prefecture_code":21},"4504":{"zip_code":"5014504","prefecture":"岐阜県","prefecture_kana":"ギフケン","city":"郡上市","city_kana":"グジョウシ","town":"和良町田平","town_kana":"ワラチョウタビラ","prefecture_code":21},"4518":{"zip_code":"5014518","prefecture":"岐阜県","prefecture_kana":"ギフケン","city":"郡上市","city_kana":"グジョウシ","town":"和良町土京","town_kana":"ワラチョウドキョウ","prefecture_code":21},"4503":{"zip_code":"5014503","prefecture":"岐阜県","prefecture_kana":"ギフケン","city":"郡上市","city_kana":"グジョウシ","town":"和良町野尻","town_kana":"ワラチョウノジリ","prefecture_code":21},"4505":{"zip_code":"5014505","prefecture":"岐阜県","prefecture_kana":"ギフケン","city":"郡上市","city_kana":"グジョウシ","town":"和良町東野","town_kana":"ワラチョウヒガシノ","prefecture_code":21},"4515":{"zip_code":"5014515","prefecture":"岐阜県","prefecture_kana":"ギフケン","city":"郡上市","city_kana":"グジョウシ","town":"和良町方須","town_kana":"ワラチョウホウス","prefecture_code":21},"4510":{"zip_code":"5014510","prefecture":"岐阜県","prefecture_kana":"ギフケン","city":"郡上市","city_kana":"グジョウシ","town":"和良町法師丸","town_kana":"ワラチョウホシマル","prefecture_code":21},"4516":{"zip_code":"5014516","prefecture":"岐阜県","prefecture_kana":"ギフケン","city":"郡上市","city_kana":"グジョウシ","town":"和良町三庫","town_kana":"ワラチョウミクラ","prefecture_code":21},"4507":{"zip_code":"5014507","prefecture":"岐阜県","prefecture_kana":"ギフケン","city":"郡上市","city_kana":"グジョウシ","town":"和良町宮地","town_kana":"ワラチョウミヤジ","prefecture_code":21},"4502":{"zip_code":"5014502","prefecture":"岐阜県","prefecture_kana":"ギフケン","city":"郡上市","city_kana":"グジョウシ","town":"和良町宮代","town_kana":"ワラチョウミヤシロ","prefecture_code":21},"4506":{"zip_code":"5014506","prefecture":"岐阜県","prefecture_kana":"ギフケン","city":"郡上市","city_kana":"グジョウシ","town":"和良町横野","town_kana":"ワラチョウヨコノ","prefecture_code":21},"6100":{"zip_code":"5016100","prefecture":"岐阜県","prefecture_kana":"ギフケン","city":"羽島郡笠松町","city_kana":"ハシマグンカサマツチョウ","town":"","town_kana":"","prefecture_code":21},"6015":{"zip_code":"5016015","prefecture":"岐阜県","prefecture_kana":"ギフケン","city":"羽島郡岐南町","city_kana":"ハシマグンギナンチョウ","town":"石原瀬","town_kana":"イシハラセ","prefecture_code":21},"6001":{"zip_code":"5016001","prefecture":"岐阜県","prefecture_kana":"ギフケン","city":"羽島郡岐南町","city_kana":"ハシマグンギナンチョウ","town":"上印食","town_kana":"カミインジキ","prefecture_code":21},"6018":{"zip_code":"5016018","prefecture":"岐阜県","prefecture_kana":"ギフケン","city":"羽島郡岐南町","city_kana":"ハシマグンギナンチョウ","town":"下印食","town_kana":"シモインジキ","prefecture_code":21},"6016":{"zip_code":"5016016","prefecture":"岐阜県","prefecture_kana":"ギフケン","city":"羽島郡岐南町","city_kana":"ハシマグンギナンチョウ","town":"徳田","town_kana":"トクダ","prefecture_code":21},"6017":{"zip_code":"5016017","prefecture":"岐阜県","prefecture_kana":"ギフケン","city":"羽島郡岐南町","city_kana":"ハシマグンギナンチョウ","town":"徳田西","town_kana":"トクダニシ","prefecture_code":21},"6004":{"zip_code":"5016004","prefecture":"岐阜県","prefecture_kana":"ギフケン","city":"羽島郡岐南町","city_kana":"ハシマグンギナンチョウ","town":"野中","town_kana":"ノナカ","prefecture_code":21},"6006":{"zip_code":"5016006","prefecture":"岐阜県","prefecture_kana":"ギフケン","city":"羽島郡岐南町","city_kana":"ハシマグンギナンチョウ","town":"伏屋","town_kana":"フセヤ","prefecture_code":21},"6003":{"zip_code":"5016003","prefecture":"岐阜県","prefecture_kana":"ギフケン","city":"羽島郡岐南町","city_kana":"ハシマグンギナンチョウ","town":"平島","town_kana":"ヘイジマ","prefecture_code":21},"6013":{"zip_code":"5016013","prefecture":"岐阜県","prefecture_kana":"ギフケン","city":"羽島郡岐南町","city_kana":"ハシマグンギナンチョウ","town":"平成","town_kana":"ヘイセイ","prefecture_code":21},"6002":{"zip_code":"5016002","prefecture":"岐阜県","prefecture_kana":"ギフケン","city":"羽島郡岐南町","city_kana":"ハシマグンギナンチョウ","town":"三宅","town_kana":"ミヤケ","prefecture_code":21},"6019":{"zip_code":"5016019","prefecture":"岐阜県","prefecture_kana":"ギフケン","city":"羽島郡岐南町","city_kana":"ハシマグンギナンチョウ","town":"みやまち","town_kana":"ミヤマチ","prefecture_code":21},"6014":{"zip_code":"5016014","prefecture":"岐阜県","prefecture_kana":"ギフケン","city":"羽島郡岐南町","city_kana":"ハシマグンギナンチョウ","town":"薬師寺","town_kana":"ヤクシジ","prefecture_code":21},"6012":{"zip_code":"5016012","prefecture":"岐阜県","prefecture_kana":"ギフケン","city":"羽島郡岐南町","city_kana":"ハシマグンギナンチョウ","town":"八剣","town_kana":"ヤツルギ","prefecture_code":21},"6011":{"zip_code":"5016011","prefecture":"岐阜県","prefecture_kana":"ギフケン","city":"羽島郡岐南町","city_kana":"ハシマグンギナンチョウ","town":"八剣北","town_kana":"ヤツルギキタ","prefecture_code":21},"6005":{"zip_code":"5016005","prefecture":"岐阜県","prefecture_kana":"ギフケン","city":"羽島郡岐南町","city_kana":"ハシマグンギナンチョウ","town":"若宮地","town_kana":"ワカミヤジ","prefecture_code":21},"6044":{"zip_code":"5016044","prefecture":"岐阜県","prefecture_kana":"ギフケン","city":"羽島郡笠松町","city_kana":"ハシマグンカサマツチョウ","town":"相生町","town_kana":"アイオイチョウ","prefecture_code":21},"6056":{"zip_code":"5016056","prefecture":"岐阜県","prefecture_kana":"ギフケン","city":"羽島郡笠松町","city_kana":"ハシマグンカサマツチョウ","town":"朝日町","town_kana":"アサヒマチ","prefecture_code":21},"6061":{"zip_code":"5016061","prefecture":"岐阜県","prefecture_kana":"ギフケン","city":"羽島郡笠松町","city_kana":"ハシマグンカサマツチョウ","town":"泉町","town_kana":"イズミチョウ","prefecture_code":21},"6032":{"zip_code":"5016032","prefecture":"岐阜県","prefecture_kana":"ギフケン","city":"羽島郡笠松町","city_kana":"ハシマグンカサマツチョウ","town":"江川","town_kana":"エガワ","prefecture_code":21},"6035":{"zip_code":"5016035","prefecture":"岐阜県","prefecture_kana":"ギフケン","city":"羽島郡笠松町","city_kana":"ハシマグンカサマツチョウ","town":"円城寺","town_kana":"エンジョウジ","prefecture_code":21},"6087":{"zip_code":"5016087","prefecture":"岐阜県","prefecture_kana":"ギフケン","city":"羽島郡笠松町","city_kana":"ハシマグンカサマツチョウ","town":"大池町","town_kana":"オオイケチョウ","prefecture_code":21},"6082":{"zip_code":"5016082","prefecture":"岐阜県","prefecture_kana":"ギフケン","city":"羽島郡笠松町","city_kana":"ハシマグンカサマツチョウ","town":"春日町","town_kana":"カスガチョウ","prefecture_code":21},"6065":{"zip_code":"5016065","prefecture":"岐阜県","prefecture_kana":"ギフケン","city":"羽島郡笠松町","city_kana":"ハシマグンカサマツチョウ","town":"門間","town_kana":"カドマ","prefecture_code":21},"6071":{"zip_code":"5016071","prefecture":"岐阜県","prefecture_kana":"ギフケン","city":"羽島郡笠松町","city_kana":"ハシマグンカサマツチョウ","town":"上新町","town_kana":"カミシンマチ","prefecture_code":21},"6051":{"zip_code":"5016051","prefecture":"岐阜県","prefecture_kana":"ギフケン","city":"羽島郡笠松町","city_kana":"ハシマグンカサマツチョウ","town":"上本町","town_kana":"カミホンマチ","prefecture_code":21},"6058":{"zip_code":"5016058","prefecture":"岐阜県","prefecture_kana":"ギフケン","city":"羽島郡笠松町","city_kana":"ハシマグンカサマツチョウ","town":"上柳川町","town_kana":"カミヤナガワチョウ","prefecture_code":21},"6084":{"zip_code":"5016084","prefecture":"岐阜県","prefecture_kana":"ギフケン","city":"羽島郡笠松町","city_kana":"ハシマグンカサマツチョウ","town":"如月町","town_kana":"キサラギチョウ","prefecture_code":21},"6064":{"zip_code":"5016064","prefecture":"岐阜県","prefecture_kana":"ギフケン","city":"羽島郡笠松町","city_kana":"ハシマグンカサマツチョウ","town":"北及","town_kana":"キタオヨビ","prefecture_code":21},"6086":{"zip_code":"5016086","prefecture":"岐阜県","prefecture_kana":"ギフケン","city":"羽島郡笠松町","city_kana":"ハシマグンカサマツチョウ","town":"清住町","town_kana":"キヨズミチョウ","prefecture_code":21},"6043":{"zip_code":"5016043","prefecture":"岐阜県","prefecture_kana":"ギフケン","city":"羽島郡笠松町","city_kana":"ハシマグンカサマツチョウ","town":"県町","town_kana":"ケンマチ","prefecture_code":21},"6031":{"zip_code":"5016031","prefecture":"岐阜県","prefecture_kana":"ギフケン","city":"羽島郡笠松町","city_kana":"ハシマグンカサマツチョウ","town":"米野","town_kana":"コメノ","prefecture_code":21},"6098":{"zip_code":"5016098","prefecture":"岐阜県","prefecture_kana":"ギフケン","city":"羽島郡笠松町","city_kana":"ハシマグンカサマツチョウ","town":"桜町","town_kana":"サクラマチ","prefecture_code":21},"6073":{"zip_code":"5016073","prefecture":"岐阜県","prefecture_kana":"ギフケン","city":"羽島郡笠松町","city_kana":"ハシマグンカサマツチョウ","town":"下新町","town_kana":"シモシンマチ","prefecture_code":21},"6052":{"zip_code":"5016052","prefecture":"岐阜県","prefecture_kana":"ギフケン","city":"羽島郡笠松町","city_kana":"ハシマグンカサマツチョウ","town":"下本町","town_kana":"シモホンマチ","prefecture_code":21},"6057":{"zip_code":"5016057","prefecture":"岐阜県","prefecture_kana":"ギフケン","city":"羽島郡笠松町","city_kana":"ハシマグンカサマツチョウ","town":"下柳川町","town_kana":"シモヤナガワチョウ","prefecture_code":21},"6091":{"zip_code":"5016091","prefecture":"岐阜県","prefecture_kana":"ギフケン","city":"羽島郡笠松町","city_kana":"ハシマグンカサマツチョウ","town":"松栄町","town_kana":"ショウエイチョウ","prefecture_code":21},"6074":{"zip_code":"5016074","prefecture":"岐阜県","prefecture_kana":"ギフケン","city":"羽島郡笠松町","city_kana":"ハシマグンカサマツチョウ","town":"新町","town_kana":"シンマチ","prefecture_code":21},"6045":{"zip_code":"5016045","prefecture":"岐阜県","prefecture_kana":"ギフケン","city":"羽島郡笠松町","city_kana":"ハシマグンカサマツチョウ","town":"司町","town_kana":"ツカサマチ","prefecture_code":21},"6092":{"zip_code":"5016092","prefecture":"岐阜県","prefecture_kana":"ギフケン","city":"羽島郡笠松町","city_kana":"ハシマグンカサマツチョウ","town":"月美町","town_kana":"ツキミチョウ","prefecture_code":21},"6062":{"zip_code":"5016062","prefecture":"岐阜県","prefecture_kana":"ギフケン","city":"羽島郡笠松町","city_kana":"ハシマグンカサマツチョウ","town":"田代","town_kana":"デンダイ","prefecture_code":21},"6077":{"zip_code":"5016077","prefecture":"岐阜県","prefecture_kana":"ギフケン","city":"羽島郡笠松町","city_kana":"ハシマグンカサマツチョウ","town":"天王町","town_kana":"テンノウチョウ","prefecture_code":21},"6081":{"zip_code":"5016081","prefecture":"岐阜県","prefecture_kana":"ギフケン","city":"羽島郡笠松町","city_kana":"ハシマグンカサマツチョウ","town":"東陽町","town_kana":"トウヨウチョウ","prefecture_code":21},"6083":{"zip_code":"5016083","prefecture":"岐阜県","prefecture_kana":"ギフケン","city":"羽島郡笠松町","city_kana":"ハシマグンカサマツチョウ","town":"常盤町","town_kana":"トキワチョウ","prefecture_code":21},"6095":{"zip_code":"5016095","prefecture":"岐阜県","prefecture_kana":"ギフケン","city":"羽島郡笠松町","city_kana":"ハシマグンカサマツチョウ","town":"中川町","town_kana":"ナカガワチョウ","prefecture_code":21},"6072":{"zip_code":"5016072","prefecture":"岐阜県","prefecture_kana":"ギフケン","city":"羽島郡笠松町","city_kana":"ハシマグンカサマツチョウ","town":"中新町","town_kana":"ナカシンマチ","prefecture_code":21},"6034":{"zip_code":"5016034","prefecture":"岐阜県","prefecture_kana":"ギフケン","city":"羽島郡笠松町","city_kana":"ハシマグンカサマツチョウ","town":"中野","town_kana":"ナカノ","prefecture_code":21},"6063":{"zip_code":"5016063","prefecture":"岐阜県","prefecture_kana":"ギフケン","city":"羽島郡笠松町","city_kana":"ハシマグンカサマツチョウ","town":"長池","town_kana":"ナガイケ","prefecture_code":21},"6041":{"zip_code":"5016041","prefecture":"岐阜県","prefecture_kana":"ギフケン","city":"羽島郡笠松町","city_kana":"ハシマグンカサマツチョウ","town":"奈良町","town_kana":"ナラマチ","prefecture_code":21},"6037":{"zip_code":"5016037","prefecture":"岐阜県","prefecture_kana":"ギフケン","city":"羽島郡笠松町","city_kana":"ハシマグンカサマツチョウ","town":"西金池町","town_kana":"ニシカナイケチョウ","prefecture_code":21},"6055":{"zip_code":"5016055","prefecture":"岐阜県","prefecture_kana":"ギフケン","city":"羽島郡笠松町","city_kana":"ハシマグンカサマツチョウ","town":"西町","town_kana":"ニシマチ","prefecture_code":21},"6075":{"zip_code":"5016075","prefecture":"岐阜県","prefecture_kana":"ギフケン","city":"羽島郡笠松町","city_kana":"ハシマグンカサマツチョウ","town":"西宮町","town_kana":"ニシミヤチョウ","prefecture_code":21},"6094":{"zip_code":"5016094","prefecture":"岐阜県","prefecture_kana":"ギフケン","city":"羽島郡笠松町","city_kana":"ハシマグンカサマツチョウ","town":"羽衣町","town_kana":"ハゴロモチョウ","prefecture_code":21},"6042":{"zip_code":"5016042","prefecture":"岐阜県","prefecture_kana":"ギフケン","city":"羽島郡笠松町","city_kana":"ハシマグンカサマツチョウ","town":"八幡町","town_kana":"ハチマンチョウ","prefecture_code":21},"6038":{"zip_code":"5016038","prefecture":"岐阜県","prefecture_kana":"ギフケン","city":"羽島郡笠松町","city_kana":"ハシマグンカサマツチョウ","town":"東金池町","town_kana":"ヒガシカナイケチョウ","prefecture_code":21},"6059":{"zip_code":"5016059","prefecture":"岐阜県","prefecture_kana":"ギフケン","city":"羽島郡笠松町","city_kana":"ハシマグンカサマツチョウ","town":"東宮町","town_kana":"ヒガシミヤチョウ","prefecture_code":21},"6097":{"zip_code":"5016097","prefecture":"岐阜県","prefecture_kana":"ギフケン","city":"羽島郡笠松町","city_kana":"ハシマグンカサマツチョウ","town":"瓢町","town_kana":"ヒサゴチョウ","prefecture_code":21},"6047":{"zip_code":"5016047","prefecture":"岐阜県","prefecture_kana":"ギフケン","city":"羽島郡笠松町","city_kana":"ハシマグンカサマツチョウ","town":"二見町","town_kana":"フタミチョウ","prefecture_code":21},"6088":{"zip_code":"5016088","prefecture":"岐阜県","prefecture_kana":"ギフケン","city":"羽島郡笠松町","city_kana":"ハシマグンカサマツチョウ","town":"美笠通","town_kana":"ミカサドオリ","prefecture_code":21},"6093":{"zip_code":"5016093","prefecture":"岐阜県","prefecture_kana":"ギフケン","city":"羽島郡笠松町","city_kana":"ハシマグンカサマツチョウ","town":"緑町","town_kana":"ミドリマチ","prefecture_code":21},"6053":{"zip_code":"5016053","prefecture":"岐阜県","prefecture_kana":"ギフケン","city":"羽島郡笠松町","city_kana":"ハシマグンカサマツチョウ","town":"港町","town_kana":"ミナトマチ","prefecture_code":21},"6046":{"zip_code":"5016046","prefecture":"岐阜県","prefecture_kana":"ギフケン","city":"羽島郡笠松町","city_kana":"ハシマグンカサマツチョウ","town":"宮川町","town_kana":"ミヤガワチョウ","prefecture_code":21},"6033":{"zip_code":"5016033","prefecture":"岐阜県","prefecture_kana":"ギフケン","city":"羽島郡笠松町","city_kana":"ハシマグンカサマツチョウ","town":"無動寺","town_kana":"ムドウジ","prefecture_code":21},"6076":{"zip_code":"5016076","prefecture":"岐阜県","prefecture_kana":"ギフケン","city":"羽島郡笠松町","city_kana":"ハシマグンカサマツチョウ","town":"門前町","town_kana":"モンゼンチョウ","prefecture_code":21},"6054":{"zip_code":"5016054","prefecture":"岐阜県","prefecture_kana":"ギフケン","city":"羽島郡笠松町","city_kana":"ハシマグンカサマツチョウ","town":"柳原町","town_kana":"ヤナギハラチョウ","prefecture_code":21},"6085":{"zip_code":"5016085","prefecture":"岐阜県","prefecture_kana":"ギフケン","city":"羽島郡笠松町","city_kana":"ハシマグンカサマツチョウ","town":"弥生町","town_kana":"ヤヨイチョウ","prefecture_code":21},"6096":{"zip_code":"5016096","prefecture":"岐阜県","prefecture_kana":"ギフケン","city":"羽島郡笠松町","city_kana":"ハシマグンカサマツチョウ","town":"友楽町","town_kana":"ユウラクチョウ","prefecture_code":21},"6036":{"zip_code":"5016036","prefecture":"岐阜県","prefecture_kana":"ギフケン","city":"羽島郡笠松町","city_kana":"ハシマグンカサマツチョウ","town":"若葉町","town_kana":"ワカバチョウ","prefecture_code":21},"0600":{"zip_code":"5010600","prefecture":"岐阜県","prefecture_kana":"ギフケン","city":"揖斐郡揖斐川町","city_kana":"イビグンイビガワチョウ","town":"","town_kana":"","prefecture_code":21},"0627":{"zip_code":"5010627","prefecture":"岐阜県","prefecture_kana":"ギフケン","city":"揖斐郡揖斐川町","city_kana":"イビグンイビガワチョウ","town":"市場","town_kana":"イチバ","prefecture_code":21},"0634":{"zip_code":"5010634","prefecture":"岐阜県","prefecture_kana":"ギフケン","city":"揖斐郡揖斐川町","city_kana":"イビグンイビガワチョウ","town":"上野","town_kana":"ウエノ","prefecture_code":21},"0624":{"zip_code":"5010624","prefecture":"岐阜県","prefecture_kana":"ギフケン","city":"揖斐郡揖斐川町","city_kana":"イビグンイビガワチョウ","town":"岡","town_kana":"オカ","prefecture_code":21},"0701":{"zip_code":"5010701","prefecture":"岐阜県","prefecture_kana":"ギフケン","city":"揖斐郡揖斐川町","city_kana":"イビグンイビガワチョウ","town":"小津","town_kana":"オヅ","prefecture_code":21},"0703":{"zip_code":"5010703","prefecture":"岐阜県","prefecture_kana":"ギフケン","city":"揖斐郡揖斐川町","city_kana":"イビグンイビガワチョウ","town":"乙原","town_kana":"オトハラ","prefecture_code":21},"0612":{"zip_code":"5010612","prefecture":"岐阜県","prefecture_kana":"ギフケン","city":"揖斐郡揖斐川町","city_kana":"イビグンイビガワチョウ","town":"小野","town_kana":"オノ","prefecture_code":21},"0815":{"zip_code":"5010815","prefecture":"岐阜県","prefecture_kana":"ギフケン","city":"揖斐郡揖斐川町","city_kana":"イビグンイビガワチョウ","town":"開田","town_kana":"カイデン","prefecture_code":21},"0708":{"zip_code":"5010708","prefecture":"岐阜県","prefecture_kana":"ギフケン","city":"揖斐郡揖斐川町","city_kana":"イビグンイビガワチョウ","town":"樫原","town_kana":"カシバラ","prefecture_code":21},"0607":{"zip_code":"5010607","prefecture":"岐阜県","prefecture_kana":"ギフケン","city":"揖斐郡揖斐川町","city_kana":"イビグンイビガワチョウ","town":"桂","town_kana":"カツラ","prefecture_code":21},"0817":{"zip_code":"5010817","prefecture":"岐阜県","prefecture_kana":"ギフケン","city":"揖斐郡揖斐川町","city_kana":"イビグンイビガワチョウ","town":"門入","town_kana":"カドニュウ","prefecture_code":21},"0631":{"zip_code":"5010631","prefecture":"岐阜県","prefecture_kana":"ギフケン","city":"揖斐郡揖斐川町","city_kana":"イビグンイビガワチョウ","town":"上岡島","town_kana":"カミオカジマ","prefecture_code":21},"0618":{"zip_code":"5010618","prefecture":"岐阜県","prefecture_kana":"ギフケン","city":"揖斐郡揖斐川町","city_kana":"イビグンイビガワチョウ","town":"上ミ野","town_kana":"カミノ","prefecture_code":21},"0632":{"zip_code":"5010632","prefecture":"岐阜県","prefecture_kana":"ギフケン","city":"揖斐郡揖斐川町","city_kana":"イビグンイビガワチョウ","town":"上東野","town_kana":"カミヒガシノ","prefecture_code":21},"0603":{"zip_code":"5010603","prefecture":"岐阜県","prefecture_kana":"ギフケン","city":"揖斐郡揖斐川町","city_kana":"イビグンイビガワチョウ","town":"上南方","town_kana":"カミミナミガタ","prefecture_code":21},"0601":{"zip_code":"5010601","prefecture":"岐阜県","prefecture_kana":"ギフケン","city":"揖斐郡揖斐川町","city_kana":"イビグンイビガワチョウ","town":"北方","town_kana":"キタガタ","prefecture_code":21},"0615":{"zip_code":"5010615","prefecture":"岐阜県","prefecture_kana":"ギフケン","city":"揖斐郡揖斐川町","city_kana":"イビグンイビガワチョウ","town":"清水","town_kana":"キヨミズ","prefecture_code":21},"0625":{"zip_code":"5010625","prefecture":"岐阜県","prefecture_kana":"ギフケン","city":"揖斐郡揖斐川町","city_kana":"イビグンイビガワチョウ","town":"黒田","town_kana":"クロダ","prefecture_code":21},"0605":{"zip_code":"5010605","prefecture":"岐阜県","prefecture_kana":"ギフケン","city":"揖斐郡揖斐川町","city_kana":"イビグンイビガワチョウ","town":"極楽寺","town_kana":"ゴクラクジ","prefecture_code":21},"0633":{"zip_code":"5010633","prefecture":"岐阜県","prefecture_kana":"ギフケン","city":"揖斐郡揖斐川町","city_kana":"イビグンイビガワチョウ","town":"小島","town_kana":"コジマ","prefecture_code":21},"0611":{"zip_code":"5010611","prefecture":"岐阜県","prefecture_kana":"ギフケン","city":"揖斐郡揖斐川町","city_kana":"イビグンイビガワチョウ","town":"小谷","town_kana":"コタテ","prefecture_code":21},"0901":{"zip_code":"5010901","prefecture":"岐阜県","prefecture_kana":"ギフケン","city":"揖斐郡揖斐川町","city_kana":"イビグンイビガワチョウ","town":"坂内川上","town_kana":"サカウチカワカミ","prefecture_code":21},"0903":{"zip_code":"5010903","prefecture":"岐阜県","prefecture_kana":"ギフケン","city":"揖斐郡揖斐川町","city_kana":"イビグンイビガワチョウ","town":"坂内坂本","town_kana":"サカウチサカモト","prefecture_code":21},"0902":{"zip_code":"5010902","prefecture":"岐阜県","prefecture_kana":"ギフケン","city":"揖斐郡揖斐川町","city_kana":"イビグンイビガワチョウ","town":"坂内広瀬","town_kana":"サカウチヒロセ","prefecture_code":21},"0613":{"zip_code":"5010613","prefecture":"岐阜県","prefecture_kana":"ギフケン","city":"揖斐郡揖斐川町","city_kana":"イビグンイビガワチョウ","town":"志津山","town_kana":"シヅヤマ","prefecture_code":21},"0617":{"zip_code":"5010617","prefecture":"岐阜県","prefecture_kana":"ギフケン","city":"揖斐郡揖斐川町","city_kana":"イビグンイビガワチョウ","town":"島","town_kana":"シマ","prefecture_code":21},"0621":{"zip_code":"5010621","prefecture":"岐阜県","prefecture_kana":"ギフケン","city":"揖斐郡揖斐川町","city_kana":"イビグンイビガワチョウ","town":"下岡島","town_kana":"シモオカジマ","prefecture_code":21},"0635":{"zip_code":"5010635","prefecture":"岐阜県","prefecture_kana":"ギフケン","city":"揖斐郡揖斐川町","city_kana":"イビグンイビガワチョウ","town":"白樫","town_kana":"シラカシ","prefecture_code":21},"0628":{"zip_code":"5010628","prefecture":"岐阜県","prefecture_kana":"ギフケン","city":"揖斐郡揖斐川町","city_kana":"イビグンイビガワチョウ","town":"新宮","town_kana":"シングウ","prefecture_code":21},"0626":{"zip_code":"5010626","prefecture":"岐阜県","prefecture_kana":"ギフケン","city":"揖斐郡揖斐川町","city_kana":"イビグンイビガワチョウ","town":"瑞岩寺","town_kana":"ズイガンジ","prefecture_code":21},"0604":{"zip_code":"5010604","prefecture":"岐阜県","prefecture_kana":"ギフケン","city":"揖斐郡揖斐川町","city_kana":"イビグンイビガワチョウ","town":"大光寺","town_kana":"ダイコウジ","prefecture_code":21},"1315":{"zip_code":"5011315","prefecture":"岐阜県","prefecture_kana":"ギフケン","city":"揖斐郡揖斐川町","city_kana":"イビグンイビガワチョウ","town":"谷汲有鳥","town_kana":"タニグミアットリ","prefecture_code":21},"1312":{"zip_code":"5011312","prefecture":"岐阜県","prefecture_kana":"ギフケン","city":"揖斐郡揖斐川町","city_kana":"イビグンイビガワチョウ","town":"谷汲大洞","town_kana":"タニグミオオボラ","prefecture_code":21},"1317":{"zip_code":"5011317","prefecture":"岐阜県","prefecture_kana":"ギフケン","city":"揖斐郡揖斐川町","city_kana":"イビグンイビガワチョウ","town":"谷汲神原","town_kana":"タニグミカンバラ","prefecture_code":21},"1316":{"zip_code":"5011316","prefecture":"岐阜県","prefecture_kana":"ギフケン","city":"揖斐郡揖斐川町","city_kana":"イビグンイビガワチョウ","town":"谷汲木曽屋","town_kana":"タニグミキソヤ","prefecture_code":21},"1302":{"zip_code":"5011302","prefecture":"岐阜県","prefecture_kana":"ギフケン","city":"揖斐郡揖斐川町","city_kana":"イビグンイビガワチョウ","town":"谷汲岐礼","town_kana":"タニグミキレ","prefecture_code":21},"1301":{"zip_code":"5011301","prefecture":"岐阜県","prefecture_kana":"ギフケン","city":"揖斐郡揖斐川町","city_kana":"イビグンイビガワチョウ","town":"谷汲高科","town_kana":"タニグミタカシナ","prefecture_code":21},"1311":{"zip_code":"5011311","prefecture":"岐阜県","prefecture_kana":"ギフケン","city":"揖斐郡揖斐川町","city_kana":"イビグンイビガワチョウ","town":"谷汲徳積","town_kana":"タニグミトクヅミ","prefecture_code":21},"1303":{"zip_code":"5011303","prefecture":"岐阜県","prefecture_kana":"ギフケン","city":"揖斐郡揖斐川町","city_kana":"イビグンイビガワチョウ","town":"谷汲長瀬","town_kana":"タニグミナガセ","prefecture_code":21},"1314":{"zip_code":"5011314","prefecture":"岐阜県","prefecture_kana":"ギフケン","city":"揖斐郡揖斐川町","city_kana":"イビグンイビガワチョウ","town":"谷汲名礼","town_kana":"タニグミナレ","prefecture_code":21},"1313":{"zip_code":"5011313","prefecture":"岐阜県","prefecture_kana":"ギフケン","city":"揖斐郡揖斐川町","city_kana":"イビグンイビガワチョウ","town":"谷汲深坂","town_kana":"タニグミフカサカ","prefecture_code":21},"0811":{"zip_code":"5010811","prefecture":"岐阜県","prefecture_kana":"ギフケン","city":"揖斐郡揖斐川町","city_kana":"イビグンイビガワチョウ","town":"塚","town_kana":"ツカ","prefecture_code":21},"0802":{"zip_code":"5010802","prefecture":"岐阜県","prefecture_kana":"ギフケン","city":"揖斐郡揖斐川町","city_kana":"イビグンイビガワチョウ","town":"鶴見","town_kana":"ツルミ","prefecture_code":21},"0814":{"zip_code":"5010814","prefecture":"岐阜県","prefecture_kana":"ギフケン","city":"揖斐郡揖斐川町","city_kana":"イビグンイビガワチョウ","town":"徳山","town_kana":"トクヤマ","prefecture_code":21},"0705":{"zip_code":"5010705","prefecture":"岐阜県","prefecture_kana":"ギフケン","city":"揖斐郡揖斐川町","city_kana":"イビグンイビガワチョウ","town":"外津汲","town_kana":"トツクミ","prefecture_code":21},"0816":{"zip_code":"5010816","prefecture":"岐阜県","prefecture_kana":"ギフケン","city":"揖斐郡揖斐川町","city_kana":"イビグンイビガワチョウ","town":"戸入","town_kana":"トニュウ","prefecture_code":21},"0614":{"zip_code":"5010614","prefecture":"岐阜県","prefecture_kana":"ギフケン","city":"揖斐郡揖斐川町","city_kana":"イビグンイビガワチョウ","town":"長良","town_kana":"ナガラ","prefecture_code":21},"0706":{"zip_code":"5010706","prefecture":"岐阜県","prefecture_kana":"ギフケン","city":"揖斐郡揖斐川町","city_kana":"イビグンイビガワチョウ","town":"西津汲","town_kana":"ニシツクミ","prefecture_code":21},"0805":{"zip_code":"5010805","prefecture":"岐阜県","prefecture_kana":"ギフケン","city":"揖斐郡揖斐川町","city_kana":"イビグンイビガワチョウ","town":"西横山","town_kana":"ニシヨコヤマ","prefecture_code":21},"0622":{"zip_code":"5010622","prefecture":"岐阜県","prefecture_kana":"ギフケン","city":"揖斐郡揖斐川町","city_kana":"イビグンイビガワチョウ","town":"脛永","town_kana":"ハギナガ","prefecture_code":21},"0812":{"zip_code":"5010812","prefecture":"岐阜県","prefecture_kana":"ギフケン","city":"揖斐郡揖斐川町","city_kana":"イビグンイビガワチョウ","town":"櫨原","town_kana":"ハゼハラ","prefecture_code":21},"0803":{"zip_code":"5010803","prefecture":"岐阜県","prefecture_kana":"ギフケン","city":"揖斐郡揖斐川町","city_kana":"イビグンイビガワチョウ","town":"東杉原","town_kana":"ヒガシスギハラ","prefecture_code":21},"0702":{"zip_code":"5010702","prefecture":"岐阜県","prefecture_kana":"ギフケン","city":"揖斐郡揖斐川町","city_kana":"イビグンイビガワチョウ","town":"東津汲","town_kana":"ヒガシツクミ","prefecture_code":21},"0804":{"zip_code":"5010804","prefecture":"岐阜県","prefecture_kana":"ギフケン","city":"揖斐郡揖斐川町","city_kana":"イビグンイビガワチョウ","town":"東横山","town_kana":"ヒガシヨコヤマ","prefecture_code":21},"0707":{"zip_code":"5010707","prefecture":"岐阜県","prefecture_kana":"ギフケン","city":"揖斐郡揖斐川町","city_kana":"イビグンイビガワチョウ","town":"日坂","town_kana":"ヒサカ","prefecture_code":21},"0616":{"zip_code":"5010616","prefecture":"岐阜県","prefecture_kana":"ギフケン","city":"揖斐郡揖斐川町","city_kana":"イビグンイビガワチョウ","town":"福島","town_kana":"フクジマ","prefecture_code":21},"0606":{"zip_code":"5010606","prefecture":"岐阜県","prefecture_kana":"ギフケン","city":"揖斐郡揖斐川町","city_kana":"イビグンイビガワチョウ","town":"房島","town_kana":"ボウジマ","prefecture_code":21},"0704":{"zip_code":"5010704","prefecture":"岐阜県","prefecture_kana":"ギフケン","city":"揖斐郡揖斐川町","city_kana":"イビグンイビガワチョウ","town":"三倉","town_kana":"ミクラ","prefecture_code":21},"0619":{"zip_code":"5010619","prefecture":"岐阜県","prefecture_kana":"ギフケン","city":"揖斐郡揖斐川町","city_kana":"イビグンイビガワチョウ","town":"三輪","town_kana":"ミワ","prefecture_code":21},"0813":{"zip_code":"5010813","prefecture":"岐阜県","prefecture_kana":"ギフケン","city":"揖斐郡揖斐川町","city_kana":"イビグンイビガワチョウ","town":"山手","town_kana":"ヤマテ","prefecture_code":21},"0602":{"zip_code":"5010602","prefecture":"岐阜県","prefecture_kana":"ギフケン","city":"揖斐郡揖斐川町","city_kana":"イビグンイビガワチョウ","town":"若松","town_kana":"ワカマツ","prefecture_code":21},"0623":{"zip_code":"5010623","prefecture":"岐阜県","prefecture_kana":"ギフケン","city":"揖斐郡揖斐川町","city_kana":"イビグンイビガワチョウ","town":"和田","town_kana":"ワダ","prefecture_code":21},"0500":{"zip_code":"5010500","prefecture":"岐阜県","prefecture_kana":"ギフケン","city":"揖斐郡大野町","city_kana":"イビグンオオノチョウ","town":"","town_kana":"","prefecture_code":21},"0522":{"zip_code":"5010522","prefecture":"岐阜県","prefecture_kana":"ギフケン","city":"揖斐郡大野町","city_kana":"イビグンオオノチョウ","town":"相羽","town_kana":"アイバ","prefecture_code":21},"0564":{"zip_code":"5010564","prefecture":"岐阜県","prefecture_kana":"ギフケン","city":"揖斐郡大野町","city_kana":"イビグンオオノチョウ","town":"麻生","town_kana":"アソウ","prefecture_code":21},"0501":{"zip_code":"5010501","prefecture":"岐阜県","prefecture_kana":"ギフケン","city":"揖斐郡大野町","city_kana":"イビグンオオノチョウ","town":"稲富","town_kana":"イナドミ","prefecture_code":21},"0511":{"zip_code":"5010511","prefecture":"岐阜県","prefecture_kana":"ギフケン","city":"揖斐郡大野町","city_kana":"イビグンオオノチョウ","town":"稲畑","town_kana":"イナバタ","prefecture_code":21},"0561":{"zip_code":"5010561","prefecture":"岐阜県","prefecture_kana":"ギフケン","city":"揖斐郡大野町","city_kana":"イビグンオオノチョウ","town":"牛洞","town_kana":"ウシボラ","prefecture_code":21},"0552":{"zip_code":"5010552","prefecture":"岐阜県","prefecture_kana":"ギフケン","city":"揖斐郡大野町","city_kana":"イビグンオオノチョウ","town":"大衣斐","town_kana":"オオエビ","prefecture_code":21},"0513":{"zip_code":"5010513","prefecture":"岐阜県","prefecture_kana":"ギフケン","city":"揖斐郡大野町","city_kana":"イビグンオオノチョウ","town":"大野","town_kana":"オオノ","prefecture_code":21},"0535":{"zip_code":"5010535","prefecture":"岐阜県","prefecture_kana":"ギフケン","city":"揖斐郡大野町","city_kana":"イビグンオオノチョウ","town":"加納","town_kana":"カノウ","prefecture_code":21},"0531":{"zip_code":"5010531","prefecture":"岐阜県","prefecture_kana":"ギフケン","city":"揖斐郡大野町","city_kana":"イビグンオオノチョウ","town":"上磯","town_kana":"カミイソ","prefecture_code":21},"0512":{"zip_code":"5010512","prefecture":"岐阜県","prefecture_kana":"ギフケン","city":"揖斐郡大野町","city_kana":"イビグンオオノチョウ","town":"上秋","town_kana":"カンダケ","prefecture_code":21},"0524":{"zip_code":"5010524","prefecture":"岐阜県","prefecture_kana":"ギフケン","city":"揖斐郡大野町","city_kana":"イビグンオオノチョウ","town":"郡家","town_kana":"グゲ","prefecture_code":21},"0555":{"zip_code":"5010555","prefecture":"岐阜県","prefecture_kana":"ギフケン","city":"揖斐郡大野町","city_kana":"イビグンオオノチョウ","town":"公郷","town_kana":"クゴウ","prefecture_code":21},"0521":{"zip_code":"5010521","prefecture":"岐阜県","prefecture_kana":"ギフケン","city":"揖斐郡大野町","city_kana":"イビグンオオノチョウ","town":"黒野","town_kana":"クロノ","prefecture_code":21},"0551":{"zip_code":"5010551","prefecture":"岐阜県","prefecture_kana":"ギフケン","city":"揖斐郡大野町","city_kana":"イビグンオオノチョウ","town":"小衣斐","town_kana":"コエビ","prefecture_code":21},"0554":{"zip_code":"5010554","prefecture":"岐阜県","prefecture_kana":"ギフケン","city":"揖斐郡大野町","city_kana":"イビグンオオノチョウ","town":"五之里","town_kana":"ゴノリ","prefecture_code":21},"0515":{"zip_code":"5010515","prefecture":"岐阜県","prefecture_kana":"ギフケン","city":"揖斐郡大野町","city_kana":"イビグンオオノチョウ","town":"桜大門","town_kana":"サクラダイモン","prefecture_code":21},"0503":{"zip_code":"5010503","prefecture":"岐阜県","prefecture_kana":"ギフケン","city":"揖斐郡大野町","city_kana":"イビグンオオノチョウ","town":"寺内","town_kana":"ジナイ","prefecture_code":21},"0532":{"zip_code":"5010532","prefecture":"岐阜県","prefecture_kana":"ギフケン","city":"揖斐郡大野町","city_kana":"イビグンオオノチョウ","town":"下磯","town_kana":"シモイソ","prefecture_code":21},"0523":{"zip_code":"5010523","prefecture":"岐阜県","prefecture_kana":"ギフケン","city":"揖斐郡大野町","city_kana":"イビグンオオノチョウ","town":"下方","town_kana":"シモガタ","prefecture_code":21},"0534":{"zip_code":"5010534","prefecture":"岐阜県","prefecture_kana":"ギフケン","city":"揖斐郡大野町","city_kana":"イビグンオオノチョウ","town":"下座倉","town_kana":"シモザグラ","prefecture_code":21},"0563":{"zip_code":"5010563","prefecture":"岐阜県","prefecture_kana":"ギフケン","city":"揖斐郡大野町","city_kana":"イビグンオオノチョウ","town":"瀬古","town_kana":"セコ","prefecture_code":21},"0565":{"zip_code":"5010565","prefecture":"岐阜県","prefecture_kana":"ギフケン","city":"揖斐郡大野町","city_kana":"イビグンオオノチョウ","town":"中之元","town_kana":"ナカノモト","prefecture_code":21},"0514":{"zip_code":"5010514","prefecture":"岐阜県","prefecture_kana":"ギフケン","city":"揖斐郡大野町","city_kana":"イビグンオオノチョウ","town":"西方","town_kana":"ニシガタ","prefecture_code":21},"0504":{"zip_code":"5010504","prefecture":"岐阜県","prefecture_kana":"ギフケン","city":"揖斐郡大野町","city_kana":"イビグンオオノチョウ","town":"野","town_kana":"ノ","prefecture_code":21},"0502":{"zip_code":"5010502","prefecture":"岐阜県","prefecture_kana":"ギフケン","city":"揖斐郡大野町","city_kana":"イビグンオオノチョウ","town":"古川","town_kana":"フルカワ","prefecture_code":21},"0533":{"zip_code":"5010533","prefecture":"岐阜県","prefecture_kana":"ギフケン","city":"揖斐郡大野町","city_kana":"イビグンオオノチョウ","town":"本庄","town_kana":"ホンジョウ","prefecture_code":21},"0562":{"zip_code":"5010562","prefecture":"岐阜県","prefecture_kana":"ギフケン","city":"揖斐郡大野町","city_kana":"イビグンオオノチョウ","town":"松山","town_kana":"マツヤマ","prefecture_code":21},"0553":{"zip_code":"5010553","prefecture":"岐阜県","prefecture_kana":"ギフケン","city":"揖斐郡大野町","city_kana":"イビグンオオノチョウ","town":"南方","town_kana":"ミナミガタ","prefecture_code":21},"0556":{"zip_code":"5010556","prefecture":"岐阜県","prefecture_kana":"ギフケン","city":"揖斐郡大野町","city_kana":"イビグンオオノチョウ","town":"領家","town_kana":"リョウケ","prefecture_code":21},"0525":{"zip_code":"5010525","prefecture":"岐阜県","prefecture_kana":"ギフケン","city":"揖斐郡大野町","city_kana":"イビグンオオノチョウ","town":"六里","town_kana":"ロクリ","prefecture_code":21},"0424":{"zip_code":"5010424","prefecture":"岐阜県","prefecture_kana":"ギフケン","city":"本巣郡北方町","city_kana":"モトスグンキタガタチョウ","town":"朝日町","town_kana":"アサヒマチ","prefecture_code":21},"0432":{"zip_code":"5010432","prefecture":"岐阜県","prefecture_kana":"ギフケン","city":"本巣郡北方町","city_kana":"モトスグンキタガタチョウ","town":"一本松","town_kana":"イッポンマツ","prefecture_code":21},"0425":{"zip_code":"5010425","prefecture":"岐阜県","prefecture_kana":"ギフケン","city":"本巣郡北方町","city_kana":"モトスグンキタガタチョウ","town":"若宮","town_kana":"ワカミヤ","prefecture_code":21},"0431":{"zip_code":"5010431","prefecture":"岐阜県","prefecture_kana":"ギフケン","city":"本巣郡北方町","city_kana":"モトスグンキタガタチョウ","town":"北方","town_kana":"キタガタ","prefecture_code":21},"0434":{"zip_code":"5010434","prefecture":"岐阜県","prefecture_kana":"ギフケン","city":"本巣郡北方町","city_kana":"モトスグンキタガタチョウ","town":"小柳","town_kana":"コヤナギ","prefecture_code":21},"0422":{"zip_code":"5010422","prefecture":"岐阜県","prefecture_kana":"ギフケン","city":"本巣郡北方町","city_kana":"モトスグンキタガタチョウ","town":"芝原中町","town_kana":"シバハラナカマチ","prefecture_code":21},"0423":{"zip_code":"5010423","prefecture":"岐阜県","prefecture_kana":"ギフケン","city":"本巣郡北方町","city_kana":"モトスグンキタガタチョウ","town":"芝原東町","town_kana":"シバハラヒガシマチ","prefecture_code":21},"0421":{"zip_code":"5010421","prefecture":"岐阜県","prefecture_kana":"ギフケン","city":"本巣郡北方町","city_kana":"モトスグンキタガタチョウ","town":"芝原西町","town_kana":"シバハラニシマチ","prefecture_code":21},"0437":{"zip_code":"5010437","prefecture":"岐阜県","prefecture_kana":"ギフケン","city":"本巣郡北方町","city_kana":"モトスグンキタガタチョウ","town":"清水","town_kana":"シミズ","prefecture_code":21},"0441":{"zip_code":"5010441","prefecture":"岐阜県","prefecture_kana":"ギフケン","city":"本巣郡北方町","city_kana":"モトスグンキタガタチョウ","town":"曲路","town_kana":"スジカイ","prefecture_code":21},"0442":{"zip_code":"5010442","prefecture":"岐阜県","prefecture_kana":"ギフケン","city":"本巣郡北方町","city_kana":"モトスグンキタガタチョウ","town":"曲路東","town_kana":"スジカイヒガシ","prefecture_code":21},"0458":{"zip_code":"5010458","prefecture":"岐阜県","prefecture_kana":"ギフケン","city":"本巣郡北方町","city_kana":"モトスグンキタガタチョウ","town":"高屋","town_kana":"タカヤ","prefecture_code":21},"0452":{"zip_code":"5010452","prefecture":"岐阜県","prefecture_kana":"ギフケン","city":"本巣郡北方町","city_kana":"モトスグンキタガタチョウ","town":"高屋石末","town_kana":"タカヤイシズエ","prefecture_code":21},"0455":{"zip_code":"5010455","prefecture":"岐阜県","prefecture_kana":"ギフケン","city":"本巣郡北方町","city_kana":"モトスグンキタガタチョウ","town":"高屋伊勢田","town_kana":"タカヤイセデン","prefecture_code":21},"0454":{"zip_code":"5010454","prefecture":"岐阜県","prefecture_kana":"ギフケン","city":"本巣郡北方町","city_kana":"モトスグンキタガタチョウ","town":"高屋白木","town_kana":"タカヤシラキ","prefecture_code":21},"0456":{"zip_code":"5010456","prefecture":"岐阜県","prefecture_kana":"ギフケン","city":"本巣郡北方町","city_kana":"モトスグンキタガタチョウ","town":"高屋条里","town_kana":"タカヤジョウリ","prefecture_code":21},"0457":{"zip_code":"5010457","prefecture":"岐阜県","prefecture_kana":"ギフケン","city":"本巣郡北方町","city_kana":"モトスグンキタガタチョウ","town":"高屋太子","town_kana":"タカヤタイシ","prefecture_code":21},"0451":{"zip_code":"5010451","prefecture":"岐阜県","prefecture_kana":"ギフケン","city":"本巣郡北方町","city_kana":"モトスグンキタガタチョウ","town":"高屋勅使","town_kana":"タカヤチョクシ","prefecture_code":21},"0453":{"zip_code":"5010453","prefecture":"岐阜県","prefecture_kana":"ギフケン","city":"本巣郡北方町","city_kana":"モトスグンキタガタチョウ","town":"高屋分木","town_kana":"タカヤブンギ","prefecture_code":21},"0433":{"zip_code":"5010433","prefecture":"岐阜県","prefecture_kana":"ギフケン","city":"本巣郡北方町","city_kana":"モトスグンキタガタチョウ","town":"天狗堂","town_kana":"テングドウ","prefecture_code":21},"0446":{"zip_code":"5010446","prefecture":"岐阜県","prefecture_kana":"ギフケン","city":"本巣郡北方町","city_kana":"モトスグンキタガタチョウ","town":"柱本","town_kana":"ハシラモト","prefecture_code":21},"0443":{"zip_code":"5010443","prefecture":"岐阜県","prefecture_kana":"ギフケン","city":"本巣郡北方町","city_kana":"モトスグンキタガタチョウ","town":"柱本池之頭","town_kana":"ハシラモトイケノガシラ","prefecture_code":21},"0444":{"zip_code":"5010444","prefecture":"岐阜県","prefecture_kana":"ギフケン","city":"本巣郡北方町","city_kana":"モトスグンキタガタチョウ","town":"柱本白坪","town_kana":"ハシラモトシラツボ","prefecture_code":21},"0445":{"zip_code":"5010445","prefecture":"岐阜県","prefecture_kana":"ギフケン","city":"本巣郡北方町","city_kana":"モトスグンキタガタチョウ","town":"柱本南","town_kana":"ハシラモトミナミ","prefecture_code":21},"0436":{"zip_code":"5010436","prefecture":"岐阜県","prefecture_kana":"ギフケン","city":"本巣郡北方町","city_kana":"モトスグンキタガタチョウ","town":"長谷川西","town_kana":"ハセガワニシ","prefecture_code":21},"0435":{"zip_code":"5010435","prefecture":"岐阜県","prefecture_kana":"ギフケン","city":"本巣郡北方町","city_kana":"モトスグンキタガタチョウ","town":"春来町","town_kana":"ハルキマチ","prefecture_code":21},"0438":{"zip_code":"5010438","prefecture":"岐阜県","prefecture_kana":"ギフケン","city":"本巣郡北方町","city_kana":"モトスグンキタガタチョウ","town":"平成","town_kana":"ヘイセイ","prefecture_code":21},"3300":{"zip_code":"5013300","prefecture":"岐阜県","prefecture_kana":"ギフケン","city":"加茂郡富加町","city_kana":"カモグントミカチョウ","town":"","town_kana":"","prefecture_code":21},"3307":{"zip_code":"5013307","prefecture":"岐阜県","prefecture_kana":"ギフケン","city":"加茂郡富加町","city_kana":"カモグントミカチョウ","town":"大平賀","town_kana":"オオヒラガ","prefecture_code":21},"3306":{"zip_code":"5013306","prefecture":"岐阜県","prefecture_kana":"ギフケン","city":"加茂郡富加町","city_kana":"カモグントミカチョウ","town":"大山","town_kana":"オオヤマ","prefecture_code":21},"3301":{"zip_code":"5013301","prefecture":"岐阜県","prefecture_kana":"ギフケン","city":"加茂郡富加町","city_kana":"カモグントミカチョウ","town":"加治田","town_kana":"カジタ","prefecture_code":21},"3304":{"zip_code":"5013304","prefecture":"岐阜県","prefecture_kana":"ギフケン","city":"加茂郡富加町","city_kana":"カモグントミカチョウ","town":"高畑","town_kana":"タカハタ","prefecture_code":21},"3305":{"zip_code":"5013305","prefecture":"岐阜県","prefecture_kana":"ギフケン","city":"加茂郡富加町","city_kana":"カモグントミカチョウ","town":"滝田","town_kana":"タキダ","prefecture_code":21},"3303":{"zip_code":"5013303","prefecture":"岐阜県","prefecture_kana":"ギフケン","city":"加茂郡富加町","city_kana":"カモグントミカチョウ","town":"羽生","town_kana":"ハニュウ","prefecture_code":21},"3302":{"zip_code":"5013302","prefecture":"岐阜県","prefecture_kana":"ギフケン","city":"加茂郡富加町","city_kana":"カモグントミカチョウ","town":"夕田","town_kana":"ユウダ","prefecture_code":21},"5600":{"zip_code":"5015600","prefecture":"岐阜県","prefecture_kana":"ギフケン","city":"大野郡白川村","city_kana":"オオノグンシラカワムラ","town":"","town_kana":"","prefecture_code":21},"5622":{"zip_code":"5015622","prefecture":"岐阜県","prefecture_kana":"ギフケン","city":"大野郡白川村","city_kana":"オオノグンシラカワムラ","town":"芦倉","town_kana":"アシクラ","prefecture_code":21},"5625":{"zip_code":"5015625","prefecture":"岐阜県","prefecture_kana":"ギフケン","city":"大野郡白川村","city_kana":"オオノグンシラカワムラ","town":"飯島","town_kana":"イイシマ","prefecture_code":21},"5624":{"zip_code":"5015624","prefecture":"岐阜県","prefecture_kana":"ギフケン","city":"大野郡白川村","city_kana":"オオノグンシラカワムラ","town":"有家ケ原","town_kana":"ウケガハラ","prefecture_code":21},"5628":{"zip_code":"5015628","prefecture":"岐阜県","prefecture_kana":"ギフケン","city":"大野郡白川村","city_kana":"オオノグンシラカワムラ","town":"大牧","town_kana":"オオマキ","prefecture_code":21},"5627":{"zip_code":"5015627","prefecture":"岐阜県","prefecture_kana":"ギフケン","city":"大野郡白川村","city_kana":"オオノグンシラカワムラ","town":"荻町","town_kana":"オギマチ","prefecture_code":21},"5502":{"zip_code":"5015502","prefecture":"岐阜県","prefecture_kana":"ギフケン","city":"大野郡白川村","city_kana":"オオノグンシラカワムラ","town":"木谷","town_kana":"キダニ","prefecture_code":21},"5621":{"zip_code":"5015621","prefecture":"岐阜県","prefecture_kana":"ギフケン","city":"大野郡白川村","city_kana":"オオノグンシラカワムラ","town":"小白川","town_kana":"コジラカワ","prefecture_code":21},"5626":{"zip_code":"5015626","prefecture":"岐阜県","prefecture_kana":"ギフケン","city":"大野郡白川村","city_kana":"オオノグンシラカワムラ","town":"島","town_kana":"シマ","prefecture_code":21},"5623":{"zip_code":"5015623","prefecture":"岐阜県","prefecture_kana":"ギフケン","city":"大野郡白川村","city_kana":"オオノグンシラカワムラ","town":"椿原","town_kana":"ツバキハラ","prefecture_code":21},"5503":{"zip_code":"5015503","prefecture":"岐阜県","prefecture_kana":"ギフケン","city":"大野郡白川村","city_kana":"オオノグンシラカワムラ","town":"長瀬","town_kana":"ナガセ","prefecture_code":21},"5629":{"zip_code":"5015629","prefecture":"岐阜県","prefecture_kana":"ギフケン","city":"大野郡白川村","city_kana":"オオノグンシラカワムラ","town":"鳩谷","town_kana":"ハトガヤ","prefecture_code":21},"5507":{"zip_code":"5015507","prefecture":"岐阜県","prefecture_kana":"ギフケン","city":"大野郡白川村","city_kana":"オオノグンシラカワムラ","town":"平瀬","town_kana":"ヒラセ","prefecture_code":21},"5504":{"zip_code":"5015504","prefecture":"岐阜県","prefecture_kana":"ギフケン","city":"大野郡白川村","city_kana":"オオノグンシラカワムラ","town":"福島","town_kana":"フクシマ","prefecture_code":21},"5501":{"zip_code":"5015501","prefecture":"岐阜県","prefecture_kana":"ギフケン","city":"大野郡白川村","city_kana":"オオノグンシラカワムラ","town":"保木脇","town_kana":"ホキワキ","prefecture_code":21},"5620":{"zip_code":"5015620","prefecture":"岐阜県","prefecture_kana":"ギフケン","city":"大野郡白川村","city_kana":"オオノグンシラカワムラ","town":"馬狩","town_kana":"マガリ","prefecture_code":21},"5505":{"zip_code":"5015505","prefecture":"岐阜県","prefecture_kana":"ギフケン","city":"大野郡白川村","city_kana":"オオノグンシラカワムラ","town":"牧","town_kana":"マキ","prefecture_code":21},"5506":{"zip_code":"5015506","prefecture":"岐阜県","prefecture_kana":"ギフケン","city":"大野郡白川村","city_kana":"オオノグンシラカワムラ","town":"御母衣","town_kana":"ミボロ","prefecture_code":21}}