{"0000":{"zip_code":"5030000","prefecture":"岐阜県","prefecture_kana":"ギフケン","city":"大垣市","city_kana":"オオガキシ","town":"","town_kana":"","prefecture_code":21},"2202":{"zip_code":"5032202","prefecture":"岐阜県","prefecture_kana":"ギフケン","city":"大垣市","city_kana":"オオガキシ","town":"青木町","town_kana":"アオキチョウ","prefecture_code":21},"2227":{"zip_code":"5032227","prefecture":"岐阜県","prefecture_kana":"ギフケン","city":"大垣市","city_kana":"オオガキシ","town":"青野町","town_kana":"アオノチョウ","prefecture_code":21},"2221":{"zip_code":"5032221","prefecture":"岐阜県","prefecture_kana":"ギフケン","city":"大垣市","city_kana":"オオガキシ","town":"青墓町","town_kana":"アオハカチョウ","prefecture_code":21},"0961":{"zip_code":"5030961","prefecture":"岐阜県","prefecture_kana":"ギフケン","city":"大垣市","city_kana":"オオガキシ","town":"青柳町","town_kana":"アオヤナギチョウ","prefecture_code":21},"2214":{"zip_code":"5032214","prefecture":"岐阜県","prefecture_kana":"ギフケン","city":"大垣市","city_kana":"オオガキシ","town":"赤坂新田","town_kana":"アカサカシンデン","prefecture_code":21},"2206":{"zip_code":"5032206","prefecture":"岐阜県","prefecture_kana":"ギフケン","city":"大垣市","city_kana":"オオガキシ","town":"赤坂新町","town_kana":"アカサカシンマチ","prefecture_code":21},"2215":{"zip_code":"5032215","prefecture":"岐阜県","prefecture_kana":"ギフケン","city":"大垣市","city_kana":"オオガキシ","town":"赤坂大門","town_kana":"アカサカダイモン","prefecture_code":21},"2212":{"zip_code":"5032212","prefecture":"岐阜県","prefecture_kana":"ギフケン","city":"大垣市","city_kana":"オオガキシ","town":"赤坂東町","town_kana":"アカサカヒガシマチ","prefecture_code":21},"2213":{"zip_code":"5032213","prefecture":"岐阜県","prefecture_kana":"ギフケン","city":"大垣市","city_kana":"オオガキシ","town":"赤坂町","town_kana":"アカサカチョウ","prefecture_code":21},"0013":{"zip_code":"5030013","prefecture":"岐阜県","prefecture_kana":"ギフケン","city":"大垣市","city_kana":"オオガキシ","town":"赤花町","town_kana":"アカバナチョウ","prefecture_code":21},"0947":{"zip_code":"5030947","prefecture":"岐阜県","prefecture_kana":"ギフケン","city":"大垣市","city_kana":"オオガキシ","town":"浅草","town_kana":"アサクサ","prefecture_code":21},"0946":{"zip_code":"5030946","prefecture":"岐阜県","prefecture_kana":"ギフケン","city":"大垣市","city_kana":"オオガキシ","town":"浅中","town_kana":"アサナカ","prefecture_code":21},"0824":{"zip_code":"5030824","prefecture":"岐阜県","prefecture_kana":"ギフケン","city":"大垣市","city_kana":"オオガキシ","town":"旭町","town_kana":"アサヒマチ","prefecture_code":21},"0945":{"zip_code":"5030945","prefecture":"岐阜県","prefecture_kana":"ギフケン","city":"大垣市","city_kana":"オオガキシ","town":"浅西","town_kana":"アサニシ","prefecture_code":21},"0802":{"zip_code":"5030802","prefecture":"岐阜県","prefecture_kana":"ギフケン","city":"大垣市","city_kana":"オオガキシ","town":"東町","town_kana":"アズマチョウ","prefecture_code":21},"0984":{"zip_code":"5030984","prefecture":"岐阜県","prefecture_kana":"ギフケン","city":"大垣市","city_kana":"オオガキシ","town":"綾野","town_kana":"アヤノ","prefecture_code":21},"0994":{"zip_code":"5030994","prefecture":"岐阜県","prefecture_kana":"ギフケン","city":"大垣市","city_kana":"オオガキシ","town":"綾野町","town_kana":"アヤノチョウ","prefecture_code":21},"0035":{"zip_code":"5030035","prefecture":"岐阜県","prefecture_kana":"ギフケン","city":"大垣市","city_kana":"オオガキシ","town":"荒尾玉池","town_kana":"アラオタマイケ","prefecture_code":21},"0034":{"zip_code":"5030034","prefecture":"岐阜県","prefecture_kana":"ギフケン","city":"大垣市","city_kana":"オオガキシ","town":"荒尾町","town_kana":"アラオチョウ","prefecture_code":21},"0993":{"zip_code":"5030993","prefecture":"岐阜県","prefecture_kana":"ギフケン","city":"大垣市","city_kana":"オオガキシ","town":"荒川町","town_kana":"アラカワチョウ","prefecture_code":21},"2204":{"zip_code":"5032204","prefecture":"岐阜県","prefecture_kana":"ギフケン","city":"大垣市","city_kana":"オオガキシ","town":"池尻町","town_kana":"イケジリチョウ","prefecture_code":21},"2224":{"zip_code":"5032224","prefecture":"岐阜県","prefecture_kana":"ギフケン","city":"大垣市","city_kana":"オオガキシ","town":"稲葉東","town_kana":"イナバヒガシ","prefecture_code":21},"2225":{"zip_code":"5032225","prefecture":"岐阜県","prefecture_kana":"ギフケン","city":"大垣市","city_kana":"オオガキシ","town":"稲葉西","town_kana":"イナバニシ","prefecture_code":21},"2226":{"zip_code":"5032226","prefecture":"岐阜県","prefecture_kana":"ギフケン","city":"大垣市","city_kana":"オオガキシ","town":"稲葉北","town_kana":"イナバキタ","prefecture_code":21},"0834":{"zip_code":"5030834","prefecture":"岐阜県","prefecture_kana":"ギフケン","city":"大垣市","city_kana":"オオガキシ","town":"犬ケ渕町","town_kana":"イヌガブチチョウ","prefecture_code":21},"0874":{"zip_code":"5030874","prefecture":"岐阜県","prefecture_kana":"ギフケン","city":"大垣市","city_kana":"オオガキシ","town":"今岡町","town_kana":"イマオカチョウ","prefecture_code":21},"0807":{"zip_code":"5030807","prefecture":"岐阜県","prefecture_kana":"ギフケン","city":"大垣市","city_kana":"オオガキシ","town":"今宿","town_kana":"イマジュク","prefecture_code":21},"0843":{"zip_code":"5030843","prefecture":"岐阜県","prefecture_kana":"ギフケン","city":"大垣市","city_kana":"オオガキシ","town":"今福町","town_kana":"イマフクチョウ","prefecture_code":21},"0924":{"zip_code":"5030924","prefecture":"岐阜県","prefecture_kana":"ギフケン","city":"大垣市","city_kana":"オオガキシ","town":"今町","town_kana":"イママチ","prefecture_code":21},"0962":{"zip_code":"5030962","prefecture":"岐阜県","prefecture_kana":"ギフケン","city":"大垣市","city_kana":"オオガキシ","town":"入方","town_kana":"イリカタ","prefecture_code":21},"0871":{"zip_code":"5030871","prefecture":"岐阜県","prefecture_kana":"ギフケン","city":"大垣市","city_kana":"オオガキシ","town":"魚屋町","town_kana":"ウオヤチョウ","prefecture_code":21},"0936":{"zip_code":"5030936","prefecture":"岐阜県","prefecture_kana":"ギフケン","city":"大垣市","city_kana":"オオガキシ","town":"内原","town_kana":"ウチワラ","prefecture_code":21},"0842":{"zip_code":"5030842","prefecture":"岐阜県","prefecture_kana":"ギフケン","city":"大垣市","city_kana":"オオガキシ","town":"馬の瀬町","town_kana":"ウマノセチョウ","prefecture_code":21},"0838":{"zip_code":"5030838","prefecture":"岐阜県","prefecture_kana":"ギフケン","city":"大垣市","city_kana":"オオガキシ","town":"江崎町","town_kana":"エザキチョウ","prefecture_code":21},"2207":{"zip_code":"5032207","prefecture":"岐阜県","prefecture_kana":"ギフケン","city":"大垣市","city_kana":"オオガキシ","town":"枝郷","town_kana":"エダゴウ","prefecture_code":21},"0828":{"zip_code":"5030828","prefecture":"岐阜県","prefecture_kana":"ギフケン","city":"大垣市","city_kana":"オオガキシ","town":"恵比寿町","town_kana":"エビスチョウ","prefecture_code":21},"0827":{"zip_code":"5030827","prefecture":"岐阜県","prefecture_kana":"ギフケン","city":"大垣市","city_kana":"オオガキシ","town":"恵比寿町南","town_kana":"エビスチョウミナミ","prefecture_code":21},"0826":{"zip_code":"5030826","prefecture":"岐阜県","prefecture_kana":"ギフケン","city":"大垣市","city_kana":"オオガキシ","town":"恵比寿町北","town_kana":"エビスチョウキタ","prefecture_code":21},"0836":{"zip_code":"5030836","prefecture":"岐阜県","prefecture_kana":"ギフケン","city":"大垣市","city_kana":"オオガキシ","town":"大井","town_kana":"オオイ","prefecture_code":21},"0863":{"zip_code":"5030863","prefecture":"岐阜県","prefecture_kana":"ギフケン","city":"大垣市","city_kana":"オオガキシ","town":"大池町","town_kana":"オオイケチョウ","prefecture_code":21},"0001":{"zip_code":"5030001","prefecture":"岐阜県","prefecture_kana":"ギフケン","city":"大垣市","city_kana":"オオガキシ","town":"大島町","town_kana":"オオシマチョウ","prefecture_code":21},"0956":{"zip_code":"5030956","prefecture":"岐阜県","prefecture_kana":"ギフケン","city":"大垣市","city_kana":"オオガキシ","town":"大外羽","town_kana":"オオトバ","prefecture_code":21},"0814":{"zip_code":"5030814","prefecture":"岐阜県","prefecture_kana":"ギフケン","city":"大垣市","city_kana":"オオガキシ","town":"大村","town_kana":"オオムラ","prefecture_code":21},"0898":{"zip_code":"5030898","prefecture":"岐阜県","prefecture_kana":"ギフケン","city":"大垣市","city_kana":"オオガキシ","town":"歩行町","town_kana":"オカチマチ","prefecture_code":21},"0007":{"zip_code":"5030007","prefecture":"岐阜県","prefecture_kana":"ギフケン","city":"大垣市","city_kana":"オオガキシ","town":"貝曽根町","town_kana":"カイゾネチョウ","prefecture_code":21},"0002":{"zip_code":"5030002","prefecture":"岐阜県","prefecture_kana":"ギフケン","city":"大垣市","city_kana":"オオガキシ","town":"開発町","town_kana":"カイハツチョウ","prefecture_code":21},"0006":{"zip_code":"5030006","prefecture":"岐阜県","prefecture_kana":"ギフケン","city":"大垣市","city_kana":"オオガキシ","town":"加賀野","town_kana":"カガノ","prefecture_code":21},"0008":{"zip_code":"5030008","prefecture":"岐阜県","prefecture_kana":"ギフケン","city":"大垣市","city_kana":"オオガキシ","town":"楽田町","town_kana":"ガクデンチョウ","prefecture_code":21},"0023":{"zip_code":"5030023","prefecture":"岐阜県","prefecture_kana":"ギフケン","city":"大垣市","city_kana":"オオガキシ","town":"笠木町","town_kana":"カサギチョウ","prefecture_code":21},"0027":{"zip_code":"5030027","prefecture":"岐阜県","prefecture_kana":"ギフケン","city":"大垣市","city_kana":"オオガキシ","town":"笠縫町","town_kana":"カサヌイチョウ","prefecture_code":21},"0823":{"zip_code":"5030823","prefecture":"岐阜県","prefecture_kana":"ギフケン","city":"大垣市","city_kana":"オオガキシ","town":"鹿島町","town_kana":"カシマチョウ","prefecture_code":21},"0021":{"zip_code":"5030021","prefecture":"岐阜県","prefecture_kana":"ギフケン","city":"大垣市","city_kana":"オオガキシ","town":"河間町","town_kana":"ガマチョウ","prefecture_code":21},"0937":{"zip_code":"5030937","prefecture":"岐阜県","prefecture_kana":"ギフケン","city":"大垣市","city_kana":"オオガキシ","town":"釜笛","town_kana":"カマフエ","prefecture_code":21},"1614":{"zip_code":"5031614","prefecture":"岐阜県","prefecture_kana":"ギフケン","city":"大垣市","city_kana":"オオガキシ","town":"上石津町一之瀬","town_kana":"カミイシヅチョウイチノセ","prefecture_code":21},"1633":{"zip_code":"5031633","prefecture":"岐阜県","prefecture_kana":"ギフケン","city":"大垣市","city_kana":"オオガキシ","town":"上石津町打上","town_kana":"カミイシヅチョウウチアゲ","prefecture_code":21},"1622":{"zip_code":"5031622","prefecture":"岐阜県","prefecture_kana":"ギフケン","city":"大垣市","city_kana":"オオガキシ","town":"上石津町上原","town_kana":"カミイシヅチョウウワハラ","prefecture_code":21},"1611":{"zip_code":"5031611","prefecture":"岐阜県","prefecture_kana":"ギフケン","city":"大垣市","city_kana":"オオガキシ","town":"上石津町奥","town_kana":"カミイシヅチョウオク","prefecture_code":21},"1601":{"zip_code":"5031601","prefecture":"岐阜県","prefecture_kana":"ギフケン","city":"大垣市","city_kana":"オオガキシ","town":"上石津町乙坂","town_kana":"カミイシヅチョウオツサカ","prefecture_code":21},"1638":{"zip_code":"5031638","prefecture":"岐阜県","prefecture_kana":"ギフケン","city":"大垣市","city_kana":"オオガキシ","town":"上石津町上","town_kana":"カミイシヅチョウカミ","prefecture_code":21},"1613":{"zip_code":"5031613","prefecture":"岐阜県","prefecture_kana":"ギフケン","city":"大垣市","city_kana":"オオガキシ","town":"上石津町上鍛治屋","town_kana":"カミイシヅチョウカミカジヤ","prefecture_code":21},"1623":{"zip_code":"5031623","prefecture":"岐阜県","prefecture_kana":"ギフケン","city":"大垣市","city_kana":"オオガキシ","town":"上石津町上多良","town_kana":"カミイシヅチョウカミタラ","prefecture_code":21},"1621":{"zip_code":"5031621","prefecture":"岐阜県","prefecture_kana":"ギフケン","city":"大垣市","city_kana":"オオガキシ","town":"上石津町下多良","town_kana":"カミイシヅチョウシモタラ","prefecture_code":21},"1632":{"zip_code":"5031632","prefecture":"岐阜県","prefecture_kana":"ギフケン","city":"大垣市","city_kana":"オオガキシ","town":"上石津町下山","town_kana":"カミイシヅチョウシモヤマ","prefecture_code":21},"1612":{"zip_code":"5031612","prefecture":"岐阜県","prefecture_kana":"ギフケン","city":"大垣市","city_kana":"オオガキシ","town":"上石津町谷畑","town_kana":"カミイシヅチョウタニハタ","prefecture_code":21},"1637":{"zip_code":"5031637","prefecture":"岐阜県","prefecture_kana":"ギフケン","city":"大垣市","city_kana":"オオガキシ","town":"上石津町堂之上","town_kana":"カミイシヅチョウドウノウエ","prefecture_code":21},"1635":{"zip_code":"5031635","prefecture":"岐阜県","prefecture_kana":"ギフケン","city":"大垣市","city_kana":"オオガキシ","town":"上石津町時山","town_kana":"カミイシヅチョウトキヤマ","prefecture_code":21},"1636":{"zip_code":"5031636","prefecture":"岐阜県","prefecture_kana":"ギフケン","city":"大垣市","city_kana":"オオガキシ","town":"上石津町西山","town_kana":"カミイシヅチョウニシヤマ","prefecture_code":21},"1626":{"zip_code":"5031626","prefecture":"岐阜県","prefecture_kana":"ギフケン","city":"大垣市","city_kana":"オオガキシ","town":"上石津町祢宜上","town_kana":"カミイシヅチョウネギカミ","prefecture_code":21},"1634":{"zip_code":"5031634","prefecture":"岐阜県","prefecture_kana":"ギフケン","city":"大垣市","city_kana":"オオガキシ","town":"上石津町細野","town_kana":"カミイシヅチョウホソノ","prefecture_code":21},"1631":{"zip_code":"5031631","prefecture":"岐阜県","prefecture_kana":"ギフケン","city":"大垣市","city_kana":"オオガキシ","town":"上石津町前ケ瀬","town_kana":"カミイシヅチョウマエガセ","prefecture_code":21},"1602":{"zip_code":"5031602","prefecture":"岐阜県","prefecture_kana":"ギフケン","city":"大垣市","city_kana":"オオガキシ","town":"上石津町牧田","town_kana":"カミイシヅチョウマキダ","prefecture_code":21},"1624":{"zip_code":"5031624","prefecture":"岐阜県","prefecture_kana":"ギフケン","city":"大垣市","city_kana":"オオガキシ","town":"上石津町三ツ里","town_kana":"カミイシヅチョウミツサト","prefecture_code":21},"1625":{"zip_code":"5031625","prefecture":"岐阜県","prefecture_kana":"ギフケン","city":"大垣市","city_kana":"オオガキシ","town":"上石津町宮","town_kana":"カミイシヅチョウミヤ","prefecture_code":21},"0964":{"zip_code":"5030964","prefecture":"岐阜県","prefecture_kana":"ギフケン","city":"大垣市","city_kana":"オオガキシ","town":"上笠","town_kana":"カミガサ","prefecture_code":21},"0957":{"zip_code":"5030957","prefecture":"岐阜県","prefecture_kana":"ギフケン","city":"大垣市","city_kana":"オオガキシ","town":"上屋","town_kana":"カミヤ","prefecture_code":21},"0941":{"zip_code":"5030941","prefecture":"岐阜県","prefecture_kana":"ギフケン","city":"大垣市","city_kana":"オオガキシ","town":"川口","town_kana":"カワグチ","prefecture_code":21},"0917":{"zip_code":"5030917","prefecture":"岐阜県","prefecture_kana":"ギフケン","city":"大垣市","city_kana":"オオガキシ","town":"神田町","town_kana":"カンダチョウ","prefecture_code":21},"0019":{"zip_code":"5030019","prefecture":"岐阜県","prefecture_kana":"ギフケン","city":"大垣市","city_kana":"オオガキシ","town":"北方町","town_kana":"キタガタチョウ","prefecture_code":21},"0915":{"zip_code":"5030915","prefecture":"岐阜県","prefecture_kana":"ギフケン","city":"大垣市","city_kana":"オオガキシ","town":"北切石町","town_kana":"キタキリイシチョウ","prefecture_code":21},"0973":{"zip_code":"5030973","prefecture":"岐阜県","prefecture_kana":"ギフケン","city":"大垣市","city_kana":"オオガキシ","town":"木戸町","town_kana":"キドチョウ","prefecture_code":21},"0881":{"zip_code":"5030881","prefecture":"岐阜県","prefecture_kana":"ギフケン","city":"大垣市","city_kana":"オオガキシ","town":"岐阜町","town_kana":"ギフマチ","prefecture_code":21},"0982":{"zip_code":"5030982","prefecture":"岐阜県","prefecture_kana":"ギフケン","city":"大垣市","city_kana":"オオガキシ","town":"久徳町","town_kana":"キュウトクチョウ","prefecture_code":21},"0926":{"zip_code":"5030926","prefecture":"岐阜県","prefecture_kana":"ギフケン","city":"大垣市","city_kana":"オオガキシ","town":"切石町","town_kana":"キリイシチョウ","prefecture_code":21},"0904":{"zip_code":"5030904","prefecture":"岐阜県","prefecture_kana":"ギフケン","city":"大垣市","city_kana":"オオガキシ","town":"桐ケ崎町","town_kana":"キリガサキチョウ","prefecture_code":21},"0991":{"zip_code":"5030991","prefecture":"岐阜県","prefecture_kana":"ギフケン","city":"大垣市","city_kana":"オオガキシ","town":"木呂町","town_kana":"キロチョウ","prefecture_code":21},"0974":{"zip_code":"5030974","prefecture":"岐阜県","prefecture_kana":"ギフケン","city":"大垣市","city_kana":"オオガキシ","town":"久瀬川町","town_kana":"クゼガワチョウ","prefecture_code":21},"0032":{"zip_code":"5030032","prefecture":"岐阜県","prefecture_kana":"ギフケン","city":"大垣市","city_kana":"オオガキシ","town":"熊野町","town_kana":"クマノチョウ","prefecture_code":21},"0902":{"zip_code":"5030902","prefecture":"岐阜県","prefecture_kana":"ギフケン","city":"大垣市","city_kana":"オオガキシ","town":"栗屋町","town_kana":"クリヤチョウ","prefecture_code":21},"0887":{"zip_code":"5030887","prefecture":"岐阜県","prefecture_kana":"ギフケン","city":"大垣市","city_kana":"オオガキシ","town":"郭町","town_kana":"クルワマチ","prefecture_code":21},"0886":{"zip_code":"5030886","prefecture":"岐阜県","prefecture_kana":"ギフケン","city":"大垣市","city_kana":"オオガキシ","town":"郭町東","town_kana":"クルワマチヒガシ","prefecture_code":21},"0816":{"zip_code":"5030816","prefecture":"岐阜県","prefecture_kana":"ギフケン","city":"大垣市","city_kana":"オオガキシ","town":"小泉町","town_kana":"コイズミチョウ","prefecture_code":21},"2203":{"zip_code":"5032203","prefecture":"岐阜県","prefecture_kana":"ギフケン","city":"大垣市","city_kana":"オオガキシ","town":"興福地町","town_kana":"コウフクジチョウ","prefecture_code":21},"0036":{"zip_code":"5030036","prefecture":"岐阜県","prefecture_kana":"ギフケン","city":"大垣市","city_kana":"オオガキシ","town":"古知丸","town_kana":"コチマル","prefecture_code":21},"0877":{"zip_code":"5030877","prefecture":"岐阜県","prefecture_kana":"ギフケン","city":"大垣市","city_kana":"オオガキシ","town":"御殿町","town_kana":"ゴテンマチ","prefecture_code":21},"0832":{"zip_code":"5030832","prefecture":"岐阜県","prefecture_kana":"ギフケン","city":"大垣市","city_kana":"オオガキシ","town":"寿町","town_kana":"コトブキチョウ","prefecture_code":21},"0803":{"zip_code":"5030803","prefecture":"岐阜県","prefecture_kana":"ギフケン","city":"大垣市","city_kana":"オオガキシ","town":"小野","town_kana":"コノ","prefecture_code":21},"0847":{"zip_code":"5030847","prefecture":"岐阜県","prefecture_kana":"ギフケン","city":"大垣市","city_kana":"オオガキシ","town":"米野町","town_kana":"コメノチョウ","prefecture_code":21},"0009":{"zip_code":"5030009","prefecture":"岐阜県","prefecture_kana":"ギフケン","city":"大垣市","city_kana":"オオガキシ","town":"坂下町","town_kana":"サカシタチョウ","prefecture_code":21},"0821":{"zip_code":"5030821","prefecture":"岐阜県","prefecture_kana":"ギフケン","city":"大垣市","city_kana":"オオガキシ","town":"早苗町","town_kana":"サナエチョウ","prefecture_code":21},"0813":{"zip_code":"5030813","prefecture":"岐阜県","prefecture_kana":"ギフケン","city":"大垣市","city_kana":"オオガキシ","town":"三本木","town_kana":"サンボンギ","prefecture_code":21},"0983":{"zip_code":"5030983","prefecture":"岐阜県","prefecture_kana":"ギフケン","city":"大垣市","city_kana":"オオガキシ","town":"静里町","town_kana":"シズサトチョウ","prefecture_code":21},"0865":{"zip_code":"5030865","prefecture":"岐阜県","prefecture_kana":"ギフケン","city":"大垣市","city_kana":"オオガキシ","town":"寺内町","town_kana":"ジナイチョウ","prefecture_code":21},"0935":{"zip_code":"5030935","prefecture":"岐阜県","prefecture_kana":"ギフケン","city":"大垣市","city_kana":"オオガキシ","town":"島里","town_kana":"シマザト","prefecture_code":21},"0996":{"zip_code":"5030996","prefecture":"岐阜県","prefecture_kana":"ギフケン","city":"大垣市","city_kana":"オオガキシ","town":"島町","town_kana":"シマチョウ","prefecture_code":21},"0883":{"zip_code":"5030883","prefecture":"岐阜県","prefecture_kana":"ギフケン","city":"大垣市","city_kana":"オオガキシ","town":"清水町","town_kana":"シミズチョウ","prefecture_code":21},"0995":{"zip_code":"5030995","prefecture":"岐阜県","prefecture_kana":"ギフケン","city":"大垣市","city_kana":"オオガキシ","town":"十六町","town_kana":"ジュウロクチョウ","prefecture_code":21},"0024":{"zip_code":"5030024","prefecture":"岐阜県","prefecture_kana":"ギフケン","city":"大垣市","city_kana":"オオガキシ","town":"宿地町","town_kana":"シュクジチョウ","prefecture_code":21},"0817":{"zip_code":"5030817","prefecture":"岐阜県","prefecture_kana":"ギフケン","city":"大垣市","city_kana":"オオガキシ","town":"上面","town_kana":"ジョウメン","prefecture_code":21},"0942":{"zip_code":"5030942","prefecture":"岐阜県","prefecture_kana":"ギフケン","city":"大垣市","city_kana":"オオガキシ","town":"昭和","town_kana":"ショウワ","prefecture_code":21},"0004":{"zip_code":"5030004","prefecture":"岐阜県","prefecture_kana":"ギフケン","city":"大垣市","city_kana":"オオガキシ","town":"新開町","town_kana":"シンカイチョウ","prefecture_code":21},"0894":{"zip_code":"5030894","prefecture":"岐阜県","prefecture_kana":"ギフケン","city":"大垣市","city_kana":"オオガキシ","town":"新地町","town_kana":"シンチチョウ","prefecture_code":21},"0856":{"zip_code":"5030856","prefecture":"岐阜県","prefecture_kana":"ギフケン","city":"大垣市","city_kana":"オオガキシ","town":"新田町","town_kana":"シンデンチョウ","prefecture_code":21},"0831":{"zip_code":"5030831","prefecture":"岐阜県","prefecture_kana":"ギフケン","city":"大垣市","city_kana":"オオガキシ","town":"新長沢町","town_kana":"シンナガサワチョウ","prefecture_code":21},"0992":{"zip_code":"5030992","prefecture":"岐阜県","prefecture_kana":"ギフケン","city":"大垣市","city_kana":"オオガキシ","town":"新長松","town_kana":"シンナガマツ","prefecture_code":21},"0921":{"zip_code":"5030921","prefecture":"岐阜県","prefecture_kana":"ギフケン","city":"大垣市","city_kana":"オオガキシ","town":"新馬場町","town_kana":"シンババチョウ","prefecture_code":21},"0872":{"zip_code":"5030872","prefecture":"岐阜県","prefecture_kana":"ギフケン","city":"大垣市","city_kana":"オオガキシ","town":"新町","town_kana":"シンマチ","prefecture_code":21},"2205":{"zip_code":"5032205","prefecture":"岐阜県","prefecture_kana":"ギフケン","city":"大垣市","city_kana":"オオガキシ","town":"神明","town_kana":"シンメイ","prefecture_code":21},"2208":{"zip_code":"5032208","prefecture":"岐阜県","prefecture_kana":"ギフケン","city":"大垣市","city_kana":"オオガキシ","town":"菅野","town_kana":"スガノ","prefecture_code":21},"0815":{"zip_code":"5030815","prefecture":"岐阜県","prefecture_kana":"ギフケン","city":"大垣市","city_kana":"オオガキシ","town":"直江町","town_kana":"スグエチョウ","prefecture_code":21},"0103":{"zip_code":"5030103","prefecture":"岐阜県","prefecture_kana":"ギフケン","city":"大垣市","city_kana":"オオガキシ","town":"墨俣町上宿","town_kana":"スノマタチョウカミジュク","prefecture_code":21},"0106":{"zip_code":"5030106","prefecture":"岐阜県","prefecture_kana":"ギフケン","city":"大垣市","city_kana":"オオガキシ","town":"墨俣町さい川","town_kana":"スノマタチョウサイカワ","prefecture_code":21},"0104":{"zip_code":"5030104","prefecture":"岐阜県","prefecture_kana":"ギフケン","city":"大垣市","city_kana":"オオガキシ","town":"墨俣町下宿","town_kana":"スノマタチョウシモジュク","prefecture_code":21},"0102":{"zip_code":"5030102","prefecture":"岐阜県","prefecture_kana":"ギフケン","city":"大垣市","city_kana":"オオガキシ","town":"墨俣町墨俣","town_kana":"スノマタチョウスノマタ","prefecture_code":21},"0101":{"zip_code":"5030101","prefecture":"岐阜県","prefecture_kana":"ギフケン","city":"大垣市","city_kana":"オオガキシ","town":"墨俣町先入方","town_kana":"スノマタチョウセンイリカタ","prefecture_code":21},"0105":{"zip_code":"5030105","prefecture":"岐阜県","prefecture_kana":"ギフケン","city":"大垣市","city_kana":"オオガキシ","town":"墨俣町二ツ木","town_kana":"スノマタチョウフタツギ","prefecture_code":21},"0822":{"zip_code":"5030822","prefecture":"岐阜県","prefecture_kana":"ギフケン","city":"大垣市","city_kana":"オオガキシ","town":"住吉町","town_kana":"スミヨシチョウ","prefecture_code":21},"2201":{"zip_code":"5032201","prefecture":"岐阜県","prefecture_kana":"ギフケン","city":"大垣市","city_kana":"オオガキシ","town":"草道島町","town_kana":"ソウドウジマチョウ","prefecture_code":21},"0933":{"zip_code":"5030933","prefecture":"岐阜県","prefecture_kana":"ギフケン","city":"大垣市","city_kana":"オオガキシ","town":"外野","town_kana":"ソトノ","prefecture_code":21},"0951":{"zip_code":"5030951","prefecture":"岐阜県","prefecture_kana":"ギフケン","city":"大垣市","city_kana":"オオガキシ","town":"外野町","town_kana":"ソトノチョウ","prefecture_code":21},"0011":{"zip_code":"5030011","prefecture":"岐阜県","prefecture_kana":"ギフケン","city":"大垣市","city_kana":"オオガキシ","town":"曽根町","town_kana":"ソネチョウ","prefecture_code":21},"0934":{"zip_code":"5030934","prefecture":"岐阜県","prefecture_kana":"ギフケン","city":"大垣市","city_kana":"オオガキシ","town":"外渕","town_kana":"ソブツ","prefecture_code":21},"0895":{"zip_code":"5030895","prefecture":"岐阜県","prefecture_kana":"ギフケン","city":"大垣市","city_kana":"オオガキシ","town":"代官町","town_kana":"ダイカンチョウ","prefecture_code":21},"0889":{"zip_code":"5030889","prefecture":"岐阜県","prefecture_kana":"ギフケン","city":"大垣市","city_kana":"オオガキシ","town":"高砂町","town_kana":"タカサゴチョウ","prefecture_code":21},"0913":{"zip_code":"5030913","prefecture":"岐阜県","prefecture_kana":"ギフケン","city":"大垣市","city_kana":"オオガキシ","town":"鷹匠町","town_kana":"タカジョウチョウ","prefecture_code":21},"0896":{"zip_code":"5030896","prefecture":"岐阜県","prefecture_kana":"ギフケン","city":"大垣市","city_kana":"オオガキシ","town":"高橋町","town_kana":"タカハシチョウ","prefecture_code":21},"0958":{"zip_code":"5030958","prefecture":"岐阜県","prefecture_kana":"ギフケン","city":"大垣市","city_kana":"オオガキシ","town":"高渕","town_kana":"タカブチ","prefecture_code":21},"0959":{"zip_code":"5030959","prefecture":"岐阜県","prefecture_kana":"ギフケン","city":"大垣市","city_kana":"オオガキシ","town":"高渕町","town_kana":"タカブチチョウ","prefecture_code":21},"0901":{"zip_code":"5030901","prefecture":"岐阜県","prefecture_kana":"ギフケン","city":"大垣市","city_kana":"オオガキシ","town":"高屋町","town_kana":"タカヤチョウ","prefecture_code":21},"0965":{"zip_code":"5030965","prefecture":"岐阜県","prefecture_kana":"ギフケン","city":"大垣市","city_kana":"オオガキシ","town":"多芸島","town_kana":"タギシマ","prefecture_code":21},"0853":{"zip_code":"5030853","prefecture":"岐阜県","prefecture_kana":"ギフケン","city":"大垣市","city_kana":"オオガキシ","town":"田口町","town_kana":"タグチチョウ","prefecture_code":21},"0878":{"zip_code":"5030878","prefecture":"岐阜県","prefecture_kana":"ギフケン","city":"大垣市","city_kana":"オオガキシ","town":"竹島町","town_kana":"タケジマチョウ","prefecture_code":21},"0892":{"zip_code":"5030892","prefecture":"岐阜県","prefecture_kana":"ギフケン","city":"大垣市","city_kana":"オオガキシ","town":"橘町","town_kana":"タチバナチョウ","prefecture_code":21},"0875":{"zip_code":"5030875","prefecture":"岐阜県","prefecture_kana":"ギフケン","city":"大垣市","city_kana":"オオガキシ","town":"田町","town_kana":"タマチ","prefecture_code":21},"0876":{"zip_code":"5030876","prefecture":"岐阜県","prefecture_kana":"ギフケン","city":"大垣市","city_kana":"オオガキシ","town":"俵町","town_kana":"タワラマチ","prefecture_code":21},"0891":{"zip_code":"5030891","prefecture":"岐阜県","prefecture_kana":"ギフケン","city":"大垣市","city_kana":"オオガキシ","town":"千鳥町","town_kana":"チドリチョウ","prefecture_code":21},"0854":{"zip_code":"5030854","prefecture":"岐阜県","prefecture_kana":"ギフケン","city":"大垣市","city_kana":"オオガキシ","town":"築捨町","town_kana":"ツキズテチョウ","prefecture_code":21},"0003":{"zip_code":"5030003","prefecture":"岐阜県","prefecture_kana":"ギフケン","city":"大垣市","city_kana":"オオガキシ","town":"津村町","town_kana":"ツムラチョウ","prefecture_code":21},"0805":{"zip_code":"5030805","prefecture":"岐阜県","prefecture_kana":"ギフケン","city":"大垣市","city_kana":"オオガキシ","town":"鶴見町","town_kana":"ツルミチョウ","prefecture_code":21},"0897":{"zip_code":"5030897","prefecture":"岐阜県","prefecture_kana":"ギフケン","city":"大垣市","city_kana":"オオガキシ","town":"伝馬町","town_kana":"テンマチョウ","prefecture_code":21},"0855":{"zip_code":"5030855","prefecture":"岐阜県","prefecture_kana":"ギフケン","city":"大垣市","city_kana":"オオガキシ","town":"問屋町","town_kana":"トイヤマチ","prefecture_code":21},"0954":{"zip_code":"5030954","prefecture":"岐阜県","prefecture_kana":"ギフケン","city":"大垣市","city_kana":"オオガキシ","town":"外花","town_kana":"トバナ","prefecture_code":21},"0955":{"zip_code":"5030955","prefecture":"岐阜県","prefecture_kana":"ギフケン","city":"大垣市","city_kana":"オオガキシ","town":"友江","town_kana":"トモエ","prefecture_code":21},"0839":{"zip_code":"5030839","prefecture":"岐阜県","prefecture_kana":"ギフケン","city":"大垣市","city_kana":"オオガキシ","town":"長井町","town_kana":"ナガイチョウ","prefecture_code":21},"0017":{"zip_code":"5030017","prefecture":"岐阜県","prefecture_kana":"ギフケン","city":"大垣市","city_kana":"オオガキシ","town":"中川町","town_kana":"ナカガワチョウ","prefecture_code":21},"0833":{"zip_code":"5030833","prefecture":"岐阜県","prefecture_kana":"ギフケン","city":"大垣市","city_kana":"オオガキシ","town":"長沢町","town_kana":"ナガサワチョウ","prefecture_code":21},"0986":{"zip_code":"5030986","prefecture":"岐阜県","prefecture_kana":"ギフケン","city":"大垣市","city_kana":"オオガキシ","town":"中曽根町","town_kana":"ナカゾネチョウ","prefecture_code":21},"0804":{"zip_code":"5030804","prefecture":"岐阜県","prefecture_kana":"ギフケン","city":"大垣市","city_kana":"オオガキシ","town":"中ノ江","town_kana":"ナカノエ","prefecture_code":21},"0022":{"zip_code":"5030022","prefecture":"岐阜県","prefecture_kana":"ギフケン","city":"大垣市","city_kana":"オオガキシ","town":"中野町","town_kana":"ナカノチョウ","prefecture_code":21},"0884":{"zip_code":"5030884","prefecture":"岐阜県","prefecture_kana":"ギフケン","city":"大垣市","city_kana":"オオガキシ","town":"中町","town_kana":"ナカマチ","prefecture_code":21},"0997":{"zip_code":"5030997","prefecture":"岐阜県","prefecture_kana":"ギフケン","city":"大垣市","city_kana":"オオガキシ","town":"長松町","town_kana":"ナガマツチョウ","prefecture_code":21},"0844":{"zip_code":"5030844","prefecture":"岐阜県","prefecture_kana":"ギフケン","city":"大垣市","city_kana":"オオガキシ","town":"難波野町","town_kana":"ナンバノチョウ","prefecture_code":21},"0963":{"zip_code":"5030963","prefecture":"岐阜県","prefecture_kana":"ギフケン","city":"大垣市","city_kana":"オオガキシ","town":"西大外羽","town_kana":"ニシオオトバ","prefecture_code":21},"0899":{"zip_code":"5030899","prefecture":"岐阜県","prefecture_kana":"ギフケン","city":"大垣市","city_kana":"オオガキシ","town":"錦町","town_kana":"ニシキマチ","prefecture_code":21},"0918":{"zip_code":"5030918","prefecture":"岐阜県","prefecture_kana":"ギフケン","city":"大垣市","city_kana":"オオガキシ","town":"西崎町","town_kana":"ニシザキチョウ","prefecture_code":21},"0908":{"zip_code":"5030908","prefecture":"岐阜県","prefecture_kana":"ギフケン","city":"大垣市","city_kana":"オオガキシ","town":"西外側町","town_kana":"ニシトガワチョウ","prefecture_code":21},"0914":{"zip_code":"5030914","prefecture":"岐阜県","prefecture_kana":"ギフケン","city":"大垣市","city_kana":"オオガキシ","town":"西長町","town_kana":"ニシナガチョウ","prefecture_code":21},"0018":{"zip_code":"5030018","prefecture":"岐阜県","prefecture_kana":"ギフケン","city":"大垣市","city_kana":"オオガキシ","town":"西之川町","town_kana":"ニシノカワチョウ","prefecture_code":21},"0851":{"zip_code":"5030851","prefecture":"岐阜県","prefecture_kana":"ギフケン","city":"大垣市","city_kana":"オオガキシ","town":"禾森","town_kana":"ノギノモリ","prefecture_code":21},"0852":{"zip_code":"5030852","prefecture":"岐阜県","prefecture_kana":"ギフケン","city":"大垣市","city_kana":"オオガキシ","town":"禾森町","town_kana":"ノギノモリチョウ","prefecture_code":21},"0985":{"zip_code":"5030985","prefecture":"岐阜県","prefecture_kana":"ギフケン","city":"大垣市","city_kana":"オオガキシ","town":"野口","town_kana":"ノグチ","prefecture_code":21},"0861":{"zip_code":"5030861","prefecture":"岐阜県","prefecture_kana":"ギフケン","city":"大垣市","city_kana":"オオガキシ","town":"羽衣町","town_kana":"ハゴロモチョウ","prefecture_code":21},"0811":{"zip_code":"5030811","prefecture":"岐阜県","prefecture_kana":"ギフケン","city":"大垣市","city_kana":"オオガキシ","town":"波須","town_kana":"ハス","prefecture_code":21},"0912":{"zip_code":"5030912","prefecture":"岐阜県","prefecture_kana":"ギフケン","city":"大垣市","city_kana":"オオガキシ","town":"鳩部屋町","town_kana":"ハトベヤチョウ","prefecture_code":21},"0825":{"zip_code":"5030825","prefecture":"岐阜県","prefecture_kana":"ギフケン","city":"大垣市","city_kana":"オオガキシ","town":"花園町","town_kana":"ハナゾノチョウ","prefecture_code":21},"0922":{"zip_code":"5030922","prefecture":"岐阜県","prefecture_kana":"ギフケン","city":"大垣市","city_kana":"オオガキシ","town":"馬場町","town_kana":"ババチョウ","prefecture_code":21},"0015":{"zip_code":"5030015","prefecture":"岐阜県","prefecture_kana":"ギフケン","city":"大垣市","city_kana":"オオガキシ","town":"林町","town_kana":"ハヤシマチ","prefecture_code":21},"0907":{"zip_code":"5030907","prefecture":"岐阜県","prefecture_kana":"ギフケン","city":"大垣市","city_kana":"オオガキシ","town":"番組町","town_kana":"バングミチョウ","prefecture_code":21},"0903":{"zip_code":"5030903","prefecture":"岐阜県","prefecture_kana":"ギフケン","city":"大垣市","city_kana":"オオガキシ","town":"東外側町","town_kana":"ヒガシトガワチョウ","prefecture_code":21},"0882":{"zip_code":"5030882","prefecture":"岐阜県","prefecture_kana":"ギフケン","city":"大垣市","city_kana":"オオガキシ","town":"東長町","town_kana":"ヒガシナガチョウ","prefecture_code":21},"0835":{"zip_code":"5030835","prefecture":"岐阜県","prefecture_kana":"ギフケン","city":"大垣市","city_kana":"オオガキシ","town":"東前","town_kana":"ヒガシマエ","prefecture_code":21},"0849":{"zip_code":"5030849","prefecture":"岐阜県","prefecture_kana":"ギフケン","city":"大垣市","city_kana":"オオガキシ","town":"東前町","town_kana":"ヒガシマエチョウ","prefecture_code":21},"0981":{"zip_code":"5030981","prefecture":"岐阜県","prefecture_kana":"ギフケン","city":"大垣市","city_kana":"オオガキシ","town":"桧町","town_kana":"ヒノキチョウ","prefecture_code":21},"0916":{"zip_code":"5030916","prefecture":"岐阜県","prefecture_kana":"ギフケン","city":"大垣市","city_kana":"オオガキシ","town":"日の出町","town_kana":"ヒノデチョウ","prefecture_code":21},"0141":[{"zip_code":"5030141","prefecture":"岐阜県","prefecture_kana":"ギフケン","city":"大垣市","city_kana":"オオガキシ","town":"平町","town_kana":"ヒラマチ","prefecture_code":21},{"zip_code":"5030141","prefecture":"岐阜県","prefecture_kana":"ギフケン","city":"大垣市","city_kana":"オオガキシ","town":"平町揖斐川東","town_kana":"ヒラマチイビガワヒガシ","prefecture_code":21}],"0841":{"zip_code":"5030841","prefecture":"岐阜県","prefecture_kana":"ギフケン","city":"大垣市","city_kana":"オオガキシ","town":"平町","town_kana":"ヒラマチ","prefecture_code":21},"2216":{"zip_code":"5032216","prefecture":"岐阜県","prefecture_kana":"ギフケン","city":"大垣市","city_kana":"オオガキシ","town":"昼飯町","town_kana":"ヒルイチョウ","prefecture_code":21},"0846":{"zip_code":"5030846","prefecture":"岐阜県","prefecture_kana":"ギフケン","city":"大垣市","city_kana":"オオガキシ","town":"深池町","town_kana":"フカイケチョウ","prefecture_code":21},"0033":{"zip_code":"5030033","prefecture":"岐阜県","prefecture_kana":"ギフケン","city":"大垣市","city_kana":"オオガキシ","town":"福田町","town_kana":"フクタチョウ","prefecture_code":21},"0893":{"zip_code":"5030893","prefecture":"岐阜県","prefecture_kana":"ギフケン","city":"大垣市","city_kana":"オオガキシ","town":"藤江町","town_kana":"フジエチョウ","prefecture_code":21},"0862":{"zip_code":"5030862","prefecture":"岐阜県","prefecture_kana":"ギフケン","city":"大垣市","city_kana":"オオガキシ","town":"二葉町","town_kana":"フタバチョウ","prefecture_code":21},"0923":{"zip_code":"5030923","prefecture":"岐阜県","prefecture_kana":"ギフケン","city":"大垣市","city_kana":"オオガキシ","town":"船町","town_kana":"フナマチ","prefecture_code":21},"0848":{"zip_code":"5030848","prefecture":"岐阜県","prefecture_kana":"ギフケン","city":"大垣市","city_kana":"オオガキシ","town":"古宮町","town_kana":"フルミヤチョウ","prefecture_code":21},"0972":{"zip_code":"5030972","prefecture":"岐阜県","prefecture_kana":"ギフケン","city":"大垣市","city_kana":"オオガキシ","town":"宝和町","town_kana":"ホウワチョウ","prefecture_code":21},"0885":{"zip_code":"5030885","prefecture":"岐阜県","prefecture_kana":"ギフケン","city":"大垣市","city_kana":"オオガキシ","town":"本町","town_kana":"ホンマチ","prefecture_code":21},"0845":{"zip_code":"5030845","prefecture":"岐阜県","prefecture_kana":"ギフケン","city":"大垣市","city_kana":"オオガキシ","town":"牧新田町","town_kana":"マキシンデンチョウ","prefecture_code":21},"0031":{"zip_code":"5030031","prefecture":"岐阜県","prefecture_kana":"ギフケン","city":"大垣市","city_kana":"オオガキシ","town":"牧野町","town_kana":"マキノチョウ","prefecture_code":21},"0888":{"zip_code":"5030888","prefecture":"岐阜県","prefecture_kana":"ギフケン","city":"大垣市","city_kana":"オオガキシ","town":"丸の内","town_kana":"マルノウチ","prefecture_code":21},"0812":{"zip_code":"5030812","prefecture":"岐阜県","prefecture_kana":"ギフケン","city":"大垣市","city_kana":"オオガキシ","town":"万石","town_kana":"マンゴク","prefecture_code":21},"0808":{"zip_code":"5030808","prefecture":"岐阜県","prefecture_kana":"ギフケン","city":"大垣市","city_kana":"オオガキシ","town":"三塚町","town_kana":"ミツヅカチョウ","prefecture_code":21},"0012":{"zip_code":"5030012","prefecture":"岐阜県","prefecture_kana":"ギフケン","city":"大垣市","city_kana":"オオガキシ","town":"三津屋町","town_kana":"ミツヤチョウ","prefecture_code":21},"0806":{"zip_code":"5030806","prefecture":"岐阜県","prefecture_kana":"ギフケン","city":"大垣市","city_kana":"オオガキシ","town":"緑園","town_kana":"ミドリエン","prefecture_code":21},"0025":{"zip_code":"5030025","prefecture":"岐阜県","prefecture_kana":"ギフケン","city":"大垣市","city_kana":"オオガキシ","town":"見取町","town_kana":"ミドリチョウ","prefecture_code":21},"2211":{"zip_code":"5032211","prefecture":"岐阜県","prefecture_kana":"ギフケン","city":"大垣市","city_kana":"オオガキシ","town":"南市橋町","town_kana":"ミナミイチハシチョウ","prefecture_code":21},"0971":{"zip_code":"5030971","prefecture":"岐阜県","prefecture_kana":"ギフケン","city":"大垣市","city_kana":"オオガキシ","town":"南一色町","town_kana":"ミナミイッシキチョウ","prefecture_code":21},"0925":{"zip_code":"5030925","prefecture":"岐阜県","prefecture_kana":"ギフケン","city":"大垣市","city_kana":"オオガキシ","town":"南切石町","town_kana":"ミナミキリイシチョウ","prefecture_code":21},"0873":{"zip_code":"5030873","prefecture":"岐阜県","prefecture_kana":"ギフケン","city":"大垣市","city_kana":"オオガキシ","town":"南高橋町","town_kana":"ミナミタカハシチョウ","prefecture_code":21},"0864":{"zip_code":"5030864","prefecture":"岐阜県","prefecture_kana":"ギフケン","city":"大垣市","city_kana":"オオガキシ","town":"南頬町","town_kana":"ミナミノカワチョウ","prefecture_code":21},"0977":{"zip_code":"5030977","prefecture":"岐阜県","prefecture_kana":"ギフケン","city":"大垣市","city_kana":"オオガキシ","town":"南若森","town_kana":"ミナミワカモリ","prefecture_code":21},"0976":{"zip_code":"5030976","prefecture":"岐阜県","prefecture_kana":"ギフケン","city":"大垣市","city_kana":"オオガキシ","town":"南若森町","town_kana":"ミナミワカモリチョウ","prefecture_code":21},"0905":{"zip_code":"5030905","prefecture":"岐阜県","prefecture_kana":"ギフケン","city":"大垣市","city_kana":"オオガキシ","town":"宮町","town_kana":"ミヤマチ","prefecture_code":21},"0857":{"zip_code":"5030857","prefecture":"岐阜県","prefecture_kana":"ギフケン","city":"大垣市","city_kana":"オオガキシ","town":"美和町","town_kana":"ミワチョウ","prefecture_code":21},"0911":{"zip_code":"5030911","prefecture":"岐阜県","prefecture_kana":"ギフケン","city":"大垣市","city_kana":"オオガキシ","town":"室本町","town_kana":"ムロホンマチ","prefecture_code":21},"0906":{"zip_code":"5030906","prefecture":"岐阜県","prefecture_kana":"ギフケン","city":"大垣市","city_kana":"オオガキシ","town":"室町","town_kana":"ムロマチ","prefecture_code":21},"0026":{"zip_code":"5030026","prefecture":"岐阜県","prefecture_kana":"ギフケン","city":"大垣市","city_kana":"オオガキシ","town":"室村町","town_kana":"ムロムラチョウ","prefecture_code":21},"0931":{"zip_code":"5030931","prefecture":"岐阜県","prefecture_kana":"ギフケン","city":"大垣市","city_kana":"オオガキシ","town":"本今","town_kana":"モトイマ","prefecture_code":21},"0932":{"zip_code":"5030932","prefecture":"岐阜県","prefecture_kana":"ギフケン","city":"大垣市","city_kana":"オオガキシ","town":"本今町","town_kana":"モトイマチョウ","prefecture_code":21},"0016":{"zip_code":"5030016","prefecture":"岐阜県","prefecture_kana":"ギフケン","city":"大垣市","city_kana":"オオガキシ","town":"八島町","town_kana":"ヤシマチョウ","prefecture_code":21},"0837":{"zip_code":"5030837","prefecture":"岐阜県","prefecture_kana":"ギフケン","city":"大垣市","city_kana":"オオガキシ","town":"安井町","town_kana":"ヤスイチョウ","prefecture_code":21},"2223":{"zip_code":"5032223","prefecture":"岐阜県","prefecture_kana":"ギフケン","city":"大垣市","city_kana":"オオガキシ","town":"矢道町","town_kana":"ヤミチチョウ","prefecture_code":21},"0944":{"zip_code":"5030944","prefecture":"岐阜県","prefecture_kana":"ギフケン","city":"大垣市","city_kana":"オオガキシ","town":"横曽根","town_kana":"ヨコゾネ","prefecture_code":21},"0943":{"zip_code":"5030943","prefecture":"岐阜県","prefecture_kana":"ギフケン","city":"大垣市","city_kana":"オオガキシ","town":"横曽根町","town_kana":"ヨコゾネチョウ","prefecture_code":21},"2222":{"zip_code":"5032222","prefecture":"岐阜県","prefecture_kana":"ギフケン","city":"大垣市","city_kana":"オオガキシ","town":"榎戸町","town_kana":"ヨノキドチョウ","prefecture_code":21},"0858":{"zip_code":"5030858","prefecture":"岐阜県","prefecture_kana":"ギフケン","city":"大垣市","city_kana":"オオガキシ","town":"世安町","town_kana":"ヨヤスチョウ","prefecture_code":21},"0014":{"zip_code":"5030014","prefecture":"岐阜県","prefecture_kana":"ギフケン","city":"大垣市","city_kana":"オオガキシ","town":"領家町","town_kana":"リョウケチョウ","prefecture_code":21},"0975":{"zip_code":"5030975","prefecture":"岐阜県","prefecture_kana":"ギフケン","city":"大垣市","city_kana":"オオガキシ","town":"若森町","town_kana":"ワカモリチョウ","prefecture_code":21},"0801":{"zip_code":"5030801","prefecture":"岐阜県","prefecture_kana":"ギフケン","city":"大垣市","city_kana":"オオガキシ","town":"和合新町","town_kana":"ワゴウシンマチ","prefecture_code":21},"0005":{"zip_code":"5030005","prefecture":"岐阜県","prefecture_kana":"ギフケン","city":"大垣市","city_kana":"オオガキシ","town":"和合本町","town_kana":"ワゴウホンマチ","prefecture_code":21},"0953":{"zip_code":"5030953","prefecture":"岐阜県","prefecture_kana":"ギフケン","city":"大垣市","city_kana":"オオガキシ","town":"割田","town_kana":"ワリデン","prefecture_code":21},"0952":{"zip_code":"5030952","prefecture":"岐阜県","prefecture_kana":"ギフケン","city":"大垣市","city_kana":"オオガキシ","town":"割田町","town_kana":"ワリデンチョウ","prefecture_code":21},"0600":{"zip_code":"5030600","prefecture":"岐阜県","prefecture_kana":"ギフケン","city":"海津市","city_kana":"カイヅシ","town":"","town_kana":"","prefecture_code":21},"0611":{"zip_code":"5030611","prefecture":"岐阜県","prefecture_kana":"ギフケン","city":"海津市","city_kana":"カイヅシ","town":"海津町秋江","town_kana":"カイヅチョウアキエ","prefecture_code":21},"0625":{"zip_code":"5030625","prefecture":"岐阜県","prefecture_kana":"ギフケン","city":"海津市","city_kana":"カイヅシ","town":"海津町油島","town_kana":"カイヅチョウアブラジマ","prefecture_code":21},"0629":{"zip_code":"5030629","prefecture":"岐阜県","prefecture_kana":"ギフケン","city":"海津市","city_kana":"カイヅシ","town":"海津町石亀","town_kana":"カイヅチョウイシガメ","prefecture_code":21},"0631":{"zip_code":"5030631","prefecture":"岐阜県","prefecture_kana":"ギフケン","city":"海津市","city_kana":"カイヅシ","town":"海津町稲山","town_kana":"カイヅチョウイナヤマ","prefecture_code":21},"0635":{"zip_code":"5030635","prefecture":"岐阜県","prefecture_kana":"ギフケン","city":"海津市","city_kana":"カイヅシ","town":"海津町江東","town_kana":"カイヅチョウエヒガシ","prefecture_code":21},"0612":{"zip_code":"5030612","prefecture":"岐阜県","prefecture_kana":"ギフケン","city":"海津市","city_kana":"カイヅシ","town":"海津町大和田","town_kana":"カイヅチョウオワダ","prefecture_code":21},"0624":{"zip_code":"5030624","prefecture":"岐阜県","prefecture_kana":"ギフケン","city":"海津市","city_kana":"カイヅシ","town":"海津町金廻","town_kana":"カイヅチョウカナマワリ","prefecture_code":21},"0608":{"zip_code":"5030608","prefecture":"岐阜県","prefecture_kana":"ギフケン","city":"海津市","city_kana":"カイヅシ","town":"海津町鹿野","town_kana":"カイヅチョウカノ","prefecture_code":21},"0603":{"zip_code":"5030603","prefecture":"岐阜県","prefecture_kana":"ギフケン","city":"海津市","city_kana":"カイヅシ","town":"海津町神桐","town_kana":"カイヅチョウカミギリ","prefecture_code":21},"0646":{"zip_code":"5030646","prefecture":"岐阜県","prefecture_kana":"ギフケン","city":"海津市","city_kana":"カイヅシ","town":"海津町萱野","town_kana":"カイヅチョウカヤノ","prefecture_code":21},"0618":{"zip_code":"5030618","prefecture":"岐阜県","prefecture_kana":"ギフケン","city":"海津市","city_kana":"カイヅシ","town":"海津町草場","town_kana":"カイヅチョウクサバ","prefecture_code":21},"0645":{"zip_code":"5030645","prefecture":"岐阜県","prefecture_kana":"ギフケン","city":"海津市","city_kana":"カイヅシ","town":"海津町五町","town_kana":"カイヅチョウゴチョウ","prefecture_code":21},"0613":{"zip_code":"5030613","prefecture":"岐阜県","prefecture_kana":"ギフケン","city":"海津市","city_kana":"カイヅシ","town":"海津町駒ケ江","town_kana":"カイヅチョウコマガエ","prefecture_code":21},"0627":{"zip_code":"5030627","prefecture":"岐阜県","prefecture_kana":"ギフケン","city":"海津市","city_kana":"カイヅシ","town":"海津町七右衛門新田","town_kana":"カイヅチョウシチウエモンシンデン","prefecture_code":21},"0602":{"zip_code":"5030602","prefecture":"岐阜県","prefecture_kana":"ギフケン","city":"海津市","city_kana":"カイヅシ","town":"海津町瀬古","town_kana":"カイヅチョウセコ","prefecture_code":21},"0621":{"zip_code":"5030621","prefecture":"岐阜県","prefecture_kana":"ギフケン","city":"海津市","city_kana":"カイヅシ","town":"海津町外浜","town_kana":"カイヅチョウソトハマ","prefecture_code":21},"0654":{"zip_code":"5030654","prefecture":"岐阜県","prefecture_kana":"ギフケン","city":"海津市","city_kana":"カイヅシ","town":"海津町高須","town_kana":"カイヅチョウタカス","prefecture_code":21},"0653":{"zip_code":"5030653","prefecture":"岐阜県","prefecture_kana":"ギフケン","city":"海津市","city_kana":"カイヅシ","town":"海津町高須町","town_kana":"カイヅチョウタカスマチ","prefecture_code":21},"0617":{"zip_code":"5030617","prefecture":"岐阜県","prefecture_kana":"ギフケン","city":"海津市","city_kana":"カイヅシ","town":"海津町立野","town_kana":"カイヅチョウタテノ","prefecture_code":21},"0606":{"zip_code":"5030606","prefecture":"岐阜県","prefecture_kana":"ギフケン","city":"海津市","city_kana":"カイヅシ","town":"海津町田中","town_kana":"カイヅチョウタナカ","prefecture_code":21},"0641":{"zip_code":"5030641","prefecture":"岐阜県","prefecture_kana":"ギフケン","city":"海津市","city_kana":"カイヅシ","town":"海津町内記","town_kana":"カイヅチョウナイキ","prefecture_code":21},"0616":{"zip_code":"5030616","prefecture":"岐阜県","prefecture_kana":"ギフケン","city":"海津市","city_kana":"カイヅシ","town":"海津町長久保","town_kana":"カイヅチョウナガクボ","prefecture_code":21},"0614":{"zip_code":"5030614","prefecture":"岐阜県","prefecture_kana":"ギフケン","city":"海津市","city_kana":"カイヅシ","town":"海津町長瀬","town_kana":"カイヅチョウナガセ","prefecture_code":21},"0604":{"zip_code":"5030604","prefecture":"岐阜県","prefecture_kana":"ギフケン","city":"海津市","city_kana":"カイヅシ","town":"海津町成戸","town_kana":"カイヅチョウナリト","prefecture_code":21},"0648":{"zip_code":"5030648","prefecture":"岐阜県","prefecture_kana":"ギフケン","city":"海津市","city_kana":"カイヅシ","town":"海津町西小島","town_kana":"カイヅチョウニシオジマ","prefecture_code":21},"0634":{"zip_code":"5030634","prefecture":"岐阜県","prefecture_kana":"ギフケン","city":"海津市","city_kana":"カイヅシ","town":"海津町沼新田","town_kana":"カイヅチョウヌマシンデン","prefecture_code":21},"0647":{"zip_code":"5030647","prefecture":"岐阜県","prefecture_kana":"ギフケン","city":"海津市","city_kana":"カイヅシ","town":"海津町東小島","town_kana":"カイヅチョウヒガシオジマ","prefecture_code":21},"0651":{"zip_code":"5030651","prefecture":"岐阜県","prefecture_kana":"ギフケン","city":"海津市","city_kana":"カイヅシ","town":"海津町平原","town_kana":"カイヅチョウヒラハラ","prefecture_code":21},"0615":{"zip_code":"5030615","prefecture":"岐阜県","prefecture_kana":"ギフケン","city":"海津市","city_kana":"カイヅシ","town":"海津町日原","town_kana":"カイヅチョウヒワラ","prefecture_code":21},"0644":{"zip_code":"5030644","prefecture":"岐阜県","prefecture_kana":"ギフケン","city":"海津市","city_kana":"カイヅシ","town":"海津町深浜","town_kana":"カイヅチョウフカハマ","prefecture_code":21},"0605":{"zip_code":"5030605","prefecture":"岐阜県","prefecture_kana":"ギフケン","city":"海津市","city_kana":"カイヅシ","town":"海津町福一色","town_kana":"カイヅチョウフクイシキ","prefecture_code":21},"0628":{"zip_code":"5030628","prefecture":"岐阜県","prefecture_kana":"ギフケン","city":"海津市","city_kana":"カイヅシ","town":"海津町福江","town_kana":"カイヅチョウフクエ","prefecture_code":21},"0655":{"zip_code":"5030655","prefecture":"岐阜県","prefecture_kana":"ギフケン","city":"海津市","city_kana":"カイヅシ","town":"海津町福岡","town_kana":"カイヅチョウフクオカ","prefecture_code":21},"0643":{"zip_code":"5030643","prefecture":"岐阜県","prefecture_kana":"ギフケン","city":"海津市","city_kana":"カイヅシ","town":"海津町札野","town_kana":"カイヅチョウフダノ","prefecture_code":21},"0623":{"zip_code":"5030623","prefecture":"岐阜県","prefecture_kana":"ギフケン","city":"海津市","city_kana":"カイヅシ","town":"海津町古中島","town_kana":"カイヅチョウフルナカジマ","prefecture_code":21},"0636":{"zip_code":"5030636","prefecture":"岐阜県","prefecture_kana":"ギフケン","city":"海津市","city_kana":"カイヅシ","town":"海津町帆引新田","town_kana":"カイヅチョウホビキシンデン","prefecture_code":21},"0633":{"zip_code":"5030633","prefecture":"岐阜県","prefecture_kana":"ギフケン","city":"海津市","city_kana":"カイヅシ","town":"海津町本阿弥新田","town_kana":"カイヅチョウホンナミシンデン","prefecture_code":21},"0601":{"zip_code":"5030601","prefecture":"岐阜県","prefecture_kana":"ギフケン","city":"海津市","city_kana":"カイヅシ","town":"海津町松木","town_kana":"カイヅチョウマツノキ","prefecture_code":21},"0652":{"zip_code":"5030652","prefecture":"岐阜県","prefecture_kana":"ギフケン","city":"海津市","city_kana":"カイヅシ","town":"海津町馬目","town_kana":"カイヅチョウマノメ","prefecture_code":21},"0626":{"zip_code":"5030626","prefecture":"岐阜県","prefecture_kana":"ギフケン","city":"海津市","city_kana":"カイヅシ","town":"海津町万寿新田","town_kana":"カイヅチョウマンジュシンデン","prefecture_code":21},"0632":{"zip_code":"5030632","prefecture":"岐阜県","prefecture_kana":"ギフケン","city":"海津市","city_kana":"カイヅシ","town":"海津町宮地","town_kana":"カイヅチョウミヤジ","prefecture_code":21},"0622":{"zip_code":"5030622","prefecture":"岐阜県","prefecture_kana":"ギフケン","city":"海津市","city_kana":"カイヅシ","town":"海津町森下","town_kana":"カイヅチョウモリシタ","prefecture_code":21},"0637":{"zip_code":"5030637","prefecture":"岐阜県","prefecture_kana":"ギフケン","city":"海津市","city_kana":"カイヅシ","town":"海津町安田","town_kana":"カイヅチョウヤスダ","prefecture_code":21},"0638":{"zip_code":"5030638","prefecture":"岐阜県","prefecture_kana":"ギフケン","city":"海津市","city_kana":"カイヅシ","town":"海津町安田新田","town_kana":"カイヅチョウヤスダシンデン","prefecture_code":21},"0414":{"zip_code":"5030414","prefecture":"岐阜県","prefecture_kana":"ギフケン","city":"海津市","city_kana":"カイヅシ","town":"南濃町上野河戸","town_kana":"ナンノウチョウウエノコウズ","prefecture_code":21},"0532":{"zip_code":"5030532","prefecture":"岐阜県","prefecture_kana":"ギフケン","city":"海津市","city_kana":"カイヅシ","town":"南濃町太田","town_kana":"ナンノウチョウオオタ","prefecture_code":21},"0412":{"zip_code":"5030412","prefecture":"岐阜県","prefecture_kana":"ギフケン","city":"海津市","city_kana":"カイヅシ","town":"南濃町奥条","town_kana":"ナンノウチョウオクジョウ","prefecture_code":21},"0411":{"zip_code":"5030411","prefecture":"岐阜県","prefecture_kana":"ギフケン","city":"海津市","city_kana":"カイヅシ","town":"南濃町駒野","town_kana":"ナンノウチョウコマノ","prefecture_code":21},"0405":{"zip_code":"5030405","prefecture":"岐阜県","prefecture_kana":"ギフケン","city":"海津市","city_kana":"カイヅシ","town":"南濃町駒野新田","town_kana":"ナンノウチョウコマノシンデン","prefecture_code":21},"0534":{"zip_code":"5030534","prefecture":"岐阜県","prefecture_kana":"ギフケン","city":"海津市","city_kana":"カイヅシ","town":"南濃町境","town_kana":"ナンノウチョウサカイ","prefecture_code":21},"0403":{"zip_code":"5030403","prefecture":"岐阜県","prefecture_kana":"ギフケン","city":"海津市","city_kana":"カイヅシ","town":"南濃町志津","town_kana":"ナンノウチョウシヅ","prefecture_code":21},"0402":{"zip_code":"5030402","prefecture":"岐阜県","prefecture_kana":"ギフケン","city":"海津市","city_kana":"カイヅシ","town":"南濃町志津新田","town_kana":"ナンノウチョウシヅシンデン","prefecture_code":21},"0533":{"zip_code":"5030533","prefecture":"岐阜県","prefecture_kana":"ギフケン","city":"海津市","city_kana":"カイヅシ","town":"南濃町田鶴","town_kana":"ナンノウチョウタヅル","prefecture_code":21},"0401":{"zip_code":"5030401","prefecture":"岐阜県","prefecture_kana":"ギフケン","city":"海津市","city_kana":"カイヅシ","town":"南濃町津屋","town_kana":"ナンノウチョウツヤ","prefecture_code":21},"0407":{"zip_code":"5030407","prefecture":"岐阜県","prefecture_kana":"ギフケン","city":"海津市","city_kana":"カイヅシ","town":"南濃町徳田","town_kana":"ナンノウチョウトクダ","prefecture_code":21},"0406":{"zip_code":"5030406","prefecture":"岐阜県","prefecture_kana":"ギフケン","city":"海津市","city_kana":"カイヅシ","town":"南濃町戸田","town_kana":"ナンノウチョウトダ","prefecture_code":21},"0408":{"zip_code":"5030408","prefecture":"岐阜県","prefecture_kana":"ギフケン","city":"海津市","city_kana":"カイヅシ","town":"南濃町庭田","town_kana":"ナンノウチョウニワダ","prefecture_code":21},"0413":{"zip_code":"5030413","prefecture":"岐阜県","prefecture_kana":"ギフケン","city":"海津市","city_kana":"カイヅシ","town":"南濃町羽沢","town_kana":"ナンノウチョウハザワ","prefecture_code":21},"0404":{"zip_code":"5030404","prefecture":"岐阜県","prefecture_kana":"ギフケン","city":"海津市","city_kana":"カイヅシ","town":"南濃町早瀬","town_kana":"ナンノウチョウハヤセ","prefecture_code":21},"0535":{"zip_code":"5030535","prefecture":"岐阜県","prefecture_kana":"ギフケン","city":"海津市","city_kana":"カイヅシ","town":"南濃町松山","town_kana":"ナンノウチョウマツヤマ","prefecture_code":21},"0531":{"zip_code":"5030531","prefecture":"岐阜県","prefecture_kana":"ギフケン","city":"海津市","city_kana":"カイヅシ","town":"南濃町安江","town_kana":"ナンノウチョウヤスエ","prefecture_code":21},"0415":{"zip_code":"5030415","prefecture":"岐阜県","prefecture_kana":"ギフケン","city":"海津市","city_kana":"カイヅシ","town":"南濃町山崎","town_kana":"ナンノウチョウヤマザキ","prefecture_code":21},"0536":{"zip_code":"5030536","prefecture":"岐阜県","prefecture_kana":"ギフケン","city":"海津市","city_kana":"カイヅシ","town":"南濃町吉田","town_kana":"ナンノウチョウヨシダ","prefecture_code":21},"0321":{"zip_code":"5030321","prefecture":"岐阜県","prefecture_kana":"ギフケン","city":"海津市","city_kana":"カイヅシ","town":"平田町今尾","town_kana":"ヒラタチョウイマオ","prefecture_code":21},"0307":{"zip_code":"5030307","prefecture":"岐阜県","prefecture_kana":"ギフケン","city":"海津市","city_kana":"カイヅシ","town":"平田町岡","town_kana":"ヒラタチョウオカ","prefecture_code":21},"0302":{"zip_code":"5030302","prefecture":"岐阜県","prefecture_kana":"ギフケン","city":"海津市","city_kana":"カイヅシ","town":"平田町勝賀","town_kana":"ヒラタチョウカツガ","prefecture_code":21},"0312":{"zip_code":"5030312","prefecture":"岐阜県","prefecture_kana":"ギフケン","city":"海津市","city_kana":"カイヅシ","town":"平田町三郷","town_kana":"ヒラタチョウサンゴウ","prefecture_code":21},"0306":{"zip_code":"5030306","prefecture":"岐阜県","prefecture_kana":"ギフケン","city":"海津市","city_kana":"カイヅシ","town":"平田町蛇池","town_kana":"ヒラタチョウジャイケ","prefecture_code":21},"0305":{"zip_code":"5030305","prefecture":"岐阜県","prefecture_kana":"ギフケン","city":"海津市","city_kana":"カイヅシ","town":"平田町者結","town_kana":"ヒラタチョウジャケツ","prefecture_code":21},"0301":{"zip_code":"5030301","prefecture":"岐阜県","prefecture_kana":"ギフケン","city":"海津市","city_kana":"カイヅシ","town":"平田町須賀","town_kana":"ヒラタチョウスカ","prefecture_code":21},"0313":{"zip_code":"5030313","prefecture":"岐阜県","prefecture_kana":"ギフケン","city":"海津市","city_kana":"カイヅシ","town":"平田町高田","town_kana":"ヒラタチョウタカダ","prefecture_code":21},"0322":{"zip_code":"5030322","prefecture":"岐阜県","prefecture_kana":"ギフケン","city":"海津市","city_kana":"カイヅシ","town":"平田町土倉","town_kana":"ヒラタチョウツチクラ","prefecture_code":21},"0314":{"zip_code":"5030314","prefecture":"岐阜県","prefecture_kana":"ギフケン","city":"海津市","city_kana":"カイヅシ","town":"平田町西島","town_kana":"ヒラタチョウニシジマ","prefecture_code":21},"0303":{"zip_code":"5030303","prefecture":"岐阜県","prefecture_kana":"ギフケン","city":"海津市","city_kana":"カイヅシ","town":"平田町野寺","town_kana":"ヒラタチョウノデラ","prefecture_code":21},"0304":{"zip_code":"5030304","prefecture":"岐阜県","prefecture_kana":"ギフケン","city":"海津市","city_kana":"カイヅシ","town":"平田町幡長","town_kana":"ヒラタチョウハタオサ","prefecture_code":21},"0311":{"zip_code":"5030311","prefecture":"岐阜県","prefecture_kana":"ギフケン","city":"海津市","city_kana":"カイヅシ","town":"平田町仏師川","town_kana":"ヒラタチョウブシガワ","prefecture_code":21},"0323":{"zip_code":"5030323","prefecture":"岐阜県","prefecture_kana":"ギフケン","city":"海津市","city_kana":"カイヅシ","town":"平田町脇野","town_kana":"ヒラタチョウワキノ","prefecture_code":21},"1300":{"zip_code":"5031300","prefecture":"岐阜県","prefecture_kana":"ギフケン","city":"養老郡養老町","city_kana":"ヨウロウグンヨウロウチョウ","town":"","town_kana":"","prefecture_code":21},"1277":{"zip_code":"5031277","prefecture":"岐阜県","prefecture_kana":"ギフケン","city":"養老郡養老町","city_kana":"ヨウロウグンヨウロウチョウ","town":"有尾","town_kana":"アリオ","prefecture_code":21},"1304":{"zip_code":"5031304","prefecture":"岐阜県","prefecture_kana":"ギフケン","city":"養老郡養老町","city_kana":"ヨウロウグンヨウロウチョウ","town":"飯田","town_kana":"イイダ","prefecture_code":21},"1336":{"zip_code":"5031336","prefecture":"岐阜県","prefecture_kana":"ギフケン","city":"養老郡養老町","city_kana":"ヨウロウグンヨウロウチョウ","town":"飯積","town_kana":"イイヅミ","prefecture_code":21},"1251":{"zip_code":"5031251","prefecture":"岐阜県","prefecture_kana":"ギフケン","city":"養老郡養老町","city_kana":"ヨウロウグンヨウロウチョウ","town":"石畑","town_kana":"イシバタ","prefecture_code":21},"1311":{"zip_code":"5031311","prefecture":"岐阜県","prefecture_kana":"ギフケン","city":"養老郡養老町","city_kana":"ヨウロウグンヨウロウチョウ","town":"泉町","town_kana":"イズミマチ","prefecture_code":21},"1243":{"zip_code":"5031243","prefecture":"岐阜県","prefecture_kana":"ギフケン","city":"養老郡養老町","city_kana":"ヨウロウグンヨウロウチョウ","town":"五日市","town_kana":"イツカイチ","prefecture_code":21},"1264":{"zip_code":"5031264","prefecture":"岐阜県","prefecture_kana":"ギフケン","city":"養老郡養老町","city_kana":"ヨウロウグンヨウロウチョウ","town":"一色","town_kana":"イッシキ","prefecture_code":21},"1333":{"zip_code":"5031333","prefecture":"岐阜県","prefecture_kana":"ギフケン","city":"養老郡養老町","city_kana":"ヨウロウグンヨウロウチョウ","town":"色目","town_kana":"イロメ","prefecture_code":21},"1321":{"zip_code":"5031321","prefecture":"岐阜県","prefecture_kana":"ギフケン","city":"養老郡養老町","city_kana":"ヨウロウグンヨウロウチョウ","town":"岩道","town_kana":"イワミチ","prefecture_code":21},"1335":{"zip_code":"5031335","prefecture":"岐阜県","prefecture_kana":"ギフケン","city":"養老郡養老町","city_kana":"ヨウロウグンヨウロウチョウ","town":"宇田","town_kana":"ウタ","prefecture_code":21},"1245":{"zip_code":"5031245","prefecture":"岐阜県","prefecture_kana":"ギフケン","city":"養老郡養老町","city_kana":"ヨウロウグンヨウロウチョウ","town":"上方","town_kana":"ウワガタ","prefecture_code":21},"1306":{"zip_code":"5031306","prefecture":"岐阜県","prefecture_kana":"ギフケン","city":"養老郡養老町","city_kana":"ヨウロウグンヨウロウチョウ","town":"江月","town_kana":"エツキ","prefecture_code":21},"1324":{"zip_code":"5031324","prefecture":"岐阜県","prefecture_kana":"ギフケン","city":"養老郡養老町","city_kana":"ヨウロウグンヨウロウチョウ","town":"大跡","town_kana":"オオアト","prefecture_code":21},"1302":{"zip_code":"5031302","prefecture":"岐阜県","prefecture_kana":"ギフケン","city":"養老郡養老町","city_kana":"ヨウロウグンヨウロウチョウ","town":"大坪","town_kana":"オオツボ","prefecture_code":21},"1383":{"zip_code":"5031383","prefecture":"岐阜県","prefecture_kana":"ギフケン","city":"養老郡養老町","city_kana":"ヨウロウグンヨウロウチョウ","town":"大野","town_kana":"オオノ","prefecture_code":21},"1272":{"zip_code":"5031272","prefecture":"岐阜県","prefecture_kana":"ギフケン","city":"養老郡養老町","city_kana":"ヨウロウグンヨウロウチョウ","town":"大場","town_kana":"オオバ","prefecture_code":21},"1275":{"zip_code":"5031275","prefecture":"岐阜県","prefecture_kana":"ギフケン","city":"養老郡養老町","city_kana":"ヨウロウグンヨウロウチョウ","town":"大巻","town_kana":"オオマキ","prefecture_code":21},"1262":{"zip_code":"5031262","prefecture":"岐阜県","prefecture_kana":"ギフケン","city":"養老郡養老町","city_kana":"ヨウロウグンヨウロウチョウ","town":"小倉","town_kana":"オグラ","prefecture_code":21},"1316":{"zip_code":"5031316","prefecture":"岐阜県","prefecture_kana":"ギフケン","city":"養老郡養老町","city_kana":"ヨウロウグンヨウロウチョウ","town":"押越","town_kana":"オシコシ","prefecture_code":21},"1253":{"zip_code":"5031253","prefecture":"岐阜県","prefecture_kana":"ギフケン","city":"養老郡養老町","city_kana":"ヨウロウグンヨウロウチョウ","town":"柏尾","town_kana":"カシワオ","prefecture_code":21},"1339":{"zip_code":"5031339","prefecture":"岐阜県","prefecture_kana":"ギフケン","city":"養老郡養老町","city_kana":"ヨウロウグンヨウロウチョウ","town":"金屋","town_kana":"カナヤ","prefecture_code":21},"1276":{"zip_code":"5031276","prefecture":"岐阜県","prefecture_kana":"ギフケン","city":"養老郡養老町","city_kana":"ヨウロウグンヨウロウチョウ","town":"釜段","town_kana":"カマダン","prefecture_code":21},"1385":{"zip_code":"5031385","prefecture":"岐阜県","prefecture_kana":"ギフケン","city":"養老郡養老町","city_kana":"ヨウロウグンヨウロウチョウ","town":"上之郷","town_kana":"カミノゴウ","prefecture_code":21},"1315":{"zip_code":"5031315","prefecture":"岐阜県","prefecture_kana":"ギフケン","city":"養老郡養老町","city_kana":"ヨウロウグンヨウロウチョウ","town":"烏江","town_kana":"カラスエ","prefecture_code":21},"1266":{"zip_code":"5031266","prefecture":"岐阜県","prefecture_kana":"ギフケン","city":"養老郡養老町","city_kana":"ヨウロウグンヨウロウチョウ","town":"京ケ脇","town_kana":"キョウガワキ","prefecture_code":21},"1323":{"zip_code":"5031323","prefecture":"岐阜県","prefecture_kana":"ギフケン","city":"養老郡養老町","city_kana":"ヨウロウグンヨウロウチョウ","town":"口ケ島","town_kana":"クチガシマ","prefecture_code":21},"1381":{"zip_code":"5031381","prefecture":"岐阜県","prefecture_kana":"ギフケン","city":"養老郡養老町","city_kana":"ヨウロウグンヨウロウチョウ","town":"栗笠","town_kana":"クリガサ","prefecture_code":21},"1242":{"zip_code":"5031242","prefecture":"岐阜県","prefecture_kana":"ギフケン","city":"養老郡養老町","city_kana":"ヨウロウグンヨウロウチョウ","town":"桜井","town_kana":"サクライ","prefecture_code":21},"1241":{"zip_code":"5031241","prefecture":"岐阜県","prefecture_kana":"ギフケン","city":"養老郡養老町","city_kana":"ヨウロウグンヨウロウチョウ","town":"沢田","town_kana":"サワダ","prefecture_code":21},"1384":{"zip_code":"5031384","prefecture":"岐阜県","prefecture_kana":"ギフケン","city":"養老郡養老町","city_kana":"ヨウロウグンヨウロウチョウ","town":"下笠","town_kana":"シモガサ","prefecture_code":21},"1303":{"zip_code":"5031303","prefecture":"岐阜県","prefecture_kana":"ギフケン","city":"養老郡養老町","city_kana":"ヨウロウグンヨウロウチョウ","town":"蛇持","town_kana":"ジャモチ","prefecture_code":21},"1256":{"zip_code":"5031256","prefecture":"岐阜県","prefecture_kana":"ギフケン","city":"養老郡養老町","city_kana":"ヨウロウグンヨウロウチョウ","town":"勢至","town_kana":"セイシ","prefecture_code":21},"1305":{"zip_code":"5031305","prefecture":"岐阜県","prefecture_kana":"ギフケン","city":"養老郡養老町","city_kana":"ヨウロウグンヨウロウチョウ","town":"祖父江","town_kana":"ソブエ","prefecture_code":21},"1271":{"zip_code":"5031271","prefecture":"岐阜県","prefecture_kana":"ギフケン","city":"養老郡養老町","city_kana":"ヨウロウグンヨウロウチョウ","town":"田","town_kana":"タ","prefecture_code":21},"1314":{"zip_code":"5031314","prefecture":"岐阜県","prefecture_kana":"ギフケン","city":"養老郡養老町","city_kana":"ヨウロウグンヨウロウチョウ","town":"高田","town_kana":"タカダ","prefecture_code":21},"1313":{"zip_code":"5031313","prefecture":"岐阜県","prefecture_kana":"ギフケン","city":"養老郡養老町","city_kana":"ヨウロウグンヨウロウチョウ","town":"高田馬場町","town_kana":"タカダババチョウ","prefecture_code":21},"1267":{"zip_code":"5031267","prefecture":"岐阜県","prefecture_kana":"ギフケン","city":"養老郡養老町","city_kana":"ヨウロウグンヨウロウチョウ","town":"高林","town_kana":"タカバヤシ","prefecture_code":21},"1317":{"zip_code":"5031317","prefecture":"岐阜県","prefecture_kana":"ギフケン","city":"養老郡養老町","city_kana":"ヨウロウグンヨウロウチョウ","town":"滝見町","town_kana":"タキミマチ","prefecture_code":21},"1334":{"zip_code":"5031334","prefecture":"岐阜県","prefecture_kana":"ギフケン","city":"養老郡養老町","city_kana":"ヨウロウグンヨウロウチョウ","town":"豊","town_kana":"トヨ","prefecture_code":21},"1337":{"zip_code":"5031337","prefecture":"岐阜県","prefecture_kana":"ギフケン","city":"養老郡養老町","city_kana":"ヨウロウグンヨウロウチョウ","town":"直江","town_kana":"ナオエ","prefecture_code":21},"1332":{"zip_code":"5031332","prefecture":"岐阜県","prefecture_kana":"ギフケン","city":"養老郡養老町","city_kana":"ヨウロウグンヨウロウチョウ","town":"中","town_kana":"ナカ","prefecture_code":21},"1322":{"zip_code":"5031322","prefecture":"岐阜県","prefecture_kana":"ギフケン","city":"養老郡養老町","city_kana":"ヨウロウグンヨウロウチョウ","town":"西岩道","town_kana":"ニシイワミチ","prefecture_code":21},"1268":{"zip_code":"5031268","prefecture":"岐阜県","prefecture_kana":"ギフケン","city":"養老郡養老町","city_kana":"ヨウロウグンヨウロウチョウ","town":"西小倉","town_kana":"ニシオグラ","prefecture_code":21},"1273":{"zip_code":"5031273","prefecture":"岐阜県","prefecture_kana":"ギフケン","city":"養老郡養老町","city_kana":"ヨウロウグンヨウロウチョウ","town":"根古地","town_kana":"ネコジ","prefecture_code":21},"1331":{"zip_code":"5031331","prefecture":"岐阜県","prefecture_kana":"ギフケン","city":"養老郡養老町","city_kana":"ヨウロウグンヨウロウチョウ","town":"橋爪","town_kana":"ハシヅメ","prefecture_code":21},"1325":{"zip_code":"5031325","prefecture":"岐阜県","prefecture_kana":"ギフケン","city":"養老郡養老町","city_kana":"ヨウロウグンヨウロウチョウ","town":"飯ノ木","town_kana":"ハンノキ","prefecture_code":21},"1382":{"zip_code":"5031382","prefecture":"岐阜県","prefecture_kana":"ギフケン","city":"養老郡養老町","city_kana":"ヨウロウグンヨウロウチョウ","town":"船附","town_kana":"フナツケ","prefecture_code":21},"1263":{"zip_code":"5031263","prefecture":"岐阜県","prefecture_kana":"ギフケン","city":"養老郡養老町","city_kana":"ヨウロウグンヨウロウチョウ","town":"船見","town_kana":"フナミ","prefecture_code":21},"1312":{"zip_code":"5031312","prefecture":"岐阜県","prefecture_kana":"ギフケン","city":"養老郡養老町","city_kana":"ヨウロウグンヨウロウチョウ","town":"三神町","town_kana":"ミカミマチ","prefecture_code":21},"1274":{"zip_code":"5031274","prefecture":"岐阜県","prefecture_kana":"ギフケン","city":"養老郡養老町","city_kana":"ヨウロウグンヨウロウチョウ","town":"瑞穂","town_kana":"ミズホ","prefecture_code":21},"1252":{"zip_code":"5031252","prefecture":"岐阜県","prefecture_kana":"ギフケン","city":"養老郡養老町","city_kana":"ヨウロウグンヨウロウチョウ","town":"明徳","town_kana":"ミョウトク","prefecture_code":21},"1301":{"zip_code":"5031301","prefecture":"岐阜県","prefecture_kana":"ギフケン","city":"養老郡養老町","city_kana":"ヨウロウグンヨウロウチョウ","town":"室原","town_kana":"ムロハラ","prefecture_code":21},"1338":{"zip_code":"5031338","prefecture":"岐阜県","prefecture_kana":"ギフケン","city":"養老郡養老町","city_kana":"ヨウロウグンヨウロウチョウ","town":"安久","town_kana":"ヤスヒサ","prefecture_code":21},"1255":{"zip_code":"5031255","prefecture":"岐阜県","prefecture_kana":"ギフケン","city":"養老郡養老町","city_kana":"ヨウロウグンヨウロウチョウ","town":"養老","town_kana":"ヨウロウ","prefecture_code":21},"1254":{"zip_code":"5031254","prefecture":"岐阜県","prefecture_kana":"ギフケン","city":"養老郡養老町","city_kana":"ヨウロウグンヨウロウチョウ","town":"養老公園","town_kana":"ヨウロウコウエン","prefecture_code":21},"1278":{"zip_code":"5031278","prefecture":"岐阜県","prefecture_kana":"ギフケン","city":"養老郡養老町","city_kana":"ヨウロウグンヨウロウチョウ","town":"横屋","town_kana":"ヨコヤ","prefecture_code":21},"1244":{"zip_code":"5031244","prefecture":"岐阜県","prefecture_kana":"ギフケン","city":"養老郡養老町","city_kana":"ヨウロウグンヨウロウチョウ","town":"竜泉寺","town_kana":"リュウセンジ","prefecture_code":21},"1265":{"zip_code":"5031265","prefecture":"岐阜県","prefecture_kana":"ギフケン","city":"養老郡養老町","city_kana":"ヨウロウグンヨウロウチョウ","town":"若宮","town_kana":"ワカミヤ","prefecture_code":21},"1261":{"zip_code":"5031261","prefecture":"岐阜県","prefecture_kana":"ギフケン","city":"養老郡養老町","city_kana":"ヨウロウグンヨウロウチョウ","town":"鷲巣","town_kana":"ワシノス","prefecture_code":21},"2100":{"zip_code":"5032100","prefecture":"岐阜県","prefecture_kana":"ギフケン","city":"不破郡垂井町","city_kana":"フワグンタルイチョウ","town":"","town_kana":"","prefecture_code":21},"2121":{"zip_code":"5032121","prefecture":"岐阜県","prefecture_kana":"ギフケン","city":"不破郡垂井町","city_kana":"フワグンタルイチョウ","town":"","town_kana":"","prefecture_code":21},"2112":{"zip_code":"5032112","prefecture":"岐阜県","prefecture_kana":"ギフケン","city":"不破郡垂井町","city_kana":"フワグンタルイチョウ","town":"綾戸","town_kana":"アヤド","prefecture_code":21},"2105":{"zip_code":"5032105","prefecture":"岐阜県","prefecture_kana":"ギフケン","city":"不破郡垂井町","city_kana":"フワグンタルイチョウ","town":"新井","town_kana":"アライ","prefecture_code":21},"2104":{"zip_code":"5032104","prefecture":"岐阜県","prefecture_kana":"ギフケン","city":"不破郡垂井町","city_kana":"フワグンタルイチョウ","town":"市之尾","town_kana":"イチノオ","prefecture_code":21},"2106":{"zip_code":"5032106","prefecture":"岐阜県","prefecture_kana":"ギフケン","city":"不破郡垂井町","city_kana":"フワグンタルイチョウ","town":"伊吹","town_kana":"イブキ","prefecture_code":21},"2107":{"zip_code":"5032107","prefecture":"岐阜県","prefecture_kana":"ギフケン","city":"不破郡垂井町","city_kana":"フワグンタルイチョウ","town":"岩手","town_kana":"イワデ","prefecture_code":21},"2103":{"zip_code":"5032103","prefecture":"岐阜県","prefecture_kana":"ギフケン","city":"不破郡垂井町","city_kana":"フワグンタルイチョウ","town":"梅谷","town_kana":"ウメタニ","prefecture_code":21},"2108":{"zip_code":"5032108","prefecture":"岐阜県","prefecture_kana":"ギフケン","city":"不破郡垂井町","city_kana":"フワグンタルイチョウ","town":"大石","town_kana":"オオイシ","prefecture_code":21},"2101":{"zip_code":"5032101","prefecture":"岐阜県","prefecture_kana":"ギフケン","city":"不破郡垂井町","city_kana":"フワグンタルイチョウ","town":"大滝","town_kana":"オオタキ","prefecture_code":21},"2122":{"zip_code":"5032122","prefecture":"岐阜県","prefecture_kana":"ギフケン","city":"不破郡垂井町","city_kana":"フワグンタルイチョウ","town":"表佐","town_kana":"オサ","prefecture_code":21},"2123":{"zip_code":"5032123","prefecture":"岐阜県","prefecture_kana":"ギフケン","city":"不破郡垂井町","city_kana":"フワグンタルイチョウ","town":"栗原","town_kana":"クリハラ","prefecture_code":21},"2102":{"zip_code":"5032102","prefecture":"岐阜県","prefecture_kana":"ギフケン","city":"不破郡垂井町","city_kana":"フワグンタルイチョウ","town":"敷原","town_kana":"シキハラ","prefecture_code":21},"2113":{"zip_code":"5032113","prefecture":"岐阜県","prefecture_kana":"ギフケン","city":"不破郡垂井町","city_kana":"フワグンタルイチョウ","town":"清水","town_kana":"シミズ","prefecture_code":21},"2125":{"zip_code":"5032125","prefecture":"岐阜県","prefecture_kana":"ギフケン","city":"不破郡垂井町","city_kana":"フワグンタルイチョウ","town":"東神田","town_kana":"ヒガシカンダ","prefecture_code":21},"2111":{"zip_code":"5032111","prefecture":"岐阜県","prefecture_kana":"ギフケン","city":"不破郡垂井町","city_kana":"フワグンタルイチョウ","town":"平尾","town_kana":"ヒラオ","prefecture_code":21},"2114":{"zip_code":"5032114","prefecture":"岐阜県","prefecture_kana":"ギフケン","city":"不破郡垂井町","city_kana":"フワグンタルイチョウ","town":"府中","town_kana":"フチュウ","prefecture_code":21},"2109":{"zip_code":"5032109","prefecture":"岐阜県","prefecture_kana":"ギフケン","city":"不破郡垂井町","city_kana":"フワグンタルイチョウ","town":"南新井","town_kana":"ミナミアライ","prefecture_code":21},"2124":{"zip_code":"5032124","prefecture":"岐阜県","prefecture_kana":"ギフケン","city":"不破郡垂井町","city_kana":"フワグンタルイチョウ","town":"宮代","town_kana":"ミヤシロ","prefecture_code":21},"1500":{"zip_code":"5031500","prefecture":"岐阜県","prefecture_kana":"ギフケン","city":"不破郡関ケ原町","city_kana":"フワグンセキガハラチョウ","town":"","town_kana":"","prefecture_code":21},"1514":[{"zip_code":"5031514","prefecture":"岐阜県","prefecture_kana":"ギフケン","city":"不破郡関ケ原町","city_kana":"フワグンセキガハラチョウ","town":"稲荷","town_kana":"イナリ","prefecture_code":21},{"zip_code":"5031514","prefecture":"岐阜県","prefecture_kana":"ギフケン","city":"不破郡関ケ原町","city_kana":"フワグンセキガハラチョウ","town":"西町","town_kana":"ニシマチ","prefecture_code":21}],"1543":{"zip_code":"5031543","prefecture":"岐阜県","prefecture_kana":"ギフケン","city":"不破郡関ケ原町","city_kana":"フワグンセキガハラチョウ","town":"今須","town_kana":"イマス","prefecture_code":21},"1531":{"zip_code":"5031531","prefecture":"岐阜県","prefecture_kana":"ギフケン","city":"不破郡関ケ原町","city_kana":"フワグンセキガハラチョウ","town":"大高","town_kana":"オダカ","prefecture_code":21},"1512":{"zip_code":"5031512","prefecture":"岐阜県","prefecture_kana":"ギフケン","city":"不破郡関ケ原町","city_kana":"フワグンセキガハラチョウ","town":"公門","town_kana":"クモン","prefecture_code":21},"1523":[{"zip_code":"5031523","prefecture":"岐阜県","prefecture_kana":"ギフケン","city":"不破郡関ケ原町","city_kana":"フワグンセキガハラチョウ","town":"小池","town_kana":"コイケ","prefecture_code":21},{"zip_code":"5031523","prefecture":"岐阜県","prefecture_kana":"ギフケン","city":"不破郡関ケ原町","city_kana":"フワグンセキガハラチョウ","town":"小関","town_kana":"コゼキ","prefecture_code":21}],"1524":[{"zip_code":"5031524","prefecture":"岐阜県","prefecture_kana":"ギフケン","city":"不破郡関ケ原町","city_kana":"フワグンセキガハラチョウ","town":"御祭田","town_kana":"ゴサイデン","prefecture_code":21},{"zip_code":"5031524","prefecture":"岐阜県","prefecture_kana":"ギフケン","city":"不破郡関ケ原町","city_kana":"フワグンセキガハラチョウ","town":"笹尾","town_kana":"ササオ","prefecture_code":21},{"zip_code":"5031524","prefecture":"岐阜県","prefecture_kana":"ギフケン","city":"不破郡関ケ原町","city_kana":"フワグンセキガハラチョウ","town":"緑ケ丘","town_kana":"ミドリガオカ","prefecture_code":21}],"1522":{"zip_code":"5031522","prefecture":"岐阜県","prefecture_kana":"ギフケン","city":"不破郡関ケ原町","city_kana":"フワグンセキガハラチョウ","town":"陣場野","town_kana":"ジンバノ","prefecture_code":21},"1501":{"zip_code":"5031501","prefecture":"岐阜県","prefecture_kana":"ギフケン","city":"不破郡関ケ原町","city_kana":"フワグンセキガハラチョウ","town":"関ケ原","town_kana":"セキガハラ","prefecture_code":21},"1545":{"zip_code":"5031545","prefecture":"岐阜県","prefecture_kana":"ギフケン","city":"不破郡関ケ原町","city_kana":"フワグンセキガハラチョウ","town":"玉","town_kana":"タマ","prefecture_code":21},"1542":{"zip_code":"5031542","prefecture":"岐阜県","prefecture_kana":"ギフケン","city":"不破郡関ケ原町","city_kana":"フワグンセキガハラチョウ","town":"藤下","town_kana":"トウゲ","prefecture_code":21},"1515":{"zip_code":"5031515","prefecture":"岐阜県","prefecture_kana":"ギフケン","city":"不破郡関ケ原町","city_kana":"フワグンセキガハラチョウ","town":"中町","town_kana":"ナカマチ","prefecture_code":21},"1513":{"zip_code":"5031513","prefecture":"岐阜県","prefecture_kana":"ギフケン","city":"不破郡関ケ原町","city_kana":"フワグンセキガハラチョウ","town":"中山","town_kana":"ナカヤマ","prefecture_code":21},"1532":{"zip_code":"5031532","prefecture":"岐阜県","prefecture_kana":"ギフケン","city":"不破郡関ケ原町","city_kana":"フワグンセキガハラチョウ","town":"野上","town_kana":"ノガミ","prefecture_code":21},"1511":{"zip_code":"5031511","prefecture":"岐阜県","prefecture_kana":"ギフケン","city":"不破郡関ケ原町","city_kana":"フワグンセキガハラチョウ","town":"東町","town_kana":"ヒガシマチ","prefecture_code":21},"1521":{"zip_code":"5031521","prefecture":"岐阜県","prefecture_kana":"ギフケン","city":"不破郡関ケ原町","city_kana":"フワグンセキガハラチョウ","town":"宝有","town_kana":"ホウユウ","prefecture_code":21},"1541":{"zip_code":"5031541","prefecture":"岐阜県","prefecture_kana":"ギフケン","city":"不破郡関ケ原町","city_kana":"フワグンセキガハラチョウ","town":"松尾","town_kana":"マツオ","prefecture_code":21},"1544":{"zip_code":"5031544","prefecture":"岐阜県","prefecture_kana":"ギフケン","city":"不破郡関ケ原町","city_kana":"フワグンセキガハラチョウ","town":"山中","town_kana":"ヤマナカ","prefecture_code":21},"2300":{"zip_code":"5032300","prefecture":"岐阜県","prefecture_kana":"ギフケン","city":"安八郡神戸町","city_kana":"アンパチグンゴウドチョウ","town":"","town_kana":"","prefecture_code":21},"2327":{"zip_code":"5032327","prefecture":"岐阜県","prefecture_kana":"ギフケン","city":"安八郡神戸町","city_kana":"アンパチグンゴウドチョウ","town":"和泉","town_kana":"イズミ","prefecture_code":21},"2314":{"zip_code":"5032314","prefecture":"岐阜県","prefecture_kana":"ギフケン","city":"安八郡神戸町","city_kana":"アンパチグンゴウドチョウ","town":"落合","town_kana":"オチアイ","prefecture_code":21},"2325":{"zip_code":"5032325","prefecture":"岐阜県","prefecture_kana":"ギフケン","city":"安八郡神戸町","city_kana":"アンパチグンゴウドチョウ","town":"加納","town_kana":"カノウ","prefecture_code":21},"2311":{"zip_code":"5032311","prefecture":"岐阜県","prefecture_kana":"ギフケン","city":"安八郡神戸町","city_kana":"アンパチグンゴウドチョウ","town":"川西","town_kana":"カワニシ","prefecture_code":21},"2306":{"zip_code":"5032306","prefecture":"岐阜県","prefecture_kana":"ギフケン","city":"安八郡神戸町","city_kana":"アンパチグンゴウドチョウ","town":"北一色","town_kana":"キタイシキ","prefecture_code":21},"2305":{"zip_code":"5032305","prefecture":"岐阜県","prefecture_kana":"ギフケン","city":"安八郡神戸町","city_kana":"アンパチグンゴウドチョウ","town":"神戸","town_kana":"ゴウド","prefecture_code":21},"2316":{"zip_code":"5032316","prefecture":"岐阜県","prefecture_kana":"ギフケン","city":"安八郡神戸町","city_kana":"アンパチグンゴウドチョウ","town":"斉田","town_kana":"サイダ","prefecture_code":21},"2322":{"zip_code":"5032322","prefecture":"岐阜県","prefecture_kana":"ギフケン","city":"安八郡神戸町","city_kana":"アンパチグンゴウドチョウ","town":"更屋敷","town_kana":"サラヤシキ","prefecture_code":21},"2312":{"zip_code":"5032312","prefecture":"岐阜県","prefecture_kana":"ギフケン","city":"安八郡神戸町","city_kana":"アンパチグンゴウドチョウ","town":"下宮","town_kana":"シモミヤ","prefecture_code":21},"2304":{"zip_code":"5032304","prefecture":"岐阜県","prefecture_kana":"ギフケン","city":"安八郡神戸町","city_kana":"アンパチグンゴウドチョウ","town":"丈六道","town_kana":"ジョウロクドウ","prefecture_code":21},"2313":{"zip_code":"5032313","prefecture":"岐阜県","prefecture_kana":"ギフケン","city":"安八郡神戸町","city_kana":"アンパチグンゴウドチョウ","town":"新屋敷","town_kana":"シンヤシキ","prefecture_code":21},"2321":{"zip_code":"5032321","prefecture":"岐阜県","prefecture_kana":"ギフケン","city":"安八郡神戸町","city_kana":"アンパチグンゴウドチョウ","town":"末守","town_kana":"スエモリ","prefecture_code":21},"2318":{"zip_code":"5032318","prefecture":"岐阜県","prefecture_kana":"ギフケン","city":"安八郡神戸町","city_kana":"アンパチグンゴウドチョウ","town":"瀬古","town_kana":"セコ","prefecture_code":21},"2302":{"zip_code":"5032302","prefecture":"岐阜県","prefecture_kana":"ギフケン","city":"安八郡神戸町","city_kana":"アンパチグンゴウドチョウ","town":"田","town_kana":"タ","prefecture_code":21},"2315":{"zip_code":"5032315","prefecture":"岐阜県","prefecture_kana":"ギフケン","city":"安八郡神戸町","city_kana":"アンパチグンゴウドチョウ","town":"付寄","town_kana":"ツキヨリ","prefecture_code":21},"2326":{"zip_code":"5032326","prefecture":"岐阜県","prefecture_kana":"ギフケン","city":"安八郡神戸町","city_kana":"アンパチグンゴウドチョウ","town":"中沢","town_kana":"ナカザワ","prefecture_code":21},"2341":{"zip_code":"5032341","prefecture":"岐阜県","prefecture_kana":"ギフケン","city":"安八郡神戸町","city_kana":"アンパチグンゴウドチョウ","town":"西座倉","town_kana":"ニシザクラ","prefecture_code":21},"2323":{"zip_code":"5032323","prefecture":"岐阜県","prefecture_kana":"ギフケン","city":"安八郡神戸町","city_kana":"アンパチグンゴウドチョウ","town":"西保","town_kana":"ニシノホ","prefecture_code":21},"2324":{"zip_code":"5032324","prefecture":"岐阜県","prefecture_kana":"ギフケン","city":"安八郡神戸町","city_kana":"アンパチグンゴウドチョウ","town":"八条","town_kana":"ハチジョウ","prefecture_code":21},"2319":{"zip_code":"5032319","prefecture":"岐阜県","prefecture_kana":"ギフケン","city":"安八郡神戸町","city_kana":"アンパチグンゴウドチョウ","town":"前田","town_kana":"マエダ","prefecture_code":21},"2328":{"zip_code":"5032328","prefecture":"岐阜県","prefecture_kana":"ギフケン","city":"安八郡神戸町","city_kana":"アンパチグンゴウドチョウ","town":"南方","town_kana":"ミナミガタ","prefecture_code":21},"2303":{"zip_code":"5032303","prefecture":"岐阜県","prefecture_kana":"ギフケン","city":"安八郡神戸町","city_kana":"アンパチグンゴウドチョウ","town":"安次","town_kana":"ヤスツグ","prefecture_code":21},"2317":{"zip_code":"5032317","prefecture":"岐阜県","prefecture_kana":"ギフケン","city":"安八郡神戸町","city_kana":"アンパチグンゴウドチョウ","town":"柳瀬","town_kana":"ヤナゼ","prefecture_code":21},"2301":{"zip_code":"5032301","prefecture":"岐阜県","prefecture_kana":"ギフケン","city":"安八郡神戸町","city_kana":"アンパチグンゴウドチョウ","town":"横井","town_kana":"ヨコイ","prefecture_code":21},"0200":{"zip_code":"5030200","prefecture":"岐阜県","prefecture_kana":"ギフケン","city":"安八郡輪之内町","city_kana":"アンパチグンワノウチチョウ","town":"","town_kana":"","prefecture_code":21},"0202":{"zip_code":"5030202","prefecture":"岐阜県","prefecture_kana":"ギフケン","city":"安八郡輪之内町","city_kana":"アンパチグンワノウチチョウ","town":"大藪","town_kana":"オオヤブ","prefecture_code":21},"0216":{"zip_code":"5030216","prefecture":"岐阜県","prefecture_kana":"ギフケン","city":"安八郡輪之内町","city_kana":"アンパチグンワノウチチョウ","town":"大吉新田","town_kana":"オオヨシシンデン","prefecture_code":21},"0234":{"zip_code":"5030234","prefecture":"岐阜県","prefecture_kana":"ギフケン","city":"安八郡輪之内町","city_kana":"アンパチグンワノウチチョウ","town":"里","town_kana":"サト","prefecture_code":21},"0236":{"zip_code":"5030236","prefecture":"岐阜県","prefecture_kana":"ギフケン","city":"安八郡輪之内町","city_kana":"アンパチグンワノウチチョウ","town":"塩喰","town_kana":"シオバミ","prefecture_code":21},"0205":{"zip_code":"5030205","prefecture":"岐阜県","prefecture_kana":"ギフケン","city":"安八郡輪之内町","city_kana":"アンパチグンワノウチチョウ","town":"下大榑","town_kana":"シモオオグレ","prefecture_code":21},"0206":{"zip_code":"5030206","prefecture":"岐阜県","prefecture_kana":"ギフケン","city":"安八郡輪之内町","city_kana":"アンパチグンワノウチチョウ","town":"下大榑新田","town_kana":"シモオオグレシンデン","prefecture_code":21},"0233":{"zip_code":"5030233","prefecture":"岐阜県","prefecture_kana":"ギフケン","city":"安八郡輪之内町","city_kana":"アンパチグンワノウチチョウ","town":"中郷","town_kana":"ナカゴウ","prefecture_code":21},"0212":{"zip_code":"5030212","prefecture":"岐阜県","prefecture_kana":"ギフケン","city":"安八郡輪之内町","city_kana":"アンパチグンワノウチチョウ","town":"中郷新田","town_kana":"ナカゴウシンデン","prefecture_code":21},"0231":{"zip_code":"5030231","prefecture":"岐阜県","prefecture_kana":"ギフケン","city":"安八郡輪之内町","city_kana":"アンパチグンワノウチチョウ","town":"南波","town_kana":"ナンバ","prefecture_code":21},"0201":{"zip_code":"5030201","prefecture":"岐阜県","prefecture_kana":"ギフケン","city":"安八郡輪之内町","city_kana":"アンパチグンワノウチチョウ","town":"楡俣","town_kana":"ニレマタ","prefecture_code":21},"0203":{"zip_code":"5030203","prefecture":"岐阜県","prefecture_kana":"ギフケン","city":"安八郡輪之内町","city_kana":"アンパチグンワノウチチョウ","town":"楡俣新田","town_kana":"ニレマタシンデン","prefecture_code":21},"0235":{"zip_code":"5030235","prefecture":"岐阜県","prefecture_kana":"ギフケン","city":"安八郡輪之内町","city_kana":"アンパチグンワノウチチョウ","town":"福束","town_kana":"フクヅカ","prefecture_code":21},"0211":{"zip_code":"5030211","prefecture":"岐阜県","prefecture_kana":"ギフケン","city":"安八郡輪之内町","city_kana":"アンパチグンワノウチチョウ","town":"福束新田","town_kana":"フクヅカシンデン","prefecture_code":21},"0232":{"zip_code":"5030232","prefecture":"岐阜県","prefecture_kana":"ギフケン","city":"安八郡輪之内町","city_kana":"アンパチグンワノウチチョウ","town":"本戸","town_kana":"ホンド","prefecture_code":21},"0215":{"zip_code":"5030215","prefecture":"岐阜県","prefecture_kana":"ギフケン","city":"安八郡輪之内町","city_kana":"アンパチグンワノウチチョウ","town":"松内","town_kana":"マツウチ","prefecture_code":21},"0214":{"zip_code":"5030214","prefecture":"岐阜県","prefecture_kana":"ギフケン","city":"安八郡輪之内町","city_kana":"アンパチグンワノウチチョウ","town":"海松新田","town_kana":"ミルシンデン","prefecture_code":21},"0213":{"zip_code":"5030213","prefecture":"岐阜県","prefecture_kana":"ギフケン","city":"安八郡輪之内町","city_kana":"アンパチグンワノウチチョウ","town":"藻池新田","town_kana":"モイケシンデン","prefecture_code":21},"0204":{"zip_code":"5030204","prefecture":"岐阜県","prefecture_kana":"ギフケン","city":"安八郡輪之内町","city_kana":"アンパチグンワノウチチョウ","town":"四郷","town_kana":"ヨゴウ","prefecture_code":21},"0100":{"zip_code":"5030100","prefecture":"岐阜県","prefecture_kana":"ギフケン","city":"安八郡安八町","city_kana":"アンパチグンアンパチチョウ","town":"","town_kana":"","prefecture_code":21},"0128":{"zip_code":"5030128","prefecture":"岐阜県","prefecture_kana":"ギフケン","city":"安八郡安八町","city_kana":"アンパチグンアンパチチョウ","town":"大野","town_kana":"オオノ","prefecture_code":21},"0116":{"zip_code":"5030116","prefecture":"岐阜県","prefecture_kana":"ギフケン","city":"安八郡安八町","city_kana":"アンパチグンアンパチチョウ","town":"大森","town_kana":"オオモリ","prefecture_code":21},"0113":{"zip_code":"5030113","prefecture":"岐阜県","prefecture_kana":"ギフケン","city":"安八郡安八町","city_kana":"アンパチグンアンパチチョウ","town":"北今ケ渕","town_kana":"キタイマガフチ","prefecture_code":21},"0121":{"zip_code":"5030121","prefecture":"岐阜県","prefecture_kana":"ギフケン","city":"安八郡安八町","city_kana":"アンパチグンアンパチチョウ","town":"氷取","town_kana":"コオリトリ","prefecture_code":21},"0112":[{"zip_code":"5030112","prefecture":"岐阜県","prefecture_kana":"ギフケン","city":"安八郡安八町","city_kana":"アンパチグンアンパチチョウ","town":"芝原","town_kana":"シバハラ","prefecture_code":21},{"zip_code":"5030112","prefecture":"岐阜県","prefecture_kana":"ギフケン","city":"安八郡安八町","city_kana":"アンパチグンアンパチチョウ","town":"東結","town_kana":"ヒガシムスブ","prefecture_code":21}],"0127":{"zip_code":"5030127","prefecture":"岐阜県","prefecture_kana":"ギフケン","city":"安八郡安八町","city_kana":"アンパチグンアンパチチョウ","town":"城","town_kana":"シロ","prefecture_code":21},"0122":{"zip_code":"5030122","prefecture":"岐阜県","prefecture_kana":"ギフケン","city":"安八郡安八町","city_kana":"アンパチグンアンパチチョウ","town":"善光","town_kana":"ゼンコウ","prefecture_code":21},"0129":{"zip_code":"5030129","prefecture":"岐阜県","prefecture_kana":"ギフケン","city":"安八郡安八町","city_kana":"アンパチグンアンパチチョウ","town":"外善光","town_kana":"ソトゼンコウ","prefecture_code":21},"0117":{"zip_code":"5030117","prefecture":"岐阜県","prefecture_kana":"ギフケン","city":"安八郡安八町","city_kana":"アンパチグンアンパチチョウ","town":"大明神","town_kana":"ダイミョウジン","prefecture_code":21},"0124":{"zip_code":"5030124","prefecture":"岐阜県","prefecture_kana":"ギフケン","city":"安八郡安八町","city_kana":"アンパチグンアンパチチョウ","town":"中","town_kana":"ナカ","prefecture_code":21},"0126":{"zip_code":"5030126","prefecture":"岐阜県","prefecture_kana":"ギフケン","city":"安八郡安八町","city_kana":"アンパチグンアンパチチョウ","town":"中須","town_kana":"ナカズ","prefecture_code":21},"0111":{"zip_code":"5030111","prefecture":"岐阜県","prefecture_kana":"ギフケン","city":"安八郡安八町","city_kana":"アンパチグンアンパチチョウ","town":"西結","town_kana":"ニシムスブ","prefecture_code":21},"0118":{"zip_code":"5030118","prefecture":"岐阜県","prefecture_kana":"ギフケン","city":"安八郡安八町","city_kana":"アンパチグンアンパチチョウ","town":"宝江","town_kana":"ホウエ","prefecture_code":21},"0125":{"zip_code":"5030125","prefecture":"岐阜県","prefecture_kana":"ギフケン","city":"安八郡安八町","city_kana":"アンパチグンアンパチチョウ","town":"牧","town_kana":"マキ","prefecture_code":21},"0115":{"zip_code":"5030115","prefecture":"岐阜県","prefecture_kana":"ギフケン","city":"安八郡安八町","city_kana":"アンパチグンアンパチチョウ","town":"南今ケ渕","town_kana":"ミナミイマガフチ","prefecture_code":21},"0123":{"zip_code":"5030123","prefecture":"岐阜県","prefecture_kana":"ギフケン","city":"安八郡安八町","city_kana":"アンパチグンアンパチチョウ","town":"南條","town_kana":"ミナミジョウ","prefecture_code":21},"0114":{"zip_code":"5030114","prefecture":"岐阜県","prefecture_kana":"ギフケン","city":"安八郡安八町","city_kana":"アンパチグンアンパチチョウ","town":"森部","town_kana":"モリベ","prefecture_code":21},"2503":{"zip_code":"5032503","prefecture":"岐阜県","prefecture_kana":"ギフケン","city":"揖斐郡揖斐川町","city_kana":"イビグンイビガワチョウ","town":"春日川合","town_kana":"カスガカワイ","prefecture_code":21},"2506":{"zip_code":"5032506","prefecture":"岐阜県","prefecture_kana":"ギフケン","city":"揖斐郡揖斐川町","city_kana":"イビグンイビガワチョウ","town":"春日香六","town_kana":"カスガコウロク","prefecture_code":21},"2505":{"zip_code":"5032505","prefecture":"岐阜県","prefecture_kana":"ギフケン","city":"揖斐郡揖斐川町","city_kana":"イビグンイビガワチョウ","town":"春日小宮神","town_kana":"カスガコミヤカミ","prefecture_code":21},"2504":{"zip_code":"5032504","prefecture":"岐阜県","prefecture_kana":"ギフケン","city":"揖斐郡揖斐川町","city_kana":"イビグンイビガワチョウ","town":"春日中山","town_kana":"カスガナカヤマ","prefecture_code":21},"2501":{"zip_code":"5032501","prefecture":"岐阜県","prefecture_kana":"ギフケン","city":"揖斐郡揖斐川町","city_kana":"イビグンイビガワチョウ","town":"春日美束","town_kana":"カスガミツカ","prefecture_code":21},"2502":{"zip_code":"5032502","prefecture":"岐阜県","prefecture_kana":"ギフケン","city":"揖斐郡揖斐川町","city_kana":"イビグンイビガワチョウ","town":"春日六合","town_kana":"カスガロクゴウ","prefecture_code":21},"2400":{"zip_code":"5032400","prefecture":"岐阜県","prefecture_kana":"ギフケン","city":"揖斐郡池田町","city_kana":"イビグンイケダチョウ","town":"","town_kana":"","prefecture_code":21},"2423":{"zip_code":"5032423","prefecture":"岐阜県","prefecture_kana":"ギフケン","city":"揖斐郡池田町","city_kana":"イビグンイケダチョウ","town":"青柳","town_kana":"アオヤナギ","prefecture_code":21},"2424":{"zip_code":"5032424","prefecture":"岐阜県","prefecture_kana":"ギフケン","city":"揖斐郡池田町","city_kana":"イビグンイケダチョウ","town":"池野","town_kana":"イケノ","prefecture_code":21},"2427":{"zip_code":"5032427","prefecture":"岐阜県","prefecture_kana":"ギフケン","city":"揖斐郡池田町","city_kana":"イビグンイケダチョウ","town":"市橋","town_kana":"イチハシ","prefecture_code":21},"2415":{"zip_code":"5032415","prefecture":"岐阜県","prefecture_kana":"ギフケン","city":"揖斐郡池田町","city_kana":"イビグンイケダチョウ","town":"上田","town_kana":"ウエダ","prefecture_code":21},"2402":{"zip_code":"5032402","prefecture":"岐阜県","prefecture_kana":"ギフケン","city":"揖斐郡池田町","city_kana":"イビグンイケダチョウ","town":"粕ケ原","town_kana":"カスガハラ","prefecture_code":21},"2428":{"zip_code":"5032428","prefecture":"岐阜県","prefecture_kana":"ギフケン","city":"揖斐郡池田町","city_kana":"イビグンイケダチョウ","town":"片山","town_kana":"カタヤマ","prefecture_code":21},"2405":{"zip_code":"5032405","prefecture":"岐阜県","prefecture_kana":"ギフケン","city":"揖斐郡池田町","city_kana":"イビグンイケダチョウ","town":"願成寺","town_kana":"ガンジョウジ","prefecture_code":21},"2418":{"zip_code":"5032418","prefecture":"岐阜県","prefecture_kana":"ギフケン","city":"揖斐郡池田町","city_kana":"イビグンイケダチョウ","town":"草深","town_kana":"クサブカ","prefecture_code":21},"2401":{"zip_code":"5032401","prefecture":"岐阜県","prefecture_kana":"ギフケン","city":"揖斐郡池田町","city_kana":"イビグンイケダチョウ","town":"沓井","town_kana":"クツイ","prefecture_code":21},"2404":{"zip_code":"5032404","prefecture":"岐阜県","prefecture_kana":"ギフケン","city":"揖斐郡池田町","city_kana":"イビグンイケダチョウ","town":"小牛","town_kana":"コウジ","prefecture_code":21},"2419":{"zip_code":"5032419","prefecture":"岐阜県","prefecture_kana":"ギフケン","city":"揖斐郡池田町","city_kana":"イビグンイケダチョウ","town":"小寺","town_kana":"コデラ","prefecture_code":21},"2414":{"zip_code":"5032414","prefecture":"岐阜県","prefecture_kana":"ギフケン","city":"揖斐郡池田町","city_kana":"イビグンイケダチョウ","town":"下東野","town_kana":"シモヒガシノ","prefecture_code":21},"2413":{"zip_code":"5032413","prefecture":"岐阜県","prefecture_kana":"ギフケン","city":"揖斐郡池田町","city_kana":"イビグンイケダチョウ","town":"白鳥","town_kana":"シロトリ","prefecture_code":21},"2411":{"zip_code":"5032411","prefecture":"岐阜県","prefecture_kana":"ギフケン","city":"揖斐郡池田町","city_kana":"イビグンイケダチョウ","town":"杉野","town_kana":"スギノ","prefecture_code":21},"2412":{"zip_code":"5032412","prefecture":"岐阜県","prefecture_kana":"ギフケン","city":"揖斐郡池田町","city_kana":"イビグンイケダチョウ","town":"砂畑","town_kana":"スナバタ","prefecture_code":21},"2403":{"zip_code":"5032403","prefecture":"岐阜県","prefecture_kana":"ギフケン","city":"揖斐郡池田町","city_kana":"イビグンイケダチョウ","town":"田中","town_kana":"タナカ","prefecture_code":21},"2422":{"zip_code":"5032422","prefecture":"岐阜県","prefecture_kana":"ギフケン","city":"揖斐郡池田町","city_kana":"イビグンイケダチョウ","town":"田畑","town_kana":"タバタ","prefecture_code":21},"2408":{"zip_code":"5032408","prefecture":"岐阜県","prefecture_kana":"ギフケン","city":"揖斐郡池田町","city_kana":"イビグンイケダチョウ","town":"段","town_kana":"ダン","prefecture_code":21},"2416":{"zip_code":"5032416","prefecture":"岐阜県","prefecture_kana":"ギフケン","city":"揖斐郡池田町","city_kana":"イビグンイケダチョウ","town":"萩原","town_kana":"ハギワラ","prefecture_code":21},"2407":{"zip_code":"5032407","prefecture":"岐阜県","prefecture_kana":"ギフケン","city":"揖斐郡池田町","city_kana":"イビグンイケダチョウ","town":"般若畑","town_kana":"ハンニャバタ","prefecture_code":21},"2429":{"zip_code":"5032429","prefecture":"岐阜県","prefecture_kana":"ギフケン","city":"揖斐郡池田町","city_kana":"イビグンイケダチョウ","town":"藤代","town_kana":"フジシロ","prefecture_code":21},"2409":{"zip_code":"5032409","prefecture":"岐阜県","prefecture_kana":"ギフケン","city":"揖斐郡池田町","city_kana":"イビグンイケダチョウ","town":"舟子","town_kana":"フナゴ","prefecture_code":21},"2417":{"zip_code":"5032417","prefecture":"岐阜県","prefecture_kana":"ギフケン","city":"揖斐郡池田町","city_kana":"イビグンイケダチョウ","town":"本郷","town_kana":"ホンゴウ","prefecture_code":21},"2406":{"zip_code":"5032406","prefecture":"岐阜県","prefecture_kana":"ギフケン","city":"揖斐郡池田町","city_kana":"イビグンイケダチョウ","town":"宮地","town_kana":"ミヤジ","prefecture_code":21},"2421":{"zip_code":"5032421","prefecture":"岐阜県","prefecture_kana":"ギフケン","city":"揖斐郡池田町","city_kana":"イビグンイケダチョウ","town":"山洞","town_kana":"ヤマホラ","prefecture_code":21},"2426":{"zip_code":"5032426","prefecture":"岐阜県","prefecture_kana":"ギフケン","city":"揖斐郡池田町","city_kana":"イビグンイケダチョウ","town":"八幡","town_kana":"ヤワタ","prefecture_code":21},"2425":{"zip_code":"5032425","prefecture":"岐阜県","prefecture_kana":"ギフケン","city":"揖斐郡池田町","city_kana":"イビグンイケダチョウ","town":"六之井","town_kana":"ロクノイ","prefecture_code":21}}