{"0000":{"zip_code":"5040000","prefecture":"岐阜県","prefecture_kana":"ギフケン","city":"各務原市","city_kana":"カカミガハラシ","town":"以下に掲載がない場合","town_kana":"イカニケイサイガナイバアイ","prefecture_code":21},"0931":{"zip_code":"5040931","prefecture":"岐阜県","prefecture_kana":"ギフケン","city":"各務原市","city_kana":"カカミガハラシ","town":"大佐野町","town_kana":"オオザノチョウ","prefecture_code":21},"0934":{"zip_code":"5040934","prefecture":"岐阜県","prefecture_kana":"ギフケン","city":"各務原市","city_kana":"カカミガハラシ","town":"大野町","town_kana":"オオノチョウ","prefecture_code":21},"0004":{"zip_code":"5040004","prefecture":"岐阜県","prefecture_kana":"ギフケン","city":"各務原市","city_kana":"カカミガハラシ","town":"尾崎西町","town_kana":"オザキニシマチ","prefecture_code":21},"0003":{"zip_code":"5040003","prefecture":"岐阜県","prefecture_kana":"ギフケン","city":"各務原市","city_kana":"カカミガハラシ","town":"尾崎南町","town_kana":"オザキミナミマチ","prefecture_code":21},"0002":{"zip_code":"5040002","prefecture":"岐阜県","prefecture_kana":"ギフケン","city":"各務原市","city_kana":"カカミガハラシ","town":"尾崎北町","town_kana":"オザキキタマチ","prefecture_code":21},"0933":{"zip_code":"5040933","prefecture":"岐阜県","prefecture_kana":"ギフケン","city":"各務原市","city_kana":"カカミガハラシ","town":"神置町","town_kana":"カミオキチョウ","prefecture_code":21},"0926":{"zip_code":"5040926","prefecture":"岐阜県","prefecture_kana":"ギフケン","city":"各務原市","city_kana":"カカミガハラシ","town":"上中屋町","town_kana":"カミナカヤチョウ","prefecture_code":21},"0971":{"zip_code":"5040971","prefecture":"岐阜県","prefecture_kana":"ギフケン","city":"各務原市","city_kana":"カカミガハラシ","town":"川崎町","town_kana":"カワサキチョウ","prefecture_code":21},"0957":{"zip_code":"5040957","prefecture":"岐阜県","prefecture_kana":"ギフケン","city":"各務原市","city_kana":"カカミガハラシ","town":"金属団地","town_kana":"キンゾクダンチ","prefecture_code":21},"0942":{"zip_code":"5040942","prefecture":"岐阜県","prefecture_kana":"ギフケン","city":"各務原市","city_kana":"カカミガハラシ","town":"小佐野町","town_kana":"コザノチョウ","prefecture_code":21},"0924":{"zip_code":"5040924","prefecture":"岐阜県","prefecture_kana":"ギフケン","city":"各務原市","city_kana":"カカミガハラシ","town":"下切町","town_kana":"シモギリチョウ","prefecture_code":21},"0932":{"zip_code":"5040932","prefecture":"岐阜県","prefecture_kana":"ギフケン","city":"各務原市","city_kana":"カカミガハラシ","town":"下中屋町","town_kana":"シモナカヤチョウ","prefecture_code":21},"0927":{"zip_code":"5040927","prefecture":"岐阜県","prefecture_kana":"ギフケン","city":"各務原市","city_kana":"カカミガハラシ","town":"上戸町","town_kana":"ジョウゴチョウ","prefecture_code":21},"0841":{"zip_code":"5040841","prefecture":"岐阜県","prefecture_kana":"ギフケン","city":"各務原市","city_kana":"カカミガハラシ","town":"蘇原赤羽根町","town_kana":"ソハラアカバネチョウ","prefecture_code":21},"0824":{"zip_code":"5040824","prefecture":"岐阜県","prefecture_kana":"ギフケン","city":"各務原市","city_kana":"カカミガハラシ","town":"蘇原旭町","town_kana":"ソハラアサヒマチ","prefecture_code":21},"0808":{"zip_code":"5040808","prefecture":"岐阜県","prefecture_kana":"ギフケン","city":"各務原市","city_kana":"カカミガハラシ","town":"蘇原飛鳥町","town_kana":"ソハラアズカチョウ","prefecture_code":21},"0851":{"zip_code":"5040851","prefecture":"岐阜県","prefecture_kana":"ギフケン","city":"各務原市","city_kana":"カカミガハラシ","town":"蘇原伊吹町","town_kana":"ソハライブキチョウ","prefecture_code":21},"0847":{"zip_code":"5040847","prefecture":"岐阜県","prefecture_kana":"ギフケン","city":"各務原市","city_kana":"カカミガハラシ","town":"蘇原大島町","town_kana":"ソハラオオシマチョウ","prefecture_code":21},"0825":{"zip_code":"5040825","prefecture":"岐阜県","prefecture_kana":"ギフケン","city":"各務原市","city_kana":"カカミガハラシ","town":"蘇原柿沢町","town_kana":"ソハラカキザワチョウ","prefecture_code":21},"0823":{"zip_code":"5040823","prefecture":"岐阜県","prefecture_kana":"ギフケン","city":"各務原市","city_kana":"カカミガハラシ","town":"蘇原菊園町","town_kana":"ソハラキクゾノチョウ","prefecture_code":21},"0801":{"zip_code":"5040801","prefecture":"岐阜県","prefecture_kana":"ギフケン","city":"各務原市","city_kana":"カカミガハラシ","town":"蘇原北山町","town_kana":"ソハラキタヤマチョウ","prefecture_code":21},"0844":{"zip_code":"5040844","prefecture":"岐阜県","prefecture_kana":"ギフケン","city":"各務原市","city_kana":"カカミガハラシ","town":"蘇原吉新町","town_kana":"ソハラキチシンチョウ","prefecture_code":21},"0829":{"zip_code":"5040829","prefecture":"岐阜県","prefecture_kana":"ギフケン","city":"各務原市","city_kana":"カカミガハラシ","town":"蘇原希望町","town_kana":"ソハラキボウチョウ","prefecture_code":21},"0807":{"zip_code":"5040807","prefecture":"岐阜県","prefecture_kana":"ギフケン","city":"各務原市","city_kana":"カカミガハラシ","town":"蘇原清住町","town_kana":"ソハラキヨズミチョウ","prefecture_code":21},"0853":{"zip_code":"5040853","prefecture":"岐阜県","prefecture_kana":"ギフケン","city":"各務原市","city_kana":"カカミガハラシ","town":"蘇原熊田町","town_kana":"ソハラクマタチョウ","prefecture_code":21},"0814":{"zip_code":"5040814","prefecture":"岐阜県","prefecture_kana":"ギフケン","city":"各務原市","city_kana":"カカミガハラシ","town":"蘇原興亜町","town_kana":"ソハラコウアマチ","prefecture_code":21},"0812":{"zip_code":"5040812","prefecture":"岐阜県","prefecture_kana":"ギフケン","city":"各務原市","city_kana":"カカミガハラシ","town":"蘇原坂井町","town_kana":"ソハラサカイチョウ","prefecture_code":21},"0822":{"zip_code":"5040822","prefecture":"岐阜県","prefecture_kana":"ギフケン","city":"各務原市","city_kana":"カカミガハラシ","town":"蘇原栄町","town_kana":"ソハラサカエマチ","prefecture_code":21},"0826":{"zip_code":"5040826","prefecture":"岐阜県","prefecture_kana":"ギフケン","city":"各務原市","city_kana":"カカミガハラシ","town":"蘇原早苗町","town_kana":"ソハラサナエチョウ","prefecture_code":21},"0845":{"zip_code":"5040845","prefecture":"岐阜県","prefecture_kana":"ギフケン","city":"各務原市","city_kana":"カカミガハラシ","town":"蘇原申子町","town_kana":"ソハラサルコチョウ","prefecture_code":21},"0827":{"zip_code":"5040827","prefecture":"岐阜県","prefecture_kana":"ギフケン","city":"各務原市","city_kana":"カカミガハラシ","town":"蘇原沢上町","town_kana":"ソハラサワガミチョウ","prefecture_code":21},"0856":{"zip_code":"5040856","prefecture":"岐阜県","prefecture_kana":"ギフケン","city":"各務原市","city_kana":"カカミガハラシ","town":"蘇原島崎町","town_kana":"ソハラシマサキチョウ","prefecture_code":21},"0805":{"zip_code":"5040805","prefecture":"岐阜県","prefecture_kana":"ギフケン","city":"各務原市","city_kana":"カカミガハラシ","town":"蘇原昭栄町","town_kana":"ソハラショウエイチョウ","prefecture_code":21},"0855":{"zip_code":"5040855","prefecture":"岐阜県","prefecture_kana":"ギフケン","city":"各務原市","city_kana":"カカミガハラシ","town":"蘇原新栄町","town_kana":"ソハラシンサカエマチ","prefecture_code":21},"0804":{"zip_code":"5040804","prefecture":"岐阜県","prefecture_kana":"ギフケン","city":"各務原市","city_kana":"カカミガハラシ","town":"蘇原新生町","town_kana":"ソハラシンセイチョウ","prefecture_code":21},"0821":{"zip_code":"5040821","prefecture":"岐阜県","prefecture_kana":"ギフケン","city":"各務原市","city_kana":"カカミガハラシ","town":"蘇原瑞雲町","town_kana":"ソハラズイウンチョウ","prefecture_code":21},"0843":{"zip_code":"5040843","prefecture":"岐阜県","prefecture_kana":"ギフケン","city":"各務原市","city_kana":"カカミガハラシ","town":"蘇原青雲町","town_kana":"ソハラセイウンチョウ","prefecture_code":21},"0813":{"zip_code":"5040813","prefecture":"岐阜県","prefecture_kana":"ギフケン","city":"各務原市","city_kana":"カカミガハラシ","town":"蘇原中央町","town_kana":"ソハラチュウオウチョウ","prefecture_code":21},"0903":{"zip_code":"5040903","prefecture":"岐阜県","prefecture_kana":"ギフケン","city":"各務原市","city_kana":"カカミガハラシ","town":"蘇原月丘町","town_kana":"ソハラツキオカチョウ","prefecture_code":21},"0842":{"zip_code":"5040842","prefecture":"岐阜県","prefecture_kana":"ギフケン","city":"各務原市","city_kana":"カカミガハラシ","town":"蘇原寺島町","town_kana":"ソハラテラジマチョウ","prefecture_code":21},"0815":{"zip_code":"5040815","prefecture":"岐阜県","prefecture_kana":"ギフケン","city":"各務原市","city_kana":"カカミガハラシ","town":"蘇原東栄町","town_kana":"ソハラトウエイチョウ","prefecture_code":21},"0803":{"zip_code":"5040803","prefecture":"岐阜県","prefecture_kana":"ギフケン","city":"各務原市","city_kana":"カカミガハラシ","town":"蘇原東門町","town_kana":"ソハラトウモンチョウ","prefecture_code":21},"0806":{"zip_code":"5040806","prefecture":"岐阜県","prefecture_kana":"ギフケン","city":"各務原市","city_kana":"カカミガハラシ","town":"蘇原外山町","town_kana":"ソハラトヤマチョウ","prefecture_code":21},"0854":{"zip_code":"5040854","prefecture":"岐阜県","prefecture_kana":"ギフケン","city":"各務原市","city_kana":"カカミガハラシ","town":"蘇原野口町","town_kana":"ソハラノグチチョウ","prefecture_code":21},"0832":{"zip_code":"5040832","prefecture":"岐阜県","prefecture_kana":"ギフケン","city":"各務原市","city_kana":"カカミガハラシ","town":"蘇原花園町","town_kana":"ソハラハナゾノチョウ","prefecture_code":21},"0816":{"zip_code":"5040816","prefecture":"岐阜県","prefecture_kana":"ギフケン","city":"各務原市","city_kana":"カカミガハラシ","town":"蘇原東島町","town_kana":"ソハラヒガシジマチョウ","prefecture_code":21},"0852":{"zip_code":"5040852","prefecture":"岐阜県","prefecture_kana":"ギフケン","city":"各務原市","city_kana":"カカミガハラシ","town":"蘇原古市場町","town_kana":"ソハラフルイチバチョウ","prefecture_code":21},"0809":{"zip_code":"5040809","prefecture":"岐阜県","prefecture_kana":"ギフケン","city":"各務原市","city_kana":"カカミガハラシ","town":"蘇原北陽町","town_kana":"ソハラホクヨウチョウ","prefecture_code":21},"0904":{"zip_code":"5040904","prefecture":"岐阜県","prefecture_kana":"ギフケン","city":"各務原市","city_kana":"カカミガハラシ","town":"蘇原三柿野町","town_kana":"ソハラミカキノチョウ","prefecture_code":21},"0831":{"zip_code":"5040831","prefecture":"岐阜県","prefecture_kana":"ギフケン","city":"各務原市","city_kana":"カカミガハラシ","town":"蘇原瑞穂町","town_kana":"ソハラミズホチョウ","prefecture_code":21},"0902":{"zip_code":"5040902","prefecture":"岐阜県","prefecture_kana":"ギフケン","city":"各務原市","city_kana":"カカミガハラシ","town":"蘇原緑町","town_kana":"ソハラミドリマチ","prefecture_code":21},"0012":{"zip_code":"5040012","prefecture":"岐阜県","prefecture_kana":"ギフケン","city":"各務原市","city_kana":"カカミガハラシ","town":"蘇原宮代町","town_kana":"ソハラミヤダイチョウ","prefecture_code":21},"0013":{"zip_code":"5040013","prefecture":"岐阜県","prefecture_kana":"ギフケン","city":"各務原市","city_kana":"カカミガハラシ","town":"蘇原宮塚町","town_kana":"ソハラミヤヅカチョウ","prefecture_code":21},"0828":{"zip_code":"5040828","prefecture":"岐阜県","prefecture_kana":"ギフケン","city":"各務原市","city_kana":"カカミガハラシ","town":"蘇原村雨町","town_kana":"ソハラムラサメチョウ","prefecture_code":21},"0802":{"zip_code":"5040802","prefecture":"岐阜県","prefecture_kana":"ギフケン","city":"各務原市","city_kana":"カカミガハラシ","town":"蘇原持田町","town_kana":"ソハラモチダチョウ","prefecture_code":21},"0846":{"zip_code":"5040846","prefecture":"岐阜県","prefecture_kana":"ギフケン","city":"各務原市","city_kana":"カカミガハラシ","town":"蘇原吉野町","town_kana":"ソハラヨシノチョウ","prefecture_code":21},"0905":{"zip_code":"5040905","prefecture":"岐阜県","prefecture_kana":"ギフケン","city":"各務原市","city_kana":"カカミガハラシ","town":"蘇原六軒町","town_kana":"ソハラロッケンチョウ","prefecture_code":21},"0811":{"zip_code":"5040811","prefecture":"岐阜県","prefecture_kana":"ギフケン","city":"各務原市","city_kana":"カカミガハラシ","town":"蘇原和合町","town_kana":"ソハラワゴウチョウ","prefecture_code":21},"0962":{"zip_code":"5040962","prefecture":"岐阜県","prefecture_kana":"ギフケン","city":"各務原市","city_kana":"カカミガハラシ","town":"那加吾妻町","town_kana":"ナカアヅマチョウ","prefecture_code":21},"0036":{"zip_code":"5040036","prefecture":"岐阜県","prefecture_kana":"ギフケン","city":"各務原市","city_kana":"カカミガハラシ","town":"那加荒田町","town_kana":"ナカアラタチョウ","prefecture_code":21},"0007":{"zip_code":"5040007","prefecture":"岐阜県","prefecture_kana":"ギフケン","city":"各務原市","city_kana":"カカミガハラシ","town":"那加芦原町","town_kana":"ナカアワラチョウ","prefecture_code":21},"0044":{"zip_code":"5040044","prefecture":"岐阜県","prefecture_kana":"ギフケン","city":"各務原市","city_kana":"カカミガハラシ","town":"那加石山町","town_kana":"ナカイシヤマチョウ","prefecture_code":21},"0047":{"zip_code":"5040047","prefecture":"岐阜県","prefecture_kana":"ギフケン","city":"各務原市","city_kana":"カカミガハラシ","town":"那加岩地町","town_kana":"ナカイワチチョウ","prefecture_code":21},"0837":{"zip_code":"5040837","prefecture":"岐阜県","prefecture_kana":"ギフケン","city":"各務原市","city_kana":"カカミガハラシ","town":"那加甥田町","town_kana":"ナカオイダチョウ","prefecture_code":21},"0009":{"zip_code":"5040009","prefecture":"岐阜県","prefecture_kana":"ギフケン","city":"各務原市","city_kana":"カカミガハラシ","town":"那加扇平","town_kana":"ナカオオギヒラ","prefecture_code":21},"0033":{"zip_code":"5040033","prefecture":"岐阜県","prefecture_kana":"ギフケン","city":"各務原市","city_kana":"カカミガハラシ","town":"那加大谷町","town_kana":"ナカオオタニチョウ","prefecture_code":21},"0001":{"zip_code":"5040001","prefecture":"岐阜県","prefecture_kana":"ギフケン","city":"各務原市","city_kana":"カカミガハラシ","town":"那加大洞","town_kana":"ナカオオボラ","prefecture_code":21},"0908":{"zip_code":"5040908","prefecture":"岐阜県","prefecture_kana":"ギフケン","city":"各務原市","city_kana":"カカミガハラシ","town":"那加織田町","town_kana":"ナカオダチョウ","prefecture_code":21},"0016":{"zip_code":"5040016","prefecture":"岐阜県","prefecture_kana":"ギフケン","city":"各務原市","city_kana":"カカミガハラシ","town":"那加御屋敷町","town_kana":"ナカオヤシキチョウ","prefecture_code":21},"0031":{"zip_code":"5040031","prefecture":"岐阜県","prefecture_kana":"ギフケン","city":"各務原市","city_kana":"カカミガハラシ","town":"那加兼橋町","town_kana":"ナカカネハシチョウ","prefecture_code":21},"0943":{"zip_code":"5040943","prefecture":"岐阜県","prefecture_kana":"ギフケン","city":"各務原市","city_kana":"カカミガハラシ","town":"那加萱場町","town_kana":"ナカカヤバチョウ","prefecture_code":21},"0005":{"zip_code":"5040005","prefecture":"岐阜県","prefecture_kana":"ギフケン","city":"各務原市","city_kana":"カカミガハラシ","town":"那加柄山町","town_kana":"ナカカラヤマチョウ","prefecture_code":21},"0963":{"zip_code":"5040963","prefecture":"岐阜県","prefecture_kana":"ギフケン","city":"各務原市","city_kana":"カカミガハラシ","town":"那加北栄町","town_kana":"ナカキタサカエマチ","prefecture_code":21},"0011":{"zip_code":"5040011","prefecture":"岐阜県","prefecture_kana":"ギフケン","city":"各務原市","city_kana":"カカミガハラシ","town":"那加北洞町","town_kana":"ナカキタボラチョウ","prefecture_code":21},"0008":{"zip_code":"5040008","prefecture":"岐阜県","prefecture_kana":"ギフケン","city":"各務原市","city_kana":"カカミガハラシ","town":"那加桐野町","town_kana":"ナカキリノチョウ","prefecture_code":21},"0906":{"zip_code":"5040906","prefecture":"岐阜県","prefecture_kana":"ギフケン","city":"各務原市","city_kana":"カカミガハラシ","town":"那加桐野外二ケ所大字入会地","town_kana":"ナカキリノホカニカショオオアザニュウカイチ","prefecture_code":21},"0916":{"zip_code":"5040916","prefecture":"岐阜県","prefecture_kana":"ギフケン","city":"各務原市","city_kana":"カカミガハラシ","town":"那加楠町","town_kana":"ナカクスノキチョウ","prefecture_code":21},"0037":{"zip_code":"5040037","prefecture":"岐阜県","prefecture_kana":"ギフケン","city":"各務原市","city_kana":"カカミガハラシ","town":"那加五反田町","town_kana":"ナカゴタンダチョウ","prefecture_code":21},"0006":{"zip_code":"5040006","prefecture":"岐阜県","prefecture_kana":"ギフケン","city":"各務原市","city_kana":"カカミガハラシ","town":"那加琴が丘町","town_kana":"ナカコトガオカチョウ","prefecture_code":21},"0024":{"zip_code":"5040024","prefecture":"岐阜県","prefecture_kana":"ギフケン","city":"各務原市","city_kana":"カカミガハラシ","town":"那加幸町","town_kana":"ナカサイワイチョウ","prefecture_code":21},"0954":{"zip_code":"5040954","prefecture":"岐阜県","prefecture_kana":"ギフケン","city":"各務原市","city_kana":"カカミガハラシ","town":"那加栄町","town_kana":"ナカサカエマチ","prefecture_code":21},"0912":{"zip_code":"5040912","prefecture":"岐阜県","prefecture_kana":"ギフケン","city":"各務原市","city_kana":"カカミガハラシ","town":"那加桜町","town_kana":"ナカサクラマチ","prefecture_code":21},"0834":{"zip_code":"5040834","prefecture":"岐阜県","prefecture_kana":"ギフケン","city":"各務原市","city_kana":"カカミガハラシ","town":"那加昭南町","town_kana":"ナカショウナンチョウ","prefecture_code":21},"0958":{"zip_code":"5040958","prefecture":"岐阜県","prefecture_kana":"ギフケン","city":"各務原市","city_kana":"カカミガハラシ","town":"那加新加納町","town_kana":"ナカシンカノウチョウ","prefecture_code":21},"0045":{"zip_code":"5040045","prefecture":"岐阜県","prefecture_kana":"ギフケン","city":"各務原市","city_kana":"カカミガハラシ","town":"那加新田町","town_kana":"ナカシンデンチョウ","prefecture_code":21},"0961":{"zip_code":"5040961","prefecture":"岐阜県","prefecture_kana":"ギフケン","city":"各務原市","city_kana":"カカミガハラシ","town":"那加新那加町","town_kana":"ナカシンナカチョウ","prefecture_code":21},"0032":{"zip_code":"5040032","prefecture":"岐阜県","prefecture_kana":"ギフケン","city":"各務原市","city_kana":"カカミガハラシ","town":"那加神田町","town_kana":"ナカジンデンチョウ","prefecture_code":21},"0907":{"zip_code":"5040907","prefecture":"岐阜県","prefecture_kana":"ギフケン","city":"各務原市","city_kana":"カカミガハラシ","town":"那加住吉町","town_kana":"ナカスミヨシチョウ","prefecture_code":21},"0023":{"zip_code":"5040023","prefecture":"岐阜県","prefecture_kana":"ギフケン","city":"各務原市","city_kana":"カカミガハラシ","town":"那加太平町","town_kana":"ナカタイヘイチョウ","prefecture_code":21},"0913":{"zip_code":"5040913","prefecture":"岐阜県","prefecture_kana":"ギフケン","city":"各務原市","city_kana":"カカミガハラシ","town":"那加大東町","town_kana":"ナカダイトウチョウ","prefecture_code":21},"0038":{"zip_code":"5040038","prefecture":"岐阜県","prefecture_kana":"ギフケン","city":"各務原市","city_kana":"カカミガハラシ","town":"那加大門町","town_kana":"ナカダイモンチョウ","prefecture_code":21},"0043":{"zip_code":"5040043","prefecture":"岐阜県","prefecture_kana":"ギフケン","city":"各務原市","city_kana":"カカミガハラシ","town":"那加手力町","town_kana":"ナカテヂカラチョウ","prefecture_code":21},"0022":{"zip_code":"5040022","prefecture":"岐阜県","prefecture_kana":"ギフケン","city":"各務原市","city_kana":"カカミガハラシ","town":"那加東亜町","town_kana":"ナカトウアチョウ","prefecture_code":21},"0901":{"zip_code":"5040901","prefecture":"岐阜県","prefecture_kana":"ギフケン","city":"各務原市","city_kana":"カカミガハラシ","town":"那加東新町","town_kana":"ナカトウシンチョウ","prefecture_code":21},"0041":{"zip_code":"5040041","prefecture":"岐阜県","prefecture_kana":"ギフケン","city":"各務原市","city_kana":"カカミガハラシ","town":"那加土山町","town_kana":"ナカドヤマチョウ","prefecture_code":21},"0046":{"zip_code":"5040046","prefecture":"岐阜県","prefecture_kana":"ギフケン","city":"各務原市","city_kana":"カカミガハラシ","town":"那加長塚町","town_kana":"ナカナガツカチョウ","prefecture_code":21},"0018":{"zip_code":"5040018","prefecture":"岐阜県","prefecture_kana":"ギフケン","city":"各務原市","city_kana":"カカミガハラシ","town":"那加西市場町","town_kana":"ナカニシイチバチョウ","prefecture_code":21},"0959":{"zip_code":"5040959","prefecture":"岐阜県","prefecture_kana":"ギフケン","city":"各務原市","city_kana":"カカミガハラシ","town":"那加西浦町","town_kana":"ナカニシウラチョウ","prefecture_code":21},"0952":{"zip_code":"5040952","prefecture":"岐阜県","prefecture_kana":"ギフケン","city":"各務原市","city_kana":"カカミガハラシ","town":"那加西那加町","town_kana":"ナカニシナカチョウ","prefecture_code":21},"0968":{"zip_code":"5040968","prefecture":"岐阜県","prefecture_kana":"ギフケン","city":"各務原市","city_kana":"カカミガハラシ","town":"那加西野町","town_kana":"ナカニシノマチ","prefecture_code":21},"0945":{"zip_code":"5040945","prefecture":"岐阜県","prefecture_kana":"ギフケン","city":"各務原市","city_kana":"カカミガハラシ","town":"那加日新町","town_kana":"ナカニッシンチョウ","prefecture_code":21},"0025":{"zip_code":"5040025","prefecture":"岐阜県","prefecture_kana":"ギフケン","city":"各務原市","city_kana":"カカミガハラシ","town":"那加野畑町","town_kana":"ナカノバタチョウ","prefecture_code":21},"0909":{"zip_code":"5040909","prefecture":"岐阜県","prefecture_kana":"ギフケン","city":"各務原市","city_kana":"カカミガハラシ","town":"那加信長町","town_kana":"ナカノブナガチョウ","prefecture_code":21},"0839":{"zip_code":"5040839","prefecture":"岐阜県","prefecture_kana":"ギフケン","city":"各務原市","city_kana":"カカミガハラシ","town":"那加巾下町","town_kana":"ナカハバシタチョウ","prefecture_code":21},"0034":{"zip_code":"5040034","prefecture":"岐阜県","prefecture_kana":"ギフケン","city":"各務原市","city_kana":"カカミガハラシ","town":"那加浜見町","town_kana":"ナカハマミチョウ","prefecture_code":21},"0953":{"zip_code":"5040953","prefecture":"岐阜県","prefecture_kana":"ギフケン","city":"各務原市","city_kana":"カカミガハラシ","town":"那加東那加町","town_kana":"ナカヒガシナカチョウ","prefecture_code":21},"0015":{"zip_code":"5040015","prefecture":"岐阜県","prefecture_kana":"ギフケン","city":"各務原市","city_kana":"カカミガハラシ","town":"那加東野町","town_kana":"ナカヒガシノチョウ","prefecture_code":21},"0965":{"zip_code":"5040965","prefecture":"岐阜県","prefecture_kana":"ギフケン","city":"各務原市","city_kana":"カカミガハラシ","town":"那加日之出町","town_kana":"ナカヒノデチョウ","prefecture_code":21},"0836":{"zip_code":"5040836","prefecture":"岐阜県","prefecture_kana":"ギフケン","city":"各務原市","city_kana":"カカミガハラシ","town":"那加雲雀町","town_kana":"ナカヒバリチョウ","prefecture_code":21},"0951":{"zip_code":"5040951","prefecture":"岐阜県","prefecture_kana":"ギフケン","city":"各務原市","city_kana":"カカミガハラシ","town":"那加日吉町","town_kana":"ナカヒヨシチョウ","prefecture_code":21},"0838":{"zip_code":"5040838","prefecture":"岐阜県","prefecture_kana":"ギフケン","city":"各務原市","city_kana":"カカミガハラシ","town":"那加不動丘","town_kana":"ナカフドウガオカ","prefecture_code":21},"0966":{"zip_code":"5040966","prefecture":"岐阜県","prefecture_kana":"ギフケン","city":"各務原市","city_kana":"カカミガハラシ","town":"那加本町","town_kana":"ナカホンマチ","prefecture_code":21},"0026":{"zip_code":"5040026","prefecture":"岐阜県","prefecture_kana":"ギフケン","city":"各務原市","city_kana":"カカミガハラシ","town":"那加前野町","town_kana":"ナカマエノチョウ","prefecture_code":21},"0021":{"zip_code":"5040021","prefecture":"岐阜県","prefecture_kana":"ギフケン","city":"各務原市","city_kana":"カカミガハラシ","town":"那加前洞新町","town_kana":"ナカマエボラシンマチ","prefecture_code":21},"0944":{"zip_code":"5040944","prefecture":"岐阜県","prefecture_kana":"ギフケン","city":"各務原市","city_kana":"カカミガハラシ","town":"那加緑町","town_kana":"ナカミドリマチ","prefecture_code":21},"0955":{"zip_code":"5040955","prefecture":"岐阜県","prefecture_kana":"ギフケン","city":"各務原市","city_kana":"カカミガハラシ","town":"那加南栄町","town_kana":"ナカミナミサカエマチ","prefecture_code":21},"0035":{"zip_code":"5040035","prefecture":"岐阜県","prefecture_kana":"ギフケン","city":"各務原市","city_kana":"カカミガハラシ","town":"那加宮浦町","town_kana":"ナカミヤウラチョウ","prefecture_code":21},"0964":{"zip_code":"5040964","prefecture":"岐阜県","prefecture_kana":"ギフケン","city":"各務原市","city_kana":"カカミガハラシ","town":"那加元町","town_kana":"ナカモトマチ","prefecture_code":21},"0911":{"zip_code":"5040911","prefecture":"岐阜県","prefecture_kana":"ギフケン","city":"各務原市","city_kana":"カカミガハラシ","town":"那加門前町","town_kana":"ナカモンゼンチョウ","prefecture_code":21},"0042":{"zip_code":"5040042","prefecture":"岐阜県","prefecture_kana":"ギフケン","city":"各務原市","city_kana":"カカミガハラシ","town":"那加山後町","town_kana":"ナカヤマウシロチョウ","prefecture_code":21},"0014":{"zip_code":"5040014","prefecture":"岐阜県","prefecture_kana":"ギフケン","city":"各務原市","city_kana":"カカミガハラシ","town":"那加山崎町","town_kana":"ナカヤマザキチョウ","prefecture_code":21},"0017":{"zip_code":"5040017","prefecture":"岐阜県","prefecture_kana":"ギフケン","city":"各務原市","city_kana":"カカミガハラシ","town":"那加山下町","town_kana":"ナカヤマシタチョウ","prefecture_code":21},"0835":{"zip_code":"5040835","prefecture":"岐阜県","prefecture_kana":"ギフケン","city":"各務原市","city_kana":"カカミガハラシ","town":"那加雄飛ケ丘町","town_kana":"ナカユウヒガオカチョウ","prefecture_code":21},"0967":{"zip_code":"5040967","prefecture":"岐阜県","prefecture_kana":"ギフケン","city":"各務原市","city_kana":"カカミガハラシ","town":"那加楽天地町","town_kana":"ナカラクテンチチョウ","prefecture_code":21},"0935":{"zip_code":"5040935","prefecture":"岐阜県","prefecture_kana":"ギフケン","city":"各務原市","city_kana":"カカミガハラシ","town":"成清町","town_kana":"ナルキヨチョウ","prefecture_code":21},"0833":{"zip_code":"5040833","prefecture":"岐阜県","prefecture_kana":"ギフケン","city":"各務原市","city_kana":"カカミガハラシ","town":"入会町","town_kana":"ニュウカイチョウ","prefecture_code":21},"0861":{"zip_code":"5040861","prefecture":"岐阜県","prefecture_kana":"ギフケン","city":"各務原市","city_kana":"カカミガハラシ","town":"東山","town_kana":"ヒガシヤマ","prefecture_code":21},"0922":{"zip_code":"5040922","prefecture":"岐阜県","prefecture_kana":"ギフケン","city":"各務原市","city_kana":"カカミガハラシ","town":"前渡東町","town_kana":"マエドヒガシマチ","prefecture_code":21},"0923":{"zip_code":"5040923","prefecture":"岐阜県","prefecture_kana":"ギフケン","city":"各務原市","city_kana":"カカミガハラシ","town":"前渡西町","town_kana":"マエドニシマチ","prefecture_code":21},"0921":{"zip_code":"5040921","prefecture":"岐阜県","prefecture_kana":"ギフケン","city":"各務原市","city_kana":"カカミガハラシ","town":"前渡北町","town_kana":"マエドキタマチ","prefecture_code":21},"0925":{"zip_code":"5040925","prefecture":"岐阜県","prefecture_kana":"ギフケン","city":"各務原市","city_kana":"カカミガハラシ","town":"松本町","town_kana":"マツモトチョウ","prefecture_code":21},"0956":{"zip_code":"5040956","prefecture":"岐阜県","prefecture_kana":"ギフケン","city":"各務原市","city_kana":"カカミガハラシ","town":"三井北町","town_kana":"ミイキタマチ","prefecture_code":21},"0941":{"zip_code":"5040941","prefecture":"岐阜県","prefecture_kana":"ギフケン","city":"各務原市","city_kana":"カカミガハラシ","town":"三井町","town_kana":"ミイチョウ","prefecture_code":21},"0914":{"zip_code":"5040914","prefecture":"岐阜県","prefecture_kana":"ギフケン","city":"各務原市","city_kana":"カカミガハラシ","town":"三井東町","town_kana":"ミイヒガシマチ","prefecture_code":21},"0915":{"zip_code":"5040915","prefecture":"岐阜県","prefecture_kana":"ギフケン","city":"各務原市","city_kana":"カカミガハラシ","town":"三井山町","town_kana":"ミイヤマチョウ","prefecture_code":21},"0928":{"zip_code":"5040928","prefecture":"岐阜県","prefecture_kana":"ギフケン","city":"各務原市","city_kana":"カカミガハラシ","town":"山脇町","town_kana":"ヤマワキチョウ","prefecture_code":21}}