{"0000":{"zip_code":"5070000","prefecture":"岐阜県","prefecture_kana":"ギフケン","city":"多治見市","city_kana":"タジミシ","town":"","town_kana":"","prefecture_code":21},"0837":{"zip_code":"5070837","prefecture":"岐阜県","prefecture_kana":"ギフケン","city":"多治見市","city_kana":"タジミシ","town":"青木町","town_kana":"アオキマチ","prefecture_code":21},"0057":{"zip_code":"5070057","prefecture":"岐阜県","prefecture_kana":"ギフケン","city":"多治見市","city_kana":"タジミシ","town":"赤坂町","town_kana":"アカサカチョウ","prefecture_code":21},"0071":{"zip_code":"5070071","prefecture":"岐阜県","prefecture_kana":"ギフケン","city":"多治見市","city_kana":"タジミシ","town":"旭ケ丘","town_kana":"アサヒガオカ","prefecture_code":21},"0807":{"zip_code":"5070807","prefecture":"岐阜県","prefecture_kana":"ギフケン","city":"多治見市","city_kana":"タジミシ","town":"生田町","town_kana":"イクタチョウ","prefecture_code":21},"0048":{"zip_code":"5070048","prefecture":"岐阜県","prefecture_kana":"ギフケン","city":"多治見市","city_kana":"タジミシ","town":"池田町","town_kana":"イケダチョウ","prefecture_code":21},"0814":{"zip_code":"5070814","prefecture":"岐阜県","prefecture_kana":"ギフケン","city":"多治見市","city_kana":"タジミシ","town":"市之倉町","town_kana":"イチノクラチョウ","prefecture_code":21},"0027":{"zip_code":"5070027","prefecture":"岐阜県","prefecture_kana":"ギフケン","city":"多治見市","city_kana":"タジミシ","town":"上野町","town_kana":"ウエノチョウ","prefecture_code":21},"0075":{"zip_code":"5070075","prefecture":"岐阜県","prefecture_kana":"ギフケン","city":"多治見市","city_kana":"タジミシ","town":"大沢町","town_kana":"オオサワチョウ","prefecture_code":21},"0074":{"zip_code":"5070074","prefecture":"岐阜県","prefecture_kana":"ギフケン","city":"多治見市","city_kana":"タジミシ","town":"大原町","town_kana":"オオハラチョウ","prefecture_code":21},"0062":{"zip_code":"5070062","prefecture":"岐阜県","prefecture_kana":"ギフケン","city":"多治見市","city_kana":"タジミシ","town":"大針町","town_kana":"オオハリチョウ","prefecture_code":21},"0818":{"zip_code":"5070818","prefecture":"岐阜県","prefecture_kana":"ギフケン","city":"多治見市","city_kana":"タジミシ","town":"大畑町","town_kana":"オオバタチョウ","prefecture_code":21},"0815":{"zip_code":"5070815","prefecture":"岐阜県","prefecture_kana":"ギフケン","city":"多治見市","city_kana":"タジミシ","town":"大畑町赤松","town_kana":"オオバタチョウアカマツ","prefecture_code":21},"0817":{"zip_code":"5070817","prefecture":"岐阜県","prefecture_kana":"ギフケン","city":"多治見市","city_kana":"タジミシ","town":"大畑町大洞","town_kana":"オオバタチョウオオボラ","prefecture_code":21},"0816":{"zip_code":"5070816","prefecture":"岐阜県","prefecture_kana":"ギフケン","city":"多治見市","city_kana":"タジミシ","town":"大畑町西仲根","town_kana":"オオバタチョウニシナカネ","prefecture_code":21},"0068":{"zip_code":"5070068","prefecture":"岐阜県","prefecture_kana":"ギフケン","city":"多治見市","city_kana":"タジミシ","town":"大薮町","town_kana":"オオヤブチョウ","prefecture_code":21},"0822":{"zip_code":"5070822","prefecture":"岐阜県","prefecture_kana":"ギフケン","city":"多治見市","city_kana":"タジミシ","town":"奥川町","town_kana":"オクガワチョウ","prefecture_code":21},"0023":{"zip_code":"5070023","prefecture":"岐阜県","prefecture_kana":"ギフケン","city":"多治見市","city_kana":"タジミシ","town":"小田町","town_kana":"オダマチ","prefecture_code":21},"0037":{"zip_code":"5070037","prefecture":"岐阜県","prefecture_kana":"ギフケン","city":"多治見市","city_kana":"タジミシ","town":"音羽町","town_kana":"オトワチョウ","prefecture_code":21},"0004":{"zip_code":"5070004","prefecture":"岐阜県","prefecture_kana":"ギフケン","city":"多治見市","city_kana":"タジミシ","town":"小名田町","town_kana":"オナダチョウ","prefecture_code":21},"0005":{"zip_code":"5070005","prefecture":"岐阜県","prefecture_kana":"ギフケン","city":"多治見市","city_kana":"タジミシ","town":"小名田町岩ケ根","town_kana":"オナダチョウイワガネ","prefecture_code":21},"0001":{"zip_code":"5070001","prefecture":"岐阜県","prefecture_kana":"ギフケン","city":"多治見市","city_kana":"タジミシ","town":"小名田町小滝","town_kana":"オナダチョウコタキ","prefecture_code":21},"0007":{"zip_code":"5070007","prefecture":"岐阜県","prefecture_kana":"ギフケン","city":"多治見市","city_kana":"タジミシ","town":"小名田町西ケ洞","town_kana":"オナダチョウニシガボラ","prefecture_code":21},"0006":{"zip_code":"5070006","prefecture":"岐阜県","prefecture_kana":"ギフケン","city":"多治見市","city_kana":"タジミシ","town":"小名田町西山","town_kana":"オナダチョウニシヤマ","prefecture_code":21},"0002":{"zip_code":"5070002","prefecture":"岐阜県","prefecture_kana":"ギフケン","city":"多治見市","city_kana":"タジミシ","town":"小名田町別山","town_kana":"オナダチョウハナレヤマ","prefecture_code":21},"0003":{"zip_code":"5070003","prefecture":"岐阜県","prefecture_kana":"ギフケン","city":"多治見市","city_kana":"タジミシ","town":"小名田町東谷","town_kana":"オナダチョウヒガシダニ","prefecture_code":21},"0846":{"zip_code":"5070846","prefecture":"岐阜県","prefecture_kana":"ギフケン","city":"多治見市","city_kana":"タジミシ","town":"神楽町","town_kana":"カグラマチ","prefecture_code":21},"0901":{"zip_code":"5070901","prefecture":"岐阜県","prefecture_kana":"ギフケン","city":"多治見市","city_kana":"タジミシ","town":"笠原町","town_kana":"カサハラチョウ","prefecture_code":21},"0016":{"zip_code":"5070016","prefecture":"岐阜県","prefecture_kana":"ギフケン","city":"多治見市","city_kana":"タジミシ","town":"金岡町","town_kana":"カナオカチョウ","prefecture_code":21},"0832":{"zip_code":"5070832","prefecture":"岐阜県","prefecture_kana":"ギフケン","city":"多治見市","city_kana":"タジミシ","town":"金山町","town_kana":"カナヤマチョウ","prefecture_code":21},"0821":{"zip_code":"5070821","prefecture":"岐阜県","prefecture_kana":"ギフケン","city":"多治見市","city_kana":"タジミシ","town":"窯町","town_kana":"カママチ","prefecture_code":21},"0806":{"zip_code":"5070806","prefecture":"岐阜県","prefecture_kana":"ギフケン","city":"多治見市","city_kana":"タジミシ","town":"上町","town_kana":"カミマチ","prefecture_code":21},"0022":{"zip_code":"5070022","prefecture":"岐阜県","prefecture_kana":"ギフケン","city":"多治見市","city_kana":"タジミシ","town":"上山町","town_kana":"カミヤマチョウ","prefecture_code":21},"0064":{"zip_code":"5070064","prefecture":"岐阜県","prefecture_kana":"ギフケン","city":"多治見市","city_kana":"タジミシ","town":"北丘町","town_kana":"キタオカチョウ","prefecture_code":21},"0067":{"zip_code":"5070067","prefecture":"岐阜県","prefecture_kana":"ギフケン","city":"多治見市","city_kana":"タジミシ","town":"北小木町","town_kana":"キタオギチョウ","prefecture_code":21},"0055":{"zip_code":"5070055","prefecture":"岐阜県","prefecture_kana":"ギフケン","city":"多治見市","city_kana":"タジミシ","town":"喜多町","town_kana":"キタマチ","prefecture_code":21},"0008":{"zip_code":"5070008","prefecture":"岐阜県","prefecture_kana":"ギフケン","city":"多治見市","city_kana":"タジミシ","town":"希望ケ丘","town_kana":"キボウガオカ","prefecture_code":21},"0825":{"zip_code":"5070825","prefecture":"岐阜県","prefecture_kana":"ギフケン","city":"多治見市","city_kana":"タジミシ","town":"京町","town_kana":"キョウマチ","prefecture_code":21},"0073":{"zip_code":"5070073","prefecture":"岐阜県","prefecture_kana":"ギフケン","city":"多治見市","city_kana":"タジミシ","town":"小泉町","town_kana":"コイズミチョウ","prefecture_code":21},"0014":{"zip_code":"5070014","prefecture":"岐阜県","prefecture_kana":"ギフケン","city":"多治見市","city_kana":"タジミシ","town":"虎渓山町","town_kana":"コケイザンチョウ","prefecture_code":21},"0026":{"zip_code":"5070026","prefecture":"岐阜県","prefecture_kana":"ギフケン","city":"多治見市","city_kana":"タジミシ","town":"虎渓町","town_kana":"コケイチョウ","prefecture_code":21},"0077":{"zip_code":"5070077","prefecture":"岐阜県","prefecture_kana":"ギフケン","city":"多治見市","city_kana":"タジミシ","town":"幸町","town_kana":"サイワイチョウ","prefecture_code":21},"0804":{"zip_code":"5070804","prefecture":"岐阜県","prefecture_kana":"ギフケン","city":"多治見市","city_kana":"タジミシ","town":"坂上町","town_kana":"サカウエチョウ","prefecture_code":21},"0035":{"zip_code":"5070035","prefecture":"岐阜県","prefecture_kana":"ギフケン","city":"多治見市","city_kana":"タジミシ","town":"栄町","town_kana":"サカエマチ","prefecture_code":21},"0045":{"zip_code":"5070045","prefecture":"岐阜県","prefecture_kana":"ギフケン","city":"多治見市","city_kana":"タジミシ","town":"三の倉町","town_kana":"サンノクラチョウ","prefecture_code":21},"0812":{"zip_code":"5070812","prefecture":"岐阜県","prefecture_kana":"ギフケン","city":"多治見市","city_kana":"タジミシ","town":"下沢町","town_kana":"シモザワチョウ","prefecture_code":21},"0039":{"zip_code":"5070039","prefecture":"岐阜県","prefecture_kana":"ギフケン","city":"多治見市","city_kana":"タジミシ","town":"十九田町","town_kana":"ジュクタチョウ","prefecture_code":21},"0076":{"zip_code":"5070076","prefecture":"岐阜県","prefecture_kana":"ギフケン","city":"多治見市","city_kana":"タジミシ","town":"昭栄町","town_kana":"ショウエイチョウ","prefecture_code":21},"0847":{"zip_code":"5070847","prefecture":"岐阜県","prefecture_kana":"ギフケン","city":"多治見市","city_kana":"タジミシ","town":"小路町","town_kana":"ショウジマチ","prefecture_code":21},"0836":{"zip_code":"5070836","prefecture":"岐阜県","prefecture_kana":"ギフケン","city":"多治見市","city_kana":"タジミシ","town":"昭和町","town_kana":"ショウワマチ","prefecture_code":21},"0805":{"zip_code":"5070805","prefecture":"岐阜県","prefecture_kana":"ギフケン","city":"多治見市","city_kana":"タジミシ","town":"新富町","town_kana":"シントミチョウ","prefecture_code":21},"0831":{"zip_code":"5070831","prefecture":"岐阜県","prefecture_kana":"ギフケン","city":"多治見市","city_kana":"タジミシ","town":"新町","town_kana":"シンマチ","prefecture_code":21},"0838":{"zip_code":"5070838","prefecture":"岐阜県","prefecture_kana":"ギフケン","city":"多治見市","city_kana":"タジミシ","town":"末広町","town_kana":"スエヒロチョウ","prefecture_code":21},"0015":{"zip_code":"5070015","prefecture":"岐阜県","prefecture_kana":"ギフケン","city":"多治見市","city_kana":"タジミシ","town":"住吉町","town_kana":"スミヨシチョウ","prefecture_code":21},"0044":{"zip_code":"5070044","prefecture":"岐阜県","prefecture_kana":"ギフケン","city":"多治見市","city_kana":"タジミシ","town":"諏訪町","town_kana":"スワチョウ","prefecture_code":21},"0031":{"zip_code":"5070031","prefecture":"岐阜県","prefecture_kana":"ギフケン","city":"多治見市","city_kana":"タジミシ","town":"精華町","town_kana":"セイカマチ","prefecture_code":21},"0024":{"zip_code":"5070024","prefecture":"岐阜県","prefecture_kana":"ギフケン","city":"多治見市","city_kana":"タジミシ","town":"大正町","town_kana":"タイショウマチ","prefecture_code":21},"0032":{"zip_code":"5070032","prefecture":"岐阜県","prefecture_kana":"ギフケン","city":"多治見市","city_kana":"タジミシ","town":"大日町","town_kana":"ダイニチチョウ","prefecture_code":21},"0041":{"zip_code":"5070041","prefecture":"岐阜県","prefecture_kana":"ギフケン","city":"多治見市","city_kana":"タジミシ","town":"太平町","town_kana":"タイヘイチョウ","prefecture_code":21},"0018":{"zip_code":"5070018","prefecture":"岐阜県","prefecture_kana":"ギフケン","city":"多治見市","city_kana":"タジミシ","town":"高田町","town_kana":"タカタチョウ","prefecture_code":21},"0011":{"zip_code":"5070011","prefecture":"岐阜県","prefecture_kana":"ギフケン","city":"多治見市","city_kana":"タジミシ","town":"高田町岩曽根","town_kana":"タカタチョウイワゾネ","prefecture_code":21},"0012":{"zip_code":"5070012","prefecture":"岐阜県","prefecture_kana":"ギフケン","city":"多治見市","city_kana":"タジミシ","town":"高田町白粉","town_kana":"タカタチョウシロコ","prefecture_code":21},"0078":{"zip_code":"5070078","prefecture":"岐阜県","prefecture_kana":"ギフケン","city":"多治見市","city_kana":"タジミシ","town":"高根町","town_kana":"タカネチョウ","prefecture_code":21},"0054":{"zip_code":"5070054","prefecture":"岐阜県","prefecture_kana":"ギフケン","city":"多治見市","city_kana":"タジミシ","town":"宝町","town_kana":"タカラマチ","prefecture_code":21},"0813":{"zip_code":"5070813","prefecture":"岐阜県","prefecture_kana":"ギフケン","city":"多治見市","city_kana":"タジミシ","town":"滝呂町","town_kana":"タキロチョウ","prefecture_code":21},"0036":{"zip_code":"5070036","prefecture":"岐阜県","prefecture_kana":"ギフケン","city":"多治見市","city_kana":"タジミシ","town":"田代町","town_kana":"タシロチョウ","prefecture_code":21},"0043":{"zip_code":"5070043","prefecture":"岐阜県","prefecture_kana":"ギフケン","city":"多治見市","city_kana":"タジミシ","town":"月見町","town_kana":"ツキミチョウ","prefecture_code":21},"0046":{"zip_code":"5070046","prefecture":"岐阜県","prefecture_kana":"ギフケン","city":"多治見市","city_kana":"タジミシ","town":"廿原町","town_kana":"ツヅハラチョウ","prefecture_code":21},"0013":{"zip_code":"5070013","prefecture":"岐阜県","prefecture_kana":"ギフケン","city":"多治見市","city_kana":"タジミシ","town":"東栄町","town_kana":"トウエイチョウ","prefecture_code":21},"0844":{"zip_code":"5070844","prefecture":"岐阜県","prefecture_kana":"ギフケン","city":"多治見市","city_kana":"タジミシ","town":"陶元町","town_kana":"トウゲンチョウ","prefecture_code":21},"0843":{"zip_code":"5070843","prefecture":"岐阜県","prefecture_kana":"ギフケン","city":"多治見市","city_kana":"タジミシ","town":"常盤町","town_kana":"トキワマチ","prefecture_code":21},"0034":{"zip_code":"5070034","prefecture":"岐阜県","prefecture_kana":"ギフケン","city":"多治見市","city_kana":"タジミシ","town":"豊岡町","town_kana":"トヨオカチョウ","prefecture_code":21},"0842":{"zip_code":"5070842","prefecture":"岐阜県","prefecture_kana":"ギフケン","city":"多治見市","city_kana":"タジミシ","town":"中町","town_kana":"ナカマチ","prefecture_code":21},"0017":{"zip_code":"5070017","prefecture":"岐阜県","prefecture_kana":"ギフケン","city":"多治見市","city_kana":"タジミシ","town":"長瀬町","town_kana":"ナガセチョウ","prefecture_code":21},"0835":{"zip_code":"5070835","prefecture":"岐阜県","prefecture_kana":"ギフケン","city":"多治見市","city_kana":"タジミシ","town":"錦町","town_kana":"ニシキマチ","prefecture_code":21},"0051":{"zip_code":"5070051","prefecture":"岐阜県","prefecture_kana":"ギフケン","city":"多治見市","city_kana":"タジミシ","town":"西坂町","town_kana":"ニシザカチョウ","prefecture_code":21},"0066":{"zip_code":"5070066","prefecture":"岐阜県","prefecture_kana":"ギフケン","city":"多治見市","city_kana":"タジミシ","town":"西山町","town_kana":"ニシヤマチョウ","prefecture_code":21},"0065":{"zip_code":"5070065","prefecture":"岐阜県","prefecture_kana":"ギフケン","city":"多治見市","city_kana":"タジミシ","town":"根本町","town_kana":"ネモトチョウ","prefecture_code":21},"0038":{"zip_code":"5070038","prefecture":"岐阜県","prefecture_kana":"ギフケン","city":"多治見市","city_kana":"タジミシ","town":"白山町","town_kana":"ハクサンチョウ","prefecture_code":21},"0052":{"zip_code":"5070052","prefecture":"岐阜県","prefecture_kana":"ギフケン","city":"多治見市","city_kana":"タジミシ","town":"光ケ丘","town_kana":"ヒカリガオカ","prefecture_code":21},"0801":{"zip_code":"5070801","prefecture":"岐阜県","prefecture_kana":"ギフケン","city":"多治見市","city_kana":"タジミシ","town":"東町","town_kana":"ヒガシマチ","prefecture_code":21},"0019":{"zip_code":"5070019","prefecture":"岐阜県","prefecture_kana":"ギフケン","city":"多治見市","city_kana":"タジミシ","town":"東山","town_kana":"ヒガシヤマ","prefecture_code":21},"0848":{"zip_code":"5070848","prefecture":"岐阜県","prefecture_kana":"ギフケン","city":"多治見市","city_kana":"タジミシ","town":"日ノ出町","town_kana":"ヒノデマチ","prefecture_code":21},"0061":{"zip_code":"5070061","prefecture":"岐阜県","prefecture_kana":"ギフケン","city":"多治見市","city_kana":"タジミシ","town":"姫町","town_kana":"ヒメチョウ","prefecture_code":21},"0058":{"zip_code":"5070058","prefecture":"岐阜県","prefecture_kana":"ギフケン","city":"多治見市","city_kana":"タジミシ","town":"平井町","town_kana":"ヒライチョウ","prefecture_code":21},"0823":{"zip_code":"5070823","prefecture":"岐阜県","prefecture_kana":"ギフケン","city":"多治見市","city_kana":"タジミシ","town":"平野町","town_kana":"ヒラノチョウ","prefecture_code":21},"0833":{"zip_code":"5070833","prefecture":"岐阜県","prefecture_kana":"ギフケン","city":"多治見市","city_kana":"タジミシ","town":"広小路","town_kana":"ヒロコウジ","prefecture_code":21},"0047":{"zip_code":"5070047","prefecture":"岐阜県","prefecture_kana":"ギフケン","city":"多治見市","city_kana":"タジミシ","town":"富士見町","town_kana":"フジミチョウ","prefecture_code":21},"0827":{"zip_code":"5070827","prefecture":"岐阜県","prefecture_kana":"ギフケン","city":"多治見市","city_kana":"タジミシ","town":"平和町","town_kana":"ヘイワマチ","prefecture_code":21},"0028":{"zip_code":"5070028","prefecture":"岐阜県","prefecture_kana":"ギフケン","city":"多治見市","city_kana":"タジミシ","town":"弁天町","town_kana":"ベンテンチョウ","prefecture_code":21},"0811":{"zip_code":"5070811","prefecture":"岐阜県","prefecture_kana":"ギフケン","city":"多治見市","city_kana":"タジミシ","town":"星ケ台","town_kana":"ホシガダイ","prefecture_code":21},"0033":{"zip_code":"5070033","prefecture":"岐阜県","prefecture_kana":"ギフケン","city":"多治見市","city_kana":"タジミシ","town":"本町","town_kana":"ホンマチ","prefecture_code":21},"0042":{"zip_code":"5070042","prefecture":"岐阜県","prefecture_kana":"ギフケン","city":"多治見市","city_kana":"タジミシ","town":"前畑町","town_kana":"マエバタチョウ","prefecture_code":21},"0063":{"zip_code":"5070063","prefecture":"岐阜県","prefecture_kana":"ギフケン","city":"多治見市","city_kana":"タジミシ","town":"松坂町","town_kana":"マツサカチョウ","prefecture_code":21},"0828":{"zip_code":"5070828","prefecture":"岐阜県","prefecture_kana":"ギフケン","city":"多治見市","city_kana":"タジミシ","town":"三笠町","town_kana":"ミカサチョウ","prefecture_code":21},"0803":{"zip_code":"5070803","prefecture":"岐阜県","prefecture_kana":"ギフケン","city":"多治見市","city_kana":"タジミシ","town":"美坂町","town_kana":"ミサカチョウ","prefecture_code":21},"0021":{"zip_code":"5070021","prefecture":"岐阜県","prefecture_kana":"ギフケン","city":"多治見市","city_kana":"タジミシ","town":"緑ケ丘","town_kana":"ミドリガオカ","prefecture_code":21},"0025":{"zip_code":"5070025","prefecture":"岐阜県","prefecture_kana":"ギフケン","city":"多治見市","city_kana":"タジミシ","town":"宮前町","town_kana":"ミヤマエチョウ","prefecture_code":21},"0056":{"zip_code":"5070056","prefecture":"岐阜県","prefecture_kana":"ギフケン","city":"多治見市","city_kana":"タジミシ","town":"美山町","town_kana":"ミヤマチョウ","prefecture_code":21},"0834":{"zip_code":"5070834","prefecture":"岐阜県","prefecture_kana":"ギフケン","city":"多治見市","city_kana":"タジミシ","town":"御幸町","town_kana":"ミユキマチ","prefecture_code":21},"0841":{"zip_code":"5070841","prefecture":"岐阜県","prefecture_kana":"ギフケン","city":"多治見市","city_kana":"タジミシ","town":"明治町","town_kana":"メイジマチ","prefecture_code":21},"0072":{"zip_code":"5070072","prefecture":"岐阜県","prefecture_kana":"ギフケン","city":"多治見市","city_kana":"タジミシ","town":"明和町","town_kana":"メイワチョウ","prefecture_code":21},"0824":{"zip_code":"5070824","prefecture":"岐阜県","prefecture_kana":"ギフケン","city":"多治見市","city_kana":"タジミシ","town":"元町","town_kana":"モトマチ","prefecture_code":21},"0845":{"zip_code":"5070845","prefecture":"岐阜県","prefecture_kana":"ギフケン","city":"多治見市","city_kana":"タジミシ","town":"山下町","town_kana":"ヤマシタチョウ","prefecture_code":21},"0802":{"zip_code":"5070802","prefecture":"岐阜県","prefecture_kana":"ギフケン","city":"多治見市","city_kana":"タジミシ","town":"山吹町","town_kana":"ヤマブキチョウ","prefecture_code":21},"0053":{"zip_code":"5070053","prefecture":"岐阜県","prefecture_kana":"ギフケン","city":"多治見市","city_kana":"タジミシ","town":"若松町","town_kana":"ワカマツチョウ","prefecture_code":21},"0826":{"zip_code":"5070826","prefecture":"岐阜県","prefecture_kana":"ギフケン","city":"多治見市","city_kana":"タジミシ","town":"脇之島町","town_kana":"ワキノシマチョウ","prefecture_code":21}}