{"0000":{"zip_code":"5080000","prefecture":"岐阜県","prefecture_kana":"ギフケン","city":"中津川市","city_kana":"ナカツガワシ","town":"","town_kana":"","prefecture_code":21},"0002":{"zip_code":"5080002","prefecture":"岐阜県","prefecture_kana":"ギフケン","city":"中津川市","city_kana":"ナカツガワシ","town":"阿木川上","town_kana":"アギカオレ","prefecture_code":21},"0037":{"zip_code":"5080037","prefecture":"岐阜県","prefecture_kana":"ギフケン","city":"中津川市","city_kana":"ナカツガワシ","town":"えびす町","town_kana":"エビスチョウ","prefecture_code":21},"0033":{"zip_code":"5080033","prefecture":"岐阜県","prefecture_kana":"ギフケン","city":"中津川市","city_kana":"ナカツガワシ","town":"太田町","town_kana":"オオタマチ","prefecture_code":21},"0023":{"zip_code":"5080023","prefecture":"岐阜県","prefecture_kana":"ギフケン","city":"中津川市","city_kana":"ナカツガワシ","town":"小川町","town_kana":"オガワチョウ","prefecture_code":21},"0006":{"zip_code":"5080006","prefecture":"岐阜県","prefecture_kana":"ギフケン","city":"中津川市","city_kana":"ナカツガワシ","town":"落合","town_kana":"オチアイ","prefecture_code":21},"0421":{"zip_code":"5080421","prefecture":"岐阜県","prefecture_kana":"ギフケン","city":"中津川市","city_kana":"ナカツガワシ","town":"加子母","town_kana":"カシモ","prefecture_code":21},"0045":{"zip_code":"5080045","prefecture":"岐阜県","prefecture_kana":"ギフケン","city":"中津川市","city_kana":"ナカツガワシ","town":"かやの木町","town_kana":"カヤノキチョウ","prefecture_code":21},"0022":{"zip_code":"5080022","prefecture":"岐阜県","prefecture_kana":"ギフケン","city":"中津川市","city_kana":"ナカツガワシ","town":"北野町","town_kana":"キタノチョウ","prefecture_code":21},"0011":{"zip_code":"5080011","prefecture":"岐阜県","prefecture_kana":"ギフケン","city":"中津川市","city_kana":"ナカツガワシ","town":"駒場","town_kana":"コマンバ","prefecture_code":21},"0014":{"zip_code":"5080014","prefecture":"岐阜県","prefecture_kana":"ギフケン","city":"中津川市","city_kana":"ナカツガワシ","town":"駒場町","town_kana":"コマンバチョウ","prefecture_code":21},"0032":{"zip_code":"5080032","prefecture":"岐阜県","prefecture_kana":"ギフケン","city":"中津川市","city_kana":"ナカツガワシ","town":"栄町","town_kana":"サカエマチ","prefecture_code":21},"0202":{"zip_code":"5080202","prefecture":"岐阜県","prefecture_kana":"ギフケン","city":"中津川市","city_kana":"ナカツガワシ","town":"下野","town_kana":"シモノ","prefecture_code":21},"0044":{"zip_code":"5080044","prefecture":"岐阜県","prefecture_kana":"ギフケン","city":"中津川市","city_kana":"ナカツガワシ","town":"昭和町","town_kana":"ショウワマチ","prefecture_code":21},"0038":{"zip_code":"5080038","prefecture":"岐阜県","prefecture_kana":"ギフケン","city":"中津川市","city_kana":"ナカツガワシ","town":"新町","town_kana":"シンマチ","prefecture_code":21},"0111":{"zip_code":"5080111","prefecture":"岐阜県","prefecture_kana":"ギフケン","city":"中津川市","city_kana":"ナカツガワシ","town":"瀬戸","town_kana":"セト","prefecture_code":21},"0204":{"zip_code":"5080204","prefecture":"岐阜県","prefecture_kana":"ギフケン","city":"中津川市","city_kana":"ナカツガワシ","town":"高山","town_kana":"タカヤマ","prefecture_code":21},"0201":{"zip_code":"5080201","prefecture":"岐阜県","prefecture_kana":"ギフケン","city":"中津川市","city_kana":"ナカツガワシ","town":"田瀬","town_kana":"タセ","prefecture_code":21},"0351":{"zip_code":"5080351","prefecture":"岐阜県","prefecture_kana":"ギフケン","city":"中津川市","city_kana":"ナカツガワシ","town":"付知町","town_kana":"ツケチチョウ","prefecture_code":21},"0012":{"zip_code":"5080012","prefecture":"岐阜県","prefecture_kana":"ギフケン","city":"中津川市","city_kana":"ナカツガワシ","town":"津島町","town_kana":"ツシマチョウ","prefecture_code":21},"0015":{"zip_code":"5080015","prefecture":"岐阜県","prefecture_kana":"ギフケン","city":"中津川市","city_kana":"ナカツガワシ","town":"手賀野","town_kana":"テガノ","prefecture_code":21},"0101":{"zip_code":"5080101","prefecture":"岐阜県","prefecture_kana":"ギフケン","city":"中津川市","city_kana":"ナカツガワシ","town":"苗木","town_kana":"ナエギ","prefecture_code":21},"0003":{"zip_code":"5080003","prefecture":"岐阜県","prefecture_kana":"ギフケン","city":"中津川市","city_kana":"ナカツガワシ","town":"中一色町","town_kana":"ナカイッシキチョウ","prefecture_code":21},"0021":{"zip_code":"5080021","prefecture":"岐阜県","prefecture_kana":"ギフケン","city":"中津川市","city_kana":"ナカツガワシ","town":"中川町","town_kana":"ナカガワチョウ","prefecture_code":21},"0001":{"zip_code":"5080001","prefecture":"岐阜県","prefecture_kana":"ギフケン","city":"中津川市","city_kana":"ナカツガワシ","town":"中津川","town_kana":"ナカツガワ","prefecture_code":21},"0042":{"zip_code":"5080042","prefecture":"岐阜県","prefecture_kana":"ギフケン","city":"中津川市","city_kana":"ナカツガワシ","town":"西宮町","town_kana":"ニシミヤマチ","prefecture_code":21},"0043":{"zip_code":"5080043","prefecture":"岐阜県","prefecture_kana":"ギフケン","city":"中津川市","city_kana":"ナカツガワシ","town":"八幡町","town_kana":"ハチマンチョウ","prefecture_code":21},"0004":{"zip_code":"5080004","prefecture":"岐阜県","prefecture_kana":"ギフケン","city":"中津川市","city_kana":"ナカツガワシ","town":"花戸町","town_kana":"ハナドチョウ","prefecture_code":21},"0035":{"zip_code":"5080035","prefecture":"岐阜県","prefecture_kana":"ギフケン","city":"中津川市","city_kana":"ナカツガワシ","town":"東町","town_kana":"ヒガシマチ","prefecture_code":21},"0036":{"zip_code":"5080036","prefecture":"岐阜県","prefecture_kana":"ギフケン","city":"中津川市","city_kana":"ナカツガワシ","town":"東宮町","town_kana":"ヒガシミヤマチ","prefecture_code":21},"0005":{"zip_code":"5080005","prefecture":"岐阜県","prefecture_kana":"ギフケン","city":"中津川市","city_kana":"ナカツガワシ","town":"日の出町","town_kana":"ヒノデチョウ","prefecture_code":21},"0203":{"zip_code":"5080203","prefecture":"岐阜県","prefecture_kana":"ギフケン","city":"中津川市","city_kana":"ナカツガワシ","town":"福岡","town_kana":"フクオカ","prefecture_code":21},"0041":{"zip_code":"5080041","prefecture":"岐阜県","prefecture_kana":"ギフケン","city":"中津川市","city_kana":"ナカツガワシ","town":"本町","town_kana":"ホンマチ","prefecture_code":21},"0502":{"zip_code":"5080502","prefecture":"岐阜県","prefecture_kana":"ギフケン","city":"中津川市","city_kana":"ナカツガワシ","town":"馬籠","town_kana":"マゴメ","prefecture_code":21},"0007":{"zip_code":"5080007","prefecture":"岐阜県","prefecture_kana":"ギフケン","city":"中津川市","city_kana":"ナカツガワシ","town":"神坂","town_kana":"ミサカ","prefecture_code":21},"0031":{"zip_code":"5080031","prefecture":"岐阜県","prefecture_kana":"ギフケン","city":"中津川市","city_kana":"ナカツガワシ","town":"宮前町","town_kana":"ミヤマエチョウ","prefecture_code":21},"0024":{"zip_code":"5080024","prefecture":"岐阜県","prefecture_kana":"ギフケン","city":"中津川市","city_kana":"ナカツガワシ","town":"桃山町","town_kana":"モモヤマチョウ","prefecture_code":21},"0013":{"zip_code":"5080013","prefecture":"岐阜県","prefecture_kana":"ギフケン","city":"中津川市","city_kana":"ナカツガワシ","town":"柳町","town_kana":"ヤナギマチ","prefecture_code":21},"0501":{"zip_code":"5080501","prefecture":"岐阜県","prefecture_kana":"ギフケン","city":"中津川市","city_kana":"ナカツガワシ","town":"山口","town_kana":"ヤマグチ","prefecture_code":21},"0034":{"zip_code":"5080034","prefecture":"岐阜県","prefecture_kana":"ギフケン","city":"中津川市","city_kana":"ナカツガワシ","town":"淀川町","town_kana":"ヨドガワチョウ","prefecture_code":21}}