{"0313":{"zip_code":"5100313","prefecture":"三重県","prefecture_kana":"ミエケン","city":"津市","city_kana":"ツシ","town":"河芸町赤部","town_kana":"カワゲチョウアカブ","prefecture_code":24},"0306":{"zip_code":"5100306","prefecture":"三重県","prefecture_kana":"ミエケン","city":"津市","city_kana":"ツシ","town":"河芸町一色","town_kana":"カワゲチョウイッシキ","prefecture_code":24},"0304":{"zip_code":"5100304","prefecture":"三重県","prefecture_kana":"ミエケン","city":"津市","city_kana":"ツシ","town":"河芸町上野","town_kana":"カワゲチョウウエノ","prefecture_code":24},"0307":{"zip_code":"5100307","prefecture":"三重県","prefecture_kana":"ミエケン","city":"津市","city_kana":"ツシ","town":"河芸町影重","town_kana":"カワゲチョウカゲシゲ","prefecture_code":24},"0317":{"zip_code":"5100317","prefecture":"三重県","prefecture_kana":"ミエケン","city":"津市","city_kana":"ツシ","town":"河芸町北黒田","town_kana":"カワゲチョウキタクロダ","prefecture_code":24},"0312":{"zip_code":"5100312","prefecture":"三重県","prefecture_kana":"ミエケン","city":"津市","city_kana":"ツシ","town":"河芸町久知野","town_kana":"カワゲチョウクチノ","prefecture_code":24},"0315":{"zip_code":"5100315","prefecture":"三重県","prefecture_kana":"ミエケン","city":"津市","city_kana":"ツシ","town":"河芸町高佐","town_kana":"カワゲチョウタカサ","prefecture_code":24},"0302":{"zip_code":"5100302","prefecture":"三重県","prefecture_kana":"ミエケン","city":"津市","city_kana":"ツシ","town":"河芸町千里ケ丘","town_kana":"カワゲチョウチサトガオカ","prefecture_code":24},"0308":{"zip_code":"5100308","prefecture":"三重県","prefecture_kana":"ミエケン","city":"津市","city_kana":"ツシ","town":"河芸町中瀬","town_kana":"カワゲチョウナカゼ","prefecture_code":24},"0305":{"zip_code":"5100305","prefecture":"三重県","prefecture_kana":"ミエケン","city":"津市","city_kana":"ツシ","town":"河芸町中別保","town_kana":"カワゲチョウナカベッポ","prefecture_code":24},"0301":{"zip_code":"5100301","prefecture":"三重県","prefecture_kana":"ミエケン","city":"津市","city_kana":"ツシ","town":"河芸町西千里","town_kana":"カワゲチョウニシチサト","prefecture_code":24},"0314":{"zip_code":"5100314","prefecture":"三重県","prefecture_kana":"ミエケン","city":"津市","city_kana":"ツシ","town":"河芸町浜田","town_kana":"カワゲチョウハマダ","prefecture_code":24},"0303":{"zip_code":"5100303","prefecture":"三重県","prefecture_kana":"ミエケン","city":"津市","city_kana":"ツシ","town":"河芸町東千里","town_kana":"カワゲチョウヒガシチサト","prefecture_code":24},"0316":{"zip_code":"5100316","prefecture":"三重県","prefecture_kana":"ミエケン","city":"津市","city_kana":"ツシ","town":"河芸町南黒田","town_kana":"カワゲチョウミナミクロダ","prefecture_code":24},"0311":{"zip_code":"5100311","prefecture":"三重県","prefecture_kana":"ミエケン","city":"津市","city_kana":"ツシ","town":"河芸町三行","town_kana":"カワゲチョウミユキ","prefecture_code":24},"0318":{"zip_code":"5100318","prefecture":"三重県","prefecture_kana":"ミエケン","city":"津市","city_kana":"ツシ","town":"河芸町杜の街","town_kana":"カワゲチョウモリノマチ","prefecture_code":24},"0000":{"zip_code":"5100000","prefecture":"三重県","prefecture_kana":"ミエケン","city":"三重郡川越町","city_kana":"ミエグンカワゴエチョウ","town":"","town_kana":"","prefecture_code":24},"0044":{"zip_code":"5100044","prefecture":"三重県","prefecture_kana":"ミエケン","city":"四日市市","city_kana":"ヨッカイチシ","town":"相生町","town_kana":"アイオイチョウ","prefecture_code":24},"0839":{"zip_code":"5100839","prefecture":"三重県","prefecture_kana":"ミエケン","city":"四日市市","city_kana":"ヨッカイチシ","town":"青葉町","town_kana":"アオバチョウ","prefecture_code":24},"0826":{"zip_code":"5100826","prefecture":"三重県","prefecture_kana":"ミエケン","city":"四日市市","city_kana":"ヨッカイチシ","town":"赤堀","town_kana":"アカホリ","prefecture_code":24},"0825":{"zip_code":"5100825","prefecture":"三重県","prefecture_kana":"ミエケン","city":"四日市市","city_kana":"ヨッカイチシ","town":"赤堀新町","town_kana":"アカホリシンマチ","prefecture_code":24},"0827":{"zip_code":"5100827","prefecture":"三重県","prefecture_kana":"ミエケン","city":"四日市市","city_kana":"ヨッカイチシ","town":"赤堀南町","town_kana":"アカホリミナミマチ","prefecture_code":24},"0810":{"zip_code":"5100810","prefecture":"三重県","prefecture_kana":"ミエケン","city":"四日市市","city_kana":"ヨッカイチシ","town":"阿倉川新町","town_kana":"アクラガワシンマチ","prefecture_code":24},"0803":{"zip_code":"5100803","prefecture":"三重県","prefecture_kana":"ミエケン","city":"四日市市","city_kana":"ヨッカイチシ","town":"阿倉川町","town_kana":"アクラガワチョウ","prefecture_code":24},"0053":{"zip_code":"5100053","prefecture":"三重県","prefecture_kana":"ミエケン","city":"四日市市","city_kana":"ヨッカイチシ","town":"曙","town_kana":"アケボノ","prefecture_code":24},"0054":{"zip_code":"5100054","prefecture":"三重県","prefecture_kana":"ミエケン","city":"四日市市","city_kana":"ヨッカイチシ","town":"曙町","town_kana":"アケボノチョウ","prefecture_code":24},"0061":{"zip_code":"5100061","prefecture":"三重県","prefecture_kana":"ミエケン","city":"四日市市","city_kana":"ヨッカイチシ","town":"朝日町","town_kana":"アサヒマチ","prefecture_code":24},"8001":{"zip_code":"5108001","prefecture":"三重県","prefecture_kana":"ミエケン","city":"四日市市","city_kana":"ヨッカイチシ","town":"天カ須賀","town_kana":"アマガスカ","prefecture_code":24},"8002":{"zip_code":"5108002","prefecture":"三重県","prefecture_kana":"ミエケン","city":"四日市市","city_kana":"ヨッカイチシ","town":"天カ須賀新町","town_kana":"アマガスカシンマチ","prefecture_code":24},"0832":{"zip_code":"5100832","prefecture":"三重県","prefecture_kana":"ミエケン","city":"四日市市","city_kana":"ヨッカイチシ","town":"伊倉","town_kana":"イグラ","prefecture_code":24},"0828":{"zip_code":"5100828","prefecture":"三重県","prefecture_kana":"ミエケン","city":"四日市市","city_kana":"ヨッカイチシ","town":"石塚町","town_kana":"イシヅカチョウ","prefecture_code":24},"0842":{"zip_code":"5100842","prefecture":"三重県","prefecture_kana":"ミエケン","city":"四日市市","city_kana":"ヨッカイチシ","town":"石原町","town_kana":"イシハラチョウ","prefecture_code":24},"0863":{"zip_code":"5100863","prefecture":"三重県","prefecture_kana":"ミエケン","city":"四日市市","city_kana":"ヨッカイチシ","town":"塩浜栄町","town_kana":"シオハマサカエマチ","prefecture_code":24},"0041":{"zip_code":"5100041","prefecture":"三重県","prefecture_kana":"ミエケン","city":"四日市市","city_kana":"ヨッカイチシ","town":"稲葉町","town_kana":"イナバチョウ","prefecture_code":24},"0872":{"zip_code":"5100872","prefecture":"三重県","prefecture_kana":"ミエケン","city":"四日市市","city_kana":"ヨッカイチシ","town":"内堀町","town_kana":"ウツボリチョウ","prefecture_code":24},"0953":{"zip_code":"5100953","prefecture":"三重県","prefecture_kana":"ミエケン","city":"四日市市","city_kana":"ヨッカイチシ","town":"釆女が丘","town_kana":"ウネメガオカ","prefecture_code":24},"0954":{"zip_code":"5100954","prefecture":"三重県","prefecture_kana":"ミエケン","city":"四日市市","city_kana":"ヨッカイチシ","town":"釆女町","town_kana":"ウネメチョウ","prefecture_code":24},"0074":{"zip_code":"5100074","prefecture":"三重県","prefecture_kana":"ミエケン","city":"四日市市","city_kana":"ヨッカイチシ","town":"鵜の森","town_kana":"ウノモリ","prefecture_code":24},"0023":{"zip_code":"5100023","prefecture":"三重県","prefecture_kana":"ミエケン","city":"四日市市","city_kana":"ヨッカイチシ","town":"午起","town_kana":"ウマオコシ","prefecture_code":24},"0882":{"zip_code":"5100882","prefecture":"三重県","prefecture_kana":"ミエケン","city":"四日市市","city_kana":"ヨッカイチシ","town":"追分","town_kana":"オイワケ","prefecture_code":24},"0866":{"zip_code":"5100866","prefecture":"三重県","prefecture_kana":"ミエケン","city":"四日市市","city_kana":"ヨッカイチシ","town":"大池町","town_kana":"オオイケチョウ","prefecture_code":24},"0835":{"zip_code":"5100835","prefecture":"三重県","prefecture_kana":"ミエケン","city":"四日市市","city_kana":"ヨッカイチシ","town":"大井手","town_kana":"オオイデ","prefecture_code":24},"0846":{"zip_code":"5100846","prefecture":"三重県","prefecture_kana":"ミエケン","city":"四日市市","city_kana":"ヨッカイチシ","town":"大井の川町","town_kana":"オオイノカワチョウ","prefecture_code":24},"0847":{"zip_code":"5100847","prefecture":"三重県","prefecture_kana":"ミエケン","city":"四日市市","city_kana":"ヨッカイチシ","town":"大浜町","town_kana":"オオハマチョウ","prefecture_code":24},"0003":{"zip_code":"5100003","prefecture":"三重県","prefecture_kana":"ミエケン","city":"四日市市","city_kana":"ヨッカイチシ","town":"大宮町","town_kana":"オオミヤチョウ","prefecture_code":24},"0004":{"zip_code":"5100004","prefecture":"三重県","prefecture_kana":"ミエケン","city":"四日市市","city_kana":"ヨッカイチシ","town":"大宮西町","town_kana":"オオミヤニシマチ","prefecture_code":24},"8039":{"zip_code":"5108039","prefecture":"三重県","prefecture_kana":"ミエケン","city":"四日市市","city_kana":"ヨッカイチシ","town":"大矢知新町","town_kana":"オオヤチシンマチ","prefecture_code":24},"8034":{"zip_code":"5108034","prefecture":"三重県","prefecture_kana":"ミエケン","city":"四日市市","city_kana":"ヨッカイチシ","town":"大矢知町","town_kana":"オオヤチチョウ","prefecture_code":24},"0083":{"zip_code":"5100083","prefecture":"三重県","prefecture_kana":"ミエケン","city":"四日市市","city_kana":"ヨッカイチシ","town":"沖の島町","town_kana":"オキノシマチョウ","prefecture_code":24},"0958":{"zip_code":"5100958","prefecture":"三重県","prefecture_kana":"ミエケン","city":"四日市市","city_kana":"ヨッカイチシ","town":"小古曽","town_kana":"オゴソ","prefecture_code":24},"0952":{"zip_code":"5100952","prefecture":"三重県","prefecture_kana":"ミエケン","city":"四日市市","city_kana":"ヨッカイチシ","town":"小古曽町","town_kana":"オゴソチョウ","prefecture_code":24},"0951":{"zip_code":"5100951","prefecture":"三重県","prefecture_kana":"ミエケン","city":"四日市市","city_kana":"ヨッカイチシ","town":"小古曽東","town_kana":"オゴソヒガシ","prefecture_code":24},"0059":{"zip_code":"5100059","prefecture":"三重県","prefecture_kana":"ミエケン","city":"四日市市","city_kana":"ヨッカイチシ","town":"尾上町","town_kana":"オノエチョウ","prefecture_code":24},"0875":{"zip_code":"5100875","prefecture":"三重県","prefecture_kana":"ミエケン","city":"四日市市","city_kana":"ヨッカイチシ","town":"大治田","town_kana":"オバタ","prefecture_code":24},"0956":{"zip_code":"5100956","prefecture":"三重県","prefecture_kana":"ミエケン","city":"四日市市","city_kana":"ヨッカイチシ","town":"貝家町","town_kana":"カイゲチョウ","prefecture_code":24},"0873":{"zip_code":"5100873","prefecture":"三重県","prefecture_kana":"ミエケン","city":"四日市市","city_kana":"ヨッカイチシ","town":"貝塚町","town_kana":"カイヅカチョウ","prefecture_code":24},"0011":{"zip_code":"5100011","prefecture":"三重県","prefecture_kana":"ミエケン","city":"四日市市","city_kana":"ヨッカイチシ","town":"霞","town_kana":"カスミ","prefecture_code":24},"0014":{"zip_code":"5100014","prefecture":"三重県","prefecture_kana":"ミエケン","city":"四日市市","city_kana":"ヨッカイチシ","town":"金場町","town_kana":"カネバチョウ","prefecture_code":24},"0853":{"zip_code":"5100853","prefecture":"三重県","prefecture_kana":"ミエケン","city":"四日市市","city_kana":"ヨッカイチシ","town":"川合町","town_kana":"カワイチョウ","prefecture_code":24},"8032":{"zip_code":"5108032","prefecture":"三重県","prefecture_kana":"ミエケン","city":"四日市市","city_kana":"ヨッカイチシ","town":"川北町","town_kana":"カワキタチョウ","prefecture_code":24},"0871":{"zip_code":"5100871","prefecture":"三重県","prefecture_kana":"ミエケン","city":"四日市市","city_kana":"ヨッカイチシ","town":"川尻町","town_kana":"カワジリチョウ","prefecture_code":24},"0874":{"zip_code":"5100874","prefecture":"三重県","prefecture_kana":"ミエケン","city":"四日市市","city_kana":"ヨッカイチシ","town":"河原田町","town_kana":"カワラダチョウ","prefecture_code":24},"0033":{"zip_code":"5100033","prefecture":"三重県","prefecture_kana":"ミエケン","city":"四日市市","city_kana":"ヨッカイチシ","town":"川原町","town_kana":"カワラマチ","prefecture_code":24},"8031":{"zip_code":"5108031","prefecture":"三重県","prefecture_kana":"ミエケン","city":"四日市市","city_kana":"ヨッカイチシ","town":"川北","town_kana":"カワキタ","prefecture_code":24},"0955":{"zip_code":"5100955","prefecture":"三重県","prefecture_kana":"ミエケン","city":"四日市市","city_kana":"ヨッカイチシ","town":"北小松町","town_kana":"キタコマツチョウ","prefecture_code":24},"0098":{"zip_code":"5100098","prefecture":"三重県","prefecture_kana":"ミエケン","city":"四日市市","city_kana":"ヨッカイチシ","town":"北条町","town_kana":"キタジョウマチ","prefecture_code":24},"0047":{"zip_code":"5100047","prefecture":"三重県","prefecture_kana":"ミエケン","city":"四日市市","city_kana":"ヨッカイチシ","town":"北納屋町","town_kana":"キタナヤチョウ","prefecture_code":24},"0062":{"zip_code":"5100062","prefecture":"三重県","prefecture_kana":"ミエケン","city":"四日市市","city_kana":"ヨッカイチシ","town":"北浜田町","town_kana":"キタハマダチョウ","prefecture_code":24},"0091":{"zip_code":"5100091","prefecture":"三重県","prefecture_kana":"ミエケン","city":"四日市市","city_kana":"ヨッカイチシ","town":"北浜町","town_kana":"キタハマチョウ","prefecture_code":24},"0081":{"zip_code":"5100081","prefecture":"三重県","prefecture_kana":"ミエケン","city":"四日市市","city_kana":"ヨッカイチシ","town":"北町","town_kana":"キタマチ","prefecture_code":24},"0032":{"zip_code":"5100032","prefecture":"三重県","prefecture_kana":"ミエケン","city":"四日市市","city_kana":"ヨッカイチシ","town":"京町","town_kana":"キョウマチ","prefecture_code":24},"0101":{"zip_code":"5100101","prefecture":"三重県","prefecture_kana":"ミエケン","city":"四日市市","city_kana":"ヨッカイチシ","town":"楠町小倉","town_kana":"クスチョウオグラ","prefecture_code":24},"0107":{"zip_code":"5100107","prefecture":"三重県","prefecture_kana":"ミエケン","city":"四日市市","city_kana":"ヨッカイチシ","town":"楠町北一色","town_kana":"クスチョウキタイッシキ","prefecture_code":24},"0103":{"zip_code":"5100103","prefecture":"三重県","prefecture_kana":"ミエケン","city":"四日市市","city_kana":"ヨッカイチシ","town":"楠町北五味塚","town_kana":"クスチョウキタゴミヅカ","prefecture_code":24},"0106":{"zip_code":"5100106","prefecture":"三重県","prefecture_kana":"ミエケン","city":"四日市市","city_kana":"ヨッカイチシ","town":"楠町本郷","town_kana":"クスチョウホンゴウ","prefecture_code":24},"0105":{"zip_code":"5100105","prefecture":"三重県","prefecture_kana":"ミエケン","city":"四日市市","city_kana":"ヨッカイチシ","town":"楠町南川","town_kana":"クスチョウミナミガワ","prefecture_code":24},"0104":{"zip_code":"5100104","prefecture":"三重県","prefecture_kana":"ミエケン","city":"四日市市","city_kana":"ヨッカイチシ","town":"楠町南五味塚","town_kana":"クスチョウミナミゴミヅカ","prefecture_code":24},"0102":{"zip_code":"5100102","prefecture":"三重県","prefecture_kana":"ミエケン","city":"四日市市","city_kana":"ヨッカイチシ","town":"楠町吉崎","town_kana":"クスチョウヨシザキ","prefecture_code":24},"0072":{"zip_code":"5100072","prefecture":"三重県","prefecture_kana":"ミエケン","city":"四日市市","city_kana":"ヨッカイチシ","town":"九の城町","town_kana":"クノシロチョウ","prefecture_code":24},"0821":{"zip_code":"5100821","prefecture":"三重県","prefecture_kana":"ミエケン","city":"四日市市","city_kana":"ヨッカイチシ","town":"久保田","town_kana":"クボタ","prefecture_code":24},"0045":{"zip_code":"5100045","prefecture":"三重県","prefecture_kana":"ミエケン","city":"四日市市","city_kana":"ヨッカイチシ","town":"蔵町","town_kana":"クラマチ","prefecture_code":24},"0055":{"zip_code":"5100055","prefecture":"三重県","prefecture_kana":"ミエケン","city":"四日市市","city_kana":"ヨッカイチシ","town":"寿町","town_kana":"コトブキチョウ","prefecture_code":24},"0865":{"zip_code":"5100865","prefecture":"三重県","prefecture_kana":"ミエケン","city":"四日市市","city_kana":"ヨッカイチシ","town":"小浜町","town_kana":"コハマチョウ","prefecture_code":24},"0946":{"zip_code":"5100946","prefecture":"三重県","prefecture_kana":"ミエケン","city":"四日市市","city_kana":"ヨッカイチシ","town":"小林町","town_kana":"コバヤシチョウ","prefecture_code":24},"0069":{"zip_code":"5100069","prefecture":"三重県","prefecture_kana":"ミエケン","city":"四日市市","city_kana":"ヨッカイチシ","town":"幸町","town_kana":"サイワイチョウ","prefecture_code":24},"0084":{"zip_code":"5100084","prefecture":"三重県","prefecture_kana":"ミエケン","city":"四日市市","city_kana":"ヨッカイチシ","town":"栄町","town_kana":"サカエマチ","prefecture_code":24},"0944":{"zip_code":"5100944","prefecture":"三重県","prefecture_kana":"ミエケン","city":"四日市市","city_kana":"ヨッカイチシ","town":"笹川","town_kana":"ササガワ","prefecture_code":24},"0021":{"zip_code":"5100021","prefecture":"三重県","prefecture_kana":"ミエケン","city":"四日市市","city_kana":"ヨッカイチシ","town":"三郎町","town_kana":"サブロウマチ","prefecture_code":24},"0068":{"zip_code":"5100068","prefecture":"三重県","prefecture_kana":"ミエケン","city":"四日市市","city_kana":"ヨッカイチシ","town":"三栄町","town_kana":"サンエイチョウ","prefecture_code":24},"0851":{"zip_code":"5100851","prefecture":"三重県","prefecture_kana":"ミエケン","city":"四日市市","city_kana":"ヨッカイチシ","town":"塩浜町","town_kana":"シオハマチョウ","prefecture_code":24},"0854":{"zip_code":"5100854","prefecture":"三重県","prefecture_kana":"ミエケン","city":"四日市市","city_kana":"ヨッカイチシ","town":"塩浜本町","town_kana":"シオハマホンマチ","prefecture_code":24},"0822":{"zip_code":"5100822","prefecture":"三重県","prefecture_kana":"ミエケン","city":"四日市市","city_kana":"ヨッカイチシ","town":"芝田","town_kana":"シバタ","prefecture_code":24},"0814":{"zip_code":"5100814","prefecture":"三重県","prefecture_kana":"ミエケン","city":"四日市市","city_kana":"ヨッカイチシ","town":"清水町","town_kana":"シミズチョウ","prefecture_code":24},"8033":{"zip_code":"5108033","prefecture":"三重県","prefecture_kana":"ミエケン","city":"四日市市","city_kana":"ヨッカイチシ","town":"下さざらい町","town_kana":"シモサザライチョウ","prefecture_code":24},"8028":{"zip_code":"5108028","prefecture":"三重県","prefecture_kana":"ミエケン","city":"四日市市","city_kana":"ヨッカイチシ","town":"下之宮町","town_kana":"シモノミヤチョウ","prefecture_code":24},"0057":{"zip_code":"5100057","prefecture":"三重県","prefecture_kana":"ミエケン","city":"四日市市","city_kana":"ヨッカイチシ","town":"昌栄町","town_kana":"ショウエイチョウ","prefecture_code":24},"0867":{"zip_code":"5100867","prefecture":"三重県","prefecture_kana":"ミエケン","city":"四日市市","city_kana":"ヨッカイチシ","town":"松泉町","town_kana":"ショウセンチョウ","prefecture_code":24},"0018":{"zip_code":"5100018","prefecture":"三重県","prefecture_kana":"ミエケン","city":"四日市市","city_kana":"ヨッカイチシ","town":"白須賀","town_kana":"シラスカ","prefecture_code":24},"0823":{"zip_code":"5100823","prefecture":"三重県","prefecture_kana":"ミエケン","city":"四日市市","city_kana":"ヨッカイチシ","town":"城北町","town_kana":"シロキタチョウ","prefecture_code":24},"0829":{"zip_code":"5100829","prefecture":"三重県","prefecture_kana":"ミエケン","city":"四日市市","city_kana":"ヨッカイチシ","town":"城西町","town_kana":"シロニシチョウ","prefecture_code":24},"0824":{"zip_code":"5100824","prefecture":"三重県","prefecture_kana":"ミエケン","city":"四日市市","city_kana":"ヨッカイチシ","town":"城東町","town_kana":"シロヒガシマチ","prefecture_code":24},"0015":{"zip_code":"5100015","prefecture":"三重県","prefecture_kana":"ミエケン","city":"四日市市","city_kana":"ヨッカイチシ","town":"城山町","town_kana":"シロヤマチョウ","prefecture_code":24},"0064":{"zip_code":"5100064","prefecture":"三重県","prefecture_kana":"ミエケン","city":"四日市市","city_kana":"ヨッカイチシ","town":"新正","town_kana":"シンショウ","prefecture_code":24},"0094":{"zip_code":"5100094","prefecture":"三重県","prefecture_kana":"ミエケン","city":"四日市市","city_kana":"ヨッカイチシ","town":"新々町","town_kana":"シンシンマチ","prefecture_code":24},"0092":{"zip_code":"5100092","prefecture":"三重県","prefecture_kana":"ミエケン","city":"四日市市","city_kana":"ヨッカイチシ","town":"新町","town_kana":"シンチョウ","prefecture_code":24},"0024":{"zip_code":"5100024","prefecture":"三重県","prefecture_kana":"ミエケン","city":"四日市市","city_kana":"ヨッカイチシ","town":"新浜町","town_kana":"シンハマチョウ","prefecture_code":24},"0063":{"zip_code":"5100063","prefecture":"三重県","prefecture_kana":"ミエケン","city":"四日市市","city_kana":"ヨッカイチシ","town":"十七軒町","town_kana":"ジュウシチケンチョウ","prefecture_code":24},"8026":{"zip_code":"5108026","prefecture":"三重県","prefecture_kana":"ミエケン","city":"四日市市","city_kana":"ヨッカイチシ","town":"十志町","town_kana":"ジュウシチョウ","prefecture_code":24},"0813":{"zip_code":"5100813","prefecture":"三重県","prefecture_kana":"ミエケン","city":"四日市市","city_kana":"ヨッカイチシ","town":"末永","town_kana":"スエナガ","prefecture_code":24},"0807":{"zip_code":"5100807","prefecture":"三重県","prefecture_kana":"ミエケン","city":"四日市市","city_kana":"ヨッカイチシ","town":"末永町","town_kana":"スエナガチョウ","prefecture_code":24},"0052":{"zip_code":"5100052","prefecture":"三重県","prefecture_kana":"ミエケン","city":"四日市市","city_kana":"ヨッカイチシ","town":"末広町","town_kana":"スエヒロチョウ","prefecture_code":24},"8003":{"zip_code":"5108003","prefecture":"三重県","prefecture_kana":"ミエケン","city":"四日市市","city_kana":"ヨッカイチシ","town":"住吉町","town_kana":"スミヨシチョウ","prefecture_code":24},"0086":{"zip_code":"5100086","prefecture":"三重県","prefecture_kana":"ミエケン","city":"四日市市","city_kana":"ヨッカイチシ","town":"諏訪栄町","town_kana":"スワサカエマチ","prefecture_code":24},"0085":{"zip_code":"5100085","prefecture":"三重県","prefecture_kana":"ミエケン","city":"四日市市","city_kana":"ヨッカイチシ","town":"諏訪町","town_kana":"スワチョウ","prefecture_code":24},"0022":{"zip_code":"5100022","prefecture":"三重県","prefecture_kana":"ミエケン","city":"四日市市","city_kana":"ヨッカイチシ","town":"大協町","town_kana":"ダイキョウチョウ","prefecture_code":24},"8017":{"zip_code":"5108017","prefecture":"三重県","prefecture_kana":"ミエケン","city":"四日市市","city_kana":"ヨッカイチシ","town":"平町","town_kana":"タイラマチ","prefecture_code":24},"0857":{"zip_code":"5100857","prefecture":"三重県","prefecture_kana":"ミエケン","city":"四日市市","city_kana":"ヨッカイチシ","town":"高旭町","town_kana":"タカアサヒチョウ","prefecture_code":24},"0042":{"zip_code":"5100042","prefecture":"三重県","prefecture_kana":"ミエケン","city":"四日市市","city_kana":"ヨッカイチシ","town":"高砂町","town_kana":"タカサゴチョウ","prefecture_code":24},"0945":{"zip_code":"5100945","prefecture":"三重県","prefecture_kana":"ミエケン","city":"四日市市","city_kana":"ヨッカイチシ","town":"高花平","town_kana":"タカハナダイラ","prefecture_code":24},"0027":{"zip_code":"5100027","prefecture":"三重県","prefecture_kana":"ミエケン","city":"四日市市","city_kana":"ヨッカイチシ","town":"高浜新町","town_kana":"タカハマシンマチ","prefecture_code":24},"0026":{"zip_code":"5100026","prefecture":"三重県","prefecture_kana":"ミエケン","city":"四日市市","city_kana":"ヨッカイチシ","town":"高浜町","town_kana":"タカハマチョウ","prefecture_code":24},"0844":{"zip_code":"5100844","prefecture":"三重県","prefecture_kana":"ミエケン","city":"四日市市","city_kana":"ヨッカイチシ","town":"宝町","town_kana":"タカラマチ","prefecture_code":24},"0034":{"zip_code":"5100034","prefecture":"三重県","prefecture_kana":"ミエケン","city":"四日市市","city_kana":"ヨッカイチシ","town":"滝川町","town_kana":"タキガワチョウ","prefecture_code":24},"8038":{"zip_code":"5108038","prefecture":"三重県","prefecture_kana":"ミエケン","city":"四日市市","city_kana":"ヨッカイチシ","town":"垂坂新町","town_kana":"タルサカシンマチ","prefecture_code":24},"8037":{"zip_code":"5108037","prefecture":"三重県","prefecture_kana":"ミエケン","city":"四日市市","city_kana":"ヨッカイチシ","town":"垂坂町","town_kana":"タルサカチョウ","prefecture_code":24},"0051":{"zip_code":"5100051","prefecture":"三重県","prefecture_kana":"ミエケン","city":"四日市市","city_kana":"ヨッカイチシ","town":"千歳町","town_kana":"チトセチョウ","prefecture_code":24},"0082":{"zip_code":"5100082","prefecture":"三重県","prefecture_kana":"ミエケン","city":"四日市市","city_kana":"ヨッカイチシ","town":"中部","town_kana":"チュウブ","prefecture_code":24},"0035":{"zip_code":"5100035","prefecture":"三重県","prefecture_kana":"ミエケン","city":"四日市市","city_kana":"ヨッカイチシ","town":"陶栄町","town_kana":"トウエイチョウ","prefecture_code":24},"0025":{"zip_code":"5100025","prefecture":"三重県","prefecture_kana":"ミエケン","city":"四日市市","city_kana":"ヨッカイチシ","town":"東新町","town_kana":"トウシンチョウ","prefecture_code":24},"0848":{"zip_code":"5100848","prefecture":"三重県","prefecture_kana":"ミエケン","city":"四日市市","city_kana":"ヨッカイチシ","town":"東邦町","town_kana":"トウホウチョウ","prefecture_code":24},"0834":{"zip_code":"5100834","prefecture":"三重県","prefecture_kana":"ミエケン","city":"四日市市","city_kana":"ヨッカイチシ","town":"ときわ","town_kana":"トキワ","prefecture_code":24},"0883":{"zip_code":"5100883","prefecture":"三重県","prefecture_kana":"ミエケン","city":"四日市市","city_kana":"ヨッカイチシ","town":"泊小柳町","town_kana":"トマリコヤナギチョウ","prefecture_code":24},"0884":{"zip_code":"5100884","prefecture":"三重県","prefecture_kana":"ミエケン","city":"四日市市","city_kana":"ヨッカイチシ","town":"泊町","town_kana":"トマリチョウ","prefecture_code":24},"0894":{"zip_code":"5100894","prefecture":"三重県","prefecture_kana":"ミエケン","city":"四日市市","city_kana":"ヨッカイチシ","town":"泊村","town_kana":"トマリムラ","prefecture_code":24},"0892":{"zip_code":"5100892","prefecture":"三重県","prefecture_kana":"ミエケン","city":"四日市市","city_kana":"ヨッカイチシ","town":"泊山崎町","town_kana":"トマリヤマザキチョウ","prefecture_code":24},"8016":{"zip_code":"5108016","prefecture":"三重県","prefecture_kana":"ミエケン","city":"四日市市","city_kana":"ヨッカイチシ","town":"富州原町","town_kana":"トミスハラチョウ","prefecture_code":24},"8014":{"zip_code":"5108014","prefecture":"三重県","prefecture_kana":"ミエケン","city":"四日市市","city_kana":"ヨッカイチシ","town":"富田","town_kana":"トミダ","prefecture_code":24},"8004":{"zip_code":"5108004","prefecture":"三重県","prefecture_kana":"ミエケン","city":"四日市市","city_kana":"ヨッカイチシ","town":"富田一色町","town_kana":"トミダイッシキチョウ","prefecture_code":24},"8025":{"zip_code":"5108025","prefecture":"三重県","prefecture_kana":"ミエケン","city":"四日市市","city_kana":"ヨッカイチシ","town":"富田栄町","town_kana":"トミダサカエマチ","prefecture_code":24},"8008":{"zip_code":"5108008","prefecture":"三重県","prefecture_kana":"ミエケン","city":"四日市市","city_kana":"ヨッカイチシ","town":"富田浜町","town_kana":"トミダハマチョウ","prefecture_code":24},"8007":{"zip_code":"5108007","prefecture":"三重県","prefecture_kana":"ミエケン","city":"四日市市","city_kana":"ヨッカイチシ","town":"富田浜元町","town_kana":"トミダハマモトチョウ","prefecture_code":24},"0833":{"zip_code":"5100833","prefecture":"三重県","prefecture_kana":"ミエケン","city":"四日市市","city_kana":"ヨッカイチシ","town":"中川原","town_kana":"ナカガワラ","prefecture_code":24},"0864":{"zip_code":"5100864","prefecture":"三重県","prefecture_kana":"ミエケン","city":"四日市市","city_kana":"ヨッカイチシ","town":"中里町","town_kana":"ナカザトチョウ","prefecture_code":24},"0048":{"zip_code":"5100048","prefecture":"三重県","prefecture_kana":"ミエケン","city":"四日市市","city_kana":"ヨッカイチシ","town":"中納屋町","town_kana":"ナカナヤチョウ","prefecture_code":24},"0065":{"zip_code":"5100065","prefecture":"三重県","prefecture_kana":"ミエケン","city":"四日市市","city_kana":"ヨッカイチシ","town":"中浜田町","town_kana":"ナカハマダチョウ","prefecture_code":24},"0096":{"zip_code":"5100096","prefecture":"三重県","prefecture_kana":"ミエケン","city":"四日市市","city_kana":"ヨッカイチシ","town":"中町","town_kana":"ナカマチ","prefecture_code":24},"0856":{"zip_code":"5100856","prefecture":"三重県","prefecture_kana":"ミエケン","city":"四日市市","city_kana":"ヨッカイチシ","town":"七つ屋町","town_kana":"ナナツヤチョウ","prefecture_code":24},"0812":{"zip_code":"5100812","prefecture":"三重県","prefecture_kana":"ミエケン","city":"四日市市","city_kana":"ヨッカイチシ","town":"西阿倉川","town_kana":"ニシアクラガワ","prefecture_code":24},"0831":{"zip_code":"5100831","prefecture":"三重県","prefecture_kana":"ミエケン","city":"四日市市","city_kana":"ヨッカイチシ","town":"西伊倉町","town_kana":"ニシイグラチョウ","prefecture_code":24},"0071":{"zip_code":"5100071","prefecture":"三重県","prefecture_kana":"ミエケン","city":"四日市市","city_kana":"ヨッカイチシ","town":"西浦","town_kana":"ニシウラ","prefecture_code":24},"0087":{"zip_code":"5100087","prefecture":"三重県","prefecture_kana":"ミエケン","city":"四日市市","city_kana":"ヨッカイチシ","town":"西新地","town_kana":"ニシシンチ","prefecture_code":24},"0058":{"zip_code":"5100058","prefecture":"三重県","prefecture_kana":"ミエケン","city":"四日市市","city_kana":"ヨッカイチシ","town":"西末広町","town_kana":"ニシスエヒロチョウ","prefecture_code":24},"8023":{"zip_code":"5108023","prefecture":"三重県","prefecture_kana":"ミエケン","city":"四日市市","city_kana":"ヨッカイチシ","town":"西富田","town_kana":"ニシトミダ","prefecture_code":24},"8024":{"zip_code":"5108024","prefecture":"三重県","prefecture_kana":"ミエケン","city":"四日市市","city_kana":"ヨッカイチシ","town":"西富田町","town_kana":"ニシトミダチョウ","prefecture_code":24},"0073":{"zip_code":"5100073","prefecture":"三重県","prefecture_kana":"ミエケン","city":"四日市市","city_kana":"ヨッカイチシ","town":"西浜田町","town_kana":"ニシハマダチョウ","prefecture_code":24},"0943":{"zip_code":"5100943","prefecture":"三重県","prefecture_kana":"ミエケン","city":"四日市市","city_kana":"ヨッカイチシ","town":"西日野町","town_kana":"ニシヒノチョウ","prefecture_code":24},"0089":{"zip_code":"5100089","prefecture":"三重県","prefecture_kana":"ミエケン","city":"四日市市","city_kana":"ヨッカイチシ","town":"西町","town_kana":"ニシマチ","prefecture_code":24},"0837":{"zip_code":"5100837","prefecture":"三重県","prefecture_kana":"ミエケン","city":"四日市市","city_kana":"ヨッカイチシ","town":"西松本町","town_kana":"ニシマツモトチョウ","prefecture_code":24},"0815":{"zip_code":"5100815","prefecture":"三重県","prefecture_kana":"ミエケン","city":"四日市市","city_kana":"ヨッカイチシ","town":"野田","town_kana":"ノダ","prefecture_code":24},"0962":{"zip_code":"5100962","prefecture":"三重県","prefecture_kana":"ミエケン","city":"四日市市","city_kana":"ヨッカイチシ","town":"波木が丘町","town_kana":"ハギガオカチョウ","prefecture_code":24},"0961":{"zip_code":"5100961","prefecture":"三重県","prefecture_kana":"ミエケン","city":"四日市市","city_kana":"ヨッカイチシ","town":"波木町","town_kana":"ハギチョウ","prefecture_code":24},"0963":{"zip_code":"5100963","prefecture":"三重県","prefecture_kana":"ミエケン","city":"四日市市","city_kana":"ヨッカイチシ","town":"波木南台","town_kana":"ハギミナミダイ","prefecture_code":24},"0868":{"zip_code":"5100868","prefecture":"三重県","prefecture_kana":"ミエケン","city":"四日市市","city_kana":"ヨッカイチシ","town":"馳出","town_kana":"ハセダシ","prefecture_code":24},"0855":{"zip_code":"5100855","prefecture":"三重県","prefecture_kana":"ミエケン","city":"四日市市","city_kana":"ヨッカイチシ","town":"馳出町","town_kana":"ハセダシチョウ","prefecture_code":24},"0947":{"zip_code":"5100947","prefecture":"三重県","prefecture_kana":"ミエケン","city":"四日市市","city_kana":"ヨッカイチシ","town":"八王子町","town_kana":"ハチオウジチョウ","prefecture_code":24},"0097":{"zip_code":"5100097","prefecture":"三重県","prefecture_kana":"ミエケン","city":"四日市市","city_kana":"ヨッカイチシ","town":"八幡町","town_kana":"ハチマンチョウ","prefecture_code":24},"0001":{"zip_code":"5100001","prefecture":"三重県","prefecture_kana":"ミエケン","city":"四日市市","city_kana":"ヨッカイチシ","town":"八田","town_kana":"ハッタ","prefecture_code":24},"0012":{"zip_code":"5100012","prefecture":"三重県","prefecture_kana":"ミエケン","city":"四日市市","city_kana":"ヨッカイチシ","town":"羽津","town_kana":"ハヅ","prefecture_code":24},"0017":{"zip_code":"5100017","prefecture":"三重県","prefecture_kana":"ミエケン","city":"四日市市","city_kana":"ヨッカイチシ","town":"羽津町","town_kana":"ハヅチョウ","prefecture_code":24},"0002":{"zip_code":"5100002","prefecture":"三重県","prefecture_kana":"ミエケン","city":"四日市市","city_kana":"ヨッカイチシ","town":"羽津中","town_kana":"ハヅナカ","prefecture_code":24},"0016":{"zip_code":"5100016","prefecture":"三重県","prefecture_kana":"ミエケン","city":"四日市市","city_kana":"ヨッカイチシ","town":"羽津山町","town_kana":"ハヅヤマチョウ","prefecture_code":24},"0852":{"zip_code":"5100852","prefecture":"三重県","prefecture_kana":"ミエケン","city":"四日市市","city_kana":"ヨッカイチシ","town":"浜旭町","town_kana":"ハマアサヒチョウ","prefecture_code":24},"0031":{"zip_code":"5100031","prefecture":"三重県","prefecture_kana":"ミエケン","city":"四日市市","city_kana":"ヨッカイチシ","town":"浜一色町","town_kana":"ハマイッシキチョウ","prefecture_code":24},"8009":{"zip_code":"5108009","prefecture":"三重県","prefecture_kana":"ミエケン","city":"四日市市","city_kana":"ヨッカイチシ","town":"浜園町","town_kana":"ハマゾノチョウ","prefecture_code":24},"0067":{"zip_code":"5100067","prefecture":"三重県","prefecture_kana":"ミエケン","city":"四日市市","city_kana":"ヨッカイチシ","town":"浜田町","town_kana":"ハマダチョウ","prefecture_code":24},"0046":{"zip_code":"5100046","prefecture":"三重県","prefecture_kana":"ミエケン","city":"四日市市","city_kana":"ヨッカイチシ","town":"浜町","town_kana":"ハママチ","prefecture_code":24},"0804":{"zip_code":"5100804","prefecture":"三重県","prefecture_kana":"ミエケン","city":"四日市市","city_kana":"ヨッカイチシ","town":"万古町","town_kana":"バンコチョウ","prefecture_code":24},"0805":{"zip_code":"5100805","prefecture":"三重県","prefecture_kana":"ミエケン","city":"四日市市","city_kana":"ヨッカイチシ","town":"東阿倉川","town_kana":"ヒガシアクラガワ","prefecture_code":24},"8035":{"zip_code":"5108035","prefecture":"三重県","prefecture_kana":"ミエケン","city":"四日市市","city_kana":"ヨッカイチシ","town":"東垂坂町","town_kana":"ヒガシタルサカチョウ","prefecture_code":24},"8006":{"zip_code":"5108006","prefecture":"三重県","prefecture_kana":"ミエケン","city":"四日市市","city_kana":"ヨッカイチシ","town":"東富田町","town_kana":"ヒガシトミダチョウ","prefecture_code":24},"0941":{"zip_code":"5100941","prefecture":"三重県","prefecture_kana":"ミエケン","city":"四日市市","city_kana":"ヨッカイチシ","town":"東日野","town_kana":"ヒガシヒノ","prefecture_code":24},"0942":{"zip_code":"5100942","prefecture":"三重県","prefecture_kana":"ミエケン","city":"四日市市","city_kana":"ヨッカイチシ","town":"東日野町","town_kana":"ヒガシヒノチョウ","prefecture_code":24},"8011":{"zip_code":"5108011","prefecture":"三重県","prefecture_kana":"ミエケン","city":"四日市市","city_kana":"ヨッカイチシ","town":"東茂福町","town_kana":"ヒガシモチブクチョウ","prefecture_code":24},"0885":{"zip_code":"5100885","prefecture":"三重県","prefecture_kana":"ミエケン","city":"四日市市","city_kana":"ヨッカイチシ","town":"日永","town_kana":"ヒナガ","prefecture_code":24},"0886":{"zip_code":"5100886","prefecture":"三重県","prefecture_kana":"ミエケン","city":"四日市市","city_kana":"ヨッカイチシ","town":"日永東","town_kana":"ヒナガヒガシ","prefecture_code":24},"0891":{"zip_code":"5100891","prefecture":"三重県","prefecture_kana":"ミエケン","city":"四日市市","city_kana":"ヨッカイチシ","town":"日永西","town_kana":"ヒナガニシ","prefecture_code":24},"0013":{"zip_code":"5100013","prefecture":"三重県","prefecture_kana":"ミエケン","city":"四日市市","city_kana":"ヨッカイチシ","town":"富士町","town_kana":"フジチョウ","prefecture_code":24},"8005":{"zip_code":"5108005","prefecture":"三重県","prefecture_kana":"ミエケン","city":"四日市市","city_kana":"ヨッカイチシ","town":"富双","town_kana":"フソウ","prefecture_code":24},"0007":{"zip_code":"5100007","prefecture":"三重県","prefecture_kana":"ミエケン","city":"四日市市","city_kana":"ヨッカイチシ","town":"別名","town_kana":"ベツメイ","prefecture_code":24},"0076":{"zip_code":"5100076","prefecture":"三重県","prefecture_kana":"ミエケン","city":"四日市市","city_kana":"ヨッカイチシ","town":"堀木","town_kana":"ホリキ","prefecture_code":24},"0806":{"zip_code":"5100806","prefecture":"三重県","prefecture_kana":"ミエケン","city":"四日市市","city_kana":"ヨッカイチシ","town":"本郷町","town_kana":"ホンゴウチョウ","prefecture_code":24},"0093":{"zip_code":"5100093","prefecture":"三重県","prefecture_kana":"ミエケン","city":"四日市市","city_kana":"ヨッカイチシ","town":"本町","town_kana":"ホンマチ","prefecture_code":24},"0893":{"zip_code":"5100893","prefecture":"三重県","prefecture_kana":"ミエケン","city":"四日市市","city_kana":"ヨッカイチシ","town":"前田町","town_kana":"マエダチョウ","prefecture_code":24},"8022":{"zip_code":"5108022","prefecture":"三重県","prefecture_kana":"ミエケン","city":"四日市市","city_kana":"ヨッカイチシ","town":"蒔田","town_kana":"マキタ","prefecture_code":24},"8021":{"zip_code":"5108021","prefecture":"三重県","prefecture_kana":"ミエケン","city":"四日市市","city_kana":"ヨッカイチシ","town":"松寺","town_kana":"マツテラ","prefecture_code":24},"8015":{"zip_code":"5108015","prefecture":"三重県","prefecture_kana":"ミエケン","city":"四日市市","city_kana":"ヨッカイチシ","town":"松原町","town_kana":"マツバラチョウ","prefecture_code":24},"0836":{"zip_code":"5100836","prefecture":"三重県","prefecture_kana":"ミエケン","city":"四日市市","city_kana":"ヨッカイチシ","town":"松本","town_kana":"マツモト","prefecture_code":24},"0862":{"zip_code":"5100862","prefecture":"三重県","prefecture_kana":"ミエケン","city":"四日市市","city_kana":"ヨッカイチシ","town":"御薗町","town_kana":"ミソノチョウ","prefecture_code":24},"0841":{"zip_code":"5100841","prefecture":"三重県","prefecture_kana":"ミエケン","city":"四日市市","city_kana":"ヨッカイチシ","town":"三田町","town_kana":"ミタチョウ","prefecture_code":24},"0802":{"zip_code":"5100802","prefecture":"三重県","prefecture_kana":"ミエケン","city":"四日市市","city_kana":"ヨッカイチシ","town":"三ツ谷町","town_kana":"ミツヤチョウ","prefecture_code":24},"0801":{"zip_code":"5100801","prefecture":"三重県","prefecture_kana":"ミエケン","city":"四日市市","city_kana":"ヨッカイチシ","town":"三ツ谷東町","town_kana":"ミツヤヒガシマチ","prefecture_code":24},"0006":{"zip_code":"5100006","prefecture":"三重県","prefecture_kana":"ミエケン","city":"四日市市","city_kana":"ヨッカイチシ","town":"緑丘町","town_kana":"ミドリガオカチョウ","prefecture_code":24},"0008":{"zip_code":"5100008","prefecture":"三重県","prefecture_kana":"ミエケン","city":"四日市市","city_kana":"ヨッカイチシ","town":"南いかるが町","town_kana":"ミナミイカルガチョウ","prefecture_code":24},"0056":{"zip_code":"5100056","prefecture":"三重県","prefecture_kana":"ミエケン","city":"四日市市","city_kana":"ヨッカイチシ","town":"南起町","town_kana":"ミナミオコシチョウ","prefecture_code":24},"0971":{"zip_code":"5100971","prefecture":"三重県","prefecture_kana":"ミエケン","city":"四日市市","city_kana":"ヨッカイチシ","town":"南小松町","town_kana":"ミナミコマツチョウ","prefecture_code":24},"8036":{"zip_code":"5108036","prefecture":"三重県","prefecture_kana":"ミエケン","city":"四日市市","city_kana":"ヨッカイチシ","town":"南垂坂町","town_kana":"ミナミタルサカチョウ","prefecture_code":24},"8013":{"zip_code":"5108013","prefecture":"三重県","prefecture_kana":"ミエケン","city":"四日市市","city_kana":"ヨッカイチシ","town":"南富田町","town_kana":"ミナミトミダチョウ","prefecture_code":24},"0043":{"zip_code":"5100043","prefecture":"三重県","prefecture_kana":"ミエケン","city":"四日市市","city_kana":"ヨッカイチシ","town":"南納屋町","town_kana":"ミナミナヤチョウ","prefecture_code":24},"0066":{"zip_code":"5100066","prefecture":"三重県","prefecture_kana":"ミエケン","city":"四日市市","city_kana":"ヨッカイチシ","town":"南浜田町","town_kana":"ミナミハマダチョウ","prefecture_code":24},"0838":{"zip_code":"5100838","prefecture":"三重県","prefecture_kana":"ミエケン","city":"四日市市","city_kana":"ヨッカイチシ","town":"南松本町","town_kana":"ミナミマツモトチョウ","prefecture_code":24},"0843":{"zip_code":"5100843","prefecture":"三重県","prefecture_kana":"ミエケン","city":"四日市市","city_kana":"ヨッカイチシ","town":"宮東町","town_kana":"ミヤヒガシチョウ","prefecture_code":24},"0845":{"zip_code":"5100845","prefecture":"三重県","prefecture_kana":"ミエケン","city":"四日市市","city_kana":"ヨッカイチシ","town":"海山道町","town_kana":"ミヤマドチョウ","prefecture_code":24},"0811":{"zip_code":"5100811","prefecture":"三重県","prefecture_kana":"ミエケン","city":"四日市市","city_kana":"ヨッカイチシ","town":"みゆきケ丘","town_kana":"ミユキガオカ","prefecture_code":24},"0948":{"zip_code":"5100948","prefecture":"三重県","prefecture_kana":"ミエケン","city":"四日市市","city_kana":"ヨッカイチシ","town":"室山町","town_kana":"ムロヤマチョウ","prefecture_code":24},"8027":{"zip_code":"5108027","prefecture":"三重県","prefecture_kana":"ミエケン","city":"四日市市","city_kana":"ヨッカイチシ","town":"茂福","town_kana":"モチブク","prefecture_code":24},"8012":{"zip_code":"5108012","prefecture":"三重県","prefecture_kana":"ミエケン","city":"四日市市","city_kana":"ヨッカイチシ","town":"茂福町","town_kana":"モチブクチョウ","prefecture_code":24},"0095":{"zip_code":"5100095","prefecture":"三重県","prefecture_kana":"ミエケン","city":"四日市市","city_kana":"ヨッカイチシ","town":"元新町","town_kana":"モトシンマチ","prefecture_code":24},"0088":{"zip_code":"5100088","prefecture":"三重県","prefecture_kana":"ミエケン","city":"四日市市","city_kana":"ヨッカイチシ","town":"元町","town_kana":"モトマチ","prefecture_code":24},"0957":{"zip_code":"5100957","prefecture":"三重県","prefecture_kana":"ミエケン","city":"四日市市","city_kana":"ヨッカイチシ","town":"森カ山町","town_kana":"モリガヤマチョウ","prefecture_code":24},"0075":{"zip_code":"5100075","prefecture":"三重県","prefecture_kana":"ミエケン","city":"四日市市","city_kana":"ヨッカイチシ","town":"安島","town_kana":"ヤスジマ","prefecture_code":24},"0861":{"zip_code":"5100861","prefecture":"三重県","prefecture_kana":"ミエケン","city":"四日市市","city_kana":"ヨッカイチシ","town":"柳町","town_kana":"ヤナギマチ","prefecture_code":24},"0005":{"zip_code":"5100005","prefecture":"三重県","prefecture_kana":"ミエケン","city":"四日市市","city_kana":"ヨッカイチシ","town":"山手町","town_kana":"ヤマテチョウ","prefecture_code":24},"0881":{"zip_code":"5100881","prefecture":"三重県","prefecture_kana":"ミエケン","city":"四日市市","city_kana":"ヨッカイチシ","town":"六呂見","town_kana":"ロクロミ","prefecture_code":24},"0258":{"zip_code":"5100258","prefecture":"三重県","prefecture_kana":"ミエケン","city":"鈴鹿市","city_kana":"スズカシ","town":"秋永町","town_kana":"アキナガチョウ","prefecture_code":24},"0256":{"zip_code":"5100256","prefecture":"三重県","prefecture_kana":"ミエケン","city":"鈴鹿市","city_kana":"スズカシ","town":"磯山","town_kana":"イソヤマ","prefecture_code":24},"0255":{"zip_code":"5100255","prefecture":"三重県","prefecture_kana":"ミエケン","city":"鈴鹿市","city_kana":"スズカシ","town":"磯山町","town_kana":"イソヤマチョウ","prefecture_code":24},"0205":{"zip_code":"5100205","prefecture":"三重県","prefecture_kana":"ミエケン","city":"鈴鹿市","city_kana":"スズカシ","town":"稲生","town_kana":"イノウ","prefecture_code":24},"0206":{"zip_code":"5100206","prefecture":"三重県","prefecture_kana":"ミエケン","city":"鈴鹿市","city_kana":"スズカシ","town":"稲生こがね園","town_kana":"イノウコガネエン","prefecture_code":24},"0207":{"zip_code":"5100207","prefecture":"三重県","prefecture_kana":"ミエケン","city":"鈴鹿市","city_kana":"スズカシ","town":"稲生塩屋","town_kana":"イノウシオヤ","prefecture_code":24},"0201":{"zip_code":"5100201","prefecture":"三重県","prefecture_kana":"ミエケン","city":"鈴鹿市","city_kana":"スズカシ","town":"稲生町","town_kana":"イノウチョウ","prefecture_code":24},"0204":{"zip_code":"5100204","prefecture":"三重県","prefecture_kana":"ミエケン","city":"鈴鹿市","city_kana":"スズカシ","town":"稲生西","town_kana":"イノウニシ","prefecture_code":24},"0252":{"zip_code":"5100252","prefecture":"三重県","prefecture_kana":"ミエケン","city":"鈴鹿市","city_kana":"スズカシ","town":"五祝町","town_kana":"イワイチョウ","prefecture_code":24},"0231":{"zip_code":"5100231","prefecture":"三重県","prefecture_kana":"ミエケン","city":"鈴鹿市","city_kana":"スズカシ","town":"江島台","town_kana":"エジマダイ","prefecture_code":24},"0237":{"zip_code":"5100237","prefecture":"三重県","prefecture_kana":"ミエケン","city":"鈴鹿市","city_kana":"スズカシ","town":"江島町","town_kana":"エジマチョウ","prefecture_code":24},"0234":{"zip_code":"5100234","prefecture":"三重県","prefecture_kana":"ミエケン","city":"鈴鹿市","city_kana":"スズカシ","town":"江島本町","town_kana":"エジマホンマチ","prefecture_code":24},"0262":{"zip_code":"5100262","prefecture":"三重県","prefecture_kana":"ミエケン","city":"鈴鹿市","city_kana":"スズカシ","town":"越知町","town_kana":"オウチチョウ","prefecture_code":24},"0226":{"zip_code":"5100226","prefecture":"三重県","prefecture_kana":"ミエケン","city":"鈴鹿市","city_kana":"スズカシ","town":"岸岡町","town_kana":"キシオカチョウ","prefecture_code":24},"0232":{"zip_code":"5100232","prefecture":"三重県","prefecture_kana":"ミエケン","city":"鈴鹿市","city_kana":"スズカシ","town":"北江島町","town_kana":"キタエジマチョウ","prefecture_code":24},"0221":{"zip_code":"5100221","prefecture":"三重県","prefecture_kana":"ミエケン","city":"鈴鹿市","city_kana":"スズカシ","town":"北若松町","town_kana":"キタワカマツチョウ","prefecture_code":24},"0263":{"zip_code":"5100263","prefecture":"三重県","prefecture_kana":"ミエケン","city":"鈴鹿市","city_kana":"スズカシ","town":"郡山町","town_kana":"コオリヤマチョウ","prefecture_code":24},"0254":{"zip_code":"5100254","prefecture":"三重県","prefecture_kana":"ミエケン","city":"鈴鹿市","city_kana":"スズカシ","town":"寺家","town_kana":"ジケ","prefecture_code":24},"0253":{"zip_code":"5100253","prefecture":"三重県","prefecture_kana":"ミエケン","city":"鈴鹿市","city_kana":"スズカシ","town":"寺家町","town_kana":"ジケチョウ","prefecture_code":24},"0243":{"zip_code":"5100243","prefecture":"三重県","prefecture_kana":"ミエケン","city":"鈴鹿市","city_kana":"スズカシ","town":"白子","town_kana":"シロコ","prefecture_code":24},"0241":{"zip_code":"5100241","prefecture":"三重県","prefecture_kana":"ミエケン","city":"鈴鹿市","city_kana":"スズカシ","town":"白子駅前","town_kana":"シロコエキマエ","prefecture_code":24},"0242":{"zip_code":"5100242","prefecture":"三重県","prefecture_kana":"ミエケン","city":"鈴鹿市","city_kana":"スズカシ","town":"白子本町","town_kana":"シロコホンマチ","prefecture_code":24},"0244":{"zip_code":"5100244","prefecture":"三重県","prefecture_kana":"ミエケン","city":"鈴鹿市","city_kana":"スズカシ","town":"白子町","town_kana":"シロコチョウ","prefecture_code":24},"0208":{"zip_code":"5100208","prefecture":"三重県","prefecture_kana":"ミエケン","city":"鈴鹿市","city_kana":"スズカシ","town":"鈴鹿ハイツ","town_kana":"スズカハイツ","prefecture_code":24},"0266":{"zip_code":"5100266","prefecture":"三重県","prefecture_kana":"ミエケン","city":"鈴鹿市","city_kana":"スズカシ","town":"長法寺町","town_kana":"チョウボウジチョウ","prefecture_code":24},"0264":{"zip_code":"5100264","prefecture":"三重県","prefecture_kana":"ミエケン","city":"鈴鹿市","city_kana":"スズカシ","town":"徳居町","town_kana":"トクスイチョウ","prefecture_code":24},"0251":{"zip_code":"5100251","prefecture":"三重県","prefecture_kana":"ミエケン","city":"鈴鹿市","city_kana":"スズカシ","town":"徳田町","town_kana":"トクダチョウ","prefecture_code":24},"0212":{"zip_code":"5100212","prefecture":"三重県","prefecture_kana":"ミエケン","city":"鈴鹿市","city_kana":"スズカシ","town":"中旭が丘","town_kana":"ナカアサヒガオカ","prefecture_code":24},"0236":{"zip_code":"5100236","prefecture":"三重県","prefecture_kana":"ミエケン","city":"鈴鹿市","city_kana":"スズカシ","town":"中江島町","town_kana":"ナカエジマチョウ","prefecture_code":24},"0259":{"zip_code":"5100259","prefecture":"三重県","prefecture_kana":"ミエケン","city":"鈴鹿市","city_kana":"スズカシ","town":"中瀬古町","town_kana":"ナカゼコチョウ","prefecture_code":24},"0202":{"zip_code":"5100202","prefecture":"三重県","prefecture_kana":"ミエケン","city":"鈴鹿市","city_kana":"スズカシ","town":"野町","town_kana":"ノマチ","prefecture_code":24},"0216":{"zip_code":"5100216","prefecture":"三重県","prefecture_kana":"ミエケン","city":"鈴鹿市","city_kana":"スズカシ","town":"野町中","town_kana":"ノマチナカ","prefecture_code":24},"0218":{"zip_code":"5100218","prefecture":"三重県","prefecture_kana":"ミエケン","city":"鈴鹿市","city_kana":"スズカシ","town":"野町西","town_kana":"ノマチニシ","prefecture_code":24},"0217":{"zip_code":"5100217","prefecture":"三重県","prefecture_kana":"ミエケン","city":"鈴鹿市","city_kana":"スズカシ","town":"野町東","town_kana":"ノマチヒガシ","prefecture_code":24},"0219":{"zip_code":"5100219","prefecture":"三重県","prefecture_kana":"ミエケン","city":"鈴鹿市","city_kana":"スズカシ","town":"野町南","town_kana":"ノマチミナミ","prefecture_code":24},"0203":{"zip_code":"5100203","prefecture":"三重県","prefecture_kana":"ミエケン","city":"鈴鹿市","city_kana":"スズカシ","town":"野村町","town_kana":"ノムラチョウ","prefecture_code":24},"0211":{"zip_code":"5100211","prefecture":"三重県","prefecture_kana":"ミエケン","city":"鈴鹿市","city_kana":"スズカシ","town":"東旭が丘","town_kana":"ヒガシアサヒガオカ","prefecture_code":24},"0257":{"zip_code":"5100257","prefecture":"三重県","prefecture_kana":"ミエケン","city":"鈴鹿市","city_kana":"スズカシ","town":"東磯山","town_kana":"ヒガシイソヤマ","prefecture_code":24},"0233":{"zip_code":"5100233","prefecture":"三重県","prefecture_kana":"ミエケン","city":"鈴鹿市","city_kana":"スズカシ","town":"東江島町","town_kana":"ヒガシエジマチョウ","prefecture_code":24},"0261":{"zip_code":"5100261","prefecture":"三重県","prefecture_kana":"ミエケン","city":"鈴鹿市","city_kana":"スズカシ","town":"御薗町","town_kana":"ミソノチョウ","prefecture_code":24},"0213":{"zip_code":"5100213","prefecture":"三重県","prefecture_kana":"ミエケン","city":"鈴鹿市","city_kana":"スズカシ","town":"南旭が丘","town_kana":"ミナミアサヒガオカ","prefecture_code":24},"0235":{"zip_code":"5100235","prefecture":"三重県","prefecture_kana":"ミエケン","city":"鈴鹿市","city_kana":"スズカシ","town":"南江島町","town_kana":"ミナミエジマチョウ","prefecture_code":24},"0227":{"zip_code":"5100227","prefecture":"三重県","prefecture_kana":"ミエケン","city":"鈴鹿市","city_kana":"スズカシ","town":"南若松町","town_kana":"ミナミワカマツチョウ","prefecture_code":24},"0265":{"zip_code":"5100265","prefecture":"三重県","prefecture_kana":"ミエケン","city":"鈴鹿市","city_kana":"スズカシ","town":"三宅町","town_kana":"ミヤケチョウ","prefecture_code":24},"0224":{"zip_code":"5100224","prefecture":"三重県","prefecture_kana":"ミエケン","city":"鈴鹿市","city_kana":"スズカシ","town":"若松中","town_kana":"ワカマツナカ","prefecture_code":24},"0225":{"zip_code":"5100225","prefecture":"三重県","prefecture_kana":"ミエケン","city":"鈴鹿市","city_kana":"スズカシ","town":"若松東","town_kana":"ワカマツヒガシ","prefecture_code":24},"0222":{"zip_code":"5100222","prefecture":"三重県","prefecture_kana":"ミエケン","city":"鈴鹿市","city_kana":"スズカシ","town":"若松西","town_kana":"ワカマツニシ","prefecture_code":24},"0223":{"zip_code":"5100223","prefecture":"三重県","prefecture_kana":"ミエケン","city":"鈴鹿市","city_kana":"スズカシ","town":"若松北","town_kana":"ワカマツキタ","prefecture_code":24},"1200":{"zip_code":"5101200","prefecture":"三重県","prefecture_kana":"ミエケン","city":"三重郡菰野町","city_kana":"ミエグンコモノチョウ","town":"","town_kana":"","prefecture_code":24},"1221":{"zip_code":"5101221","prefecture":"三重県","prefecture_kana":"ミエケン","city":"三重郡菰野町","city_kana":"ミエグンコモノチョウ","town":"池底","town_kana":"イケゾコ","prefecture_code":24},"1253":{"zip_code":"5101253","prefecture":"三重県","prefecture_kana":"ミエケン","city":"三重郡菰野町","city_kana":"ミエグンコモノチョウ","town":"潤田","town_kana":"ウルダ","prefecture_code":24},"1222":{"zip_code":"5101222","prefecture":"三重県","prefecture_kana":"ミエケン","city":"三重郡菰野町","city_kana":"ミエグンコモノチョウ","town":"大強原","town_kana":"オオゴハラ","prefecture_code":24},"1246":{"zip_code":"5101246","prefecture":"三重県","prefecture_kana":"ミエケン","city":"三重郡菰野町","city_kana":"ミエグンコモノチョウ","town":"大羽根園青葉町","town_kana":"オオバネエンアオバチョウ","prefecture_code":24},"1243":{"zip_code":"5101243","prefecture":"三重県","prefecture_kana":"ミエケン","city":"三重郡菰野町","city_kana":"ミエグンコモノチョウ","town":"大羽根園呉竹町","town_kana":"オオバネエンクレタケチョウ","prefecture_code":24},"1242":{"zip_code":"5101242","prefecture":"三重県","prefecture_kana":"ミエケン","city":"三重郡菰野町","city_kana":"ミエグンコモノチョウ","town":"大羽根園柴垣町","town_kana":"オオバネエンシバガキチョウ","prefecture_code":24},"1241":{"zip_code":"5101241","prefecture":"三重県","prefecture_kana":"ミエケン","city":"三重郡菰野町","city_kana":"ミエグンコモノチョウ","town":"大羽根園新林町","town_kana":"オオバネエンシンバヤシチョウ","prefecture_code":24},"1244":{"zip_code":"5101244","prefecture":"三重県","prefecture_kana":"ミエケン","city":"三重郡菰野町","city_kana":"ミエグンコモノチョウ","town":"大羽根園並木通","town_kana":"オオバネエンナミキドオリ","prefecture_code":24},"1245":{"zip_code":"5101245","prefecture":"三重県","prefecture_kana":"ミエケン","city":"三重郡菰野町","city_kana":"ミエグンコモノチョウ","town":"大羽根園松ケ枝町","town_kana":"オオバネエンマツガエチョウ","prefecture_code":24},"1323":{"zip_code":"5101323","prefecture":"三重県","prefecture_kana":"ミエケン","city":"三重郡菰野町","city_kana":"ミエグンコモノチョウ","town":"小島","town_kana":"オジマ","prefecture_code":24},"1252":{"zip_code":"5101252","prefecture":"三重県","prefecture_kana":"ミエケン","city":"三重郡菰野町","city_kana":"ミエグンコモノチョウ","town":"音羽","town_kana":"オトワ","prefecture_code":24},"1231":{"zip_code":"5101231","prefecture":"三重県","prefecture_kana":"ミエケン","city":"三重郡菰野町","city_kana":"ミエグンコモノチョウ","town":"神森","town_kana":"カモリ","prefecture_code":24},"1224":{"zip_code":"5101224","prefecture":"三重県","prefecture_kana":"ミエケン","city":"三重郡菰野町","city_kana":"ミエグンコモノチョウ","town":"川北","town_kana":"カワキタ","prefecture_code":24},"1328":{"zip_code":"5101328","prefecture":"三重県","prefecture_kana":"ミエケン","city":"三重郡菰野町","city_kana":"ミエグンコモノチョウ","town":"切畑","town_kana":"キリハタ","prefecture_code":24},"1233":{"zip_code":"5101233","prefecture":"三重県","prefecture_kana":"ミエケン","city":"三重郡菰野町","city_kana":"ミエグンコモノチョウ","town":"菰野","town_kana":"コモノ","prefecture_code":24},"1325":{"zip_code":"5101325","prefecture":"三重県","prefecture_kana":"ミエケン","city":"三重郡菰野町","city_kana":"ミエグンコモノチョウ","town":"榊","town_kana":"サカキ","prefecture_code":24},"1225":{"zip_code":"5101225","prefecture":"三重県","prefecture_kana":"ミエケン","city":"三重郡菰野町","city_kana":"ミエグンコモノチョウ","town":"下村","town_kana":"シモムラ","prefecture_code":24},"1232":{"zip_code":"5101232","prefecture":"三重県","prefecture_kana":"ミエケン","city":"三重郡菰野町","city_kana":"ミエグンコモノチョウ","town":"宿野","town_kana":"シュクノ","prefecture_code":24},"1326":{"zip_code":"5101326","prefecture":"三重県","prefecture_kana":"ミエケン","city":"三重郡菰野町","city_kana":"ミエグンコモノチョウ","town":"杉谷","town_kana":"スギタニ","prefecture_code":24},"1223":{"zip_code":"5101223","prefecture":"三重県","prefecture_kana":"ミエケン","city":"三重郡菰野町","city_kana":"ミエグンコモノチョウ","town":"諏訪","town_kana":"スワ","prefecture_code":24},"1321":{"zip_code":"5101321","prefecture":"三重県","prefecture_kana":"ミエケン","city":"三重郡菰野町","city_kana":"ミエグンコモノチョウ","town":"田口","town_kana":"タグチ","prefecture_code":24},"1322":{"zip_code":"5101322","prefecture":"三重県","prefecture_kana":"ミエケン","city":"三重郡菰野町","city_kana":"ミエグンコモノチョウ","town":"田口新田","town_kana":"タグチシンデン","prefecture_code":24},"1312":{"zip_code":"5101312","prefecture":"三重県","prefecture_kana":"ミエケン","city":"三重郡菰野町","city_kana":"ミエグンコモノチョウ","town":"竹成","town_kana":"タケナリ","prefecture_code":24},"1324":{"zip_code":"5101324","prefecture":"三重県","prefecture_kana":"ミエケン","city":"三重郡菰野町","city_kana":"ミエグンコモノチョウ","town":"田光","town_kana":"タビカ","prefecture_code":24},"1251":{"zip_code":"5101251","prefecture":"三重県","prefecture_kana":"ミエケン","city":"三重郡菰野町","city_kana":"ミエグンコモノチョウ","town":"千草","town_kana":"チクサ","prefecture_code":24},"1311":{"zip_code":"5101311","prefecture":"三重県","prefecture_kana":"ミエケン","city":"三重郡菰野町","city_kana":"ミエグンコモノチョウ","town":"永井","town_kana":"ナガイ","prefecture_code":24},"1327":{"zip_code":"5101327","prefecture":"三重県","prefecture_kana":"ミエケン","city":"三重郡菰野町","city_kana":"ミエグンコモノチョウ","town":"根の平","town_kana":"ネノヒラ","prefecture_code":24},"1236":{"zip_code":"5101236","prefecture":"三重県","prefecture_kana":"ミエケン","city":"三重郡菰野町","city_kana":"ミエグンコモノチョウ","town":"初若の郷","town_kana":"ハツワカノサト","prefecture_code":24},"1234":{"zip_code":"5101234","prefecture":"三重県","prefecture_kana":"ミエケン","city":"三重郡菰野町","city_kana":"ミエグンコモノチョウ","town":"福村","town_kana":"フクムラ","prefecture_code":24},"1235":{"zip_code":"5101235","prefecture":"三重県","prefecture_kana":"ミエケン","city":"三重郡菰野町","city_kana":"ミエグンコモノチョウ","town":"宝永台","town_kana":"ホウエイダイ","prefecture_code":24},"1226":{"zip_code":"5101226","prefecture":"三重県","prefecture_kana":"ミエケン","city":"三重郡菰野町","city_kana":"ミエグンコモノチョウ","town":"吉沢","town_kana":"ヨシザワ","prefecture_code":24},"8104":{"zip_code":"5108104","prefecture":"三重県","prefecture_kana":"ミエケン","city":"三重郡朝日町","city_kana":"ミエグンアサヒチョウ","town":"埋縄","town_kana":"ウズナワ","prefecture_code":24},"8102":{"zip_code":"5108102","prefecture":"三重県","prefecture_kana":"ミエケン","city":"三重郡朝日町","city_kana":"ミエグンアサヒチョウ","town":"小向","town_kana":"オブケ","prefecture_code":24},"8103":{"zip_code":"5108103","prefecture":"三重県","prefecture_kana":"ミエケン","city":"三重郡朝日町","city_kana":"ミエグンアサヒチョウ","town":"柿","town_kana":"カキ","prefecture_code":24},"8105":{"zip_code":"5108105","prefecture":"三重県","prefecture_kana":"ミエケン","city":"三重郡朝日町","city_kana":"ミエグンアサヒチョウ","town":"向陽台","town_kana":"コウヨウダイ","prefecture_code":24},"8107":{"zip_code":"5108107","prefecture":"三重県","prefecture_kana":"ミエケン","city":"三重郡朝日町","city_kana":"ミエグンアサヒチョウ","town":"白梅の丘西","town_kana":"シラウメノオカニシ","prefecture_code":24},"8106":{"zip_code":"5108106","prefecture":"三重県","prefecture_kana":"ミエケン","city":"三重郡朝日町","city_kana":"ミエグンアサヒチョウ","town":"白梅の丘東","town_kana":"シラウメノオカヒガシ","prefecture_code":24},"8101":{"zip_code":"5108101","prefecture":"三重県","prefecture_kana":"ミエケン","city":"三重郡朝日町","city_kana":"ミエグンアサヒチョウ","town":"縄生","town_kana":"ナオ","prefecture_code":24},"8113":{"zip_code":"5108113","prefecture":"三重県","prefecture_kana":"ミエケン","city":"三重郡川越町","city_kana":"ミエグンカワゴエチョウ","town":"亀尾新田","town_kana":"カメオシンデン","prefecture_code":24},"8114":{"zip_code":"5108114","prefecture":"三重県","prefecture_kana":"ミエケン","city":"三重郡川越町","city_kana":"ミエグンカワゴエチョウ","town":"亀崎新田","town_kana":"カメザキシンデン","prefecture_code":24},"8112":{"zip_code":"5108112","prefecture":"三重県","prefecture_kana":"ミエケン","city":"三重郡川越町","city_kana":"ミエグンカワゴエチョウ","town":"亀須新田","town_kana":"カメズシンデン","prefecture_code":24},"8125":{"zip_code":"5108125","prefecture":"三重県","prefecture_kana":"ミエケン","city":"三重郡川越町","city_kana":"ミエグンカワゴエチョウ","town":"北福崎","town_kana":"キタフクサキ","prefecture_code":24},"8121":{"zip_code":"5108121","prefecture":"三重県","prefecture_kana":"ミエケン","city":"三重郡川越町","city_kana":"ミエグンカワゴエチョウ","town":"高松","town_kana":"タカマツ","prefecture_code":24},"8111":{"zip_code":"5108111","prefecture":"三重県","prefecture_kana":"ミエケン","city":"三重郡川越町","city_kana":"ミエグンカワゴエチョウ","town":"当新田","town_kana":"トウシンデン","prefecture_code":24},"8122":{"zip_code":"5108122","prefecture":"三重県","prefecture_kana":"ミエケン","city":"三重郡川越町","city_kana":"ミエグンカワゴエチョウ","town":"豊田","town_kana":"トヨダ","prefecture_code":24},"8123":{"zip_code":"5108123","prefecture":"三重県","prefecture_kana":"ミエケン","city":"三重郡川越町","city_kana":"ミエグンカワゴエチョウ","town":"豊田一色","town_kana":"トヨダイッシキ","prefecture_code":24},"8124":{"zip_code":"5108124","prefecture":"三重県","prefecture_kana":"ミエケン","city":"三重郡川越町","city_kana":"ミエグンカワゴエチョウ","town":"南福崎","town_kana":"ミナミフクサキ","prefecture_code":24}}