{"0000":{"zip_code":"5110000","prefecture":"三重県","prefecture_kana":"ミエケン","city":"桑名市","city_kana":"クワナシ","town":"","town_kana":"","prefecture_code":24},"0016":{"zip_code":"5110016","prefecture":"三重県","prefecture_kana":"ミエケン","city":"桑名市","city_kana":"クワナシ","town":"相生町","town_kana":"アイオイチョウ","prefecture_code":24},"0052":{"zip_code":"5110052","prefecture":"三重県","prefecture_kana":"ミエケン","city":"桑名市","city_kana":"クワナシ","town":"相川町","town_kana":"アイカワチョウ","prefecture_code":24},"0817":{"zip_code":"5110817","prefecture":"三重県","prefecture_kana":"ミエケン","city":"桑名市","city_kana":"クワナシ","town":"青葉町","town_kana":"アオバチョウ","prefecture_code":24},"0033":{"zip_code":"5110033","prefecture":"三重県","prefecture_kana":"ミエケン","city":"桑名市","city_kana":"クワナシ","town":"赤須賀","town_kana":"アカスカ","prefecture_code":24},"0934":{"zip_code":"5110934","prefecture":"三重県","prefecture_kana":"ミエケン","city":"桑名市","city_kana":"クワナシ","town":"赤尾","town_kana":"アコオ","prefecture_code":24},"0935":{"zip_code":"5110935","prefecture":"三重県","prefecture_kana":"ミエケン","city":"桑名市","city_kana":"クワナシ","town":"赤尾台","town_kana":"アコオダイ","prefecture_code":24},"0084":{"zip_code":"5110084","prefecture":"三重県","prefecture_kana":"ミエケン","city":"桑名市","city_kana":"クワナシ","town":"油町","town_kana":"アブラマチ","prefecture_code":24},"0036":{"zip_code":"5110036","prefecture":"三重県","prefecture_kana":"ミエケン","city":"桑名市","city_kana":"クワナシ","town":"伊賀町","town_kana":"イガマチ","prefecture_code":24},"0838":{"zip_code":"5110838","prefecture":"三重県","prefecture_kana":"ミエケン","city":"桑名市","city_kana":"クワナシ","town":"和泉","town_kana":"イズミ","prefecture_code":24},"0046":{"zip_code":"5110046","prefecture":"三重県","prefecture_kana":"ミエケン","city":"桑名市","city_kana":"クワナシ","town":"一色町","town_kana":"イッシキマチ","prefecture_code":24},"0017":{"zip_code":"5110017","prefecture":"三重県","prefecture_kana":"ミエケン","city":"桑名市","city_kana":"クワナシ","town":"今片町","town_kana":"イマカタマチ","prefecture_code":24},"0006":{"zip_code":"5110006","prefecture":"三重県","prefecture_kana":"ミエケン","city":"桑名市","city_kana":"クワナシ","town":"今北町","town_kana":"イマキタマチ","prefecture_code":24},"0801":{"zip_code":"5110801","prefecture":"三重県","prefecture_kana":"ミエケン","city":"桑名市","city_kana":"クワナシ","town":"今島","town_kana":"イマジマ","prefecture_code":24},"0018":{"zip_code":"5110018","prefecture":"三重県","prefecture_kana":"ミエケン","city":"桑名市","city_kana":"クワナシ","town":"今中町","town_kana":"イマナカマチ","prefecture_code":24},"0086":{"zip_code":"5110086","prefecture":"三重県","prefecture_kana":"ミエケン","city":"桑名市","city_kana":"クワナシ","town":"入江葭町","town_kana":"イリエヨシマチ","prefecture_code":24},"0825":{"zip_code":"5110825","prefecture":"三重県","prefecture_kana":"ミエケン","city":"桑名市","city_kana":"クワナシ","town":"上野","town_kana":"ウエノ","prefecture_code":24},"0038":{"zip_code":"5110038","prefecture":"三重県","prefecture_kana":"ミエケン","city":"桑名市","city_kana":"クワナシ","town":"内堀","town_kana":"ウチボリ","prefecture_code":24},"0822":{"zip_code":"5110822","prefecture":"三重県","prefecture_kana":"ミエケン","city":"桑名市","city_kana":"クワナシ","town":"馬道","town_kana":"ウマミチ","prefecture_code":24},"0815":{"zip_code":"5110815","prefecture":"三重県","prefecture_kana":"ミエケン","city":"桑名市","city_kana":"クワナシ","town":"梅園通","town_kana":"ウメゾノドオリ","prefecture_code":24},"0071":{"zip_code":"5110071","prefecture":"三重県","prefecture_kana":"ミエケン","city":"桑名市","city_kana":"クワナシ","town":"駅元町","town_kana":"エキモトチョウ","prefecture_code":24},"0022":{"zip_code":"5110022","prefecture":"三重県","prefecture_kana":"ミエケン","city":"桑名市","city_kana":"クワナシ","town":"江戸町","town_kana":"エドマチ","prefecture_code":24},"0836":{"zip_code":"5110836","prefecture":"三重県","prefecture_kana":"ミエケン","city":"桑名市","city_kana":"クワナシ","town":"江場","town_kana":"エバ","prefecture_code":24},"0848":{"zip_code":"5110848","prefecture":"三重県","prefecture_kana":"ミエケン","city":"桑名市","city_kana":"クワナシ","town":"大貝須","town_kana":"オオガイス","prefecture_code":24},"0947":{"zip_code":"5110947","prefecture":"三重県","prefecture_kana":"ミエケン","city":"桑名市","city_kana":"クワナシ","town":"大仲新田","town_kana":"オオナカシンデン","prefecture_code":24},"0903":{"zip_code":"5110903","prefecture":"三重県","prefecture_kana":"ミエケン","city":"桑名市","city_kana":"クワナシ","town":"大山田","town_kana":"オオヤマダ","prefecture_code":24},"0812":{"zip_code":"5110812","prefecture":"三重県","prefecture_kana":"ミエケン","city":"桑名市","city_kana":"クワナシ","town":"尾野山","town_kana":"オノヤマ","prefecture_code":24},"0861":{"zip_code":"5110861","prefecture":"三重県","prefecture_kana":"ミエケン","city":"桑名市","city_kana":"クワナシ","town":"蠣塚新田","town_kana":"カキヅカシンデン","prefecture_code":24},"0829":{"zip_code":"5110829","prefecture":"三重県","prefecture_kana":"ミエケン","city":"桑名市","city_kana":"クワナシ","town":"神楽町","town_kana":"カグラチョウ","prefecture_code":24},"0067":{"zip_code":"5110067","prefecture":"三重県","prefecture_kana":"ミエケン","city":"桑名市","city_kana":"クワナシ","town":"掛樋","town_kana":"カケヒ","prefecture_code":24},"0047":{"zip_code":"5110047","prefecture":"三重県","prefecture_kana":"ミエケン","city":"桑名市","city_kana":"クワナシ","town":"鍛冶町","town_kana":"カジマチ","prefecture_code":24},"0012":{"zip_code":"5110012","prefecture":"三重県","prefecture_kana":"ミエケン","city":"桑名市","city_kana":"クワナシ","town":"春日町","town_kana":"カスガチョウ","prefecture_code":24},"0827":{"zip_code":"5110827","prefecture":"三重県","prefecture_kana":"ミエケン","city":"桑名市","city_kana":"クワナシ","town":"霞町","town_kana":"カスミチョウ","prefecture_code":24},"0081":{"zip_code":"5110081","prefecture":"三重県","prefecture_kana":"ミエケン","city":"桑名市","city_kana":"クワナシ","town":"片町","town_kana":"カタマチ","prefecture_code":24},"0001":{"zip_code":"5110001","prefecture":"三重県","prefecture_kana":"ミエケン","city":"桑名市","city_kana":"クワナシ","town":"上之輪新田","town_kana":"カミノワシンデン","prefecture_code":24},"0809":{"zip_code":"5110809","prefecture":"三重県","prefecture_kana":"ミエケン","city":"桑名市","city_kana":"クワナシ","town":"上深谷部","town_kana":"カミフカヤベ","prefecture_code":24},"0044":{"zip_code":"5110044","prefecture":"三重県","prefecture_kana":"ミエケン","city":"桑名市","city_kana":"クワナシ","town":"萱町","town_kana":"カヤマチ","prefecture_code":24},"0941":{"zip_code":"5110941","prefecture":"三重県","prefecture_kana":"ミエケン","city":"桑名市","city_kana":"クワナシ","town":"嘉例川","town_kana":"カレガワ","prefecture_code":24},"0021":{"zip_code":"5110021","prefecture":"三重県","prefecture_kana":"ミエケン","city":"桑名市","city_kana":"クワナシ","town":"川口町","town_kana":"カワグチチョウ","prefecture_code":24},"0802":{"zip_code":"5110802","prefecture":"三重県","prefecture_kana":"ミエケン","city":"桑名市","city_kana":"クワナシ","town":"川崎町","town_kana":"カワサキチョウ","prefecture_code":24},"0024":{"zip_code":"5110024","prefecture":"三重県","prefecture_kana":"ミエケン","city":"桑名市","city_kana":"クワナシ","town":"北魚町","town_kana":"キタウオマチ","prefecture_code":24},"0804":{"zip_code":"5110804","prefecture":"三重県","prefecture_kana":"ミエケン","city":"桑名市","city_kana":"クワナシ","town":"北川原台","town_kana":"キタガワラダイ","prefecture_code":24},"0073":{"zip_code":"5110073","prefecture":"三重県","prefecture_kana":"ミエケン","city":"桑名市","city_kana":"クワナシ","town":"北寺町","town_kana":"キタテラマチ","prefecture_code":24},"0066":{"zip_code":"5110066","prefecture":"三重県","prefecture_kana":"ミエケン","city":"桑名市","city_kana":"クワナシ","town":"北鍋屋町","town_kana":"キタナベヤマチ","prefecture_code":24},"0819":{"zip_code":"5110819","prefecture":"三重県","prefecture_kana":"ミエケン","city":"桑名市","city_kana":"クワナシ","town":"北別所","town_kana":"キタベッシヨ","prefecture_code":24},"0851":[{"zip_code":"5110851","prefecture":"三重県","prefecture_kana":"ミエケン","city":"桑名市","city_kana":"クワナシ","town":"希望ケ丘","town_kana":"キボウガオカ","prefecture_code":24},{"zip_code":"5110851","prefecture":"三重県","prefecture_kana":"ミエケン","city":"桑名市","city_kana":"クワナシ","town":"西別所","town_kana":"ニシベッシヨ","prefecture_code":24}],"0063":{"zip_code":"5110063","prefecture":"三重県","prefecture_kana":"ミエケン","city":"桑名市","city_kana":"クワナシ","town":"京橋町","town_kana":"キョウバシチョウ","prefecture_code":24},"0039":{"zip_code":"5110039","prefecture":"三重県","prefecture_kana":"ミエケン","city":"桑名市","city_kana":"クワナシ","town":"京町","town_kana":"キョウマチ","prefecture_code":24},"0810":{"zip_code":"5110810","prefecture":"三重県","prefecture_kana":"ミエケン","city":"桑名市","city_kana":"クワナシ","town":"清竹の丘","town_kana":"キヨタケノオカ","prefecture_code":24},"0009":{"zip_code":"5110009","prefecture":"三重県","prefecture_kana":"ミエケン","city":"桑名市","city_kana":"クワナシ","town":"桑名","town_kana":"クワナ","prefecture_code":24},"0923":{"zip_code":"5110923","prefecture":"三重県","prefecture_kana":"ミエケン","city":"桑名市","city_kana":"クワナシ","town":"桑部","town_kana":"クワベ","prefecture_code":24},"0837":{"zip_code":"5110837","prefecture":"三重県","prefecture_kana":"ミエケン","city":"桑名市","city_kana":"クワナシ","town":"小泉","town_kana":"コイズミ","prefecture_code":24},"0841":{"zip_code":"5110841","prefecture":"三重県","prefecture_kana":"ミエケン","city":"桑名市","city_kana":"クワナシ","town":"小貝須","town_kana":"コガイス","prefecture_code":24},"0946":{"zip_code":"5110946","prefecture":"三重県","prefecture_kana":"ミエケン","city":"桑名市","city_kana":"クワナシ","town":"五反田","town_kana":"ゴタンダ","prefecture_code":24},"0061":{"zip_code":"5110061","prefecture":"三重県","prefecture_kana":"ミエケン","city":"桑名市","city_kana":"クワナシ","town":"寿町","town_kana":"コトブキチョウ","prefecture_code":24},"0085":{"zip_code":"5110085","prefecture":"三重県","prefecture_kana":"ミエケン","city":"桑名市","city_kana":"クワナシ","town":"紺屋町","town_kana":"コンヤマチ","prefecture_code":24},"0939":{"zip_code":"5110939","prefecture":"三重県","prefecture_kana":"ミエケン","city":"桑名市","city_kana":"クワナシ","town":"坂井","town_kana":"サカイ","prefecture_code":24},"0813":{"zip_code":"5110813","prefecture":"三重県","prefecture_kana":"ミエケン","city":"桑名市","city_kana":"クワナシ","town":"桜通","town_kana":"サクラドオリ","prefecture_code":24},"0913":{"zip_code":"5110913","prefecture":"三重県","prefecture_kana":"ミエケン","city":"桑名市","city_kana":"クワナシ","town":"里町","town_kana":"サトマチ","prefecture_code":24},"0075":{"zip_code":"5110075","prefecture":"三重県","prefecture_kana":"ミエケン","city":"桑名市","city_kana":"クワナシ","town":"三栄町","town_kana":"サンエイチョウ","prefecture_code":24},"0007":{"zip_code":"5110007","prefecture":"三重県","prefecture_kana":"ミエケン","city":"桑名市","city_kana":"クワナシ","town":"参宮通","town_kana":"サングウドオリ","prefecture_code":24},"0031":{"zip_code":"5110031","prefecture":"三重県","prefecture_kana":"ミエケン","city":"桑名市","city_kana":"クワナシ","town":"三之丸","town_kana":"サンノマル","prefecture_code":24},"0816":{"zip_code":"5110816","prefecture":"三重県","prefecture_kana":"ミエケン","city":"桑名市","city_kana":"クワナシ","town":"汐見町","town_kana":"シオミチョウ","prefecture_code":24},"0824":{"zip_code":"5110824","prefecture":"三重県","prefecture_kana":"ミエケン","city":"桑名市","city_kana":"クワナシ","town":"繁松新田","town_kana":"シゲマツシンデン","prefecture_code":24},"0034":{"zip_code":"5110034","prefecture":"三重県","prefecture_kana":"ミエケン","city":"桑名市","city_kana":"クワナシ","town":"地蔵","town_kana":"ジゾウ","prefecture_code":24},"0937":{"zip_code":"5110937","prefecture":"三重県","prefecture_kana":"ミエケン","city":"桑名市","city_kana":"クワナシ","town":"志知","town_kana":"シチ","prefecture_code":24},"0936":{"zip_code":"5110936","prefecture":"三重県","prefecture_kana":"ミエケン","city":"桑名市","city_kana":"クワナシ","town":"島田","town_kana":"シマダ","prefecture_code":24},"0019":{"zip_code":"5110019","prefecture":"三重県","prefecture_kana":"ミエケン","city":"桑名市","city_kana":"クワナシ","town":"清水町","town_kana":"シミズチョウ","prefecture_code":24},"0808":{"zip_code":"5110808","prefecture":"三重県","prefecture_kana":"ミエケン","city":"桑名市","city_kana":"クワナシ","town":"下深谷部","town_kana":"シモフカヤベ","prefecture_code":24},"0846":{"zip_code":"5110846","prefecture":"三重県","prefecture_kana":"ミエケン","city":"桑名市","city_kana":"クワナシ","town":"城南萱町","town_kana":"ジョウナンカヤマチ","prefecture_code":24},"0083":{"zip_code":"5110083","prefecture":"三重県","prefecture_kana":"ミエケン","city":"桑名市","city_kana":"クワナシ","town":"職人町","town_kana":"ショクニンマチ","prefecture_code":24},"0924":{"zip_code":"5110924","prefecture":"三重県","prefecture_kana":"ミエケン","city":"桑名市","city_kana":"クワナシ","town":"城山台","town_kana":"シロヤマダイ","prefecture_code":24},"0855":{"zip_code":"5110855","prefecture":"三重県","prefecture_kana":"ミエケン","city":"桑名市","city_kana":"クワナシ","town":"新倉持","town_kana":"シンクラモチ","prefecture_code":24},"0866":{"zip_code":"5110866","prefecture":"三重県","prefecture_kana":"ミエケン","city":"桑名市","city_kana":"クワナシ","town":"神成町","town_kana":"シンセイチョウ","prefecture_code":24},"0832":{"zip_code":"5110832","prefecture":"三重県","prefecture_kana":"ミエケン","city":"桑名市","city_kana":"クワナシ","town":"新地","town_kana":"シンチ","prefecture_code":24},"0064":{"zip_code":"5110064","prefecture":"三重県","prefecture_kana":"ミエケン","city":"桑名市","city_kana":"クワナシ","town":"新築町","town_kana":"シンチクチョウ","prefecture_code":24},"0863":{"zip_code":"5110863","prefecture":"三重県","prefecture_kana":"ミエケン","city":"桑名市","city_kana":"クワナシ","town":"新西方","town_kana":"シンニシカタ","prefecture_code":24},"0048":{"zip_code":"5110048","prefecture":"三重県","prefecture_kana":"ミエケン","city":"桑名市","city_kana":"クワナシ","town":"新町","town_kana":"シンマチ","prefecture_code":24},"0043":{"zip_code":"5110043","prefecture":"三重県","prefecture_kana":"ミエケン","city":"桑名市","city_kana":"クワナシ","town":"新屋敷","town_kana":"シンヤシキ","prefecture_code":24},"0069":{"zip_code":"5110069","prefecture":"三重県","prefecture_kana":"ミエケン","city":"桑名市","city_kana":"クワナシ","town":"新矢田","town_kana":"シンヤダ","prefecture_code":24},"0077":{"zip_code":"5110077","prefecture":"三重県","prefecture_kana":"ミエケン","city":"桑名市","city_kana":"クワナシ","town":"末広町","town_kana":"スエヒロチョウ","prefecture_code":24},"0004":{"zip_code":"5110004","prefecture":"三重県","prefecture_kana":"ミエケン","city":"桑名市","city_kana":"クワナシ","town":"住吉町","town_kana":"スミヨシチョウ","prefecture_code":24},"0011":{"zip_code":"5110011","prefecture":"三重県","prefecture_kana":"ミエケン","city":"桑名市","city_kana":"クワナシ","town":"船馬町","town_kana":"センバチョウ","prefecture_code":24},"0078":{"zip_code":"5110078","prefecture":"三重県","prefecture_kana":"ミエケン","city":"桑名市","city_kana":"クワナシ","town":"桑栄町","town_kana":"ソウエイチョウ","prefecture_code":24},"0041":{"zip_code":"5110041","prefecture":"三重県","prefecture_kana":"ミエケン","city":"桑名市","city_kana":"クワナシ","town":"外堀","town_kana":"ソトボリ","prefecture_code":24},"0065":{"zip_code":"5110065","prefecture":"三重県","prefecture_kana":"ミエケン","city":"桑名市","city_kana":"クワナシ","town":"大央町","town_kana":"ダイオウチョウ","prefecture_code":24},"0005":{"zip_code":"5110005","prefecture":"三重県","prefecture_kana":"ミエケン","city":"桑名市","city_kana":"クワナシ","town":"太一丸","town_kana":"タイチマル","prefecture_code":24},"0834":{"zip_code":"5110834","prefecture":"三重県","prefecture_kana":"ミエケン","city":"桑名市","city_kana":"クワナシ","town":"大福","town_kana":"ダイフク","prefecture_code":24},"0843":{"zip_code":"5110843","prefecture":"三重県","prefecture_kana":"ミエケン","city":"桑名市","city_kana":"クワナシ","town":"太平町","town_kana":"タイヘイチョウ","prefecture_code":24},"0818":{"zip_code":"5110818","prefecture":"三重県","prefecture_kana":"ミエケン","city":"桑名市","city_kana":"クワナシ","town":"高塚町","town_kana":"タカツカチョウ","prefecture_code":24},"0828":{"zip_code":"5110828","prefecture":"三重県","prefecture_kana":"ミエケン","city":"桑名市","city_kana":"クワナシ","town":"立花町","town_kana":"タチバナチョウ","prefecture_code":24},"0842":{"zip_code":"5110842","prefecture":"三重県","prefecture_kana":"ミエケン","city":"桑名市","city_kana":"クワナシ","town":"立田町","town_kana":"タツタチョウ","prefecture_code":24},"0124":{"zip_code":"5110124","prefecture":"三重県","prefecture_kana":"ミエケン","city":"桑名市","city_kana":"クワナシ","town":"多度町猪飼","town_kana":"タドチョウイカイ","prefecture_code":24},"0116":{"zip_code":"5110116","prefecture":"三重県","prefecture_kana":"ミエケン","city":"桑名市","city_kana":"クワナシ","town":"多度町大鳥居","town_kana":"タドチョウオオドリイ","prefecture_code":24},"0105":{"zip_code":"5110105","prefecture":"三重県","prefecture_kana":"ミエケン","city":"桑名市","city_kana":"クワナシ","town":"多度町小山","town_kana":"タドチョウオヤマ","prefecture_code":24},"0102":{"zip_code":"5110102","prefecture":"三重県","prefecture_kana":"ミエケン","city":"桑名市","city_kana":"クワナシ","town":"多度町香取","town_kana":"タドチョウカトリ","prefecture_code":24},"0113":{"zip_code":"5110113","prefecture":"三重県","prefecture_kana":"ミエケン","city":"桑名市","city_kana":"クワナシ","town":"多度町上之郷","town_kana":"タドチョウカミノゴウ","prefecture_code":24},"0123":{"zip_code":"5110123","prefecture":"三重県","prefecture_kana":"ミエケン","city":"桑名市","city_kana":"クワナシ","town":"多度町北猪飼","town_kana":"タドチョウキタイカイ","prefecture_code":24},"0122":{"zip_code":"5110122","prefecture":"三重県","prefecture_kana":"ミエケン","city":"桑名市","city_kana":"クワナシ","town":"多度町古野","town_kana":"タドチョウコノ","prefecture_code":24},"0117":{"zip_code":"5110117","prefecture":"三重県","prefecture_kana":"ミエケン","city":"桑名市","city_kana":"クワナシ","town":"多度町下野代","town_kana":"タドチョウシモノシロ","prefecture_code":24},"0106":{"zip_code":"5110106","prefecture":"三重県","prefecture_kana":"ミエケン","city":"桑名市","city_kana":"クワナシ","town":"多度町多度","town_kana":"タドチョウタド","prefecture_code":24},"0125":{"zip_code":"5110125","prefecture":"三重県","prefecture_kana":"ミエケン","city":"桑名市","city_kana":"クワナシ","town":"多度町力尾","town_kana":"タドチョウチカラオ","prefecture_code":24},"0103":{"zip_code":"5110103","prefecture":"三重県","prefecture_kana":"ミエケン","city":"桑名市","city_kana":"クワナシ","town":"多度町戸津","town_kana":"タドチョウトヅ","prefecture_code":24},"0114":{"zip_code":"5110114","prefecture":"三重県","prefecture_kana":"ミエケン","city":"桑名市","city_kana":"クワナシ","town":"多度町中須","town_kana":"タドチョウナカズ","prefecture_code":24},"0104":{"zip_code":"5110104","prefecture":"三重県","prefecture_kana":"ミエケン","city":"桑名市","city_kana":"クワナシ","town":"多度町肱江","town_kana":"タドチョウヒジエ","prefecture_code":24},"0111":{"zip_code":"5110111","prefecture":"三重県","prefecture_kana":"ミエケン","city":"桑名市","city_kana":"クワナシ","town":"多度町平古","town_kana":"タドチョウヒラコ","prefecture_code":24},"0121":{"zip_code":"5110121","prefecture":"三重県","prefecture_kana":"ミエケン","city":"桑名市","city_kana":"クワナシ","town":"多度町美鹿","town_kana":"タドチョウビロク","prefecture_code":24},"0112":{"zip_code":"5110112","prefecture":"三重県","prefecture_kana":"ミエケン","city":"桑名市","city_kana":"クワナシ","town":"多度町福永","town_kana":"タドチョウフクナガ","prefecture_code":24},"0118":{"zip_code":"5110118","prefecture":"三重県","prefecture_kana":"ミエケン","city":"桑名市","city_kana":"クワナシ","town":"多度町御衣野","town_kana":"タドチョウミゾノ","prefecture_code":24},"0115":{"zip_code":"5110115","prefecture":"三重県","prefecture_kana":"ミエケン","city":"桑名市","city_kana":"クワナシ","town":"多度町南之郷","town_kana":"タドチョウミナミノゴウ","prefecture_code":24},"0101":{"zip_code":"5110101","prefecture":"三重県","prefecture_kana":"ミエケン","city":"桑名市","city_kana":"クワナシ","town":"多度町柚井","town_kana":"タドチョウユイ","prefecture_code":24},"0089":{"zip_code":"5110089","prefecture":"三重県","prefecture_kana":"ミエケン","city":"桑名市","city_kana":"クワナシ","town":"田町","town_kana":"タマチ","prefecture_code":24},"0826":{"zip_code":"5110826","prefecture":"三重県","prefecture_kana":"ミエケン","city":"桑名市","city_kana":"クワナシ","town":"太夫","town_kana":"タユウ","prefecture_code":24},"0068":{"zip_code":"5110068","prefecture":"三重県","prefecture_kana":"ミエケン","city":"桑名市","city_kana":"クワナシ","town":"中央町","town_kana":"チュウオウチョウ","prefecture_code":24},"0058":{"zip_code":"5110058","prefecture":"三重県","prefecture_kana":"ミエケン","city":"桑名市","city_kana":"クワナシ","town":"千代田町","town_kana":"チヨダチョウ","prefecture_code":24},"0945":{"zip_code":"5110945","prefecture":"三重県","prefecture_kana":"ミエケン","city":"桑名市","city_kana":"クワナシ","town":"筑紫","town_kana":"ツクシ","prefecture_code":24},"0901":{"zip_code":"5110901","prefecture":"三重県","prefecture_kana":"ミエケン","city":"桑名市","city_kana":"クワナシ","town":"筒尾","town_kana":"ツツオ","prefecture_code":24},"0072":{"zip_code":"5110072","prefecture":"三重県","prefecture_kana":"ミエケン","city":"桑名市","city_kana":"クワナシ","town":"堤原","town_kana":"ツツミハラ","prefecture_code":24},"0045":{"zip_code":"5110045","prefecture":"三重県","prefecture_kana":"ミエケン","city":"桑名市","city_kana":"クワナシ","town":"伝馬町","town_kana":"テンマチョウ","prefecture_code":24},"0062":{"zip_code":"5110062","prefecture":"三重県","prefecture_kana":"ミエケン","city":"桑名市","city_kana":"クワナシ","town":"常盤町","town_kana":"トキワチョウ","prefecture_code":24},"0015":{"zip_code":"5110015","prefecture":"三重県","prefecture_kana":"ミエケン","city":"桑名市","city_kana":"クワナシ","town":"殿町","town_kana":"トノマチ","prefecture_code":24},"0938":{"zip_code":"5110938","prefecture":"三重県","prefecture_kana":"ミエケン","city":"桑名市","city_kana":"クワナシ","town":"友村","town_kana":"トモムラ","prefecture_code":24},"1131":{"zip_code":"5111131","prefecture":"三重県","prefecture_kana":"ミエケン","city":"桑名市","city_kana":"クワナシ","town":"長島町赤地","town_kana":"ナガシマチョウアカジ","prefecture_code":24},"1135":{"zip_code":"5111135","prefecture":"三重県","prefecture_kana":"ミエケン","city":"桑名市","city_kana":"クワナシ","town":"長島町浦安","town_kana":"ナガシマチョウウラヤス","prefecture_code":24},"1112":{"zip_code":"5111112","prefecture":"三重県","prefecture_kana":"ミエケン","city":"桑名市","city_kana":"クワナシ","town":"長島町大倉","town_kana":"ナガシマチョウオオクラ","prefecture_code":24},"1145":{"zip_code":"5111145","prefecture":"三重県","prefecture_kana":"ミエケン","city":"桑名市","city_kana":"クワナシ","town":"長島町大島","town_kana":"ナガシマチョウオオジマ","prefecture_code":24},"1113":{"zip_code":"5111113","prefecture":"三重県","prefecture_kana":"ミエケン","city":"桑名市","city_kana":"クワナシ","town":"長島町押付","town_kana":"ナガシマチョウオシツケ","prefecture_code":24},"1123":{"zip_code":"5111123","prefecture":"三重県","prefecture_kana":"ミエケン","city":"桑名市","city_kana":"クワナシ","town":"長島町鎌ケ地","town_kana":"ナガシマチョウカマガンジ","prefecture_code":24},"1107":{"zip_code":"5111107","prefecture":"三重県","prefecture_kana":"ミエケン","city":"桑名市","city_kana":"クワナシ","town":"長島町上坂手","town_kana":"ナガシマチョウカミサカテ","prefecture_code":24},"1148":{"zip_code":"5111148","prefecture":"三重県","prefecture_kana":"ミエケン","city":"桑名市","city_kana":"クワナシ","town":"長島町北殿名","town_kana":"ナガシマチョウキタトノメ","prefecture_code":24},"1125":{"zip_code":"5111125","prefecture":"三重県","prefecture_kana":"ミエケン","city":"桑名市","city_kana":"クワナシ","town":"長島町源部外面","town_kana":"ナガシマチョウゲンベドモ","prefecture_code":24},"1104":{"zip_code":"5111104","prefecture":"三重県","prefecture_kana":"ミエケン","city":"桑名市","city_kana":"クワナシ","town":"長島町高座","town_kana":"ナガシマチョウコウザ","prefecture_code":24},"1111":{"zip_code":"5111111","prefecture":"三重県","prefecture_kana":"ミエケン","city":"桑名市","city_kana":"クワナシ","town":"長島町小島","town_kana":"ナガシマチョウコジマ","prefecture_code":24},"1144":{"zip_code":"5111144","prefecture":"三重県","prefecture_kana":"ミエケン","city":"桑名市","city_kana":"クワナシ","town":"長島町駒江","town_kana":"ナガシマチョウコマエ","prefecture_code":24},"1106":{"zip_code":"5111106","prefecture":"三重県","prefecture_kana":"ミエケン","city":"桑名市","city_kana":"クワナシ","town":"長島町下坂手","town_kana":"ナガシマチョウシモサカテ","prefecture_code":24},"1101":{"zip_code":"5111101","prefecture":"三重県","prefecture_kana":"ミエケン","city":"桑名市","city_kana":"クワナシ","town":"長島町新所","town_kana":"ナガシマチョウシンショ","prefecture_code":24},"1108":{"zip_code":"5111108","prefecture":"三重県","prefecture_kana":"ミエケン","city":"桑名市","city_kana":"クワナシ","town":"長島町杉江","town_kana":"ナガシマチョウスギエ","prefecture_code":24},"1105":{"zip_code":"5111105","prefecture":"三重県","prefecture_kana":"ミエケン","city":"桑名市","city_kana":"クワナシ","town":"長島町千倉","town_kana":"ナガシマチョウチクラ","prefecture_code":24},"1142":{"zip_code":"5111142","prefecture":"三重県","prefecture_kana":"ミエケン","city":"桑名市","city_kana":"クワナシ","town":"長島町出口","town_kana":"ナガシマチョウデグチ","prefecture_code":24},"1146":{"zip_code":"5111146","prefecture":"三重県","prefecture_kana":"ミエケン","city":"桑名市","city_kana":"クワナシ","town":"長島町十日外面","town_kana":"ナガシマチョウトオカドモ","prefecture_code":24},"1127":{"zip_code":"5111127","prefecture":"三重県","prefecture_kana":"ミエケン","city":"桑名市","city_kana":"クワナシ","town":"長島町殿名","town_kana":"ナガシマチョウトノメ","prefecture_code":24},"1103":{"zip_code":"5111103","prefecture":"三重県","prefecture_kana":"ミエケン","city":"桑名市","city_kana":"クワナシ","town":"長島町中川","town_kana":"ナガシマチョウナカガワ","prefecture_code":24},"1116":{"zip_code":"5111116","prefecture":"三重県","prefecture_kana":"ミエケン","city":"桑名市","city_kana":"クワナシ","town":"長島町長島萱町","town_kana":"ナガシマチョウナガシマカヤマチ","prefecture_code":24},"1114":{"zip_code":"5111114","prefecture":"三重県","prefecture_kana":"ミエケン","city":"桑名市","city_kana":"クワナシ","town":"長島町長島下町","town_kana":"ナガシマチョウナガシマシモマチ","prefecture_code":24},"1115":{"zip_code":"5111115","prefecture":"三重県","prefecture_kana":"ミエケン","city":"桑名市","city_kana":"クワナシ","town":"長島町長島中町","town_kana":"ナガシマチョウナガシマナカマチ","prefecture_code":24},"1102":{"zip_code":"5111102","prefecture":"三重県","prefecture_kana":"ミエケン","city":"桑名市","city_kana":"クワナシ","town":"長島町西川","town_kana":"ナガシマチョウニシカワ","prefecture_code":24},"1143":{"zip_code":"5111143","prefecture":"三重県","prefecture_kana":"ミエケン","city":"桑名市","city_kana":"クワナシ","town":"長島町西外面","town_kana":"ナガシマチョウニシドモ","prefecture_code":24},"1149":{"zip_code":"5111149","prefecture":"三重県","prefecture_kana":"ミエケン","city":"桑名市","city_kana":"クワナシ","town":"長島町西外面市街","town_kana":"ナガシマチョウニシドモシガイ","prefecture_code":24},"1136":{"zip_code":"5111136","prefecture":"三重県","prefecture_kana":"ミエケン","city":"桑名市","city_kana":"クワナシ","town":"長島町白鶏","town_kana":"ナガシマチョウハッケ","prefecture_code":24},"1121":{"zip_code":"5111121","prefecture":"三重県","prefecture_kana":"ミエケン","city":"桑名市","city_kana":"クワナシ","town":"長島町東殿名","town_kana":"ナガシマチョウヒガシトノメ","prefecture_code":24},"1147":{"zip_code":"5111147","prefecture":"三重県","prefecture_kana":"ミエケン","city":"桑名市","city_kana":"クワナシ","town":"長島町平方","town_kana":"ナガシマチョウヒラカタ","prefecture_code":24},"1132":{"zip_code":"5111132","prefecture":"三重県","prefecture_kana":"ミエケン","city":"桑名市","city_kana":"クワナシ","town":"長島町福豊","town_kana":"ナガシマチョウフクトヨ","prefecture_code":24},"1137":{"zip_code":"5111137","prefecture":"三重県","prefecture_kana":"ミエケン","city":"桑名市","city_kana":"クワナシ","town":"長島町福吉","town_kana":"ナガシマチョウフクヨシ","prefecture_code":24},"1126":{"zip_code":"5111126","prefecture":"三重県","prefecture_kana":"ミエケン","city":"桑名市","city_kana":"クワナシ","town":"長島町又木","town_kana":"ナガシマチョウマタギ","prefecture_code":24},"1128":{"zip_code":"5111128","prefecture":"三重県","prefecture_kana":"ミエケン","city":"桑名市","city_kana":"クワナシ","town":"長島町又木市街","town_kana":"ナガシマチョウマタギシガイ","prefecture_code":24},"1134":{"zip_code":"5111134","prefecture":"三重県","prefecture_kana":"ミエケン","city":"桑名市","city_kana":"クワナシ","town":"長島町松蔭","town_kana":"ナガシマチョウマツカゲ","prefecture_code":24},"1122":{"zip_code":"5111122","prefecture":"三重県","prefecture_kana":"ミエケン","city":"桑名市","city_kana":"クワナシ","town":"長島町松ケ島","town_kana":"ナガシマチョウマツガシマ","prefecture_code":24},"1109":{"zip_code":"5111109","prefecture":"三重県","prefecture_kana":"ミエケン","city":"桑名市","city_kana":"クワナシ","town":"長島町松之木","town_kana":"ナガシマチョウマツノキ","prefecture_code":24},"1141":{"zip_code":"5111141","prefecture":"三重県","prefecture_kana":"ミエケン","city":"桑名市","city_kana":"クワナシ","town":"長島町間々","town_kana":"ナガシマチョウママ","prefecture_code":24},"1133":{"zip_code":"5111133","prefecture":"三重県","prefecture_kana":"ミエケン","city":"桑名市","city_kana":"クワナシ","town":"長島町横満蔵","town_kana":"ナガシマチョウヨコマクラ","prefecture_code":24},"1124":{"zip_code":"5111124","prefecture":"三重県","prefecture_kana":"ミエケン","city":"桑名市","city_kana":"クワナシ","town":"長島町葭ケ須","town_kana":"ナガシマチョウヨシガス","prefecture_code":24},"0914":{"zip_code":"5110914","prefecture":"三重県","prefecture_kana":"ミエケン","city":"桑名市","city_kana":"クワナシ","town":"中山町","town_kana":"ナカヤマチョウ","prefecture_code":24},"0864":{"zip_code":"5110864","prefecture":"三重県","prefecture_kana":"ミエケン","city":"桑名市","city_kana":"クワナシ","town":"西方","town_kana":"ニシカタ","prefecture_code":24},"0922":{"zip_code":"5110922","prefecture":"三重県","prefecture_kana":"ミエケン","city":"桑名市","city_kana":"クワナシ","town":"西金井","town_kana":"ニシカナイ","prefecture_code":24},"0933":{"zip_code":"5110933","prefecture":"三重県","prefecture_kana":"ミエケン","city":"桑名市","city_kana":"クワナシ","town":"西正和台","town_kana":"ニシセイワダイ","prefecture_code":24},"0054":{"zip_code":"5110054","prefecture":"三重県","prefecture_kana":"ミエケン","city":"桑名市","city_kana":"クワナシ","town":"西鍋屋町","town_kana":"ニシナベヤマチ","prefecture_code":24},"0056":{"zip_code":"5110056","prefecture":"三重県","prefecture_kana":"ミエケン","city":"桑名市","city_kana":"クワナシ","town":"西矢田町","town_kana":"ニシヤダマチ","prefecture_code":24},"0807":{"zip_code":"5110807","prefecture":"三重県","prefecture_kana":"ミエケン","city":"桑名市","city_kana":"クワナシ","town":"西汰上","town_kana":"ニシユリアゲ","prefecture_code":24},"0911":{"zip_code":"5110911","prefecture":"三重県","prefecture_kana":"ミエケン","city":"桑名市","city_kana":"クワナシ","town":"額田","town_kana":"ヌカタ","prefecture_code":24},"0904":{"zip_code":"5110904","prefecture":"三重県","prefecture_kana":"ミエケン","city":"桑名市","city_kana":"クワナシ","town":"野田","town_kana":"ノダ","prefecture_code":24},"0931":{"zip_code":"5110931","prefecture":"三重県","prefecture_kana":"ミエケン","city":"桑名市","city_kana":"クワナシ","town":"能部","town_kana":"ノンベ","prefecture_code":24},"0944":{"zip_code":"5110944","prefecture":"三重県","prefecture_kana":"ミエケン","city":"桑名市","city_kana":"クワナシ","town":"芳ケ崎","town_kana":"ハガサキ","prefecture_code":24},"0008":{"zip_code":"5110008","prefecture":"三重県","prefecture_kana":"ミエケン","city":"桑名市","city_kana":"クワナシ","town":"蓮見町","town_kana":"ハスミチョウ","prefecture_code":24},"0076":{"zip_code":"5110076","prefecture":"三重県","prefecture_kana":"ミエケン","city":"桑名市","city_kana":"クワナシ","town":"八間通","town_kana":"ハチケンドオリ","prefecture_code":24},"0049":{"zip_code":"5110049","prefecture":"三重県","prefecture_kana":"ミエケン","city":"桑名市","city_kana":"クワナシ","town":"八幡町","town_kana":"ハチマンチョウ","prefecture_code":24},"0862":{"zip_code":"5110862","prefecture":"三重県","prefecture_kana":"ミエケン","city":"桑名市","city_kana":"クワナシ","town":"播磨","town_kana":"ハリマ","prefecture_code":24},"0852":{"zip_code":"5110852","prefecture":"三重県","prefecture_kana":"ミエケン","city":"桑名市","city_kana":"クワナシ","town":"稗田","town_kana":"ヒエダ","prefecture_code":24},"0811":{"zip_code":"5110811","prefecture":"三重県","prefecture_kana":"ミエケン","city":"桑名市","city_kana":"クワナシ","town":"東方","town_kana":"ヒガシカタ","prefecture_code":24},"0921":{"zip_code":"5110921","prefecture":"三重県","prefecture_kana":"ミエケン","city":"桑名市","city_kana":"クワナシ","town":"東金井","town_kana":"ヒガシカナイ","prefecture_code":24},"0932":{"zip_code":"5110932","prefecture":"三重県","prefecture_kana":"ミエケン","city":"桑名市","city_kana":"クワナシ","town":"東正和台","town_kana":"ヒガシセイワダイ","prefecture_code":24},"0003":{"zip_code":"5110003","prefecture":"三重県","prefecture_kana":"ミエケン","city":"桑名市","city_kana":"クワナシ","town":"東太一丸","town_kana":"ヒガシタイチマル","prefecture_code":24},"0053":{"zip_code":"5110053","prefecture":"三重県","prefecture_kana":"ミエケン","city":"桑名市","city_kana":"クワナシ","town":"東鍋屋町","town_kana":"ヒガシナベヤマチ","prefecture_code":24},"0035":{"zip_code":"5110035","prefecture":"三重県","prefecture_kana":"ミエケン","city":"桑名市","city_kana":"クワナシ","town":"東野","town_kana":"ヒガシノ","prefecture_code":24},"0055":{"zip_code":"5110055","prefecture":"三重県","prefecture_kana":"ミエケン","city":"桑名市","city_kana":"クワナシ","town":"東矢田町","town_kana":"ヒガシヤダマチ","prefecture_code":24},"0806":{"zip_code":"5110806","prefecture":"三重県","prefecture_kana":"ミエケン","city":"桑名市","city_kana":"クワナシ","town":"東汰上","town_kana":"ヒガシユリアゲ","prefecture_code":24},"0867":{"zip_code":"5110867","prefecture":"三重県","prefecture_kana":"ミエケン","city":"桑名市","city_kana":"クワナシ","town":"陽だまりの丘","town_kana":"ヒダマリノオカ","prefecture_code":24},"0942":{"zip_code":"5110942","prefecture":"三重県","prefecture_kana":"ミエケン","city":"桑名市","city_kana":"クワナシ","town":"広見ケ丘","town_kana":"ヒロミガオカ","prefecture_code":24},"0803":{"zip_code":"5110803","prefecture":"三重県","prefecture_kana":"ミエケン","city":"桑名市","city_kana":"クワナシ","town":"枇杷島台","town_kana":"ビワジマダイ","prefecture_code":24},"0805":{"zip_code":"5110805","prefecture":"三重県","prefecture_kana":"ミエケン","city":"桑名市","city_kana":"クワナシ","town":"深谷町","town_kana":"フカヤチョウ","prefecture_code":24},"0847":{"zip_code":"5110847","prefecture":"三重県","prefecture_kana":"ミエケン","city":"桑名市","city_kana":"クワナシ","town":"福江","town_kana":"フクエ","prefecture_code":24},"0833":{"zip_code":"5110833","prefecture":"三重県","prefecture_kana":"ミエケン","city":"桑名市","city_kana":"クワナシ","town":"福江町","town_kana":"フクエマチ","prefecture_code":24},"0844":{"zip_code":"5110844","prefecture":"三重県","prefecture_kana":"ミエケン","city":"桑名市","city_kana":"クワナシ","town":"福岡町","town_kana":"フクオカチョウ","prefecture_code":24},"0002":{"zip_code":"5110002","prefecture":"三重県","prefecture_kana":"ミエケン","city":"桑名市","city_kana":"クワナシ","town":"福島","town_kana":"フクジマ","prefecture_code":24},"0027":{"zip_code":"5110027","prefecture":"三重県","prefecture_kana":"ミエケン","city":"桑名市","city_kana":"クワナシ","town":"福島新町","town_kana":"フクジマシンマチ","prefecture_code":24},"0845":{"zip_code":"5110845","prefecture":"三重県","prefecture_kana":"ミエケン","city":"桑名市","city_kana":"クワナシ","town":"福地","town_kana":"フクチ","prefecture_code":24},"0865":{"zip_code":"5110865","prefecture":"三重県","prefecture_kana":"ミエケン","city":"桑名市","city_kana":"クワナシ","town":"藤が丘","town_kana":"フジガオカ","prefecture_code":24},"0025":{"zip_code":"5110025","prefecture":"三重県","prefecture_kana":"ミエケン","city":"桑名市","city_kana":"クワナシ","town":"風呂町","town_kana":"フロマチ","prefecture_code":24},"0013":{"zip_code":"5110013","prefecture":"三重県","prefecture_kana":"ミエケン","city":"桑名市","city_kana":"クワナシ","town":"宝殿町","town_kana":"ホウデンマチ","prefecture_code":24},"0912":[{"zip_code":"5110912","prefecture":"三重県","prefecture_kana":"ミエケン","city":"桑名市","city_kana":"クワナシ","town":"星川","town_kana":"ホシカワ","prefecture_code":24},{"zip_code":"5110912","prefecture":"三重県","prefecture_kana":"ミエケン","city":"桑名市","city_kana":"クワナシ","town":"星見ケ丘","town_kana":"ホシミガオカ","prefecture_code":24}],"0835":{"zip_code":"5110835","prefecture":"三重県","prefecture_kana":"ミエケン","city":"桑名市","city_kana":"クワナシ","town":"本願寺","town_kana":"ホンガンジ","prefecture_code":24},"0023":{"zip_code":"5110023","prefecture":"三重県","prefecture_kana":"ミエケン","city":"桑名市","city_kana":"クワナシ","town":"本町","town_kana":"ホンマチ","prefecture_code":24},"0831":{"zip_code":"5110831","prefecture":"三重県","prefecture_kana":"ミエケン","city":"桑名市","city_kana":"クワナシ","town":"益生町","town_kana":"マスオチョウ","prefecture_code":24},"0853":{"zip_code":"5110853","prefecture":"三重県","prefecture_kana":"ミエケン","city":"桑名市","city_kana":"クワナシ","town":"増田","town_kana":"マスダ","prefecture_code":24},"0814":{"zip_code":"5110814","prefecture":"三重県","prefecture_kana":"ミエケン","city":"桑名市","city_kana":"クワナシ","town":"松並町","town_kana":"マツナミチョウ","prefecture_code":24},"0902":{"zip_code":"5110902","prefecture":"三重県","prefecture_kana":"ミエケン","city":"桑名市","city_kana":"クワナシ","town":"松ノ木","town_kana":"マツノキ","prefecture_code":24},"0014":{"zip_code":"5110014","prefecture":"三重県","prefecture_kana":"ミエケン","city":"桑名市","city_kana":"クワナシ","town":"三崎通","town_kana":"ミサキドオリ","prefecture_code":24},"0057":{"zip_code":"5110057","prefecture":"三重県","prefecture_kana":"ミエケン","city":"桑名市","city_kana":"クワナシ","town":"三ツ矢橋","town_kana":"ミツヤバシ","prefecture_code":24},"0088":{"zip_code":"5110088","prefecture":"三重県","prefecture_kana":"ミエケン","city":"桑名市","city_kana":"クワナシ","town":"南魚町","town_kana":"ミナミウオマチ","prefecture_code":24},"0074":{"zip_code":"5110074","prefecture":"三重県","prefecture_kana":"ミエケン","city":"桑名市","city_kana":"クワナシ","town":"南寺町","town_kana":"ミナミテラマチ","prefecture_code":24},"0082":{"zip_code":"5110082","prefecture":"三重県","prefecture_kana":"ミエケン","city":"桑名市","city_kana":"クワナシ","town":"宮通","town_kana":"ミヤドオリ","prefecture_code":24},"0026":{"zip_code":"5110026","prefecture":"三重県","prefecture_kana":"ミエケン","city":"桑名市","city_kana":"クワナシ","town":"宮町","town_kana":"ミヤマチ","prefecture_code":24},"0823":{"zip_code":"5110823","prefecture":"三重県","prefecture_kana":"ミエケン","city":"桑名市","city_kana":"クワナシ","town":"明正町","town_kana":"メイセイチョウ","prefecture_code":24},"0037":{"zip_code":"5110037","prefecture":"三重県","prefecture_kana":"ミエケン","city":"桑名市","city_kana":"クワナシ","town":"元赤須賀","town_kana":"モトアカスカ","prefecture_code":24},"0943":{"zip_code":"5110943","prefecture":"三重県","prefecture_kana":"ミエケン","city":"桑名市","city_kana":"クワナシ","town":"森忠","town_kana":"モリタダ","prefecture_code":24},"0839":{"zip_code":"5110839","prefecture":"三重県","prefecture_kana":"ミエケン","city":"桑名市","city_kana":"クワナシ","town":"安永","town_kana":"ヤスナガ","prefecture_code":24},"0821":{"zip_code":"5110821","prefecture":"三重県","prefecture_kana":"ミエケン","city":"桑名市","city_kana":"クワナシ","town":"矢田","town_kana":"ヤダ","prefecture_code":24},"0051":{"zip_code":"5110051","prefecture":"三重県","prefecture_kana":"ミエケン","city":"桑名市","city_kana":"クワナシ","town":"矢田磧","town_kana":"ヤダカワラ","prefecture_code":24},"0042":{"zip_code":"5110042","prefecture":"三重県","prefecture_kana":"ミエケン","city":"桑名市","city_kana":"クワナシ","town":"柳原","town_kana":"ヤナギハラ","prefecture_code":24},"0079":{"zip_code":"5110079","prefecture":"三重県","prefecture_kana":"ミエケン","city":"桑名市","city_kana":"クワナシ","town":"有楽町","town_kana":"ユウラクチョウ","prefecture_code":24},"0032":{"zip_code":"5110032","prefecture":"三重県","prefecture_kana":"ミエケン","city":"桑名市","city_kana":"クワナシ","town":"吉之丸","town_kana":"ヨシノマル","prefecture_code":24},"0087":{"zip_code":"5110087","prefecture":"三重県","prefecture_kana":"ミエケン","city":"桑名市","city_kana":"クワナシ","town":"吉津屋町","town_kana":"ヨツヤチョウ","prefecture_code":24},"0854":{"zip_code":"5110854","prefecture":"三重県","prefecture_kana":"ミエケン","city":"桑名市","city_kana":"クワナシ","town":"蓮花寺","town_kana":"レンゲジ","prefecture_code":24},"0200":[{"zip_code":"5110200","prefecture":"三重県","prefecture_kana":"ミエケン","city":"いなべ市","city_kana":"イナベシ","town":"","town_kana":"","prefecture_code":24},{"zip_code":"5110200","prefecture":"三重県","prefecture_kana":"ミエケン","city":"員弁郡東員町","city_kana":"イナベグントウインチョウ","town":"","town_kana":"","prefecture_code":24}],"0204":{"zip_code":"5110204","prefecture":"三重県","prefecture_kana":"ミエケン","city":"いなべ市","city_kana":"イナベシ","town":"員弁町石仏","town_kana":"イナベチョウイシボトケ","prefecture_code":24},"0201":{"zip_code":"5110201","prefecture":"三重県","prefecture_kana":"ミエケン","city":"いなべ市","city_kana":"イナベシ","town":"員弁町市之原","town_kana":"イナベチョウイチノハラ","prefecture_code":24},"0206":{"zip_code":"5110206","prefecture":"三重県","prefecture_kana":"ミエケン","city":"いなべ市","city_kana":"イナベシ","town":"員弁町宇野","town_kana":"イナベチョウウノ","prefecture_code":24},"0224":{"zip_code":"5110224","prefecture":"三重県","prefecture_kana":"ミエケン","city":"いなべ市","city_kana":"イナベシ","town":"員弁町大泉","town_kana":"イナベチョウオオイズミ","prefecture_code":24},"0217":{"zip_code":"5110217","prefecture":"三重県","prefecture_kana":"ミエケン","city":"いなべ市","city_kana":"イナベシ","town":"員弁町大泉新田","town_kana":"イナベチョウオオイズミシンデン","prefecture_code":24},"0214":{"zip_code":"5110214","prefecture":"三重県","prefecture_kana":"ミエケン","city":"いなべ市","city_kana":"イナベシ","town":"員弁町岡丁田","town_kana":"イナベチョウオカチョウダ","prefecture_code":24},"0205":{"zip_code":"5110205","prefecture":"三重県","prefecture_kana":"ミエケン","city":"いなべ市","city_kana":"イナベシ","town":"員弁町笠田新田","town_kana":"イナベチョウカサダシンデン","prefecture_code":24},"0207":{"zip_code":"5110207","prefecture":"三重県","prefecture_kana":"ミエケン","city":"いなべ市","city_kana":"イナベシ","town":"員弁町上笠田","town_kana":"イナベチョウカミカサダ","prefecture_code":24},"0223":{"zip_code":"5110223","prefecture":"三重県","prefecture_kana":"ミエケン","city":"いなべ市","city_kana":"イナベシ","town":"員弁町北金井","town_kana":"イナベチョウキタカナイ","prefecture_code":24},"0213":{"zip_code":"5110213","prefecture":"三重県","prefecture_kana":"ミエケン","city":"いなべ市","city_kana":"イナベシ","town":"員弁町暮明","town_kana":"イナベチョウクラガリ","prefecture_code":24},"0221":{"zip_code":"5110221","prefecture":"三重県","prefecture_kana":"ミエケン","city":"いなべ市","city_kana":"イナベシ","town":"員弁町下笠田","town_kana":"イナベチョウシモカサダ","prefecture_code":24},"0202":{"zip_code":"5110202","prefecture":"三重県","prefecture_kana":"ミエケン","city":"いなべ市","city_kana":"イナベシ","town":"員弁町楚原","town_kana":"イナベチョウソハラ","prefecture_code":24},"0225":{"zip_code":"5110225","prefecture":"三重県","prefecture_kana":"ミエケン","city":"いなべ市","city_kana":"イナベシ","town":"員弁町西方","town_kana":"イナベチョウニシガタ","prefecture_code":24},"0203":{"zip_code":"5110203","prefecture":"三重県","prefecture_kana":"ミエケン","city":"いなべ市","city_kana":"イナベシ","town":"員弁町畑新田","town_kana":"イナベチョウハタシンデン","prefecture_code":24},"0208":{"zip_code":"5110208","prefecture":"三重県","prefecture_kana":"ミエケン","city":"いなべ市","city_kana":"イナベシ","town":"員弁町坂東新田","town_kana":"イナベチョウバンドウシンデン","prefecture_code":24},"0215":{"zip_code":"5110215","prefecture":"三重県","prefecture_kana":"ミエケン","city":"いなべ市","city_kana":"イナベシ","town":"員弁町東一色","town_kana":"イナベチョウヒガシイッシキ","prefecture_code":24},"0212":{"zip_code":"5110212","prefecture":"三重県","prefecture_kana":"ミエケン","city":"いなべ市","city_kana":"イナベシ","town":"員弁町平古","town_kana":"イナベチョウヒラコ","prefecture_code":24},"0211":{"zip_code":"5110211","prefecture":"三重県","prefecture_kana":"ミエケン","city":"いなべ市","city_kana":"イナベシ","town":"員弁町松名新田","town_kana":"イナベチョウマツナシンデン","prefecture_code":24},"0216":{"zip_code":"5110216","prefecture":"三重県","prefecture_kana":"ミエケン","city":"いなべ市","city_kana":"イナベシ","town":"員弁町松之木","town_kana":"イナベチョウマツノキ","prefecture_code":24},"0222":{"zip_code":"5110222","prefecture":"三重県","prefecture_kana":"ミエケン","city":"いなべ市","city_kana":"イナベシ","town":"員弁町御薗","town_kana":"イナベチョウミソノ","prefecture_code":24},"0267":{"zip_code":"5110267","prefecture":"三重県","prefecture_kana":"ミエケン","city":"いなべ市","city_kana":"イナベシ","town":"大安町石榑北山","town_kana":"ダイアンチョウイシグレキタヤマ","prefecture_code":24},"0276":{"zip_code":"5110276","prefecture":"三重県","prefecture_kana":"ミエケン","city":"いなべ市","city_kana":"イナベシ","town":"大安町石榑下","town_kana":"ダイアンチョウイシグレシモ","prefecture_code":24},"0264":{"zip_code":"5110264","prefecture":"三重県","prefecture_kana":"ミエケン","city":"いなべ市","city_kana":"イナベシ","town":"大安町石榑東","town_kana":"ダイアンチョウイシグレヒガシ","prefecture_code":24},"0266":{"zip_code":"5110266","prefecture":"三重県","prefecture_kana":"ミエケン","city":"いなべ市","city_kana":"イナベシ","town":"大安町石榑南","town_kana":"ダイアンチョウイシグレミナミ","prefecture_code":24},"0265":{"zip_code":"5110265","prefecture":"三重県","prefecture_kana":"ミエケン","city":"いなべ市","city_kana":"イナベシ","town":"大安町石榑北","town_kana":"ダイアンチョウイシグレキタ","prefecture_code":24},"0286":{"zip_code":"5110286","prefecture":"三重県","prefecture_kana":"ミエケン","city":"いなべ市","city_kana":"イナベシ","town":"大安町宇賀","town_kana":"ダイアンチョウウガ","prefecture_code":24},"0285":{"zip_code":"5110285","prefecture":"三重県","prefecture_kana":"ミエケン","city":"いなべ市","city_kana":"イナベシ","town":"大安町宇賀新田","town_kana":"ダイアンチョウウガシンデン","prefecture_code":24},"0284":{"zip_code":"5110284","prefecture":"三重県","prefecture_kana":"ミエケン","city":"いなべ市","city_kana":"イナベシ","town":"大安町梅戸","town_kana":"ダイアンチョウウメド","prefecture_code":24},"0282":{"zip_code":"5110282","prefecture":"三重県","prefecture_kana":"ミエケン","city":"いなべ市","city_kana":"イナベシ","town":"大安町大泉","town_kana":"ダイアンチョウオオイズミ","prefecture_code":24},"0274":{"zip_code":"5110274","prefecture":"三重県","prefecture_kana":"ミエケン","city":"いなべ市","city_kana":"イナベシ","town":"大安町大井田","town_kana":"ダイアンチョウオオイダ","prefecture_code":24},"0271":{"zip_code":"5110271","prefecture":"三重県","prefecture_kana":"ミエケン","city":"いなべ市","city_kana":"イナベシ","town":"大安町片樋","town_kana":"ダイアンチョウカタヒ","prefecture_code":24},"0272":{"zip_code":"5110272","prefecture":"三重県","prefecture_kana":"ミエケン","city":"いなべ市","city_kana":"イナベシ","town":"大安町高柳","town_kana":"ダイアンチョウタカヤナギ","prefecture_code":24},"0287":{"zip_code":"5110287","prefecture":"三重県","prefecture_kana":"ミエケン","city":"いなべ市","city_kana":"イナベシ","town":"大安町中央ケ丘","town_kana":"ダイアンチョウチュウオウガオカ","prefecture_code":24},"0275":{"zip_code":"5110275","prefecture":"三重県","prefecture_kana":"ミエケン","city":"いなべ市","city_kana":"イナベシ","town":"大安町鍋坂","town_kana":"ダイアンチョウナベサカ","prefecture_code":24},"0261":{"zip_code":"5110261","prefecture":"三重県","prefecture_kana":"ミエケン","city":"いなべ市","city_kana":"イナベシ","town":"大安町丹生川上","town_kana":"ダイアンチョウニュウガワカミ","prefecture_code":24},"0262":{"zip_code":"5110262","prefecture":"三重県","prefecture_kana":"ミエケン","city":"いなべ市","city_kana":"イナベシ","town":"大安町丹生川中","town_kana":"ダイアンチョウニュウガワナカ","prefecture_code":24},"0263":{"zip_code":"5110263","prefecture":"三重県","prefecture_kana":"ミエケン","city":"いなべ市","city_kana":"イナベシ","town":"大安町丹生川久下","town_kana":"ダイアンチョウニュウガワヒサカ","prefecture_code":24},"0273":{"zip_code":"5110273","prefecture":"三重県","prefecture_kana":"ミエケン","city":"いなべ市","city_kana":"イナベシ","town":"大安町平塚","town_kana":"ダイアンチョウヒラツカ","prefecture_code":24},"0283":{"zip_code":"5110283","prefecture":"三重県","prefecture_kana":"ミエケン","city":"いなべ市","city_kana":"イナベシ","town":"大安町南金井","town_kana":"ダイアンチョウミナミカナイ","prefecture_code":24},"0281":{"zip_code":"5110281","prefecture":"三重県","prefecture_kana":"ミエケン","city":"いなべ市","city_kana":"イナベシ","town":"大安町門前","town_kana":"ダイアンチョウモンゼン","prefecture_code":24},"0514":{"zip_code":"5110514","prefecture":"三重県","prefecture_kana":"ミエケン","city":"いなべ市","city_kana":"イナベシ","town":"藤原町石川","town_kana":"フジワラチョウイシカワ","prefecture_code":24},"0511":{"zip_code":"5110511","prefecture":"三重県","prefecture_kana":"ミエケン","city":"いなべ市","city_kana":"イナベシ","town":"藤原町市場","town_kana":"フジワラチョウイチバ","prefecture_code":24},"0507":{"zip_code":"5110507","prefecture":"三重県","prefecture_kana":"ミエケン","city":"いなべ市","city_kana":"イナベシ","town":"藤原町上之山田","town_kana":"フジワラチョウウエノヤマダ","prefecture_code":24},"0517":{"zip_code":"5110517","prefecture":"三重県","prefecture_kana":"ミエケン","city":"いなべ市","city_kana":"イナベシ","town":"藤原町大貝戸","town_kana":"フジワラチョウオオガイト","prefecture_code":24},"0501":{"zip_code":"5110501","prefecture":"三重県","prefecture_kana":"ミエケン","city":"いなべ市","city_kana":"イナベシ","town":"藤原町鼎","town_kana":"フジワラチョウカナエ","prefecture_code":24},"0502":{"zip_code":"5110502","prefecture":"三重県","prefecture_kana":"ミエケン","city":"いなべ市","city_kana":"イナベシ","town":"藤原町上相場","town_kana":"フジワラチョウカミアイバ","prefecture_code":24},"0504":{"zip_code":"5110504","prefecture":"三重県","prefecture_kana":"ミエケン","city":"いなべ市","city_kana":"イナベシ","town":"藤原町川合","town_kana":"フジワラチョウカワイ","prefecture_code":24},"0518":{"zip_code":"5110518","prefecture":"三重県","prefecture_kana":"ミエケン","city":"いなべ市","city_kana":"イナベシ","town":"藤原町坂本","town_kana":"フジワラチョウサカモト","prefecture_code":24},"0522":{"zip_code":"5110522","prefecture":"三重県","prefecture_kana":"ミエケン","city":"いなべ市","city_kana":"イナベシ","town":"藤原町篠立","town_kana":"フジワラチョウシノダチ","prefecture_code":24},"0503":{"zip_code":"5110503","prefecture":"三重県","prefecture_kana":"ミエケン","city":"いなべ市","city_kana":"イナベシ","town":"藤原町下相場","town_kana":"フジワラチョウシモアイバ","prefecture_code":24},"0513":{"zip_code":"5110513","prefecture":"三重県","prefecture_kana":"ミエケン","city":"いなべ市","city_kana":"イナベシ","town":"藤原町下野尻","town_kana":"フジワラチョウシモノジリ","prefecture_code":24},"0512":{"zip_code":"5110512","prefecture":"三重県","prefecture_kana":"ミエケン","city":"いなべ市","city_kana":"イナベシ","town":"藤原町志礼石新田","town_kana":"フジワラチョウシレイシシンデン","prefecture_code":24},"0515":{"zip_code":"5110515","prefecture":"三重県","prefecture_kana":"ミエケン","city":"いなべ市","city_kana":"イナベシ","town":"藤原町東禅寺","town_kana":"フジワラチョウトウゼンジ","prefecture_code":24},"0506":{"zip_code":"5110506","prefecture":"三重県","prefecture_kana":"ミエケン","city":"いなべ市","city_kana":"イナベシ","town":"藤原町長尾","town_kana":"フジワラチョウナガオ","prefecture_code":24},"0516":{"zip_code":"5110516","prefecture":"三重県","prefecture_kana":"ミエケン","city":"いなべ市","city_kana":"イナベシ","town":"藤原町西野尻","town_kana":"フジワラチョウニシノジリ","prefecture_code":24},"0505":{"zip_code":"5110505","prefecture":"三重県","prefecture_kana":"ミエケン","city":"いなべ市","city_kana":"イナベシ","town":"藤原町日内","town_kana":"フジワラチョウヒナイ","prefecture_code":24},"0508":{"zip_code":"5110508","prefecture":"三重県","prefecture_kana":"ミエケン","city":"いなべ市","city_kana":"イナベシ","town":"藤原町藤ケ丘","town_kana":"フジワラチョウフジガオカ","prefecture_code":24},"0521":{"zip_code":"5110521","prefecture":"三重県","prefecture_kana":"ミエケン","city":"いなべ市","city_kana":"イナベシ","town":"藤原町古田","town_kana":"フジワラチョウフルタ","prefecture_code":24},"0519":{"zip_code":"5110519","prefecture":"三重県","prefecture_kana":"ミエケン","city":"いなべ市","city_kana":"イナベシ","town":"藤原町別名","town_kana":"フジワラチョウベツミョウ","prefecture_code":24},"0523":{"zip_code":"5110523","prefecture":"三重県","prefecture_kana":"ミエケン","city":"いなべ市","city_kana":"イナベシ","town":"藤原町本郷","town_kana":"フジワラチョウホンゴウ","prefecture_code":24},"0524":{"zip_code":"5110524","prefecture":"三重県","prefecture_kana":"ミエケン","city":"いなべ市","city_kana":"イナベシ","town":"藤原町山口","town_kana":"フジワラチョウヤマグチ","prefecture_code":24},"0428":{"zip_code":"5110428","prefecture":"三重県","prefecture_kana":"ミエケン","city":"いなべ市","city_kana":"イナベシ","town":"北勢町阿下喜","town_kana":"ホクセイチョウアゲキ","prefecture_code":24},"0416":{"zip_code":"5110416","prefecture":"三重県","prefecture_kana":"ミエケン","city":"いなべ市","city_kana":"イナベシ","town":"北勢町飯倉","town_kana":"ホクセイチョウイグラ","prefecture_code":24},"0427":{"zip_code":"5110427","prefecture":"三重県","prefecture_kana":"ミエケン","city":"いなべ市","city_kana":"イナベシ","town":"北勢町麻生田","town_kana":"ホクセイチョウオウダ","prefecture_code":24},"0425":{"zip_code":"5110425","prefecture":"三重県","prefecture_kana":"ミエケン","city":"いなべ市","city_kana":"イナベシ","town":"北勢町大辻新田","town_kana":"ホクセイチョウオオツジシンデン","prefecture_code":24},"0435":{"zip_code":"5110435","prefecture":"三重県","prefecture_kana":"ミエケン","city":"いなべ市","city_kana":"イナベシ","town":"北勢町奥村","town_kana":"ホクセイチョウオクムラ","prefecture_code":24},"0437":{"zip_code":"5110437","prefecture":"三重県","prefecture_kana":"ミエケン","city":"いなべ市","city_kana":"イナベシ","town":"北勢町垣内","town_kana":"ホクセイチョウカイト","prefecture_code":24},"0401":{"zip_code":"5110401","prefecture":"三重県","prefecture_kana":"ミエケン","city":"いなべ市","city_kana":"イナベシ","town":"北勢町川原","town_kana":"ホクセイチョウカワハラ","prefecture_code":24},"0422":{"zip_code":"5110422","prefecture":"三重県","prefecture_kana":"ミエケン","city":"いなべ市","city_kana":"イナベシ","town":"北勢町北中津原","town_kana":"ホクセイチョウキタナカツハラ","prefecture_code":24},"0411":{"zip_code":"5110411","prefecture":"三重県","prefecture_kana":"ミエケン","city":"いなべ市","city_kana":"イナベシ","town":"北勢町京ケ野新田","town_kana":"ホクセイチョウキョウガノシンデン","prefecture_code":24},"0404":{"zip_code":"5110404","prefecture":"三重県","prefecture_kana":"ミエケン","city":"いなべ市","city_kana":"イナベシ","town":"北勢町小原一色","town_kana":"ホクセイチョウコハライッシキ","prefecture_code":24},"0406":{"zip_code":"5110406","prefecture":"三重県","prefecture_kana":"ミエケン","city":"いなべ市","city_kana":"イナベシ","town":"北勢町塩崎","town_kana":"ホクセイチョウシオサキ","prefecture_code":24},"0418":{"zip_code":"5110418","prefecture":"三重県","prefecture_kana":"ミエケン","city":"いなべ市","city_kana":"イナベシ","town":"北勢町下平","town_kana":"ホクセイチョウシモヒラ","prefecture_code":24},"0436":{"zip_code":"5110436","prefecture":"三重県","prefecture_kana":"ミエケン","city":"いなべ市","city_kana":"イナベシ","town":"北勢町新町","town_kana":"ホクセイチョウシンマチ","prefecture_code":24},"0417":{"zip_code":"5110417","prefecture":"三重県","prefecture_kana":"ミエケン","city":"いなべ市","city_kana":"イナベシ","town":"北勢町瀬木","town_kana":"ホクセイチョウセギ","prefecture_code":24},"0402":{"zip_code":"5110402","prefecture":"三重県","prefecture_kana":"ミエケン","city":"いなべ市","city_kana":"イナベシ","town":"北勢町千司久連新田","town_kana":"ホクセイチョウセンジグレシンデン","prefecture_code":24},"0426":{"zip_code":"5110426","prefecture":"三重県","prefecture_kana":"ミエケン","city":"いなべ市","city_kana":"イナベシ","town":"北勢町其原","town_kana":"ホクセイチョウソノハラ","prefecture_code":24},"0405":{"zip_code":"5110405","prefecture":"三重県","prefecture_kana":"ミエケン","city":"いなべ市","city_kana":"イナベシ","town":"北勢町田辺","town_kana":"ホクセイチョウタナベ","prefecture_code":24},"0421":{"zip_code":"5110421","prefecture":"三重県","prefecture_kana":"ミエケン","city":"いなべ市","city_kana":"イナベシ","town":"北勢町皷","town_kana":"ホクセイチョウツヅミ","prefecture_code":24},"0433":{"zip_code":"5110433","prefecture":"三重県","prefecture_kana":"ミエケン","city":"いなべ市","city_kana":"イナベシ","town":"北勢町中山","town_kana":"ホクセイチョウナカヤマ","prefecture_code":24},"0414":{"zip_code":"5110414","prefecture":"三重県","prefecture_kana":"ミエケン","city":"いなべ市","city_kana":"イナベシ","town":"北勢町西貝野","town_kana":"ホクセイチョウニシカイノ","prefecture_code":24},"0403":{"zip_code":"5110403","prefecture":"三重県","prefecture_kana":"ミエケン","city":"いなべ市","city_kana":"イナベシ","town":"北勢町二之瀬","town_kana":"ホクセイチョウニノセ","prefecture_code":24},"0413":{"zip_code":"5110413","prefecture":"三重県","prefecture_kana":"ミエケン","city":"いなべ市","city_kana":"イナベシ","town":"北勢町畑毛","town_kana":"ホクセイチョウハタケ","prefecture_code":24},"0438":{"zip_code":"5110438","prefecture":"三重県","prefecture_kana":"ミエケン","city":"いなべ市","city_kana":"イナベシ","town":"北勢町治田外面","town_kana":"ホクセイチョウハッタドモ","prefecture_code":24},"0415":{"zip_code":"5110415","prefecture":"三重県","prefecture_kana":"ミエケン","city":"いなべ市","city_kana":"イナベシ","town":"北勢町東貝野","town_kana":"ホクセイチョウヒガシカイノ","prefecture_code":24},"0432":{"zip_code":"5110432","prefecture":"三重県","prefecture_kana":"ミエケン","city":"いなべ市","city_kana":"イナベシ","town":"北勢町東村","town_kana":"ホクセイチョウヒガシムラ","prefecture_code":24},"0423":{"zip_code":"5110423","prefecture":"三重県","prefecture_kana":"ミエケン","city":"いなべ市","city_kana":"イナベシ","town":"北勢町平野新田","town_kana":"ホクセイチョウヒラノシンデン","prefecture_code":24},"0434":{"zip_code":"5110434","prefecture":"三重県","prefecture_kana":"ミエケン","city":"いなべ市","city_kana":"イナベシ","town":"北勢町麓村","town_kana":"ホクセイチョウフモトムラ","prefecture_code":24},"0431":{"zip_code":"5110431","prefecture":"三重県","prefecture_kana":"ミエケン","city":"いなべ市","city_kana":"イナベシ","town":"北勢町別名","town_kana":"ホクセイチョウベツミョウ","prefecture_code":24},"0424":{"zip_code":"5110424","prefecture":"三重県","prefecture_kana":"ミエケン","city":"いなべ市","city_kana":"イナベシ","town":"北勢町南中津原","town_kana":"ホクセイチョウミナミナカツハラ","prefecture_code":24},"0412":{"zip_code":"5110412","prefecture":"三重県","prefecture_kana":"ミエケン","city":"いなべ市","city_kana":"イナベシ","town":"北勢町向平","town_kana":"ホクセイチョウムコヒラ","prefecture_code":24},"0243":{"zip_code":"5110243","prefecture":"三重県","prefecture_kana":"ミエケン","city":"員弁郡東員町","city_kana":"イナベグントウインチョウ","town":"穴太","town_kana":"アノウ","prefecture_code":24},"0244":{"zip_code":"5110244","prefecture":"三重県","prefecture_kana":"ミエケン","city":"員弁郡東員町","city_kana":"イナベグントウインチョウ","town":"大木","town_kana":"オオキ","prefecture_code":24},"0257":{"zip_code":"5110257","prefecture":"三重県","prefecture_kana":"ミエケン","city":"員弁郡東員町","city_kana":"イナベグントウインチョウ","town":"北大社","town_kana":"キタオオヤシロ","prefecture_code":24},"0251":[{"zip_code":"5110251","prefecture":"三重県","prefecture_kana":"ミエケン","city":"員弁郡東員町","city_kana":"イナベグントウインチョウ","town":"北山田","town_kana":"キタヤマダ","prefecture_code":24},{"zip_code":"5110251","prefecture":"三重県","prefecture_kana":"ミエケン","city":"員弁郡東員町","city_kana":"イナベグントウインチョウ","town":"山田","town_kana":"ヤマダ","prefecture_code":24}],"0232":{"zip_code":"5110232","prefecture":"三重県","prefecture_kana":"ミエケン","city":"員弁郡東員町","city_kana":"イナベグントウインチョウ","town":"笹尾東","town_kana":"ササオヒガシ","prefecture_code":24},"0231":{"zip_code":"5110231","prefecture":"三重県","prefecture_kana":"ミエケン","city":"員弁郡東員町","city_kana":"イナベグントウインチョウ","town":"笹尾西","town_kana":"ササオニシ","prefecture_code":24},"0233":{"zip_code":"5110233","prefecture":"三重県","prefecture_kana":"ミエケン","city":"員弁郡東員町","city_kana":"イナベグントウインチョウ","town":"城山","town_kana":"シロヤマ","prefecture_code":24},"0252":{"zip_code":"5110252","prefecture":"三重県","prefecture_kana":"ミエケン","city":"員弁郡東員町","city_kana":"イナベグントウインチョウ","town":"瀬古泉","town_kana":"セコイズミ","prefecture_code":24},"0253":{"zip_code":"5110253","prefecture":"三重県","prefecture_kana":"ミエケン","city":"員弁郡東員町","city_kana":"イナベグントウインチョウ","town":"筑紫","town_kana":"ツクシ","prefecture_code":24},"0241":{"zip_code":"5110241","prefecture":"三重県","prefecture_kana":"ミエケン","city":"員弁郡東員町","city_kana":"イナベグントウインチョウ","town":"鳥取","town_kana":"トットリ","prefecture_code":24},"0254":{"zip_code":"5110254","prefecture":"三重県","prefecture_kana":"ミエケン","city":"員弁郡東員町","city_kana":"イナベグントウインチョウ","town":"中上","town_kana":"ナカガミ","prefecture_code":24},"0255":{"zip_code":"5110255","prefecture":"三重県","prefecture_kana":"ミエケン","city":"員弁郡東員町","city_kana":"イナベグントウインチョウ","town":"長深","town_kana":"ナガフケ","prefecture_code":24},"0245":{"zip_code":"5110245","prefecture":"三重県","prefecture_kana":"ミエケン","city":"員弁郡東員町","city_kana":"イナベグントウインチョウ","town":"八幡新田","town_kana":"ハチマンシンデン","prefecture_code":24},"0256":{"zip_code":"5110256","prefecture":"三重県","prefecture_kana":"ミエケン","city":"員弁郡東員町","city_kana":"イナベグントウインチョウ","town":"南大社","town_kana":"ミナミオオヤシロ","prefecture_code":24},"0242":{"zip_code":"5110242","prefecture":"三重県","prefecture_kana":"ミエケン","city":"員弁郡東員町","city_kana":"イナベグントウインチョウ","town":"六把野新田","town_kana":"ロッパノシンデン","prefecture_code":24}}