{"0000":{"zip_code":"5140000","prefecture":"三重県","prefecture_kana":"ミエケン","city":"津市","city_kana":"ツシ","town":"","town_kana":"","prefecture_code":24},"0017":{"zip_code":"5140017","prefecture":"三重県","prefecture_kana":"ミエケン","city":"津市","city_kana":"ツシ","town":"相生町","town_kana":"アイオイチョウ","prefecture_code":24},"1139":{"zip_code":"5141139","prefecture":"三重県","prefecture_kana":"ミエケン","city":"津市","city_kana":"ツシ","town":"青葉台","town_kana":"アオバダイ","prefecture_code":24},"0811":{"zip_code":"5140811","prefecture":"三重県","prefecture_kana":"ミエケン","city":"津市","city_kana":"ツシ","town":"阿漕町","town_kana":"アコギマチ","prefecture_code":24},"0022":{"zip_code":"5140022","prefecture":"三重県","prefecture_kana":"ミエケン","city":"津市","city_kana":"ツシ","town":"愛宕町","town_kana":"アタゴチョウ","prefecture_code":24},"2302":{"zip_code":"5142302","prefecture":"三重県","prefecture_kana":"ミエケン","city":"津市","city_kana":"ツシ","town":"安濃町安濃","town_kana":"アノウチョウアノウ","prefecture_code":24},"2327":{"zip_code":"5142327","prefecture":"三重県","prefecture_kana":"ミエケン","city":"津市","city_kana":"ツシ","town":"安濃町安部","town_kana":"アノウチョウアベ","prefecture_code":24},"2301":{"zip_code":"5142301","prefecture":"三重県","prefecture_kana":"ミエケン","city":"津市","city_kana":"ツシ","town":"安濃町荒木","town_kana":"アノウチョウアラキ","prefecture_code":24},"2303":{"zip_code":"5142303","prefecture":"三重県","prefecture_kana":"ミエケン","city":"津市","city_kana":"ツシ","town":"安濃町内多","town_kana":"アノウチョウウチダ","prefecture_code":24},"2324":{"zip_code":"5142324","prefecture":"三重県","prefecture_kana":"ミエケン","city":"津市","city_kana":"ツシ","town":"安濃町粟加","town_kana":"アノウチョウオウカ","prefecture_code":24},"2304":{"zip_code":"5142304","prefecture":"三重県","prefecture_kana":"ミエケン","city":"津市","city_kana":"ツシ","town":"安濃町太田","town_kana":"アノウチョウオオタ","prefecture_code":24},"2323":{"zip_code":"5142323","prefecture":"三重県","prefecture_kana":"ミエケン","city":"津市","city_kana":"ツシ","town":"安濃町大塚","town_kana":"アノウチョウオオツカ","prefecture_code":24},"2308":{"zip_code":"5142308","prefecture":"三重県","prefecture_kana":"ミエケン","city":"津市","city_kana":"ツシ","town":"安濃町川西","town_kana":"アノウチョウカワニシ","prefecture_code":24},"2328":{"zip_code":"5142328","prefecture":"三重県","prefecture_kana":"ミエケン","city":"津市","city_kana":"ツシ","town":"安濃町草生","town_kana":"アノウチョウクサワ","prefecture_code":24},"2311":{"zip_code":"5142311","prefecture":"三重県","prefecture_kana":"ミエケン","city":"津市","city_kana":"ツシ","town":"安濃町神田","town_kana":"アノウチョウコウダ","prefecture_code":24},"2315":{"zip_code":"5142315","prefecture":"三重県","prefecture_kana":"ミエケン","city":"津市","city_kana":"ツシ","town":"安濃町光明寺","town_kana":"アノウチョウコウミョウジ","prefecture_code":24},"2313":{"zip_code":"5142313","prefecture":"三重県","prefecture_kana":"ミエケン","city":"津市","city_kana":"ツシ","town":"安濃町今徳","town_kana":"アノウチョウコンドク","prefecture_code":24},"2305":{"zip_code":"5142305","prefecture":"三重県","prefecture_kana":"ミエケン","city":"津市","city_kana":"ツシ","town":"安濃町清水","town_kana":"アノウチョウシミズ","prefecture_code":24},"2307":{"zip_code":"5142307","prefecture":"三重県","prefecture_kana":"ミエケン","city":"津市","city_kana":"ツシ","town":"安濃町浄土寺","town_kana":"アノウチョウジョウドウジ","prefecture_code":24},"2306":{"zip_code":"5142306","prefecture":"三重県","prefecture_kana":"ミエケン","city":"津市","city_kana":"ツシ","town":"安濃町曽根","town_kana":"アノウチョウソネ","prefecture_code":24},"2325":{"zip_code":"5142325","prefecture":"三重県","prefecture_kana":"ミエケン","city":"津市","city_kana":"ツシ","town":"安濃町田端上野","town_kana":"アノウチョウタバタウエノ","prefecture_code":24},"2312":{"zip_code":"5142312","prefecture":"三重県","prefecture_kana":"ミエケン","city":"津市","city_kana":"ツシ","town":"安濃町連部","town_kana":"アノウチョウツラベ","prefecture_code":24},"2326":{"zip_code":"5142326","prefecture":"三重県","prefecture_kana":"ミエケン","city":"津市","city_kana":"ツシ","town":"安濃町東観音寺","town_kana":"アノウチョウトウカンオンジ","prefecture_code":24},"2322":{"zip_code":"5142322","prefecture":"三重県","prefecture_kana":"ミエケン","city":"津市","city_kana":"ツシ","town":"安濃町戸島","town_kana":"アノウチョウトシマ","prefecture_code":24},"2318":{"zip_code":"5142318","prefecture":"三重県","prefecture_kana":"ミエケン","city":"津市","city_kana":"ツシ","town":"安濃町中川","town_kana":"アノウチョウナカガワ","prefecture_code":24},"2321":{"zip_code":"5142321","prefecture":"三重県","prefecture_kana":"ミエケン","city":"津市","city_kana":"ツシ","town":"安濃町野口","town_kana":"アノウチョウノグチ","prefecture_code":24},"2317":{"zip_code":"5142317","prefecture":"三重県","prefecture_kana":"ミエケン","city":"津市","city_kana":"ツシ","town":"安濃町前野","town_kana":"アノウチョウマエノ","prefecture_code":24},"2316":{"zip_code":"5142316","prefecture":"三重県","prefecture_kana":"ミエケン","city":"津市","city_kana":"ツシ","town":"安濃町南神山","town_kana":"アノウチョウミナミコヤマ","prefecture_code":24},"2314":{"zip_code":"5142314","prefecture":"三重県","prefecture_kana":"ミエケン","city":"津市","city_kana":"ツシ","town":"安濃町妙法寺","town_kana":"アノウチョウミョウホウジ","prefecture_code":24},"0131":{"zip_code":"5140131","prefecture":"三重県","prefecture_kana":"ミエケン","city":"津市","city_kana":"ツシ","town":"あのつ台","town_kana":"アノツダイ","prefecture_code":24},"0058":{"zip_code":"5140058","prefecture":"三重県","prefecture_kana":"ミエケン","city":"津市","city_kana":"ツシ","town":"安東町","town_kana":"アントウチョウ","prefecture_code":24},"0113":{"zip_code":"5140113","prefecture":"三重県","prefecture_kana":"ミエケン","city":"津市","city_kana":"ツシ","town":"一身田大古曽","town_kana":"イッシンデンオオゴソ","prefecture_code":24},"0061":{"zip_code":"5140061","prefecture":"三重県","prefecture_kana":"ミエケン","city":"津市","city_kana":"ツシ","town":"一身田上津部田","town_kana":"イッシンデンコウヅベタ","prefecture_code":24},"0115":{"zip_code":"5140115","prefecture":"三重県","prefecture_kana":"ミエケン","city":"津市","city_kana":"ツシ","town":"一身田豊野","town_kana":"イッシンデントヨノ","prefecture_code":24},"0112":{"zip_code":"5140112","prefecture":"三重県","prefecture_kana":"ミエケン","city":"津市","city_kana":"ツシ","town":"一身田中野","town_kana":"イッシンデンナカノ","prefecture_code":24},"0111":{"zip_code":"5140111","prefecture":"三重県","prefecture_kana":"ミエケン","city":"津市","city_kana":"ツシ","town":"一身田平野","town_kana":"イッシンデンヒラノ","prefecture_code":24},"0114":{"zip_code":"5140114","prefecture":"三重県","prefecture_kana":"ミエケン","city":"津市","city_kana":"ツシ","town":"一身田町","town_kana":"イッシンデンチョウ","prefecture_code":24},"0057":{"zip_code":"5140057","prefecture":"三重県","prefecture_kana":"ミエケン","city":"津市","city_kana":"ツシ","town":"一色町","town_kana":"イッシキチョウ","prefecture_code":24},"1252":{"zip_code":"5141252","prefecture":"三重県","prefecture_kana":"ミエケン","city":"津市","city_kana":"ツシ","town":"稲葉町","town_kana":"イナバチョウ","prefecture_code":24},"0838":{"zip_code":"5140838","prefecture":"三重県","prefecture_kana":"ミエケン","city":"津市","city_kana":"ツシ","town":"岩田","town_kana":"イワタ","prefecture_code":24},"0076":{"zip_code":"5140076","prefecture":"三重県","prefecture_kana":"ミエケン","city":"津市","city_kana":"ツシ","town":"産品","town_kana":"ウブシナ","prefecture_code":24},"0001":{"zip_code":"5140001","prefecture":"三重県","prefecture_kana":"ミエケン","city":"津市","city_kana":"ツシ","town":"江戸橋","town_kana":"エドバシ","prefecture_code":24},"0834":{"zip_code":"5140834","prefecture":"三重県","prefecture_kana":"ミエケン","city":"津市","city_kana":"ツシ","town":"大倉","town_kana":"オオクラ","prefecture_code":24},"0124":{"zip_code":"5140124","prefecture":"三重県","prefecture_kana":"ミエケン","city":"津市","city_kana":"ツシ","town":"大里川北町","town_kana":"オオザトカワキタチョウ","prefecture_code":24},"0125":{"zip_code":"5140125","prefecture":"三重県","prefecture_kana":"ミエケン","city":"津市","city_kana":"ツシ","town":"大里窪田町","town_kana":"オオザトクボタチョウ","prefecture_code":24},"0123":{"zip_code":"5140123","prefecture":"三重県","prefecture_kana":"ミエケン","city":"津市","city_kana":"ツシ","town":"大里小野田町","town_kana":"オオザトコノダチョウ","prefecture_code":24},"0122":{"zip_code":"5140122","prefecture":"三重県","prefecture_kana":"ミエケン","city":"津市","city_kana":"ツシ","town":"大里野田町","town_kana":"オオザトノダチョウ","prefecture_code":24},"0126":{"zip_code":"5140126","prefecture":"三重県","prefecture_kana":"ミエケン","city":"津市","city_kana":"ツシ","town":"大里睦合町","town_kana":"オオザトムツアイチョウ","prefecture_code":24},"0121":{"zip_code":"5140121","prefecture":"三重県","prefecture_kana":"ミエケン","city":"津市","city_kana":"ツシ","town":"大里山室町","town_kana":"オオザトヤマムロチョウ","prefecture_code":24},"0046":{"zip_code":"5140046","prefecture":"三重県","prefecture_kana":"ミエケン","city":"津市","city_kana":"ツシ","town":"大園町","town_kana":"オオゾノチョウ","prefecture_code":24},"0007":{"zip_code":"5140007","prefecture":"三重県","prefecture_kana":"ミエケン","city":"津市","city_kana":"ツシ","town":"大谷町","town_kana":"オオタニチョウ","prefecture_code":24},"1257":{"zip_code":"5141257","prefecture":"三重県","prefecture_kana":"ミエケン","city":"津市","city_kana":"ツシ","town":"大鳥町","town_kana":"オオドリチョウ","prefecture_code":24},"0039":{"zip_code":"5140039","prefecture":"三重県","prefecture_kana":"ミエケン","city":"津市","city_kana":"ツシ","town":"押加部町","town_kana":"オシカベチョウ","prefecture_code":24},"0016":{"zip_code":"5140016","prefecture":"三重県","prefecture_kana":"ミエケン","city":"津市","city_kana":"ツシ","town":"乙部","town_kana":"オトベ","prefecture_code":24},"0072":{"zip_code":"5140072","prefecture":"三重県","prefecture_kana":"ミエケン","city":"津市","city_kana":"ツシ","town":"小舟","town_kana":"オブネ","prefecture_code":24},"0013":{"zip_code":"5140013","prefecture":"三重県","prefecture_kana":"ミエケン","city":"津市","city_kana":"ツシ","town":"海岸町","town_kana":"カイガンチョウ","prefecture_code":24},"0082":{"zip_code":"5140082","prefecture":"三重県","prefecture_kana":"ミエケン","city":"津市","city_kana":"ツシ","town":"片田井戸町","town_kana":"カタダイドチョウ","prefecture_code":24},"0085":{"zip_code":"5140085","prefecture":"三重県","prefecture_kana":"ミエケン","city":"津市","city_kana":"ツシ","town":"片田久保町","town_kana":"カタダクボチョウ","prefecture_code":24},"0075":{"zip_code":"5140075","prefecture":"三重県","prefecture_kana":"ミエケン","city":"津市","city_kana":"ツシ","town":"片田志袋町","town_kana":"カタダシブクロチョウ","prefecture_code":24},"0083":{"zip_code":"5140083","prefecture":"三重県","prefecture_kana":"ミエケン","city":"津市","city_kana":"ツシ","town":"片田新町","town_kana":"カタダシンマチ","prefecture_code":24},"0081":{"zip_code":"5140081","prefecture":"三重県","prefecture_kana":"ミエケン","city":"津市","city_kana":"ツシ","town":"片田田中町","town_kana":"カタダタナカチョウ","prefecture_code":24},"0077":{"zip_code":"5140077","prefecture":"三重県","prefecture_kana":"ミエケン","city":"津市","city_kana":"ツシ","town":"片田長谷町","town_kana":"カタダハセチョウ","prefecture_code":24},"0074":{"zip_code":"5140074","prefecture":"三重県","prefecture_kana":"ミエケン","city":"津市","city_kana":"ツシ","town":"片田長谷場町","town_kana":"カタダハセバチョウ","prefecture_code":24},"0086":{"zip_code":"5140086","prefecture":"三重県","prefecture_kana":"ミエケン","city":"津市","city_kana":"ツシ","town":"片田薬王寺町","town_kana":"カタダヤクオウジチョウ","prefecture_code":24},"0084":{"zip_code":"5140084","prefecture":"三重県","prefecture_kana":"ミエケン","city":"津市","city_kana":"ツシ","town":"片田町","town_kana":"カタダチョウ","prefecture_code":24},"0054":{"zip_code":"5140054","prefecture":"三重県","prefecture_kana":"ミエケン","city":"津市","city_kana":"ツシ","town":"神納","town_kana":"カノウ","prefecture_code":24},"0052":{"zip_code":"5140052","prefecture":"三重県","prefecture_kana":"ミエケン","city":"津市","city_kana":"ツシ","town":"神納町","town_kana":"カノウチョウ","prefecture_code":24},"0008":{"zip_code":"5140008","prefecture":"三重県","prefecture_kana":"ミエケン","city":"津市","city_kana":"ツシ","town":"上浜町","town_kana":"カミハマチョウ","prefecture_code":24},"0806":{"zip_code":"5140806","prefecture":"三重県","prefecture_kana":"ミエケン","city":"津市","city_kana":"ツシ","town":"上弁財町","town_kana":"カミベザイチョウ","prefecture_code":24},"0804":{"zip_code":"5140804","prefecture":"三重県","prefecture_kana":"ミエケン","city":"津市","city_kana":"ツシ","town":"上弁財町津興","town_kana":"カミベザイマチツオキ","prefecture_code":24},"0311":[{"zip_code":"5140311","prefecture":"三重県","prefecture_kana":"ミエケン","city":"津市","city_kana":"ツシ","town":"香良洲町","town_kana":"カラスチョウ","prefecture_code":24},{"zip_code":"5140311","prefecture":"三重県","prefecture_kana":"ミエケン","city":"津市","city_kana":"ツシ","town":"香良洲町稲葉","town_kana":"カラスチョウイナバ","prefecture_code":24}],"0326":[{"zip_code":"5140326","prefecture":"三重県","prefecture_kana":"ミエケン","city":"津市","city_kana":"ツシ","town":"香良洲町","town_kana":"カラスチョウ","prefecture_code":24},{"zip_code":"5140326","prefecture":"三重県","prefecture_kana":"ミエケン","city":"津市","city_kana":"ツシ","town":"香良洲町川原","town_kana":"カラスチョウカワハラ","prefecture_code":24}],"0312":[{"zip_code":"5140312","prefecture":"三重県","prefecture_kana":"ミエケン","city":"津市","city_kana":"ツシ","town":"香良洲町","town_kana":"カラスチョウ","prefecture_code":24},{"zip_code":"5140312","prefecture":"三重県","prefecture_kana":"ミエケン","city":"津市","city_kana":"ツシ","town":"香良洲町小松","town_kana":"カラスチョウコマツ","prefecture_code":24}],"0325":[{"zip_code":"5140325","prefecture":"三重県","prefecture_kana":"ミエケン","city":"津市","city_kana":"ツシ","town":"香良洲町","town_kana":"カラスチョウ","prefecture_code":24},{"zip_code":"5140325","prefecture":"三重県","prefecture_kana":"ミエケン","city":"津市","city_kana":"ツシ","town":"香良洲町桜町","town_kana":"カラスチョウサクラマチ","prefecture_code":24}],"0324":[{"zip_code":"5140324","prefecture":"三重県","prefecture_kana":"ミエケン","city":"津市","city_kana":"ツシ","town":"香良洲町","town_kana":"カラスチョウ","prefecture_code":24},{"zip_code":"5140324","prefecture":"三重県","prefecture_kana":"ミエケン","city":"津市","city_kana":"ツシ","town":"香良洲町地家","town_kana":"カラスチョウジケ","prefecture_code":24}],"0321":[{"zip_code":"5140321","prefecture":"三重県","prefecture_kana":"ミエケン","city":"津市","city_kana":"ツシ","town":"香良洲町","town_kana":"カラスチョウ","prefecture_code":24},{"zip_code":"5140321","prefecture":"三重県","prefecture_kana":"ミエケン","city":"津市","city_kana":"ツシ","town":"香良洲町砂原","town_kana":"カラスチョウスナハラ","prefecture_code":24}],"0314":[{"zip_code":"5140314","prefecture":"三重県","prefecture_kana":"ミエケン","city":"津市","city_kana":"ツシ","town":"香良洲町","town_kana":"カラスチョウ","prefecture_code":24},{"zip_code":"5140314","prefecture":"三重県","prefecture_kana":"ミエケン","city":"津市","city_kana":"ツシ","town":"香良洲町高砂","town_kana":"カラスチョウタカサゴ","prefecture_code":24}],"0323":[{"zip_code":"5140323","prefecture":"三重県","prefecture_kana":"ミエケン","city":"津市","city_kana":"ツシ","town":"香良洲町","town_kana":"カラスチョウ","prefecture_code":24},{"zip_code":"5140323","prefecture":"三重県","prefecture_kana":"ミエケン","city":"津市","city_kana":"ツシ","town":"香良洲町馬場","town_kana":"カラスチョウババ","prefecture_code":24}],"0313":[{"zip_code":"5140313","prefecture":"三重県","prefecture_kana":"ミエケン","city":"津市","city_kana":"ツシ","town":"香良洲町","town_kana":"カラスチョウ","prefecture_code":24},{"zip_code":"5140313","prefecture":"三重県","prefecture_kana":"ミエケン","city":"津市","city_kana":"ツシ","town":"香良洲町浜浦","town_kana":"カラスチョウハマウラ","prefecture_code":24}],"0315":{"zip_code":"5140315","prefecture":"三重県","prefecture_kana":"ミエケン","city":"津市","city_kana":"ツシ","town":"香良洲町","town_kana":"カラスチョウ","prefecture_code":24},"1122":{"zip_code":"5141122","prefecture":"三重県","prefecture_kana":"ミエケン","city":"津市","city_kana":"ツシ","town":"川方町","town_kana":"カワカタチョウ","prefecture_code":24},"0044":{"zip_code":"5140044","prefecture":"三重県","prefecture_kana":"ミエケン","city":"津市","city_kana":"ツシ","town":"川添町","town_kana":"カワゾエチョウ","prefecture_code":24},"0062":{"zip_code":"5140062","prefecture":"三重県","prefecture_kana":"ミエケン","city":"津市","city_kana":"ツシ","town":"観音寺町","town_kana":"カンオンジチョウ","prefecture_code":24},"0824":{"zip_code":"5140824","prefecture":"三重県","prefecture_kana":"ミエケン","city":"津市","city_kana":"ツシ","town":"神戸","town_kana":"カンベ","prefecture_code":24},"0056":{"zip_code":"5140056","prefecture":"三重県","prefecture_kana":"ミエケン","city":"津市","city_kana":"ツシ","town":"北河路町","town_kana":"キタコウジチョウ","prefecture_code":24},"0023":{"zip_code":"5140023","prefecture":"三重県","prefecture_kana":"ミエケン","city":"津市","city_kana":"ツシ","town":"北町津","town_kana":"キタマチツ","prefecture_code":24},"0031":{"zip_code":"5140031","prefecture":"三重県","prefecture_kana":"ミエケン","city":"津市","city_kana":"ツシ","town":"北丸之内","town_kana":"キタマルノウチ","prefecture_code":24},"0302":{"zip_code":"5140302","prefecture":"三重県","prefecture_kana":"ミエケン","city":"津市","city_kana":"ツシ","town":"雲出伊倉津町","town_kana":"クモズイグラヅチョウ","prefecture_code":24},"0301":{"zip_code":"5140301","prefecture":"三重県","prefecture_kana":"ミエケン","city":"津市","city_kana":"ツシ","town":"雲出鋼管町","town_kana":"クモズコウカンチョウ","prefecture_code":24},"0305":{"zip_code":"5140305","prefecture":"三重県","prefecture_kana":"ミエケン","city":"津市","city_kana":"ツシ","town":"雲出島貫町","town_kana":"クモズシマヌキチョウ","prefecture_code":24},"0303":{"zip_code":"5140303","prefecture":"三重県","prefecture_kana":"ミエケン","city":"津市","city_kana":"ツシ","town":"雲出長常町","town_kana":"クモズナガツネチョウ","prefecture_code":24},"0304":{"zip_code":"5140304","prefecture":"三重県","prefecture_kana":"ミエケン","city":"津市","city_kana":"ツシ","town":"雲出本郷町","town_kana":"クモズホンゴウチョウ","prefecture_code":24},"0104":{"zip_code":"5140104","prefecture":"三重県","prefecture_kana":"ミエケン","city":"津市","city_kana":"ツシ","town":"栗真小川町","town_kana":"クリマコガワチョウ","prefecture_code":24},"0103":{"zip_code":"5140103","prefecture":"三重県","prefecture_kana":"ミエケン","city":"津市","city_kana":"ツシ","town":"栗真中山町","town_kana":"クリマナカヤマチョウ","prefecture_code":24},"0102":{"zip_code":"5140102","prefecture":"三重県","prefecture_kana":"ミエケン","city":"津市","city_kana":"ツシ","town":"栗真町屋町","town_kana":"クリママチヤチョウ","prefecture_code":24},"2204":{"zip_code":"5142204","prefecture":"三重県","prefecture_kana":"ミエケン","city":"津市","city_kana":"ツシ","town":"芸濃町雲林院","town_kana":"ゲイノウチョウウジイ","prefecture_code":24},"2212":{"zip_code":"5142212","prefecture":"三重県","prefecture_kana":"ミエケン","city":"津市","city_kana":"ツシ","town":"芸濃町岡本","town_kana":"ゲイノウチョウオカモト","prefecture_code":24},"2208":{"zip_code":"5142208","prefecture":"三重県","prefecture_kana":"ミエケン","city":"津市","city_kana":"ツシ","town":"芸濃町忍田","town_kana":"ゲイノウチョウオシダ","prefecture_code":24},"2206":{"zip_code":"5142206","prefecture":"三重県","prefecture_kana":"ミエケン","city":"津市","city_kana":"ツシ","town":"芸濃町小野平","town_kana":"ゲイノウチョウオノヒラ","prefecture_code":24},"2213":{"zip_code":"5142213","prefecture":"三重県","prefecture_kana":"ミエケン","city":"津市","city_kana":"ツシ","town":"芸濃町北神山","town_kana":"ゲイノウチョウキタコヤマ","prefecture_code":24},"2201":{"zip_code":"5142201","prefecture":"三重県","prefecture_kana":"ミエケン","city":"津市","city_kana":"ツシ","town":"芸濃町楠原","town_kana":"ゲイノウチョウクスワラ","prefecture_code":24},"2207":{"zip_code":"5142207","prefecture":"三重県","prefecture_kana":"ミエケン","city":"津市","city_kana":"ツシ","town":"芸濃町河内","town_kana":"ゲイノウチョウコウチ","prefecture_code":24},"2205":{"zip_code":"5142205","prefecture":"三重県","prefecture_kana":"ミエケン","city":"津市","city_kana":"ツシ","town":"芸濃町多門","town_kana":"ゲイノウチョウタモン","prefecture_code":24},"2203":{"zip_code":"5142203","prefecture":"三重県","prefecture_kana":"ミエケン","city":"津市","city_kana":"ツシ","town":"芸濃町中縄","town_kana":"ゲイノウチョウナカナワ","prefecture_code":24},"2214":{"zip_code":"5142214","prefecture":"三重県","prefecture_kana":"ミエケン","city":"津市","city_kana":"ツシ","town":"芸濃町萩野","town_kana":"ゲイノウチョウハギノ","prefecture_code":24},"2202":{"zip_code":"5142202","prefecture":"三重県","prefecture_kana":"ミエケン","city":"津市","city_kana":"ツシ","town":"芸濃町林","town_kana":"ゲイノウチョウハヤシ","prefecture_code":24},"2211":{"zip_code":"5142211","prefecture":"三重県","prefecture_kana":"ミエケン","city":"津市","city_kana":"ツシ","town":"芸濃町椋本","town_kana":"ゲイノウチョウムクモト","prefecture_code":24},"0065":{"zip_code":"5140065","prefecture":"三重県","prefecture_kana":"ミエケン","city":"津市","city_kana":"ツシ","town":"河辺町","town_kana":"コウベチョウ","prefecture_code":24},"0006":{"zip_code":"5140006","prefecture":"三重県","prefecture_kana":"ミエケン","city":"津市","city_kana":"ツシ","town":"広明町","town_kana":"コウメイチョウ","prefecture_code":24},"1115":{"zip_code":"5141115","prefecture":"三重県","prefecture_kana":"ミエケン","city":"津市","city_kana":"ツシ","town":"木造町","town_kana":"コツクリチョウ","prefecture_code":24},"0015":{"zip_code":"5140015","prefecture":"三重県","prefecture_kana":"ミエケン","city":"津市","city_kana":"ツシ","town":"寿町","town_kana":"コトブキチョウ","prefecture_code":24},"0835":{"zip_code":"5140835","prefecture":"三重県","prefecture_kana":"ミエケン","city":"津市","city_kana":"ツシ","town":"幸町","town_kana":"サイワイチョウ","prefecture_code":24},"0004":{"zip_code":"5140004","prefecture":"三重県","prefecture_kana":"ミエケン","city":"津市","city_kana":"ツシ","town":"栄町","town_kana":"サカエマチ","prefecture_code":24},"1251":{"zip_code":"5141251","prefecture":"三重県","prefecture_kana":"ミエケン","city":"津市","city_kana":"ツシ","town":"榊原町","town_kana":"サカキバラチョウ","prefecture_code":24},"0047":{"zip_code":"5140047","prefecture":"三重県","prefecture_kana":"ミエケン","city":"津市","city_kana":"ツシ","town":"桜田町","town_kana":"サクラダチョウ","prefecture_code":24},"0003":{"zip_code":"5140003","prefecture":"三重県","prefecture_kana":"ミエケン","city":"津市","city_kana":"ツシ","town":"桜橋","town_kana":"サクラバシ","prefecture_code":24},"0063":{"zip_code":"5140063","prefecture":"三重県","prefecture_kana":"ミエケン","city":"津市","city_kana":"ツシ","town":"渋見町","town_kana":"シブミチョウ","prefecture_code":24},"0002":{"zip_code":"5140002","prefecture":"三重県","prefecture_kana":"ミエケン","city":"津市","city_kana":"ツシ","town":"島崎町","town_kana":"シマザキチョウ","prefecture_code":24},"0805":{"zip_code":"5140805","prefecture":"三重県","prefecture_kana":"ミエケン","city":"津市","city_kana":"ツシ","town":"下弁財町津興","town_kana":"シモベザイマチツオキ","prefecture_code":24},"0837":{"zip_code":"5140837","prefecture":"三重県","prefecture_kana":"ミエケン","city":"津市","city_kana":"ツシ","town":"修成町","town_kana":"シュウセイチョウ","prefecture_code":24},"1255":{"zip_code":"5141255","prefecture":"三重県","prefecture_kana":"ミエケン","city":"津市","city_kana":"ツシ","town":"庄田町","town_kana":"ショウダチョウ","prefecture_code":24},"0101":{"zip_code":"5140101","prefecture":"三重県","prefecture_kana":"ミエケン","city":"津市","city_kana":"ツシ","town":"白塚町","town_kana":"シラツカチョウ","prefecture_code":24},"0818":{"zip_code":"5140818","prefecture":"三重県","prefecture_kana":"ミエケン","city":"津市","city_kana":"ツシ","town":"城山","town_kana":"シロヤマ","prefecture_code":24},"0024":{"zip_code":"5140024","prefecture":"三重県","prefecture_kana":"ミエケン","city":"津市","city_kana":"ツシ","town":"新立町津","town_kana":"シンタテマチツ","prefecture_code":24},"0026":{"zip_code":"5140026","prefecture":"三重県","prefecture_kana":"ミエケン","city":"津市","city_kana":"ツシ","town":"新東町塔世","town_kana":"シンヒガシマチトウセ","prefecture_code":24},"0042":{"zip_code":"5140042","prefecture":"三重県","prefecture_kana":"ミエケン","city":"津市","city_kana":"ツシ","town":"新町","town_kana":"シンマチ","prefecture_code":24},"0012":{"zip_code":"5140012","prefecture":"三重県","prefecture_kana":"ミエケン","city":"津市","city_kana":"ツシ","town":"末広町","town_kana":"スエヒロチョウ","prefecture_code":24},"1124":{"zip_code":"5141124","prefecture":"三重県","prefecture_kana":"ミエケン","city":"津市","city_kana":"ツシ","town":"須ケ瀬町","town_kana":"スガゼチョウ","prefecture_code":24},"0019":{"zip_code":"5140019","prefecture":"三重県","prefecture_kana":"ミエケン","city":"津市","city_kana":"ツシ","town":"住吉町","town_kana":"スミヨシチョウ","prefecture_code":24},"0801":{"zip_code":"5140801","prefecture":"三重県","prefecture_kana":"ミエケン","city":"津市","city_kana":"ツシ","town":"船頭町津興","town_kana":"センドウマチツオキ","prefecture_code":24},"0027":{"zip_code":"5140027","prefecture":"三重県","prefecture_kana":"ミエケン","city":"津市","city_kana":"ツシ","town":"大門","town_kana":"ダイモン","prefecture_code":24},"0011":{"zip_code":"5140011","prefecture":"三重県","prefecture_kana":"ミエケン","city":"津市","city_kana":"ツシ","town":"高洲町","town_kana":"タカスチョウ","prefecture_code":24},"0819":{"zip_code":"5140819","prefecture":"三重県","prefecture_kana":"ミエケン","city":"津市","city_kana":"ツシ","town":"高茶屋","town_kana":"タカヂャヤ","prefecture_code":24},"0816":{"zip_code":"5140816","prefecture":"三重県","prefecture_kana":"ミエケン","city":"津市","city_kana":"ツシ","town":"高茶屋小森上野町","town_kana":"タカヂャヤコモリウエノチョウ","prefecture_code":24},"0817":{"zip_code":"5140817","prefecture":"三重県","prefecture_kana":"ミエケン","city":"津市","city_kana":"ツシ","town":"高茶屋小森町","town_kana":"タカヂャヤコモリチョウ","prefecture_code":24},"2221":{"zip_code":"5142221","prefecture":"三重県","prefecture_kana":"ミエケン","city":"津市","city_kana":"ツシ","town":"高野尾町","town_kana":"タカノオチョウ","prefecture_code":24},"0821":{"zip_code":"5140821","prefecture":"三重県","prefecture_kana":"ミエケン","city":"津市","city_kana":"ツシ","town":"垂水","town_kana":"タルミ","prefecture_code":24},"0032":{"zip_code":"5140032","prefecture":"三重県","prefecture_kana":"ミエケン","city":"津市","city_kana":"ツシ","town":"中央","town_kana":"チュウオウ","prefecture_code":24},"0812":{"zip_code":"5140812","prefecture":"三重県","prefecture_kana":"ミエケン","city":"津市","city_kana":"ツシ","town":"津興","town_kana":"ツオキ","prefecture_code":24},"0073":{"zip_code":"5140073","prefecture":"三重県","prefecture_kana":"ミエケン","city":"津市","city_kana":"ツシ","town":"殿村","town_kana":"トノムラ","prefecture_code":24},"2222":{"zip_code":"5142222","prefecture":"三重県","prefecture_kana":"ミエケン","city":"津市","city_kana":"ツシ","town":"豊が丘","town_kana":"トヨガオカ","prefecture_code":24},"0005":{"zip_code":"5140005","prefecture":"三重県","prefecture_kana":"ミエケン","city":"津市","city_kana":"ツシ","town":"鳥居町","town_kana":"トリイチョウ","prefecture_code":24},"0018":{"zip_code":"5140018","prefecture":"三重県","prefecture_kana":"ミエケン","city":"津市","city_kana":"ツシ","town":"中河原","town_kana":"ナカガワラ","prefecture_code":24},"1256":{"zip_code":"5141256","prefecture":"三重県","prefecture_kana":"ミエケン","city":"津市","city_kana":"ツシ","town":"中村町","town_kana":"ナカムラチョウ","prefecture_code":24},"0064":{"zip_code":"5140064","prefecture":"三重県","prefecture_kana":"ミエケン","city":"津市","city_kana":"ツシ","town":"長岡町","town_kana":"ナガオカチョウ","prefecture_code":24},"0010":{"zip_code":"5140010","prefecture":"三重県","prefecture_kana":"ミエケン","city":"津市","city_kana":"ツシ","town":"なぎさまち","town_kana":"ナギサマチ","prefecture_code":24},"0833":{"zip_code":"5140833","prefecture":"三重県","prefecture_kana":"ミエケン","city":"津市","city_kana":"ツシ","town":"西阿漕町岩田","town_kana":"ニシアコギチョウイワタ","prefecture_code":24},"0038":{"zip_code":"5140038","prefecture":"三重県","prefecture_kana":"ミエケン","city":"津市","city_kana":"ツシ","town":"西古河町","town_kana":"ニシフルカワチョウ","prefecture_code":24},"0035":{"zip_code":"5140035","prefecture":"三重県","prefecture_kana":"ミエケン","city":"津市","city_kana":"ツシ","town":"西丸之内","town_kana":"ニシマルノウチ","prefecture_code":24},"1116":{"zip_code":"5141116","prefecture":"三重県","prefecture_kana":"ミエケン","city":"津市","city_kana":"ツシ","town":"新家町","town_kana":"ニノミチョウ","prefecture_code":24},"0051":{"zip_code":"5140051","prefecture":"三重県","prefecture_kana":"ミエケン","city":"津市","city_kana":"ツシ","town":"納所町","town_kana":"ノウソチョウ","prefecture_code":24},"0836":{"zip_code":"5140836","prefecture":"三重県","prefecture_kana":"ミエケン","city":"津市","city_kana":"ツシ","town":"野崎垣内岩田","town_kana":"ノザキガイトイワタ","prefecture_code":24},"0826":{"zip_code":"5140826","prefecture":"三重県","prefecture_kana":"ミエケン","city":"津市","city_kana":"ツシ","town":"野田","town_kana":"ノダ","prefecture_code":24},"0053":{"zip_code":"5140053","prefecture":"三重県","prefecture_kana":"ミエケン","city":"津市","city_kana":"ツシ","town":"博多町","town_kana":"ハカタチョウ","prefecture_code":24},"0041":{"zip_code":"5140041","prefecture":"三重県","prefecture_kana":"ミエケン","city":"津市","city_kana":"ツシ","town":"八町","town_kana":"ハッチョウ","prefecture_code":24},"0009":{"zip_code":"5140009","prefecture":"三重県","prefecture_kana":"ミエケン","city":"津市","city_kana":"ツシ","town":"羽所町","town_kana":"ハドコロチョウ","prefecture_code":24},"0823":{"zip_code":"5140823","prefecture":"三重県","prefecture_kana":"ミエケン","city":"津市","city_kana":"ツシ","town":"半田","town_kana":"ハンダ","prefecture_code":24},"0037":{"zip_code":"5140037","prefecture":"三重県","prefecture_kana":"ミエケン","city":"津市","city_kana":"ツシ","town":"東古河町","town_kana":"ヒガシフルカワチョウ","prefecture_code":24},"0025":{"zip_code":"5140025","prefecture":"三重県","prefecture_kana":"ミエケン","city":"津市","city_kana":"ツシ","town":"東町津","town_kana":"ヒガシマチツ","prefecture_code":24},"0028":{"zip_code":"5140028","prefecture":"三重県","prefecture_kana":"ミエケン","city":"津市","city_kana":"ツシ","town":"東丸之内","town_kana":"ヒガシマルノウチ","prefecture_code":24},"1103":{"zip_code":"5141103","prefecture":"三重県","prefecture_kana":"ミエケン","city":"津市","city_kana":"ツシ","town":"久居相川町","town_kana":"ヒサイアイカワチョウ","prefecture_code":24},"1253":{"zip_code":"5141253","prefecture":"三重県","prefecture_kana":"ミエケン","city":"津市","city_kana":"ツシ","town":"久居一色町","town_kana":"ヒサイイッシキチョウ","prefecture_code":24},"1114":{"zip_code":"5141114","prefecture":"三重県","prefecture_kana":"ミエケン","city":"津市","city_kana":"ツシ","town":"久居井戸山町","town_kana":"ヒサイイドヤマチョウ","prefecture_code":24},"1108":{"zip_code":"5141108","prefecture":"三重県","prefecture_kana":"ミエケン","city":"津市","city_kana":"ツシ","town":"久居射場町","town_kana":"ヒサイイバチョウ","prefecture_code":24},"1109":{"zip_code":"5141109","prefecture":"三重県","prefecture_kana":"ミエケン","city":"津市","city_kana":"ツシ","town":"久居烏木町","town_kana":"ヒサイカラスギチョウ","prefecture_code":24},"1105":{"zip_code":"5141105","prefecture":"三重県","prefecture_kana":"ミエケン","city":"津市","city_kana":"ツシ","town":"久居北口町","town_kana":"ヒサイキタグチチョウ","prefecture_code":24},"1112":{"zip_code":"5141112","prefecture":"三重県","prefecture_kana":"ミエケン","city":"津市","city_kana":"ツシ","town":"久居小野辺町","town_kana":"ヒサイコノンベチョウ","prefecture_code":24},"1137":{"zip_code":"5141137","prefecture":"三重県","prefecture_kana":"ミエケン","city":"津市","city_kana":"ツシ","town":"久居小戸木町","town_kana":"ヒサイコベキチョウ","prefecture_code":24},"1111":{"zip_code":"5141111","prefecture":"三重県","prefecture_kana":"ミエケン","city":"津市","city_kana":"ツシ","town":"久居桜が丘町","town_kana":"ヒサイサクラガオカチョウ","prefecture_code":24},"1132":{"zip_code":"5141132","prefecture":"三重県","prefecture_kana":"ミエケン","city":"津市","city_kana":"ツシ","town":"久居幸町","town_kana":"ヒサイサヤマチ","prefecture_code":24},"1118":{"zip_code":"5141118","prefecture":"三重県","prefecture_kana":"ミエケン","city":"津市","city_kana":"ツシ","town":"久居新町","town_kana":"ヒサイシンマチ","prefecture_code":24},"1106":{"zip_code":"5141106","prefecture":"三重県","prefecture_kana":"ミエケン","city":"津市","city_kana":"ツシ","town":"久居寺町","town_kana":"ヒサイテラマチ","prefecture_code":24},"1107":{"zip_code":"5141107","prefecture":"三重県","prefecture_kana":"ミエケン","city":"津市","city_kana":"ツシ","town":"久居中町","town_kana":"ヒサイナカマチ","prefecture_code":24},"1131":{"zip_code":"5141131","prefecture":"三重県","prefecture_kana":"ミエケン","city":"津市","city_kana":"ツシ","town":"久居西鷹跡町","town_kana":"ヒサイニシタカトマチ","prefecture_code":24},"1121":{"zip_code":"5141121","prefecture":"三重県","prefecture_kana":"ミエケン","city":"津市","city_kana":"ツシ","town":"久居二ノ町","town_kana":"ヒサイニノマチ","prefecture_code":24},"1117":{"zip_code":"5141117","prefecture":"三重県","prefecture_kana":"ミエケン","city":"津市","city_kana":"ツシ","town":"久居野口町","town_kana":"ヒサイノグチチョウ","prefecture_code":24},"1113":{"zip_code":"5141113","prefecture":"三重県","prefecture_kana":"ミエケン","city":"津市","city_kana":"ツシ","town":"久居野村町","town_kana":"ヒサイノムラチョウ","prefecture_code":24},"1134":{"zip_code":"5141134","prefecture":"三重県","prefecture_kana":"ミエケン","city":"津市","city_kana":"ツシ","town":"久居旅籠町","town_kana":"ヒサイハタゴマチ","prefecture_code":24},"1136":{"zip_code":"5141136","prefecture":"三重県","prefecture_kana":"ミエケン","city":"津市","city_kana":"ツシ","town":"久居東鷹跡町","town_kana":"ヒサイヒガシタカトマチ","prefecture_code":24},"1102":{"zip_code":"5141102","prefecture":"三重県","prefecture_kana":"ミエケン","city":"津市","city_kana":"ツシ","town":"久居藤ケ丘町","town_kana":"ヒサイフジガオカチョウ","prefecture_code":24},"1135":{"zip_code":"5141135","prefecture":"三重県","prefecture_kana":"ミエケン","city":"津市","city_kana":"ツシ","town":"久居本町","town_kana":"ヒサイホンマチ","prefecture_code":24},"1258":{"zip_code":"5141258","prefecture":"三重県","prefecture_kana":"ミエケン","city":"津市","city_kana":"ツシ","town":"久居緑が丘町","town_kana":"ヒサイミドリガオカチョウ","prefecture_code":24},"1101":{"zip_code":"5141101","prefecture":"三重県","prefecture_kana":"ミエケン","city":"津市","city_kana":"ツシ","town":"久居明神町","town_kana":"ヒサイミョウジンチョウ","prefecture_code":24},"1104":{"zip_code":"5141104","prefecture":"三重県","prefecture_kana":"ミエケン","city":"津市","city_kana":"ツシ","town":"久居持川町","town_kana":"ヒサイモチカワチョウ","prefecture_code":24},"1125":{"zip_code":"5141125","prefecture":"三重県","prefecture_kana":"ミエケン","city":"津市","city_kana":"ツシ","town":"久居元町","town_kana":"ヒサイモトマチ","prefecture_code":24},"1133":{"zip_code":"5141133","prefecture":"三重県","prefecture_kana":"ミエケン","city":"津市","city_kana":"ツシ","town":"久居万町","town_kana":"ヒサイヨロズマチ","prefecture_code":24},"0814":{"zip_code":"5140814","prefecture":"三重県","prefecture_kana":"ミエケン","city":"津市","city_kana":"ツシ","town":"藤枝町","town_kana":"フジエダチョウ","prefecture_code":24},"0815":{"zip_code":"5140815","prefecture":"三重県","prefecture_kana":"ミエケン","city":"津市","city_kana":"ツシ","town":"藤方","town_kana":"フジカタ","prefecture_code":24},"1138":{"zip_code":"5141138","prefecture":"三重県","prefecture_kana":"ミエケン","city":"津市","city_kana":"ツシ","town":"戸木町","town_kana":"ヘキチョウ","prefecture_code":24},"0831":{"zip_code":"5140831","prefecture":"三重県","prefecture_kana":"ミエケン","city":"津市","city_kana":"ツシ","town":"本町","town_kana":"ホンマチ","prefecture_code":24},"1123":{"zip_code":"5141123","prefecture":"三重県","prefecture_kana":"ミエケン","city":"津市","city_kana":"ツシ","town":"牧町","town_kana":"マキチョウ","prefecture_code":24},"0033":{"zip_code":"5140033","prefecture":"三重県","prefecture_kana":"ミエケン","city":"津市","city_kana":"ツシ","town":"丸之内","town_kana":"マルノウチ","prefecture_code":24},"0036":{"zip_code":"5140036","prefecture":"三重県","prefecture_kana":"ミエケン","city":"津市","city_kana":"ツシ","town":"丸之内養正町","town_kana":"マルノウチヨウセイチョウ","prefecture_code":24},"0802":{"zip_code":"5140802","prefecture":"三重県","prefecture_kana":"ミエケン","city":"津市","city_kana":"ツシ","town":"三重町津興","town_kana":"ミエチョウツオキ","prefecture_code":24},"0045":{"zip_code":"5140045","prefecture":"三重県","prefecture_kana":"ミエケン","city":"津市","city_kana":"ツシ","town":"美川町","town_kana":"ミカワチョウ","prefecture_code":24},"2106":{"zip_code":"5142106","prefecture":"三重県","prefecture_kana":"ミエケン","city":"津市","city_kana":"ツシ","town":"美里町足坂","town_kana":"ミサトチョウアシザカ","prefecture_code":24},"2107":{"zip_code":"5142107","prefecture":"三重県","prefecture_kana":"ミエケン","city":"津市","city_kana":"ツシ","town":"美里町穴倉","town_kana":"ミサトチョウアナクラ","prefecture_code":24},"2104":{"zip_code":"5142104","prefecture":"三重県","prefecture_kana":"ミエケン","city":"津市","city_kana":"ツシ","town":"美里町家所","town_kana":"ミサトチョウイエドコロ","prefecture_code":24},"2105":{"zip_code":"5142105","prefecture":"三重県","prefecture_kana":"ミエケン","city":"津市","city_kana":"ツシ","town":"美里町五百野","town_kana":"ミサトチョウイオノ","prefecture_code":24},"2115":{"zip_code":"5142115","prefecture":"三重県","prefecture_kana":"ミエケン","city":"津市","city_kana":"ツシ","town":"美里町桂畑","town_kana":"ミサトチョウカツラハタ","prefecture_code":24},"2112":{"zip_code":"5142112","prefecture":"三重県","prefecture_kana":"ミエケン","city":"津市","city_kana":"ツシ","town":"美里町北長野","town_kana":"ミサトチョウキタナガノ","prefecture_code":24},"2101":{"zip_code":"5142101","prefecture":"三重県","prefecture_kana":"ミエケン","city":"津市","city_kana":"ツシ","town":"美里町高座原","town_kana":"ミサトチョウコウザワラ","prefecture_code":24},"2103":{"zip_code":"5142103","prefecture":"三重県","prefecture_kana":"ミエケン","city":"津市","city_kana":"ツシ","town":"美里町日南田","town_kana":"ミサトチョウヒナタ","prefecture_code":24},"2111":{"zip_code":"5142111","prefecture":"三重県","prefecture_kana":"ミエケン","city":"津市","city_kana":"ツシ","town":"美里町平木","town_kana":"ミサトチョウヒラギ","prefecture_code":24},"2102":{"zip_code":"5142102","prefecture":"三重県","prefecture_kana":"ミエケン","city":"津市","city_kana":"ツシ","town":"美里町船山","town_kana":"ミサトチョウフナヤマ","prefecture_code":24},"2113":{"zip_code":"5142113","prefecture":"三重県","prefecture_kana":"ミエケン","city":"津市","city_kana":"ツシ","town":"美里町三郷","town_kana":"ミサトチョウミサト","prefecture_code":24},"2114":{"zip_code":"5142114","prefecture":"三重県","prefecture_kana":"ミエケン","city":"津市","city_kana":"ツシ","town":"美里町南長野","town_kana":"ミサトチョウミナミナガノ","prefecture_code":24},"0825":{"zip_code":"5140825","prefecture":"三重県","prefecture_kana":"ミエケン","city":"津市","city_kana":"ツシ","town":"緑が丘","town_kana":"ミドリガオカ","prefecture_code":24},"0014":{"zip_code":"5140014","prefecture":"三重県","prefecture_kana":"ミエケン","city":"津市","city_kana":"ツシ","town":"港町","town_kana":"ミナトマチ","prefecture_code":24},"0822":{"zip_code":"5140822","prefecture":"三重県","prefecture_kana":"ミエケン","city":"津市","city_kana":"ツシ","town":"南が丘","town_kana":"ミナミガオカ","prefecture_code":24},"0055":{"zip_code":"5140055","prefecture":"三重県","prefecture_kana":"ミエケン","city":"津市","city_kana":"ツシ","town":"南河路","town_kana":"ミナミコウジ","prefecture_code":24},"0043":{"zip_code":"5140043","prefecture":"三重県","prefecture_kana":"ミエケン","city":"津市","city_kana":"ツシ","town":"南新町","town_kana":"ミナミシンマチ","prefecture_code":24},"0832":{"zip_code":"5140832","prefecture":"三重県","prefecture_kana":"ミエケン","city":"津市","city_kana":"ツシ","town":"南中央","town_kana":"ミナミチュウオウ","prefecture_code":24},"0034":{"zip_code":"5140034","prefecture":"三重県","prefecture_kana":"ミエケン","city":"津市","city_kana":"ツシ","town":"南丸之内","town_kana":"ミナミマルノウチ","prefecture_code":24},"1254":{"zip_code":"5141254","prefecture":"三重県","prefecture_kana":"ミエケン","city":"津市","city_kana":"ツシ","town":"森町","town_kana":"モリチョウ","prefecture_code":24},"0803":{"zip_code":"5140803","prefecture":"三重県","prefecture_kana":"ミエケン","city":"津市","city_kana":"ツシ","town":"柳山津興","town_kana":"ヤナギヤマツオキ","prefecture_code":24},"0813":{"zip_code":"5140813","prefecture":"三重県","prefecture_kana":"ミエケン","city":"津市","city_kana":"ツシ","town":"八幡町","town_kana":"ヤハタチョウ","prefecture_code":24},"0116":{"zip_code":"5140116","prefecture":"三重県","prefecture_kana":"ミエケン","city":"津市","city_kana":"ツシ","town":"夢が丘","town_kana":"ユメガオカ","prefecture_code":24},"0021":{"zip_code":"5140021","prefecture":"三重県","prefecture_kana":"ミエケン","city":"津市","city_kana":"ツシ","town":"万町津","town_kana":"ヨロズマチツ","prefecture_code":24},"0071":{"zip_code":"5140071","prefecture":"三重県","prefecture_kana":"ミエケン","city":"津市","city_kana":"ツシ","town":"分部","town_kana":"ワケベ","prefecture_code":24}}