{"2523":{"zip_code":"5152523","prefecture":"三重県","prefecture_kana":"ミエケン","city":"津市","city_kana":"ツシ","town":"一志町井生","town_kana":"イチシチョウイウ","prefecture_code":24},"2525":{"zip_code":"5152525","prefecture":"三重県","prefecture_kana":"ミエケン","city":"津市","city_kana":"ツシ","town":"一志町石橋","town_kana":"イチシチョウイシバシ","prefecture_code":24},"2521":{"zip_code":"5152521","prefecture":"三重県","prefecture_kana":"ミエケン","city":"津市","city_kana":"ツシ","town":"一志町井関","town_kana":"イチシチョウイセギ","prefecture_code":24},"2524":{"zip_code":"5152524","prefecture":"三重県","prefecture_kana":"ミエケン","city":"津市","city_kana":"ツシ","town":"一志町大仰","town_kana":"イチシチョウオオノキ","prefecture_code":24},"2514":[{"zip_code":"5152514","prefecture":"三重県","prefecture_kana":"ミエケン","city":"津市","city_kana":"ツシ","town":"一志町小山小山台地","town_kana":"イチシチョウオヤマオヤマダイチ","prefecture_code":24},{"zip_code":"5152514","prefecture":"三重県","prefecture_kana":"ミエケン","city":"津市","city_kana":"ツシ","town":"一志町小山","town_kana":"イチシチョウオヤマ","prefecture_code":24}],"2511":{"zip_code":"5152511","prefecture":"三重県","prefecture_kana":"ミエケン","city":"津市","city_kana":"ツシ","town":"一志町片野","town_kana":"イチシチョウカタノ","prefecture_code":24},"2505":{"zip_code":"5152505","prefecture":"三重県","prefecture_kana":"ミエケン","city":"津市","city_kana":"ツシ","town":"一志町小戸木","town_kana":"イチシチョウコベキ","prefecture_code":24},"2501":{"zip_code":"5152501","prefecture":"三重県","prefecture_kana":"ミエケン","city":"津市","city_kana":"ツシ","town":"一志町庄村","town_kana":"イチシチョウショウムラ","prefecture_code":24},"2512":{"zip_code":"5152512","prefecture":"三重県","prefecture_kana":"ミエケン","city":"津市","city_kana":"ツシ","town":"一志町新沢田","town_kana":"イチシチョウシンサワダ","prefecture_code":24},"2526":{"zip_code":"5152526","prefecture":"三重県","prefecture_kana":"ミエケン","city":"津市","city_kana":"ツシ","town":"一志町其倉","town_kana":"イチシチョウソノクラ","prefecture_code":24},"2502":{"zip_code":"5152502","prefecture":"三重県","prefecture_kana":"ミエケン","city":"津市","city_kana":"ツシ","town":"一志町其村","town_kana":"イチシチョウソノムラ","prefecture_code":24},"2504":[{"zip_code":"5152504","prefecture":"三重県","prefecture_kana":"ミエケン","city":"津市","city_kana":"ツシ","town":"一志町高野高野団地","town_kana":"イチシチョウタカノタカノダンチ","prefecture_code":24},{"zip_code":"5152504","prefecture":"三重県","prefecture_kana":"ミエケン","city":"津市","city_kana":"ツシ","town":"一志町高野野田","town_kana":"イチシチョウタカノノダ","prefecture_code":24},{"zip_code":"5152504","prefecture":"三重県","prefecture_kana":"ミエケン","city":"津市","city_kana":"ツシ","town":"一志町高野","town_kana":"イチシチョウタカノ","prefecture_code":24}],"2516":{"zip_code":"5152516","prefecture":"三重県","prefecture_kana":"ミエケン","city":"津市","city_kana":"ツシ","town":"一志町田尻","town_kana":"イチシチョウタジリ","prefecture_code":24},"2513":{"zip_code":"5152513","prefecture":"三重県","prefecture_kana":"ミエケン","city":"津市","city_kana":"ツシ","town":"一志町虹が丘","town_kana":"イチシチョウニジガオカ","prefecture_code":24},"2522":{"zip_code":"5152522","prefecture":"三重県","prefecture_kana":"ミエケン","city":"津市","city_kana":"ツシ","town":"一志町波瀬","town_kana":"イチシチョウハゼ","prefecture_code":24},"2515":[{"zip_code":"5152515","prefecture":"三重県","prefecture_kana":"ミエケン","city":"津市","city_kana":"ツシ","town":"一志町八太一志団地","town_kana":"イチシチョウハタイチシダンチ","prefecture_code":24},{"zip_code":"5152515","prefecture":"三重県","prefecture_kana":"ミエケン","city":"津市","city_kana":"ツシ","town":"一志町八太","town_kana":"イチシチョウハタ","prefecture_code":24}],"2503":{"zip_code":"5152503","prefecture":"三重県","prefecture_kana":"ミエケン","city":"津市","city_kana":"ツシ","town":"一志町日置","town_kana":"イチシチョウヒオキ","prefecture_code":24},"2517":{"zip_code":"5152517","prefecture":"三重県","prefecture_kana":"ミエケン","city":"津市","city_kana":"ツシ","town":"一志町みのりケ丘","town_kana":"イチシチョウミノリガオカ","prefecture_code":24},"2617":{"zip_code":"5152617","prefecture":"三重県","prefecture_kana":"ミエケン","city":"津市","city_kana":"ツシ","town":"グリンタウン榊原","town_kana":"グリンタウンサカキバラ","prefecture_code":24},"2605":{"zip_code":"5152605","prefecture":"三重県","prefecture_kana":"ミエケン","city":"津市","city_kana":"ツシ","town":"白山台","town_kana":"ハクサンダイ","prefecture_code":24},"2614":{"zip_code":"5152614","prefecture":"三重県","prefecture_kana":"ミエケン","city":"津市","city_kana":"ツシ","town":"白山町伊勢見","town_kana":"ハクサンチョウイセミ","prefecture_code":24},"2616":{"zip_code":"5152616","prefecture":"三重県","prefecture_kana":"ミエケン","city":"津市","city_kana":"ツシ","town":"白山町稲垣","town_kana":"ハクサンチョウイナカケ","prefecture_code":24},"3137":{"zip_code":"5153137","prefecture":"三重県","prefecture_kana":"ミエケン","city":"津市","city_kana":"ツシ","town":"白山町大原","town_kana":"ハクサンチョウオオバラ","prefecture_code":24},"2604":{"zip_code":"5152604","prefecture":"三重県","prefecture_kana":"ミエケン","city":"津市","city_kana":"ツシ","town":"白山町岡","town_kana":"ハクサンチョウオカ","prefecture_code":24},"2624":{"zip_code":"5152624","prefecture":"三重県","prefecture_kana":"ミエケン","city":"津市","city_kana":"ツシ","town":"白山町垣内","town_kana":"ハクサンチョウカイト","prefecture_code":24},"2623":{"zip_code":"5152623","prefecture":"三重県","prefecture_kana":"ミエケン","city":"津市","city_kana":"ツシ","town":"白山町上ノ村","town_kana":"ハクサンチョウカミノムラ","prefecture_code":24},"2603":{"zip_code":"5152603","prefecture":"三重県","prefecture_kana":"ミエケン","city":"津市","city_kana":"ツシ","town":"白山町川口","town_kana":"ハクサンチョウカワグチ","prefecture_code":24},"3132":{"zip_code":"5153132","prefecture":"三重県","prefecture_kana":"ミエケン","city":"津市","city_kana":"ツシ","town":"白山町北家城","town_kana":"ハクサンチョウキタイエキ","prefecture_code":24},"3138":{"zip_code":"5153138","prefecture":"三重県","prefecture_kana":"ミエケン","city":"津市","city_kana":"ツシ","town":"白山町小杉","town_kana":"ハクサンチョウコスギ","prefecture_code":24},"2621":{"zip_code":"5152621","prefecture":"三重県","prefecture_kana":"ミエケン","city":"津市","city_kana":"ツシ","town":"白山町佐田","town_kana":"ハクサンチョウサダ","prefecture_code":24},"3139":{"zip_code":"5153139","prefecture":"三重県","prefecture_kana":"ミエケン","city":"津市","city_kana":"ツシ","town":"白山町城立","town_kana":"ハクサンチョウジョウリュウ","prefecture_code":24},"2622":{"zip_code":"5152622","prefecture":"三重県","prefecture_kana":"ミエケン","city":"津市","city_kana":"ツシ","town":"白山町中ノ村","town_kana":"ハクサンチョウナカノムラ","prefecture_code":24},"2602":{"zip_code":"5152602","prefecture":"三重県","prefecture_kana":"ミエケン","city":"津市","city_kana":"ツシ","town":"白山町二本木","town_kana":"ハクサンチョウニホンギ","prefecture_code":24},"2615":{"zip_code":"5152615","prefecture":"三重県","prefecture_kana":"ミエケン","city":"津市","city_kana":"ツシ","town":"白山町八対野","town_kana":"ハクサンチョウハッタイノ","prefecture_code":24},"3136":{"zip_code":"5153136","prefecture":"三重県","prefecture_kana":"ミエケン","city":"津市","city_kana":"ツシ","town":"白山町福田山","town_kana":"ハクサンチョウフクタヤマ","prefecture_code":24},"3131":{"zip_code":"5153131","prefecture":"三重県","prefecture_kana":"ミエケン","city":"津市","city_kana":"ツシ","town":"白山町藤","town_kana":"ハクサンチョウフジ","prefecture_code":24},"3135":{"zip_code":"5153135","prefecture":"三重県","prefecture_kana":"ミエケン","city":"津市","city_kana":"ツシ","town":"白山町二俣","town_kana":"ハクサンチョウフタマタ","prefecture_code":24},"2612":{"zip_code":"5152612","prefecture":"三重県","prefecture_kana":"ミエケン","city":"津市","city_kana":"ツシ","town":"白山町古市","town_kana":"ハクサンチョウフルイチ","prefecture_code":24},"3134":{"zip_code":"5153134","prefecture":"三重県","prefecture_kana":"ミエケン","city":"津市","city_kana":"ツシ","town":"白山町真見","town_kana":"ハクサンチョウマミ","prefecture_code":24},"2601":{"zip_code":"5152601","prefecture":"三重県","prefecture_kana":"ミエケン","city":"津市","city_kana":"ツシ","town":"白山町三ケ野","town_kana":"ハクサンチョウミツガノ","prefecture_code":24},"3133":{"zip_code":"5153133","prefecture":"三重県","prefecture_kana":"ミエケン","city":"津市","city_kana":"ツシ","town":"白山町南家城","town_kana":"ハクサンチョウミナミイエキ","prefecture_code":24},"2611":{"zip_code":"5152611","prefecture":"三重県","prefecture_kana":"ミエケン","city":"津市","city_kana":"ツシ","town":"白山町南出","town_kana":"ハクサンチョウミナミデ","prefecture_code":24},"2613":{"zip_code":"5152613","prefecture":"三重県","prefecture_kana":"ミエケン","city":"津市","city_kana":"ツシ","town":"白山町山田野","town_kana":"ハクサンチョウヤマダノ","prefecture_code":24},"3533":{"zip_code":"5153533","prefecture":"三重県","prefecture_kana":"ミエケン","city":"津市","city_kana":"ツシ","town":"美杉町石名原","town_kana":"ミスギチョウイシナハラ","prefecture_code":24},"3531":{"zip_code":"5153531","prefecture":"三重県","prefecture_kana":"ミエケン","city":"津市","city_kana":"ツシ","town":"美杉町奥津","town_kana":"ミスギチョウオキツ","prefecture_code":24},"3312":{"zip_code":"5153312","prefecture":"三重県","prefecture_kana":"ミエケン","city":"津市","city_kana":"ツシ","town":"美杉町上多気","town_kana":"ミスギチョウカミタゲ","prefecture_code":24},"3532":{"zip_code":"5153532","prefecture":"三重県","prefecture_kana":"ミエケン","city":"津市","city_kana":"ツシ","town":"美杉町川上","town_kana":"ミスギチョウカワカミ","prefecture_code":24},"3311":{"zip_code":"5153311","prefecture":"三重県","prefecture_kana":"ミエケン","city":"津市","city_kana":"ツシ","town":"美杉町下多気","town_kana":"ミスギチョウシモタゲ","prefecture_code":24},"3203":{"zip_code":"5153203","prefecture":"三重県","prefecture_kana":"ミエケン","city":"津市","city_kana":"ツシ","town":"美杉町下之川","town_kana":"ミスギチョウシモノガワ","prefecture_code":24},"3534":{"zip_code":"5153534","prefecture":"三重県","prefecture_kana":"ミエケン","city":"津市","city_kana":"ツシ","town":"美杉町杉平","town_kana":"ミスギチョウスギヒラ","prefecture_code":24},"3201":{"zip_code":"5153201","prefecture":"三重県","prefecture_kana":"ミエケン","city":"津市","city_kana":"ツシ","town":"美杉町竹原","town_kana":"ミスギチョウタケハラ","prefecture_code":24},"3536":{"zip_code":"5153536","prefecture":"三重県","prefecture_kana":"ミエケン","city":"津市","city_kana":"ツシ","town":"美杉町太郎生","town_kana":"ミスギチョウタロオ","prefecture_code":24},"3313":{"zip_code":"5153313","prefecture":"三重県","prefecture_kana":"ミエケン","city":"津市","city_kana":"ツシ","town":"美杉町丹生俣","town_kana":"ミスギチョウニュウノマタ","prefecture_code":24},"3202":{"zip_code":"5153202","prefecture":"三重県","prefecture_kana":"ミエケン","city":"津市","city_kana":"ツシ","town":"美杉町八手俣","town_kana":"ミスギチョウハテマタ","prefecture_code":24},"3535":{"zip_code":"5153535","prefecture":"三重県","prefecture_kana":"ミエケン","city":"津市","city_kana":"ツシ","town":"美杉町三多気","town_kana":"ミスギチョウミタケ","prefecture_code":24},"3421":{"zip_code":"5153421","prefecture":"三重県","prefecture_kana":"ミエケン","city":"津市","city_kana":"ツシ","town":"美杉町八知","town_kana":"ミスギチョウヤチ","prefecture_code":24},"0501":{"zip_code":"5150501","prefecture":"三重県","prefecture_kana":"ミエケン","city":"伊勢市","city_kana":"イセシ","town":"有滝町","town_kana":"アリタキチョウ","prefecture_code":24},"0504":{"zip_code":"5150504","prefecture":"三重県","prefecture_kana":"ミエケン","city":"伊勢市","city_kana":"イセシ","town":"磯町","town_kana":"イソチョウ","prefecture_code":24},"0506":{"zip_code":"5150506","prefecture":"三重県","prefecture_kana":"ミエケン","city":"伊勢市","city_kana":"イセシ","town":"植山町","town_kana":"ウエヤマチョウ","prefecture_code":24},"0508":{"zip_code":"5150508","prefecture":"三重県","prefecture_kana":"ミエケン","city":"伊勢市","city_kana":"イセシ","town":"柏町","town_kana":"カシワチョウ","prefecture_code":24},"0503":{"zip_code":"5150503","prefecture":"三重県","prefecture_kana":"ミエケン","city":"伊勢市","city_kana":"イセシ","town":"樫原町","town_kana":"カシワラチョウ","prefecture_code":24},"0505":{"zip_code":"5150505","prefecture":"三重県","prefecture_kana":"ミエケン","city":"伊勢市","city_kana":"イセシ","town":"西豊浜町","town_kana":"ニシトヨハマチョウ","prefecture_code":24},"0511":{"zip_code":"5150511","prefecture":"三重県","prefecture_kana":"ミエケン","city":"伊勢市","city_kana":"イセシ","town":"野村町","town_kana":"ノムラチョウ","prefecture_code":24},"0509":{"zip_code":"5150509","prefecture":"三重県","prefecture_kana":"ミエケン","city":"伊勢市","city_kana":"イセシ","town":"東大淀町","town_kana":"ヒガシオイズチョウ","prefecture_code":24},"0502":{"zip_code":"5150502","prefecture":"三重県","prefecture_kana":"ミエケン","city":"伊勢市","city_kana":"イセシ","town":"東豊浜町","town_kana":"ヒガシトヨハマチョウ","prefecture_code":24},"0521":{"zip_code":"5150521","prefecture":"三重県","prefecture_kana":"ミエケン","city":"伊勢市","city_kana":"イセシ","town":"御薗町上條三軒屋","town_kana":"ミソノチョウカミジョウサンゲンヤ","prefecture_code":24},"0507":{"zip_code":"5150507","prefecture":"三重県","prefecture_kana":"ミエケン","city":"伊勢市","city_kana":"イセシ","town":"村松町","town_kana":"ムラマツチョウ","prefecture_code":24},"0000":{"zip_code":"5150000","prefecture":"三重県","prefecture_kana":"ミエケン","city":"松阪市","city_kana":"マツサカシ","town":"","town_kana":"","prefecture_code":24},"0823":{"zip_code":"5150823","prefecture":"三重県","prefecture_kana":"ミエケン","city":"松阪市","city_kana":"マツサカシ","town":"阿形町","town_kana":"アガタチョウ","prefecture_code":24},"0027":{"zip_code":"5150027","prefecture":"三重県","prefecture_kana":"ミエケン","city":"松阪市","city_kana":"マツサカシ","town":"朝田町","town_kana":"アサダチョウ","prefecture_code":24},"0004":{"zip_code":"5150004","prefecture":"三重県","prefecture_kana":"ミエケン","city":"松阪市","city_kana":"マツサカシ","town":"朝日町","town_kana":"アサヒマチ","prefecture_code":24},"0003":{"zip_code":"5150003","prefecture":"三重県","prefecture_kana":"ミエケン","city":"松阪市","city_kana":"マツサカシ","town":"朝日町一区","town_kana":"アサヒマチ1ク","prefecture_code":24},"0037":{"zip_code":"5150037","prefecture":"三重県","prefecture_kana":"ミエケン","city":"松阪市","city_kana":"マツサカシ","town":"愛宕町","town_kana":"アタゴマチ","prefecture_code":24},"0007":{"zip_code":"5150007","prefecture":"三重県","prefecture_kana":"ミエケン","city":"松阪市","city_kana":"マツサカシ","town":"荒木町","town_kana":"アラキチョウ","prefecture_code":24},"0207":{"zip_code":"5150207","prefecture":"三重県","prefecture_kana":"ミエケン","city":"松阪市","city_kana":"マツサカシ","town":"安楽町","town_kana":"アンラクチョウ","prefecture_code":24},"1505":{"zip_code":"5151505","prefecture":"三重県","prefecture_kana":"ミエケン","city":"松阪市","city_kana":"マツサカシ","town":"飯高町赤桶","town_kana":"イイタカチョウアコウ","prefecture_code":24},"1613":{"zip_code":"5151613","prefecture":"三重県","prefecture_kana":"ミエケン","city":"松阪市","city_kana":"マツサカシ","town":"飯高町粟野","town_kana":"イイタカチョウアワノ","prefecture_code":24},"1617":{"zip_code":"5151617","prefecture":"三重県","prefecture_kana":"ミエケン","city":"松阪市","city_kana":"マツサカシ","town":"飯高町猿山","town_kana":"イイタカチョウエテヤマ","prefecture_code":24},"1616":{"zip_code":"5151616","prefecture":"三重県","prefecture_kana":"ミエケン","city":"松阪市","city_kana":"マツサカシ","town":"飯高町青田","town_kana":"イイタカチョウオオダ","prefecture_code":24},"1732":{"zip_code":"5151732","prefecture":"三重県","prefecture_kana":"ミエケン","city":"松阪市","city_kana":"マツサカシ","town":"飯高町落方","town_kana":"イイタカチョウオチカタ","prefecture_code":24},"1723":{"zip_code":"5151723","prefecture":"三重県","prefecture_kana":"ミエケン","city":"松阪市","city_kana":"マツサカシ","town":"飯高町乙栗子","town_kana":"イイタカチョウオトグルス","prefecture_code":24},"1722":{"zip_code":"5151722","prefecture":"三重県","prefecture_kana":"ミエケン","city":"松阪市","city_kana":"マツサカシ","town":"飯高町加波","town_kana":"イイタカチョウカバ","prefecture_code":24},"1734":{"zip_code":"5151734","prefecture":"三重県","prefecture_kana":"ミエケン","city":"松阪市","city_kana":"マツサカシ","town":"飯高町木梶","town_kana":"イイタカチョウキカジ","prefecture_code":24},"1724":{"zip_code":"5151724","prefecture":"三重県","prefecture_kana":"ミエケン","city":"松阪市","city_kana":"マツサカシ","town":"飯高町桑原","town_kana":"イイタカチョウクワバラ","prefecture_code":24},"1504":{"zip_code":"5151504","prefecture":"三重県","prefecture_kana":"ミエケン","city":"松阪市","city_kana":"マツサカシ","town":"飯高町作滝","town_kana":"イイタカチョウサクタキ","prefecture_code":24},"1501":{"zip_code":"5151501","prefecture":"三重県","prefecture_kana":"ミエケン","city":"松阪市","city_kana":"マツサカシ","town":"飯高町下滝野","town_kana":"イイタカチョウシモタキノ","prefecture_code":24},"1727":{"zip_code":"5151727","prefecture":"三重県","prefecture_kana":"ミエケン","city":"松阪市","city_kana":"マツサカシ","town":"飯高町草鹿野","town_kana":"イイタカチョウソウガノ","prefecture_code":24},"1506":{"zip_code":"5151506","prefecture":"三重県","prefecture_kana":"ミエケン","city":"松阪市","city_kana":"マツサカシ","town":"飯高町田引","town_kana":"イイタカチョウタビキ","prefecture_code":24},"1726":{"zip_code":"5151726","prefecture":"三重県","prefecture_kana":"ミエケン","city":"松阪市","city_kana":"マツサカシ","town":"飯高町太良木","town_kana":"イイタカチョウタラキ","prefecture_code":24},"1721":{"zip_code":"5151721","prefecture":"三重県","prefecture_kana":"ミエケン","city":"松阪市","city_kana":"マツサカシ","town":"飯高町月出","town_kana":"イイタカチョウツキデ","prefecture_code":24},"1733":{"zip_code":"5151733","prefecture":"三重県","prefecture_kana":"ミエケン","city":"松阪市","city_kana":"マツサカシ","town":"飯高町栃谷","town_kana":"イイタカチョウトチダニ","prefecture_code":24},"1612":{"zip_code":"5151612","prefecture":"三重県","prefecture_kana":"ミエケン","city":"松阪市","city_kana":"マツサカシ","town":"飯高町富永","town_kana":"イイタカチョウトミナガ","prefecture_code":24},"1611":{"zip_code":"5151611","prefecture":"三重県","prefecture_kana":"ミエケン","city":"松阪市","city_kana":"マツサカシ","town":"飯高町七日市","town_kana":"イイタカチョウナノカイチ","prefecture_code":24},"1503":{"zip_code":"5151503","prefecture":"三重県","prefecture_kana":"ミエケン","city":"松阪市","city_kana":"マツサカシ","town":"飯高町野々口","town_kana":"イイタカチョウノノグチ","prefecture_code":24},"1725":{"zip_code":"5151725","prefecture":"三重県","prefecture_kana":"ミエケン","city":"松阪市","city_kana":"マツサカシ","town":"飯高町波瀬","town_kana":"イイタカチョウハゼ","prefecture_code":24},"1618":{"zip_code":"5151618","prefecture":"三重県","prefecture_kana":"ミエケン","city":"松阪市","city_kana":"マツサカシ","town":"飯高町蓮","town_kana":"イイタカチョウハチス","prefecture_code":24},"1731":{"zip_code":"5151731","prefecture":"三重県","prefecture_kana":"ミエケン","city":"松阪市","city_kana":"マツサカシ","town":"飯高町舟戸","town_kana":"イイタカチョウフナト","prefecture_code":24},"1502":{"zip_code":"5151502","prefecture":"三重県","prefecture_kana":"ミエケン","city":"松阪市","city_kana":"マツサカシ","town":"飯高町宮前","town_kana":"イイタカチョウミヤマエ","prefecture_code":24},"1614":{"zip_code":"5151614","prefecture":"三重県","prefecture_kana":"ミエケン","city":"松阪市","city_kana":"マツサカシ","town":"飯高町宮本","town_kana":"イイタカチョウミヤモト","prefecture_code":24},"1615":{"zip_code":"5151615","prefecture":"三重県","prefecture_kana":"ミエケン","city":"松阪市","city_kana":"マツサカシ","town":"飯高町森","town_kana":"イイタカチョウモリ","prefecture_code":24},"1413":{"zip_code":"5151413","prefecture":"三重県","prefecture_kana":"ミエケン","city":"松阪市","city_kana":"マツサカシ","town":"飯南町有間野","town_kana":"イイナンチョウアリマノ","prefecture_code":24},"1304":{"zip_code":"5151304","prefecture":"三重県","prefecture_kana":"ミエケン","city":"松阪市","city_kana":"マツサカシ","town":"飯南町上仁柿","town_kana":"イイナンチョウカミニガキ","prefecture_code":24},"1411":{"zip_code":"5151411","prefecture":"三重県","prefecture_kana":"ミエケン","city":"松阪市","city_kana":"マツサカシ","town":"飯南町粥見","town_kana":"イイナンチョウカユミ","prefecture_code":24},"1303":{"zip_code":"5151303","prefecture":"三重県","prefecture_kana":"ミエケン","city":"松阪市","city_kana":"マツサカシ","town":"飯南町下仁柿","town_kana":"イイナンチョウシモニガキ","prefecture_code":24},"1301":{"zip_code":"5151301","prefecture":"三重県","prefecture_kana":"ミエケン","city":"松阪市","city_kana":"マツサカシ","town":"飯南町深野","town_kana":"イイナンチョウフカノ","prefecture_code":24},"1412":{"zip_code":"5151412","prefecture":"三重県","prefecture_kana":"ミエケン","city":"松阪市","city_kana":"マツサカシ","town":"飯南町向粥見","town_kana":"イイナンチョウムコウカユミ","prefecture_code":24},"1302":{"zip_code":"5151302","prefecture":"三重県","prefecture_kana":"ミエケン","city":"松阪市","city_kana":"マツサカシ","town":"飯南町横野","town_kana":"イイナンチョウヨコノ","prefecture_code":24},"0126":{"zip_code":"5150126","prefecture":"三重県","prefecture_kana":"ミエケン","city":"松阪市","city_kana":"マツサカシ","town":"井口中町","town_kana":"イグチナカチョウ","prefecture_code":24},"0006":{"zip_code":"5150006","prefecture":"三重県","prefecture_kana":"ミエケン","city":"松阪市","city_kana":"マツサカシ","town":"石津町","town_kana":"イシヅチョウ","prefecture_code":24},"0086":{"zip_code":"5150086","prefecture":"三重県","prefecture_kana":"ミエケン","city":"松阪市","city_kana":"マツサカシ","town":"五十鈴町","town_kana":"イスズチョウ","prefecture_code":24},"0113":{"zip_code":"5150113","prefecture":"三重県","prefecture_kana":"ミエケン","city":"松阪市","city_kana":"マツサカシ","town":"出間町","town_kana":"イズマチョウ","prefecture_code":24},"0066":{"zip_code":"5150066","prefecture":"三重県","prefecture_kana":"ミエケン","city":"松阪市","city_kana":"マツサカシ","town":"泉町","town_kana":"イズミチョウ","prefecture_code":24},"0845":{"zip_code":"5150845","prefecture":"三重県","prefecture_kana":"ミエケン","city":"松阪市","city_kana":"マツサカシ","town":"伊勢寺町","town_kana":"イセデラチョウ","prefecture_code":24},"0213":{"zip_code":"5150213","prefecture":"三重県","prefecture_kana":"ミエケン","city":"松阪市","city_kana":"マツサカシ","town":"伊勢場町","town_kana":"イセバチョウ","prefecture_code":24},"2121":{"zip_code":"5152121","prefecture":"三重県","prefecture_kana":"ミエケン","city":"松阪市","city_kana":"マツサカシ","town":"市場庄町","town_kana":"イチバショウチョウ","prefecture_code":24},"0212":{"zip_code":"5150212","prefecture":"三重県","prefecture_kana":"ミエケン","city":"松阪市","city_kana":"マツサカシ","town":"稲木町","town_kana":"イナギチョウ","prefecture_code":24},"2412":{"zip_code":"5152412","prefecture":"三重県","prefecture_kana":"ミエケン","city":"松阪市","city_kana":"マツサカシ","town":"飯福田町","town_kana":"イフタチョウ","prefecture_code":24},"0817":{"zip_code":"5150817","prefecture":"三重県","prefecture_kana":"ミエケン","city":"松阪市","city_kana":"マツサカシ","town":"井村町","town_kana":"イムラチョウ","prefecture_code":24},"0041":{"zip_code":"5150041","prefecture":"三重県","prefecture_kana":"ミエケン","city":"松阪市","city_kana":"マツサカシ","town":"上川町","town_kana":"ウエガワチョウ","prefecture_code":24},"0082":{"zip_code":"5150082","prefecture":"三重県","prefecture_kana":"ミエケン","city":"松阪市","city_kana":"マツサカシ","town":"魚町","town_kana":"ウオマチ","prefecture_code":24},"0128":{"zip_code":"5150128","prefecture":"三重県","prefecture_kana":"ミエケン","city":"松阪市","city_kana":"マツサカシ","town":"魚見町","town_kana":"ウオミチョウ","prefecture_code":24},"0116":{"zip_code":"5150116","prefecture":"三重県","prefecture_kana":"ミエケン","city":"松阪市","city_kana":"マツサカシ","town":"牛草町","town_kana":"ウシクサチョウ","prefecture_code":24},"2413":{"zip_code":"5152413","prefecture":"三重県","prefecture_kana":"ミエケン","city":"松阪市","city_kana":"マツサカシ","town":"後山町","town_kana":"ウシロヤマチョウ","prefecture_code":24},"0072":{"zip_code":"5150072","prefecture":"三重県","prefecture_kana":"ミエケン","city":"松阪市","city_kana":"マツサカシ","town":"内五曲町","town_kana":"ウチゴマガリチョウ","prefecture_code":24},"2305":{"zip_code":"5152305","prefecture":"三重県","prefecture_kana":"ミエケン","city":"松阪市","city_kana":"マツサカシ","town":"嬉野一志町","town_kana":"ウレシノイチシチョウ","prefecture_code":24},"2351":{"zip_code":"5152351","prefecture":"三重県","prefecture_kana":"ミエケン","city":"松阪市","city_kana":"マツサカシ","town":"嬉野井之上町","town_kana":"ウレシノイノウエチョウ","prefecture_code":24},"2403":{"zip_code":"5152403","prefecture":"三重県","prefecture_kana":"ミエケン","city":"松阪市","city_kana":"マツサカシ","town":"嬉野岩倉町","town_kana":"ウレシノイワクラチョウ","prefecture_code":24},"2356":{"zip_code":"5152356","prefecture":"三重県","prefecture_kana":"ミエケン","city":"松阪市","city_kana":"マツサカシ","town":"嬉野上野町","town_kana":"ウレシノウエノチョウ","prefecture_code":24},"2405":{"zip_code":"5152405","prefecture":"三重県","prefecture_kana":"ミエケン","city":"松阪市","city_kana":"マツサカシ","town":"嬉野小原町","town_kana":"ウレシノオハラチョウ","prefecture_code":24},"2404":{"zip_code":"5152404","prefecture":"三重県","prefecture_kana":"ミエケン","city":"松阪市","city_kana":"マツサカシ","town":"嬉野上小川町","town_kana":"ウレシノカミオガワチョウ","prefecture_code":24},"2357":{"zip_code":"5152357","prefecture":"三重県","prefecture_kana":"ミエケン","city":"松阪市","city_kana":"マツサカシ","town":"嬉野神ノ木町","town_kana":"ウレシノカミノキチョウ","prefecture_code":24},"2401":{"zip_code":"5152401","prefecture":"三重県","prefecture_kana":"ミエケン","city":"松阪市","city_kana":"マツサカシ","town":"嬉野釜生田町","town_kana":"ウレシノカモダチョウ","prefecture_code":24},"2316":{"zip_code":"5152316","prefecture":"三重県","prefecture_kana":"ミエケン","city":"松阪市","city_kana":"マツサカシ","town":"嬉野川北町","town_kana":"ウレシノカワギタチョウ","prefecture_code":24},"2313":{"zip_code":"5152313","prefecture":"三重県","prefecture_kana":"ミエケン","city":"松阪市","city_kana":"マツサカシ","town":"嬉野川原木造町","town_kana":"ウレシノカワラコツクリチョウ","prefecture_code":24},"2311":{"zip_code":"5152311","prefecture":"三重県","prefecture_kana":"ミエケン","city":"松阪市","city_kana":"マツサカシ","town":"嬉野黒田町","town_kana":"ウレシノクロダチョウ","prefecture_code":24},"2334":{"zip_code":"5152334","prefecture":"三重県","prefecture_kana":"ミエケン","city":"松阪市","city_kana":"マツサカシ","town":"嬉野黒野町","town_kana":"ウレシノクロノチョウ","prefecture_code":24},"2406":{"zip_code":"5152406","prefecture":"三重県","prefecture_kana":"ミエケン","city":"松阪市","city_kana":"マツサカシ","town":"嬉野合ケ野町","town_kana":"ウレシノゴガノチョウ","prefecture_code":24},"2315":{"zip_code":"5152315","prefecture":"三重県","prefecture_kana":"ミエケン","city":"松阪市","city_kana":"マツサカシ","town":"嬉野小村町","town_kana":"ウレシノコムラチョウ","prefecture_code":24},"2323":{"zip_code":"5152323","prefecture":"三重県","prefecture_kana":"ミエケン","city":"松阪市","city_kana":"マツサカシ","town":"嬉野権現前町","town_kana":"ウレシノゴンゲンマエチョウ","prefecture_code":24},"2335":{"zip_code":"5152335","prefecture":"三重県","prefecture_kana":"ミエケン","city":"松阪市","city_kana":"マツサカシ","town":"嬉野算所町","town_kana":"ウレシノサンジョチョウ","prefecture_code":24},"2301":{"zip_code":"5152301","prefecture":"三重県","prefecture_kana":"ミエケン","city":"松阪市","city_kana":"マツサカシ","town":"嬉野島田町","town_kana":"ウレシノシマダチョウ","prefecture_code":24},"2354":{"zip_code":"5152354","prefecture":"三重県","prefecture_kana":"ミエケン","city":"松阪市","city_kana":"マツサカシ","town":"嬉野下之庄町","town_kana":"ウレシノシモノショウチョウ","prefecture_code":24},"2322":{"zip_code":"5152322","prefecture":"三重県","prefecture_kana":"ミエケン","city":"松阪市","city_kana":"マツサカシ","town":"嬉野須賀町","town_kana":"ウレシノスカチョウ","prefecture_code":24},"2331":{"zip_code":"5152331","prefecture":"三重県","prefecture_kana":"ミエケン","city":"松阪市","city_kana":"マツサカシ","town":"嬉野須賀領町","town_kana":"ウレシノスカリョウチョウ","prefecture_code":24},"2409":{"zip_code":"5152409","prefecture":"三重県","prefecture_kana":"ミエケン","city":"松阪市","city_kana":"マツサカシ","town":"嬉野滝之川町","town_kana":"ウレシノタキノガワチョウ","prefecture_code":24},"2333":{"zip_code":"5152333","prefecture":"三重県","prefecture_kana":"ミエケン","city":"松阪市","city_kana":"マツサカシ","town":"嬉野田村町","town_kana":"ウレシノタムラチョウ","prefecture_code":24},"2332":{"zip_code":"5152332","prefecture":"三重県","prefecture_kana":"ミエケン","city":"松阪市","city_kana":"マツサカシ","town":"嬉野津屋城町","town_kana":"ウレシノツヤジョウチョウ","prefecture_code":24},"2302":{"zip_code":"5152302","prefecture":"三重県","prefecture_kana":"ミエケン","city":"松阪市","city_kana":"マツサカシ","town":"嬉野天花寺町","town_kana":"ウレシノテンゲエジチョウ","prefecture_code":24},"2325":{"zip_code":"5152325","prefecture":"三重県","prefecture_kana":"ミエケン","city":"松阪市","city_kana":"マツサカシ","town":"嬉野中川新町","town_kana":"ウレシノナカガワシンマチ","prefecture_code":24},"2321":{"zip_code":"5152321","prefecture":"三重県","prefecture_kana":"ミエケン","city":"松阪市","city_kana":"マツサカシ","town":"嬉野中川町","town_kana":"ウレシノナカガワチョウ","prefecture_code":24},"2314":{"zip_code":"5152314","prefecture":"三重県","prefecture_kana":"ミエケン","city":"松阪市","city_kana":"マツサカシ","town":"嬉野新屋庄町","town_kana":"ウレシノニワノショウチョウ","prefecture_code":24},"2317":{"zip_code":"5152317","prefecture":"三重県","prefecture_kana":"ミエケン","city":"松阪市","city_kana":"マツサカシ","town":"嬉野野田町","town_kana":"ウレシノノダチョウ","prefecture_code":24},"2352":{"zip_code":"5152352","prefecture":"三重県","prefecture_kana":"ミエケン","city":"松阪市","city_kana":"マツサカシ","town":"嬉野八田町","town_kana":"ウレシノハッタチョウ","prefecture_code":24},"2304":{"zip_code":"5152304","prefecture":"三重県","prefecture_kana":"ミエケン","city":"松阪市","city_kana":"マツサカシ","town":"嬉野平生町","town_kana":"ウレシノヒロチョウ","prefecture_code":24},"2353":{"zip_code":"5152353","prefecture":"三重県","prefecture_kana":"ミエケン","city":"松阪市","city_kana":"マツサカシ","town":"嬉野堀之内町","town_kana":"ウレシノホリノウチチョウ","prefecture_code":24},"2312":{"zip_code":"5152312","prefecture":"三重県","prefecture_kana":"ミエケン","city":"松阪市","city_kana":"マツサカシ","town":"嬉野見永町","town_kana":"ウレシノミナガチョウ","prefecture_code":24},"2303":{"zip_code":"5152303","prefecture":"三重県","prefecture_kana":"ミエケン","city":"松阪市","city_kana":"マツサカシ","town":"嬉野宮古町","town_kana":"ウレシノミヤコチョウ","prefecture_code":24},"2408":{"zip_code":"5152408","prefecture":"三重県","prefecture_kana":"ミエケン","city":"松阪市","city_kana":"マツサカシ","town":"嬉野宮野町","town_kana":"ウレシノミヤノチョウ","prefecture_code":24},"2402":{"zip_code":"5152402","prefecture":"三重県","prefecture_kana":"ミエケン","city":"松阪市","city_kana":"マツサカシ","town":"嬉野森本町","town_kana":"ウレシノモリモトチョウ","prefecture_code":24},"2407":{"zip_code":"5152407","prefecture":"三重県","prefecture_kana":"ミエケン","city":"松阪市","city_kana":"マツサカシ","town":"嬉野矢下町","town_kana":"ウレシノヤオロシチョウ","prefecture_code":24},"2355":{"zip_code":"5152355","prefecture":"三重県","prefecture_kana":"ミエケン","city":"松阪市","city_kana":"マツサカシ","town":"嬉野薬王寺町","town_kana":"ウレシノヤクオウジチョウ","prefecture_code":24},"2324":{"zip_code":"5152324","prefecture":"三重県","prefecture_kana":"ミエケン","city":"松阪市","city_kana":"マツサカシ","town":"嬉野町","town_kana":"ウレシノチョウ","prefecture_code":24},"1205":{"zip_code":"5151205","prefecture":"三重県","prefecture_kana":"ミエケン","city":"松阪市","city_kana":"マツサカシ","town":"大石町","town_kana":"オイシチョウ","prefecture_code":24},"2342":{"zip_code":"5152342","prefecture":"三重県","prefecture_kana":"ミエケン","city":"松阪市","city_kana":"マツサカシ","town":"大阿坂町","town_kana":"オオアザカチョウ","prefecture_code":24},"0114":{"zip_code":"5150114","prefecture":"三重県","prefecture_kana":"ミエケン","city":"松阪市","city_kana":"マツサカシ","town":"大垣内町","town_kana":"オオガイトチョウ","prefecture_code":24},"0001":{"zip_code":"5150001","prefecture":"三重県","prefecture_kana":"ミエケン","city":"松阪市","city_kana":"マツサカシ","town":"大口町","town_kana":"オオクチチョウ","prefecture_code":24},"0063":{"zip_code":"5150063","prefecture":"三重県","prefecture_kana":"ミエケン","city":"松阪市","city_kana":"マツサカシ","town":"大黒田町","town_kana":"オオクロダチョウ","prefecture_code":24},"0813":{"zip_code":"5150813","prefecture":"三重県","prefecture_kana":"ミエケン","city":"松阪市","city_kana":"マツサカシ","town":"大塚町","town_kana":"オオツカチョウ","prefecture_code":24},"0031":{"zip_code":"5150031","prefecture":"三重県","prefecture_kana":"ミエケン","city":"松阪市","city_kana":"マツサカシ","town":"大津町","town_kana":"オオツチョウ","prefecture_code":24},"2341":{"zip_code":"5152341","prefecture":"三重県","prefecture_kana":"ミエケン","city":"松阪市","city_kana":"マツサカシ","town":"小野町","town_kana":"オオノチョウ","prefecture_code":24},"0804":{"zip_code":"5150804","prefecture":"三重県","prefecture_kana":"ミエケン","city":"松阪市","city_kana":"マツサカシ","town":"大平尾町","town_kana":"オオビラオチョウ","prefecture_code":24},"0024":{"zip_code":"5150024","prefecture":"三重県","prefecture_kana":"ミエケン","city":"松阪市","city_kana":"マツサカシ","town":"大宮田町","town_kana":"オオミヤダチョウ","prefecture_code":24},"1204":{"zip_code":"5151204","prefecture":"三重県","prefecture_kana":"ミエケン","city":"松阪市","city_kana":"マツサカシ","town":"小片野町","town_kana":"オカタノチョウ","prefecture_code":24},"0831":{"zip_code":"5150831","prefecture":"三重県","prefecture_kana":"ミエケン","city":"松阪市","city_kana":"マツサカシ","town":"岡本町","town_kana":"オカモトチョウ","prefecture_code":24},"0834":{"zip_code":"5150834","prefecture":"三重県","prefecture_kana":"ミエケン","city":"松阪市","city_kana":"マツサカシ","town":"岡山町","town_kana":"オカヤマチョウ","prefecture_code":24},"1105":{"zip_code":"5151105","prefecture":"三重県","prefecture_kana":"ミエケン","city":"松阪市","city_kana":"マツサカシ","town":"大河内町","town_kana":"オカワチチョウ","prefecture_code":24},"0076":{"zip_code":"5150076","prefecture":"三重県","prefecture_kana":"ミエケン","city":"松阪市","city_kana":"マツサカシ","town":"白粉町","town_kana":"オシロイマチ","prefecture_code":24},"2114":{"zip_code":"5152114","prefecture":"三重県","prefecture_kana":"ミエケン","city":"松阪市","city_kana":"マツサカシ","town":"小津町","town_kana":"オヅチョウ","prefecture_code":24},"0117":{"zip_code":"5150117","prefecture":"三重県","prefecture_kana":"ミエケン","city":"松阪市","city_kana":"マツサカシ","town":"乙部町","town_kana":"オトベチョウ","prefecture_code":24},"2109":{"zip_code":"5152109","prefecture":"三重県","prefecture_kana":"ミエケン","city":"松阪市","city_kana":"マツサカシ","town":"小野江町","town_kana":"オノエチョウ","prefecture_code":24},"0822":{"zip_code":"5150822","prefecture":"三重県","prefecture_kana":"ミエケン","city":"松阪市","city_kana":"マツサカシ","town":"大足町","town_kana":"オワセチョウ","prefecture_code":24},"0118":{"zip_code":"5150118","prefecture":"三重県","prefecture_kana":"ミエケン","city":"松阪市","city_kana":"マツサカシ","town":"垣内田町","town_kana":"カイトダチョウ","prefecture_code":24},"0033":{"zip_code":"5150033","prefecture":"三重県","prefecture_kana":"ミエケン","city":"松阪市","city_kana":"マツサカシ","town":"垣鼻町","town_kana":"カイバナチョウ","prefecture_code":24},"0111":{"zip_code":"5150111","prefecture":"三重県","prefecture_kana":"ミエケン","city":"松阪市","city_kana":"マツサカシ","town":"柿木原町","town_kana":"カキノキハラチョウ","prefecture_code":24},"2103":{"zip_code":"5152103","prefecture":"三重県","prefecture_kana":"ミエケン","city":"松阪市","city_kana":"マツサカシ","town":"笠松町","town_kana":"カサマツチョウ","prefecture_code":24},"0078":{"zip_code":"5150078","prefecture":"三重県","prefecture_kana":"ミエケン","city":"松阪市","city_kana":"マツサカシ","town":"春日町","town_kana":"カスガチョウ","prefecture_code":24},"1104":{"zip_code":"5151104","prefecture":"三重県","prefecture_kana":"ミエケン","city":"松阪市","city_kana":"マツサカシ","town":"桂瀬町","town_kana":"カツラセチョウ","prefecture_code":24},"0005":{"zip_code":"5150005","prefecture":"三重県","prefecture_kana":"ミエケン","city":"松阪市","city_kana":"マツサカシ","town":"鎌田町","town_kana":"カマダチョウ","prefecture_code":24},"0201":{"zip_code":"5150201","prefecture":"三重県","prefecture_kana":"ミエケン","city":"松阪市","city_kana":"マツサカシ","town":"上七見町","town_kana":"カミナナミチョウ","prefecture_code":24},"2123":{"zip_code":"5152123","prefecture":"三重県","prefecture_kana":"ミエケン","city":"松阪市","city_kana":"マツサカシ","town":"上ノ庄町","town_kana":"カミノショウチョウ","prefecture_code":24},"0818":{"zip_code":"5150818","prefecture":"三重県","prefecture_kana":"ミエケン","city":"松阪市","city_kana":"マツサカシ","town":"川井町","town_kana":"カワイマチ","prefecture_code":24},"0122":{"zip_code":"5150122","prefecture":"三重県","prefecture_kana":"ミエケン","city":"松阪市","city_kana":"マツサカシ","town":"川島町","town_kana":"カワシマチョウ","prefecture_code":24},"0119":{"zip_code":"5150119","prefecture":"三重県","prefecture_kana":"ミエケン","city":"松阪市","city_kana":"マツサカシ","town":"神守町","town_kana":"カンモリチョウ","prefecture_code":24},"2113":{"zip_code":"5152113","prefecture":"三重県","prefecture_kana":"ミエケン","city":"松阪市","city_kana":"マツサカシ","town":"喜多村新田町","town_kana":"キタムラシンデンチョウ","prefecture_code":24},"0088":{"zip_code":"5150088","prefecture":"三重県","prefecture_kana":"ミエケン","city":"松阪市","city_kana":"マツサカシ","town":"木の郷町","town_kana":"キノサトチョウ","prefecture_code":24},"0017":{"zip_code":"5150017","prefecture":"三重県","prefecture_kana":"ミエケン","city":"松阪市","city_kana":"マツサカシ","town":"京町","town_kana":"キョウマチ","prefecture_code":24},"0018":{"zip_code":"5150018","prefecture":"三重県","prefecture_kana":"ミエケン","city":"松阪市","city_kana":"マツサカシ","town":"京町一区","town_kana":"キョウマチ1ク","prefecture_code":24},"0204":{"zip_code":"5150204","prefecture":"三重県","prefecture_kana":"ミエケン","city":"松阪市","city_kana":"マツサカシ","town":"櫛田町","town_kana":"クシダチョウ","prefecture_code":24},"0814":{"zip_code":"5150814","prefecture":"三重県","prefecture_kana":"ミエケン","city":"松阪市","city_kana":"マツサカシ","town":"久保田町","town_kana":"クボタチョウ","prefecture_code":24},"0044":{"zip_code":"5150044","prefecture":"三重県","prefecture_kana":"ミエケン","city":"松阪市","city_kana":"マツサカシ","town":"久保町","town_kana":"クボチョウ","prefecture_code":24},"2122":{"zip_code":"5152122","prefecture":"三重県","prefecture_kana":"ミエケン","city":"松阪市","city_kana":"マツサカシ","town":"久米町","town_kana":"クメチョウ","prefecture_code":24},"0061":{"zip_code":"5150061","prefecture":"三重県","prefecture_kana":"ミエケン","city":"松阪市","city_kana":"マツサカシ","town":"黒田町","town_kana":"クロダマチ","prefecture_code":24},"2343":{"zip_code":"5152343","prefecture":"三重県","prefecture_kana":"ミエケン","city":"松阪市","city_kana":"マツサカシ","town":"小阿坂町","town_kana":"コアザカチョウ","prefecture_code":24},"0021":{"zip_code":"5150021","prefecture":"三重県","prefecture_kana":"ミエケン","city":"松阪市","city_kana":"マツサカシ","town":"古井町","town_kana":"コイチョウ","prefecture_code":24},"0013":{"zip_code":"5150013","prefecture":"三重県","prefecture_kana":"ミエケン","city":"松阪市","city_kana":"マツサカシ","town":"幸生町","town_kana":"コウセイチョウ","prefecture_code":24},"0053":{"zip_code":"5150053","prefecture":"三重県","prefecture_kana":"ミエケン","city":"松阪市","city_kana":"マツサカシ","town":"広陽町","town_kana":"コウヨウチョウ","prefecture_code":24},"0062":{"zip_code":"5150062","prefecture":"三重県","prefecture_kana":"ミエケン","city":"松阪市","city_kana":"マツサカシ","town":"小黒田町","town_kana":"コクロダチョウ","prefecture_code":24},"0002":{"zip_code":"5150002","prefecture":"三重県","prefecture_kana":"ミエケン","city":"松阪市","city_kana":"マツサカシ","town":"郷津町","town_kana":"ゴウヅチョウ","prefecture_code":24},"0064":{"zip_code":"5150064","prefecture":"三重県","prefecture_kana":"ミエケン","city":"松阪市","city_kana":"マツサカシ","town":"五反田町","town_kana":"ゴタンダチョウ","prefecture_code":24},"0057":{"zip_code":"5150057","prefecture":"三重県","prefecture_kana":"ミエケン","city":"松阪市","city_kana":"マツサカシ","town":"御殿山町","town_kana":"ゴテンヤマチョウ","prefecture_code":24},"2102":{"zip_code":"5152102","prefecture":"三重県","prefecture_kana":"ミエケン","city":"松阪市","city_kana":"マツサカシ","town":"五主町","town_kana":"ゴヌシチョウ","prefecture_code":24},"2104":{"zip_code":"5152104","prefecture":"三重県","prefecture_kana":"ミエケン","city":"松阪市","city_kana":"マツサカシ","town":"小舟江町","town_kana":"コブナエチョウ","prefecture_code":24},"1107":{"zip_code":"5151107","prefecture":"三重県","prefecture_kana":"ミエケン","city":"松阪市","city_kana":"マツサカシ","town":"阪内町","town_kana":"サカナイチョウ","prefecture_code":24},"0028":{"zip_code":"5150028","prefecture":"三重県","prefecture_kana":"ミエケン","city":"松阪市","city_kana":"マツサカシ","town":"佐久米町","town_kana":"サクメチョウ","prefecture_code":24},"0071":{"zip_code":"5150071","prefecture":"三重県","prefecture_kana":"ミエケン","city":"松阪市","city_kana":"マツサカシ","town":"桜町","town_kana":"サクラチョウ","prefecture_code":24},"1103":{"zip_code":"5151103","prefecture":"三重県","prefecture_kana":"ミエケン","city":"松阪市","city_kana":"マツサカシ","town":"笹川町","town_kana":"ササガワチョウ","prefecture_code":24},"0065":{"zip_code":"5150065","prefecture":"三重県","prefecture_kana":"ミエケン","city":"松阪市","city_kana":"マツサカシ","town":"五月町","town_kana":"サツキチョウ","prefecture_code":24},"0203":{"zip_code":"5150203","prefecture":"三重県","prefecture_kana":"ミエケン","city":"松阪市","city_kana":"マツサカシ","town":"清水町","town_kana":"シミズチョウ","prefecture_code":24},"0023":{"zip_code":"5150023","prefecture":"三重県","prefecture_kana":"ミエケン","city":"松阪市","city_kana":"マツサカシ","town":"下七見町","town_kana":"シモナナミチョウ","prefecture_code":24},"0043":{"zip_code":"5150043","prefecture":"三重県","prefecture_kana":"ミエケン","city":"松阪市","city_kana":"マツサカシ","town":"下村町","town_kana":"シモムラチョウ","prefecture_code":24},"0123":{"zip_code":"5150123","prefecture":"三重県","prefecture_kana":"ミエケン","city":"松阪市","city_kana":"マツサカシ","town":"新開町","town_kana":"シンガイチョウ","prefecture_code":24},"0074":{"zip_code":"5150074","prefecture":"三重県","prefecture_kana":"ミエケン","city":"松阪市","city_kana":"マツサカシ","town":"新座町","town_kana":"シンザマチ","prefecture_code":24},"0075":{"zip_code":"5150075","prefecture":"三重県","prefecture_kana":"ミエケン","city":"松阪市","city_kana":"マツサカシ","town":"新町","town_kana":"シンマチ","prefecture_code":24},"0801":{"zip_code":"5150801","prefecture":"三重県","prefecture_kana":"ミエケン","city":"松阪市","city_kana":"マツサカシ","town":"新松ケ島町","town_kana":"シンマツガシマチョウ","prefecture_code":24},"0022":{"zip_code":"5150022","prefecture":"三重県","prefecture_kana":"ミエケン","city":"松阪市","city_kana":"マツサカシ","town":"新屋敷町","town_kana":"シンヤシキチョウ","prefecture_code":24},"0016":{"zip_code":"5150016","prefecture":"三重県","prefecture_kana":"ミエケン","city":"松阪市","city_kana":"マツサカシ","town":"末広町","town_kana":"スエヒロチョウ","prefecture_code":24},"0202":{"zip_code":"5150202","prefecture":"三重県","prefecture_kana":"ミエケン","city":"松阪市","city_kana":"マツサカシ","town":"菅生町","town_kana":"スギュウチョウ","prefecture_code":24},"0039":{"zip_code":"5150039","prefecture":"三重県","prefecture_kana":"ミエケン","city":"松阪市","city_kana":"マツサカシ","town":"清生町","town_kana":"セイセイチョウ","prefecture_code":24},"1101":{"zip_code":"5151101","prefecture":"三重県","prefecture_kana":"ミエケン","city":"松阪市","city_kana":"マツサカシ","town":"勢津町","town_kana":"セイヅチョウ","prefecture_code":24},"0821":{"zip_code":"5150821","prefecture":"三重県","prefecture_kana":"ミエケン","city":"松阪市","city_kana":"マツサカシ","town":"外五曲町","town_kana":"ソトゴマガリチョウ","prefecture_code":24},"2112":{"zip_code":"5152112","prefecture":"三重県","prefecture_kana":"ミエケン","city":"松阪市","city_kana":"マツサカシ","town":"曽原町","town_kana":"ソハラチョウ","prefecture_code":24},"0842":{"zip_code":"5150842","prefecture":"三重県","prefecture_kana":"ミエケン","city":"松阪市","city_kana":"マツサカシ","town":"田牧町","town_kana":"タイラチョウ","prefecture_code":24},"0211":{"zip_code":"5150211","prefecture":"三重県","prefecture_kana":"ミエケン","city":"松阪市","city_kana":"マツサカシ","town":"高木町","town_kana":"タカキチョウ","prefecture_code":24},"0104":{"zip_code":"5150104","prefecture":"三重県","prefecture_kana":"ミエケン","city":"松阪市","city_kana":"マツサカシ","town":"高須町","town_kana":"タカスチョウ","prefecture_code":24},"0011":{"zip_code":"5150011","prefecture":"三重県","prefecture_kana":"ミエケン","city":"松阪市","city_kana":"マツサカシ","town":"高町","town_kana":"タカマチ","prefecture_code":24},"0056":{"zip_code":"5150056","prefecture":"三重県","prefecture_kana":"ミエケン","city":"松阪市","city_kana":"マツサカシ","town":"宝塚町","town_kana":"タカラヅカチョウ","prefecture_code":24},"0054":{"zip_code":"5150054","prefecture":"三重県","prefecture_kana":"ミエケン","city":"松阪市","city_kana":"マツサカシ","town":"立野町","town_kana":"タチノチョウ","prefecture_code":24},"0026":{"zip_code":"5150026","prefecture":"三重県","prefecture_kana":"ミエケン","city":"松阪市","city_kana":"マツサカシ","town":"立田町","town_kana":"タツタチョウ","prefecture_code":24},"0055":{"zip_code":"5150055","prefecture":"三重県","prefecture_kana":"ミエケン","city":"松阪市","city_kana":"マツサカシ","town":"田村町","town_kana":"タムラチョウ","prefecture_code":24},"0032":{"zip_code":"5150032","prefecture":"三重県","prefecture_kana":"ミエケン","city":"松阪市","city_kana":"マツサカシ","town":"田原町","town_kana":"タワラチョウ","prefecture_code":24},"1202":{"zip_code":"5151202","prefecture":"三重県","prefecture_kana":"ミエケン","city":"松阪市","city_kana":"マツサカシ","town":"茅原町","town_kana":"チハラチョウ","prefecture_code":24},"0077":{"zip_code":"5150077","prefecture":"三重県","prefecture_kana":"ミエケン","city":"松阪市","city_kana":"マツサカシ","town":"茶与町","town_kana":"チャヨマチ","prefecture_code":24},"0019":{"zip_code":"5150019","prefecture":"三重県","prefecture_kana":"ミエケン","city":"松阪市","city_kana":"マツサカシ","town":"中央町","town_kana":"チュウオウチョウ","prefecture_code":24},"0035":{"zip_code":"5150035","prefecture":"三重県","prefecture_kana":"ミエケン","city":"松阪市","city_kana":"マツサカシ","town":"長月町","town_kana":"チョウゲツチョウ","prefecture_code":24},"0811":{"zip_code":"5150811","prefecture":"三重県","prefecture_kana":"ミエケン","city":"松阪市","city_kana":"マツサカシ","town":"塚本町","town_kana":"ツカモトチョウ","prefecture_code":24},"1106":{"zip_code":"5151106","prefecture":"三重県","prefecture_kana":"ミエケン","city":"松阪市","city_kana":"マツサカシ","town":"辻原町","town_kana":"ツジワラチョウ","prefecture_code":24},"0112":{"zip_code":"5150112","prefecture":"三重県","prefecture_kana":"ミエケン","city":"松阪市","city_kana":"マツサカシ","town":"土古路町","town_kana":"トコロチョウ","prefecture_code":24},"0073":{"zip_code":"5150073","prefecture":"三重県","prefecture_kana":"ミエケン","city":"松阪市","city_kana":"マツサカシ","town":"殿町","town_kana":"トノマチ","prefecture_code":24},"0843":{"zip_code":"5150843","prefecture":"三重県","prefecture_kana":"ミエケン","city":"松阪市","city_kana":"マツサカシ","town":"殿村町","town_kana":"トノムラチョウ","prefecture_code":24},"0205":{"zip_code":"5150205","prefecture":"三重県","prefecture_kana":"ミエケン","city":"松阪市","city_kana":"マツサカシ","town":"豊原町","town_kana":"トヨハラチョウ","prefecture_code":24},"2124":{"zip_code":"5152124","prefecture":"三重県","prefecture_kana":"ミエケン","city":"松阪市","city_kana":"マツサカシ","town":"中ノ庄町","town_kana":"ナカノショウチョウ","prefecture_code":24},"2111":{"zip_code":"5152111","prefecture":"三重県","prefecture_kana":"ミエケン","city":"松阪市","city_kana":"マツサカシ","town":"中林町","town_kana":"ナカバヤシチョウ","prefecture_code":24},"0083":{"zip_code":"5150083","prefecture":"三重県","prefecture_kana":"ミエケン","city":"松阪市","city_kana":"マツサカシ","town":"中町","town_kana":"ナカマチ","prefecture_code":24},"2115":{"zip_code":"5152115","prefecture":"三重県","prefecture_kana":"ミエケン","city":"松阪市","city_kana":"マツサカシ","town":"中道町","town_kana":"ナカミチチョウ","prefecture_code":24},"0103":{"zip_code":"5150103","prefecture":"三重県","prefecture_kana":"ミエケン","city":"松阪市","city_kana":"マツサカシ","town":"西黒部町","town_kana":"ニシクロベチョウ","prefecture_code":24},"0816":{"zip_code":"5150816","prefecture":"三重県","prefecture_kana":"ミエケン","city":"松阪市","city_kana":"マツサカシ","town":"西之庄町","town_kana":"ニシノショウチョウ","prefecture_code":24},"0833":{"zip_code":"5150833","prefecture":"三重県","prefecture_kana":"ミエケン","city":"松阪市","city_kana":"マツサカシ","town":"西野町","town_kana":"ニシノチョウ","prefecture_code":24},"0029":{"zip_code":"5150029","prefecture":"三重県","prefecture_kana":"ミエケン","city":"松阪市","city_kana":"マツサカシ","town":"西野々町","town_kana":"ニシノノチョウ","prefecture_code":24},"2106":{"zip_code":"5152106","prefecture":"三重県","prefecture_kana":"ミエケン","city":"松阪市","city_kana":"マツサカシ","town":"西肥留町","town_kana":"ニシヒルチョウ","prefecture_code":24},"0815":{"zip_code":"5150815","prefecture":"三重県","prefecture_kana":"ミエケン","city":"松阪市","city_kana":"マツサカシ","town":"西町","town_kana":"ニシマチ","prefecture_code":24},"0042":{"zip_code":"5150042","prefecture":"三重県","prefecture_kana":"ミエケン","city":"松阪市","city_kana":"マツサカシ","town":"虹が丘町","town_kana":"ニジガオカチョウ","prefecture_code":24},"0832":{"zip_code":"5150832","prefecture":"三重県","prefecture_kana":"ミエケン","city":"松阪市","city_kana":"マツサカシ","town":"丹生寺町","town_kana":"ニュウデラチョウ","prefecture_code":24},"0848":{"zip_code":"5150848","prefecture":"三重県","prefecture_kana":"ミエケン","city":"松阪市","city_kana":"マツサカシ","town":"野村町","town_kana":"ノムラチョウ","prefecture_code":24},"2108":{"zip_code":"5152108","prefecture":"三重県","prefecture_kana":"ミエケン","city":"松阪市","city_kana":"マツサカシ","town":"甚目町","town_kana":"ハダメチョウ","prefecture_code":24},"0217":{"zip_code":"5150217","prefecture":"三重県","prefecture_kana":"ミエケン","city":"松阪市","city_kana":"マツサカシ","town":"早馬瀬町","town_kana":"ハヤマゼチョウ","prefecture_code":24},"0125":{"zip_code":"5150125","prefecture":"三重県","prefecture_kana":"ミエケン","city":"松阪市","city_kana":"マツサカシ","town":"腹太町","town_kana":"ハラフトチョウ","prefecture_code":24},"0835":{"zip_code":"5150835","prefecture":"三重県","prefecture_kana":"ミエケン","city":"松阪市","city_kana":"マツサカシ","town":"日丘町","town_kana":"ヒオカチョウ","prefecture_code":24},"0051":{"zip_code":"5150051","prefecture":"三重県","prefecture_kana":"ミエケン","city":"松阪市","city_kana":"マツサカシ","town":"光町","town_kana":"ヒカリチョウ","prefecture_code":24},"0121":{"zip_code":"5150121","prefecture":"三重県","prefecture_kana":"ミエケン","city":"松阪市","city_kana":"マツサカシ","town":"東久保町","town_kana":"ヒガシクボチョウ","prefecture_code":24},"0101":{"zip_code":"5150101","prefecture":"三重県","prefecture_kana":"ミエケン","city":"松阪市","city_kana":"マツサカシ","town":"東黒部町","town_kana":"ヒガシクロベチョウ","prefecture_code":24},"0012":{"zip_code":"5150012","prefecture":"三重県","prefecture_kana":"ミエケン","city":"松阪市","city_kana":"マツサカシ","town":"東町","town_kana":"ヒガシマチ","prefecture_code":24},"0038":{"zip_code":"5150038","prefecture":"三重県","prefecture_kana":"ミエケン","city":"松阪市","city_kana":"マツサカシ","town":"挽木町","town_kana":"ヒキギマチ","prefecture_code":24},"0084":{"zip_code":"5150084","prefecture":"三重県","prefecture_kana":"ミエケン","city":"松阪市","city_kana":"マツサカシ","town":"日野町","town_kana":"ヒノマチ","prefecture_code":24},"0036":{"zip_code":"5150036","prefecture":"三重県","prefecture_kana":"ミエケン","city":"松阪市","city_kana":"マツサカシ","town":"平生町","town_kana":"ヒラオマチ","prefecture_code":24},"2105":{"zip_code":"5152105","prefecture":"三重県","prefecture_kana":"ミエケン","city":"松阪市","city_kana":"マツサカシ","town":"肥留町","town_kana":"ヒルチョウ","prefecture_code":24},"1201":{"zip_code":"5151201","prefecture":"三重県","prefecture_kana":"ミエケン","city":"松阪市","city_kana":"マツサカシ","town":"広瀬町","town_kana":"ヒロセチョウ","prefecture_code":24},"0846":{"zip_code":"5150846","prefecture":"三重県","prefecture_kana":"ミエケン","city":"松阪市","city_kana":"マツサカシ","town":"深長町","town_kana":"フコサチョウ","prefecture_code":24},"0825":{"zip_code":"5150825","prefecture":"三重県","prefecture_kana":"ミエケン","city":"松阪市","city_kana":"マツサカシ","town":"藤之木町","town_kana":"フジノキチョウ","prefecture_code":24},"0812":{"zip_code":"5150812","prefecture":"三重県","prefecture_kana":"ミエケン","city":"松阪市","city_kana":"マツサカシ","town":"船江町","town_kana":"フナエチョウ","prefecture_code":24},"0824":{"zip_code":"5150824","prefecture":"三重県","prefecture_kana":"ミエケン","city":"松阪市","city_kana":"マツサカシ","town":"平成町","town_kana":"ヘイセイチョウ","prefecture_code":24},"0214":{"zip_code":"5150214","prefecture":"三重県","prefecture_kana":"ミエケン","city":"松阪市","city_kana":"マツサカシ","town":"法田町","town_kana":"ホウダチョウ","prefecture_code":24},"0124":{"zip_code":"5150124","prefecture":"三重県","prefecture_kana":"ミエケン","city":"松阪市","city_kana":"マツサカシ","town":"保津町","town_kana":"ホウヅチョウ","prefecture_code":24},"2101":{"zip_code":"5152101","prefecture":"三重県","prefecture_kana":"ミエケン","city":"松阪市","city_kana":"マツサカシ","town":"星合町","town_kana":"ホシアイチョウ","prefecture_code":24},"0081":{"zip_code":"5150081","prefecture":"三重県","prefecture_kana":"ミエケン","city":"松阪市","city_kana":"マツサカシ","town":"本町","town_kana":"ホンマチ","prefecture_code":24},"2107":{"zip_code":"5152107","prefecture":"三重県","prefecture_kana":"ミエケン","city":"松阪市","city_kana":"マツサカシ","town":"舞出町","town_kana":"マイデチョウ","prefecture_code":24},"0045":{"zip_code":"5150045","prefecture":"三重県","prefecture_kana":"ミエケン","city":"松阪市","city_kana":"マツサカシ","town":"駅部田町","town_kana":"マエノヘタチョウ","prefecture_code":24},"0841":{"zip_code":"5150841","prefecture":"三重県","prefecture_kana":"ミエケン","city":"松阪市","city_kana":"マツサカシ","town":"曲町","town_kana":"マガリチョウ","prefecture_code":24},"0803":{"zip_code":"5150803","prefecture":"三重県","prefecture_kana":"ミエケン","city":"松阪市","city_kana":"マツサカシ","town":"町平尾町","town_kana":"マチビラオチョウ","prefecture_code":24},"2133":{"zip_code":"5152133","prefecture":"三重県","prefecture_kana":"ミエケン","city":"松阪市","city_kana":"マツサカシ","town":"松ケ島町","town_kana":"マツガシマチョウ","prefecture_code":24},"2132":{"zip_code":"5152132","prefecture":"三重県","prefecture_kana":"ミエケン","city":"松阪市","city_kana":"マツサカシ","town":"松崎浦町","town_kana":"マツサキウラチョウ","prefecture_code":24},"0102":{"zip_code":"5150102","prefecture":"三重県","prefecture_kana":"ミエケン","city":"松阪市","city_kana":"マツサカシ","town":"松名瀬町","town_kana":"マツナセチョウ","prefecture_code":24},"0085":{"zip_code":"5150085","prefecture":"三重県","prefecture_kana":"ミエケン","city":"松阪市","city_kana":"マツサカシ","town":"湊町","town_kana":"ミナトマチ","prefecture_code":24},"0046":{"zip_code":"5150046","prefecture":"三重県","prefecture_kana":"ミエケン","city":"松阪市","city_kana":"マツサカシ","town":"南虹が丘町","town_kana":"ミナミニジガオカチョウ","prefecture_code":24},"0034":{"zip_code":"5150034","prefecture":"三重県","prefecture_kana":"ミエケン","city":"松阪市","city_kana":"マツサカシ","town":"南町","town_kana":"ミナミマチ","prefecture_code":24},"2344":{"zip_code":"5152344","prefecture":"三重県","prefecture_kana":"ミエケン","city":"松阪市","city_kana":"マツサカシ","town":"美濃田町","town_kana":"ミノダチョウ","prefecture_code":24},"0015":{"zip_code":"5150015","prefecture":"三重県","prefecture_kana":"ミエケン","city":"松阪市","city_kana":"マツサカシ","town":"宮町","town_kana":"ミヤマチ","prefecture_code":24},"0216":{"zip_code":"5150216","prefecture":"三重県","prefecture_kana":"ミエケン","city":"松阪市","city_kana":"マツサカシ","town":"目田町","town_kana":"メダチョウ","prefecture_code":24},"0087":{"zip_code":"5150087","prefecture":"三重県","prefecture_kana":"ミエケン","city":"松阪市","city_kana":"マツサカシ","town":"萌木町","town_kana":"モエギチョウ","prefecture_code":24},"0844":{"zip_code":"5150844","prefecture":"三重県","prefecture_kana":"ミエケン","city":"松阪市","city_kana":"マツサカシ","town":"八重田町","town_kana":"ヤエダチョウ","prefecture_code":24},"1102":{"zip_code":"5151102","prefecture":"三重県","prefecture_kana":"ミエケン","city":"松阪市","city_kana":"マツサカシ","town":"矢津町","town_kana":"ヤヅチョウ","prefecture_code":24},"0206":{"zip_code":"5150206","prefecture":"三重県","prefecture_kana":"ミエケン","city":"松阪市","city_kana":"マツサカシ","town":"山下町","town_kana":"ヤマシタチョウ","prefecture_code":24},"0208":{"zip_code":"5150208","prefecture":"三重県","prefecture_kana":"ミエケン","city":"松阪市","city_kana":"マツサカシ","town":"山添町","town_kana":"ヤマゾエチョウ","prefecture_code":24},"0052":{"zip_code":"5150052","prefecture":"三重県","prefecture_kana":"ミエケン","city":"松阪市","city_kana":"マツサカシ","town":"山室町","town_kana":"ヤマムロチョウ","prefecture_code":24},"2414":{"zip_code":"5152414","prefecture":"三重県","prefecture_kana":"ミエケン","city":"松阪市","city_kana":"マツサカシ","town":"柚原町","town_kana":"ユノハラチョウ","prefecture_code":24},"0847":{"zip_code":"5150847","prefecture":"三重県","prefecture_kana":"ミエケン","city":"松阪市","city_kana":"マツサカシ","town":"岩内町","town_kana":"ヨウチチョウ","prefecture_code":24},"0215":{"zip_code":"5150215","prefecture":"三重県","prefecture_kana":"ミエケン","city":"松阪市","city_kana":"マツサカシ","town":"横地町","town_kana":"ヨコチチョウ","prefecture_code":24},"2411":{"zip_code":"5152411","prefecture":"三重県","prefecture_kana":"ミエケン","city":"松阪市","city_kana":"マツサカシ","town":"与原町","town_kana":"ヨハラチョウ","prefecture_code":24},"0802":{"zip_code":"5150802","prefecture":"三重県","prefecture_kana":"ミエケン","city":"松阪市","city_kana":"マツサカシ","town":"猟師町","town_kana":"リョウシチョウ","prefecture_code":24},"0115":{"zip_code":"5150115","prefecture":"三重県","prefecture_kana":"ミエケン","city":"松阪市","city_kana":"マツサカシ","town":"蓮花寺町","town_kana":"レンゲジチョウ","prefecture_code":24},"1203":{"zip_code":"5151203","prefecture":"三重県","prefecture_kana":"ミエケン","city":"松阪市","city_kana":"マツサカシ","town":"六呂木町","town_kana":"ロクロギチョウ","prefecture_code":24},"2131":{"zip_code":"5152131","prefecture":"三重県","prefecture_kana":"ミエケン","city":"松阪市","city_kana":"マツサカシ","town":"六軒町","town_kana":"ロッケンチョウ","prefecture_code":24},"0127":{"zip_code":"5150127","prefecture":"三重県","prefecture_kana":"ミエケン","city":"松阪市","city_kana":"マツサカシ","town":"六根町","town_kana":"ロッコンチョウ","prefecture_code":24},"0014":{"zip_code":"5150014","prefecture":"三重県","prefecture_kana":"ミエケン","city":"松阪市","city_kana":"マツサカシ","town":"若葉町","town_kana":"ワカバチョウ","prefecture_code":24},"0025":{"zip_code":"5150025","prefecture":"三重県","prefecture_kana":"ミエケン","city":"松阪市","city_kana":"マツサカシ","town":"和屋町","town_kana":"ワヤチョウ","prefecture_code":24},"0300":{"zip_code":"5150300","prefecture":"三重県","prefecture_kana":"ミエケン","city":"多気郡明和町","city_kana":"タキグンメイワチョウ","town":"","town_kana":"","prefecture_code":24},"0317":{"zip_code":"5150317","prefecture":"三重県","prefecture_kana":"ミエケン","city":"多気郡明和町","city_kana":"タキグンメイワチョウ","town":"池村","town_kana":"イケムラ","prefecture_code":24},"0312":{"zip_code":"5150312","prefecture":"三重県","prefecture_kana":"ミエケン","city":"多気郡明和町","city_kana":"タキグンメイワチョウ","town":"上野","town_kana":"ウエノ","prefecture_code":24},"0322":{"zip_code":"5150322","prefecture":"三重県","prefecture_kana":"ミエケン","city":"多気郡明和町","city_kana":"タキグンメイワチョウ","town":"上村","town_kana":"ウエムラ","prefecture_code":24},"0316":{"zip_code":"5150316","prefecture":"三重県","prefecture_kana":"ミエケン","city":"多気郡明和町","city_kana":"タキグンメイワチョウ","town":"有爾中","town_kana":"ウニナカ","prefecture_code":24},"0332":{"zip_code":"5150332","prefecture":"三重県","prefecture_kana":"ミエケン","city":"多気郡明和町","city_kana":"タキグンメイワチョウ","town":"馬之上","town_kana":"ウマノウエ","prefecture_code":24},"0301":{"zip_code":"5150301","prefecture":"三重県","prefecture_kana":"ミエケン","city":"多気郡明和町","city_kana":"タキグンメイワチョウ","town":"大堀川新田","town_kana":"オオホリカワシンデン","prefecture_code":24},"0302":{"zip_code":"5150302","prefecture":"三重県","prefecture_kana":"ミエケン","city":"多気郡明和町","city_kana":"タキグンメイワチョウ","town":"大淀","town_kana":"オオヨド","prefecture_code":24},"0349":{"zip_code":"5150349","prefecture":"三重県","prefecture_kana":"ミエケン","city":"多気郡明和町","city_kana":"タキグンメイワチョウ","town":"川尻","town_kana":"カワシリ","prefecture_code":24},"0341":{"zip_code":"5150341","prefecture":"三重県","prefecture_kana":"ミエケン","city":"多気郡明和町","city_kana":"タキグンメイワチョウ","town":"北藤原","town_kana":"キタフジワラ","prefecture_code":24},"0324":{"zip_code":"5150324","prefecture":"三重県","prefecture_kana":"ミエケン","city":"多気郡明和町","city_kana":"タキグンメイワチョウ","town":"金剛坂","town_kana":"コンゴウザカ","prefecture_code":24},"0321":{"zip_code":"5150321","prefecture":"三重県","prefecture_kana":"ミエケン","city":"多気郡明和町","city_kana":"タキグンメイワチョウ","town":"斎宮","town_kana":"サイクウ","prefecture_code":24},"0333":{"zip_code":"5150333","prefecture":"三重県","prefecture_kana":"ミエケン","city":"多気郡明和町","city_kana":"タキグンメイワチョウ","town":"坂本","town_kana":"サカモト","prefecture_code":24},"0331":{"zip_code":"5150331","prefecture":"三重県","prefecture_kana":"ミエケン","city":"多気郡明和町","city_kana":"タキグンメイワチョウ","town":"佐田","town_kana":"サタ","prefecture_code":24},"0347":{"zip_code":"5150347","prefecture":"三重県","prefecture_kana":"ミエケン","city":"多気郡明和町","city_kana":"タキグンメイワチョウ","town":"志貴","town_kana":"シキ","prefecture_code":24},"0314":{"zip_code":"5150314","prefecture":"三重県","prefecture_kana":"ミエケン","city":"多気郡明和町","city_kana":"タキグンメイワチョウ","town":"新茶屋","town_kana":"シンチャヤ","prefecture_code":24},"0325":{"zip_code":"5150325","prefecture":"三重県","prefecture_kana":"ミエケン","city":"多気郡明和町","city_kana":"タキグンメイワチョウ","town":"竹川","town_kana":"タケガワ","prefecture_code":24},"0345":{"zip_code":"5150345","prefecture":"三重県","prefecture_kana":"ミエケン","city":"多気郡明和町","city_kana":"タキグンメイワチョウ","town":"田屋","town_kana":"タヤ","prefecture_code":24},"0343":{"zip_code":"5150343","prefecture":"三重県","prefecture_kana":"ミエケン","city":"多気郡明和町","city_kana":"タキグンメイワチョウ","town":"内座","town_kana":"ナイザ","prefecture_code":24},"0348":{"zip_code":"5150348","prefecture":"三重県","prefecture_kana":"ミエケン","city":"多気郡明和町","city_kana":"タキグンメイワチョウ","town":"中村","town_kana":"ナカムラ","prefecture_code":24},"0334":{"zip_code":"5150334","prefecture":"三重県","prefecture_kana":"ミエケン","city":"多気郡明和町","city_kana":"タキグンメイワチョウ","town":"中海","town_kana":"ナコミ","prefecture_code":24},"0353":{"zip_code":"5150353","prefecture":"三重県","prefecture_kana":"ミエケン","city":"多気郡明和町","city_kana":"タキグンメイワチョウ","town":"根倉","town_kana":"ネグラ","prefecture_code":24},"0351":{"zip_code":"5150351","prefecture":"三重県","prefecture_kana":"ミエケン","city":"多気郡明和町","city_kana":"タキグンメイワチョウ","town":"浜田","town_kana":"ハマダ","prefecture_code":24},"0311":{"zip_code":"5150311","prefecture":"三重県","prefecture_kana":"ミエケン","city":"多気郡明和町","city_kana":"タキグンメイワチョウ","town":"平尾","town_kana":"ヒラオ","prefecture_code":24},"0346":{"zip_code":"5150346","prefecture":"三重県","prefecture_kana":"ミエケン","city":"多気郡明和町","city_kana":"タキグンメイワチョウ","town":"前野","town_kana":"マエノ","prefecture_code":24},"0342":{"zip_code":"5150342","prefecture":"三重県","prefecture_kana":"ミエケン","city":"多気郡明和町","city_kana":"タキグンメイワチョウ","town":"南藤原","town_kana":"ミナミフジワラ","prefecture_code":24},"0315":{"zip_code":"5150315","prefecture":"三重県","prefecture_kana":"ミエケン","city":"多気郡明和町","city_kana":"タキグンメイワチョウ","town":"蓑村","town_kana":"ミノムラ","prefecture_code":24},"0313":{"zip_code":"5150313","prefecture":"三重県","prefecture_kana":"ミエケン","city":"多気郡明和町","city_kana":"タキグンメイワチョウ","town":"明星","town_kana":"ミョウジョウ","prefecture_code":24},"0352":{"zip_code":"5150352","prefecture":"三重県","prefecture_kana":"ミエケン","city":"多気郡明和町","city_kana":"タキグンメイワチョウ","town":"八木戸","town_kana":"ヤキド","prefecture_code":24},"0303":{"zip_code":"5150303","prefecture":"三重県","prefecture_kana":"ミエケン","city":"多気郡明和町","city_kana":"タキグンメイワチョウ","town":"山大淀","town_kana":"ヤマオオヨド","prefecture_code":24},"0354":{"zip_code":"5150354","prefecture":"三重県","prefecture_kana":"ミエケン","city":"多気郡明和町","city_kana":"タキグンメイワチョウ","town":"行部","town_kana":"ユクベ","prefecture_code":24},"0344":{"zip_code":"5150344","prefecture":"三重県","prefecture_kana":"ミエケン","city":"多気郡明和町","city_kana":"タキグンメイワチョウ","town":"養川","town_kana":"ヨウカワ","prefecture_code":24},"0323":{"zip_code":"5150323","prefecture":"三重県","prefecture_kana":"ミエケン","city":"多気郡明和町","city_kana":"タキグンメイワチョウ","town":"岩内","town_kana":"ヨウチ","prefecture_code":24}}