{"0000":{"zip_code":"5160000","prefecture":"三重県","prefecture_kana":"ミエケン","city":"伊勢市","city_kana":"イセシ","town":"以下に掲載がない場合","town_kana":"イカニケイサイガナイバアイ","prefecture_code":24},"0045":{"zip_code":"5160045","prefecture":"三重県","prefecture_kana":"ミエケン","city":"伊勢市","city_kana":"イセシ","town":"旭町","town_kana":"アサヒチョウ","prefecture_code":24},"0021":{"zip_code":"5160021","prefecture":"三重県","prefecture_kana":"ミエケン","city":"伊勢市","city_kana":"イセシ","town":"朝熊町（その他）","town_kana":"アサマチョウ(ソノタ)","prefecture_code":24},"0054":{"zip_code":"5160054","prefecture":"三重県","prefecture_kana":"ミエケン","city":"伊勢市","city_kana":"イセシ","town":"粟野町","town_kana":"アワノチョウ","prefecture_code":24},"0022":{"zip_code":"5160022","prefecture":"三重県","prefecture_kana":"ミエケン","city":"伊勢市","city_kana":"イセシ","town":"一宇田町","town_kana":"イチウダチョウ","prefecture_code":24},"0075":{"zip_code":"5160075","prefecture":"三重県","prefecture_kana":"ミエケン","city":"伊勢市","city_kana":"イセシ","town":"一志町","town_kana":"イチシチョウ","prefecture_code":24},"0071":{"zip_code":"5160071","prefecture":"三重県","prefecture_kana":"ミエケン","city":"伊勢市","city_kana":"イセシ","town":"一之木","town_kana":"イチノキ","prefecture_code":24},"0011":{"zip_code":"5160011","prefecture":"三重県","prefecture_kana":"ミエケン","city":"伊勢市","city_kana":"イセシ","town":"一色町","town_kana":"イッシキチョウ","prefecture_code":24},"0037":{"zip_code":"5160037","prefecture":"三重県","prefecture_kana":"ミエケン","city":"伊勢市","city_kana":"イセシ","town":"岩渕","town_kana":"イワブチ","prefecture_code":24},"0038":{"zip_code":"5160038","prefecture":"三重県","prefecture_kana":"ミエケン","city":"伊勢市","city_kana":"イセシ","town":"岩渕町","town_kana":"イワブチチョウ","prefecture_code":24},"0051":{"zip_code":"5160051","prefecture":"三重県","prefecture_kana":"ミエケン","city":"伊勢市","city_kana":"イセシ","town":"上地町","town_kana":"ウエジチョウ","prefecture_code":24},"1104":{"zip_code":"5161104","prefecture":"三重県","prefecture_kana":"ミエケン","city":"伊勢市","city_kana":"イセシ","town":"上野町","town_kana":"ウエノチョウ","prefecture_code":24},"0024":{"zip_code":"5160024","prefecture":"三重県","prefecture_kana":"ミエケン","city":"伊勢市","city_kana":"イセシ","town":"宇治今在家町","town_kana":"ウジイマザイケチョウ","prefecture_code":24},"0023":{"zip_code":"5160023","prefecture":"三重県","prefecture_kana":"ミエケン","city":"伊勢市","city_kana":"イセシ","town":"宇治館町","town_kana":"ウジタチチョウ","prefecture_code":24},"0025":{"zip_code":"5160025","prefecture":"三重県","prefecture_kana":"ミエケン","city":"伊勢市","city_kana":"イセシ","town":"宇治中之切町","town_kana":"ウジナカノキリチョウ","prefecture_code":24},"0026":{"zip_code":"5160026","prefecture":"三重県","prefecture_kana":"ミエケン","city":"伊勢市","city_kana":"イセシ","town":"宇治浦田","town_kana":"ウジウラタ","prefecture_code":24},"0062":{"zip_code":"5160062","prefecture":"三重県","prefecture_kana":"ミエケン","city":"伊勢市","city_kana":"イセシ","town":"浦口","town_kana":"ウラグチ","prefecture_code":24},"0063":{"zip_code":"5160063","prefecture":"三重県","prefecture_kana":"ミエケン","city":"伊勢市","city_kana":"イセシ","town":"浦口町","town_kana":"ウラグチチョウ","prefecture_code":24},"1108":{"zip_code":"5161108","prefecture":"三重県","prefecture_kana":"ミエケン","city":"伊勢市","city_kana":"イセシ","town":"円座町","town_kana":"エンザチョウ","prefecture_code":24},"1101":{"zip_code":"5161101","prefecture":"三重県","prefecture_kana":"ミエケン","city":"伊勢市","city_kana":"イセシ","town":"大倉町","town_kana":"オオクラチョウ","prefecture_code":24},"0079":{"zip_code":"5160079","prefecture":"三重県","prefecture_kana":"ミエケン","city":"伊勢市","city_kana":"イセシ","town":"大世古","town_kana":"オオゼコ","prefecture_code":24},"0001":{"zip_code":"5160001","prefecture":"三重県","prefecture_kana":"ミエケン","city":"伊勢市","city_kana":"イセシ","town":"大湊町","town_kana":"オオミナトチョウ","prefecture_code":24},"0036":{"zip_code":"5160036","prefecture":"三重県","prefecture_kana":"ミエケン","city":"伊勢市","city_kana":"イセシ","town":"岡本","town_kana":"オカモト","prefecture_code":24},"0031":{"zip_code":"5160031","prefecture":"三重県","prefecture_kana":"ミエケン","city":"伊勢市","city_kana":"イセシ","town":"尾上町","town_kana":"オノエチョウ","prefecture_code":24},"0013":{"zip_code":"5160013","prefecture":"三重県","prefecture_kana":"ミエケン","city":"伊勢市","city_kana":"イセシ","town":"鹿海町","town_kana":"カノミチョウ","prefecture_code":24},"1107":{"zip_code":"5161107","prefecture":"三重県","prefecture_kana":"ミエケン","city":"伊勢市","city_kana":"イセシ","town":"神薗町","town_kana":"カミソノチョウ","prefecture_code":24},"0004":{"zip_code":"5160004","prefecture":"三重県","prefecture_kana":"ミエケン","city":"伊勢市","city_kana":"イセシ","town":"神社港","town_kana":"カミヤシロコウ","prefecture_code":24},"0009":{"zip_code":"5160009","prefecture":"三重県","prefecture_kana":"ミエケン","city":"伊勢市","city_kana":"イセシ","town":"河崎","town_kana":"カワサキ","prefecture_code":24},"0052":{"zip_code":"5160052","prefecture":"三重県","prefecture_kana":"ミエケン","city":"伊勢市","city_kana":"イセシ","town":"川端町","town_kana":"カワバタチョウ","prefecture_code":24},"0014":{"zip_code":"5160014","prefecture":"三重県","prefecture_kana":"ミエケン","city":"伊勢市","city_kana":"イセシ","town":"楠部町","town_kana":"クスベチョウ","prefecture_code":24},"0015":{"zip_code":"5160015","prefecture":"三重県","prefecture_kana":"ミエケン","city":"伊勢市","city_kana":"イセシ","town":"久世戸町","town_kana":"クセドチョウ","prefecture_code":24},"0018":{"zip_code":"5160018","prefecture":"三重県","prefecture_kana":"ミエケン","city":"伊勢市","city_kana":"イセシ","town":"黒瀬町","town_kana":"クロセチョウ","prefecture_code":24},"0007":{"zip_code":"5160007","prefecture":"三重県","prefecture_kana":"ミエケン","city":"伊勢市","city_kana":"イセシ","town":"小木町","town_kana":"コウギチョウ","prefecture_code":24},"0016":{"zip_code":"5160016","prefecture":"三重県","prefecture_kana":"ミエケン","city":"伊勢市","city_kana":"イセシ","town":"神田久志本町","town_kana":"コウダクシモトチョウ","prefecture_code":24},"0027":{"zip_code":"5160027","prefecture":"三重県","prefecture_kana":"ミエケン","city":"伊勢市","city_kana":"イセシ","town":"桜木町","town_kana":"サクラギチョウ","prefecture_code":24},"0003":{"zip_code":"5160003","prefecture":"三重県","prefecture_kana":"ミエケン","city":"伊勢市","city_kana":"イセシ","town":"下野町","town_kana":"シモノチョウ","prefecture_code":24},"0017":{"zip_code":"5160017","prefecture":"三重県","prefecture_kana":"ミエケン","city":"伊勢市","city_kana":"イセシ","town":"神久","town_kana":"ジンキュウ","prefecture_code":24},"0035":{"zip_code":"5160035","prefecture":"三重県","prefecture_kana":"ミエケン","city":"伊勢市","city_kana":"イセシ","town":"勢田町","town_kana":"セイタチョウ","prefecture_code":24},"1102":{"zip_code":"5161102","prefecture":"三重県","prefecture_kana":"ミエケン","city":"伊勢市","city_kana":"イセシ","town":"佐八町","town_kana":"ソウチチョウ","prefecture_code":24},"0078":{"zip_code":"5160078","prefecture":"三重県","prefecture_kana":"ミエケン","city":"伊勢市","city_kana":"イセシ","town":"曽祢","town_kana":"ソネ","prefecture_code":24},"0005":{"zip_code":"5160005","prefecture":"三重県","prefecture_kana":"ミエケン","city":"伊勢市","city_kana":"イセシ","town":"竹ケ鼻町","town_kana":"タケガハナチョウ","prefecture_code":24},"0006":{"zip_code":"5160006","prefecture":"三重県","prefecture_kana":"ミエケン","city":"伊勢市","city_kana":"イセシ","town":"田尻町","town_kana":"タジリチョウ","prefecture_code":24},"0066":{"zip_code":"5160066","prefecture":"三重県","prefecture_kana":"ミエケン","city":"伊勢市","city_kana":"イセシ","town":"辻久留","town_kana":"ツジクル","prefecture_code":24},"0046":{"zip_code":"5160046","prefecture":"三重県","prefecture_kana":"ミエケン","city":"伊勢市","city_kana":"イセシ","town":"辻久留町","town_kana":"ツジクルチョウ","prefecture_code":24},"1103":{"zip_code":"5161103","prefecture":"三重県","prefecture_kana":"ミエケン","city":"伊勢市","city_kana":"イセシ","town":"津村町","town_kana":"ツムラチョウ","prefecture_code":24},"0012":{"zip_code":"5160012","prefecture":"三重県","prefecture_kana":"ミエケン","city":"伊勢市","city_kana":"イセシ","town":"通町","town_kana":"トオリチョウ","prefecture_code":24},"0041":{"zip_code":"5160041","prefecture":"三重県","prefecture_kana":"ミエケン","city":"伊勢市","city_kana":"イセシ","town":"常磐","town_kana":"トキワ","prefecture_code":24},"0047":{"zip_code":"5160047","prefecture":"三重県","prefecture_kana":"ミエケン","city":"伊勢市","city_kana":"イセシ","town":"常磐町","town_kana":"トキワチョウ","prefecture_code":24},"0042":{"zip_code":"5160042","prefecture":"三重県","prefecture_kana":"ミエケン","city":"伊勢市","city_kana":"イセシ","town":"豊川町","town_kana":"トヨカワチョウ","prefecture_code":24},"0067":{"zip_code":"5160067","prefecture":"三重県","prefecture_kana":"ミエケン","city":"伊勢市","city_kana":"イセシ","town":"中島","town_kana":"ナカジマ","prefecture_code":24},"0053":{"zip_code":"5160053","prefecture":"三重県","prefecture_kana":"ミエケン","city":"伊勢市","city_kana":"イセシ","town":"中須町","town_kana":"ナカズチョウ","prefecture_code":24},"0034":{"zip_code":"5160034","prefecture":"三重県","prefecture_kana":"ミエケン","city":"伊勢市","city_kana":"イセシ","town":"中之町","town_kana":"ナカノチョウ","prefecture_code":24},"0028":{"zip_code":"5160028","prefecture":"三重県","prefecture_kana":"ミエケン","city":"伊勢市","city_kana":"イセシ","town":"中村町","town_kana":"ナカムラチョウ","prefecture_code":24},"0073":{"zip_code":"5160073","prefecture":"三重県","prefecture_kana":"ミエケン","city":"伊勢市","city_kana":"イセシ","town":"吹上","town_kana":"フキアゲ","prefecture_code":24},"0043":{"zip_code":"5160043","prefecture":"三重県","prefecture_kana":"ミエケン","city":"伊勢市","city_kana":"イセシ","town":"藤里町","town_kana":"フジサトチョウ","prefecture_code":24},"0064":{"zip_code":"5160064","prefecture":"三重県","prefecture_kana":"ミエケン","city":"伊勢市","city_kana":"イセシ","town":"二俣","town_kana":"フタマタ","prefecture_code":24},"0065":{"zip_code":"5160065","prefecture":"三重県","prefecture_kana":"ミエケン","city":"伊勢市","city_kana":"イセシ","town":"二俣町","town_kana":"フタマタチョウ","prefecture_code":24},"0008":{"zip_code":"5160008","prefecture":"三重県","prefecture_kana":"ミエケン","city":"伊勢市","city_kana":"イセシ","town":"船江","town_kana":"フナエ","prefecture_code":24},"0033":{"zip_code":"5160033","prefecture":"三重県","prefecture_kana":"ミエケン","city":"伊勢市","city_kana":"イセシ","town":"古市町","town_kana":"フルイチチョウ","prefecture_code":24},"0074":{"zip_code":"5160074","prefecture":"三重県","prefecture_kana":"ミエケン","city":"伊勢市","city_kana":"イセシ","town":"本町","town_kana":"ホンマチ","prefecture_code":24},"0044":{"zip_code":"5160044","prefecture":"三重県","prefecture_kana":"ミエケン","city":"伊勢市","city_kana":"イセシ","town":"前山町","town_kana":"マエヤマチョウ","prefecture_code":24},"0002":{"zip_code":"5160002","prefecture":"三重県","prefecture_kana":"ミエケン","city":"伊勢市","city_kana":"イセシ","town":"馬瀬町","town_kana":"マゼチョウ","prefecture_code":24},"0803":{"zip_code":"5160803","prefecture":"三重県","prefecture_kana":"ミエケン","city":"伊勢市","city_kana":"イセシ","town":"御薗町王中島","town_kana":"ミソノチョウオウナカジマ","prefecture_code":24},"0801":{"zip_code":"5160801","prefecture":"三重県","prefecture_kana":"ミエケン","city":"伊勢市","city_kana":"イセシ","town":"御薗町小林","town_kana":"ミソノチョウオハヤシ","prefecture_code":24},"0806":{"zip_code":"5160806","prefecture":"三重県","prefecture_kana":"ミエケン","city":"伊勢市","city_kana":"イセシ","town":"御薗町上條（その他）","town_kana":"ミソノチョウカミジョウ(ソノタ)","prefecture_code":24},"0802":{"zip_code":"5160802","prefecture":"三重県","prefecture_kana":"ミエケン","city":"伊勢市","city_kana":"イセシ","town":"御薗町新開","town_kana":"ミソノチョウシンガイ","prefecture_code":24},"0805":{"zip_code":"5160805","prefecture":"三重県","prefecture_kana":"ミエケン","city":"伊勢市","city_kana":"イセシ","town":"御薗町高向","town_kana":"ミソノチョウタカブク","prefecture_code":24},"0804":{"zip_code":"5160804","prefecture":"三重県","prefecture_kana":"ミエケン","city":"伊勢市","city_kana":"イセシ","town":"御薗町長屋","town_kana":"ミソノチョウナガヤ","prefecture_code":24},"0061":{"zip_code":"5160061","prefecture":"三重県","prefecture_kana":"ミエケン","city":"伊勢市","city_kana":"イセシ","town":"宮川","town_kana":"ミヤガワ","prefecture_code":24},"0072":{"zip_code":"5160072","prefecture":"三重県","prefecture_kana":"ミエケン","city":"伊勢市","city_kana":"イセシ","town":"宮後","town_kana":"ミヤジリ","prefecture_code":24},"0077":{"zip_code":"5160077","prefecture":"三重県","prefecture_kana":"ミエケン","city":"伊勢市","city_kana":"イセシ","town":"宮町","town_kana":"ミヤマチ","prefecture_code":24},"0032":{"zip_code":"5160032","prefecture":"三重県","prefecture_kana":"ミエケン","city":"伊勢市","city_kana":"イセシ","town":"倭町","town_kana":"ヤマトマチ","prefecture_code":24},"1105":{"zip_code":"5161105","prefecture":"三重県","prefecture_kana":"ミエケン","city":"伊勢市","city_kana":"イセシ","town":"矢持町","town_kana":"ヤモチチョウ","prefecture_code":24},"0076":{"zip_code":"5160076","prefecture":"三重県","prefecture_kana":"ミエケン","city":"伊勢市","city_kana":"イセシ","town":"八日市場町","town_kana":"ヨウカイチバチョウ","prefecture_code":24},"1106":{"zip_code":"5161106","prefecture":"三重県","prefecture_kana":"ミエケン","city":"伊勢市","city_kana":"イセシ","town":"横輪町","town_kana":"ヨコワチョウ","prefecture_code":24},"2100":{"zip_code":"5162100","prefecture":"三重県","prefecture_kana":"ミエケン","city":"度会郡度会町","city_kana":"ワタライグンワタライチョウ","town":"以下に掲載がない場合","town_kana":"イカニケイサイガナイバアイ","prefecture_code":24},"1242":{"zip_code":"5161242","prefecture":"三重県","prefecture_kana":"ミエケン","city":"度会郡度会町","city_kana":"ワタライグンワタライチョウ","town":"市場","town_kana":"イチバ","prefecture_code":24},"2106":{"zip_code":"5162106","prefecture":"三重県","prefecture_kana":"ミエケン","city":"度会郡度会町","city_kana":"ワタライグンワタライチョウ","town":"大久保","town_kana":"オオクボ","prefecture_code":24},"2102":{"zip_code":"5162102","prefecture":"三重県","prefecture_kana":"ミエケン","city":"度会郡度会町","city_kana":"ワタライグンワタライチョウ","town":"大野木","town_kana":"オオノキ","prefecture_code":24},"1236":{"zip_code":"5161236","prefecture":"三重県","prefecture_kana":"ミエケン","city":"度会郡度会町","city_kana":"ワタライグンワタライチョウ","town":"小川","town_kana":"オガワ","prefecture_code":24},"2112":{"zip_code":"5162112","prefecture":"三重県","prefecture_kana":"ミエケン","city":"度会郡度会町","city_kana":"ワタライグンワタライチョウ","town":"上久具","town_kana":"カミクグ","prefecture_code":24},"1245":{"zip_code":"5161245","prefecture":"三重県","prefecture_kana":"ミエケン","city":"度会郡度会町","city_kana":"ワタライグンワタライチョウ","town":"川上","town_kana":"カワカミ","prefecture_code":24},"1231":{"zip_code":"5161231","prefecture":"三重県","prefecture_kana":"ミエケン","city":"度会郡度会町","city_kana":"ワタライグンワタライチョウ","town":"川口","town_kana":"カワグチ","prefecture_code":24},"2101":{"zip_code":"5162101","prefecture":"三重県","prefecture_kana":"ミエケン","city":"度会郡度会町","city_kana":"ワタライグンワタライチョウ","town":"葛原","town_kana":"クズワラ","prefecture_code":24},"1232":{"zip_code":"5161232","prefecture":"三重県","prefecture_kana":"ミエケン","city":"度会郡度会町","city_kana":"ワタライグンワタライチョウ","town":"栗原","town_kana":"クリハラ","prefecture_code":24},"1237":{"zip_code":"5161237","prefecture":"三重県","prefecture_kana":"ミエケン","city":"度会郡度会町","city_kana":"ワタライグンワタライチョウ","town":"五ケ町","town_kana":"ゴカノチョウ","prefecture_code":24},"1247":{"zip_code":"5161247","prefecture":"三重県","prefecture_kana":"ミエケン","city":"度会郡度会町","city_kana":"ワタライグンワタライチョウ","town":"小萩","town_kana":"コハギ","prefecture_code":24},"1235":{"zip_code":"5161235","prefecture":"三重県","prefecture_kana":"ミエケン","city":"度会郡度会町","city_kana":"ワタライグンワタライチョウ","town":"駒ケ野","town_kana":"コマガノ","prefecture_code":24},"2116":{"zip_code":"5162116","prefecture":"三重県","prefecture_kana":"ミエケン","city":"度会郡度会町","city_kana":"ワタライグンワタライチョウ","town":"坂井","town_kana":"サカイ","prefecture_code":24},"2119":{"zip_code":"5162119","prefecture":"三重県","prefecture_kana":"ミエケン","city":"度会郡度会町","city_kana":"ワタライグンワタライチョウ","town":"注連指","town_kana":"シメサス","prefecture_code":24},"2111":{"zip_code":"5162111","prefecture":"三重県","prefecture_kana":"ミエケン","city":"度会郡度会町","city_kana":"ワタライグンワタライチョウ","town":"下久具","town_kana":"シモクグ","prefecture_code":24},"2118":{"zip_code":"5162118","prefecture":"三重県","prefecture_kana":"ミエケン","city":"度会郡度会町","city_kana":"ワタライグンワタライチョウ","town":"田口","town_kana":"タグチ","prefecture_code":24},"2107":{"zip_code":"5162107","prefecture":"三重県","prefecture_kana":"ミエケン","city":"度会郡度会町","city_kana":"ワタライグンワタライチョウ","town":"立岡","town_kana":"タチオカ","prefecture_code":24},"2103":{"zip_code":"5162103","prefecture":"三重県","prefecture_kana":"ミエケン","city":"度会郡度会町","city_kana":"ワタライグンワタライチョウ","town":"棚橋","town_kana":"タナハシ","prefecture_code":24},"2113":{"zip_code":"5162113","prefecture":"三重県","prefecture_kana":"ミエケン","city":"度会郡度会町","city_kana":"ワタライグンワタライチョウ","town":"田間","town_kana":"タマ","prefecture_code":24},"2114":{"zip_code":"5162114","prefecture":"三重県","prefecture_kana":"ミエケン","city":"度会郡度会町","city_kana":"ワタライグンワタライチョウ","town":"当津","town_kana":"トウヅ","prefecture_code":24},"1238":{"zip_code":"5161238","prefecture":"三重県","prefecture_kana":"ミエケン","city":"度会郡度会町","city_kana":"ワタライグンワタライチョウ","town":"中之郷","town_kana":"ナカノゴウ","prefecture_code":24},"2115":{"zip_code":"5162115","prefecture":"三重県","prefecture_kana":"ミエケン","city":"度会郡度会町","city_kana":"ワタライグンワタライチョウ","town":"長原","town_kana":"ナガワラ","prefecture_code":24},"2108":{"zip_code":"5162108","prefecture":"三重県","prefecture_kana":"ミエケン","city":"度会郡度会町","city_kana":"ワタライグンワタライチョウ","town":"鮠川","town_kana":"ハイカワ","prefecture_code":24},"1234":{"zip_code":"5161234","prefecture":"三重県","prefecture_kana":"ミエケン","city":"度会郡度会町","city_kana":"ワタライグンワタライチョウ","town":"火打石","town_kana":"ヒウチイシ","prefecture_code":24},"1233":{"zip_code":"5161233","prefecture":"三重県","prefecture_kana":"ミエケン","city":"度会郡度会町","city_kana":"ワタライグンワタライチョウ","town":"日向","town_kana":"ヒナタ","prefecture_code":24},"2105":{"zip_code":"5162105","prefecture":"三重県","prefecture_kana":"ミエケン","city":"度会郡度会町","city_kana":"ワタライグンワタライチョウ","town":"平生","town_kana":"ヒロオ","prefecture_code":24},"2117":{"zip_code":"5162117","prefecture":"三重県","prefecture_kana":"ミエケン","city":"度会郡度会町","city_kana":"ワタライグンワタライチョウ","town":"麻加江","town_kana":"マカエ","prefecture_code":24},"2104":{"zip_code":"5162104","prefecture":"三重県","prefecture_kana":"ミエケン","city":"度会郡度会町","city_kana":"ワタライグンワタライチョウ","town":"牧戸","town_kana":"マキド","prefecture_code":24},"1244":{"zip_code":"5161244","prefecture":"三重県","prefecture_kana":"ミエケン","city":"度会郡度会町","city_kana":"ワタライグンワタライチョウ","town":"南中村","town_kana":"ミナミナカムラ","prefecture_code":24},"1241":{"zip_code":"5161241","prefecture":"三重県","prefecture_kana":"ミエケン","city":"度会郡度会町","city_kana":"ワタライグンワタライチョウ","town":"柳","town_kana":"ヤナギ","prefecture_code":24},"1243":{"zip_code":"5161243","prefecture":"三重県","prefecture_kana":"ミエケン","city":"度会郡度会町","city_kana":"ワタライグンワタライチョウ","town":"和井野","town_kana":"ワイノ","prefecture_code":24},"1246":{"zip_code":"5161246","prefecture":"三重県","prefecture_kana":"ミエケン","city":"度会郡度会町","city_kana":"ワタライグンワタライチョウ","town":"脇出","town_kana":"ワキデ","prefecture_code":24},"0100":{"zip_code":"5160100","prefecture":"三重県","prefecture_kana":"ミエケン","city":"度会郡南伊勢町","city_kana":"ワタライグンミナミイセチョウ","town":"以下に掲載がない場合","town_kana":"イカニケイサイガナイバアイ","prefecture_code":24},"1305":{"zip_code":"5161305","prefecture":"三重県","prefecture_kana":"ミエケン","city":"度会郡南伊勢町","city_kana":"ワタライグンミナミイセチョウ","town":"阿曽浦","town_kana":"アソウラ","prefecture_code":24},"0103":{"zip_code":"5160103","prefecture":"三重県","prefecture_kana":"ミエケン","city":"度会郡南伊勢町","city_kana":"ワタライグンミナミイセチョウ","town":"泉","town_kana":"イズミ","prefecture_code":24},"0112":{"zip_code":"5160112","prefecture":"三重県","prefecture_kana":"ミエケン","city":"度会郡南伊勢町","city_kana":"ワタライグンミナミイセチョウ","town":"伊勢路","town_kana":"イセジ","prefecture_code":24},"0118":{"zip_code":"5160118","prefecture":"三重県","prefecture_kana":"ミエケン","city":"度会郡南伊勢町","city_kana":"ワタライグンミナミイセチョウ","town":"相賀浦","town_kana":"オウカウラ","prefecture_code":24},"1302":{"zip_code":"5161302","prefecture":"三重県","prefecture_kana":"ミエケン","city":"度会郡南伊勢町","city_kana":"ワタライグンミナミイセチョウ","town":"大江","town_kana":"オオエ","prefecture_code":24},"1304":{"zip_code":"5161304","prefecture":"三重県","prefecture_kana":"ミエケン","city":"度会郡南伊勢町","city_kana":"ワタライグンミナミイセチョウ","town":"大方竈","town_kana":"オオカタガマ","prefecture_code":24},"1532":{"zip_code":"5161532","prefecture":"三重県","prefecture_kana":"ミエケン","city":"度会郡南伊勢町","city_kana":"ワタライグンミナミイセチョウ","town":"小方竈","town_kana":"オガタガマ","prefecture_code":24},"0115":{"zip_code":"5160115","prefecture":"三重県","prefecture_kana":"ミエケン","city":"度会郡南伊勢町","city_kana":"ワタライグンミナミイセチョウ","town":"押渕","town_kana":"オシブチ","prefecture_code":24},"1422":{"zip_code":"5161422","prefecture":"三重県","prefecture_kana":"ミエケン","city":"度会郡南伊勢町","city_kana":"ワタライグンミナミイセチョウ","town":"神前浦","town_kana":"カミサキウラ","prefecture_code":24},"0106":{"zip_code":"5160106","prefecture":"三重県","prefecture_kana":"ミエケン","city":"度会郡南伊勢町","city_kana":"ワタライグンミナミイセチョウ","town":"木谷","town_kana":"キダニ","prefecture_code":24},"0102":{"zip_code":"5160102","prefecture":"三重県","prefecture_kana":"ミエケン","city":"度会郡南伊勢町","city_kana":"ワタライグンミナミイセチョウ","town":"切原","town_kana":"キリハラ","prefecture_code":24},"1421":{"zip_code":"5161421","prefecture":"三重県","prefecture_kana":"ミエケン","city":"度会郡南伊勢町","city_kana":"ワタライグンミナミイセチョウ","town":"河内","town_kana":"コウチ","prefecture_code":24},"0101":{"zip_code":"5160101","prefecture":"三重県","prefecture_kana":"ミエケン","city":"度会郡南伊勢町","city_kana":"ワタライグンミナミイセチョウ","town":"五ケ所浦","town_kana":"ゴカショウラ","prefecture_code":24},"1534":{"zip_code":"5161534","prefecture":"三重県","prefecture_kana":"ミエケン","city":"度会郡南伊勢町","city_kana":"ワタライグンミナミイセチョウ","town":"古和浦","town_kana":"コワウラ","prefecture_code":24},"0104":{"zip_code":"5160104","prefecture":"三重県","prefecture_kana":"ミエケン","city":"度会郡南伊勢町","city_kana":"ワタライグンミナミイセチョウ","town":"神津佐","town_kana":"コンサ","prefecture_code":24},"0113":{"zip_code":"5160113","prefecture":"三重県","prefecture_kana":"ミエケン","city":"度会郡南伊勢町","city_kana":"ワタライグンミナミイセチョウ","town":"斎田","town_kana":"サイタ","prefecture_code":24},"0117":{"zip_code":"5160117","prefecture":"三重県","prefecture_kana":"ミエケン","city":"度会郡南伊勢町","city_kana":"ワタライグンミナミイセチョウ","town":"礫浦","town_kana":"サザラウラ","prefecture_code":24},"1536":{"zip_code":"5161536","prefecture":"三重県","prefecture_kana":"ミエケン","city":"度会郡南伊勢町","city_kana":"ワタライグンミナミイセチョウ","town":"新桑竈","town_kana":"サラクワガマ","prefecture_code":24},"0105":{"zip_code":"5160105","prefecture":"三重県","prefecture_kana":"ミエケン","city":"度会郡南伊勢町","city_kana":"ワタライグンミナミイセチョウ","town":"下津浦","town_kana":"シモツウラ","prefecture_code":24},"0221":{"zip_code":"5160221","prefecture":"三重県","prefecture_kana":"ミエケン","city":"度会郡南伊勢町","city_kana":"ワタライグンミナミイセチョウ","town":"宿浦","town_kana":"シュクウラ","prefecture_code":24},"1306":{"zip_code":"5161306","prefecture":"三重県","prefecture_kana":"ミエケン","city":"度会郡南伊勢町","city_kana":"ワタライグンミナミイセチョウ","town":"慥柄浦","town_kana":"タシカラウラ","prefecture_code":24},"0222":{"zip_code":"5160222","prefecture":"三重県","prefecture_kana":"ミエケン","city":"度会郡南伊勢町","city_kana":"ワタライグンミナミイセチョウ","town":"田曽浦","town_kana":"タソウラ","prefecture_code":24},"1535":{"zip_code":"5161535","prefecture":"三重県","prefecture_kana":"ミエケン","city":"度会郡南伊勢町","city_kana":"ワタライグンミナミイセチョウ","town":"棚橋竈","town_kana":"タナハシガマ","prefecture_code":24},"1309":{"zip_code":"5161309","prefecture":"三重県","prefecture_kana":"ミエケン","city":"度会郡南伊勢町","city_kana":"ワタライグンミナミイセチョウ","town":"東宮","town_kana":"トウグウ","prefecture_code":24},"1533":{"zip_code":"5161533","prefecture":"三重県","prefecture_kana":"ミエケン","city":"度会郡南伊勢町","city_kana":"ワタライグンミナミイセチョウ","town":"栃木竈","town_kana":"トチノキガマ","prefecture_code":24},"0111":{"zip_code":"5160111","prefecture":"三重県","prefecture_kana":"ミエケン","city":"度会郡南伊勢町","city_kana":"ワタライグンミナミイセチョウ","town":"内瀬","town_kana":"ナイゼ","prefecture_code":24},"0108":{"zip_code":"5160108","prefecture":"三重県","prefecture_kana":"ミエケン","city":"度会郡南伊勢町","city_kana":"ワタライグンミナミイセチョウ","town":"中津浜浦","town_kana":"ナカツハマウラ","prefecture_code":24},"1308":{"zip_code":"5161308","prefecture":"三重県","prefecture_kana":"ミエケン","city":"度会郡南伊勢町","city_kana":"ワタライグンミナミイセチョウ","town":"奈屋浦","town_kana":"ナヤウラ","prefecture_code":24},"1307":{"zip_code":"5161307","prefecture":"三重県","prefecture_kana":"ミエケン","city":"度会郡南伊勢町","city_kana":"ワタライグンミナミイセチョウ","town":"贄浦","town_kana":"ニエウラ","prefecture_code":24},"0116":{"zip_code":"5160116","prefecture":"三重県","prefecture_kana":"ミエケン","city":"度会郡南伊勢町","city_kana":"ワタライグンミナミイセチョウ","town":"迫間浦","town_kana":"ハサマウラ","prefecture_code":24},"0114":{"zip_code":"5160114","prefecture":"三重県","prefecture_kana":"ミエケン","city":"度会郡南伊勢町","city_kana":"ワタライグンミナミイセチョウ","town":"始神","town_kana":"ハジカミ","prefecture_code":24},"0107":{"zip_code":"5160107","prefecture":"三重県","prefecture_kana":"ミエケン","city":"度会郡南伊勢町","city_kana":"ワタライグンミナミイセチョウ","town":"飯満","town_kana":"ハンマ","prefecture_code":24},"0109":{"zip_code":"5160109","prefecture":"三重県","prefecture_kana":"ミエケン","city":"度会郡南伊勢町","city_kana":"ワタライグンミナミイセチョウ","town":"船越","town_kana":"フナコシ","prefecture_code":24},"1531":{"zip_code":"5161531","prefecture":"三重県","prefecture_kana":"ミエケン","city":"度会郡南伊勢町","city_kana":"ワタライグンミナミイセチョウ","town":"方座浦","town_kana":"ホウザウラ","prefecture_code":24},"1301":{"zip_code":"5161301","prefecture":"三重県","prefecture_kana":"ミエケン","city":"度会郡南伊勢町","city_kana":"ワタライグンミナミイセチョウ","town":"道方","town_kana":"ミチカタ","prefecture_code":24},"1303":{"zip_code":"5161303","prefecture":"三重県","prefecture_kana":"ミエケン","city":"度会郡南伊勢町","city_kana":"ワタライグンミナミイセチョウ","town":"道行竈","town_kana":"ミチユクガマ","prefecture_code":24},"1423":{"zip_code":"5161423","prefecture":"三重県","prefecture_kana":"ミエケン","city":"度会郡南伊勢町","city_kana":"ワタライグンミナミイセチョウ","town":"村山","town_kana":"ムラヤマ","prefecture_code":24}}