{"0400":{"zip_code":"5180400","prefecture":"三重県","prefecture_kana":"ミエケン","city":"名張市","city_kana":"ナバリシ","town":"以下に掲載がない場合","town_kana":"イカニケイサイガナイバアイ","prefecture_code":24},"0468":{"zip_code":"5180468","prefecture":"三重県","prefecture_kana":"ミエケン","city":"名張市","city_kana":"ナバリシ","town":"赤目町一ノ井","town_kana":"アカメチョウイチノイ","prefecture_code":24},"0464":{"zip_code":"5180464","prefecture":"三重県","prefecture_kana":"ミエケン","city":"名張市","city_kana":"ナバリシ","town":"赤目町柏原","town_kana":"アカメチョウカシワラ","prefecture_code":24},"0467":{"zip_code":"5180467","prefecture":"三重県","prefecture_kana":"ミエケン","city":"名張市","city_kana":"ナバリシ","town":"赤目町相楽","town_kana":"アカメチョウサガラ","prefecture_code":24},"0466":{"zip_code":"5180466","prefecture":"三重県","prefecture_kana":"ミエケン","city":"名張市","city_kana":"ナバリシ","town":"赤目町新川","town_kana":"アカメチョウシンカワ","prefecture_code":24},"0465":{"zip_code":"5180465","prefecture":"三重県","prefecture_kana":"ミエケン","city":"名張市","city_kana":"ナバリシ","town":"赤目町丈六","town_kana":"アカメチョウジョウロク","prefecture_code":24},"0461":{"zip_code":"5180461","prefecture":"三重県","prefecture_kana":"ミエケン","city":"名張市","city_kana":"ナバリシ","town":"赤目町すみれが丘","town_kana":"アカメチョウスミレガオカ","prefecture_code":24},"0463":{"zip_code":"5180463","prefecture":"三重県","prefecture_kana":"ミエケン","city":"名張市","city_kana":"ナバリシ","town":"赤目町檀","town_kana":"アカメチョウダン","prefecture_code":24},"0469":{"zip_code":"5180469","prefecture":"三重県","prefecture_kana":"ミエケン","city":"名張市","city_kana":"ナバリシ","town":"赤目町長坂","town_kana":"アカメチョウナガサカ","prefecture_code":24},"0462":{"zip_code":"5180462","prefecture":"三重県","prefecture_kana":"ミエケン","city":"名張市","city_kana":"ナバリシ","town":"赤目町星川","town_kana":"アカメチョウホシカワ","prefecture_code":24},"0721":{"zip_code":"5180721","prefecture":"三重県","prefecture_kana":"ミエケン","city":"名張市","city_kana":"ナバリシ","town":"朝日町","town_kana":"アサヒマチ","prefecture_code":24},"0737":{"zip_code":"5180737","prefecture":"三重県","prefecture_kana":"ミエケン","city":"名張市","city_kana":"ナバリシ","town":"安部田","town_kana":"アベタ","prefecture_code":24},"0607":[{"zip_code":"5180607","prefecture":"三重県","prefecture_kana":"ミエケン","city":"名張市","city_kana":"ナバリシ","town":"家野","town_kana":"イエノ","prefecture_code":24},{"zip_code":"5180607","prefecture":"三重県","prefecture_kana":"ミエケン","city":"名張市","city_kana":"ナバリシ","town":"葛尾","town_kana":"クズオ","prefecture_code":24}],"0736":{"zip_code":"5180736","prefecture":"三重県","prefecture_kana":"ミエケン","city":"名張市","city_kana":"ナバリシ","town":"井手","town_kana":"イデ","prefecture_code":24},"0716":{"zip_code":"5180716","prefecture":"三重県","prefecture_kana":"ミエケン","city":"名張市","city_kana":"ナバリシ","town":"上本町","town_kana":"ウエホンマチ","prefecture_code":24},"0746":{"zip_code":"5180746","prefecture":"三重県","prefecture_kana":"ミエケン","city":"名張市","city_kana":"ナバリシ","town":"梅が丘北１番町","town_kana":"ウメガオカキタ1バンチョウ","prefecture_code":24},"0747":{"zip_code":"5180747","prefecture":"三重県","prefecture_kana":"ミエケン","city":"名張市","city_kana":"ナバリシ","town":"梅が丘北２番町","town_kana":"ウメガオカキタ2バンチョウ","prefecture_code":24},"0748":{"zip_code":"5180748","prefecture":"三重県","prefecture_kana":"ミエケン","city":"名張市","city_kana":"ナバリシ","town":"梅が丘北３番町","town_kana":"ウメガオカキタ3バンチョウ","prefecture_code":24},"0749":{"zip_code":"5180749","prefecture":"三重県","prefecture_kana":"ミエケン","city":"名張市","city_kana":"ナバリシ","town":"梅が丘北４番町","town_kana":"ウメガオカキタ4バンチョウ","prefecture_code":24},"0740":{"zip_code":"5180740","prefecture":"三重県","prefecture_kana":"ミエケン","city":"名張市","city_kana":"ナバリシ","town":"梅が丘北５番町","town_kana":"ウメガオカキタ5バンチョウ","prefecture_code":24},"0741":{"zip_code":"5180741","prefecture":"三重県","prefecture_kana":"ミエケン","city":"名張市","city_kana":"ナバリシ","town":"梅が丘南１番町","town_kana":"ウメガオカミナミ1バンチョウ","prefecture_code":24},"0742":{"zip_code":"5180742","prefecture":"三重県","prefecture_kana":"ミエケン","city":"名張市","city_kana":"ナバリシ","town":"梅が丘南２番町","town_kana":"ウメガオカミナミ2バンチョウ","prefecture_code":24},"0743":{"zip_code":"5180743","prefecture":"三重県","prefecture_kana":"ミエケン","city":"名張市","city_kana":"ナバリシ","town":"梅が丘南３番町","town_kana":"ウメガオカミナミ3バンチョウ","prefecture_code":24},"0744":{"zip_code":"5180744","prefecture":"三重県","prefecture_kana":"ミエケン","city":"名張市","city_kana":"ナバリシ","town":"梅が丘南４番町","town_kana":"ウメガオカミナミ4バンチョウ","prefecture_code":24},"0745":{"zip_code":"5180745","prefecture":"三重県","prefecture_kana":"ミエケン","city":"名張市","city_kana":"ナバリシ","town":"梅が丘南５番町","town_kana":"ウメガオカミナミ5バンチョウ","prefecture_code":24},"0608":{"zip_code":"5180608","prefecture":"三重県","prefecture_kana":"ミエケン","city":"名張市","city_kana":"ナバリシ","town":"鵜山","town_kana":"ウヤマ","prefecture_code":24},"0733":{"zip_code":"5180733","prefecture":"三重県","prefecture_kana":"ミエケン","city":"名張市","city_kana":"ナバリシ","town":"大屋戸","town_kana":"オヤド","prefecture_code":24},"0714":{"zip_code":"5180714","prefecture":"三重県","prefecture_kana":"ミエケン","city":"名張市","city_kana":"ナバリシ","town":"鍛冶町","town_kana":"カジマチ","prefecture_code":24},"0453":{"zip_code":"5180453","prefecture":"三重県","prefecture_kana":"ミエケン","city":"名張市","city_kana":"ナバリシ","town":"春日丘１番町","town_kana":"カスガオカ1バンチョウ","prefecture_code":24},"0454":{"zip_code":"5180454","prefecture":"三重県","prefecture_kana":"ミエケン","city":"名張市","city_kana":"ナバリシ","town":"春日丘２番町","town_kana":"カスガオカ2バンチョウ","prefecture_code":24},"0455":{"zip_code":"5180455","prefecture":"三重県","prefecture_kana":"ミエケン","city":"名張市","city_kana":"ナバリシ","town":"春日丘３番町","town_kana":"カスガオカ3バンチョウ","prefecture_code":24},"0456":{"zip_code":"5180456","prefecture":"三重県","prefecture_kana":"ミエケン","city":"名張市","city_kana":"ナバリシ","town":"春日丘４番町","town_kana":"カスガオカ4バンチョウ","prefecture_code":24},"0457":{"zip_code":"5180457","prefecture":"三重県","prefecture_kana":"ミエケン","city":"名張市","city_kana":"ナバリシ","town":"春日丘５番町","town_kana":"カスガオカ5バンチョウ","prefecture_code":24},"0458":{"zip_code":"5180458","prefecture":"三重県","prefecture_kana":"ミエケン","city":"名張市","city_kana":"ナバリシ","town":"春日丘６番町","town_kana":"カスガオカ6バンチョウ","prefecture_code":24},"0459":{"zip_code":"5180459","prefecture":"三重県","prefecture_kana":"ミエケン","city":"名張市","city_kana":"ナバリシ","town":"春日丘７番町","town_kana":"カスガオカ7バンチョウ","prefecture_code":24},"0613":{"zip_code":"5180613","prefecture":"三重県","prefecture_kana":"ミエケン","city":"名張市","city_kana":"ナバリシ","town":"上小波田","town_kana":"カミオバタ","prefecture_code":24},"0502":{"zip_code":"5180502","prefecture":"三重県","prefecture_kana":"ミエケン","city":"名張市","city_kana":"ナバリシ","town":"上長瀬","town_kana":"カミナガセ","prefecture_code":24},"0710":{"zip_code":"5180710","prefecture":"三重県","prefecture_kana":"ミエケン","city":"名張市","city_kana":"ナバリシ","town":"上八町","town_kana":"カミハッチョウ","prefecture_code":24},"0412":{"zip_code":"5180412","prefecture":"三重県","prefecture_kana":"ミエケン","city":"名張市","city_kana":"ナバリシ","town":"上比奈知","town_kana":"カミヒナチ","prefecture_code":24},"0762":{"zip_code":"5180762","prefecture":"三重県","prefecture_kana":"ミエケン","city":"名張市","city_kana":"ナバリシ","town":"上三谷","town_kana":"カミミタニ","prefecture_code":24},"0504":{"zip_code":"5180504","prefecture":"三重県","prefecture_kana":"ミエケン","city":"名張市","city_kana":"ナバリシ","town":"神屋","town_kana":"カミヤ","prefecture_code":24},"0771":{"zip_code":"5180771","prefecture":"三重県","prefecture_kana":"ミエケン","city":"名張市","city_kana":"ナバリシ","town":"希央台１番町","town_kana":"キオウダイ1バンチョウ","prefecture_code":24},"0772":{"zip_code":"5180772","prefecture":"三重県","prefecture_kana":"ミエケン","city":"名張市","city_kana":"ナバリシ","town":"希央台２番町","town_kana":"キオウダイ2バンチョウ","prefecture_code":24},"0773":{"zip_code":"5180773","prefecture":"三重県","prefecture_kana":"ミエケン","city":"名張市","city_kana":"ナバリシ","town":"希央台３番町","town_kana":"キオウダイ3バンチョウ","prefecture_code":24},"0774":{"zip_code":"5180774","prefecture":"三重県","prefecture_kana":"ミエケン","city":"名張市","city_kana":"ナバリシ","town":"希央台４番町","town_kana":"キオウダイ4バンチョウ","prefecture_code":24},"0775":{"zip_code":"5180775","prefecture":"三重県","prefecture_kana":"ミエケン","city":"名張市","city_kana":"ナバリシ","town":"希央台５番町","town_kana":"キオウダイ5バンチョウ","prefecture_code":24},"0621":{"zip_code":"5180621","prefecture":"三重県","prefecture_kana":"ミエケン","city":"名張市","city_kana":"ナバリシ","town":"桔梗が丘１番町","town_kana":"キキョウガオカ1バンチョウ","prefecture_code":24},"0622":{"zip_code":"5180622","prefecture":"三重県","prefecture_kana":"ミエケン","city":"名張市","city_kana":"ナバリシ","town":"桔梗が丘２番町","town_kana":"キキョウガオカ2バンチョウ","prefecture_code":24},"0623":{"zip_code":"5180623","prefecture":"三重県","prefecture_kana":"ミエケン","city":"名張市","city_kana":"ナバリシ","town":"桔梗が丘３番町","town_kana":"キキョウガオカ3バンチョウ","prefecture_code":24},"0624":{"zip_code":"5180624","prefecture":"三重県","prefecture_kana":"ミエケン","city":"名張市","city_kana":"ナバリシ","town":"桔梗が丘４番町","town_kana":"キキョウガオカ4バンチョウ","prefecture_code":24},"0625":{"zip_code":"5180625","prefecture":"三重県","prefecture_kana":"ミエケン","city":"名張市","city_kana":"ナバリシ","town":"桔梗が丘５番町","town_kana":"キキョウガオカ5バンチョウ","prefecture_code":24},"0626":{"zip_code":"5180626","prefecture":"三重県","prefecture_kana":"ミエケン","city":"名張市","city_kana":"ナバリシ","town":"桔梗が丘６番町","town_kana":"キキョウガオカ6バンチョウ","prefecture_code":24},"0627":{"zip_code":"5180627","prefecture":"三重県","prefecture_kana":"ミエケン","city":"名張市","city_kana":"ナバリシ","town":"桔梗が丘７番町","town_kana":"キキョウガオカ7バンチョウ","prefecture_code":24},"0628":{"zip_code":"5180628","prefecture":"三重県","prefecture_kana":"ミエケン","city":"名張市","city_kana":"ナバリシ","town":"桔梗が丘８番町","town_kana":"キキョウガオカ8バンチョウ","prefecture_code":24},"0641":{"zip_code":"5180641","prefecture":"三重県","prefecture_kana":"ミエケン","city":"名張市","city_kana":"ナバリシ","town":"桔梗が丘西１番町","town_kana":"キキョウガオカニシ1バンチョウ","prefecture_code":24},"0642":{"zip_code":"5180642","prefecture":"三重県","prefecture_kana":"ミエケン","city":"名張市","city_kana":"ナバリシ","town":"桔梗が丘西２番町","town_kana":"キキョウガオカニシ2バンチョウ","prefecture_code":24},"0643":{"zip_code":"5180643","prefecture":"三重県","prefecture_kana":"ミエケン","city":"名張市","city_kana":"ナバリシ","town":"桔梗が丘西３番町","town_kana":"キキョウガオカニシ3バンチョウ","prefecture_code":24},"0644":{"zip_code":"5180644","prefecture":"三重県","prefecture_kana":"ミエケン","city":"名張市","city_kana":"ナバリシ","town":"桔梗が丘西４番町","town_kana":"キキョウガオカニシ4バンチョウ","prefecture_code":24},"0645":{"zip_code":"5180645","prefecture":"三重県","prefecture_kana":"ミエケン","city":"名張市","city_kana":"ナバリシ","town":"桔梗が丘西５番町","town_kana":"キキョウガオカニシ5バンチョウ","prefecture_code":24},"0646":{"zip_code":"5180646","prefecture":"三重県","prefecture_kana":"ミエケン","city":"名張市","city_kana":"ナバリシ","town":"桔梗が丘西６番町","town_kana":"キキョウガオカニシ6バンチョウ","prefecture_code":24},"0647":{"zip_code":"5180647","prefecture":"三重県","prefecture_kana":"ミエケン","city":"名張市","city_kana":"ナバリシ","town":"桔梗が丘西７番町","town_kana":"キキョウガオカニシ7バンチョウ","prefecture_code":24},"0631":{"zip_code":"5180631","prefecture":"三重県","prefecture_kana":"ミエケン","city":"名張市","city_kana":"ナバリシ","town":"桔梗が丘南１番町","town_kana":"キキョウガオカミナミ1バンチョウ","prefecture_code":24},"0632":{"zip_code":"5180632","prefecture":"三重県","prefecture_kana":"ミエケン","city":"名張市","city_kana":"ナバリシ","town":"桔梗が丘南２番町","town_kana":"キキョウガオカミナミ2バンチョウ","prefecture_code":24},"0633":{"zip_code":"5180633","prefecture":"三重県","prefecture_kana":"ミエケン","city":"名張市","city_kana":"ナバリシ","town":"桔梗が丘南３番町","town_kana":"キキョウガオカミナミ3バンチョウ","prefecture_code":24},"0634":{"zip_code":"5180634","prefecture":"三重県","prefecture_kana":"ミエケン","city":"名張市","city_kana":"ナバリシ","town":"桔梗が丘南４番町","town_kana":"キキョウガオカミナミ4バンチョウ","prefecture_code":24},"0723":{"zip_code":"5180723","prefecture":"三重県","prefecture_kana":"ミエケン","city":"名張市","city_kana":"ナバリシ","town":"木屋町","town_kana":"キヤマチ","prefecture_code":24},"0753":{"zip_code":"5180753","prefecture":"三重県","prefecture_kana":"ミエケン","city":"名張市","city_kana":"ナバリシ","town":"蔵持町里","town_kana":"クラモチチョウサト","prefecture_code":24},"0751":{"zip_code":"5180751","prefecture":"三重県","prefecture_kana":"ミエケン","city":"名張市","city_kana":"ナバリシ","town":"蔵持町芝出","town_kana":"クラモチチョウシバデ","prefecture_code":24},"0752":{"zip_code":"5180752","prefecture":"三重県","prefecture_kana":"ミエケン","city":"名張市","city_kana":"ナバリシ","town":"蔵持町原出","town_kana":"クラモチチョウハラデ","prefecture_code":24},"0734":{"zip_code":"5180734","prefecture":"三重県","prefecture_kana":"ミエケン","city":"名張市","city_kana":"ナバリシ","town":"黒田","town_kana":"クロダ","prefecture_code":24},"0735":{"zip_code":"5180735","prefecture":"三重県","prefecture_kana":"ミエケン","city":"名張市","city_kana":"ナバリシ","town":"結馬","town_kana":"ケチバ","prefecture_code":24},"0701":{"zip_code":"5180701","prefecture":"三重県","prefecture_kana":"ミエケン","city":"名張市","city_kana":"ナバリシ","town":"鴻之台１番町","town_kana":"コウノダイ1バンチョウ","prefecture_code":24},"0702":{"zip_code":"5180702","prefecture":"三重県","prefecture_kana":"ミエケン","city":"名張市","city_kana":"ナバリシ","town":"鴻之台２番町","town_kana":"コウノダイ2バンチョウ","prefecture_code":24},"0703":{"zip_code":"5180703","prefecture":"三重県","prefecture_kana":"ミエケン","city":"名張市","city_kana":"ナバリシ","town":"鴻之台３番町","town_kana":"コウノダイ3バンチョウ","prefecture_code":24},"0704":{"zip_code":"5180704","prefecture":"三重県","prefecture_kana":"ミエケン","city":"名張市","city_kana":"ナバリシ","town":"鴻之台４番町","town_kana":"コウノダイ4バンチョウ","prefecture_code":24},"0705":{"zip_code":"5180705","prefecture":"三重県","prefecture_kana":"ミエケン","city":"名張市","city_kana":"ナバリシ","town":"鴻之台５番町","town_kana":"コウノダイ5バンチョウ","prefecture_code":24},"0606":{"zip_code":"5180606","prefecture":"三重県","prefecture_kana":"ミエケン","city":"名張市","city_kana":"ナバリシ","town":"薦生","town_kana":"コモオ","prefecture_code":24},"0719":{"zip_code":"5180719","prefecture":"三重県","prefecture_kana":"ミエケン","city":"名張市","city_kana":"ナバリシ","town":"栄町","town_kana":"サカエマチ","prefecture_code":24},"0724":{"zip_code":"5180724","prefecture":"三重県","prefecture_kana":"ミエケン","city":"名張市","city_kana":"ナバリシ","town":"榊町","town_kana":"サカキマチ","prefecture_code":24},"0712":{"zip_code":"5180712","prefecture":"三重県","prefecture_kana":"ミエケン","city":"名張市","city_kana":"ナバリシ","town":"桜ケ丘","town_kana":"サクラガオカ","prefecture_code":24},"0604":{"zip_code":"5180604","prefecture":"三重県","prefecture_kana":"ミエケン","city":"名張市","city_kana":"ナバリシ","town":"さつき台","town_kana":"サツキダイ","prefecture_code":24},"0612":{"zip_code":"5180612","prefecture":"三重県","prefecture_kana":"ミエケン","city":"名張市","city_kana":"ナバリシ","town":"下小波田","town_kana":"シモオバタ","prefecture_code":24},"0413":{"zip_code":"5180413","prefecture":"三重県","prefecture_kana":"ミエケン","city":"名張市","city_kana":"ナバリシ","town":"下比奈知","town_kana":"シモヒナチ","prefecture_code":24},"0739":{"zip_code":"5180739","prefecture":"三重県","prefecture_kana":"ミエケン","city":"名張市","city_kana":"ナバリシ","town":"下三谷","town_kana":"シモミタニ","prefecture_code":24},"0443":{"zip_code":"5180443","prefecture":"三重県","prefecture_kana":"ミエケン","city":"名張市","city_kana":"ナバリシ","town":"青蓮寺","town_kana":"ショウレンジ","prefecture_code":24},"0611":{"zip_code":"5180611","prefecture":"三重県","prefecture_kana":"ミエケン","city":"名張市","city_kana":"ナバリシ","town":"新田","town_kana":"シンデン","prefecture_code":24},"0727":{"zip_code":"5180727","prefecture":"三重県","prefecture_kana":"ミエケン","city":"名張市","city_kana":"ナバリシ","town":"新町","town_kana":"シンマチ","prefecture_code":24},"0406":{"zip_code":"5180406","prefecture":"三重県","prefecture_kana":"ミエケン","city":"名張市","city_kana":"ナバリシ","town":"すずらん台西１番町","town_kana":"スズランダイニシ1バンチョウ","prefecture_code":24},"0407":{"zip_code":"5180407","prefecture":"三重県","prefecture_kana":"ミエケン","city":"名張市","city_kana":"ナバリシ","town":"すずらん台西２番町","town_kana":"スズランダイニシ2バンチョウ","prefecture_code":24},"0408":{"zip_code":"5180408","prefecture":"三重県","prefecture_kana":"ミエケン","city":"名張市","city_kana":"ナバリシ","town":"すずらん台西３番町","town_kana":"スズランダイニシ3バンチョウ","prefecture_code":24},"0409":{"zip_code":"5180409","prefecture":"三重県","prefecture_kana":"ミエケン","city":"名張市","city_kana":"ナバリシ","town":"すずらん台西４番町","town_kana":"スズランダイニシ4バンチョウ","prefecture_code":24},"0401":{"zip_code":"5180401","prefecture":"三重県","prefecture_kana":"ミエケン","city":"名張市","city_kana":"ナバリシ","town":"すずらん台東１番町","town_kana":"スズランダイヒガシ1バンチョウ","prefecture_code":24},"0402":{"zip_code":"5180402","prefecture":"三重県","prefecture_kana":"ミエケン","city":"名張市","city_kana":"ナバリシ","town":"すずらん台東２番町","town_kana":"スズランダイヒガシ2バンチョウ","prefecture_code":24},"0403":{"zip_code":"5180403","prefecture":"三重県","prefecture_kana":"ミエケン","city":"名張市","city_kana":"ナバリシ","town":"すずらん台東３番町","town_kana":"スズランダイヒガシ3バンチョウ","prefecture_code":24},"0404":{"zip_code":"5180404","prefecture":"三重県","prefecture_kana":"ミエケン","city":"名張市","city_kana":"ナバリシ","town":"すずらん台東４番町","town_kana":"スズランダイヒガシ4バンチョウ","prefecture_code":24},"0405":{"zip_code":"5180405","prefecture":"三重県","prefecture_kana":"ミエケン","city":"名張市","city_kana":"ナバリシ","town":"すずらん台東５番町","town_kana":"スズランダイヒガシ5バンチョウ","prefecture_code":24},"0445":{"zip_code":"5180445","prefecture":"三重県","prefecture_kana":"ミエケン","city":"名張市","city_kana":"ナバリシ","town":"瀬古口","town_kana":"セコグチ","prefecture_code":24},"0411":{"zip_code":"5180411","prefecture":"三重県","prefecture_kana":"ミエケン","city":"名張市","city_kana":"ナバリシ","town":"滝之原","town_kana":"タキノハラ","prefecture_code":24},"0431":{"zip_code":"5180431","prefecture":"三重県","prefecture_kana":"ミエケン","city":"名張市","city_kana":"ナバリシ","town":"つつじが丘北１番町","town_kana":"ツツジガオカキタ1バンチョウ","prefecture_code":24},"0432":{"zip_code":"5180432","prefecture":"三重県","prefecture_kana":"ミエケン","city":"名張市","city_kana":"ナバリシ","town":"つつじが丘北２番町","town_kana":"ツツジガオカキタ2バンチョウ","prefecture_code":24},"0433":{"zip_code":"5180433","prefecture":"三重県","prefecture_kana":"ミエケン","city":"名張市","city_kana":"ナバリシ","town":"つつじが丘北３番町","town_kana":"ツツジガオカキタ3バンチョウ","prefecture_code":24},"0434":{"zip_code":"5180434","prefecture":"三重県","prefecture_kana":"ミエケン","city":"名張市","city_kana":"ナバリシ","town":"つつじが丘北４番町","town_kana":"ツツジガオカキタ4バンチョウ","prefecture_code":24},"0435":{"zip_code":"5180435","prefecture":"三重県","prefecture_kana":"ミエケン","city":"名張市","city_kana":"ナバリシ","town":"つつじが丘北５番町","town_kana":"ツツジガオカキタ5バンチョウ","prefecture_code":24},"0436":{"zip_code":"5180436","prefecture":"三重県","prefecture_kana":"ミエケン","city":"名張市","city_kana":"ナバリシ","town":"つつじが丘北６番町","town_kana":"ツツジガオカキタ6バンチョウ","prefecture_code":24},"0437":{"zip_code":"5180437","prefecture":"三重県","prefecture_kana":"ミエケン","city":"名張市","city_kana":"ナバリシ","town":"つつじが丘北７番町","town_kana":"ツツジガオカキタ7バンチョウ","prefecture_code":24},"0438":{"zip_code":"5180438","prefecture":"三重県","prefecture_kana":"ミエケン","city":"名張市","city_kana":"ナバリシ","town":"つつじが丘北８番町","town_kana":"ツツジガオカキタ8バンチョウ","prefecture_code":24},"0439":{"zip_code":"5180439","prefecture":"三重県","prefecture_kana":"ミエケン","city":"名張市","city_kana":"ナバリシ","town":"つつじが丘北９番町","town_kana":"ツツジガオカキタ9バンチョウ","prefecture_code":24},"0430":{"zip_code":"5180430","prefecture":"三重県","prefecture_kana":"ミエケン","city":"名張市","city_kana":"ナバリシ","town":"つつじが丘北１０番町","town_kana":"ツツジガオカキタ10バンチョウ","prefecture_code":24},"0421":{"zip_code":"5180421","prefecture":"三重県","prefecture_kana":"ミエケン","city":"名張市","city_kana":"ナバリシ","town":"つつじが丘南１番町","town_kana":"ツツジガオカミナミ1バンチョウ","prefecture_code":24},"0422":{"zip_code":"5180422","prefecture":"三重県","prefecture_kana":"ミエケン","city":"名張市","city_kana":"ナバリシ","town":"つつじが丘南２番町","town_kana":"ツツジガオカミナミ2バンチョウ","prefecture_code":24},"0423":{"zip_code":"5180423","prefecture":"三重県","prefecture_kana":"ミエケン","city":"名張市","city_kana":"ナバリシ","town":"つつじが丘南３番町","town_kana":"ツツジガオカミナミ3バンチョウ","prefecture_code":24},"0424":{"zip_code":"5180424","prefecture":"三重県","prefecture_kana":"ミエケン","city":"名張市","city_kana":"ナバリシ","town":"つつじが丘南４番町","town_kana":"ツツジガオカミナミ4バンチョウ","prefecture_code":24},"0425":{"zip_code":"5180425","prefecture":"三重県","prefecture_kana":"ミエケン","city":"名張市","city_kana":"ナバリシ","town":"つつじが丘南５番町","town_kana":"ツツジガオカミナミ5バンチョウ","prefecture_code":24},"0426":{"zip_code":"5180426","prefecture":"三重県","prefecture_kana":"ミエケン","city":"名張市","city_kana":"ナバリシ","town":"つつじが丘南６番町","town_kana":"ツツジガオカミナミ6バンチョウ","prefecture_code":24},"0427":{"zip_code":"5180427","prefecture":"三重県","prefecture_kana":"ミエケン","city":"名張市","city_kana":"ナバリシ","town":"つつじが丘南７番町","town_kana":"ツツジガオカミナミ7バンチョウ","prefecture_code":24},"0428":{"zip_code":"5180428","prefecture":"三重県","prefecture_kana":"ミエケン","city":"名張市","city_kana":"ナバリシ","town":"つつじが丘南８番町","town_kana":"ツツジガオカミナミ8バンチョウ","prefecture_code":24},"0442":{"zip_code":"5180442","prefecture":"三重県","prefecture_kana":"ミエケン","city":"名張市","city_kana":"ナバリシ","town":"中知山","town_kana":"ナカチヤマ","prefecture_code":24},"0717":{"zip_code":"5180717","prefecture":"三重県","prefecture_kana":"ミエケン","city":"名張市","city_kana":"ナバリシ","town":"中町","town_kana":"ナカマチ","prefecture_code":24},"0505":{"zip_code":"5180505","prefecture":"三重県","prefecture_kana":"ミエケン","city":"名張市","city_kana":"ナバリシ","town":"奈垣","town_kana":"ナガキ","prefecture_code":24},"0501":{"zip_code":"5180501","prefecture":"三重県","prefecture_kana":"ミエケン","city":"名張市","city_kana":"ナバリシ","town":"長瀬","town_kana":"ナガセ","prefecture_code":24},"0731":{"zip_code":"5180731","prefecture":"三重県","prefecture_kana":"ミエケン","city":"名張市","city_kana":"ナバリシ","town":"夏秋","town_kana":"ナツアキ","prefecture_code":24},"0441":{"zip_code":"5180441","prefecture":"三重県","prefecture_kana":"ミエケン","city":"名張市","city_kana":"ナバリシ","town":"夏見","town_kana":"ナツミ","prefecture_code":24},"0609":{"zip_code":"5180609","prefecture":"三重県","prefecture_kana":"ミエケン","city":"名張市","city_kana":"ナバリシ","town":"西田原","town_kana":"ニシタワラ","prefecture_code":24},"0603":{"zip_code":"5180603","prefecture":"三重県","prefecture_kana":"ミエケン","city":"名張市","city_kana":"ナバリシ","town":"西原町","town_kana":"ニシワラチョウ","prefecture_code":24},"0602":{"zip_code":"5180602","prefecture":"三重県","prefecture_kana":"ミエケン","city":"名張市","city_kana":"ナバリシ","town":"東田原","town_kana":"ヒガシタワラ","prefecture_code":24},"0711":{"zip_code":"5180711","prefecture":"三重県","prefecture_kana":"ミエケン","city":"名張市","city_kana":"ナバリシ","town":"東町","town_kana":"ヒガシマチ","prefecture_code":24},"0713":{"zip_code":"5180713","prefecture":"三重県","prefecture_kana":"ミエケン","city":"名張市","city_kana":"ナバリシ","town":"平尾","town_kana":"ヒラオ","prefecture_code":24},"0414":{"zip_code":"5180414","prefecture":"三重県","prefecture_kana":"ミエケン","city":"名張市","city_kana":"ナバリシ","town":"富貴ケ丘１番町","town_kana":"フキガオカ1バンチョウ","prefecture_code":24},"0415":{"zip_code":"5180415","prefecture":"三重県","prefecture_kana":"ミエケン","city":"名張市","city_kana":"ナバリシ","town":"富貴ケ丘２番町","town_kana":"フキガオカ2バンチョウ","prefecture_code":24},"0416":{"zip_code":"5180416","prefecture":"三重県","prefecture_kana":"ミエケン","city":"名張市","city_kana":"ナバリシ","town":"富貴ケ丘３番町","town_kana":"フキガオカ3バンチョウ","prefecture_code":24},"0417":{"zip_code":"5180417","prefecture":"三重県","prefecture_kana":"ミエケン","city":"名張市","city_kana":"ナバリシ","town":"富貴ケ丘４番町","town_kana":"フキガオカ4バンチョウ","prefecture_code":24},"0418":{"zip_code":"5180418","prefecture":"三重県","prefecture_kana":"ミエケン","city":"名張市","city_kana":"ナバリシ","town":"富貴ケ丘５番町","town_kana":"フキガオカ5バンチョウ","prefecture_code":24},"0419":{"zip_code":"5180419","prefecture":"三重県","prefecture_kana":"ミエケン","city":"名張市","city_kana":"ナバリシ","town":"富貴ケ丘６番町","town_kana":"フキガオカ6バンチョウ","prefecture_code":24},"0503":{"zip_code":"5180503","prefecture":"三重県","prefecture_kana":"ミエケン","city":"名張市","city_kana":"ナバリシ","town":"布生","town_kana":"フノウ","prefecture_code":24},"0728":{"zip_code":"5180728","prefecture":"三重県","prefecture_kana":"ミエケン","city":"名張市","city_kana":"ナバリシ","town":"豊後町","town_kana":"ブンゴマチ","prefecture_code":24},"0726":{"zip_code":"5180726","prefecture":"三重県","prefecture_kana":"ミエケン","city":"名張市","city_kana":"ナバリシ","town":"本町","town_kana":"ホンマチ","prefecture_code":24},"0722":{"zip_code":"5180722","prefecture":"三重県","prefecture_kana":"ミエケン","city":"名張市","city_kana":"ナバリシ","town":"松崎町","town_kana":"マツサキマチ","prefecture_code":24},"0732":{"zip_code":"5180732","prefecture":"三重県","prefecture_kana":"ミエケン","city":"名張市","city_kana":"ナバリシ","town":"松原町","town_kana":"マツバラチョウ","prefecture_code":24},"0718":{"zip_code":"5180718","prefecture":"三重県","prefecture_kana":"ミエケン","city":"名張市","city_kana":"ナバリシ","town":"丸之内","town_kana":"マルノウチ","prefecture_code":24},"0738":{"zip_code":"5180738","prefecture":"三重県","prefecture_kana":"ミエケン","city":"名張市","city_kana":"ナバリシ","town":"短野","town_kana":"ミジカノ","prefecture_code":24},"0755":{"zip_code":"5180755","prefecture":"三重県","prefecture_kana":"ミエケン","city":"名張市","city_kana":"ナバリシ","town":"緑が丘中","town_kana":"ミドリガオカナカ","prefecture_code":24},"0756":{"zip_code":"5180756","prefecture":"三重県","prefecture_kana":"ミエケン","city":"名張市","city_kana":"ナバリシ","town":"緑が丘東","town_kana":"ミドリガオカヒガシ","prefecture_code":24},"0754":{"zip_code":"5180754","prefecture":"三重県","prefecture_kana":"ミエケン","city":"名張市","city_kana":"ナバリシ","town":"緑が丘西","town_kana":"ミドリガオカニシ","prefecture_code":24},"0601":{"zip_code":"5180601","prefecture":"三重県","prefecture_kana":"ミエケン","city":"名張市","city_kana":"ナバリシ","town":"南古山","town_kana":"ミナミフルヤマ","prefecture_code":24},"0729":{"zip_code":"5180729","prefecture":"三重県","prefecture_kana":"ミエケン","city":"名張市","city_kana":"ナバリシ","town":"南町","town_kana":"ミナミマチ","prefecture_code":24},"0446":{"zip_code":"5180446","prefecture":"三重県","prefecture_kana":"ミエケン","city":"名張市","city_kana":"ナバリシ","town":"南百合が丘","town_kana":"ミナミユリガオカ","prefecture_code":24},"0444":{"zip_code":"5180444","prefecture":"三重県","prefecture_kana":"ミエケン","city":"名張市","city_kana":"ナバリシ","town":"箕曲中村","town_kana":"ミノワナカムラ","prefecture_code":24},"0615":{"zip_code":"5180615","prefecture":"三重県","prefecture_kana":"ミエケン","city":"名張市","city_kana":"ナバリシ","town":"美旗中村","town_kana":"ミハタナカムラ","prefecture_code":24},"0614":[{"zip_code":"5180614","prefecture":"三重県","prefecture_kana":"ミエケン","city":"名張市","city_kana":"ナバリシ","town":"美旗町池の台東","town_kana":"ミハタチョウイケノダイヒガシ","prefecture_code":24},{"zip_code":"5180614","prefecture":"三重県","prefecture_kana":"ミエケン","city":"名張市","city_kana":"ナバリシ","town":"美旗町池の台西","town_kana":"ミハタチョウイケノダイニシ","prefecture_code":24}],"0610":{"zip_code":"5180610","prefecture":"三重県","prefecture_kana":"ミエケン","city":"名張市","city_kana":"ナバリシ","town":"美旗町藤が丘","town_kana":"ミハタチョウフジガオカ","prefecture_code":24},"0616":{"zip_code":"5180616","prefecture":"三重県","prefecture_kana":"ミエケン","city":"名張市","city_kana":"ナバリシ","town":"美旗町南西原","town_kana":"ミハタチョウミナミニシハラ","prefecture_code":24},"0617":{"zip_code":"5180617","prefecture":"三重県","prefecture_kana":"ミエケン","city":"名張市","city_kana":"ナバリシ","town":"美旗町中１番","town_kana":"ミハタチョウナカ1バン","prefecture_code":24},"0618":{"zip_code":"5180618","prefecture":"三重県","prefecture_kana":"ミエケン","city":"名張市","city_kana":"ナバリシ","town":"美旗町中２番","town_kana":"ミハタチョウナカ2バン","prefecture_code":24},"0619":{"zip_code":"5180619","prefecture":"三重県","prefecture_kana":"ミエケン","city":"名張市","city_kana":"ナバリシ","town":"美旗町中３番","town_kana":"ミハタチョウナカ3バン","prefecture_code":24},"0725":{"zip_code":"5180725","prefecture":"三重県","prefecture_kana":"ミエケン","city":"名張市","city_kana":"ナバリシ","town":"元町","town_kana":"モトマチ","prefecture_code":24},"0763":{"zip_code":"5180763","prefecture":"三重県","prefecture_kana":"ミエケン","city":"名張市","city_kana":"ナバリシ","town":"矢川","town_kana":"ヤガワ","prefecture_code":24},"0715":{"zip_code":"5180715","prefecture":"三重県","prefecture_kana":"ミエケン","city":"名張市","city_kana":"ナバリシ","town":"柳原町","town_kana":"ヤナギハラチョウ","prefecture_code":24},"0605":{"zip_code":"5180605","prefecture":"三重県","prefecture_kana":"ミエケン","city":"名張市","city_kana":"ナバリシ","town":"八幡","town_kana":"ヤバタ","prefecture_code":24},"0481":{"zip_code":"5180481","prefecture":"三重県","prefecture_kana":"ミエケン","city":"名張市","city_kana":"ナバリシ","town":"百合が丘西１番町","town_kana":"ユリガオカニシ1バンチョウ","prefecture_code":24},"0482":{"zip_code":"5180482","prefecture":"三重県","prefecture_kana":"ミエケン","city":"名張市","city_kana":"ナバリシ","town":"百合が丘西２番町","town_kana":"ユリガオカニシ2バンチョウ","prefecture_code":24},"0483":{"zip_code":"5180483","prefecture":"三重県","prefecture_kana":"ミエケン","city":"名張市","city_kana":"ナバリシ","town":"百合が丘西３番町","town_kana":"ユリガオカニシ3バンチョウ","prefecture_code":24},"0484":{"zip_code":"5180484","prefecture":"三重県","prefecture_kana":"ミエケン","city":"名張市","city_kana":"ナバリシ","town":"百合が丘西４番町","town_kana":"ユリガオカニシ4バンチョウ","prefecture_code":24},"0485":{"zip_code":"5180485","prefecture":"三重県","prefecture_kana":"ミエケン","city":"名張市","city_kana":"ナバリシ","town":"百合が丘西５番町","town_kana":"ユリガオカニシ5バンチョウ","prefecture_code":24},"0486":{"zip_code":"5180486","prefecture":"三重県","prefecture_kana":"ミエケン","city":"名張市","city_kana":"ナバリシ","town":"百合が丘西６番町","town_kana":"ユリガオカニシ6バンチョウ","prefecture_code":24},"0471":{"zip_code":"5180471","prefecture":"三重県","prefecture_kana":"ミエケン","city":"名張市","city_kana":"ナバリシ","town":"百合が丘東１番町","town_kana":"ユリガオカヒガシ1バンチョウ","prefecture_code":24},"0472":{"zip_code":"5180472","prefecture":"三重県","prefecture_kana":"ミエケン","city":"名張市","city_kana":"ナバリシ","town":"百合が丘東２番町","town_kana":"ユリガオカヒガシ2バンチョウ","prefecture_code":24},"0473":{"zip_code":"5180473","prefecture":"三重県","prefecture_kana":"ミエケン","city":"名張市","city_kana":"ナバリシ","town":"百合が丘東３番町","town_kana":"ユリガオカヒガシ3バンチョウ","prefecture_code":24},"0474":{"zip_code":"5180474","prefecture":"三重県","prefecture_kana":"ミエケン","city":"名張市","city_kana":"ナバリシ","town":"百合が丘東４番町","town_kana":"ユリガオカヒガシ4バンチョウ","prefecture_code":24},"0475":{"zip_code":"5180475","prefecture":"三重県","prefecture_kana":"ミエケン","city":"名張市","city_kana":"ナバリシ","town":"百合が丘東５番町","town_kana":"ユリガオカヒガシ5バンチョウ","prefecture_code":24},"0476":{"zip_code":"5180476","prefecture":"三重県","prefecture_kana":"ミエケン","city":"名張市","city_kana":"ナバリシ","town":"百合が丘東６番町","town_kana":"ユリガオカヒガシ6バンチョウ","prefecture_code":24},"0477":{"zip_code":"5180477","prefecture":"三重県","prefecture_kana":"ミエケン","city":"名張市","city_kana":"ナバリシ","town":"百合が丘東７番町","town_kana":"ユリガオカヒガシ7バンチョウ","prefecture_code":24},"0478":{"zip_code":"5180478","prefecture":"三重県","prefecture_kana":"ミエケン","city":"名張市","city_kana":"ナバリシ","town":"百合が丘東８番町","town_kana":"ユリガオカヒガシ8バンチョウ","prefecture_code":24},"0479":{"zip_code":"5180479","prefecture":"三重県","prefecture_kana":"ミエケン","city":"名張市","city_kana":"ナバリシ","town":"百合が丘東９番町","town_kana":"ユリガオカヒガシ9バンチョウ","prefecture_code":24},"0761":{"zip_code":"5180761","prefecture":"三重県","prefecture_kana":"ミエケン","city":"名張市","city_kana":"ナバリシ","town":"竜口","town_kana":"リュウグチ","prefecture_code":24},"0000":{"zip_code":"5180000","prefecture":"三重県","prefecture_kana":"ミエケン","city":"伊賀市","city_kana":"イガシ","town":"以下に掲載がない場合","town_kana":"イカニケイサイガナイバアイ","prefecture_code":24},"0226":{"zip_code":"5180226","prefecture":"三重県","prefecture_kana":"ミエケン","city":"伊賀市","city_kana":"イガシ","town":"阿保","town_kana":"アオ","prefecture_code":24},"0227":{"zip_code":"5180227","prefecture":"三重県","prefecture_kana":"ミエケン","city":"伊賀市","city_kana":"イガシ","town":"青山羽根","town_kana":"アオヤマハネ","prefecture_code":24},"0114":{"zip_code":"5180114","prefecture":"三重県","prefecture_kana":"ミエケン","city":"伊賀市","city_kana":"イガシ","town":"朝日ケ丘町","town_kana":"アサヒガオカチョウ","prefecture_code":24},"1316":{"zip_code":"5181316","prefecture":"三重県","prefecture_kana":"ミエケン","city":"伊賀市","city_kana":"イガシ","town":"阿山ハイツ","town_kana":"アヤマハイツ","prefecture_code":24},"0818":{"zip_code":"5180818","prefecture":"三重県","prefecture_kana":"ミエケン","city":"伊賀市","city_kana":"イガシ","town":"荒木","town_kana":"アラキ","prefecture_code":24},"1323":{"zip_code":"5181323","prefecture":"三重県","prefecture_kana":"ミエケン","city":"伊賀市","city_kana":"イガシ","town":"石川","town_kana":"イシカワ","prefecture_code":24},"0008":{"zip_code":"5180008","prefecture":"三重県","prefecture_kana":"ミエケン","city":"伊賀市","city_kana":"イガシ","town":"印代","town_kana":"イジロ","prefecture_code":24},"1407":{"zip_code":"5181407","prefecture":"三重県","prefecture_kana":"ミエケン","city":"伊賀市","city_kana":"イガシ","town":"出後","town_kana":"イズゴ","prefecture_code":24},"0205":{"zip_code":"5180205","prefecture":"三重県","prefecture_kana":"ミエケン","city":"伊賀市","city_kana":"イガシ","town":"伊勢路","town_kana":"イセジ","prefecture_code":24},"0123":{"zip_code":"5180123","prefecture":"三重県","prefecture_kana":"ミエケン","city":"伊賀市","city_kana":"イガシ","town":"猪田","town_kana":"イダ","prefecture_code":24},"0003":{"zip_code":"5180003","prefecture":"三重県","prefecture_kana":"ミエケン","city":"伊賀市","city_kana":"イガシ","town":"一之宮","town_kana":"イチノミヤ","prefecture_code":24},"0102":{"zip_code":"5180102","prefecture":"三重県","prefecture_kana":"ミエケン","city":"伊賀市","city_kana":"イガシ","town":"市部","town_kana":"イチベ","prefecture_code":24},"0101":{"zip_code":"5180101","prefecture":"三重県","prefecture_kana":"ミエケン","city":"伊賀市","city_kana":"イガシ","town":"依那具","town_kana":"イナグ","prefecture_code":24},"0026":{"zip_code":"5180026","prefecture":"三重県","prefecture_kana":"ミエケン","city":"伊賀市","city_kana":"イガシ","town":"岩倉","town_kana":"イワクラ","prefecture_code":24},"0859":{"zip_code":"5180859","prefecture":"三重県","prefecture_kana":"ミエケン","city":"伊賀市","city_kana":"イガシ","town":"上野相生町","town_kana":"ウエノアイオイチョウ","prefecture_code":24},"0871":{"zip_code":"5180871","prefecture":"三重県","prefecture_kana":"ミエケン","city":"伊賀市","city_kana":"イガシ","town":"上野赤坂町","town_kana":"ウエノアカサカチョウ","prefecture_code":24},"0846":{"zip_code":"5180846","prefecture":"三重県","prefecture_kana":"ミエケン","city":"伊賀市","city_kana":"イガシ","town":"上野愛宕町","town_kana":"ウエノアタゴマチ","prefecture_code":24},"0853":{"zip_code":"5180853","prefecture":"三重県","prefecture_kana":"ミエケン","city":"伊賀市","city_kana":"イガシ","town":"上野池町","town_kana":"ウエノイケマチ","prefecture_code":24},"0852":{"zip_code":"5180852","prefecture":"三重県","prefecture_kana":"ミエケン","city":"伊賀市","city_kana":"イガシ","town":"上野伊予町","town_kana":"ウエノイヨマチ","prefecture_code":24},"0865":{"zip_code":"5180865","prefecture":"三重県","prefecture_kana":"ミエケン","city":"伊賀市","city_kana":"イガシ","town":"上野魚町","town_kana":"ウエノウオマチ","prefecture_code":24},"0841":{"zip_code":"5180841","prefecture":"三重県","prefecture_kana":"ミエケン","city":"伊賀市","city_kana":"イガシ","town":"上野恵美須町","town_kana":"ウエノエビスマチ","prefecture_code":24},"0864":{"zip_code":"5180864","prefecture":"三重県","prefecture_kana":"ミエケン","city":"伊賀市","city_kana":"イガシ","town":"上野鍛冶町","town_kana":"ウエノカジマチ","prefecture_code":24},"0862":{"zip_code":"5180862","prefecture":"三重県","prefecture_kana":"ミエケン","city":"伊賀市","city_kana":"イガシ","town":"上野片原町","town_kana":"ウエノカタハラマチ","prefecture_code":24},"0838":{"zip_code":"5180838","prefecture":"三重県","prefecture_kana":"ミエケン","city":"伊賀市","city_kana":"イガシ","town":"上野茅町","town_kana":"ウエノカヤマチ","prefecture_code":24},"0832":{"zip_code":"5180832","prefecture":"三重県","prefecture_kana":"ミエケン","city":"伊賀市","city_kana":"イガシ","town":"上野車坂町","town_kana":"ウエノクルマザカチョウ","prefecture_code":24},"0842":{"zip_code":"5180842","prefecture":"三重県","prefecture_kana":"ミエケン","city":"伊賀市","city_kana":"イガシ","town":"上野桑町","town_kana":"ウエノクワマチ","prefecture_code":24},"0872":{"zip_code":"5180872","prefecture":"三重県","prefecture_kana":"ミエケン","city":"伊賀市","city_kana":"イガシ","town":"上野玄蕃町","town_kana":"ウエノゲンバマチ","prefecture_code":24},"0874":{"zip_code":"5180874","prefecture":"三重県","prefecture_kana":"ミエケン","city":"伊賀市","city_kana":"イガシ","town":"上野幸坂町","town_kana":"ウエノコウサカマチ","prefecture_code":24},"0866":{"zip_code":"5180866","prefecture":"三重県","prefecture_kana":"ミエケン","city":"伊賀市","city_kana":"イガシ","town":"上野小玉町","town_kana":"ウエノコダマチョウ","prefecture_code":24},"0858":{"zip_code":"5180858","prefecture":"三重県","prefecture_kana":"ミエケン","city":"伊賀市","city_kana":"イガシ","town":"上野紺屋町","town_kana":"ウエノコンヤマチ","prefecture_code":24},"0857":{"zip_code":"5180857","prefecture":"三重県","prefecture_kana":"ミエケン","city":"伊賀市","city_kana":"イガシ","town":"上野三之西町","town_kana":"ウエノサンノニシマチ","prefecture_code":24},"0854":{"zip_code":"5180854","prefecture":"三重県","prefecture_kana":"ミエケン","city":"伊賀市","city_kana":"イガシ","town":"上野忍町","town_kana":"ウエノシノビチョウ","prefecture_code":24},"0877":{"zip_code":"5180877","prefecture":"三重県","prefecture_kana":"ミエケン","city":"伊賀市","city_kana":"イガシ","town":"上野下幸坂町","town_kana":"ウエノシモコウサカマチ","prefecture_code":24},"0863":{"zip_code":"5180863","prefecture":"三重県","prefecture_kana":"ミエケン","city":"伊賀市","city_kana":"イガシ","town":"上野新町","town_kana":"ウエノシンマチ","prefecture_code":24},"0839":{"zip_code":"5180839","prefecture":"三重県","prefecture_kana":"ミエケン","city":"伊賀市","city_kana":"イガシ","town":"上野田端町","town_kana":"ウエノタバタチョウ","prefecture_code":24},"0847":{"zip_code":"5180847","prefecture":"三重県","prefecture_kana":"ミエケン","city":"伊賀市","city_kana":"イガシ","town":"上野鉄砲町","town_kana":"ウエノテッポウマチ","prefecture_code":24},"0851":{"zip_code":"5180851","prefecture":"三重県","prefecture_kana":"ミエケン","city":"伊賀市","city_kana":"イガシ","town":"上野寺町","town_kana":"ウエノテラマチ","prefecture_code":24},"0856":{"zip_code":"5180856","prefecture":"三重県","prefecture_kana":"ミエケン","city":"伊賀市","city_kana":"イガシ","town":"上野徳居町","town_kana":"ウエノトクイチョウ","prefecture_code":24},"0869":{"zip_code":"5180869","prefecture":"三重県","prefecture_kana":"ミエケン","city":"伊賀市","city_kana":"イガシ","town":"上野中町","town_kana":"ウエノナカマチ","prefecture_code":24},"0878":{"zip_code":"5180878","prefecture":"三重県","prefecture_kana":"ミエケン","city":"伊賀市","city_kana":"イガシ","town":"上野西大手町","town_kana":"ウエノニシオオテチョウ","prefecture_code":24},"0848":{"zip_code":"5180848","prefecture":"三重県","prefecture_kana":"ミエケン","city":"伊賀市","city_kana":"イガシ","town":"上野西日南町","town_kana":"ウエノニシヒナタマチ","prefecture_code":24},"0868":{"zip_code":"5180868","prefecture":"三重県","prefecture_kana":"ミエケン","city":"伊賀市","city_kana":"イガシ","town":"上野西町","town_kana":"ウエノニシマチ","prefecture_code":24},"0831":{"zip_code":"5180831","prefecture":"三重県","prefecture_kana":"ミエケン","city":"伊賀市","city_kana":"イガシ","town":"上野農人町","town_kana":"ウエノノウニンマチ","prefecture_code":24},"0849":{"zip_code":"5180849","prefecture":"三重県","prefecture_kana":"ミエケン","city":"伊賀市","city_kana":"イガシ","town":"上野東日南町","town_kana":"ウエノヒガシヒナタマチ","prefecture_code":24},"0861":{"zip_code":"5180861","prefecture":"三重県","prefecture_kana":"ミエケン","city":"伊賀市","city_kana":"イガシ","town":"上野東町","town_kana":"ウエノヒガシマチ","prefecture_code":24},"0867":{"zip_code":"5180867","prefecture":"三重県","prefecture_kana":"ミエケン","city":"伊賀市","city_kana":"イガシ","town":"上野福居町","town_kana":"ウエノフクイチョウ","prefecture_code":24},"0873":{"zip_code":"5180873","prefecture":"三重県","prefecture_kana":"ミエケン","city":"伊賀市","city_kana":"イガシ","town":"上野丸之内","town_kana":"ウエノマルノウチ","prefecture_code":24},"0875":{"zip_code":"5180875","prefecture":"三重県","prefecture_kana":"ミエケン","city":"伊賀市","city_kana":"イガシ","town":"上野向島町","town_kana":"ウエノムカイジマチョウ","prefecture_code":24},"0855":{"zip_code":"5180855","prefecture":"三重県","prefecture_kana":"ミエケン","city":"伊賀市","city_kana":"イガシ","town":"上野万町","town_kana":"ウエノヨロズマチ","prefecture_code":24},"0112":{"zip_code":"5180112","prefecture":"三重県","prefecture_kana":"ミエケン","city":"伊賀市","city_kana":"イガシ","town":"上林","town_kana":"ウエバヤシ","prefecture_code":24},"1321":{"zip_code":"5181321","prefecture":"三重県","prefecture_kana":"ミエケン","city":"伊賀市","city_kana":"イガシ","town":"内保","town_kana":"ウチホ","prefecture_code":24},"1314":{"zip_code":"5181314","prefecture":"三重県","prefecture_kana":"ミエケン","city":"伊賀市","city_kana":"イガシ","town":"円徳院","town_kana":"エントクイン","prefecture_code":24},"0219":{"zip_code":"5180219","prefecture":"三重県","prefecture_kana":"ミエケン","city":"伊賀市","city_kana":"イガシ","town":"老川","town_kana":"オイカワ","prefecture_code":24},"0034":{"zip_code":"5180034","prefecture":"三重県","prefecture_kana":"ミエケン","city":"伊賀市","city_kana":"イガシ","town":"大内","town_kana":"オオウチ","prefecture_code":24},"1317":{"zip_code":"5181317","prefecture":"三重県","prefecture_kana":"ミエケン","city":"伊賀市","city_kana":"イガシ","town":"大江","town_kana":"オオエ","prefecture_code":24},"1154":{"zip_code":"5181154","prefecture":"三重県","prefecture_kana":"ミエケン","city":"伊賀市","city_kana":"イガシ","town":"大滝","town_kana":"オオタキ","prefecture_code":24},"0017":{"zip_code":"5180017","prefecture":"三重県","prefecture_kana":"ミエケン","city":"伊賀市","city_kana":"イガシ","town":"大谷","town_kana":"オオタニ","prefecture_code":24},"0033":{"zip_code":"5180033","prefecture":"三重県","prefecture_kana":"ミエケン","city":"伊賀市","city_kana":"イガシ","town":"大野木","town_kana":"オオノギ","prefecture_code":24},"0223":{"zip_code":"5180223","prefecture":"三重県","prefecture_kana":"ミエケン","city":"伊賀市","city_kana":"イガシ","town":"岡田","town_kana":"オカダ","prefecture_code":24},"0106":{"zip_code":"5180106","prefecture":"三重県","prefecture_kana":"ミエケン","city":"伊賀市","city_kana":"イガシ","town":"岡波","town_kana":"オカナミ","prefecture_code":24},"0103":{"zip_code":"5180103","prefecture":"三重県","prefecture_kana":"ミエケン","city":"伊賀市","city_kana":"イガシ","town":"沖","town_kana":"オキ","prefecture_code":24},"0211":{"zip_code":"5180211","prefecture":"三重県","prefecture_kana":"ミエケン","city":"伊賀市","city_kana":"イガシ","town":"奥鹿野","town_kana":"オクガノ","prefecture_code":24},"1427":{"zip_code":"5181427","prefecture":"三重県","prefecture_kana":"ミエケン","city":"伊賀市","city_kana":"イガシ","town":"奥馬野","town_kana":"オクバノ","prefecture_code":24},"0825":{"zip_code":"5180825","prefecture":"三重県","prefecture_kana":"ミエケン","city":"伊賀市","city_kana":"イガシ","town":"小田町","town_kana":"オタチョウ","prefecture_code":24},"1324":{"zip_code":"5181324","prefecture":"三重県","prefecture_kana":"ミエケン","city":"伊賀市","city_kana":"イガシ","town":"音羽","town_kana":"オトワ","prefecture_code":24},"0815":{"zip_code":"5180815","prefecture":"三重県","prefecture_kana":"ミエケン","city":"伊賀市","city_kana":"イガシ","town":"界外","town_kana":"カイゲ","prefecture_code":24},"0122":{"zip_code":"5180122","prefecture":"三重県","prefecture_kana":"ミエケン","city":"伊賀市","city_kana":"イガシ","town":"笠部","town_kana":"カサベ","prefecture_code":24},"0224":{"zip_code":"5180224","prefecture":"三重県","prefecture_kana":"ミエケン","city":"伊賀市","city_kana":"イガシ","town":"柏尾","town_kana":"カシオ","prefecture_code":24},"1403":{"zip_code":"5181403","prefecture":"三重県","prefecture_kana":"ミエケン","city":"伊賀市","city_kana":"イガシ","town":"炊村","town_kana":"カシキムラ","prefecture_code":24},"1143":{"zip_code":"5181143","prefecture":"三重県","prefecture_kana":"ミエケン","city":"伊賀市","city_kana":"イガシ","town":"鍛冶屋","town_kana":"カジヤ","prefecture_code":24},"0203":{"zip_code":"5180203","prefecture":"三重県","prefecture_kana":"ミエケン","city":"伊賀市","city_kana":"イガシ","town":"勝地","town_kana":"カチジ","prefecture_code":24},"1153":{"zip_code":"5181153","prefecture":"三重県","prefecture_kana":"ミエケン","city":"伊賀市","city_kana":"イガシ","town":"桂","town_kana":"カツラ","prefecture_code":24},"1412":{"zip_code":"5181412","prefecture":"三重県","prefecture_kana":"ミエケン","city":"伊賀市","city_kana":"イガシ","town":"上阿波","town_kana":"カミアワ","prefecture_code":24},"0116":{"zip_code":"5180116","prefecture":"三重県","prefecture_kana":"ミエケン","city":"伊賀市","city_kana":"イガシ","town":"上神戸","town_kana":"カミカンベ","prefecture_code":24},"0125":{"zip_code":"5180125","prefecture":"三重県","prefecture_kana":"ミエケン","city":"伊賀市","city_kana":"イガシ","town":"上郡","town_kana":"カミゴオリ","prefecture_code":24},"1303":{"zip_code":"5181303","prefecture":"三重県","prefecture_kana":"ミエケン","city":"伊賀市","city_kana":"イガシ","town":"上友田","town_kana":"カミトモダ","prefecture_code":24},"0814":{"zip_code":"5180814","prefecture":"三重県","prefecture_kana":"ミエケン","city":"伊賀市","city_kana":"イガシ","town":"上友生","town_kana":"カミトモノ","prefecture_code":24},"0121":{"zip_code":"5180121","prefecture":"三重県","prefecture_kana":"ミエケン","city":"伊賀市","city_kana":"イガシ","town":"上之庄","town_kana":"カミノショウ","prefecture_code":24},"1315":{"zip_code":"5181315","prefecture":"三重県","prefecture_kana":"ミエケン","city":"伊賀市","city_kana":"イガシ","town":"川合","town_kana":"カワイ","prefecture_code":24},"1307":{"zip_code":"5181307","prefecture":"三重県","prefecture_kana":"ミエケン","city":"伊賀市","city_kana":"イガシ","town":"川合（東山タウン）","town_kana":"カワイ(ヒガシヤマタウン)","prefecture_code":24},"0218":{"zip_code":"5180218","prefecture":"三重県","prefecture_kana":"ミエケン","city":"伊賀市","city_kana":"イガシ","town":"川上","town_kana":"カワカミ","prefecture_code":24},"1425":{"zip_code":"5181425","prefecture":"三重県","prefecture_kana":"ミエケン","city":"伊賀市","city_kana":"イガシ","town":"川北","town_kana":"カワキタ","prefecture_code":24},"0845":{"zip_code":"5180845","prefecture":"三重県","prefecture_kana":"ミエケン","city":"伊賀市","city_kana":"イガシ","town":"木興町","town_kana":"キコチョウ","prefecture_code":24},"0204":{"zip_code":"5180204","prefecture":"三重県","prefecture_kana":"ミエケン","city":"伊賀市","city_kana":"イガシ","town":"北山","town_kana":"キタヤマ","prefecture_code":24},"0225":{"zip_code":"5180225","prefecture":"三重県","prefecture_kana":"ミエケン","city":"伊賀市","city_kana":"イガシ","town":"桐ケ丘","town_kana":"キリガオカ","prefecture_code":24},"0215":{"zip_code":"5180215","prefecture":"三重県","prefecture_kana":"ミエケン","city":"伊賀市","city_kana":"イガシ","town":"霧生","town_kana":"キリュウ","prefecture_code":24},"0843":{"zip_code":"5180843","prefecture":"三重県","prefecture_kana":"ミエケン","city":"伊賀市","city_kana":"イガシ","town":"久米町","town_kana":"クメチョウ","prefecture_code":24},"1147":{"zip_code":"5181147","prefecture":"三重県","prefecture_kana":"ミエケン","city":"伊賀市","city_kana":"イガシ","town":"蔵縄手","town_kana":"クラナワテ","prefecture_code":24},"1404":{"zip_code":"5181404","prefecture":"三重県","prefecture_kana":"ミエケン","city":"伊賀市","city_kana":"イガシ","town":"甲野","town_kana":"コウノ","prefecture_code":24},"0214":{"zip_code":"5180214","prefecture":"三重県","prefecture_kana":"ミエケン","city":"伊賀市","city_kana":"イガシ","town":"腰山","town_kana":"コシヤマ","prefecture_code":24},"0809":{"zip_code":"5180809","prefecture":"三重県","prefecture_kana":"ミエケン","city":"伊賀市","city_kana":"イガシ","town":"西明寺","town_kana":"サイミョウジ","prefecture_code":24},"0108":{"zip_code":"5180108","prefecture":"三重県","prefecture_kana":"ミエケン","city":"伊賀市","city_kana":"イガシ","town":"才良","town_kana":"ザイリョウ","prefecture_code":24},"1429":{"zip_code":"5181429","prefecture":"三重県","prefecture_kana":"ミエケン","city":"伊賀市","city_kana":"イガシ","town":"坂下","town_kana":"サカゲ","prefecture_code":24},"0012":{"zip_code":"5180012","prefecture":"三重県","prefecture_kana":"ミエケン","city":"伊賀市","city_kana":"イガシ","town":"坂之下","town_kana":"サカノシタ","prefecture_code":24},"0001":{"zip_code":"5180001","prefecture":"三重県","prefecture_kana":"ミエケン","city":"伊賀市","city_kana":"イガシ","town":"佐那具町","town_kana":"サナグチョウ","prefecture_code":24},"0823":{"zip_code":"5180823","prefecture":"三重県","prefecture_kana":"ミエケン","city":"伊賀市","city_kana":"イガシ","town":"四十九町","town_kana":"シジュクチョウ","prefecture_code":24},"0035":{"zip_code":"5180035","prefecture":"三重県","prefecture_kana":"ミエケン","city":"伊賀市","city_kana":"イガシ","town":"七本木","town_kana":"シチホンギ","prefecture_code":24},"1416":{"zip_code":"5181416","prefecture":"三重県","prefecture_kana":"ミエケン","city":"伊賀市","city_kana":"イガシ","town":"下阿波","town_kana":"シモアワ","prefecture_code":24},"0206":{"zip_code":"5180206","prefecture":"三重県","prefecture_kana":"ミエケン","city":"伊賀市","city_kana":"イガシ","town":"下川原","town_kana":"シモガワラ","prefecture_code":24},"0111":{"zip_code":"5180111","prefecture":"三重県","prefecture_kana":"ミエケン","city":"伊賀市","city_kana":"イガシ","town":"下神戸","town_kana":"シモカンベ","prefecture_code":24},"0124":{"zip_code":"5180124","prefecture":"三重県","prefecture_kana":"ミエケン","city":"伊賀市","city_kana":"イガシ","town":"下郡","town_kana":"シモゴオリ","prefecture_code":24},"1305":{"zip_code":"5181305","prefecture":"三重県","prefecture_kana":"ミエケン","city":"伊賀市","city_kana":"イガシ","town":"下友田","town_kana":"シモトモダ","prefecture_code":24},"0817":{"zip_code":"5180817","prefecture":"三重県","prefecture_kana":"ミエケン","city":"伊賀市","city_kana":"イガシ","town":"下友生","town_kana":"シモトモノ","prefecture_code":24},"1141":{"zip_code":"5181141","prefecture":"三重県","prefecture_kana":"ミエケン","city":"伊賀市","city_kana":"イガシ","town":"菖蒲池","town_kana":"ショウブイケ","prefecture_code":24},"1151":{"zip_code":"5181151","prefecture":"三重県","prefecture_kana":"ミエケン","city":"伊賀市","city_kana":"イガシ","town":"白樫","town_kana":"シラカシ","prefecture_code":24},"0104":{"zip_code":"5180104","prefecture":"三重県","prefecture_kana":"ミエケン","city":"伊賀市","city_kana":"イガシ","town":"摺見","town_kana":"スルミ","prefecture_code":24},"0021":{"zip_code":"5180021","prefecture":"三重県","prefecture_kana":"ミエケン","city":"伊賀市","city_kana":"イガシ","town":"諏訪","town_kana":"スワ","prefecture_code":24},"1319":{"zip_code":"5181319","prefecture":"三重県","prefecture_kana":"ミエケン","city":"伊賀市","city_kana":"イガシ","town":"千貝","town_kana":"セガイ","prefecture_code":24},"0002":{"zip_code":"5180002","prefecture":"三重県","prefecture_kana":"ミエケン","city":"伊賀市","city_kana":"イガシ","town":"千歳","town_kana":"センザイ","prefecture_code":24},"1401":{"zip_code":"5181401","prefecture":"三重県","prefecture_kana":"ミエケン","city":"伊賀市","city_kana":"イガシ","town":"千戸","town_kana":"センド","prefecture_code":24},"0216":{"zip_code":"5180216","prefecture":"三重県","prefecture_kana":"ミエケン","city":"伊賀市","city_kana":"イガシ","town":"高尾","town_kana":"タカオ","prefecture_code":24},"0005":{"zip_code":"5180005","prefecture":"三重県","prefecture_kana":"ミエケン","city":"伊賀市","city_kana":"イガシ","town":"高畑","town_kana":"タカハタ","prefecture_code":24},"0812":{"zip_code":"5180812","prefecture":"三重県","prefecture_kana":"ミエケン","city":"伊賀市","city_kana":"イガシ","town":"高山","town_kana":"タカヤマ","prefecture_code":24},"0201":{"zip_code":"5180201","prefecture":"三重県","prefecture_kana":"ミエケン","city":"伊賀市","city_kana":"イガシ","town":"瀧","town_kana":"タキ","prefecture_code":24},"0217":{"zip_code":"5180217","prefecture":"三重県","prefecture_kana":"ミエケン","city":"伊賀市","city_kana":"イガシ","town":"種生","town_kana":"タナオ","prefecture_code":24},"1312":{"zip_code":"5181312","prefecture":"三重県","prefecture_kana":"ミエケン","city":"伊賀市","city_kana":"イガシ","town":"田中","town_kana":"タナカ","prefecture_code":24},"1322":{"zip_code":"5181322","prefecture":"三重県","prefecture_kana":"ミエケン","city":"伊賀市","city_kana":"イガシ","town":"玉滝","town_kana":"タマタキ","prefecture_code":24},"0032":{"zip_code":"5180032","prefecture":"三重県","prefecture_kana":"ミエケン","city":"伊賀市","city_kana":"イガシ","town":"朝屋","town_kana":"チョウヤ","prefecture_code":24},"0015":{"zip_code":"5180015","prefecture":"三重県","prefecture_kana":"ミエケン","city":"伊賀市","city_kana":"イガシ","town":"土橋","town_kana":"ツチハシ","prefecture_code":24},"0004":{"zip_code":"5180004","prefecture":"三重県","prefecture_kana":"ミエケン","city":"伊賀市","city_kana":"イガシ","town":"寺田","town_kana":"テラダ","prefecture_code":24},"0222":{"zip_code":"5180222","prefecture":"三重県","prefecture_kana":"ミエケン","city":"伊賀市","city_kana":"イガシ","town":"寺脇","town_kana":"テラワキ","prefecture_code":24},"1424":{"zip_code":"5181424","prefecture":"三重県","prefecture_kana":"ミエケン","city":"伊賀市","city_kana":"イガシ","town":"富岡","town_kana":"トミオカ","prefecture_code":24},"1417":{"zip_code":"5181417","prefecture":"三重県","prefecture_kana":"ミエケン","city":"伊賀市","city_kana":"イガシ","town":"富永","town_kana":"トミナガ","prefecture_code":24},"0011":{"zip_code":"5180011","prefecture":"三重県","prefecture_kana":"ミエケン","city":"伊賀市","city_kana":"イガシ","town":"外山","town_kana":"トヤマ","prefecture_code":24},"0822":{"zip_code":"5180822","prefecture":"三重県","prefecture_kana":"ミエケン","city":"伊賀市","city_kana":"イガシ","town":"問屋町","town_kana":"トンヤマチ","prefecture_code":24},"0031":{"zip_code":"5180031","prefecture":"三重県","prefecture_kana":"ミエケン","city":"伊賀市","city_kana":"イガシ","town":"長田","town_kana":"ナガタ","prefecture_code":24},"1304":{"zip_code":"5181304","prefecture":"三重県","prefecture_kana":"ミエケン","city":"伊賀市","city_kana":"イガシ","town":"中友田","town_kana":"ナカトモダ","prefecture_code":24},"0816":{"zip_code":"5180816","prefecture":"三重県","prefecture_kana":"ミエケン","city":"伊賀市","city_kana":"イガシ","town":"中友生","town_kana":"ナカトモノ","prefecture_code":24},"1428":{"zip_code":"5181428","prefecture":"三重県","prefecture_kana":"ミエケン","city":"伊賀市","city_kana":"イガシ","town":"中馬野","town_kana":"ナカバノ","prefecture_code":24},"1406":{"zip_code":"5181406","prefecture":"三重県","prefecture_kana":"ミエケン","city":"伊賀市","city_kana":"イガシ","town":"中村","town_kana":"ナカムラ","prefecture_code":24},"0014":{"zip_code":"5180014","prefecture":"三重県","prefecture_kana":"ミエケン","city":"伊賀市","city_kana":"イガシ","town":"西条","town_kana":"ニシジョウ","prefecture_code":24},"0025":{"zip_code":"5180025","prefecture":"三重県","prefecture_kana":"ミエケン","city":"伊賀市","city_kana":"イガシ","town":"西高倉","town_kana":"ニシタカクラ","prefecture_code":24},"0027":{"zip_code":"5180027","prefecture":"三重県","prefecture_kana":"ミエケン","city":"伊賀市","city_kana":"イガシ","town":"西山","town_kana":"ニシヤマ","prefecture_code":24},"1301":{"zip_code":"5181301","prefecture":"三重県","prefecture_kana":"ミエケン","city":"伊賀市","city_kana":"イガシ","town":"西湯舟","town_kana":"ニシユブネ","prefecture_code":24},"0023":{"zip_code":"5180023","prefecture":"三重県","prefecture_kana":"ミエケン","city":"伊賀市","city_kana":"イガシ","town":"野間","town_kana":"ノマ","prefecture_code":24},"1318":{"zip_code":"5181318","prefecture":"三重県","prefecture_kana":"ミエケン","city":"伊賀市","city_kana":"イガシ","town":"波敷野","town_kana":"ハジキノ","prefecture_code":24},"0813":{"zip_code":"5180813","prefecture":"三重県","prefecture_kana":"ミエケン","city":"伊賀市","city_kana":"イガシ","town":"蓮池","town_kana":"ハスイケ","prefecture_code":24},"1311":{"zip_code":"5181311","prefecture":"三重県","prefecture_kana":"ミエケン","city":"伊賀市","city_kana":"イガシ","town":"馬田","town_kana":"バタ","prefecture_code":24},"1408":{"zip_code":"5181408","prefecture":"三重県","prefecture_kana":"ミエケン","city":"伊賀市","city_kana":"イガシ","town":"畑村","town_kana":"ハタムラ","prefecture_code":24},"1155":{"zip_code":"5181155","prefecture":"三重県","prefecture_kana":"ミエケン","city":"伊賀市","city_kana":"イガシ","town":"治田","town_kana":"ハッタ","prefecture_code":24},"0007":{"zip_code":"5180007","prefecture":"三重県","prefecture_kana":"ミエケン","city":"伊賀市","city_kana":"イガシ","town":"服部町","town_kana":"ハットリチョウ","prefecture_code":24},"0006":{"zip_code":"5180006","prefecture":"三重県","prefecture_kana":"ミエケン","city":"伊賀市","city_kana":"イガシ","town":"羽根","town_kana":"ハネ","prefecture_code":24},"1313":{"zip_code":"5181313","prefecture":"三重県","prefecture_kana":"ミエケン","city":"伊賀市","city_kana":"イガシ","town":"馬場","town_kana":"ババ","prefecture_code":24},"0013":{"zip_code":"5180013","prefecture":"三重県","prefecture_kana":"ミエケン","city":"伊賀市","city_kana":"イガシ","town":"東条","town_kana":"ヒガシジョウ","prefecture_code":24},"0024":{"zip_code":"5180024","prefecture":"三重県","prefecture_kana":"ミエケン","city":"伊賀市","city_kana":"イガシ","town":"東高倉","town_kana":"ヒガシタカクラ","prefecture_code":24},"1144":{"zip_code":"5181144","prefecture":"三重県","prefecture_kana":"ミエケン","city":"伊賀市","city_kana":"イガシ","town":"東谷","town_kana":"ヒガシダニ","prefecture_code":24},"1302":{"zip_code":"5181302","prefecture":"三重県","prefecture_kana":"ミエケン","city":"伊賀市","city_kana":"イガシ","town":"東湯舟","town_kana":"ヒガシユブネ","prefecture_code":24},"0105":{"zip_code":"5180105","prefecture":"三重県","prefecture_kana":"ミエケン","city":"伊賀市","city_kana":"イガシ","town":"比自岐","town_kana":"ヒジキ","prefecture_code":24},"0107":{"zip_code":"5180107","prefecture":"三重県","prefecture_kana":"ミエケン","city":"伊賀市","city_kana":"イガシ","town":"枅川","town_kana":"ヒジキガワ","prefecture_code":24},"0115":{"zip_code":"5180115","prefecture":"三重県","prefecture_kana":"ミエケン","city":"伊賀市","city_kana":"イガシ","town":"比土","town_kana":"ヒド","prefecture_code":24},"1422":{"zip_code":"5181422","prefecture":"三重県","prefecture_kana":"ミエケン","city":"伊賀市","city_kana":"イガシ","town":"平田","town_kana":"ヒラタ","prefecture_code":24},"0807":{"zip_code":"5180807","prefecture":"三重県","prefecture_kana":"ミエケン","city":"伊賀市","city_kana":"イガシ","town":"平野上川原","town_kana":"ヒラノカミガワラ","prefecture_code":24},"0826":{"zip_code":"5180826","prefecture":"三重県","prefecture_kana":"ミエケン","city":"伊賀市","city_kana":"イガシ","town":"平野北谷","town_kana":"ヒラノキタダニ","prefecture_code":24},"0808":{"zip_code":"5180808","prefecture":"三重県","prefecture_kana":"ミエケン","city":"伊賀市","city_kana":"イガシ","town":"平野蔵垣内","town_kana":"ヒラノクラガイト","prefecture_code":24},"0827":{"zip_code":"5180827","prefecture":"三重県","prefecture_kana":"ミエケン","city":"伊賀市","city_kana":"イガシ","town":"平野清水","town_kana":"ヒラノショウズ","prefecture_code":24},"0830":{"zip_code":"5180830","prefecture":"三重県","prefecture_kana":"ミエケン","city":"伊賀市","city_kana":"イガシ","town":"平野城北町","town_kana":"ヒラノジョウホクチョウ","prefecture_code":24},"0828":{"zip_code":"5180828","prefecture":"三重県","prefecture_kana":"ミエケン","city":"伊賀市","city_kana":"イガシ","town":"平野中川原","town_kana":"ヒラノナカガワラ","prefecture_code":24},"0820":{"zip_code":"5180820","prefecture":"三重県","prefecture_kana":"ミエケン","city":"伊賀市","city_kana":"イガシ","town":"平野西町","town_kana":"ヒラノニシマチ","prefecture_code":24},"0810":{"zip_code":"5180810","prefecture":"三重県","prefecture_kana":"ミエケン","city":"伊賀市","city_kana":"イガシ","town":"平野東町","town_kana":"ヒラノヒガシマチ","prefecture_code":24},"0802":{"zip_code":"5180802","prefecture":"三重県","prefecture_kana":"ミエケン","city":"伊賀市","city_kana":"イガシ","town":"平野樋之口","town_kana":"ヒラノヒノクチ","prefecture_code":24},"0801":{"zip_code":"5180801","prefecture":"三重県","prefecture_kana":"ミエケン","city":"伊賀市","city_kana":"イガシ","town":"平野見能","town_kana":"ヒラノミノウ","prefecture_code":24},"0829":{"zip_code":"5180829","prefecture":"三重県","prefecture_kana":"ミエケン","city":"伊賀市","city_kana":"イガシ","town":"平野山之下","town_kana":"ヒラノヤマノシタ","prefecture_code":24},"0804":{"zip_code":"5180804","prefecture":"三重県","prefecture_kana":"ミエケン","city":"伊賀市","city_kana":"イガシ","town":"平野六反田","town_kana":"ヒラノロクタンダ","prefecture_code":24},"1426":{"zip_code":"5181426","prefecture":"三重県","prefecture_kana":"ミエケン","city":"伊賀市","city_kana":"イガシ","town":"広瀬","town_kana":"ヒロセ","prefecture_code":24},"0212":{"zip_code":"5180212","prefecture":"三重県","prefecture_kana":"ミエケン","city":"伊賀市","city_kana":"イガシ","town":"福川","town_kana":"フクガワ","prefecture_code":24},"0113":{"zip_code":"5180113","prefecture":"三重県","prefecture_kana":"ミエケン","city":"伊賀市","city_kana":"イガシ","town":"古郡","town_kana":"フルコオリ","prefecture_code":24},"0821":{"zip_code":"5180821","prefecture":"三重県","prefecture_kana":"ミエケン","city":"伊賀市","city_kana":"イガシ","town":"生琉里","town_kana":"フルサト","prefecture_code":24},"1142":{"zip_code":"5181142","prefecture":"三重県","prefecture_kana":"ミエケン","city":"伊賀市","city_kana":"イガシ","town":"古山界外","town_kana":"フルヤマカイゲ","prefecture_code":24},"0221":{"zip_code":"5180221","prefecture":"三重県","prefecture_kana":"ミエケン","city":"伊賀市","city_kana":"イガシ","town":"別府","town_kana":"ベフ","prefecture_code":24},"1405":{"zip_code":"5181405","prefecture":"三重県","prefecture_kana":"ミエケン","city":"伊賀市","city_kana":"イガシ","town":"鳳凰寺","town_kana":"ボウジ","prefecture_code":24},"0811":{"zip_code":"5180811","prefecture":"三重県","prefecture_kana":"ミエケン","city":"伊賀市","city_kana":"イガシ","town":"喰代","town_kana":"ホウジロ","prefecture_code":24},"0036":{"zip_code":"5180036","prefecture":"三重県","prefecture_kana":"ミエケン","city":"伊賀市","city_kana":"イガシ","town":"法花","town_kana":"ホッケ","prefecture_code":24},"1326":{"zip_code":"5181326","prefecture":"三重県","prefecture_kana":"ミエケン","city":"伊賀市","city_kana":"イガシ","town":"槙山","town_kana":"マキヤマ","prefecture_code":24},"1414":{"zip_code":"5181414","prefecture":"三重県","prefecture_kana":"ミエケン","city":"伊賀市","city_kana":"イガシ","town":"猿野","town_kana":"マシノ","prefecture_code":24},"1325":{"zip_code":"5181325","prefecture":"三重県","prefecture_kana":"ミエケン","city":"伊賀市","city_kana":"イガシ","town":"丸柱","town_kana":"マルバシラ","prefecture_code":24},"0022":{"zip_code":"5180022","prefecture":"三重県","prefecture_kana":"ミエケン","city":"伊賀市","city_kana":"イガシ","town":"三田","town_kana":"ミタ","prefecture_code":24},"0834":{"zip_code":"5180834","prefecture":"三重県","prefecture_kana":"ミエケン","city":"伊賀市","city_kana":"イガシ","town":"緑ケ丘中町","town_kana":"ミドリガオカナカマチ","prefecture_code":24},"0837":{"zip_code":"5180837","prefecture":"三重県","prefecture_kana":"ミエケン","city":"伊賀市","city_kana":"イガシ","town":"緑ケ丘西町","town_kana":"ミドリガオカニシマチ","prefecture_code":24},"0833":{"zip_code":"5180833","prefecture":"三重県","prefecture_kana":"ミエケン","city":"伊賀市","city_kana":"イガシ","town":"緑ケ丘東町","town_kana":"ミドリガオカヒガシマチ","prefecture_code":24},"0836":{"zip_code":"5180836","prefecture":"三重県","prefecture_kana":"ミエケン","city":"伊賀市","city_kana":"イガシ","town":"緑ケ丘本町","town_kana":"ミドリガオカホンマチ","prefecture_code":24},"0835":{"zip_code":"5180835","prefecture":"三重県","prefecture_kana":"ミエケン","city":"伊賀市","city_kana":"イガシ","town":"緑ケ丘南町","town_kana":"ミドリガオカミナミマチ","prefecture_code":24},"1421":{"zip_code":"5181421","prefecture":"三重県","prefecture_kana":"ミエケン","city":"伊賀市","city_kana":"イガシ","town":"真泥","town_kana":"ミドロ","prefecture_code":24},"0202":{"zip_code":"5180202","prefecture":"三重県","prefecture_kana":"ミエケン","city":"伊賀市","city_kana":"イガシ","town":"妙楽地","town_kana":"ミョウラクジ","prefecture_code":24},"0824":{"zip_code":"5180824","prefecture":"三重県","prefecture_kana":"ミエケン","city":"伊賀市","city_kana":"イガシ","town":"守田町","town_kana":"モリタチョウ","prefecture_code":24},"0126":{"zip_code":"5180126","prefecture":"三重県","prefecture_kana":"ミエケン","city":"伊賀市","city_kana":"イガシ","town":"森寺","town_kana":"モリデラ","prefecture_code":24},"0213":{"zip_code":"5180213","prefecture":"三重県","prefecture_kana":"ミエケン","city":"伊賀市","city_kana":"イガシ","town":"諸木","town_kana":"モロキ","prefecture_code":24},"0016":{"zip_code":"5180016","prefecture":"三重県","prefecture_kana":"ミエケン","city":"伊賀市","city_kana":"イガシ","town":"山神","town_kana":"ヤガミ","prefecture_code":24},"1145":{"zip_code":"5181145","prefecture":"三重県","prefecture_kana":"ミエケン","city":"伊賀市","city_kana":"イガシ","town":"安場","town_kana":"ヤスバ","prefecture_code":24},"0844":{"zip_code":"5180844","prefecture":"三重県","prefecture_kana":"ミエケン","city":"伊賀市","city_kana":"イガシ","town":"八幡町","town_kana":"ヤハタチョウ","prefecture_code":24},"0127":{"zip_code":"5180127","prefecture":"三重県","prefecture_kana":"ミエケン","city":"伊賀市","city_kana":"イガシ","town":"山出","town_kana":"ヤマデ","prefecture_code":24},"1306":{"zip_code":"5181306","prefecture":"三重県","prefecture_kana":"ミエケン","city":"伊賀市","city_kana":"イガシ","town":"湯舟","town_kana":"ユブネ","prefecture_code":24},"0131":{"zip_code":"5180131","prefecture":"三重県","prefecture_kana":"ミエケン","city":"伊賀市","city_kana":"イガシ","town":"ゆめが丘","town_kana":"ユメガオカ","prefecture_code":24},"1146":{"zip_code":"5181146","prefecture":"三重県","prefecture_kana":"ミエケン","city":"伊賀市","city_kana":"イガシ","town":"湯屋谷","town_kana":"ユヤダニ","prefecture_code":24},"0840":{"zip_code":"5180840","prefecture":"三重県","prefecture_kana":"ミエケン","city":"伊賀市","city_kana":"イガシ","town":"陽光台","town_kana":"ヨウコウダイ","prefecture_code":24},"1152":{"zip_code":"5181152","prefecture":"三重県","prefecture_kana":"ミエケン","city":"伊賀市","city_kana":"イガシ","town":"予野","town_kana":"ヨノ","prefecture_code":24}}