{"0000":{"zip_code":"5200000","prefecture":"滋賀県","prefecture_kana":"シガケン","city":"大津市","city_kana":"オオツシ","town":"","town_kana":"","prefecture_code":25},"2101":{"zip_code":"5202101","prefecture":"滋賀県","prefecture_kana":"シガケン","city":"大津市","city_kana":"オオツシ","town":"青山","town_kana":"アオヤマ","prefecture_code":25},"0864":{"zip_code":"5200864","prefecture":"滋賀県","prefecture_kana":"シガケン","city":"大津市","city_kana":"オオツシ","town":"赤尾町","town_kana":"アカオチョウ","prefecture_code":25},"0003":{"zip_code":"5200003","prefecture":"滋賀県","prefecture_kana":"シガケン","city":"大津市","city_kana":"オオツシ","town":"あかね町","town_kana":"アカネチョウ","prefecture_code":25},"0822":{"zip_code":"5200822","prefecture":"滋賀県","prefecture_kana":"シガケン","city":"大津市","city_kana":"オオツシ","town":"秋葉台","town_kana":"アキバダイ","prefecture_code":25},"0533":{"zip_code":"5200533","prefecture":"滋賀県","prefecture_kana":"シガケン","city":"大津市","city_kana":"オオツシ","town":"朝日","town_kana":"アサヒ","prefecture_code":25},"0052":{"zip_code":"5200052","prefecture":"滋賀県","prefecture_kana":"シガケン","city":"大津市","city_kana":"オオツシ","town":"朝日が丘","town_kana":"アサヒガオカ","prefecture_code":25},"0114":{"zip_code":"5200114","prefecture":"滋賀県","prefecture_kana":"シガケン","city":"大津市","city_kana":"オオツシ","town":"穴太","town_kana":"アノウ","prefecture_code":25},"0513":{"zip_code":"5200513","prefecture":"滋賀県","prefecture_kana":"シガケン","city":"大津市","city_kana":"オオツシ","town":"荒川","town_kana":"アラカワ","prefecture_code":25},"0832":{"zip_code":"5200832","prefecture":"滋賀県","prefecture_kana":"シガケン","city":"大津市","city_kana":"オオツシ","town":"粟津町","town_kana":"アワヅチョウ","prefecture_code":25},"0356":{"zip_code":"5200356","prefecture":"滋賀県","prefecture_kana":"シガケン","city":"大津市","city_kana":"オオツシ","town":"伊香立上在地町","town_kana":"イカダチカミザイジチョウ","prefecture_code":25},"0352":{"zip_code":"5200352","prefecture":"滋賀県","prefecture_kana":"シガケン","city":"大津市","city_kana":"オオツシ","town":"伊香立下在地町","town_kana":"イカダチシモザイジチョウ","prefecture_code":25},"0362":{"zip_code":"5200362","prefecture":"滋賀県","prefecture_kana":"シガケン","city":"大津市","city_kana":"オオツシ","town":"伊香立上龍華町","town_kana":"イカダチカミリュウゲチョウ","prefecture_code":25},"0363":{"zip_code":"5200363","prefecture":"滋賀県","prefecture_kana":"シガケン","city":"大津市","city_kana":"オオツシ","town":"伊香立下龍華町","town_kana":"イカダチシモリュウゲチョウ","prefecture_code":25},"0351":{"zip_code":"5200351","prefecture":"滋賀県","prefecture_kana":"シガケン","city":"大津市","city_kana":"オオツシ","town":"伊香立北在地町","town_kana":"イカダチキタザイジチョウ","prefecture_code":25},"0361":{"zip_code":"5200361","prefecture":"滋賀県","prefecture_kana":"シガケン","city":"大津市","city_kana":"オオツシ","town":"伊香立途中町","town_kana":"イカダチトチュウチョウ","prefecture_code":25},"0355":{"zip_code":"5200355","prefecture":"滋賀県","prefecture_kana":"シガケン","city":"大津市","city_kana":"オオツシ","town":"伊香立生津町","town_kana":"イカダチナマヅチョウ","prefecture_code":25},"0354":{"zip_code":"5200354","prefecture":"滋賀県","prefecture_kana":"シガケン","city":"大津市","city_kana":"オオツシ","town":"伊香立南庄町","town_kana":"イカダチミナミショウチョウ","prefecture_code":25},"0353":{"zip_code":"5200353","prefecture":"滋賀県","prefecture_kana":"シガケン","city":"大津市","city_kana":"オオツシ","town":"伊香立向在地町","town_kana":"イカダチムカイザイジチョウ","prefecture_code":25},"0827":{"zip_code":"5200827","prefecture":"滋賀県","prefecture_kana":"シガケン","city":"大津市","city_kana":"オオツシ","town":"池の里","town_kana":"イケノサト","prefecture_code":25},"2272":{"zip_code":"5202272","prefecture":"滋賀県","prefecture_kana":"シガケン","city":"大津市","city_kana":"オオツシ","town":"石居","town_kana":"イシズエ","prefecture_code":25},"0805":{"zip_code":"5200805","prefecture":"滋賀県","prefecture_kana":"シガケン","city":"大津市","city_kana":"オオツシ","town":"石場","town_kana":"イシバ","prefecture_code":25},"0869":{"zip_code":"5200869","prefecture":"滋賀県","prefecture_kana":"シガケン","city":"大津市","city_kana":"オオツシ","town":"石山内畑町","town_kana":"イシヤマウチハタチョウ","prefecture_code":25},"0860":{"zip_code":"5200860","prefecture":"滋賀県","prefecture_kana":"シガケン","city":"大津市","city_kana":"オオツシ","town":"石山千町","town_kana":"イシヤマセンチョウ","prefecture_code":25},"0868":{"zip_code":"5200868","prefecture":"滋賀県","prefecture_kana":"シガケン","city":"大津市","city_kana":"オオツシ","town":"石山外畑町","town_kana":"イシヤマソトハタチョウ","prefecture_code":25},"0861":{"zip_code":"5200861","prefecture":"滋賀県","prefecture_kana":"シガケン","city":"大津市","city_kana":"オオツシ","town":"石山寺","town_kana":"イシヤマデラ","prefecture_code":25},"0866":{"zip_code":"5200866","prefecture":"滋賀県","prefecture_kana":"シガケン","city":"大津市","city_kana":"オオツシ","town":"石山寺辺町","town_kana":"イシヤマテラベチョウ","prefecture_code":25},"2153":{"zip_code":"5202153","prefecture":"滋賀県","prefecture_kana":"シガケン","city":"大津市","city_kana":"オオツシ","town":"一里山","town_kana":"イチリヤマ","prefecture_code":25},"2271":{"zip_code":"5202271","prefecture":"滋賀県","prefecture_kana":"シガケン","city":"大津市","city_kana":"オオツシ","town":"稲津","town_kana":"イナヅ","prefecture_code":25},"0065":{"zip_code":"5200065","prefecture":"滋賀県","prefecture_kana":"シガケン","city":"大津市","city_kana":"オオツシ","town":"稲葉台","town_kana":"イナバダイ","prefecture_code":25},"0241":{"zip_code":"5200241","prefecture":"滋賀県","prefecture_kana":"シガケン","city":"大津市","city_kana":"オオツシ","town":"今堅田","town_kana":"イマカタタ","prefecture_code":25},"0806":{"zip_code":"5200806","prefecture":"滋賀県","prefecture_kana":"シガケン","city":"大津市","city_kana":"オオツシ","town":"打出浜","town_kana":"ウチデハマ","prefecture_code":25},"0051":{"zip_code":"5200051","prefecture":"滋賀県","prefecture_kana":"シガケン","city":"大津市","city_kana":"オオツシ","town":"梅林","town_kana":"ウメバヤシ","prefecture_code":25},"2275":{"zip_code":"5202275","prefecture":"滋賀県","prefecture_kana":"シガケン","city":"大津市","city_kana":"オオツシ","town":"枝","town_kana":"エダ","prefecture_code":25},"0064":{"zip_code":"5200064","prefecture":"滋賀県","prefecture_kana":"シガケン","city":"大津市","city_kana":"オオツシ","town":"追分町","town_kana":"オイワケチョウ","prefecture_code":25},"0054":{"zip_code":"5200054","prefecture":"滋賀県","prefecture_kana":"シガケン","city":"大津市","city_kana":"オオツシ","town":"逢坂","town_kana":"オウサカ","prefecture_code":25},"0025":{"zip_code":"5200025","prefecture":"滋賀県","prefecture_kana":"シガケン","city":"大津市","city_kana":"オオツシ","town":"皇子が丘","town_kana":"オウジガオカ","prefecture_code":25},"2267":[{"zip_code":"5202267","prefecture":"滋賀県","prefecture_kana":"シガケン","city":"大津市","city_kana":"オオツシ","town":"大石小田原","town_kana":"オオイシオダワラ","prefecture_code":25},{"zip_code":"5202267","prefecture":"滋賀県","prefecture_kana":"シガケン","city":"大津市","city_kana":"オオツシ","town":"大石小田原町","town_kana":"オオイシオダワラチョウ","prefecture_code":25}],"2261":[{"zip_code":"5202261","prefecture":"滋賀県","prefecture_kana":"シガケン","city":"大津市","city_kana":"オオツシ","town":"大石曽束","town_kana":"オオイシソツカ","prefecture_code":25},{"zip_code":"5202261","prefecture":"滋賀県","prefecture_kana":"シガケン","city":"大津市","city_kana":"オオツシ","town":"大石曽束町","town_kana":"オオイシソツカチョウ","prefecture_code":25}],"2265":[{"zip_code":"5202265","prefecture":"滋賀県","prefecture_kana":"シガケン","city":"大津市","city_kana":"オオツシ","town":"大石富川","town_kana":"オオイシトミカワ","prefecture_code":25},{"zip_code":"5202265","prefecture":"滋賀県","prefecture_kana":"シガケン","city":"大津市","city_kana":"オオツシ","town":"大石富川町","town_kana":"オオイシトミカワチョウ","prefecture_code":25}],"2263":{"zip_code":"5202263","prefecture":"滋賀県","prefecture_kana":"シガケン","city":"大津市","city_kana":"オオツシ","town":"大石中","town_kana":"オオイシナカ","prefecture_code":25},"2264":{"zip_code":"5202264","prefecture":"滋賀県","prefecture_kana":"シガケン","city":"大津市","city_kana":"オオツシ","town":"大石東","town_kana":"オオイシヒガシ","prefecture_code":25},"2262":[{"zip_code":"5202262","prefecture":"滋賀県","prefecture_kana":"シガケン","city":"大津市","city_kana":"オオツシ","town":"大石淀","town_kana":"オオイシヨド","prefecture_code":25},{"zip_code":"5202262","prefecture":"滋賀県","prefecture_kana":"シガケン","city":"大津市","city_kana":"オオツシ","town":"大石淀町","town_kana":"オオイシヨドチョウ","prefecture_code":25}],"2266":{"zip_code":"5202266","prefecture":"滋賀県","prefecture_kana":"シガケン","city":"大津市","city_kana":"オオツシ","town":"大石龍門","town_kana":"オオイシリュウモン","prefecture_code":25},"2141":{"zip_code":"5202141","prefecture":"滋賀県","prefecture_kana":"シガケン","city":"大津市","city_kana":"オオツシ","town":"大江","town_kana":"オオエ","prefecture_code":25},"2144":{"zip_code":"5202144","prefecture":"滋賀県","prefecture_kana":"シガケン","city":"大津市","city_kana":"オオツシ","town":"大萱","town_kana":"オオガヤ","prefecture_code":25},"0247":{"zip_code":"5200247","prefecture":"滋賀県","prefecture_kana":"シガケン","city":"大津市","city_kana":"オオツシ","town":"仰木","town_kana":"オオギ","prefecture_code":25},"0245":{"zip_code":"5200245","prefecture":"滋賀県","prefecture_kana":"シガケン","city":"大津市","city_kana":"オオツシ","town":"仰木町","town_kana":"オオギチョウ","prefecture_code":25},"0246":{"zip_code":"5200246","prefecture":"滋賀県","prefecture_kana":"シガケン","city":"大津市","city_kana":"オオツシ","town":"仰木の里","town_kana":"オオギノサト","prefecture_code":25},"0248":{"zip_code":"5200248","prefecture":"滋賀県","prefecture_kana":"シガケン","city":"大津市","city_kana":"オオツシ","town":"仰木の里東","town_kana":"オオギノサトヒガシ","prefecture_code":25},"0062":{"zip_code":"5200062","prefecture":"滋賀県","prefecture_kana":"シガケン","city":"大津市","city_kana":"オオツシ","town":"大谷町","town_kana":"オオタニチョウ","prefecture_code":25},"2118":{"zip_code":"5202118","prefecture":"滋賀県","prefecture_kana":"シガケン","city":"大津市","city_kana":"オオツシ","town":"大鳥居","town_kana":"オオドリイ","prefecture_code":25},"0867":{"zip_code":"5200867","prefecture":"滋賀県","prefecture_kana":"シガケン","city":"大津市","city_kana":"オオツシ","town":"大平","town_kana":"オオヒラ","prefecture_code":25},"0101":{"zip_code":"5200101","prefecture":"滋賀県","prefecture_kana":"シガケン","city":"大津市","city_kana":"オオツシ","town":"雄琴","town_kana":"オゴト","prefecture_code":25},"0107":{"zip_code":"5200107","prefecture":"滋賀県","prefecture_kana":"シガケン","city":"大津市","city_kana":"オオツシ","town":"雄琴北","town_kana":"オゴトキタ","prefecture_code":25},"0053":{"zip_code":"5200053","prefecture":"滋賀県","prefecture_kana":"シガケン","city":"大津市","city_kana":"オオツシ","town":"音羽台","town_kana":"オトワダイ","prefecture_code":25},"0525":{"zip_code":"5200525","prefecture":"滋賀県","prefecture_kana":"シガケン","city":"大津市","city_kana":"オオツシ","town":"小野","town_kana":"オノ","prefecture_code":25},"0031":{"zip_code":"5200031","prefecture":"滋賀県","prefecture_kana":"シガケン","city":"大津市","city_kana":"オオツシ","town":"尾花川","town_kana":"オバナガワ","prefecture_code":25},"0036":{"zip_code":"5200036","prefecture":"滋賀県","prefecture_kana":"シガケン","city":"大津市","city_kana":"オオツシ","town":"園城寺町","town_kana":"オンジョウジチョウ","prefecture_code":25},"0012":{"zip_code":"5200012","prefecture":"滋賀県","prefecture_kana":"シガケン","city":"大津市","city_kana":"オオツシ","town":"鏡が浜","town_kana":"カガミガハマ","prefecture_code":25},"0055":{"zip_code":"5200055","prefecture":"滋賀県","prefecture_kana":"シガケン","city":"大津市","city_kana":"オオツシ","town":"春日町","town_kana":"カスガチョウ","prefecture_code":25},"0243":{"zip_code":"5200243","prefecture":"滋賀県","prefecture_kana":"シガケン","city":"大津市","city_kana":"オオツシ","town":"堅田","town_kana":"カタタ","prefecture_code":25},"0473":{"zip_code":"5200473","prefecture":"滋賀県","prefecture_kana":"シガケン","city":"大津市","city_kana":"オオツシ","town":"葛川梅ノ木町","town_kana":"カツラガワウメノキチョウ","prefecture_code":25},"0477":{"zip_code":"5200477","prefecture":"滋賀県","prefecture_kana":"シガケン","city":"大津市","city_kana":"オオツシ","town":"葛川木戸口町","town_kana":"カツラガワキドグチチョウ","prefecture_code":25},"0478":{"zip_code":"5200478","prefecture":"滋賀県","prefecture_kana":"シガケン","city":"大津市","city_kana":"オオツシ","town":"葛川坂下町","town_kana":"カツラガワサカシタチョウ","prefecture_code":25},"0476":{"zip_code":"5200476","prefecture":"滋賀県","prefecture_kana":"シガケン","city":"大津市","city_kana":"オオツシ","town":"葛川中村町","town_kana":"カツラガワナカムラチョウ","prefecture_code":25},"0472":{"zip_code":"5200472","prefecture":"滋賀県","prefecture_kana":"シガケン","city":"大津市","city_kana":"オオツシ","town":"葛川貫井町","town_kana":"カツラガワヌクイチョウ","prefecture_code":25},"0471":{"zip_code":"5200471","prefecture":"滋賀県","prefecture_kana":"シガケン","city":"大津市","city_kana":"オオツシ","town":"葛川細川町","town_kana":"カツラガワホソカワチョウ","prefecture_code":25},"0475":{"zip_code":"5200475","prefecture":"滋賀県","prefecture_kana":"シガケン","city":"大津市","city_kana":"オオツシ","town":"葛川坊村町","town_kana":"カツラガワボウムラチョウ","prefecture_code":25},"0474":{"zip_code":"5200474","prefecture":"滋賀県","prefecture_kana":"シガケン","city":"大津市","city_kana":"オオツシ","town":"葛川町居町","town_kana":"カツラガワマチイチョウ","prefecture_code":25},"2161":{"zip_code":"5202161","prefecture":"滋賀県","prefecture_kana":"シガケン","city":"大津市","city_kana":"オオツシ","town":"上田上桐生町","town_kana":"カミタナカミキリュウチョウ","prefecture_code":25},"2167":{"zip_code":"5202167","prefecture":"滋賀県","prefecture_kana":"シガケン","city":"大津市","city_kana":"オオツシ","town":"上田上芝原町","town_kana":"カミタナカミシバハラチョウ","prefecture_code":25},"2165":{"zip_code":"5202165","prefecture":"滋賀県","prefecture_kana":"シガケン","city":"大津市","city_kana":"オオツシ","town":"上田上新免町","town_kana":"カミタナカミシンメチョウ","prefecture_code":25},"2166":{"zip_code":"5202166","prefecture":"滋賀県","prefecture_kana":"シガケン","city":"大津市","city_kana":"オオツシ","town":"上田上堂町","town_kana":"カミタナカミドウチョウ","prefecture_code":25},"2164":{"zip_code":"5202164","prefecture":"滋賀県","prefecture_kana":"シガケン","city":"大津市","city_kana":"オオツシ","town":"上田上中野町","town_kana":"カミタナカミナカノチョウ","prefecture_code":25},"2163":{"zip_code":"5202163","prefecture":"滋賀県","prefecture_kana":"シガケン","city":"大津市","city_kana":"オオツシ","town":"上田上平野町","town_kana":"カミタナカミヒラノチョウ","prefecture_code":25},"2162":{"zip_code":"5202162","prefecture":"滋賀県","prefecture_kana":"シガケン","city":"大津市","city_kana":"オオツシ","town":"上田上牧町","town_kana":"カミタナカミマキチョウ","prefecture_code":25},"0061":{"zip_code":"5200061","prefecture":"滋賀県","prefecture_kana":"シガケン","city":"大津市","city_kana":"オオツシ","town":"神出開町","town_kana":"カミデヒラキマチ","prefecture_code":25},"2143":{"zip_code":"5202143","prefecture":"滋賀県","prefecture_kana":"シガケン","city":"大津市","city_kana":"オオツシ","town":"萱野浦","town_kana":"カヤノウラ","prefecture_code":25},"0106":{"zip_code":"5200106","prefecture":"滋賀県","prefecture_kana":"シガケン","city":"大津市","city_kana":"オオツシ","town":"唐崎","town_kana":"カラサキ","prefecture_code":25},"0851":{"zip_code":"5200851","prefecture":"滋賀県","prefecture_kana":"シガケン","city":"大津市","city_kana":"オオツシ","town":"唐橋町","town_kana":"カラハシチョウ","prefecture_code":25},"0013":{"zip_code":"5200013","prefecture":"滋賀県","prefecture_kana":"シガケン","city":"大津市","city_kana":"オオツシ","town":"勧学","town_kana":"カンガク","prefecture_code":25},"0032":{"zip_code":"5200032","prefecture":"滋賀県","prefecture_kana":"シガケン","city":"大津市","city_kana":"オオツシ","town":"観音寺","town_kana":"カンノンジ","prefecture_code":25},"0843":{"zip_code":"5200843","prefecture":"滋賀県","prefecture_kana":"シガケン","city":"大津市","city_kana":"オオツシ","town":"北大路","town_kana":"キタオオジ","prefecture_code":25},"0501":{"zip_code":"5200501","prefecture":"滋賀県","prefecture_kana":"シガケン","city":"大津市","city_kana":"オオツシ","town":"北小松","town_kana":"キタコマツ","prefecture_code":25},"0503":{"zip_code":"5200503","prefecture":"滋賀県","prefecture_kana":"シガケン","city":"大津市","city_kana":"オオツシ","town":"北比良","town_kana":"キタヒラ","prefecture_code":25},"0514":{"zip_code":"5200514","prefecture":"滋賀県","prefecture_kana":"シガケン","city":"大津市","city_kana":"オオツシ","town":"木戸","town_kana":"キド","prefecture_code":25},"0244":{"zip_code":"5200244","prefecture":"滋賀県","prefecture_kana":"シガケン","city":"大津市","city_kana":"オオツシ","town":"衣川","town_kana":"キヌガワ","prefecture_code":25},"0812":{"zip_code":"5200812","prefecture":"滋賀県","prefecture_kana":"シガケン","city":"大津市","city_kana":"オオツシ","town":"木下町","town_kana":"キノシタチョウ","prefecture_code":25},"0044":{"zip_code":"5200044","prefecture":"滋賀県","prefecture_kana":"シガケン","city":"大津市","city_kana":"オオツシ","town":"京町","town_kana":"キョウマチ","prefecture_code":25},"2111":{"zip_code":"5202111","prefecture":"滋賀県","prefecture_kana":"シガケン","city":"大津市","city_kana":"オオツシ","town":"桐生","town_kana":"キリュウ","prefecture_code":25},"2151":{"zip_code":"5202151","prefecture":"滋賀県","prefecture_kana":"シガケン","city":"大津市","city_kana":"オオツシ","town":"栗林町","town_kana":"クリバヤシチョウ","prefecture_code":25},"0527":{"zip_code":"5200527","prefecture":"滋賀県","prefecture_kana":"シガケン","city":"大津市","city_kana":"オオツシ","town":"栗原","town_kana":"クリハラ","prefecture_code":25},"2279":{"zip_code":"5202279","prefecture":"滋賀県","prefecture_kana":"シガケン","city":"大津市","city_kana":"オオツシ","town":"黒津","town_kana":"クロヅ","prefecture_code":25},"0224":{"zip_code":"5200224","prefecture":"滋賀県","prefecture_kana":"シガケン","city":"大津市","city_kana":"オオツシ","town":"向陽町","town_kana":"コウヨウチョウ","prefecture_code":25},"0844":{"zip_code":"5200844","prefecture":"滋賀県","prefecture_kana":"シガケン","city":"大津市","city_kana":"オオツシ","town":"国分","town_kana":"コクブ","prefecture_code":25},"0821":{"zip_code":"5200821","prefecture":"滋賀県","prefecture_kana":"シガケン","city":"大津市","city_kana":"オオツシ","town":"湖城が丘","town_kana":"コジョウガオカ","prefecture_code":25},"0532":{"zip_code":"5200532","prefecture":"滋賀県","prefecture_kana":"シガケン","city":"大津市","city_kana":"オオツシ","town":"湖青","town_kana":"コセイ","prefecture_code":25},"0035":{"zip_code":"5200035","prefecture":"滋賀県","prefecture_kana":"シガケン","city":"大津市","city_kana":"オオツシ","town":"小関町","town_kana":"コゼキチョウ","prefecture_code":25},"0834":{"zip_code":"5200834","prefecture":"滋賀県","prefecture_kana":"シガケン","city":"大津市","city_kana":"オオツシ","town":"御殿浜","town_kana":"ゴテンハマ","prefecture_code":25},"0103":{"zip_code":"5200103","prefecture":"滋賀県","prefecture_kana":"シガケン","city":"大津市","city_kana":"オオツシ","town":"木の岡町","town_kana":"コノオカチョウ","prefecture_code":25},"0037":{"zip_code":"5200037","prefecture":"滋賀県","prefecture_kana":"シガケン","city":"大津市","city_kana":"オオツシ","town":"御陵町","town_kana":"ゴリョウチョウ","prefecture_code":25},"0002":{"zip_code":"5200002","prefecture":"滋賀県","prefecture_kana":"シガケン","city":"大津市","city_kana":"オオツシ","town":"際川","town_kana":"サイガワ","prefecture_code":25},"0855":{"zip_code":"5200855","prefecture":"滋賀県","prefecture_kana":"シガケン","city":"大津市","city_kana":"オオツシ","town":"栄町","town_kana":"サカエマチ","prefecture_code":25},"0113":{"zip_code":"5200113","prefecture":"滋賀県","prefecture_kana":"シガケン","city":"大津市","city_kana":"オオツシ","town":"坂本","town_kana":"サカモト","prefecture_code":25},"0116":{"zip_code":"5200116","prefecture":"滋賀県","prefecture_kana":"シガケン","city":"大津市","city_kana":"オオツシ","town":"坂本本町","town_kana":"サカモトホンマチ","prefecture_code":25},"0816":{"zip_code":"5200816","prefecture":"滋賀県","prefecture_kana":"シガケン","city":"大津市","city_kana":"オオツシ","town":"相模町","town_kana":"サガミチョウ","prefecture_code":25},"0026":{"zip_code":"5200026","prefecture":"滋賀県","prefecture_kana":"シガケン","city":"大津市","city_kana":"オオツシ","town":"桜野町","town_kana":"サクラノチョウ","prefecture_code":25},"2276":{"zip_code":"5202276","prefecture":"滋賀県","prefecture_kana":"シガケン","city":"大津市","city_kana":"オオツシ","town":"里","town_kana":"サト","prefecture_code":25},"2131":{"zip_code":"5202131","prefecture":"滋賀県","prefecture_kana":"シガケン","city":"大津市","city_kana":"オオツシ","town":"三大寺","town_kana":"サンダイジ","prefecture_code":25},"0006":{"zip_code":"5200006","prefecture":"滋賀県","prefecture_kana":"シガケン","city":"大津市","city_kana":"オオツシ","town":"滋賀里","town_kana":"シガサト","prefecture_code":25},"2117":{"zip_code":"5202117","prefecture":"滋賀県","prefecture_kana":"シガケン","city":"大津市","city_kana":"オオツシ","town":"芝原","town_kana":"シバハラ","prefecture_code":25},"0042":{"zip_code":"5200042","prefecture":"滋賀県","prefecture_kana":"シガケン","city":"大津市","city_kana":"オオツシ","town":"島の関","town_kana":"シマノセキ","prefecture_code":25},"0105":{"zip_code":"5200105","prefecture":"滋賀県","prefecture_kana":"シガケン","city":"大津市","city_kana":"オオツシ","town":"下阪本","town_kana":"シモサカモト","prefecture_code":25},"2135":{"zip_code":"5202135","prefecture":"滋賀県","prefecture_kana":"シガケン","city":"大津市","city_kana":"オオツシ","town":"松陽","town_kana":"ショウヨウ","prefecture_code":25},"0817":{"zip_code":"5200817","prefecture":"滋賀県","prefecture_kana":"シガケン","city":"大津市","city_kana":"オオツシ","town":"昭和町","town_kana":"ショウワチョウ","prefecture_code":25},"0015":{"zip_code":"5200015","prefecture":"滋賀県","prefecture_kana":"シガケン","city":"大津市","city_kana":"オオツシ","town":"神宮町","town_kana":"ジングウチョウ","prefecture_code":25},"2115":{"zip_code":"5202115","prefecture":"滋賀県","prefecture_kana":"シガケン","city":"大津市","city_kana":"オオツシ","town":"新免","town_kana":"シンメン","prefecture_code":25},"2132":{"zip_code":"5202132","prefecture":"滋賀県","prefecture_kana":"シガケン","city":"大津市","city_kana":"オオツシ","town":"神領","town_kana":"ジンリョウ","prefecture_code":25},"0531":{"zip_code":"5200531","prefecture":"滋賀県","prefecture_kana":"シガケン","city":"大津市","city_kana":"オオツシ","town":"水明","town_kana":"スイメイ","prefecture_code":25},"0056":{"zip_code":"5200056","prefecture":"滋賀県","prefecture_kana":"シガケン","city":"大津市","city_kana":"オオツシ","town":"末広町","town_kana":"スエヒロチョウ","prefecture_code":25},"0836":{"zip_code":"5200836","prefecture":"滋賀県","prefecture_kana":"シガケン","city":"大津市","city_kana":"オオツシ","town":"杉浦町","town_kana":"スギウラチョウ","prefecture_code":25},"0225":{"zip_code":"5200225","prefecture":"滋賀県","prefecture_kana":"シガケン","city":"大津市","city_kana":"オオツシ","town":"清風町","town_kana":"セイフウチョウ","prefecture_code":25},"0833":{"zip_code":"5200833","prefecture":"滋賀県","prefecture_kana":"シガケン","city":"大津市","city_kana":"オオツシ","town":"晴嵐","town_kana":"セイラン","prefecture_code":25},"0227":{"zip_code":"5200227","prefecture":"滋賀県","prefecture_kana":"シガケン","city":"大津市","city_kana":"オオツシ","town":"清和町","town_kana":"セイワチョウ","prefecture_code":25},"2277":{"zip_code":"5202277","prefecture":"滋賀県","prefecture_kana":"シガケン","city":"大津市","city_kana":"オオツシ","town":"関津","town_kana":"セキノツ","prefecture_code":25},"0815":{"zip_code":"5200815","prefecture":"滋賀県","prefecture_kana":"シガケン","city":"大津市","city_kana":"オオツシ","town":"膳所","town_kana":"ゼゼ","prefecture_code":25},"0825":{"zip_code":"5200825","prefecture":"滋賀県","prefecture_kana":"シガケン","city":"大津市","city_kana":"オオツシ","town":"膳所池ノ内町","town_kana":"ゼゼイケノウチチョウ","prefecture_code":25},"0823":{"zip_code":"5200823","prefecture":"滋賀県","prefecture_kana":"シガケン","city":"大津市","city_kana":"オオツシ","town":"膳所上別保町","town_kana":"ゼゼカミベッポチョウ","prefecture_code":25},"0824":{"zip_code":"5200824","prefecture":"滋賀県","prefecture_kana":"シガケン","city":"大津市","city_kana":"オオツシ","town":"膳所平尾町","town_kana":"ゼゼヒラオチョウ","prefecture_code":25},"2134":{"zip_code":"5202134","prefecture":"滋賀県","prefecture_kana":"シガケン","city":"大津市","city_kana":"オオツシ","town":"瀬田","town_kana":"セタ","prefecture_code":25},"2123":{"zip_code":"5202123","prefecture":"滋賀県","prefecture_kana":"シガケン","city":"大津市","city_kana":"オオツシ","town":"瀬田大江町","town_kana":"セタオオエチョウ","prefecture_code":25},"2124":{"zip_code":"5202124","prefecture":"滋賀県","prefecture_kana":"シガケン","city":"大津市","city_kana":"オオツシ","town":"瀬田神領町","town_kana":"セタジンリョウチョウ","prefecture_code":25},"2121":{"zip_code":"5202121","prefecture":"滋賀県","prefecture_kana":"シガケン","city":"大津市","city_kana":"オオツシ","town":"瀬田月輪町","town_kana":"セタツキノワチョウ","prefecture_code":25},"2125":{"zip_code":"5202125","prefecture":"滋賀県","prefecture_kana":"シガケン","city":"大津市","city_kana":"オオツシ","town":"瀬田橋本町","town_kana":"セタハシモトチョウ","prefecture_code":25},"2122":{"zip_code":"5202122","prefecture":"滋賀県","prefecture_kana":"シガケン","city":"大津市","city_kana":"オオツシ","town":"瀬田南大萱町","town_kana":"セタミナミオオガヤチョウ","prefecture_code":25},"0028":{"zip_code":"5200028","prefecture":"滋賀県","prefecture_kana":"シガケン","city":"大津市","city_kana":"オオツシ","town":"千石台","town_kana":"センゴクダイ","prefecture_code":25},"0863":{"zip_code":"5200863","prefecture":"滋賀県","prefecture_kana":"シガケン","city":"大津市","city_kana":"オオツシ","town":"千町","town_kana":"センチョウ","prefecture_code":25},"0842":{"zip_code":"5200842","prefecture":"滋賀県","prefecture_kana":"シガケン","city":"大津市","city_kana":"オオツシ","town":"園山","town_kana":"ソノヤマ","prefecture_code":25},"2278":{"zip_code":"5202278","prefecture":"滋賀県","prefecture_kana":"シガケン","city":"大津市","city_kana":"オオツシ","town":"太子","town_kana":"タイシ","prefecture_code":25},"0512":{"zip_code":"5200512","prefecture":"滋賀県","prefecture_kana":"シガケン","city":"大津市","city_kana":"オオツシ","town":"大物","town_kana":"ダイモツ","prefecture_code":25},"0033":{"zip_code":"5200033","prefecture":"滋賀県","prefecture_kana":"シガケン","city":"大津市","city_kana":"オオツシ","town":"大門通","town_kana":"ダイモンドオリ","prefecture_code":25},"0005":{"zip_code":"5200005","prefecture":"滋賀県","prefecture_kana":"シガケン","city":"大津市","city_kana":"オオツシ","town":"高砂町","town_kana":"タカサゴチョウ","prefecture_code":25},"0803":{"zip_code":"5200803","prefecture":"滋賀県","prefecture_kana":"シガケン","city":"大津市","city_kana":"オオツシ","town":"竜が丘","town_kana":"タツガオカ","prefecture_code":25},"0852":{"zip_code":"5200852","prefecture":"滋賀県","prefecture_kana":"シガケン","city":"大津市","city_kana":"オオツシ","town":"田辺町","town_kana":"タナベチョウ","prefecture_code":25},"2142":{"zip_code":"5202142","prefecture":"滋賀県","prefecture_kana":"シガケン","city":"大津市","city_kana":"オオツシ","town":"玉野浦","town_kana":"タマノウラ","prefecture_code":25},"2145":{"zip_code":"5202145","prefecture":"滋賀県","prefecture_kana":"シガケン","city":"大津市","city_kana":"オオツシ","town":"大将軍","town_kana":"タイショウグン","prefecture_code":25},"0111":{"zip_code":"5200111","prefecture":"滋賀県","prefecture_kana":"シガケン","city":"大津市","city_kana":"オオツシ","town":"千野","town_kana":"チノ","prefecture_code":25},"0023":{"zip_code":"5200023","prefecture":"滋賀県","prefecture_kana":"シガケン","city":"大津市","city_kana":"オオツシ","town":"茶が崎","town_kana":"チャガサキ","prefecture_code":25},"0066":{"zip_code":"5200066","prefecture":"滋賀県","prefecture_kana":"シガケン","city":"大津市","city_kana":"オオツシ","town":"茶戸町","town_kana":"チャドチョウ","prefecture_code":25},"0043":{"zip_code":"5200043","prefecture":"滋賀県","prefecture_kana":"シガケン","city":"大津市","city_kana":"オオツシ","town":"中央","town_kana":"チュウオウ","prefecture_code":25},"2152":{"zip_code":"5202152","prefecture":"滋賀県","prefecture_kana":"シガケン","city":"大津市","city_kana":"オオツシ","town":"月輪","town_kana":"ツキノワ","prefecture_code":25},"0826":{"zip_code":"5200826","prefecture":"滋賀県","prefecture_kana":"シガケン","city":"大津市","city_kana":"オオツシ","town":"鶴の里","town_kana":"ツルノサト","prefecture_code":25},"2116":{"zip_code":"5202116","prefecture":"滋賀県","prefecture_kana":"シガケン","city":"大津市","city_kana":"オオツシ","town":"堂","town_kana":"ドウ","prefecture_code":25},"0854":{"zip_code":"5200854","prefecture":"滋賀県","prefecture_kana":"シガケン","city":"大津市","city_kana":"オオツシ","town":"鳥居川町","town_kana":"トリイガワチョウ","prefecture_code":25},"0837":{"zip_code":"5200837","prefecture":"滋賀県","prefecture_kana":"シガケン","city":"大津市","city_kana":"オオツシ","town":"中庄","town_kana":"ナカショウ","prefecture_code":25},"2114":{"zip_code":"5202114","prefecture":"滋賀県","prefecture_kana":"シガケン","city":"大津市","city_kana":"オオツシ","town":"中野","town_kana":"ナカノ","prefecture_code":25},"0046":{"zip_code":"5200046","prefecture":"滋賀県","prefecture_kana":"シガケン","city":"大津市","city_kana":"オオツシ","town":"長等","town_kana":"ナガラ","prefecture_code":25},"0865":{"zip_code":"5200865","prefecture":"滋賀県","prefecture_kana":"シガケン","city":"大津市","city_kana":"オオツシ","town":"南郷","town_kana":"ナンゴウ","prefecture_code":25},"0871":{"zip_code":"5200871","prefecture":"滋賀県","prefecture_kana":"シガケン","city":"大津市","city_kana":"オオツシ","town":"南郷上山町","town_kana":"ナンゴウカミヤマチョウ","prefecture_code":25},"0801":{"zip_code":"5200801","prefecture":"滋賀県","prefecture_kana":"シガケン","city":"大津市","city_kana":"オオツシ","town":"におの浜","town_kana":"ニオノハマ","prefecture_code":25},"0027":{"zip_code":"5200027","prefecture":"滋賀県","prefecture_kana":"シガケン","city":"大津市","city_kana":"オオツシ","town":"錦織","town_kana":"ニシコオリ","prefecture_code":25},"0818":{"zip_code":"5200818","prefecture":"滋賀県","prefecture_kana":"シガケン","city":"大津市","city_kana":"オオツシ","town":"西の庄","town_kana":"ニシノショウ","prefecture_code":25},"0021":{"zip_code":"5200021","prefecture":"滋賀県","prefecture_kana":"シガケン","city":"大津市","city_kana":"オオツシ","town":"二本松","town_kana":"ニホンマツ","prefecture_code":25},"0102":{"zip_code":"5200102","prefecture":"滋賀県","prefecture_kana":"シガケン","city":"大津市","city_kana":"オオツシ","town":"苗鹿","town_kana":"ノウカ","prefecture_code":25},"2133":{"zip_code":"5202133","prefecture":"滋賀県","prefecture_kana":"シガケン","city":"大津市","city_kana":"オオツシ","town":"野郷原","town_kana":"ノゴウハラ","prefecture_code":25},"2273":{"zip_code":"5202273","prefecture":"滋賀県","prefecture_kana":"シガケン","city":"大津市","city_kana":"オオツシ","town":"羽栗","town_kana":"ハグリ","prefecture_code":25},"0001":{"zip_code":"5200001","prefecture":"滋賀県","prefecture_kana":"シガケン","city":"大津市","city_kana":"オオツシ","town":"蓮池町","town_kana":"ハスイケチョウ","prefecture_code":25},"0515":{"zip_code":"5200515","prefecture":"滋賀県","prefecture_kana":"シガケン","city":"大津市","city_kana":"オオツシ","town":"八屋戸","town_kana":"ハチヤド","prefecture_code":25},"0222":{"zip_code":"5200222","prefecture":"滋賀県","prefecture_kana":"シガケン","city":"大津市","city_kana":"オオツシ","town":"花園町","town_kana":"ハナゾノチョウ","prefecture_code":25},"0047":{"zip_code":"5200047","prefecture":"滋賀県","prefecture_kana":"シガケン","city":"大津市","city_kana":"オオツシ","town":"浜大津","town_kana":"ハマオオツ","prefecture_code":25},"0041":{"zip_code":"5200041","prefecture":"滋賀県","prefecture_kana":"シガケン","city":"大津市","city_kana":"オオツシ","town":"浜町","town_kana":"ハママチ","prefecture_code":25},"0802":{"zip_code":"5200802","prefecture":"滋賀県","prefecture_kana":"シガケン","city":"大津市","city_kana":"オオツシ","town":"馬場","town_kana":"バンバ","prefecture_code":25},"0016":{"zip_code":"5200016","prefecture":"滋賀県","prefecture_kana":"シガケン","city":"大津市","city_kana":"オオツシ","town":"比叡平","town_kana":"ヒエイダイラ","prefecture_code":25},"0104":{"zip_code":"5200104","prefecture":"滋賀県","prefecture_kana":"シガケン","city":"大津市","city_kana":"オオツシ","town":"比叡辻","town_kana":"ヒエイツジ","prefecture_code":25},"0856":{"zip_code":"5200856","prefecture":"滋賀県","prefecture_kana":"シガケン","city":"大津市","city_kana":"オオツシ","town":"光が丘町","town_kana":"ヒカリガオカチョウ","prefecture_code":25},"0112":{"zip_code":"5200112","prefecture":"滋賀県","prefecture_kana":"シガケン","city":"大津市","city_kana":"オオツシ","town":"日吉台","town_kana":"ヒヨシダイ","prefecture_code":25},"0862":{"zip_code":"5200862","prefecture":"滋賀県","prefecture_kana":"シガケン","city":"大津市","city_kana":"オオツシ","town":"平津","town_kana":"ヒラツ","prefecture_code":25},"2113":{"zip_code":"5202113","prefecture":"滋賀県","prefecture_kana":"シガケン","city":"大津市","city_kana":"オオツシ","town":"平野","town_kana":"ヒラノ","prefecture_code":25},"0067":{"zip_code":"5200067","prefecture":"滋賀県","prefecture_kana":"シガケン","city":"大津市","city_kana":"オオツシ","town":"藤尾奥町","town_kana":"フジオオクマチ","prefecture_code":25},"0846":{"zip_code":"5200846","prefecture":"滋賀県","prefecture_kana":"シガケン","city":"大津市","city_kana":"オオツシ","town":"富士見台","town_kana":"フジミダイ","prefecture_code":25},"0045":{"zip_code":"5200045","prefecture":"滋賀県","prefecture_kana":"シガケン","city":"大津市","city_kana":"オオツシ","town":"札の辻","town_kana":"フダノツジ","prefecture_code":25},"0835":{"zip_code":"5200835","prefecture":"滋賀県","prefecture_kana":"シガケン","city":"大津市","city_kana":"オオツシ","town":"別保","town_kana":"ベツポ","prefecture_code":25},"0853":{"zip_code":"5200853","prefecture":"滋賀県","prefecture_kana":"シガケン","city":"大津市","city_kana":"オオツシ","town":"螢谷","town_kana":"ホタルダニ","prefecture_code":25},"0242":{"zip_code":"5200242","prefecture":"滋賀県","prefecture_kana":"シガケン","city":"大津市","city_kana":"オオツシ","town":"本堅田","town_kana":"ホンカタタ","prefecture_code":25},"0814":{"zip_code":"5200814","prefecture":"滋賀県","prefecture_kana":"シガケン","city":"大津市","city_kana":"オオツシ","town":"本丸町","town_kana":"ホンマルチョウ","prefecture_code":25},"2112":{"zip_code":"5202112","prefecture":"滋賀県","prefecture_kana":"シガケン","city":"大津市","city_kana":"オオツシ","town":"牧","town_kana":"マキ","prefecture_code":25},"2102":{"zip_code":"5202102","prefecture":"滋賀県","prefecture_kana":"シガケン","city":"大津市","city_kana":"オオツシ","town":"松が丘","town_kana":"マツガオカ","prefecture_code":25},"0831":{"zip_code":"5200831","prefecture":"滋賀県","prefecture_kana":"シガケン","city":"大津市","city_kana":"オオツシ","town":"松原町","town_kana":"マツバラチョウ","prefecture_code":25},"0807":{"zip_code":"5200807","prefecture":"滋賀県","prefecture_kana":"シガケン","city":"大津市","city_kana":"オオツシ","town":"松本","town_kana":"マツモト","prefecture_code":25},"0024":{"zip_code":"5200024","prefecture":"滋賀県","prefecture_kana":"シガケン","city":"大津市","city_kana":"オオツシ","town":"松山町","town_kana":"マツヤマチョウ","prefecture_code":25},"0232":{"zip_code":"5200232","prefecture":"滋賀県","prefecture_kana":"シガケン","city":"大津市","city_kana":"オオツシ","town":"真野","town_kana":"マノ","prefecture_code":25},"0234":{"zip_code":"5200234","prefecture":"滋賀県","prefecture_kana":"シガケン","city":"大津市","city_kana":"オオツシ","town":"真野家田町","town_kana":"マノイエダチョウ","prefecture_code":25},"0235":{"zip_code":"5200235","prefecture":"滋賀県","prefecture_kana":"シガケン","city":"大津市","city_kana":"オオツシ","town":"真野大野","town_kana":"マノオオノ","prefecture_code":25},"0236":{"zip_code":"5200236","prefecture":"滋賀県","prefecture_kana":"シガケン","city":"大津市","city_kana":"オオツシ","town":"真野佐川町","town_kana":"マノサガワチョウ","prefecture_code":25},"0233":{"zip_code":"5200233","prefecture":"滋賀県","prefecture_kana":"シガケン","city":"大津市","city_kana":"オオツシ","town":"真野谷口町","town_kana":"マノタニグチチョウ","prefecture_code":25},"0231":{"zip_code":"5200231","prefecture":"滋賀県","prefecture_kana":"シガケン","city":"大津市","city_kana":"オオツシ","town":"真野普門","town_kana":"マノフモン","prefecture_code":25},"0813":{"zip_code":"5200813","prefecture":"滋賀県","prefecture_kana":"シガケン","city":"大津市","city_kana":"オオツシ","town":"丸の内町","town_kana":"マルノウチチョウ","prefecture_code":25},"0034":{"zip_code":"5200034","prefecture":"滋賀県","prefecture_kana":"シガケン","city":"大津市","city_kana":"オオツシ","town":"三井寺町","town_kana":"ミイデラチョウ","prefecture_code":25},"0841":{"zip_code":"5200841","prefecture":"滋賀県","prefecture_kana":"シガケン","city":"大津市","city_kana":"オオツシ","town":"美崎町","town_kana":"ミサキチョウ","prefecture_code":25},"0004":{"zip_code":"5200004","prefecture":"滋賀県","prefecture_kana":"シガケン","city":"大津市","city_kana":"オオツシ","town":"見世","town_kana":"ミセ","prefecture_code":25},"0223":{"zip_code":"5200223","prefecture":"滋賀県","prefecture_kana":"シガケン","city":"大津市","city_kana":"オオツシ","town":"美空町","town_kana":"ミソラチョウ","prefecture_code":25},"0221":{"zip_code":"5200221","prefecture":"滋賀県","prefecture_kana":"シガケン","city":"大津市","city_kana":"オオツシ","town":"緑町","town_kana":"ミドリチョウ","prefecture_code":25},"0502":{"zip_code":"5200502","prefecture":"滋賀県","prefecture_kana":"シガケン","city":"大津市","city_kana":"オオツシ","town":"南小松","town_kana":"ミナミコマツ","prefecture_code":25},"0011":{"zip_code":"5200011","prefecture":"滋賀県","prefecture_kana":"シガケン","city":"大津市","city_kana":"オオツシ","town":"南志賀","town_kana":"ミナミシガ","prefecture_code":25},"0018":{"zip_code":"5200018","prefecture":"滋賀県","prefecture_kana":"シガケン","city":"大津市","city_kana":"オオツシ","town":"南滋賀町","town_kana":"ミナミシガチョウ","prefecture_code":25},"0511":{"zip_code":"5200511","prefecture":"滋賀県","prefecture_kana":"シガケン","city":"大津市","city_kana":"オオツシ","town":"南比良","town_kana":"ミナミヒラ","prefecture_code":25},"0516":{"zip_code":"5200516","prefecture":"滋賀県","prefecture_kana":"シガケン","city":"大津市","city_kana":"オオツシ","town":"南船路","town_kana":"ミナミフナジ","prefecture_code":25},"0057":{"zip_code":"5200057","prefecture":"滋賀県","prefecture_kana":"シガケン","city":"大津市","city_kana":"オオツシ","town":"御幸町","town_kana":"ミユキチョウ","prefecture_code":25},"0804":{"zip_code":"5200804","prefecture":"滋賀県","prefecture_kana":"シガケン","city":"大津市","city_kana":"オオツシ","town":"本宮","town_kana":"モトミヤ","prefecture_code":25},"2274":{"zip_code":"5202274","prefecture":"滋賀県","prefecture_kana":"シガケン","city":"大津市","city_kana":"オオツシ","town":"森","town_kana":"モリ","prefecture_code":25},"0022":{"zip_code":"5200022","prefecture":"滋賀県","prefecture_kana":"シガケン","city":"大津市","city_kana":"オオツシ","town":"柳が崎","town_kana":"ヤナガサキ","prefecture_code":25},"0014":{"zip_code":"5200014","prefecture":"滋賀県","prefecture_kana":"シガケン","city":"大津市","city_kana":"オオツシ","town":"柳川","town_kana":"ヤナガワ","prefecture_code":25},"0038":{"zip_code":"5200038","prefecture":"滋賀県","prefecture_kana":"シガケン","city":"大津市","city_kana":"オオツシ","town":"山上町","town_kana":"ヤマガミチョウ","prefecture_code":25},"0017":{"zip_code":"5200017","prefecture":"滋賀県","prefecture_kana":"シガケン","city":"大津市","city_kana":"オオツシ","town":"山中町","town_kana":"ヤマナカチョウ","prefecture_code":25},"0357":{"zip_code":"5200357","prefecture":"滋賀県","prefecture_kana":"シガケン","city":"大津市","city_kana":"オオツシ","town":"山百合の丘","town_kana":"ヤマユリノオカ","prefecture_code":25},"0115":{"zip_code":"5200115","prefecture":"滋賀県","prefecture_kana":"シガケン","city":"大津市","city_kana":"オオツシ","town":"弥生町","town_kana":"ヤヨイチョウ","prefecture_code":25},"0811":{"zip_code":"5200811","prefecture":"滋賀県","prefecture_kana":"シガケン","city":"大津市","city_kana":"オオツシ","town":"由美浜","town_kana":"ユミハマ","prefecture_code":25},"0226":{"zip_code":"5200226","prefecture":"滋賀県","prefecture_kana":"シガケン","city":"大津市","city_kana":"オオツシ","town":"陽明町","town_kana":"ヨウメイチョウ","prefecture_code":25},"0063":{"zip_code":"5200063","prefecture":"滋賀県","prefecture_kana":"シガケン","city":"大津市","city_kana":"オオツシ","town":"横木","town_kana":"ヨコギ","prefecture_code":25},"0845":{"zip_code":"5200845","prefecture":"滋賀県","prefecture_kana":"シガケン","city":"大津市","city_kana":"オオツシ","town":"若葉台","town_kana":"ワカバダイ","prefecture_code":25},"0524":{"zip_code":"5200524","prefecture":"滋賀県","prefecture_kana":"シガケン","city":"大津市","city_kana":"オオツシ","town":"和邇今宿","town_kana":"ワニイマジュク","prefecture_code":25},"0529":{"zip_code":"5200529","prefecture":"滋賀県","prefecture_kana":"シガケン","city":"大津市","city_kana":"オオツシ","town":"和邇春日","town_kana":"ワニカスガ","prefecture_code":25},"0521":{"zip_code":"5200521","prefecture":"滋賀県","prefecture_kana":"シガケン","city":"大津市","city_kana":"オオツシ","town":"和邇北浜","town_kana":"ワニキタハマ","prefecture_code":25},"0528":{"zip_code":"5200528","prefecture":"滋賀県","prefecture_kana":"シガケン","city":"大津市","city_kana":"オオツシ","town":"和邇高城","town_kana":"ワニタカシロ","prefecture_code":25},"0526":{"zip_code":"5200526","prefecture":"滋賀県","prefecture_kana":"シガケン","city":"大津市","city_kana":"オオツシ","town":"和邇中","town_kana":"ワニナカ","prefecture_code":25},"0522":{"zip_code":"5200522","prefecture":"滋賀県","prefecture_kana":"シガケン","city":"大津市","city_kana":"オオツシ","town":"和邇中浜","town_kana":"ワニナカハマ","prefecture_code":25},"0523":{"zip_code":"5200523","prefecture":"滋賀県","prefecture_kana":"シガケン","city":"大津市","city_kana":"オオツシ","town":"和邇南浜","town_kana":"ワニミナミハマ","prefecture_code":25},"3000":{"zip_code":"5203000","prefecture":"滋賀県","prefecture_kana":"シガケン","city":"栗東市","city_kana":"リットウシ","town":"","town_kana":"","prefecture_code":25},"3003":{"zip_code":"5203003","prefecture":"滋賀県","prefecture_kana":"シガケン","city":"栗東市","city_kana":"リットウシ","town":"荒張","town_kana":"アラハリ","prefecture_code":25},"3015":{"zip_code":"5203015","prefecture":"滋賀県","prefecture_kana":"シガケン","city":"栗東市","city_kana":"リットウシ","town":"安養寺","town_kana":"アンヨウジ","prefecture_code":25},"3044":{"zip_code":"5203044","prefecture":"滋賀県","prefecture_kana":"シガケン","city":"栗東市","city_kana":"リットウシ","town":"伊勢落","town_kana":"イセオチ","prefecture_code":25},"3006":{"zip_code":"5203006","prefecture":"滋賀県","prefecture_kana":"シガケン","city":"栗東市","city_kana":"リットウシ","town":"井上","town_kana":"イノウエ","prefecture_code":25},"3046":{"zip_code":"5203046","prefecture":"滋賀県","prefecture_kana":"シガケン","city":"栗東市","city_kana":"リットウシ","town":"大橋","town_kana":"オオハシ","prefecture_code":25},"3012":{"zip_code":"5203012","prefecture":"滋賀県","prefecture_kana":"シガケン","city":"栗東市","city_kana":"リットウシ","town":"岡","town_kana":"オカ","prefecture_code":25},"3024":{"zip_code":"5203024","prefecture":"滋賀県","prefecture_kana":"シガケン","city":"栗東市","city_kana":"リットウシ","town":"小柿","town_kana":"オガキ","prefecture_code":25},"3016":{"zip_code":"5203016","prefecture":"滋賀県","prefecture_kana":"シガケン","city":"栗東市","city_kana":"リットウシ","town":"小野","town_kana":"オノ","prefecture_code":25},"3033":{"zip_code":"5203033","prefecture":"滋賀県","prefecture_kana":"シガケン","city":"栗東市","city_kana":"リットウシ","town":"笠川","town_kana":"カサガワ","prefecture_code":25},"3004":{"zip_code":"5203004","prefecture":"滋賀県","prefecture_kana":"シガケン","city":"栗東市","city_kana":"リットウシ","town":"上砥山","town_kana":"カミトヤマ","prefecture_code":25},"3022":{"zip_code":"5203022","prefecture":"滋賀県","prefecture_kana":"シガケン","city":"栗東市","city_kana":"リットウシ","town":"上鈎","town_kana":"カミマガリ","prefecture_code":25},"3032":{"zip_code":"5203032","prefecture":"滋賀県","prefecture_kana":"シガケン","city":"栗東市","city_kana":"リットウシ","town":"苅原","town_kana":"カリハラ","prefecture_code":25},"3014":{"zip_code":"5203014","prefecture":"滋賀県","prefecture_kana":"シガケン","city":"栗東市","city_kana":"リットウシ","town":"川辺","town_kana":"カワヅラ","prefecture_code":25},"3002":{"zip_code":"5203002","prefecture":"滋賀県","prefecture_kana":"シガケン","city":"栗東市","city_kana":"リットウシ","town":"観音寺","town_kana":"カンオンジ","prefecture_code":25},"3037":{"zip_code":"5203037","prefecture":"滋賀県","prefecture_kana":"シガケン","city":"栗東市","city_kana":"リットウシ","town":"北中小路","town_kana":"キタナカコウジ","prefecture_code":25},"3034":{"zip_code":"5203034","prefecture":"滋賀県","prefecture_kana":"シガケン","city":"栗東市","city_kana":"リットウシ","town":"小平井","town_kana":"コビライ","prefecture_code":25},"3011":{"zip_code":"5203011","prefecture":"滋賀県","prefecture_kana":"シガケン","city":"栗東市","city_kana":"リットウシ","town":"下戸山","town_kana":"シモドヤマ","prefecture_code":25},"3026":{"zip_code":"5203026","prefecture":"滋賀県","prefecture_kana":"シガケン","city":"栗東市","city_kana":"リットウシ","town":"下鈎","town_kana":"シモマガリ","prefecture_code":25},"3036":{"zip_code":"5203036","prefecture":"滋賀県","prefecture_kana":"シガケン","city":"栗東市","city_kana":"リットウシ","town":"十里","town_kana":"ジュウリ","prefecture_code":25},"3045":{"zip_code":"5203045","prefecture":"滋賀県","prefecture_kana":"シガケン","city":"栗東市","city_kana":"リットウシ","town":"高野","town_kana":"タカノ","prefecture_code":25},"3042":{"zip_code":"5203042","prefecture":"滋賀県","prefecture_kana":"シガケン","city":"栗東市","city_kana":"リットウシ","town":"辻","town_kana":"ツジ","prefecture_code":25},"3041":{"zip_code":"5203041","prefecture":"滋賀県","prefecture_kana":"シガケン","city":"栗東市","city_kana":"リットウシ","town":"出庭","town_kana":"デバ","prefecture_code":25},"3047":{"zip_code":"5203047","prefecture":"滋賀県","prefecture_kana":"シガケン","city":"栗東市","city_kana":"リットウシ","town":"手原","town_kana":"テハラ","prefecture_code":25},"3025":{"zip_code":"5203025","prefecture":"滋賀県","prefecture_kana":"シガケン","city":"栗東市","city_kana":"リットウシ","town":"中沢","town_kana":"ナカザワ","prefecture_code":25},"3027":{"zip_code":"5203027","prefecture":"滋賀県","prefecture_kana":"シガケン","city":"栗東市","city_kana":"リットウシ","town":"野尻","town_kana":"ノジリ","prefecture_code":25},"3021":{"zip_code":"5203021","prefecture":"滋賀県","prefecture_kana":"シガケン","city":"栗東市","city_kana":"リットウシ","town":"蜂屋","town_kana":"ハチヤ","prefecture_code":25},"3043":{"zip_code":"5203043","prefecture":"滋賀県","prefecture_kana":"シガケン","city":"栗東市","city_kana":"リットウシ","town":"林","town_kana":"ハヤシ","prefecture_code":25},"3001":{"zip_code":"5203001","prefecture":"滋賀県","prefecture_kana":"シガケン","city":"栗東市","city_kana":"リットウシ","town":"東坂","town_kana":"ヒガシサカ","prefecture_code":25},"3031":{"zip_code":"5203031","prefecture":"滋賀県","prefecture_kana":"シガケン","city":"栗東市","city_kana":"リットウシ","town":"綣","town_kana":"ヘソ","prefecture_code":25},"3023":{"zip_code":"5203023","prefecture":"滋賀県","prefecture_kana":"シガケン","city":"栗東市","city_kana":"リットウシ","town":"坊袋","town_kana":"ボウブクロ","prefecture_code":25},"3005":{"zip_code":"5203005","prefecture":"滋賀県","prefecture_kana":"シガケン","city":"栗東市","city_kana":"リットウシ","town":"御園","town_kana":"ミソノ","prefecture_code":25},"3013":{"zip_code":"5203013","prefecture":"滋賀県","prefecture_kana":"シガケン","city":"栗東市","city_kana":"リットウシ","town":"目川","town_kana":"メガワ","prefecture_code":25},"3035":{"zip_code":"5203035","prefecture":"滋賀県","prefecture_kana":"シガケン","city":"栗東市","city_kana":"リットウシ","town":"霊仙寺","town_kana":"リョウセンジ","prefecture_code":25},"3017":{"zip_code":"5203017","prefecture":"滋賀県","prefecture_kana":"シガケン","city":"栗東市","city_kana":"リットウシ","town":"六地蔵","town_kana":"ロクジゾウ","prefecture_code":25},"3413":{"zip_code":"5203413","prefecture":"滋賀県","prefecture_kana":"シガケン","city":"甲賀市","city_kana":"コウカシ","town":"甲賀町油日","town_kana":"コウカチョウアブラヒ","prefecture_code":25},"3412":{"zip_code":"5203412","prefecture":"滋賀県","prefecture_kana":"シガケン","city":"甲賀市","city_kana":"コウカシ","town":"甲賀町櫟野","town_kana":"コウカチョウイチノ","prefecture_code":25},"3401":{"zip_code":"5203401","prefecture":"滋賀県","prefecture_kana":"シガケン","city":"甲賀市","city_kana":"コウカシ","town":"甲賀町岩室","town_kana":"コウカチョウイワムロ","prefecture_code":25},"3421":{"zip_code":"5203421","prefecture":"滋賀県","prefecture_kana":"シガケン","city":"甲賀市","city_kana":"コウカシ","town":"甲賀町上野","town_kana":"コウカチョウウエノ","prefecture_code":25},"3414":{"zip_code":"5203414","prefecture":"滋賀県","prefecture_kana":"シガケン","city":"甲賀市","city_kana":"コウカシ","town":"甲賀町大久保","town_kana":"コウカチョウオオクボ","prefecture_code":25},"3433":{"zip_code":"5203433","prefecture":"滋賀県","prefecture_kana":"シガケン","city":"甲賀市","city_kana":"コウカシ","town":"甲賀町大原市場","town_kana":"コウカチョウオオハライチバ","prefecture_code":25},"3415":{"zip_code":"5203415","prefecture":"滋賀県","prefecture_kana":"シガケン","city":"甲賀市","city_kana":"コウカシ","town":"甲賀町大原上田","town_kana":"コウカチョウオオハラウエダ","prefecture_code":25},"3431":{"zip_code":"5203431","prefecture":"滋賀県","prefecture_kana":"シガケン","city":"甲賀市","city_kana":"コウカシ","town":"甲賀町大原中","town_kana":"コウカチョウオオハラナカ","prefecture_code":25},"3405":{"zip_code":"5203405","prefecture":"滋賀県","prefecture_kana":"シガケン","city":"甲賀市","city_kana":"コウカシ","town":"甲賀町隠岐","town_kana":"コウカチョウオキ","prefecture_code":25},"3427":{"zip_code":"5203427","prefecture":"滋賀県","prefecture_kana":"シガケン","city":"甲賀市","city_kana":"コウカシ","town":"甲賀町鹿深台","town_kana":"コウカチョウカフカダイ","prefecture_code":25},"3411":{"zip_code":"5203411","prefecture":"滋賀県","prefecture_kana":"シガケン","city":"甲賀市","city_kana":"コウカシ","town":"甲賀町神","town_kana":"コウカチョウカミ","prefecture_code":25},"3402":{"zip_code":"5203402","prefecture":"滋賀県","prefecture_kana":"シガケン","city":"甲賀市","city_kana":"コウカシ","town":"甲賀町小佐治","town_kana":"コウカチョウコサジ","prefecture_code":25},"3423":{"zip_code":"5203423","prefecture":"滋賀県","prefecture_kana":"シガケン","city":"甲賀市","city_kana":"コウカシ","town":"甲賀町五反田","town_kana":"コウカチョウゴタンダ","prefecture_code":25},"3435":{"zip_code":"5203435","prefecture":"滋賀県","prefecture_kana":"シガケン","city":"甲賀市","city_kana":"コウカシ","town":"甲賀町相模","town_kana":"コウカチョウサガミ","prefecture_code":25},"3404":{"zip_code":"5203404","prefecture":"滋賀県","prefecture_kana":"シガケン","city":"甲賀市","city_kana":"コウカシ","town":"甲賀町神保","town_kana":"コウカチョウジンボ","prefecture_code":25},"3434":{"zip_code":"5203434","prefecture":"滋賀県","prefecture_kana":"シガケン","city":"甲賀市","city_kana":"コウカシ","town":"甲賀町高野","town_kana":"コウカチョウタカノ","prefecture_code":25},"3424":{"zip_code":"5203424","prefecture":"滋賀県","prefecture_kana":"シガケン","city":"甲賀市","city_kana":"コウカシ","town":"甲賀町高嶺","town_kana":"コウカチョウタカミネ","prefecture_code":25},"3432":{"zip_code":"5203432","prefecture":"滋賀県","prefecture_kana":"シガケン","city":"甲賀市","city_kana":"コウカシ","town":"甲賀町滝","town_kana":"コウカチョウタキ","prefecture_code":25},"3426":{"zip_code":"5203426","prefecture":"滋賀県","prefecture_kana":"シガケン","city":"甲賀市","city_kana":"コウカシ","town":"甲賀町田堵野","town_kana":"コウカチョウタドノ","prefecture_code":25},"3403":{"zip_code":"5203403","prefecture":"滋賀県","prefecture_kana":"シガケン","city":"甲賀市","city_kana":"コウカシ","town":"甲賀町鳥居野","town_kana":"コウカチョウトリイノ","prefecture_code":25},"3436":{"zip_code":"5203436","prefecture":"滋賀県","prefecture_kana":"シガケン","city":"甲賀市","city_kana":"コウカシ","town":"甲賀町拝坂","town_kana":"コウカチョウハイサカ","prefecture_code":25},"3425":{"zip_code":"5203425","prefecture":"滋賀県","prefecture_kana":"シガケン","city":"甲賀市","city_kana":"コウカシ","town":"甲賀町毛枚","town_kana":"コウカチョウモビラ","prefecture_code":25},"3422":{"zip_code":"5203422","prefecture":"滋賀県","prefecture_kana":"シガケン","city":"甲賀市","city_kana":"コウカシ","town":"甲賀町和田","town_kana":"コウカチョウワタ","prefecture_code":25},"3302":{"zip_code":"5203302","prefecture":"滋賀県","prefecture_kana":"シガケン","city":"甲賀市","city_kana":"コウカシ","town":"甲南町池田","town_kana":"コウナンチョウイケダ","prefecture_code":25},"3312":{"zip_code":"5203312","prefecture":"滋賀県","prefecture_kana":"シガケン","city":"甲賀市","city_kana":"コウカシ","town":"甲南町磯尾","town_kana":"コウナンチョウイソオ","prefecture_code":25},"3316":{"zip_code":"5203316","prefecture":"滋賀県","prefecture_kana":"シガケン","city":"甲賀市","city_kana":"コウカシ","town":"甲南町市原","town_kana":"コウナンチョウイチハラ","prefecture_code":25},"3321":{"zip_code":"5203321","prefecture":"滋賀県","prefecture_kana":"シガケン","city":"甲賀市","city_kana":"コウカシ","town":"甲南町葛木","town_kana":"コウナンチョウカヅラキ","prefecture_code":25},"3303":{"zip_code":"5203303","prefecture":"滋賀県","prefecture_kana":"シガケン","city":"甲賀市","city_kana":"コウカシ","town":"甲南町上馬杉","town_kana":"コウナンチョウカミマスギ","prefecture_code":25},"3333":{"zip_code":"5203333","prefecture":"滋賀県","prefecture_kana":"シガケン","city":"甲賀市","city_kana":"コウカシ","town":"甲南町希望ケ丘","town_kana":"コウナンチョウキボウガオカ","prefecture_code":25},"3332":{"zip_code":"5203332","prefecture":"滋賀県","prefecture_kana":"シガケン","city":"甲賀市","city_kana":"コウカシ","town":"甲南町希望ケ丘本町","town_kana":"コウナンチョウキボウガオカホンマチ","prefecture_code":25},"3326":{"zip_code":"5203326","prefecture":"滋賀県","prefecture_kana":"シガケン","city":"甲賀市","city_kana":"コウカシ","town":"甲南町耕心","town_kana":"コウナンチョウコウシン","prefecture_code":25},"3306":{"zip_code":"5203306","prefecture":"滋賀県","prefecture_kana":"シガケン","city":"甲賀市","city_kana":"コウカシ","town":"甲南町柑子","town_kana":"コウナンチョウコオジ","prefecture_code":25},"3315":{"zip_code":"5203315","prefecture":"滋賀県","prefecture_kana":"シガケン","city":"甲賀市","city_kana":"コウカシ","town":"甲南町塩野","town_kana":"コウナンチョウシオノ","prefecture_code":25},"3304":{"zip_code":"5203304","prefecture":"滋賀県","prefecture_kana":"シガケン","city":"甲賀市","city_kana":"コウカシ","town":"甲南町下馬杉","town_kana":"コウナンチョウシモマスギ","prefecture_code":25},"3313":{"zip_code":"5203313","prefecture":"滋賀県","prefecture_kana":"シガケン","city":"甲賀市","city_kana":"コウカシ","town":"甲南町新治","town_kana":"コウナンチョウシンジ","prefecture_code":25},"3314":{"zip_code":"5203314","prefecture":"滋賀県","prefecture_kana":"シガケン","city":"甲賀市","city_kana":"コウカシ","town":"甲南町杉谷","town_kana":"コウナンチョウスギタニ","prefecture_code":25},"3301":{"zip_code":"5203301","prefecture":"滋賀県","prefecture_kana":"シガケン","city":"甲賀市","city_kana":"コウカシ","town":"甲南町寺庄","town_kana":"コウナンチョウテラショウ","prefecture_code":25},"3305":{"zip_code":"5203305","prefecture":"滋賀県","prefecture_kana":"シガケン","city":"甲賀市","city_kana":"コウカシ","town":"甲南町野川","town_kana":"コウナンチョウノガワ","prefecture_code":25},"3307":{"zip_code":"5203307","prefecture":"滋賀県","prefecture_kana":"シガケン","city":"甲賀市","city_kana":"コウカシ","town":"甲南町野尻","town_kana":"コウナンチョウノジリ","prefecture_code":25},"3308":{"zip_code":"5203308","prefecture":"滋賀県","prefecture_kana":"シガケン","city":"甲賀市","city_kana":"コウカシ","town":"甲南町野田","town_kana":"コウナンチョウノダ","prefecture_code":25},"3331":{"zip_code":"5203331","prefecture":"滋賀県","prefecture_kana":"シガケン","city":"甲賀市","city_kana":"コウカシ","town":"甲南町稗谷","town_kana":"コウナンチョウヒエダニ","prefecture_code":25},"3322":{"zip_code":"5203322","prefecture":"滋賀県","prefecture_kana":"シガケン","city":"甲賀市","city_kana":"コウカシ","town":"甲南町深川","town_kana":"コウナンチョウフカワ","prefecture_code":25},"3323":{"zip_code":"5203323","prefecture":"滋賀県","prefecture_kana":"シガケン","city":"甲賀市","city_kana":"コウカシ","town":"甲南町深川市場","town_kana":"コウナンチョウフカワイチバ","prefecture_code":25},"3325":{"zip_code":"5203325","prefecture":"滋賀県","prefecture_kana":"シガケン","city":"甲賀市","city_kana":"コウカシ","town":"甲南町宝木","town_kana":"コウナンチョウホウノキ","prefecture_code":25},"3324":{"zip_code":"5203324","prefecture":"滋賀県","prefecture_kana":"シガケン","city":"甲賀市","city_kana":"コウカシ","town":"甲南町森尻","town_kana":"コウナンチョウモリシリ","prefecture_code":25},"3311":{"zip_code":"5203311","prefecture":"滋賀県","prefecture_kana":"シガケン","city":"甲賀市","city_kana":"コウカシ","town":"甲南町竜法師","town_kana":"コウナンチョウリュウボウシ","prefecture_code":25},"2300":{"zip_code":"5202300","prefecture":"滋賀県","prefecture_kana":"シガケン","city":"野洲市","city_kana":"ヤスシ","town":"","town_kana":"","prefecture_code":25},"2411":{"zip_code":"5202411","prefecture":"滋賀県","prefecture_kana":"シガケン","city":"野洲市","city_kana":"ヤスシ","town":"安治","town_kana":"アワジ","prefecture_code":25},"2362":{"zip_code":"5202362","prefecture":"滋賀県","prefecture_kana":"シガケン","city":"野洲市","city_kana":"ヤスシ","town":"市三宅","town_kana":"イチミヤケ","prefecture_code":25},"2414":{"zip_code":"5202414","prefecture":"滋賀県","prefecture_kana":"シガケン","city":"野洲市","city_kana":"ヤスシ","town":"井口","town_kana":"イノクチ","prefecture_code":25},"2312":{"zip_code":"5202312","prefecture":"滋賀県","prefecture_kana":"シガケン","city":"野洲市","city_kana":"ヤスシ","town":"入町","town_kana":"イリマチ","prefecture_code":25},"2324":{"zip_code":"5202324","prefecture":"滋賀県","prefecture_kana":"シガケン","city":"野洲市","city_kana":"ヤスシ","town":"近江富士","town_kana":"オウミフジ","prefecture_code":25},"2313":{"zip_code":"5202313","prefecture":"滋賀県","prefecture_kana":"シガケン","city":"野洲市","city_kana":"ヤスシ","town":"大篠原","town_kana":"オオシノハラ","prefecture_code":25},"2343":{"zip_code":"5202343","prefecture":"滋賀県","prefecture_kana":"シガケン","city":"野洲市","city_kana":"ヤスシ","town":"大畑","town_kana":"オオハタ","prefecture_code":25},"2435":{"zip_code":"5202435","prefecture":"滋賀県","prefecture_kana":"シガケン","city":"野洲市","city_kana":"ヤスシ","town":"乙窪","town_kana":"オチクボ","prefecture_code":25},"2316":{"zip_code":"5202316","prefecture":"滋賀県","prefecture_kana":"シガケン","city":"野洲市","city_kana":"ヤスシ","town":"上屋","town_kana":"カミヤ","prefecture_code":25},"2305":{"zip_code":"5202305","prefecture":"滋賀県","prefecture_kana":"シガケン","city":"野洲市","city_kana":"ヤスシ","town":"北","town_kana":"キタ","prefecture_code":25},"2321":{"zip_code":"5202321","prefecture":"滋賀県","prefecture_kana":"シガケン","city":"野洲市","city_kana":"ヤスシ","town":"北桜","town_kana":"キタザクラ","prefecture_code":25},"2361":{"zip_code":"5202361","prefecture":"滋賀県","prefecture_kana":"シガケン","city":"野洲市","city_kana":"ヤスシ","town":"北野","town_kana":"キタノ","prefecture_code":25},"2436":{"zip_code":"5202436","prefecture":"滋賀県","prefecture_kana":"シガケン","city":"野洲市","city_kana":"ヤスシ","town":"北比江","town_kana":"キタヒエ","prefecture_code":25},"2431":{"zip_code":"5202431","prefecture":"滋賀県","prefecture_kana":"シガケン","city":"野洲市","city_kana":"ヤスシ","town":"木部","town_kana":"キベ","prefecture_code":25},"2353":{"zip_code":"5202353","prefecture":"滋賀県","prefecture_kana":"シガケン","city":"野洲市","city_kana":"ヤスシ","town":"久野部","town_kana":"クノベ","prefecture_code":25},"2331":{"zip_code":"5202331","prefecture":"滋賀県","prefecture_kana":"シガケン","city":"野洲市","city_kana":"ヤスシ","town":"小篠原","town_kana":"コシノハラ","prefecture_code":25},"2424":{"zip_code":"5202424","prefecture":"滋賀県","prefecture_kana":"シガケン","city":"野洲市","city_kana":"ヤスシ","town":"五条","town_kana":"ゴジョウ","prefecture_code":25},"2314":{"zip_code":"5202314","prefecture":"滋賀県","prefecture_kana":"シガケン","city":"野洲市","city_kana":"ヤスシ","town":"小堤","town_kana":"コヅツミ","prefecture_code":25},"2364":{"zip_code":"5202364","prefecture":"滋賀県","prefecture_kana":"シガケン","city":"野洲市","city_kana":"ヤスシ","town":"五之里","town_kana":"ゴノリ","prefecture_code":25},"2437":{"zip_code":"5202437","prefecture":"滋賀県","prefecture_kana":"シガケン","city":"野洲市","city_kana":"ヤスシ","town":"小比江","town_kana":"コビエ","prefecture_code":25},"2301":{"zip_code":"5202301","prefecture":"滋賀県","prefecture_kana":"シガケン","city":"野洲市","city_kana":"ヤスシ","town":"小南","town_kana":"コミナミ","prefecture_code":25},"2333":{"zip_code":"5202333","prefecture":"滋賀県","prefecture_kana":"シガケン","city":"野洲市","city_kana":"ヤスシ","town":"栄","town_kana":"サカエ","prefecture_code":25},"2417":{"zip_code":"5202417","prefecture":"滋賀県","prefecture_kana":"シガケン","city":"野洲市","city_kana":"ヤスシ","town":"下堤","town_kana":"シモヅツミ","prefecture_code":25},"2415":{"zip_code":"5202415","prefecture":"滋賀県","prefecture_kana":"シガケン","city":"野洲市","city_kana":"ヤスシ","town":"須原","town_kana":"スワラ","prefecture_code":25},"2302":{"zip_code":"5202302","prefecture":"滋賀県","prefecture_kana":"シガケン","city":"野洲市","city_kana":"ヤスシ","town":"高木","town_kana":"タカギ","prefecture_code":25},"2365":{"zip_code":"5202365","prefecture":"滋賀県","prefecture_kana":"シガケン","city":"野洲市","city_kana":"ヤスシ","town":"竹ヶ丘","town_kana":"タケガオカ","prefecture_code":25},"2363":{"zip_code":"5202363","prefecture":"滋賀県","prefecture_kana":"シガケン","city":"野洲市","city_kana":"ヤスシ","town":"竹生","town_kana":"タケジョウ","prefecture_code":25},"2315":{"zip_code":"5202315","prefecture":"滋賀県","prefecture_kana":"シガケン","city":"野洲市","city_kana":"ヤスシ","town":"辻町","town_kana":"ツジマチ","prefecture_code":25},"2416":{"zip_code":"5202416","prefecture":"滋賀県","prefecture_kana":"シガケン","city":"野洲市","city_kana":"ヤスシ","town":"堤","town_kana":"ツツミ","prefecture_code":25},"2351":{"zip_code":"5202351","prefecture":"滋賀県","prefecture_kana":"シガケン","city":"野洲市","city_kana":"ヤスシ","town":"冨波甲","town_kana":"トバコウ","prefecture_code":25},"2352":{"zip_code":"5202352","prefecture":"滋賀県","prefecture_kana":"シガケン","city":"野洲市","city_kana":"ヤスシ","town":"冨波乙","town_kana":"トバオツ","prefecture_code":25},"2303":{"zip_code":"5202303","prefecture":"滋賀県","prefecture_kana":"シガケン","city":"野洲市","city_kana":"ヤスシ","town":"中北","town_kana":"ナカキタ","prefecture_code":25},"2311":{"zip_code":"5202311","prefecture":"滋賀県","prefecture_kana":"シガケン","city":"野洲市","city_kana":"ヤスシ","town":"長島","town_kana":"ナガシマ","prefecture_code":25},"2304":{"zip_code":"5202304","prefecture":"滋賀県","prefecture_kana":"シガケン","city":"野洲市","city_kana":"ヤスシ","town":"永原","town_kana":"ナガハラ","prefecture_code":25},"2423":{"zip_code":"5202423","prefecture":"滋賀県","prefecture_kana":"シガケン","city":"野洲市","city_kana":"ヤスシ","town":"西河原","town_kana":"ニシガワラ","prefecture_code":25},"2421":{"zip_code":"5202421","prefecture":"滋賀県","prefecture_kana":"シガケン","city":"野洲市","city_kana":"ヤスシ","town":"野田","town_kana":"ノダ","prefecture_code":25},"2434":{"zip_code":"5202434","prefecture":"滋賀県","prefecture_kana":"シガケン","city":"野洲市","city_kana":"ヤスシ","town":"比江","town_kana":"ヒエ","prefecture_code":25},"2422":{"zip_code":"5202422","prefecture":"滋賀県","prefecture_kana":"シガケン","city":"野洲市","city_kana":"ヤスシ","town":"比留田","town_kana":"ヒルタ","prefecture_code":25},"2323":{"zip_code":"5202323","prefecture":"滋賀県","prefecture_kana":"シガケン","city":"野洲市","city_kana":"ヤスシ","town":"三上","town_kana":"ミカミ","prefecture_code":25},"2322":{"zip_code":"5202322","prefecture":"滋賀県","prefecture_kana":"シガケン","city":"野洲市","city_kana":"ヤスシ","town":"南桜","town_kana":"ミナミザクラ","prefecture_code":25},"2332":{"zip_code":"5202332","prefecture":"滋賀県","prefecture_kana":"シガケン","city":"野洲市","city_kana":"ヤスシ","town":"妙光寺","town_kana":"ミョウコウジ","prefecture_code":25},"2432":{"zip_code":"5202432","prefecture":"滋賀県","prefecture_kana":"シガケン","city":"野洲市","city_kana":"ヤスシ","town":"虫生","town_kana":"ムシュウ","prefecture_code":25},"2342":{"zip_code":"5202342","prefecture":"滋賀県","prefecture_kana":"シガケン","city":"野洲市","city_kana":"ヤスシ","town":"野洲","town_kana":"ヤス","prefecture_code":25},"2433":{"zip_code":"5202433","prefecture":"滋賀県","prefecture_kana":"シガケン","city":"野洲市","city_kana":"ヤスシ","town":"八夫","town_kana":"ヤブ","prefecture_code":25},"2341":{"zip_code":"5202341","prefecture":"滋賀県","prefecture_kana":"シガケン","city":"野洲市","city_kana":"ヤスシ","town":"行畑","town_kana":"ユキハタ","prefecture_code":25},"2413":{"zip_code":"5202413","prefecture":"滋賀県","prefecture_kana":"シガケン","city":"野洲市","city_kana":"ヤスシ","town":"吉地","town_kana":"ヨシジ","prefecture_code":25},"2412":{"zip_code":"5202412","prefecture":"滋賀県","prefecture_kana":"シガケン","city":"野洲市","city_kana":"ヤスシ","town":"六条","town_kana":"ロクジョウ","prefecture_code":25},"3200":{"zip_code":"5203200","prefecture":"滋賀県","prefecture_kana":"シガケン","city":"湖南市","city_kana":"コナンシ","town":"","town_kana":"","prefecture_code":25},"3251":{"zip_code":"5203251","prefecture":"滋賀県","prefecture_kana":"シガケン","city":"湖南市","city_kana":"コナンシ","town":"朝国","town_kana":"アサクニ","prefecture_code":25},"3116":{"zip_code":"5203116","prefecture":"滋賀県","prefecture_kana":"シガケン","city":"湖南市","city_kana":"コナンシ","town":"雨山","town_kana":"アメヤマ","prefecture_code":25},"3101":{"zip_code":"5203101","prefecture":"滋賀県","prefecture_kana":"シガケン","city":"湖南市","city_kana":"コナンシ","town":"石部","town_kana":"イシベ","prefecture_code":25},"3109":{"zip_code":"5203109","prefecture":"滋賀県","prefecture_kana":"シガケン","city":"湖南市","city_kana":"コナンシ","town":"石部が丘","town_kana":"イシベガオカ","prefecture_code":25},"3113":{"zip_code":"5203113","prefecture":"滋賀県","prefecture_kana":"シガケン","city":"湖南市","city_kana":"コナンシ","town":"石部北","town_kana":"イシベキタ","prefecture_code":25},"3114":{"zip_code":"5203114","prefecture":"滋賀県","prefecture_kana":"シガケン","city":"湖南市","city_kana":"コナンシ","town":"石部口","town_kana":"イシベグチ","prefecture_code":25},"3106":{"zip_code":"5203106","prefecture":"滋賀県","prefecture_kana":"シガケン","city":"湖南市","city_kana":"コナンシ","town":"石部中央","town_kana":"イシベチュウオウ","prefecture_code":25},"3105":{"zip_code":"5203105","prefecture":"滋賀県","prefecture_kana":"シガケン","city":"湖南市","city_kana":"コナンシ","town":"石部西","town_kana":"イシベニシ","prefecture_code":25},"3107":{"zip_code":"5203107","prefecture":"滋賀県","prefecture_kana":"シガケン","city":"湖南市","city_kana":"コナンシ","town":"石部東","town_kana":"イシベヒガシ","prefecture_code":25},"3115":{"zip_code":"5203115","prefecture":"滋賀県","prefecture_kana":"シガケン","city":"湖南市","city_kana":"コナンシ","town":"石部緑台","town_kana":"イシベミドリダイ","prefecture_code":25},"3108":{"zip_code":"5203108","prefecture":"滋賀県","prefecture_kana":"シガケン","city":"湖南市","city_kana":"コナンシ","town":"石部南","town_kana":"イシベミナミ","prefecture_code":25},"3252":{"zip_code":"5203252","prefecture":"滋賀県","prefecture_kana":"シガケン","city":"湖南市","city_kana":"コナンシ","town":"岩根","town_kana":"イワネ","prefecture_code":25},"3254":{"zip_code":"5203254","prefecture":"滋賀県","prefecture_kana":"シガケン","city":"湖南市","city_kana":"コナンシ","town":"岩根中央","town_kana":"イワネチュウオウ","prefecture_code":25},"3214":{"zip_code":"5203214","prefecture":"滋賀県","prefecture_kana":"シガケン","city":"湖南市","city_kana":"コナンシ","town":"梅影町","town_kana":"ウメカゲチョウ","prefecture_code":25},"3245":{"zip_code":"5203245","prefecture":"滋賀県","prefecture_kana":"シガケン","city":"湖南市","city_kana":"コナンシ","town":"近江台","town_kana":"オウミダイ","prefecture_code":25},"3213":{"zip_code":"5203213","prefecture":"滋賀県","prefecture_kana":"シガケン","city":"湖南市","city_kana":"コナンシ","town":"大池町","town_kana":"オオイケチョウ","prefecture_code":25},"3104":{"zip_code":"5203104","prefecture":"滋賀県","prefecture_kana":"シガケン","city":"湖南市","city_kana":"コナンシ","town":"岡出","town_kana":"オカデ","prefecture_code":25},"3241":{"zip_code":"5203241","prefecture":"滋賀県","prefecture_kana":"シガケン","city":"湖南市","city_kana":"コナンシ","town":"北山台","town_kana":"キタヤマダイ","prefecture_code":25},"3233":{"zip_code":"5203233","prefecture":"滋賀県","prefecture_kana":"シガケン","city":"湖南市","city_kana":"コナンシ","town":"柑子袋","town_kana":"コウジブクロ","prefecture_code":25},"3212":{"zip_code":"5203212","prefecture":"滋賀県","prefecture_kana":"シガケン","city":"湖南市","city_kana":"コナンシ","town":"小砂町","town_kana":"コスナチョウ","prefecture_code":25},"3244":{"zip_code":"5203244","prefecture":"滋賀県","prefecture_kana":"シガケン","city":"湖南市","city_kana":"コナンシ","town":"サイドタウン","town_kana":"サイドタウン","prefecture_code":25},"3201":{"zip_code":"5203201","prefecture":"滋賀県","prefecture_kana":"シガケン","city":"湖南市","city_kana":"コナンシ","town":"下田","town_kana":"シモダ","prefecture_code":25},"3253":{"zip_code":"5203253","prefecture":"滋賀県","prefecture_kana":"シガケン","city":"湖南市","city_kana":"コナンシ","town":"正福寺","town_kana":"ショウフクジ","prefecture_code":25},"3211":{"zip_code":"5203211","prefecture":"滋賀県","prefecture_kana":"シガケン","city":"湖南市","city_kana":"コナンシ","town":"高松町","town_kana":"タカマツチョウ","prefecture_code":25},"3234":{"zip_code":"5203234","prefecture":"滋賀県","prefecture_kana":"シガケン","city":"湖南市","city_kana":"コナンシ","town":"中央","town_kana":"チュウオウ","prefecture_code":25},"3223":{"zip_code":"5203223","prefecture":"滋賀県","prefecture_kana":"シガケン","city":"湖南市","city_kana":"コナンシ","town":"夏見","town_kana":"ナツミ","prefecture_code":25},"3121":{"zip_code":"5203121","prefecture":"滋賀県","prefecture_kana":"シガケン","city":"湖南市","city_kana":"コナンシ","town":"西寺","town_kana":"ニシテラ","prefecture_code":25},"3202":{"zip_code":"5203202","prefecture":"滋賀県","prefecture_kana":"シガケン","city":"湖南市","city_kana":"コナンシ","town":"西峰町","town_kana":"ニシミネチョウ","prefecture_code":25},"3231":{"zip_code":"5203231","prefecture":"滋賀県","prefecture_kana":"シガケン","city":"湖南市","city_kana":"コナンシ","town":"針","town_kana":"ハリ","prefecture_code":25},"3203":{"zip_code":"5203203","prefecture":"滋賀県","prefecture_kana":"シガケン","city":"湖南市","city_kana":"コナンシ","town":"日枝町","town_kana":"ヒエチョウ","prefecture_code":25},"3111":{"zip_code":"5203111","prefecture":"滋賀県","prefecture_kana":"シガケン","city":"湖南市","city_kana":"コナンシ","town":"東寺","town_kana":"ヒガシテラ","prefecture_code":25},"3232":{"zip_code":"5203232","prefecture":"滋賀県","prefecture_kana":"シガケン","city":"湖南市","city_kana":"コナンシ","town":"平松","town_kana":"ヒラマツ","prefecture_code":25},"3235":{"zip_code":"5203235","prefecture":"滋賀県","prefecture_kana":"シガケン","city":"湖南市","city_kana":"コナンシ","town":"平松北","town_kana":"ヒラマツキタ","prefecture_code":25},"3103":{"zip_code":"5203103","prefecture":"滋賀県","prefecture_kana":"シガケン","city":"湖南市","city_kana":"コナンシ","town":"宝来坂","town_kana":"ホウライザカ","prefecture_code":25},"3242":{"zip_code":"5203242","prefecture":"滋賀県","prefecture_kana":"シガケン","city":"湖南市","city_kana":"コナンシ","town":"菩提寺","town_kana":"ボダイジ","prefecture_code":25},"3246":{"zip_code":"5203246","prefecture":"滋賀県","prefecture_kana":"シガケン","city":"湖南市","city_kana":"コナンシ","town":"菩提寺北","town_kana":"ボダイジキタ","prefecture_code":25},"3248":{"zip_code":"5203248","prefecture":"滋賀県","prefecture_kana":"シガケン","city":"湖南市","city_kana":"コナンシ","town":"菩提寺西","town_kana":"ボダイジニシ","prefecture_code":25},"3247":{"zip_code":"5203247","prefecture":"滋賀県","prefecture_kana":"シガケン","city":"湖南市","city_kana":"コナンシ","town":"菩提寺東","town_kana":"ボダイジヒガシ","prefecture_code":25},"3112":{"zip_code":"5203112","prefecture":"滋賀県","prefecture_kana":"シガケン","city":"湖南市","city_kana":"コナンシ","town":"丸山","town_kana":"マルヤマ","prefecture_code":25},"3221":{"zip_code":"5203221","prefecture":"滋賀県","prefecture_kana":"シガケン","city":"湖南市","city_kana":"コナンシ","town":"三雲","town_kana":"ミクモ","prefecture_code":25},"3215":{"zip_code":"5203215","prefecture":"滋賀県","prefecture_kana":"シガケン","city":"湖南市","city_kana":"コナンシ","town":"水戸町","town_kana":"ミトチョウ","prefecture_code":25},"3102":{"zip_code":"5203102","prefecture":"滋賀県","prefecture_kana":"シガケン","city":"湖南市","city_kana":"コナンシ","town":"宮の森","town_kana":"ミヤノモリ","prefecture_code":25},"3222":{"zip_code":"5203222","prefecture":"滋賀県","prefecture_kana":"シガケン","city":"湖南市","city_kana":"コナンシ","town":"吉永","town_kana":"ヨシナガ","prefecture_code":25},"3216":{"zip_code":"5203216","prefecture":"滋賀県","prefecture_kana":"シガケン","city":"湖南市","city_kana":"コナンシ","town":"若竹町","town_kana":"ワカタケチョウ","prefecture_code":25},"1100":{"zip_code":"5201100","prefecture":"滋賀県","prefecture_kana":"シガケン","city":"高島市","city_kana":"タカシマシ","town":"","town_kana":"","prefecture_code":25},"1221":{"zip_code":"5201221","prefecture":"滋賀県","prefecture_kana":"シガケン","city":"高島市","city_kana":"タカシマシ","town":"安曇川町青柳","town_kana":"アドガワチョウアオヤギ","prefecture_code":25},"1224":{"zip_code":"5201224","prefecture":"滋賀県","prefecture_kana":"シガケン","city":"高島市","city_kana":"タカシマシ","town":"安曇川町上小川","town_kana":"アドガワチョウカミオガワ","prefecture_code":25},"1201":{"zip_code":"5201201","prefecture":"滋賀県","prefecture_kana":"シガケン","city":"高島市","city_kana":"タカシマシ","town":"安曇川町上古賀","town_kana":"アドガワチョウカミコガ","prefecture_code":25},"1231":{"zip_code":"5201231","prefecture":"滋賀県","prefecture_kana":"シガケン","city":"高島市","city_kana":"タカシマシ","town":"安曇川町川島","town_kana":"アドガワチョウカワシマ","prefecture_code":25},"1232":{"zip_code":"5201232","prefecture":"滋賀県","prefecture_kana":"シガケン","city":"高島市","city_kana":"タカシマシ","town":"安曇川町北船木","town_kana":"アドガワチョウキタフナキ","prefecture_code":25},"1213":{"zip_code":"5201213","prefecture":"滋賀県","prefecture_kana":"シガケン","city":"高島市","city_kana":"タカシマシ","town":"安曇川町五番領","town_kana":"アドガワチョウゴバンリョウ","prefecture_code":25},"1223":{"zip_code":"5201223","prefecture":"滋賀県","prefecture_kana":"シガケン","city":"高島市","city_kana":"タカシマシ","town":"安曇川町下小川","town_kana":"アドガワチョウシモオガワ","prefecture_code":25},"1202":{"zip_code":"5201202","prefecture":"滋賀県","prefecture_kana":"シガケン","city":"高島市","city_kana":"タカシマシ","town":"安曇川町下古賀","town_kana":"アドガワチョウシモコガ","prefecture_code":25},"1214":{"zip_code":"5201214","prefecture":"滋賀県","prefecture_kana":"シガケン","city":"高島市","city_kana":"タカシマシ","town":"安曇川町末広","town_kana":"アドガワチョウスエヒロ","prefecture_code":25},"1217":{"zip_code":"5201217","prefecture":"滋賀県","prefecture_kana":"シガケン","city":"高島市","city_kana":"タカシマシ","town":"安曇川町田中","town_kana":"アドガワチョウタナカ","prefecture_code":25},"1216":{"zip_code":"5201216","prefecture":"滋賀県","prefecture_kana":"シガケン","city":"高島市","city_kana":"タカシマシ","town":"安曇川町中央","town_kana":"アドガワチョウチュウオウ","prefecture_code":25},"1211":{"zip_code":"5201211","prefecture":"滋賀県","prefecture_kana":"シガケン","city":"高島市","city_kana":"タカシマシ","town":"安曇川町常磐木","town_kana":"アドガワチョウトキワギ","prefecture_code":25},"1205":{"zip_code":"5201205","prefecture":"滋賀県","prefecture_kana":"シガケン","city":"高島市","city_kana":"タカシマシ","town":"安曇川町長尾","town_kana":"アドガワチョウナガオ","prefecture_code":25},"1204":{"zip_code":"5201204","prefecture":"滋賀県","prefecture_kana":"シガケン","city":"高島市","city_kana":"タカシマシ","town":"安曇川町中野","town_kana":"アドガワチョウナカノ","prefecture_code":25},"1212":{"zip_code":"5201212","prefecture":"滋賀県","prefecture_kana":"シガケン","city":"高島市","city_kana":"タカシマシ","town":"安曇川町西万木","town_kana":"アドガワチョウニシユルギ","prefecture_code":25},"1215":{"zip_code":"5201215","prefecture":"滋賀県","prefecture_kana":"シガケン","city":"高島市","city_kana":"タカシマシ","town":"安曇川町三尾里","town_kana":"アドガワチョウミオザト","prefecture_code":25},"1203":{"zip_code":"5201203","prefecture":"滋賀県","prefecture_kana":"シガケン","city":"高島市","city_kana":"タカシマシ","town":"安曇川町南古賀","town_kana":"アドガワチョウミナミコガ","prefecture_code":25},"1233":{"zip_code":"5201233","prefecture":"滋賀県","prefecture_kana":"シガケン","city":"高島市","city_kana":"タカシマシ","town":"安曇川町南船木","town_kana":"アドガワチョウミナミフナキ","prefecture_code":25},"1222":{"zip_code":"5201222","prefecture":"滋賀県","prefecture_kana":"シガケン","city":"高島市","city_kana":"タカシマシ","town":"安曇川町横江","town_kana":"アドガワチョウヨコエ","prefecture_code":25},"1235":{"zip_code":"5201235","prefecture":"滋賀県","prefecture_kana":"シガケン","city":"高島市","city_kana":"タカシマシ","town":"安曇川町横江浜","town_kana":"アドガワチョウヨコエハマ","prefecture_code":25},"1234":{"zip_code":"5201234","prefecture":"滋賀県","prefecture_kana":"シガケン","city":"高島市","city_kana":"タカシマシ","town":"安曇川町四津川","town_kana":"アドガワチョウヨツガワ","prefecture_code":25},"1647":{"zip_code":"5201647","prefecture":"滋賀県","prefecture_kana":"シガケン","city":"高島市","city_kana":"タカシマシ","town":"今津町天増川","town_kana":"イマヅチョウアマスガワ","prefecture_code":25},"1621":{"zip_code":"5201621","prefecture":"滋賀県","prefecture_kana":"シガケン","city":"高島市","city_kana":"タカシマシ","town":"今津町今津","town_kana":"イマヅチョウイマヅ","prefecture_code":25},"1654":{"zip_code":"5201654","prefecture":"滋賀県","prefecture_kana":"シガケン","city":"高島市","city_kana":"タカシマシ","town":"今津町梅原","town_kana":"イマヅチョウウメハラ","prefecture_code":25},"1635":{"zip_code":"5201635","prefecture":"滋賀県","prefecture_kana":"シガケン","city":"高島市","city_kana":"タカシマシ","town":"今津町大供","town_kana":"イマヅチョウオオトモ","prefecture_code":25},"1634":{"zip_code":"5201634","prefecture":"滋賀県","prefecture_kana":"シガケン","city":"高島市","city_kana":"タカシマシ","town":"今津町大供大門","town_kana":"イマヅチョウオオトモダイモン","prefecture_code":25},"1602":{"zip_code":"5201602","prefecture":"滋賀県","prefecture_kana":"シガケン","city":"高島市","city_kana":"タカシマシ","town":"今津町桂","town_kana":"イマヅチョウカツラ","prefecture_code":25},"1613":{"zip_code":"5201613","prefecture":"滋賀県","prefecture_kana":"シガケン","city":"高島市","city_kana":"タカシマシ","town":"今津町上弘部","town_kana":"イマヅチョウカミヒロベ","prefecture_code":25},"1653":{"zip_code":"5201653","prefecture":"滋賀県","prefecture_kana":"シガケン","city":"高島市","city_kana":"タカシマシ","town":"今津町岸脇","town_kana":"イマヅチョウキシワキ","prefecture_code":25},"1642":{"zip_code":"5201642","prefecture":"滋賀県","prefecture_kana":"シガケン","city":"高島市","city_kana":"タカシマシ","town":"今津町北生見","town_kana":"イマヅチョウキタウミ","prefecture_code":25},"1603":{"zip_code":"5201603","prefecture":"滋賀県","prefecture_kana":"シガケン","city":"高島市","city_kana":"タカシマシ","town":"今津町北仰","town_kana":"イマヅチョウキトゲ","prefecture_code":25},"1632":{"zip_code":"5201632","prefecture":"滋賀県","prefecture_kana":"シガケン","city":"高島市","city_kana":"タカシマシ","town":"今津町桜町","town_kana":"イマヅチョウサクラマチ","prefecture_code":25},"1651":{"zip_code":"5201651","prefecture":"滋賀県","prefecture_kana":"シガケン","city":"高島市","city_kana":"タカシマシ","town":"今津町酒波","town_kana":"イマヅチョウサナミ","prefecture_code":25},"1612":{"zip_code":"5201612","prefecture":"滋賀県","prefecture_kana":"シガケン","city":"高島市","city_kana":"タカシマシ","town":"今津町下弘部","town_kana":"イマヅチョウシモヒロベ","prefecture_code":25},"1633":{"zip_code":"5201633","prefecture":"滋賀県","prefecture_kana":"シガケン","city":"高島市","city_kana":"タカシマシ","town":"今津町松陽台","town_kana":"イマヅチョウショウヨウダイ","prefecture_code":25},"1646":{"zip_code":"5201646","prefecture":"滋賀県","prefecture_kana":"シガケン","city":"高島市","city_kana":"タカシマシ","town":"今津町杉山","town_kana":"イマヅチョウスギヤマ","prefecture_code":25},"1623":{"zip_code":"5201623","prefecture":"滋賀県","prefecture_kana":"シガケン","city":"高島市","city_kana":"タカシマシ","town":"今津町住吉","town_kana":"イマヅチョウスミヨシ","prefecture_code":25},"1648":{"zip_code":"5201648","prefecture":"滋賀県","prefecture_kana":"シガケン","city":"高島市","city_kana":"タカシマシ","town":"今津町角川","town_kana":"イマヅチョウツノガワ","prefecture_code":25},"1644":{"zip_code":"5201644","prefecture":"滋賀県","prefecture_kana":"シガケン","city":"高島市","city_kana":"タカシマシ","town":"今津町途中谷","town_kana":"イマヅチョウトチュウダニ","prefecture_code":25},"1622":{"zip_code":"5201622","prefecture":"滋賀県","prefecture_kana":"シガケン","city":"高島市","city_kana":"タカシマシ","town":"今津町中沼","town_kana":"イマヅチョウナカヌマ","prefecture_code":25},"1631":{"zip_code":"5201631","prefecture":"滋賀県","prefecture_kana":"シガケン","city":"高島市","city_kana":"タカシマシ","town":"今津町名小路","town_kana":"イマヅチョウナコジ","prefecture_code":25},"1604":{"zip_code":"5201604","prefecture":"滋賀県","prefecture_kana":"シガケン","city":"高島市","city_kana":"タカシマシ","town":"今津町浜分","town_kana":"イマヅチョウハマブン","prefecture_code":25},"1655":{"zip_code":"5201655","prefecture":"滋賀県","prefecture_kana":"シガケン","city":"高島市","city_kana":"タカシマシ","town":"今津町日置前","town_kana":"イマヅチョウヒオキマエ","prefecture_code":25},"1611":{"zip_code":"5201611","prefecture":"滋賀県","prefecture_kana":"シガケン","city":"高島市","city_kana":"タカシマシ","town":"今津町弘川","town_kana":"イマヅチョウヒロカワ","prefecture_code":25},"1601":{"zip_code":"5201601","prefecture":"滋賀県","prefecture_kana":"シガケン","city":"高島市","city_kana":"タカシマシ","town":"今津町深清水","town_kana":"イマヅチョウフカシミズ","prefecture_code":25},"1652":{"zip_code":"5201652","prefecture":"滋賀県","prefecture_kana":"シガケン","city":"高島市","city_kana":"タカシマシ","town":"今津町福岡","town_kana":"イマヅチョウフクオカ","prefecture_code":25},"1636":{"zip_code":"5201636","prefecture":"滋賀県","prefecture_kana":"シガケン","city":"高島市","city_kana":"タカシマシ","town":"今津町舟橋","town_kana":"イマヅチョウフナバシ","prefecture_code":25},"1643":{"zip_code":"5201643","prefecture":"滋賀県","prefecture_kana":"シガケン","city":"高島市","city_kana":"タカシマシ","town":"今津町保坂","town_kana":"イマヅチョウホウザカ","prefecture_code":25},"1641":{"zip_code":"5201641","prefecture":"滋賀県","prefecture_kana":"シガケン","city":"高島市","city_kana":"タカシマシ","town":"今津町南生見","town_kana":"イマヅチョウミナミウミ","prefecture_code":25},"1605":{"zip_code":"5201605","prefecture":"滋賀県","prefecture_kana":"シガケン","city":"高島市","city_kana":"タカシマシ","town":"今津町南新保","town_kana":"イマヅチョウミナミシンボ","prefecture_code":25},"1645":{"zip_code":"5201645","prefecture":"滋賀県","prefecture_kana":"シガケン","city":"高島市","city_kana":"タカシマシ","town":"今津町椋川","town_kana":"イマヅチョウムクガワ","prefecture_code":25},"1614":{"zip_code":"5201614","prefecture":"滋賀県","prefecture_kana":"シガケン","city":"高島市","city_kana":"タカシマシ","town":"今津町藺生","town_kana":"イマヅチョウユウ","prefecture_code":25},"1122":{"zip_code":"5201122","prefecture":"滋賀県","prefecture_kana":"シガケン","city":"高島市","city_kana":"タカシマシ","town":"鵜川","town_kana":"ウカワ","prefecture_code":25},"1131":{"zip_code":"5201131","prefecture":"滋賀県","prefecture_kana":"シガケン","city":"高島市","city_kana":"タカシマシ","town":"音羽","town_kana":"オトワ","prefecture_code":25},"1121":{"zip_code":"5201121","prefecture":"滋賀県","prefecture_kana":"シガケン","city":"高島市","city_kana":"タカシマシ","town":"勝野","town_kana":"カツノ","prefecture_code":25},"1111":{"zip_code":"5201111","prefecture":"滋賀県","prefecture_kana":"シガケン","city":"高島市","city_kana":"タカシマシ","town":"鴨","town_kana":"カモ","prefecture_code":25},"1133":{"zip_code":"5201133","prefecture":"滋賀県","prefecture_kana":"シガケン","city":"高島市","city_kana":"タカシマシ","town":"鴨川平","town_kana":"カモガワダイラ","prefecture_code":25},"1451":{"zip_code":"5201451","prefecture":"滋賀県","prefecture_kana":"シガケン","city":"高島市","city_kana":"タカシマシ","town":"朽木麻生","town_kana":"クツキアソウ","prefecture_code":25},"1411":{"zip_code":"5201411","prefecture":"滋賀県","prefecture_kana":"シガケン","city":"高島市","city_kana":"タカシマシ","town":"朽木荒川","town_kana":"クツキアラカワ","prefecture_code":25},"1401":{"zip_code":"5201401","prefecture":"滋賀県","prefecture_kana":"シガケン","city":"高島市","city_kana":"タカシマシ","town":"朽木市場","town_kana":"クツキイチバ","prefecture_code":25},"1421":{"zip_code":"5201421","prefecture":"滋賀県","prefecture_kana":"シガケン","city":"高島市","city_kana":"タカシマシ","town":"朽木岩瀬","town_kana":"クツキイワセ","prefecture_code":25},"1413":{"zip_code":"5201413","prefecture":"滋賀県","prefecture_kana":"シガケン","city":"高島市","city_kana":"タカシマシ","town":"朽木上野","town_kana":"クツキウエノ","prefecture_code":25},"1453":{"zip_code":"5201453","prefecture":"滋賀県","prefecture_kana":"シガケン","city":"高島市","city_kana":"タカシマシ","town":"朽木雲洞谷","town_kana":"クツキウトウダニ","prefecture_code":25},"1442":{"zip_code":"5201442","prefecture":"滋賀県","prefecture_kana":"シガケン","city":"高島市","city_kana":"タカシマシ","town":"朽木生杉","town_kana":"クツキオイスギ","prefecture_code":25},"1423":{"zip_code":"5201423","prefecture":"滋賀県","prefecture_kana":"シガケン","city":"高島市","city_kana":"タカシマシ","town":"朽木大野","town_kana":"クツキオオノ","prefecture_code":25},"1443":{"zip_code":"5201443","prefecture":"滋賀県","prefecture_kana":"シガケン","city":"高島市","city_kana":"タカシマシ","town":"朽木小入谷","town_kana":"クツキオニュウダニ","prefecture_code":25},"1415":{"zip_code":"5201415","prefecture":"滋賀県","prefecture_kana":"シガケン","city":"高島市","city_kana":"タカシマシ","town":"朽木柏","town_kana":"クツキカセ","prefecture_code":25},"1455":{"zip_code":"5201455","prefecture":"滋賀県","prefecture_kana":"シガケン","city":"高島市","city_kana":"タカシマシ","town":"朽木木地山","town_kana":"クツキキジヤマ","prefecture_code":25},"1433":{"zip_code":"5201433","prefecture":"滋賀県","prefecture_kana":"シガケン","city":"高島市","city_kana":"タカシマシ","town":"朽木桑原","town_kana":"クツキクワバラ","prefecture_code":25},"1431":{"zip_code":"5201431","prefecture":"滋賀県","prefecture_kana":"シガケン","city":"高島市","city_kana":"タカシマシ","town":"朽木小川","town_kana":"クツキコガワ","prefecture_code":25},"1452":{"zip_code":"5201452","prefecture":"滋賀県","prefecture_kana":"シガケン","city":"高島市","city_kana":"タカシマシ","town":"朽木地子原","town_kana":"クツキジシハラ","prefecture_code":25},"1425":{"zip_code":"5201425","prefecture":"滋賀県","prefecture_kana":"シガケン","city":"高島市","city_kana":"タカシマシ","town":"朽木栃生","town_kana":"クツキトチュウ","prefecture_code":25},"1444":{"zip_code":"5201444","prefecture":"滋賀県","prefecture_kana":"シガケン","city":"高島市","city_kana":"タカシマシ","town":"朽木中牧","town_kana":"クツキナカマキ","prefecture_code":25},"1454":{"zip_code":"5201454","prefecture":"滋賀県","prefecture_kana":"シガケン","city":"高島市","city_kana":"タカシマシ","town":"朽木能家","town_kana":"クツキノウゲ","prefecture_code":25},"1412":{"zip_code":"5201412","prefecture":"滋賀県","prefecture_kana":"シガケン","city":"高島市","city_kana":"タカシマシ","town":"朽木野尻","town_kana":"クツキノジリ","prefecture_code":25},"1422":{"zip_code":"5201422","prefecture":"滋賀県","prefecture_kana":"シガケン","city":"高島市","city_kana":"タカシマシ","town":"朽木古川","town_kana":"クツキフルカワ","prefecture_code":25},"1441":{"zip_code":"5201441","prefecture":"滋賀県","prefecture_kana":"シガケン","city":"高島市","city_kana":"タカシマシ","town":"朽木古屋","town_kana":"クツキフルヤ","prefecture_code":25},"1432":{"zip_code":"5201432","prefecture":"滋賀県","prefecture_kana":"シガケン","city":"高島市","city_kana":"タカシマシ","town":"朽木平良","town_kana":"クツキヘラ","prefecture_code":25},"1414":{"zip_code":"5201414","prefecture":"滋賀県","prefecture_kana":"シガケン","city":"高島市","city_kana":"タカシマシ","town":"朽木宮前坊","town_kana":"クツキミヤマエボウ","prefecture_code":25},"1424":{"zip_code":"5201424","prefecture":"滋賀県","prefecture_kana":"シガケン","city":"高島市","city_kana":"タカシマシ","town":"朽木村井","town_kana":"クツキムライ","prefecture_code":25},"1143":{"zip_code":"5201143","prefecture":"滋賀県","prefecture_kana":"シガケン","city":"高島市","city_kana":"タカシマシ","town":"黒谷","town_kana":"クロダニ","prefecture_code":25},"1142":{"zip_code":"5201142","prefecture":"滋賀県","prefecture_kana":"シガケン","city":"高島市","city_kana":"タカシマシ","town":"鹿ケ瀬","town_kana":"シシガセ","prefecture_code":25},"1123":{"zip_code":"5201123","prefecture":"滋賀県","prefecture_kana":"シガケン","city":"高島市","city_kana":"タカシマシ","town":"城山台","town_kana":"シロヤマダイ","prefecture_code":25},"1531":{"zip_code":"5201531","prefecture":"滋賀県","prefecture_kana":"シガケン","city":"高島市","city_kana":"タカシマシ","town":"新旭町饗庭","town_kana":"シンアサヒチョウアイバ","prefecture_code":25},"1501":{"zip_code":"5201501","prefecture":"滋賀県","prefecture_kana":"シガケン","city":"高島市","city_kana":"タカシマシ","town":"新旭町旭","town_kana":"シンアサヒチョウアサヒ","prefecture_code":25},"1512":{"zip_code":"5201512","prefecture":"滋賀県","prefecture_kana":"シガケン","city":"高島市","city_kana":"タカシマシ","town":"新旭町太田","town_kana":"シンアサヒチョウオオタ","prefecture_code":25},"1521":{"zip_code":"5201521","prefecture":"滋賀県","prefecture_kana":"シガケン","city":"高島市","city_kana":"タカシマシ","town":"新旭町北畑","town_kana":"シンアサヒチョウキタバタ","prefecture_code":25},"1532":{"zip_code":"5201532","prefecture":"滋賀県","prefecture_kana":"シガケン","city":"高島市","city_kana":"タカシマシ","town":"新旭町熊野本","town_kana":"シンアサヒチョウクマノモト","prefecture_code":25},"1522":{"zip_code":"5201522","prefecture":"滋賀県","prefecture_kana":"シガケン","city":"高島市","city_kana":"タカシマシ","town":"新旭町新庄","town_kana":"シンアサヒチョウシンジョウ","prefecture_code":25},"1502":{"zip_code":"5201502","prefecture":"滋賀県","prefecture_kana":"シガケン","city":"高島市","city_kana":"タカシマシ","town":"新旭町針江","town_kana":"シンアサヒチョウハリエ","prefecture_code":25},"1503":{"zip_code":"5201503","prefecture":"滋賀県","prefecture_kana":"シガケン","city":"高島市","city_kana":"タカシマシ","town":"新旭町深溝","town_kana":"シンアサヒチョウフカミゾ","prefecture_code":25},"1533":{"zip_code":"5201533","prefecture":"滋賀県","prefecture_kana":"シガケン","city":"高島市","city_kana":"タカシマシ","town":"新旭町安井川","town_kana":"シンアサヒチョウヤスイガワ","prefecture_code":25},"1511":{"zip_code":"5201511","prefecture":"滋賀県","prefecture_kana":"シガケン","city":"高島市","city_kana":"タカシマシ","town":"新旭町藁園","town_kana":"シンアサヒチョウワラソノ","prefecture_code":25},"1141":{"zip_code":"5201141","prefecture":"滋賀県","prefecture_kana":"シガケン","city":"高島市","city_kana":"タカシマシ","town":"高島","town_kana":"タカシマ","prefecture_code":25},"1112":{"zip_code":"5201112","prefecture":"滋賀県","prefecture_kana":"シガケン","city":"高島市","city_kana":"タカシマシ","town":"永田","town_kana":"ナガタ","prefecture_code":25},"1102":{"zip_code":"5201102","prefecture":"滋賀県","prefecture_kana":"シガケン","city":"高島市","city_kana":"タカシマシ","town":"野田","town_kana":"ノダ","prefecture_code":25},"1132":{"zip_code":"5201132","prefecture":"滋賀県","prefecture_kana":"シガケン","city":"高島市","city_kana":"タカシマシ","town":"拝戸","town_kana":"ハイド","prefecture_code":25},"1144":{"zip_code":"5201144","prefecture":"滋賀県","prefecture_kana":"シガケン","city":"高島市","city_kana":"タカシマシ","town":"畑","town_kana":"ハタ","prefecture_code":25},"1801":{"zip_code":"5201801","prefecture":"滋賀県","prefecture_kana":"シガケン","city":"高島市","city_kana":"タカシマシ","town":"マキノ町在原","town_kana":"マキノチョウアリハラ","prefecture_code":25},"1835":{"zip_code":"5201835","prefecture":"滋賀県","prefecture_kana":"シガケン","city":"高島市","city_kana":"タカシマシ","town":"マキノ町石庭","town_kana":"マキノチョウイシバ","prefecture_code":25},"1804":{"zip_code":"5201804","prefecture":"滋賀県","prefecture_kana":"シガケン","city":"高島市","city_kana":"タカシマシ","town":"マキノ町浦","town_kana":"マキノチョウウラ","prefecture_code":25},"1824":{"zip_code":"5201824","prefecture":"滋賀県","prefecture_kana":"シガケン","city":"高島市","city_kana":"タカシマシ","town":"マキノ町大沼","town_kana":"マキノチョウオオヌマ","prefecture_code":25},"1811":{"zip_code":"5201811","prefecture":"滋賀県","prefecture_kana":"シガケン","city":"高島市","city_kana":"タカシマシ","town":"マキノ町海津","town_kana":"マキノチョウカイヅ","prefecture_code":25},"1831":{"zip_code":"5201831","prefecture":"滋賀県","prefecture_kana":"シガケン","city":"高島市","city_kana":"タカシマシ","town":"マキノ町上開田","town_kana":"マキノチョウカミカイデ","prefecture_code":25},"1803":{"zip_code":"5201803","prefecture":"滋賀県","prefecture_kana":"シガケン","city":"高島市","city_kana":"タカシマシ","town":"マキノ町小荒路","town_kana":"マキノチョウコアラジ","prefecture_code":25},"1821":{"zip_code":"5201821","prefecture":"滋賀県","prefecture_kana":"シガケン","city":"高島市","city_kana":"タカシマシ","town":"マキノ町沢","town_kana":"マキノチョウサワ","prefecture_code":25},"1805":{"zip_code":"5201805","prefecture":"滋賀県","prefecture_kana":"シガケン","city":"高島市","city_kana":"タカシマシ","town":"マキノ町下","town_kana":"マキノチョウシモ","prefecture_code":25},"1832":{"zip_code":"5201832","prefecture":"滋賀県","prefecture_kana":"シガケン","city":"高島市","city_kana":"タカシマシ","town":"マキノ町下開田","town_kana":"マキノチョウシモカイデ","prefecture_code":25},"1837":{"zip_code":"5201837","prefecture":"滋賀県","prefecture_kana":"シガケン","city":"高島市","city_kana":"タカシマシ","town":"マキノ町白谷","town_kana":"マキノチョウシラタニ","prefecture_code":25},"1822":{"zip_code":"5201822","prefecture":"滋賀県","prefecture_kana":"シガケン","city":"高島市","city_kana":"タカシマシ","town":"マキノ町新保","town_kana":"マキノチョウシンボ","prefecture_code":25},"1813":{"zip_code":"5201813","prefecture":"滋賀県","prefecture_kana":"シガケン","city":"高島市","city_kana":"タカシマシ","town":"マキノ町高木浜","town_kana":"マキノチョウタカギハマ","prefecture_code":25},"1814":{"zip_code":"5201814","prefecture":"滋賀県","prefecture_kana":"シガケン","city":"高島市","city_kana":"タカシマシ","town":"マキノ町知内","town_kana":"マキノチョウチナイ","prefecture_code":25},"1826":{"zip_code":"5201826","prefecture":"滋賀県","prefecture_kana":"シガケン","city":"高島市","city_kana":"タカシマシ","town":"マキノ町辻","town_kana":"マキノチョウツジ","prefecture_code":25},"1834":{"zip_code":"5201834","prefecture":"滋賀県","prefecture_kana":"シガケン","city":"高島市","city_kana":"タカシマシ","town":"マキノ町寺久保","town_kana":"マキノチョウテラクボ","prefecture_code":25},"1823":{"zip_code":"5201823","prefecture":"滋賀県","prefecture_kana":"シガケン","city":"高島市","city_kana":"タカシマシ","town":"マキノ町中庄","town_kana":"マキノチョウナカショウ","prefecture_code":25},"1812":{"zip_code":"5201812","prefecture":"滋賀県","prefecture_kana":"シガケン","city":"高島市","city_kana":"タカシマシ","town":"マキノ町西浜","town_kana":"マキノチョウニシハマ","prefecture_code":25},"1802":{"zip_code":"5201802","prefecture":"滋賀県","prefecture_kana":"シガケン","city":"高島市","city_kana":"タカシマシ","town":"マキノ町野口","town_kana":"マキノチョウノグチ","prefecture_code":25},"1833":{"zip_code":"5201833","prefecture":"滋賀県","prefecture_kana":"シガケン","city":"高島市","city_kana":"タカシマシ","town":"マキノ町蛭口","town_kana":"マキノチョウヒルグチ","prefecture_code":25},"1836":{"zip_code":"5201836","prefecture":"滋賀県","prefecture_kana":"シガケン","city":"高島市","city_kana":"タカシマシ","town":"マキノ町牧野","town_kana":"マキノチョウマキノ","prefecture_code":25},"1825":{"zip_code":"5201825","prefecture":"滋賀県","prefecture_kana":"シガケン","city":"高島市","city_kana":"タカシマシ","town":"マキノ町森西","town_kana":"マキノチョウモリニシ","prefecture_code":25},"1806":{"zip_code":"5201806","prefecture":"滋賀県","prefecture_kana":"シガケン","city":"高島市","city_kana":"タカシマシ","town":"マキノ町山中","town_kana":"マキノチョウヤマナカ","prefecture_code":25},"1103":{"zip_code":"5201103","prefecture":"滋賀県","prefecture_kana":"シガケン","city":"高島市","city_kana":"タカシマシ","town":"宮野","town_kana":"ミヤノ","prefecture_code":25},"1101":{"zip_code":"5201101","prefecture":"滋賀県","prefecture_kana":"シガケン","city":"高島市","city_kana":"タカシマシ","town":"武曽横山","town_kana":"ムソヨコヤマ","prefecture_code":25},"2500":{"zip_code":"5202500","prefecture":"滋賀県","prefecture_kana":"シガケン","city":"蒲生郡竜王町","city_kana":"ガモウグンリュウオウチョウ","town":"","town_kana":"","prefecture_code":25},"2524":{"zip_code":"5202524","prefecture":"滋賀県","prefecture_kana":"シガケン","city":"蒲生郡竜王町","city_kana":"ガモウグンリュウオウチョウ","town":"綾戸","town_kana":"アヤド","prefecture_code":25},"2522":{"zip_code":"5202522","prefecture":"滋賀県","prefecture_kana":"シガケン","city":"蒲生郡竜王町","city_kana":"ガモウグンリュウオウチョウ","town":"岩井","town_kana":"イワイ","prefecture_code":25},"2562":{"zip_code":"5202562","prefecture":"滋賀県","prefecture_kana":"シガケン","city":"蒲生郡竜王町","city_kana":"ガモウグンリュウオウチョウ","town":"鵜川","town_kana":"ウカワ","prefecture_code":25},"2541":{"zip_code":"5202541","prefecture":"滋賀県","prefecture_kana":"シガケン","city":"蒲生郡竜王町","city_kana":"ガモウグンリュウオウチョウ","town":"岡屋","town_kana":"オカヤ","prefecture_code":25},"2552":{"zip_code":"5202552","prefecture":"滋賀県","prefecture_kana":"シガケン","city":"蒲生郡竜王町","city_kana":"ガモウグンリュウオウチョウ","town":"小口","town_kana":"オグチ","prefecture_code":25},"2573":{"zip_code":"5202573","prefecture":"滋賀県","prefecture_kana":"シガケン","city":"蒲生郡竜王町","city_kana":"ガモウグンリュウオウチョウ","town":"鏡","town_kana":"カガミ","prefecture_code":25},"2512":{"zip_code":"5202512","prefecture":"滋賀県","prefecture_kana":"シガケン","city":"蒲生郡竜王町","city_kana":"ガモウグンリュウオウチョウ","town":"駕輿丁","town_kana":"カヨチョウ","prefecture_code":25},"2504":{"zip_code":"5202504","prefecture":"滋賀県","prefecture_kana":"シガケン","city":"蒲生郡竜王町","city_kana":"ガモウグンリュウオウチョウ","town":"川上","town_kana":"カワカミ","prefecture_code":25},"2521":{"zip_code":"5202521","prefecture":"滋賀県","prefecture_kana":"シガケン","city":"蒲生郡竜王町","city_kana":"ガモウグンリュウオウチョウ","town":"川守","town_kana":"カワモリ","prefecture_code":25},"2551":{"zip_code":"5202551","prefecture":"滋賀県","prefecture_kana":"シガケン","city":"蒲生郡竜王町","city_kana":"ガモウグンリュウオウチョウ","town":"薬師","town_kana":"クズシ","prefecture_code":25},"2563":{"zip_code":"5202563","prefecture":"滋賀県","prefecture_kana":"シガケン","city":"蒲生郡竜王町","city_kana":"ガモウグンリュウオウチョウ","town":"七里","town_kana":"シチリ","prefecture_code":25},"2503":{"zip_code":"5202503","prefecture":"滋賀県","prefecture_kana":"シガケン","city":"蒲生郡竜王町","city_kana":"ガモウグンリュウオウチョウ","town":"信濃","town_kana":"シナノ","prefecture_code":25},"2513":{"zip_code":"5202513","prefecture":"滋賀県","prefecture_kana":"シガケン","city":"蒲生郡竜王町","city_kana":"ガモウグンリュウオウチョウ","town":"島","town_kana":"シマ","prefecture_code":25},"2502":{"zip_code":"5202502","prefecture":"滋賀県","prefecture_kana":"シガケン","city":"蒲生郡竜王町","city_kana":"ガモウグンリュウオウチョウ","town":"庄","town_kana":"ショウ","prefecture_code":25},"2561":{"zip_code":"5202561","prefecture":"滋賀県","prefecture_kana":"シガケン","city":"蒲生郡竜王町","city_kana":"ガモウグンリュウオウチョウ","town":"須恵","town_kana":"スエ","prefecture_code":25},"2523":{"zip_code":"5202523","prefecture":"滋賀県","prefecture_kana":"シガケン","city":"蒲生郡竜王町","city_kana":"ガモウグンリュウオウチョウ","town":"田中","town_kana":"タナカ","prefecture_code":25},"2572":{"zip_code":"5202572","prefecture":"滋賀県","prefecture_kana":"シガケン","city":"蒲生郡竜王町","city_kana":"ガモウグンリュウオウチョウ","town":"西川","town_kana":"ニシガワ","prefecture_code":25},"2571":{"zip_code":"5202571","prefecture":"滋賀県","prefecture_kana":"シガケン","city":"蒲生郡竜王町","city_kana":"ガモウグンリュウオウチョウ","town":"西横関","town_kana":"ニシヨコゼキ","prefecture_code":25},"2514":{"zip_code":"5202514","prefecture":"滋賀県","prefecture_kana":"シガケン","city":"蒲生郡竜王町","city_kana":"ガモウグンリュウオウチョウ","town":"橋本","town_kana":"ハシモト","prefecture_code":25},"2511":{"zip_code":"5202511","prefecture":"滋賀県","prefecture_kana":"シガケン","city":"蒲生郡竜王町","city_kana":"ガモウグンリュウオウチョウ","town":"林","town_kana":"ハヤシ","prefecture_code":25},"2564":{"zip_code":"5202564","prefecture":"滋賀県","prefecture_kana":"シガケン","city":"蒲生郡竜王町","city_kana":"ガモウグンリュウオウチョウ","town":"山面","town_kana":"ヤマヅラ","prefecture_code":25},"2542":{"zip_code":"5202542","prefecture":"滋賀県","prefecture_kana":"シガケン","city":"蒲生郡竜王町","city_kana":"ガモウグンリュウオウチョウ","town":"山中","town_kana":"ヤマナカ","prefecture_code":25},"2531":{"zip_code":"5202531","prefecture":"滋賀県","prefecture_kana":"シガケン","city":"蒲生郡竜王町","city_kana":"ガモウグンリュウオウチョウ","town":"山之上","town_kana":"ヤマノウエ","prefecture_code":25},"2501":{"zip_code":"5202501","prefecture":"滋賀県","prefecture_kana":"シガケン","city":"蒲生郡竜王町","city_kana":"ガモウグンリュウオウチョウ","town":"弓削","town_kana":"ユゲ","prefecture_code":25},"0465":{"zip_code":"5200465","prefecture":"京都府","prefecture_kana":"キョウトフ","city":"京都市左京区","city_kana":"キョウトシサキョウク","town":"久多上の町","town_kana":"クタカミノチョウ","prefecture_code":26},"0464":{"zip_code":"5200464","prefecture":"京都府","prefecture_kana":"キョウトフ","city":"京都市左京区","city_kana":"キョウトシサキョウク","town":"久多中の町","town_kana":"クタナカノチョウ","prefecture_code":26},"0462":{"zip_code":"5200462","prefecture":"京都府","prefecture_kana":"キョウトフ","city":"京都市左京区","city_kana":"キョウトシサキョウク","town":"久多下の町","town_kana":"クタシモノチョウ","prefecture_code":26},"0461":{"zip_code":"5200461","prefecture":"京都府","prefecture_kana":"キョウトフ","city":"京都市左京区","city_kana":"キョウトシサキョウク","town":"久多川合町","town_kana":"クタカワイチョウ","prefecture_code":26},"0463":{"zip_code":"5200463","prefecture":"京都府","prefecture_kana":"キョウトフ","city":"京都市左京区","city_kana":"キョウトシサキョウク","town":"久多宮の町","town_kana":"クタミヤノチョウ","prefecture_code":26}}