{"1101":{"zip_code":"5211101","prefecture":"滋賀県","prefecture_kana":"シガケン","city":"彦根市","city_kana":"ヒコネシ","town":"石寺町","town_kana":"イシデラチョウ","prefecture_code":25},"1125":{"zip_code":"5211125","prefecture":"滋賀県","prefecture_kana":"シガケン","city":"彦根市","city_kana":"ヒコネシ","town":"稲枝町","town_kana":"イナエチョウ","prefecture_code":25},"1111":{"zip_code":"5211111","prefecture":"滋賀県","prefecture_kana":"シガケン","city":"彦根市","city_kana":"ヒコネシ","town":"稲里町","town_kana":"イナサトチョウ","prefecture_code":25},"1113":{"zip_code":"5211113","prefecture":"滋賀県","prefecture_kana":"シガケン","city":"彦根市","city_kana":"ヒコネシ","town":"稲部町","town_kana":"イナベチョウ","prefecture_code":25},"1121":{"zip_code":"5211121","prefecture":"滋賀県","prefecture_kana":"シガケン","city":"彦根市","city_kana":"ヒコネシ","town":"海瀬町","town_kana":"カイゼチョウ","prefecture_code":25},"1112":{"zip_code":"5211112","prefecture":"滋賀県","prefecture_kana":"シガケン","city":"彦根市","city_kana":"ヒコネシ","town":"金沢町","town_kana":"カナザワチョウ","prefecture_code":25},"1115":{"zip_code":"5211115","prefecture":"滋賀県","prefecture_kana":"シガケン","city":"彦根市","city_kana":"ヒコネシ","town":"金田町","town_kana":"カネダチョウ","prefecture_code":25},"1131":{"zip_code":"5211131","prefecture":"滋賀県","prefecture_kana":"シガケン","city":"彦根市","city_kana":"ヒコネシ","town":"上稲葉町","town_kana":"カミイナバチョウ","prefecture_code":25},"1103":{"zip_code":"5211103","prefecture":"滋賀県","prefecture_kana":"シガケン","city":"彦根市","city_kana":"ヒコネシ","town":"上岡部町","town_kana":"カミオカベチョウ","prefecture_code":25},"1143":{"zip_code":"5211143","prefecture":"滋賀県","prefecture_kana":"シガケン","city":"彦根市","city_kana":"ヒコネシ","town":"上西川町","town_kana":"カミニシガワチョウ","prefecture_code":25},"1141":{"zip_code":"5211141","prefecture":"滋賀県","prefecture_kana":"シガケン","city":"彦根市","city_kana":"ヒコネシ","town":"甲崎町","town_kana":"コウザキチョウ","prefecture_code":25},"1147":{"zip_code":"5211147","prefecture":"滋賀県","prefecture_kana":"シガケン","city":"彦根市","city_kana":"ヒコネシ","town":"薩摩町","town_kana":"サツマチョウ","prefecture_code":25},"1132":{"zip_code":"5211132","prefecture":"滋賀県","prefecture_kana":"シガケン","city":"彦根市","city_kana":"ヒコネシ","town":"下稲葉町","town_kana":"シモイナバチョウ","prefecture_code":25},"1102":{"zip_code":"5211102","prefecture":"滋賀県","prefecture_kana":"シガケン","city":"彦根市","city_kana":"ヒコネシ","town":"下岡部町","town_kana":"シモオカベチョウ","prefecture_code":25},"1142":{"zip_code":"5211142","prefecture":"滋賀県","prefecture_kana":"シガケン","city":"彦根市","city_kana":"ヒコネシ","town":"下西川町","town_kana":"シモニシガワチョウ","prefecture_code":25},"1135":{"zip_code":"5211135","prefecture":"滋賀県","prefecture_kana":"シガケン","city":"彦根市","city_kana":"ヒコネシ","town":"新海町","town_kana":"シンガイチョウ","prefecture_code":25},"1136":{"zip_code":"5211136","prefecture":"滋賀県","prefecture_kana":"シガケン","city":"彦根市","city_kana":"ヒコネシ","town":"新海浜","town_kana":"シンガイハマ","prefecture_code":25},"1134":{"zip_code":"5211134","prefecture":"滋賀県","prefecture_kana":"シガケン","city":"彦根市","city_kana":"ヒコネシ","town":"田附町","town_kana":"タヅケチョウ","prefecture_code":25},"1105":{"zip_code":"5211105","prefecture":"滋賀県","prefecture_kana":"シガケン","city":"彦根市","city_kana":"ヒコネシ","town":"田原町","town_kana":"タワラチョウ","prefecture_code":25},"1104":{"zip_code":"5211104","prefecture":"滋賀県","prefecture_kana":"シガケン","city":"彦根市","city_kana":"ヒコネシ","town":"出路町","town_kana":"デッチチョウ","prefecture_code":25},"1124":{"zip_code":"5211124","prefecture":"滋賀県","prefecture_kana":"シガケン","city":"彦根市","city_kana":"ヒコネシ","town":"野良田町","town_kana":"ノラダチョウ","prefecture_code":25},"1126":{"zip_code":"5211126","prefecture":"滋賀県","prefecture_kana":"シガケン","city":"彦根市","city_kana":"ヒコネシ","town":"服部町","town_kana":"ハツトリチョウ","prefecture_code":25},"1114":{"zip_code":"5211114","prefecture":"滋賀県","prefecture_kana":"シガケン","city":"彦根市","city_kana":"ヒコネシ","town":"彦富町","town_kana":"ヒコトミチョウ","prefecture_code":25},"1123":{"zip_code":"5211123","prefecture":"滋賀県","prefecture_kana":"シガケン","city":"彦根市","city_kana":"ヒコネシ","town":"肥田町","town_kana":"ヒダチョウ","prefecture_code":25},"1144":{"zip_code":"5211144","prefecture":"滋賀県","prefecture_kana":"シガケン","city":"彦根市","city_kana":"ヒコネシ","town":"普光寺町","town_kana":"フコウジチョウ","prefecture_code":25},"1133":{"zip_code":"5211133","prefecture":"滋賀県","prefecture_kana":"シガケン","city":"彦根市","city_kana":"ヒコネシ","town":"本庄町","town_kana":"ホンジョウチョウ","prefecture_code":25},"1122":{"zip_code":"5211122","prefecture":"滋賀県","prefecture_kana":"シガケン","city":"彦根市","city_kana":"ヒコネシ","town":"三津町","town_kana":"ミツチョウ","prefecture_code":25},"1145":{"zip_code":"5211145","prefecture":"滋賀県","prefecture_kana":"シガケン","city":"彦根市","city_kana":"ヒコネシ","town":"南三ツ谷町","town_kana":"ミナミミツヤチョウ","prefecture_code":25},"1146":{"zip_code":"5211146","prefecture":"滋賀県","prefecture_kana":"シガケン","city":"彦根市","city_kana":"ヒコネシ","town":"柳川町","town_kana":"ヤナガワチョウ","prefecture_code":25},"1331":{"zip_code":"5211331","prefecture":"滋賀県","prefecture_kana":"シガケン","city":"近江八幡市","city_kana":"オウミハチマンシ","town":"安土町石寺","town_kana":"アヅチチョウイシデラ","prefecture_code":25},"1333":{"zip_code":"5211333","prefecture":"滋賀県","prefecture_kana":"シガケン","city":"近江八幡市","city_kana":"オウミハチマンシ","town":"安土町内野","town_kana":"アヅチチョウウチノ","prefecture_code":25},"1342":{"zip_code":"5211342","prefecture":"滋賀県","prefecture_kana":"シガケン","city":"近江八幡市","city_kana":"オウミハチマンシ","town":"安土町上出","town_kana":"アヅチチョウカミデ","prefecture_code":25},"1341":{"zip_code":"5211341","prefecture":"滋賀県","prefecture_kana":"シガケン","city":"近江八幡市","city_kana":"オウミハチマンシ","town":"安土町上豊浦","town_kana":"アヅチチョウカミトヨウラ","prefecture_code":25},"1321":{"zip_code":"5211321","prefecture":"滋賀県","prefecture_kana":"シガケン","city":"近江八幡市","city_kana":"オウミハチマンシ","town":"安土町桑実寺","town_kana":"アヅチチョウクワノミジ","prefecture_code":25},"1343":{"zip_code":"5211343","prefecture":"滋賀県","prefecture_kana":"シガケン","city":"近江八幡市","city_kana":"オウミハチマンシ","town":"安土町小中","town_kana":"アヅチチョウコナカ","prefecture_code":25},"1346":{"zip_code":"5211346","prefecture":"滋賀県","prefecture_kana":"シガケン","city":"近江八幡市","city_kana":"オウミハチマンシ","town":"安土町香庄","town_kana":"アヅチチョウコノショウ","prefecture_code":25},"1345":{"zip_code":"5211345","prefecture":"滋賀県","prefecture_kana":"シガケン","city":"近江八幡市","city_kana":"オウミハチマンシ","town":"安土町慈恩寺","town_kana":"アヅチチョウジオンジ","prefecture_code":25},"1311":{"zip_code":"5211311","prefecture":"滋賀県","prefecture_kana":"シガケン","city":"近江八幡市","city_kana":"オウミハチマンシ","town":"安土町下豊浦","town_kana":"アヅチチョウシモトイラ","prefecture_code":25},"1351":{"zip_code":"5211351","prefecture":"滋賀県","prefecture_kana":"シガケン","city":"近江八幡市","city_kana":"オウミハチマンシ","town":"安土町常楽寺","town_kana":"アヅチチョウジョウラクジ","prefecture_code":25},"1301":{"zip_code":"5211301","prefecture":"滋賀県","prefecture_kana":"シガケン","city":"近江八幡市","city_kana":"オウミハチマンシ","town":"安土町大中","town_kana":"アヅチチョウダイナカ","prefecture_code":25},"1344":{"zip_code":"5211344","prefecture":"滋賀県","prefecture_kana":"シガケン","city":"近江八幡市","city_kana":"オウミハチマンシ","town":"安土町中屋","town_kana":"アヅチチョウナカヤ","prefecture_code":25},"1334":{"zip_code":"5211334","prefecture":"滋賀県","prefecture_kana":"シガケン","city":"近江八幡市","city_kana":"オウミハチマンシ","town":"安土町西老蘇","town_kana":"アヅチチョウニシオイソ","prefecture_code":25},"1332":{"zip_code":"5211332","prefecture":"滋賀県","prefecture_kana":"シガケン","city":"近江八幡市","city_kana":"オウミハチマンシ","town":"安土町東老蘇","town_kana":"アヅチチョウヒガシオイソ","prefecture_code":25},"1322":{"zip_code":"5211322","prefecture":"滋賀県","prefecture_kana":"シガケン","city":"近江八幡市","city_kana":"オウミハチマンシ","town":"安土町宮津","town_kana":"アヅチチョウミヤヅ","prefecture_code":25},"1202":{"zip_code":"5211202","prefecture":"滋賀県","prefecture_kana":"シガケン","city":"東近江市","city_kana":"ヒガシオウミシ","town":"阿弥陀堂町","town_kana":"アミダドウチョウ","prefecture_code":25},"1223":{"zip_code":"5211223","prefecture":"滋賀県","prefecture_kana":"シガケン","city":"東近江市","city_kana":"ヒガシオウミシ","town":"猪子町","town_kana":"イノコチョウ","prefecture_code":25},"1235":{"zip_code":"5211235","prefecture":"滋賀県","prefecture_kana":"シガケン","city":"東近江市","city_kana":"ヒガシオウミシ","town":"伊庭町","town_kana":"イバチョウ","prefecture_code":25},"1211":{"zip_code":"5211211","prefecture":"滋賀県","prefecture_kana":"シガケン","city":"東近江市","city_kana":"ヒガシオウミシ","town":"今町","town_kana":"イマチョウ","prefecture_code":25},"1204":{"zip_code":"5211204","prefecture":"滋賀県","prefecture_kana":"シガケン","city":"東近江市","city_kana":"ヒガシオウミシ","town":"小川町","town_kana":"オガワチョウ","prefecture_code":25},"1241":{"zip_code":"5211241","prefecture":"滋賀県","prefecture_kana":"シガケン","city":"東近江市","city_kana":"ヒガシオウミシ","town":"乙女浜町","town_kana":"オトメハマチョウ","prefecture_code":25},"1221":{"zip_code":"5211221","prefecture":"滋賀県","prefecture_kana":"シガケン","city":"東近江市","city_kana":"ヒガシオウミシ","town":"垣見町","town_kana":"カキミチョウ","prefecture_code":25},"1203":{"zip_code":"5211203","prefecture":"滋賀県","prefecture_kana":"シガケン","city":"東近江市","city_kana":"ヒガシオウミシ","town":"川南町","town_kana":"カワミナミチョウ","prefecture_code":25},"1232":{"zip_code":"5211232","prefecture":"滋賀県","prefecture_kana":"シガケン","city":"東近江市","city_kana":"ヒガシオウミシ","town":"北須田町","town_kana":"キタスダチョウ","prefecture_code":25},"1234":{"zip_code":"5211234","prefecture":"滋賀県","prefecture_kana":"シガケン","city":"東近江市","city_kana":"ヒガシオウミシ","town":"きぬがさ町","town_kana":"キヌガサチョウ","prefecture_code":25},"1243":{"zip_code":"5211243","prefecture":"滋賀県","prefecture_kana":"シガケン","city":"東近江市","city_kana":"ヒガシオウミシ","town":"栗見新田町","town_kana":"クリミシンデンチョウ","prefecture_code":25},"1245":{"zip_code":"5211245","prefecture":"滋賀県","prefecture_kana":"シガケン","city":"東近江市","city_kana":"ヒガシオウミシ","town":"栗見出在家町","town_kana":"クリミデザイケチョウ","prefecture_code":25},"1215":{"zip_code":"5211215","prefecture":"滋賀県","prefecture_kana":"シガケン","city":"東近江市","city_kana":"ヒガシオウミシ","town":"佐生町","town_kana":"サソチョウ","prefecture_code":25},"1222":{"zip_code":"5211222","prefecture":"滋賀県","prefecture_kana":"シガケン","city":"東近江市","city_kana":"ヒガシオウミシ","town":"佐野町","town_kana":"サノチョウ","prefecture_code":25},"1201":{"zip_code":"5211201","prefecture":"滋賀県","prefecture_kana":"シガケン","city":"東近江市","city_kana":"ヒガシオウミシ","town":"新宮町","town_kana":"シングウチョウ","prefecture_code":25},"1213":{"zip_code":"5211213","prefecture":"滋賀県","prefecture_kana":"シガケン","city":"東近江市","city_kana":"ヒガシオウミシ","town":"神郷町","town_kana":"ジンゴウチョウ","prefecture_code":25},"1205":{"zip_code":"5211205","prefecture":"滋賀県","prefecture_kana":"シガケン","city":"東近江市","city_kana":"ヒガシオウミシ","town":"躰光寺町","town_kana":"タイコウジチョウ","prefecture_code":25},"1244":{"zip_code":"5211244","prefecture":"滋賀県","prefecture_kana":"シガケン","city":"東近江市","city_kana":"ヒガシオウミシ","town":"大中町","town_kana":"ダイナカチョウ","prefecture_code":25},"1212":{"zip_code":"5211212","prefecture":"滋賀県","prefecture_kana":"シガケン","city":"東近江市","city_kana":"ヒガシオウミシ","town":"種町","town_kana":"タネチョウ","prefecture_code":25},"1214":{"zip_code":"5211214","prefecture":"滋賀県","prefecture_kana":"シガケン","city":"東近江市","city_kana":"ヒガシオウミシ","town":"長勝寺町","town_kana":"チョウショウジチョウ","prefecture_code":25},"1231":{"zip_code":"5211231","prefecture":"滋賀県","prefecture_kana":"シガケン","city":"東近江市","city_kana":"ヒガシオウミシ","town":"能登川町","town_kana":"ノトガワチョウ","prefecture_code":25},"1224":{"zip_code":"5211224","prefecture":"滋賀県","prefecture_kana":"シガケン","city":"東近江市","city_kana":"ヒガシオウミシ","town":"林町","town_kana":"ハヤシチョウ","prefecture_code":25},"1242":{"zip_code":"5211242","prefecture":"滋賀県","prefecture_kana":"シガケン","city":"東近江市","city_kana":"ヒガシオウミシ","town":"福堂町","town_kana":"フクドウチョウ","prefecture_code":25},"1233":{"zip_code":"5211233","prefecture":"滋賀県","prefecture_kana":"シガケン","city":"東近江市","city_kana":"ヒガシオウミシ","town":"南須田町","town_kana":"ミナミスダチョウ","prefecture_code":25},"1225":{"zip_code":"5211225","prefecture":"滋賀県","prefecture_kana":"シガケン","city":"東近江市","city_kana":"ヒガシオウミシ","town":"山路町","town_kana":"ヤマジチョウ","prefecture_code":25},"0000":{"zip_code":"5210000","prefecture":"滋賀県","prefecture_kana":"シガケン","city":"米原市","city_kana":"マイバラシ","town":"","town_kana":"","prefecture_code":25},"0001":{"zip_code":"5210001","prefecture":"滋賀県","prefecture_kana":"シガケン","city":"米原市","city_kana":"マイバラシ","town":"朝妻筑摩","town_kana":"アサヅマチクマ","prefecture_code":25},"0226":{"zip_code":"5210226","prefecture":"滋賀県","prefecture_kana":"シガケン","city":"米原市","city_kana":"マイバラシ","town":"朝日","town_kana":"アサヒ","prefecture_code":25},"0211":{"zip_code":"5210211","prefecture":"滋賀県","prefecture_kana":"シガケン","city":"米原市","city_kana":"マイバラシ","town":"梓河内","town_kana":"アンサカワチ","prefecture_code":25},"0063":{"zip_code":"5210063","prefecture":"滋賀県","prefecture_kana":"シガケン","city":"米原市","city_kana":"マイバラシ","town":"飯","town_kana":"イ","prefecture_code":25},"0091":{"zip_code":"5210091","prefecture":"滋賀県","prefecture_kana":"シガケン","city":"米原市","city_kana":"マイバラシ","town":"岩脇","town_kana":"イオギ","prefecture_code":25},"0221":{"zip_code":"5210221","prefecture":"滋賀県","prefecture_kana":"シガケン","city":"米原市","city_kana":"マイバラシ","town":"池下","town_kana":"イケシタ","prefecture_code":25},"0004":{"zip_code":"5210004","prefecture":"滋賀県","prefecture_kana":"シガケン","city":"米原市","city_kana":"マイバラシ","town":"磯","town_kana":"イソ","prefecture_code":25},"0225":{"zip_code":"5210225","prefecture":"滋賀県","prefecture_kana":"シガケン","city":"米原市","city_kana":"マイバラシ","town":"市場","town_kana":"イチバ","prefecture_code":25},"0031":{"zip_code":"5210031","prefecture":"滋賀県","prefecture_kana":"シガケン","city":"米原市","city_kana":"マイバラシ","town":"一色","town_kana":"イッシキ","prefecture_code":25},"0234":{"zip_code":"5210234","prefecture":"滋賀県","prefecture_kana":"シガケン","city":"米原市","city_kana":"マイバラシ","town":"井之口","town_kana":"イノクチ","prefecture_code":25},"0311":{"zip_code":"5210311","prefecture":"滋賀県","prefecture_kana":"シガケン","city":"米原市","city_kana":"マイバラシ","town":"伊吹","town_kana":"イブキ","prefecture_code":25},"0003":{"zip_code":"5210003","prefecture":"滋賀県","prefecture_kana":"シガケン","city":"米原市","city_kana":"マイバラシ","town":"入江","town_kana":"イリエ","prefecture_code":25},"0312":{"zip_code":"5210312","prefecture":"滋賀県","prefecture_kana":"シガケン","city":"米原市","city_kana":"マイバラシ","town":"上野","town_kana":"ウエノ","prefecture_code":25},"0062":{"zip_code":"5210062","prefecture":"滋賀県","prefecture_kana":"シガケン","city":"米原市","city_kana":"マイバラシ","town":"宇賀野","town_kana":"ウカノ","prefecture_code":25},"0013":{"zip_code":"5210013","prefecture":"滋賀県","prefecture_kana":"シガケン","city":"米原市","city_kana":"マイバラシ","town":"梅ケ原","town_kana":"ウメガハラ","prefecture_code":25},"0014":{"zip_code":"5210014","prefecture":"滋賀県","prefecture_kana":"シガケン","city":"米原市","city_kana":"マイバラシ","town":"梅ケ原栄","town_kana":"ウメガハラサカエ","prefecture_code":25},"0307":{"zip_code":"5210307","prefecture":"滋賀県","prefecture_kana":"シガケン","city":"米原市","city_kana":"マイバラシ","town":"大久保","town_kana":"オオクボ","prefecture_code":25},"0214":{"zip_code":"5210214","prefecture":"滋賀県","prefecture_kana":"シガケン","city":"米原市","city_kana":"マイバラシ","town":"大鹿","town_kana":"オオシカ","prefecture_code":25},"0324":{"zip_code":"5210324","prefecture":"滋賀県","prefecture_kana":"シガケン","city":"米原市","city_kana":"マイバラシ","town":"大清水","town_kana":"オオシミズ","prefecture_code":25},"0244":{"zip_code":"5210244","prefecture":"滋賀県","prefecture_kana":"シガケン","city":"米原市","city_kana":"マイバラシ","town":"大野木","town_kana":"オオノギ","prefecture_code":25},"0202":{"zip_code":"5210202","prefecture":"滋賀県","prefecture_kana":"シガケン","city":"米原市","city_kana":"マイバラシ","town":"柏原","town_kana":"カシワバラ","prefecture_code":25},"0219":{"zip_code":"5210219","prefecture":"滋賀県","prefecture_kana":"シガケン","city":"米原市","city_kana":"マイバラシ","town":"加勢野","town_kana":"カセノ","prefecture_code":25},"0305":{"zip_code":"5210305","prefecture":"滋賀県","prefecture_kana":"シガケン","city":"米原市","city_kana":"マイバラシ","town":"上板並","town_kana":"カミイタナミ","prefecture_code":25},"0002":{"zip_code":"5210002","prefecture":"滋賀県","prefecture_kana":"シガケン","city":"米原市","city_kana":"マイバラシ","town":"上多良","town_kana":"カミタラ","prefecture_code":25},"0033":{"zip_code":"5210033","prefecture":"滋賀県","prefecture_kana":"シガケン","city":"米原市","city_kana":"マイバラシ","town":"上丹生","town_kana":"カミニュウ","prefecture_code":25},"0227":{"zip_code":"5210227","prefecture":"滋賀県","prefecture_kana":"シガケン","city":"米原市","city_kana":"マイバラシ","town":"烏脇","town_kana":"カラスワキ","prefecture_code":25},"0021":{"zip_code":"5210021","prefecture":"滋賀県","prefecture_kana":"シガケン","city":"米原市","city_kana":"マイバラシ","town":"河南","town_kana":"カワナミ","prefecture_code":25},"0217":{"zip_code":"5210217","prefecture":"滋賀県","prefecture_kana":"シガケン","city":"米原市","city_kana":"マイバラシ","town":"北方","town_kana":"キタガタ","prefecture_code":25},"0203":{"zip_code":"5210203","prefecture":"滋賀県","prefecture_kana":"シガケン","city":"米原市","city_kana":"マイバラシ","town":"清滝","town_kana":"キヨタキ","prefecture_code":25},"0308":{"zip_code":"5210308","prefecture":"滋賀県","prefecture_kana":"シガケン","city":"米原市","city_kana":"マイバラシ","town":"小泉","town_kana":"コイズミ","prefecture_code":25},"0303":{"zip_code":"5210303","prefecture":"滋賀県","prefecture_kana":"シガケン","city":"米原市","city_kana":"マイバラシ","town":"甲賀","town_kana":"コウガ","prefecture_code":25},"0301":{"zip_code":"5210301","prefecture":"滋賀県","prefecture_kana":"シガケン","city":"米原市","city_kana":"マイバラシ","town":"甲津原","town_kana":"コウヅハラ","prefecture_code":25},"0072":{"zip_code":"5210072","prefecture":"滋賀県","prefecture_kana":"シガケン","city":"米原市","city_kana":"マイバラシ","town":"顔戸","town_kana":"ゴウド","prefecture_code":25},"0092":{"zip_code":"5210092","prefecture":"滋賀県","prefecture_kana":"シガケン","city":"米原市","city_kana":"マイバラシ","town":"西円寺","town_kana":"サイエンジ","prefecture_code":25},"0232":{"zip_code":"5210232","prefecture":"滋賀県","prefecture_kana":"シガケン","city":"米原市","city_kana":"マイバラシ","town":"坂口","town_kana":"サカグチ","prefecture_code":25},"0035":{"zip_code":"5210035","prefecture":"滋賀県","prefecture_kana":"シガケン","city":"米原市","city_kana":"マイバラシ","town":"醒井","town_kana":"サメガイ","prefecture_code":25},"0032":{"zip_code":"5210032","prefecture":"滋賀県","prefecture_kana":"シガケン","city":"米原市","city_kana":"マイバラシ","town":"枝折","town_kana":"シオリ","prefecture_code":25},"0218":{"zip_code":"5210218","prefecture":"滋賀県","prefecture_kana":"シガケン","city":"米原市","city_kana":"マイバラシ","town":"志賀谷","town_kana":"シガヤ","prefecture_code":25},"0306":{"zip_code":"5210306","prefecture":"滋賀県","prefecture_kana":"シガケン","city":"米原市","city_kana":"マイバラシ","town":"下板並","town_kana":"シモイタナミ","prefecture_code":25},"0016":{"zip_code":"5210016","prefecture":"滋賀県","prefecture_kana":"シガケン","city":"米原市","city_kana":"マイバラシ","town":"下多良","town_kana":"シモタラ","prefecture_code":25},"0034":{"zip_code":"5210034","prefecture":"滋賀県","prefecture_kana":"シガケン","city":"米原市","city_kana":"マイバラシ","town":"下丹生","town_kana":"シモニュウ","prefecture_code":25},"0327":{"zip_code":"5210327","prefecture":"滋賀県","prefecture_kana":"シガケン","city":"米原市","city_kana":"マイバラシ","town":"上平寺","town_kana":"ジョウヘイジ","prefecture_code":25},"0083":{"zip_code":"5210083","prefecture":"滋賀県","prefecture_kana":"シガケン","city":"米原市","city_kana":"マイバラシ","town":"新庄","town_kana":"シンジョウ","prefecture_code":25},"0314":{"zip_code":"5210314","prefecture":"滋賀県","prefecture_kana":"シガケン","city":"米原市","city_kana":"マイバラシ","town":"春照","town_kana":"スイジョウ","prefecture_code":25},"0216":{"zip_code":"5210216","prefecture":"滋賀県","prefecture_kana":"シガケン","city":"米原市","city_kana":"マイバラシ","town":"菅江","town_kana":"スエ","prefecture_code":25},"0245":{"zip_code":"5210245","prefecture":"滋賀県","prefecture_kana":"シガケン","city":"米原市","city_kana":"マイバラシ","town":"須川","town_kana":"スガワ","prefecture_code":25},"0322":{"zip_code":"5210322","prefecture":"滋賀県","prefecture_kana":"シガケン","city":"米原市","city_kana":"マイバラシ","town":"杉沢","town_kana":"スギサワ","prefecture_code":25},"0321":{"zip_code":"5210321","prefecture":"滋賀県","prefecture_kana":"シガケン","city":"米原市","city_kana":"マイバラシ","town":"高番","town_kana":"タカバン","prefecture_code":25},"0074":{"zip_code":"5210074","prefecture":"滋賀県","prefecture_kana":"シガケン","city":"米原市","city_kana":"マイバラシ","town":"高溝","town_kana":"タカミゾ","prefecture_code":25},"0081":{"zip_code":"5210081","prefecture":"滋賀県","prefecture_kana":"シガケン","city":"米原市","city_kana":"マイバラシ","town":"多和田","town_kana":"タワダ","prefecture_code":25},"0201":{"zip_code":"5210201","prefecture":"滋賀県","prefecture_kana":"シガケン","city":"米原市","city_kana":"マイバラシ","town":"長久寺","town_kana":"チョウキュウジ","prefecture_code":25},"0093":{"zip_code":"5210093","prefecture":"滋賀県","prefecture_kana":"シガケン","city":"米原市","city_kana":"マイバラシ","town":"寺倉","town_kana":"テラクラ","prefecture_code":25},"0326":{"zip_code":"5210326","prefecture":"滋賀県","prefecture_kana":"シガケン","city":"米原市","city_kana":"マイバラシ","town":"寺林","town_kana":"テラバヤシ","prefecture_code":25},"0222":{"zip_code":"5210222","prefecture":"滋賀県","prefecture_kana":"シガケン","city":"米原市","city_kana":"マイバラシ","town":"天満","town_kana":"テンマ","prefecture_code":25},"0213":{"zip_code":"5210213","prefecture":"滋賀県","prefecture_kana":"シガケン","city":"米原市","city_kana":"マイバラシ","town":"堂谷","town_kana":"ドウダニ","prefecture_code":25},"0242":{"zip_code":"5210242","prefecture":"滋賀県","prefecture_kana":"シガケン","city":"米原市","city_kana":"マイバラシ","town":"長岡","town_kana":"ナガオカ","prefecture_code":25},"0061":{"zip_code":"5210061","prefecture":"滋賀県","prefecture_kana":"シガケン","city":"米原市","city_kana":"マイバラシ","town":"長沢","town_kana":"ナガサワ","prefecture_code":25},"0011":{"zip_code":"5210011","prefecture":"滋賀県","prefecture_kana":"シガケン","city":"米原市","city_kana":"マイバラシ","town":"中多良","town_kana":"ナカタラ","prefecture_code":25},"0024":{"zip_code":"5210024","prefecture":"滋賀県","prefecture_kana":"シガケン","city":"米原市","city_kana":"マイバラシ","town":"西坂","town_kana":"ニシサカ","prefecture_code":25},"0241":{"zip_code":"5210241","prefecture":"滋賀県","prefecture_kana":"シガケン","city":"米原市","city_kana":"マイバラシ","town":"西山","town_kana":"ニシヤマ","prefecture_code":25},"0084":{"zip_code":"5210084","prefecture":"滋賀県","prefecture_kana":"シガケン","city":"米原市","city_kana":"マイバラシ","town":"日光寺","town_kana":"ニッコウジ","prefecture_code":25},"0233":{"zip_code":"5210233","prefecture":"滋賀県","prefecture_kana":"シガケン","city":"米原市","city_kana":"マイバラシ","town":"野一色","town_kana":"ノイシキ","prefecture_code":25},"0082":{"zip_code":"5210082","prefecture":"滋賀県","prefecture_kana":"シガケン","city":"米原市","city_kana":"マイバラシ","town":"能登瀬","town_kana":"ノトセ","prefecture_code":25},"0236":{"zip_code":"5210236","prefecture":"滋賀県","prefecture_kana":"シガケン","city":"米原市","city_kana":"マイバラシ","town":"間田","town_kana":"ハサマタ","prefecture_code":25},"0025":{"zip_code":"5210025","prefecture":"滋賀県","prefecture_kana":"シガケン","city":"米原市","city_kana":"マイバラシ","town":"番場","town_kana":"バンバ","prefecture_code":25},"0022":{"zip_code":"5210022","prefecture":"滋賀県","prefecture_kana":"シガケン","city":"米原市","city_kana":"マイバラシ","town":"樋口","town_kana":"ヒグチ","prefecture_code":25},"0325":{"zip_code":"5210325","prefecture":"滋賀県","prefecture_kana":"シガケン","city":"米原市","city_kana":"マイバラシ","town":"藤川","town_kana":"フジカワ","prefecture_code":25},"0071":{"zip_code":"5210071","prefecture":"滋賀県","prefecture_kana":"シガケン","city":"米原市","city_kana":"マイバラシ","town":"舟崎","town_kana":"フナサキ","prefecture_code":25},"0224":{"zip_code":"5210224","prefecture":"滋賀県","prefecture_kana":"シガケン","city":"米原市","city_kana":"マイバラシ","town":"夫馬","town_kana":"ブマ","prefecture_code":25},"0212":{"zip_code":"5210212","prefecture":"滋賀県","prefecture_kana":"シガケン","city":"米原市","city_kana":"マイバラシ","town":"本郷","town_kana":"ホンゴウ","prefecture_code":25},"0012":{"zip_code":"5210012","prefecture":"滋賀県","prefecture_kana":"シガケン","city":"米原市","city_kana":"マイバラシ","town":"米原","town_kana":"マイハラ","prefecture_code":25},"0015":{"zip_code":"5210015","prefecture":"滋賀県","prefecture_kana":"シガケン","city":"米原市","city_kana":"マイバラシ","town":"米原西","town_kana":"マイバラニシ","prefecture_code":25},"0302":{"zip_code":"5210302","prefecture":"滋賀県","prefecture_kana":"シガケン","city":"米原市","city_kana":"マイバラシ","town":"曲谷","town_kana":"マガタニ","prefecture_code":25},"0243":{"zip_code":"5210243","prefecture":"滋賀県","prefecture_kana":"シガケン","city":"米原市","city_kana":"マイバラシ","town":"万願寺","town_kana":"マンガンジ","prefecture_code":25},"0073":{"zip_code":"5210073","prefecture":"滋賀県","prefecture_kana":"シガケン","city":"米原市","city_kana":"マイバラシ","town":"箕浦","town_kana":"ミノウラ","prefecture_code":25},"0023":{"zip_code":"5210023","prefecture":"滋賀県","prefecture_kana":"シガケン","city":"米原市","city_kana":"マイバラシ","town":"三吉","town_kana":"ミヨシ","prefecture_code":25},"0231":{"zip_code":"5210231","prefecture":"滋賀県","prefecture_kana":"シガケン","city":"米原市","city_kana":"マイバラシ","town":"村居田","town_kana":"ムライダ","prefecture_code":25},"0323":{"zip_code":"5210323","prefecture":"滋賀県","prefecture_kana":"シガケン","city":"米原市","city_kana":"マイバラシ","town":"村木","town_kana":"ムラギ","prefecture_code":25},"0223":{"zip_code":"5210223","prefecture":"滋賀県","prefecture_kana":"シガケン","city":"米原市","city_kana":"マイバラシ","town":"本市場","town_kana":"モトイチバ","prefecture_code":25},"0313":{"zip_code":"5210313","prefecture":"滋賀県","prefecture_kana":"シガケン","city":"米原市","city_kana":"マイバラシ","town":"弥高","town_kana":"ヤタカ","prefecture_code":25},"0235":{"zip_code":"5210235","prefecture":"滋賀県","prefecture_kana":"シガケン","city":"米原市","city_kana":"マイバラシ","town":"小田","town_kana":"ヤナイダ","prefecture_code":25},"0215":{"zip_code":"5210215","prefecture":"滋賀県","prefecture_kana":"シガケン","city":"米原市","city_kana":"マイバラシ","town":"山室","town_kana":"ヤマムロ","prefecture_code":25},"0304":{"zip_code":"5210304","prefecture":"滋賀県","prefecture_kana":"シガケン","city":"米原市","city_kana":"マイバラシ","town":"吉槻","town_kana":"ヨシツキ","prefecture_code":25},"0064":{"zip_code":"5210064","prefecture":"滋賀県","prefecture_kana":"シガケン","city":"米原市","city_kana":"マイバラシ","town":"世継","town_kana":"ヨツギ","prefecture_code":25}}