{"0000":{"zip_code":"5220000","prefecture":"滋賀県","prefecture_kana":"シガケン","city":"彦根市","city_kana":"ヒコネシ","town":"","town_kana":"","prefecture_code":25},"0073":{"zip_code":"5220073","prefecture":"滋賀県","prefecture_kana":"シガケン","city":"彦根市","city_kana":"ヒコネシ","town":"旭町","town_kana":"アサヒマチ","prefecture_code":25},"0065":{"zip_code":"5220065","prefecture":"滋賀県","prefecture_kana":"シガケン","city":"彦根市","city_kana":"ヒコネシ","town":"池州町","town_kana":"イケスチョウ","prefecture_code":25},"0236":{"zip_code":"5220236","prefecture":"滋賀県","prefecture_kana":"シガケン","city":"彦根市","city_kana":"ヒコネシ","town":"犬方町","town_kana":"イヌカタチョウ","prefecture_code":25},"0239":{"zip_code":"5220239","prefecture":"滋賀県","prefecture_kana":"シガケン","city":"彦根市","city_kana":"ヒコネシ","town":"宇尾町","town_kana":"ウオチョウ","prefecture_code":25},"0045":{"zip_code":"5220045","prefecture":"滋賀県","prefecture_kana":"シガケン","city":"彦根市","city_kana":"ヒコネシ","town":"宇尾町","town_kana":"ウオチョウ","prefecture_code":25},"0034":{"zip_code":"5220034","prefecture":"滋賀県","prefecture_kana":"シガケン","city":"彦根市","city_kana":"ヒコネシ","town":"大橋町","town_kana":"オオハシマチ","prefecture_code":25},"0026":{"zip_code":"5220026","prefecture":"滋賀県","prefecture_kana":"シガケン","city":"彦根市","city_kana":"ヒコネシ","town":"大堀町","town_kana":"オオボリチョウ","prefecture_code":25},"0053":{"zip_code":"5220053","prefecture":"滋賀県","prefecture_kana":"シガケン","city":"彦根市","city_kana":"ヒコネシ","town":"大藪町","town_kana":"オオヤブチョウ","prefecture_code":25},"0017":{"zip_code":"5220017","prefecture":"滋賀県","prefecture_kana":"シガケン","city":"彦根市","city_kana":"ヒコネシ","town":"男鬼町","town_kana":"オオリチョウ","prefecture_code":25},"0037":{"zip_code":"5220037","prefecture":"滋賀県","prefecture_kana":"シガケン","city":"彦根市","city_kana":"ヒコネシ","town":"岡町","town_kana":"オカマチ","prefecture_code":25},"0001":{"zip_code":"5220001","prefecture":"滋賀県","prefecture_kana":"シガケン","city":"彦根市","city_kana":"ヒコネシ","town":"尾末町","town_kana":"オスエチョウ","prefecture_code":25},"0005":{"zip_code":"5220005","prefecture":"滋賀県","prefecture_kana":"シガケン","city":"彦根市","city_kana":"ヒコネシ","town":"小野町","town_kana":"オノチョウ","prefecture_code":25},"0056":{"zip_code":"5220056","prefecture":"滋賀県","prefecture_kana":"シガケン","city":"彦根市","city_kana":"ヒコネシ","town":"開出今町","town_kana":"カイデイマチョウ","prefecture_code":25},"0223":{"zip_code":"5220223","prefecture":"滋賀県","prefecture_kana":"シガケン","city":"彦根市","city_kana":"ヒコネシ","town":"川瀬馬場町","town_kana":"カワセババチョウ","prefecture_code":25},"0083":{"zip_code":"5220083","prefecture":"滋賀県","prefecture_kana":"シガケン","city":"彦根市","city_kana":"ヒコネシ","town":"河原","town_kana":"カワラ","prefecture_code":25},"0046":{"zip_code":"5220046","prefecture":"滋賀県","prefecture_kana":"シガケン","city":"彦根市","city_kana":"ヒコネシ","town":"甘呂町","town_kana":"カンロチョウ","prefecture_code":25},"0081":{"zip_code":"5220081","prefecture":"滋賀県","prefecture_kana":"シガケン","city":"彦根市","city_kana":"ヒコネシ","town":"京町","town_kana":"キョウマチ","prefecture_code":25},"0088":{"zip_code":"5220088","prefecture":"滋賀県","prefecture_kana":"シガケン","city":"彦根市","city_kana":"ヒコネシ","town":"銀座町","town_kana":"ギンザチョウ","prefecture_code":25},"0043":{"zip_code":"5220043","prefecture":"滋賀県","prefecture_kana":"シガケン","city":"彦根市","city_kana":"ヒコネシ","town":"小泉町","town_kana":"コイズミチョウ","prefecture_code":25},"0012":{"zip_code":"5220012","prefecture":"滋賀県","prefecture_kana":"シガケン","city":"彦根市","city_kana":"ヒコネシ","town":"甲田町","town_kana":"コウタチョウ","prefecture_code":25},"0238":{"zip_code":"5220238","prefecture":"滋賀県","prefecture_kana":"シガケン","city":"彦根市","city_kana":"ヒコネシ","town":"広野町","town_kana":"コウノチョウ","prefecture_code":25},"0231":{"zip_code":"5220231","prefecture":"滋賀県","prefecture_kana":"シガケン","city":"彦根市","city_kana":"ヒコネシ","town":"極楽寺町","town_kana":"ゴクラクジチョウ","prefecture_code":25},"0086":{"zip_code":"5220086","prefecture":"滋賀県","prefecture_kana":"シガケン","city":"彦根市","city_kana":"ヒコネシ","town":"後三条町","town_kana":"ゴサンジョウチョウ","prefecture_code":25},"0061":{"zip_code":"5220061","prefecture":"滋賀県","prefecture_kana":"シガケン","city":"彦根市","city_kana":"ヒコネシ","town":"金亀町","town_kana":"コンキチョウ","prefecture_code":25},"0235":{"zip_code":"5220235","prefecture":"滋賀県","prefecture_kana":"シガケン","city":"彦根市","city_kana":"ヒコネシ","town":"金剛寺町","town_kana":"コンゴウジチョウ","prefecture_code":25},"0021":{"zip_code":"5220021","prefecture":"滋賀県","prefecture_kana":"シガケン","city":"彦根市","city_kana":"ヒコネシ","town":"幸町","town_kana":"サイワイチョウ","prefecture_code":25},"0066":{"zip_code":"5220066","prefecture":"滋賀県","prefecture_kana":"シガケン","city":"彦根市","city_kana":"ヒコネシ","town":"栄町","town_kana":"サカエマチ","prefecture_code":25},"0019":{"zip_code":"5220019","prefecture":"滋賀県","prefecture_kana":"シガケン","city":"彦根市","city_kana":"ヒコネシ","town":"笹尾町","town_kana":"ササオチョウ","prefecture_code":25},"0022":{"zip_code":"5220022","prefecture":"滋賀県","prefecture_kana":"シガケン","city":"彦根市","city_kana":"ヒコネシ","town":"里根町","town_kana":"サトネチョウ","prefecture_code":25},"0075":{"zip_code":"5220075","prefecture":"滋賀県","prefecture_kana":"シガケン","city":"彦根市","city_kana":"ヒコネシ","town":"佐和町","town_kana":"サワチョウ","prefecture_code":25},"0006":{"zip_code":"5220006","prefecture":"滋賀県","prefecture_kana":"シガケン","city":"彦根市","city_kana":"ヒコネシ","town":"佐和山町","town_kana":"サワヤマチョウ","prefecture_code":25},"0029":{"zip_code":"5220029","prefecture":"滋賀県","prefecture_kana":"シガケン","city":"彦根市","city_kana":"ヒコネシ","town":"地蔵町","town_kana":"ジゾウチョウ","prefecture_code":25},"0011":{"zip_code":"5220011","prefecture":"滋賀県","prefecture_kana":"シガケン","city":"彦根市","city_kana":"ヒコネシ","town":"下矢倉町","town_kana":"シモヤグラチョウ","prefecture_code":25},"0015":{"zip_code":"5220015","prefecture":"滋賀県","prefecture_kana":"シガケン","city":"彦根市","city_kana":"ヒコネシ","town":"荘厳寺町","town_kana":"ショウゴンジチョウ","prefecture_code":25},"0024":{"zip_code":"5220024","prefecture":"滋賀県","prefecture_kana":"シガケン","city":"彦根市","city_kana":"ヒコネシ","town":"正法寺町","town_kana":"ショウボウジチョウ","prefecture_code":25},"0068":{"zip_code":"5220068","prefecture":"滋賀県","prefecture_kana":"シガケン","city":"彦根市","city_kana":"ヒコネシ","town":"城町","town_kana":"シロマチ","prefecture_code":25},"0085":{"zip_code":"5220085","prefecture":"滋賀県","prefecture_kana":"シガケン","city":"彦根市","city_kana":"ヒコネシ","town":"新町","town_kana":"シンマチ","prefecture_code":25},"0058":{"zip_code":"5220058","prefecture":"滋賀県","prefecture_kana":"シガケン","city":"彦根市","city_kana":"ヒコネシ","town":"須越町","town_kana":"スゴシチョウ","prefecture_code":25},"0033":{"zip_code":"5220033","prefecture":"滋賀県","prefecture_kana":"シガケン","city":"彦根市","city_kana":"ヒコネシ","town":"芹川町","town_kana":"セリカワチョウ","prefecture_code":25},"0031":{"zip_code":"5220031","prefecture":"滋賀県","prefecture_kana":"シガケン","city":"彦根市","city_kana":"ヒコネシ","town":"芹中町","town_kana":"セリナカマチ","prefecture_code":25},"0087":{"zip_code":"5220087","prefecture":"滋賀県","prefecture_kana":"シガケン","city":"彦根市","city_kana":"ヒコネシ","town":"芹橋","town_kana":"セリバシ","prefecture_code":25},"0032":{"zip_code":"5220032","prefecture":"滋賀県","prefecture_kana":"シガケン","city":"彦根市","city_kana":"ヒコネシ","town":"芹町","town_kana":"セリマチ","prefecture_code":25},"0014":{"zip_code":"5220014","prefecture":"滋賀県","prefecture_kana":"シガケン","city":"彦根市","city_kana":"ヒコネシ","town":"善谷町","town_kana":"ゼンダニチョウ","prefecture_code":25},"0074":{"zip_code":"5220074","prefecture":"滋賀県","prefecture_kana":"シガケン","city":"彦根市","city_kana":"ヒコネシ","town":"大東町","town_kana":"ダイトウチョウ","prefecture_code":25},"0201":{"zip_code":"5220201","prefecture":"滋賀県","prefecture_kana":"シガケン","city":"彦根市","city_kana":"ヒコネシ","town":"高宮町","town_kana":"タカミヤチョウ","prefecture_code":25},"0044":{"zip_code":"5220044","prefecture":"滋賀県","prefecture_kana":"シガケン","city":"彦根市","city_kana":"ヒコネシ","town":"竹ケ鼻町","town_kana":"タケガハナチョウ","prefecture_code":25},"0062":{"zip_code":"5220062","prefecture":"滋賀県","prefecture_kana":"シガケン","city":"彦根市","city_kana":"ヒコネシ","town":"立花町","town_kana":"タチバナチョウ","prefecture_code":25},"0063":{"zip_code":"5220063","prefecture":"滋賀県","prefecture_kana":"シガケン","city":"彦根市","city_kana":"ヒコネシ","town":"中央町","town_kana":"チュウオウチョウ","prefecture_code":25},"0233":{"zip_code":"5220233","prefecture":"滋賀県","prefecture_kana":"シガケン","city":"彦根市","city_kana":"ヒコネシ","town":"辻堂町","town_kana":"ツジドウチョウ","prefecture_code":25},"0212":{"zip_code":"5220212","prefecture":"滋賀県","prefecture_kana":"シガケン","city":"彦根市","city_kana":"ヒコネシ","town":"葛籠町","town_kana":"ツズラマチ","prefecture_code":25},"0214":{"zip_code":"5220214","prefecture":"滋賀県","prefecture_kana":"シガケン","city":"彦根市","city_kana":"ヒコネシ","town":"出町","town_kana":"デマチ","prefecture_code":25},"0042":{"zip_code":"5220042","prefecture":"滋賀県","prefecture_kana":"シガケン","city":"彦根市","city_kana":"ヒコネシ","town":"戸賀町","town_kana":"トガチョウ","prefecture_code":25},"0009":{"zip_code":"5220009","prefecture":"滋賀県","prefecture_kana":"シガケン","city":"彦根市","city_kana":"ヒコネシ","town":"外町","town_kana":"トマチ","prefecture_code":25},"0004":{"zip_code":"5220004","prefecture":"滋賀県","prefecture_kana":"シガケン","city":"彦根市","city_kana":"ヒコネシ","town":"鳥居本町","town_kana":"トリイモトチョウ","prefecture_code":25},"0051":[{"zip_code":"5220051","prefecture":"滋賀県","prefecture_kana":"シガケン","city":"彦根市","city_kana":"ヒコネシ","town":"中藪","town_kana":"ナカヤブ","prefecture_code":25},{"zip_code":"5220051","prefecture":"滋賀県","prefecture_kana":"シガケン","city":"彦根市","city_kana":"ヒコネシ","town":"中藪町","town_kana":"ナカヤブチョウ","prefecture_code":25}],"0013":{"zip_code":"5220013","prefecture":"滋賀県","prefecture_kana":"シガケン","city":"彦根市","city_kana":"ヒコネシ","town":"中山町","town_kana":"ナカヤマチョウ","prefecture_code":25},"0067":{"zip_code":"5220067","prefecture":"滋賀県","prefecture_kana":"シガケン","city":"彦根市","city_kana":"ヒコネシ","town":"長曽根町","town_kana":"ナガソネチョウ","prefecture_code":25},"0052":{"zip_code":"5220052","prefecture":"滋賀県","prefecture_kana":"シガケン","city":"彦根市","city_kana":"ヒコネシ","town":"長曽根南町","town_kana":"ナガソネミナミチョウ","prefecture_code":25},"0054":{"zip_code":"5220054","prefecture":"滋賀県","prefecture_kana":"シガケン","city":"彦根市","city_kana":"ヒコネシ","town":"西今町","town_kana":"ニシイマチョウ","prefecture_code":25},"0089":{"zip_code":"5220089","prefecture":"滋賀県","prefecture_kana":"シガケン","city":"彦根市","city_kana":"ヒコネシ","town":"錦町","town_kana":"ニシキマチ","prefecture_code":25},"0213":{"zip_code":"5220213","prefecture":"滋賀県","prefecture_kana":"シガケン","city":"彦根市","city_kana":"ヒコネシ","town":"西葛籠町","town_kana":"ニシツズラマチ","prefecture_code":25},"0038":[{"zip_code":"5220038","prefecture":"滋賀県","prefecture_kana":"シガケン","city":"彦根市","city_kana":"ヒコネシ","town":"西沼波町","town_kana":"ニシノナミチョウ","prefecture_code":25},{"zip_code":"5220038","prefecture":"滋賀県","prefecture_kana":"シガケン","city":"彦根市","city_kana":"ヒコネシ","town":"山之脇町","town_kana":"ヤマノワキチョウ","prefecture_code":25}],"0221":{"zip_code":"5220221","prefecture":"滋賀県","prefecture_kana":"シガケン","city":"彦根市","city_kana":"ヒコネシ","town":"野口町","town_kana":"ノグチチョウ","prefecture_code":25},"0055":{"zip_code":"5220055","prefecture":"滋賀県","prefecture_kana":"シガケン","city":"彦根市","city_kana":"ヒコネシ","town":"野瀬町","town_kana":"ノセチョウ","prefecture_code":25},"0025":{"zip_code":"5220025","prefecture":"滋賀県","prefecture_kana":"シガケン","city":"彦根市","city_kana":"ヒコネシ","town":"野田山町","town_kana":"ノダヤマチョウ","prefecture_code":25},"0036":{"zip_code":"5220036","prefecture":"滋賀県","prefecture_kana":"シガケン","city":"彦根市","city_kana":"ヒコネシ","town":"沼波町","town_kana":"ノナミマチ","prefecture_code":25},"0084":{"zip_code":"5220084","prefecture":"滋賀県","prefecture_kana":"シガケン","city":"彦根市","city_kana":"ヒコネシ","town":"橋向町","town_kana":"ハシムカイチョウ","prefecture_code":25},"0057":{"zip_code":"5220057","prefecture":"滋賀県","prefecture_kana":"シガケン","city":"彦根市","city_kana":"ヒコネシ","town":"八坂町","town_kana":"ハッサカチョウ","prefecture_code":25},"0023":{"zip_code":"5220023","prefecture":"滋賀県","prefecture_kana":"シガケン","city":"彦根市","city_kana":"ヒコネシ","town":"原町","town_kana":"ハラチョウ","prefecture_code":25},"0069":{"zip_code":"5220069","prefecture":"滋賀県","prefecture_kana":"シガケン","city":"彦根市","city_kana":"ヒコネシ","town":"馬場","town_kana":"バンバ","prefecture_code":25},"0027":{"zip_code":"5220027","prefecture":"滋賀県","prefecture_kana":"シガケン","city":"彦根市","city_kana":"ヒコネシ","town":"東沼波町","town_kana":"ヒガシノナミチョウ","prefecture_code":25},"0047":{"zip_code":"5220047","prefecture":"滋賀県","prefecture_kana":"シガケン","city":"彦根市","city_kana":"ヒコネシ","town":"日夏町","town_kana":"ヒナツチョウ","prefecture_code":25},"0041":{"zip_code":"5220041","prefecture":"滋賀県","prefecture_kana":"シガケン","city":"彦根市","city_kana":"ヒコネシ","town":"平田町","town_kana":"ヒラタチョウ","prefecture_code":25},"0018":{"zip_code":"5220018","prefecture":"滋賀県","prefecture_kana":"シガケン","city":"彦根市","city_kana":"ヒコネシ","town":"仏生寺町","town_kana":"ブツショウジチョウ","prefecture_code":25},"0016":{"zip_code":"5220016","prefecture":"滋賀県","prefecture_kana":"シガケン","city":"彦根市","city_kana":"ヒコネシ","town":"武奈町","town_kana":"ブナチョウ","prefecture_code":25},"0072":{"zip_code":"5220072","prefecture":"滋賀県","prefecture_kana":"シガケン","city":"彦根市","city_kana":"ヒコネシ","town":"船町","town_kana":"フナマチ","prefecture_code":25},"0007":{"zip_code":"5220007","prefecture":"滋賀県","prefecture_kana":"シガケン","city":"彦根市","city_kana":"ヒコネシ","town":"古沢町","town_kana":"フルサワチョウ","prefecture_code":25},"0211":{"zip_code":"5220211","prefecture":"滋賀県","prefecture_kana":"シガケン","city":"彦根市","city_kana":"ヒコネシ","town":"法士町","town_kana":"ホウゼチョウ","prefecture_code":25},"0237":{"zip_code":"5220237","prefecture":"滋賀県","prefecture_kana":"シガケン","city":"彦根市","city_kana":"ヒコネシ","town":"堀町","town_kana":"ホリチョウ","prefecture_code":25},"0064":{"zip_code":"5220064","prefecture":"滋賀県","prefecture_kana":"シガケン","city":"彦根市","city_kana":"ヒコネシ","town":"本町","town_kana":"ホンマチ","prefecture_code":25},"0002":[{"zip_code":"5220002","prefecture":"滋賀県","prefecture_kana":"シガケン","city":"彦根市","city_kana":"ヒコネシ","town":"松原","town_kana":"マツバラ","prefecture_code":25},{"zip_code":"5220002","prefecture":"滋賀県","prefecture_kana":"シガケン","city":"彦根市","city_kana":"ヒコネシ","town":"松原町","town_kana":"マツバラチョウ","prefecture_code":25}],"0059":{"zip_code":"5220059","prefecture":"滋賀県","prefecture_kana":"シガケン","city":"彦根市","city_kana":"ヒコネシ","town":"三津屋町","town_kana":"ミツヤチョウ","prefecture_code":25},"0222":{"zip_code":"5220222","prefecture":"滋賀県","prefecture_kana":"シガケン","city":"彦根市","city_kana":"ヒコネシ","town":"南川瀬町","town_kana":"ミナミカワセチョウ","prefecture_code":25},"0003":{"zip_code":"5220003","prefecture":"滋賀県","prefecture_kana":"シガケン","city":"彦根市","city_kana":"ヒコネシ","town":"宮田町","town_kana":"ミヤタチョウ","prefecture_code":25},"0035":{"zip_code":"5220035","prefecture":"滋賀県","prefecture_kana":"シガケン","city":"彦根市","city_kana":"ヒコネシ","town":"元岡町","town_kana":"モトオカマチ","prefecture_code":25},"0071":{"zip_code":"5220071","prefecture":"滋賀県","prefecture_kana":"シガケン","city":"彦根市","city_kana":"ヒコネシ","town":"元町","town_kana":"モトマチ","prefecture_code":25},"0234":{"zip_code":"5220234","prefecture":"滋賀県","prefecture_kana":"シガケン","city":"彦根市","city_kana":"ヒコネシ","town":"森堂町","town_kana":"モリドウチョウ","prefecture_code":25},"0082":{"zip_code":"5220082","prefecture":"滋賀県","prefecture_kana":"シガケン","city":"彦根市","city_kana":"ヒコネシ","town":"安清町","town_kana":"ヤスキヨチョウ","prefecture_code":25},"0008":{"zip_code":"5220008","prefecture":"滋賀県","prefecture_kana":"シガケン","city":"彦根市","city_kana":"ヒコネシ","town":"安清東町","town_kana":"ヤスキヨヒガシマチ","prefecture_code":25},"0232":{"zip_code":"5220232","prefecture":"滋賀県","prefecture_kana":"シガケン","city":"彦根市","city_kana":"ヒコネシ","town":"蓮台寺町","town_kana":"レンダイジチョウ","prefecture_code":25},"0039":{"zip_code":"5220039","prefecture":"滋賀県","prefecture_kana":"シガケン","city":"彦根市","city_kana":"ヒコネシ","town":"和田町","town_kana":"ワダチョウ","prefecture_code":25},"0200":{"zip_code":"5220200","prefecture":"滋賀県","prefecture_kana":"シガケン","city":"犬上郡甲良町","city_kana":"イヌカミグンコウラチョウ","town":"","town_kana":"","prefecture_code":25},"0242":{"zip_code":"5220242","prefecture":"滋賀県","prefecture_kana":"シガケン","city":"犬上郡甲良町","city_kana":"イヌカミグンコウラチョウ","town":"尼子","town_kana":"アマゴ","prefecture_code":25},"0254":{"zip_code":"5220254","prefecture":"滋賀県","prefecture_kana":"シガケン","city":"犬上郡甲良町","city_kana":"イヌカミグンコウラチョウ","town":"池寺","town_kana":"イケデラ","prefecture_code":25},"0261":{"zip_code":"5220261","prefecture":"滋賀県","prefecture_kana":"シガケン","city":"犬上郡甲良町","city_kana":"イヌカミグンコウラチョウ","town":"長寺","town_kana":"オサデラ","prefecture_code":25},"0252":{"zip_code":"5220252","prefecture":"滋賀県","prefecture_kana":"シガケン","city":"犬上郡甲良町","city_kana":"イヌカミグンコウラチョウ","town":"金屋","town_kana":"カナヤ","prefecture_code":25},"0251":{"zip_code":"5220251","prefecture":"滋賀県","prefecture_kana":"シガケン","city":"犬上郡甲良町","city_kana":"イヌカミグンコウラチョウ","town":"北落","town_kana":"キタオチ","prefecture_code":25},"0241":{"zip_code":"5220241","prefecture":"滋賀県","prefecture_kana":"シガケン","city":"犬上郡甲良町","city_kana":"イヌカミグンコウラチョウ","town":"呉竹","town_kana":"クレタケ","prefecture_code":25},"0243":{"zip_code":"5220243","prefecture":"滋賀県","prefecture_kana":"シガケン","city":"犬上郡甲良町","city_kana":"イヌカミグンコウラチョウ","town":"小川原","town_kana":"コガワハラ","prefecture_code":25},"0244":{"zip_code":"5220244","prefecture":"滋賀県","prefecture_kana":"シガケン","city":"犬上郡甲良町","city_kana":"イヌカミグンコウラチョウ","town":"在士","town_kana":"ザイジ","prefecture_code":25},"0271":{"zip_code":"5220271","prefecture":"滋賀県","prefecture_kana":"シガケン","city":"犬上郡甲良町","city_kana":"イヌカミグンコウラチョウ","town":"下之郷","town_kana":"シモノゴウ","prefecture_code":25},"0253":{"zip_code":"5220253","prefecture":"滋賀県","prefecture_kana":"シガケン","city":"犬上郡甲良町","city_kana":"イヌカミグンコウラチョウ","town":"正楽寺","town_kana":"ショウラクジ","prefecture_code":25},"0263":{"zip_code":"5220263","prefecture":"滋賀県","prefecture_kana":"シガケン","city":"犬上郡甲良町","city_kana":"イヌカミグンコウラチョウ","town":"法養寺","town_kana":"ホウヨウジ","prefecture_code":25},"0262":{"zip_code":"5220262","prefecture":"滋賀県","prefecture_kana":"シガケン","city":"犬上郡甲良町","city_kana":"イヌカミグンコウラチョウ","town":"横関","town_kana":"ヨコゼキ","prefecture_code":25},"0300":{"zip_code":"5220300","prefecture":"滋賀県","prefecture_kana":"シガケン","city":"犬上郡多賀町","city_kana":"イヌカミグンタガチョウ","town":"","town_kana":"","prefecture_code":25},"0317":{"zip_code":"5220317","prefecture":"滋賀県","prefecture_kana":"シガケン","city":"犬上郡多賀町","city_kana":"イヌカミグンタガチョウ","town":"一円","town_kana":"イチエン","prefecture_code":25},"0323":{"zip_code":"5220323","prefecture":"滋賀県","prefecture_kana":"シガケン","city":"犬上郡多賀町","city_kana":"イヌカミグンタガチョウ","town":"一ノ瀬","town_kana":"イチノセ","prefecture_code":25},"0304":{"zip_code":"5220304","prefecture":"滋賀県","prefecture_kana":"シガケン","city":"犬上郡多賀町","city_kana":"イヌカミグンタガチョウ","town":"後谷","town_kana":"ウシロダニ","prefecture_code":25},"0315":{"zip_code":"5220315","prefecture":"滋賀県","prefecture_kana":"シガケン","city":"犬上郡多賀町","city_kana":"イヌカミグンタガチョウ","town":"大岡","town_kana":"オオオカ","prefecture_code":25},"0331":{"zip_code":"5220331","prefecture":"滋賀県","prefecture_kana":"シガケン","city":"犬上郡多賀町","city_kana":"イヌカミグンタガチョウ","town":"大杉","town_kana":"オオスギ","prefecture_code":25},"0321":{"zip_code":"5220321","prefecture":"滋賀県","prefecture_kana":"シガケン","city":"犬上郡多賀町","city_kana":"イヌカミグンタガチョウ","town":"大君ケ畑","town_kana":"オジガハタ","prefecture_code":25},"0333":{"zip_code":"5220333","prefecture":"滋賀県","prefecture_kana":"シガケン","city":"犬上郡多賀町","city_kana":"イヌカミグンタガチョウ","town":"萱原","town_kana":"カイハラ","prefecture_code":25},"0301":{"zip_code":"5220301","prefecture":"滋賀県","prefecture_kana":"シガケン","city":"犬上郡多賀町","city_kana":"イヌカミグンタガチョウ","town":"河内","town_kana":"カワチ","prefecture_code":25},"0324":{"zip_code":"5220324","prefecture":"滋賀県","prefecture_kana":"シガケン","city":"犬上郡多賀町","city_kana":"イヌカミグンタガチョウ","town":"川相","town_kana":"カワナイ","prefecture_code":25},"0356":{"zip_code":"5220356","prefecture":"滋賀県","prefecture_kana":"シガケン","city":"犬上郡多賀町","city_kana":"イヌカミグンタガチョウ","town":"木曽","town_kana":"キソ","prefecture_code":25},"0352":{"zip_code":"5220352","prefecture":"滋賀県","prefecture_kana":"シガケン","city":"犬上郡多賀町","city_kana":"イヌカミグンタガチョウ","town":"久徳","town_kana":"キュウトク","prefecture_code":25},"0316":{"zip_code":"5220316","prefecture":"滋賀県","prefecture_kana":"シガケン","city":"犬上郡多賀町","city_kana":"イヌカミグンタガチョウ","town":"栗栖","town_kana":"クルス","prefecture_code":25},"0305":{"zip_code":"5220305","prefecture":"滋賀県","prefecture_kana":"シガケン","city":"犬上郡多賀町","city_kana":"イヌカミグンタガチョウ","town":"甲頭倉","town_kana":"コウズクラ","prefecture_code":25},"0311":{"zip_code":"5220311","prefecture":"滋賀県","prefecture_kana":"シガケン","city":"犬上郡多賀町","city_kana":"イヌカミグンタガチョウ","town":"五僧","town_kana":"ゴソウ","prefecture_code":25},"0325":{"zip_code":"5220325","prefecture":"滋賀県","prefecture_kana":"シガケン","city":"犬上郡多賀町","city_kana":"イヌカミグンタガチョウ","town":"小原","town_kana":"コハラ","prefecture_code":25},"0322":{"zip_code":"5220322","prefecture":"滋賀県","prefecture_kana":"シガケン","city":"犬上郡多賀町","city_kana":"イヌカミグンタガチョウ","town":"佐目","town_kana":"サメ","prefecture_code":25},"0343":{"zip_code":"5220343","prefecture":"滋賀県","prefecture_kana":"シガケン","city":"犬上郡多賀町","city_kana":"イヌカミグンタガチョウ","town":"猿木","town_kana":"サルギ","prefecture_code":25},"0314":{"zip_code":"5220314","prefecture":"滋賀県","prefecture_kana":"シガケン","city":"犬上郡多賀町","city_kana":"イヌカミグンタガチョウ","town":"四手","town_kana":"シデ","prefecture_code":25},"0326":{"zip_code":"5220326","prefecture":"滋賀県","prefecture_kana":"シガケン","city":"犬上郡多賀町","city_kana":"イヌカミグンタガチョウ","town":"霜ケ原","town_kana":"シモガハラ","prefecture_code":25},"0318":{"zip_code":"5220318","prefecture":"滋賀県","prefecture_kana":"シガケン","city":"犬上郡多賀町","city_kana":"イヌカミグンタガチョウ","town":"水谷","town_kana":"スイダニ","prefecture_code":25},"0313":{"zip_code":"5220313","prefecture":"滋賀県","prefecture_kana":"シガケン","city":"犬上郡多賀町","city_kana":"イヌカミグンタガチョウ","town":"杉","town_kana":"スギ","prefecture_code":25},"0341":{"zip_code":"5220341","prefecture":"滋賀県","prefecture_kana":"シガケン","city":"犬上郡多賀町","city_kana":"イヌカミグンタガチョウ","town":"多賀","town_kana":"タガ","prefecture_code":25},"0353":{"zip_code":"5220353","prefecture":"滋賀県","prefecture_kana":"シガケン","city":"犬上郡多賀町","city_kana":"イヌカミグンタガチョウ","town":"月之木","town_kana":"ツキノキ","prefecture_code":25},"0354":{"zip_code":"5220354","prefecture":"滋賀県","prefecture_kana":"シガケン","city":"犬上郡多賀町","city_kana":"イヌカミグンタガチョウ","town":"土田","town_kana":"ツチダ","prefecture_code":25},"0338":{"zip_code":"5220338","prefecture":"滋賀県","prefecture_kana":"シガケン","city":"犬上郡多賀町","city_kana":"イヌカミグンタガチョウ","town":"壺","town_kana":"ツボ","prefecture_code":25},"0337":{"zip_code":"5220337","prefecture":"滋賀県","prefecture_kana":"シガケン","city":"犬上郡多賀町","city_kana":"イヌカミグンタガチョウ","town":"富之尾","town_kana":"トミノオ","prefecture_code":25},"0355":{"zip_code":"5220355","prefecture":"滋賀県","prefecture_kana":"シガケン","city":"犬上郡多賀町","city_kana":"イヌカミグンタガチョウ","town":"中川原","town_kana":"ナカガワラ","prefecture_code":25},"0336":{"zip_code":"5220336","prefecture":"滋賀県","prefecture_kana":"シガケン","city":"犬上郡多賀町","city_kana":"イヌカミグンタガチョウ","town":"楢崎","town_kana":"ナラサキ","prefecture_code":25},"0332":{"zip_code":"5220332","prefecture":"滋賀県","prefecture_kana":"シガケン","city":"犬上郡多賀町","city_kana":"イヌカミグンタガチョウ","town":"樋田","town_kana":"ヒダ","prefecture_code":25},"0303":{"zip_code":"5220303","prefecture":"滋賀県","prefecture_kana":"シガケン","city":"犬上郡多賀町","city_kana":"イヌカミグンタガチョウ","town":"屏風","town_kana":"ビョウブ","prefecture_code":25},"0342":{"zip_code":"5220342","prefecture":"滋賀県","prefecture_kana":"シガケン","city":"犬上郡多賀町","city_kana":"イヌカミグンタガチョウ","town":"敏満寺","town_kana":"ビンマンジ","prefecture_code":25},"0335":{"zip_code":"5220335","prefecture":"滋賀県","prefecture_kana":"シガケン","city":"犬上郡多賀町","city_kana":"イヌカミグンタガチョウ","town":"藤瀬","town_kana":"フジセ","prefecture_code":25},"0312":{"zip_code":"5220312","prefecture":"滋賀県","prefecture_kana":"シガケン","city":"犬上郡多賀町","city_kana":"イヌカミグンタガチョウ","town":"保月","town_kana":"ホウヅキ","prefecture_code":25},"0334":{"zip_code":"5220334","prefecture":"滋賀県","prefecture_kana":"シガケン","city":"犬上郡多賀町","city_kana":"イヌカミグンタガチョウ","town":"仏ケ後","town_kana":"ホトケラ","prefecture_code":25},"0327":{"zip_code":"5220327","prefecture":"滋賀県","prefecture_kana":"シガケン","city":"犬上郡多賀町","city_kana":"イヌカミグンタガチョウ","town":"南後谷","town_kana":"ミナミウシロダニ","prefecture_code":25},"0302":{"zip_code":"5220302","prefecture":"滋賀県","prefecture_kana":"シガケン","city":"犬上郡多賀町","city_kana":"イヌカミグンタガチョウ","town":"向之倉","town_kana":"ムカイノクラ","prefecture_code":25},"0319":{"zip_code":"5220319","prefecture":"滋賀県","prefecture_kana":"シガケン","city":"犬上郡多賀町","city_kana":"イヌカミグンタガチョウ","town":"桃原","town_kana":"モバラ","prefecture_code":25},"0351":{"zip_code":"5220351","prefecture":"滋賀県","prefecture_kana":"シガケン","city":"犬上郡多賀町","city_kana":"イヌカミグンタガチョウ","town":"八重練","town_kana":"ヤエネリ","prefecture_code":25},"0306":{"zip_code":"5220306","prefecture":"滋賀県","prefecture_kana":"シガケン","city":"犬上郡多賀町","city_kana":"イヌカミグンタガチョウ","town":"霊仙","town_kana":"リョウゼン","prefecture_code":25}}