{"0000":{"zip_code":"5230000","prefecture":"滋賀県","prefecture_kana":"シガケン","city":"近江八幡市","city_kana":"オウミハチマンシ","town":"以下に掲載がない場合","town_kana":"イカニケイサイガナイバアイ","prefecture_code":25},"0836":{"zip_code":"5230836","prefecture":"滋賀県","prefecture_kana":"シガケン","city":"近江八幡市","city_kana":"オウミハチマンシ","town":"間之町","town_kana":"アイノマチ","prefecture_code":25},"0052":{"zip_code":"5230052","prefecture":"滋賀県","prefecture_kana":"シガケン","city":"近江八幡市","city_kana":"オウミハチマンシ","town":"赤尾町","town_kana":"アコウチョウ","prefecture_code":25},"0817":{"zip_code":"5230817","prefecture":"滋賀県","prefecture_kana":"シガケン","city":"近江八幡市","city_kana":"オウミハチマンシ","town":"浅小井町","town_kana":"アサゴイチョウ","prefecture_code":25},"0045":{"zip_code":"5230045","prefecture":"滋賀県","prefecture_kana":"シガケン","city":"近江八幡市","city_kana":"オウミハチマンシ","town":"安養寺町","town_kana":"アンヨウジチョウ","prefecture_code":25},"0823":{"zip_code":"5230823","prefecture":"滋賀県","prefecture_kana":"シガケン","city":"近江八幡市","city_kana":"オウミハチマンシ","town":"生須町","town_kana":"イケスチョウ","prefecture_code":25},"0043":{"zip_code":"5230043","prefecture":"滋賀県","prefecture_kana":"シガケン","city":"近江八幡市","city_kana":"オウミハチマンシ","town":"池田本町","town_kana":"イケダホンマチ","prefecture_code":25},"0877":{"zip_code":"5230877","prefecture":"滋賀県","prefecture_kana":"シガケン","city":"近江八幡市","city_kana":"オウミハチマンシ","town":"池田町","town_kana":"イケダマチ","prefecture_code":25},"0866":{"zip_code":"5230866","prefecture":"滋賀県","prefecture_kana":"シガケン","city":"近江八幡市","city_kana":"オウミハチマンシ","town":"為心町上","town_kana":"イシンチョウカミ","prefecture_code":25},"0865":{"zip_code":"5230865","prefecture":"滋賀県","prefecture_kana":"シガケン","city":"近江八幡市","city_kana":"オウミハチマンシ","town":"為心町中","town_kana":"イシンチョウナカ","prefecture_code":25},"0864":{"zip_code":"5230864","prefecture":"滋賀県","prefecture_kana":"シガケン","city":"近江八幡市","city_kana":"オウミハチマンシ","town":"為心町元","town_kana":"イシンチョウモト","prefecture_code":25},"0885":{"zip_code":"5230885","prefecture":"滋賀県","prefecture_kana":"シガケン","city":"近江八幡市","city_kana":"オウミハチマンシ","town":"板屋町","town_kana":"イタヤチョウ","prefecture_code":25},"0851":{"zip_code":"5230851","prefecture":"滋賀県","prefecture_kana":"シガケン","city":"近江八幡市","city_kana":"オウミハチマンシ","town":"市井町","town_kana":"イチイチョウ","prefecture_code":25},"0015":{"zip_code":"5230015","prefecture":"滋賀県","prefecture_kana":"シガケン","city":"近江八幡市","city_kana":"オウミハチマンシ","town":"上田町","town_kana":"ウエダチョウ","prefecture_code":25},"0046":{"zip_code":"5230046","prefecture":"滋賀県","prefecture_kana":"シガケン","city":"近江八幡市","city_kana":"オウミハチマンシ","town":"上野町","town_kana":"ウエノチョウ","prefecture_code":25},"0026":{"zip_code":"5230026","prefecture":"滋賀県","prefecture_kana":"シガケン","city":"近江八幡市","city_kana":"オウミハチマンシ","town":"上畑町","town_kana":"ウエハタチョウ","prefecture_code":25},"0895":{"zip_code":"5230895","prefecture":"滋賀県","prefecture_kana":"シガケン","city":"近江八幡市","city_kana":"オウミハチマンシ","town":"宇津呂町","town_kana":"ウツロチョウ","prefecture_code":25},"0869":{"zip_code":"5230869","prefecture":"滋賀県","prefecture_kana":"シガケン","city":"近江八幡市","city_kana":"オウミハチマンシ","town":"魚屋町上","town_kana":"ウワイチョウカミ","prefecture_code":25},"0868":{"zip_code":"5230868","prefecture":"滋賀県","prefecture_kana":"シガケン","city":"近江八幡市","city_kana":"オウミハチマンシ","town":"魚屋町中","town_kana":"ウワイチョウナカ","prefecture_code":25},"0867":{"zip_code":"5230867","prefecture":"滋賀県","prefecture_kana":"シガケン","city":"近江八幡市","city_kana":"オウミハチマンシ","town":"魚屋町元","town_kana":"ウワイチョウモト","prefecture_code":25},"0061":{"zip_code":"5230061","prefecture":"滋賀県","prefecture_kana":"シガケン","city":"近江八幡市","city_kana":"オウミハチマンシ","town":"江頭町","town_kana":"エガシラチョウ","prefecture_code":25},"0832":{"zip_code":"5230832","prefecture":"滋賀県","prefecture_kana":"シガケン","city":"近江八幡市","city_kana":"オウミハチマンシ","town":"江南町","town_kana":"エナミチョウ","prefecture_code":25},"0837":{"zip_code":"5230837","prefecture":"滋賀県","prefecture_kana":"シガケン","city":"近江八幡市","city_kana":"オウミハチマンシ","town":"大杉町","town_kana":"オオスギチョウ","prefecture_code":25},"0071":{"zip_code":"5230071","prefecture":"滋賀県","prefecture_kana":"シガケン","city":"近江八幡市","city_kana":"オウミハチマンシ","town":"大房町","town_kana":"オオブサチョウ","prefecture_code":25},"0042":{"zip_code":"5230042","prefecture":"滋賀県","prefecture_kana":"シガケン","city":"近江八幡市","city_kana":"オウミハチマンシ","town":"大森町","town_kana":"オオモリチョウ","prefecture_code":25},"0801":{"zip_code":"5230801","prefecture":"滋賀県","prefecture_kana":"シガケン","city":"近江八幡市","city_kana":"オウミハチマンシ","town":"沖島町","town_kana":"オキシマチョウ","prefecture_code":25},"0811":{"zip_code":"5230811","prefecture":"滋賀県","prefecture_kana":"シガケン","city":"近江八幡市","city_kana":"オウミハチマンシ","town":"長田町","town_kana":"オサダチョウ","prefecture_code":25},"0064":{"zip_code":"5230064","prefecture":"滋賀県","prefecture_kana":"シガケン","city":"近江八幡市","city_kana":"オウミハチマンシ","town":"小田町","town_kana":"オダチョウ","prefecture_code":25},"0856":{"zip_code":"5230856","prefecture":"滋賀県","prefecture_kana":"シガケン","city":"近江八幡市","city_kana":"オウミハチマンシ","town":"音羽町","town_kana":"オトワチョウ","prefecture_code":25},"0875":{"zip_code":"5230875","prefecture":"滋賀県","prefecture_kana":"シガケン","city":"近江八幡市","city_kana":"オウミハチマンシ","town":"小幡町上","town_kana":"オバタチョウカミ","prefecture_code":25},"0874":{"zip_code":"5230874","prefecture":"滋賀県","prefecture_kana":"シガケン","city":"近江八幡市","city_kana":"オウミハチマンシ","town":"小幡町中","town_kana":"オバタチョウナカ","prefecture_code":25},"0852":{"zip_code":"5230852","prefecture":"滋賀県","prefecture_kana":"シガケン","city":"近江八幡市","city_kana":"オウミハチマンシ","town":"鍵之手町","town_kana":"カギノテチョウ","prefecture_code":25},"0833":{"zip_code":"5230833","prefecture":"滋賀県","prefecture_kana":"シガケン","city":"近江八幡市","city_kana":"オウミハチマンシ","town":"鍛治屋町","town_kana":"カジヤチョウ","prefecture_code":25},"0058":{"zip_code":"5230058","prefecture":"滋賀県","prefecture_kana":"シガケン","city":"近江八幡市","city_kana":"オウミハチマンシ","town":"加茂町","town_kana":"カモチョウ","prefecture_code":25},"0047":{"zip_code":"5230047","prefecture":"滋賀県","prefecture_kana":"シガケン","city":"近江八幡市","city_kana":"オウミハチマンシ","town":"川原町","town_kana":"カワラマチ","prefecture_code":25},"0884":{"zip_code":"5230884","prefecture":"滋賀県","prefecture_kana":"シガケン","city":"近江八幡市","city_kana":"オウミハチマンシ","town":"北末町","town_kana":"キタスエチョウ","prefecture_code":25},"0087":{"zip_code":"5230087","prefecture":"滋賀県","prefecture_kana":"シガケン","city":"近江八幡市","city_kana":"オウミハチマンシ","town":"北津田町","town_kana":"キタツダチョウ","prefecture_code":25},"0806":{"zip_code":"5230806","prefecture":"滋賀県","prefecture_kana":"シガケン","city":"近江八幡市","city_kana":"オウミハチマンシ","town":"北之庄町","town_kana":"キタノショウチョウ","prefecture_code":25},"0883":{"zip_code":"5230883","prefecture":"滋賀県","prefecture_kana":"シガケン","city":"近江八幡市","city_kana":"オウミハチマンシ","town":"北元町","town_kana":"キタモトチョウ","prefecture_code":25},"0023":{"zip_code":"5230023","prefecture":"滋賀県","prefecture_kana":"シガケン","city":"近江八幡市","city_kana":"オウミハチマンシ","town":"倉橋部町","town_kana":"クラハシベチョウ","prefecture_code":25},"0003":{"zip_code":"5230003","prefecture":"滋賀県","prefecture_kana":"シガケン","city":"近江八幡市","city_kana":"オウミハチマンシ","town":"御所内町","town_kana":"ゴショウチチョウ","prefecture_code":25},"0083":{"zip_code":"5230083","prefecture":"滋賀県","prefecture_kana":"シガケン","city":"近江八幡市","city_kana":"オウミハチマンシ","town":"小船木町","town_kana":"コブナキチョウ","prefecture_code":25},"0001":{"zip_code":"5230001","prefecture":"滋賀県","prefecture_kana":"シガケン","city":"近江八幡市","city_kana":"オウミハチマンシ","town":"金剛寺町","town_kana":"コンゴウジチョウ","prefecture_code":25},"0881":{"zip_code":"5230881","prefecture":"滋賀県","prefecture_kana":"シガケン","city":"近江八幡市","city_kana":"オウミハチマンシ","town":"佐久間町","town_kana":"サクマチョウ","prefecture_code":25},"0893":{"zip_code":"5230893","prefecture":"滋賀県","prefecture_kana":"シガケン","city":"近江八幡市","city_kana":"オウミハチマンシ","town":"桜宮町","town_kana":"サクラミヤチョウ","prefecture_code":25},"0076":{"zip_code":"5230076","prefecture":"滋賀県","prefecture_kana":"シガケン","city":"近江八幡市","city_kana":"オウミハチマンシ","town":"佐波江町","town_kana":"サバエチョウ","prefecture_code":25},"0843":{"zip_code":"5230843","prefecture":"滋賀県","prefecture_kana":"シガケン","city":"近江八幡市","city_kana":"オウミハチマンシ","town":"慈恩寺町上","town_kana":"ジオンジチョウカミ","prefecture_code":25},"0842":{"zip_code":"5230842","prefecture":"滋賀県","prefecture_kana":"シガケン","city":"近江八幡市","city_kana":"オウミハチマンシ","town":"慈恩寺町中","town_kana":"ジオンジチョウナカ","prefecture_code":25},"0841":{"zip_code":"5230841","prefecture":"滋賀県","prefecture_kana":"シガケン","city":"近江八幡市","city_kana":"オウミハチマンシ","town":"慈恩寺町元","town_kana":"ジオンジチョウモト","prefecture_code":25},"0044":{"zip_code":"5230044","prefecture":"滋賀県","prefecture_kana":"シガケン","city":"近江八幡市","city_kana":"オウミハチマンシ","town":"篠原町","town_kana":"シノハラチョウ","prefecture_code":25},"0804":{"zip_code":"5230804","prefecture":"滋賀県","prefecture_kana":"シガケン","city":"近江八幡市","city_kana":"オウミハチマンシ","town":"島町","town_kana":"シマチョウ","prefecture_code":25},"0063":{"zip_code":"5230063","prefecture":"滋賀県","prefecture_kana":"シガケン","city":"近江八幡市","city_kana":"オウミハチマンシ","town":"十王町","town_kana":"ジュウオウチョウ","prefecture_code":25},"0873":{"zip_code":"5230873","prefecture":"滋賀県","prefecture_kana":"シガケン","city":"近江八幡市","city_kana":"オウミハチマンシ","town":"正神町","town_kana":"ショウガミチョウ","prefecture_code":25},"0024":{"zip_code":"5230024","prefecture":"滋賀県","prefecture_kana":"シガケン","city":"近江八幡市","city_kana":"オウミハチマンシ","town":"浄土寺町","town_kana":"ジョウドジチョウ","prefecture_code":25},"0803":{"zip_code":"5230803","prefecture":"滋賀県","prefecture_kana":"シガケン","city":"近江八幡市","city_kana":"オウミハチマンシ","town":"白王町","town_kana":"シラオウチョウ","prefecture_code":25},"0032":{"zip_code":"5230032","prefecture":"滋賀県","prefecture_kana":"シガケン","city":"近江八幡市","city_kana":"オウミハチマンシ","town":"白鳥町","town_kana":"シラトリチョウ","prefecture_code":25},"0825":{"zip_code":"5230825","prefecture":"滋賀県","prefecture_kana":"シガケン","city":"近江八幡市","city_kana":"オウミハチマンシ","town":"新左衛門町","town_kana":"シンザエモンチョウ","prefecture_code":25},"0081":{"zip_code":"5230081","prefecture":"滋賀県","prefecture_kana":"シガケン","city":"近江八幡市","city_kana":"オウミハチマンシ","town":"新栄町","town_kana":"シンサカエマチ","prefecture_code":25},"0025":{"zip_code":"5230025","prefecture":"滋賀県","prefecture_kana":"シガケン","city":"近江八幡市","city_kana":"オウミハチマンシ","town":"新巻町","town_kana":"シンマキチョウ","prefecture_code":25},"0871":{"zip_code":"5230871","prefecture":"滋賀県","prefecture_kana":"シガケン","city":"近江八幡市","city_kana":"オウミハチマンシ","town":"新町","town_kana":"シンマチ","prefecture_code":25},"0074":{"zip_code":"5230074","prefecture":"滋賀県","prefecture_kana":"シガケン","city":"近江八幡市","city_kana":"オウミハチマンシ","town":"水茎町","town_kana":"スイケイチョウ","prefecture_code":25},"0005":{"zip_code":"5230005","prefecture":"滋賀県","prefecture_kana":"シガケン","city":"近江八幡市","city_kana":"オウミハチマンシ","town":"末広町","town_kana":"スエヒロチョウ","prefecture_code":25},"0812":{"zip_code":"5230812","prefecture":"滋賀県","prefecture_kana":"シガケン","city":"近江八幡市","city_kana":"オウミハチマンシ","town":"杉森町","town_kana":"スギノモリチョウ","prefecture_code":25},"0863":{"zip_code":"5230863","prefecture":"滋賀県","prefecture_kana":"シガケン","city":"近江八幡市","city_kana":"オウミハチマンシ","town":"仲屋町上","town_kana":"スワイチョウカミ","prefecture_code":25},"0862":{"zip_code":"5230862","prefecture":"滋賀県","prefecture_kana":"シガケン","city":"近江八幡市","city_kana":"オウミハチマンシ","town":"仲屋町中","town_kana":"スワイチョウナカ","prefecture_code":25},"0861":{"zip_code":"5230861","prefecture":"滋賀県","prefecture_kana":"シガケン","city":"近江八幡市","city_kana":"オウミハチマンシ","town":"仲屋町元","town_kana":"スワイチョウモト","prefecture_code":25},"0016":{"zip_code":"5230016","prefecture":"滋賀県","prefecture_kana":"シガケン","city":"近江八幡市","city_kana":"オウミハチマンシ","town":"千僧供町","town_kana":"センゾクチョウ","prefecture_code":25},"0824":{"zip_code":"5230824","prefecture":"滋賀県","prefecture_kana":"シガケン","city":"近江八幡市","city_kana":"オウミハチマンシ","town":"大工町","town_kana":"ダイクチョウ","prefecture_code":25},"0802":{"zip_code":"5230802","prefecture":"滋賀県","prefecture_kana":"シガケン","city":"近江八幡市","city_kana":"オウミハチマンシ","town":"大中町","town_kana":"ダイナカチョウ","prefecture_code":25},"0891":{"zip_code":"5230891","prefecture":"滋賀県","prefecture_kana":"シガケン","city":"近江八幡市","city_kana":"オウミハチマンシ","town":"鷹飼町","town_kana":"タカカイチョウ","prefecture_code":25},"0896":{"zip_code":"5230896","prefecture":"滋賀県","prefecture_kana":"シガケン","city":"近江八幡市","city_kana":"オウミハチマンシ","town":"鷹飼町北","town_kana":"タカカイチョウキタ","prefecture_code":25},"0897":{"zip_code":"5230897","prefecture":"滋賀県","prefecture_kana":"シガケン","city":"近江八幡市","city_kana":"オウミハチマンシ","town":"鷹飼町東","town_kana":"タカカイチョウヒガシ","prefecture_code":25},"0898":{"zip_code":"5230898","prefecture":"滋賀県","prefecture_kana":"シガケン","city":"近江八幡市","city_kana":"オウミハチマンシ","town":"鷹飼町南","town_kana":"タカカイチョウミナミ","prefecture_code":25},"0821":{"zip_code":"5230821","prefecture":"滋賀県","prefecture_kana":"シガケン","city":"近江八幡市","city_kana":"オウミハチマンシ","town":"多賀町","town_kana":"タガチョウ","prefecture_code":25},"0036":{"zip_code":"5230036","prefecture":"滋賀県","prefecture_kana":"シガケン","city":"近江八幡市","city_kana":"オウミハチマンシ","town":"竹町","town_kana":"タケチョウ","prefecture_code":25},"0057":{"zip_code":"5230057","prefecture":"滋賀県","prefecture_kana":"シガケン","city":"近江八幡市","city_kana":"オウミハチマンシ","town":"田中江町","town_kana":"タナカエチョウ","prefecture_code":25},"0872":{"zip_code":"5230872","prefecture":"滋賀県","prefecture_kana":"シガケン","city":"近江八幡市","city_kana":"オウミハチマンシ","town":"玉木町","town_kana":"タマキチョウ","prefecture_code":25},"0831":{"zip_code":"5230831","prefecture":"滋賀県","prefecture_kana":"シガケン","city":"近江八幡市","city_kana":"オウミハチマンシ","town":"玉屋町","town_kana":"タマヤチョウ","prefecture_code":25},"0013":{"zip_code":"5230013","prefecture":"滋賀県","prefecture_kana":"シガケン","city":"近江八幡市","city_kana":"オウミハチマンシ","town":"長光寺町","town_kana":"チョウコウジチョウ","prefecture_code":25},"0021":{"zip_code":"5230021","prefecture":"滋賀県","prefecture_kana":"シガケン","city":"近江八幡市","city_kana":"オウミハチマンシ","town":"長福寺町","town_kana":"チョウフクジチョウ","prefecture_code":25},"0808":{"zip_code":"5230808","prefecture":"滋賀県","prefecture_kana":"シガケン","city":"近江八幡市","city_kana":"オウミハチマンシ","town":"長命寺町","town_kana":"チョウメイジチョウ","prefecture_code":25},"0086":{"zip_code":"5230086","prefecture":"滋賀県","prefecture_kana":"シガケン","city":"近江八幡市","city_kana":"オウミハチマンシ","town":"津田町","town_kana":"ツダチョウ","prefecture_code":25},"0082":{"zip_code":"5230082","prefecture":"滋賀県","prefecture_kana":"シガケン","city":"近江八幡市","city_kana":"オウミハチマンシ","town":"土田町","town_kana":"ツチダチョウ","prefecture_code":25},"0827":{"zip_code":"5230827","prefecture":"滋賀県","prefecture_kana":"シガケン","city":"近江八幡市","city_kana":"オウミハチマンシ","town":"鉄炮町","town_kana":"テッポウチョウ","prefecture_code":25},"0892":{"zip_code":"5230892","prefecture":"滋賀県","prefecture_kana":"シガケン","city":"近江八幡市","city_kana":"オウミハチマンシ","town":"出町","town_kana":"デマチ","prefecture_code":25},"0011":{"zip_code":"5230011","prefecture":"滋賀県","prefecture_kana":"シガケン","city":"近江八幡市","city_kana":"オウミハチマンシ","town":"友定町","town_kana":"トモサダチョウ","prefecture_code":25},"0041":{"zip_code":"5230041","prefecture":"滋賀県","prefecture_kana":"シガケン","city":"近江八幡市","city_kana":"オウミハチマンシ","town":"中小森町","town_kana":"ナカコモリチョウ","prefecture_code":25},"0807":{"zip_code":"5230807","prefecture":"滋賀県","prefecture_kana":"シガケン","city":"近江八幡市","city_kana":"オウミハチマンシ","town":"中之庄町","town_kana":"ナカノショウチョウ","prefecture_code":25},"0849":{"zip_code":"5230849","prefecture":"滋賀県","prefecture_kana":"シガケン","city":"近江八幡市","city_kana":"オウミハチマンシ","town":"永原町上","town_kana":"ナガハラチョウカミ","prefecture_code":25},"0848":{"zip_code":"5230848","prefecture":"滋賀県","prefecture_kana":"シガケン","city":"近江八幡市","city_kana":"オウミハチマンシ","town":"永原町中","town_kana":"ナガハラチョウナカ","prefecture_code":25},"0847":{"zip_code":"5230847","prefecture":"滋賀県","prefecture_kana":"シガケン","city":"近江八幡市","city_kana":"オウミハチマンシ","town":"永原町元","town_kana":"ナガハラチョウモト","prefecture_code":25},"0894":{"zip_code":"5230894","prefecture":"滋賀県","prefecture_kana":"シガケン","city":"近江八幡市","city_kana":"オウミハチマンシ","town":"中村町","town_kana":"ナカムラチョウ","prefecture_code":25},"0855":{"zip_code":"5230855","prefecture":"滋賀県","prefecture_kana":"シガケン","city":"近江八幡市","city_kana":"オウミハチマンシ","town":"縄手町末","town_kana":"ナワテチョウスエ","prefecture_code":25},"0854":{"zip_code":"5230854","prefecture":"滋賀県","prefecture_kana":"シガケン","city":"近江八幡市","city_kana":"オウミハチマンシ","town":"縄手町中","town_kana":"ナワテチョウナカ","prefecture_code":25},"0853":{"zip_code":"5230853","prefecture":"滋賀県","prefecture_kana":"シガケン","city":"近江八幡市","city_kana":"オウミハチマンシ","town":"縄手町元","town_kana":"ナワテチョウモト","prefecture_code":25},"0014":{"zip_code":"5230014","prefecture":"滋賀県","prefecture_kana":"シガケン","city":"近江八幡市","city_kana":"オウミハチマンシ","town":"西宿町","town_kana":"ニシジュクチョウ","prefecture_code":25},"0886":{"zip_code":"5230886","prefecture":"滋賀県","prefecture_kana":"シガケン","city":"近江八幡市","city_kana":"オウミハチマンシ","town":"西末町","town_kana":"ニシスエチョウ","prefecture_code":25},"0835":{"zip_code":"5230835","prefecture":"滋賀県","prefecture_kana":"シガケン","city":"近江八幡市","city_kana":"オウミハチマンシ","town":"西畳屋町","town_kana":"ニシタタミヤチョウ","prefecture_code":25},"0816":{"zip_code":"5230816","prefecture":"滋賀県","prefecture_kana":"シガケン","city":"近江八幡市","city_kana":"オウミハチマンシ","town":"西庄町","town_kana":"ニシノショウチョウ","prefecture_code":25},"0813":{"zip_code":"5230813","prefecture":"滋賀県","prefecture_kana":"シガケン","city":"近江八幡市","city_kana":"オウミハチマンシ","town":"西本郷町","town_kana":"ニシホンゴウチョウ","prefecture_code":25},"0819":{"zip_code":"5230819","prefecture":"滋賀県","prefecture_kana":"シガケン","city":"近江八幡市","city_kana":"オウミハチマンシ","town":"西本郷町西","town_kana":"ニシホンゴウチョウニシ","prefecture_code":25},"0818":{"zip_code":"5230818","prefecture":"滋賀県","prefecture_kana":"シガケン","city":"近江八幡市","city_kana":"オウミハチマンシ","town":"西本郷町東","town_kana":"ニシホンゴウチョウヒガシ","prefecture_code":25},"0887":{"zip_code":"5230887","prefecture":"滋賀県","prefecture_kana":"シガケン","city":"近江八幡市","city_kana":"オウミハチマンシ","town":"西元町","town_kana":"ニシモトチョウ","prefecture_code":25},"0004":{"zip_code":"5230004","prefecture":"滋賀県","prefecture_kana":"シガケン","city":"近江八幡市","city_kana":"オウミハチマンシ","town":"西生来町","town_kana":"ニショウライチョウ","prefecture_code":25},"0002":{"zip_code":"5230002","prefecture":"滋賀県","prefecture_kana":"シガケン","city":"近江八幡市","city_kana":"オウミハチマンシ","town":"野田町","town_kana":"ノダチョウ","prefecture_code":25},"0075":{"zip_code":"5230075","prefecture":"滋賀県","prefecture_kana":"シガケン","city":"近江八幡市","city_kana":"オウミハチマンシ","town":"野村町","town_kana":"ノムラチョウ","prefecture_code":25},"0846":{"zip_code":"5230846","prefecture":"滋賀県","prefecture_kana":"シガケン","city":"近江八幡市","city_kana":"オウミハチマンシ","town":"博労町上","town_kana":"バクロチョウカミ","prefecture_code":25},"0845":{"zip_code":"5230845","prefecture":"滋賀県","prefecture_kana":"シガケン","city":"近江八幡市","city_kana":"オウミハチマンシ","town":"博労町中","town_kana":"バクロチョウナカ","prefecture_code":25},"0844":{"zip_code":"5230844","prefecture":"滋賀県","prefecture_kana":"シガケン","city":"近江八幡市","city_kana":"オウミハチマンシ","town":"博労町元","town_kana":"バクロチョウモト","prefecture_code":25},"0857":{"zip_code":"5230857","prefecture":"滋賀県","prefecture_kana":"シガケン","city":"近江八幡市","city_kana":"オウミハチマンシ","town":"八幡町","town_kana":"ハチマンチョウ","prefecture_code":25},"0027":{"zip_code":"5230027","prefecture":"滋賀県","prefecture_kana":"シガケン","city":"近江八幡市","city_kana":"オウミハチマンシ","town":"東川町","town_kana":"ヒガシガワチョウ","prefecture_code":25},"0834":{"zip_code":"5230834","prefecture":"滋賀県","prefecture_kana":"シガケン","city":"近江八幡市","city_kana":"オウミハチマンシ","town":"東畳屋町","town_kana":"ヒガシタタミヤチョウ","prefecture_code":25},"0037":{"zip_code":"5230037","prefecture":"滋賀県","prefecture_kana":"シガケン","city":"近江八幡市","city_kana":"オウミハチマンシ","town":"東町","town_kana":"ヒガシチョウ","prefecture_code":25},"0035":{"zip_code":"5230035","prefecture":"滋賀県","prefecture_kana":"シガケン","city":"近江八幡市","city_kana":"オウミハチマンシ","town":"東横関町","town_kana":"ヒガシヨコゼキチョウ","prefecture_code":25},"0889":{"zip_code":"5230889","prefecture":"滋賀県","prefecture_kana":"シガケン","city":"近江八幡市","city_kana":"オウミハチマンシ","town":"日杉町","town_kana":"ヒスギチョウ","prefecture_code":25},"0033":{"zip_code":"5230033","prefecture":"滋賀県","prefecture_kana":"シガケン","city":"近江八幡市","city_kana":"オウミハチマンシ","town":"日吉野町","town_kana":"ヒヨノチョウ","prefecture_code":25},"0084":{"zip_code":"5230084","prefecture":"滋賀県","prefecture_kana":"シガケン","city":"近江八幡市","city_kana":"オウミハチマンシ","town":"船木町","town_kana":"フナキチョウ","prefecture_code":25},"0822":{"zip_code":"5230822","prefecture":"滋賀県","prefecture_kana":"シガケン","city":"近江八幡市","city_kana":"オウミハチマンシ","town":"船町","town_kana":"フナマチ","prefecture_code":25},"0056":{"zip_code":"5230056","prefecture":"滋賀県","prefecture_kana":"シガケン","city":"近江八幡市","city_kana":"オウミハチマンシ","town":"古川町","town_kana":"フルカワチョウ","prefecture_code":25},"0031":{"zip_code":"5230031","prefecture":"滋賀県","prefecture_kana":"シガケン","city":"近江八幡市","city_kana":"オウミハチマンシ","town":"堀上町","town_kana":"ホリカミチョウ","prefecture_code":25},"0876":{"zip_code":"5230876","prefecture":"滋賀県","prefecture_kana":"シガケン","city":"近江八幡市","city_kana":"オウミハチマンシ","town":"本町","town_kana":"ホンマチ","prefecture_code":25},"0072":{"zip_code":"5230072","prefecture":"滋賀県","prefecture_kana":"シガケン","city":"近江八幡市","city_kana":"オウミハチマンシ","town":"牧町","town_kana":"マキチョウ","prefecture_code":25},"0888":{"zip_code":"5230888","prefecture":"滋賀県","prefecture_kana":"シガケン","city":"近江八幡市","city_kana":"オウミハチマンシ","town":"孫平治町","town_kana":"マゴヘイジチョウ","prefecture_code":25},"0053":{"zip_code":"5230053","prefecture":"滋賀県","prefecture_kana":"シガケン","city":"近江八幡市","city_kana":"オウミハチマンシ","town":"益田町","town_kana":"マスダチョウ","prefecture_code":25},"0022":{"zip_code":"5230022","prefecture":"滋賀県","prefecture_kana":"シガケン","city":"近江八幡市","city_kana":"オウミハチマンシ","town":"馬淵町","town_kana":"マブチチョウ","prefecture_code":25},"0062":{"zip_code":"5230062","prefecture":"滋賀県","prefecture_kana":"シガケン","city":"近江八幡市","city_kana":"オウミハチマンシ","town":"丸の内町","town_kana":"マルノウチチョウ","prefecture_code":25},"0805":{"zip_code":"5230805","prefecture":"滋賀県","prefecture_kana":"シガケン","city":"近江八幡市","city_kana":"オウミハチマンシ","town":"円山町","town_kana":"マルヤマチョウ","prefecture_code":25},"0048":{"zip_code":"5230048","prefecture":"滋賀県","prefecture_kana":"シガケン","city":"近江八幡市","city_kana":"オウミハチマンシ","town":"緑町","town_kana":"ミドリマチ","prefecture_code":25},"0085":{"zip_code":"5230085","prefecture":"滋賀県","prefecture_kana":"シガケン","city":"近江八幡市","city_kana":"オウミハチマンシ","town":"南津田町","town_kana":"ミナミツダチョウ","prefecture_code":25},"0814":{"zip_code":"5230814","prefecture":"滋賀県","prefecture_kana":"シガケン","city":"近江八幡市","city_kana":"オウミハチマンシ","town":"南本郷町","town_kana":"ミナミホンゴウチョウ","prefecture_code":25},"0828":{"zip_code":"5230828","prefecture":"滋賀県","prefecture_kana":"シガケン","city":"近江八幡市","city_kana":"オウミハチマンシ","town":"宮内町","town_kana":"ミヤウチチョウ","prefecture_code":25},"0012":{"zip_code":"5230012","prefecture":"滋賀県","prefecture_kana":"シガケン","city":"近江八幡市","city_kana":"オウミハチマンシ","town":"武佐町","town_kana":"ムサチョウ","prefecture_code":25},"0073":{"zip_code":"5230073","prefecture":"滋賀県","prefecture_kana":"シガケン","city":"近江八幡市","city_kana":"オウミハチマンシ","town":"元水茎町","town_kana":"モトスイケイチョウ","prefecture_code":25},"0882":{"zip_code":"5230882","prefecture":"滋賀県","prefecture_kana":"シガケン","city":"近江八幡市","city_kana":"オウミハチマンシ","town":"元玉屋町","town_kana":"モトタマヤチョウ","prefecture_code":25},"0054":{"zip_code":"5230054","prefecture":"滋賀県","prefecture_kana":"シガケン","city":"近江八幡市","city_kana":"オウミハチマンシ","town":"森尻町","town_kana":"モリジリチョウ","prefecture_code":25},"0051":{"zip_code":"5230051","prefecture":"滋賀県","prefecture_kana":"シガケン","city":"近江八幡市","city_kana":"オウミハチマンシ","town":"八木町","town_kana":"ヤギチョウ","prefecture_code":25},"0826":{"zip_code":"5230826","prefecture":"滋賀県","prefecture_kana":"シガケン","city":"近江八幡市","city_kana":"オウミハチマンシ","town":"薬師町","town_kana":"ヤクシチョウ","prefecture_code":25},"0055":{"zip_code":"5230055","prefecture":"滋賀県","prefecture_kana":"シガケン","city":"近江八幡市","city_kana":"オウミハチマンシ","town":"柳町","town_kana":"ヤナギマチ","prefecture_code":25},"0815":{"zip_code":"5230815","prefecture":"滋賀県","prefecture_kana":"シガケン","city":"近江八幡市","city_kana":"オウミハチマンシ","town":"若葉町","town_kana":"ワカバチョウ","prefecture_code":25},"0034":{"zip_code":"5230034","prefecture":"滋賀県","prefecture_kana":"シガケン","city":"近江八幡市","city_kana":"オウミハチマンシ","town":"若宮町","town_kana":"ワカミヤチョウ","prefecture_code":25}}