{"0000":{"zip_code":"5240000","prefecture":"滋賀県","prefecture_kana":"シガケン","city":"守山市","city_kana":"モリヤマシ","town":"","town_kana":"","prefecture_code":25},"0061":{"zip_code":"5240061","prefecture":"滋賀県","prefecture_kana":"シガケン","city":"守山市","city_kana":"モリヤマシ","town":"赤野井町","town_kana":"アカノイチョウ","prefecture_code":25},"0035":{"zip_code":"5240035","prefecture":"滋賀県","prefecture_kana":"シガケン","city":"守山市","city_kana":"モリヤマシ","town":"阿村町","town_kana":"アムラチョウ","prefecture_code":25},"0016":{"zip_code":"5240016","prefecture":"滋賀県","prefecture_kana":"シガケン","city":"守山市","city_kana":"モリヤマシ","town":"荒見町","town_kana":"アラミチョウ","prefecture_code":25},"0014":{"zip_code":"5240014","prefecture":"滋賀県","prefecture_kana":"シガケン","city":"守山市","city_kana":"モリヤマシ","town":"石田町","town_kana":"イシダチョウ","prefecture_code":25},"0036":{"zip_code":"5240036","prefecture":"滋賀県","prefecture_kana":"シガケン","city":"守山市","city_kana":"モリヤマシ","town":"伊勢町","town_kana":"イセチョウ","prefecture_code":25},"0011":{"zip_code":"5240011","prefecture":"滋賀県","prefecture_kana":"シガケン","city":"守山市","city_kana":"モリヤマシ","town":"今市町","town_kana":"イマイチチョウ","prefecture_code":25},"0046":{"zip_code":"5240046","prefecture":"滋賀県","prefecture_kana":"シガケン","city":"守山市","city_kana":"モリヤマシ","town":"今宿町","town_kana":"イマジュクチョウ","prefecture_code":25},"0101":{"zip_code":"5240101","prefecture":"滋賀県","prefecture_kana":"シガケン","city":"守山市","city_kana":"モリヤマシ","town":"今浜町","town_kana":"イマハマチョウ","prefecture_code":25},"0037":{"zip_code":"5240037","prefecture":"滋賀県","prefecture_kana":"シガケン","city":"守山市","city_kana":"モリヤマシ","town":"梅田町","town_kana":"ウメダチョウ","prefecture_code":25},"0042":{"zip_code":"5240042","prefecture":"滋賀県","prefecture_kana":"シガケン","city":"守山市","city_kana":"モリヤマシ","town":"焔魔堂町","town_kana":"エンマドウチョウ","prefecture_code":25},"0054":{"zip_code":"5240054","prefecture":"滋賀県","prefecture_kana":"シガケン","city":"守山市","city_kana":"モリヤマシ","town":"大林町","town_kana":"オオバヤシチョウ","prefecture_code":25},"0032":{"zip_code":"5240032","prefecture":"滋賀県","prefecture_kana":"シガケン","city":"守山市","city_kana":"モリヤマシ","town":"岡町","town_kana":"オカチョウ","prefecture_code":25},"0004":{"zip_code":"5240004","prefecture":"滋賀県","prefecture_kana":"シガケン","city":"守山市","city_kana":"モリヤマシ","town":"笠原町","town_kana":"カサハラチョウ","prefecture_code":25},"0041":{"zip_code":"5240041","prefecture":"滋賀県","prefecture_kana":"シガケン","city":"守山市","city_kana":"モリヤマシ","town":"勝部町","town_kana":"カツベチョウ","prefecture_code":25},"0045":{"zip_code":"5240045","prefecture":"滋賀県","prefecture_kana":"シガケン","city":"守山市","city_kana":"モリヤマシ","town":"金森町","town_kana":"カネガモリチョウ","prefecture_code":25},"0001":{"zip_code":"5240001","prefecture":"滋賀県","prefecture_kana":"シガケン","city":"守山市","city_kana":"モリヤマシ","town":"川田町","town_kana":"カワタチョウ","prefecture_code":25},"0002":{"zip_code":"5240002","prefecture":"滋賀県","prefecture_kana":"シガケン","city":"守山市","city_kana":"モリヤマシ","town":"小島町","town_kana":"コジマチョウ","prefecture_code":25},"0104":{"zip_code":"5240104","prefecture":"滋賀県","prefecture_kana":"シガケン","city":"守山市","city_kana":"モリヤマシ","town":"木浜町","town_kana":"コノハマチョウ","prefecture_code":25},"0211":{"zip_code":"5240211","prefecture":"滋賀県","prefecture_kana":"シガケン","city":"守山市","city_kana":"モリヤマシ","town":"小浜町","town_kana":"コバマチョウ","prefecture_code":25},"0215":{"zip_code":"5240215","prefecture":"滋賀県","prefecture_kana":"シガケン","city":"守山市","city_kana":"モリヤマシ","town":"幸津川町","town_kana":"サヅカワチョウ","prefecture_code":25},"0013":{"zip_code":"5240013","prefecture":"滋賀県","prefecture_kana":"シガケン","city":"守山市","city_kana":"モリヤマシ","town":"下之郷町","town_kana":"シモノゴウチョウ","prefecture_code":25},"0055":{"zip_code":"5240055","prefecture":"滋賀県","prefecture_kana":"シガケン","city":"守山市","city_kana":"モリヤマシ","town":"十二里町","town_kana":"ジュウニリチョウ","prefecture_code":25},"0213":{"zip_code":"5240213","prefecture":"滋賀県","prefecture_kana":"シガケン","city":"守山市","city_kana":"モリヤマシ","town":"新庄町","town_kana":"シンジョウチョウ","prefecture_code":25},"0062":{"zip_code":"5240062","prefecture":"滋賀県","prefecture_kana":"シガケン","city":"守山市","city_kana":"モリヤマシ","town":"杉江町","town_kana":"スギエチョウ","prefecture_code":25},"0103":{"zip_code":"5240103","prefecture":"滋賀県","prefecture_kana":"シガケン","city":"守山市","city_kana":"モリヤマシ","town":"洲本町","town_kana":"スモトチョウ","prefecture_code":25},"0052":{"zip_code":"5240052","prefecture":"滋賀県","prefecture_kana":"シガケン","city":"守山市","city_kana":"モリヤマシ","town":"大門町","town_kana":"ダイモンチョウ","prefecture_code":25},"0214":{"zip_code":"5240214","prefecture":"滋賀県","prefecture_kana":"シガケン","city":"守山市","city_kana":"モリヤマシ","town":"立田町","town_kana":"タツタチョウ","prefecture_code":25},"0031":{"zip_code":"5240031","prefecture":"滋賀県","prefecture_kana":"シガケン","city":"守山市","city_kana":"モリヤマシ","town":"立入町","town_kana":"タテイリチョウ","prefecture_code":25},"0034":{"zip_code":"5240034","prefecture":"滋賀県","prefecture_kana":"シガケン","city":"守山市","city_kana":"モリヤマシ","town":"千代町","town_kana":"チシロチョウ","prefecture_code":25},"0003":{"zip_code":"5240003","prefecture":"滋賀県","prefecture_kana":"シガケン","city":"守山市","city_kana":"モリヤマシ","town":"中町","town_kana":"ナカチョウ","prefecture_code":25},"0212":{"zip_code":"5240212","prefecture":"滋賀県","prefecture_kana":"シガケン","city":"守山市","city_kana":"モリヤマシ","town":"服部町","town_kana":"ハットリチョウ","prefecture_code":25},"0012":{"zip_code":"5240012","prefecture":"滋賀県","prefecture_kana":"シガケン","city":"守山市","city_kana":"モリヤマシ","town":"播磨田町","town_kana":"ハリマダチョウ","prefecture_code":25},"0033":{"zip_code":"5240033","prefecture":"滋賀県","prefecture_kana":"シガケン","city":"守山市","city_kana":"モリヤマシ","town":"浮気町","town_kana":"フケチョウ","prefecture_code":25},"0043":{"zip_code":"5240043","prefecture":"滋賀県","prefecture_kana":"シガケン","city":"守山市","city_kana":"モリヤマシ","town":"二町町","town_kana":"フタマチチョウ","prefecture_code":25},"0044":{"zip_code":"5240044","prefecture":"滋賀県","prefecture_kana":"シガケン","city":"守山市","city_kana":"モリヤマシ","town":"古高町","town_kana":"フルタカチョウ","prefecture_code":25},"0063":{"zip_code":"5240063","prefecture":"滋賀県","prefecture_kana":"シガケン","city":"守山市","city_kana":"モリヤマシ","town":"欲賀町","town_kana":"ホシカチョウ","prefecture_code":25},"0102":{"zip_code":"5240102","prefecture":"滋賀県","prefecture_kana":"シガケン","city":"守山市","city_kana":"モリヤマシ","town":"水保町","town_kana":"ミズホチョウ","prefecture_code":25},"0051":{"zip_code":"5240051","prefecture":"滋賀県","prefecture_kana":"シガケン","city":"守山市","city_kana":"モリヤマシ","town":"三宅町","town_kana":"ミヤケチョウ","prefecture_code":25},"0064":{"zip_code":"5240064","prefecture":"滋賀県","prefecture_kana":"シガケン","city":"守山市","city_kana":"モリヤマシ","town":"森川原町","town_kana":"モリカワラチョウ","prefecture_code":25},"0022":{"zip_code":"5240022","prefecture":"滋賀県","prefecture_kana":"シガケン","city":"守山市","city_kana":"モリヤマシ","town":"守山町","town_kana":"モリヤマチョウ","prefecture_code":25},"0015":{"zip_code":"5240015","prefecture":"滋賀県","prefecture_kana":"シガケン","city":"守山市","city_kana":"モリヤマシ","town":"矢島町","town_kana":"ヤジマチョウ","prefecture_code":25},"0065":{"zip_code":"5240065","prefecture":"滋賀県","prefecture_kana":"シガケン","city":"守山市","city_kana":"モリヤマシ","town":"山賀町","town_kana":"ヤマガチョウ","prefecture_code":25},"0053":{"zip_code":"5240053","prefecture":"滋賀県","prefecture_kana":"シガケン","city":"守山市","city_kana":"モリヤマシ","town":"横江町","town_kana":"ヨコエチョウ","prefecture_code":25},"0021":{"zip_code":"5240021","prefecture":"滋賀県","prefecture_kana":"シガケン","city":"守山市","city_kana":"モリヤマシ","town":"吉身町","town_kana":"ヨシミチョウ","prefecture_code":25},"0202":{"zip_code":"5240202","prefecture":"滋賀県","prefecture_kana":"シガケン","city":"野洲市","city_kana":"ヤスシ","town":"菖蒲","town_kana":"アヤメ","prefecture_code":25},"0203":{"zip_code":"5240203","prefecture":"滋賀県","prefecture_kana":"シガケン","city":"野洲市","city_kana":"ヤスシ","town":"喜合","town_kana":"キゴウ","prefecture_code":25},"0201":{"zip_code":"5240201","prefecture":"滋賀県","prefecture_kana":"シガケン","city":"野洲市","city_kana":"ヤスシ","town":"吉川","town_kana":"ヨシカワ","prefecture_code":25}}