{"0000":{"zip_code":"5250000","prefecture":"滋賀県","prefecture_kana":"シガケン","city":"草津市","city_kana":"クサツシ","town":"以下に掲載がない場合","town_kana":"イカニケイサイガナイバアイ","prefecture_code":25},"0041":{"zip_code":"5250041","prefecture":"滋賀県","prefecture_kana":"シガケン","city":"草津市","city_kana":"クサツシ","town":"青地町","town_kana":"アオジチョウ","prefecture_code":25},"0002":{"zip_code":"5250002","prefecture":"滋賀県","prefecture_kana":"シガケン","city":"草津市","city_kana":"クサツシ","town":"芦浦町","town_kana":"アシウラチョウ","prefecture_code":25},"0015":{"zip_code":"5250015","prefecture":"滋賀県","prefecture_kana":"シガケン","city":"草津市","city_kana":"クサツシ","town":"集町","town_kana":"アツマリチョウ","prefecture_code":25},"0012":{"zip_code":"5250012","prefecture":"滋賀県","prefecture_kana":"シガケン","city":"草津市","city_kana":"クサツシ","town":"穴村町","town_kana":"アナムラチョウ","prefecture_code":25},"0047":{"zip_code":"5250047","prefecture":"滋賀県","prefecture_kana":"シガケン","city":"草津市","city_kana":"クサツシ","town":"追分","town_kana":"オイワケ","prefecture_code":25},"0048":{"zip_code":"5250048","prefecture":"滋賀県","prefecture_kana":"シガケン","city":"草津市","city_kana":"クサツシ","town":"追分南","town_kana":"オイワケミナミ","prefecture_code":25},"0032":{"zip_code":"5250032","prefecture":"滋賀県","prefecture_kana":"シガケン","city":"草津市","city_kana":"クサツシ","town":"大路","town_kana":"オオジ","prefecture_code":25},"0044":{"zip_code":"5250044","prefecture":"滋賀県","prefecture_kana":"シガケン","city":"草津市","city_kana":"クサツシ","town":"岡本町","town_kana":"オカモトチョウ","prefecture_code":25},"0001":{"zip_code":"5250001","prefecture":"滋賀県","prefecture_kana":"シガケン","city":"草津市","city_kana":"クサツシ","town":"下物町","town_kana":"オロシモチョウ","prefecture_code":25},"0072":{"zip_code":"5250072","prefecture":"滋賀県","prefecture_kana":"シガケン","city":"草津市","city_kana":"クサツシ","town":"笠山","town_kana":"カサヤマ","prefecture_code":25},"0011":{"zip_code":"5250011","prefecture":"滋賀県","prefecture_kana":"シガケン","city":"草津市","city_kana":"クサツシ","town":"片岡町","town_kana":"カタオカチョウ","prefecture_code":25},"0028":{"zip_code":"5250028","prefecture":"滋賀県","prefecture_kana":"シガケン","city":"草津市","city_kana":"クサツシ","town":"上笠","town_kana":"カミガサ","prefecture_code":25},"0004":{"zip_code":"5250004","prefecture":"滋賀県","prefecture_kana":"シガケン","city":"草津市","city_kana":"クサツシ","town":"上寺町","town_kana":"カミデラチョウ","prefecture_code":25},"0021":{"zip_code":"5250021","prefecture":"滋賀県","prefecture_kana":"シガケン","city":"草津市","city_kana":"クサツシ","town":"川原","town_kana":"カワラ","prefecture_code":25},"0022":{"zip_code":"5250022","prefecture":"滋賀県","prefecture_kana":"シガケン","city":"草津市","city_kana":"クサツシ","town":"川原町","town_kana":"カワラチョウ","prefecture_code":25},"0016":{"zip_code":"5250016","prefecture":"滋賀県","prefecture_kana":"シガケン","city":"草津市","city_kana":"クサツシ","town":"北大萱町","town_kana":"キタオオガヤチョウ","prefecture_code":25},"0061":{"zip_code":"5250061","prefecture":"滋賀県","prefecture_kana":"シガケン","city":"草津市","city_kana":"クサツシ","town":"北山田町","town_kana":"キタヤマダチョウ","prefecture_code":25},"0051":{"zip_code":"5250051","prefecture":"滋賀県","prefecture_kana":"シガケン","city":"草津市","city_kana":"クサツシ","town":"木川町","town_kana":"キノカワチョウ","prefecture_code":25},"0034":{"zip_code":"5250034","prefecture":"滋賀県","prefecture_kana":"シガケン","city":"草津市","city_kana":"クサツシ","town":"草津","town_kana":"クサツ","prefecture_code":25},"0036":{"zip_code":"5250036","prefecture":"滋賀県","prefecture_kana":"シガケン","city":"草津市","city_kana":"クサツシ","town":"草津町","town_kana":"クサツチョウ","prefecture_code":25},"0014":{"zip_code":"5250014","prefecture":"滋賀県","prefecture_kana":"シガケン","city":"草津市","city_kana":"クサツシ","town":"駒井沢町","town_kana":"コマイザワチョウ","prefecture_code":25},"0057":{"zip_code":"5250057","prefecture":"滋賀県","prefecture_kana":"シガケン","city":"草津市","city_kana":"クサツシ","town":"桜ケ丘","town_kana":"サクラガオカ","prefecture_code":25},"0005":{"zip_code":"5250005","prefecture":"滋賀県","prefecture_kana":"シガケン","city":"草津市","city_kana":"クサツシ","town":"志那町","town_kana":"シナチョウ","prefecture_code":25},"0006":{"zip_code":"5250006","prefecture":"滋賀県","prefecture_kana":"シガケン","city":"草津市","city_kana":"クサツシ","town":"志那中町","town_kana":"シナナカチョウ","prefecture_code":25},"0026":{"zip_code":"5250026","prefecture":"滋賀県","prefecture_kana":"シガケン","city":"草津市","city_kana":"クサツシ","town":"渋川","town_kana":"シブカワ","prefecture_code":25},"0029":{"zip_code":"5250029","prefecture":"滋賀県","prefecture_kana":"シガケン","city":"草津市","city_kana":"クサツシ","town":"下笠町","town_kana":"シモガサチョウ","prefecture_code":25},"0007":{"zip_code":"5250007","prefecture":"滋賀県","prefecture_kana":"シガケン","city":"草津市","city_kana":"クサツシ","town":"下寺町","town_kana":"シモデラチョウ","prefecture_code":25},"0013":{"zip_code":"5250013","prefecture":"滋賀県","prefecture_kana":"シガケン","city":"草津市","city_kana":"クサツシ","town":"新堂町","town_kana":"シンドウチョウ","prefecture_code":25},"0067":{"zip_code":"5250067","prefecture":"滋賀県","prefecture_kana":"シガケン","city":"草津市","city_kana":"クサツシ","town":"新浜町","town_kana":"シンハマチョウ","prefecture_code":25},"0003":{"zip_code":"5250003","prefecture":"滋賀県","prefecture_kana":"シガケン","city":"草津市","city_kana":"クサツシ","town":"長束町","town_kana":"ナツカチョウ","prefecture_code":25},"0037":{"zip_code":"5250037","prefecture":"滋賀県","prefecture_kana":"シガケン","city":"草津市","city_kana":"クサツシ","town":"西大路町","town_kana":"ニシオオジチョウ","prefecture_code":25},"0035":{"zip_code":"5250035","prefecture":"滋賀県","prefecture_kana":"シガケン","city":"草津市","city_kana":"クサツシ","town":"西草津","town_kana":"ニシクサツ","prefecture_code":25},"0025":{"zip_code":"5250025","prefecture":"滋賀県","prefecture_kana":"シガケン","city":"草津市","city_kana":"クサツシ","town":"西渋川","town_kana":"ニシシブカワ","prefecture_code":25},"0052":{"zip_code":"5250052","prefecture":"滋賀県","prefecture_kana":"シガケン","city":"草津市","city_kana":"クサツシ","town":"西矢倉","town_kana":"ニシヤグラ","prefecture_code":25},"0059":{"zip_code":"5250059","prefecture":"滋賀県","prefecture_kana":"シガケン","city":"草津市","city_kana":"クサツシ","town":"野路","town_kana":"ノジ","prefecture_code":25},"0055":{"zip_code":"5250055","prefecture":"滋賀県","prefecture_kana":"シガケン","city":"草津市","city_kana":"クサツシ","town":"野路町","town_kana":"ノジチョウ","prefecture_code":25},"0058":{"zip_code":"5250058","prefecture":"滋賀県","prefecture_kana":"シガケン","city":"草津市","city_kana":"クサツシ","town":"野路東","town_kana":"ノジヒガシ","prefecture_code":25},"0027":{"zip_code":"5250027","prefecture":"滋賀県","prefecture_kana":"シガケン","city":"草津市","city_kana":"クサツシ","town":"野村","town_kana":"ノムラ","prefecture_code":25},"0065":{"zip_code":"5250065","prefecture":"滋賀県","prefecture_kana":"シガケン","city":"草津市","city_kana":"クサツシ","town":"橋岡町","town_kana":"ハシオカチョウ","prefecture_code":25},"0043":{"zip_code":"5250043","prefecture":"滋賀県","prefecture_kana":"シガケン","city":"草津市","city_kana":"クサツシ","town":"馬場町","town_kana":"バンバチョウ","prefecture_code":25},"0033":{"zip_code":"5250033","prefecture":"滋賀県","prefecture_kana":"シガケン","city":"草津市","city_kana":"クサツシ","town":"東草津","town_kana":"ヒガシクサツ","prefecture_code":25},"0054":{"zip_code":"5250054","prefecture":"滋賀県","prefecture_kana":"シガケン","city":"草津市","city_kana":"クサツシ","town":"東矢倉","town_kana":"ヒガシヤグラ","prefecture_code":25},"0023":{"zip_code":"5250023","prefecture":"滋賀県","prefecture_kana":"シガケン","city":"草津市","city_kana":"クサツシ","town":"平井","town_kana":"ヒライ","prefecture_code":25},"0024":{"zip_code":"5250024","prefecture":"滋賀県","prefecture_kana":"シガケン","city":"草津市","city_kana":"クサツシ","town":"平井町","town_kana":"ヒライチョウ","prefecture_code":25},"0064":{"zip_code":"5250064","prefecture":"滋賀県","prefecture_kana":"シガケン","city":"草津市","city_kana":"クサツシ","town":"御倉町","town_kana":"ミクラチョウ","prefecture_code":25},"0056":{"zip_code":"5250056","prefecture":"滋賀県","prefecture_kana":"シガケン","city":"草津市","city_kana":"クサツシ","town":"南笠町","town_kana":"ミナミガサチョウ","prefecture_code":25},"0071":{"zip_code":"5250071","prefecture":"滋賀県","prefecture_kana":"シガケン","city":"草津市","city_kana":"クサツシ","town":"南笠東","town_kana":"ミナミガサヒガシ","prefecture_code":25},"0050":{"zip_code":"5250050","prefecture":"滋賀県","prefecture_kana":"シガケン","city":"草津市","city_kana":"クサツシ","town":"南草津","town_kana":"ミナミクサツ","prefecture_code":25},"0063":{"zip_code":"5250063","prefecture":"滋賀県","prefecture_kana":"シガケン","city":"草津市","city_kana":"クサツシ","town":"南山田町","town_kana":"ミナミヤマダチョウ","prefecture_code":25},"0053":{"zip_code":"5250053","prefecture":"滋賀県","prefecture_kana":"シガケン","city":"草津市","city_kana":"クサツシ","town":"矢倉","town_kana":"ヤグラ","prefecture_code":25},"0066":{"zip_code":"5250066","prefecture":"滋賀県","prefecture_kana":"シガケン","city":"草津市","city_kana":"クサツシ","town":"矢橋町","town_kana":"ヤバセチョウ","prefecture_code":25},"0062":{"zip_code":"5250062","prefecture":"滋賀県","prefecture_kana":"シガケン","city":"草津市","city_kana":"クサツシ","town":"山田町","town_kana":"ヤマダチョウ","prefecture_code":25},"0042":{"zip_code":"5250042","prefecture":"滋賀県","prefecture_kana":"シガケン","city":"草津市","city_kana":"クサツシ","town":"山寺町","town_kana":"ヤマデラチョウ","prefecture_code":25},"0045":{"zip_code":"5250045","prefecture":"滋賀県","prefecture_kana":"シガケン","city":"草津市","city_kana":"クサツシ","town":"若草","town_kana":"ワカクサ","prefecture_code":25},"0031":{"zip_code":"5250031","prefecture":"滋賀県","prefecture_kana":"シガケン","city":"草津市","city_kana":"クサツシ","town":"若竹町","town_kana":"ワカタケチョウ","prefecture_code":25}}