{"0000":{"zip_code":"5260000","prefecture":"滋賀県","prefecture_kana":"シガケン","city":"長浜市","city_kana":"ナガハマシ","town":"以下に掲載がない場合","town_kana":"イカニケイサイガナイバアイ","prefecture_code":25},"0222":{"zip_code":"5260222","prefecture":"滋賀県","prefecture_kana":"シガケン","city":"長浜市","city_kana":"ナガハマシ","town":"浅井高原","town_kana":"アザイコウゲン","prefecture_code":25},"0056":{"zip_code":"5260056","prefecture":"滋賀県","prefecture_kana":"シガケン","city":"長浜市","city_kana":"ナガハマシ","town":"朝日町","town_kana":"アサヒチョウ","prefecture_code":25},"0126":{"zip_code":"5260126","prefecture":"滋賀県","prefecture_kana":"シガケン","city":"長浜市","city_kana":"ナガハマシ","town":"安養寺町","town_kana":"アンヨウジチョウ","prefecture_code":25},"0274":{"zip_code":"5260274","prefecture":"滋賀県","prefecture_kana":"シガケン","city":"長浜市","city_kana":"ナガハマシ","town":"池奥町","town_kana":"イケオクチョウ","prefecture_code":25},"0814":{"zip_code":"5260814","prefecture":"滋賀県","prefecture_kana":"シガケン","city":"長浜市","city_kana":"ナガハマシ","town":"石田町","town_kana":"イシダチョウ","prefecture_code":25},"0003":{"zip_code":"5260003","prefecture":"滋賀県","prefecture_kana":"シガケン","city":"長浜市","city_kana":"ナガハマシ","town":"泉町","town_kana":"イズミチョウ","prefecture_code":25},"0051":{"zip_code":"5260051","prefecture":"滋賀県","prefecture_kana":"シガケン","city":"長浜市","city_kana":"ナガハマシ","town":"一の宮町","town_kana":"イチノミヤチョウ","prefecture_code":25},"0133":{"zip_code":"5260133","prefecture":"滋賀県","prefecture_kana":"シガケン","city":"長浜市","city_kana":"ナガハマシ","town":"稲葉町","town_kana":"イナバチョウ","prefecture_code":25},"0816":{"zip_code":"5260816","prefecture":"滋賀県","prefecture_kana":"シガケン","city":"長浜市","city_kana":"ナガハマシ","town":"今川町","town_kana":"イマガワチョウ","prefecture_code":25},"0233":{"zip_code":"5260233","prefecture":"滋賀県","prefecture_kana":"シガケン","city":"長浜市","city_kana":"ナガハマシ","town":"今荘町","town_kana":"イマジョウチョウ","prefecture_code":25},"0806":{"zip_code":"5260806","prefecture":"滋賀県","prefecture_kana":"シガケン","city":"長浜市","city_kana":"ナガハマシ","town":"今町","town_kana":"イマチョウ","prefecture_code":25},"0211":{"zip_code":"5260211","prefecture":"滋賀県","prefecture_kana":"シガケン","city":"長浜市","city_kana":"ナガハマシ","town":"飯山町","town_kana":"イヤマチョウ","prefecture_code":25},"0244":{"zip_code":"5260244","prefecture":"滋賀県","prefecture_kana":"シガケン","city":"長浜市","city_kana":"ナガハマシ","town":"内保町","town_kana":"ウチボチョウ","prefecture_code":25},"0275":{"zip_code":"5260275","prefecture":"滋賀県","prefecture_kana":"シガケン","city":"長浜市","city_kana":"ナガハマシ","town":"瓜生町","town_kana":"ウリュウチョウ","prefecture_code":25},"0264":{"zip_code":"5260264","prefecture":"滋賀県","prefecture_kana":"シガケン","city":"長浜市","city_kana":"ナガハマシ","town":"上野町","town_kana":"ウワノチョウ","prefecture_code":25},"0833":{"zip_code":"5260833","prefecture":"滋賀県","prefecture_kana":"シガケン","city":"長浜市","city_kana":"ナガハマシ","town":"永久寺町","town_kana":"エイキュウジチョウ","prefecture_code":25},"0805":{"zip_code":"5260805","prefecture":"滋賀県","prefecture_kana":"シガケン","city":"長浜市","city_kana":"ナガハマシ","town":"榎木町","town_kana":"エノキチョウ","prefecture_code":25},"0043":{"zip_code":"5260043","prefecture":"滋賀県","prefecture_kana":"シガケン","city":"長浜市","city_kana":"ナガハマシ","town":"大戌亥町","town_kana":"オオイヌイチョウ","prefecture_code":25},"0066":{"zip_code":"5260066","prefecture":"滋賀県","prefecture_kana":"シガケン","city":"長浜市","city_kana":"ナガハマシ","town":"大島町","town_kana":"オオシマチョウ","prefecture_code":25},"0207":{"zip_code":"5260207","prefecture":"滋賀県","prefecture_kana":"シガケン","city":"長浜市","city_kana":"ナガハマシ","town":"太田町","town_kana":"オオタチョウ","prefecture_code":25},"0834":{"zip_code":"5260834","prefecture":"滋賀県","prefecture_kana":"シガケン","city":"長浜市","city_kana":"ナガハマシ","town":"大辰巳町","town_kana":"オオタツミチョウ","prefecture_code":25},"0115":{"zip_code":"5260115","prefecture":"滋賀県","prefecture_kana":"シガケン","city":"長浜市","city_kana":"ナガハマシ","town":"大浜町","town_kana":"オオハマチョウ","prefecture_code":25},"0832":{"zip_code":"5260832","prefecture":"滋賀県","prefecture_kana":"シガケン","city":"長浜市","city_kana":"ナガハマシ","town":"大東町","town_kana":"オオヒガシチョウ","prefecture_code":25},"0054":{"zip_code":"5260054","prefecture":"滋賀県","prefecture_kana":"シガケン","city":"長浜市","city_kana":"ナガハマシ","town":"大宮町","town_kana":"オオミヤチョウ","prefecture_code":25},"0251":{"zip_code":"5260251","prefecture":"滋賀県","prefecture_kana":"シガケン","city":"長浜市","city_kana":"ナガハマシ","town":"大依町","town_kana":"オオヨリチョウ","prefecture_code":25},"0205":{"zip_code":"5260205","prefecture":"滋賀県","prefecture_kana":"シガケン","city":"長浜市","city_kana":"ナガハマシ","town":"岡谷町","town_kana":"オカダニチョウ","prefecture_code":25},"0102":{"zip_code":"5260102","prefecture":"滋賀県","prefecture_kana":"シガケン","city":"長浜市","city_kana":"ナガハマシ","town":"落合町","town_kana":"オチアイチョウ","prefecture_code":25},"0243":{"zip_code":"5260243","prefecture":"滋賀県","prefecture_kana":"シガケン","city":"長浜市","city_kana":"ナガハマシ","town":"大路町","town_kana":"オチチョウ","prefecture_code":25},"0221":{"zip_code":"5260221","prefecture":"滋賀県","prefecture_kana":"シガケン","city":"長浜市","city_kana":"ナガハマシ","town":"小野寺町","town_kana":"オノデラチョウ","prefecture_code":25},"0811":{"zip_code":"5260811","prefecture":"滋賀県","prefecture_kana":"シガケン","city":"長浜市","city_kana":"ナガハマシ","town":"垣籠町","town_kana":"カイゴメチョウ","prefecture_code":25},"0204":{"zip_code":"5260204","prefecture":"滋賀県","prefecture_kana":"シガケン","city":"長浜市","city_kana":"ナガハマシ","town":"鍛冶屋町","town_kana":"カジヤチョウ","prefecture_code":25},"0827":{"zip_code":"5260827","prefecture":"滋賀県","prefecture_kana":"シガケン","city":"長浜市","city_kana":"ナガハマシ","town":"加田今町","town_kana":"カダイマチョウ","prefecture_code":25},"0828":{"zip_code":"5260828","prefecture":"滋賀県","prefecture_kana":"シガケン","city":"長浜市","city_kana":"ナガハマシ","town":"加田町","town_kana":"カダチョウ","prefecture_code":25},"0042":{"zip_code":"5260042","prefecture":"滋賀県","prefecture_kana":"シガケン","city":"長浜市","city_kana":"ナガハマシ","town":"勝町","town_kana":"カツチョウ","prefecture_code":25},"0068":{"zip_code":"5260068","prefecture":"滋賀県","prefecture_kana":"シガケン","city":"長浜市","city_kana":"ナガハマシ","town":"鐘紡町","town_kana":"カネボウチョウ","prefecture_code":25},"0804":{"zip_code":"5260804","prefecture":"滋賀県","prefecture_kana":"シガケン","city":"長浜市","city_kana":"ナガハマシ","town":"加納町","town_kana":"カノウチョウ","prefecture_code":25},"0015":{"zip_code":"5260015","prefecture":"滋賀県","prefecture_kana":"シガケン","city":"長浜市","city_kana":"ナガハマシ","town":"神照町","town_kana":"カミテルチョウ","prefecture_code":25},"0122":{"zip_code":"5260122","prefecture":"滋賀県","prefecture_kana":"シガケン","city":"長浜市","city_kana":"ナガハマシ","town":"上八木町","town_kana":"カミヤギチョウ","prefecture_code":25},"0846":{"zip_code":"5260846","prefecture":"滋賀県","prefecture_kana":"シガケン","city":"長浜市","city_kana":"ナガハマシ","town":"川崎町","town_kana":"カワサキチョウ","prefecture_code":25},"0111":{"zip_code":"5260111","prefecture":"滋賀県","prefecture_kana":"シガケン","city":"長浜市","city_kana":"ナガハマシ","town":"川道町","town_kana":"カワミチチョウ","prefecture_code":25},"0265":{"zip_code":"5260265","prefecture":"滋賀県","prefecture_kana":"シガケン","city":"長浜市","city_kana":"ナガハマシ","town":"木尾町","town_kana":"キオチョウ","prefecture_code":25},"0061":{"zip_code":"5260061","prefecture":"滋賀県","prefecture_kana":"シガケン","city":"長浜市","city_kana":"ナガハマシ","town":"祇園町","town_kana":"ギオンチョウ","prefecture_code":25},"0231":{"zip_code":"5260231","prefecture":"滋賀県","prefecture_kana":"シガケン","city":"長浜市","city_kana":"ナガハマシ","town":"北池町","town_kana":"キタイケチョウ","prefecture_code":25},"0214":{"zip_code":"5260214","prefecture":"滋賀県","prefecture_kana":"シガケン","city":"長浜市","city_kana":"ナガハマシ","town":"北ノ郷町","town_kana":"キタノゴウチョウ","prefecture_code":25},"0272":{"zip_code":"5260272","prefecture":"滋賀県","prefecture_kana":"シガケン","city":"長浜市","city_kana":"ナガハマシ","town":"北野町","town_kana":"キタノチョウ","prefecture_code":25},"0057":{"zip_code":"5260057","prefecture":"滋賀県","prefecture_kana":"シガケン","city":"長浜市","city_kana":"ナガハマシ","town":"北船町","town_kana":"キタフナチョウ","prefecture_code":25},"0202":{"zip_code":"5260202","prefecture":"滋賀県","prefecture_kana":"シガケン","city":"長浜市","city_kana":"ナガハマシ","town":"草野町","town_kana":"クサノチョウ","prefecture_code":25},"0001":{"zip_code":"5260001","prefecture":"滋賀県","prefecture_kana":"シガケン","city":"長浜市","city_kana":"ナガハマシ","town":"国友町","town_kana":"クニトモチョウ","prefecture_code":25},"0014":{"zip_code":"5260014","prefecture":"滋賀県","prefecture_kana":"シガケン","city":"長浜市","city_kana":"ナガハマシ","town":"口分田町","town_kana":"クモデチョウ","prefecture_code":25},"0262":{"zip_code":"5260262","prefecture":"滋賀県","prefecture_kana":"シガケン","city":"長浜市","city_kana":"ナガハマシ","town":"黒部町","town_kana":"クロベチョウ","prefecture_code":25},"0826":{"zip_code":"5260826","prefecture":"滋賀県","prefecture_kana":"シガケン","city":"長浜市","city_kana":"ナガハマシ","town":"小一条町","town_kana":"コイチジョウチョウ","prefecture_code":25},"0065":{"zip_code":"5260065","prefecture":"滋賀県","prefecture_kana":"シガケン","city":"長浜市","city_kana":"ナガハマシ","town":"公園町","town_kana":"コウエンチョウ","prefecture_code":25},"0132":{"zip_code":"5260132","prefecture":"滋賀県","prefecture_kana":"シガケン","city":"長浜市","city_kana":"ナガハマシ","town":"香花寺町","town_kana":"コウケイジチョウ","prefecture_code":25},"0206":{"zip_code":"5260206","prefecture":"滋賀県","prefecture_kana":"シガケン","city":"長浜市","city_kana":"ナガハマシ","town":"郷野町","town_kana":"ゴウノチョウ","prefecture_code":25},"0134":{"zip_code":"5260134","prefecture":"滋賀県","prefecture_kana":"シガケン","city":"長浜市","city_kana":"ナガハマシ","town":"小観音寺町","town_kana":"コカンノンジチョウ","prefecture_code":25},"0004":{"zip_code":"5260004","prefecture":"滋賀県","prefecture_kana":"シガケン","city":"長浜市","city_kana":"ナガハマシ","town":"小沢町","town_kana":"コザワチョウ","prefecture_code":25},"0845":{"zip_code":"5260845","prefecture":"滋賀県","prefecture_kana":"シガケン","city":"長浜市","city_kana":"ナガハマシ","town":"小堀町","town_kana":"コボリチョウ","prefecture_code":25},"0263":{"zip_code":"5260263","prefecture":"滋賀県","prefecture_kana":"シガケン","city":"長浜市","city_kana":"ナガハマシ","town":"小室町","town_kana":"コムロチョウ","prefecture_code":25},"0235":{"zip_code":"5260235","prefecture":"滋賀県","prefecture_kana":"シガケン","city":"長浜市","city_kana":"ナガハマシ","town":"佐野町","town_kana":"サノチョウ","prefecture_code":25},"0055":{"zip_code":"5260055","prefecture":"滋賀県","prefecture_kana":"シガケン","city":"長浜市","city_kana":"ナガハマシ","town":"三和町","town_kana":"サンワチョウ","prefecture_code":25},"0817":{"zip_code":"5260817","prefecture":"滋賀県","prefecture_kana":"シガケン","city":"長浜市","city_kana":"ナガハマシ","town":"七条町","town_kana":"シチジョウチョウ","prefecture_code":25},"0036":{"zip_code":"5260036","prefecture":"滋賀県","prefecture_kana":"シガケン","city":"長浜市","city_kana":"ナガハマシ","town":"地福寺町","town_kana":"ジフクジチョウ","prefecture_code":25},"0044":{"zip_code":"5260044","prefecture":"滋賀県","prefecture_kana":"シガケン","city":"長浜市","city_kana":"ナガハマシ","town":"下坂中町","town_kana":"シモサカナカチョウ","prefecture_code":25},"0047":{"zip_code":"5260047","prefecture":"滋賀県","prefecture_kana":"シガケン","city":"長浜市","city_kana":"ナガハマシ","town":"下坂浜町","town_kana":"シモサカハマチョウ","prefecture_code":25},"0005":{"zip_code":"5260005","prefecture":"滋賀県","prefecture_kana":"シガケン","city":"長浜市","city_kana":"ナガハマシ","town":"下之郷町","town_kana":"シモノゴウチョウ","prefecture_code":25},"0123":{"zip_code":"5260123","prefecture":"滋賀県","prefecture_kana":"シガケン","city":"長浜市","city_kana":"ナガハマシ","town":"下八木町","town_kana":"シモヤギチョウ","prefecture_code":25},"0016":{"zip_code":"5260016","prefecture":"滋賀県","prefecture_kana":"シガケン","city":"長浜市","city_kana":"ナガハマシ","town":"十里町","town_kana":"ジュウリチョウ","prefecture_code":25},"0121":{"zip_code":"5260121","prefecture":"滋賀県","prefecture_kana":"シガケン","city":"長浜市","city_kana":"ナガハマシ","town":"十九町","town_kana":"ジュックチョウ","prefecture_code":25},"0823":{"zip_code":"5260823","prefecture":"滋賀県","prefecture_kana":"シガケン","city":"長浜市","city_kana":"ナガハマシ","town":"常喜町","town_kana":"ジョウギチョウ","prefecture_code":25},"0013":{"zip_code":"5260013","prefecture":"滋賀県","prefecture_kana":"シガケン","city":"長浜市","city_kana":"ナガハマシ","town":"新庄寺町","town_kana":"シンジョウテラチョウ","prefecture_code":25},"0012":{"zip_code":"5260012","prefecture":"滋賀県","prefecture_kana":"シガケン","city":"長浜市","city_kana":"ナガハマシ","town":"新庄中町","town_kana":"シンジョウナカチョウ","prefecture_code":25},"0011":{"zip_code":"5260011","prefecture":"滋賀県","prefecture_kana":"シガケン","city":"長浜市","city_kana":"ナガハマシ","town":"新庄馬場町","town_kana":"シンジョウバンバチョウ","prefecture_code":25},"0052":{"zip_code":"5260052","prefecture":"滋賀県","prefecture_kana":"シガケン","city":"長浜市","city_kana":"ナガハマシ","town":"神前町","town_kana":"シンゼンチョウ","prefecture_code":25},"0241":{"zip_code":"5260241","prefecture":"滋賀県","prefecture_kana":"シガケン","city":"長浜市","city_kana":"ナガハマシ","town":"新三田","town_kana":"シンミタ","prefecture_code":25},"0063":{"zip_code":"5260063","prefecture":"滋賀県","prefecture_kana":"シガケン","city":"長浜市","city_kana":"ナガハマシ","town":"末広町","town_kana":"スエヒロチョウ","prefecture_code":25},"0277":{"zip_code":"5260277","prefecture":"滋賀県","prefecture_kana":"シガケン","city":"長浜市","city_kana":"ナガハマシ","town":"須賀谷町","town_kana":"スガタニチョウ","prefecture_code":25},"0017":{"zip_code":"5260017","prefecture":"滋賀県","prefecture_kana":"シガケン","city":"長浜市","city_kana":"ナガハマシ","town":"相撲町","town_kana":"スマイチョウ","prefecture_code":25},"0234":{"zip_code":"5260234","prefecture":"滋賀県","prefecture_kana":"シガケン","city":"長浜市","city_kana":"ナガハマシ","town":"相撲庭町","town_kana":"スマイニワチョウ","prefecture_code":25},"0103":{"zip_code":"5260103","prefecture":"滋賀県","prefecture_kana":"シガケン","city":"長浜市","city_kana":"ナガハマシ","town":"曽根町","town_kana":"ソネチョウ","prefecture_code":25},"0256":{"zip_code":"5260256","prefecture":"滋賀県","prefecture_kana":"シガケン","city":"長浜市","city_kana":"ナガハマシ","town":"尊勝寺町","town_kana":"ソンショウジチョウ","prefecture_code":25},"0254":{"zip_code":"5260254","prefecture":"滋賀県","prefecture_kana":"シガケン","city":"長浜市","city_kana":"ナガハマシ","town":"尊野町","town_kana":"ソンノチョウ","prefecture_code":25},"0213":{"zip_code":"5260213","prefecture":"滋賀県","prefecture_kana":"シガケン","city":"長浜市","city_kana":"ナガハマシ","town":"醍醐町","town_kana":"ダイゴチョウ","prefecture_code":25},"0216":{"zip_code":"5260216","prefecture":"滋賀県","prefecture_kana":"シガケン","city":"長浜市","city_kana":"ナガハマシ","town":"大門町","town_kana":"ダイモンチョウ","prefecture_code":25},"0037":{"zip_code":"5260037","prefecture":"滋賀県","prefecture_kana":"シガケン","city":"長浜市","city_kana":"ナガハマシ","town":"高田町","town_kana":"タカダチョウ","prefecture_code":25},"0046":{"zip_code":"5260046","prefecture":"滋賀県","prefecture_kana":"シガケン","city":"長浜市","city_kana":"ナガハマシ","town":"高橋町","town_kana":"タカハシチョウ","prefecture_code":25},"0273":{"zip_code":"5260273","prefecture":"滋賀県","prefecture_kana":"シガケン","city":"長浜市","city_kana":"ナガハマシ","town":"高畑町","town_kana":"タカハタチョウ","prefecture_code":25},"0201":{"zip_code":"5260201","prefecture":"滋賀県","prefecture_kana":"シガケン","city":"長浜市","city_kana":"ナガハマシ","town":"高山町","town_kana":"タカヤマチョウ","prefecture_code":25},"0276":{"zip_code":"5260276","prefecture":"滋賀県","prefecture_kana":"シガケン","city":"長浜市","city_kana":"ナガハマシ","town":"田川町","town_kana":"タガワチョウ","prefecture_code":25},"0271":{"zip_code":"5260271","prefecture":"滋賀県","prefecture_kana":"シガケン","city":"長浜市","city_kana":"ナガハマシ","town":"谷口町","town_kana":"タニグチチョウ","prefecture_code":25},"0829":{"zip_code":"5260829","prefecture":"滋賀県","prefecture_kana":"シガケン","city":"長浜市","city_kana":"ナガハマシ","town":"田村町","town_kana":"タムラチョウ","prefecture_code":25},"0801":{"zip_code":"5260801","prefecture":"滋賀県","prefecture_kana":"シガケン","city":"長浜市","city_kana":"ナガハマシ","town":"千草町","town_kana":"チクサチョウ","prefecture_code":25},"0112":{"zip_code":"5260112","prefecture":"滋賀県","prefecture_kana":"シガケン","city":"長浜市","city_kana":"ナガハマシ","town":"鶴が島","town_kana":"ツルガシマ","prefecture_code":25},"0209":{"zip_code":"5260209","prefecture":"滋賀県","prefecture_kana":"シガケン","city":"長浜市","city_kana":"ナガハマシ","town":"寺師町","town_kana":"テラシチョウ","prefecture_code":25},"0045":{"zip_code":"5260045","prefecture":"滋賀県","prefecture_kana":"シガケン","city":"長浜市","city_kana":"ナガハマシ","town":"寺田町","town_kana":"テラダチョウ","prefecture_code":25},"0215":{"zip_code":"5260215","prefecture":"滋賀県","prefecture_kana":"シガケン","city":"長浜市","city_kana":"ナガハマシ","town":"当目町","town_kana":"トウメチョウ","prefecture_code":25},"0212":{"zip_code":"5260212","prefecture":"滋賀県","prefecture_kana":"シガケン","city":"長浜市","city_kana":"ナガハマシ","town":"徳山町","town_kana":"トクヤマチョウ","prefecture_code":25},"0064":{"zip_code":"5260064","prefecture":"滋賀県","prefecture_kana":"シガケン","city":"長浜市","city_kana":"ナガハマシ","town":"殿町","town_kana":"トノチョウ","prefecture_code":25},"0822":{"zip_code":"5260822","prefecture":"滋賀県","prefecture_kana":"シガケン","city":"長浜市","city_kana":"ナガハマシ","town":"鳥羽上町","town_kana":"トバカミチョウ","prefecture_code":25},"0131":{"zip_code":"5260131","prefecture":"滋賀県","prefecture_kana":"シガケン","city":"長浜市","city_kana":"ナガハマシ","town":"富田町","town_kana":"トンダチョウ","prefecture_code":25},"0114":{"zip_code":"5260114","prefecture":"滋賀県","prefecture_kana":"シガケン","city":"長浜市","city_kana":"ナガハマシ","town":"中浜","town_kana":"ナカハマ","prefecture_code":25},"0022":{"zip_code":"5260022","prefecture":"滋賀県","prefecture_kana":"シガケン","city":"長浜市","city_kana":"ナガハマシ","town":"中山町","town_kana":"ナカヤマチョウ","prefecture_code":25},"0824":{"zip_code":"5260824","prefecture":"滋賀県","prefecture_kana":"シガケン","city":"長浜市","city_kana":"ナガハマシ","town":"名越町","town_kana":"ナゴシチョウ","prefecture_code":25},"0225":{"zip_code":"5260225","prefecture":"滋賀県","prefecture_kana":"シガケン","city":"長浜市","city_kana":"ナガハマシ","town":"南郷町","town_kana":"ナンゴウチョウ","prefecture_code":25},"0108":{"zip_code":"5260108","prefecture":"滋賀県","prefecture_kana":"シガケン","city":"長浜市","city_kana":"ナガハマシ","town":"難波町","town_kana":"ナンバチョウ","prefecture_code":25},"0841":{"zip_code":"5260841","prefecture":"滋賀県","prefecture_kana":"シガケン","city":"長浜市","city_kana":"ナガハマシ","town":"新栄町","town_kana":"ニイサカチョウ","prefecture_code":25},"0227":{"zip_code":"5260227","prefecture":"滋賀県","prefecture_kana":"シガケン","city":"長浜市","city_kana":"ナガハマシ","town":"西主計町","town_kana":"ニシカズエチョウ","prefecture_code":25},"0803":{"zip_code":"5260803","prefecture":"滋賀県","prefecture_kana":"シガケン","city":"長浜市","city_kana":"ナガハマシ","town":"西上坂町","town_kana":"ニシコウザカチョウ","prefecture_code":25},"0101":{"zip_code":"5260101","prefecture":"滋賀県","prefecture_kana":"シガケン","city":"長浜市","city_kana":"ナガハマシ","town":"錦織町","town_kana":"ニシコオリチョウ","prefecture_code":25},"0246":{"zip_code":"5260246","prefecture":"滋賀県","prefecture_kana":"シガケン","city":"長浜市","city_kana":"ナガハマシ","town":"西新三田","town_kana":"ニシシンミタ","prefecture_code":25},"0255":{"zip_code":"5260255","prefecture":"滋賀県","prefecture_kana":"シガケン","city":"長浜市","city_kana":"ナガハマシ","town":"西野町","town_kana":"ニシノチョウ","prefecture_code":25},"0208":{"zip_code":"5260208","prefecture":"滋賀県","prefecture_kana":"シガケン","city":"長浜市","city_kana":"ナガハマシ","town":"西村町","town_kana":"ニシムラチョウ","prefecture_code":25},"0107":{"zip_code":"5260107","prefecture":"滋賀県","prefecture_kana":"シガケン","city":"長浜市","city_kana":"ナガハマシ","town":"新居町","town_kana":"ニノイチョウ","prefecture_code":25},"0217":{"zip_code":"5260217","prefecture":"滋賀県","prefecture_kana":"シガケン","city":"長浜市","city_kana":"ナガハマシ","town":"乗倉町","town_kana":"ノセクラチョウ","prefecture_code":25},"0203":{"zip_code":"5260203","prefecture":"滋賀県","prefecture_kana":"シガケン","city":"長浜市","city_kana":"ナガハマシ","town":"野瀬町","town_kana":"ノセチョウ","prefecture_code":25},"0266":{"zip_code":"5260266","prefecture":"滋賀県","prefecture_kana":"シガケン","city":"長浜市","city_kana":"ナガハマシ","town":"野田町","town_kana":"ノダチョウ","prefecture_code":25},"0106":{"zip_code":"5260106","prefecture":"滋賀県","prefecture_kana":"シガケン","city":"長浜市","city_kana":"ナガハマシ","town":"野寺町","town_kana":"ノデラチョウ","prefecture_code":25},"0236":{"zip_code":"5260236","prefecture":"滋賀県","prefecture_kana":"シガケン","city":"長浜市","city_kana":"ナガハマシ","town":"野村町","town_kana":"ノムラチョウ","prefecture_code":25},"0815":{"zip_code":"5260815","prefecture":"滋賀県","prefecture_kana":"シガケン","city":"長浜市","city_kana":"ナガハマシ","town":"八条町","town_kana":"ハチジョウチョウ","prefecture_code":25},"0124":{"zip_code":"5260124","prefecture":"滋賀県","prefecture_kana":"シガケン","city":"長浜市","city_kana":"ナガハマシ","town":"早崎町","town_kana":"ハヤザキチョウ","prefecture_code":25},"0842":{"zip_code":"5260842","prefecture":"滋賀県","prefecture_kana":"シガケン","city":"長浜市","city_kana":"ナガハマシ","town":"春近町","town_kana":"ハルチカチョウ","prefecture_code":25},"0226":{"zip_code":"5260226","prefecture":"滋賀県","prefecture_kana":"シガケン","city":"長浜市","city_kana":"ナガハマシ","town":"東主計町","town_kana":"ヒガシカズエチョウ","prefecture_code":25},"0802":{"zip_code":"5260802","prefecture":"滋賀県","prefecture_kana":"シガケン","city":"長浜市","city_kana":"ナガハマシ","town":"東上坂町","town_kana":"ヒガシコウザカチョウ","prefecture_code":25},"0224":{"zip_code":"5260224","prefecture":"滋賀県","prefecture_kana":"シガケン","city":"長浜市","city_kana":"ナガハマシ","town":"東野町","town_kana":"ヒガシノチョウ","prefecture_code":25},"0035":{"zip_code":"5260035","prefecture":"滋賀県","prefecture_kana":"シガケン","city":"長浜市","city_kana":"ナガハマシ","town":"平方南町","town_kana":"ヒラカタミナミチョウ","prefecture_code":25},"0033":{"zip_code":"5260033","prefecture":"滋賀県","prefecture_kana":"シガケン","city":"長浜市","city_kana":"ナガハマシ","town":"平方町","town_kana":"ヒラカタチョウ","prefecture_code":25},"0253":{"zip_code":"5260253","prefecture":"滋賀県","prefecture_kana":"シガケン","city":"長浜市","city_kana":"ナガハマシ","town":"平塚町","town_kana":"ヒラツカチョウ","prefecture_code":25},"0825":{"zip_code":"5260825","prefecture":"滋賀県","prefecture_kana":"シガケン","city":"長浜市","city_kana":"ナガハマシ","town":"布勢町","town_kana":"フセチョウ","prefecture_code":25},"0025":{"zip_code":"5260025","prefecture":"滋賀県","prefecture_kana":"シガケン","city":"長浜市","city_kana":"ナガハマシ","town":"分木町","town_kana":"ブンギチョウ","prefecture_code":25},"0002":{"zip_code":"5260002","prefecture":"滋賀県","prefecture_kana":"シガケン","city":"長浜市","city_kana":"ナガハマシ","town":"保田町","town_kana":"ホウデチョウ","prefecture_code":25},"0223":{"zip_code":"5260223","prefecture":"滋賀県","prefecture_kana":"シガケン","city":"長浜市","city_kana":"ナガハマシ","town":"法楽寺町","town_kana":"ホウラクジチョウ","prefecture_code":25},"0105":{"zip_code":"5260105","prefecture":"滋賀県","prefecture_kana":"シガケン","city":"長浜市","city_kana":"ナガハマシ","town":"細江町","town_kana":"ホソエチョウ","prefecture_code":25},"0812":{"zip_code":"5260812","prefecture":"滋賀県","prefecture_kana":"シガケン","city":"長浜市","city_kana":"ナガハマシ","town":"保多町","town_kana":"ホダチョウ","prefecture_code":25},"0813":{"zip_code":"5260813","prefecture":"滋賀県","prefecture_kana":"シガケン","city":"長浜市","city_kana":"ナガハマシ","town":"堀部町","town_kana":"ホリベチョウ","prefecture_code":25},"0821":{"zip_code":"5260821","prefecture":"滋賀県","prefecture_kana":"シガケン","city":"長浜市","city_kana":"ナガハマシ","town":"本庄町","town_kana":"ホンジョウチョウ","prefecture_code":25},"0125":{"zip_code":"5260125","prefecture":"滋賀県","prefecture_kana":"シガケン","city":"長浜市","city_kana":"ナガハマシ","town":"益田町","town_kana":"マスダチョウ","prefecture_code":25},"0104":{"zip_code":"5260104","prefecture":"滋賀県","prefecture_kana":"シガケン","city":"長浜市","city_kana":"ナガハマシ","town":"御館","town_kana":"ミタチ","prefecture_code":25},"0242":{"zip_code":"5260242","prefecture":"滋賀県","prefecture_kana":"シガケン","city":"長浜市","city_kana":"ナガハマシ","town":"三田町","town_kana":"ミタチョウ","prefecture_code":25},"0023":{"zip_code":"5260023","prefecture":"滋賀県","prefecture_kana":"シガケン","city":"長浜市","city_kana":"ナガハマシ","town":"三ツ矢町","town_kana":"ミツヤチョウ","prefecture_code":25},"0024":{"zip_code":"5260024","prefecture":"滋賀県","prefecture_kana":"シガケン","city":"長浜市","city_kana":"ナガハマシ","town":"三ツ矢元町","town_kana":"ミツヤモトチョウ","prefecture_code":25},"0067":{"zip_code":"5260067","prefecture":"滋賀県","prefecture_kana":"シガケン","city":"長浜市","city_kana":"ナガハマシ","town":"港町","town_kana":"ミナトチョウ","prefecture_code":25},"0232":{"zip_code":"5260232","prefecture":"滋賀県","prefecture_kana":"シガケン","city":"長浜市","city_kana":"ナガハマシ","town":"南池町","town_kana":"ミナミイケチョウ","prefecture_code":25},"0843":{"zip_code":"5260843","prefecture":"滋賀県","prefecture_kana":"シガケン","city":"長浜市","city_kana":"ナガハマシ","town":"南小足町","town_kana":"ミナミコアシチョウ","prefecture_code":25},"0058":{"zip_code":"5260058","prefecture":"滋賀県","prefecture_kana":"シガケン","city":"長浜市","city_kana":"ナガハマシ","town":"南呉服町","town_kana":"ミナミゴフクチョウ","prefecture_code":25},"0032":{"zip_code":"5260032","prefecture":"滋賀県","prefecture_kana":"シガケン","city":"長浜市","city_kana":"ナガハマシ","town":"南高田町","town_kana":"ミナミタカダチョウ","prefecture_code":25},"0844":{"zip_code":"5260844","prefecture":"滋賀県","prefecture_kana":"シガケン","city":"長浜市","city_kana":"ナガハマシ","town":"南田附町","town_kana":"ミナミタヅケチョウ","prefecture_code":25},"0113":{"zip_code":"5260113","prefecture":"滋賀県","prefecture_kana":"シガケン","city":"長浜市","city_kana":"ナガハマシ","town":"南浜町","town_kana":"ミナミハマチョウ","prefecture_code":25},"0831":{"zip_code":"5260831","prefecture":"滋賀県","prefecture_kana":"シガケン","city":"長浜市","city_kana":"ナガハマシ","town":"宮司町","town_kana":"ミヤシチョウ","prefecture_code":25},"0053":{"zip_code":"5260053","prefecture":"滋賀県","prefecture_kana":"シガケン","city":"長浜市","city_kana":"ナガハマシ","town":"宮前町","town_kana":"ミヤマエチョウ","prefecture_code":25},"0835":{"zip_code":"5260835","prefecture":"滋賀県","prefecture_kana":"シガケン","city":"長浜市","city_kana":"ナガハマシ","town":"室町","town_kana":"ムロチョウ","prefecture_code":25},"0059":{"zip_code":"5260059","prefecture":"滋賀県","prefecture_kana":"シガケン","city":"長浜市","city_kana":"ナガハマシ","town":"元浜町","town_kana":"モトハマチョウ","prefecture_code":25},"0018":{"zip_code":"5260018","prefecture":"滋賀県","prefecture_kana":"シガケン","city":"長浜市","city_kana":"ナガハマシ","town":"森町","town_kana":"モリチョウ","prefecture_code":25},"0116":{"zip_code":"5260116","prefecture":"滋賀県","prefecture_kana":"シガケン","city":"長浜市","city_kana":"ナガハマシ","town":"八木浜町","town_kana":"ヤギハマチョウ","prefecture_code":25},"0252":{"zip_code":"5260252","prefecture":"滋賀県","prefecture_kana":"シガケン","city":"長浜市","city_kana":"ナガハマシ","town":"八島町","town_kana":"ヤシマチョウ","prefecture_code":25},"0034":{"zip_code":"5260034","prefecture":"滋賀県","prefecture_kana":"シガケン","city":"長浜市","city_kana":"ナガハマシ","town":"弥高町","town_kana":"ヤタカチョウ","prefecture_code":25},"0847":{"zip_code":"5260847","prefecture":"滋賀県","prefecture_kana":"シガケン","city":"長浜市","city_kana":"ナガハマシ","town":"山階町","town_kana":"ヤマシナチョウ","prefecture_code":25},"0257":{"zip_code":"5260257","prefecture":"滋賀県","prefecture_kana":"シガケン","city":"長浜市","city_kana":"ナガハマシ","town":"山ノ前町","town_kana":"ヤマノマエチョウ","prefecture_code":25},"0021":{"zip_code":"5260021","prefecture":"滋賀県","prefecture_kana":"シガケン","city":"長浜市","city_kana":"ナガハマシ","town":"八幡中山町","town_kana":"ヤワタナカヤマチョウ","prefecture_code":25},"0031":{"zip_code":"5260031","prefecture":"滋賀県","prefecture_kana":"シガケン","city":"長浜市","city_kana":"ナガハマシ","town":"八幡東町","town_kana":"ヤワタヒガシチョウ","prefecture_code":25},"0135":{"zip_code":"5260135","prefecture":"滋賀県","prefecture_kana":"シガケン","city":"長浜市","city_kana":"ナガハマシ","town":"弓削町","town_kana":"ユウゲチョウ","prefecture_code":25},"0245":{"zip_code":"5260245","prefecture":"滋賀県","prefecture_kana":"シガケン","city":"長浜市","city_kana":"ナガハマシ","town":"湯次町","town_kana":"ユスキチョウ","prefecture_code":25},"0041":{"zip_code":"5260041","prefecture":"滋賀県","prefecture_kana":"シガケン","city":"長浜市","city_kana":"ナガハマシ","town":"四ツ塚町","town_kana":"ヨツヅカチョウ","prefecture_code":25},"0267":{"zip_code":"5260267","prefecture":"滋賀県","prefecture_kana":"シガケン","city":"長浜市","city_kana":"ナガハマシ","town":"力丸町","town_kana":"リキマルチョウ","prefecture_code":25},"0261":{"zip_code":"5260261","prefecture":"滋賀県","prefecture_kana":"シガケン","city":"長浜市","city_kana":"ナガハマシ","town":"竜安寺町","town_kana":"リュウアンジチョウ","prefecture_code":25},"0062":{"zip_code":"5260062","prefecture":"滋賀県","prefecture_kana":"シガケン","city":"長浜市","city_kana":"ナガハマシ","town":"列見町","town_kana":"レツケチョウ","prefecture_code":25}}