{"0000":{"zip_code":"5270000","prefecture":"滋賀県","prefecture_kana":"シガケン","city":"東近江市","city_kana":"ヒガシオウミシ","town":"","town_kana":"","prefecture_code":25},"0166":{"zip_code":"5270166","prefecture":"滋賀県","prefecture_kana":"シガケン","city":"東近江市","city_kana":"ヒガシオウミシ","town":"愛東外町","town_kana":"アイトウトノチョウ","prefecture_code":25},"0232":{"zip_code":"5270232","prefecture":"滋賀県","prefecture_kana":"シガケン","city":"東近江市","city_kana":"ヒガシオウミシ","town":"青野町","town_kana":"アオノチョウ","prefecture_code":25},"0039":{"zip_code":"5270039","prefecture":"滋賀県","prefecture_kana":"シガケン","city":"東近江市","city_kana":"ヒガシオウミシ","town":"青葉町","town_kana":"アオバチョウ","prefecture_code":25},"0164":{"zip_code":"5270164","prefecture":"滋賀県","prefecture_kana":"シガケン","city":"東近江市","city_kana":"ヒガシオウミシ","town":"青山町","town_kana":"アオヤマチョウ","prefecture_code":25},"0113":{"zip_code":"5270113","prefecture":"滋賀県","prefecture_kana":"シガケン","city":"東近江市","city_kana":"ヒガシオウミシ","town":"池庄町","town_kana":"イケショウチョウ","prefecture_code":25},"0054":{"zip_code":"5270054","prefecture":"滋賀県","prefecture_kana":"シガケン","city":"東近江市","city_kana":"ヒガシオウミシ","town":"池田町","town_kana":"イケダチョウ","prefecture_code":25},"0171":{"zip_code":"5270171","prefecture":"滋賀県","prefecture_kana":"シガケン","city":"東近江市","city_kana":"ヒガシオウミシ","town":"池之尻町","town_kana":"イケノシリチョウ","prefecture_code":25},"0222":{"zip_code":"5270222","prefecture":"滋賀県","prefecture_kana":"シガケン","city":"東近江市","city_kana":"ヒガシオウミシ","town":"池之脇町","town_kana":"イケノワキチョウ","prefecture_code":25},"0227":{"zip_code":"5270227","prefecture":"滋賀県","prefecture_kana":"シガケン","city":"東近江市","city_kana":"ヒガシオウミシ","town":"石谷町","town_kana":"イシダニチョウ","prefecture_code":25},"0151":{"zip_code":"5270151","prefecture":"滋賀県","prefecture_kana":"シガケン","city":"東近江市","city_kana":"ヒガシオウミシ","town":"市ケ原町","town_kana":"イチガハラチョウ","prefecture_code":25},"0074":{"zip_code":"5270074","prefecture":"滋賀県","prefecture_kana":"シガケン","city":"東近江市","city_kana":"ヒガシオウミシ","town":"市辺町","town_kana":"イチノベチョウ","prefecture_code":25},"0224":{"zip_code":"5270224","prefecture":"滋賀県","prefecture_kana":"シガケン","city":"東近江市","city_kana":"ヒガシオウミシ","town":"市原野町","town_kana":"イチハラノチョウ","prefecture_code":25},"0226":{"zip_code":"5270226","prefecture":"滋賀県","prefecture_kana":"シガケン","city":"東近江市","city_kana":"ヒガシオウミシ","town":"一式町","town_kana":"イッシキチョウ","prefecture_code":25},"0216":{"zip_code":"5270216","prefecture":"滋賀県","prefecture_kana":"シガケン","city":"東近江市","city_kana":"ヒガシオウミシ","town":"茨川町","town_kana":"イバラガワチョウ","prefecture_code":25},"0107":{"zip_code":"5270107","prefecture":"滋賀県","prefecture_kana":"シガケン","city":"東近江市","city_kana":"ヒガシオウミシ","town":"今在家町","town_kana":"イマザイケチョウ","prefecture_code":25},"0016":{"zip_code":"5270016","prefecture":"滋賀県","prefecture_kana":"シガケン","city":"東近江市","city_kana":"ヒガシオウミシ","town":"今崎町","town_kana":"イマサキチョウ","prefecture_code":25},"0053":{"zip_code":"5270053","prefecture":"滋賀県","prefecture_kana":"シガケン","city":"東近江市","city_kana":"ヒガシオウミシ","town":"今代町","town_kana":"イマダイチョウ","prefecture_code":25},"0071":{"zip_code":"5270071","prefecture":"滋賀県","prefecture_kana":"シガケン","city":"東近江市","city_kana":"ヒガシオウミシ","town":"今堀町","town_kana":"イマボリチョウ","prefecture_code":25},"0162":{"zip_code":"5270162","prefecture":"滋賀県","prefecture_kana":"シガケン","city":"東近江市","city_kana":"ヒガシオウミシ","town":"妹町","town_kana":"イモトチョウ","prefecture_code":25},"0156":{"zip_code":"5270156","prefecture":"滋賀県","prefecture_kana":"シガケン","city":"東近江市","city_kana":"ヒガシオウミシ","town":"上中野町","town_kana":"ウエナカノチョウ","prefecture_code":25},"0175":{"zip_code":"5270175","prefecture":"滋賀県","prefecture_kana":"シガケン","city":"東近江市","city_kana":"ヒガシオウミシ","town":"梅林町","town_kana":"ウメバヤシチョウ","prefecture_code":25},"0055":{"zip_code":"5270055","prefecture":"滋賀県","prefecture_kana":"シガケン","city":"東近江市","city_kana":"ヒガシオウミシ","town":"瓜生津町","town_kana":"ウリウヅチョウ","prefecture_code":25},"0211":{"zip_code":"5270211","prefecture":"滋賀県","prefecture_kana":"シガケン","city":"東近江市","city_kana":"ヒガシオウミシ","town":"永源寺相谷町","town_kana":"エイゲンジアイダニチョウ","prefecture_code":25},"0212":{"zip_code":"5270212","prefecture":"滋賀県","prefecture_kana":"シガケン","city":"東近江市","city_kana":"ヒガシオウミシ","town":"永源寺高野町","town_kana":"エイゲンジタカノチョウ","prefecture_code":25},"0114":{"zip_code":"5270114","prefecture":"滋賀県","prefecture_kana":"シガケン","city":"東近江市","city_kana":"ヒガシオウミシ","town":"大沢町","town_kana":"オオザワチョウ","prefecture_code":25},"0126":{"zip_code":"5270126","prefecture":"滋賀県","prefecture_kana":"シガケン","city":"東近江市","city_kana":"ヒガシオウミシ","town":"大清水町","town_kana":"オオシュウズチョウ","prefecture_code":25},"0174":{"zip_code":"5270174","prefecture":"滋賀県","prefecture_kana":"シガケン","city":"東近江市","city_kana":"ヒガシオウミシ","town":"大萩町","town_kana":"オオハギチョウ","prefecture_code":25},"0155":{"zip_code":"5270155","prefecture":"滋賀県","prefecture_kana":"シガケン","city":"東近江市","city_kana":"ヒガシオウミシ","town":"大林町","town_kana":"オオバヤシチョウ","prefecture_code":25},"0063":{"zip_code":"5270063","prefecture":"滋賀県","prefecture_kana":"シガケン","city":"東近江市","city_kana":"ヒガシオウミシ","town":"大森町","town_kana":"オオモリチョウ","prefecture_code":25},"0057":{"zip_code":"5270057","prefecture":"滋賀県","prefecture_kana":"シガケン","city":"東近江市","city_kana":"ヒガシオウミシ","town":"岡田町","town_kana":"オカダチョウ","prefecture_code":25},"0034":{"zip_code":"5270034","prefecture":"滋賀県","prefecture_kana":"シガケン","city":"東近江市","city_kana":"ヒガシオウミシ","town":"沖野","town_kana":"オキノ","prefecture_code":25},"0165":{"zip_code":"5270165","prefecture":"滋賀県","prefecture_kana":"シガケン","city":"東近江市","city_kana":"ヒガシオウミシ","town":"小倉町","town_kana":"オグラチョウ","prefecture_code":25},"0122":{"zip_code":"5270122","prefecture":"滋賀県","prefecture_kana":"シガケン","city":"東近江市","city_kana":"ヒガシオウミシ","town":"長町","town_kana":"オサチョウ","prefecture_code":25},"0091":{"zip_code":"5270091","prefecture":"滋賀県","prefecture_kana":"シガケン","city":"東近江市","city_kana":"ヒガシオウミシ","town":"小脇町","town_kana":"オワキチョウ","prefecture_code":25},"0083":{"zip_code":"5270083","prefecture":"滋賀県","prefecture_kana":"シガケン","city":"東近江市","city_kana":"ヒガシオウミシ","town":"柏木町","town_kana":"カシワギチョウ","prefecture_code":25},"0032":{"zip_code":"5270032","prefecture":"滋賀県","prefecture_kana":"シガケン","city":"東近江市","city_kana":"ヒガシオウミシ","town":"春日町","town_kana":"カスガチョウ","prefecture_code":25},"0062":{"zip_code":"5270062","prefecture":"滋賀県","prefecture_kana":"シガケン","city":"東近江市","city_kana":"ヒガシオウミシ","town":"上大森町","town_kana":"カミオオモリチョウ","prefecture_code":25},"0173":{"zip_code":"5270173","prefecture":"滋賀県","prefecture_kana":"シガケン","city":"東近江市","city_kana":"ヒガシオウミシ","town":"上岸本町","town_kana":"カミギシモトチョウ","prefecture_code":25},"0082":{"zip_code":"5270082","prefecture":"滋賀県","prefecture_kana":"シガケン","city":"東近江市","city_kana":"ヒガシオウミシ","town":"上羽田町","town_kana":"カミハネダチョウ","prefecture_code":25},"0086":{"zip_code":"5270086","prefecture":"滋賀県","prefecture_kana":"シガケン","city":"東近江市","city_kana":"ヒガシオウミシ","town":"上平木町","town_kana":"カミヒラギチョウ","prefecture_code":25},"0221":{"zip_code":"5270221","prefecture":"滋賀県","prefecture_kana":"シガケン","city":"東近江市","city_kana":"ヒガシオウミシ","town":"上二俣町","town_kana":"カミフタマタチョウ","prefecture_code":25},"0142":{"zip_code":"5270142","prefecture":"滋賀県","prefecture_kana":"シガケン","city":"東近江市","city_kana":"ヒガシオウミシ","town":"上山町","town_kana":"カミヤマチョウ","prefecture_code":25},"0208":{"zip_code":"5270208","prefecture":"滋賀県","prefecture_kana":"シガケン","city":"東近江市","city_kana":"ヒガシオウミシ","town":"萱尾町","town_kana":"カヤオチョウ","prefecture_code":25},"0041":{"zip_code":"5270041","prefecture":"滋賀県","prefecture_kana":"シガケン","city":"東近江市","city_kana":"ヒガシオウミシ","town":"川合寺町","town_kana":"カワイデラチョウ","prefecture_code":25},"0101":{"zip_code":"5270101","prefecture":"滋賀県","prefecture_kana":"シガケン","city":"東近江市","city_kana":"ヒガシオウミシ","town":"祇園町","town_kana":"ギオンチョウ","prefecture_code":25},"0145":{"zip_code":"5270145","prefecture":"滋賀県","prefecture_kana":"シガケン","city":"東近江市","city_kana":"ヒガシオウミシ","town":"北坂町","town_kana":"キタサカチョウ","prefecture_code":25},"0129":{"zip_code":"5270129","prefecture":"滋賀県","prefecture_kana":"シガケン","city":"東近江市","city_kana":"ヒガシオウミシ","town":"北清水町","town_kana":"キタシュウズチョウ","prefecture_code":25},"0111":{"zip_code":"5270111","prefecture":"滋賀県","prefecture_kana":"シガケン","city":"東近江市","city_kana":"ヒガシオウミシ","town":"北花沢町","town_kana":"キタハナザワチョウ","prefecture_code":25},"0138":{"zip_code":"5270138","prefecture":"滋賀県","prefecture_kana":"シガケン","city":"東近江市","city_kana":"ヒガシオウミシ","town":"北菩提寺町","town_kana":"キタボダイジチョウ","prefecture_code":25},"0202":{"zip_code":"5270202","prefecture":"滋賀県","prefecture_kana":"シガケン","city":"東近江市","city_kana":"ヒガシオウミシ","town":"君ケ畑町","town_kana":"キミガハタチョウ","prefecture_code":25},"0205":{"zip_code":"5270205","prefecture":"滋賀県","prefecture_kana":"シガケン","city":"東近江市","city_kana":"ヒガシオウミシ","town":"黄和田町","town_kana":"キワダチョウ","prefecture_code":25},"0215":{"zip_code":"5270215","prefecture":"滋賀県","prefecture_kana":"シガケン","city":"東近江市","city_kana":"ヒガシオウミシ","town":"九居瀬町","town_kana":"クイゼチョウ","prefecture_code":25},"0121":{"zip_code":"5270121","prefecture":"滋賀県","prefecture_kana":"シガケン","city":"東近江市","city_kana":"ヒガシオウミシ","town":"小池町","town_kana":"コイケチョウ","prefecture_code":25},"0092":{"zip_code":"5270092","prefecture":"滋賀県","prefecture_kana":"シガケン","city":"東近江市","city_kana":"ヒガシオウミシ","town":"小今町","town_kana":"コイマチョウ","prefecture_code":25},"0214":{"zip_code":"5270214","prefecture":"滋賀県","prefecture_kana":"シガケン","city":"東近江市","city_kana":"ヒガシオウミシ","town":"甲津畑町","town_kana":"コウヅハタチョウ","prefecture_code":25},"0125":{"zip_code":"5270125","prefecture":"滋賀県","prefecture_kana":"シガケン","city":"東近江市","city_kana":"ヒガシオウミシ","town":"小田苅町","town_kana":"コタカリチョウ","prefecture_code":25},"0044":{"zip_code":"5270044","prefecture":"滋賀県","prefecture_kana":"シガケン","city":"東近江市","city_kana":"ヒガシオウミシ","town":"五智町","town_kana":"ゴチチョウ","prefecture_code":25},"0108":{"zip_code":"5270108","prefecture":"滋賀県","prefecture_kana":"シガケン","city":"東近江市","city_kana":"ヒガシオウミシ","town":"小八木町","town_kana":"コヤギチョウ","prefecture_code":25},"0031":{"zip_code":"5270031","prefecture":"滋賀県","prefecture_kana":"シガケン","city":"東近江市","city_kana":"ヒガシオウミシ","town":"幸町","town_kana":"サイワイチョウ","prefecture_code":25},"0027":{"zip_code":"5270027","prefecture":"滋賀県","prefecture_kana":"シガケン","city":"東近江市","city_kana":"ヒガシオウミシ","town":"栄町","town_kana":"サカエマチ","prefecture_code":25},"0209":{"zip_code":"5270209","prefecture":"滋賀県","prefecture_kana":"シガケン","city":"東近江市","city_kana":"ヒガシオウミシ","town":"佐目町","town_kana":"サメチョウ","prefecture_code":25},"0064":{"zip_code":"5270064","prefecture":"滋賀県","prefecture_kana":"シガケン","city":"東近江市","city_kana":"ヒガシオウミシ","town":"尻無町","town_kana":"シナシチョウ","prefecture_code":25},"0067":{"zip_code":"5270067","prefecture":"滋賀県","prefecture_kana":"シガケン","city":"東近江市","city_kana":"ヒガシオウミシ","town":"芝原町","town_kana":"シバハラチョウ","prefecture_code":25},"0066":{"zip_code":"5270066","prefecture":"滋賀県","prefecture_kana":"シガケン","city":"東近江市","city_kana":"ヒガシオウミシ","town":"柴原南町","town_kana":"シバハラミナミチョウ","prefecture_code":25},"0132":{"zip_code":"5270132","prefecture":"滋賀県","prefecture_kana":"シガケン","city":"東近江市","city_kana":"ヒガシオウミシ","town":"下一色町","town_kana":"シモイシキチョウ","prefecture_code":25},"0124":{"zip_code":"5270124","prefecture":"滋賀県","prefecture_kana":"シガケン","city":"東近江市","city_kana":"ヒガシオウミシ","town":"下岸本町","town_kana":"シモギシモトチョウ","prefecture_code":25},"0115":{"zip_code":"5270115","prefecture":"滋賀県","prefecture_kana":"シガケン","city":"東近江市","city_kana":"ヒガシオウミシ","town":"下里町","town_kana":"シモザトチョウ","prefecture_code":25},"0157":{"zip_code":"5270157","prefecture":"滋賀県","prefecture_kana":"シガケン","city":"東近江市","city_kana":"ヒガシオウミシ","town":"下中野町","town_kana":"シモナカノチョウ","prefecture_code":25},"0085":{"zip_code":"5270085","prefecture":"滋賀県","prefecture_kana":"シガケン","city":"東近江市","city_kana":"ヒガシオウミシ","town":"下羽田町","town_kana":"シモハネダチョウ","prefecture_code":25},"0065":{"zip_code":"5270065","prefecture":"滋賀県","prefecture_kana":"シガケン","city":"東近江市","city_kana":"ヒガシオウミシ","town":"下二俣町","town_kana":"シモフタマタチョウ","prefecture_code":25},"0128":{"zip_code":"5270128","prefecture":"滋賀県","prefecture_kana":"シガケン","city":"東近江市","city_kana":"ヒガシオウミシ","town":"清水中町","town_kana":"シュウズナカチョウ","prefecture_code":25},"0131":{"zip_code":"5270131","prefecture":"滋賀県","prefecture_kana":"シガケン","city":"東近江市","city_kana":"ヒガシオウミシ","town":"勝堂町","town_kana":"ショウドウチョウ","prefecture_code":25},"0017":{"zip_code":"5270017","prefecture":"滋賀県","prefecture_kana":"シガケン","city":"東近江市","city_kana":"ヒガシオウミシ","town":"昭和町","town_kana":"ショウワチョウ","prefecture_code":25},"0225":{"zip_code":"5270225","prefecture":"滋賀県","prefecture_kana":"シガケン","city":"東近江市","city_kana":"ヒガシオウミシ","town":"新出町","town_kana":"シンデチョウ","prefecture_code":25},"0043":{"zip_code":"5270043","prefecture":"滋賀県","prefecture_kana":"シガケン","city":"東近江市","city_kana":"ヒガシオウミシ","town":"神田町","town_kana":"ジンデンチョウ","prefecture_code":25},"0038":{"zip_code":"5270038","prefecture":"滋賀県","prefecture_kana":"シガケン","city":"東近江市","city_kana":"ヒガシオウミシ","town":"聖徳町","town_kana":"セイトクチョウ","prefecture_code":25},"0036":{"zip_code":"5270036","prefecture":"滋賀県","prefecture_kana":"シガケン","city":"東近江市","city_kana":"ヒガシオウミシ","town":"聖和町","town_kana":"セイワチョウ","prefecture_code":25},"0106":{"zip_code":"5270106","prefecture":"滋賀県","prefecture_kana":"シガケン","city":"東近江市","city_kana":"ヒガシオウミシ","town":"僧坊町","town_kana":"ソウボウチョウ","prefecture_code":25},"0163":{"zip_code":"5270163","prefecture":"滋賀県","prefecture_kana":"シガケン","city":"東近江市","city_kana":"ヒガシオウミシ","town":"曽根町","town_kana":"ソネチョウ","prefecture_code":25},"0154":{"zip_code":"5270154","prefecture":"滋賀県","prefecture_kana":"シガケン","city":"東近江市","city_kana":"ヒガシオウミシ","town":"園町","town_kana":"ソノチョウ","prefecture_code":25},"0152":{"zip_code":"5270152","prefecture":"滋賀県","prefecture_kana":"シガケン","city":"東近江市","city_kana":"ヒガシオウミシ","town":"大覚寺町","town_kana":"ダイカクジチョウ","prefecture_code":25},"0223":{"zip_code":"5270223","prefecture":"滋賀県","prefecture_kana":"シガケン","city":"東近江市","city_kana":"ヒガシオウミシ","town":"高木町","town_kana":"タカギチョウ","prefecture_code":25},"0207":{"zip_code":"5270207","prefecture":"滋賀県","prefecture_kana":"シガケン","city":"東近江市","city_kana":"ヒガシオウミシ","town":"蓼畑町","town_kana":"タテハタチョウ","prefecture_code":25},"0002":{"zip_code":"5270002","prefecture":"滋賀県","prefecture_kana":"シガケン","city":"東近江市","city_kana":"ヒガシオウミシ","town":"建部上中町","town_kana":"タテベカミナカチョウ","prefecture_code":25},"0007":{"zip_code":"5270007","prefecture":"滋賀県","prefecture_kana":"シガケン","city":"東近江市","city_kana":"ヒガシオウミシ","town":"建部瓦屋寺町","town_kana":"タテベカワラヤジチョウ","prefecture_code":25},"0003":{"zip_code":"5270003","prefecture":"滋賀県","prefecture_kana":"シガケン","city":"東近江市","city_kana":"ヒガシオウミシ","town":"建部北町","town_kana":"タテベキタチョウ","prefecture_code":25},"0004":{"zip_code":"5270004","prefecture":"滋賀県","prefecture_kana":"シガケン","city":"東近江市","city_kana":"ヒガシオウミシ","town":"建部堺町","town_kana":"タテベサカイチョウ","prefecture_code":25},"0001":{"zip_code":"5270001","prefecture":"滋賀県","prefecture_kana":"シガケン","city":"東近江市","city_kana":"ヒガシオウミシ","town":"建部下野町","town_kana":"タテベシモノチョウ","prefecture_code":25},"0006":{"zip_code":"5270006","prefecture":"滋賀県","prefecture_kana":"シガケン","city":"東近江市","city_kana":"ヒガシオウミシ","town":"建部日吉町","town_kana":"タテベヒヨシチョウ","prefecture_code":25},"0005":{"zip_code":"5270005","prefecture":"滋賀県","prefecture_kana":"シガケン","city":"東近江市","city_kana":"ヒガシオウミシ","town":"建部南町","town_kana":"タテベミナミチョウ","prefecture_code":25},"0052":{"zip_code":"5270052","prefecture":"滋賀県","prefecture_kana":"シガケン","city":"東近江市","city_kana":"ヒガシオウミシ","town":"寺町","town_kana":"テラチョウ","prefecture_code":25},"0061":{"zip_code":"5270061","prefecture":"滋賀県","prefecture_kana":"シガケン","city":"東近江市","city_kana":"ヒガシオウミシ","town":"土器町","town_kana":"ドキチョウ","prefecture_code":25},"0042":{"zip_code":"5270042","prefecture":"滋賀県","prefecture_kana":"シガケン","city":"東近江市","city_kana":"ヒガシオウミシ","town":"外町","town_kana":"トノチョウ","prefecture_code":25},"0133":{"zip_code":"5270133","prefecture":"滋賀県","prefecture_kana":"シガケン","city":"東近江市","city_kana":"ヒガシオウミシ","town":"中一色町","town_kana":"ナカイシキチョウ","prefecture_code":25},"0123":{"zip_code":"5270123","prefecture":"滋賀県","prefecture_kana":"シガケン","city":"東近江市","city_kana":"ヒガシオウミシ","town":"中岸本町","town_kana":"ナカギシモトチョウ","prefecture_code":25},"0105":{"zip_code":"5270105","prefecture":"滋賀県","prefecture_kana":"シガケン","city":"東近江市","city_kana":"ヒガシオウミシ","town":"中里町","town_kana":"ナカザトチョウ","prefecture_code":25},"0161":{"zip_code":"5270161","prefecture":"滋賀県","prefecture_kana":"シガケン","city":"東近江市","city_kana":"ヒガシオウミシ","town":"中戸町","town_kana":"ナカトチョウ","prefecture_code":25},"0015":{"zip_code":"5270015","prefecture":"滋賀県","prefecture_kana":"シガケン","city":"東近江市","city_kana":"ヒガシオウミシ","town":"中野町","town_kana":"ナカノチョウ","prefecture_code":25},"0084":{"zip_code":"5270084","prefecture":"滋賀県","prefecture_kana":"シガケン","city":"東近江市","city_kana":"ヒガシオウミシ","town":"中羽田町","town_kana":"ナカハネダチョウ","prefecture_code":25},"0045":{"zip_code":"5270045","prefecture":"滋賀県","prefecture_kana":"シガケン","city":"東近江市","city_kana":"ヒガシオウミシ","town":"中小路町","town_kana":"ナコオジチョウ","prefecture_code":25},"0172":{"zip_code":"5270172","prefecture":"滋賀県","prefecture_kana":"シガケン","city":"東近江市","city_kana":"ヒガシオウミシ","town":"鯰江町","town_kana":"ナマズエチョウ","prefecture_code":25},"0014":{"zip_code":"5270014","prefecture":"滋賀県","prefecture_kana":"シガケン","city":"東近江市","city_kana":"ヒガシオウミシ","town":"西中野町","town_kana":"ニシナカノチョウ","prefecture_code":25},"0137":{"zip_code":"5270137","prefecture":"滋賀県","prefecture_kana":"シガケン","city":"東近江市","city_kana":"ヒガシオウミシ","town":"西菩提寺町","town_kana":"ニシボダイジチョウ","prefecture_code":25},"0228":{"zip_code":"5270228","prefecture":"滋賀県","prefecture_kana":"シガケン","city":"東近江市","city_kana":"ヒガシオウミシ","town":"如来町","town_kana":"ニョライチョウ","prefecture_code":25},"0093":{"zip_code":"5270093","prefecture":"滋賀県","prefecture_kana":"シガケン","city":"東近江市","city_kana":"ヒガシオウミシ","town":"糠塚町","town_kana":"ヌカヅカチョウ","prefecture_code":25},"0072":{"zip_code":"5270072","prefecture":"滋賀県","prefecture_kana":"シガケン","city":"東近江市","city_kana":"ヒガシオウミシ","town":"布引台","town_kana":"ヌノビキダイ","prefecture_code":25},"0076":{"zip_code":"5270076","prefecture":"滋賀県","prefecture_kana":"シガケン","city":"東近江市","city_kana":"ヒガシオウミシ","town":"野口町","town_kana":"ノグチチョウ","prefecture_code":25},"0047":{"zip_code":"5270047","prefecture":"滋賀県","prefecture_kana":"シガケン","city":"東近江市","city_kana":"ヒガシオウミシ","town":"野村町","town_kana":"ノムラチョウ","prefecture_code":25},"0051":{"zip_code":"5270051","prefecture":"滋賀県","prefecture_kana":"シガケン","city":"東近江市","city_kana":"ヒガシオウミシ","town":"林田町","town_kana":"ハヤシダチョウ","prefecture_code":25},"0037":{"zip_code":"5270037","prefecture":"滋賀県","prefecture_kana":"シガケン","city":"東近江市","city_kana":"ヒガシオウミシ","town":"東今崎町","town_kana":"ヒガシイマサキチョウ","prefecture_code":25},"0033":{"zip_code":"5270033","prefecture":"滋賀県","prefecture_kana":"シガケン","city":"東近江市","city_kana":"ヒガシオウミシ","town":"東沖野","town_kana":"ヒガシオキノ","prefecture_code":25},"0013":{"zip_code":"5270013","prefecture":"滋賀県","prefecture_kana":"シガケン","city":"東近江市","city_kana":"ヒガシオウミシ","town":"東中野町","town_kana":"ヒガシナカノチョウ","prefecture_code":25},"0035":{"zip_code":"5270035","prefecture":"滋賀県","prefecture_kana":"シガケン","city":"東近江市","city_kana":"ヒガシオウミシ","town":"ひばり丘町","town_kana":"ヒバリオカチョウ","prefecture_code":25},"0141":{"zip_code":"5270141","prefecture":"滋賀県","prefecture_kana":"シガケン","city":"東近江市","city_kana":"ヒガシオウミシ","town":"百済寺甲町","town_kana":"ヒャクサイジコウチョウ","prefecture_code":25},"0144":{"zip_code":"5270144","prefecture":"滋賀県","prefecture_kana":"シガケン","city":"東近江市","city_kana":"ヒガシオウミシ","town":"百済寺町","town_kana":"ヒャクサイジチョウ","prefecture_code":25},"0143":{"zip_code":"5270143","prefecture":"滋賀県","prefecture_kana":"シガケン","city":"東近江市","city_kana":"ヒガシオウミシ","town":"百済寺本町","town_kana":"ヒャクサイジホンマチ","prefecture_code":25},"0153":{"zip_code":"5270153","prefecture":"滋賀県","prefecture_kana":"シガケン","city":"東近江市","city_kana":"ヒガシオウミシ","town":"平尾町","town_kana":"ヒラオチョウ","prefecture_code":25},"0087":{"zip_code":"5270087","prefecture":"滋賀県","prefecture_kana":"シガケン","city":"東近江市","city_kana":"ヒガシオウミシ","town":"平田町","town_kana":"ヒラタチョウ","prefecture_code":25},"0134":{"zip_code":"5270134","prefecture":"滋賀県","prefecture_kana":"シガケン","city":"東近江市","city_kana":"ヒガシオウミシ","town":"平松町","town_kana":"ヒラマツチョウ","prefecture_code":25},"0102":{"zip_code":"5270102","prefecture":"滋賀県","prefecture_kana":"シガケン","city":"東近江市","city_kana":"ヒガシオウミシ","town":"平柳町","town_kana":"ヒラヤナギチョウ","prefecture_code":25},"0201":{"zip_code":"5270201","prefecture":"滋賀県","prefecture_kana":"シガケン","city":"東近江市","city_kana":"ヒガシオウミシ","town":"蛭谷町","town_kana":"ヒルタニチョウ","prefecture_code":25},"0081":{"zip_code":"5270081","prefecture":"滋賀県","prefecture_kana":"シガケン","city":"東近江市","city_kana":"ヒガシオウミシ","town":"布施町","town_kana":"フセチョウ","prefecture_code":25},"0024":{"zip_code":"5270024","prefecture":"滋賀県","prefecture_kana":"シガケン","city":"東近江市","city_kana":"ヒガシオウミシ","town":"札の辻","town_kana":"フダノツジ","prefecture_code":25},"0073":{"zip_code":"5270073","prefecture":"滋賀県","prefecture_kana":"シガケン","city":"東近江市","city_kana":"ヒガシオウミシ","town":"蛇溝町","town_kana":"ヘビミゾチョウ","prefecture_code":25},"0204":{"zip_code":"5270204","prefecture":"滋賀県","prefecture_kana":"シガケン","city":"東近江市","city_kana":"ヒガシオウミシ","town":"政所町","town_kana":"マンドコロチョウ","prefecture_code":25},"0056":{"zip_code":"5270056","prefecture":"滋賀県","prefecture_kana":"シガケン","city":"東近江市","city_kana":"ヒガシオウミシ","town":"御園町","town_kana":"ミソノチョウ","prefecture_code":25},"0075":{"zip_code":"5270075","prefecture":"滋賀県","prefecture_kana":"シガケン","city":"東近江市","city_kana":"ヒガシオウミシ","town":"三津屋町","town_kana":"ミツヤチョウ","prefecture_code":25},"0127":{"zip_code":"5270127","prefecture":"滋賀県","prefecture_kana":"シガケン","city":"東近江市","city_kana":"ヒガシオウミシ","town":"南清水町","town_kana":"ミナミシュウズチョウ","prefecture_code":25},"0112":{"zip_code":"5270112","prefecture":"滋賀県","prefecture_kana":"シガケン","city":"東近江市","city_kana":"ヒガシオウミシ","town":"南花沢町","town_kana":"ミナミハナザワチョウ","prefecture_code":25},"0136":{"zip_code":"5270136","prefecture":"滋賀県","prefecture_kana":"シガケン","city":"東近江市","city_kana":"ヒガシオウミシ","town":"南菩提寺町","town_kana":"ミナミボダイジチョウ","prefecture_code":25},"0203":{"zip_code":"5270203","prefecture":"滋賀県","prefecture_kana":"シガケン","city":"東近江市","city_kana":"ヒガシオウミシ","town":"箕川町","town_kana":"ミノガワチョウ","prefecture_code":25},"0046":{"zip_code":"5270046","prefecture":"滋賀県","prefecture_kana":"シガケン","city":"東近江市","city_kana":"ヒガシオウミシ","town":"妙法寺町","town_kana":"ミョウホウジチョウ","prefecture_code":25},"0231":{"zip_code":"5270231","prefecture":"滋賀県","prefecture_kana":"シガケン","city":"東近江市","city_kana":"ヒガシオウミシ","town":"山上町","town_kana":"ヤマカミチョウ","prefecture_code":25},"0206":{"zip_code":"5270206","prefecture":"滋賀県","prefecture_kana":"シガケン","city":"東近江市","city_kana":"ヒガシオウミシ","town":"杠葉尾町","town_kana":"ユズリオチョウ","prefecture_code":25},"0103":{"zip_code":"5270103","prefecture":"滋賀県","prefecture_kana":"シガケン","city":"東近江市","city_kana":"ヒガシオウミシ","town":"湯屋町","town_kana":"ユヤチョウ","prefecture_code":25},"0028":{"zip_code":"5270028","prefecture":"滋賀県","prefecture_kana":"シガケン","city":"東近江市","city_kana":"ヒガシオウミシ","town":"八日市金屋","town_kana":"ヨウカイチカナヤ","prefecture_code":25},"0022":{"zip_code":"5270022","prefecture":"滋賀県","prefecture_kana":"シガケン","city":"東近江市","city_kana":"ヒガシオウミシ","town":"八日市上之町","town_kana":"ヨウカイチカミノチョウ","prefecture_code":25},"0018":{"zip_code":"5270018","prefecture":"滋賀県","prefecture_kana":"シガケン","city":"東近江市","city_kana":"ヒガシオウミシ","town":"八日市清水","town_kana":"ヨウカイチシミズ","prefecture_code":25},"0026":{"zip_code":"5270026","prefecture":"滋賀県","prefecture_kana":"シガケン","city":"東近江市","city_kana":"ヒガシオウミシ","town":"八日市野々宮町","town_kana":"ヨウカイチノノミヤチョウ","prefecture_code":25},"0011":{"zip_code":"5270011","prefecture":"滋賀県","prefecture_kana":"シガケン","city":"東近江市","city_kana":"ヒガシオウミシ","town":"八日市浜野町","town_kana":"ヨウカイチハマノチョウ","prefecture_code":25},"0021":{"zip_code":"5270021","prefecture":"滋賀県","prefecture_kana":"シガケン","city":"東近江市","city_kana":"ヒガシオウミシ","town":"八日市東浜町","town_kana":"ヨウカイチヒガシハマチョウ","prefecture_code":25},"0025":{"zip_code":"5270025","prefecture":"滋賀県","prefecture_kana":"シガケン","city":"東近江市","city_kana":"ヒガシオウミシ","town":"八日市東本町","town_kana":"ヨウカイチヒガシホンマチ","prefecture_code":25},"0012":{"zip_code":"5270012","prefecture":"滋賀県","prefecture_kana":"シガケン","city":"東近江市","city_kana":"ヒガシオウミシ","town":"八日市本町","town_kana":"ヨウカイチホンマチ","prefecture_code":25},"0019":{"zip_code":"5270019","prefecture":"滋賀県","prefecture_kana":"シガケン","city":"東近江市","city_kana":"ヒガシオウミシ","town":"八日市松尾町","town_kana":"ヨウカイチマツオチョウ","prefecture_code":25},"0023":{"zip_code":"5270023","prefecture":"滋賀県","prefecture_kana":"シガケン","city":"東近江市","city_kana":"ヒガシオウミシ","town":"八日市緑町","town_kana":"ヨウカイチミドリマチ","prefecture_code":25},"0029":{"zip_code":"5270029","prefecture":"滋賀県","prefecture_kana":"シガケン","city":"東近江市","city_kana":"ヒガシオウミシ","town":"八日市町","town_kana":"ヨウカイチチョウ","prefecture_code":25},"0135":{"zip_code":"5270135","prefecture":"滋賀県","prefecture_kana":"シガケン","city":"東近江市","city_kana":"ヒガシオウミシ","town":"横溝町","town_kana":"ヨコミゾチョウ","prefecture_code":25},"0104":{"zip_code":"5270104","prefecture":"滋賀県","prefecture_kana":"シガケン","city":"東近江市","city_kana":"ヒガシオウミシ","town":"読合堂町","town_kana":"ヨミアイドウチョウ","prefecture_code":25},"0213":{"zip_code":"5270213","prefecture":"滋賀県","prefecture_kana":"シガケン","city":"東近江市","city_kana":"ヒガシオウミシ","town":"和南町","town_kana":"ワナミチョウ","prefecture_code":25}}