{"0000":{"zip_code":"5280000","prefecture":"滋賀県","prefecture_kana":"シガケン","city":"甲賀市","city_kana":"コウカシ","town":"","town_kana":"","prefecture_code":25},"0204":{"zip_code":"5280204","prefecture":"滋賀県","prefecture_kana":"シガケン","city":"甲賀市","city_kana":"コウカシ","town":"土山町山女原","town_kana":"ツチヤマチョウアケビハラ","prefecture_code":25},"0202":{"zip_code":"5280202","prefecture":"滋賀県","prefecture_kana":"シガケン","city":"甲賀市","city_kana":"コウカシ","town":"土山町鮎河","town_kana":"ツチヤマチョウアユカワ","prefecture_code":25},"0233":{"zip_code":"5280233","prefecture":"滋賀県","prefecture_kana":"シガケン","city":"甲賀市","city_kana":"コウカシ","town":"土山町市場","town_kana":"ツチヤマチョウイチバ","prefecture_code":25},"0207":{"zip_code":"5280207","prefecture":"滋賀県","prefecture_kana":"シガケン","city":"甲賀市","city_kana":"コウカシ","town":"土山町猪鼻","town_kana":"ツチヤマチョウイノハナ","prefecture_code":25},"0201":{"zip_code":"5280201","prefecture":"滋賀県","prefecture_kana":"シガケン","city":"甲賀市","city_kana":"コウカシ","town":"土山町大河原","town_kana":"ツチヤマチョウオオカワラ","prefecture_code":25},"0213":{"zip_code":"5280213","prefecture":"滋賀県","prefecture_kana":"シガケン","city":"甲賀市","city_kana":"コウカシ","town":"土山町大澤","town_kana":"ツチヤマチョウオオザワ","prefecture_code":25},"0221":{"zip_code":"5280221","prefecture":"滋賀県","prefecture_kana":"シガケン","city":"甲賀市","city_kana":"コウカシ","town":"土山町青土","town_kana":"ツチヤマチョウオオヅチ","prefecture_code":25},"0235":{"zip_code":"5280235","prefecture":"滋賀県","prefecture_kana":"シガケン","city":"甲賀市","city_kana":"コウカシ","town":"土山町大野","town_kana":"ツチヤマチョウオオノ","prefecture_code":25},"0211":{"zip_code":"5280211","prefecture":"滋賀県","prefecture_kana":"シガケン","city":"甲賀市","city_kana":"コウカシ","town":"土山町北土山","town_kana":"ツチヤマチョウキタツチヤマ","prefecture_code":25},"0208":{"zip_code":"5280208","prefecture":"滋賀県","prefecture_kana":"シガケン","city":"甲賀市","city_kana":"コウカシ","town":"土山町黒川","town_kana":"ツチヤマチョウクロカワ","prefecture_code":25},"0203":{"zip_code":"5280203","prefecture":"滋賀県","prefecture_kana":"シガケン","city":"甲賀市","city_kana":"コウカシ","town":"土山町黒滝","town_kana":"ツチヤマチョウクロタキ","prefecture_code":25},"0223":{"zip_code":"5280223","prefecture":"滋賀県","prefecture_kana":"シガケン","city":"甲賀市","city_kana":"コウカシ","town":"土山町瀬ノ音","town_kana":"ツチヤマチョウセノオト","prefecture_code":25},"0205":{"zip_code":"5280205","prefecture":"滋賀県","prefecture_kana":"シガケン","city":"甲賀市","city_kana":"コウカシ","town":"土山町笹路","town_kana":"ツチヤマチョウソソロ","prefecture_code":25},"0234":{"zip_code":"5280234","prefecture":"滋賀県","prefecture_kana":"シガケン","city":"甲賀市","city_kana":"コウカシ","town":"土山町徳原","town_kana":"ツチヤマチョウトクハラ","prefecture_code":25},"0231":{"zip_code":"5280231","prefecture":"滋賀県","prefecture_kana":"シガケン","city":"甲賀市","city_kana":"コウカシ","town":"土山町頓宮","town_kana":"ツチヤマチョウトングウ","prefecture_code":25},"0224":{"zip_code":"5280224","prefecture":"滋賀県","prefecture_kana":"シガケン","city":"甲賀市","city_kana":"コウカシ","town":"土山町野上野","town_kana":"ツチヤマチョウノガミノ","prefecture_code":25},"0222":{"zip_code":"5280222","prefecture":"滋賀県","prefecture_kana":"シガケン","city":"甲賀市","city_kana":"コウカシ","town":"土山町平子","town_kana":"ツチヤマチョウヒラコ","prefecture_code":25},"0232":{"zip_code":"5280232","prefecture":"滋賀県","prefecture_kana":"シガケン","city":"甲賀市","city_kana":"コウカシ","town":"土山町前野","town_kana":"ツチヤマチョウマエノ","prefecture_code":25},"0212":{"zip_code":"5280212","prefecture":"滋賀県","prefecture_kana":"シガケン","city":"甲賀市","city_kana":"コウカシ","town":"土山町南土山","town_kana":"ツチヤマチョウミナミツチヤマ","prefecture_code":25},"0206":{"zip_code":"5280206","prefecture":"滋賀県","prefecture_kana":"シガケン","city":"甲賀市","city_kana":"コウカシ","town":"土山町山中","town_kana":"ツチヤマチョウヤマナカ","prefecture_code":25},"0012":{"zip_code":"5280012","prefecture":"滋賀県","prefecture_kana":"シガケン","city":"甲賀市","city_kana":"コウカシ","town":"水口町暁","town_kana":"ミナクチチョウアカツキ","prefecture_code":25},"0071":{"zip_code":"5280071","prefecture":"滋賀県","prefecture_kana":"シガケン","city":"甲賀市","city_kana":"コウカシ","town":"水口町秋葉","town_kana":"ミナクチチョウアキバ","prefecture_code":25},"0072":{"zip_code":"5280072","prefecture":"滋賀県","prefecture_kana":"シガケン","city":"甲賀市","city_kana":"コウカシ","town":"水口町朝日が丘","town_kana":"ミナクチチョウアサヒガオカ","prefecture_code":25},"0033":{"zip_code":"5280033","prefecture":"滋賀県","prefecture_kana":"シガケン","city":"甲賀市","city_kana":"コウカシ","town":"水口町綾野","town_kana":"ミナクチチョウアヤノ","prefecture_code":25},"0056":{"zip_code":"5280056","prefecture":"滋賀県","prefecture_kana":"シガケン","city":"甲賀市","city_kana":"コウカシ","town":"水口町泉","town_kana":"ミナクチチョウイズミ","prefecture_code":25},"0002":{"zip_code":"5280002","prefecture":"滋賀県","prefecture_kana":"シガケン","city":"甲賀市","city_kana":"コウカシ","town":"水口町今郷","town_kana":"ミナクチチョウイマゴウ","prefecture_code":25},"0047":{"zip_code":"5280047","prefecture":"滋賀県","prefecture_kana":"シガケン","city":"甲賀市","city_kana":"コウカシ","town":"水口町岩坂","town_kana":"ミナクチチョウイワサカ","prefecture_code":25},"0055":{"zip_code":"5280055","prefecture":"滋賀県","prefecture_kana":"シガケン","city":"甲賀市","city_kana":"コウカシ","town":"水口町植","town_kana":"ミナクチチョウウエ","prefecture_code":25},"0052":{"zip_code":"5280052","prefecture":"滋賀県","prefecture_kana":"シガケン","city":"甲賀市","city_kana":"コウカシ","town":"水口町宇川","town_kana":"ミナクチチョウウカワ","prefecture_code":25},"0045":{"zip_code":"5280045","prefecture":"滋賀県","prefecture_kana":"シガケン","city":"甲賀市","city_kana":"コウカシ","town":"水口町牛飼","town_kana":"ミナクチチョウウシカイ","prefecture_code":25},"0053":{"zip_code":"5280053","prefecture":"滋賀県","prefecture_kana":"シガケン","city":"甲賀市","city_kana":"コウカシ","town":"水口町宇田","town_kana":"ミナクチチョウウツタ","prefecture_code":25},"0022":{"zip_code":"5280022","prefecture":"滋賀県","prefecture_kana":"シガケン","city":"甲賀市","city_kana":"コウカシ","town":"水口町梅が丘","town_kana":"ミナクチチョウウメガオカ","prefecture_code":25},"0065":{"zip_code":"5280065","prefecture":"滋賀県","prefecture_kana":"シガケン","city":"甲賀市","city_kana":"コウカシ","town":"水口町春日","town_kana":"ミナクチチョウカスガ","prefecture_code":25},"0004":{"zip_code":"5280004","prefecture":"滋賀県","prefecture_kana":"シガケン","city":"甲賀市","city_kana":"コウカシ","town":"水口町嶬峨","town_kana":"ミナクチチョウギカ","prefecture_code":25},"0058":{"zip_code":"5280058","prefecture":"滋賀県","prefecture_kana":"シガケン","city":"甲賀市","city_kana":"コウカシ","town":"水口町北泉","town_kana":"ミナクチチョウキタイズミ","prefecture_code":25},"0051":{"zip_code":"5280051","prefecture":"滋賀県","prefecture_kana":"シガケン","city":"甲賀市","city_kana":"コウカシ","town":"水口町北内貴","town_kana":"ミナクチチョウキタナイキ","prefecture_code":25},"0057":{"zip_code":"5280057","prefecture":"滋賀県","prefecture_kana":"シガケン","city":"甲賀市","city_kana":"コウカシ","town":"水口町北脇","town_kana":"ミナクチチョウキタワキ","prefecture_code":25},"0049":{"zip_code":"5280049","prefecture":"滋賀県","prefecture_kana":"シガケン","city":"甲賀市","city_kana":"コウカシ","town":"水口町貴生川","town_kana":"ミナクチチョウキブカワ","prefecture_code":25},"0017":{"zip_code":"5280017","prefecture":"滋賀県","prefecture_kana":"シガケン","city":"甲賀市","city_kana":"コウカシ","town":"水口町京町","town_kana":"ミナクチチョウキョウマチ","prefecture_code":25},"0073":{"zip_code":"5280073","prefecture":"滋賀県","prefecture_kana":"シガケン","city":"甲賀市","city_kana":"コウカシ","town":"水口町古城が丘","town_kana":"ミナクチチョウコジョウガオカ","prefecture_code":25},"0054":{"zip_code":"5280054","prefecture":"滋賀県","prefecture_kana":"シガケン","city":"甲賀市","city_kana":"コウカシ","town":"水口町酒人","town_kana":"ミナクチチョウサコウド","prefecture_code":25},"0061":{"zip_code":"5280061","prefecture":"滋賀県","prefecture_kana":"シガケン","city":"甲賀市","city_kana":"コウカシ","town":"水口町笹が丘","town_kana":"ミナクチチョウササガオカ","prefecture_code":25},"0062":{"zip_code":"5280062","prefecture":"滋賀県","prefecture_kana":"シガケン","city":"甲賀市","city_kana":"コウカシ","town":"水口町さつきが丘","town_kana":"ミナクチチョウサツキガオカ","prefecture_code":25},"0046":{"zip_code":"5280046","prefecture":"滋賀県","prefecture_kana":"シガケン","city":"甲賀市","city_kana":"コウカシ","town":"水口町三大寺","town_kana":"ミナクチチョウサンダイジ","prefecture_code":25},"0063":{"zip_code":"5280063","prefecture":"滋賀県","prefecture_kana":"シガケン","city":"甲賀市","city_kana":"コウカシ","town":"水口町下山","town_kana":"ミナクチチョウシモヤマ","prefecture_code":25},"0015":{"zip_code":"5280015","prefecture":"滋賀県","prefecture_kana":"シガケン","city":"甲賀市","city_kana":"コウカシ","town":"水口町松栄","town_kana":"ミナクチチョウショウエイ","prefecture_code":25},"0028":{"zip_code":"5280028","prefecture":"滋賀県","prefecture_kana":"シガケン","city":"甲賀市","city_kana":"コウカシ","town":"水口町城東","town_kana":"ミナクチチョウジョウトウ","prefecture_code":25},"0027":{"zip_code":"5280027","prefecture":"滋賀県","prefecture_kana":"シガケン","city":"甲賀市","city_kana":"コウカシ","town":"水口町城内","town_kana":"ミナクチチョウジョウナイ","prefecture_code":25},"0007":{"zip_code":"5280007","prefecture":"滋賀県","prefecture_kana":"シガケン","city":"甲賀市","city_kana":"コウカシ","town":"水口町新城","town_kana":"ミナクチチョウシンジョウ","prefecture_code":25},"0038":{"zip_code":"5280038","prefecture":"滋賀県","prefecture_kana":"シガケン","city":"甲賀市","city_kana":"コウカシ","town":"水口町新町","town_kana":"ミナクチチョウシンマチ","prefecture_code":25},"0016":{"zip_code":"5280016","prefecture":"滋賀県","prefecture_kana":"シガケン","city":"甲賀市","city_kana":"コウカシ","town":"水口町神明","town_kana":"ミナクチチョウシンメイ","prefecture_code":25},"0043":{"zip_code":"5280043","prefecture":"滋賀県","prefecture_kana":"シガケン","city":"甲賀市","city_kana":"コウカシ","town":"水口町杣中","town_kana":"ミナクチチョウソマナカ","prefecture_code":25},"0011":{"zip_code":"5280011","prefecture":"滋賀県","prefecture_kana":"シガケン","city":"甲賀市","city_kana":"コウカシ","town":"水口町高塚","town_kana":"ミナクチチョウタカツカ","prefecture_code":25},"0048":{"zip_code":"5280048","prefecture":"滋賀県","prefecture_kana":"シガケン","city":"甲賀市","city_kana":"コウカシ","town":"水口町高山","town_kana":"ミナクチチョウタカヤマ","prefecture_code":25},"0001":{"zip_code":"5280001","prefecture":"滋賀県","prefecture_kana":"シガケン","city":"甲賀市","city_kana":"コウカシ","town":"水口町中畑","town_kana":"ミナクチチョウナカハタ","prefecture_code":25},"0024":{"zip_code":"5280024","prefecture":"滋賀県","prefecture_kana":"シガケン","city":"甲賀市","city_kana":"コウカシ","town":"水口町中邸","town_kana":"ミナクチチョウナカヤシキ","prefecture_code":25},"0035":{"zip_code":"5280035","prefecture":"滋賀県","prefecture_kana":"シガケン","city":"甲賀市","city_kana":"コウカシ","town":"水口町名坂","town_kana":"ミナクチチョウナサカ","prefecture_code":25},"0025":{"zip_code":"5280025","prefecture":"滋賀県","prefecture_kana":"シガケン","city":"甲賀市","city_kana":"コウカシ","town":"水口町西林口","town_kana":"ミナクチチョウニシハヤシグチ","prefecture_code":25},"0034":{"zip_code":"5280034","prefecture":"滋賀県","prefecture_kana":"シガケン","city":"甲賀市","city_kana":"コウカシ","town":"水口町日電","town_kana":"ミナクチチョウニチデン","prefecture_code":25},"0021":{"zip_code":"5280021","prefecture":"滋賀県","prefecture_kana":"シガケン","city":"甲賀市","city_kana":"コウカシ","town":"水口町八光","town_kana":"ミナクチチョウハッコウ","prefecture_code":25},"0066":{"zip_code":"5280066","prefecture":"滋賀県","prefecture_kana":"シガケン","city":"甲賀市","city_kana":"コウカシ","town":"水口町八田","town_kana":"ミナクチチョウハッタ","prefecture_code":25},"0064":{"zip_code":"5280064","prefecture":"滋賀県","prefecture_kana":"シガケン","city":"甲賀市","city_kana":"コウカシ","town":"水口町伴中山","town_kana":"ミナクチチョウバンナカヤマ","prefecture_code":25},"0036":{"zip_code":"5280036","prefecture":"滋賀県","prefecture_kana":"シガケン","city":"甲賀市","city_kana":"コウカシ","town":"水口町東名坂","town_kana":"ミナクチチョウヒガシナサカ","prefecture_code":25},"0026":{"zip_code":"5280026","prefecture":"滋賀県","prefecture_kana":"シガケン","city":"甲賀市","city_kana":"コウカシ","town":"水口町東林口","town_kana":"ミナクチチョウヒガシハヤシグチ","prefecture_code":25},"0068":{"zip_code":"5280068","prefecture":"滋賀県","prefecture_kana":"シガケン","city":"甲賀市","city_kana":"コウカシ","town":"水口町ひのきが丘","town_kana":"ミナクチチョウヒノキガオカ","prefecture_code":25},"0031":{"zip_code":"5280031","prefecture":"滋賀県","prefecture_kana":"シガケン","city":"甲賀市","city_kana":"コウカシ","town":"水口町本町","town_kana":"ミナクチチョウホンマチ","prefecture_code":25},"0023":{"zip_code":"5280023","prefecture":"滋賀県","prefecture_kana":"シガケン","city":"甲賀市","city_kana":"コウカシ","town":"水口町本丸","town_kana":"ミナクチチョウホンマル","prefecture_code":25},"0074":{"zip_code":"5280074","prefecture":"滋賀県","prefecture_kana":"シガケン","city":"甲賀市","city_kana":"コウカシ","town":"水口町松尾","town_kana":"ミナクチチョウマツオ","prefecture_code":25},"0020":{"zip_code":"5280020","prefecture":"滋賀県","prefecture_kana":"シガケン","city":"甲賀市","city_kana":"コウカシ","town":"水口町的場","town_kana":"ミナクチチョウマトバ","prefecture_code":25},"0005":{"zip_code":"5280005","prefecture":"滋賀県","prefecture_kana":"シガケン","city":"甲賀市","city_kana":"コウカシ","town":"水口町水口","town_kana":"ミナクチチョウミナクチ","prefecture_code":25},"0029":{"zip_code":"5280029","prefecture":"滋賀県","prefecture_kana":"シガケン","city":"甲賀市","city_kana":"コウカシ","town":"水口町南林口","town_kana":"ミナクチチョウミナミハヤシグチ","prefecture_code":25},"0013":{"zip_code":"5280013","prefecture":"滋賀県","prefecture_kana":"シガケン","city":"甲賀市","city_kana":"コウカシ","town":"水口町宮の前","town_kana":"ミナクチチョウミヤノマエ","prefecture_code":25},"0041":{"zip_code":"5280041","prefecture":"滋賀県","prefecture_kana":"シガケン","city":"甲賀市","city_kana":"コウカシ","town":"水口町虫生野","town_kana":"ミナクチチョウムショウノ","prefecture_code":25},"0042":{"zip_code":"5280042","prefecture":"滋賀県","prefecture_kana":"シガケン","city":"甲賀市","city_kana":"コウカシ","town":"水口町虫生野中央","town_kana":"ミナクチチョウムショウノチュウオウ","prefecture_code":25},"0069":{"zip_code":"5280069","prefecture":"滋賀県","prefecture_kana":"シガケン","city":"甲賀市","city_kana":"コウカシ","town":"水口町虫生野虹の町","town_kana":"ミナクチチョウムショウノニジノマチ","prefecture_code":25},"0037":{"zip_code":"5280037","prefecture":"滋賀県","prefecture_kana":"シガケン","city":"甲賀市","city_kana":"コウカシ","town":"水口町本綾野","town_kana":"ミナクチチョウモトアヤノ","prefecture_code":25},"0006":{"zip_code":"5280006","prefecture":"滋賀県","prefecture_kana":"シガケン","city":"甲賀市","city_kana":"コウカシ","town":"水口町元町","town_kana":"ミナクチチョウモトマチ","prefecture_code":25},"0032":{"zip_code":"5280032","prefecture":"滋賀県","prefecture_kana":"シガケン","city":"甲賀市","city_kana":"コウカシ","town":"水口町八坂","town_kana":"ミナクチチョウヤサカ","prefecture_code":25},"0067":{"zip_code":"5280067","prefecture":"滋賀県","prefecture_kana":"シガケン","city":"甲賀市","city_kana":"コウカシ","town":"水口町山","town_kana":"ミナクチチョウヤマ","prefecture_code":25},"0044":{"zip_code":"5280044","prefecture":"滋賀県","prefecture_kana":"シガケン","city":"甲賀市","city_kana":"コウカシ","town":"水口町山上","town_kana":"ミナクチチョウヤマガミ","prefecture_code":25},"0014":{"zip_code":"5280014","prefecture":"滋賀県","prefecture_kana":"シガケン","city":"甲賀市","city_kana":"コウカシ","town":"水口町鹿深","town_kana":"ミナクチチョウロクシン","prefecture_code":25},"0003":{"zip_code":"5280003","prefecture":"滋賀県","prefecture_kana":"シガケン","city":"甲賀市","city_kana":"コウカシ","town":"水口町和野","town_kana":"ミナクチチョウワノ","prefecture_code":25}}