{"1152":{"zip_code":"5291152","prefecture":"滋賀県","prefecture_kana":"シガケン","city":"彦根市","city_kana":"ヒコネシ","town":"安食中町","town_kana":"アンジキナカマチ","prefecture_code":25},"1155":{"zip_code":"5291155","prefecture":"滋賀県","prefecture_kana":"シガケン","city":"彦根市","city_kana":"ヒコネシ","town":"賀田山町","town_kana":"カタヤマチョウ","prefecture_code":25},"1156":{"zip_code":"5291156","prefecture":"滋賀県","prefecture_kana":"シガケン","city":"彦根市","city_kana":"ヒコネシ","town":"清崎町","town_kana":"キヨサキチョウ","prefecture_code":25},"1153":{"zip_code":"5291153","prefecture":"滋賀県","prefecture_kana":"シガケン","city":"彦根市","city_kana":"ヒコネシ","town":"太堂町","town_kana":"タイドウチョウ","prefecture_code":25},"1154":{"zip_code":"5291154","prefecture":"滋賀県","prefecture_kana":"シガケン","city":"彦根市","city_kana":"ヒコネシ","town":"千尋町","town_kana":"チヒロチョウ","prefecture_code":25},"1151":{"zip_code":"5291151","prefecture":"滋賀県","prefecture_kana":"シガケン","city":"彦根市","city_kana":"ヒコネシ","town":"楡町","town_kana":"ニレチョウ","prefecture_code":25},"0113":{"zip_code":"5290113","prefecture":"滋賀県","prefecture_kana":"シガケン","city":"長浜市","city_kana":"ナガハマシ","town":"大井町","town_kana":"オオイチョウ","prefecture_code":25},"0301":{"zip_code":"5290301","prefecture":"滋賀県","prefecture_kana":"シガケン","city":"長浜市","city_kana":"ナガハマシ","town":"小谷上山田町","town_kana":"オダニカミヤマダチョウ","prefecture_code":25},"0312":{"zip_code":"5290312","prefecture":"滋賀県","prefecture_kana":"シガケン","city":"長浜市","city_kana":"ナガハマシ","town":"小谷郡上町","town_kana":"オダニグジョウチョウ","prefecture_code":25},"0311":{"zip_code":"5290311","prefecture":"滋賀県","prefecture_kana":"シガケン","city":"長浜市","city_kana":"ナガハマシ","town":"小谷美濃山町","town_kana":"オダニミノヤマチョウ","prefecture_code":25},"0304":{"zip_code":"5290304","prefecture":"滋賀県","prefecture_kana":"シガケン","city":"長浜市","city_kana":"ナガハマシ","town":"小谷丁野町","town_kana":"オダニヨウノチョウ","prefecture_code":25},"0131":{"zip_code":"5290131","prefecture":"滋賀県","prefecture_kana":"シガケン","city":"長浜市","city_kana":"ナガハマシ","town":"柿ノ木","town_kana":"カキノキ","prefecture_code":25},"0101":{"zip_code":"5290101","prefecture":"滋賀県","prefecture_kana":"シガケン","city":"長浜市","city_kana":"ナガハマシ","town":"唐国町","town_kana":"カラクニチョウ","prefecture_code":25},"0435":{"zip_code":"5290435","prefecture":"滋賀県","prefecture_kana":"シガケン","city":"長浜市","city_kana":"ナガハマシ","town":"木之本町赤尾","town_kana":"キノモトチョウアカオ","prefecture_code":25},"0421":{"zip_code":"5290421","prefecture":"滋賀県","prefecture_kana":"シガケン","city":"長浜市","city_kana":"ナガハマシ","town":"木之本町アットリ","town_kana":"キノモトチョウアットリ","prefecture_code":25},"0412":{"zip_code":"5290412","prefecture":"滋賀県","prefecture_kana":"シガケン","city":"長浜市","city_kana":"ナガハマシ","town":"木之本町石道","town_kana":"キノモトチョウイシミチ","prefecture_code":25},"0431":{"zip_code":"5290431","prefecture":"滋賀県","prefecture_kana":"シガケン","city":"長浜市","city_kana":"ナガハマシ","town":"木之本町大音","town_kana":"キノモトチョウオオト","prefecture_code":25},"0415":{"zip_code":"5290415","prefecture":"滋賀県","prefecture_kana":"シガケン","city":"長浜市","city_kana":"ナガハマシ","town":"木之本町大見","town_kana":"キノモトチョウオオミ","prefecture_code":25},"0403":{"zip_code":"5290403","prefecture":"滋賀県","prefecture_kana":"シガケン","city":"長浜市","city_kana":"ナガハマシ","town":"木之本町音羽","town_kana":"キノモトチョウオトワ","prefecture_code":25},"0401":{"zip_code":"5290401","prefecture":"滋賀県","prefecture_kana":"シガケン","city":"長浜市","city_kana":"ナガハマシ","town":"木之本町金居原","town_kana":"キノモトチョウカネイハラ","prefecture_code":25},"0414":{"zip_code":"5290414","prefecture":"滋賀県","prefecture_kana":"シガケン","city":"長浜市","city_kana":"ナガハマシ","town":"木之本町川合","town_kana":"キノモトチョウカワイ","prefecture_code":25},"0434":{"zip_code":"5290434","prefecture":"滋賀県","prefecture_kana":"シガケン","city":"長浜市","city_kana":"ナガハマシ","town":"木之本町北布施","town_kana":"キノモトチョウキタフセ","prefecture_code":25},"0425":{"zip_code":"5290425","prefecture":"滋賀県","prefecture_kana":"シガケン","city":"長浜市","city_kana":"ナガハマシ","town":"木之本町木之本","town_kana":"キノモトチョウキノモト","prefecture_code":25},"0426":{"zip_code":"5290426","prefecture":"滋賀県","prefecture_kana":"シガケン","city":"長浜市","city_kana":"ナガハマシ","town":"木之本町黒田","town_kana":"キノモトチョウクロダ","prefecture_code":25},"0413":{"zip_code":"5290413","prefecture":"滋賀県","prefecture_kana":"シガケン","city":"長浜市","city_kana":"ナガハマシ","town":"木之本町小山","town_kana":"キノモトチョウコヤマ","prefecture_code":25},"0402":{"zip_code":"5290402","prefecture":"滋賀県","prefecture_kana":"シガケン","city":"長浜市","city_kana":"ナガハマシ","town":"木之本町杉野","town_kana":"キノモトチョウスギノ","prefecture_code":25},"0404":{"zip_code":"5290404","prefecture":"滋賀県","prefecture_kana":"シガケン","city":"長浜市","city_kana":"ナガハマシ","town":"木之本町杉本","town_kana":"キノモトチョウスギモト","prefecture_code":25},"0423":{"zip_code":"5290423","prefecture":"滋賀県","prefecture_kana":"シガケン","city":"長浜市","city_kana":"ナガハマシ","town":"木之本町千田","town_kana":"キノモトチョウセンダ","prefecture_code":25},"0432":{"zip_code":"5290432","prefecture":"滋賀県","prefecture_kana":"シガケン","city":"長浜市","city_kana":"ナガハマシ","town":"木之本町田居","town_kana":"キノモトチョウタイ","prefecture_code":25},"0422":{"zip_code":"5290422","prefecture":"滋賀県","prefecture_kana":"シガケン","city":"長浜市","city_kana":"ナガハマシ","town":"木之本町田部","town_kana":"キノモトチョウタベ","prefecture_code":25},"0433":{"zip_code":"5290433","prefecture":"滋賀県","prefecture_kana":"シガケン","city":"長浜市","city_kana":"ナガハマシ","town":"木之本町西山","town_kana":"キノモトチョウニシヤマ","prefecture_code":25},"0541":[{"zip_code":"5290541","prefecture":"滋賀県","prefecture_kana":"シガケン","city":"長浜市","city_kana":"ナガハマシ","town":"木之本町飯浦","town_kana":"キノモトチョウハンノウラ","prefecture_code":25},{"zip_code":"5290541","prefecture":"滋賀県","prefecture_kana":"シガケン","city":"長浜市","city_kana":"ナガハマシ","town":"木之本町飯浦坂尻","town_kana":"キノモトチョウハンノウラサカジリ","prefecture_code":25}],"0437":{"zip_code":"5290437","prefecture":"滋賀県","prefecture_kana":"シガケン","city":"長浜市","city_kana":"ナガハマシ","town":"木之本町飯浦","town_kana":"キノモトチョウハンノウラ","prefecture_code":25},"0424":{"zip_code":"5290424","prefecture":"滋賀県","prefecture_kana":"シガケン","city":"長浜市","city_kana":"ナガハマシ","town":"木之本町廣瀬","town_kana":"キノモトチョウヒロセ","prefecture_code":25},"0411":{"zip_code":"5290411","prefecture":"滋賀県","prefecture_kana":"シガケン","city":"長浜市","city_kana":"ナガハマシ","town":"木之本町古橋","town_kana":"キノモトチョウフルハシ","prefecture_code":25},"0436":{"zip_code":"5290436","prefecture":"滋賀県","prefecture_kana":"シガケン","city":"長浜市","city_kana":"ナガハマシ","town":"木之本町山梨子","town_kana":"キノモトチョウヤマナシ","prefecture_code":25},"0333":{"zip_code":"5290333","prefecture":"滋賀県","prefecture_kana":"シガケン","city":"長浜市","city_kana":"ナガハマシ","town":"湖北今町","town_kana":"コホクイマチョウ","prefecture_code":25},"0342":{"zip_code":"5290342","prefecture":"滋賀県","prefecture_kana":"シガケン","city":"長浜市","city_kana":"ナガハマシ","town":"湖北高田町","town_kana":"コホクタカタチョウ","prefecture_code":25},"0332":{"zip_code":"5290332","prefecture":"滋賀県","prefecture_kana":"シガケン","city":"長浜市","city_kana":"ナガハマシ","town":"湖北町青名","town_kana":"コホクチョウアオナ","prefecture_code":25},"0361":{"zip_code":"5290361","prefecture":"滋賀県","prefecture_kana":"シガケン","city":"長浜市","city_kana":"ナガハマシ","town":"湖北町石川","town_kana":"コホクチョウイシカワ","prefecture_code":25},"0313":{"zip_code":"5290313","prefecture":"滋賀県","prefecture_kana":"シガケン","city":"長浜市","city_kana":"ナガハマシ","town":"湖北町伊部","town_kana":"コホクチョウイベ","prefecture_code":25},"0365":{"zip_code":"5290365","prefecture":"滋賀県","prefecture_kana":"シガケン","city":"長浜市","city_kana":"ナガハマシ","town":"湖北町今西","town_kana":"コホクチョウイマニシ","prefecture_code":25},"0367":{"zip_code":"5290367","prefecture":"滋賀県","prefecture_kana":"シガケン","city":"長浜市","city_kana":"ナガハマシ","town":"湖北町海老江","town_kana":"コホクチョウエビエ","prefecture_code":25},"0366":{"zip_code":"5290366","prefecture":"滋賀県","prefecture_kana":"シガケン","city":"長浜市","city_kana":"ナガハマシ","town":"湖北町延勝寺","town_kana":"コホクチョウエンショウジ","prefecture_code":25},"0343":{"zip_code":"5290343","prefecture":"滋賀県","prefecture_kana":"シガケン","city":"長浜市","city_kana":"ナガハマシ","town":"湖北町小倉","town_kana":"コホクチョウオグラ","prefecture_code":25},"0364":{"zip_code":"5290364","prefecture":"滋賀県","prefecture_kana":"シガケン","city":"長浜市","city_kana":"ナガハマシ","town":"湖北町尾上","town_kana":"コホクチョウオノエ","prefecture_code":25},"0321":{"zip_code":"5290321","prefecture":"滋賀県","prefecture_kana":"シガケン","city":"長浜市","city_kana":"ナガハマシ","town":"湖北町賀","town_kana":"コホクチョウカ","prefecture_code":25},"0316":{"zip_code":"5290316","prefecture":"滋賀県","prefecture_kana":"シガケン","city":"長浜市","city_kana":"ナガハマシ","town":"湖北町河毛","town_kana":"コホクチョウカワケ","prefecture_code":25},"0322":{"zip_code":"5290322","prefecture":"滋賀県","prefecture_kana":"シガケン","city":"長浜市","city_kana":"ナガハマシ","town":"湖北町小今","town_kana":"コホクチョウコイマ","prefecture_code":25},"0352":{"zip_code":"5290352","prefecture":"滋賀県","prefecture_kana":"シガケン","city":"長浜市","city_kana":"ナガハマシ","town":"湖北町五坪","town_kana":"コホクチョウゴノツボ","prefecture_code":25},"0334":{"zip_code":"5290334","prefecture":"滋賀県","prefecture_kana":"シガケン","city":"長浜市","city_kana":"ナガハマシ","town":"湖北町沢","town_kana":"コホクチョウサワ","prefecture_code":25},"0345":{"zip_code":"5290345","prefecture":"滋賀県","prefecture_kana":"シガケン","city":"長浜市","city_kana":"ナガハマシ","town":"湖北町大安寺","town_kana":"コホクチョウダイアンジ","prefecture_code":25},"0353":{"zip_code":"5290353","prefecture":"滋賀県","prefecture_kana":"シガケン","city":"長浜市","city_kana":"ナガハマシ","town":"湖北町田中","town_kana":"コホクチョウタナカ","prefecture_code":25},"0362":{"zip_code":"5290362","prefecture":"滋賀県","prefecture_kana":"シガケン","city":"長浜市","city_kana":"ナガハマシ","town":"湖北町津里","town_kana":"コホクチョウツノサト","prefecture_code":25},"0314":{"zip_code":"5290314","prefecture":"滋賀県","prefecture_kana":"シガケン","city":"長浜市","city_kana":"ナガハマシ","town":"湖北町留目","town_kana":"コホクチョウトドメ","prefecture_code":25},"0335":{"zip_code":"5290335","prefecture":"滋賀県","prefecture_kana":"シガケン","city":"長浜市","city_kana":"ナガハマシ","town":"湖北町猫口","town_kana":"コホクチョウネコグチ","prefecture_code":25},"0341":{"zip_code":"5290341","prefecture":"滋賀県","prefecture_kana":"シガケン","city":"長浜市","city_kana":"ナガハマシ","town":"湖北町速水","town_kana":"コホクチョウハヤミ","prefecture_code":25},"0303":{"zip_code":"5290303","prefecture":"滋賀県","prefecture_kana":"シガケン","city":"長浜市","city_kana":"ナガハマシ","town":"湖北町二俣","town_kana":"コホクチョウフタマタ","prefecture_code":25},"0315":{"zip_code":"5290315","prefecture":"滋賀県","prefecture_kana":"シガケン","city":"長浜市","city_kana":"ナガハマシ","town":"湖北町別所","town_kana":"コホクチョウベッシヨ","prefecture_code":25},"0346":{"zip_code":"5290346","prefecture":"滋賀県","prefecture_kana":"シガケン","city":"長浜市","city_kana":"ナガハマシ","town":"湖北町南速水","town_kana":"コホクチョウミナミハヤミ","prefecture_code":25},"0344":{"zip_code":"5290344","prefecture":"滋賀県","prefecture_kana":"シガケン","city":"長浜市","city_kana":"ナガハマシ","town":"湖北町馬渡","town_kana":"コホクチョウモウタリ","prefecture_code":25},"0354":{"zip_code":"5290354","prefecture":"滋賀県","prefecture_kana":"シガケン","city":"長浜市","city_kana":"ナガハマシ","town":"湖北町山本","town_kana":"コホクチョウヤマモト","prefecture_code":25},"0317":{"zip_code":"5290317","prefecture":"滋賀県","prefecture_kana":"シガケン","city":"長浜市","city_kana":"ナガハマシ","town":"湖北町山脇","town_kana":"コホクチョウヤマワキ","prefecture_code":25},"0331":{"zip_code":"5290331","prefecture":"滋賀県","prefecture_kana":"シガケン","city":"長浜市","city_kana":"ナガハマシ","town":"湖北町八日市","town_kana":"コホクチョウヨウカイチ","prefecture_code":25},"0363":{"zip_code":"5290363","prefecture":"滋賀県","prefecture_kana":"シガケン","city":"長浜市","city_kana":"ナガハマシ","town":"湖北東尾上町","town_kana":"コホクヒガシオノエチョウ","prefecture_code":25},"0141":{"zip_code":"5290141","prefecture":"滋賀県","prefecture_kana":"シガケン","city":"長浜市","city_kana":"ナガハマシ","town":"五村","town_kana":"ゴムラ","prefecture_code":25},"0121":{"zip_code":"5290121","prefecture":"滋賀県","prefecture_kana":"シガケン","city":"長浜市","city_kana":"ナガハマシ","town":"桜町","town_kana":"サクラチョウ","prefecture_code":25},"0302":{"zip_code":"5290302","prefecture":"滋賀県","prefecture_kana":"シガケン","city":"長浜市","city_kana":"ナガハマシ","town":"下山田","town_kana":"シモヤマダ","prefecture_code":25},"0133":{"zip_code":"5290133","prefecture":"滋賀県","prefecture_kana":"シガケン","city":"長浜市","city_kana":"ナガハマシ","town":"新旭町","town_kana":"シンアサヒマチ","prefecture_code":25},"0122":{"zip_code":"5290122","prefecture":"滋賀県","prefecture_kana":"シガケン","city":"長浜市","city_kana":"ナガハマシ","town":"酢","town_kana":"ス","prefecture_code":25},"0351":{"zip_code":"5290351","prefecture":"滋賀県","prefecture_kana":"シガケン","city":"長浜市","city_kana":"ナガハマシ","town":"大光寺町","town_kana":"ダイコウジチョウ","prefecture_code":25},"0144":{"zip_code":"5290144","prefecture":"滋賀県","prefecture_kana":"シガケン","city":"長浜市","city_kana":"ナガハマシ","town":"大寺町","town_kana":"ダイジチョウ","prefecture_code":25},"0222":{"zip_code":"5290222","prefecture":"滋賀県","prefecture_kana":"シガケン","city":"長浜市","city_kana":"ナガハマシ","town":"高月町雨森","town_kana":"タカツキチョウアメノモリ","prefecture_code":25},"0203":{"zip_code":"5290203","prefecture":"滋賀県","prefecture_kana":"シガケン","city":"長浜市","city_kana":"ナガハマシ","town":"高月町磯野","town_kana":"タカツキチョウイソノ","prefecture_code":25},"0212":{"zip_code":"5290212","prefecture":"滋賀県","prefecture_kana":"シガケン","city":"長浜市","city_kana":"ナガハマシ","town":"高月町井口","town_kana":"タカツキチョウイノクチ","prefecture_code":25},"0251":{"zip_code":"5290251","prefecture":"滋賀県","prefecture_kana":"シガケン","city":"長浜市","city_kana":"ナガハマシ","town":"高月町宇根","town_kana":"タカツキチョウウネ","prefecture_code":25},"0232":{"zip_code":"5290232","prefecture":"滋賀県","prefecture_kana":"シガケン","city":"長浜市","city_kana":"ナガハマシ","town":"高月町落川","town_kana":"タカツキチョウオチカワ","prefecture_code":25},"0215":{"zip_code":"5290215","prefecture":"滋賀県","prefecture_kana":"シガケン","city":"長浜市","city_kana":"ナガハマシ","town":"高月町尾山","town_kana":"タカツキチョウオヤマ","prefecture_code":25},"0234":{"zip_code":"5290234","prefecture":"滋賀県","prefecture_kana":"シガケン","city":"長浜市","city_kana":"ナガハマシ","town":"高月町柏原","town_kana":"タカツキチョウカシハラ","prefecture_code":25},"0272":{"zip_code":"5290272","prefecture":"滋賀県","prefecture_kana":"シガケン","city":"長浜市","city_kana":"ナガハマシ","town":"高月町片山","town_kana":"タカツキチョウカタヤマ","prefecture_code":25},"0205":{"zip_code":"5290205","prefecture":"滋賀県","prefecture_kana":"シガケン","city":"長浜市","city_kana":"ナガハマシ","town":"高月町唐川","town_kana":"タカツキチョウカラカワ","prefecture_code":25},"0271":{"zip_code":"5290271","prefecture":"滋賀県","prefecture_kana":"シガケン","city":"長浜市","city_kana":"ナガハマシ","town":"高月町熊野","town_kana":"タカツキチョウクマノ","prefecture_code":25},"0275":{"zip_code":"5290275","prefecture":"滋賀県","prefecture_kana":"シガケン","city":"長浜市","city_kana":"ナガハマシ","town":"高月町重則","town_kana":"タカツキチョウシゲノリ","prefecture_code":25},"0241":{"zip_code":"5290241","prefecture":"滋賀県","prefecture_kana":"シガケン","city":"長浜市","city_kana":"ナガハマシ","town":"高月町高月","town_kana":"タカツキチョウタカツキ","prefecture_code":25},"0221":{"zip_code":"5290221","prefecture":"滋賀県","prefecture_kana":"シガケン","city":"長浜市","city_kana":"ナガハマシ","town":"高月町高野","town_kana":"タカツキチョウタカノ","prefecture_code":25},"0233":{"zip_code":"5290233","prefecture":"滋賀県","prefecture_kana":"シガケン","city":"長浜市","city_kana":"ナガハマシ","town":"高月町渡岸寺","town_kana":"タカツキチョウドウガンジ","prefecture_code":25},"0253":{"zip_code":"5290253","prefecture":"滋賀県","prefecture_kana":"シガケン","city":"長浜市","city_kana":"ナガハマシ","town":"高月町西阿閉","town_kana":"タカツキチョウニシアツジ","prefecture_code":25},"0273":{"zip_code":"5290273","prefecture":"滋賀県","prefecture_kana":"シガケン","city":"長浜市","city_kana":"ナガハマシ","town":"高月町西野","town_kana":"タカツキチョウニシノ","prefecture_code":25},"0262":{"zip_code":"5290262","prefecture":"滋賀県","prefecture_kana":"シガケン","city":"長浜市","city_kana":"ナガハマシ","town":"高月町西物部","town_kana":"タカツキチョウニシモノベ","prefecture_code":25},"0265":{"zip_code":"5290265","prefecture":"滋賀県","prefecture_kana":"シガケン","city":"長浜市","city_kana":"ナガハマシ","town":"高月町西柳野","town_kana":"タカツキチョウニシヤナギノ","prefecture_code":25},"0252":{"zip_code":"5290252","prefecture":"滋賀県","prefecture_kana":"シガケン","city":"長浜市","city_kana":"ナガハマシ","town":"高月町東阿閉","town_kana":"タカツキチョウヒガシアツジ","prefecture_code":25},"0202":{"zip_code":"5290202","prefecture":"滋賀県","prefecture_kana":"シガケン","city":"長浜市","city_kana":"ナガハマシ","town":"高月町東高田","town_kana":"タカツキチョウヒガシタカタ","prefecture_code":25},"0261":{"zip_code":"5290261","prefecture":"滋賀県","prefecture_kana":"シガケン","city":"長浜市","city_kana":"ナガハマシ","town":"高月町東物部","town_kana":"タカツキチョウヒガシモノベ","prefecture_code":25},"0263":{"zip_code":"5290263","prefecture":"滋賀県","prefecture_kana":"シガケン","city":"長浜市","city_kana":"ナガハマシ","town":"高月町東柳野","town_kana":"タカツキチョウヒガシヤナギノ","prefecture_code":25},"0204":{"zip_code":"5290204","prefecture":"滋賀県","prefecture_kana":"シガケン","city":"長浜市","city_kana":"ナガハマシ","town":"高月町布施","town_kana":"タカツキチョウフセ","prefecture_code":25},"0211":{"zip_code":"5290211","prefecture":"滋賀県","prefecture_kana":"シガケン","city":"長浜市","city_kana":"ナガハマシ","town":"高月町保延寺","town_kana":"タカツキチョウホウエンジ","prefecture_code":25},"0214":{"zip_code":"5290214","prefecture":"滋賀県","prefecture_kana":"シガケン","city":"長浜市","city_kana":"ナガハマシ","town":"高月町洞戸","town_kana":"タカツキチョウホラド","prefecture_code":25},"0223":{"zip_code":"5290223","prefecture":"滋賀県","prefecture_kana":"シガケン","city":"長浜市","city_kana":"ナガハマシ","town":"高月町馬上","town_kana":"タカツキチョウマケ","prefecture_code":25},"0274":{"zip_code":"5290274","prefecture":"滋賀県","prefecture_kana":"シガケン","city":"長浜市","city_kana":"ナガハマシ","town":"高月町松尾","town_kana":"タカツキチョウマツオ","prefecture_code":25},"0213":{"zip_code":"5290213","prefecture":"滋賀県","prefecture_kana":"シガケン","city":"長浜市","city_kana":"ナガハマシ","town":"高月町持寺","town_kana":"タカツキチョウモチデラ","prefecture_code":25},"0231":{"zip_code":"5290231","prefecture":"滋賀県","prefecture_kana":"シガケン","city":"長浜市","city_kana":"ナガハマシ","town":"高月町森本","town_kana":"タカツキチョウモリモト","prefecture_code":25},"0264":{"zip_code":"5290264","prefecture":"滋賀県","prefecture_kana":"シガケン","city":"長浜市","city_kana":"ナガハマシ","town":"高月町柳野中","town_kana":"タカツキチョウヤナギノナカ","prefecture_code":25},"0201":{"zip_code":"5290201","prefecture":"滋賀県","prefecture_kana":"シガケン","city":"長浜市","city_kana":"ナガハマシ","town":"高月町横山","town_kana":"タカツキチョウヨコヤマ","prefecture_code":25},"0142":{"zip_code":"5290142","prefecture":"滋賀県","prefecture_kana":"シガケン","city":"長浜市","city_kana":"ナガハマシ","town":"田町","town_kana":"タチョウ","prefecture_code":25},"0102":{"zip_code":"5290102","prefecture":"滋賀県","prefecture_kana":"シガケン","city":"長浜市","city_kana":"ナガハマシ","town":"月ヶ瀬町","town_kana":"ツキガセチョウ","prefecture_code":25},"0132":{"zip_code":"5290132","prefecture":"滋賀県","prefecture_kana":"シガケン","city":"長浜市","city_kana":"ナガハマシ","town":"長田町","town_kana":"ナガタチョウ","prefecture_code":25},"0103":{"zip_code":"5290103","prefecture":"滋賀県","prefecture_kana":"シガケン","city":"長浜市","city_kana":"ナガハマシ","town":"中野町","town_kana":"ナカノチョウ","prefecture_code":25},"0721":{"zip_code":"5290721","prefecture":"滋賀県","prefecture_kana":"シガケン","city":"長浜市","city_kana":"ナガハマシ","town":"西浅井町大浦","town_kana":"ニシアザイチョウオオウラ","prefecture_code":25},"0714":{"zip_code":"5290714","prefecture":"滋賀県","prefecture_kana":"シガケン","city":"長浜市","city_kana":"ナガハマシ","town":"西浅井町小山","town_kana":"ニシアザイチョウオヤマ","prefecture_code":25},"0708":{"zip_code":"5290708","prefecture":"滋賀県","prefecture_kana":"シガケン","city":"長浜市","city_kana":"ナガハマシ","town":"西浅井町沓掛","town_kana":"ニシアザイチョウクツカケ","prefecture_code":25},"0725":{"zip_code":"5290725","prefecture":"滋賀県","prefecture_kana":"シガケン","city":"長浜市","city_kana":"ナガハマシ","town":"西浅井町黒山","town_kana":"ニシアザイチョウクロヤマ","prefecture_code":25},"0704":{"zip_code":"5290704","prefecture":"滋賀県","prefecture_kana":"シガケン","city":"長浜市","city_kana":"ナガハマシ","town":"西浅井町塩津中","town_kana":"ニシアザイチョウシオツナカ","prefecture_code":25},"0701":{"zip_code":"5290701","prefecture":"滋賀県","prefecture_kana":"シガケン","city":"長浜市","city_kana":"ナガハマシ","town":"西浅井町塩津浜","town_kana":"ニシアザイチョウシオツハマ","prefecture_code":25},"0707":{"zip_code":"5290707","prefecture":"滋賀県","prefecture_kana":"シガケン","city":"長浜市","city_kana":"ナガハマシ","town":"西浅井町集福寺","town_kana":"ニシアザイチョウシュウフクジ","prefecture_code":25},"0722":{"zip_code":"5290722","prefecture":"滋賀県","prefecture_kana":"シガケン","city":"長浜市","city_kana":"ナガハマシ","town":"西浅井町庄","town_kana":"ニシアザイチョウショウ","prefecture_code":25},"0726":{"zip_code":"5290726","prefecture":"滋賀県","prefecture_kana":"シガケン","city":"長浜市","city_kana":"ナガハマシ","town":"西浅井町菅浦","town_kana":"ニシアザイチョウスガウラ","prefecture_code":25},"0712":{"zip_code":"5290712","prefecture":"滋賀県","prefecture_kana":"シガケン","city":"長浜市","city_kana":"ナガハマシ","town":"西浅井町月出","town_kana":"ニシアザイチョウツキデ","prefecture_code":25},"0723":{"zip_code":"5290723","prefecture":"滋賀県","prefecture_kana":"シガケン","city":"長浜市","city_kana":"ナガハマシ","town":"西浅井町中","town_kana":"ニシアザイチョウナカ","prefecture_code":25},"0703":{"zip_code":"5290703","prefecture":"滋賀県","prefecture_kana":"シガケン","city":"長浜市","city_kana":"ナガハマシ","town":"西浅井町野坂","town_kana":"ニシアザイチョウノザカ","prefecture_code":25},"0713":{"zip_code":"5290713","prefecture":"滋賀県","prefecture_kana":"シガケン","city":"長浜市","city_kana":"ナガハマシ","town":"西浅井町八田部","town_kana":"ニシアザイチョウハタベ","prefecture_code":25},"0702":{"zip_code":"5290702","prefecture":"滋賀県","prefecture_kana":"シガケン","city":"長浜市","city_kana":"ナガハマシ","town":"西浅井町祝山","town_kana":"ニシアザイチョウホリヤマ","prefecture_code":25},"0711":{"zip_code":"5290711","prefecture":"滋賀県","prefecture_kana":"シガケン","city":"長浜市","city_kana":"ナガハマシ","town":"西浅井町岩熊","town_kana":"ニシアザイチョウヤノクマ","prefecture_code":25},"0724":{"zip_code":"5290724","prefecture":"滋賀県","prefecture_kana":"シガケン","city":"長浜市","city_kana":"ナガハマシ","town":"西浅井町山門","town_kana":"ニシアザイチョウヤマカド","prefecture_code":25},"0715":{"zip_code":"5290715","prefecture":"滋賀県","prefecture_kana":"シガケン","city":"長浜市","city_kana":"ナガハマシ","town":"西浅井町山田","town_kana":"ニシアザイチョウヤマダ","prefecture_code":25},"0706":{"zip_code":"5290706","prefecture":"滋賀県","prefecture_kana":"シガケン","city":"長浜市","city_kana":"ナガハマシ","town":"西浅井町余","town_kana":"ニシアザイチョウヨ","prefecture_code":25},"0705":{"zip_code":"5290705","prefecture":"滋賀県","prefecture_kana":"シガケン","city":"長浜市","city_kana":"ナガハマシ","town":"西浅井町横波","town_kana":"ニシアザイチョウヨコナミ","prefecture_code":25},"0123":{"zip_code":"5290123","prefecture":"滋賀県","prefecture_kana":"シガケン","city":"長浜市","city_kana":"ナガハマシ","town":"西大井町","town_kana":"ニシオオイチョウ","prefecture_code":25},"0143":{"zip_code":"5290143","prefecture":"滋賀県","prefecture_kana":"シガケン","city":"長浜市","city_kana":"ナガハマシ","town":"本町","town_kana":"ホンチョウ","prefecture_code":25},"0111":{"zip_code":"5290111","prefecture":"滋賀県","prefecture_kana":"シガケン","city":"長浜市","city_kana":"ナガハマシ","town":"三川町","town_kana":"ミカワチョウ","prefecture_code":25},"0112":{"zip_code":"5290112","prefecture":"滋賀県","prefecture_kana":"シガケン","city":"長浜市","city_kana":"ナガハマシ","town":"宮部町","town_kana":"ミヤベチョウ","prefecture_code":25},"0536":{"zip_code":"5290536","prefecture":"滋賀県","prefecture_kana":"シガケン","city":"長浜市","city_kana":"ナガハマシ","town":"余呉町池原","town_kana":"ヨゴチョウイケハラ","prefecture_code":25},"0535":{"zip_code":"5290535","prefecture":"滋賀県","prefecture_kana":"シガケン","city":"長浜市","city_kana":"ナガハマシ","town":"余呉町今市","town_kana":"ヨゴチョウイマイチ","prefecture_code":25},"0534":{"zip_code":"5290534","prefecture":"滋賀県","prefecture_kana":"シガケン","city":"長浜市","city_kana":"ナガハマシ","town":"余呉町小谷","town_kana":"ヨゴチョウオオタニ","prefecture_code":25},"0503":{"zip_code":"5290503","prefecture":"滋賀県","prefecture_kana":"シガケン","city":"長浜市","city_kana":"ナガハマシ","town":"余呉町奥川並","town_kana":"ヨゴチョウオクカワナミ","prefecture_code":25},"0502":{"zip_code":"5290502","prefecture":"滋賀県","prefecture_kana":"シガケン","city":"長浜市","city_kana":"ナガハマシ","town":"余呉町尾羽梨","town_kana":"ヨゴチョウオバナシ","prefecture_code":25},"0505":{"zip_code":"5290505","prefecture":"滋賀県","prefecture_kana":"シガケン","city":"長浜市","city_kana":"ナガハマシ","town":"余呉町小原","town_kana":"ヨゴチョウオハラ","prefecture_code":25},"0512":{"zip_code":"5290512","prefecture":"滋賀県","prefecture_kana":"シガケン","city":"長浜市","city_kana":"ナガハマシ","town":"余呉町上丹生","town_kana":"ヨゴチョウカミニュウ","prefecture_code":25},"0523":{"zip_code":"5290523","prefecture":"滋賀県","prefecture_kana":"シガケン","city":"長浜市","city_kana":"ナガハマシ","town":"余呉町川並","town_kana":"ヨゴチョウカワナミ","prefecture_code":25},"0526":{"zip_code":"5290526","prefecture":"滋賀県","prefecture_kana":"シガケン","city":"長浜市","city_kana":"ナガハマシ","town":"余呉町国安","town_kana":"ヨゴチョウクニヤス","prefecture_code":25},"0522":{"zip_code":"5290522","prefecture":"滋賀県","prefecture_kana":"シガケン","city":"長浜市","city_kana":"ナガハマシ","town":"余呉町坂口","town_kana":"ヨゴチョウサカグチ","prefecture_code":25},"0514":{"zip_code":"5290514","prefecture":"滋賀県","prefecture_kana":"シガケン","city":"長浜市","city_kana":"ナガハマシ","town":"余呉町下丹生","town_kana":"ヨゴチョウシモニュウ","prefecture_code":25},"0521":{"zip_code":"5290521","prefecture":"滋賀県","prefecture_kana":"シガケン","city":"長浜市","city_kana":"ナガハマシ","town":"余呉町下余呉","town_kana":"ヨゴチョウシモヨゴ","prefecture_code":25},"0537":{"zip_code":"5290537","prefecture":"滋賀県","prefecture_kana":"シガケン","city":"長浜市","city_kana":"ナガハマシ","town":"余呉町新堂","town_kana":"ヨゴチョウシンドウ","prefecture_code":25},"0511":{"zip_code":"5290511","prefecture":"滋賀県","prefecture_kana":"シガケン","city":"長浜市","city_kana":"ナガハマシ","town":"余呉町菅並","town_kana":"ヨゴチョウスガナミ","prefecture_code":25},"0513":{"zip_code":"5290513","prefecture":"滋賀県","prefecture_kana":"シガケン","city":"長浜市","city_kana":"ナガハマシ","town":"余呉町摺墨","town_kana":"ヨゴチョウスルスミ","prefecture_code":25},"0504":{"zip_code":"5290504","prefecture":"滋賀県","prefecture_kana":"シガケン","city":"長浜市","city_kana":"ナガハマシ","town":"余呉町田戸","town_kana":"ヨゴチョウタド","prefecture_code":25},"0532":{"zip_code":"5290532","prefecture":"滋賀県","prefecture_kana":"シガケン","city":"長浜市","city_kana":"ナガハマシ","town":"余呉町椿坂","town_kana":"ヨゴチョウツバキザカ","prefecture_code":25},"0531":{"zip_code":"5290531","prefecture":"滋賀県","prefecture_kana":"シガケン","city":"長浜市","city_kana":"ナガハマシ","town":"余呉町中河内","town_kana":"ヨゴチョウナカノカワチ","prefecture_code":25},"0515":{"zip_code":"5290515","prefecture":"滋賀県","prefecture_kana":"シガケン","city":"長浜市","city_kana":"ナガハマシ","town":"余呉町中之郷","town_kana":"ヨゴチョウナカノゴウ","prefecture_code":25},"0501":{"zip_code":"5290501","prefecture":"滋賀県","prefecture_kana":"シガケン","city":"長浜市","city_kana":"ナガハマシ","town":"余呉町針川","town_kana":"ヨゴチョウハリカワ","prefecture_code":25},"0527":{"zip_code":"5290527","prefecture":"滋賀県","prefecture_kana":"シガケン","city":"長浜市","city_kana":"ナガハマシ","town":"余呉町東野","town_kana":"ヨゴチョウヒガシノ","prefecture_code":25},"0525":{"zip_code":"5290525","prefecture":"滋賀県","prefecture_kana":"シガケン","city":"長浜市","city_kana":"ナガハマシ","town":"余呉町文室","town_kana":"ヨゴチョウフムロ","prefecture_code":25},"0524":{"zip_code":"5290524","prefecture":"滋賀県","prefecture_kana":"シガケン","city":"長浜市","city_kana":"ナガハマシ","town":"余呉町八戸","town_kana":"ヨゴチョウヤト","prefecture_code":25},"0533":{"zip_code":"5290533","prefecture":"滋賀県","prefecture_kana":"シガケン","city":"長浜市","city_kana":"ナガハマシ","town":"余呉町柳ケ瀬","town_kana":"ヨゴチョウヤナガセ","prefecture_code":25},"0506":{"zip_code":"5290506","prefecture":"滋賀県","prefecture_kana":"シガケン","city":"長浜市","city_kana":"ナガハマシ","town":"余呉町鷲見","town_kana":"ヨゴチョウワシミ","prefecture_code":25},"1811":{"zip_code":"5291811","prefecture":"滋賀県","prefecture_kana":"シガケン","city":"甲賀市","city_kana":"コウカシ","town":"信楽町江田","town_kana":"シガラキチョウエダ","prefecture_code":25},"1833":{"zip_code":"5291833","prefecture":"滋賀県","prefecture_kana":"シガケン","city":"甲賀市","city_kana":"コウカシ","town":"信楽町小川","town_kana":"シガラキチョウオガワ","prefecture_code":25},"1832":{"zip_code":"5291832","prefecture":"滋賀県","prefecture_kana":"シガケン","city":"甲賀市","city_kana":"コウカシ","town":"信楽町小川出","town_kana":"シガラキチョウオガワデ","prefecture_code":25},"1841":{"zip_code":"5291841","prefecture":"滋賀県","prefecture_kana":"シガケン","city":"甲賀市","city_kana":"コウカシ","town":"信楽町上朝宮","town_kana":"シガラキチョウカミアサミヤ","prefecture_code":25},"1802":{"zip_code":"5291802","prefecture":"滋賀県","prefecture_kana":"シガケン","city":"甲賀市","city_kana":"コウカシ","town":"信楽町黄瀬","town_kana":"シガラキチョウキノセ","prefecture_code":25},"1812":{"zip_code":"5291812","prefecture":"滋賀県","prefecture_kana":"シガケン","city":"甲賀市","city_kana":"コウカシ","town":"信楽町神山","town_kana":"シガラキチョウコウヤマ","prefecture_code":25},"1842":{"zip_code":"5291842","prefecture":"滋賀県","prefecture_kana":"シガケン","city":"甲賀市","city_kana":"コウカシ","town":"信楽町下朝宮","town_kana":"シガラキチョウシモアサミヤ","prefecture_code":25},"1834":{"zip_code":"5291834","prefecture":"滋賀県","prefecture_kana":"シガケン","city":"甲賀市","city_kana":"コウカシ","town":"信楽町杉山","town_kana":"シガラキチョウスギヤマ","prefecture_code":25},"1814":{"zip_code":"5291814","prefecture":"滋賀県","prefecture_kana":"シガケン","city":"甲賀市","city_kana":"コウカシ","town":"信楽町田代","town_kana":"シガラキチョウタシロ","prefecture_code":25},"1821":{"zip_code":"5291821","prefecture":"滋賀県","prefecture_kana":"シガケン","city":"甲賀市","city_kana":"コウカシ","town":"信楽町多羅尾","town_kana":"シガラキチョウタラオ","prefecture_code":25},"1804":{"zip_code":"5291804","prefecture":"滋賀県","prefecture_kana":"シガケン","city":"甲賀市","city_kana":"コウカシ","town":"信楽町勅旨","town_kana":"シガラキチョウチョクシ","prefecture_code":25},"1835":{"zip_code":"5291835","prefecture":"滋賀県","prefecture_kana":"シガケン","city":"甲賀市","city_kana":"コウカシ","town":"信楽町中野","town_kana":"シガラキチョウナカノ","prefecture_code":25},"1851":{"zip_code":"5291851","prefecture":"滋賀県","prefecture_kana":"シガケン","city":"甲賀市","city_kana":"コウカシ","town":"信楽町長野","town_kana":"シガラキチョウナガノ","prefecture_code":25},"1831":{"zip_code":"5291831","prefecture":"滋賀県","prefecture_kana":"シガケン","city":"甲賀市","city_kana":"コウカシ","town":"信楽町西","town_kana":"シガラキチョウニシ","prefecture_code":25},"1813":{"zip_code":"5291813","prefecture":"滋賀県","prefecture_kana":"シガケン","city":"甲賀市","city_kana":"コウカシ","town":"信楽町畑","town_kana":"シガラキチョウハタ","prefecture_code":25},"1836":{"zip_code":"5291836","prefecture":"滋賀県","prefecture_kana":"シガケン","city":"甲賀市","city_kana":"コウカシ","town":"信楽町柞原","town_kana":"シガラキチョウホソハラ","prefecture_code":25},"1803":{"zip_code":"5291803","prefecture":"滋賀県","prefecture_kana":"シガケン","city":"甲賀市","city_kana":"コウカシ","town":"信楽町牧","town_kana":"シガラキチョウマキ","prefecture_code":25},"1843":{"zip_code":"5291843","prefecture":"滋賀県","prefecture_kana":"シガケン","city":"甲賀市","city_kana":"コウカシ","town":"信楽町宮尻","town_kana":"シガラキチョウミヤジリ","prefecture_code":25},"1801":{"zip_code":"5291801","prefecture":"滋賀県","prefecture_kana":"シガケン","city":"甲賀市","city_kana":"コウカシ","town":"信楽町宮町","town_kana":"シガラキチョウミヤマチ","prefecture_code":25},"1501":{"zip_code":"5291501","prefecture":"滋賀県","prefecture_kana":"シガケン","city":"東近江市","city_kana":"ヒガシオウミシ","town":"石塔町","town_kana":"イシドウチョウ","prefecture_code":25},"1533":{"zip_code":"5291533","prefecture":"滋賀県","prefecture_kana":"シガケン","city":"東近江市","city_kana":"ヒガシオウミシ","town":"市子沖町","town_kana":"イチコオキチョウ","prefecture_code":25},"1531":{"zip_code":"5291531","prefecture":"滋賀県","prefecture_kana":"シガケン","city":"東近江市","city_kana":"ヒガシオウミシ","town":"市子川原町","town_kana":"イチコカワラチョウ","prefecture_code":25},"1537":{"zip_code":"5291537","prefecture":"滋賀県","prefecture_kana":"シガケン","city":"東近江市","city_kana":"ヒガシオウミシ","town":"市子殿町","town_kana":"イチコトノチョウ","prefecture_code":25},"1532":{"zip_code":"5291532","prefecture":"滋賀県","prefecture_kana":"シガケン","city":"東近江市","city_kana":"ヒガシオウミシ","town":"市子松井町","town_kana":"イチコマツイチョウ","prefecture_code":25},"1561":{"zip_code":"5291561","prefecture":"滋賀県","prefecture_kana":"シガケン","city":"東近江市","city_kana":"ヒガシオウミシ","town":"稲垂町","town_kana":"イナタリチョウ","prefecture_code":25},"1522":{"zip_code":"5291522","prefecture":"滋賀県","prefecture_kana":"シガケン","city":"東近江市","city_kana":"ヒガシオウミシ","town":"鋳物師町","town_kana":"イモノシチョウ","prefecture_code":25},"1512":{"zip_code":"5291512","prefecture":"滋賀県","prefecture_kana":"シガケン","city":"東近江市","city_kana":"ヒガシオウミシ","town":"大塚町","town_kana":"オオツカチョウ","prefecture_code":25},"1566":{"zip_code":"5291566","prefecture":"滋賀県","prefecture_kana":"シガケン","city":"東近江市","city_kana":"ヒガシオウミシ","town":"葛巻町","town_kana":"カズラマキチョウ","prefecture_code":25},"1503":{"zip_code":"5291503","prefecture":"滋賀県","prefecture_kana":"シガケン","city":"東近江市","city_kana":"ヒガシオウミシ","town":"綺田町","town_kana":"カバタチョウ","prefecture_code":25},"1523":{"zip_code":"5291523","prefecture":"滋賀県","prefecture_kana":"シガケン","city":"東近江市","city_kana":"ヒガシオウミシ","town":"上麻生町","town_kana":"カミアソウチョウ","prefecture_code":25},"1535":{"zip_code":"5291535","prefecture":"滋賀県","prefecture_kana":"シガケン","city":"東近江市","city_kana":"ヒガシオウミシ","town":"上南町","town_kana":"カミナチョウ","prefecture_code":25},"1514":{"zip_code":"5291514","prefecture":"滋賀県","prefecture_kana":"シガケン","city":"東近江市","city_kana":"ヒガシオウミシ","town":"蒲生大森町","town_kana":"ガモウオオモリチョウ","prefecture_code":25},"1521":{"zip_code":"5291521","prefecture":"滋賀県","prefecture_kana":"シガケン","city":"東近江市","city_kana":"ヒガシオウミシ","town":"蒲生岡本町","town_kana":"ガモウオカモトチョウ","prefecture_code":25},"1504":{"zip_code":"5291504","prefecture":"滋賀県","prefecture_kana":"シガケン","city":"東近江市","city_kana":"ヒガシオウミシ","town":"蒲生寺町","town_kana":"ガモウテラマチ","prefecture_code":25},"1541":{"zip_code":"5291541","prefecture":"滋賀県","prefecture_kana":"シガケン","city":"東近江市","city_kana":"ヒガシオウミシ","town":"蒲生堂町","town_kana":"カモウドウチョウ","prefecture_code":25},"1571":{"zip_code":"5291571","prefecture":"滋賀県","prefecture_kana":"シガケン","city":"東近江市","city_kana":"ヒガシオウミシ","town":"川合町","town_kana":"カワイチョウ","prefecture_code":25},"1562":{"zip_code":"5291562","prefecture":"滋賀県","prefecture_kana":"シガケン","city":"東近江市","city_kana":"ヒガシオウミシ","town":"木村町","town_kana":"キムラチョウ","prefecture_code":25},"1536":{"zip_code":"5291536","prefecture":"滋賀県","prefecture_kana":"シガケン","city":"東近江市","city_kana":"ヒガシオウミシ","town":"合戸町","town_kana":"ゴウドチョウ","prefecture_code":25},"1425":{"zip_code":"5291425","prefecture":"滋賀県","prefecture_kana":"シガケン","city":"東近江市","city_kana":"ヒガシオウミシ","town":"五個荘石川町","town_kana":"ゴカショウイシカワチョウ","prefecture_code":25},"1444":{"zip_code":"5291444","prefecture":"滋賀県","prefecture_kana":"シガケン","city":"東近江市","city_kana":"ヒガシオウミシ","town":"五個荘石塚町","town_kana":"ゴカショウイシヅカチョウ","prefecture_code":25},"1401":{"zip_code":"5291401","prefecture":"滋賀県","prefecture_kana":"シガケン","city":"東近江市","city_kana":"ヒガシオウミシ","town":"五個荘石馬寺町","town_kana":"ゴカショウイシバジチョウ","prefecture_code":25},"1435":{"zip_code":"5291435","prefecture":"滋賀県","prefecture_kana":"シガケン","city":"東近江市","city_kana":"ヒガシオウミシ","town":"五個荘伊野部町","town_kana":"ゴカショウイノベチョウ","prefecture_code":25},"1423":{"zip_code":"5291423","prefecture":"滋賀県","prefecture_kana":"シガケン","city":"東近江市","city_kana":"ヒガシオウミシ","town":"五個荘奥町","town_kana":"ゴカショウオクチョウ","prefecture_code":25},"1422":{"zip_code":"5291422","prefecture":"滋賀県","prefecture_kana":"シガケン","city":"東近江市","city_kana":"ヒガシオウミシ","town":"五個荘小幡町","town_kana":"ゴカショウオバタチョウ","prefecture_code":25},"1411":{"zip_code":"5291411","prefecture":"滋賀県","prefecture_kana":"シガケン","city":"東近江市","city_kana":"ヒガシオウミシ","town":"五個荘河曲町","town_kana":"ゴカショウカマガリチョウ","prefecture_code":25},"1441":{"zip_code":"5291441","prefecture":"滋賀県","prefecture_kana":"シガケン","city":"東近江市","city_kana":"ヒガシオウミシ","town":"五個荘川並町","town_kana":"ゴカショウカワナミチョウ","prefecture_code":25},"1443":{"zip_code":"5291443","prefecture":"滋賀県","prefecture_kana":"シガケン","city":"東近江市","city_kana":"ヒガシオウミシ","town":"五個荘北町屋町","town_kana":"ゴカショウキタマチヤチョウ","prefecture_code":25},"1433":{"zip_code":"5291433","prefecture":"滋賀県","prefecture_kana":"シガケン","city":"東近江市","city_kana":"ヒガシオウミシ","town":"五個荘木流町","town_kana":"ゴカショウキナガセチョウ","prefecture_code":25},"1415":{"zip_code":"5291415","prefecture":"滋賀県","prefecture_kana":"シガケン","city":"東近江市","city_kana":"ヒガシオウミシ","town":"五個荘五位田町","town_kana":"ゴカショウゴイデチョウ","prefecture_code":25},"1405":{"zip_code":"5291405","prefecture":"滋賀県","prefecture_kana":"シガケン","city":"東近江市","city_kana":"ヒガシオウミシ","town":"五個荘金堂町","town_kana":"ゴカショウコンドウチョウ","prefecture_code":25},"1402":{"zip_code":"5291402","prefecture":"滋賀県","prefecture_kana":"シガケン","city":"東近江市","city_kana":"ヒガシオウミシ","town":"五個荘七里町","town_kana":"ゴカショウシチリチョウ","prefecture_code":25},"1445":{"zip_code":"5291445","prefecture":"滋賀県","prefecture_kana":"シガケン","city":"東近江市","city_kana":"ヒガシオウミシ","town":"五個荘清水鼻町","town_kana":"ゴカショウシミズハナチョウ","prefecture_code":25},"1432":{"zip_code":"5291432","prefecture":"滋賀県","prefecture_kana":"シガケン","city":"東近江市","city_kana":"ヒガシオウミシ","town":"五個荘新堂町","town_kana":"ゴカショウシンドウチョウ","prefecture_code":25},"1421":{"zip_code":"5291421","prefecture":"滋賀県","prefecture_kana":"シガケン","city":"東近江市","city_kana":"ヒガシオウミシ","town":"五個荘竜田町","town_kana":"ゴカショウタツタチョウ","prefecture_code":25},"1442":{"zip_code":"5291442","prefecture":"滋賀県","prefecture_kana":"シガケン","city":"東近江市","city_kana":"ヒガシオウミシ","town":"五個荘塚本町","town_kana":"ゴカショウツカモトチョウ","prefecture_code":25},"1414":{"zip_code":"5291414","prefecture":"滋賀県","prefecture_kana":"シガケン","city":"東近江市","city_kana":"ヒガシオウミシ","town":"五個荘中町","town_kana":"ゴカショウナカチョウ","prefecture_code":25},"1403":{"zip_code":"5291403","prefecture":"滋賀県","prefecture_kana":"シガケン","city":"東近江市","city_kana":"ヒガシオウミシ","town":"五個荘日吉町","town_kana":"ゴカショウヒヨシチョウ","prefecture_code":25},"1434":{"zip_code":"5291434","prefecture":"滋賀県","prefecture_kana":"シガケン","city":"東近江市","city_kana":"ヒガシオウミシ","town":"五個荘平阪町","town_kana":"ゴカショウヒラサカチョウ","prefecture_code":25},"1424":{"zip_code":"5291424","prefecture":"滋賀県","prefecture_kana":"シガケン","city":"東近江市","city_kana":"ヒガシオウミシ","town":"五個荘三俣町","town_kana":"ゴカショウミツマタチョウ","prefecture_code":25},"1413":{"zip_code":"5291413","prefecture":"滋賀県","prefecture_kana":"シガケン","city":"東近江市","city_kana":"ヒガシオウミシ","town":"五個荘簗瀬町","town_kana":"ゴカショウヤナゼチョウ","prefecture_code":25},"1431":{"zip_code":"5291431","prefecture":"滋賀県","prefecture_kana":"シガケン","city":"東近江市","city_kana":"ヒガシオウミシ","town":"五個荘山本町","town_kana":"ゴカショウヤマモトチョウ","prefecture_code":25},"1412":{"zip_code":"5291412","prefecture":"滋賀県","prefecture_kana":"シガケン","city":"東近江市","city_kana":"ヒガシオウミシ","town":"五個荘和田町","town_kana":"ゴカショウワダチョウ","prefecture_code":25},"1572":{"zip_code":"5291572","prefecture":"滋賀県","prefecture_kana":"シガケン","city":"東近江市","city_kana":"ヒガシオウミシ","town":"桜川西町","town_kana":"サクラガワニシチョウ","prefecture_code":25},"1511":{"zip_code":"5291511","prefecture":"滋賀県","prefecture_kana":"シガケン","city":"東近江市","city_kana":"ヒガシオウミシ","town":"桜川東町","town_kana":"サクラガワヒガシチョウ","prefecture_code":25},"1524":{"zip_code":"5291524","prefecture":"滋賀県","prefecture_kana":"シガケン","city":"東近江市","city_kana":"ヒガシオウミシ","town":"下麻生町","town_kana":"シモアソウチョウ","prefecture_code":25},"1534":{"zip_code":"5291534","prefecture":"滋賀県","prefecture_kana":"シガケン","city":"東近江市","city_kana":"ヒガシオウミシ","town":"鈴町","town_kana":"スズチョウ","prefecture_code":25},"1513":{"zip_code":"5291513","prefecture":"滋賀県","prefecture_kana":"シガケン","city":"東近江市","city_kana":"ヒガシオウミシ","town":"田井町","town_kana":"タイチョウ","prefecture_code":25},"1565":{"zip_code":"5291565","prefecture":"滋賀県","prefecture_kana":"シガケン","city":"東近江市","city_kana":"ヒガシオウミシ","town":"外原町","town_kana":"トノハラチョウ","prefecture_code":25},"1502":{"zip_code":"5291502","prefecture":"滋賀県","prefecture_kana":"シガケン","city":"東近江市","city_kana":"ヒガシオウミシ","town":"平林町","town_kana":"ヒラバヤシチョウ","prefecture_code":25},"1564":{"zip_code":"5291564","prefecture":"滋賀県","prefecture_kana":"シガケン","city":"東近江市","city_kana":"ヒガシオウミシ","town":"宮井町","town_kana":"ミヤイチョウ","prefecture_code":25},"1551":{"zip_code":"5291551","prefecture":"滋賀県","prefecture_kana":"シガケン","city":"東近江市","city_kana":"ヒガシオウミシ","town":"宮川町","town_kana":"ミヤガワチョウ","prefecture_code":25},"1404":{"zip_code":"5291404","prefecture":"滋賀県","prefecture_kana":"シガケン","city":"東近江市","city_kana":"ヒガシオウミシ","town":"宮荘町","town_kana":"ミヤショウチョウ","prefecture_code":25},"1563":{"zip_code":"5291563","prefecture":"滋賀県","prefecture_kana":"シガケン","city":"東近江市","city_kana":"ヒガシオウミシ","town":"横山町","town_kana":"ヨコヤマチョウ","prefecture_code":25},"1600":{"zip_code":"5291600","prefecture":"滋賀県","prefecture_kana":"シガケン","city":"蒲生郡日野町","city_kana":"ガモウグンヒノチョウ","town":"","town_kana":"","prefecture_code":25},"1661":{"zip_code":"5291661","prefecture":"滋賀県","prefecture_kana":"シガケン","city":"蒲生郡日野町","city_kana":"ガモウグンヒノチョウ","town":"安部居","town_kana":"アベイ","prefecture_code":25},"1655":{"zip_code":"5291655","prefecture":"滋賀県","prefecture_kana":"シガケン","city":"蒲生郡日野町","city_kana":"ガモウグンヒノチョウ","town":"石原","town_kana":"イシハラ","prefecture_code":25},"1648":{"zip_code":"5291648","prefecture":"滋賀県","prefecture_kana":"シガケン","city":"蒲生郡日野町","city_kana":"ガモウグンヒノチョウ","town":"いせの","town_kana":"イセノ","prefecture_code":25},"1644":{"zip_code":"5291644","prefecture":"滋賀県","prefecture_kana":"シガケン","city":"蒲生郡日野町","city_kana":"ガモウグンヒノチョウ","town":"内池","town_kana":"ウチイケ","prefecture_code":25},"1605":{"zip_code":"5291605","prefecture":"滋賀県","prefecture_kana":"シガケン","city":"蒲生郡日野町","city_kana":"ガモウグンヒノチョウ","town":"小井口","town_kana":"オイグチ","prefecture_code":25},"1603":{"zip_code":"5291603","prefecture":"滋賀県","prefecture_kana":"シガケン","city":"蒲生郡日野町","city_kana":"ガモウグンヒノチョウ","town":"大窪","town_kana":"オオクボ","prefecture_code":25},"1608":{"zip_code":"5291608","prefecture":"滋賀県","prefecture_kana":"シガケン","city":"蒲生郡日野町","city_kana":"ガモウグンヒノチョウ","town":"大谷","town_kana":"オオタニ","prefecture_code":25},"1616":{"zip_code":"5291616","prefecture":"滋賀県","prefecture_kana":"シガケン","city":"蒲生郡日野町","city_kana":"ガモウグンヒノチョウ","town":"奥師","town_kana":"オクシ","prefecture_code":25},"1610":{"zip_code":"5291610","prefecture":"滋賀県","prefecture_kana":"シガケン","city":"蒲生郡日野町","city_kana":"ガモウグンヒノチョウ","town":"奥之池","town_kana":"オクノイケ","prefecture_code":25},"1626":{"zip_code":"5291626","prefecture":"滋賀県","prefecture_kana":"シガケン","city":"蒲生郡日野町","city_kana":"ガモウグンヒノチョウ","town":"音羽","town_kana":"オトワ","prefecture_code":25},"1631":{"zip_code":"5291631","prefecture":"滋賀県","prefecture_kana":"シガケン","city":"蒲生郡日野町","city_kana":"ガモウグンヒノチョウ","town":"鎌掛","town_kana":"カイガケ","prefecture_code":25},"1632":{"zip_code":"5291632","prefecture":"滋賀県","prefecture_kana":"シガケン","city":"蒲生郡日野町","city_kana":"ガモウグンヒノチョウ","town":"上駒月","town_kana":"カミコマヅキ","prefecture_code":25},"1613":{"zip_code":"5291613","prefecture":"滋賀県","prefecture_kana":"シガケン","city":"蒲生郡日野町","city_kana":"ガモウグンヒノチョウ","town":"川原","town_kana":"カワラ","prefecture_code":25},"1602":{"zip_code":"5291602","prefecture":"滋賀県","prefecture_kana":"シガケン","city":"蒲生郡日野町","city_kana":"ガモウグンヒノチョウ","town":"河原","town_kana":"カワラ","prefecture_code":25},"1622":{"zip_code":"5291622","prefecture":"滋賀県","prefecture_kana":"シガケン","city":"蒲生郡日野町","city_kana":"ガモウグンヒノチョウ","town":"北畑","town_kana":"キタバタ","prefecture_code":25},"1663":{"zip_code":"5291663","prefecture":"滋賀県","prefecture_kana":"シガケン","city":"蒲生郡日野町","city_kana":"ガモウグンヒノチョウ","town":"北脇","town_kana":"キタワキ","prefecture_code":25},"1607":{"zip_code":"5291607","prefecture":"滋賀県","prefecture_kana":"シガケン","city":"蒲生郡日野町","city_kana":"ガモウグンヒノチョウ","town":"木津","town_kana":"キヅ","prefecture_code":25},"1636":{"zip_code":"5291636","prefecture":"滋賀県","prefecture_kana":"シガケン","city":"蒲生郡日野町","city_kana":"ガモウグンヒノチョウ","town":"清田","town_kana":"キヨタ","prefecture_code":25},"1623":{"zip_code":"5291623","prefecture":"滋賀県","prefecture_kana":"シガケン","city":"蒲生郡日野町","city_kana":"ガモウグンヒノチョウ","town":"熊野","town_kana":"クマノ","prefecture_code":25},"1642":{"zip_code":"5291642","prefecture":"滋賀県","prefecture_kana":"シガケン","city":"蒲生郡日野町","city_kana":"ガモウグンヒノチョウ","town":"上野田","town_kana":"コウズケダ","prefecture_code":25},"1654":{"zip_code":"5291654","prefecture":"滋賀県","prefecture_kana":"シガケン","city":"蒲生郡日野町","city_kana":"ガモウグンヒノチョウ","town":"小谷","town_kana":"コダニ","prefecture_code":25},"1615":{"zip_code":"5291615","prefecture":"滋賀県","prefecture_kana":"シガケン","city":"蒲生郡日野町","city_kana":"ガモウグンヒノチョウ","town":"小野","town_kana":"コノ","prefecture_code":25},"1652":{"zip_code":"5291652","prefecture":"滋賀県","prefecture_kana":"シガケン","city":"蒲生郡日野町","city_kana":"ガモウグンヒノチョウ","town":"小御門","town_kana":"コミカド","prefecture_code":25},"1621":{"zip_code":"5291621","prefecture":"滋賀県","prefecture_kana":"シガケン","city":"蒲生郡日野町","city_kana":"ガモウグンヒノチョウ","town":"西明寺","town_kana":"サイミョウジ","prefecture_code":25},"1625":{"zip_code":"5291625","prefecture":"滋賀県","prefecture_kana":"シガケン","city":"蒲生郡日野町","city_kana":"ガモウグンヒノチョウ","town":"蔵王","town_kana":"ザオウ","prefecture_code":25},"1619":{"zip_code":"5291619","prefecture":"滋賀県","prefecture_kana":"シガケン","city":"蒲生郡日野町","city_kana":"ガモウグンヒノチョウ","town":"佐久良","town_kana":"サクラ","prefecture_code":25},"1643":{"zip_code":"5291643","prefecture":"滋賀県","prefecture_kana":"シガケン","city":"蒲生郡日野町","city_kana":"ガモウグンヒノチョウ","town":"里口","town_kana":"サトグチ","prefecture_code":25},"1633":{"zip_code":"5291633","prefecture":"滋賀県","prefecture_kana":"シガケン","city":"蒲生郡日野町","city_kana":"ガモウグンヒノチョウ","town":"下駒月","town_kana":"シモコマヅキ","prefecture_code":25},"1645":{"zip_code":"5291645","prefecture":"滋賀県","prefecture_kana":"シガケン","city":"蒲生郡日野町","city_kana":"ガモウグンヒノチョウ","town":"十禅師","town_kana":"ジュウゼンジ","prefecture_code":25},"1612":{"zip_code":"5291612","prefecture":"滋賀県","prefecture_kana":"シガケン","city":"蒲生郡日野町","city_kana":"ガモウグンヒノチョウ","town":"杉","town_kana":"スギ","prefecture_code":25},"1611":{"zip_code":"5291611","prefecture":"滋賀県","prefecture_kana":"シガケン","city":"蒲生郡日野町","city_kana":"ガモウグンヒノチョウ","town":"杣","town_kana":"ソマ","prefecture_code":25},"1606":{"zip_code":"5291606","prefecture":"滋賀県","prefecture_kana":"シガケン","city":"蒲生郡日野町","city_kana":"ガモウグンヒノチョウ","town":"寺尻","town_kana":"テラジリ","prefecture_code":25},"1657":{"zip_code":"5291657","prefecture":"滋賀県","prefecture_kana":"シガケン","city":"蒲生郡日野町","city_kana":"ガモウグンヒノチョウ","town":"豊田","town_kana":"トヨタ","prefecture_code":25},"1618":{"zip_code":"5291618","prefecture":"滋賀県","prefecture_kana":"シガケン","city":"蒲生郡日野町","city_kana":"ガモウグンヒノチョウ","town":"鳥居平","town_kana":"トリイヒラ","prefecture_code":25},"1662":{"zip_code":"5291662","prefecture":"滋賀県","prefecture_kana":"シガケン","city":"蒲生郡日野町","city_kana":"ガモウグンヒノチョウ","town":"中在寺","town_kana":"ナカザイジ","prefecture_code":25},"1617":{"zip_code":"5291617","prefecture":"滋賀県","prefecture_kana":"シガケン","city":"蒲生郡日野町","city_kana":"ガモウグンヒノチョウ","town":"中之郷","town_kana":"ナカノゴウ","prefecture_code":25},"1609":{"zip_code":"5291609","prefecture":"滋賀県","prefecture_kana":"シガケン","city":"蒲生郡日野町","city_kana":"ガモウグンヒノチョウ","town":"中道","town_kana":"ナカミチ","prefecture_code":25},"1658":{"zip_code":"5291658","prefecture":"滋賀県","prefecture_kana":"シガケン","city":"蒲生郡日野町","city_kana":"ガモウグンヒノチョウ","town":"中山","town_kana":"ナカヤマ","prefecture_code":25},"1628":{"zip_code":"5291628","prefecture":"滋賀県","prefecture_kana":"シガケン","city":"蒲生郡日野町","city_kana":"ガモウグンヒノチョウ","town":"西大路","town_kana":"ニシオオジ","prefecture_code":25},"1627":{"zip_code":"5291627","prefecture":"滋賀県","prefecture_kana":"シガケン","city":"蒲生郡日野町","city_kana":"ガモウグンヒノチョウ","town":"仁本木","town_kana":"ニホンギ","prefecture_code":25},"1646":{"zip_code":"5291646","prefecture":"滋賀県","prefecture_kana":"シガケン","city":"蒲生郡日野町","city_kana":"ガモウグンヒノチョウ","town":"猫田","town_kana":"ネコダ","prefecture_code":25},"1665":{"zip_code":"5291665","prefecture":"滋賀県","prefecture_kana":"シガケン","city":"蒲生郡日野町","city_kana":"ガモウグンヒノチョウ","town":"野出","town_kana":"ノデ","prefecture_code":25},"1635":{"zip_code":"5291635","prefecture":"滋賀県","prefecture_kana":"シガケン","city":"蒲生郡日野町","city_kana":"ガモウグンヒノチョウ","town":"迫","town_kana":"ハサマ","prefecture_code":25},"1614":{"zip_code":"5291614","prefecture":"滋賀県","prefecture_kana":"シガケン","city":"蒲生郡日野町","city_kana":"ガモウグンヒノチョウ","town":"原","town_kana":"ハラ","prefecture_code":25},"1641":{"zip_code":"5291641","prefecture":"滋賀県","prefecture_kana":"シガケン","city":"蒲生郡日野町","city_kana":"ガモウグンヒノチョウ","town":"日田","town_kana":"ヒダ","prefecture_code":25},"1624":{"zip_code":"5291624","prefecture":"滋賀県","prefecture_kana":"シガケン","city":"蒲生郡日野町","city_kana":"ガモウグンヒノチョウ","town":"平子","town_kana":"ヒラコ","prefecture_code":25},"1647":{"zip_code":"5291647","prefecture":"滋賀県","prefecture_kana":"シガケン","city":"蒲生郡日野町","city_kana":"ガモウグンヒノチョウ","town":"別所","town_kana":"ベッシヨ","prefecture_code":25},"1656":{"zip_code":"5291656","prefecture":"滋賀県","prefecture_kana":"シガケン","city":"蒲生郡日野町","city_kana":"ガモウグンヒノチョウ","town":"増田","town_kana":"マシダ","prefecture_code":25},"1601":{"zip_code":"5291601","prefecture":"滋賀県","prefecture_kana":"シガケン","city":"蒲生郡日野町","city_kana":"ガモウグンヒノチョウ","town":"松尾","town_kana":"マツオ","prefecture_code":25},"1653":{"zip_code":"5291653","prefecture":"滋賀県","prefecture_kana":"シガケン","city":"蒲生郡日野町","city_kana":"ガモウグンヒノチョウ","town":"三十坪","town_kana":"ミソツ","prefecture_code":25},"1634":{"zip_code":"5291634","prefecture":"滋賀県","prefecture_kana":"シガケン","city":"蒲生郡日野町","city_kana":"ガモウグンヒノチョウ","town":"深山口","town_kana":"ミヤマグチ","prefecture_code":25},"1604":{"zip_code":"5291604","prefecture":"滋賀県","prefecture_kana":"シガケン","city":"蒲生郡日野町","city_kana":"ガモウグンヒノチョウ","town":"村井","town_kana":"ムライ","prefecture_code":25},"1651":{"zip_code":"5291651","prefecture":"滋賀県","prefecture_kana":"シガケン","city":"蒲生郡日野町","city_kana":"ガモウグンヒノチョウ","town":"山本","town_kana":"ヤマモト","prefecture_code":25},"1664":{"zip_code":"5291664","prefecture":"滋賀県","prefecture_kana":"シガケン","city":"蒲生郡日野町","city_kana":"ガモウグンヒノチョウ","town":"蓮花寺","town_kana":"レンゲジ","prefecture_code":25},"1300":{"zip_code":"5291300","prefecture":"滋賀県","prefecture_kana":"シガケン","city":"愛知郡愛荘町","city_kana":"エチグンアイショウチョウ","town":"","town_kana":"","prefecture_code":25},"1234":{"zip_code":"5291234","prefecture":"滋賀県","prefecture_kana":"シガケン","city":"愛知郡愛荘町","city_kana":"エチグンアイショウチョウ","town":"安孫子","town_kana":"アビコ","prefecture_code":25},"1311":{"zip_code":"5291311","prefecture":"滋賀県","prefecture_kana":"シガケン","city":"愛知郡愛荘町","city_kana":"エチグンアイショウチョウ","town":"石橋","town_kana":"イシハシ","prefecture_code":25},"1313":{"zip_code":"5291313","prefecture":"滋賀県","prefecture_kana":"シガケン","city":"愛知郡愛荘町","city_kana":"エチグンアイショウチョウ","town":"市","town_kana":"イチ","prefecture_code":25},"1207":{"zip_code":"5291207","prefecture":"滋賀県","prefecture_kana":"シガケン","city":"愛知郡愛荘町","city_kana":"エチグンアイショウチョウ","town":"岩倉","town_kana":"イワクラ","prefecture_code":25},"1331":{"zip_code":"5291331","prefecture":"滋賀県","prefecture_kana":"シガケン","city":"愛知郡愛荘町","city_kana":"エチグンアイショウチョウ","town":"愛知川","town_kana":"エチガワ","prefecture_code":25},"1231":{"zip_code":"5291231","prefecture":"滋賀県","prefecture_kana":"シガケン","city":"愛知郡愛荘町","city_kana":"エチグンアイショウチョウ","town":"円城寺","town_kana":"エンジョウジ","prefecture_code":25},"1213":{"zip_code":"5291213","prefecture":"滋賀県","prefecture_kana":"シガケン","city":"愛知郡愛荘町","city_kana":"エチグンアイショウチョウ","town":"沖","town_kana":"オキ","prefecture_code":25},"1206":{"zip_code":"5291206","prefecture":"滋賀県","prefecture_kana":"シガケン","city":"愛知郡愛荘町","city_kana":"エチグンアイショウチョウ","town":"蚊野","town_kana":"カノ","prefecture_code":25},"1204":{"zip_code":"5291204","prefecture":"滋賀県","prefecture_kana":"シガケン","city":"愛知郡愛荘町","city_kana":"エチグンアイショウチョウ","town":"蚊野外","town_kana":"カノトノ","prefecture_code":25},"1203":{"zip_code":"5291203","prefecture":"滋賀県","prefecture_kana":"シガケン","city":"愛知郡愛荘町","city_kana":"エチグンアイショウチョウ","town":"上蚊野","town_kana":"カミガノ","prefecture_code":25},"1324":{"zip_code":"5291324","prefecture":"滋賀県","prefecture_kana":"シガケン","city":"愛知郡愛荘町","city_kana":"エチグンアイショウチョウ","town":"苅間","town_kana":"カリマ","prefecture_code":25},"1205":{"zip_code":"5291205","prefecture":"滋賀県","prefecture_kana":"シガケン","city":"愛知郡愛荘町","city_kana":"エチグンアイショウチョウ","town":"軽野","town_kana":"カルノ","prefecture_code":25},"1312":{"zip_code":"5291312","prefecture":"滋賀県","prefecture_kana":"シガケン","city":"愛知郡愛荘町","city_kana":"エチグンアイショウチョウ","town":"川久保","town_kana":"カワクボ","prefecture_code":25},"1302":{"zip_code":"5291302","prefecture":"滋賀県","prefecture_kana":"シガケン","city":"愛知郡愛荘町","city_kana":"エチグンアイショウチョウ","town":"川原","town_kana":"カワラ","prefecture_code":25},"1222":{"zip_code":"5291222","prefecture":"滋賀県","prefecture_kana":"シガケン","city":"愛知郡愛荘町","city_kana":"エチグンアイショウチョウ","town":"北八木","town_kana":"キタヤギ","prefecture_code":25},"1315":{"zip_code":"5291315","prefecture":"滋賀県","prefecture_kana":"シガケン","city":"愛知郡愛荘町","city_kana":"エチグンアイショウチョウ","town":"沓掛","town_kana":"クツカケ","prefecture_code":25},"1225":{"zip_code":"5291225","prefecture":"滋賀県","prefecture_kana":"シガケン","city":"愛知郡愛荘町","city_kana":"エチグンアイショウチョウ","town":"栗田","town_kana":"クリタ","prefecture_code":25},"1211":{"zip_code":"5291211","prefecture":"滋賀県","prefecture_kana":"シガケン","city":"愛知郡愛荘町","city_kana":"エチグンアイショウチョウ","town":"香之庄","town_kana":"コノショウ","prefecture_code":25},"1223":{"zip_code":"5291223","prefecture":"滋賀県","prefecture_kana":"シガケン","city":"愛知郡愛荘町","city_kana":"エチグンアイショウチョウ","town":"島川","town_kana":"シマガワ","prefecture_code":25},"1221":{"zip_code":"5291221","prefecture":"滋賀県","prefecture_kana":"シガケン","city":"愛知郡愛荘町","city_kana":"エチグンアイショウチョウ","town":"下八木","town_kana":"シモヤギ","prefecture_code":25},"1232":{"zip_code":"5291232","prefecture":"滋賀県","prefecture_kana":"シガケン","city":"愛知郡愛荘町","city_kana":"エチグンアイショウチョウ","town":"常安寺","town_kana":"ジョウアンジ","prefecture_code":25},"1208":{"zip_code":"5291208","prefecture":"滋賀県","prefecture_kana":"シガケン","city":"愛知郡愛荘町","city_kana":"エチグンアイショウチョウ","town":"竹原","town_kana":"タケハラ","prefecture_code":25},"1325":{"zip_code":"5291325","prefecture":"滋賀県","prefecture_kana":"シガケン","city":"愛知郡愛荘町","city_kana":"エチグンアイショウチョウ","town":"東円堂","town_kana":"トウエンドウ","prefecture_code":25},"1321":{"zip_code":"5291321","prefecture":"滋賀県","prefecture_kana":"シガケン","city":"愛知郡愛荘町","city_kana":"エチグンアイショウチョウ","town":"豊満","town_kana":"トヨミツ","prefecture_code":25},"1314":{"zip_code":"5291314","prefecture":"滋賀県","prefecture_kana":"シガケン","city":"愛知郡愛荘町","city_kana":"エチグンアイショウチョウ","town":"中宿","town_kana":"ナカジュク","prefecture_code":25},"1224":{"zip_code":"5291224","prefecture":"滋賀県","prefecture_kana":"シガケン","city":"愛知郡愛荘町","city_kana":"エチグンアイショウチョウ","town":"長塚","town_kana":"ナガツカ","prefecture_code":25},"1303":{"zip_code":"5291303","prefecture":"滋賀県","prefecture_kana":"シガケン","city":"愛知郡愛荘町","city_kana":"エチグンアイショウチョウ","town":"長野","town_kana":"ナガノ","prefecture_code":25},"1237":{"zip_code":"5291237","prefecture":"滋賀県","prefecture_kana":"シガケン","city":"愛知郡愛荘町","city_kana":"エチグンアイショウチョウ","town":"西出","town_kana":"ニシデ","prefecture_code":25},"1227":{"zip_code":"5291227","prefecture":"滋賀県","prefecture_kana":"シガケン","city":"愛知郡愛荘町","city_kana":"エチグンアイショウチョウ","town":"野々目","town_kana":"ノノメ","prefecture_code":25},"1323":{"zip_code":"5291323","prefecture":"滋賀県","prefecture_kana":"シガケン","city":"愛知郡愛荘町","city_kana":"エチグンアイショウチョウ","town":"畑田","town_kana":"ハタケダ","prefecture_code":25},"1233":{"zip_code":"5291233","prefecture":"滋賀県","prefecture_kana":"シガケン","city":"愛知郡愛荘町","city_kana":"エチグンアイショウチョウ","town":"東出","town_kana":"ヒガシデ","prefecture_code":25},"1322":{"zip_code":"5291322","prefecture":"滋賀県","prefecture_kana":"シガケン","city":"愛知郡愛荘町","city_kana":"エチグンアイショウチョウ","town":"平居","town_kana":"ヒライ","prefecture_code":25},"1236":{"zip_code":"5291236","prefecture":"滋賀県","prefecture_kana":"シガケン","city":"愛知郡愛荘町","city_kana":"エチグンアイショウチョウ","town":"深草","town_kana":"フコソ","prefecture_code":25},"1202":{"zip_code":"5291202","prefecture":"滋賀県","prefecture_kana":"シガケン","city":"愛知郡愛荘町","city_kana":"エチグンアイショウチョウ","town":"松尾寺","town_kana":"マツオジ","prefecture_code":25},"1226":{"zip_code":"5291226","prefecture":"滋賀県","prefecture_kana":"シガケン","city":"愛知郡愛荘町","city_kana":"エチグンアイショウチョウ","town":"南野々目","town_kana":"ミナミノノメ","prefecture_code":25},"1214":{"zip_code":"5291214","prefecture":"滋賀県","prefecture_kana":"シガケン","city":"愛知郡愛荘町","city_kana":"エチグンアイショウチョウ","town":"宮後","town_kana":"ミヤウシロ","prefecture_code":25},"1235":{"zip_code":"5291235","prefecture":"滋賀県","prefecture_kana":"シガケン","city":"愛知郡愛荘町","city_kana":"エチグンアイショウチョウ","town":"目加田","town_kana":"メカダ","prefecture_code":25},"1212":{"zip_code":"5291212","prefecture":"滋賀県","prefecture_kana":"シガケン","city":"愛知郡愛荘町","city_kana":"エチグンアイショウチョウ","town":"元持","town_kana":"モトモチ","prefecture_code":25},"1301":{"zip_code":"5291301","prefecture":"滋賀県","prefecture_kana":"シガケン","city":"愛知郡愛荘町","city_kana":"エチグンアイショウチョウ","town":"山川原","town_kana":"ヤマガワラ","prefecture_code":25},"1228":{"zip_code":"5291228","prefecture":"滋賀県","prefecture_kana":"シガケン","city":"愛知郡愛荘町","city_kana":"エチグンアイショウチョウ","town":"矢守","town_kana":"ヤモリ","prefecture_code":25},"1201":{"zip_code":"5291201","prefecture":"滋賀県","prefecture_kana":"シガケン","city":"愛知郡愛荘町","city_kana":"エチグンアイショウチョウ","town":"斧磨","town_kana":"ヨキトギ","prefecture_code":25},"1100":{"zip_code":"5291100","prefecture":"滋賀県","prefecture_kana":"シガケン","city":"犬上郡豊郷町","city_kana":"イヌカミグントヨサトチョウ","town":"","town_kana":"","prefecture_code":25},"1163":{"zip_code":"5291163","prefecture":"滋賀県","prefecture_kana":"シガケン","city":"犬上郡豊郷町","city_kana":"イヌカミグントヨサトチョウ","town":"雨降野","town_kana":"アメフリノ","prefecture_code":25},"1171":{"zip_code":"5291171","prefecture":"滋賀県","prefecture_kana":"シガケン","city":"犬上郡豊郷町","city_kana":"イヌカミグントヨサトチョウ","town":"安食西","town_kana":"アンジキニシ","prefecture_code":25},"1172":{"zip_code":"5291172","prefecture":"滋賀県","prefecture_kana":"シガケン","city":"犬上郡豊郷町","city_kana":"イヌカミグントヨサトチョウ","town":"安食南","town_kana":"アンジキミナミ","prefecture_code":25},"1169":{"zip_code":"5291169","prefecture":"滋賀県","prefecture_kana":"シガケン","city":"犬上郡豊郷町","city_kana":"イヌカミグントヨサトチョウ","town":"石畑","town_kana":"イシバタケ","prefecture_code":25},"1176":{"zip_code":"5291176","prefecture":"滋賀県","prefecture_kana":"シガケン","city":"犬上郡豊郷町","city_kana":"イヌカミグントヨサトチョウ","town":"大町","town_kana":"オオマチ","prefecture_code":25},"1166":{"zip_code":"5291166","prefecture":"滋賀県","prefecture_kana":"シガケン","city":"犬上郡豊郷町","city_kana":"イヌカミグントヨサトチョウ","town":"上枝","town_kana":"カミエダ","prefecture_code":25},"1175":{"zip_code":"5291175","prefecture":"滋賀県","prefecture_kana":"シガケン","city":"犬上郡豊郷町","city_kana":"イヌカミグントヨサトチョウ","town":"沢","town_kana":"サワ","prefecture_code":25},"1161":{"zip_code":"5291161","prefecture":"滋賀県","prefecture_kana":"シガケン","city":"犬上郡豊郷町","city_kana":"イヌカミグントヨサトチョウ","town":"四十九院","town_kana":"シジュウクイン","prefecture_code":25},"1174":{"zip_code":"5291174","prefecture":"滋賀県","prefecture_kana":"シガケン","city":"犬上郡豊郷町","city_kana":"イヌカミグントヨサトチョウ","town":"下枝","town_kana":"シモエダ","prefecture_code":25},"1167":{"zip_code":"5291167","prefecture":"滋賀県","prefecture_kana":"シガケン","city":"犬上郡豊郷町","city_kana":"イヌカミグントヨサトチョウ","town":"杉","town_kana":"スギ","prefecture_code":25},"1173":{"zip_code":"5291173","prefecture":"滋賀県","prefecture_kana":"シガケン","city":"犬上郡豊郷町","city_kana":"イヌカミグントヨサトチョウ","town":"高野瀬","town_kana":"タカノセ","prefecture_code":25},"1168":{"zip_code":"5291168","prefecture":"滋賀県","prefecture_kana":"シガケン","city":"犬上郡豊郷町","city_kana":"イヌカミグントヨサトチョウ","town":"八目","town_kana":"ハチメ","prefecture_code":25},"1162":{"zip_code":"5291162","prefecture":"滋賀県","prefecture_kana":"シガケン","city":"犬上郡豊郷町","city_kana":"イヌカミグントヨサトチョウ","town":"八町","town_kana":"ハッチョウ","prefecture_code":25},"1164":{"zip_code":"5291164","prefecture":"滋賀県","prefecture_kana":"シガケン","city":"犬上郡豊郷町","city_kana":"イヌカミグントヨサトチョウ","town":"日栄","town_kana":"ヒエ","prefecture_code":25},"1177":{"zip_code":"5291177","prefecture":"滋賀県","prefecture_kana":"シガケン","city":"犬上郡豊郷町","city_kana":"イヌカミグントヨサトチョウ","town":"三ツ池","town_kana":"ミツイケ","prefecture_code":25},"1165":{"zip_code":"5291165","prefecture":"滋賀県","prefecture_kana":"シガケン","city":"犬上郡豊郷町","city_kana":"イヌカミグントヨサトチョウ","town":"吉田","town_kana":"ヨシダ","prefecture_code":25}}