{"0000":{"zip_code":"5300000","prefecture":"大阪府","prefecture_kana":"オオサカフ","city":"大阪市北区","city_kana":"オオサカシキタク","town":"","town_kana":"","prefecture_code":27},"0033":{"zip_code":"5300033","prefecture":"大阪府","prefecture_kana":"オオサカフ","city":"大阪市北区","city_kana":"オオサカシキタク","town":"池田町","town_kana":"イケダチョウ","prefecture_code":27},"0021":{"zip_code":"5300021","prefecture":"大阪府","prefecture_kana":"オオサカフ","city":"大阪市北区","city_kana":"オオサカシキタク","town":"浮田","town_kana":"ウキダ","prefecture_code":27},"0001":{"zip_code":"5300001","prefecture":"大阪府","prefecture_kana":"オオサカフ","city":"大阪市北区","city_kana":"オオサカシキタク","town":"梅田","town_kana":"ウメダ","prefecture_code":27},"0025":{"zip_code":"5300025","prefecture":"大阪府","prefecture_kana":"オオサカフ","city":"大阪市北区","city_kana":"オオサカシキタク","town":"扇町","town_kana":"オウギマチ","prefecture_code":27},"0011":{"zip_code":"5300011","prefecture":"大阪府","prefecture_kana":"オオサカフ","city":"大阪市北区","city_kana":"オオサカシキタク","town":"大深町","town_kana":"オオフカチョウ","prefecture_code":27},"0017":{"zip_code":"5300017","prefecture":"大阪府","prefecture_kana":"オオサカフ","city":"大阪市北区","city_kana":"オオサカシキタク","town":"角田町","town_kana":"カクダチョウ","prefecture_code":27},"0026":{"zip_code":"5300026","prefecture":"大阪府","prefecture_kana":"オオサカフ","city":"大阪市北区","city_kana":"オオサカシキタク","town":"神山町","town_kana":"カミヤマチョウ","prefecture_code":27},"0031":{"zip_code":"5300031","prefecture":"大阪府","prefecture_kana":"オオサカフ","city":"大阪市北区","city_kana":"オオサカシキタク","town":"菅栄町","town_kana":"カンエイチョウ","prefecture_code":27},"0023":{"zip_code":"5300023","prefecture":"大阪府","prefecture_kana":"オオサカフ","city":"大阪市北区","city_kana":"オオサカシキタク","town":"黒崎町","town_kana":"クロサキチョウ","prefecture_code":27},"0038":{"zip_code":"5300038","prefecture":"大阪府","prefecture_kana":"オオサカフ","city":"大阪市北区","city_kana":"オオサカシキタク","town":"紅梅町","town_kana":"コウバイチョウ","prefecture_code":27},"0018":{"zip_code":"5300018","prefecture":"大阪府","prefecture_kana":"オオサカフ","city":"大阪市北区","city_kana":"オオサカシキタク","town":"小松原町","town_kana":"コマツバラチョウ","prefecture_code":27},"0012":{"zip_code":"5300012","prefecture":"大阪府","prefecture_kana":"オオサカフ","city":"大阪市北区","city_kana":"オオサカシキタク","town":"芝田","town_kana":"シバタ","prefecture_code":27},"0053":{"zip_code":"5300053","prefecture":"大阪府","prefecture_kana":"オオサカフ","city":"大阪市北区","city_kana":"オオサカシキタク","town":"末広町","town_kana":"スエヒロチョウ","prefecture_code":27},"0046":{"zip_code":"5300046","prefecture":"大阪府","prefecture_kana":"オオサカフ","city":"大阪市北区","city_kana":"オオサカシキタク","town":"菅原町","town_kana":"スガハラチョウ","prefecture_code":27},"0057":{"zip_code":"5300057","prefecture":"大阪府","prefecture_kana":"オオサカフ","city":"大阪市北区","city_kana":"オオサカシキタク","town":"曽根崎","town_kana":"ソネザキ","prefecture_code":27},"0002":{"zip_code":"5300002","prefecture":"大阪府","prefecture_kana":"オオサカフ","city":"大阪市北区","city_kana":"オオサカシキタク","town":"曽根崎新地","town_kana":"ソネザキシンチ","prefecture_code":27},"0051":{"zip_code":"5300051","prefecture":"大阪府","prefecture_kana":"オオサカフ","city":"大阪市北区","city_kana":"オオサカシキタク","town":"太融寺町","town_kana":"タイユウジチョウ","prefecture_code":27},"0013":{"zip_code":"5300013","prefecture":"大阪府","prefecture_kana":"オオサカフ","city":"大阪市北区","city_kana":"オオサカシキタク","town":"茶屋町","town_kana":"チャヤマチ","prefecture_code":27},"0014":{"zip_code":"5300014","prefecture":"大阪府","prefecture_kana":"オオサカフ","city":"大阪市北区","city_kana":"オオサカシキタク","town":"鶴野町","town_kana":"ツルノチョウ","prefecture_code":27},"0045":{"zip_code":"5300045","prefecture":"大阪府","prefecture_kana":"オオサカフ","city":"大阪市北区","city_kana":"オオサカシキタク","town":"天神西町","town_kana":"テンジンニシマチ","prefecture_code":27},"0041":{"zip_code":"5300041","prefecture":"大阪府","prefecture_kana":"オオサカフ","city":"大阪市北区","city_kana":"オオサカシキタク","town":"天神橋","town_kana":"テンジンバシ","prefecture_code":27},"0043":{"zip_code":"5300043","prefecture":"大阪府","prefecture_kana":"オオサカフ","city":"大阪市北区","city_kana":"オオサカシキタク","town":"天満","town_kana":"テンマ","prefecture_code":27},"0042":{"zip_code":"5300042","prefecture":"大阪府","prefecture_kana":"オオサカフ","city":"大阪市北区","city_kana":"オオサカシキタク","town":"天満橋","town_kana":"テンマバシ","prefecture_code":27},"6090":{"zip_code":"5306090","prefecture":"大阪府","prefecture_kana":"オオサカフ","city":"大阪市北区","city_kana":"オオサカシキタク","town":"天満橋ＯＡＰタワー","town_kana":"テンマバシOAPタワー","prefecture_code":27},"6001":{"zip_code":"5306001","prefecture":"大阪府","prefecture_kana":"オオサカフ","city":"大阪市北区","city_kana":"オオサカシキタク","town":"天満橋ＯＡＰタワー　１階","town_kana":"テンマバシOAPタワー1カイ","prefecture_code":27},"6002":{"zip_code":"5306002","prefecture":"大阪府","prefecture_kana":"オオサカフ","city":"大阪市北区","city_kana":"オオサカシキタク","town":"天満橋ＯＡＰタワー　２階","town_kana":"テンマバシOAPタワー2カイ","prefecture_code":27},"6003":{"zip_code":"5306003","prefecture":"大阪府","prefecture_kana":"オオサカフ","city":"大阪市北区","city_kana":"オオサカシキタク","town":"天満橋ＯＡＰタワー　３階","town_kana":"テンマバシOAPタワー3カイ","prefecture_code":27},"6004":{"zip_code":"5306004","prefecture":"大阪府","prefecture_kana":"オオサカフ","city":"大阪市北区","city_kana":"オオサカシキタク","town":"天満橋ＯＡＰタワー　４階","town_kana":"テンマバシOAPタワー4カイ","prefecture_code":27},"6005":{"zip_code":"5306005","prefecture":"大阪府","prefecture_kana":"オオサカフ","city":"大阪市北区","city_kana":"オオサカシキタク","town":"天満橋ＯＡＰタワー　５階","town_kana":"テンマバシOAPタワー5カイ","prefecture_code":27},"6006":{"zip_code":"5306006","prefecture":"大阪府","prefecture_kana":"オオサカフ","city":"大阪市北区","city_kana":"オオサカシキタク","town":"天満橋ＯＡＰタワー　６階","town_kana":"テンマバシOAPタワー6カイ","prefecture_code":27},"6007":{"zip_code":"5306007","prefecture":"大阪府","prefecture_kana":"オオサカフ","city":"大阪市北区","city_kana":"オオサカシキタク","town":"天満橋ＯＡＰタワー　７階","town_kana":"テンマバシOAPタワー7カイ","prefecture_code":27},"6008":{"zip_code":"5306008","prefecture":"大阪府","prefecture_kana":"オオサカフ","city":"大阪市北区","city_kana":"オオサカシキタク","town":"天満橋ＯＡＰタワー　８階","town_kana":"テンマバシOAPタワー8カイ","prefecture_code":27},"6009":{"zip_code":"5306009","prefecture":"大阪府","prefecture_kana":"オオサカフ","city":"大阪市北区","city_kana":"オオサカシキタク","town":"天満橋ＯＡＰタワー　９階","town_kana":"テンマバシOAPタワー9カイ","prefecture_code":27},"6010":{"zip_code":"5306010","prefecture":"大阪府","prefecture_kana":"オオサカフ","city":"大阪市北区","city_kana":"オオサカシキタク","town":"天満橋ＯＡＰタワー　１０階","town_kana":"テンマバシOAPタワー10カイ","prefecture_code":27},"6011":{"zip_code":"5306011","prefecture":"大阪府","prefecture_kana":"オオサカフ","city":"大阪市北区","city_kana":"オオサカシキタク","town":"天満橋ＯＡＰタワー　１１階","town_kana":"テンマバシOAPタワー11カイ","prefecture_code":27},"6012":{"zip_code":"5306012","prefecture":"大阪府","prefecture_kana":"オオサカフ","city":"大阪市北区","city_kana":"オオサカシキタク","town":"天満橋ＯＡＰタワー　１２階","town_kana":"テンマバシOAPタワー12カイ","prefecture_code":27},"6013":{"zip_code":"5306013","prefecture":"大阪府","prefecture_kana":"オオサカフ","city":"大阪市北区","city_kana":"オオサカシキタク","town":"天満橋ＯＡＰタワー　１３階","town_kana":"テンマバシOAPタワー13カイ","prefecture_code":27},"6014":{"zip_code":"5306014","prefecture":"大阪府","prefecture_kana":"オオサカフ","city":"大阪市北区","city_kana":"オオサカシキタク","town":"天満橋ＯＡＰタワー　１４階","town_kana":"テンマバシOAPタワー14カイ","prefecture_code":27},"6015":{"zip_code":"5306015","prefecture":"大阪府","prefecture_kana":"オオサカフ","city":"大阪市北区","city_kana":"オオサカシキタク","town":"天満橋ＯＡＰタワー　１５階","town_kana":"テンマバシOAPタワー15カイ","prefecture_code":27},"6016":{"zip_code":"5306016","prefecture":"大阪府","prefecture_kana":"オオサカフ","city":"大阪市北区","city_kana":"オオサカシキタク","town":"天満橋ＯＡＰタワー　１６階","town_kana":"テンマバシOAPタワー16カイ","prefecture_code":27},"6017":{"zip_code":"5306017","prefecture":"大阪府","prefecture_kana":"オオサカフ","city":"大阪市北区","city_kana":"オオサカシキタク","town":"天満橋ＯＡＰタワー　１７階","town_kana":"テンマバシOAPタワー17カイ","prefecture_code":27},"6018":{"zip_code":"5306018","prefecture":"大阪府","prefecture_kana":"オオサカフ","city":"大阪市北区","city_kana":"オオサカシキタク","town":"天満橋ＯＡＰタワー　１８階","town_kana":"テンマバシOAPタワー18カイ","prefecture_code":27},"6019":{"zip_code":"5306019","prefecture":"大阪府","prefecture_kana":"オオサカフ","city":"大阪市北区","city_kana":"オオサカシキタク","town":"天満橋ＯＡＰタワー　１９階","town_kana":"テンマバシOAPタワー19カイ","prefecture_code":27},"6020":{"zip_code":"5306020","prefecture":"大阪府","prefecture_kana":"オオサカフ","city":"大阪市北区","city_kana":"オオサカシキタク","town":"天満橋ＯＡＰタワー　２０階","town_kana":"テンマバシOAPタワー20カイ","prefecture_code":27},"6021":{"zip_code":"5306021","prefecture":"大阪府","prefecture_kana":"オオサカフ","city":"大阪市北区","city_kana":"オオサカシキタク","town":"天満橋ＯＡＰタワー　２１階","town_kana":"テンマバシOAPタワー21カイ","prefecture_code":27},"6022":{"zip_code":"5306022","prefecture":"大阪府","prefecture_kana":"オオサカフ","city":"大阪市北区","city_kana":"オオサカシキタク","town":"天満橋ＯＡＰタワー　２２階","town_kana":"テンマバシOAPタワー22カイ","prefecture_code":27},"6023":{"zip_code":"5306023","prefecture":"大阪府","prefecture_kana":"オオサカフ","city":"大阪市北区","city_kana":"オオサカシキタク","town":"天満橋ＯＡＰタワー　２３階","town_kana":"テンマバシOAPタワー23カイ","prefecture_code":27},"6024":{"zip_code":"5306024","prefecture":"大阪府","prefecture_kana":"オオサカフ","city":"大阪市北区","city_kana":"オオサカシキタク","town":"天満橋ＯＡＰタワー　２４階","town_kana":"テンマバシOAPタワー24カイ","prefecture_code":27},"6025":{"zip_code":"5306025","prefecture":"大阪府","prefecture_kana":"オオサカフ","city":"大阪市北区","city_kana":"オオサカシキタク","town":"天満橋ＯＡＰタワー　２５階","town_kana":"テンマバシOAPタワー25カイ","prefecture_code":27},"6026":{"zip_code":"5306026","prefecture":"大阪府","prefecture_kana":"オオサカフ","city":"大阪市北区","city_kana":"オオサカシキタク","town":"天満橋ＯＡＰタワー　２６階","town_kana":"テンマバシOAPタワー26カイ","prefecture_code":27},"6027":{"zip_code":"5306027","prefecture":"大阪府","prefecture_kana":"オオサカフ","city":"大阪市北区","city_kana":"オオサカシキタク","town":"天満橋ＯＡＰタワー　２７階","town_kana":"テンマバシOAPタワー27カイ","prefecture_code":27},"6028":{"zip_code":"5306028","prefecture":"大阪府","prefecture_kana":"オオサカフ","city":"大阪市北区","city_kana":"オオサカシキタク","town":"天満橋ＯＡＰタワー　２８階","town_kana":"テンマバシOAPタワー28カイ","prefecture_code":27},"6029":{"zip_code":"5306029","prefecture":"大阪府","prefecture_kana":"オオサカフ","city":"大阪市北区","city_kana":"オオサカシキタク","town":"天満橋ＯＡＰタワー　２９階","town_kana":"テンマバシOAPタワー29カイ","prefecture_code":27},"6030":{"zip_code":"5306030","prefecture":"大阪府","prefecture_kana":"オオサカフ","city":"大阪市北区","city_kana":"オオサカシキタク","town":"天満橋ＯＡＰタワー　３０階","town_kana":"テンマバシOAPタワー30カイ","prefecture_code":27},"6031":{"zip_code":"5306031","prefecture":"大阪府","prefecture_kana":"オオサカフ","city":"大阪市北区","city_kana":"オオサカシキタク","town":"天満橋ＯＡＰタワー　３１階","town_kana":"テンマバシOAPタワー31カイ","prefecture_code":27},"6032":{"zip_code":"5306032","prefecture":"大阪府","prefecture_kana":"オオサカフ","city":"大阪市北区","city_kana":"オオサカシキタク","town":"天満橋ＯＡＰタワー　３２階","town_kana":"テンマバシOAPタワー32カイ","prefecture_code":27},"6033":{"zip_code":"5306033","prefecture":"大阪府","prefecture_kana":"オオサカフ","city":"大阪市北区","city_kana":"オオサカシキタク","town":"天満橋ＯＡＰタワー　３３階","town_kana":"テンマバシOAPタワー33カイ","prefecture_code":27},"6034":{"zip_code":"5306034","prefecture":"大阪府","prefecture_kana":"オオサカフ","city":"大阪市北区","city_kana":"オオサカシキタク","town":"天満橋ＯＡＰタワー　３４階","town_kana":"テンマバシOAPタワー34カイ","prefecture_code":27},"6035":{"zip_code":"5306035","prefecture":"大阪府","prefecture_kana":"オオサカフ","city":"大阪市北区","city_kana":"オオサカシキタク","town":"天満橋ＯＡＰタワー　３５階","town_kana":"テンマバシOAPタワー35カイ","prefecture_code":27},"6036":{"zip_code":"5306036","prefecture":"大阪府","prefecture_kana":"オオサカフ","city":"大阪市北区","city_kana":"オオサカシキタク","town":"天満橋ＯＡＰタワー　３６階","town_kana":"テンマバシOAPタワー36カイ","prefecture_code":27},"6037":{"zip_code":"5306037","prefecture":"大阪府","prefecture_kana":"オオサカフ","city":"大阪市北区","city_kana":"オオサカシキタク","town":"天満橋ＯＡＰタワー　３７階","town_kana":"テンマバシOAPタワー37カイ","prefecture_code":27},"6038":{"zip_code":"5306038","prefecture":"大阪府","prefecture_kana":"オオサカフ","city":"大阪市北区","city_kana":"オオサカシキタク","town":"天満橋ＯＡＰタワー　３８階","town_kana":"テンマバシOAPタワー38カイ","prefecture_code":27},"6039":{"zip_code":"5306039","prefecture":"大阪府","prefecture_kana":"オオサカフ","city":"大阪市北区","city_kana":"オオサカシキタク","town":"天満橋ＯＡＰタワー　３９階","town_kana":"テンマバシOAPタワー39カイ","prefecture_code":27},"0003":{"zip_code":"5300003","prefecture":"大阪府","prefecture_kana":"オオサカフ","city":"大阪市北区","city_kana":"オオサカシキタク","town":"堂島","town_kana":"ドウジマ","prefecture_code":27},"0004":{"zip_code":"5300004","prefecture":"大阪府","prefecture_kana":"オオサカフ","city":"大阪市北区","city_kana":"オオサカシキタク","town":"堂島浜","town_kana":"ドウジマハマ","prefecture_code":27},"0035":{"zip_code":"5300035","prefecture":"大阪府","prefecture_kana":"オオサカフ","city":"大阪市北区","city_kana":"オオサカシキタク","town":"同心","town_kana":"ドウシン","prefecture_code":27},"0027":{"zip_code":"5300027","prefecture":"大阪府","prefecture_kana":"オオサカフ","city":"大阪市北区","city_kana":"オオサカシキタク","town":"堂山町","town_kana":"ドウヤマチョウ","prefecture_code":27},"0056":{"zip_code":"5300056","prefecture":"大阪府","prefecture_kana":"オオサカフ","city":"大阪市北区","city_kana":"オオサカシキタク","town":"兎我野町","town_kana":"トガノチョウ","prefecture_code":27},"0016":{"zip_code":"5300016","prefecture":"大阪府","prefecture_kana":"オオサカフ","city":"大阪市北区","city_kana":"オオサカシキタク","town":"中崎","town_kana":"ナカザキ","prefecture_code":27},"0015":{"zip_code":"5300015","prefecture":"大阪府","prefecture_kana":"オオサカフ","city":"大阪市北区","city_kana":"オオサカシキタク","town":"中崎西","town_kana":"ナカザキニシ","prefecture_code":27},"0005":{"zip_code":"5300005","prefecture":"大阪府","prefecture_kana":"オオサカフ","city":"大阪市北区","city_kana":"オオサカシキタク","town":"中之島","town_kana":"ナカノシマ","prefecture_code":27},"6190":{"zip_code":"5306190","prefecture":"大阪府","prefecture_kana":"オオサカフ","city":"大阪市北区","city_kana":"オオサカシキタク","town":"中之島中之島ダイビル","town_kana":"ナカノシマナカノシマダイビル","prefecture_code":27},"6101":{"zip_code":"5306101","prefecture":"大阪府","prefecture_kana":"オオサカフ","city":"大阪市北区","city_kana":"オオサカシキタク","town":"中之島中之島ダイビル　１階","town_kana":"ナカノシマナカノシマダイビル1カイ","prefecture_code":27},"6102":{"zip_code":"5306102","prefecture":"大阪府","prefecture_kana":"オオサカフ","city":"大阪市北区","city_kana":"オオサカシキタク","town":"中之島中之島ダイビル　２階","town_kana":"ナカノシマナカノシマダイビル2カイ","prefecture_code":27},"6103":{"zip_code":"5306103","prefecture":"大阪府","prefecture_kana":"オオサカフ","city":"大阪市北区","city_kana":"オオサカシキタク","town":"中之島中之島ダイビル　３階","town_kana":"ナカノシマナカノシマダイビル3カイ","prefecture_code":27},"6104":{"zip_code":"5306104","prefecture":"大阪府","prefecture_kana":"オオサカフ","city":"大阪市北区","city_kana":"オオサカシキタク","town":"中之島中之島ダイビル　４階","town_kana":"ナカノシマナカノシマダイビル4カイ","prefecture_code":27},"6105":{"zip_code":"5306105","prefecture":"大阪府","prefecture_kana":"オオサカフ","city":"大阪市北区","city_kana":"オオサカシキタク","town":"中之島中之島ダイビル　５階","town_kana":"ナカノシマナカノシマダイビル5カイ","prefecture_code":27},"6106":{"zip_code":"5306106","prefecture":"大阪府","prefecture_kana":"オオサカフ","city":"大阪市北区","city_kana":"オオサカシキタク","town":"中之島中之島ダイビル　６階","town_kana":"ナカノシマナカノシマダイビル6カイ","prefecture_code":27},"6107":{"zip_code":"5306107","prefecture":"大阪府","prefecture_kana":"オオサカフ","city":"大阪市北区","city_kana":"オオサカシキタク","town":"中之島中之島ダイビル　７階","town_kana":"ナカノシマナカノシマダイビル7カイ","prefecture_code":27},"6108":{"zip_code":"5306108","prefecture":"大阪府","prefecture_kana":"オオサカフ","city":"大阪市北区","city_kana":"オオサカシキタク","town":"中之島中之島ダイビル　８階","town_kana":"ナカノシマナカノシマダイビル8カイ","prefecture_code":27},"6109":{"zip_code":"5306109","prefecture":"大阪府","prefecture_kana":"オオサカフ","city":"大阪市北区","city_kana":"オオサカシキタク","town":"中之島中之島ダイビル　９階","town_kana":"ナカノシマナカノシマダイビル9カイ","prefecture_code":27},"6110":{"zip_code":"5306110","prefecture":"大阪府","prefecture_kana":"オオサカフ","city":"大阪市北区","city_kana":"オオサカシキタク","town":"中之島中之島ダイビル　１０階","town_kana":"ナカノシマナカノシマダイビル10カイ","prefecture_code":27},"6111":{"zip_code":"5306111","prefecture":"大阪府","prefecture_kana":"オオサカフ","city":"大阪市北区","city_kana":"オオサカシキタク","town":"中之島中之島ダイビル　１１階","town_kana":"ナカノシマナカノシマダイビル11カイ","prefecture_code":27},"6112":{"zip_code":"5306112","prefecture":"大阪府","prefecture_kana":"オオサカフ","city":"大阪市北区","city_kana":"オオサカシキタク","town":"中之島中之島ダイビル　１２階","town_kana":"ナカノシマナカノシマダイビル12カイ","prefecture_code":27},"6113":{"zip_code":"5306113","prefecture":"大阪府","prefecture_kana":"オオサカフ","city":"大阪市北区","city_kana":"オオサカシキタク","town":"中之島中之島ダイビル　１３階","town_kana":"ナカノシマナカノシマダイビル13カイ","prefecture_code":27},"6114":{"zip_code":"5306114","prefecture":"大阪府","prefecture_kana":"オオサカフ","city":"大阪市北区","city_kana":"オオサカシキタク","town":"中之島中之島ダイビル　１４階","town_kana":"ナカノシマナカノシマダイビル14カイ","prefecture_code":27},"6115":{"zip_code":"5306115","prefecture":"大阪府","prefecture_kana":"オオサカフ","city":"大阪市北区","city_kana":"オオサカシキタク","town":"中之島中之島ダイビル　１５階","town_kana":"ナカノシマナカノシマダイビル15カイ","prefecture_code":27},"6116":{"zip_code":"5306116","prefecture":"大阪府","prefecture_kana":"オオサカフ","city":"大阪市北区","city_kana":"オオサカシキタク","town":"中之島中之島ダイビル　１６階","town_kana":"ナカノシマナカノシマダイビル16カイ","prefecture_code":27},"6117":{"zip_code":"5306117","prefecture":"大阪府","prefecture_kana":"オオサカフ","city":"大阪市北区","city_kana":"オオサカシキタク","town":"中之島中之島ダイビル　１７階","town_kana":"ナカノシマナカノシマダイビル17カイ","prefecture_code":27},"6118":{"zip_code":"5306118","prefecture":"大阪府","prefecture_kana":"オオサカフ","city":"大阪市北区","city_kana":"オオサカシキタク","town":"中之島中之島ダイビル　１８階","town_kana":"ナカノシマナカノシマダイビル18カイ","prefecture_code":27},"6119":{"zip_code":"5306119","prefecture":"大阪府","prefecture_kana":"オオサカフ","city":"大阪市北区","city_kana":"オオサカシキタク","town":"中之島中之島ダイビル　１９階","town_kana":"ナカノシマナカノシマダイビル19カイ","prefecture_code":27},"6120":{"zip_code":"5306120","prefecture":"大阪府","prefecture_kana":"オオサカフ","city":"大阪市北区","city_kana":"オオサカシキタク","town":"中之島中之島ダイビル　２０階","town_kana":"ナカノシマナカノシマダイビル20カイ","prefecture_code":27},"6121":{"zip_code":"5306121","prefecture":"大阪府","prefecture_kana":"オオサカフ","city":"大阪市北区","city_kana":"オオサカシキタク","town":"中之島中之島ダイビル　２１階","town_kana":"ナカノシマナカノシマダイビル21カイ","prefecture_code":27},"6122":{"zip_code":"5306122","prefecture":"大阪府","prefecture_kana":"オオサカフ","city":"大阪市北区","city_kana":"オオサカシキタク","town":"中之島中之島ダイビル　２２階","town_kana":"ナカノシマナカノシマダイビル22カイ","prefecture_code":27},"6123":{"zip_code":"5306123","prefecture":"大阪府","prefecture_kana":"オオサカフ","city":"大阪市北区","city_kana":"オオサカシキタク","town":"中之島中之島ダイビル　２３階","town_kana":"ナカノシマナカノシマダイビル23カイ","prefecture_code":27},"6124":{"zip_code":"5306124","prefecture":"大阪府","prefecture_kana":"オオサカフ","city":"大阪市北区","city_kana":"オオサカシキタク","town":"中之島中之島ダイビル　２４階","town_kana":"ナカノシマナカノシマダイビル24カイ","prefecture_code":27},"6125":{"zip_code":"5306125","prefecture":"大阪府","prefecture_kana":"オオサカフ","city":"大阪市北区","city_kana":"オオサカシキタク","town":"中之島中之島ダイビル　２５階","town_kana":"ナカノシマナカノシマダイビル25カイ","prefecture_code":27},"6126":{"zip_code":"5306126","prefecture":"大阪府","prefecture_kana":"オオサカフ","city":"大阪市北区","city_kana":"オオサカシキタク","town":"中之島中之島ダイビル　２６階","town_kana":"ナカノシマナカノシマダイビル26カイ","prefecture_code":27},"6127":{"zip_code":"5306127","prefecture":"大阪府","prefecture_kana":"オオサカフ","city":"大阪市北区","city_kana":"オオサカシキタク","town":"中之島中之島ダイビル　２７階","town_kana":"ナカノシマナカノシマダイビル27カイ","prefecture_code":27},"6128":{"zip_code":"5306128","prefecture":"大阪府","prefecture_kana":"オオサカフ","city":"大阪市北区","city_kana":"オオサカシキタク","town":"中之島中之島ダイビル　２８階","town_kana":"ナカノシマナカノシマダイビル28カイ","prefecture_code":27},"6129":{"zip_code":"5306129","prefecture":"大阪府","prefecture_kana":"オオサカフ","city":"大阪市北区","city_kana":"オオサカシキタク","town":"中之島中之島ダイビル　２９階","town_kana":"ナカノシマナカノシマダイビル29カイ","prefecture_code":27},"6130":{"zip_code":"5306130","prefecture":"大阪府","prefecture_kana":"オオサカフ","city":"大阪市北区","city_kana":"オオサカシキタク","town":"中之島中之島ダイビル　３０階","town_kana":"ナカノシマナカノシマダイビル30カイ","prefecture_code":27},"6131":{"zip_code":"5306131","prefecture":"大阪府","prefecture_kana":"オオサカフ","city":"大阪市北区","city_kana":"オオサカシキタク","town":"中之島中之島ダイビル　３１階","town_kana":"ナカノシマナカノシマダイビル31カイ","prefecture_code":27},"6132":{"zip_code":"5306132","prefecture":"大阪府","prefecture_kana":"オオサカフ","city":"大阪市北区","city_kana":"オオサカシキタク","town":"中之島中之島ダイビル　３２階","town_kana":"ナカノシマナカノシマダイビル32カイ","prefecture_code":27},"6133":{"zip_code":"5306133","prefecture":"大阪府","prefecture_kana":"オオサカフ","city":"大阪市北区","city_kana":"オオサカシキタク","town":"中之島中之島ダイビル　３３階","town_kana":"ナカノシマナカノシマダイビル33カイ","prefecture_code":27},"6134":{"zip_code":"5306134","prefecture":"大阪府","prefecture_kana":"オオサカフ","city":"大阪市北区","city_kana":"オオサカシキタク","town":"中之島中之島ダイビル　３４階","town_kana":"ナカノシマナカノシマダイビル34カイ","prefecture_code":27},"6135":{"zip_code":"5306135","prefecture":"大阪府","prefecture_kana":"オオサカフ","city":"大阪市北区","city_kana":"オオサカシキタク","town":"中之島中之島ダイビル　３５階","town_kana":"ナカノシマナカノシマダイビル35カイ","prefecture_code":27},"0022":{"zip_code":"5300022","prefecture":"大阪府","prefecture_kana":"オオサカフ","city":"大阪市北区","city_kana":"オオサカシキタク","town":"浪花町","town_kana":"ナニワチョウ","prefecture_code":27},"0034":{"zip_code":"5300034","prefecture":"大阪府","prefecture_kana":"オオサカフ","city":"大阪市北区","city_kana":"オオサカシキタク","town":"錦町","town_kana":"ニシキチョウ","prefecture_code":27},"0047":{"zip_code":"5300047","prefecture":"大阪府","prefecture_kana":"オオサカフ","city":"大阪市北区","city_kana":"オオサカシキタク","town":"西天満","town_kana":"ニシテンマ","prefecture_code":27},"0055":{"zip_code":"5300055","prefecture":"大阪府","prefecture_kana":"オオサカフ","city":"大阪市北区","city_kana":"オオサカシキタク","town":"野崎町","town_kana":"ノザキチョウ","prefecture_code":27},"0028":{"zip_code":"5300028","prefecture":"大阪府","prefecture_kana":"オオサカフ","city":"大阪市北区","city_kana":"オオサカシキタク","town":"万歳町","town_kana":"バンザイチョウ","prefecture_code":27},"0044":{"zip_code":"5300044","prefecture":"大阪府","prefecture_kana":"オオサカフ","city":"大阪市北区","city_kana":"オオサカシキタク","town":"東天満","town_kana":"ヒガシテンマ","prefecture_code":27},"0032":{"zip_code":"5300032","prefecture":"大阪府","prefecture_kana":"オオサカフ","city":"大阪市北区","city_kana":"オオサカシキタク","town":"樋之口町","town_kana":"ヒノクチチョウ","prefecture_code":27},"0037":{"zip_code":"5300037","prefecture":"大阪府","prefecture_kana":"オオサカフ","city":"大阪市北区","city_kana":"オオサカシキタク","town":"松ケ枝町","town_kana":"マツガエチョウ","prefecture_code":27},"0052":{"zip_code":"5300052","prefecture":"大阪府","prefecture_kana":"オオサカフ","city":"大阪市北区","city_kana":"オオサカシキタク","town":"南扇町","town_kana":"ミナミオウギマチ","prefecture_code":27},"0054":{"zip_code":"5300054","prefecture":"大阪府","prefecture_kana":"オオサカフ","city":"大阪市北区","city_kana":"オオサカシキタク","town":"南森町","town_kana":"ミナミモリマチ","prefecture_code":27},"0024":{"zip_code":"5300024","prefecture":"大阪府","prefecture_kana":"オオサカフ","city":"大阪市北区","city_kana":"オオサカシキタク","town":"山崎町","town_kana":"ヤマザキチョウ","prefecture_code":27},"0036":{"zip_code":"5300036","prefecture":"大阪府","prefecture_kana":"オオサカフ","city":"大阪市北区","city_kana":"オオサカシキタク","town":"与力町","town_kana":"ヨリキマチ","prefecture_code":27}}