{"0000":{"zip_code":"5320000","prefecture":"大阪府","prefecture_kana":"オオサカフ","city":"大阪市淀川区","city_kana":"オオサカシヨドガワク","town":"","town_kana":"","prefecture_code":27},"0031":{"zip_code":"5320031","prefecture":"大阪府","prefecture_kana":"オオサカフ","city":"大阪市淀川区","city_kana":"オオサカシヨドガワク","town":"加島","town_kana":"カシマ","prefecture_code":27},"0012":{"zip_code":"5320012","prefecture":"大阪府","prefecture_kana":"オオサカフ","city":"大阪市淀川区","city_kana":"オオサカシヨドガワク","town":"木川東","town_kana":"キカワヒガシ","prefecture_code":27},"0013":{"zip_code":"5320013","prefecture":"大阪府","prefecture_kana":"オオサカフ","city":"大阪市淀川区","city_kana":"オオサカシヨドガワク","town":"木川西","town_kana":"キカワニシ","prefecture_code":27},"0025":{"zip_code":"5320025","prefecture":"大阪府","prefecture_kana":"オオサカフ","city":"大阪市淀川区","city_kana":"オオサカシヨドガワク","town":"新北野","town_kana":"シンキタノ","prefecture_code":27},"0024":{"zip_code":"5320024","prefecture":"大阪府","prefecture_kana":"オオサカフ","city":"大阪市淀川区","city_kana":"オオサカシヨドガワク","town":"十三本町","town_kana":"ジュウソウホンマチ","prefecture_code":27},"0028":{"zip_code":"5320028","prefecture":"大阪府","prefecture_kana":"オオサカフ","city":"大阪市淀川区","city_kana":"オオサカシヨドガワク","town":"十三元今里","town_kana":"ジュウソウモトイマザト","prefecture_code":27},"0023":{"zip_code":"5320023","prefecture":"大阪府","prefecture_kana":"オオサカフ","city":"大阪市淀川区","city_kana":"オオサカシヨドガワク","town":"十三東","town_kana":"ジュウソウヒガシ","prefecture_code":27},"0001":{"zip_code":"5320001","prefecture":"大阪府","prefecture_kana":"オオサカフ","city":"大阪市淀川区","city_kana":"オオサカシヨドガワク","town":"十八条","town_kana":"ジュウハチジョウ","prefecture_code":27},"0027":{"zip_code":"5320027","prefecture":"大阪府","prefecture_kana":"オオサカフ","city":"大阪市淀川区","city_kana":"オオサカシヨドガワク","town":"田川","town_kana":"タガワ","prefecture_code":27},"0021":{"zip_code":"5320021","prefecture":"大阪府","prefecture_kana":"オオサカフ","city":"大阪市淀川区","city_kana":"オオサカシヨドガワク","town":"田川北","town_kana":"タガワキタ","prefecture_code":27},"0026":{"zip_code":"5320026","prefecture":"大阪府","prefecture_kana":"オオサカフ","city":"大阪市淀川区","city_kana":"オオサカシヨドガワク","town":"塚本","town_kana":"ツカモト","prefecture_code":27},"0033":{"zip_code":"5320033","prefecture":"大阪府","prefecture_kana":"オオサカフ","city":"大阪市淀川区","city_kana":"オオサカシヨドガワク","town":"新高","town_kana":"ニイタカ","prefecture_code":27},"0011":{"zip_code":"5320011","prefecture":"大阪府","prefecture_kana":"オオサカフ","city":"大阪市淀川区","city_kana":"オオサカシヨドガワク","town":"西中島","town_kana":"ニシナカジマ","prefecture_code":27},"0006":{"zip_code":"5320006","prefecture":"大阪府","prefecture_kana":"オオサカフ","city":"大阪市淀川区","city_kana":"オオサカシヨドガワク","town":"西三国","town_kana":"ニシミクニ","prefecture_code":27},"0004":{"zip_code":"5320004","prefecture":"大阪府","prefecture_kana":"オオサカフ","city":"大阪市淀川区","city_kana":"オオサカシヨドガワク","town":"西宮原","town_kana":"ニシミヤハラ","prefecture_code":27},"0022":{"zip_code":"5320022","prefecture":"大阪府","prefecture_kana":"オオサカフ","city":"大阪市淀川区","city_kana":"オオサカシヨドガワク","town":"野中南","town_kana":"ノナカミナミ","prefecture_code":27},"0034":{"zip_code":"5320034","prefecture":"大阪府","prefecture_kana":"オオサカフ","city":"大阪市淀川区","city_kana":"オオサカシヨドガワク","town":"野中北","town_kana":"ノナカキタ","prefecture_code":27},"0002":{"zip_code":"5320002","prefecture":"大阪府","prefecture_kana":"オオサカフ","city":"大阪市淀川区","city_kana":"オオサカシヨドガワク","town":"東三国","town_kana":"ヒガシミクニ","prefecture_code":27},"0005":{"zip_code":"5320005","prefecture":"大阪府","prefecture_kana":"オオサカフ","city":"大阪市淀川区","city_kana":"オオサカシヨドガワク","town":"三国本町","town_kana":"ミクニホンマチ","prefecture_code":27},"0036":{"zip_code":"5320036","prefecture":"大阪府","prefecture_kana":"オオサカフ","city":"大阪市淀川区","city_kana":"オオサカシヨドガワク","town":"三津屋中","town_kana":"ミツヤナカ","prefecture_code":27},"0035":{"zip_code":"5320035","prefecture":"大阪府","prefecture_kana":"オオサカフ","city":"大阪市淀川区","city_kana":"オオサカシヨドガワク","town":"三津屋南","town_kana":"ミツヤミナミ","prefecture_code":27},"0032":{"zip_code":"5320032","prefecture":"大阪府","prefecture_kana":"オオサカフ","city":"大阪市淀川区","city_kana":"オオサカシヨドガワク","town":"三津屋北","town_kana":"ミツヤキタ","prefecture_code":27},"0003":{"zip_code":"5320003","prefecture":"大阪府","prefecture_kana":"オオサカフ","city":"大阪市淀川区","city_kana":"オオサカシヨドガワク","town":"宮原","town_kana":"ミヤハラ","prefecture_code":27}}