{"0000":{"zip_code":"5330000","prefecture":"大阪府","prefecture_kana":"オオサカフ","city":"大阪市東淀川区","city_kana":"オオサカシヒガシヨドガワク","town":"以下に掲載がない場合","town_kana":"イカニケイサイガナイバアイ","prefecture_code":27},"0007":{"zip_code":"5330007","prefecture":"大阪府","prefecture_kana":"オオサカフ","city":"大阪市東淀川区","city_kana":"オオサカシヒガシヨドガワク","town":"相川","town_kana":"アイカワ","prefecture_code":27},"0032":{"zip_code":"5330032","prefecture":"大阪府","prefecture_kana":"オオサカフ","city":"大阪市東淀川区","city_kana":"オオサカシヒガシヨドガワク","town":"淡路","town_kana":"アワジ","prefecture_code":27},"0001":{"zip_code":"5330001","prefecture":"大阪府","prefecture_kana":"オオサカフ","city":"大阪市東淀川区","city_kana":"オオサカシヒガシヨドガワク","town":"井高野","town_kana":"イタカノ","prefecture_code":27},"0015":{"zip_code":"5330015","prefecture":"大阪府","prefecture_kana":"オオサカフ","city":"大阪市東淀川区","city_kana":"オオサカシヒガシヨドガワク","town":"大隅","town_kana":"オオスミ","prefecture_code":27},"0006":{"zip_code":"5330006","prefecture":"大阪府","prefecture_kana":"オオサカフ","city":"大阪市東淀川区","city_kana":"オオサカシヒガシヨドガワク","town":"上新庄","town_kana":"カミシンジョウ","prefecture_code":27},"0002":{"zip_code":"5330002","prefecture":"大阪府","prefecture_kana":"オオサカフ","city":"大阪市東淀川区","city_kana":"オオサカシヒガシヨドガワク","town":"北江口","town_kana":"キタエグチ","prefecture_code":27},"0024":{"zip_code":"5330024","prefecture":"大阪府","prefecture_kana":"オオサカフ","city":"大阪市東淀川区","city_kana":"オオサカシヒガシヨドガワク","town":"柴島","town_kana":"クニジマ","prefecture_code":27},"0004":{"zip_code":"5330004","prefecture":"大阪府","prefecture_kana":"オオサカフ","city":"大阪市東淀川区","city_kana":"オオサカシヒガシヨドガワク","town":"小松","town_kana":"コマツ","prefecture_code":27},"0021":{"zip_code":"5330021","prefecture":"大阪府","prefecture_kana":"オオサカフ","city":"大阪市東淀川区","city_kana":"オオサカシヒガシヨドガワク","town":"下新庄","town_kana":"シモシンジョウ","prefecture_code":27},"0005":{"zip_code":"5330005","prefecture":"大阪府","prefecture_kana":"オオサカフ","city":"大阪市東淀川区","city_kana":"オオサカシヒガシヨドガワク","town":"瑞光","town_kana":"ズイコウ","prefecture_code":27},"0022":{"zip_code":"5330022","prefecture":"大阪府","prefecture_kana":"オオサカフ","city":"大阪市東淀川区","city_kana":"オオサカシヒガシヨドガワク","town":"菅原","town_kana":"スガハラ","prefecture_code":27},"0011":{"zip_code":"5330011","prefecture":"大阪府","prefecture_kana":"オオサカフ","city":"大阪市東淀川区","city_kana":"オオサカシヒガシヨドガワク","town":"大桐","town_kana":"ダイドウ","prefecture_code":27},"0012":{"zip_code":"5330012","prefecture":"大阪府","prefecture_kana":"オオサカフ","city":"大阪市東淀川区","city_kana":"オオサカシヒガシヨドガワク","town":"大道南","town_kana":"ダイドウミナミ","prefecture_code":27},"0013":{"zip_code":"5330013","prefecture":"大阪府","prefecture_kana":"オオサカフ","city":"大阪市東淀川区","city_kana":"オオサカシヒガシヨドガワク","town":"豊里","town_kana":"トヨサト","prefecture_code":27},"0031":{"zip_code":"5330031","prefecture":"大阪府","prefecture_kana":"オオサカフ","city":"大阪市東淀川区","city_kana":"オオサカシヒガシヨドガワク","town":"西淡路","town_kana":"ニシアワジ","prefecture_code":27},"0023":{"zip_code":"5330023","prefecture":"大阪府","prefecture_kana":"オオサカフ","city":"大阪市東淀川区","city_kana":"オオサカシヒガシヨドガワク","town":"東淡路","town_kana":"ヒガシアワジ","prefecture_code":27},"0033":{"zip_code":"5330033","prefecture":"大阪府","prefecture_kana":"オオサカフ","city":"大阪市東淀川区","city_kana":"オオサカシヒガシヨドガワク","town":"東中島","town_kana":"ヒガシナカジマ","prefecture_code":27},"0014":{"zip_code":"5330014","prefecture":"大阪府","prefecture_kana":"オオサカフ","city":"大阪市東淀川区","city_kana":"オオサカシヒガシヨドガワク","town":"豊新","town_kana":"ホウシン","prefecture_code":27},"0003":{"zip_code":"5330003","prefecture":"大阪府","prefecture_kana":"オオサカフ","city":"大阪市東淀川区","city_kana":"オオサカシヒガシヨドガワク","town":"南江口","town_kana":"ミナミエグチ","prefecture_code":27}}