{"0000":{"zip_code":"5350000","prefecture":"大阪府","prefecture_kana":"オオサカフ","city":"大阪市旭区","city_kana":"オオサカシアサヒク","town":"","town_kana":"","prefecture_code":27},"0005":{"zip_code":"5350005","prefecture":"大阪府","prefecture_kana":"オオサカフ","city":"大阪市旭区","city_kana":"オオサカシアサヒク","town":"赤川","town_kana":"アカガワ","prefecture_code":27},"0004":{"zip_code":"5350004","prefecture":"大阪府","prefecture_kana":"オオサカフ","city":"大阪市旭区","city_kana":"オオサカシアサヒク","town":"生江","town_kana":"イクエ","prefecture_code":27},"0011":{"zip_code":"5350011","prefecture":"大阪府","prefecture_kana":"オオサカフ","city":"大阪市旭区","city_kana":"オオサカシアサヒク","town":"今市","town_kana":"イマイチ","prefecture_code":27},"0002":{"zip_code":"5350002","prefecture":"大阪府","prefecture_kana":"オオサカフ","city":"大阪市旭区","city_kana":"オオサカシアサヒク","town":"大宮","town_kana":"オオミヤ","prefecture_code":27},"0021":{"zip_code":"5350021","prefecture":"大阪府","prefecture_kana":"オオサカフ","city":"大阪市旭区","city_kana":"オオサカシアサヒク","town":"清水","town_kana":"シミズ","prefecture_code":27},"0022":{"zip_code":"5350022","prefecture":"大阪府","prefecture_kana":"オオサカフ","city":"大阪市旭区","city_kana":"オオサカシアサヒク","town":"新森","town_kana":"シンモリ","prefecture_code":27},"0012":{"zip_code":"5350012","prefecture":"大阪府","prefecture_kana":"オオサカフ","city":"大阪市旭区","city_kana":"オオサカシアサヒク","town":"千林","town_kana":"センバヤシ","prefecture_code":27},"0001":{"zip_code":"5350001","prefecture":"大阪府","prefecture_kana":"オオサカフ","city":"大阪市旭区","city_kana":"オオサカシアサヒク","town":"太子橋","town_kana":"タイシバシ","prefecture_code":27},"0031":{"zip_code":"5350031","prefecture":"大阪府","prefecture_kana":"オオサカフ","city":"大阪市旭区","city_kana":"オオサカシアサヒク","town":"高殿","town_kana":"タカドノ","prefecture_code":27},"0003":{"zip_code":"5350003","prefecture":"大阪府","prefecture_kana":"オオサカフ","city":"大阪市旭区","city_kana":"オオサカシアサヒク","town":"中宮","town_kana":"ナカミヤ","prefecture_code":27},"0013":{"zip_code":"5350013","prefecture":"大阪府","prefecture_kana":"オオサカフ","city":"大阪市旭区","city_kana":"オオサカシアサヒク","town":"森小路","town_kana":"モリショウジ","prefecture_code":27}}