{"0000":{"zip_code":"5360000","prefecture":"大阪府","prefecture_kana":"オオサカフ","city":"大阪市城東区","city_kana":"オオサカシジョウトウク","town":"","town_kana":"","prefecture_code":27},"0002":{"zip_code":"5360002","prefecture":"大阪府","prefecture_kana":"オオサカフ","city":"大阪市城東区","city_kana":"オオサカシジョウトウク","town":"今福東","town_kana":"イマフクヒガシ","prefecture_code":27},"0004":{"zip_code":"5360004","prefecture":"大阪府","prefecture_kana":"オオサカフ","city":"大阪市城東区","city_kana":"オオサカシジョウトウク","town":"今福西","town_kana":"イマフクニシ","prefecture_code":27},"0003":{"zip_code":"5360003","prefecture":"大阪府","prefecture_kana":"オオサカフ","city":"大阪市城東区","city_kana":"オオサカシジョウトウク","town":"今福南","town_kana":"イマフクミナミ","prefecture_code":27},"0016":{"zip_code":"5360016","prefecture":"大阪府","prefecture_kana":"オオサカフ","city":"大阪市城東区","city_kana":"オオサカシジョウトウク","town":"蒲生","town_kana":"ガモウ","prefecture_code":27},"0015":{"zip_code":"5360015","prefecture":"大阪府","prefecture_kana":"オオサカフ","city":"大阪市城東区","city_kana":"オオサカシジョウトウク","town":"新喜多","town_kana":"シギタ","prefecture_code":27},"0017":{"zip_code":"5360017","prefecture":"大阪府","prefecture_kana":"オオサカフ","city":"大阪市城東区","city_kana":"オオサカシジョウトウク","town":"新喜多東","town_kana":"シギタヒガシ","prefecture_code":27},"0013":{"zip_code":"5360013","prefecture":"大阪府","prefecture_kana":"オオサカフ","city":"大阪市城東区","city_kana":"オオサカシジョウトウク","town":"鴫野東","town_kana":"シギノヒガシ","prefecture_code":27},"0014":{"zip_code":"5360014","prefecture":"大阪府","prefecture_kana":"オオサカフ","city":"大阪市城東区","city_kana":"オオサカシジョウトウク","town":"鴫野西","town_kana":"シギノニシ","prefecture_code":27},"0021":{"zip_code":"5360021","prefecture":"大阪府","prefecture_kana":"オオサカフ","city":"大阪市城東区","city_kana":"オオサカシジョウトウク","town":"諏訪","town_kana":"スワ","prefecture_code":27},"0007":{"zip_code":"5360007","prefecture":"大阪府","prefecture_kana":"オオサカフ","city":"大阪市城東区","city_kana":"オオサカシジョウトウク","town":"成育","town_kana":"セイイク","prefecture_code":27},"0008":{"zip_code":"5360008","prefecture":"大阪府","prefecture_kana":"オオサカフ","city":"大阪市城東区","city_kana":"オオサカシジョウトウク","town":"関目","town_kana":"セキメ","prefecture_code":27},"0005":{"zip_code":"5360005","prefecture":"大阪府","prefecture_kana":"オオサカフ","city":"大阪市城東区","city_kana":"オオサカシジョウトウク","town":"中央","town_kana":"チュウオウ","prefecture_code":27},"0012":{"zip_code":"5360012","prefecture":"大阪府","prefecture_kana":"オオサカフ","city":"大阪市城東区","city_kana":"オオサカシジョウトウク","town":"天王田","town_kana":"テンノウデン","prefecture_code":27},"0024":{"zip_code":"5360024","prefecture":"大阪府","prefecture_kana":"オオサカフ","city":"大阪市城東区","city_kana":"オオサカシジョウトウク","town":"中浜","town_kana":"ナカハマ","prefecture_code":27},"0022":{"zip_code":"5360022","prefecture":"大阪府","prefecture_kana":"オオサカフ","city":"大阪市城東区","city_kana":"オオサカシジョウトウク","town":"永田","town_kana":"ナガタ","prefecture_code":27},"0006":{"zip_code":"5360006","prefecture":"大阪府","prefecture_kana":"オオサカフ","city":"大阪市城東区","city_kana":"オオサカシジョウトウク","town":"野江","town_kana":"ノエ","prefecture_code":27},"0011":{"zip_code":"5360011","prefecture":"大阪府","prefecture_kana":"オオサカフ","city":"大阪市城東区","city_kana":"オオサカシジョウトウク","town":"放出西","town_kana":"ハナテンニシ","prefecture_code":27},"0023":{"zip_code":"5360023","prefecture":"大阪府","prefecture_kana":"オオサカフ","city":"大阪市城東区","city_kana":"オオサカシジョウトウク","town":"東中浜","town_kana":"ヒガシナカハマ","prefecture_code":27},"0001":{"zip_code":"5360001","prefecture":"大阪府","prefecture_kana":"オオサカフ","city":"大阪市城東区","city_kana":"オオサカシジョウトウク","town":"古市","town_kana":"フルイチ","prefecture_code":27},"0025":{"zip_code":"5360025","prefecture":"大阪府","prefecture_kana":"オオサカフ","city":"大阪市城東区","city_kana":"オオサカシジョウトウク","town":"森之宮","town_kana":"モリノミヤ","prefecture_code":27}}