{"0000":{"zip_code":"5380000","prefecture":"大阪府","prefecture_kana":"オオサカフ","city":"大阪市鶴見区","city_kana":"オオサカシツルミク","town":"","town_kana":"","prefecture_code":27},"0042":{"zip_code":"5380042","prefecture":"大阪府","prefecture_kana":"オオサカフ","city":"大阪市鶴見区","city_kana":"オオサカシツルミク","town":"今津中","town_kana":"イマヅナカ","prefecture_code":27},"0043":{"zip_code":"5380043","prefecture":"大阪府","prefecture_kana":"オオサカフ","city":"大阪市鶴見区","city_kana":"オオサカシツルミク","town":"今津南","town_kana":"イマヅミナミ","prefecture_code":27},"0041":{"zip_code":"5380041","prefecture":"大阪府","prefecture_kana":"オオサカフ","city":"大阪市鶴見区","city_kana":"オオサカシツルミク","town":"今津北","town_kana":"イマヅキタ","prefecture_code":27},"0053":{"zip_code":"5380053","prefecture":"大阪府","prefecture_kana":"オオサカフ","city":"大阪市鶴見区","city_kana":"オオサカシツルミク","town":"鶴見","town_kana":"ツルミ","prefecture_code":27},"0034":{"zip_code":"5380034","prefecture":"大阪府","prefecture_kana":"オオサカフ","city":"大阪市鶴見区","city_kana":"オオサカシツルミク","town":"徳庵","town_kana":"トクアン","prefecture_code":27},"0033":{"zip_code":"5380033","prefecture":"大阪府","prefecture_kana":"オオサカフ","city":"大阪市鶴見区","city_kana":"オオサカシツルミク","town":"中茶屋","town_kana":"ナカノチャヤ","prefecture_code":27},"0044":{"zip_code":"5380044","prefecture":"大阪府","prefecture_kana":"オオサカフ","city":"大阪市鶴見区","city_kana":"オオサカシツルミク","town":"放出東","town_kana":"ハナテンヒガシ","prefecture_code":27},"0035":{"zip_code":"5380035","prefecture":"大阪府","prefecture_kana":"オオサカフ","city":"大阪市鶴見区","city_kana":"オオサカシツルミク","town":"浜","town_kana":"ハマ","prefecture_code":27},"0031":{"zip_code":"5380031","prefecture":"大阪府","prefecture_kana":"オオサカフ","city":"大阪市鶴見区","city_kana":"オオサカシツルミク","town":"茨田大宮","town_kana":"マッタオオミヤ","prefecture_code":27},"0054":{"zip_code":"5380054","prefecture":"大阪府","prefecture_kana":"オオサカフ","city":"大阪市鶴見区","city_kana":"オオサカシツルミク","town":"緑","town_kana":"ミドリ","prefecture_code":27},"0051":{"zip_code":"5380051","prefecture":"大阪府","prefecture_kana":"オオサカフ","city":"大阪市鶴見区","city_kana":"オオサカシツルミク","town":"諸口","town_kana":"モロクチ","prefecture_code":27},"0037":{"zip_code":"5380037","prefecture":"大阪府","prefecture_kana":"オオサカフ","city":"大阪市鶴見区","city_kana":"オオサカシツルミク","town":"焼野","town_kana":"ヤケノ","prefecture_code":27},"0032":{"zip_code":"5380032","prefecture":"大阪府","prefecture_kana":"オオサカフ","city":"大阪市鶴見区","city_kana":"オオサカシツルミク","town":"安田","town_kana":"ヤスダ","prefecture_code":27},"0052":{"zip_code":"5380052","prefecture":"大阪府","prefecture_kana":"オオサカフ","city":"大阪市鶴見区","city_kana":"オオサカシツルミク","town":"横堤","town_kana":"ヨコヅツミ","prefecture_code":27},"0036":{"zip_code":"5380036","prefecture":"大阪府","prefecture_kana":"オオサカフ","city":"大阪市鶴見区","city_kana":"オオサカシツルミク","town":"緑地公園","town_kana":"リョクチコウエン","prefecture_code":27}}