{"0061":{"zip_code":"5420061","prefecture":"大阪府","prefecture_kana":"オオサカフ","city":"大阪市中央区","city_kana":"オオサカシチュウオウク","town":"安堂寺町","town_kana":"アンドウジマチ","prefecture_code":27},"0064":{"zip_code":"5420064","prefecture":"大阪府","prefecture_kana":"オオサカフ","city":"大阪市中央区","city_kana":"オオサカシチュウオウク","town":"上汐","town_kana":"ウエシオ","prefecture_code":27},"0062":{"zip_code":"5420062","prefecture":"大阪府","prefecture_kana":"オオサカフ","city":"大阪市中央区","city_kana":"オオサカシチュウオウク","town":"上本町西","town_kana":"ウエホンマチニシ","prefecture_code":27},"0066":{"zip_code":"5420066","prefecture":"大阪府","prefecture_kana":"オオサカフ","city":"大阪市中央区","city_kana":"オオサカシチュウオウク","town":"瓦屋町","town_kana":"カワラヤマチ","prefecture_code":27},"0072":{"zip_code":"5420072","prefecture":"大阪府","prefecture_kana":"オオサカフ","city":"大阪市中央区","city_kana":"オオサカシチュウオウク","town":"高津","town_kana":"コウヅ","prefecture_code":27},"0082":{"zip_code":"5420082","prefecture":"大阪府","prefecture_kana":"オオサカフ","city":"大阪市中央区","city_kana":"オオサカシチュウオウク","town":"島之内","town_kana":"シマノウチ","prefecture_code":27},"0085":{"zip_code":"5420085","prefecture":"大阪府","prefecture_kana":"オオサカフ","city":"大阪市中央区","city_kana":"オオサカシチュウオウク","town":"心斎橋筋","town_kana":"シンサイバシスジ","prefecture_code":27},"0074":{"zip_code":"5420074","prefecture":"大阪府","prefecture_kana":"オオサカフ","city":"大阪市中央区","city_kana":"オオサカシチュウオウク","town":"千日前","town_kana":"センニチマエ","prefecture_code":27},"0084":{"zip_code":"5420084","prefecture":"大阪府","prefecture_kana":"オオサカフ","city":"大阪市中央区","city_kana":"オオサカシチュウオウク","town":"宗右衛門町","town_kana":"ソウエモンチョウ","prefecture_code":27},"0012":{"zip_code":"5420012","prefecture":"大阪府","prefecture_kana":"オオサカフ","city":"大阪市中央区","city_kana":"オオサカシチュウオウク","town":"谷町","town_kana":"タニマチ","prefecture_code":27},"0063":{"zip_code":"5420063","prefecture":"大阪府","prefecture_kana":"オオサカフ","city":"大阪市中央区","city_kana":"オオサカシチュウオウク","town":"東平","town_kana":"トウヘイ","prefecture_code":27},"0077":{"zip_code":"5420077","prefecture":"大阪府","prefecture_kana":"オオサカフ","city":"大阪市中央区","city_kana":"オオサカシチュウオウク","town":"道頓堀","town_kana":"ドウトンボリ","prefecture_code":27},"0071":{"zip_code":"5420071","prefecture":"大阪府","prefecture_kana":"オオサカフ","city":"大阪市中央区","city_kana":"オオサカシチュウオウク","town":"道頓堀","town_kana":"ドウトンボリ","prefecture_code":27},"0065":{"zip_code":"5420065","prefecture":"大阪府","prefecture_kana":"オオサカフ","city":"大阪市中央区","city_kana":"オオサカシチュウオウク","town":"中寺","town_kana":"ナカデラ","prefecture_code":27},"0076":{"zip_code":"5420076","prefecture":"大阪府","prefecture_kana":"オオサカフ","city":"大阪市中央区","city_kana":"オオサカシチュウオウク","town":"難波","town_kana":"ナンバ","prefecture_code":27},"0075":{"zip_code":"5420075","prefecture":"大阪府","prefecture_kana":"オオサカフ","city":"大阪市中央区","city_kana":"オオサカシチュウオウク","town":"難波千日前","town_kana":"ナンバセンニチマエ","prefecture_code":27},"0086":{"zip_code":"5420086","prefecture":"大阪府","prefecture_kana":"オオサカフ","city":"大阪市中央区","city_kana":"オオサカシチュウオウク","town":"西心斎橋","town_kana":"ニシシンサイバシ","prefecture_code":27},"0073":{"zip_code":"5420073","prefecture":"大阪府","prefecture_kana":"オオサカフ","city":"大阪市中央区","city_kana":"オオサカシチュウオウク","town":"日本橋","town_kana":"ニッポンバシ","prefecture_code":27},"0083":{"zip_code":"5420083","prefecture":"大阪府","prefecture_kana":"オオサカフ","city":"大阪市中央区","city_kana":"オオサカシチュウオウク","town":"東心斎橋","town_kana":"ヒガシシンサイバシ","prefecture_code":27},"0067":{"zip_code":"5420067","prefecture":"大阪府","prefecture_kana":"オオサカフ","city":"大阪市中央区","city_kana":"オオサカシチュウオウク","town":"松屋町","town_kana":"マツヤマチ","prefecture_code":27},"0081":{"zip_code":"5420081","prefecture":"大阪府","prefecture_kana":"オオサカフ","city":"大阪市中央区","city_kana":"オオサカシチュウオウク","town":"南船場","town_kana":"ミナミセンバ","prefecture_code":27}}