{"0000":{"zip_code":"5430000","prefecture":"大阪府","prefecture_kana":"オオサカフ","city":"大阪市天王寺区","city_kana":"オオサカシテンノウジク","town":"","town_kana":"","prefecture_code":27},"0023":{"zip_code":"5430023","prefecture":"大阪府","prefecture_kana":"オオサカフ","city":"大阪市天王寺区","city_kana":"オオサカシテンノウジク","town":"味原町","town_kana":"アジハラチョウ","prefecture_code":27},"0022":{"zip_code":"5430022","prefecture":"大阪府","prefecture_kana":"オオサカフ","city":"大阪市天王寺区","city_kana":"オオサカシテンノウジク","town":"味原本町","town_kana":"アジハラホンマチ","prefecture_code":27},"0073":{"zip_code":"5430073","prefecture":"大阪府","prefecture_kana":"オオサカフ","city":"大阪市天王寺区","city_kana":"オオサカシテンノウジク","town":"生玉寺町","town_kana":"イクタマテラマチ","prefecture_code":27},"0072":{"zip_code":"5430072","prefecture":"大阪府","prefecture_kana":"オオサカフ","city":"大阪市天王寺区","city_kana":"オオサカシテンノウジク","town":"生玉前町","town_kana":"イクタママエマチ","prefecture_code":27},"0071":{"zip_code":"5430071","prefecture":"大阪府","prefecture_kana":"オオサカフ","city":"大阪市天王寺区","city_kana":"オオサカシテンノウジク","town":"生玉町","town_kana":"イクタマチョウ","prefecture_code":27},"0031":{"zip_code":"5430031","prefecture":"大阪府","prefecture_kana":"オオサカフ","city":"大阪市天王寺区","city_kana":"オオサカシテンノウジク","town":"石ケ辻町","town_kana":"イシガツジチョウ","prefecture_code":27},"0002":{"zip_code":"5430002","prefecture":"大阪府","prefecture_kana":"オオサカフ","city":"大阪市天王寺区","city_kana":"オオサカシテンノウジク","town":"上汐","town_kana":"ウエシオ","prefecture_code":27},"0037":{"zip_code":"5430037","prefecture":"大阪府","prefecture_kana":"オオサカフ","city":"大阪市天王寺区","city_kana":"オオサカシテンノウジク","town":"上之宮町","town_kana":"ウエノミヤチョウ","prefecture_code":27},"0001":{"zip_code":"5430001","prefecture":"大阪府","prefecture_kana":"オオサカフ","city":"大阪市天王寺区","city_kana":"オオサカシテンノウジク","town":"上本町","town_kana":"ウエホンマチ","prefecture_code":27},"0016":{"zip_code":"5430016","prefecture":"大阪府","prefecture_kana":"オオサカフ","city":"大阪市天王寺区","city_kana":"オオサカシテンノウジク","town":"餌差町","town_kana":"エサシマチ","prefecture_code":27},"0062":{"zip_code":"5430062","prefecture":"大阪府","prefecture_kana":"オオサカフ","city":"大阪市天王寺区","city_kana":"オオサカシテンノウジク","town":"逢阪","town_kana":"オウサカ","prefecture_code":27},"0028":{"zip_code":"5430028","prefecture":"大阪府","prefecture_kana":"オオサカフ","city":"大阪市天王寺区","city_kana":"オオサカシテンノウジク","town":"小橋町","town_kana":"オバセチョウ","prefecture_code":27},"0043":{"zip_code":"5430043","prefecture":"大阪府","prefecture_kana":"オオサカフ","city":"大阪市天王寺区","city_kana":"オオサカシテンノウジク","town":"勝山","town_kana":"カツヤマ","prefecture_code":27},"0018":{"zip_code":"5430018","prefecture":"大阪府","prefecture_kana":"オオサカフ","city":"大阪市天王寺区","city_kana":"オオサカシテンノウジク","town":"空清町","town_kana":"カラキヨチョウ","prefecture_code":27},"0042":{"zip_code":"5430042","prefecture":"大阪府","prefecture_kana":"オオサカフ","city":"大阪市天王寺区","city_kana":"オオサカシテンノウジク","town":"烏ケ辻","town_kana":"カラスガツジ","prefecture_code":27},"0012":{"zip_code":"5430012","prefecture":"大阪府","prefecture_kana":"オオサカフ","city":"大阪市天王寺区","city_kana":"オオサカシテンノウジク","town":"空堀町","town_kana":"カラホリチョウ","prefecture_code":27},"0053":{"zip_code":"5430053","prefecture":"大阪府","prefecture_kana":"オオサカフ","city":"大阪市天王寺区","city_kana":"オオサカシテンノウジク","town":"北河堀町","town_kana":"キタカワホリチョウ","prefecture_code":27},"0035":{"zip_code":"5430035","prefecture":"大阪府","prefecture_kana":"オオサカフ","city":"大阪市天王寺区","city_kana":"オオサカシテンノウジク","town":"北山町","town_kana":"キタヤマチョウ","prefecture_code":27},"0044":{"zip_code":"5430044","prefecture":"大阪府","prefecture_kana":"オオサカフ","city":"大阪市天王寺区","city_kana":"オオサカシテンノウジク","town":"国分町","town_kana":"コクブチョウ","prefecture_code":27},"0036":{"zip_code":"5430036","prefecture":"大阪府","prefecture_kana":"オオサカフ","city":"大阪市天王寺区","city_kana":"オオサカシテンノウジク","town":"小宮町","town_kana":"コミヤチョウ","prefecture_code":27},"0032":{"zip_code":"5430032","prefecture":"大阪府","prefecture_kana":"オオサカフ","city":"大阪市天王寺区","city_kana":"オオサカシテンノウジク","town":"細工谷","town_kana":"サイクダニ","prefecture_code":27},"0015":{"zip_code":"5430015","prefecture":"大阪府","prefecture_kana":"オオサカフ","city":"大阪市天王寺区","city_kana":"オオサカシテンノウジク","town":"真田山町","town_kana":"サナダヤマチョウ","prefecture_code":27},"0076":{"zip_code":"5430076","prefecture":"大阪府","prefecture_kana":"オオサカフ","city":"大阪市天王寺区","city_kana":"オオサカシテンノウジク","town":"下寺町","town_kana":"シタデラマチ","prefecture_code":27},"0051":{"zip_code":"5430051","prefecture":"大阪府","prefecture_kana":"オオサカフ","city":"大阪市天王寺区","city_kana":"オオサカシテンノウジク","town":"四天王寺","town_kana":"シテンノウジ","prefecture_code":27},"0011":{"zip_code":"5430011","prefecture":"大阪府","prefecture_kana":"オオサカフ","city":"大阪市天王寺区","city_kana":"オオサカシテンノウジク","town":"清水谷町","town_kana":"シミズダニチョウ","prefecture_code":27},"0025":{"zip_code":"5430025","prefecture":"大阪府","prefecture_kana":"オオサカフ","city":"大阪市天王寺区","city_kana":"オオサカシテンノウジク","town":"下味原町","town_kana":"シモアジハラチョウ","prefecture_code":27},"0017":{"zip_code":"5430017","prefecture":"大阪府","prefecture_kana":"オオサカフ","city":"大阪市天王寺区","city_kana":"オオサカシテンノウジク","town":"城南寺町","town_kana":"ジョウナンテラマチ","prefecture_code":27},"0041":{"zip_code":"5430041","prefecture":"大阪府","prefecture_kana":"オオサカフ","city":"大阪市天王寺区","city_kana":"オオサカシテンノウジク","town":"真法院町","town_kana":"シンポウインチョウ","prefecture_code":27},"0052":{"zip_code":"5430052","prefecture":"大阪府","prefecture_kana":"オオサカフ","city":"大阪市天王寺区","city_kana":"オオサカシテンノウジク","town":"大道","town_kana":"ダイドウ","prefecture_code":27},"0013":{"zip_code":"5430013","prefecture":"大阪府","prefecture_kana":"オオサカフ","city":"大阪市天王寺区","city_kana":"オオサカシテンノウジク","town":"玉造本町","town_kana":"タマツクリホンマチ","prefecture_code":27},"0014":{"zip_code":"5430014","prefecture":"大阪府","prefecture_kana":"オオサカフ","city":"大阪市天王寺区","city_kana":"オオサカシテンノウジク","town":"玉造元町","town_kana":"タマツクリモトマチ","prefecture_code":27},"0063":{"zip_code":"5430063","prefecture":"大阪府","prefecture_kana":"オオサカフ","city":"大阪市天王寺区","city_kana":"オオサカシテンノウジク","town":"茶臼山町","town_kana":"チャウスヤマチョウ","prefecture_code":27},"0045":{"zip_code":"5430045","prefecture":"大阪府","prefecture_kana":"オオサカフ","city":"大阪市天王寺区","city_kana":"オオサカシテンノウジク","town":"寺田町","town_kana":"テラダチョウ","prefecture_code":27},"0033":{"zip_code":"5430033","prefecture":"大阪府","prefecture_kana":"オオサカフ","city":"大阪市天王寺区","city_kana":"オオサカシテンノウジク","town":"堂ケ芝","town_kana":"ドウガシバ","prefecture_code":27},"0026":{"zip_code":"5430026","prefecture":"大阪府","prefecture_kana":"オオサカフ","city":"大阪市天王寺区","city_kana":"オオサカシテンノウジク","town":"東上町","town_kana":"トウジョウチョウ","prefecture_code":27},"0021":{"zip_code":"5430021","prefecture":"大阪府","prefecture_kana":"オオサカフ","city":"大阪市天王寺区","city_kana":"オオサカシテンノウジク","town":"東高津町","town_kana":"ヒガシコウヅチョウ","prefecture_code":27},"0055":{"zip_code":"5430055","prefecture":"大阪府","prefecture_kana":"オオサカフ","city":"大阪市天王寺区","city_kana":"オオサカシテンノウジク","town":"悲田院町","town_kana":"ヒデンインチョウ","prefecture_code":27},"0027":{"zip_code":"5430027","prefecture":"大阪府","prefecture_kana":"オオサカフ","city":"大阪市天王寺区","city_kana":"オオサカシテンノウジク","town":"筆ケ崎町","town_kana":"フデガサキチョウ","prefecture_code":27},"0024":{"zip_code":"5430024","prefecture":"大阪府","prefecture_kana":"オオサカフ","city":"大阪市天王寺区","city_kana":"オオサカシテンノウジク","town":"舟橋町","town_kana":"フナハシチョウ","prefecture_code":27},"0056":{"zip_code":"5430056","prefecture":"大阪府","prefecture_kana":"オオサカフ","city":"大阪市天王寺区","city_kana":"オオサカシテンノウジク","town":"堀越町","town_kana":"ホリコシチョウ","prefecture_code":27},"0034":{"zip_code":"5430034","prefecture":"大阪府","prefecture_kana":"オオサカフ","city":"大阪市天王寺区","city_kana":"オオサカシテンノウジク","town":"松ケ鼻町","town_kana":"マツガハナチョウ","prefecture_code":27},"0054":{"zip_code":"5430054","prefecture":"大阪府","prefecture_kana":"オオサカフ","city":"大阪市天王寺区","city_kana":"オオサカシテンノウジク","town":"南河堀町","town_kana":"ミナミカワホリチョウ","prefecture_code":27},"0075":{"zip_code":"5430075","prefecture":"大阪府","prefecture_kana":"オオサカフ","city":"大阪市天王寺区","city_kana":"オオサカシテンノウジク","town":"夕陽丘町","town_kana":"ユウヒガオカチョウ","prefecture_code":27},"0061":{"zip_code":"5430061","prefecture":"大阪府","prefecture_kana":"オオサカフ","city":"大阪市天王寺区","city_kana":"オオサカシテンノウジク","town":"伶人町","town_kana":"レイニンチョウ","prefecture_code":27},"0074":{"zip_code":"5430074","prefecture":"大阪府","prefecture_kana":"オオサカフ","city":"大阪市天王寺区","city_kana":"オオサカシテンノウジク","town":"六万体町","town_kana":"ロクマンタイチョウ","prefecture_code":27}}