{"0000":{"zip_code":"5440000","prefecture":"大阪府","prefecture_kana":"オオサカフ","city":"大阪市生野区","city_kana":"オオサカシイクノク","town":"以下に掲載がない場合","town_kana":"イカニケイサイガナイバアイ","prefecture_code":27},"0025":{"zip_code":"5440025","prefecture":"大阪府","prefecture_kana":"オオサカフ","city":"大阪市生野区","city_kana":"オオサカシイクノク","town":"生野東","town_kana":"イクノヒガシ","prefecture_code":27},"0024":{"zip_code":"5440024","prefecture":"大阪府","prefecture_kana":"オオサカフ","city":"大阪市生野区","city_kana":"オオサカシイクノク","town":"生野西","town_kana":"イクノニシ","prefecture_code":27},"0021":{"zip_code":"5440021","prefecture":"大阪府","prefecture_kana":"オオサカフ","city":"大阪市生野区","city_kana":"オオサカシイクノク","town":"勝山南","town_kana":"カツヤマミナミ","prefecture_code":27},"0033":{"zip_code":"5440033","prefecture":"大阪府","prefecture_kana":"オオサカフ","city":"大阪市生野区","city_kana":"オオサカシイクノク","town":"勝山北","town_kana":"カツヤマキタ","prefecture_code":27},"0022":{"zip_code":"5440022","prefecture":"大阪府","prefecture_kana":"オオサカフ","city":"大阪市生野区","city_kana":"オオサカシイクノク","town":"舎利寺","town_kana":"シャリジ","prefecture_code":27},"0002":{"zip_code":"5440002","prefecture":"大阪府","prefecture_kana":"オオサカフ","city":"大阪市生野区","city_kana":"オオサカシイクノク","town":"小路","town_kana":"ショウジ","prefecture_code":27},"0003":{"zip_code":"5440003","prefecture":"大阪府","prefecture_kana":"オオサカフ","city":"大阪市生野区","city_kana":"オオサカシイクノク","town":"小路東","town_kana":"ショウジヒガシ","prefecture_code":27},"0001":{"zip_code":"5440001","prefecture":"大阪府","prefecture_kana":"オオサカフ","city":"大阪市生野区","city_kana":"オオサカシイクノク","town":"新今里","town_kana":"シンイマザト","prefecture_code":27},"0011":{"zip_code":"5440011","prefecture":"大阪府","prefecture_kana":"オオサカフ","city":"大阪市生野区","city_kana":"オオサカシイクノク","town":"田島","town_kana":"タジマ","prefecture_code":27},"0013":{"zip_code":"5440013","prefecture":"大阪府","prefecture_kana":"オオサカフ","city":"大阪市生野区","city_kana":"オオサカシイクノク","town":"巽中","town_kana":"タツミナカ","prefecture_code":27},"0014":{"zip_code":"5440014","prefecture":"大阪府","prefecture_kana":"オオサカフ","city":"大阪市生野区","city_kana":"オオサカシイクノク","town":"巽東","town_kana":"タツミヒガシ","prefecture_code":27},"0012":{"zip_code":"5440012","prefecture":"大阪府","prefecture_kana":"オオサカフ","city":"大阪市生野区","city_kana":"オオサカシイクノク","town":"巽西","town_kana":"タツミニシ","prefecture_code":27},"0015":{"zip_code":"5440015","prefecture":"大阪府","prefecture_kana":"オオサカフ","city":"大阪市生野区","city_kana":"オオサカシイクノク","town":"巽南","town_kana":"タツミミナミ","prefecture_code":27},"0004":{"zip_code":"5440004","prefecture":"大阪府","prefecture_kana":"オオサカフ","city":"大阪市生野区","city_kana":"オオサカシイクノク","town":"巽北","town_kana":"タツミキタ","prefecture_code":27},"0031":{"zip_code":"5440031","prefecture":"大阪府","prefecture_kana":"オオサカフ","city":"大阪市生野区","city_kana":"オオサカシイクノク","town":"鶴橋","town_kana":"ツルハシ","prefecture_code":27},"0005":{"zip_code":"5440005","prefecture":"大阪府","prefecture_kana":"オオサカフ","city":"大阪市生野区","city_kana":"オオサカシイクノク","town":"中川","town_kana":"ナカガワ","prefecture_code":27},"0006":{"zip_code":"5440006","prefecture":"大阪府","prefecture_kana":"オオサカフ","city":"大阪市生野区","city_kana":"オオサカシイクノク","town":"中川東","town_kana":"ナカガワヒガシ","prefecture_code":27},"0032":{"zip_code":"5440032","prefecture":"大阪府","prefecture_kana":"オオサカフ","city":"大阪市生野区","city_kana":"オオサカシイクノク","town":"中川西","town_kana":"ナカガワニシ","prefecture_code":27},"0023":{"zip_code":"5440023","prefecture":"大阪府","prefecture_kana":"オオサカフ","city":"大阪市生野区","city_kana":"オオサカシイクノク","town":"林寺","town_kana":"ハヤシジ","prefecture_code":27},"0034":{"zip_code":"5440034","prefecture":"大阪府","prefecture_kana":"オオサカフ","city":"大阪市生野区","city_kana":"オオサカシイクノク","town":"桃谷","town_kana":"モモダニ","prefecture_code":27}}