{"0000":{"zip_code":"5450000","prefecture":"大阪府","prefecture_kana":"オオサカフ","city":"大阪市阿倍野区","city_kana":"オオサカシアベノク","town":"","town_kana":"","prefecture_code":27},"0033":{"zip_code":"5450033","prefecture":"大阪府","prefecture_kana":"オオサカフ","city":"大阪市阿倍野区","city_kana":"オオサカシアベノク","town":"相生通","town_kana":"アイオイドオリ","prefecture_code":27},"0051":{"zip_code":"5450051","prefecture":"大阪府","prefecture_kana":"オオサカフ","city":"大阪市阿倍野区","city_kana":"オオサカシアベノク","town":"旭町","town_kana":"アサヒマチ","prefecture_code":27},"0052":{"zip_code":"5450052","prefecture":"大阪府","prefecture_kana":"オオサカフ","city":"大阪市阿倍野区","city_kana":"オオサカシアベノク","town":"阿倍野筋","town_kana":"アベノスジ","prefecture_code":27},"6090":{"zip_code":"5456090","prefecture":"大阪府","prefecture_kana":"オオサカフ","city":"大阪市阿倍野区","city_kana":"オオサカシアベノク","town":"阿倍野筋あべのハルカス","town_kana":"アベノスジアベノハルカス","prefecture_code":27},"6001":{"zip_code":"5456001","prefecture":"大阪府","prefecture_kana":"オオサカフ","city":"大阪市阿倍野区","city_kana":"オオサカシアベノク","town":"阿倍野筋あべのハルカス　１階","town_kana":"アベノスジアベノハルカス1カイ","prefecture_code":27},"6002":{"zip_code":"5456002","prefecture":"大阪府","prefecture_kana":"オオサカフ","city":"大阪市阿倍野区","city_kana":"オオサカシアベノク","town":"阿倍野筋あべのハルカス　２階","town_kana":"アベノスジアベノハルカス2カイ","prefecture_code":27},"6003":{"zip_code":"5456003","prefecture":"大阪府","prefecture_kana":"オオサカフ","city":"大阪市阿倍野区","city_kana":"オオサカシアベノク","town":"阿倍野筋あべのハルカス　３階","town_kana":"アベノスジアベノハルカス3カイ","prefecture_code":27},"6004":{"zip_code":"5456004","prefecture":"大阪府","prefecture_kana":"オオサカフ","city":"大阪市阿倍野区","city_kana":"オオサカシアベノク","town":"阿倍野筋あべのハルカス　４階","town_kana":"アベノスジアベノハルカス4カイ","prefecture_code":27},"6005":{"zip_code":"5456005","prefecture":"大阪府","prefecture_kana":"オオサカフ","city":"大阪市阿倍野区","city_kana":"オオサカシアベノク","town":"阿倍野筋あべのハルカス　５階","town_kana":"アベノスジアベノハルカス5カイ","prefecture_code":27},"6006":{"zip_code":"5456006","prefecture":"大阪府","prefecture_kana":"オオサカフ","city":"大阪市阿倍野区","city_kana":"オオサカシアベノク","town":"阿倍野筋あべのハルカス　６階","town_kana":"アベノスジアベノハルカス6カイ","prefecture_code":27},"6007":{"zip_code":"5456007","prefecture":"大阪府","prefecture_kana":"オオサカフ","city":"大阪市阿倍野区","city_kana":"オオサカシアベノク","town":"阿倍野筋あべのハルカス　７階","town_kana":"アベノスジアベノハルカス7カイ","prefecture_code":27},"6008":{"zip_code":"5456008","prefecture":"大阪府","prefecture_kana":"オオサカフ","city":"大阪市阿倍野区","city_kana":"オオサカシアベノク","town":"阿倍野筋あべのハルカス　８階","town_kana":"アベノスジアベノハルカス8カイ","prefecture_code":27},"6009":{"zip_code":"5456009","prefecture":"大阪府","prefecture_kana":"オオサカフ","city":"大阪市阿倍野区","city_kana":"オオサカシアベノク","town":"阿倍野筋あべのハルカス　９階","town_kana":"アベノスジアベノハルカス9カイ","prefecture_code":27},"6010":{"zip_code":"5456010","prefecture":"大阪府","prefecture_kana":"オオサカフ","city":"大阪市阿倍野区","city_kana":"オオサカシアベノク","town":"阿倍野筋あべのハルカス　１０階","town_kana":"アベノスジアベノハルカス10カイ","prefecture_code":27},"6011":{"zip_code":"5456011","prefecture":"大阪府","prefecture_kana":"オオサカフ","city":"大阪市阿倍野区","city_kana":"オオサカシアベノク","town":"阿倍野筋あべのハルカス　１１階","town_kana":"アベノスジアベノハルカス11カイ","prefecture_code":27},"6012":{"zip_code":"5456012","prefecture":"大阪府","prefecture_kana":"オオサカフ","city":"大阪市阿倍野区","city_kana":"オオサカシアベノク","town":"阿倍野筋あべのハルカス　１２階","town_kana":"アベノスジアベノハルカス12カイ","prefecture_code":27},"6013":{"zip_code":"5456013","prefecture":"大阪府","prefecture_kana":"オオサカフ","city":"大阪市阿倍野区","city_kana":"オオサカシアベノク","town":"阿倍野筋あべのハルカス　１３階","town_kana":"アベノスジアベノハルカス13カイ","prefecture_code":27},"6014":{"zip_code":"5456014","prefecture":"大阪府","prefecture_kana":"オオサカフ","city":"大阪市阿倍野区","city_kana":"オオサカシアベノク","town":"阿倍野筋あべのハルカス　１４階","town_kana":"アベノスジアベノハルカス14カイ","prefecture_code":27},"6015":{"zip_code":"5456015","prefecture":"大阪府","prefecture_kana":"オオサカフ","city":"大阪市阿倍野区","city_kana":"オオサカシアベノク","town":"阿倍野筋あべのハルカス　１５階","town_kana":"アベノスジアベノハルカス15カイ","prefecture_code":27},"6016":{"zip_code":"5456016","prefecture":"大阪府","prefecture_kana":"オオサカフ","city":"大阪市阿倍野区","city_kana":"オオサカシアベノク","town":"阿倍野筋あべのハルカス　１６階","town_kana":"アベノスジアベノハルカス16カイ","prefecture_code":27},"6017":{"zip_code":"5456017","prefecture":"大阪府","prefecture_kana":"オオサカフ","city":"大阪市阿倍野区","city_kana":"オオサカシアベノク","town":"阿倍野筋あべのハルカス　１７階","town_kana":"アベノスジアベノハルカス17カイ","prefecture_code":27},"6018":{"zip_code":"5456018","prefecture":"大阪府","prefecture_kana":"オオサカフ","city":"大阪市阿倍野区","city_kana":"オオサカシアベノク","town":"阿倍野筋あべのハルカス　１８階","town_kana":"アベノスジアベノハルカス18カイ","prefecture_code":27},"6019":{"zip_code":"5456019","prefecture":"大阪府","prefecture_kana":"オオサカフ","city":"大阪市阿倍野区","city_kana":"オオサカシアベノク","town":"阿倍野筋あべのハルカス　１９階","town_kana":"アベノスジアベノハルカス19カイ","prefecture_code":27},"6020":{"zip_code":"5456020","prefecture":"大阪府","prefecture_kana":"オオサカフ","city":"大阪市阿倍野区","city_kana":"オオサカシアベノク","town":"阿倍野筋あべのハルカス　２０階","town_kana":"アベノスジアベノハルカス20カイ","prefecture_code":27},"6021":{"zip_code":"5456021","prefecture":"大阪府","prefecture_kana":"オオサカフ","city":"大阪市阿倍野区","city_kana":"オオサカシアベノク","town":"阿倍野筋あべのハルカス　２１階","town_kana":"アベノスジアベノハルカス21カイ","prefecture_code":27},"6022":{"zip_code":"5456022","prefecture":"大阪府","prefecture_kana":"オオサカフ","city":"大阪市阿倍野区","city_kana":"オオサカシアベノク","town":"阿倍野筋あべのハルカス　２２階","town_kana":"アベノスジアベノハルカス22カイ","prefecture_code":27},"6023":{"zip_code":"5456023","prefecture":"大阪府","prefecture_kana":"オオサカフ","city":"大阪市阿倍野区","city_kana":"オオサカシアベノク","town":"阿倍野筋あべのハルカス　２３階","town_kana":"アベノスジアベノハルカス23カイ","prefecture_code":27},"6024":{"zip_code":"5456024","prefecture":"大阪府","prefecture_kana":"オオサカフ","city":"大阪市阿倍野区","city_kana":"オオサカシアベノク","town":"阿倍野筋あべのハルカス　２４階","town_kana":"アベノスジアベノハルカス24カイ","prefecture_code":27},"6025":{"zip_code":"5456025","prefecture":"大阪府","prefecture_kana":"オオサカフ","city":"大阪市阿倍野区","city_kana":"オオサカシアベノク","town":"阿倍野筋あべのハルカス　２５階","town_kana":"アベノスジアベノハルカス25カイ","prefecture_code":27},"6026":{"zip_code":"5456026","prefecture":"大阪府","prefecture_kana":"オオサカフ","city":"大阪市阿倍野区","city_kana":"オオサカシアベノク","town":"阿倍野筋あべのハルカス　２６階","town_kana":"アベノスジアベノハルカス26カイ","prefecture_code":27},"6027":{"zip_code":"5456027","prefecture":"大阪府","prefecture_kana":"オオサカフ","city":"大阪市阿倍野区","city_kana":"オオサカシアベノク","town":"阿倍野筋あべのハルカス　２７階","town_kana":"アベノスジアベノハルカス27カイ","prefecture_code":27},"6028":{"zip_code":"5456028","prefecture":"大阪府","prefecture_kana":"オオサカフ","city":"大阪市阿倍野区","city_kana":"オオサカシアベノク","town":"阿倍野筋あべのハルカス　２８階","town_kana":"アベノスジアベノハルカス28カイ","prefecture_code":27},"6029":{"zip_code":"5456029","prefecture":"大阪府","prefecture_kana":"オオサカフ","city":"大阪市阿倍野区","city_kana":"オオサカシアベノク","town":"阿倍野筋あべのハルカス　２９階","town_kana":"アベノスジアベノハルカス29カイ","prefecture_code":27},"6030":{"zip_code":"5456030","prefecture":"大阪府","prefecture_kana":"オオサカフ","city":"大阪市阿倍野区","city_kana":"オオサカシアベノク","town":"阿倍野筋あべのハルカス　３０階","town_kana":"アベノスジアベノハルカス30カイ","prefecture_code":27},"6031":{"zip_code":"5456031","prefecture":"大阪府","prefecture_kana":"オオサカフ","city":"大阪市阿倍野区","city_kana":"オオサカシアベノク","town":"阿倍野筋あべのハルカス　３１階","town_kana":"アベノスジアベノハルカス31カイ","prefecture_code":27},"6032":{"zip_code":"5456032","prefecture":"大阪府","prefecture_kana":"オオサカフ","city":"大阪市阿倍野区","city_kana":"オオサカシアベノク","town":"阿倍野筋あべのハルカス　３２階","town_kana":"アベノスジアベノハルカス32カイ","prefecture_code":27},"6033":{"zip_code":"5456033","prefecture":"大阪府","prefecture_kana":"オオサカフ","city":"大阪市阿倍野区","city_kana":"オオサカシアベノク","town":"阿倍野筋あべのハルカス　３３階","town_kana":"アベノスジアベノハルカス33カイ","prefecture_code":27},"6034":{"zip_code":"5456034","prefecture":"大阪府","prefecture_kana":"オオサカフ","city":"大阪市阿倍野区","city_kana":"オオサカシアベノク","town":"阿倍野筋あべのハルカス　３４階","town_kana":"アベノスジアベノハルカス34カイ","prefecture_code":27},"6035":{"zip_code":"5456035","prefecture":"大阪府","prefecture_kana":"オオサカフ","city":"大阪市阿倍野区","city_kana":"オオサカシアベノク","town":"阿倍野筋あべのハルカス　３５階","town_kana":"アベノスジアベノハルカス35カイ","prefecture_code":27},"6036":{"zip_code":"5456036","prefecture":"大阪府","prefecture_kana":"オオサカフ","city":"大阪市阿倍野区","city_kana":"オオサカシアベノク","town":"阿倍野筋あべのハルカス　３６階","town_kana":"アベノスジアベノハルカス36カイ","prefecture_code":27},"6037":{"zip_code":"5456037","prefecture":"大阪府","prefecture_kana":"オオサカフ","city":"大阪市阿倍野区","city_kana":"オオサカシアベノク","town":"阿倍野筋あべのハルカス　３７階","town_kana":"アベノスジアベノハルカス37カイ","prefecture_code":27},"6038":{"zip_code":"5456038","prefecture":"大阪府","prefecture_kana":"オオサカフ","city":"大阪市阿倍野区","city_kana":"オオサカシアベノク","town":"阿倍野筋あべのハルカス　３８階","town_kana":"アベノスジアベノハルカス38カイ","prefecture_code":27},"6039":{"zip_code":"5456039","prefecture":"大阪府","prefecture_kana":"オオサカフ","city":"大阪市阿倍野区","city_kana":"オオサカシアベノク","town":"阿倍野筋あべのハルカス　３９階","town_kana":"アベノスジアベノハルカス39カイ","prefecture_code":27},"6040":{"zip_code":"5456040","prefecture":"大阪府","prefecture_kana":"オオサカフ","city":"大阪市阿倍野区","city_kana":"オオサカシアベノク","town":"阿倍野筋あべのハルカス　４０階","town_kana":"アベノスジアベノハルカス40カイ","prefecture_code":27},"6041":{"zip_code":"5456041","prefecture":"大阪府","prefecture_kana":"オオサカフ","city":"大阪市阿倍野区","city_kana":"オオサカシアベノク","town":"阿倍野筋あべのハルカス　４１階","town_kana":"アベノスジアベノハルカス41カイ","prefecture_code":27},"6042":{"zip_code":"5456042","prefecture":"大阪府","prefecture_kana":"オオサカフ","city":"大阪市阿倍野区","city_kana":"オオサカシアベノク","town":"阿倍野筋あべのハルカス　４２階","town_kana":"アベノスジアベノハルカス42カイ","prefecture_code":27},"6043":{"zip_code":"5456043","prefecture":"大阪府","prefecture_kana":"オオサカフ","city":"大阪市阿倍野区","city_kana":"オオサカシアベノク","town":"阿倍野筋あべのハルカス　４３階","town_kana":"アベノスジアベノハルカス43カイ","prefecture_code":27},"6044":{"zip_code":"5456044","prefecture":"大阪府","prefecture_kana":"オオサカフ","city":"大阪市阿倍野区","city_kana":"オオサカシアベノク","town":"阿倍野筋あべのハルカス　４４階","town_kana":"アベノスジアベノハルカス44カイ","prefecture_code":27},"6045":{"zip_code":"5456045","prefecture":"大阪府","prefecture_kana":"オオサカフ","city":"大阪市阿倍野区","city_kana":"オオサカシアベノク","town":"阿倍野筋あべのハルカス　４５階","town_kana":"アベノスジアベノハルカス45カイ","prefecture_code":27},"6046":{"zip_code":"5456046","prefecture":"大阪府","prefecture_kana":"オオサカフ","city":"大阪市阿倍野区","city_kana":"オオサカシアベノク","town":"阿倍野筋あべのハルカス　４６階","town_kana":"アベノスジアベノハルカス46カイ","prefecture_code":27},"6047":{"zip_code":"5456047","prefecture":"大阪府","prefecture_kana":"オオサカフ","city":"大阪市阿倍野区","city_kana":"オオサカシアベノク","town":"阿倍野筋あべのハルカス　４７階","town_kana":"アベノスジアベノハルカス47カイ","prefecture_code":27},"6048":{"zip_code":"5456048","prefecture":"大阪府","prefecture_kana":"オオサカフ","city":"大阪市阿倍野区","city_kana":"オオサカシアベノク","town":"阿倍野筋あべのハルカス　４８階","town_kana":"アベノスジアベノハルカス48カイ","prefecture_code":27},"6049":{"zip_code":"5456049","prefecture":"大阪府","prefecture_kana":"オオサカフ","city":"大阪市阿倍野区","city_kana":"オオサカシアベノク","town":"阿倍野筋あべのハルカス　４９階","town_kana":"アベノスジアベノハルカス49カイ","prefecture_code":27},"6050":{"zip_code":"5456050","prefecture":"大阪府","prefecture_kana":"オオサカフ","city":"大阪市阿倍野区","city_kana":"オオサカシアベノク","town":"阿倍野筋あべのハルカス　５０階","town_kana":"アベノスジアベノハルカス50カイ","prefecture_code":27},"6051":{"zip_code":"5456051","prefecture":"大阪府","prefecture_kana":"オオサカフ","city":"大阪市阿倍野区","city_kana":"オオサカシアベノク","town":"阿倍野筋あべのハルカス　５１階","town_kana":"アベノスジアベノハルカス51カイ","prefecture_code":27},"6052":{"zip_code":"5456052","prefecture":"大阪府","prefecture_kana":"オオサカフ","city":"大阪市阿倍野区","city_kana":"オオサカシアベノク","town":"阿倍野筋あべのハルカス　５２階","town_kana":"アベノスジアベノハルカス52カイ","prefecture_code":27},"6053":{"zip_code":"5456053","prefecture":"大阪府","prefecture_kana":"オオサカフ","city":"大阪市阿倍野区","city_kana":"オオサカシアベノク","town":"阿倍野筋あべのハルカス　５３階","town_kana":"アベノスジアベノハルカス53カイ","prefecture_code":27},"6054":{"zip_code":"5456054","prefecture":"大阪府","prefecture_kana":"オオサカフ","city":"大阪市阿倍野区","city_kana":"オオサカシアベノク","town":"阿倍野筋あべのハルカス　５４階","town_kana":"アベノスジアベノハルカス54カイ","prefecture_code":27},"6055":{"zip_code":"5456055","prefecture":"大阪府","prefecture_kana":"オオサカフ","city":"大阪市阿倍野区","city_kana":"オオサカシアベノク","town":"阿倍野筋あべのハルカス　５５階","town_kana":"アベノスジアベノハルカス55カイ","prefecture_code":27},"6056":{"zip_code":"5456056","prefecture":"大阪府","prefecture_kana":"オオサカフ","city":"大阪市阿倍野区","city_kana":"オオサカシアベノク","town":"阿倍野筋あべのハルカス　５６階","town_kana":"アベノスジアベノハルカス56カイ","prefecture_code":27},"6057":{"zip_code":"5456057","prefecture":"大阪府","prefecture_kana":"オオサカフ","city":"大阪市阿倍野区","city_kana":"オオサカシアベノク","town":"阿倍野筋あべのハルカス　５７階","town_kana":"アベノスジアベノハルカス57カイ","prefecture_code":27},"6058":{"zip_code":"5456058","prefecture":"大阪府","prefecture_kana":"オオサカフ","city":"大阪市阿倍野区","city_kana":"オオサカシアベノク","town":"阿倍野筋あべのハルカス　５８階","town_kana":"アベノスジアベノハルカス58カイ","prefecture_code":27},"6059":{"zip_code":"5456059","prefecture":"大阪府","prefecture_kana":"オオサカフ","city":"大阪市阿倍野区","city_kana":"オオサカシアベノク","town":"阿倍野筋あべのハルカス　５９階","town_kana":"アベノスジアベノハルカス59カイ","prefecture_code":27},"6060":{"zip_code":"5456060","prefecture":"大阪府","prefecture_kana":"オオサカフ","city":"大阪市阿倍野区","city_kana":"オオサカシアベノク","town":"阿倍野筋あべのハルカス　６０階","town_kana":"アベノスジアベノハルカス60カイ","prefecture_code":27},"0034":{"zip_code":"5450034","prefecture":"大阪府","prefecture_kana":"オオサカフ","city":"大阪市阿倍野区","city_kana":"オオサカシアベノク","town":"阿倍野元町","town_kana":"アベノモトマチ","prefecture_code":27},"0023":{"zip_code":"5450023","prefecture":"大阪府","prefecture_kana":"オオサカフ","city":"大阪市阿倍野区","city_kana":"オオサカシアベノク","town":"王子町","town_kana":"オウジチョウ","prefecture_code":27},"0035":{"zip_code":"5450035","prefecture":"大阪府","prefecture_kana":"オオサカフ","city":"大阪市阿倍野区","city_kana":"オオサカシアベノク","town":"北畠","town_kana":"キタバタケ","prefecture_code":27},"0041":{"zip_code":"5450041","prefecture":"大阪府","prefecture_kana":"オオサカフ","city":"大阪市阿倍野区","city_kana":"オオサカシアベノク","town":"共立通","town_kana":"キョウリツドオリ","prefecture_code":27},"0005":{"zip_code":"5450005","prefecture":"大阪府","prefecture_kana":"オオサカフ","city":"大阪市阿倍野区","city_kana":"オオサカシアベノク","town":"三明町","town_kana":"サンメイチョウ","prefecture_code":27},"0011":{"zip_code":"5450011","prefecture":"大阪府","prefecture_kana":"オオサカフ","city":"大阪市阿倍野区","city_kana":"オオサカシアベノク","town":"昭和町","town_kana":"ショウワチョウ","prefecture_code":27},"0032":{"zip_code":"5450032","prefecture":"大阪府","prefecture_kana":"オオサカフ","city":"大阪市阿倍野区","city_kana":"オオサカシアベノク","town":"晴明通","town_kana":"セイメイドオリ","prefecture_code":27},"0037":{"zip_code":"5450037","prefecture":"大阪府","prefecture_kana":"オオサカフ","city":"大阪市阿倍野区","city_kana":"オオサカシアベノク","town":"帝塚山","town_kana":"テヅカヤマ","prefecture_code":27},"0002":{"zip_code":"5450002","prefecture":"大阪府","prefecture_kana":"オオサカフ","city":"大阪市阿倍野区","city_kana":"オオサカシアベノク","town":"天王寺町南","town_kana":"テンノウジチョウミナミ","prefecture_code":27},"0001":{"zip_code":"5450001","prefecture":"大阪府","prefecture_kana":"オオサカフ","city":"大阪市阿倍野区","city_kana":"オオサカシアベノク","town":"天王寺町北","town_kana":"テンノウジチョウキタ","prefecture_code":27},"0013":{"zip_code":"5450013","prefecture":"大阪府","prefecture_kana":"オオサカフ","city":"大阪市阿倍野区","city_kana":"オオサカシアベノク","town":"長池町","town_kana":"ナガイケチョウ","prefecture_code":27},"0014":{"zip_code":"5450014","prefecture":"大阪府","prefecture_kana":"オオサカフ","city":"大阪市阿倍野区","city_kana":"オオサカシアベノク","town":"西田辺町","town_kana":"ニシタナベチョウ","prefecture_code":27},"0031":{"zip_code":"5450031","prefecture":"大阪府","prefecture_kana":"オオサカフ","city":"大阪市阿倍野区","city_kana":"オオサカシアベノク","town":"橋本町","town_kana":"ハシモトチョウ","prefecture_code":27},"0022":{"zip_code":"5450022","prefecture":"大阪府","prefecture_kana":"オオサカフ","city":"大阪市阿倍野区","city_kana":"オオサカシアベノク","town":"播磨町","town_kana":"ハリマチョウ","prefecture_code":27},"0021":{"zip_code":"5450021","prefecture":"大阪府","prefecture_kana":"オオサカフ","city":"大阪市阿倍野区","city_kana":"オオサカシアベノク","town":"阪南町","town_kana":"ハンナンチョウ","prefecture_code":27},"0036":{"zip_code":"5450036","prefecture":"大阪府","prefecture_kana":"オオサカフ","city":"大阪市阿倍野区","city_kana":"オオサカシアベノク","town":"万代","town_kana":"バンダイ","prefecture_code":27},"0003":{"zip_code":"5450003","prefecture":"大阪府","prefecture_kana":"オオサカフ","city":"大阪市阿倍野区","city_kana":"オオサカシアベノク","town":"美章園","town_kana":"ビショウエン","prefecture_code":27},"0004":{"zip_code":"5450004","prefecture":"大阪府","prefecture_kana":"オオサカフ","city":"大阪市阿倍野区","city_kana":"オオサカシアベノク","town":"文の里","town_kana":"フミノサト","prefecture_code":27},"0053":{"zip_code":"5450053","prefecture":"大阪府","prefecture_kana":"オオサカフ","city":"大阪市阿倍野区","city_kana":"オオサカシアベノク","town":"松崎町","town_kana":"マツザキチョウ","prefecture_code":27},"0043":{"zip_code":"5450043","prefecture":"大阪府","prefecture_kana":"オオサカフ","city":"大阪市阿倍野区","city_kana":"オオサカシアベノク","town":"松虫通","town_kana":"マツムシドオリ","prefecture_code":27},"0042":{"zip_code":"5450042","prefecture":"大阪府","prefecture_kana":"オオサカフ","city":"大阪市阿倍野区","city_kana":"オオサカシアベノク","town":"丸山通","town_kana":"マルヤマドオリ","prefecture_code":27},"0012":{"zip_code":"5450012","prefecture":"大阪府","prefecture_kana":"オオサカフ","city":"大阪市阿倍野区","city_kana":"オオサカシアベノク","town":"桃ケ池町","town_kana":"モモガイケチョウ","prefecture_code":27}}