{"0000":{"zip_code":"5520000","prefecture":"大阪府","prefecture_kana":"オオサカフ","city":"大阪市港区","city_kana":"オオサカシミナトク","town":"","town_kana":"","prefecture_code":27},"0015":{"zip_code":"5520015","prefecture":"大阪府","prefecture_kana":"オオサカフ","city":"大阪市港区","city_kana":"オオサカシミナトク","town":"池島","town_kana":"イケジマ","prefecture_code":27},"0006":{"zip_code":"5520006","prefecture":"大阪府","prefecture_kana":"オオサカフ","city":"大阪市港区","city_kana":"オオサカシミナトク","town":"石田","town_kana":"イシダ","prefecture_code":27},"0003":{"zip_code":"5520003","prefecture":"大阪府","prefecture_kana":"オオサカフ","city":"大阪市港区","city_kana":"オオサカシミナトク","town":"磯路","town_kana":"イソジ","prefecture_code":27},"0012":{"zip_code":"5520012","prefecture":"大阪府","prefecture_kana":"オオサカフ","city":"大阪市港区","city_kana":"オオサカシミナトク","town":"市岡","town_kana":"イチオカ","prefecture_code":27},"0002":{"zip_code":"5520002","prefecture":"大阪府","prefecture_kana":"オオサカフ","city":"大阪市港区","city_kana":"オオサカシミナトク","town":"市岡元町","town_kana":"イチオカモトマチ","prefecture_code":27},"0022":{"zip_code":"5520022","prefecture":"大阪府","prefecture_kana":"オオサカフ","city":"大阪市港区","city_kana":"オオサカシミナトク","town":"海岸通","town_kana":"カイガンドオリ","prefecture_code":27},"0023":{"zip_code":"5520023","prefecture":"大阪府","prefecture_kana":"オオサカフ","city":"大阪市港区","city_kana":"オオサカシミナトク","town":"港晴","town_kana":"コウセイ","prefecture_code":27},"0005":{"zip_code":"5520005","prefecture":"大阪府","prefecture_kana":"オオサカフ","city":"大阪市港区","city_kana":"オオサカシミナトク","town":"田中","town_kana":"タナカ","prefecture_code":27},"0021":{"zip_code":"5520021","prefecture":"大阪府","prefecture_kana":"オオサカフ","city":"大阪市港区","city_kana":"オオサカシミナトク","town":"築港","town_kana":"チッコウ","prefecture_code":27},"0001":{"zip_code":"5520001","prefecture":"大阪府","prefecture_kana":"オオサカフ","city":"大阪市港区","city_kana":"オオサカシミナトク","town":"波除","town_kana":"ナミヨケ","prefecture_code":27},"0013":{"zip_code":"5520013","prefecture":"大阪府","prefecture_kana":"オオサカフ","city":"大阪市港区","city_kana":"オオサカシミナトク","town":"福崎","town_kana":"フクザキ","prefecture_code":27},"0007":{"zip_code":"5520007","prefecture":"大阪府","prefecture_kana":"オオサカフ","city":"大阪市港区","city_kana":"オオサカシミナトク","town":"弁天","town_kana":"ベンテン","prefecture_code":27},"0016":{"zip_code":"5520016","prefecture":"大阪府","prefecture_kana":"オオサカフ","city":"大阪市港区","city_kana":"オオサカシミナトク","town":"三先","town_kana":"ミサキ","prefecture_code":27},"0011":{"zip_code":"5520011","prefecture":"大阪府","prefecture_kana":"オオサカフ","city":"大阪市港区","city_kana":"オオサカシミナトク","town":"南市岡","town_kana":"ミナミイチオカ","prefecture_code":27},"0014":{"zip_code":"5520014","prefecture":"大阪府","prefecture_kana":"オオサカフ","city":"大阪市港区","city_kana":"オオサカシミナトク","town":"八幡屋","town_kana":"ヤハタヤ","prefecture_code":27},"0004":{"zip_code":"5520004","prefecture":"大阪府","prefecture_kana":"オオサカフ","city":"大阪市港区","city_kana":"オオサカシミナトク","town":"夕凪","town_kana":"ユウナギ","prefecture_code":27}}