{"0000":{"zip_code":"5530000","prefecture":"大阪府","prefecture_kana":"オオサカフ","city":"大阪市福島区","city_kana":"オオサカシフクシマク","town":"以下に掲載がない場合","town_kana":"イカニケイサイガナイバアイ","prefecture_code":27},"0001":{"zip_code":"5530001","prefecture":"大阪府","prefecture_kana":"オオサカフ","city":"大阪市福島区","city_kana":"オオサカシフクシマク","town":"海老江","town_kana":"エビエ","prefecture_code":27},"0007":{"zip_code":"5530007","prefecture":"大阪府","prefecture_kana":"オオサカフ","city":"大阪市福島区","city_kana":"オオサカシフクシマク","town":"大開","town_kana":"オオヒラキ","prefecture_code":27},"0002":{"zip_code":"5530002","prefecture":"大阪府","prefecture_kana":"オオサカフ","city":"大阪市福島区","city_kana":"オオサカシフクシマク","town":"鷺洲","town_kana":"サギス","prefecture_code":27},"0004":{"zip_code":"5530004","prefecture":"大阪府","prefecture_kana":"オオサカフ","city":"大阪市福島区","city_kana":"オオサカシフクシマク","town":"玉川","town_kana":"タマガワ","prefecture_code":27},"0005":{"zip_code":"5530005","prefecture":"大阪府","prefecture_kana":"オオサカフ","city":"大阪市福島区","city_kana":"オオサカシフクシマク","town":"野田","town_kana":"ノダ","prefecture_code":27},"0003":{"zip_code":"5530003","prefecture":"大阪府","prefecture_kana":"オオサカフ","city":"大阪市福島区","city_kana":"オオサカシフクシマク","town":"福島","town_kana":"フクシマ","prefecture_code":27},"0006":{"zip_code":"5530006","prefecture":"大阪府","prefecture_kana":"オオサカフ","city":"大阪市福島区","city_kana":"オオサカシフクシマク","town":"吉野","town_kana":"ヨシノ","prefecture_code":27}}