{"0000":{"zip_code":"5540000","prefecture":"大阪府","prefecture_kana":"オオサカフ","city":"大阪市此花区","city_kana":"オオサカシコノハナク","town":"","town_kana":"","prefecture_code":27},"0011":{"zip_code":"5540011","prefecture":"大阪府","prefecture_kana":"オオサカフ","city":"大阪市此花区","city_kana":"オオサカシコノハナク","town":"朝日","town_kana":"アサヒ","prefecture_code":27},"0032":{"zip_code":"5540032","prefecture":"大阪府","prefecture_kana":"オオサカフ","city":"大阪市此花区","city_kana":"オオサカシコノハナク","town":"梅町","town_kana":"ウメマチ","prefecture_code":27},"0022":{"zip_code":"5540022","prefecture":"大阪府","prefecture_kana":"オオサカフ","city":"大阪市此花区","city_kana":"オオサカシコノハナク","town":"春日出中","town_kana":"カスガデナカ","prefecture_code":27},"0023":{"zip_code":"5540023","prefecture":"大阪府","prefecture_kana":"オオサカフ","city":"大阪市此花区","city_kana":"オオサカシコノハナク","town":"春日出南","town_kana":"カスガデミナミ","prefecture_code":27},"0021":{"zip_code":"5540021","prefecture":"大阪府","prefecture_kana":"オオサカフ","city":"大阪市此花区","city_kana":"オオサカシコノハナク","town":"春日出北","town_kana":"カスガデキタ","prefecture_code":27},"0031":{"zip_code":"5540031","prefecture":"大阪府","prefecture_kana":"オオサカフ","city":"大阪市此花区","city_kana":"オオサカシコノハナク","town":"桜島","town_kana":"サクラジマ","prefecture_code":27},"0014":{"zip_code":"5540014","prefecture":"大阪府","prefecture_kana":"オオサカフ","city":"大阪市此花区","city_kana":"オオサカシコノハナク","town":"四貫島","town_kana":"シカンジマ","prefecture_code":27},"0024":{"zip_code":"5540024","prefecture":"大阪府","prefecture_kana":"オオサカフ","city":"大阪市此花区","city_kana":"オオサカシコノハナク","town":"島屋","town_kana":"シマヤ","prefecture_code":27},"0001":{"zip_code":"5540001","prefecture":"大阪府","prefecture_kana":"オオサカフ","city":"大阪市此花区","city_kana":"オオサカシコノハナク","town":"高見","town_kana":"タカミ","prefecture_code":27},"0052":{"zip_code":"5540052","prefecture":"大阪府","prefecture_kana":"オオサカフ","city":"大阪市此花区","city_kana":"オオサカシコノハナク","town":"常吉","town_kana":"ツネヨシ","prefecture_code":27},"0002":{"zip_code":"5540002","prefecture":"大阪府","prefecture_kana":"オオサカフ","city":"大阪市此花区","city_kana":"オオサカシコノハナク","town":"伝法","town_kana":"デンポウ","prefecture_code":27},"0051":{"zip_code":"5540051","prefecture":"大阪府","prefecture_kana":"オオサカフ","city":"大阪市此花区","city_kana":"オオサカシコノハナク","town":"酉島","town_kana":"トリシマ","prefecture_code":27},"0012":{"zip_code":"5540012","prefecture":"大阪府","prefecture_kana":"オオサカフ","city":"大阪市此花区","city_kana":"オオサカシコノハナク","town":"西九条","town_kana":"ニシクジョウ","prefecture_code":27},"0013":{"zip_code":"5540013","prefecture":"大阪府","prefecture_kana":"オオサカフ","city":"大阪市此花区","city_kana":"オオサカシコノハナク","town":"梅香","town_kana":"バイカ","prefecture_code":27},"0033":{"zip_code":"5540033","prefecture":"大阪府","prefecture_kana":"オオサカフ","city":"大阪市此花区","city_kana":"オオサカシコノハナク","town":"北港","town_kana":"ホクコウ","prefecture_code":27},"0041":{"zip_code":"5540041","prefecture":"大阪府","prefecture_kana":"オオサカフ","city":"大阪市此花区","city_kana":"オオサカシコノハナク","town":"北港白津","town_kana":"ホクコウシラツ","prefecture_code":27},"0042":{"zip_code":"5540042","prefecture":"大阪府","prefecture_kana":"オオサカフ","city":"大阪市此花区","city_kana":"オオサカシコノハナク","town":"北港緑地","town_kana":"ホクコウリョクチ","prefecture_code":27},"0043":{"zip_code":"5540043","prefecture":"大阪府","prefecture_kana":"オオサカフ","city":"大阪市此花区","city_kana":"オオサカシコノハナク","town":"夢洲東","town_kana":"ユメシマヒガシ","prefecture_code":27}}