{"0000":{"zip_code":"5560000","prefecture":"大阪府","prefecture_kana":"オオサカフ","city":"大阪市浪速区","city_kana":"オオサカシナニワク","town":"","town_kana":"","prefecture_code":27},"0029":{"zip_code":"5560029","prefecture":"大阪府","prefecture_kana":"オオサカフ","city":"大阪市浪速区","city_kana":"オオサカシナニワク","town":"芦原","town_kana":"アシハラ","prefecture_code":27},"0023":{"zip_code":"5560023","prefecture":"大阪府","prefecture_kana":"オオサカフ","city":"大阪市浪速区","city_kana":"オオサカシナニワク","town":"稲荷","town_kana":"イナリ","prefecture_code":27},"0013":{"zip_code":"5560013","prefecture":"大阪府","prefecture_kana":"オオサカフ","city":"大阪市浪速区","city_kana":"オオサカシナニワク","town":"戎本町","town_kana":"エビスホンマチ","prefecture_code":27},"0002":{"zip_code":"5560002","prefecture":"大阪府","prefecture_kana":"オオサカフ","city":"大阪市浪速区","city_kana":"オオサカシナニワク","town":"恵美須東","town_kana":"エビスヒガシ","prefecture_code":27},"0003":{"zip_code":"5560003","prefecture":"大阪府","prefecture_kana":"オオサカフ","city":"大阪市浪速区","city_kana":"オオサカシナニワク","town":"恵美須西","town_kana":"エビスニシ","prefecture_code":27},"0027":{"zip_code":"5560027","prefecture":"大阪府","prefecture_kana":"オオサカフ","city":"大阪市浪速区","city_kana":"オオサカシナニワク","town":"木津川","town_kana":"キヅガワ","prefecture_code":27},"0028":{"zip_code":"5560028","prefecture":"大阪府","prefecture_kana":"オオサカフ","city":"大阪市浪速区","city_kana":"オオサカシナニワク","town":"久保吉","town_kana":"クボヨシ","prefecture_code":27},"0021":{"zip_code":"5560021","prefecture":"大阪府","prefecture_kana":"オオサカフ","city":"大阪市浪速区","city_kana":"オオサカシナニワク","town":"幸町","town_kana":"サイワイチョウ","prefecture_code":27},"0022":{"zip_code":"5560022","prefecture":"大阪府","prefecture_kana":"オオサカフ","city":"大阪市浪速区","city_kana":"オオサカシナニワク","town":"桜川","town_kana":"サクラガワ","prefecture_code":27},"0024":{"zip_code":"5560024","prefecture":"大阪府","prefecture_kana":"オオサカフ","city":"大阪市浪速区","city_kana":"オオサカシナニワク","town":"塩草","town_kana":"シオクサ","prefecture_code":27},"0012":{"zip_code":"5560012","prefecture":"大阪府","prefecture_kana":"オオサカフ","city":"大阪市浪速区","city_kana":"オオサカシナニワク","town":"敷津東","town_kana":"シキツヒガシ","prefecture_code":27},"0015":{"zip_code":"5560015","prefecture":"大阪府","prefecture_kana":"オオサカフ","city":"大阪市浪速区","city_kana":"オオサカシナニワク","town":"敷津西","town_kana":"シキツニシ","prefecture_code":27},"0001":{"zip_code":"5560001","prefecture":"大阪府","prefecture_kana":"オオサカフ","city":"大阪市浪速区","city_kana":"オオサカシナニワク","town":"下寺","town_kana":"シモデラ","prefecture_code":27},"0014":{"zip_code":"5560014","prefecture":"大阪府","prefecture_kana":"オオサカフ","city":"大阪市浪速区","city_kana":"オオサカシナニワク","town":"大国","town_kana":"ダイコク","prefecture_code":27},"0020":{"zip_code":"5560020","prefecture":"大阪府","prefecture_kana":"オオサカフ","city":"大阪市浪速区","city_kana":"オオサカシナニワク","town":"立葉","town_kana":"タテバ","prefecture_code":27},"0025":{"zip_code":"5560025","prefecture":"大阪府","prefecture_kana":"オオサカフ","city":"大阪市浪速区","city_kana":"オオサカシナニワク","town":"浪速東","town_kana":"ナニワヒガシ","prefecture_code":27},"0026":{"zip_code":"5560026","prefecture":"大阪府","prefecture_kana":"オオサカフ","city":"大阪市浪速区","city_kana":"オオサカシナニワク","town":"浪速西","town_kana":"ナニワニシ","prefecture_code":27},"0011":{"zip_code":"5560011","prefecture":"大阪府","prefecture_kana":"オオサカフ","city":"大阪市浪速区","city_kana":"オオサカシナニワク","town":"難波中","town_kana":"ナンバナカ","prefecture_code":27},"0005":{"zip_code":"5560005","prefecture":"大阪府","prefecture_kana":"オオサカフ","city":"大阪市浪速区","city_kana":"オオサカシナニワク","town":"日本橋","town_kana":"ニッポンバシ","prefecture_code":27},"0006":{"zip_code":"5560006","prefecture":"大阪府","prefecture_kana":"オオサカフ","city":"大阪市浪速区","city_kana":"オオサカシナニワク","town":"日本橋東","town_kana":"ニッポンバシヒガシ","prefecture_code":27},"0004":{"zip_code":"5560004","prefecture":"大阪府","prefecture_kana":"オオサカフ","city":"大阪市浪速区","city_kana":"オオサカシナニワク","town":"日本橋西","town_kana":"ニッポンバシニシ","prefecture_code":27},"0017":{"zip_code":"5560017","prefecture":"大阪府","prefecture_kana":"オオサカフ","city":"大阪市浪速区","city_kana":"オオサカシナニワク","town":"湊町","town_kana":"ミナトマチ","prefecture_code":27},"0016":{"zip_code":"5560016","prefecture":"大阪府","prefecture_kana":"オオサカフ","city":"大阪市浪速区","city_kana":"オオサカシナニワク","town":"元町","town_kana":"モトマチ","prefecture_code":27}}