{"0000":{"zip_code":"5570000","prefecture":"大阪府","prefecture_kana":"オオサカフ","city":"大阪市西成区","city_kana":"オオサカシニシナリク","town":"以下に掲載がない場合","town_kana":"イカニケイサイガナイバアイ","prefecture_code":27},"0032":{"zip_code":"5570032","prefecture":"大阪府","prefecture_kana":"オオサカフ","city":"大阪市西成区","city_kana":"オオサカシニシナリク","town":"旭","town_kana":"アサヒ","prefecture_code":27},"0041":{"zip_code":"5570041","prefecture":"大阪府","prefecture_kana":"オオサカフ","city":"大阪市西成区","city_kana":"オオサカシニシナリク","town":"岸里","town_kana":"キシノサト","prefecture_code":27},"0042":{"zip_code":"5570042","prefecture":"大阪府","prefecture_kana":"オオサカフ","city":"大阪市西成区","city_kana":"オオサカシニシナリク","town":"岸里東","town_kana":"キシノサトヒガシ","prefecture_code":27},"0061":{"zip_code":"5570061","prefecture":"大阪府","prefecture_kana":"オオサカフ","city":"大阪市西成区","city_kana":"オオサカシニシナリク","town":"北津守","town_kana":"キタツモリ","prefecture_code":27},"0021":{"zip_code":"5570021","prefecture":"大阪府","prefecture_kana":"オオサカフ","city":"大阪市西成区","city_kana":"オオサカシニシナリク","town":"北開","town_kana":"キタビラキ","prefecture_code":27},"0001":{"zip_code":"5570001","prefecture":"大阪府","prefecture_kana":"オオサカフ","city":"大阪市西成区","city_kana":"オオサカシニシナリク","town":"山王","town_kana":"サンノウ","prefecture_code":27},"0052":{"zip_code":"5570052","prefecture":"大阪府","prefecture_kana":"オオサカフ","city":"大阪市西成区","city_kana":"オオサカシニシナリク","town":"潮路","town_kana":"シオジ","prefecture_code":27},"0012":{"zip_code":"5570012","prefecture":"大阪府","prefecture_kana":"オオサカフ","city":"大阪市西成区","city_kana":"オオサカシニシナリク","town":"聖天下","town_kana":"ショウテンシタ","prefecture_code":27},"0054":{"zip_code":"5570054","prefecture":"大阪府","prefecture_kana":"オオサカフ","city":"大阪市西成区","city_kana":"オオサカシニシナリク","town":"千本中","town_kana":"センボンナカ","prefecture_code":27},"0055":{"zip_code":"5570055","prefecture":"大阪府","prefecture_kana":"オオサカフ","city":"大阪市西成区","city_kana":"オオサカシニシナリク","town":"千本南","town_kana":"センボンミナミ","prefecture_code":27},"0053":{"zip_code":"5570053","prefecture":"大阪府","prefecture_kana":"オオサカフ","city":"大阪市西成区","city_kana":"オオサカシニシナリク","town":"千本北","town_kana":"センボンキタ","prefecture_code":27},"0002":{"zip_code":"5570002","prefecture":"大阪府","prefecture_kana":"オオサカフ","city":"大阪市西成区","city_kana":"オオサカシニシナリク","town":"太子","town_kana":"タイシ","prefecture_code":27},"0051":{"zip_code":"5570051","prefecture":"大阪府","prefecture_kana":"オオサカフ","city":"大阪市西成区","city_kana":"オオサカシニシナリク","town":"橘","town_kana":"タチバナ","prefecture_code":27},"0044":{"zip_code":"5570044","prefecture":"大阪府","prefecture_kana":"オオサカフ","city":"大阪市西成区","city_kana":"オオサカシニシナリク","town":"玉出中","town_kana":"タマデナカ","prefecture_code":27},"0043":{"zip_code":"5570043","prefecture":"大阪府","prefecture_kana":"オオサカフ","city":"大阪市西成区","city_kana":"オオサカシニシナリク","town":"玉出東","town_kana":"タマデヒガシ","prefecture_code":27},"0045":{"zip_code":"5570045","prefecture":"大阪府","prefecture_kana":"オオサカフ","city":"大阪市西成区","city_kana":"オオサカシニシナリク","town":"玉出西","town_kana":"タマデニシ","prefecture_code":27},"0062":{"zip_code":"5570062","prefecture":"大阪府","prefecture_kana":"オオサカフ","city":"大阪市西成区","city_kana":"オオサカシニシナリク","town":"津守","town_kana":"ツモリ","prefecture_code":27},"0031":{"zip_code":"5570031","prefecture":"大阪府","prefecture_kana":"オオサカフ","city":"大阪市西成区","city_kana":"オオサカシニシナリク","town":"鶴見橋","town_kana":"ツルミバシ","prefecture_code":27},"0024":{"zip_code":"5570024","prefecture":"大阪府","prefecture_kana":"オオサカフ","city":"大阪市西成区","city_kana":"オオサカシニシナリク","town":"出城","town_kana":"デシロ","prefecture_code":27},"0014":{"zip_code":"5570014","prefecture":"大阪府","prefecture_kana":"オオサカフ","city":"大阪市西成区","city_kana":"オオサカシニシナリク","town":"天下茶屋","town_kana":"テンガチャヤ","prefecture_code":27},"0011":{"zip_code":"5570011","prefecture":"大阪府","prefecture_kana":"オオサカフ","city":"大阪市西成区","city_kana":"オオサカシニシナリク","town":"天下茶屋東","town_kana":"テンガチャヤヒガシ","prefecture_code":27},"0003":{"zip_code":"5570003","prefecture":"大阪府","prefecture_kana":"オオサカフ","city":"大阪市西成区","city_kana":"オオサカシニシナリク","town":"天下茶屋北","town_kana":"テンガチャヤキタ","prefecture_code":27},"0013":{"zip_code":"5570013","prefecture":"大阪府","prefecture_kana":"オオサカフ","city":"大阪市西成区","city_kana":"オオサカシニシナリク","town":"天神ノ森","town_kana":"テンジンノモリ","prefecture_code":27},"0022":{"zip_code":"5570022","prefecture":"大阪府","prefecture_kana":"オオサカフ","city":"大阪市西成区","city_kana":"オオサカシニシナリク","town":"中開","town_kana":"ナカビラキ","prefecture_code":27},"0025":{"zip_code":"5570025","prefecture":"大阪府","prefecture_kana":"オオサカフ","city":"大阪市西成区","city_kana":"オオサカシニシナリク","town":"長橋","town_kana":"ナガハシ","prefecture_code":27},"0033":{"zip_code":"5570033","prefecture":"大阪府","prefecture_kana":"オオサカフ","city":"大阪市西成区","city_kana":"オオサカシニシナリク","town":"梅南","town_kana":"バイナン","prefecture_code":27},"0004":{"zip_code":"5570004","prefecture":"大阪府","prefecture_kana":"オオサカフ","city":"大阪市西成区","city_kana":"オオサカシニシナリク","town":"萩之茶屋","town_kana":"ハギノチャヤ","prefecture_code":27},"0015":{"zip_code":"5570015","prefecture":"大阪府","prefecture_kana":"オオサカフ","city":"大阪市西成区","city_kana":"オオサカシニシナリク","town":"花園南","town_kana":"ハナゾノミナミ","prefecture_code":27},"0016":{"zip_code":"5570016","prefecture":"大阪府","prefecture_kana":"オオサカフ","city":"大阪市西成区","city_kana":"オオサカシニシナリク","town":"花園北","town_kana":"ハナゾノキタ","prefecture_code":27},"0034":{"zip_code":"5570034","prefecture":"大阪府","prefecture_kana":"オオサカフ","city":"大阪市西成区","city_kana":"オオサカシニシナリク","town":"松","town_kana":"マツ","prefecture_code":27},"0063":{"zip_code":"5570063","prefecture":"大阪府","prefecture_kana":"オオサカフ","city":"大阪市西成区","city_kana":"オオサカシニシナリク","town":"南津守","town_kana":"ミナミツモリ","prefecture_code":27},"0023":{"zip_code":"5570023","prefecture":"大阪府","prefecture_kana":"オオサカフ","city":"大阪市西成区","city_kana":"オオサカシニシナリク","town":"南開","town_kana":"ミナミビラキ","prefecture_code":27}}