{"0000":{"zip_code":"5580000","prefecture":"大阪府","prefecture_kana":"オオサカフ","city":"大阪市住吉区","city_kana":"オオサカシスミヨシク","town":"","town_kana":"","prefecture_code":27},"0021":{"zip_code":"5580021","prefecture":"大阪府","prefecture_kana":"オオサカフ","city":"大阪市住吉区","city_kana":"オオサカシスミヨシク","town":"浅香","town_kana":"アサカ","prefecture_code":27},"0014":{"zip_code":"5580014","prefecture":"大阪府","prefecture_kana":"オオサカフ","city":"大阪市住吉区","city_kana":"オオサカシスミヨシク","town":"我孫子","town_kana":"アビコ","prefecture_code":27},"0013":{"zip_code":"5580013","prefecture":"大阪府","prefecture_kana":"オオサカフ","city":"大阪市住吉区","city_kana":"オオサカシスミヨシク","town":"我孫子東","town_kana":"アビコヒガシ","prefecture_code":27},"0015":{"zip_code":"5580015","prefecture":"大阪府","prefecture_kana":"オオサカフ","city":"大阪市住吉区","city_kana":"オオサカシスミヨシク","town":"我孫子西","town_kana":"アビコニシ","prefecture_code":27},"0046":{"zip_code":"5580046","prefecture":"大阪府","prefecture_kana":"オオサカフ","city":"大阪市住吉区","city_kana":"オオサカシスミヨシク","town":"上住吉","town_kana":"ウエスミヨシ","prefecture_code":27},"0032":{"zip_code":"5580032","prefecture":"大阪府","prefecture_kana":"オオサカフ","city":"大阪市住吉区","city_kana":"オオサカシスミヨシク","town":"遠里小野","town_kana":"オリオノ","prefecture_code":27},"0011":{"zip_code":"5580011","prefecture":"大阪府","prefecture_kana":"オオサカフ","city":"大阪市住吉区","city_kana":"オオサカシスミヨシク","town":"苅田","town_kana":"カリタ","prefecture_code":27},"0031":{"zip_code":"5580031","prefecture":"大阪府","prefecture_kana":"オオサカフ","city":"大阪市住吉区","city_kana":"オオサカシスミヨシク","town":"沢之町","town_kana":"サワノチョウ","prefecture_code":27},"0033":{"zip_code":"5580033","prefecture":"大阪府","prefecture_kana":"オオサカフ","city":"大阪市住吉区","city_kana":"オオサカシスミヨシク","town":"清水丘","town_kana":"シミズガオカ","prefecture_code":27},"0022":{"zip_code":"5580022","prefecture":"大阪府","prefecture_kana":"オオサカフ","city":"大阪市住吉区","city_kana":"オオサカシスミヨシク","town":"杉本","town_kana":"スギモト","prefecture_code":27},"0043":{"zip_code":"5580043","prefecture":"大阪府","prefecture_kana":"オオサカフ","city":"大阪市住吉区","city_kana":"オオサカシスミヨシク","town":"墨江","town_kana":"スミエ","prefecture_code":27},"0045":{"zip_code":"5580045","prefecture":"大阪府","prefecture_kana":"オオサカフ","city":"大阪市住吉区","city_kana":"オオサカシスミヨシク","town":"住吉","town_kana":"スミヨシ","prefecture_code":27},"0047":{"zip_code":"5580047","prefecture":"大阪府","prefecture_kana":"オオサカフ","city":"大阪市住吉区","city_kana":"オオサカシスミヨシク","town":"千躰","town_kana":"センタイ","prefecture_code":27},"0001":{"zip_code":"5580001","prefecture":"大阪府","prefecture_kana":"オオサカフ","city":"大阪市住吉区","city_kana":"オオサカシスミヨシク","town":"大領","town_kana":"ダイリョウ","prefecture_code":27},"0053":{"zip_code":"5580053","prefecture":"大阪府","prefecture_kana":"オオサカフ","city":"大阪市住吉区","city_kana":"オオサカシスミヨシク","town":"帝塚山中","town_kana":"テヅカヤマナカ","prefecture_code":27},"0054":{"zip_code":"5580054","prefecture":"大阪府","prefecture_kana":"オオサカフ","city":"大阪市住吉区","city_kana":"オオサカシスミヨシク","town":"帝塚山東","town_kana":"テヅカヤマヒガシ","prefecture_code":27},"0052":{"zip_code":"5580052","prefecture":"大阪府","prefecture_kana":"オオサカフ","city":"大阪市住吉区","city_kana":"オオサカシスミヨシク","town":"帝塚山西","town_kana":"テヅカヤマニシ","prefecture_code":27},"0042":{"zip_code":"5580042","prefecture":"大阪府","prefecture_kana":"オオサカフ","city":"大阪市住吉区","city_kana":"オオサカシスミヨシク","town":"殿辻","town_kana":"トノツジ","prefecture_code":27},"0003":{"zip_code":"5580003","prefecture":"大阪府","prefecture_kana":"オオサカフ","city":"大阪市住吉区","city_kana":"オオサカシスミヨシク","town":"長居","town_kana":"ナガイ","prefecture_code":27},"0004":{"zip_code":"5580004","prefecture":"大阪府","prefecture_kana":"オオサカフ","city":"大阪市住吉区","city_kana":"オオサカシスミヨシク","town":"長居東","town_kana":"ナガイヒガシ","prefecture_code":27},"0002":{"zip_code":"5580002","prefecture":"大阪府","prefecture_kana":"オオサカフ","city":"大阪市住吉区","city_kana":"オオサカシスミヨシク","town":"長居西","town_kana":"ナガイニシ","prefecture_code":27},"0044":{"zip_code":"5580044","prefecture":"大阪府","prefecture_kana":"オオサカフ","city":"大阪市住吉区","city_kana":"オオサカシスミヨシク","town":"長峡町","town_kana":"ナガオチョウ","prefecture_code":27},"0012":{"zip_code":"5580012","prefecture":"大阪府","prefecture_kana":"オオサカフ","city":"大阪市住吉区","city_kana":"オオサカシスミヨシク","town":"庭井","town_kana":"ニワイ","prefecture_code":27},"0055":{"zip_code":"5580055","prefecture":"大阪府","prefecture_kana":"オオサカフ","city":"大阪市住吉区","city_kana":"オオサカシスミヨシク","town":"万代","town_kana":"バンダイ","prefecture_code":27},"0056":{"zip_code":"5580056","prefecture":"大阪府","prefecture_kana":"オオサカフ","city":"大阪市住吉区","city_kana":"オオサカシスミヨシク","town":"万代東","town_kana":"バンダイヒガシ","prefecture_code":27},"0051":{"zip_code":"5580051","prefecture":"大阪府","prefecture_kana":"オオサカフ","city":"大阪市住吉区","city_kana":"オオサカシスミヨシク","town":"東粉浜","town_kana":"ヒガシコハマ","prefecture_code":27},"0041":{"zip_code":"5580041","prefecture":"大阪府","prefecture_kana":"オオサカフ","city":"大阪市住吉区","city_kana":"オオサカシスミヨシク","town":"南住吉","town_kana":"ミナミスミヨシ","prefecture_code":27},"0023":{"zip_code":"5580023","prefecture":"大阪府","prefecture_kana":"オオサカフ","city":"大阪市住吉区","city_kana":"オオサカシスミヨシク","town":"山之内","town_kana":"ヤマノウチ","prefecture_code":27},"0024":{"zip_code":"5580024","prefecture":"大阪府","prefecture_kana":"オオサカフ","city":"大阪市住吉区","city_kana":"オオサカシスミヨシク","town":"山之内元町","town_kana":"ヤマノウチモトマチ","prefecture_code":27}}