{"0000":{"zip_code":"5600000","prefecture":"大阪府","prefecture_kana":"オオサカフ","city":"豊中市","city_kana":"トヨナカシ","town":"以下に掲載がない場合","town_kana":"イカニケイサイガナイバアイ","prefecture_code":27},"0015":{"zip_code":"5600015","prefecture":"大阪府","prefecture_kana":"オオサカフ","city":"豊中市","city_kana":"トヨナカシ","town":"赤阪","town_kana":"アカサカ","prefecture_code":27},"0042":{"zip_code":"5600042","prefecture":"大阪府","prefecture_kana":"オオサカフ","city":"豊中市","city_kana":"トヨナカシ","town":"石橋麻田町","town_kana":"イシバシアサダチョウ","prefecture_code":27},"0013":{"zip_code":"5600013","prefecture":"大阪府","prefecture_kana":"オオサカフ","city":"豊中市","city_kana":"トヨナカシ","town":"上野東","town_kana":"ウエノヒガシ","prefecture_code":27},"0011":{"zip_code":"5600011","prefecture":"大阪府","prefecture_kana":"オオサカフ","city":"豊中市","city_kana":"トヨナカシ","town":"上野西","town_kana":"ウエノニシ","prefecture_code":27},"0012":{"zip_code":"5600012","prefecture":"大阪府","prefecture_kana":"オオサカフ","city":"豊中市","city_kana":"トヨナカシ","town":"上野坂","town_kana":"ウエノサカ","prefecture_code":27},"0051":{"zip_code":"5600051","prefecture":"大阪府","prefecture_kana":"オオサカフ","city":"豊中市","city_kana":"トヨナカシ","town":"永楽荘","town_kana":"エイラクソウ","prefecture_code":27},"0023":{"zip_code":"5600023","prefecture":"大阪府","prefecture_kana":"オオサカフ","city":"豊中市","city_kana":"トヨナカシ","town":"岡上の町","town_kana":"オカカミノチョウ","prefecture_code":27},"0052":{"zip_code":"5600052","prefecture":"大阪府","prefecture_kana":"オオサカフ","city":"豊中市","city_kana":"トヨナカシ","town":"春日町","town_kana":"カスガチョウ","prefecture_code":27},"0085":{"zip_code":"5600085","prefecture":"大阪府","prefecture_kana":"オオサカフ","city":"豊中市","city_kana":"トヨナカシ","town":"上新田","town_kana":"カミシンデン","prefecture_code":27},"0022":{"zip_code":"5600022","prefecture":"大阪府","prefecture_kana":"オオサカフ","city":"豊中市","city_kana":"トヨナカシ","town":"北桜塚","town_kana":"キタサクラヅカ","prefecture_code":27},"0001":{"zip_code":"5600001","prefecture":"大阪府","prefecture_kana":"オオサカフ","city":"豊中市","city_kana":"トヨナカシ","town":"北緑丘","town_kana":"キタミドリガオカ","prefecture_code":27},"0014":{"zip_code":"5600014","prefecture":"大阪府","prefecture_kana":"オオサカフ","city":"豊中市","city_kana":"トヨナカシ","town":"熊野町","town_kana":"クマノチョウ","prefecture_code":27},"0016":{"zip_code":"5600016","prefecture":"大阪府","prefecture_kana":"オオサカフ","city":"豊中市","city_kana":"トヨナカシ","town":"栗ケ丘町","town_kana":"クリガオカチョウ","prefecture_code":27},"0054":{"zip_code":"5600054","prefecture":"大阪府","prefecture_kana":"オオサカフ","city":"豊中市","city_kana":"トヨナカシ","town":"桜の町","town_kana":"サクラノチョウ","prefecture_code":27},"0055":{"zip_code":"5600055","prefecture":"大阪府","prefecture_kana":"オオサカフ","city":"豊中市","city_kana":"トヨナカシ","town":"柴原町","town_kana":"シバハラチョウ","prefecture_code":27},"0004":{"zip_code":"5600004","prefecture":"大阪府","prefecture_kana":"オオサカフ","city":"豊中市","city_kana":"トヨナカシ","town":"少路","town_kana":"ショウジ","prefecture_code":27},"0082":{"zip_code":"5600082","prefecture":"大阪府","prefecture_kana":"オオサカフ","city":"豊中市","city_kana":"トヨナカシ","town":"新千里東町","town_kana":"シンセンリヒガシマチ","prefecture_code":27},"0083":{"zip_code":"5600083","prefecture":"大阪府","prefecture_kana":"オオサカフ","city":"豊中市","city_kana":"トヨナカシ","town":"新千里西町","town_kana":"シンセンリニシマチ","prefecture_code":27},"0084":{"zip_code":"5600084","prefecture":"大阪府","prefecture_kana":"オオサカフ","city":"豊中市","city_kana":"トヨナカシ","town":"新千里南町","town_kana":"シンセンリミナミマチ","prefecture_code":27},"0081":{"zip_code":"5600081","prefecture":"大阪府","prefecture_kana":"オオサカフ","city":"豊中市","city_kana":"トヨナカシ","town":"新千里北町","town_kana":"シンセンリキタマチ","prefecture_code":27},"0024":{"zip_code":"5600024","prefecture":"大阪府","prefecture_kana":"オオサカフ","city":"豊中市","city_kana":"トヨナカシ","town":"末広町","town_kana":"スエヒロチョウ","prefecture_code":27},"0041":{"zip_code":"5600041","prefecture":"大阪府","prefecture_kana":"オオサカフ","city":"豊中市","city_kana":"トヨナカシ","town":"清風荘","town_kana":"セイフウソウ","prefecture_code":27},"0046":{"zip_code":"5600046","prefecture":"大阪府","prefecture_kana":"オオサカフ","city":"豊中市","city_kana":"トヨナカシ","town":"千里園","town_kana":"センリエン","prefecture_code":27},"0025":{"zip_code":"5600025","prefecture":"大阪府","prefecture_kana":"オオサカフ","city":"豊中市","city_kana":"トヨナカシ","town":"立花町","town_kana":"タチバナチョウ","prefecture_code":27},"0026":{"zip_code":"5600026","prefecture":"大阪府","prefecture_kana":"オオサカフ","city":"豊中市","city_kana":"トヨナカシ","town":"玉井町","town_kana":"タマイチョウ","prefecture_code":27},"0045":{"zip_code":"5600045","prefecture":"大阪府","prefecture_kana":"オオサカフ","city":"豊中市","city_kana":"トヨナカシ","town":"刀根山","town_kana":"トネヤマ","prefecture_code":27},"0044":{"zip_code":"5600044","prefecture":"大阪府","prefecture_kana":"オオサカフ","city":"豊中市","city_kana":"トヨナカシ","town":"刀根山元町","town_kana":"トネヤマモトマチ","prefecture_code":27},"0005":{"zip_code":"5600005","prefecture":"大阪府","prefecture_kana":"オオサカフ","city":"豊中市","city_kana":"トヨナカシ","town":"西緑丘","town_kana":"ニシミドリガオカ","prefecture_code":27},"0003":{"zip_code":"5600003","prefecture":"大阪府","prefecture_kana":"オオサカフ","city":"豊中市","city_kana":"トヨナカシ","town":"東豊中町","town_kana":"ヒガシトヨナカチョウ","prefecture_code":27},"0032":{"zip_code":"5600032","prefecture":"大阪府","prefecture_kana":"オオサカフ","city":"豊中市","city_kana":"トヨナカシ","town":"蛍池東町","town_kana":"ホタルガイケヒガシマチ","prefecture_code":27},"0036":{"zip_code":"5600036","prefecture":"大阪府","prefecture_kana":"オオサカフ","city":"豊中市","city_kana":"トヨナカシ","town":"蛍池西町","town_kana":"ホタルガイケニシマチ","prefecture_code":27},"0034":{"zip_code":"5600034","prefecture":"大阪府","prefecture_kana":"オオサカフ","city":"豊中市","city_kana":"トヨナカシ","town":"蛍池南町","town_kana":"ホタルガイケミナミマチ","prefecture_code":27},"0031":{"zip_code":"5600031","prefecture":"大阪府","prefecture_kana":"オオサカフ","city":"豊中市","city_kana":"トヨナカシ","town":"蛍池北町","town_kana":"ホタルガイケキタマチ","prefecture_code":27},"0033":{"zip_code":"5600033","prefecture":"大阪府","prefecture_kana":"オオサカフ","city":"豊中市","city_kana":"トヨナカシ","town":"蛍池中町","town_kana":"ホタルガイケナカマチ","prefecture_code":27},"0021":{"zip_code":"5600021","prefecture":"大阪府","prefecture_kana":"オオサカフ","city":"豊中市","city_kana":"トヨナカシ","town":"本町","town_kana":"ホンマチ","prefecture_code":27},"0043":{"zip_code":"5600043","prefecture":"大阪府","prefecture_kana":"オオサカフ","city":"豊中市","city_kana":"トヨナカシ","town":"待兼山町","town_kana":"マチカネヤマチョウ","prefecture_code":27},"0002":{"zip_code":"5600002","prefecture":"大阪府","prefecture_kana":"オオサカフ","city":"豊中市","city_kana":"トヨナカシ","town":"緑丘","town_kana":"ミドリガオカ","prefecture_code":27},"0035":{"zip_code":"5600035","prefecture":"大阪府","prefecture_kana":"オオサカフ","city":"豊中市","city_kana":"トヨナカシ","town":"箕輪","town_kana":"ミノワ","prefecture_code":27},"0056":{"zip_code":"5600056","prefecture":"大阪府","prefecture_kana":"オオサカフ","city":"豊中市","city_kana":"トヨナカシ","town":"宮山町","town_kana":"ミヤヤマチョウ","prefecture_code":27},"0053":{"zip_code":"5600053","prefecture":"大阪府","prefecture_kana":"オオサカフ","city":"豊中市","city_kana":"トヨナカシ","town":"向丘","town_kana":"ムカイガオカ","prefecture_code":27}}