{"0000":{"zip_code":"5630000","prefecture":"大阪府","prefecture_kana":"オオサカフ","city":"池田市","city_kana":"イケダシ","town":"以下に掲載がない場合","town_kana":"イカニケイサイガナイバアイ","prefecture_code":27},"0022":{"zip_code":"5630022","prefecture":"大阪府","prefecture_kana":"オオサカフ","city":"池田市","city_kana":"イケダシ","town":"旭丘","town_kana":"アサヒガオカ","prefecture_code":27},"0051":{"zip_code":"5630051","prefecture":"大阪府","prefecture_kana":"オオサカフ","city":"池田市","city_kana":"イケダシ","town":"綾羽","town_kana":"アヤハ","prefecture_code":27},"0023":{"zip_code":"5630023","prefecture":"大阪府","prefecture_kana":"オオサカフ","city":"池田市","city_kana":"イケダシ","town":"井口堂","town_kana":"イグチドウ","prefecture_code":27},"0032":{"zip_code":"5630032","prefecture":"大阪府","prefecture_kana":"オオサカフ","city":"池田市","city_kana":"イケダシ","town":"石橋","town_kana":"イシバシ","prefecture_code":27},"0027":{"zip_code":"5630027","prefecture":"大阪府","prefecture_kana":"オオサカフ","city":"池田市","city_kana":"イケダシ","town":"上池田","town_kana":"ウエイケダ","prefecture_code":27},"0042":{"zip_code":"5630042","prefecture":"大阪府","prefecture_kana":"オオサカフ","city":"池田市","city_kana":"イケダシ","town":"宇保町","town_kana":"ウホチョウ","prefecture_code":27},"0014":{"zip_code":"5630014","prefecture":"大阪府","prefecture_kana":"オオサカフ","city":"池田市","city_kana":"イケダシ","town":"木部町","town_kana":"キベチョウ","prefecture_code":27},"0034":{"zip_code":"5630034","prefecture":"大阪府","prefecture_kana":"オオサカフ","city":"池田市","city_kana":"イケダシ","town":"空港","town_kana":"クウコウ","prefecture_code":27},"0048":{"zip_code":"5630048","prefecture":"大阪府","prefecture_kana":"オオサカフ","city":"池田市","city_kana":"イケダシ","town":"呉服町","town_kana":"クレハチョウ","prefecture_code":27},"0043":{"zip_code":"5630043","prefecture":"大阪府","prefecture_kana":"オオサカフ","city":"池田市","city_kana":"イケダシ","town":"神田","town_kana":"コウダ","prefecture_code":27},"0058":{"zip_code":"5630058","prefecture":"大阪府","prefecture_kana":"オオサカフ","city":"池田市","city_kana":"イケダシ","town":"栄本町","town_kana":"サカエホンマチ","prefecture_code":27},"0056":{"zip_code":"5630056","prefecture":"大阪府","prefecture_kana":"オオサカフ","city":"池田市","city_kana":"イケダシ","town":"栄町","town_kana":"サカエマチ","prefecture_code":27},"0029":{"zip_code":"5630029","prefecture":"大阪府","prefecture_kana":"オオサカフ","city":"池田市","city_kana":"イケダシ","town":"五月丘","town_kana":"サツキガオカ","prefecture_code":27},"0028":{"zip_code":"5630028","prefecture":"大阪府","prefecture_kana":"オオサカフ","city":"池田市","city_kana":"イケダシ","town":"渋谷","town_kana":"シブタニ","prefecture_code":27},"0025":{"zip_code":"5630025","prefecture":"大阪府","prefecture_kana":"オオサカフ","city":"池田市","city_kana":"イケダシ","town":"城南","town_kana":"ジョウナン","prefecture_code":27},"0052":{"zip_code":"5630052","prefecture":"大阪府","prefecture_kana":"オオサカフ","city":"池田市","city_kana":"イケダシ","town":"城山町","town_kana":"シロヤマチョウ","prefecture_code":27},"0050":{"zip_code":"5630050","prefecture":"大阪府","prefecture_kana":"オオサカフ","city":"池田市","city_kana":"イケダシ","town":"新町","town_kana":"シンマチ","prefecture_code":27},"0055":{"zip_code":"5630055","prefecture":"大阪府","prefecture_kana":"オオサカフ","city":"池田市","city_kana":"イケダシ","town":"菅原町","town_kana":"スガハラチョウ","prefecture_code":27},"0033":{"zip_code":"5630033","prefecture":"大阪府","prefecture_kana":"オオサカフ","city":"池田市","city_kana":"イケダシ","town":"住吉","town_kana":"スミヨシ","prefecture_code":27},"0038":{"zip_code":"5630038","prefecture":"大阪府","prefecture_kana":"オオサカフ","city":"池田市","city_kana":"イケダシ","town":"荘園","town_kana":"ソウエン","prefecture_code":27},"0044":{"zip_code":"5630044","prefecture":"大阪府","prefecture_kana":"オオサカフ","city":"池田市","city_kana":"イケダシ","town":"ダイハツ町","town_kana":"ダイハツチョウ","prefecture_code":27},"0054":{"zip_code":"5630054","prefecture":"大阪府","prefecture_kana":"オオサカフ","city":"池田市","city_kana":"イケダシ","town":"大和町","town_kana":"ダイワチョウ","prefecture_code":27},"0053":{"zip_code":"5630053","prefecture":"大阪府","prefecture_kana":"オオサカフ","city":"池田市","city_kana":"イケダシ","town":"建石町","town_kana":"タテイシチョウ","prefecture_code":27},"0057":{"zip_code":"5630057","prefecture":"大阪府","prefecture_kana":"オオサカフ","city":"池田市","city_kana":"イケダシ","town":"槻木町","town_kana":"ツキノキチョウ","prefecture_code":27},"0031":{"zip_code":"5630031","prefecture":"大阪府","prefecture_kana":"オオサカフ","city":"池田市","city_kana":"イケダシ","town":"天神","town_kana":"テンジン","prefecture_code":27},"0035":{"zip_code":"5630035","prefecture":"大阪府","prefecture_kana":"オオサカフ","city":"池田市","city_kana":"イケダシ","town":"豊島南","town_kana":"トヨシマミナミ","prefecture_code":27},"0036":{"zip_code":"5630036","prefecture":"大阪府","prefecture_kana":"オオサカフ","city":"池田市","city_kana":"イケダシ","town":"豊島北","town_kana":"トヨシマキタ","prefecture_code":27},"0013":{"zip_code":"5630013","prefecture":"大阪府","prefecture_kana":"オオサカフ","city":"池田市","city_kana":"イケダシ","town":"中川原町","town_kana":"ナカガワラチョウ","prefecture_code":27},"0059":{"zip_code":"5630059","prefecture":"大阪府","prefecture_kana":"オオサカフ","city":"池田市","city_kana":"イケダシ","town":"西本町","town_kana":"ニシホンマチ","prefecture_code":27},"0021":{"zip_code":"5630021","prefecture":"大阪府","prefecture_kana":"オオサカフ","city":"池田市","city_kana":"イケダシ","town":"畑","town_kana":"ハタ","prefecture_code":27},"0037":{"zip_code":"5630037","prefecture":"大阪府","prefecture_kana":"オオサカフ","city":"池田市","city_kana":"イケダシ","town":"八王寺","town_kana":"ハチオウジ","prefecture_code":27},"0024":{"zip_code":"5630024","prefecture":"大阪府","prefecture_kana":"オオサカフ","city":"池田市","city_kana":"イケダシ","town":"鉢塚","town_kana":"ハチヅカ","prefecture_code":27},"0012":{"zip_code":"5630012","prefecture":"大阪府","prefecture_kana":"オオサカフ","city":"池田市","city_kana":"イケダシ","town":"東山町","town_kana":"ヒガシヤマチョウ","prefecture_code":27},"0046":{"zip_code":"5630046","prefecture":"大阪府","prefecture_kana":"オオサカフ","city":"池田市","city_kana":"イケダシ","town":"姫室町","town_kana":"ヒメムロチョウ","prefecture_code":27},"0017":{"zip_code":"5630017","prefecture":"大阪府","prefecture_kana":"オオサカフ","city":"池田市","city_kana":"イケダシ","town":"伏尾台","town_kana":"フシオダイ","prefecture_code":27},"0011":{"zip_code":"5630011","prefecture":"大阪府","prefecture_kana":"オオサカフ","city":"池田市","city_kana":"イケダシ","town":"伏尾町","town_kana":"フシオチョウ","prefecture_code":27},"0015":{"zip_code":"5630015","prefecture":"大阪府","prefecture_kana":"オオサカフ","city":"池田市","city_kana":"イケダシ","town":"古江町","town_kana":"フルエチョウ","prefecture_code":27},"0041":{"zip_code":"5630041","prefecture":"大阪府","prefecture_kana":"オオサカフ","city":"池田市","city_kana":"イケダシ","town":"満寿美町","town_kana":"マスミチョウ","prefecture_code":27},"0026":{"zip_code":"5630026","prefecture":"大阪府","prefecture_kana":"オオサカフ","city":"池田市","city_kana":"イケダシ","town":"緑丘","town_kana":"ミドリガオカ","prefecture_code":27},"0047":{"zip_code":"5630047","prefecture":"大阪府","prefecture_kana":"オオサカフ","city":"池田市","city_kana":"イケダシ","town":"室町","town_kana":"ムロマチ","prefecture_code":27},"0045":{"zip_code":"5630045","prefecture":"大阪府","prefecture_kana":"オオサカフ","city":"池田市","city_kana":"イケダシ","town":"桃園","town_kana":"モモゾノ","prefecture_code":27},"0016":{"zip_code":"5630016","prefecture":"大阪府","prefecture_kana":"オオサカフ","city":"池田市","city_kana":"イケダシ","town":"吉田町","town_kana":"ヨシダチョウ","prefecture_code":27},"0251":{"zip_code":"5630251","prefecture":"大阪府","prefecture_kana":"オオサカフ","city":"箕面市","city_kana":"ミノオシ","town":"上止々呂美","town_kana":"カミトドロミ","prefecture_code":27},"0252":{"zip_code":"5630252","prefecture":"大阪府","prefecture_kana":"オオサカフ","city":"箕面市","city_kana":"ミノオシ","town":"下止々呂美","town_kana":"シモトドロミ","prefecture_code":27},"0256":{"zip_code":"5630256","prefecture":"大阪府","prefecture_kana":"オオサカフ","city":"箕面市","city_kana":"ミノオシ","town":"森町北","town_kana":"シンマチキタ","prefecture_code":27},"0257":{"zip_code":"5630257","prefecture":"大阪府","prefecture_kana":"オオサカフ","city":"箕面市","city_kana":"ミノオシ","town":"森町中","town_kana":"シンマチナカ","prefecture_code":27},"0255":{"zip_code":"5630255","prefecture":"大阪府","prefecture_kana":"オオサカフ","city":"箕面市","city_kana":"ミノオシ","town":"森町西","town_kana":"シンマチニシ","prefecture_code":27},"0258":{"zip_code":"5630258","prefecture":"大阪府","prefecture_kana":"オオサカフ","city":"箕面市","city_kana":"ミノオシ","town":"森町南","town_kana":"シンマチミナミ","prefecture_code":27},"0100":{"zip_code":"5630100","prefecture":"大阪府","prefecture_kana":"オオサカフ","city":"豊能郡豊能町","city_kana":"トヨノグントヨノチョウ","town":"以下に掲載がない場合","town_kana":"イカニケイサイガナイバアイ","prefecture_code":27},"0217":{"zip_code":"5630217","prefecture":"大阪府","prefecture_kana":"オオサカフ","city":"豊能郡豊能町","city_kana":"トヨノグントヨノチョウ","town":"川尻","town_kana":"カワシリ","prefecture_code":27},"0215":{"zip_code":"5630215","prefecture":"大阪府","prefecture_kana":"オオサカフ","city":"豊能郡豊能町","city_kana":"トヨノグントヨノチョウ","town":"木代","town_kana":"キシロ","prefecture_code":27},"0214":{"zip_code":"5630214","prefecture":"大阪府","prefecture_kana":"オオサカフ","city":"豊能郡豊能町","city_kana":"トヨノグントヨノチョウ","town":"希望ケ丘","town_kana":"キボウガオカ","prefecture_code":27},"0213":{"zip_code":"5630213","prefecture":"大阪府","prefecture_kana":"オオサカフ","city":"豊能郡豊能町","city_kana":"トヨノグントヨノチョウ","town":"切畑","town_kana":"キリハタ","prefecture_code":27},"0104":{"zip_code":"5630104","prefecture":"大阪府","prefecture_kana":"オオサカフ","city":"豊能郡豊能町","city_kana":"トヨノグントヨノチョウ","town":"光風台","town_kana":"コウフウダイ","prefecture_code":27},"0105":{"zip_code":"5630105","prefecture":"大阪府","prefecture_kana":"オオサカフ","city":"豊能郡豊能町","city_kana":"トヨノグントヨノチョウ","town":"新光風台","town_kana":"シンコウフウダイ","prefecture_code":27},"0216":{"zip_code":"5630216","prefecture":"大阪府","prefecture_kana":"オオサカフ","city":"豊能郡豊能町","city_kana":"トヨノグントヨノチョウ","town":"高山","town_kana":"タカヤマ","prefecture_code":27},"0212":{"zip_code":"5630212","prefecture":"大阪府","prefecture_kana":"オオサカフ","city":"豊能郡豊能町","city_kana":"トヨノグントヨノチョウ","town":"寺田","town_kana":"テラダ","prefecture_code":27},"0102":{"zip_code":"5630102","prefecture":"大阪府","prefecture_kana":"オオサカフ","city":"豊能郡豊能町","city_kana":"トヨノグントヨノチョウ","town":"ときわ台","town_kana":"トキワダイ","prefecture_code":27},"0218":{"zip_code":"5630218","prefecture":"大阪府","prefecture_kana":"オオサカフ","city":"豊能郡豊能町","city_kana":"トヨノグントヨノチョウ","town":"野間口","town_kana":"ノマグチ","prefecture_code":27},"0103":{"zip_code":"5630103","prefecture":"大阪府","prefecture_kana":"オオサカフ","city":"豊能郡豊能町","city_kana":"トヨノグントヨノチョウ","town":"東ときわ台","town_kana":"ヒガシトキワダイ","prefecture_code":27},"0211":{"zip_code":"5630211","prefecture":"大阪府","prefecture_kana":"オオサカフ","city":"豊能郡豊能町","city_kana":"トヨノグントヨノチョウ","town":"牧","town_kana":"マキ","prefecture_code":27},"0101":{"zip_code":"5630101","prefecture":"大阪府","prefecture_kana":"オオサカフ","city":"豊能郡豊能町","city_kana":"トヨノグントヨノチョウ","town":"吉川","town_kana":"ヨシカワ","prefecture_code":27},"0219":{"zip_code":"5630219","prefecture":"大阪府","prefecture_kana":"オオサカフ","city":"豊能郡豊能町","city_kana":"トヨノグントヨノチョウ","town":"余野","town_kana":"ヨノ","prefecture_code":27},"0300":{"zip_code":"5630300","prefecture":"大阪府","prefecture_kana":"オオサカフ","city":"豊能郡能勢町","city_kana":"トヨノグンノセチョウ","town":"以下に掲載がない場合","town_kana":"イカニケイサイガナイバアイ","prefecture_code":27},"0363":{"zip_code":"5630363","prefecture":"大阪府","prefecture_kana":"オオサカフ","city":"豊能郡能勢町","city_kana":"トヨノグンノセチョウ","town":"稲地","town_kana":"イナジ","prefecture_code":27},"0361":{"zip_code":"5630361","prefecture":"大阪府","prefecture_kana":"オオサカフ","city":"豊能郡能勢町","city_kana":"トヨノグンノセチョウ","town":"今西","town_kana":"イマニシ","prefecture_code":27},"0365":{"zip_code":"5630365","prefecture":"大阪府","prefecture_kana":"オオサカフ","city":"豊能郡能勢町","city_kana":"トヨノグンノセチョウ","town":"上杉","town_kana":"ウエスギ","prefecture_code":27},"0352":{"zip_code":"5630352","prefecture":"大阪府","prefecture_kana":"オオサカフ","city":"豊能郡能勢町","city_kana":"トヨノグンノセチョウ","town":"大里","town_kana":"オオザト","prefecture_code":27},"0353":{"zip_code":"5630353","prefecture":"大阪府","prefecture_kana":"オオサカフ","city":"豊能郡能勢町","city_kana":"トヨノグンノセチョウ","town":"柏原","town_kana":"カシハラ","prefecture_code":27},"0354":{"zip_code":"5630354","prefecture":"大阪府","prefecture_kana":"オオサカフ","city":"豊能郡能勢町","city_kana":"トヨノグンノセチョウ","town":"片山","town_kana":"カタヤマ","prefecture_code":27},"0122":{"zip_code":"5630122","prefecture":"大阪府","prefecture_kana":"オオサカフ","city":"豊能郡能勢町","city_kana":"トヨノグンノセチョウ","town":"上田尻","town_kana":"カミタジリ","prefecture_code":27},"0113":{"zip_code":"5630113","prefecture":"大阪府","prefecture_kana":"オオサカフ","city":"豊能郡能勢町","city_kana":"トヨノグンノセチョウ","town":"倉垣","town_kana":"クラガキ","prefecture_code":27},"0351":{"zip_code":"5630351","prefecture":"大阪府","prefecture_kana":"オオサカフ","city":"豊能郡能勢町","city_kana":"トヨノグンノセチョウ","town":"栗栖","town_kana":"クルス","prefecture_code":27},"0367":{"zip_code":"5630367","prefecture":"大阪府","prefecture_kana":"オオサカフ","city":"豊能郡能勢町","city_kana":"トヨノグンノセチョウ","town":"神山","town_kana":"コヤマ","prefecture_code":27},"0121":{"zip_code":"5630121","prefecture":"大阪府","prefecture_kana":"オオサカフ","city":"豊能郡能勢町","city_kana":"トヨノグンノセチョウ","town":"地黄","town_kana":"ジオウ","prefecture_code":27},"0123":{"zip_code":"5630123","prefecture":"大阪府","prefecture_kana":"オオサカフ","city":"豊能郡能勢町","city_kana":"トヨノグンノセチョウ","town":"下田尻","town_kana":"シモタジリ","prefecture_code":27},"0355":{"zip_code":"5630355","prefecture":"大阪府","prefecture_kana":"オオサカフ","city":"豊能郡能勢町","city_kana":"トヨノグンノセチョウ","town":"下田","town_kana":"シモダ","prefecture_code":27},"0341":{"zip_code":"5630341","prefecture":"大阪府","prefecture_kana":"オオサカフ","city":"豊能郡能勢町","city_kana":"トヨノグンノセチョウ","town":"宿野","town_kana":"シュクノ","prefecture_code":27},"0112":{"zip_code":"5630112","prefecture":"大阪府","prefecture_kana":"オオサカフ","city":"豊能郡能勢町","city_kana":"トヨノグンノセチョウ","town":"杉原","town_kana":"スギハラ","prefecture_code":27},"0366":{"zip_code":"5630366","prefecture":"大阪府","prefecture_kana":"オオサカフ","city":"豊能郡能勢町","city_kana":"トヨノグンノセチョウ","town":"垂水","town_kana":"タルミ","prefecture_code":27},"0371":{"zip_code":"5630371","prefecture":"大阪府","prefecture_kana":"オオサカフ","city":"豊能郡能勢町","city_kana":"トヨノグンノセチョウ","town":"天王","town_kana":"テンノウ","prefecture_code":27},"0368":{"zip_code":"5630368","prefecture":"大阪府","prefecture_kana":"オオサカフ","city":"豊能郡能勢町","city_kana":"トヨノグンノセチョウ","town":"長谷","town_kana":"ナガタニ","prefecture_code":27},"0133":{"zip_code":"5630133","prefecture":"大阪府","prefecture_kana":"オオサカフ","city":"豊能郡能勢町","city_kana":"トヨノグンノセチョウ","town":"野間稲地","town_kana":"ノマイナジ","prefecture_code":27},"0131":{"zip_code":"5630131","prefecture":"大阪府","prefecture_kana":"オオサカフ","city":"豊能郡能勢町","city_kana":"トヨノグンノセチョウ","town":"野間大原","town_kana":"ノマオオハラ","prefecture_code":27},"0134":{"zip_code":"5630134","prefecture":"大阪府","prefecture_kana":"オオサカフ","city":"豊能郡能勢町","city_kana":"トヨノグンノセチョウ","town":"野間出野","town_kana":"ノマシュツノ","prefecture_code":27},"0132":{"zip_code":"5630132","prefecture":"大阪府","prefecture_kana":"オオサカフ","city":"豊能郡能勢町","city_kana":"トヨノグンノセチョウ","town":"野間中","town_kana":"ノマナカ","prefecture_code":27},"0135":{"zip_code":"5630135","prefecture":"大阪府","prefecture_kana":"オオサカフ","city":"豊能郡能勢町","city_kana":"トヨノグンノセチョウ","town":"野間西山","town_kana":"ノマニシヤマ","prefecture_code":27},"0356":{"zip_code":"5630356","prefecture":"大阪府","prefecture_kana":"オオサカフ","city":"豊能郡能勢町","city_kana":"トヨノグンノセチョウ","town":"平通","town_kana":"ヒラドオリ","prefecture_code":27},"0364":{"zip_code":"5630364","prefecture":"大阪府","prefecture_kana":"オオサカフ","city":"豊能郡能勢町","city_kana":"トヨノグンノセチョウ","town":"平野","town_kana":"ヒラノ","prefecture_code":27},"0362":{"zip_code":"5630362","prefecture":"大阪府","prefecture_kana":"オオサカフ","city":"豊能郡能勢町","city_kana":"トヨノグンノセチョウ","town":"森上","town_kana":"モリガミ","prefecture_code":27},"0114":{"zip_code":"5630114","prefecture":"大阪府","prefecture_kana":"オオサカフ","city":"豊能郡能勢町","city_kana":"トヨノグンノセチョウ","town":"山内","town_kana":"ヤマウチ","prefecture_code":27},"0373":{"zip_code":"5630373","prefecture":"大阪府","prefecture_kana":"オオサカフ","city":"豊能郡能勢町","city_kana":"トヨノグンノセチョウ","town":"山田","town_kana":"ヤマダ","prefecture_code":27},"0372":{"zip_code":"5630372","prefecture":"大阪府","prefecture_kana":"オオサカフ","city":"豊能郡能勢町","city_kana":"トヨノグンノセチョウ","town":"山辺","town_kana":"ヤマベ","prefecture_code":27},"0111":{"zip_code":"5630111","prefecture":"大阪府","prefecture_kana":"オオサカフ","city":"豊能郡能勢町","city_kana":"トヨノグンノセチョウ","town":"吉野","town_kana":"ヨシノ","prefecture_code":27},"0801":{"zip_code":"5630801","prefecture":"兵庫県","prefecture_kana":"ヒョウゴケン","city":"伊丹市","city_kana":"イタミシ","town":"小阪田（食田）","town_kana":"オサカデン(クイタ)","prefecture_code":28}}