{"0000":{"zip_code":"5660000","prefecture":"大阪府","prefecture_kana":"オオサカフ","city":"摂津市","city_kana":"セッツシ","town":"","town_kana":"","prefecture_code":27},"0051":{"zip_code":"5660051","prefecture":"大阪府","prefecture_kana":"オオサカフ","city":"摂津市","city_kana":"セッツシ","town":"安威川南町","town_kana":"アイガワミナミマチ","prefecture_code":27},"0033":{"zip_code":"5660033","prefecture":"大阪府","prefecture_kana":"オオサカフ","city":"摂津市","city_kana":"セッツシ","town":"学園町","town_kana":"ガクエンチョウ","prefecture_code":27},"0041":{"zip_code":"5660041","prefecture":"大阪府","prefecture_kana":"オオサカフ","city":"摂津市","city_kana":"セッツシ","town":"北別府町","town_kana":"キタベフチョウ","prefecture_code":27},"0034":{"zip_code":"5660034","prefecture":"大阪府","prefecture_kana":"オオサカフ","city":"摂津市","city_kana":"セッツシ","town":"香露園","town_kana":"コウロエン","prefecture_code":27},"0032":{"zip_code":"5660032","prefecture":"大阪府","prefecture_kana":"オオサカフ","city":"摂津市","city_kana":"セッツシ","town":"桜町","town_kana":"サクラマチ","prefecture_code":27},"0023":{"zip_code":"5660023","prefecture":"大阪府","prefecture_kana":"オオサカフ","city":"摂津市","city_kana":"セッツシ","town":"正雀","town_kana":"ショウジャク","prefecture_code":27},"0024":{"zip_code":"5660024","prefecture":"大阪府","prefecture_kana":"オオサカフ","city":"摂津市","city_kana":"セッツシ","town":"正雀本町","town_kana":"ショウジャクホンマチ","prefecture_code":27},"0012":{"zip_code":"5660012","prefecture":"大阪府","prefecture_kana":"オオサカフ","city":"摂津市","city_kana":"セッツシ","town":"庄屋","town_kana":"ショウヤ","prefecture_code":27},"0031":{"zip_code":"5660031","prefecture":"大阪府","prefecture_kana":"オオサカフ","city":"摂津市","city_kana":"セッツシ","town":"昭和園","town_kana":"ショウワエン","prefecture_code":27},"0055":{"zip_code":"5660055","prefecture":"大阪府","prefecture_kana":"オオサカフ","city":"摂津市","city_kana":"セッツシ","town":"新在家","town_kana":"シンザイケ","prefecture_code":27},"0001":{"zip_code":"5660001","prefecture":"大阪府","prefecture_kana":"オオサカフ","city":"摂津市","city_kana":"セッツシ","town":"千里丘","town_kana":"センリオカ","prefecture_code":27},"0011":{"zip_code":"5660011","prefecture":"大阪府","prefecture_kana":"オオサカフ","city":"摂津市","city_kana":"セッツシ","town":"千里丘東","town_kana":"センリオカヒガシ","prefecture_code":27},"0035":{"zip_code":"5660035","prefecture":"大阪府","prefecture_kana":"オオサカフ","city":"摂津市","city_kana":"セッツシ","town":"鶴野","town_kana":"ツルノ","prefecture_code":27},"0062":{"zip_code":"5660062","prefecture":"大阪府","prefecture_kana":"オオサカフ","city":"摂津市","city_kana":"セッツシ","town":"鳥飼上","town_kana":"トリカイカミ","prefecture_code":27},"0064":{"zip_code":"5660064","prefecture":"大阪府","prefecture_kana":"オオサカフ","city":"摂津市","city_kana":"セッツシ","town":"鳥飼中","town_kana":"トリカイナカ","prefecture_code":27},"0071":{"zip_code":"5660071","prefecture":"大阪府","prefecture_kana":"オオサカフ","city":"摂津市","city_kana":"セッツシ","town":"鳥飼下","town_kana":"トリカイシモ","prefecture_code":27},"0065":{"zip_code":"5660065","prefecture":"大阪府","prefecture_kana":"オオサカフ","city":"摂津市","city_kana":"セッツシ","town":"鳥飼新町","town_kana":"トリカイシンマチ","prefecture_code":27},"0053":{"zip_code":"5660053","prefecture":"大阪府","prefecture_kana":"オオサカフ","city":"摂津市","city_kana":"セッツシ","town":"鳥飼野々","town_kana":"トリカイノノ","prefecture_code":27},"0054":{"zip_code":"5660054","prefecture":"大阪府","prefecture_kana":"オオサカフ","city":"摂津市","city_kana":"セッツシ","town":"鳥飼八防","town_kana":"トリカイハチボウ","prefecture_code":27},"0061":{"zip_code":"5660061","prefecture":"大阪府","prefecture_kana":"オオサカフ","city":"摂津市","city_kana":"セッツシ","town":"鳥飼八町","town_kana":"トリカイハッチョウ","prefecture_code":27},"0052":{"zip_code":"5660052","prefecture":"大阪府","prefecture_kana":"オオサカフ","city":"摂津市","city_kana":"セッツシ","town":"鳥飼本町","town_kana":"トリカイホンマチ","prefecture_code":27},"0063":{"zip_code":"5660063","prefecture":"大阪府","prefecture_kana":"オオサカフ","city":"摂津市","city_kana":"セッツシ","town":"鳥飼銘木町","town_kana":"トリカイメイモクチョウ","prefecture_code":27},"0073":{"zip_code":"5660073","prefecture":"大阪府","prefecture_kana":"オオサカフ","city":"摂津市","city_kana":"セッツシ","town":"鳥飼和道","town_kana":"トリカイワドウ","prefecture_code":27},"0072":{"zip_code":"5660072","prefecture":"大阪府","prefecture_kana":"オオサカフ","city":"摂津市","city_kana":"セッツシ","town":"鳥飼西","town_kana":"トリカイニシ","prefecture_code":27},"0044":{"zip_code":"5660044","prefecture":"大阪府","prefecture_kana":"オオサカフ","city":"摂津市","city_kana":"セッツシ","town":"西一津屋","town_kana":"ニシヒトツヤ","prefecture_code":27},"0047":{"zip_code":"5660047","prefecture":"大阪府","prefecture_kana":"オオサカフ","city":"摂津市","city_kana":"セッツシ","town":"浜町","town_kana":"ハマチョウ","prefecture_code":27},"0013":{"zip_code":"5660013","prefecture":"大阪府","prefecture_kana":"オオサカフ","city":"摂津市","city_kana":"セッツシ","town":"阪急正雀","town_kana":"ハンキュウショウジャク","prefecture_code":27},"0025":{"zip_code":"5660025","prefecture":"大阪府","prefecture_kana":"オオサカフ","city":"摂津市","city_kana":"セッツシ","town":"東正雀","town_kana":"ヒガシショウジャク","prefecture_code":27},"0074":{"zip_code":"5660074","prefecture":"大阪府","prefecture_kana":"オオサカフ","city":"摂津市","city_kana":"セッツシ","town":"東一津屋","town_kana":"ヒガシヒトツヤ","prefecture_code":27},"0042":{"zip_code":"5660042","prefecture":"大阪府","prefecture_kana":"オオサカフ","city":"摂津市","city_kana":"セッツシ","town":"東別府","town_kana":"ヒガシベフ","prefecture_code":27},"0043":{"zip_code":"5660043","prefecture":"大阪府","prefecture_kana":"オオサカフ","city":"摂津市","city_kana":"セッツシ","town":"一津屋","town_kana":"ヒトツヤ","prefecture_code":27},"0046":{"zip_code":"5660046","prefecture":"大阪府","prefecture_kana":"オオサカフ","city":"摂津市","city_kana":"セッツシ","town":"別府","town_kana":"ベフ","prefecture_code":27},"0022":{"zip_code":"5660022","prefecture":"大阪府","prefecture_kana":"オオサカフ","city":"摂津市","city_kana":"セッツシ","town":"三島","town_kana":"ミシマ","prefecture_code":27},"0021":{"zip_code":"5660021","prefecture":"大阪府","prefecture_kana":"オオサカフ","city":"摂津市","city_kana":"セッツシ","town":"南千里丘","town_kana":"ミナミセンリオカ","prefecture_code":27},"0045":{"zip_code":"5660045","prefecture":"大阪府","prefecture_kana":"オオサカフ","city":"摂津市","city_kana":"セッツシ","town":"南別府町","town_kana":"ミナミベフチョウ","prefecture_code":27}}