{"0000":{"zip_code":"5670000","prefecture":"大阪府","prefecture_kana":"オオサカフ","city":"茨木市","city_kana":"イバラキシ","town":"以下に掲載がない場合","town_kana":"イカニケイサイガナイバアイ","prefecture_code":27},"0001":{"zip_code":"5670001","prefecture":"大阪府","prefecture_kana":"オオサカフ","city":"茨木市","city_kana":"イバラキシ","town":"安威","town_kana":"アイ","prefecture_code":27},"0831":{"zip_code":"5670831","prefecture":"大阪府","prefecture_kana":"オオサカフ","city":"茨木市","city_kana":"イバラキシ","town":"鮎川","town_kana":"アユカワ","prefecture_code":27},"0897":{"zip_code":"5670897","prefecture":"大阪府","prefecture_kana":"オオサカフ","city":"茨木市","city_kana":"イバラキシ","town":"主原町","town_kana":"アルジハラチョウ","prefecture_code":27},"0076":{"zip_code":"5670076","prefecture":"大阪府","prefecture_kana":"オオサカフ","city":"茨木市","city_kana":"イバラキシ","town":"井口台","town_kana":"イグチダイ","prefecture_code":27},"0842":{"zip_code":"5670842","prefecture":"大阪府","prefecture_kana":"オオサカフ","city":"茨木市","city_kana":"イバラキシ","town":"五十鈴町","town_kana":"イスズチョウ","prefecture_code":27},"0005":{"zip_code":"5670005","prefecture":"大阪府","prefecture_kana":"オオサカフ","city":"茨木市","city_kana":"イバラキシ","town":"五日市","town_kana":"イツカイチ","prefecture_code":27},"0029":{"zip_code":"5670029","prefecture":"大阪府","prefecture_kana":"オオサカフ","city":"茨木市","city_kana":"イバラキシ","town":"五日市緑町","town_kana":"イツカイチミドリマチ","prefecture_code":27},"0827":{"zip_code":"5670827","prefecture":"大阪府","prefecture_kana":"オオサカフ","city":"茨木市","city_kana":"イバラキシ","town":"稲葉町","town_kana":"イナバチョウ","prefecture_code":27},"0871":{"zip_code":"5670871","prefecture":"大阪府","prefecture_kana":"オオサカフ","city":"茨木市","city_kana":"イバラキシ","town":"岩倉町","town_kana":"イワクラチョウ","prefecture_code":27},"0064":{"zip_code":"5670064","prefecture":"大阪府","prefecture_kana":"オオサカフ","city":"茨木市","city_kana":"イバラキシ","town":"上野町","town_kana":"ウエノチョウ","prefecture_code":27},"0877":{"zip_code":"5670877","prefecture":"大阪府","prefecture_kana":"オオサカフ","city":"茨木市","city_kana":"イバラキシ","town":"丑寅","town_kana":"ウシトラ","prefecture_code":27},"0042":{"zip_code":"5670042","prefecture":"大阪府","prefecture_kana":"オオサカフ","city":"茨木市","city_kana":"イバラキシ","town":"宇野辺","town_kana":"ウノベ","prefecture_code":27},"0816":{"zip_code":"5670816","prefecture":"大阪府","prefecture_kana":"オオサカフ","city":"茨木市","city_kana":"イバラキシ","town":"永代町","town_kana":"エイダイチョウ","prefecture_code":27},"0888":{"zip_code":"5670888","prefecture":"大阪府","prefecture_kana":"オオサカフ","city":"茨木市","city_kana":"イバラキシ","town":"駅前","town_kana":"エキマエ","prefecture_code":27},"0826":{"zip_code":"5670826","prefecture":"大阪府","prefecture_kana":"オオサカフ","city":"茨木市","city_kana":"イバラキシ","town":"大池","town_kana":"オオイケ","prefecture_code":27},"0813":{"zip_code":"5670813","prefecture":"大阪府","prefecture_kana":"オオサカフ","city":"茨木市","city_kana":"イバラキシ","town":"大住町","town_kana":"オオスミチョウ","prefecture_code":27},"0018":{"zip_code":"5670018","prefecture":"大阪府","prefecture_kana":"オオサカフ","city":"茨木市","city_kana":"イバラキシ","town":"太田","town_kana":"オオダ","prefecture_code":27},"0013":{"zip_code":"5670013","prefecture":"大阪府","prefecture_kana":"オオサカフ","city":"茨木市","city_kana":"イバラキシ","town":"太田東芝町","town_kana":"オオダトウシバチョウ","prefecture_code":27},"0883":{"zip_code":"5670883","prefecture":"大阪府","prefecture_kana":"オオサカフ","city":"茨木市","city_kana":"イバラキシ","town":"大手町","town_kana":"オオテチョウ","prefecture_code":27},"0873":{"zip_code":"5670873","prefecture":"大阪府","prefecture_kana":"オオサカフ","city":"茨木市","city_kana":"イバラキシ","town":"小川町","town_kana":"オガワチョウ","prefecture_code":27},"0833":{"zip_code":"5670833","prefecture":"大阪府","prefecture_kana":"オオサカフ","city":"茨木市","city_kana":"イバラキシ","town":"学園町","town_kana":"ガクエンチョウ","prefecture_code":27},"0834":{"zip_code":"5670834","prefecture":"大阪府","prefecture_kana":"オオサカフ","city":"茨木市","city_kana":"イバラキシ","town":"学園南町","town_kana":"ガクエンミナミマチ","prefecture_code":27},"0031":{"zip_code":"5670031","prefecture":"大阪府","prefecture_kana":"オオサカフ","city":"茨木市","city_kana":"イバラキシ","town":"春日","town_kana":"カスガ","prefecture_code":27},"0819":{"zip_code":"5670819","prefecture":"大阪府","prefecture_kana":"オオサカフ","city":"茨木市","city_kana":"イバラキシ","town":"片桐町","town_kana":"カタギリチョウ","prefecture_code":27},"0811":{"zip_code":"5670811","prefecture":"大阪府","prefecture_kana":"オオサカフ","city":"茨木市","city_kana":"イバラキシ","town":"上泉町","town_kana":"カミイズミチョウ","prefecture_code":27},"0065":{"zip_code":"5670065","prefecture":"大阪府","prefecture_kana":"オオサカフ","city":"茨木市","city_kana":"イバラキシ","town":"上郡","town_kana":"カミゴオリ","prefecture_code":27},"0881":{"zip_code":"5670881","prefecture":"大阪府","prefecture_kana":"オオサカフ","city":"茨木市","city_kana":"イバラキシ","town":"上中条","town_kana":"カミチュウジョウ","prefecture_code":27},"0036":{"zip_code":"5670036","prefecture":"大阪府","prefecture_kana":"オオサカフ","city":"茨木市","city_kana":"イバラキシ","town":"上穂積","town_kana":"カミホヅミ","prefecture_code":27},"0037":{"zip_code":"5670037","prefecture":"大阪府","prefecture_kana":"オオサカフ","city":"茨木市","city_kana":"イバラキシ","town":"上穂東町","town_kana":"カミホヒガシマチ","prefecture_code":27},"0048":{"zip_code":"5670048","prefecture":"大阪府","prefecture_kana":"オオサカフ","city":"茨木市","city_kana":"イバラキシ","town":"北春日丘","town_kana":"キタカスガオカ","prefecture_code":27},"0878":{"zip_code":"5670878","prefecture":"大阪府","prefecture_kana":"オオサカフ","city":"茨木市","city_kana":"イバラキシ","town":"蔵垣内","town_kana":"クラカキウチ","prefecture_code":27},"0841":{"zip_code":"5670841","prefecture":"大阪府","prefecture_kana":"オオサカフ","city":"茨木市","city_kana":"イバラキシ","town":"桑田町","town_kana":"クワタチョウ","prefecture_code":27},"0072":{"zip_code":"5670072","prefecture":"大阪府","prefecture_kana":"オオサカフ","city":"茨木市","city_kana":"イバラキシ","town":"郡","town_kana":"コオリ","prefecture_code":27},"0071":{"zip_code":"5670071","prefecture":"大阪府","prefecture_kana":"オオサカフ","city":"茨木市","city_kana":"イバラキシ","town":"郡山","town_kana":"コオリヤマ","prefecture_code":27},"0043":{"zip_code":"5670043","prefecture":"大阪府","prefecture_kana":"オオサカフ","city":"茨木市","city_kana":"イバラキシ","town":"小坪井","town_kana":"コツボイ","prefecture_code":27},"0852":{"zip_code":"5670852","prefecture":"大阪府","prefecture_kana":"オオサカフ","city":"茨木市","city_kana":"イバラキシ","town":"小柳町","town_kana":"コヤナギチョウ","prefecture_code":27},"0085":{"zip_code":"5670085","prefecture":"大阪府","prefecture_kana":"オオサカフ","city":"茨木市","city_kana":"イバラキシ","town":"彩都あさぎ","town_kana":"サイトアサギ","prefecture_code":27},"0086":{"zip_code":"5670086","prefecture":"大阪府","prefecture_kana":"オオサカフ","city":"茨木市","city_kana":"イバラキシ","town":"彩都やまぶき","town_kana":"サイトヤマブキ","prefecture_code":27},"0075":{"zip_code":"5670075","prefecture":"大阪府","prefecture_kana":"オオサカフ","city":"茨木市","city_kana":"イバラキシ","town":"道祖本","town_kana":"サイノモト","prefecture_code":27},"0864":{"zip_code":"5670864","prefecture":"大阪府","prefecture_kana":"オオサカフ","city":"茨木市","city_kana":"イバラキシ","town":"沢良宜浜","town_kana":"サワラギハマ","prefecture_code":27},"0863":{"zip_code":"5670863","prefecture":"大阪府","prefecture_kana":"オオサカフ","city":"茨木市","city_kana":"イバラキシ","town":"沢良宜東町","town_kana":"サワラギヒガシマチ","prefecture_code":27},"0868":{"zip_code":"5670868","prefecture":"大阪府","prefecture_kana":"オオサカフ","city":"茨木市","city_kana":"イバラキシ","town":"沢良宜西","town_kana":"サワラギニシ","prefecture_code":27},"0854":{"zip_code":"5670854","prefecture":"大阪府","prefecture_kana":"オオサカフ","city":"茨木市","city_kana":"イバラキシ","town":"島","town_kana":"シマ","prefecture_code":27},"0059":{"zip_code":"5670059","prefecture":"大阪府","prefecture_kana":"オオサカフ","city":"茨木市","city_kana":"イバラキシ","town":"清水","town_kana":"シミズ","prefecture_code":27},"0045":{"zip_code":"5670045","prefecture":"大阪府","prefecture_kana":"オオサカフ","city":"茨木市","city_kana":"イバラキシ","town":"紫明園","town_kana":"シメイエン","prefecture_code":27},"0066":{"zip_code":"5670066","prefecture":"大阪府","prefecture_kana":"オオサカフ","city":"茨木市","city_kana":"イバラキシ","town":"下井町","town_kana":"シモイチョウ","prefecture_code":27},"0886":{"zip_code":"5670886","prefecture":"大阪府","prefecture_kana":"オオサカフ","city":"茨木市","city_kana":"イバラキシ","town":"下中条町","town_kana":"シモチュウジョウチョウ","prefecture_code":27},"0041":{"zip_code":"5670041","prefecture":"大阪府","prefecture_kana":"オオサカフ","city":"茨木市","city_kana":"イバラキシ","town":"下穂積","town_kana":"シモホヅミ","prefecture_code":27},"0055":{"zip_code":"5670055","prefecture":"大阪府","prefecture_kana":"オオサカフ","city":"茨木市","city_kana":"イバラキシ","town":"宿川原町","town_kana":"シュクガハラチョウ","prefecture_code":27},"0051":{"zip_code":"5670051","prefecture":"大阪府","prefecture_kana":"オオサカフ","city":"茨木市","city_kana":"イバラキシ","town":"宿久庄","town_kana":"シュクノショウ","prefecture_code":27},"0806":{"zip_code":"5670806","prefecture":"大阪府","prefecture_kana":"オオサカフ","city":"茨木市","city_kana":"イバラキシ","town":"庄","town_kana":"ショウ","prefecture_code":27},"0832":{"zip_code":"5670832","prefecture":"大阪府","prefecture_kana":"オオサカフ","city":"茨木市","city_kana":"イバラキシ","town":"白川","town_kana":"シラカワ","prefecture_code":27},"0014":{"zip_code":"5670014","prefecture":"大阪府","prefecture_kana":"オオサカフ","city":"茨木市","city_kana":"イバラキシ","town":"城の前町","town_kana":"シロノマエチョウ","prefecture_code":27},"0074":{"zip_code":"5670074","prefecture":"大阪府","prefecture_kana":"オオサカフ","city":"茨木市","city_kana":"イバラキシ","town":"新郡山","town_kana":"シンコオリヤマ","prefecture_code":27},"0884":{"zip_code":"5670884","prefecture":"大阪府","prefecture_kana":"オオサカフ","city":"茨木市","city_kana":"イバラキシ","town":"新庄町","town_kana":"シンジョウチョウ","prefecture_code":27},"0872":{"zip_code":"5670872","prefecture":"大阪府","prefecture_kana":"オオサカフ","city":"茨木市","city_kana":"イバラキシ","town":"新中条町","town_kana":"シンチュウジョウチョウ","prefecture_code":27},"0835":{"zip_code":"5670835","prefecture":"大阪府","prefecture_kana":"オオサカフ","city":"茨木市","city_kana":"イバラキシ","town":"新堂","town_kana":"シンドウ","prefecture_code":27},"0855":{"zip_code":"5670855","prefecture":"大阪府","prefecture_kana":"オオサカフ","city":"茨木市","city_kana":"イバラキシ","town":"新和町","town_kana":"シンワチョウ","prefecture_code":27},"0821":{"zip_code":"5670821","prefecture":"大阪府","prefecture_kana":"オオサカフ","city":"茨木市","city_kana":"イバラキシ","town":"末広町","town_kana":"スエヒロチョウ","prefecture_code":27},"0801":{"zip_code":"5670801","prefecture":"大阪府","prefecture_kana":"オオサカフ","city":"茨木市","city_kana":"イバラキシ","town":"総持寺","town_kana":"ソウジジ","prefecture_code":27},"0802":{"zip_code":"5670802","prefecture":"大阪府","prefecture_kana":"オオサカフ","city":"茨木市","city_kana":"イバラキシ","town":"総持寺駅前町","town_kana":"ソウジジエキマエチョウ","prefecture_code":27},"0804":{"zip_code":"5670804","prefecture":"大阪府","prefecture_kana":"オオサカフ","city":"茨木市","city_kana":"イバラキシ","town":"総持寺台","town_kana":"ソウジジダイ","prefecture_code":27},"0825":{"zip_code":"5670825","prefecture":"大阪府","prefecture_kana":"オオサカフ","city":"茨木市","city_kana":"イバラキシ","town":"園田町","town_kana":"ソノダチョウ","prefecture_code":27},"0867":{"zip_code":"5670867","prefecture":"大阪府","prefecture_kana":"オオサカフ","city":"茨木市","city_kana":"イバラキシ","town":"大正町","town_kana":"タイショウチョウ","prefecture_code":27},"0844":{"zip_code":"5670844","prefecture":"大阪府","prefecture_kana":"オオサカフ","city":"茨木市","city_kana":"イバラキシ","town":"大同町","town_kana":"ダイドウチョウ","prefecture_code":27},"0011":{"zip_code":"5670011","prefecture":"大阪府","prefecture_kana":"オオサカフ","city":"茨木市","city_kana":"イバラキシ","town":"高田町","town_kana":"タカダチョウ","prefecture_code":27},"0866":{"zip_code":"5670866","prefecture":"大阪府","prefecture_kana":"オオサカフ","city":"茨木市","city_kana":"イバラキシ","town":"高浜町","town_kana":"タカハマチョウ","prefecture_code":27},"0815":{"zip_code":"5670815","prefecture":"大阪府","prefecture_kana":"オオサカフ","city":"茨木市","city_kana":"イバラキシ","town":"竹橋町","town_kana":"タケハシチョウ","prefecture_code":27},"0025":{"zip_code":"5670025","prefecture":"大阪府","prefecture_kana":"オオサカフ","city":"茨木市","city_kana":"イバラキシ","town":"田中町","town_kana":"タナカチョウ","prefecture_code":27},"0895":{"zip_code":"5670895","prefecture":"大阪府","prefecture_kana":"オオサカフ","city":"茨木市","city_kana":"イバラキシ","town":"玉櫛","town_kana":"タマクシ","prefecture_code":27},"0846":{"zip_code":"5670846","prefecture":"大阪府","prefecture_kana":"オオサカフ","city":"茨木市","city_kana":"イバラキシ","town":"玉島","town_kana":"タマシマ","prefecture_code":27},"0848":{"zip_code":"5670848","prefecture":"大阪府","prefecture_kana":"オオサカフ","city":"茨木市","city_kana":"イバラキシ","town":"玉島台","town_kana":"タマシマダイ","prefecture_code":27},"0893":{"zip_code":"5670893","prefecture":"大阪府","prefecture_kana":"オオサカフ","city":"茨木市","city_kana":"イバラキシ","town":"玉瀬町","town_kana":"タマセチョウ","prefecture_code":27},"0896":{"zip_code":"5670896","prefecture":"大阪府","prefecture_kana":"オオサカフ","city":"茨木市","city_kana":"イバラキシ","town":"玉水町","town_kana":"タマミズチョウ","prefecture_code":27},"0823":{"zip_code":"5670823","prefecture":"大阪府","prefecture_kana":"オオサカフ","city":"茨木市","city_kana":"イバラキシ","town":"寺田町","town_kana":"テラダチョウ","prefecture_code":27},"0876":{"zip_code":"5670876","prefecture":"大阪府","prefecture_kana":"オオサカフ","city":"茨木市","city_kana":"イバラキシ","town":"天王","town_kana":"テンノウ","prefecture_code":27},"0812":{"zip_code":"5670812","prefecture":"大阪府","prefecture_kana":"オオサカフ","city":"茨木市","city_kana":"イバラキシ","town":"東宮町","town_kana":"トウグウチョウ","prefecture_code":27},"0016":{"zip_code":"5670016","prefecture":"大阪府","prefecture_kana":"オオサカフ","city":"茨木市","city_kana":"イバラキシ","town":"十日市町","town_kana":"トオカイチチョウ","prefecture_code":27},"0814":{"zip_code":"5670814","prefecture":"大阪府","prefecture_kana":"オオサカフ","city":"茨木市","city_kana":"イバラキシ","town":"戸伏町","town_kana":"トブシチョウ","prefecture_code":27},"0057":{"zip_code":"5670057","prefecture":"大阪府","prefecture_kana":"オオサカフ","city":"茨木市","city_kana":"イバラキシ","town":"豊川","town_kana":"トヨカワ","prefecture_code":27},"0053":{"zip_code":"5670053","prefecture":"大阪府","prefecture_kana":"オオサカフ","city":"茨木市","city_kana":"イバラキシ","town":"豊原町","town_kana":"トヨハラチョウ","prefecture_code":27},"0063":{"zip_code":"5670063","prefecture":"大阪府","prefecture_kana":"オオサカフ","city":"茨木市","city_kana":"イバラキシ","town":"中河原町","town_kana":"ナカカハラチョウ","prefecture_code":27},"0803":{"zip_code":"5670803","prefecture":"大阪府","prefecture_kana":"オオサカフ","city":"茨木市","city_kana":"イバラキシ","town":"中総持寺町","town_kana":"ナカソウジジチョウ","prefecture_code":27},"0824":{"zip_code":"5670824","prefecture":"大阪府","prefecture_kana":"オオサカフ","city":"茨木市","city_kana":"イバラキシ","town":"中津町","town_kana":"ナカツチョウ","prefecture_code":27},"0034":{"zip_code":"5670034","prefecture":"大阪府","prefecture_kana":"オオサカフ","city":"茨木市","city_kana":"イバラキシ","town":"中穂積","town_kana":"ナカホヅミ","prefecture_code":27},"0822":{"zip_code":"5670822","prefecture":"大阪府","prefecture_kana":"オオサカフ","city":"茨木市","city_kana":"イバラキシ","town":"中村町","town_kana":"ナカムラチョウ","prefecture_code":27},"0892":{"zip_code":"5670892","prefecture":"大阪府","prefecture_kana":"オオサカフ","city":"茨木市","city_kana":"イバラキシ","town":"並木町","town_kana":"ナミキチョウ","prefecture_code":27},"0874":{"zip_code":"5670874","prefecture":"大阪府","prefecture_kana":"オオサカフ","city":"茨木市","city_kana":"イバラキシ","town":"奈良町","town_kana":"ナラチョウ","prefecture_code":27},"0008":{"zip_code":"5670008","prefecture":"大阪府","prefecture_kana":"オオサカフ","city":"茨木市","city_kana":"イバラキシ","town":"西安威","town_kana":"ニシアイ","prefecture_code":27},"0032":{"zip_code":"5670032","prefecture":"大阪府","prefecture_kana":"オオサカフ","city":"茨木市","city_kana":"イバラキシ","town":"西駅前町","town_kana":"ニシエキマエチョウ","prefecture_code":27},"0015":{"zip_code":"5670015","prefecture":"大阪府","prefecture_kana":"オオサカフ","city":"茨木市","city_kana":"イバラキシ","town":"西太田町","town_kana":"ニシオオダチョウ","prefecture_code":27},"0023":{"zip_code":"5670023","prefecture":"大阪府","prefecture_kana":"オオサカフ","city":"茨木市","city_kana":"イバラキシ","town":"西河原","town_kana":"ニシガワラ","prefecture_code":27},"0003":{"zip_code":"5670003","prefecture":"大阪府","prefecture_kana":"オオサカフ","city":"茨木市","city_kana":"イバラキシ","town":"西河原北町","town_kana":"ニシガワラキタマチ","prefecture_code":27},"0027":{"zip_code":"5670027","prefecture":"大阪府","prefecture_kana":"オオサカフ","city":"茨木市","city_kana":"イバラキシ","town":"西田中町","town_kana":"ニシタナカチョウ","prefecture_code":27},"0887":{"zip_code":"5670887","prefecture":"大阪府","prefecture_kana":"オオサカフ","city":"茨木市","city_kana":"イバラキシ","town":"西中条町","town_kana":"ニシチュウジョウチョウ","prefecture_code":27},"0058":{"zip_code":"5670058","prefecture":"大阪府","prefecture_kana":"オオサカフ","city":"茨木市","city_kana":"イバラキシ","town":"西豊川町","town_kana":"ニシトヨカワチョウ","prefecture_code":27},"0067":{"zip_code":"5670067","prefecture":"大阪府","prefecture_kana":"オオサカフ","city":"茨木市","city_kana":"イバラキシ","town":"西福井","town_kana":"ニシフクイ","prefecture_code":27},"0073":{"zip_code":"5670073","prefecture":"大阪府","prefecture_kana":"オオサカフ","city":"茨木市","city_kana":"イバラキシ","town":"西穂積町","town_kana":"ニシホヅミチョウ","prefecture_code":27},"0847":{"zip_code":"5670847","prefecture":"大阪府","prefecture_kana":"オオサカフ","city":"茨木市","city_kana":"イバラキシ","town":"野々宮","town_kana":"ノノミヤ","prefecture_code":27},"0805":{"zip_code":"5670805","prefecture":"大阪府","prefecture_kana":"オオサカフ","city":"茨木市","city_kana":"イバラキシ","town":"橋の内","town_kana":"ハシノウチ","prefecture_code":27},"0028":{"zip_code":"5670028","prefecture":"大阪府","prefecture_kana":"オオサカフ","city":"茨木市","city_kana":"イバラキシ","town":"畑田町","town_kana":"ハタケダチョウ","prefecture_code":27},"0017":{"zip_code":"5670017","prefecture":"大阪府","prefecture_kana":"オオサカフ","city":"茨木市","city_kana":"イバラキシ","town":"花園","town_kana":"ハナゾノ","prefecture_code":27},"0002":{"zip_code":"5670002","prefecture":"大阪府","prefecture_kana":"オオサカフ","city":"茨木市","city_kana":"イバラキシ","town":"東安威","town_kana":"ヒガシアイ","prefecture_code":27},"0879":{"zip_code":"5670879","prefecture":"大阪府","prefecture_kana":"オオサカフ","city":"茨木市","city_kana":"イバラキシ","town":"東宇野辺町","town_kana":"ヒガシウノベチョウ","prefecture_code":27},"0012":{"zip_code":"5670012","prefecture":"大阪府","prefecture_kana":"オオサカフ","city":"茨木市","city_kana":"イバラキシ","town":"東太田","town_kana":"ヒガシオオダ","prefecture_code":27},"0885":{"zip_code":"5670885","prefecture":"大阪府","prefecture_kana":"オオサカフ","city":"茨木市","city_kana":"イバラキシ","town":"東中条町","town_kana":"ヒガシチュウジョウチョウ","prefecture_code":27},"0861":{"zip_code":"5670861","prefecture":"大阪府","prefecture_kana":"オオサカフ","city":"茨木市","city_kana":"イバラキシ","town":"東奈良","town_kana":"ヒガシナラ","prefecture_code":27},"0838":{"zip_code":"5670838","prefecture":"大阪府","prefecture_kana":"オオサカフ","city":"茨木市","city_kana":"イバラキシ","town":"東野々宮町","town_kana":"ヒガシノノミヤチョウ","prefecture_code":27},"0062":{"zip_code":"5670062","prefecture":"大阪府","prefecture_kana":"オオサカフ","city":"茨木市","city_kana":"イバラキシ","town":"東福井","town_kana":"ヒガシフクイ","prefecture_code":27},"0845":{"zip_code":"5670845","prefecture":"大阪府","prefecture_kana":"オオサカフ","city":"茨木市","city_kana":"イバラキシ","town":"平田","town_kana":"ヒラタ","prefecture_code":27},"0849":{"zip_code":"5670849","prefecture":"大阪府","prefecture_kana":"オオサカフ","city":"茨木市","city_kana":"イバラキシ","town":"平田台","town_kana":"ヒラタダイ","prefecture_code":27},"0061":{"zip_code":"5670061","prefecture":"大阪府","prefecture_kana":"オオサカフ","city":"茨木市","city_kana":"イバラキシ","town":"福井","town_kana":"フクイ","prefecture_code":27},"0054":{"zip_code":"5670054","prefecture":"大阪府","prefecture_kana":"オオサカフ","city":"茨木市","city_kana":"イバラキシ","town":"藤の里","town_kana":"フジノサト","prefecture_code":27},"0829":{"zip_code":"5670829","prefecture":"大阪府","prefecture_kana":"オオサカフ","city":"茨木市","city_kana":"イバラキシ","town":"双葉町","town_kana":"フタバチョウ","prefecture_code":27},"0828":{"zip_code":"5670828","prefecture":"大阪府","prefecture_kana":"オオサカフ","city":"茨木市","city_kana":"イバラキシ","town":"舟木町","town_kana":"フナキチョウ","prefecture_code":27},"0817":{"zip_code":"5670817","prefecture":"大阪府","prefecture_kana":"オオサカフ","city":"茨木市","city_kana":"イバラキシ","town":"別院町","town_kana":"ベツインチョウ","prefecture_code":27},"0843":{"zip_code":"5670843","prefecture":"大阪府","prefecture_kana":"オオサカフ","city":"茨木市","city_kana":"イバラキシ","town":"星見町","town_kana":"ホシミチョウ","prefecture_code":27},"0044":{"zip_code":"5670044","prefecture":"大阪府","prefecture_kana":"オオサカフ","city":"茨木市","city_kana":"イバラキシ","town":"穂積台","town_kana":"ホヅミダイ","prefecture_code":27},"0818":{"zip_code":"5670818","prefecture":"大阪府","prefecture_kana":"オオサカフ","city":"茨木市","city_kana":"イバラキシ","town":"本町","town_kana":"ホンマチ","prefecture_code":27},"0851":{"zip_code":"5670851","prefecture":"大阪府","prefecture_kana":"オオサカフ","city":"茨木市","city_kana":"イバラキシ","town":"真砂","town_kana":"マサゴ","prefecture_code":27},"0850":{"zip_code":"5670850","prefecture":"大阪府","prefecture_kana":"オオサカフ","city":"茨木市","city_kana":"イバラキシ","town":"真砂玉島台","town_kana":"マサゴタマシマダイ","prefecture_code":27},"0033":{"zip_code":"5670033","prefecture":"大阪府","prefecture_kana":"オオサカフ","city":"茨木市","city_kana":"イバラキシ","town":"松ケ本町","town_kana":"マツガモトチョウ","prefecture_code":27},"0026":{"zip_code":"5670026","prefecture":"大阪府","prefecture_kana":"オオサカフ","city":"茨木市","city_kana":"イバラキシ","town":"松下町","town_kana":"マツシタチョウ","prefecture_code":27},"0024":{"zip_code":"5670024","prefecture":"大阪府","prefecture_kana":"オオサカフ","city":"茨木市","city_kana":"イバラキシ","town":"三咲町","town_kana":"ミサキチョウ","prefecture_code":27},"0862":{"zip_code":"5670862","prefecture":"大阪府","prefecture_kana":"オオサカフ","city":"茨木市","city_kana":"イバラキシ","town":"美沢町","town_kana":"ミサワチョウ","prefecture_code":27},"0021":{"zip_code":"5670021","prefecture":"大阪府","prefecture_kana":"オオサカフ","city":"茨木市","city_kana":"イバラキシ","town":"三島丘","town_kana":"ミシマオカ","prefecture_code":27},"0022":{"zip_code":"5670022","prefecture":"大阪府","prefecture_kana":"オオサカフ","city":"茨木市","city_kana":"イバラキシ","town":"三島町","town_kana":"ミシマチョウ","prefecture_code":27},"0891":{"zip_code":"5670891","prefecture":"大阪府","prefecture_kana":"オオサカフ","city":"茨木市","city_kana":"イバラキシ","town":"水尾","town_kana":"ミズオ","prefecture_code":27},"0035":{"zip_code":"5670035","prefecture":"大阪府","prefecture_kana":"オオサカフ","city":"茨木市","city_kana":"イバラキシ","town":"見付山","town_kana":"ミツケヤマ","prefecture_code":27},"0007":{"zip_code":"5670007","prefecture":"大阪府","prefecture_kana":"オオサカフ","city":"茨木市","city_kana":"イバラキシ","town":"南安威","town_kana":"ミナミアイ","prefecture_code":27},"0046":{"zip_code":"5670046","prefecture":"大阪府","prefecture_kana":"オオサカフ","city":"茨木市","city_kana":"イバラキシ","town":"南春日丘","town_kana":"ミナミカスガオカ","prefecture_code":27},"0056":{"zip_code":"5670056","prefecture":"大阪府","prefecture_kana":"オオサカフ","city":"茨木市","city_kana":"イバラキシ","town":"南清水町","town_kana":"ミナミシミズチョウ","prefecture_code":27},"0004":{"zip_code":"5670004","prefecture":"大阪府","prefecture_kana":"オオサカフ","city":"茨木市","city_kana":"イバラキシ","town":"南耳原","town_kana":"ミナミミノハラ","prefecture_code":27},"0837":{"zip_code":"5670837","prefecture":"大阪府","prefecture_kana":"オオサカフ","city":"茨木市","city_kana":"イバラキシ","town":"南目垣","town_kana":"ミナミメガキ","prefecture_code":27},"0006":{"zip_code":"5670006","prefecture":"大阪府","prefecture_kana":"オオサカフ","city":"茨木市","city_kana":"イバラキシ","town":"耳原","town_kana":"ミノハラ","prefecture_code":27},"0047":{"zip_code":"5670047","prefecture":"大阪府","prefecture_kana":"オオサカフ","city":"茨木市","city_kana":"イバラキシ","town":"美穂ケ丘","town_kana":"ミホガオカ","prefecture_code":27},"0853":{"zip_code":"5670853","prefecture":"大阪府","prefecture_kana":"オオサカフ","city":"茨木市","city_kana":"イバラキシ","town":"宮島","town_kana":"ミヤジマ","prefecture_code":27},"0810":{"zip_code":"5670810","prefecture":"大阪府","prefecture_kana":"オオサカフ","city":"茨木市","city_kana":"イバラキシ","town":"宮元町","town_kana":"ミヤモトチョウ","prefecture_code":27},"0052":{"zip_code":"5670052","prefecture":"大阪府","prefecture_kana":"オオサカフ","city":"茨木市","city_kana":"イバラキシ","town":"室山","town_kana":"ムロヤマ","prefecture_code":27},"0836":{"zip_code":"5670836","prefecture":"大阪府","prefecture_kana":"オオサカフ","city":"茨木市","city_kana":"イバラキシ","town":"目垣","town_kana":"メガキ","prefecture_code":27},"0882":{"zip_code":"5670882","prefecture":"大阪府","prefecture_kana":"オオサカフ","city":"茨木市","city_kana":"イバラキシ","town":"元町","town_kana":"モトマチ","prefecture_code":27},"0009":{"zip_code":"5670009","prefecture":"大阪府","prefecture_kana":"オオサカフ","city":"茨木市","city_kana":"イバラキシ","town":"山手台","town_kana":"ヤマテダイ","prefecture_code":27},"0010":{"zip_code":"5670010","prefecture":"大阪府","prefecture_kana":"オオサカフ","city":"茨木市","city_kana":"イバラキシ","town":"山手台新町","town_kana":"ヤマテダイシンマチ","prefecture_code":27},"0865":{"zip_code":"5670865","prefecture":"大阪府","prefecture_kana":"オオサカフ","city":"茨木市","city_kana":"イバラキシ","town":"横江","town_kana":"ヨコエ","prefecture_code":27},"0875":{"zip_code":"5670875","prefecture":"大阪府","prefecture_kana":"オオサカフ","city":"茨木市","city_kana":"イバラキシ","town":"若草町","town_kana":"ワカクサチョウ","prefecture_code":27},"0894":{"zip_code":"5670894","prefecture":"大阪府","prefecture_kana":"オオサカフ","city":"茨木市","city_kana":"イバラキシ","town":"若園町","town_kana":"ワカソノチョウ","prefecture_code":27}}