{"0000":{"zip_code":"5690000","prefecture":"大阪府","prefecture_kana":"オオサカフ","city":"高槻市","city_kana":"タカツキシ","town":"","town_kana":"","prefecture_code":27},"1146":{"zip_code":"5691146","prefecture":"大阪府","prefecture_kana":"オオサカフ","city":"高槻市","city_kana":"タカツキシ","town":"赤大路町","town_kana":"アカオオジチョウ","prefecture_code":27},"1123":{"zip_code":"5691123","prefecture":"大阪府","prefecture_kana":"オオサカフ","city":"高槻市","city_kana":"タカツキシ","town":"芥川町","town_kana":"アクタガワチョウ","prefecture_code":27},"0806":{"zip_code":"5690806","prefecture":"大阪府","prefecture_kana":"オオサカフ","city":"高槻市","city_kana":"タカツキシ","town":"明田町","town_kana":"アケタチョウ","prefecture_code":27},"0082":{"zip_code":"5690082","prefecture":"大阪府","prefecture_kana":"オオサカフ","city":"高槻市","city_kana":"タカツキシ","town":"明野町","town_kana":"アケノチョウ","prefecture_code":27},"1134":{"zip_code":"5691134","prefecture":"大阪府","prefecture_kana":"オオサカフ","city":"高槻市","city_kana":"タカツキシ","town":"朝日町","town_kana":"アサヒマチ","prefecture_code":27},"1045":{"zip_code":"5691045","prefecture":"大阪府","prefecture_kana":"オオサカフ","city":"高槻市","city_kana":"タカツキシ","town":"阿武野","town_kana":"アブノ","prefecture_code":27},"1102":{"zip_code":"5691102","prefecture":"大阪府","prefecture_kana":"オオサカフ","city":"高槻市","city_kana":"タカツキシ","town":"安満磐手町","town_kana":"アマイワテチョウ","prefecture_code":27},"1101":{"zip_code":"5691101","prefecture":"大阪府","prefecture_kana":"オオサカフ","city":"高槻市","city_kana":"タカツキシ","town":"安満御所の町","town_kana":"アマゴショノチョウ","prefecture_code":27},"1106":{"zip_code":"5691106","prefecture":"大阪府","prefecture_kana":"オオサカフ","city":"高槻市","city_kana":"タカツキシ","town":"安満新町","town_kana":"アマシンマチ","prefecture_code":27},"1105":{"zip_code":"5691105","prefecture":"大阪府","prefecture_kana":"オオサカフ","city":"高槻市","city_kana":"タカツキシ","town":"安満中の町","town_kana":"アマナカノチョウ","prefecture_code":27},"1104":{"zip_code":"5691104","prefecture":"大阪府","prefecture_kana":"オオサカフ","city":"高槻市","city_kana":"タカツキシ","town":"安満東の町","town_kana":"アマヒガシノチョウ","prefecture_code":27},"1107":{"zip_code":"5691107","prefecture":"大阪府","prefecture_kana":"オオサカフ","city":"高槻市","city_kana":"タカツキシ","town":"安満西の町","town_kana":"アマニシノチョウ","prefecture_code":27},"1108":{"zip_code":"5691108","prefecture":"大阪府","prefecture_kana":"オオサカフ","city":"高槻市","city_kana":"タカツキシ","town":"安満北の町","town_kana":"アマキタノチョウ","prefecture_code":27},"0027":{"zip_code":"5690027","prefecture":"大阪府","prefecture_kana":"オオサカフ","city":"高槻市","city_kana":"タカツキシ","town":"天川新町","town_kana":"アマガワシンマチ","prefecture_code":27},"0026":{"zip_code":"5690026","prefecture":"大阪府","prefecture_kana":"オオサカフ","city":"高槻市","city_kana":"タカツキシ","town":"天川町","town_kana":"アマガワチョウ","prefecture_code":27},"1029":{"zip_code":"5691029","prefecture":"大阪府","prefecture_kana":"オオサカフ","city":"高槻市","city_kana":"タカツキシ","town":"安岡寺町","town_kana":"アンコウジチョウ","prefecture_code":27},"0015":{"zip_code":"5690015","prefecture":"大阪府","prefecture_kana":"オオサカフ","city":"高槻市","city_kana":"タカツキシ","town":"井尻","town_kana":"イジリ","prefecture_code":27},"1003":{"zip_code":"5691003","prefecture":"大阪府","prefecture_kana":"オオサカフ","city":"高槻市","city_kana":"タカツキシ","town":"出灰","town_kana":"イズリハ","prefecture_code":27},"1135":{"zip_code":"5691135","prefecture":"大阪府","prefecture_kana":"オオサカフ","city":"高槻市","city_kana":"タカツキシ","town":"今城町","town_kana":"イマシロチョウ","prefecture_code":27},"1111":{"zip_code":"5691111","prefecture":"大阪府","prefecture_kana":"オオサカフ","city":"高槻市","city_kana":"タカツキシ","town":"美しが丘","town_kana":"ウツクシガオカ","prefecture_code":27},"1027":{"zip_code":"5691027","prefecture":"大阪府","prefecture_kana":"オオサカフ","city":"高槻市","city_kana":"タカツキシ","town":"浦堂","town_kana":"ウラドウ","prefecture_code":27},"1028":{"zip_code":"5691028","prefecture":"大阪府","prefecture_kana":"オオサカフ","city":"高槻市","city_kana":"タカツキシ","town":"浦堂本町","town_kana":"ウラドウホンマチ","prefecture_code":27},"0083":{"zip_code":"5690083","prefecture":"大阪府","prefecture_kana":"オオサカフ","city":"高槻市","city_kana":"タカツキシ","town":"永楽町","town_kana":"エイラクチョウ","prefecture_code":27},"0031":{"zip_code":"5690031","prefecture":"大阪府","prefecture_kana":"オオサカフ","city":"高槻市","city_kana":"タカツキシ","town":"大冠町","town_kana":"オオカンムリチョウ","prefecture_code":27},"0034":{"zip_code":"5690034","prefecture":"大阪府","prefecture_kana":"オオサカフ","city":"高槻市","city_kana":"タカツキシ","town":"大塚町","town_kana":"オオツカチョウ","prefecture_code":27},"0078":{"zip_code":"5690078","prefecture":"大阪府","prefecture_kana":"オオサカフ","city":"高槻市","city_kana":"タカツキシ","town":"大手町","town_kana":"オオテチョウ","prefecture_code":27},"1144":{"zip_code":"5691144","prefecture":"大阪府","prefecture_kana":"オオサカフ","city":"高槻市","city_kana":"タカツキシ","town":"大畑町","town_kana":"オオハタチョウ","prefecture_code":27},"1137":{"zip_code":"5691137","prefecture":"大阪府","prefecture_kana":"オオサカフ","city":"高槻市","city_kana":"タカツキシ","town":"岡本町","town_kana":"オカモトチョウ","prefecture_code":27},"1118":{"zip_code":"5691118","prefecture":"大阪府","prefecture_kana":"オオサカフ","city":"高槻市","city_kana":"タカツキシ","town":"奥天神町","town_kana":"オクテンジンチョウ","prefecture_code":27},"0091":{"zip_code":"5690091","prefecture":"大阪府","prefecture_kana":"オオサカフ","city":"高槻市","city_kana":"タカツキシ","town":"梶原","town_kana":"カジハラ","prefecture_code":27},"0092":{"zip_code":"5690092","prefecture":"大阪府","prefecture_kana":"オオサカフ","city":"高槻市","city_kana":"タカツキシ","town":"梶原中村町","town_kana":"カジハラナカムラチョウ","prefecture_code":27},"0053":{"zip_code":"5690053","prefecture":"大阪府","prefecture_kana":"オオサカフ","city":"高槻市","city_kana":"タカツキシ","town":"春日町","town_kana":"カスガチョウ","prefecture_code":27},"0805":{"zip_code":"5690805","prefecture":"大阪府","prefecture_kana":"オオサカフ","city":"高槻市","city_kana":"タカツキシ","town":"上田辺町","town_kana":"カミタナベチョウ","prefecture_code":27},"1044":{"zip_code":"5691044","prefecture":"大阪府","prefecture_kana":"オオサカフ","city":"高槻市","city_kana":"タカツキシ","town":"上土室","town_kana":"カミハムロ","prefecture_code":27},"0073":{"zip_code":"5690073","prefecture":"大阪府","prefecture_kana":"オオサカフ","city":"高槻市","city_kana":"タカツキシ","town":"上本町","town_kana":"カミホンマチ","prefecture_code":27},"0834":{"zip_code":"5690834","prefecture":"大阪府","prefecture_kana":"オオサカフ","city":"高槻市","city_kana":"タカツキシ","town":"唐崎","town_kana":"カラサキ","prefecture_code":27},"0832":{"zip_code":"5690832","prefecture":"大阪府","prefecture_kana":"オオサカフ","city":"高槻市","city_kana":"タカツキシ","town":"唐崎中","town_kana":"カラサキナカ","prefecture_code":27},"0836":{"zip_code":"5690836","prefecture":"大阪府","prefecture_kana":"オオサカフ","city":"高槻市","city_kana":"タカツキシ","town":"唐崎西","town_kana":"カラサキニシ","prefecture_code":27},"0833":{"zip_code":"5690833","prefecture":"大阪府","prefecture_kana":"オオサカフ","city":"高槻市","city_kana":"タカツキシ","town":"唐崎南","town_kana":"カラサキミナミ","prefecture_code":27},"0831":{"zip_code":"5690831","prefecture":"大阪府","prefecture_kana":"オオサカフ","city":"高槻市","city_kana":"タカツキシ","town":"唐崎北","town_kana":"カラサキキタ","prefecture_code":27},"1018":{"zip_code":"5691018","prefecture":"大阪府","prefecture_kana":"オオサカフ","city":"高槻市","city_kana":"タカツキシ","town":"花林苑","town_kana":"カリンエン","prefecture_code":27},"1011":{"zip_code":"5691011","prefecture":"大阪府","prefecture_kana":"オオサカフ","city":"高槻市","city_kana":"タカツキシ","town":"川久保","town_kana":"カワクボ","prefecture_code":27},"0824":{"zip_code":"5690824","prefecture":"大阪府","prefecture_kana":"オオサカフ","city":"高槻市","city_kana":"タカツキシ","town":"川添","town_kana":"カワゾエ","prefecture_code":27},"1133":{"zip_code":"5691133","prefecture":"大阪府","prefecture_kana":"オオサカフ","city":"高槻市","city_kana":"タカツキシ","town":"川西町","town_kana":"カワニシチョウ","prefecture_code":27},"0004":{"zip_code":"5690004","prefecture":"大阪府","prefecture_kana":"オオサカフ","city":"高槻市","city_kana":"タカツキシ","town":"上牧南駅前町","town_kana":"カンマキミナミエキマエチョウ","prefecture_code":27},"0005":{"zip_code":"5690005","prefecture":"大阪府","prefecture_kana":"オオサカフ","city":"高槻市","city_kana":"タカツキシ","town":"上牧北駅前町","town_kana":"カンマキキタエキマエチョウ","prefecture_code":27},"0006":{"zip_code":"5690006","prefecture":"大阪府","prefecture_kana":"オオサカフ","city":"高槻市","city_kana":"タカツキシ","town":"上牧山手町","town_kana":"カンマキヤマテチョウ","prefecture_code":27},"0003":{"zip_code":"5690003","prefecture":"大阪府","prefecture_kana":"オオサカフ","city":"高槻市","city_kana":"タカツキシ","town":"上牧町","town_kana":"カンマキチョウ","prefecture_code":27},"0041":{"zip_code":"5690041","prefecture":"大阪府","prefecture_kana":"オオサカフ","city":"高槻市","city_kana":"タカツキシ","town":"北大樋町","town_kana":"キタオオヒチョウ","prefecture_code":27},"0816":{"zip_code":"5690816","prefecture":"大阪府","prefecture_kana":"オオサカフ","city":"高槻市","city_kana":"タカツキシ","town":"北昭和台町","town_kana":"キタショウワダイチョウ","prefecture_code":27},"0802":{"zip_code":"5690802","prefecture":"大阪府","prefecture_kana":"オオサカフ","city":"高槻市","city_kana":"タカツキシ","town":"北園町","town_kana":"キタソノマチ","prefecture_code":27},"0852":{"zip_code":"5690852","prefecture":"大阪府","prefecture_kana":"オオサカフ","city":"高槻市","city_kana":"タカツキシ","town":"北柳川町","town_kana":"キタヤナガワチョウ","prefecture_code":27},"0072":{"zip_code":"5690072","prefecture":"大阪府","prefecture_kana":"オオサカフ","city":"高槻市","city_kana":"タカツキシ","town":"京口町","town_kana":"キョウグチマチ","prefecture_code":27},"1136":{"zip_code":"5691136","prefecture":"大阪府","prefecture_kana":"オオサカフ","city":"高槻市","city_kana":"タカツキシ","town":"郡家新町","town_kana":"グンゲシンマチ","prefecture_code":27},"1131":{"zip_code":"5691131","prefecture":"大阪府","prefecture_kana":"オオサカフ","city":"高槻市","city_kana":"タカツキシ","town":"郡家本町","town_kana":"グンゲホンマチ","prefecture_code":27},"0061":{"zip_code":"5690061","prefecture":"大阪府","prefecture_kana":"オオサカフ","city":"高槻市","city_kana":"タカツキシ","town":"高西町","town_kana":"コウサイチョウ","prefecture_code":27},"0007":{"zip_code":"5690007","prefecture":"大阪府","prefecture_kana":"オオサカフ","city":"高槻市","city_kana":"タカツキシ","town":"神内","town_kana":"コウナイ","prefecture_code":27},"1038":{"zip_code":"5691038","prefecture":"大阪府","prefecture_kana":"オオサカフ","city":"高槻市","city_kana":"タカツキシ","town":"黄金の里","town_kana":"コガネノサト","prefecture_code":27},"1115":{"zip_code":"5691115","prefecture":"大阪府","prefecture_kana":"オオサカフ","city":"高槻市","city_kana":"タカツキシ","town":"古曽部町","town_kana":"コソベチョウ","prefecture_code":27},"0826":{"zip_code":"5690826","prefecture":"大阪府","prefecture_kana":"オオサカフ","city":"高槻市","city_kana":"タカツキシ","town":"寿町","town_kana":"コトブキチョウ","prefecture_code":27},"0016":{"zip_code":"5690016","prefecture":"大阪府","prefecture_kana":"オオサカフ","city":"高槻市","city_kana":"タカツキシ","town":"五領町","town_kana":"ゴリョウチョウ","prefecture_code":27},"0804":{"zip_code":"5690804","prefecture":"大阪府","prefecture_kana":"オオサカフ","city":"高槻市","city_kana":"タカツキシ","town":"紺屋町","town_kana":"コンヤマチ","prefecture_code":27},"0842":{"zip_code":"5690842","prefecture":"大阪府","prefecture_kana":"オオサカフ","city":"高槻市","city_kana":"タカツキシ","town":"西面中","town_kana":"サイメナカ","prefecture_code":27},"0847":{"zip_code":"5690847","prefecture":"大阪府","prefecture_kana":"オオサカフ","city":"高槻市","city_kana":"タカツキシ","town":"西面南","town_kana":"サイメミナミ","prefecture_code":27},"0841":{"zip_code":"5690841","prefecture":"大阪府","prefecture_kana":"オオサカフ","city":"高槻市","city_kana":"タカツキシ","town":"西面北","town_kana":"サイメキタ","prefecture_code":27},"1143":{"zip_code":"5691143","prefecture":"大阪府","prefecture_kana":"オオサカフ","city":"高槻市","city_kana":"タカツキシ","town":"幸町","town_kana":"サイワイチョウ","prefecture_code":27},"0825":{"zip_code":"5690825","prefecture":"大阪府","prefecture_kana":"オオサカフ","city":"高槻市","city_kana":"タカツキシ","town":"栄町","town_kana":"サカエマチ","prefecture_code":27},"0818":{"zip_code":"5690818","prefecture":"大阪府","prefecture_kana":"オオサカフ","city":"高槻市","city_kana":"タカツキシ","town":"桜ケ丘南町","town_kana":"サクラガオカミナミマチ","prefecture_code":27},"0817":{"zip_code":"5690817","prefecture":"大阪府","prefecture_kana":"オオサカフ","city":"高槻市","city_kana":"タカツキシ","town":"桜ケ丘北町","town_kana":"サクラガオカキタマチ","prefecture_code":27},"0807":{"zip_code":"5690807","prefecture":"大阪府","prefecture_kana":"オオサカフ","city":"高槻市","city_kana":"タカツキシ","town":"桜町","town_kana":"サクラマチ","prefecture_code":27},"0084":{"zip_code":"5690084","prefecture":"大阪府","prefecture_kana":"オオサカフ","city":"高槻市","city_kana":"タカツキシ","town":"沢良木町","town_kana":"サワラギチョウ","prefecture_code":27},"0843":{"zip_code":"5690843","prefecture":"大阪府","prefecture_kana":"オオサカフ","city":"高槻市","city_kana":"タカツキシ","town":"三箇牧","town_kana":"サンガマキ","prefecture_code":27},"1025":{"zip_code":"5691025","prefecture":"大阪府","prefecture_kana":"オオサカフ","city":"高槻市","city_kana":"タカツキシ","town":"芝谷町","town_kana":"シバタニチョウ","prefecture_code":27},"0823":{"zip_code":"5690823","prefecture":"大阪府","prefecture_kana":"オオサカフ","city":"高槻市","city_kana":"タカツキシ","town":"芝生町","town_kana":"シボチョウ","prefecture_code":27},"1039":{"zip_code":"5691039","prefecture":"大阪府","prefecture_kana":"オオサカフ","city":"高槻市","city_kana":"タカツキシ","town":"清水台","town_kana":"シミズダイ","prefecture_code":27},"0062":{"zip_code":"5690062","prefecture":"大阪府","prefecture_kana":"オオサカフ","city":"高槻市","city_kana":"タカツキシ","town":"下田部町","town_kana":"シモタナベチョウ","prefecture_code":27},"0064":{"zip_code":"5690064","prefecture":"大阪府","prefecture_kana":"オオサカフ","city":"高槻市","city_kana":"タカツキシ","town":"庄所町","town_kana":"ショウドコロチョウ","prefecture_code":27},"0815":{"zip_code":"5690815","prefecture":"大阪府","prefecture_kana":"オオサカフ","city":"高槻市","city_kana":"タカツキシ","town":"昭和台町","town_kana":"ショウワダイチョウ","prefecture_code":27},"0052":{"zip_code":"5690052","prefecture":"大阪府","prefecture_kana":"オオサカフ","city":"高槻市","city_kana":"タカツキシ","town":"城東町","town_kana":"ジョウトウチョウ","prefecture_code":27},"0065":{"zip_code":"5690065","prefecture":"大阪府","prefecture_kana":"オオサカフ","city":"高槻市","city_kana":"タカツキシ","town":"城西町","town_kana":"ジョウサイチョウ","prefecture_code":27},"0056":{"zip_code":"5690056","prefecture":"大阪府","prefecture_kana":"オオサカフ","city":"高槻市","city_kana":"タカツキシ","town":"城南町","town_kana":"ジョウナンチョウ","prefecture_code":27},"0071":{"zip_code":"5690071","prefecture":"大阪府","prefecture_kana":"オオサカフ","city":"高槻市","city_kana":"タカツキシ","town":"城北町","town_kana":"ジョウホクチョウ","prefecture_code":27},"0075":{"zip_code":"5690075","prefecture":"大阪府","prefecture_kana":"オオサカフ","city":"高槻市","city_kana":"タカツキシ","town":"城内町","town_kana":"ジョウナイチョウ","prefecture_code":27},"0022":{"zip_code":"5690022","prefecture":"大阪府","prefecture_kana":"オオサカフ","city":"高槻市","city_kana":"タカツキシ","town":"須賀町","town_kana":"スガチョウ","prefecture_code":27},"1005":{"zip_code":"5691005","prefecture":"大阪府","prefecture_kana":"オオサカフ","city":"高槻市","city_kana":"タカツキシ","town":"杉生","town_kana":"スギオ","prefecture_code":27},"0036":{"zip_code":"5690036","prefecture":"大阪府","prefecture_kana":"オオサカフ","city":"高槻市","city_kana":"タカツキシ","town":"辻子","town_kana":"ズシ","prefecture_code":27},"1132":{"zip_code":"5691132","prefecture":"大阪府","prefecture_kana":"オオサカフ","city":"高槻市","city_kana":"タカツキシ","town":"清福寺町","town_kana":"セイフクジチョウ","prefecture_code":27},"0097":{"zip_code":"5690097","prefecture":"大阪府","prefecture_kana":"オオサカフ","city":"高槻市","city_kana":"タカツキシ","town":"高垣町","town_kana":"タカガキチョウ","prefecture_code":27},"0803":{"zip_code":"5690803","prefecture":"大阪府","prefecture_kana":"オオサカフ","city":"高槻市","city_kana":"タカツキシ","town":"高槻町","town_kana":"タカツキマチ","prefecture_code":27},"1020":{"zip_code":"5691020","prefecture":"大阪府","prefecture_kana":"オオサカフ","city":"高槻市","city_kana":"タカツキシ","town":"高見台","town_kana":"タカミダイ","prefecture_code":27},"0043":{"zip_code":"5690043","prefecture":"大阪府","prefecture_kana":"オオサカフ","city":"高槻市","city_kana":"タカツキシ","town":"竹の内町","town_kana":"タケノウチチョウ","prefecture_code":27},"0801":{"zip_code":"5690801","prefecture":"大阪府","prefecture_kana":"オオサカフ","city":"高槻市","city_kana":"タカツキシ","town":"大学町","town_kana":"ダイガクマチ","prefecture_code":27},"1034":{"zip_code":"5691034","prefecture":"大阪府","prefecture_kana":"オオサカフ","city":"高槻市","city_kana":"タカツキシ","town":"大蔵司","town_kana":"ダイゾウジ","prefecture_code":27},"1047":{"zip_code":"5691047","prefecture":"大阪府","prefecture_kana":"オオサカフ","city":"高槻市","city_kana":"タカツキシ","town":"大和","town_kana":"ダイワ","prefecture_code":27},"1002":{"zip_code":"5691002","prefecture":"大阪府","prefecture_kana":"オオサカフ","city":"高槻市","city_kana":"タカツキシ","town":"田能","town_kana":"タノウ","prefecture_code":27},"0857":{"zip_code":"5690857","prefecture":"大阪府","prefecture_kana":"オオサカフ","city":"高槻市","city_kana":"タカツキシ","town":"玉川","town_kana":"タマガワ","prefecture_code":27},"0856":{"zip_code":"5690856","prefecture":"大阪府","prefecture_kana":"オオサカフ","city":"高槻市","city_kana":"タカツキシ","town":"玉川新町","town_kana":"タマガワシンマチ","prefecture_code":27},"0087":{"zip_code":"5690087","prefecture":"大阪府","prefecture_kana":"オオサカフ","city":"高槻市","city_kana":"タカツキシ","town":"千代田町","town_kana":"チヨダチョウ","prefecture_code":27},"1046":{"zip_code":"5691046","prefecture":"大阪府","prefecture_kana":"オオサカフ","city":"高槻市","city_kana":"タカツキシ","town":"塚原","town_kana":"ツカハラ","prefecture_code":27},"1036":{"zip_code":"5691036","prefecture":"大阪府","prefecture_kana":"オオサカフ","city":"高槻市","city_kana":"タカツキシ","town":"塚脇","town_kana":"ツカワキ","prefecture_code":27},"1122":{"zip_code":"5691122","prefecture":"大阪府","prefecture_kana":"オオサカフ","city":"高槻市","city_kana":"タカツキシ","town":"月見町","town_kana":"ツキミチョウ","prefecture_code":27},"0047":{"zip_code":"5690047","prefecture":"大阪府","prefecture_kana":"オオサカフ","city":"高槻市","city_kana":"タカツキシ","town":"堤町","town_kana":"ツツミチョウ","prefecture_code":27},"0821":{"zip_code":"5690821","prefecture":"大阪府","prefecture_kana":"オオサカフ","city":"高槻市","city_kana":"タカツキシ","town":"津之江北町","town_kana":"ツノエキタマチ","prefecture_code":27},"0822":{"zip_code":"5690822","prefecture":"大阪府","prefecture_kana":"オオサカフ","city":"高槻市","city_kana":"タカツキシ","town":"津之江町","town_kana":"ツノエチョウ","prefecture_code":27},"0076":{"zip_code":"5690076","prefecture":"大阪府","prefecture_kana":"オオサカフ","city":"高槻市","city_kana":"タカツキシ","town":"出丸町","town_kana":"デマルチョウ","prefecture_code":27},"1024":{"zip_code":"5691024","prefecture":"大阪府","prefecture_kana":"オオサカフ","city":"高槻市","city_kana":"タカツキシ","town":"寺谷町","town_kana":"テラタニチョウ","prefecture_code":27},"1117":{"zip_code":"5691117","prefecture":"大阪府","prefecture_kana":"オオサカフ","city":"高槻市","city_kana":"タカツキシ","town":"天神町","town_kana":"テンジンマチ","prefecture_code":27},"0088":{"zip_code":"5690088","prefecture":"大阪府","prefecture_kana":"オオサカフ","city":"高槻市","city_kana":"タカツキシ","town":"天王町","town_kana":"テンノウチョウ","prefecture_code":27},"0011":{"zip_code":"5690011","prefecture":"大阪府","prefecture_kana":"オオサカフ","city":"高槻市","city_kana":"タカツキシ","town":"道鵜町","town_kana":"ドウウチョウ","prefecture_code":27},"0067":{"zip_code":"5690067","prefecture":"大阪府","prefecture_kana":"オオサカフ","city":"高槻市","city_kana":"タカツキシ","town":"桃園町","town_kana":"トウエンチョウ","prefecture_code":27},"0032":{"zip_code":"5690032","prefecture":"大阪府","prefecture_kana":"オオサカフ","city":"高槻市","city_kana":"タカツキシ","town":"東和町","town_kana":"トウワチョウ","prefecture_code":27},"1126":{"zip_code":"5691126","prefecture":"大阪府","prefecture_kana":"オオサカフ","city":"高槻市","city_kana":"タカツキシ","town":"殿町","town_kana":"トノマチ","prefecture_code":27},"0057":{"zip_code":"5690057","prefecture":"大阪府","prefecture_kana":"オオサカフ","city":"高槻市","city_kana":"タカツキシ","town":"土橋町","town_kana":"ドバシチョウ","prefecture_code":27},"0812":{"zip_code":"5690812","prefecture":"大阪府","prefecture_kana":"オオサカフ","city":"高槻市","city_kana":"タカツキシ","town":"登美の里町","town_kana":"トミノサトチョウ","prefecture_code":27},"1145":{"zip_code":"5691145","prefecture":"大阪府","prefecture_kana":"オオサカフ","city":"高槻市","city_kana":"タカツキシ","town":"富田丘町","town_kana":"トンダオカマチ","prefecture_code":27},"0814":{"zip_code":"5690814","prefecture":"大阪府","prefecture_kana":"オオサカフ","city":"高槻市","city_kana":"タカツキシ","town":"富田町","town_kana":"トンダチョウ","prefecture_code":27},"0066":{"zip_code":"5690066","prefecture":"大阪府","prefecture_kana":"オオサカフ","city":"高槻市","city_kana":"タカツキシ","town":"中川町","town_kana":"ナカガワチョウ","prefecture_code":27},"1001":{"zip_code":"5691001","prefecture":"大阪府","prefecture_kana":"オオサカフ","city":"高槻市","city_kana":"タカツキシ","town":"中畑","town_kana":"ナカハタ","prefecture_code":27},"1041":{"zip_code":"5691041","prefecture":"大阪府","prefecture_kana":"オオサカフ","city":"高槻市","city_kana":"タカツキシ","town":"奈佐原","town_kana":"ナサハラ","prefecture_code":27},"1043":{"zip_code":"5691043","prefecture":"大阪府","prefecture_kana":"オオサカフ","city":"高槻市","city_kana":"タカツキシ","town":"奈佐原元町","town_kana":"ナサハラモトマチ","prefecture_code":27},"1012":{"zip_code":"5691012","prefecture":"大阪府","prefecture_kana":"オオサカフ","city":"高槻市","city_kana":"タカツキシ","town":"成合","town_kana":"ナリアイ","prefecture_code":27},"1014":{"zip_code":"5691014","prefecture":"大阪府","prefecture_kana":"オオサカフ","city":"高槻市","city_kana":"タカツキシ","town":"成合東の町","town_kana":"ナリアイヒガシノチョウ","prefecture_code":27},"1016":{"zip_code":"5691016","prefecture":"大阪府","prefecture_kana":"オオサカフ","city":"高槻市","city_kana":"タカツキシ","town":"成合西の町","town_kana":"ナリアイニシノチョウ","prefecture_code":27},"1013":{"zip_code":"5691013","prefecture":"大阪府","prefecture_kana":"オオサカフ","city":"高槻市","city_kana":"タカツキシ","town":"成合南の町","town_kana":"ナリアイミナミノチョウ","prefecture_code":27},"1017":{"zip_code":"5691017","prefecture":"大阪府","prefecture_kana":"オオサカフ","city":"高槻市","city_kana":"タカツキシ","town":"成合北の町","town_kana":"ナリアイキタノチョウ","prefecture_code":27},"1015":{"zip_code":"5691015","prefecture":"大阪府","prefecture_kana":"オオサカフ","city":"高槻市","city_kana":"タカツキシ","town":"成合中の町","town_kana":"ナリアイナカノチョウ","prefecture_code":27},"1042":{"zip_code":"5691042","prefecture":"大阪府","prefecture_kana":"オオサカフ","city":"高槻市","city_kana":"タカツキシ","town":"南平台","town_kana":"ナンペイダイ","prefecture_code":27},"0045":{"zip_code":"5690045","prefecture":"大阪府","prefecture_kana":"オオサカフ","city":"高槻市","city_kana":"タカツキシ","town":"西大樋町","town_kana":"ニシオオヒチョウ","prefecture_code":27},"0055":{"zip_code":"5690055","prefecture":"大阪府","prefecture_kana":"オオサカフ","city":"高槻市","city_kana":"タカツキシ","town":"西冠","town_kana":"ニシカンムリ","prefecture_code":27},"1035":{"zip_code":"5691035","prefecture":"大阪府","prefecture_kana":"オオサカフ","city":"高槻市","city_kana":"タカツキシ","town":"西之川原","town_kana":"ニシノカワラ","prefecture_code":27},"1127":{"zip_code":"5691127","prefecture":"大阪府","prefecture_kana":"オオサカフ","city":"高槻市","city_kana":"タカツキシ","town":"西真上","town_kana":"ニシマカミ","prefecture_code":27},"0854":{"zip_code":"5690854","prefecture":"大阪府","prefecture_kana":"オオサカフ","city":"高槻市","city_kana":"タカツキシ","town":"西町","town_kana":"ニシマチ","prefecture_code":27},"0813":{"zip_code":"5690813","prefecture":"大阪府","prefecture_kana":"オオサカフ","city":"高槻市","city_kana":"タカツキシ","town":"西五百住町","town_kana":"ニシヨスミチョウ","prefecture_code":27},"0827":{"zip_code":"5690827","prefecture":"大阪府","prefecture_kana":"オオサカフ","city":"高槻市","city_kana":"タカツキシ","town":"如是町","town_kana":"ニョゼチョウ","prefecture_code":27},"1004":{"zip_code":"5691004","prefecture":"大阪府","prefecture_kana":"オオサカフ","city":"高槻市","city_kana":"タカツキシ","town":"二料","town_kana":"ニリョウ","prefecture_code":27},"0013":{"zip_code":"5690013","prefecture":"大阪府","prefecture_kana":"オオサカフ","city":"高槻市","city_kana":"タカツキシ","town":"野田","town_kana":"ノダ","prefecture_code":27},"0014":{"zip_code":"5690014","prefecture":"大阪府","prefecture_kana":"オオサカフ","city":"高槻市","city_kana":"タカツキシ","town":"野田東","town_kana":"ノダヒガシ","prefecture_code":27},"0046":{"zip_code":"5690046","prefecture":"大阪府","prefecture_kana":"オオサカフ","city":"高槻市","city_kana":"タカツキシ","town":"登町","town_kana":"ノボリマチ","prefecture_code":27},"0077":{"zip_code":"5690077","prefecture":"大阪府","prefecture_kana":"オオサカフ","city":"高槻市","city_kana":"タカツキシ","town":"野見町","town_kana":"ノミチョウ","prefecture_code":27},"1054":{"zip_code":"5691054","prefecture":"大阪府","prefecture_kana":"オオサカフ","city":"高槻市","city_kana":"タカツキシ","town":"萩谷","town_kana":"ハギタニ","prefecture_code":27},"1053":{"zip_code":"5691053","prefecture":"大阪府","prefecture_kana":"オオサカフ","city":"高槻市","city_kana":"タカツキシ","town":"萩谷月見台","town_kana":"ハギタニツキミダイ","prefecture_code":27},"0093":{"zip_code":"5690093","prefecture":"大阪府","prefecture_kana":"オオサカフ","city":"高槻市","city_kana":"タカツキシ","town":"萩之庄","town_kana":"ハギノショウ","prefecture_code":27},"1116":{"zip_code":"5691116","prefecture":"大阪府","prefecture_kana":"オオサカフ","city":"高槻市","city_kana":"タカツキシ","town":"白梅町","town_kana":"ハクバイチョウ","prefecture_code":27},"0844":{"zip_code":"5690844","prefecture":"大阪府","prefecture_kana":"オオサカフ","city":"高槻市","city_kana":"タカツキシ","town":"柱本","town_kana":"ハシラモト","prefecture_code":27},"0846":{"zip_code":"5690846","prefecture":"大阪府","prefecture_kana":"オオサカフ","city":"高槻市","city_kana":"タカツキシ","town":"柱本新町","town_kana":"ハシラモトシンマチ","prefecture_code":27},"0845":{"zip_code":"5690845","prefecture":"大阪府","prefecture_kana":"オオサカフ","city":"高槻市","city_kana":"タカツキシ","town":"柱本南町","town_kana":"ハシラモトミナミマチ","prefecture_code":27},"0096":{"zip_code":"5690096","prefecture":"大阪府","prefecture_kana":"オオサカフ","city":"高槻市","city_kana":"タカツキシ","town":"八丁畷町","town_kana":"ハッチョウナワテチョウ","prefecture_code":27},"0095":{"zip_code":"5690095","prefecture":"大阪府","prefecture_kana":"オオサカフ","city":"高槻市","city_kana":"タカツキシ","town":"八丁西町","town_kana":"ハッチョウニシマチ","prefecture_code":27},"1147":{"zip_code":"5691147","prefecture":"大阪府","prefecture_kana":"オオサカフ","city":"高槻市","city_kana":"タカツキシ","town":"土室町","town_kana":"ハムロチョウ","prefecture_code":27},"1051":{"zip_code":"5691051","prefecture":"大阪府","prefecture_kana":"オオサカフ","city":"高槻市","city_kana":"タカツキシ","town":"原","town_kana":"ハラ","prefecture_code":27},"0044":{"zip_code":"5690044","prefecture":"大阪府","prefecture_kana":"オオサカフ","city":"高槻市","city_kana":"タカツキシ","town":"番田","town_kana":"バンダ","prefecture_code":27},"0012":{"zip_code":"5690012","prefecture":"大阪府","prefecture_kana":"オオサカフ","city":"高槻市","city_kana":"タカツキシ","town":"東天川","town_kana":"ヒガシアマガワ","prefecture_code":27},"0002":{"zip_code":"5690002","prefecture":"大阪府","prefecture_kana":"オオサカフ","city":"高槻市","city_kana":"タカツキシ","town":"東上牧","town_kana":"ヒガシカンマキ","prefecture_code":27},"1037":{"zip_code":"5691037","prefecture":"大阪府","prefecture_kana":"オオサカフ","city":"高槻市","city_kana":"タカツキシ","town":"東城山町","town_kana":"ヒガシシロヤマチョウ","prefecture_code":27},"0811":{"zip_code":"5690811","prefecture":"大阪府","prefecture_kana":"オオサカフ","city":"高槻市","city_kana":"タカツキシ","town":"東五百住町","town_kana":"ヒガシヨスミチョウ","prefecture_code":27},"1141":{"zip_code":"5691141","prefecture":"大阪府","prefecture_kana":"オオサカフ","city":"高槻市","city_kana":"タカツキシ","town":"氷室町","town_kana":"ヒムロチョウ","prefecture_code":27},"0024":{"zip_code":"5690024","prefecture":"大阪府","prefecture_kana":"オオサカフ","city":"高槻市","city_kana":"タカツキシ","town":"日向町","town_kana":"ヒュウガチョウ","prefecture_code":27},"1022":{"zip_code":"5691022","prefecture":"大阪府","prefecture_kana":"オオサカフ","city":"高槻市","city_kana":"タカツキシ","town":"日吉台","town_kana":"ヒヨシダイ","prefecture_code":27},"0035":{"zip_code":"5690035","prefecture":"大阪府","prefecture_kana":"オオサカフ","city":"高槻市","city_kana":"タカツキシ","town":"深沢町","town_kana":"フカザワチョウ","prefecture_code":27},"0033":{"zip_code":"5690033","prefecture":"大阪府","prefecture_kana":"オオサカフ","city":"高槻市","city_kana":"タカツキシ","town":"深沢本町","town_kana":"フカザワホンマチ","prefecture_code":27},"0025":{"zip_code":"5690025","prefecture":"大阪府","prefecture_kana":"オオサカフ","city":"高槻市","city_kana":"タカツキシ","town":"藤の里町","town_kana":"フジノサトチョウ","prefecture_code":27},"1114":{"zip_code":"5691114","prefecture":"大阪府","prefecture_kana":"オオサカフ","city":"高槻市","city_kana":"タカツキシ","town":"別所新町","town_kana":"ベッシヨシンマチ","prefecture_code":27},"1113":{"zip_code":"5691113","prefecture":"大阪府","prefecture_kana":"オオサカフ","city":"高槻市","city_kana":"タカツキシ","town":"別所中の町","town_kana":"ベッシヨナカノチョウ","prefecture_code":27},"1112":{"zip_code":"5691112","prefecture":"大阪府","prefecture_kana":"オオサカフ","city":"高槻市","city_kana":"タカツキシ","town":"別所本町","town_kana":"ベッショホンマチ","prefecture_code":27},"1109":{"zip_code":"5691109","prefecture":"大阪府","prefecture_kana":"オオサカフ","city":"高槻市","city_kana":"タカツキシ","town":"紅茸町","town_kana":"ベニタケチョウ","prefecture_code":27},"0074":{"zip_code":"5690074","prefecture":"大阪府","prefecture_kana":"オオサカフ","city":"高槻市","city_kana":"タカツキシ","town":"本町","town_kana":"ホンマチ","prefecture_code":27},"0021":{"zip_code":"5690021","prefecture":"大阪府","prefecture_kana":"オオサカフ","city":"高槻市","city_kana":"タカツキシ","town":"前島","town_kana":"マエシマ","prefecture_code":27},"1121":{"zip_code":"5691121","prefecture":"大阪府","prefecture_kana":"オオサカフ","city":"高槻市","city_kana":"タカツキシ","town":"真上町","town_kana":"マカミチョウ","prefecture_code":27},"0855":{"zip_code":"5690855","prefecture":"大阪府","prefecture_kana":"オオサカフ","city":"高槻市","city_kana":"タカツキシ","town":"牧田町","town_kana":"マキタチョウ","prefecture_code":27},"0023":{"zip_code":"5690023","prefecture":"大阪府","prefecture_kana":"オオサカフ","city":"高槻市","city_kana":"タカツキシ","town":"松川町","town_kana":"マツカワチョウ","prefecture_code":27},"1031":{"zip_code":"5691031","prefecture":"大阪府","prefecture_kana":"オオサカフ","city":"高槻市","city_kana":"タカツキシ","town":"松が丘","town_kana":"マツガオカ","prefecture_code":27},"0086":{"zip_code":"5690086","prefecture":"大阪府","prefecture_kana":"オオサカフ","city":"高槻市","city_kana":"タカツキシ","town":"松原町","town_kana":"マツバラチョウ","prefecture_code":27},"0835":{"zip_code":"5690835","prefecture":"大阪府","prefecture_kana":"オオサカフ","city":"高槻市","city_kana":"タカツキシ","town":"三島江","town_kana":"ミシマエ","prefecture_code":27},"1026":{"zip_code":"5691026","prefecture":"大阪府","prefecture_kana":"オオサカフ","city":"高槻市","city_kana":"タカツキシ","town":"緑が丘","town_kana":"ミドリガオカ","prefecture_code":27},"0094":{"zip_code":"5690094","prefecture":"大阪府","prefecture_kana":"オオサカフ","city":"高槻市","city_kana":"タカツキシ","town":"緑町","town_kana":"ミドリチョウ","prefecture_code":27},"1124":{"zip_code":"5691124","prefecture":"大阪府","prefecture_kana":"オオサカフ","city":"高槻市","city_kana":"タカツキシ","town":"南芥川町","town_kana":"ミナミアクタガワチョウ","prefecture_code":27},"0042":{"zip_code":"5690042","prefecture":"大阪府","prefecture_kana":"オオサカフ","city":"高槻市","city_kana":"タカツキシ","town":"南大樋町","town_kana":"ミナミオオヒチョウ","prefecture_code":27},"0063":{"zip_code":"5690063","prefecture":"大阪府","prefecture_kana":"オオサカフ","city":"高槻市","city_kana":"タカツキシ","town":"南庄所町","town_kana":"ミナミショウドコロチョウ","prefecture_code":27},"0851":{"zip_code":"5690851","prefecture":"大阪府","prefecture_kana":"オオサカフ","city":"高槻市","city_kana":"タカツキシ","town":"南総持寺町","town_kana":"ミナミソウジジチョウ","prefecture_code":27},"0085":{"zip_code":"5690085","prefecture":"大阪府","prefecture_kana":"オオサカフ","city":"高槻市","city_kana":"タカツキシ","town":"南松原町","town_kana":"ミナミマツバラチョウ","prefecture_code":27},"1023":{"zip_code":"5691023","prefecture":"大阪府","prefecture_kana":"オオサカフ","city":"高槻市","city_kana":"タカツキシ","town":"宮が谷町","town_kana":"ミヤガダニチョウ","prefecture_code":27},"1142":{"zip_code":"5691142","prefecture":"大阪府","prefecture_kana":"オオサカフ","city":"高槻市","city_kana":"タカツキシ","town":"宮田町","town_kana":"ミヤダチョウ","prefecture_code":27},"1032":{"zip_code":"5691032","prefecture":"大阪府","prefecture_kana":"オオサカフ","city":"高槻市","city_kana":"タカツキシ","town":"宮之川原","town_kana":"ミヤノカワラ","prefecture_code":27},"1033":{"zip_code":"5691033","prefecture":"大阪府","prefecture_kana":"オオサカフ","city":"高槻市","city_kana":"タカツキシ","town":"宮之川原元町","town_kana":"ミヤノカワラモトマチ","prefecture_code":27},"0081":{"zip_code":"5690081","prefecture":"大阪府","prefecture_kana":"オオサカフ","city":"高槻市","city_kana":"タカツキシ","town":"宮野町","town_kana":"ミヤノチョウ","prefecture_code":27},"1125":{"zip_code":"5691125","prefecture":"大阪府","prefecture_kana":"オオサカフ","city":"高槻市","city_kana":"タカツキシ","town":"紫町","town_kana":"ムラサキチョウ","prefecture_code":27},"1128":{"zip_code":"5691128","prefecture":"大阪府","prefecture_kana":"オオサカフ","city":"高槻市","city_kana":"タカツキシ","town":"名神町","town_kana":"メイシンチョウ","prefecture_code":27},"0853":{"zip_code":"5690853","prefecture":"大阪府","prefecture_kana":"オオサカフ","city":"高槻市","city_kana":"タカツキシ","town":"柳川町","town_kana":"ヤナガワチョウ","prefecture_code":27},"0051":{"zip_code":"5690051","prefecture":"大阪府","prefecture_kana":"オオサカフ","city":"高槻市","city_kana":"タカツキシ","town":"八幡町","town_kana":"ヤハタマチ","prefecture_code":27},"1103":{"zip_code":"5691103","prefecture":"大阪府","prefecture_kana":"オオサカフ","city":"高槻市","city_kana":"タカツキシ","town":"山手町","town_kana":"ヤマテチョウ","prefecture_code":27},"1021":{"zip_code":"5691021","prefecture":"大阪府","prefecture_kana":"オオサカフ","city":"高槻市","city_kana":"タカツキシ","town":"弥生が丘町","town_kana":"ヤヨイガオカチョウ","prefecture_code":27},"0001":{"zip_code":"5690001","prefecture":"大阪府","prefecture_kana":"オオサカフ","city":"高槻市","city_kana":"タカツキシ","town":"淀の原町","town_kana":"ヨドノハラチョウ","prefecture_code":27},"1052":{"zip_code":"5691052","prefecture":"大阪府","prefecture_kana":"オオサカフ","city":"高槻市","city_kana":"タカツキシ","town":"霊仙寺町","town_kana":"リョウゼンジチョウ","prefecture_code":27},"0054":{"zip_code":"5690054","prefecture":"大阪府","prefecture_kana":"オオサカフ","city":"高槻市","city_kana":"タカツキシ","town":"若松町","town_kana":"ワカマツチョウ","prefecture_code":27}}