{"0000":{"zip_code":"5720000","prefecture":"大阪府","prefecture_kana":"オオサカフ","city":"寝屋川市","city_kana":"ネヤガワシ","town":"","town_kana":"","prefecture_code":27},"0039":{"zip_code":"5720039","prefecture":"大阪府","prefecture_kana":"オオサカフ","city":"寝屋川市","city_kana":"ネヤガワシ","town":"池田","town_kana":"イケダ","prefecture_code":27},"0035":{"zip_code":"5720035","prefecture":"大阪府","prefecture_kana":"オオサカフ","city":"寝屋川市","city_kana":"ネヤガワシ","town":"池田旭町","town_kana":"イケダアサヒマチ","prefecture_code":27},"0033":{"zip_code":"5720033","prefecture":"大阪府","prefecture_kana":"オオサカフ","city":"寝屋川市","city_kana":"ネヤガワシ","town":"池田東町","town_kana":"イケダヒガシマチ","prefecture_code":27},"0036":{"zip_code":"5720036","prefecture":"大阪府","prefecture_kana":"オオサカフ","city":"寝屋川市","city_kana":"ネヤガワシ","town":"池田西町","town_kana":"イケダニシマチ","prefecture_code":27},"0034":{"zip_code":"5720034","prefecture":"大阪府","prefecture_kana":"オオサカフ","city":"寝屋川市","city_kana":"ネヤガワシ","town":"池田南町","town_kana":"イケダミナミマチ","prefecture_code":27},"0073":{"zip_code":"5720073","prefecture":"大阪府","prefecture_kana":"オオサカフ","city":"寝屋川市","city_kana":"ネヤガワシ","town":"池田北町","town_kana":"イケダキタマチ","prefecture_code":27},"0038":{"zip_code":"5720038","prefecture":"大阪府","prefecture_kana":"オオサカフ","city":"寝屋川市","city_kana":"ネヤガワシ","town":"池田新町","town_kana":"イケダシンマチ","prefecture_code":27},"0074":{"zip_code":"5720074","prefecture":"大阪府","prefecture_kana":"オオサカフ","city":"寝屋川市","city_kana":"ネヤガワシ","town":"池田中町","town_kana":"イケダナカマチ","prefecture_code":27},"0030":{"zip_code":"5720030","prefecture":"大阪府","prefecture_kana":"オオサカフ","city":"寝屋川市","city_kana":"ネヤガワシ","town":"池田本町","town_kana":"イケダホンマチ","prefecture_code":27},"0012":{"zip_code":"5720012","prefecture":"大阪府","prefecture_kana":"オオサカフ","city":"寝屋川市","city_kana":"ネヤガワシ","town":"池の瀬町","town_kana":"イケノセチョウ","prefecture_code":27},"0026":{"zip_code":"5720026","prefecture":"大阪府","prefecture_kana":"オオサカフ","city":"寝屋川市","city_kana":"ネヤガワシ","town":"石津中町","town_kana":"イシヅナカマチ","prefecture_code":27},"0027":{"zip_code":"5720027","prefecture":"大阪府","prefecture_kana":"オオサカフ","city":"寝屋川市","city_kana":"ネヤガワシ","town":"石津東町","town_kana":"イシヅヒガシマチ","prefecture_code":27},"0024":{"zip_code":"5720024","prefecture":"大阪府","prefecture_kana":"オオサカフ","city":"寝屋川市","city_kana":"ネヤガワシ","town":"石津南町","town_kana":"イシヅミナミマチ","prefecture_code":27},"0025":{"zip_code":"5720025","prefecture":"大阪府","prefecture_kana":"オオサカフ","city":"寝屋川市","city_kana":"ネヤガワシ","town":"石津元町","town_kana":"イシヅモトマチ","prefecture_code":27},"0821":{"zip_code":"5720821","prefecture":"大阪府","prefecture_kana":"オオサカフ","city":"寝屋川市","city_kana":"ネヤガワシ","town":"出雲町","town_kana":"イズモチョウ","prefecture_code":27},"0840":{"zip_code":"5720840","prefecture":"大阪府","prefecture_kana":"オオサカフ","city":"寝屋川市","city_kana":"ネヤガワシ","town":"太秦桜が丘","town_kana":"ウズマササクラガオカ","prefecture_code":27},"0842":{"zip_code":"5720842","prefecture":"大阪府","prefecture_kana":"オオサカフ","city":"寝屋川市","city_kana":"ネヤガワシ","town":"太秦高塚町","town_kana":"ウズマサタカツカチョウ","prefecture_code":27},"0843":{"zip_code":"5720843","prefecture":"大阪府","prefecture_kana":"オオサカフ","city":"寝屋川市","city_kana":"ネヤガワシ","town":"太秦中町","town_kana":"ウズマサナカマチ","prefecture_code":27},"0841":{"zip_code":"5720841","prefecture":"大阪府","prefecture_kana":"オオサカフ","city":"寝屋川市","city_kana":"ネヤガワシ","town":"太秦東が丘","town_kana":"ウズマサヒガシガオカ","prefecture_code":27},"0844":{"zip_code":"5720844","prefecture":"大阪府","prefecture_kana":"オオサカフ","city":"寝屋川市","city_kana":"ネヤガワシ","town":"太秦緑が丘","town_kana":"ウズマサミドリガオカ","prefecture_code":27},"0849":{"zip_code":"5720849","prefecture":"大阪府","prefecture_kana":"オオサカフ","city":"寝屋川市","city_kana":"ネヤガワシ","town":"太秦元町","town_kana":"ウズマサモトマチ","prefecture_code":27},"0856":{"zip_code":"5720856","prefecture":"大阪府","prefecture_kana":"オオサカフ","city":"寝屋川市","city_kana":"ネヤガワシ","town":"宇谷町","town_kana":"ウタニチョウ","prefecture_code":27},"0859":{"zip_code":"5720859","prefecture":"大阪府","prefecture_kana":"オオサカフ","city":"寝屋川市","city_kana":"ネヤガワシ","town":"打上新町","town_kana":"ウチアゲシンマチ","prefecture_code":27},"0850":{"zip_code":"5720850","prefecture":"大阪府","prefecture_kana":"オオサカフ","city":"寝屋川市","city_kana":"ネヤガワシ","town":"打上高塚町","town_kana":"ウチアゲタカツカチョウ","prefecture_code":27},"0857":{"zip_code":"5720857","prefecture":"大阪府","prefecture_kana":"オオサカフ","city":"寝屋川市","city_kana":"ネヤガワシ","town":"打上中町","town_kana":"ウチアゲナカマチ","prefecture_code":27},"0861":{"zip_code":"5720861","prefecture":"大阪府","prefecture_kana":"オオサカフ","city":"寝屋川市","city_kana":"ネヤガワシ","town":"打上南町","town_kana":"ウチアゲミナミマチ","prefecture_code":27},"0862":{"zip_code":"5720862","prefecture":"大阪府","prefecture_kana":"オオサカフ","city":"寝屋川市","city_kana":"ネヤガワシ","town":"打上宮前町","town_kana":"ウチアゲミヤマエチョウ","prefecture_code":27},"0858":{"zip_code":"5720858","prefecture":"大阪府","prefecture_kana":"オオサカフ","city":"寝屋川市","city_kana":"ネヤガワシ","town":"打上元町","town_kana":"ウチアゲモトマチ","prefecture_code":27},"0803":{"zip_code":"5720803","prefecture":"大阪府","prefecture_kana":"オオサカフ","city":"寝屋川市","city_kana":"ネヤガワシ","town":"梅が丘","town_kana":"ウメガオカ","prefecture_code":27},"0853":{"zip_code":"5720853","prefecture":"大阪府","prefecture_kana":"オオサカフ","city":"寝屋川市","city_kana":"ネヤガワシ","town":"大谷町","town_kana":"オオタニチョウ","prefecture_code":27},"0048":{"zip_code":"5720048","prefecture":"大阪府","prefecture_kana":"オオサカフ","city":"寝屋川市","city_kana":"ネヤガワシ","town":"大利町","town_kana":"オオトシチョウ","prefecture_code":27},"0047":{"zip_code":"5720047","prefecture":"大阪府","prefecture_kana":"オオサカフ","city":"寝屋川市","city_kana":"ネヤガワシ","town":"大利元町","town_kana":"オオトシモトマチ","prefecture_code":27},"0023":{"zip_code":"5720023","prefecture":"大阪府","prefecture_kana":"オオサカフ","city":"寝屋川市","city_kana":"ネヤガワシ","town":"音羽町","town_kana":"オトワチョウ","prefecture_code":27},"0063":{"zip_code":"5720063","prefecture":"大阪府","prefecture_kana":"オオサカフ","city":"寝屋川市","city_kana":"ネヤガワシ","town":"春日町","town_kana":"カスガチョウ","prefecture_code":27},"0052":{"zip_code":"5720052","prefecture":"大阪府","prefecture_kana":"オオサカフ","city":"寝屋川市","city_kana":"ネヤガワシ","town":"上神田","town_kana":"カミカミダ","prefecture_code":27},"0828":{"zip_code":"5720828","prefecture":"大阪府","prefecture_kana":"オオサカフ","city":"寝屋川市","city_kana":"ネヤガワシ","town":"萱島桜園町","town_kana":"カヤシマサクラエンチョウ","prefecture_code":27},"0829":{"zip_code":"5720829","prefecture":"大阪府","prefecture_kana":"オオサカフ","city":"寝屋川市","city_kana":"ネヤガワシ","town":"萱島信和町","town_kana":"カヤシマシンワチョウ","prefecture_code":27},"0827":{"zip_code":"5720827","prefecture":"大阪府","prefecture_kana":"オオサカフ","city":"寝屋川市","city_kana":"ネヤガワシ","town":"萱島本町","town_kana":"カヤシマホンマチ","prefecture_code":27},"0825":{"zip_code":"5720825","prefecture":"大阪府","prefecture_kana":"オオサカフ","city":"寝屋川市","city_kana":"ネヤガワシ","town":"萱島南町","town_kana":"カヤシマミナミマチ","prefecture_code":27},"0824":{"zip_code":"5720824","prefecture":"大阪府","prefecture_kana":"オオサカフ","city":"寝屋川市","city_kana":"ネヤガワシ","town":"萱島東","town_kana":"カヤシマヒガシ","prefecture_code":27},"0015":{"zip_code":"5720015","prefecture":"大阪府","prefecture_kana":"オオサカフ","city":"寝屋川市","city_kana":"ネヤガワシ","town":"川勝町","town_kana":"カワカツチョウ","prefecture_code":27},"0816":{"zip_code":"5720816","prefecture":"大阪府","prefecture_kana":"オオサカフ","city":"寝屋川市","city_kana":"ネヤガワシ","town":"河北中町","town_kana":"カワキタナカマチ","prefecture_code":27},"0815":{"zip_code":"5720815","prefecture":"大阪府","prefecture_kana":"オオサカフ","city":"寝屋川市","city_kana":"ネヤガワシ","town":"河北東町","town_kana":"カワキタヒガシマチ","prefecture_code":27},"0817":{"zip_code":"5720817","prefecture":"大阪府","prefecture_kana":"オオサカフ","city":"寝屋川市","city_kana":"ネヤガワシ","town":"河北西町","town_kana":"カワキタニシマチ","prefecture_code":27},"0008":{"zip_code":"5720008","prefecture":"大阪府","prefecture_kana":"オオサカフ","city":"寝屋川市","city_kana":"ネヤガワシ","town":"菅相塚町","town_kana":"カンソウヅカチョウ","prefecture_code":27},"0032":{"zip_code":"5720032","prefecture":"大阪府","prefecture_kana":"オオサカフ","city":"寝屋川市","city_kana":"ネヤガワシ","town":"北大利町","town_kana":"キタオオトシチョウ","prefecture_code":27},"0836":{"zip_code":"5720836","prefecture":"大阪府","prefecture_kana":"オオサカフ","city":"寝屋川市","city_kana":"ネヤガワシ","town":"木田町","town_kana":"キダチョウ","prefecture_code":27},"0822":{"zip_code":"5720822","prefecture":"大阪府","prefecture_kana":"オオサカフ","city":"寝屋川市","city_kana":"ネヤガワシ","town":"木田元宮","town_kana":"キダモトミヤ","prefecture_code":27},"0811":{"zip_code":"5720811","prefecture":"大阪府","prefecture_kana":"オオサカフ","city":"寝屋川市","city_kana":"ネヤガワシ","town":"楠根南町","town_kana":"クスネミナミマチ","prefecture_code":27},"0845":{"zip_code":"5720845","prefecture":"大阪府","prefecture_kana":"オオサカフ","city":"寝屋川市","city_kana":"ネヤガワシ","town":"楠根北町","town_kana":"クスネキタマチ","prefecture_code":27},"0075":{"zip_code":"5720075","prefecture":"大阪府","prefecture_kana":"オオサカフ","city":"寝屋川市","city_kana":"ネヤガワシ","town":"葛原","town_kana":"クズハラ","prefecture_code":27},"0037":{"zip_code":"5720037","prefecture":"大阪府","prefecture_kana":"オオサカフ","city":"寝屋川市","city_kana":"ネヤガワシ","town":"葛原新町","town_kana":"クズハラシンマチ","prefecture_code":27},"0016":{"zip_code":"5720016","prefecture":"大阪府","prefecture_kana":"オオサカフ","city":"寝屋川市","city_kana":"ネヤガワシ","town":"国松町","town_kana":"クニマツチョウ","prefecture_code":27},"0057":{"zip_code":"5720057","prefecture":"大阪府","prefecture_kana":"オオサカフ","city":"寝屋川市","city_kana":"ネヤガワシ","town":"黒原旭町","town_kana":"クロハラアサヒマチ","prefecture_code":27},"0059":{"zip_code":"5720059","prefecture":"大阪府","prefecture_kana":"オオサカフ","city":"寝屋川市","city_kana":"ネヤガワシ","town":"黒原新町","town_kana":"クロハラシンマチ","prefecture_code":27},"0050":{"zip_code":"5720050","prefecture":"大阪府","prefecture_kana":"オオサカフ","city":"寝屋川市","city_kana":"ネヤガワシ","town":"黒原城内町","town_kana":"クロハラジョウナイチョウ","prefecture_code":27},"0058":{"zip_code":"5720058","prefecture":"大阪府","prefecture_kana":"オオサカフ","city":"寝屋川市","city_kana":"ネヤガワシ","town":"黒原橘町","town_kana":"クロハラタチバナチョウ","prefecture_code":27},"0085":{"zip_code":"5720085","prefecture":"大阪府","prefecture_kana":"オオサカフ","city":"寝屋川市","city_kana":"ネヤガワシ","town":"香里新町","town_kana":"コオリシンマチ","prefecture_code":27},"0082":{"zip_code":"5720082","prefecture":"大阪府","prefecture_kana":"オオサカフ","city":"寝屋川市","city_kana":"ネヤガワシ","town":"香里本通町","town_kana":"コオリホンドオリチョウ","prefecture_code":27},"0089":{"zip_code":"5720089","prefecture":"大阪府","prefecture_kana":"オオサカフ","city":"寝屋川市","city_kana":"ネヤガワシ","town":"香里西之町","town_kana":"コオリニシノチョウ","prefecture_code":27},"0084":{"zip_code":"5720084","prefecture":"大阪府","prefecture_kana":"オオサカフ","city":"寝屋川市","city_kana":"ネヤガワシ","town":"香里南之町","town_kana":"コオリミナミノチョウ","prefecture_code":27},"0080":{"zip_code":"5720080","prefecture":"大阪府","prefecture_kana":"オオサカフ","city":"寝屋川市","city_kana":"ネヤガワシ","town":"香里北之町","town_kana":"コオリキタノチョウ","prefecture_code":27},"0083":{"zip_code":"5720083","prefecture":"大阪府","prefecture_kana":"オオサカフ","city":"寝屋川市","city_kana":"ネヤガワシ","town":"郡元町","town_kana":"コオリモトマチ","prefecture_code":27},"0029":{"zip_code":"5720029","prefecture":"大阪府","prefecture_kana":"オオサカフ","city":"寝屋川市","city_kana":"ネヤガワシ","town":"寿町","town_kana":"コトブキチョウ","prefecture_code":27},"0087":{"zip_code":"5720087","prefecture":"大阪府","prefecture_kana":"オオサカフ","city":"寝屋川市","city_kana":"ネヤガワシ","town":"木屋町","town_kana":"コヤチョウ","prefecture_code":27},"0088":{"zip_code":"5720088","prefecture":"大阪府","prefecture_kana":"オオサカフ","city":"寝屋川市","city_kana":"ネヤガワシ","town":"木屋元町","town_kana":"コヤモトマチ","prefecture_code":27},"0017":{"zip_code":"5720017","prefecture":"大阪府","prefecture_kana":"オオサカフ","city":"寝屋川市","city_kana":"ネヤガワシ","town":"幸町","town_kana":"サイワイチョウ","prefecture_code":27},"0018":{"zip_code":"5720018","prefecture":"大阪府","prefecture_kana":"オオサカフ","city":"寝屋川市","city_kana":"ネヤガワシ","town":"境橋町","town_kana":"サカイバシチョウ","prefecture_code":27},"0041":{"zip_code":"5720041","prefecture":"大阪府","prefecture_kana":"オオサカフ","city":"寝屋川市","city_kana":"ネヤガワシ","town":"桜木町","town_kana":"サクラギチョウ","prefecture_code":27},"0813":{"zip_code":"5720813","prefecture":"大阪府","prefecture_kana":"オオサカフ","city":"寝屋川市","city_kana":"ネヤガワシ","town":"讃良東町","town_kana":"サンラヒガシマチ","prefecture_code":27},"0818":{"zip_code":"5720818","prefecture":"大阪府","prefecture_kana":"オオサカフ","city":"寝屋川市","city_kana":"ネヤガワシ","town":"讃良西町","town_kana":"サンラニシマチ","prefecture_code":27},"0044":{"zip_code":"5720044","prefecture":"大阪府","prefecture_kana":"オオサカフ","city":"寝屋川市","city_kana":"ネヤガワシ","town":"清水町","town_kana":"シミズチョウ","prefecture_code":27},"0077":{"zip_code":"5720077","prefecture":"大阪府","prefecture_kana":"オオサカフ","city":"寝屋川市","city_kana":"ネヤガワシ","town":"点野","town_kana":"シメノ","prefecture_code":27},"0054":{"zip_code":"5720054","prefecture":"大阪府","prefecture_kana":"オオサカフ","city":"寝屋川市","city_kana":"ネヤガワシ","town":"下神田町","town_kana":"シモカミダチョウ","prefecture_code":27},"0823":{"zip_code":"5720823","prefecture":"大阪府","prefecture_kana":"オオサカフ","city":"寝屋川市","city_kana":"ネヤガワシ","town":"下木田町","town_kana":"シモキダチョウ","prefecture_code":27},"0834":{"zip_code":"5720834","prefecture":"大阪府","prefecture_kana":"オオサカフ","city":"寝屋川市","city_kana":"ネヤガワシ","town":"昭栄町","town_kana":"ショウエイチョウ","prefecture_code":27},"0865":{"zip_code":"5720865","prefecture":"大阪府","prefecture_kana":"オオサカフ","city":"寝屋川市","city_kana":"ネヤガワシ","town":"小路北町","town_kana":"ショウジキタマチ","prefecture_code":27},"0866":{"zip_code":"5720866","prefecture":"大阪府","prefecture_kana":"オオサカフ","city":"寝屋川市","city_kana":"ネヤガワシ","town":"小路南町","town_kana":"ショウジミナミマチ","prefecture_code":27},"0812":{"zip_code":"5720812","prefecture":"大阪府","prefecture_kana":"オオサカフ","city":"寝屋川市","city_kana":"ネヤガワシ","town":"新家","town_kana":"シンケ","prefecture_code":27},"0009":{"zip_code":"5720009","prefecture":"大阪府","prefecture_kana":"オオサカフ","city":"寝屋川市","city_kana":"ネヤガワシ","town":"末広町","town_kana":"スエヒロチョウ","prefecture_code":27},"0046":{"zip_code":"5720046","prefecture":"大阪府","prefecture_kana":"オオサカフ","city":"寝屋川市","city_kana":"ネヤガワシ","town":"成美町","town_kana":"セイビチョウ","prefecture_code":27},"0819":{"zip_code":"5720819","prefecture":"大阪府","prefecture_kana":"オオサカフ","city":"寝屋川市","city_kana":"ネヤガワシ","town":"大成町","town_kana":"タイセイチョウ","prefecture_code":27},"0021":{"zip_code":"5720021","prefecture":"大阪府","prefecture_kana":"オオサカフ","city":"寝屋川市","city_kana":"ネヤガワシ","town":"田井町","town_kana":"タイチョウ","prefecture_code":27},"0020":{"zip_code":"5720020","prefecture":"大阪府","prefecture_kana":"オオサカフ","city":"寝屋川市","city_kana":"ネヤガワシ","town":"田井西町","town_kana":"タイニシマチ","prefecture_code":27},"0078":{"zip_code":"5720078","prefecture":"大阪府","prefecture_kana":"オオサカフ","city":"寝屋川市","city_kana":"ネヤガワシ","town":"太間町","town_kana":"タイマチョウ","prefecture_code":27},"0072":{"zip_code":"5720072","prefecture":"大阪府","prefecture_kana":"オオサカフ","city":"寝屋川市","city_kana":"ネヤガワシ","town":"太間東町","town_kana":"タイマヒガシマチ","prefecture_code":27},"0864":{"zip_code":"5720864","prefecture":"大阪府","prefecture_kana":"オオサカフ","city":"寝屋川市","city_kana":"ネヤガワシ","town":"高倉","town_kana":"タカクラ","prefecture_code":27},"0806":{"zip_code":"5720806","prefecture":"大阪府","prefecture_kana":"オオサカフ","city":"寝屋川市","city_kana":"ネヤガワシ","town":"高宮","town_kana":"タカミヤ","prefecture_code":27},"0867":{"zip_code":"5720867","prefecture":"大阪府","prefecture_kana":"オオサカフ","city":"寝屋川市","city_kana":"ネヤガワシ","town":"高宮あさひ丘","town_kana":"タカミヤアサヒオカ","prefecture_code":27},"0846":{"zip_code":"5720846","prefecture":"大阪府","prefecture_kana":"オオサカフ","city":"寝屋川市","city_kana":"ネヤガワシ","town":"高宮栄町","town_kana":"タカミヤサカエマチ","prefecture_code":27},"0847":{"zip_code":"5720847","prefecture":"大阪府","prefecture_kana":"オオサカフ","city":"寝屋川市","city_kana":"ネヤガワシ","town":"高宮新町","town_kana":"タカミヤシンマチ","prefecture_code":27},"0051":{"zip_code":"5720051","prefecture":"大阪府","prefecture_kana":"オオサカフ","city":"寝屋川市","city_kana":"ネヤガワシ","town":"高柳","town_kana":"タカヤナギ","prefecture_code":27},"0062":{"zip_code":"5720062","prefecture":"大阪府","prefecture_kana":"オオサカフ","city":"寝屋川市","city_kana":"ネヤガワシ","town":"高柳栄町","town_kana":"タカヤナギサカエマチ","prefecture_code":27},"0067":{"zip_code":"5720067","prefecture":"大阪府","prefecture_kana":"オオサカフ","city":"寝屋川市","city_kana":"ネヤガワシ","town":"宝町","town_kana":"タカラマチ","prefecture_code":27},"0061":{"zip_code":"5720061","prefecture":"大阪府","prefecture_kana":"オオサカフ","city":"寝屋川市","city_kana":"ネヤガワシ","town":"長栄寺町","town_kana":"チョウエイジチョウ","prefecture_code":27},"0064":{"zip_code":"5720064","prefecture":"大阪府","prefecture_kana":"オオサカフ","city":"寝屋川市","city_kana":"ネヤガワシ","town":"対馬江東町","town_kana":"ツシマエヒガシマチ","prefecture_code":27},"0065":{"zip_code":"5720065","prefecture":"大阪府","prefecture_kana":"オオサカフ","city":"寝屋川市","city_kana":"ネヤガワシ","town":"対馬江西町","town_kana":"ツシマエニシマチ","prefecture_code":27},"0071":{"zip_code":"5720071","prefecture":"大阪府","prefecture_kana":"オオサカフ","city":"寝屋川市","city_kana":"ネヤガワシ","town":"豊里町","town_kana":"トヨザトチョウ","prefecture_code":27},"0831":{"zip_code":"5720831","prefecture":"大阪府","prefecture_kana":"オオサカフ","city":"寝屋川市","city_kana":"ネヤガワシ","town":"豊野町","town_kana":"トヨノチョウ","prefecture_code":27},"0053":{"zip_code":"5720053","prefecture":"大阪府","prefecture_kana":"オオサカフ","city":"寝屋川市","city_kana":"ネヤガワシ","town":"中神田町","town_kana":"ナカカミダチョウ","prefecture_code":27},"0820":{"zip_code":"5720820","prefecture":"大阪府","prefecture_kana":"オオサカフ","city":"寝屋川市","city_kana":"ネヤガワシ","town":"中木田町","town_kana":"ナカキダチョウ","prefecture_code":27},"0002":{"zip_code":"5720002","prefecture":"大阪府","prefecture_kana":"オオサカフ","city":"寝屋川市","city_kana":"ネヤガワシ","town":"成田東が丘","town_kana":"ナリタヒガシガオカ","prefecture_code":27},"0001":{"zip_code":"5720001","prefecture":"大阪府","prefecture_kana":"オオサカフ","city":"寝屋川市","city_kana":"ネヤガワシ","town":"成田東町","town_kana":"ナリタヒガシマチ","prefecture_code":27},"0005":{"zip_code":"5720005","prefecture":"大阪府","prefecture_kana":"オオサカフ","city":"寝屋川市","city_kana":"ネヤガワシ","town":"成田西町","town_kana":"ナリタニシマチ","prefecture_code":27},"0003":{"zip_code":"5720003","prefecture":"大阪府","prefecture_kana":"オオサカフ","city":"寝屋川市","city_kana":"ネヤガワシ","town":"成田南町","town_kana":"ナリタミナミマチ","prefecture_code":27},"0004":{"zip_code":"5720004","prefecture":"大阪府","prefecture_kana":"オオサカフ","city":"寝屋川市","city_kana":"ネヤガワシ","town":"成田町","town_kana":"ナリタチョウ","prefecture_code":27},"0826":{"zip_code":"5720826","prefecture":"大阪府","prefecture_kana":"オオサカフ","city":"寝屋川市","city_kana":"ネヤガワシ","town":"南水苑町","town_kana":"ナンスイエンチョウ","prefecture_code":27},"0043":{"zip_code":"5720043","prefecture":"大阪府","prefecture_kana":"オオサカフ","city":"寝屋川市","city_kana":"ネヤガワシ","town":"錦町","town_kana":"ニシキチョウ","prefecture_code":27},"0028":{"zip_code":"5720028","prefecture":"大阪府","prefecture_kana":"オオサカフ","city":"寝屋川市","city_kana":"ネヤガワシ","town":"日新町","town_kana":"ニッシンチョウ","prefecture_code":27},"0066":{"zip_code":"5720066","prefecture":"大阪府","prefecture_kana":"オオサカフ","city":"寝屋川市","city_kana":"ネヤガワシ","town":"仁和寺町","town_kana":"ニワジチョウ","prefecture_code":27},"0076":{"zip_code":"5720076","prefecture":"大阪府","prefecture_kana":"オオサカフ","city":"寝屋川市","city_kana":"ネヤガワシ","town":"仁和寺本町","town_kana":"ニワジホンマチ","prefecture_code":27},"0801":{"zip_code":"5720801","prefecture":"大阪府","prefecture_kana":"オオサカフ","city":"寝屋川市","city_kana":"ネヤガワシ","town":"寝屋","town_kana":"ネヤ","prefecture_code":27},"0854":{"zip_code":"5720854","prefecture":"大阪府","prefecture_kana":"オオサカフ","city":"寝屋川市","city_kana":"ネヤガワシ","town":"寝屋川公園","town_kana":"ネヤガワコウエン","prefecture_code":27},"0851":{"zip_code":"5720851","prefecture":"大阪府","prefecture_kana":"オオサカフ","city":"寝屋川市","city_kana":"ネヤガワシ","town":"寝屋北町","town_kana":"ネヤキタマチ","prefecture_code":27},"0852":{"zip_code":"5720852","prefecture":"大阪府","prefecture_kana":"オオサカフ","city":"寝屋川市","city_kana":"ネヤガワシ","town":"寝屋新町","town_kana":"ネヤシンマチ","prefecture_code":27},"0855":{"zip_code":"5720855","prefecture":"大阪府","prefecture_kana":"オオサカフ","city":"寝屋川市","city_kana":"ネヤガワシ","town":"寝屋南","town_kana":"ネヤミナミ","prefecture_code":27},"0848":{"zip_code":"5720848","prefecture":"大阪府","prefecture_kana":"オオサカフ","city":"寝屋川市","city_kana":"ネヤガワシ","town":"秦町","town_kana":"ハダチョウ","prefecture_code":27},"0014":{"zip_code":"5720014","prefecture":"大阪府","prefecture_kana":"オオサカフ","city":"寝屋川市","city_kana":"ネヤガワシ","town":"八幡台","town_kana":"ハチマンダイ","prefecture_code":27},"0833":{"zip_code":"5720833","prefecture":"大阪府","prefecture_kana":"オオサカフ","city":"寝屋川市","city_kana":"ネヤガワシ","town":"初町","town_kana":"ハツチョウ","prefecture_code":27},"0837":{"zip_code":"5720837","prefecture":"大阪府","prefecture_kana":"オオサカフ","city":"寝屋川市","city_kana":"ネヤガワシ","town":"早子町","town_kana":"ハヤコチョウ","prefecture_code":27},"0042":{"zip_code":"5720042","prefecture":"大阪府","prefecture_kana":"オオサカフ","city":"寝屋川市","city_kana":"ネヤガワシ","town":"東大利町","town_kana":"ヒガシオオトシチョウ","prefecture_code":27},"0045":{"zip_code":"5720045","prefecture":"大阪府","prefecture_kana":"オオサカフ","city":"寝屋川市","city_kana":"ネヤガワシ","town":"東神田町","town_kana":"ヒガシカミダチョウ","prefecture_code":27},"0081":{"zip_code":"5720081","prefecture":"大阪府","prefecture_kana":"オオサカフ","city":"寝屋川市","city_kana":"ネヤガワシ","town":"東香里園町","town_kana":"ヒガシコオリエンチョウ","prefecture_code":27},"0835":{"zip_code":"5720835","prefecture":"大阪府","prefecture_kana":"オオサカフ","city":"寝屋川市","city_kana":"ネヤガワシ","town":"日之出町","town_kana":"ヒノデチョウ","prefecture_code":27},"0839":{"zip_code":"5720839","prefecture":"大阪府","prefecture_kana":"オオサカフ","city":"寝屋川市","city_kana":"ネヤガワシ","town":"平池町","town_kana":"ヒライケチョウ","prefecture_code":27},"0814":{"zip_code":"5720814","prefecture":"大阪府","prefecture_kana":"オオサカフ","city":"寝屋川市","city_kana":"ネヤガワシ","town":"堀溝","town_kana":"ホリミゾ","prefecture_code":27},"0810":{"zip_code":"5720810","prefecture":"大阪府","prefecture_kana":"オオサカフ","city":"寝屋川市","city_kana":"ネヤガワシ","town":"堀溝北町","town_kana":"ホリミゾキタマチ","prefecture_code":27},"0832":{"zip_code":"5720832","prefecture":"大阪府","prefecture_kana":"オオサカフ","city":"寝屋川市","city_kana":"ネヤガワシ","town":"本町","town_kana":"ホンマチ","prefecture_code":27},"0086":{"zip_code":"5720086","prefecture":"大阪府","prefecture_kana":"オオサカフ","city":"寝屋川市","city_kana":"ネヤガワシ","town":"松屋町","town_kana":"マツヤチョウ","prefecture_code":27},"0013":{"zip_code":"5720013","prefecture":"大阪府","prefecture_kana":"オオサカフ","city":"寝屋川市","city_kana":"ネヤガワシ","town":"三井が丘","town_kana":"ミイガオカ","prefecture_code":27},"0007":{"zip_code":"5720007","prefecture":"大阪府","prefecture_kana":"オオサカフ","city":"寝屋川市","city_kana":"ネヤガワシ","town":"美井町","town_kana":"ミイチョウ","prefecture_code":27},"0019":{"zip_code":"5720019","prefecture":"大阪府","prefecture_kana":"オオサカフ","city":"寝屋川市","city_kana":"ネヤガワシ","town":"三井南町","town_kana":"ミイミナミマチ","prefecture_code":27},"0006":{"zip_code":"5720006","prefecture":"大阪府","prefecture_kana":"オオサカフ","city":"寝屋川市","city_kana":"ネヤガワシ","town":"美井元町","town_kana":"ミイモトマチ","prefecture_code":27},"0022":{"zip_code":"5720022","prefecture":"大阪府","prefecture_kana":"オオサカフ","city":"寝屋川市","city_kana":"ネヤガワシ","town":"緑町","town_kana":"ミドリマチ","prefecture_code":27},"0055":{"zip_code":"5720055","prefecture":"大阪府","prefecture_kana":"オオサカフ","city":"寝屋川市","city_kana":"ネヤガワシ","town":"御幸東町","town_kana":"ミユキヒガシマチ","prefecture_code":27},"0056":{"zip_code":"5720056","prefecture":"大阪府","prefecture_kana":"オオサカフ","city":"寝屋川市","city_kana":"ネヤガワシ","town":"御幸西町","town_kana":"ミユキニシマチ","prefecture_code":27},"0011":{"zip_code":"5720011","prefecture":"大阪府","prefecture_kana":"オオサカフ","city":"寝屋川市","city_kana":"ネヤガワシ","town":"明徳","town_kana":"メイトク","prefecture_code":27},"0863":{"zip_code":"5720863","prefecture":"大阪府","prefecture_kana":"オオサカフ","city":"寝屋川市","city_kana":"ネヤガワシ","town":"明和","town_kana":"メイワ","prefecture_code":27},"0838":{"zip_code":"5720838","prefecture":"大阪府","prefecture_kana":"オオサカフ","city":"寝屋川市","city_kana":"ネヤガワシ","town":"八坂町","town_kana":"ヤサカチョウ","prefecture_code":27},"0031":{"zip_code":"5720031","prefecture":"大阪府","prefecture_kana":"オオサカフ","city":"寝屋川市","city_kana":"ネヤガワシ","town":"若葉町","town_kana":"ワカバチョウ","prefecture_code":27}}