{"0000":{"zip_code":"5730000","prefecture":"大阪府","prefecture_kana":"オオサカフ","city":"枚方市","city_kana":"ヒラカタシ","town":"","town_kana":"","prefecture_code":27},"0026":{"zip_code":"5730026","prefecture":"大阪府","prefecture_kana":"オオサカフ","city":"枚方市","city_kana":"ヒラカタシ","town":"朝日丘町","town_kana":"アサヒガオカチョウ","prefecture_code":27},"1185":{"zip_code":"5731185","prefecture":"大阪府","prefecture_kana":"オオサカフ","city":"枚方市","city_kana":"ヒラカタシ","town":"天之川町","town_kana":"アマノガワチョウ","prefecture_code":27},"0058":{"zip_code":"5730058","prefecture":"大阪府","prefecture_kana":"オオサカフ","city":"枚方市","city_kana":"ヒラカタシ","town":"伊加賀東町","town_kana":"イカガヒガシマチ","prefecture_code":27},"0066":{"zip_code":"5730066","prefecture":"大阪府","prefecture_kana":"オオサカフ","city":"枚方市","city_kana":"ヒラカタシ","town":"伊加賀西町","town_kana":"イカガニシマチ","prefecture_code":27},"0053":{"zip_code":"5730053","prefecture":"大阪府","prefecture_kana":"オオサカフ","city":"枚方市","city_kana":"ヒラカタシ","town":"伊加賀南町","town_kana":"イカガミナミマチ","prefecture_code":27},"0036":{"zip_code":"5730036","prefecture":"大阪府","prefecture_kana":"オオサカフ","city":"枚方市","city_kana":"ヒラカタシ","town":"伊加賀北町","town_kana":"イカガキタマチ","prefecture_code":27},"0061":{"zip_code":"5730061","prefecture":"大阪府","prefecture_kana":"オオサカフ","city":"枚方市","city_kana":"ヒラカタシ","town":"伊加賀寿町","town_kana":"イカガコトブキチョウ","prefecture_code":27},"0062":{"zip_code":"5730062","prefecture":"大阪府","prefecture_kana":"オオサカフ","city":"枚方市","city_kana":"ヒラカタシ","town":"伊加賀栄町","town_kana":"イカガサカエマチ","prefecture_code":27},"0055":{"zip_code":"5730055","prefecture":"大阪府","prefecture_kana":"オオサカフ","city":"枚方市","city_kana":"ヒラカタシ","town":"伊加賀本町","town_kana":"イカガホンマチ","prefecture_code":27},"0067":{"zip_code":"5730067","prefecture":"大阪府","prefecture_kana":"オオサカフ","city":"枚方市","city_kana":"ヒラカタシ","town":"伊加賀緑町","town_kana":"イカガミドリマチ","prefecture_code":27},"0005":{"zip_code":"5730005","prefecture":"大阪府","prefecture_kana":"オオサカフ","city":"枚方市","city_kana":"ヒラカタシ","town":"池之宮","town_kana":"イケノミヤ","prefecture_code":27},"1184":{"zip_code":"5731184","prefecture":"大阪府","prefecture_kana":"オオサカフ","city":"枚方市","city_kana":"ヒラカタシ","town":"磯島茶屋町","town_kana":"イソシマチャヤマチ","prefecture_code":27},"1186":{"zip_code":"5731186","prefecture":"大阪府","prefecture_kana":"オオサカフ","city":"枚方市","city_kana":"ヒラカタシ","town":"磯島南町","town_kana":"イソシマミナミマチ","prefecture_code":27},"1188":{"zip_code":"5731188","prefecture":"大阪府","prefecture_kana":"オオサカフ","city":"枚方市","city_kana":"ヒラカタシ","town":"磯島北町","town_kana":"イソシマキタマチ","prefecture_code":27},"1187":{"zip_code":"5731187","prefecture":"大阪府","prefecture_kana":"オオサカフ","city":"枚方市","city_kana":"ヒラカタシ","town":"磯島元町","town_kana":"イソシマモトマチ","prefecture_code":27},"0017":{"zip_code":"5730017","prefecture":"大阪府","prefecture_kana":"オオサカフ","city":"枚方市","city_kana":"ヒラカタシ","town":"印田町","town_kana":"インダチョウ","prefecture_code":27},"1175":{"zip_code":"5731175","prefecture":"大阪府","prefecture_kana":"オオサカフ","city":"枚方市","city_kana":"ヒラカタシ","town":"上野","town_kana":"ウエノ","prefecture_code":27},"1143":{"zip_code":"5731143","prefecture":"大阪府","prefecture_kana":"オオサカフ","city":"枚方市","city_kana":"ヒラカタシ","town":"宇山町","town_kana":"ウヤマチョウ","prefecture_code":27},"1136":{"zip_code":"5731136","prefecture":"大阪府","prefecture_kana":"オオサカフ","city":"枚方市","city_kana":"ヒラカタシ","town":"宇山東町","town_kana":"ウヤマヒガシマチ","prefecture_code":27},"0027":{"zip_code":"5730027","prefecture":"大阪府","prefecture_kana":"オオサカフ","city":"枚方市","city_kana":"ヒラカタシ","town":"大垣内町","town_kana":"オオガイトチョウ","prefecture_code":27},"0142":{"zip_code":"5730142","prefecture":"大阪府","prefecture_kana":"オオサカフ","city":"枚方市","city_kana":"ヒラカタシ","town":"大峰東町","town_kana":"オオミネヒガシマチ","prefecture_code":27},"0145":{"zip_code":"5730145","prefecture":"大阪府","prefecture_kana":"オオサカフ","city":"枚方市","city_kana":"ヒラカタシ","town":"大峰南町","town_kana":"オオミネミナミマチ","prefecture_code":27},"0141":{"zip_code":"5730141","prefecture":"大阪府","prefecture_kana":"オオサカフ","city":"枚方市","city_kana":"ヒラカタシ","town":"大峰北町","town_kana":"オオミネキタマチ","prefecture_code":27},"0146":{"zip_code":"5730146","prefecture":"大阪府","prefecture_kana":"オオサカフ","city":"枚方市","city_kana":"ヒラカタシ","town":"大峰元町","town_kana":"オオミネモトマチ","prefecture_code":27},"0032":{"zip_code":"5730032","prefecture":"大阪府","prefecture_kana":"オオサカフ","city":"枚方市","city_kana":"ヒラカタシ","town":"岡東町","town_kana":"オカヒガシチョウ","prefecture_code":27},"0031":{"zip_code":"5730031","prefecture":"大阪府","prefecture_kana":"オオサカフ","city":"枚方市","city_kana":"ヒラカタシ","town":"岡本町","town_kana":"オカホンマチ","prefecture_code":27},"0033":{"zip_code":"5730033","prefecture":"大阪府","prefecture_kana":"オオサカフ","city":"枚方市","city_kana":"ヒラカタシ","town":"岡南町","town_kana":"オカミナミチョウ","prefecture_code":27},"0034":{"zip_code":"5730034","prefecture":"大阪府","prefecture_kana":"オオサカフ","city":"枚方市","city_kana":"ヒラカタシ","town":"岡山手町","town_kana":"オカヤマテチョウ","prefecture_code":27},"1173":{"zip_code":"5731173","prefecture":"大阪府","prefecture_kana":"オオサカフ","city":"枚方市","city_kana":"ヒラカタシ","town":"小倉町","town_kana":"オグラチョウ","prefecture_code":27},"1174":{"zip_code":"5731174","prefecture":"大阪府","prefecture_kana":"オオサカフ","city":"枚方市","city_kana":"ヒラカタシ","town":"小倉東町","town_kana":"オグラヒガシマチ","prefecture_code":27},"1163":{"zip_code":"5731163","prefecture":"大阪府","prefecture_kana":"オオサカフ","city":"枚方市","city_kana":"ヒラカタシ","town":"甲斐田新町","town_kana":"カイダシンマチ","prefecture_code":27},"1168":{"zip_code":"5731168","prefecture":"大阪府","prefecture_kana":"オオサカフ","city":"枚方市","city_kana":"ヒラカタシ","town":"甲斐田東町","town_kana":"カイダヒガシマチ","prefecture_code":27},"1167":{"zip_code":"5731167","prefecture":"大阪府","prefecture_kana":"オオサカフ","city":"枚方市","city_kana":"ヒラカタシ","town":"甲斐田町","town_kana":"カイダチョウ","prefecture_code":27},"0134":{"zip_code":"5730134","prefecture":"大阪府","prefecture_kana":"オオサカフ","city":"枚方市","city_kana":"ヒラカタシ","town":"春日東町","town_kana":"カスガヒガシマチ","prefecture_code":27},"0136":{"zip_code":"5730136","prefecture":"大阪府","prefecture_kana":"オオサカフ","city":"枚方市","city_kana":"ヒラカタシ","town":"春日西町","town_kana":"カスガニシマチ","prefecture_code":27},"0137":{"zip_code":"5730137","prefecture":"大阪府","prefecture_kana":"オオサカフ","city":"枚方市","city_kana":"ヒラカタシ","town":"春日北町","town_kana":"カスガキタマチ","prefecture_code":27},"0135":{"zip_code":"5730135","prefecture":"大阪府","prefecture_kana":"オオサカフ","city":"枚方市","city_kana":"ヒラカタシ","town":"春日元町","town_kana":"カスガモトマチ","prefecture_code":27},"0131":{"zip_code":"5730131","prefecture":"大阪府","prefecture_kana":"オオサカフ","city":"枚方市","city_kana":"ヒラカタシ","town":"春日野","town_kana":"カスガノ","prefecture_code":27},"1156":{"zip_code":"5731156","prefecture":"大阪府","prefecture_kana":"オオサカフ","city":"枚方市","city_kana":"ヒラカタシ","town":"片鉾東町","town_kana":"カタホコヒガシマチ","prefecture_code":27},"1157":{"zip_code":"5731157","prefecture":"大阪府","prefecture_kana":"オオサカフ","city":"枚方市","city_kana":"ヒラカタシ","town":"片鉾本町","town_kana":"カタホコホンマチ","prefecture_code":27},"1127":{"zip_code":"5731127","prefecture":"大阪府","prefecture_kana":"オオサカフ","city":"枚方市","city_kana":"ヒラカタシ","town":"上島町","town_kana":"カミジマチョウ","prefecture_code":27},"1126":{"zip_code":"5731126","prefecture":"大阪府","prefecture_kana":"オオサカフ","city":"枚方市","city_kana":"ヒラカタシ","town":"上島東町","town_kana":"カミジマヒガシマチ","prefecture_code":27},"0028":{"zip_code":"5730028","prefecture":"大阪府","prefecture_kana":"オオサカフ","city":"枚方市","city_kana":"ヒラカタシ","town":"川原町","town_kana":"カワハラチョウ","prefecture_code":27},"0091":{"zip_code":"5730091","prefecture":"大阪府","prefecture_kana":"オオサカフ","city":"枚方市","city_kana":"ヒラカタシ","town":"菊丘町","town_kana":"キクガオカチョウ","prefecture_code":27},"0092":{"zip_code":"5730092","prefecture":"大阪府","prefecture_kana":"オオサカフ","city":"枚方市","city_kana":"ヒラカタシ","town":"菊丘南町","town_kana":"キクガオカミナミマチ","prefecture_code":27},"1158":{"zip_code":"5731158","prefecture":"大阪府","prefecture_kana":"オオサカフ","city":"枚方市","city_kana":"ヒラカタシ","town":"北片鉾町","town_kana":"キタカタホコチョウ","prefecture_code":27},"1102":{"zip_code":"5731102","prefecture":"大阪府","prefecture_kana":"オオサカフ","city":"枚方市","city_kana":"ヒラカタシ","town":"北楠葉町","town_kana":"キタクズハチョウ","prefecture_code":27},"0064":{"zip_code":"5730064","prefecture":"大阪府","prefecture_kana":"オオサカフ","city":"枚方市","city_kana":"ヒラカタシ","town":"北中振","town_kana":"キタナカブリ","prefecture_code":27},"1117":{"zip_code":"5731117","prefecture":"大阪府","prefecture_kana":"オオサカフ","city":"枚方市","city_kana":"ヒラカタシ","town":"北船橋町","town_kana":"キタフナハシチョウ","prefecture_code":27},"0171":{"zip_code":"5730171","prefecture":"大阪府","prefecture_kana":"オオサカフ","city":"枚方市","city_kana":"ヒラカタシ","town":"北山","town_kana":"キタヤマ","prefecture_code":27},"1197":{"zip_code":"5731197","prefecture":"大阪府","prefecture_kana":"オオサカフ","city":"枚方市","city_kana":"ヒラカタシ","town":"禁野本町","town_kana":"キンヤホンマチ","prefecture_code":27},"1111":{"zip_code":"5731111","prefecture":"大阪府","prefecture_kana":"オオサカフ","city":"枚方市","city_kana":"ヒラカタシ","town":"楠葉朝日","town_kana":"クズハアサヒ","prefecture_code":27},"1104":{"zip_code":"5731104","prefecture":"大阪府","prefecture_kana":"オオサカフ","city":"枚方市","city_kana":"ヒラカタシ","town":"楠葉丘","town_kana":"クズハオカ","prefecture_code":27},"1101":{"zip_code":"5731101","prefecture":"大阪府","prefecture_kana":"オオサカフ","city":"枚方市","city_kana":"ヒラカタシ","town":"楠葉中之芝","town_kana":"クズハナカノシバ","prefecture_code":27},"1107":{"zip_code":"5731107","prefecture":"大阪府","prefecture_kana":"オオサカフ","city":"枚方市","city_kana":"ヒラカタシ","town":"楠葉中町","town_kana":"クズハナカマチ","prefecture_code":27},"1118":{"zip_code":"5731118","prefecture":"大阪府","prefecture_kana":"オオサカフ","city":"枚方市","city_kana":"ヒラカタシ","town":"楠葉並木","town_kana":"クズハナミキ","prefecture_code":27},"1103":{"zip_code":"5731103","prefecture":"大阪府","prefecture_kana":"オオサカフ","city":"枚方市","city_kana":"ヒラカタシ","town":"楠葉野田","town_kana":"クズハノダ","prefecture_code":27},"1121":{"zip_code":"5731121","prefecture":"大阪府","prefecture_kana":"オオサカフ","city":"枚方市","city_kana":"ヒラカタシ","town":"楠葉花園町","town_kana":"クズハハナゾノチョウ","prefecture_code":27},"1112":{"zip_code":"5731112","prefecture":"大阪府","prefecture_kana":"オオサカフ","city":"枚方市","city_kana":"ヒラカタシ","town":"楠葉美咲","town_kana":"クズハミサキ","prefecture_code":27},"1113":{"zip_code":"5731113","prefecture":"大阪府","prefecture_kana":"オオサカフ","city":"枚方市","city_kana":"ヒラカタシ","town":"楠葉面取町","town_kana":"クズハメンドリチョウ","prefecture_code":27},"1159":{"zip_code":"5731159","prefecture":"大阪府","prefecture_kana":"オオサカフ","city":"枚方市","city_kana":"ヒラカタシ","town":"車塚","town_kana":"クルマヅカ","prefecture_code":27},"0073":{"zip_code":"5730073","prefecture":"大阪府","prefecture_kana":"オオサカフ","city":"枚方市","city_kana":"ヒラカタシ","town":"高田","town_kana":"コウダ","prefecture_code":27},"1161":{"zip_code":"5731161","prefecture":"大阪府","prefecture_kana":"オオサカフ","city":"枚方市","city_kana":"ヒラカタシ","town":"交北","town_kana":"コウホク","prefecture_code":27},"1131":{"zip_code":"5731131","prefecture":"大阪府","prefecture_kana":"オオサカフ","city":"枚方市","city_kana":"ヒラカタシ","town":"高野道","town_kana":"コウヤミチ","prefecture_code":27},"0088":{"zip_code":"5730088","prefecture":"大阪府","prefecture_kana":"オオサカフ","city":"枚方市","city_kana":"ヒラカタシ","town":"香里園桜木町","town_kana":"コウリエンサクラギチョウ","prefecture_code":27},"0085":{"zip_code":"5730085","prefecture":"大阪府","prefecture_kana":"オオサカフ","city":"枚方市","city_kana":"ヒラカタシ","town":"香里園東之町","town_kana":"コウリエンヒガシノチョウ","prefecture_code":27},"0087":{"zip_code":"5730087","prefecture":"大阪府","prefecture_kana":"オオサカフ","city":"枚方市","city_kana":"ヒラカタシ","town":"香里園山之手町","town_kana":"コウリエンヤマノテチョウ","prefecture_code":27},"0086":{"zip_code":"5730086","prefecture":"大阪府","prefecture_kana":"オオサカフ","city":"枚方市","city_kana":"ヒラカタシ","town":"香里園町","town_kana":"コウリエンチョウ","prefecture_code":27},"0084":{"zip_code":"5730084","prefecture":"大阪府","prefecture_kana":"オオサカフ","city":"枚方市","city_kana":"ヒラカタシ","town":"香里ケ丘","town_kana":"コウリガオカ","prefecture_code":27},"1145":{"zip_code":"5731145","prefecture":"大阪府","prefecture_kana":"オオサカフ","city":"枚方市","city_kana":"ヒラカタシ","town":"黄金野","town_kana":"コガネノ","prefecture_code":27},"1182":{"zip_code":"5731182","prefecture":"大阪府","prefecture_kana":"オオサカフ","city":"枚方市","city_kana":"ヒラカタシ","town":"御殿山町","town_kana":"ゴテンヤマチョウ","prefecture_code":27},"1193":{"zip_code":"5731193","prefecture":"大阪府","prefecture_kana":"オオサカフ","city":"枚方市","city_kana":"ヒラカタシ","town":"御殿山南町","town_kana":"ゴテンヤマミナミマチ","prefecture_code":27},"0018":{"zip_code":"5730018","prefecture":"大阪府","prefecture_kana":"オオサカフ","city":"枚方市","city_kana":"ヒラカタシ","town":"桜丘町","town_kana":"サクラガオカチョウ","prefecture_code":27},"0056":{"zip_code":"5730056","prefecture":"大阪府","prefecture_kana":"オオサカフ","city":"枚方市","city_kana":"ヒラカタシ","town":"桜町","town_kana":"サクラマチ","prefecture_code":27},"0081":{"zip_code":"5730081","prefecture":"大阪府","prefecture_kana":"オオサカフ","city":"枚方市","city_kana":"ヒラカタシ","town":"釈尊寺町","town_kana":"シャクソンジチョウ","prefecture_code":27},"1153":{"zip_code":"5731153","prefecture":"大阪府","prefecture_kana":"オオサカフ","city":"枚方市","city_kana":"ヒラカタシ","town":"招提大谷","town_kana":"ショウダイオオタニ","prefecture_code":27},"1132":{"zip_code":"5731132","prefecture":"大阪府","prefecture_kana":"オオサカフ","city":"枚方市","city_kana":"ヒラカタシ","town":"招提田近","town_kana":"ショウダイタヂカ","prefecture_code":27},"1152":{"zip_code":"5731152","prefecture":"大阪府","prefecture_kana":"オオサカフ","city":"枚方市","city_kana":"ヒラカタシ","town":"招提中町","town_kana":"ショウダイナカマチ","prefecture_code":27},"1135":{"zip_code":"5731135","prefecture":"大阪府","prefecture_kana":"オオサカフ","city":"枚方市","city_kana":"ヒラカタシ","town":"招提平野町","town_kana":"ショウダイヒラノチョウ","prefecture_code":27},"1154":{"zip_code":"5731154","prefecture":"大阪府","prefecture_kana":"オオサカフ","city":"枚方市","city_kana":"ヒラカタシ","town":"招提東町","town_kana":"ショウダイヒガシマチ","prefecture_code":27},"1155":{"zip_code":"5731155","prefecture":"大阪府","prefecture_kana":"オオサカフ","city":"枚方市","city_kana":"ヒラカタシ","town":"招提南町","town_kana":"ショウダイミナミマチ","prefecture_code":27},"1138":{"zip_code":"5731138","prefecture":"大阪府","prefecture_kana":"オオサカフ","city":"枚方市","city_kana":"ヒラカタシ","town":"招提北町","town_kana":"ショウダイキタマチ","prefecture_code":27},"1133":{"zip_code":"5731133","prefecture":"大阪府","prefecture_kana":"オオサカフ","city":"枚方市","city_kana":"ヒラカタシ","town":"招提元町","town_kana":"ショウダイモトマチ","prefecture_code":27},"1166":{"zip_code":"5731166","prefecture":"大阪府","prefecture_kana":"オオサカフ","city":"枚方市","city_kana":"ヒラカタシ","town":"新之栄町","town_kana":"シンノエチョウ","prefecture_code":27},"1191":{"zip_code":"5731191","prefecture":"大阪府","prefecture_kana":"オオサカフ","city":"枚方市","city_kana":"ヒラカタシ","town":"新町","town_kana":"シンマチ","prefecture_code":27},"0095":{"zip_code":"5730095","prefecture":"大阪府","prefecture_kana":"オオサカフ","city":"枚方市","city_kana":"ヒラカタシ","town":"翠香園町","town_kana":"スイコウエンチョウ","prefecture_code":27},"0117":{"zip_code":"5730117","prefecture":"大阪府","prefecture_kana":"オオサカフ","city":"枚方市","city_kana":"ヒラカタシ","town":"杉","town_kana":"スギ","prefecture_code":27},"0111":{"zip_code":"5730111","prefecture":"大阪府","prefecture_kana":"オオサカフ","city":"枚方市","city_kana":"ヒラカタシ","town":"杉北町","town_kana":"スギキタマチ","prefecture_code":27},"0116":{"zip_code":"5730116","prefecture":"大阪府","prefecture_kana":"オオサカフ","city":"枚方市","city_kana":"ヒラカタシ","town":"杉責谷","town_kana":"スギセメダニ","prefecture_code":27},"0118":{"zip_code":"5730118","prefecture":"大阪府","prefecture_kana":"オオサカフ","city":"枚方市","city_kana":"ヒラカタシ","town":"杉山手","town_kana":"スギヤマテ","prefecture_code":27},"1164":{"zip_code":"5731164","prefecture":"大阪府","prefecture_kana":"オオサカフ","city":"枚方市","city_kana":"ヒラカタシ","town":"須山町","town_kana":"スヤマチョウ","prefecture_code":27},"0113":{"zip_code":"5730113","prefecture":"大阪府","prefecture_kana":"オオサカフ","city":"枚方市","city_kana":"ヒラカタシ","town":"宗谷","town_kana":"ソウヤ","prefecture_code":27},"0112":{"zip_code":"5730112","prefecture":"大阪府","prefecture_kana":"オオサカフ","city":"枚方市","city_kana":"ヒラカタシ","town":"尊延寺","town_kana":"ソンエンジ","prefecture_code":27},"0035":{"zip_code":"5730035","prefecture":"大阪府","prefecture_kana":"オオサカフ","city":"枚方市","city_kana":"ヒラカタシ","town":"高塚町","town_kana":"タカツカチョウ","prefecture_code":27},"1162":{"zip_code":"5731162","prefecture":"大阪府","prefecture_kana":"オオサカフ","city":"枚方市","city_kana":"ヒラカタシ","town":"田口","town_kana":"タグチ","prefecture_code":27},"0001":{"zip_code":"5730001","prefecture":"大阪府","prefecture_kana":"オオサカフ","city":"枚方市","city_kana":"ヒラカタシ","town":"田口山","town_kana":"タグチヤマ","prefecture_code":27},"0024":{"zip_code":"5730024","prefecture":"大阪府","prefecture_kana":"オオサカフ","city":"枚方市","city_kana":"ヒラカタシ","town":"田宮本町","town_kana":"タミヤホンマチ","prefecture_code":27},"0123":{"zip_code":"5730123","prefecture":"大阪府","prefecture_kana":"オオサカフ","city":"枚方市","city_kana":"ヒラカタシ","town":"津田","town_kana":"ツダ","prefecture_code":27},"0125":{"zip_code":"5730125","prefecture":"大阪府","prefecture_kana":"オオサカフ","city":"枚方市","city_kana":"ヒラカタシ","town":"津田駅前","town_kana":"ツダエキマエ","prefecture_code":27},"0122":{"zip_code":"5730122","prefecture":"大阪府","prefecture_kana":"オオサカフ","city":"枚方市","city_kana":"ヒラカタシ","town":"津田東町","town_kana":"ツダヒガシマチ","prefecture_code":27},"0126":{"zip_code":"5730126","prefecture":"大阪府","prefecture_kana":"オオサカフ","city":"枚方市","city_kana":"ヒラカタシ","town":"津田西町","town_kana":"ツダニシマチ","prefecture_code":27},"0124":{"zip_code":"5730124","prefecture":"大阪府","prefecture_kana":"オオサカフ","city":"枚方市","city_kana":"ヒラカタシ","town":"津田南町","town_kana":"ツダミナミマチ","prefecture_code":27},"0121":{"zip_code":"5730121","prefecture":"大阪府","prefecture_kana":"オオサカフ","city":"枚方市","city_kana":"ヒラカタシ","town":"津田北町","town_kana":"ツダキタマチ","prefecture_code":27},"0127":{"zip_code":"5730127","prefecture":"大阪府","prefecture_kana":"オオサカフ","city":"枚方市","city_kana":"ヒラカタシ","town":"津田元町","town_kana":"ツダモトマチ","prefecture_code":27},"0128":{"zip_code":"5730128","prefecture":"大阪府","prefecture_kana":"オオサカフ","city":"枚方市","city_kana":"ヒラカタシ","town":"津田山手","town_kana":"ツダヤマテ","prefecture_code":27},"0057":{"zip_code":"5730057","prefecture":"大阪府","prefecture_kana":"オオサカフ","city":"枚方市","city_kana":"ヒラカタシ","town":"堤町","town_kana":"ツツミチョウ","prefecture_code":27},"0065":{"zip_code":"5730065","prefecture":"大阪府","prefecture_kana":"オオサカフ","city":"枚方市","city_kana":"ヒラカタシ","town":"出口","town_kana":"デグチ","prefecture_code":27},"0003":{"zip_code":"5730003","prefecture":"大阪府","prefecture_kana":"オオサカフ","city":"枚方市","city_kana":"ヒラカタシ","town":"出屋敷西町","town_kana":"デヤシキニシマチ","prefecture_code":27},"0002":{"zip_code":"5730002","prefecture":"大阪府","prefecture_kana":"オオサカフ","city":"枚方市","city_kana":"ヒラカタシ","town":"出屋敷元町","town_kana":"デヤシキモトマチ","prefecture_code":27},"0045":{"zip_code":"5730045","prefecture":"大阪府","prefecture_kana":"オオサカフ","city":"枚方市","city_kana":"ヒラカタシ","town":"藤田町","town_kana":"トウダチョウ","prefecture_code":27},"0007":{"zip_code":"5730007","prefecture":"大阪府","prefecture_kana":"オオサカフ","city":"枚方市","city_kana":"ヒラカタシ","town":"堂山","town_kana":"ドウヤマ","prefecture_code":27},"0006":{"zip_code":"5730006","prefecture":"大阪府","prefecture_kana":"オオサカフ","city":"枚方市","city_kana":"ヒラカタシ","town":"堂山東町","town_kana":"ドウヤマヒガシマチ","prefecture_code":27},"0004":{"zip_code":"5730004","prefecture":"大阪府","prefecture_kana":"オオサカフ","city":"枚方市","city_kana":"ヒラカタシ","town":"中宮大池","town_kana":"ナカミヤオオイケ","prefecture_code":27},"1194":{"zip_code":"5731194","prefecture":"大阪府","prefecture_kana":"オオサカフ","city":"枚方市","city_kana":"ヒラカタシ","town":"中宮北町","town_kana":"ナカミヤキタマチ","prefecture_code":27},"1195":{"zip_code":"5731195","prefecture":"大阪府","prefecture_kana":"オオサカフ","city":"枚方市","city_kana":"ヒラカタシ","town":"中宮東之町","town_kana":"ナカミヤヒガシノチョウ","prefecture_code":27},"0021":{"zip_code":"5730021","prefecture":"大阪府","prefecture_kana":"オオサカフ","city":"枚方市","city_kana":"ヒラカタシ","town":"中宮西之町","town_kana":"ナカミヤニシノチョウ","prefecture_code":27},"1196":{"zip_code":"5731196","prefecture":"大阪府","prefecture_kana":"オオサカフ","city":"枚方市","city_kana":"ヒラカタシ","town":"中宮本町","town_kana":"ナカミヤホンマチ","prefecture_code":27},"0011":{"zip_code":"5730011","prefecture":"大阪府","prefecture_kana":"オオサカフ","city":"枚方市","city_kana":"ヒラカタシ","town":"中宮山戸町","town_kana":"ナカミヤヤマトチョウ","prefecture_code":27},"0103":{"zip_code":"5730103","prefecture":"大阪府","prefecture_kana":"オオサカフ","city":"枚方市","city_kana":"ヒラカタシ","town":"長尾荒阪","town_kana":"ナガオアラサカ","prefecture_code":27},"0102":{"zip_code":"5730102","prefecture":"大阪府","prefecture_kana":"オオサカフ","city":"枚方市","city_kana":"ヒラカタシ","town":"長尾家具町","town_kana":"ナガオカグマチ","prefecture_code":27},"0164":{"zip_code":"5730164","prefecture":"大阪府","prefecture_kana":"オオサカフ","city":"枚方市","city_kana":"ヒラカタシ","town":"長尾谷町","town_kana":"ナガオタニマチ","prefecture_code":27},"0101":{"zip_code":"5730101","prefecture":"大阪府","prefecture_kana":"オオサカフ","city":"枚方市","city_kana":"ヒラカタシ","town":"長尾峠町","town_kana":"ナガオトウゲチョウ","prefecture_code":27},"0104":{"zip_code":"5730104","prefecture":"大阪府","prefecture_kana":"オオサカフ","city":"枚方市","city_kana":"ヒラカタシ","town":"長尾播磨谷","town_kana":"ナガオハリマダニ","prefecture_code":27},"0105":{"zip_code":"5730105","prefecture":"大阪府","prefecture_kana":"オオサカフ","city":"枚方市","city_kana":"ヒラカタシ","town":"長尾東町","town_kana":"ナガオヒガシマチ","prefecture_code":27},"0162":{"zip_code":"5730162","prefecture":"大阪府","prefecture_kana":"オオサカフ","city":"枚方市","city_kana":"ヒラカタシ","town":"長尾西町","town_kana":"ナガオニシマチ","prefecture_code":27},"0161":{"zip_code":"5730161","prefecture":"大阪府","prefecture_kana":"オオサカフ","city":"枚方市","city_kana":"ヒラカタシ","town":"長尾北町","town_kana":"ナガオキタマチ","prefecture_code":27},"0107":{"zip_code":"5730107","prefecture":"大阪府","prefecture_kana":"オオサカフ","city":"枚方市","city_kana":"ヒラカタシ","town":"長尾宮前","town_kana":"ナガオミヤマエ","prefecture_code":27},"0163":{"zip_code":"5730163","prefecture":"大阪府","prefecture_kana":"オオサカフ","city":"枚方市","city_kana":"ヒラカタシ","town":"長尾元町","town_kana":"ナガオモトマチ","prefecture_code":27},"0106":{"zip_code":"5730106","prefecture":"大阪府","prefecture_kana":"オオサカフ","city":"枚方市","city_kana":"ヒラカタシ","town":"長尾台","town_kana":"ナガオダイ","prefecture_code":27},"1147":{"zip_code":"5731147","prefecture":"大阪府","prefecture_kana":"オオサカフ","city":"枚方市","city_kana":"ヒラカタシ","town":"渚内野","town_kana":"ナギサウチノ","prefecture_code":27},"1172":{"zip_code":"5731172","prefecture":"大阪府","prefecture_kana":"オオサカフ","city":"枚方市","city_kana":"ヒラカタシ","town":"渚栄町","town_kana":"ナギササカエマチ","prefecture_code":27},"1181":{"zip_code":"5731181","prefecture":"大阪府","prefecture_kana":"オオサカフ","city":"枚方市","city_kana":"ヒラカタシ","town":"渚本町","town_kana":"ナギサホンマチ","prefecture_code":27},"1176":{"zip_code":"5731176","prefecture":"大阪府","prefecture_kana":"オオサカフ","city":"枚方市","city_kana":"ヒラカタシ","town":"渚東町","town_kana":"ナギサヒガシマチ","prefecture_code":27},"1183":{"zip_code":"5731183","prefecture":"大阪府","prefecture_kana":"オオサカフ","city":"枚方市","city_kana":"ヒラカタシ","town":"渚南町","town_kana":"ナギサミナミマチ","prefecture_code":27},"1177":{"zip_code":"5731177","prefecture":"大阪府","prefecture_kana":"オオサカフ","city":"枚方市","city_kana":"ヒラカタシ","town":"渚元町","town_kana":"ナギサモトマチ","prefecture_code":27},"1178":{"zip_code":"5731178","prefecture":"大阪府","prefecture_kana":"オオサカフ","city":"枚方市","city_kana":"ヒラカタシ","town":"渚西","town_kana":"ナギサニシ","prefecture_code":27},"0071":{"zip_code":"5730071","prefecture":"大阪府","prefecture_kana":"オオサカフ","city":"枚方市","city_kana":"ヒラカタシ","town":"茄子作","town_kana":"ナスヅクリ","prefecture_code":27},"0082":{"zip_code":"5730082","prefecture":"大阪府","prefecture_kana":"オオサカフ","city":"枚方市","city_kana":"ヒラカタシ","town":"茄子作東町","town_kana":"ナスヅクリヒガシマチ","prefecture_code":27},"0072":{"zip_code":"5730072","prefecture":"大阪府","prefecture_kana":"オオサカフ","city":"枚方市","city_kana":"ヒラカタシ","town":"茄子作南町","town_kana":"ナスヅクリミナミマチ","prefecture_code":27},"0083":{"zip_code":"5730083","prefecture":"大阪府","prefecture_kana":"オオサカフ","city":"枚方市","city_kana":"ヒラカタシ","town":"茄子作北町","town_kana":"ナスヅクリキタマチ","prefecture_code":27},"1192":{"zip_code":"5731192","prefecture":"大阪府","prefecture_kana":"オオサカフ","city":"枚方市","city_kana":"ヒラカタシ","town":"西禁野","town_kana":"ニシキンヤ","prefecture_code":27},"1137":{"zip_code":"5731137","prefecture":"大阪府","prefecture_kana":"オオサカフ","city":"枚方市","city_kana":"ヒラカタシ","town":"西招提町","town_kana":"ニシショウダイチョウ","prefecture_code":27},"0025":{"zip_code":"5730025","prefecture":"大阪府","prefecture_kana":"オオサカフ","city":"枚方市","city_kana":"ヒラカタシ","town":"西田宮町","town_kana":"ニシタミヤチョウ","prefecture_code":27},"1122":{"zip_code":"5731122","prefecture":"大阪府","prefecture_kana":"オオサカフ","city":"枚方市","city_kana":"ヒラカタシ","town":"西船橋","town_kana":"ニシフナハシ","prefecture_code":27},"1148":{"zip_code":"5731148","prefecture":"大阪府","prefecture_kana":"オオサカフ","city":"枚方市","city_kana":"ヒラカタシ","town":"西牧野","town_kana":"ニシマキノ","prefecture_code":27},"0144":{"zip_code":"5730144","prefecture":"大阪府","prefecture_kana":"オオサカフ","city":"枚方市","city_kana":"ヒラカタシ","town":"野村中町","town_kana":"ノムラナカマチ","prefecture_code":27},"0133":{"zip_code":"5730133","prefecture":"大阪府","prefecture_kana":"オオサカフ","city":"枚方市","city_kana":"ヒラカタシ","town":"野村南町","town_kana":"ノムラミナミマチ","prefecture_code":27},"0143":{"zip_code":"5730143","prefecture":"大阪府","prefecture_kana":"オオサカフ","city":"枚方市","city_kana":"ヒラカタシ","town":"野村北町","town_kana":"ノムラキタマチ","prefecture_code":27},"0132":{"zip_code":"5730132","prefecture":"大阪府","prefecture_kana":"オオサカフ","city":"枚方市","city_kana":"ヒラカタシ","town":"野村元町","town_kana":"ノムラモトマチ","prefecture_code":27},"0063":{"zip_code":"5730063","prefecture":"大阪府","prefecture_kana":"オオサカフ","city":"枚方市","city_kana":"ヒラカタシ","town":"走谷","town_kana":"ハシリダニ","prefecture_code":27},"0075":{"zip_code":"5730075","prefecture":"大阪府","prefecture_kana":"オオサカフ","city":"枚方市","city_kana":"ヒラカタシ","town":"東香里","town_kana":"ヒガシコウリ","prefecture_code":27},"0077":{"zip_code":"5730077","prefecture":"大阪府","prefecture_kana":"オオサカフ","city":"枚方市","city_kana":"ヒラカタシ","town":"東香里新町","town_kana":"ヒガシコウリシンマチ","prefecture_code":27},"0074":{"zip_code":"5730074","prefecture":"大阪府","prefecture_kana":"オオサカフ","city":"枚方市","city_kana":"ヒラカタシ","town":"東香里南町","town_kana":"ヒガシコウリミナミマチ","prefecture_code":27},"0076":{"zip_code":"5730076","prefecture":"大阪府","prefecture_kana":"オオサカフ","city":"枚方市","city_kana":"ヒラカタシ","town":"東香里元町","town_kana":"ヒガシコウリモトマチ","prefecture_code":27},"0023":{"zip_code":"5730023","prefecture":"大阪府","prefecture_kana":"オオサカフ","city":"枚方市","city_kana":"ヒラカタシ","town":"東田宮","town_kana":"ヒガシタミヤ","prefecture_code":27},"0044":{"zip_code":"5730044","prefecture":"大阪府","prefecture_kana":"オオサカフ","city":"枚方市","city_kana":"ヒラカタシ","town":"東藤田町","town_kana":"ヒガシトウダチョウ","prefecture_code":27},"0093":{"zip_code":"5730093","prefecture":"大阪府","prefecture_kana":"オオサカフ","city":"枚方市","city_kana":"ヒラカタシ","town":"東中振","town_kana":"ヒガシナカブリ","prefecture_code":27},"1115":{"zip_code":"5731115","prefecture":"大阪府","prefecture_kana":"オオサカフ","city":"枚方市","city_kana":"ヒラカタシ","town":"東船橋","town_kana":"ヒガシフナハシ","prefecture_code":27},"1151":{"zip_code":"5731151","prefecture":"大阪府","prefecture_kana":"オオサカフ","city":"枚方市","city_kana":"ヒラカタシ","town":"東牧野町","town_kana":"ヒガシマキノチョウ","prefecture_code":27},"1114":{"zip_code":"5731114","prefecture":"大阪府","prefecture_kana":"オオサカフ","city":"枚方市","city_kana":"ヒラカタシ","town":"東山","town_kana":"ヒガシヤマ","prefecture_code":27},"1128":{"zip_code":"5731128","prefecture":"大阪府","prefecture_kana":"オオサカフ","city":"枚方市","city_kana":"ヒラカタシ","town":"樋之上町","town_kana":"ヒノウエチョウ","prefecture_code":27},"0115":{"zip_code":"5730115","prefecture":"大阪府","prefecture_kana":"オオサカフ","city":"枚方市","city_kana":"ヒラカタシ","town":"氷室台","town_kana":"ヒムロダイ","prefecture_code":27},"0037":{"zip_code":"5730037","prefecture":"大阪府","prefecture_kana":"オオサカフ","city":"枚方市","city_kana":"ヒラカタシ","town":"枚方上之町","town_kana":"ヒラカタカミノチョウ","prefecture_code":27},"0054":{"zip_code":"5730054","prefecture":"大阪府","prefecture_kana":"オオサカフ","city":"枚方市","city_kana":"ヒラカタシ","town":"枚方公園町","town_kana":"ヒラカタコウエンチョウ","prefecture_code":27},"0052":{"zip_code":"5730052","prefecture":"大阪府","prefecture_kana":"オオサカフ","city":"枚方市","city_kana":"ヒラカタシ","town":"枚方元町","town_kana":"ヒラカタモトマチ","prefecture_code":27},"0155":{"zip_code":"5730155","prefecture":"大阪府","prefecture_kana":"オオサカフ","city":"枚方市","city_kana":"ヒラカタシ","town":"藤阪天神町","town_kana":"フジサカテンジンチョウ","prefecture_code":27},"0152":{"zip_code":"5730152","prefecture":"大阪府","prefecture_kana":"オオサカフ","city":"枚方市","city_kana":"ヒラカタシ","town":"藤阪中町","town_kana":"フジサカナカマチ","prefecture_code":27},"0153":{"zip_code":"5730153","prefecture":"大阪府","prefecture_kana":"オオサカフ","city":"枚方市","city_kana":"ヒラカタシ","town":"藤阪東町","town_kana":"フジサカヒガシマチ","prefecture_code":27},"0158":{"zip_code":"5730158","prefecture":"大阪府","prefecture_kana":"オオサカフ","city":"枚方市","city_kana":"ヒラカタシ","town":"藤阪西町","town_kana":"フジサカニシマチ","prefecture_code":27},"0156":{"zip_code":"5730156","prefecture":"大阪府","prefecture_kana":"オオサカフ","city":"枚方市","city_kana":"ヒラカタシ","town":"藤阪南町","town_kana":"フジサカミナミマチ","prefecture_code":27},"0151":{"zip_code":"5730151","prefecture":"大阪府","prefecture_kana":"オオサカフ","city":"枚方市","city_kana":"ヒラカタシ","town":"藤阪北町","town_kana":"フジサカキタマチ","prefecture_code":27},"0157":{"zip_code":"5730157","prefecture":"大阪府","prefecture_kana":"オオサカフ","city":"枚方市","city_kana":"ヒラカタシ","town":"藤阪元町","town_kana":"フジサカモトマチ","prefecture_code":27},"1116":{"zip_code":"5731116","prefecture":"大阪府","prefecture_kana":"オオサカフ","city":"枚方市","city_kana":"ヒラカタシ","town":"船橋本町","town_kana":"フナハシホンマチ","prefecture_code":27},"0013":{"zip_code":"5730013","prefecture":"大阪府","prefecture_kana":"オオサカフ","city":"枚方市","city_kana":"ヒラカタシ","town":"星丘","town_kana":"ホシガオカ","prefecture_code":27},"0114":{"zip_code":"5730114","prefecture":"大阪府","prefecture_kana":"オオサカフ","city":"枚方市","city_kana":"ヒラカタシ","town":"穂谷","town_kana":"ホタニ","prefecture_code":27},"1149":{"zip_code":"5731149","prefecture":"大阪府","prefecture_kana":"オオサカフ","city":"枚方市","city_kana":"ヒラカタシ","town":"牧野北町","town_kana":"マキノキタマチ","prefecture_code":27},"1146":{"zip_code":"5731146","prefecture":"大阪府","prefecture_kana":"オオサカフ","city":"枚方市","city_kana":"ヒラカタシ","town":"牧野阪","town_kana":"マキノサカ","prefecture_code":27},"1142":{"zip_code":"5731142","prefecture":"大阪府","prefecture_kana":"オオサカフ","city":"枚方市","city_kana":"ヒラカタシ","town":"牧野下島町","town_kana":"マキノシモジマチョウ","prefecture_code":27},"1144":{"zip_code":"5731144","prefecture":"大阪府","prefecture_kana":"オオサカフ","city":"枚方市","city_kana":"ヒラカタシ","town":"牧野本町","town_kana":"マキノホンマチ","prefecture_code":27},"1106":{"zip_code":"5731106","prefecture":"大阪府","prefecture_kana":"オオサカフ","city":"枚方市","city_kana":"ヒラカタシ","town":"町楠葉","town_kana":"マチクズハ","prefecture_code":27},"0012":{"zip_code":"5730012","prefecture":"大阪府","prefecture_kana":"オオサカフ","city":"枚方市","city_kana":"ヒラカタシ","town":"松丘町","town_kana":"マツガオカチョウ","prefecture_code":27},"0051":{"zip_code":"5730051","prefecture":"大阪府","prefecture_kana":"オオサカフ","city":"枚方市","city_kana":"ヒラカタシ","town":"三矢町","town_kana":"ミツヤチョウ","prefecture_code":27},"1105":{"zip_code":"5731105","prefecture":"大阪府","prefecture_kana":"オオサカフ","city":"枚方市","city_kana":"ヒラカタシ","town":"南楠葉","town_kana":"ミナミクズハ","prefecture_code":27},"0094":{"zip_code":"5730094","prefecture":"大阪府","prefecture_kana":"オオサカフ","city":"枚方市","city_kana":"ヒラカタシ","town":"南中振","town_kana":"ミナミナカブリ","prefecture_code":27},"1123":{"zip_code":"5731123","prefecture":"大阪府","prefecture_kana":"オオサカフ","city":"枚方市","city_kana":"ヒラカタシ","town":"南船橋","town_kana":"ミナミフナハシ","prefecture_code":27},"1165":{"zip_code":"5731165","prefecture":"大阪府","prefecture_kana":"オオサカフ","city":"枚方市","city_kana":"ヒラカタシ","town":"都丘町","town_kana":"ミヤコガオカチョウ","prefecture_code":27},"0022":{"zip_code":"5730022","prefecture":"大阪府","prefecture_kana":"オオサカフ","city":"枚方市","city_kana":"ヒラカタシ","town":"宮之阪","town_kana":"ミヤノサカ","prefecture_code":27},"0046":{"zip_code":"5730046","prefecture":"大阪府","prefecture_kana":"オオサカフ","city":"枚方市","city_kana":"ヒラカタシ","town":"宮之下町","town_kana":"ミヤノシタチョウ","prefecture_code":27},"0014":{"zip_code":"5730014","prefecture":"大阪府","prefecture_kana":"オオサカフ","city":"枚方市","city_kana":"ヒラカタシ","town":"村野高見台","town_kana":"ムラノタカミダイ","prefecture_code":27},"0015":{"zip_code":"5730015","prefecture":"大阪府","prefecture_kana":"オオサカフ","city":"枚方市","city_kana":"ヒラカタシ","town":"村野東町","town_kana":"ムラノヒガシマチ","prefecture_code":27},"0042":{"zip_code":"5730042","prefecture":"大阪府","prefecture_kana":"オオサカフ","city":"枚方市","city_kana":"ヒラカタシ","town":"村野西町","town_kana":"ムラノニシマチ","prefecture_code":27},"0043":{"zip_code":"5730043","prefecture":"大阪府","prefecture_kana":"オオサカフ","city":"枚方市","city_kana":"ヒラカタシ","town":"村野南町","town_kana":"ムラノミナミマチ","prefecture_code":27},"0016":{"zip_code":"5730016","prefecture":"大阪府","prefecture_kana":"オオサカフ","city":"枚方市","city_kana":"ヒラカタシ","town":"村野本町","town_kana":"ムラノホンマチ","prefecture_code":27},"1171":{"zip_code":"5731171","prefecture":"大阪府","prefecture_kana":"オオサカフ","city":"枚方市","city_kana":"ヒラカタシ","town":"三栗","town_kana":"メグリ","prefecture_code":27},"1124":{"zip_code":"5731124","prefecture":"大阪府","prefecture_kana":"オオサカフ","city":"枚方市","city_kana":"ヒラカタシ","town":"養父東町","town_kana":"ヤブヒガシマチ","prefecture_code":27},"1141":{"zip_code":"5731141","prefecture":"大阪府","prefecture_kana":"オオサカフ","city":"枚方市","city_kana":"ヒラカタシ","town":"養父西町","town_kana":"ヤブニシマチ","prefecture_code":27},"1125":{"zip_code":"5731125","prefecture":"大阪府","prefecture_kana":"オオサカフ","city":"枚方市","city_kana":"ヒラカタシ","town":"養父元町","town_kana":"ヤブモトマチ","prefecture_code":27},"1134":{"zip_code":"5731134","prefecture":"大阪府","prefecture_kana":"オオサカフ","city":"枚方市","city_kana":"ヒラカタシ","town":"養父丘","town_kana":"ヤブガオカ","prefecture_code":27},"0167":{"zip_code":"5730167","prefecture":"大阪府","prefecture_kana":"オオサカフ","city":"枚方市","city_kana":"ヒラカタシ","town":"山田池公園","town_kana":"ヤマダイケコウエン","prefecture_code":27},"0165":{"zip_code":"5730165","prefecture":"大阪府","prefecture_kana":"オオサカフ","city":"枚方市","city_kana":"ヒラカタシ","town":"山田池東町","town_kana":"ヤマダイケヒガシマチ","prefecture_code":27},"0168":{"zip_code":"5730168","prefecture":"大阪府","prefecture_kana":"オオサカフ","city":"枚方市","city_kana":"ヒラカタシ","town":"山田池南町","town_kana":"ヤマダイケミナミマチ","prefecture_code":27},"0166":{"zip_code":"5730166","prefecture":"大阪府","prefecture_kana":"オオサカフ","city":"枚方市","city_kana":"ヒラカタシ","town":"山田池北町","town_kana":"ヤマダイケキタマチ","prefecture_code":27},"0047":{"zip_code":"5730047","prefecture":"大阪府","prefecture_kana":"オオサカフ","city":"枚方市","city_kana":"ヒラカタシ","town":"山之上","town_kana":"ヤマノウエ","prefecture_code":27},"0041":{"zip_code":"5730041","prefecture":"大阪府","prefecture_kana":"オオサカフ","city":"枚方市","city_kana":"ヒラカタシ","town":"山之上東町","town_kana":"ヤマノウエヒガシマチ","prefecture_code":27},"0048":{"zip_code":"5730048","prefecture":"大阪府","prefecture_kana":"オオサカフ","city":"枚方市","city_kana":"ヒラカタシ","town":"山之上西町","town_kana":"ヤマノウエニシマチ","prefecture_code":27},"0049":{"zip_code":"5730049","prefecture":"大阪府","prefecture_kana":"オオサカフ","city":"枚方市","city_kana":"ヒラカタシ","town":"山之上北町","town_kana":"ヤマノウエキタマチ","prefecture_code":27},"0154":{"zip_code":"5730154","prefecture":"大阪府","prefecture_kana":"オオサカフ","city":"枚方市","city_kana":"ヒラカタシ","town":"王仁公園","town_kana":"ワニコウエン","prefecture_code":27}}