{"0000":{"zip_code":"5740000","prefecture":"大阪府","prefecture_kana":"オオサカフ","city":"大東市","city_kana":"ダイトウシ","town":"以下に掲載がない場合","town_kana":"イカニケイサイガナイバアイ","prefecture_code":27},"0046":{"zip_code":"5740046","prefecture":"大阪府","prefecture_kana":"オオサカフ","city":"大東市","city_kana":"ダイトウシ","town":"赤井","town_kana":"アカイ","prefecture_code":27},"0076":{"zip_code":"5740076","prefecture":"大阪府","prefecture_kana":"オオサカフ","city":"大東市","city_kana":"ダイトウシ","town":"曙町","town_kana":"アケボノチョウ","prefecture_code":27},"0003":{"zip_code":"5740003","prefecture":"大阪府","prefecture_kana":"オオサカフ","city":"大東市","city_kana":"ダイトウシ","town":"明美の里町","town_kana":"アケミノサトチョウ","prefecture_code":27},"0024":{"zip_code":"5740024","prefecture":"大阪府","prefecture_kana":"オオサカフ","city":"大東市","city_kana":"ダイトウシ","town":"泉町","town_kana":"イズミマチ","prefecture_code":27},"0032":{"zip_code":"5740032","prefecture":"大阪府","prefecture_kana":"オオサカフ","city":"大東市","city_kana":"ダイトウシ","town":"栄和町","town_kana":"エイワチョウ","prefecture_code":27},"0033":{"zip_code":"5740033","prefecture":"大阪府","prefecture_kana":"オオサカフ","city":"大東市","city_kana":"ダイトウシ","town":"扇町","town_kana":"オウギマチ","prefecture_code":27},"0042":{"zip_code":"5740042","prefecture":"大阪府","prefecture_kana":"オオサカフ","city":"大東市","city_kana":"ダイトウシ","town":"大野","town_kana":"オオノ","prefecture_code":27},"0001":{"zip_code":"5740001","prefecture":"大阪府","prefecture_kana":"オオサカフ","city":"大東市","city_kana":"ダイトウシ","town":"学園町","town_kana":"ガクエンチョウ","prefecture_code":27},"0031":{"zip_code":"5740031","prefecture":"大阪府","prefecture_kana":"オオサカフ","city":"大東市","city_kana":"ダイトウシ","town":"川中新町","town_kana":"カワナカシンマチ","prefecture_code":27},"0007":{"zip_code":"5740007","prefecture":"大阪府","prefecture_kana":"オオサカフ","city":"大東市","city_kana":"ダイトウシ","town":"北楠の里町","town_kana":"キタクスノサトチョウ","prefecture_code":27},"0008":{"zip_code":"5740008","prefecture":"大阪府","prefecture_kana":"オオサカフ","city":"大東市","city_kana":"ダイトウシ","town":"北新町","town_kana":"キタシンマチ","prefecture_code":27},"0025":{"zip_code":"5740025","prefecture":"大阪府","prefecture_kana":"オオサカフ","city":"大東市","city_kana":"ダイトウシ","town":"御供田","town_kana":"ゴクデン","prefecture_code":27},"0064":{"zip_code":"5740064","prefecture":"大阪府","prefecture_kana":"オオサカフ","city":"大東市","city_kana":"ダイトウシ","town":"御領","town_kana":"ゴリョウ","prefecture_code":27},"0028":{"zip_code":"5740028","prefecture":"大阪府","prefecture_kana":"オオサカフ","city":"大東市","city_kana":"ダイトウシ","town":"幸町","town_kana":"サイワイチョウ","prefecture_code":27},"0077":{"zip_code":"5740077","prefecture":"大阪府","prefecture_kana":"オオサカフ","city":"大東市","city_kana":"ダイトウシ","town":"三箇","town_kana":"サンガ","prefecture_code":27},"0035":{"zip_code":"5740035","prefecture":"大阪府","prefecture_kana":"オオサカフ","city":"大東市","city_kana":"ダイトウシ","town":"三洋町","town_kana":"サンヨウチョウ","prefecture_code":27},"0053":{"zip_code":"5740053","prefecture":"大阪府","prefecture_kana":"オオサカフ","city":"大東市","city_kana":"ダイトウシ","town":"新田旭町","town_kana":"シンデンアサヒマチ","prefecture_code":27},"0051":{"zip_code":"5740051","prefecture":"大阪府","prefecture_kana":"オオサカフ","city":"大東市","city_kana":"ダイトウシ","town":"新田境町","town_kana":"シンデンサカイマチ","prefecture_code":27},"0056":{"zip_code":"5740056","prefecture":"大阪府","prefecture_kana":"オオサカフ","city":"大東市","city_kana":"ダイトウシ","town":"新田中町","town_kana":"シンデンナカマチ","prefecture_code":27},"0057":{"zip_code":"5740057","prefecture":"大阪府","prefecture_kana":"オオサカフ","city":"大東市","city_kana":"ダイトウシ","town":"新田西町","town_kana":"シンデンニシマチ","prefecture_code":27},"0052":{"zip_code":"5740052","prefecture":"大阪府","prefecture_kana":"オオサカフ","city":"大東市","city_kana":"ダイトウシ","town":"新田北町","town_kana":"シンデンキタマチ","prefecture_code":27},"0054":{"zip_code":"5740054","prefecture":"大阪府","prefecture_kana":"オオサカフ","city":"大東市","city_kana":"ダイトウシ","town":"新田東本町","town_kana":"シンデンヒガシホンマチ","prefecture_code":27},"0055":{"zip_code":"5740055","prefecture":"大阪府","prefecture_kana":"オオサカフ","city":"大東市","city_kana":"ダイトウシ","town":"新田本町","town_kana":"シンデンホンマチ","prefecture_code":27},"0037":{"zip_code":"5740037","prefecture":"大阪府","prefecture_kana":"オオサカフ","city":"大東市","city_kana":"ダイトウシ","town":"新町","town_kana":"シンマチ","prefecture_code":27},"0036":{"zip_code":"5740036","prefecture":"大阪府","prefecture_kana":"オオサカフ","city":"大東市","city_kana":"ダイトウシ","town":"末広町","town_kana":"スエヒロチョウ","prefecture_code":27},"0026":{"zip_code":"5740026","prefecture":"大阪府","prefecture_kana":"オオサカフ","city":"大東市","city_kana":"ダイトウシ","town":"住道","town_kana":"スミノドウ","prefecture_code":27},"0061":{"zip_code":"5740061","prefecture":"大阪府","prefecture_kana":"オオサカフ","city":"大東市","city_kana":"ダイトウシ","town":"大東町","town_kana":"ダイトウチョウ","prefecture_code":27},"0045":{"zip_code":"5740045","prefecture":"大阪府","prefecture_kana":"オオサカフ","city":"大東市","city_kana":"ダイトウシ","town":"太子田","town_kana":"タシデン","prefecture_code":27},"0012":{"zip_code":"5740012","prefecture":"大阪府","prefecture_kana":"オオサカフ","city":"大東市","city_kana":"ダイトウシ","town":"龍間","town_kana":"タツマ","prefecture_code":27},"0074":{"zip_code":"5740074","prefecture":"大阪府","prefecture_kana":"オオサカフ","city":"大東市","city_kana":"ダイトウシ","town":"谷川","town_kana":"タニガワ","prefecture_code":27},"0017":{"zip_code":"5740017","prefecture":"大阪府","prefecture_kana":"オオサカフ","city":"大東市","city_kana":"ダイトウシ","town":"津の辺町","town_kana":"ツノベチョウ","prefecture_code":27},"0014":{"zip_code":"5740014","prefecture":"大阪府","prefecture_kana":"オオサカフ","city":"大東市","city_kana":"ダイトウシ","town":"寺川","town_kana":"テラガワ","prefecture_code":27},"0013":{"zip_code":"5740013","prefecture":"大阪府","prefecture_kana":"オオサカフ","city":"大東市","city_kana":"ダイトウシ","town":"中垣内","town_kana":"ナカガイト","prefecture_code":27},"0006":{"zip_code":"5740006","prefecture":"大阪府","prefecture_kana":"オオサカフ","city":"大東市","city_kana":"ダイトウシ","town":"中楠の里町","town_kana":"ナカクスノサトチョウ","prefecture_code":27},"0063":{"zip_code":"5740063","prefecture":"大阪府","prefecture_kana":"オオサカフ","city":"大東市","city_kana":"ダイトウシ","town":"南郷町","town_kana":"ナンゴウチョウ","prefecture_code":27},"0002":{"zip_code":"5740002","prefecture":"大阪府","prefecture_kana":"オオサカフ","city":"大東市","city_kana":"ダイトウシ","town":"錦町","town_kana":"ニシキチョウ","prefecture_code":27},"0005":{"zip_code":"5740005","prefecture":"大阪府","prefecture_kana":"オオサカフ","city":"大東市","city_kana":"ダイトウシ","town":"西楠の里町","town_kana":"ニシクスノサトチョウ","prefecture_code":27},"0015":{"zip_code":"5740015","prefecture":"大阪府","prefecture_kana":"オオサカフ","city":"大東市","city_kana":"ダイトウシ","town":"野崎","town_kana":"ノザキ","prefecture_code":27},"0043":{"zip_code":"5740043","prefecture":"大阪府","prefecture_kana":"オオサカフ","city":"大東市","city_kana":"ダイトウシ","town":"灰塚","town_kana":"ハイヅカ","prefecture_code":27},"0041":{"zip_code":"5740041","prefecture":"大阪府","prefecture_kana":"オオサカフ","city":"大東市","city_kana":"ダイトウシ","town":"浜町","town_kana":"ハママチ","prefecture_code":27},"0062":{"zip_code":"5740062","prefecture":"大阪府","prefecture_kana":"オオサカフ","city":"大東市","city_kana":"ダイトウシ","town":"氷野","town_kana":"ヒノ","prefecture_code":27},"0022":{"zip_code":"5740022","prefecture":"大阪府","prefecture_kana":"オオサカフ","city":"大東市","city_kana":"ダイトウシ","town":"平野屋","town_kana":"ヒラノヤ","prefecture_code":27},"0021":{"zip_code":"5740021","prefecture":"大阪府","prefecture_kana":"オオサカフ","city":"大東市","city_kana":"ダイトウシ","town":"平野屋新町","town_kana":"ヒラノヤシンマチ","prefecture_code":27},"0072":{"zip_code":"5740072","prefecture":"大阪府","prefecture_kana":"オオサカフ","city":"大東市","city_kana":"ダイトウシ","town":"深野","town_kana":"フコノ","prefecture_code":27},"0075":{"zip_code":"5740075","prefecture":"大阪府","prefecture_kana":"オオサカフ","city":"大東市","city_kana":"ダイトウシ","town":"深野南町","town_kana":"フコノミナミチョウ","prefecture_code":27},"0071":{"zip_code":"5740071","prefecture":"大阪府","prefecture_kana":"オオサカフ","city":"大東市","city_kana":"ダイトウシ","town":"深野北","town_kana":"フコノキタ","prefecture_code":27},"0011":{"zip_code":"5740011","prefecture":"大阪府","prefecture_kana":"オオサカフ","city":"大東市","city_kana":"ダイトウシ","town":"北条","town_kana":"ホウジョウ","prefecture_code":27},"0034":{"zip_code":"5740034","prefecture":"大阪府","prefecture_kana":"オオサカフ","city":"大東市","city_kana":"ダイトウシ","town":"朋来","town_kana":"ホウライ","prefecture_code":27},"0027":{"zip_code":"5740027","prefecture":"大阪府","prefecture_kana":"オオサカフ","city":"大東市","city_kana":"ダイトウシ","town":"三住町","town_kana":"ミスミチョウ","prefecture_code":27},"0073":{"zip_code":"5740073","prefecture":"大阪府","prefecture_kana":"オオサカフ","city":"大東市","city_kana":"ダイトウシ","town":"緑が丘","town_kana":"ミドリガオカ","prefecture_code":27},"0004":{"zip_code":"5740004","prefecture":"大阪府","prefecture_kana":"オオサカフ","city":"大東市","city_kana":"ダイトウシ","town":"南楠の里町","town_kana":"ミナミクスノサトチョウ","prefecture_code":27},"0023":{"zip_code":"5740023","prefecture":"大阪府","prefecture_kana":"オオサカフ","city":"大東市","city_kana":"ダイトウシ","town":"南新田","town_kana":"ミナミシンデン","prefecture_code":27},"0016":{"zip_code":"5740016","prefecture":"大阪府","prefecture_kana":"オオサカフ","city":"大東市","city_kana":"ダイトウシ","town":"南津の辺町","town_kana":"ミナミツノベチョウ","prefecture_code":27},"0044":{"zip_code":"5740044","prefecture":"大阪府","prefecture_kana":"オオサカフ","city":"大東市","city_kana":"ダイトウシ","town":"諸福","town_kana":"モロフク","prefecture_code":27}}