{"0000":{"zip_code":"5750000","prefecture":"大阪府","prefecture_kana":"オオサカフ","city":"四條畷市","city_kana":"シジョウナワテシ","town":"","town_kana":"","prefecture_code":27},"0034":{"zip_code":"5750034","prefecture":"大阪府","prefecture_kana":"オオサカフ","city":"四條畷市","city_kana":"シジョウナワテシ","town":"江瀬美町","town_kana":"エセビチョウ","prefecture_code":27},"0011":{"zip_code":"5750011","prefecture":"大阪府","prefecture_kana":"オオサカフ","city":"四條畷市","city_kana":"シジョウナワテシ","town":"逢阪","town_kana":"オウサカ","prefecture_code":27},"0004":{"zip_code":"5750004","prefecture":"大阪府","prefecture_kana":"オオサカフ","city":"四條畷市","city_kana":"シジョウナワテシ","town":"岡山","town_kana":"オカヤマ","prefecture_code":27},"0002":{"zip_code":"5750002","prefecture":"大阪府","prefecture_kana":"オオサカフ","city":"四條畷市","city_kana":"シジョウナワテシ","town":"岡山","town_kana":"オカヤマ","prefecture_code":27},"0003":{"zip_code":"5750003","prefecture":"大阪府","prefecture_kana":"オオサカフ","city":"四條畷市","city_kana":"シジョウナワテシ","town":"岡山東","town_kana":"オカヤマヒガシ","prefecture_code":27},"0014":{"zip_code":"5750014","prefecture":"大阪府","prefecture_kana":"オオサカフ","city":"四條畷市","city_kana":"シジョウナワテシ","town":"上田原","town_kana":"カミタワラ","prefecture_code":27},"0045":{"zip_code":"5750045","prefecture":"大阪府","prefecture_kana":"オオサカフ","city":"四條畷市","city_kana":"シジョウナワテシ","town":"雁屋西町","town_kana":"カリヤニシマチ","prefecture_code":27},"0036":{"zip_code":"5750036","prefecture":"大阪府","prefecture_kana":"オオサカフ","city":"四條畷市","city_kana":"シジョウナワテシ","town":"雁屋南町","town_kana":"カリヤミナミマチ","prefecture_code":27},"0035":{"zip_code":"5750035","prefecture":"大阪府","prefecture_kana":"オオサカフ","city":"四條畷市","city_kana":"シジョウナワテシ","town":"雁屋北町","town_kana":"カリヤキタマチ","prefecture_code":27},"0043":{"zip_code":"5750043","prefecture":"大阪府","prefecture_kana":"オオサカフ","city":"四條畷市","city_kana":"シジョウナワテシ","town":"北出町","town_kana":"キタデチョウ","prefecture_code":27},"0063":{"zip_code":"5750063","prefecture":"大阪府","prefecture_kana":"オオサカフ","city":"四條畷市","city_kana":"シジョウナワテシ","town":"清瀧","town_kana":"キヨタキ","prefecture_code":27},"0062":{"zip_code":"5750062","prefecture":"大阪府","prefecture_kana":"オオサカフ","city":"四條畷市","city_kana":"シジョウナワテシ","town":"清滝新町","town_kana":"キヨタキシンマチ","prefecture_code":27},"0061":{"zip_code":"5750061","prefecture":"大阪府","prefecture_kana":"オオサカフ","city":"四條畷市","city_kana":"シジョウナワテシ","town":"清滝中町","town_kana":"キヨタキナカマチ","prefecture_code":27},"0032":{"zip_code":"5750032","prefecture":"大阪府","prefecture_kana":"オオサカフ","city":"四條畷市","city_kana":"シジョウナワテシ","town":"米崎町","town_kana":"コメザキチョウ","prefecture_code":27},"0015":{"zip_code":"5750015","prefecture":"大阪府","prefecture_kana":"オオサカフ","city":"四條畷市","city_kana":"シジョウナワテシ","town":"さつきケ丘","town_kana":"サツキガオカ","prefecture_code":27},"0031":{"zip_code":"5750031","prefecture":"大阪府","prefecture_kana":"オオサカフ","city":"四條畷市","city_kana":"シジョウナワテシ","town":"蔀屋","town_kana":"シトミヤ","prefecture_code":27},"0041":{"zip_code":"5750041","prefecture":"大阪府","prefecture_kana":"オオサカフ","city":"四條畷市","city_kana":"シジョウナワテシ","town":"蔀屋新町","town_kana":"シトミヤシンマチ","prefecture_code":27},"0042":{"zip_code":"5750042","prefecture":"大阪府","prefecture_kana":"オオサカフ","city":"四條畷市","city_kana":"シジョウナワテシ","town":"蔀屋本町","town_kana":"シトミヤホンマチ","prefecture_code":27},"0012":{"zip_code":"5750012","prefecture":"大阪府","prefecture_kana":"オオサカフ","city":"四條畷市","city_kana":"シジョウナワテシ","town":"下田原","town_kana":"シモタワラ","prefecture_code":27},"0001":{"zip_code":"5750001","prefecture":"大阪府","prefecture_kana":"オオサカフ","city":"四條畷市","city_kana":"シジョウナワテシ","town":"砂","town_kana":"スナ","prefecture_code":27},"0013":{"zip_code":"5750013","prefecture":"大阪府","prefecture_kana":"オオサカフ","city":"四條畷市","city_kana":"シジョウナワテシ","town":"田原台","town_kana":"タワラダイ","prefecture_code":27},"0024":{"zip_code":"5750024","prefecture":"大阪府","prefecture_kana":"オオサカフ","city":"四條畷市","city_kana":"シジョウナワテシ","town":"塚脇町","town_kana":"ツカワキチョウ","prefecture_code":27},"0053":{"zip_code":"5750053","prefecture":"大阪府","prefecture_kana":"オオサカフ","city":"四條畷市","city_kana":"シジョウナワテシ","town":"中野","town_kana":"ナカノ","prefecture_code":27},"0052":{"zip_code":"5750052","prefecture":"大阪府","prefecture_kana":"オオサカフ","city":"四條畷市","city_kana":"シジョウナワテシ","town":"中野","town_kana":"ナカノ","prefecture_code":27},"0054":{"zip_code":"5750054","prefecture":"大阪府","prefecture_kana":"オオサカフ","city":"四條畷市","city_kana":"シジョウナワテシ","town":"中野新町","town_kana":"ナカノシンマチ","prefecture_code":27},"0051":{"zip_code":"5750051","prefecture":"大阪府","prefecture_kana":"オオサカフ","city":"四條畷市","city_kana":"シジョウナワテシ","town":"中野本町","town_kana":"ナカノホンマチ","prefecture_code":27},"0023":{"zip_code":"5750023","prefecture":"大阪府","prefecture_kana":"オオサカフ","city":"四條畷市","city_kana":"シジョウナワテシ","town":"楠公","town_kana":"ナンコウ","prefecture_code":27},"0044":{"zip_code":"5750044","prefecture":"大阪府","prefecture_kana":"オオサカフ","city":"四條畷市","city_kana":"シジョウナワテシ","town":"二丁通町","town_kana":"ニチョウドオリチョウ","prefecture_code":27},"0033":{"zip_code":"5750033","prefecture":"大阪府","prefecture_kana":"オオサカフ","city":"四條畷市","city_kana":"シジョウナワテシ","town":"美田町","town_kana":"ミタチョウ","prefecture_code":27},"0022":{"zip_code":"5750022","prefecture":"大阪府","prefecture_kana":"オオサカフ","city":"四條畷市","city_kana":"シジョウナワテシ","town":"南野","town_kana":"ミナミノ","prefecture_code":27},"0021":{"zip_code":"5750021","prefecture":"大阪府","prefecture_kana":"オオサカフ","city":"四條畷市","city_kana":"シジョウナワテシ","town":"南野","town_kana":"ミナミノ","prefecture_code":27},"0016":{"zip_code":"5750016","prefecture":"大阪府","prefecture_kana":"オオサカフ","city":"四條畷市","city_kana":"シジョウナワテシ","town":"緑風台","town_kana":"リョクフウダイ","prefecture_code":27}}