{"0000":{"zip_code":"5760000","prefecture":"大阪府","prefecture_kana":"オオサカフ","city":"交野市","city_kana":"カタノシ","town":"以下に掲載がない場合","town_kana":"イカニケイサイガナイバアイ","prefecture_code":27},"0066":{"zip_code":"5760066","prefecture":"大阪府","prefecture_kana":"オオサカフ","city":"交野市","city_kana":"カタノシ","town":"青山","town_kana":"アオヤマ","prefecture_code":27},"0034":{"zip_code":"5760034","prefecture":"大阪府","prefecture_kana":"オオサカフ","city":"交野市","city_kana":"カタノシ","town":"天野が原町","town_kana":"アマノガハラチョウ","prefecture_code":27},"0054":{"zip_code":"5760054","prefecture":"大阪府","prefecture_kana":"オオサカフ","city":"交野市","city_kana":"カタノシ","town":"幾野","town_kana":"イクノ","prefecture_code":27},"0042":{"zip_code":"5760042","prefecture":"大阪府","prefecture_kana":"オオサカフ","city":"交野市","city_kana":"カタノシ","town":"梅が枝","town_kana":"ウメガエ","prefecture_code":27},"0033":{"zip_code":"5760033","prefecture":"大阪府","prefecture_kana":"オオサカフ","city":"交野市","city_kana":"カタノシ","town":"私市（丁目）","town_kana":"キサイチ(チョウメ)","prefecture_code":27},"0004":{"zip_code":"5760004","prefecture":"大阪府","prefecture_kana":"オオサカフ","city":"交野市","city_kana":"カタノシ","town":"私市（番地）","town_kana":"キサイチ(バンチ)","prefecture_code":27},"0032":{"zip_code":"5760032","prefecture":"大阪府","prefecture_kana":"オオサカフ","city":"交野市","city_kana":"カタノシ","town":"私市山手","town_kana":"キサイチヤマテ","prefecture_code":27},"0052":{"zip_code":"5760052","prefecture":"大阪府","prefecture_kana":"オオサカフ","city":"交野市","city_kana":"カタノシ","town":"私部（丁目）","town_kana":"キサベ(チョウメ)","prefecture_code":27},"0002":{"zip_code":"5760002","prefecture":"大阪府","prefecture_kana":"オオサカフ","city":"交野市","city_kana":"カタノシ","town":"私部（番地）","town_kana":"キサベ(バンチ)","prefecture_code":27},"0041":{"zip_code":"5760041","prefecture":"大阪府","prefecture_kana":"オオサカフ","city":"交野市","city_kana":"カタノシ","town":"私部西","town_kana":"キサベニシ","prefecture_code":27},"0035":{"zip_code":"5760035","prefecture":"大阪府","prefecture_kana":"オオサカフ","city":"交野市","city_kana":"カタノシ","town":"私部南","town_kana":"キサベミナミ","prefecture_code":27},"0051":{"zip_code":"5760051","prefecture":"大阪府","prefecture_kana":"オオサカフ","city":"交野市","city_kana":"カタノシ","town":"倉治（丁目）","town_kana":"クラジ(チョウメ)","prefecture_code":27},"0001":{"zip_code":"5760001","prefecture":"大阪府","prefecture_kana":"オオサカフ","city":"交野市","city_kana":"カタノシ","town":"倉治（番地）","town_kana":"クラジ(バンチ)","prefecture_code":27},"0053":{"zip_code":"5760053","prefecture":"大阪府","prefecture_kana":"オオサカフ","city":"交野市","city_kana":"カタノシ","town":"郡津","town_kana":"コウヅ","prefecture_code":27},"0062":{"zip_code":"5760062","prefecture":"大阪府","prefecture_kana":"オオサカフ","city":"交野市","city_kana":"カタノシ","town":"神宮寺","town_kana":"ジングウジ","prefecture_code":27},"0063":{"zip_code":"5760063","prefecture":"大阪府","prefecture_kana":"オオサカフ","city":"交野市","city_kana":"カタノシ","town":"寺（丁目）","town_kana":"テラ(チョウメ)","prefecture_code":27},"0006":{"zip_code":"5760006","prefecture":"大阪府","prefecture_kana":"オオサカフ","city":"交野市","city_kana":"カタノシ","town":"寺（番地）","town_kana":"テラ(バンチ)","prefecture_code":27},"0064":{"zip_code":"5760064","prefecture":"大阪府","prefecture_kana":"オオサカフ","city":"交野市","city_kana":"カタノシ","town":"寺南野","town_kana":"テラミナミノ","prefecture_code":27},"0013":{"zip_code":"5760013","prefecture":"大阪府","prefecture_kana":"オオサカフ","city":"交野市","city_kana":"カタノシ","town":"南星台","town_kana":"ナンセイダイ","prefecture_code":27},"0061":{"zip_code":"5760061","prefecture":"大阪府","prefecture_kana":"オオサカフ","city":"交野市","city_kana":"カタノシ","town":"東倉治","town_kana":"ヒガシクラジ","prefecture_code":27},"0022":{"zip_code":"5760022","prefecture":"大阪府","prefecture_kana":"オオサカフ","city":"交野市","city_kana":"カタノシ","town":"藤が尾","town_kana":"フジガオ","prefecture_code":27},"0003":{"zip_code":"5760003","prefecture":"大阪府","prefecture_kana":"オオサカフ","city":"交野市","city_kana":"カタノシ","town":"傍示","town_kana":"ホウジ","prefecture_code":27},"0016":{"zip_code":"5760016","prefecture":"大阪府","prefecture_kana":"オオサカフ","city":"交野市","city_kana":"カタノシ","town":"星田（丁目）","town_kana":"ホシダ(チョウメ)","prefecture_code":27},"0011":{"zip_code":"5760011","prefecture":"大阪府","prefecture_kana":"オオサカフ","city":"交野市","city_kana":"カタノシ","town":"星田（番地）","town_kana":"ホシダ(バンチ)","prefecture_code":27},"0014":{"zip_code":"5760014","prefecture":"大阪府","prefecture_kana":"オオサカフ","city":"交野市","city_kana":"カタノシ","town":"星田山手","town_kana":"ホシダヤマテ","prefecture_code":27},"0015":{"zip_code":"5760015","prefecture":"大阪府","prefecture_kana":"オオサカフ","city":"交野市","city_kana":"カタノシ","town":"星田西","town_kana":"ホシダニシ","prefecture_code":27},"0017":{"zip_code":"5760017","prefecture":"大阪府","prefecture_kana":"オオサカフ","city":"交野市","city_kana":"カタノシ","town":"星田北","town_kana":"ホシダキタ","prefecture_code":27},"0043":{"zip_code":"5760043","prefecture":"大阪府","prefecture_kana":"オオサカフ","city":"交野市","city_kana":"カタノシ","town":"松塚","town_kana":"マツヅカ","prefecture_code":27},"0021":{"zip_code":"5760021","prefecture":"大阪府","prefecture_kana":"オオサカフ","city":"交野市","city_kana":"カタノシ","town":"妙見坂","town_kana":"ミョウケンザカ","prefecture_code":27},"0012":{"zip_code":"5760012","prefecture":"大阪府","prefecture_kana":"オオサカフ","city":"交野市","city_kana":"カタノシ","town":"妙見東","town_kana":"ミョウケンヒガシ","prefecture_code":27},"0065":{"zip_code":"5760065","prefecture":"大阪府","prefecture_kana":"オオサカフ","city":"交野市","city_kana":"カタノシ","town":"向井田","town_kana":"ムカイダ","prefecture_code":27},"0005":{"zip_code":"5760005","prefecture":"大阪府","prefecture_kana":"オオサカフ","city":"交野市","city_kana":"カタノシ","town":"森","town_kana":"モリ","prefecture_code":27},"0031":{"zip_code":"5760031","prefecture":"大阪府","prefecture_kana":"オオサカフ","city":"交野市","city_kana":"カタノシ","town":"森南","town_kana":"モリミナミ","prefecture_code":27},"0036":{"zip_code":"5760036","prefecture":"大阪府","prefecture_kana":"オオサカフ","city":"交野市","city_kana":"カタノシ","town":"森北","town_kana":"モリキタ","prefecture_code":27}}