{"0000":{"zip_code":"5800000","prefecture":"大阪府","prefecture_kana":"オオサカフ","city":"松原市","city_kana":"マツバラシ","town":"以下に掲載がない場合","town_kana":"イカニケイサイガナイバアイ","prefecture_code":27},"0043":{"zip_code":"5800043","prefecture":"大阪府","prefecture_kana":"オオサカフ","city":"松原市","city_kana":"マツバラシ","town":"阿保","town_kana":"アオ","prefecture_code":27},"0032":{"zip_code":"5800032","prefecture":"大阪府","prefecture_kana":"オオサカフ","city":"松原市","city_kana":"マツバラシ","town":"天美東","town_kana":"アマミヒガシ","prefecture_code":27},"0034":{"zip_code":"5800034","prefecture":"大阪府","prefecture_kana":"オオサカフ","city":"松原市","city_kana":"マツバラシ","town":"天美西","town_kana":"アマミニシ","prefecture_code":27},"0033":{"zip_code":"5800033","prefecture":"大阪府","prefecture_kana":"オオサカフ","city":"松原市","city_kana":"マツバラシ","town":"天美南","town_kana":"アマミミナミ","prefecture_code":27},"0031":{"zip_code":"5800031","prefecture":"大阪府","prefecture_kana":"オオサカフ","city":"松原市","city_kana":"マツバラシ","town":"天美北","town_kana":"アマミキタ","prefecture_code":27},"0026":{"zip_code":"5800026","prefecture":"大阪府","prefecture_kana":"オオサカフ","city":"松原市","city_kana":"マツバラシ","town":"天美我堂","town_kana":"アマミガドウ","prefecture_code":27},"0016":{"zip_code":"5800016","prefecture":"大阪府","prefecture_kana":"オオサカフ","city":"松原市","city_kana":"マツバラシ","town":"上田","town_kana":"ウエダ","prefecture_code":27},"0006":{"zip_code":"5800006","prefecture":"大阪府","prefecture_kana":"オオサカフ","city":"松原市","city_kana":"マツバラシ","town":"大堀","town_kana":"オオボリ","prefecture_code":27},"0014":{"zip_code":"5800014","prefecture":"大阪府","prefecture_kana":"オオサカフ","city":"松原市","city_kana":"マツバラシ","town":"岡","town_kana":"オカ","prefecture_code":27},"0002":{"zip_code":"5800002","prefecture":"大阪府","prefecture_kana":"オオサカフ","city":"松原市","city_kana":"マツバラシ","town":"小川","town_kana":"オガワ","prefecture_code":27},"0022":{"zip_code":"5800022","prefecture":"大阪府","prefecture_kana":"オオサカフ","city":"松原市","city_kana":"マツバラシ","town":"河合","town_kana":"カワイ","prefecture_code":27},"0025":{"zip_code":"5800025","prefecture":"大阪府","prefecture_kana":"オオサカフ","city":"松原市","city_kana":"マツバラシ","town":"北新町","town_kana":"キタシンマチ","prefecture_code":27},"0017":{"zip_code":"5800017","prefecture":"大阪府","prefecture_kana":"オオサカフ","city":"松原市","city_kana":"マツバラシ","town":"柴垣","town_kana":"シバガキ","prefecture_code":27},"0015":{"zip_code":"5800015","prefecture":"大阪府","prefecture_kana":"オオサカフ","city":"松原市","city_kana":"マツバラシ","town":"新堂","town_kana":"シンドウ","prefecture_code":27},"0044":{"zip_code":"5800044","prefecture":"大阪府","prefecture_kana":"オオサカフ","city":"松原市","city_kana":"マツバラシ","town":"田井城","town_kana":"タイジョウ","prefecture_code":27},"0021":{"zip_code":"5800021","prefecture":"大阪府","prefecture_kana":"オオサカフ","city":"松原市","city_kana":"マツバラシ","town":"高見の里","town_kana":"タカミノサト","prefecture_code":27},"0012":{"zip_code":"5800012","prefecture":"大阪府","prefecture_kana":"オオサカフ","city":"松原市","city_kana":"マツバラシ","town":"立部","town_kana":"タツベ","prefecture_code":27},"0013":{"zip_code":"5800013","prefecture":"大阪府","prefecture_kana":"オオサカフ","city":"松原市","city_kana":"マツバラシ","town":"丹南","town_kana":"タンナン","prefecture_code":27},"0011":{"zip_code":"5800011","prefecture":"大阪府","prefecture_kana":"オオサカフ","city":"松原市","city_kana":"マツバラシ","town":"西大塚","town_kana":"ニシオオツカ","prefecture_code":27},"0004":{"zip_code":"5800004","prefecture":"大阪府","prefecture_kana":"オオサカフ","city":"松原市","city_kana":"マツバラシ","town":"西野々","town_kana":"ニシノノ","prefecture_code":27},"0024":{"zip_code":"5800024","prefecture":"大阪府","prefecture_kana":"オオサカフ","city":"松原市","city_kana":"マツバラシ","town":"東新町","town_kana":"ヒガシシンマチ","prefecture_code":27},"0003":{"zip_code":"5800003","prefecture":"大阪府","prefecture_kana":"オオサカフ","city":"松原市","city_kana":"マツバラシ","town":"一津屋","town_kana":"ヒトツヤ","prefecture_code":27},"0005":{"zip_code":"5800005","prefecture":"大阪府","prefecture_kana":"オオサカフ","city":"松原市","city_kana":"マツバラシ","town":"別所","town_kana":"ベッショ","prefecture_code":27},"0042":{"zip_code":"5800042","prefecture":"大阪府","prefecture_kana":"オオサカフ","city":"松原市","city_kana":"マツバラシ","town":"松ケ丘","town_kana":"マツガオカ","prefecture_code":27},"0023":{"zip_code":"5800023","prefecture":"大阪府","prefecture_kana":"オオサカフ","city":"松原市","city_kana":"マツバラシ","town":"南新町","town_kana":"ミナミシンマチ","prefecture_code":27},"0046":{"zip_code":"5800046","prefecture":"大阪府","prefecture_kana":"オオサカフ","city":"松原市","city_kana":"マツバラシ","town":"三宅中","town_kana":"ミヤケナカ","prefecture_code":27},"0041":{"zip_code":"5800041","prefecture":"大阪府","prefecture_kana":"オオサカフ","city":"松原市","city_kana":"マツバラシ","town":"三宅東","town_kana":"ミヤケヒガシ","prefecture_code":27},"0045":{"zip_code":"5800045","prefecture":"大阪府","prefecture_kana":"オオサカフ","city":"松原市","city_kana":"マツバラシ","town":"三宅西","town_kana":"ミヤケニシ","prefecture_code":27},"0001":{"zip_code":"5800001","prefecture":"大阪府","prefecture_kana":"オオサカフ","city":"松原市","city_kana":"マツバラシ","town":"若林","town_kana":"ワカバヤシ","prefecture_code":27}}