{"0000":{"zip_code":"5810000","prefecture":"大阪府","prefecture_kana":"オオサカフ","city":"八尾市","city_kana":"ヤオシ","town":"","town_kana":"","prefecture_code":27},"0082":{"zip_code":"5810082","prefecture":"大阪府","prefecture_kana":"オオサカフ","city":"八尾市","city_kana":"ヤオシ","town":"相生町","town_kana":"アイオイチョウ","prefecture_code":27},"0018":{"zip_code":"5810018","prefecture":"大阪府","prefecture_kana":"オオサカフ","city":"八尾市","city_kana":"ヤオシ","town":"青山町","town_kana":"アオヤマチョウ","prefecture_code":27},"0020":{"zip_code":"5810020","prefecture":"大阪府","prefecture_kana":"オオサカフ","city":"八尾市","city_kana":"ヤオシ","town":"曙川東","town_kana":"アケガワヒガシ","prefecture_code":27},"0026":{"zip_code":"5810026","prefecture":"大阪府","prefecture_kana":"オオサカフ","city":"八尾市","city_kana":"ヤオシ","town":"曙町","town_kana":"アケボノチョウ","prefecture_code":27},"0087":{"zip_code":"5810087","prefecture":"大阪府","prefecture_kana":"オオサカフ","city":"八尾市","city_kana":"ヤオシ","town":"明美町","town_kana":"アケミチョウ","prefecture_code":27},"0833":{"zip_code":"5810833","prefecture":"大阪府","prefecture_kana":"オオサカフ","city":"八尾市","city_kana":"ヤオシ","town":"旭ケ丘","town_kana":"アサヒガオカ","prefecture_code":27},"0064":{"zip_code":"5810064","prefecture":"大阪府","prefecture_kana":"オオサカフ","city":"八尾市","city_kana":"ヤオシ","town":"跡部本町","town_kana":"アトベホンマチ","prefecture_code":27},"0055":{"zip_code":"5810055","prefecture":"大阪府","prefecture_kana":"オオサカフ","city":"八尾市","city_kana":"ヤオシ","town":"跡部南の町","town_kana":"アトベミナミノチョウ","prefecture_code":27},"0068":{"zip_code":"5810068","prefecture":"大阪府","prefecture_kana":"オオサカフ","city":"八尾市","city_kana":"ヤオシ","town":"跡部北の町","town_kana":"アトベキタノチョウ","prefecture_code":27},"0813":{"zip_code":"5810813","prefecture":"大阪府","prefecture_kana":"オオサカフ","city":"八尾市","city_kana":"ヤオシ","town":"泉町","town_kana":"イズミチョウ","prefecture_code":27},"0084":{"zip_code":"5810084","prefecture":"大阪府","prefecture_kana":"オオサカフ","city":"八尾市","city_kana":"ヤオシ","town":"植松町","town_kana":"ウエマツチョウ","prefecture_code":27},"0092":{"zip_code":"5810092","prefecture":"大阪府","prefecture_kana":"オオサカフ","city":"八尾市","city_kana":"ヤオシ","town":"老原","town_kana":"オイハラ","prefecture_code":27},"0863":{"zip_code":"5810863","prefecture":"大阪府","prefecture_kana":"オオサカフ","city":"八尾市","city_kana":"ヤオシ","town":"大窪","town_kana":"オオクボ","prefecture_code":27},"0037":{"zip_code":"5810037","prefecture":"大阪府","prefecture_kana":"オオサカフ","city":"八尾市","city_kana":"ヤオシ","town":"太田","town_kana":"オオタ","prefecture_code":27},"0854":{"zip_code":"5810854","prefecture":"大阪府","prefecture_kana":"オオサカフ","city":"八尾市","city_kana":"ヤオシ","town":"大竹","town_kana":"オオタケ","prefecture_code":27},"0039":{"zip_code":"5810039","prefecture":"大阪府","prefecture_kana":"オオサカフ","city":"八尾市","city_kana":"ヤオシ","town":"太田新町","town_kana":"オオタシンマチ","prefecture_code":27},"0015":{"zip_code":"5810015","prefecture":"大阪府","prefecture_kana":"オオサカフ","city":"八尾市","city_kana":"ヤオシ","town":"刑部","town_kana":"オサカベ","prefecture_code":27},"0883":{"zip_code":"5810883","prefecture":"大阪府","prefecture_kana":"オオサカフ","city":"八尾市","city_kana":"ヤオシ","town":"恩智中町","town_kana":"オンヂナカマチ","prefecture_code":27},"0884":{"zip_code":"5810884","prefecture":"大阪府","prefecture_kana":"オオサカフ","city":"八尾市","city_kana":"ヤオシ","town":"恩智南町","town_kana":"オンヂミナミマチ","prefecture_code":27},"0882":{"zip_code":"5810882","prefecture":"大阪府","prefecture_kana":"オオサカフ","city":"八尾市","city_kana":"ヤオシ","town":"恩智北町","town_kana":"オンヂキタマチ","prefecture_code":27},"0881":{"zip_code":"5810881","prefecture":"大阪府","prefecture_kana":"オオサカフ","city":"八尾市","city_kana":"ヤオシ","town":"垣内","town_kana":"カイチ","prefecture_code":27},"0853":{"zip_code":"5810853","prefecture":"大阪府","prefecture_kana":"オオサカフ","city":"八尾市","city_kana":"ヤオシ","town":"楽音寺","town_kana":"ガクオンジ","prefecture_code":27},"0022":{"zip_code":"5810022","prefecture":"大阪府","prefecture_kana":"オオサカフ","city":"八尾市","city_kana":"ヤオシ","town":"柏村町","town_kana":"カシムラチョウ","prefecture_code":27},"0061":{"zip_code":"5810061","prefecture":"大阪府","prefecture_kana":"オオサカフ","city":"八尾市","city_kana":"ヤオシ","town":"春日町","town_kana":"カスガチョウ","prefecture_code":27},"0823":{"zip_code":"5810823","prefecture":"大阪府","prefecture_kana":"オオサカフ","city":"八尾市","city_kana":"ヤオシ","town":"桂町","town_kana":"カツラチョウ","prefecture_code":27},"0851":{"zip_code":"5810851","prefecture":"大阪府","prefecture_kana":"オオサカフ","city":"八尾市","city_kana":"ヤオシ","town":"上尾町","town_kana":"カミオチョウ","prefecture_code":27},"0846":{"zip_code":"5810846","prefecture":"大阪府","prefecture_kana":"オオサカフ","city":"八尾市","city_kana":"ヤオシ","town":"上之島町南","town_kana":"カミノシマチョウミナミ","prefecture_code":27},"0845":{"zip_code":"5810845","prefecture":"大阪府","prefecture_kana":"オオサカフ","city":"八尾市","city_kana":"ヤオシ","town":"上之島町北","town_kana":"カミノシマチョウキタ","prefecture_code":27},"0065":{"zip_code":"5810065","prefecture":"大阪府","prefecture_kana":"オオサカフ","city":"八尾市","city_kana":"ヤオシ","town":"亀井町","town_kana":"カメイチョウ","prefecture_code":27},"0834":{"zip_code":"5810834","prefecture":"大阪府","prefecture_kana":"オオサカフ","city":"八尾市","city_kana":"ヤオシ","town":"萱振町","town_kana":"カヤフリチョウ","prefecture_code":27},"0066":{"zip_code":"5810066","prefecture":"大阪府","prefecture_kana":"オオサカフ","city":"八尾市","city_kana":"ヤオシ","town":"北亀井町","town_kana":"キタカメイチョウ","prefecture_code":27},"0041":{"zip_code":"5810041","prefecture":"大阪府","prefecture_kana":"オオサカフ","city":"八尾市","city_kana":"ヤオシ","town":"北木の本","town_kana":"キタキノモト","prefecture_code":27},"0071":{"zip_code":"5810071","prefecture":"大阪府","prefecture_kana":"オオサカフ","city":"八尾市","city_kana":"ヤオシ","town":"北久宝寺","town_kana":"キタキュウホウジ","prefecture_code":27},"0802":{"zip_code":"5810802","prefecture":"大阪府","prefecture_kana":"オオサカフ","city":"八尾市","city_kana":"ヤオシ","town":"北本町","town_kana":"キタホンマチ","prefecture_code":27},"0044":{"zip_code":"5810044","prefecture":"大阪府","prefecture_kana":"オオサカフ","city":"八尾市","city_kana":"ヤオシ","town":"木の本","town_kana":"キノモト","prefecture_code":27},"0817":{"zip_code":"5810817","prefecture":"大阪府","prefecture_kana":"オオサカフ","city":"八尾市","city_kana":"ヤオシ","town":"久宝園","town_kana":"キュウホウエン","prefecture_code":27},"0072":{"zip_code":"5810072","prefecture":"大阪府","prefecture_kana":"オオサカフ","city":"八尾市","city_kana":"ヤオシ","town":"久宝寺","town_kana":"キュウホウジ","prefecture_code":27},"0874":{"zip_code":"5810874","prefecture":"大阪府","prefecture_kana":"オオサカフ","city":"八尾市","city_kana":"ヤオシ","town":"教興寺","town_kana":"キョウコウジ","prefecture_code":27},"0043":{"zip_code":"5810043","prefecture":"大阪府","prefecture_kana":"オオサカフ","city":"八尾市","city_kana":"ヤオシ","town":"空港","town_kana":"クウコウ","prefecture_code":27},"0814":{"zip_code":"5810814","prefecture":"大阪府","prefecture_kana":"オオサカフ","city":"八尾市","city_kana":"ヤオシ","town":"楠根町","town_kana":"クスネチョウ","prefecture_code":27},"0873":{"zip_code":"5810873","prefecture":"大阪府","prefecture_kana":"オオサカフ","city":"八尾市","city_kana":"ヤオシ","town":"黒谷","town_kana":"クロダニ","prefecture_code":27},"0855":{"zip_code":"5810855","prefecture":"大阪府","prefecture_kana":"オオサカフ","city":"八尾市","city_kana":"ヤオシ","town":"神立","town_kana":"コウダチ","prefecture_code":27},"0007":{"zip_code":"5810007","prefecture":"大阪府","prefecture_kana":"オオサカフ","city":"八尾市","city_kana":"ヤオシ","town":"光南町","town_kana":"コウナンチョウ","prefecture_code":27},"0872":{"zip_code":"5810872","prefecture":"大阪府","prefecture_kana":"オオサカフ","city":"八尾市","city_kana":"ヤオシ","town":"郡川","town_kana":"コオリガワ","prefecture_code":27},"0012":{"zip_code":"5810012","prefecture":"大阪府","prefecture_kana":"オオサカフ","city":"八尾市","city_kana":"ヤオシ","town":"小阪合町","town_kana":"コザカアイチョウ","prefecture_code":27},"0835":{"zip_code":"5810835","prefecture":"大阪府","prefecture_kana":"オオサカフ","city":"八尾市","city_kana":"ヤオシ","town":"小畑町","town_kana":"コハタチョウ","prefecture_code":27},"0821":{"zip_code":"5810821","prefecture":"大阪府","prefecture_kana":"オオサカフ","city":"八尾市","city_kana":"ヤオシ","town":"幸町","town_kana":"サイワイチョウ","prefecture_code":27},"0074":{"zip_code":"5810074","prefecture":"大阪府","prefecture_kana":"オオサカフ","city":"八尾市","city_kana":"ヤオシ","town":"栄町","town_kana":"サカエマチ","prefecture_code":27},"0869":{"zip_code":"5810869","prefecture":"大阪府","prefecture_kana":"オオサカフ","city":"八尾市","city_kana":"ヤオシ","town":"桜ケ丘","town_kana":"サクラガオカ","prefecture_code":27},"0816":{"zip_code":"5810816","prefecture":"大阪府","prefecture_kana":"オオサカフ","city":"八尾市","city_kana":"ヤオシ","town":"佐堂町","town_kana":"サドウチョウ","prefecture_code":27},"0031":{"zip_code":"5810031","prefecture":"大阪府","prefecture_kana":"オオサカフ","city":"八尾市","city_kana":"ヤオシ","town":"志紀町","town_kana":"シキチョウ","prefecture_code":27},"0094":{"zip_code":"5810094","prefecture":"大阪府","prefecture_kana":"オオサカフ","city":"八尾市","city_kana":"ヤオシ","town":"志紀町西","town_kana":"シキチョウニシ","prefecture_code":27},"0033":{"zip_code":"5810033","prefecture":"大阪府","prefecture_kana":"オオサカフ","city":"八尾市","city_kana":"ヤオシ","town":"志紀町南","town_kana":"シキチョウミナミ","prefecture_code":27},"0075":{"zip_code":"5810075","prefecture":"大阪府","prefecture_kana":"オオサカフ","city":"八尾市","city_kana":"ヤオシ","town":"渋川町","town_kana":"シブカワチョウ","prefecture_code":27},"0006":{"zip_code":"5810006","prefecture":"大阪府","prefecture_kana":"オオサカフ","city":"八尾市","city_kana":"ヤオシ","town":"清水町","town_kana":"シミズチョウ","prefecture_code":27},"0811":{"zip_code":"5810811","prefecture":"大阪府","prefecture_kana":"オオサカフ","city":"八尾市","city_kana":"ヤオシ","town":"新家町","town_kana":"シンケチョウ","prefecture_code":27},"0885":{"zip_code":"5810885","prefecture":"大阪府","prefecture_kana":"オオサカフ","city":"八尾市","city_kana":"ヤオシ","town":"神宮寺","town_kana":"ジングウジ","prefecture_code":27},"0067":{"zip_code":"5810067","prefecture":"大阪府","prefecture_kana":"オオサカフ","city":"八尾市","city_kana":"ヤオシ","town":"神武町","town_kana":"ジンムチョウ","prefecture_code":27},"0001":{"zip_code":"5810001","prefecture":"大阪府","prefecture_kana":"オオサカフ","city":"八尾市","city_kana":"ヤオシ","town":"末広町","town_kana":"スエヒロチョウ","prefecture_code":27},"0005":{"zip_code":"5810005","prefecture":"大阪府","prefecture_kana":"オオサカフ","city":"八尾市","city_kana":"ヤオシ","town":"荘内町","town_kana":"ソウナイチョウ","prefecture_code":27},"0063":{"zip_code":"5810063","prefecture":"大阪府","prefecture_kana":"オオサカフ","city":"八尾市","city_kana":"ヤオシ","town":"太子堂","town_kana":"タイシドウ","prefecture_code":27},"0095":{"zip_code":"5810095","prefecture":"大阪府","prefecture_kana":"オオサカフ","city":"八尾市","city_kana":"ヤオシ","town":"田井中","town_kana":"タイナカ","prefecture_code":27},"0822":{"zip_code":"5810822","prefecture":"大阪府","prefecture_kana":"オオサカフ","city":"八尾市","city_kana":"ヤオシ","town":"高砂町","town_kana":"タカサゴチョウ","prefecture_code":27},"0073":{"zip_code":"5810073","prefecture":"大阪府","prefecture_kana":"オオサカフ","city":"八尾市","city_kana":"ヤオシ","town":"高町","town_kana":"タカマチ","prefecture_code":27},"0017":{"zip_code":"5810017","prefecture":"大阪府","prefecture_kana":"オオサカフ","city":"八尾市","city_kana":"ヤオシ","town":"高美町","town_kana":"タカミチョウ","prefecture_code":27},"0875":{"zip_code":"5810875","prefecture":"大阪府","prefecture_kana":"オオサカフ","city":"八尾市","city_kana":"ヤオシ","town":"高安町南","town_kana":"タカヤスチョウミナミ","prefecture_code":27},"0871":{"zip_code":"5810871","prefecture":"大阪府","prefecture_kana":"オオサカフ","city":"八尾市","city_kana":"ヤオシ","town":"高安町北","town_kana":"タカヤスチョウキタ","prefecture_code":27},"0052":{"zip_code":"5810052","prefecture":"大阪府","prefecture_kana":"オオサカフ","city":"八尾市","city_kana":"ヤオシ","town":"竹渕","town_kana":"タケフチ","prefecture_code":27},"0053":{"zip_code":"5810053","prefecture":"大阪府","prefecture_kana":"オオサカフ","city":"八尾市","city_kana":"ヤオシ","town":"竹渕東","town_kana":"タケフチヒガシ","prefecture_code":27},"0051":{"zip_code":"5810051","prefecture":"大阪府","prefecture_kana":"オオサカフ","city":"八尾市","city_kana":"ヤオシ","town":"竹渕西","town_kana":"タケフチニシ","prefecture_code":27},"0862":{"zip_code":"5810862","prefecture":"大阪府","prefecture_kana":"オオサカフ","city":"八尾市","city_kana":"ヤオシ","town":"千塚","town_kana":"チヅカ","prefecture_code":27},"0832":{"zip_code":"5810832","prefecture":"大阪府","prefecture_kana":"オオサカフ","city":"八尾市","city_kana":"ヤオシ","town":"堤町","town_kana":"ツツミチョウ","prefecture_code":27},"0025":{"zip_code":"5810025","prefecture":"大阪府","prefecture_kana":"オオサカフ","city":"八尾市","city_kana":"ヤオシ","town":"天王寺屋","town_kana":"テンノウジヤ","prefecture_code":27},"0014":{"zip_code":"5810014","prefecture":"大阪府","prefecture_kana":"オオサカフ","city":"八尾市","city_kana":"ヤオシ","town":"中田","town_kana":"ナカタ","prefecture_code":27},"0836":{"zip_code":"5810836","prefecture":"大阪府","prefecture_kana":"オオサカフ","city":"八尾市","city_kana":"ヤオシ","town":"長池町","town_kana":"ナガイケチョウ","prefecture_code":27},"0083":{"zip_code":"5810083","prefecture":"大阪府","prefecture_kana":"オオサカフ","city":"八尾市","city_kana":"ヤオシ","town":"永畑町","town_kana":"ナガハタチョウ","prefecture_code":27},"0045":{"zip_code":"5810045","prefecture":"大阪府","prefecture_kana":"オオサカフ","city":"八尾市","city_kana":"ヤオシ","town":"西木の本","town_kana":"ニシキノモト","prefecture_code":27},"0077":{"zip_code":"5810077","prefecture":"大阪府","prefecture_kana":"オオサカフ","city":"八尾市","city_kana":"ヤオシ","town":"西久宝寺","town_kana":"ニシキュウホウジ","prefecture_code":27},"0852":{"zip_code":"5810852","prefecture":"大阪府","prefecture_kana":"オオサカフ","city":"八尾市","city_kana":"ヤオシ","town":"西高安町","town_kana":"ニシタカヤスチョウ","prefecture_code":27},"0868":{"zip_code":"5810868","prefecture":"大阪府","prefecture_kana":"オオサカフ","city":"八尾市","city_kana":"ヤオシ","town":"西山本町","town_kana":"ニシヤマモトチョウ","prefecture_code":27},"0035":{"zip_code":"5810035","prefecture":"大阪府","prefecture_kana":"オオサカフ","city":"八尾市","city_kana":"ヤオシ","town":"西弓削","town_kana":"ニシユウゲ","prefecture_code":27},"0036":{"zip_code":"5810036","prefecture":"大阪府","prefecture_kana":"オオサカフ","city":"八尾市","city_kana":"ヤオシ","town":"沼","town_kana":"ヌマ","prefecture_code":27},"0865":{"zip_code":"5810865","prefecture":"大阪府","prefecture_kana":"オオサカフ","city":"八尾市","city_kana":"ヤオシ","town":"服部川","town_kana":"ハットリガワ","prefecture_code":27},"0803":{"zip_code":"5810803","prefecture":"大阪府","prefecture_kana":"オオサカフ","city":"八尾市","city_kana":"ヤオシ","town":"光町","town_kana":"ヒカリチョウ","prefecture_code":27},"0093":{"zip_code":"5810093","prefecture":"大阪府","prefecture_kana":"オオサカフ","city":"八尾市","city_kana":"ヤオシ","town":"東老原","town_kana":"ヒガシオイハラ","prefecture_code":27},"0002":{"zip_code":"5810002","prefecture":"大阪府","prefecture_kana":"オオサカフ","city":"八尾市","city_kana":"ヤオシ","town":"東久宝寺","town_kana":"ヒガシキュウホウジ","prefecture_code":27},"0062":{"zip_code":"5810062","prefecture":"大阪府","prefecture_kana":"オオサカフ","city":"八尾市","city_kana":"ヤオシ","town":"東太子","town_kana":"ヒガシタイシ","prefecture_code":27},"0004":{"zip_code":"5810004","prefecture":"大阪府","prefecture_kana":"オオサカフ","city":"八尾市","city_kana":"ヤオシ","town":"東本町","town_kana":"ヒガシホンマチ","prefecture_code":27},"0861":{"zip_code":"5810861","prefecture":"大阪府","prefecture_kana":"オオサカフ","city":"八尾市","city_kana":"ヤオシ","town":"東町","town_kana":"ヒガシマチ","prefecture_code":27},"0866":{"zip_code":"5810866","prefecture":"大阪府","prefecture_kana":"オオサカフ","city":"八尾市","city_kana":"ヤオシ","town":"東山本新町","town_kana":"ヒガシヤマモトシンマチ","prefecture_code":27},"0847":{"zip_code":"5810847","prefecture":"大阪府","prefecture_kana":"オオサカフ","city":"八尾市","city_kana":"ヤオシ","town":"東山本町","town_kana":"ヒガシヤマモトチョウ","prefecture_code":27},"0029":{"zip_code":"5810029","prefecture":"大阪府","prefecture_kana":"オオサカフ","city":"八尾市","city_kana":"ヤオシ","town":"東弓削","town_kana":"ヒガシユゲ","prefecture_code":27},"0844":{"zip_code":"5810844","prefecture":"大阪府","prefecture_kana":"オオサカフ","city":"八尾市","city_kana":"ヤオシ","town":"福栄町","town_kana":"フクエイチョウ","prefecture_code":27},"0842":{"zip_code":"5810842","prefecture":"大阪府","prefecture_kana":"オオサカフ","city":"八尾市","city_kana":"ヤオシ","town":"福万寺町","town_kana":"フクマンジチョウ","prefecture_code":27},"0843":{"zip_code":"5810843","prefecture":"大阪府","prefecture_kana":"オオサカフ","city":"八尾市","city_kana":"ヤオシ","town":"福万寺町南","town_kana":"フクマンジチョウミナミ","prefecture_code":27},"0841":{"zip_code":"5810841","prefecture":"大阪府","prefecture_kana":"オオサカフ","city":"八尾市","city_kana":"ヤオシ","town":"福万寺町北","town_kana":"フクマンジチョウキタ","prefecture_code":27},"0024":{"zip_code":"5810024","prefecture":"大阪府","prefecture_kana":"オオサカフ","city":"八尾市","city_kana":"ヤオシ","town":"二俣","town_kana":"フタマタ","prefecture_code":27},"0003":{"zip_code":"5810003","prefecture":"大阪府","prefecture_kana":"オオサカフ","city":"八尾市","city_kana":"ヤオシ","town":"本町","town_kana":"ホンマチ","prefecture_code":27},"0088":{"zip_code":"5810088","prefecture":"大阪府","prefecture_kana":"オオサカフ","city":"八尾市","city_kana":"ヤオシ","town":"松山町","town_kana":"マツヤマチョウ","prefecture_code":27},"0856":{"zip_code":"5810856","prefecture":"大阪府","prefecture_kana":"オオサカフ","city":"八尾市","city_kana":"ヤオシ","town":"水越","town_kana":"ミズコシ","prefecture_code":27},"0818":{"zip_code":"5810818","prefecture":"大阪府","prefecture_kana":"オオサカフ","city":"八尾市","city_kana":"ヤオシ","town":"美園町","town_kana":"ミソノチョウ","prefecture_code":27},"0837":{"zip_code":"5810837","prefecture":"大阪府","prefecture_kana":"オオサカフ","city":"八尾市","city_kana":"ヤオシ","town":"緑ケ丘","town_kana":"ミドリガオカ","prefecture_code":27},"0091":{"zip_code":"5810091","prefecture":"大阪府","prefecture_kana":"オオサカフ","city":"八尾市","city_kana":"ヤオシ","town":"南植松町","town_kana":"ミナミウエマツチョウ","prefecture_code":27},"0054":{"zip_code":"5810054","prefecture":"大阪府","prefecture_kana":"オオサカフ","city":"八尾市","city_kana":"ヤオシ","town":"南亀井町","town_kana":"ミナミカメイチョウ","prefecture_code":27},"0042":{"zip_code":"5810042","prefecture":"大阪府","prefecture_kana":"オオサカフ","city":"八尾市","city_kana":"ヤオシ","town":"南木の本","town_kana":"ミナミキノモト","prefecture_code":27},"0076":{"zip_code":"5810076","prefecture":"大阪府","prefecture_kana":"オオサカフ","city":"八尾市","city_kana":"ヤオシ","town":"南久宝寺","town_kana":"ミナミキュウホウジ","prefecture_code":27},"0019":{"zip_code":"5810019","prefecture":"大阪府","prefecture_kana":"オオサカフ","city":"八尾市","city_kana":"ヤオシ","town":"南小阪合町","town_kana":"ミナミコザカアイチョウ","prefecture_code":27},"0056":{"zip_code":"5810056","prefecture":"大阪府","prefecture_kana":"オオサカフ","city":"八尾市","city_kana":"ヤオシ","town":"南太子堂","town_kana":"ミナミタイシドウ","prefecture_code":27},"0081":{"zip_code":"5810081","prefecture":"大阪府","prefecture_kana":"オオサカフ","city":"八尾市","city_kana":"ヤオシ","town":"南本町","town_kana":"ミナミホンマチ","prefecture_code":27},"0023":{"zip_code":"5810023","prefecture":"大阪府","prefecture_kana":"オオサカフ","city":"八尾市","city_kana":"ヤオシ","town":"都塚","town_kana":"ミヤコヅカ","prefecture_code":27},"0815":{"zip_code":"5810815","prefecture":"大阪府","prefecture_kana":"オオサカフ","city":"八尾市","city_kana":"ヤオシ","town":"宮町","town_kana":"ミヤマチ","prefecture_code":27},"0027":[{"zip_code":"5810027","prefecture":"大阪府","prefecture_kana":"オオサカフ","city":"八尾市","city_kana":"ヤオシ","town":"八尾木","town_kana":"ヤオギ","prefecture_code":27},{"zip_code":"5810027","prefecture":"大阪府","prefecture_kana":"オオサカフ","city":"八尾市","city_kana":"ヤオシ","town":"八尾木","town_kana":"ヨオギ","prefecture_code":27}],"0028":{"zip_code":"5810028","prefecture":"大阪府","prefecture_kana":"オオサカフ","city":"八尾市","city_kana":"ヤオシ","town":"八尾木東","town_kana":"ヤオギヒガシ","prefecture_code":27},"0016":{"zip_code":"5810016","prefecture":"大阪府","prefecture_kana":"オオサカフ","city":"八尾市","city_kana":"ヤオシ","town":"八尾木北","town_kana":"ヤオギキタ","prefecture_code":27},"0085":{"zip_code":"5810085","prefecture":"大阪府","prefecture_kana":"オオサカフ","city":"八尾市","city_kana":"ヤオシ","town":"安中町","town_kana":"ヤスナカチョウ","prefecture_code":27},"0812":{"zip_code":"5810812","prefecture":"大阪府","prefecture_kana":"オオサカフ","city":"八尾市","city_kana":"ヤオシ","town":"山賀町","town_kana":"ヤマガチョウ","prefecture_code":27},"0801":{"zip_code":"5810801","prefecture":"大阪府","prefecture_kana":"オオサカフ","city":"八尾市","city_kana":"ヤオシ","town":"山城町","town_kana":"ヤマシロチョウ","prefecture_code":27},"0864":{"zip_code":"5810864","prefecture":"大阪府","prefecture_kana":"オオサカフ","city":"八尾市","city_kana":"ヤオシ","town":"山畑","town_kana":"ヤマタケ","prefecture_code":27},"0021":{"zip_code":"5810021","prefecture":"大阪府","prefecture_kana":"オオサカフ","city":"八尾市","city_kana":"ヤオシ","town":"山本高安町","town_kana":"ヤマモトタカヤスチョウ","prefecture_code":27},"0867":{"zip_code":"5810867","prefecture":"大阪府","prefecture_kana":"オオサカフ","city":"八尾市","city_kana":"ヤオシ","town":"山本町","town_kana":"ヤマモトチョウ","prefecture_code":27},"0013":{"zip_code":"5810013","prefecture":"大阪府","prefecture_kana":"オオサカフ","city":"八尾市","city_kana":"ヤオシ","town":"山本町南","town_kana":"ヤマモトチョウミナミ","prefecture_code":27},"0831":{"zip_code":"5810831","prefecture":"大阪府","prefecture_kana":"オオサカフ","city":"八尾市","city_kana":"ヤオシ","town":"山本町北","town_kana":"ヤマモトチョウキタ","prefecture_code":27},"0032":{"zip_code":"5810032","prefecture":"大阪府","prefecture_kana":"オオサカフ","city":"八尾市","city_kana":"ヤオシ","town":"弓削町","town_kana":"ユウゲチョウ","prefecture_code":27},"0034":{"zip_code":"5810034","prefecture":"大阪府","prefecture_kana":"オオサカフ","city":"八尾市","city_kana":"ヤオシ","town":"弓削町南","town_kana":"ユウゲチョウミナミ","prefecture_code":27},"0086":{"zip_code":"5810086","prefecture":"大阪府","prefecture_kana":"オオサカフ","city":"八尾市","city_kana":"ヤオシ","town":"陽光園","town_kana":"ヨウコウエン","prefecture_code":27},"0069":{"zip_code":"5810069","prefecture":"大阪府","prefecture_kana":"オオサカフ","city":"八尾市","city_kana":"ヤオシ","town":"龍華町","town_kana":"リュウゲチョウ","prefecture_code":27},"0011":{"zip_code":"5810011","prefecture":"大阪府","prefecture_kana":"オオサカフ","city":"八尾市","city_kana":"ヤオシ","town":"若草町","town_kana":"ワカクサチョウ","prefecture_code":27},"0038":{"zip_code":"5810038","prefecture":"大阪府","prefecture_kana":"オオサカフ","city":"八尾市","city_kana":"ヤオシ","town":"若林町","town_kana":"ワカバヤシチョウ","prefecture_code":27}}