{"0000":{"zip_code":"5820000","prefecture":"大阪府","prefecture_kana":"オオサカフ","city":"柏原市","city_kana":"カシワラシ","town":"以下に掲載がない場合","town_kana":"イカニケイサイガナイバアイ","prefecture_code":27},"0014":{"zip_code":"5820014","prefecture":"大阪府","prefecture_kana":"オオサカフ","city":"柏原市","city_kana":"カシワラシ","town":"青谷","town_kana":"アオタニ","prefecture_code":27},"0026":{"zip_code":"5820026","prefecture":"大阪府","prefecture_kana":"オオサカフ","city":"柏原市","city_kana":"カシワラシ","town":"旭ケ丘","town_kana":"アサヒガオカ","prefecture_code":27},"0016":{"zip_code":"5820016","prefecture":"大阪府","prefecture_kana":"オオサカフ","city":"柏原市","city_kana":"カシワラシ","town":"安堂町","town_kana":"アンドウチョウ","prefecture_code":27},"0029":{"zip_code":"5820029","prefecture":"大阪府","prefecture_kana":"オオサカフ","city":"柏原市","city_kana":"カシワラシ","town":"石川町","town_kana":"イシカワチョウ","prefecture_code":27},"0002":{"zip_code":"5820002","prefecture":"大阪府","prefecture_kana":"オオサカフ","city":"柏原市","city_kana":"カシワラシ","town":"今町","town_kana":"イママチ","prefecture_code":27},"0027":{"zip_code":"5820027","prefecture":"大阪府","prefecture_kana":"オオサカフ","city":"柏原市","city_kana":"カシワラシ","town":"円明町","town_kana":"エンミョウチョウ","prefecture_code":27},"0018":{"zip_code":"5820018","prefecture":"大阪府","prefecture_kana":"オオサカフ","city":"柏原市","city_kana":"カシワラシ","town":"大県","town_kana":"オオガタ","prefecture_code":27},"0020":{"zip_code":"5820020","prefecture":"大阪府","prefecture_kana":"オオサカフ","city":"柏原市","city_kana":"カシワラシ","town":"片山町","town_kana":"カタヤマチョウ","prefecture_code":27},"0007":{"zip_code":"5820007","prefecture":"大阪府","prefecture_kana":"オオサカフ","city":"柏原市","city_kana":"カシワラシ","town":"上市","town_kana":"カミイチ","prefecture_code":27},"0012":{"zip_code":"5820012","prefecture":"大阪府","prefecture_kana":"オオサカフ","city":"柏原市","city_kana":"カシワラシ","town":"雁多尾畑","town_kana":"カリンドオバタ","prefecture_code":27},"0004":{"zip_code":"5820004","prefecture":"大阪府","prefecture_kana":"オオサカフ","city":"柏原市","city_kana":"カシワラシ","town":"河原町","town_kana":"カワハラチョウ","prefecture_code":27},"0006":{"zip_code":"5820006","prefecture":"大阪府","prefecture_kana":"オオサカフ","city":"柏原市","city_kana":"カシワラシ","town":"清州","town_kana":"キヨス","prefecture_code":27},"0022":{"zip_code":"5820022","prefecture":"大阪府","prefecture_kana":"オオサカフ","city":"柏原市","city_kana":"カシワラシ","town":"国分市場","town_kana":"コクブイチバ","prefecture_code":27},"0023":{"zip_code":"5820023","prefecture":"大阪府","prefecture_kana":"オオサカフ","city":"柏原市","city_kana":"カシワラシ","town":"国分東条町","town_kana":"コクブヒガンジョウチョウ","prefecture_code":27},"0021":{"zip_code":"5820021","prefecture":"大阪府","prefecture_kana":"オオサカフ","city":"柏原市","city_kana":"カシワラシ","town":"国分本町","town_kana":"コクブホンマチ","prefecture_code":27},"0025":{"zip_code":"5820025","prefecture":"大阪府","prefecture_kana":"オオサカフ","city":"柏原市","city_kana":"カシワラシ","town":"国分西","town_kana":"コクブニシ","prefecture_code":27},"0009":{"zip_code":"5820009","prefecture":"大阪府","prefecture_kana":"オオサカフ","city":"柏原市","city_kana":"カシワラシ","town":"大正","town_kana":"タイショウ","prefecture_code":27},"0017":{"zip_code":"5820017","prefecture":"大阪府","prefecture_kana":"オオサカフ","city":"柏原市","city_kana":"カシワラシ","town":"太平寺","town_kana":"タイヘイジ","prefecture_code":27},"0015":{"zip_code":"5820015","prefecture":"大阪府","prefecture_kana":"オオサカフ","city":"柏原市","city_kana":"カシワラシ","town":"高井田","town_kana":"タカイダ","prefecture_code":27},"0024":{"zip_code":"5820024","prefecture":"大阪府","prefecture_kana":"オオサカフ","city":"柏原市","city_kana":"カシワラシ","town":"田辺","town_kana":"タナベ","prefecture_code":27},"0028":{"zip_code":"5820028","prefecture":"大阪府","prefecture_kana":"オオサカフ","city":"柏原市","city_kana":"カシワラシ","town":"玉手町","town_kana":"タマテチョウ","prefecture_code":27},"0013":{"zip_code":"5820013","prefecture":"大阪府","prefecture_kana":"オオサカフ","city":"柏原市","city_kana":"カシワラシ","town":"峠","town_kana":"トウゲ","prefecture_code":27},"0003":{"zip_code":"5820003","prefecture":"大阪府","prefecture_kana":"オオサカフ","city":"柏原市","city_kana":"カシワラシ","town":"堂島町","town_kana":"ドウジマチョウ","prefecture_code":27},"0019":{"zip_code":"5820019","prefecture":"大阪府","prefecture_kana":"オオサカフ","city":"柏原市","city_kana":"カシワラシ","town":"平野","town_kana":"ヒラノ","prefecture_code":27},"0008":{"zip_code":"5820008","prefecture":"大阪府","prefecture_kana":"オオサカフ","city":"柏原市","city_kana":"カシワラシ","town":"古町","town_kana":"フルマチ","prefecture_code":27},"0005":{"zip_code":"5820005","prefecture":"大阪府","prefecture_kana":"オオサカフ","city":"柏原市","city_kana":"カシワラシ","town":"法善寺","town_kana":"ホウゼンジ","prefecture_code":27},"0001":{"zip_code":"5820001","prefecture":"大阪府","prefecture_kana":"オオサカフ","city":"柏原市","city_kana":"カシワラシ","town":"本郷","town_kana":"ホンゴウ","prefecture_code":27},"0011":{"zip_code":"5820011","prefecture":"大阪府","prefecture_kana":"オオサカフ","city":"柏原市","city_kana":"カシワラシ","town":"本堂","town_kana":"ホンドウ","prefecture_code":27},"0010":{"zip_code":"5820010","prefecture":"大阪府","prefecture_kana":"オオサカフ","city":"柏原市","city_kana":"カシワラシ","town":"山ノ井町","town_kana":"ヤマノイチョウ","prefecture_code":27}}