{"0000":{"zip_code":"5840000","prefecture":"大阪府","prefecture_kana":"オオサカフ","city":"富田林市","city_kana":"トンダバヤシシ","town":"以下に掲載がない場合","town_kana":"イカニケイサイガナイバアイ","prefecture_code":27},"0076":{"zip_code":"5840076","prefecture":"大阪府","prefecture_kana":"オオサカフ","city":"富田林市","city_kana":"トンダバヤシシ","town":"青葉丘","town_kana":"アオバオカ","prefecture_code":27},"0006":{"zip_code":"5840006","prefecture":"大阪府","prefecture_kana":"オオサカフ","city":"富田林市","city_kana":"トンダバヤシシ","town":"旭ケ丘町","town_kana":"アサヒガオカチョウ","prefecture_code":27},"0012":{"zip_code":"5840012","prefecture":"大阪府","prefecture_kana":"オオサカフ","city":"富田林市","city_kana":"トンダバヤシシ","town":"粟ケ池町","town_kana":"アワガイケチョウ","prefecture_code":27},"0001":{"zip_code":"5840001","prefecture":"大阪府","prefecture_kana":"オオサカフ","city":"富田林市","city_kana":"トンダバヤシシ","town":"梅の里","town_kana":"ウメノサト","prefecture_code":27},"0056":{"zip_code":"5840056","prefecture":"大阪府","prefecture_kana":"オオサカフ","city":"富田林市","city_kana":"トンダバヤシシ","town":"嬉","town_kana":"ウレシ","prefecture_code":27},"0095":{"zip_code":"5840095","prefecture":"大阪府","prefecture_kana":"オオサカフ","city":"富田林市","city_kana":"トンダバヤシシ","town":"毛人谷","town_kana":"エビタニ","prefecture_code":27},"0058":{"zip_code":"5840058","prefecture":"大阪府","prefecture_kana":"オオサカフ","city":"富田林市","city_kana":"トンダバヤシシ","town":"彼方","town_kana":"オチカタ","prefecture_code":27},"0040":{"zip_code":"5840040","prefecture":"大阪府","prefecture_kana":"オオサカフ","city":"富田林市","city_kana":"トンダバヤシシ","town":"かがり台","town_kana":"カガリダイ","prefecture_code":27},"0078":{"zip_code":"5840078","prefecture":"大阪府","prefecture_kana":"オオサカフ","city":"富田林市","city_kana":"トンダバヤシシ","town":"加太","town_kana":"カダ","prefecture_code":27},"0014":{"zip_code":"5840014","prefecture":"大阪府","prefecture_kana":"オオサカフ","city":"富田林市","city_kana":"トンダバヤシシ","town":"川面町","town_kana":"カワヅラチョウ","prefecture_code":27},"0049":{"zip_code":"5840049","prefecture":"大阪府","prefecture_kana":"オオサカフ","city":"富田林市","city_kana":"トンダバヤシシ","town":"川向町","town_kana":"カワムカイチョウ","prefecture_code":27},"0054":{"zip_code":"5840054","prefecture":"大阪府","prefecture_kana":"オオサカフ","city":"富田林市","city_kana":"トンダバヤシシ","town":"甘南備","town_kana":"カンナビ","prefecture_code":27},"0008":{"zip_code":"5840008","prefecture":"大阪府","prefecture_kana":"オオサカフ","city":"富田林市","city_kana":"トンダバヤシシ","town":"喜志","town_kana":"キシ","prefecture_code":27},"0003":{"zip_code":"5840003","prefecture":"大阪府","prefecture_kana":"オオサカフ","city":"富田林市","city_kana":"トンダバヤシシ","town":"喜志新家町","town_kana":"キシシンケチョウ","prefecture_code":27},"0005":{"zip_code":"5840005","prefecture":"大阪府","prefecture_kana":"オオサカフ","city":"富田林市","city_kana":"トンダバヤシシ","town":"喜志町","town_kana":"キシチョウ","prefecture_code":27},"0042":{"zip_code":"5840042","prefecture":"大阪府","prefecture_kana":"オオサカフ","city":"富田林市","city_kana":"トンダバヤシシ","town":"北大伴町","town_kana":"キタオオトモチョウ","prefecture_code":27},"0004":{"zip_code":"5840004","prefecture":"大阪府","prefecture_kana":"オオサカフ","city":"富田林市","city_kana":"トンダバヤシシ","town":"木戸山町","town_kana":"キドヤマチョウ","prefecture_code":27},"0041":{"zip_code":"5840041","prefecture":"大阪府","prefecture_kana":"オオサカフ","city":"富田林市","city_kana":"トンダバヤシシ","town":"楠町","town_kana":"クスノキチョウ","prefecture_code":27},"0074":{"zip_code":"5840074","prefecture":"大阪府","prefecture_kana":"オオサカフ","city":"富田林市","city_kana":"トンダバヤシシ","town":"久野喜台","town_kana":"クノキダイ","prefecture_code":27},"0036":{"zip_code":"5840036","prefecture":"大阪府","prefecture_kana":"オオサカフ","city":"富田林市","city_kana":"トンダバヤシシ","town":"甲田","town_kana":"コウダ","prefecture_code":27},"0082":{"zip_code":"5840082","prefecture":"大阪府","prefecture_kana":"オオサカフ","city":"富田林市","city_kana":"トンダバヤシシ","town":"向陽台","town_kana":"コウヨウダイ","prefecture_code":27},"0083":{"zip_code":"5840083","prefecture":"大阪府","prefecture_kana":"オオサカフ","city":"富田林市","city_kana":"トンダバヤシシ","town":"小金台","town_kana":"コガネダイ","prefecture_code":27},"0079":{"zip_code":"5840079","prefecture":"大阪府","prefecture_kana":"オオサカフ","city":"富田林市","city_kana":"トンダバヤシシ","town":"五軒家","town_kana":"ゴケンヤ","prefecture_code":27},"0031":{"zip_code":"5840031","prefecture":"大阪府","prefecture_kana":"オオサカフ","city":"富田林市","city_kana":"トンダバヤシシ","town":"寿町","town_kana":"コトブキチョウ","prefecture_code":27},"0070":{"zip_code":"5840070","prefecture":"大阪府","prefecture_kana":"オオサカフ","city":"富田林市","city_kana":"トンダバヤシシ","town":"金剛錦織台","town_kana":"コンゴウニシキオリダイ","prefecture_code":27},"0065":{"zip_code":"5840065","prefecture":"大阪府","prefecture_kana":"オオサカフ","city":"富田林市","city_kana":"トンダバヤシシ","town":"金剛伏山台","town_kana":"コンゴウフシヤマダイ","prefecture_code":27},"0015":{"zip_code":"5840015","prefecture":"大阪府","prefecture_kana":"オオサカフ","city":"富田林市","city_kana":"トンダバヤシシ","town":"西条町","town_kana":"サイジョウチョウ","prefecture_code":27},"0013":{"zip_code":"5840013","prefecture":"大阪府","prefecture_kana":"オオサカフ","city":"富田林市","city_kana":"トンダバヤシシ","town":"桜井町","town_kana":"サクライチョウ","prefecture_code":27},"0084":{"zip_code":"5840084","prefecture":"大阪府","prefecture_kana":"オオサカフ","city":"富田林市","city_kana":"トンダバヤシシ","town":"桜ケ丘町","town_kana":"サクラガオカチョウ","prefecture_code":27},"0052":{"zip_code":"5840052","prefecture":"大阪府","prefecture_kana":"オオサカフ","city":"富田林市","city_kana":"トンダバヤシシ","town":"佐備","town_kana":"サビ","prefecture_code":27},"0034":{"zip_code":"5840034","prefecture":"大阪府","prefecture_kana":"オオサカフ","city":"富田林市","city_kana":"トンダバヤシシ","town":"清水町","town_kana":"シミズチョウ","prefecture_code":27},"0092":{"zip_code":"5840092","prefecture":"大阪府","prefecture_kana":"オオサカフ","city":"富田林市","city_kana":"トンダバヤシシ","town":"昭和町","town_kana":"ショウワチョウ","prefecture_code":27},"0077":{"zip_code":"5840077","prefecture":"大阪府","prefecture_kana":"オオサカフ","city":"富田林市","city_kana":"トンダバヤシシ","town":"新青葉丘町","town_kana":"シンアオバオカチョウ","prefecture_code":27},"0085":{"zip_code":"5840085","prefecture":"大阪府","prefecture_kana":"オオサカフ","city":"富田林市","city_kana":"トンダバヤシシ","town":"新家","town_kana":"シンケ","prefecture_code":27},"0091":{"zip_code":"5840091","prefecture":"大阪府","prefecture_kana":"オオサカフ","city":"富田林市","city_kana":"トンダバヤシシ","town":"新堂","town_kana":"シンドウ","prefecture_code":27},"0062":{"zip_code":"5840062","prefecture":"大阪府","prefecture_kana":"オオサカフ","city":"富田林市","city_kana":"トンダバヤシシ","town":"須賀","town_kana":"スガ","prefecture_code":27},"0072":{"zip_code":"5840072","prefecture":"大阪府","prefecture_kana":"オオサカフ","city":"富田林市","city_kana":"トンダバヤシシ","town":"高辺台","town_kana":"タカベダイ","prefecture_code":27},"0035":{"zip_code":"5840035","prefecture":"大阪府","prefecture_kana":"オオサカフ","city":"富田林市","city_kana":"トンダバヤシシ","town":"谷川町","town_kana":"タニガワチョウ","prefecture_code":27},"0016":{"zip_code":"5840016","prefecture":"大阪府","prefecture_kana":"オオサカフ","city":"富田林市","city_kana":"トンダバヤシシ","town":"通法寺町","town_kana":"ツウホウジチョウ","prefecture_code":27},"0081":{"zip_code":"5840081","prefecture":"大阪府","prefecture_kana":"オオサカフ","city":"富田林市","city_kana":"トンダバヤシシ","town":"廿山","town_kana":"ツヅヤマ","prefecture_code":27},"0086":{"zip_code":"5840086","prefecture":"大阪府","prefecture_kana":"オオサカフ","city":"富田林市","city_kana":"トンダバヤシシ","town":"津々山台","town_kana":"ツヅヤマダイ","prefecture_code":27},"0073":{"zip_code":"5840073","prefecture":"大阪府","prefecture_kana":"オオサカフ","city":"富田林市","city_kana":"トンダバヤシシ","town":"寺池台","town_kana":"テライケダイ","prefecture_code":27},"0032":{"zip_code":"5840032","prefecture":"大阪府","prefecture_kana":"オオサカフ","city":"富田林市","city_kana":"トンダバヤシシ","town":"常盤町","town_kana":"トキワチョウ","prefecture_code":27},"0033":{"zip_code":"5840033","prefecture":"大阪府","prefecture_kana":"オオサカフ","city":"富田林市","city_kana":"トンダバヤシシ","town":"富田林町","town_kana":"トンダバヤシチョウ","prefecture_code":27},"0027":{"zip_code":"5840027","prefecture":"大阪府","prefecture_kana":"オオサカフ","city":"富田林市","city_kana":"トンダバヤシシ","town":"中野","town_kana":"ナカノ","prefecture_code":27},"0021":{"zip_code":"5840021","prefecture":"大阪府","prefecture_kana":"オオサカフ","city":"富田林市","city_kana":"トンダバヤシシ","town":"中野町","town_kana":"ナカノチョウ","prefecture_code":27},"0022":{"zip_code":"5840022","prefecture":"大阪府","prefecture_kana":"オオサカフ","city":"富田林市","city_kana":"トンダバヤシシ","town":"中野町東","town_kana":"ナカノチョウヒガシ","prefecture_code":27},"0028":{"zip_code":"5840028","prefecture":"大阪府","prefecture_kana":"オオサカフ","city":"富田林市","city_kana":"トンダバヤシシ","town":"中野町西","town_kana":"ナカノチョウニシ","prefecture_code":27},"0051":{"zip_code":"5840051","prefecture":"大阪府","prefecture_kana":"オオサカフ","city":"富田林市","city_kana":"トンダバヤシシ","town":"楠風台","town_kana":"ナンプウダイ","prefecture_code":27},"0048":{"zip_code":"5840048","prefecture":"大阪府","prefecture_kana":"オオサカフ","city":"富田林市","city_kana":"トンダバヤシシ","town":"西板持町","town_kana":"ニシイタモチチョウ","prefecture_code":27},"0063":{"zip_code":"5840063","prefecture":"大阪府","prefecture_kana":"オオサカフ","city":"富田林市","city_kana":"トンダバヤシシ","town":"錦織","town_kana":"ニシキオリ","prefecture_code":27},"0066":{"zip_code":"5840066","prefecture":"大阪府","prefecture_kana":"オオサカフ","city":"富田林市","city_kana":"トンダバヤシシ","town":"錦織北","town_kana":"ニシキオリキタ","prefecture_code":27},"0068":{"zip_code":"5840068","prefecture":"大阪府","prefecture_kana":"オオサカフ","city":"富田林市","city_kana":"トンダバヤシシ","town":"錦織中","town_kana":"ニシキオリナカ","prefecture_code":27},"0069":{"zip_code":"5840069","prefecture":"大阪府","prefecture_kana":"オオサカフ","city":"富田林市","city_kana":"トンダバヤシシ","town":"錦織東","town_kana":"ニシキオリヒガシ","prefecture_code":27},"0067":{"zip_code":"5840067","prefecture":"大阪府","prefecture_kana":"オオサカフ","city":"富田林市","city_kana":"トンダバヤシシ","town":"錦織南","town_kana":"ニシキオリミナミ","prefecture_code":27},"0038":{"zip_code":"5840038","prefecture":"大阪府","prefecture_kana":"オオサカフ","city":"富田林市","city_kana":"トンダバヤシシ","town":"錦ケ丘町","town_kana":"ニシキガオカチョウ","prefecture_code":27},"0046":{"zip_code":"5840046","prefecture":"大阪府","prefecture_kana":"オオサカフ","city":"富田林市","city_kana":"トンダバヤシシ","town":"東板持町","town_kana":"ヒガシイタモチチョウ","prefecture_code":27},"0002":{"zip_code":"5840002","prefecture":"大阪府","prefecture_kana":"オオサカフ","city":"富田林市","city_kana":"トンダバヤシシ","town":"平町","town_kana":"ヒラチョウ","prefecture_code":27},"0055":{"zip_code":"5840055","prefecture":"大阪府","prefecture_kana":"オオサカフ","city":"富田林市","city_kana":"トンダバヤシシ","town":"伏見堂","town_kana":"フシミドウ","prefecture_code":27},"0061":{"zip_code":"5840061","prefecture":"大阪府","prefecture_kana":"オオサカフ","city":"富田林市","city_kana":"トンダバヤシシ","town":"伏山","town_kana":"フシヤマ","prefecture_code":27},"0071":{"zip_code":"5840071","prefecture":"大阪府","prefecture_kana":"オオサカフ","city":"富田林市","city_kana":"トンダバヤシシ","town":"藤沢台","town_kana":"フジサワダイ","prefecture_code":27},"0064":{"zip_code":"5840064","prefecture":"大阪府","prefecture_kana":"オオサカフ","city":"富田林市","city_kana":"トンダバヤシシ","town":"不動ケ丘町","town_kana":"フドウガオカチョウ","prefecture_code":27},"0094":{"zip_code":"5840094","prefecture":"大阪府","prefecture_kana":"オオサカフ","city":"富田林市","city_kana":"トンダバヤシシ","town":"富美ケ丘町","town_kana":"フミガオカチョウ","prefecture_code":27},"0044":{"zip_code":"5840044","prefecture":"大阪府","prefecture_kana":"オオサカフ","city":"富田林市","city_kana":"トンダバヤシシ","town":"別井","town_kana":"ベツイ","prefecture_code":27},"0093":{"zip_code":"5840093","prefecture":"大阪府","prefecture_kana":"オオサカフ","city":"富田林市","city_kana":"トンダバヤシシ","town":"本町","town_kana":"ホンマチ","prefecture_code":27},"0026":{"zip_code":"5840026","prefecture":"大阪府","prefecture_kana":"オオサカフ","city":"富田林市","city_kana":"トンダバヤシシ","town":"緑ケ丘町","town_kana":"ミドリガオカチョウ","prefecture_code":27},"0007":{"zip_code":"5840007","prefecture":"大阪府","prefecture_kana":"オオサカフ","city":"富田林市","city_kana":"トンダバヤシシ","town":"南旭ケ丘町","town_kana":"ミナミアサヒガオカチョウ","prefecture_code":27},"0043":{"zip_code":"5840043","prefecture":"大阪府","prefecture_kana":"オオサカフ","city":"富田林市","city_kana":"トンダバヤシシ","town":"南大伴町","town_kana":"ミナミオオトモチョウ","prefecture_code":27},"0037":{"zip_code":"5840037","prefecture":"大阪府","prefecture_kana":"オオサカフ","city":"富田林市","city_kana":"トンダバヤシシ","town":"宮甲田町","town_kana":"ミヤコウダチョウ","prefecture_code":27},"0011":{"zip_code":"5840011","prefecture":"大阪府","prefecture_kana":"オオサカフ","city":"富田林市","city_kana":"トンダバヤシシ","town":"宮町","town_kana":"ミヤチョウ","prefecture_code":27},"0039":{"zip_code":"5840039","prefecture":"大阪府","prefecture_kana":"オオサカフ","city":"富田林市","city_kana":"トンダバヤシシ","town":"美山台","town_kana":"ミヤマダイ","prefecture_code":27},"0045":{"zip_code":"5840045","prefecture":"大阪府","prefecture_kana":"オオサカフ","city":"富田林市","city_kana":"トンダバヤシシ","town":"山中田町","town_kana":"ヤマチュウダチョウ","prefecture_code":27},"0047":{"zip_code":"5840047","prefecture":"大阪府","prefecture_kana":"オオサカフ","city":"富田林市","city_kana":"トンダバヤシシ","town":"山手町","town_kana":"ヤマテチョウ","prefecture_code":27},"0057":{"zip_code":"5840057","prefecture":"大阪府","prefecture_kana":"オオサカフ","city":"富田林市","city_kana":"トンダバヤシシ","town":"横山","town_kana":"ヨコヤマ","prefecture_code":27},"0053":{"zip_code":"5840053","prefecture":"大阪府","prefecture_kana":"オオサカフ","city":"富田林市","city_kana":"トンダバヤシシ","town":"龍泉","town_kana":"リュウセン","prefecture_code":27},"0024":{"zip_code":"5840024","prefecture":"大阪府","prefecture_kana":"オオサカフ","city":"富田林市","city_kana":"トンダバヤシシ","town":"若松町","town_kana":"ワカマツチョウ","prefecture_code":27},"0023":{"zip_code":"5840023","prefecture":"大阪府","prefecture_kana":"オオサカフ","city":"富田林市","city_kana":"トンダバヤシシ","town":"若松町東","town_kana":"ワカマツチョウヒガシ","prefecture_code":27},"0025":{"zip_code":"5840025","prefecture":"大阪府","prefecture_kana":"オオサカフ","city":"富田林市","city_kana":"トンダバヤシシ","town":"若松町西","town_kana":"ワカマツチョウニシ","prefecture_code":27}}