{"0000":[{"zip_code":"5850000","prefecture":"大阪府","prefecture_kana":"オオサカフ","city":"南河内郡河南町","city_kana":"ミナミカワチグンカナンチョウ","town":"","town_kana":"","prefecture_code":27},{"zip_code":"5850000","prefecture":"大阪府","prefecture_kana":"オオサカフ","city":"南河内郡千早赤阪村","city_kana":"ミナミカワチグンチハヤアカサカムラ","town":"","town_kana":"","prefecture_code":27}],"0002":{"zip_code":"5850002","prefecture":"大阪府","prefecture_kana":"オオサカフ","city":"南河内郡河南町","city_kana":"ミナミカワチグンカナンチョウ","town":"一須賀","town_kana":"イチスカ","prefecture_code":27},"0012":{"zip_code":"5850012","prefecture":"大阪府","prefecture_kana":"オオサカフ","city":"南河内郡河南町","city_kana":"ミナミカワチグンカナンチョウ","town":"加納","town_kana":"カノウ","prefecture_code":27},"0024":{"zip_code":"5850024","prefecture":"大阪府","prefecture_kana":"オオサカフ","city":"南河内郡河南町","city_kana":"ミナミカワチグンカナンチョウ","town":"上河内","town_kana":"カミカワチ","prefecture_code":27},"0035":{"zip_code":"5850035","prefecture":"大阪府","prefecture_kana":"オオサカフ","city":"南河内郡河南町","city_kana":"ミナミカワチグンカナンチョウ","town":"寛弘寺","town_kana":"カンコウジ","prefecture_code":27},"0034":{"zip_code":"5850034","prefecture":"大阪府","prefecture_kana":"オオサカフ","city":"南河内郡河南町","city_kana":"ミナミカワチグンカナンチョウ","town":"神山","town_kana":"コウヤマ","prefecture_code":27},"0025":{"zip_code":"5850025","prefecture":"大阪府","prefecture_kana":"オオサカフ","city":"南河内郡河南町","city_kana":"ミナミカワチグンカナンチョウ","town":"さくら坂","town_kana":"サクラザカ","prefecture_code":27},"0027":{"zip_code":"5850027","prefecture":"大阪府","prefecture_kana":"オオサカフ","city":"南河内郡河南町","city_kana":"ミナミカワチグンカナンチョウ","town":"さくら坂南","town_kana":"サクラザカミナミ","prefecture_code":27},"0023":{"zip_code":"5850023","prefecture":"大阪府","prefecture_kana":"オオサカフ","city":"南河内郡河南町","city_kana":"ミナミカワチグンカナンチョウ","town":"下河内","town_kana":"シモカワチ","prefecture_code":27},"0014":{"zip_code":"5850014","prefecture":"大阪府","prefecture_kana":"オオサカフ","city":"南河内郡河南町","city_kana":"ミナミカワチグンカナンチョウ","town":"白木","town_kana":"シラキ","prefecture_code":27},"0026":{"zip_code":"5850026","prefecture":"大阪府","prefecture_kana":"オオサカフ","city":"南河内郡河南町","city_kana":"ミナミカワチグンカナンチョウ","town":"鈴美台","town_kana":"スズミダイ","prefecture_code":27},"0033":{"zip_code":"5850033","prefecture":"大阪府","prefecture_kana":"オオサカフ","city":"南河内郡河南町","city_kana":"ミナミカワチグンカナンチョウ","town":"芹生谷","town_kana":"セリュウタニ","prefecture_code":27},"0003":{"zip_code":"5850003","prefecture":"大阪府","prefecture_kana":"オオサカフ","city":"南河内郡河南町","city_kana":"ミナミカワチグンカナンチョウ","town":"大ケ塚","town_kana":"ダイガツカ","prefecture_code":27},"0005":{"zip_code":"5850005","prefecture":"大阪府","prefecture_kana":"オオサカフ","city":"南河内郡河南町","city_kana":"ミナミカワチグンカナンチョウ","town":"大宝","town_kana":"ダイホウ","prefecture_code":27},"0011":{"zip_code":"5850011","prefecture":"大阪府","prefecture_kana":"オオサカフ","city":"南河内郡河南町","city_kana":"ミナミカワチグンカナンチョウ","town":"寺田","town_kana":"テラダ","prefecture_code":27},"0031":{"zip_code":"5850031","prefecture":"大阪府","prefecture_kana":"オオサカフ","city":"南河内郡河南町","city_kana":"ミナミカワチグンカナンチョウ","town":"中","town_kana":"ナカ","prefecture_code":27},"0006":{"zip_code":"5850006","prefecture":"大阪府","prefecture_kana":"オオサカフ","city":"南河内郡河南町","city_kana":"ミナミカワチグンカナンチョウ","town":"葉室","town_kana":"ハムロ","prefecture_code":27},"0001":{"zip_code":"5850001","prefecture":"大阪府","prefecture_kana":"オオサカフ","city":"南河内郡河南町","city_kana":"ミナミカワチグンカナンチョウ","town":"東山","town_kana":"ヒガシヤマ","prefecture_code":27},"0013":{"zip_code":"5850013","prefecture":"大阪府","prefecture_kana":"オオサカフ","city":"南河内郡河南町","city_kana":"ミナミカワチグンカナンチョウ","town":"平石","town_kana":"ヒライシ","prefecture_code":27},"0022":{"zip_code":"5850022","prefecture":"大阪府","prefecture_kana":"オオサカフ","city":"南河内郡河南町","city_kana":"ミナミカワチグンカナンチョウ","town":"弘川","town_kana":"ヒロカワ","prefecture_code":27},"0032":{"zip_code":"5850032","prefecture":"大阪府","prefecture_kana":"オオサカフ","city":"南河内郡河南町","city_kana":"ミナミカワチグンカナンチョウ","town":"馬谷","town_kana":"マダニ","prefecture_code":27},"0021":{"zip_code":"5850021","prefecture":"大阪府","prefecture_kana":"オオサカフ","city":"南河内郡河南町","city_kana":"ミナミカワチグンカナンチョウ","town":"持尾","town_kana":"モチオ","prefecture_code":27},"0004":{"zip_code":"5850004","prefecture":"大阪府","prefecture_kana":"オオサカフ","city":"南河内郡河南町","city_kana":"ミナミカワチグンカナンチョウ","town":"山城","town_kana":"ヤマシロ","prefecture_code":27},"0055":{"zip_code":"5850055","prefecture":"大阪府","prefecture_kana":"オオサカフ","city":"南河内郡千早赤阪村","city_kana":"ミナミカワチグンチハヤアカサカムラ","town":"東阪","town_kana":"アズマザカ","prefecture_code":27},"0045":{"zip_code":"5850045","prefecture":"大阪府","prefecture_kana":"オオサカフ","city":"南河内郡千早赤阪村","city_kana":"ミナミカワチグンチハヤアカサカムラ","town":"川野辺","town_kana":"カワノベ","prefecture_code":27},"0043":{"zip_code":"5850043","prefecture":"大阪府","prefecture_kana":"オオサカフ","city":"南河内郡千早赤阪村","city_kana":"ミナミカワチグンチハヤアカサカムラ","town":"桐山","town_kana":"キリヤマ","prefecture_code":27},"0053":{"zip_code":"5850053","prefecture":"大阪府","prefecture_kana":"オオサカフ","city":"南河内郡千早赤阪村","city_kana":"ミナミカワチグンチハヤアカサカムラ","town":"小吹","town_kana":"コブキ","prefecture_code":27},"0041":{"zip_code":"5850041","prefecture":"大阪府","prefecture_kana":"オオサカフ","city":"南河内郡千早赤阪村","city_kana":"ミナミカワチグンチハヤアカサカムラ","town":"水分","town_kana":"スイブン","prefecture_code":27},"0051":{"zip_code":"5850051","prefecture":"大阪府","prefecture_kana":"オオサカフ","city":"南河内郡千早赤阪村","city_kana":"ミナミカワチグンチハヤアカサカムラ","town":"千早","town_kana":"チハヤ","prefecture_code":27},"0052":{"zip_code":"5850052","prefecture":"大阪府","prefecture_kana":"オオサカフ","city":"南河内郡千早赤阪村","city_kana":"ミナミカワチグンチハヤアカサカムラ","town":"中津原","town_kana":"ナカツハラ","prefecture_code":27},"0042":{"zip_code":"5850042","prefecture":"大阪府","prefecture_kana":"オオサカフ","city":"南河内郡千早赤阪村","city_kana":"ミナミカワチグンチハヤアカサカムラ","town":"二河原辺","town_kana":"ニガラベ","prefecture_code":27},"0044":{"zip_code":"5850044","prefecture":"大阪府","prefecture_kana":"オオサカフ","city":"南河内郡千早赤阪村","city_kana":"ミナミカワチグンチハヤアカサカムラ","town":"森屋","town_kana":"モリヤ","prefecture_code":27},"0054":{"zip_code":"5850054","prefecture":"大阪府","prefecture_kana":"オオサカフ","city":"南河内郡千早赤阪村","city_kana":"ミナミカワチグンチハヤアカサカムラ","town":"吉年","town_kana":"ヨドシ","prefecture_code":27}}