{"0000":{"zip_code":"5890000","prefecture":"大阪府","prefecture_kana":"オオサカフ","city":"大阪狭山市","city_kana":"オオサカサヤマシ","town":"","town_kana":"","prefecture_code":27},"0008":{"zip_code":"5890008","prefecture":"大阪府","prefecture_kana":"オオサカフ","city":"大阪狭山市","city_kana":"オオサカサヤマシ","town":"池尻自由丘","town_kana":"イケジリジユウガオカ","prefecture_code":27},"0007":{"zip_code":"5890007","prefecture":"大阪府","prefecture_kana":"オオサカフ","city":"大阪狭山市","city_kana":"オオサカサヤマシ","town":"池尻中","town_kana":"イケジリナカ","prefecture_code":27},"0009":{"zip_code":"5890009","prefecture":"大阪府","prefecture_kana":"オオサカフ","city":"大阪狭山市","city_kana":"オオサカサヤマシ","town":"池尻北","town_kana":"イケジリキタ","prefecture_code":27},"0031":{"zip_code":"5890031","prefecture":"大阪府","prefecture_kana":"オオサカフ","city":"大阪狭山市","city_kana":"オオサカサヤマシ","town":"池之原","town_kana":"イケノハラ","prefecture_code":27},"0021":{"zip_code":"5890021","prefecture":"大阪府","prefecture_kana":"オオサカフ","city":"大阪狭山市","city_kana":"オオサカサヤマシ","town":"今熊","town_kana":"イマクマ","prefecture_code":27},"0032":{"zip_code":"5890032","prefecture":"大阪府","prefecture_kana":"オオサカフ","city":"大阪狭山市","city_kana":"オオサカサヤマシ","town":"岩室","town_kana":"イワムロ","prefecture_code":27},"0023":{"zip_code":"5890023","prefecture":"大阪府","prefecture_kana":"オオサカフ","city":"大阪狭山市","city_kana":"オオサカサヤマシ","town":"大野台","town_kana":"オオノダイ","prefecture_code":27},"0015":{"zip_code":"5890015","prefecture":"大阪府","prefecture_kana":"オオサカフ","city":"大阪狭山市","city_kana":"オオサカサヤマシ","town":"大野中","town_kana":"オオノナカ","prefecture_code":27},"0014":{"zip_code":"5890014","prefecture":"大阪府","prefecture_kana":"オオサカフ","city":"大阪狭山市","city_kana":"オオサカサヤマシ","town":"大野東","town_kana":"オオノヒガシ","prefecture_code":27},"0016":{"zip_code":"5890016","prefecture":"大阪府","prefecture_kana":"オオサカフ","city":"大阪狭山市","city_kana":"オオサカサヤマシ","town":"大野西","town_kana":"オオノニシ","prefecture_code":27},"0013":{"zip_code":"5890013","prefecture":"大阪府","prefecture_kana":"オオサカフ","city":"大阪狭山市","city_kana":"オオサカサヤマシ","town":"茱萸木","town_kana":"クミノキ","prefecture_code":27},"0006":{"zip_code":"5890006","prefecture":"大阪府","prefecture_kana":"オオサカフ","city":"大阪狭山市","city_kana":"オオサカサヤマシ","town":"金剛","town_kana":"コンゴウ","prefecture_code":27},"0005":{"zip_code":"5890005","prefecture":"大阪府","prefecture_kana":"オオサカフ","city":"大阪狭山市","city_kana":"オオサカサヤマシ","town":"狭山","town_kana":"サヤマ","prefecture_code":27},"0022":{"zip_code":"5890022","prefecture":"大阪府","prefecture_kana":"オオサカフ","city":"大阪狭山市","city_kana":"オオサカサヤマシ","town":"西山台","town_kana":"ニシヤマダイ","prefecture_code":27},"0011":{"zip_code":"5890011","prefecture":"大阪府","prefecture_kana":"オオサカフ","city":"大阪狭山市","city_kana":"オオサカサヤマシ","town":"半田","town_kana":"ハンダ","prefecture_code":27},"0004":{"zip_code":"5890004","prefecture":"大阪府","prefecture_kana":"オオサカフ","city":"大阪狭山市","city_kana":"オオサカサヤマシ","town":"東池尻","town_kana":"ヒガシイケジリ","prefecture_code":27},"0012":{"zip_code":"5890012","prefecture":"大阪府","prefecture_kana":"オオサカフ","city":"大阪狭山市","city_kana":"オオサカサヤマシ","town":"東茱萸木","town_kana":"ヒガシクミノキ","prefecture_code":27},"0002":{"zip_code":"5890002","prefecture":"大阪府","prefecture_kana":"オオサカフ","city":"大阪狭山市","city_kana":"オオサカサヤマシ","town":"東野中","town_kana":"ヒガシノナカ","prefecture_code":27},"0003":{"zip_code":"5890003","prefecture":"大阪府","prefecture_kana":"オオサカフ","city":"大阪狭山市","city_kana":"オオサカサヤマシ","town":"東野東","town_kana":"ヒガシノヒガシ","prefecture_code":27},"0001":{"zip_code":"5890001","prefecture":"大阪府","prefecture_kana":"オオサカフ","city":"大阪狭山市","city_kana":"オオサカサヤマシ","town":"東野西","town_kana":"ヒガシノニシ","prefecture_code":27},"0034":{"zip_code":"5890034","prefecture":"大阪府","prefecture_kana":"オオサカフ","city":"大阪狭山市","city_kana":"オオサカサヤマシ","town":"山本中","town_kana":"ヤマモトナカ","prefecture_code":27},"0036":{"zip_code":"5890036","prefecture":"大阪府","prefecture_kana":"オオサカフ","city":"大阪狭山市","city_kana":"オオサカサヤマシ","town":"山本東","town_kana":"ヤマモトヒガシ","prefecture_code":27},"0033":{"zip_code":"5890033","prefecture":"大阪府","prefecture_kana":"オオサカフ","city":"大阪狭山市","city_kana":"オオサカサヤマシ","town":"山本南","town_kana":"ヤマモトミナミ","prefecture_code":27},"0035":{"zip_code":"5890035","prefecture":"大阪府","prefecture_kana":"オオサカフ","city":"大阪狭山市","city_kana":"オオサカサヤマシ","town":"山本北","town_kana":"ヤマモトキタ","prefecture_code":27}}