{"0000":{"zip_code":"5900000","prefecture":"大阪府","prefecture_kana":"オオサカフ","city":"堺市堺区","city_kana":"サカイシサカイク","town":"以下に掲載がない場合","town_kana":"イカニケイサイガナイバアイ","prefecture_code":27},"0012":{"zip_code":"5900012","prefecture":"大阪府","prefecture_kana":"オオサカフ","city":"堺市堺区","city_kana":"サカイシサカイク","town":"浅香山町","town_kana":"アサカヤマチョウ","prefecture_code":27},"0809":{"zip_code":"5900809","prefecture":"大阪府","prefecture_kana":"オオサカフ","city":"堺市堺区","city_kana":"サカイシサカイク","town":"旭ケ丘北町","town_kana":"アサヒガオカキタマチ","prefecture_code":27},"0808":{"zip_code":"5900808","prefecture":"大阪府","prefecture_kana":"オオサカフ","city":"堺市堺区","city_kana":"サカイシサカイク","town":"旭ケ丘中町","town_kana":"アサヒガオカナカマチ","prefecture_code":27},"0807":{"zip_code":"5900807","prefecture":"大阪府","prefecture_kana":"オオサカフ","city":"堺市堺区","city_kana":"サカイシサカイク","town":"旭ケ丘南町","town_kana":"アサヒガオカミナミマチ","prefecture_code":27},"0055":{"zip_code":"5900055","prefecture":"大阪府","prefecture_kana":"オオサカフ","city":"堺市堺区","city_kana":"サカイシサカイク","town":"旭通","town_kana":"アサヒドオリ","prefecture_code":27},"0926":{"zip_code":"5900926","prefecture":"大阪府","prefecture_kana":"オオサカフ","city":"堺市堺区","city_kana":"サカイシサカイク","town":"綾之町西","town_kana":"アヤノチョウニシ","prefecture_code":27},"0925":{"zip_code":"5900925","prefecture":"大阪府","prefecture_kana":"オオサカフ","city":"堺市堺区","city_kana":"サカイシサカイク","town":"綾之町東","town_kana":"アヤノチョウヒガシ","prefecture_code":27},"0823":{"zip_code":"5900823","prefecture":"大阪府","prefecture_kana":"オオサカフ","city":"堺市堺区","city_kana":"サカイシサカイク","town":"石津北町","town_kana":"イシヅキタマチ","prefecture_code":27},"0814":{"zip_code":"5900814","prefecture":"大阪府","prefecture_kana":"オオサカフ","city":"堺市堺区","city_kana":"サカイシサカイク","town":"石津町","town_kana":"イシヅチョウ","prefecture_code":27},"0048":{"zip_code":"5900048","prefecture":"大阪府","prefecture_kana":"オオサカフ","city":"堺市堺区","city_kana":"サカイシサカイク","town":"一条通","town_kana":"イチジョウドオリ","prefecture_code":27},"0951":{"zip_code":"5900951","prefecture":"大阪府","prefecture_kana":"オオサカフ","city":"堺市堺区","city_kana":"サカイシサカイク","town":"市之町西","town_kana":"イチノチョウニシ","prefecture_code":27},"0952":{"zip_code":"5900952","prefecture":"大阪府","prefecture_kana":"オオサカフ","city":"堺市堺区","city_kana":"サカイシサカイク","town":"市之町東","town_kana":"イチノチョウヒガシ","prefecture_code":27},"0018":{"zip_code":"5900018","prefecture":"大阪府","prefecture_kana":"オオサカフ","city":"堺市堺区","city_kana":"サカイシサカイク","town":"今池町","town_kana":"イマイケチョウ","prefecture_code":27},"0065":{"zip_code":"5900065","prefecture":"大阪府","prefecture_kana":"オオサカフ","city":"堺市堺区","city_kana":"サカイシサカイク","town":"永代町","town_kana":"エイタイチョウ","prefecture_code":27},"0027":{"zip_code":"5900027","prefecture":"大阪府","prefecture_kana":"オオサカフ","city":"堺市堺区","city_kana":"サカイシサカイク","town":"榎元町","town_kana":"エノキモトマチ","prefecture_code":27},"0985":{"zip_code":"5900985","prefecture":"大阪府","prefecture_kana":"オオサカフ","city":"堺市堺区","city_kana":"サカイシサカイク","town":"戎島町","town_kana":"エビスジマチョウ","prefecture_code":27},"0948":{"zip_code":"5900948","prefecture":"大阪府","prefecture_kana":"オオサカフ","city":"堺市堺区","city_kana":"サカイシサカイク","town":"戎之町西","town_kana":"エビスノチョウニシ","prefecture_code":27},"0945":{"zip_code":"5900945","prefecture":"大阪府","prefecture_kana":"オオサカフ","city":"堺市堺区","city_kana":"サカイシサカイク","town":"戎之町東","town_kana":"エビスノチョウヒガシ","prefecture_code":27},"0824":{"zip_code":"5900824","prefecture":"大阪府","prefecture_kana":"オオサカフ","city":"堺市堺区","city_kana":"サカイシサカイク","town":"老松町","town_kana":"オイマツチョウ","prefecture_code":27},"0959":{"zip_code":"5900959","prefecture":"大阪府","prefecture_kana":"オオサカフ","city":"堺市堺区","city_kana":"サカイシサカイク","town":"大町西","town_kana":"オオチョウニシ","prefecture_code":27},"0954":{"zip_code":"5900954","prefecture":"大阪府","prefecture_kana":"オオサカフ","city":"堺市堺区","city_kana":"サカイシサカイク","town":"大町東","town_kana":"オオチョウヒガシ","prefecture_code":27},"0974":{"zip_code":"5900974","prefecture":"大阪府","prefecture_kana":"オオサカフ","city":"堺市堺区","city_kana":"サカイシサカイク","town":"大浜北町","town_kana":"オオハマキタマチ","prefecture_code":27},"0975":{"zip_code":"5900975","prefecture":"大阪府","prefecture_kana":"オオサカフ","city":"堺市堺区","city_kana":"サカイシサカイク","town":"大浜中町","town_kana":"オオハマナカマチ","prefecture_code":27},"0977":{"zip_code":"5900977","prefecture":"大阪府","prefecture_kana":"オオサカフ","city":"堺市堺区","city_kana":"サカイシサカイク","town":"大浜西町","town_kana":"オオハマニシマチ","prefecture_code":27},"0976":{"zip_code":"5900976","prefecture":"大阪府","prefecture_kana":"オオサカフ","city":"堺市堺区","city_kana":"サカイシサカイク","town":"大浜南町","town_kana":"オオハマミナミマチ","prefecture_code":27},"0061":{"zip_code":"5900061","prefecture":"大阪府","prefecture_kana":"オオサカフ","city":"堺市堺区","city_kana":"サカイシサカイク","town":"翁橋町","town_kana":"オキナバシチョウ","prefecture_code":27},"0001":{"zip_code":"5900001","prefecture":"大阪府","prefecture_kana":"オオサカフ","city":"堺市堺区","city_kana":"サカイシサカイク","town":"遠里小野町","town_kana":"オリオノチョウ","prefecture_code":27},"0982":{"zip_code":"5900982","prefecture":"大阪府","prefecture_kana":"オオサカフ","city":"堺市堺区","city_kana":"サカイシサカイク","town":"海山町","town_kana":"カイサンチョウ","prefecture_code":27},"0950":{"zip_code":"5900950","prefecture":"大阪府","prefecture_kana":"オオサカフ","city":"堺市堺区","city_kana":"サカイシサカイク","town":"甲斐町西","town_kana":"カイノチョウニシ","prefecture_code":27},"0953":{"zip_code":"5900953","prefecture":"大阪府","prefecture_kana":"オオサカフ","city":"堺市堺区","city_kana":"サカイシサカイク","town":"甲斐町東","town_kana":"カイノチョウヒガシ","prefecture_code":27},"0011":{"zip_code":"5900011","prefecture":"大阪府","prefecture_kana":"オオサカフ","city":"堺市堺区","city_kana":"サカイシサカイク","town":"香ケ丘町","town_kana":"カオリガオカチョウ","prefecture_code":27},"0837":{"zip_code":"5900837","prefecture":"大阪府","prefecture_kana":"オオサカフ","city":"堺市堺区","city_kana":"サカイシサカイク","town":"柏木町","town_kana":"カシワギチョウ","prefecture_code":27},"0827":{"zip_code":"5900827","prefecture":"大阪府","prefecture_kana":"オオサカフ","city":"堺市堺区","city_kana":"サカイシサカイク","town":"春日通","town_kana":"カスガドオリ","prefecture_code":27},"0812":{"zip_code":"5900812","prefecture":"大阪府","prefecture_kana":"オオサカフ","city":"堺市堺区","city_kana":"サカイシサカイク","town":"霞ケ丘町","town_kana":"カスミガオカチョウ","prefecture_code":27},"0813":{"zip_code":"5900813","prefecture":"大阪府","prefecture_kana":"オオサカフ","city":"堺市堺区","city_kana":"サカイシサカイク","town":"神石市之町","town_kana":"カミイシイチノチョウ","prefecture_code":27},"0984":{"zip_code":"5900984","prefecture":"大阪府","prefecture_kana":"オオサカフ","city":"堺市堺区","city_kana":"サカイシサカイク","town":"神南辺町","town_kana":"カンナベチョウ","prefecture_code":27},"0076":{"zip_code":"5900076","prefecture":"大阪府","prefecture_kana":"オオサカフ","city":"堺市堺区","city_kana":"サカイシサカイク","town":"北瓦町","town_kana":"キタカワラマチ","prefecture_code":27},"0071":{"zip_code":"5900071","prefecture":"大阪府","prefecture_kana":"オオサカフ","city":"堺市堺区","city_kana":"サカイシサカイク","town":"北向陽町","town_kana":"キタコウヨウチョウ","prefecture_code":27},"0004":{"zip_code":"5900004","prefecture":"大阪府","prefecture_kana":"オオサカフ","city":"堺市堺区","city_kana":"サカイシサカイク","town":"北清水町","town_kana":"キタシミズチョウ","prefecture_code":27},"0007":{"zip_code":"5900007","prefecture":"大阪府","prefecture_kana":"オオサカフ","city":"堺市堺区","city_kana":"サカイシサカイク","town":"北庄町","town_kana":"キタショウチョウ","prefecture_code":27},"0017":{"zip_code":"5900017","prefecture":"大阪府","prefecture_kana":"オオサカフ","city":"堺市堺区","city_kana":"サカイシサカイク","town":"北田出井町","town_kana":"キタタデイチョウ","prefecture_code":27},"0928":{"zip_code":"5900928","prefecture":"大阪府","prefecture_kana":"オオサカフ","city":"堺市堺区","city_kana":"サカイシサカイク","town":"北旅籠町西","town_kana":"キタハタゴチョウニシ","prefecture_code":27},"0923":{"zip_code":"5900923","prefecture":"大阪府","prefecture_kana":"オオサカフ","city":"堺市堺区","city_kana":"サカイシサカイク","town":"北旅籠町東","town_kana":"キタハタゴチョウヒガシ","prefecture_code":27},"0986":{"zip_code":"5900986","prefecture":"大阪府","prefecture_kana":"オオサカフ","city":"堺市堺区","city_kana":"サカイシサカイク","town":"北波止町","town_kana":"キタハトチョウ","prefecture_code":27},"0074":{"zip_code":"5900074","prefecture":"大阪府","prefecture_kana":"オオサカフ","city":"堺市堺区","city_kana":"サカイシサカイク","town":"北花田口町","town_kana":"キタハナダグチチョウ","prefecture_code":27},"0921":{"zip_code":"5900921","prefecture":"大阪府","prefecture_kana":"オオサカフ","city":"堺市堺区","city_kana":"サカイシサカイク","town":"北半町西","town_kana":"キタハンチョウニシ","prefecture_code":27},"0922":{"zip_code":"5900922","prefecture":"大阪府","prefecture_kana":"オオサカフ","city":"堺市堺区","city_kana":"サカイシサカイク","town":"北半町東","town_kana":"キタハンチョウヒガシ","prefecture_code":27},"0037":{"zip_code":"5900037","prefecture":"大阪府","prefecture_kana":"オオサカフ","city":"堺市堺区","city_kana":"サカイシサカイク","town":"北丸保園","town_kana":"キタマルホエン","prefecture_code":27},"0021":{"zip_code":"5900021","prefecture":"大阪府","prefecture_kana":"オオサカフ","city":"堺市堺区","city_kana":"サカイシサカイク","town":"北三国ケ丘町","town_kana":"キタミクニガオカチョウ","prefecture_code":27},"0062":{"zip_code":"5900062","prefecture":"大阪府","prefecture_kana":"オオサカフ","city":"堺市堺区","city_kana":"サカイシサカイク","town":"北安井町","town_kana":"キタヤスイチョウ","prefecture_code":27},"0054":{"zip_code":"5900054","prefecture":"大阪府","prefecture_kana":"オオサカフ","city":"堺市堺区","city_kana":"サカイシサカイク","town":"京町通","town_kana":"キョウマチドオリ","prefecture_code":27},"0822":{"zip_code":"5900822","prefecture":"大阪府","prefecture_kana":"オオサカフ","city":"堺市堺区","city_kana":"サカイシサカイク","town":"協和町","town_kana":"キョウワチョウ","prefecture_code":27},"0006":{"zip_code":"5900006","prefecture":"大阪府","prefecture_kana":"オオサカフ","city":"堺市堺区","city_kana":"サカイシサカイク","town":"錦綾町","town_kana":"キンリョウチョウ","prefecture_code":27},"0939":{"zip_code":"5900939","prefecture":"大阪府","prefecture_kana":"オオサカフ","city":"堺市堺区","city_kana":"サカイシサカイク","town":"九間町西","town_kana":"クケンチョウニシ","prefecture_code":27},"0934":{"zip_code":"5900934","prefecture":"大阪府","prefecture_kana":"オオサカフ","city":"堺市堺区","city_kana":"サカイシサカイク","town":"九間町東","town_kana":"クケンチョウヒガシ","prefecture_code":27},"0949":{"zip_code":"5900949","prefecture":"大阪府","prefecture_kana":"オオサカフ","city":"堺市堺区","city_kana":"サカイシサカイク","town":"櫛屋町西","town_kana":"クシヤチョウニシ","prefecture_code":27},"0944":{"zip_code":"5900944","prefecture":"大阪府","prefecture_kana":"オオサカフ","city":"堺市堺区","city_kana":"サカイシサカイク","town":"櫛屋町東","town_kana":"クシヤチョウヒガシ","prefecture_code":27},"0836":{"zip_code":"5900836","prefecture":"大阪府","prefecture_kana":"オオサカフ","city":"堺市堺区","city_kana":"サカイシサカイク","town":"楠町","town_kana":"クスノキチョウ","prefecture_code":27},"0947":{"zip_code":"5900947","prefecture":"大阪府","prefecture_kana":"オオサカフ","city":"堺市堺区","city_kana":"サカイシサカイク","town":"熊野町西","town_kana":"クマノチョウニシ","prefecture_code":27},"0946":{"zip_code":"5900946","prefecture":"大阪府","prefecture_kana":"オオサカフ","city":"堺市堺区","city_kana":"サカイシサカイク","town":"熊野町東","town_kana":"クマノチョウヒガシ","prefecture_code":27},"0940":{"zip_code":"5900940","prefecture":"大阪府","prefecture_kana":"オオサカフ","city":"堺市堺区","city_kana":"サカイシサカイク","town":"車之町西","town_kana":"クルマノチョウニシ","prefecture_code":27},"0943":{"zip_code":"5900943","prefecture":"大阪府","prefecture_kana":"オオサカフ","city":"堺市堺区","city_kana":"サカイシサカイク","town":"車之町東","town_kana":"クルマノチョウヒガシ","prefecture_code":27},"0024":{"zip_code":"5900024","prefecture":"大阪府","prefecture_kana":"オオサカフ","city":"堺市堺区","city_kana":"サカイシサカイク","town":"向陵中町","town_kana":"コウリョウナカマチ","prefecture_code":27},"0026":{"zip_code":"5900026","prefecture":"大阪府","prefecture_kana":"オオサカフ","city":"堺市堺区","city_kana":"サカイシサカイク","town":"向陵西町","town_kana":"コウリョウニシマチ","prefecture_code":27},"0025":{"zip_code":"5900025","prefecture":"大阪府","prefecture_kana":"オオサカフ","city":"堺市堺区","city_kana":"サカイシサカイク","town":"向陵東町","town_kana":"コウリョウヒガシマチ","prefecture_code":27},"0044":{"zip_code":"5900044","prefecture":"大阪府","prefecture_kana":"オオサカフ","city":"堺市堺区","city_kana":"サカイシサカイク","town":"五条通","town_kana":"ゴジョウドオリ","prefecture_code":27},"0057":{"zip_code":"5900057","prefecture":"大阪府","prefecture_kana":"オオサカフ","city":"堺市堺区","city_kana":"サカイシサカイク","town":"御陵通","town_kana":"ゴリョウドオリ","prefecture_code":27},"0941":{"zip_code":"5900941","prefecture":"大阪府","prefecture_kana":"オオサカフ","city":"堺市堺区","city_kana":"サカイシサカイク","town":"材木町西","town_kana":"ザイモクチョウニシ","prefecture_code":27},"0942":{"zip_code":"5900942","prefecture":"大阪府","prefecture_kana":"オオサカフ","city":"堺市堺区","city_kana":"サカイシサカイク","town":"材木町東","town_kana":"ザイモクチョウヒガシ","prefecture_code":27},"0051":{"zip_code":"5900051","prefecture":"大阪府","prefecture_kana":"オオサカフ","city":"堺市堺区","city_kana":"サカイシサカイク","town":"幸通","town_kana":"サイワイドオリ","prefecture_code":27},"0971":{"zip_code":"5900971","prefecture":"大阪府","prefecture_kana":"オオサカフ","city":"堺市堺区","city_kana":"サカイシサカイク","town":"栄橋町","town_kana":"サカエバシチョウ","prefecture_code":27},"0927":{"zip_code":"5900927","prefecture":"大阪府","prefecture_kana":"オオサカフ","city":"堺市堺区","city_kana":"サカイシサカイク","town":"桜之町西","town_kana":"サクラノチョウニシ","prefecture_code":27},"0924":{"zip_code":"5900924","prefecture":"大阪府","prefecture_kana":"オオサカフ","city":"堺市堺区","city_kana":"サカイシサカイク","town":"桜之町東","town_kana":"サクラノチョウヒガシ","prefecture_code":27},"0031":{"zip_code":"5900031","prefecture":"大阪府","prefecture_kana":"オオサカフ","city":"堺市堺区","city_kana":"サカイシサカイク","town":"五月町","town_kana":"サツキチョウ","prefecture_code":27},"0046":{"zip_code":"5900046","prefecture":"大阪府","prefecture_kana":"オオサカフ","city":"堺市堺区","city_kana":"サカイシサカイク","town":"三条通","town_kana":"サンジョウドオリ","prefecture_code":27},"0906":{"zip_code":"5900906","prefecture":"大阪府","prefecture_kana":"オオサカフ","city":"堺市堺区","city_kana":"サカイシサカイク","town":"三宝町","town_kana":"サンボウチョウ","prefecture_code":27},"0981":{"zip_code":"5900981","prefecture":"大阪府","prefecture_kana":"オオサカフ","city":"堺市堺区","city_kana":"サカイシサカイク","town":"塩浜町","town_kana":"シオハマチョウ","prefecture_code":27},"0045":{"zip_code":"5900045","prefecture":"大阪府","prefecture_kana":"オオサカフ","city":"堺市堺区","city_kana":"サカイシサカイク","town":"四条通","town_kana":"シジョウドオリ","prefecture_code":27},"0042":{"zip_code":"5900042","prefecture":"大阪府","prefecture_kana":"オオサカフ","city":"堺市堺区","city_kana":"サカイシサカイク","town":"七条通","town_kana":"シチジョウドオリ","prefecture_code":27},"0911":{"zip_code":"5900911","prefecture":"大阪府","prefecture_kana":"オオサカフ","city":"堺市堺区","city_kana":"サカイシサカイク","town":"七道西町","town_kana":"シチドウニシマチ","prefecture_code":27},"0913":{"zip_code":"5900913","prefecture":"大阪府","prefecture_kana":"オオサカフ","city":"堺市堺区","city_kana":"サカイシサカイク","town":"七道東町","town_kana":"シチドウヒガシマチ","prefecture_code":27},"0013":{"zip_code":"5900013","prefecture":"大阪府","prefecture_kana":"オオサカフ","city":"堺市堺区","city_kana":"サカイシサカイク","town":"東雲西町","town_kana":"シノノメニシマチ","prefecture_code":27},"0958":{"zip_code":"5900958","prefecture":"大阪府","prefecture_kana":"オオサカフ","city":"堺市堺区","city_kana":"サカイシサカイク","town":"宿院町西","town_kana":"シュクインチョウニシ","prefecture_code":27},"0955":{"zip_code":"5900955","prefecture":"大阪府","prefecture_kana":"オオサカフ","city":"堺市堺区","city_kana":"サカイシサカイク","town":"宿院町東","town_kana":"シュクインチョウヒガシ","prefecture_code":27},"0937":{"zip_code":"5900937","prefecture":"大阪府","prefecture_kana":"オオサカフ","city":"堺市堺区","city_kana":"サカイシサカイク","town":"宿屋町西","town_kana":"シュクヤチョウニシ","prefecture_code":27},"0936":{"zip_code":"5900936","prefecture":"大阪府","prefecture_kana":"オオサカフ","city":"堺市堺区","city_kana":"サカイシサカイク","town":"宿屋町東","town_kana":"シュクヤチョウヒガシ","prefecture_code":27},"0960":{"zip_code":"5900960","prefecture":"大阪府","prefecture_kana":"オオサカフ","city":"堺市堺区","city_kana":"サカイシサカイク","town":"少林寺町西","town_kana":"ショウリンジチョウニシ","prefecture_code":27},"0963":{"zip_code":"5900963","prefecture":"大阪府","prefecture_kana":"オオサカフ","city":"堺市堺区","city_kana":"サカイシサカイク","town":"少林寺町東","town_kana":"ショウリンジチョウヒガシ","prefecture_code":27},"0825":{"zip_code":"5900825","prefecture":"大阪府","prefecture_kana":"オオサカフ","city":"堺市堺区","city_kana":"サカイシサカイク","town":"昭和通","town_kana":"ショウワドオリ","prefecture_code":27},"0969":{"zip_code":"5900969","prefecture":"大阪府","prefecture_kana":"オオサカフ","city":"堺市堺区","city_kana":"サカイシサカイク","town":"新在家町西","town_kana":"シンザイケチョウニシ","prefecture_code":27},"0964":{"zip_code":"5900964","prefecture":"大阪府","prefecture_kana":"オオサカフ","city":"堺市堺区","city_kana":"サカイシサカイク","town":"新在家町東","town_kana":"シンザイケチョウヒガシ","prefecture_code":27},"0056":{"zip_code":"5900056","prefecture":"大阪府","prefecture_kana":"オオサカフ","city":"堺市堺区","city_kana":"サカイシサカイク","town":"神保通","town_kana":"シンポドオリ","prefecture_code":27},"0079":{"zip_code":"5900079","prefecture":"大阪府","prefecture_kana":"オオサカフ","city":"堺市堺区","city_kana":"サカイシサカイク","town":"新町","town_kana":"シンマチ","prefecture_code":27},"0938":{"zip_code":"5900938","prefecture":"大阪府","prefecture_kana":"オオサカフ","city":"堺市堺区","city_kana":"サカイシサカイク","town":"神明町西","town_kana":"シンメイチョウニシ","prefecture_code":27},"0935":{"zip_code":"5900935","prefecture":"大阪府","prefecture_kana":"オオサカフ","city":"堺市堺区","city_kana":"サカイシサカイク","town":"神明町東","town_kana":"シンメイチョウヒガシ","prefecture_code":27},"0826":{"zip_code":"5900826","prefecture":"大阪府","prefecture_kana":"オオサカフ","city":"堺市堺区","city_kana":"サカイシサカイク","town":"菅原通","town_kana":"スガハラドオリ","prefecture_code":27},"0002":{"zip_code":"5900002","prefecture":"大阪府","prefecture_kana":"オオサカフ","city":"堺市堺区","city_kana":"サカイシサカイク","town":"砂道町","town_kana":"スナミチチョウ","prefecture_code":27},"0973":{"zip_code":"5900973","prefecture":"大阪府","prefecture_kana":"オオサカフ","city":"堺市堺区","city_kana":"サカイシサカイク","town":"住吉橋町","town_kana":"スミヨシバシチョウ","prefecture_code":27},"0035":{"zip_code":"5900035","prefecture":"大阪府","prefecture_kana":"オオサカフ","city":"堺市堺区","city_kana":"サカイシサカイク","town":"大仙町","town_kana":"ダイセンチョウ","prefecture_code":27},"0801":{"zip_code":"5900801","prefecture":"大阪府","prefecture_kana":"オオサカフ","city":"堺市堺区","city_kana":"サカイシサカイク","town":"大仙中町","town_kana":"ダイセンナカマチ","prefecture_code":27},"0821":{"zip_code":"5900821","prefecture":"大阪府","prefecture_kana":"オオサカフ","city":"堺市堺区","city_kana":"サカイシサカイク","town":"大仙西町","town_kana":"ダイセンニシマチ","prefecture_code":27},"0820":{"zip_code":"5900820","prefecture":"大阪府","prefecture_kana":"オオサカフ","city":"堺市堺区","city_kana":"サカイシサカイク","town":"高砂町","town_kana":"タカサゴチョウ","prefecture_code":27},"0003":{"zip_code":"5900003","prefecture":"大阪府","prefecture_kana":"オオサカフ","city":"堺市堺区","city_kana":"サカイシサカイク","town":"高須町","town_kana":"タカスチョウ","prefecture_code":27},"0908":{"zip_code":"5900908","prefecture":"大阪府","prefecture_kana":"オオサカフ","city":"堺市堺区","city_kana":"サカイシサカイク","town":"匠町","town_kana":"タクミチョウ","prefecture_code":27},"0014":{"zip_code":"5900014","prefecture":"大阪府","prefecture_kana":"オオサカフ","city":"堺市堺区","city_kana":"サカイシサカイク","town":"田出井町","town_kana":"タデイチョウ","prefecture_code":27},"0987":{"zip_code":"5900987","prefecture":"大阪府","prefecture_kana":"オオサカフ","city":"堺市堺区","city_kana":"サカイシサカイク","town":"築港南町","town_kana":"チッコウミナミマチ","prefecture_code":27},"0901":{"zip_code":"5900901","prefecture":"大阪府","prefecture_kana":"オオサカフ","city":"堺市堺区","city_kana":"サカイシサカイク","town":"築港八幡町","town_kana":"チッコウヤワタマチ","prefecture_code":27},"0833":{"zip_code":"5900833","prefecture":"大阪府","prefecture_kana":"オオサカフ","city":"堺市堺区","city_kana":"サカイシサカイク","town":"出島海岸通","town_kana":"デジマカイガンドオリ","prefecture_code":27},"0834":{"zip_code":"5900834","prefecture":"大阪府","prefecture_kana":"オオサカフ","city":"堺市堺区","city_kana":"サカイシサカイク","town":"出島町","town_kana":"デジマチョウ","prefecture_code":27},"0831":{"zip_code":"5900831","prefecture":"大阪府","prefecture_kana":"オオサカフ","city":"堺市堺区","city_kana":"サカイシサカイク","town":"出島西町","town_kana":"デジマニシマチ","prefecture_code":27},"0832":{"zip_code":"5900832","prefecture":"大阪府","prefecture_kana":"オオサカフ","city":"堺市堺区","city_kana":"サカイシサカイク","town":"出島浜通","town_kana":"デジマハマドオリ","prefecture_code":27},"0905":{"zip_code":"5900905","prefecture":"大阪府","prefecture_kana":"オオサカフ","city":"堺市堺区","city_kana":"サカイシサカイク","town":"鉄砲町","town_kana":"テッポウチョウ","prefecture_code":27},"0961":{"zip_code":"5900961","prefecture":"大阪府","prefecture_kana":"オオサカフ","city":"堺市堺区","city_kana":"サカイシサカイク","town":"寺地町西","town_kana":"テラジチョウニシ","prefecture_code":27},"0962":{"zip_code":"5900962","prefecture":"大阪府","prefecture_kana":"オオサカフ","city":"堺市堺区","city_kana":"サカイシサカイク","town":"寺地町東","town_kana":"テラジチョウヒガシ","prefecture_code":27},"0077":{"zip_code":"5900077","prefecture":"大阪府","prefecture_kana":"オオサカフ","city":"堺市堺区","city_kana":"サカイシサカイク","town":"中瓦町","town_kana":"ナカカワラマチ","prefecture_code":27},"0072":{"zip_code":"5900072","prefecture":"大阪府","prefecture_kana":"オオサカフ","city":"堺市堺区","city_kana":"サカイシサカイク","town":"中向陽町","town_kana":"ナカコウヨウチョウ","prefecture_code":27},"0016":{"zip_code":"5900016","prefecture":"大阪府","prefecture_kana":"オオサカフ","city":"堺市堺区","city_kana":"サカイシサカイク","town":"中田出井町","town_kana":"ナカタデイチョウ","prefecture_code":27},"0033":{"zip_code":"5900033","prefecture":"大阪府","prefecture_kana":"オオサカフ","city":"堺市堺区","city_kana":"サカイシサカイク","town":"中永山園","town_kana":"ナカナガヤマエン","prefecture_code":27},"0957":{"zip_code":"5900957","prefecture":"大阪府","prefecture_kana":"オオサカフ","city":"堺市堺区","city_kana":"サカイシサカイク","town":"中之町西","town_kana":"ナカノチョウニシ","prefecture_code":27},"0956":{"zip_code":"5900956","prefecture":"大阪府","prefecture_kana":"オオサカフ","city":"堺市堺区","city_kana":"サカイシサカイク","town":"中之町東","town_kana":"ナカノチョウヒガシ","prefecture_code":27},"0022":{"zip_code":"5900022","prefecture":"大阪府","prefecture_kana":"オオサカフ","city":"堺市堺区","city_kana":"サカイシサカイク","town":"中三国ケ丘町","town_kana":"ナカミクニガオカチョウ","prefecture_code":27},"0063":{"zip_code":"5900063","prefecture":"大阪府","prefecture_kana":"オオサカフ","city":"堺市堺区","city_kana":"サカイシサカイク","town":"中安井町","town_kana":"ナカヤスイチョウ","prefecture_code":27},"0912":{"zip_code":"5900912","prefecture":"大阪府","prefecture_kana":"オオサカフ","city":"堺市堺区","city_kana":"サカイシサカイク","town":"並松町","town_kana":"ナミマツチョウ","prefecture_code":27},"0811":{"zip_code":"5900811","prefecture":"大阪府","prefecture_kana":"オオサカフ","city":"堺市堺区","city_kana":"サカイシサカイク","town":"南陵町","town_kana":"ナンリョウチョウ","prefecture_code":27},"0066":{"zip_code":"5900066","prefecture":"大阪府","prefecture_kana":"オオサカフ","city":"堺市堺区","city_kana":"サカイシサカイク","town":"賑町","town_kana":"ニギワイチョウ","prefecture_code":27},"0931":{"zip_code":"5900931","prefecture":"大阪府","prefecture_kana":"オオサカフ","city":"堺市堺区","city_kana":"サカイシサカイク","town":"錦之町西","town_kana":"ニシキノチョウニシ","prefecture_code":27},"0932":{"zip_code":"5900932","prefecture":"大阪府","prefecture_kana":"オオサカフ","city":"堺市堺区","city_kana":"サカイシサカイク","town":"錦之町東","town_kana":"ニシキノチョウヒガシ","prefecture_code":27},"0032":{"zip_code":"5900032","prefecture":"大阪府","prefecture_kana":"オオサカフ","city":"堺市堺区","city_kana":"サカイシサカイク","town":"西永山園","town_kana":"ニシナガヤマエン","prefecture_code":27},"0835":{"zip_code":"5900835","prefecture":"大阪府","prefecture_kana":"オオサカフ","city":"堺市堺区","city_kana":"サカイシサカイク","town":"西湊町","town_kana":"ニシミナトチョウ","prefecture_code":27},"0047":{"zip_code":"5900047","prefecture":"大阪府","prefecture_kana":"オオサカフ","city":"堺市堺区","city_kana":"サカイシサカイク","town":"二条通","town_kana":"ニジョウドオリ","prefecture_code":27},"0803":{"zip_code":"5900803","prefecture":"大阪府","prefecture_kana":"オオサカフ","city":"堺市堺区","city_kana":"サカイシサカイク","town":"東上野芝町（１丁）","town_kana":"ヒガシウエノシバチョウ(1チョウ)","prefecture_code":27},"0034":{"zip_code":"5900034","prefecture":"大阪府","prefecture_kana":"オオサカフ","city":"堺市堺区","city_kana":"サカイシサカイク","town":"東永山園","town_kana":"ヒガシナガヤマエン","prefecture_code":27},"0829":{"zip_code":"5900829","prefecture":"大阪府","prefecture_kana":"オオサカフ","city":"堺市堺区","city_kana":"サカイシサカイク","town":"東湊町","town_kana":"ヒガシミナトチョウ","prefecture_code":27},"0903":{"zip_code":"5900903","prefecture":"大阪府","prefecture_kana":"オオサカフ","city":"堺市堺区","city_kana":"サカイシサカイク","town":"松屋町","town_kana":"マツヤチョウ","prefecture_code":27},"0902":{"zip_code":"5900902","prefecture":"大阪府","prefecture_kana":"オオサカフ","city":"堺市堺区","city_kana":"サカイシサカイク","town":"松屋大和川通","town_kana":"マツヤヤマトガワドオリ","prefecture_code":27},"0028":{"zip_code":"5900028","prefecture":"大阪府","prefecture_kana":"オオサカフ","city":"堺市堺区","city_kana":"サカイシサカイク","town":"三国ケ丘御幸通","town_kana":"ミクニガオカミユキドオリ","prefecture_code":27},"0806":{"zip_code":"5900806","prefecture":"大阪府","prefecture_kana":"オオサカフ","city":"堺市堺区","city_kana":"サカイシサカイク","town":"緑ヶ丘北町","town_kana":"ミドリガオカキタマチ","prefecture_code":27},"0805":{"zip_code":"5900805","prefecture":"大阪府","prefecture_kana":"オオサカフ","city":"堺市堺区","city_kana":"サカイシサカイク","town":"緑ヶ丘中町","town_kana":"ミドリガオカナカマチ","prefecture_code":27},"0804":{"zip_code":"5900804","prefecture":"大阪府","prefecture_kana":"オオサカフ","city":"堺市堺区","city_kana":"サカイシサカイク","town":"緑ヶ丘南町","town_kana":"ミドリガオカミナミマチ","prefecture_code":27},"0907":{"zip_code":"5900907","prefecture":"大阪府","prefecture_kana":"オオサカフ","city":"堺市堺区","city_kana":"サカイシサカイク","town":"緑町","town_kana":"ミドリチョウ","prefecture_code":27},"0078":{"zip_code":"5900078","prefecture":"大阪府","prefecture_kana":"オオサカフ","city":"堺市堺区","city_kana":"サカイシサカイク","town":"南瓦町","town_kana":"ミナミカワラマチ","prefecture_code":27},"0073":{"zip_code":"5900073","prefecture":"大阪府","prefecture_kana":"オオサカフ","city":"堺市堺区","city_kana":"サカイシサカイク","town":"南向陽町","town_kana":"ミナミコウヨウチョウ","prefecture_code":27},"0904":{"zip_code":"5900904","prefecture":"大阪府","prefecture_kana":"オオサカフ","city":"堺市堺区","city_kana":"サカイシサカイク","town":"南島町","town_kana":"ミナミジマチョウ","prefecture_code":27},"0005":{"zip_code":"5900005","prefecture":"大阪府","prefecture_kana":"オオサカフ","city":"堺市堺区","city_kana":"サカイシサカイク","town":"南清水町","town_kana":"ミナミシミズチョウ","prefecture_code":27},"0008":{"zip_code":"5900008","prefecture":"大阪府","prefecture_kana":"オオサカフ","city":"堺市堺区","city_kana":"サカイシサカイク","town":"南庄町","town_kana":"ミナミショウチョウ","prefecture_code":27},"0015":{"zip_code":"5900015","prefecture":"大阪府","prefecture_kana":"オオサカフ","city":"堺市堺区","city_kana":"サカイシサカイク","town":"南田出井町","town_kana":"ミナミタデイチョウ","prefecture_code":27},"0968":{"zip_code":"5900968","prefecture":"大阪府","prefecture_kana":"オオサカフ","city":"堺市堺区","city_kana":"サカイシサカイク","town":"南旅篭町西","town_kana":"ミナミハタゴチョウニシ","prefecture_code":27},"0965":{"zip_code":"5900965","prefecture":"大阪府","prefecture_kana":"オオサカフ","city":"堺市堺区","city_kana":"サカイシサカイク","town":"南旅篭町東","town_kana":"ミナミハタゴチョウヒガシ","prefecture_code":27},"0075":{"zip_code":"5900075","prefecture":"大阪府","prefecture_kana":"オオサカフ","city":"堺市堺区","city_kana":"サカイシサカイク","town":"南花田口町","town_kana":"ミナミハナダグチチョウ","prefecture_code":27},"0967":{"zip_code":"5900967","prefecture":"大阪府","prefecture_kana":"オオサカフ","city":"堺市堺区","city_kana":"サカイシサカイク","town":"南半町西","town_kana":"ミナミハンチョウニシ","prefecture_code":27},"0966":{"zip_code":"5900966","prefecture":"大阪府","prefecture_kana":"オオサカフ","city":"堺市堺区","city_kana":"サカイシサカイク","town":"南半町東","town_kana":"ミナミハンチョウヒガシ","prefecture_code":27},"0036":{"zip_code":"5900036","prefecture":"大阪府","prefecture_kana":"オオサカフ","city":"堺市堺区","city_kana":"サカイシサカイク","town":"南丸保園","town_kana":"ミナミマルホエン","prefecture_code":27},"0023":{"zip_code":"5900023","prefecture":"大阪府","prefecture_kana":"オオサカフ","city":"堺市堺区","city_kana":"サカイシサカイク","town":"南三国ケ丘町","town_kana":"ミナミミクニガオカチョウ","prefecture_code":27},"0064":{"zip_code":"5900064","prefecture":"大阪府","prefecture_kana":"オオサカフ","city":"堺市堺区","city_kana":"サカイシサカイク","town":"南安井町","town_kana":"ミナミヤスイチョウ","prefecture_code":27},"0802":{"zip_code":"5900802","prefecture":"大阪府","prefecture_kana":"オオサカフ","city":"堺市堺区","city_kana":"サカイシサカイク","town":"百舌鳥夕雲町","town_kana":"モズセキウンチョウ","prefecture_code":27},"0053":{"zip_code":"5900053","prefecture":"大阪府","prefecture_kana":"オオサカフ","city":"堺市堺区","city_kana":"サカイシサカイク","town":"文珠橋通","town_kana":"モンジュバシドオリ","prefecture_code":27},"0052":{"zip_code":"5900052","prefecture":"大阪府","prefecture_kana":"オオサカフ","city":"堺市堺区","city_kana":"サカイシサカイク","town":"八千代通","town_kana":"ヤチヨドオリ","prefecture_code":27},"0930":{"zip_code":"5900930","prefecture":"大阪府","prefecture_kana":"オオサカフ","city":"堺市堺区","city_kana":"サカイシサカイク","town":"柳之町西","town_kana":"ヤナギノチョウニシ","prefecture_code":27},"0933":{"zip_code":"5900933","prefecture":"大阪府","prefecture_kana":"オオサカフ","city":"堺市堺区","city_kana":"サカイシサカイク","town":"柳之町東","town_kana":"ヤナギノチョウヒガシ","prefecture_code":27},"0828":{"zip_code":"5900828","prefecture":"大阪府","prefecture_kana":"オオサカフ","city":"堺市堺区","city_kana":"サカイシサカイク","town":"八幡通","town_kana":"ヤハタドオリ","prefecture_code":27},"0983":{"zip_code":"5900983","prefecture":"大阪府","prefecture_kana":"オオサカフ","city":"堺市堺区","city_kana":"サカイシサカイク","town":"山本町","town_kana":"ヤマモトチョウ","prefecture_code":27},"0972":{"zip_code":"5900972","prefecture":"大阪府","prefecture_kana":"オオサカフ","city":"堺市堺区","city_kana":"サカイシサカイク","town":"竜神橋町","town_kana":"リュウジンバシチョウ","prefecture_code":27},"0041":{"zip_code":"5900041","prefecture":"大阪府","prefecture_kana":"オオサカフ","city":"堺市堺区","city_kana":"サカイシサカイク","town":"陵西通","town_kana":"リョウサイドオリ","prefecture_code":27},"0043":{"zip_code":"5900043","prefecture":"大阪府","prefecture_kana":"オオサカフ","city":"堺市堺区","city_kana":"サカイシサカイク","town":"六条通","town_kana":"ロクジョウドオリ","prefecture_code":27},"0100":{"zip_code":"5900100","prefecture":"大阪府","prefecture_kana":"オオサカフ","city":"堺市南区","city_kana":"サカイシミナミク","town":"以下に掲載がない場合","town_kana":"イカニケイサイガナイバアイ","prefecture_code":27},"0144":{"zip_code":"5900144","prefecture":"大阪府","prefecture_kana":"オオサカフ","city":"堺市南区","city_kana":"サカイシミナミク","town":"赤坂台","town_kana":"アカサカダイ","prefecture_code":27},"0126":{"zip_code":"5900126","prefecture":"大阪府","prefecture_kana":"オオサカフ","city":"堺市南区","city_kana":"サカイシミナミク","town":"泉田中","town_kana":"イズミタナカ","prefecture_code":27},"0156":{"zip_code":"5900156","prefecture":"大阪府","prefecture_kana":"オオサカフ","city":"堺市南区","city_kana":"サカイシミナミク","town":"稲葉","town_kana":"イナバ","prefecture_code":27},"0112":{"zip_code":"5900112","prefecture":"大阪府","prefecture_kana":"オオサカフ","city":"堺市南区","city_kana":"サカイシミナミク","town":"岩室","town_kana":"イワムロ","prefecture_code":27},"0153":{"zip_code":"5900153","prefecture":"大阪府","prefecture_kana":"オオサカフ","city":"堺市南区","city_kana":"サカイシミナミク","town":"大庭寺","town_kana":"オオバデラ","prefecture_code":27},"0145":{"zip_code":"5900145","prefecture":"大阪府","prefecture_kana":"オオサカフ","city":"堺市南区","city_kana":"サカイシミナミク","town":"大森","town_kana":"オオモリ","prefecture_code":27},"0121":{"zip_code":"5900121","prefecture":"大阪府","prefecture_kana":"オオサカフ","city":"堺市南区","city_kana":"サカイシミナミク","town":"片蔵","town_kana":"カタクラ","prefecture_code":27},"0122":{"zip_code":"5900122","prefecture":"大阪府","prefecture_kana":"オオサカフ","city":"堺市南区","city_kana":"サカイシミナミク","town":"釜室","town_kana":"カマムロ","prefecture_code":27},"0138":{"zip_code":"5900138","prefecture":"大阪府","prefecture_kana":"オオサカフ","city":"堺市南区","city_kana":"サカイシミナミク","town":"鴨谷台","town_kana":"カモタニダイ","prefecture_code":27},"0151":{"zip_code":"5900151","prefecture":"大阪府","prefecture_kana":"オオサカフ","city":"堺市南区","city_kana":"サカイシミナミク","town":"小代（その他）","town_kana":"コダイ(ソノタ)","prefecture_code":27},"0123":{"zip_code":"5900123","prefecture":"大阪府","prefecture_kana":"オオサカフ","city":"堺市南区","city_kana":"サカイシミナミク","town":"逆瀬川","town_kana":"サカセガワ","prefecture_code":27},"0137":{"zip_code":"5900137","prefecture":"大阪府","prefecture_kana":"オオサカフ","city":"堺市南区","city_kana":"サカイシミナミク","town":"城山台","town_kana":"シロヤマダイ","prefecture_code":27},"0143":{"zip_code":"5900143","prefecture":"大阪府","prefecture_kana":"オオサカフ","city":"堺市南区","city_kana":"サカイシミナミク","town":"新檜尾台","town_kana":"シンヒノオダイ","prefecture_code":27},"0158":[{"zip_code":"5900158","prefecture":"大阪府","prefecture_kana":"オオサカフ","city":"堺市南区","city_kana":"サカイシミナミク","town":"太平寺（５０８−５、６９６−２〜６９６−３、７２４−１、７２５−１、","town_kana":"タイヘイジ(508-5、696-2-696-3、724-1、725-1、","prefecture_code":27},{"zip_code":"5900158","prefecture":"大阪府","prefecture_kana":"オオサカフ","city":"堺市南区","city_kana":"サカイシミナミク","town":"７２６−１、７２７、７２８、７２８−１、７２９、７３０、７３１、７３２、","town_kana":"726-1、727、728、728-1、729、730、731、732、","prefecture_code":27},{"zip_code":"5900158","prefecture":"大阪府","prefecture_kana":"オオサカフ","city":"堺市南区","city_kana":"サカイシミナミク","town":"７３３−１〜７３３−２、７３５、７８６−３番地）","town_kana":"733-1-733-2、735、786-3バンチ)","prefecture_code":27}],"0157":{"zip_code":"5900157","prefecture":"大阪府","prefecture_kana":"オオサカフ","city":"堺市南区","city_kana":"サカイシミナミク","town":"高尾","town_kana":"タカオ","prefecture_code":27},"0117":{"zip_code":"5900117","prefecture":"大阪府","prefecture_kana":"オオサカフ","city":"堺市南区","city_kana":"サカイシミナミク","town":"高倉台","town_kana":"タカクラダイ","prefecture_code":27},"0105":{"zip_code":"5900105","prefecture":"大阪府","prefecture_kana":"オオサカフ","city":"堺市南区","city_kana":"サカイシミナミク","town":"竹城台","town_kana":"タケシロダイ","prefecture_code":27},"0115":{"zip_code":"5900115","prefecture":"大阪府","prefecture_kana":"オオサカフ","city":"堺市南区","city_kana":"サカイシミナミク","town":"茶山台","town_kana":"チャヤマダイ","prefecture_code":27},"0131":{"zip_code":"5900131","prefecture":"大阪府","prefecture_kana":"オオサカフ","city":"堺市南区","city_kana":"サカイシミナミク","town":"栂","town_kana":"トガ","prefecture_code":27},"0104":{"zip_code":"5900104","prefecture":"大阪府","prefecture_kana":"オオサカフ","city":"堺市南区","city_kana":"サカイシミナミク","town":"土佐屋台","town_kana":"トサヤダイ","prefecture_code":27},"0127":{"zip_code":"5900127","prefecture":"大阪府","prefecture_kana":"オオサカフ","city":"堺市南区","city_kana":"サカイシミナミク","town":"富蔵","town_kana":"トミクラ","prefecture_code":27},"0106":{"zip_code":"5900106","prefecture":"大阪府","prefecture_kana":"オオサカフ","city":"堺市南区","city_kana":"サカイシミナミク","town":"豊田","town_kana":"トヨダ","prefecture_code":27},"0133":{"zip_code":"5900133","prefecture":"大阪府","prefecture_kana":"オオサカフ","city":"堺市南区","city_kana":"サカイシミナミク","town":"庭代台","town_kana":"ニワシロダイ","prefecture_code":27},"0155":{"zip_code":"5900155","prefecture":"大阪府","prefecture_kana":"オオサカフ","city":"堺市南区","city_kana":"サカイシミナミク","town":"野々井","town_kana":"ノノイ","prefecture_code":27},"0124":{"zip_code":"5900124","prefecture":"大阪府","prefecture_kana":"オオサカフ","city":"堺市南区","city_kana":"サカイシミナミク","town":"畑","town_kana":"ハタ","prefecture_code":27},"0125":{"zip_code":"5900125","prefecture":"大阪府","prefecture_kana":"オオサカフ","city":"堺市南区","city_kana":"サカイシミナミク","town":"鉢ケ峯寺","town_kana":"ハチガミネジ","prefecture_code":27},"0132":{"zip_code":"5900132","prefecture":"大阪府","prefecture_kana":"オオサカフ","city":"堺市南区","city_kana":"サカイシミナミク","town":"原山台","town_kana":"ハラヤマダイ","prefecture_code":27},"0113":{"zip_code":"5900113","prefecture":"大阪府","prefecture_kana":"オオサカフ","city":"堺市南区","city_kana":"サカイシミナミク","town":"晴美台","town_kana":"ハルミダイ","prefecture_code":27},"0142":{"zip_code":"5900142","prefecture":"大阪府","prefecture_kana":"オオサカフ","city":"堺市南区","city_kana":"サカイシミナミク","town":"檜尾","town_kana":"ヒノオ","prefecture_code":27},"0103":{"zip_code":"5900103","prefecture":"大阪府","prefecture_kana":"オオサカフ","city":"堺市南区","city_kana":"サカイシミナミク","town":"深阪南","town_kana":"フカサカミナミ","prefecture_code":27},"0135":{"zip_code":"5900135","prefecture":"大阪府","prefecture_kana":"オオサカフ","city":"堺市南区","city_kana":"サカイシミナミク","town":"別所","town_kana":"ベッシヨ","prefecture_code":27},"0114":{"zip_code":"5900114","prefecture":"大阪府","prefecture_kana":"オオサカフ","city":"堺市南区","city_kana":"サカイシミナミク","town":"槇塚台","town_kana":"マキヅカダイ","prefecture_code":27},"0134":{"zip_code":"5900134","prefecture":"大阪府","prefecture_kana":"オオサカフ","city":"堺市南区","city_kana":"サカイシミナミク","town":"御池台","town_kana":"ミイケダイ","prefecture_code":27},"0136":{"zip_code":"5900136","prefecture":"大阪府","prefecture_kana":"オオサカフ","city":"堺市南区","city_kana":"サカイシミナミク","town":"美木多上","town_kana":"ミキタカミ","prefecture_code":27},"0154":{"zip_code":"5900154","prefecture":"大阪府","prefecture_kana":"オオサカフ","city":"堺市南区","city_kana":"サカイシミナミク","town":"三木閉","town_kana":"ミキトジ","prefecture_code":27},"0111":{"zip_code":"5900111","prefecture":"大阪府","prefecture_kana":"オオサカフ","city":"堺市南区","city_kana":"サカイシミナミク","town":"三原台","town_kana":"ミハラダイ","prefecture_code":27},"0101":{"zip_code":"5900101","prefecture":"大阪府","prefecture_kana":"オオサカフ","city":"堺市南区","city_kana":"サカイシミナミク","town":"宮山台","town_kana":"ミヤヤマダイ","prefecture_code":27},"0141":{"zip_code":"5900141","prefecture":"大阪府","prefecture_kana":"オオサカフ","city":"堺市南区","city_kana":"サカイシミナミク","town":"桃山台","town_kana":"モモヤマダイ","prefecture_code":27},"0116":{"zip_code":"5900116","prefecture":"大阪府","prefecture_kana":"オオサカフ","city":"堺市南区","city_kana":"サカイシミナミク","town":"若松台","town_kana":"ワカマツダイ","prefecture_code":27},"0152":{"zip_code":"5900152","prefecture":"大阪府","prefecture_kana":"オオサカフ","city":"堺市南区","city_kana":"サカイシミナミク","town":"和田","town_kana":"ワダ","prefecture_code":27},"0102":{"zip_code":"5900102","prefecture":"大阪府","prefecture_kana":"オオサカフ","city":"堺市南区","city_kana":"サカイシミナミク","town":"和田東","town_kana":"ワダヒガシ","prefecture_code":27},"0461":{"zip_code":"5900461","prefecture":"大阪府","prefecture_kana":"オオサカフ","city":"貝塚市","city_kana":"カイヅカシ","town":"三ツ松（２５７６番地）","town_kana":"ミツマツ(2576バンチ)","prefecture_code":27},"0500":{"zip_code":"5900500","prefecture":"大阪府","prefecture_kana":"オオサカフ","city":"泉南市","city_kana":"センナンシ","town":"以下に掲載がない場合","town_kana":"イカニケイサイガナイバアイ","prefecture_code":27},"0501":{"zip_code":"5900501","prefecture":"大阪府","prefecture_kana":"オオサカフ","city":"泉南市","city_kana":"センナンシ","town":"兎田","town_kana":"ウサイダ","prefecture_code":27},"0531":{"zip_code":"5900531","prefecture":"大阪府","prefecture_kana":"オオサカフ","city":"泉南市","city_kana":"センナンシ","town":"岡田","town_kana":"オカダ","prefecture_code":27},"0526":{"zip_code":"5900526","prefecture":"大阪府","prefecture_kana":"オオサカフ","city":"泉南市","city_kana":"センナンシ","town":"男里","town_kana":"オノサト","prefecture_code":27},"0532":{"zip_code":"5900532","prefecture":"大阪府","prefecture_kana":"オオサカフ","city":"泉南市","city_kana":"センナンシ","town":"北野","town_kana":"キタノ","prefecture_code":27},"0503":{"zip_code":"5900503","prefecture":"大阪府","prefecture_kana":"オオサカフ","city":"泉南市","city_kana":"センナンシ","town":"新家","town_kana":"シンゲ","prefecture_code":27},"0504":{"zip_code":"5900504","prefecture":"大阪府","prefecture_kana":"オオサカフ","city":"泉南市","city_kana":"センナンシ","town":"信達市場","town_kana":"シンダチイチバ","prefecture_code":27},"0523":{"zip_code":"5900523","prefecture":"大阪府","prefecture_kana":"オオサカフ","city":"泉南市","city_kana":"センナンシ","town":"信達岡中","town_kana":"シンダチオカナカ","prefecture_code":27},"0505":{"zip_code":"5900505","prefecture":"大阪府","prefecture_kana":"オオサカフ","city":"泉南市","city_kana":"センナンシ","town":"信達大苗代","town_kana":"シンダチオノシロ","prefecture_code":27},"0514":{"zip_code":"5900514","prefecture":"大阪府","prefecture_kana":"オオサカフ","city":"泉南市","city_kana":"センナンシ","town":"信達金熊寺","town_kana":"シンダチキンユウジ","prefecture_code":27},"0513":{"zip_code":"5900513","prefecture":"大阪府","prefecture_kana":"オオサカフ","city":"泉南市","city_kana":"センナンシ","town":"信達楠畑","town_kana":"シンダチクスバタ","prefecture_code":27},"0511":{"zip_code":"5900511","prefecture":"大阪府","prefecture_kana":"オオサカフ","city":"泉南市","city_kana":"センナンシ","town":"信達葛畑","town_kana":"シンダチツズラバタ","prefecture_code":27},"0522":{"zip_code":"5900522","prefecture":"大阪府","prefecture_kana":"オオサカフ","city":"泉南市","city_kana":"センナンシ","town":"信達牧野","town_kana":"シンダチマキノ","prefecture_code":27},"0515":{"zip_code":"5900515","prefecture":"大阪府","prefecture_kana":"オオサカフ","city":"泉南市","city_kana":"センナンシ","town":"信達六尾","town_kana":"シンダチムツオ","prefecture_code":27},"0512":{"zip_code":"5900512","prefecture":"大阪府","prefecture_kana":"オオサカフ","city":"泉南市","city_kana":"センナンシ","town":"信達童子畑","town_kana":"シンダチワラヅハタ","prefecture_code":27},"0521":{"zip_code":"5900521","prefecture":"大阪府","prefecture_kana":"オオサカフ","city":"泉南市","city_kana":"センナンシ","town":"樽井","town_kana":"タルイ","prefecture_code":27},"0533":{"zip_code":"5900533","prefecture":"大阪府","prefecture_kana":"オオサカフ","city":"泉南市","city_kana":"センナンシ","town":"中小路","town_kana":"ナコウジ","prefecture_code":27},"0534":{"zip_code":"5900534","prefecture":"大阪府","prefecture_kana":"オオサカフ","city":"泉南市","city_kana":"センナンシ","town":"鳴滝","town_kana":"ナルタキ","prefecture_code":27},"0525":{"zip_code":"5900525","prefecture":"大阪府","prefecture_kana":"オオサカフ","city":"泉南市","city_kana":"センナンシ","town":"馬場","town_kana":"ババ","prefecture_code":27},"0524":{"zip_code":"5900524","prefecture":"大阪府","prefecture_kana":"オオサカフ","city":"泉南市","city_kana":"センナンシ","town":"幡代","town_kana":"ハタシロ","prefecture_code":27},"0502":{"zip_code":"5900502","prefecture":"大阪府","prefecture_kana":"オオサカフ","city":"泉南市","city_kana":"センナンシ","town":"別所","town_kana":"ベッシヨ","prefecture_code":27},"0535":{"zip_code":"5900535","prefecture":"大阪府","prefecture_kana":"オオサカフ","city":"泉南市","city_kana":"センナンシ","town":"りんくう南浜","town_kana":"リンクウミナミハマ","prefecture_code":27},"0400":{"zip_code":"5900400","prefecture":"大阪府","prefecture_kana":"オオサカフ","city":"泉南郡熊取町","city_kana":"センナングンクマトリチョウ","town":"以下に掲載がない場合","town_kana":"イカニケイサイガナイバアイ","prefecture_code":27},"0407":{"zip_code":"5900407","prefecture":"大阪府","prefecture_kana":"オオサカフ","city":"泉南郡熊取町","city_kana":"センナングンクマトリチョウ","town":"青葉台","town_kana":"アオバダイ","prefecture_code":27},"0458":{"zip_code":"5900458","prefecture":"大阪府","prefecture_kana":"オオサカフ","city":"泉南郡熊取町","city_kana":"センナングンクマトリチョウ","town":"朝代西","town_kana":"アサシロニシ","prefecture_code":27},"0457":{"zip_code":"5900457","prefecture":"大阪府","prefecture_kana":"オオサカフ","city":"泉南郡熊取町","city_kana":"センナングンクマトリチョウ","town":"朝代東","town_kana":"アサシロヒガシ","prefecture_code":27},"0459":{"zip_code":"5900459","prefecture":"大阪府","prefecture_kana":"オオサカフ","city":"泉南郡熊取町","city_kana":"センナングンクマトリチョウ","town":"朝代台","town_kana":"アサシロダイ","prefecture_code":27},"0401":{"zip_code":"5900401","prefecture":"大阪府","prefecture_kana":"オオサカフ","city":"泉南郡熊取町","city_kana":"センナングンクマトリチョウ","town":"大久保","town_kana":"オオクボ","prefecture_code":27},"0402":{"zip_code":"5900402","prefecture":"大阪府","prefecture_kana":"オオサカフ","city":"泉南郡熊取町","city_kana":"センナングンクマトリチョウ","town":"大久保北","town_kana":"オオクボキタ","prefecture_code":27},"0403":{"zip_code":"5900403","prefecture":"大阪府","prefecture_kana":"オオサカフ","city":"泉南郡熊取町","city_kana":"センナングンクマトリチョウ","town":"大久保中","town_kana":"オオクボナカ","prefecture_code":27},"0404":{"zip_code":"5900404","prefecture":"大阪府","prefecture_kana":"オオサカフ","city":"泉南郡熊取町","city_kana":"センナングンクマトリチョウ","town":"大久保西","town_kana":"オオクボニシ","prefecture_code":27},"0406":{"zip_code":"5900406","prefecture":"大阪府","prefecture_kana":"オオサカフ","city":"泉南郡熊取町","city_kana":"センナングンクマトリチョウ","town":"大久保東","town_kana":"オオクボヒガシ","prefecture_code":27},"0405":{"zip_code":"5900405","prefecture":"大阪府","prefecture_kana":"オオサカフ","city":"泉南郡熊取町","city_kana":"センナングンクマトリチョウ","town":"大久保南","town_kana":"オオクボミナミ","prefecture_code":27},"0450":{"zip_code":"5900450","prefecture":"大阪府","prefecture_kana":"オオサカフ","city":"泉南郡熊取町","city_kana":"センナングンクマトリチョウ","town":"大宮","town_kana":"オオミヤ","prefecture_code":27},"0432":{"zip_code":"5900432","prefecture":"大阪府","prefecture_kana":"オオサカフ","city":"泉南郡熊取町","city_kana":"センナングンクマトリチョウ","town":"小垣内","town_kana":"オガイト","prefecture_code":27},"0431":{"zip_code":"5900431","prefecture":"大阪府","prefecture_kana":"オオサカフ","city":"泉南郡熊取町","city_kana":"センナングンクマトリチョウ","town":"小谷","town_kana":"オダニ","prefecture_code":27},"0434":{"zip_code":"5900434","prefecture":"大阪府","prefecture_kana":"オオサカフ","city":"泉南郡熊取町","city_kana":"センナングンクマトリチョウ","town":"小谷北","town_kana":"オダニキタ","prefecture_code":27},"0435":{"zip_code":"5900435","prefecture":"大阪府","prefecture_kana":"オオサカフ","city":"泉南郡熊取町","city_kana":"センナングンクマトリチョウ","town":"小谷南","town_kana":"オダニミナミ","prefecture_code":27},"0422":{"zip_code":"5900422","prefecture":"大阪府","prefecture_kana":"オオサカフ","city":"泉南郡熊取町","city_kana":"センナングンクマトリチョウ","town":"希望が丘","town_kana":"キボウガオカ","prefecture_code":27},"0441":{"zip_code":"5900441","prefecture":"大阪府","prefecture_kana":"オオサカフ","city":"泉南郡熊取町","city_kana":"センナングンクマトリチョウ","town":"久保","town_kana":"クボ","prefecture_code":27},"0436":{"zip_code":"5900436","prefecture":"大阪府","prefecture_kana":"オオサカフ","city":"泉南郡熊取町","city_kana":"センナングンクマトリチョウ","town":"高田","town_kana":"コウダ","prefecture_code":27},"0411":{"zip_code":"5900411","prefecture":"大阪府","prefecture_kana":"オオサカフ","city":"泉南郡熊取町","city_kana":"センナングンクマトリチョウ","town":"五門","town_kana":"ゴモン","prefecture_code":27},"0415":{"zip_code":"5900415","prefecture":"大阪府","prefecture_kana":"オオサカフ","city":"泉南郡熊取町","city_kana":"センナングンクマトリチョウ","town":"五門西","town_kana":"ゴモンニシ","prefecture_code":27},"0414":{"zip_code":"5900414","prefecture":"大阪府","prefecture_kana":"オオサカフ","city":"泉南郡熊取町","city_kana":"センナングンクマトリチョウ","town":"五門東","town_kana":"ゴモンヒガシ","prefecture_code":27},"0412":{"zip_code":"5900412","prefecture":"大阪府","prefecture_kana":"オオサカフ","city":"泉南郡熊取町","city_kana":"センナングンクマトリチョウ","town":"紺屋","town_kana":"コンヤ","prefecture_code":27},"0413":{"zip_code":"5900413","prefecture":"大阪府","prefecture_kana":"オオサカフ","city":"泉南郡熊取町","city_kana":"センナングンクマトリチョウ","town":"桜が丘","town_kana":"サクラガオカ","prefecture_code":27},"0445":{"zip_code":"5900445","prefecture":"大阪府","prefecture_kana":"オオサカフ","city":"泉南郡熊取町","city_kana":"センナングンクマトリチョウ","town":"五月ケ丘","town_kana":"サツキガオカ","prefecture_code":27},"0421":{"zip_code":"5900421","prefecture":"大阪府","prefecture_kana":"オオサカフ","city":"泉南郡熊取町","city_kana":"センナングンクマトリチョウ","town":"七山","town_kana":"シチヤマ","prefecture_code":27},"0425":{"zip_code":"5900425","prefecture":"大阪府","prefecture_kana":"オオサカフ","city":"泉南郡熊取町","city_kana":"センナングンクマトリチョウ","town":"七山東","town_kana":"シチヤマヒガシ","prefecture_code":27},"0427":{"zip_code":"5900427","prefecture":"大阪府","prefecture_kana":"オオサカフ","city":"泉南郡熊取町","city_kana":"センナングンクマトリチョウ","town":"七山西","town_kana":"シチヤマニシ","prefecture_code":27},"0426":{"zip_code":"5900426","prefecture":"大阪府","prefecture_kana":"オオサカフ","city":"泉南郡熊取町","city_kana":"センナングンクマトリチョウ","town":"七山南","town_kana":"シチヤマミナミ","prefecture_code":27},"0424":{"zip_code":"5900424","prefecture":"大阪府","prefecture_kana":"オオサカフ","city":"泉南郡熊取町","city_kana":"センナングンクマトリチョウ","town":"七山北","town_kana":"シチヤマキタ","prefecture_code":27},"0423":{"zip_code":"5900423","prefecture":"大阪府","prefecture_kana":"オオサカフ","city":"泉南郡熊取町","city_kana":"センナングンクマトリチョウ","town":"自由が丘","town_kana":"ジュウガオカ","prefecture_code":27},"0454":{"zip_code":"5900454","prefecture":"大阪府","prefecture_kana":"オオサカフ","city":"泉南郡熊取町","city_kana":"センナングンクマトリチョウ","town":"新野田","town_kana":"シンノダ","prefecture_code":27},"0444":{"zip_code":"5900444","prefecture":"大阪府","prefecture_kana":"オオサカフ","city":"泉南郡熊取町","city_kana":"センナングンクマトリチョウ","town":"つばさが丘北","town_kana":"ツバサガオカキタ","prefecture_code":27},"0443":{"zip_code":"5900443","prefecture":"大阪府","prefecture_kana":"オオサカフ","city":"泉南郡熊取町","city_kana":"センナングンクマトリチョウ","town":"つばさが丘西","town_kana":"ツバサガオカニシ","prefecture_code":27},"0442":{"zip_code":"5900442","prefecture":"大阪府","prefecture_kana":"オオサカフ","city":"泉南郡熊取町","city_kana":"センナングンクマトリチョウ","town":"つばさが丘東","town_kana":"ツバサガオカヒガシ","prefecture_code":27},"0416":{"zip_code":"5900416","prefecture":"大阪府","prefecture_kana":"オオサカフ","city":"泉南郡熊取町","city_kana":"センナングンクマトリチョウ","town":"東和苑","town_kana":"トウワエン","prefecture_code":27},"0455":{"zip_code":"5900455","prefecture":"大阪府","prefecture_kana":"オオサカフ","city":"泉南郡熊取町","city_kana":"センナングンクマトリチョウ","town":"長池","town_kana":"ナガイケ","prefecture_code":27},"0447":{"zip_code":"5900447","prefecture":"大阪府","prefecture_kana":"オオサカフ","city":"泉南郡熊取町","city_kana":"センナングンクマトリチョウ","town":"成合東","town_kana":"ナリアイヒガシ","prefecture_code":27},"0449":{"zip_code":"5900449","prefecture":"大阪府","prefecture_kana":"オオサカフ","city":"泉南郡熊取町","city_kana":"センナングンクマトリチョウ","town":"成合西","town_kana":"ナリアイニシ","prefecture_code":27},"0448":{"zip_code":"5900448","prefecture":"大阪府","prefecture_kana":"オオサカフ","city":"泉南郡熊取町","city_kana":"センナングンクマトリチョウ","town":"成合南","town_kana":"ナリアイミナミ","prefecture_code":27},"0446":{"zip_code":"5900446","prefecture":"大阪府","prefecture_kana":"オオサカフ","city":"泉南郡熊取町","city_kana":"センナングンクマトリチョウ","town":"成合北","town_kana":"ナリアイキタ","prefecture_code":27},"0451":{"zip_code":"5900451","prefecture":"大阪府","prefecture_kana":"オオサカフ","city":"泉南郡熊取町","city_kana":"センナングンクマトリチョウ","town":"野田","town_kana":"ノダ","prefecture_code":27},"0456":{"zip_code":"5900456","prefecture":"大阪府","prefecture_kana":"オオサカフ","city":"泉南郡熊取町","city_kana":"センナングンクマトリチョウ","town":"美熊台","town_kana":"ミクマダイ","prefecture_code":27},"0453":{"zip_code":"5900453","prefecture":"大阪府","prefecture_kana":"オオサカフ","city":"泉南郡熊取町","city_kana":"センナングンクマトリチョウ","town":"南山の手台","town_kana":"ミナミヤマノテダイ","prefecture_code":27},"0452":{"zip_code":"5900452","prefecture":"大阪府","prefecture_kana":"オオサカフ","city":"泉南郡熊取町","city_kana":"センナングンクマトリチョウ","town":"山の手台","town_kana":"ヤマノテダイ","prefecture_code":27},"0433":{"zip_code":"5900433","prefecture":"大阪府","prefecture_kana":"オオサカフ","city":"泉南郡熊取町","city_kana":"センナングンクマトリチョウ","town":"若葉","town_kana":"ワカバ","prefecture_code":27},"0417":{"zip_code":"5900417","prefecture":"大阪府","prefecture_kana":"オオサカフ","city":"泉南郡熊取町","city_kana":"センナングンクマトリチョウ","town":"和田","town_kana":"ワダ","prefecture_code":27}}