{"0000":{"zip_code":"5910000","prefecture":"大阪府","prefecture_kana":"オオサカフ","city":"堺市北区","city_kana":"サカイシキタク","town":"","town_kana":"","prefecture_code":27},"8007":{"zip_code":"5918007","prefecture":"大阪府","prefecture_kana":"オオサカフ","city":"堺市北区","city_kana":"サカイシキタク","town":"奥本町","town_kana":"オクモトチョウ","prefecture_code":27},"8022":{"zip_code":"5918022","prefecture":"大阪府","prefecture_kana":"オオサカフ","city":"堺市北区","city_kana":"サカイシキタク","town":"金岡町","town_kana":"カナオカチョウ","prefecture_code":27},"8043":{"zip_code":"5918043","prefecture":"大阪府","prefecture_kana":"オオサカフ","city":"堺市北区","city_kana":"サカイシキタク","town":"北長尾町","town_kana":"キタナガオチョウ","prefecture_code":27},"8002":{"zip_code":"5918002","prefecture":"大阪府","prefecture_kana":"オオサカフ","city":"堺市北区","city_kana":"サカイシキタク","town":"北花田町","town_kana":"キタハナダチョウ","prefecture_code":27},"8004":{"zip_code":"5918004","prefecture":"大阪府","prefecture_kana":"オオサカフ","city":"堺市北区","city_kana":"サカイシキタク","town":"蔵前町","town_kana":"クラマエチョウ","prefecture_code":27},"8024":{"zip_code":"5918024","prefecture":"大阪府","prefecture_kana":"オオサカフ","city":"堺市北区","city_kana":"サカイシキタク","town":"黒土町","town_kana":"クロツチチョウ","prefecture_code":27},"8041":{"zip_code":"5918041","prefecture":"大阪府","prefecture_kana":"オオサカフ","city":"堺市北区","city_kana":"サカイシキタク","town":"東雲東町","town_kana":"シノノメヒガシマチ","prefecture_code":27},"8021":{"zip_code":"5918021","prefecture":"大阪府","prefecture_kana":"オオサカフ","city":"堺市北区","city_kana":"サカイシキタク","town":"新金岡町","town_kana":"シンカナオカチョウ","prefecture_code":27},"8005":{"zip_code":"5918005","prefecture":"大阪府","prefecture_kana":"オオサカフ","city":"堺市北区","city_kana":"サカイシキタク","town":"新堀町","town_kana":"シンボリチョウ","prefecture_code":27},"8003":{"zip_code":"5918003","prefecture":"大阪府","prefecture_kana":"オオサカフ","city":"堺市北区","city_kana":"サカイシキタク","town":"船堂町","town_kana":"センドウチョウ","prefecture_code":27},"8001":{"zip_code":"5918001","prefecture":"大阪府","prefecture_kana":"オオサカフ","city":"堺市北区","city_kana":"サカイシキタク","town":"常磐町","town_kana":"トキワチョウ","prefecture_code":27},"8025":{"zip_code":"5918025","prefecture":"大阪府","prefecture_kana":"オオサカフ","city":"堺市北区","city_kana":"サカイシキタク","town":"長曾根町","town_kana":"ナガソネチョウ","prefecture_code":27},"8044":{"zip_code":"5918044","prefecture":"大阪府","prefecture_kana":"オオサカフ","city":"堺市北区","city_kana":"サカイシキタク","town":"中長尾町","town_kana":"ナカナガオチョウ","prefecture_code":27},"8012":{"zip_code":"5918012","prefecture":"大阪府","prefecture_kana":"オオサカフ","city":"堺市北区","city_kana":"サカイシキタク","town":"中村町","town_kana":"ナカムラチョウ","prefecture_code":27},"8023":{"zip_code":"5918023","prefecture":"大阪府","prefecture_kana":"オオサカフ","city":"堺市北区","city_kana":"サカイシキタク","town":"中百舌鳥町","town_kana":"ナカモズチョウ","prefecture_code":27},"8013":{"zip_code":"5918013","prefecture":"大阪府","prefecture_kana":"オオサカフ","city":"堺市北区","city_kana":"サカイシキタク","town":"野遠町","town_kana":"ノトウチョウ","prefecture_code":27},"8008":{"zip_code":"5918008","prefecture":"大阪府","prefecture_kana":"オオサカフ","city":"堺市北区","city_kana":"サカイシキタク","town":"東浅香山町","town_kana":"ヒガシアサカヤマチョウ","prefecture_code":27},"8035":{"zip_code":"5918035","prefecture":"大阪府","prefecture_kana":"オオサカフ","city":"堺市北区","city_kana":"サカイシキタク","town":"東上野芝町","town_kana":"ヒガシウエノシバチョウ","prefecture_code":27},"8046":{"zip_code":"5918046","prefecture":"大阪府","prefecture_kana":"オオサカフ","city":"堺市北区","city_kana":"サカイシキタク","town":"東三国ケ丘町","town_kana":"ヒガシミクニガオカチョウ","prefecture_code":27},"8042":{"zip_code":"5918042","prefecture":"大阪府","prefecture_kana":"オオサカフ","city":"堺市北区","city_kana":"サカイシキタク","town":"大豆塚町","town_kana":"マメヅカチョウ","prefecture_code":27},"8045":{"zip_code":"5918045","prefecture":"大阪府","prefecture_kana":"オオサカフ","city":"堺市北区","city_kana":"サカイシキタク","town":"南長尾町","town_kana":"ミナミナガオチョウ","prefecture_code":27},"8011":{"zip_code":"5918011","prefecture":"大阪府","prefecture_kana":"オオサカフ","city":"堺市北区","city_kana":"サカイシキタク","town":"南花田町","town_kana":"ミナミハナダチョウ","prefecture_code":27},"8006":{"zip_code":"5918006","prefecture":"大阪府","prefecture_kana":"オオサカフ","city":"堺市北区","city_kana":"サカイシキタク","town":"宮本町","town_kana":"ミヤモトチョウ","prefecture_code":27},"8037":{"zip_code":"5918037","prefecture":"大阪府","prefecture_kana":"オオサカフ","city":"堺市北区","city_kana":"サカイシキタク","town":"百舌鳥赤畑町","town_kana":"モズアカハタチョウ","prefecture_code":27},"8031":{"zip_code":"5918031","prefecture":"大阪府","prefecture_kana":"オオサカフ","city":"堺市北区","city_kana":"サカイシキタク","town":"百舌鳥梅北町","town_kana":"モズウメキタチョウ","prefecture_code":27},"8032":{"zip_code":"5918032","prefecture":"大阪府","prefecture_kana":"オオサカフ","city":"堺市北区","city_kana":"サカイシキタク","town":"百舌鳥梅町","town_kana":"モズウメマチ","prefecture_code":27},"8033":{"zip_code":"5918033","prefecture":"大阪府","prefecture_kana":"オオサカフ","city":"堺市北区","city_kana":"サカイシキタク","town":"百舌鳥西之町","town_kana":"モズニシノチョウ","prefecture_code":27},"8036":{"zip_code":"5918036","prefecture":"大阪府","prefecture_kana":"オオサカフ","city":"堺市北区","city_kana":"サカイシキタク","town":"百舌鳥本町","town_kana":"モズホンマチ","prefecture_code":27},"8034":{"zip_code":"5918034","prefecture":"大阪府","prefecture_kana":"オオサカフ","city":"堺市北区","city_kana":"サカイシキタク","town":"百舌鳥陵南町","town_kana":"モズリョウナンチョウ","prefecture_code":27},"8014":{"zip_code":"5918014","prefecture":"大阪府","prefecture_kana":"オオサカフ","city":"堺市北区","city_kana":"サカイシキタク","town":"八下北","town_kana":"ヤシモキタ","prefecture_code":27}}