{"8332":{"zip_code":"5928332","prefecture":"大阪府","prefecture_kana":"オオサカフ","city":"堺市西区","city_kana":"サカイシニシク","town":"石津西町","town_kana":"イシヅニシマチ","prefecture_code":27},"8331":{"zip_code":"5928331","prefecture":"大阪府","prefecture_kana":"オオサカフ","city":"堺市西区","city_kana":"サカイシニシク","town":"築港新町","town_kana":"チッコウシンマチ","prefecture_code":27},"8351":{"zip_code":"5928351","prefecture":"大阪府","prefecture_kana":"オオサカフ","city":"堺市西区","city_kana":"サカイシニシク","town":"築港浜寺町","town_kana":"チッコウハマデラチョウ","prefecture_code":27},"8352":{"zip_code":"5928352","prefecture":"大阪府","prefecture_kana":"オオサカフ","city":"堺市西区","city_kana":"サカイシニシク","town":"築港浜寺西町","town_kana":"チッコウハマデラニシマチ","prefecture_code":27},"8334":{"zip_code":"5928334","prefecture":"大阪府","prefecture_kana":"オオサカフ","city":"堺市西区","city_kana":"サカイシニシク","town":"浜寺石津町中","town_kana":"ハマデライシヅチョウナカ","prefecture_code":27},"8333":{"zip_code":"5928333","prefecture":"大阪府","prefecture_kana":"オオサカフ","city":"堺市西区","city_kana":"サカイシニシク","town":"浜寺石津町西","town_kana":"ハマデライシヅチョウニシ","prefecture_code":27},"8335":{"zip_code":"5928335","prefecture":"大阪府","prefecture_kana":"オオサカフ","city":"堺市西区","city_kana":"サカイシニシク","town":"浜寺石津町東","town_kana":"ハマデライシヅチョウヒガシ","prefecture_code":27},"8346":{"zip_code":"5928346","prefecture":"大阪府","prefecture_kana":"オオサカフ","city":"堺市西区","city_kana":"サカイシニシク","town":"浜寺公園町","town_kana":"ハマデラコウエンチョウ","prefecture_code":27},"8345":{"zip_code":"5928345","prefecture":"大阪府","prefecture_kana":"オオサカフ","city":"堺市西区","city_kana":"サカイシニシク","town":"浜寺昭和町","town_kana":"ハマデラショウワチョウ","prefecture_code":27},"8348":{"zip_code":"5928348","prefecture":"大阪府","prefecture_kana":"オオサカフ","city":"堺市西区","city_kana":"サカイシニシク","town":"浜寺諏訪森町中","town_kana":"ハマデラスワノモリチョウナカ","prefecture_code":27},"8347":{"zip_code":"5928347","prefecture":"大阪府","prefecture_kana":"オオサカフ","city":"堺市西区","city_kana":"サカイシニシク","town":"浜寺諏訪森町西","town_kana":"ハマデラスワノモリチョウニシ","prefecture_code":27},"8349":{"zip_code":"5928349","prefecture":"大阪府","prefecture_kana":"オオサカフ","city":"堺市西区","city_kana":"サカイシニシク","town":"浜寺諏訪森町東","town_kana":"ハマデラスワノモリチョウヒガシ","prefecture_code":27},"8342":{"zip_code":"5928342","prefecture":"大阪府","prefecture_kana":"オオサカフ","city":"堺市西区","city_kana":"サカイシニシク","town":"浜寺船尾町西","town_kana":"ハマデラフナオチョウニシ","prefecture_code":27},"8341":{"zip_code":"5928341","prefecture":"大阪府","prefecture_kana":"オオサカフ","city":"堺市西区","city_kana":"サカイシニシク","town":"浜寺船尾町東","town_kana":"ハマデラフナオチョウヒガシ","prefecture_code":27},"8344":{"zip_code":"5928344","prefecture":"大阪府","prefecture_kana":"オオサカフ","city":"堺市西区","city_kana":"サカイシニシク","town":"浜寺南町","town_kana":"ハマデラミナミマチ","prefecture_code":27},"8343":{"zip_code":"5928343","prefecture":"大阪府","prefecture_kana":"オオサカフ","city":"堺市西区","city_kana":"サカイシニシク","town":"浜寺元町","town_kana":"ハマデラモトマチ","prefecture_code":27},"0000":{"zip_code":"5920000","prefecture":"大阪府","prefecture_kana":"オオサカフ","city":"高石市","city_kana":"タカイシシ","town":"以下に掲載がない場合","town_kana":"イカニケイサイガナイバアイ","prefecture_code":27},"0014":{"zip_code":"5920014","prefecture":"大阪府","prefecture_kana":"オオサカフ","city":"高石市","city_kana":"タカイシシ","town":"綾園","town_kana":"アヤゾノ","prefecture_code":27},"0011":{"zip_code":"5920011","prefecture":"大阪府","prefecture_kana":"オオサカフ","city":"高石市","city_kana":"タカイシシ","town":"加茂","town_kana":"カモ","prefecture_code":27},"0001":{"zip_code":"5920001","prefecture":"大阪府","prefecture_kana":"オオサカフ","city":"高石市","city_kana":"タカイシシ","town":"高砂","town_kana":"タカサゴ","prefecture_code":27},"0004":{"zip_code":"5920004","prefecture":"大阪府","prefecture_kana":"オオサカフ","city":"高石市","city_kana":"タカイシシ","town":"高師浜","town_kana":"タカシノハマ","prefecture_code":27},"0006":{"zip_code":"5920006","prefecture":"大阪府","prefecture_kana":"オオサカフ","city":"高石市","city_kana":"タカイシシ","town":"高師浜丁","town_kana":"タカシノハマチョウ","prefecture_code":27},"0005":{"zip_code":"5920005","prefecture":"大阪府","prefecture_kana":"オオサカフ","city":"高石市","city_kana":"タカイシシ","town":"千代田","town_kana":"チヨダ","prefecture_code":27},"0013":{"zip_code":"5920013","prefecture":"大阪府","prefecture_kana":"オオサカフ","city":"高石市","city_kana":"タカイシシ","town":"取石","town_kana":"トリイシ","prefecture_code":27},"0012":{"zip_code":"5920012","prefecture":"大阪府","prefecture_kana":"オオサカフ","city":"高石市","city_kana":"タカイシシ","town":"西取石","town_kana":"ニシトリイシ","prefecture_code":27},"0002":[{"zip_code":"5920002","prefecture":"大阪府","prefecture_kana":"オオサカフ","city":"高石市","city_kana":"タカイシシ","town":"羽衣","town_kana":"ハゴロモ","prefecture_code":27},{"zip_code":"5920002","prefecture":"大阪府","prefecture_kana":"オオサカフ","city":"高石市","city_kana":"タカイシシ","town":"羽衣公園丁","town_kana":"ハゴロモコウエンチョウ","prefecture_code":27}],"0003":{"zip_code":"5920003","prefecture":"大阪府","prefecture_kana":"オオサカフ","city":"高石市","city_kana":"タカイシシ","town":"東羽衣","town_kana":"ヒガシハゴロモ","prefecture_code":27}}