{"0000":{"zip_code":"5950000","prefecture":"大阪府","prefecture_kana":"オオサカフ","city":"泉北郡忠岡町","city_kana":"センボクグンタダオカチョウ","town":"","town_kana":"","prefecture_code":27},"0053":{"zip_code":"5950053","prefecture":"大阪府","prefecture_kana":"オオサカフ","city":"泉大津市","city_kana":"イズミオオツシ","town":"青葉町","town_kana":"アオバチョウ","prefecture_code":27},"0025":{"zip_code":"5950025","prefecture":"大阪府","prefecture_kana":"オオサカフ","city":"泉大津市","city_kana":"イズミオオツシ","town":"旭町","town_kana":"アサヒチョウ","prefecture_code":27},"0032":{"zip_code":"5950032","prefecture":"大阪府","prefecture_kana":"オオサカフ","city":"泉大津市","city_kana":"イズミオオツシ","town":"穴田","town_kana":"アナダ","prefecture_code":27},"0031":{"zip_code":"5950031","prefecture":"大阪府","prefecture_kana":"オオサカフ","city":"泉大津市","city_kana":"イズミオオツシ","town":"我孫子","town_kana":"アビコ","prefecture_code":27},"0001":{"zip_code":"5950001","prefecture":"大阪府","prefecture_kana":"オオサカフ","city":"泉大津市","city_kana":"イズミオオツシ","town":"綾井","town_kana":"アヤイ","prefecture_code":27},"0022":{"zip_code":"5950022","prefecture":"大阪府","prefecture_kana":"オオサカフ","city":"泉大津市","city_kana":"イズミオオツシ","town":"池浦","town_kana":"イケウラ","prefecture_code":27},"0024":{"zip_code":"5950024","prefecture":"大阪府","prefecture_kana":"オオサカフ","city":"泉大津市","city_kana":"イズミオオツシ","town":"池浦町","town_kana":"イケウラチョウ","prefecture_code":27},"0017":{"zip_code":"5950017","prefecture":"大阪府","prefecture_kana":"オオサカフ","city":"泉大津市","city_kana":"イズミオオツシ","town":"池園町","town_kana":"イケゾノチョウ","prefecture_code":27},"0033":{"zip_code":"5950033","prefecture":"大阪府","prefecture_kana":"オオサカフ","city":"泉大津市","city_kana":"イズミオオツシ","town":"板原町","town_kana":"イタハラチョウ","prefecture_code":27},"0046":{"zip_code":"5950046","prefecture":"大阪府","prefecture_kana":"オオサカフ","city":"泉大津市","city_kana":"イズミオオツシ","town":"上之町","town_kana":"ウエノチョウ","prefecture_code":27},"0034":{"zip_code":"5950034","prefecture":"大阪府","prefecture_kana":"オオサカフ","city":"泉大津市","city_kana":"イズミオオツシ","town":"宇多","town_kana":"ウダ","prefecture_code":27},"0041":{"zip_code":"5950041","prefecture":"大阪府","prefecture_kana":"オオサカフ","city":"泉大津市","city_kana":"イズミオオツシ","town":"戎町","town_kana":"エビスチョウ","prefecture_code":27},"0003":{"zip_code":"5950003","prefecture":"大阪府","prefecture_kana":"オオサカフ","city":"泉大津市","city_kana":"イズミオオツシ","town":"尾井千原町","town_kana":"オイチハラチョウ","prefecture_code":27},"0074":{"zip_code":"5950074","prefecture":"大阪府","prefecture_kana":"オオサカフ","city":"泉大津市","city_kana":"イズミオオツシ","town":"小津島町","town_kana":"オヅシマチョウ","prefecture_code":27},"0061":{"zip_code":"5950061","prefecture":"大阪府","prefecture_kana":"オオサカフ","city":"泉大津市","city_kana":"イズミオオツシ","town":"春日町","town_kana":"カスガチョウ","prefecture_code":27},"0028":{"zip_code":"5950028","prefecture":"大阪府","prefecture_kana":"オオサカフ","city":"泉大津市","city_kana":"イズミオオツシ","town":"要池住宅","town_kana":"カナメイケジュウタク","prefecture_code":27},"0044":{"zip_code":"5950044","prefecture":"大阪府","prefecture_kana":"オオサカフ","city":"泉大津市","city_kana":"イズミオオツシ","town":"河原町","town_kana":"カワハラチョウ","prefecture_code":27},"0012":{"zip_code":"5950012","prefecture":"大阪府","prefecture_kana":"オオサカフ","city":"泉大津市","city_kana":"イズミオオツシ","town":"北豊中町","town_kana":"キタトヨナカチョウ","prefecture_code":27},"0038":{"zip_code":"5950038","prefecture":"大阪府","prefecture_kana":"オオサカフ","city":"泉大津市","city_kana":"イズミオオツシ","town":"楠町西","town_kana":"クスノキチョウニシ","prefecture_code":27},"0039":{"zip_code":"5950039","prefecture":"大阪府","prefecture_kana":"オオサカフ","city":"泉大津市","city_kana":"イズミオオツシ","town":"楠町東","town_kana":"クスノキチョウヒガシ","prefecture_code":27},"0027":{"zip_code":"5950027","prefecture":"大阪府","prefecture_kana":"オオサカフ","city":"泉大津市","city_kana":"イズミオオツシ","town":"下条町","town_kana":"ゲジョウチョウ","prefecture_code":27},"0014":{"zip_code":"5950014","prefecture":"大阪府","prefecture_kana":"オオサカフ","city":"泉大津市","city_kana":"イズミオオツシ","town":"寿町","town_kana":"コトブキチョウ","prefecture_code":27},"0067":{"zip_code":"5950067","prefecture":"大阪府","prefecture_kana":"オオサカフ","city":"泉大津市","city_kana":"イズミオオツシ","town":"小松町","town_kana":"コマツチョウ","prefecture_code":27},"0054":{"zip_code":"5950054","prefecture":"大阪府","prefecture_kana":"オオサカフ","city":"泉大津市","city_kana":"イズミオオツシ","town":"汐見町","town_kana":"シオミチョウ","prefecture_code":27},"0035":{"zip_code":"5950035","prefecture":"大阪府","prefecture_kana":"オオサカフ","city":"泉大津市","city_kana":"イズミオオツシ","town":"式内町","town_kana":"シキナイチョウ","prefecture_code":27},"0045":{"zip_code":"5950045","prefecture":"大阪府","prefecture_kana":"オオサカフ","city":"泉大津市","city_kana":"イズミオオツシ","town":"下之町","town_kana":"シタノチョウ","prefecture_code":27},"0026":{"zip_code":"5950026","prefecture":"大阪府","prefecture_kana":"オオサカフ","city":"泉大津市","city_kana":"イズミオオツシ","town":"東雲町","town_kana":"シノノメチョウ","prefecture_code":27},"0043":{"zip_code":"5950043","prefecture":"大阪府","prefecture_kana":"オオサカフ","city":"泉大津市","city_kana":"イズミオオツシ","town":"清水町","town_kana":"シミズチョウ","prefecture_code":27},"0016":{"zip_code":"5950016","prefecture":"大阪府","prefecture_kana":"オオサカフ","city":"泉大津市","city_kana":"イズミオオツシ","town":"条南町","town_kana":"ジョウナンチョウ","prefecture_code":27},"0036":{"zip_code":"5950036","prefecture":"大阪府","prefecture_kana":"オオサカフ","city":"泉大津市","city_kana":"イズミオオツシ","town":"昭和町","town_kana":"ショウワチョウ","prefecture_code":27},"0073":{"zip_code":"5950073","prefecture":"大阪府","prefecture_kana":"オオサカフ","city":"泉大津市","city_kana":"イズミオオツシ","town":"新港町","town_kana":"シンミナトチョウ","prefecture_code":27},"0064":{"zip_code":"5950064","prefecture":"大阪府","prefecture_kana":"オオサカフ","city":"泉大津市","city_kana":"イズミオオツシ","town":"神明町","town_kana":"シンメイチョウ","prefecture_code":27},"0002":{"zip_code":"5950002","prefecture":"大阪府","prefecture_kana":"オオサカフ","city":"泉大津市","city_kana":"イズミオオツシ","town":"末広町","town_kana":"スエヒロチョウ","prefecture_code":27},"0066":{"zip_code":"5950066","prefecture":"大阪府","prefecture_kana":"オオサカフ","city":"泉大津市","city_kana":"イズミオオツシ","town":"菅原町","town_kana":"スガハラチョウ","prefecture_code":27},"0071":{"zip_code":"5950071","prefecture":"大阪府","prefecture_kana":"オオサカフ","city":"泉大津市","city_kana":"イズミオオツシ","town":"助松町","town_kana":"スケマツチョウ","prefecture_code":27},"0007":{"zip_code":"5950007","prefecture":"大阪府","prefecture_kana":"オオサカフ","city":"泉大津市","city_kana":"イズミオオツシ","town":"助松団地","town_kana":"スケマツダンチ","prefecture_code":27},"0011":{"zip_code":"5950011","prefecture":"大阪府","prefecture_kana":"オオサカフ","city":"泉大津市","city_kana":"イズミオオツシ","town":"南曾根","town_kana":"ミナミソネ","prefecture_code":27},"0042":{"zip_code":"5950042","prefecture":"大阪府","prefecture_kana":"オオサカフ","city":"泉大津市","city_kana":"イズミオオツシ","town":"高津町","town_kana":"タカツチョウ","prefecture_code":27},"0062":{"zip_code":"5950062","prefecture":"大阪府","prefecture_kana":"オオサカフ","city":"泉大津市","city_kana":"イズミオオツシ","town":"田中町","town_kana":"タナカチョウ","prefecture_code":27},"0004":{"zip_code":"5950004","prefecture":"大阪府","prefecture_kana":"オオサカフ","city":"泉大津市","city_kana":"イズミオオツシ","town":"千原町","town_kana":"チハラチョウ","prefecture_code":27},"0023":{"zip_code":"5950023","prefecture":"大阪府","prefecture_kana":"オオサカフ","city":"泉大津市","city_kana":"イズミオオツシ","town":"豊中町","town_kana":"トヨナカチョウ","prefecture_code":27},"0055":{"zip_code":"5950055","prefecture":"大阪府","prefecture_kana":"オオサカフ","city":"泉大津市","city_kana":"イズミオオツシ","town":"なぎさ町","town_kana":"ナギサチョウ","prefecture_code":27},"0052":{"zip_code":"5950052","prefecture":"大阪府","prefecture_kana":"オオサカフ","city":"泉大津市","city_kana":"イズミオオツシ","town":"西港町","town_kana":"ニシミナトチョウ","prefecture_code":27},"0006":{"zip_code":"5950006","prefecture":"大阪府","prefecture_kana":"オオサカフ","city":"泉大津市","city_kana":"イズミオオツシ","town":"東助松町","town_kana":"ヒガシスケマツチョウ","prefecture_code":27},"0021":{"zip_code":"5950021","prefecture":"大阪府","prefecture_kana":"オオサカフ","city":"泉大津市","city_kana":"イズミオオツシ","town":"東豊中町","town_kana":"ヒガシトヨナカチョウ","prefecture_code":27},"0051":{"zip_code":"5950051","prefecture":"大阪府","prefecture_kana":"オオサカフ","city":"泉大津市","city_kana":"イズミオオツシ","town":"東港町","town_kana":"ヒガシミナトチョウ","prefecture_code":27},"0015":{"zip_code":"5950015","prefecture":"大阪府","prefecture_kana":"オオサカフ","city":"泉大津市","city_kana":"イズミオオツシ","town":"二田町","town_kana":"フツタチョウ","prefecture_code":27},"0063":{"zip_code":"5950063","prefecture":"大阪府","prefecture_kana":"オオサカフ","city":"泉大津市","city_kana":"イズミオオツシ","town":"本町","town_kana":"ホンマチ","prefecture_code":27},"0072":{"zip_code":"5950072","prefecture":"大阪府","prefecture_kana":"オオサカフ","city":"泉大津市","city_kana":"イズミオオツシ","town":"松之浜町","town_kana":"マツノハマチョウ","prefecture_code":27},"0013":{"zip_code":"5950013","prefecture":"大阪府","prefecture_kana":"オオサカフ","city":"泉大津市","city_kana":"イズミオオツシ","town":"宮町","town_kana":"ミヤチョウ","prefecture_code":27},"0037":{"zip_code":"5950037","prefecture":"大阪府","prefecture_kana":"オオサカフ","city":"泉大津市","city_kana":"イズミオオツシ","town":"虫取町","town_kana":"ムシトリチョウ","prefecture_code":27},"0005":{"zip_code":"5950005","prefecture":"大阪府","prefecture_kana":"オオサカフ","city":"泉大津市","city_kana":"イズミオオツシ","town":"森町","town_kana":"モリチョウ","prefecture_code":27},"0056":{"zip_code":"5950056","prefecture":"大阪府","prefecture_kana":"オオサカフ","city":"泉大津市","city_kana":"イズミオオツシ","town":"夕凪町","town_kana":"ユウナギチョウ","prefecture_code":27},"0075":{"zip_code":"5950075","prefecture":"大阪府","prefecture_kana":"オオサカフ","city":"泉大津市","city_kana":"イズミオオツシ","town":"臨海町","town_kana":"リンカイチョウ","prefecture_code":27},"0065":{"zip_code":"5950065","prefecture":"大阪府","prefecture_kana":"オオサカフ","city":"泉大津市","city_kana":"イズミオオツシ","town":"若宮町","town_kana":"ワカミヤチョウ","prefecture_code":27},"0081":{"zip_code":"5950081","prefecture":"大阪府","prefecture_kana":"オオサカフ","city":"高石市","city_kana":"タカイシシ","town":"南高砂","town_kana":"ミナミタカサゴ","prefecture_code":27},"0803":{"zip_code":"5950803","prefecture":"大阪府","prefecture_kana":"オオサカフ","city":"泉北郡忠岡町","city_kana":"センボクグンタダオカチョウ","town":"北出","town_kana":"キタイデ","prefecture_code":27},"0802":{"zip_code":"5950802","prefecture":"大阪府","prefecture_kana":"オオサカフ","city":"泉北郡忠岡町","city_kana":"センボクグンタダオカチョウ","town":"高月南","town_kana":"タカツキミナミ","prefecture_code":27},"0801":{"zip_code":"5950801","prefecture":"大阪府","prefecture_kana":"オオサカフ","city":"泉北郡忠岡町","city_kana":"センボクグンタダオカチョウ","town":"高月北","town_kana":"タカツキキタ","prefecture_code":27},"0812":{"zip_code":"5950812","prefecture":"大阪府","prefecture_kana":"オオサカフ","city":"泉北郡忠岡町","city_kana":"センボクグンタダオカチョウ","town":"忠岡中","town_kana":"タダオカナカ","prefecture_code":27},"0805":{"zip_code":"5950805","prefecture":"大阪府","prefecture_kana":"オオサカフ","city":"泉北郡忠岡町","city_kana":"センボクグンタダオカチョウ","town":"忠岡東","town_kana":"タダオカヒガシ","prefecture_code":27},"0813":{"zip_code":"5950813","prefecture":"大阪府","prefecture_kana":"オオサカフ","city":"泉北郡忠岡町","city_kana":"センボクグンタダオカチョウ","town":"忠岡南","town_kana":"タダオカミナミ","prefecture_code":27},"0811":{"zip_code":"5950811","prefecture":"大阪府","prefecture_kana":"オオサカフ","city":"泉北郡忠岡町","city_kana":"センボクグンタダオカチョウ","town":"忠岡北","town_kana":"タダオカキタ","prefecture_code":27},"0814":{"zip_code":"5950814","prefecture":"大阪府","prefecture_kana":"オオサカフ","city":"泉北郡忠岡町","city_kana":"センボクグンタダオカチョウ","town":"新浜","town_kana":"ニイハマ","prefecture_code":27},"0804":{"zip_code":"5950804","prefecture":"大阪府","prefecture_kana":"オオサカフ","city":"泉北郡忠岡町","city_kana":"センボクグンタダオカチョウ","town":"馬瀬","town_kana":"マゼ","prefecture_code":27}}