{"0000":{"zip_code":"6000000","prefecture":"京都府","prefecture_kana":"キョウトフ","city":"京都市下京区","city_kana":"キョウトシシモギョウク","town":"","town_kana":"","prefecture_code":26},"8071":{"zip_code":"6008071","prefecture":"京都府","prefecture_kana":"キョウトフ","city":"京都市下京区","city_kana":"キョウトシシモギョウク","town":"相之町","town_kana":"アイノチョウ","prefecture_code":26},"8410":{"zip_code":"6008410","prefecture":"京都府","prefecture_kana":"キョウトフ","city":"京都市下京区","city_kana":"キョウトシシモギョウク","town":"悪王子町","town_kana":"アクオウジチョウ","prefecture_code":26},"8407":{"zip_code":"6008407","prefecture":"京都府","prefecture_kana":"キョウトフ","city":"京都市下京区","city_kana":"キョウトシシモギョウク","town":"朝妻町","town_kana":"アサヅマチョウ","prefecture_code":26},"8473":{"zip_code":"6008473","prefecture":"京都府","prefecture_kana":"キョウトフ","city":"京都市下京区","city_kana":"キョウトシシモギョウク","town":"芦刈山町","town_kana":"アシカリヤマチョウ","prefecture_code":26},"8308":{"zip_code":"6008308","prefecture":"京都府","prefecture_kana":"キョウトフ","city":"京都市下京区","city_kana":"キョウトシシモギョウク","town":"新シ町","town_kana":"アタラシチョウ","prefecture_code":26},"8040":{"zip_code":"6008040","prefecture":"京都府","prefecture_kana":"キョウトフ","city":"京都市下京区","city_kana":"キョウトシシモギョウク","town":"安土町","town_kana":"アヅチチョウ","prefecture_code":26},"8231":{"zip_code":"6008231","prefecture":"京都府","prefecture_kana":"キョウトフ","city":"京都市下京区","city_kana":"キョウトシシモギョウク","town":"油小路町","town_kana":"アブラノコウジチョウ","prefecture_code":26},"8148":{"zip_code":"6008148","prefecture":"京都府","prefecture_kana":"キョウトフ","city":"京都市下京区","city_kana":"キョウトシシモギョウク","town":"飴屋町","town_kana":"アメヤチョウ","prefecture_code":26},"8383":{"zip_code":"6008383","prefecture":"京都府","prefecture_kana":"キョウトフ","city":"京都市下京区","city_kana":"キョウトシシモギョウク","town":"綾大宮町","town_kana":"アヤオオミヤチョウ","prefecture_code":26},"8072":{"zip_code":"6008072","prefecture":"京都府","prefecture_kana":"キョウトフ","city":"京都市下京区","city_kana":"キョウトシシモギョウク","town":"綾材木町","town_kana":"アヤザイモクチョウ","prefecture_code":26},"8474":{"zip_code":"6008474","prefecture":"京都府","prefecture_kana":"キョウトフ","city":"京都市下京区","city_kana":"キョウトシシモギョウク","town":"綾西洞院町","town_kana":"アヤニシノトウインチョウ","prefecture_code":26},"8482":{"zip_code":"6008482","prefecture":"京都府","prefecture_kana":"キョウトフ","city":"京都市下京区","city_kana":"キョウトシシモギョウク","town":"綾堀川町","town_kana":"アヤホリカワチョウ","prefecture_code":26},"8496":{"zip_code":"6008496","prefecture":"京都府","prefecture_kana":"キョウトフ","city":"京都市下京区","city_kana":"キョウトシシモギョウク","town":"石井筒町","town_kana":"イシイヅツチョウ","prefecture_code":26},"8047":{"zip_code":"6008047","prefecture":"京都府","prefecture_kana":"キョウトフ","city":"京都市下京区","city_kana":"キョウトシシモギョウク","town":"石不動之町","town_kana":"イシフドウノチョウ","prefecture_code":26},"8188":{"zip_code":"6008188","prefecture":"京都府","prefecture_kana":"キョウトフ","city":"京都市下京区","city_kana":"キョウトシシモギョウク","town":"和泉町","town_kana":"イズミチョウ","prefecture_code":26},"8014":{"zip_code":"6008014","prefecture":"京都府","prefecture_kana":"キョウトフ","city":"京都市下京区","city_kana":"キョウトシシモギョウク","town":"和泉屋町","town_kana":"イズミヤチョウ","prefecture_code":26},"8254":{"zip_code":"6008254","prefecture":"京都府","prefecture_kana":"キョウトフ","city":"京都市下京区","city_kana":"キョウトシシモギョウク","town":"伊勢松町","town_kana":"イセマツチョウ","prefecture_code":26},"8018":{"zip_code":"6008018","prefecture":"京都府","prefecture_kana":"キョウトフ","city":"京都市下京区","city_kana":"キョウトシシモギョウク","town":"市之町","town_kana":"イチノチョウ","prefecture_code":26},"8318":{"zip_code":"6008318","prefecture":"京都府","prefecture_kana":"キョウトフ","city":"京都市下京区","city_kana":"キョウトシシモギョウク","town":"井筒町","town_kana":"イヅツチョウ","prefecture_code":26},"8432":{"zip_code":"6008432","prefecture":"京都府","prefecture_kana":"キョウトフ","city":"京都市下京区","city_kana":"キョウトシシモギョウク","town":"糸屋町","town_kana":"イトヤチョウ","prefecture_code":26},"8415":{"zip_code":"6008415","prefecture":"京都府","prefecture_kana":"キョウトフ","city":"京都市下京区","city_kana":"キョウトシシモギョウク","town":"因幡堂町","town_kana":"イナバドウチョウ","prefecture_code":26},"8022":[{"zip_code":"6008022","prefecture":"京都府","prefecture_kana":"キョウトフ","city":"京都市下京区","city_kana":"キョウトシシモギョウク","town":"稲荷町河原町通四条下る","town_kana":"イナリチョウカワラマチドオリシジョウサガル","prefecture_code":26},{"zip_code":"6008022","prefecture":"京都府","prefecture_kana":"キョウトフ","city":"京都市下京区","city_kana":"キョウトシシモギョウク","town":"稲荷町","town_kana":"イナリチョウ","prefecture_code":26}],"8133":[{"zip_code":"6008133","prefecture":"京都府","prefecture_kana":"キョウトフ","city":"京都市下京区","city_kana":"キョウトシシモギョウク","town":"稲荷町七条通加茂川筋西入","town_kana":"イナリチョウシチジョウドオリカモガワスジニシイル","prefecture_code":26},{"zip_code":"6008133","prefecture":"京都府","prefecture_kana":"キョウトフ","city":"京都市下京区","city_kana":"キョウトシシモギョウク","town":"稲荷町七条通木屋町東入","town_kana":"イナリチョウシチジョウドオリキヤマチヒガシイル","prefecture_code":26}],"8098":[{"zip_code":"6008098","prefecture":"京都府","prefecture_kana":"キョウトフ","city":"京都市下京区","city_kana":"キョウトシシモギョウク","town":"稲荷町間之町通高辻下る","town_kana":"イナリチョウ","prefecture_code":26},{"zip_code":"6008098","prefecture":"京都府","prefecture_kana":"キョウトフ","city":"京都市下京区","city_kana":"キョウトシシモギョウク","town":"稲荷町間之町通松原上る","town_kana":"イナリチョウ","prefecture_code":26},{"zip_code":"6008098","prefecture":"京都府","prefecture_kana":"キョウトフ","city":"京都市下京区","city_kana":"キョウトシシモギョウク","town":"稲荷町高辻通間之町西入","town_kana":"イナリチョウ","prefecture_code":26},{"zip_code":"6008098","prefecture":"京都府","prefecture_kana":"キョウトフ","city":"京都市下京区","city_kana":"キョウトシシモギョウク","town":"稲荷町高辻通間之町東入","town_kana":"イナリチョウ","prefecture_code":26},{"zip_code":"6008098","prefecture":"京都府","prefecture_kana":"キョウトフ","city":"京都市下京区","city_kana":"キョウトシシモギョウク","town":"稲荷町高辻通東洞院東入","town_kana":"イナリチョウ","prefecture_code":26}],"8166":{"zip_code":"6008166","prefecture":"京都府","prefecture_kana":"キョウトフ","city":"京都市下京区","city_kana":"キョウトシシモギョウク","town":"乾町","town_kana":"イヌイチョウ","prefecture_code":26},"8384":{"zip_code":"6008384","prefecture":"京都府","prefecture_kana":"キョウトフ","city":"京都市下京区","city_kana":"キョウトシシモギョウク","town":"今大黒町","town_kana":"イマダイコクチョウ","prefecture_code":26},"8115":{"zip_code":"6008115","prefecture":"京都府","prefecture_kana":"キョウトフ","city":"京都市下京区","city_kana":"キョウトシシモギョウク","town":"岩滝町","town_kana":"イワタキチョウ","prefecture_code":26},"8445":{"zip_code":"6008445","prefecture":"京都府","prefecture_kana":"キョウトフ","city":"京都市下京区","city_kana":"キョウトシシモギョウク","town":"岩戸山町","town_kana":"イワトヤマチョウ","prefecture_code":26},"8028":[{"zip_code":"6008028","prefecture":"京都府","prefecture_kana":"キョウトフ","city":"京都市下京区","city_kana":"キョウトシシモギョウク","town":"植松町河原町通松原下る","town_kana":"ウエマツチョウ","prefecture_code":26},{"zip_code":"6008028","prefecture":"京都府","prefecture_kana":"キョウトフ","city":"京都市下京区","city_kana":"キョウトシシモギョウク","town":"植松町河原町通万寿寺上る","town_kana":"ウエマツチョウ","prefecture_code":26},{"zip_code":"6008028","prefecture":"京都府","prefecture_kana":"キョウトフ","city":"京都市下京区","city_kana":"キョウトシシモギョウク","town":"植松町寺町通松原下る","town_kana":"ウエマツチョウ","prefecture_code":26},{"zip_code":"6008028","prefecture":"京都府","prefecture_kana":"キョウトフ","city":"京都市下京区","city_kana":"キョウトシシモギョウク","town":"植松町寺町通万寿寺上る","town_kana":"ウエマツチョウ","prefecture_code":26},{"zip_code":"6008028","prefecture":"京都府","prefecture_kana":"キョウトフ","city":"京都市下京区","city_kana":"キョウトシシモギョウク","town":"植松町松原通寺町西入","town_kana":"ウエマツチョウ","prefecture_code":26},{"zip_code":"6008028","prefecture":"京都府","prefecture_kana":"キョウトフ","city":"京都市下京区","city_kana":"キョウトシシモギョウク","town":"植松町松原通寺町東入","town_kana":"ウエマツチョウ","prefecture_code":26},{"zip_code":"6008028","prefecture":"京都府","prefecture_kana":"キョウトフ","city":"京都市下京区","city_kana":"キョウトシシモギョウク","town":"植松町万寿寺通河原町西入","town_kana":"ウエマツチョウ","prefecture_code":26},{"zip_code":"6008028","prefecture":"京都府","prefecture_kana":"キョウトフ","city":"京都市下京区","city_kana":"キョウトシシモギョウク","town":"植松町万寿寺通寺町西入","town_kana":"ウエマツチョウ","prefecture_code":26}],"8343":[{"zip_code":"6008343","prefecture":"京都府","prefecture_kana":"キョウトフ","city":"京都市下京区","city_kana":"キョウトシシモギョウク","town":"植松町正面通西洞院西入","town_kana":"ウエマツチョウショウメンドオリニシノトウインニシイル","prefecture_code":26},{"zip_code":"6008343","prefecture":"京都府","prefecture_kana":"キョウトフ","city":"京都市下京区","city_kana":"キョウトシシモギョウク","town":"植松町西洞院通正面下る","town_kana":"ウエマツチョウニシノトウインドオリショウメンサガル","prefecture_code":26}],"8304":{"zip_code":"6008304","prefecture":"京都府","prefecture_kana":"キョウトフ","city":"京都市下京区","city_kana":"キョウトシシモギョウク","town":"艮町","town_kana":"ウシトラチョウ","prefecture_code":26},"8151":{"zip_code":"6008151","prefecture":"京都府","prefecture_kana":"キョウトフ","city":"京都市下京区","city_kana":"キョウトシシモギョウク","town":"打越町","town_kana":"ウチコシチョウ","prefecture_code":26},"8855":{"zip_code":"6008855","prefecture":"京都府","prefecture_kana":"キョウトフ","city":"京都市下京区","city_kana":"キョウトシシモギョウク","town":"梅小路石橋町","town_kana":"ウメコウジイシバシチョウ","prefecture_code":26},"8851":{"zip_code":"6008851","prefecture":"京都府","prefecture_kana":"キョウトフ","city":"京都市下京区","city_kana":"キョウトシシモギョウク","town":"梅小路頭町","town_kana":"ウメコウジカシラチョウ","prefecture_code":26},"8853":{"zip_code":"6008853","prefecture":"京都府","prefecture_kana":"キョウトフ","city":"京都市下京区","city_kana":"キョウトシシモギョウク","town":"梅小路高畑町","town_kana":"ウメコウジタカハタチョウ","prefecture_code":26},"8854":{"zip_code":"6008854","prefecture":"京都府","prefecture_kana":"キョウトフ","city":"京都市下京区","city_kana":"キョウトシシモギョウク","town":"梅小路西中町","town_kana":"ウメコウジニシナカマチ","prefecture_code":26},"8852":{"zip_code":"6008852","prefecture":"京都府","prefecture_kana":"キョウトフ","city":"京都市下京区","city_kana":"キョウトシシモギョウク","town":"梅小路東中町","town_kana":"ウメコウジヒガシナカマチ","prefecture_code":26},"8857":{"zip_code":"6008857","prefecture":"京都府","prefecture_kana":"キョウトフ","city":"京都市下京区","city_kana":"キョウトシシモギョウク","town":"梅小路東町","town_kana":"ウメコウジヒガシマチ","prefecture_code":26},"8856":{"zip_code":"6008856","prefecture":"京都府","prefecture_kana":"キョウトフ","city":"京都市下京区","city_kana":"キョウトシシモギョウク","town":"梅小路本町","town_kana":"ウメコウジホンマチ","prefecture_code":26},"8127":{"zip_code":"6008127","prefecture":"京都府","prefecture_kana":"キョウトフ","city":"京都市下京区","city_kana":"キョウトシシモギョウク","town":"梅湊町","town_kana":"ウメミナトチョウ","prefecture_code":26},"8822":{"zip_code":"6008822","prefecture":"京都府","prefecture_kana":"キョウトフ","city":"京都市下京区","city_kana":"キョウトシシモギョウク","town":"裏片町","town_kana":"ウラカタチョウ","prefecture_code":26},"8463":{"zip_code":"6008463","prefecture":"京都府","prefecture_kana":"キョウトフ","city":"京都市下京区","city_kana":"キョウトシシモギョウク","town":"永養寺町","town_kana":"エイヨウジチョウ","prefecture_code":26},"8154":{"zip_code":"6008154","prefecture":"京都府","prefecture_kana":"キョウトフ","city":"京都市下京区","city_kana":"キョウトシシモギョウク","town":"榎木町","town_kana":"エノキチョウ","prefecture_code":26},"8302":{"zip_code":"6008302","prefecture":"京都府","prefecture_kana":"キョウトフ","city":"京都市下京区","city_kana":"キョウトシシモギョウク","town":"蛭子町","town_kana":"エビスチョウ","prefecture_code":26},"8033":{"zip_code":"6008033","prefecture":"京都府","prefecture_kana":"キョウトフ","city":"京都市下京区","city_kana":"キョウトシシモギョウク","town":"恵美須之町","town_kana":"エビスノチョウ","prefecture_code":26},"8183":[{"zip_code":"6008183","prefecture":"京都府","prefecture_kana":"キョウトフ","city":"京都市下京区","city_kana":"キョウトシシモギョウク","town":"夷之町","town_kana":"エビスノチョウ","prefecture_code":26},{"zip_code":"6008183","prefecture":"京都府","prefecture_kana":"キョウトフ","city":"京都市下京区","city_kana":"キョウトシシモギョウク","town":"夷之町間之町通花屋町上る","town_kana":"エビスノチョウ","prefecture_code":26},{"zip_code":"6008183","prefecture":"京都府","prefecture_kana":"キョウトフ","city":"京都市下京区","city_kana":"キョウトシシモギョウク","town":"夷之町間之町通六条下る","town_kana":"エビスノチョウ","prefecture_code":26},{"zip_code":"6008183","prefecture":"京都府","prefecture_kana":"キョウトフ","city":"京都市下京区","city_kana":"キョウトシシモギョウク","town":"夷之町花屋町通間之町西入","town_kana":"エビスノチョウ","prefecture_code":26},{"zip_code":"6008183","prefecture":"京都府","prefecture_kana":"キョウトフ","city":"京都市下京区","city_kana":"キョウトシシモギョウク","town":"夷之町花屋町通間之町東入","town_kana":"エビスノチョウ","prefecture_code":26},{"zip_code":"6008183","prefecture":"京都府","prefecture_kana":"キョウトフ","city":"京都市下京区","city_kana":"キョウトシシモギョウク","town":"夷之町花屋町通東洞院東入","town_kana":"エビスノチョウ","prefecture_code":26},{"zip_code":"6008183","prefecture":"京都府","prefecture_kana":"キョウトフ","city":"京都市下京区","city_kana":"キョウトシシモギョウク","town":"夷之町六条通間之町西入","town_kana":"エビスノチョウ","prefecture_code":26},{"zip_code":"6008183","prefecture":"京都府","prefecture_kana":"キョウトフ","city":"京都市下京区","city_kana":"キョウトシシモギョウク","town":"夷之町六条通間之町東入","town_kana":"エビスノチョウ","prefecture_code":26},{"zip_code":"6008183","prefecture":"京都府","prefecture_kana":"キョウトフ","city":"京都市下京区","city_kana":"キョウトシシモギョウク","town":"夷之町六条通東洞院東入","town_kana":"エビスノチョウ","prefecture_code":26}],"8310":[{"zip_code":"6008310","prefecture":"京都府","prefecture_kana":"キョウトフ","city":"京都市下京区","city_kana":"キョウトシシモギョウク","town":"夷之町七条通新町西入","town_kana":"エビスノチョウ","prefecture_code":26},{"zip_code":"6008310","prefecture":"京都府","prefecture_kana":"キョウトフ","city":"京都市下京区","city_kana":"キョウトシシモギョウク","town":"夷之町七条通新町東入","town_kana":"エビスノチョウ","prefecture_code":26},{"zip_code":"6008310","prefecture":"京都府","prefecture_kana":"キョウトフ","city":"京都市下京区","city_kana":"キョウトシシモギョウク","town":"夷之町七条通新町上る東入","town_kana":"エビスノチョウ","prefecture_code":26},{"zip_code":"6008310","prefecture":"京都府","prefecture_kana":"キョウトフ","city":"京都市下京区","city_kana":"キョウトシシモギョウク","town":"夷之町七条通西洞院東入","town_kana":"エビスノチョウ","prefecture_code":26},{"zip_code":"6008310","prefecture":"京都府","prefecture_kana":"キョウトフ","city":"京都市下京区","city_kana":"キョウトシシモギョウク","town":"夷之町新町通七条上る","town_kana":"エビスノチョウ","prefecture_code":26},{"zip_code":"6008310","prefecture":"京都府","prefecture_kana":"キョウトフ","city":"京都市下京区","city_kana":"キョウトシシモギョウク","town":"夷之町新町通七条下る","town_kana":"エビスノチョウ","prefecture_code":26},{"zip_code":"6008310","prefecture":"京都府","prefecture_kana":"キョウトフ","city":"京都市下京区","city_kana":"キョウトシシモギョウク","town":"夷之町新町通七条下る東入","town_kana":"エビスノチョウ","prefecture_code":26},{"zip_code":"6008310","prefecture":"京都府","prefecture_kana":"キョウトフ","city":"京都市下京区","city_kana":"キョウトシシモギョウク","town":"夷之町西洞院通七条上る","town_kana":"エビスノチョウ","prefecture_code":26}],"8837":{"zip_code":"6008837","prefecture":"京都府","prefecture_kana":"キョウトフ","city":"京都市下京区","city_kana":"キョウトシシモギョウク","town":"夷馬場町","town_kana":"エビスノバンバチョウ","prefecture_code":26},"8328":{"zip_code":"6008328","prefecture":"京都府","prefecture_kana":"キョウトフ","city":"京都市下京区","city_kana":"キョウトシシモギョウク","town":"蛭子水町","town_kana":"エビスミズチョウ","prefecture_code":26},"8062":{"zip_code":"6008062","prefecture":"京都府","prefecture_kana":"キョウトフ","city":"京都市下京区","city_kana":"キョウトシシモギョウク","town":"恵美須屋町","town_kana":"エビスヤチョウ","prefecture_code":26},"8095":{"zip_code":"6008095","prefecture":"京都府","prefecture_kana":"キョウトフ","city":"京都市下京区","city_kana":"キョウトシシモギョウク","town":"扇酒屋町","town_kana":"オウギサカヤチョウ","prefecture_code":26},"8402":{"zip_code":"6008402","prefecture":"京都府","prefecture_kana":"キョウトフ","city":"京都市下京区","city_kana":"キョウトシシモギョウク","town":"大江町","town_kana":"オオエチョウ","prefecture_code":26},"8177":{"zip_code":"6008177","prefecture":"京都府","prefecture_kana":"キョウトフ","city":"京都市下京区","city_kana":"キョウトシシモギョウク","town":"大坂町","town_kana":"オオサカチョウ","prefecture_code":26},"8181":{"zip_code":"6008181","prefecture":"京都府","prefecture_kana":"キョウトフ","city":"京都市下京区","city_kana":"キョウトシシモギョウク","town":"大津町","town_kana":"オオツチョウ","prefecture_code":26},"8419":{"zip_code":"6008419","prefecture":"京都府","prefecture_kana":"キョウトフ","city":"京都市下京区","city_kana":"キョウトシシモギョウク","town":"大堀町","town_kana":"オオボリチョウ","prefecture_code":26},"8413":{"zip_code":"6008413","prefecture":"京都府","prefecture_kana":"キョウトフ","city":"京都市下京区","city_kana":"キョウトシシモギョウク","town":"大政所町","town_kana":"オオマンドコロチョウ","prefecture_code":26},"8363":{"zip_code":"6008363","prefecture":"京都府","prefecture_kana":"キョウトフ","city":"京都市下京区","city_kana":"キョウトシシモギョウク","town":"大宮","town_kana":"オオミヤ","prefecture_code":26},"8138":{"zip_code":"6008138","prefecture":"京都府","prefecture_kana":"キョウトフ","city":"京都市下京区","city_kana":"キョウトシシモギョウク","town":"大宮町","town_kana":"オオミヤチョウ","prefecture_code":26},"8002":{"zip_code":"6008002","prefecture":"京都府","prefecture_kana":"キョウトフ","city":"京都市下京区","city_kana":"キョウトシシモギョウク","town":"御旅町","town_kana":"オタビチョウ","prefecture_code":26},"8003":{"zip_code":"6008003","prefecture":"京都府","prefecture_kana":"キョウトフ","city":"京都市下京区","city_kana":"キョウトシシモギョウク","town":"御旅宮本町","town_kana":"オタビミヤモトチョウ","prefecture_code":26},"8430":{"zip_code":"6008430","prefecture":"京都府","prefecture_kana":"キョウトフ","city":"京都市下京区","city_kana":"キョウトシシモギョウク","town":"小田原町","town_kana":"オダワラチョウ","prefecture_code":26},"8145":{"zip_code":"6008145","prefecture":"京都府","prefecture_kana":"キョウトフ","city":"京都市下京区","city_kana":"キョウトシシモギョウク","town":"皆山町","town_kana":"カイザンチョウ","prefecture_code":26},"8246":{"zip_code":"6008246","prefecture":"京都府","prefecture_kana":"キョウトフ","city":"京都市下京区","city_kana":"キョウトシシモギョウク","town":"垣ケ内町","town_kana":"カキガウチチョウ","prefecture_code":26},"8357":{"zip_code":"6008357","prefecture":"京都府","prefecture_kana":"キョウトフ","city":"京都市下京区","city_kana":"キョウトシシモギョウク","town":"柿本町","town_kana":"カキモトチョウ","prefecture_code":26},"8057":[{"zip_code":"6008057","prefecture":"京都府","prefecture_kana":"キョウトフ","city":"京都市下京区","city_kana":"キョウトシシモギョウク","town":"鍵屋町高辻通麩屋町西入","town_kana":"カギヤチョウ","prefecture_code":26},{"zip_code":"6008057","prefecture":"京都府","prefecture_kana":"キョウトフ","city":"京都市下京区","city_kana":"キョウトシシモギョウク","town":"鍵屋町高辻通麩屋町東入","town_kana":"カギヤチョウ","prefecture_code":26},{"zip_code":"6008057","prefecture":"京都府","prefecture_kana":"キョウトフ","city":"京都市下京区","city_kana":"キョウトシシモギョウク","town":"鍵屋町麩屋町通高辻下る","town_kana":"カギヤチョウ","prefecture_code":26},{"zip_code":"6008057","prefecture":"京都府","prefecture_kana":"キョウトフ","city":"京都市下京区","city_kana":"キョウトシシモギョウク","town":"鍵屋町麩屋町通松原上る","town_kana":"カギヤチョウ","prefecture_code":26}],"8126":[{"zip_code":"6008126","prefecture":"京都府","prefecture_kana":"キョウトフ","city":"京都市下京区","city_kana":"キョウトシシモギョウク","town":"鍵屋町正面通木屋町東入","town_kana":"カギヤチョウ","prefecture_code":26},{"zip_code":"6008126","prefecture":"京都府","prefecture_kana":"キョウトフ","city":"京都市下京区","city_kana":"キョウトシシモギョウク","town":"鍵屋町加茂川筋正面上る","town_kana":"カギヤチョウ","prefecture_code":26},{"zip_code":"6008126","prefecture":"京都府","prefecture_kana":"キョウトフ","city":"京都市下京区","city_kana":"キョウトシシモギョウク","town":"鍵屋町正面通二ノ宮西入","town_kana":"カギヤチョウ","prefecture_code":26},{"zip_code":"6008126","prefecture":"京都府","prefecture_kana":"キョウトフ","city":"京都市下京区","city_kana":"キョウトシシモギョウク","town":"鍵屋町木屋町通正面上る","town_kana":"カギヤチョウ","prefecture_code":26},{"zip_code":"6008126","prefecture":"京都府","prefecture_kana":"キョウトフ","city":"京都市下京区","city_kana":"キョウトシシモギョウク","town":"鍵屋町正面通二ノ宮東入","town_kana":"カギヤチョウ","prefecture_code":26},{"zip_code":"6008126","prefecture":"京都府","prefecture_kana":"キョウトフ","city":"京都市下京区","city_kana":"キョウトシシモギョウク","town":"鍵屋町正面通加茂川筋西入","town_kana":"カギヤチョウ","prefecture_code":26},{"zip_code":"6008126","prefecture":"京都府","prefecture_kana":"キョウトフ","city":"京都市下京区","city_kana":"キョウトシシモギョウク","town":"鍵屋町二ノ宮通正面上る","town_kana":"カギヤチョウ","prefecture_code":26}],"8178":[{"zip_code":"6008178","prefecture":"京都府","prefecture_kana":"キョウトフ","city":"京都市下京区","city_kana":"キョウトシシモギョウク","town":"鍵屋町","town_kana":"カギヤチョウ","prefecture_code":26},{"zip_code":"6008178","prefecture":"京都府","prefecture_kana":"キョウトフ","city":"京都市下京区","city_kana":"キョウトシシモギョウク","town":"鍵屋町諏訪町通鍵屋町上る","town_kana":"カギヤチョウ","prefecture_code":26},{"zip_code":"6008178","prefecture":"京都府","prefecture_kana":"キョウトフ","city":"京都市下京区","city_kana":"キョウトシシモギョウク","town":"鍵屋町諏訪町通鍵屋町下る","town_kana":"カギヤチョウ","prefecture_code":26}],"8317":[{"zip_code":"6008317","prefecture":"京都府","prefecture_kana":"キョウトフ","city":"京都市下京区","city_kana":"キョウトシシモギョウク","town":"鍵屋町北小路通西洞院東入","town_kana":"カギヤチョウ","prefecture_code":26},{"zip_code":"6008317","prefecture":"京都府","prefecture_kana":"キョウトフ","city":"京都市下京区","city_kana":"キョウトシシモギョウク","town":"鍵屋町北小路通若宮西入","town_kana":"カギヤチョウ","prefecture_code":26},{"zip_code":"6008317","prefecture":"京都府","prefecture_kana":"キョウトフ","city":"京都市下京区","city_kana":"キョウトシシモギョウク","town":"鍵屋町正面通新町西入","town_kana":"カギヤチョウ","prefecture_code":26},{"zip_code":"6008317","prefecture":"京都府","prefecture_kana":"キョウトフ","city":"京都市下京区","city_kana":"キョウトシシモギョウク","town":"鍵屋町若宮通正面下る","town_kana":"カギヤチョウ","prefecture_code":26},{"zip_code":"6008317","prefecture":"京都府","prefecture_kana":"キョウトフ","city":"京都市下京区","city_kana":"キョウトシシモギョウク","town":"鍵屋町若宮通北小路上る","town_kana":"カギヤチョウ","prefecture_code":26},{"zip_code":"6008317","prefecture":"京都府","prefecture_kana":"キョウトフ","city":"京都市下京区","city_kana":"キョウトシシモギョウク","town":"鍵屋町正面通若宮東入","town_kana":"カギヤチョウ","prefecture_code":26}],"8341":{"zip_code":"6008341","prefecture":"京都府","prefecture_kana":"キョウトフ","city":"京都市下京区","city_kana":"キョウトシシモギョウク","town":"学林町","town_kana":"ガクリンチョウ","prefecture_code":26},"8475":{"zip_code":"6008475","prefecture":"京都府","prefecture_kana":"キョウトフ","city":"京都市下京区","city_kana":"キョウトシシモギョウク","town":"風早町","town_kana":"カザハヤチョウ","prefecture_code":26},"8494":{"zip_code":"6008494","prefecture":"京都府","prefecture_kana":"キョウトフ","city":"京都市下京区","city_kana":"キョウトシシモギョウク","town":"傘鉾町","town_kana":"カサボコチョウ","prefecture_code":26},"8079":[{"zip_code":"6008079","prefecture":"京都府","prefecture_kana":"キョウトフ","city":"京都市下京区","city_kana":"キョウトシシモギョウク","town":"鍛冶屋町堺町通松原下る","town_kana":"カジヤチョウサカイマチドオリマツバラサガル","prefecture_code":26},{"zip_code":"6008079","prefecture":"京都府","prefecture_kana":"キョウトフ","city":"京都市下京区","city_kana":"キョウトシシモギョウク","town":"鍛冶屋町堺町通万寿寺上る","town_kana":"カジヤチョウサカイマチドオリマンジュウジアガル","prefecture_code":26},{"zip_code":"6008079","prefecture":"京都府","prefecture_kana":"キョウトフ","city":"京都市下京区","city_kana":"キョウトシシモギョウク","town":"鍛冶屋町万寿寺通堺町東入","town_kana":"カジヤチョウマンジュウジドオリサカイマチヒガシイル","prefecture_code":26}],"8329":[{"zip_code":"6008329","prefecture":"京都府","prefecture_kana":"キョウトフ","city":"京都市下京区","city_kana":"キョウトシシモギョウク","town":"鍛冶屋町北小路通西洞院西入","town_kana":"カジヤチョウ","prefecture_code":26},{"zip_code":"6008329","prefecture":"京都府","prefecture_kana":"キョウトフ","city":"京都市下京区","city_kana":"キョウトシシモギョウク","town":"鍛冶屋町北小路通西洞院東入","town_kana":"カジヤチョウ","prefecture_code":26},{"zip_code":"6008329","prefecture":"京都府","prefecture_kana":"キョウトフ","city":"京都市下京区","city_kana":"キョウトシシモギョウク","town":"鍛冶屋町西洞院通北小路上る","town_kana":"カジヤチョウ","prefecture_code":26},{"zip_code":"6008329","prefecture":"京都府","prefecture_kana":"キョウトフ","city":"京都市下京区","city_kana":"キョウトシシモギョウク","town":"鍛冶屋町西洞院通正面下る","town_kana":"カジヤチョウ","prefecture_code":26}],"8066":[{"zip_code":"6008066","prefecture":"京都府","prefecture_kana":"キョウトフ","city":"京都市下京区","city_kana":"キョウトシシモギョウク","town":"柏屋町万寿寺通柳馬場西入","town_kana":"カシワヤチョウ","prefecture_code":26},{"zip_code":"6008066","prefecture":"京都府","prefecture_kana":"キョウトフ","city":"京都市下京区","city_kana":"キョウトシシモギョウク","town":"柏屋町柳馬場通五条上る","town_kana":"カシワヤチョウ","prefecture_code":26},{"zip_code":"6008066","prefecture":"京都府","prefecture_kana":"キョウトフ","city":"京都市下京区","city_kana":"キョウトシシモギョウク","town":"柏屋町柳馬場通万寿寺下る","town_kana":"カシワヤチョウ","prefecture_code":26}],"8498":[{"zip_code":"6008498","prefecture":"京都府","prefecture_kana":"キョウトフ","city":"京都市下京区","city_kana":"キョウトシシモギョウク","town":"柏屋町四条通油小路西入","town_kana":"カシワヤチョウ","prefecture_code":26},{"zip_code":"6008498","prefecture":"京都府","prefecture_kana":"キョウトフ","city":"京都市下京区","city_kana":"キョウトシシモギョウク","town":"柏屋町四条通醒ケ井西入","town_kana":"カシワヤチョウ","prefecture_code":26},{"zip_code":"6008498","prefecture":"京都府","prefecture_kana":"キョウトフ","city":"京都市下京区","city_kana":"キョウトシシモギョウク","town":"柏屋町四条通醒ケ井東入","town_kana":"カシワヤチョウ","prefecture_code":26},{"zip_code":"6008498","prefecture":"京都府","prefecture_kana":"キョウトフ","city":"京都市下京区","city_kana":"キョウトシシモギョウク","town":"柏屋町四条通東堀川東入","town_kana":"カシワヤチョウ","prefecture_code":26},{"zip_code":"6008498","prefecture":"京都府","prefecture_kana":"キョウトフ","city":"京都市下京区","city_kana":"キョウトシシモギョウク","town":"柏屋町四条通堀川東入","town_kana":"カシワヤチョウ","prefecture_code":26}],"8049":{"zip_code":"6008049","prefecture":"京都府","prefecture_kana":"キョウトフ","city":"京都市下京区","city_kana":"キョウトシシモギョウク","town":"堅田町万寿寺通御幸町西入","town_kana":"カタダチョウマンジュウジドオリゴコマチニシイル","prefecture_code":26},"8050":[{"zip_code":"6008050","prefecture":"京都府","prefecture_kana":"キョウトフ","city":"京都市下京区","city_kana":"キョウトシシモギョウク","town":"堅田町万寿寺通富小路東入","town_kana":"カタダチョウマンシュウジドオリトミノコウジヒガシイル","prefecture_code":26},{"zip_code":"6008050","prefecture":"京都府","prefecture_kana":"キョウトフ","city":"京都市下京区","city_kana":"キョウトシシモギョウク","town":"堅田町万寿寺通麩屋町西入","town_kana":"カタダチョウマンシュウジドオリフヤチョウニシイル","prefecture_code":26}],"8067":[{"zip_code":"6008067","prefecture":"京都府","prefecture_kana":"キョウトフ","city":"京都市下京区","city_kana":"キョウトシシモギョウク","town":"堅田町万寿寺通堺町東入","town_kana":"カタダチョウ","prefecture_code":26},{"zip_code":"6008067","prefecture":"京都府","prefecture_kana":"キョウトフ","city":"京都市下京区","city_kana":"キョウトシシモギョウク","town":"堅田町万寿寺通富小路西入","town_kana":"カタダチョウ","prefecture_code":26},{"zip_code":"6008067","prefecture":"京都府","prefecture_kana":"キョウトフ","city":"京都市下京区","city_kana":"キョウトシシモギョウク","town":"堅田町万寿寺通柳馬場西入","town_kana":"カタダチョウ","prefecture_code":26},{"zip_code":"6008067","prefecture":"京都府","prefecture_kana":"キョウトフ","city":"京都市下京区","city_kana":"キョウトシシモギョウク","town":"堅田町万寿寺通柳馬場東入","town_kana":"カタダチョウ","prefecture_code":26},{"zip_code":"6008067","prefecture":"京都府","prefecture_kana":"キョウトフ","city":"京都市下京区","city_kana":"キョウトシシモギョウク","town":"堅田町柳馬場通万寿寺上る","town_kana":"カタダチョウ","prefecture_code":26}],"8089":{"zip_code":"6008089","prefecture":"京都府","prefecture_kana":"キョウトフ","city":"京都市下京区","city_kana":"キョウトシシモギョウク","town":"堅田町万寿寺通堺町西入","town_kana":"カタダチョウマンシュウジドオリサカイマチニシイル","prefecture_code":26},"8493":{"zip_code":"6008493","prefecture":"京都府","prefecture_kana":"キョウトフ","city":"京都市下京区","city_kana":"キョウトシシモギョウク","town":"郭巨山町","town_kana":"カツキョヤマチョウ","prefecture_code":26},"8323":{"zip_code":"6008323","prefecture":"京都府","prefecture_kana":"キョウトフ","city":"京都市下京区","city_kana":"キョウトシシモギョウク","town":"金屋町","town_kana":"カナヤチョウ","prefecture_code":26},"8258":{"zip_code":"6008258","prefecture":"京都府","prefecture_kana":"キョウトフ","city":"京都市下京区","city_kana":"キョウトシシモギョウク","town":"金換町","town_kana":"カネガエチョウ","prefecture_code":26},"8239":{"zip_code":"6008239","prefecture":"京都府","prefecture_kana":"キョウトフ","city":"京都市下京区","city_kana":"キョウトシシモギョウク","town":"鎌屋町","town_kana":"カマヤチョウ","prefecture_code":26},"8058":{"zip_code":"6008058","prefecture":"京都府","prefecture_kana":"キョウトフ","city":"京都市下京区","city_kana":"キョウトシシモギョウク","town":"上鱗形町","town_kana":"カミウロコガタチョウ","prefecture_code":26},"8242":{"zip_code":"6008242","prefecture":"京都府","prefecture_kana":"キョウトフ","city":"京都市下京区","city_kana":"キョウトシシモギョウク","town":"上夷町","town_kana":"カミエビスチョウ","prefecture_code":26},"8457":{"zip_code":"6008457","prefecture":"京都府","prefecture_kana":"キョウトフ","city":"京都市下京区","city_kana":"キョウトシシモギョウク","town":"上金仏町","town_kana":"カミカナブツチョウ","prefecture_code":26},"8259":{"zip_code":"6008259","prefecture":"京都府","prefecture_kana":"キョウトフ","city":"京都市下京区","city_kana":"キョウトシシモギョウク","town":"上糀屋町","town_kana":"カミコウジヤチョウ","prefecture_code":26},"8377":{"zip_code":"6008377","prefecture":"京都府","prefecture_kana":"キョウトフ","city":"京都市下京区","city_kana":"キョウトシシモギョウク","town":"上五条町","town_kana":"カミゴジョウチョウ","prefecture_code":26},"8135":{"zip_code":"6008135","prefecture":"京都府","prefecture_kana":"キョウトフ","city":"京都市下京区","city_kana":"キョウトシシモギョウク","town":"上三之宮町","town_kana":"カミサンノミヤチョウ","prefecture_code":26},"8150":{"zip_code":"6008150","prefecture":"京都府","prefecture_kana":"キョウトフ","city":"京都市下京区","city_kana":"キョウトシシモギョウク","town":"上珠数屋町","town_kana":"カミジュズヤチョウ","prefecture_code":26},"8312":{"zip_code":"6008312","prefecture":"京都府","prefecture_kana":"キョウトフ","city":"京都市下京区","city_kana":"キョウトシシモギョウク","town":"上錫屋町","town_kana":"カミスズヤチョウ","prefecture_code":26},"8170":{"zip_code":"6008170","prefecture":"京都府","prefecture_kana":"キョウトフ","city":"京都市下京区","city_kana":"キョウトシシモギョウク","town":"上諏訪町","town_kana":"カミスワンチョウ","prefecture_code":26},"8376":{"zip_code":"6008376","prefecture":"京都府","prefecture_kana":"キョウトフ","city":"京都市下京区","city_kana":"キョウトシシモギョウク","town":"上長福寺町","town_kana":"カミチョウフクジチョウ","prefecture_code":26},"8248":{"zip_code":"6008248","prefecture":"京都府","prefecture_kana":"キョウトフ","city":"京都市下京区","city_kana":"キョウトシシモギョウク","town":"上中之町","town_kana":"カミナカノチョウ","prefecture_code":26},"8131":{"zip_code":"6008131","prefecture":"京都府","prefecture_kana":"キョウトフ","city":"京都市下京区","city_kana":"キョウトシシモギョウク","town":"上二之宮町","town_kana":"カミニノミヤチョウ","prefecture_code":26},"8266":[{"zip_code":"6008266","prefecture":"京都府","prefecture_kana":"キョウトフ","city":"京都市下京区","city_kana":"キョウトシシモギョウク","town":"上之町大宮通木津屋橋上る","town_kana":"カミノチョウ","prefecture_code":26},{"zip_code":"6008266","prefecture":"京都府","prefecture_kana":"キョウトフ","city":"京都市下京区","city_kana":"キョウトシシモギョウク","town":"上之町大宮通七条下る","town_kana":"カミノチョウ","prefecture_code":26},{"zip_code":"6008266","prefecture":"京都府","prefecture_kana":"キョウトフ","city":"京都市下京区","city_kana":"キョウトシシモギョウク","town":"上之町大宮通下魚棚下る","town_kana":"カミノチョウ","prefecture_code":26},{"zip_code":"6008266","prefecture":"京都府","prefecture_kana":"キョウトフ","city":"京都市下京区","city_kana":"キョウトシシモギョウク","town":"上之町木津屋橋通大宮東入","town_kana":"カミノチョウ","prefecture_code":26},{"zip_code":"6008266","prefecture":"京都府","prefecture_kana":"キョウトフ","city":"京都市下京区","city_kana":"キョウトシシモギョウク","town":"上之町下魚棚通大宮東入","town_kana":"カミノチョウ","prefecture_code":26}],"8207":{"zip_code":"6008207","prefecture":"京都府","prefecture_kana":"キョウトフ","city":"京都市下京区","city_kana":"キョウトシシモギョウク","town":"上之町","town_kana":"カミノチョウ","prefecture_code":26},"8171":{"zip_code":"6008171","prefecture":"京都府","prefecture_kana":"キョウトフ","city":"京都市下京区","city_kana":"キョウトシシモギョウク","town":"上平野町","town_kana":"カミヒラノチョウ","prefecture_code":26},"8099":[{"zip_code":"6008099","prefecture":"京都府","prefecture_kana":"キョウトフ","city":"京都市下京区","city_kana":"キョウトシシモギョウク","town":"上柳町仏光寺通烏丸東入","town_kana":"カミヤナギチョウ","prefecture_code":26},{"zip_code":"6008099","prefecture":"京都府","prefecture_kana":"キョウトフ","city":"京都市下京区","city_kana":"キョウトシシモギョウク","town":"上柳町仏光寺通烏丸東入上る","town_kana":"カミヤナギチョウ","prefecture_code":26},{"zip_code":"6008099","prefecture":"京都府","prefecture_kana":"キョウトフ","city":"京都市下京区","city_kana":"キョウトシシモギョウク","town":"上柳町仏光寺通烏丸東入下る","town_kana":"カミヤナギチョウ","prefecture_code":26},{"zip_code":"6008099","prefecture":"京都府","prefecture_kana":"キョウトフ","city":"京都市下京区","city_kana":"キョウトシシモギョウク","town":"上柳町仏光寺通東洞院西入","town_kana":"カミヤナギチョウ","prefecture_code":26}],"8164":[{"zip_code":"6008164","prefecture":"京都府","prefecture_kana":"キョウトフ","city":"京都市下京区","city_kana":"キョウトシシモギョウク","town":"上柳町諏訪町通花屋町上る","town_kana":"カミヤナギチョウ","prefecture_code":26},{"zip_code":"6008164","prefecture":"京都府","prefecture_kana":"キョウトフ","city":"京都市下京区","city_kana":"キョウトシシモギョウク","town":"上柳町諏訪町通六条上る","town_kana":"カミヤナギチョウ","prefecture_code":26},{"zip_code":"6008164","prefecture":"京都府","prefecture_kana":"キョウトフ","city":"京都市下京区","city_kana":"キョウトシシモギョウク","town":"上柳町諏訪町通六条下る","town_kana":"カミヤナギチョウ","prefecture_code":26},{"zip_code":"6008164","prefecture":"京都府","prefecture_kana":"キョウトフ","city":"京都市下京区","city_kana":"キョウトシシモギョウク","town":"上柳町六条通烏丸西入","town_kana":"カミヤナギチョウ","prefecture_code":26},{"zip_code":"6008164","prefecture":"京都府","prefecture_kana":"キョウトフ","city":"京都市下京区","city_kana":"キョウトシシモギョウク","town":"上柳町六条通諏訪町西入","town_kana":"カミヤナギチョウ","prefecture_code":26},{"zip_code":"6008164","prefecture":"京都府","prefecture_kana":"キョウトフ","city":"京都市下京区","city_kana":"キョウトシシモギョウク","town":"上柳町六条通諏訪町東入","town_kana":"カミヤナギチョウ","prefecture_code":26},{"zip_code":"6008164","prefecture":"京都府","prefecture_kana":"キョウトフ","city":"京都市下京区","city_kana":"キョウトシシモギョウク","town":"上柳町六条通室町東入","town_kana":"カミヤナギチョウ","prefecture_code":26}],"8301":[{"zip_code":"6008301","prefecture":"京都府","prefecture_kana":"キョウトフ","city":"京都市下京区","city_kana":"キョウトシシモギョウク","town":"上柳町楊梅通新町東入","town_kana":"カミヤナギチョウ","prefecture_code":26},{"zip_code":"6008301","prefecture":"京都府","prefecture_kana":"キョウトフ","city":"京都市下京区","city_kana":"キョウトシシモギョウク","town":"上柳町室町新町之間五条下る","town_kana":"カミヤナギチョウ","prefecture_code":26},{"zip_code":"6008301","prefecture":"京都府","prefecture_kana":"キョウトフ","city":"京都市下京区","city_kana":"キョウトシシモギョウク","town":"上柳町楊梅通新町東入上る","town_kana":"カミヤナギチョウ","prefecture_code":26},{"zip_code":"6008301","prefecture":"京都府","prefecture_kana":"キョウトフ","city":"京都市下京区","city_kana":"キョウトシシモギョウク","town":"上柳町楊梅通室町西入","town_kana":"カミヤナギチョウ","prefecture_code":26}],"8313":{"zip_code":"6008313","prefecture":"京都府","prefecture_kana":"キョウトフ","city":"京都市下京区","city_kana":"キョウトシシモギョウク","town":"上若宮町","town_kana":"カミワカミヤチョウ","prefecture_code":26},"8159":{"zip_code":"6008159","prefecture":"京都府","prefecture_kana":"キョウトフ","city":"京都市下京区","city_kana":"キョウトシシモギョウク","town":"亀町","town_kana":"カメマチ","prefecture_code":26},"8406":[{"zip_code":"6008406","prefecture":"京都府","prefecture_kana":"キョウトフ","city":"京都市下京区","city_kana":"キョウトシシモギョウク","town":"亀屋町高倉通五条上る","town_kana":"カメヤチョウタカクラドオリゴジョウアガル","prefecture_code":26},{"zip_code":"6008406","prefecture":"京都府","prefecture_kana":"キョウトフ","city":"京都市下京区","city_kana":"キョウトシシモギョウク","town":"亀屋町高倉通万寿寺下る","town_kana":"カメヤチョウタカクラドオリマンジュウジサガル","prefecture_code":26}],"8451":[{"zip_code":"6008451","prefecture":"京都府","prefecture_kana":"キョウトフ","city":"京都市下京区","city_kana":"キョウトシシモギョウク","town":"亀屋町若宮通松原下る","town_kana":"カメヤチョウワカミヤドオリマツバラサガル","prefecture_code":26},{"zip_code":"6008451","prefecture":"京都府","prefecture_kana":"キョウトフ","city":"京都市下京区","city_kana":"キョウトシシモギョウク","town":"亀屋町若宮通万寿寺上る","town_kana":"カメヤチョウワカミヤドオリマンジュウジアガル","prefecture_code":26}],"8175":{"zip_code":"6008175","prefecture":"京都府","prefecture_kana":"キョウトフ","city":"京都市下京区","city_kana":"キョウトシシモギョウク","town":"烏丸","town_kana":"カラスマ","prefecture_code":26},"8499":{"zip_code":"6008499","prefecture":"京都府","prefecture_kana":"キョウトフ","city":"京都市下京区","city_kana":"キョウトシシモギョウク","town":"唐津屋町","town_kana":"カラツヤチョウ","prefecture_code":26},"8197":{"zip_code":"6008197","prefecture":"京都府","prefecture_kana":"キョウトフ","city":"京都市下京区","city_kana":"キョウトシシモギョウク","town":"唐物町","town_kana":"カラモノチョウ","prefecture_code":26},"8056":[{"zip_code":"6008056","prefecture":"京都府","prefecture_kana":"キョウトフ","city":"京都市下京区","city_kana":"キョウトシシモギョウク","town":"雁金町高辻通富小路東入","town_kana":"カリガネチョウタカツジドオリトミノコウジヒガシイル","prefecture_code":26},{"zip_code":"6008056","prefecture":"京都府","prefecture_kana":"キョウトフ","city":"京都市下京区","city_kana":"キョウトシシモギョウク","town":"雁金町高辻通麩屋町西入","town_kana":"カリガネチョウタカツジドオリフヤチョウニシイル","prefecture_code":26}],"8060":[{"zip_code":"6008060","prefecture":"京都府","prefecture_kana":"キョウトフ","city":"京都市下京区","city_kana":"キョウトシシモギョウク","town":"雁金町高辻通富小路西入","town_kana":"カリガネチョウタカツジドオリトミノコウジニシイル","prefecture_code":26},{"zip_code":"6008060","prefecture":"京都府","prefecture_kana":"キョウトフ","city":"京都市下京区","city_kana":"キョウトシシモギョウク","town":"雁金町高辻通柳馬場東入","town_kana":"カリガネチョウタカツジドオリヤナギババヒガシイル","prefecture_code":26}],"8393":[{"zip_code":"6008393","prefecture":"京都府","prefecture_kana":"キョウトフ","city":"京都市下京区","city_kana":"キョウトシシモギョウク","town":"雁金町岩上通綾小路下る","town_kana":"カリガネチョウイワガミドオリアヤノコウジサガル","prefecture_code":26},{"zip_code":"6008393","prefecture":"京都府","prefecture_kana":"キョウトフ","city":"京都市下京区","city_kana":"キョウトシシモギョウク","town":"雁金町岩上通仏光寺上る","town_kana":"カリガネチョウイワガミドオリブツコウジアガル","prefecture_code":26}],"8252":[{"zip_code":"6008252","prefecture":"京都府","prefecture_kana":"キョウトフ","city":"京都市下京区","city_kana":"キョウトシシモギョウク","town":"川端町木津屋橋通堀川西入","town_kana":"カワバタチョウキズヤバシドオリホリカワニシイル","prefecture_code":26},{"zip_code":"6008252","prefecture":"京都府","prefecture_kana":"キョウトフ","city":"京都市下京区","city_kana":"キョウトシシモギョウク","town":"川端町堀川通木津屋橋上る","town_kana":"カワバタチョウホリカワドオリキズヤバシアガル","prefecture_code":26}],"8202":{"zip_code":"6008202","prefecture":"京都府","prefecture_kana":"キョウトフ","city":"京都市下京区","city_kana":"キョウトシシモギョウク","town":"川端町","town_kana":"カワバタチョウ","prefecture_code":26},"8835":{"zip_code":"6008835","prefecture":"京都府","prefecture_kana":"キョウトフ","city":"京都市下京区","city_kana":"キョウトシシモギョウク","town":"観喜寺町","town_kana":"カンキジチョウ","prefecture_code":26},"8009":{"zip_code":"6008009","prefecture":"京都府","prefecture_kana":"キョウトフ","city":"京都市下京区","city_kana":"キョウトシシモギョウク","town":"函谷鉾町","town_kana":"カンコボコチョウ","prefecture_code":26},"8336":{"zip_code":"6008336","prefecture":"京都府","prefecture_kana":"キョウトフ","city":"京都市下京区","city_kana":"キョウトシシモギョウク","town":"元日町","town_kana":"ガンジツチョウ","prefecture_code":26},"8088":{"zip_code":"6008088","prefecture":"京都府","prefecture_kana":"キョウトフ","city":"京都市下京区","city_kana":"キョウトシシモギョウク","town":"官社殿町","town_kana":"カンシャデンチョウ","prefecture_code":26},"8444":{"zip_code":"6008444","prefecture":"京都府","prefecture_kana":"キョウトフ","city":"京都市下京区","city_kana":"キョウトシシモギョウク","town":"菅大臣町","town_kana":"カンダイジンチョウ","prefecture_code":26},"8121":[{"zip_code":"6008121","prefecture":"京都府","prefecture_kana":"キョウトフ","city":"京都市下京区","city_kana":"キョウトシシモギョウク","town":"菊屋町上ノ口通加茂川筋西入","town_kana":"キクヤチョウ","prefecture_code":26},{"zip_code":"6008121","prefecture":"京都府","prefecture_kana":"キョウトフ","city":"京都市下京区","city_kana":"キョウトシシモギョウク","town":"菊屋町上ノ口通加茂川筋西入上る","town_kana":"キクヤチョウ","prefecture_code":26},{"zip_code":"6008121","prefecture":"京都府","prefecture_kana":"キョウトフ","city":"京都市下京区","city_kana":"キョウトシシモギョウク","town":"菊屋町加茂川筋上ノ口下る","town_kana":"キクヤチョウ","prefecture_code":26},{"zip_code":"6008121","prefecture":"京都府","prefecture_kana":"キョウトフ","city":"京都市下京区","city_kana":"キョウトシシモギョウク","town":"菊屋町上ノ口通二ノ宮西入","town_kana":"キクヤチョウ","prefecture_code":26},{"zip_code":"6008121","prefecture":"京都府","prefecture_kana":"キョウトフ","city":"京都市下京区","city_kana":"キョウトシシモギョウク","town":"菊屋町二ノ宮通上ノ口下る","town_kana":"キクヤチョウ","prefecture_code":26}],"8464":[{"zip_code":"6008464","prefecture":"京都府","prefecture_kana":"キョウトフ","city":"京都市下京区","city_kana":"キョウトシシモギョウク","town":"菊屋町高辻通新町西入下る","town_kana":"キクヤチョウ","prefecture_code":26},{"zip_code":"6008464","prefecture":"京都府","prefecture_kana":"キョウトフ","city":"京都市下京区","city_kana":"キョウトシシモギョウク","town":"菊屋町高辻通西洞院東入下る","town_kana":"キクヤチョウ","prefecture_code":26},{"zip_code":"6008464","prefecture":"京都府","prefecture_kana":"キョウトフ","city":"京都市下京区","city_kana":"キョウトシシモギョウク","town":"菊屋町若宮通高辻下る","town_kana":"キクヤチョウ","prefecture_code":26},{"zip_code":"6008464","prefecture":"京都府","prefecture_kana":"キョウトフ","city":"京都市下京区","city_kana":"キョウトシシモギョウク","town":"菊屋町若宮通松原上る","town_kana":"キクヤチョウ","prefecture_code":26}],"8228":{"zip_code":"6008228","prefecture":"京都府","prefecture_kana":"キョウトフ","city":"京都市下京区","city_kana":"キョウトシシモギョウク","town":"北小路町","town_kana":"キタコウジチョウ","prefecture_code":26},"8233":{"zip_code":"6008233","prefecture":"京都府","prefecture_kana":"キョウトフ","city":"京都市下京区","city_kana":"キョウトシシモギョウク","town":"北不動堂町","town_kana":"キタフドンドウチョウ","prefecture_code":26},"8176":{"zip_code":"6008176","prefecture":"京都府","prefecture_kana":"キョウトフ","city":"京都市下京区","city_kana":"キョウトシシモギョウク","town":"北町","town_kana":"キタマチ","prefecture_code":26},"8356":{"zip_code":"6008356","prefecture":"京都府","prefecture_kana":"キョウトフ","city":"京都市下京区","city_kana":"キョウトシシモギョウク","town":"北門前町","town_kana":"キタモンゼンチョウ","prefecture_code":26},"8069":[{"zip_code":"6008069","prefecture":"京都府","prefecture_kana":"キョウトフ","city":"京都市下京区","city_kana":"キョウトシシモギョウク","town":"吉文字町高辻通柳馬場西入","town_kana":"キチモンジチョウ","prefecture_code":26},{"zip_code":"6008069","prefecture":"京都府","prefecture_kana":"キョウトフ","city":"京都市下京区","city_kana":"キョウトシシモギョウク","town":"吉文字町高辻通柳馬場東入","town_kana":"キチモンジチョウ","prefecture_code":26},{"zip_code":"6008069","prefecture":"京都府","prefecture_kana":"キョウトフ","city":"京都市下京区","city_kana":"キョウトシシモギョウク","town":"吉文字町柳馬場通高辻下る","town_kana":"キチモンジチョウ","prefecture_code":26},{"zip_code":"6008069","prefecture":"京都府","prefecture_kana":"キョウトフ","city":"京都市下京区","city_kana":"キョウトシシモギョウク","town":"吉文字町柳馬場通松原上る","town_kana":"キチモンジチョウ","prefecture_code":26}],"8352":[{"zip_code":"6008352","prefecture":"京都府","prefecture_kana":"キョウトフ","city":"京都市下京区","city_kana":"キョウトシシモギョウク","town":"吉文字町岩上通松原上る","town_kana":"キチモンジチョウイワガミドオリマツバラアガル","prefecture_code":26},{"zip_code":"6008352","prefecture":"京都府","prefecture_kana":"キョウトフ","city":"京都市下京区","city_kana":"キョウトシシモギョウク","town":"吉文字町岩上通高辻下る","town_kana":"キチモンジチョウイワガミドオリタカツジサガル","prefecture_code":26}],"8253":{"zip_code":"6008253","prefecture":"京都府","prefecture_kana":"キョウトフ","city":"京都市下京区","city_kana":"キョウトシシモギョウク","town":"木津屋町","town_kana":"キヅヤチョウ","prefecture_code":26},"8035":{"zip_code":"6008035","prefecture":"京都府","prefecture_kana":"キョウトフ","city":"京都市下京区","city_kana":"キョウトシシモギョウク","town":"京極町","town_kana":"キョウゴクチョウ","prefecture_code":26},"8476":{"zip_code":"6008476","prefecture":"京都府","prefecture_kana":"キョウトフ","city":"京都市下京区","city_kana":"キョウトシシモギョウク","town":"喜吉町","town_kana":"キヨシチョウ","prefecture_code":26},"8331":{"zip_code":"6008331","prefecture":"京都府","prefecture_kana":"キョウトフ","city":"京都市下京区","city_kana":"キョウトシシモギョウク","town":"金東横町","town_kana":"キントウヨコチョウ","prefecture_code":26},"8423":{"zip_code":"6008423","prefecture":"京都府","prefecture_kana":"キョウトフ","city":"京都市下京区","city_kana":"キョウトシシモギョウク","town":"釘隠町","town_kana":"クギカクシチョウ","prefecture_code":26},"8081":{"zip_code":"6008081","prefecture":"京都府","prefecture_kana":"キョウトフ","city":"京都市下京区","city_kana":"キョウトシシモギョウク","town":"小石町","town_kana":"コイシチョウ","prefecture_code":26},"8480":{"zip_code":"6008480","prefecture":"京都府","prefecture_kana":"キョウトフ","city":"京都市下京区","city_kana":"キョウトシシモギョウク","town":"小泉町","town_kana":"コイズミチョウ","prefecture_code":26},"8208":{"zip_code":"6008208","prefecture":"京都府","prefecture_kana":"キョウトフ","city":"京都市下京区","city_kana":"キョウトシシモギョウク","town":"小稲荷町","town_kana":"コイナリチョウ","prefecture_code":26},"8460":{"zip_code":"6008460","prefecture":"京都府","prefecture_kana":"キョウトフ","city":"京都市下京区","city_kana":"キョウトシシモギョウク","town":"荒神町","town_kana":"コウジンチョウ","prefecture_code":26},"8034":{"zip_code":"6008034","prefecture":"京都府","prefecture_kana":"キョウトフ","city":"京都市下京区","city_kana":"キョウトシシモギョウク","town":"幸竹町","town_kana":"コウタケチョウ","prefecture_code":26},"8209":{"zip_code":"6008209","prefecture":"京都府","prefecture_kana":"キョウトフ","city":"京都市下京区","city_kana":"キョウトシシモギョウク","town":"郷之町","town_kana":"ゴウノチョウ","prefecture_code":26},"8497":{"zip_code":"6008497","prefecture":"京都府","prefecture_kana":"キョウトフ","city":"京都市下京区","city_kana":"キョウトシシモギョウク","town":"高野堂町","town_kana":"コウヤドウチョウ","prefecture_code":26},"8149":{"zip_code":"6008149","prefecture":"京都府","prefecture_kana":"キョウトフ","city":"京都市下京区","city_kana":"キョウトシシモギョウク","town":"粉川町","town_kana":"コガワチョウ","prefecture_code":26},"8267":{"zip_code":"6008267","prefecture":"京都府","prefecture_kana":"キョウトフ","city":"京都市下京区","city_kana":"キョウトシシモギョウク","town":"御器屋町","town_kana":"ゴキヤチョウ","prefecture_code":26},"8429":{"zip_code":"6008429","prefecture":"京都府","prefecture_kana":"キョウトフ","city":"京都市下京区","city_kana":"キョウトシシモギョウク","town":"御供石町","town_kana":"ゴクイシチョウ","prefecture_code":26},"8485":{"zip_code":"6008485","prefecture":"京都府","prefecture_kana":"キョウトフ","city":"京都市下京区","city_kana":"キョウトシシモギョウク","town":"五軒町","town_kana":"ゴケンチョウ","prefecture_code":26},"8821":{"zip_code":"6008821","prefecture":"京都府","prefecture_kana":"キョウトフ","city":"京都市下京区","city_kana":"キョウトシシモギョウク","town":"小坂町","town_kana":"コサカチョウ","prefecture_code":26},"8426":{"zip_code":"6008426","prefecture":"京都府","prefecture_kana":"キョウトフ","city":"京都市下京区","city_kana":"キョウトシシモギョウク","town":"小島町","town_kana":"コジマチョウ","prefecture_code":26},"8418":{"zip_code":"6008418","prefecture":"京都府","prefecture_kana":"キョウトフ","city":"京都市下京区","city_kana":"キョウトシシモギョウク","town":"五条烏丸町","town_kana":"ゴジョウカラスマチョウ","prefecture_code":26},"8385":{"zip_code":"6008385","prefecture":"京都府","prefecture_kana":"キョウトフ","city":"京都市下京区","city_kana":"キョウトシシモギョウク","town":"五坊大宮町","town_kana":"ゴボウオオミヤチョウ","prefecture_code":26},"8229":{"zip_code":"6008229","prefecture":"京都府","prefecture_kana":"キョウトフ","city":"京都市下京区","city_kana":"キョウトシシモギョウク","town":"米屋町","town_kana":"コメヤチョウ","prefecture_code":26},"8322":{"zip_code":"6008322","prefecture":"京都府","prefecture_kana":"キョウトフ","city":"京都市下京区","city_kana":"キョウトシシモギョウク","town":"小柳町","town_kana":"コヤナギチョウ","prefecture_code":26},"8130":{"zip_code":"6008130","prefecture":"京都府","prefecture_kana":"キョウトフ","city":"京都市下京区","city_kana":"キョウトシシモギョウク","town":"紺屋町","town_kana":"コンヤチョウ","prefecture_code":26},"8012":{"zip_code":"6008012","prefecture":"京都府","prefecture_kana":"キョウトフ","city":"京都市下京区","city_kana":"キョウトシシモギョウク","town":"斎藤町","town_kana":"サイトウチョウ","prefecture_code":26},"8016":[{"zip_code":"6008016","prefecture":"京都府","prefecture_kana":"キョウトフ","city":"京都市下京区","city_kana":"キョウトシシモギョウク","town":"材木町木屋町通松原下る","town_kana":"ザイモクチョウ","prefecture_code":26},{"zip_code":"6008016","prefecture":"京都府","prefecture_kana":"キョウトフ","city":"京都市下京区","city_kana":"キョウトシシモギョウク","town":"材木町松原通木屋町東入","town_kana":"ザイモクチョウ","prefecture_code":26},{"zip_code":"6008016","prefecture":"京都府","prefecture_kana":"キョウトフ","city":"京都市下京区","city_kana":"キョウトシシモギョウク","town":"材木町松原通高瀬川筋東入","town_kana":"ザイモクチョウ","prefecture_code":26}],"8146":[{"zip_code":"6008146","prefecture":"京都府","prefecture_kana":"キョウトフ","city":"京都市下京区","city_kana":"キョウトシシモギョウク","town":"材木町間之町通七条下る","town_kana":"ザイモクチョウ","prefecture_code":26},{"zip_code":"6008146","prefecture":"京都府","prefecture_kana":"キョウトフ","city":"京都市下京区","city_kana":"キョウトシシモギョウク","town":"材木町間之町通七条上る","town_kana":"ザイモクチョウ","prefecture_code":26},{"zip_code":"6008146","prefecture":"京都府","prefecture_kana":"キョウトフ","city":"京都市下京区","city_kana":"キョウトシシモギョウク","town":"材木町河原町通七条上る","town_kana":"ザイモクチョウ","prefecture_code":26},{"zip_code":"6008146","prefecture":"京都府","prefecture_kana":"キョウトフ","city":"京都市下京区","city_kana":"キョウトシシモギョウク","town":"材木町河原町通七条下る","town_kana":"ザイモクチョウ","prefecture_code":26},{"zip_code":"6008146","prefecture":"京都府","prefecture_kana":"キョウトフ","city":"京都市下京区","city_kana":"キョウトシシモギョウク","town":"材木町七条通間之町西入","town_kana":"ザイモクチョウ","prefecture_code":26},{"zip_code":"6008146","prefecture":"京都府","prefecture_kana":"キョウトフ","city":"京都市下京区","city_kana":"キョウトシシモギョウク","town":"材木町七条通間之町東入","town_kana":"ザイモクチョウ","prefecture_code":26},{"zip_code":"6008146","prefecture":"京都府","prefecture_kana":"キョウトフ","city":"京都市下京区","city_kana":"キョウトシシモギョウク","town":"材木町七条通河原町西入","town_kana":"ザイモクチョウ","prefecture_code":26},{"zip_code":"6008146","prefecture":"京都府","prefecture_kana":"キョウトフ","city":"京都市下京区","city_kana":"キョウトシシモギョウク","town":"材木町七条通河原町東入","town_kana":"ザイモクチョウ","prefecture_code":26},{"zip_code":"6008146","prefecture":"京都府","prefecture_kana":"キョウトフ","city":"京都市下京区","city_kana":"キョウトシシモギョウク","town":"材木町七条通高倉西入","town_kana":"ザイモクチョウ","prefecture_code":26},{"zip_code":"6008146","prefecture":"京都府","prefecture_kana":"キョウトフ","city":"京都市下京区","city_kana":"キョウトシシモギョウク","town":"材木町七条通高倉東入","town_kana":"ザイモクチョウ","prefecture_code":26},{"zip_code":"6008146","prefecture":"京都府","prefecture_kana":"キョウトフ","city":"京都市下京区","city_kana":"キョウトシシモギョウク","town":"材木町七条通土手町西入","town_kana":"ザイモクチョウ","prefecture_code":26},{"zip_code":"6008146","prefecture":"京都府","prefecture_kana":"キョウトフ","city":"京都市下京区","city_kana":"キョウトシシモギョウク","town":"材木町七条通東洞院東入","town_kana":"ザイモクチョウ","prefecture_code":26},{"zip_code":"6008146","prefecture":"京都府","prefecture_kana":"キョウトフ","city":"京都市下京区","city_kana":"キョウトシシモギョウク","town":"材木町高倉通七条上る","town_kana":"ザイモクチョウ","prefecture_code":26},{"zip_code":"6008146","prefecture":"京都府","prefecture_kana":"キョウトフ","city":"京都市下京区","city_kana":"キョウトシシモギョウク","town":"材木町高倉通七条下る","town_kana":"ザイモクチョウ","prefecture_code":26},{"zip_code":"6008146","prefecture":"京都府","prefecture_kana":"キョウトフ","city":"京都市下京区","city_kana":"キョウトシシモギョウク","town":"材木町土手町通七条上る","town_kana":"ザイモクチョウ","prefecture_code":26},{"zip_code":"6008146","prefecture":"京都府","prefecture_kana":"キョウトフ","city":"京都市下京区","city_kana":"キョウトシシモギョウク","town":"材木町東洞院通七条下る","town_kana":"ザイモクチョウ","prefecture_code":26},{"zip_code":"6008146","prefecture":"京都府","prefecture_kana":"キョウトフ","city":"京都市下京区","city_kana":"キョウトシシモギョウク","town":"材木町柳馬場通七条上る","town_kana":"ザイモクチョウ","prefecture_code":26}],"8440":[{"zip_code":"6008440","prefecture":"京都府","prefecture_kana":"キョウトフ","city":"京都市下京区","city_kana":"キョウトシシモギョウク","town":"材木町新町通五条上る","town_kana":"ザイモクチョウ","prefecture_code":26},{"zip_code":"6008440","prefecture":"京都府","prefecture_kana":"キョウトフ","city":"京都市下京区","city_kana":"キョウトシシモギョウク","town":"材木町新町通万寿寺下る","town_kana":"ザイモクチョウ","prefecture_code":26},{"zip_code":"6008440","prefecture":"京都府","prefecture_kana":"キョウトフ","city":"京都市下京区","city_kana":"キョウトシシモギョウク","town":"材木町万寿寺通新町西入","town_kana":"ザイモクチョウ","prefecture_code":26},{"zip_code":"6008440","prefecture":"京都府","prefecture_kana":"キョウトフ","city":"京都市下京区","city_kana":"キョウトシシモギョウク","town":"材木町万寿寺通新町東入","town_kana":"ザイモクチョウ","prefecture_code":26}],"8191":[{"zip_code":"6008191","prefecture":"京都府","prefecture_kana":"キョウトフ","city":"京都市下京区","city_kana":"キョウトシシモギョウク","town":"堺町五条通高倉西入","town_kana":"サカイマチゴジョウドオリタカクラニシイル","prefecture_code":26},{"zip_code":"6008191","prefecture":"京都府","prefecture_kana":"キョウトフ","city":"京都市下京区","city_kana":"キョウトシシモギョウク","town":"堺町五条通高倉東入","town_kana":"サカイマチゴジョウドオリタカクラヒガシイル","prefecture_code":26},{"zip_code":"6008191","prefecture":"京都府","prefecture_kana":"キョウトフ","city":"京都市下京区","city_kana":"キョウトシシモギョウク","town":"堺町高倉通五条下る","town_kana":"サカイマチタカクラドオリゴジョウサガル","prefecture_code":26}],"8162":[{"zip_code":"6008162","prefecture":"京都府","prefecture_kana":"キョウトフ","city":"京都市下京区","city_kana":"キョウトシシモギョウク","town":"堺町鍵屋町通室町西入","town_kana":"サカイチョウ","prefecture_code":26},{"zip_code":"6008162","prefecture":"京都府","prefecture_kana":"キョウトフ","city":"京都市下京区","city_kana":"キョウトシシモギョウク","town":"堺町鍵屋町通室町東入","town_kana":"サカイチョウ","prefecture_code":26},{"zip_code":"6008162","prefecture":"京都府","prefecture_kana":"キョウトフ","city":"京都市下京区","city_kana":"キョウトシシモギョウク","town":"堺町室町通鍵屋町下る","town_kana":"サカイチョウ","prefecture_code":26},{"zip_code":"6008162","prefecture":"京都府","prefecture_kana":"キョウトフ","city":"京都市下京区","city_kana":"キョウトシシモギョウク","town":"堺町的場通室町西入","town_kana":"サカイチョウ","prefecture_code":26},{"zip_code":"6008162","prefecture":"京都府","prefecture_kana":"キョウトフ","city":"京都市下京区","city_kana":"キョウトシシモギョウク","town":"堺町的場通室町東入","town_kana":"サカイチョウ","prefecture_code":26},{"zip_code":"6008162","prefecture":"京都府","prefecture_kana":"キョウトフ","city":"京都市下京区","city_kana":"キョウトシシモギョウク","town":"堺町","town_kana":"サカイチョウ","prefecture_code":26},{"zip_code":"6008162","prefecture":"京都府","prefecture_kana":"キョウトフ","city":"京都市下京区","city_kana":"キョウトシシモギョウク","town":"堺町室町通六条上る","town_kana":"サカイチョウ","prefecture_code":26},{"zip_code":"6008162","prefecture":"京都府","prefecture_kana":"キョウトフ","city":"京都市下京区","city_kana":"キョウトシシモギョウク","town":"堺町室町通的場上る","town_kana":"サカイチョウ","prefecture_code":26}],"8349":[{"zip_code":"6008349","prefecture":"京都府","prefecture_kana":"キョウトフ","city":"京都市下京区","city_kana":"キョウトシシモギョウク","town":"堺町堀川通旧花屋町東入","town_kana":"サカイチョウ","prefecture_code":26},{"zip_code":"6008349","prefecture":"京都府","prefecture_kana":"キョウトフ","city":"京都市下京区","city_kana":"キョウトシシモギョウク","town":"堺町堀川通旧花屋町東入下る","town_kana":"サカイチョウ","prefecture_code":26},{"zip_code":"6008349","prefecture":"京都府","prefecture_kana":"キョウトフ","city":"京都市下京区","city_kana":"キョウトシシモギョウク","town":"堺町堀川通正面上る","town_kana":"サカイチョウ","prefecture_code":26}],"8194":{"zip_code":"6008194","prefecture":"京都府","prefecture_kana":"キョウトフ","city":"京都市下京区","city_kana":"キョウトシシモギョウク","town":"栄町","town_kana":"サカエチョウ","prefecture_code":26},"8381":{"zip_code":"6008381","prefecture":"京都府","prefecture_kana":"キョウトフ","city":"京都市下京区","city_kana":"キョウトシシモギョウク","town":"下り松町","town_kana":"サガリマツチョウ","prefecture_code":26},"8210":{"zip_code":"6008210","prefecture":"京都府","prefecture_kana":"キョウトフ","city":"京都市下京区","city_kana":"キョウトシシモギョウク","town":"桜木町","town_kana":"サクラギチョウ","prefecture_code":26},"8156":{"zip_code":"6008156","prefecture":"京都府","prefecture_kana":"キョウトフ","city":"京都市下京区","city_kana":"キョウトシシモギョウク","town":"笹屋町","town_kana":"ササヤチョウ","prefecture_code":26},"8488":{"zip_code":"6008488","prefecture":"京都府","prefecture_kana":"キョウトフ","city":"京都市下京区","city_kana":"キョウトシシモギョウク","town":"篠屋町","town_kana":"ササヤチョウ","prefecture_code":26},"8391":{"zip_code":"6008391","prefecture":"京都府","prefecture_kana":"キョウトフ","city":"京都市下京区","city_kana":"キョウトシシモギョウク","town":"佐竹町","town_kana":"サタケチョウ","prefecture_code":26},"8337":{"zip_code":"6008337","prefecture":"京都府","prefecture_kana":"キョウトフ","city":"京都市下京区","city_kana":"キョウトシシモギョウク","town":"佐女牛井町","town_kana":"サメガイチョウ","prefecture_code":26},"8394":{"zip_code":"6008394","prefecture":"京都府","prefecture_kana":"キョウトフ","city":"京都市下京区","city_kana":"キョウトシシモギョウク","town":"晒屋町","town_kana":"サラシヤチョウ","prefecture_code":26},"8257":{"zip_code":"6008257","prefecture":"京都府","prefecture_kana":"キョウトフ","city":"京都市下京区","city_kana":"キョウトシシモギョウク","town":"三軒替地町","town_kana":"サンゲンガエチチョウ","prefecture_code":26},"8097":{"zip_code":"6008097","prefecture":"京都府","prefecture_kana":"キョウトフ","city":"京都市下京区","city_kana":"キョウトシシモギョウク","town":"三軒町","town_kana":"サンゲンチョウ","prefecture_code":26},"8134":[{"zip_code":"6008134","prefecture":"京都府","prefecture_kana":"キョウトフ","city":"京都市下京区","city_kana":"キョウトシシモギョウク","town":"山王町正面通木屋町西入","town_kana":"サンノウチョウ","prefecture_code":26},{"zip_code":"6008134","prefecture":"京都府","prefecture_kana":"キョウトフ","city":"京都市下京区","city_kana":"キョウトシシモギョウク","town":"山王町正面通木屋町東入","town_kana":"サンノウチョウ","prefecture_code":26},{"zip_code":"6008134","prefecture":"京都府","prefecture_kana":"キョウトフ","city":"京都市下京区","city_kana":"キョウトシシモギョウク","town":"山王町正面通三ノ宮西入","town_kana":"サンノウチョウ","prefecture_code":26},{"zip_code":"6008134","prefecture":"京都府","prefecture_kana":"キョウトフ","city":"京都市下京区","city_kana":"キョウトシシモギョウク","town":"山王町正面通三ノ宮東入","town_kana":"サンノウチョウ","prefecture_code":26},{"zip_code":"6008134","prefecture":"京都府","prefecture_kana":"キョウトフ","city":"京都市下京区","city_kana":"キョウトシシモギョウク","town":"山王町正面通二ノ宮西入","town_kana":"サンノウチョウ","prefecture_code":26}],"8424":[{"zip_code":"6008424","prefecture":"京都府","prefecture_kana":"キョウトフ","city":"京都市下京区","city_kana":"キョウトシシモギョウク","town":"山王町室町通高辻上る","town_kana":"サンノウチョウムロマチドオリタカツジアガル","prefecture_code":26},{"zip_code":"6008424","prefecture":"京都府","prefecture_kana":"キョウトフ","city":"京都市下京区","city_kana":"キョウトシシモギョウク","town":"山王町室町通仏光寺下る","town_kana":"サンノウチョウムロマチドオリブッコウジサガル","prefecture_code":26}],"8103":{"zip_code":"6008103","prefecture":"京都府","prefecture_kana":"キョウトフ","city":"京都市下京区","city_kana":"キョウトシシモギョウク","town":"塩竈町","town_kana":"シオガマチョウ","prefecture_code":26},"8212":{"zip_code":"6008212","prefecture":"京都府","prefecture_kana":"キョウトフ","city":"京都市下京区","city_kana":"キョウトシシモギョウク","town":"塩小路町","town_kana":"シオコウジチョウ","prefecture_code":26},"8052":[{"zip_code":"6008052","prefecture":"京都府","prefecture_kana":"キョウトフ","city":"京都市下京区","city_kana":"キョウトシシモギョウク","town":"塩屋町綾小路通富小路西入","town_kana":"シオヤチョウ","prefecture_code":26},{"zip_code":"6008052","prefecture":"京都府","prefecture_kana":"キョウトフ","city":"京都市下京区","city_kana":"キョウトシシモギョウク","town":"塩屋町綾小路通富小路東入","town_kana":"シオヤチョウ","prefecture_code":26},{"zip_code":"6008052","prefecture":"京都府","prefecture_kana":"キョウトフ","city":"京都市下京区","city_kana":"キョウトシシモギョウク","town":"塩屋町綾小路通麩屋町西入","town_kana":"シオヤチョウ","prefecture_code":26},{"zip_code":"6008052","prefecture":"京都府","prefecture_kana":"キョウトフ","city":"京都市下京区","city_kana":"キョウトシシモギョウク","town":"塩屋町綾小路通柳馬場東入","town_kana":"シオヤチョウ","prefecture_code":26},{"zip_code":"6008052","prefecture":"京都府","prefecture_kana":"キョウトフ","city":"京都市下京区","city_kana":"キョウトシシモギョウク","town":"塩屋町富小路通綾小路上る","town_kana":"シオヤチョウ","prefecture_code":26},{"zip_code":"6008052","prefecture":"京都府","prefecture_kana":"キョウトフ","city":"京都市下京区","city_kana":"キョウトシシモギョウク","town":"塩屋町富小路通綾小路下る","town_kana":"シオヤチョウ","prefecture_code":26},{"zip_code":"6008052","prefecture":"京都府","prefecture_kana":"キョウトフ","city":"京都市下京区","city_kana":"キョウトシシモギョウク","town":"塩屋町麩屋町通綾小路下る","town_kana":"シオヤチョウ","prefecture_code":26}],"8144":[{"zip_code":"6008144","prefecture":"京都府","prefecture_kana":"キョウトフ","city":"京都市下京区","city_kana":"キョウトシシモギョウク","town":"塩屋町河原町通七条上る西入","town_kana":"シオヤチョウ","prefecture_code":26},{"zip_code":"6008144","prefecture":"京都府","prefecture_kana":"キョウトフ","city":"京都市下京区","city_kana":"キョウトシシモギョウク","town":"塩屋町七条通河原町西入上る","town_kana":"シオヤチョウ","prefecture_code":26},{"zip_code":"6008144","prefecture":"京都府","prefecture_kana":"キョウトフ","city":"京都市下京区","city_kana":"キョウトシシモギョウク","town":"塩屋町下枳殻馬場通河原町西入下る","town_kana":"シオヤチョウ","prefecture_code":26}],"8382":[{"zip_code":"6008382","prefecture":"京都府","prefecture_kana":"キョウトフ","city":"京都市下京区","city_kana":"キョウトシシモギョウク","town":"塩屋町黒門通綾小路下る","town_kana":"シオヤチョウクロモンドオリアヤノコウジサガル","prefecture_code":26},{"zip_code":"6008382","prefecture":"京都府","prefecture_kana":"キョウトフ","city":"京都市下京区","city_kana":"キョウトシシモギョウク","town":"塩屋町黒門通仏光寺上る","town_kana":"シオヤチョウクロモンドオリブツコウジアガル","prefecture_code":26}],"8389":{"zip_code":"6008389","prefecture":"京都府","prefecture_kana":"キョウトフ","city":"京都市下京区","city_kana":"キョウトシシモギョウク","town":"四条大宮町","town_kana":"シジョウオオミヤチョウ","prefecture_code":26},"8481":{"zip_code":"6008481","prefecture":"京都府","prefecture_kana":"キョウトフ","city":"京都市下京区","city_kana":"キョウトシシモギョウク","town":"四条堀川町","town_kana":"シジョウホリカワチョウ","prefecture_code":26},"8441":{"zip_code":"6008441","prefecture":"京都府","prefecture_kana":"キョウトフ","city":"京都市下京区","city_kana":"キョウトシシモギョウク","town":"四条町","town_kana":"シジョウチョウ","prefecture_code":26},"8861":{"zip_code":"6008861","prefecture":"京都府","prefecture_kana":"キョウトフ","city":"京都市下京区","city_kana":"キョウトシシモギョウク","town":"七条御所ノ内北町","town_kana":"シチジョウゴショノウチキタマチ","prefecture_code":26},"8862":{"zip_code":"6008862","prefecture":"京都府","prefecture_kana":"キョウトフ","city":"京都市下京区","city_kana":"キョウトシシモギョウク","town":"七条御所ノ内中町","town_kana":"シチジョウゴショノウチナカマチ","prefecture_code":26},"8865":{"zip_code":"6008865","prefecture":"京都府","prefecture_kana":"キョウトフ","city":"京都市下京区","city_kana":"キョウトシシモギョウク","town":"七条御所ノ内西町","town_kana":"シチジョウゴショノウチニシマチ","prefecture_code":26},"8863":{"zip_code":"6008863","prefecture":"京都府","prefecture_kana":"キョウトフ","city":"京都市下京区","city_kana":"キョウトシシモギョウク","town":"七条御所ノ内本町","town_kana":"シチジョウゴショノウチホンマチ","prefecture_code":26},"8864":{"zip_code":"6008864","prefecture":"京都府","prefecture_kana":"キョウトフ","city":"京都市下京区","city_kana":"キョウトシシモギョウク","town":"七条御所ノ内南町","town_kana":"シチジョウゴショノウチミナミマチ","prefecture_code":26},"8316":{"zip_code":"6008316","prefecture":"京都府","prefecture_kana":"キョウトフ","city":"京都市下京区","city_kana":"キョウトシシモギョウク","town":"四本松町","town_kana":"シホンマツチョウ","prefecture_code":26},"8025":[{"zip_code":"6008025","prefecture":"京都府","prefecture_kana":"キョウトフ","city":"京都市下京区","city_kana":"キョウトシシモギョウク","town":"清水町河原町通高辻下る","town_kana":"シミズチョウ","prefecture_code":26},{"zip_code":"6008025","prefecture":"京都府","prefecture_kana":"キョウトフ","city":"京都市下京区","city_kana":"キョウトシシモギョウク","town":"清水町河原町通松原上る","town_kana":"シミズチョウ","prefecture_code":26},{"zip_code":"6008025","prefecture":"京都府","prefecture_kana":"キョウトフ","city":"京都市下京区","city_kana":"キョウトシシモギョウク","town":"清水町西木屋町通高辻下る","town_kana":"シミズチョウ","prefecture_code":26},{"zip_code":"6008025","prefecture":"京都府","prefecture_kana":"キョウトフ","city":"京都市下京区","city_kana":"キョウトシシモギョウク","town":"清水町西木屋町通松原上る","town_kana":"シミズチョウ","prefecture_code":26}],"8255":[{"zip_code":"6008255","prefecture":"京都府","prefecture_kana":"キョウトフ","city":"京都市下京区","city_kana":"キョウトシシモギョウク","town":"清水町堀川通木津屋橋下る","town_kana":"シミズチョウ","prefecture_code":26},{"zip_code":"6008255","prefecture":"京都府","prefecture_kana":"キョウトフ","city":"京都市下京区","city_kana":"キョウトシシモギョウク","town":"清水町堀川通塩小路上る","town_kana":"シミズチョウ","prefecture_code":26},{"zip_code":"6008255","prefecture":"京都府","prefecture_kana":"キョウトフ","city":"京都市下京区","city_kana":"キョウトシシモギョウク","town":"清水町西堀川通木津屋橋下る","town_kana":"シミズチョウ","prefecture_code":26},{"zip_code":"6008255","prefecture":"京都府","prefecture_kana":"キョウトフ","city":"京都市下京区","city_kana":"キョウトシシモギョウク","town":"清水町堀川通塩小路西入","town_kana":"シミズチョウ","prefecture_code":26}],"8241":{"zip_code":"6008241","prefecture":"京都府","prefecture_kana":"キョウトフ","city":"京都市下京区","city_kana":"キョウトシシモギョウク","town":"志水町","town_kana":"シミズチョウ","prefecture_code":26},"8263":{"zip_code":"6008263","prefecture":"京都府","prefecture_kana":"キョウトフ","city":"京都市下京区","city_kana":"キョウトシシモギョウク","town":"下魚棚","town_kana":"シモウオノタナ","prefecture_code":26},"8059":{"zip_code":"6008059","prefecture":"京都府","prefecture_kana":"キョウトフ","city":"京都市下京区","city_kana":"キョウトシシモギョウク","town":"下鱗形町","town_kana":"シモウロコガタチョウ","prefecture_code":26},"8249":{"zip_code":"6008249","prefecture":"京都府","prefecture_kana":"キョウトフ","city":"京都市下京区","city_kana":"キョウトシシモギョウク","town":"下糀屋町","town_kana":"シモコウジヤチョウ","prefecture_code":26},"8373":{"zip_code":"6008373","prefecture":"京都府","prefecture_kana":"キョウトフ","city":"京都市下京区","city_kana":"キョウトシシモギョウク","town":"下五条町","town_kana":"シモゴジョウチョウ","prefecture_code":26},"8017":{"zip_code":"6008017","prefecture":"京都府","prefecture_kana":"キョウトフ","city":"京都市下京区","city_kana":"キョウトシシモギョウク","town":"下材木町","town_kana":"シモザイモクチョウ","prefecture_code":26},"8136":{"zip_code":"6008136","prefecture":"京都府","prefecture_kana":"キョウトフ","city":"京都市下京区","city_kana":"キョウトシシモギョウク","town":"下三之宮町","town_kana":"シモサンノミヤチョウ","prefecture_code":26},"8163":{"zip_code":"6008163","prefecture":"京都府","prefecture_kana":"キョウトフ","city":"京都市下京区","city_kana":"キョウトシシモギョウク","town":"下諏訪町","town_kana":"シモスワンチョウ","prefecture_code":26},"8375":{"zip_code":"6008375","prefecture":"京都府","prefecture_kana":"キョウトフ","city":"京都市下京区","city_kana":"キョウトシシモギョウク","town":"下長福寺町","town_kana":"シモチョウフクジチョウ","prefecture_code":26},"8132":{"zip_code":"6008132","prefecture":"京都府","prefecture_kana":"キョウトフ","city":"京都市下京区","city_kana":"キョウトシシモギョウク","town":"下二之宮町","town_kana":"シモニノミヤチョウ","prefecture_code":26},"8206":{"zip_code":"6008206","prefecture":"京都府","prefecture_kana":"キョウトフ","city":"京都市下京区","city_kana":"キョウトシシモギョウク","town":"下之町","town_kana":"シモノチョウ","prefecture_code":26},"8172":{"zip_code":"6008172","prefecture":"京都府","prefecture_kana":"キョウトフ","city":"京都市下京区","city_kana":"キョウトシシモギョウク","town":"下平野町","town_kana":"シモヒラノチョウ","prefecture_code":26},"8180":{"zip_code":"6008180","prefecture":"京都府","prefecture_kana":"キョウトフ","city":"京都市下京区","city_kana":"キョウトシシモギョウク","town":"下万寿寺町","town_kana":"シモマンジュウジチョウ","prefecture_code":26},"8165":{"zip_code":"6008165","prefecture":"京都府","prefecture_kana":"キョウトフ","city":"京都市下京区","city_kana":"キョウトシシモギョウク","town":"下柳町","town_kana":"シモヤナギチョウ","prefecture_code":26},"8137":{"zip_code":"6008137","prefecture":"京都府","prefecture_kana":"キョウトフ","city":"京都市下京区","city_kana":"キョウトシシモギョウク","town":"十禅師町","town_kana":"ジュウゼンジチョウ","prefecture_code":26},"8354":{"zip_code":"6008354","prefecture":"京都府","prefecture_kana":"キョウトフ","city":"京都市下京区","city_kana":"キョウトシシモギョウク","town":"十文字町","town_kana":"ジュウモンジチョウ","prefecture_code":26},"8348":{"zip_code":"6008348","prefecture":"京都府","prefecture_kana":"キョウトフ","city":"京都市下京区","city_kana":"キョウトシシモギョウク","town":"珠数屋町","town_kana":"ジュズヤチョウ","prefecture_code":26},"8417":{"zip_code":"6008417","prefecture":"京都府","prefecture_kana":"キョウトフ","city":"京都市下京区","city_kana":"キョウトシシモギョウク","town":"俊成町","town_kana":"シュンゼイチョウ","prefecture_code":26},"8021":{"zip_code":"6008021","prefecture":"京都府","prefecture_kana":"キョウトフ","city":"京都市下京区","city_kana":"キョウトシシモギョウク","town":"順風町","town_kana":"ジュンプウチョウ","prefecture_code":26},"8116":{"zip_code":"6008116","prefecture":"京都府","prefecture_kana":"キョウトフ","city":"京都市下京区","city_kana":"キョウトシシモギョウク","town":"聖真子町","town_kana":"ショウシンジチョウ","prefecture_code":26},"8158":{"zip_code":"6008158","prefecture":"京都府","prefecture_kana":"キョウトフ","city":"京都市下京区","city_kana":"キョウトシシモギョウク","town":"卓屋町","town_kana":"ショクヤチョウ","prefecture_code":26},"8084":{"zip_code":"6008084","prefecture":"京都府","prefecture_kana":"キョウトフ","city":"京都市下京区","city_kana":"キョウトシシモギョウク","town":"新開町","town_kana":"シンカイチョウ","prefecture_code":26},"8471":{"zip_code":"6008471","prefecture":"京都府","prefecture_kana":"キョウトフ","city":"京都市下京区","city_kana":"キョウトシシモギョウク","town":"新釜座町","town_kana":"シンカマンザチョウ","prefecture_code":26},"8001":{"zip_code":"6008001","prefecture":"京都府","prefecture_kana":"キョウトフ","city":"京都市下京区","city_kana":"キョウトシシモギョウク","town":"真町","town_kana":"シンチョウ","prefecture_code":26},"8141":{"zip_code":"6008141","prefecture":"京都府","prefecture_kana":"キョウトフ","city":"京都市下京区","city_kana":"キョウトシシモギョウク","town":"新日吉町","town_kana":"シンヒヨシチョウ","prefecture_code":26},"8092":{"zip_code":"6008092","prefecture":"京都府","prefecture_kana":"キョウトフ","city":"京都市下京区","city_kana":"キョウトシシモギョウク","town":"神明町","town_kana":"シンメイチョウ","prefecture_code":26},"8411":{"zip_code":"6008411","prefecture":"京都府","prefecture_kana":"キョウトフ","city":"京都市下京区","city_kana":"キョウトシシモギョウク","town":"水銀屋町","town_kana":"スイギンヤチョウ","prefecture_code":26},"8386":{"zip_code":"6008386","prefecture":"京都府","prefecture_kana":"キョウトフ","city":"京都市下京区","city_kana":"キョウトシシモギョウク","town":"杉蛭子町","town_kana":"スギエビスチョウ","prefecture_code":26},"8078":{"zip_code":"6008078","prefecture":"京都府","prefecture_kana":"キョウトフ","city":"京都市下京区","city_kana":"キョウトシシモギョウク","town":"杉屋町","town_kana":"スギヤチョウ","prefecture_code":26},"8843":{"zip_code":"6008843","prefecture":"京都府","prefecture_kana":"キョウトフ","city":"京都市下京区","city_kana":"キョウトシシモギョウク","town":"朱雀内畑町","town_kana":"スジャクウチハタチョウ","prefecture_code":26},"8844":{"zip_code":"6008844","prefecture":"京都府","prefecture_kana":"キョウトフ","city":"京都市下京区","city_kana":"キョウトシシモギョウク","town":"朱雀裏畑町","town_kana":"スジャクウラハタチョウ","prefecture_code":26},"8845":{"zip_code":"6008845","prefecture":"京都府","prefecture_kana":"キョウトフ","city":"京都市下京区","city_kana":"キョウトシシモギョウク","town":"朱雀北ノ口町","town_kana":"スジャクキタノクチチョウ","prefecture_code":26},"8841":{"zip_code":"6008841","prefecture":"京都府","prefecture_kana":"キョウトフ","city":"京都市下京区","city_kana":"キョウトシシモギョウク","town":"朱雀正会町","town_kana":"スジャクショウカイチョウ","prefecture_code":26},"8842":{"zip_code":"6008842","prefecture":"京都府","prefecture_kana":"キョウトフ","city":"京都市下京区","city_kana":"キョウトシシモギョウク","town":"朱雀堂ノ口町","town_kana":"スジャクドウノクチチョウ","prefecture_code":26},"8847":{"zip_code":"6008847","prefecture":"京都府","prefecture_kana":"キョウトフ","city":"京都市下京区","city_kana":"キョウトシシモギョウク","town":"朱雀分木町","town_kana":"スジャクブンキチョウ","prefecture_code":26},"8846":{"zip_code":"6008846","prefecture":"京都府","prefecture_kana":"キョウトフ","city":"京都市下京区","city_kana":"キョウトシシモギョウク","town":"朱雀宝蔵町","town_kana":"スジャクホウゾウチョウ","prefecture_code":26},"8061":{"zip_code":"6008061","prefecture":"京都府","prefecture_kana":"キョウトフ","city":"京都市下京区","city_kana":"キョウトシシモギョウク","town":"筋屋町","town_kana":"スジヤチョウ","prefecture_code":26},"8048":{"zip_code":"6008048","prefecture":"京都府","prefecture_kana":"キョウトフ","city":"京都市下京区","city_kana":"キョウトシシモギョウク","town":"須浜町","town_kana":"スバマチョウ","prefecture_code":26},"8143":[{"zip_code":"6008143","prefecture":"京都府","prefecture_kana":"キョウトフ","city":"京都市下京区","city_kana":"キョウトシシモギョウク","town":"住吉町河原町通七条上る","town_kana":"スミヨシチョウ","prefecture_code":26},{"zip_code":"6008143","prefecture":"京都府","prefecture_kana":"キョウトフ","city":"京都市下京区","city_kana":"キョウトシシモギョウク","town":"住吉町河原町通下枳殻馬場下る","town_kana":"スミヨシチョウ","prefecture_code":26},{"zip_code":"6008143","prefecture":"京都府","prefecture_kana":"キョウトフ","city":"京都市下京区","city_kana":"キョウトシシモギョウク","town":"住吉町下枳殻馬場通河原町西入","town_kana":"スミヨシチョウ","prefecture_code":26},{"zip_code":"6008143","prefecture":"京都府","prefecture_kana":"キョウトフ","city":"京都市下京区","city_kana":"キョウトシシモギョウク","town":"住吉町下珠数屋町通高倉東入","town_kana":"スミヨシチョウ","prefecture_code":26}],"8335":[{"zip_code":"6008335","prefecture":"京都府","prefecture_kana":"キョウトフ","city":"京都市下京区","city_kana":"キョウトシシモギョウク","town":"住吉町醒ケ井通高辻下る","town_kana":"スミヨシチョウサメガイドオリタカツジサガル","prefecture_code":26},{"zip_code":"6008335","prefecture":"京都府","prefecture_kana":"キョウトフ","city":"京都市下京区","city_kana":"キョウトシシモギョウク","town":"住吉町醒ケ井通松原上る","town_kana":"スミヨシチョウサメガイドオリマツバラアガル","prefecture_code":26}],"8468":[{"zip_code":"6008468","prefecture":"京都府","prefecture_kana":"キョウトフ","city":"京都市下京区","city_kana":"キョウトシシモギョウク","town":"住吉町新花屋町通西中筋東入","town_kana":"スミヨシチョウ","prefecture_code":26},{"zip_code":"6008468","prefecture":"京都府","prefecture_kana":"キョウトフ","city":"京都市下京区","city_kana":"キョウトシシモギョウク","town":"住吉町西中筋通新花屋町上る","town_kana":"スミヨシチョウ","prefecture_code":26},{"zip_code":"6008468","prefecture":"京都府","prefecture_kana":"キョウトフ","city":"京都市下京区","city_kana":"キョウトシシモギョウク","town":"住吉町西中筋通新花屋町下る","town_kana":"スミヨシチョウ","prefecture_code":26},{"zip_code":"6008468","prefecture":"京都府","prefecture_kana":"キョウトフ","city":"京都市下京区","city_kana":"キョウトシシモギョウク","town":"住吉町西中筋通花屋町上る","town_kana":"スミヨシチョウ","prefecture_code":26},{"zip_code":"6008468","prefecture":"京都府","prefecture_kana":"キョウトフ","city":"京都市下京区","city_kana":"キョウトシシモギョウク","town":"住吉町西中筋通六条下る","town_kana":"スミヨシチョウ","prefecture_code":26},{"zip_code":"6008468","prefecture":"京都府","prefecture_kana":"キョウトフ","city":"京都市下京区","city_kana":"キョウトシシモギョウク","town":"住吉町新花屋町通堀川東入","town_kana":"スミヨシチョウ","prefecture_code":26},{"zip_code":"6008468","prefecture":"京都府","prefecture_kana":"キョウトフ","city":"京都市下京区","city_kana":"キョウトシシモギョウク","town":"住吉町堀川通新花屋町上る","town_kana":"スミヨシチョウ","prefecture_code":26},{"zip_code":"6008468","prefecture":"京都府","prefecture_kana":"キョウトフ","city":"京都市下京区","city_kana":"キョウトシシモギョウク","town":"住吉町堀川通新花屋町下る","town_kana":"スミヨシチョウ","prefecture_code":26},{"zip_code":"6008468","prefecture":"京都府","prefecture_kana":"キョウトフ","city":"京都市下京区","city_kana":"キョウトシシモギョウク","town":"住吉町堀川通花屋町上る","town_kana":"スミヨシチョウ","prefecture_code":26},{"zip_code":"6008468","prefecture":"京都府","prefecture_kana":"キョウトフ","city":"京都市下京区","city_kana":"キョウトシシモギョウク","town":"住吉町堀川通六条下る","town_kana":"スミヨシチョウ","prefecture_code":26}],"8832":{"zip_code":"6008832","prefecture":"京都府","prefecture_kana":"キョウトフ","city":"京都市下京区","city_kana":"キョウトシシモギョウク","town":"諏訪開町","town_kana":"スワビラキチョウ","prefecture_code":26},"8398":{"zip_code":"6008398","prefecture":"京都府","prefecture_kana":"キョウトフ","city":"京都市下京区","city_kana":"キョウトシシモギョウク","town":"瀬戸屋町","town_kana":"セトヤチョウ","prefecture_code":26},"8303":{"zip_code":"6008303","prefecture":"京都府","prefecture_kana":"キョウトフ","city":"京都市下京区","city_kana":"キョウトシシモギョウク","town":"銭屋町","town_kana":"ゼニヤチョウ","prefecture_code":26},"8076":{"zip_code":"6008076","prefecture":"京都府","prefecture_kana":"キョウトフ","city":"京都市下京区","city_kana":"キョウトシシモギョウク","town":"泉正寺町","town_kana":"センショウジチョウ","prefecture_code":26},"8338":{"zip_code":"6008338","prefecture":"京都府","prefecture_kana":"キョウトフ","city":"京都市下京区","city_kana":"キョウトシシモギョウク","town":"泉水町","town_kana":"センスイチョウ","prefecture_code":26},"8431":{"zip_code":"6008431","prefecture":"京都府","prefecture_kana":"キョウトフ","city":"京都市下京区","city_kana":"キョウトシシモギョウク","town":"善長寺町","town_kana":"ゼンチョウジチョウ","prefecture_code":26},"8019":{"zip_code":"6008019","prefecture":"京都府","prefecture_kana":"キョウトフ","city":"京都市下京区","city_kana":"キョウトシシモギョウク","town":"船頭町","town_kana":"センドウチョウ","prefecture_code":26},"8128":[{"zip_code":"6008128","prefecture":"京都府","prefecture_kana":"キョウトフ","city":"京都市下京区","city_kana":"キョウトシシモギョウク","town":"大工町上ノ口通河原町東入","town_kana":"ダイクチョウ","prefecture_code":26},{"zip_code":"6008128","prefecture":"京都府","prefecture_kana":"キョウトフ","city":"京都市下京区","city_kana":"キョウトシシモギョウク","town":"大工町上ノ口通土手町西入","town_kana":"ダイクチョウ","prefecture_code":26},{"zip_code":"6008128","prefecture":"京都府","prefecture_kana":"キョウトフ","city":"京都市下京区","city_kana":"キョウトシシモギョウク","town":"大工町上ノ口通土手町東入","town_kana":"ダイクチョウ","prefecture_code":26},{"zip_code":"6008128","prefecture":"京都府","prefecture_kana":"キョウトフ","city":"京都市下京区","city_kana":"キョウトシシモギョウク","town":"大工町上ノ口通西木屋町西入","town_kana":"ダイクチョウ","prefecture_code":26},{"zip_code":"6008128","prefecture":"京都府","prefecture_kana":"キョウトフ","city":"京都市下京区","city_kana":"キョウトシシモギョウク","town":"大工町河原町通上ノ口上る","town_kana":"ダイクチョウ","prefecture_code":26},{"zip_code":"6008128","prefecture":"京都府","prefecture_kana":"キョウトフ","city":"京都市下京区","city_kana":"キョウトシシモギョウク","town":"大工町河原町通上ノ口下る","town_kana":"ダイクチョウ","prefecture_code":26},{"zip_code":"6008128","prefecture":"京都府","prefecture_kana":"キョウトフ","city":"京都市下京区","city_kana":"キョウトシシモギョウク","town":"大工町河原町通六条下る","town_kana":"ダイクチョウ","prefecture_code":26},{"zip_code":"6008128","prefecture":"京都府","prefecture_kana":"キョウトフ","city":"京都市下京区","city_kana":"キョウトシシモギョウク","town":"大工町土手町通上ノ口下る","town_kana":"ダイクチョウ","prefecture_code":26},{"zip_code":"6008128","prefecture":"京都府","prefecture_kana":"キョウトフ","city":"京都市下京区","city_kana":"キョウトシシモギョウク","town":"大工町土手町通正面上る","town_kana":"ダイクチョウ","prefecture_code":26},{"zip_code":"6008128","prefecture":"京都府","prefecture_kana":"キョウトフ","city":"京都市下京区","city_kana":"キョウトシシモギョウク","town":"大工町上枳殻馬場通河原町東入","town_kana":"ダイクチョウ","prefecture_code":26}],"8268":[{"zip_code":"6008268","prefecture":"京都府","prefecture_kana":"キョウトフ","city":"京都市下京区","city_kana":"キョウトシシモギョウク","town":"大工町猪熊通七条上る","town_kana":"ダイクチョウ","prefecture_code":26},{"zip_code":"6008268","prefecture":"京都府","prefecture_kana":"キョウトフ","city":"京都市下京区","city_kana":"キョウトシシモギョウク","town":"大工町猪熊通七条下る","town_kana":"ダイクチョウ","prefecture_code":26},{"zip_code":"6008268","prefecture":"京都府","prefecture_kana":"キョウトフ","city":"京都市下京区","city_kana":"キョウトシシモギョウク","town":"大工町猪熊通下魚棚上る","town_kana":"ダイクチョウ","prefecture_code":26},{"zip_code":"6008268","prefecture":"京都府","prefecture_kana":"キョウトフ","city":"京都市下京区","city_kana":"キョウトシシモギョウク","town":"大工町七条通猪熊西入","town_kana":"ダイクチョウ","prefecture_code":26},{"zip_code":"6008268","prefecture":"京都府","prefecture_kana":"キョウトフ","city":"京都市下京区","city_kana":"キョウトシシモギョウク","town":"大工町七条通大宮東入","town_kana":"ダイクチョウ","prefecture_code":26},{"zip_code":"6008268","prefecture":"京都府","prefecture_kana":"キョウトフ","city":"京都市下京区","city_kana":"キョウトシシモギョウク","town":"大工町下魚棚通猪熊西入","town_kana":"ダイクチョウ","prefecture_code":26},{"zip_code":"6008268","prefecture":"京都府","prefecture_kana":"キョウトフ","city":"京都市下京区","city_kana":"キョウトシシモギョウク","town":"大工町下魚棚通大宮東入","town_kana":"ダイクチョウ","prefecture_code":26},{"zip_code":"6008268","prefecture":"京都府","prefecture_kana":"キョウトフ","city":"京都市下京区","city_kana":"キョウトシシモギョウク","town":"大工町下魚棚通大宮東入下る","town_kana":"ダイクチョウ","prefecture_code":26},{"zip_code":"6008268","prefecture":"京都府","prefecture_kana":"キョウトフ","city":"京都市下京区","city_kana":"キョウトシシモギョウク","town":"大工町下魚棚通黒門東入","town_kana":"ダイクチョウ","prefecture_code":26}],"8043":[{"zip_code":"6008043","prefecture":"京都府","prefecture_kana":"キョウトフ","city":"京都市下京区","city_kana":"キョウトシシモギョウク","town":"大黒町仏光寺通御幸町西入","town_kana":"ダイコクチョウ","prefecture_code":26},{"zip_code":"6008043","prefecture":"京都府","prefecture_kana":"キョウトフ","city":"京都市下京区","city_kana":"キョウトシシモギョウク","town":"大黒町仏光寺通御幸町東入","town_kana":"ダイコクチョウ","prefecture_code":26},{"zip_code":"6008043","prefecture":"京都府","prefecture_kana":"キョウトフ","city":"京都市下京区","city_kana":"キョウトシシモギョウク","town":"大黒町仏光寺通寺町西入","town_kana":"ダイコクチョウ","prefecture_code":26},{"zip_code":"6008043","prefecture":"京都府","prefecture_kana":"キョウトフ","city":"京都市下京区","city_kana":"キョウトシシモギョウク","town":"大黒町仏光寺通麩屋町東入","town_kana":"ダイコクチョウ","prefecture_code":26}],"8161":[{"zip_code":"6008161","prefecture":"京都府","prefecture_kana":"キョウトフ","city":"京都市下京区","city_kana":"キョウトシシモギョウク","town":"大黒町鍵屋町通室町西入","town_kana":"ダイコクチョウ","prefecture_code":26},{"zip_code":"6008161","prefecture":"京都府","prefecture_kana":"キョウトフ","city":"京都市下京区","city_kana":"キョウトシシモギョウク","town":"大黒町鍵屋町通室町東入","town_kana":"ダイコクチョウ","prefecture_code":26},{"zip_code":"6008161","prefecture":"京都府","prefecture_kana":"キョウトフ","city":"京都市下京区","city_kana":"キョウトシシモギョウク","town":"大黒町五条通室町東入","town_kana":"ダイコクチョウ","prefecture_code":26},{"zip_code":"6008161","prefecture":"京都府","prefecture_kana":"キョウトフ","city":"京都市下京区","city_kana":"キョウトシシモギョウク","town":"大黒町室町通鍵屋町上る","town_kana":"ダイコクチョウ","prefecture_code":26},{"zip_code":"6008161","prefecture":"京都府","prefecture_kana":"キョウトフ","city":"京都市下京区","city_kana":"キョウトシシモギョウク","town":"大黒町室町通楊梅上る","town_kana":"ダイコクチョウ","prefecture_code":26},{"zip_code":"6008161","prefecture":"京都府","prefecture_kana":"キョウトフ","city":"京都市下京区","city_kana":"キョウトシシモギョウク","town":"大黒町室町通楊梅下る","town_kana":"ダイコクチョウ","prefecture_code":26}],"8223":[{"zip_code":"6008223","prefecture":"京都府","prefecture_kana":"キョウトフ","city":"京都市下京区","city_kana":"キョウトシシモギョウク","town":"大黒町油小路通七条下る","town_kana":"ダイコクチョウ","prefecture_code":26},{"zip_code":"6008223","prefecture":"京都府","prefecture_kana":"キョウトフ","city":"京都市下京区","city_kana":"キョウトシシモギョウク","town":"大黒町七条通油小路東入","town_kana":"ダイコクチョウ","prefecture_code":26},{"zip_code":"6008223","prefecture":"京都府","prefecture_kana":"キョウトフ","city":"京都市下京区","city_kana":"キョウトシシモギョウク","town":"大黒町七条通西洞院西入","town_kana":"ダイコクチョウ","prefecture_code":26},{"zip_code":"6008223","prefecture":"京都府","prefecture_kana":"キョウトフ","city":"京都市下京区","city_kana":"キョウトシシモギョウク","town":"大黒町下魚棚通油小路東入","town_kana":"ダイコクチョウ","prefecture_code":26},{"zip_code":"6008223","prefecture":"京都府","prefecture_kana":"キョウトフ","city":"京都市下京区","city_kana":"キョウトシシモギョウク","town":"大黒町下魚棚通西洞院西入","town_kana":"ダイコクチョウ","prefecture_code":26},{"zip_code":"6008223","prefecture":"京都府","prefecture_kana":"キョウトフ","city":"京都市下京区","city_kana":"キョウトシシモギョウク","town":"大黒町西洞院通七条下る","town_kana":"ダイコクチョウ","prefecture_code":26},{"zip_code":"6008223","prefecture":"京都府","prefecture_kana":"キョウトフ","city":"京都市下京区","city_kana":"キョウトシシモギョウク","town":"大黒町東中筋通七条下る","town_kana":"ダイコクチョウ","prefecture_code":26},{"zip_code":"6008223","prefecture":"京都府","prefecture_kana":"キョウトフ","city":"京都市下京区","city_kana":"キョウトシシモギョウク","town":"大黒町東中筋通下魚棚下る","town_kana":"ダイコクチョウ","prefecture_code":26}],"8106":{"zip_code":"6008106","prefecture":"京都府","prefecture_kana":"キョウトフ","city":"京都市下京区","city_kana":"キョウトシシモギョウク","town":"醍醐町","town_kana":"ダイゴチョウ","prefecture_code":26},"8469":{"zip_code":"6008469","prefecture":"京都府","prefecture_kana":"キョウトフ","city":"京都市下京区","city_kana":"キョウトシシモギョウク","town":"太子山町","town_kana":"タイシヤマチョウ","prefecture_code":26},"8039":{"zip_code":"6008039","prefecture":"京都府","prefecture_kana":"キョウトフ","city":"京都市下京区","city_kana":"キョウトシシモギョウク","town":"大寿町","town_kana":"ダイズチョウ","prefecture_code":26},"8237":{"zip_code":"6008237","prefecture":"京都府","prefecture_kana":"キョウトフ","city":"京都市下京区","city_kana":"キョウトシシモギョウク","town":"松明町","town_kana":"タイマツチョウ","prefecture_code":26},"8221":{"zip_code":"6008221","prefecture":"京都府","prefecture_kana":"キョウトフ","city":"京都市下京区","city_kana":"キョウトシシモギョウク","town":"高雄町","town_kana":"タカオチョウ","prefecture_code":26},"8082":{"zip_code":"6008082","prefecture":"京都府","prefecture_kana":"キョウトフ","city":"京都市下京区","city_kana":"キョウトシシモギョウク","town":"高材木町","town_kana":"タカザイモクチョウ","prefecture_code":26},"8420":{"zip_code":"6008420","prefecture":"京都府","prefecture_kana":"キョウトフ","city":"京都市下京区","city_kana":"キョウトシシモギョウク","town":"高砂町","town_kana":"タカサゴチョウ","prefecture_code":26},"8174":{"zip_code":"6008174","prefecture":"京都府","prefecture_kana":"キョウトフ","city":"京都市下京区","city_kana":"キョウトシシモギョウク","town":"高槻町","town_kana":"タカツキチョウ","prefecture_code":26},"8353":{"zip_code":"6008353","prefecture":"京都府","prefecture_kana":"キョウトフ","city":"京都市下京区","city_kana":"キョウトシシモギョウク","town":"高辻猪熊町","town_kana":"タカツジイノクマチョウ","prefecture_code":26},"8387":{"zip_code":"6008387","prefecture":"京都府","prefecture_kana":"キョウトフ","city":"京都市下京区","city_kana":"キョウトシシモギョウク","town":"高辻大宮町","town_kana":"タカツジオオミヤチョウ","prefecture_code":26},"8465":{"zip_code":"6008465","prefecture":"京都府","prefecture_kana":"キョウトフ","city":"京都市下京区","city_kana":"キョウトシシモギョウク","town":"高辻西洞院町","town_kana":"タカツジニシノトウインチョウ","prefecture_code":26},"8486":{"zip_code":"6008486","prefecture":"京都府","prefecture_kana":"キョウトフ","city":"京都市下京区","city_kana":"キョウトシシモギョウク","town":"高辻堀川町","town_kana":"タカツジホリカワチョウ","prefecture_code":26},"8434":{"zip_code":"6008434","prefecture":"京都府","prefecture_kana":"キョウトフ","city":"京都市下京区","city_kana":"キョウトシシモギョウク","town":"高辻町","town_kana":"タカツジチョウ","prefecture_code":26},"8096":{"zip_code":"6008096","prefecture":"京都府","prefecture_kana":"キョウトフ","city":"京都市下京区","city_kana":"キョウトシシモギョウク","town":"高橋町","town_kana":"タカハシチョウ","prefecture_code":26},"8123":{"zip_code":"6008123","prefecture":"京都府","prefecture_kana":"キョウトフ","city":"京都市下京区","city_kana":"キョウトシシモギョウク","town":"高宮町","town_kana":"タカミヤチョウ","prefecture_code":26},"8093":[{"zip_code":"6008093","prefecture":"京都府","prefecture_kana":"キョウトフ","city":"京都市下京区","city_kana":"キョウトシシモギョウク","town":"竹屋町高倉通綾小路下る","town_kana":"タケヤチョウ","prefecture_code":26},{"zip_code":"6008093","prefecture":"京都府","prefecture_kana":"キョウトフ","city":"京都市下京区","city_kana":"キョウトシシモギョウク","town":"竹屋町高倉通仏光寺上る","town_kana":"タケヤチョウ","prefecture_code":26},{"zip_code":"6008093","prefecture":"京都府","prefecture_kana":"キョウトフ","city":"京都市下京区","city_kana":"キョウトシシモギョウク","town":"竹屋町堺町通綾小路下る西入","town_kana":"タケヤチョウ","prefecture_code":26}],"8319":[{"zip_code":"6008319","prefecture":"京都府","prefecture_kana":"キョウトフ","city":"京都市下京区","city_kana":"キョウトシシモギョウク","town":"竹屋町若宮通北小路下る","town_kana":"タケヤチョウワカミヤドオリキタコウジサガル","prefecture_code":26},{"zip_code":"6008319","prefecture":"京都府","prefecture_kana":"キョウトフ","city":"京都市下京区","city_kana":"キョウトシシモギョウク","town":"竹屋町若宮通七条上る","town_kana":"タケヤチョウワカミヤドオリシチジョウアガル","prefecture_code":26}],"8090":{"zip_code":"6008090","prefecture":"京都府","prefecture_kana":"キョウトフ","city":"京都市下京区","city_kana":"キョウトシシモギョウク","town":"竹屋之町","town_kana":"タケヤノチョウ","prefecture_code":26},"8006":{"zip_code":"6008006","prefecture":"京都府","prefecture_kana":"キョウトフ","city":"京都市下京区","city_kana":"キョウトシシモギョウク","town":"立売中之町","town_kana":"タチウリナカノチョウ","prefecture_code":26},"8007":{"zip_code":"6008007","prefecture":"京都府","prefecture_kana":"キョウトフ","city":"京都市下京区","city_kana":"キョウトシシモギョウク","town":"立売西町","town_kana":"タチウリニシマチ","prefecture_code":26},"8005":{"zip_code":"6008005","prefecture":"京都府","prefecture_kana":"キョウトフ","city":"京都市下京区","city_kana":"キョウトシシモギョウク","town":"立売東町","town_kana":"タチウリヒガシチョウ","prefecture_code":26},"8044":[{"zip_code":"6008044","prefecture":"京都府","prefecture_kana":"キョウトフ","city":"京都市下京区","city_kana":"キョウトシシモギョウク","town":"橘町御幸町通高辻上る","town_kana":"タチバナチョウ","prefecture_code":26},{"zip_code":"6008044","prefecture":"京都府","prefecture_kana":"キョウトフ","city":"京都市下京区","city_kana":"キョウトシシモギョウク","town":"橘町御幸町通仏光寺下る","town_kana":"タチバナチョウ","prefecture_code":26},{"zip_code":"6008044","prefecture":"京都府","prefecture_kana":"キョウトフ","city":"京都市下京区","city_kana":"キョウトシシモギョウク","town":"橘町高辻通御幸町西入","town_kana":"タチバナチョウ","prefecture_code":26},{"zip_code":"6008044","prefecture":"京都府","prefecture_kana":"キョウトフ","city":"京都市下京区","city_kana":"キョウトシシモギョウク","town":"橘町高辻通御幸町東入","town_kana":"タチバナチョウ","prefecture_code":26}],"8157":[{"zip_code":"6008157","prefecture":"京都府","prefecture_kana":"キョウトフ","city":"京都市下京区","city_kana":"キョウトシシモギョウク","town":"橘町下珠数屋町通不明門東入","town_kana":"タチバナチョウ","prefecture_code":26},{"zip_code":"6008157","prefecture":"京都府","prefecture_kana":"キョウトフ","city":"京都市下京区","city_kana":"キョウトシシモギョウク","town":"橘町下珠数屋町通烏丸東入","town_kana":"タチバナチョウ","prefecture_code":26},{"zip_code":"6008157","prefecture":"京都府","prefecture_kana":"キョウトフ","city":"京都市下京区","city_kana":"キョウトシシモギョウク","town":"橘町下珠数屋町通東洞院西入","town_kana":"タチバナチョウ","prefecture_code":26}],"8487":[{"zip_code":"6008487","prefecture":"京都府","prefecture_kana":"キョウトフ","city":"京都市下京区","city_kana":"キョウトシシモギョウク","town":"橘町醒ケ井通松原上る","town_kana":"タチバナチョウ","prefecture_code":26},{"zip_code":"6008487","prefecture":"京都府","prefecture_kana":"キョウトフ","city":"京都市下京区","city_kana":"キョウトシシモギョウク","town":"橘町醒ケ井通松原下る","town_kana":"タチバナチョウ","prefecture_code":26},{"zip_code":"6008487","prefecture":"京都府","prefecture_kana":"キョウトフ","city":"京都市下京区","city_kana":"キョウトシシモギョウク","town":"橘町松原通油小路西入","town_kana":"タチバナチョウ","prefecture_code":26},{"zip_code":"6008487","prefecture":"京都府","prefecture_kana":"キョウトフ","city":"京都市下京区","city_kana":"キョウトシシモギョウク","town":"橘町松原通醒ケ井西入","town_kana":"タチバナチョウ","prefecture_code":26},{"zip_code":"6008487","prefecture":"京都府","prefecture_kana":"キョウトフ","city":"京都市下京区","city_kana":"キョウトシシモギョウク","town":"橘町松原通醒ケ井東入","town_kana":"タチバナチョウ","prefecture_code":26},{"zip_code":"6008487","prefecture":"京都府","prefecture_kana":"キョウトフ","city":"京都市下京区","city_kana":"キョウトシシモギョウク","town":"橘町松原通東堀川東入","town_kana":"タチバナチョウ","prefecture_code":26},{"zip_code":"6008487","prefecture":"京都府","prefecture_kana":"キョウトフ","city":"京都市下京区","city_kana":"キョウトシシモギョウク","town":"橘町松原通堀川東入","town_kana":"タチバナチョウ","prefecture_code":26}],"8490":{"zip_code":"6008490","prefecture":"京都府","prefecture_kana":"キョウトフ","city":"京都市下京区","city_kana":"キョウトシシモギョウク","town":"立中町","town_kana":"タツナカチョウ","prefecture_code":26},"8307":{"zip_code":"6008307","prefecture":"京都府","prefecture_kana":"キョウトフ","city":"京都市下京区","city_kana":"キョウトシシモギョウク","town":"辰巳町","town_kana":"タツミチョウ","prefecture_code":26},"8038":{"zip_code":"6008038","prefecture":"京都府","prefecture_kana":"キョウトフ","city":"京都市下京区","city_kana":"キョウトシシモギョウク","town":"足袋屋町","town_kana":"タビヤチョウ","prefecture_code":26},"8427":{"zip_code":"6008427","prefecture":"京都府","prefecture_kana":"キョウトフ","city":"京都市下京区","city_kana":"キョウトシシモギョウク","town":"玉津島町","town_kana":"タマツシマチョウ","prefecture_code":26},"8346":{"zip_code":"6008346","prefecture":"京都府","prefecture_kana":"キョウトフ","city":"京都市下京区","city_kana":"キョウトシシモギョウク","town":"玉本町","town_kana":"タマモトチョウ","prefecture_code":26},"8409":{"zip_code":"6008409","prefecture":"京都府","prefecture_kana":"キョウトフ","city":"京都市下京区","city_kana":"キョウトシシモギョウク","town":"玉屋町","town_kana":"タマヤチョウ","prefecture_code":26},"8129":{"zip_code":"6008129","prefecture":"京都府","prefecture_kana":"キョウトフ","city":"京都市下京区","city_kana":"キョウトシシモギョウク","town":"溜池町","town_kana":"タメイケチョウ","prefecture_code":26},"8264":{"zip_code":"6008264","prefecture":"京都府","prefecture_kana":"キョウトフ","city":"京都市下京区","city_kana":"キョウトシシモギョウク","town":"樽屋町","town_kana":"タルヤチョウ","prefecture_code":26},"8042":[{"zip_code":"6008042","prefecture":"京都府","prefecture_kana":"キョウトフ","city":"京都市下京区","city_kana":"キョウトシシモギョウク","town":"俵屋町麩屋町通綾小路下る","town_kana":"タワラヤチョウフヤチョウドオリアヤノコウジサガル","prefecture_code":26},{"zip_code":"6008042","prefecture":"京都府","prefecture_kana":"キョウトフ","city":"京都市下京区","city_kana":"キョウトシシモギョウク","town":"俵屋町麩屋町通仏光寺上る","town_kana":"タワラヤチョウフヤチョウドオリブツコウジアガル","prefecture_code":26}],"8070":[{"zip_code":"6008070","prefecture":"京都府","prefecture_kana":"キョウトフ","city":"京都市下京区","city_kana":"キョウトシシモギョウク","town":"俵屋町堺町通万寿寺下る","town_kana":"タワラヤチョウ","prefecture_code":26},{"zip_code":"6008070","prefecture":"京都府","prefecture_kana":"キョウトフ","city":"京都市下京区","city_kana":"キョウトシシモギョウク","town":"俵屋町万寿寺通堺町西入","town_kana":"タワラヤチョウ","prefecture_code":26},{"zip_code":"6008070","prefecture":"京都府","prefecture_kana":"キョウトフ","city":"京都市下京区","city_kana":"キョウトシシモギョウク","town":"俵屋町万寿寺通堺町東入","town_kana":"タワラヤチョウ","prefecture_code":26},{"zip_code":"6008070","prefecture":"京都府","prefecture_kana":"キョウトフ","city":"京都市下京区","city_kana":"キョウトシシモギョウク","town":"俵屋町五条通堺町上る","town_kana":"タワラヤチョウ","prefecture_code":26}],"8365":{"zip_code":"6008365","prefecture":"京都府","prefecture_kana":"キョウトフ","city":"京都市下京区","city_kana":"キョウトシシモギョウク","town":"丹波街道町","town_kana":"タンバカイドウチョウ","prefecture_code":26},"8036":[{"zip_code":"6008036","prefecture":"京都府","prefecture_kana":"キョウトフ","city":"京都市下京区","city_kana":"キョウトシシモギョウク","town":"茶磨屋町高辻通御幸町東入","town_kana":"チャマヤチョウタカツジドオリゴコウマチヒガシイル","prefecture_code":26},{"zip_code":"6008036","prefecture":"京都府","prefecture_kana":"キョウトフ","city":"京都市下京区","city_kana":"キョウトシシモギョウク","town":"茶磨屋町高辻通寺町西入","town_kana":"チャマヤチョウタカツジドオリテラマチニシイル","prefecture_code":26}],"8045":[{"zip_code":"6008045","prefecture":"京都府","prefecture_kana":"キョウトフ","city":"京都市下京区","city_kana":"キョウトシシモギョウク","town":"茶磨屋町高辻通御幸町西入","town_kana":"チャマヤチョウタカツジドオリゴコウマチニシイル","prefecture_code":26},{"zip_code":"6008045","prefecture":"京都府","prefecture_kana":"キョウトフ","city":"京都市下京区","city_kana":"キョウトシシモギョウク","town":"茶磨屋町高辻通麩屋町東入","town_kana":"チャマヤチョウタカツジドオリフヤチョウヒガシイル","prefecture_code":26}],"8068":{"zip_code":"6008068","prefecture":"京都府","prefecture_kana":"キョウトフ","city":"京都市下京区","city_kana":"キョウトシシモギョウク","town":"忠庵町","town_kana":"チュウアンチョウ","prefecture_code":26},"8815":{"zip_code":"6008815","prefecture":"京都府","prefecture_kana":"キョウトフ","city":"京都市下京区","city_kana":"キョウトシシモギョウク","town":"中堂寺粟田町","town_kana":"チュウドウジアワタチョウ","prefecture_code":26},"8805":{"zip_code":"6008805","prefecture":"京都府","prefecture_kana":"キョウトフ","city":"京都市下京区","city_kana":"キョウトシシモギョウク","town":"中堂寺鍵田町","town_kana":"チュウドウジカギタチョウ","prefecture_code":26},"8812":{"zip_code":"6008812","prefecture":"京都府","prefecture_kana":"キョウトフ","city":"京都市下京区","city_kana":"キョウトシシモギョウク","town":"中堂寺北町","town_kana":"チュウドウジキタマチ","prefecture_code":26},"8802":{"zip_code":"6008802","prefecture":"京都府","prefecture_kana":"キョウトフ","city":"京都市下京区","city_kana":"キョウトシシモギョウク","town":"中堂寺櫛笥町","town_kana":"チュウドウジクシゲチョウ","prefecture_code":26},"8814":{"zip_code":"6008814","prefecture":"京都府","prefecture_kana":"キョウトフ","city":"京都市下京区","city_kana":"キョウトシシモギョウク","town":"中堂寺庄ノ内町","town_kana":"チュウドウジショウノウチチョウ","prefecture_code":26},"8801":{"zip_code":"6008801","prefecture":"京都府","prefecture_kana":"キョウトフ","city":"京都市下京区","city_kana":"キョウトシシモギョウク","town":"中堂寺西寺町","town_kana":"チュウドウジニシデラチョウ","prefecture_code":26},"8811":{"zip_code":"6008811","prefecture":"京都府","prefecture_kana":"キョウトフ","city":"京都市下京区","city_kana":"キョウトシシモギョウク","town":"中堂寺坊城町","town_kana":"チュウドウジボウジョウチョウ","prefecture_code":26},"8804":{"zip_code":"6008804","prefecture":"京都府","prefecture_kana":"キョウトフ","city":"京都市下京区","city_kana":"キョウトシシモギョウク","town":"中堂寺前田町","town_kana":"チュウドウジマエダチョウ","prefecture_code":26},"8362":{"zip_code":"6008362","prefecture":"京都府","prefecture_kana":"キョウトフ","city":"京都市下京区","city_kana":"キョウトシシモギョウク","town":"中堂寺前町","town_kana":"チュウドウジマエチョウ","prefecture_code":26},"8813":{"zip_code":"6008813","prefecture":"京都府","prefecture_kana":"キョウトフ","city":"京都市下京区","city_kana":"キョウトシシモギョウク","town":"中堂寺南町","town_kana":"チュウドウジミナミマチ","prefecture_code":26},"8806":{"zip_code":"6008806","prefecture":"京都府","prefecture_kana":"キョウトフ","city":"京都市下京区","city_kana":"キョウトシシモギョウク","town":"中堂寺壬生川町","town_kana":"チュウドウジミブガワチョウ","prefecture_code":26},"8807":{"zip_code":"6008807","prefecture":"京都府","prefecture_kana":"キョウトフ","city":"京都市下京区","city_kana":"キョウトシシモギョウク","town":"中堂寺命婦町","town_kana":"チュウドウジミョウブチョウ","prefecture_code":26},"8803":{"zip_code":"6008803","prefecture":"京都府","prefecture_kana":"キョウトフ","city":"京都市下京区","city_kana":"キョウトシシモギョウク","town":"中堂寺薮ノ内町","town_kana":"チュウドウジヤブノウチチョウ","prefecture_code":26},"8364":{"zip_code":"6008364","prefecture":"京都府","prefecture_kana":"キョウトフ","city":"京都市下京区","city_kana":"キョウトシシモギョウク","town":"突抜","town_kana":"ツキヌケ","prefecture_code":26},"8492":{"zip_code":"6008492","prefecture":"京都府","prefecture_kana":"キョウトフ","city":"京都市下京区","city_kana":"キョウトシシモギョウク","town":"月鉾町","town_kana":"ツキホコチョウ","prefecture_code":26},"8453":{"zip_code":"6008453","prefecture":"京都府","prefecture_kana":"キョウトフ","city":"京都市下京区","city_kana":"キョウトシシモギョウク","town":"月見町","town_kana":"ツキミチョウ","prefecture_code":26},"8226":{"zip_code":"6008226","prefecture":"京都府","prefecture_kana":"キョウトフ","city":"京都市下京区","city_kana":"キョウトシシモギョウク","town":"土橋町","town_kana":"ツチハシチョウ","prefecture_code":26},"8396":{"zip_code":"6008396","prefecture":"京都府","prefecture_kana":"キョウトフ","city":"京都市下京区","city_kana":"キョウトシシモギョウク","town":"槌屋町","town_kana":"ツチヤチョウ","prefecture_code":26},"8152":{"zip_code":"6008152","prefecture":"京都府","prefecture_kana":"キョウトフ","city":"京都市下京区","city_kana":"キョウトシシモギョウク","town":"筒金町","town_kana":"ツツガネチョウ","prefecture_code":26},"8085":{"zip_code":"6008085","prefecture":"京都府","prefecture_kana":"キョウトフ","city":"京都市下京区","city_kana":"キョウトシシモギョウク","town":"葛籠屋町","town_kana":"ツヅラヤチョウ","prefecture_code":26},"8031":{"zip_code":"6008031","prefecture":"京都府","prefecture_kana":"キョウトフ","city":"京都市下京区","city_kana":"キョウトシシモギョウク","town":"貞安前之町","town_kana":"テイアンマエノチョウ","prefecture_code":26},"8265":{"zip_code":"6008265","prefecture":"京都府","prefecture_kana":"キョウトフ","city":"京都市下京区","city_kana":"キョウトシシモギョウク","town":"徹宝町","town_kana":"テッポウチョウ","prefecture_code":26},"8456":{"zip_code":"6008456","prefecture":"京都府","prefecture_kana":"キョウトフ","city":"京都市下京区","city_kana":"キョウトシシモギョウク","town":"天使突抜","town_kana":"テンシツキヌケ","prefecture_code":26},"8184":{"zip_code":"6008184","prefecture":"京都府","prefecture_kana":"キョウトフ","city":"京都市下京区","city_kana":"キョウトシシモギョウク","town":"天神町","town_kana":"テンジンチョウ","prefecture_code":26},"8459":{"zip_code":"6008459","prefecture":"京都府","prefecture_kana":"キョウトフ","city":"京都市下京区","city_kana":"キョウトシシモギョウク","town":"天神前町","town_kana":"テンジンマエチョウ","prefecture_code":26},"8013":{"zip_code":"6008013","prefecture":"京都府","prefecture_kana":"キョウトフ","city":"京都市下京区","city_kana":"キョウトシシモギョウク","town":"天王町","town_kana":"テンノウチョウ","prefecture_code":26},"8024":{"zip_code":"6008024","prefecture":"京都府","prefecture_kana":"キョウトフ","city":"京都市下京区","city_kana":"キョウトシシモギョウク","town":"天満町","town_kana":"テンマチョウ","prefecture_code":26},"8111":{"zip_code":"6008111","prefecture":"京都府","prefecture_kana":"キョウトフ","city":"京都市下京区","city_kana":"キョウトシシモギョウク","town":"都市町","town_kana":"トイチチョウ","prefecture_code":26},"8421":{"zip_code":"6008421","prefecture":"京都府","prefecture_kana":"キョウトフ","city":"京都市下京区","city_kana":"キョウトシシモギョウク","town":"童侍者町","town_kana":"ドウジシャチョウ","prefecture_code":26},"8401":{"zip_code":"6008401","prefecture":"京都府","prefecture_kana":"キョウトフ","city":"京都市下京区","city_kana":"キョウトシシモギョウク","town":"燈籠町","town_kana":"トウロウチョウ","prefecture_code":26},"8167":{"zip_code":"6008167","prefecture":"京都府","prefecture_kana":"キョウトフ","city":"京都市下京区","city_kana":"キョウトシシモギョウク","town":"常葉町","town_kana":"トキワチョウ","prefecture_code":26},"8461":{"zip_code":"6008461","prefecture":"京都府","prefecture_kana":"キョウトフ","city":"京都市下京区","city_kana":"キョウトシシモギョウク","town":"木賊山町","town_kana":"トクサヤマチョウ","prefecture_code":26},"8051":{"zip_code":"6008051","prefecture":"京都府","prefecture_kana":"キョウトフ","city":"京都市下京区","city_kana":"キョウトシシモギョウク","town":"徳正寺町","town_kana":"トクショウジチョウ","prefecture_code":26},"8437":{"zip_code":"6008437","prefecture":"京都府","prefecture_kana":"キョウトフ","city":"京都市下京区","city_kana":"キョウトシシモギョウク","town":"徳万町","town_kana":"トクマンチョウ","prefecture_code":26},"8395":{"zip_code":"6008395","prefecture":"京都府","prefecture_kana":"キョウトフ","city":"京都市下京区","city_kana":"キョウトシシモギョウク","town":"徳屋町","town_kana":"トクヤチョウ","prefecture_code":26},"8186":{"zip_code":"6008186","prefecture":"京都府","prefecture_kana":"キョウトフ","city":"京都市下京区","city_kana":"キョウトシシモギョウク","town":"富田町","town_kana":"トミタチョウ","prefecture_code":26},"8023":[{"zip_code":"6008023","prefecture":"京都府","prefecture_kana":"キョウトフ","city":"京都市下京区","city_kana":"キョウトシシモギョウク","town":"富永町","town_kana":"トミナガチョウ","prefecture_code":26},{"zip_code":"6008023","prefecture":"京都府","prefecture_kana":"キョウトフ","city":"京都市下京区","city_kana":"キョウトシシモギョウク","town":"富永町河原町通高辻上る","town_kana":"トミナガチョウ","prefecture_code":26},{"zip_code":"6008023","prefecture":"京都府","prefecture_kana":"キョウトフ","city":"京都市下京区","city_kana":"キョウトシシモギョウク","town":"富永町河原町通仏光寺下る","town_kana":"トミナガチョウ","prefecture_code":26},{"zip_code":"6008023","prefecture":"京都府","prefecture_kana":"キョウトフ","city":"京都市下京区","city_kana":"キョウトシシモギョウク","town":"富永町河原町通松原上る","town_kana":"トミナガチョウ","prefecture_code":26},{"zip_code":"6008023","prefecture":"京都府","prefecture_kana":"キョウトフ","city":"京都市下京区","city_kana":"キョウトシシモギョウク","town":"富永町高辻通河原町西入","town_kana":"トミナガチョウ","prefecture_code":26},{"zip_code":"6008023","prefecture":"京都府","prefecture_kana":"キョウトフ","city":"京都市下京区","city_kana":"キョウトシシモギョウク","town":"富永町仏光寺通河原町西入","town_kana":"トミナガチョウ","prefecture_code":26}],"8351":[{"zip_code":"6008351","prefecture":"京都府","prefecture_kana":"キョウトフ","city":"京都市下京区","city_kana":"キョウトシシモギョウク","town":"富永町岩上通高辻上る","town_kana":"トミナガチョウ","prefecture_code":26},{"zip_code":"6008351","prefecture":"京都府","prefecture_kana":"キョウトフ","city":"京都市下京区","city_kana":"キョウトシシモギョウク","town":"富永町岩上通高辻下る","town_kana":"トミナガチョウ","prefecture_code":26},{"zip_code":"6008351","prefecture":"京都府","prefecture_kana":"キョウトフ","city":"京都市下京区","city_kana":"キョウトシシモギョウク","town":"富永町高辻通猪熊東入","town_kana":"トミナガチョウ","prefecture_code":26},{"zip_code":"6008351","prefecture":"京都府","prefecture_kana":"キョウトフ","city":"京都市下京区","city_kana":"キョウトシシモギョウク","town":"富永町高辻通岩上西入","town_kana":"トミナガチョウ","prefecture_code":26},{"zip_code":"6008351","prefecture":"京都府","prefecture_kana":"キョウトフ","city":"京都市下京区","city_kana":"キョウトシシモギョウク","town":"富永町高辻通岩上東入","town_kana":"トミナガチョウ","prefecture_code":26},{"zip_code":"6008351","prefecture":"京都府","prefecture_kana":"キョウトフ","city":"京都市下京区","city_kana":"キョウトシシモギョウク","town":"富永町高辻通西堀川西入","town_kana":"トミナガチョウ","prefecture_code":26},{"zip_code":"6008351","prefecture":"京都府","prefecture_kana":"キョウトフ","city":"京都市下京区","city_kana":"キョウトシシモギョウク","town":"富永町高辻通堀川西入","town_kana":"トミナガチョウ","prefecture_code":26}],"8449":[{"zip_code":"6008449","prefecture":"京都府","prefecture_kana":"キョウトフ","city":"京都市下京区","city_kana":"キョウトシシモギョウク","town":"富永町新町通松原下る","town_kana":"トミナガチョウ","prefecture_code":26},{"zip_code":"6008449","prefecture":"京都府","prefecture_kana":"キョウトフ","city":"京都市下京区","city_kana":"キョウトシシモギョウク","town":"富永町新町通万寿寺上る","town_kana":"トミナガチョウ","prefecture_code":26},{"zip_code":"6008449","prefecture":"京都府","prefecture_kana":"キョウトフ","city":"京都市下京区","city_kana":"キョウトシシモギョウク","town":"富永町万寿寺通新町西入","town_kana":"トミナガチョウ","prefecture_code":26},{"zip_code":"6008449","prefecture":"京都府","prefecture_kana":"キョウトフ","city":"京都市下京区","city_kana":"キョウトシシモギョウク","town":"富永町万寿寺通新町東入","town_kana":"トミナガチョウ","prefecture_code":26}],"8125":{"zip_code":"6008125","prefecture":"京都府","prefecture_kana":"キョウトフ","city":"京都市下京区","city_kana":"キョウトシシモギョウク","town":"富浜町","town_kana":"トミハマチョウ","prefecture_code":26},"8124":{"zip_code":"6008124","prefecture":"京都府","prefecture_kana":"キョウトフ","city":"京都市下京区","city_kana":"キョウトシシモギョウク","town":"富松町","town_kana":"トミマツチョウ","prefecture_code":26},"8192":{"zip_code":"6008192","prefecture":"京都府","prefecture_kana":"キョウトフ","city":"京都市下京区","city_kana":"キョウトシシモギョウク","town":"富屋町","town_kana":"トミヤチョウ","prefecture_code":26},"8219":{"zip_code":"6008219","prefecture":"京都府","prefecture_kana":"キョウトフ","city":"京都市下京区","city_kana":"キョウトシシモギョウク","town":"中居町","town_kana":"ナカイチョウ","prefecture_code":26},"8332":{"zip_code":"6008332","prefecture":"京都府","prefecture_kana":"キョウトフ","city":"京都市下京区","city_kana":"キョウトシシモギョウク","town":"中金仏町","town_kana":"ナカカナブツチョウ","prefecture_code":26},"8452":{"zip_code":"6008452","prefecture":"京都府","prefecture_kana":"キョウトフ","city":"京都市下京区","city_kana":"キョウトシシモギョウク","town":"永倉町","town_kana":"ナガクラチョウ","prefecture_code":26},"8032":[{"zip_code":"6008032","prefecture":"京都府","prefecture_kana":"キョウトフ","city":"京都市下京区","city_kana":"キョウトシシモギョウク","town":"中之町寺町通綾小路下る","town_kana":"ナカノチョウ","prefecture_code":26},{"zip_code":"6008032","prefecture":"京都府","prefecture_kana":"キョウトフ","city":"京都市下京区","city_kana":"キョウトシシモギョウク","town":"中之町寺町通仏光寺上る","town_kana":"ナカノチョウ","prefecture_code":26},{"zip_code":"6008032","prefecture":"京都府","prefecture_kana":"キョウトフ","city":"京都市下京区","city_kana":"キョウトシシモギョウク","town":"中之町仏光寺通寺町西入","town_kana":"ナカノチョウ","prefecture_code":26},{"zip_code":"6008032","prefecture":"京都府","prefecture_kana":"キョウトフ","city":"京都市下京区","city_kana":"キョウトシシモギョウク","town":"中之町仏光寺通寺町東入","town_kana":"ナカノチョウ","prefecture_code":26}],"8435":{"zip_code":"6008435","prefecture":"京都府","prefecture_kana":"キョウトフ","city":"京都市下京区","city_kana":"キョウトシシモギョウク","town":"中野之町","town_kana":"ナカノノチョウ","prefecture_code":26},"8073":{"zip_code":"6008073","prefecture":"京都府","prefecture_kana":"キョウトフ","city":"京都市下京区","city_kana":"キョウトシシモギョウク","town":"永原町","town_kana":"ナガハラチョウ","prefecture_code":26},"8438":{"zip_code":"6008438","prefecture":"京都府","prefecture_kana":"キョウトフ","city":"京都市下京区","city_kana":"キョウトシシモギョウク","town":"長刀切町","town_kana":"ナギナタギリチョウ","prefecture_code":26},"8008":{"zip_code":"6008008","prefecture":"京都府","prefecture_kana":"キョウトフ","city":"京都市下京区","city_kana":"キョウトシシモギョウク","town":"長刀鉾町","town_kana":"ナギナタボコチョウ","prefecture_code":26},"8055":{"zip_code":"6008055","prefecture":"京都府","prefecture_kana":"キョウトフ","city":"京都市下京区","city_kana":"キョウトシシモギョウク","town":"鍋屋町","town_kana":"ナベヤチョウ","prefecture_code":26},"8142":{"zip_code":"6008142","prefecture":"京都府","prefecture_kana":"キョウトフ","city":"京都市下京区","city_kana":"キョウトシシモギョウク","town":"納屋町","town_kana":"ナヤチョウ","prefecture_code":26},"8004":{"zip_code":"6008004","prefecture":"京都府","prefecture_kana":"キョウトフ","city":"京都市下京区","city_kana":"キョウトシシモギョウク","town":"奈良物町","town_kana":"ナラモノチョウ","prefecture_code":26},"8027":{"zip_code":"6008027","prefecture":"京都府","prefecture_kana":"キョウトフ","city":"京都市下京区","city_kana":"キョウトシシモギョウク","town":"難波町","town_kana":"ナンバチョウ","prefecture_code":26},"8414":{"zip_code":"6008414","prefecture":"京都府","prefecture_kana":"キョウトフ","city":"京都市下京区","city_kana":"キョウトシシモギョウク","town":"匂天神町","town_kana":"ニオイテンジンチョウ","prefecture_code":26},"8236":{"zip_code":"6008236","prefecture":"京都府","prefecture_kana":"キョウトフ","city":"京都市下京区","city_kana":"キョウトシシモギョウク","town":"西油小路町","town_kana":"ニシアブラノコウジチョウ","prefecture_code":26},"8478":{"zip_code":"6008478","prefecture":"京都府","prefecture_kana":"キョウトフ","city":"京都市下京区","city_kana":"キョウトシシモギョウク","town":"西綾小路西半町","town_kana":"ニシアヤノコウジニシハンチョウ","prefecture_code":26},"8479":{"zip_code":"6008479","prefecture":"京都府","prefecture_kana":"キョウトフ","city":"京都市下京区","city_kana":"キョウトシシモギョウク","town":"西綾小路東半町","town_kana":"ニシアヤノコウジヒガシハンチョウ","prefecture_code":26},"8160":{"zip_code":"6008160","prefecture":"京都府","prefecture_kana":"キョウトフ","city":"京都市下京区","city_kana":"キョウトシシモギョウク","town":"西魚屋町","town_kana":"ニシウオヤチョウ","prefecture_code":26},"8108":{"zip_code":"6008108","prefecture":"京都府","prefecture_kana":"キョウトフ","city":"京都市下京区","city_kana":"キョウトシシモギョウク","town":"西錺屋町","town_kana":"ニシカザリヤチョウ","prefecture_code":26},"8325":{"zip_code":"6008325","prefecture":"京都府","prefecture_kana":"キョウトフ","city":"京都市下京区","city_kana":"キョウトシシモギョウク","town":"西側町","town_kana":"ニシガワチョウ","prefecture_code":26},"8218":{"zip_code":"6008218","prefecture":"京都府","prefecture_kana":"キョウトフ","city":"京都市下京区","city_kana":"キョウトシシモギョウク","town":"西境町","town_kana":"ニシサカイチョウ","prefecture_code":26},"8899":{"zip_code":"6008899","prefecture":"京都府","prefecture_kana":"キョウトフ","city":"京都市下京区","city_kana":"キョウトシシモギョウク","town":"西七条赤社町","town_kana":"ニシシチジョウアカヤシロチョウ","prefecture_code":26},"8875":{"zip_code":"6008875","prefecture":"京都府","prefecture_kana":"キョウトフ","city":"京都市下京区","city_kana":"キョウトシシモギョウク","town":"西七条石井町","town_kana":"ニシシチジョウイシイチョウ","prefecture_code":26},"8894":{"zip_code":"6008894","prefecture":"京都府","prefecture_kana":"キョウトフ","city":"京都市下京区","city_kana":"キョウトシシモギョウク","town":"西七条市部町","town_kana":"ニシシチジョウイチベチョウ","prefecture_code":26},"8897":{"zip_code":"6008897","prefecture":"京都府","prefecture_kana":"キョウトフ","city":"京都市下京区","city_kana":"キョウトシシモギョウク","town":"西七条御前田町","town_kana":"ニシシチジョウオンマエダチョウ","prefecture_code":26},"8881":{"zip_code":"6008881","prefecture":"京都府","prefecture_kana":"キョウトフ","city":"京都市下京区","city_kana":"キョウトシシモギョウク","town":"西七条掛越町","town_kana":"ニシシチジョウカケゴシチョウ","prefecture_code":26},"8883":{"zip_code":"6008883","prefecture":"京都府","prefecture_kana":"キョウトフ","city":"京都市下京区","city_kana":"キョウトシシモギョウク","town":"西七条北衣田町","town_kana":"ニシシチジョウキタキヌタチョウ","prefecture_code":26},"8886":{"zip_code":"6008886","prefecture":"京都府","prefecture_kana":"キョウトフ","city":"京都市下京区","city_kana":"キョウトシシモギョウク","town":"西七条北月読町","town_kana":"ニシシチジョウキタツキヨミチョウ","prefecture_code":26},"8878":{"zip_code":"6008878","prefecture":"京都府","prefecture_kana":"キョウトフ","city":"京都市下京区","city_kana":"キョウトシシモギョウク","town":"西七条北西野町","town_kana":"ニシシチジョウキタニシノチョウ","prefecture_code":26},"8871":{"zip_code":"6008871","prefecture":"京都府","prefecture_kana":"キョウトフ","city":"京都市下京区","city_kana":"キョウトシシモギョウク","town":"西七条北東野町","town_kana":"ニシシチジョウキタヒガシノチョウ","prefecture_code":26},"8893":{"zip_code":"6008893","prefecture":"京都府","prefecture_kana":"キョウトフ","city":"京都市下京区","city_kana":"キョウトシシモギョウク","town":"西七条御領町","town_kana":"ニシシチジョウゴリョウチョウ","prefecture_code":26},"8879":{"zip_code":"6008879","prefecture":"京都府","prefecture_kana":"キョウトフ","city":"京都市下京区","city_kana":"キョウトシシモギョウク","town":"西七条中野町","town_kana":"ニシシチジョウナカノチョウ","prefecture_code":26},"8887":{"zip_code":"6008887","prefecture":"京都府","prefecture_kana":"キョウトフ","city":"京都市下京区","city_kana":"キョウトシシモギョウク","town":"西七条名倉町","town_kana":"ニシシチジョウナクラチョウ","prefecture_code":26},"8896":{"zip_code":"6008896","prefecture":"京都府","prefecture_kana":"キョウトフ","city":"京都市下京区","city_kana":"キョウトシシモギョウク","town":"西七条西石ケ坪町","town_kana":"ニシシチジョウニシイシガツボチョウ","prefecture_code":26},"8874":{"zip_code":"6008874","prefecture":"京都府","prefecture_kana":"キョウトフ","city":"京都市下京区","city_kana":"キョウトシシモギョウク","town":"西七条西久保町","town_kana":"ニシシチジョウニシクボチョウ","prefecture_code":26},"8892":{"zip_code":"6008892","prefecture":"京都府","prefecture_kana":"キョウトフ","city":"京都市下京区","city_kana":"キョウトシシモギョウク","town":"西七条西八反田町","town_kana":"ニシシチジョウニシハッタンダチョウ","prefecture_code":26},"8895":{"zip_code":"6008895","prefecture":"京都府","prefecture_kana":"キョウトフ","city":"京都市下京区","city_kana":"キョウトシシモギョウク","town":"西七条東石ケ坪町","town_kana":"ニシシチジョウヒガシイシガツボチョウ","prefecture_code":26},"8898":{"zip_code":"6008898","prefecture":"京都府","prefecture_kana":"キョウトフ","city":"京都市下京区","city_kana":"キョウトシシモギョウク","town":"西七条東御前田町","town_kana":"ニシシチジョウヒガシオンマエダチョウ","prefecture_code":26},"8873":{"zip_code":"6008873","prefecture":"京都府","prefecture_kana":"キョウトフ","city":"京都市下京区","city_kana":"キョウトシシモギョウク","town":"西七条東久保町","town_kana":"ニシシチジョウヒガシクボチョウ","prefecture_code":26},"8891":{"zip_code":"6008891","prefecture":"京都府","prefecture_kana":"キョウトフ","city":"京都市下京区","city_kana":"キョウトシシモギョウク","town":"西七条東八反田町","town_kana":"ニシシチジョウヒガシハッタンダチョウ","prefecture_code":26},"8882":{"zip_code":"6008882","prefecture":"京都府","prefecture_kana":"キョウトフ","city":"京都市下京区","city_kana":"キョウトシシモギョウク","town":"西七条比輪田町","town_kana":"ニシシチジョウヒワダチョウ","prefecture_code":26},"8884":{"zip_code":"6008884","prefecture":"京都府","prefecture_kana":"キョウトフ","city":"京都市下京区","city_kana":"キョウトシシモギョウク","town":"西七条南衣田町","town_kana":"ニシシチジョウミナミキヌタチョウ","prefecture_code":26},"8885":{"zip_code":"6008885","prefecture":"京都府","prefecture_kana":"キョウトフ","city":"京都市下京区","city_kana":"キョウトシシモギョウク","town":"西七条南月読町","town_kana":"ニシシチジョウミナミツキヨミチョウ","prefecture_code":26},"8876":{"zip_code":"6008876","prefecture":"京都府","prefecture_kana":"キョウトフ","city":"京都市下京区","city_kana":"キョウトシシモギョウク","town":"西七条南中野町","town_kana":"ニシシチジョウミナミナカノチョウ","prefecture_code":26},"8877":{"zip_code":"6008877","prefecture":"京都府","prefecture_kana":"キョウトフ","city":"京都市下京区","city_kana":"キョウトシシモギョウク","town":"西七条南西野町","town_kana":"ニシシチジョウミナミニシノチョウ","prefecture_code":26},"8872":{"zip_code":"6008872","prefecture":"京都府","prefecture_kana":"キョウトフ","city":"京都市下京区","city_kana":"キョウトシシモギョウク","town":"西七条南東野町","town_kana":"ニシシチジョウミナミヒガシノチョウ","prefecture_code":26},"8888":{"zip_code":"6008888","prefecture":"京都府","prefecture_kana":"キョウトフ","city":"京都市下京区","city_kana":"キョウトシシモギョウク","town":"西七条八幡町","town_kana":"ニシシチジョウヤワタチョウ","prefecture_code":26},"8828":{"zip_code":"6008828","prefecture":"京都府","prefecture_kana":"キョウトフ","city":"京都市下京区","city_kana":"キョウトシシモギョウク","town":"西新屋敷揚屋町","town_kana":"ニシシンヤシキアゲヤチョウ","prefecture_code":26},"8826":{"zip_code":"6008826","prefecture":"京都府","prefecture_kana":"キョウトフ","city":"京都市下京区","city_kana":"キョウトシシモギョウク","town":"西新屋敷上之町","town_kana":"ニシシンヤシキカミノチョウ","prefecture_code":26},"8829":{"zip_code":"6008829","prefecture":"京都府","prefecture_kana":"キョウトフ","city":"京都市下京区","city_kana":"キョウトシシモギョウク","town":"西新屋敷下之町","town_kana":"ニシシンヤシキシモノチョウ","prefecture_code":26},"8827":{"zip_code":"6008827","prefecture":"京都府","prefecture_kana":"キョウトフ","city":"京都市下京区","city_kana":"キョウトシシモギョウク","town":"西新屋敷太夫町","town_kana":"ニシシンヤシキタユウチョウ","prefecture_code":26},"8816":{"zip_code":"6008816","prefecture":"京都府","prefecture_kana":"キョウトフ","city":"京都市下京区","city_kana":"キョウトシシモギョウク","town":"西新屋敷中堂寺町","town_kana":"ニシシンヤシキチュウドウジチョウ","prefecture_code":26},"8825":{"zip_code":"6008825","prefecture":"京都府","prefecture_kana":"キョウトフ","city":"京都市下京区","city_kana":"キョウトシシモギョウク","town":"西新屋敷中之町","town_kana":"ニシシンヤシキナカノチョウ","prefecture_code":26},"8833":{"zip_code":"6008833","prefecture":"京都府","prefecture_kana":"キョウトフ","city":"京都市下京区","city_kana":"キョウトシシモギョウク","town":"西酢屋町","town_kana":"ニシスヤチョウ","prefecture_code":26},"8484":{"zip_code":"6008484","prefecture":"京都府","prefecture_kana":"キョウトフ","city":"京都市下京区","city_kana":"キョウトシシモギョウク","town":"西高辻町","town_kana":"ニシタカツジチョウ","prefecture_code":26},"8397":{"zip_code":"6008397","prefecture":"京都府","prefecture_kana":"キョウトフ","city":"京都市下京区","city_kana":"キョウトシシモギョウク","town":"西田町","town_kana":"ニシダチョウ","prefecture_code":26},"8155":{"zip_code":"6008155","prefecture":"京都府","prefecture_kana":"キョウトフ","city":"京都市下京区","city_kana":"キョウトシシモギョウク","town":"西玉水町","town_kana":"ニシタマミズチョウ","prefecture_code":26},"8205":{"zip_code":"6008205","prefecture":"京都府","prefecture_kana":"キョウトフ","city":"京都市下京区","city_kana":"キョウトシシモギョウク","town":"西之町","town_kana":"ニシノチョウ","prefecture_code":26},"8327":{"zip_code":"6008327","prefecture":"京都府","prefecture_kana":"キョウトフ","city":"京都市下京区","city_kana":"キョウトシシモギョウク","town":"西洞院町","town_kana":"ニシノトウインチョウ","prefecture_code":26},"8029":{"zip_code":"6008029","prefecture":"京都府","prefecture_kana":"キョウトフ","city":"京都市下京区","city_kana":"キョウトシシモギョウク","town":"西橋詰町","town_kana":"ニシハシヅメチョウ","prefecture_code":26},"8083":{"zip_code":"6008083","prefecture":"京都府","prefecture_kana":"キョウトフ","city":"京都市下京区","city_kana":"キョウトシシモギョウク","town":"西前町","town_kana":"ニシマエチョウ","prefecture_code":26},"8326":{"zip_code":"6008326","prefecture":"京都府","prefecture_kana":"キョウトフ","city":"京都市下京区","city_kana":"キョウトシシモギョウク","town":"西松屋町","town_kana":"ニシマツヤチョウ","prefecture_code":26},"8371":{"zip_code":"6008371","prefecture":"京都府","prefecture_kana":"キョウトフ","city":"京都市下京区","city_kana":"キョウトシシモギョウク","town":"西門前町","town_kana":"ニシモンゼンチョウ","prefecture_code":26},"8269":{"zip_code":"6008269","prefecture":"京都府","prefecture_kana":"キョウトフ","city":"京都市下京区","city_kana":"キョウトシシモギョウク","town":"西八百屋町","town_kana":"ニシヤオヤチョウ","prefecture_code":26},"8153":{"zip_code":"6008153","prefecture":"京都府","prefecture_kana":"キョウトフ","city":"京都市下京区","city_kana":"キョウトシシモギョウク","town":"廿人講町","town_kana":"ニジュウニンコウチョウ","prefecture_code":26},"8412":{"zip_code":"6008412","prefecture":"京都府","prefecture_kana":"キョウトフ","city":"京都市下京区","city_kana":"キョウトシシモギョウク","town":"二帖半敷町","town_kana":"ニジョウハンジキチョウ","prefecture_code":26},"8334":{"zip_code":"6008334","prefecture":"京都府","prefecture_kana":"キョウトフ","city":"京都市下京区","city_kana":"キョウトシシモギョウク","town":"西若松町","town_kana":"ニシワカマツチョウ","prefecture_code":26},"8824":{"zip_code":"6008824","prefecture":"京都府","prefecture_kana":"キョウトフ","city":"京都市下京区","city_kana":"キョウトシシモギョウク","town":"二人司町","town_kana":"ニニンツカサチョウ","prefecture_code":26},"8491":{"zip_code":"6008491","prefecture":"京都府","prefecture_kana":"キョウトフ","city":"京都市下京区","city_kana":"キョウトシシモギョウク","town":"鶏鉾町","town_kana":"ニワトリボコチョウ","prefecture_code":26},"8053":[{"zip_code":"6008053","prefecture":"京都府","prefecture_kana":"キョウトフ","city":"京都市下京区","city_kana":"キョウトシシモギョウク","town":"塗師屋町富小路通綾小路下る","town_kana":"ヌシヤチョウトミノコウジドオリアヤノコウジサガル","prefecture_code":26},{"zip_code":"6008053","prefecture":"京都府","prefecture_kana":"キョウトフ","city":"京都市下京区","city_kana":"キョウトシシモギョウク","town":"塗師屋町富小路通仏光寺上る","town_kana":"ヌシヤチョウトミノコウジドオリブツコウジアガル","prefecture_code":26}],"8182":[{"zip_code":"6008182","prefecture":"京都府","prefecture_kana":"キョウトフ","city":"京都市下京区","city_kana":"キョウトシシモギョウク","town":"塗師屋町間之町通五条下る","town_kana":"ヌシヤチョウ","prefecture_code":26},{"zip_code":"6008182","prefecture":"京都府","prefecture_kana":"キョウトフ","city":"京都市下京区","city_kana":"キョウトシシモギョウク","town":"塗師屋町","town_kana":"ヌシヤチョウ","prefecture_code":26},{"zip_code":"6008182","prefecture":"京都府","prefecture_kana":"キョウトフ","city":"京都市下京区","city_kana":"キョウトシシモギョウク","town":"塗師屋町間之町六条上る","town_kana":"ヌシヤチョウ","prefecture_code":26},{"zip_code":"6008182","prefecture":"京都府","prefecture_kana":"キョウトフ","city":"京都市下京区","city_kana":"キョウトシシモギョウク","town":"塗師屋町下坂通間之町西入","town_kana":"ヌシヤチョウ","prefecture_code":26},{"zip_code":"6008182","prefecture":"京都府","prefecture_kana":"キョウトフ","city":"京都市下京区","city_kana":"キョウトシシモギョウク","town":"塗師屋町下坂通間之町東入","town_kana":"ヌシヤチョウ","prefecture_code":26},{"zip_code":"6008182","prefecture":"京都府","prefecture_kana":"キョウトフ","city":"京都市下京区","city_kana":"キョウトシシモギョウク","town":"塗師屋町六条通間之町西入","town_kana":"ヌシヤチョウ","prefecture_code":26},{"zip_code":"6008182","prefecture":"京都府","prefecture_kana":"キョウトフ","city":"京都市下京区","city_kana":"キョウトシシモギョウク","town":"塗師屋町六条通間之町東入","town_kana":"ヌシヤチョウ","prefecture_code":26},{"zip_code":"6008182","prefecture":"京都府","prefecture_kana":"キョウトフ","city":"京都市下京区","city_kana":"キョウトシシモギョウク","town":"塗師屋町六条通高倉西入","town_kana":"ヌシヤチョウ","prefecture_code":26},{"zip_code":"6008182","prefecture":"京都府","prefecture_kana":"キョウトフ","city":"京都市下京区","city_kana":"キョウトシシモギョウク","town":"塗師屋町六条通東洞院東入","town_kana":"ヌシヤチョウ","prefecture_code":26}],"8454":{"zip_code":"6008454","prefecture":"京都府","prefecture_kana":"キョウトフ","city":"京都市下京区","city_kana":"キョウトシシモギョウク","town":"布屋町","town_kana":"ヌノヤチョウ","prefecture_code":26},"8422":{"zip_code":"6008422","prefecture":"京都府","prefecture_kana":"キョウトフ","city":"京都市下京区","city_kana":"キョウトシシモギョウク","town":"白楽天町","town_kana":"ハクラクテンチョウ","prefecture_code":26},"8489":{"zip_code":"6008489","prefecture":"京都府","prefecture_kana":"キョウトフ","city":"京都市下京区","city_kana":"キョウトシシモギョウク","town":"橋橘町","town_kana":"ハシタチバナチョウ","prefecture_code":26},"8187":{"zip_code":"6008187","prefecture":"京都府","prefecture_kana":"キョウトフ","city":"京都市下京区","city_kana":"キョウトシシモギョウク","town":"橋詰町","town_kana":"ハシヅメチョウ","prefecture_code":26},"8113":{"zip_code":"6008113","prefecture":"京都府","prefecture_kana":"キョウトフ","city":"京都市下京区","city_kana":"キョウトシシモギョウク","town":"波止土濃町","town_kana":"ハシドノチョウ","prefecture_code":26},"8011":{"zip_code":"6008011","prefecture":"京都府","prefecture_kana":"キョウトフ","city":"京都市下京区","city_kana":"キョウトシシモギョウク","town":"橋本町","town_kana":"ハシモトチョウ","prefecture_code":26},"8139":{"zip_code":"6008139","prefecture":"京都府","prefecture_kana":"キョウトフ","city":"京都市下京区","city_kana":"キョウトシシモギョウク","town":"八王子町","town_kana":"ハチオウジチョウ","prefecture_code":26},"8196":{"zip_code":"6008196","prefecture":"京都府","prefecture_kana":"キョウトフ","city":"京都市下京区","city_kana":"キョウトシシモギョウク","town":"八軒町","town_kana":"ハチケンチョウ","prefecture_code":26},"8247":{"zip_code":"6008247","prefecture":"京都府","prefecture_kana":"キョウトフ","city":"京都市下京区","city_kana":"キョウトシシモギョウク","town":"八条坊門町塩小路通黒門西入","town_kana":"ハチジョウボウモンチョウシオコウジドオリクロモンニシイル","prefecture_code":26},"8836":{"zip_code":"6008836","prefecture":"京都府","prefecture_kana":"キョウトフ","city":"京都市下京区","city_kana":"キョウトシシモギョウク","town":"八条坊門町八条通大宮西入","town_kana":"ハチジョウボウモンチョウハチジョウドオリオオミヤニシイル","prefecture_code":26},"8041":{"zip_code":"6008041","prefecture":"京都府","prefecture_kana":"キョウトフ","city":"京都市下京区","city_kana":"キョウトシシモギョウク","town":"八文字町","town_kana":"ハチモンジチョウ","prefecture_code":26},"8261":{"zip_code":"6008261","prefecture":"京都府","prefecture_kana":"キョウトフ","city":"京都市下京区","city_kana":"キョウトシシモギョウク","town":"花園町","town_kana":"ハナゾノチョウ","prefecture_code":26},"8831":{"zip_code":"6008831","prefecture":"京都府","prefecture_kana":"キョウトフ","city":"京都市下京区","city_kana":"キョウトシシモギョウク","town":"花畑町","town_kana":"ハナバタケチョウ","prefecture_code":26},"8185":[{"zip_code":"6008185","prefecture":"京都府","prefecture_kana":"キョウトフ","city":"京都市下京区","city_kana":"キョウトシシモギョウク","town":"花屋町上枳殻馬場通間之町西入","town_kana":"ハナヤチョウ","prefecture_code":26},{"zip_code":"6008185","prefecture":"京都府","prefecture_kana":"キョウトフ","city":"京都市下京区","city_kana":"キョウトシシモギョウク","town":"花屋町上珠数屋町通間之町西入","town_kana":"ハナヤチョウ","prefecture_code":26},{"zip_code":"6008185","prefecture":"京都府","prefecture_kana":"キョウトフ","city":"京都市下京区","city_kana":"キョウトシシモギョウク","town":"花屋町上珠数屋町通東洞院東入","town_kana":"ハナヤチョウ","prefecture_code":26},{"zip_code":"6008185","prefecture":"京都府","prefecture_kana":"キョウトフ","city":"京都市下京区","city_kana":"キョウトシシモギョウク","town":"花屋町東洞院通上枳殻馬場下る","town_kana":"ハナヤチョウ","prefecture_code":26},{"zip_code":"6008185","prefecture":"京都府","prefecture_kana":"キョウトフ","city":"京都市下京区","city_kana":"キョウトシシモギョウク","town":"花屋町間之町通上珠数屋町下る","town_kana":"ハナヤチョウ","prefecture_code":26}],"8340":{"zip_code":"6008340","prefecture":"京都府","prefecture_kana":"キョウトフ","city":"京都市下京区","city_kana":"キョウトシシモギョウク","town":"花屋町","town_kana":"ハナヤチョウ","prefecture_code":26},"8114":{"zip_code":"6008114","prefecture":"京都府","prefecture_kana":"キョウトフ","city":"京都市下京区","city_kana":"キョウトシシモギョウク","town":"早尾町","town_kana":"ハヤオチョウ","prefecture_code":26},"8433":{"zip_code":"6008433","prefecture":"京都府","prefecture_kana":"キョウトフ","city":"京都市下京区","city_kana":"キョウトシシモギョウク","town":"繁昌町","town_kana":"ハンジョウチョウ","prefecture_code":26},"8439":{"zip_code":"6008439","prefecture":"京都府","prefecture_kana":"キョウトフ","city":"京都市下京区","city_kana":"キョウトシシモギョウク","town":"坂東屋町","town_kana":"バントウヤチョウ","prefecture_code":26},"8235":{"zip_code":"6008235","prefecture":"京都府","prefecture_kana":"キョウトフ","city":"京都市下京区","city_kana":"キョウトシシモギョウク","town":"東油小路町","town_kana":"ヒガシアブラノコウジチョウ","prefecture_code":26},"8169":{"zip_code":"6008169","prefecture":"京都府","prefecture_kana":"キョウトフ","city":"京都市下京区","city_kana":"キョウトシシモギョウク","town":"東魚屋町","town_kana":"ヒガシウオヤチョウ","prefecture_code":26},"8107":{"zip_code":"6008107","prefecture":"京都府","prefecture_kana":"キョウトフ","city":"京都市下京区","city_kana":"キョウトシシモギョウク","town":"東錺屋町","town_kana":"ヒガシカザリヤチョウ","prefecture_code":26},"8324":{"zip_code":"6008324","prefecture":"京都府","prefecture_kana":"キョウトフ","city":"京都市下京区","city_kana":"キョウトシシモギョウク","town":"東側町","town_kana":"ヒガシガワチョウ","prefecture_code":26},"8217":{"zip_code":"6008217","prefecture":"京都府","prefecture_kana":"キョウトフ","city":"京都市下京区","city_kana":"キョウトシシモギョウク","town":"東境町","town_kana":"ヒガシサカイチョウ","prefecture_code":26},"8215":{"zip_code":"6008215","prefecture":"京都府","prefecture_kana":"キョウトフ","city":"京都市下京区","city_kana":"キョウトシシモギョウク","town":"東塩小路釜殿町","town_kana":"ヒガシシオコウジカマドノチョウ","prefecture_code":26},"8214":{"zip_code":"6008214","prefecture":"京都府","prefecture_kana":"キョウトフ","city":"京都市下京区","city_kana":"キョウトシシモギョウク","town":"東塩小路高倉町","town_kana":"ヒガシシオコウジタカクラチョウ","prefecture_code":26},"8213":{"zip_code":"6008213","prefecture":"京都府","prefecture_kana":"キョウトフ","city":"京都市下京区","city_kana":"キョウトシシモギョウク","town":"東塩小路向畑町","town_kana":"ヒガシシオコウジムカイハタチョウ","prefecture_code":26},"8216":{"zip_code":"6008216","prefecture":"京都府","prefecture_kana":"キョウトフ","city":"京都市下京区","city_kana":"キョウトシシモギョウク","town":"東塩小路町","town_kana":"ヒガシシオコウジチョウ","prefecture_code":26},"8225":{"zip_code":"6008225","prefecture":"京都府","prefecture_kana":"キョウトフ","city":"京都市下京区","city_kana":"キョウトシシモギョウク","town":"東大工町","town_kana":"ヒガシダイクチョウ","prefecture_code":26},"8190":{"zip_code":"6008190","prefecture":"京都府","prefecture_kana":"キョウトフ","city":"京都市下京区","city_kana":"キョウトシシモギョウク","town":"東玉水町","town_kana":"ヒガシタマミズチョウ","prefecture_code":26},"8224":{"zip_code":"6008224","prefecture":"京都府","prefecture_kana":"キョウトフ","city":"京都市下京区","city_kana":"キョウトシシモギョウク","town":"東町","town_kana":"ヒガシチョウ","prefecture_code":26},"8204":{"zip_code":"6008204","prefecture":"京都府","prefecture_kana":"キョウトフ","city":"京都市下京区","city_kana":"キョウトシシモギョウク","town":"東之町","town_kana":"ヒガシノチョウ","prefecture_code":26},"8074":{"zip_code":"6008074","prefecture":"京都府","prefecture_kana":"キョウトフ","city":"京都市下京区","city_kana":"キョウトシシモギョウク","town":"東前町","town_kana":"ヒガシマエチョウ","prefecture_code":26},"8315":{"zip_code":"6008315","prefecture":"京都府","prefecture_kana":"キョウトフ","city":"京都市下京区","city_kana":"キョウトシシモギョウク","town":"東松屋町","town_kana":"ヒガシマツヤチョウ","prefecture_code":26},"8305":{"zip_code":"6008305","prefecture":"京都府","prefecture_kana":"キョウトフ","city":"京都市下京区","city_kana":"キョウトシシモギョウク","town":"東若松町","town_kana":"ヒガシワカマツチョウ","prefecture_code":26},"8458":{"zip_code":"6008458","prefecture":"京都府","prefecture_kana":"キョウトフ","city":"京都市下京区","city_kana":"キョウトシシモギョウク","town":"樋口町","town_kana":"ヒグチチョウ","prefecture_code":26},"8227":{"zip_code":"6008227","prefecture":"京都府","prefecture_kana":"キョウトフ","city":"京都市下京区","city_kana":"キョウトシシモギョウク","town":"菱屋町","town_kana":"ヒシヤチョウ","prefecture_code":26},"8311":{"zip_code":"6008311","prefecture":"京都府","prefecture_kana":"キョウトフ","city":"京都市下京区","city_kana":"キョウトシシモギョウク","town":"毘沙門町","town_kana":"ビシャモンチョウ","prefecture_code":26},"8087":{"zip_code":"6008087","prefecture":"京都府","prefecture_kana":"キョウトフ","city":"京都市下京区","city_kana":"キョウトシシモギョウク","town":"樋之下町","town_kana":"ヒノシタチョウ","prefecture_code":26},"8118":{"zip_code":"6008118","prefecture":"京都府","prefecture_kana":"キョウトフ","city":"京都市下京区","city_kana":"キョウトシシモギョウク","town":"平居町","town_kana":"ヒライチョウ","prefecture_code":26},"8122":{"zip_code":"6008122","prefecture":"京都府","prefecture_kana":"キョウトフ","city":"京都市下京区","city_kana":"キョウトシシモギョウク","town":"平岡町","town_kana":"ヒラオカチョウ","prefecture_code":26},"8306":{"zip_code":"6008306","prefecture":"京都府","prefecture_kana":"キョウトフ","city":"京都市下京区","city_kana":"キョウトシシモギョウク","town":"平野町","town_kana":"ヒラノチョウ","prefecture_code":26},"8109":{"zip_code":"6008109","prefecture":"京都府","prefecture_kana":"キョウトフ","city":"京都市下京区","city_kana":"キョウトシシモギョウク","town":"平屋町","town_kana":"ヒラヤチョウ","prefecture_code":26},"8408":{"zip_code":"6008408","prefecture":"京都府","prefecture_kana":"キョウトフ","city":"京都市下京区","city_kana":"キョウトシシモギョウク","town":"深草町","town_kana":"フカクサチョウ","prefecture_code":26},"8189":{"zip_code":"6008189","prefecture":"京都府","prefecture_kana":"キョウトフ","city":"京都市下京区","city_kana":"キョウトシシモギョウク","town":"福島町","town_kana":"フクシマチョウ","prefecture_code":26},"8404":{"zip_code":"6008404","prefecture":"京都府","prefecture_kana":"キョウトフ","city":"京都市下京区","city_kana":"キョウトシシモギョウク","town":"福田寺町","town_kana":"フクデンジチョウ","prefecture_code":26},"8320":{"zip_code":"6008320","prefecture":"京都府","prefecture_kana":"キョウトフ","city":"京都市下京区","city_kana":"キョウトシシモギョウク","town":"福本町","town_kana":"フクモトチョウ","prefecture_code":26},"8495":{"zip_code":"6008495","prefecture":"京都府","prefecture_kana":"キョウトフ","city":"京都市下京区","city_kana":"キョウトシシモギョウク","town":"藤本寄町","town_kana":"フジモトヨリチョウ","prefecture_code":26},"8173":[{"zip_code":"6008173","prefecture":"京都府","prefecture_kana":"キョウトフ","city":"京都市下京区","city_kana":"キョウトシシモギョウク","town":"仏具屋町","town_kana":"ブツグヤチョウ","prefecture_code":26},{"zip_code":"6008173","prefecture":"京都府","prefecture_kana":"キョウトフ","city":"京都市下京区","city_kana":"キョウトシシモギョウク","town":"仏具屋町不明門通花屋町上る","town_kana":"ブツグヤチョウ","prefecture_code":26},{"zip_code":"6008173","prefecture":"京都府","prefecture_kana":"キョウトフ","city":"京都市下京区","city_kana":"キョウトシシモギョウク","town":"仏具屋町不明門通六条上る","town_kana":"ブツグヤチョウ","prefecture_code":26},{"zip_code":"6008173","prefecture":"京都府","prefecture_kana":"キョウトフ","city":"京都市下京区","city_kana":"キョウトシシモギョウク","town":"仏具屋町不明門通六条下る","town_kana":"ブツグヤチョウ","prefecture_code":26},{"zip_code":"6008173","prefecture":"京都府","prefecture_kana":"キョウトフ","city":"京都市下京区","city_kana":"キョウトシシモギョウク","town":"仏具屋町花屋町通烏丸東入","town_kana":"ブツグヤチョウ","prefecture_code":26},{"zip_code":"6008173","prefecture":"京都府","prefecture_kana":"キョウトフ","city":"京都市下京区","city_kana":"キョウトシシモギョウク","town":"仏具屋町花屋町通不明門西入","town_kana":"ブツグヤチョウ","prefecture_code":26},{"zip_code":"6008173","prefecture":"京都府","prefecture_kana":"キョウトフ","city":"京都市下京区","city_kana":"キョウトシシモギョウク","town":"仏具屋町花屋町通不明門東入","town_kana":"ブツグヤチョウ","prefecture_code":26},{"zip_code":"6008173","prefecture":"京都府","prefecture_kana":"キョウトフ","city":"京都市下京区","city_kana":"キョウトシシモギョウク","town":"仏具屋町六条通不明門西入","town_kana":"ブツグヤチョウ","prefecture_code":26},{"zip_code":"6008173","prefecture":"京都府","prefecture_kana":"キョウトフ","city":"京都市下京区","city_kana":"キョウトシシモギョウク","town":"仏具屋町六条通不明門東入","town_kana":"ブツグヤチョウ","prefecture_code":26},{"zip_code":"6008173","prefecture":"京都府","prefecture_kana":"キョウトフ","city":"京都市下京区","city_kana":"キョウトシシモギョウク","town":"仏具屋町六条通烏丸東入","town_kana":"ブツグヤチョウ","prefecture_code":26},{"zip_code":"6008173","prefecture":"京都府","prefecture_kana":"キョウトフ","city":"京都市下京区","city_kana":"キョウトシシモギョウク","town":"仏具屋町六条通東洞院西入","town_kana":"ブツグヤチョウ","prefecture_code":26}],"8347":[{"zip_code":"6008347","prefecture":"京都府","prefecture_kana":"キョウトフ","city":"京都市下京区","city_kana":"キョウトシシモギョウク","town":"仏具屋町油小路通正面上る","town_kana":"ブツグヤチョウ","prefecture_code":26},{"zip_code":"6008347","prefecture":"京都府","prefecture_kana":"キョウトフ","city":"京都市下京区","city_kana":"キョウトシシモギョウク","town":"仏具屋町油小路通花屋町下る","town_kana":"ブツグヤチョウ","prefecture_code":26},{"zip_code":"6008347","prefecture":"京都府","prefecture_kana":"キョウトフ","city":"京都市下京区","city_kana":"キョウトシシモギョウク","town":"仏具屋町正面通油小路東入","town_kana":"ブツグヤチョウ","prefecture_code":26},{"zip_code":"6008347","prefecture":"京都府","prefecture_kana":"キョウトフ","city":"京都市下京区","city_kana":"キョウトシシモギョウク","town":"仏具屋町花屋町通油小路東入","town_kana":"ブツグヤチョウ","prefecture_code":26}],"8094":{"zip_code":"6008094","prefecture":"京都府","prefecture_kana":"キョウトフ","city":"京都市下京区","city_kana":"キョウトシシモギョウク","town":"仏光寺西町","town_kana":"ブッコウジニシマチ","prefecture_code":26},"8054":{"zip_code":"6008054","prefecture":"京都府","prefecture_kana":"キョウトフ","city":"京都市下京区","city_kana":"キョウトシシモギョウク","town":"仏光寺東町","town_kana":"ブッコウジヒガシマチ","prefecture_code":26},"8466":{"zip_code":"6008466","prefecture":"京都府","prefecture_kana":"キョウトフ","city":"京都市下京区","city_kana":"キョウトシシモギョウク","town":"舟屋町","town_kana":"フナヤチョウ","prefecture_code":26},"8443":{"zip_code":"6008443","prefecture":"京都府","prefecture_kana":"キョウトフ","city":"京都市下京区","city_kana":"キョウトシシモギョウク","town":"船鉾町","town_kana":"フネボコチョウ","prefecture_code":26},"8467":{"zip_code":"6008467","prefecture":"京都府","prefecture_kana":"キョウトフ","city":"京都市下京区","city_kana":"キョウトシシモギョウク","town":"麓町","town_kana":"フモトチョウ","prefecture_code":26},"8245":{"zip_code":"6008245","prefecture":"京都府","prefecture_kana":"キョウトフ","city":"京都市下京区","city_kana":"キョウトシシモギョウク","town":"古御旅町","town_kana":"フルオタビチョウ","prefecture_code":26},"8428":{"zip_code":"6008428","prefecture":"京都府","prefecture_kana":"キョウトフ","city":"京都市下京区","city_kana":"キョウトシシモギョウク","town":"弁財天町","town_kana":"ベンザイテンチョウ","prefecture_code":26},"8388":{"zip_code":"6008388","prefecture":"京都府","prefecture_kana":"キョウトフ","city":"京都市下京区","city_kana":"キョウトシシモギョウク","town":"坊門町","town_kana":"ボウモンチョウ","prefecture_code":26},"8244":{"zip_code":"6008244","prefecture":"京都府","prefecture_kana":"キョウトフ","city":"京都市下京区","city_kana":"キョウトシシモギョウク","town":"坊門中之町","town_kana":"ボウモンナカノチョウ","prefecture_code":26},"8333":{"zip_code":"6008333","prefecture":"京都府","prefecture_kana":"キョウトフ","city":"京都市下京区","city_kana":"キョウトシシモギョウク","town":"卜味金仏町","town_kana":"ボクミカナブツチョウ","prefecture_code":26},"8193":[{"zip_code":"6008193","prefecture":"京都府","prefecture_kana":"キョウトフ","city":"京都市下京区","city_kana":"キョウトシシモギョウク","town":"骨屋町六条通高倉東入","town_kana":"ホネヤチョウロクジョウドオリタカクラヒガシイル","prefecture_code":26},{"zip_code":"6008193","prefecture":"京都府","prefecture_kana":"キョウトフ","city":"京都市下京区","city_kana":"キョウトシシモギョウク","town":"骨屋町六条通柳馬場西入","town_kana":"ホネヤチョウロクジョウドオリヤナギババニシイル","prefecture_code":26}],"8425":[{"zip_code":"6008425","prefecture":"京都府","prefecture_kana":"キョウトフ","city":"京都市下京区","city_kana":"キョウトシシモギョウク","town":"骨屋町諏訪町通高辻上る","town_kana":"ホネヤチョウ","prefecture_code":26},{"zip_code":"6008425","prefecture":"京都府","prefecture_kana":"キョウトフ","city":"京都市下京区","city_kana":"キョウトシシモギョウク","town":"骨屋町諏訪町通高辻下る","town_kana":"ホネヤチョウ","prefecture_code":26},{"zip_code":"6008425","prefecture":"京都府","prefecture_kana":"キョウトフ","city":"京都市下京区","city_kana":"キョウトシシモギョウク","town":"骨屋町高辻通烏丸西入","town_kana":"ホネヤチョウ","prefecture_code":26},{"zip_code":"6008425","prefecture":"京都府","prefecture_kana":"キョウトフ","city":"京都市下京区","city_kana":"キョウトシシモギョウク","town":"骨屋町高辻通室町東入","town_kana":"ホネヤチョウ","prefecture_code":26}],"8147":{"zip_code":"6008147","prefecture":"京都府","prefecture_kana":"キョウトフ","city":"京都市下京区","city_kana":"キョウトシシモギョウク","town":"堀詰町","town_kana":"ホリヅメチョウ","prefecture_code":26},"8446":{"zip_code":"6008446","prefecture":"京都府","prefecture_kana":"キョウトフ","city":"京都市下京区","city_kana":"キョウトシシモギョウク","town":"堀之内町","town_kana":"ホリノウチチョウ","prefecture_code":26},"8361":{"zip_code":"6008361","prefecture":"京都府","prefecture_kana":"キョウトフ","city":"京都市下京区","city_kana":"キョウトシシモギョウク","town":"堀之上町","town_kana":"ホリノガミチョウ","prefecture_code":26},"8102":{"zip_code":"6008102","prefecture":"京都府","prefecture_kana":"キョウトフ","city":"京都市下京区","city_kana":"キョウトシシモギョウク","town":"本覚寺前町","town_kana":"ホンガクジマエチョウ","prefecture_code":26},"8086":{"zip_code":"6008086","prefecture":"京都府","prefecture_kana":"キョウトフ","city":"京都市下京区","city_kana":"キョウトシシモギョウク","town":"本燈籠町","town_kana":"ホントウロウチョウ","prefecture_code":26},"8462":{"zip_code":"6008462","prefecture":"京都府","prefecture_kana":"キョウトフ","city":"京都市下京区","city_kana":"キョウトシシモギョウク","town":"本柳水町","town_kana":"ホンリュウスイチョウ","prefecture_code":26},"8211":{"zip_code":"6008211","prefecture":"京都府","prefecture_kana":"キョウトフ","city":"京都市下京区","city_kana":"キョウトシシモギョウク","town":"真苧屋町","town_kana":"マオヤチョウ","prefecture_code":26},"8046":{"zip_code":"6008046","prefecture":"京都府","prefecture_kana":"キョウトフ","city":"京都市下京区","city_kana":"キョウトシシモギョウク","town":"桝屋町","town_kana":"マスヤチョウ","prefecture_code":26},"8195":{"zip_code":"6008195","prefecture":"京都府","prefecture_kana":"キョウトフ","city":"京都市下京区","city_kana":"キョウトシシモギョウク","town":"升屋町","town_kana":"マスヤチョウ","prefecture_code":26},"8026":{"zip_code":"6008026","prefecture":"京都府","prefecture_kana":"キョウトフ","city":"京都市下京区","city_kana":"キョウトシシモギョウク","town":"松川町","town_kana":"マツカワチョウ","prefecture_code":26},"8063":{"zip_code":"6008063","prefecture":"京都府","prefecture_kana":"キョウトフ","city":"京都市下京区","city_kana":"キョウトシシモギョウク","town":"松原中之町","town_kana":"マツバラナカノチョウ","prefecture_code":26},"8256":[{"zip_code":"6008256","prefecture":"京都府","prefecture_kana":"キョウトフ","city":"京都市下京区","city_kana":"キョウトシシモギョウク","town":"松本町岩上通木津屋橋下る","town_kana":"マツモトチョウイワガミドオリキヅヤバシサガル","prefecture_code":26},{"zip_code":"6008256","prefecture":"京都府","prefecture_kana":"キョウトフ","city":"京都市下京区","city_kana":"キョウトシシモギョウク","town":"松本町岩上通塩小路上る","town_kana":"マツモトチョウイワガミドオリシオコウジアガル","prefecture_code":26}],"8390":[{"zip_code":"6008390","prefecture":"京都府","prefecture_kana":"キョウトフ","city":"京都市下京区","city_kana":"キョウトシシモギョウク","town":"松本町綾小路通猪熊東入","town_kana":"マツモトチョウ","prefecture_code":26},{"zip_code":"6008390","prefecture":"京都府","prefecture_kana":"キョウトフ","city":"京都市下京区","city_kana":"キョウトシシモギョウク","town":"松本町猪熊通綾小路上る","town_kana":"マツモトチョウ","prefecture_code":26},{"zip_code":"6008390","prefecture":"京都府","prefecture_kana":"キョウトフ","city":"京都市下京区","city_kana":"キョウトシシモギョウク","town":"松本町猪熊通四条下る","town_kana":"マツモトチョウ","prefecture_code":26}],"8105":{"zip_code":"6008105","prefecture":"京都府","prefecture_kana":"キョウトフ","city":"京都市下京区","city_kana":"キョウトシシモギョウク","town":"松屋町","town_kana":"マツヤチョウ","prefecture_code":26},"8075":{"zip_code":"6008075","prefecture":"京都府","prefecture_kana":"キョウトフ","city":"京都市下京区","city_kana":"キョウトシシモギョウク","town":"万里小路町","town_kana":"マリコウジチョウ","prefecture_code":26},"8037":[{"zip_code":"6008037","prefecture":"京都府","prefecture_kana":"キョウトフ","city":"京都市下京区","city_kana":"キョウトシシモギョウク","town":"丸屋町御幸町通綾小路下る","town_kana":"マルヤチョウゴコマチドオリアヤノコウジサガル","prefecture_code":26},{"zip_code":"6008037","prefecture":"京都府","prefecture_kana":"キョウトフ","city":"京都市下京区","city_kana":"キョウトシシモギョウク","town":"丸屋町御幸町通仏光寺上る","town_kana":"マルヤチョウゴコマチドオリブツコウジアガル","prefecture_code":26}],"8359":[{"zip_code":"6008359","prefecture":"京都府","prefecture_kana":"キョウトフ","city":"京都市下京区","city_kana":"キョウトシシモギョウク","town":"丸屋町綾小路通猪熊西入","town_kana":"マルヤチョウ","prefecture_code":26},{"zip_code":"6008359","prefecture":"京都府","prefecture_kana":"キョウトフ","city":"京都市下京区","city_kana":"キョウトシシモギョウク","town":"丸屋町綾小路通大宮東入","town_kana":"マルヤチョウ","prefecture_code":26},{"zip_code":"6008359","prefecture":"京都府","prefecture_kana":"キョウトフ","city":"京都市下京区","city_kana":"キョウトシシモギョウク","town":"丸屋町綾小路通黒門西入","town_kana":"マルヤチョウ","prefecture_code":26},{"zip_code":"6008359","prefecture":"京都府","prefecture_kana":"キョウトフ","city":"京都市下京区","city_kana":"キョウトシシモギョウク","town":"丸屋町綾小路通黒門東入","town_kana":"マルヤチョウ","prefecture_code":26},{"zip_code":"6008359","prefecture":"京都府","prefecture_kana":"キョウトフ","city":"京都市下京区","city_kana":"キョウトシシモギョウク","town":"丸屋町猪熊通綾小路上る","town_kana":"マルヤチョウ","prefecture_code":26},{"zip_code":"6008359","prefecture":"京都府","prefecture_kana":"キョウトフ","city":"京都市下京区","city_kana":"キョウトシシモギョウク","town":"丸屋町黒門通綾小路上る","town_kana":"マルヤチョウ","prefecture_code":26},{"zip_code":"6008359","prefecture":"京都府","prefecture_kana":"キョウトフ","city":"京都市下京区","city_kana":"キョウトシシモギョウク","town":"丸屋町黒門通綾小路下る","town_kana":"マルヤチョウ","prefecture_code":26}],"8399":[{"zip_code":"6008399","prefecture":"京都府","prefecture_kana":"キョウトフ","city":"京都市下京区","city_kana":"キョウトシシモギョウク","town":"丸屋町北小路通西中筋東入","town_kana":"マルヤチョウ","prefecture_code":26},{"zip_code":"6008399","prefecture":"京都府","prefecture_kana":"キョウトフ","city":"京都市下京区","city_kana":"キョウトシシモギョウク","town":"丸屋町西中筋通北小路上る","town_kana":"マルヤチョウ","prefecture_code":26},{"zip_code":"6008399","prefecture":"京都府","prefecture_kana":"キョウトフ","city":"京都市下京区","city_kana":"キョウトシシモギョウク","town":"丸屋町西中筋通正面下る","town_kana":"マルヤチョウ","prefecture_code":26},{"zip_code":"6008399","prefecture":"京都府","prefecture_kana":"キョウトフ","city":"京都市下京区","city_kana":"キョウトシシモギョウク","town":"丸屋町北小路通堀川東入","town_kana":"マルヤチョウ","prefecture_code":26},{"zip_code":"6008399","prefecture":"京都府","prefecture_kana":"キョウトフ","city":"京都市下京区","city_kana":"キョウトシシモギョウク","town":"丸屋町堀川通北小路上る","town_kana":"マルヤチョウ","prefecture_code":26},{"zip_code":"6008399","prefecture":"京都府","prefecture_kana":"キョウトフ","city":"京都市下京区","city_kana":"キョウトシシモギョウク","town":"丸屋町堀川通正面下る","town_kana":"マルヤチョウ","prefecture_code":26}],"8104":{"zip_code":"6008104","prefecture":"京都府","prefecture_kana":"キョウトフ","city":"京都市下京区","city_kana":"キョウトシシモギョウク","town":"万寿寺町","town_kana":"マンジュウジチョウ","prefecture_code":26},"8405":{"zip_code":"6008405","prefecture":"京都府","prefecture_kana":"キョウトフ","city":"京都市下京区","city_kana":"キョウトシシモギョウク","town":"万寿寺中之町","town_kana":"マンジュウジナカノチョウ","prefecture_code":26},"8101":{"zip_code":"6008101","prefecture":"京都府","prefecture_kana":"キョウトフ","city":"京都市下京区","city_kana":"キョウトシシモギョウク","town":"御影堂町","town_kana":"ミエイドウチョウ","prefecture_code":26},"8447":{"zip_code":"6008447","prefecture":"京都府","prefecture_kana":"キョウトフ","city":"京都市下京区","city_kana":"キョウトシシモギョウク","town":"御影町","town_kana":"ミカゲチョウ","prefecture_code":26},"8020":{"zip_code":"6008020","prefecture":"京都府","prefecture_kana":"キョウトフ","city":"京都市下京区","city_kana":"キョウトシシモギョウク","town":"御影堂前町","town_kana":"ミカゲドウマエチョウ","prefecture_code":26},"8238":{"zip_code":"6008238","prefecture":"京都府","prefecture_kana":"キョウトフ","city":"京都市下京区","city_kana":"キョウトシシモギョウク","town":"御方紺屋町","town_kana":"ミカタコンヤチョウ","prefecture_code":26},"8243":{"zip_code":"6008243","prefecture":"京都府","prefecture_kana":"キョウトフ","city":"京都市下京区","city_kana":"キョウトシシモギョウク","town":"南夷町","town_kana":"ミナミエビスチョウ","prefecture_code":26},"8117":{"zip_code":"6008117","prefecture":"京都府","prefecture_kana":"キョウトフ","city":"京都市下京区","city_kana":"キョウトシシモギョウク","town":"南京極町","town_kana":"ミナミキョウゴクチョウ","prefecture_code":26},"8110":{"zip_code":"6008110","prefecture":"京都府","prefecture_kana":"キョウトフ","city":"京都市下京区","city_kana":"キョウトシシモギョウク","town":"南橋詰町","town_kana":"ミナミハシヅメチョウ","prefecture_code":26},"8234":{"zip_code":"6008234","prefecture":"京都府","prefecture_kana":"キョウトフ","city":"京都市下京区","city_kana":"キョウトシシモギョウク","town":"南不動堂町","town_kana":"ミナミフドンドウチョウ","prefecture_code":26},"8232":{"zip_code":"6008232","prefecture":"京都府","prefecture_kana":"キョウトフ","city":"京都市下京区","city_kana":"キョウトシシモギョウク","town":"南町","town_kana":"ミナミマチ","prefecture_code":26},"8372":{"zip_code":"6008372","prefecture":"京都府","prefecture_kana":"キョウトフ","city":"京都市下京区","city_kana":"キョウトシシモギョウク","town":"南門前町","town_kana":"ミナミモンゼンチョウ","prefecture_code":26},"8251":{"zip_code":"6008251","prefecture":"京都府","prefecture_kana":"キョウトフ","city":"京都市下京区","city_kana":"キョウトシシモギョウク","town":"南八百屋町","town_kana":"ミナミヤオヤチョウ","prefecture_code":26},"8015":{"zip_code":"6008015","prefecture":"京都府","prefecture_kana":"キョウトフ","city":"京都市下京区","city_kana":"キョウトシシモギョウク","town":"美濃屋町","town_kana":"ミノヤチョウ","prefecture_code":26},"8472":{"zip_code":"6008472","prefecture":"京都府","prefecture_kana":"キョウトフ","city":"京都市下京区","city_kana":"キョウトシシモギョウク","town":"妙伝寺町","town_kana":"ミョウデンジチョウ","prefecture_code":26},"8392":{"zip_code":"6008392","prefecture":"京都府","prefecture_kana":"キョウトフ","city":"京都市下京区","city_kana":"キョウトシシモギョウク","town":"妙満寺町","town_kana":"ミョウマンジチョウ","prefecture_code":26},"8091":{"zip_code":"6008091","prefecture":"京都府","prefecture_kana":"キョウトフ","city":"京都市下京区","city_kana":"キョウトシシモギョウク","town":"元悪王子町","town_kana":"モトアクオウジチョウ","prefecture_code":26},"8064":{"zip_code":"6008064","prefecture":"京都府","prefecture_kana":"キョウトフ","city":"京都市下京区","city_kana":"キョウトシシモギョウク","town":"本上神明町","town_kana":"モトカミシンメイチョウ","prefecture_code":26},"8119":{"zip_code":"6008119","prefecture":"京都府","prefecture_kana":"キョウトフ","city":"京都市下京区","city_kana":"キョウトシシモギョウク","town":"本塩竈町","town_kana":"モトシオガマチョウ","prefecture_code":26},"8065":{"zip_code":"6008065","prefecture":"京都府","prefecture_kana":"キョウトフ","city":"京都市下京区","city_kana":"キョウトシシモギョウク","town":"本神明町","town_kana":"モトシンメイチョウ","prefecture_code":26},"8436":{"zip_code":"6008436","prefecture":"京都府","prefecture_kana":"キョウトフ","city":"京都市下京区","city_kana":"キョウトシシモギョウク","town":"元両替町","town_kana":"モトリョウガエチョウ","prefecture_code":26},"8345":{"zip_code":"6008345","prefecture":"京都府","prefecture_kana":"キョウトフ","city":"京都市下京区","city_kana":"キョウトシシモギョウク","town":"紅葉町","town_kana":"モミジチョウ","prefecture_code":26},"8222":{"zip_code":"6008222","prefecture":"京都府","prefecture_kana":"キョウトフ","city":"京都市下京区","city_kana":"キョウトシシモギョウク","town":"文覚町","town_kana":"モンガクチョウ","prefecture_code":26},"8358":{"zip_code":"6008358","prefecture":"京都府","prefecture_kana":"キョウトフ","city":"京都市下京区","city_kana":"キョウトシシモギョウク","town":"門前町","town_kana":"モンゼンチョウ","prefecture_code":26},"8168":[{"zip_code":"6008168","prefecture":"京都府","prefecture_kana":"キョウトフ","city":"京都市下京区","city_kana":"キョウトシシモギョウク","town":"八百屋町室町新町ノ間六条下る","town_kana":"ヤオヤチョウ","prefecture_code":26},{"zip_code":"6008168","prefecture":"京都府","prefecture_kana":"キョウトフ","city":"京都市下京区","city_kana":"キョウトシシモギョウク","town":"八百屋町室町通花屋町上る","town_kana":"ヤオヤチョウ","prefecture_code":26},{"zip_code":"6008168","prefecture":"京都府","prefecture_kana":"キョウトフ","city":"京都市下京区","city_kana":"キョウトシシモギョウク","town":"八百屋町室町通六条下る","town_kana":"ヤオヤチョウ","prefecture_code":26},{"zip_code":"6008168","prefecture":"京都府","prefecture_kana":"キョウトフ","city":"京都市下京区","city_kana":"キョウトシシモギョウク","town":"八百屋町六条通新町東入下る","town_kana":"ヤオヤチョウ","prefecture_code":26},{"zip_code":"6008168","prefecture":"京都府","prefecture_kana":"キョウトフ","city":"京都市下京区","city_kana":"キョウトシシモギョウク","town":"八百屋町六条通室町西入","town_kana":"ヤオヤチョウ","prefecture_code":26},{"zip_code":"6008168","prefecture":"京都府","prefecture_kana":"キョウトフ","city":"京都市下京区","city_kana":"キョウトシシモギョウク","town":"八百屋町六条通室町西入下る","town_kana":"ヤオヤチョウ","prefecture_code":26}],"8262":[{"zip_code":"6008262","prefecture":"京都府","prefecture_kana":"キョウトフ","city":"京都市下京区","city_kana":"キョウトシシモギョウク","town":"八百屋町七条通猪熊通東入","town_kana":"ヤオヤチョウ","prefecture_code":26},{"zip_code":"6008262","prefecture":"京都府","prefecture_kana":"キョウトフ","city":"京都市下京区","city_kana":"キョウトシシモギョウク","town":"八百屋町七条通東堀川西入","town_kana":"ヤオヤチョウ","prefecture_code":26},{"zip_code":"6008262","prefecture":"京都府","prefecture_kana":"キョウトフ","city":"京都市下京区","city_kana":"キョウトシシモギョウク","town":"八百屋町七条通堀川西入","town_kana":"ヤオヤチョウ","prefecture_code":26},{"zip_code":"6008262","prefecture":"京都府","prefecture_kana":"キョウトフ","city":"京都市下京区","city_kana":"キョウトシシモギョウク","town":"八百屋町七条通堀川西入下る","town_kana":"ヤオヤチョウ","prefecture_code":26},{"zip_code":"6008262","prefecture":"京都府","prefecture_kana":"キョウトフ","city":"京都市下京区","city_kana":"キョウトシシモギョウク","town":"八百屋町東堀川通七条下る西入","town_kana":"ヤオヤチョウ","prefecture_code":26},{"zip_code":"6008262","prefecture":"京都府","prefecture_kana":"キョウトフ","city":"京都市下京区","city_kana":"キョウトシシモギョウク","town":"八百屋町下魚棚通堀川西入","town_kana":"ヤオヤチョウ","prefecture_code":26}],"8321":[{"zip_code":"6008321","prefecture":"京都府","prefecture_kana":"キョウトフ","city":"京都市下京区","city_kana":"キョウトシシモギョウク","town":"八百屋町西洞院通楊梅上る","town_kana":"ヤオヤチョウ","prefecture_code":26},{"zip_code":"6008321","prefecture":"京都府","prefecture_kana":"キョウトフ","city":"京都市下京区","city_kana":"キョウトシシモギョウク","town":"八百屋町西洞院通楊梅下る","town_kana":"ヤオヤチョウ","prefecture_code":26},{"zip_code":"6008321","prefecture":"京都府","prefecture_kana":"キョウトフ","city":"京都市下京区","city_kana":"キョウトシシモギョウク","town":"八百屋町楊梅通西洞院東入","town_kana":"ヤオヤチョウ","prefecture_code":26},{"zip_code":"6008321","prefecture":"京都府","prefecture_kana":"キョウトフ","city":"京都市下京区","city_kana":"キョウトシシモギョウク","town":"八百屋町楊梅通若宮西入","town_kana":"ヤオヤチョウ","prefecture_code":26}],"8203":{"zip_code":"6008203","prefecture":"京都府","prefecture_kana":"キョウトフ","city":"京都市下京区","city_kana":"キョウトシシモギョウク","town":"屋形町","town_kana":"ヤカタチョウ","prefecture_code":26},"8823":{"zip_code":"6008823","prefecture":"京都府","prefecture_kana":"キョウトフ","city":"京都市下京区","city_kana":"キョウトシシモギョウク","town":"薬園町","town_kana":"ヤクエンチョウ","prefecture_code":26},"8416":{"zip_code":"6008416","prefecture":"京都府","prefecture_kana":"キョウトフ","city":"京都市下京区","city_kana":"キョウトシシモギョウク","town":"薬師前町","town_kana":"ヤクシマエチョウ","prefecture_code":26},"8442":{"zip_code":"6008442","prefecture":"京都府","prefecture_kana":"キョウトフ","city":"京都市下京区","city_kana":"キョウトシシモギョウク","town":"矢田町","town_kana":"ヤダチョウ","prefecture_code":26},"8112":{"zip_code":"6008112","prefecture":"京都府","prefecture_kana":"キョウトフ","city":"京都市下京区","city_kana":"キョウトシシモギョウク","town":"八ツ柳町","town_kana":"ヤツヤナギチョウ","prefecture_code":26},"8344":{"zip_code":"6008344","prefecture":"京都府","prefecture_kana":"キョウトフ","city":"京都市下京区","city_kana":"キョウトシシモギョウク","town":"柳町","town_kana":"ヤナギチョウ","prefecture_code":26},"8448":{"zip_code":"6008448","prefecture":"京都府","prefecture_kana":"キョウトフ","city":"京都市下京区","city_kana":"キョウトシシモギョウク","town":"藪下町","town_kana":"ヤブシタチョウ","prefecture_code":26},"8374":{"zip_code":"6008374","prefecture":"京都府","prefecture_kana":"キョウトフ","city":"京都市下京区","city_kana":"キョウトシシモギョウク","town":"藪之内町","town_kana":"ヤブノウチチョウ","prefecture_code":26},"8342":{"zip_code":"6008342","prefecture":"京都府","prefecture_kana":"キョウトフ","city":"京都市下京区","city_kana":"キョウトシシモギョウク","town":"山川町","town_kana":"ヤマカワチョウ","prefecture_code":26},"8455":{"zip_code":"6008455","prefecture":"京都府","prefecture_kana":"キョウトフ","city":"京都市下京区","city_kana":"キョウトシシモギョウク","town":"八幡町","town_kana":"ヤワタチョウ","prefecture_code":26},"8077":{"zip_code":"6008077","prefecture":"京都府","prefecture_kana":"キョウトフ","city":"京都市下京区","city_kana":"キョウトシシモギョウク","town":"夕顔町","town_kana":"ユウガオチョウ","prefecture_code":26},"8477":{"zip_code":"6008477","prefecture":"京都府","prefecture_kana":"キョウトフ","city":"京都市下京区","city_kana":"キョウトシシモギョウク","town":"要法寺町","town_kana":"ヨウホウジチョウ","prefecture_code":26},"8179":{"zip_code":"6008179","prefecture":"京都府","prefecture_kana":"キョウトフ","city":"京都市下京区","city_kana":"キョウトシシモギョウク","town":"横諏訪町","town_kana":"ヨコスワンチョウ","prefecture_code":26},"8403":[{"zip_code":"6008403","prefecture":"京都府","prefecture_kana":"キョウトフ","city":"京都市下京区","city_kana":"キョウトシシモギョウク","town":"吉水町不明門通松原下る","town_kana":"ヨシミズチョウアケズドオリマツバラサガル","prefecture_code":26},{"zip_code":"6008403","prefecture":"京都府","prefecture_kana":"キョウトフ","city":"京都市下京区","city_kana":"キョウトシシモギョウク","town":"吉水町不明門通万寿寺上る","town_kana":"ヨシミズチョウアケズドオリマンジュウジアガル","prefecture_code":26}],"8483":[{"zip_code":"6008483","prefecture":"京都府","prefecture_kana":"キョウトフ","city":"京都市下京区","city_kana":"キョウトシシモギョウク","town":"吉水町西堀川通高辻上る","town_kana":"ヨシミズチョウ","prefecture_code":26},{"zip_code":"6008483","prefecture":"京都府","prefecture_kana":"キョウトフ","city":"京都市下京区","city_kana":"キョウトシシモギョウク","town":"吉水町西堀川通仏光寺下る","town_kana":"ヨシミズチョウ","prefecture_code":26},{"zip_code":"6008483","prefecture":"京都府","prefecture_kana":"キョウトフ","city":"京都市下京区","city_kana":"キョウトシシモギョウク","town":"吉水町東堀川通高辻上る","town_kana":"ヨシミズチョウ","prefecture_code":26},{"zip_code":"6008483","prefecture":"京都府","prefecture_kana":"キョウトフ","city":"京都市下京区","city_kana":"キョウトシシモギョウク","town":"吉水町東堀川通仏光寺下る","town_kana":"ヨシミズチョウ","prefecture_code":26},{"zip_code":"6008483","prefecture":"京都府","prefecture_kana":"キョウトフ","city":"京都市下京区","city_kana":"キョウトシシモギョウク","town":"吉水町仏光寺通東堀川東入","town_kana":"ヨシミズチョウ","prefecture_code":26},{"zip_code":"6008483","prefecture":"京都府","prefecture_kana":"キョウトフ","city":"京都市下京区","city_kana":"キョウトシシモギョウク","town":"吉水町堀川通仏光寺下る","town_kana":"ヨシミズチョウ","prefecture_code":26}],"8199":{"zip_code":"6008199","prefecture":"京都府","prefecture_kana":"キョウトフ","city":"京都市下京区","city_kana":"キョウトシシモギョウク","town":"万屋町","town_kana":"ヨロズヤチョウ","prefecture_code":26},"8355":{"zip_code":"6008355","prefecture":"京都府","prefecture_kana":"キョウトフ","city":"京都市下京区","city_kana":"キョウトシシモギョウク","town":"来迎堂町","town_kana":"ライコウドウチョウ","prefecture_code":26},"8198":{"zip_code":"6008198","prefecture":"京都府","prefecture_kana":"キョウトフ","city":"京都市下京区","city_kana":"キョウトシシモギョウク","town":"若松町","town_kana":"ワカマツチョウ","prefecture_code":26},"8120":[{"zip_code":"6008120","prefecture":"京都府","prefecture_kana":"キョウトフ","city":"京都市下京区","city_kana":"キョウトシシモギョウク","town":"若宮町上ノ口通河原町西入","town_kana":"ワカミヤチョウ","prefecture_code":26},{"zip_code":"6008120","prefecture":"京都府","prefecture_kana":"キョウトフ","city":"京都市下京区","city_kana":"キョウトシシモギョウク","town":"若宮町上ノ口通河原町西入下る","town_kana":"ワカミヤチョウ","prefecture_code":26},{"zip_code":"6008120","prefecture":"京都府","prefecture_kana":"キョウトフ","city":"京都市下京区","city_kana":"キョウトシシモギョウク","town":"若宮町河原町通上枳殻馬場上る","town_kana":"ワカミヤチョウ","prefecture_code":26},{"zip_code":"6008120","prefecture":"京都府","prefecture_kana":"キョウトフ","city":"京都市下京区","city_kana":"キョウトシシモギョウク","town":"若宮町河原町通上ノ口下る","town_kana":"ワカミヤチョウ","prefecture_code":26},{"zip_code":"6008120","prefecture":"京都府","prefecture_kana":"キョウトフ","city":"京都市下京区","city_kana":"キョウトシシモギョウク","town":"若宮町河原町通正面上る","town_kana":"ワカミヤチョウ","prefecture_code":26}],"8201":[{"zip_code":"6008201","prefecture":"京都府","prefecture_kana":"キョウトフ","city":"京都市下京区","city_kana":"キョウトシシモギョウク","town":"若宮町加茂川筋七条下る","town_kana":"ワカミヤチョウ","prefecture_code":26},{"zip_code":"6008201","prefecture":"京都府","prefecture_kana":"キョウトフ","city":"京都市下京区","city_kana":"キョウトシシモギョウク","town":"若宮町木屋町通七条下る","town_kana":"ワカミヤチョウ","prefecture_code":26},{"zip_code":"6008201","prefecture":"京都府","prefecture_kana":"キョウトフ","city":"京都市下京区","city_kana":"キョウトシシモギョウク","town":"若宮町木屋町通七条下る東入","town_kana":"ワカミヤチョウ","prefecture_code":26},{"zip_code":"6008201","prefecture":"京都府","prefecture_kana":"キョウトフ","city":"京都市下京区","city_kana":"キョウトシシモギョウク","town":"若宮町三ノ宮通七条下る","town_kana":"ワカミヤチョウ","prefecture_code":26},{"zip_code":"6008201","prefecture":"京都府","prefecture_kana":"キョウトフ","city":"京都市下京区","city_kana":"キョウトシシモギョウク","town":"若宮町須原通七条下る","town_kana":"ワカミヤチョウ","prefecture_code":26},{"zip_code":"6008201","prefecture":"京都府","prefecture_kana":"キョウトフ","city":"京都市下京区","city_kana":"キョウトシシモギョウク","town":"若宮町七条大橋西入","town_kana":"ワカミヤチョウ","prefecture_code":26},{"zip_code":"6008201","prefecture":"京都府","prefecture_kana":"キョウトフ","city":"京都市下京区","city_kana":"キョウトシシモギョウク","town":"若宮町七条通加茂川筋西入","town_kana":"ワカミヤチョウ","prefecture_code":26},{"zip_code":"6008201","prefecture":"京都府","prefecture_kana":"キョウトフ","city":"京都市下京区","city_kana":"キョウトシシモギョウク","town":"若宮町七条通加茂川筋西入下る","town_kana":"ワカミヤチョウ","prefecture_code":26}],"8314":[{"zip_code":"6008314","prefecture":"京都府","prefecture_kana":"キョウトフ","city":"京都市下京区","city_kana":"キョウトシシモギョウク","town":"若宮町新花屋町通若宮西入","town_kana":"ワカミヤチョウ","prefecture_code":26},{"zip_code":"6008314","prefecture":"京都府","prefecture_kana":"キョウトフ","city":"京都市下京区","city_kana":"キョウトシシモギョウク","town":"若宮町新花屋町通若宮東入","town_kana":"ワカミヤチョウ","prefecture_code":26},{"zip_code":"6008314","prefecture":"京都府","prefecture_kana":"キョウトフ","city":"京都市下京区","city_kana":"キョウトシシモギョウク","town":"若宮町六条通新町西入","town_kana":"ワカミヤチョウ","prefecture_code":26},{"zip_code":"6008314","prefecture":"京都府","prefecture_kana":"キョウトフ","city":"京都市下京区","city_kana":"キョウトシシモギョウク","town":"若宮町六条通西洞院東入","town_kana":"ワカミヤチョウ","prefecture_code":26},{"zip_code":"6008314","prefecture":"京都府","prefecture_kana":"キョウトフ","city":"京都市下京区","city_kana":"キョウトシシモギョウク","town":"若宮町六条通若宮西入","town_kana":"ワカミヤチョウ","prefecture_code":26},{"zip_code":"6008314","prefecture":"京都府","prefecture_kana":"キョウトフ","city":"京都市下京区","city_kana":"キョウトシシモギョウク","town":"若宮町六条通若宮東入","town_kana":"ワカミヤチョウ","prefecture_code":26},{"zip_code":"6008314","prefecture":"京都府","prefecture_kana":"キョウトフ","city":"京都市下京区","city_kana":"キョウトシシモギョウク","town":"若宮町若宮通新花屋町上る","town_kana":"ワカミヤチョウ","prefecture_code":26},{"zip_code":"6008314","prefecture":"京都府","prefecture_kana":"キョウトフ","city":"京都市下京区","city_kana":"キョウトシシモギョウク","town":"若宮町若宮通新花屋町下る","town_kana":"ワカミヤチョウ","prefecture_code":26},{"zip_code":"6008314","prefecture":"京都府","prefecture_kana":"キョウトフ","city":"京都市下京区","city_kana":"キョウトシシモギョウク","town":"若宮町若宮通花屋町上る","town_kana":"ワカミヤチョウ","prefecture_code":26},{"zip_code":"6008314","prefecture":"京都府","prefecture_kana":"キョウトフ","city":"京都市下京区","city_kana":"キョウトシシモギョウク","town":"若宮町若宮通花屋町下る","town_kana":"ワカミヤチョウ","prefecture_code":26},{"zip_code":"6008314","prefecture":"京都府","prefecture_kana":"キョウトフ","city":"京都市下京区","city_kana":"キョウトシシモギョウク","town":"若宮町若宮通六条下る","town_kana":"ワカミヤチョウ","prefecture_code":26}],"8834":{"zip_code":"6008834","prefecture":"京都府","prefecture_kana":"キョウトフ","city":"京都市下京区","city_kana":"キョウトシシモギョウク","town":"和気町","town_kana":"ワキチョウ","prefecture_code":26}}