{"0142":{"zip_code":"6010142","prefecture":"京都府","prefecture_kana":"キョウトフ","city":"京都市北区","city_kana":"キョウトシキタク","town":"大森芦堂町","town_kana":"オオモリアシドウチョウ","prefecture_code":26},"0141":{"zip_code":"6010141","prefecture":"京都府","prefecture_kana":"キョウトフ","city":"京都市北区","city_kana":"キョウトシキタク","town":"大森稲荷","town_kana":"オオモリイナリ","prefecture_code":26},"0143":{"zip_code":"6010143","prefecture":"京都府","prefecture_kana":"キョウトフ","city":"京都市北区","city_kana":"キョウトシキタク","town":"大森中町","town_kana":"オオモリナカチョウ","prefecture_code":26},"0144":{"zip_code":"6010144","prefecture":"京都府","prefecture_kana":"キョウトフ","city":"京都市北区","city_kana":"キョウトシキタク","town":"大森西町","town_kana":"オオモリニシチョウ","prefecture_code":26},"0145":{"zip_code":"6010145","prefecture":"京都府","prefecture_kana":"キョウトフ","city":"京都市北区","city_kana":"キョウトシキタク","town":"大森東町","town_kana":"オオモリヒガシチョウ","prefecture_code":26},"0134":{"zip_code":"6010134","prefecture":"京都府","prefecture_kana":"キョウトフ","city":"京都市北区","city_kana":"キョウトシキタク","town":"小野岩戸","town_kana":"オノイワト","prefecture_code":26},"0133":{"zip_code":"6010133","prefecture":"京都府","prefecture_kana":"キョウトフ","city":"京都市北区","city_kana":"キョウトシキタク","town":"小野上ノ町","town_kana":"オノカミノチョウ","prefecture_code":26},"0131":{"zip_code":"6010131","prefecture":"京都府","prefecture_kana":"キョウトフ","city":"京都市北区","city_kana":"キョウトシキタク","town":"小野下ノ町","town_kana":"オノシモノチョウ","prefecture_code":26},"0132":{"zip_code":"6010132","prefecture":"京都府","prefecture_kana":"キョウトフ","city":"京都市北区","city_kana":"キョウトシキタク","town":"小野中ノ町","town_kana":"オノナカノチョウ","prefecture_code":26},"0135":{"zip_code":"6010135","prefecture":"京都府","prefecture_kana":"キョウトフ","city":"京都市北区","city_kana":"キョウトシキタク","town":"小野宮ノ上町","town_kana":"オノミヤノカミチョウ","prefecture_code":26},"0111":{"zip_code":"6010111","prefecture":"京都府","prefecture_kana":"キョウトフ","city":"京都市北区","city_kana":"キョウトシキタク","town":"杉阪北尾","town_kana":"スギサカキタオ","prefecture_code":26},"0113":{"zip_code":"6010113","prefecture":"京都府","prefecture_kana":"キョウトフ","city":"京都市北区","city_kana":"キョウトシキタク","town":"杉阪道風町","town_kana":"スギサカトウフウチョウ","prefecture_code":26},"0112":{"zip_code":"6010112","prefecture":"京都府","prefecture_kana":"キョウトフ","city":"京都市北区","city_kana":"キョウトシキタク","town":"杉阪都町","town_kana":"スギサカミヤコチョウ","prefecture_code":26},"0125":{"zip_code":"6010125","prefecture":"京都府","prefecture_kana":"キョウトフ","city":"京都市北区","city_kana":"キョウトシキタク","town":"中川川登","town_kana":"ナカガワカワノボリ","prefecture_code":26},"0122":{"zip_code":"6010122","prefecture":"京都府","prefecture_kana":"キョウトフ","city":"京都市北区","city_kana":"キョウトシキタク","town":"中川北山町","town_kana":"ナカガワキタヤマチョウ","prefecture_code":26},"0124":{"zip_code":"6010124","prefecture":"京都府","prefecture_kana":"キョウトフ","city":"京都市北区","city_kana":"キョウトシキタク","town":"中川中山","town_kana":"ナカガワナカヤマ","prefecture_code":26},"0123":{"zip_code":"6010123","prefecture":"京都府","prefecture_kana":"キョウトフ","city":"京都市北区","city_kana":"キョウトシキタク","town":"中川西山","town_kana":"ナカガワニシヤマ","prefecture_code":26},"0121":{"zip_code":"6010121","prefecture":"京都府","prefecture_kana":"キョウトフ","city":"京都市北区","city_kana":"キョウトシキタク","town":"中川東山","town_kana":"ナカガワヒガシヤマ","prefecture_code":26},"0102":{"zip_code":"6010102","prefecture":"京都府","prefecture_kana":"キョウトフ","city":"京都市北区","city_kana":"キョウトシキタク","town":"真弓善福","town_kana":"マユミゼンプク","prefecture_code":26},"0101":{"zip_code":"6010101","prefecture":"京都府","prefecture_kana":"キョウトフ","city":"京都市北区","city_kana":"キョウトシキタク","town":"真弓八幡町","town_kana":"マユミハチマンチョウ","prefecture_code":26},"1124":{"zip_code":"6011124","prefecture":"京都府","prefecture_kana":"キョウトフ","city":"京都市左京区","city_kana":"キョウトシサキョウク","town":"岩倉上蔵町","town_kana":"イワクラアグラチョウ","prefecture_code":26},"1125":{"zip_code":"6011125","prefecture":"京都府","prefecture_kana":"キョウトフ","city":"京都市左京区","city_kana":"キョウトシサキョウク","town":"岩倉木野町","town_kana":"イワクラキノチョウ","prefecture_code":26},"1246":{"zip_code":"6011246","prefecture":"京都府","prefecture_kana":"キョウトフ","city":"京都市左京区","city_kana":"キョウトシサキョウク","town":"大原井出町","town_kana":"オオハライデチョウ","prefecture_code":26},"1244":{"zip_code":"6011244","prefecture":"京都府","prefecture_kana":"キョウトフ","city":"京都市左京区","city_kana":"キョウトシサキョウク","town":"大原上野町","town_kana":"オオハラウエノチョウ","prefecture_code":26},"1243":{"zip_code":"6011243","prefecture":"京都府","prefecture_kana":"キョウトフ","city":"京都市左京区","city_kana":"キョウトシサキョウク","town":"大原大長瀬町","town_kana":"オオハラオオナガセチョウ","prefecture_code":26},"1232":{"zip_code":"6011232","prefecture":"京都府","prefecture_kana":"キョウトフ","city":"京都市左京区","city_kana":"キョウトシサキョウク","town":"大原大見町","town_kana":"オオハラオオミチョウ","prefecture_code":26},"1231":{"zip_code":"6011231","prefecture":"京都府","prefecture_kana":"キョウトフ","city":"京都市左京区","city_kana":"キョウトシサキョウク","town":"大原尾越町","town_kana":"オオハラオゴセチョウ","prefecture_code":26},"1248":{"zip_code":"6011248","prefecture":"京都府","prefecture_kana":"キョウトフ","city":"京都市左京区","city_kana":"キョウトシサキョウク","town":"大原草生町","town_kana":"オオハラクサオチョウ","prefecture_code":26},"1235":{"zip_code":"6011235","prefecture":"京都府","prefecture_kana":"キョウトフ","city":"京都市左京区","city_kana":"キョウトシサキョウク","town":"大原古知平町","town_kana":"オオハラコチヒラチョウ","prefecture_code":26},"1234":{"zip_code":"6011234","prefecture":"京都府","prefecture_kana":"キョウトフ","city":"京都市左京区","city_kana":"キョウトシサキョウク","town":"大原小出石町","town_kana":"オオハラコデイシチョウ","prefecture_code":26},"1241":{"zip_code":"6011241","prefecture":"京都府","prefecture_kana":"キョウトフ","city":"京都市左京区","city_kana":"キョウトシサキョウク","town":"大原勝林院町","town_kana":"オオハラショウリンインチョウ","prefecture_code":26},"1245":{"zip_code":"6011245","prefecture":"京都府","prefecture_kana":"キョウトフ","city":"京都市左京区","city_kana":"キョウトシサキョウク","town":"大原戸寺町","town_kana":"オオハラトデラチョウ","prefecture_code":26},"1247":{"zip_code":"6011247","prefecture":"京都府","prefecture_kana":"キョウトフ","city":"京都市左京区","city_kana":"キョウトシサキョウク","town":"大原野村町","town_kana":"オオハラノムラチョウ","prefecture_code":26},"1233":{"zip_code":"6011233","prefecture":"京都府","prefecture_kana":"キョウトフ","city":"京都市左京区","city_kana":"キョウトシサキョウク","town":"大原百井町","town_kana":"オオハラモモイチョウ","prefecture_code":26},"1242":{"zip_code":"6011242","prefecture":"京都府","prefecture_kana":"キョウトフ","city":"京都市左京区","city_kana":"キョウトシサキョウク","town":"大原来迎院町","town_kana":"オオハラライコウインチョウ","prefecture_code":26},"1255":{"zip_code":"6011255","prefecture":"京都府","prefecture_kana":"キョウトフ","city":"京都市左京区","city_kana":"キョウトシサキョウク","town":"７２、１８９、１８９−１番地）","town_kana":"72、189、189-1バンチ)","prefecture_code":26},"1112":{"zip_code":"6011112","prefecture":"京都府","prefecture_kana":"キョウトフ","city":"京都市左京区","city_kana":"キョウトシサキョウク","town":"鞍馬貴船町","town_kana":"クラマキブネチョウ","prefecture_code":26},"1113":{"zip_code":"6011113","prefecture":"京都府","prefecture_kana":"キョウトフ","city":"京都市左京区","city_kana":"キョウトシサキョウク","town":"鞍馬二ノ瀬町","town_kana":"クラマニノセチョウ","prefecture_code":26},"1111":{"zip_code":"6011111","prefecture":"京都府","prefecture_kana":"キョウトフ","city":"京都市左京区","city_kana":"キョウトシサキョウク","town":"鞍馬本町","town_kana":"クラマホンマチ","prefecture_code":26},"1123":{"zip_code":"6011123","prefecture":"京都府","prefecture_kana":"キョウトフ","city":"京都市左京区","city_kana":"キョウトシサキョウク","town":"静市市原町","town_kana":"シズイチイチハラチョウ","prefecture_code":26},"1121":{"zip_code":"6011121","prefecture":"京都府","prefecture_kana":"キョウトフ","city":"京都市左京区","city_kana":"キョウトシサキョウク","town":"静市静原町","town_kana":"シズイチシズハラチョウ","prefecture_code":26},"1122":{"zip_code":"6011122","prefecture":"京都府","prefecture_kana":"キョウトフ","city":"京都市左京区","city_kana":"キョウトシサキョウク","town":"静市野中町","town_kana":"シズイチノナカチョウ","prefecture_code":26},"1104":{"zip_code":"6011104","prefecture":"京都府","prefecture_kana":"キョウトフ","city":"京都市左京区","city_kana":"キョウトシサキョウク","town":"花脊大布施町","town_kana":"ハナセオオフセチョウ","prefecture_code":26},"1102":{"zip_code":"6011102","prefecture":"京都府","prefecture_kana":"キョウトフ","city":"京都市左京区","city_kana":"キョウトシサキョウク","town":"花脊原地町","town_kana":"ハナセハラチチョウ","prefecture_code":26},"1105":{"zip_code":"6011105","prefecture":"京都府","prefecture_kana":"キョウトフ","city":"京都市左京区","city_kana":"キョウトシサキョウク","town":"花脊別所町","town_kana":"ハナセベッショチョウ","prefecture_code":26},"1103":{"zip_code":"6011103","prefecture":"京都府","prefecture_kana":"キョウトフ","city":"京都市左京区","city_kana":"キョウトシサキョウク","town":"花脊八桝町","town_kana":"ハナセヤマスチョウ","prefecture_code":26},"1101":{"zip_code":"6011101","prefecture":"京都府","prefecture_kana":"キョウトフ","city":"京都市左京区","city_kana":"キョウトシサキョウク","town":"広河原","town_kana":"ヒロガワラ","prefecture_code":26},"1252":{"zip_code":"6011252","prefecture":"京都府","prefecture_kana":"キョウトフ","city":"京都市左京区","city_kana":"キョウトシサキョウク","town":"八瀬秋元町","town_kana":"ヤセアキモトチョウ","prefecture_code":26},"1253":{"zip_code":"6011253","prefecture":"京都府","prefecture_kana":"キョウトフ","city":"京都市左京区","city_kana":"キョウトシサキョウク","town":"八瀬近衛町","town_kana":"ヤセコノエチョウ","prefecture_code":26},"1251":{"zip_code":"6011251","prefecture":"京都府","prefecture_kana":"キョウトフ","city":"京都市左京区","city_kana":"キョウトシサキョウク","town":"八瀬花尻町","town_kana":"ヤセハナジリチョウ","prefecture_code":26},"1254":{"zip_code":"6011254","prefecture":"京都府","prefecture_kana":"キョウトフ","city":"京都市左京区","city_kana":"キョウトシサキョウク","town":"八瀬野瀬町","town_kana":"ヤセノセチョウ","prefecture_code":26},"0000":{"zip_code":"6010000","prefecture":"京都府","prefecture_kana":"キョウトフ","city":"京都市南区","city_kana":"キョウトシミナミク","town":"","town_kana":"","prefecture_code":26},"8406":{"zip_code":"6018406","prefecture":"京都府","prefecture_kana":"キョウトフ","city":"京都市南区","city_kana":"キョウトシミナミク","town":"戒光寺町","town_kana":"カイコウジチョウ","prefecture_code":26},"8143":{"zip_code":"6018143","prefecture":"京都府","prefecture_kana":"キョウトフ","city":"京都市南区","city_kana":"キョウトシミナミク","town":"上鳥羽麻ノ本","town_kana":"カミトバアサノモト","prefecture_code":26},"8135":{"zip_code":"6018135","prefecture":"京都府","prefecture_kana":"キョウトフ","city":"京都市南区","city_kana":"キョウトシミナミク","town":"上鳥羽石橋町","town_kana":"カミトバイシバシチョウ","prefecture_code":26},"8136":{"zip_code":"6018136","prefecture":"京都府","prefecture_kana":"キョウトフ","city":"京都市南区","city_kana":"キョウトシミナミク","town":"上鳥羽岩ノ本町","town_kana":"カミトバイワノモトチョウ","prefecture_code":26},"8141":{"zip_code":"6018141","prefecture":"京都府","prefecture_kana":"キョウトフ","city":"京都市南区","city_kana":"キョウトシミナミク","town":"上鳥羽卯ノ花","town_kana":"カミトバウノハナ","prefecture_code":26},"8177":{"zip_code":"6018177","prefecture":"京都府","prefecture_kana":"キョウトフ","city":"京都市南区","city_kana":"キョウトシミナミク","town":"上鳥羽馬廻","town_kana":"カミトバウママワシ","prefecture_code":26},"8134":{"zip_code":"6018134","prefecture":"京都府","prefecture_kana":"キョウトフ","city":"京都市南区","city_kana":"キョウトシミナミク","town":"上鳥羽大溝","town_kana":"カミトバオオミゾ","prefecture_code":26},"8128":{"zip_code":"6018128","prefecture":"京都府","prefecture_kana":"キョウトフ","city":"京都市南区","city_kana":"キョウトシミナミク","town":"上鳥羽大柳町","town_kana":"カミトバオオヤナギチョウ","prefecture_code":26},"8178":{"zip_code":"6018178","prefecture":"京都府","prefecture_kana":"キョウトフ","city":"京都市南区","city_kana":"キョウトシミナミク","town":"上鳥羽戒光","town_kana":"カミトバカイコウ","prefecture_code":26},"8185":{"zip_code":"6018185","prefecture":"京都府","prefecture_kana":"キョウトフ","city":"京都市南区","city_kana":"キョウトシミナミク","town":"上鳥羽戒光町","town_kana":"カミトバカイコウチョウ","prefecture_code":26},"8175":{"zip_code":"6018175","prefecture":"京都府","prefecture_kana":"キョウトフ","city":"京都市南区","city_kana":"キョウトシミナミク","town":"上鳥羽金仏","town_kana":"カミトバカナボトケ","prefecture_code":26},"8105":{"zip_code":"6018105","prefecture":"京都府","prefecture_kana":"キョウトフ","city":"京都市南区","city_kana":"キョウトシミナミク","town":"上鳥羽上調子町","town_kana":"カミトバカミチョウシチョウ","prefecture_code":26},"8131":{"zip_code":"6018131","prefecture":"京都府","prefecture_kana":"キョウトフ","city":"京都市南区","city_kana":"キョウトシミナミク","town":"上鳥羽鴨田","town_kana":"カミトバカモンデン","prefecture_code":26},"8108":{"zip_code":"6018108","prefecture":"京都府","prefecture_kana":"キョウトフ","city":"京都市南区","city_kana":"キョウトシミナミク","town":"上鳥羽唐戸町","town_kana":"カミトバカラトチョウ","prefecture_code":26},"8171":{"zip_code":"6018171","prefecture":"京都府","prefecture_kana":"キョウトフ","city":"京都市南区","city_kana":"キョウトシミナミク","town":"上鳥羽川端町","town_kana":"カミトバカワバタチョウ","prefecture_code":26},"8112":{"zip_code":"6018112","prefecture":"京都府","prefecture_kana":"キョウトフ","city":"京都市南区","city_kana":"キョウトシミナミク","town":"上鳥羽勧進橋町","town_kana":"カミトバカンジンバシチョウ","prefecture_code":26},"8186":{"zip_code":"6018186","prefecture":"京都府","prefecture_kana":"キョウトフ","city":"京都市南区","city_kana":"キョウトシミナミク","town":"上鳥羽北戒光町","town_kana":"カミトバキタカイコウチョウ","prefecture_code":26},"8182":{"zip_code":"6018182","prefecture":"京都府","prefecture_kana":"キョウトフ","city":"京都市南区","city_kana":"キョウトシミナミク","town":"上鳥羽北島田町","town_kana":"カミトバキタシマダチョウ","prefecture_code":26},"8122":{"zip_code":"6018122","prefecture":"京都府","prefecture_kana":"キョウトフ","city":"京都市南区","city_kana":"キョウトシミナミク","town":"上鳥羽北塔ノ本町","town_kana":"カミトバキタトウノモトチョウ","prefecture_code":26},"8106":{"zip_code":"6018106","prefecture":"京都府","prefecture_kana":"キョウトフ","city":"京都市南区","city_kana":"キョウトシミナミク","town":"上鳥羽北中ノ坪町","town_kana":"カミトバキタナカノツボチョウ","prefecture_code":26},"8127":{"zip_code":"6018127","prefecture":"京都府","prefecture_kana":"キョウトフ","city":"京都市南区","city_kana":"キョウトシミナミク","town":"上鳥羽北花名町","town_kana":"カミトバキタハナナチョウ","prefecture_code":26},"8187":{"zip_code":"6018187","prefecture":"京都府","prefecture_kana":"キョウトフ","city":"京都市南区","city_kana":"キョウトシミナミク","town":"上鳥羽北村山町","town_kana":"カミトバキタムラヤマチョウ","prefecture_code":26},"8174":{"zip_code":"6018174","prefecture":"京都府","prefecture_kana":"キョウトフ","city":"京都市南区","city_kana":"キョウトシミナミク","town":"上鳥羽清井町","town_kana":"カミトバキヨイチョウ","prefecture_code":26},"8115":{"zip_code":"6018115","prefecture":"京都府","prefecture_kana":"キョウトフ","city":"京都市南区","city_kana":"キョウトシミナミク","town":"上鳥羽尻切町","town_kana":"カミトバシリキリチョウ","prefecture_code":26},"8137":{"zip_code":"6018137","prefecture":"京都府","prefecture_kana":"キョウトフ","city":"京都市南区","city_kana":"キョウトシミナミク","town":"上鳥羽城ケ前町","town_kana":"カミトバシロガマエチョウ","prefecture_code":26},"8102":{"zip_code":"6018102","prefecture":"京都府","prefecture_kana":"キョウトフ","city":"京都市南区","city_kana":"キョウトシミナミク","town":"上鳥羽菅田町","town_kana":"カミトバスガタチョウ","prefecture_code":26},"8121":{"zip_code":"6018121","prefecture":"京都府","prefecture_kana":"キョウトフ","city":"京都市南区","city_kana":"キョウトシミナミク","town":"上鳥羽大物町","town_kana":"カミトバダイモツチョウ","prefecture_code":26},"8101":{"zip_code":"6018101","prefecture":"京都府","prefecture_kana":"キョウトフ","city":"京都市南区","city_kana":"キョウトシミナミク","town":"上鳥羽高畠町","town_kana":"カミトバタカハタチョウ","prefecture_code":26},"8132":{"zip_code":"6018132","prefecture":"京都府","prefecture_kana":"キョウトフ","city":"京都市南区","city_kana":"キョウトシミナミク","town":"上鳥羽町田","town_kana":"カミトバチョウダ","prefecture_code":26},"8104":{"zip_code":"6018104","prefecture":"京都府","prefecture_kana":"キョウトフ","city":"京都市南区","city_kana":"キョウトシミナミク","town":"上鳥羽角田町","town_kana":"カミトバツノダチョウ","prefecture_code":26},"8124":{"zip_code":"6018124","prefecture":"京都府","prefecture_kana":"キョウトフ","city":"京都市南区","city_kana":"キョウトシミナミク","town":"上鳥羽塔ノ本","town_kana":"カミトバトウノモト","prefecture_code":26},"8142":{"zip_code":"6018142","prefecture":"京都府","prefecture_kana":"キョウトフ","city":"京都市南区","city_kana":"キョウトシミナミク","town":"上鳥羽中河原","town_kana":"カミトバナカガワラ","prefecture_code":26},"8146":{"zip_code":"6018146","prefecture":"京都府","prefecture_kana":"キョウトフ","city":"京都市南区","city_kana":"キョウトシミナミク","town":"上鳥羽奈須野町","town_kana":"カミトバナスノチョウ","prefecture_code":26},"8172":{"zip_code":"6018172","prefecture":"京都府","prefecture_kana":"キョウトフ","city":"京都市南区","city_kana":"キョウトシミナミク","town":"上鳥羽鍋ケ渕町","town_kana":"カミトバナベガフチチョウ","prefecture_code":26},"8111":{"zip_code":"6018111","prefecture":"京都府","prefecture_kana":"キョウトフ","city":"京都市南区","city_kana":"キョウトシミナミク","town":"上鳥羽苗代町","town_kana":"カミトバナワシロチョウ","prefecture_code":26},"8145":{"zip_code":"6018145","prefecture":"京都府","prefecture_kana":"キョウトフ","city":"京都市南区","city_kana":"キョウトシミナミク","town":"上鳥羽西浦町","town_kana":"カミトバニシウラチョウ","prefecture_code":26},"8173":{"zip_code":"6018173","prefecture":"京都府","prefecture_kana":"キョウトフ","city":"京都市南区","city_kana":"キョウトシミナミク","town":"上鳥羽八王神町","town_kana":"カミトバハチオウジンチョウ","prefecture_code":26},"8125":{"zip_code":"6018125","prefecture":"京都府","prefecture_kana":"キョウトフ","city":"京都市南区","city_kana":"キョウトシミナミク","town":"上鳥羽花名","town_kana":"カミトバハナナ","prefecture_code":26},"8144":{"zip_code":"6018144","prefecture":"京都府","prefecture_kana":"キョウトフ","city":"京都市南区","city_kana":"キョウトシミナミク","town":"上鳥羽火打形町","town_kana":"カミトバヒウチガタチョウ","prefecture_code":26},"8103":{"zip_code":"6018103","prefecture":"京都府","prefecture_kana":"キョウトフ","city":"京都市南区","city_kana":"キョウトシミナミク","town":"上鳥羽仏現寺町","town_kana":"カミトバブツゲンジチョウ","prefecture_code":26},"8116":{"zip_code":"6018116","prefecture":"京都府","prefecture_kana":"キョウトフ","city":"京都市南区","city_kana":"キョウトシミナミク","town":"上鳥羽鉾立町","town_kana":"カミトバホコタテチョウ","prefecture_code":26},"8181":{"zip_code":"6018181","prefecture":"京都府","prefecture_kana":"キョウトフ","city":"京都市南区","city_kana":"キョウトシミナミク","town":"上鳥羽堀子町","town_kana":"カミトバホリコチョウ","prefecture_code":26},"8107":{"zip_code":"6018107","prefecture":"京都府","prefecture_kana":"キョウトフ","city":"京都市南区","city_kana":"キョウトシミナミク","town":"上鳥羽南唐戸町","town_kana":"カミトバミナミカラトチョウ","prefecture_code":26},"8183":{"zip_code":"6018183","prefecture":"京都府","prefecture_kana":"キョウトフ","city":"京都市南区","city_kana":"キョウトシミナミク","town":"上鳥羽南島田町","town_kana":"カミトバミナミシマダチョウ","prefecture_code":26},"8123":{"zip_code":"6018123","prefecture":"京都府","prefecture_kana":"キョウトフ","city":"京都市南区","city_kana":"キョウトシミナミク","town":"上鳥羽南塔ノ本町","town_kana":"カミトバミナミトウノモトチョウ","prefecture_code":26},"8188":{"zip_code":"6018188","prefecture":"京都府","prefecture_kana":"キョウトフ","city":"京都市南区","city_kana":"キョウトシミナミク","town":"上鳥羽南中ノ坪町","town_kana":"カミトバミナミナカノツボチョウ","prefecture_code":26},"8113":{"zip_code":"6018113","prefecture":"京都府","prefecture_kana":"キョウトフ","city":"京都市南区","city_kana":"キョウトシミナミク","town":"上鳥羽南苗代町","town_kana":"カミトバミナミナワシロチョウ","prefecture_code":26},"8126":{"zip_code":"6018126","prefecture":"京都府","prefecture_kana":"キョウトフ","city":"京都市南区","city_kana":"キョウトシミナミク","town":"上鳥羽南花名町","town_kana":"カミトバミナミハナナチョウ","prefecture_code":26},"8114":{"zip_code":"6018114","prefecture":"京都府","prefecture_kana":"キョウトフ","city":"京都市南区","city_kana":"キョウトシミナミク","town":"上鳥羽南鉾立町","town_kana":"カミトバミナミホコタテチョウ","prefecture_code":26},"8184":{"zip_code":"6018184","prefecture":"京都府","prefecture_kana":"キョウトフ","city":"京都市南区","city_kana":"キョウトシミナミク","town":"上鳥羽南村山町","town_kana":"カミトバミナミムラヤマチョウ","prefecture_code":26},"8176":{"zip_code":"6018176","prefecture":"京都府","prefecture_kana":"キョウトフ","city":"京都市南区","city_kana":"キョウトシミナミク","town":"上鳥羽山ノ本町","town_kana":"カミトバヤマノモトチョウ","prefecture_code":26},"8133":{"zip_code":"6018133","prefecture":"京都府","prefecture_kana":"キョウトフ","city":"京都市南区","city_kana":"キョウトシミナミク","town":"上鳥羽藁田","town_kana":"カミトバワランデン","prefecture_code":26},"8161":{"zip_code":"6018161","prefecture":"京都府","prefecture_kana":"キョウトフ","city":"京都市南区","city_kana":"キョウトシミナミク","town":"上鳥羽塔ノ森梅ノ木","town_kana":"カミトバトウノモリウメノキ","prefecture_code":26},"8163":{"zip_code":"6018163","prefecture":"京都府","prefecture_kana":"キョウトフ","city":"京都市南区","city_kana":"キョウトシミナミク","town":"上鳥羽塔ノ森江川町","town_kana":"カミトバトウノモリエガワチョウ","prefecture_code":26},"8155":{"zip_code":"6018155","prefecture":"京都府","prefecture_kana":"キョウトフ","city":"京都市南区","city_kana":"キョウトシミナミク","town":"上鳥羽塔ノ森上河原","town_kana":"カミトバトウノモリカミカワラ","prefecture_code":26},"8167":{"zip_code":"6018167","prefecture":"京都府","prefecture_kana":"キョウトフ","city":"京都市南区","city_kana":"キョウトシミナミク","town":"上鳥羽塔ノ森上開ノ内","town_kana":"カミトバトウノモリカミヒラキノウチ","prefecture_code":26},"8162":{"zip_code":"6018162","prefecture":"京都府","prefecture_kana":"キョウトフ","city":"京都市南区","city_kana":"キョウトシミナミク","town":"上鳥羽塔ノ森柴東町","town_kana":"カミトバトウノモリシバヒガシチョウ","prefecture_code":26},"8153":{"zip_code":"6018153","prefecture":"京都府","prefecture_kana":"キョウトフ","city":"京都市南区","city_kana":"キョウトシミナミク","town":"上鳥羽塔ノ森下河原","town_kana":"カミトバトウノモリシモカワラ","prefecture_code":26},"8166":{"zip_code":"6018166","prefecture":"京都府","prefecture_kana":"キョウトフ","city":"京都市南区","city_kana":"キョウトシミナミク","town":"上鳥羽塔ノ森下開ノ内","town_kana":"カミトバトウノモリシモヒラキノウチ","prefecture_code":26},"8152":{"zip_code":"6018152","prefecture":"京都府","prefecture_kana":"キョウトフ","city":"京都市南区","city_kana":"キョウトシミナミク","town":"上鳥羽塔ノ森洲崎町","town_kana":"カミトバトウノモリスザキチョウ","prefecture_code":26},"8165":{"zip_code":"6018165","prefecture":"京都府","prefecture_kana":"キョウトフ","city":"京都市南区","city_kana":"キョウトシミナミク","town":"上鳥羽塔ノ森西河原町","town_kana":"カミトバトウノモリニシガワラチョウ","prefecture_code":26},"8151":{"zip_code":"6018151","prefecture":"京都府","prefecture_kana":"キョウトフ","city":"京都市南区","city_kana":"キョウトシミナミク","town":"上鳥羽塔ノ森東向町","town_kana":"カミトバトウノモリヒガシムコウチョウ","prefecture_code":26},"8154":{"zip_code":"6018154","prefecture":"京都府","prefecture_kana":"キョウトフ","city":"京都市南区","city_kana":"キョウトシミナミク","town":"上鳥羽塔ノ森柳原","town_kana":"カミトバトウノモリヤナギハラ","prefecture_code":26},"8164":{"zip_code":"6018164","prefecture":"京都府","prefecture_kana":"キョウトフ","city":"京都市南区","city_kana":"キョウトシミナミク","town":"上鳥羽塔ノ森四ツ谷町","town_kana":"カミトバトウノモリヨツヤチョウ","prefecture_code":26},"8463":{"zip_code":"6018463","prefecture":"京都府","prefecture_kana":"キョウトフ","city":"京都市南区","city_kana":"キョウトシミナミク","town":"唐橋赤金町","town_kana":"カラハシアカカネチョウ","prefecture_code":26},"8455":{"zip_code":"6018455","prefecture":"京都府","prefecture_kana":"キョウトフ","city":"京都市南区","city_kana":"キョウトシミナミク","town":"唐橋芦辺町","town_kana":"カラハシアシベチョウ","prefecture_code":26},"8462":{"zip_code":"6018462","prefecture":"京都府","prefecture_kana":"キョウトフ","city":"京都市南区","city_kana":"キョウトシミナミク","town":"唐橋井園町","town_kana":"カラハシイソノチョウ","prefecture_code":26},"8467":{"zip_code":"6018467","prefecture":"京都府","prefecture_kana":"キョウトフ","city":"京都市南区","city_kana":"キョウトシミナミク","town":"唐橋大宮尻町","town_kana":"カラハシオオミヤジリチョウ","prefecture_code":26},"8461":{"zip_code":"6018461","prefecture":"京都府","prefecture_kana":"キョウトフ","city":"京都市南区","city_kana":"キョウトシミナミク","town":"唐橋門脇町","town_kana":"カラハシカドワキチョウ","prefecture_code":26},"8451":{"zip_code":"6018451","prefecture":"京都府","prefecture_kana":"キョウトフ","city":"京都市南区","city_kana":"キョウトシミナミク","town":"唐橋川久保町","town_kana":"カラハシカワクボチョウ","prefecture_code":26},"8454":{"zip_code":"6018454","prefecture":"京都府","prefecture_kana":"キョウトフ","city":"京都市南区","city_kana":"キョウトシミナミク","town":"唐橋経田町","town_kana":"カラハシケイデンチョウ","prefecture_code":26},"8466":{"zip_code":"6018466","prefecture":"京都府","prefecture_kana":"キョウトフ","city":"京都市南区","city_kana":"キョウトシミナミク","town":"唐橋西寺町","town_kana":"カラハシサイジチョウ","prefecture_code":26},"8464":{"zip_code":"6018464","prefecture":"京都府","prefecture_kana":"キョウトフ","city":"京都市南区","city_kana":"キョウトシミナミク","town":"唐橋高田町","town_kana":"カラハシタカダチョウ","prefecture_code":26},"8452":{"zip_code":"6018452","prefecture":"京都府","prefecture_kana":"キョウトフ","city":"京都市南区","city_kana":"キョウトシミナミク","town":"唐橋堂ノ前町","town_kana":"カラハシドウノマエチョウ","prefecture_code":26},"8468":{"zip_code":"6018468","prefecture":"京都府","prefecture_kana":"キョウトフ","city":"京都市南区","city_kana":"キョウトシミナミク","town":"唐橋西平垣町","town_kana":"カラハシニシヒラガキチョウ","prefecture_code":26},"8465":{"zip_code":"6018465","prefecture":"京都府","prefecture_kana":"キョウトフ","city":"京都市南区","city_kana":"キョウトシミナミク","town":"唐橋花園町","town_kana":"カラハシハナゾノチョウ","prefecture_code":26},"8469":{"zip_code":"6018469","prefecture":"京都府","prefecture_kana":"キョウトフ","city":"京都市南区","city_kana":"キョウトシミナミク","town":"唐橋平垣町","town_kana":"カラハシヒラガキチョウ","prefecture_code":26},"8457":{"zip_code":"6018457","prefecture":"京都府","prefecture_kana":"キョウトフ","city":"京都市南区","city_kana":"キョウトシミナミク","town":"唐橋琵琶町","town_kana":"カラハシビワチョウ","prefecture_code":26},"8456":{"zip_code":"6018456","prefecture":"京都府","prefecture_kana":"キョウトフ","city":"京都市南区","city_kana":"キョウトシミナミク","town":"唐橋南琵琶町","town_kana":"カラハシミナミビワチョウ","prefecture_code":26},"8453":{"zip_code":"6018453","prefecture":"京都府","prefecture_kana":"キョウトフ","city":"京都市南区","city_kana":"キョウトシミナミク","town":"唐橋羅城門町","town_kana":"カラハシラジョウモンチョウ","prefecture_code":26},"8349":{"zip_code":"6018349","prefecture":"京都府","prefecture_kana":"キョウトフ","city":"京都市南区","city_kana":"キョウトシミナミク","town":"吉祥院池田町","town_kana":"キッショウインイケダチョウ","prefecture_code":26},"8346":{"zip_code":"6018346","prefecture":"京都府","prefecture_kana":"キョウトフ","city":"京都市南区","city_kana":"キョウトシミナミク","town":"吉祥院池田南町","town_kana":"キッショウインイケダミナミチョウ","prefecture_code":26},"8316":{"zip_code":"6018316","prefecture":"京都府","prefecture_kana":"キョウトフ","city":"京都市南区","city_kana":"キョウトシミナミク","town":"吉祥院池ノ内町","town_kana":"キッショウインイケノウチチョウ","prefecture_code":26},"8367":{"zip_code":"6018367","prefecture":"京都府","prefecture_kana":"キョウトフ","city":"京都市南区","city_kana":"キョウトシミナミク","town":"吉祥院石原町","town_kana":"キッショウインイシハラチョウ","prefecture_code":26},"8343":{"zip_code":"6018343","prefecture":"京都府","prefecture_kana":"キョウトフ","city":"京都市南区","city_kana":"キョウトシミナミク","town":"吉祥院稲葉町","town_kana":"キッショウインイナバチョウ","prefecture_code":26},"8314":{"zip_code":"6018314","prefecture":"京都府","prefecture_kana":"キョウトフ","city":"京都市南区","city_kana":"キョウトシミナミク","town":"吉祥院井ノ口町","town_kana":"キッショウインイノクチチョウ","prefecture_code":26},"8392":{"zip_code":"6018392","prefecture":"京都府","prefecture_kana":"キョウトフ","city":"京都市南区","city_kana":"キョウトシミナミク","town":"吉祥院内河原町","town_kana":"キッショウインウチガワラチョウ","prefecture_code":26},"8327":{"zip_code":"6018327","prefecture":"京都府","prefecture_kana":"キョウトフ","city":"京都市南区","city_kana":"キョウトシミナミク","town":"吉祥院御池町","town_kana":"キッショウインオイケチョウ","prefecture_code":26},"8391":{"zip_code":"6018391","prefecture":"京都府","prefecture_kana":"キョウトフ","city":"京都市南区","city_kana":"キョウトシミナミク","town":"吉祥院大河原町","town_kana":"キッショウインオオガワラチョウ","prefecture_code":26},"8324":{"zip_code":"6018324","prefecture":"京都府","prefecture_kana":"キョウトフ","city":"京都市南区","city_kana":"キョウトシミナミク","town":"吉祥院落合町","town_kana":"キッショウインオチアイチョウ","prefecture_code":26},"8323":{"zip_code":"6018323","prefecture":"京都府","prefecture_kana":"キョウトフ","city":"京都市南区","city_kana":"キョウトシミナミク","town":"吉祥院春日町","town_kana":"キッショウインカスガチョウ","prefecture_code":26},"8348":{"zip_code":"6018348","prefecture":"京都府","prefecture_kana":"キョウトフ","city":"京都市南区","city_kana":"キョウトシミナミク","town":"吉祥院観音堂町","town_kana":"キッショウインカンノンドウチョウ","prefecture_code":26},"8347":{"zip_code":"6018347","prefecture":"京都府","prefecture_kana":"キョウトフ","city":"京都市南区","city_kana":"キョウトシミナミク","town":"吉祥院観音堂南町","town_kana":"キッショウインカンノンドウミナミチョウ","prefecture_code":26},"8328":{"zip_code":"6018328","prefecture":"京都府","prefecture_kana":"キョウトフ","city":"京都市南区","city_kana":"キョウトシミナミク","town":"吉祥院九条町","town_kana":"キッショウインクジョウチョウ","prefecture_code":26},"8315":{"zip_code":"6018315","prefecture":"京都府","prefecture_kana":"キョウトフ","city":"京都市南区","city_kana":"キョウトシミナミク","town":"吉祥院車道町","town_kana":"キッショウインクルマミチチョウ","prefecture_code":26},"8322":{"zip_code":"6018322","prefecture":"京都府","prefecture_kana":"キョウトフ","city":"京都市南区","city_kana":"キョウトシミナミク","town":"吉祥院定成町","town_kana":"キッショウインサダナリチョウ","prefecture_code":26},"8339":{"zip_code":"6018339","prefecture":"京都府","prefecture_kana":"キョウトフ","city":"京都市南区","city_kana":"キョウトシミナミク","town":"吉祥院里ノ内町","town_kana":"キッショウインサトノウチチョウ","prefecture_code":26},"8319":{"zip_code":"6018319","prefecture":"京都府","prefecture_kana":"キョウトフ","city":"京都市南区","city_kana":"キョウトシミナミク","town":"吉祥院三ノ宮町","town_kana":"キッショウインサンノミヤチョウ","prefecture_code":26},"8318":{"zip_code":"6018318","prefecture":"京都府","prefecture_kana":"キョウトフ","city":"京都市南区","city_kana":"キョウトシミナミク","town":"吉祥院三ノ宮西町","town_kana":"キッショウインサンノミヤニシマチ","prefecture_code":26},"8329":{"zip_code":"6018329","prefecture":"京都府","prefecture_kana":"キョウトフ","city":"京都市南区","city_kana":"キョウトシミナミク","town":"吉祥院清水町","town_kana":"キッショウインシミズチョウ","prefecture_code":26},"8336":{"zip_code":"6018336","prefecture":"京都府","prefecture_kana":"キョウトフ","city":"京都市南区","city_kana":"キョウトシミナミク","town":"吉祥院菅原町","town_kana":"キッショウインスガハラチョウ","prefecture_code":26},"8335":{"zip_code":"6018335","prefecture":"京都府","prefecture_kana":"キョウトフ","city":"京都市南区","city_kana":"キョウトシミナミク","town":"吉祥院砂ノ町","town_kana":"キッショウインスナノチョウ","prefecture_code":26},"8332":{"zip_code":"6018332","prefecture":"京都府","prefecture_kana":"キョウトフ","city":"京都市南区","city_kana":"キョウトシミナミク","town":"吉祥院高畑町","town_kana":"キッショウインタカハタチョウ","prefecture_code":26},"8399":{"zip_code":"6018399","prefecture":"京都府","prefecture_kana":"キョウトフ","city":"京都市南区","city_kana":"キョウトシミナミク","town":"吉祥院堤外町","town_kana":"キッショウインツツミソトチョウ","prefecture_code":26},"8313":{"zip_code":"6018313","prefecture":"京都府","prefecture_kana":"キョウトフ","city":"京都市南区","city_kana":"キョウトシミナミク","town":"吉祥院中島町","town_kana":"キッショウインナカジマチョウ","prefecture_code":26},"8362":{"zip_code":"6018362","prefecture":"京都府","prefecture_kana":"キョウトフ","city":"京都市南区","city_kana":"キョウトシミナミク","town":"吉祥院長田町","town_kana":"キッショウインナガタチョウ","prefecture_code":26},"8354":{"zip_code":"6018354","prefecture":"京都府","prefecture_kana":"キョウトフ","city":"京都市南区","city_kana":"キョウトシミナミク","town":"吉祥院仁木ノ森町","town_kana":"キッショウインニキノモリチョウ","prefecture_code":26},"8352":{"zip_code":"6018352","prefecture":"京都府","prefecture_kana":"キョウトフ","city":"京都市南区","city_kana":"キョウトシミナミク","town":"吉祥院西浦町","town_kana":"キッショウインニシウラチョウ","prefecture_code":26},"8321":{"zip_code":"6018321","prefecture":"京都府","prefecture_kana":"キョウトフ","city":"京都市南区","city_kana":"キョウトシミナミク","town":"吉祥院西定成町","town_kana":"キッショウインニシサダナリチョウ","prefecture_code":26},"8338":{"zip_code":"6018338","prefecture":"京都府","prefecture_kana":"キョウトフ","city":"京都市南区","city_kana":"キョウトシミナミク","town":"吉祥院西ノ内町","town_kana":"キッショウインニシノウチチョウ","prefecture_code":26},"8381":{"zip_code":"6018381","prefecture":"京都府","prefecture_kana":"キョウトフ","city":"京都市南区","city_kana":"キョウトシミナミク","town":"吉祥院西ノ茶屋町","town_kana":"キッショウインニシノチャヤチョウ","prefecture_code":26},"8353":{"zip_code":"6018353","prefecture":"京都府","prefecture_kana":"キョウトフ","city":"京都市南区","city_kana":"キョウトシミナミク","town":"吉祥院這登中町","town_kana":"キッショウインハイノボリナカマチ","prefecture_code":26},"8351":{"zip_code":"6018351","prefecture":"京都府","prefecture_kana":"キョウトフ","city":"京都市南区","city_kana":"キョウトシミナミク","town":"吉祥院這登西町","town_kana":"キッショウインハイノボリニシマチ","prefecture_code":26},"8337":{"zip_code":"6018337","prefecture":"京都府","prefecture_kana":"キョウトフ","city":"京都市南区","city_kana":"キョウトシミナミク","town":"吉祥院這登東町","town_kana":"キッショウインハイノボリヒガシマチ","prefecture_code":26},"8325":{"zip_code":"6018325","prefecture":"京都府","prefecture_kana":"キョウトフ","city":"京都市南区","city_kana":"キョウトシミナミク","town":"吉祥院八反田町","town_kana":"キッショウインハツタンダチョウ","prefecture_code":26},"8333":{"zip_code":"6018333","prefecture":"京都府","prefecture_kana":"キョウトフ","city":"京都市南区","city_kana":"キョウトシミナミク","town":"吉祥院東浦町","town_kana":"キッショウインヒガシウラチョウ","prefecture_code":26},"8334":{"zip_code":"6018334","prefecture":"京都府","prefecture_kana":"キョウトフ","city":"京都市南区","city_kana":"キョウトシミナミク","town":"吉祥院東砂ノ町","town_kana":"キッショウインヒガシスナノチョウ","prefecture_code":26},"8342":{"zip_code":"6018342","prefecture":"京都府","prefecture_kana":"キョウトフ","city":"京都市南区","city_kana":"キョウトシミナミク","town":"吉祥院東前田町","town_kana":"キッショウインヒガシマエダチョウ","prefecture_code":26},"8330":{"zip_code":"6018330","prefecture":"京都府","prefecture_kana":"キョウトフ","city":"京都市南区","city_kana":"キョウトシミナミク","town":"吉祥院船戸町","town_kana":"キッショウインフナトチョウ","prefecture_code":26},"8304":{"zip_code":"6018304","prefecture":"京都府","prefecture_kana":"キョウトフ","city":"京都市南区","city_kana":"キョウトシミナミク","town":"吉祥院前河原町","town_kana":"キッショウインマエガワラチョウ","prefecture_code":26},"8341":{"zip_code":"6018341","prefecture":"京都府","prefecture_kana":"キョウトフ","city":"京都市南区","city_kana":"キョウトシミナミク","town":"吉祥院前田町","town_kana":"キッショウインマエダチョウ","prefecture_code":26},"8344":{"zip_code":"6018344","prefecture":"京都府","prefecture_kana":"キョウトフ","city":"京都市南区","city_kana":"キョウトシミナミク","town":"吉祥院蒔絵町","town_kana":"キッショウインマキエチョウ","prefecture_code":26},"8345":{"zip_code":"6018345","prefecture":"京都府","prefecture_kana":"キョウトフ","city":"京都市南区","city_kana":"キョウトシミナミク","town":"吉祥院蒔絵南町","town_kana":"キッショウインマキエミナミチョウ","prefecture_code":26},"8331":{"zip_code":"6018331","prefecture":"京都府","prefecture_kana":"キョウトフ","city":"京都市南区","city_kana":"キョウトシミナミク","town":"吉祥院政所町","town_kana":"キッショウインマンドコロチョウ","prefecture_code":26},"8326":{"zip_code":"6018326","prefecture":"京都府","prefecture_kana":"キョウトフ","city":"京都市南区","city_kana":"キョウトシミナミク","town":"吉祥院南落合町","town_kana":"キッショウインミナミオチアイチョウ","prefecture_code":26},"8306":{"zip_code":"6018306","prefecture":"京都府","prefecture_kana":"キョウトフ","city":"京都市南区","city_kana":"キョウトシミナミク","town":"吉祥院宮ノ西町","town_kana":"キッショウインミヤノニシチョウ","prefecture_code":26},"8305":{"zip_code":"6018305","prefecture":"京都府","prefecture_kana":"キョウトフ","city":"京都市南区","city_kana":"キョウトシミナミク","town":"吉祥院宮ノ東町","town_kana":"キッショウインミヤノヒガシチョウ","prefecture_code":26},"8307":{"zip_code":"6018307","prefecture":"京都府","prefecture_kana":"キョウトフ","city":"京都市南区","city_kana":"キョウトシミナミク","town":"吉祥院向田西町","town_kana":"キッショウインムカイダニシチョウ","prefecture_code":26},"8308":{"zip_code":"6018308","prefecture":"京都府","prefecture_kana":"キョウトフ","city":"京都市南区","city_kana":"キョウトシミナミク","town":"吉祥院向田東町","town_kana":"キッショウインムカイダヒガシチョウ","prefecture_code":26},"8390":{"zip_code":"6018390","prefecture":"京都府","prefecture_kana":"キョウトフ","city":"京都市南区","city_kana":"キョウトシミナミク","town":"吉祥院流作町","town_kana":"キッショウインリュウサクチョウ","prefecture_code":26},"8382":{"zip_code":"6018382","prefecture":"京都府","prefecture_kana":"キョウトフ","city":"京都市南区","city_kana":"キョウトシミナミク","town":"吉祥院石原上川原町","town_kana":"キッショウインイシハラカミカワラチョウ","prefecture_code":26},"8356":{"zip_code":"6018356","prefecture":"京都府","prefecture_kana":"キョウトフ","city":"京都市南区","city_kana":"キョウトシミナミク","town":"吉祥院石原京道町","town_kana":"キッショウインイシハラキョウミチチョウ","prefecture_code":26},"8355":{"zip_code":"6018355","prefecture":"京都府","prefecture_kana":"キョウトフ","city":"京都市南区","city_kana":"キョウトシミナミク","town":"吉祥院石原堂ノ後町","town_kana":"キッショウインイシハラドウノウシロチョウ","prefecture_code":26},"8357":{"zip_code":"6018357","prefecture":"京都府","prefecture_kana":"キョウトフ","city":"京都市南区","city_kana":"キョウトシミナミク","town":"吉祥院石原堂ノ後西町","town_kana":"キッショウインイシハラドウノウシロニシマチ","prefecture_code":26},"8383":{"zip_code":"6018383","prefecture":"京都府","prefecture_kana":"キョウトフ","city":"京都市南区","city_kana":"キョウトシミナミク","town":"吉祥院石原長田町","town_kana":"キッショウインイシハラナガタチョウ","prefecture_code":26},"8366":{"zip_code":"6018366","prefecture":"京都府","prefecture_kana":"キョウトフ","city":"京都市南区","city_kana":"キョウトシミナミク","town":"吉祥院石原西町","town_kana":"キッショウインイシハラニシマチ","prefecture_code":26},"8388":{"zip_code":"6018388","prefecture":"京都府","prefecture_kana":"キョウトフ","city":"京都市南区","city_kana":"キョウトシミナミク","town":"吉祥院石原西ノ開町","town_kana":"キッショウインイシハラニシノヒラキチョウ","prefecture_code":26},"8384":{"zip_code":"6018384","prefecture":"京都府","prefecture_kana":"キョウトフ","city":"京都市南区","city_kana":"キョウトシミナミク","town":"吉祥院石原野上町","town_kana":"キッショウインイシハラノガミチョウ","prefecture_code":26},"8387":{"zip_code":"6018387","prefecture":"京都府","prefecture_kana":"キョウトフ","city":"京都市南区","city_kana":"キョウトシミナミク","town":"吉祥院石原橋裏","town_kana":"キッショウインイシハラハシウラ","prefecture_code":26},"8389":{"zip_code":"6018389","prefecture":"京都府","prefecture_kana":"キョウトフ","city":"京都市南区","city_kana":"キョウトシミナミク","town":"吉祥院石原橋上","town_kana":"キッショウインイシハラハシカミ","prefecture_code":26},"8361":{"zip_code":"6018361","prefecture":"京都府","prefecture_kana":"キョウトフ","city":"京都市南区","city_kana":"キョウトシミナミク","town":"吉祥院石原東之口","town_kana":"キッショウインイシハラヒガシノクチ","prefecture_code":26},"8365":{"zip_code":"6018365","prefecture":"京都府","prefecture_kana":"キョウトフ","city":"京都市南区","city_kana":"キョウトシミナミク","town":"吉祥院石原開町","town_kana":"キッショウインイシハラヒラキマチ","prefecture_code":26},"8364":{"zip_code":"6018364","prefecture":"京都府","prefecture_kana":"キョウトフ","city":"京都市南区","city_kana":"キョウトシミナミク","town":"吉祥院石原南町","town_kana":"キッショウインイシハラミナミチョウ","prefecture_code":26},"8385":{"zip_code":"6018385","prefecture":"京都府","prefecture_kana":"キョウトフ","city":"京都市南区","city_kana":"キョウトシミナミク","town":"吉祥院石原葭縁","town_kana":"キッショウインイシハラヨシベリ","prefecture_code":26},"8386":{"zip_code":"6018386","prefecture":"京都府","prefecture_kana":"キョウトフ","city":"京都市南区","city_kana":"キョウトシミナミク","town":"吉祥院石原割畑","town_kana":"キッショウインイシハラワリハタ","prefecture_code":26},"8374":{"zip_code":"6018374","prefecture":"京都府","prefecture_kana":"キョウトフ","city":"京都市南区","city_kana":"キョウトシミナミク","town":"吉祥院嶋笠井町","town_kana":"キッショウインシマカサイチョウ","prefecture_code":26},"8371":{"zip_code":"6018371","prefecture":"京都府","prefecture_kana":"キョウトフ","city":"京都市南区","city_kana":"キョウトシミナミク","town":"吉祥院嶋樫山町","town_kana":"キッショウインシマカタギヤマチョウ","prefecture_code":26},"8379":{"zip_code":"6018379","prefecture":"京都府","prefecture_kana":"キョウトフ","city":"京都市南区","city_kana":"キョウトシミナミク","town":"吉祥院嶋川原田町","town_kana":"キッショウインシマカワラダチョウ","prefecture_code":26},"8372":{"zip_code":"6018372","prefecture":"京都府","prefecture_kana":"キョウトフ","city":"京都市南区","city_kana":"キョウトシミナミク","town":"吉祥院嶋高町","town_kana":"キッショウインシマタカマチ","prefecture_code":26},"8378":{"zip_code":"6018378","prefecture":"京都府","prefecture_kana":"キョウトフ","city":"京都市南区","city_kana":"キョウトシミナミク","town":"吉祥院嶋堤外","town_kana":"キッショウインシマツツミソト","prefecture_code":26},"8373":{"zip_code":"6018373","prefecture":"京都府","prefecture_kana":"キョウトフ","city":"京都市南区","city_kana":"キョウトシミナミク","town":"吉祥院嶋出在家町","town_kana":"キッショウインシマデザイケチョウ","prefecture_code":26},"8377":{"zip_code":"6018377","prefecture":"京都府","prefecture_kana":"キョウトフ","city":"京都市南区","city_kana":"キョウトシミナミク","town":"吉祥院嶋堂ノ裏","town_kana":"キッショウインシマドウノウラ","prefecture_code":26},"8376":{"zip_code":"6018376","prefecture":"京都府","prefecture_kana":"キョウトフ","city":"京都市南区","city_kana":"キョウトシミナミク","town":"吉祥院嶋中ノ島","town_kana":"キッショウインシマナカノシマ","prefecture_code":26},"8375":{"zip_code":"6018375","prefecture":"京都府","prefecture_kana":"キョウトフ","city":"京都市南区","city_kana":"キョウトシミナミク","town":"吉祥院嶋西浦","town_kana":"キッショウインシマニシウラ","prefecture_code":26},"8363":{"zip_code":"6018363","prefecture":"京都府","prefecture_kana":"キョウトフ","city":"京都市南区","city_kana":"キョウトシミナミク","town":"吉祥院嶋野間詰町","town_kana":"キッショウインシマノマヅメチョウ","prefecture_code":26},"8397":{"zip_code":"6018397","prefecture":"京都府","prefecture_kana":"キョウトフ","city":"京都市南区","city_kana":"キョウトシミナミク","town":"吉祥院新田壱ノ段町","town_kana":"キッショウインシンデンイチノダンチョウ","prefecture_code":26},"8398":{"zip_code":"6018398","prefecture":"京都府","prefecture_kana":"キョウトフ","city":"京都市南区","city_kana":"キョウトシミナミク","town":"吉祥院新田参ノ段町","town_kana":"キッショウインシンデンサンノダンチョウ","prefecture_code":26},"8380":{"zip_code":"6018380","prefecture":"京都府","prefecture_kana":"キョウトフ","city":"京都市南区","city_kana":"キョウトシミナミク","town":"吉祥院新田下ノ向町","town_kana":"キッショウインシンデンシモノムカイチョウ","prefecture_code":26},"8317":{"zip_code":"6018317","prefecture":"京都府","prefecture_kana":"キョウトフ","city":"京都市南区","city_kana":"キョウトシミナミク","town":"吉祥院新田弐ノ段町","town_kana":"キッショウインシンデンニノダンチョウ","prefecture_code":26},"8394":{"zip_code":"6018394","prefecture":"京都府","prefecture_kana":"キョウトフ","city":"京都市南区","city_kana":"キョウトシミナミク","town":"吉祥院中河原里北町","town_kana":"キッショウインナカガワラサトキタチョウ","prefecture_code":26},"8393":{"zip_code":"6018393","prefecture":"京都府","prefecture_kana":"キョウトフ","city":"京都市南区","city_kana":"キョウトシミナミク","town":"吉祥院中河原里西町","town_kana":"キッショウインナカガワラサトニシチョウ","prefecture_code":26},"8396":{"zip_code":"6018396","prefecture":"京都府","prefecture_kana":"キョウトフ","city":"京都市南区","city_kana":"キョウトシミナミク","town":"吉祥院中河原里南町","town_kana":"キッショウインナカガワラサトミナミチョウ","prefecture_code":26},"8395":{"zip_code":"6018395","prefecture":"京都府","prefecture_kana":"キョウトフ","city":"京都市南区","city_kana":"キョウトシミナミク","town":"吉祥院中河原西屋敷町","town_kana":"キッショウインナカガワラニシヤシキチョウ","prefecture_code":26},"8310":{"zip_code":"6018310","prefecture":"京都府","prefecture_kana":"キョウトフ","city":"京都市南区","city_kana":"キョウトシミナミク","town":"吉祥院西ノ庄猪之馬場町","town_kana":"キッショウインニシノショウイノババチョウ","prefecture_code":26},"8301":{"zip_code":"6018301","prefecture":"京都府","prefecture_kana":"キョウトフ","city":"京都市南区","city_kana":"キョウトシミナミク","town":"吉祥院西ノ庄西浦町","town_kana":"キッショウインニシノショウニシウラチョウ","prefecture_code":26},"8303":{"zip_code":"6018303","prefecture":"京都府","prefecture_kana":"キョウトフ","city":"京都市南区","city_kana":"キョウトシミナミク","town":"吉祥院西ノ庄西中町","town_kana":"キッショウインニシノショウニシナカチョウ","prefecture_code":26},"8311":{"zip_code":"6018311","prefecture":"京都府","prefecture_kana":"キョウトフ","city":"京都市南区","city_kana":"キョウトシミナミク","town":"吉祥院西ノ庄東屋敷町","town_kana":"キッショウインニシノショウヒガシヤシキチョウ","prefecture_code":26},"8302":{"zip_code":"6018302","prefecture":"京都府","prefecture_kana":"キョウトフ","city":"京都市南区","city_kana":"キョウトシミナミク","town":"吉祥院西ノ庄渕ノ西町","town_kana":"キッショウインニシノショウフチノニシチョウ","prefecture_code":26},"8309":{"zip_code":"6018309","prefecture":"京都府","prefecture_kana":"キョウトフ","city":"京都市南区","city_kana":"キョウトシミナミク","town":"吉祥院西ノ庄向田町","town_kana":"キッショウインニシノショウムカイダチョウ","prefecture_code":26},"8312":{"zip_code":"6018312","prefecture":"京都府","prefecture_kana":"キョウトフ","city":"京都市南区","city_kana":"キョウトシミナミク","town":"吉祥院西ノ庄門口町","town_kana":"キッショウインニシノショウモングチチョウ","prefecture_code":26},"8473":{"zip_code":"6018473","prefecture":"京都府","prefecture_kana":"キョウトフ","city":"京都市南区","city_kana":"キョウトシミナミク","town":"九条町","town_kana":"クジョウチョウ","prefecture_code":26},"8202":{"zip_code":"6018202","prefecture":"京都府","prefecture_kana":"キョウトフ","city":"京都市南区","city_kana":"キョウトシミナミク","town":"久世大築町","town_kana":"クゼオオツキチョウ","prefecture_code":26},"8206":{"zip_code":"6018206","prefecture":"京都府","prefecture_kana":"キョウトフ","city":"京都市南区","city_kana":"キョウトシミナミク","town":"久世大薮町","town_kana":"クゼオオヤブチョウ","prefecture_code":26},"8212":{"zip_code":"6018212","prefecture":"京都府","prefecture_kana":"キョウトフ","city":"京都市南区","city_kana":"キョウトシミナミク","town":"久世上久世町","town_kana":"クゼカミクゼチョウ","prefecture_code":26},"8201":{"zip_code":"6018201","prefecture":"京都府","prefecture_kana":"キョウトフ","city":"京都市南区","city_kana":"キョウトシミナミク","town":"久世川原町","town_kana":"クゼカワハラチョウ","prefecture_code":26},"8211":{"zip_code":"6018211","prefecture":"京都府","prefecture_kana":"キョウトフ","city":"京都市南区","city_kana":"キョウトシミナミク","town":"久世高田町","town_kana":"クゼタカダチョウ","prefecture_code":26},"8203":{"zip_code":"6018203","prefecture":"京都府","prefecture_kana":"キョウトフ","city":"京都市南区","city_kana":"キョウトシミナミク","town":"久世築山町","town_kana":"クゼツキヤマチョウ","prefecture_code":26},"8205":{"zip_code":"6018205","prefecture":"京都府","prefecture_kana":"キョウトフ","city":"京都市南区","city_kana":"キョウトシミナミク","town":"久世殿城町","town_kana":"クゼトノシロチョウ","prefecture_code":26},"8213":{"zip_code":"6018213","prefecture":"京都府","prefecture_kana":"キョウトフ","city":"京都市南区","city_kana":"キョウトシミナミク","town":"久世中久世町","town_kana":"クゼナカクゼチョウ","prefecture_code":26},"8207":{"zip_code":"6018207","prefecture":"京都府","prefecture_kana":"キョウトフ","city":"京都市南区","city_kana":"キョウトシミナミク","town":"久世中久町","town_kana":"クゼナカヒサチョウ","prefecture_code":26},"8204":{"zip_code":"6018204","prefecture":"京都府","prefecture_kana":"キョウトフ","city":"京都市南区","city_kana":"キョウトシミナミク","town":"久世東土川町","town_kana":"クゼヒガシツチカワチョウ","prefecture_code":26},"8401":{"zip_code":"6018401","prefecture":"京都府","prefecture_kana":"キョウトフ","city":"京都市南区","city_kana":"キョウトシミナミク","town":"塩屋町","town_kana":"シオヤチョウ","prefecture_code":26},"8402":{"zip_code":"6018402","prefecture":"京都府","prefecture_kana":"キョウトフ","city":"京都市南区","city_kana":"キョウトシミナミク","town":"大黒町","town_kana":"ダイコクチョウ","prefecture_code":26},"8478":{"zip_code":"6018478","prefecture":"京都府","prefecture_kana":"キョウトフ","city":"京都市南区","city_kana":"キョウトシミナミク","town":"東寺町","town_kana":"トウジチョウ","prefecture_code":26},"8428":{"zip_code":"6018428","prefecture":"京都府","prefecture_kana":"キョウトフ","city":"京都市南区","city_kana":"キョウトシミナミク","town":"東寺東門前町","town_kana":"トウジヒガシモンゼンチョウ","prefecture_code":26},"8416":{"zip_code":"6018416","prefecture":"京都府","prefecture_kana":"キョウトフ","city":"京都市南区","city_kana":"キョウトシミナミク","town":"西九条池ノ内町","town_kana":"ニシクジョウイケノウチチョウ","prefecture_code":26},"8426":{"zip_code":"6018426","prefecture":"京都府","prefecture_kana":"キョウトフ","city":"京都市南区","city_kana":"キョウトシミナミク","town":"西九条猪熊町","town_kana":"ニシクジョウイノクマチョウ","prefecture_code":26},"8412":{"zip_code":"6018412","prefecture":"京都府","prefecture_kana":"キョウトフ","city":"京都市南区","city_kana":"キョウトシミナミク","town":"西九条院町","town_kana":"ニシクジョウインマチ","prefecture_code":26},"8449":{"zip_code":"6018449","prefecture":"京都府","prefecture_kana":"キョウトフ","city":"京都市南区","city_kana":"キョウトシミナミク","town":"西九条大国町","town_kana":"ニシクジョウオオクニチョウ","prefecture_code":26},"8439":{"zip_code":"6018439","prefecture":"京都府","prefecture_kana":"キョウトフ","city":"京都市南区","city_kana":"キョウトシミナミク","town":"西九条開ケ町","town_kana":"ニシクジョウカイガチョウ","prefecture_code":26},"8405":{"zip_code":"6018405","prefecture":"京都府","prefecture_kana":"キョウトフ","city":"京都市南区","city_kana":"キョウトシミナミク","town":"西九条戒光寺町","town_kana":"ニシクジョウカイコウジチョウ","prefecture_code":26},"8413":{"zip_code":"6018413","prefecture":"京都府","prefecture_kana":"キョウトフ","city":"京都市南区","city_kana":"キョウトシミナミク","town":"西九条春日町","town_kana":"ニシクジョウカスガチョウ","prefecture_code":26},"8447":{"zip_code":"6018447","prefecture":"京都府","prefecture_kana":"キョウトフ","city":"京都市南区","city_kana":"キョウトシミナミク","town":"西九条唐戸町","town_kana":"ニシクジョウカラトチョウ","prefecture_code":26},"8423":{"zip_code":"6018423","prefecture":"京都府","prefecture_kana":"キョウトフ","city":"京都市南区","city_kana":"キョウトシミナミク","town":"西九条唐橋町","town_kana":"ニシクジョウカラハシチョウ","prefecture_code":26},"8424":{"zip_code":"6018424","prefecture":"京都府","prefecture_kana":"キョウトフ","city":"京都市南区","city_kana":"キョウトシミナミク","town":"西九条川原城町","town_kana":"ニシクジョウカワラジョウチョウ","prefecture_code":26},"8411":{"zip_code":"6018411","prefecture":"京都府","prefecture_kana":"キョウトフ","city":"京都市南区","city_kana":"キョウトシミナミク","town":"西九条北ノ内町","town_kana":"ニシクジョウキタノウチチョウ","prefecture_code":26},"8442":{"zip_code":"6018442","prefecture":"京都府","prefecture_kana":"キョウトフ","city":"京都市南区","city_kana":"キョウトシミナミク","town":"西九条御幸田町","town_kana":"ニシクジョウゴコウデンチョウ","prefecture_code":26},"8404":{"zip_code":"6018404","prefecture":"京都府","prefecture_kana":"キョウトフ","city":"京都市南区","city_kana":"キョウトシミナミク","town":"西九条小寺町","town_kana":"ニシクジョウコデラチョウ","prefecture_code":26},"8414":{"zip_code":"6018414","prefecture":"京都府","prefecture_kana":"キョウトフ","city":"京都市南区","city_kana":"キョウトシミナミク","town":"西九条蔵王町","town_kana":"ニシクジョウザオウチョウ","prefecture_code":26},"8431":{"zip_code":"6018431","prefecture":"京都府","prefecture_kana":"キョウトフ","city":"京都市南区","city_kana":"キョウトシミナミク","town":"西九条島町","town_kana":"ニシクジョウシママチ","prefecture_code":26},"8445":{"zip_code":"6018445","prefecture":"京都府","prefecture_kana":"キョウトフ","city":"京都市南区","city_kana":"キョウトシミナミク","town":"西九条菅田町","town_kana":"ニシクジョウスガタチョウ","prefecture_code":26},"8446":{"zip_code":"6018446","prefecture":"京都府","prefecture_kana":"キョウトフ","city":"京都市南区","city_kana":"キョウトシミナミク","town":"西九条高畠町","town_kana":"ニシクジョウタカハタチョウ","prefecture_code":26},"8407":{"zip_code":"6018407","prefecture":"京都府","prefecture_kana":"キョウトフ","city":"京都市南区","city_kana":"キョウトシミナミク","town":"西九条寺ノ前町","town_kana":"ニシクジョウテラノマエチョウ","prefecture_code":26},"8448":{"zip_code":"6018448","prefecture":"京都府","prefecture_kana":"キョウトフ","city":"京都市南区","city_kana":"キョウトシミナミク","town":"西九条豊田町","town_kana":"ニシクジョウトヨダチョウ","prefecture_code":26},"8417":{"zip_code":"6018417","prefecture":"京都府","prefecture_kana":"キョウトフ","city":"京都市南区","city_kana":"キョウトシミナミク","town":"西九条鳥居口町","town_kana":"ニシクジョウトリイグチチョウ","prefecture_code":26},"8441":{"zip_code":"6018441","prefecture":"京都府","prefecture_kana":"キョウトフ","city":"京都市南区","city_kana":"キョウトシミナミク","town":"西九条南田町","town_kana":"ニシクジョウナンデンチョウ","prefecture_code":26},"8415":{"zip_code":"6018415","prefecture":"京都府","prefecture_kana":"キョウトフ","city":"京都市南区","city_kana":"キョウトシミナミク","town":"西九条西蔵王町","town_kana":"ニシクジョウニシザオウチョウ","prefecture_code":26},"8436":{"zip_code":"6018436","prefecture":"京都府","prefecture_kana":"キョウトフ","city":"京都市南区","city_kana":"キョウトシミナミク","town":"西九条西柳ノ内町","town_kana":"ニシクジョウニシヤナギノウチチョウ","prefecture_code":26},"8422":{"zip_code":"6018422","prefecture":"京都府","prefecture_kana":"キョウトフ","city":"京都市南区","city_kana":"キョウトシミナミク","town":"西九条針小路町","town_kana":"ニシクジョウハリコウジチョウ","prefecture_code":26},"8437":{"zip_code":"6018437","prefecture":"京都府","prefecture_kana":"キョウトフ","city":"京都市南区","city_kana":"キョウトシミナミク","town":"西九条比永城町","town_kana":"ニシクジョウヒエイジョウチョウ","prefecture_code":26},"8443":{"zip_code":"6018443","prefecture":"京都府","prefecture_kana":"キョウトフ","city":"京都市南区","city_kana":"キョウトシミナミク","town":"西九条東御幸田町","town_kana":"ニシクジョウヒガシゴコウデンチョウ","prefecture_code":26},"8432":{"zip_code":"6018432","prefecture":"京都府","prefecture_kana":"キョウトフ","city":"京都市南区","city_kana":"キョウトシミナミク","town":"西九条東島町","town_kana":"ニシクジョウヒガシシママチ","prefecture_code":26},"8438":{"zip_code":"6018438","prefecture":"京都府","prefecture_kana":"キョウトフ","city":"京都市南区","city_kana":"キョウトシミナミク","town":"西九条東比永城町","town_kana":"ニシクジョウヒガシヒエイジョウチョウ","prefecture_code":26},"8433":{"zip_code":"6018433","prefecture":"京都府","prefecture_kana":"キョウトフ","city":"京都市南区","city_kana":"キョウトシミナミク","town":"西九条東柳ノ内町","town_kana":"ニシクジョウヒガシヤナギノウチチョウ","prefecture_code":26},"8421":{"zip_code":"6018421","prefecture":"京都府","prefecture_kana":"キョウトフ","city":"京都市南区","city_kana":"キョウトシミナミク","town":"西九条藤ノ木町","town_kana":"ニシクジョウフジノキチョウ","prefecture_code":26},"8434":{"zip_code":"6018434","prefecture":"京都府","prefecture_kana":"キョウトフ","city":"京都市南区","city_kana":"キョウトシミナミク","town":"西九条仏現寺町","town_kana":"ニシクジョウブツゲンジチョウ","prefecture_code":26},"8425":{"zip_code":"6018425","prefecture":"京都府","prefecture_kana":"キョウトフ","city":"京都市南区","city_kana":"キョウトシミナミク","town":"西九条南小路町","town_kana":"ニシクジョウミナミコウジチョウ","prefecture_code":26},"8444":{"zip_code":"6018444","prefecture":"京都府","prefecture_kana":"キョウトフ","city":"京都市南区","city_kana":"キョウトシミナミク","town":"西九条森本町","town_kana":"ニシクジョウモリモトチョウ","prefecture_code":26},"8435":{"zip_code":"6018435","prefecture":"京都府","prefecture_kana":"キョウトフ","city":"京都市南区","city_kana":"キョウトシミナミク","town":"西九条柳ノ内町","town_kana":"ニシクジョウヤナギノウチチョウ","prefecture_code":26},"8427":{"zip_code":"6018427","prefecture":"京都府","prefecture_kana":"キョウトフ","city":"京都市南区","city_kana":"キョウトシミナミク","town":"西九条横町","town_kana":"ニシクジョウヨコマチ","prefecture_code":26},"8475":{"zip_code":"6018475","prefecture":"京都府","prefecture_kana":"キョウトフ","city":"京都市南区","city_kana":"キョウトシミナミク","town":"八条内田町","town_kana":"ハチジョウウチダチョウ","prefecture_code":26},"8476":{"zip_code":"6018476","prefecture":"京都府","prefecture_kana":"キョウトフ","city":"京都市南区","city_kana":"キョウトシミナミク","town":"八条寺内町","town_kana":"ハチジョウテラノウチチョウ","prefecture_code":26},"8472":{"zip_code":"6018472","prefecture":"京都府","prefecture_kana":"キョウトフ","city":"京都市南区","city_kana":"キョウトシミナミク","town":"八条坊門町","town_kana":"ハチジョウボウモンチョウ","prefecture_code":26},"8477":{"zip_code":"6018477","prefecture":"京都府","prefecture_kana":"キョウトフ","city":"京都市南区","city_kana":"キョウトシミナミク","town":"八条源町","town_kana":"ハチジョウミナモトチョウ","prefecture_code":26},"8471":{"zip_code":"6018471","prefecture":"京都府","prefecture_kana":"キョウトフ","city":"京都市南区","city_kana":"キョウトシミナミク","town":"八条町","town_kana":"ハチジョウチョウ","prefecture_code":26},"8044":{"zip_code":"6018044","prefecture":"京都府","prefecture_kana":"キョウトフ","city":"京都市南区","city_kana":"キョウトシミナミク","town":"東九条明田町","town_kana":"ヒガシクジョウアケタチョウ","prefecture_code":26},"8032":{"zip_code":"6018032","prefecture":"京都府","prefecture_kana":"キョウトフ","city":"京都市南区","city_kana":"キョウトシミナミク","town":"東九条石田町","town_kana":"ヒガシクジョウイシダチョウ","prefecture_code":26},"8021":{"zip_code":"6018021","prefecture":"京都府","prefecture_kana":"キョウトフ","city":"京都市南区","city_kana":"キョウトシミナミク","town":"東九条宇賀辺町","town_kana":"ヒガシクジョウウカベチョウ","prefecture_code":26},"8015":{"zip_code":"6018015","prefecture":"京都府","prefecture_kana":"キョウトフ","city":"京都市南区","city_kana":"キョウトシミナミク","town":"東九条上御霊町","town_kana":"ヒガシクジョウカミゴリョウチョウ","prefecture_code":26},"8002":{"zip_code":"6018002","prefecture":"京都府","prefecture_kana":"キョウトフ","city":"京都市南区","city_kana":"キョウトシミナミク","town":"東九条上殿田町","town_kana":"ヒガシクジョウカミトノダチョウ","prefecture_code":26},"8016":{"zip_code":"6018016","prefecture":"京都府","prefecture_kana":"キョウトフ","city":"京都市南区","city_kana":"キョウトシミナミク","town":"東九条烏丸町","town_kana":"ヒガシクジョウカラスマチョウ","prefecture_code":26},"8014":{"zip_code":"6018014","prefecture":"京都府","prefecture_kana":"キョウトフ","city":"京都市南区","city_kana":"キョウトシミナミク","town":"東九条河西町","town_kana":"ヒガシクジョウカワニシチョウ","prefecture_code":26},"8031":{"zip_code":"6018031","prefecture":"京都府","prefecture_kana":"キョウトフ","city":"京都市南区","city_kana":"キョウトシミナミク","town":"東九条河辺町","town_kana":"ヒガシクジョウカワベチョウ","prefecture_code":26},"8017":{"zip_code":"6018017","prefecture":"京都府","prefecture_kana":"キョウトフ","city":"京都市南区","city_kana":"キョウトシミナミク","town":"東九条北烏丸町","town_kana":"ヒガシクジョウキタカラスマチョウ","prefecture_code":26},"8007":{"zip_code":"6018007","prefecture":"京都府","prefecture_kana":"キョウトフ","city":"京都市南区","city_kana":"キョウトシミナミク","town":"東九条北河原町","town_kana":"ヒガシクジョウキタカワラマチ","prefecture_code":26},"8022":{"zip_code":"6018022","prefecture":"京都府","prefecture_kana":"キョウトフ","city":"京都市南区","city_kana":"キョウトシミナミク","town":"東九条北松ノ木町","town_kana":"ヒガシクジョウキタマツノキチョウ","prefecture_code":26},"8047":{"zip_code":"6018047","prefecture":"京都府","prefecture_kana":"キョウトフ","city":"京都市南区","city_kana":"キョウトシミナミク","town":"東九条下殿田町","town_kana":"ヒガシクジョウシモトノダチョウ","prefecture_code":26},"8027":{"zip_code":"6018027","prefecture":"京都府","prefecture_kana":"キョウトフ","city":"京都市南区","city_kana":"キョウトシミナミク","town":"東九条中御霊町","town_kana":"ヒガシクジョウナカゴリョウチョウ","prefecture_code":26},"8048":{"zip_code":"6018048","prefecture":"京都府","prefecture_kana":"キョウトフ","city":"京都市南区","city_kana":"キョウトシミナミク","town":"東九条中殿田町","town_kana":"ヒガシクジョウナカトノダチョウ","prefecture_code":26},"8026":{"zip_code":"6018026","prefecture":"京都府","prefecture_kana":"キョウトフ","city":"京都市南区","city_kana":"キョウトシミナミク","town":"東九条中札辻町","town_kana":"ヒガシクジョウナカフダノツジチョウ","prefecture_code":26},"8045":{"zip_code":"6018045","prefecture":"京都府","prefecture_kana":"キョウトフ","city":"京都市南区","city_kana":"キョウトシミナミク","town":"東九条西明田町","town_kana":"ヒガシクジョウニシアケタチョウ","prefecture_code":26},"8005":{"zip_code":"6018005","prefecture":"京都府","prefecture_kana":"キョウトフ","city":"京都市南区","city_kana":"キョウトシミナミク","town":"東九条西岩本町","town_kana":"ヒガシクジョウニシイワモトチョウ","prefecture_code":26},"8037":{"zip_code":"6018037","prefecture":"京都府","prefecture_kana":"キョウトフ","city":"京都市南区","city_kana":"キョウトシミナミク","town":"東九条西河辺町","town_kana":"ヒガシクジョウニシカワベチョウ","prefecture_code":26},"8042":{"zip_code":"6018042","prefecture":"京都府","prefecture_kana":"キョウトフ","city":"京都市南区","city_kana":"キョウトシミナミク","town":"東九条西御霊町","town_kana":"ヒガシクジョウニシゴリョウチョウ","prefecture_code":26},"8003":{"zip_code":"6018003","prefecture":"京都府","prefecture_kana":"キョウトフ","city":"京都市南区","city_kana":"キョウトシミナミク","town":"東九条西山王町","town_kana":"ヒガシクジョウニシサンノウチョウ","prefecture_code":26},"8043":{"zip_code":"6018043","prefecture":"京都府","prefecture_kana":"キョウトフ","city":"京都市南区","city_kana":"キョウトシミナミク","town":"東九条西札辻町","town_kana":"ヒガシクジョウニシフダノツジチョウ","prefecture_code":26},"8046":{"zip_code":"6018046","prefecture":"京都府","prefecture_kana":"キョウトフ","city":"京都市南区","city_kana":"キョウトシミナミク","town":"東九条西山町","town_kana":"ヒガシクジョウニシヤマチョウ","prefecture_code":26},"8006":{"zip_code":"6018006","prefecture":"京都府","prefecture_kana":"キョウトフ","city":"京都市南区","city_kana":"キョウトシミナミク","town":"東九条東岩本町","town_kana":"ヒガシクジョウヒガシイワモトチョウ","prefecture_code":26},"8028":{"zip_code":"6018028","prefecture":"京都府","prefecture_kana":"キョウトフ","city":"京都市南区","city_kana":"キョウトシミナミク","town":"東九条東御霊町","town_kana":"ヒガシクジョウヒガシゴリョウチョウ","prefecture_code":26},"8004":{"zip_code":"6018004","prefecture":"京都府","prefecture_kana":"キョウトフ","city":"京都市南区","city_kana":"キョウトシミナミク","town":"東九条東山王町","town_kana":"ヒガシクジョウヒガシサンノウチョウ","prefecture_code":26},"8024":{"zip_code":"6018024","prefecture":"京都府","prefecture_kana":"キョウトフ","city":"京都市南区","city_kana":"キョウトシミナミク","town":"東九条東札辻町","town_kana":"ヒガシクジョウヒガシフダノツジチョウ","prefecture_code":26},"8029":{"zip_code":"6018029","prefecture":"京都府","prefecture_kana":"キョウトフ","city":"京都市南区","city_kana":"キョウトシミナミク","town":"東九条東松ノ木町","town_kana":"ヒガシクジョウヒガシマツノキチョウ","prefecture_code":26},"8036":{"zip_code":"6018036","prefecture":"京都府","prefecture_kana":"キョウトフ","city":"京都市南区","city_kana":"キョウトシミナミク","town":"東九条松田町","town_kana":"ヒガシクジョウマツダチョウ","prefecture_code":26},"8033":{"zip_code":"6018033","prefecture":"京都府","prefecture_kana":"キョウトフ","city":"京都市南区","city_kana":"キョウトシミナミク","town":"東九条南石田町","town_kana":"ヒガシクジョウミナミイシダチョウ","prefecture_code":26},"8012":{"zip_code":"6018012","prefecture":"京都府","prefecture_kana":"キョウトフ","city":"京都市南区","city_kana":"キョウトシミナミク","town":"東九条南岩本町","town_kana":"ヒガシクジョウミナミイワモトチョウ","prefecture_code":26},"8041":{"zip_code":"6018041","prefecture":"京都府","prefecture_kana":"キョウトフ","city":"京都市南区","city_kana":"キョウトシミナミク","town":"東九条南烏丸町","town_kana":"ヒガシクジョウミナミカラスマチョウ","prefecture_code":26},"8034":{"zip_code":"6018034","prefecture":"京都府","prefecture_kana":"キョウトフ","city":"京都市南区","city_kana":"キョウトシミナミク","town":"東九条南河辺町","town_kana":"ヒガシクジョウミナミカワベチョウ","prefecture_code":26},"8013":{"zip_code":"6018013","prefecture":"京都府","prefecture_kana":"キョウトフ","city":"京都市南区","city_kana":"キョウトシミナミク","town":"東九条南河原町","town_kana":"ヒガシクジョウミナミカワラマチ","prefecture_code":26},"8011":{"zip_code":"6018011","prefecture":"京都府","prefecture_kana":"キョウトフ","city":"京都市南区","city_kana":"キョウトシミナミク","town":"東九条南山王町","town_kana":"ヒガシクジョウミナミサンノウチョウ","prefecture_code":26},"8035":{"zip_code":"6018035","prefecture":"京都府","prefecture_kana":"キョウトフ","city":"京都市南区","city_kana":"キョウトシミナミク","town":"東九条南松田町","town_kana":"ヒガシクジョウミナミマツダチョウ","prefecture_code":26},"8023":{"zip_code":"6018023","prefecture":"京都府","prefecture_kana":"キョウトフ","city":"京都市南区","city_kana":"キョウトシミナミク","town":"東九条南松ノ木町","town_kana":"ヒガシクジョウミナミマツノキチョウ","prefecture_code":26},"8001":{"zip_code":"6018001","prefecture":"京都府","prefecture_kana":"キョウトフ","city":"京都市南区","city_kana":"キョウトシミナミク","town":"東九条室町","town_kana":"ヒガシクジョウムロマチ","prefecture_code":26},"8025":{"zip_code":"6018025","prefecture":"京都府","prefecture_kana":"キョウトフ","city":"京都市南区","city_kana":"キョウトシミナミク","town":"東九条柳下町","town_kana":"ヒガシクジョウヤナギノシタチョウ","prefecture_code":26},"8403":{"zip_code":"6018403","prefecture":"京都府","prefecture_kana":"キョウトフ","city":"京都市南区","city_kana":"キョウトシミナミク","town":"古御旅町","town_kana":"フルオタビチョウ","prefecture_code":26},"8474":{"zip_code":"6018474","prefecture":"京都府","prefecture_kana":"キョウトフ","city":"京都市南区","city_kana":"キョウトシミナミク","town":"四ツ塚町","town_kana":"ヨツヅカチョウ","prefecture_code":26},"0541":{"zip_code":"6010541","prefecture":"京都府","prefecture_kana":"キョウトフ","city":"京都市右京区","city_kana":"キョウトシウキョウク","town":"京北赤石町","town_kana":"ケイホクアカイシチョウ","prefecture_code":26},"0273":{"zip_code":"6010273","prefecture":"京都府","prefecture_kana":"キョウトフ","city":"京都市右京区","city_kana":"キョウトシウキョウク","town":"京北明石町","town_kana":"ケイホクアケシチョウ","prefecture_code":26},"0274":{"zip_code":"6010274","prefecture":"京都府","prefecture_kana":"キョウトフ","city":"京都市右京区","city_kana":"キョウトシウキョウク","town":"京北浅江町","town_kana":"ケイホクアザエチョウ","prefecture_code":26},"0535":{"zip_code":"6010535","prefecture":"京都府","prefecture_kana":"キョウトフ","city":"京都市右京区","city_kana":"キョウトシウキョウク","town":"京北井崎町","town_kana":"ケイホクイザキチョウ","prefecture_code":26},"0313":{"zip_code":"6010313","prefecture":"京都府","prefecture_kana":"キョウトフ","city":"京都市右京区","city_kana":"キョウトシウキョウク","town":"京北井戸町","town_kana":"ケイホクイドチョウ","prefecture_code":26},"0275":{"zip_code":"6010275","prefecture":"京都府","prefecture_kana":"キョウトフ","city":"京都市右京区","city_kana":"キョウトシウキョウク","town":"京北宇野町","town_kana":"ケイホクウノチョウ","prefecture_code":26},"0277":{"zip_code":"6010277","prefecture":"京都府","prefecture_kana":"キョウトフ","city":"京都市右京区","city_kana":"キョウトシウキョウク","town":"京北漆谷町","town_kana":"ケイホクウルシタニチョウ","prefecture_code":26},"0314":{"zip_code":"6010314","prefecture":"京都府","prefecture_kana":"キョウトフ","city":"京都市右京区","city_kana":"キョウトシウキョウク","town":"京北大野町","town_kana":"ケイホクオオノチョウ","prefecture_code":26},"0311":{"zip_code":"6010311","prefecture":"京都府","prefecture_kana":"キョウトフ","city":"京都市右京区","city_kana":"キョウトシウキョウク","town":"京北小塩町","town_kana":"ケイホクオシオチョウ","prefecture_code":26},"0261":{"zip_code":"6010261","prefecture":"京都府","prefecture_kana":"キョウトフ","city":"京都市右京区","city_kana":"キョウトシウキョウク","town":"京北柏原町","town_kana":"ケイホクカシワラチョウ","prefecture_code":26},"0401":{"zip_code":"6010401","prefecture":"京都府","prefecture_kana":"キョウトフ","city":"京都市右京区","city_kana":"キョウトシウキョウク","town":"京北片波町","town_kana":"ケイホクカタナミチョウ","prefecture_code":26},"0402":{"zip_code":"6010402","prefecture":"京都府","prefecture_kana":"キョウトフ","city":"京都市右京区","city_kana":"キョウトシウキョウク","town":"京北上黒田町","town_kana":"ケイホクカミクロダチョウ","prefecture_code":26},"0532":{"zip_code":"6010532","prefecture":"京都府","prefecture_kana":"キョウトフ","city":"京都市右京区","city_kana":"キョウトシウキョウク","town":"京北上中町","town_kana":"ケイホクカミナカチョウ","prefecture_code":26},"0531":{"zip_code":"6010531","prefecture":"京都府","prefecture_kana":"キョウトフ","city":"京都市右京区","city_kana":"キョウトシウキョウク","town":"京北上弓削町","town_kana":"ケイホクカミユゲチョウ","prefecture_code":26},"0271":{"zip_code":"6010271","prefecture":"京都府","prefecture_kana":"キョウトフ","city":"京都市右京区","city_kana":"キョウトシウキョウク","town":"京北熊田町","town_kana":"ケイホククマタチョウ","prefecture_code":26},"0252":{"zip_code":"6010252","prefecture":"京都府","prefecture_kana":"キョウトフ","city":"京都市右京区","city_kana":"キョウトシウキョウク","town":"京北五本松町","town_kana":"ケイホクゴホンマツチョウ","prefecture_code":26},"0536":{"zip_code":"6010536","prefecture":"京都府","prefecture_kana":"キョウトフ","city":"京都市右京区","city_kana":"キョウトシウキョウク","town":"京北塩田町","town_kana":"ケイホクシオタチョウ","prefecture_code":26},"0543":{"zip_code":"6010543","prefecture":"京都府","prefecture_kana":"キョウトフ","city":"京都市右京区","city_kana":"キョウトシウキョウク","town":"京北室谷町","town_kana":"ケイホクシツタンチョウ","prefecture_code":26},"0266":{"zip_code":"6010266","prefecture":"京都府","prefecture_kana":"キョウトフ","city":"京都市右京区","city_kana":"キョウトシウキョウク","town":"京北下宇津町","town_kana":"ケイホクシモウツチョウ","prefecture_code":26},"0272":{"zip_code":"6010272","prefecture":"京都府","prefecture_kana":"キョウトフ","city":"京都市右京区","city_kana":"キョウトシウキョウク","town":"京北下熊田町","town_kana":"ケイホクシモクマタチョウ","prefecture_code":26},"0405":{"zip_code":"6010405","prefecture":"京都府","prefecture_kana":"キョウトフ","city":"京都市右京区","city_kana":"キョウトシウキョウク","town":"京北下黒田町","town_kana":"ケイホクシモクロダチョウ","prefecture_code":26},"0324":{"zip_code":"6010324","prefecture":"京都府","prefecture_kana":"キョウトフ","city":"京都市右京区","city_kana":"キョウトシウキョウク","town":"京北下町","town_kana":"ケイホクシモチョウ","prefecture_code":26},"0533":{"zip_code":"6010533","prefecture":"京都府","prefecture_kana":"キョウトフ","city":"京都市右京区","city_kana":"キョウトシウキョウク","town":"京北下中町","town_kana":"ケイホクシモナカチョウ","prefecture_code":26},"0534":{"zip_code":"6010534","prefecture":"京都府","prefecture_kana":"キョウトフ","city":"京都市右京区","city_kana":"キョウトシウキョウク","town":"京北下弓削町","town_kana":"ケイホクシモユゲチョウ","prefecture_code":26},"0251":{"zip_code":"6010251","prefecture":"京都府","prefecture_kana":"キョウトフ","city":"京都市右京区","city_kana":"キョウトシウキョウク","town":"京北周山町","town_kana":"ケイホクシュウザンチョウ","prefecture_code":26},"0404":{"zip_code":"6010404","prefecture":"京都府","prefecture_kana":"キョウトフ","city":"京都市右京区","city_kana":"キョウトシウキョウク","town":"京北芹生町","town_kana":"ケイホクセリョウチョウ","prefecture_code":26},"0542":{"zip_code":"6010542","prefecture":"京都府","prefecture_kana":"キョウトフ","city":"京都市右京区","city_kana":"キョウトシウキョウク","town":"京北田貫町","town_kana":"ケイホクタヌキチョウ","prefecture_code":26},"0265":{"zip_code":"6010265","prefecture":"京都府","prefecture_kana":"キョウトフ","city":"京都市右京区","city_kana":"キョウトシウキョウク","town":"京北中地町","town_kana":"ケイホクチュウジチョウ","prefecture_code":26},"0322":{"zip_code":"6010322","prefecture":"京都府","prefecture_kana":"キョウトフ","city":"京都市右京区","city_kana":"キョウトシウキョウク","town":"京北辻町","town_kana":"ケイホクツジチョウ","prefecture_code":26},"0321":{"zip_code":"6010321","prefecture":"京都府","prefecture_kana":"キョウトフ","city":"京都市右京区","city_kana":"キョウトシウキョウク","town":"京北塔町","town_kana":"ケイホクトウチョウ","prefecture_code":26},"0264":{"zip_code":"6010264","prefecture":"京都府","prefecture_kana":"キョウトフ","city":"京都市右京区","city_kana":"キョウトシウキョウク","town":"京北栃本町","town_kana":"ケイホクトチモトチョウ","prefecture_code":26},"0323":{"zip_code":"6010323","prefecture":"京都府","prefecture_kana":"キョウトフ","city":"京都市右京区","city_kana":"キョウトシウキョウク","town":"京北鳥居町","town_kana":"ケイホクトリイチョウ","prefecture_code":26},"0315":{"zip_code":"6010315","prefecture":"京都府","prefecture_kana":"キョウトフ","city":"京都市右京区","city_kana":"キョウトシウキョウク","town":"京北中江町","town_kana":"ケイホクナカエチョウ","prefecture_code":26},"0276":{"zip_code":"6010276","prefecture":"京都府","prefecture_kana":"キョウトフ","city":"京都市右京区","city_kana":"キョウトシウキョウク","town":"京北西町","town_kana":"ケイホクニシチョウ","prefecture_code":26},"0403":{"zip_code":"6010403","prefecture":"京都府","prefecture_kana":"キョウトフ","city":"京都市右京区","city_kana":"キョウトシウキョウク","town":"京北灰屋町","town_kana":"ケイホクハイヤチョウ","prefecture_code":26},"0312":{"zip_code":"6010312","prefecture":"京都府","prefecture_kana":"キョウトフ","city":"京都市右京区","city_kana":"キョウトシウキョウク","town":"京北初川町","town_kana":"ケイホクハツカワチョウ","prefecture_code":26},"0316":{"zip_code":"6010316","prefecture":"京都府","prefecture_kana":"キョウトフ","city":"京都市右京区","city_kana":"キョウトシウキョウク","town":"京北比賀江町","town_kana":"ケイホクヒガエチョウ","prefecture_code":26},"0262":{"zip_code":"6010262","prefecture":"京都府","prefecture_kana":"キョウトフ","city":"京都市右京区","city_kana":"キョウトシウキョウク","town":"京北細野町","town_kana":"ケイホクホソノチョウ","prefecture_code":26},"0406":{"zip_code":"6010406","prefecture":"京都府","prefecture_kana":"キョウトフ","city":"京都市右京区","city_kana":"キョウトシウキョウク","town":"京北宮町","town_kana":"ケイホクミヤチョウ","prefecture_code":26},"0278":{"zip_code":"6010278","prefecture":"京都府","prefecture_kana":"キョウトフ","city":"京都市右京区","city_kana":"キョウトシウキョウク","town":"京北矢代中町","town_kana":"ケイホクヤシロナカチョウ","prefecture_code":26},"0263":{"zip_code":"6010263","prefecture":"京都府","prefecture_kana":"キョウトフ","city":"京都市右京区","city_kana":"キョウトシウキョウク","town":"京北弓槻町","town_kana":"ケイホクユヅキチョウ","prefecture_code":26},"1432":{"zip_code":"6011432","prefecture":"京都府","prefecture_kana":"キョウトフ","city":"京都市伏見区","city_kana":"キョウトシフシミク","town":"石田内里町","town_kana":"イシダウチサトチョウ","prefecture_code":26},"1431":{"zip_code":"6011431","prefecture":"京都府","prefecture_kana":"キョウトフ","city":"京都市伏見区","city_kana":"キョウトシフシミク","town":"石田大受町","town_kana":"イシダオオウケチョウ","prefecture_code":26},"1433":{"zip_code":"6011433","prefecture":"京都府","prefecture_kana":"キョウトフ","city":"京都市伏見区","city_kana":"キョウトシフシミク","town":"石田大山町","town_kana":"イシダオオヤマチョウ","prefecture_code":26},"1438":{"zip_code":"6011438","prefecture":"京都府","prefecture_kana":"キョウトフ","city":"京都市伏見区","city_kana":"キョウトシフシミク","town":"石田川向","town_kana":"イシダカワムカイ","prefecture_code":26},"1435":{"zip_code":"6011435","prefecture":"京都府","prefecture_kana":"キョウトフ","city":"京都市伏見区","city_kana":"キョウトシフシミク","town":"石田桜木","town_kana":"イシダサクラギ","prefecture_code":26},"1436":{"zip_code":"6011436","prefecture":"京都府","prefecture_kana":"キョウトフ","city":"京都市伏見区","city_kana":"キョウトシフシミク","town":"石田西ノ坪","town_kana":"イシダニシノツボ","prefecture_code":26},"1437":{"zip_code":"6011437","prefecture":"京都府","prefecture_kana":"キョウトフ","city":"京都市伏見区","city_kana":"キョウトシフシミク","town":"石田森西","town_kana":"イシダモリニシ","prefecture_code":26},"1439":{"zip_code":"6011439","prefecture":"京都府","prefecture_kana":"キョウトフ","city":"京都市伏見区","city_kana":"キョウトシフシミク","town":"石田森東町","town_kana":"イシダモリヒガシチョウ","prefecture_code":26},"1434":{"zip_code":"6011434","prefecture":"京都府","prefecture_kana":"キョウトフ","city":"京都市伏見区","city_kana":"キョウトシフシミク","town":"石田森南町","town_kana":"イシダモリミナミチョウ","prefecture_code":26},"1464":{"zip_code":"6011464","prefecture":"京都府","prefecture_kana":"キョウトフ","city":"京都市伏見区","city_kana":"キョウトシフシミク","town":"小栗栖石川町","town_kana":"オグリスイシカワチョウ","prefecture_code":26},"1443":{"zip_code":"6011443","prefecture":"京都府","prefecture_kana":"キョウトフ","city":"京都市伏見区","city_kana":"キョウトシフシミク","town":"小栗栖岩ケ渕町","town_kana":"オグリスイワガフチチョウ","prefecture_code":26},"1444":{"zip_code":"6011444","prefecture":"京都府","prefecture_kana":"キョウトフ","city":"京都市伏見区","city_kana":"キョウトシフシミク","town":"小栗栖牛ケ渕町","town_kana":"オグリスウシガフチチョウ","prefecture_code":26},"1446":{"zip_code":"6011446","prefecture":"京都府","prefecture_kana":"キョウトフ","city":"京都市伏見区","city_kana":"キョウトシフシミク","town":"小栗栖北後藤町","town_kana":"オグリスキタゴトウチョウ","prefecture_code":26},"1441":{"zip_code":"6011441","prefecture":"京都府","prefecture_kana":"キョウトフ","city":"京都市伏見区","city_kana":"キョウトシフシミク","town":"小栗栖北谷町","town_kana":"オグリスキタダニチョウ","prefecture_code":26},"1455":{"zip_code":"6011455","prefecture":"京都府","prefecture_kana":"キョウトフ","city":"京都市伏見区","city_kana":"キョウトシフシミク","town":"小栗栖小阪町","town_kana":"オグリスコサカチョウ","prefecture_code":26},"1463":{"zip_code":"6011463","prefecture":"京都府","prefecture_kana":"キョウトフ","city":"京都市伏見区","city_kana":"キョウトシフシミク","town":"小栗栖中山田町","town_kana":"オグリスナカヤマダチョウ","prefecture_code":26},"1453":{"zip_code":"6011453","prefecture":"京都府","prefecture_kana":"キョウトフ","city":"京都市伏見区","city_kana":"キョウトシフシミク","town":"小栗栖西谷町","town_kana":"オグリスニシダニチョウ","prefecture_code":26},"1452":{"zip_code":"6011452","prefecture":"京都府","prefecture_kana":"キョウトフ","city":"京都市伏見区","city_kana":"キョウトシフシミク","town":"小栗栖西ノ峯","town_kana":"オグリスニシノミネ","prefecture_code":26},"1451":{"zip_code":"6011451","prefecture":"京都府","prefecture_kana":"キョウトフ","city":"京都市伏見区","city_kana":"キョウトシフシミク","town":"小栗栖鉢伏","town_kana":"オグリスハチフセ","prefecture_code":26},"1442":{"zip_code":"6011442","prefecture":"京都府","prefecture_kana":"キョウトフ","city":"京都市伏見区","city_kana":"キョウトシフシミク","town":"小栗栖丸山","town_kana":"オグリスマルヤマ","prefecture_code":26},"1456":{"zip_code":"6011456","prefecture":"京都府","prefecture_kana":"キョウトフ","city":"京都市伏見区","city_kana":"キョウトシフシミク","town":"小栗栖南後藤町","town_kana":"オグリスミナミゴトウチョウ","prefecture_code":26},"1461":{"zip_code":"6011461","prefecture":"京都府","prefecture_kana":"キョウトフ","city":"京都市伏見区","city_kana":"キョウトシフシミク","town":"小栗栖宮山","town_kana":"オグリスミヤヤマ","prefecture_code":26},"1445":{"zip_code":"6011445","prefecture":"京都府","prefecture_kana":"キョウトフ","city":"京都市伏見区","city_kana":"キョウトシフシミク","town":"小栗栖森ケ渕町","town_kana":"オグリスモリガフチチョウ","prefecture_code":26},"1462":{"zip_code":"6011462","prefecture":"京都府","prefecture_kana":"キョウトフ","city":"京都市伏見区","city_kana":"キョウトシフシミク","town":"小栗栖森本町","town_kana":"オグリスモリモトチョウ","prefecture_code":26},"1454":{"zip_code":"6011454","prefecture":"京都府","prefecture_kana":"キョウトフ","city":"京都市伏見区","city_kana":"キョウトシフシミク","town":"小栗栖山口町","town_kana":"オグリスヤマグチチョウ","prefecture_code":26},"1347":{"zip_code":"6011347","prefecture":"京都府","prefecture_kana":"キョウトフ","city":"京都市伏見区","city_kana":"キョウトシフシミク","town":"醍醐合場町","town_kana":"ダイゴアイバチョウ","prefecture_code":26},"1323":{"zip_code":"6011323","prefecture":"京都府","prefecture_kana":"キョウトフ","city":"京都市伏見区","city_kana":"キョウトシフシミク","town":"醍醐赤間南裏町","town_kana":"ダイゴアカマミナミウラチョウ","prefecture_code":26},"1362":{"zip_code":"6011362","prefecture":"京都府","prefecture_kana":"キョウトフ","city":"京都市伏見区","city_kana":"キョウトシフシミク","town":"醍醐池田町","town_kana":"ダイゴイケダチョウ","prefecture_code":26},"1351":{"zip_code":"6011351","prefecture":"京都府","prefecture_kana":"キョウトフ","city":"京都市伏見区","city_kana":"キョウトシフシミク","town":"醍醐和泉町","town_kana":"ダイゴイズミチョウ","prefecture_code":26},"1335":{"zip_code":"6011335","prefecture":"京都府","prefecture_kana":"キョウトフ","city":"京都市伏見区","city_kana":"キョウトシフシミク","town":"醍醐一言寺裏町","town_kana":"ダイゴイチゴンジウラチョウ","prefecture_code":26},"1387":{"zip_code":"6011387","prefecture":"京都府","prefecture_kana":"キョウトフ","city":"京都市伏見区","city_kana":"キョウトシフシミク","town":"醍醐二ノ切町","town_kana":"ダイゴニノキリチョウ","prefecture_code":26},"1371":{"zip_code":"6011371","prefecture":"京都府","prefecture_kana":"キョウトフ","city":"京都市伏見区","city_kana":"キョウトシフシミク","town":"醍醐上ノ山町","town_kana":"ダイゴウエノヤマチョウ","prefecture_code":26},"1302":{"zip_code":"6011302","prefecture":"京都府","prefecture_kana":"キョウトフ","city":"京都市伏見区","city_kana":"キョウトシフシミク","town":"醍醐内ケ井戸","town_kana":"ダイゴウチガイド","prefecture_code":26},"1364":{"zip_code":"6011364","prefecture":"京都府","prefecture_kana":"キョウトフ","city":"京都市伏見区","city_kana":"キョウトシフシミク","town":"醍醐江奈志町","town_kana":"ダイゴエナシチョウ","prefecture_code":26},"1366":{"zip_code":"6011366","prefecture":"京都府","prefecture_kana":"キョウトフ","city":"京都市伏見区","city_kana":"キョウトシフシミク","town":"醍醐大構町","town_kana":"ダイゴオオカマエチョウ","prefecture_code":26},"1311":{"zip_code":"6011311","prefecture":"京都府","prefecture_kana":"キョウトフ","city":"京都市伏見区","city_kana":"キョウトシフシミク","town":"醍醐大高町","town_kana":"ダイゴオオタカチョウ","prefecture_code":26},"1303":{"zip_code":"6011303","prefecture":"京都府","prefecture_kana":"キョウトフ","city":"京都市伏見区","city_kana":"キョウトシフシミク","town":"醍醐大畑町","town_kana":"ダイゴオオハタチョウ","prefecture_code":26},"1338":{"zip_code":"6011338","prefecture":"京都府","prefecture_kana":"キョウトフ","city":"京都市伏見区","city_kana":"キョウトシフシミク","town":"醍醐落保町","town_kana":"ダイゴオチボチョウ","prefecture_code":26},"1376":{"zip_code":"6011376","prefecture":"京都府","prefecture_kana":"キョウトフ","city":"京都市伏見区","city_kana":"キョウトシフシミク","town":"醍醐折戸町","town_kana":"ダイゴオリドチョウ","prefecture_code":26},"1363":{"zip_code":"6011363","prefecture":"京都府","prefecture_kana":"キョウトフ","city":"京都市伏見区","city_kana":"キョウトシフシミク","town":"醍醐鍵尾町","town_kana":"ダイゴカギオチョウ","prefecture_code":26},"1305":{"zip_code":"6011305","prefecture":"京都府","prefecture_kana":"キョウトフ","city":"京都市伏見区","city_kana":"キョウトシフシミク","town":"醍醐柿原町","town_kana":"ダイゴカキハラチョウ","prefecture_code":26},"1336":{"zip_code":"6011336","prefecture":"京都府","prefecture_kana":"キョウトフ","city":"京都市伏見区","city_kana":"キョウトシフシミク","town":"醍醐柏森町","town_kana":"ダイゴカシワモリチョウ","prefecture_code":26},"1312":{"zip_code":"6011312","prefecture":"京都府","prefecture_kana":"キョウトフ","city":"京都市伏見区","city_kana":"キョウトシフシミク","town":"醍醐片山町","town_kana":"ダイゴカタヤマチョウ","prefecture_code":26},"1354":{"zip_code":"6011354","prefecture":"京都府","prefecture_kana":"キョウトフ","city":"京都市伏見区","city_kana":"キョウトシフシミク","town":"醍醐構口町","town_kana":"ダイゴカマエグチチョウ","prefecture_code":26},"1333":{"zip_code":"6011333","prefecture":"京都府","prefecture_kana":"キョウトフ","city":"京都市伏見区","city_kana":"キョウトシフシミク","town":"醍醐上端山町","town_kana":"ダイゴカミハヤマチョウ","prefecture_code":26},"1342":{"zip_code":"6011342","prefecture":"京都府","prefecture_kana":"キョウトフ","city":"京都市伏見区","city_kana":"キョウトシフシミク","town":"醍醐上山口町","town_kana":"ダイゴカミヤマグチチョウ","prefecture_code":26},"1301":{"zip_code":"6011301","prefecture":"京都府","prefecture_kana":"キョウトフ","city":"京都市伏見区","city_kana":"キョウトシフシミク","town":"醍醐上山田","town_kana":"ダイゴカミヤマダ","prefecture_code":26},"1315":{"zip_code":"6011315","prefecture":"京都府","prefecture_kana":"キョウトフ","city":"京都市伏見区","city_kana":"キョウトシフシミク","town":"醍醐烏橋町","town_kana":"ダイゴカラスバシチョウ","prefecture_code":26},"1324":{"zip_code":"6011324","prefecture":"京都府","prefecture_kana":"キョウトフ","city":"京都市伏見区","city_kana":"キョウトシフシミク","town":"醍醐伽藍町","town_kana":"ダイゴガランチョウ","prefecture_code":26},"1378":{"zip_code":"6011378","prefecture":"京都府","prefecture_kana":"キョウトフ","city":"京都市伏見区","city_kana":"キョウトシフシミク","town":"醍醐川久保町","town_kana":"ダイゴカワクボチョウ","prefecture_code":26},"1341":{"zip_code":"6011341","prefecture":"京都府","prefecture_kana":"キョウトフ","city":"京都市伏見区","city_kana":"キョウトシフシミク","town":"醍醐岸ノ上町","town_kana":"ダイゴキシノウエチョウ","prefecture_code":26},"1322":{"zip_code":"6011322","prefecture":"京都府","prefecture_kana":"キョウトフ","city":"京都市伏見区","city_kana":"キョウトシフシミク","town":"醍醐北伽藍町","town_kana":"ダイゴキタガランチョウ","prefecture_code":26},"1381":{"zip_code":"6011381","prefecture":"京都府","prefecture_kana":"キョウトフ","city":"京都市伏見区","city_kana":"キョウトシフシミク","town":"醍醐北谷","town_kana":"ダイゴキタダニ","prefecture_code":26},"1377":{"zip_code":"6011377","prefecture":"京都府","prefecture_kana":"キョウトフ","city":"京都市伏見区","city_kana":"キョウトシフシミク","town":"醍醐北西裏町","town_kana":"ダイゴキタニシウラチョウ","prefecture_code":26},"1321":{"zip_code":"6011321","prefecture":"京都府","prefecture_kana":"キョウトフ","city":"京都市伏見区","city_kana":"キョウトシフシミク","town":"醍醐北端山","town_kana":"ダイゴキタハヤマ","prefecture_code":26},"1317":{"zip_code":"6011317","prefecture":"京都府","prefecture_kana":"キョウトフ","city":"京都市伏見区","city_kana":"キョウトシフシミク","town":"醍醐京道町","town_kana":"ダイゴキョウミチチョウ","prefecture_code":26},"1327":{"zip_code":"6011327","prefecture":"京都府","prefecture_kana":"キョウトフ","city":"京都市伏見区","city_kana":"キョウトシフシミク","town":"醍醐切レ戸町","town_kana":"ダイゴキレドチョウ","prefecture_code":26},"1308":{"zip_code":"6011308","prefecture":"京都府","prefecture_kana":"キョウトフ","city":"京都市伏見区","city_kana":"キョウトシフシミク","town":"醍醐御所ノ内","town_kana":"ダイゴゴショノウチ","prefecture_code":26},"1361":{"zip_code":"6011361","prefecture":"京都府","prefecture_kana":"キョウトフ","city":"京都市伏見区","city_kana":"キョウトシフシミク","town":"醍醐御霊ケ下町","town_kana":"ダイゴゴリョウガシタチョウ","prefecture_code":26},"1314":{"zip_code":"6011314","prefecture":"京都府","prefecture_kana":"キョウトフ","city":"京都市伏見区","city_kana":"キョウトシフシミク","town":"醍醐御陵西裏町","town_kana":"ダイゴゴリョウニシウラチョウ","prefecture_code":26},"1313":{"zip_code":"6011313","prefecture":"京都府","prefecture_kana":"キョウトフ","city":"京都市伏見区","city_kana":"キョウトシフシミク","town":"醍醐御陵東裏町","town_kana":"ダイゴゴリョウヒガシウラチョウ","prefecture_code":26},"1332":{"zip_code":"6011332","prefecture":"京都府","prefecture_kana":"キョウトフ","city":"京都市伏見区","city_kana":"キョウトシフシミク","town":"醍醐下端山町","town_kana":"ダイゴシモハヤマチョウ","prefecture_code":26},"1343":{"zip_code":"6011343","prefecture":"京都府","prefecture_kana":"キョウトフ","city":"京都市伏見区","city_kana":"キョウトシフシミク","town":"醍醐下山口町","town_kana":"ダイゴシモヤマグチチョウ","prefecture_code":26},"1334":{"zip_code":"6011334","prefecture":"京都府","prefecture_kana":"キョウトフ","city":"京都市伏見区","city_kana":"キョウトシフシミク","town":"醍醐勝口町","town_kana":"ダイゴショウクチチョウ","prefecture_code":26},"1365":{"zip_code":"6011365","prefecture":"京都府","prefecture_kana":"キョウトフ","city":"京都市伏見区","city_kana":"キョウトシフシミク","town":"醍醐新開","town_kana":"ダイゴシンカイ","prefecture_code":26},"1326":{"zip_code":"6011326","prefecture":"京都府","prefecture_kana":"キョウトフ","city":"京都市伏見区","city_kana":"キョウトシフシミク","town":"醍醐新町裏町","town_kana":"ダイゴシンマチウラマチ","prefecture_code":26},"1345":{"zip_code":"6011345","prefecture":"京都府","prefecture_kana":"キョウトフ","city":"京都市伏見区","city_kana":"キョウトシフシミク","town":"醍醐外山街道町","town_kana":"ダイゴソトヤマカイドウチョウ","prefecture_code":26},"1383":{"zip_code":"6011383","prefecture":"京都府","prefecture_kana":"キョウトフ","city":"京都市伏見区","city_kana":"キョウトシフシミク","town":"醍醐醍醐山","town_kana":"ダイゴダイゴヤマ","prefecture_code":26},"1384":{"zip_code":"6011384","prefecture":"京都府","prefecture_kana":"キョウトフ","city":"京都市伏見区","city_kana":"キョウトシフシミク","town":"醍醐高田","town_kana":"ダイゴタカダ","prefecture_code":26},"1375":{"zip_code":"6011375","prefecture":"京都府","prefecture_kana":"キョウトフ","city":"京都市伏見区","city_kana":"キョウトシフシミク","town":"醍醐高畑町","town_kana":"ダイゴタカハタチョウ","prefecture_code":26},"1355":{"zip_code":"6011355","prefecture":"京都府","prefecture_kana":"キョウトフ","city":"京都市伏見区","city_kana":"キョウトシフシミク","town":"醍醐多近田町","town_kana":"ダイゴタコンダチョウ","prefecture_code":26},"1344":{"zip_code":"6011344","prefecture":"京都府","prefecture_kana":"キョウトフ","city":"京都市伏見区","city_kana":"キョウトシフシミク","town":"醍醐辰巳町","town_kana":"ダイゴタツミチョウ","prefecture_code":26},"1386":{"zip_code":"6011386","prefecture":"京都府","prefecture_kana":"キョウトフ","city":"京都市伏見区","city_kana":"キョウトシフシミク","town":"醍醐陀羅谷","town_kana":"ダイゴダラタニ","prefecture_code":26},"1357":{"zip_code":"6011357","prefecture":"京都府","prefecture_kana":"キョウトフ","city":"京都市伏見区","city_kana":"キョウトシフシミク","town":"醍醐僧尊坊町","town_kana":"ダイゴドドンボウチョウ","prefecture_code":26},"1373":{"zip_code":"6011373","prefecture":"京都府","prefecture_kana":"キョウトフ","city":"京都市伏見区","city_kana":"キョウトシフシミク","town":"醍醐中山町","town_kana":"ダイゴナカヤマチョウ","prefecture_code":26},"1374":{"zip_code":"6011374","prefecture":"京都府","prefecture_kana":"キョウトフ","city":"京都市伏見区","city_kana":"キョウトシフシミク","town":"醍醐西大路町","town_kana":"ダイゴニシオオジチョウ","prefecture_code":26},"1307":{"zip_code":"6011307","prefecture":"京都府","prefecture_kana":"キョウトフ","city":"京都市伏見区","city_kana":"キョウトシフシミク","town":"醍醐狭間","town_kana":"ダイゴハザマ","prefecture_code":26},"1346":{"zip_code":"6011346","prefecture":"京都府","prefecture_kana":"キョウトフ","city":"京都市伏見区","city_kana":"キョウトシフシミク","town":"醍醐東合場町","town_kana":"ダイゴヒガシアイバチョウ","prefecture_code":26},"1325":{"zip_code":"6011325","prefecture":"京都府","prefecture_kana":"キョウトフ","city":"京都市伏見区","city_kana":"キョウトシフシミク","town":"醍醐東大路町","town_kana":"ダイゴヒガシオオジチョウ","prefecture_code":26},"1372":{"zip_code":"6011372","prefecture":"京都府","prefecture_kana":"キョウトフ","city":"京都市伏見区","city_kana":"キョウトシフシミク","town":"醍醐平松町","town_kana":"ダイゴヒラマツチョウ","prefecture_code":26},"1316":{"zip_code":"6011316","prefecture":"京都府","prefecture_kana":"キョウトフ","city":"京都市伏見区","city_kana":"キョウトシフシミク","town":"醍醐古道町","town_kana":"ダイゴフルミチチョウ","prefecture_code":26},"1337":{"zip_code":"6011337","prefecture":"京都府","prefecture_kana":"キョウトフ","city":"京都市伏見区","city_kana":"キョウトシフシミク","town":"醍醐槇ノ内町","town_kana":"ダイゴマキノウチチョウ","prefecture_code":26},"1318":{"zip_code":"6011318","prefecture":"京都府","prefecture_kana":"キョウトフ","city":"京都市伏見区","city_kana":"キョウトシフシミク","town":"醍醐廻り戸町","town_kana":"ダイゴマワリドチョウ","prefecture_code":26},"1353":{"zip_code":"6011353","prefecture":"京都府","prefecture_kana":"キョウトフ","city":"京都市伏見区","city_kana":"キョウトシフシミク","town":"醍醐御園尾町","town_kana":"ダイゴミソノオチョウ","prefecture_code":26},"1352":{"zip_code":"6011352","prefecture":"京都府","prefecture_kana":"キョウトフ","city":"京都市伏見区","city_kana":"キョウトシフシミク","town":"醍醐南里町","town_kana":"ダイゴミナミサトチョウ","prefecture_code":26},"1382":{"zip_code":"6011382","prefecture":"京都府","prefecture_kana":"キョウトフ","city":"京都市伏見区","city_kana":"キョウトシフシミク","town":"醍醐南谷","town_kana":"ダイゴミナミダニ","prefecture_code":26},"1356":{"zip_code":"6011356","prefecture":"京都府","prefecture_kana":"キョウトフ","city":"京都市伏見区","city_kana":"キョウトシフシミク","town":"醍醐南西裏町","town_kana":"ダイゴミナミニシウラチョウ","prefecture_code":26},"1331":{"zip_code":"6011331","prefecture":"京都府","prefecture_kana":"キョウトフ","city":"京都市伏見区","city_kana":"キョウトシフシミク","town":"醍醐南端山町","town_kana":"ダイゴミナミハヤマチョウ","prefecture_code":26},"1385":{"zip_code":"6011385","prefecture":"京都府","prefecture_kana":"キョウトフ","city":"京都市伏見区","city_kana":"キョウトシフシミク","town":"醍醐宮ノ下町","town_kana":"ダイゴミヤノシタチョウ","prefecture_code":26},"1304":{"zip_code":"6011304","prefecture":"京都府","prefecture_kana":"キョウトフ","city":"京都市伏見区","city_kana":"キョウトシフシミク","town":"醍醐山ケ鼻","town_kana":"ダイゴヤマガハナ","prefecture_code":26},"1306":{"zip_code":"6011306","prefecture":"京都府","prefecture_kana":"キョウトフ","city":"京都市伏見区","city_kana":"キョウトシフシミク","town":"醍醐連蔵","town_kana":"ダイゴレンゾウ","prefecture_code":26},"1416":{"zip_code":"6011416","prefecture":"京都府","prefecture_kana":"キョウトフ","city":"京都市伏見区","city_kana":"キョウトシフシミク","town":"日野岡西町","town_kana":"ヒノオカニシチョウ","prefecture_code":26},"1414":{"zip_code":"6011414","prefecture":"京都府","prefecture_kana":"キョウトフ","city":"京都市伏見区","city_kana":"キョウトシフシミク","town":"日野奥出","town_kana":"ヒノオクデ","prefecture_code":26},"1404":{"zip_code":"6011404","prefecture":"京都府","prefecture_kana":"キョウトフ","city":"京都市伏見区","city_kana":"キョウトシフシミク","town":"日野北川頬","town_kana":"ヒノキタカワヅラ","prefecture_code":26},"1401":{"zip_code":"6011401","prefecture":"京都府","prefecture_kana":"キョウトフ","city":"京都市伏見区","city_kana":"キョウトシフシミク","town":"日野北山","town_kana":"ヒノキタヤマ","prefecture_code":26},"1411":{"zip_code":"6011411","prefecture":"京都府","prefecture_kana":"キョウトフ","city":"京都市伏見区","city_kana":"キョウトシフシミク","town":"日野慈悲町","town_kana":"ヒノジヒチョウ","prefecture_code":26},"1424":{"zip_code":"6011424","prefecture":"京都府","prefecture_kana":"キョウトフ","city":"京都市伏見区","city_kana":"キョウトシフシミク","town":"日野田頬町","town_kana":"ヒノタヅラチョウ","prefecture_code":26},"1425":{"zip_code":"6011425","prefecture":"京都府","prefecture_kana":"キョウトフ","city":"京都市伏見区","city_kana":"キョウトシフシミク","town":"日野田中町","town_kana":"ヒノタナカチョウ","prefecture_code":26},"1413":{"zip_code":"6011413","prefecture":"京都府","prefecture_kana":"キョウトフ","city":"京都市伏見区","city_kana":"キョウトシフシミク","town":"日野谷田町","town_kana":"ヒノタニダチョウ","prefecture_code":26},"1406":{"zip_code":"6011406","prefecture":"京都府","prefecture_kana":"キョウトフ","city":"京都市伏見区","city_kana":"キョウトシフシミク","town":"日野谷寺町","town_kana":"ヒノタニデラチョウ","prefecture_code":26},"1426":{"zip_code":"6011426","prefecture":"京都府","prefecture_kana":"キョウトフ","city":"京都市伏見区","city_kana":"キョウトシフシミク","town":"日野西川頬","town_kana":"ヒノニシカワヅラ","prefecture_code":26},"1417":{"zip_code":"6011417","prefecture":"京都府","prefecture_kana":"キョウトフ","city":"京都市伏見区","city_kana":"キョウトシフシミク","town":"日野西大道町","town_kana":"ヒノニシダイドウチョウ","prefecture_code":26},"1423":{"zip_code":"6011423","prefecture":"京都府","prefecture_kana":"キョウトフ","city":"京都市伏見区","city_kana":"キョウトシフシミク","town":"日野西風呂町","town_kana":"ヒノニシフロチョウ","prefecture_code":26},"1415":{"zip_code":"6011415","prefecture":"京都府","prefecture_kana":"キョウトフ","city":"京都市伏見区","city_kana":"キョウトシフシミク","town":"日野野色町","town_kana":"ヒノノイロチョウ","prefecture_code":26},"1412":{"zip_code":"6011412","prefecture":"京都府","prefecture_kana":"キョウトフ","city":"京都市伏見区","city_kana":"キョウトシフシミク","town":"日野畑出町","town_kana":"ヒノハタデチョウ","prefecture_code":26},"1405":{"zip_code":"6011405","prefecture":"京都府","prefecture_kana":"キョウトフ","city":"京都市伏見区","city_kana":"キョウトシフシミク","town":"日野林","town_kana":"ヒノハヤシ","prefecture_code":26},"1421":{"zip_code":"6011421","prefecture":"京都府","prefecture_kana":"キョウトフ","city":"京都市伏見区","city_kana":"キョウトシフシミク","town":"日野馬場出町","town_kana":"ヒノバンバテチョウ","prefecture_code":26},"1422":{"zip_code":"6011422","prefecture":"京都府","prefecture_kana":"キョウトフ","city":"京都市伏見区","city_kana":"キョウトシフシミク","town":"日野不動講町","town_kana":"ヒノフドウコウチョウ","prefecture_code":26},"1403":{"zip_code":"6011403","prefecture":"京都府","prefecture_kana":"キョウトフ","city":"京都市伏見区","city_kana":"キョウトシフシミク","town":"日野船尾","town_kana":"ヒノフナオ","prefecture_code":26},"1402":{"zip_code":"6011402","prefecture":"京都府","prefecture_kana":"キョウトフ","city":"京都市伏見区","city_kana":"キョウトシフシミク","town":"日野南山","town_kana":"ヒノミナミヤマ","prefecture_code":26},"1394":{"zip_code":"6011394","prefecture":"京都府","prefecture_kana":"キョウトフ","city":"宇治市","city_kana":"ウジシ","town":"池尾","town_kana":"イケノオ","prefecture_code":26},"1395":{"zip_code":"6011395","prefecture":"京都府","prefecture_kana":"キョウトフ","city":"宇治市","city_kana":"ウジシ","town":"炭山","town_kana":"スミヤマ","prefecture_code":26},"1396":{"zip_code":"6011396","prefecture":"京都府","prefecture_kana":"キョウトフ","city":"宇治市","city_kana":"ウジシ","town":"莵道東垣内","town_kana":"トドウヒガシガイト","prefecture_code":26},"1393":{"zip_code":"6011393","prefecture":"京都府","prefecture_kana":"キョウトフ","city":"宇治市","city_kana":"ウジシ","town":"二尾","town_kana":"ニオ","prefecture_code":26},"1392":{"zip_code":"6011392","prefecture":"京都府","prefecture_kana":"キョウトフ","city":"宇治市","city_kana":"ウジシ","town":"西笠取","town_kana":"ニシカサトリ","prefecture_code":26},"1391":{"zip_code":"6011391","prefecture":"京都府","prefecture_kana":"キョウトフ","city":"宇治市","city_kana":"ウジシ","town":"東笠取","town_kana":"ヒガシカサトリ","prefecture_code":26},"0722":{"zip_code":"6010722","prefecture":"京都府","prefecture_kana":"キョウトフ","city":"南丹市","city_kana":"ナンタンシ","town":"美山町安掛","town_kana":"ミヤマチョウアガケ","prefecture_code":26},"0703":{"zip_code":"6010703","prefecture":"京都府","prefecture_kana":"キョウトフ","city":"南丹市","city_kana":"ナンタンシ","town":"美山町芦生","town_kana":"ミヤマチョウアシウ","prefecture_code":26},"0723":{"zip_code":"6010723","prefecture":"京都府","prefecture_kana":"キョウトフ","city":"南丹市","city_kana":"ナンタンシ","town":"美山町荒倉","town_kana":"ミヤマチョウアラクラ","prefecture_code":26},"0754":{"zip_code":"6010754","prefecture":"京都府","prefecture_kana":"キョウトフ","city":"南丹市","city_kana":"ナンタンシ","town":"美山町和泉","town_kana":"ミヤマチョウイズミ","prefecture_code":26},"0742":{"zip_code":"6010742","prefecture":"京都府","prefecture_kana":"キョウトフ","city":"南丹市","city_kana":"ナンタンシ","town":"美山町板橋","town_kana":"ミヤマチョウイタハシ","prefecture_code":26},"0724":{"zip_code":"6010724","prefecture":"京都府","prefecture_kana":"キョウトフ","city":"南丹市","city_kana":"ナンタンシ","town":"美山町内久保","town_kana":"ミヤマチョウウチクボ","prefecture_code":26},"0701":{"zip_code":"6010701","prefecture":"京都府","prefecture_kana":"キョウトフ","city":"南丹市","city_kana":"ナンタンシ","town":"美山町江和","town_kana":"ミヤマチョウエワ","prefecture_code":26},"0772":{"zip_code":"6010772","prefecture":"京都府","prefecture_kana":"キョウトフ","city":"南丹市","city_kana":"ナンタンシ","town":"美山町大野","town_kana":"ミヤマチョウオオノ","prefecture_code":26},"0778":{"zip_code":"6010778","prefecture":"京都府","prefecture_kana":"キョウトフ","city":"南丹市","city_kana":"ナンタンシ","town":"美山町音海","town_kana":"ミヤマチョウオトミ","prefecture_code":26},"0775":{"zip_code":"6010775","prefecture":"京都府","prefecture_kana":"キョウトフ","city":"南丹市","city_kana":"ナンタンシ","town":"美山町小渕","town_kana":"ミヤマチョウオブチ","prefecture_code":26},"0777":{"zip_code":"6010777","prefecture":"京都府","prefecture_kana":"キョウトフ","city":"南丹市","city_kana":"ナンタンシ","town":"美山町樫原","town_kana":"ミヤマチョウカシワラ","prefecture_code":26},"0721":{"zip_code":"6010721","prefecture":"京都府","prefecture_kana":"キョウトフ","city":"南丹市","city_kana":"ナンタンシ","town":"美山町上平屋","town_kana":"ミヤマチョウカミヒラヤ","prefecture_code":26},"0771":{"zip_code":"6010771","prefecture":"京都府","prefecture_kana":"キョウトフ","city":"南丹市","city_kana":"ナンタンシ","town":"美山町萱野","town_kana":"ミヤマチョウカヤノ","prefecture_code":26},"0714":{"zip_code":"6010714","prefecture":"京都府","prefecture_kana":"キョウトフ","city":"南丹市","city_kana":"ナンタンシ","town":"美山町河内谷","town_kana":"ミヤマチョウカワウチダニ","prefecture_code":26},"0712":{"zip_code":"6010712","prefecture":"京都府","prefecture_kana":"キョウトフ","city":"南丹市","city_kana":"ナンタンシ","town":"美山町北","town_kana":"ミヤマチョウキタ","prefecture_code":26},"0705":{"zip_code":"6010705","prefecture":"京都府","prefecture_kana":"キョウトフ","city":"南丹市","city_kana":"ナンタンシ","town":"美山町佐々里","town_kana":"ミヤマチョウササリ","prefecture_code":26},"0755":{"zip_code":"6010755","prefecture":"京都府","prefecture_kana":"キョウトフ","city":"南丹市","city_kana":"ナンタンシ","town":"美山町静原","town_kana":"ミヤマチョウシズハラ","prefecture_code":26},"0751":{"zip_code":"6010751","prefecture":"京都府","prefecture_kana":"キョウトフ","city":"南丹市","city_kana":"ナンタンシ","town":"美山町島","town_kana":"ミヤマチョウシマ","prefecture_code":26},"0715":{"zip_code":"6010715","prefecture":"京都府","prefecture_kana":"キョウトフ","city":"南丹市","city_kana":"ナンタンシ","town":"美山町下","town_kana":"ミヤマチョウシモ","prefecture_code":26},"0732":{"zip_code":"6010732","prefecture":"京都府","prefecture_kana":"キョウトフ","city":"南丹市","city_kana":"ナンタンシ","town":"美山町下平屋","town_kana":"ミヤマチョウシモヒラヤ","prefecture_code":26},"0744":{"zip_code":"6010744","prefecture":"京都府","prefecture_kana":"キョウトフ","city":"南丹市","city_kana":"ナンタンシ","town":"美山町下吉田","town_kana":"ミヤマチョウシモヨシダ","prefecture_code":26},"0753":{"zip_code":"6010753","prefecture":"京都府","prefecture_kana":"キョウトフ","city":"南丹市","city_kana":"ナンタンシ","town":"美山町上司","town_kana":"ミヤマチョウジョウシ","prefecture_code":26},"0704":{"zip_code":"6010704","prefecture":"京都府","prefecture_kana":"キョウトフ","city":"南丹市","city_kana":"ナンタンシ","town":"美山町白石","town_kana":"ミヤマチョウシライシ","prefecture_code":26},"0702":{"zip_code":"6010702","prefecture":"京都府","prefecture_kana":"キョウトフ","city":"南丹市","city_kana":"ナンタンシ","town":"美山町田歌","town_kana":"ミヤマチョウタウタ","prefecture_code":26},"0761":{"zip_code":"6010761","prefecture":"京都府","prefecture_kana":"キョウトフ","city":"南丹市","city_kana":"ナンタンシ","town":"美山町高野","town_kana":"ミヤマチョウタカノ","prefecture_code":26},"0716":{"zip_code":"6010716","prefecture":"京都府","prefecture_kana":"キョウトフ","city":"南丹市","city_kana":"ナンタンシ","town":"美山町知見","town_kana":"ミヤマチョウチミ","prefecture_code":26},"0762":{"zip_code":"6010762","prefecture":"京都府","prefecture_kana":"キョウトフ","city":"南丹市","city_kana":"ナンタンシ","town":"美山町鶴ケ岡","town_kana":"ミヤマチョウツルガオカ","prefecture_code":26},"0763":{"zip_code":"6010763","prefecture":"京都府","prefecture_kana":"キョウトフ","city":"南丹市","city_kana":"ナンタンシ","town":"美山町豊郷","town_kana":"ミヤマチョウトヨサト","prefecture_code":26},"0713":{"zip_code":"6010713","prefecture":"京都府","prefecture_kana":"キョウトフ","city":"南丹市","city_kana":"ナンタンシ","town":"美山町中","town_kana":"ミヤマチョウナカ","prefecture_code":26},"0734":{"zip_code":"6010734","prefecture":"京都府","prefecture_kana":"キョウトフ","city":"南丹市","city_kana":"ナンタンシ","town":"美山町長尾","town_kana":"ミヤマチョウナガオ","prefecture_code":26},"0752":{"zip_code":"6010752","prefecture":"京都府","prefecture_kana":"キョウトフ","city":"南丹市","city_kana":"ナンタンシ","town":"美山町長谷","town_kana":"ミヤマチョウナガタニ","prefecture_code":26},"0733":{"zip_code":"6010733","prefecture":"京都府","prefecture_kana":"キョウトフ","city":"南丹市","city_kana":"ナンタンシ","town":"美山町野添","town_kana":"ミヤマチョウノゾエ","prefecture_code":26},"0741":{"zip_code":"6010741","prefecture":"京都府","prefecture_kana":"キョウトフ","city":"南丹市","city_kana":"ナンタンシ","town":"美山町原","town_kana":"ミヤマチョウハラ","prefecture_code":26},"0774":{"zip_code":"6010774","prefecture":"京都府","prefecture_kana":"キョウトフ","city":"南丹市","city_kana":"ナンタンシ","town":"美山町肱谷","town_kana":"ミヤマチョウヒジタニ","prefecture_code":26},"0735":{"zip_code":"6010735","prefecture":"京都府","prefecture_kana":"キョウトフ","city":"南丹市","city_kana":"ナンタンシ","town":"美山町深見","town_kana":"ミヤマチョウフカミ","prefecture_code":26},"0765":{"zip_code":"6010765","prefecture":"京都府","prefecture_kana":"キョウトフ","city":"南丹市","city_kana":"ナンタンシ","town":"美山町福居","town_kana":"ミヤマチョウフクイ","prefecture_code":26},"0731":{"zip_code":"6010731","prefecture":"京都府","prefecture_kana":"キョウトフ","city":"南丹市","city_kana":"ナンタンシ","town":"美山町又林","town_kana":"ミヤマチョウマタバヤシ","prefecture_code":26},"0773":{"zip_code":"6010773","prefecture":"京都府","prefecture_kana":"キョウトフ","city":"南丹市","city_kana":"ナンタンシ","town":"美山町三埜","town_kana":"ミヤマチョウミツノ","prefecture_code":26},"0711":{"zip_code":"6010711","prefecture":"京都府","prefecture_kana":"キョウトフ","city":"南丹市","city_kana":"ナンタンシ","town":"美山町南","town_kana":"ミヤマチョウミナミ","prefecture_code":26},"0743":{"zip_code":"6010743","prefecture":"京都府","prefecture_kana":"キョウトフ","city":"南丹市","city_kana":"ナンタンシ","town":"美山町宮脇","town_kana":"ミヤマチョウミヤノワキ","prefecture_code":26},"0776":{"zip_code":"6010776","prefecture":"京都府","prefecture_kana":"キョウトフ","city":"南丹市","city_kana":"ナンタンシ","town":"美山町向山","town_kana":"ミヤマチョウムカイヤマ","prefecture_code":26},"0764":{"zip_code":"6010764","prefecture":"京都府","prefecture_kana":"キョウトフ","city":"南丹市","city_kana":"ナンタンシ","town":"美山町盛郷","town_kana":"ミヤマチョウモリサト","prefecture_code":26}}