{"0000":{"zip_code":"6020000","prefecture":"京都府","prefecture_kana":"キョウトフ","city":"京都市上京区","city_kana":"キョウトシカミギョウク","town":"以下に掲載がない場合","town_kana":"イカニケイサイガナイバアイ","prefecture_code":26},"0827":{"zip_code":"6020827","prefecture":"京都府","prefecture_kana":"キョウトフ","city":"京都市上京区","city_kana":"キョウトシカミギョウク","town":"相生町","town_kana":"アイオイチョウ","prefecture_code":26},"8278":{"zip_code":"6028278","prefecture":"京都府","prefecture_kana":"キョウトフ","city":"京都市上京区","city_kana":"キョウトシカミギョウク","town":"愛染寺町","town_kana":"アイゼンジチョウ","prefecture_code":26},"0054":{"zip_code":"6020054","prefecture":"京都府","prefecture_kana":"キョウトフ","city":"京都市上京区","city_kana":"キョウトシカミギョウク","town":"飛鳥井町","town_kana":"アスカイチョウ","prefecture_code":26},"0923":{"zip_code":"6020923","prefecture":"京都府","prefecture_kana":"キョウトフ","city":"京都市上京区","city_kana":"キョウトシカミギョウク","town":"油橋詰町","town_kana":"アブラハシヅメチョウ","prefecture_code":26},"8165":{"zip_code":"6028165","prefecture":"京都府","prefecture_kana":"キョウトフ","city":"京都市上京区","city_kana":"キョウトシカミギョウク","town":"尼ケ崎横町","town_kana":"アマガサキヨコチョウ","prefecture_code":26},"8424":{"zip_code":"6028424","prefecture":"京都府","prefecture_kana":"キョウトフ","city":"京都市上京区","city_kana":"キョウトシカミギョウク","town":"阿弥陀寺町","town_kana":"アミダジチョウ","prefecture_code":26},"0803":{"zip_code":"6020803","prefecture":"京都府","prefecture_kana":"キョウトフ","city":"京都市上京区","city_kana":"キョウトシカミギョウク","town":"阿弥陀寺前町","town_kana":"アミダジマエチョウ","prefecture_code":26},"8074":{"zip_code":"6028074","prefecture":"京都府","prefecture_kana":"キョウトフ","city":"京都市上京区","city_kana":"キョウトシカミギョウク","town":"有春町","town_kana":"アリハルチョウ","prefecture_code":26},"8472":{"zip_code":"6028472","prefecture":"京都府","prefecture_kana":"キョウトフ","city":"京都市上京区","city_kana":"キョウトシカミギョウク","town":"有馬町","town_kana":"アリマチョウ","prefecture_code":26},"0064":{"zip_code":"6020064","prefecture":"京都府","prefecture_kana":"キョウトフ","city":"京都市上京区","city_kana":"キョウトシカミギョウク","town":"安楽小路町","town_kana":"アンラクコウジチョウ","prefecture_code":26},"8121":{"zip_code":"6028121","prefecture":"京都府","prefecture_kana":"キョウトフ","city":"京都市上京区","city_kana":"キョウトシカミギョウク","town":"家永町","town_kana":"イエナガチョウ","prefecture_code":26},"8407":{"zip_code":"6028407","prefecture":"京都府","prefecture_kana":"キョウトフ","city":"京都市上京区","city_kana":"キョウトシカミギョウク","town":"伊佐町","town_kana":"イサチョウ","prefecture_code":26},"8226":{"zip_code":"6028226","prefecture":"京都府","prefecture_kana":"キョウトフ","city":"京都市上京区","city_kana":"キョウトシカミギョウク","town":"石薬師町","town_kana":"イシヤクシチョウ","prefecture_code":26},"8297":{"zip_code":"6028297","prefecture":"京都府","prefecture_kana":"キョウトフ","city":"京都市上京区","city_kana":"キョウトシカミギョウク","town":"伊勢殿構町","town_kana":"イセドノカマエチョウ","prefecture_code":26},"0873":{"zip_code":"6020873","prefecture":"京都府","prefecture_kana":"キョウトフ","city":"京都市上京区","city_kana":"キョウトシカミギョウク","town":"伊勢屋町","town_kana":"イセヤチョウ","prefecture_code":26},"8302":{"zip_code":"6028302","prefecture":"京都府","prefecture_kana":"キョウトフ","city":"京都市上京区","city_kana":"キョウトシカミギョウク","town":"井田町","town_kana":"イダチョウ","prefecture_code":26},"8335":{"zip_code":"6028335","prefecture":"京都府","prefecture_kana":"キョウトフ","city":"京都市上京区","city_kana":"キョウトシカミギョウク","town":"一観音町","town_kana":"イチカンノンチョウ","prefecture_code":26},"0934":{"zip_code":"6020934","prefecture":"京都府","prefecture_kana":"キョウトフ","city":"京都市上京区","city_kana":"キョウトシカミギョウク","town":"一条殿町","town_kana":"イチジョウデンチョウ","prefecture_code":26},"0944":{"zip_code":"6020944","prefecture":"京都府","prefecture_kana":"キョウトフ","city":"京都市上京区","city_kana":"キョウトシカミギョウク","town":"一条横町","town_kana":"イチジョウヨコチョウ","prefecture_code":26},"8345":{"zip_code":"6028345","prefecture":"京都府","prefecture_kana":"キョウトフ","city":"京都市上京区","city_kana":"キョウトシカミギョウク","town":"一番町","town_kana":"イチバンチョウ","prefecture_code":26},"0905":{"zip_code":"6020905","prefecture":"京都府","prefecture_kana":"キョウトフ","city":"京都市上京区","city_kana":"キョウトシカミギョウク","town":"一松町","town_kana":"イチマツチョウ","prefecture_code":26},"8471":{"zip_code":"6028471","prefecture":"京都府","prefecture_kana":"キョウトフ","city":"京都市上京区","city_kana":"キョウトシカミギョウク","town":"一色町","town_kana":"イッシキチョウ","prefecture_code":26},"0824":{"zip_code":"6020824","prefecture":"京都府","prefecture_kana":"キョウトフ","city":"京都市上京区","city_kana":"キョウトシカミギョウク","town":"一真町","town_kana":"イッシンチョウ","prefecture_code":26},"8064":[{"zip_code":"6028064","prefecture":"京都府","prefecture_kana":"キョウトフ","city":"京都市上京区","city_kana":"キョウトシカミギョウク","town":"一町目（上長者町通堀川東入、東堀川通上長者町上る、東堀川通中","town_kana":"イッチョウメ","prefecture_code":26},{"zip_code":"6028064","prefecture":"京都府","prefecture_kana":"キョウトフ","city":"京都市上京区","city_kana":"キョウトシカミギョウク","town":"立売通下る）","town_kana":"イッチョウメ","prefecture_code":26}],"8134":[{"zip_code":"6028134","prefecture":"京都府","prefecture_kana":"キョウトフ","city":"京都市上京区","city_kana":"キョウトシカミギョウク","town":"一町目（大宮通椹木町下る、大宮通丸太町上る、椹木町通大宮西","town_kana":"イッチョウメ","prefecture_code":26},{"zip_code":"6028134","prefecture":"京都府","prefecture_kana":"キョウトフ","city":"京都市上京区","city_kana":"キョウトシカミギョウク","town":"入、丸太町通大宮東入）","town_kana":"イッチョウメ","prefecture_code":26}],"8103":{"zip_code":"6028103","prefecture":"京都府","prefecture_kana":"キョウトフ","city":"京都市上京区","city_kana":"キョウトシカミギョウク","town":"一町目（松屋町通出水下る、松屋町通下立売上る）","town_kana":"イッチョウメ(マツヤチョウドオリデミズサガル、マツヤチョウドオリシモダチウリアガル)","prefecture_code":26},"8446":{"zip_code":"6028446","prefecture":"京都府","prefecture_kana":"キョウトフ","city":"京都市上京区","city_kana":"キョウトシカミギョウク","town":"五辻町","town_kana":"イツツジチョウ","prefecture_code":26},"8238":{"zip_code":"6028238","prefecture":"京都府","prefecture_kana":"キョウトフ","city":"京都市上京区","city_kana":"キョウトシカミギョウク","town":"糸屋町","town_kana":"イトヤチョウ","prefecture_code":26},"8352":{"zip_code":"6028352","prefecture":"京都府","prefecture_kana":"キョウトフ","city":"京都市上京区","city_kana":"キョウトシカミギョウク","town":"稲葉町","town_kana":"イナバチョウ","prefecture_code":26},"8497":{"zip_code":"6028497","prefecture":"京都府","prefecture_kana":"キョウトフ","city":"京都市上京区","city_kana":"キョウトシカミギョウク","town":"戌亥町","town_kana":"イヌイチョウ","prefecture_code":26},"8245":{"zip_code":"6028245","prefecture":"京都府","prefecture_kana":"キョウトフ","city":"京都市上京区","city_kana":"キョウトシカミギョウク","town":"猪熊","town_kana":"イノクマ","prefecture_code":26},"0066":{"zip_code":"6020066","prefecture":"京都府","prefecture_kana":"キョウトフ","city":"京都市上京区","city_kana":"キョウトシカミギョウク","town":"射場町","town_kana":"イバチョウ","prefecture_code":26},"8025":{"zip_code":"6028025","prefecture":"京都府","prefecture_kana":"キョウトフ","city":"京都市上京区","city_kana":"キョウトシカミギョウク","town":"今薬屋町","town_kana":"イマクスリヤチョウ","prefecture_code":26},"8292":{"zip_code":"6028292","prefecture":"京都府","prefecture_kana":"キョウトフ","city":"京都市上京区","city_kana":"キョウトシカミギョウク","town":"今新在家町","town_kana":"イマシンザイケチョウ","prefecture_code":26},"0906":{"zip_code":"6020906","prefecture":"京都府","prefecture_kana":"キョウトフ","city":"京都市上京区","city_kana":"キョウトシカミギョウク","town":"今図子町","town_kana":"イマズシチョウ","prefecture_code":26},"0033":[{"zip_code":"6020033","prefecture":"京都府","prefecture_kana":"キョウトフ","city":"京都市上京区","city_kana":"キョウトシカミギョウク","town":"今出川町（烏丸通今出川上る、烏丸通今出川下る、今出川通烏丸西","town_kana":"イマデガワチョウ","prefecture_code":26},{"zip_code":"6020033","prefecture":"京都府","prefecture_kana":"キョウトフ","city":"京都市上京区","city_kana":"キョウトシカミギョウク","town":"入、今出川通室町東入）","town_kana":"イマデガワチョウ","prefecture_code":26}],"8454":[{"zip_code":"6028454","prefecture":"京都府","prefecture_kana":"キョウトフ","city":"京都市上京区","city_kana":"キョウトシカミギョウク","town":"今出川町（元誓願寺通浄福寺西入、元誓願寺通浄福寺東入、浄福寺通","town_kana":"イマデガワチョウ","prefecture_code":26},{"zip_code":"6028454","prefecture":"京都府","prefecture_kana":"キョウトフ","city":"京都市上京区","city_kana":"キョウトシカミギョウク","town":"元誓願寺上る、浄福寺通元誓願寺下る）","town_kana":"イマデガワチョウ","prefecture_code":26}],"8104":{"zip_code":"6028104","prefecture":"京都府","prefecture_kana":"キョウトフ","city":"京都市上京区","city_kana":"キョウトシカミギョウク","town":"浮田町","town_kana":"ウキタチョウ","prefecture_code":26},"0012":{"zip_code":"6020012","prefecture":"京都府","prefecture_kana":"キョウトフ","city":"京都市上京区","city_kana":"キョウトシカミギョウク","town":"内構町","town_kana":"ウチガマエチョウ","prefecture_code":26},"0942":{"zip_code":"6020942","prefecture":"京都府","prefecture_kana":"キョウトフ","city":"京都市上京区","city_kana":"キョウトシカミギョウク","town":"靭屋町","town_kana":"ウツボヤチョウ","prefecture_code":26},"8477":{"zip_code":"6028477","prefecture":"京都府","prefecture_kana":"キョウトフ","city":"京都市上京区","city_kana":"キョウトシカミギョウク","town":"姥ケ榎木町","town_kana":"ウバガエノキチョウ","prefecture_code":26},"8487":{"zip_code":"6028487","prefecture":"京都府","prefecture_kana":"キョウトフ","city":"京都市上京区","city_kana":"キョウトシカミギョウク","town":"姥ケ北町","town_kana":"ウバガキタマチ","prefecture_code":26},"8303":{"zip_code":"6028303","prefecture":"京都府","prefecture_kana":"キョウトフ","city":"京都市上京区","city_kana":"キョウトシカミギョウク","town":"姥ケ寺之前町","town_kana":"ウバガテラノマエチョウ","prefecture_code":26},"8485":{"zip_code":"6028485","prefecture":"京都府","prefecture_kana":"キョウトフ","city":"京都市上京区","city_kana":"キョウトシカミギョウク","town":"姥ケ東西町","town_kana":"ウバガトウザイチョウ","prefecture_code":26},"8486":{"zip_code":"6028486","prefecture":"京都府","prefecture_kana":"キョウトフ","city":"京都市上京区","city_kana":"キョウトシカミギョウク","town":"姥ケ西町","town_kana":"ウバガニシチョウ","prefecture_code":26},"0902":{"zip_code":"6020902","prefecture":"京都府","prefecture_kana":"キョウトフ","city":"京都市上京区","city_kana":"キョウトシカミギョウク","town":"梅屋町","town_kana":"ウメヤチョウ","prefecture_code":26},"0031":{"zip_code":"6020031","prefecture":"京都府","prefecture_kana":"キョウトフ","city":"京都市上京区","city_kana":"キョウトシカミギョウク","town":"裏築地町","town_kana":"ウラツキジチョウ","prefecture_code":26},"0025":{"zip_code":"6020025","prefecture":"京都府","prefecture_kana":"キョウトフ","city":"京都市上京区","city_kana":"キョウトシカミギョウク","town":"裏風呂町","town_kana":"ウラフロチョウ","prefecture_code":26},"8251":{"zip_code":"6028251","prefecture":"京都府","prefecture_kana":"キョウトフ","city":"京都市上京区","city_kana":"キョウトシカミギョウク","town":"榎町","town_kana":"エノキチョウ","prefecture_code":26},"8032":{"zip_code":"6028032","prefecture":"京都府","prefecture_kana":"キョウトフ","city":"京都市上京区","city_kana":"キョウトシカミギョウク","town":"夷川町","town_kana":"エビスガワチョウ","prefecture_code":26},"8484":{"zip_code":"6028484","prefecture":"京都府","prefecture_kana":"キョウトフ","city":"京都市上京区","city_kana":"キョウトシカミギョウク","town":"蛭子町（上立売通浄福寺西入、浄福寺通上立売下る）","town_kana":"エビスチョウ(カミダチウリドオリジョウフクジニシイル、ジョウフクジドオリカミダチウリサガル)","prefecture_code":26},"8118":[{"zip_code":"6028118","prefecture":"京都府","prefecture_kana":"キョウトフ","city":"京都市上京区","city_kana":"キョウトシカミギョウク","town":"蛭子町（猪熊通出水上る、猪熊通下長者町下る、下長者町通","town_kana":"エビスチョウ","prefecture_code":26},{"zip_code":"6028118","prefecture":"京都府","prefecture_kana":"キョウトフ","city":"京都市上京区","city_kana":"キョウトシカミギョウク","town":"猪熊西入、下長者町通猪熊東入、出水通猪熊西入、出水通猪熊東入）","town_kana":"エビスチョウ","prefecture_code":26}],"8307":{"zip_code":"6028307","prefecture":"京都府","prefecture_kana":"キョウトフ","city":"京都市上京区","city_kana":"キョウトシカミギョウク","town":"閻魔前町","town_kana":"エンママエチョウ","prefecture_code":26},"8318":{"zip_code":"6028318","prefecture":"京都府","prefecture_kana":"キョウトフ","city":"京都市上京区","city_kana":"キョウトシカミギョウク","town":"老松町","town_kana":"オイマツチョウ","prefecture_code":26},"8011":{"zip_code":"6028011","prefecture":"京都府","prefecture_kana":"キョウトフ","city":"京都市上京区","city_kana":"キョウトシカミギョウク","town":"桜鶴円町","town_kana":"オウカクエンチョウ","prefecture_code":26},"0921":{"zip_code":"6020921","prefecture":"京都府","prefecture_kana":"キョウトフ","city":"京都市上京区","city_kana":"キョウトシカミギョウク","town":"正親町","town_kana":"オウギチョウ","prefecture_code":26},"0848":[{"zip_code":"6020848","prefecture":"京都府","prefecture_kana":"キョウトフ","city":"京都市上京区","city_kana":"キョウトシカミギョウク","town":"扇町（寺町通今出川下る、寺町通石薬師上る、寺町通石薬師下","town_kana":"オウギチョウ","prefecture_code":26},{"zip_code":"6020848","prefecture":"京都府","prefecture_kana":"キョウトフ","city":"京都市上京区","city_kana":"キョウトシカミギョウク","town":"る、寺町通広小路上る、石薬師通寺町東入）","town_kana":"オウギチョウ","prefecture_code":26}],"0071":{"zip_code":"6020071","prefecture":"京都府","prefecture_kana":"キョウトフ","city":"京都市上京区","city_kana":"キョウトシカミギョウク","town":"扇町（堀川通寺之内上る、堀川通上御霊前上る、上御霊前通堀川東入）","town_kana":"オウギチョウ(ホリカワドオリテラノウチアガル、ホリカワドオリカミゴリョウマエアガル、カミゴリョウマエドオリホリカワヒガシイル)","prefecture_code":26},"8405":[{"zip_code":"6028405","prefecture":"京都府","prefecture_kana":"キョウトフ","city":"京都市上京区","city_kana":"キョウトシカミギョウク","town":"大猪熊町（寺之内通大宮西入、寺之内通智恵光院西入、寺之内通智","town_kana":"オオイノクマチョウ","prefecture_code":26},{"zip_code":"6028405","prefecture":"京都府","prefecture_kana":"キョウトフ","city":"京都市上京区","city_kana":"キョウトシカミギョウク","town":"恵光院東入、寺之内通大宮東入、智恵光院通寺之内下る）","town_kana":"オオイノクマチョウ","prefecture_code":26}],"0849":[{"zip_code":"6020849","prefecture":"京都府","prefecture_kana":"キョウトフ","city":"京都市上京区","city_kana":"キョウトシカミギョウク","town":"大猪熊町（中筋通石薬師上る、石薬師通河原町西入、石薬師通寺町","town_kana":"オオイノクマチョウ","prefecture_code":26},{"zip_code":"6020849","prefecture":"京都府","prefecture_kana":"キョウトフ","city":"京都市上京区","city_kana":"キョウトシカミギョウク","town":"東入、石薬師通中筋西入、石薬師通中筋東入）","town_kana":"オオイノクマチョウ","prefecture_code":26}],"8375":{"zip_code":"6028375","prefecture":"京都府","prefecture_kana":"キョウトフ","city":"京都市上京区","city_kana":"キョウトシカミギョウク","town":"大上之町","town_kana":"オオカミノチョウ","prefecture_code":26},"8413":{"zip_code":"6028413","prefecture":"京都府","prefecture_kana":"キョウトフ","city":"京都市上京区","city_kana":"キョウトシカミギョウク","town":"大北小路東町","town_kana":"オオキタコウジヒガシチョウ","prefecture_code":26},"0832":{"zip_code":"6020832","prefecture":"京都府","prefecture_kana":"キョウトフ","city":"京都市上京区","city_kana":"キョウトシカミギョウク","town":"大原口町","town_kana":"オオハラグチチョウ","prefecture_code":26},"0834":{"zip_code":"6020834","prefecture":"京都府","prefecture_kana":"キョウトフ","city":"京都市上京区","city_kana":"キョウトシカミギョウク","town":"大原口突抜町","town_kana":"オオハラグチツキヌケチョウ","prefecture_code":26},"8376":{"zip_code":"6028376","prefecture":"京都府","prefecture_kana":"キョウトフ","city":"京都市上京区","city_kana":"キョウトシカミギョウク","town":"大東町","town_kana":"オオヒガシチョウ","prefecture_code":26},"0935":{"zip_code":"6020935","prefecture":"京都府","prefecture_kana":"キョウトフ","city":"京都市上京区","city_kana":"キョウトシカミギョウク","town":"大峰図子町","town_kana":"オオミネズシチョウ","prefecture_code":26},"0847":[{"zip_code":"6020847","prefecture":"京都府","prefecture_kana":"キョウトフ","city":"京都市上京区","city_kana":"キョウトシカミギョウク","town":"大宮町（今出川通河原町西入、今出川通寺町東入、今出川通寺町東","town_kana":"オオミヤチョウ","prefecture_code":26},{"zip_code":"6020847","prefecture":"京都府","prefecture_kana":"キョウトフ","city":"京都市上京区","city_kana":"キョウトシカミギョウク","town":"入下る、河原町通今出川下る、河原町通今出川下る西入、寺町通今出川下る東","town_kana":"オオミヤチョウ","prefecture_code":26},{"zip_code":"6020847","prefecture":"京都府","prefecture_kana":"キョウトフ","city":"京都市上京区","city_kana":"キョウトシカミギョウク","town":"入、中筋通石薬師上る）","town_kana":"オオミヤチョウ","prefecture_code":26}],"8363":[{"zip_code":"6028363","prefecture":"京都府","prefecture_kana":"キョウトフ","city":"京都市上京区","city_kana":"キョウトシカミギョウク","town":"大宮町（上の下立売通御前西入、上の下立売通御前西入上る、","town_kana":"オオミヤチョウ","prefecture_code":26},{"zip_code":"6028363","prefecture":"京都府","prefecture_kana":"キョウトフ","city":"京都市上京区","city_kana":"キョウトシカミギョウク","town":"上の下立売通天神道東入、下立売通御前西入、下立売通御前西入上る）","town_kana":"オオミヤチョウ","prefecture_code":26}],"0032":{"zip_code":"6020032","prefecture":"京都府","prefecture_kana":"キョウトフ","city":"京都市上京区","city_kana":"キョウトシカミギョウク","town":"岡松町","town_kana":"オカマツチョウ","prefecture_code":26},"0924":{"zip_code":"6020924","prefecture":"京都府","prefecture_kana":"キョウトフ","city":"京都市上京区","city_kana":"キョウトシカミギョウク","town":"小川町","town_kana":"オガワチョウ","prefecture_code":26},"0825":{"zip_code":"6020825","prefecture":"京都府","prefecture_kana":"キョウトフ","city":"京都市上京区","city_kana":"キョウトシカミギョウク","town":"表町","town_kana":"オモテチョウ","prefecture_code":26},"0946":{"zip_code":"6020946","prefecture":"京都府","prefecture_kana":"キョウトフ","city":"京都市上京区","city_kana":"キョウトシカミギョウク","town":"戒光寺町","town_kana":"カイコウジチョウ","prefecture_code":26},"8061":{"zip_code":"6028061","prefecture":"京都府","prefecture_kana":"キョウトフ","city":"京都市上京区","city_kana":"キョウトシカミギョウク","town":"甲斐守町","town_kana":"カイノカミチョウ","prefecture_code":26},"8203":{"zip_code":"6028203","prefecture":"京都府","prefecture_kana":"キョウトフ","city":"京都市上京区","city_kana":"キョウトシカミギョウク","town":"鏡石町","town_kana":"カガミイシチョウ","prefecture_code":26},"8281":{"zip_code":"6028281","prefecture":"京都府","prefecture_kana":"キョウトフ","city":"京都市上京区","city_kana":"キョウトシカミギョウク","town":"加賀屋町","town_kana":"カガヤチョウ","prefecture_code":26},"8014":{"zip_code":"6028014","prefecture":"京都府","prefecture_kana":"キョウトフ","city":"京都市上京区","city_kana":"キョウトシカミギョウク","town":"勘解由小路町","town_kana":"カゲユコウジチョウ","prefecture_code":26},"0841":{"zip_code":"6020841","prefecture":"京都府","prefecture_kana":"キョウトフ","city":"京都市上京区","city_kana":"キョウトシカミギョウク","town":"梶井町","town_kana":"カジイチョウ","prefecture_code":26},"0952":{"zip_code":"6020952","prefecture":"京都府","prefecture_kana":"キョウトフ","city":"京都市上京区","city_kana":"キョウトシカミギョウク","town":"頭町（油小路通元誓願寺下る、元誓願寺通油小路西入）","town_kana":"カシラチョウ(アブラノコウジドオリモトセイガンジサガル、モトセイガンジドオリアブラノコウジニシイル)","prefecture_code":26},"8073":[{"zip_code":"6028073","prefecture":"京都府","prefecture_kana":"キョウトフ","city":"京都市上京区","city_kana":"キョウトシカミギョウク","town":"頭町（上長者町通西洞院西入、西洞院通上長者町下る、西洞院通","town_kana":"カシラチョウ","prefecture_code":26},{"zip_code":"6028073","prefecture":"京都府","prefecture_kana":"キョウトフ","city":"京都市上京区","city_kana":"キョウトシカミギョウク","town":"下長者町上る、西洞院通中長者町上る、西洞院通中長者町下る）","town_kana":"カシラチョウ","prefecture_code":26}],"8311":{"zip_code":"6028311","prefecture":"京都府","prefecture_kana":"キョウトフ","city":"京都市上京区","city_kana":"キョウトシカミギョウク","town":"柏清盛町","town_kana":"カシワキヨモリチョウ","prefecture_code":26},"8023":{"zip_code":"6028023","prefecture":"京都府","prefecture_kana":"キョウトフ","city":"京都市上京区","city_kana":"キョウトシカミギョウク","town":"春日町","town_kana":"カスガチョウ","prefecture_code":26},"8316":{"zip_code":"6028316","prefecture":"京都府","prefecture_kana":"キョウトフ","city":"京都市上京区","city_kana":"キョウトシカミギョウク","town":"片原町","town_kana":"カタハラチョウ","prefecture_code":26},"0855":{"zip_code":"6020855","prefecture":"京都府","prefecture_kana":"キョウトフ","city":"京都市上京区","city_kana":"キョウトシカミギョウク","town":"上生洲町","town_kana":"カミイケスチョウ","prefecture_code":26},"0052":{"zip_code":"6020052","prefecture":"京都府","prefecture_kana":"キョウトフ","city":"京都市上京区","city_kana":"キョウトシカミギョウク","town":"上小川町","town_kana":"カミオガワチョウ","prefecture_code":26},"8033":{"zip_code":"6028033","prefecture":"京都府","prefecture_kana":"キョウトフ","city":"京都市上京区","city_kana":"キョウトシカミギョウク","town":"上鍛冶町","town_kana":"カミカジチョウ","prefecture_code":26},"0804":{"zip_code":"6020804","prefecture":"京都府","prefecture_kana":"キョウトフ","city":"京都市上京区","city_kana":"キョウトシカミギョウク","town":"上片原町","town_kana":"カミカタハラチョウ","prefecture_code":26},"0017":{"zip_code":"6020017","prefecture":"京都府","prefecture_kana":"キョウトフ","city":"京都市上京区","city_kana":"キョウトシカミギョウク","town":"上木下町","town_kana":"カミキノシタチョウ","prefecture_code":26},"0896":{"zip_code":"6020896","prefecture":"京都府","prefecture_kana":"キョウトフ","city":"京都市上京区","city_kana":"キョウトシカミギョウク","town":"上御霊竪町","town_kana":"カミゴリョウタテマチ","prefecture_code":26},"0894":{"zip_code":"6020894","prefecture":"京都府","prefecture_kana":"キョウトフ","city":"京都市上京区","city_kana":"キョウトシカミギョウク","town":"上御霊中町","town_kana":"カミゴリョウナカマチ","prefecture_code":26},"0891":{"zip_code":"6020891","prefecture":"京都府","prefecture_kana":"キョウトフ","city":"京都市上京区","city_kana":"キョウトシカミギョウク","town":"上御霊馬場町","town_kana":"カミゴリョウババチョウ","prefecture_code":26},"0895":{"zip_code":"6020895","prefecture":"京都府","prefecture_kana":"キョウトフ","city":"京都市上京区","city_kana":"キョウトシカミギョウク","town":"上御霊前町","town_kana":"カミゴリョウマエチョウ","prefecture_code":26},"0024":{"zip_code":"6020024","prefecture":"京都府","prefecture_kana":"キョウトフ","city":"京都市上京区","city_kana":"キョウトシカミギョウク","town":"上立売町","town_kana":"カミダチウリチョウ","prefecture_code":26},"0022":{"zip_code":"6020022","prefecture":"京都府","prefecture_kana":"キョウトフ","city":"京都市上京区","city_kana":"キョウトシカミギョウク","town":"上立売東町","town_kana":"カミダチウリヒガシチョウ","prefecture_code":26},"0082":{"zip_code":"6020082","prefecture":"京都府","prefecture_kana":"キョウトフ","city":"京都市上京区","city_kana":"キョウトシカミギョウク","town":"上天神町","town_kana":"カミテンジンチョウ","prefecture_code":26},"0815":{"zip_code":"6020815","prefecture":"京都府","prefecture_kana":"キョウトフ","city":"京都市上京区","city_kana":"キョウトシカミギョウク","town":"上塔之段町","town_kana":"カミトウノダンチョウ","prefecture_code":26},"0863":{"zip_code":"6020863","prefecture":"京都府","prefecture_kana":"キョウトフ","city":"京都市上京区","city_kana":"キョウトシカミギョウク","town":"上之町","town_kana":"カミノチョウ","prefecture_code":26},"8141":{"zip_code":"6028141","prefecture":"京都府","prefecture_kana":"キョウトフ","city":"京都市上京区","city_kana":"キョウトシカミギョウク","town":"上堀川町","town_kana":"カミホリカワチョウ","prefecture_code":26},"0813":{"zip_code":"6020813","prefecture":"京都府","prefecture_kana":"キョウトフ","city":"京都市上京区","city_kana":"キョウトシカミギョウク","town":"上神輿町","town_kana":"カミミコシチョウ","prefecture_code":26},"8384":{"zip_code":"6028384","prefecture":"京都府","prefecture_kana":"キョウトフ","city":"京都市上京区","city_kana":"キョウトシカミギョウク","town":"紙屋川町","town_kana":"カミヤガワチョウ","prefecture_code":26},"0013":{"zip_code":"6020013","prefecture":"京都府","prefecture_kana":"キョウトフ","city":"京都市上京区","city_kana":"キョウトシカミギョウク","town":"上柳原町","town_kana":"カミヤナギハラチョウ","prefecture_code":26},"8272":{"zip_code":"6028272","prefecture":"京都府","prefecture_kana":"キョウトフ","city":"京都市上京区","city_kana":"キョウトシカミギョウク","town":"亀木町","town_kana":"カメキチョウ","prefecture_code":26},"8062":[{"zip_code":"6028062","prefecture":"京都府","prefecture_kana":"キョウトフ","city":"京都市上京区","city_kana":"キョウトシカミギョウク","town":"亀屋町（油小路通上長者町下る、油小路通下長者町上る、油小路通","town_kana":"カメヤチョウ","prefecture_code":26},{"zip_code":"6028062","prefecture":"京都府","prefecture_kana":"キョウトフ","city":"京都市上京区","city_kana":"キョウトシカミギョウク","town":"中長者町上る、油小路通中長者町下る、上長者町通油小路西入、上長者町通油小","town_kana":"カメヤチョウ","prefecture_code":26},{"zip_code":"6028062","prefecture":"京都府","prefecture_kana":"キョウトフ","city":"京都市上京区","city_kana":"キョウトシカミギョウク","town":"路東入）","town_kana":"カメヤチョウ","prefecture_code":26}],"0854":{"zip_code":"6020854","prefecture":"京都府","prefecture_kana":"キョウトフ","city":"京都市上京区","city_kana":"キョウトシカミギョウク","town":"亀屋町（河原町通荒神口東入、荒神口通河原町東入）","town_kana":"カメヤチョウ(カワラマチドオリコウジングチヒガシイル、コウジングチドオリカワハラチョウヒガシイル)","prefecture_code":26},"8284":{"zip_code":"6028284","prefecture":"京都府","prefecture_kana":"キョウトフ","city":"京都市上京区","city_kana":"キョウトシカミギョウク","town":"亀屋町（千本通中立売上る、千本通中立売下る、中立売通千本西入）","town_kana":"カメヤチョウ(センボンドオリナカダチウリアガル、センボンドオリナカダチウリサガル、ナカダチウリドオリセンボンニシイル)","prefecture_code":26},"8119":[{"zip_code":"6028119","prefecture":"京都府","prefecture_kana":"キョウトフ","city":"京都市上京区","city_kana":"キョウトシカミギョウク","town":"亀屋町（葭屋町通下長者町下る、葭屋町通出水上る、下長者町通堀","town_kana":"カメヤチョウ","prefecture_code":26},{"zip_code":"6028119","prefecture":"京都府","prefecture_kana":"キョウトフ","city":"京都市上京区","city_kana":"キョウトシカミギョウク","town":"川西入、下長者町通葭屋町東入、下長者町通葭屋町西入、出水通葭屋町西入、出","town_kana":"カメヤチョウ","prefecture_code":26},{"zip_code":"6028119","prefecture":"京都府","prefecture_kana":"キョウトフ","city":"京都市上京区","city_kana":"キョウトシカミギョウク","town":"水通葭屋町東入、出水通堀川西入）","town_kana":"カメヤチョウ","prefecture_code":26}],"8332":{"zip_code":"6028332","prefecture":"京都府","prefecture_kana":"キョウトフ","city":"京都市上京区","city_kana":"キョウトシカミギョウク","town":"烏丸町","town_kana":"カラスマチョウ","prefecture_code":26},"8369":{"zip_code":"6028369","prefecture":"京都府","prefecture_kana":"キョウトフ","city":"京都市上京区","city_kana":"キョウトシカミギョウク","town":"川瀬町","town_kana":"カワセチョウ","prefecture_code":26},"0808":{"zip_code":"6020808","prefecture":"京都府","prefecture_kana":"キョウトフ","city":"京都市上京区","city_kana":"キョウトシカミギョウク","town":"歓喜寺前町","town_kana":"カンキジマエチョウ","prefecture_code":26},"8492":{"zip_code":"6028492","prefecture":"京都府","prefecture_kana":"キョウトフ","city":"京都市上京区","city_kana":"キョウトシカミギョウク","town":"歓喜町","town_kana":"カンキチョウ","prefecture_code":26},"0903":{"zip_code":"6020903","prefecture":"京都府","prefecture_kana":"キョウトフ","city":"京都市上京区","city_kana":"キョウトシカミギョウク","town":"観三橘町","town_kana":"カンサンタチバナチョウ","prefecture_code":26},"0008":{"zip_code":"6020008","prefecture":"京都府","prefecture_kana":"キョウトフ","city":"京都市上京区","city_kana":"キョウトシカミギョウク","town":"岩栖院町","town_kana":"ガンスインチョウ","prefecture_code":26},"8441":{"zip_code":"6028441","prefecture":"京都府","prefecture_kana":"キョウトフ","city":"京都市上京区","city_kana":"キョウトシカミギョウク","town":"観世町","town_kana":"カンゼチョウ","prefecture_code":26},"8385":{"zip_code":"6028385","prefecture":"京都府","prefecture_kana":"キョウトフ","city":"京都市上京区","city_kana":"キョウトシカミギョウク","town":"観音寺門前町","town_kana":"カンノンジモンゼンチョウ","prefecture_code":26},"8047":{"zip_code":"6028047","prefecture":"京都府","prefecture_kana":"キョウトフ","city":"京都市上京区","city_kana":"キョウトシカミギョウク","town":"勘兵衛町","town_kana":"カンベエチョウ","prefecture_code":26},"8076":[{"zip_code":"6028076","prefecture":"京都府","prefecture_kana":"キョウトフ","city":"京都市上京区","city_kana":"キョウトシカミギョウク","town":"菊屋町（西洞院通上長者町上る、西洞院通中立売下る、上長者町通","town_kana":"キクヤチョウ","prefecture_code":26},{"zip_code":"6028076","prefecture":"京都府","prefecture_kana":"キョウトフ","city":"京都市上京区","city_kana":"キョウトシカミギョウク","town":"西洞院西入、上長者町通西洞院東入）","town_kana":"キクヤチョウ","prefecture_code":26}],"8244":[{"zip_code":"6028244","prefecture":"京都府","prefecture_kana":"キョウトフ","city":"京都市上京区","city_kana":"キョウトシカミギョウク","town":"菊屋町（葭屋町通上長者町下る、葭屋町通下長者町上る、上長者町","town_kana":"キクヤチョウ","prefecture_code":26},{"zip_code":"6028244","prefecture":"京都府","prefecture_kana":"キョウトフ","city":"京都市上京区","city_kana":"キョウトシカミギョウク","town":"通葭屋町西入、上長者町通葭屋町東入、下長者町通葭屋町西入、下長者町通葭屋","town_kana":"キクヤチョウ","prefecture_code":26},{"zip_code":"6028244","prefecture":"京都府","prefecture_kana":"キョウトフ","city":"京都市上京区","city_kana":"キョウトシカミギョウク","town":"町東入、下長者町通堀川西入）","town_kana":"キクヤチョウ","prefecture_code":26}],"8296":{"zip_code":"6028296","prefecture":"京都府","prefecture_kana":"キョウトフ","city":"京都市上京区","city_kana":"キョウトシカミギョウク","town":"北伊勢殿構町","town_kana":"キタイセドノカマエチョウ","prefecture_code":26},"8152":{"zip_code":"6028152","prefecture":"京都府","prefecture_kana":"キョウトフ","city":"京都市上京区","city_kana":"キョウトシカミギョウク","town":"北伊勢屋町","town_kana":"キタイセヤチョウ","prefecture_code":26},"8432":{"zip_code":"6028432","prefecture":"京都府","prefecture_kana":"キョウトフ","city":"京都市上京区","city_kana":"キョウトシカミギョウク","town":"北猪熊町","town_kana":"キタイノクマチョウ","prefecture_code":26},"8115":{"zip_code":"6028115","prefecture":"京都府","prefecture_kana":"キョウトフ","city":"京都市上京区","city_kana":"キョウトシカミギョウク","town":"北蟹屋町","town_kana":"キタカニヤチョウ","prefecture_code":26},"0044":{"zip_code":"6020044","prefecture":"京都府","prefecture_kana":"キョウトフ","city":"京都市上京区","city_kana":"キョウトシカミギョウク","town":"北兼康町","town_kana":"キタカネヤスチョウ","prefecture_code":26},"8308":{"zip_code":"6028308","prefecture":"京都府","prefecture_kana":"キョウトフ","city":"京都市上京区","city_kana":"キョウトシカミギョウク","town":"北玄蕃町","town_kana":"キタゲンバチョウ","prefecture_code":26},"8461":{"zip_code":"6028461","prefecture":"京都府","prefecture_kana":"キョウトフ","city":"京都市上京区","city_kana":"キョウトシカミギョウク","town":"北小路中之町","town_kana":"キタコウジナカノチョウ","prefecture_code":26},"0901":{"zip_code":"6020901","prefecture":"京都府","prefecture_kana":"キョウトフ","city":"京都市上京区","city_kana":"キョウトシカミギョウク","town":"北小路室町","town_kana":"キタコウジムロマチ","prefecture_code":26},"8252":{"zip_code":"6028252","prefecture":"京都府","prefecture_kana":"キョウトフ","city":"京都市上京区","city_kana":"キョウトシカミギョウク","town":"北小大門町","town_kana":"キタコダイモンチョウ","prefecture_code":26},"8207":{"zip_code":"6028207","prefecture":"京都府","prefecture_kana":"キョウトフ","city":"京都市上京区","city_kana":"キョウトシカミギョウク","town":"北新在家町","town_kana":"キタシンザイケチョウ","prefecture_code":26},"8247":{"zip_code":"6028247","prefecture":"京都府","prefecture_kana":"キョウトフ","city":"京都市上京区","city_kana":"キョウトシカミギョウク","town":"北俵町","town_kana":"キタタワラチョウ","prefecture_code":26},"0092":{"zip_code":"6020092","prefecture":"京都府","prefecture_kana":"キョウトフ","city":"京都市上京区","city_kana":"キョウトシカミギョウク","town":"北仲之町","town_kana":"キタナカノチョウ","prefecture_code":26},"8214":{"zip_code":"6028214","prefecture":"京都府","prefecture_kana":"キョウトフ","city":"京都市上京区","city_kana":"キョウトシカミギョウク","town":"北之御門町","town_kana":"キタノゴモンチョウ","prefecture_code":26},"0852":{"zip_code":"6020852","prefecture":"京都府","prefecture_kana":"キョウトフ","city":"京都市上京区","city_kana":"キョウトシカミギョウク","town":"北之辺町","town_kana":"キタノベチョウ","prefecture_code":26},"0056":{"zip_code":"6020056","prefecture":"京都府","prefecture_kana":"キョウトフ","city":"京都市上京区","city_kana":"キョウトシカミギョウク","town":"北舟橋町","town_kana":"キタフナハシチョウ","prefecture_code":26},"8368":[{"zip_code":"6028368","prefecture":"京都府","prefecture_kana":"キョウトフ","city":"京都市上京区","city_kana":"キョウトシカミギョウク","town":"北町（上の下立売通天神道西入上る、上の下立売通御前西入、上","town_kana":"キタマチ","prefecture_code":26},{"zip_code":"6028368","prefecture":"京都府","prefecture_kana":"キョウトフ","city":"京都市上京区","city_kana":"キョウトシカミギョウク","town":"の下立売通御前西入上る、上の下立売通御前西入２丁目、上の下立売通御前西入","town_kana":"キタマチ","prefecture_code":26},{"zip_code":"6028368","prefecture":"京都府","prefecture_kana":"キョウトフ","city":"京都市上京区","city_kana":"キョウトシカミギョウク","town":"２筋目、下長者町通御前西入、天神道上の下立売上る、天神道仁和寺街道下る、","town_kana":"キタマチ","prefecture_code":26},{"zip_code":"6028368","prefecture":"京都府","prefecture_kana":"キョウトフ","city":"京都市上京区","city_kana":"キョウトシカミギョウク","town":"天神道下立売上る、天神道妙心寺道上る、天神道妙心寺道上る西入、仁和寺街","town_kana":"キタマチ","prefecture_code":26},{"zip_code":"6028368","prefecture":"京都府","prefecture_kana":"キョウトフ","city":"京都市上京区","city_kana":"キョウトシカミギョウク","town":"道天神道西入下る、仁和寺街道天神道東入下る、御前通上の下立売上る、御前通","town_kana":"キタマチ","prefecture_code":26},{"zip_code":"6028368","prefecture":"京都府","prefecture_kana":"キョウトフ","city":"京都市上京区","city_kana":"キョウトシカミギョウク","town":"上の下立売上る西入、御前通下立売上る、御前通下長者町上る西入、御前通仁","town_kana":"キタマチ","prefecture_code":26},{"zip_code":"6028368","prefecture":"京都府","prefecture_kana":"キョウトフ","city":"京都市上京区","city_kana":"キョウトシカミギョウク","town":"和寺街道下る西入、御前通妙心寺道上る西入、御前通西裏上の下立売上る、御前","town_kana":"キタマチ","prefecture_code":26},{"zip_code":"6028368","prefecture":"京都府","prefecture_kana":"キョウトフ","city":"京都市上京区","city_kana":"キョウトシカミギョウク","town":"通西裏下立売上る）","town_kana":"キタマチ","prefecture_code":26}],"8392":[{"zip_code":"6028392","prefecture":"京都府","prefecture_kana":"キョウトフ","city":"京都市上京区","city_kana":"キョウトシカミギョウク","town":"北町（御前通五辻上る、御前通今出川上る、御前通今出川上る１","town_kana":"キタマチ","prefecture_code":26},{"zip_code":"6028392","prefecture":"京都府","prefecture_kana":"キョウトフ","city":"京都市上京区","city_kana":"キョウトシカミギョウク","town":"丁目、御前通今出川上る２丁目、御前通今出川上る２丁目西入、御前通今出川上","town_kana":"キタマチ","prefecture_code":26},{"zip_code":"6028392","prefecture":"京都府","prefecture_kana":"キョウトフ","city":"京都市上京区","city_kana":"キョウトシカミギョウク","town":"る２筋目、御前通今出川上る西入、御前通今出川上る東入、御前通今出川２丁目","town_kana":"キタマチ","prefecture_code":26},{"zip_code":"6028392","prefecture":"京都府","prefecture_kana":"キョウトフ","city":"京都市上京区","city_kana":"キョウトシカミギョウク","town":"上る、御前通寺之内下る）","town_kana":"キタマチ","prefecture_code":26}],"0818":{"zip_code":"6020818","prefecture":"京都府","prefecture_kana":"キョウトフ","city":"京都市上京区","city_kana":"キョウトシカミギョウク","town":"北横町","town_kana":"キタヨコチョウ","prefecture_code":26},"0027":{"zip_code":"6020027","prefecture":"京都府","prefecture_kana":"キョウトフ","city":"京都市上京区","city_kana":"キョウトシカミギョウク","town":"木下突抜町","town_kana":"キノシタツキヌケチョウ","prefecture_code":26},"8146":{"zip_code":"6028146","prefecture":"京都府","prefecture_kana":"キョウトフ","city":"京都市上京区","city_kana":"キョウトシカミギョウク","town":"木屋之町","town_kana":"キヤノチョウ","prefecture_code":26},"0851":{"zip_code":"6020851","prefecture":"京都府","prefecture_kana":"キョウトフ","city":"京都市上京区","city_kana":"キョウトシカミギョウク","town":"九軒町","town_kana":"キュウケンチョウ","prefecture_code":26},"0881":{"zip_code":"6020881","prefecture":"京都府","prefecture_kana":"キョウトフ","city":"京都市上京区","city_kana":"キョウトシカミギョウク","town":"京都御苑","town_kana":"キョウトギョエン","prefecture_code":26},"8116":{"zip_code":"6028116","prefecture":"京都府","prefecture_kana":"キョウトフ","city":"京都市上京区","city_kana":"キョウトシカミギョウク","town":"清元町","town_kana":"キヨモトチョウ","prefecture_code":26},"8476":{"zip_code":"6028476","prefecture":"京都府","prefecture_kana":"キョウトフ","city":"京都市上京区","city_kana":"キョウトシカミギョウク","town":"桐木町","town_kana":"キリノキチョウ","prefecture_code":26},"0876":{"zip_code":"6020876","prefecture":"京都府","prefecture_kana":"キョウトフ","city":"京都市上京区","city_kana":"キョウトシカミギョウク","town":"錦砂町","town_kana":"キンシャチョウ","prefecture_code":26},"8173":{"zip_code":"6028173","prefecture":"京都府","prefecture_kana":"キョウトフ","city":"京都市上京区","city_kana":"キョウトシカミギョウク","town":"金馬場町","town_kana":"キンババチョウ","prefecture_code":26},"8127":{"zip_code":"6028127","prefecture":"京都府","prefecture_kana":"キョウトフ","city":"京都市上京区","city_kana":"キョウトシカミギョウク","town":"櫛笥町","town_kana":"クシゲチョウ","prefecture_code":26},"0918":{"zip_code":"6020918","prefecture":"京都府","prefecture_kana":"キョウトフ","city":"京都市上京区","city_kana":"キョウトシカミギョウク","town":"薬屋町","town_kana":"クスリヤチョウ","prefecture_code":26},"8406":{"zip_code":"6028406","prefecture":"京都府","prefecture_kana":"キョウトフ","city":"京都市上京区","city_kana":"キョウトシカミギョウク","town":"花開院町","town_kana":"ケイカインチョウ","prefecture_code":26},"0002":{"zip_code":"6020002","prefecture":"京都府","prefecture_kana":"キョウトフ","city":"京都市上京区","city_kana":"キョウトシカミギョウク","town":"継孝院町","town_kana":"ケイコウインチョウ","prefecture_code":26},"0018":{"zip_code":"6020018","prefecture":"京都府","prefecture_kana":"キョウトフ","city":"京都市上京区","city_kana":"キョウトシカミギョウク","town":"玄蕃町","town_kana":"ゲンバチョウ","prefecture_code":26},"0893":{"zip_code":"6020893","prefecture":"京都府","prefecture_kana":"キョウトフ","city":"京都市上京区","city_kana":"キョウトシカミギョウク","town":"玄武町","town_kana":"ゲンブチョウ","prefecture_code":26},"8428":{"zip_code":"6028428","prefecture":"京都府","prefecture_kana":"キョウトフ","city":"京都市上京区","city_kana":"キョウトシカミギョウク","town":"幸在町","town_kana":"コウザイチョウ","prefecture_code":26},"8114":[{"zip_code":"6028114","prefecture":"京都府","prefecture_kana":"キョウトフ","city":"京都市上京区","city_kana":"キョウトシカミギョウク","town":"荒神町（猪熊通下立売上る、猪熊通出水下る、猪熊通椹木町上","town_kana":"コウジンチョウ","prefecture_code":26},{"zip_code":"6028114","prefecture":"京都府","prefecture_kana":"キョウトフ","city":"京都市上京区","city_kana":"キョウトシカミギョウク","town":"る、出水通猪熊西入、出水通猪熊東入、出水通葭屋町西入）","town_kana":"コウジンチョウ","prefecture_code":26}],"0856":[{"zip_code":"6020856","prefecture":"京都府","prefecture_kana":"キョウトフ","city":"京都市上京区","city_kana":"キョウトシカミギョウク","town":"荒神町（河原町通荒神口上る、荒神口通河原町西入、荒神口通河","town_kana":"コウジンチョウ","prefecture_code":26},{"zip_code":"6020856","prefecture":"京都府","prefecture_kana":"キョウトフ","city":"京都市上京区","city_kana":"キョウトシカミギョウク","town":"原町東入、荒神口通寺町東入、寺町通荒神口上る）","town_kana":"コウジンチョウ","prefecture_code":26}],"8267":{"zip_code":"6028267","prefecture":"京都府","prefecture_kana":"キョウトフ","city":"京都市上京区","city_kana":"キョウトシカミギョウク","town":"高台院竪町","town_kana":"コウダイインタテマチ","prefecture_code":26},"8271":{"zip_code":"6028271","prefecture":"京都府","prefecture_kana":"キョウトフ","city":"京都市上京区","city_kana":"キョウトシカミギョウク","town":"高台院町","town_kana":"コウダイインチョウ","prefecture_code":26},"0835":{"zip_code":"6020835","prefecture":"京都府","prefecture_kana":"キョウトフ","city":"京都市上京区","city_kana":"キョウトシカミギョウク","town":"革堂内町","town_kana":"コウドウウチチョウ","prefecture_code":26},"8132":{"zip_code":"6028132","prefecture":"京都府","prefecture_kana":"キョウトフ","city":"京都市上京区","city_kana":"キョウトシカミギョウク","town":"講堂町","town_kana":"コウドウチョウ","prefecture_code":26},"0943":{"zip_code":"6020943","prefecture":"京都府","prefecture_kana":"キョウトフ","city":"京都市上京区","city_kana":"キョウトシカミギョウク","town":"革堂町（小川通一条上る、小川通武者小路下る、武者小路通小川東入）","town_kana":"コウドウチョウ(オガワドオリイチジョウアガル、オガワドオリムシャコウジサガル、ムシャコウジドオリオガワヒガシイル)","prefecture_code":26},"8463":{"zip_code":"6028463","prefecture":"京都府","prefecture_kana":"キョウトフ","city":"京都市上京区","city_kana":"キョウトシカミギョウク","town":"革堂町（元誓願寺通浄福寺西入）","town_kana":"コウドウチョウ(モトセイガンジドオリジョウフクジニシイル)","prefecture_code":26},"0945":{"zip_code":"6020945","prefecture":"京都府","prefecture_kana":"キョウトフ","city":"京都市上京区","city_kana":"キョウトシカミギョウク","town":"革堂仲之町","town_kana":"コウドウナカノチョウ","prefecture_code":26},"0959":{"zip_code":"6020959","prefecture":"京都府","prefecture_kana":"キョウトフ","city":"京都市上京区","city_kana":"キョウトシカミギョウク","town":"革堂西町","town_kana":"コウドウニシマチ","prefecture_code":26},"8299":{"zip_code":"6028299","prefecture":"京都府","prefecture_kana":"キョウトフ","city":"京都市上京区","city_kana":"キョウトシカミギョウク","town":"革堂之内町","town_kana":"コウドウノウチチョウ","prefecture_code":26},"8275":{"zip_code":"6028275","prefecture":"京都府","prefecture_kana":"キョウトフ","city":"京都市上京区","city_kana":"キョウトシカミギョウク","town":"革堂前之町","town_kana":"コウドウマエノチョウ","prefecture_code":26},"0801":{"zip_code":"6020801","prefecture":"京都府","prefecture_kana":"キョウトフ","city":"京都市上京区","city_kana":"キョウトシカミギョウク","town":"高徳寺町","town_kana":"コウトクジチョウ","prefecture_code":26},"0051":{"zip_code":"6020051","prefecture":"京都府","prefecture_kana":"キョウトフ","city":"京都市上京区","city_kana":"キョウトシカミギョウク","town":"御三軒町","town_kana":"ゴサンゲンチョウ","prefecture_code":26},"0904":{"zip_code":"6020904","prefecture":"京都府","prefecture_kana":"キョウトフ","city":"京都市上京区","city_kana":"キョウトシカミギョウク","town":"小島町","town_kana":"コジマチョウ","prefecture_code":26},"0023":{"zip_code":"6020023","prefecture":"京都府","prefecture_kana":"キョウトフ","city":"京都市上京区","city_kana":"キョウトシカミギョウク","town":"御所八幡町","town_kana":"ゴショハチマンチョウ","prefecture_code":26},"8043":{"zip_code":"6028043","prefecture":"京都府","prefecture_kana":"キョウトフ","city":"京都市上京区","city_kana":"キョウトシカミギョウク","town":"五町目","town_kana":"ゴチョウメ","prefecture_code":26},"8013":{"zip_code":"6028013","prefecture":"京都府","prefecture_kana":"キョウトフ","city":"京都市上京区","city_kana":"キョウトシカミギョウク","town":"五町目町","town_kana":"ゴチョウメチョウ","prefecture_code":26},"8234":{"zip_code":"6028234","prefecture":"京都府","prefecture_kana":"キョウトフ","city":"京都市上京区","city_kana":"キョウトシカミギョウク","town":"小寺町","town_kana":"コデラチョウ","prefecture_code":26},"8133":{"zip_code":"6028133","prefecture":"京都府","prefecture_kana":"キョウトフ","city":"京都市上京区","city_kana":"キョウトシカミギョウク","town":"小伝馬町","town_kana":"コデンマチョウ","prefecture_code":26},"0821":{"zip_code":"6020821","prefecture":"京都府","prefecture_kana":"キョウトフ","city":"京都市上京区","city_kana":"キョウトシカミギョウク","town":"後藤町","town_kana":"ゴトウチョウ","prefecture_code":26},"8046":[{"zip_code":"6028046","prefecture":"京都府","prefecture_kana":"キョウトフ","city":"京都市上京区","city_kana":"キョウトシカミギョウク","town":"近衛町（油小路通下立売上る、油小路通出水下る、出水通油小路西","town_kana":"コノエチョウ","prefecture_code":26},{"zip_code":"6028046","prefecture":"京都府","prefecture_kana":"キョウトフ","city":"京都市上京区","city_kana":"キョウトシカミギョウク","town":"入、出水通油小路東入）","town_kana":"コノエチョウ","prefecture_code":26}],"8019":[{"zip_code":"6028019","prefecture":"京都府","prefecture_kana":"キョウトフ","city":"京都市上京区","city_kana":"キョウトシカミギョウク","town":"近衛町（下長者町通室町西入、下長者町通室町東入、出水通烏丸西","town_kana":"コノエチョウ","prefecture_code":26},{"zip_code":"6028019","prefecture":"京都府","prefecture_kana":"キョウトフ","city":"京都市上京区","city_kana":"キョウトシカミギョウク","town":"入、出水通室町東入、室町通下長者町下る、室町通出水上る、室町通出水上る","town_kana":"コノエチョウ","prefecture_code":26},{"zip_code":"6028019","prefecture":"京都府","prefecture_kana":"キョウトフ","city":"京都市上京区","city_kana":"キョウトシカミギョウク","town":"東入）","town_kana":"コノエチョウ","prefecture_code":26}],"0047":{"zip_code":"6020047","prefecture":"京都府","prefecture_kana":"キョウトフ","city":"京都市上京区","city_kana":"キョウトシカミギョウク","town":"近衛殿表町","town_kana":"コノエデンオモテチョウ","prefecture_code":26},"0045":{"zip_code":"6020045","prefecture":"京都府","prefecture_kana":"キョウトフ","city":"京都市上京区","city_kana":"キョウトシカミギョウク","town":"近衛殿北口町","town_kana":"コノエデンキタグチチョウ","prefecture_code":26},"8342":{"zip_code":"6028342","prefecture":"京都府","prefecture_kana":"キョウトフ","city":"京都市上京区","city_kana":"キョウトシカミギョウク","town":"五番町","town_kana":"ゴバンチョウ","prefecture_code":26},"0872":{"zip_code":"6020872","prefecture":"京都府","prefecture_kana":"キョウトフ","city":"京都市上京区","city_kana":"キョウトシカミギョウク","town":"駒之町","town_kana":"コマノチョウ","prefecture_code":26},"8034":[{"zip_code":"6028034","prefecture":"京都府","prefecture_kana":"キョウトフ","city":"京都市上京区","city_kana":"キョウトシカミギョウク","town":"米屋町（油小路椹木町下る、油小路通丸太町上る、椹木町通油小","town_kana":"コメヤチョウ","prefecture_code":26},{"zip_code":"6028034","prefecture":"京都府","prefecture_kana":"キョウトフ","city":"京都市上京区","city_kana":"キョウトシカミギョウク","town":"路西入、椹木町通油小路東入、丸太町通油小路西入、丸太町通油小路東入）","town_kana":"コメヤチョウ","prefecture_code":26}],"0846":[{"zip_code":"6020846","prefecture":"京都府","prefecture_kana":"キョウトフ","city":"京都市上京区","city_kana":"キョウトシカミギョウク","town":"米屋町（今出川通寺町東入、今出川通寺町東入下る、今出川通河","town_kana":"コメヤチョウ","prefecture_code":26},{"zip_code":"6020846","prefecture":"京都府","prefecture_kana":"キョウトフ","city":"京都市上京区","city_kana":"キョウトシカミギョウク","town":"原町西入上る、河原町通今出川下る西入、寺町通今出川下る、寺町通今出川下","town_kana":"コメヤチョウ","prefecture_code":26},{"zip_code":"6020846","prefecture":"京都府","prefecture_kana":"キョウトフ","city":"京都市上京区","city_kana":"キョウトシカミギョウク","town":"る東入、中筋通今出川下る）","town_kana":"コメヤチョウ","prefecture_code":26}],"8157":{"zip_code":"6028157","prefecture":"京都府","prefecture_kana":"キョウトフ","city":"京都市上京区","city_kana":"キョウトシカミギョウク","town":"小山町","town_kana":"コヤマチョウ","prefecture_code":26},"8018":{"zip_code":"6028018","prefecture":"京都府","prefecture_kana":"キョウトフ","city":"京都市上京区","city_kana":"キョウトシカミギョウク","town":"御霊町","town_kana":"ゴリョウチョウ","prefecture_code":26},"8179":{"zip_code":"6028179","prefecture":"京都府","prefecture_kana":"キョウトフ","city":"京都市上京区","city_kana":"キョウトシカミギョウク","town":"坤高町","town_kana":"コンタカチョウ","prefecture_code":26},"8151":{"zip_code":"6028151","prefecture":"京都府","prefecture_kana":"キョウトフ","city":"京都市上京区","city_kana":"キョウトシカミギョウク","town":"西院町","town_kana":"サイインチョウ","prefecture_code":26},"8242":{"zip_code":"6028242","prefecture":"京都府","prefecture_kana":"キョウトフ","city":"京都市上京区","city_kana":"キョウトシカミギョウク","town":"皀莢町","town_kana":"サイカチチョウ","prefecture_code":26},"8354":{"zip_code":"6028354","prefecture":"京都府","prefecture_kana":"キョウトフ","city":"京都市上京区","city_kana":"キョウトシカミギョウク","town":"西東町","town_kana":"サイトウチョウ","prefecture_code":26},"0814":{"zip_code":"6020814","prefecture":"京都府","prefecture_kana":"キョウトフ","city":"京都市上京区","city_kana":"キョウトシカミギョウク","town":"幸神町","town_kana":"サイノカミチョウ","prefecture_code":26},"0842":[{"zip_code":"6020842","prefecture":"京都府","prefecture_kana":"キョウトフ","city":"京都市上京区","city_kana":"キョウトシカミギョウク","town":"栄町（石薬師通河原西入、河原町通石薬師上る、河原町通石薬","town_kana":"サカエチョウ","prefecture_code":26},{"zip_code":"6020842","prefecture":"京都府","prefecture_kana":"キョウトフ","city":"京都市上京区","city_kana":"キョウトシカミギョウク","town":"師下る、河原町通今出川下る、河原町通今出川２筋目下る西、河原町通今出川","town_kana":"サカエチョウ","prefecture_code":26},{"zip_code":"6020842","prefecture":"京都府","prefecture_kana":"キョウトフ","city":"京都市上京区","city_kana":"キョウトシカミギョウク","town":"下る２丁目、河原町通今出川下る２筋目西、河原町通今出川下る３丁目）","town_kana":"サカエチョウ","prefecture_code":26}],"8202":[{"zip_code":"6028202","prefecture":"京都府","prefecture_kana":"キョウトフ","city":"京都市上京区","city_kana":"キョウトシカミギョウク","town":"栄町（大宮通一条上る西入、大宮通中立売下る、智恵光院通一条","town_kana":"サカエチョウ","prefecture_code":26},{"zip_code":"6028202","prefecture":"京都府","prefecture_kana":"キョウトフ","city":"京都市上京区","city_kana":"キョウトシカミギョウク","town":"上る東入）","town_kana":"サカエチョウ","prefecture_code":26}],"8304":{"zip_code":"6028304","prefecture":"京都府","prefecture_kana":"キョウトフ","city":"京都市上京区","city_kana":"キョウトシカミギョウク","town":"作庵町","town_kana":"サクアンチョウ","prefecture_code":26},"8445":{"zip_code":"6028445","prefecture":"京都府","prefecture_kana":"キョウトフ","city":"京都市上京区","city_kana":"キョウトシカミギョウク","town":"桜井町","town_kana":"サクライチョウ","prefecture_code":26},"0805":{"zip_code":"6020805","prefecture":"京都府","prefecture_kana":"キョウトフ","city":"京都市上京区","city_kana":"キョウトシカミギョウク","town":"桜木町","town_kana":"サクラギチョウ","prefecture_code":26},"8453":{"zip_code":"6028453","prefecture":"京都府","prefecture_kana":"キョウトフ","city":"京都市上京区","city_kana":"キョウトシカミギョウク","town":"笹屋","town_kana":"ササヤ","prefecture_code":26},"8314":{"zip_code":"6028314","prefecture":"京都府","prefecture_kana":"キョウトフ","city":"京都市上京区","city_kana":"キョウトシカミギョウク","town":"佐竹町","town_kana":"サタケチョウ","prefecture_code":26},"8145":{"zip_code":"6028145","prefecture":"京都府","prefecture_kana":"キョウトフ","city":"京都市上京区","city_kana":"キョウトシカミギョウク","town":"左馬松町","town_kana":"サママツチョウ","prefecture_code":26},"0826":{"zip_code":"6020826","prefecture":"京都府","prefecture_kana":"キョウトフ","city":"京都市上京区","city_kana":"キョウトシカミギョウク","town":"三栄町","town_kana":"サンエイチョウ","prefecture_code":26},"8341":{"zip_code":"6028341","prefecture":"京都府","prefecture_kana":"キョウトフ","city":"京都市上京区","city_kana":"キョウトシカミギョウク","town":"三軒町","town_kana":"サンケンチョウ","prefecture_code":26},"0922":{"zip_code":"6020922","prefecture":"京都府","prefecture_kana":"キョウトフ","city":"京都市上京区","city_kana":"キョウトシカミギョウク","town":"讃州寺町","town_kana":"サンシュウジチョウ","prefecture_code":26},"8333":{"zip_code":"6028333","prefecture":"京都府","prefecture_kana":"キョウトフ","city":"京都市上京区","city_kana":"キョウトシカミギョウク","town":"三条殿町","town_kana":"サンジョウデンチョウ","prefecture_code":26},"8356":{"zip_code":"6028356","prefecture":"京都府","prefecture_kana":"キョウトフ","city":"京都市上京区","city_kana":"キョウトシカミギョウク","town":"三助町","town_kana":"サンスケチョウ","prefecture_code":26},"8135":{"zip_code":"6028135","prefecture":"京都府","prefecture_kana":"キョウトフ","city":"京都市上京区","city_kana":"キョウトシカミギョウク","town":"三町目（松屋町通椹木町下る、松屋町通丸太町上る）","town_kana":"サンチョウメ(マツヤマチドオリサワラギマチサガル、マツヤマチドオリマルタマチアガル)","prefecture_code":26},"8056":[{"zip_code":"6028056","prefecture":"京都府","prefecture_kana":"キョウトフ","city":"京都市上京区","city_kana":"キョウトシカミギョウク","town":"三町目（出水通東堀川東入、出水通堀川東入、東堀川通下長者","town_kana":"サンチョウメ","prefecture_code":26},{"zip_code":"6028056","prefecture":"京都府","prefecture_kana":"キョウトフ","city":"京都市上京区","city_kana":"キョウトシカミギョウク","town":"町下る、東堀川通出水上る）","town_kana":"サンチョウメ","prefecture_code":26}],"0915":{"zip_code":"6020915","prefecture":"京都府","prefecture_kana":"キョウトフ","city":"京都市上京区","city_kana":"キョウトシカミギョウク","town":"三丁町","town_kana":"サンテイチョウ","prefecture_code":26},"8274":{"zip_code":"6028274","prefecture":"京都府","prefecture_kana":"キョウトフ","city":"京都市上京区","city_kana":"キョウトシカミギョウク","town":"山王町","town_kana":"サンノウチョウ","prefecture_code":26},"8358":{"zip_code":"6028358","prefecture":"京都府","prefecture_kana":"キョウトフ","city":"京都市上京区","city_kana":"キョウトシカミギョウク","town":"三番町","town_kana":"サンバンチョウ","prefecture_code":26},"8436":{"zip_code":"6028436","prefecture":"京都府","prefecture_kana":"キョウトフ","city":"京都市上京区","city_kana":"キョウトシカミギョウク","town":"慈眼庵町","town_kana":"ジゲンアンチョウ","prefecture_code":26},"8359":{"zip_code":"6028359","prefecture":"京都府","prefecture_kana":"キョウトフ","city":"京都市上京区","city_kana":"キョウトシカミギョウク","town":"七番町","town_kana":"シチバンチョウ","prefecture_code":26},"0059":{"zip_code":"6020059","prefecture":"京都府","prefecture_kana":"キョウトフ","city":"京都市上京区","city_kana":"キョウトシカミギョウク","town":"実相院町","town_kana":"ジッソウインチョウ","prefecture_code":26},"8071":{"zip_code":"6028071","prefecture":"京都府","prefecture_kana":"キョウトフ","city":"京都市上京区","city_kana":"キョウトシカミギョウク","town":"仕丁町","town_kana":"シテイチョウ","prefecture_code":26},"8277":{"zip_code":"6028277","prefecture":"京都府","prefecture_kana":"キョウトフ","city":"京都市上京区","city_kana":"キョウトシカミギョウク","town":"信濃町","town_kana":"シナノチョウ","prefecture_code":26},"8438":{"zip_code":"6028438","prefecture":"京都府","prefecture_kana":"キョウトフ","city":"京都市上京区","city_kana":"キョウトシカミギョウク","town":"芝大宮町","town_kana":"シバオオミヤチョウ","prefecture_code":26},"8412":{"zip_code":"6028412","prefecture":"京都府","prefecture_kana":"キョウトフ","city":"京都市上京区","city_kana":"キョウトシカミギョウク","town":"芝之町","town_kana":"シバノチョウ","prefecture_code":26},"8421":{"zip_code":"6028421","prefecture":"京都府","prefecture_kana":"キョウトフ","city":"京都市上京区","city_kana":"キョウトシカミギョウク","town":"芝薬師町","town_kana":"シバヤクシチョウ","prefecture_code":26},"8225":{"zip_code":"6028225","prefecture":"京都府","prefecture_kana":"キョウトフ","city":"京都市上京区","city_kana":"キョウトシカミギョウク","town":"下石橋町","town_kana":"シモイシバシチョウ","prefecture_code":26},"8239":{"zip_code":"6028239","prefecture":"京都府","prefecture_kana":"キョウトフ","city":"京都市上京区","city_kana":"キョウトシカミギョウク","town":"下石橋南半町","town_kana":"シモイシバシミナミハンチョウ","prefecture_code":26},"8075":{"zip_code":"6028075","prefecture":"京都府","prefecture_kana":"キョウトフ","city":"京都市上京区","city_kana":"キョウトシカミギョウク","town":"下小川町","town_kana":"シモオガワチョウ","prefecture_code":26},"8204":{"zip_code":"6028204","prefecture":"京都府","prefecture_kana":"キョウトフ","city":"京都市上京区","city_kana":"キョウトシカミギョウク","town":"下鏡石町","town_kana":"シモカガミイシチョウ","prefecture_code":26},"0019":{"zip_code":"6020019","prefecture":"京都府","prefecture_kana":"キョウトフ","city":"京都市上京区","city_kana":"キョウトシカミギョウク","town":"下木下町","town_kana":"シモキノシタチョウ","prefecture_code":26},"0007":{"zip_code":"6020007","prefecture":"京都府","prefecture_kana":"キョウトフ","city":"京都市上京区","city_kana":"キョウトシカミギョウク","town":"下清蔵口町","town_kana":"シモセイゾウグチチョウ","prefecture_code":26},"8372":{"zip_code":"6028372","prefecture":"京都府","prefecture_kana":"キョウトフ","city":"京都市上京区","city_kana":"キョウトシカミギョウク","town":"下竪町","town_kana":"シモタテチョウ","prefecture_code":26},"0074":{"zip_code":"6020074","prefecture":"京都府","prefecture_kana":"キョウトフ","city":"京都市上京区","city_kana":"キョウトシカミギョウク","town":"下天神町","town_kana":"シモテンジンチョウ","prefecture_code":26},"0837":{"zip_code":"6020837","prefecture":"京都府","prefecture_kana":"キョウトフ","city":"京都市上京区","city_kana":"キョウトシカミギョウク","town":"下塔之段町","town_kana":"シモトウノダンチョウ","prefecture_code":26},"8365":{"zip_code":"6028365","prefecture":"京都府","prefecture_kana":"キョウトフ","city":"京都市上京区","city_kana":"キョウトシカミギョウク","town":"下之町","town_kana":"シモノチョウ","prefecture_code":26},"8142":{"zip_code":"6028142","prefecture":"京都府","prefecture_kana":"キョウトフ","city":"京都市上京区","city_kana":"キョウトシカミギョウク","town":"下堀川町","town_kana":"シモホリカワチョウ","prefecture_code":26},"8176":{"zip_code":"6028176","prefecture":"京都府","prefecture_kana":"キョウトフ","city":"京都市上京区","city_kana":"キョウトシカミギョウク","town":"下丸屋町","town_kana":"シモマルヤチョウ","prefecture_code":26},"0839":{"zip_code":"6020839","prefecture":"京都府","prefecture_kana":"キョウトフ","city":"京都市上京区","city_kana":"キョウトシカミギョウク","town":"下御輿町","town_kana":"シモミコシチョウ","prefecture_code":26},"0014":{"zip_code":"6020014","prefecture":"京都府","prefecture_kana":"キョウトフ","city":"京都市上京区","city_kana":"キョウトシカミギョウク","town":"下柳原北半町","town_kana":"シモヤナギハラキタハンチョウ","prefecture_code":26},"0015":{"zip_code":"6020015","prefecture":"京都府","prefecture_kana":"キョウトフ","city":"京都市上京区","city_kana":"キョウトシカミギョウク","town":"下柳原南半町","town_kana":"シモヤナギハラミナミハンチョウ","prefecture_code":26},"8265":{"zip_code":"6028265","prefecture":"京都府","prefecture_kana":"キョウトフ","city":"京都市上京区","city_kana":"キョウトシカミギョウク","town":"下山里町","town_kana":"シモヤマザトチョウ","prefecture_code":26},"8373":{"zip_code":"6028373","prefecture":"京都府","prefecture_kana":"キョウトフ","city":"京都市上京区","city_kana":"キョウトシカミギョウク","town":"下横町","town_kana":"シモヨコチョウ","prefecture_code":26},"8395":{"zip_code":"6028395","prefecture":"京都府","prefecture_kana":"キョウトフ","city":"京都市上京区","city_kana":"キョウトシカミギョウク","town":"社家長屋町","town_kana":"シャケナガヤチョウ","prefecture_code":26},"0811":{"zip_code":"6020811","prefecture":"京都府","prefecture_kana":"キョウトフ","city":"京都市上京区","city_kana":"キョウトシカミギョウク","town":"十念寺前町","town_kana":"ジュウネンジマエチョウ","prefecture_code":26},"8164":{"zip_code":"6028164","prefecture":"京都府","prefecture_kana":"キョウトフ","city":"京都市上京区","city_kana":"キョウトシカミギョウク","town":"十四軒町","town_kana":"ジュウヨンケンチョウ","prefecture_code":26},"8067":{"zip_code":"6028067","prefecture":"京都府","prefecture_kana":"キョウトフ","city":"京都市上京区","city_kana":"キョウトシカミギョウク","town":"主計町","town_kana":"シュケイチョウ","prefecture_code":26},"8155":{"zip_code":"6028155","prefecture":"京都府","prefecture_kana":"キョウトフ","city":"京都市上京区","city_kana":"キョウトシカミギョウク","town":"主税町","town_kana":"シュゼイチョウ","prefecture_code":26},"8156":{"zip_code":"6028156","prefecture":"京都府","prefecture_kana":"キョウトフ","city":"京都市上京区","city_kana":"キョウトシカミギョウク","town":"聚楽町","town_kana":"ジュラクチョウ","prefecture_code":26},"8015":{"zip_code":"6028015","prefecture":"京都府","prefecture_kana":"キョウトフ","city":"京都市上京区","city_kana":"キョウトシカミギョウク","town":"常泉院町","town_kana":"ジョウセンインチョウ","prefecture_code":26},"8474":{"zip_code":"6028474","prefecture":"京都府","prefecture_kana":"キョウトフ","city":"京都市上京区","city_kana":"キョウトシカミギョウク","town":"上善寺町","town_kana":"ジョウゼンジチョウ","prefecture_code":26},"8481":{"zip_code":"6028481","prefecture":"京都府","prefecture_kana":"キョウトフ","city":"京都市上京区","city_kana":"キョウトシカミギョウク","town":"聖天町","town_kana":"ショウテンチョウ","prefecture_code":26},"8057":{"zip_code":"6028057","prefecture":"京都府","prefecture_kana":"キョウトフ","city":"京都市上京区","city_kana":"キョウトシカミギョウク","town":"紹巴町","town_kana":"ショウハチョウ","prefecture_code":26},"8348":{"zip_code":"6028348","prefecture":"京都府","prefecture_kana":"キョウトフ","city":"京都市上京区","city_kana":"キョウトシカミギョウク","town":"白竹町","town_kana":"シラタケチョウ","prefecture_code":26},"8178":{"zip_code":"6028178","prefecture":"京都府","prefecture_kana":"キョウトフ","city":"京都市上京区","city_kana":"キョウトシカミギョウク","town":"白銀町","town_kana":"シロガネチョウ","prefecture_code":26},"8495":{"zip_code":"6028495","prefecture":"京都府","prefecture_kana":"キョウトフ","city":"京都市上京区","city_kana":"キョウトシカミギョウク","town":"新猪熊町","town_kana":"シンイノクマチョウ","prefecture_code":26},"8494":{"zip_code":"6028494","prefecture":"京都府","prefecture_kana":"キョウトフ","city":"京都市上京区","city_kana":"キョウトシカミギョウク","town":"新猪熊東町","town_kana":"シンイノクマヒガシチョウ","prefecture_code":26},"0843":{"zip_code":"6020843","prefecture":"京都府","prefecture_kana":"キョウトフ","city":"京都市上京区","city_kana":"キョウトシカミギョウク","town":"新夷町","town_kana":"シンエビスチョウ","prefecture_code":26},"0861":{"zip_code":"6020861","prefecture":"京都府","prefecture_kana":"キョウトフ","city":"京都市上京区","city_kana":"キョウトシカミギョウク","town":"新烏丸頭町","town_kana":"シンカラスマカシラチョウ","prefecture_code":26},"0892":{"zip_code":"6020892","prefecture":"京都府","prefecture_kana":"キョウトフ","city":"京都市上京区","city_kana":"キョウトシカミギョウク","town":"新北小路町","town_kana":"シンキタコウジチョウ","prefecture_code":26},"8161":{"zip_code":"6028161","prefecture":"京都府","prefecture_kana":"キョウトフ","city":"京都市上京区","city_kana":"キョウトシカミギョウク","town":"新御幸町","town_kana":"シンゴコウチョウ","prefecture_code":26},"0897":{"zip_code":"6020897","prefecture":"京都府","prefecture_kana":"キョウトフ","city":"京都市上京区","city_kana":"キョウトシカミギョウク","town":"新御霊口町","town_kana":"シンゴリョウグチチョウ","prefecture_code":26},"8381":{"zip_code":"6028381","prefecture":"京都府","prefecture_kana":"キョウトフ","city":"京都市上京区","city_kana":"キョウトシカミギョウク","town":"真盛町","town_kana":"シンセイチョウ","prefecture_code":26},"8337":{"zip_code":"6028337","prefecture":"京都府","prefecture_kana":"キョウトフ","city":"京都市上京区","city_kana":"キョウトシカミギョウク","town":"新建町","town_kana":"シンタケチョウ","prefecture_code":26},"0083":{"zip_code":"6020083","prefecture":"京都府","prefecture_kana":"キョウトフ","city":"京都市上京区","city_kana":"キョウトシカミギョウク","town":"新ン町","town_kana":"シンチョウ","prefecture_code":26},"0866":{"zip_code":"6020866","prefecture":"京都府","prefecture_kana":"キョウトフ","city":"京都市上京区","city_kana":"キョウトシカミギョウク","town":"真町","town_kana":"シンチョウ","prefecture_code":26},"0875":{"zip_code":"6020875","prefecture":"京都府","prefecture_kana":"キョウトフ","city":"京都市上京区","city_kana":"キョウトシカミギョウク","town":"信富町","town_kana":"シントミチョウ","prefecture_code":26},"0833":{"zip_code":"6020833","prefecture":"京都府","prefecture_kana":"キョウトフ","city":"京都市上京区","city_kana":"キョウトシカミギョウク","town":"真如堂突抜町","town_kana":"シンニョドウツキヌケチョウ","prefecture_code":26},"0845":{"zip_code":"6020845","prefecture":"京都府","prefecture_kana":"キョウトフ","city":"京都市上京区","city_kana":"キョウトシカミギョウク","town":"真如堂前町","town_kana":"シンニョドウマエチョウ","prefecture_code":26},"8205":{"zip_code":"6028205","prefecture":"京都府","prefecture_kana":"キョウトフ","city":"京都市上京区","city_kana":"キョウトシカミギョウク","town":"新白水丸町","town_kana":"シンハクスイマルチョウ","prefecture_code":26},"8293":{"zip_code":"6028293","prefecture":"京都府","prefecture_kana":"キョウトフ","city":"京都市上京区","city_kana":"キョウトシカミギョウク","town":"新桝屋町","town_kana":"シンマスヤチョウ","prefecture_code":26},"8409":{"zip_code":"6028409","prefecture":"京都府","prefecture_kana":"キョウトフ","city":"京都市上京区","city_kana":"キョウトシカミギョウク","town":"新美濃部町","town_kana":"シンミノベチョウ","prefecture_code":26},"8391":[{"zip_code":"6028391","prefecture":"京都府","prefecture_kana":"キョウトフ","city":"京都市上京区","city_kana":"キョウトシカミギョウク","town":"神明町（御前通寺之内下る、御前通今出川上る、御前通今出川上","town_kana":"シンメイチョウ","prefecture_code":26},{"zip_code":"6028391","prefecture":"京都府","prefecture_kana":"キョウトフ","city":"京都市上京区","city_kana":"キョウトシカミギョウク","town":"る２丁目、御前通今出川上る３丁目、寺之内通御前西入）","town_kana":"シンメイチョウ","prefecture_code":26}],"8256":[{"zip_code":"6028256","prefecture":"京都府","prefecture_kana":"キョウトフ","city":"京都市上京区","city_kana":"キョウトシカミギョウク","town":"神明町（上長者町通松屋町東入、松屋町通上長者町上る、松屋町通","town_kana":"シンメイチョウ","prefecture_code":26},{"zip_code":"6028256","prefecture":"京都府","prefecture_kana":"キョウトフ","city":"京都市上京区","city_kana":"キョウトシカミギョウク","town":"中立売下る）","town_kana":"シンメイチョウ","prefecture_code":26}],"8257":{"zip_code":"6028257","prefecture":"京都府","prefecture_kana":"キョウトフ","city":"京都市上京区","city_kana":"キョウトシカミギョウク","town":"新元町","town_kana":"シンモトチョウ","prefecture_code":26},"8279":{"zip_code":"6028279","prefecture":"京都府","prefecture_kana":"キョウトフ","city":"京都市上京区","city_kana":"キョウトシカミギョウク","town":"新柳馬場頭町","town_kana":"シンヤナギノバンバカシラチョウ","prefecture_code":26},"0081":{"zip_code":"6020081","prefecture":"京都府","prefecture_kana":"キョウトフ","city":"京都市上京区","city_kana":"キョウトシカミギョウク","town":"瑞光院前町","town_kana":"ズイコウインマエチョウ","prefecture_code":26},"8382":{"zip_code":"6028382","prefecture":"京都府","prefecture_kana":"キョウトフ","city":"京都市上京区","city_kana":"キョウトシカミギョウク","town":"末之口町","town_kana":"スエノクチチョウ","prefecture_code":26},"8312":{"zip_code":"6028312","prefecture":"京都府","prefecture_kana":"キョウトフ","city":"京都市上京区","city_kana":"キョウトシカミギョウク","town":"末広町","town_kana":"スエヒロチョウ","prefecture_code":26},"8246":{"zip_code":"6028246","prefecture":"京都府","prefecture_kana":"キョウトフ","city":"京都市上京区","city_kana":"キョウトシカミギョウク","town":"杉本町","town_kana":"スギモトチョウ","prefecture_code":26},"8483":{"zip_code":"6028483","prefecture":"京都府","prefecture_kana":"キョウトフ","city":"京都市上京区","city_kana":"キョウトシカミギョウク","town":"杉若町","town_kana":"スギワカチョウ","prefecture_code":26},"0091":{"zip_code":"6020091","prefecture":"京都府","prefecture_kana":"キョウトフ","city":"京都市上京区","city_kana":"キョウトシカミギョウク","town":"筋違橋町","town_kana":"スジカイバシチョウ","prefecture_code":26},"8439":{"zip_code":"6028439","prefecture":"京都府","prefecture_kana":"キョウトフ","city":"京都市上京区","city_kana":"キョウトシカミギョウク","town":"硯屋町","town_kana":"スズリヤチョウ","prefecture_code":26},"8262":{"zip_code":"6028262","prefecture":"京都府","prefecture_kana":"キョウトフ","city":"京都市上京区","city_kana":"キョウトシカミギョウク","town":"須浜池町","town_kana":"スハマイケチョウ","prefecture_code":26},"8264":{"zip_code":"6028264","prefecture":"京都府","prefecture_kana":"キョウトフ","city":"京都市上京区","city_kana":"キョウトシカミギョウク","town":"須浜町","town_kana":"スハマチョウ","prefecture_code":26},"8263":{"zip_code":"6028263","prefecture":"京都府","prefecture_kana":"キョウトフ","city":"京都市上京区","city_kana":"キョウトシカミギョウク","town":"須浜東町","town_kana":"スハマヒガシチョウ","prefecture_code":26},"8222":{"zip_code":"6028222","prefecture":"京都府","prefecture_kana":"キョウトフ","city":"京都市上京区","city_kana":"キョウトシカミギョウク","town":"晴明町","town_kana":"セイメイチョウ","prefecture_code":26},"0822":{"zip_code":"6020822","prefecture":"京都府","prefecture_kana":"キョウトフ","city":"京都市上京区","city_kana":"キョウトシカミギョウク","town":"青龍町","town_kana":"セイリュウチョウ","prefecture_code":26},"8003":{"zip_code":"6028003","prefecture":"京都府","prefecture_kana":"キョウトフ","city":"京都市上京区","city_kana":"キョウトシカミギョウク","town":"清和院町","town_kana":"セイワインチョウ","prefecture_code":26},"0006":{"zip_code":"6020006","prefecture":"京都府","prefecture_kana":"キョウトフ","city":"京都市上京区","city_kana":"キョウトシカミギョウク","town":"禅昌院町","town_kana":"ゼンショウインチョウ","prefecture_code":26},"0898":{"zip_code":"6020898","prefecture":"京都府","prefecture_kana":"キョウトフ","city":"京都市上京区","city_kana":"キョウトシカミギョウク","town":"相国寺門前町","town_kana":"ショウコクジモンゼンチョウ","prefecture_code":26},"0844":{"zip_code":"6020844","prefecture":"京都府","prefecture_kana":"キョウトフ","city":"京都市上京区","city_kana":"キョウトシカミギョウク","town":"染殿町","town_kana":"ソメドノチョウ","prefecture_code":26},"8482":[{"zip_code":"6028482","prefecture":"京都府","prefecture_kana":"キョウトフ","city":"京都市上京区","city_kana":"キョウトシカミギョウク","town":"大黒町（上立売通浄福寺西入、上立売通浄福寺東入、浄福寺通上立","town_kana":"ダイコクチョウ","prefecture_code":26},{"zip_code":"6028482","prefecture":"京都府","prefecture_kana":"キョウトフ","city":"京都市上京区","city_kana":"キョウトシカミギョウク","town":"売上る、浄福寺通寺之内下る）","town_kana":"ダイコクチョウ","prefecture_code":26}],"8137":{"zip_code":"6028137","prefecture":"京都府","prefecture_kana":"キョウトフ","city":"京都市上京区","city_kana":"キョウトシカミギョウク","town":"大黒町（猪熊通椹木町上る、猪熊通下立売下る、椹木町通猪熊西入）","town_kana":"ダイコクチョウ(イノクマドオリサワラギチョウアガル、イノクマドオリシモタチウリサガル、サワラギチョウドオリイノクマニシイル)","prefecture_code":26},"8055":{"zip_code":"6028055","prefecture":"京都府","prefecture_kana":"キョウトフ","city":"京都市上京区","city_kana":"キョウトシカミギョウク","town":"大黒屋町","town_kana":"ダイコクヤチョウ","prefecture_code":26},"0003":{"zip_code":"6020003","prefecture":"京都府","prefecture_kana":"キョウトフ","city":"京都市上京区","city_kana":"キョウトシカミギョウク","town":"大心院町","town_kana":"ダイシンインチョウ","prefecture_code":26},"8455":{"zip_code":"6028455","prefecture":"京都府","prefecture_kana":"キョウトフ","city":"京都市上京区","city_kana":"キョウトシカミギョウク","town":"泰童片原町","town_kana":"タイドウカタハラチョウ","prefecture_code":26},"8298":{"zip_code":"6028298","prefecture":"京都府","prefecture_kana":"キョウトフ","city":"京都市上京区","city_kana":"キョウトシカミギョウク","town":"泰童町","town_kana":"タイドウチョウ","prefecture_code":26},"8323":{"zip_code":"6028323","prefecture":"京都府","prefecture_kana":"キョウトフ","city":"京都市上京区","city_kana":"キョウトシカミギョウク","town":"大文字町","town_kana":"ダイモンジチョウ","prefecture_code":26},"8024":{"zip_code":"6028024","prefecture":"京都府","prefecture_kana":"キョウトフ","city":"京都市上京区","city_kana":"キョウトシカミギョウク","town":"大門町","town_kana":"ダイモンチョウ","prefecture_code":26},"0878":{"zip_code":"6020878","prefecture":"京都府","prefecture_kana":"キョウトフ","city":"京都市上京区","city_kana":"キョウトシカミギョウク","town":"高島町","town_kana":"タカシマチョウ","prefecture_code":26},"8052":{"zip_code":"6028052","prefecture":"京都府","prefecture_kana":"キョウトフ","city":"京都市上京区","city_kana":"キョウトシカミギョウク","town":"鷹司町（下長者町通小川東入）","town_kana":"タカツカサチョウ(シモチョウジャマチドオリオガワヒガシイル)","prefecture_code":26},"8002":{"zip_code":"6028002","prefecture":"京都府","prefecture_kana":"キョウトフ","city":"京都市上京区","city_kana":"キョウトシカミギョウク","town":"鷹司町（下長者町通鳥丸西入）","town_kana":"タカツカサチョウ(シモチョウジャマチドオリカラスニシイル)","prefecture_code":26},"8336":{"zip_code":"6028336","prefecture":"京都府","prefecture_kana":"キョウトフ","city":"京都市上京区","city_kana":"キョウトシカミギョウク","town":"滝ケ鼻町","town_kana":"タキガハナチョウ","prefecture_code":26},"0001":{"zip_code":"6020001","prefecture":"京都府","prefecture_kana":"キョウトフ","city":"京都市上京区","city_kana":"キョウトシカミギョウク","town":"竹園町","town_kana":"タケゾノチョウ","prefecture_code":26},"0067":{"zip_code":"6020067","prefecture":"京都府","prefecture_kana":"キョウトフ","city":"京都市上京区","city_kana":"キョウトシカミギョウク","town":"竹屋町","town_kana":"タケヤチョウ","prefecture_code":26},"8209":{"zip_code":"6028209","prefecture":"京都府","prefecture_kana":"キョウトフ","city":"京都市上京区","city_kana":"キョウトシカミギョウク","town":"橘町","town_kana":"タチバナチョウ","prefecture_code":26},"0912":{"zip_code":"6020912","prefecture":"京都府","prefecture_kana":"キョウトフ","city":"京都市上京区","city_kana":"キョウトシカミギョウク","town":"龍前町","town_kana":"タツマエチョウ","prefecture_code":26},"8462":{"zip_code":"6028462","prefecture":"京都府","prefecture_kana":"キョウトフ","city":"京都市上京区","city_kana":"キョウトシカミギョウク","town":"竪亀屋町","town_kana":"タテカメヤチョウ","prefecture_code":26},"8228":{"zip_code":"6028228","prefecture":"京都府","prefecture_kana":"キョウトフ","city":"京都市上京区","city_kana":"キョウトシカミギョウク","town":"竪神明町","town_kana":"タテシンメイチョウ","prefecture_code":26},"0955":{"zip_code":"6020955","prefecture":"京都府","prefecture_kana":"キョウトフ","city":"京都市上京区","city_kana":"キョウトシカミギョウク","town":"竪富田町","town_kana":"タテトミダチョウ","prefecture_code":26},"8216":{"zip_code":"6028216","prefecture":"京都府","prefecture_kana":"キョウトフ","city":"京都市上京区","city_kana":"キョウトシカミギョウク","town":"竪門前町","town_kana":"タテモンゼンチョウ","prefecture_code":26},"0098":{"zip_code":"6020098","prefecture":"京都府","prefecture_kana":"キョウトフ","city":"京都市上京区","city_kana":"キョウトシカミギョウク","town":"竪社北半町","town_kana":"タテヤシロキタハンチョウ","prefecture_code":26},"0099":{"zip_code":"6020099","prefecture":"京都府","prefecture_kana":"キョウトフ","city":"京都市上京区","city_kana":"キョウトシカミギョウク","town":"竪社南半町","town_kana":"タテヤシロミナミハンチョウ","prefecture_code":26},"8163":{"zip_code":"6028163","prefecture":"京都府","prefecture_kana":"キョウトフ","city":"京都市上京区","city_kana":"キョウトシカミギョウク","town":"田中町","town_kana":"タナカチョウ","prefecture_code":26},"8402":{"zip_code":"6028402","prefecture":"京都府","prefecture_kana":"キョウトフ","city":"京都市上京区","city_kana":"キョウトシカミギョウク","town":"田畑町","town_kana":"タバタチョウ","prefecture_code":26},"8286":{"zip_code":"6028286","prefecture":"京都府","prefecture_kana":"キョウトフ","city":"京都市上京区","city_kana":"キョウトシカミギョウク","town":"玉屋町（千本通中立売上る、中立売通千本東入）","town_kana":"タマヤチョウ(センボンドオリナカタチウリアガル、ナカタチウリドオリセンボンヒガシイル)","prefecture_code":26},"8322":[{"zip_code":"6028322","prefecture":"京都府","prefecture_kana":"キョウトフ","city":"京都市上京区","city_kana":"キョウトシカミギョウク","town":"玉屋町（元誓願寺通千本西入、元誓願寺通六軒町東入、六軒町通元","town_kana":"タマヤチョウ","prefecture_code":26},{"zip_code":"6028322","prefecture":"京都府","prefecture_kana":"キョウトフ","city":"京都市上京区","city_kana":"キョウトシカミギョウク","town":"誓願寺上る、六軒町通元誓願寺下る、葭屋町通元誓願寺下る）","town_kana":"タマヤチョウ","prefecture_code":26}],"8288":{"zip_code":"6028288","prefecture":"京都府","prefecture_kana":"キョウトフ","city":"京都市上京区","city_kana":"キョウトシカミギョウク","town":"田丸町","town_kana":"タマルチョウ","prefecture_code":26},"8177":{"zip_code":"6028177","prefecture":"京都府","prefecture_kana":"キョウトフ","city":"京都市上京区","city_kana":"キョウトシカミギョウク","town":"田村備前町","town_kana":"タムラビゼンチョウ","prefecture_code":26},"8261":{"zip_code":"6028261","prefecture":"京都府","prefecture_kana":"キョウトフ","city":"京都市上京区","city_kana":"キョウトシカミギョウク","town":"多門町","town_kana":"タモンチョウ","prefecture_code":26},"0871":{"zip_code":"6020871","prefecture":"京都府","prefecture_kana":"キョウトフ","city":"京都市上京区","city_kana":"キョウトシカミギョウク","town":"俵屋町","town_kana":"タワラヤチョウ","prefecture_code":26},"8224":{"zip_code":"6028224","prefecture":"京都府","prefecture_kana":"キョウトフ","city":"京都市上京区","city_kana":"キョウトシカミギョウク","town":"弾正町","town_kana":"ダンジョウチョウ","prefecture_code":26},"8287":{"zip_code":"6028287","prefecture":"京都府","prefecture_kana":"キョウトフ","city":"京都市上京区","city_kana":"キョウトシカミギョウク","town":"丹波屋町","town_kana":"タンバヤチョウ","prefecture_code":26},"8208":{"zip_code":"6028208","prefecture":"京都府","prefecture_kana":"キョウトフ","city":"京都市上京区","city_kana":"キョウトシカミギョウク","town":"智恵光院前之町","town_kana":"チエコウインマエノチョウ","prefecture_code":26},"8053":{"zip_code":"6028053","prefecture":"京都府","prefecture_kana":"キョウトフ","city":"京都市上京区","city_kana":"キョウトシカミギョウク","town":"茶屋町","town_kana":"チャヤマチ","prefecture_code":26},"8126":{"zip_code":"6028126","prefecture":"京都府","prefecture_kana":"キョウトフ","city":"京都市上京区","city_kana":"キョウトシカミギョウク","town":"中書町","town_kana":"チュウショチョウ","prefecture_code":26},"8054":{"zip_code":"6028054","prefecture":"京都府","prefecture_kana":"キョウトフ","city":"京都市上京区","city_kana":"キョウトシカミギョウク","town":"丁子風呂町","town_kana":"チョウジブロチョウ","prefecture_code":26},"8315":[{"zip_code":"6028315","prefecture":"京都府","prefecture_kana":"キョウトフ","city":"京都市上京区","city_kana":"キョウトシカミギョウク","town":"突抜町（今出川通七本松東入、今出川通七本松東入上る、五辻通七","town_kana":"ツキヌケチョウ","prefecture_code":26},{"zip_code":"6028315","prefecture":"京都府","prefecture_kana":"キョウトフ","city":"京都市上京区","city_kana":"キョウトシカミギョウク","town":"本松東入下る、五辻通六軒町西入下る）","town_kana":"ツキヌケチョウ","prefecture_code":26}],"8065":[{"zip_code":"6028065","prefecture":"京都府","prefecture_kana":"キョウトフ","city":"京都市上京区","city_kana":"キョウトシカミギョウク","town":"突抜町（上長者町通堀川東入上る、中立売通堀川東入下る、油小路","town_kana":"ツキヌケチョウ","prefecture_code":26},{"zip_code":"6028065","prefecture":"京都府","prefecture_kana":"キョウトフ","city":"京都市上京区","city_kana":"キョウトシカミギョウク","town":"堀川の間中立売下る）","town_kana":"ツキヌケチョウ","prefecture_code":26}],"8364":[{"zip_code":"6028364","prefecture":"京都府","prefecture_kana":"キョウトフ","city":"京都市上京区","city_kana":"キョウトシカミギョウク","town":"突抜町（下立売通御前西入、下立売通御前西入下る、下立売通天","town_kana":"ツキヌケチョウ(シモダチウリドオリオンマエニシイル、シモダチウリドオリオンマエニシイルサガル、シモダチウリドオリテン","prefecture_code":26},{"zip_code":"6028364","prefecture":"京都府","prefecture_kana":"キョウトフ","city":"京都市上京区","city_kana":"キョウトシカミギョウク","town":"神道東入、下の下立売通御前西入）","town_kana":"ジンミチヒガシイル、シモノシモダチウリドオリオンマエニシイル)","prefecture_code":26}],"0038":{"zip_code":"6020038","prefecture":"京都府","prefecture_kana":"キョウトフ","city":"京都市上京区","city_kana":"キョウトシカミギョウク","town":"築山北半町","town_kana":"ツキヤマキタハンチョウ","prefecture_code":26},"0034":{"zip_code":"6020034","prefecture":"京都府","prefecture_kana":"キョウトフ","city":"京都市上京区","city_kana":"キョウトシカミギョウク","town":"築山南半町","town_kana":"ツキヤマミナミハンチョウ","prefecture_code":26},"8427":{"zip_code":"6028427","prefecture":"京都府","prefecture_kana":"キョウトフ","city":"京都市上京区","city_kana":"キョウトシカミギョウク","town":"土田町","town_kana":"ツチダチョウ","prefecture_code":26},"8077":{"zip_code":"6028077","prefecture":"京都府","prefecture_kana":"キョウトフ","city":"京都市上京区","city_kana":"キョウトシカミギョウク","town":"土御門町","town_kana":"ツチミカドチョウ","prefecture_code":26},"0802":{"zip_code":"6020802","prefecture":"京都府","prefecture_kana":"キョウトフ","city":"京都市上京区","city_kana":"キョウトシカミギョウク","town":"鶴山町","town_kana":"ツルヤマチョウ","prefecture_code":26},"0862":{"zip_code":"6020862","prefecture":"京都府","prefecture_kana":"キョウトフ","city":"京都市上京区","city_kana":"キョウトシカミギョウク","town":"出水町","town_kana":"デミズチョウ","prefecture_code":26},"8215":{"zip_code":"6028215","prefecture":"京都府","prefecture_kana":"キョウトフ","city":"京都市上京区","city_kana":"キョウトシカミギョウク","town":"寺今町","town_kana":"テライマチョウ","prefecture_code":26},"0073":{"zip_code":"6020073","prefecture":"京都府","prefecture_kana":"キョウトフ","city":"京都市上京区","city_kana":"キョウトシカミギョウク","town":"寺之内竪町","town_kana":"テラノウチタテチョウ","prefecture_code":26},"0087":{"zip_code":"6020087","prefecture":"京都府","prefecture_kana":"キョウトフ","city":"京都市上京区","city_kana":"キョウトシカミギョウク","town":"天神北町","town_kana":"テンジンキタマチ","prefecture_code":26},"8105":{"zip_code":"6028105","prefecture":"京都府","prefecture_kana":"キョウトフ","city":"京都市上京区","city_kana":"キョウトシカミギョウク","town":"天秤町","town_kana":"テンビンチョウ","prefecture_code":26},"8172":{"zip_code":"6028172","prefecture":"京都府","prefecture_kana":"キョウトフ","city":"京都市上京区","city_kana":"キョウトシカミギョウク","town":"天秤丸町","town_kana":"テンビンマルチョウ","prefecture_code":26},"8355":{"zip_code":"6028355","prefecture":"京都府","prefecture_kana":"キョウトフ","city":"京都市上京区","city_kana":"キョウトシカミギョウク","town":"天満屋町","town_kana":"テンマヤチョウ","prefecture_code":26},"8254":{"zip_code":"6028254","prefecture":"京都府","prefecture_kana":"キョウトフ","city":"京都市上京区","city_kana":"キョウトシカミギョウク","town":"藤五郎町","town_kana":"トウゴロウチョウ","prefecture_code":26},"8294":{"zip_code":"6028294","prefecture":"京都府","prefecture_kana":"キョウトフ","city":"京都市上京区","city_kana":"キョウトシカミギョウク","town":"東西俵屋町","town_kana":"トウザイタワラヤチョウ","prefecture_code":26},"8411":{"zip_code":"6028411","prefecture":"京都府","prefecture_kana":"キョウトフ","city":"京都市上京区","city_kana":"キョウトシカミギョウク","town":"東西町","town_kana":"トウザイチョウ","prefecture_code":26},"0004":{"zip_code":"6020004","prefecture":"京都府","prefecture_kana":"キョウトフ","city":"京都市上京区","city_kana":"キョウトシカミギョウク","town":"道正町","town_kana":"ドウショウチョウ","prefecture_code":26},"0937":{"zip_code":"6020937","prefecture":"京都府","prefecture_kana":"キョウトフ","city":"京都市上京区","city_kana":"キョウトシカミギョウク","town":"常盤井図子町","town_kana":"トキワイズシチョウ","prefecture_code":26},"0836":{"zip_code":"6020836","prefecture":"京都府","prefecture_kana":"キョウトフ","city":"京都市上京区","city_kana":"キョウトシカミギョウク","town":"常盤井殿町","town_kana":"トキワイドノチョウ","prefecture_code":26},"0932":{"zip_code":"6020932","prefecture":"京都府","prefecture_kana":"キョウトフ","city":"京都市上京区","city_kana":"キョウトシカミギョウク","town":"徳大寺殿町","town_kana":"トクダイジデンチョウ","prefecture_code":26},"8213":{"zip_code":"6028213","prefecture":"京都府","prefecture_kana":"キョウトフ","city":"京都市上京区","city_kana":"キョウトシカミギョウク","town":"徳屋町","town_kana":"トクヤチョウ","prefecture_code":26},"0072":{"zip_code":"6020072","prefecture":"京都府","prefecture_kana":"キョウトフ","city":"京都市上京区","city_kana":"キョウトシカミギョウク","town":"百々町","town_kana":"ドドチョウ","prefecture_code":26},"8218":{"zip_code":"6028218","prefecture":"京都府","prefecture_kana":"キョウトフ","city":"京都市上京区","city_kana":"キョウトシカミギョウク","town":"富小路町","town_kana":"トミコウジチョウ","prefecture_code":26},"8393":{"zip_code":"6028393","prefecture":"京都府","prefecture_kana":"キョウトフ","city":"京都市上京区","city_kana":"キョウトシカミギョウク","town":"鳥居前町","town_kana":"トリイマエチョウ","prefecture_code":26},"0063":{"zip_code":"6020063","prefecture":"京都府","prefecture_kana":"キョウトフ","city":"京都市上京区","city_kana":"キョウトシカミギョウク","town":"内藤町","town_kana":"ナイトウチョウ","prefecture_code":26},"8147":{"zip_code":"6028147","prefecture":"京都府","prefecture_kana":"キョウトフ","city":"京都市上京区","city_kana":"キョウトシカミギョウク","town":"直家町","town_kana":"ナオイエチョウ","prefecture_code":26},"8493":{"zip_code":"6028493","prefecture":"京都府","prefecture_kana":"キョウトフ","city":"京都市上京区","city_kana":"キョウトシカミギョウク","town":"中猪熊町","town_kana":"ナカイノクマチョウ","prefecture_code":26},"0053":{"zip_code":"6020053","prefecture":"京都府","prefecture_kana":"キョウトフ","city":"京都市上京区","city_kana":"キョウトシカミギョウク","town":"中小川町","town_kana":"ナカオガワチョウ","prefecture_code":26},"8131":{"zip_code":"6028131","prefecture":"京都府","prefecture_kana":"キョウトフ","city":"京都市上京区","city_kana":"キョウトシカミギョウク","town":"長尾町","town_kana":"ナガオチョウ","prefecture_code":26},"0041":{"zip_code":"6020041","prefecture":"京都府","prefecture_kana":"キョウトフ","city":"京都市上京区","city_kana":"キョウトシカミギョウク","town":"中御霊図子町","town_kana":"ナカゴリョウズシチョウ","prefecture_code":26},"8283":{"zip_code":"6028283","prefecture":"京都府","prefecture_kana":"キョウトフ","city":"京都市上京区","city_kana":"キョウトシカミギョウク","town":"仲御霊町","town_kana":"ナカゴリョウチョウ","prefecture_code":26},"0857":{"zip_code":"6020857","prefecture":"京都府","prefecture_kana":"キョウトフ","city":"京都市上京区","city_kana":"キョウトシカミギョウク","town":"中御霊町","town_kana":"ナカゴリョウチョウ","prefecture_code":26},"8158":{"zip_code":"6028158","prefecture":"京都府","prefecture_kana":"キョウトフ","city":"京都市上京区","city_kana":"キョウトシカミギョウク","town":"中務町","town_kana":"ナカツカサチョウ","prefecture_code":26},"8012":{"zip_code":"6028012","prefecture":"京都府","prefecture_kana":"キョウトフ","city":"京都市上京区","city_kana":"キョウトシカミギョウク","town":"中出水町","town_kana":"ナカデミズチョウ","prefecture_code":26},"8353":{"zip_code":"6028353","prefecture":"京都府","prefecture_kana":"キョウトフ","city":"京都市上京区","city_kana":"キョウトシカミギョウク","town":"長門町","town_kana":"ナガトチョウ","prefecture_code":26},"8143":{"zip_code":"6028143","prefecture":"京都府","prefecture_kana":"キョウトフ","city":"京都市上京区","city_kana":"キョウトシカミギョウク","town":"中之町（猪熊通竹屋町上る、猪熊通丸太町下る、西堀川通丸太町下る）","town_kana":"ナカノチョウ(イノクマドオリタケヤチョウアガル、イノクマドオリマルタマチサガル、ニシホリカワドオリマルタマチサガル)","prefecture_code":26},"0864":{"zip_code":"6020864","prefecture":"京都府","prefecture_kana":"キョウトフ","city":"京都市上京区","city_kana":"キョウトシカミギョウク","town":"中之町（東三本木通丸太町上る）","town_kana":"ナカノチョウ(ヒガシサンボンギドオリマルタマチアガル)","prefecture_code":26},"0093":[{"zip_code":"6020093","prefecture":"京都府","prefecture_kana":"キョウトフ","city":"京都市上京区","city_kana":"キョウトシカミギョウク","town":"仲之町（大宮通上御霊前上る、大宮通上御霊前下る、大宮通蘆山寺","town_kana":"ナカノチョウ","prefecture_code":26},{"zip_code":"6020093","prefecture":"京都府","prefecture_kana":"キョウトフ","city":"京都市上京区","city_kana":"キョウトシカミギョウク","town":"上る、大宮通寺之内上る、大宮通寺之内上る２丁目、上御霊前通大宮西入、上御","town_kana":"ナカノチョウ","prefecture_code":26},{"zip_code":"6020093","prefecture":"京都府","prefecture_kana":"キョウトフ","city":"京都市上京区","city_kana":"キョウトシカミギョウク","town":"霊前通大宮東入、蘆山寺通大宮西入）","town_kana":"ナカノチョウ","prefecture_code":26}],"8362":[{"zip_code":"6028362","prefecture":"京都府","prefecture_kana":"キョウトフ","city":"京都市上京区","city_kana":"キョウトシカミギョウク","town":"仲之町（御前通上の下立売上る、御前通上の下立売上る東入、御前","town_kana":"ナカノチョウ","prefecture_code":26},{"zip_code":"6028362","prefecture":"京都府","prefecture_kana":"キョウトフ","city":"京都市上京区","city_kana":"キョウトシカミギョウク","town":"通上の下立売上る２丁目、御前通下立売上る、御前通下立売上る２丁目、御前通","town_kana":"ナカノチョウ","prefecture_code":26},{"zip_code":"6028362","prefecture":"京都府","prefecture_kana":"キョウトフ","city":"京都市上京区","city_kana":"キョウトシカミギョウク","town":"下立売上る２丁目西入、御前通下立売上る東入、下ノ森通下立売上る、下ノ森通","town_kana":"ナカノチョウ","prefecture_code":26},{"zip_code":"6028362","prefecture":"京都府","prefecture_kana":"キョウトフ","city":"京都市上京区","city_kana":"キョウトシカミギョウク","town":"下立売上る西入、上の下立売通御前西入上る）","town_kana":"ナカノチョウ","prefecture_code":26}],"8072":[{"zip_code":"6028072","prefecture":"京都府","prefecture_kana":"キョウトフ","city":"京都市上京区","city_kana":"キョウトシカミギョウク","town":"仲之町（新町通下長者町上る、新町通中長者町下る、中長者町通新","town_kana":"ナカノチョウ","prefecture_code":26},{"zip_code":"6028072","prefecture":"京都府","prefecture_kana":"キョウトフ","city":"京都市上京区","city_kana":"キョウトシカミギョウク","town":"町西入、中長者町通西洞院東入、中長者町通西洞院西入、西洞院通中長者町上","town_kana":"ナカノチョウ","prefecture_code":26},{"zip_code":"6028072","prefecture":"京都府","prefecture_kana":"キョウトフ","city":"京都市上京区","city_kana":"キョウトシカミギョウク","town":"る、西洞院通上長者町下る）","town_kana":"ナカノチョウ","prefecture_code":26}],"0958":[{"zip_code":"6020958","prefecture":"京都府","prefecture_kana":"キョウトフ","city":"京都市上京区","city_kana":"キョウトシカミギョウク","town":"仲之町（油小路通今出川下る、油小路通元誓願寺上る、元誓願寺通","town_kana":"ナカノチョウ","prefecture_code":26},{"zip_code":"6020958","prefecture":"京都府","prefecture_kana":"キョウトフ","city":"京都市上京区","city_kana":"キョウトシカミギョウク","town":"油小路西入、元誓願寺通油小路東入、元誓願寺通堀川東入）","town_kana":"ナカノチョウ","prefecture_code":26}],"8051":{"zip_code":"6028051","prefecture":"京都府","prefecture_kana":"キョウトフ","city":"京都市上京区","city_kana":"キョウトシカミギョウク","town":"中橋詰町","town_kana":"ナカハシヅメチョウ","prefecture_code":26},"8136":{"zip_code":"6028136","prefecture":"京都府","prefecture_kana":"キョウトフ","city":"京都市上京区","city_kana":"キョウトシカミギョウク","town":"中御門横町","town_kana":"ナカミカドヨコチョウ","prefecture_code":26},"8469":{"zip_code":"6028469","prefecture":"京都府","prefecture_kana":"キョウトフ","city":"京都市上京区","city_kana":"キョウトシカミギョウク","town":"中宮町","town_kana":"ナカミヤチョウ","prefecture_code":26},"8175":{"zip_code":"6028175","prefecture":"京都府","prefecture_kana":"キョウトフ","city":"京都市上京区","city_kana":"キョウトシカミギョウク","town":"中村町","town_kana":"ナカムラチョウ","prefecture_code":26},"8403":{"zip_code":"6028403","prefecture":"京都府","prefecture_kana":"キョウトフ","city":"京都市上京区","city_kana":"キョウトシカミギョウク","town":"中社町","town_kana":"ナカヤシロチョウ","prefecture_code":26},"8237":{"zip_code":"6028237","prefecture":"京都府","prefecture_kana":"キョウトフ","city":"京都市上京区","city_kana":"キョウトシカミギョウク","town":"梨木町","town_kana":"ナシノキチョウ","prefecture_code":26},"0028":{"zip_code":"6020028","prefecture":"京都府","prefecture_kana":"キョウトフ","city":"京都市上京区","city_kana":"キョウトシカミギョウク","town":"納屋町","town_kana":"ナヤチョウ","prefecture_code":26},"8243":{"zip_code":"6028243","prefecture":"京都府","prefecture_kana":"キョウトフ","city":"京都市上京区","city_kana":"キョウトシカミギョウク","town":"奈良物町","town_kana":"ナラモノチョウ","prefecture_code":26},"8437":{"zip_code":"6028437","prefecture":"京都府","prefecture_kana":"キョウトフ","city":"京都市上京区","city_kana":"キョウトシカミギョウク","town":"西石屋町","town_kana":"ニシイシヤチョウ","prefecture_code":26},"8306":{"zip_code":"6028306","prefecture":"京都府","prefecture_kana":"キョウトフ","city":"京都市上京区","city_kana":"キョウトシカミギョウク","town":"西五辻北町","town_kana":"ニシイツツジキタチョウ","prefecture_code":26},"8478":{"zip_code":"6028478","prefecture":"京都府","prefecture_kana":"キョウトフ","city":"京都市上京区","city_kana":"キョウトシカミギョウク","town":"西五辻東町","town_kana":"ニシイツツジヒガシマチ","prefecture_code":26},"8383":{"zip_code":"6028383","prefecture":"京都府","prefecture_kana":"キョウトフ","city":"京都市上京区","city_kana":"キョウトシカミギョウク","town":"西今小路町","town_kana":"ニシイマコウジチョウ","prefecture_code":26},"0957":{"zip_code":"6020957","prefecture":"京都府","prefecture_kana":"キョウトフ","city":"京都市上京区","city_kana":"キョウトシカミギョウク","town":"西今町","town_kana":"ニシイマチョウ","prefecture_code":26},"8334":{"zip_code":"6028334","prefecture":"京都府","prefecture_kana":"キョウトフ","city":"京都市上京区","city_kana":"キョウトシカミギョウク","town":"西今出川町","town_kana":"ニシイマデガワチョウ","prefecture_code":26},"8042":{"zip_code":"6028042","prefecture":"京都府","prefecture_kana":"キョウトフ","city":"京都市上京区","city_kana":"キョウトシカミギョウク","town":"西裏辻町","town_kana":"ニシウラツジチョウ","prefecture_code":26},"0046":[{"zip_code":"6020046","prefecture":"京都府","prefecture_kana":"キョウトフ","city":"京都市上京区","city_kana":"キョウトシカミギョウク","town":"西大路町（上立売通小川東入、上立売通新町西入、上立売通新町東","town_kana":"ニシオオジチョウ","prefecture_code":26},{"zip_code":"6020046","prefecture":"京都府","prefecture_kana":"キョウトフ","city":"京都市上京区","city_kana":"キョウトシカミギョウク","town":"入、上立売通新町東入上る、新町通上立売上る）","town_kana":"ニシオオジチョウ","prefecture_code":26}],"8048":[{"zip_code":"6028048","prefecture":"京都府","prefecture_kana":"キョウトフ","city":"京都市上京区","city_kana":"キョウトシカミギョウク","town":"西大路町（油小路通下立売上る、小川通下立売上る、小川通下立売下","town_kana":"ニシオオジチョウ","prefecture_code":26},{"zip_code":"6028048","prefecture":"京都府","prefecture_kana":"キョウトフ","city":"京都市上京区","city_kana":"キョウトシカミギョウク","town":"る、下立売通油小路東入、下立売通小川西入、下立売通小川東入）","town_kana":"ニシオオジチョウ","prefecture_code":26}],"8361":{"zip_code":"6028361","prefecture":"京都府","prefecture_kana":"キョウトフ","city":"京都市上京区","city_kana":"キョウトシカミギョウク","town":"西上之町","town_kana":"ニシカミノチョウ","prefecture_code":26},"8467":{"zip_code":"6028467","prefecture":"京都府","prefecture_kana":"キョウトフ","city":"京都市上京区","city_kana":"キョウトシカミギョウク","town":"西亀屋町","town_kana":"ニシカメヤチョウ","prefecture_code":26},"0954":{"zip_code":"6020954","prefecture":"京都府","prefecture_kana":"キョウトフ","city":"京都市上京区","city_kana":"キョウトシカミギョウク","town":"西川端町","town_kana":"ニシカワバタチョウ","prefecture_code":26},"8414":[{"zip_code":"6028414","prefecture":"京都府","prefecture_kana":"キョウトフ","city":"京都市上京区","city_kana":"キョウトシカミギョウク","town":"西北小路町（猪熊通上立売上る、猪熊通寺之内下る、大宮通寺之内下","town_kana":"ニシキタコウジチョウ","prefecture_code":26},{"zip_code":"6028414","prefecture":"京都府","prefecture_kana":"キョウトフ","city":"京都市上京区","city_kana":"キョウトシカミギョウク","town":"る東入、大宮通寺之内半丁下る東入、大宮通寺之内下る東入１丁目、寺之内通大","town_kana":"ニシキタコウジチョウ","prefecture_code":26},{"zip_code":"6028414","prefecture":"京都府","prefecture_kana":"キョウトフ","city":"京都市上京区","city_kana":"キョウトシカミギョウク","town":"宮東入下る、寺之内通大宮東入１丁目下る）","town_kana":"ニシキタコウジチョウ","prefecture_code":26}],"8444":[{"zip_code":"6028444","prefecture":"京都府","prefecture_kana":"キョウトフ","city":"京都市上京区","city_kana":"キョウトシカミギョウク","town":"西北小路町（今出川通浄福寺東入、今出川通智恵光院西入、今出川通智","town_kana":"ニシキタコウジチョウ","prefecture_code":26},{"zip_code":"6028444","prefecture":"京都府","prefecture_kana":"キョウトフ","city":"京都市上京区","city_kana":"キョウトシカミギョウク","town":"恵光院東入、智恵光院通今出川上る、智恵光院通今出川下る、五辻通浄福寺","town_kana":"ニシキタコウジチョウ","prefecture_code":26},{"zip_code":"6028444","prefecture":"京都府","prefecture_kana":"キョウトフ","city":"京都市上京区","city_kana":"キョウトシカミギョウク","town":"東入）","town_kana":"ニシキタコウジチョウ","prefecture_code":26}],"8498":{"zip_code":"6028498","prefecture":"京都府","prefecture_kana":"キョウトフ","city":"京都市上京区","city_kana":"キョウトシカミギョウク","town":"西熊町","town_kana":"ニシクマチョウ","prefecture_code":26},"8326":{"zip_code":"6028326","prefecture":"京都府","prefecture_kana":"キョウトフ","city":"京都市上京区","city_kana":"キョウトシカミギョウク","town":"西上善寺町","town_kana":"ニシジョウゼンジチョウ","prefecture_code":26},"8169":{"zip_code":"6028169","prefecture":"京都府","prefecture_kana":"キョウトフ","city":"京都市上京区","city_kana":"キョウトシカミギョウク","town":"西神明町","town_kana":"ニシシンメイチョウ","prefecture_code":26},"8404":{"zip_code":"6028404","prefecture":"京都府","prefecture_kana":"キョウトフ","city":"京都市上京区","city_kana":"キョウトシカミギョウク","town":"西千本町","town_kana":"ニシセンボンチョウ","prefecture_code":26},"8004":{"zip_code":"6028004","prefecture":"京都府","prefecture_kana":"キョウトフ","city":"京都市上京区","city_kana":"キョウトシカミギョウク","town":"西鷹司町","town_kana":"ニシタカツカサチョウ","prefecture_code":26},"8107":{"zip_code":"6028107","prefecture":"京都府","prefecture_kana":"キョウトフ","city":"京都市上京区","city_kana":"キョウトシカミギョウク","town":"西辰巳町","town_kana":"ニシタツミチョウ","prefecture_code":26},"8017":{"zip_code":"6028017","prefecture":"京都府","prefecture_kana":"キョウトフ","city":"京都市上京区","city_kana":"キョウトシカミギョウク","town":"西出水町","town_kana":"ニシデミズチョウ","prefecture_code":26},"8109":{"zip_code":"6028109","prefecture":"京都府","prefecture_kana":"キョウトフ","city":"京都市上京区","city_kana":"キョウトシカミギョウク","town":"西天秤町","town_kana":"ニシテンビンチョウ","prefecture_code":26},"8282":{"zip_code":"6028282","prefecture":"京都府","prefecture_kana":"キョウトフ","city":"京都市上京区","city_kana":"キョウトシカミギョウク","town":"西富仲町","town_kana":"ニシトミナカチョウ","prefecture_code":26},"8285":{"zip_code":"6028285","prefecture":"京都府","prefecture_kana":"キョウトフ","city":"京都市上京区","city_kana":"キョウトシカミギョウク","town":"西中筋町","town_kana":"ニシナカスジチョウ","prefecture_code":26},"0925":{"zip_code":"6020925","prefecture":"京都府","prefecture_kana":"キョウトフ","city":"京都市上京区","city_kana":"キョウトシカミギョウク","town":"西之口町","town_kana":"ニシノクチチョウ","prefecture_code":26},"8138":{"zip_code":"6028138","prefecture":"京都府","prefecture_kana":"キョウトフ","city":"京都市上京区","city_kana":"キョウトシカミギョウク","town":"西橋詰町","town_kana":"ニシハシヅメチョウ","prefecture_code":26},"0916":{"zip_code":"6020916","prefecture":"京都府","prefecture_kana":"キョウトフ","city":"京都市上京区","city_kana":"キョウトシカミギョウク","town":"西日野殿町","town_kana":"ニシヒノドノチョウ","prefecture_code":26},"8434":{"zip_code":"6028434","prefecture":"京都府","prefecture_kana":"キョウトフ","city":"京都市上京区","city_kana":"キョウトシカミギョウク","town":"西船橋町","town_kana":"ニシフナハシチョウ","prefecture_code":26},"8371":{"zip_code":"6028371","prefecture":"京都府","prefecture_kana":"キョウトフ","city":"京都市上京区","city_kana":"キョウトシカミギョウク","town":"西町（一条通御前東入）","town_kana":"ニシマチ(イチジョウドオリオンマエヒガシイル)","prefecture_code":26},"8374":[{"zip_code":"6028374","prefecture":"京都府","prefecture_kana":"キョウトフ","city":"京都市上京区","city_kana":"キョウトシカミギョウク","town":"西町（一条通御前西入、一条通紙屋川東入、一条通天神道西入、","town_kana":"ニシマチ","prefecture_code":26},{"zip_code":"6028374","prefecture":"京都府","prefecture_kana":"キョウトフ","city":"京都市上京区","city_kana":"キョウトシカミギョウク","town":"一条通御前３丁目西入、一条通御前西入上る、一条通御前西入上る西入、","town_kana":"ニシマチ","prefecture_code":26},{"zip_code":"6028374","prefecture":"京都府","prefecture_kana":"キョウトフ","city":"京都市上京区","city_kana":"キョウトシカミギョウク","town":"一条通御前西入２丁目、一条通御前西入２丁目上る、一条通御前西入２丁目","town_kana":"ニシマチ","prefecture_code":26},{"zip_code":"6028374","prefecture":"京都府","prefecture_kana":"キョウトフ","city":"京都市上京区","city_kana":"キョウトシカミギョウク","town":"下る、一条通御前西入２筋目下る、一条通御前西入３丁目、一条通御前","town_kana":"ニシマチ","prefecture_code":26},{"zip_code":"6028374","prefecture":"京都府","prefecture_kana":"キョウトフ","city":"京都市上京区","city_kana":"キョウトシカミギョウク","town":"西入３丁目上る、一条通御前西入３丁目下る、一条通御前西入３筋目、","town_kana":"ニシマチ","prefecture_code":26},{"zip_code":"6028374","prefecture":"京都府","prefecture_kana":"キョウトフ","city":"京都市上京区","city_kana":"キョウトシカミギョウク","town":"一条通御前西入下る、一条通御前西入下る３丁目、一条通紙屋川東入","town_kana":"ニシマチ","prefecture_code":26},{"zip_code":"6028374","prefecture":"京都府","prefecture_kana":"キョウトフ","city":"京都市上京区","city_kana":"キョウトシカミギョウク","town":"上る、一条通紙屋川東入下る、天神道一条上る、天神道一条下る、天神道","town_kana":"ニシマチ","prefecture_code":26},{"zip_code":"6028374","prefecture":"京都府","prefecture_kana":"キョウトフ","city":"京都市上京区","city_kana":"キョウトシカミギョウク","town":"仁和寺街道上る）","town_kana":"ニシマチ","prefecture_code":26}],"0956":[{"zip_code":"6020956","prefecture":"京都府","prefecture_kana":"キョウトフ","city":"京都市上京区","city_kana":"キョウトシカミギョウク","town":"西町（東堀川通元誓願寺下る、元誓願寺通油小路西入、元誓願寺","town_kana":"ニシマチ","prefecture_code":26},{"zip_code":"6020956","prefecture":"京都府","prefecture_kana":"キョウトフ","city":"京都市上京区","city_kana":"キョウトシカミギョウク","town":"通東堀川東入）","town_kana":"ニシマチ","prefecture_code":26}],"8148":{"zip_code":"6028148","prefecture":"京都府","prefecture_kana":"キョウトフ","city":"京都市上京区","city_kana":"キョウトシカミギョウク","town":"西丸太町","town_kana":"ニシマルタチョウ","prefecture_code":26},"0936":{"zip_code":"6020936","prefecture":"京都府","prefecture_kana":"キョウトフ","city":"京都市上京区","city_kana":"キョウトシカミギョウク","town":"西無車小路町","town_kana":"ニシムシャコウジチョウ","prefecture_code":26},"8491":{"zip_code":"6028491","prefecture":"京都府","prefecture_kana":"キョウトフ","city":"京都市上京区","city_kana":"キョウトシカミギョウク","town":"西社町","town_kana":"ニシヤシロチョウ","prefecture_code":26},"8394":{"zip_code":"6028394","prefecture":"京都府","prefecture_kana":"キョウトフ","city":"京都市上京区","city_kana":"キョウトシカミギョウク","town":"西柳町","town_kana":"ニシヤナギチョウ","prefecture_code":26},"8036":{"zip_code":"6028036","prefecture":"京都府","prefecture_kana":"キョウトフ","city":"京都市上京区","city_kana":"キョウトシカミギョウク","town":"西山崎町","town_kana":"ニシヤマザキチョウ","prefecture_code":26},"8301":{"zip_code":"6028301","prefecture":"京都府","prefecture_kana":"キョウトフ","city":"京都市上京区","city_kana":"キョウトシカミギョウク","town":"西芦山寺町","town_kana":"ニシロザンジチョウ","prefecture_code":26},"0097":{"zip_code":"6020097","prefecture":"京都府","prefecture_kana":"キョウトフ","city":"京都市上京区","city_kana":"キョウトシカミギョウク","town":"西若宮北半町","town_kana":"ニシワカミヤキタハンチョウ","prefecture_code":26},"0096":{"zip_code":"6020096","prefecture":"京都府","prefecture_kana":"キョウトフ","city":"京都市上京区","city_kana":"キョウトシカミギョウク","town":"西若宮南半町","town_kana":"ニシワカミヤミナミハンチョウ","prefecture_code":26},"0828":{"zip_code":"6020828","prefecture":"京都府","prefecture_kana":"キョウトフ","city":"京都市上京区","city_kana":"キョウトシカミギョウク","town":"二神町","town_kana":"ニシンチョウ","prefecture_code":26},"8128":{"zip_code":"6028128","prefecture":"京都府","prefecture_kana":"キョウトフ","city":"京都市上京区","city_kana":"キョウトシカミギョウク","town":"二町目（松屋町通椹木町上る、松屋町通下立売下る）","town_kana":"ニチョウメ(マツヤマチドオリサワラギチョウアガル、マツヤマチドオリシモタテウリサガル)","prefecture_code":26},"8058":[{"zip_code":"6028058","prefecture":"京都府","prefecture_kana":"キョウトフ","city":"京都市上京区","city_kana":"キョウトシカミギョウク","town":"二町目（上長者町通東堀川東入、東堀川通上長者町下る、東堀川通","town_kana":"ニチョウメ","prefecture_code":26},{"zip_code":"6028058","prefecture":"京都府","prefecture_kana":"キョウトフ","city":"京都市上京区","city_kana":"キョウトシカミギョウク","town":"下長者町上る、東堀川通上長者町上る）","town_kana":"ニチョウメ","prefecture_code":26}],"8344":{"zip_code":"6028344","prefecture":"京都府","prefecture_kana":"キョウトフ","city":"京都市上京区","city_kana":"キョウトシカミギョウク","town":"二番町","town_kana":"ニバンチョウ","prefecture_code":26},"8167":{"zip_code":"6028167","prefecture":"京都府","prefecture_kana":"キョウトフ","city":"京都市上京区","city_kana":"キョウトシカミギョウク","town":"二本松町","town_kana":"ニホンマツチョウ","prefecture_code":26},"8231":{"zip_code":"6028231","prefecture":"京都府","prefecture_kana":"キョウトフ","city":"京都市上京区","city_kana":"キョウトシカミギョウク","town":"如水町","town_kana":"ニョスイチョウ","prefecture_code":26},"8106":{"zip_code":"6028106","prefecture":"京都府","prefecture_kana":"キョウトフ","city":"京都市上京区","city_kana":"キョウトシカミギョウク","town":"秤口町","town_kana":"ハカリグチチョウ","prefecture_code":26},"8386":{"zip_code":"6028386","prefecture":"京都府","prefecture_kana":"キョウトフ","city":"京都市上京区","city_kana":"キョウトシカミギョウク","town":"馬喰町","town_kana":"バクロチョウ","prefecture_code":26},"8212":{"zip_code":"6028212","prefecture":"京都府","prefecture_kana":"キョウトフ","city":"京都市上京区","city_kana":"キョウトシカミギョウク","town":"橋詰町","town_kana":"ハシヅメチョウ","prefecture_code":26},"8123":{"zip_code":"6028123","prefecture":"京都府","prefecture_kana":"キョウトフ","city":"京都市上京区","city_kana":"キョウトシカミギョウク","town":"橋西二町目","town_kana":"ハシニシ2チョウメ","prefecture_code":26},"8433":{"zip_code":"6028433","prefecture":"京都府","prefecture_kana":"キョウトフ","city":"京都市上京区","city_kana":"キョウトシカミギョウク","town":"橋之上町","town_kana":"ハシノウエチョウ","prefecture_code":26},"8063":{"zip_code":"6028063","prefecture":"京都府","prefecture_kana":"キョウトフ","city":"京都市上京区","city_kana":"キョウトシカミギョウク","town":"橋本町","town_kana":"ハシモトチョウ","prefecture_code":26},"8273":{"zip_code":"6028273","prefecture":"京都府","prefecture_kana":"キョウトフ","city":"京都市上京区","city_kana":"キョウトシカミギョウク","town":"長谷町","town_kana":"ハセチョウ","prefecture_code":26},"0035":{"zip_code":"6020035","prefecture":"京都府","prefecture_kana":"キョウトフ","city":"京都市上京区","city_kana":"キョウトシカミギョウク","town":"畠山町","town_kana":"ハタケヤマチョウ","prefecture_code":26},"0016":{"zip_code":"6020016","prefecture":"京都府","prefecture_kana":"キョウトフ","city":"京都市上京区","city_kana":"キョウトシカミギョウク","town":"畠中町","town_kana":"ハタナカチョウ","prefecture_code":26},"8037":{"zip_code":"6028037","prefecture":"京都府","prefecture_kana":"キョウトフ","city":"京都市上京区","city_kana":"キョウトシカミギョウク","town":"八幡町","town_kana":"ハチマンチョウ","prefecture_code":26},"8305":{"zip_code":"6028305","prefecture":"京都府","prefecture_kana":"キョウトフ","city":"京都市上京区","city_kana":"キョウトシカミギョウク","town":"花車町","town_kana":"ハナクルマチョウ","prefecture_code":26},"0914":{"zip_code":"6020914","prefecture":"京都府","prefecture_kana":"キョウトフ","city":"京都市上京区","city_kana":"キョウトシカミギョウク","town":"花立町","town_kana":"ハナタテチョウ","prefecture_code":26},"0948":{"zip_code":"6020948","prefecture":"京都府","prefecture_kana":"キョウトフ","city":"京都市上京区","city_kana":"キョウトシカミギョウク","town":"針屋町","town_kana":"ハリヤチョウ","prefecture_code":26},"8026":{"zip_code":"6028026","prefecture":"京都府","prefecture_kana":"キョウトフ","city":"京都市上京区","city_kana":"キョウトシカミギョウク","town":"春帯町","town_kana":"ハルオビチョウ","prefecture_code":26},"8473":{"zip_code":"6028473","prefecture":"京都府","prefecture_kana":"キョウトフ","city":"京都市上京区","city_kana":"キョウトシカミギョウク","town":"般舟院前町","town_kana":"ハンシュウインマエチョウ","prefecture_code":26},"8295":{"zip_code":"6028295","prefecture":"京都府","prefecture_kana":"キョウトフ","city":"京都市上京区","city_kana":"キョウトシカミギョウク","town":"東石橋町","town_kana":"ヒガシイシバシチョウ","prefecture_code":26},"8431":{"zip_code":"6028431","prefecture":"京都府","prefecture_kana":"キョウトフ","city":"京都市上京区","city_kana":"キョウトシカミギョウク","town":"東石屋町","town_kana":"ヒガシイシヤチョウ","prefecture_code":26},"8387":{"zip_code":"6028387","prefecture":"京都府","prefecture_kana":"キョウトフ","city":"京都市上京区","city_kana":"キョウトシカミギョウク","town":"東今小路町","town_kana":"ヒガシイマコウジチョウ","prefecture_code":26},"0951":{"zip_code":"6020951","prefecture":"京都府","prefecture_kana":"キョウトフ","city":"京都市上京区","city_kana":"キョウトシカミギョウク","town":"東今町","town_kana":"ヒガシイマチョウ","prefecture_code":26},"8038":{"zip_code":"6028038","prefecture":"京都府","prefecture_kana":"キョウトフ","city":"京都市上京区","city_kana":"キョウトシカミギョウク","town":"東魚屋町","town_kana":"ヒガシウオヤチョウ","prefecture_code":26},"8031":{"zip_code":"6028031","prefecture":"京都府","prefecture_kana":"キョウトフ","city":"京都市上京区","city_kana":"キョウトシカミギョウク","town":"東裏辻町","town_kana":"ヒガシウラツジチョウ","prefecture_code":26},"0858":{"zip_code":"6020858","prefecture":"京都府","prefecture_kana":"キョウトフ","city":"京都市上京区","city_kana":"キョウトシカミギョウク","town":"東桜町","town_kana":"ヒガシサクラチョウ","prefecture_code":26},"8468":{"zip_code":"6028468","prefecture":"京都府","prefecture_kana":"キョウトフ","city":"京都市上京区","city_kana":"キョウトシカミギョウク","town":"東上善寺町","town_kana":"ヒガシジョウゼンジチョウ","prefecture_code":26},"8162":{"zip_code":"6028162","prefecture":"京都府","prefecture_kana":"キョウトフ","city":"京都市上京区","city_kana":"キョウトシカミギョウク","town":"東神明町","town_kana":"ヒガシシンメイチョウ","prefecture_code":26},"8416":{"zip_code":"6028416","prefecture":"京都府","prefecture_kana":"キョウトフ","city":"京都市上京区","city_kana":"キョウトシカミギョウク","town":"東千本町","town_kana":"ヒガシセンボンチョウ","prefecture_code":26},"8027":{"zip_code":"6028027","prefecture":"京都府","prefecture_kana":"キョウトフ","city":"京都市上京区","city_kana":"キョウトシカミギョウク","town":"東立売町","town_kana":"ヒガシタチウリチョウ","prefecture_code":26},"8101":{"zip_code":"6028101","prefecture":"京都府","prefecture_kana":"キョウトフ","city":"京都市上京区","city_kana":"キョウトシカミギョウク","town":"東辰巳町","town_kana":"ヒガシタツミチョウ","prefecture_code":26},"8377":{"zip_code":"6028377","prefecture":"京都府","prefecture_kana":"キョウトフ","city":"京都市上京区","city_kana":"キョウトシカミギョウク","town":"東竪町","town_kana":"ヒガシタテチョウ","prefecture_code":26},"8007":{"zip_code":"6028007","prefecture":"京都府","prefecture_kana":"キョウトフ","city":"京都市上京区","city_kana":"キョウトシカミギョウク","town":"東長者町","town_kana":"ヒガシチョウジャチョウ","prefecture_code":26},"0874":{"zip_code":"6020874","prefecture":"京都府","prefecture_kana":"キョウトフ","city":"京都市上京区","city_kana":"キョウトシカミギョウク","town":"東土御門町","town_kana":"ヒガシツチミカドチョウ","prefecture_code":26},"8102":{"zip_code":"6028102","prefecture":"京都府","prefecture_kana":"キョウトフ","city":"京都市上京区","city_kana":"キョウトシカミギョウク","town":"東天秤町","town_kana":"ヒガシテンビンチョウ","prefecture_code":26},"8044":{"zip_code":"6028044","prefecture":"京都府","prefecture_kana":"キョウトフ","city":"京都市上京区","city_kana":"キョウトシカミギョウク","town":"東橋詰町（下立売通堀川東入）","town_kana":"ヒガシハシヅメチョウ(シモダチウリドオリホリカワヒガシイル)","prefecture_code":26},"8066":{"zip_code":"6028066","prefecture":"京都府","prefecture_kana":"キョウトフ","city":"京都市上京区","city_kana":"キョウトシカミギョウク","town":"東橋詰町（中立売通堀川東入）","town_kana":"ヒガシハシヅメチョウ(ナカタチウリドオリホリカワヒガシイル)","prefecture_code":26},"0917":{"zip_code":"6020917","prefecture":"京都府","prefecture_kana":"キョウトフ","city":"京都市上京区","city_kana":"キョウトシカミギョウク","town":"東日野殿町","town_kana":"ヒガシヒノドノチョウ","prefecture_code":26},"8255":{"zip_code":"6028255","prefecture":"京都府","prefecture_kana":"キョウトフ","city":"京都市上京区","city_kana":"キョウトシカミギョウク","town":"東堀町","town_kana":"ヒガシホリチョウ","prefecture_code":26},"0913":{"zip_code":"6020913","prefecture":"京都府","prefecture_kana":"キョウトフ","city":"京都市上京区","city_kana":"キョウトシカミギョウク","town":"東町（中立売通烏丸西入、中立売通室町東入）","town_kana":"ヒガシマチ(ナカダチウリドオリカラスマニシイル、ナカダチウリドオリムロマチヒガシイル)","prefecture_code":26},"8346":[{"zip_code":"6028346","prefecture":"京都府","prefecture_kana":"キョウトフ","city":"京都市上京区","city_kana":"キョウトシカミギョウク","town":"東町（一条通下ノ森西入、一条通下ノ森東入、一条通七本松西","town_kana":"ヒガシマチ","prefecture_code":26},{"zip_code":"6028346","prefecture":"京都府","prefecture_kana":"キョウトフ","city":"京都市上京区","city_kana":"キョウトシカミギョウク","town":"入、中立売通七本松西入）","town_kana":"ヒガシマチ","prefecture_code":26}],"0947":{"zip_code":"6020947","prefecture":"京都府","prefecture_kana":"キョウトフ","city":"京都市上京区","city_kana":"キョウトシカミギョウク","town":"東町（元誓願寺通小川西入）","town_kana":"ヒガシマチ(モトセイガンジドオリオガワニシイル)","prefecture_code":26},"8417":{"zip_code":"6028417","prefecture":"京都府","prefecture_kana":"キョウトフ","city":"京都市上京区","city_kana":"キョウトシカミギョウク","town":"東社町","town_kana":"ヒガシヤシロチョウ","prefecture_code":26},"8317":{"zip_code":"6028317","prefecture":"京都府","prefecture_kana":"キョウトフ","city":"京都市上京区","city_kana":"キョウトシカミギョウク","town":"東柳町","town_kana":"ヒガシヤナギチョウ","prefecture_code":26},"0086":{"zip_code":"6020086","prefecture":"京都府","prefecture_kana":"キョウトフ","city":"京都市上京区","city_kana":"キョウトシカミギョウク","town":"東若宮町","town_kana":"ヒガシワカミヤチョウ","prefecture_code":26},"0065":{"zip_code":"6020065","prefecture":"京都府","prefecture_kana":"キョウトフ","city":"京都市上京区","city_kana":"キョウトシカミギョウク","town":"挽木町","town_kana":"ヒキギチョウ","prefecture_code":26},"8236":{"zip_code":"6028236","prefecture":"京都府","prefecture_kana":"キョウトフ","city":"京都市上京区","city_kana":"キョウトシカミギョウク","town":"庇町","town_kana":"ヒサシチョウ","prefecture_code":26},"8266":{"zip_code":"6028266","prefecture":"京都府","prefecture_kana":"キョウトフ","city":"京都市上京区","city_kana":"キョウトシカミギョウク","town":"菱丸町","town_kana":"ヒシマルチョウ","prefecture_code":26},"8125":[{"zip_code":"6028125","prefecture":"京都府","prefecture_kana":"キョウトフ","city":"京都市上京区","city_kana":"キョウトシカミギョウク","town":"菱屋町（大宮通椹木町上る、大宮通下立売下る、椹木町通大宮西","town_kana":"ヒシヤチョウ","prefecture_code":26},{"zip_code":"6028125","prefecture":"京都府","prefecture_kana":"キョウトフ","city":"京都市上京区","city_kana":"キョウトシカミギョウク","town":"入、椹木町通大宮東入）","town_kana":"ヒシヤチョウ","prefecture_code":26}],"8451":{"zip_code":"6028451","prefecture":"京都府","prefecture_kana":"キョウトフ","city":"京都市上京区","city_kana":"キョウトシカミギョウク","town":"菱屋町（中筋通浄福寺東入、中筋通智恵光院西入）","town_kana":"ヒシヤチョウ(ナカスジドオリジョウフクジヒガシイル、ナカスジドオリチエコウインニシイル)","prefecture_code":26},"8227":[{"zip_code":"6028227","prefecture":"京都府","prefecture_kana":"キョウトフ","city":"京都市上京区","city_kana":"キョウトシカミギョウク","town":"毘沙門町（大宮通一条上る東入、黒門通一条上る、黒門通元誓願寺","town_kana":"ビシャモンチョウ","prefecture_code":26},{"zip_code":"6028227","prefecture":"京都府","prefecture_kana":"キョウトフ","city":"京都市上京区","city_kana":"キョウトシカミギョウク","town":"下る、黒門通元誓願寺下る西入、黒門通一条上る西入）","town_kana":"ビシャモンチョウ","prefecture_code":26}],"0816":[{"zip_code":"6020816","prefecture":"京都府","prefecture_kana":"キョウトフ","city":"京都市上京区","city_kana":"キョウトシカミギョウク","town":"毘沙門町（上立売通寺町西入、上立売通寺町西入上る、上立売通寺","town_kana":"ビシャモンチョウ","prefecture_code":26},{"zip_code":"6020816","prefecture":"京都府","prefecture_kana":"キョウトフ","city":"京都市上京区","city_kana":"キョウトシカミギョウク","town":"町西入下る、上立売通寺町西入４筋目下る、寺町通今出川上る１筋目西入、寺町","town_kana":"ビシャモンチョウ","prefecture_code":26},{"zip_code":"6020816","prefecture":"京都府","prefecture_kana":"キョウトフ","city":"京都市上京区","city_kana":"キョウトシカミギョウク","town":"通今出川上る２丁目、寺町通今出川上る２丁目西入、寺町通今出川上る３丁","town_kana":"ビシャモンチョウ","prefecture_code":26},{"zip_code":"6020816","prefecture":"京都府","prefecture_kana":"キョウトフ","city":"京都市上京区","city_kana":"キョウトシカミギョウク","town":"目、寺町通今出川上る３丁目西入、寺町通今出川上る４丁目、寺町通今出川上","town_kana":"ビシャモンチョウ","prefecture_code":26},{"zip_code":"6020816","prefecture":"京都府","prefecture_kana":"キョウトフ","city":"京都市上京区","city_kana":"キョウトシカミギョウク","town":"る４丁目西入、寺町通今出川西入、寺町通今出川２丁目上る西入、塔之段寺町通","town_kana":"ビシャモンチョウ","prefecture_code":26},{"zip_code":"6020816","prefecture":"京都府","prefecture_kana":"キョウトフ","city":"京都市上京区","city_kana":"キョウトシカミギョウク","town":"今出川上る）","town_kana":"ビシャモンチョウ","prefecture_code":26}],"8325":[{"zip_code":"6028325","prefecture":"京都府","prefecture_kana":"キョウトフ","city":"京都市上京区","city_kana":"キョウトシカミギョウク","town":"毘沙門町（今出川通七本松西入、今出川通七本松西入上る、七本松通","town_kana":"ビシャモンチョウ","prefecture_code":26},{"zip_code":"6028325","prefecture":"京都府","prefecture_kana":"キョウトフ","city":"京都市上京区","city_kana":"キョウトシカミギョウク","town":"今出川上る、七本松通今出川下る、七本松通元誓願寺上る、七本松通五辻下る）","town_kana":"ビシャモンチョウ","prefecture_code":26}],"0817":{"zip_code":"6020817","prefecture":"京都府","prefecture_kana":"キョウトフ","city":"京都市上京区","city_kana":"キョウトシカミギョウク","town":"毘沙門横町","town_kana":"ビシャモンヨコチョウ","prefecture_code":26},"8259":{"zip_code":"6028259","prefecture":"京都府","prefecture_kana":"キョウトフ","city":"京都市上京区","city_kana":"キョウトシカミギョウク","town":"常陸町","town_kana":"ヒタチチョウ","prefecture_code":26},"8235":{"zip_code":"6028235","prefecture":"京都府","prefecture_kana":"キョウトフ","city":"京都市上京区","city_kana":"キョウトシカミギョウク","town":"飛弾殿町","town_kana":"ヒダドノチョウ","prefecture_code":26},"8425":{"zip_code":"6028425","prefecture":"京都府","prefecture_kana":"キョウトフ","city":"京都市上京区","city_kana":"キョウトシカミギョウク","town":"樋之口町","town_kana":"ヒノクチチョウ","prefecture_code":26},"8276":{"zip_code":"6028276","prefecture":"京都府","prefecture_kana":"キョウトフ","city":"京都市上京区","city_kana":"キョウトシカミギョウク","town":"百万遍町","town_kana":"ヒャクマンベンチョウ","prefecture_code":26},"0037":{"zip_code":"6020037","prefecture":"京都府","prefecture_kana":"キョウトフ","city":"京都市上京区","city_kana":"キョウトシカミギョウク","town":"瓢箪図子町","town_kana":"ヒョウタンズシチョウ","prefecture_code":26},"0911":{"zip_code":"6020911","prefecture":"京都府","prefecture_kana":"キョウトフ","city":"京都市上京区","city_kana":"キョウトシカミギョウク","town":"広橋殿町","town_kana":"ヒロハシドノチョウ","prefecture_code":26},"8029":{"zip_code":"6028029","prefecture":"京都府","prefecture_kana":"キョウトフ","city":"京都市上京区","city_kana":"キョウトシカミギョウク","town":"武衛陣町","town_kana":"ブエイジンチョウ","prefecture_code":26},"8166":{"zip_code":"6028166","prefecture":"京都府","prefecture_kana":"キョウトフ","city":"京都市上京区","city_kana":"キョウトシカミギョウク","town":"福島町","town_kana":"フクシマチョウ","prefecture_code":26},"8233":{"zip_code":"6028233","prefecture":"京都府","prefecture_kana":"キョウトフ","city":"京都市上京区","city_kana":"キョウトシカミギョウク","town":"福大明神町","town_kana":"フクダイミョウジンチョウ","prefecture_code":26},"0907":{"zip_code":"6020907","prefecture":"京都府","prefecture_kana":"キョウトフ","city":"京都市上京区","city_kana":"キョウトシカミギョウク","town":"福長町","town_kana":"フクナガチョウ","prefecture_code":26},"8291":{"zip_code":"6028291","prefecture":"京都府","prefecture_kana":"キョウトフ","city":"京都市上京区","city_kana":"キョウトシカミギョウク","town":"福本町","town_kana":"フクモトチョウ","prefecture_code":26},"0868":{"zip_code":"6020868","prefecture":"京都府","prefecture_kana":"キョウトフ","city":"京都市上京区","city_kana":"キョウトシカミギョウク","town":"袋町","town_kana":"フクロチョウ","prefecture_code":26},"8423":{"zip_code":"6028423","prefecture":"京都府","prefecture_kana":"キョウトフ","city":"京都市上京区","city_kana":"キョウトシカミギョウク","town":"藤木町","town_kana":"フジノキチョウ","prefecture_code":26},"0807":{"zip_code":"6020807","prefecture":"京都府","prefecture_kana":"キョウトフ","city":"京都市上京区","city_kana":"キョウトシカミギョウク","town":"不動前町","town_kana":"フドウマエチョウ","prefecture_code":26},"0026":{"zip_code":"6020026","prefecture":"京都府","prefecture_kana":"キョウトフ","city":"京都市上京区","city_kana":"キョウトシカミギョウク","town":"古木町","town_kana":"フルキチョウ","prefecture_code":26},"8408":{"zip_code":"6028408","prefecture":"京都府","prefecture_kana":"キョウトフ","city":"京都市上京区","city_kana":"キョウトシカミギョウク","town":"古美濃部町","town_kana":"フルミノベチョウ","prefecture_code":26},"8313":{"zip_code":"6028313","prefecture":"京都府","prefecture_kana":"キョウトフ","city":"京都市上京区","city_kana":"キョウトシカミギョウク","town":"風呂屋町","town_kana":"フロヤチョウ","prefecture_code":26},"8174":{"zip_code":"6028174","prefecture":"京都府","prefecture_kana":"キョウトフ","city":"京都市上京区","city_kana":"キョウトシカミギョウク","town":"分銅町","town_kana":"ブンドウチョウ","prefecture_code":26},"0939":{"zip_code":"6020939","prefecture":"京都府","prefecture_kana":"キョウトフ","city":"京都市上京区","city_kana":"キョウトシカミギョウク","town":"弁財天町","town_kana":"ベンザイテンチョウ","prefecture_code":26},"8168":{"zip_code":"6028168","prefecture":"京都府","prefecture_kana":"キョウトフ","city":"京都市上京区","city_kana":"キョウトシカミギョウク","town":"弁天町","town_kana":"ベンテンチョウ","prefecture_code":26},"0062":{"zip_code":"6020062","prefecture":"京都府","prefecture_kana":"キョウトフ","city":"京都市上京区","city_kana":"キョウトシカミギョウク","town":"宝鏡院東町","town_kana":"ホウキョウインヒガシマチ","prefecture_code":26},"8357":{"zip_code":"6028357","prefecture":"京都府","prefecture_kana":"キョウトフ","city":"京都市上京区","city_kana":"キョウトシカミギョウク","town":"鳳瑞町","town_kana":"ホウズイチョウ","prefecture_code":26},"8496":{"zip_code":"6028496","prefecture":"京都府","prefecture_kana":"キョウトフ","city":"京都市上京区","city_kana":"キョウトシカミギョウク","town":"木瓜原町","town_kana":"ボケハラチョウ","prefecture_code":26},"8475":{"zip_code":"6028475","prefecture":"京都府","prefecture_kana":"キョウトフ","city":"京都市上京区","city_kana":"キョウトシカミギョウク","town":"牡丹鉾町","town_kana":"ボタンボコチョウ","prefecture_code":26},"8221":{"zip_code":"6028221","prefecture":"京都府","prefecture_kana":"キョウトフ","city":"京都市上京区","city_kana":"キョウトシカミギョウク","town":"堀川上之町","town_kana":"ホリカワカミノチョウ","prefecture_code":26},"8232":{"zip_code":"6028232","prefecture":"京都府","prefecture_kana":"キョウトフ","city":"京都市上京区","city_kana":"キョウトシカミギョウク","town":"堀川下之町","town_kana":"ホリカワシモノチョウ","prefecture_code":26},"8367":{"zip_code":"6028367","prefecture":"京都府","prefecture_kana":"キョウトフ","city":"京都市上京区","city_kana":"キョウトシカミギョウク","town":"堀川町","town_kana":"ホリカワチョウ","prefecture_code":26},"0931":{"zip_code":"6020931","prefecture":"京都府","prefecture_kana":"キョウトフ","city":"京都市上京区","city_kana":"キョウトシカミギョウク","town":"堀出シ町","town_kana":"ホリダシチョウ","prefecture_code":26},"0057":{"zip_code":"6020057","prefecture":"京都府","prefecture_kana":"キョウトフ","city":"京都市上京区","city_kana":"キョウトシカミギョウク","town":"堀之上町","town_kana":"ホリノウエチョウ","prefecture_code":26},"8021":{"zip_code":"6028021","prefecture":"京都府","prefecture_kana":"キョウトフ","city":"京都市上京区","city_kana":"キョウトシカミギョウク","town":"堀松町","town_kana":"ホリマツチョウ","prefecture_code":26},"0061":{"zip_code":"6020061","prefecture":"京都府","prefecture_kana":"キョウトフ","city":"京都市上京区","city_kana":"キョウトシカミギョウク","town":"本法寺前町","town_kana":"ホンポウジマエチョウ","prefecture_code":26},"0812":{"zip_code":"6020812","prefecture":"京都府","prefecture_kana":"キョウトフ","city":"京都市上京区","city_kana":"キョウトシカミギョウク","town":"本満寺前町","town_kana":"ホンマンジマエチョウ","prefecture_code":26},"8415":{"zip_code":"6028415","prefecture":"京都府","prefecture_kana":"キョウトフ","city":"京都市上京区","city_kana":"キョウトシカミギョウク","town":"前之町","town_kana":"マエノチョウ","prefecture_code":26},"0036":{"zip_code":"6020036","prefecture":"京都府","prefecture_kana":"キョウトフ","city":"京都市上京区","city_kana":"キョウトシカミギョウク","town":"蒔鳥屋町","town_kana":"マキトリヤチョウ","prefecture_code":26},"8488":{"zip_code":"6028488","prefecture":"京都府","prefecture_kana":"キョウトフ","city":"京都市上京区","city_kana":"キョウトシカミギョウク","town":"真倉町","town_kana":"マクラチョウ","prefecture_code":26},"0877":{"zip_code":"6020877","prefecture":"京都府","prefecture_kana":"キョウトフ","city":"京都市上京区","city_kana":"キョウトシカミギョウク","town":"桝屋町（河原町通丸太町上る）","town_kana":"マスヤチョウ(カワラマチドオリマルタマチアガル)","prefecture_code":26},"8201":{"zip_code":"6028201","prefecture":"京都府","prefecture_kana":"キョウトフ","city":"京都市上京区","city_kana":"キョウトシカミギョウク","town":"桝屋町（笹屋町通大宮西入、笹屋町通智恵光院東入）","town_kana":"マスヤチョウ(ササヤマチドオリオオミヤニシイル、ササヤマチドオリチエコウインヒガシイル)","prefecture_code":26},"8111":{"zip_code":"6028111","prefecture":"京都府","prefecture_kana":"キョウトフ","city":"京都市上京区","city_kana":"キョウトシカミギョウク","town":"桝屋町（西堀川通下長者町下る、西堀川通出水上る）","town_kana":"マスヤチョウ(ニシホリカワドオリシモチョウジャマチサガル、ニシホリカワドオリデミズアガル)","prefecture_code":26},"0867":{"zip_code":"6020867","prefecture":"京都府","prefecture_kana":"キョウトフ","city":"京都市上京区","city_kana":"キョウトシカミギョウク","town":"松蔭町","town_kana":"マツカゲチョウ","prefecture_code":26},"8338":{"zip_code":"6028338","prefecture":"京都府","prefecture_kana":"キョウトフ","city":"京都市上京区","city_kana":"キョウトシカミギョウク","town":"松永町","town_kana":"マツナガチョウ","prefecture_code":26},"0819":{"zip_code":"6020819","prefecture":"京都府","prefecture_kana":"キョウトフ","city":"京都市上京区","city_kana":"キョウトシカミギョウク","town":"松之木町","town_kana":"マツノキチョウ","prefecture_code":26},"8068":{"zip_code":"6028068","prefecture":"京都府","prefecture_kana":"キョウトフ","city":"京都市上京区","city_kana":"キョウトシカミギョウク","town":"松之下町","town_kana":"マツノシタチョウ","prefecture_code":26},"8465":{"zip_code":"6028465","prefecture":"京都府","prefecture_kana":"キョウトフ","city":"京都市上京区","city_kana":"キョウトシカミギョウク","town":"松屋町","town_kana":"マツヤチョウ","prefecture_code":26},"8139":{"zip_code":"6028139","prefecture":"京都府","prefecture_kana":"キョウトフ","city":"京都市上京区","city_kana":"キョウトシカミギョウク","town":"丸屋町","town_kana":"マルヤチョウ","prefecture_code":26},"8426":{"zip_code":"6028426","prefecture":"京都府","prefecture_kana":"キョウトフ","city":"京都市上京区","city_kana":"キョウトシカミギョウク","town":"曼陀羅町","town_kana":"マンダラチョウ","prefecture_code":26},"0058":{"zip_code":"6020058","prefecture":"京都府","prefecture_kana":"キョウトフ","city":"京都市上京区","city_kana":"キョウトシカミギョウク","town":"水落町","town_kana":"ミズオチチョウ","prefecture_code":26},"8319":{"zip_code":"6028319","prefecture":"京都府","prefecture_kana":"キョウトフ","city":"京都市上京区","city_kana":"キョウトシカミギョウク","town":"溝前町","town_kana":"ミゾマエチョウ","prefecture_code":26},"8153":{"zip_code":"6028153","prefecture":"京都府","prefecture_kana":"キョウトフ","city":"京都市上京区","city_kana":"キョウトシカミギョウク","town":"南伊勢屋町","town_kana":"ミナミイセヤチョウ","prefecture_code":26},"8122":{"zip_code":"6028122","prefecture":"京都府","prefecture_kana":"キョウトフ","city":"京都市上京区","city_kana":"キョウトシカミギョウク","town":"南蟹屋町","town_kana":"ミナミカニヤチョウ","prefecture_code":26},"0941":{"zip_code":"6020941","prefecture":"京都府","prefecture_kana":"キョウトフ","city":"京都市上京区","city_kana":"キョウトシカミギョウク","town":"南兼康町","town_kana":"ミナミカネヤスチョウ","prefecture_code":26},"8253":{"zip_code":"6028253","prefecture":"京都府","prefecture_kana":"キョウトフ","city":"京都市上京区","city_kana":"キョウトシカミギョウク","town":"南小大門町","town_kana":"ミナミコダイモンチョウ","prefecture_code":26},"8327":{"zip_code":"6028327","prefecture":"京都府","prefecture_kana":"キョウトフ","city":"京都市上京区","city_kana":"キョウトシカミギョウク","town":"南佐竹町","town_kana":"ミナミサタケチョウ","prefecture_code":26},"8108":{"zip_code":"6028108","prefecture":"京都府","prefecture_kana":"キョウトフ","city":"京都市上京区","city_kana":"キョウトシカミギョウク","town":"南清水町","town_kana":"ミナミシミズチョウ","prefecture_code":26},"8321":{"zip_code":"6028321","prefecture":"京都府","prefecture_kana":"キョウトフ","city":"京都市上京区","city_kana":"キョウトシカミギョウク","town":"南上善寺町","town_kana":"ミナミジョウゼンジチョウ","prefecture_code":26},"8206":{"zip_code":"6028206","prefecture":"京都府","prefecture_kana":"キョウトフ","city":"京都市上京区","city_kana":"キョウトシカミギョウク","town":"南新在家町","town_kana":"ミナミシンザイケチョウ","prefecture_code":26},"8248":{"zip_code":"6028248","prefecture":"京都府","prefecture_kana":"キョウトフ","city":"京都市上京区","city_kana":"キョウトシカミギョウク","town":"南俵町","town_kana":"ミナミタワラチョウ","prefecture_code":26},"0865":{"zip_code":"6020865","prefecture":"京都府","prefecture_kana":"キョウトフ","city":"京都市上京区","city_kana":"キョウトシカミギョウク","town":"南町","town_kana":"ミナミチョウ","prefecture_code":26},"8466":{"zip_code":"6028466","prefecture":"京都府","prefecture_kana":"キョウトフ","city":"京都市上京区","city_kana":"キョウトシカミギョウク","town":"南辻町","town_kana":"ミナミツジチョウ","prefecture_code":26},"0055":{"zip_code":"6020055","prefecture":"京都府","prefecture_kana":"キョウトフ","city":"京都市上京区","city_kana":"キョウトシカミギョウク","town":"南舟橋町","town_kana":"ミナミフナハシチョウ","prefecture_code":26},"8217":{"zip_code":"6028217","prefecture":"京都府","prefecture_kana":"キョウトフ","city":"京都市上京区","city_kana":"キョウトシカミギョウク","town":"南門前町","town_kana":"ミナミモンゼンチョウ","prefecture_code":26},"0853":{"zip_code":"6020853","prefecture":"京都府","prefecture_kana":"キョウトフ","city":"京都市上京区","city_kana":"キョウトシカミギョウク","town":"宮垣町","town_kana":"ミヤガキチョウ","prefecture_code":26},"0005":{"zip_code":"6020005","prefecture":"京都府","prefecture_kana":"キョウトフ","city":"京都市上京区","city_kana":"キョウトシカミギョウク","town":"妙顕寺前町","town_kana":"ミョウケンジマエチョウ","prefecture_code":26},"8418":{"zip_code":"6028418","prefecture":"京都府","prefecture_kana":"キョウトフ","city":"京都市上京区","city_kana":"キョウトシカミギョウク","town":"妙蓮寺前町","town_kana":"ミョウレンジマエチョウ","prefecture_code":26},"0823":{"zip_code":"6020823","prefecture":"京都府","prefecture_kana":"キョウトフ","city":"京都市上京区","city_kana":"キョウトシカミギョウク","town":"三芳町","town_kana":"ミヨシチョウ","prefecture_code":26},"0933":{"zip_code":"6020933","prefecture":"京都府","prefecture_kana":"キョウトフ","city":"京都市上京区","city_kana":"キョウトシカミギョウク","town":"武者小路町","town_kana":"ムシャコウジチョウ","prefecture_code":26},"8211":{"zip_code":"6028211","prefecture":"京都府","prefecture_kana":"キョウトフ","city":"京都市上京区","city_kana":"キョウトシカミギョウク","town":"村雲町","town_kana":"ムラクモチョウ","prefecture_code":26},"0029":{"zip_code":"6020029","prefecture":"京都府","prefecture_kana":"キョウトフ","city":"京都市上京区","city_kana":"キョウトシカミギョウク","town":"室町頭町","town_kana":"ムロマチカシラチョウ","prefecture_code":26},"8435":{"zip_code":"6028435","prefecture":"京都府","prefecture_kana":"キョウトフ","city":"京都市上京区","city_kana":"キョウトシカミギョウク","town":"元伊佐町","town_kana":"モトイサチョウ","prefecture_code":26},"8324":{"zip_code":"6028324","prefecture":"京都府","prefecture_kana":"キョウトフ","city":"京都市上京区","city_kana":"キョウトシカミギョウク","town":"元観音町","town_kana":"モトカンノンチョウ","prefecture_code":26},"8448":{"zip_code":"6028448","prefecture":"京都府","prefecture_kana":"キョウトフ","city":"京都市上京区","city_kana":"キョウトシカミギョウク","town":"元北小路町","town_kana":"モトキタコウジチョウ","prefecture_code":26},"8001":{"zip_code":"6028001","prefecture":"京都府","prefecture_kana":"キョウトフ","city":"京都市上京区","city_kana":"キョウトシカミギョウク","town":"元浄花院町","town_kana":"モトジョウカインチョウ","prefecture_code":26},"0042":{"zip_code":"6020042","prefecture":"京都府","prefecture_kana":"キョウトフ","city":"京都市上京区","city_kana":"キョウトシカミギョウク","town":"元新在家町","town_kana":"モトシンザイケチョウ","prefecture_code":26},"0926":{"zip_code":"6020926","prefecture":"京都府","prefecture_kana":"キョウトフ","city":"京都市上京区","city_kana":"キョウトシカミギョウク","town":"元真如堂町","town_kana":"モトシンニョドウチョウ","prefecture_code":26},"0938":{"zip_code":"6020938","prefecture":"京都府","prefecture_kana":"キョウトフ","city":"京都市上京区","city_kana":"キョウトシカミギョウク","town":"元図子町","town_kana":"モトズシチョウ","prefecture_code":26},"8005":{"zip_code":"6028005","prefecture":"京都府","prefecture_kana":"キョウトフ","city":"京都市上京区","city_kana":"キョウトシカミギョウク","town":"元頂妙寺町","town_kana":"モトチョウミョウジチョウ","prefecture_code":26},"8006":{"zip_code":"6028006","prefecture":"京都府","prefecture_kana":"キョウトフ","city":"京都市上京区","city_kana":"キョウトシカミギョウク","town":"元土御門町","town_kana":"モトツチミカドチョウ","prefecture_code":26},"8452":{"zip_code":"6028452","prefecture":"京都府","prefecture_kana":"キョウトフ","city":"京都市上京区","city_kana":"キョウトシカミギョウク","town":"元中之町","town_kana":"モトナカノチョウ","prefecture_code":26},"0953":{"zip_code":"6020953","prefecture":"京都府","prefecture_kana":"キョウトフ","city":"京都市上京区","city_kana":"キョウトシカミギョウク","town":"元百万遍町","town_kana":"モトヒャクマンベンチョウ","prefecture_code":26},"8113":{"zip_code":"6028113","prefecture":"京都府","prefecture_kana":"キョウトフ","city":"京都市上京区","city_kana":"キョウトシカミギョウク","town":"元福大明神町","town_kana":"モトフクダイミョウジンチョウ","prefecture_code":26},"0043":{"zip_code":"6020043","prefecture":"京都府","prefecture_kana":"キョウトフ","city":"京都市上京区","city_kana":"キョウトシカミギョウク","town":"元本満寺町","town_kana":"モトホンマンジチョウ","prefecture_code":26},"8443":{"zip_code":"6028443","prefecture":"京都府","prefecture_kana":"キョウトフ","city":"京都市上京区","city_kana":"キョウトシカミギョウク","town":"元妙蓮寺町","town_kana":"モトミョウレンジチョウ","prefecture_code":26},"8464":{"zip_code":"6028464","prefecture":"京都府","prefecture_kana":"キョウトフ","city":"京都市上京区","city_kana":"キョウトシカミギョウク","town":"元四丁目","town_kana":"モトヨンチョウメ","prefecture_code":26},"8124":{"zip_code":"6028124","prefecture":"京都府","prefecture_kana":"キョウトフ","city":"京都市上京区","city_kana":"キョウトシカミギョウク","town":"森中町","town_kana":"モリナカチョウ","prefecture_code":26},"0011":{"zip_code":"6020011","prefecture":"京都府","prefecture_kana":"キョウトフ","city":"京都市上京区","city_kana":"キョウトシカミギョウク","town":"森之木町","town_kana":"モリノキチョウ","prefecture_code":26},"8028":{"zip_code":"6028028","prefecture":"京都府","prefecture_kana":"キョウトフ","city":"京都市上京区","city_kana":"キョウトシカミギョウク","town":"門跡町","town_kana":"モンゼキチョウ","prefecture_code":26},"8447":{"zip_code":"6028447","prefecture":"京都府","prefecture_kana":"キョウトフ","city":"京都市上京区","city_kana":"キョウトシカミギョウク","town":"紋屋町","town_kana":"モンヤチョウ","prefecture_code":26},"8442":{"zip_code":"6028442","prefecture":"京都府","prefecture_kana":"キョウトフ","city":"京都市上京区","city_kana":"キョウトシカミギョウク","town":"薬師町","town_kana":"ヤクシチョウ","prefecture_code":26},"8401":{"zip_code":"6028401","prefecture":"京都府","prefecture_kana":"キョウトフ","city":"京都市上京区","city_kana":"キョウトシカミギョウク","town":"薬師前町","town_kana":"ヤクシマエチョウ","prefecture_code":26},"8241":{"zip_code":"6028241","prefecture":"京都府","prefecture_kana":"キョウトフ","city":"京都市上京区","city_kana":"キョウトシカミギョウク","town":"役人町","town_kana":"ヤクニンチョウ","prefecture_code":26},"0095":{"zip_code":"6020095","prefecture":"京都府","prefecture_kana":"キョウトフ","city":"京都市上京区","city_kana":"キョウトシカミギョウク","town":"社突抜町","town_kana":"ヤシロツキヌケチョウ","prefecture_code":26},"0094":{"zip_code":"6020094","prefecture":"京都府","prefecture_kana":"キョウトフ","city":"京都市上京区","city_kana":"キョウトシカミギョウク","town":"社横町","town_kana":"ヤシロヨコチョウ","prefecture_code":26},"0021":{"zip_code":"6020021","prefecture":"京都府","prefecture_kana":"キョウトフ","city":"京都市上京区","city_kana":"キョウトシカミギョウク","town":"柳図子町","town_kana":"ヤナギノズシチョウ","prefecture_code":26},"0838":{"zip_code":"6020838","prefecture":"京都府","prefecture_kana":"キョウトフ","city":"京都市上京区","city_kana":"キョウトシカミギョウク","town":"柳風呂町","town_kana":"ヤナギフロチョウ","prefecture_code":26},"8041":{"zip_code":"6028041","prefecture":"京都府","prefecture_kana":"キョウトフ","city":"京都市上京区","city_kana":"キョウトシカミギョウク","town":"藪之内町","town_kana":"ヤブノウチチョウ","prefecture_code":26},"0806":{"zip_code":"6020806","prefecture":"京都府","prefecture_kana":"キョウトフ","city":"京都市上京区","city_kana":"キョウトシカミギョウク","town":"藪之下町","town_kana":"ヤブノシタチョウ","prefecture_code":26},"8268":{"zip_code":"6028268","prefecture":"京都府","prefecture_kana":"キョウトフ","city":"京都市上京区","city_kana":"キョウトシカミギョウク","town":"山里町","town_kana":"ヤマザトチョウ","prefecture_code":26},"8422":{"zip_code":"6028422","prefecture":"京都府","prefecture_kana":"キョウトフ","city":"京都市上京区","city_kana":"キョウトシカミギョウク","town":"山名町","town_kana":"ヤマナチョウ","prefecture_code":26},"8171":{"zip_code":"6028171","prefecture":"京都府","prefecture_kana":"キョウトフ","city":"京都市上京区","city_kana":"キョウトシカミギョウク","town":"山本町","town_kana":"ヤマモトチョウ","prefecture_code":26},"8366":{"zip_code":"6028366","prefecture":"京都府","prefecture_kana":"キョウトフ","city":"京都市上京区","city_kana":"キョウトシカミギョウク","town":"行衛町","town_kana":"ユクエチョウ","prefecture_code":26},"8022":{"zip_code":"6028022","prefecture":"京都府","prefecture_kana":"キョウトフ","city":"京都市上京区","city_kana":"キョウトシカミギョウク","town":"養安町","town_kana":"ヨウアンチョウ","prefecture_code":26},"8449":{"zip_code":"6028449","prefecture":"京都府","prefecture_kana":"キョウトフ","city":"京都市上京区","city_kana":"キョウトシカミギョウク","town":"横大宮町","town_kana":"ヨコオオミヤチョウ","prefecture_code":26},"8223":{"zip_code":"6028223","prefecture":"京都府","prefecture_kana":"キョウトフ","city":"京都市上京区","city_kana":"キョウトシカミギョウク","town":"横神明町","town_kana":"ヨコシンメイチョウ","prefecture_code":26},"8117":{"zip_code":"6028117","prefecture":"京都府","prefecture_kana":"キョウトフ","city":"京都市上京区","city_kana":"キョウトシカミギョウク","town":"吉野町","town_kana":"ヨシノチョウ","prefecture_code":26},"8112":{"zip_code":"6028112","prefecture":"京都府","prefecture_kana":"キョウトフ","city":"京都市上京区","city_kana":"キョウトシカミギョウク","town":"四町目（西堀川通下立売上る、西堀川通出水下る）","town_kana":"ヨンチョウメ(ニシホリカワドオリシモダチウリアガル、ニシホリカワドオリデミズサガル)","prefecture_code":26},"8045":[{"zip_code":"6028045","prefecture":"京都府","prefecture_kana":"キョウトフ","city":"京都市上京区","city_kana":"キョウトシカミギョウク","town":"四町目（出水通油小路西入、出水通堀川東入、出水通堀川東入","town_kana":"ヨンチョウメ","prefecture_code":26},{"zip_code":"6028045","prefecture":"京都府","prefecture_kana":"キョウトフ","city":"京都市上京区","city_kana":"キョウトシカミギョウク","town":"下る、出水通東堀川東入、下立売通堀川東入、下立売通堀川東入上る、下立売通","town_kana":"ヨンチョウメ","prefecture_code":26},{"zip_code":"6028045","prefecture":"京都府","prefecture_kana":"キョウトフ","city":"京都市上京区","city_kana":"キョウトシカミギョウク","town":"堀川東入下る、東堀川通下立売上る、東堀川通出水下る）","town_kana":"ヨンチョウメ","prefecture_code":26}],"8154":[{"zip_code":"6028154","prefecture":"京都府","prefecture_kana":"キョウトフ","city":"京都市上京区","city_kana":"キョウトシカミギョウク","town":"四町目（竹屋町通日暮西入、日暮通竹屋町上る、日暮通丸太町下","town_kana":"ヨンチョウメ","prefecture_code":26},{"zip_code":"6028154","prefecture":"京都府","prefecture_kana":"キョウトフ","city":"京都市上京区","city_kana":"キョウトシカミギョウク","town":"る、日暮通丸太町下る西入）","town_kana":"ヨンチョウメ","prefecture_code":26}],"8347":{"zip_code":"6028347","prefecture":"京都府","prefecture_kana":"キョウトフ","city":"京都市上京区","city_kana":"キョウトシカミギョウク","town":"四番町","town_kana":"ヨンバンチョウ","prefecture_code":26},"8343":{"zip_code":"6028343","prefecture":"京都府","prefecture_kana":"キョウトフ","city":"京都市上京区","city_kana":"キョウトシカミギョウク","town":"利生町","town_kana":"リセイチョウ","prefecture_code":26},"0831":{"zip_code":"6020831","prefecture":"京都府","prefecture_kana":"キョウトフ","city":"京都市上京区","city_kana":"キョウトシカミギョウク","town":"立本寺前町","town_kana":"リュウホンジマエチョウ","prefecture_code":26},"8016":{"zip_code":"6028016","prefecture":"京都府","prefecture_kana":"キョウトフ","city":"京都市上京区","city_kana":"キョウトシカミギョウク","town":"両御霊町","town_kana":"リョウゴリョウチョウ","prefecture_code":26},"8035":{"zip_code":"6028035","prefecture":"京都府","prefecture_kana":"キョウトフ","city":"京都市上京区","city_kana":"キョウトシカミギョウク","town":"六町目","town_kana":"ロクチョウメ","prefecture_code":26},"8351":{"zip_code":"6028351","prefecture":"京都府","prefecture_kana":"キョウトフ","city":"京都市上京区","city_kana":"キョウトシカミギョウク","town":"六番町","town_kana":"ロクバンチョウ","prefecture_code":26},"8331":{"zip_code":"6028331","prefecture":"京都府","prefecture_kana":"キョウトフ","city":"京都市上京区","city_kana":"キョウトシカミギョウク","town":"若松町","town_kana":"ワカマツチョウ","prefecture_code":26},"0085":{"zip_code":"6020085","prefecture":"京都府","prefecture_kana":"キョウトフ","city":"京都市上京区","city_kana":"キョウトシカミギョウク","town":"若宮竪町","town_kana":"ワカミヤタテチョウ","prefecture_code":26},"0084":{"zip_code":"6020084","prefecture":"京都府","prefecture_kana":"キョウトフ","city":"京都市上京区","city_kana":"キョウトシカミギョウク","town":"若宮横町","town_kana":"ワカミヤヨコチョウ","prefecture_code":26},"8258":{"zip_code":"6028258","prefecture":"京都府","prefecture_kana":"キョウトフ","city":"京都市上京区","city_kana":"キョウトシカミギョウク","town":"和水町","town_kana":"ワスイチョウ","prefecture_code":26},"8144":{"zip_code":"6028144","prefecture":"京都府","prefecture_kana":"キョウトフ","city":"京都市上京区","city_kana":"キョウトシカミギョウク","town":"藁屋町","town_kana":"ワラヤチョウ","prefecture_code":26}}