{"0000":{"zip_code":"6030000","prefecture":"京都府","prefecture_kana":"キョウトフ","city":"京都市北区","city_kana":"キョウトシキタク","town":"","town_kana":"","prefecture_code":26},"8136":{"zip_code":"6038136","prefecture":"京都府","prefecture_kana":"キョウトフ","city":"京都市北区","city_kana":"キョウトシキタク","town":"出雲路神楽町","town_kana":"イズモジカグラチョウ","prefecture_code":26},"8134":{"zip_code":"6038134","prefecture":"京都府","prefecture_kana":"キョウトフ","city":"京都市北区","city_kana":"キョウトシキタク","town":"出雲路立テ本町","town_kana":"イズモジタテモトチョウ","prefecture_code":26},"8135":{"zip_code":"6038135","prefecture":"京都府","prefecture_kana":"キョウトフ","city":"京都市北区","city_kana":"キョウトシキタク","town":"出雲路俵町","town_kana":"イズモジタワラチョウ","prefecture_code":26},"8133":{"zip_code":"6038133","prefecture":"京都府","prefecture_kana":"キョウトフ","city":"京都市北区","city_kana":"キョウトシキタク","town":"出雲路松ノ下町","town_kana":"イズモジマツノシタチョウ","prefecture_code":26},"8481":{"zip_code":"6038481","prefecture":"京都府","prefecture_kana":"キョウトフ","city":"京都市北区","city_kana":"キョウトシキタク","town":"大北山鏡石町","town_kana":"オオキタヤマカガミイシチョウ","prefecture_code":26},"8482":{"zip_code":"6038482","prefecture":"京都府","prefecture_kana":"キョウトフ","city":"京都市北区","city_kana":"キョウトシキタク","town":"大北山天神岡町","town_kana":"オオキタヤマテンジンオカチョウ","prefecture_code":26},"8483":{"zip_code":"6038483","prefecture":"京都府","prefecture_kana":"キョウトフ","city":"京都市北区","city_kana":"キョウトシキタク","town":"大北山蓮ケ谷町","town_kana":"オオキタヤマハスガダニチョウ","prefecture_code":26},"8488":{"zip_code":"6038488","prefecture":"京都府","prefecture_kana":"キョウトフ","city":"京都市北区","city_kana":"キョウトシキタク","town":"大北山長谷町","town_kana":"オオキタヤマハセチョウ","prefecture_code":26},"8487":{"zip_code":"6038487","prefecture":"京都府","prefecture_kana":"キョウトフ","city":"京都市北区","city_kana":"キョウトシキタク","town":"大北山原谷乾町","town_kana":"オオキタヤマハラダニイヌイチョウ","prefecture_code":26},"8457":{"zip_code":"6038457","prefecture":"京都府","prefecture_kana":"キョウトフ","city":"京都市北区","city_kana":"キョウトシキタク","town":"大北山不動山町","town_kana":"オオキタヤマフドウサンチョウ","prefecture_code":26},"8477":{"zip_code":"6038477","prefecture":"京都府","prefecture_kana":"キョウトフ","city":"京都市北区","city_kana":"キョウトシキタク","town":"大宮一ノ井町","town_kana":"オオミヤイチノイチョウ","prefecture_code":26},"8401":{"zip_code":"6038401","prefecture":"京都府","prefecture_kana":"キョウトフ","city":"京都市北区","city_kana":"キョウトシキタク","town":"大宮上ノ岸町","town_kana":"オオミヤカミノキシチョウ","prefecture_code":26},"8408":{"zip_code":"6038408","prefecture":"京都府","prefecture_kana":"キョウトフ","city":"京都市北区","city_kana":"キョウトシキタク","town":"大宮北椿原町","town_kana":"オオミヤキタツバキハラチョウ","prefecture_code":26},"8831":{"zip_code":"6038831","prefecture":"京都府","prefecture_kana":"キョウトフ","city":"京都市北区","city_kana":"キョウトシキタク","town":"大宮北ノ岸町","town_kana":"オオミヤキタノキシチョウ","prefecture_code":26},"8475":{"zip_code":"6038475","prefecture":"京都府","prefecture_kana":"キョウトフ","city":"京都市北区","city_kana":"キョウトシキタク","town":"大宮北箱ノ井町","town_kana":"オオミヤキタハコノイチョウ","prefecture_code":26},"8407":{"zip_code":"6038407","prefecture":"京都府","prefecture_kana":"キョウトフ","city":"京都市北区","city_kana":"キョウトシキタク","town":"大宮北林町","town_kana":"オオミヤキタバヤシチョウ","prefecture_code":26},"8472":{"zip_code":"6038472","prefecture":"京都府","prefecture_kana":"キョウトフ","city":"京都市北区","city_kana":"キョウトシキタク","town":"大宮北山ノ前町","town_kana":"オオミヤキタヤマノマエチョウ","prefecture_code":26},"8461":{"zip_code":"6038461","prefecture":"京都府","prefecture_kana":"キョウトフ","city":"京都市北区","city_kana":"キョウトシキタク","town":"大宮玄琢北東町","town_kana":"オオミヤゲンタクキタヒガシチョウ","prefecture_code":26},"8462":{"zip_code":"6038462","prefecture":"京都府","prefecture_kana":"キョウトフ","city":"京都市北区","city_kana":"キョウトシキタク","town":"大宮玄琢北町","town_kana":"オオミヤゲンタクキタマチ","prefecture_code":26},"8463":{"zip_code":"6038463","prefecture":"京都府","prefecture_kana":"キョウトフ","city":"京都市北区","city_kana":"キョウトシキタク","town":"大宮玄琢南町","town_kana":"オオミヤゲンタクミナミマチ","prefecture_code":26},"8478":{"zip_code":"6038478","prefecture":"京都府","prefecture_kana":"キョウトフ","city":"京都市北区","city_kana":"キョウトシキタク","town":"大宮釈迦谷","town_kana":"オオミヤシャカダニ","prefecture_code":26},"8838":{"zip_code":"6038838","prefecture":"京都府","prefecture_kana":"キョウトフ","city":"京都市北区","city_kana":"キョウトシキタク","town":"大宮田尻町","town_kana":"オオミヤタジリチョウ","prefecture_code":26},"8441":{"zip_code":"6038441","prefecture":"京都府","prefecture_kana":"キョウトフ","city":"京都市北区","city_kana":"キョウトシキタク","town":"大宮土居町","town_kana":"オオミヤドイチョウ","prefecture_code":26},"8834":{"zip_code":"6038834","prefecture":"京都府","prefecture_kana":"キョウトフ","city":"京都市北区","city_kana":"キョウトシキタク","town":"大宮中総門口町","town_kana":"オオミヤナカソウモングチチョウ","prefecture_code":26},"8837":{"zip_code":"6038837","prefecture":"京都府","prefecture_kana":"キョウトフ","city":"京都市北区","city_kana":"キョウトシキタク","town":"大宮中ノ社町","town_kana":"オオミヤナカノヤシロチョウ","prefecture_code":26},"8404":{"zip_code":"6038404","prefecture":"京都府","prefecture_kana":"キョウトフ","city":"京都市北区","city_kana":"キョウトシキタク","town":"大宮中林町","town_kana":"オオミヤナカバヤシチョウ","prefecture_code":26},"8405":{"zip_code":"6038405","prefecture":"京都府","prefecture_kana":"キョウトフ","city":"京都市北区","city_kana":"キョウトシキタク","town":"大宮西小野堀町","town_kana":"オオミヤニシオノボリチョウ","prefecture_code":26},"8835":{"zip_code":"6038835","prefecture":"京都府","prefecture_kana":"キョウトフ","city":"京都市北区","city_kana":"キョウトシキタク","town":"大宮西総門口町","town_kana":"オオミヤニシソウモングチチョウ","prefecture_code":26},"8444":{"zip_code":"6038444","prefecture":"京都府","prefecture_kana":"キョウトフ","city":"京都市北区","city_kana":"キョウトシキタク","town":"大宮西野山町","town_kana":"オオミヤニシノヤマチョウ","prefecture_code":26},"8471":{"zip_code":"6038471","prefecture":"京都府","prefecture_kana":"キョウトフ","city":"京都市北区","city_kana":"キョウトシキタク","town":"大宮西山ノ前町","town_kana":"オオミヤニシヤマノマエチョウ","prefecture_code":26},"8432":{"zip_code":"6038432","prefecture":"京都府","prefecture_kana":"キョウトフ","city":"京都市北区","city_kana":"キョウトシキタク","town":"大宮西脇台町","town_kana":"オオミヤニシワキダイチョウ","prefecture_code":26},"8406":{"zip_code":"6038406","prefecture":"京都府","prefecture_kana":"キョウトフ","city":"京都市北区","city_kana":"キョウトシキタク","town":"大宮東小野堀町","town_kana":"オオミヤヒガシオノボリチョウ","prefecture_code":26},"8833":{"zip_code":"6038833","prefecture":"京都府","prefecture_kana":"キョウトフ","city":"京都市北区","city_kana":"キョウトシキタク","town":"大宮東総門口町","town_kana":"オオミヤヒガシソウモングチチョウ","prefecture_code":26},"8431":{"zip_code":"6038431","prefecture":"京都府","prefecture_kana":"キョウトフ","city":"京都市北区","city_kana":"キョウトシキタク","town":"大宮東脇台町","town_kana":"オオミヤヒガシワキダイチョウ","prefecture_code":26},"8437":{"zip_code":"6038437","prefecture":"京都府","prefecture_kana":"キョウトフ","city":"京都市北区","city_kana":"キョウトシキタク","town":"大宮開町","town_kana":"オオミヤヒラキチョウ","prefecture_code":26},"8832":{"zip_code":"6038832","prefecture":"京都府","prefecture_kana":"キョウトフ","city":"京都市北区","city_kana":"キョウトシキタク","town":"大宮南田尻町","town_kana":"オオミヤミナミタジリチョウ","prefecture_code":26},"8402":{"zip_code":"6038402","prefecture":"京都府","prefecture_kana":"キョウトフ","city":"京都市北区","city_kana":"キョウトシキタク","town":"大宮南椿原町","town_kana":"オオミヤミナミツバキハラチョウ","prefecture_code":26},"8476":{"zip_code":"6038476","prefecture":"京都府","prefecture_kana":"キョウトフ","city":"京都市北区","city_kana":"キョウトシキタク","town":"大宮南箱ノ井町","town_kana":"オオミヤミナミハコノイチョウ","prefecture_code":26},"8403":{"zip_code":"6038403","prefecture":"京都府","prefecture_kana":"キョウトフ","city":"京都市北区","city_kana":"キョウトシキタク","town":"大宮南林町","town_kana":"オオミヤミナミバヤシチョウ","prefecture_code":26},"8473":{"zip_code":"6038473","prefecture":"京都府","prefecture_kana":"キョウトフ","city":"京都市北区","city_kana":"キョウトシキタク","town":"大宮南山ノ前町","town_kana":"オオミヤミナミヤマノマエチョウ","prefecture_code":26},"8479":{"zip_code":"6038479","prefecture":"京都府","prefecture_kana":"キョウトフ","city":"京都市北区","city_kana":"キョウトシキタク","town":"大宮薬師山西町","town_kana":"オオミヤヤクシヤマニシチョウ","prefecture_code":26},"8474":{"zip_code":"6038474","prefecture":"京都府","prefecture_kana":"キョウトフ","city":"京都市北区","city_kana":"キョウトシキタク","town":"大宮薬師山東町","town_kana":"オオミヤヤクシヤマヒガシチョウ","prefecture_code":26},"8012":{"zip_code":"6038012","prefecture":"京都府","prefecture_kana":"キョウトフ","city":"京都市北区","city_kana":"キョウトシキタク","town":"上賀茂葵田町","town_kana":"カミガモアオイデンチョウ","prefecture_code":26},"8034":{"zip_code":"6038034","prefecture":"京都府","prefecture_kana":"キョウトフ","city":"京都市北区","city_kana":"キョウトシキタク","town":"上賀茂葵之森町","town_kana":"カミガモアオイノモリチョウ","prefecture_code":26},"8018":{"zip_code":"6038018","prefecture":"京都府","prefecture_kana":"キョウトフ","city":"京都市北区","city_kana":"キョウトシキタク","town":"上賀茂赤尾町","town_kana":"カミガモアカオチョウ","prefecture_code":26},"8035":{"zip_code":"6038035","prefecture":"京都府","prefecture_kana":"キョウトフ","city":"京都市北区","city_kana":"キョウトシキタク","town":"上賀茂朝露ケ原町","town_kana":"カミガモアサツユガハラチョウ","prefecture_code":26},"8044":{"zip_code":"6038044","prefecture":"京都府","prefecture_kana":"キョウトフ","city":"京都市北区","city_kana":"キョウトシキタク","town":"上賀茂畔勝町","town_kana":"カミガモアゼカチチョウ","prefecture_code":26},"8061":{"zip_code":"6038061","prefecture":"京都府","prefecture_kana":"キョウトフ","city":"京都市北区","city_kana":"キョウトシキタク","town":"上賀茂荒草町","town_kana":"カミガモアラクサチョウ","prefecture_code":26},"8066":{"zip_code":"6038066","prefecture":"京都府","prefecture_kana":"キョウトフ","city":"京都市北区","city_kana":"キョウトシキタク","town":"上賀茂池殿町","town_kana":"カミガモイケドノチョウ","prefecture_code":26},"8043":{"zip_code":"6038043","prefecture":"京都府","prefecture_kana":"キョウトフ","city":"京都市北区","city_kana":"キョウトシキタク","town":"上賀茂池端町","town_kana":"カミガモイケバタチョウ","prefecture_code":26},"8056":{"zip_code":"6038056","prefecture":"京都府","prefecture_kana":"キョウトフ","city":"京都市北区","city_kana":"キョウトシキタク","town":"上賀茂石計町","town_kana":"カミガモイシカズチョウ","prefecture_code":26},"8017":{"zip_code":"6038017","prefecture":"京都府","prefecture_kana":"キョウトフ","city":"京都市北区","city_kana":"キョウトシキタク","town":"上賀茂壱町口町","town_kana":"カミガモイッチョウグチチョウ","prefecture_code":26},"8063":{"zip_code":"6038063","prefecture":"京都府","prefecture_kana":"キョウトフ","city":"京都市北区","city_kana":"キョウトシキタク","town":"上賀茂今井河原町","town_kana":"カミガモイマイガワラチョウ","prefecture_code":26},"8053":{"zip_code":"6038053","prefecture":"京都府","prefecture_kana":"キョウトフ","city":"京都市北区","city_kana":"キョウトシキタク","town":"上賀茂岩ケ垣内町","town_kana":"カミガモイワガカキウチチョウ","prefecture_code":26},"8033":{"zip_code":"6038033","prefecture":"京都府","prefecture_kana":"キョウトフ","city":"京都市北区","city_kana":"キョウトシキタク","town":"上賀茂馬ノ目町","town_kana":"カミガモウマノメチョウ","prefecture_code":26},"8087":{"zip_code":"6038087","prefecture":"京都府","prefecture_kana":"キョウトフ","city":"京都市北区","city_kana":"キョウトシキタク","town":"上賀茂梅ケ辻町","town_kana":"カミガモウメガツジチョウ","prefecture_code":26},"8073":{"zip_code":"6038073","prefecture":"京都府","prefecture_kana":"キョウトフ","city":"京都市北区","city_kana":"キョウトシキタク","town":"上賀茂烏帽子ケ垣内町","town_kana":"カミガモエボシガカキウチチョウ","prefecture_code":26},"8037":{"zip_code":"6038037","prefecture":"京都府","prefecture_kana":"キョウトフ","city":"京都市北区","city_kana":"キョウトシキタク","town":"上賀茂大柳町","town_kana":"カミガモオオヤナギチョウ","prefecture_code":26},"8082":{"zip_code":"6038082","prefecture":"京都府","prefecture_kana":"キョウトフ","city":"京都市北区","city_kana":"キョウトシキタク","town":"上賀茂岡本口町","town_kana":"カミガモオカモトグチチョウ","prefecture_code":26},"8081":{"zip_code":"6038081","prefecture":"京都府","prefecture_kana":"キョウトフ","city":"京都市北区","city_kana":"キョウトシキタク","town":"上賀茂岡本町","town_kana":"カミガモオカモトチョウ","prefecture_code":26},"8038":{"zip_code":"6038038","prefecture":"京都府","prefecture_kana":"キョウトフ","city":"京都市北区","city_kana":"キョウトシキタク","town":"上賀茂音保瀬町","town_kana":"カミガモオトボセチョウ","prefecture_code":26},"8013":{"zip_code":"6038013","prefecture":"京都府","prefecture_kana":"キョウトフ","city":"京都市北区","city_kana":"キョウトシキタク","town":"上賀茂上神原町","town_kana":"カミガモカミジンバラチョウ","prefecture_code":26},"8071":{"zip_code":"6038071","prefecture":"京都府","prefecture_kana":"キョウトフ","city":"京都市北区","city_kana":"キョウトシキタク","town":"上賀茂北大路町","town_kana":"カミガモキタオオジチョウ","prefecture_code":26},"8006":{"zip_code":"6038006","prefecture":"京都府","prefecture_kana":"キョウトフ","city":"京都市北区","city_kana":"キョウトシキタク","town":"上賀茂北ノ原町","town_kana":"カミガモキタノハラチョウ","prefecture_code":26},"8007":{"zip_code":"6038007","prefecture":"京都府","prefecture_kana":"キョウトフ","city":"京都市北区","city_kana":"キョウトシキタク","town":"上賀茂毛穴井町","town_kana":"カミガモケアナイチョウ","prefecture_code":26},"8041":{"zip_code":"6038041","prefecture":"京都府","prefecture_kana":"キョウトフ","city":"京都市北区","city_kana":"キョウトシキタク","town":"上賀茂ケシ山","town_kana":"カミガモケシヤマ","prefecture_code":26},"8002":{"zip_code":"6038002","prefecture":"京都府","prefecture_kana":"キョウトフ","city":"京都市北区","city_kana":"キョウトシキタク","town":"上賀茂神山","town_kana":"カミガモコウヤマ","prefecture_code":26},"8051":{"zip_code":"6038051","prefecture":"京都府","prefecture_kana":"キョウトフ","city":"京都市北区","city_kana":"キョウトシキタク","town":"上賀茂榊田町","town_kana":"カミガモサカキダチョウ","prefecture_code":26},"8016":{"zip_code":"6038016","prefecture":"京都府","prefecture_kana":"キョウトフ","city":"京都市北区","city_kana":"キョウトシキタク","town":"上賀茂坂口町","town_kana":"カミガモサカグチチョウ","prefecture_code":26},"8054":{"zip_code":"6038054","prefecture":"京都府","prefecture_kana":"キョウトフ","city":"京都市北区","city_kana":"キョウトシキタク","town":"上賀茂桜井町","town_kana":"カミガモサクライチョウ","prefecture_code":26},"8014":{"zip_code":"6038014","prefecture":"京都府","prefecture_kana":"キョウトフ","city":"京都市北区","city_kana":"キョウトシキタク","town":"上賀茂下神原町","town_kana":"カミガモシモジンバラチョウ","prefecture_code":26},"8001":{"zip_code":"6038001","prefecture":"京都府","prefecture_kana":"キョウトフ","city":"京都市北区","city_kana":"キョウトシキタク","town":"上賀茂十三石山","town_kana":"カミガモジュウサンゴクヤマ","prefecture_code":26},"8064":{"zip_code":"6038064","prefecture":"京都府","prefecture_kana":"キョウトフ","city":"京都市北区","city_kana":"キョウトシキタク","town":"上賀茂菖蒲園町","town_kana":"カミガモショウブエンチョウ","prefecture_code":26},"8085":{"zip_code":"6038085","prefecture":"京都府","prefecture_kana":"キョウトフ","city":"京都市北区","city_kana":"キョウトシキタク","town":"上賀茂蝉ケ垣内町","town_kana":"カミガモセミガカキウチチョウ","prefecture_code":26},"8055":{"zip_code":"6038055","prefecture":"京都府","prefecture_kana":"キョウトフ","city":"京都市北区","city_kana":"キョウトシキタク","town":"上賀茂高縄手町","town_kana":"カミガモタカナワテチョウ","prefecture_code":26},"8072":{"zip_code":"6038072","prefecture":"京都府","prefecture_kana":"キョウトフ","city":"京都市北区","city_kana":"キョウトシキタク","town":"上賀茂竹ケ鼻町","town_kana":"カミガモタケガハナチョウ","prefecture_code":26},"8084":{"zip_code":"6038084","prefecture":"京都府","prefecture_kana":"キョウトフ","city":"京都市北区","city_kana":"キョウトシキタク","town":"上賀茂土門町","town_kana":"カミガモツチカドチョウ","prefecture_code":26},"8027":{"zip_code":"6038027","prefecture":"京都府","prefecture_kana":"キョウトフ","city":"京都市北区","city_kana":"キョウトシキタク","town":"上賀茂津ノ国町","town_kana":"カミガモツノクニチョウ","prefecture_code":26},"8045":{"zip_code":"6038045","prefecture":"京都府","prefecture_kana":"キョウトフ","city":"京都市北区","city_kana":"キョウトシキタク","town":"上賀茂豊田町","town_kana":"カミガモトヨタチョウ","prefecture_code":26},"8075":{"zip_code":"6038075","prefecture":"京都府","prefecture_kana":"キョウトフ","city":"京都市北区","city_kana":"キョウトシキタク","town":"上賀茂中大路町","town_kana":"カミガモナカオオジチョウ","prefecture_code":26},"8008":{"zip_code":"6038008","prefecture":"京都府","prefecture_kana":"キョウトフ","city":"京都市北区","city_kana":"キョウトシキタク","town":"上賀茂中嶋河原町","town_kana":"カミガモナカジマガワラチョウ","prefecture_code":26},"8032":{"zip_code":"6038032","prefecture":"京都府","prefecture_kana":"キョウトフ","city":"京都市北区","city_kana":"キョウトシキタク","town":"上賀茂中ノ河原町","town_kana":"カミガモナカノカワラチョウ","prefecture_code":26},"8024":{"zip_code":"6038024","prefecture":"京都府","prefecture_kana":"キョウトフ","city":"京都市北区","city_kana":"キョウトシキタク","town":"上賀茂中ノ坂町","town_kana":"カミガモナカノサカチョウ","prefecture_code":26},"8026":{"zip_code":"6038026","prefecture":"京都府","prefecture_kana":"キョウトフ","city":"京都市北区","city_kana":"キョウトシキタク","town":"上賀茂中山町","town_kana":"カミガモナカヤマチョウ","prefecture_code":26},"8011":{"zip_code":"6038011","prefecture":"京都府","prefecture_kana":"キョウトフ","city":"京都市北区","city_kana":"キョウトシキタク","town":"上賀茂二軒家町","town_kana":"カミガモニケンヤチョウ","prefecture_code":26},"8028":{"zip_code":"6038028","prefecture":"京都府","prefecture_kana":"キョウトフ","city":"京都市北区","city_kana":"キョウトシキタク","town":"上賀茂西上之段町","town_kana":"カミガモニシウエノダンチョウ","prefecture_code":26},"8036":{"zip_code":"6038036","prefecture":"京都府","prefecture_kana":"キョウトフ","city":"京都市北区","city_kana":"キョウトシキタク","town":"上賀茂西河原町","town_kana":"カミガモニシガワラチョウ","prefecture_code":26},"8021":{"zip_code":"6038021","prefecture":"京都府","prefecture_kana":"キョウトフ","city":"京都市北区","city_kana":"キョウトシキタク","town":"上賀茂西後藤町","town_kana":"カミガモニシゴトウチョウ","prefecture_code":26},"8042":{"zip_code":"6038042","prefecture":"京都府","prefecture_kana":"キョウトフ","city":"京都市北区","city_kana":"キョウトシキタク","town":"上賀茂狭間町","town_kana":"カミガモハザマチョウ","prefecture_code":26},"8003":{"zip_code":"6038003","prefecture":"京都府","prefecture_kana":"キョウトフ","city":"京都市北区","city_kana":"キョウトシキタク","town":"上賀茂柊谷町","town_kana":"カミガモヒイラギダニチョウ","prefecture_code":26},"8023":{"zip_code":"6038023","prefecture":"京都府","prefecture_kana":"キョウトフ","city":"京都市北区","city_kana":"キョウトシキタク","town":"上賀茂東上之段町","town_kana":"カミガモヒガシウエノダンチョウ","prefecture_code":26},"8022":{"zip_code":"6038022","prefecture":"京都府","prefecture_kana":"キョウトフ","city":"京都市北区","city_kana":"キョウトシキタク","town":"上賀茂東後藤町","town_kana":"カミガモヒガシゴトウチョウ","prefecture_code":26},"8015":{"zip_code":"6038015","prefecture":"京都府","prefecture_kana":"キョウトフ","city":"京都市北区","city_kana":"キョウトシキタク","town":"上賀茂備後田町","town_kana":"カミガモビンゴデンチョウ","prefecture_code":26},"8077":{"zip_code":"6038077","prefecture":"京都府","prefecture_kana":"キョウトフ","city":"京都市北区","city_kana":"キョウトシキタク","town":"上賀茂藤ノ木町","town_kana":"カミガモフジノキチョウ","prefecture_code":26},"8025":{"zip_code":"6038025","prefecture":"京都府","prefecture_kana":"キョウトフ","city":"京都市北区","city_kana":"キョウトシキタク","town":"上賀茂舟着町","town_kana":"カミガモフナツキチョウ","prefecture_code":26},"8005":{"zip_code":"6038005","prefecture":"京都府","prefecture_kana":"キョウトフ","city":"京都市北区","city_kana":"キョウトシキタク","town":"上賀茂前田町","town_kana":"カミガモマエダチョウ","prefecture_code":26},"8052":{"zip_code":"6038052","prefecture":"京都府","prefecture_kana":"キョウトフ","city":"京都市北区","city_kana":"キョウトシキタク","town":"上賀茂松本町","town_kana":"カミガモマツモトチョウ","prefecture_code":26},"8065":{"zip_code":"6038065","prefecture":"京都府","prefecture_kana":"キョウトフ","city":"京都市北区","city_kana":"キョウトシキタク","town":"上賀茂御薗口町","town_kana":"カミガモミソノグチチョウ","prefecture_code":26},"8046":{"zip_code":"6038046","prefecture":"京都府","prefecture_kana":"キョウトフ","city":"京都市北区","city_kana":"キョウトシキタク","town":"上賀茂深泥池町","town_kana":"カミガモミドロイケチョウ","prefecture_code":26},"8074":{"zip_code":"6038074","prefecture":"京都府","prefecture_kana":"キョウトフ","city":"京都市北区","city_kana":"キョウトシキタク","town":"上賀茂南大路町","town_kana":"カミガモミナミオオジチョウ","prefecture_code":26},"8086":{"zip_code":"6038086","prefecture":"京都府","prefecture_kana":"キョウトフ","city":"京都市北区","city_kana":"キョウトシキタク","town":"上賀茂向梅町","town_kana":"カミガモムカイウメチョウ","prefecture_code":26},"8083":{"zip_code":"6038083","prefecture":"京都府","prefecture_kana":"キョウトフ","city":"京都市北区","city_kana":"キョウトシキタク","town":"上賀茂向縄手町","town_kana":"カミガモムカイナワテチョウ","prefecture_code":26},"8031":{"zip_code":"6038031","prefecture":"京都府","prefecture_kana":"キョウトフ","city":"京都市北区","city_kana":"キョウトシキタク","town":"上賀茂女夫岩町","town_kana":"カミガモメオトイワチョウ","prefecture_code":26},"8047":{"zip_code":"6038047","prefecture":"京都府","prefecture_kana":"キョウトフ","city":"京都市北区","city_kana":"キョウトシキタク","town":"上賀茂本山","town_kana":"カミガモモトヤマ","prefecture_code":26},"8062":{"zip_code":"6038062","prefecture":"京都府","prefecture_kana":"キョウトフ","city":"京都市北区","city_kana":"キョウトシキタク","town":"上賀茂薮田町","town_kana":"カミガモヤブタチョウ","prefecture_code":26},"8076":{"zip_code":"6038076","prefecture":"京都府","prefecture_kana":"キョウトフ","city":"京都市北区","city_kana":"キョウトシキタク","town":"上賀茂山本町","town_kana":"カミガモヤマモトチョウ","prefecture_code":26},"8004":{"zip_code":"6038004","prefecture":"京都府","prefecture_kana":"キョウトフ","city":"京都市北区","city_kana":"キョウトシキタク","town":"上賀茂六段田町","town_kana":"カミガモロクダンダチョウ","prefecture_code":26},"8147":{"zip_code":"6038147","prefecture":"京都府","prefecture_kana":"キョウトフ","city":"京都市北区","city_kana":"キョウトシキタク","town":"上御霊上江町","town_kana":"カミゴリョウカミエチョウ","prefecture_code":26},"8155":{"zip_code":"6038155","prefecture":"京都府","prefecture_kana":"キョウトフ","city":"京都市北区","city_kana":"キョウトシキタク","town":"上清蔵口町","town_kana":"カミセイゾウグチチョウ","prefecture_code":26},"8325":{"zip_code":"6038325","prefecture":"京都府","prefecture_kana":"キョウトフ","city":"京都市北区","city_kana":"キョウトシキタク","town":"北野上白梅町","town_kana":"キタノカミハクバイチョウ","prefecture_code":26},"8324":{"zip_code":"6038324","prefecture":"京都府","prefecture_kana":"キョウトフ","city":"京都市北区","city_kana":"キョウトシキタク","town":"北野紅梅町","town_kana":"キタノコウバイチョウ","prefecture_code":26},"8326":{"zip_code":"6038326","prefecture":"京都府","prefecture_kana":"キョウトフ","city":"京都市北区","city_kana":"キョウトシキタク","town":"北野下白梅町","town_kana":"キタノシモハクバイチョウ","prefecture_code":26},"8327":{"zip_code":"6038327","prefecture":"京都府","prefecture_kana":"キョウトフ","city":"京都市北区","city_kana":"キョウトシキタク","town":"北野西白梅町","town_kana":"キタノニシハクバイチョウ","prefecture_code":26},"8323":{"zip_code":"6038323","prefecture":"京都府","prefecture_kana":"キョウトフ","city":"京都市北区","city_kana":"キョウトシキタク","town":"北野東紅梅町","town_kana":"キタノヒガシコウバイチョウ","prefecture_code":26},"8486":{"zip_code":"6038486","prefecture":"京都府","prefecture_kana":"キョウトフ","city":"京都市北区","city_kana":"キョウトシキタク","town":"衣笠赤阪町","town_kana":"キヌガサアカサカチョウ","prefecture_code":26},"8315":{"zip_code":"6038315","prefecture":"京都府","prefecture_kana":"キョウトフ","city":"京都市北区","city_kana":"キョウトシキタク","town":"衣笠荒見町","town_kana":"キヌガサアラミチョウ","prefecture_code":26},"8351":{"zip_code":"6038351","prefecture":"京都府","prefecture_kana":"キョウトフ","city":"京都市北区","city_kana":"キョウトシキタク","town":"衣笠大祓町","town_kana":"キヌガサオオハライチョウ","prefecture_code":26},"8372":{"zip_code":"6038372","prefecture":"京都府","prefecture_kana":"キョウトフ","city":"京都市北区","city_kana":"キョウトシキタク","town":"衣笠街道町","town_kana":"キヌガサガイドウチョウ","prefecture_code":26},"8451":{"zip_code":"6038451","prefecture":"京都府","prefecture_kana":"キョウトフ","city":"京都市北区","city_kana":"キョウトシキタク","town":"衣笠鏡石町","town_kana":"キヌガサカガミイシチョウ","prefecture_code":26},"8316":{"zip_code":"6038316","prefecture":"京都府","prefecture_kana":"キョウトフ","city":"京都市北区","city_kana":"キョウトシキタク","town":"衣笠北荒見町","town_kana":"キヌガサキタアラミチョウ","prefecture_code":26},"8373":{"zip_code":"6038373","prefecture":"京都府","prefecture_kana":"キョウトフ","city":"京都市北区","city_kana":"キョウトシキタク","town":"衣笠北高橋町","town_kana":"キヌガサキタタカハシチョウ","prefecture_code":26},"8376":{"zip_code":"6038376","prefecture":"京都府","prefecture_kana":"キョウトフ","city":"京都市北区","city_kana":"キョウトシキタク","town":"衣笠北天神森町","town_kana":"キヌガサキタテンジンモリチョウ","prefecture_code":26},"8485":{"zip_code":"6038485","prefecture":"京都府","prefecture_kana":"キョウトフ","city":"京都市北区","city_kana":"キョウトシキタク","town":"衣笠衣笠山町","town_kana":"キヌガサキヌガサヤマチョウ","prefecture_code":26},"8378":{"zip_code":"6038378","prefecture":"京都府","prefecture_kana":"キョウトフ","city":"京都市北区","city_kana":"キョウトシキタク","town":"衣笠御所ノ内町","town_kana":"キヌガサゴショノウチチョウ","prefecture_code":26},"8363":{"zip_code":"6038363","prefecture":"京都府","prefecture_kana":"キョウトフ","city":"京都市北区","city_kana":"キョウトシキタク","town":"衣笠総門町","town_kana":"キヌガサソウモンチョウ","prefecture_code":26},"8374":{"zip_code":"6038374","prefecture":"京都府","prefecture_kana":"キョウトフ","city":"京都市北区","city_kana":"キョウトシキタク","town":"衣笠高橋町","town_kana":"キヌガサタカハシチョウ","prefecture_code":26},"8375":{"zip_code":"6038375","prefecture":"京都府","prefecture_kana":"キョウトフ","city":"京都市北区","city_kana":"キョウトシキタク","town":"衣笠天神森町","town_kana":"キヌガサテンジンモリチョウ","prefecture_code":26},"8377":{"zip_code":"6038377","prefecture":"京都府","prefecture_kana":"キョウトフ","city":"京都市北区","city_kana":"キョウトシキタク","town":"衣笠西御所ノ内町","town_kana":"キヌガサニシゴショノウチチョウ","prefecture_code":26},"8456":{"zip_code":"6038456","prefecture":"京都府","prefecture_kana":"キョウトフ","city":"京都市北区","city_kana":"キョウトシキタク","town":"衣笠西尊上院町","town_kana":"キヌガサニシソンジョウインチョウ","prefecture_code":26},"8366":{"zip_code":"6038366","prefecture":"京都府","prefecture_kana":"キョウトフ","city":"京都市北区","city_kana":"キョウトシキタク","town":"衣笠西馬場町","town_kana":"キヌガサニシババチョウ","prefecture_code":26},"8454":{"zip_code":"6038454","prefecture":"京都府","prefecture_kana":"キョウトフ","city":"京都市北区","city_kana":"キョウトシキタク","town":"衣笠西開キ町","town_kana":"キヌガサニシヒラキチョウ","prefecture_code":26},"8362":{"zip_code":"6038362","prefecture":"京都府","prefecture_kana":"キョウトフ","city":"京都市北区","city_kana":"キョウトシキタク","town":"衣笠馬場町","town_kana":"キヌガサババチョウ","prefecture_code":26},"8371":{"zip_code":"6038371","prefecture":"京都府","prefecture_kana":"キョウトフ","city":"京都市北区","city_kana":"キョウトシキタク","town":"衣笠東御所ノ内町","town_kana":"キヌガサヒガシゴショノウチチョウ","prefecture_code":26},"8455":{"zip_code":"6038455","prefecture":"京都府","prefecture_kana":"キョウトフ","city":"京都市北区","city_kana":"キョウトシキタク","town":"衣笠東尊上院町","town_kana":"キヌガサヒガシソンジョウインチョウ","prefecture_code":26},"8453":{"zip_code":"6038453","prefecture":"京都府","prefecture_kana":"キョウトフ","city":"京都市北区","city_kana":"キョウトシキタク","town":"衣笠東開キ町","town_kana":"キヌガサヒガシヒラキチョウ","prefecture_code":26},"8484":{"zip_code":"6038484","prefecture":"京都府","prefecture_kana":"キョウトフ","city":"京都市北区","city_kana":"キョウトシキタク","town":"衣笠氷室町","town_kana":"キヌガサヒムロチョウ","prefecture_code":26},"8452":{"zip_code":"6038452","prefecture":"京都府","prefecture_kana":"キョウトフ","city":"京都市北区","city_kana":"キョウトシキタク","town":"衣笠開キ町","town_kana":"キヌガサヒラキチョウ","prefecture_code":26},"8361":{"zip_code":"6038361","prefecture":"京都府","prefecture_kana":"キョウトフ","city":"京都市北区","city_kana":"キョウトシキタク","town":"金閣寺町","town_kana":"キンカクジチョウ","prefecture_code":26},"8861":{"zip_code":"6038861","prefecture":"京都府","prefecture_kana":"キョウトフ","city":"京都市北区","city_kana":"キョウトシキタク","town":"雲ケ畑出谷町","town_kana":"クモガハタデタニチョウ","prefecture_code":26},"8862":{"zip_code":"6038862","prefecture":"京都府","prefecture_kana":"キョウトフ","city":"京都市北区","city_kana":"キョウトシキタク","town":"雲ケ畑中津川町","town_kana":"クモガハタナカツガワチョウ","prefecture_code":26},"8863":{"zip_code":"6038863","prefecture":"京都府","prefecture_kana":"キョウトフ","city":"京都市北区","city_kana":"キョウトシキタク","town":"雲ケ畑中畑町","town_kana":"クモガハタナカハタチョウ","prefecture_code":26},"8137":{"zip_code":"6038137","prefecture":"京都府","prefecture_kana":"キョウトフ","city":"京都市北区","city_kana":"キョウトシキタク","town":"鞍馬口町","town_kana":"クラマグチチョウ","prefecture_code":26},"8341":{"zip_code":"6038341","prefecture":"京都府","prefecture_kana":"キョウトフ","city":"京都市北区","city_kana":"キョウトシキタク","town":"小松原北町","town_kana":"コマツバラキタマチ","prefecture_code":26},"8342":{"zip_code":"6038342","prefecture":"京都府","prefecture_kana":"キョウトフ","city":"京都市北区","city_kana":"キョウトシキタク","town":"小松原南町","town_kana":"コマツバラミナミマチ","prefecture_code":26},"8125":{"zip_code":"6038125","prefecture":"京都府","prefecture_kana":"キョウトフ","city":"京都市北区","city_kana":"キョウトシキタク","town":"小山板倉町","town_kana":"コヤマイタクラチョウ","prefecture_code":26},"8126":{"zip_code":"6038126","prefecture":"京都府","prefecture_kana":"キョウトフ","city":"京都市北区","city_kana":"キョウトシキタク","town":"小山上板倉町","town_kana":"コヤマカミイタクラチョウ","prefecture_code":26},"8131":{"zip_code":"6038131","prefecture":"京都府","prefecture_kana":"キョウトフ","city":"京都市北区","city_kana":"キョウトシキタク","town":"小山上内河原町","town_kana":"コヤマカミウチカワラチョウ","prefecture_code":26},"8171":{"zip_code":"6038171","prefecture":"京都府","prefecture_kana":"キョウトフ","city":"京都市北区","city_kana":"キョウトシキタク","town":"小山上初音町","town_kana":"コヤマカミハツネチョウ","prefecture_code":26},"8121":{"zip_code":"6038121","prefecture":"京都府","prefecture_kana":"キョウトフ","city":"京都市北区","city_kana":"キョウトシキタク","town":"小山上花ノ木町","town_kana":"コヤマカミハナノキチョウ","prefecture_code":26},"8143":{"zip_code":"6038143","prefecture":"京都府","prefecture_kana":"キョウトフ","city":"京都市北区","city_kana":"キョウトシキタク","town":"小山上総町","town_kana":"コヤマカミフサチョウ","prefecture_code":26},"8161":{"zip_code":"6038161","prefecture":"京都府","prefecture_kana":"キョウトフ","city":"京都市北区","city_kana":"キョウトシキタク","town":"小山北大野町","town_kana":"コヤマキタオオノチョウ","prefecture_code":26},"8142":{"zip_code":"6038142","prefecture":"京都府","prefecture_kana":"キョウトフ","city":"京都市北区","city_kana":"キョウトシキタク","town":"小山北上総町","town_kana":"コヤマキタカミフサチョウ","prefecture_code":26},"8103":{"zip_code":"6038103","prefecture":"京都府","prefecture_kana":"キョウトフ","city":"京都市北区","city_kana":"キョウトシキタク","town":"小山北玄以町","town_kana":"コヤマキタゲンイチョウ","prefecture_code":26},"8124":{"zip_code":"6038124","prefecture":"京都府","prefecture_kana":"キョウトフ","city":"京都市北区","city_kana":"キョウトシキタク","town":"小山下板倉町","town_kana":"コヤマシモイタクラチョウ","prefecture_code":26},"8132":{"zip_code":"6038132","prefecture":"京都府","prefecture_kana":"キョウトフ","city":"京都市北区","city_kana":"キョウトシキタク","town":"小山下内河原町","town_kana":"コヤマシモウチカワラチョウ","prefecture_code":26},"8173":{"zip_code":"6038173","prefecture":"京都府","prefecture_kana":"キョウトフ","city":"京都市北区","city_kana":"キョウトシキタク","town":"小山下初音町","town_kana":"コヤマシモハツネチョウ","prefecture_code":26},"8123":{"zip_code":"6038123","prefecture":"京都府","prefecture_kana":"キョウトフ","city":"京都市北区","city_kana":"キョウトシキタク","town":"小山下花ノ木町","town_kana":"コヤマシモハナノキチョウ","prefecture_code":26},"8151":{"zip_code":"6038151","prefecture":"京都府","prefecture_kana":"キョウトフ","city":"京都市北区","city_kana":"キョウトシキタク","town":"小山下総町","town_kana":"コヤマシモフサチョウ","prefecture_code":26},"8156":{"zip_code":"6038156","prefecture":"京都府","prefecture_kana":"キョウトフ","city":"京都市北区","city_kana":"キョウトシキタク","town":"小山中溝町","town_kana":"コヤマナカミゾチョウ","prefecture_code":26},"8167":{"zip_code":"6038167","prefecture":"京都府","prefecture_kana":"キョウトフ","city":"京都市北区","city_kana":"キョウトシキタク","town":"小山西大野町","town_kana":"コヤマニシオオノチョウ","prefecture_code":26},"8141":{"zip_code":"6038141","prefecture":"京都府","prefecture_kana":"キョウトフ","city":"京都市北区","city_kana":"キョウトシキタク","town":"小山西上総町","town_kana":"コヤマニシカミフサチョウ","prefecture_code":26},"8105":{"zip_code":"6038105","prefecture":"京都府","prefecture_kana":"キョウトフ","city":"京都市北区","city_kana":"キョウトシキタク","town":"小山西玄以町","town_kana":"コヤマニシゲンイチョウ","prefecture_code":26},"8148":{"zip_code":"6038148","prefecture":"京都府","prefecture_kana":"キョウトフ","city":"京都市北区","city_kana":"キョウトシキタク","town":"小山西花池町","town_kana":"コヤマニシハナイケチョウ","prefecture_code":26},"8113":{"zip_code":"6038113","prefecture":"京都府","prefecture_kana":"キョウトフ","city":"京都市北区","city_kana":"キョウトシキタク","town":"小山西元町","town_kana":"コヤマニシモトマチ","prefecture_code":26},"8172":{"zip_code":"6038172","prefecture":"京都府","prefecture_kana":"キョウトフ","city":"京都市北区","city_kana":"キョウトシキタク","town":"小山初音町","town_kana":"コヤマハツネチョウ","prefecture_code":26},"8122":{"zip_code":"6038122","prefecture":"京都府","prefecture_kana":"キョウトフ","city":"京都市北区","city_kana":"キョウトシキタク","town":"小山花ノ木町","town_kana":"コヤマハナノキチョウ","prefecture_code":26},"8162":{"zip_code":"6038162","prefecture":"京都府","prefecture_kana":"キョウトフ","city":"京都市北区","city_kana":"キョウトシキタク","town":"小山東大野町","town_kana":"コヤマヒガシオオノチョウ","prefecture_code":26},"8104":{"zip_code":"6038104","prefecture":"京都府","prefecture_kana":"キョウトフ","city":"京都市北区","city_kana":"キョウトシキタク","town":"小山東玄以町","town_kana":"コヤマヒガシゲンイチョウ","prefecture_code":26},"8144":{"zip_code":"6038144","prefecture":"京都府","prefecture_kana":"キョウトフ","city":"京都市北区","city_kana":"キョウトシキタク","town":"小山東花池町","town_kana":"コヤマヒガシハナイケチョウ","prefecture_code":26},"8111":{"zip_code":"6038111","prefecture":"京都府","prefecture_kana":"キョウトフ","city":"京都市北区","city_kana":"キョウトシキタク","town":"小山東元町","town_kana":"コヤマヒガシモトマチ","prefecture_code":26},"8145":{"zip_code":"6038145","prefecture":"京都府","prefecture_kana":"キョウトフ","city":"京都市北区","city_kana":"キョウトシキタク","town":"小山堀池町","town_kana":"コヤマホリイケチョウ","prefecture_code":26},"8163":{"zip_code":"6038163","prefecture":"京都府","prefecture_kana":"キョウトフ","city":"京都市北区","city_kana":"キョウトシキタク","town":"小山南大野町","town_kana":"コヤマミナミオオノチョウ","prefecture_code":26},"8149":{"zip_code":"6038149","prefecture":"京都府","prefecture_kana":"キョウトフ","city":"京都市北区","city_kana":"キョウトシキタク","town":"小山南上総町","town_kana":"コヤマミナミカミフサチョウ","prefecture_code":26},"8112":{"zip_code":"6038112","prefecture":"京都府","prefecture_kana":"キョウトフ","city":"京都市北区","city_kana":"キョウトシキタク","town":"小山元町","town_kana":"コヤマモトマチ","prefecture_code":26},"8152":{"zip_code":"6038152","prefecture":"京都府","prefecture_kana":"キョウトフ","city":"京都市北区","city_kana":"キョウトシキタク","town":"小山町","town_kana":"コヤマチョウ","prefecture_code":26},"8207":{"zip_code":"6038207","prefecture":"京都府","prefecture_kana":"キョウトフ","city":"京都市北区","city_kana":"キョウトシキタク","town":"紫竹牛若町","town_kana":"シチクウシワカチョウ","prefecture_code":26},"8179":{"zip_code":"6038179","prefecture":"京都府","prefecture_kana":"キョウトフ","city":"京都市北区","city_kana":"キョウトシキタク","town":"紫竹上梅ノ木町","town_kana":"シチクカミウメノキチョウ","prefecture_code":26},"8117":{"zip_code":"6038117","prefecture":"京都府","prefecture_kana":"キョウトフ","city":"京都市北区","city_kana":"キョウトシキタク","town":"紫竹上高才町","town_kana":"シチクカミコウサイチョウ","prefecture_code":26},"8423":{"zip_code":"6038423","prefecture":"京都府","prefecture_kana":"キョウトフ","city":"京都市北区","city_kana":"キョウトシキタク","town":"紫竹上芝本町","town_kana":"シチクカミシバモトチョウ","prefecture_code":26},"8421":{"zip_code":"6038421","prefecture":"京都府","prefecture_kana":"キョウトフ","city":"京都市北区","city_kana":"キョウトシキタク","town":"紫竹上園生町","town_kana":"シチクカミソノウチョウ","prefecture_code":26},"8411":{"zip_code":"6038411","prefecture":"京都府","prefecture_kana":"キョウトフ","city":"京都市北区","city_kana":"キョウトシキタク","town":"紫竹上竹殿町","town_kana":"シチクカミタケドノチョウ","prefecture_code":26},"8102":{"zip_code":"6038102","prefecture":"京都府","prefecture_kana":"キョウトフ","city":"京都市北区","city_kana":"キョウトシキタク","town":"紫竹上長目町","town_kana":"シチクカミナガメチョウ","prefecture_code":26},"8108":{"zip_code":"6038108","prefecture":"京都府","prefecture_kana":"キョウトフ","city":"京都市北区","city_kana":"キョウトシキタク","town":"紫竹上ノ岸町","town_kana":"シチクカミノキシチョウ","prefecture_code":26},"8101":{"zip_code":"6038101","prefecture":"京都府","prefecture_kana":"キョウトフ","city":"京都市北区","city_kana":"キョウトシキタク","town":"紫竹上堀川町","town_kana":"シチクカミホリカワチョウ","prefecture_code":26},"8116":{"zip_code":"6038116","prefecture":"京都府","prefecture_kana":"キョウトフ","city":"京都市北区","city_kana":"キョウトシキタク","town":"紫竹上本町","town_kana":"シチクカミホンマチ","prefecture_code":26},"8427":{"zip_code":"6038427","prefecture":"京都府","prefecture_kana":"キョウトフ","city":"京都市北区","city_kana":"キョウトシキタク","town":"紫竹上緑町","town_kana":"シチクカミミドリチョウ","prefecture_code":26},"8433":{"zip_code":"6038433","prefecture":"京都府","prefecture_kana":"キョウトフ","city":"京都市北区","city_kana":"キョウトシキタク","town":"紫竹北栗栖町","town_kana":"シチクキタクリスチョウ","prefecture_code":26},"8416":{"zip_code":"6038416","prefecture":"京都府","prefecture_kana":"キョウトフ","city":"京都市北区","city_kana":"キョウトシキタク","town":"紫竹北大門町","town_kana":"シチクキタダイモンチョウ","prefecture_code":26},"8435":{"zip_code":"6038435","prefecture":"京都府","prefecture_kana":"キョウトフ","city":"京都市北区","city_kana":"キョウトシキタク","town":"紫竹栗栖町","town_kana":"シチククリスチョウ","prefecture_code":26},"8178":{"zip_code":"6038178","prefecture":"京都府","prefecture_kana":"キョウトフ","city":"京都市北区","city_kana":"キョウトシキタク","town":"紫竹下梅ノ木町","town_kana":"シチクシモウメノキチョウ","prefecture_code":26},"8114":{"zip_code":"6038114","prefecture":"京都府","prefecture_kana":"キョウトフ","city":"京都市北区","city_kana":"キョウトシキタク","town":"紫竹下高才町","town_kana":"シチクシモコウサイチョウ","prefecture_code":26},"8424":{"zip_code":"6038424","prefecture":"京都府","prefecture_kana":"キョウトフ","city":"京都市北区","city_kana":"キョウトシキタク","town":"紫竹下芝本町","town_kana":"シチクシモシバモトチョウ","prefecture_code":26},"8422":{"zip_code":"6038422","prefecture":"京都府","prefecture_kana":"キョウトフ","city":"京都市北区","city_kana":"キョウトシキタク","town":"紫竹下園生町","town_kana":"シチクシモソノウチョウ","prefecture_code":26},"8412":{"zip_code":"6038412","prefecture":"京都府","prefecture_kana":"キョウトフ","city":"京都市北区","city_kana":"キョウトシキタク","town":"紫竹下竹殿町","town_kana":"シチクシモタケドノチョウ","prefecture_code":26},"8106":{"zip_code":"6038106","prefecture":"京都府","prefecture_kana":"キョウトフ","city":"京都市北区","city_kana":"キョウトシキタク","town":"紫竹下長目町","town_kana":"シチクシモナガメチョウ","prefecture_code":26},"8107":{"zip_code":"6038107","prefecture":"京都府","prefecture_kana":"キョウトフ","city":"京都市北区","city_kana":"キョウトシキタク","town":"紫竹下ノ岸町","town_kana":"シチクシモノキシチョウ","prefecture_code":26},"8115":{"zip_code":"6038115","prefecture":"京都府","prefecture_kana":"キョウトフ","city":"京都市北区","city_kana":"キョウトシキタク","town":"紫竹下本町","town_kana":"シチクシモホンマチ","prefecture_code":26},"8425":{"zip_code":"6038425","prefecture":"京都府","prefecture_kana":"キョウトフ","city":"京都市北区","city_kana":"キョウトシキタク","town":"紫竹下緑町","town_kana":"シチクシモミドリチョウ","prefecture_code":26},"8206":{"zip_code":"6038206","prefecture":"京都府","prefecture_kana":"キョウトフ","city":"京都市北区","city_kana":"キョウトシキタク","town":"紫竹西南町","town_kana":"シチクセイナンチョウ","prefecture_code":26},"8426":{"zip_code":"6038426","prefecture":"京都府","prefecture_kana":"キョウトフ","city":"京都市北区","city_kana":"キョウトシキタク","town":"紫竹西北町","town_kana":"シチクセイホクチョウ","prefecture_code":26},"8414":{"zip_code":"6038414","prefecture":"京都府","prefecture_kana":"キョウトフ","city":"京都市北区","city_kana":"キョウトシキタク","town":"紫竹大門町","town_kana":"シチクダイモンチョウ","prefecture_code":26},"8204":{"zip_code":"6038204","prefecture":"京都府","prefecture_kana":"キョウトフ","city":"京都市北区","city_kana":"キョウトシキタク","town":"紫竹高縄町","town_kana":"シチクタカナワチョウ","prefecture_code":26},"8417":{"zip_code":"6038417","prefecture":"京都府","prefecture_kana":"キョウトフ","city":"京都市北区","city_kana":"キョウトシキタク","town":"紫竹竹殿町","town_kana":"シチクタケドノチョウ","prefecture_code":26},"8436":{"zip_code":"6038436","prefecture":"京都府","prefecture_kana":"キョウトフ","city":"京都市北区","city_kana":"キョウトシキタク","town":"紫竹西栗栖町","town_kana":"シチクニシクリスチョウ","prefecture_code":26},"8415":{"zip_code":"6038415","prefecture":"京都府","prefecture_kana":"キョウトフ","city":"京都市北区","city_kana":"キョウトシキタク","town":"紫竹西大門町","town_kana":"シチクニシダイモンチョウ","prefecture_code":26},"8205":{"zip_code":"6038205","prefecture":"京都府","prefecture_kana":"キョウトフ","city":"京都市北区","city_kana":"キョウトシキタク","town":"紫竹西高縄町","town_kana":"シチクニシタカナワチョウ","prefecture_code":26},"8443":{"zip_code":"6038443","prefecture":"京都府","prefecture_kana":"キョウトフ","city":"京都市北区","city_kana":"キョウトシキタク","town":"紫竹西野山町","town_kana":"シチクニシノヤマチョウ","prefecture_code":26},"8442":{"zip_code":"6038442","prefecture":"京都府","prefecture_kana":"キョウトフ","city":"京都市北区","city_kana":"キョウトシキタク","town":"紫竹西野山東町","town_kana":"シチクニシノヤマヒガシマチ","prefecture_code":26},"8208":{"zip_code":"6038208","prefecture":"京都府","prefecture_kana":"キョウトフ","city":"京都市北区","city_kana":"キョウトシキタク","town":"紫竹西桃ノ本町","town_kana":"シチクニシモモノモトチョウ","prefecture_code":26},"8434":{"zip_code":"6038434","prefecture":"京都府","prefecture_kana":"キョウトフ","city":"京都市北区","city_kana":"キョウトシキタク","town":"紫竹東栗栖町","town_kana":"シチクヒガシクリスチョウ","prefecture_code":26},"8413":{"zip_code":"6038413","prefecture":"京都府","prefecture_kana":"キョウトフ","city":"京都市北区","city_kana":"キョウトシキタク","town":"紫竹東大門町","town_kana":"シチクヒガシダイモンチョウ","prefecture_code":26},"8203":{"zip_code":"6038203","prefecture":"京都府","prefecture_kana":"キョウトフ","city":"京都市北区","city_kana":"キョウトシキタク","town":"紫竹東高縄町","town_kana":"シチクヒガシタカナワチョウ","prefecture_code":26},"8202":{"zip_code":"6038202","prefecture":"京都府","prefecture_kana":"キョウトフ","city":"京都市北区","city_kana":"キョウトシキタク","town":"紫竹東桃ノ本町","town_kana":"シチクヒガシモモノモトチョウ","prefecture_code":26},"8201":{"zip_code":"6038201","prefecture":"京都府","prefecture_kana":"キョウトフ","city":"京都市北区","city_kana":"キョウトシキタク","town":"紫竹桃ノ本町","town_kana":"シチクモモノモトチョウ","prefecture_code":26},"8139":{"zip_code":"6038139","prefecture":"京都府","prefecture_kana":"キョウトフ","city":"京都市北区","city_kana":"キョウトシキタク","town":"上善寺門前町","town_kana":"ジョウゼンジモンゼンチョウ","prefecture_code":26},"8146":{"zip_code":"6038146","prefecture":"京都府","prefecture_kana":"キョウトフ","city":"京都市北区","city_kana":"キョウトシキタク","town":"新御霊口町","town_kana":"シンゴリョウグチチョウ","prefecture_code":26},"8336":{"zip_code":"6038336","prefecture":"京都府","prefecture_kana":"キョウトフ","city":"京都市北区","city_kana":"キョウトシキタク","town":"大将軍一条町","town_kana":"タイショウグンイチジョウチョウ","prefecture_code":26},"8332":{"zip_code":"6038332","prefecture":"京都府","prefecture_kana":"キョウトフ","city":"京都市北区","city_kana":"キョウトシキタク","town":"大将軍川端町","town_kana":"タイショウグンカワバタチョウ","prefecture_code":26},"8335":{"zip_code":"6038335","prefecture":"京都府","prefecture_kana":"キョウトフ","city":"京都市北区","city_kana":"キョウトシキタク","town":"大将軍坂田町","town_kana":"タイショウグンサカタチョウ","prefecture_code":26},"8334":{"zip_code":"6038334","prefecture":"京都府","prefecture_kana":"キョウトフ","city":"京都市北区","city_kana":"キョウトシキタク","town":"大将軍西鷹司町","town_kana":"タイショウグンニシタカツカサチョウ","prefecture_code":26},"8331":{"zip_code":"6038331","prefecture":"京都府","prefecture_kana":"キョウトフ","city":"京都市北区","city_kana":"キョウトシキタク","town":"大将軍西町","town_kana":"タイショウグンニシマチ","prefecture_code":26},"8333":{"zip_code":"6038333","prefecture":"京都府","prefecture_kana":"キョウトフ","city":"京都市北区","city_kana":"キョウトシキタク","town":"大将軍東鷹司町","town_kana":"タイショウグンヒガシタカツカサチョウ","prefecture_code":26},"8337":{"zip_code":"6038337","prefecture":"京都府","prefecture_kana":"キョウトフ","city":"京都市北区","city_kana":"キョウトシキタク","town":"大将軍南一条町","town_kana":"タイショウグンミナミイチジョウチョウ","prefecture_code":26},"8493":{"zip_code":"6038493","prefecture":"京都府","prefecture_kana":"キョウトフ","city":"京都市北区","city_kana":"キョウトシキタク","town":"鷹峯大谷町","town_kana":"タカガミネオオタニチョウ","prefecture_code":26},"8446":{"zip_code":"6038446","prefecture":"京都府","prefecture_kana":"キョウトフ","city":"京都市北区","city_kana":"キョウトシキタク","town":"鷹峯上ノ町","town_kana":"タカガミネカミノチョウ","prefecture_code":26},"8468":{"zip_code":"6038468","prefecture":"京都府","prefecture_kana":"キョウトフ","city":"京都市北区","city_kana":"キョウトシキタク","town":"鷹峯北鷹峯町","town_kana":"タカガミネキタタカガミネチョウ","prefecture_code":26},"8447":{"zip_code":"6038447","prefecture":"京都府","prefecture_kana":"キョウトフ","city":"京都市北区","city_kana":"キョウトシキタク","town":"鷹峯木ノ畑町","town_kana":"タカガミネキノハタチョウ","prefecture_code":26},"8448":{"zip_code":"6038448","prefecture":"京都府","prefecture_kana":"キョウトフ","city":"京都市北区","city_kana":"キョウトシキタク","town":"鷹峯旧土居町","town_kana":"タカガミネキュウドイチョウ","prefecture_code":26},"8464":{"zip_code":"6038464","prefecture":"京都府","prefecture_kana":"キョウトフ","city":"京都市北区","city_kana":"キョウトシキタク","town":"鷹峯黒門町","town_kana":"タカガミネクロモンチョウ","prefecture_code":26},"8466":{"zip_code":"6038466","prefecture":"京都府","prefecture_kana":"キョウトフ","city":"京都市北区","city_kana":"キョウトシキタク","town":"鷹峯光悦町","town_kana":"タカガミネコウエツチョウ","prefecture_code":26},"8469":{"zip_code":"6038469","prefecture":"京都府","prefecture_kana":"キョウトフ","city":"京都市北区","city_kana":"キョウトシキタク","town":"鷹峯千束町","town_kana":"タカガミネセンゾクチョウ","prefecture_code":26},"8465":{"zip_code":"6038465","prefecture":"京都府","prefecture_kana":"キョウトフ","city":"京都市北区","city_kana":"キョウトシキタク","town":"鷹峯土天井町","town_kana":"タカガミネツチテンジョウチョウ","prefecture_code":26},"8492":{"zip_code":"6038492","prefecture":"京都府","prefecture_kana":"キョウトフ","city":"京都市北区","city_kana":"キョウトシキタク","town":"鷹峯堂ノ庭町","town_kana":"タカガミネドウノニワチョウ","prefecture_code":26},"8445":{"zip_code":"6038445","prefecture":"京都府","prefecture_kana":"キョウトフ","city":"京都市北区","city_kana":"キョウトシキタク","town":"鷹峯藤林町","town_kana":"タカガミネフジバヤシチョウ","prefecture_code":26},"8491":{"zip_code":"6038491","prefecture":"京都府","prefecture_kana":"キョウトフ","city":"京都市北区","city_kana":"キョウトシキタク","town":"鷹峯仏谷","town_kana":"タカガミネホトケダニ","prefecture_code":26},"8494":{"zip_code":"6038494","prefecture":"京都府","prefecture_kana":"キョウトフ","city":"京都市北区","city_kana":"キョウトシキタク","town":"鷹峯堀越町","town_kana":"タカガミネホリコシチョウ","prefecture_code":26},"8467":{"zip_code":"6038467","prefecture":"京都府","prefecture_kana":"キョウトフ","city":"京都市北区","city_kana":"キョウトシキタク","town":"鷹峯南鷹峯町","town_kana":"タカガミネミナミタカガミネチョウ","prefecture_code":26},"8154":{"zip_code":"6038154","prefecture":"京都府","prefecture_kana":"キョウトフ","city":"京都市北区","city_kana":"キョウトシキタク","town":"長乗西町","town_kana":"チョウジョウニシマチ","prefecture_code":26},"8153":{"zip_code":"6038153","prefecture":"京都府","prefecture_kana":"キョウトフ","city":"京都市北区","city_kana":"キョウトシキタク","town":"長乗東町","town_kana":"チョウジョウヒガシマチ","prefecture_code":26},"8138":{"zip_code":"6038138","prefecture":"京都府","prefecture_kana":"キョウトフ","city":"京都市北区","city_kana":"キョウトシキタク","town":"天寧寺門前町","town_kana":"テンネイジモンゼンチョウ","prefecture_code":26},"8346":{"zip_code":"6038346","prefecture":"京都府","prefecture_kana":"キョウトフ","city":"京都市北区","city_kana":"キョウトシキタク","town":"等持院北町","town_kana":"トウジインキタマチ","prefecture_code":26},"8347":{"zip_code":"6038347","prefecture":"京都府","prefecture_kana":"キョウトフ","city":"京都市北区","city_kana":"キョウトシキタク","town":"等持院中町","town_kana":"トウジインナカマチ","prefecture_code":26},"8354":{"zip_code":"6038354","prefecture":"京都府","prefecture_kana":"キョウトフ","city":"京都市北区","city_kana":"キョウトシキタク","town":"等持院西町","town_kana":"トウジインニシマチ","prefecture_code":26},"8343":{"zip_code":"6038343","prefecture":"京都府","prefecture_kana":"キョウトフ","city":"京都市北区","city_kana":"キョウトシキタク","town":"等持院東町","town_kana":"トウジインヒガシマチ","prefecture_code":26},"8344":{"zip_code":"6038344","prefecture":"京都府","prefecture_kana":"キョウトフ","city":"京都市北区","city_kana":"キョウトシキタク","town":"等持院南町","town_kana":"トウジインミナミマチ","prefecture_code":26},"8804":{"zip_code":"6038804","prefecture":"京都府","prefecture_kana":"キョウトフ","city":"京都市北区","city_kana":"キョウトシキタク","town":"西賀茂井ノ口町","town_kana":"ニシガモイノクチチョウ","prefecture_code":26},"8842":{"zip_code":"6038842","prefecture":"京都府","prefecture_kana":"キョウトフ","city":"京都市北区","city_kana":"キョウトシキタク","town":"西賀茂今原町","town_kana":"ニシガモイマハラチョウ","prefecture_code":26},"8828":{"zip_code":"6038828","prefecture":"京都府","prefecture_kana":"キョウトフ","city":"京都市北区","city_kana":"キョウトシキタク","town":"西賀茂大栗町","town_kana":"ニシガモオオクリチョウ","prefecture_code":26},"8813":{"zip_code":"6038813","prefecture":"京都府","prefecture_kana":"キョウトフ","city":"京都市北区","city_kana":"キョウトシキタク","town":"西賀茂大道口町","town_kana":"ニシガモオオドグチチョウ","prefecture_code":26},"8844":{"zip_code":"6038844","prefecture":"京都府","prefecture_kana":"キョウトフ","city":"京都市北区","city_kana":"キョウトシキタク","town":"西賀茂大深町","town_kana":"ニシガモオオブケチョウ","prefecture_code":26},"8807":{"zip_code":"6038807","prefecture":"京都府","prefecture_kana":"キョウトフ","city":"京都市北区","city_kana":"キョウトシキタク","town":"西賀茂蛙ケ谷","town_kana":"ニシガモカエルガタニ","prefecture_code":26},"8821":{"zip_code":"6038821","prefecture":"京都府","prefecture_kana":"キョウトフ","city":"京都市北区","city_kana":"キョウトシキタク","town":"西賀茂柿ノ木町","town_kana":"ニシガモカキノキチョウ","prefecture_code":26},"8852":{"zip_code":"6038852","prefecture":"京都府","prefecture_kana":"キョウトフ","city":"京都市北区","city_kana":"キョウトシキタク","town":"西賀茂笠松","town_kana":"ニシガモカサマツ","prefecture_code":26},"8805":{"zip_code":"6038805","prefecture":"京都府","prefecture_kana":"キョウトフ","city":"京都市北区","city_kana":"キョウトシキタク","town":"西賀茂蟹ケ坂町","town_kana":"ニシガモカニガサカチョウ","prefecture_code":26},"8822":{"zip_code":"6038822","prefecture":"京都府","prefecture_kana":"キョウトフ","city":"京都市北区","city_kana":"キョウトシキタク","town":"西賀茂鹿ノ下町","town_kana":"ニシガモカノシタチョウ","prefecture_code":26},"8802":{"zip_code":"6038802","prefecture":"京都府","prefecture_kana":"キョウトフ","city":"京都市北区","city_kana":"キョウトシキタク","town":"西賀茂上庄田町","town_kana":"ニシガモカミショウダチョウ","prefecture_code":26},"8817":{"zip_code":"6038817","prefecture":"京都府","prefecture_kana":"キョウトフ","city":"京都市北区","city_kana":"キョウトシキタク","town":"西賀茂川上町","town_kana":"ニシガモカワカミチョウ","prefecture_code":26},"8841":{"zip_code":"6038841","prefecture":"京都府","prefecture_kana":"キョウトフ","city":"京都市北区","city_kana":"キョウトシキタク","town":"西賀茂北今原町","town_kana":"ニシガモキタイマハラチョウ","prefecture_code":26},"8816":{"zip_code":"6038816","prefecture":"京都府","prefecture_kana":"キョウトフ","city":"京都市北区","city_kana":"キョウトシキタク","town":"西賀茂北川上町","town_kana":"ニシガモキタカワカミチョウ","prefecture_code":26},"8847":{"zip_code":"6038847","prefecture":"京都府","prefecture_kana":"キョウトフ","city":"京都市北区","city_kana":"キョウトシキタク","town":"西賀茂北鎮守菴町","town_kana":"ニシガモキタチンジュアンチョウ","prefecture_code":26},"8811":{"zip_code":"6038811","prefecture":"京都府","prefecture_kana":"キョウトフ","city":"京都市北区","city_kana":"キョウトシキタク","town":"西賀茂北山ノ森町","town_kana":"ニシガモキタヤマノモリチョウ","prefecture_code":26},"8801":{"zip_code":"6038801","prefecture":"京都府","prefecture_kana":"キョウトフ","city":"京都市北区","city_kana":"キョウトシキタク","town":"西賀茂下庄田町","town_kana":"ニシガモシモショウダチョウ","prefecture_code":26},"8853":{"zip_code":"6038853","prefecture":"京都府","prefecture_kana":"キョウトフ","city":"京都市北区","city_kana":"キョウトシキタク","town":"西賀茂城山","town_kana":"ニシガモシロヤマ","prefecture_code":26},"8836":{"zip_code":"6038836","prefecture":"京都府","prefecture_kana":"キョウトフ","city":"京都市北区","city_kana":"キョウトシキタク","town":"西賀茂神光院町","town_kana":"ニシガモジンコウインチョウ","prefecture_code":26},"8845":{"zip_code":"6038845","prefecture":"京都府","prefecture_kana":"キョウトフ","city":"京都市北区","city_kana":"キョウトシキタク","town":"西賀茂角社町","town_kana":"ニシガモスミヤシロチョウ","prefecture_code":26},"8846":{"zip_code":"6038846","prefecture":"京都府","prefecture_kana":"キョウトフ","city":"京都市北区","city_kana":"キョウトシキタク","town":"西賀茂鎮守菴町","town_kana":"ニシガモチンジュアンチョウ","prefecture_code":26},"8815":{"zip_code":"6038815","prefecture":"京都府","prefecture_kana":"キョウトフ","city":"京都市北区","city_kana":"キョウトシキタク","town":"西賀茂中川上町","town_kana":"ニシガモナカカワカミチョウ","prefecture_code":26},"8854":{"zip_code":"6038854","prefecture":"京都府","prefecture_kana":"キョウトフ","city":"京都市北区","city_kana":"キョウトシキタク","town":"西賀茂西氷室町","town_kana":"ニシガモニシヒムロチョウ","prefecture_code":26},"8823":{"zip_code":"6038823","prefecture":"京都府","prefecture_kana":"キョウトフ","city":"京都市北区","city_kana":"キョウトシキタク","town":"西賀茂榿ノ木町","town_kana":"ニシガモハリノキチョウ","prefecture_code":26},"8803":{"zip_code":"6038803","prefecture":"京都府","prefecture_kana":"キョウトフ","city":"京都市北区","city_kana":"キョウトシキタク","town":"西賀茂樋ノ口町","town_kana":"ニシガモヒノクチチョウ","prefecture_code":26},"8855":{"zip_code":"6038855","prefecture":"京都府","prefecture_kana":"キョウトフ","city":"京都市北区","city_kana":"キョウトシキタク","town":"西賀茂氷室町","town_kana":"ニシガモヒムロチョウ","prefecture_code":26},"8848":{"zip_code":"6038848","prefecture":"京都府","prefecture_kana":"キョウトフ","city":"京都市北区","city_kana":"キョウトシキタク","town":"西賀茂船山","town_kana":"ニシガモフネヤマ","prefecture_code":26},"8826":{"zip_code":"6038826","prefecture":"京都府","prefecture_kana":"キョウトフ","city":"京都市北区","city_kana":"キョウトシキタク","town":"西賀茂坊ノ後町","town_kana":"ニシガモボウノウシロチョウ","prefecture_code":26},"8856":{"zip_code":"6038856","prefecture":"京都府","prefecture_kana":"キョウトフ","city":"京都市北区","city_kana":"キョウトシキタク","town":"西賀茂蓬来谷","town_kana":"ニシガモホウライダニ","prefecture_code":26},"8825":{"zip_code":"6038825","prefecture":"京都府","prefecture_kana":"キョウトフ","city":"京都市北区","city_kana":"キョウトシキタク","town":"西賀茂丸川町","town_kana":"ニシガモマルカワチョウ","prefecture_code":26},"8806":{"zip_code":"6038806","prefecture":"京都府","prefecture_kana":"キョウトフ","city":"京都市北区","city_kana":"キョウトシキタク","town":"西賀茂円峰","town_kana":"ニシガモマルミネ","prefecture_code":26},"8827":{"zip_code":"6038827","prefecture":"京都府","prefecture_kana":"キョウトフ","city":"京都市北区","city_kana":"キョウトシキタク","town":"西賀茂水垣町","town_kana":"ニシガモミズガキチョウ","prefecture_code":26},"8843":{"zip_code":"6038843","prefecture":"京都府","prefecture_kana":"キョウトフ","city":"京都市北区","city_kana":"キョウトシキタク","town":"西賀茂南今原町","town_kana":"ニシガモミナミイマハラチョウ","prefecture_code":26},"8824":{"zip_code":"6038824","prefecture":"京都府","prefecture_kana":"キョウトフ","city":"京都市北区","city_kana":"キョウトシキタク","town":"西賀茂南大栗町","town_kana":"ニシガモミナミオオクリチョウ","prefecture_code":26},"8814":{"zip_code":"6038814","prefecture":"京都府","prefecture_kana":"キョウトフ","city":"京都市北区","city_kana":"キョウトシキタク","town":"西賀茂南川上町","town_kana":"ニシガモミナミカワカミチョウ","prefecture_code":26},"8812":{"zip_code":"6038812","prefecture":"京都府","prefecture_kana":"キョウトフ","city":"京都市北区","city_kana":"キョウトシキタク","town":"西賀茂山ノ森町","town_kana":"ニシガモヤマノモリチョウ","prefecture_code":26},"8851":{"zip_code":"6038851","prefecture":"京都府","prefecture_kana":"キョウトフ","city":"京都市北区","city_kana":"キョウトシキタク","town":"西賀茂鑓磨岩","town_kana":"ニシガモヤリトギイワ","prefecture_code":26},"8353":{"zip_code":"6038353","prefecture":"京都府","prefecture_kana":"キョウトフ","city":"京都市北区","city_kana":"キョウトシキタク","town":"平野上八丁柳町","town_kana":"ヒラノカミハッチョウヤナギチョウ","prefecture_code":26},"8355":{"zip_code":"6038355","prefecture":"京都府","prefecture_kana":"キョウトフ","city":"京都市北区","city_kana":"キョウトシキタク","town":"平野上柳町","town_kana":"ヒラノカミヤナギチョウ","prefecture_code":26},"8364":{"zip_code":"6038364","prefecture":"京都府","prefecture_kana":"キョウトフ","city":"京都市北区","city_kana":"キョウトシキタク","town":"平野桜木町","town_kana":"ヒラノサクラギチョウ","prefecture_code":26},"8321":{"zip_code":"6038321","prefecture":"京都府","prefecture_kana":"キョウトフ","city":"京都市北区","city_kana":"キョウトシキタク","town":"平野鳥居前町","town_kana":"ヒラノトリイマエチョウ","prefecture_code":26},"8345":{"zip_code":"6038345","prefecture":"京都府","prefecture_kana":"キョウトフ","city":"京都市北区","city_kana":"キョウトシキタク","town":"平野八丁柳町","town_kana":"ヒラノハッチョウヤナギチョウ","prefecture_code":26},"8356":{"zip_code":"6038356","prefecture":"京都府","prefecture_kana":"キョウトフ","city":"京都市北区","city_kana":"キョウトシキタク","town":"平野東柳町","town_kana":"ヒラノヒガシヤナギチョウ","prefecture_code":26},"8352":{"zip_code":"6038352","prefecture":"京都府","prefecture_kana":"キョウトフ","city":"京都市北区","city_kana":"キョウトシキタク","town":"平野宮北町","town_kana":"ヒラノミヤキタチョウ","prefecture_code":26},"8365":{"zip_code":"6038365","prefecture":"京都府","prefecture_kana":"キョウトフ","city":"京都市北区","city_kana":"キョウトシキタク","town":"平野宮敷町","town_kana":"ヒラノミヤジキチョウ","prefecture_code":26},"8357":{"zip_code":"6038357","prefecture":"京都府","prefecture_kana":"キョウトフ","city":"京都市北区","city_kana":"キョウトシキタク","town":"平野宮西町","town_kana":"ヒラノミヤニシチョウ","prefecture_code":26},"8322":{"zip_code":"6038322","prefecture":"京都府","prefecture_kana":"キョウトフ","city":"京都市北区","city_kana":"キョウトシキタク","town":"平野宮本町","town_kana":"ヒラノミヤモトチョウ","prefecture_code":26},"8243":{"zip_code":"6038243","prefecture":"京都府","prefecture_kana":"キョウトフ","city":"京都市北区","city_kana":"キョウトシキタク","town":"紫野今宮町","town_kana":"ムラサキノイマミヤチョウ","prefecture_code":26},"8242":{"zip_code":"6038242","prefecture":"京都府","prefecture_kana":"キョウトフ","city":"京都市北区","city_kana":"キョウトシキタク","town":"紫野上野町","town_kana":"ムラサキノウエノチョウ","prefecture_code":26},"8214":{"zip_code":"6038214","prefecture":"京都府","prefecture_kana":"キョウトフ","city":"京都市北区","city_kana":"キョウトシキタク","town":"紫野雲林院町","town_kana":"ムラサキノウンリンインチョウ","prefecture_code":26},"8311":{"zip_code":"6038311","prefecture":"京都府","prefecture_kana":"キョウトフ","city":"京都市北区","city_kana":"キョウトシキタク","town":"紫野上柏野町","town_kana":"ムラサキノカミカシワノチョウ","prefecture_code":26},"8166":{"zip_code":"6038166","prefecture":"京都府","prefecture_kana":"キョウトフ","city":"京都市北区","city_kana":"キョウトシキタク","town":"紫野上御所田町","town_kana":"ムラサキノカミゴショデンチョウ","prefecture_code":26},"8211":{"zip_code":"6038211","prefecture":"京都府","prefecture_kana":"キョウトフ","city":"京都市北区","city_kana":"キョウトシキタク","town":"紫野上石龍町","town_kana":"ムラサキノカミセキリュウチョウ","prefecture_code":26},"8221":{"zip_code":"6038221","prefecture":"京都府","prefecture_kana":"キョウトフ","city":"京都市北区","city_kana":"キョウトシキタク","town":"紫野上築山町","town_kana":"ムラサキノカミツキヤマチョウ","prefecture_code":26},"8176":{"zip_code":"6038176","prefecture":"京都府","prefecture_kana":"キョウトフ","city":"京都市北区","city_kana":"キョウトシキタク","town":"紫野上鳥田町","town_kana":"ムラサキノカミトリダチョウ","prefecture_code":26},"8236":{"zip_code":"6038236","prefecture":"京都府","prefecture_kana":"キョウトフ","city":"京都市北区","city_kana":"キョウトシキタク","town":"紫野上御輿町","town_kana":"ムラサキノカミミコシチョウ","prefecture_code":26},"8217":{"zip_code":"6038217","prefecture":"京都府","prefecture_kana":"キョウトフ","city":"京都市北区","city_kana":"キョウトシキタク","town":"紫野上門前町","town_kana":"ムラサキノカミモンゼンチョウ","prefecture_code":26},"8177":{"zip_code":"6038177","prefecture":"京都府","prefecture_kana":"キョウトフ","city":"京都市北区","city_kana":"キョウトシキタク","town":"紫野上柳町","town_kana":"ムラサキノカミヤナギチョウ","prefecture_code":26},"8237":{"zip_code":"6038237","prefecture":"京都府","prefecture_kana":"キョウトフ","city":"京都市北区","city_kana":"キョウトシキタク","town":"紫野上若草町","town_kana":"ムラサキノカミワカクサチョウ","prefecture_code":26},"8301":{"zip_code":"6038301","prefecture":"京都府","prefecture_kana":"キョウトフ","city":"京都市北区","city_kana":"キョウトシキタク","town":"紫野北花ノ坊町","town_kana":"ムラサキノキタハナノボウチョウ","prefecture_code":26},"8227":{"zip_code":"6038227","prefecture":"京都府","prefecture_kana":"キョウトフ","city":"京都市北区","city_kana":"キョウトシキタク","town":"紫野北舟岡町","town_kana":"ムラサキノキタフナオカチョウ","prefecture_code":26},"8304":{"zip_code":"6038304","prefecture":"京都府","prefecture_kana":"キョウトフ","city":"京都市北区","city_kana":"キョウトシキタク","town":"紫野郷ノ上町","town_kana":"ムラサキノゴウノウエチョウ","prefecture_code":26},"8313":{"zip_code":"6038313","prefecture":"京都府","prefecture_kana":"キョウトフ","city":"京都市北区","city_kana":"キョウトシキタク","town":"紫野下柏野町","town_kana":"ムラサキノシモカシワノチョウ","prefecture_code":26},"8213":{"zip_code":"6038213","prefecture":"京都府","prefecture_kana":"キョウトフ","city":"京都市北区","city_kana":"キョウトシキタク","town":"紫野下石龍町","town_kana":"ムラサキノシモセキリュウチョウ","prefecture_code":26},"8222":{"zip_code":"6038222","prefecture":"京都府","prefecture_kana":"キョウトフ","city":"京都市北区","city_kana":"キョウトシキタク","town":"紫野下築山町","town_kana":"ムラサキノシモツキヤマチョウ","prefecture_code":26},"8175":{"zip_code":"6038175","prefecture":"京都府","prefecture_kana":"キョウトフ","city":"京都市北区","city_kana":"キョウトシキタク","town":"紫野下鳥田町","town_kana":"ムラサキノシモトリダチョウ","prefecture_code":26},"8235":{"zip_code":"6038235","prefecture":"京都府","prefecture_kana":"キョウトフ","city":"京都市北区","city_kana":"キョウトシキタク","town":"紫野下御輿町","town_kana":"ムラサキノシモミコシチョウ","prefecture_code":26},"8215":{"zip_code":"6038215","prefecture":"京都府","prefecture_kana":"キョウトフ","city":"京都市北区","city_kana":"キョウトシキタク","town":"紫野下門前町","town_kana":"ムラサキノシモモンゼンチョウ","prefecture_code":26},"8174":{"zip_code":"6038174","prefecture":"京都府","prefecture_kana":"キョウトフ","city":"京都市北区","city_kana":"キョウトシキタク","town":"紫野下柳町","town_kana":"ムラサキノシモヤナギチョウ","prefecture_code":26},"8234":{"zip_code":"6038234","prefecture":"京都府","prefecture_kana":"キョウトフ","city":"京都市北区","city_kana":"キョウトシキタク","town":"紫野下若草町","town_kana":"ムラサキノシモワカクサチョウ","prefecture_code":26},"8303":{"zip_code":"6038303","prefecture":"京都府","prefecture_kana":"キョウトフ","city":"京都市北区","city_kana":"キョウトシキタク","town":"紫野十二坊町","town_kana":"ムラサキノジュウニボウチョウ","prefecture_code":26},"8212":{"zip_code":"6038212","prefecture":"京都府","prefecture_kana":"キョウトフ","city":"京都市北区","city_kana":"キョウトシキタク","town":"紫野石龍町","town_kana":"ムラサキノセキリュウチョウ","prefecture_code":26},"8247":{"zip_code":"6038247","prefecture":"京都府","prefecture_kana":"キョウトフ","city":"京都市北区","city_kana":"キョウトシキタク","town":"紫野泉堂町","town_kana":"ムラサキノセンドウチョウ","prefecture_code":26},"8231":{"zip_code":"6038231","prefecture":"京都府","prefecture_kana":"キョウトフ","city":"京都市北区","city_kana":"キョウトシキタク","town":"紫野大徳寺町","town_kana":"ムラサキノダイトクジチョウ","prefecture_code":26},"8312":{"zip_code":"6038312","prefecture":"京都府","prefecture_kana":"キョウトフ","city":"京都市北区","city_kana":"キョウトシキタク","town":"紫野中柏野町","town_kana":"ムラサキノナカカシワノチョウ","prefecture_code":26},"8165":{"zip_code":"6038165","prefecture":"京都府","prefecture_kana":"キョウトフ","city":"京都市北区","city_kana":"キョウトシキタク","town":"紫野西御所田町","town_kana":"ムラサキノニシゴショデンチョウ","prefecture_code":26},"8246":{"zip_code":"6038246","prefecture":"京都府","prefecture_kana":"キョウトフ","city":"京都市北区","city_kana":"キョウトシキタク","town":"紫野西泉堂町","town_kana":"ムラサキノニシセンドウチョウ","prefecture_code":26},"8314":{"zip_code":"6038314","prefecture":"京都府","prefecture_kana":"キョウトフ","city":"京都市北区","city_kana":"キョウトシキタク","town":"紫野西土居町","town_kana":"ムラサキノニシドイチョウ","prefecture_code":26},"8233":{"zip_code":"6038233","prefecture":"京都府","prefecture_kana":"キョウトフ","city":"京都市北区","city_kana":"キョウトシキタク","town":"紫野西野町","town_kana":"ムラサキノニシノチョウ","prefecture_code":26},"8224":{"zip_code":"6038224","prefecture":"京都府","prefecture_kana":"キョウトフ","city":"京都市北区","city_kana":"キョウトシキタク","town":"紫野西藤ノ森町","town_kana":"ムラサキノニシフジノモリチョウ","prefecture_code":26},"8226":{"zip_code":"6038226","prefecture":"京都府","prefecture_kana":"キョウトフ","city":"京都市北区","city_kana":"キョウトシキタク","town":"紫野西舟岡町","town_kana":"ムラサキノニシフナオカチョウ","prefecture_code":26},"8245":{"zip_code":"6038245","prefecture":"京都府","prefecture_kana":"キョウトフ","city":"京都市北区","city_kana":"キョウトシキタク","town":"紫野西蓮台野町","town_kana":"ムラサキノニシレンダイノチョウ","prefecture_code":26},"8302":{"zip_code":"6038302","prefecture":"京都府","prefecture_kana":"キョウトフ","city":"京都市北区","city_kana":"キョウトシキタク","town":"紫野花ノ坊町","town_kana":"ムラサキノハナノボウチョウ","prefecture_code":26},"8164":{"zip_code":"6038164","prefecture":"京都府","prefecture_kana":"キョウトフ","city":"京都市北区","city_kana":"キョウトシキタク","town":"紫野東御所田町","town_kana":"ムラサキノヒガシゴショデンチョウ","prefecture_code":26},"8241":{"zip_code":"6038241","prefecture":"京都府","prefecture_kana":"キョウトフ","city":"京都市北区","city_kana":"キョウトシキタク","town":"紫野東泉堂町","town_kana":"ムラサキノヒガシセンドウチョウ","prefecture_code":26},"8232":{"zip_code":"6038232","prefecture":"京都府","prefecture_kana":"キョウトフ","city":"京都市北区","city_kana":"キョウトシキタク","town":"紫野東野町","town_kana":"ムラサキノヒガシノチョウ","prefecture_code":26},"8223":{"zip_code":"6038223","prefecture":"京都府","prefecture_kana":"キョウトフ","city":"京都市北区","city_kana":"キョウトシキタク","town":"紫野東藤ノ森町","town_kana":"ムラサキノヒガシフジノモリチョウ","prefecture_code":26},"8228":{"zip_code":"6038228","prefecture":"京都府","prefecture_kana":"キョウトフ","city":"京都市北区","city_kana":"キョウトシキタク","town":"紫野東舟岡町","town_kana":"ムラサキノヒガシフナオカチョウ","prefecture_code":26},"8244":{"zip_code":"6038244","prefecture":"京都府","prefecture_kana":"キョウトフ","city":"京都市北区","city_kana":"キョウトシキタク","town":"紫野東蓮台野町","town_kana":"ムラサキノヒガシレンダイノチョウ","prefecture_code":26},"8305":{"zip_code":"6038305","prefecture":"京都府","prefecture_kana":"キョウトフ","city":"京都市北区","city_kana":"キョウトシキタク","town":"紫野南花ノ坊町","town_kana":"ムラサキノミナミハナノボウチョウ","prefecture_code":26},"8225":{"zip_code":"6038225","prefecture":"京都府","prefecture_kana":"キョウトフ","city":"京都市北区","city_kana":"キョウトシキタク","town":"紫野南舟岡町","town_kana":"ムラサキノミナミフナオカチョウ","prefecture_code":26},"8158":{"zip_code":"6038158","prefecture":"京都府","prefecture_kana":"キョウトフ","city":"京都市北区","city_kana":"キョウトシキタク","town":"紫野宮西町","town_kana":"ムラサキノミヤニシチョウ","prefecture_code":26},"8157":{"zip_code":"6038157","prefecture":"京都府","prefecture_kana":"キョウトフ","city":"京都市北区","city_kana":"キョウトシキタク","town":"紫野宮東町","town_kana":"ムラサキノミヤヒガシチョウ","prefecture_code":26},"8216":{"zip_code":"6038216","prefecture":"京都府","prefecture_kana":"キョウトフ","city":"京都市北区","city_kana":"キョウトシキタク","town":"紫野門前町","town_kana":"ムラサキノモンゼンチョウ","prefecture_code":26}}