{"0000":{"zip_code":"6040000","prefecture":"京都府","prefecture_kana":"キョウトフ","city":"京都市中京区","city_kana":"キョウトシナカギョウク","town":"","town_kana":"","prefecture_code":26},"0004":{"zip_code":"6040004","prefecture":"京都府","prefecture_kana":"キョウトフ","city":"京都市中京区","city_kana":"キョウトシナカギョウク","town":"相生町","town_kana":"アイオイチョウ","prefecture_code":26},"0847":{"zip_code":"6040847","prefecture":"京都府","prefecture_kana":"キョウトフ","city":"京都市中京区","city_kana":"キョウトシナカギョウク","town":"秋野々町","town_kana":"アキノノチョウ","prefecture_code":26},"8074":{"zip_code":"6048074","prefecture":"京都府","prefecture_kana":"キョウトフ","city":"京都市中京区","city_kana":"キョウトシナカギョウク","town":"朝倉町","town_kana":"アサクラチョウ","prefecture_code":26},"8324":{"zip_code":"6048324","prefecture":"京都府","prefecture_kana":"キョウトフ","city":"京都市中京区","city_kana":"キョウトシナカギョウク","town":"姉猪熊町","town_kana":"アネイノクマチョウ","prefecture_code":26},"8326":{"zip_code":"6048326","prefecture":"京都府","prefecture_kana":"キョウトフ","city":"京都市中京区","city_kana":"キョウトシナカギョウク","town":"姉大宮町東側","town_kana":"アネオオミヤチョウヒガシガワ","prefecture_code":26},"8327":{"zip_code":"6048327","prefecture":"京都府","prefecture_kana":"キョウトフ","city":"京都市中京区","city_kana":"キョウトシナカギョウク","town":"姉大宮町西側","town_kana":"アネオオミヤチョウニシガワ","prefecture_code":26},"8092":{"zip_code":"6048092","prefecture":"京都府","prefecture_kana":"キョウトフ","city":"京都市中京区","city_kana":"キョウトシナカギョウク","town":"姉大東町","town_kana":"アネダイトウチョウ","prefecture_code":26},"8372":{"zip_code":"6048372","prefecture":"京都府","prefecture_kana":"キョウトフ","city":"京都市中京区","city_kana":"キョウトシナカギョウク","town":"姉西町","town_kana":"アネニシチョウ","prefecture_code":26},"8273":{"zip_code":"6048273","prefecture":"京都府","prefecture_kana":"キョウトフ","city":"京都市中京区","city_kana":"キョウトシナカギョウク","town":"姉西洞院町","town_kana":"アネニシノトウインチョウ","prefecture_code":26},"8264":{"zip_code":"6048264","prefecture":"京都府","prefecture_kana":"キョウトフ","city":"京都市中京区","city_kana":"キョウトシナカギョウク","town":"姉西堀川町","town_kana":"アネニシホリカワチョウ","prefecture_code":26},"8263":{"zip_code":"6048263","prefecture":"京都府","prefecture_kana":"キョウトフ","city":"京都市中京区","city_kana":"キョウトシナカギョウク","town":"姉東堀川町","town_kana":"アネヒガシホリカワチョウ","prefecture_code":26},"8063":[{"zip_code":"6048063","prefecture":"京都府","prefecture_kana":"キョウトフ","city":"京都市中京区","city_kana":"キョウトシナカギョウク","town":"油屋町蛸薬師通麸屋町西入","town_kana":"アブラヤチョウ","prefecture_code":26},{"zip_code":"6048063","prefecture":"京都府","prefecture_kana":"キョウトフ","city":"京都市中京区","city_kana":"キョウトシナカギョウク","town":"油屋町蛸薬師通富小路東入","town_kana":"アブラヤチョウ","prefecture_code":26},{"zip_code":"6048063","prefecture":"京都府","prefecture_kana":"キョウトフ","city":"京都市中京区","city_kana":"キョウトシナカギョウク","town":"油屋町蛸薬師通富小路西入","town_kana":"アブラヤチョウ","prefecture_code":26},{"zip_code":"6048063","prefecture":"京都府","prefecture_kana":"キョウトフ","city":"京都市中京区","city_kana":"キョウトシナカギョウク","town":"油屋町蛸薬師通柳馬場東入","town_kana":"アブラヤチョウ","prefecture_code":26},{"zip_code":"6048063","prefecture":"京都府","prefecture_kana":"キョウトフ","city":"京都市中京区","city_kana":"キョウトシナカギョウク","town":"油屋町富小路通蛸薬師上る","town_kana":"アブラヤチョウ","prefecture_code":26},{"zip_code":"6048063","prefecture":"京都府","prefecture_kana":"キョウトフ","city":"京都市中京区","city_kana":"キョウトシナカギョウク","town":"油屋町富小路通蛸薬師下る","town_kana":"アブラヤチョウ","prefecture_code":26}],"8103":[{"zip_code":"6048103","prefecture":"京都府","prefecture_kana":"キョウトフ","city":"京都市中京区","city_kana":"キョウトシナカギョウク","town":"油屋町柳馬場通姉小路下る","town_kana":"アブラヤチョウ","prefecture_code":26},{"zip_code":"6048103","prefecture":"京都府","prefecture_kana":"キョウトフ","city":"京都市中京区","city_kana":"キョウトシナカギョウク","town":"油屋町柳馬場通三条上る","town_kana":"アブラヤチョウ","prefecture_code":26},{"zip_code":"6048103","prefecture":"京都府","prefecture_kana":"キョウトフ","city":"京都市中京区","city_kana":"キョウトシナカギョウク","town":"油屋町姉小路通柳馬場東入","town_kana":"アブラヤチョウ","prefecture_code":26},{"zip_code":"6048103","prefecture":"京都府","prefecture_kana":"キョウトフ","city":"京都市中京区","city_kana":"キョウトシナカギョウク","town":"油屋町姉小路通柳馬場西入","town_kana":"アブラヤチョウ","prefecture_code":26}],"8216":{"zip_code":"6048216","prefecture":"京都府","prefecture_kana":"キョウトフ","city":"京都市中京区","city_kana":"キョウトシナカギョウク","town":"池須町","town_kana":"イケスチョウ","prefecture_code":26},"8302":{"zip_code":"6048302","prefecture":"京都府","prefecture_kana":"キョウトフ","city":"京都市中京区","city_kana":"キョウトシナカギョウク","town":"池元町","town_kana":"イケモトチョウ","prefecture_code":26},"0043":[{"zip_code":"6040043","prefecture":"京都府","prefecture_kana":"キョウトフ","city":"京都市中京区","city_kana":"キョウトシナカギョウク","town":"石橋町御池通小川西入","town_kana":"イシバシチョウ","prefecture_code":26},{"zip_code":"6040043","prefecture":"京都府","prefecture_kana":"キョウトフ","city":"京都市中京区","city_kana":"キョウトシナカギョウク","town":"石橋町御池通小川東入","town_kana":"イシバシチョウ","prefecture_code":26},{"zip_code":"6040043","prefecture":"京都府","prefecture_kana":"キョウトフ","city":"京都市中京区","city_kana":"キョウトシナカギョウク","town":"石橋町御池通西洞院西入","town_kana":"イシバシチョウ","prefecture_code":26},{"zip_code":"6040043","prefecture":"京都府","prefecture_kana":"キョウトフ","city":"京都市中京区","city_kana":"キョウトシナカギョウク","town":"石橋町御池通油小路東入","town_kana":"イシバシチョウ","prefecture_code":26},{"zip_code":"6040043","prefecture":"京都府","prefecture_kana":"キョウトフ","city":"京都市中京区","city_kana":"キョウトシナカギョウク","town":"石橋町小川通御池下る","town_kana":"イシバシチョウ","prefecture_code":26}],"8036":[{"zip_code":"6048036","prefecture":"京都府","prefecture_kana":"キョウトフ","city":"京都市中京区","city_kana":"キョウトシナカギョウク","town":"石橋町三条通河原町西入","town_kana":"イシバシチョウ","prefecture_code":26},{"zip_code":"6048036","prefecture":"京都府","prefecture_kana":"キョウトフ","city":"京都市中京区","city_kana":"キョウトシナカギョウク","town":"石橋町三条通寺町東入","town_kana":"イシバシチョウ","prefecture_code":26},{"zip_code":"6048036","prefecture":"京都府","prefecture_kana":"キョウトフ","city":"京都市中京区","city_kana":"キョウトシナカギョウク","town":"石橋町三条通新京極西入","town_kana":"イシバシチョウ","prefecture_code":26},{"zip_code":"6048036","prefecture":"京都府","prefecture_kana":"キョウトフ","city":"京都市中京区","city_kana":"キョウトシナカギョウク","town":"石橋町三条通新京極東入","town_kana":"イシバシチョウ","prefecture_code":26},{"zip_code":"6048036","prefecture":"京都府","prefecture_kana":"キョウトフ","city":"京都市中京区","city_kana":"キョウトシナカギョウク","town":"石橋町寺町通三条下る","town_kana":"イシバシチョウ","prefecture_code":26},{"zip_code":"6048036","prefecture":"京都府","prefecture_kana":"キョウトフ","city":"京都市中京区","city_kana":"キョウトシナカギョウク","town":"石橋町寺町通三条上る","town_kana":"イシバシチョウ","prefecture_code":26}],"0996":[{"zip_code":"6040996","prefecture":"京都府","prefecture_kana":"キョウトフ","city":"京都市中京区","city_kana":"キョウトシナカギョウク","town":"石屋町丸太町通寺町西入","town_kana":"イシヤチョウマルタマチドオリテラマチニシイル","prefecture_code":26},{"zip_code":"6040996","prefecture":"京都府","prefecture_kana":"キョウトフ","city":"京都市中京区","city_kana":"キョウトシナカギョウク","town":"石屋町丸太町通御幸町東入","town_kana":"イシヤチョウマルタマチドオリゴコマチヒガシイル","prefecture_code":26}],"8002":[{"zip_code":"6048002","prefecture":"京都府","prefecture_kana":"キョウトフ","city":"京都市中京区","city_kana":"キョウトシナカギョウク","town":"石屋町木屋町通三条下る","town_kana":"イシヤチョウキヤマチドオリサンジョウサガル","prefecture_code":26},{"zip_code":"6048002","prefecture":"京都府","prefecture_kana":"キョウトフ","city":"京都市中京区","city_kana":"キョウトシナカギョウク","town":"石屋町先斗町通三条下る","town_kana":"イシヤチョウポントチョウドオリサンジョウサガル","prefecture_code":26},{"zip_code":"6048002","prefecture":"京都府","prefecture_kana":"キョウトフ","city":"京都市中京区","city_kana":"キョウトシナカギョウク","town":"石屋町木屋町通四条上る","town_kana":"イシヤチョウキヤマチドオリシジョウアガル","prefecture_code":26}],"0015":{"zip_code":"6040015","prefecture":"京都府","prefecture_kana":"キョウトフ","city":"京都市中京区","city_kana":"キョウトシナカギョウク","town":"泉町","town_kana":"イズミチョウ","prefecture_code":26},"8066":{"zip_code":"6048066","prefecture":"京都府","prefecture_kana":"キョウトフ","city":"京都市中京区","city_kana":"キョウトシナカギョウク","town":"伊勢屋町","town_kana":"イセヤチョウ","prefecture_code":26},"8305":{"zip_code":"6048305","prefecture":"京都府","prefecture_kana":"キョウトフ","city":"京都市中京区","city_kana":"キョウトシナカギョウク","town":"市之町","town_kana":"イチノチョウ","prefecture_code":26},"0924":{"zip_code":"6040924","prefecture":"京都府","prefecture_kana":"キョウトフ","city":"京都市中京区","city_kana":"キョウトシナカギョウク","town":"一之船入町","town_kana":"イチノフナイリチョウ","prefecture_code":26},"8146":{"zip_code":"6048146","prefecture":"京都府","prefecture_kana":"キョウトフ","city":"京都市中京区","city_kana":"キョウトシナカギョウク","town":"一蓮社町","town_kana":"イチレンシャチョウ","prefecture_code":26},"8113":{"zip_code":"6048113","prefecture":"京都府","prefecture_kana":"キョウトフ","city":"京都市中京区","city_kana":"キョウトシナカギョウク","town":"井筒屋町","town_kana":"イヅツヤチョウ","prefecture_code":26},"8803":{"zip_code":"6048803","prefecture":"京都府","prefecture_kana":"キョウトフ","city":"京都市中京区","city_kana":"キョウトシナカギョウク","town":"因幡町","town_kana":"イナバチョウ","prefecture_code":26},"8802":{"zip_code":"6048802","prefecture":"京都府","prefecture_kana":"キョウトフ","city":"京都市中京区","city_kana":"キョウトシナカギョウク","town":"今新在家東町","town_kana":"イマシンザイケヒガシチョウ","prefecture_code":26},"8801":{"zip_code":"6048801","prefecture":"京都府","prefecture_kana":"キョウトフ","city":"京都市中京区","city_kana":"キョウトシナカギョウク","town":"今新在家西町","town_kana":"イマシンザイケニシチョウ","prefecture_code":26},"8341":{"zip_code":"6048341","prefecture":"京都府","prefecture_kana":"キョウトフ","city":"京都市中京区","city_kana":"キョウトシナカギョウク","town":"岩上町","town_kana":"イワガミチョウ","prefecture_code":26},"0984":{"zip_code":"6040984","prefecture":"京都府","prefecture_kana":"キョウトフ","city":"京都市中京区","city_kana":"キョウトシナカギョウク","town":"魚屋町","town_kana":"ウオヤチョウ","prefecture_code":26},"8213":{"zip_code":"6048213","prefecture":"京都府","prefecture_kana":"キョウトフ","city":"京都市中京区","city_kana":"キョウトシナカギョウク","town":"姥柳町","town_kana":"ウバヤナギチョウ","prefecture_code":26},"8136":{"zip_code":"6048136","prefecture":"京都府","prefecture_kana":"キョウトフ","city":"京都市中京区","city_kana":"キョウトシナカギョウク","town":"梅忠町","town_kana":"ウメタダチョウ","prefecture_code":26},"0905":[{"zip_code":"6040905","prefecture":"京都府","prefecture_kana":"キョウトフ","city":"京都市中京区","city_kana":"キョウトシナカギョウク","town":"梅之木町新烏丸通竹屋町上る","town_kana":"ウメノキチョウ","prefecture_code":26},{"zip_code":"6040905","prefecture":"京都府","prefecture_kana":"キョウトフ","city":"京都市中京区","city_kana":"キョウトシナカギョウク","town":"梅之木町新烏丸通竹屋町下る","town_kana":"ウメノキチョウ","prefecture_code":26},{"zip_code":"6040905","prefecture":"京都府","prefecture_kana":"キョウトフ","city":"京都市中京区","city_kana":"キョウトシナカギョウク","town":"梅之木町新烏丸通夷川上る","town_kana":"ウメノキチョウ","prefecture_code":26},{"zip_code":"6040905","prefecture":"京都府","prefecture_kana":"キョウトフ","city":"京都市中京区","city_kana":"キョウトシナカギョウク","town":"梅之木町夷川通新烏丸東入","town_kana":"ウメノキチョウ","prefecture_code":26},{"zip_code":"6040905","prefecture":"京都府","prefecture_kana":"キョウトフ","city":"京都市中京区","city_kana":"キョウトシナカギョウク","town":"梅之木町夷川通新椹木町西入","town_kana":"ウメノキチョウ","prefecture_code":26},{"zip_code":"6040905","prefecture":"京都府","prefecture_kana":"キョウトフ","city":"京都市中京区","city_kana":"キョウトシナカギョウク","town":"梅之木町竹屋町通新烏丸東入","town_kana":"ウメノキチョウ","prefecture_code":26},{"zip_code":"6040905","prefecture":"京都府","prefecture_kana":"キョウトフ","city":"京都市中京区","city_kana":"キョウトシナカギョウク","town":"梅之木町竹屋町通椹木町西入","town_kana":"ウメノキチョウ","prefecture_code":26},{"zip_code":"6040905","prefecture":"京都府","prefecture_kana":"キョウトフ","city":"京都市中京区","city_kana":"キョウトシナカギョウク","town":"梅之木町新烏丸通御霊図子下る","town_kana":"ウメノキチョウ","prefecture_code":26}],"8012":[{"zip_code":"6048012","prefecture":"京都府","prefecture_kana":"キョウトフ","city":"京都市中京区","city_kana":"キョウトシナカギョウク","town":"梅之木町先斗町通三条下る","town_kana":"ウメノキチョウ","prefecture_code":26},{"zip_code":"6048012","prefecture":"京都府","prefecture_kana":"キョウトフ","city":"京都市中京区","city_kana":"キョウトシナカギョウク","town":"梅之木町先斗町通蛸薬師上る","town_kana":"ウメノキチョウ","prefecture_code":26},{"zip_code":"6048012","prefecture":"京都府","prefecture_kana":"キョウトフ","city":"京都市中京区","city_kana":"キョウトシナカギョウク","town":"梅之木町先斗町通蛸薬師下る","town_kana":"ウメノキチョウ","prefecture_code":26},{"zip_code":"6048012","prefecture":"京都府","prefecture_kana":"キョウトフ","city":"京都市中京区","city_kana":"キョウトシナカギョウク","town":"梅之木町先斗町通四条上る","town_kana":"ウメノキチョウ","prefecture_code":26}],"0091":[{"zip_code":"6040091","prefecture":"京都府","prefecture_kana":"キョウトフ","city":"京都市中京区","city_kana":"キョウトシナカギョウク","town":"梅屋町丸太町通釜座西入","town_kana":"ウメヤチョウ","prefecture_code":26},{"zip_code":"6040091","prefecture":"京都府","prefecture_kana":"キョウトフ","city":"京都市中京区","city_kana":"キョウトシナカギョウク","town":"梅屋町丸太町通釜座東入","town_kana":"ウメヤチョウ","prefecture_code":26},{"zip_code":"6040091","prefecture":"京都府","prefecture_kana":"キョウトフ","city":"京都市中京区","city_kana":"キョウトシナカギョウク","town":"梅屋町丸太町通新町西入","town_kana":"ウメヤチョウ","prefecture_code":26},{"zip_code":"6040091","prefecture":"京都府","prefecture_kana":"キョウトフ","city":"京都市中京区","city_kana":"キョウトシナカギョウク","town":"梅屋町丸太町通西洞院東入","town_kana":"ウメヤチョウ","prefecture_code":26},{"zip_code":"6040091","prefecture":"京都府","prefecture_kana":"キョウトフ","city":"京都市中京区","city_kana":"キョウトシナカギョウク","town":"梅屋町釜座通丸太町上る","town_kana":"ウメヤチョウ","prefecture_code":26}],"8057":[{"zip_code":"6048057","prefecture":"京都府","prefecture_kana":"キョウトフ","city":"京都市中京区","city_kana":"キョウトシナカギョウク","town":"梅屋町麸屋町通錦小路上る","town_kana":"ウメヤチョウフヤチョウドオリニシキコウジアガル","prefecture_code":26},{"zip_code":"6048057","prefecture":"京都府","prefecture_kana":"キョウトフ","city":"京都市中京区","city_kana":"キョウトシナカギョウク","town":"梅屋町麸屋町通蛸薬師下る","town_kana":"ウメヤチョウフヤチョウドオリタコヤクシサガル","prefecture_code":26}],"8186":[{"zip_code":"6048186","prefecture":"京都府","prefecture_kana":"キョウトフ","city":"京都市中京区","city_kana":"キョウトシナカギョウク","town":"梅屋町御池通烏丸東入","town_kana":"ウメヤチョウオイケドオリカラスマヒガシイル","prefecture_code":26},{"zip_code":"6048186","prefecture":"京都府","prefecture_kana":"キョウトフ","city":"京都市中京区","city_kana":"キョウトシナカギョウク","town":"梅屋町御池通東洞院西入","town_kana":"ウメヤチョウオイケドオリヒガシノトウインニシイル","prefecture_code":26}],"8155":{"zip_code":"6048155","prefecture":"京都府","prefecture_kana":"キョウトフ","city":"京都市中京区","city_kana":"キョウトシナカギョウク","town":"占出山町","town_kana":"ウラデヤマチョウ","prefecture_code":26},"8041":{"zip_code":"6048041","prefecture":"京都府","prefecture_kana":"キョウトフ","city":"京都市中京区","city_kana":"キョウトシナカギョウク","town":"裏寺町","town_kana":"ウラデラチョウ","prefecture_code":26},"8071":{"zip_code":"6048071","prefecture":"京都府","prefecture_kana":"キョウトフ","city":"京都市中京区","city_kana":"キョウトシナカギョウク","town":"永楽町","town_kana":"エイラクチョウ","prefecture_code":26},"8256":{"zip_code":"6048256","prefecture":"京都府","prefecture_kana":"キョウトフ","city":"京都市中京区","city_kana":"キョウトシナカギョウク","town":"越後町","town_kana":"エチゴチョウ","prefecture_code":26},"8252":{"zip_code":"6048252","prefecture":"京都府","prefecture_kana":"キョウトフ","city":"京都市中京区","city_kana":"キョウトシナカギョウク","town":"越後突抜町","town_kana":"エチゴツキヌケチョウ","prefecture_code":26},"0931":{"zip_code":"6040931","prefecture":"京都府","prefecture_kana":"キョウトフ","city":"京都市中京区","city_kana":"キョウトシナカギョウク","town":"榎木町","town_kana":"エノキチョウ","prefecture_code":26},"8005":{"zip_code":"6048005","prefecture":"京都府","prefecture_kana":"キョウトフ","city":"京都市中京区","city_kana":"キョウトシナカギョウク","town":"恵比須町","town_kana":"エビスチョウ","prefecture_code":26},"0813":{"zip_code":"6040813","prefecture":"京都府","prefecture_kana":"キョウトフ","city":"京都市中京区","city_kana":"キョウトシナカギョウク","town":"夷町","town_kana":"エビスチョウ","prefecture_code":26},"8076":{"zip_code":"6048076","prefecture":"京都府","prefecture_kana":"キョウトフ","city":"京都市中京区","city_kana":"キョウトシナカギョウク","town":"海老屋町","town_kana":"エビヤチョウ","prefecture_code":26},"8165":{"zip_code":"6048165","prefecture":"京都府","prefecture_kana":"キョウトフ","city":"京都市中京区","city_kana":"キョウトシナカギョウク","town":"烏帽子屋町","town_kana":"エボウシヤチョウ","prefecture_code":26},"8174":{"zip_code":"6048174","prefecture":"京都府","prefecture_kana":"キョウトフ","city":"京都市中京区","city_kana":"キョウトシナカギョウク","town":"役行者町","town_kana":"エンノギョウジャチョウ","prefecture_code":26},"8175":{"zip_code":"6048175","prefecture":"京都府","prefecture_kana":"キョウトフ","city":"京都市中京区","city_kana":"キョウトシナカギョウク","town":"円福寺町","town_kana":"エンプクジチョウ","prefecture_code":26},"8045":{"zip_code":"6048045","prefecture":"京都府","prefecture_kana":"キョウトフ","city":"京都市中京区","city_kana":"キョウトシナカギョウク","town":"円福寺前町","town_kana":"エンプクジマエチョウ","prefecture_code":26},"0942":{"zip_code":"6040942","prefecture":"京都府","prefecture_kana":"キョウトフ","city":"京都市中京区","city_kana":"キョウトシナカギョウク","town":"御池大東町","town_kana":"オイケダイトウチョウ","prefecture_code":26},"0022":{"zip_code":"6040022","prefecture":"京都府","prefecture_kana":"キョウトフ","city":"京都市中京区","city_kana":"キョウトシナカギョウク","town":"御池之町","town_kana":"オイケノチョウ","prefecture_code":26},"0824":{"zip_code":"6040824","prefecture":"京都府","prefecture_kana":"キョウトフ","city":"京都市中京区","city_kana":"キョウトシナカギョウク","town":"扇屋町","town_kana":"オウギヤチョウ","prefecture_code":26},"0092":[{"zip_code":"6040092","prefecture":"京都府","prefecture_kana":"キョウトフ","city":"京都市中京区","city_kana":"キョウトシナカギョウク","town":"大炊町新町通丸太町下る","town_kana":"オオイチョウ","prefecture_code":26},{"zip_code":"6040092","prefecture":"京都府","prefecture_kana":"キョウトフ","city":"京都市中京区","city_kana":"キョウトシナカギョウク","town":"大炊町新町通竹屋町上る","town_kana":"オオイチョウ","prefecture_code":26},{"zip_code":"6040092","prefecture":"京都府","prefecture_kana":"キョウトフ","city":"京都市中京区","city_kana":"キョウトシナカギョウク","town":"大炊町丸太町通新町西入","town_kana":"オオイチョウ","prefecture_code":26},{"zip_code":"6040092","prefecture":"京都府","prefecture_kana":"キョウトフ","city":"京都市中京区","city_kana":"キョウトシナカギョウク","town":"大炊町丸太町通新町東入","town_kana":"オオイチョウ","prefecture_code":26},{"zip_code":"6040092","prefecture":"京都府","prefecture_kana":"キョウトフ","city":"京都市中京区","city_kana":"キョウトシナカギョウク","town":"大炊町竹屋町通新町西入","town_kana":"オオイチョウ","prefecture_code":26},{"zip_code":"6040092","prefecture":"京都府","prefecture_kana":"キョウトフ","city":"京都市中京区","city_kana":"キョウトシナカギョウク","town":"大炊町竹屋町通新町東入","town_kana":"オオイチョウ","prefecture_code":26}],"0972":[{"zip_code":"6040972","prefecture":"京都府","prefecture_kana":"キョウトフ","city":"京都市中京区","city_kana":"キョウトシナカギョウク","town":"大炊町富小路通竹屋町下る","town_kana":"オオイチョウ","prefecture_code":26},{"zip_code":"6040972","prefecture":"京都府","prefecture_kana":"キョウトフ","city":"京都市中京区","city_kana":"キョウトシナカギョウク","town":"大炊町富小路通夷川上る","town_kana":"オオイチョウ","prefecture_code":26},{"zip_code":"6040972","prefecture":"京都府","prefecture_kana":"キョウトフ","city":"京都市中京区","city_kana":"キョウトシナカギョウク","town":"大炊町竹屋町通富小路西入","town_kana":"オオイチョウ","prefecture_code":26},{"zip_code":"6040972","prefecture":"京都府","prefecture_kana":"キョウトフ","city":"京都市中京区","city_kana":"キョウトシナカギョウク","town":"大炊町竹屋町通富小路東入","town_kana":"オオイチョウ","prefecture_code":26},{"zip_code":"6040972","prefecture":"京都府","prefecture_kana":"キョウトフ","city":"京都市中京区","city_kana":"キョウトシナカギョウク","town":"大炊町夷川通富小路西入","town_kana":"オオイチョウ","prefecture_code":26},{"zip_code":"6040972","prefecture":"京都府","prefecture_kana":"キョウトフ","city":"京都市中京区","city_kana":"キョウトシナカギョウク","town":"大炊町夷川通富小路東入","town_kana":"オオイチョウ","prefecture_code":26}],"0861":{"zip_code":"6040861","prefecture":"京都府","prefecture_kana":"キョウトフ","city":"京都市中京区","city_kana":"キョウトシナカギョウク","town":"大倉町","town_kana":"オオクラチョウ","prefecture_code":26},"8182":{"zip_code":"6048182","prefecture":"京都府","prefecture_kana":"キョウトフ","city":"京都市中京区","city_kana":"キョウトシナカギョウク","town":"大阪材木町","town_kana":"オオサカザイモクチョウ","prefecture_code":26},"0885":{"zip_code":"6040885","prefecture":"京都府","prefecture_kana":"キョウトフ","city":"京都市中京区","city_kana":"キョウトシナカギョウク","town":"大津町","town_kana":"オオツチョウ","prefecture_code":26},"0052":{"zip_code":"6040052","prefecture":"京都府","prefecture_kana":"キョウトフ","city":"京都市中京区","city_kana":"キョウトシナカギョウク","town":"押油小路町","town_kana":"オシアブラノコウジチョウ","prefecture_code":26},"0042":{"zip_code":"6040042","prefecture":"京都府","prefecture_kana":"キョウトフ","city":"京都市中京区","city_kana":"キョウトシナカギョウク","town":"押西洞院町","town_kana":"オシニシノトウインチョウ","prefecture_code":26},"0054":{"zip_code":"6040054","prefecture":"京都府","prefecture_kana":"キョウトフ","city":"京都市中京区","city_kana":"キョウトシナカギョウク","town":"押堀町","town_kana":"オシボリチョウ","prefecture_code":26},"8124":{"zip_code":"6048124","prefecture":"京都府","prefecture_kana":"キョウトフ","city":"京都市中京区","city_kana":"キョウトシナカギョウク","town":"帯屋町","town_kana":"オビヤチョウ","prefecture_code":26},"8304":{"zip_code":"6048304","prefecture":"京都府","prefecture_kana":"キョウトフ","city":"京都市中京区","city_kana":"キョウトシナカギョウク","town":"織物屋町","town_kana":"オリモノヤチョウ","prefecture_code":26},"0934":{"zip_code":"6040934","prefecture":"京都府","prefecture_kana":"キョウトフ","city":"京都市中京区","city_kana":"キョウトシナカギョウク","town":"尾張町","town_kana":"オワリチョウ","prefecture_code":26},"8331":{"zip_code":"6048331","prefecture":"京都府","prefecture_kana":"キョウトフ","city":"京都市中京区","city_kana":"キョウトシナカギョウク","town":"御供町","town_kana":"オントモチョウ","prefecture_code":26},"8126":{"zip_code":"6048126","prefecture":"京都府","prefecture_kana":"キョウトフ","city":"京都市中京区","city_kana":"キョウトシナカギョウク","town":"貝屋町","town_kana":"カイヤチョウ","prefecture_code":26},"0002":{"zip_code":"6040002","prefecture":"京都府","prefecture_kana":"キョウトフ","city":"京都市中京区","city_kana":"キョウトシナカギョウク","town":"鏡屋町","town_kana":"カガミヤチョウ","prefecture_code":26},"8173":{"zip_code":"6048173","prefecture":"京都府","prefecture_kana":"キョウトフ","city":"京都市中京区","city_kana":"キョウトシナカギョウク","town":"柿本町","town_kana":"カキモトチョウ","prefecture_code":26},"0801":[{"zip_code":"6040801","prefecture":"京都府","prefecture_kana":"キョウトフ","city":"京都市中京区","city_kana":"キョウトシナカギョウク","town":"鍵屋町丸太町通堺町東入","town_kana":"カギヤチョウ","prefecture_code":26},{"zip_code":"6040801","prefecture":"京都府","prefecture_kana":"キョウトフ","city":"京都市中京区","city_kana":"キョウトシナカギョウク","town":"鍵屋町丸太町通堺町西入","town_kana":"カギヤチョウ","prefecture_code":26},{"zip_code":"6040801","prefecture":"京都府","prefecture_kana":"キョウトフ","city":"京都市中京区","city_kana":"キョウトシナカギョウク","town":"鍵屋町丸太町通柳馬場東入","town_kana":"カギヤチョウ","prefecture_code":26},{"zip_code":"6040801","prefecture":"京都府","prefecture_kana":"キョウトフ","city":"京都市中京区","city_kana":"キョウトシナカギョウク","town":"鍵屋町丸太町通高倉東入","town_kana":"カギヤチョウ","prefecture_code":26}],"0832":[{"zip_code":"6040832","prefecture":"京都府","prefecture_kana":"キョウトフ","city":"京都市中京区","city_kana":"キョウトシナカギョウク","town":"鍵屋町間之町通二条下る","town_kana":"カギヤチョウアイノマチドオリ2ジョウサガル","prefecture_code":26},{"zip_code":"6040832","prefecture":"京都府","prefecture_kana":"キョウトフ","city":"京都市中京区","city_kana":"キョウトシナカギョウク","town":"鍵屋町間之町通押小路上る","town_kana":"カギヤチョウアイノマチドオリオシコウジアガル","prefecture_code":26}],"8267":{"zip_code":"6048267","prefecture":"京都府","prefecture_kana":"キョウトフ","city":"京都市中京区","city_kana":"キョウトシナカギョウク","town":"鍛冶町","town_kana":"カジチョウ","prefecture_code":26},"0964":[{"zip_code":"6040964","prefecture":"京都府","prefecture_kana":"キョウトフ","city":"京都市中京区","city_kana":"キョウトシナカギョウク","town":"鍛冶屋町富小路通夷川下る","town_kana":"カジヤチョウ","prefecture_code":26},{"zip_code":"6040964","prefecture":"京都府","prefecture_kana":"キョウトフ","city":"京都市中京区","city_kana":"キョウトシナカギョウク","town":"鍛冶屋町富小路通二条上る","town_kana":"カジヤチョウ","prefecture_code":26},{"zip_code":"6040964","prefecture":"京都府","prefecture_kana":"キョウトフ","city":"京都市中京区","city_kana":"キョウトシナカギョウク","town":"鍛冶屋町夷川通富小路西入","town_kana":"カジヤチョウ","prefecture_code":26},{"zip_code":"6040964","prefecture":"京都府","prefecture_kana":"キョウトフ","city":"京都市中京区","city_kana":"キョウトシナカギョウク","town":"鍛冶屋町夷川通富小路東入","town_kana":"カジヤチョウ","prefecture_code":26}],"8052":[{"zip_code":"6048052","prefecture":"京都府","prefecture_kana":"キョウトフ","city":"京都市中京区","city_kana":"キョウトシナカギョウク","town":"鍛冶屋町錦小路通御幸町西入","town_kana":"カジヤチョウニシキコウジドオリコゴマチニシイル","prefecture_code":26},{"zip_code":"6048052","prefecture":"京都府","prefecture_kana":"キョウトフ","city":"京都市中京区","city_kana":"キョウトシナカギョウク","town":"鍛冶屋町錦小路通麸屋町東入","town_kana":"カジヤチョウニシキコウジドオリフヤチョウヒガシイル","prefecture_code":26}],"8345":[{"zip_code":"6048345","prefecture":"京都府","prefecture_kana":"キョウトフ","city":"京都市中京区","city_kana":"キョウトシナカギョウク","town":"鍛冶屋町六角通猪熊西入","town_kana":"カジヤチョウ","prefecture_code":26},{"zip_code":"6048345","prefecture":"京都府","prefecture_kana":"キョウトフ","city":"京都市中京区","city_kana":"キョウトシナカギョウク","town":"鍛冶屋町六角通黒門東入","town_kana":"カジヤチョウ","prefecture_code":26},{"zip_code":"6048345","prefecture":"京都府","prefecture_kana":"キョウトフ","city":"京都市中京区","city_kana":"キョウトシナカギョウク","town":"鍛冶屋町六角通黒門西入","town_kana":"カジヤチョウ","prefecture_code":26},{"zip_code":"6048345","prefecture":"京都府","prefecture_kana":"キョウトフ","city":"京都市中京区","city_kana":"キョウトシナカギョウク","town":"鍛冶屋町六角通大宮東入","town_kana":"カジヤチョウ","prefecture_code":26}],"0031":{"zip_code":"6040031","prefecture":"京都府","prefecture_kana":"キョウトフ","city":"京都市中京区","city_kana":"キョウトシナカギョウク","town":"頭町","town_kana":"カシラチョウ","prefecture_code":26},"8014":{"zip_code":"6048014","prefecture":"京都府","prefecture_kana":"キョウトフ","city":"京都市中京区","city_kana":"キョウトシナカギョウク","town":"柏屋町","town_kana":"カシワヤチョウ","prefecture_code":26},"8352":{"zip_code":"6048352","prefecture":"京都府","prefecture_kana":"キョウトフ","city":"京都市中京区","city_kana":"キョウトシナカギョウク","town":"金屋町","town_kana":"カナヤチョウ","prefecture_code":26},"8114":{"zip_code":"6048114","prefecture":"京都府","prefecture_kana":"キョウトフ","city":"京都市中京区","city_kana":"キョウトシナカギョウク","town":"甲屋町","town_kana":"カブトヤチョウ","prefecture_code":26},"8241":{"zip_code":"6048241","prefecture":"京都府","prefecture_kana":"キョウトフ","city":"京都市中京区","city_kana":"キョウトシナカギョウク","town":"釜座町","town_kana":"カマンザチョウ","prefecture_code":26},"8325":{"zip_code":"6048325","prefecture":"京都府","prefecture_kana":"キョウトフ","city":"京都市中京区","city_kana":"キョウトシナカギョウク","town":"上一文字町","town_kana":"カミイチモンジチョウ","prefecture_code":26},"8001":{"zip_code":"6048001","prefecture":"京都府","prefecture_kana":"キョウトフ","city":"京都市中京区","city_kana":"キョウトシナカギョウク","town":"上大阪町","town_kana":"カミオオサカチョウ","prefecture_code":26},"8374":{"zip_code":"6048374","prefecture":"京都府","prefecture_kana":"キョウトフ","city":"京都市中京区","city_kana":"キョウトシナカギョウク","town":"上瓦町","town_kana":"カミカワラチョウ","prefecture_code":26},"8343":{"zip_code":"6048343","prefecture":"京都府","prefecture_kana":"キョウトフ","city":"京都市中京区","city_kana":"キョウトシナカギョウク","town":"上黒門町","town_kana":"カミクロモンチョウ","prefecture_code":26},"0923":{"zip_code":"6040923","prefecture":"京都府","prefecture_kana":"キョウトフ","city":"京都市中京区","city_kana":"キョウトシナカギョウク","town":"上樵木町","town_kana":"カミコリキチョウ","prefecture_code":26},"8312":{"zip_code":"6048312","prefecture":"京都府","prefecture_kana":"キョウトフ","city":"京都市中京区","city_kana":"キョウトシナカギョウク","town":"上巴町","town_kana":"カミトモエチョウ","prefecture_code":26},"0943":{"zip_code":"6040943","prefecture":"京都府","prefecture_kana":"キョウトフ","city":"京都市中京区","city_kana":"キョウトシナカギョウク","town":"上白山町","town_kana":"カミハクサンチョウ","prefecture_code":26},"8323":{"zip_code":"6048323","prefecture":"京都府","prefecture_kana":"キョウトフ","city":"京都市中京区","city_kana":"キョウトシナカギョウク","town":"上八文字町","town_kana":"カミハチモンジチョウ","prefecture_code":26},"0925":{"zip_code":"6040925","prefecture":"京都府","prefecture_kana":"キョウトフ","city":"京都市中京区","city_kana":"キョウトシナカギョウク","town":"上本能寺前町","town_kana":"カミホンノウジマエチョウ","prefecture_code":26},"0035":{"zip_code":"6040035","prefecture":"京都府","prefecture_kana":"キョウトフ","city":"京都市中京区","city_kana":"キョウトシナカギョウク","town":"上松屋町","town_kana":"カミマツヤチョウ","prefecture_code":26},"0025":{"zip_code":"6040025","prefecture":"京都府","prefecture_kana":"キョウトフ","city":"京都市中京区","city_kana":"キョウトシナカギョウク","town":"上妙覚寺町","town_kana":"カミミョウカクジチョウ","prefecture_code":26},"8024":{"zip_code":"6048024","prefecture":"京都府","prefecture_kana":"キョウトフ","city":"京都市中京区","city_kana":"キョウトシナカギョウク","town":"紙屋町","town_kana":"カミヤチョウ","prefecture_code":26},"0094":[{"zip_code":"6040094","prefecture":"京都府","prefecture_kana":"キョウトフ","city":"京都市中京区","city_kana":"キョウトシナカギョウク","town":"亀屋町釜座通竹屋町下る","town_kana":"カメヤチョウ","prefecture_code":26},{"zip_code":"6040094","prefecture":"京都府","prefecture_kana":"キョウトフ","city":"京都市中京区","city_kana":"キョウトシナカギョウク","town":"亀屋町釜座通夷川上る","town_kana":"カメヤチョウ","prefecture_code":26},{"zip_code":"6040094","prefecture":"京都府","prefecture_kana":"キョウトフ","city":"京都市中京区","city_kana":"キョウトシナカギョウク","town":"亀屋町夷川通釜座西入","town_kana":"カメヤチョウ","prefecture_code":26},{"zip_code":"6040094","prefecture":"京都府","prefecture_kana":"キョウトフ","city":"京都市中京区","city_kana":"キョウトシナカギョウク","town":"亀屋町夷川通釜座東入","town_kana":"カメヤチョウ","prefecture_code":26},{"zip_code":"6040094","prefecture":"京都府","prefecture_kana":"キョウトフ","city":"京都市中京区","city_kana":"キョウトシナカギョウク","town":"亀屋町夷川通西洞院東入","town_kana":"カメヤチョウ","prefecture_code":26},{"zip_code":"6040094","prefecture":"京都府","prefecture_kana":"キョウトフ","city":"京都市中京区","city_kana":"キョウトシナカギョウク","town":"亀屋町夷川通新町西入","town_kana":"カメヤチョウ","prefecture_code":26}],"0865":[{"zip_code":"6040865","prefecture":"京都府","prefecture_kana":"キョウトフ","city":"京都市中京区","city_kana":"キョウトシナカギョウク","town":"亀屋町竹屋町通烏丸西入","town_kana":"カメヤチョウ","prefecture_code":26},{"zip_code":"6040865","prefecture":"京都府","prefecture_kana":"キョウトフ","city":"京都市中京区","city_kana":"キョウトシナカギョウク","town":"亀屋町竹屋町通両替町東入","town_kana":"カメヤチョウ","prefecture_code":26},{"zip_code":"6040865","prefecture":"京都府","prefecture_kana":"キョウトフ","city":"京都市中京区","city_kana":"キョウトシナカギョウク","town":"亀屋町竹屋町通両替町西入","town_kana":"カメヤチョウ","prefecture_code":26},{"zip_code":"6040865","prefecture":"京都府","prefecture_kana":"キョウトフ","city":"京都市中京区","city_kana":"キョウトシナカギョウク","town":"亀屋町竹屋町通室町東入","town_kana":"カメヤチョウ","prefecture_code":26},{"zip_code":"6040865","prefecture":"京都府","prefecture_kana":"キョウトフ","city":"京都市中京区","city_kana":"キョウトシナカギョウク","town":"亀屋町両替町通室町下る","town_kana":"カメヤチョウ","prefecture_code":26}],"0811":[{"zip_code":"6040811","prefecture":"京都府","prefecture_kana":"キョウトフ","city":"京都市中京区","city_kana":"キョウトシナカギョウク","town":"亀屋町堺町通夷川下る","town_kana":"カメヤチョウ","prefecture_code":26},{"zip_code":"6040811","prefecture":"京都府","prefecture_kana":"キョウトフ","city":"京都市中京区","city_kana":"キョウトシナカギョウク","town":"亀屋町堺町通二条上る","town_kana":"カメヤチョウ","prefecture_code":26},{"zip_code":"6040811","prefecture":"京都府","prefecture_kana":"キョウトフ","city":"京都市中京区","city_kana":"キョウトシナカギョウク","town":"亀屋町夷川通堺町西入","town_kana":"カメヤチョウ","prefecture_code":26},{"zip_code":"6040811","prefecture":"京都府","prefecture_kana":"キョウトフ","city":"京都市中京区","city_kana":"キョウトシナカギョウク","town":"亀屋町夷川通堺町東入","town_kana":"カメヤチョウ","prefecture_code":26}],"0941":[{"zip_code":"6040941","prefecture":"京都府","prefecture_kana":"キョウトフ","city":"京都市中京区","city_kana":"キョウトシナカギョウク","town":"亀屋町御幸町通御池上る","town_kana":"カメヤチョウ","prefecture_code":26},{"zip_code":"6040941","prefecture":"京都府","prefecture_kana":"キョウトフ","city":"京都市中京区","city_kana":"キョウトシナカギョウク","town":"亀屋町御幸町通押小路下る","town_kana":"カメヤチョウ","prefecture_code":26},{"zip_code":"6040941","prefecture":"京都府","prefecture_kana":"キョウトフ","city":"京都市中京区","city_kana":"キョウトシナカギョウク","town":"亀屋町御幸町通押小路西入","town_kana":"カメヤチョウ","prefecture_code":26},{"zip_code":"6040941","prefecture":"京都府","prefecture_kana":"キョウトフ","city":"京都市中京区","city_kana":"キョウトシナカギョウク","town":"亀屋町御幸町通押小路東入","town_kana":"カメヤチョウ","prefecture_code":26},{"zip_code":"6040941","prefecture":"京都府","prefecture_kana":"キョウトフ","city":"京都市中京区","city_kana":"キョウトシナカギョウク","town":"亀屋町押小路通寺町西入","town_kana":"カメヤチョウ","prefecture_code":26},{"zip_code":"6040941","prefecture":"京都府","prefecture_kana":"キョウトフ","city":"京都市中京区","city_kana":"キョウトシナカギョウク","town":"亀屋町御池通御幸町西入","town_kana":"カメヤチョウ","prefecture_code":26},{"zip_code":"6040941","prefecture":"京都府","prefecture_kana":"キョウトフ","city":"京都市中京区","city_kana":"キョウトシナカギョウク","town":"亀屋町御池通御幸町東入","town_kana":"カメヤチョウ","prefecture_code":26}],"8253":[{"zip_code":"6048253","prefecture":"京都府","prefecture_kana":"キョウトフ","city":"京都市中京区","city_kana":"キョウトシナカギョウク","town":"亀屋町蛸薬師通堀川東入","town_kana":"カメヤチョウタコヤクシドオリホリカワヒガシイル","prefecture_code":26},{"zip_code":"6048253","prefecture":"京都府","prefecture_kana":"キョウトフ","city":"京都市中京区","city_kana":"キョウトシナカギョウク","town":"亀屋町堀川通蛸薬師下る","town_kana":"カメヤチョウホリカワドオリタコヤクシサガル","prefecture_code":26},{"zip_code":"6048253","prefecture":"京都府","prefecture_kana":"キョウトフ","city":"京都市中京区","city_kana":"キョウトシナカギョウク","town":"亀屋町蛸薬師通油小路西入","town_kana":"カメヤチョウタコヤクシドオリアブラノコウジニシイル","prefecture_code":26}],"8115":{"zip_code":"6048115","prefecture":"京都府","prefecture_kana":"キョウトフ","city":"京都市中京区","city_kana":"キョウトシナカギョウク","town":"雁金町","town_kana":"カリガネチョウ","prefecture_code":26},"8373":{"zip_code":"6048373","prefecture":"京都府","prefecture_kana":"キョウトフ","city":"京都市中京区","city_kana":"キョウトシナカギョウク","town":"瓦師町","town_kana":"カワラシチョウ","prefecture_code":26},"0827":{"zip_code":"6040827","prefecture":"京都府","prefecture_kana":"キョウトフ","city":"京都市中京区","city_kana":"キョウトシナカギョウク","town":"瓦町","town_kana":"カワラチョウ","prefecture_code":26},"0837":{"zip_code":"6040837","prefecture":"京都府","prefecture_kana":"キョウトフ","city":"京都市中京区","city_kana":"キョウトシナカギョウク","town":"瓦之町","town_kana":"カワラノチョウ","prefecture_code":26},"0886":{"zip_code":"6040886","prefecture":"京都府","prefecture_kana":"キョウトフ","city":"京都市中京区","city_kana":"キョウトシナカギョウク","town":"関東屋町","town_kana":"カントウヤチョウ","prefecture_code":26},"0821":{"zip_code":"6040821","prefecture":"京都府","prefecture_kana":"キョウトフ","city":"京都市中京区","city_kana":"キョウトシナカギョウク","town":"観音町","town_kana":"カンノンチョウ","prefecture_code":26},"8222":{"zip_code":"6048222","prefecture":"京都府","prefecture_kana":"キョウトフ","city":"京都市中京区","city_kana":"キョウトシナカギョウク","town":"観音堂町","town_kana":"カンノンドウチョウ","prefecture_code":26},"0994":{"zip_code":"6040994","prefecture":"京都府","prefecture_kana":"キョウトフ","city":"京都市中京区","city_kana":"キョウトシナカギョウク","town":"甘露町","town_kana":"カンロチョウ","prefecture_code":26},"8154":{"zip_code":"6048154","prefecture":"京都府","prefecture_kana":"キョウトフ","city":"京都市中京区","city_kana":"キョウトシナカギョウク","town":"菊水鉾町","town_kana":"キクスイボコチョウ","prefecture_code":26},"0975":[{"zip_code":"6040975","prefecture":"京都府","prefecture_kana":"キョウトフ","city":"京都市中京区","city_kana":"キョウトシナカギョウク","town":"菊屋町竹屋町通富小路西入","town_kana":"キクヤチョウタケヤチョウドオリトミノコウジニシイル","prefecture_code":26},{"zip_code":"6040975","prefecture":"京都府","prefecture_kana":"キョウトフ","city":"京都市中京区","city_kana":"キョウトシナカギョウク","town":"菊屋町竹屋町通柳馬場東入","town_kana":"キクヤチョウタケヤチョウドオリヤナギノバンバヒガシイル","prefecture_code":26}],"8102":[{"zip_code":"6048102","prefecture":"京都府","prefecture_kana":"キョウトフ","city":"京都市中京区","city_kana":"キョウトシナカギョウク","town":"菊屋町姉小路通富小路西入","town_kana":"キクヤチョウアネヤコウジドオリトミノコウジニシイル","prefecture_code":26},{"zip_code":"6048102","prefecture":"京都府","prefecture_kana":"キョウトフ","city":"京都市中京区","city_kana":"キョウトシナカギョウク","town":"菊屋町姉小路通柳馬場東入","town_kana":"キクヤチョウアネヤコウジドオリヤナギノバンバヒガシイル","prefecture_code":26}],"8127":[{"zip_code":"6048127","prefecture":"京都府","prefecture_kana":"キョウトフ","city":"京都市中京区","city_kana":"キョウトシナカギョウク","town":"菊屋町堺町通蛸薬師下る","town_kana":"キクヤチョウ","prefecture_code":26},{"zip_code":"6048127","prefecture":"京都府","prefecture_kana":"キョウトフ","city":"京都市中京区","city_kana":"キョウトシナカギョウク","town":"菊屋町堺町通錦小路上る","town_kana":"キクヤチョウ","prefecture_code":26},{"zip_code":"6048127","prefecture":"京都府","prefecture_kana":"キョウトフ","city":"京都市中京区","city_kana":"キョウトシナカギョウク","town":"菊屋町錦小路通堺町東入","town_kana":"キクヤチョウ","prefecture_code":26},{"zip_code":"6048127","prefecture":"京都府","prefecture_kana":"キョウトフ","city":"京都市中京区","city_kana":"キョウトシナカギョウク","town":"菊屋町錦小路通柳馬場西入","town_kana":"キクヤチョウ","prefecture_code":26}],"8021":{"zip_code":"6048021","prefecture":"京都府","prefecture_kana":"キョウトフ","city":"京都市中京区","city_kana":"キョウトシナカギョウク","town":"北車屋町","town_kana":"キタクルマヤチョウ","prefecture_code":26},"0856":{"zip_code":"6040856","prefecture":"京都府","prefecture_kana":"キョウトフ","city":"京都市中京区","city_kana":"キョウトシナカギョウク","town":"北小路町","town_kana":"キタコウジチョウ","prefecture_code":26},"8105":{"zip_code":"6048105","prefecture":"京都府","prefecture_kana":"キョウトフ","city":"京都市中京区","city_kana":"キョウトシナカギョウク","town":"亀甲屋町","town_kana":"キッコウヤチョウ","prefecture_code":26},"0804":{"zip_code":"6040804","prefecture":"京都府","prefecture_kana":"キョウトフ","city":"京都市中京区","city_kana":"キョウトシナカギョウク","town":"絹屋町","town_kana":"キヌヤチョウ","prefecture_code":26},"8104":{"zip_code":"6048104","prefecture":"京都府","prefecture_kana":"キョウトフ","city":"京都市中京区","city_kana":"キョウトシナカギョウク","town":"木之下町","town_kana":"キノシタチョウ","prefecture_code":26},"0961":{"zip_code":"6040961","prefecture":"京都府","prefecture_kana":"キョウトフ","city":"京都市中京区","city_kana":"キョウトシナカギョウク","town":"木屋町","town_kana":"キヤチョウ","prefecture_code":26},"0065":{"zip_code":"6040065","prefecture":"京都府","prefecture_kana":"キョウトフ","city":"京都市中京区","city_kana":"キョウトシナカギョウク","town":"九町目","town_kana":"キュウチョウメ","prefecture_code":26},"0991":{"zip_code":"6040991","prefecture":"京都府","prefecture_kana":"キョウトフ","city":"京都市中京区","city_kana":"キョウトシナカギョウク","town":"行願寺門前町","town_kana":"ギョウガンジモンゼンチョウ","prefecture_code":26},"0846":{"zip_code":"6040846","prefecture":"京都府","prefecture_kana":"キョウトフ","city":"京都市中京区","city_kana":"キョウトシナカギョウク","town":"金吹町","town_kana":"キンブキチョウ","prefecture_code":26},"8232":{"zip_code":"6048232","prefecture":"京都府","prefecture_kana":"キョウトフ","city":"京都市中京区","city_kana":"キョウトシナカギョウク","town":"空也町","town_kana":"クウヤチョウ","prefecture_code":26},"0993":{"zip_code":"6040993","prefecture":"京都府","prefecture_kana":"キョウトフ","city":"京都市中京区","city_kana":"キョウトシナカギョウク","town":"久遠院前町","town_kana":"クエンインマエチョウ","prefecture_code":26},"0883":{"zip_code":"6040883","prefecture":"京都府","prefecture_kana":"キョウトフ","city":"京都市中京区","city_kana":"キョウトシナカギョウク","town":"楠町","town_kana":"クスノキチョウ","prefecture_code":26},"0066":{"zip_code":"6040066","prefecture":"京都府","prefecture_kana":"キョウトフ","city":"京都市中京区","city_kana":"キョウトシナカギョウク","town":"薬屋町","town_kana":"クスリヤチョウ","prefecture_code":26},"8321":{"zip_code":"6048321","prefecture":"京都府","prefecture_kana":"キョウトフ","city":"京都市中京区","city_kana":"キョウトシナカギョウク","town":"倉本町","town_kana":"クラモトチョウ","prefecture_code":26},"8185":{"zip_code":"6048185","prefecture":"京都府","prefecture_kana":"キョウトフ","city":"京都市中京区","city_kana":"キョウトシナカギョウク","town":"車屋町","town_kana":"クルマヤチョウ","prefecture_code":26},"0976":{"zip_code":"6040976","prefecture":"京都府","prefecture_kana":"キョウトフ","city":"京都市中京区","city_kana":"キョウトシナカギョウク","town":"桑原町","town_kana":"クワバラチョウ","prefecture_code":26},"8163":{"zip_code":"6048163","prefecture":"京都府","prefecture_kana":"キョウトフ","city":"京都市中京区","city_kana":"キョウトシナカギョウク","town":"鯉山町","town_kana":"コイヤマチョウ","prefecture_code":26},"0825":{"zip_code":"6040825","prefecture":"京都府","prefecture_kana":"キョウトフ","city":"京都市中京区","city_kana":"キョウトシナカギョウク","town":"御所八幡町","town_kana":"ゴショハチマンチョウ","prefecture_code":26},"0973":{"zip_code":"6040973","prefecture":"京都府","prefecture_kana":"キョウトフ","city":"京都市中京区","city_kana":"キョウトシナカギョウク","town":"五丁目","town_kana":"ゴチョウメ","prefecture_code":26},"8223":{"zip_code":"6048223","prefecture":"京都府","prefecture_kana":"キョウトフ","city":"京都市中京区","city_kana":"キョウトシナカギョウク","town":"小結棚町","town_kana":"コムスビダナチョウ","prefecture_code":26},"8026":{"zip_code":"6048026","prefecture":"京都府","prefecture_kana":"キョウトフ","city":"京都市中京区","city_kana":"キョウトシナカギョウク","town":"米屋町","town_kana":"コメヤチョウ","prefecture_code":26},"8203":{"zip_code":"6048203","prefecture":"京都府","prefecture_kana":"キョウトフ","city":"京都市中京区","city_kana":"キョウトシナカギョウク","town":"衣棚町","town_kana":"コロモノタナチョウ","prefecture_code":26},"0986":{"zip_code":"6040986","prefecture":"京都府","prefecture_kana":"キョウトフ","city":"京都市中京区","city_kana":"キョウトシナカギョウク","town":"昆布屋町","town_kana":"コンブヤチョウ","prefecture_code":26},"0866":{"zip_code":"6040866","prefecture":"京都府","prefecture_kana":"キョウトフ","city":"京都市中京区","city_kana":"キョウトシナカギョウク","town":"西方寺町","town_kana":"サイホウジチョウ","prefecture_code":26},"8017":{"zip_code":"6048017","prefecture":"京都府","prefecture_kana":"キョウトフ","city":"京都市中京区","city_kana":"キョウトシナカギョウク","town":"材木町","town_kana":"ザイモクチョウ","prefecture_code":26},"8065":{"zip_code":"6048065","prefecture":"京都府","prefecture_kana":"キョウトフ","city":"京都市中京区","city_kana":"キョウトシナカギョウク","town":"坂井町","town_kana":"サカイチョウ","prefecture_code":26},"0881":{"zip_code":"6040881","prefecture":"京都府","prefecture_kana":"キョウトフ","city":"京都市中京区","city_kana":"キョウトシナカギョウク","town":"坂本町","town_kana":"サカモトチョウ","prefecture_code":26},"0833":{"zip_code":"6040833","prefecture":"京都府","prefecture_kana":"キョウトフ","city":"京都市中京区","city_kana":"キョウトシナカギョウク","town":"左京町","town_kana":"サキョウチョウ","prefecture_code":26},"8035":{"zip_code":"6048035","prefecture":"京都府","prefecture_kana":"キョウトフ","city":"京都市中京区","city_kana":"キョウトシナカギョウク","town":"桜之町","town_kana":"サクラノチョウ","prefecture_code":26},"0983":[{"zip_code":"6040983","prefecture":"京都府","prefecture_kana":"キョウトフ","city":"京都市中京区","city_kana":"キョウトシナカギョウク","town":"笹屋町麩屋町通竹屋町下る","town_kana":"ササヤチョウ","prefecture_code":26},{"zip_code":"6040983","prefecture":"京都府","prefecture_kana":"キョウトフ","city":"京都市中京区","city_kana":"キョウトシナカギョウク","town":"笹屋町麩屋町通夷川上る","town_kana":"ササヤチョウ","prefecture_code":26},{"zip_code":"6040983","prefecture":"京都府","prefecture_kana":"キョウトフ","city":"京都市中京区","city_kana":"キョウトシナカギョウク","town":"笹屋町竹屋町通麩屋町西入","town_kana":"ササヤチョウ","prefecture_code":26},{"zip_code":"6040983","prefecture":"京都府","prefecture_kana":"キョウトフ","city":"京都市中京区","city_kana":"キョウトシナカギョウク","town":"笹屋町竹屋町通麩屋町東入","town_kana":"ササヤチョウ","prefecture_code":26},{"zip_code":"6040983","prefecture":"京都府","prefecture_kana":"キョウトフ","city":"京都市中京区","city_kana":"キョウトシナカギョウク","town":"笹屋町竹屋町通御幸町西入","town_kana":"ササヤチョウ","prefecture_code":26},{"zip_code":"6040983","prefecture":"京都府","prefecture_kana":"キョウトフ","city":"京都市中京区","city_kana":"キョウトシナカギョウク","town":"笹屋町夷川通麩屋町西入","town_kana":"ササヤチョウ","prefecture_code":26},{"zip_code":"6040983","prefecture":"京都府","prefecture_kana":"キョウトフ","city":"京都市中京区","city_kana":"キョウトシナカギョウク","town":"笹屋町夷川通麩屋町東入","town_kana":"ササヤチョウ","prefecture_code":26}],"8187":[{"zip_code":"6048187","prefecture":"京都府","prefecture_kana":"キョウトフ","city":"京都市中京区","city_kana":"キョウトシナカギョウク","town":"笹屋町御池通東洞院東入","town_kana":"ササヤチョウ","prefecture_code":26},{"zip_code":"6048187","prefecture":"京都府","prefecture_kana":"キョウトフ","city":"京都市中京区","city_kana":"キョウトシナカギョウク","town":"笹屋町御池通東洞院西入","town_kana":"ササヤチョウ","prefecture_code":26},{"zip_code":"6048187","prefecture":"京都府","prefecture_kana":"キョウトフ","city":"京都市中京区","city_kana":"キョウトシナカギョウク","town":"笹屋町御池通烏丸東入","town_kana":"ササヤチョウ","prefecture_code":26},{"zip_code":"6048187","prefecture":"京都府","prefecture_kana":"キョウトフ","city":"京都市中京区","city_kana":"キョウトシナカギョウク","town":"笹屋町東洞院通姉小路上る","town_kana":"ササヤチョウ","prefecture_code":26},{"zip_code":"6048187","prefecture":"京都府","prefecture_kana":"キョウトフ","city":"京都市中京区","city_kana":"キョウトシナカギョウク","town":"笹屋町姉小路通東洞院東入","town_kana":"ササヤチョウ","prefecture_code":26}],"0903":{"zip_code":"6040903","prefecture":"京都府","prefecture_kana":"キョウトフ","city":"京都市中京区","city_kana":"キョウトシナカギョウク","town":"指物町","town_kana":"サシモノチョウ","prefecture_code":26},"0095":{"zip_code":"6040095","prefecture":"京都府","prefecture_kana":"キョウトフ","city":"京都市中京区","city_kana":"キョウトシナカギョウク","town":"指物屋町","town_kana":"サシモノヤチョウ","prefecture_code":26},"8251":{"zip_code":"6048251","prefecture":"京都府","prefecture_kana":"キョウトフ","city":"京都市中京区","city_kana":"キョウトシナカギョウク","town":"三条油小路町","town_kana":"サンジョウアブラノコウジチョウ","prefecture_code":26},"8334":{"zip_code":"6048334","prefecture":"京都府","prefecture_kana":"キョウトフ","city":"京都市中京区","city_kana":"キョウトシナカギョウク","town":"三条猪熊町","town_kana":"サンジョウイノクマチョウ","prefecture_code":26},"8336":{"zip_code":"6048336","prefecture":"京都府","prefecture_kana":"キョウトフ","city":"京都市中京区","city_kana":"キョウトシナカギョウク","town":"三条大宮町","town_kana":"サンジョウオオミヤチョウ","prefecture_code":26},"8205":{"zip_code":"6048205","prefecture":"京都府","prefecture_kana":"キョウトフ","city":"京都市中京区","city_kana":"キョウトシナカギョウク","town":"三条町","town_kana":"サンジョウチョウ","prefecture_code":26},"8316":{"zip_code":"6048316","prefecture":"京都府","prefecture_kana":"キョウトフ","city":"京都市中京区","city_kana":"キョウトシナカギョウク","town":"三坊大宮町","town_kana":"サンボウオオミヤチョウ","prefecture_code":26},"8277":{"zip_code":"6048277","prefecture":"京都府","prefecture_kana":"キョウトフ","city":"京都市中京区","city_kana":"キョウトシナカギョウク","town":"三坊西洞院町","town_kana":"サンボウニシノトウインチョウ","prefecture_code":26},"8266":{"zip_code":"6048266","prefecture":"京都府","prefecture_kana":"キョウトフ","city":"京都市中京区","city_kana":"キョウトシナカギョウク","town":"三坊堀川町","town_kana":"サンボウホリカワチョウ","prefecture_code":26},"8313":{"zip_code":"6048313","prefecture":"京都府","prefecture_kana":"キョウトフ","city":"京都市中京区","city_kana":"キョウトシナカギョウク","town":"三坊猪熊町北組","town_kana":"サンボウイノクマチョウキタグミ","prefecture_code":26},"8314":{"zip_code":"6048314","prefecture":"京都府","prefecture_kana":"キョウトフ","city":"京都市中京区","city_kana":"キョウトシナカギョウク","town":"三坊猪熊町南組","town_kana":"サンボウイノクマチョウミナミグミ","prefecture_code":26},"0872":{"zip_code":"6040872","prefecture":"京都府","prefecture_kana":"キョウトフ","city":"京都市中京区","city_kana":"キョウトシナカギョウク","town":"三本木五丁目","town_kana":"サンボンギゴチョウメ","prefecture_code":26},"0871":{"zip_code":"6040871","prefecture":"京都府","prefecture_kana":"キョウトフ","city":"京都市中京区","city_kana":"キョウトシナカギョウク","town":"三本木町","town_kana":"サンボンギチョウ","prefecture_code":26},"8135":[{"zip_code":"6048135","prefecture":"京都府","prefecture_kana":"キョウトフ","city":"京都市中京区","city_kana":"キョウトシナカギョウク","town":"三文字町東洞院通三条下る","town_kana":"サンモンジチョウ","prefecture_code":26},{"zip_code":"6048135","prefecture":"京都府","prefecture_kana":"キョウトフ","city":"京都市中京区","city_kana":"キョウトシナカギョウク","town":"三文字町東洞院通六角上る","town_kana":"サンモンジチョウ","prefecture_code":26},{"zip_code":"6048135","prefecture":"京都府","prefecture_kana":"キョウトフ","city":"京都市中京区","city_kana":"キョウトシナカギョウク","town":"三文字町六角通東洞院西入","town_kana":"サンモンジチョウ","prefecture_code":26},{"zip_code":"6048135","prefecture":"京都府","prefecture_kana":"キョウトフ","city":"京都市中京区","city_kana":"キョウトシナカギョウク","town":"三文字町六角通東洞院東入","town_kana":"サンモンジチョウ","prefecture_code":26}],"8236":[{"zip_code":"6048236","prefecture":"京都府","prefecture_kana":"キョウトフ","city":"京都市中京区","city_kana":"キョウトシナカギョウク","town":"三文字町錦小路通堀川東入","town_kana":"サンモンジチョウ","prefecture_code":26},{"zip_code":"6048236","prefecture":"京都府","prefecture_kana":"キョウトフ","city":"京都市中京区","city_kana":"キョウトシナカギョウク","town":"三文字町錦小路通油小路西入","town_kana":"サンモンジチョウ","prefecture_code":26},{"zip_code":"6048236","prefecture":"京都府","prefecture_kana":"キョウトフ","city":"京都市中京区","city_kana":"キョウトシナカギョウク","town":"三文字町堀川通錦小路下る","town_kana":"サンモンジチョウ","prefecture_code":26},{"zip_code":"6048236","prefecture":"京都府","prefecture_kana":"キョウトフ","city":"京都市中京区","city_kana":"キョウトシナカギョウク","town":"三文字町醒ケ井通錦小路下る","town_kana":"サンモンジチョウ","prefecture_code":26},{"zip_code":"6048236","prefecture":"京都府","prefecture_kana":"キョウトフ","city":"京都市中京区","city_kana":"キョウトシナカギョウク","town":"三文字町醒ケ井通錦小路東入","town_kana":"サンモンジチョウ","prefecture_code":26},{"zip_code":"6048236","prefecture":"京都府","prefecture_kana":"キョウトフ","city":"京都市中京区","city_kana":"キョウトシナカギョウク","town":"三文字町醒ケ井通錦小路西入","town_kana":"サンモンジチョウ","prefecture_code":26}],"8027":[{"zip_code":"6048027","prefecture":"京都府","prefecture_kana":"キョウトフ","city":"京都市中京区","city_kana":"キョウトシナカギョウク","town":"塩屋町河原町通蛸薬師下る","town_kana":"シオヤチョウカワラマチドオリタコヤクシサガル","prefecture_code":26},{"zip_code":"6048027","prefecture":"京都府","prefecture_kana":"キョウトフ","city":"京都市中京区","city_kana":"キョウトシナカギョウク","town":"塩屋町河原町通四条上る","town_kana":"シオヤチョウカワラマチドオリ4ジョウアガル","prefecture_code":26},{"zip_code":"6048027","prefecture":"京都府","prefecture_kana":"キョウトフ","city":"京都市中京区","city_kana":"キョウトシナカギョウク","town":"塩屋町蛸薬師通河原町西入","town_kana":"シオヤチョウタコヤクシドオリカワラマチニシイル","prefecture_code":26}],"8247":[{"zip_code":"6048247","prefecture":"京都府","prefecture_kana":"キョウトフ","city":"京都市中京区","city_kana":"キョウトシナカギョウク","town":"塩屋町三条通西洞院西入","town_kana":"シオヤチョウ","prefecture_code":26},{"zip_code":"6048247","prefecture":"京都府","prefecture_kana":"キョウトフ","city":"京都市中京区","city_kana":"キョウトシナカギョウク","town":"塩屋町三条通小川東入","town_kana":"シオヤチョウ","prefecture_code":26},{"zip_code":"6048247","prefecture":"京都府","prefecture_kana":"キョウトフ","city":"京都市中京区","city_kana":"キョウトシナカギョウク","town":"塩屋町三条通小川西入","town_kana":"シオヤチョウ","prefecture_code":26},{"zip_code":"6048247","prefecture":"京都府","prefecture_kana":"キョウトフ","city":"京都市中京区","city_kana":"キョウトシナカギョウク","town":"塩屋町三条通油小路東入","town_kana":"シオヤチョウ","prefecture_code":26}],"8261":{"zip_code":"6048261","prefecture":"京都府","prefecture_kana":"キョウトフ","city":"京都市中京区","city_kana":"キョウトシナカギョウク","town":"式阿弥町","town_kana":"シキアミチョウ","prefecture_code":26},"8061":{"zip_code":"6048061","prefecture":"京都府","prefecture_kana":"キョウトフ","city":"京都市中京区","city_kana":"キョウトシナカギョウク","town":"式部町","town_kana":"シキブチョウ","prefecture_code":26},"8162":{"zip_code":"6048162","prefecture":"京都府","prefecture_kana":"キョウトフ","city":"京都市中京区","city_kana":"キョウトシナカギョウク","town":"七観音町","town_kana":"シチカンノンチョウ","prefecture_code":26},"8366":{"zip_code":"6048366","prefecture":"京都府","prefecture_kana":"キョウトフ","city":"京都市中京区","city_kana":"キョウトシナカギョウク","town":"七軒町","town_kana":"シチケンチョウ","prefecture_code":26},"8356":{"zip_code":"6048356","prefecture":"京都府","prefecture_kana":"キョウトフ","city":"京都市中京区","city_kana":"キョウトシナカギョウク","town":"四坊大宮町","town_kana":"シボウオオミヤチョウ","prefecture_code":26},"8254":{"zip_code":"6048254","prefecture":"京都府","prefecture_kana":"キョウトフ","city":"京都市中京区","city_kana":"キョウトシナカギョウク","town":"四坊堀川町","town_kana":"シボウホリカワチョウ","prefecture_code":26},"0874":[{"zip_code":"6040874","prefecture":"京都府","prefecture_kana":"キョウトフ","city":"京都市中京区","city_kana":"キョウトシナカギョウク","town":"清水町竹屋町通烏丸東入","town_kana":"シミズチョウ","prefecture_code":26},{"zip_code":"6040874","prefecture":"京都府","prefecture_kana":"キョウトフ","city":"京都市中京区","city_kana":"キョウトシナカギョウク","town":"清水町竹屋町通東洞院西入","town_kana":"シミズチョウ","prefecture_code":26},{"zip_code":"6040874","prefecture":"京都府","prefecture_kana":"キョウトフ","city":"京都市中京区","city_kana":"キョウトシナカギョウク","town":"清水町竹屋町通車屋町西入","town_kana":"シミズチョウ","prefecture_code":26},{"zip_code":"6040874","prefecture":"京都府","prefecture_kana":"キョウトフ","city":"京都市中京区","city_kana":"キョウトシナカギョウク","town":"清水町竹屋町通車屋町東入","town_kana":"シミズチョウ","prefecture_code":26},{"zip_code":"6040874","prefecture":"京都府","prefecture_kana":"キョウトフ","city":"京都市中京区","city_kana":"キョウトシナカギョウク","town":"清水町車屋町通竹屋町下る","town_kana":"シミズチョウ","prefecture_code":26}],"0911":[{"zip_code":"6040911","prefecture":"京都府","prefecture_kana":"キョウトフ","city":"京都市中京区","city_kana":"キョウトシナカギョウク","town":"清水町河原町通夷川下る","town_kana":"シミズチョウ","prefecture_code":26},{"zip_code":"6040911","prefecture":"京都府","prefecture_kana":"キョウトフ","city":"京都市中京区","city_kana":"キョウトシナカギョウク","town":"清水町河原町通二条上る","town_kana":"シミズチョウ","prefecture_code":26},{"zip_code":"6040911","prefecture":"京都府","prefecture_kana":"キョウトフ","city":"京都市中京区","city_kana":"キョウトシナカギョウク","town":"清水町夷川通河原町東入","town_kana":"シミズチョウ","prefecture_code":26},{"zip_code":"6040911","prefecture":"京都府","prefecture_kana":"キョウトフ","city":"京都市中京区","city_kana":"キョウトシナカギョウク","town":"清水町夷川通土手町西入","town_kana":"シミズチョウ","prefecture_code":26},{"zip_code":"6040911","prefecture":"京都府","prefecture_kana":"キョウトフ","city":"京都市中京区","city_kana":"キョウトシナカギョウク","town":"清水町夷川通土手町東入","town_kana":"シミズチョウ","prefecture_code":26}],"8335":{"zip_code":"6048335","prefecture":"京都府","prefecture_kana":"キョウトフ","city":"京都市中京区","city_kana":"キョウトシナカギョウク","town":"下一文字町","town_kana":"シモイチモンジチョウ","prefecture_code":26},"8025":{"zip_code":"6048025","prefecture":"京都府","prefecture_kana":"キョウトフ","city":"京都市中京区","city_kana":"キョウトシナカギョウク","town":"下大阪町","town_kana":"シモオオサカチョウ","prefecture_code":26},"8354":{"zip_code":"6048354","prefecture":"京都府","prefecture_kana":"キョウトフ","city":"京都市中京区","city_kana":"キョウトシナカギョウク","town":"下瓦町","town_kana":"シモカワラチョウ","prefecture_code":26},"8355":{"zip_code":"6048355","prefecture":"京都府","prefecture_kana":"キョウトフ","city":"京都市中京区","city_kana":"キョウトシナカギョウク","town":"下黒門町","town_kana":"シモクロモンチョウ","prefecture_code":26},"8016":{"zip_code":"6048016","prefecture":"京都府","prefecture_kana":"キョウトフ","city":"京都市中京区","city_kana":"キョウトシナカギョウク","town":"下樵木町","town_kana":"シモコリキチョウ","prefecture_code":26},"0995":{"zip_code":"6040995","prefecture":"京都府","prefecture_kana":"キョウトフ","city":"京都市中京区","city_kana":"キョウトシナカギョウク","town":"下御霊前町","town_kana":"シモゴリョウマエチョウ","prefecture_code":26},"8085":{"zip_code":"6048085","prefecture":"京都府","prefecture_kana":"キョウトフ","city":"京都市中京区","city_kana":"キョウトシナカギョウク","town":"下白山町","town_kana":"シモハクサンチョウ","prefecture_code":26},"8333":{"zip_code":"6048333","prefecture":"京都府","prefecture_kana":"キョウトフ","city":"京都市中京区","city_kana":"キョウトシナカギョウク","town":"下八文字町","town_kana":"シモハチモンジチョウ","prefecture_code":26},"0044":{"zip_code":"6040044","prefecture":"京都府","prefecture_kana":"キョウトフ","city":"京都市中京区","city_kana":"キョウトシナカギョウク","town":"下古城町","town_kana":"シモフルシロチョウ","prefecture_code":26},"8091":{"zip_code":"6048091","prefecture":"京都府","prefecture_kana":"キョウトフ","city":"京都市中京区","city_kana":"キョウトシナカギョウク","town":"下本能寺前町","town_kana":"シモホンノウジマエチョウ","prefecture_code":26},"0034":{"zip_code":"6040034","prefecture":"京都府","prefecture_kana":"キョウトフ","city":"京都市中京区","city_kana":"キョウトシナカギョウク","town":"下松屋町","town_kana":"シモマツヤチョウ","prefecture_code":26},"0084":[{"zip_code":"6040084","prefecture":"京都府","prefecture_kana":"キョウトフ","city":"京都市中京区","city_kana":"キョウトシナカギョウク","town":"下丸屋町小川通夷川下る","town_kana":"シモマルヤチョウオガワドオリエビスガワサガル","prefecture_code":26},{"zip_code":"6040084","prefecture":"京都府","prefecture_kana":"キョウトフ","city":"京都市中京区","city_kana":"キョウトシナカギョウク","town":"下丸屋町小川通夷川上る","town_kana":"シモマルヤチョウオガワドオリエビスガワアガル","prefecture_code":26}],"8006":[{"zip_code":"6048006","prefecture":"京都府","prefecture_kana":"キョウトフ","city":"京都市中京区","city_kana":"キョウトシナカギョウク","town":"下丸屋町御池通河原町東入","town_kana":"シモマルヤチョウ","prefecture_code":26},{"zip_code":"6048006","prefecture":"京都府","prefecture_kana":"キョウトフ","city":"京都市中京区","city_kana":"キョウトシナカギョウク","town":"下丸屋町河原町通御池下る","town_kana":"シモマルヤチョウ","prefecture_code":26},{"zip_code":"6048006","prefecture":"京都府","prefecture_kana":"キョウトフ","city":"京都市中京区","city_kana":"キョウトシナカギョウク","town":"下丸屋町河原町通姉小路上る","town_kana":"シモマルヤチョウ","prefecture_code":26},{"zip_code":"6048006","prefecture":"京都府","prefecture_kana":"キョウトフ","city":"京都市中京区","city_kana":"キョウトシナカギョウク","town":"下丸屋町御池通木屋町西入","town_kana":"シモマルヤチョウ","prefecture_code":26},{"zip_code":"6048006","prefecture":"京都府","prefecture_kana":"キョウトフ","city":"京都市中京区","city_kana":"キョウトシナカギョウク","town":"下丸屋町木屋町通御池下る","town_kana":"シモマルヤチョウ","prefecture_code":26},{"zip_code":"6048006","prefecture":"京都府","prefecture_kana":"キョウトフ","city":"京都市中京区","city_kana":"キョウトシナカギョウク","town":"下丸屋町木屋町通姉小路上る","town_kana":"シモマルヤチョウ","prefecture_code":26}],"0024":{"zip_code":"6040024","prefecture":"京都府","prefecture_kana":"キョウトフ","city":"京都市中京区","city_kana":"キョウトシナカギョウク","town":"下妙覚寺町","town_kana":"シモミョウカクジチョウ","prefecture_code":26},"0875":{"zip_code":"6040875","prefecture":"京都府","prefecture_kana":"キョウトフ","city":"京都市中京区","city_kana":"キョウトシナカギョウク","town":"砂金町","town_kana":"シャキンチョウ","prefecture_code":26},"8121":{"zip_code":"6048121","prefecture":"京都府","prefecture_kana":"キョウトフ","city":"京都市中京区","city_kana":"キョウトシナカギョウク","town":"十文字町","town_kana":"ジュウモンジチョウ","prefecture_code":26},"8403":{"zip_code":"6048403","prefecture":"京都府","prefecture_kana":"キョウトフ","city":"京都市中京区","city_kana":"キョウトシナカギョウク","town":"聚楽廻中町","town_kana":"ジュラクマワリナカマチ","prefecture_code":26},"8404":{"zip_code":"6048404","prefecture":"京都府","prefecture_kana":"キョウトフ","city":"京都市中京区","city_kana":"キョウトシナカギョウク","town":"聚楽廻東町","town_kana":"ジュラクマワリヒガシマチ","prefecture_code":26},"8402":{"zip_code":"6048402","prefecture":"京都府","prefecture_kana":"キョウトフ","city":"京都市中京区","city_kana":"キョウトシナカギョウク","town":"聚楽廻西町","town_kana":"ジュラクマワリニシマチ","prefecture_code":26},"8411":{"zip_code":"6048411","prefecture":"京都府","prefecture_kana":"キョウトフ","city":"京都市中京区","city_kana":"キョウトシナカギョウク","town":"聚楽廻南町","town_kana":"ジュラクマワリミナミマチ","prefecture_code":26},"8401":{"zip_code":"6048401","prefecture":"京都府","prefecture_kana":"キョウトフ","city":"京都市中京区","city_kana":"キョウトシナカギョウク","town":"聚楽廻松下町","town_kana":"ジュラクマワリマツシタチョウ","prefecture_code":26},"0036":{"zip_code":"6040036","prefecture":"京都府","prefecture_kana":"キョウトフ","city":"京都市中京区","city_kana":"キョウトシナカギョウク","town":"正行寺町","town_kana":"ショウギョウジチョウ","prefecture_code":26},"0873":{"zip_code":"6040873","prefecture":"京都府","prefecture_kana":"キョウトフ","city":"京都市中京区","city_kana":"キョウトシナカギョウク","town":"少将井御旅町","town_kana":"ショウショウイオタビチョウ","prefecture_code":26},"0862":{"zip_code":"6040862","prefecture":"京都府","prefecture_kana":"キョウトフ","city":"京都市中京区","city_kana":"キョウトシナカギョウク","town":"少将井町","town_kana":"ショウショウイチョウ","prefecture_code":26},"8246":{"zip_code":"6048246","prefecture":"京都府","prefecture_kana":"キョウトフ","city":"京都市中京区","city_kana":"キョウトシナカギョウク","town":"猩々町","town_kana":"ショウジョウチョウ","prefecture_code":26},"0867":{"zip_code":"6040867","prefecture":"京都府","prefecture_kana":"キョウトフ","city":"京都市中京区","city_kana":"キョウトシナカギョウク","town":"常真横町","town_kana":"ジョウシンヨコチョウ","prefecture_code":26},"0864":{"zip_code":"6040864","prefecture":"京都府","prefecture_kana":"キョウトフ","city":"京都市中京区","city_kana":"キョウトシナカギョウク","town":"松竹町","town_kana":"ショウチクチョウ","prefecture_code":26},"8075":{"zip_code":"6048075","prefecture":"京都府","prefecture_kana":"キョウトフ","city":"京都市中京区","city_kana":"キョウトシナカギョウク","town":"白壁町","town_kana":"シラカベチョウ","prefecture_code":26},"8371":{"zip_code":"6048371","prefecture":"京都府","prefecture_kana":"キョウトフ","city":"京都市中京区","city_kana":"キョウトシナカギョウク","town":"神泉苑町","town_kana":"シンセンエンチョウ","prefecture_code":26},"0853":{"zip_code":"6040853","prefecture":"京都府","prefecture_kana":"キョウトフ","city":"京都市中京区","city_kana":"キョウトシナカギョウク","town":"真如堂町","town_kana":"シンニョドウチョウ","prefecture_code":26},"8207":{"zip_code":"6048207","prefecture":"京都府","prefecture_kana":"キョウトフ","city":"京都市中京区","city_kana":"キョウトシナカギョウク","town":"神明町","town_kana":"シンメイチョウ","prefecture_code":26},"0901":{"zip_code":"6040901","prefecture":"京都府","prefecture_kana":"キョウトフ","city":"京都市中京区","city_kana":"キョウトシナカギョウク","town":"末丸町","town_kana":"スエマルチョウ","prefecture_code":26},"0822":{"zip_code":"6040822","prefecture":"京都府","prefecture_kana":"キョウトフ","city":"京都市中京区","city_kana":"キョウトシナカギョウク","town":"杉屋町","town_kana":"スギヤチョウ","prefecture_code":26},"0913":{"zip_code":"6040913","prefecture":"京都府","prefecture_kana":"キョウトフ","city":"京都市中京区","city_kana":"キョウトシナカギョウク","town":"角倉町","town_kana":"スミクラチョウ","prefecture_code":26},"8224":{"zip_code":"6048224","prefecture":"京都府","prefecture_kana":"キョウトフ","city":"京都市中京区","city_kana":"キョウトシナカギョウク","town":"炭之座町","town_kana":"スミノザチョウ","prefecture_code":26},"8274":{"zip_code":"6048274","prefecture":"京都府","prefecture_kana":"キョウトフ","city":"京都市中京区","city_kana":"キョウトシナカギョウク","town":"西堂町","town_kana":"セイドウチョウ","prefecture_code":26},"0951":{"zip_code":"6040951","prefecture":"京都府","prefecture_kana":"キョウトフ","city":"京都市中京区","city_kana":"キョウトシナカギョウク","town":"晴明町","town_kana":"セイメイチョウ","prefecture_code":26},"8122":{"zip_code":"6048122","prefecture":"京都府","prefecture_kana":"キョウトフ","city":"京都市中京区","city_kana":"キョウトシナカギョウク","town":"瀬戸屋町","town_kana":"セトヤチョウ","prefecture_code":26},"8141":{"zip_code":"6048141","prefecture":"京都府","prefecture_kana":"キョウトフ","city":"京都市中京区","city_kana":"キョウトシナカギョウク","town":"泉正寺町","town_kana":"センショウジチョウ","prefecture_code":26},"8262":{"zip_code":"6048262","prefecture":"京都府","prefecture_kana":"キョウトフ","city":"京都市中京区","city_kana":"キョウトシナカギョウク","town":"宗林町","town_kana":"ソウリンチョウ","prefecture_code":26},"0026":{"zip_code":"6040026","prefecture":"京都府","prefecture_kana":"キョウトフ","city":"京都市中京区","city_kana":"キョウトシナカギョウク","town":"大恩寺町","town_kana":"ダイオンジチョウ","prefecture_code":26},"0014":[{"zip_code":"6040014","prefecture":"京都府","prefecture_kana":"キョウトフ","city":"京都市中京区","city_kana":"キョウトシナカギョウク","town":"大黒町釜座通夷川下る","town_kana":"ダイコクチョウ","prefecture_code":26},{"zip_code":"6040014","prefecture":"京都府","prefecture_kana":"キョウトフ","city":"京都市中京区","city_kana":"キョウトシナカギョウク","town":"大黒町釜座通二条上る","town_kana":"ダイコクチョウ","prefecture_code":26},{"zip_code":"6040014","prefecture":"京都府","prefecture_kana":"キョウトフ","city":"京都市中京区","city_kana":"キョウトシナカギョウク","town":"大黒町夷川通釜座東入","town_kana":"ダイコクチョウ","prefecture_code":26},{"zip_code":"6040014","prefecture":"京都府","prefecture_kana":"キョウトフ","city":"京都市中京区","city_kana":"キョウトシナカギョウク","town":"大黒町夷川通釜座西入","town_kana":"ダイコクチョウ","prefecture_code":26}],"8031":[{"zip_code":"6048031","prefecture":"京都府","prefecture_kana":"キョウトフ","city":"京都市中京区","city_kana":"キョウトシナカギョウク","town":"大黒町河原町通三条下る","town_kana":"ダイコクチョウ","prefecture_code":26},{"zip_code":"6048031","prefecture":"京都府","prefecture_kana":"キョウトフ","city":"京都市中京区","city_kana":"キョウトシナカギョウク","town":"大黒町三条通河原町東入","town_kana":"ダイコクチョウ","prefecture_code":26},{"zip_code":"6048031","prefecture":"京都府","prefecture_kana":"キョウトフ","city":"京都市中京区","city_kana":"キョウトシナカギョウク","town":"大黒町三条通河原町西入","town_kana":"ダイコクチョウ","prefecture_code":26},{"zip_code":"6048031","prefecture":"京都府","prefecture_kana":"キョウトフ","city":"京都市中京区","city_kana":"キョウトシナカギョウク","town":"大黒町河原町通六角上る","town_kana":"ダイコクチョウ","prefecture_code":26},{"zip_code":"6048031","prefecture":"京都府","prefecture_kana":"キョウトフ","city":"京都市中京区","city_kana":"キョウトシナカギョウク","town":"大黒町西木屋町通三条下る","town_kana":"ダイコクチョウ","prefecture_code":26},{"zip_code":"6048031","prefecture":"京都府","prefecture_kana":"キョウトフ","city":"京都市中京区","city_kana":"キョウトシナカギョウク","town":"大黒町西木屋町通六角上る","town_kana":"ダイコクチョウ","prefecture_code":26}],"8073":[{"zip_code":"6048073","prefecture":"京都府","prefecture_kana":"キョウトフ","city":"京都市中京区","city_kana":"キョウトシナカギョウク","town":"大黒町麩屋町通六角上る","town_kana":"ダイコクチョウ","prefecture_code":26},{"zip_code":"6048073","prefecture":"京都府","prefecture_kana":"キョウトフ","city":"京都市中京区","city_kana":"キョウトシナカギョウク","town":"大黒町麩屋町通六角下る","town_kana":"ダイコクチョウ","prefecture_code":26},{"zip_code":"6048073","prefecture":"京都府","prefecture_kana":"キョウトフ","city":"京都市中京区","city_kana":"キョウトシナカギョウク","town":"大黒町六角通麩屋町西入","town_kana":"ダイコクチョウ","prefecture_code":26},{"zip_code":"6048073","prefecture":"京都府","prefecture_kana":"キョウトフ","city":"京都市中京区","city_kana":"キョウトシナカギョウク","town":"大黒町富小路通六角上る","town_kana":"ダイコクチョウ","prefecture_code":26},{"zip_code":"6048073","prefecture":"京都府","prefecture_kana":"キョウトフ","city":"京都市中京区","city_kana":"キョウトシナカギョウク","town":"大黒町富小路通六角下る","town_kana":"ダイコクチョウ","prefecture_code":26},{"zip_code":"6048073","prefecture":"京都府","prefecture_kana":"キョウトフ","city":"京都市中京区","city_kana":"キョウトシナカギョウク","town":"大黒町六角通富小路西入","town_kana":"ダイコクチョウ","prefecture_code":26},{"zip_code":"6048073","prefecture":"京都府","prefecture_kana":"キョウトフ","city":"京都市中京区","city_kana":"キョウトシナカギョウク","town":"大黒町六角通富小路東入","town_kana":"ダイコクチョウ","prefecture_code":26},{"zip_code":"6048073","prefecture":"京都府","prefecture_kana":"キョウトフ","city":"京都市中京区","city_kana":"キョウトシナカギョウク","town":"大黒町六角通柳馬場東入","town_kana":"ダイコクチョウ","prefecture_code":26}],"8044":{"zip_code":"6048044","prefecture":"京都府","prefecture_kana":"キョウトフ","city":"京都市中京区","city_kana":"キョウトシナカギョウク","town":"大日町","town_kana":"ダイニチチョウ","prefecture_code":26},"0071":[{"zip_code":"6040071","prefecture":"京都府","prefecture_kana":"キョウトフ","city":"京都市中京区","city_kana":"キョウトシナカギョウク","town":"大文字町丸太町通堀川東入","town_kana":"ダイモンジチョウ","prefecture_code":26},{"zip_code":"6040071","prefecture":"京都府","prefecture_kana":"キョウトフ","city":"京都市中京区","city_kana":"キョウトシナカギョウク","town":"大文字町丸太町通油小路西入","town_kana":"ダイモンジチョウ","prefecture_code":26},{"zip_code":"6040071","prefecture":"京都府","prefecture_kana":"キョウトフ","city":"京都市中京区","city_kana":"キョウトシナカギョウク","town":"大文字町丸太町通油小路東入","town_kana":"ダイモンジチョウ","prefecture_code":26},{"zip_code":"6040071","prefecture":"京都府","prefecture_kana":"キョウトフ","city":"京都市中京区","city_kana":"キョウトシナカギョウク","town":"大文字町丸太町通小川西入","town_kana":"ダイモンジチョウ","prefecture_code":26},{"zip_code":"6040071","prefecture":"京都府","prefecture_kana":"キョウトフ","city":"京都市中京区","city_kana":"キョウトシナカギョウク","town":"大文字町油小路通竹屋町上る","town_kana":"ダイモンジチョウ","prefecture_code":26},{"zip_code":"6040071","prefecture":"京都府","prefecture_kana":"キョウトフ","city":"京都市中京区","city_kana":"キョウトシナカギョウク","town":"大文字町竹屋町通油小路東入","town_kana":"ダイモンジチョウ","prefecture_code":26}],"0907":[{"zip_code":"6040907","prefecture":"京都府","prefecture_kana":"キョウトフ","city":"京都市中京区","city_kana":"キョウトシナカギョウク","town":"大文字町河原町通御霊図子下る","town_kana":"ダイモンジチョウカワラマチドオリゴリョウズシサガル","prefecture_code":26},{"zip_code":"6040907","prefecture":"京都府","prefecture_kana":"キョウトフ","city":"京都市中京区","city_kana":"キョウトシナカギョウク","town":"大文字町河原町通竹屋町上る","town_kana":"ダイモンジチョウカワラマチドオリタケヤマチアガル","prefecture_code":26}],"8095":[{"zip_code":"6048095","prefecture":"京都府","prefecture_kana":"キョウトフ","city":"京都市中京区","city_kana":"キョウトシナカギョウク","town":"大文字町御幸町通御池下る","town_kana":"ダイモンジチョウ","prefecture_code":26},{"zip_code":"6048095","prefecture":"京都府","prefecture_kana":"キョウトフ","city":"京都市中京区","city_kana":"キョウトシナカギョウク","town":"大文字町御幸町通姉小路上る","town_kana":"ダイモンジチョウ","prefecture_code":26},{"zip_code":"6048095","prefecture":"京都府","prefecture_kana":"キョウトフ","city":"京都市中京区","city_kana":"キョウトシナカギョウク","town":"大文字町御池通御幸町西入","town_kana":"ダイモンジチョウ","prefecture_code":26},{"zip_code":"6048095","prefecture":"京都府","prefecture_kana":"キョウトフ","city":"京都市中京区","city_kana":"キョウトシナカギョウク","town":"大文字町御池通御幸町東入","town_kana":"ダイモンジチョウ","prefecture_code":26},{"zip_code":"6048095","prefecture":"京都府","prefecture_kana":"キョウトフ","city":"京都市中京区","city_kana":"キョウトシナカギョウク","town":"大文字町姉小路通御幸町西入","town_kana":"ダイモンジチョウ","prefecture_code":26},{"zip_code":"6048095","prefecture":"京都府","prefecture_kana":"キョウトフ","city":"京都市中京区","city_kana":"キョウトシナカギョウク","town":"大文字町姉小路通御幸町東入","town_kana":"ダイモンジチョウ","prefecture_code":26}],"8315":[{"zip_code":"6048315","prefecture":"京都府","prefecture_kana":"キョウトフ","city":"京都市中京区","city_kana":"キョウトシナカギョウク","town":"大文字町黒門通御池下る","town_kana":"ダイモンジチョウ","prefecture_code":26},{"zip_code":"6048315","prefecture":"京都府","prefecture_kana":"キョウトフ","city":"京都市中京区","city_kana":"キョウトシナカギョウク","town":"大文字町黒門通姉小路上る","town_kana":"ダイモンジチョウ","prefecture_code":26},{"zip_code":"6048315","prefecture":"京都府","prefecture_kana":"キョウトフ","city":"京都市中京区","city_kana":"キョウトシナカギョウク","town":"大文字町御池通黒門西入","town_kana":"ダイモンジチョウ","prefecture_code":26},{"zip_code":"6048315","prefecture":"京都府","prefecture_kana":"キョウトフ","city":"京都市中京区","city_kana":"キョウトシナカギョウク","town":"大文字町御池通黒門東入","town_kana":"ダイモンジチョウ","prefecture_code":26},{"zip_code":"6048315","prefecture":"京都府","prefecture_kana":"キョウトフ","city":"京都市中京区","city_kana":"キョウトシナカギョウク","town":"大文字町御池通猪熊西入","town_kana":"ダイモンジチョウ","prefecture_code":26}],"0834":{"zip_code":"6040834","prefecture":"京都府","prefecture_kana":"キョウトフ","city":"京都市中京区","city_kana":"キョウトシナカギョウク","town":"高田町","town_kana":"タカダチョウ","prefecture_code":26},"0835":[{"zip_code":"6040835","prefecture":"京都府","prefecture_kana":"キョウトフ","city":"京都市中京区","city_kana":"キョウトシナカギョウク","town":"高宮町御池通高倉西入","town_kana":"タカミヤチョウ","prefecture_code":26},{"zip_code":"6040835","prefecture":"京都府","prefecture_kana":"キョウトフ","city":"京都市中京区","city_kana":"キョウトシナカギョウク","town":"高宮町御池通東洞院東入","town_kana":"タカミヤチョウ","prefecture_code":26},{"zip_code":"6040835","prefecture":"京都府","prefecture_kana":"キョウトフ","city":"京都市中京区","city_kana":"キョウトシナカギョウク","town":"高宮町御池通間之町東入","town_kana":"タカミヤチョウ","prefecture_code":26},{"zip_code":"6040835","prefecture":"京都府","prefecture_kana":"キョウトフ","city":"京都市中京区","city_kana":"キョウトシナカギョウク","town":"高宮町御池通間之町西入","town_kana":"タカミヤチョウ","prefecture_code":26}],"8056":[{"zip_code":"6048056","prefecture":"京都府","prefecture_kana":"キョウトフ","city":"京都市中京区","city_kana":"キョウトシナカギョウク","town":"高宮町富小路通錦小路上る","town_kana":"タカミヤチョウトミノコウジドオリニシキコウジアガル","prefecture_code":26},{"zip_code":"6048056","prefecture":"京都府","prefecture_kana":"キョウトフ","city":"京都市中京区","city_kana":"キョウトシナカギョウク","town":"高宮町富小路通蛸薬師下る","town_kana":"タカミヤチョウトミノコウジドオリタコヤクシサガル","prefecture_code":26}],"8153":{"zip_code":"6048153","prefecture":"京都府","prefecture_kana":"キョウトフ","city":"京都市中京区","city_kana":"キョウトシナカギョウク","town":"笋町","town_kana":"タカンナチョウ","prefecture_code":26},"0823":{"zip_code":"6040823","prefecture":"京都府","prefecture_kana":"キョウトフ","city":"京都市中京区","city_kana":"キョウトシナカギョウク","town":"竹屋町","town_kana":"タケヤチョウ","prefecture_code":26},"0021":{"zip_code":"6040021","prefecture":"京都府","prefecture_kana":"キョウトフ","city":"京都市中京区","city_kana":"キョウトシナカギョウク","town":"蛸薬師町","town_kana":"タコヤクシチョウ","prefecture_code":26},"8062":{"zip_code":"6048062","prefecture":"京都府","prefecture_kana":"キョウトフ","city":"京都市中京区","city_kana":"キョウトシナカギョウク","town":"蛸屋町","town_kana":"タコヤチョウ","prefecture_code":26},"8351":{"zip_code":"6048351","prefecture":"京都府","prefecture_kana":"キョウトフ","city":"京都市中京区","city_kana":"キョウトシナカギョウク","town":"畳屋町","town_kana":"タタミヤチョウ","prefecture_code":26},"0802":[{"zip_code":"6040802","prefecture":"京都府","prefecture_kana":"キョウトフ","city":"京都市中京区","city_kana":"キョウトシナカギョウク","town":"橘町堺町通丸太町下る","town_kana":"タチバナチョウ","prefecture_code":26},{"zip_code":"6040802","prefecture":"京都府","prefecture_kana":"キョウトフ","city":"京都市中京区","city_kana":"キョウトシナカギョウク","town":"橘町堺町通竹屋町上る","town_kana":"タチバナチョウ","prefecture_code":26},{"zip_code":"6040802","prefecture":"京都府","prefecture_kana":"キョウトフ","city":"京都市中京区","city_kana":"キョウトシナカギョウク","town":"橘町竹屋町通堺町西入","town_kana":"タチバナチョウ","prefecture_code":26},{"zip_code":"6040802","prefecture":"京都府","prefecture_kana":"キョウトフ","city":"京都市中京区","city_kana":"キョウトシナカギョウク","town":"橘町竹屋町通堺町東入","town_kana":"タチバナチョウ","prefecture_code":26}],"0944":[{"zip_code":"6040944","prefecture":"京都府","prefecture_kana":"キョウトフ","city":"京都市中京区","city_kana":"キョウトシナカギョウク","town":"橘町押小路通御幸町西入","town_kana":"タチバナチョウ","prefecture_code":26},{"zip_code":"6040944","prefecture":"京都府","prefecture_kana":"キョウトフ","city":"京都市中京区","city_kana":"キョウトシナカギョウク","town":"橘町押小路通麩屋町西入","town_kana":"タチバナチョウ","prefecture_code":26},{"zip_code":"6040944","prefecture":"京都府","prefecture_kana":"キョウトフ","city":"京都市中京区","city_kana":"キョウトシナカギョウク","town":"橘町押小路通麩屋町東入","town_kana":"タチバナチョウ","prefecture_code":26},{"zip_code":"6040944","prefecture":"京都府","prefecture_kana":"キョウトフ","city":"京都市中京区","city_kana":"キョウトシナカギョウク","town":"橘町押小路通富小路西入","town_kana":"タチバナチョウ","prefecture_code":26},{"zip_code":"6040944","prefecture":"京都府","prefecture_kana":"キョウトフ","city":"京都市中京区","city_kana":"キョウトシナカギョウク","town":"橘町押小路通富小路東入","town_kana":"タチバナチョウ","prefecture_code":26},{"zip_code":"6040944","prefecture":"京都府","prefecture_kana":"キョウトフ","city":"京都市中京区","city_kana":"キョウトシナカギョウク","town":"橘町押小路通柳馬場東入","town_kana":"タチバナチョウ","prefecture_code":26}],"0914":{"zip_code":"6040914","prefecture":"京都府","prefecture_kana":"キョウトフ","city":"京都市中京区","city_kana":"キョウトシナカギョウク","town":"橘柳町","town_kana":"タチバナヤナギチョウ","prefecture_code":26},"8176":{"zip_code":"6048176","prefecture":"京都府","prefecture_kana":"キョウトフ","city":"京都市中京区","city_kana":"キョウトシナカギョウク","town":"龍池町","town_kana":"タツイケチョウ","prefecture_code":26},"0012":{"zip_code":"6040012","prefecture":"京都府","prefecture_kana":"キョウトフ","city":"京都市中京区","city_kana":"キョウトシナカギョウク","town":"竪大恩寺町","town_kana":"タテダイオンジチョウ","prefecture_code":26},"0081":{"zip_code":"6040081","prefecture":"京都府","prefecture_kana":"キョウトフ","city":"京都市中京区","city_kana":"キョウトシナカギョウク","town":"田中町","town_kana":"タナカチョウ","prefecture_code":26},"0005":{"zip_code":"6040005","prefecture":"京都府","prefecture_kana":"キョウトフ","city":"京都市中京区","city_kana":"キョウトシナカギョウク","town":"玉植町","town_kana":"タマウエチョウ","prefecture_code":26},"8211":{"zip_code":"6048211","prefecture":"京都府","prefecture_kana":"キョウトフ","city":"京都市中京区","city_kana":"キョウトシナカギョウク","town":"玉蔵町","town_kana":"タマクラチョウ","prefecture_code":26},"0962":{"zip_code":"6040962","prefecture":"京都府","prefecture_kana":"キョウトフ","city":"京都市中京区","city_kana":"キョウトシナカギョウク","town":"達磨町","town_kana":"ダルマチョウ","prefecture_code":26},"8322":{"zip_code":"6048322","prefecture":"京都府","prefecture_kana":"キョウトフ","city":"京都市中京区","city_kana":"キョウトシナカギョウク","town":"樽屋町","town_kana":"タルヤチョウ","prefecture_code":26},"0952":[{"zip_code":"6040952","prefecture":"京都府","prefecture_kana":"キョウトフ","city":"京都市中京区","city_kana":"キョウトシナカギョウク","town":"俵屋町富小路通二条下る","town_kana":"タワラヤチョウトミノコウジドオリ2ジョウサガル","prefecture_code":26},{"zip_code":"6040952","prefecture":"京都府","prefecture_kana":"キョウトフ","city":"京都市中京区","city_kana":"キョウトシナカギョウク","town":"俵屋町富小路通押小路上る","town_kana":"タワラヤチョウトミノコウジドオリオシコウジアガル","prefecture_code":26}],"0966":[{"zip_code":"6040966","prefecture":"京都府","prefecture_kana":"キョウトフ","city":"京都市中京区","city_kana":"キョウトシナカギョウク","town":"俵屋町夷川通富小路西入","town_kana":"タワラヤチョウエビスガワドオリトミノコウジニシイル","prefecture_code":26},{"zip_code":"6040966","prefecture":"京都府","prefecture_kana":"キョウトフ","city":"京都市中京区","city_kana":"キョウトシナカギョウク","town":"俵屋町夷川通柳馬場東入","town_kana":"タワラヤチョウエビスガワドオリヤナギノバンバヒガシイル","prefecture_code":26}],"8311":[{"zip_code":"6048311","prefecture":"京都府","prefecture_kana":"キョウトフ","city":"京都市中京区","city_kana":"キョウトシナカギョウク","town":"俵屋町御池通猪熊西入","town_kana":"タワラヤチョウオイケドオリイノクマニシイル","prefecture_code":26},{"zip_code":"6048311","prefecture":"京都府","prefecture_kana":"キョウトフ","city":"京都市中京区","city_kana":"キョウトシナカギョウク","town":"俵屋町御池通黒門東入","town_kana":"タワラヤチョウオイケドオリクロモンヒガシイル","prefecture_code":26}],"8133":{"zip_code":"6048133","prefecture":"京都府","prefecture_kana":"キョウトフ","city":"京都市中京区","city_kana":"キョウトシナカギョウク","town":"滕屋町","town_kana":"チギリヤチョウ","prefecture_code":26},"0935":{"zip_code":"6040935","prefecture":"京都府","prefecture_kana":"キョウトフ","city":"京都市中京区","city_kana":"キョウトシナカギョウク","town":"丁子屋町","town_kana":"チョウジヤチョウ","prefecture_code":26},"8271":{"zip_code":"6048271","prefecture":"京都府","prefecture_kana":"キョウトフ","city":"京都市中京区","city_kana":"キョウトシナカギョウク","town":"津軽町","town_kana":"ツガルチョウ","prefecture_code":26},"8202":[{"zip_code":"6048202","prefecture":"京都府","prefecture_kana":"キョウトフ","city":"京都市中京区","city_kana":"キョウトシナカギョウク","town":"突抜町衣棚通姉小路下る","town_kana":"ツキヌケチョウ","prefecture_code":26},{"zip_code":"6048202","prefecture":"京都府","prefecture_kana":"キョウトフ","city":"京都市中京区","city_kana":"キョウトシナカギョウク","town":"突抜町衣棚通三条上る","town_kana":"ツキヌケチョウ","prefecture_code":26},{"zip_code":"6048202","prefecture":"京都府","prefecture_kana":"キョウトフ","city":"京都市中京区","city_kana":"キョウトシナカギョウク","town":"突抜町姉小路通室町西入","town_kana":"ツキヌケチョウ","prefecture_code":26},{"zip_code":"6048202","prefecture":"京都府","prefecture_kana":"キョウトフ","city":"京都市中京区","city_kana":"キョウトシナカギョウク","town":"突抜町姉小路通衣棚西入","town_kana":"ツキヌケチョウ","prefecture_code":26},{"zip_code":"6048202","prefecture":"京都府","prefecture_kana":"キョウトフ","city":"京都市中京区","city_kana":"キョウトシナカギョウク","town":"突抜町姉小路通衣棚東入","town_kana":"ツキヌケチョウ","prefecture_code":26},{"zip_code":"6048202","prefecture":"京都府","prefecture_kana":"キョウトフ","city":"京都市中京区","city_kana":"キョウトシナカギョウク","town":"突抜町姉小路通新町東入","town_kana":"ツキヌケチョウ","prefecture_code":26}],"8272":[{"zip_code":"6048272","prefecture":"京都府","prefecture_kana":"キョウトフ","city":"京都市中京区","city_kana":"キョウトシナカギョウク","town":"突抜町釜座通姉小路下る","town_kana":"ツキヌケチョウ","prefecture_code":26},{"zip_code":"6048272","prefecture":"京都府","prefecture_kana":"キョウトフ","city":"京都市中京区","city_kana":"キョウトシナカギョウク","town":"突抜町釜座通三条上る","town_kana":"ツキヌケチョウ","prefecture_code":26},{"zip_code":"6048272","prefecture":"京都府","prefecture_kana":"キョウトフ","city":"京都市中京区","city_kana":"キョウトシナカギョウク","town":"突抜町姉小路通新町西入","town_kana":"ツキヌケチョウ","prefecture_code":26},{"zip_code":"6048272","prefecture":"京都府","prefecture_kana":"キョウトフ","city":"京都市中京区","city_kana":"キョウトシナカギョウク","town":"突抜町姉小路通釜座西入","town_kana":"ツキヌケチョウ","prefecture_code":26},{"zip_code":"6048272","prefecture":"京都府","prefecture_kana":"キョウトフ","city":"京都市中京区","city_kana":"キョウトシナカギョウク","town":"突抜町姉小路通釜座東入","town_kana":"ツキヌケチョウ","prefecture_code":26},{"zip_code":"6048272","prefecture":"京都府","prefecture_kana":"キョウトフ","city":"京都市中京区","city_kana":"キョウトシナカギョウク","town":"突抜町姉小路通西洞院東入","town_kana":"ツキヌケチョウ","prefecture_code":26}],"0055":{"zip_code":"6040055","prefecture":"京都府","prefecture_kana":"キョウトフ","city":"京都市中京区","city_kana":"キョウトシナカギョウク","town":"土橋町","town_kana":"ツチバシチョウ","prefecture_code":26},"0061":[{"zip_code":"6040061","prefecture":"京都府","prefecture_kana":"キョウトフ","city":"京都市中京区","city_kana":"キョウトシナカギョウク","town":"槌屋町小川通夷川下る","town_kana":"ツチヤチョウオガワドオリエビスガワサガル","prefecture_code":26},{"zip_code":"6040061","prefecture":"京都府","prefecture_kana":"キョウトフ","city":"京都市中京区","city_kana":"キョウトシナカギョウク","town":"槌屋町小川通二条上る","town_kana":"ツチヤチョウオガワドオリ2ジョウアガル","prefecture_code":26}],"8112":[{"zip_code":"6048112","prefecture":"京都府","prefecture_kana":"キョウトフ","city":"京都市中京区","city_kana":"キョウトシナカギョウク","town":"槌屋町柳馬場通三条下る","town_kana":"ツチヤチョウ","prefecture_code":26},{"zip_code":"6048112","prefecture":"京都府","prefecture_kana":"キョウトフ","city":"京都市中京区","city_kana":"キョウトシナカギョウク","town":"槌屋町柳馬場通六角上る","town_kana":"ツチヤチョウ","prefecture_code":26},{"zip_code":"6048112","prefecture":"京都府","prefecture_kana":"キョウトフ","city":"京都市中京区","city_kana":"キョウトシナカギョウク","town":"槌屋町六角通柳馬場西入","town_kana":"ツチヤチョウ","prefecture_code":26},{"zip_code":"6048112","prefecture":"京都府","prefecture_kana":"キョウトフ","city":"京都市中京区","city_kana":"キョウトシナカギョウク","town":"槌屋町六角通柳馬場東入","town_kana":"ツチヤチョウ","prefecture_code":26}],"0814":[{"zip_code":"6040814","prefecture":"京都府","prefecture_kana":"キョウトフ","city":"京都市中京区","city_kana":"キョウトシナカギョウク","town":"壺屋町東洞院通夷川下る","town_kana":"ツボヤチョウ","prefecture_code":26},{"zip_code":"6040814","prefecture":"京都府","prefecture_kana":"キョウトフ","city":"京都市中京区","city_kana":"キョウトシナカギョウク","town":"壺屋町東洞院通二条上る","town_kana":"ツボヤチョウ","prefecture_code":26},{"zip_code":"6040814","prefecture":"京都府","prefecture_kana":"キョウトフ","city":"京都市中京区","city_kana":"キョウトシナカギョウク","town":"壺屋町夷川通東洞院西入","town_kana":"ツボヤチョウ","prefecture_code":26},{"zip_code":"6040814","prefecture":"京都府","prefecture_kana":"キョウトフ","city":"京都市中京区","city_kana":"キョウトシナカギョウク","town":"壺屋町夷川通東洞院東入","town_kana":"ツボヤチョウ","prefecture_code":26}],"8255":[{"zip_code":"6048255","prefecture":"京都府","prefecture_kana":"キョウトフ","city":"京都市中京区","city_kana":"キョウトシナカギョウク","town":"壺屋町堀川通六角下る","town_kana":"ツボヤチョウホリカワドオリロッカクサガル","prefecture_code":26},{"zip_code":"6048255","prefecture":"京都府","prefecture_kana":"キョウトフ","city":"京都市中京区","city_kana":"キョウトシナカギョウク","town":"壺屋町六角通堀川東入","town_kana":"ツボヤチョウロッカクドオリホリカワヒガシイル","prefecture_code":26},{"zip_code":"6048255","prefecture":"京都府","prefecture_kana":"キョウトフ","city":"京都市中京区","city_kana":"キョウトシナカギョウク","town":"壺屋町堀川通蛸薬師上る","town_kana":"ツボヤチョウホリカワドオリタコヤクシアガル","prefecture_code":26}],"8276":[{"zip_code":"6048276","prefecture":"京都府","prefecture_kana":"キョウトフ","city":"京都市中京区","city_kana":"キョウトシナカギョウク","town":"壺屋町小川通御池下る","town_kana":"ツボヤチョウオガワドオリオイケサガル","prefecture_code":26},{"zip_code":"6048276","prefecture":"京都府","prefecture_kana":"キョウトフ","city":"京都市中京区","city_kana":"キョウトシナカギョウク","town":"壺屋町小川通姉小路上る","town_kana":"ツボヤチョウオガワドオリアネヤコウジアガル","prefecture_code":26}],"8152":{"zip_code":"6048152","prefecture":"京都府","prefecture_kana":"キョウトフ","city":"京都市中京区","city_kana":"キョウトシナカギョウク","town":"手洗水町","town_kana":"テアライミズチョウ","prefecture_code":26},"0812":{"zip_code":"6040812","prefecture":"京都府","prefecture_kana":"キョウトフ","city":"京都市中京区","city_kana":"キョウトシナカギョウク","town":"天守町","town_kana":"テンシュチョウ","prefecture_code":26},"8081":{"zip_code":"6048081","prefecture":"京都府","prefecture_kana":"キョウトフ","city":"京都市中京区","city_kana":"キョウトシナカギョウク","town":"天性寺前町","town_kana":"テンショウジマエチョウ","prefecture_code":26},"8221":{"zip_code":"6048221","prefecture":"京都府","prefecture_kana":"キョウトフ","city":"京都市中京区","city_kana":"キョウトシナカギョウク","town":"天神山町","town_kana":"テンジンヤマチョウ","prefecture_code":26},"0956":{"zip_code":"6040956","prefecture":"京都府","prefecture_kana":"キョウトフ","city":"京都市中京区","city_kana":"キョウトシナカギョウク","town":"等持寺町","town_kana":"トウジジチョウ","prefecture_code":26},"0001":{"zip_code":"6040001","prefecture":"京都府","prefecture_kana":"キョウトフ","city":"京都市中京区","city_kana":"キョウトシナカギョウク","town":"道場町","town_kana":"ドウジョウチョウ","prefecture_code":26},"8134":{"zip_code":"6048134","prefecture":"京都府","prefecture_kana":"キョウトフ","city":"京都市中京区","city_kana":"キョウトシナカギョウク","town":"堂之前町","town_kana":"ドウノマエチョウ","prefecture_code":26},"8118":{"zip_code":"6048118","prefecture":"京都府","prefecture_kana":"キョウトフ","city":"京都市中京区","city_kana":"キョウトシナカギョウク","town":"道祐町","town_kana":"ドウユウチョウ","prefecture_code":26},"8225":{"zip_code":"6048225","prefecture":"京都府","prefecture_kana":"キョウトフ","city":"京都市中京区","city_kana":"キョウトシナカギョウク","town":"蟷螂山町","town_kana":"トウロウヤマチョウ","prefecture_code":26},"0915":{"zip_code":"6040915","prefecture":"京都府","prefecture_kana":"キョウトフ","city":"京都市中京区","city_kana":"キョウトシナカギョウク","town":"常盤木町","town_kana":"トキワギチョウ","prefecture_code":26},"0863":{"zip_code":"6040863","prefecture":"京都府","prefecture_kana":"キョウトフ","city":"京都市中京区","city_kana":"キョウトシナカギョウク","town":"巴町","town_kana":"トモエチョウ","prefecture_code":26},"0955":{"zip_code":"6040955","prefecture":"京都府","prefecture_kana":"キョウトフ","city":"京都市中京区","city_kana":"キョウトシナカギョウク","town":"虎石町","town_kana":"トライシチョウ","prefecture_code":26},"8171":{"zip_code":"6048171","prefecture":"京都府","prefecture_kana":"キョウトフ","city":"京都市中京区","city_kana":"キョウトシナカギョウク","town":"虎屋町","town_kana":"トラヤチョウ","prefecture_code":26},"8184":{"zip_code":"6048184","prefecture":"京都府","prefecture_kana":"キョウトフ","city":"京都市中京区","city_kana":"キョウトシナカギョウク","town":"曇華院前町","town_kana":"ドンゲインマエチョウ","prefecture_code":26},"8125":{"zip_code":"6048125","prefecture":"京都府","prefecture_kana":"キョウトフ","city":"京都市中京区","city_kana":"キョウトシナカギョウク","town":"中魚屋町","town_kana":"ナカウオヤチョウ","prefecture_code":26},"8004":{"zip_code":"6048004","prefecture":"京都府","prefecture_kana":"キョウトフ","city":"京都市中京区","city_kana":"キョウトシナカギョウク","town":"中島町","town_kana":"ナカジマチョウ","prefecture_code":26},"8047":{"zip_code":"6048047","prefecture":"京都府","prefecture_kana":"キョウトフ","city":"京都市中京区","city_kana":"キョウトシナカギョウク","town":"中筋町","town_kana":"ナカスジチョウ","prefecture_code":26},"0032":[{"zip_code":"6040032","prefecture":"京都府","prefecture_kana":"キョウトフ","city":"京都市中京区","city_kana":"キョウトシナカギョウク","town":"中之町新町通御池上る","town_kana":"ナカノチョウシンマチドオリオイケアガル","prefecture_code":26},{"zip_code":"6040032","prefecture":"京都府","prefecture_kana":"キョウトフ","city":"京都市中京区","city_kana":"キョウトシナカギョウク","town":"中之町新町通押小路下る","town_kana":"ナカノチョウシンマチドオリオシコウジサガル","prefecture_code":26}],"0086":[{"zip_code":"6040086","prefecture":"京都府","prefecture_kana":"キョウトフ","city":"京都市中京区","city_kana":"キョウトシナカギョウク","town":"中之町小川通丸太町下る","town_kana":"ナカノチョウオガワドオリマルタマチサガル","prefecture_code":26},{"zip_code":"6040086","prefecture":"京都府","prefecture_kana":"キョウトフ","city":"京都市中京区","city_kana":"キョウトシナカギョウク","town":"中之町小川通竹屋町上る","town_kana":"ナカノチョウオガワドオリタケヤマチアガル","prefecture_code":26}],"8042":[{"zip_code":"6048042","prefecture":"京都府","prefecture_kana":"キョウトフ","city":"京都市中京区","city_kana":"キョウトシナカギョウク","town":"中之町寺町通錦小路下る","town_kana":"ナカノチョウ","prefecture_code":26},{"zip_code":"6048042","prefecture":"京都府","prefecture_kana":"キョウトフ","city":"京都市中京区","city_kana":"キョウトシナカギョウク","town":"中之町寺町通四条上る","town_kana":"ナカノチョウ","prefecture_code":26},{"zip_code":"6048042","prefecture":"京都府","prefecture_kana":"キョウトフ","city":"京都市中京区","city_kana":"キョウトシナカギョウク","town":"中之町新京極通錦小路下る","town_kana":"ナカノチョウ","prefecture_code":26},{"zip_code":"6048042","prefecture":"京都府","prefecture_kana":"キョウトフ","city":"京都市中京区","city_kana":"キョウトシナカギョウク","town":"中之町新京極通四条上る","town_kana":"ナカノチョウ","prefecture_code":26},{"zip_code":"6048042","prefecture":"京都府","prefecture_kana":"キョウトフ","city":"京都市中京区","city_kana":"キョウトシナカギョウク","town":"中之町錦小路通寺町東入","town_kana":"ナカノチョウ","prefecture_code":26},{"zip_code":"6048042","prefecture":"京都府","prefecture_kana":"キョウトフ","city":"京都市中京区","city_kana":"キョウトシナカギョウク","town":"中之町裏寺町通蛸薬師下る","town_kana":"ナカノチョウ","prefecture_code":26},{"zip_code":"6048042","prefecture":"京都府","prefecture_kana":"キョウトフ","city":"京都市中京区","city_kana":"キョウトシナカギョウク","town":"中之町裏寺町通四条上る","town_kana":"ナカノチョウ","prefecture_code":26}],"8083":[{"zip_code":"6048083","prefecture":"京都府","prefecture_kana":"キョウトフ","city":"京都市中京区","city_kana":"キョウトシナカギョウク","town":"中之町三条通麩屋町西入","town_kana":"ナカノチョウ","prefecture_code":26},{"zip_code":"6048083","prefecture":"京都府","prefecture_kana":"キョウトフ","city":"京都市中京区","city_kana":"キョウトシナカギョウク","town":"中之町三条通富小路西入","town_kana":"ナカノチョウ","prefecture_code":26},{"zip_code":"6048083","prefecture":"京都府","prefecture_kana":"キョウトフ","city":"京都市中京区","city_kana":"キョウトシナカギョウク","town":"中之町三条通富小路東入","town_kana":"ナカノチョウ","prefecture_code":26},{"zip_code":"6048083","prefecture":"京都府","prefecture_kana":"キョウトフ","city":"京都市中京区","city_kana":"キョウトシナカギョウク","town":"中之町三条通柳馬場東入","town_kana":"ナカノチョウ","prefecture_code":26},{"zip_code":"6048083","prefecture":"京都府","prefecture_kana":"キョウトフ","city":"京都市中京区","city_kana":"キョウトシナカギョウク","town":"中之町富小路通三条下る","town_kana":"ナカノチョウ","prefecture_code":26}],"8094":{"zip_code":"6048094","prefecture":"京都府","prefecture_kana":"キョウトフ","city":"京都市中京区","city_kana":"キョウトシナカギョウク","town":"中白山町","town_kana":"ナカハクサンチョウ","prefecture_code":26},"8201":{"zip_code":"6048201","prefecture":"京都府","prefecture_kana":"キョウトフ","city":"京都市中京区","city_kana":"キョウトシナカギョウク","town":"長浜町","town_kana":"ナガハマチョウ","prefecture_code":26},"0844":{"zip_code":"6040844","prefecture":"京都府","prefecture_kana":"キョウトフ","city":"京都市中京区","city_kana":"キョウトシナカギョウク","town":"仲保利町","town_kana":"ナカホリチョウ","prefecture_code":26},"0076":{"zip_code":"6040076","prefecture":"京都府","prefecture_kana":"キョウトフ","city":"京都市中京区","city_kana":"キョウトシナカギョウク","town":"七町目","town_kana":"ナナチョウメ","prefecture_code":26},"8015":{"zip_code":"6048015","prefecture":"京都府","prefecture_kana":"キョウトフ","city":"京都市中京区","city_kana":"キョウトシナカギョウク","town":"鍋屋町","town_kana":"ナベヤチョウ","prefecture_code":26},"8033":{"zip_code":"6048033","prefecture":"京都府","prefecture_kana":"キョウトフ","city":"京都市中京区","city_kana":"キョウトシナカギョウク","town":"奈良屋町","town_kana":"ナラヤチョウ","prefecture_code":26},"0854":{"zip_code":"6040854","prefecture":"京都府","prefecture_kana":"キョウトフ","city":"京都市中京区","city_kana":"キョウトシナカギョウク","town":"仁王門町","town_kana":"ニオウモンチョウ","prefecture_code":26},"0841":{"zip_code":"6040841","prefecture":"京都府","prefecture_kana":"キョウトフ","city":"京都市中京区","city_kana":"キョウトシナカギョウク","town":"仁王門突抜町","town_kana":"ニオウモンツキヌケチョウ","prefecture_code":26},"0921":{"zip_code":"6040921","prefecture":"京都府","prefecture_kana":"キョウトフ","city":"京都市中京区","city_kana":"キョウトシナカギョウク","town":"西生洲町","town_kana":"ニシイケスチョウ","prefecture_code":26},"8142":{"zip_code":"6048142","prefecture":"京都府","prefecture_kana":"キョウトフ","city":"京都市中京区","city_kana":"キョウトシナカギョウク","town":"西魚屋町","town_kana":"ニシウオヤチョウ","prefecture_code":26},"0073":{"zip_code":"6040073","prefecture":"京都府","prefecture_kana":"キョウトフ","city":"京都市中京区","city_kana":"キョウトシナカギョウク","town":"西夷川町","town_kana":"ニシエビスガワチョウ","prefecture_code":26},"0842":{"zip_code":"6040842","prefecture":"京都府","prefecture_kana":"キョウトフ","city":"京都市中京区","city_kana":"キョウトシナカギョウク","town":"西押小路町","town_kana":"ニシオシコウジチョウ","prefecture_code":26},"8363":{"zip_code":"6048363","prefecture":"京都府","prefecture_kana":"キョウトフ","city":"京都市中京区","city_kana":"キョウトシナカギョウク","town":"錦猪熊町","town_kana":"ニシキイノクマチョウ","prefecture_code":26},"8365":{"zip_code":"6048365","prefecture":"京都府","prefecture_kana":"キョウトフ","city":"京都市中京区","city_kana":"キョウトシナカギョウク","town":"錦大宮町","town_kana":"ニシキオオミヤチョウ","prefecture_code":26},"8235":{"zip_code":"6048235","prefecture":"京都府","prefecture_kana":"キョウトフ","city":"京都市中京区","city_kana":"キョウトシナカギョウク","town":"錦堀川町","town_kana":"ニシキホリカワチョウ","prefecture_code":26},"0851":{"zip_code":"6040851","prefecture":"京都府","prefecture_kana":"キョウトフ","city":"京都市中京区","city_kana":"キョウトシナカギョウク","town":"西九軒町","town_kana":"ニシキュウケンチョウ","prefecture_code":26},"0904":{"zip_code":"6040904","prefecture":"京都府","prefecture_kana":"キョウトフ","city":"京都市中京区","city_kana":"キョウトシナカギョウク","town":"西革堂町","town_kana":"ニシコウドウチョウ","prefecture_code":26},"8265":{"zip_code":"6048265","prefecture":"京都府","prefecture_kana":"キョウトフ","city":"京都市中京区","city_kana":"キョウトシナカギョウク","town":"西三坊堀川町","town_kana":"ニシサンボウホリカワチョウ","prefecture_code":26},"0063":{"zip_code":"6040063","prefecture":"京都府","prefecture_kana":"キョウトフ","city":"京都市中京区","city_kana":"キョウトシナカギョウク","town":"西大黒町","town_kana":"ニシダイコクチョウ","prefecture_code":26},"8054":{"zip_code":"6048054","prefecture":"京都府","prefecture_kana":"キョウトフ","city":"京都市中京区","city_kana":"キョウトシナカギョウク","town":"西大文字町","town_kana":"ニシダイモンジチョウ","prefecture_code":26},"0075":{"zip_code":"6040075","prefecture":"京都府","prefecture_kana":"キョウトフ","city":"京都市中京区","city_kana":"キョウトシナカギョウク","town":"西竹屋町","town_kana":"ニシタケヤチョウ","prefecture_code":26},"8226":{"zip_code":"6048226","prefecture":"京都府","prefecture_kana":"キョウトフ","city":"京都市中京区","city_kana":"キョウトシナカギョウク","town":"西錦小路町","town_kana":"ニシニシキコウジチョウ","prefecture_code":26},"8375":{"zip_code":"6048375","prefecture":"京都府","prefecture_kana":"キョウトフ","city":"京都市中京区","city_kana":"キョウトシナカギョウク","town":"西ノ京池ノ内町","town_kana":"ニシノキョウイケノウチチョウ","prefecture_code":26},"8417":{"zip_code":"6048417","prefecture":"京都府","prefecture_kana":"キョウトフ","city":"京都市中京区","city_kana":"キョウトシナカギョウク","town":"西ノ京内畑町","town_kana":"ニシノキョウウチハタチョウ","prefecture_code":26},"8492":{"zip_code":"6048492","prefecture":"京都府","prefecture_kana":"キョウトフ","city":"京都市中京区","city_kana":"キョウトシナカギョウク","town":"西ノ京右馬寮町","town_kana":"ニシノキョウウマリョウチョウ","prefecture_code":26},"8463":{"zip_code":"6048463","prefecture":"京都府","prefecture_kana":"キョウトフ","city":"京都市中京区","city_kana":"キョウトシナカギョウク","town":"西ノ京円町","town_kana":"ニシノキョウエンマチ","prefecture_code":26},"8467":{"zip_code":"6048467","prefecture":"京都府","prefecture_kana":"キョウトフ","city":"京都市中京区","city_kana":"キョウトシナカギョウク","town":"西ノ京大炊御門町","town_kana":"ニシノキョウオオイゴモンチョウ","prefecture_code":26},"8414":{"zip_code":"6048414","prefecture":"京都府","prefecture_kana":"キョウトフ","city":"京都市中京区","city_kana":"キョウトシナカギョウク","town":"西ノ京小倉町","town_kana":"ニシノキョウオグラチョウ","prefecture_code":26},"8482":{"zip_code":"6048482","prefecture":"京都府","prefecture_kana":"キョウトフ","city":"京都市中京区","city_kana":"キョウトシナカギョウク","town":"西ノ京笠殿町","town_kana":"ニシノキョウカサドノチョウ","prefecture_code":26},"8453":{"zip_code":"6048453","prefecture":"京都府","prefecture_kana":"キョウトフ","city":"京都市中京区","city_kana":"キョウトシナカギョウク","town":"西ノ京春日町","town_kana":"ニシノキョウカスガチョウ","prefecture_code":26},"8484":{"zip_code":"6048484","prefecture":"京都府","prefecture_kana":"キョウトフ","city":"京都市中京区","city_kana":"キョウトシナカギョウク","town":"西ノ京上合町","town_kana":"ニシノキョウカミアイチョウ","prefecture_code":26},"8494":{"zip_code":"6048494","prefecture":"京都府","prefecture_kana":"キョウトフ","city":"京都市中京区","city_kana":"キョウトシナカギョウク","town":"西ノ京上平町","town_kana":"ニシノキョウカミヒラチョウ","prefecture_code":26},"8413":{"zip_code":"6048413","prefecture":"京都府","prefecture_kana":"キョウトフ","city":"京都市中京区","city_kana":"キョウトシナカギョウク","town":"西ノ京勧学院町","town_kana":"ニシノキョウカンガクインチョウ","prefecture_code":26},"8462":{"zip_code":"6048462","prefecture":"京都府","prefecture_kana":"キョウトフ","city":"京都市中京区","city_kana":"キョウトシナカギョウク","town":"西ノ京北円町","town_kana":"ニシノキョウキタエンマチ","prefecture_code":26},"8433":{"zip_code":"6048433","prefecture":"京都府","prefecture_kana":"キョウトフ","city":"京都市中京区","city_kana":"キョウトシナカギョウク","town":"西ノ京北小路町","town_kana":"ニシノキョウキタコウジチョウ","prefecture_code":26},"8472":{"zip_code":"6048472","prefecture":"京都府","prefecture_kana":"キョウトフ","city":"京都市中京区","city_kana":"キョウトシナカギョウク","town":"西ノ京北壺井町","town_kana":"ニシノキョウキタツボイチョウ","prefecture_code":26},"8405":{"zip_code":"6048405","prefecture":"京都府","prefecture_kana":"キョウトフ","city":"京都市中京区","city_kana":"キョウトシナカギョウク","town":"西ノ京車坂町","town_kana":"ニシノキョウクルマザカチョウ","prefecture_code":26},"8442":{"zip_code":"6048442","prefecture":"京都府","prefecture_kana":"キョウトフ","city":"京都市中京区","city_kana":"キョウトシナカギョウク","town":"西ノ京桑原町","town_kana":"ニシノキョウクワバラチョウ","prefecture_code":26},"8454":{"zip_code":"6048454","prefecture":"京都府","prefecture_kana":"キョウトフ","city":"京都市中京区","city_kana":"キョウトシナカギョウク","town":"西ノ京小堀池町","town_kana":"ニシノキョウコボリイケチョウ","prefecture_code":26},"8383":{"zip_code":"6048383","prefecture":"京都府","prefecture_kana":"キョウトフ","city":"京都市中京区","city_kana":"キョウトシナカギョウク","town":"西ノ京小堀町","town_kana":"ニシノキョウコボリチョウ","prefecture_code":26},"8491":{"zip_code":"6048491","prefecture":"京都府","prefecture_kana":"キョウトフ","city":"京都市中京区","city_kana":"キョウトシナカギョウク","town":"西ノ京左馬寮町","town_kana":"ニシノキョウサマリョウチョウ","prefecture_code":26},"8435":{"zip_code":"6048435","prefecture":"京都府","prefecture_kana":"キョウトフ","city":"京都市中京区","city_kana":"キョウトシナカギョウク","town":"西ノ京三条坊町","town_kana":"ニシノキョウサンジョウボウチョウ","prefecture_code":26},"8496":{"zip_code":"6048496","prefecture":"京都府","prefecture_kana":"キョウトフ","city":"京都市中京区","city_kana":"キョウトシナカギョウク","town":"西ノ京鹿垣町","town_kana":"ニシノキョウシカガキチョウ","prefecture_code":26},"8384":{"zip_code":"6048384","prefecture":"京都府","prefecture_kana":"キョウトフ","city":"京都市中京区","city_kana":"キョウトシナカギョウク","town":"西ノ京式部町","town_kana":"ニシノキョウシキブチョウ","prefecture_code":26},"8443":{"zip_code":"6048443","prefecture":"京都府","prefecture_kana":"キョウトフ","city":"京都市中京区","city_kana":"キョウトシナカギョウク","town":"西ノ京島ノ内町","town_kana":"ニシノキョウシマノウチチョウ","prefecture_code":26},"8436":{"zip_code":"6048436","prefecture":"京都府","prefecture_kana":"キョウトフ","city":"京都市中京区","city_kana":"キョウトシナカギョウク","town":"西ノ京下合町","town_kana":"ニシノキョウシモアイチョウ","prefecture_code":26},"8381":{"zip_code":"6048381","prefecture":"京都府","prefecture_kana":"キョウトフ","city":"京都市中京区","city_kana":"キョウトシナカギョウク","town":"西ノ京職司町","town_kana":"ニシノキョウショクシチョウ","prefecture_code":26},"8434":{"zip_code":"6048434","prefecture":"京都府","prefecture_kana":"キョウトフ","city":"京都市中京区","city_kana":"キョウトシナカギョウク","town":"西ノ京新建町","town_kana":"ニシノキョウシンダテチョウ","prefecture_code":26},"8474":{"zip_code":"6048474","prefecture":"京都府","prefecture_kana":"キョウトフ","city":"京都市中京区","city_kana":"キョウトシナカギョウク","town":"西ノ京塚本町","town_kana":"ニシノキョウツカモトチョウ","prefecture_code":26},"8444":{"zip_code":"6048444","prefecture":"京都府","prefecture_kana":"キョウトフ","city":"京都市中京区","city_kana":"キョウトシナカギョウク","town":"西ノ京月輪町","town_kana":"ニシノキョウツキノワチョウ","prefecture_code":26},"8456":{"zip_code":"6048456","prefecture":"京都府","prefecture_kana":"キョウトフ","city":"京都市中京区","city_kana":"キョウトシナカギョウク","town":"西ノ京壺ノ内町","town_kana":"ニシノキョウツボノウチチョウ","prefecture_code":26},"8425":{"zip_code":"6048425","prefecture":"京都府","prefecture_kana":"キョウトフ","city":"京都市中京区","city_kana":"キョウトシナカギョウク","town":"西ノ京銅駝町","town_kana":"ニシノキョウドウダチョウ","prefecture_code":26},"8415":{"zip_code":"6048415","prefecture":"京都府","prefecture_kana":"キョウトフ","city":"京都市中京区","city_kana":"キョウトシナカギョウク","town":"西ノ京栂尾町","town_kana":"ニシノキョウトガノオチョウ","prefecture_code":26},"8445":{"zip_code":"6048445","prefecture":"京都府","prefecture_kana":"キョウトフ","city":"京都市中京区","city_kana":"キョウトシナカギョウク","town":"西ノ京徳大寺町","town_kana":"ニシノキョウトクダイジチョウ","prefecture_code":26},"8461":{"zip_code":"6048461","prefecture":"京都府","prefecture_kana":"キョウトフ","city":"京都市中京区","city_kana":"キョウトシナカギョウク","town":"西ノ京中保町","town_kana":"ニシノキョウナカホチョウ","prefecture_code":26},"8475":{"zip_code":"6048475","prefecture":"京都府","prefecture_kana":"キョウトフ","city":"京都市中京区","city_kana":"キョウトシナカギョウク","town":"西ノ京中御門西町","town_kana":"ニシノキョウナカミカドニシマチ","prefecture_code":26},"8471":{"zip_code":"6048471","prefecture":"京都府","prefecture_kana":"キョウトフ","city":"京都市中京区","city_kana":"キョウトシナカギョウク","town":"西ノ京中御門東町","town_kana":"ニシノキョウナカミカドヒガシマチ","prefecture_code":26},"8421":{"zip_code":"6048421","prefecture":"京都府","prefecture_kana":"キョウトフ","city":"京都市中京区","city_kana":"キョウトシナカギョウク","town":"西ノ京永本町","town_kana":"ニシノキョウナガモトチョウ","prefecture_code":26},"8412":{"zip_code":"6048412","prefecture":"京都府","prefecture_kana":"キョウトフ","city":"京都市中京区","city_kana":"キョウトシナカギョウク","town":"西ノ京南聖町","town_kana":"ニシノキョウナンセイチョウ","prefecture_code":26},"8465":{"zip_code":"6048465","prefecture":"京都府","prefecture_kana":"キョウトフ","city":"京都市中京区","city_kana":"キョウトシナカギョウク","town":"西ノ京西円町","town_kana":"ニシノキョウニシエンマチ","prefecture_code":26},"8423":{"zip_code":"6048423","prefecture":"京都府","prefecture_kana":"キョウトフ","city":"京都市中京区","city_kana":"キョウトシナカギョウク","town":"西ノ京西月光町","town_kana":"ニシノキョウニシゲツコウチョウ","prefecture_code":26},"8495":{"zip_code":"6048495","prefecture":"京都府","prefecture_kana":"キョウトフ","city":"京都市中京区","city_kana":"キョウトシナカギョウク","town":"西ノ京西鹿垣町","town_kana":"ニシノキョウニシシカガキチョウ","prefecture_code":26},"8441":{"zip_code":"6048441","prefecture":"京都府","prefecture_kana":"キョウトフ","city":"京都市中京区","city_kana":"キョウトシナカギョウク","town":"西ノ京西中合町","town_kana":"ニシノキョウニシナカアイチョウ","prefecture_code":26},"8452":{"zip_code":"6048452","prefecture":"京都府","prefecture_kana":"キョウトフ","city":"京都市中京区","city_kana":"キョウトシナカギョウク","town":"西ノ京伯楽町","town_kana":"ニシノキョウハクラクチョウ","prefecture_code":26},"8457":{"zip_code":"6048457","prefecture":"京都府","prefecture_kana":"キョウトフ","city":"京都市中京区","city_kana":"キョウトシナカギョウク","town":"西ノ京馬代町","town_kana":"ニシノキョウバダイチョウ","prefecture_code":26},"8431":{"zip_code":"6048431","prefecture":"京都府","prefecture_kana":"キョウトフ","city":"京都市中京区","city_kana":"キョウトシナカギョウク","town":"西ノ京原町","town_kana":"ニシノキョウハラマチ","prefecture_code":26},"8446":{"zip_code":"6048446","prefecture":"京都府","prefecture_kana":"キョウトフ","city":"京都市中京区","city_kana":"キョウトシナカギョウク","town":"西ノ京日扇町","town_kana":"ニシノキョウヒオウギチョウ","prefecture_code":26},"8422":{"zip_code":"6048422","prefecture":"京都府","prefecture_kana":"キョウトフ","city":"京都市中京区","city_kana":"キョウトシナカギョウク","town":"西ノ京東月光町","town_kana":"ニシノキョウヒガシゲッコウチョウ","prefecture_code":26},"8418":{"zip_code":"6048418","prefecture":"京都府","prefecture_kana":"キョウトフ","city":"京都市中京区","city_kana":"キョウトシナカギョウク","town":"西ノ京東栂尾町","town_kana":"ニシノキョウヒガシトガノオチョウ","prefecture_code":26},"8437":{"zip_code":"6048437","prefecture":"京都府","prefecture_kana":"キョウトフ","city":"京都市中京区","city_kana":"キョウトシナカギョウク","town":"西ノ京東中合町","town_kana":"ニシノキョウヒガシナカアイチョウ","prefecture_code":26},"8424":{"zip_code":"6048424","prefecture":"京都府","prefecture_kana":"キョウトフ","city":"京都市中京区","city_kana":"キョウトシナカギョウク","town":"西ノ京樋ノ口町","town_kana":"ニシノキョウヒノクチチョウ","prefecture_code":26},"8485":{"zip_code":"6048485","prefecture":"京都府","prefecture_kana":"キョウトフ","city":"京都市中京区","city_kana":"キョウトシナカギョウク","town":"西ノ京平町","town_kana":"ニシノキョウヒラマチ","prefecture_code":26},"8455":{"zip_code":"6048455","prefecture":"京都府","prefecture_kana":"キョウトフ","city":"京都市中京区","city_kana":"キョウトシナカギョウク","town":"西ノ京藤ノ木町","town_kana":"ニシノキョウフジノキチョウ","prefecture_code":26},"8426":{"zip_code":"6048426","prefecture":"京都府","prefecture_kana":"キョウトフ","city":"京都市中京区","city_kana":"キョウトシナカギョウク","town":"西ノ京船塚町","town_kana":"ニシノキョウフナヅカチョウ","prefecture_code":26},"8382":{"zip_code":"6048382","prefecture":"京都府","prefecture_kana":"キョウトフ","city":"京都市中京区","city_kana":"キョウトシナカギョウク","town":"西ノ京北聖町","town_kana":"ニシノキョウホクセイチョウ","prefecture_code":26},"8416":{"zip_code":"6048416","prefecture":"京都府","prefecture_kana":"キョウトフ","city":"京都市中京区","city_kana":"キョウトシナカギョウク","town":"西ノ京星池町","town_kana":"ニシノキョウホシガイケチョウ","prefecture_code":26},"8451":{"zip_code":"6048451","prefecture":"京都府","prefecture_kana":"キョウトフ","city":"京都市中京区","city_kana":"キョウトシナカギョウク","town":"西ノ京御輿岡町","town_kana":"ニシノキョウミコシガオカチョウ","prefecture_code":26},"8464":{"zip_code":"6048464","prefecture":"京都府","prefecture_kana":"キョウトフ","city":"京都市中京区","city_kana":"キョウトシナカギョウク","town":"西ノ京南円町","town_kana":"ニシノキョウミナミエンマチ","prefecture_code":26},"8466":{"zip_code":"6048466","prefecture":"京都府","prefecture_kana":"キョウトフ","city":"京都市中京区","city_kana":"キョウトシナカギョウク","town":"西ノ京南大炊御門町","town_kana":"ニシノキョウミナミオオイゴモンチョウ","prefecture_code":26},"8483":{"zip_code":"6048483","prefecture":"京都府","prefecture_kana":"キョウトフ","city":"京都市中京区","city_kana":"キョウトシナカギョウク","town":"西ノ京南上合町","town_kana":"ニシノキョウミナミカミアイチョウ","prefecture_code":26},"8473":{"zip_code":"6048473","prefecture":"京都府","prefecture_kana":"キョウトフ","city":"京都市中京区","city_kana":"キョウトシナカギョウク","town":"西ノ京南壺井町","town_kana":"ニシノキョウミナミツボイチョウ","prefecture_code":26},"8432":{"zip_code":"6048432","prefecture":"京都府","prefecture_kana":"キョウトフ","city":"京都市中京区","city_kana":"キョウトシナカギョウク","town":"西ノ京南原町","town_kana":"ニシノキョウミナミハラマチ","prefecture_code":26},"8493":{"zip_code":"6048493","prefecture":"京都府","prefecture_kana":"キョウトフ","city":"京都市中京区","city_kana":"キョウトシナカギョウク","town":"西ノ京南両町","town_kana":"ニシノキョウミナミリョウマチ","prefecture_code":26},"8497":{"zip_code":"6048497","prefecture":"京都府","prefecture_kana":"キョウトフ","city":"京都市中京区","city_kana":"キョウトシナカギョウク","town":"西ノ京両町","town_kana":"ニシノキョウリョウマチ","prefecture_code":26},"8481":{"zip_code":"6048481","prefecture":"京都府","prefecture_kana":"キョウトフ","city":"京都市中京区","city_kana":"キョウトシナカギョウク","town":"西ノ京冷泉町","town_kana":"ニシノキョウレイセンチョウ","prefecture_code":26},"0051":{"zip_code":"6040051","prefecture":"京都府","prefecture_kana":"キョウトフ","city":"京都市中京区","city_kana":"キョウトシナカギョウク","town":"二条油小路町","town_kana":"ニジョウアブラノコウジチョウ","prefecture_code":26},"0013":{"zip_code":"6040013","prefecture":"京都府","prefecture_kana":"キョウトフ","city":"京都市中京区","city_kana":"キョウトシナカギョウク","town":"二条新町","town_kana":"ニジョウシンチョウ","prefecture_code":26},"8301":{"zip_code":"6048301","prefecture":"京都府","prefecture_kana":"キョウトフ","city":"京都市中京区","city_kana":"キョウトシナカギョウク","town":"二条城町","town_kana":"ニジョウジョウチョウ","prefecture_code":26},"0845":{"zip_code":"6040845","prefecture":"京都府","prefecture_kana":"キョウトフ","city":"京都市中京区","city_kana":"キョウトシナカギョウク","town":"二条殿町","town_kana":"ニジョウデンチョウ","prefecture_code":26},"0041":{"zip_code":"6040041","prefecture":"京都府","prefecture_kana":"キョウトフ","city":"京都市中京区","city_kana":"キョウトシナカギョウク","town":"二条西洞院町","town_kana":"ニジョウニシノトウインチョウ","prefecture_code":26},"0023":{"zip_code":"6040023","prefecture":"京都府","prefecture_kana":"キョウトフ","city":"京都市中京区","city_kana":"キョウトシナカギョウク","town":"西横町","town_kana":"ニシヨコチョウ","prefecture_code":26},"8217":{"zip_code":"6048217","prefecture":"京都府","prefecture_kana":"キョウトフ","city":"京都市中京区","city_kana":"キョウトシナカギョウク","town":"西六角町","town_kana":"ニシロッカクチョウ","prefecture_code":26},"0843":{"zip_code":"6040843","prefecture":"京都府","prefecture_kana":"キョウトフ","city":"京都市中京区","city_kana":"キョウトシナカギョウク","town":"塗師屋町","town_kana":"ヌシヤチョウ","prefecture_code":26},"8257":{"zip_code":"6048257","prefecture":"京都府","prefecture_kana":"キョウトフ","city":"京都市中京区","city_kana":"キョウトシナカギョウク","town":"橋浦町","town_kana":"ハシウラチョウ","prefecture_code":26},"8003":{"zip_code":"6048003","prefecture":"京都府","prefecture_kana":"キョウトフ","city":"京都市中京区","city_kana":"キョウトシナカギョウク","town":"橋下町","town_kana":"ハシシタチョウ","prefecture_code":26},"8332":{"zip_code":"6048332","prefecture":"京都府","prefecture_kana":"キョウトフ","city":"京都市中京区","city_kana":"キョウトシナカギョウク","town":"橋西町","town_kana":"ハシニシチョウ","prefecture_code":26},"0033":{"zip_code":"6040033","prefecture":"京都府","prefecture_kana":"キョウトフ","city":"京都市中京区","city_kana":"キョウトシナカギョウク","town":"橋之町","town_kana":"ハシノチョウ","prefecture_code":26},"8258":{"zip_code":"6048258","prefecture":"京都府","prefecture_kana":"キョウトフ","city":"京都市中京区","city_kana":"キョウトシナカギョウク","town":"橋東詰町","town_kana":"ハシヒガシヅメチョウ","prefecture_code":26},"8151":{"zip_code":"6048151","prefecture":"京都府","prefecture_kana":"キョウトフ","city":"京都市中京区","city_kana":"キョウトシナカギョウク","town":"橋弁慶町","town_kana":"ハシベンケイチョウ","prefecture_code":26},"0072":{"zip_code":"6040072","prefecture":"京都府","prefecture_kana":"キョウトフ","city":"京都市中京区","city_kana":"キョウトシナカギョウク","town":"橋本町","town_kana":"ハシモトチョウ","prefecture_code":26},"0074":{"zip_code":"6040074","prefecture":"京都府","prefecture_kana":"キョウトフ","city":"京都市中京区","city_kana":"キョウトシナカギョウク","town":"八町目","town_kana":"ハチチョウメ","prefecture_code":26},"0003":{"zip_code":"6040003","prefecture":"京都府","prefecture_kana":"キョウトフ","city":"京都市中京区","city_kana":"キョウトシナカギョウク","town":"花立町","town_kana":"ハナタテチョウ","prefecture_code":26},"8172":{"zip_code":"6048172","prefecture":"京都府","prefecture_kana":"キョウトフ","city":"京都市中京区","city_kana":"キョウトシナカギョウク","town":"場之町","town_kana":"バノチョウ","prefecture_code":26},"8143":{"zip_code":"6048143","prefecture":"京都府","prefecture_kana":"キョウトフ","city":"京都市中京区","city_kana":"キョウトシナカギョウク","town":"阪東屋町","town_kana":"バントウヤチョウ","prefecture_code":26},"0826":{"zip_code":"6040826","prefecture":"京都府","prefecture_kana":"キョウトフ","city":"京都市中京区","city_kana":"キョウトシナカギョウク","town":"柊町","town_kana":"ヒイラギチョウ","prefecture_code":26},"0922":{"zip_code":"6040922","prefecture":"京都府","prefecture_kana":"キョウトフ","city":"京都市中京区","city_kana":"キョウトシナカギョウク","town":"東生洲町","town_kana":"ヒガシイケスチョウ","prefecture_code":26},"8055":{"zip_code":"6048055","prefecture":"京都府","prefecture_kana":"キョウトフ","city":"京都市中京区","city_kana":"キョウトシナカギョウク","town":"東魚屋町","town_kana":"ヒガシウオヤチョウ","prefecture_code":26},"0083":{"zip_code":"6040083","prefecture":"京都府","prefecture_kana":"キョウトフ","city":"京都市中京区","city_kana":"キョウトシナカギョウク","town":"東夷川町","town_kana":"ヒガシエビスガワチョウ","prefecture_code":26},"8183":{"zip_code":"6048183","prefecture":"京都府","prefecture_kana":"キョウトフ","city":"京都市中京区","city_kana":"キョウトシナカギョウク","town":"東片町","town_kana":"ヒガシカタマチ","prefecture_code":26},"8046":{"zip_code":"6048046","prefecture":"京都府","prefecture_kana":"キョウトフ","city":"京都市中京区","city_kana":"キョウトシナカギョウク","town":"東側町","town_kana":"ヒガシガワチョウ","prefecture_code":26},"0852":{"zip_code":"6040852","prefecture":"京都府","prefecture_kana":"キョウトフ","city":"京都市中京区","city_kana":"キョウトシナカギョウク","town":"東九軒町","town_kana":"ヒガシキュウケンチョウ","prefecture_code":26},"0906":{"zip_code":"6040906","prefecture":"京都府","prefecture_kana":"キョウトフ","city":"京都市中京区","city_kana":"キョウトシナカギョウク","town":"東椹木町","town_kana":"ヒガシサワラギチョウ","prefecture_code":26},"8043":{"zip_code":"6048043","prefecture":"京都府","prefecture_kana":"キョウトフ","city":"京都市中京区","city_kana":"キョウトシナカギョウク","town":"東大文字町","town_kana":"ヒガシダイモンジチョウ","prefecture_code":26},"0085":{"zip_code":"6040085","prefecture":"京都府","prefecture_kana":"キョウトフ","city":"京都市中京区","city_kana":"キョウトシナカギョウク","town":"東竹屋町","town_kana":"ヒガシタケヤチョウ","prefecture_code":26},"0855":{"zip_code":"6040855","prefecture":"京都府","prefecture_kana":"キョウトフ","city":"京都市中京区","city_kana":"キョウトシナカギョウク","town":"東玉屋町","town_kana":"ヒガシタマヤチョウ","prefecture_code":26},"0954":{"zip_code":"6040954","prefecture":"京都府","prefecture_kana":"キョウトフ","city":"京都市中京区","city_kana":"キョウトシナカギョウク","town":"東八幡町","town_kana":"ヒガシハチマンチョウ","prefecture_code":26},"0876":{"zip_code":"6040876","prefecture":"京都府","prefecture_kana":"キョウトフ","city":"京都市中京区","city_kana":"キョウトシナカギョウク","town":"光リ堂町","town_kana":"ヒカリドウチョウ","prefecture_code":26},"8131":{"zip_code":"6048131","prefecture":"京都府","prefecture_kana":"キョウトフ","city":"京都市中京区","city_kana":"キョウトシナカギョウク","town":"菱屋町","town_kana":"ヒシヤチョウ","prefecture_code":26},"0082":[{"zip_code":"6040082","prefecture":"京都府","prefecture_kana":"キョウトフ","city":"京都市中京区","city_kana":"キョウトシナカギョウク","town":"毘沙門町西洞院通竹屋町下る","town_kana":"ビシャモンチョウ","prefecture_code":26},{"zip_code":"6040082","prefecture":"京都府","prefecture_kana":"キョウトフ","city":"京都市中京区","city_kana":"キョウトシナカギョウク","town":"毘沙門町西洞院通夷川上る","town_kana":"ビシャモンチョウ","prefecture_code":26},{"zip_code":"6040082","prefecture":"京都府","prefecture_kana":"キョウトフ","city":"京都市中京区","city_kana":"キョウトシナカギョウク","town":"毘沙門町竹屋町通西洞院西入","town_kana":"ビシャモンチョウ","prefecture_code":26},{"zip_code":"6040082","prefecture":"京都府","prefecture_kana":"キョウトフ","city":"京都市中京区","city_kana":"キョウトシナカギョウク","town":"毘沙門町竹屋町通西洞院東入","town_kana":"ビシャモンチョウ","prefecture_code":26},{"zip_code":"6040082","prefecture":"京都府","prefecture_kana":"キョウトフ","city":"京都市中京区","city_kana":"キョウトシナカギョウク","town":"毘沙門町夷川通西洞院東入","town_kana":"ビシャモンチョウ","prefecture_code":26}],"0981":[{"zip_code":"6040981","prefecture":"京都府","prefecture_kana":"キョウトフ","city":"京都市中京区","city_kana":"キョウトシナカギョウク","town":"毘沙門町御幸町通丸太町下る","town_kana":"ビシャモンチョウ","prefecture_code":26},{"zip_code":"6040981","prefecture":"京都府","prefecture_kana":"キョウトフ","city":"京都市中京区","city_kana":"キョウトシナカギョウク","town":"毘沙門町御幸町通竹屋町上る","town_kana":"ビシャモンチョウ","prefecture_code":26},{"zip_code":"6040981","prefecture":"京都府","prefecture_kana":"キョウトフ","city":"京都市中京区","city_kana":"キョウトシナカギョウク","town":"毘沙門町丸太町通御幸町西入","town_kana":"ビシャモンチョウ","prefecture_code":26},{"zip_code":"6040981","prefecture":"京都府","prefecture_kana":"キョウトフ","city":"京都市中京区","city_kana":"キョウトシナカギョウク","town":"毘沙門町丸太町通御幸町東入","town_kana":"ビシャモンチョウ","prefecture_code":26},{"zip_code":"6040981","prefecture":"京都府","prefecture_kana":"キョウトフ","city":"京都市中京区","city_kana":"キョウトシナカギョウク","town":"毘沙門町竹屋町通御幸町西入","town_kana":"ビシャモンチョウ","prefecture_code":26},{"zip_code":"6040981","prefecture":"京都府","prefecture_kana":"キョウトフ","city":"京都市中京区","city_kana":"キョウトシナカギョウク","town":"毘沙門町竹屋町通御幸町東入","town_kana":"ビシャモンチョウ","prefecture_code":26},{"zip_code":"6040981","prefecture":"京都府","prefecture_kana":"キョウトフ","city":"京都市中京区","city_kana":"キョウトシナカギョウク","town":"毘沙門町竹屋町通麩屋町東入","town_kana":"ビシャモンチョウ","prefecture_code":26}],"8023":{"zip_code":"6048023","prefecture":"京都府","prefecture_kana":"キョウトフ","city":"京都市中京区","city_kana":"キョウトシナカギョウク","town":"備前島町","town_kana":"ビゼンジマチョウ","prefecture_code":26},"0912":{"zip_code":"6040912","prefecture":"京都府","prefecture_kana":"キョウトフ","city":"京都市中京区","city_kana":"キョウトシナカギョウク","town":"樋之口町","town_kana":"ヒノクチチョウ","prefecture_code":26},"8084":{"zip_code":"6048084","prefecture":"京都府","prefecture_kana":"キョウトフ","city":"京都市中京区","city_kana":"キョウトシナカギョウク","town":"福長町","town_kana":"フクナガチョウ","prefecture_code":26},"0882":{"zip_code":"6040882","prefecture":"京都府","prefecture_kana":"キョウトフ","city":"京都市中京区","city_kana":"キョウトシナカギョウク","town":"福屋町","town_kana":"フクヤチョウ","prefecture_code":26},"8364":{"zip_code":"6048364","prefecture":"京都府","prefecture_kana":"キョウトフ","city":"京都市中京区","city_kana":"キョウトシナカギョウク","town":"藤岡町","town_kana":"フジオカチョウ","prefecture_code":26},"0992":{"zip_code":"6040992","prefecture":"京都府","prefecture_kana":"キョウトフ","city":"京都市中京区","city_kana":"キョウトシナカギョウク","town":"藤木町","town_kana":"フジキチョウ","prefecture_code":26},"8234":{"zip_code":"6048234","prefecture":"京都府","prefecture_kana":"キョウトフ","city":"京都市中京区","city_kana":"キョウトシナカギョウク","town":"藤西町","town_kana":"フジニシチョウ","prefecture_code":26},"8233":{"zip_code":"6048233","prefecture":"京都府","prefecture_kana":"キョウトフ","city":"京都市中京区","city_kana":"キョウトシナカギョウク","town":"藤本町","town_kana":"フジモトチョウ","prefecture_code":26},"8215":{"zip_code":"6048215","prefecture":"京都府","prefecture_kana":"キョウトフ","city":"京都市中京区","city_kana":"キョウトシナカギョウク","town":"不動町","town_kana":"フドウチョウ","prefecture_code":26},"0985":{"zip_code":"6040985","prefecture":"京都府","prefecture_kana":"キョウトフ","city":"京都市中京区","city_kana":"キョウトシナカギョウク","town":"舟屋町","town_kana":"フナヤチョウ","prefecture_code":26},"0836":[{"zip_code":"6040836","prefecture":"京都府","prefecture_kana":"キョウトフ","city":"京都市中京区","city_kana":"キョウトシナカギョウク","town":"船屋町東洞院通押小路下る","town_kana":"フナヤチョウ","prefecture_code":26},{"zip_code":"6040836","prefecture":"京都府","prefecture_kana":"キョウトフ","city":"京都市中京区","city_kana":"キョウトシナカギョウク","town":"船屋町東洞院通御池上る","town_kana":"フナヤチョウ","prefecture_code":26},{"zip_code":"6040836","prefecture":"京都府","prefecture_kana":"キョウトフ","city":"京都市中京区","city_kana":"キョウトシナカギョウク","town":"船屋町押小路通東洞院西入","town_kana":"フナヤチョウ","prefecture_code":26},{"zip_code":"6040836","prefecture":"京都府","prefecture_kana":"キョウトフ","city":"京都市中京区","city_kana":"キョウトシナカギョウク","town":"船屋町押小路通東洞院東入","town_kana":"フナヤチョウ","prefecture_code":26}],"8051":[{"zip_code":"6048051","prefecture":"京都府","prefecture_kana":"キョウトフ","city":"京都市中京区","city_kana":"キョウトシナカギョウク","town":"船屋町御幸町通蛸薬師下る","town_kana":"フナヤチョウ","prefecture_code":26},{"zip_code":"6048051","prefecture":"京都府","prefecture_kana":"キョウトフ","city":"京都市中京区","city_kana":"キョウトシナカギョウク","town":"船屋町御幸町通錦小路上る","town_kana":"フナヤチョウ","prefecture_code":26},{"zip_code":"6048051","prefecture":"京都府","prefecture_kana":"キョウトフ","city":"京都市中京区","city_kana":"キョウトシナカギョウク","town":"船屋町蛸薬師通御幸町東入","town_kana":"フナヤチョウ","prefecture_code":26},{"zip_code":"6048051","prefecture":"京都府","prefecture_kana":"キョウトフ","city":"京都市中京区","city_kana":"キョウトシナカギョウク","town":"船屋町錦小路通御幸町東入","town_kana":"フナヤチョウ","prefecture_code":26}],"0045":{"zip_code":"6040045","prefecture":"京都府","prefecture_kana":"キョウトフ","city":"京都市中京区","city_kana":"キョウトシナカギョウク","town":"古城町","town_kana":"フルシロチョウ","prefecture_code":26},"8227":{"zip_code":"6048227","prefecture":"京都府","prefecture_kana":"キョウトフ","city":"京都市中京区","city_kana":"キョウトシナカギョウク","town":"古西町","town_kana":"フルニシチョウ","prefecture_code":26},"0884":{"zip_code":"6040884","prefecture":"京都府","prefecture_kana":"キョウトフ","city":"京都市中京区","city_kana":"キョウトシナカギョウク","town":"塀之内町","town_kana":"ヘイノウチチョウ","prefecture_code":26},"8082":{"zip_code":"6048082","prefecture":"京都府","prefecture_kana":"キョウトフ","city":"京都市中京区","city_kana":"キョウトシナカギョウク","town":"弁慶石町","town_kana":"ベンケイイシチョウ","prefecture_code":26},"0093":{"zip_code":"6040093","prefecture":"京都府","prefecture_kana":"キョウトフ","city":"京都市中京区","city_kana":"キョウトシナカギョウク","town":"弁財天町","town_kana":"ベンザイテンチョウ","prefecture_code":26},"0902":{"zip_code":"6040902","prefecture":"京都府","prefecture_kana":"キョウトフ","city":"京都市中京区","city_kana":"キョウトシナカギョウク","town":"鉾田町","town_kana":"ホコデンチョウ","prefecture_code":26},"0963":{"zip_code":"6040963","prefecture":"京都府","prefecture_kana":"キョウトフ","city":"京都市中京区","city_kana":"キョウトシナカギョウク","town":"布袋屋町","town_kana":"ホテイヤチョウ","prefecture_code":26},"8164":{"zip_code":"6048164","prefecture":"京都府","prefecture_kana":"キョウトフ","city":"京都市中京区","city_kana":"キョウトシナカギョウク","town":"骨屋町","town_kana":"ホネヤチョウ","prefecture_code":26},"8064":{"zip_code":"6048064","prefecture":"京都府","prefecture_kana":"キョウトフ","city":"京都市中京区","city_kana":"キョウトシナカギョウク","town":"骨屋之町","town_kana":"ホネヤノチョウ","prefecture_code":26},"8117":{"zip_code":"6048117","prefecture":"京都府","prefecture_kana":"キョウトフ","city":"京都市中京区","city_kana":"キョウトシナカギョウク","town":"堀之上町","town_kana":"ホリノウエチョウ","prefecture_code":26},"8243":{"zip_code":"6048243","prefecture":"京都府","prefecture_kana":"キョウトフ","city":"京都市中京区","city_kana":"キョウトシナカギョウク","town":"本能寺町","town_kana":"ホンノウジチョウ","prefecture_code":26},"0857":{"zip_code":"6040857","prefecture":"京都府","prefecture_kana":"キョウトフ","city":"京都市中京区","city_kana":"キョウトシナカギョウク","town":"蒔絵屋町","town_kana":"マキエヤチョウ","prefecture_code":26},"0096":[{"zip_code":"6040096","prefecture":"京都府","prefecture_kana":"キョウトフ","city":"京都市中京区","city_kana":"キョウトシナカギョウク","town":"桝屋町釜座通丸太町下る","town_kana":"マスヤチョウカマンザドオリマルタマチサガル","prefecture_code":26},{"zip_code":"6040096","prefecture":"京都府","prefecture_kana":"キョウトフ","city":"京都市中京区","city_kana":"キョウトシナカギョウク","town":"桝屋町釜座通竹屋町上る","town_kana":"マスヤチョウカマンザドオリタケヤマチアガル","prefecture_code":26}],"0971":[{"zip_code":"6040971","prefecture":"京都府","prefecture_kana":"キョウトフ","city":"京都市中京区","city_kana":"キョウトシナカギョウク","town":"桝屋町富小路通丸太町下る","town_kana":"マスヤチョウ","prefecture_code":26},{"zip_code":"6040971","prefecture":"京都府","prefecture_kana":"キョウトフ","city":"京都市中京区","city_kana":"キョウトシナカギョウク","town":"桝屋町富小路通竹屋町上る","town_kana":"マスヤチョウ","prefecture_code":26},{"zip_code":"6040971","prefecture":"京都府","prefecture_kana":"キョウトフ","city":"京都市中京区","city_kana":"キョウトシナカギョウク","town":"桝屋町丸太町通富小路東入","town_kana":"マスヤチョウ","prefecture_code":26},{"zip_code":"6040971","prefecture":"京都府","prefecture_kana":"キョウトフ","city":"京都市中京区","city_kana":"キョウトシナカギョウク","town":"桝屋町竹屋町通富小路東入","town_kana":"マスヤチョウ","prefecture_code":26},{"zip_code":"6040971","prefecture":"京都府","prefecture_kana":"キョウトフ","city":"京都市中京区","city_kana":"キョウトシナカギョウク","town":"桝屋町丸太町通富小路西入","town_kana":"マスヤチョウ","prefecture_code":26},{"zip_code":"6040971","prefecture":"京都府","prefecture_kana":"キョウトフ","city":"京都市中京区","city_kana":"キョウトシナカギョウク","town":"桝屋町竹屋町通富小路西入","town_kana":"マスヤチョウ","prefecture_code":26}],"8053":[{"zip_code":"6048053","prefecture":"京都府","prefecture_kana":"キョウトフ","city":"京都市中京区","city_kana":"キョウトシナカギョウク","town":"桝屋町麩屋町通錦小路下る","town_kana":"マスヤチョウ","prefecture_code":26},{"zip_code":"6048053","prefecture":"京都府","prefecture_kana":"キョウトフ","city":"京都市中京区","city_kana":"キョウトシナカギョウク","town":"桝屋町麩屋町通四条上る","town_kana":"マスヤチョウ","prefecture_code":26},{"zip_code":"6048053","prefecture":"京都府","prefecture_kana":"キョウトフ","city":"京都市中京区","city_kana":"キョウトシナカギョウク","town":"桝屋町錦小路通麩屋町西入","town_kana":"マスヤチョウ","prefecture_code":26},{"zip_code":"6048053","prefecture":"京都府","prefecture_kana":"キョウトフ","city":"京都市中京区","city_kana":"キョウトシナカギョウク","town":"桝屋町錦小路通麩屋町東入","town_kana":"マスヤチョウ","prefecture_code":26}],"8111":[{"zip_code":"6048111","prefecture":"京都府","prefecture_kana":"キョウトフ","city":"京都市中京区","city_kana":"キョウトシナカギョウク","town":"桝屋町柳馬場通三条上る","town_kana":"マスヤチョウ","prefecture_code":26},{"zip_code":"6048111","prefecture":"京都府","prefecture_kana":"キョウトフ","city":"京都市中京区","city_kana":"キョウトシナカギョウク","town":"桝屋町柳馬場通三条下る","town_kana":"マスヤチョウ","prefecture_code":26},{"zip_code":"6048111","prefecture":"京都府","prefecture_kana":"キョウトフ","city":"京都市中京区","city_kana":"キョウトシナカギョウク","town":"桝屋町堺町通三条上る","town_kana":"マスヤチョウ","prefecture_code":26},{"zip_code":"6048111","prefecture":"京都府","prefecture_kana":"キョウトフ","city":"京都市中京区","city_kana":"キョウトシナカギョウク","town":"桝屋町堺町通三条下る","town_kana":"マスヤチョウ","prefecture_code":26},{"zip_code":"6048111","prefecture":"京都府","prefecture_kana":"キョウトフ","city":"京都市中京区","city_kana":"キョウトシナカギョウク","town":"桝屋町高倉通三条上る","town_kana":"マスヤチョウ","prefecture_code":26},{"zip_code":"6048111","prefecture":"京都府","prefecture_kana":"キョウトフ","city":"京都市中京区","city_kana":"キョウトシナカギョウク","town":"桝屋町高倉通三条下る","town_kana":"マスヤチョウ","prefecture_code":26},{"zip_code":"6048111","prefecture":"京都府","prefecture_kana":"キョウトフ","city":"京都市中京区","city_kana":"キョウトシナカギョウク","town":"桝屋町三条通柳馬場西入","town_kana":"マスヤチョウ","prefecture_code":26},{"zip_code":"6048111","prefecture":"京都府","prefecture_kana":"キョウトフ","city":"京都市中京区","city_kana":"キョウトシナカギョウク","town":"桝屋町三条通堺町西入","town_kana":"マスヤチョウ","prefecture_code":26},{"zip_code":"6048111","prefecture":"京都府","prefecture_kana":"キョウトフ","city":"京都市中京区","city_kana":"キョウトシナカギョウク","town":"桝屋町三条通堺町東入","town_kana":"マスヤチョウ","prefecture_code":26},{"zip_code":"6048111","prefecture":"京都府","prefecture_kana":"キョウトフ","city":"京都市中京区","city_kana":"キョウトシナカギョウク","town":"桝屋町三条通高倉東入","town_kana":"マスヤチョウ","prefecture_code":26}],"8206":{"zip_code":"6048206","prefecture":"京都府","prefecture_kana":"キョウトフ","city":"京都市中京区","city_kana":"キョウトシナカギョウク","town":"町頭町","town_kana":"マチガシラチョウ","prefecture_code":26},"8362":{"zip_code":"6048362","prefecture":"京都府","prefecture_kana":"キョウトフ","city":"京都市中京区","city_kana":"キョウトシナカギョウク","town":"松浦町","town_kana":"マツウラチョウ","prefecture_code":26},"8034":{"zip_code":"6048034","prefecture":"京都府","prefecture_kana":"キョウトフ","city":"京都市中京区","city_kana":"キョウトシナカギョウク","town":"松ケ枝町","town_kana":"マツガエチョウ","prefecture_code":26},"8093":{"zip_code":"6048093","prefecture":"京都府","prefecture_kana":"キョウトフ","city":"京都市中京区","city_kana":"キョウトシナカギョウク","town":"松下町","town_kana":"マツシタチョウ","prefecture_code":26},"0982":[{"zip_code":"6040982","prefecture":"京都府","prefecture_kana":"キョウトフ","city":"京都市中京区","city_kana":"キョウトシナカギョウク","town":"松本町御幸町通竹屋町下る","town_kana":"マツモトチョウ","prefecture_code":26},{"zip_code":"6040982","prefecture":"京都府","prefecture_kana":"キョウトフ","city":"京都市中京区","city_kana":"キョウトシナカギョウク","town":"松本町御幸町通夷川上る","town_kana":"マツモトチョウ","prefecture_code":26},{"zip_code":"6040982","prefecture":"京都府","prefecture_kana":"キョウトフ","city":"京都市中京区","city_kana":"キョウトシナカギョウク","town":"松本町御幸町通竹屋町西入","town_kana":"マツモトチョウ","prefecture_code":26},{"zip_code":"6040982","prefecture":"京都府","prefecture_kana":"キョウトフ","city":"京都市中京区","city_kana":"キョウトシナカギョウク","town":"松本町御幸町通竹屋町東入","town_kana":"マツモトチョウ","prefecture_code":26},{"zip_code":"6040982","prefecture":"京都府","prefecture_kana":"キョウトフ","city":"京都市中京区","city_kana":"キョウトシナカギョウク","town":"松本町夷川通御幸町西入","town_kana":"マツモトチョウ","prefecture_code":26},{"zip_code":"6040982","prefecture":"京都府","prefecture_kana":"キョウトフ","city":"京都市中京区","city_kana":"キョウトシナカギョウク","town":"松本町夷川通御幸町東入","town_kana":"マツモトチョウ","prefecture_code":26}],"8013":[{"zip_code":"6048013","prefecture":"京都府","prefecture_kana":"キョウトフ","city":"京都市中京区","city_kana":"キョウトシナカギョウク","town":"松本町先斗町通四条上る","town_kana":"マツモトチョウポントチョウドオリ4ジョウアガル","prefecture_code":26},{"zip_code":"6048013","prefecture":"京都府","prefecture_kana":"キョウトフ","city":"京都市中京区","city_kana":"キョウトシナカギョウク","town":"松本町先斗町通三条下る","town_kana":"マツモトチョウポントチョウドオリ3ジョウサガル","prefecture_code":26}],"0831":{"zip_code":"6040831","prefecture":"京都府","prefecture_kana":"キョウトフ","city":"京都市中京区","city_kana":"キョウトシナカギョウク","town":"松屋町","town_kana":"マツヤチョウ","prefecture_code":26},"8106":{"zip_code":"6048106","prefecture":"京都府","prefecture_kana":"キョウトフ","city":"京都市中京区","city_kana":"キョウトシナカギョウク","town":"丸木材木町","town_kana":"マルキザイモクチョウ","prefecture_code":26},"0077":{"zip_code":"6040077","prefecture":"京都府","prefecture_kana":"キョウトフ","city":"京都市中京区","city_kana":"キョウトシナカギョウク","town":"丸太町","town_kana":"マルタチョウ","prefecture_code":26},"0917":[{"zip_code":"6040917","prefecture":"京都府","prefecture_kana":"キョウトフ","city":"京都市中京区","city_kana":"キョウトシナカギョウク","town":"丸屋町夷川通寺町西入","town_kana":"マルヤチョウエビスガワドオリテラマチニシイル","prefecture_code":26},{"zip_code":"6040917","prefecture":"京都府","prefecture_kana":"キョウトフ","city":"京都市中京区","city_kana":"キョウトシナカギョウク","town":"丸屋町夷川通御幸町東入","town_kana":"マルヤチョウエビスガワドオリゴコマチヒガシイル","prefecture_code":26}],"8086":[{"zip_code":"6048086","prefecture":"京都府","prefecture_kana":"キョウトフ","city":"京都市中京区","city_kana":"キョウトシナカギョウク","town":"丸屋町御幸町通姉小路下る","town_kana":"マルヤチョウ","prefecture_code":26},{"zip_code":"6048086","prefecture":"京都府","prefecture_kana":"キョウトフ","city":"京都市中京区","city_kana":"キョウトシナカギョウク","town":"丸屋町御幸町通三条上る","town_kana":"マルヤチョウ","prefecture_code":26},{"zip_code":"6048086","prefecture":"京都府","prefecture_kana":"キョウトフ","city":"京都市中京区","city_kana":"キョウトシナカギョウク","town":"丸屋町姉小路通御幸町西入","town_kana":"マルヤチョウ","prefecture_code":26},{"zip_code":"6048086","prefecture":"京都府","prefecture_kana":"キョウトフ","city":"京都市中京区","city_kana":"キョウトシナカギョウク","town":"丸屋町姉小路通御幸町東入","town_kana":"マルヤチョウ","prefecture_code":26}],"8132":[{"zip_code":"6048132","prefecture":"京都府","prefecture_kana":"キョウトフ","city":"京都市中京区","city_kana":"キョウトシナカギョウク","town":"丸屋町高倉通三条下る","town_kana":"マルヤチョウタカクラドオリ3ジョウサガル","prefecture_code":26},{"zip_code":"6048132","prefecture":"京都府","prefecture_kana":"キョウトフ","city":"京都市中京区","city_kana":"キョウトシナカギョウク","town":"丸屋町高倉通六角上る","town_kana":"マルヤチョウタカクラドオリロッカクアガル","prefecture_code":26}],"8161":{"zip_code":"6048161","prefecture":"京都府","prefecture_kana":"キョウトフ","city":"京都市中京区","city_kana":"キョウトシナカギョウク","town":"饅頭屋町","town_kana":"マンジュウヤチョウ","prefecture_code":26},"8166":{"zip_code":"6048166","prefecture":"京都府","prefecture_kana":"キョウトフ","city":"京都市中京区","city_kana":"キョウトシナカギョウク","town":"御倉町","town_kana":"ミクラチョウ","prefecture_code":26},"8147":{"zip_code":"6048147","prefecture":"京都府","prefecture_kana":"キョウトフ","city":"京都市中京区","city_kana":"キョウトシナカギョウク","town":"御射山町","town_kana":"ミサヤマチョウ","prefecture_code":26},"8022":{"zip_code":"6048022","prefecture":"京都府","prefecture_kana":"キョウトフ","city":"京都市中京区","city_kana":"キョウトシナカギョウク","town":"南車屋町","town_kana":"ミナミクルマヤチョウ","prefecture_code":26},"8812":{"zip_code":"6048812","prefecture":"京都府","prefecture_kana":"キョウトフ","city":"京都市中京区","city_kana":"キョウトシナカギョウク","town":"壬生相合町","town_kana":"ミブアイアイチョウ","prefecture_code":26},"8874":{"zip_code":"6048874","prefecture":"京都府","prefecture_kana":"キョウトフ","city":"京都市中京区","city_kana":"キョウトシナカギョウク","town":"壬生天池町","town_kana":"ミブアマガイケチョウ","prefecture_code":26},"8851":{"zip_code":"6048851","prefecture":"京都府","prefecture_kana":"キョウトフ","city":"京都市中京区","city_kana":"キョウトシナカギョウク","town":"壬生上大竹町","town_kana":"ミブカミオオタケチョウ","prefecture_code":26},"8811":{"zip_code":"6048811","prefecture":"京都府","prefecture_kana":"キョウトフ","city":"京都市中京区","city_kana":"キョウトシナカギョウク","town":"壬生賀陽御所町","town_kana":"ミブカヨウゴショチョウ","prefecture_code":26},"8872":{"zip_code":"6048872","prefecture":"京都府","prefecture_kana":"キョウトフ","city":"京都市中京区","city_kana":"キョウトシナカギョウク","town":"壬生御所ノ内町","town_kana":"ミブゴショノウチチョウ","prefecture_code":26},"8832":{"zip_code":"6048832","prefecture":"京都府","prefecture_kana":"キョウトフ","city":"京都市中京区","city_kana":"キョウトシナカギョウク","town":"壬生下溝町","town_kana":"ミブシモミゾチョウ","prefecture_code":26},"8871":{"zip_code":"6048871","prefecture":"京都府","prefecture_kana":"キョウトフ","city":"京都市中京区","city_kana":"キョウトシナカギョウク","town":"壬生朱雀町","town_kana":"ミブシュジャクチョウ","prefecture_code":26},"8861":{"zip_code":"6048861","prefecture":"京都府","prefecture_kana":"キョウトフ","city":"京都市中京区","city_kana":"キョウトシナカギョウク","town":"壬生神明町","town_kana":"ミブシンメイチョウ","prefecture_code":26},"8854":{"zip_code":"6048854","prefecture":"京都府","prefecture_kana":"キョウトフ","city":"京都市中京区","city_kana":"キョウトシナカギョウク","town":"壬生仙念町","town_kana":"ミブセンネンチョウ","prefecture_code":26},"8824":{"zip_code":"6048824","prefecture":"京都府","prefecture_kana":"キョウトフ","city":"京都市中京区","city_kana":"キョウトシナカギョウク","town":"壬生高樋町","town_kana":"ミブタカヒチョウ","prefecture_code":26},"8822":{"zip_code":"6048822","prefecture":"京都府","prefecture_kana":"キョウトフ","city":"京都市中京区","city_kana":"キョウトシナカギョウク","town":"壬生辻町","town_kana":"ミブツジマチ","prefecture_code":26},"8842":{"zip_code":"6048842","prefecture":"京都府","prefecture_kana":"キョウトフ","city":"京都市中京区","city_kana":"キョウトシナカギョウク","town":"壬生土居ノ内町","town_kana":"ミブドイノウチチョウ","prefecture_code":26},"8863":{"zip_code":"6048863","prefecture":"京都府","prefecture_kana":"キョウトフ","city":"京都市中京区","city_kana":"キョウトシナカギョウク","town":"壬生中川町","town_kana":"ミブナカガワチョウ","prefecture_code":26},"8821":{"zip_code":"6048821","prefecture":"京都府","prefecture_kana":"キョウトフ","city":"京都市中京区","city_kana":"キョウトシナカギョウク","town":"壬生梛ノ宮町","town_kana":"ミブナギノミヤチョウ","prefecture_code":26},"8856":{"zip_code":"6048856","prefecture":"京都府","prefecture_kana":"キョウトフ","city":"京都市中京区","city_kana":"キョウトシナカギョウク","town":"壬生西大竹町","town_kana":"ミブニシオオタケチョウ","prefecture_code":26},"8847":{"zip_code":"6048847","prefecture":"京都府","prefecture_kana":"キョウトフ","city":"京都市中京区","city_kana":"キョウトシナカギョウク","town":"壬生西土居ノ内町","town_kana":"ミブニシドイノウチチョウ","prefecture_code":26},"8846":{"zip_code":"6048846","prefecture":"京都府","prefecture_kana":"キョウトフ","city":"京都市中京区","city_kana":"キョウトシナカギョウク","town":"壬生西桧町","town_kana":"ミブニシヒノキチョウ","prefecture_code":26},"8873":{"zip_code":"6048873","prefecture":"京都府","prefecture_kana":"キョウトフ","city":"京都市中京区","city_kana":"キョウトシナカギョウク","town":"壬生花井町","town_kana":"ミブハナイチョウ","prefecture_code":26},"8805":{"zip_code":"6048805","prefecture":"京都府","prefecture_kana":"キョウトフ","city":"京都市中京区","city_kana":"キョウトシナカギョウク","town":"壬生馬場町","town_kana":"ミブバンバチョウ","prefecture_code":26},"8852":{"zip_code":"6048852","prefecture":"京都府","prefecture_kana":"キョウトフ","city":"京都市中京区","city_kana":"キョウトシナカギョウク","town":"壬生東大竹町","town_kana":"ミブヒガシオオタケチョウ","prefecture_code":26},"8845":{"zip_code":"6048845","prefecture":"京都府","prefecture_kana":"キョウトフ","city":"京都市中京区","city_kana":"キョウトシナカギョウク","town":"壬生東高田町","town_kana":"ミブヒガシタカダチョウ","prefecture_code":26},"8841":{"zip_code":"6048841","prefecture":"京都府","prefecture_kana":"キョウトフ","city":"京都市中京区","city_kana":"キョウトシナカギョウク","town":"壬生東土居ノ内町","town_kana":"ミブヒガシドイノウチチョウ","prefecture_code":26},"8843":{"zip_code":"6048843","prefecture":"京都府","prefecture_kana":"キョウトフ","city":"京都市中京区","city_kana":"キョウトシナカギョウク","town":"壬生東桧町","town_kana":"ミブヒガシヒノキチョウ","prefecture_code":26},"8853":{"zip_code":"6048853","prefecture":"京都府","prefecture_kana":"キョウトフ","city":"京都市中京区","city_kana":"キョウトシナカギョウク","town":"壬生東淵田町","town_kana":"ミブヒガシフチダチョウ","prefecture_code":26},"8844":{"zip_code":"6048844","prefecture":"京都府","prefecture_kana":"キョウトフ","city":"京都市中京区","city_kana":"キョウトシナカギョウク","town":"壬生桧町","town_kana":"ミブヒノキチョウ","prefecture_code":26},"8855":{"zip_code":"6048855","prefecture":"京都府","prefecture_kana":"キョウトフ","city":"京都市中京区","city_kana":"キョウトシナカギョウク","town":"壬生淵田町","town_kana":"ミブフチダチョウ","prefecture_code":26},"8804":{"zip_code":"6048804","prefecture":"京都府","prefecture_kana":"キョウトフ","city":"京都市中京区","city_kana":"キョウトシナカギョウク","town":"壬生坊城町","town_kana":"ミブボウジョウチョウ","prefecture_code":26},"8823":{"zip_code":"6048823","prefecture":"京都府","prefecture_kana":"キョウトフ","city":"京都市中京区","city_kana":"キョウトシナカギョウク","town":"壬生松原町","town_kana":"ミブマツバラチョウ","prefecture_code":26},"8831":{"zip_code":"6048831","prefecture":"京都府","prefecture_kana":"キョウトフ","city":"京都市中京区","city_kana":"キョウトシナカギョウク","town":"壬生森前町","town_kana":"ミブモリマエチョウ","prefecture_code":26},"8862":{"zip_code":"6048862","prefecture":"京都府","prefecture_kana":"キョウトフ","city":"京都市中京区","city_kana":"キョウトシナカギョウク","town":"壬生森町","town_kana":"ミブモリマチ","prefecture_code":26},"8275":{"zip_code":"6048275","prefecture":"京都府","prefecture_kana":"キョウトフ","city":"京都市中京区","city_kana":"キョウトシナカギョウク","town":"宮木町","town_kana":"ミヤギチョウ","prefecture_code":26},"8353":{"zip_code":"6048353","prefecture":"京都府","prefecture_kana":"キョウトフ","city":"京都市中京区","city_kana":"キョウトシナカギョウク","town":"宮本町","town_kana":"ミヤモトチョウ","prefecture_code":26},"0932":{"zip_code":"6040932","prefecture":"京都府","prefecture_kana":"キョウトフ","city":"京都市中京区","city_kana":"キョウトシナカギョウク","town":"妙満寺前町","town_kana":"ミョウマンジマエチョウ","prefecture_code":26},"0805":[{"zip_code":"6040805","prefecture":"京都府","prefecture_kana":"キョウトフ","city":"京都市中京区","city_kana":"キョウトシナカギョウク","town":"百足屋町夷川通柳馬場西入","town_kana":"ムカデヤチョウ","prefecture_code":26},{"zip_code":"6040805","prefecture":"京都府","prefecture_kana":"キョウトフ","city":"京都市中京区","city_kana":"キョウトシナカギョウク","town":"百足屋町夷川通堺町東入","town_kana":"ムカデヤチョウ","prefecture_code":26},{"zip_code":"6040805","prefecture":"京都府","prefecture_kana":"キョウトフ","city":"京都市中京区","city_kana":"キョウトシナカギョウク","town":"百足屋町夷川通堺町西入","town_kana":"ムカデヤチョウ","prefecture_code":26},{"zip_code":"6040805","prefecture":"京都府","prefecture_kana":"キョウトフ","city":"京都市中京区","city_kana":"キョウトシナカギョウク","town":"百足屋町夷川通高倉東入","town_kana":"ムカデヤチョウ","prefecture_code":26}],"8214":[{"zip_code":"6048214","prefecture":"京都府","prefecture_kana":"キョウトフ","city":"京都市中京区","city_kana":"キョウトシナカギョウク","town":"百足屋町新町通蛸薬師下る","town_kana":"ムカデヤチョウ","prefecture_code":26},{"zip_code":"6048214","prefecture":"京都府","prefecture_kana":"キョウトフ","city":"京都市中京区","city_kana":"キョウトシナカギョウク","town":"百足屋町新町通錦小路上る","town_kana":"ムカデヤチョウ","prefecture_code":26},{"zip_code":"6048214","prefecture":"京都府","prefecture_kana":"キョウトフ","city":"京都市中京区","city_kana":"キョウトシナカギョウク","town":"百足屋町蛸薬師通新町西入","town_kana":"ムカデヤチョウ","prefecture_code":26},{"zip_code":"6048214","prefecture":"京都府","prefecture_kana":"キョウトフ","city":"京都市中京区","city_kana":"キョウトシナカギョウク","town":"百足屋町錦小路通新町西入","town_kana":"ムカデヤチョウ","prefecture_code":26},{"zip_code":"6048214","prefecture":"京都府","prefecture_kana":"キョウトフ","city":"京都市中京区","city_kana":"キョウトシナカギョウク","town":"百足屋町錦小路通新町東入","town_kana":"ムカデヤチョウ","prefecture_code":26}],"8303":{"zip_code":"6048303","prefecture":"京都府","prefecture_kana":"キョウトフ","city":"京都市中京区","city_kana":"キョウトシナカギョウク","town":"最上町","town_kana":"モガミチョウ","prefecture_code":26},"8145":{"zip_code":"6048145","prefecture":"京都府","prefecture_kana":"キョウトフ","city":"京都市中京区","city_kana":"キョウトシナカギョウク","town":"元竹田町","town_kana":"モトタケダチョウ","prefecture_code":26},"8144":{"zip_code":"6048144","prefecture":"京都府","prefecture_kana":"キョウトフ","city":"京都市中京区","city_kana":"キョウトシナカギョウク","town":"元法然寺町","town_kana":"モトホウネンジチョウ","prefecture_code":26},"8244":{"zip_code":"6048244","prefecture":"京都府","prefecture_kana":"キョウトフ","city":"京都市中京区","city_kana":"キョウトシナカギョウク","town":"元本能寺町","town_kana":"モトホンノウジチョウ","prefecture_code":26},"8231":{"zip_code":"6048231","prefecture":"京都府","prefecture_kana":"キョウトフ","city":"京都市中京区","city_kana":"キョウトシナカギョウク","town":"元本能寺南町","town_kana":"モトホンノウジミナミチョウ","prefecture_code":26},"0053":{"zip_code":"6040053","prefecture":"京都府","prefecture_kana":"キョウトフ","city":"京都市中京区","city_kana":"キョウトシナカギョウク","town":"森ノ木町","town_kana":"モリノキチョウ","prefecture_code":26},"0953":{"zip_code":"6040953","prefecture":"京都府","prefecture_kana":"キョウトフ","city":"京都市中京区","city_kana":"キョウトシナカギョウク","town":"守山町","town_kana":"モリヤマチョウ","prefecture_code":26},"8306":{"zip_code":"6048306","prefecture":"京都府","prefecture_kana":"キョウトフ","city":"京都市中京区","city_kana":"キョウトシナカギョウク","town":"門前町","town_kana":"モンゼンチョウ","prefecture_code":26},"8072":[{"zip_code":"6048072","prefecture":"京都府","prefecture_kana":"キョウトフ","city":"京都市中京区","city_kana":"キョウトシナカギョウク","town":"八百屋町六角通寺町西入","town_kana":"ヤオヤチョウ","prefecture_code":26},{"zip_code":"6048072","prefecture":"京都府","prefecture_kana":"キョウトフ","city":"京都市中京区","city_kana":"キョウトシナカギョウク","town":"八百屋町六角通御幸町東入","town_kana":"ヤオヤチョウ","prefecture_code":26},{"zip_code":"6048072","prefecture":"京都府","prefecture_kana":"キョウトフ","city":"京都市中京区","city_kana":"キョウトシナカギョウク","town":"八百屋町六角通御幸町西入","town_kana":"ヤオヤチョウ","prefecture_code":26},{"zip_code":"6048072","prefecture":"京都府","prefecture_kana":"キョウトフ","city":"京都市中京区","city_kana":"キョウトシナカギョウク","town":"八百屋町六角通麩屋町東入","town_kana":"ヤオヤチョウ","prefecture_code":26},{"zip_code":"6048072","prefecture":"京都府","prefecture_kana":"キョウトフ","city":"京都市中京区","city_kana":"キョウトシナカギョウク","town":"八百屋町御幸町通麩屋町下る","town_kana":"ヤオヤチョウ","prefecture_code":26},{"zip_code":"6048072","prefecture":"京都府","prefecture_kana":"キョウトフ","city":"京都市中京区","city_kana":"キョウトシナカギョウク","town":"八百屋町麩屋町通六角下る","town_kana":"ヤオヤチョウ","prefecture_code":26}],"8123":[{"zip_code":"6048123","prefecture":"京都府","prefecture_kana":"キョウトフ","city":"京都市中京区","city_kana":"キョウトシナカギョウク","town":"八百屋町堺町通錦小路下る","town_kana":"ヤオヤチョウサカイマチドオリニシキコウジサガル","prefecture_code":26},{"zip_code":"6048123","prefecture":"京都府","prefecture_kana":"キョウトフ","city":"京都市中京区","city_kana":"キョウトシナカギョウク","town":"八百屋町堺町通四条上る","town_kana":"ヤオヤチョウサカイマチドオリ4ジョウアガル","prefecture_code":26}],"0062":{"zip_code":"6040062","prefecture":"京都府","prefecture_kana":"キョウトフ","city":"京都市中京区","city_kana":"キョウトシナカギョウク","town":"薬師町","town_kana":"ヤクシチョウ","prefecture_code":26},"8101":{"zip_code":"6048101","prefecture":"京都府","prefecture_kana":"キョウトフ","city":"京都市中京区","city_kana":"キョウトシナカギョウク","town":"柳八幡町","town_kana":"ヤナギハチマンチョウ","prefecture_code":26},"8032":{"zip_code":"6048032","prefecture":"京都府","prefecture_kana":"キョウトフ","city":"京都市中京区","city_kana":"キョウトシナカギョウク","town":"山崎町","town_kana":"ヤマザキチョウ","prefecture_code":26},"8237":{"zip_code":"6048237","prefecture":"京都府","prefecture_kana":"キョウトフ","city":"京都市中京区","city_kana":"キョウトシナカギョウク","town":"山田町","town_kana":"ヤマダチョウ","prefecture_code":26},"0815":{"zip_code":"6040815","prefecture":"京都府","prefecture_kana":"キョウトフ","city":"京都市中京区","city_kana":"キョウトシナカギョウク","town":"山中町","town_kana":"ヤマナカチョウ","prefecture_code":26},"8156":{"zip_code":"6048156","prefecture":"京都府","prefecture_kana":"キョウトフ","city":"京都市中京区","city_kana":"キョウトシナカギョウク","town":"山伏山町","town_kana":"ヤマブシヤマチョウ","prefecture_code":26},"0933":{"zip_code":"6040933","prefecture":"京都府","prefecture_kana":"キョウトフ","city":"京都市中京区","city_kana":"キョウトシナカギョウク","town":"山本町","town_kana":"ヤマモトチョウ","prefecture_code":26},"0064":{"zip_code":"6040064","prefecture":"京都府","prefecture_kana":"キョウトフ","city":"京都市中京区","city_kana":"キョウトシナカギョウク","town":"矢幡町","town_kana":"ヤワタチョウ","prefecture_code":26},"0916":{"zip_code":"6040916","prefecture":"京都府","prefecture_kana":"キョウトフ","city":"京都市中京区","city_kana":"キョウトシナカギョウク","town":"要法寺前町","town_kana":"ヨウホウジマエチョウ","prefecture_code":26},"0087":{"zip_code":"6040087","prefecture":"京都府","prefecture_kana":"キョウトフ","city":"京都市中京区","city_kana":"キョウトシナカギョウク","town":"横鍛冶町","town_kana":"ヨコカジチョウ","prefecture_code":26},"8361":{"zip_code":"6048361","prefecture":"京都府","prefecture_kana":"キョウトフ","city":"京都市中京区","city_kana":"キョウトシナカギョウク","town":"吉野町","town_kana":"ヨシノチョウ","prefecture_code":26},"0974":{"zip_code":"6040974","prefecture":"京都府","prefecture_kana":"キョウトフ","city":"京都市中京区","city_kana":"キョウトシナカギョウク","town":"四丁目","town_kana":"ヨンチョウメ","prefecture_code":26},"8242":{"zip_code":"6048242","prefecture":"京都府","prefecture_kana":"キョウトフ","city":"京都市中京区","city_kana":"キョウトシナカギョウク","town":"柳水町","town_kana":"リュウスイチョウ","prefecture_code":26},"8204":{"zip_code":"6048204","prefecture":"京都府","prefecture_kana":"キョウトフ","city":"京都市中京区","city_kana":"キョウトシナカギョウク","town":"了頓図子町","town_kana":"リョウトンズシチョウ","prefecture_code":26},"0011":{"zip_code":"6040011","prefecture":"京都府","prefecture_kana":"キョウトフ","city":"京都市中京区","city_kana":"キョウトシナカギョウク","town":"冷泉町","town_kana":"レイセンチョウ","prefecture_code":26},"0965":{"zip_code":"6040965","prefecture":"京都府","prefecture_kana":"キョウトフ","city":"京都市中京区","city_kana":"キョウトシナカギョウク","town":"六丁目","town_kana":"ロクチョウメ","prefecture_code":26},"8245":{"zip_code":"6048245","prefecture":"京都府","prefecture_kana":"キョウトフ","city":"京都市中京区","city_kana":"キョウトシナカギョウク","town":"六角油小路町","town_kana":"ロッカクアブラノコウジチョウ","prefecture_code":26},"8342":{"zip_code":"6048342","prefecture":"京都府","prefecture_kana":"キョウトフ","city":"京都市中京区","city_kana":"キョウトシナカギョウク","town":"六角猪熊町","town_kana":"ロッカクイノクマチョウ","prefecture_code":26},"8344":{"zip_code":"6048344","prefecture":"京都府","prefecture_kana":"キョウトフ","city":"京都市中京区","city_kana":"キョウトシナカギョウク","town":"六角大宮町","town_kana":"ロッカクオオミヤチョウ","prefecture_code":26},"8212":{"zip_code":"6048212","prefecture":"京都府","prefecture_kana":"キョウトフ","city":"京都市中京区","city_kana":"キョウトシナカギョウク","town":"六角町","town_kana":"ロッカクチョウ","prefecture_code":26},"8011":{"zip_code":"6048011","prefecture":"京都府","prefecture_kana":"キョウトフ","city":"京都市中京区","city_kana":"キョウトシナカギョウク","town":"若松町","town_kana":"ワカマツチョウ","prefecture_code":26},"0803":[{"zip_code":"6040803","prefecture":"京都府","prefecture_kana":"キョウトフ","city":"京都市中京区","city_kana":"キョウトシナカギョウク","town":"和久屋町竹屋町通柳馬場西入","town_kana":"ワクヤチョウ","prefecture_code":26},{"zip_code":"6040803","prefecture":"京都府","prefecture_kana":"キョウトフ","city":"京都市中京区","city_kana":"キョウトシナカギョウク","town":"和久屋町竹屋町通堺町東入","town_kana":"ワクヤチョウ","prefecture_code":26},{"zip_code":"6040803","prefecture":"京都府","prefecture_kana":"キョウトフ","city":"京都市中京区","city_kana":"キョウトシナカギョウク","town":"和久屋町竹屋町通堺町西入","town_kana":"ワクヤチョウ","prefecture_code":26},{"zip_code":"6040803","prefecture":"京都府","prefecture_kana":"キョウトフ","city":"京都市中京区","city_kana":"キョウトシナカギョウク","town":"和久屋町竹屋町通高倉東入","town_kana":"ワクヤチョウ","prefecture_code":26}],"8116":[{"zip_code":"6048116","prefecture":"京都府","prefecture_kana":"キョウトフ","city":"京都市中京区","city_kana":"キョウトシナカギョウク","town":"和久屋町高倉通六角下る","town_kana":"ワクヤチョウタカクラドオリロッカクサガル","prefecture_code":26},{"zip_code":"6048116","prefecture":"京都府","prefecture_kana":"キョウトフ","city":"京都市中京区","city_kana":"キョウトシナカギョウク","town":"和久屋町高倉通蛸薬師上る","town_kana":"ワクヤチョウタカクラドオリタコヤクシアガル","prefecture_code":26}],"8181":{"zip_code":"6048181","prefecture":"京都府","prefecture_kana":"キョウトフ","city":"京都市中京区","city_kana":"キョウトシナカギョウク","town":"綿屋町","town_kana":"ワタヤチョウ","prefecture_code":26}}