{"0000":{"zip_code":"6050000","prefecture":"京都府","prefecture_kana":"キョウトフ","city":"京都市東山区","city_kana":"キョウトシヒガシヤマク","town":"","town_kana":"","prefecture_code":26},"0856":{"zip_code":"6050856","prefecture":"京都府","prefecture_kana":"キョウトフ","city":"京都市東山区","city_kana":"キョウトシヒガシヤマク","town":"新シ町","town_kana":"アタラシチョウ","prefecture_code":26},"0051":{"zip_code":"6050051","prefecture":"京都府","prefecture_kana":"キョウトフ","city":"京都市東山区","city_kana":"キョウトシヒガシヤマク","town":"粟田口鍛冶町","town_kana":"アワダグチカジチョウ","prefecture_code":26},"0052":{"zip_code":"6050052","prefecture":"京都府","prefecture_kana":"キョウトフ","city":"京都市東山区","city_kana":"キョウトシヒガシヤマク","town":"粟田口華頂町","town_kana":"アワダグチカチョウチョウ","prefecture_code":26},"0035":{"zip_code":"6050035","prefecture":"京都府","prefecture_kana":"キョウトフ","city":"京都市東山区","city_kana":"キョウトシヒガシヤマク","town":"粟田口三条坊町","town_kana":"アワダグチサンジョウボウチョウ","prefecture_code":26},"0848":{"zip_code":"6050848","prefecture":"京都府","prefecture_kana":"キョウトフ","city":"京都市東山区","city_kana":"キョウトシヒガシヤマク","town":"池殿町","town_kana":"イケドノチョウ","prefecture_code":26},"0913":{"zip_code":"6050913","prefecture":"京都府","prefecture_kana":"キョウトフ","city":"京都市東山区","city_kana":"キョウトシヒガシヤマク","town":"石垣町東側","town_kana":"イシガキマチヒガシガワ","prefecture_code":26},"0912":{"zip_code":"6050912","prefecture":"京都府","prefecture_kana":"キョウトフ","city":"京都市東山区","city_kana":"キョウトシヒガシヤマク","town":"石垣町西側","town_kana":"イシガキマチニシガワ","prefecture_code":26},"0066":{"zip_code":"6050066","prefecture":"京都府","prefecture_kana":"キョウトフ","city":"京都市東山区","city_kana":"キョウトシヒガシヤマク","town":"石橋町","town_kana":"イシバシチョウ","prefecture_code":26},"0995":{"zip_code":"6050995","prefecture":"京都府","prefecture_kana":"キョウトフ","city":"京都市東山区","city_kana":"キョウトシヒガシヤマク","town":"一橋野本町","town_kana":"イチノハシノモトチョウ","prefecture_code":26},"0994":{"zip_code":"6050994","prefecture":"京都府","prefecture_kana":"キョウトフ","city":"京都市東山区","city_kana":"キョウトシヒガシヤマク","town":"一橋宮ノ内町","town_kana":"イチノハシミヤノウチチョウ","prefecture_code":26},"0804":{"zip_code":"6050804","prefecture":"京都府","prefecture_kana":"キョウトフ","city":"京都市東山区","city_kana":"キョウトシヒガシヤマク","town":"井手町","town_kana":"イデチョウ","prefecture_code":26},"0068":{"zip_code":"6050068","prefecture":"京都府","prefecture_kana":"キョウトフ","city":"京都市東山区","city_kana":"キョウトシヒガシヤマク","town":"稲荷町北組","town_kana":"イナリチョウキタグミ","prefecture_code":26},"0067":{"zip_code":"6050067","prefecture":"京都府","prefecture_kana":"キョウトフ","city":"京都市東山区","city_kana":"キョウトシヒガシヤマク","town":"稲荷町南組","town_kana":"イナリチョウミナミグミ","prefecture_code":26},"0924":{"zip_code":"6050924","prefecture":"京都府","prefecture_kana":"キョウトフ","city":"京都市東山区","city_kana":"キョウトシヒガシヤマク","town":"今熊野阿弥陀ケ峰町","town_kana":"イマグマノアミダガミネチョウ","prefecture_code":26},"0965":{"zip_code":"6050965","prefecture":"京都府","prefecture_kana":"キョウトフ","city":"京都市東山区","city_kana":"キョウトシヒガシヤマク","town":"今熊野池田町","town_kana":"イマグマノイケダチョウ","prefecture_code":26},"0956":{"zip_code":"6050956","prefecture":"京都府","prefecture_kana":"キョウトフ","city":"京都市東山区","city_kana":"キョウトシヒガシヤマク","town":"今熊野梅ケ谷町","town_kana":"イマグマノウメガタニチョウ","prefecture_code":26},"0926":{"zip_code":"6050926","prefecture":"京都府","prefecture_kana":"キョウトフ","city":"京都市東山区","city_kana":"キョウトシヒガシヤマク","town":"今熊野北日吉町","town_kana":"イマグマノキタヒヨシチョウ","prefecture_code":26},"0954":{"zip_code":"6050954","prefecture":"京都府","prefecture_kana":"キョウトフ","city":"京都市東山区","city_kana":"キョウトシヒガシヤマク","town":"今熊野小松山町","town_kana":"イマグマノコマツヤマチョウ","prefecture_code":26},"0957":{"zip_code":"6050957","prefecture":"京都府","prefecture_kana":"キョウトフ","city":"京都市東山区","city_kana":"キョウトシヒガシヤマク","town":"今熊野泉山町","town_kana":"イマグマノセンザンチョウ","prefecture_code":26},"0955":{"zip_code":"6050955","prefecture":"京都府","prefecture_kana":"キョウトフ","city":"京都市東山区","city_kana":"キョウトシヒガシヤマク","town":"今熊野総山町","town_kana":"イマグマノソウザンチョウ","prefecture_code":26},"0972":{"zip_code":"6050972","prefecture":"京都府","prefecture_kana":"キョウトフ","city":"京都市東山区","city_kana":"キョウトシヒガシヤマク","town":"今熊野剣宮町","town_kana":"イマグマノツルギノミヤチョウ","prefecture_code":26},"0971":{"zip_code":"6050971","prefecture":"京都府","prefecture_kana":"キョウトフ","city":"京都市東山区","city_kana":"キョウトシヒガシヤマク","town":"今熊野椥ノ森町","town_kana":"イマグマノナギノモリチョウ","prefecture_code":26},"0925":{"zip_code":"6050925","prefecture":"京都府","prefecture_kana":"キョウトフ","city":"京都市東山区","city_kana":"キョウトシヒガシヤマク","town":"今熊野日吉町","town_kana":"イマグマノヒヨシチョウ","prefecture_code":26},"0952":{"zip_code":"6050952","prefecture":"京都府","prefecture_kana":"キョウトフ","city":"京都市東山区","city_kana":"キョウトシヒガシヤマク","town":"今熊野宝蔵町","town_kana":"イマグマノホウゾウチョウ","prefecture_code":26},"0978":{"zip_code":"6050978","prefecture":"京都府","prefecture_kana":"キョウトフ","city":"京都市東山区","city_kana":"キョウトシヒガシヤマク","town":"今熊野本多山町","town_kana":"イマグマノホンダヤマチョウ","prefecture_code":26},"0979":{"zip_code":"6050979","prefecture":"京都府","prefecture_kana":"キョウトフ","city":"京都市東山区","city_kana":"キョウトシヒガシヤマク","town":"今熊野南谷町","town_kana":"イマグマノミナミダニチョウ","prefecture_code":26},"0953":{"zip_code":"6050953","prefecture":"京都府","prefecture_kana":"キョウトフ","city":"京都市東山区","city_kana":"キョウトシヒガシヤマク","town":"今熊野南日吉町","town_kana":"イマグマノミナミヒヨシチョウ","prefecture_code":26},"0023":{"zip_code":"6050023","prefecture":"京都府","prefecture_kana":"キョウトフ","city":"京都市東山区","city_kana":"キョウトシヒガシヤマク","town":"今小路町","town_kana":"イマコウジチョウ","prefecture_code":26},"0042":{"zip_code":"6050042","prefecture":"京都府","prefecture_kana":"キョウトフ","city":"京都市東山区","city_kana":"キョウトシヒガシヤマク","town":"今道町","town_kana":"イマミチチョウ","prefecture_code":26},"0852":{"zip_code":"6050852","prefecture":"京都府","prefecture_kana":"キョウトフ","city":"京都市東山区","city_kana":"キョウトシヒガシヤマク","town":"上田町","town_kana":"ウエダチョウ","prefecture_code":26},"0061":{"zip_code":"6050061","prefecture":"京都府","prefecture_kana":"キョウトフ","city":"京都市東山区","city_kana":"キョウトシヒガシヤマク","town":"梅宮町","town_kana":"ウメミヤチョウ","prefecture_code":26},"0064":{"zip_code":"6050064","prefecture":"京都府","prefecture_kana":"キョウトフ","city":"京都市東山区","city_kana":"キョウトシヒガシヤマク","town":"梅本町","town_kana":"ウメモトチョウ","prefecture_code":26},"0033":{"zip_code":"6050033","prefecture":"京都府","prefecture_kana":"キョウトフ","city":"京都市東山区","city_kana":"キョウトシヒガシヤマク","town":"夷町","town_kana":"エビスチョウ","prefecture_code":26},"0936":{"zip_code":"6050936","prefecture":"京都府","prefecture_kana":"キョウトフ","city":"京都市東山区","city_kana":"キョウトシヒガシヤマク","town":"蛭子町南組","town_kana":"エビスチョウミナミグミ","prefecture_code":26},"0917":{"zip_code":"6050917","prefecture":"京都府","prefecture_kana":"キョウトフ","city":"京都市東山区","city_kana":"キョウトシヒガシヤマク","town":"蛭子町北組","town_kana":"エビスチョウキタグミ","prefecture_code":26},"0022":{"zip_code":"6050022","prefecture":"京都府","prefecture_kana":"キョウトフ","city":"京都市東山区","city_kana":"キョウトシヒガシヤマク","town":"大井手町","town_kana":"オオイデチョウ","prefecture_code":26},"0904":{"zip_code":"6050904","prefecture":"京都府","prefecture_kana":"キョウトフ","city":"京都市東山区","city_kana":"キョウトシヒガシヤマク","town":"大阪町","town_kana":"オオサカチョウ","prefecture_code":26},"0009":{"zip_code":"6050009","prefecture":"京都府","prefecture_kana":"キョウトフ","city":"京都市東山区","city_kana":"キョウトシヒガシヤマク","town":"大橋町","town_kana":"オオハシチョウ","prefecture_code":26},"0833":{"zip_code":"6050833","prefecture":"京都府","prefecture_kana":"キョウトフ","city":"京都市東山区","city_kana":"キョウトシヒガシヤマク","town":"音羽町","town_kana":"オトワチョウ","prefecture_code":26},"0909":{"zip_code":"6050909","prefecture":"京都府","prefecture_kana":"キョウトフ","city":"京都市東山区","city_kana":"キョウトシヒガシヤマク","town":"鍵屋町","town_kana":"カギヤチョウ","prefecture_code":26},"0843":{"zip_code":"6050843","prefecture":"京都府","prefecture_kana":"キョウトフ","city":"京都市東山区","city_kana":"キョウトシヒガシヤマク","town":"門脇町","town_kana":"カドワキチョウ","prefecture_code":26},"0834":{"zip_code":"6050834","prefecture":"京都府","prefecture_kana":"キョウトフ","city":"京都市東山区","city_kana":"キョウトシヒガシヤマク","town":"金屋町","town_kana":"カナヤチョウ","prefecture_code":26},"0875":{"zip_code":"6050875","prefecture":"京都府","prefecture_kana":"キョウトフ","city":"京都市東山区","city_kana":"キョウトシヒガシヤマク","town":"鐘鋳町","town_kana":"カネイチョウ","prefecture_code":26},"0877":{"zip_code":"6050877","prefecture":"京都府","prefecture_kana":"キョウトフ","city":"京都市東山区","city_kana":"キョウトシヒガシヤマク","town":"上新シ町","town_kana":"カミアタラシチョウ","prefecture_code":26},"0968":{"zip_code":"6050968","prefecture":"京都府","prefecture_kana":"キョウトフ","city":"京都市東山区","city_kana":"キョウトシヒガシヤマク","town":"上池田町","town_kana":"カミイケダチョウ","prefecture_code":26},"0927":{"zip_code":"6050927","prefecture":"京都府","prefecture_kana":"キョウトフ","city":"京都市東山区","city_kana":"キョウトシヒガシヤマク","town":"上馬町","town_kana":"カミウマチョウ","prefecture_code":26},"0876":{"zip_code":"6050876","prefecture":"京都府","prefecture_kana":"キョウトフ","city":"京都市東山区","city_kana":"キョウトシヒガシヤマク","town":"上梅屋町","town_kana":"カミウメヤチョウ","prefecture_code":26},"0916":{"zip_code":"6050916","prefecture":"京都府","prefecture_kana":"キョウトフ","city":"京都市東山区","city_kana":"キョウトシヒガシヤマク","town":"上棟梁町","town_kana":"カミトウリョウチョウ","prefecture_code":26},"0822":{"zip_code":"6050822","prefecture":"京都府","prefecture_kana":"キョウトフ","city":"京都市東山区","city_kana":"キョウトシヒガシヤマク","town":"上弁天町","town_kana":"カミベンテンチョウ","prefecture_code":26},"0991":{"zip_code":"6050991","prefecture":"京都府","prefecture_kana":"キョウトフ","city":"京都市東山区","city_kana":"キョウトシヒガシヤマク","town":"上堀詰町","town_kana":"カミホリツメチョウ","prefecture_code":26},"0807":{"zip_code":"6050807","prefecture":"京都府","prefecture_kana":"キョウトフ","city":"京都市東山区","city_kana":"キョウトシヒガシヤマク","town":"上柳町","town_kana":"カミヤナギチョウ","prefecture_code":26},"0803":{"zip_code":"6050803","prefecture":"京都府","prefecture_kana":"キョウトフ","city":"京都市東山区","city_kana":"キョウトシヒガシヤマク","town":"亀井町","town_kana":"カメイチョウ","prefecture_code":26},"0069":{"zip_code":"6050069","prefecture":"京都府","prefecture_kana":"キョウトフ","city":"京都市東山区","city_kana":"キョウトシヒガシヤマク","town":"唐戸鼻町","town_kana":"カラトハナチョウ","prefecture_code":26},"0076":{"zip_code":"6050076","prefecture":"京都府","prefecture_kana":"キョウトフ","city":"京都市東山区","city_kana":"キョウトシヒガシヤマク","town":"川端町","town_kana":"カワバタチョウ","prefecture_code":26},"0921":{"zip_code":"6050921","prefecture":"京都府","prefecture_kana":"キョウトフ","city":"京都市東山区","city_kana":"キョウトシヒガシヤマク","town":"瓦役町","town_kana":"カワラヤクチョウ","prefecture_code":26},"0074":{"zip_code":"6050074","prefecture":"京都府","prefecture_kana":"キョウトフ","city":"京都市東山区","city_kana":"キョウトシヒガシヤマク","town":"祇園町南側","town_kana":"ギオンマチミナミガワ","prefecture_code":26},"0073":{"zip_code":"6050073","prefecture":"京都府","prefecture_kana":"キョウトフ","city":"京都市東山区","city_kana":"キョウトシヒガシヤマク","town":"祇園町北側","town_kana":"ギオンマチキタガワ","prefecture_code":26},"0014":{"zip_code":"6050014","prefecture":"京都府","prefecture_kana":"キョウトフ","city":"京都市東山区","city_kana":"キョウトシヒガシヤマク","town":"北木之元町","town_kana":"キタキノモトチョウ","prefecture_code":26},"0815":{"zip_code":"6050815","prefecture":"京都府","prefecture_kana":"キョウトフ","city":"京都市東山区","city_kana":"キョウトシヒガシヤマク","town":"北御門町","town_kana":"キタゴモンチョウ","prefecture_code":26},"0918":{"zip_code":"6050918","prefecture":"京都府","prefecture_kana":"キョウトフ","city":"京都市東山区","city_kana":"キョウトシヒガシヤマク","town":"北棟梁町","town_kana":"キタトウリョウチョウ","prefecture_code":26},"0821":{"zip_code":"6050821","prefecture":"京都府","prefecture_kana":"キョウトフ","city":"京都市東山区","city_kana":"キョウトシヒガシヤマク","town":"清井町","town_kana":"キヨイチョウ","prefecture_code":26},"0002":{"zip_code":"6050002","prefecture":"京都府","prefecture_kana":"キョウトフ","city":"京都市東山区","city_kana":"キョウトシヒガシヤマク","town":"教業町","town_kana":"キョウギョウチョウ","prefecture_code":26},"0862":{"zip_code":"6050862","prefecture":"京都府","prefecture_kana":"キョウトフ","city":"京都市東山区","city_kana":"キョウトシヒガシヤマク","town":"清水","town_kana":"キヨミズ","prefecture_code":26},"0084":{"zip_code":"6050084","prefecture":"京都府","prefecture_kana":"キョウトフ","city":"京都市東山区","city_kana":"キョウトシヒガシヤマク","town":"清本町","town_kana":"キヨモトチョウ","prefecture_code":26},"0828":{"zip_code":"6050828","prefecture":"京都府","prefecture_kana":"キョウトフ","city":"京都市東山区","city_kana":"キョウトシヒガシヤマク","town":"金園町","town_kana":"キンエンチョウ","prefecture_code":26},"0857":{"zip_code":"6050857","prefecture":"京都府","prefecture_kana":"キョウトフ","city":"京都市東山区","city_kana":"キョウトシヒガシヤマク","town":"興善町","town_kana":"コウゼンチョウ","prefecture_code":26},"0007":[{"zip_code":"6050007","prefecture":"京都府","prefecture_kana":"キョウトフ","city":"京都市東山区","city_kana":"キョウトシヒガシヤマク","town":"五軒町大和大路通三条下る","town_kana":"ゴケンチョウヤマトオオジドオリサンジョウサガル","prefecture_code":26},{"zip_code":"6050007","prefecture":"京都府","prefecture_kana":"キョウトフ","city":"京都市東山区","city_kana":"キョウトシヒガシヤマク","town":"五軒町大和大路通三条下る西入","town_kana":"ゴケンチョウヤマトオオジドオリサンジョウサガルニシイル","prefecture_code":26}],"0036":[{"zip_code":"6050036","prefecture":"京都府","prefecture_kana":"キョウトフ","city":"京都市東山区","city_kana":"キョウトシヒガシヤマク","town":"五軒町三条通白川橋東入","town_kana":"ゴケンチョウサンジョウドオリシラカワバシヒガシイル","prefecture_code":26},{"zip_code":"6050036","prefecture":"京都府","prefecture_kana":"キョウトフ","city":"京都市東山区","city_kana":"キョウトシヒガシヤマク","town":"五軒町三条通白川橋下る東入","town_kana":"ゴケンチョウサンジョウドオリシラカワバシサガルヒガシイル","prefecture_code":26},{"zip_code":"6050036","prefecture":"京都府","prefecture_kana":"キョウトフ","city":"京都市東山区","city_kana":"キョウトシヒガシヤマク","town":"五軒町白川筋三条下る","town_kana":"ゴケンチョウシラカワスジサンジョウサガル","prefecture_code":26}],"0858":{"zip_code":"6050858","prefecture":"京都府","prefecture_kana":"キョウトフ","city":"京都市東山区","city_kana":"キョウトシヒガシヤマク","town":"小島町","town_kana":"コジマチョウ","prefecture_code":26},"0846":{"zip_code":"6050846","prefecture":"京都府","prefecture_kana":"キョウトフ","city":"京都市東山区","city_kana":"キョウトシヒガシヤマク","town":"五条橋東","town_kana":"ゴジョウハシヒガシ","prefecture_code":26},"0811":{"zip_code":"6050811","prefecture":"京都府","prefecture_kana":"キョウトフ","city":"京都市東山区","city_kana":"キョウトシヒガシヤマク","town":"小松町","town_kana":"コマツチョウ","prefecture_code":26},"0012":{"zip_code":"6050012","prefecture":"京都府","prefecture_kana":"キョウトフ","city":"京都市東山区","city_kana":"キョウトシヒガシヤマク","town":"西海子町","town_kana":"サイカイシチョウ","prefecture_code":26},"0902":{"zip_code":"6050902","prefecture":"京都府","prefecture_kana":"キョウトフ","city":"京都市東山区","city_kana":"キョウトシヒガシヤマク","town":"鞘町","town_kana":"サヤマチ","prefecture_code":26},"0941":{"zip_code":"6050941","prefecture":"京都府","prefecture_kana":"キョウトフ","city":"京都市東山区","city_kana":"キョウトシヒガシヤマク","town":"三十三間堂廻り町","town_kana":"サンジュウサンゲンドウマワリチョウ","prefecture_code":26},"0005":{"zip_code":"6050005","prefecture":"京都府","prefecture_kana":"キョウトフ","city":"京都市東山区","city_kana":"キョウトシヒガシヤマク","town":"三町目","town_kana":"サンチョウメ","prefecture_code":26},"0011":{"zip_code":"6050011","prefecture":"京都府","prefecture_kana":"キョウトフ","city":"京都市東山区","city_kana":"キョウトシヒガシヤマク","town":"七軒町","town_kana":"シチケンチョウ","prefecture_code":26},"0943":[{"zip_code":"6050943","prefecture":"京都府","prefecture_kana":"キョウトフ","city":"京都市東山区","city_kana":"キョウトシヒガシヤマク","town":"七軒町","town_kana":"シチケンチョウ","prefecture_code":26},{"zip_code":"6050943","prefecture":"京都府","prefecture_kana":"キョウトフ","city":"京都市東山区","city_kana":"キョウトシヒガシヤマク","town":"七軒町塩小路通大和大路西入","town_kana":"シチケンチョウシオコウジドオリヤマトオオジニシイル","prefecture_code":26}],"0871":{"zip_code":"6050871","prefecture":"京都府","prefecture_kana":"キョウトフ","city":"京都市東山区","city_kana":"キョウトシヒガシヤマク","town":"慈法院庵町","town_kana":"ジホウインアンマチ","prefecture_code":26},"0914":{"zip_code":"6050914","prefecture":"京都府","prefecture_kana":"キョウトフ","city":"京都市東山区","city_kana":"キョウトシヒガシヤマク","town":"下新シ町","town_kana":"シモアタラシチョウ","prefecture_code":26},"0966":{"zip_code":"6050966","prefecture":"京都府","prefecture_kana":"キョウトフ","city":"京都市東山区","city_kana":"キョウトシヒガシヤマク","town":"下池田町","town_kana":"シモイケダチョウ","prefecture_code":26},"0873":{"zip_code":"6050873","prefecture":"京都府","prefecture_kana":"キョウトフ","city":"京都市東山区","city_kana":"キョウトシヒガシヤマク","town":"下馬町","town_kana":"シモウマチョウ","prefecture_code":26},"0915":{"zip_code":"6050915","prefecture":"京都府","prefecture_kana":"キョウトフ","city":"京都市東山区","city_kana":"キョウトシヒガシヤマク","town":"下梅屋町","town_kana":"シモウメヤチョウ","prefecture_code":26},"0825":{"zip_code":"6050825","prefecture":"京都府","prefecture_kana":"キョウトフ","city":"京都市東山区","city_kana":"キョウトシヒガシヤマク","town":"下河原町","town_kana":"シモカワラチョウ","prefecture_code":26},"0937":{"zip_code":"6050937","prefecture":"京都府","prefecture_kana":"キョウトフ","city":"京都市東山区","city_kana":"キョウトシヒガシヤマク","town":"下棟梁町","town_kana":"シモトウリョウチョウ","prefecture_code":26},"0823":{"zip_code":"6050823","prefecture":"京都府","prefecture_kana":"キョウトフ","city":"京都市東山区","city_kana":"キョウトシヒガシヤマク","town":"下弁天町","town_kana":"シモベンテンチョウ","prefecture_code":26},"0992":{"zip_code":"6050992","prefecture":"京都府","prefecture_kana":"キョウトフ","city":"京都市東山区","city_kana":"キョウトシヒガシヤマク","town":"下堀詰町","town_kana":"シモホリツメチョウ","prefecture_code":26},"0808":{"zip_code":"6050808","prefecture":"京都府","prefecture_kana":"キョウトフ","city":"京都市東山区","city_kana":"キョウトシヒガシヤマク","town":"下柳町","town_kana":"シモヤナギチョウ","prefecture_code":26},"0903":{"zip_code":"6050903","prefecture":"京都府","prefecture_kana":"キョウトフ","city":"京都市東山区","city_kana":"キョウトシヒガシヤマク","town":"上人町","town_kana":"ショウニンチョウ","prefecture_code":26},"0031":{"zip_code":"6050031","prefecture":"京都府","prefecture_kana":"キョウトフ","city":"京都市東山区","city_kana":"キョウトシヒガシヤマク","town":"定法寺町","town_kana":"ジョウホウジチョウ","prefecture_code":26},"0908":{"zip_code":"6050908","prefecture":"京都府","prefecture_kana":"キョウトフ","city":"京都市東山区","city_kana":"キョウトシヒガシヤマク","town":"正面町","town_kana":"ショウメンチョウ","prefecture_code":26},"0865":{"zip_code":"6050865","prefecture":"京都府","prefecture_kana":"キョウトフ","city":"京都市東山区","city_kana":"キョウトシヒガシヤマク","town":"白糸町","town_kana":"シライトチョウ","prefecture_code":26},"0962":{"zip_code":"6050962","prefecture":"京都府","prefecture_kana":"キョウトフ","city":"京都市東山区","city_kana":"キョウトシヒガシヤマク","town":"新瓦町東組","town_kana":"シンカワラチョウヒガシグミ","prefecture_code":26},"0961":{"zip_code":"6050961","prefecture":"京都府","prefecture_kana":"キョウトフ","city":"京都市東山区","city_kana":"キョウトシヒガシヤマク","town":"新瓦町西組","town_kana":"シンカワラチョウニシグミ","prefecture_code":26},"0006":{"zip_code":"6050006","prefecture":"京都府","prefecture_kana":"キョウトフ","city":"京都市東山区","city_kana":"キョウトシヒガシヤマク","town":"新五軒町","town_kana":"シンゴケンチョウ","prefecture_code":26},"0016":{"zip_code":"6050016","prefecture":"京都府","prefecture_kana":"キョウトフ","city":"京都市東山区","city_kana":"キョウトシヒガシヤマク","town":"進之町","town_kana":"シンノチョウ","prefecture_code":26},"0085":{"zip_code":"6050085","prefecture":"京都府","prefecture_kana":"キョウトフ","city":"京都市東山区","city_kana":"キョウトシヒガシヤマク","town":"末吉町","town_kana":"スエヨシチョウ","prefecture_code":26},"0901":{"zip_code":"6050901","prefecture":"京都府","prefecture_kana":"キョウトフ","city":"京都市東山区","city_kana":"キョウトシヒガシヤマク","town":"朱雀町","town_kana":"スジャクチョウ","prefecture_code":26},"0923":{"zip_code":"6050923","prefecture":"京都府","prefecture_kana":"キョウトフ","city":"京都市東山区","city_kana":"キョウトシヒガシヤマク","town":"清閑寺池田町","town_kana":"セイカンジイケダチョウ","prefecture_code":26},"0922":{"zip_code":"6050922","prefecture":"京都府","prefecture_kana":"キョウトフ","city":"京都市東山区","city_kana":"キョウトシヒガシヤマク","town":"清閑寺山ノ内町","town_kana":"セイカンジヤマノウチチョウ","prefecture_code":26},"0861":{"zip_code":"6050861","prefecture":"京都府","prefecture_kana":"キョウトフ","city":"京都市東山区","city_kana":"キョウトシヒガシヤマク","town":"清閑寺霊山町","town_kana":"セイカンジリョウザンチョウ","prefecture_code":26},"0021":{"zip_code":"6050021","prefecture":"京都府","prefecture_kana":"キョウトフ","city":"京都市東山区","city_kana":"キョウトシヒガシヤマク","town":"石泉院町","town_kana":"セキセンインチョウ","prefecture_code":26},"0974":{"zip_code":"6050974","prefecture":"京都府","prefecture_kana":"キョウトフ","city":"京都市東山区","city_kana":"キョウトシヒガシヤマク","town":"泉涌寺五葉ノ辻町","town_kana":"センニュウジゴヨウノツジチョウ","prefecture_code":26},"0975":{"zip_code":"6050975","prefecture":"京都府","prefecture_kana":"キョウトフ","city":"京都市東山区","city_kana":"キョウトシヒガシヤマク","town":"泉涌寺雀ケ森町","town_kana":"センニュウジスズメガモリチョウ","prefecture_code":26},"0976":{"zip_code":"6050976","prefecture":"京都府","prefecture_kana":"キョウトフ","city":"京都市東山区","city_kana":"キョウトシヒガシヤマク","town":"泉涌寺東林町","town_kana":"センニュウジトウリンチョウ","prefecture_code":26},"0973":{"zip_code":"6050973","prefecture":"京都府","prefecture_kana":"キョウトフ","city":"京都市東山区","city_kana":"キョウトシヒガシヤマク","town":"泉涌寺門前町","town_kana":"センニュウジモンゼンチョウ","prefecture_code":26},"0977":{"zip_code":"6050977","prefecture":"京都府","prefecture_kana":"キョウトフ","city":"京都市東山区","city_kana":"キョウトシヒガシヤマク","town":"泉涌寺山内町","town_kana":"センニュウジヤマノウチチョウ","prefecture_code":26},"0008":{"zip_code":"6050008","prefecture":"京都府","prefecture_kana":"キョウトフ","city":"京都市東山区","city_kana":"キョウトシヒガシヤマク","town":"大黒町大和大路三条下る","town_kana":"ダイコクチョウヤマトオオジ3ジョウサガル","prefecture_code":26},"0832":{"zip_code":"6050832","prefecture":"京都府","prefecture_kana":"キョウトフ","city":"京都市東山区","city_kana":"キョウトシヒガシヤマク","town":"大黒町","town_kana":"ダイコクチョウ","prefecture_code":26},"0017":{"zip_code":"6050017","prefecture":"京都府","prefecture_kana":"キョウトフ","city":"京都市東山区","city_kana":"キョウトシヒガシヤマク","town":"高畑町","town_kana":"タカバタケチョウ","prefecture_code":26},"0845":{"zip_code":"6050845","prefecture":"京都府","prefecture_kana":"キョウトフ","city":"京都市東山区","city_kana":"キョウトシヒガシヤマク","town":"竹村町","town_kana":"タケムラチョウ","prefecture_code":26},"0018":{"zip_code":"6050018","prefecture":"京都府","prefecture_kana":"キョウトフ","city":"京都市東山区","city_kana":"キョウトシヒガシヤマク","town":"巽町","town_kana":"タツミチョウ","prefecture_code":26},"0855":{"zip_code":"6050855","prefecture":"京都府","prefecture_kana":"キョウトフ","city":"京都市東山区","city_kana":"キョウトシヒガシヤマク","town":"辰巳町東大路松原上る","town_kana":"タツミチョウヒガシオオジマツバラアガル","prefecture_code":26},"0945":{"zip_code":"6050945","prefecture":"京都府","prefecture_kana":"キョウトフ","city":"京都市東山区","city_kana":"キョウトシヒガシヤマク","town":"辰巳町","town_kana":"タツミチョウ","prefecture_code":26},"0835":{"zip_code":"6050835","prefecture":"京都府","prefecture_kana":"キョウトフ","city":"京都市東山区","city_kana":"キョウトシヒガシヤマク","town":"田中町","town_kana":"タナカチョウ","prefecture_code":26},"0045":{"zip_code":"6050045","prefecture":"京都府","prefecture_kana":"キョウトフ","city":"京都市東山区","city_kana":"キョウトシヒガシヤマク","town":"谷川町","town_kana":"タニガワチョウ","prefecture_code":26},"0851":{"zip_code":"6050851","prefecture":"京都府","prefecture_kana":"キョウトフ","city":"京都市東山区","city_kana":"キョウトシヒガシヤマク","town":"玉水町","town_kana":"タマミズチョウ","prefecture_code":26},"0844":{"zip_code":"6050844","prefecture":"京都府","prefecture_kana":"キョウトフ","city":"京都市東山区","city_kana":"キョウトシヒガシヤマク","town":"多門町","town_kana":"タモンチョウ","prefecture_code":26},"0931":{"zip_code":"6050931","prefecture":"京都府","prefecture_kana":"キョウトフ","city":"京都市東山区","city_kana":"キョウトシヒガシヤマク","town":"茶屋町","town_kana":"チャヤチョウ","prefecture_code":26},"0854":{"zip_code":"6050854","prefecture":"京都府","prefecture_kana":"キョウトフ","city":"京都市東山区","city_kana":"キョウトシヒガシヤマク","town":"月輪町","town_kana":"ツキノワチョウ","prefecture_code":26},"0829":{"zip_code":"6050829","prefecture":"京都府","prefecture_kana":"キョウトフ","city":"京都市東山区","city_kana":"キョウトシヒガシヤマク","town":"月見町","town_kana":"ツキミチョウ","prefecture_code":26},"0025":{"zip_code":"6050025","prefecture":"京都府","prefecture_kana":"キョウトフ","city":"京都市東山区","city_kana":"キョウトシヒガシヤマク","town":"堤町","town_kana":"ツツミチョウ","prefecture_code":26},"0024":{"zip_code":"6050024","prefecture":"京都府","prefecture_kana":"キョウトフ","city":"京都市東山区","city_kana":"キョウトシヒガシヤマク","town":"土居之内町","town_kana":"ドイノウチチョウ","prefecture_code":26},"0079":[{"zip_code":"6050079","prefecture":"京都府","prefecture_kana":"キョウトフ","city":"京都市東山区","city_kana":"キョウトシヒガシヤマク","town":"常盤町大和大路通四条上る","town_kana":"トキワチョウヤマトオオジドオリ4ジョウアガル","prefecture_code":26},{"zip_code":"6050079","prefecture":"京都府","prefecture_kana":"キョウトフ","city":"京都市東山区","city_kana":"キョウトシヒガシヤマク","town":"常盤町川端通四条上る","town_kana":"トキワチョウカワバタドオリ4ジョウアガル","prefecture_code":26}],"0874":[{"zip_code":"6050874","prefecture":"京都府","prefecture_kana":"キョウトフ","city":"京都市東山区","city_kana":"キョウトシヒガシヤマク","town":"常盤町東大路通渋谷上る","town_kana":"トキワチョウ","prefecture_code":26},{"zip_code":"6050874","prefecture":"京都府","prefecture_kana":"キョウトフ","city":"京都市東山区","city_kana":"キョウトシヒガシヤマク","town":"常盤町渋谷通東大路東入","town_kana":"トキワチョウ","prefecture_code":26},{"zip_code":"6050874","prefecture":"京都府","prefecture_kana":"キョウトフ","city":"京都市東山区","city_kana":"キョウトシヒガシヤマク","town":"常盤町","town_kana":"トキワチョウ","prefecture_code":26},{"zip_code":"6050874","prefecture":"京都府","prefecture_kana":"キョウトフ","city":"京都市東山区","city_kana":"キョウトシヒガシヤマク","town":"常盤町東大路五条下る","town_kana":"トキワチョウ","prefecture_code":26}],"0078":{"zip_code":"6050078","prefecture":"京都府","prefecture_kana":"キョウトフ","city":"京都市東山区","city_kana":"キョウトシヒガシヤマク","town":"富永町","town_kana":"トミナガチョウ","prefecture_code":26},"0905":{"zip_code":"6050905","prefecture":"京都府","prefecture_kana":"キョウトフ","city":"京都市東山区","city_kana":"キョウトシヒガシヤマク","town":"豊浦町","town_kana":"トヨウラチョウ","prefecture_code":26},"0034":{"zip_code":"6050034","prefecture":"京都府","prefecture_kana":"キョウトフ","city":"京都市東山区","city_kana":"キョウトシヒガシヤマク","town":"中之町","town_kana":"ナカノチョウ","prefecture_code":26},"0075":{"zip_code":"6050075","prefecture":"京都府","prefecture_kana":"キョウトフ","city":"京都市東山区","city_kana":"キョウトシヒガシヤマク","town":"中之町四条通大和大路西入","town_kana":"ナカノチョウ4ジョウドオリヤマトオオジニシイル","prefecture_code":26},"0082":[{"zip_code":"6050082","prefecture":"京都府","prefecture_kana":"キョウトフ","city":"京都市東山区","city_kana":"キョウトシヒガシヤマク","town":"中之町新門前通大和大路東入","town_kana":"ナカノチョウシンモンゼンドオリヤマトオオジヒガシイル","prefecture_code":26},{"zip_code":"6050082","prefecture":"京都府","prefecture_kana":"キョウトフ","city":"京都市東山区","city_kana":"キョウトシヒガシヤマク","town":"中之町","town_kana":"ナカノチョウ","prefecture_code":26}],"0019":{"zip_code":"6050019","prefecture":"京都府","prefecture_kana":"キョウトフ","city":"京都市東山区","city_kana":"キョウトシヒガシヤマク","town":"長光町","town_kana":"ナガミツチョウ","prefecture_code":26},"0838":{"zip_code":"6050838","prefecture":"京都府","prefecture_kana":"キョウトフ","city":"京都市東山区","city_kana":"キョウトシヒガシヤマク","town":"西川原町","town_kana":"ニシカワラチョウ","prefecture_code":26},"0043":{"zip_code":"6050043","prefecture":"京都府","prefecture_kana":"キョウトフ","city":"京都市東山区","city_kana":"キョウトシヒガシヤマク","town":"西小物座町","town_kana":"ニシコモノザチョウ","prefecture_code":26},"0816":{"zip_code":"6050816","prefecture":"京都府","prefecture_kana":"キョウトフ","city":"京都市東山区","city_kana":"キョウトシヒガシヤマク","town":"西御門町","town_kana":"ニシゴモンチョウ","prefecture_code":26},"0907":{"zip_code":"6050907","prefecture":"京都府","prefecture_kana":"キョウトフ","city":"京都市東山区","city_kana":"キョウトシヒガシヤマク","town":"西橘町","town_kana":"ニシタチバナチョウ","prefecture_code":26},"0935":{"zip_code":"6050935","prefecture":"京都府","prefecture_kana":"キョウトフ","city":"京都市東山区","city_kana":"キョウトシヒガシヤマク","town":"西棟梁町","town_kana":"ニシトウリョウチョウ","prefecture_code":26},"0088":{"zip_code":"6050088","prefecture":"京都府","prefecture_kana":"キョウトフ","city":"京都市東山区","city_kana":"キョウトシヒガシヤマク","town":"西之町","town_kana":"ニシノチョウ","prefecture_code":26},"0947":{"zip_code":"6050947","prefecture":"京都府","prefecture_kana":"キョウトフ","city":"京都市東山区","city_kana":"キョウトシヒガシヤマク","town":"西之門町","town_kana":"ニシノモンチョウ","prefecture_code":26},"0037":{"zip_code":"6050037","prefecture":"京都府","prefecture_kana":"キョウトフ","city":"京都市東山区","city_kana":"キョウトシヒガシヤマク","town":"西町","town_kana":"ニシマチ","prefecture_code":26},"0077":{"zip_code":"6050077","prefecture":"京都府","prefecture_kana":"キョウトフ","city":"京都市東山区","city_kana":"キョウトシヒガシヤマク","town":"廿一軒町","town_kana":"ニジュウイッケンチョウ","prefecture_code":26},"0001":{"zip_code":"6050001","prefecture":"京都府","prefecture_kana":"キョウトフ","city":"京都市東山区","city_kana":"キョウトシヒガシヤマク","town":"二町目","town_kana":"ニチョウメ","prefecture_code":26},"0934":{"zip_code":"6050934","prefecture":"京都府","prefecture_kana":"キョウトフ","city":"京都市東山区","city_kana":"キョウトシヒガシヤマク","town":"塗師屋町","town_kana":"ヌシヤチョウ","prefecture_code":26},"0863":{"zip_code":"6050863","prefecture":"京都府","prefecture_kana":"キョウトフ","city":"京都市東山区","city_kana":"キョウトシヒガシヤマク","town":"梅林町","town_kana":"バイリンチョウ","prefecture_code":26},"0805":{"zip_code":"6050805","prefecture":"京都府","prefecture_kana":"キョウトフ","city":"京都市東山区","city_kana":"キョウトシヒガシヤマク","town":"博多町","town_kana":"ハカタチョウ","prefecture_code":26},"0083":{"zip_code":"6050083","prefecture":"京都府","prefecture_kana":"キョウトフ","city":"京都市東山区","city_kana":"キョウトシヒガシヤマク","town":"橋本町","town_kana":"ハシモトチョウ","prefecture_code":26},"0027":{"zip_code":"6050027","prefecture":"京都府","prefecture_kana":"キョウトフ","city":"京都市東山区","city_kana":"キョウトシヒガシヤマク","town":"八軒町","town_kana":"ハチケンチョウ","prefecture_code":26},"0029":{"zip_code":"6050029","prefecture":"京都府","prefecture_kana":"キョウトフ","city":"京都市東山区","city_kana":"キョウトシヒガシヤマク","town":"東姉小路町","town_kana":"ヒガシアネコウジチョウ","prefecture_code":26},"0872":{"zip_code":"6050872","prefecture":"京都府","prefecture_kana":"キョウトフ","city":"京都市東山区","city_kana":"キョウトシヒガシヤマク","town":"東音羽町","town_kana":"ヒガシオトワチョウ","prefecture_code":26},"0839":{"zip_code":"6050839","prefecture":"京都府","prefecture_kana":"キョウトフ","city":"京都市東山区","city_kana":"キョウトシヒガシヤマク","town":"東川原町","town_kana":"ヒガシカワラチョウ","prefecture_code":26},"0951":{"zip_code":"6050951","prefecture":"京都府","prefecture_kana":"キョウトフ","city":"京都市東山区","city_kana":"キョウトシヒガシヤマク","town":"東瓦町","town_kana":"ヒガシカワラチョウ","prefecture_code":26},"0044":{"zip_code":"6050044","prefecture":"京都府","prefecture_kana":"キョウトフ","city":"京都市東山区","city_kana":"キョウトシヒガシヤマク","town":"東小物座町","town_kana":"ヒガシコモノザチョウ","prefecture_code":26},"0906":{"zip_code":"6050906","prefecture":"京都府","prefecture_kana":"キョウトフ","city":"京都市東山区","city_kana":"キョウトシヒガシヤマク","town":"東橘町","town_kana":"ヒガシタチバナチョウ","prefecture_code":26},"0041":{"zip_code":"6050041","prefecture":"京都府","prefecture_kana":"キョウトフ","city":"京都市東山区","city_kana":"キョウトシヒガシヤマク","town":"東町","town_kana":"ヒガシチョウ","prefecture_code":26},"0847":{"zip_code":"6050847","prefecture":"京都府","prefecture_kana":"キョウトフ","city":"京都市東山区","city_kana":"キョウトシヒガシヤマク","town":"東橋詰町","town_kana":"ヒガシハシヅメチョウ","prefecture_code":26},"0046":{"zip_code":"6050046","prefecture":"京都府","prefecture_kana":"キョウトフ","city":"京都市東山区","city_kana":"キョウトシヒガシヤマク","town":"東分木町","town_kana":"ヒガシブンキチョウ","prefecture_code":26},"0812":{"zip_code":"6050812","prefecture":"京都府","prefecture_kana":"キョウトフ","city":"京都市東山区","city_kana":"キョウトシヒガシヤマク","town":"毘沙門町","town_kana":"ビシャモンチョウ","prefecture_code":26},"0993":{"zip_code":"6050993","prefecture":"京都府","prefecture_kana":"キョウトフ","city":"京都市東山区","city_kana":"キョウトシヒガシヤマク","town":"日吉町","town_kana":"ヒヨシチョウ","prefecture_code":26},"0985":{"zip_code":"6050985","prefecture":"京都府","prefecture_kana":"キョウトフ","city":"京都市東山区","city_kana":"キョウトシヒガシヤマク","town":"福稲柿本町","town_kana":"フクイネカキモトチョウ","prefecture_code":26},"0983":{"zip_code":"6050983","prefecture":"京都府","prefecture_kana":"キョウトフ","city":"京都市東山区","city_kana":"キョウトシヒガシヤマク","town":"福稲上高松町","town_kana":"フクイネカミタカマツチョウ","prefecture_code":26},"0988":{"zip_code":"6050988","prefecture":"京都府","prefecture_kana":"キョウトフ","city":"京都市東山区","city_kana":"キョウトシヒガシヤマク","town":"福稲川原町","town_kana":"フクイネカワラチョウ","prefecture_code":26},"0986":{"zip_code":"6050986","prefecture":"京都府","prefecture_kana":"キョウトフ","city":"京都市東山区","city_kana":"キョウトシヒガシヤマク","town":"福稲岸ノ上町","town_kana":"フクイネキシノカミチョウ","prefecture_code":26},"0987":{"zip_code":"6050987","prefecture":"京都府","prefecture_kana":"キョウトフ","city":"京都市東山区","city_kana":"キョウトシヒガシヤマク","town":"福稲御所ノ内町","town_kana":"フクイネゴショノウチチョウ","prefecture_code":26},"0982":{"zip_code":"6050982","prefecture":"京都府","prefecture_kana":"キョウトフ","city":"京都市東山区","city_kana":"キョウトシヒガシヤマク","town":"福稲下高松町","town_kana":"フクイネシモタカマツチョウ","prefecture_code":26},"0984":{"zip_code":"6050984","prefecture":"京都府","prefecture_kana":"キョウトフ","city":"京都市東山区","city_kana":"キョウトシヒガシヤマク","town":"福稲高原町","town_kana":"フクイネタカハラチョウ","prefecture_code":26},"0911":{"zip_code":"6050911","prefecture":"京都府","prefecture_kana":"キョウトフ","city":"京都市東山区","city_kana":"キョウトシヒガシヤマク","town":"袋町","town_kana":"フクロチョウ","prefecture_code":26},"0026":{"zip_code":"6050026","prefecture":"京都府","prefecture_kana":"キョウトフ","city":"京都市東山区","city_kana":"キョウトシヒガシヤマク","town":"古川町","town_kana":"フルカワチョウ","prefecture_code":26},"0065":{"zip_code":"6050065","prefecture":"京都府","prefecture_kana":"キョウトフ","city":"京都市東山区","city_kana":"キョウトシヒガシヤマク","town":"古西町","town_kana":"フルニシチョウ","prefecture_code":26},"0028":{"zip_code":"6050028","prefecture":"京都府","prefecture_kana":"キョウトフ","city":"京都市東山区","city_kana":"キョウトシヒガシヤマク","town":"分木町","town_kana":"ブンキチョウ","prefecture_code":26},"0086":{"zip_code":"6050086","prefecture":"京都府","prefecture_kana":"キョウトフ","city":"京都市東山区","city_kana":"キョウトシヒガシヤマク","town":"弁財天町","town_kana":"ベンザイテンチョウ","prefecture_code":26},"0946":{"zip_code":"6050946","prefecture":"京都府","prefecture_kana":"キョウトフ","city":"京都市東山区","city_kana":"キョウトシヒガシヤマク","town":"北斗町","town_kana":"ホクトチョウ","prefecture_code":26},"0853":{"zip_code":"6050853","prefecture":"京都府","prefecture_kana":"キョウトフ","city":"京都市東山区","city_kana":"キョウトシヒガシヤマク","town":"星野町","town_kana":"ホシノチョウ","prefecture_code":26},"0038":{"zip_code":"6050038","prefecture":"京都府","prefecture_kana":"キョウトフ","city":"京都市東山区","city_kana":"キョウトシヒガシヤマク","town":"堀池町","town_kana":"ホリイケチョウ","prefecture_code":26},"0967":{"zip_code":"6050967","prefecture":"京都府","prefecture_kana":"キョウトフ","city":"京都市東山区","city_kana":"キョウトシヒガシヤマク","town":"本池田町","town_kana":"ホンイケダチョウ","prefecture_code":26},"0963":{"zip_code":"6050963","prefecture":"京都府","prefecture_kana":"キョウトフ","city":"京都市東山区","city_kana":"キョウトシヒガシヤマク","town":"本瓦町","town_kana":"ホンカワラチョウ","prefecture_code":26},"0981":{"zip_code":"6050981","prefecture":"京都府","prefecture_kana":"キョウトフ","city":"京都市東山区","city_kana":"キョウトシヒガシヤマク","town":"本町","town_kana":"ホンマチ","prefecture_code":26},"0989":{"zip_code":"6050989","prefecture":"京都府","prefecture_kana":"キョウトフ","city":"京都市東山区","city_kana":"キョウトシヒガシヤマク","town":"本町新","town_kana":"ホンマチシン","prefecture_code":26},"0942":{"zip_code":"6050942","prefecture":"京都府","prefecture_kana":"キョウトフ","city":"京都市東山区","city_kana":"キョウトシヒガシヤマク","town":"蒔田町","town_kana":"マキタチョウ","prefecture_code":26},"0826":{"zip_code":"6050826","prefecture":"京都府","prefecture_kana":"キョウトフ","city":"京都市東山区","city_kana":"キョウトシヒガシヤマク","town":"桝屋町","town_kana":"マスヤチョウ","prefecture_code":26},"0063":{"zip_code":"6050063","prefecture":"京都府","prefecture_kana":"キョウトフ","city":"京都市東山区","city_kana":"キョウトシヒガシヤマク","town":"松原町","town_kana":"マツバラチョウ","prefecture_code":26},"0071":{"zip_code":"6050071","prefecture":"京都府","prefecture_kana":"キョウトフ","city":"京都市東山区","city_kana":"キョウトシヒガシヤマク","town":"円山町","town_kana":"マルヤマチョウ","prefecture_code":26},"0842":{"zip_code":"6050842","prefecture":"京都府","prefecture_kana":"キョウトフ","city":"京都市東山区","city_kana":"キョウトシヒガシヤマク","town":"三盛町","town_kana":"ミツモリチョウ","prefecture_code":26},"0938":{"zip_code":"6050938","prefecture":"京都府","prefecture_kana":"キョウトフ","city":"京都市東山区","city_kana":"キョウトシヒガシヤマク","town":"南梅屋町","town_kana":"ミナミウメヤチョウ","prefecture_code":26},"0964":{"zip_code":"6050964","prefecture":"京都府","prefecture_kana":"キョウトフ","city":"京都市東山区","city_kana":"キョウトシヒガシヤマク","town":"南瓦町","town_kana":"ミナミカワラチョウ","prefecture_code":26},"0015":{"zip_code":"6050015","prefecture":"京都府","prefecture_kana":"キョウトフ","city":"京都市東山区","city_kana":"キョウトシヒガシヤマク","town":"南木之元町","town_kana":"ミナミキノモトチョウ","prefecture_code":26},"0013":{"zip_code":"6050013","prefecture":"京都府","prefecture_kana":"キョウトフ","city":"京都市東山区","city_kana":"キョウトシヒガシヤマク","town":"南西海子町","town_kana":"ミナミサイカイシチョウ","prefecture_code":26},"0944":{"zip_code":"6050944","prefecture":"京都府","prefecture_kana":"キョウトフ","city":"京都市東山区","city_kana":"キョウトシヒガシヤマク","town":"南棟梁町","town_kana":"ミナミトウリョウチョウ","prefecture_code":26},"0824":{"zip_code":"6050824","prefecture":"京都府","prefecture_kana":"キョウトフ","city":"京都市東山区","city_kana":"キョウトシヒガシヤマク","town":"南町","town_kana":"ミナミマチ","prefecture_code":26},"0801":{"zip_code":"6050801","prefecture":"京都府","prefecture_kana":"キョウトフ","city":"京都市東山区","city_kana":"キョウトシヒガシヤマク","town":"宮川筋","town_kana":"ミヤガワスジ","prefecture_code":26},"0932":{"zip_code":"6050932","prefecture":"京都府","prefecture_kana":"キョウトフ","city":"京都市東山区","city_kana":"キョウトシヒガシヤマク","town":"妙法院前側町","town_kana":"ミョウホウインマエカワチョウ","prefecture_code":26},"0081":{"zip_code":"6050081","prefecture":"京都府","prefecture_kana":"キョウトフ","city":"京都市東山区","city_kana":"キョウトシヒガシヤマク","town":"三吉町","town_kana":"ミヨシチョウ","prefecture_code":26},"0089":{"zip_code":"6050089","prefecture":"京都府","prefecture_kana":"キョウトフ","city":"京都市東山区","city_kana":"キョウトシヒガシヤマク","town":"元町","town_kana":"モトマチ","prefecture_code":26},"0087":{"zip_code":"6050087","prefecture":"京都府","prefecture_kana":"キョウトフ","city":"京都市東山区","city_kana":"キョウトシヒガシヤマク","town":"元吉町","town_kana":"モトヨシチョウ","prefecture_code":26},"0836":{"zip_code":"6050836","prefecture":"京都府","prefecture_kana":"キョウトフ","city":"京都市東山区","city_kana":"キョウトシヒガシヤマク","town":"森下町","town_kana":"モリシタチョウ","prefecture_code":26},"0814":{"zip_code":"6050814","prefecture":"京都府","prefecture_kana":"キョウトフ","city":"京都市東山区","city_kana":"キョウトシヒガシヤマク","town":"薬師町","town_kana":"ヤクシチョウ","prefecture_code":26},"0827":{"zip_code":"6050827","prefecture":"京都府","prefecture_kana":"キョウトフ","city":"京都市東山区","city_kana":"キョウトシヒガシヤマク","town":"八坂上町","town_kana":"ヤサカカミマチ","prefecture_code":26},"0841":{"zip_code":"6050841","prefecture":"京都府","prefecture_kana":"キョウトフ","city":"京都市東山区","city_kana":"キョウトシヒガシヤマク","town":"山崎町","town_kana":"ヤマザキチョウ","prefecture_code":26},"0831":{"zip_code":"6050831","prefecture":"京都府","prefecture_kana":"キョウトフ","city":"京都市東山区","city_kana":"キョウトシヒガシヤマク","town":"山城町","town_kana":"ヤマシロチョウ","prefecture_code":26},"0837":{"zip_code":"6050837","prefecture":"京都府","prefecture_kana":"キョウトフ","city":"京都市東山区","city_kana":"キョウトシヒガシヤマク","town":"山田町","town_kana":"ヤマダチョウ","prefecture_code":26},"0933":{"zip_code":"6050933","prefecture":"京都府","prefecture_kana":"キョウトフ","city":"京都市東山区","city_kana":"キョウトシヒガシヤマク","town":"大和大路","town_kana":"ヤマトオオジ","prefecture_code":26},"0802":{"zip_code":"6050802","prefecture":"京都府","prefecture_kana":"キョウトフ","city":"京都市東山区","city_kana":"キョウトシヒガシヤマク","town":"大和町","town_kana":"ヤマトチョウ","prefecture_code":26},"0864":{"zip_code":"6050864","prefecture":"京都府","prefecture_kana":"キョウトフ","city":"京都市東山区","city_kana":"キョウトシヒガシヤマク","town":"遊行前町","town_kana":"ユウギョウマエチョウ","prefecture_code":26},"0032":{"zip_code":"6050032","prefecture":"京都府","prefecture_kana":"キョウトフ","city":"京都市東山区","city_kana":"キョウトシヒガシヤマク","town":"柚之木町","town_kana":"ユノキチョウ","prefecture_code":26},"0817":{"zip_code":"6050817","prefecture":"京都府","prefecture_kana":"キョウトフ","city":"京都市東山区","city_kana":"キョウトシヒガシヤマク","town":"弓矢町","town_kana":"ユミヤチョウ","prefecture_code":26},"0878":{"zip_code":"6050878","prefecture":"京都府","prefecture_kana":"キョウトフ","city":"京都市東山区","city_kana":"キョウトシヒガシヤマク","town":"芳野町","town_kana":"ヨシノチョウ","prefecture_code":26},"0062":{"zip_code":"6050062","prefecture":"京都府","prefecture_kana":"キョウトフ","city":"京都市東山区","city_kana":"キョウトシヒガシヤマク","town":"林下町","town_kana":"リンカチョウ","prefecture_code":26},"0813":{"zip_code":"6050813","prefecture":"京都府","prefecture_kana":"キョウトフ","city":"京都市東山区","city_kana":"キョウトシヒガシヤマク","town":"轆轤町","town_kana":"ロクロチョウ","prefecture_code":26},"0806":{"zip_code":"6050806","prefecture":"京都府","prefecture_kana":"キョウトフ","city":"京都市東山区","city_kana":"キョウトシヒガシヤマク","town":"六軒町","town_kana":"ロッケンチョウ","prefecture_code":26},"0003":{"zip_code":"6050003","prefecture":"京都府","prefecture_kana":"キョウトフ","city":"京都市東山区","city_kana":"キョウトシヒガシヤマク","town":"若竹町","town_kana":"ワカタケチョウ","prefecture_code":26},"0004":{"zip_code":"6050004","prefecture":"京都府","prefecture_kana":"キョウトフ","city":"京都市東山区","city_kana":"キョウトシヒガシヤマク","town":"若松町","town_kana":"ワカマツチョウ","prefecture_code":26},"0072":{"zip_code":"6050072","prefecture":"京都府","prefecture_kana":"キョウトフ","city":"京都市東山区","city_kana":"キョウトシヒガシヤマク","town":"鷲尾町","town_kana":"ワシオチョウ","prefecture_code":26}}