{"0000":{"zip_code":"6060000","prefecture":"京都府","prefecture_kana":"キョウトフ","city":"京都市左京区","city_kana":"キョウトシサキョウク","town":"","town_kana":"","prefecture_code":26},"8371":{"zip_code":"6068371","prefecture":"京都府","prefecture_kana":"キョウトフ","city":"京都市左京区","city_kana":"キョウトシサキョウク","town":"秋築町","town_kana":"アキツキチョウ","prefecture_code":26},"8436":{"zip_code":"6068436","prefecture":"京都府","prefecture_kana":"キョウトフ","city":"京都市左京区","city_kana":"キョウトシサキョウク","town":"粟田口鳥居町","town_kana":"アワタグチトリイチョウ","prefecture_code":26},"8452":{"zip_code":"6068452","prefecture":"京都府","prefecture_kana":"キョウトフ","city":"京都市左京区","city_kana":"キョウトシサキョウク","town":"粟田口如意ケ嶽町","town_kana":"アワタグチニョイガタケチョウ","prefecture_code":26},"8443":{"zip_code":"6068443","prefecture":"京都府","prefecture_kana":"キョウトフ","city":"京都市左京区","city_kana":"キョウトシサキョウク","town":"粟田口山下町","town_kana":"アワタグチヤマシタチョウ","prefecture_code":26},"8356":{"zip_code":"6068356","prefecture":"京都府","prefecture_kana":"キョウトフ","city":"京都市左京区","city_kana":"キョウトシサキョウク","town":"石原町","town_kana":"イシワラチョウ","prefecture_code":26},"8121":{"zip_code":"6068121","prefecture":"京都府","prefecture_kana":"キョウトフ","city":"京都市左京区","city_kana":"キョウトシサキョウク","town":"一乗寺青城町","town_kana":"イチジョウジアオジョウチョウ","prefecture_code":26},"8182":{"zip_code":"6068182","prefecture":"京都府","prefecture_kana":"キョウトフ","city":"京都市左京区","city_kana":"キョウトシサキョウク","town":"一乗寺赤ノ宮町","town_kana":"イチジョウジアカノミヤチョウ","prefecture_code":26},"8166":{"zip_code":"6068166","prefecture":"京都府","prefecture_kana":"キョウトフ","city":"京都市左京区","city_kana":"キョウトシサキョウク","town":"一乗寺庵野町","town_kana":"イチジョウジイオリノチョウ","prefecture_code":26},"8131":{"zip_code":"6068131","prefecture":"京都府","prefecture_kana":"キョウトフ","city":"京都市左京区","city_kana":"キョウトシサキョウク","town":"一乗寺稲荷町","town_kana":"イチジョウジイナリチョウ","prefecture_code":26},"8173":{"zip_code":"6068173","prefecture":"京都府","prefecture_kana":"キョウトフ","city":"京都市左京区","city_kana":"キョウトシサキョウク","town":"一乗寺梅ノ木町","town_kana":"イチジョウジウメノキチョウ","prefecture_code":26},"8158":{"zip_code":"6068158","prefecture":"京都府","prefecture_kana":"キョウトフ","city":"京都市左京区","city_kana":"キョウトシサキョウク","town":"一乗寺大谷","town_kana":"イチジョウジオオタニ","prefecture_code":26},"8187":{"zip_code":"6068187","prefecture":"京都府","prefecture_kana":"キョウトフ","city":"京都市左京区","city_kana":"キョウトシサキョウク","town":"一乗寺大原田町","town_kana":"イチジョウジオオハラダチョウ","prefecture_code":26},"8133":{"zip_code":"6068133","prefecture":"京都府","prefecture_kana":"キョウトフ","city":"京都市左京区","city_kana":"キョウトシサキョウク","town":"一乗寺月輪寺町","town_kana":"イチジョウジガツリンジチョウ","prefecture_code":26},"8172":{"zip_code":"6068172","prefecture":"京都府","prefecture_kana":"キョウトフ","city":"京都市左京区","city_kana":"キョウトシサキョウク","town":"一乗寺河原田町","town_kana":"イチジョウジカワハラダチョウ","prefecture_code":26},"8114":{"zip_code":"6068114","prefecture":"京都府","prefecture_kana":"キョウトフ","city":"京都市左京区","city_kana":"キョウトシサキョウク","town":"一乗寺北大丸町","town_kana":"イチジョウジキタオオマルチョウ","prefecture_code":26},"8161":{"zip_code":"6068161","prefecture":"京都府","prefecture_kana":"キョウトフ","city":"京都市左京区","city_kana":"キョウトシサキョウク","town":"一乗寺木ノ本町","town_kana":"イチジョウジキノモトチョウ","prefecture_code":26},"8162":{"zip_code":"6068162","prefecture":"京都府","prefecture_kana":"キョウトフ","city":"京都市左京区","city_kana":"キョウトシサキョウク","town":"一乗寺御祭田町","town_kana":"イチジョウジゴサイデンチョウ","prefecture_code":26},"8147":{"zip_code":"6068147","prefecture":"京都府","prefecture_kana":"キョウトフ","city":"京都市左京区","city_kana":"キョウトシサキョウク","town":"一乗寺小谷町","town_kana":"イチジョウジコタニチョウ","prefecture_code":26},"8157":{"zip_code":"6068157","prefecture":"京都府","prefecture_kana":"キョウトフ","city":"京都市左京区","city_kana":"キョウトシサキョウク","town":"一乗寺才形町","town_kana":"イチジョウジサイカタチョウ","prefecture_code":26},"8152":{"zip_code":"6068152","prefecture":"京都府","prefecture_kana":"キョウトフ","city":"京都市左京区","city_kana":"キョウトシサキョウク","town":"一乗寺下リ松町","town_kana":"イチジョウジサガリマツチョウ","prefecture_code":26},"8115":{"zip_code":"6068115","prefecture":"京都府","prefecture_kana":"キョウトフ","city":"京都市左京区","city_kana":"キョウトシサキョウク","town":"一乗寺里ノ西町","town_kana":"イチジョウジサトノニシチョウ","prefecture_code":26},"8117":{"zip_code":"6068117","prefecture":"京都府","prefecture_kana":"キョウトフ","city":"京都市左京区","city_kana":"キョウトシサキョウク","town":"一乗寺里ノ前町","town_kana":"イチジョウジサトノマエチョウ","prefecture_code":26},"8181":{"zip_code":"6068181","prefecture":"京都府","prefecture_kana":"キョウトフ","city":"京都市左京区","city_kana":"キョウトシサキョウク","town":"一乗寺地蔵本町","town_kana":"イチジョウジジゾウモトチョウ","prefecture_code":26},"8125":{"zip_code":"6068125","prefecture":"京都府","prefecture_kana":"キョウトフ","city":"京都市左京区","city_kana":"キョウトシサキョウク","town":"一乗寺清水町","town_kana":"イチジョウジシミズチョウ","prefecture_code":26},"8141":{"zip_code":"6068141","prefecture":"京都府","prefecture_kana":"キョウトフ","city":"京都市左京区","city_kana":"キョウトシサキョウク","town":"一乗寺釈迦堂町","town_kana":"イチジョウジシャカドウチョウ","prefecture_code":26},"8174":{"zip_code":"6068174","prefecture":"京都府","prefecture_kana":"キョウトフ","city":"京都市左京区","city_kana":"キョウトシサキョウク","town":"一乗寺染殿町","town_kana":"イチジョウジソメドノチョウ","prefecture_code":26},"8183":{"zip_code":"6068183","prefecture":"京都府","prefecture_kana":"キョウトフ","city":"京都市左京区","city_kana":"キョウトシサキョウク","town":"一乗寺大新開町","town_kana":"イチジョウジダイシンカイチョウ","prefecture_code":26},"8185":{"zip_code":"6068185","prefecture":"京都府","prefecture_kana":"キョウトフ","city":"京都市左京区","city_kana":"キョウトシサキョウク","town":"一乗寺高槻町","town_kana":"イチジョウジタカツキチョウ","prefecture_code":26},"8134":{"zip_code":"6068134","prefecture":"京都府","prefecture_kana":"キョウトフ","city":"京都市左京区","city_kana":"キョウトシサキョウク","town":"一乗寺竹ノ内町","town_kana":"イチジョウジタケノウチチョウ","prefecture_code":26},"8153":{"zip_code":"6068153","prefecture":"京都府","prefecture_kana":"キョウトフ","city":"京都市左京区","city_kana":"キョウトシサキョウク","town":"一乗寺谷田町","town_kana":"イチジョウジタニダチョウ","prefecture_code":26},"8176":{"zip_code":"6068176","prefecture":"京都府","prefecture_kana":"キョウトフ","city":"京都市左京区","city_kana":"キョウトシサキョウク","town":"一乗寺塚本町","town_kana":"イチジョウジツカモトチョウ","prefecture_code":26},"8175":{"zip_code":"6068175","prefecture":"京都府","prefecture_kana":"キョウトフ","city":"京都市左京区","city_kana":"キョウトシサキョウク","town":"一乗寺築田町","town_kana":"イチジョウジツクダチョウ","prefecture_code":26},"8164":{"zip_code":"6068164","prefecture":"京都府","prefecture_kana":"キョウトフ","city":"京都市左京区","city_kana":"キョウトシサキョウク","town":"一乗寺出口町","town_kana":"イチジョウジデグチチョウ","prefecture_code":26},"8144":{"zip_code":"6068144","prefecture":"京都府","prefecture_kana":"キョウトフ","city":"京都市左京区","city_kana":"キョウトシサキョウク","town":"一乗寺堂ノ前町","town_kana":"イチジョウジドウノマエチョウ","prefecture_code":26},"8142":{"zip_code":"6068142","prefecture":"京都府","prefecture_kana":"キョウトフ","city":"京都市左京区","city_kana":"キョウトシサキョウク","town":"一乗寺燈籠本町","town_kana":"イチジョウジトウロウモトチョウ","prefecture_code":26},"8163":{"zip_code":"6068163","prefecture":"京都府","prefecture_kana":"キョウトフ","city":"京都市左京区","city_kana":"キョウトシサキョウク","town":"一乗寺中ノ田町","town_kana":"イチジョウジナカノダチョウ","prefecture_code":26},"8127":{"zip_code":"6068127","prefecture":"京都府","prefecture_kana":"キョウトフ","city":"京都市左京区","city_kana":"キョウトシサキョウク","town":"一乗寺西浦畑町","town_kana":"イチジョウジニシウラバタチョウ","prefecture_code":26},"8112":{"zip_code":"6068112","prefecture":"京都府","prefecture_kana":"キョウトフ","city":"京都市左京区","city_kana":"キョウトシサキョウク","town":"一乗寺西杉ノ宮町","town_kana":"イチジョウジニシスギノミヤチョウ","prefecture_code":26},"8123":{"zip_code":"6068123","prefecture":"京都府","prefecture_kana":"キョウトフ","city":"京都市左京区","city_kana":"キョウトシサキョウク","town":"一乗寺西閉川原町","town_kana":"イチジョウジニシトジカワラチョウ","prefecture_code":26},"8171":{"zip_code":"6068171","prefecture":"京都府","prefecture_kana":"キョウトフ","city":"京都市左京区","city_kana":"キョウトシサキョウク","town":"一乗寺西水干町","town_kana":"イチジョウジニシミズボシチョウ","prefecture_code":26},"8165":{"zip_code":"6068165","prefecture":"京都府","prefecture_kana":"キョウトフ","city":"京都市左京区","city_kana":"キョウトシサキョウク","town":"一乗寺野田町","town_kana":"イチジョウジノダチョウ","prefecture_code":26},"8151":{"zip_code":"6068151","prefecture":"京都府","prefecture_kana":"キョウトフ","city":"京都市左京区","city_kana":"キョウトシサキョウク","town":"一乗寺花ノ木町","town_kana":"イチジョウジハナノキチョウ","prefecture_code":26},"8132":{"zip_code":"6068132","prefecture":"京都府","prefecture_kana":"キョウトフ","city":"京都市左京区","city_kana":"キョウトシサキョウク","town":"一乗寺馬場町","town_kana":"イチジョウジババチョウ","prefecture_code":26},"8145":{"zip_code":"6068145","prefecture":"京都府","prefecture_kana":"キョウトフ","city":"京都市左京区","city_kana":"キョウトシサキョウク","town":"一乗寺葉山町","town_kana":"イチジョウジハヤマチョウ","prefecture_code":26},"8184":{"zip_code":"6068184","prefecture":"京都府","prefecture_kana":"キョウトフ","city":"京都市左京区","city_kana":"キョウトシサキョウク","town":"一乗寺払殿町","town_kana":"イチジョウジハライトノチョウ","prefecture_code":26},"8136":{"zip_code":"6068136","prefecture":"京都府","prefecture_kana":"キョウトフ","city":"京都市左京区","city_kana":"キョウトシサキョウク","town":"一乗寺東浦町","town_kana":"イチジョウジヒガシウラチョウ","prefecture_code":26},"8113":{"zip_code":"6068113","prefecture":"京都府","prefecture_kana":"キョウトフ","city":"京都市左京区","city_kana":"キョウトシサキョウク","town":"一乗寺東杉ノ宮町","town_kana":"イチジョウジヒガシスギノミヤチョウ","prefecture_code":26},"8122":{"zip_code":"6068122","prefecture":"京都府","prefecture_kana":"キョウトフ","city":"京都市左京区","city_kana":"キョウトシサキョウク","town":"一乗寺東閉川原町","town_kana":"イチジョウジヒガシトジカワラチョウ","prefecture_code":26},"8177":{"zip_code":"6068177","prefecture":"京都府","prefecture_kana":"キョウトフ","city":"京都市左京区","city_kana":"キョウトシサキョウク","town":"一乗寺東水干町","town_kana":"イチジョウジヒガシミズボシチョウ","prefecture_code":26},"8167":{"zip_code":"6068167","prefecture":"京都府","prefecture_kana":"キョウトフ","city":"京都市左京区","city_kana":"キョウトシサキョウク","town":"一乗寺樋ノ口町","town_kana":"イチジョウジヒノクチチョウ","prefecture_code":26},"8143":{"zip_code":"6068143","prefecture":"京都府","prefecture_kana":"キョウトフ","city":"京都市左京区","city_kana":"キョウトシサキョウク","town":"一乗寺堀ノ内町","town_kana":"イチジョウジホリノウチチョウ","prefecture_code":26},"8124":{"zip_code":"6068124","prefecture":"京都府","prefecture_kana":"キョウトフ","city":"京都市左京区","city_kana":"キョウトシサキョウク","town":"一乗寺松田町","town_kana":"イチジョウジマツダチョウ","prefecture_code":26},"8156":{"zip_code":"6068156","prefecture":"京都府","prefecture_kana":"キョウトフ","city":"京都市左京区","city_kana":"キョウトシサキョウク","town":"一乗寺松原町","town_kana":"イチジョウジマツハラチョウ","prefecture_code":26},"8135":{"zip_code":"6068135","prefecture":"京都府","prefecture_kana":"キョウトフ","city":"京都市左京区","city_kana":"キョウトシサキョウク","town":"一乗寺水掛町","town_kana":"イチジョウジミズガケチョウ","prefecture_code":26},"8186":{"zip_code":"6068186","prefecture":"京都府","prefecture_kana":"キョウトフ","city":"京都市左京区","city_kana":"キョウトシサキョウク","town":"一乗寺南大丸町","town_kana":"イチジョウジミナミオオマルチョウ","prefecture_code":26},"8116":{"zip_code":"6068116","prefecture":"京都府","prefecture_kana":"キョウトフ","city":"京都市左京区","city_kana":"キョウトシサキョウク","town":"一乗寺宮ノ東町","town_kana":"イチジョウジミヤノヒガシチョウ","prefecture_code":26},"8126":{"zip_code":"6068126","prefecture":"京都府","prefecture_kana":"キョウトフ","city":"京都市左京区","city_kana":"キョウトシサキョウク","town":"一乗寺向畑町","town_kana":"イチジョウジムカイバタチョウ","prefecture_code":26},"8154":{"zip_code":"6068154","prefecture":"京都府","prefecture_kana":"キョウトフ","city":"京都市左京区","city_kana":"キョウトシサキョウク","town":"一乗寺門口町","town_kana":"イチジョウジモングチチョウ","prefecture_code":26},"8155":{"zip_code":"6068155","prefecture":"京都府","prefecture_kana":"キョウトフ","city":"京都市左京区","city_kana":"キョウトシサキョウク","town":"一乗寺薬師堂町","town_kana":"イチジョウジヤクシドウチョウ","prefecture_code":26},"8146":{"zip_code":"6068146","prefecture":"京都府","prefecture_kana":"キョウトフ","city":"京都市左京区","city_kana":"キョウトシサキョウク","town":"一乗寺病ダレ","town_kana":"イチジョウジヤマイダレ","prefecture_code":26},"0017":{"zip_code":"6060017","prefecture":"京都府","prefecture_kana":"キョウトフ","city":"京都市左京区","city_kana":"キョウトシサキョウク","town":"岩倉上蔵町","town_kana":"イワクラアグラチョウ","prefecture_code":26},"0001":{"zip_code":"6060001","prefecture":"京都府","prefecture_kana":"キョウトフ","city":"京都市左京区","city_kana":"キョウトシサキョウク","town":"岩倉大鷺町","town_kana":"イワクラオオサギチョウ","prefecture_code":26},"0004":{"zip_code":"6060004","prefecture":"京都府","prefecture_kana":"キョウトフ","city":"京都市左京区","city_kana":"キョウトシサキョウク","town":"岩倉北池田町","town_kana":"イワクラキタイケダチョウ","prefecture_code":26},"0016":{"zip_code":"6060016","prefecture":"京都府","prefecture_kana":"キョウトフ","city":"京都市左京区","city_kana":"キョウトシサキョウク","town":"岩倉木野町","town_kana":"イワクラキノチョウ","prefecture_code":26},"0013":{"zip_code":"6060013","prefecture":"京都府","prefecture_kana":"キョウトフ","city":"京都市左京区","city_kana":"キョウトシサキョウク","town":"岩倉下在地町","town_kana":"イワクラシモザイジチョウ","prefecture_code":26},"0021":{"zip_code":"6060021","prefecture":"京都府","prefecture_kana":"キョウトフ","city":"京都市左京区","city_kana":"キョウトシサキョウク","town":"岩倉忠在地町","town_kana":"イワクラチュウザイジチョウ","prefecture_code":26},"0002":{"zip_code":"6060002","prefecture":"京都府","prefecture_kana":"キョウトフ","city":"京都市左京区","city_kana":"キョウトシサキョウク","town":"岩倉中大鷺町","town_kana":"イワクラナカオオサギチョウ","prefecture_code":26},"0027":{"zip_code":"6060027","prefecture":"京都府","prefecture_kana":"キョウトフ","city":"京都市左京区","city_kana":"キョウトシサキョウク","town":"岩倉中在地町","town_kana":"イワクラナカザイジチョウ","prefecture_code":26},"0026":{"zip_code":"6060026","prefecture":"京都府","prefecture_kana":"キョウトフ","city":"京都市左京区","city_kana":"キョウトシサキョウク","town":"岩倉長谷町","town_kana":"イワクラナガタニチョウ","prefecture_code":26},"0025":{"zip_code":"6060025","prefecture":"京都府","prefecture_kana":"キョウトフ","city":"京都市左京区","city_kana":"キョウトシサキョウク","town":"岩倉中町","town_kana":"イワクラナカマチ","prefecture_code":26},"0014":{"zip_code":"6060014","prefecture":"京都府","prefecture_kana":"キョウトフ","city":"京都市左京区","city_kana":"キョウトシサキョウク","town":"岩倉西河原町","town_kana":"イワクラニシガワラチョウ","prefecture_code":26},"0006":{"zip_code":"6060006","prefecture":"京都府","prefecture_kana":"キョウトフ","city":"京都市左京区","city_kana":"キョウトシサキョウク","town":"岩倉西五田町","town_kana":"イワクラニシゴダチョウ","prefecture_code":26},"0011":{"zip_code":"6060011","prefecture":"京都府","prefecture_kana":"キョウトフ","city":"京都市左京区","city_kana":"キョウトシサキョウク","town":"岩倉西宮田町","town_kana":"イワクラニシミヤタチョウ","prefecture_code":26},"0015":{"zip_code":"6060015","prefecture":"京都府","prefecture_kana":"キョウトフ","city":"京都市左京区","city_kana":"キョウトシサキョウク","town":"岩倉幡枝町","town_kana":"イワクラハタエダチョウ","prefecture_code":26},"0024":{"zip_code":"6060024","prefecture":"京都府","prefecture_kana":"キョウトフ","city":"京都市左京区","city_kana":"キョウトシサキョウク","town":"岩倉花園町","town_kana":"イワクラハナゾノチョウ","prefecture_code":26},"0007":{"zip_code":"6060007","prefecture":"京都府","prefecture_kana":"キョウトフ","city":"京都市左京区","city_kana":"キョウトシサキョウク","town":"岩倉東五田町","town_kana":"イワクラヒガシゴダチョウ","prefecture_code":26},"0012":{"zip_code":"6060012","prefecture":"京都府","prefecture_kana":"キョウトフ","city":"京都市左京区","city_kana":"キョウトシサキョウク","town":"岩倉東宮田町","town_kana":"イワクラヒガシミヤタチョウ","prefecture_code":26},"0005":{"zip_code":"6060005","prefecture":"京都府","prefecture_kana":"キョウトフ","city":"京都市左京区","city_kana":"キョウトシサキョウク","town":"岩倉南池田町","town_kana":"イワクラミナミイケダチョウ","prefecture_code":26},"0003":{"zip_code":"6060003","prefecture":"京都府","prefecture_kana":"キョウトフ","city":"京都市左京区","city_kana":"キョウトシサキョウク","town":"岩倉南大鷺町","town_kana":"イワクラミナミオオサギチョウ","prefecture_code":26},"0031":{"zip_code":"6060031","prefecture":"京都府","prefecture_kana":"キョウトフ","city":"京都市左京区","city_kana":"キョウトシサキョウク","town":"岩倉南桑原町","town_kana":"イワクラミナミクワハラチョウ","prefecture_code":26},"0032":{"zip_code":"6060032","prefecture":"京都府","prefecture_kana":"キョウトフ","city":"京都市左京区","city_kana":"キョウトシサキョウク","town":"岩倉南平岡町","town_kana":"イワクラミナミヒラオカチョウ","prefecture_code":26},"0023":{"zip_code":"6060023","prefecture":"京都府","prefecture_kana":"キョウトフ","city":"京都市左京区","city_kana":"キョウトシサキョウク","town":"岩倉南三宅町","town_kana":"イワクラミナミミヤケチョウ","prefecture_code":26},"0033":{"zip_code":"6060033","prefecture":"京都府","prefecture_kana":"キョウトフ","city":"京都市左京区","city_kana":"キョウトシサキョウク","town":"岩倉南四ノ坪町","town_kana":"イワクラミナミヨンノツボチョウ","prefecture_code":26},"0022":{"zip_code":"6060022","prefecture":"京都府","prefecture_kana":"キョウトフ","city":"京都市左京区","city_kana":"キョウトシサキョウク","town":"岩倉三宅町","town_kana":"イワクラミヤケチョウ","prefecture_code":26},"0034":{"zip_code":"6060034","prefecture":"京都府","prefecture_kana":"キョウトフ","city":"京都市左京区","city_kana":"キョウトシサキョウク","town":"岩倉村松町","town_kana":"イワクラムラマツチョウ","prefecture_code":26},"8445":{"zip_code":"6068445","prefecture":"京都府","prefecture_kana":"キョウトフ","city":"京都市左京区","city_kana":"キョウトシサキョウク","town":"永観堂町","town_kana":"エイカンドウチョウ","prefecture_code":26},"8433":{"zip_code":"6068433","prefecture":"京都府","prefecture_kana":"キョウトフ","city":"京都市左京区","city_kana":"キョウトシサキョウク","town":"永観堂西町","town_kana":"エイカンドウニシマチ","prefecture_code":26},"8376":{"zip_code":"6068376","prefecture":"京都府","prefecture_kana":"キョウトフ","city":"京都市左京区","city_kana":"キョウトシサキョウク","town":"大菊町","town_kana":"オオキクチョウ","prefecture_code":26},"8322":{"zip_code":"6068322","prefecture":"京都府","prefecture_kana":"キョウトフ","city":"京都市左京区","city_kana":"キョウトシサキョウク","town":"岡崎入江町","town_kana":"オカザキイリエチョウ","prefecture_code":26},"8344":{"zip_code":"6068344","prefecture":"京都府","prefecture_kana":"キョウトフ","city":"京都市左京区","city_kana":"キョウトシサキョウク","town":"岡崎円勝寺町","town_kana":"オカザキエンショウジチョウ","prefecture_code":26},"8336":{"zip_code":"6068336","prefecture":"京都府","prefecture_kana":"キョウトフ","city":"京都市左京区","city_kana":"キョウトシサキョウク","town":"岡崎北御所町","town_kana":"オカザキキタゴショチョウ","prefecture_code":26},"8342":{"zip_code":"6068342","prefecture":"京都府","prefecture_kana":"キョウトフ","city":"京都市左京区","city_kana":"キョウトシサキョウク","town":"岡崎最勝寺町","town_kana":"オカザキサイショウジチョウ","prefecture_code":26},"8415":{"zip_code":"6068415","prefecture":"京都府","prefecture_kana":"キョウトフ","city":"京都市左京区","city_kana":"キョウトシサキョウク","town":"岡崎真如堂前町","town_kana":"オカザキシンニョドウマエチョウ","prefecture_code":26},"8343":{"zip_code":"6068343","prefecture":"京都府","prefecture_kana":"キョウトフ","city":"京都市左京区","city_kana":"キョウトシサキョウク","town":"岡崎成勝寺町","town_kana":"オカザキセイショウジチョウ","prefecture_code":26},"8335":{"zip_code":"6068335","prefecture":"京都府","prefecture_kana":"キョウトフ","city":"京都市左京区","city_kana":"キョウトシサキョウク","town":"岡崎天王町","town_kana":"オカザキテンノウチョウ","prefecture_code":26},"8351":{"zip_code":"6068351","prefecture":"京都府","prefecture_kana":"キョウトフ","city":"京都市左京区","city_kana":"キョウトシサキョウク","town":"岡崎徳成町","town_kana":"オカザキトクセイチョウ","prefecture_code":26},"8341":{"zip_code":"6068341","prefecture":"京都府","prefecture_kana":"キョウトフ","city":"京都市左京区","city_kana":"キョウトシサキョウク","town":"岡崎西天王町","town_kana":"オカザキニシテンノウチョウ","prefecture_code":26},"8326":{"zip_code":"6068326","prefecture":"京都府","prefecture_kana":"キョウトフ","city":"京都市左京区","city_kana":"キョウトシサキョウク","town":"岡崎西福ノ川町","town_kana":"オカザキニシフクノカワチョウ","prefecture_code":26},"8332":{"zip_code":"6068332","prefecture":"京都府","prefecture_kana":"キョウトフ","city":"京都市左京区","city_kana":"キョウトシサキョウク","town":"岡崎東天王町","town_kana":"オカザキヒガシテンノウチョウ","prefecture_code":26},"8321":{"zip_code":"6068321","prefecture":"京都府","prefecture_kana":"キョウトフ","city":"京都市左京区","city_kana":"キョウトシサキョウク","town":"岡崎東福ノ川町","town_kana":"オカザキヒガシフクノカワチョウ","prefecture_code":26},"8333":{"zip_code":"6068333","prefecture":"京都府","prefecture_kana":"キョウトフ","city":"京都市左京区","city_kana":"キョウトシサキョウク","town":"岡崎法勝寺町","town_kana":"オカザキホウショウジチョウ","prefecture_code":26},"8334":{"zip_code":"6068334","prefecture":"京都府","prefecture_kana":"キョウトフ","city":"京都市左京区","city_kana":"キョウトシサキョウク","town":"岡崎南御所町","town_kana":"オカザキミナミゴショチョウ","prefecture_code":26},"8354":{"zip_code":"6068354","prefecture":"京都府","prefecture_kana":"キョウトフ","city":"京都市左京区","city_kana":"キョウトシサキョウク","town":"頭町","town_kana":"カシラチョウ","prefecture_code":26},"0057":{"zip_code":"6060057","prefecture":"京都府","prefecture_kana":"キョウトフ","city":"京都市左京区","city_kana":"キョウトシサキョウク","town":"上高野池ノ内町","town_kana":"カミタカノイケノウチチョウ","prefecture_code":26},"0041":{"zip_code":"6060041","prefecture":"京都府","prefecture_kana":"キョウトフ","city":"京都市左京区","city_kana":"キョウトシサキョウク","town":"上高野石田町","town_kana":"カミタカノイシダチョウ","prefecture_code":26},"0056":{"zip_code":"6060056","prefecture":"京都府","prefecture_kana":"キョウトフ","city":"京都市左京区","city_kana":"キョウトシサキョウク","town":"上高野市川町","town_kana":"カミタカノイチカワチョウ","prefecture_code":26},"0087":{"zip_code":"6060087","prefecture":"京都府","prefecture_kana":"キョウトフ","city":"京都市左京区","city_kana":"キョウトシサキョウク","town":"上高野稲荷町","town_kana":"カミタカノイナリチョウ","prefecture_code":26},"0088":{"zip_code":"6060088","prefecture":"京都府","prefecture_kana":"キョウトフ","city":"京都市左京区","city_kana":"キョウトシサキョウク","town":"上高野植ノ町","town_kana":"カミタカノウエノチョウ","prefecture_code":26},"0089":{"zip_code":"6060089","prefecture":"京都府","prefecture_kana":"キョウトフ","city":"京都市左京区","city_kana":"キョウトシサキョウク","town":"上高野上畑町","town_kana":"カミタカノウエハタチョウ","prefecture_code":26},"0091":{"zip_code":"6060091","prefecture":"京都府","prefecture_kana":"キョウトフ","city":"京都市左京区","city_kana":"キョウトシサキョウク","town":"上高野大塚町","town_kana":"カミタカノオオツカチョウ","prefecture_code":26},"0062":{"zip_code":"6060062","prefecture":"京都府","prefecture_kana":"キョウトフ","city":"京都市左京区","city_kana":"キョウトシサキョウク","town":"上高野大橋町","town_kana":"カミタカノオオハシチョウ","prefecture_code":26},"0048":{"zip_code":"6060048","prefecture":"京都府","prefecture_kana":"キョウトフ","city":"京都市左京区","city_kana":"キョウトシサキョウク","town":"上高野大湯手町","town_kana":"カミタカノオオユデチョウ","prefecture_code":26},"0077":{"zip_code":"6060077","prefecture":"京都府","prefecture_kana":"キョウトフ","city":"京都市左京区","city_kana":"キョウトシサキョウク","town":"上高野奥小森町","town_kana":"カミタカノオクコモリチョウ","prefecture_code":26},"0075":{"zip_code":"6060075","prefecture":"京都府","prefecture_kana":"キョウトフ","city":"京都市左京区","city_kana":"キョウトシサキョウク","town":"上高野奥東野町","town_kana":"カミタカノオクヒガシノチョウ","prefecture_code":26},"0058":{"zip_code":"6060058","prefecture":"京都府","prefecture_kana":"キョウトフ","city":"京都市左京区","city_kana":"キョウトシサキョウク","town":"上高野小野町","town_kana":"カミタカノオノチョウ","prefecture_code":26},"0055":{"zip_code":"6060055","prefecture":"京都府","prefecture_kana":"キョウトフ","city":"京都市左京区","city_kana":"キョウトシサキョウク","town":"上高野尾保地町","town_kana":"カミタカノオホチチョウ","prefecture_code":26},"0084":{"zip_code":"6060084","prefecture":"京都府","prefecture_kana":"キョウトフ","city":"京都市左京区","city_kana":"キョウトシサキョウク","town":"上高野鐘突町","town_kana":"カミタカノカネツキチョウ","prefecture_code":26},"0073":{"zip_code":"6060073","prefecture":"京都府","prefecture_kana":"キョウトフ","city":"京都市左京区","city_kana":"キョウトシサキョウク","town":"上高野釜土町","town_kana":"カミタカノカマツチチョウ","prefecture_code":26},"0093":{"zip_code":"6060093","prefecture":"京都府","prefecture_kana":"キョウトフ","city":"京都市左京区","city_kana":"キョウトシサキョウク","town":"上高野上荒蒔町","town_kana":"カミタカノカミアラマキチョウ","prefecture_code":26},"0072":{"zip_code":"6060072","prefecture":"京都府","prefecture_kana":"キョウトフ","city":"京都市左京区","city_kana":"キョウトシサキョウク","town":"上高野掃部林町","town_kana":"カミタカノカモンハヤシチョウ","prefecture_code":26},"0061":{"zip_code":"6060061","prefecture":"京都府","prefecture_kana":"キョウトフ","city":"京都市左京区","city_kana":"キョウトシサキョウク","town":"上高野川原町","town_kana":"カミタカノカワラチョウ","prefecture_code":26},"0059":{"zip_code":"6060059","prefecture":"京都府","prefecture_kana":"キョウトフ","city":"京都市左京区","city_kana":"キョウトシサキョウク","town":"上高野北川原町","town_kana":"カミタカノキタカワラチョウ","prefecture_code":26},"0036":{"zip_code":"6060036","prefecture":"京都府","prefecture_kana":"キョウトフ","city":"京都市左京区","city_kana":"キョウトシサキョウク","town":"上高野北田町","town_kana":"カミタカノキタタチョウ","prefecture_code":26},"0086":{"zip_code":"6060086","prefecture":"京都府","prefecture_kana":"キョウトフ","city":"京都市左京区","city_kana":"キョウトシサキョウク","town":"上高野木ノ下町","town_kana":"カミタカノキノシタチョウ","prefecture_code":26},"0076":{"zip_code":"6060076","prefecture":"京都府","prefecture_kana":"キョウトフ","city":"京都市左京区","city_kana":"キョウトシサキョウク","town":"上高野口小森町","town_kana":"カミタカノグチコモリチョウ","prefecture_code":26},"0053":{"zip_code":"6060053","prefecture":"京都府","prefecture_kana":"キョウトフ","city":"京都市左京区","city_kana":"キョウトシサキョウク","town":"上高野車地町","town_kana":"カミタカノクルマジチョウ","prefecture_code":26},"0064":{"zip_code":"6060064","prefecture":"京都府","prefecture_kana":"キョウトフ","city":"京都市左京区","city_kana":"キョウトシサキョウク","town":"上高野西明寺山","town_kana":"カミタカノサイミョウジヤマ","prefecture_code":26},"0042":{"zip_code":"6060042","prefecture":"京都府","prefecture_kana":"キョウトフ","city":"京都市左京区","city_kana":"キョウトシサキョウク","town":"上高野鷺町","town_kana":"カミタカノサギマチ","prefecture_code":26},"0047":{"zip_code":"6060047","prefecture":"京都府","prefecture_kana":"キョウトフ","city":"京都市左京区","city_kana":"キョウトシサキョウク","town":"上高野薩田町","town_kana":"カミタカノサツタチョウ","prefecture_code":26},"0098":{"zip_code":"6060098","prefecture":"京都府","prefecture_kana":"キョウトフ","city":"京都市左京区","city_kana":"キョウトシサキョウク","town":"上高野沢渕町","town_kana":"カミタカノサワブチチョウ","prefecture_code":26},"0054":{"zip_code":"6060054","prefecture":"京都府","prefecture_kana":"キョウトフ","city":"京都市左京区","city_kana":"キョウトシサキョウク","town":"上高野三反田町","town_kana":"カミタカノサンタンダチョウ","prefecture_code":26},"0092":{"zip_code":"6060092","prefecture":"京都府","prefecture_kana":"キョウトフ","city":"京都市左京区","city_kana":"キョウトシサキョウク","town":"上高野下荒蒔町","town_kana":"カミタカノシモアラマキチョウ","prefecture_code":26},"0074":{"zip_code":"6060074","prefecture":"京都府","prefecture_kana":"キョウトフ","city":"京都市左京区","city_kana":"キョウトシサキョウク","town":"上高野下東野町","town_kana":"カミタカノシモヒガシノチョウ","prefecture_code":26},"0066":{"zip_code":"6060066","prefecture":"京都府","prefecture_kana":"キョウトフ","city":"京都市左京区","city_kana":"キョウトシサキョウク","town":"上高野水車町","town_kana":"カミタカノスイシャチョウ","prefecture_code":26},"0063":{"zip_code":"6060063","prefecture":"京都府","prefecture_kana":"キョウトフ","city":"京都市左京区","city_kana":"キョウトシサキョウク","town":"上高野大明神町","town_kana":"カミタカノダイミョウジンチョウ","prefecture_code":26},"0052":{"zip_code":"6060052","prefecture":"京都府","prefecture_kana":"キョウトフ","city":"京都市左京区","city_kana":"キョウトシサキョウク","town":"上高野鳥脇町","town_kana":"カミタカノトリワキチョウ","prefecture_code":26},"0044":{"zip_code":"6060044","prefecture":"京都府","prefecture_kana":"キョウトフ","city":"京都市左京区","city_kana":"キョウトシサキョウク","town":"上高野仲町","town_kana":"カミタカノナカマチ","prefecture_code":26},"0037":{"zip_code":"6060037","prefecture":"京都府","prefecture_kana":"キョウトフ","city":"京都市左京区","city_kana":"キョウトシサキョウク","town":"上高野流田町","town_kana":"カミタカノナガレダチョウ","prefecture_code":26},"0095":{"zip_code":"6060095","prefecture":"京都府","prefecture_kana":"キョウトフ","city":"京都市左京区","city_kana":"キョウトシサキョウク","town":"上高野西氷室町","town_kana":"カミタカノニシヒムロチョウ","prefecture_code":26},"0051":{"zip_code":"6060051","prefecture":"京都府","prefecture_kana":"キョウトフ","city":"京都市左京区","city_kana":"キョウトシサキョウク","town":"上高野野上町","town_kana":"カミタカノノカミチョウ","prefecture_code":26},"0082":{"zip_code":"6060082","prefecture":"京都府","prefecture_kana":"キョウトフ","city":"京都市左京区","city_kana":"キョウトシサキョウク","town":"上高野畑ケ田町","town_kana":"カミタカノハタガダチョウ","prefecture_code":26},"0081":{"zip_code":"6060081","prefecture":"京都府","prefecture_kana":"キョウトフ","city":"京都市左京区","city_kana":"キョウトシサキョウク","town":"上高野畑町","town_kana":"カミタカノハタマチ","prefecture_code":26},"0065":{"zip_code":"6060065","prefecture":"京都府","prefecture_kana":"キョウトフ","city":"京都市左京区","city_kana":"キョウトシサキョウク","town":"上高野八幡町","town_kana":"カミタカノハチマンチョウ","prefecture_code":26},"0078":{"zip_code":"6060078","prefecture":"京都府","prefecture_kana":"キョウトフ","city":"京都市左京区","city_kana":"キョウトシサキョウク","town":"上高野東田町","town_kana":"カミタカノヒガシダチョウ","prefecture_code":26},"0094":{"zip_code":"6060094","prefecture":"京都府","prefecture_kana":"キョウトフ","city":"京都市左京区","city_kana":"キョウトシサキョウク","town":"上高野東氷室町","town_kana":"カミタカノヒガシヒムロチョウ","prefecture_code":26},"0045":{"zip_code":"6060045","prefecture":"京都府","prefecture_kana":"キョウトフ","city":"京都市左京区","city_kana":"キョウトシサキョウク","town":"上高野深田町","town_kana":"カミタカノフカダチョウ","prefecture_code":26},"0043":{"zip_code":"6060043","prefecture":"京都府","prefecture_kana":"キョウトフ","city":"京都市左京区","city_kana":"キョウトシサキョウク","town":"上高野古川町","town_kana":"カミタカノフルカワチョウ","prefecture_code":26},"0071":{"zip_code":"6060071","prefecture":"京都府","prefecture_kana":"キョウトフ","city":"京都市左京区","city_kana":"キョウトシサキョウク","town":"上高野防山","town_kana":"カミタカノボウヤマ","prefecture_code":26},"0097":{"zip_code":"6060097","prefecture":"京都府","prefecture_kana":"キョウトフ","city":"京都市左京区","city_kana":"キョウトシサキョウク","town":"上高野前田町","town_kana":"カミタカノマエダチョウ","prefecture_code":26},"0083":{"zip_code":"6060083","prefecture":"京都府","prefecture_kana":"キョウトフ","city":"京都市左京区","city_kana":"キョウトシサキョウク","town":"上高野松田町","town_kana":"カミタカノマツダチョウ","prefecture_code":26},"0035":{"zip_code":"6060035","prefecture":"京都府","prefecture_kana":"キョウトフ","city":"京都市左京区","city_kana":"キョウトシサキョウク","town":"上高野三宅町","town_kana":"カミタカノミヤケチョウ","prefecture_code":26},"0046":{"zip_code":"6060046","prefecture":"京都府","prefecture_kana":"キョウトフ","city":"京都市左京区","city_kana":"キョウトシサキョウク","town":"上高野諸木町","town_kana":"カミタカノモロキチョウ","prefecture_code":26},"0096":{"zip_code":"6060096","prefecture":"京都府","prefecture_kana":"キョウトフ","city":"京都市左京区","city_kana":"キョウトシサキョウク","town":"上高野山ノ橋町","town_kana":"カミタカノヤマノハシチョウ","prefecture_code":26},"0085":{"zip_code":"6060085","prefecture":"京都府","prefecture_kana":"キョウトフ","city":"京都市左京区","city_kana":"キョウトシサキョウク","town":"上高野隣好町","town_kana":"カミタカノリンコウチョウ","prefecture_code":26},"0067":{"zip_code":"6060067","prefecture":"京都府","prefecture_kana":"キョウトフ","city":"京都市左京区","city_kana":"キョウトシサキョウク","town":"上高野東山","town_kana":"カミタカノヒガシヤマ","prefecture_code":26},"0821":{"zip_code":"6060821","prefecture":"京都府","prefecture_kana":"キョウトフ","city":"京都市左京区","city_kana":"キョウトシサキョウク","town":"賀茂今井町","town_kana":"カモイマイチョウ","prefecture_code":26},"0822":{"zip_code":"6060822","prefecture":"京都府","prefecture_kana":"キョウトフ","city":"京都市左京区","city_kana":"キョウトシサキョウク","town":"賀茂半木町","town_kana":"カモハンギチョウ","prefecture_code":26},"8364":{"zip_code":"6068364","prefecture":"京都府","prefecture_kana":"キョウトフ","city":"京都市左京区","city_kana":"キョウトシサキョウク","town":"菊鉾町","town_kana":"キクホコチョウ","prefecture_code":26},"8256":{"zip_code":"6068256","prefecture":"京都府","prefecture_kana":"キョウトフ","city":"京都市左京区","city_kana":"キョウトシサキョウク","town":"北白川伊織町","town_kana":"キタシラカワイオリチョウ","prefecture_code":26},"8291":{"zip_code":"6068291","prefecture":"京都府","prefecture_kana":"キョウトフ","city":"京都市左京区","city_kana":"キョウトシサキョウク","town":"北白川岩坂町","town_kana":"キタシラカワイワサカチョウ","prefecture_code":26},"8271":{"zip_code":"6068271","prefecture":"京都府","prefecture_kana":"キョウトフ","city":"京都市左京区","city_kana":"キョウトシサキョウク","town":"北白川瓜生山町","town_kana":"キタシラカワウリュウザンチョウ","prefecture_code":26},"8224":{"zip_code":"6068224","prefecture":"京都府","prefecture_kana":"キョウトフ","city":"京都市左京区","city_kana":"キョウトシサキョウク","town":"北白川追分町","town_kana":"キタシラカワオイワケチョウ","prefecture_code":26},"8264":{"zip_code":"6068264","prefecture":"京都府","prefecture_kana":"キョウトフ","city":"京都市左京区","city_kana":"キョウトシサキョウク","town":"北白川小倉町","town_kana":"キタシラカワオグラチョウ","prefecture_code":26},"8292":{"zip_code":"6068292","prefecture":"京都府","prefecture_kana":"キョウトフ","city":"京都市左京区","city_kana":"キョウトシサキョウク","town":"北白川重石町","town_kana":"キタシラカワカサネイシチョウ","prefecture_code":26},"8287":{"zip_code":"6068287","prefecture":"京都府","prefecture_kana":"キョウトフ","city":"京都市左京区","city_kana":"キョウトシサキョウク","town":"北白川上池田町","town_kana":"キタシラカワカミイケダチョウ","prefecture_code":26},"8252":{"zip_code":"6068252","prefecture":"京都府","prefecture_kana":"キョウトフ","city":"京都市左京区","city_kana":"キョウトシサキョウク","town":"北白川上終町","town_kana":"キタシラカワカミハテチョウ","prefecture_code":26},"8275":{"zip_code":"6068275","prefecture":"京都府","prefecture_kana":"キョウトフ","city":"京都市左京区","city_kana":"キョウトシサキョウク","town":"北白川上別当町","town_kana":"キタシラカワカミベットウチョウ","prefecture_code":26},"8295":{"zip_code":"6068295","prefecture":"京都府","prefecture_kana":"キョウトフ","city":"京都市左京区","city_kana":"キョウトシサキョウク","town":"北白川清沢口町","town_kana":"キタシラカワキヨザワグチチョウ","prefecture_code":26},"8266":{"zip_code":"6068266","prefecture":"京都府","prefecture_kana":"キョウトフ","city":"京都市左京区","city_kana":"キョウトシサキョウク","town":"北白川久保田町","town_kana":"キタシラカワクボタチョウ","prefecture_code":26},"8455":{"zip_code":"6068455","prefecture":"京都府","prefecture_kana":"キョウトフ","city":"京都市左京区","city_kana":"キョウトシサキョウク","town":"北白川小亀谷町","town_kana":"キタシラカワコガメダニチョウ","prefecture_code":26},"8294":{"zip_code":"6068294","prefecture":"京都府","prefecture_kana":"キョウトフ","city":"京都市左京区","city_kana":"キョウトシサキョウク","town":"北白川地蔵谷町","town_kana":"キタシラカワジゾウダニチョウ","prefecture_code":26},"8283":{"zip_code":"6068283","prefecture":"京都府","prefecture_kana":"キョウトフ","city":"京都市左京区","city_kana":"キョウトシサキョウク","town":"北白川仕伏町","town_kana":"キタシラカワシブセチョウ","prefecture_code":26},"8284":{"zip_code":"6068284","prefecture":"京都府","prefecture_kana":"キョウトフ","city":"京都市左京区","city_kana":"キョウトシサキョウク","town":"北白川下池田町","town_kana":"キタシラカワシモイケダチョウ","prefecture_code":26},"8286":{"zip_code":"6068286","prefecture":"京都府","prefecture_kana":"キョウトフ","city":"京都市左京区","city_kana":"キョウトシサキョウク","town":"北白川下別当町","town_kana":"キタシラカワシモベットウチョウ","prefecture_code":26},"8253":{"zip_code":"6068253","prefecture":"京都府","prefecture_kana":"キョウトフ","city":"京都市左京区","city_kana":"キョウトシサキョウク","town":"北白川瀬ノ内町","town_kana":"キタシラカワセノウチチョウ","prefecture_code":26},"8274":{"zip_code":"6068274","prefecture":"京都府","prefecture_kana":"キョウトフ","city":"京都市左京区","city_kana":"キョウトシサキョウク","town":"北白川大堂町","town_kana":"キタシラカワダイドウチョウ","prefecture_code":26},"8262":{"zip_code":"6068262","prefecture":"京都府","prefecture_kana":"キョウトフ","city":"京都市左京区","city_kana":"キョウトシサキョウク","town":"北白川蔦町","town_kana":"キタシラカワツタチョウ","prefecture_code":26},"8277":{"zip_code":"6068277","prefecture":"京都府","prefecture_kana":"キョウトフ","city":"京都市左京区","city_kana":"キョウトシサキョウク","town":"北白川堂ノ前町","town_kana":"キタシラカワドウノマエチョウ","prefecture_code":26},"8282":{"zip_code":"6068282","prefecture":"京都府","prefecture_kana":"キョウトフ","city":"京都市左京区","city_kana":"キョウトシサキョウク","town":"北白川外山町","town_kana":"キタシラカワトヤマチョウ","prefecture_code":26},"8451":{"zip_code":"6068451","prefecture":"京都府","prefecture_kana":"キョウトフ","city":"京都市左京区","city_kana":"キョウトシサキョウク","town":"北白川中山町","town_kana":"キタシラカワナカヤマチョウ","prefecture_code":26},"8257":{"zip_code":"6068257","prefecture":"京都府","prefecture_kana":"キョウトフ","city":"京都市左京区","city_kana":"キョウトシサキョウク","town":"北白川西伊織町","town_kana":"キタシラカワニシイオリチョウ","prefecture_code":26},"8255":{"zip_code":"6068255","prefecture":"京都府","prefecture_kana":"キョウトフ","city":"京都市左京区","city_kana":"キョウトシサキョウク","town":"北白川西瀬ノ内町","town_kana":"キタシラカワニシセノウチチョウ","prefecture_code":26},"8261":{"zip_code":"6068261","prefecture":"京都府","prefecture_kana":"キョウトフ","city":"京都市左京区","city_kana":"キョウトシサキョウク","town":"北白川西蔦町","town_kana":"キタシラカワニシツタチョウ","prefecture_code":26},"8246":{"zip_code":"6068246","prefecture":"京都府","prefecture_kana":"キョウトフ","city":"京都市左京区","city_kana":"キョウトシサキョウク","town":"北白川西平井町","town_kana":"キタシラカワニシヒライチョウ","prefecture_code":26},"8267":{"zip_code":"6068267","prefecture":"京都府","prefecture_kana":"キョウトフ","city":"京都市左京区","city_kana":"キョウトシサキョウク","town":"北白川西町","town_kana":"キタシラカワニシマチ","prefecture_code":26},"8251":{"zip_code":"6068251","prefecture":"京都府","prefecture_kana":"キョウトフ","city":"京都市左京区","city_kana":"キョウトシサキョウク","town":"北白川東伊織町","town_kana":"キタシラカワヒガシイオリチョウ","prefecture_code":26},"8265":{"zip_code":"6068265","prefecture":"京都府","prefecture_kana":"キョウトフ","city":"京都市左京区","city_kana":"キョウトシサキョウク","town":"北白川東小倉町","town_kana":"キタシラカワヒガシオグラチョウ","prefecture_code":26},"8285":{"zip_code":"6068285","prefecture":"京都府","prefecture_kana":"キョウトフ","city":"京都市左京区","city_kana":"キョウトシサキョウク","town":"北白川東久保田町","town_kana":"キタシラカワヒガシクボタチョウ","prefecture_code":26},"8254":{"zip_code":"6068254","prefecture":"京都府","prefecture_kana":"キョウトフ","city":"京都市左京区","city_kana":"キョウトシサキョウク","town":"北白川東瀬ノ内町","town_kana":"キタシラカワヒガシセノウチチョウ","prefecture_code":26},"8263":{"zip_code":"6068263","prefecture":"京都府","prefecture_kana":"キョウトフ","city":"京都市左京区","city_kana":"キョウトシサキョウク","town":"北白川東蔦町","town_kana":"キタシラカワヒガシツタチョウ","prefecture_code":26},"8244":{"zip_code":"6068244","prefecture":"京都府","prefecture_kana":"キョウトフ","city":"京都市左京区","city_kana":"キョウトシサキョウク","town":"北白川東平井町","town_kana":"キタシラカワヒガシヒライチョウ","prefecture_code":26},"8245":{"zip_code":"6068245","prefecture":"京都府","prefecture_kana":"キョウトフ","city":"京都市左京区","city_kana":"キョウトシサキョウク","town":"北白川平井町","town_kana":"キタシラカワヒライチョウ","prefecture_code":26},"8293":{"zip_code":"6068293","prefecture":"京都府","prefecture_kana":"キョウトフ","city":"京都市左京区","city_kana":"キョウトシサキョウク","town":"北白川琵琶町","town_kana":"キタシラカワビワチョウ","prefecture_code":26},"8276":{"zip_code":"6068276","prefecture":"京都府","prefecture_kana":"キョウトフ","city":"京都市左京区","city_kana":"キョウトシサキョウク","town":"北白川別当町","town_kana":"キタシラカワベットウチョウ","prefecture_code":26},"8281":{"zip_code":"6068281","prefecture":"京都府","prefecture_kana":"キョウトフ","city":"京都市左京区","city_kana":"キョウトシサキョウク","town":"北白川丸山町","town_kana":"キタシラカワマルヤマチョウ","prefecture_code":26},"8453":{"zip_code":"6068453","prefecture":"京都府","prefecture_kana":"キョウトフ","city":"京都市左京区","city_kana":"キョウトシサキョウク","town":"北白川南ケ原町","town_kana":"キタシラカワミナミガハラチョウ","prefecture_code":26},"8454":{"zip_code":"6068454","prefecture":"京都府","prefecture_kana":"キョウトフ","city":"京都市左京区","city_kana":"キョウトシサキョウク","town":"北白川向ケ谷町","town_kana":"キタシラカワムコウガダニチョウ","prefecture_code":26},"8272":{"zip_code":"6068272","prefecture":"京都府","prefecture_kana":"キョウトフ","city":"京都市左京区","city_kana":"キョウトシサキョウク","town":"北白川山田町","town_kana":"キタシラカワヤマダチョウ","prefecture_code":26},"8273":{"zip_code":"6068273","prefecture":"京都府","prefecture_kana":"キョウトフ","city":"京都市左京区","city_kana":"キョウトシサキョウク","town":"北白川山ノ元町","town_kana":"キタシラカワヤマノモトチョウ","prefecture_code":26},"8352":{"zip_code":"6068352","prefecture":"京都府","prefecture_kana":"キョウトフ","city":"京都市左京区","city_kana":"キョウトシサキョウク","town":"北門前町","town_kana":"キタモンゼンチョウ","prefecture_code":26},"8402":{"zip_code":"6068402","prefecture":"京都府","prefecture_kana":"キョウトフ","city":"京都市左京区","city_kana":"キョウトシサキョウク","town":"銀閣寺町","town_kana":"ギンカクジチョウ","prefecture_code":26},"8407":{"zip_code":"6068407","prefecture":"京都府","prefecture_kana":"キョウトフ","city":"京都市左京区","city_kana":"キョウトシサキョウク","town":"銀閣寺前町","town_kana":"ギンカクジマエチョウ","prefecture_code":26},"8331":{"zip_code":"6068331","prefecture":"京都府","prefecture_kana":"キョウトフ","city":"京都市左京区","city_kana":"キョウトシサキョウク","town":"黒谷町","town_kana":"クロダニチョウ","prefecture_code":26},"8365":{"zip_code":"6068365","prefecture":"京都府","prefecture_kana":"キョウトフ","city":"京都市左京区","city_kana":"キョウトシサキョウク","town":"讃州寺町","town_kana":"サンシュウジチョウ","prefecture_code":26},"8447":{"zip_code":"6068447","prefecture":"京都府","prefecture_kana":"キョウトフ","city":"京都市左京区","city_kana":"キョウトシサキョウク","town":"鹿ケ谷上宮ノ前町","town_kana":"シシガタニカミミヤノマエチョウ","prefecture_code":26},"8428":{"zip_code":"6068428","prefecture":"京都府","prefecture_kana":"キョウトフ","city":"京都市左京区","city_kana":"キョウトシサキョウク","town":"鹿ケ谷栗木谷町","town_kana":"シシガタニクリキタニチョウ","prefecture_code":26},"8422":{"zip_code":"6068422","prefecture":"京都府","prefecture_kana":"キョウトフ","city":"京都市左京区","city_kana":"キョウトシサキョウク","town":"鹿ケ谷御所ノ段町","town_kana":"シシガタニゴショノダンチョウ","prefecture_code":26},"8423":{"zip_code":"6068423","prefecture":"京都府","prefecture_kana":"キョウトフ","city":"京都市左京区","city_kana":"キョウトシサキョウク","town":"鹿ケ谷桜谷町","town_kana":"シシガタニサクラダニチョウ","prefecture_code":26},"8431":{"zip_code":"6068431","prefecture":"京都府","prefecture_kana":"キョウトフ","city":"京都市左京区","city_kana":"キョウトシサキョウク","town":"鹿ケ谷下宮ノ前町","town_kana":"シシガタニシモミヤノマエチョウ","prefecture_code":26},"8442":{"zip_code":"6068442","prefecture":"京都府","prefecture_kana":"キョウトフ","city":"京都市左京区","city_kana":"キョウトシサキョウク","town":"鹿ケ谷大黒谷町","town_kana":"シシガタニダイコクダニチョウ","prefecture_code":26},"8432":{"zip_code":"6068432","prefecture":"京都府","prefecture_kana":"キョウトフ","city":"京都市左京区","city_kana":"キョウトシサキョウク","town":"鹿ケ谷高岸町","town_kana":"シシガタニタカギシチョウ","prefecture_code":26},"8426":{"zip_code":"6068426","prefecture":"京都府","prefecture_kana":"キョウトフ","city":"京都市左京区","city_kana":"キョウトシサキョウク","town":"鹿ケ谷寺ノ前町","town_kana":"シシガタニテラノマエチョウ","prefecture_code":26},"8441":{"zip_code":"6068441","prefecture":"京都府","prefecture_kana":"キョウトフ","city":"京都市左京区","city_kana":"キョウトシサキョウク","town":"鹿ケ谷徳善谷町","town_kana":"シシガタニトクゼンダニチョウ","prefecture_code":26},"8425":{"zip_code":"6068425","prefecture":"京都府","prefecture_kana":"キョウトフ","city":"京都市左京区","city_kana":"キョウトシサキョウク","town":"鹿ケ谷西寺ノ前町","town_kana":"シシガタニニシテラノマエチョウ","prefecture_code":26},"8421":{"zip_code":"6068421","prefecture":"京都府","prefecture_kana":"キョウトフ","city":"京都市左京区","city_kana":"キョウトシサキョウク","town":"鹿ケ谷法然院町","town_kana":"シシガタニホウネンインチョウ","prefecture_code":26},"8427":{"zip_code":"6068427","prefecture":"京都府","prefecture_kana":"キョウトフ","city":"京都市左京区","city_kana":"キョウトシサキョウク","town":"鹿ケ谷法然院西町","town_kana":"シシガタニホウネンインニシマチ","prefecture_code":26},"8424":{"zip_code":"6068424","prefecture":"京都府","prefecture_kana":"キョウトフ","city":"京都市左京区","city_kana":"キョウトシサキョウク","town":"鹿ケ谷宮ノ前町","town_kana":"シシガタニミヤノマエチョウ","prefecture_code":26},"0807":{"zip_code":"6060807","prefecture":"京都府","prefecture_kana":"キョウトフ","city":"京都市左京区","city_kana":"キョウトシサキョウク","town":"下鴨泉川町","town_kana":"シモガモイズミガワチョウ","prefecture_code":26},"0834":{"zip_code":"6060834","prefecture":"京都府","prefecture_kana":"キョウトフ","city":"京都市左京区","city_kana":"キョウトシサキョウク","town":"下鴨狗子田町","town_kana":"シモガモイノコダチョウ","prefecture_code":26},"0851":{"zip_code":"6060851","prefecture":"京都府","prefecture_kana":"キョウトフ","city":"京都市左京区","city_kana":"キョウトシサキョウク","town":"下鴨梅ノ木町","town_kana":"シモガモウメノキチョウ","prefecture_code":26},"0815":{"zip_code":"6060815","prefecture":"京都府","prefecture_kana":"キョウトフ","city":"京都市左京区","city_kana":"キョウトシサキョウク","town":"下鴨膳部町","town_kana":"シモガモカシワベチョウ","prefecture_code":26},"0812":{"zip_code":"6060812","prefecture":"京都府","prefecture_kana":"キョウトフ","city":"京都市左京区","city_kana":"キョウトシサキョウク","town":"下鴨上川原町","town_kana":"シモガモカミガワラチョウ","prefecture_code":26},"0853":{"zip_code":"6060853","prefecture":"京都府","prefecture_kana":"キョウトフ","city":"京都市左京区","city_kana":"キョウトシサキョウク","town":"下鴨岸本町","town_kana":"シモガモキシモトチョウ","prefecture_code":26},"0842":{"zip_code":"6060842","prefecture":"京都府","prefecture_kana":"キョウトフ","city":"京都市左京区","city_kana":"キョウトシサキョウク","town":"下鴨北芝町","town_kana":"シモガモキタシバチョウ","prefecture_code":26},"0831":{"zip_code":"6060831","prefecture":"京都府","prefecture_kana":"キョウトフ","city":"京都市左京区","city_kana":"キョウトシサキョウク","town":"下鴨北園町","town_kana":"シモガモキタゾノチョウ","prefecture_code":26},"0844":{"zip_code":"6060844","prefecture":"京都府","prefecture_kana":"キョウトフ","city":"京都市左京区","city_kana":"キョウトシサキョウク","town":"下鴨北茶ノ木町","town_kana":"シモガモキタチャノキチョウ","prefecture_code":26},"0846":{"zip_code":"6060846","prefecture":"京都府","prefecture_kana":"キョウトフ","city":"京都市左京区","city_kana":"キョウトシサキョウク","town":"下鴨北野々神町","town_kana":"シモガモキタノノガミチョウ","prefecture_code":26},"0813":{"zip_code":"6060813","prefecture":"京都府","prefecture_kana":"キョウトフ","city":"京都市左京区","city_kana":"キョウトシサキョウク","town":"下鴨貴船町","town_kana":"シモガモキブネチョウ","prefecture_code":26},"0835":{"zip_code":"6060835","prefecture":"京都府","prefecture_kana":"キョウトフ","city":"京都市左京区","city_kana":"キョウトシサキョウク","town":"下鴨神殿町","town_kana":"シモガモコウドノチョウ","prefecture_code":26},"0814":{"zip_code":"6060814","prefecture":"京都府","prefecture_kana":"キョウトフ","city":"京都市左京区","city_kana":"キョウトシサキョウク","town":"下鴨芝本町","town_kana":"シモガモシバモトチョウ","prefecture_code":26},"0803":{"zip_code":"6060803","prefecture":"京都府","prefecture_kana":"キョウトフ","city":"京都市左京区","city_kana":"キョウトシサキョウク","town":"下鴨下川原町","town_kana":"シモガモシモガワラチョウ","prefecture_code":26},"0864":{"zip_code":"6060864","prefecture":"京都府","prefecture_kana":"キョウトフ","city":"京都市左京区","city_kana":"キョウトシサキョウク","town":"下鴨高木町","town_kana":"シモガモタカギチョウ","prefecture_code":26},"0806":{"zip_code":"6060806","prefecture":"京都府","prefecture_kana":"キョウトフ","city":"京都市左京区","city_kana":"キョウトシサキョウク","town":"下鴨蓼倉町","town_kana":"シモガモタデクラチョウ","prefecture_code":26},"0856":{"zip_code":"6060856","prefecture":"京都府","prefecture_kana":"キョウトフ","city":"京都市左京区","city_kana":"キョウトシサキョウク","town":"下鴨塚本町","town_kana":"シモガモツカモトチョウ","prefecture_code":26},"0811":{"zip_code":"6060811","prefecture":"京都府","prefecture_kana":"キョウトフ","city":"京都市左京区","city_kana":"キョウトシサキョウク","town":"下鴨中川原町","town_kana":"シモガモナカガワラチョウ","prefecture_code":26},"0825":{"zip_code":"6060825","prefecture":"京都府","prefecture_kana":"キョウトフ","city":"京都市左京区","city_kana":"キョウトシサキョウク","town":"下鴨西梅ノ木町","town_kana":"シモガモニシウメノキチョウ","prefecture_code":26},"0861":{"zip_code":"6060861","prefecture":"京都府","prefecture_kana":"キョウトフ","city":"京都市左京区","city_kana":"キョウトシサキョウク","town":"下鴨西高木町","town_kana":"シモガモニシタカギチョウ","prefecture_code":26},"0817":{"zip_code":"6060817","prefecture":"京都府","prefecture_kana":"キョウトフ","city":"京都市左京区","city_kana":"キョウトシサキョウク","town":"下鴨西林町","town_kana":"シモガモニシバヤシチョウ","prefecture_code":26},"0827":{"zip_code":"6060827","prefecture":"京都府","prefecture_kana":"キョウトフ","city":"京都市左京区","city_kana":"キョウトシサキョウク","town":"下鴨西半木町","town_kana":"シモガモニシハンギチョウ","prefecture_code":26},"0826":{"zip_code":"6060826","prefecture":"京都府","prefecture_kana":"キョウトフ","city":"京都市左京区","city_kana":"キョウトシサキョウク","town":"下鴨西本町","town_kana":"シモガモニシホンマチ","prefecture_code":26},"0832":{"zip_code":"6060832","prefecture":"京都府","prefecture_kana":"キョウトフ","city":"京都市左京区","city_kana":"キョウトシサキョウク","town":"下鴨萩ケ垣内町","town_kana":"シモガモハギガカキウチチョウ","prefecture_code":26},"0823":{"zip_code":"6060823","prefecture":"京都府","prefecture_kana":"キョウトフ","city":"京都市左京区","city_kana":"キョウトシサキョウク","town":"下鴨半木町","town_kana":"シモガモハンギチョウ","prefecture_code":26},"0852":{"zip_code":"6060852","prefecture":"京都府","prefecture_kana":"キョウトフ","city":"京都市左京区","city_kana":"キョウトシサキョウク","town":"下鴨東梅ノ木町","town_kana":"シモガモヒガシウメノキチョウ","prefecture_code":26},"0854":{"zip_code":"6060854","prefecture":"京都府","prefecture_kana":"キョウトフ","city":"京都市左京区","city_kana":"キョウトシサキョウク","town":"下鴨東岸本町","town_kana":"シモガモヒガシキシモトチョウ","prefecture_code":26},"0865":{"zip_code":"6060865","prefecture":"京都府","prefecture_kana":"キョウトフ","city":"京都市左京区","city_kana":"キョウトシサキョウク","town":"下鴨東高木町","town_kana":"シモガモヒガシタカギチョウ","prefecture_code":26},"0855":{"zip_code":"6060855","prefecture":"京都府","prefecture_kana":"キョウトフ","city":"京都市左京区","city_kana":"キョウトシサキョウク","town":"下鴨東塚本町","town_kana":"シモガモヒガシツカモトチョウ","prefecture_code":26},"0824":{"zip_code":"6060824","prefecture":"京都府","prefecture_kana":"キョウトフ","city":"京都市左京区","city_kana":"キョウトシサキョウク","town":"下鴨東半木町","town_kana":"シモガモヒガシハンギチョウ","prefecture_code":26},"0863":{"zip_code":"6060863","prefecture":"京都府","prefecture_kana":"キョウトフ","city":"京都市左京区","city_kana":"キョウトシサキョウク","town":"下鴨東本町","town_kana":"シモガモヒガシホンマチ","prefecture_code":26},"0866":{"zip_code":"6060866","prefecture":"京都府","prefecture_kana":"キョウトフ","city":"京都市左京区","city_kana":"キョウトシサキョウク","town":"下鴨東森ケ前町","town_kana":"シモガモヒガシモリガマエチョウ","prefecture_code":26},"0862":{"zip_code":"6060862","prefecture":"京都府","prefecture_kana":"キョウトフ","city":"京都市左京区","city_kana":"キョウトシサキョウク","town":"下鴨本町","town_kana":"シモガモホンマチ","prefecture_code":26},"0833":{"zip_code":"6060833","prefecture":"京都府","prefecture_kana":"キョウトフ","city":"京都市左京区","city_kana":"キョウトシサキョウク","town":"下鴨前萩町","town_kana":"シモガモマエハギチョウ","prefecture_code":26},"0816":{"zip_code":"6060816","prefecture":"京都府","prefecture_kana":"キョウトフ","city":"京都市左京区","city_kana":"キョウトシサキョウク","town":"下鴨松ノ木町","town_kana":"シモガモマツノキチョウ","prefecture_code":26},"0804":{"zip_code":"6060804","prefecture":"京都府","prefecture_kana":"キョウトフ","city":"京都市左京区","city_kana":"キョウトシサキョウク","town":"下鴨松原町","town_kana":"シモガモマツバラチョウ","prefecture_code":26},"0843":{"zip_code":"6060843","prefecture":"京都府","prefecture_kana":"キョウトフ","city":"京都市左京区","city_kana":"キョウトシサキョウク","town":"下鴨水口町","town_kana":"シモガモミナクチチョウ","prefecture_code":26},"0841":{"zip_code":"6060841","prefecture":"京都府","prefecture_kana":"キョウトフ","city":"京都市左京区","city_kana":"キョウトシサキョウク","town":"下鴨南芝町","town_kana":"シモガモミナミシバチョウ","prefecture_code":26},"0845":{"zip_code":"6060845","prefecture":"京都府","prefecture_kana":"キョウトフ","city":"京都市左京区","city_kana":"キョウトシサキョウク","town":"下鴨南茶ノ木町","town_kana":"シモガモミナミチャノキチョウ","prefecture_code":26},"0847":{"zip_code":"6060847","prefecture":"京都府","prefecture_kana":"キョウトフ","city":"京都市左京区","city_kana":"キョウトシサキョウク","town":"下鴨南野々神町","town_kana":"シモガモミナミノノガミチョウ","prefecture_code":26},"0801":{"zip_code":"6060801","prefecture":"京都府","prefecture_kana":"キョウトフ","city":"京都市左京区","city_kana":"キョウトシサキョウク","town":"下鴨宮河町","town_kana":"シモガモミヤカワチョウ","prefecture_code":26},"0802":{"zip_code":"6060802","prefecture":"京都府","prefecture_kana":"キョウトフ","city":"京都市左京区","city_kana":"キョウトシサキョウク","town":"下鴨宮崎町","town_kana":"シモガモミヤザキチョウ","prefecture_code":26},"0867":{"zip_code":"6060867","prefecture":"京都府","prefecture_kana":"キョウトフ","city":"京都市左京区","city_kana":"キョウトシサキョウク","town":"下鴨森ケ前町","town_kana":"シモガモモリガマエチョウ","prefecture_code":26},"0805":{"zip_code":"6060805","prefecture":"京都府","prefecture_kana":"キョウトフ","city":"京都市左京区","city_kana":"キョウトシサキョウク","town":"下鴨森本町","town_kana":"シモガモモリモトチョウ","prefecture_code":26},"0837":{"zip_code":"6060837","prefecture":"京都府","prefecture_kana":"キョウトフ","city":"京都市左京区","city_kana":"キョウトシサキョウク","town":"下鴨夜光町","town_kana":"シモガモヤコウチョウ","prefecture_code":26},"0836":{"zip_code":"6060836","prefecture":"京都府","prefecture_kana":"キョウトフ","city":"京都市左京区","city_kana":"キョウトシサキョウク","town":"下鴨梁田町","town_kana":"シモガモヤナダチョウ","prefecture_code":26},"8396":{"zip_code":"6068396","prefecture":"京都府","prefecture_kana":"キョウトフ","city":"京都市左京区","city_kana":"キョウトシサキョウク","town":"下堤町","town_kana":"シモツツミチョウ","prefecture_code":26},"8045":{"zip_code":"6068045","prefecture":"京都府","prefecture_kana":"キョウトフ","city":"京都市左京区","city_kana":"キョウトシサキョウク","town":"修学院安養坊","town_kana":"シュウガクインアンヨウボウ","prefecture_code":26},"8074":{"zip_code":"6068074","prefecture":"京都府","prefecture_kana":"キョウトフ","city":"京都市左京区","city_kana":"キョウトシサキョウク","town":"修学院石掛町","town_kana":"シュウガクインイシカケチョウ","prefecture_code":26},"8042":{"zip_code":"6068042","prefecture":"京都府","prefecture_kana":"キョウトフ","city":"京都市左京区","city_kana":"キョウトシサキョウク","town":"修学院泉殿町","town_kana":"シュウガクインイズミドノチョウ","prefecture_code":26},"8083":{"zip_code":"6068083","prefecture":"京都府","prefecture_kana":"キョウトフ","city":"京都市左京区","city_kana":"キョウトシサキョウク","town":"修学院犬塚町","town_kana":"シュウガクインイヌヅカチョウ","prefecture_code":26},"8081":{"zip_code":"6068081","prefecture":"京都府","prefecture_kana":"キョウトフ","city":"京都市左京区","city_kana":"キョウトシサキョウク","town":"修学院大林町","town_kana":"シュウガクインオオバヤシチョウ","prefecture_code":26},"8021":{"zip_code":"6068021","prefecture":"京都府","prefecture_kana":"キョウトフ","city":"京都市左京区","city_kana":"キョウトシサキョウク","town":"修学院沖殿町","town_kana":"シュウガクインオキドノチョウ","prefecture_code":26},"8036":{"zip_code":"6068036","prefecture":"京都府","prefecture_kana":"キョウトフ","city":"京都市左京区","city_kana":"キョウトシサキョウク","town":"修学院開根坊町","town_kana":"シュウガクインカイコンボウチョウ","prefecture_code":26},"8043":{"zip_code":"6068043","prefecture":"京都府","prefecture_kana":"キョウトフ","city":"京都市左京区","city_kana":"キョウトシサキョウク","town":"修学院貝原町","town_kana":"シュウガクインカイバラチョウ","prefecture_code":26},"8065":{"zip_code":"6068065","prefecture":"京都府","prefecture_kana":"キョウトフ","city":"京都市左京区","city_kana":"キョウトシサキョウク","town":"修学院月輪寺町","town_kana":"シュウガクインガツリンジチョウ","prefecture_code":26},"8082":{"zip_code":"6068082","prefecture":"京都府","prefecture_kana":"キョウトフ","city":"京都市左京区","city_kana":"キョウトシサキョウク","town":"修学院鹿ノ下町","town_kana":"シュウガクインカノシタチョウ","prefecture_code":26},"8047":{"zip_code":"6068047","prefecture":"京都府","prefecture_kana":"キョウトフ","city":"京都市左京区","city_kana":"キョウトシサキョウク","town":"修学院烏丸町","town_kana":"シュウガクインカラスマルチョウ","prefecture_code":26},"8026":{"zip_code":"6068026","prefecture":"京都府","prefecture_kana":"キョウトフ","city":"京都市左京区","city_kana":"キョウトシサキョウク","town":"修学院川尻町","town_kana":"シュウガクインカワジリチョウ","prefecture_code":26},"8032":{"zip_code":"6068032","prefecture":"京都府","prefecture_kana":"キョウトフ","city":"京都市左京区","city_kana":"キョウトシサキョウク","town":"修学院北沮沢町","town_kana":"シュウガクインキタフケチョウ","prefecture_code":26},"8063":{"zip_code":"6068063","prefecture":"京都府","prefecture_kana":"キョウトフ","city":"京都市左京区","city_kana":"キョウトシサキョウク","town":"修学院後安堂","town_kana":"シュウガクインゴアンドウ","prefecture_code":26},"8086":{"zip_code":"6068086","prefecture":"京都府","prefecture_kana":"キョウトフ","city":"京都市左京区","city_kana":"キョウトシサキョウク","town":"修学院十権寺町","town_kana":"シュウガクインジュウゴンジチョウ","prefecture_code":26},"8035":{"zip_code":"6068035","prefecture":"京都府","prefecture_kana":"キョウトフ","city":"京都市左京区","city_kana":"キョウトシサキョウク","town":"修学院守禅庵","town_kana":"シュウガクインシュゼンアン","prefecture_code":26},"8023":{"zip_code":"6068023","prefecture":"京都府","prefecture_kana":"キョウトフ","city":"京都市左京区","city_kana":"キョウトシサキョウク","town":"修学院水上田町","town_kana":"シュウガクインスイジョウデンチョウ","prefecture_code":26},"8024":{"zip_code":"6068024","prefecture":"京都府","prefecture_kana":"キョウトフ","city":"京都市左京区","city_kana":"キョウトシサキョウク","town":"修学院千万田町","town_kana":"シュウガクインセンマンダチョウ","prefecture_code":26},"8037":{"zip_code":"6068037","prefecture":"京都府","prefecture_kana":"キョウトフ","city":"京都市左京区","city_kana":"キョウトシサキョウク","town":"修学院大道町","town_kana":"シュウガクインダイドウチョウ","prefecture_code":26},"8055":{"zip_code":"6068055","prefecture":"京都府","prefecture_kana":"キョウトフ","city":"京都市左京区","city_kana":"キョウトシサキョウク","town":"修学院高岸町","town_kana":"シュウガクインタカギシチョウ","prefecture_code":26},"8022":{"zip_code":"6068022","prefecture":"京都府","prefecture_kana":"キョウトフ","city":"京都市左京区","city_kana":"キョウトシサキョウク","town":"修学院高部町","town_kana":"シュウガクインタカベチョウ","prefecture_code":26},"8073":{"zip_code":"6068073","prefecture":"京都府","prefecture_kana":"キョウトフ","city":"京都市左京区","city_kana":"キョウトシサキョウク","town":"修学院茶屋ノ前町","town_kana":"シュウガクインチャヤノマエチョウ","prefecture_code":26},"8064":{"zip_code":"6068064","prefecture":"京都府","prefecture_kana":"キョウトフ","city":"京都市左京区","city_kana":"キョウトシサキョウク","town":"修学院辻ノ田町","town_kana":"シュウガクインツジノダチョウ","prefecture_code":26},"8075":{"zip_code":"6068075","prefecture":"京都府","prefecture_kana":"キョウトフ","city":"京都市左京区","city_kana":"キョウトシサキョウク","town":"修学院坪江町","town_kana":"シュウガクインツボエチョウ","prefecture_code":26},"8051":{"zip_code":"6068051","prefecture":"京都府","prefecture_kana":"キョウトフ","city":"京都市左京区","city_kana":"キョウトシサキョウク","town":"修学院中新開","town_kana":"シュウガクインナカシンカイ","prefecture_code":26},"8085":{"zip_code":"6068085","prefecture":"京都府","prefecture_kana":"キョウトフ","city":"京都市左京区","city_kana":"キョウトシサキョウク","town":"修学院中林町","town_kana":"シュウガクインナカバヤシチョウ","prefecture_code":26},"8031":{"zip_code":"6068031","prefecture":"京都府","prefecture_kana":"キョウトフ","city":"京都市左京区","city_kana":"キョウトシサキョウク","town":"修学院西沮沢町","town_kana":"シュウガクインニシフケチョウ","prefecture_code":26},"8072":{"zip_code":"6068072","prefecture":"京都府","prefecture_kana":"キョウトフ","city":"京都市左京区","city_kana":"キョウトシサキョウク","town":"修学院登リ内町","town_kana":"シュウガクインノボリウチチョウ","prefecture_code":26},"8071":{"zip_code":"6068071","prefecture":"京都府","prefecture_kana":"キョウトフ","city":"京都市左京区","city_kana":"キョウトシサキョウク","town":"修学院狭間町","town_kana":"シュウガクインハザマチョウ","prefecture_code":26},"8044":{"zip_code":"6068044","prefecture":"京都府","prefecture_kana":"キョウトフ","city":"京都市左京区","city_kana":"キョウトシサキョウク","town":"修学院馬場脇町","town_kana":"シュウガクインババワキチョウ","prefecture_code":26},"8057":{"zip_code":"6068057","prefecture":"京都府","prefecture_kana":"キョウトフ","city":"京都市左京区","city_kana":"キョウトシサキョウク","town":"修学院林ノ脇","town_kana":"シュウガクインハヤシノワキ","prefecture_code":26},"8034":{"zip_code":"6068034","prefecture":"京都府","prefecture_kana":"キョウトフ","city":"京都市左京区","city_kana":"キョウトシサキョウク","town":"修学院桧峠町","town_kana":"シュウガクインヒノキトウゲチョウ","prefecture_code":26},"8041":{"zip_code":"6068041","prefecture":"京都府","prefecture_kana":"キョウトフ","city":"京都市左京区","city_kana":"キョウトシサキョウク","town":"修学院仏者町","town_kana":"シュウガクインブッシャチョウ","prefecture_code":26},"8056":{"zip_code":"6068056","prefecture":"京都府","prefecture_kana":"キョウトフ","city":"京都市左京区","city_kana":"キョウトシサキョウク","town":"修学院松本町","town_kana":"シュウガクインマツモトチョウ","prefecture_code":26},"8027":{"zip_code":"6068027","prefecture":"京都府","prefecture_kana":"キョウトフ","city":"京都市左京区","city_kana":"キョウトシサキョウク","town":"修学院水川原町","town_kana":"シュウガクインミズカワラチョウ","prefecture_code":26},"8062":{"zip_code":"6068062","prefecture":"京都府","prefecture_kana":"キョウトフ","city":"京都市左京区","city_kana":"キョウトシサキョウク","town":"修学院南代","town_kana":"シュウガクインミナミシロ","prefecture_code":26},"8053":{"zip_code":"6068053","prefecture":"京都府","prefecture_kana":"キョウトフ","city":"京都市左京区","city_kana":"キョウトシサキョウク","town":"修学院宮ノ前","town_kana":"シュウガクインミヤノマエ","prefecture_code":26},"8061":{"zip_code":"6068061","prefecture":"京都府","prefecture_kana":"キョウトフ","city":"京都市左京区","city_kana":"キョウトシサキョウク","town":"修学院宮ノ脇町","town_kana":"シュウガクインミヤノワキチョウ","prefecture_code":26},"8046":{"zip_code":"6068046","prefecture":"京都府","prefecture_kana":"キョウトフ","city":"京都市左京区","city_kana":"キョウトシサキョウク","town":"修学院室町","town_kana":"シュウガクインムロマチ","prefecture_code":26},"8084":{"zip_code":"6068084","prefecture":"京都府","prefecture_kana":"キョウトフ","city":"京都市左京区","city_kana":"キョウトシサキョウク","town":"修学院薬師堂町","town_kana":"シュウガクインヤクシドウチョウ","prefecture_code":26},"8052":{"zip_code":"6068052","prefecture":"京都府","prefecture_kana":"キョウトフ","city":"京都市左京区","city_kana":"キョウトシサキョウク","town":"修学院薮添","town_kana":"シュウガクインヤブソエ","prefecture_code":26},"8054":{"zip_code":"6068054","prefecture":"京都府","prefecture_kana":"キョウトフ","city":"京都市左京区","city_kana":"キョウトシサキョウク","town":"修学院山神町","town_kana":"シュウガクインヤマカミチョウ","prefecture_code":26},"8033":{"zip_code":"6068033","prefecture":"京都府","prefecture_kana":"キョウトフ","city":"京都市左京区","city_kana":"キョウトシサキョウク","town":"修学院山添町","town_kana":"シュウガクインヤマゾエチョウ","prefecture_code":26},"8025":{"zip_code":"6068025","prefecture":"京都府","prefecture_kana":"キョウトフ","city":"京都市左京区","city_kana":"キョウトシサキョウク","town":"修学院山ノ鼻町","town_kana":"シュウガクインヤマノハナチョウ","prefecture_code":26},"8353":{"zip_code":"6068353","prefecture":"京都府","prefecture_kana":"キョウトフ","city":"京都市左京区","city_kana":"キョウトシサキョウク","town":"正往寺町","town_kana":"ショウオウジチョウ","prefecture_code":26},"8323":{"zip_code":"6068323","prefecture":"京都府","prefecture_kana":"キョウトフ","city":"京都市左京区","city_kana":"キョウトシサキョウク","town":"聖護院円頓美町","town_kana":"ショウゴインエントミチョウ","prefecture_code":26},"8397":{"zip_code":"6068397","prefecture":"京都府","prefecture_kana":"キョウトフ","city":"京都市左京区","city_kana":"キョウトシサキョウク","town":"聖護院川原町","town_kana":"ショウゴインカワハラチョウ","prefecture_code":26},"8392":{"zip_code":"6068392","prefecture":"京都府","prefecture_kana":"キョウトフ","city":"京都市左京区","city_kana":"キョウトシサキョウク","town":"聖護院山王町","town_kana":"ショウゴインサンノウチョウ","prefecture_code":26},"8324":{"zip_code":"6068324","prefecture":"京都府","prefecture_kana":"キョウトフ","city":"京都市左京区","city_kana":"キョウトシサキョウク","town":"聖護院中町","town_kana":"ショウゴインナカマチ","prefecture_code":26},"8391":{"zip_code":"6068391","prefecture":"京都府","prefecture_kana":"キョウトフ","city":"京都市左京区","city_kana":"キョウトシサキョウク","town":"聖護院西町","town_kana":"ショウゴインニシマチ","prefecture_code":26},"8394":{"zip_code":"6068394","prefecture":"京都府","prefecture_kana":"キョウトフ","city":"京都市左京区","city_kana":"キョウトシサキョウク","town":"聖護院東寺領町","town_kana":"ショウゴインヒガシジリョウチョウ","prefecture_code":26},"8325":{"zip_code":"6068325","prefecture":"京都府","prefecture_kana":"キョウトフ","city":"京都市左京区","city_kana":"キョウトシサキョウク","town":"聖護院東町","town_kana":"ショウゴインヒガシマチ","prefecture_code":26},"8357":{"zip_code":"6068357","prefecture":"京都府","prefecture_kana":"キョウトフ","city":"京都市左京区","city_kana":"キョウトシサキョウク","town":"聖護院蓮華蔵町","town_kana":"ショウゴインレンゲゾウチョウ","prefecture_code":26},"8406":{"zip_code":"6068406","prefecture":"京都府","prefecture_kana":"キョウトフ","city":"京都市左京区","city_kana":"キョウトシサキョウク","town":"浄土寺石橋町","town_kana":"ジョウドジイシバシチョウ","prefecture_code":26},"8416":{"zip_code":"6068416","prefecture":"京都府","prefecture_kana":"キョウトフ","city":"京都市左京区","city_kana":"キョウトシサキョウク","town":"浄土寺上馬場町","town_kana":"ジョウドジカミバンバチョウ","prefecture_code":26},"8405":{"zip_code":"6068405","prefecture":"京都府","prefecture_kana":"キョウトフ","city":"京都市左京区","city_kana":"キョウトシサキョウク","town":"浄土寺上南田町","town_kana":"ジョウドジカミミナミダチョウ","prefecture_code":26},"8401":{"zip_code":"6068401","prefecture":"京都府","prefecture_kana":"キョウトフ","city":"京都市左京区","city_kana":"キョウトシサキョウク","town":"浄土寺小山町","town_kana":"ジョウドジコヤマチョウ","prefecture_code":26},"8413":{"zip_code":"6068413","prefecture":"京都府","prefecture_kana":"キョウトフ","city":"京都市左京区","city_kana":"キョウトシサキョウク","town":"浄土寺下馬場町","town_kana":"ジョウドジシモバンバチョウ","prefecture_code":26},"8404":{"zip_code":"6068404","prefecture":"京都府","prefecture_kana":"キョウトフ","city":"京都市左京区","city_kana":"キョウトシサキョウク","town":"浄土寺下南田町","town_kana":"ジョウドジシモミナミダチョウ","prefecture_code":26},"8414":{"zip_code":"6068414","prefecture":"京都府","prefecture_kana":"キョウトフ","city":"京都市左京区","city_kana":"キョウトシサキョウク","town":"浄土寺真如町","town_kana":"ジョウドジシンニョチョウ","prefecture_code":26},"8417":{"zip_code":"6068417","prefecture":"京都府","prefecture_kana":"キョウトフ","city":"京都市左京区","city_kana":"キョウトシサキョウク","town":"浄土寺西田町","town_kana":"ジョウドジニシダチョウ","prefecture_code":26},"8412":{"zip_code":"6068412","prefecture":"京都府","prefecture_kana":"キョウトフ","city":"京都市左京区","city_kana":"キョウトシサキョウク","town":"浄土寺馬場町","town_kana":"ジョウドジバンバチョウ","prefecture_code":26},"8411":{"zip_code":"6068411","prefecture":"京都府","prefecture_kana":"キョウトフ","city":"京都市左京区","city_kana":"キョウトシサキョウク","town":"浄土寺東田町","town_kana":"ジョウドジヒガシダチョウ","prefecture_code":26},"8403":{"zip_code":"6068403","prefecture":"京都府","prefecture_kana":"キョウトフ","city":"京都市左京区","city_kana":"キョウトシサキョウク","town":"浄土寺南田町","town_kana":"ジョウドジミナミダチョウ","prefecture_code":26},"8384":{"zip_code":"6068384","prefecture":"京都府","prefecture_kana":"キョウトフ","city":"京都市左京区","city_kana":"キョウトシサキョウク","town":"新生洲町","town_kana":"シンイケスチョウ","prefecture_code":26},"8375":{"zip_code":"6068375","prefecture":"京都府","prefecture_kana":"キョウトフ","city":"京都市左京区","city_kana":"キョウトシサキョウク","town":"新車屋町","town_kana":"シンクルマヤチョウ","prefecture_code":26},"8355":{"zip_code":"6068355","prefecture":"京都府","prefecture_kana":"キョウトフ","city":"京都市左京区","city_kana":"キョウトシサキョウク","town":"新東洞院町","town_kana":"シンヒガシドウインチョウ","prefecture_code":26},"8383":{"zip_code":"6068383","prefecture":"京都府","prefecture_kana":"キョウトフ","city":"京都市左京区","city_kana":"キョウトシサキョウク","town":"新先斗町","town_kana":"シンポントチョウ","prefecture_code":26},"8386":{"zip_code":"6068386","prefecture":"京都府","prefecture_kana":"キョウトフ","city":"京都市左京区","city_kana":"キョウトシサキョウク","town":"新丸太町","town_kana":"シンマルタチョウ","prefecture_code":26},"8373":{"zip_code":"6068373","prefecture":"京都府","prefecture_kana":"キョウトフ","city":"京都市左京区","city_kana":"キョウトシサキョウク","town":"杉本町","town_kana":"スギモトチョウ","prefecture_code":26},"8382":{"zip_code":"6068382","prefecture":"京都府","prefecture_kana":"キョウトフ","city":"京都市左京区","city_kana":"キョウトシサキョウク","town":"大文字町","town_kana":"ダイモンジチョウ","prefecture_code":26},"8111":{"zip_code":"6068111","prefecture":"京都府","prefecture_kana":"キョウトフ","city":"京都市左京区","city_kana":"キョウトシサキョウク","town":"高野泉町","town_kana":"タカノイズミチョウ","prefecture_code":26},"8105":{"zip_code":"6068105","prefecture":"京都府","prefecture_kana":"キョウトフ","city":"京都市左京区","city_kana":"キョウトシサキョウク","town":"高野上竹屋町","town_kana":"タカノカミタケヤチョウ","prefecture_code":26},"8102":{"zip_code":"6068102","prefecture":"京都府","prefecture_kana":"キョウトフ","city":"京都市左京区","city_kana":"キョウトシサキョウク","town":"高野清水町","town_kana":"タカノシミズチョウ","prefecture_code":26},"8104":{"zip_code":"6068104","prefecture":"京都府","prefecture_kana":"キョウトフ","city":"京都市左京区","city_kana":"キョウトシサキョウク","town":"高野竹屋町","town_kana":"タカノタケヤチョウ","prefecture_code":26},"8101":{"zip_code":"6068101","prefecture":"京都府","prefecture_kana":"キョウトフ","city":"京都市左京区","city_kana":"キョウトシサキョウク","town":"高野蓼原町","town_kana":"タカノタデハラチョウ","prefecture_code":26},"8106":{"zip_code":"6068106","prefecture":"京都府","prefecture_kana":"キョウトフ","city":"京都市左京区","city_kana":"キョウトシサキョウク","town":"高野玉岡町","town_kana":"タカノタマオカチョウ","prefecture_code":26},"8103":{"zip_code":"6068103","prefecture":"京都府","prefecture_kana":"キョウトフ","city":"京都市左京区","city_kana":"キョウトシサキョウク","town":"高野西開町","town_kana":"タカノニシビラキチョウ","prefecture_code":26},"8107":{"zip_code":"6068107","prefecture":"京都府","prefecture_kana":"キョウトフ","city":"京都市左京区","city_kana":"キョウトシサキョウク","town":"高野東開町","town_kana":"タカノヒガシヒラキチョウ","prefecture_code":26},"8226":{"zip_code":"6068226","prefecture":"京都府","prefecture_kana":"キョウトフ","city":"京都市左京区","city_kana":"キョウトシサキョウク","town":"田中飛鳥井町","town_kana":"タナカアスカイチョウ","prefecture_code":26},"8202":{"zip_code":"6068202","prefecture":"京都府","prefecture_kana":"キョウトフ","city":"京都市左京区","city_kana":"キョウトシサキョウク","town":"田中大堰町","town_kana":"タナカオオイチョウ","prefecture_code":26},"8236":{"zip_code":"6068236","prefecture":"京都府","prefecture_kana":"キョウトフ","city":"京都市左京区","city_kana":"キョウトシサキョウク","town":"田中大久保町","town_kana":"タナカオオクボチョウ","prefecture_code":26},"8237":{"zip_code":"6068237","prefecture":"京都府","prefecture_kana":"キョウトフ","city":"京都市左京区","city_kana":"キョウトシサキョウク","town":"田中上大久保町","town_kana":"タナカカミオオクボチョウ","prefecture_code":26},"8215":{"zip_code":"6068215","prefecture":"京都府","prefecture_kana":"キョウトフ","city":"京都市左京区","city_kana":"キョウトシサキョウク","town":"田中上玄京町","town_kana":"タナカカミゲンキョウチョウ","prefecture_code":26},"8231":{"zip_code":"6068231","prefecture":"京都府","prefecture_kana":"キョウトフ","city":"京都市左京区","city_kana":"キョウトシサキョウク","town":"田中上古川町","town_kana":"タナカカミフルカワチョウ","prefecture_code":26},"8205":{"zip_code":"6068205","prefecture":"京都府","prefecture_kana":"キョウトフ","city":"京都市左京区","city_kana":"キョウトシサキョウク","town":"田中上柳町","town_kana":"タナカカミヤナギチョウ","prefecture_code":26},"8233":{"zip_code":"6068233","prefecture":"京都府","prefecture_kana":"キョウトフ","city":"京都市左京区","city_kana":"キョウトシサキョウク","town":"田中北春菜町","town_kana":"タナカキタハルナチョウ","prefecture_code":26},"8201":{"zip_code":"6068201","prefecture":"京都府","prefecture_kana":"キョウトフ","city":"京都市左京区","city_kana":"キョウトシサキョウク","town":"田中玄京町","town_kana":"タナカゲンキョウチョウ","prefecture_code":26},"8212":{"zip_code":"6068212","prefecture":"京都府","prefecture_kana":"キョウトフ","city":"京都市左京区","city_kana":"キョウトシサキョウク","town":"田中里ノ内町","town_kana":"タナカサトノウチチョウ","prefecture_code":26},"8227":{"zip_code":"6068227","prefecture":"京都府","prefecture_kana":"キョウトフ","city":"京都市左京区","city_kana":"キョウトシサキョウク","town":"田中里ノ前町","town_kana":"タナカサトノマエチョウ","prefecture_code":26},"8204":{"zip_code":"6068204","prefecture":"京都府","prefecture_kana":"キョウトフ","city":"京都市左京区","city_kana":"キョウトシサキョウク","town":"田中下柳町","town_kana":"タナカシモヤナギチョウ","prefecture_code":26},"8203":{"zip_code":"6068203","prefecture":"京都府","prefecture_kana":"キョウトフ","city":"京都市左京区","city_kana":"キョウトシサキョウク","town":"田中関田町","town_kana":"タナカセキデンチョウ","prefecture_code":26},"8242":{"zip_code":"6068242","prefecture":"京都府","prefecture_kana":"キョウトフ","city":"京都市左京区","city_kana":"キョウトシサキョウク","town":"田中高原町","town_kana":"タナカタカハラチョウ","prefecture_code":26},"8217":{"zip_code":"6068217","prefecture":"京都府","prefecture_kana":"キョウトフ","city":"京都市左京区","city_kana":"キョウトシサキョウク","town":"田中西浦町","town_kana":"タナカニシウラチョウ","prefecture_code":26},"8211":{"zip_code":"6068211","prefecture":"京都府","prefecture_kana":"キョウトフ","city":"京都市左京区","city_kana":"キョウトシサキョウク","town":"田中西大久保町","town_kana":"タナカニシオオクボチョウ","prefecture_code":26},"8241":{"zip_code":"6068241","prefecture":"京都府","prefecture_kana":"キョウトフ","city":"京都市左京区","city_kana":"キョウトシサキョウク","town":"田中西高原町","town_kana":"タナカニシタカハラチョウ","prefecture_code":26},"8235":{"zip_code":"6068235","prefecture":"京都府","prefecture_kana":"キョウトフ","city":"京都市左京区","city_kana":"キョウトシサキョウク","town":"田中西春菜町","town_kana":"タナカニシハルナチョウ","prefecture_code":26},"8221":{"zip_code":"6068221","prefecture":"京都府","prefecture_kana":"キョウトフ","city":"京都市左京区","city_kana":"キョウトシサキョウク","town":"田中西樋ノ口町","town_kana":"タナカニシヒノクチチョウ","prefecture_code":26},"8213":{"zip_code":"6068213","prefecture":"京都府","prefecture_kana":"キョウトフ","city":"京都市左京区","city_kana":"キョウトシサキョウク","town":"田中野神町","town_kana":"タナカノガミチョウ","prefecture_code":26},"8206":{"zip_code":"6068206","prefecture":"京都府","prefecture_kana":"キョウトフ","city":"京都市左京区","city_kana":"キョウトシサキョウク","town":"田中馬場町","town_kana":"タナカババチョウ","prefecture_code":26},"8234":{"zip_code":"6068234","prefecture":"京都府","prefecture_kana":"キョウトフ","city":"京都市左京区","city_kana":"キョウトシサキョウク","town":"田中春菜町","town_kana":"タナカハルナチョウ","prefecture_code":26},"8243":{"zip_code":"6068243","prefecture":"京都府","prefecture_kana":"キョウトフ","city":"京都市左京区","city_kana":"キョウトシサキョウク","town":"田中東高原町","town_kana":"タナカヒガシタカハラチョウ","prefecture_code":26},"8247":{"zip_code":"6068247","prefecture":"京都府","prefecture_kana":"キョウトフ","city":"京都市左京区","city_kana":"キョウトシサキョウク","town":"田中東春菜町","town_kana":"タナカヒガシハルナチョウ","prefecture_code":26},"8223":{"zip_code":"6068223","prefecture":"京都府","prefecture_kana":"キョウトフ","city":"京都市左京区","city_kana":"キョウトシサキョウク","town":"田中東樋ノ口町","town_kana":"タナカヒガシヒノクチチョウ","prefecture_code":26},"8222":{"zip_code":"6068222","prefecture":"京都府","prefecture_kana":"キョウトフ","city":"京都市左京区","city_kana":"キョウトシサキョウク","town":"田中樋ノ口町","town_kana":"タナカヒノクチチョウ","prefecture_code":26},"8232":{"zip_code":"6068232","prefecture":"京都府","prefecture_kana":"キョウトフ","city":"京都市左京区","city_kana":"キョウトシサキョウク","town":"田中古川町","town_kana":"タナカフルカワチョウ","prefecture_code":26},"8214":{"zip_code":"6068214","prefecture":"京都府","prefecture_kana":"キョウトフ","city":"京都市左京区","city_kana":"キョウトシサキョウク","town":"田中南大久保町","town_kana":"タナカミナミオオクボチョウ","prefecture_code":26},"8216":{"zip_code":"6068216","prefecture":"京都府","prefecture_kana":"キョウトフ","city":"京都市左京区","city_kana":"キョウトシサキョウク","town":"田中南西浦町","town_kana":"タナカミナミニシウラチョウ","prefecture_code":26},"8225":{"zip_code":"6068225","prefecture":"京都府","prefecture_kana":"キョウトフ","city":"京都市左京区","city_kana":"キョウトシサキョウク","town":"田中門前町","town_kana":"タナカモンゼンチョウ","prefecture_code":26},"8366":{"zip_code":"6068366","prefecture":"京都府","prefecture_kana":"キョウトフ","city":"京都市左京区","city_kana":"キョウトシサキョウク","town":"超勝寺門前町","town_kana":"チョウショウジモンゼンチョウ","prefecture_code":26},"8381":{"zip_code":"6068381","prefecture":"京都府","prefecture_kana":"キョウトフ","city":"京都市左京区","city_kana":"キョウトシサキョウク","town":"中川町","town_kana":"ナカガワチョウ","prefecture_code":26},"8446":{"zip_code":"6068446","prefecture":"京都府","prefecture_kana":"キョウトフ","city":"京都市左京区","city_kana":"キョウトシサキョウク","town":"南禅寺北ノ坊町","town_kana":"ナンゼンジキタノボウチョウ","prefecture_code":26},"8437":{"zip_code":"6068437","prefecture":"京都府","prefecture_kana":"キョウトフ","city":"京都市左京区","city_kana":"キョウトシサキョウク","town":"南禅寺草川町","town_kana":"ナンゼンジクサガワチョウ","prefecture_code":26},"8434":{"zip_code":"6068434","prefecture":"京都府","prefecture_kana":"キョウトフ","city":"京都市左京区","city_kana":"キョウトシサキョウク","town":"南禅寺下河原町","town_kana":"ナンゼンジシモカワラチョウ","prefecture_code":26},"8435":{"zip_code":"6068435","prefecture":"京都府","prefecture_kana":"キョウトフ","city":"京都市左京区","city_kana":"キョウトシサキョウク","town":"南禅寺福地町","town_kana":"ナンゼンジフクチチョウ","prefecture_code":26},"8374":{"zip_code":"6068374","prefecture":"京都府","prefecture_kana":"キョウトフ","city":"京都市左京区","city_kana":"キョウトシサキョウク","town":"難波町","town_kana":"ナンバチョウ","prefecture_code":26},"8444":{"zip_code":"6068444","prefecture":"京都府","prefecture_kana":"キョウトフ","city":"京都市左京区","city_kana":"キョウトシサキョウク","town":"若王子町","town_kana":"ニャクオウジチョウ","prefecture_code":26},"8393":{"zip_code":"6068393","prefecture":"京都府","prefecture_kana":"キョウトフ","city":"京都市左京区","city_kana":"キョウトシサキョウク","town":"東竹屋町","town_kana":"ヒガシタケヤチョウ","prefecture_code":26},"8395":{"zip_code":"6068395","prefecture":"京都府","prefecture_kana":"キョウトフ","city":"京都市左京区","city_kana":"キョウトシサキョウク","town":"東丸太町","town_kana":"ヒガシマルタチョウ","prefecture_code":26},"8345":{"zip_code":"6068345","prefecture":"京都府","prefecture_kana":"キョウトフ","city":"京都市左京区","city_kana":"キョウトシサキョウク","town":"東門前町","town_kana":"ヒガシモンゼンチョウ","prefecture_code":26},"8361":{"zip_code":"6068361","prefecture":"京都府","prefecture_kana":"キョウトフ","city":"京都市左京区","city_kana":"キョウトシサキョウク","town":"福本町","town_kana":"フクモトチョウ","prefecture_code":26},"8362":{"zip_code":"6068362","prefecture":"京都府","prefecture_kana":"キョウトフ","city":"京都市左京区","city_kana":"キョウトシサキョウク","town":"法皇寺町","town_kana":"ホウオウジチョウ","prefecture_code":26},"8387":{"zip_code":"6068387","prefecture":"京都府","prefecture_kana":"キョウトフ","city":"京都市左京区","city_kana":"キョウトシサキョウク","town":"法林寺門前町","town_kana":"ホウリンジモンゼンチョウ","prefecture_code":26},"8385":{"zip_code":"6068385","prefecture":"京都府","prefecture_kana":"キョウトフ","city":"京都市左京区","city_kana":"キョウトシサキョウク","town":"孫橋町","town_kana":"マゴハシチョウ","prefecture_code":26},"0911":{"zip_code":"6060911","prefecture":"京都府","prefecture_kana":"キョウトフ","city":"京都市左京区","city_kana":"キョウトシサキョウク","town":"松ケ崎泉川町","town_kana":"マツガサキイズミガワチョウ","prefecture_code":26},"0954":{"zip_code":"6060954","prefecture":"京都府","prefecture_kana":"キョウトフ","city":"京都市左京区","city_kana":"キョウトシサキョウク","town":"松ケ崎壱町田町","town_kana":"マツガサキイッチョウダチョウ","prefecture_code":26},"0931":{"zip_code":"6060931","prefecture":"京都府","prefecture_kana":"キョウトフ","city":"京都市左京区","city_kana":"キョウトシサキョウク","town":"松ケ崎井出ケ海道町","town_kana":"マツガサキイデガカイドウチョウ","prefecture_code":26},"0947":{"zip_code":"6060947","prefecture":"京都府","prefecture_kana":"キョウトフ","city":"京都市左京区","city_kana":"キョウトシサキョウク","town":"松ケ崎井出ケ鼻町","town_kana":"マツガサキイデガハナチョウ","prefecture_code":26},"0914":{"zip_code":"6060914","prefecture":"京都府","prefecture_kana":"キョウトフ","city":"京都市左京区","city_kana":"キョウトシサキョウク","town":"松ケ崎今海道町","town_kana":"マツガサキイマカイドウチョウ","prefecture_code":26},"0936":{"zip_code":"6060936","prefecture":"京都府","prefecture_kana":"キョウトフ","city":"京都市左京区","city_kana":"キョウトシサキョウク","town":"松ケ崎榎実ケ芝","town_kana":"マツガサキエノミガシバ","prefecture_code":26},"0953":{"zip_code":"6060953","prefecture":"京都府","prefecture_kana":"キョウトフ","city":"京都市左京区","city_kana":"キョウトシサキョウク","town":"松ケ崎海尻町","town_kana":"マツガサキカイジリチョウ","prefecture_code":26},"0941":{"zip_code":"6060941","prefecture":"京都府","prefecture_kana":"キョウトフ","city":"京都市左京区","city_kana":"キョウトシサキョウク","town":"松ケ崎河原田町","town_kana":"マツガサキカワラダチョウ","prefecture_code":26},"0937":{"zip_code":"6060937","prefecture":"京都府","prefecture_kana":"キョウトフ","city":"京都市左京区","city_kana":"キョウトシサキョウク","town":"松ケ崎北裏町","town_kana":"マツガサキキタウラチョウ","prefecture_code":26},"0934":{"zip_code":"6060934","prefecture":"京都府","prefecture_kana":"キョウトフ","city":"京都市左京区","city_kana":"キョウトシサキョウク","town":"松ケ崎狐坂","town_kana":"マツガサキキツネサカ","prefecture_code":26},"0938":{"zip_code":"6060938","prefecture":"京都府","prefecture_kana":"キョウトフ","city":"京都市左京区","city_kana":"キョウトシサキョウク","town":"松ケ崎木燈籠町","town_kana":"マツガサキキトウロウチョウ","prefecture_code":26},"0952":{"zip_code":"6060952","prefecture":"京都府","prefecture_kana":"キョウトフ","city":"京都市左京区","city_kana":"キョウトシサキョウク","town":"松ケ崎木ノ本町","town_kana":"マツガサキキノモトチョウ","prefecture_code":26},"0961":{"zip_code":"6060961","prefecture":"京都府","prefecture_kana":"キョウトフ","city":"京都市左京区","city_kana":"キョウトシサキョウク","town":"松ケ崎久土町","town_kana":"マツガサキクドチョウ","prefecture_code":26},"0955":{"zip_code":"6060955","prefecture":"京都府","prefecture_kana":"キョウトフ","city":"京都市左京区","city_kana":"キョウトシサキョウク","town":"松ケ崎雲路町","town_kana":"マツガサキクモジチョウ","prefecture_code":26},"0956":{"zip_code":"6060956","prefecture":"京都府","prefecture_kana":"キョウトフ","city":"京都市左京区","city_kana":"キョウトシサキョウク","town":"松ケ崎鞍馬田町","town_kana":"マツガサキクラマダチョウ","prefecture_code":26},"0962":{"zip_code":"6060962","prefecture":"京都府","prefecture_kana":"キョウトフ","city":"京都市左京区","city_kana":"キョウトシサキョウク","town":"松ケ崎御所海道町","town_kana":"マツガサキゴショカイドウチョウ","prefecture_code":26},"0944":{"zip_code":"6060944","prefecture":"京都府","prefecture_kana":"キョウトフ","city":"京都市左京区","city_kana":"キョウトシサキョウク","town":"松ケ崎御所ノ内町","town_kana":"マツガサキゴショノウチチョウ","prefecture_code":26},"0967":{"zip_code":"6060967","prefecture":"京都府","prefecture_kana":"キョウトフ","city":"京都市左京区","city_kana":"キョウトシサキョウク","town":"松ケ崎小竹薮町","town_kana":"マツガサキコタケヤブチョウ","prefecture_code":26},"0957":{"zip_code":"6060957","prefecture":"京都府","prefecture_kana":"キョウトフ","city":"京都市左京区","city_kana":"キョウトシサキョウク","town":"松ケ崎小脇町","town_kana":"マツガサキコワキチョウ","prefecture_code":26},"0902":{"zip_code":"6060902","prefecture":"京都府","prefecture_kana":"キョウトフ","city":"京都市左京区","city_kana":"キョウトシサキョウク","town":"松ケ崎桜木町","town_kana":"マツガサキサクラギチョウ","prefecture_code":26},"0916":{"zip_code":"6060916","prefecture":"京都府","prefecture_kana":"キョウトフ","city":"京都市左京区","city_kana":"キョウトシサキョウク","town":"松ケ崎三反長町","town_kana":"マツガサキサンダンオサチョウ","prefecture_code":26},"0913":{"zip_code":"6060913","prefecture":"京都府","prefecture_kana":"キョウトフ","city":"京都市左京区","city_kana":"キョウトシサキョウク","town":"松ケ崎芝本町","town_kana":"マツガサキシバモトチョウ","prefecture_code":26},"0964":{"zip_code":"6060964","prefecture":"京都府","prefecture_kana":"キョウトフ","city":"京都市左京区","city_kana":"キョウトシサキョウク","town":"松ケ崎修理式町","town_kana":"マツガサキシュウリシキチョウ","prefecture_code":26},"0966":{"zip_code":"6060966","prefecture":"京都府","prefecture_kana":"キョウトフ","city":"京都市左京区","city_kana":"キョウトシサキョウク","town":"松ケ崎正田町","town_kana":"マツガサキショウデンチョウ","prefecture_code":26},"0905":{"zip_code":"6060905","prefecture":"京都府","prefecture_kana":"キョウトフ","city":"京都市左京区","city_kana":"キョウトシサキョウク","town":"松ケ崎杉ケ海道町","town_kana":"マツガサキスギガカイドウチョウ","prefecture_code":26},"0923":{"zip_code":"6060923","prefecture":"京都府","prefecture_kana":"キョウトフ","city":"京都市左京区","city_kana":"キョウトシサキョウク","town":"松ケ崎総作町","town_kana":"マツガサキソウサクチョウ","prefecture_code":26},"0935":{"zip_code":"6060935","prefecture":"京都府","prefecture_kana":"キョウトフ","city":"京都市左京区","city_kana":"キョウトシサキョウク","town":"松ケ崎高山","town_kana":"マツガサキタカヤマ","prefecture_code":26},"0963":{"zip_code":"6060963","prefecture":"京都府","prefecture_kana":"キョウトフ","city":"京都市左京区","city_kana":"キョウトシサキョウク","town":"松ケ崎糺田町","town_kana":"マツガサキタダスデンチョウ","prefecture_code":26},"0917":{"zip_code":"6060917","prefecture":"京都府","prefecture_kana":"キョウトフ","city":"京都市左京区","city_kana":"キョウトシサキョウク","town":"松ケ崎堂ノ上町","town_kana":"マツガサキドウノウエチョウ","prefecture_code":26},"0906":{"zip_code":"6060906","prefecture":"京都府","prefecture_kana":"キョウトフ","city":"京都市左京区","city_kana":"キョウトシサキョウク","town":"松ケ崎中海道町","town_kana":"マツガサキナカカイドウチョウ","prefecture_code":26},"0926":{"zip_code":"6060926","prefecture":"京都府","prefecture_kana":"キョウトフ","city":"京都市左京区","city_kana":"キョウトシサキョウク","town":"松ケ崎中町","town_kana":"マツガサキナカマチ","prefecture_code":26},"0932":{"zip_code":"6060932","prefecture":"京都府","prefecture_kana":"キョウトフ","city":"京都市左京区","city_kana":"キョウトシサキョウク","town":"松ケ崎西池ノ内町","town_kana":"マツガサキニシイケノウチチョウ","prefecture_code":26},"0903":{"zip_code":"6060903","prefecture":"京都府","prefecture_kana":"キョウトフ","city":"京都市左京区","city_kana":"キョウトシサキョウク","town":"松ケ崎西桜木町","town_kana":"マツガサキニシサクラギチョウ","prefecture_code":26},"0927":{"zip_code":"6060927","prefecture":"京都府","prefecture_kana":"キョウトフ","city":"京都市左京区","city_kana":"キョウトシサキョウク","town":"松ケ崎西町","town_kana":"マツガサキニシマチ","prefecture_code":26},"0933":{"zip_code":"6060933","prefecture":"京都府","prefecture_kana":"キョウトフ","city":"京都市左京区","city_kana":"キョウトシサキョウク","town":"松ケ崎西山","town_kana":"マツガサキニシヤマ","prefecture_code":26},"0951":{"zip_code":"6060951","prefecture":"京都府","prefecture_kana":"キョウトフ","city":"京都市左京区","city_kana":"キョウトシサキョウク","town":"松ケ崎橋上町","town_kana":"マツガサキハシカミチョウ","prefecture_code":26},"0925":{"zip_code":"6060925","prefecture":"京都府","prefecture_kana":"キョウトフ","city":"京都市左京区","city_kana":"キョウトシサキョウク","town":"松ケ崎林山","town_kana":"マツガサキハヤシヤマ","prefecture_code":26},"0924":{"zip_code":"6060924","prefecture":"京都府","prefecture_kana":"キョウトフ","city":"京都市左京区","city_kana":"キョウトシサキョウク","town":"松ケ崎東池ノ内町","town_kana":"マツガサキヒガシイケノウチチョウ","prefecture_code":26},"0901":{"zip_code":"6060901","prefecture":"京都府","prefecture_kana":"キョウトフ","city":"京都市左京区","city_kana":"キョウトシサキョウク","town":"松ケ崎東桜木町","town_kana":"マツガサキヒガシサクラギチョウ","prefecture_code":26},"0943":{"zip_code":"6060943","prefecture":"京都府","prefecture_kana":"キョウトフ","city":"京都市左京区","city_kana":"キョウトシサキョウク","town":"松ケ崎東町","town_kana":"マツガサキヒガシマチ","prefecture_code":26},"0946":{"zip_code":"6060946","prefecture":"京都府","prefecture_kana":"キョウトフ","city":"京都市左京区","city_kana":"キョウトシサキョウク","town":"松ケ崎東山","town_kana":"マツガサキヒガシヤマ","prefecture_code":26},"0942":{"zip_code":"6060942","prefecture":"京都府","prefecture_kana":"キョウトフ","city":"京都市左京区","city_kana":"キョウトシサキョウク","town":"松ケ崎樋ノ上町","town_kana":"マツガサキヒノエチョウ","prefecture_code":26},"0921":{"zip_code":"6060921","prefecture":"京都府","prefecture_kana":"キョウトフ","city":"京都市左京区","city_kana":"キョウトシサキョウク","town":"松ケ崎平田町","town_kana":"マツガサキヒラタチョウ","prefecture_code":26},"0945":{"zip_code":"6060945","prefecture":"京都府","prefecture_kana":"キョウトフ","city":"京都市左京区","city_kana":"キョウトシサキョウク","town":"松ケ崎堀町","town_kana":"マツガサキホリマチ","prefecture_code":26},"0922":{"zip_code":"6060922","prefecture":"京都府","prefecture_kana":"キョウトフ","city":"京都市左京区","city_kana":"キョウトシサキョウク","town":"松ケ崎南池ノ内町","town_kana":"マツガサキミナミイケノウチチョウ","prefecture_code":26},"0907":{"zip_code":"6060907","prefecture":"京都府","prefecture_kana":"キョウトフ","city":"京都市左京区","city_kana":"キョウトシサキョウク","town":"松ケ崎村ケ内町","town_kana":"マツガサキムラガウチチョウ","prefecture_code":26},"0904":{"zip_code":"6060904","prefecture":"京都府","prefecture_kana":"キョウトフ","city":"京都市左京区","city_kana":"キョウトシサキョウク","town":"松ケ崎柳井田町","town_kana":"マツガサキヤナイダチョウ","prefecture_code":26},"0965":{"zip_code":"6060965","prefecture":"京都府","prefecture_kana":"キョウトフ","city":"京都市左京区","city_kana":"キョウトシサキョウク","town":"松ケ崎横縄手町","town_kana":"マツガサキヨコナワテチョウ","prefecture_code":26},"0912":{"zip_code":"6060912","prefecture":"京都府","prefecture_kana":"キョウトフ","city":"京都市左京区","city_kana":"キョウトシサキョウク","town":"松ケ崎呼返町","town_kana":"マツガサキヨビカエリチョウ","prefecture_code":26},"0915":{"zip_code":"6060915","prefecture":"京都府","prefecture_kana":"キョウトフ","city":"京都市左京区","city_kana":"キョウトシサキョウク","town":"松ケ崎六ノ坪町","town_kana":"マツガサキロクノツボチョウ","prefecture_code":26},"8346":{"zip_code":"6068346","prefecture":"京都府","prefecture_kana":"キョウトフ","city":"京都市左京区","city_kana":"キョウトシサキョウク","town":"南門前町","town_kana":"ミナミモンゼンチョウ","prefecture_code":26},"0068":{"zip_code":"6060068","prefecture":"京都府","prefecture_kana":"キョウトフ","city":"京都市左京区","city_kana":"キョウトシサキョウク","town":"八瀬野瀬町","town_kana":"ヤセノセチョウ","prefecture_code":26},"8007":{"zip_code":"6068007","prefecture":"京都府","prefecture_kana":"キョウトフ","city":"京都市左京区","city_kana":"キョウトシサキョウク","town":"山端壱町田町","town_kana":"ヤマバナイッチョウダチョウ","prefecture_code":26},"8013":{"zip_code":"6068013","prefecture":"京都府","prefecture_kana":"キョウトフ","city":"京都市左京区","city_kana":"キョウトシサキョウク","town":"山端大君町","town_kana":"ヤマバナオオキミチョウ","prefecture_code":26},"8014":{"zip_code":"6068014","prefecture":"京都府","prefecture_kana":"キョウトフ","city":"京都市左京区","city_kana":"キョウトシサキョウク","town":"山端大塚町","town_kana":"ヤマバナオオツカチョウ","prefecture_code":26},"8005":{"zip_code":"6068005","prefecture":"京都府","prefecture_kana":"キョウトフ","city":"京都市左京区","city_kana":"キョウトシサキョウク","town":"山端川岸町","town_kana":"ヤマバナカワギシチョウ","prefecture_code":26},"8004":{"zip_code":"6068004","prefecture":"京都府","prefecture_kana":"キョウトフ","city":"京都市左京区","city_kana":"キョウトシサキョウク","town":"山端川端町","town_kana":"ヤマバナカワバタチョウ","prefecture_code":26},"8003":{"zip_code":"6068003","prefecture":"京都府","prefecture_kana":"キョウトフ","city":"京都市左京区","city_kana":"キョウトシサキョウク","town":"山端川原町","town_kana":"ヤマバナカワハラチョウ","prefecture_code":26},"8002":{"zip_code":"6068002","prefecture":"京都府","prefecture_kana":"キョウトフ","city":"京都市左京区","city_kana":"キョウトシサキョウク","town":"山端大城田町","town_kana":"ヤマバナダイジョウデンチョウ","prefecture_code":26},"8012":{"zip_code":"6068012","prefecture":"京都府","prefecture_kana":"キョウトフ","city":"京都市左京区","city_kana":"キョウトシサキョウク","town":"山端滝ケ鼻町","town_kana":"ヤマバナタキガハナチョウ","prefecture_code":26},"8006":{"zip_code":"6068006","prefecture":"京都府","prefecture_kana":"キョウトフ","city":"京都市左京区","city_kana":"キョウトシサキョウク","town":"山端橋ノ本町","town_kana":"ヤマバナハシノモトチョウ","prefecture_code":26},"8011":{"zip_code":"6068011","prefecture":"京都府","prefecture_kana":"キョウトフ","city":"京都市左京区","city_kana":"キョウトシサキョウク","town":"山端森本町","town_kana":"ヤマバナモリモトチョウ","prefecture_code":26},"8001":{"zip_code":"6068001","prefecture":"京都府","prefecture_kana":"キョウトフ","city":"京都市左京区","city_kana":"キョウトシサキョウク","town":"山端柳ケ坪町","town_kana":"ヤマバナヤナガツボチョウ","prefecture_code":26},"8301":{"zip_code":"6068301","prefecture":"京都府","prefecture_kana":"キョウトフ","city":"京都市左京区","city_kana":"キョウトシサキョウク","town":"吉田泉殿町","town_kana":"ヨシダイズミデンチョウ","prefecture_code":26},"8302":{"zip_code":"6068302","prefecture":"京都府","prefecture_kana":"キョウトフ","city":"京都市左京区","city_kana":"キョウトシサキョウク","town":"吉田牛ノ宮町","town_kana":"ヨシダウシノミヤチョウ","prefecture_code":26},"8311":{"zip_code":"6068311","prefecture":"京都府","prefecture_kana":"キョウトフ","city":"京都市左京区","city_kana":"キョウトシサキョウク","town":"吉田神楽岡町","town_kana":"ヨシダカグラオカチョウ","prefecture_code":26},"8307":{"zip_code":"6068307","prefecture":"京都府","prefecture_kana":"キョウトフ","city":"京都市左京区","city_kana":"キョウトシサキョウク","town":"吉田上阿達町","town_kana":"ヨシダカミアダチチョウ","prefecture_code":26},"8312":{"zip_code":"6068312","prefecture":"京都府","prefecture_kana":"キョウトフ","city":"京都市左京区","city_kana":"キョウトシサキョウク","town":"吉田上大路町","town_kana":"ヨシダカミオオジチョウ","prefecture_code":26},"8305":{"zip_code":"6068305","prefecture":"京都府","prefecture_kana":"キョウトフ","city":"京都市左京区","city_kana":"キョウトシサキョウク","town":"吉田河原町","town_kana":"ヨシダカワラチョウ","prefecture_code":26},"8315":{"zip_code":"6068315","prefecture":"京都府","prefecture_kana":"キョウトフ","city":"京都市左京区","city_kana":"キョウトシサキョウク","town":"吉田近衛町","town_kana":"ヨシダコノエチョウ","prefecture_code":26},"8304":{"zip_code":"6068304","prefecture":"京都府","prefecture_kana":"キョウトフ","city":"京都市左京区","city_kana":"キョウトシサキョウク","town":"吉田下阿達町","town_kana":"ヨシダシモアダチチョウ","prefecture_code":26},"8314":{"zip_code":"6068314","prefecture":"京都府","prefecture_kana":"キョウトフ","city":"京都市左京区","city_kana":"キョウトシサキョウク","town":"吉田下大路町","town_kana":"ヨシダシモオオジチョウ","prefecture_code":26},"8303":{"zip_code":"6068303","prefecture":"京都府","prefecture_kana":"キョウトフ","city":"京都市左京区","city_kana":"キョウトシサキョウク","town":"吉田橘町","town_kana":"ヨシダタチバナチョウ","prefecture_code":26},"8306":{"zip_code":"6068306","prefecture":"京都府","prefecture_kana":"キョウトフ","city":"京都市左京区","city_kana":"キョウトシサキョウク","town":"吉田中阿達町","town_kana":"ヨシダナカアダチチョウ","prefecture_code":26},"8313":{"zip_code":"6068313","prefecture":"京都府","prefecture_kana":"キョウトフ","city":"京都市左京区","city_kana":"キョウトシサキョウク","town":"吉田中大路町","town_kana":"ヨシダナカオオジチョウ","prefecture_code":26},"8316":{"zip_code":"6068316","prefecture":"京都府","prefecture_kana":"キョウトフ","city":"京都市左京区","city_kana":"キョウトシサキョウク","town":"吉田二本松町","town_kana":"ヨシダニホンマツチョウ","prefecture_code":26},"8317":{"zip_code":"6068317","prefecture":"京都府","prefecture_kana":"キョウトフ","city":"京都市左京区","city_kana":"キョウトシサキョウク","town":"吉田本町","town_kana":"ヨシダホンマチ","prefecture_code":26},"8372":{"zip_code":"6068372","prefecture":"京都府","prefecture_kana":"キョウトフ","city":"京都市左京区","city_kana":"キョウトシサキョウク","town":"吉永町","town_kana":"ヨシナガチョウ","prefecture_code":26},"8363":{"zip_code":"6068363","prefecture":"京都府","prefecture_kana":"キョウトフ","city":"京都市左京区","city_kana":"キョウトシサキョウク","town":"和国町","town_kana":"ワコクチョウ","prefecture_code":26}}