{"0000":{"zip_code":"6070000","prefecture":"京都府","prefecture_kana":"キョウトフ","city":"京都市山科区","city_kana":"キョウトシヤマシナク","town":"","town_kana":"","prefecture_code":26},"8003":{"zip_code":"6078003","prefecture":"京都府","prefecture_kana":"キョウトフ","city":"京都市山科区","city_kana":"キョウトシヤマシナク","town":"安朱稲荷山町","town_kana":"アンシュイナリヤマチョウ","prefecture_code":26},"8018":{"zip_code":"6078018","prefecture":"京都府","prefecture_kana":"キョウトフ","city":"京都市山科区","city_kana":"キョウトシヤマシナク","town":"安朱奥ノ田","town_kana":"アンシュオクノダ","prefecture_code":26},"8017":{"zip_code":"6078017","prefecture":"京都府","prefecture_kana":"キョウトフ","city":"京都市山科区","city_kana":"キョウトシヤマシナク","town":"安朱川向町","town_kana":"アンシュカワムカイチョウ","prefecture_code":26},"8009":{"zip_code":"6078009","prefecture":"京都府","prefecture_kana":"キョウトフ","city":"京都市山科区","city_kana":"キョウトシヤマシナク","town":"安朱北屋敷町","town_kana":"アンシュキタヤシキチョウ","prefecture_code":26},"8012":{"zip_code":"6078012","prefecture":"京都府","prefecture_kana":"キョウトフ","city":"京都市山科区","city_kana":"キョウトシヤマシナク","town":"安朱桟敷町","town_kana":"アンシュサジキチョウ","prefecture_code":26},"8005":{"zip_code":"6078005","prefecture":"京都府","prefecture_kana":"キョウトフ","city":"京都市山科区","city_kana":"キョウトシヤマシナク","town":"安朱堂ノ後町","town_kana":"アンシュドウノウシロチョウ","prefecture_code":26},"8013":{"zip_code":"6078013","prefecture":"京都府","prefecture_kana":"キョウトフ","city":"京都市山科区","city_kana":"キョウトシヤマシナク","town":"安朱中小路町","town_kana":"アンシュナカコウジチョウ","prefecture_code":26},"8016":{"zip_code":"6078016","prefecture":"京都府","prefecture_kana":"キョウトフ","city":"京都市山科区","city_kana":"キョウトシヤマシナク","town":"安朱中溝町","town_kana":"アンシュナカミゾチョウ","prefecture_code":26},"8007":{"zip_code":"6078007","prefecture":"京都府","prefecture_kana":"キョウトフ","city":"京都市山科区","city_kana":"キョウトシヤマシナク","town":"安朱馬場ノ西町","town_kana":"アンシュババノニシチョウ","prefecture_code":26},"8006":{"zip_code":"6078006","prefecture":"京都府","prefecture_kana":"キョウトフ","city":"京都市山科区","city_kana":"キョウトシヤマシナク","town":"安朱馬場ノ東町","town_kana":"アンシュババノヒガシチョウ","prefecture_code":26},"8008":{"zip_code":"6078008","prefecture":"京都府","prefecture_kana":"キョウトフ","city":"京都市山科区","city_kana":"キョウトシヤマシナク","town":"安朱東海道町","town_kana":"アンシュヒガシカイドウチョウ","prefecture_code":26},"8002":{"zip_code":"6078002","prefecture":"京都府","prefecture_kana":"キョウトフ","city":"京都市山科区","city_kana":"キョウトシヤマシナク","town":"安朱東谷","town_kana":"アンシュヒガシダニ","prefecture_code":26},"8001":{"zip_code":"6078001","prefecture":"京都府","prefecture_kana":"キョウトフ","city":"京都市山科区","city_kana":"キョウトシヤマシナク","town":"安朱毘沙門堂町","town_kana":"アンシュビシャモンドウチョウ","prefecture_code":26},"8011":{"zip_code":"6078011","prefecture":"京都府","prefecture_kana":"キョウトフ","city":"京都市山科区","city_kana":"キョウトシヤマシナク","town":"安朱南屋敷町","town_kana":"アンシュミナミヤシキチョウ","prefecture_code":26},"8004":{"zip_code":"6078004","prefecture":"京都府","prefecture_kana":"キョウトフ","city":"京都市山科区","city_kana":"キョウトシヤマシナク","town":"安朱屋敷町","town_kana":"アンシュヤシキチョウ","prefecture_code":26},"8015":{"zip_code":"6078015","prefecture":"京都府","prefecture_kana":"キョウトフ","city":"京都市山科区","city_kana":"キョウトシヤマシナク","town":"安朱山川町","town_kana":"アンシュヤマカワチョウ","prefecture_code":26},"8014":{"zip_code":"6078014","prefecture":"京都府","prefecture_kana":"キョウトフ","city":"京都市山科区","city_kana":"キョウトシヤマシナク","town":"安朱山田","town_kana":"アンシュヤマダ","prefecture_code":26},"8441":{"zip_code":"6078441","prefecture":"京都府","prefecture_kana":"キョウトフ","city":"京都市山科区","city_kana":"キョウトシヤマシナク","town":"上野御所ノ内町","town_kana":"ウエノゴショノウチチョウ","prefecture_code":26},"8443":{"zip_code":"6078443","prefecture":"京都府","prefecture_kana":"キョウトフ","city":"京都市山科区","city_kana":"キョウトシヤマシナク","town":"上野寺井町","town_kana":"ウエノテライチョウ","prefecture_code":26},"8442":{"zip_code":"6078442","prefecture":"京都府","prefecture_kana":"キョウトフ","city":"京都市山科区","city_kana":"キョウトシヤマシナク","town":"上野山田","town_kana":"ウエノヤマダ","prefecture_code":26},"8123":{"zip_code":"6078123","prefecture":"京都府","prefecture_kana":"キョウトフ","city":"京都市山科区","city_kana":"キョウトシヤマシナク","town":"大塚大岩","town_kana":"オオツカオオイワ","prefecture_code":26},"8134":{"zip_code":"6078134","prefecture":"京都府","prefecture_kana":"キョウトフ","city":"京都市山科区","city_kana":"キョウトシヤマシナク","town":"大塚北溝町","town_kana":"オオツカキタミゾチョウ","prefecture_code":26},"8122":{"zip_code":"6078122","prefecture":"京都府","prefecture_kana":"キョウトフ","city":"京都市山科区","city_kana":"キョウトシヤマシナク","town":"大塚高岩","town_kana":"オオツカタカイワ","prefecture_code":26},"8136":{"zip_code":"6078136","prefecture":"京都府","prefecture_kana":"キョウトフ","city":"京都市山科区","city_kana":"キョウトシヤマシナク","town":"大塚丹田","town_kana":"オオツカタンダ","prefecture_code":26},"8124":{"zip_code":"6078124","prefecture":"京都府","prefecture_kana":"キョウトフ","city":"京都市山科区","city_kana":"キョウトシヤマシナク","town":"大塚檀ノ浦","town_kana":"オオツカダンノウラ","prefecture_code":26},"8133":{"zip_code":"6078133","prefecture":"京都府","prefecture_kana":"キョウトフ","city":"京都市山科区","city_kana":"キョウトシヤマシナク","town":"大塚中溝","town_kana":"オオツカナカミゾ","prefecture_code":26},"8125":{"zip_code":"6078125","prefecture":"京都府","prefecture_kana":"キョウトフ","city":"京都市山科区","city_kana":"キョウトシヤマシナク","town":"大塚西浦町","town_kana":"オオツカニシウラチョウ","prefecture_code":26},"8135":{"zip_code":"6078135","prefecture":"京都府","prefecture_kana":"キョウトフ","city":"京都市山科区","city_kana":"キョウトシヤマシナク","town":"大塚野溝町","town_kana":"オオツカノミゾチョウ","prefecture_code":26},"8131":{"zip_code":"6078131","prefecture":"京都府","prefecture_kana":"キョウトフ","city":"京都市山科区","city_kana":"キョウトシヤマシナク","town":"大塚南溝町","town_kana":"オオツカミナミミゾチョウ","prefecture_code":26},"8121":{"zip_code":"6078121","prefecture":"京都府","prefecture_kana":"キョウトフ","city":"京都市山科区","city_kana":"キョウトシヤマシナク","town":"大塚向畑町","town_kana":"オオツカムカイバタチョウ","prefecture_code":26},"8126":{"zip_code":"6078126","prefecture":"京都府","prefecture_kana":"キョウトフ","city":"京都市山科区","city_kana":"キョウトシヤマシナク","town":"大塚元屋敷町","town_kana":"オオツカモトヤシキチョウ","prefecture_code":26},"8132":{"zip_code":"6078132","prefecture":"京都府","prefecture_kana":"キョウトフ","city":"京都市山科区","city_kana":"キョウトシヤマシナク","town":"大塚森町","town_kana":"オオツカモリチョウ","prefecture_code":26},"8187":{"zip_code":"6078187","prefecture":"京都府","prefecture_kana":"キョウトフ","city":"京都市山科区","city_kana":"キョウトシヤマシナク","town":"大宅石郡町","town_kana":"オオヤケイシゴオリチョウ","prefecture_code":26},"8172":{"zip_code":"6078172","prefecture":"京都府","prefecture_kana":"キョウトフ","city":"京都市山科区","city_kana":"キョウトシヤマシナク","town":"大宅岩屋殿","town_kana":"オオヤケイワヤデン","prefecture_code":26},"8181":{"zip_code":"6078181","prefecture":"京都府","prefecture_kana":"キョウトフ","city":"京都市山科区","city_kana":"キョウトシヤマシナク","town":"大宅打明町","town_kana":"オオヤケウチアケチョウ","prefecture_code":26},"8173":{"zip_code":"6078173","prefecture":"京都府","prefecture_kana":"キョウトフ","city":"京都市山科区","city_kana":"キョウトシヤマシナク","town":"大宅奥山田","town_kana":"オオヤケオクヤマダ","prefecture_code":26},"8191":{"zip_code":"6078191","prefecture":"京都府","prefecture_kana":"キョウトフ","city":"京都市山科区","city_kana":"キョウトシヤマシナク","town":"大宅烏田町","town_kana":"オオヤケカラスダチョウ","prefecture_code":26},"8185":{"zip_code":"6078185","prefecture":"京都府","prefecture_kana":"キョウトフ","city":"京都市山科区","city_kana":"キョウトシヤマシナク","town":"大宅神納町","town_kana":"オオヤケカンノウチョウ","prefecture_code":26},"8184":{"zip_code":"6078184","prefecture":"京都府","prefecture_kana":"キョウトフ","city":"京都市山科区","city_kana":"キョウトシヤマシナク","town":"大宅甲ノ辻町","town_kana":"オオヤケコウノツジチョウ","prefecture_code":26},"8192":{"zip_code":"6078192","prefecture":"京都府","prefecture_kana":"キョウトフ","city":"京都市山科区","city_kana":"キョウトシヤマシナク","town":"大宅御供田町","town_kana":"オオヤケゴクデンチョウ","prefecture_code":26},"8179":{"zip_code":"6078179","prefecture":"京都府","prefecture_kana":"キョウトフ","city":"京都市山科区","city_kana":"キョウトシヤマシナク","town":"大宅御所田町","town_kana":"オオヤケゴショデンチョウ","prefecture_code":26},"8171":{"zip_code":"6078171","prefecture":"京都府","prefecture_kana":"キョウトフ","city":"京都市山科区","city_kana":"キョウトシヤマシナク","town":"大宅御所山","town_kana":"オオヤケゴショヤマ","prefecture_code":26},"8178":{"zip_code":"6078178","prefecture":"京都府","prefecture_kana":"キョウトフ","city":"京都市山科区","city_kana":"キョウトシヤマシナク","town":"大宅五反畑町","town_kana":"オオヤケゴタンバタチョウ","prefecture_code":26},"8182":{"zip_code":"6078182","prefecture":"京都府","prefecture_kana":"キョウトフ","city":"京都市山科区","city_kana":"キョウトシヤマシナク","town":"大宅坂ノ辻町","town_kana":"オオヤケサカノツジチョウ","prefecture_code":26},"8194":{"zip_code":"6078194","prefecture":"京都府","prefecture_kana":"キョウトフ","city":"京都市山科区","city_kana":"キョウトシヤマシナク","town":"大宅桟敷","town_kana":"オオヤケサジキ","prefecture_code":26},"8193":{"zip_code":"6078193","prefecture":"京都府","prefecture_kana":"キョウトフ","city":"京都市山科区","city_kana":"キョウトシヤマシナク","town":"大宅沢町","town_kana":"オオヤケサワチョウ","prefecture_code":26},"8188":{"zip_code":"6078188","prefecture":"京都府","prefecture_kana":"キョウトフ","city":"京都市山科区","city_kana":"キョウトシヤマシナク","town":"大宅関生町","town_kana":"オオヤケセキショウチョウ","prefecture_code":26},"8183":{"zip_code":"6078183","prefecture":"京都府","prefecture_kana":"キョウトフ","city":"京都市山科区","city_kana":"キョウトシヤマシナク","town":"大宅辻脇町","town_kana":"オオヤケツジワキチョウ","prefecture_code":26},"8174":{"zip_code":"6078174","prefecture":"京都府","prefecture_kana":"キョウトフ","city":"京都市山科区","city_kana":"キョウトシヤマシナク","town":"大宅鳥井脇町","town_kana":"オオヤケトリイワキチョウ","prefecture_code":26},"8176":{"zip_code":"6078176","prefecture":"京都府","prefecture_kana":"キョウトフ","city":"京都市山科区","city_kana":"キョウトシヤマシナク","town":"大宅中小路町","town_kana":"オオヤケナカコウジチョウ","prefecture_code":26},"8177":{"zip_code":"6078177","prefecture":"京都府","prefecture_kana":"キョウトフ","city":"京都市山科区","city_kana":"キョウトシヤマシナク","town":"大宅古海道町","town_kana":"オオヤケフルカイドウチョウ","prefecture_code":26},"8189":{"zip_code":"6078189","prefecture":"京都府","prefecture_kana":"キョウトフ","city":"京都市山科区","city_kana":"キョウトシヤマシナク","town":"大宅細田町","town_kana":"オオヤケホソダチョウ","prefecture_code":26},"8170":{"zip_code":"6078170","prefecture":"京都府","prefecture_kana":"キョウトフ","city":"京都市山科区","city_kana":"キョウトシヤマシナク","town":"大宅向山","town_kana":"オオヤケムカイヤマ","prefecture_code":26},"8175":{"zip_code":"6078175","prefecture":"京都府","prefecture_kana":"キョウトフ","city":"京都市山科区","city_kana":"キョウトシヤマシナク","town":"大宅山田","town_kana":"オオヤケヤマダ","prefecture_code":26},"8186":{"zip_code":"6078186","prefecture":"京都府","prefecture_kana":"キョウトフ","city":"京都市山科区","city_kana":"キョウトシヤマシナク","town":"大宅早稲ノ内町","town_kana":"オオヤケワセノウチチョウ","prefecture_code":26},"8072":{"zip_code":"6078072","prefecture":"京都府","prefecture_kana":"キョウトフ","city":"京都市山科区","city_kana":"キョウトシヤマシナク","town":"音羽伊勢宿町","town_kana":"オトワイセジュクチョウ","prefecture_code":26},"8068":{"zip_code":"6078068","prefecture":"京都府","prefecture_kana":"キョウトフ","city":"京都市山科区","city_kana":"キョウトシヤマシナク","town":"音羽稲芝","town_kana":"オトワイナシバ","prefecture_code":26},"8074":{"zip_code":"6078074","prefecture":"京都府","prefecture_kana":"キョウトフ","city":"京都市山科区","city_kana":"キョウトシヤマシナク","town":"音羽乙出町","town_kana":"オトワオツデチョウ","prefecture_code":26},"8061":{"zip_code":"6078061","prefecture":"京都府","prefecture_kana":"キョウトフ","city":"京都市山科区","city_kana":"キョウトシヤマシナク","town":"音羽草田町","town_kana":"オトワクサダチョウ","prefecture_code":26},"8077":{"zip_code":"6078077","prefecture":"京都府","prefecture_kana":"キョウトフ","city":"京都市山科区","city_kana":"キョウトシヤマシナク","town":"音羽沢町","town_kana":"オトワサワチョウ","prefecture_code":26},"8065":{"zip_code":"6078065","prefecture":"京都府","prefecture_kana":"キョウトフ","city":"京都市山科区","city_kana":"キョウトシヤマシナク","town":"音羽山等地","town_kana":"オトワサントウジ","prefecture_code":26},"8071":{"zip_code":"6078071","prefecture":"京都府","prefecture_kana":"キョウトフ","city":"京都市山科区","city_kana":"キョウトシヤマシナク","town":"音羽千本町","town_kana":"オトワセンボンチョウ","prefecture_code":26},"8062":{"zip_code":"6078062","prefecture":"京都府","prefecture_kana":"キョウトフ","city":"京都市山科区","city_kana":"キョウトシヤマシナク","town":"音羽珍事町","town_kana":"オトワチンジチョウ","prefecture_code":26},"8069":{"zip_code":"6078069","prefecture":"京都府","prefecture_kana":"キョウトフ","city":"京都市山科区","city_kana":"キョウトシヤマシナク","town":"音羽中芝町","town_kana":"オトワナカシバチョウ","prefecture_code":26},"8073":{"zip_code":"6078073","prefecture":"京都府","prefecture_kana":"キョウトフ","city":"京都市山科区","city_kana":"キョウトシヤマシナク","town":"音羽西林","town_kana":"オトワニシバヤシ","prefecture_code":26},"8075":{"zip_code":"6078075","prefecture":"京都府","prefecture_kana":"キョウトフ","city":"京都市山科区","city_kana":"キョウトシヤマシナク","town":"音羽野田町","town_kana":"オトワノダチョウ","prefecture_code":26},"8064":{"zip_code":"6078064","prefecture":"京都府","prefecture_kana":"キョウトフ","city":"京都市山科区","city_kana":"キョウトシヤマシナク","town":"音羽八ノ坪","town_kana":"オトワハチノツボ","prefecture_code":26},"8078":{"zip_code":"6078078","prefecture":"京都府","prefecture_kana":"キョウトフ","city":"京都市山科区","city_kana":"キョウトシヤマシナク","town":"音羽初田町","town_kana":"オトワハツダチョウ","prefecture_code":26},"8063":{"zip_code":"6078063","prefecture":"京都府","prefecture_kana":"キョウトフ","city":"京都市山科区","city_kana":"キョウトシヤマシナク","town":"音羽平林町","town_kana":"オトワヒラバヤシチョウ","prefecture_code":26},"8067":{"zip_code":"6078067","prefecture":"京都府","prefecture_kana":"キョウトフ","city":"京都市山科区","city_kana":"キョウトシヤマシナク","town":"音羽前田町","town_kana":"オトワマエダチョウ","prefecture_code":26},"8079":{"zip_code":"6078079","prefecture":"京都府","prefecture_kana":"キョウトフ","city":"京都市山科区","city_kana":"キョウトシヤマシナク","town":"音羽前出町","town_kana":"オトワマエデチョウ","prefecture_code":26},"8066":{"zip_code":"6078066","prefecture":"京都府","prefecture_kana":"キョウトフ","city":"京都市山科区","city_kana":"キョウトシヤマシナク","town":"音羽森廻り町","town_kana":"オトワモリマワリチョウ","prefecture_code":26},"8076":{"zip_code":"6078076","prefecture":"京都府","prefecture_kana":"キョウトフ","city":"京都市山科区","city_kana":"キョウトシヤマシナク","town":"音羽役出町","town_kana":"オトワヤクデチョウ","prefecture_code":26},"8251":{"zip_code":"6078251","prefecture":"京都府","prefecture_kana":"キョウトフ","city":"京都市山科区","city_kana":"キョウトシヤマシナク","town":"小野蚊ケ瀬","town_kana":"オノカガセ","prefecture_code":26},"8261":{"zip_code":"6078261","prefecture":"京都府","prefecture_kana":"キョウトフ","city":"京都市山科区","city_kana":"キョウトシヤマシナク","town":"小野鐘付田町","town_kana":"オノカネツキデンチョウ","prefecture_code":26},"8252":{"zip_code":"6078252","prefecture":"京都府","prefecture_kana":"キョウトフ","city":"京都市山科区","city_kana":"キョウトシヤマシナク","town":"小野河原町","town_kana":"オノカワラチョウ","prefecture_code":26},"8255":{"zip_code":"6078255","prefecture":"京都府","prefecture_kana":"キョウトフ","city":"京都市山科区","city_kana":"キョウトシヤマシナク","town":"小野御所ノ内町","town_kana":"オノゴショノウチチョウ","prefecture_code":26},"8257":{"zip_code":"6078257","prefecture":"京都府","prefecture_kana":"キョウトフ","city":"京都市山科区","city_kana":"キョウトシヤマシナク","town":"小野御霊町","town_kana":"オノゴリョウチョウ","prefecture_code":26},"8256":{"zip_code":"6078256","prefecture":"京都府","prefecture_kana":"キョウトフ","city":"京都市山科区","city_kana":"キョウトシヤマシナク","town":"小野荘司町","town_kana":"オノショウジチョウ","prefecture_code":26},"8254":{"zip_code":"6078254","prefecture":"京都府","prefecture_kana":"キョウトフ","city":"京都市山科区","city_kana":"キョウトシヤマシナク","town":"小野高芝町","town_kana":"オノタカシバチョウ","prefecture_code":26},"8259":{"zip_code":"6078259","prefecture":"京都府","prefecture_kana":"キョウトフ","city":"京都市山科区","city_kana":"キョウトシヤマシナク","town":"小野葛篭尻町","town_kana":"オノツヅラジリチョウ","prefecture_code":26},"8258":{"zip_code":"6078258","prefecture":"京都府","prefecture_kana":"キョウトフ","city":"京都市山科区","city_kana":"キョウトシヤマシナク","town":"小野西浦","town_kana":"オノニシウラ","prefecture_code":26},"8253":{"zip_code":"6078253","prefecture":"京都府","prefecture_kana":"キョウトフ","city":"京都市山科区","city_kana":"キョウトシヤマシナク","town":"小野弓田町","town_kana":"オノユミデンチョウ","prefecture_code":26},"8461":{"zip_code":"6078461","prefecture":"京都府","prefecture_kana":"キョウトフ","city":"京都市山科区","city_kana":"キョウトシヤマシナク","town":"上花山旭山町","town_kana":"カミカザンアサヒヤマチョウ","prefecture_code":26},"8464":{"zip_code":"6078464","prefecture":"京都府","prefecture_kana":"キョウトフ","city":"京都市山科区","city_kana":"キョウトシヤマシナク","town":"上花山久保町","town_kana":"カミカザンクボチョウ","prefecture_code":26},"8463":{"zip_code":"6078463","prefecture":"京都府","prefecture_kana":"キョウトフ","city":"京都市山科区","city_kana":"キョウトシヤマシナク","town":"上花山講田町","town_kana":"カミカザンコウダチョウ","prefecture_code":26},"8465":{"zip_code":"6078465","prefecture":"京都府","prefecture_kana":"キョウトフ","city":"京都市山科区","city_kana":"キョウトシヤマシナク","town":"上花山坂尻","town_kana":"カミカザンサカジリ","prefecture_code":26},"8466":{"zip_code":"6078466","prefecture":"京都府","prefecture_kana":"キョウトフ","city":"京都市山科区","city_kana":"キョウトシヤマシナク","town":"上花山桜谷","town_kana":"カミカザンサクラダニ","prefecture_code":26},"8462":{"zip_code":"6078462","prefecture":"京都府","prefecture_kana":"キョウトフ","city":"京都市山科区","city_kana":"キョウトシヤマシナク","town":"上花山花ノ岡町","town_kana":"カミカザンハナノオカチョウ","prefecture_code":26},"8321":{"zip_code":"6078321","prefecture":"京都府","prefecture_kana":"キョウトフ","city":"京都市山科区","city_kana":"キョウトシヤマシナク","town":"川田岩ケ谷","town_kana":"カワタイワガタニ","prefecture_code":26},"8329":{"zip_code":"6078329","prefecture":"京都府","prefecture_kana":"キョウトフ","city":"京都市山科区","city_kana":"キョウトシヤマシナク","town":"川田梅ケ谷町","town_kana":"カワタウメガタニチョウ","prefecture_code":26},"8326":{"zip_code":"6078326","prefecture":"京都府","prefecture_kana":"キョウトフ","city":"京都市山科区","city_kana":"キョウトシヤマシナク","town":"川田御出町","town_kana":"カワタオイデチョウ","prefecture_code":26},"8323":{"zip_code":"6078323","prefecture":"京都府","prefecture_kana":"キョウトフ","city":"京都市山科区","city_kana":"キョウトシヤマシナク","town":"川田岡ノ西","town_kana":"カワタオカノニシ","prefecture_code":26},"8334":{"zip_code":"6078334","prefecture":"京都府","prefecture_kana":"キョウトフ","city":"京都市山科区","city_kana":"キョウトシヤマシナク","town":"川田欠ノ上","town_kana":"カワタカケノウエ","prefecture_code":26},"8322":{"zip_code":"6078322","prefecture":"京都府","prefecture_kana":"キョウトフ","city":"京都市山科区","city_kana":"キョウトシヤマシナク","town":"川田清水焼団地町","town_kana":"カワタキヨミズヤキダンチチョウ","prefecture_code":26},"8325":{"zip_code":"6078325","prefecture":"京都府","prefecture_kana":"キョウトフ","city":"京都市山科区","city_kana":"キョウトシヤマシナク","town":"川田土仏","town_kana":"カワタツチボトケ","prefecture_code":26},"8324":{"zip_code":"6078324","prefecture":"京都府","prefecture_kana":"キョウトフ","city":"京都市山科区","city_kana":"キョウトシヤマシナク","town":"川田百々","town_kana":"カワタドド","prefecture_code":26},"8336":{"zip_code":"6078336","prefecture":"京都府","prefecture_kana":"キョウトフ","city":"京都市山科区","city_kana":"キョウトシヤマシナク","town":"川田中畑町","town_kana":"カワタナカバタチョウ","prefecture_code":26},"8332":{"zip_code":"6078332","prefecture":"京都府","prefecture_kana":"キョウトフ","city":"京都市山科区","city_kana":"キョウトシヤマシナク","town":"川田西浦町","town_kana":"カワタニシウラチョウ","prefecture_code":26},"8337":{"zip_code":"6078337","prefecture":"京都府","prefecture_kana":"キョウトフ","city":"京都市山科区","city_kana":"キョウトシヤマシナク","town":"川田菱尾田","town_kana":"カワタヒシオダ","prefecture_code":26},"8333":{"zip_code":"6078333","prefecture":"京都府","prefecture_kana":"キョウトフ","city":"京都市山科区","city_kana":"キョウトシヤマシナク","town":"川田前畑町","town_kana":"カワタマエハタチョウ","prefecture_code":26},"8331":{"zip_code":"6078331","prefecture":"京都府","prefecture_kana":"キョウトフ","city":"京都市山科区","city_kana":"キョウトシヤマシナク","town":"川田御輿塚町","town_kana":"カワタミコシヅカチョウ","prefecture_code":26},"8335":{"zip_code":"6078335","prefecture":"京都府","prefecture_kana":"キョウトフ","city":"京都市山科区","city_kana":"キョウトシヤマシナク","town":"川田南畑町","town_kana":"カワタミナミバタチョウ","prefecture_code":26},"8328":{"zip_code":"6078328","prefecture":"京都府","prefecture_kana":"キョウトフ","city":"京都市山科区","city_kana":"キョウトシヤマシナク","town":"川田南山","town_kana":"カワタミナミヤマ","prefecture_code":26},"8327":{"zip_code":"6078327","prefecture":"京都府","prefecture_kana":"キョウトフ","city":"京都市山科区","city_kana":"キョウトシヤマシナク","town":"川田山田","town_kana":"カワタヤマダ","prefecture_code":26},"8217":{"zip_code":"6078217","prefecture":"京都府","prefecture_kana":"キョウトフ","city":"京都市山科区","city_kana":"キョウトシヤマシナク","town":"勧修寺閑林寺","town_kana":"カンシュウジカンリンジ","prefecture_code":26},"8238":{"zip_code":"6078238","prefecture":"京都府","prefecture_kana":"キョウトフ","city":"京都市山科区","city_kana":"キョウトシヤマシナク","town":"勧修寺北大日","town_kana":"カンシュウジキタダイニチ","prefecture_code":26},"8237":{"zip_code":"6078237","prefecture":"京都府","prefecture_kana":"キョウトフ","city":"京都市山科区","city_kana":"キョウトシヤマシナク","town":"勧修寺北大日町","town_kana":"カンシュウジキタダイニチチョウ","prefecture_code":26},"8218":{"zip_code":"6078218","prefecture":"京都府","prefecture_kana":"キョウトフ","city":"京都市山科区","city_kana":"キョウトシヤマシナク","town":"勧修寺御所内町","town_kana":"カンシュウジゴショウチチョウ","prefecture_code":26},"8236":{"zip_code":"6078236","prefecture":"京都府","prefecture_kana":"キョウトフ","city":"京都市山科区","city_kana":"キョウトシヤマシナク","town":"勧修寺小松原町","town_kana":"カンシュウジコマツバラチョウ","prefecture_code":26},"8242":{"zip_code":"6078242","prefecture":"京都府","prefecture_kana":"キョウトフ","city":"京都市山科区","city_kana":"キョウトシヤマシナク","town":"勧修寺柴山","town_kana":"カンシュウジシバヤマ","prefecture_code":26},"8227":{"zip_code":"6078227","prefecture":"京都府","prefecture_kana":"キョウトフ","city":"京都市山科区","city_kana":"キョウトシヤマシナク","town":"勧修寺下ノ茶屋町","town_kana":"カンシュウジシモノチャヤチョウ","prefecture_code":26},"8223":{"zip_code":"6078223","prefecture":"京都府","prefecture_kana":"キョウトフ","city":"京都市山科区","city_kana":"キョウトシヤマシナク","town":"勧修寺瀬戸河原","town_kana":"カンシュウジセトガワラ","prefecture_code":26},"8229":{"zip_code":"6078229","prefecture":"京都府","prefecture_kana":"キョウトフ","city":"京都市山科区","city_kana":"キョウトシヤマシナク","town":"勧修寺泉玉","town_kana":"カンシュウジセンギョク","prefecture_code":26},"8231":{"zip_code":"6078231","prefecture":"京都府","prefecture_kana":"キョウトフ","city":"京都市山科区","city_kana":"キョウトシヤマシナク","town":"勧修寺堂田","town_kana":"カンシュウジドウデン","prefecture_code":26},"8215":{"zip_code":"6078215","prefecture":"京都府","prefecture_kana":"キョウトフ","city":"京都市山科区","city_kana":"キョウトシヤマシナク","town":"勧修寺縄手町","town_kana":"カンシュウジナワテチョウ","prefecture_code":26},"8226":{"zip_code":"6078226","prefecture":"京都府","prefecture_kana":"キョウトフ","city":"京都市山科区","city_kana":"キョウトシヤマシナク","town":"勧修寺仁王堂町","town_kana":"カンシュウジニオウドウチョウ","prefecture_code":26},"8221":{"zip_code":"6078221","prefecture":"京都府","prefecture_kana":"キョウトフ","city":"京都市山科区","city_kana":"キョウトシヤマシナク","town":"勧修寺西金ケ崎","town_kana":"カンシュウジニシカナガサキ","prefecture_code":26},"8225":{"zip_code":"6078225","prefecture":"京都府","prefecture_kana":"キョウトフ","city":"京都市山科区","city_kana":"キョウトシヤマシナク","town":"勧修寺西北出町","town_kana":"カンシュウジニシキタデチョウ","prefecture_code":26},"8212":{"zip_code":"6078212","prefecture":"京都府","prefecture_kana":"キョウトフ","city":"京都市山科区","city_kana":"キョウトシヤマシナク","town":"勧修寺西栗栖野町","town_kana":"カンシュウジニシクリスノチョウ","prefecture_code":26},"8241":{"zip_code":"6078241","prefecture":"京都府","prefecture_kana":"キョウトフ","city":"京都市山科区","city_kana":"キョウトシヤマシナク","town":"勧修寺冷尻","town_kana":"カンシュウジヒエジリ","prefecture_code":26},"8213":{"zip_code":"6078213","prefecture":"京都府","prefecture_kana":"キョウトフ","city":"京都市山科区","city_kana":"キョウトシヤマシナク","town":"勧修寺東金ケ崎","town_kana":"カンシュウジヒガシカナガサキ","prefecture_code":26},"8224":{"zip_code":"6078224","prefecture":"京都府","prefecture_kana":"キョウトフ","city":"京都市山科区","city_kana":"キョウトシヤマシナク","town":"勧修寺東北出町","town_kana":"カンシュウジヒガシキタデチョウ","prefecture_code":26},"8211":{"zip_code":"6078211","prefecture":"京都府","prefecture_kana":"キョウトフ","city":"京都市山科区","city_kana":"キョウトシヤマシナク","town":"勧修寺東栗栖野町","town_kana":"カンシュウジヒガシクリスノチョウ","prefecture_code":26},"8216":{"zip_code":"6078216","prefecture":"京都府","prefecture_kana":"キョウトフ","city":"京都市山科区","city_kana":"キョウトシヤマシナク","town":"勧修寺東出町","town_kana":"カンシュウジヒガシデチョウ","prefecture_code":26},"8222":{"zip_code":"6078222","prefecture":"京都府","prefecture_kana":"キョウトフ","city":"京都市山科区","city_kana":"キョウトシヤマシナク","town":"勧修寺東堂田町","town_kana":"カンシュウジヒガシドウデンチョウ","prefecture_code":26},"8214":{"zip_code":"6078214","prefecture":"京都府","prefecture_kana":"キョウトフ","city":"京都市山科区","city_kana":"キョウトシヤマシナク","town":"勧修寺平田","town_kana":"カンシュウジヒラタ","prefecture_code":26},"8232":{"zip_code":"6078232","prefecture":"京都府","prefecture_kana":"キョウトフ","city":"京都市山科区","city_kana":"キョウトシヤマシナク","town":"勧修寺福岡町","town_kana":"カンシュウジフクオカチョウ","prefecture_code":26},"8219":{"zip_code":"6078219","prefecture":"京都府","prefecture_kana":"キョウトフ","city":"京都市山科区","city_kana":"キョウトシヤマシナク","town":"勧修寺風呂尻町","town_kana":"カンシュウジフロジリチョウ","prefecture_code":26},"8228":{"zip_code":"6078228","prefecture":"京都府","prefecture_kana":"キョウトフ","city":"京都市山科区","city_kana":"キョウトシヤマシナク","town":"勧修寺本堂山町","town_kana":"カンシュウジホンドウヤマチョウ","prefecture_code":26},"8239":{"zip_code":"6078239","prefecture":"京都府","prefecture_kana":"キョウトフ","city":"京都市山科区","city_kana":"キョウトシヤマシナク","town":"勧修寺丸山町","town_kana":"カンシュウジマルヤマチョウ","prefecture_code":26},"8235":{"zip_code":"6078235","prefecture":"京都府","prefecture_kana":"キョウトフ","city":"京都市山科区","city_kana":"キョウトシヤマシナク","town":"勧修寺南大日","town_kana":"カンシュウジミナミダイニチ","prefecture_code":26},"8234":{"zip_code":"6078234","prefecture":"京都府","prefecture_kana":"キョウトフ","city":"京都市山科区","city_kana":"キョウトシヤマシナク","town":"勧修寺南大日町","town_kana":"カンシュウジミナミダイニチチョウ","prefecture_code":26},"8233":{"zip_code":"6078233","prefecture":"京都府","prefecture_kana":"キョウトフ","city":"京都市山科区","city_kana":"キョウトシヤマシナク","town":"勧修寺南谷町","town_kana":"カンシュウジミナミダニチョウ","prefecture_code":26},"8483":{"zip_code":"6078483","prefecture":"京都府","prefecture_kana":"キョウトフ","city":"京都市山科区","city_kana":"キョウトシヤマシナク","town":"北花山市田町","town_kana":"キタカザンイチダチョウ","prefecture_code":26},"8482":{"zip_code":"6078482","prefecture":"京都府","prefecture_kana":"キョウトフ","city":"京都市山科区","city_kana":"キョウトシヤマシナク","town":"北花山大林町","town_kana":"キタカザンオオハヤシチョウ","prefecture_code":26},"8471":{"zip_code":"6078471","prefecture":"京都府","prefecture_kana":"キョウトフ","city":"京都市山科区","city_kana":"キョウトシヤマシナク","town":"北花山大峰町","town_kana":"キタカザンオオミネチョウ","prefecture_code":26},"8485":{"zip_code":"6078485","prefecture":"京都府","prefecture_kana":"キョウトフ","city":"京都市山科区","city_kana":"キョウトシヤマシナク","town":"北花山上稚児ケ池","town_kana":"キタカザンカミチゴガイケ","prefecture_code":26},"8476":{"zip_code":"6078476","prefecture":"京都府","prefecture_kana":"キョウトフ","city":"京都市山科区","city_kana":"キョウトシヤマシナク","town":"北花山河原町","town_kana":"キタカザンカワラチョウ","prefecture_code":26},"8474":{"zip_code":"6078474","prefecture":"京都府","prefecture_kana":"キョウトフ","city":"京都市山科区","city_kana":"キョウトシヤマシナク","town":"北花山寺内町","town_kana":"キタカザンテラウチチョウ","prefecture_code":26},"8481":{"zip_code":"6078481","prefecture":"京都府","prefecture_kana":"キョウトフ","city":"京都市山科区","city_kana":"キョウトシヤマシナク","town":"北花山中道町","town_kana":"キタカザンナカミチチョウ","prefecture_code":26},"8484":{"zip_code":"6078484","prefecture":"京都府","prefecture_kana":"キョウトフ","city":"京都市山科区","city_kana":"キョウトシヤマシナク","town":"北花山西ノ野町","town_kana":"キタカザンニシノノチョウ","prefecture_code":26},"8472":{"zip_code":"6078472","prefecture":"京都府","prefecture_kana":"キョウトフ","city":"京都市山科区","city_kana":"キョウトシヤマシナク","town":"北花山山田町","town_kana":"キタカザンヤマダチョウ","prefecture_code":26},"8475":{"zip_code":"6078475","prefecture":"京都府","prefecture_kana":"キョウトフ","city":"京都市山科区","city_kana":"キョウトシヤマシナク","town":"北花山横田町","town_kana":"キタカザンヨコタチョウ","prefecture_code":26},"8473":{"zip_code":"6078473","prefecture":"京都府","prefecture_kana":"キョウトフ","city":"京都市山科区","city_kana":"キョウトシヤマシナク","town":"北花山六反田町","town_kana":"キタカザンロクタンダチョウ","prefecture_code":26},"8203":{"zip_code":"6078203","prefecture":"京都府","prefecture_kana":"キョウトフ","city":"京都市山科区","city_kana":"キョウトシヤマシナク","town":"栗栖野打越町","town_kana":"クリスノウチコシチョウ","prefecture_code":26},"8201":{"zip_code":"6078201","prefecture":"京都府","prefecture_kana":"キョウトフ","city":"京都市山科区","city_kana":"キョウトシヤマシナク","town":"栗栖野狐塚","town_kana":"クリスノキツネヅカ","prefecture_code":26},"8202":{"zip_code":"6078202","prefecture":"京都府","prefecture_kana":"キョウトフ","city":"京都市山科区","city_kana":"キョウトシヤマシナク","town":"栗栖野中臣町","town_kana":"クリスノナカトミチョウ","prefecture_code":26},"8204":{"zip_code":"6078204","prefecture":"京都府","prefecture_kana":"キョウトフ","city":"京都市山科区","city_kana":"キョウトシヤマシナク","town":"栗栖野華ノ木町","town_kana":"クリスノハナノキチョウ","prefecture_code":26},"8103":{"zip_code":"6078103","prefecture":"京都府","prefecture_kana":"キョウトフ","city":"京都市山科区","city_kana":"キョウトシヤマシナク","town":"小山一石畑","town_kana":"コヤマイッコクバタ","prefecture_code":26},"8107":{"zip_code":"6078107","prefecture":"京都府","prefecture_kana":"キョウトフ","city":"京都市山科区","city_kana":"キョウトシヤマシナク","town":"小山小川町","town_kana":"コヤマオガワチョウ","prefecture_code":26},"8101":{"zip_code":"6078101","prefecture":"京都府","prefecture_kana":"キョウトフ","city":"京都市山科区","city_kana":"キョウトシヤマシナク","town":"小山神無森町","town_kana":"コヤマカミナシモリチョウ","prefecture_code":26},"8115":{"zip_code":"6078115","prefecture":"京都府","prefecture_kana":"キョウトフ","city":"京都市山科区","city_kana":"キョウトシヤマシナク","town":"小山北林町","town_kana":"コヤマキタバヤシチョウ","prefecture_code":26},"8113":{"zip_code":"6078113","prefecture":"京都府","prefecture_kana":"キョウトフ","city":"京都市山科区","city_kana":"キョウトシヤマシナク","town":"小山北溝町","town_kana":"コヤマキタミゾチョウ","prefecture_code":26},"8106":{"zip_code":"6078106","prefecture":"京都府","prefecture_kana":"キョウトフ","city":"京都市山科区","city_kana":"キョウトシヤマシナク","town":"小山御坊ノ内町","town_kana":"コヤマゴボウノウチチョウ","prefecture_code":26},"8102":{"zip_code":"6078102","prefecture":"京都府","prefecture_kana":"キョウトフ","city":"京都市山科区","city_kana":"キョウトシヤマシナク","town":"小山下ノ池","town_kana":"コヤマシモノイケ","prefecture_code":26},"8104":{"zip_code":"6078104","prefecture":"京都府","prefecture_kana":"キョウトフ","city":"京都市山科区","city_kana":"キョウトシヤマシナク","town":"小山谷田町","town_kana":"コヤマタニダチョウ","prefecture_code":26},"8116":{"zip_code":"6078116","prefecture":"京都府","prefecture_kana":"キョウトフ","city":"京都市山科区","city_kana":"キョウトシヤマシナク","town":"小山鎮守町","town_kana":"コヤマチンジュチョウ","prefecture_code":26},"8108":{"zip_code":"6078108","prefecture":"京都府","prefecture_kana":"キョウトフ","city":"京都市山科区","city_kana":"キョウトシヤマシナク","town":"小山中島町","town_kana":"コヤマナカジマチョウ","prefecture_code":26},"8112":{"zip_code":"6078112","prefecture":"京都府","prefecture_kana":"キョウトフ","city":"京都市山科区","city_kana":"キョウトシヤマシナク","town":"小山中ノ川町","town_kana":"コヤマナカノカワチョウ","prefecture_code":26},"8109":{"zip_code":"6078109","prefecture":"京都府","prefecture_kana":"キョウトフ","city":"京都市山科区","city_kana":"キョウトシヤマシナク","town":"小山西御所町","town_kana":"コヤマニシゴショチョウ","prefecture_code":26},"8114":{"zip_code":"6078114","prefecture":"京都府","prefecture_kana":"キョウトフ","city":"京都市山科区","city_kana":"キョウトシヤマシナク","town":"小山姫子町","town_kana":"コヤマヒメコチョウ","prefecture_code":26},"8105":{"zip_code":"6078105","prefecture":"京都府","prefecture_kana":"キョウトフ","city":"京都市山科区","city_kana":"キョウトシヤマシナク","town":"小山松原畑町","town_kana":"コヤママツハラバタチョウ","prefecture_code":26},"8111":{"zip_code":"6078111","prefecture":"京都府","prefecture_kana":"キョウトフ","city":"京都市山科区","city_kana":"キョウトシヤマシナク","town":"小山南溝町","town_kana":"コヤマミナミミゾチョウ","prefecture_code":26},"8028":{"zip_code":"6078028","prefecture":"京都府","prefecture_kana":"キョウトフ","city":"京都市山科区","city_kana":"キョウトシヤマシナク","town":"四ノ宮岩久保町","town_kana":"シノミヤイワクボチョウ","prefecture_code":26},"8041":{"zip_code":"6078041","prefecture":"京都府","prefecture_kana":"キョウトフ","city":"京都市山科区","city_kana":"キョウトシヤマシナク","town":"四ノ宮垣ノ内町","town_kana":"シノミヤカキノウチチョウ","prefecture_code":26},"8031":{"zip_code":"6078031","prefecture":"京都府","prefecture_kana":"キョウトフ","city":"京都市山科区","city_kana":"キョウトシヤマシナク","town":"四ノ宮鎌手町","town_kana":"シノミヤカマテチョウ","prefecture_code":26},"8027":{"zip_code":"6078027","prefecture":"京都府","prefecture_kana":"キョウトフ","city":"京都市山科区","city_kana":"キョウトシヤマシナク","town":"四ノ宮川原町","town_kana":"シノミヤカワラチョウ","prefecture_code":26},"8035":{"zip_code":"6078035","prefecture":"京都府","prefecture_kana":"キョウトフ","city":"京都市山科区","city_kana":"キョウトシヤマシナク","town":"四ノ宮神田町","town_kana":"シノミヤカンダチョウ","prefecture_code":26},"8021":{"zip_code":"6078021","prefecture":"京都府","prefecture_kana":"キョウトフ","city":"京都市山科区","city_kana":"キョウトシヤマシナク","town":"四ノ宮行者谷","town_kana":"シノミヤギョウジャダニ","prefecture_code":26},"8024":{"zip_code":"6078024","prefecture":"京都府","prefecture_kana":"キョウトフ","city":"京都市山科区","city_kana":"キョウトシヤマシナク","town":"四ノ宮熊ケ谷","town_kana":"シノミヤクマガダニ","prefecture_code":26},"8022":{"zip_code":"6078022","prefecture":"京都府","prefecture_kana":"キョウトフ","city":"京都市山科区","city_kana":"キョウトシヤマシナク","town":"四ノ宮小金塚","town_kana":"シノミヤコガネヅカ","prefecture_code":26},"8033":{"zip_code":"6078033","prefecture":"京都府","prefecture_kana":"キョウトフ","city":"京都市山科区","city_kana":"キョウトシヤマシナク","town":"四ノ宮芝畑町","town_kana":"シノミヤシバハタチョウ","prefecture_code":26},"8023":{"zip_code":"6078023","prefecture":"京都府","prefecture_kana":"キョウトフ","city":"京都市山科区","city_kana":"キョウトシヤマシナク","town":"四ノ宮新開畑","town_kana":"シノミヤシンカイバタ","prefecture_code":26},"8044":{"zip_code":"6078044","prefecture":"京都府","prefecture_kana":"キョウトフ","city":"京都市山科区","city_kana":"キョウトシヤマシナク","town":"四ノ宮泉水町","town_kana":"シノミヤセンスイチョウ","prefecture_code":26},"8029":{"zip_code":"6078029","prefecture":"京都府","prefecture_kana":"キョウトフ","city":"京都市山科区","city_kana":"キョウトシヤマシナク","town":"四ノ宮大将軍町","town_kana":"シノミヤタイショウグンチョウ","prefecture_code":26},"8043":{"zip_code":"6078043","prefecture":"京都府","prefecture_kana":"キョウトフ","city":"京都市山科区","city_kana":"キョウトシヤマシナク","town":"四ノ宮中在寺町","town_kana":"シノミヤチュウザイジチョウ","prefecture_code":26},"8045":{"zip_code":"6078045","prefecture":"京都府","prefecture_kana":"キョウトフ","city":"京都市山科区","city_kana":"キョウトシヤマシナク","town":"四ノ宮堂ノ後町","town_kana":"シノミヤドウノゴチョウ","prefecture_code":26},"8032":{"zip_code":"6078032","prefecture":"京都府","prefecture_kana":"キョウトフ","city":"京都市山科区","city_kana":"キョウトシヤマシナク","town":"四ノ宮奈良野町","town_kana":"シノミヤナラノチョウ","prefecture_code":26},"8034":{"zip_code":"6078034","prefecture":"京都府","prefecture_kana":"キョウトフ","city":"京都市山科区","city_kana":"キョウトシヤマシナク","town":"四ノ宮泓","town_kana":"シノミヤフケ","prefecture_code":26},"8042":{"zip_code":"6078042","prefecture":"京都府","prefecture_kana":"キョウトフ","city":"京都市山科区","city_kana":"キョウトシヤマシナク","town":"四ノ宮南河原町","town_kana":"シノミヤミナミガワラチョウ","prefecture_code":26},"8025":{"zip_code":"6078025","prefecture":"京都府","prefecture_kana":"キョウトフ","city":"京都市山科区","city_kana":"キョウトシヤマシナク","town":"四ノ宮柳山町","town_kana":"シノミヤヤナギヤマチョウ","prefecture_code":26},"8026":{"zip_code":"6078026","prefecture":"京都府","prefecture_kana":"キョウトフ","city":"京都市山科区","city_kana":"キョウトシヤマシナク","town":"四ノ宮山田町","town_kana":"シノミヤヤマダチョウ","prefecture_code":26},"8453":{"zip_code":"6078453","prefecture":"京都府","prefecture_kana":"キョウトフ","city":"京都市山科区","city_kana":"キョウトシヤマシナク","town":"厨子奥尾上町","town_kana":"ズシオクオノエチョウ","prefecture_code":26},"8456":{"zip_code":"6078456","prefecture":"京都府","prefecture_kana":"キョウトフ","city":"京都市山科区","city_kana":"キョウトシヤマシナク","town":"厨子奥花鳥町","town_kana":"ズシオクカチョウチョウ","prefecture_code":26},"8455":{"zip_code":"6078455","prefecture":"京都府","prefecture_kana":"キョウトフ","city":"京都市山科区","city_kana":"キョウトシヤマシナク","town":"厨子奥長通","town_kana":"ズシオクナガミチ","prefecture_code":26},"8454":{"zip_code":"6078454","prefecture":"京都府","prefecture_kana":"キョウトフ","city":"京都市山科区","city_kana":"キョウトシヤマシナク","town":"厨子奥苗代元町","town_kana":"ズシオクナワシロモトチョウ","prefecture_code":26},"8452":{"zip_code":"6078452","prefecture":"京都府","prefecture_kana":"キョウトフ","city":"京都市山科区","city_kana":"キョウトシヤマシナク","town":"厨子奥矢倉町","town_kana":"ズシオクヤクラチョウ","prefecture_code":26},"8451":{"zip_code":"6078451","prefecture":"京都府","prefecture_kana":"キョウトフ","city":"京都市山科区","city_kana":"キョウトシヤマシナク","town":"厨子奥若林町","town_kana":"ズシオクワカバヤシチョウ","prefecture_code":26},"8082":{"zip_code":"6078082","prefecture":"京都府","prefecture_kana":"キョウトフ","city":"京都市山科区","city_kana":"キョウトシヤマシナク","town":"竹鼻扇町","town_kana":"タケハナオウギチョウ","prefecture_code":26},"8083":{"zip_code":"6078083","prefecture":"京都府","prefecture_kana":"キョウトフ","city":"京都市山科区","city_kana":"キョウトシヤマシナク","town":"竹鼻木ノ本町","town_kana":"タケハナキノモトチョウ","prefecture_code":26},"8087":{"zip_code":"6078087","prefecture":"京都府","prefecture_kana":"キョウトフ","city":"京都市山科区","city_kana":"キョウトシヤマシナク","town":"竹鼻サイカシ町","town_kana":"タケハナサイカシチョウ","prefecture_code":26},"8088":{"zip_code":"6078088","prefecture":"京都府","prefecture_kana":"キョウトフ","city":"京都市山科区","city_kana":"キョウトシヤマシナク","town":"竹鼻地蔵寺南町","town_kana":"タケハナジゾウジミナミチョウ","prefecture_code":26},"8086":{"zip_code":"6078086","prefecture":"京都府","prefecture_kana":"キョウトフ","city":"京都市山科区","city_kana":"キョウトシヤマシナク","town":"竹鼻四丁野町","town_kana":"タケハナシチョウノチョウ","prefecture_code":26},"8081":{"zip_code":"6078081","prefecture":"京都府","prefecture_kana":"キョウトフ","city":"京都市山科区","city_kana":"キョウトシヤマシナク","town":"竹鼻外田町","town_kana":"タケハナソトダチョウ","prefecture_code":26},"8080":{"zip_code":"6078080","prefecture":"京都府","prefecture_kana":"キョウトフ","city":"京都市山科区","city_kana":"キョウトシヤマシナク","town":"竹鼻竹ノ街道町","town_kana":"タケハナタケノカイドウチョウ","prefecture_code":26},"8084":{"zip_code":"6078084","prefecture":"京都府","prefecture_kana":"キョウトフ","city":"京都市山科区","city_kana":"キョウトシヤマシナク","town":"竹鼻立原町","town_kana":"タケハナタテハラチョウ","prefecture_code":26},"8085":{"zip_code":"6078085","prefecture":"京都府","prefecture_kana":"キョウトフ","city":"京都市山科区","city_kana":"キョウトシヤマシナク","town":"竹鼻堂ノ前町","town_kana":"タケハナドウノマエチョウ","prefecture_code":26},"8089":{"zip_code":"6078089","prefecture":"京都府","prefecture_kana":"キョウトフ","city":"京都市山科区","city_kana":"キョウトシヤマシナク","town":"竹鼻西ノ口町","town_kana":"タケハナニシノグチチョウ","prefecture_code":26},"8168":{"zip_code":"6078168","prefecture":"京都府","prefecture_kana":"キョウトフ","city":"京都市山科区","city_kana":"キョウトシヤマシナク","town":"椥辻池尻町","town_kana":"ナギツジイケジリチョウ","prefecture_code":26},"8162":{"zip_code":"6078162","prefecture":"京都府","prefecture_kana":"キョウトフ","city":"京都市山科区","city_kana":"キョウトシヤマシナク","town":"椥辻草海道町","town_kana":"ナギツジクサカイドウチョウ","prefecture_code":26},"8161":{"zip_code":"6078161","prefecture":"京都府","prefecture_kana":"キョウトフ","city":"京都市山科区","city_kana":"キョウトシヤマシナク","town":"椥辻中在家町","town_kana":"ナギツジチュウザイケチョウ","prefecture_code":26},"8169":{"zip_code":"6078169","prefecture":"京都府","prefecture_kana":"キョウトフ","city":"京都市山科区","city_kana":"キョウトシヤマシナク","town":"椥辻西浦町","town_kana":"ナギツジニシウラチョウ","prefecture_code":26},"8164":{"zip_code":"6078164","prefecture":"京都府","prefecture_kana":"キョウトフ","city":"京都市山科区","city_kana":"キョウトシヤマシナク","town":"椥辻西潰","town_kana":"ナギツジニシツブシ","prefecture_code":26},"8166":{"zip_code":"6078166","prefecture":"京都府","prefecture_kana":"キョウトフ","city":"京都市山科区","city_kana":"キョウトシヤマシナク","town":"椥辻番所ケ口町","town_kana":"ナギツジバンショウガグチチョウ","prefecture_code":26},"8160":{"zip_code":"6078160","prefecture":"京都府","prefecture_kana":"キョウトフ","city":"京都市山科区","city_kana":"キョウトシヤマシナク","town":"椥辻東浦町","town_kana":"ナギツジヒガシウラチョウ","prefecture_code":26},"8163":{"zip_code":"6078163","prefecture":"京都府","prefecture_kana":"キョウトフ","city":"京都市山科区","city_kana":"キョウトシヤマシナク","town":"椥辻東潰","town_kana":"ナギツジヒガシツブシ","prefecture_code":26},"8165":{"zip_code":"6078165","prefecture":"京都府","prefecture_kana":"キョウトフ","city":"京都市山科区","city_kana":"キョウトシヤマシナク","town":"椥辻平田町","town_kana":"ナギツジヒラタチョウ","prefecture_code":26},"8167":{"zip_code":"6078167","prefecture":"京都府","prefecture_kana":"キョウトフ","city":"京都市山科区","city_kana":"キョウトシヤマシナク","town":"椥辻封シ川町","town_kana":"ナギツジフウシガワチョウ","prefecture_code":26},"8343":{"zip_code":"6078343","prefecture":"京都府","prefecture_kana":"キョウトフ","city":"京都市山科区","city_kana":"キョウトシヤマシナク","town":"西野阿芸沢町","town_kana":"ニシノアゲザワチョウ","prefecture_code":26},"8341":{"zip_code":"6078341","prefecture":"京都府","prefecture_kana":"キョウトフ","city":"京都市山科区","city_kana":"キョウトシヤマシナク","town":"西野今屋敷町","town_kana":"ニシノイマヤシキチョウ","prefecture_code":26},"8344":{"zip_code":"6078344","prefecture":"京都府","prefecture_kana":"キョウトフ","city":"京都市山科区","city_kana":"キョウトシヤマシナク","town":"西野大手先町","town_kana":"ニシノオオテサキチョウ","prefecture_code":26},"8355":{"zip_code":"6078355","prefecture":"京都府","prefecture_kana":"キョウトフ","city":"京都市山科区","city_kana":"キョウトシヤマシナク","town":"西野大鳥井町","town_kana":"ニシノオオトリイチョウ","prefecture_code":26},"8352":{"zip_code":"6078352","prefecture":"京都府","prefecture_kana":"キョウトフ","city":"京都市山科区","city_kana":"キョウトシヤマシナク","town":"西野岸ノ下町","town_kana":"ニシノキシノシタチョウ","prefecture_code":26},"8356":{"zip_code":"6078356","prefecture":"京都府","prefecture_kana":"キョウトフ","city":"京都市山科区","city_kana":"キョウトシヤマシナク","town":"西野後藤","town_kana":"ニシノゴトウ","prefecture_code":26},"8354":{"zip_code":"6078354","prefecture":"京都府","prefecture_kana":"キョウトフ","city":"京都市山科区","city_kana":"キョウトシヤマシナク","town":"西野小柳町","town_kana":"ニシノコヤナギチョウ","prefecture_code":26},"8347":{"zip_code":"6078347","prefecture":"京都府","prefecture_kana":"キョウトフ","city":"京都市山科区","city_kana":"キョウトシヤマシナク","town":"西野左義長町","town_kana":"ニシノサギチョウチョウ","prefecture_code":26},"8346":{"zip_code":"6078346","prefecture":"京都府","prefecture_kana":"キョウトフ","city":"京都市山科区","city_kana":"キョウトシヤマシナク","town":"西野山階町","town_kana":"ニシノサンカイチョウ","prefecture_code":26},"8353":{"zip_code":"6078353","prefecture":"京都府","prefecture_kana":"キョウトフ","city":"京都市山科区","city_kana":"キョウトシヤマシナク","town":"西野野色町","town_kana":"ニシノノイロチョウ","prefecture_code":26},"8351":{"zip_code":"6078351","prefecture":"京都府","prefecture_kana":"キョウトフ","city":"京都市山科区","city_kana":"キョウトシヤマシナク","town":"西野八幡田町","town_kana":"ニシノハチマンデンチョウ","prefecture_code":26},"8357":{"zip_code":"6078357","prefecture":"京都府","prefecture_kana":"キョウトフ","city":"京都市山科区","city_kana":"キョウトシヤマシナク","town":"西野櫃川町","town_kana":"ニシノヒツガワチョウ","prefecture_code":26},"8348":{"zip_code":"6078348","prefecture":"京都府","prefecture_kana":"キョウトフ","city":"京都市山科区","city_kana":"キョウトシヤマシナク","town":"西野広見町","town_kana":"ニシノヒロミチョウ","prefecture_code":26},"8358":{"zip_code":"6078358","prefecture":"京都府","prefecture_kana":"キョウトフ","city":"京都市山科区","city_kana":"キョウトシヤマシナク","town":"西野楳本町","town_kana":"ニシノムメモトチョウ","prefecture_code":26},"8342":{"zip_code":"6078342","prefecture":"京都府","prefecture_kana":"キョウトフ","city":"京都市山科区","city_kana":"キョウトシヤマシナク","town":"西野様子見町","town_kana":"ニシノヨウスミチョウ","prefecture_code":26},"8345":{"zip_code":"6078345","prefecture":"京都府","prefecture_kana":"キョウトフ","city":"京都市山科区","city_kana":"キョウトシヤマシナク","town":"西野離宮町","town_kana":"ニシノリキュウチョウ","prefecture_code":26},"8307":{"zip_code":"6078307","prefecture":"京都府","prefecture_kana":"キョウトフ","city":"京都市山科区","city_kana":"キョウトシヤマシナク","town":"西野山射庭ノ上町","town_kana":"ニシノヤマイバノウエチョウ","prefecture_code":26},"8309":{"zip_code":"6078309","prefecture":"京都府","prefecture_kana":"キョウトフ","city":"京都市山科区","city_kana":"キョウトシヤマシナク","town":"西野山岩ケ谷町","town_kana":"ニシノヤマイワガタニチョウ","prefecture_code":26},"8302":{"zip_code":"6078302","prefecture":"京都府","prefecture_kana":"キョウトフ","city":"京都市山科区","city_kana":"キョウトシヤマシナク","town":"西野山欠ノ上町","town_kana":"ニシノヤマカケノウエチョウ","prefecture_code":26},"8308":{"zip_code":"6078308","prefecture":"京都府","prefecture_kana":"キョウトフ","city":"京都市山科区","city_kana":"キョウトシヤマシナク","town":"西野山桜ノ馬場町","town_kana":"ニシノヤマサクラノババチョウ","prefecture_code":26},"8301":{"zip_code":"6078301","prefecture":"京都府","prefecture_kana":"キョウトフ","city":"京都市山科区","city_kana":"キョウトシヤマシナク","town":"西野山百々町","town_kana":"ニシノヤマドドチョウ","prefecture_code":26},"8305":{"zip_code":"6078305","prefecture":"京都府","prefecture_kana":"キョウトフ","city":"京都市山科区","city_kana":"キョウトシヤマシナク","town":"西野山中臣町","town_kana":"ニシノヤマナカトミチョウ","prefecture_code":26},"8306":{"zip_code":"6078306","prefecture":"京都府","prefecture_kana":"キョウトフ","city":"京都市山科区","city_kana":"キョウトシヤマシナク","town":"西野山中鳥井町","town_kana":"ニシノヤマナカトリイチョウ","prefecture_code":26},"8303":{"zip_code":"6078303","prefecture":"京都府","prefecture_kana":"キョウトフ","city":"京都市山科区","city_kana":"キョウトシヤマシナク","town":"西野山中畑町","town_kana":"ニシノヤマナカハタチョウ","prefecture_code":26},"8304":{"zip_code":"6078304","prefecture":"京都府","prefecture_kana":"キョウトフ","city":"京都市山科区","city_kana":"キョウトシヤマシナク","town":"西野山南畑町","town_kana":"ニシノヤマミナミハタチョウ","prefecture_code":26},"8311":{"zip_code":"6078311","prefecture":"京都府","prefecture_kana":"キョウトフ","city":"京都市山科区","city_kana":"キョウトシヤマシナク","town":"西野山山田","town_kana":"ニシノヤマヤマダ","prefecture_code":26},"8091":{"zip_code":"6078091","prefecture":"京都府","prefecture_kana":"キョウトフ","city":"京都市山科区","city_kana":"キョウトシヤマシナク","town":"八軒屋敷町","town_kana":"ハチケンヤシキチョウ","prefecture_code":26},"8144":{"zip_code":"6078144","prefecture":"京都府","prefecture_kana":"キョウトフ","city":"京都市山科区","city_kana":"キョウトシヤマシナク","town":"東野井ノ上町","town_kana":"ヒガシノイノウエチョウ","prefecture_code":26},"8156":{"zip_code":"6078156","prefecture":"京都府","prefecture_kana":"キョウトフ","city":"京都市山科区","city_kana":"キョウトシヤマシナク","town":"東野片下リ町","town_kana":"ヒガシノカタサガリチョウ","prefecture_code":26},"8141":{"zip_code":"6078141","prefecture":"京都府","prefecture_kana":"キョウトフ","city":"京都市山科区","city_kana":"キョウトシヤマシナク","town":"東野北井ノ上町","town_kana":"ヒガシノキタイノウエチョウ","prefecture_code":26},"8155":{"zip_code":"6078155","prefecture":"京都府","prefecture_kana":"キョウトフ","city":"京都市山科区","city_kana":"キョウトシヤマシナク","town":"東野狐藪町","town_kana":"ヒガシノキツネヤブチョウ","prefecture_code":26},"8151":{"zip_code":"6078151","prefecture":"京都府","prefecture_kana":"キョウトフ","city":"京都市山科区","city_kana":"キョウトシヤマシナク","town":"東野竹田","town_kana":"ヒガシノタケダ","prefecture_code":26},"8142":{"zip_code":"6078142","prefecture":"京都府","prefecture_kana":"キョウトフ","city":"京都市山科区","city_kana":"キョウトシヤマシナク","town":"東野中井ノ上町","town_kana":"ヒガシノナカイノウエチョウ","prefecture_code":26},"8145":{"zip_code":"6078145","prefecture":"京都府","prefecture_kana":"キョウトフ","city":"京都市山科区","city_kana":"キョウトシヤマシナク","town":"東野八反畑町","town_kana":"ヒガシノハッタンバタチョウ","prefecture_code":26},"8153":{"zip_code":"6078153","prefecture":"京都府","prefecture_kana":"キョウトフ","city":"京都市山科区","city_kana":"キョウトシヤマシナク","town":"東野百拍子町","town_kana":"ヒガシノヒャクビョウシチョウ","prefecture_code":26},"8146":{"zip_code":"6078146","prefecture":"京都府","prefecture_kana":"キョウトフ","city":"京都市山科区","city_kana":"キョウトシヤマシナク","town":"東野舞台町","town_kana":"ヒガシノブタイチョウ","prefecture_code":26},"8143":{"zip_code":"6078143","prefecture":"京都府","prefecture_kana":"キョウトフ","city":"京都市山科区","city_kana":"キョウトシヤマシナク","town":"東野南井ノ上町","town_kana":"ヒガシノミナミイノウエチョウ","prefecture_code":26},"8147":{"zip_code":"6078147","prefecture":"京都府","prefecture_kana":"キョウトフ","city":"京都市山科区","city_kana":"キョウトシヤマシナク","town":"東野森野町","town_kana":"ヒガシノモリノチョウ","prefecture_code":26},"8154":{"zip_code":"6078154","prefecture":"京都府","prefecture_kana":"キョウトフ","city":"京都市山科区","city_kana":"キョウトシヤマシナク","town":"東野門口町","town_kana":"ヒガシノモングチチョウ","prefecture_code":26},"8152":{"zip_code":"6078152","prefecture":"京都府","prefecture_kana":"キョウトフ","city":"京都市山科区","city_kana":"キョウトシヤマシナク","town":"東野八代","town_kana":"ヒガシノヤシロ","prefecture_code":26},"8051":{"zip_code":"6078051","prefecture":"京都府","prefecture_kana":"キョウトフ","city":"京都市山科区","city_kana":"キョウトシヤマシナク","town":"髭茶屋桃燈町","town_kana":"ヒゲチャヤチョウチンチョウ","prefecture_code":26},"8052":{"zip_code":"6078052","prefecture":"京都府","prefecture_kana":"キョウトフ","city":"京都市山科区","city_kana":"キョウトシヤマシナク","town":"髭茶屋屋敷町","town_kana":"ヒゲチャヤヤシキチョウ","prefecture_code":26},"8493":{"zip_code":"6078493","prefecture":"京都府","prefecture_kana":"キョウトフ","city":"京都市山科区","city_kana":"キョウトシヤマシナク","town":"日ノ岡朝田町","town_kana":"ヒノオカアサダチョウ","prefecture_code":26},"8498":{"zip_code":"6078498","prefecture":"京都府","prefecture_kana":"キョウトフ","city":"京都市山科区","city_kana":"キョウトシヤマシナク","town":"日ノ岡石塚町","town_kana":"ヒノオカイシヅカチョウ","prefecture_code":26},"8491":{"zip_code":"6078491","prefecture":"京都府","prefecture_kana":"キョウトフ","city":"京都市山科区","city_kana":"キョウトシヤマシナク","town":"日ノ岡一切経谷町","town_kana":"ヒノオカイッサイキョウダニチョウ","prefecture_code":26},"8492":{"zip_code":"6078492","prefecture":"京都府","prefecture_kana":"キョウトフ","city":"京都市山科区","city_kana":"キョウトシヤマシナク","town":"日ノ岡夷谷町","town_kana":"ヒノオカエビスダニチョウ","prefecture_code":26},"8495":{"zip_code":"6078495","prefecture":"京都府","prefecture_kana":"キョウトフ","city":"京都市山科区","city_kana":"キョウトシヤマシナク","town":"日ノ岡鴨土町","town_kana":"ヒノオカカモドチョウ","prefecture_code":26},"8496":{"zip_code":"6078496","prefecture":"京都府","prefecture_kana":"キョウトフ","city":"京都市山科区","city_kana":"キョウトシヤマシナク","town":"日ノ岡坂脇町","town_kana":"ヒノオカサカワキチョウ","prefecture_code":26},"8494":{"zip_code":"6078494","prefecture":"京都府","prefecture_kana":"キョウトフ","city":"京都市山科区","city_kana":"キョウトシヤマシナク","town":"日ノ岡堤谷町","town_kana":"ヒノオカツツミダニチョウ","prefecture_code":26},"8497":{"zip_code":"6078497","prefecture":"京都府","prefecture_kana":"キョウトフ","city":"京都市山科区","city_kana":"キョウトシヤマシナク","town":"日ノ岡ホッパラ町","town_kana":"ヒノオカホッパラチョウ","prefecture_code":26},"8429":{"zip_code":"6078429","prefecture":"京都府","prefecture_kana":"キョウトフ","city":"京都市山科区","city_kana":"キョウトシヤマシナク","town":"御陵荒巻町","town_kana":"ミササギアラマキチョウ","prefecture_code":26},"8407":{"zip_code":"6078407","prefecture":"京都府","prefecture_kana":"キョウトフ","city":"京都市山科区","city_kana":"キョウトシヤマシナク","town":"御陵安祥寺町","town_kana":"ミササギアンショウジチョウ","prefecture_code":26},"8433":{"zip_code":"6078433","prefecture":"京都府","prefecture_kana":"キョウトフ","city":"京都市山科区","city_kana":"キョウトシヤマシナク","town":"御陵池堤町","town_kana":"ミササギイケツツミチョウ","prefecture_code":26},"8418":{"zip_code":"6078418","prefecture":"京都府","prefecture_kana":"キョウトフ","city":"京都市山科区","city_kana":"キョウトシヤマシナク","town":"御陵牛尾町","town_kana":"ミササギウシオチョウ","prefecture_code":26},"8403":{"zip_code":"6078403","prefecture":"京都府","prefecture_kana":"キョウトフ","city":"京都市山科区","city_kana":"キョウトシヤマシナク","town":"御陵大岩","town_kana":"ミササギオオイワ","prefecture_code":26},"8404":{"zip_code":"6078404","prefecture":"京都府","prefecture_kana":"キョウトフ","city":"京都市山科区","city_kana":"キョウトシヤマシナク","town":"御陵大谷町","town_kana":"ミササギオオタニチョウ","prefecture_code":26},"8411":{"zip_code":"6078411","prefecture":"京都府","prefecture_kana":"キョウトフ","city":"京都市山科区","city_kana":"キョウトシヤマシナク","town":"御陵大津畑町","town_kana":"ミササギオオツバタチョウ","prefecture_code":26},"8431":{"zip_code":"6078431","prefecture":"京都府","prefecture_kana":"キョウトフ","city":"京都市山科区","city_kana":"キョウトシヤマシナク","town":"御陵岡町","town_kana":"ミササギオカチョウ","prefecture_code":26},"8421":{"zip_code":"6078421","prefecture":"京都府","prefecture_kana":"キョウトフ","city":"京都市山科区","city_kana":"キョウトシヤマシナク","town":"御陵岡ノ西町","town_kana":"ミササギオカノニシチョウ","prefecture_code":26},"8425":{"zip_code":"6078425","prefecture":"京都府","prefecture_kana":"キョウトフ","city":"京都市山科区","city_kana":"キョウトシヤマシナク","town":"御陵上御廟野町","town_kana":"ミササギカミゴビョウノチョウ","prefecture_code":26},"8432":{"zip_code":"6078432","prefecture":"京都府","prefecture_kana":"キョウトフ","city":"京都市山科区","city_kana":"キョウトシヤマシナク","town":"御陵鴨戸町","town_kana":"ミササギカモトチョウ","prefecture_code":26},"8427":{"zip_code":"6078427","prefecture":"京都府","prefecture_kana":"キョウトフ","city":"京都市山科区","city_kana":"キョウトシヤマシナク","town":"御陵久保町","town_kana":"ミササギクボチョウ","prefecture_code":26},"8402":{"zip_code":"6078402","prefecture":"京都府","prefecture_kana":"キョウトフ","city":"京都市山科区","city_kana":"キョウトシヤマシナク","town":"御陵黒岩","town_kana":"ミササギクロイワ","prefecture_code":26},"8401":{"zip_code":"6078401","prefecture":"京都府","prefecture_kana":"キョウトフ","city":"京都市山科区","city_kana":"キョウトシヤマシナク","town":"御陵沢ノ川町","town_kana":"ミササギサワノカワチョウ","prefecture_code":26},"8413":{"zip_code":"6078413","prefecture":"京都府","prefecture_kana":"キョウトフ","city":"京都市山科区","city_kana":"キョウトシヤマシナク","town":"御陵三蔵町","town_kana":"ミササギサンゾウチョウ","prefecture_code":26},"8412":{"zip_code":"6078412","prefecture":"京都府","prefecture_kana":"キョウトフ","city":"京都市山科区","city_kana":"キョウトシヤマシナク","town":"御陵四丁野町","town_kana":"ミササギシチョウノチョウ","prefecture_code":26},"8426":{"zip_code":"6078426","prefecture":"京都府","prefecture_kana":"キョウトフ","city":"京都市山科区","city_kana":"キョウトシヤマシナク","town":"御陵下御廟野町","town_kana":"ミササギシモゴビョウノチョウ","prefecture_code":26},"8416":{"zip_code":"6078416","prefecture":"京都府","prefecture_kana":"キョウトフ","city":"京都市山科区","city_kana":"キョウトシヤマシナク","town":"御陵進藤町","town_kana":"ミササギシンドウチョウ","prefecture_code":26},"8405":{"zip_code":"6078405","prefecture":"京都府","prefecture_kana":"キョウトフ","city":"京都市山科区","city_kana":"キョウトシヤマシナク","town":"御陵田山町","town_kana":"ミササギタヤマチョウ","prefecture_code":26},"8419":{"zip_code":"6078419","prefecture":"京都府","prefecture_kana":"キョウトフ","city":"京都市山科区","city_kana":"キョウトシヤマシナク","town":"御陵檀ノ後","town_kana":"ミササギダンノウシロ","prefecture_code":26},"8428":{"zip_code":"6078428","prefecture":"京都府","prefecture_kana":"キョウトフ","city":"京都市山科区","city_kana":"キョウトシヤマシナク","town":"御陵血洗町","town_kana":"ミササギチアライチョウ","prefecture_code":26},"8409":{"zip_code":"6078409","prefecture":"京都府","prefecture_kana":"キョウトフ","city":"京都市山科区","city_kana":"キョウトシヤマシナク","town":"御陵天徳町","town_kana":"ミササギテントクチョウ","prefecture_code":26},"8408":{"zip_code":"6078408","prefecture":"京都府","prefecture_kana":"キョウトフ","city":"京都市山科区","city_kana":"キョウトシヤマシナク","town":"御陵鳥ノ向町","town_kana":"ミササギトリノムカイチョウ","prefecture_code":26},"8414":{"zip_code":"6078414","prefecture":"京都府","prefecture_kana":"キョウトフ","city":"京都市山科区","city_kana":"キョウトシヤマシナク","town":"御陵中内町","town_kana":"ミササギナカウチチョウ","prefecture_code":26},"8415":{"zip_code":"6078415","prefecture":"京都府","prefecture_kana":"キョウトフ","city":"京都市山科区","city_kana":"キョウトシヤマシナク","town":"御陵中筋町","town_kana":"ミササギナカスジチョウ","prefecture_code":26},"8424":{"zip_code":"6078424","prefecture":"京都府","prefecture_kana":"キョウトフ","city":"京都市山科区","city_kana":"キョウトシヤマシナク","town":"御陵原西町","town_kana":"ミササギハラニシチョウ","prefecture_code":26},"8406":{"zip_code":"6078406","prefecture":"京都府","prefecture_kana":"キョウトフ","city":"京都市山科区","city_kana":"キョウトシヤマシナク","town":"御陵平林町","town_kana":"ミササギヒラバヤシチョウ","prefecture_code":26},"8422":{"zip_code":"6078422","prefecture":"京都府","prefecture_kana":"キョウトフ","city":"京都市山科区","city_kana":"キョウトシヤマシナク","town":"御陵封ジ山町","town_kana":"ミササギフウジヤマチョウ","prefecture_code":26},"8417":{"zip_code":"6078417","prefecture":"京都府","prefecture_kana":"キョウトフ","city":"京都市山科区","city_kana":"キョウトシヤマシナク","town":"御陵別所町","town_kana":"ミササギベッショチョウ","prefecture_code":26},"8423":{"zip_code":"6078423","prefecture":"京都府","prefecture_kana":"キョウトフ","city":"京都市山科区","city_kana":"キョウトシヤマシナク","town":"御陵山ノ谷","town_kana":"ミササギヤマノタニ","prefecture_code":26}}