{"0000":{"zip_code":"6100000","prefecture":"京都府","prefecture_kana":"キョウトフ","city":"京都市西京区","city_kana":"キョウトシニシキョウク","town":"","town_kana":"","prefecture_code":26},"1101":{"zip_code":"6101101","prefecture":"京都府","prefecture_kana":"キョウトフ","city":"京都市西京区","city_kana":"キョウトシニシキョウク","town":"大枝北沓掛町","town_kana":"オオエキタクツカケチョウ","prefecture_code":26},"1112":{"zip_code":"6101112","prefecture":"京都府","prefecture_kana":"キョウトフ","city":"京都市西京区","city_kana":"キョウトシニシキョウク","town":"大枝北福西町","town_kana":"オオエキタフクニシチョウ","prefecture_code":26},"1106":{"zip_code":"6101106","prefecture":"京都府","prefecture_kana":"キョウトフ","city":"京都市西京区","city_kana":"キョウトシニシキョウク","town":"大枝沓掛町","town_kana":"オオエクツカケチョウ","prefecture_code":26},"1105":{"zip_code":"6101105","prefecture":"京都府","prefecture_kana":"キョウトフ","city":"京都市西京区","city_kana":"キョウトシニシキョウク","town":"大枝塚原町","town_kana":"オオエツカハラチョウ","prefecture_code":26},"1104":{"zip_code":"6101104","prefecture":"京都府","prefecture_kana":"キョウトフ","city":"京都市西京区","city_kana":"キョウトシニシキョウク","town":"大枝中山町","town_kana":"オオエナカヤマチョウ","prefecture_code":26},"1141":{"zip_code":"6101141","prefecture":"京都府","prefecture_kana":"キョウトフ","city":"京都市西京区","city_kana":"キョウトシニシキョウク","town":"大枝西新林町","town_kana":"オオエニシシンバヤシチョウ","prefecture_code":26},"1151":{"zip_code":"6101151","prefecture":"京都府","prefecture_kana":"キョウトフ","city":"京都市西京区","city_kana":"キョウトシニシキョウク","town":"大枝西長町","town_kana":"オオエニシナガチョウ","prefecture_code":26},"1142":{"zip_code":"6101142","prefecture":"京都府","prefecture_kana":"キョウトフ","city":"京都市西京区","city_kana":"キョウトシニシキョウク","town":"大枝東新林町","town_kana":"オオエヒガシシンバヤシチョウ","prefecture_code":26},"1111":{"zip_code":"6101111","prefecture":"京都府","prefecture_kana":"キョウトフ","city":"京都市西京区","city_kana":"キョウトシニシキョウク","town":"大枝東長町","town_kana":"オオエヒガシナガチョウ","prefecture_code":26},"1113":{"zip_code":"6101113","prefecture":"京都府","prefecture_kana":"キョウトフ","city":"京都市西京区","city_kana":"キョウトシニシキョウク","town":"大枝南福西町","town_kana":"オオエミナミフクニシチョウ","prefecture_code":26},"1134":{"zip_code":"6101134","prefecture":"京都府","prefecture_kana":"キョウトフ","city":"京都市西京区","city_kana":"キョウトシニシキョウク","town":"大原野石作町","town_kana":"オオハラノイシヅクリチョウ","prefecture_code":26},"1135":{"zip_code":"6101135","prefecture":"京都府","prefecture_kana":"キョウトフ","city":"京都市西京区","city_kana":"キョウトシニシキョウク","town":"大原野出灰町","town_kana":"オオハラノイズリハチョウ","prefecture_code":26},"1128":{"zip_code":"6101128","prefecture":"京都府","prefecture_kana":"キョウトフ","city":"京都市西京区","city_kana":"キョウトシニシキョウク","town":"大原野石見町","town_kana":"オオハラノイワミチョウ","prefecture_code":26},"1131":{"zip_code":"6101131","prefecture":"京都府","prefecture_kana":"キョウトフ","city":"京都市西京区","city_kana":"キョウトシニシキョウク","town":"大原野上羽町","town_kana":"オオハラノウエバチョウ","prefecture_code":26},"1133":{"zip_code":"6101133","prefecture":"京都府","prefecture_kana":"キョウトフ","city":"京都市西京区","city_kana":"キョウトシニシキョウク","town":"大原野小塩町","town_kana":"オオハラノオシオチョウ","prefecture_code":26},"1126":{"zip_code":"6101126","prefecture":"京都府","prefecture_kana":"キョウトフ","city":"京都市西京区","city_kana":"キョウトシニシキョウク","town":"大原野上里男鹿町","town_kana":"オオハラノカミザトオジカチョウ","prefecture_code":26},"1125":{"zip_code":"6101125","prefecture":"京都府","prefecture_kana":"キョウトフ","city":"京都市西京区","city_kana":"キョウトシニシキョウク","town":"大原野上里勝山町","town_kana":"オオハラノカミザトカツヤマチョウ","prefecture_code":26},"1121":{"zip_code":"6101121","prefecture":"京都府","prefecture_kana":"キョウトフ","city":"京都市西京区","city_kana":"キョウトシニシキョウク","town":"大原野上里北ノ町","town_kana":"オオハラノカミザトキタノチョウ","prefecture_code":26},"1127":{"zip_code":"6101127","prefecture":"京都府","prefecture_kana":"キョウトフ","city":"京都市西京区","city_kana":"キョウトシニシキョウク","town":"大原野上里鳥見町","town_kana":"オオハラノカミザトトリミチョウ","prefecture_code":26},"1123":{"zip_code":"6101123","prefecture":"京都府","prefecture_kana":"キョウトフ","city":"京都市西京区","city_kana":"キョウトシニシキョウク","town":"大原野上里南ノ町","town_kana":"オオハラノカミザトミナミノチョウ","prefecture_code":26},"1124":{"zip_code":"6101124","prefecture":"京都府","prefecture_kana":"キョウトフ","city":"京都市西京区","city_kana":"キョウトシニシキョウク","town":"大原野上里紅葉町","town_kana":"オオハラノカミザトモミジチョウ","prefecture_code":26},"1152":{"zip_code":"6101152","prefecture":"京都府","prefecture_kana":"キョウトフ","city":"京都市西京区","city_kana":"キョウトシニシキョウク","town":"大原野北春日町","town_kana":"オオハラノキタカスガチョウ","prefecture_code":26},"1136":{"zip_code":"6101136","prefecture":"京都府","prefecture_kana":"キョウトフ","city":"京都市西京区","city_kana":"キョウトシニシキョウク","town":"大原野外畑町","town_kana":"オオハラノトノハタチョウ","prefecture_code":26},"1146":{"zip_code":"6101146","prefecture":"京都府","prefecture_kana":"キョウトフ","city":"京都市西京区","city_kana":"キョウトシニシキョウク","town":"大原野西境谷町","town_kana":"オオハラノニシサカイダニチョウ","prefecture_code":26},"1145":{"zip_code":"6101145","prefecture":"京都府","prefecture_kana":"キョウトフ","city":"京都市西京区","city_kana":"キョウトシニシキョウク","town":"大原野西竹の里町","town_kana":"オオハラノニシタケノサトチョウ","prefecture_code":26},"1132":{"zip_code":"6101132","prefecture":"京都府","prefecture_kana":"キョウトフ","city":"京都市西京区","city_kana":"キョウトシニシキョウク","town":"大原野灰方町","town_kana":"オオハラノハイガタチョウ","prefecture_code":26},"1143":{"zip_code":"6101143","prefecture":"京都府","prefecture_kana":"キョウトフ","city":"京都市西京区","city_kana":"キョウトシニシキョウク","town":"大原野東境谷町","town_kana":"オオハラノヒガシサカイダニチョウ","prefecture_code":26},"1144":{"zip_code":"6101144","prefecture":"京都府","prefecture_kana":"キョウトフ","city":"京都市西京区","city_kana":"キョウトシニシキョウク","town":"大原野東竹の里町","town_kana":"オオハラノヒガシタケノサトチョウ","prefecture_code":26},"1122":{"zip_code":"6101122","prefecture":"京都府","prefecture_kana":"キョウトフ","city":"京都市西京区","city_kana":"キョウトシニシキョウク","town":"大原野東野町","town_kana":"オオハラノヒガシノチョウ","prefecture_code":26},"1153":{"zip_code":"6101153","prefecture":"京都府","prefecture_kana":"キョウトフ","city":"京都市西京区","city_kana":"キョウトシニシキョウク","town":"大原野南春日町","town_kana":"オオハラノミナミカスガチョウ","prefecture_code":26},"1102":{"zip_code":"6101102","prefecture":"京都府","prefecture_kana":"キョウトフ","city":"京都市西京区","city_kana":"キョウトシニシキョウク","town":"御陵大枝山町","town_kana":"ゴリョウオオエヤマチョウ","prefecture_code":26},"1103":{"zip_code":"6101103","prefecture":"京都府","prefecture_kana":"キョウトフ","city":"京都市西京区","city_kana":"キョウトシニシキョウク","town":"御陵峰ケ堂町","town_kana":"ゴリョウミネガドウチョウ","prefecture_code":26},"0100":{"zip_code":"6100100","prefecture":"京都府","prefecture_kana":"キョウトフ","city":"城陽市","city_kana":"ジョウヨウシ","town":"","town_kana":"","prefecture_code":26},"0114":{"zip_code":"6100114","prefecture":"京都府","prefecture_kana":"キョウトフ","city":"城陽市","city_kana":"ジョウヨウシ","town":"市辺","town_kana":"イチノベ","prefecture_code":26},"0115":{"zip_code":"6100115","prefecture":"京都府","prefecture_kana":"キョウトフ","city":"城陽市","city_kana":"ジョウヨウシ","town":"観音堂","town_kana":"カンノンドウ","prefecture_code":26},"0102":{"zip_code":"6100102","prefecture":"京都府","prefecture_kana":"キョウトフ","city":"城陽市","city_kana":"ジョウヨウシ","town":"久世","town_kana":"クセ","prefecture_code":26},"0103":{"zip_code":"6100103","prefecture":"京都府","prefecture_kana":"キョウトフ","city":"城陽市","city_kana":"ジョウヨウシ","town":"上津屋","town_kana":"コウヅヤ","prefecture_code":26},"0121":{"zip_code":"6100121","prefecture":"京都府","prefecture_kana":"キョウトフ","city":"城陽市","city_kana":"ジョウヨウシ","town":"寺田","town_kana":"テラダ","prefecture_code":26},"0111":{"zip_code":"6100111","prefecture":"京都府","prefecture_kana":"キョウトフ","city":"城陽市","city_kana":"ジョウヨウシ","town":"富野","town_kana":"トノ","prefecture_code":26},"0113":{"zip_code":"6100113","prefecture":"京都府","prefecture_kana":"キョウトフ","city":"城陽市","city_kana":"ジョウヨウシ","town":"中","town_kana":"ナカ","prefecture_code":26},"0112":{"zip_code":"6100112","prefecture":"京都府","prefecture_kana":"キョウトフ","city":"城陽市","city_kana":"ジョウヨウシ","town":"長池","town_kana":"ナガイケ","prefecture_code":26},"0116":{"zip_code":"6100116","prefecture":"京都府","prefecture_kana":"キョウトフ","city":"城陽市","city_kana":"ジョウヨウシ","town":"奈島","town_kana":"ナシマ","prefecture_code":26},"0101":{"zip_code":"6100101","prefecture":"京都府","prefecture_kana":"キョウトフ","city":"城陽市","city_kana":"ジョウヨウシ","town":"平川","town_kana":"ヒラカワ","prefecture_code":26},"0117":{"zip_code":"6100117","prefecture":"京都府","prefecture_kana":"キョウトフ","city":"城陽市","city_kana":"ジョウヨウシ","town":"枇杷庄","town_kana":"ビワノショウ","prefecture_code":26},"0118":{"zip_code":"6100118","prefecture":"京都府","prefecture_kana":"キョウトフ","city":"城陽市","city_kana":"ジョウヨウシ","town":"水主","town_kana":"ミズシ","prefecture_code":26},"0300":[{"zip_code":"6100300","prefecture":"京都府","prefecture_kana":"キョウトフ","city":"京田辺市","city_kana":"キョウタナベシ","town":"","town_kana":"","prefecture_code":26},{"zip_code":"6100300","prefecture":"京都府","prefecture_kana":"キョウトフ","city":"綴喜郡井手町","city_kana":"ツヅキグンイデチョウ","town":"","town_kana":"","prefecture_code":26}],"0312":{"zip_code":"6100312","prefecture":"京都府","prefecture_kana":"キョウトフ","city":"京田辺市","city_kana":"キョウタナベシ","town":"飯岡","town_kana":"イノオカ","prefecture_code":26},"0324":{"zip_code":"6100324","prefecture":"京都府","prefecture_kana":"キョウトフ","city":"京田辺市","city_kana":"キョウタナベシ","town":"打田","town_kana":"ウツタ","prefecture_code":26},"0343":{"zip_code":"6100343","prefecture":"京都府","prefecture_kana":"キョウトフ","city":"京田辺市","city_kana":"キョウタナベシ","town":"大住","town_kana":"オオスミ","prefecture_code":26},"0351":{"zip_code":"6100351","prefecture":"京都府","prefecture_kana":"キョウトフ","city":"京田辺市","city_kana":"キョウタナベシ","town":"大住ケ丘","town_kana":"オオスミガオカ","prefecture_code":26},"0352":{"zip_code":"6100352","prefecture":"京都府","prefecture_kana":"キョウトフ","city":"京田辺市","city_kana":"キョウタナベシ","town":"花住坂","town_kana":"カスミザカ","prefecture_code":26},"0361":{"zip_code":"6100361","prefecture":"京都府","prefecture_kana":"キョウトフ","city":"京田辺市","city_kana":"キョウタナベシ","town":"河原","town_kana":"カワラ","prefecture_code":26},"0333":{"zip_code":"6100333","prefecture":"京都府","prefecture_kana":"キョウトフ","city":"京田辺市","city_kana":"キョウタナベシ","town":"甘南備台","town_kana":"カンナビダイ","prefecture_code":26},"0311":{"zip_code":"6100311","prefecture":"京都府","prefecture_kana":"キョウトフ","city":"京田辺市","city_kana":"キョウタナベシ","town":"草内","town_kana":"クサウチ","prefecture_code":26},"0332":{"zip_code":"6100332","prefecture":"京都府","prefecture_kana":"キョウトフ","city":"京田辺市","city_kana":"キョウタナベシ","town":"興戸","town_kana":"コウド","prefecture_code":26},"0325":{"zip_code":"6100325","prefecture":"京都府","prefecture_kana":"キョウトフ","city":"京田辺市","city_kana":"キョウタナベシ","town":"高船","town_kana":"タカフネ","prefecture_code":26},"0341":{"zip_code":"6100341","prefecture":"京都府","prefecture_kana":"キョウトフ","city":"京田辺市","city_kana":"キョウタナベシ","town":"薪","town_kana":"タキギ","prefecture_code":26},"0321":{"zip_code":"6100321","prefecture":"京都府","prefecture_kana":"キョウトフ","city":"京田辺市","city_kana":"キョウタナベシ","town":"多々羅","town_kana":"タタラ","prefecture_code":26},"0331":{"zip_code":"6100331","prefecture":"京都府","prefecture_kana":"キョウトフ","city":"京田辺市","city_kana":"キョウタナベシ","town":"田辺","town_kana":"タナベ","prefecture_code":26},"0334":{"zip_code":"6100334","prefecture":"京都府","prefecture_kana":"キョウトフ","city":"京田辺市","city_kana":"キョウタナベシ","town":"田辺中央","town_kana":"タナベチュウオウ","prefecture_code":26},"0326":{"zip_code":"6100326","prefecture":"京都府","prefecture_kana":"キョウトフ","city":"京田辺市","city_kana":"キョウタナベシ","town":"天王","town_kana":"テンノウ","prefecture_code":26},"0315":{"zip_code":"6100315","prefecture":"京都府","prefecture_kana":"キョウトフ","city":"京田辺市","city_kana":"キョウタナベシ","town":"同志社山手","town_kana":"ドウシシャヤマテ","prefecture_code":26},"0362":{"zip_code":"6100362","prefecture":"京都府","prefecture_kana":"キョウトフ","city":"京田辺市","city_kana":"キョウタナベシ","town":"東","town_kana":"ヒガシ","prefecture_code":26},"0322":{"zip_code":"6100322","prefecture":"京都府","prefecture_kana":"キョウトフ","city":"京田辺市","city_kana":"キョウタナベシ","town":"普賢寺","town_kana":"フゲンジ","prefecture_code":26},"0342":{"zip_code":"6100342","prefecture":"京都府","prefecture_kana":"キョウトフ","city":"京田辺市","city_kana":"キョウタナベシ","town":"松井","town_kana":"マツイ","prefecture_code":26},"0353":{"zip_code":"6100353","prefecture":"京都府","prefecture_kana":"キョウトフ","city":"京田辺市","city_kana":"キョウタナベシ","town":"松井ケ丘","town_kana":"マツイガオカ","prefecture_code":26},"0323":{"zip_code":"6100323","prefecture":"京都府","prefecture_kana":"キョウトフ","city":"京田辺市","city_kana":"キョウタナベシ","town":"水取","town_kana":"ミズトリ","prefecture_code":26},"0314":{"zip_code":"6100314","prefecture":"京都府","prefecture_kana":"キョウトフ","city":"京田辺市","city_kana":"キョウタナベシ","town":"宮津","town_kana":"ミヤヅ","prefecture_code":26},"0313":{"zip_code":"6100313","prefecture":"京都府","prefecture_kana":"キョウトフ","city":"京田辺市","city_kana":"キョウタナベシ","town":"三山木","town_kana":"ミヤマキ","prefecture_code":26},"0356":{"zip_code":"6100356","prefecture":"京都府","prefecture_kana":"キョウトフ","city":"京田辺市","city_kana":"キョウタナベシ","town":"山手中央","town_kana":"ヤマテチュウオウ","prefecture_code":26},"0357":{"zip_code":"6100357","prefecture":"京都府","prefecture_kana":"キョウトフ","city":"京田辺市","city_kana":"キョウタナベシ","town":"山手東","town_kana":"ヤマテヒガシ","prefecture_code":26},"0355":{"zip_code":"6100355","prefecture":"京都府","prefecture_kana":"キョウトフ","city":"京田辺市","city_kana":"キョウタナベシ","town":"山手西","town_kana":"ヤマテニシ","prefecture_code":26},"0354":{"zip_code":"6100354","prefecture":"京都府","prefecture_kana":"キョウトフ","city":"京田辺市","city_kana":"キョウタナベシ","town":"山手南","town_kana":"ヤマテミナミ","prefecture_code":26},"0302":{"zip_code":"6100302","prefecture":"京都府","prefecture_kana":"キョウトフ","city":"綴喜郡井手町","city_kana":"ツヅキグンイデチョウ","town":"井手","town_kana":"イデ","prefecture_code":26},"0301":{"zip_code":"6100301","prefecture":"京都府","prefecture_kana":"キョウトフ","city":"綴喜郡井手町","city_kana":"ツヅキグンイデチョウ","town":"多賀","town_kana":"タガ","prefecture_code":26},"0303":{"zip_code":"6100303","prefecture":"京都府","prefecture_kana":"キョウトフ","city":"綴喜郡井手町","city_kana":"ツヅキグンイデチョウ","town":"田村新田","town_kana":"タムラシンデン","prefecture_code":26},"0200":{"zip_code":"6100200","prefecture":"京都府","prefecture_kana":"キョウトフ","city":"綴喜郡宇治田原町","city_kana":"ツヅキグンウジタワラチョウ","town":"","town_kana":"","prefecture_code":26},"0252":{"zip_code":"6100252","prefecture":"京都府","prefecture_kana":"キョウトフ","city":"綴喜郡宇治田原町","city_kana":"ツヅキグンウジタワラチョウ","town":"荒木","town_kana":"アラキ","prefecture_code":26},"0261":{"zip_code":"6100261","prefecture":"京都府","prefecture_kana":"キョウトフ","city":"綴喜郡宇治田原町","city_kana":"ツヅキグンウジタワラチョウ","town":"岩山","town_kana":"イワヤマ","prefecture_code":26},"0211":{"zip_code":"6100211","prefecture":"京都府","prefecture_kana":"キョウトフ","city":"綴喜郡宇治田原町","city_kana":"ツヅキグンウジタワラチョウ","town":"奥山田","town_kana":"オクヤマダ","prefecture_code":26},"0251":{"zip_code":"6100251","prefecture":"京都府","prefecture_kana":"キョウトフ","city":"綴喜郡宇治田原町","city_kana":"ツヅキグンウジタワラチョウ","town":"高尾","town_kana":"コウノ","prefecture_code":26},"0255":{"zip_code":"6100255","prefecture":"京都府","prefecture_kana":"キョウトフ","city":"綴喜郡宇治田原町","city_kana":"ツヅキグンウジタワラチョウ","town":"郷之口","town_kana":"ゴウノクチ","prefecture_code":26},"0201":{"zip_code":"6100201","prefecture":"京都府","prefecture_kana":"キョウトフ","city":"綴喜郡宇治田原町","city_kana":"ツヅキグンウジタワラチョウ","town":"禅定寺","town_kana":"ゼンジョウジ","prefecture_code":26},"0231":{"zip_code":"6100231","prefecture":"京都府","prefecture_kana":"キョウトフ","city":"綴喜郡宇治田原町","city_kana":"ツヅキグンウジタワラチョウ","town":"立川","town_kana":"タチカワ","prefecture_code":26},"0253":{"zip_code":"6100253","prefecture":"京都府","prefecture_kana":"キョウトフ","city":"綴喜郡宇治田原町","city_kana":"ツヅキグンウジタワラチョウ","town":"贄田","town_kana":"ネダ","prefecture_code":26},"0241":{"zip_code":"6100241","prefecture":"京都府","prefecture_kana":"キョウトフ","city":"綴喜郡宇治田原町","city_kana":"ツヅキグンウジタワラチョウ","town":"南","town_kana":"ミナミ","prefecture_code":26},"0254":{"zip_code":"6100254","prefecture":"京都府","prefecture_kana":"キョウトフ","city":"綴喜郡宇治田原町","city_kana":"ツヅキグンウジタワラチョウ","town":"銘城台","town_kana":"メイジョウダイ","prefecture_code":26},"0221":{"zip_code":"6100221","prefecture":"京都府","prefecture_kana":"キョウトフ","city":"綴喜郡宇治田原町","city_kana":"ツヅキグンウジタワラチョウ","town":"湯屋谷","town_kana":"ユヤダニ","prefecture_code":26},"0202":{"zip_code":"6100202","prefecture":"京都府","prefecture_kana":"キョウトフ","city":"綴喜郡宇治田原町","city_kana":"ツヅキグンウジタワラチョウ","town":"緑苑坂","town_kana":"リョクエンザカ","prefecture_code":26}}