{"0000":{"zip_code":"6140000","prefecture":"京都府","prefecture_kana":"キョウトフ","city":"八幡市","city_kana":"ヤワタシ","town":"","town_kana":"","prefecture_code":26},"8256":{"zip_code":"6148256","prefecture":"京都府","prefecture_kana":"キョウトフ","city":"八幡市","city_kana":"ヤワタシ","town":"岩田岩ノ前","town_kana":"イワタイワノマエ","prefecture_code":26},"8258":{"zip_code":"6148258","prefecture":"京都府","prefecture_kana":"キョウトフ","city":"八幡市","city_kana":"ヤワタシ","town":"岩田加賀ノ辻","town_kana":"イワタカガノツジ","prefecture_code":26},"8267":{"zip_code":"6148267","prefecture":"京都府","prefecture_kana":"キョウトフ","city":"八幡市","city_kana":"ヤワタシ","town":"岩田北浅地","town_kana":"イワタキタアサジ","prefecture_code":26},"8254":{"zip_code":"6148254","prefecture":"京都府","prefecture_kana":"キョウトフ","city":"八幡市","city_kana":"ヤワタシ","town":"岩田北ノ口","town_kana":"イワタキタノクチ","prefecture_code":26},"8252":{"zip_code":"6148252","prefecture":"京都府","prefecture_kana":"キョウトフ","city":"八幡市","city_kana":"ヤワタシ","town":"岩田大将軍","town_kana":"イワタダイショウグン","prefecture_code":26},"8268":{"zip_code":"6148268","prefecture":"京都府","prefecture_kana":"キョウトフ","city":"八幡市","city_kana":"ヤワタシ","town":"岩田高木","town_kana":"イワタタカギ","prefecture_code":26},"8255":{"zip_code":"6148255","prefecture":"京都府","prefecture_kana":"キョウトフ","city":"八幡市","city_kana":"ヤワタシ","town":"岩田竹綱","town_kana":"イワタタケヅナ","prefecture_code":26},"8251":{"zip_code":"6148251","prefecture":"京都府","prefecture_kana":"キョウトフ","city":"八幡市","city_kana":"ヤワタシ","town":"岩田茶屋ノ前","town_kana":"イワタチャヤノマエ","prefecture_code":26},"8261":{"zip_code":"6148261","prefecture":"京都府","prefecture_kana":"キョウトフ","city":"八幡市","city_kana":"ヤワタシ","town":"岩田辻垣内","town_kana":"イワタツジガイト","prefecture_code":26},"8253":{"zip_code":"6148253","prefecture":"京都府","prefecture_kana":"キョウトフ","city":"八幡市","city_kana":"ヤワタシ","town":"岩田西玉造","town_kana":"イワタニシタマツクリ","prefecture_code":26},"8257":{"zip_code":"6148257","prefecture":"京都府","prefecture_kana":"キョウトフ","city":"八幡市","city_kana":"ヤワタシ","town":"岩田橋溝","town_kana":"イワタハシミゾ","prefecture_code":26},"8266":{"zip_code":"6148266","prefecture":"京都府","prefecture_kana":"キョウトフ","city":"八幡市","city_kana":"ヤワタシ","town":"岩田八丁","town_kana":"イワタハッチョウ","prefecture_code":26},"8262":{"zip_code":"6148262","prefecture":"京都府","prefecture_kana":"キョウトフ","city":"八幡市","city_kana":"ヤワタシ","town":"岩田松原","town_kana":"イワタマツバラ","prefecture_code":26},"8265":{"zip_code":"6148265","prefecture":"京都府","prefecture_kana":"キョウトフ","city":"八幡市","city_kana":"ヤワタシ","town":"岩田南浅地","town_kana":"イワタミナミアサジ","prefecture_code":26},"8264":{"zip_code":"6148264","prefecture":"京都府","prefecture_kana":"キョウトフ","city":"八幡市","city_kana":"ヤワタシ","town":"岩田南野","town_kana":"イワタミナミノ","prefecture_code":26},"8263":{"zip_code":"6148263","prefecture":"京都府","prefecture_kana":"キョウトフ","city":"八幡市","city_kana":"ヤワタシ","town":"岩田六ノ坪","town_kana":"イワタロクノツボ","prefecture_code":26},"8235":{"zip_code":"6148235","prefecture":"京都府","prefecture_kana":"キョウトフ","city":"八幡市","city_kana":"ヤワタシ","town":"内里穴ケ谷","town_kana":"ウチザトアナガダニ","prefecture_code":26},"8232":{"zip_code":"6148232","prefecture":"京都府","prefecture_kana":"キョウトフ","city":"八幡市","city_kana":"ヤワタシ","town":"内里荒場","town_kana":"ウチザトアレバ","prefecture_code":26},"8231":{"zip_code":"6148231","prefecture":"京都府","prefecture_kana":"キョウトフ","city":"八幡市","city_kana":"ヤワタシ","town":"内里安居芝","town_kana":"ウチザトアンゴシバ","prefecture_code":26},"8227":{"zip_code":"6148227","prefecture":"京都府","prefecture_kana":"キョウトフ","city":"八幡市","city_kana":"ヤワタシ","town":"内里内","town_kana":"ウチザトウチ","prefecture_code":26},"8239":{"zip_code":"6148239","prefecture":"京都府","prefecture_kana":"キョウトフ","city":"八幡市","city_kana":"ヤワタシ","town":"内里大谷","town_kana":"ウチザトオオタニ","prefecture_code":26},"8234":{"zip_code":"6148234","prefecture":"京都府","prefecture_kana":"キョウトフ","city":"八幡市","city_kana":"ヤワタシ","town":"内里女谷","town_kana":"ウチザトオンナダニ","prefecture_code":26},"8236":{"zip_code":"6148236","prefecture":"京都府","prefecture_kana":"キョウトフ","city":"八幡市","city_kana":"ヤワタシ","town":"内里柿谷","town_kana":"ウチザトカキダニ","prefecture_code":26},"8233":{"zip_code":"6148233","prefecture":"京都府","prefecture_kana":"キョウトフ","city":"八幡市","city_kana":"ヤワタシ","town":"内里河原","town_kana":"ウチザトカワラ","prefecture_code":26},"8229":{"zip_code":"6148229","prefecture":"京都府","prefecture_kana":"キョウトフ","city":"八幡市","city_kana":"ヤワタシ","town":"内里北ノ口","town_kana":"ウチザトキタノクチ","prefecture_code":26},"8223":{"zip_code":"6148223","prefecture":"京都府","prefecture_kana":"キョウトフ","city":"八幡市","city_kana":"ヤワタシ","town":"内里北ノ山","town_kana":"ウチザトキタノヤマ","prefecture_code":26},"8222":{"zip_code":"6148222","prefecture":"京都府","prefecture_kana":"キョウトフ","city":"八幡市","city_kana":"ヤワタシ","town":"内里極楽橋","town_kana":"ウチザトゴクラクバシ","prefecture_code":26},"8228":{"zip_code":"6148228","prefecture":"京都府","prefecture_kana":"キョウトフ","city":"八幡市","city_kana":"ヤワタシ","town":"内里菅井","town_kana":"ウチザトスガイ","prefecture_code":26},"8225":{"zip_code":"6148225","prefecture":"京都府","prefecture_kana":"キョウトフ","city":"八幡市","city_kana":"ヤワタシ","town":"内里砂田","town_kana":"ウチザトスナダ","prefecture_code":26},"8238":{"zip_code":"6148238","prefecture":"京都府","prefecture_kana":"キョウトフ","city":"八幡市","city_kana":"ヤワタシ","town":"内里砂畠","town_kana":"ウチザトスナハタ","prefecture_code":26},"8242":{"zip_code":"6148242","prefecture":"京都府","prefecture_kana":"キョウトフ","city":"八幡市","city_kana":"ヤワタシ","town":"内里巽ノ口","town_kana":"ウチザトタツミノクチ","prefecture_code":26},"8221":{"zip_code":"6148221","prefecture":"京都府","prefecture_kana":"キョウトフ","city":"八幡市","city_kana":"ヤワタシ","town":"内里蜻蛉尻","town_kana":"ウチザトトンボジリ","prefecture_code":26},"8248":{"zip_code":"6148248","prefecture":"京都府","prefecture_kana":"キョウトフ","city":"八幡市","city_kana":"ヤワタシ","town":"内里中島","town_kana":"ウチザトナカジマ","prefecture_code":26},"8237":{"zip_code":"6148237","prefecture":"京都府","prefecture_kana":"キョウトフ","city":"八幡市","city_kana":"ヤワタシ","town":"内里西山川","town_kana":"ウチザトニシヤマカワ","prefecture_code":26},"8226":{"zip_code":"6148226","prefecture":"京都府","prefecture_kana":"キョウトフ","city":"八幡市","city_kana":"ヤワタシ","town":"内里東ノ口","town_kana":"ウチザトヒガシノクチ","prefecture_code":26},"8244":{"zip_code":"6148244","prefecture":"京都府","prefecture_kana":"キョウトフ","city":"八幡市","city_kana":"ヤワタシ","town":"内里東山川","town_kana":"ウチザトヒガシヤマカワ","prefecture_code":26},"8247":{"zip_code":"6148247","prefecture":"京都府","prefecture_kana":"キョウトフ","city":"八幡市","city_kana":"ヤワタシ","town":"内里日向堂","town_kana":"ウチザトヒュウガドウ","prefecture_code":26},"8230":{"zip_code":"6148230","prefecture":"京都府","prefecture_kana":"キョウトフ","city":"八幡市","city_kana":"ヤワタシ","town":"内里平尾","town_kana":"ウチザトヒラオ","prefecture_code":26},"8245":{"zip_code":"6148245","prefecture":"京都府","prefecture_kana":"キョウトフ","city":"八幡市","city_kana":"ヤワタシ","town":"内里古溜池","town_kana":"ウチザトフルタメイケ","prefecture_code":26},"8224":{"zip_code":"6148224","prefecture":"京都府","prefecture_kana":"キョウトフ","city":"八幡市","city_kana":"ヤワタシ","town":"内里別所","town_kana":"ウチザトベッシヨ","prefecture_code":26},"8243":{"zip_code":"6148243","prefecture":"京都府","prefecture_kana":"キョウトフ","city":"八幡市","city_kana":"ヤワタシ","town":"内里松ケ外","town_kana":"ウチザトマツガソト","prefecture_code":26},"8246":{"zip_code":"6148246","prefecture":"京都府","prefecture_kana":"キョウトフ","city":"八幡市","city_kana":"ヤワタシ","town":"内里南ノ口","town_kana":"ウチザトミナミノクチ","prefecture_code":26},"8241":{"zip_code":"6148241","prefecture":"京都府","prefecture_kana":"キョウトフ","city":"八幡市","city_kana":"ヤワタシ","town":"内里宮ノ前","town_kana":"ウチザトミヤノマエ","prefecture_code":26},"8374":{"zip_code":"6148374","prefecture":"京都府","prefecture_kana":"キョウトフ","city":"八幡市","city_kana":"ヤワタシ","town":"男山石城","town_kana":"オトコヤマイシシロ","prefecture_code":26},"8366":{"zip_code":"6148366","prefecture":"京都府","prefecture_kana":"キョウトフ","city":"八幡市","city_kana":"ヤワタシ","town":"男山泉","town_kana":"オトコヤマイズミ","prefecture_code":26},"8365":{"zip_code":"6148365","prefecture":"京都府","prefecture_kana":"キョウトフ","city":"八幡市","city_kana":"ヤワタシ","town":"男山金振","town_kana":"オトコヤマカナブリ","prefecture_code":26},"8377":{"zip_code":"6148377","prefecture":"京都府","prefecture_kana":"キョウトフ","city":"八幡市","city_kana":"ヤワタシ","town":"男山香呂","town_kana":"オトコヤマコウロ","prefecture_code":26},"8372":{"zip_code":"6148372","prefecture":"京都府","prefecture_kana":"キョウトフ","city":"八幡市","city_kana":"ヤワタシ","town":"男山笹谷","town_kana":"オトコヤマササタニ","prefecture_code":26},"8361":{"zip_code":"6148361","prefecture":"京都府","prefecture_kana":"キョウトフ","city":"八幡市","city_kana":"ヤワタシ","town":"男山指月","town_kana":"オトコヤマシゲツ","prefecture_code":26},"8376":{"zip_code":"6148376","prefecture":"京都府","prefecture_kana":"キョウトフ","city":"八幡市","city_kana":"ヤワタシ","town":"男山竹園","town_kana":"オトコヤマタケゾノ","prefecture_code":26},"8367":{"zip_code":"6148367","prefecture":"京都府","prefecture_kana":"キョウトフ","city":"八幡市","city_kana":"ヤワタシ","town":"男山長沢","town_kana":"オトコヤマナガサワ","prefecture_code":26},"8373":{"zip_code":"6148373","prefecture":"京都府","prefecture_kana":"キョウトフ","city":"八幡市","city_kana":"ヤワタシ","town":"男山八望","town_kana":"オトコヤマハチボウ","prefecture_code":26},"8364":{"zip_code":"6148364","prefecture":"京都府","prefecture_kana":"キョウトフ","city":"八幡市","city_kana":"ヤワタシ","town":"男山松里","town_kana":"オトコヤママツサト","prefecture_code":26},"8362":{"zip_code":"6148362","prefecture":"京都府","prefecture_kana":"キョウトフ","city":"八幡市","city_kana":"ヤワタシ","town":"男山美桜","town_kana":"オトコヤマミザクラ","prefecture_code":26},"8371":{"zip_code":"6148371","prefecture":"京都府","prefecture_kana":"キョウトフ","city":"八幡市","city_kana":"ヤワタシ","town":"男山雄徳","town_kana":"オトコヤマユウトク","prefecture_code":26},"8375":{"zip_code":"6148375","prefecture":"京都府","prefecture_kana":"キョウトフ","city":"八幡市","city_kana":"ヤワタシ","town":"男山弓岡","town_kana":"オトコヤマユミオカ","prefecture_code":26},"8363":{"zip_code":"6148363","prefecture":"京都府","prefecture_kana":"キョウトフ","city":"八幡市","city_kana":"ヤワタシ","town":"男山吉井","town_kana":"オトコヤマヨシイ","prefecture_code":26},"8165":{"zip_code":"6148165","prefecture":"京都府","prefecture_kana":"キョウトフ","city":"八幡市","city_kana":"ヤワタシ","town":"上奈良池ノ向","town_kana":"カミナライケノムコウ","prefecture_code":26},"8151":{"zip_code":"6148151","prefecture":"京都府","prefecture_kana":"キョウトフ","city":"八幡市","city_kana":"ヤワタシ","town":"上奈良小端","town_kana":"カミナラオバタ","prefecture_code":26},"8158":{"zip_code":"6148158","prefecture":"京都府","prefecture_kana":"キョウトフ","city":"八幡市","city_kana":"ヤワタシ","town":"上奈良北ノ口","town_kana":"カミナラキタノクチ","prefecture_code":26},"8153":{"zip_code":"6148153","prefecture":"京都府","prefecture_kana":"キョウトフ","city":"八幡市","city_kana":"ヤワタシ","town":"上奈良サグリ前","town_kana":"カミナラサグリマエ","prefecture_code":26},"8155":{"zip_code":"6148155","prefecture":"京都府","prefecture_kana":"キョウトフ","city":"八幡市","city_kana":"ヤワタシ","town":"上奈良城垣内","town_kana":"カミナラシロガイト","prefecture_code":26},"8159":{"zip_code":"6148159","prefecture":"京都府","prefecture_kana":"キョウトフ","city":"八幡市","city_kana":"ヤワタシ","town":"上奈良大門","town_kana":"カミナラダイモン","prefecture_code":26},"8166":{"zip_code":"6148166","prefecture":"京都府","prefecture_kana":"キョウトフ","city":"八幡市","city_kana":"ヤワタシ","town":"上奈良堂島","town_kana":"カミナラドウジマ","prefecture_code":26},"8163":{"zip_code":"6148163","prefecture":"京都府","prefecture_kana":"キョウトフ","city":"八幡市","city_kana":"ヤワタシ","town":"上奈良長池","town_kana":"カミナラナガイケ","prefecture_code":26},"8156":{"zip_code":"6148156","prefecture":"京都府","prefecture_kana":"キョウトフ","city":"八幡市","city_kana":"ヤワタシ","town":"上奈良奈良里","town_kana":"カミナラナラザト","prefecture_code":26},"8157":{"zip_code":"6148157","prefecture":"京都府","prefecture_kana":"キョウトフ","city":"八幡市","city_kana":"ヤワタシ","town":"上奈良東ノ口","town_kana":"カミナラヒガシノクチ","prefecture_code":26},"8162":{"zip_code":"6148162","prefecture":"京都府","prefecture_kana":"キョウトフ","city":"八幡市","city_kana":"ヤワタシ","town":"上奈良日ノ尾","town_kana":"カミナラヒノオ","prefecture_code":26},"8152":{"zip_code":"6148152","prefecture":"京都府","prefecture_kana":"キョウトフ","city":"八幡市","city_kana":"ヤワタシ","town":"上奈良御園","town_kana":"カミナラミソノ","prefecture_code":26},"8164":{"zip_code":"6148164","prefecture":"京都府","prefecture_kana":"キョウトフ","city":"八幡市","city_kana":"ヤワタシ","town":"上奈良南ノ口","town_kana":"カミナラミナミノクチ","prefecture_code":26},"8161":{"zip_code":"6148161","prefecture":"京都府","prefecture_kana":"キョウトフ","city":"八幡市","city_kana":"ヤワタシ","town":"上奈良宮ノ東","town_kana":"カミナラミヤノヒガシ","prefecture_code":26},"8154":{"zip_code":"6148154","prefecture":"京都府","prefecture_kana":"キョウトフ","city":"八幡市","city_kana":"ヤワタシ","town":"上奈良宮ノ西","town_kana":"カミナラミヤノニシ","prefecture_code":26},"8112":{"zip_code":"6148112","prefecture":"京都府","prefecture_kana":"キョウトフ","city":"八幡市","city_kana":"ヤワタシ","town":"川口馬屋尻","town_kana":"カワグチウマヤジリ","prefecture_code":26},"8115":{"zip_code":"6148115","prefecture":"京都府","prefecture_kana":"キョウトフ","city":"八幡市","city_kana":"ヤワタシ","town":"川口扇ノ芝","town_kana":"カワグチオウギノシバ","prefecture_code":26},"8102":{"zip_code":"6148102","prefecture":"京都府","prefecture_kana":"キョウトフ","city":"八幡市","city_kana":"ヤワタシ","town":"川口北浦","town_kana":"カワグチキタウラ","prefecture_code":26},"8105":{"zip_code":"6148105","prefecture":"京都府","prefecture_kana":"キョウトフ","city":"八幡市","city_kana":"ヤワタシ","town":"川口擬宝珠","town_kana":"カワグチギボシュ","prefecture_code":26},"8111":{"zip_code":"6148111","prefecture":"京都府","prefecture_kana":"キョウトフ","city":"八幡市","city_kana":"ヤワタシ","town":"川口小西","town_kana":"カワグチコニシ","prefecture_code":26},"8106":{"zip_code":"6148106","prefecture":"京都府","prefecture_kana":"キョウトフ","city":"八幡市","city_kana":"ヤワタシ","town":"川口天神崎","town_kana":"カワグチテンジンザキ","prefecture_code":26},"8117":{"zip_code":"6148117","prefecture":"京都府","prefecture_kana":"キョウトフ","city":"八幡市","city_kana":"ヤワタシ","town":"川口西扇","town_kana":"カワグチニシオウギ","prefecture_code":26},"8113":{"zip_code":"6148113","prefecture":"京都府","prefecture_kana":"キョウトフ","city":"八幡市","city_kana":"ヤワタシ","town":"川口萩原","town_kana":"カワグチハギハラ","prefecture_code":26},"8101":{"zip_code":"6148101","prefecture":"京都府","prefecture_kana":"キョウトフ","city":"八幡市","city_kana":"ヤワタシ","town":"川口浜","town_kana":"カワグチハマ","prefecture_code":26},"8116":{"zip_code":"6148116","prefecture":"京都府","prefecture_kana":"キョウトフ","city":"八幡市","city_kana":"ヤワタシ","town":"川口東扇","town_kana":"カワグチヒガシオウギ","prefecture_code":26},"8104":{"zip_code":"6148104","prefecture":"京都府","prefecture_kana":"キョウトフ","city":"八幡市","city_kana":"ヤワタシ","town":"川口東頭","town_kana":"カワグチヒガシガシラ","prefecture_code":26},"8114":{"zip_code":"6148114","prefecture":"京都府","prefecture_kana":"キョウトフ","city":"八幡市","city_kana":"ヤワタシ","town":"川口別所","town_kana":"カワグチベッシヨ","prefecture_code":26},"8103":{"zip_code":"6148103","prefecture":"京都府","prefecture_kana":"キョウトフ","city":"八幡市","city_kana":"ヤワタシ","town":"川口堀ノ内","town_kana":"カワグチホリノウチ","prefecture_code":26},"8294":{"zip_code":"6148294","prefecture":"京都府","prefecture_kana":"キョウトフ","city":"八幡市","city_kana":"ヤワタシ","town":"欽明台北","town_kana":"キンメイダイキタ","prefecture_code":26},"8295":{"zip_code":"6148295","prefecture":"京都府","prefecture_kana":"キョウトフ","city":"八幡市","city_kana":"ヤワタシ","town":"欽明台中央","town_kana":"キンメイダイチュウオウ","prefecture_code":26},"8297":{"zip_code":"6148297","prefecture":"京都府","prefecture_kana":"キョウトフ","city":"八幡市","city_kana":"ヤワタシ","town":"欽明台西","town_kana":"キンメイダイニシ","prefecture_code":26},"8296":{"zip_code":"6148296","prefecture":"京都府","prefecture_kana":"キョウトフ","city":"八幡市","city_kana":"ヤワタシ","town":"欽明台東","town_kana":"キンメイダイヒガシ","prefecture_code":26},"8171":{"zip_code":"6148171","prefecture":"京都府","prefecture_kana":"キョウトフ","city":"八幡市","city_kana":"ヤワタシ","town":"上津屋尼ケ池","town_kana":"コウヅヤアマガイケ","prefecture_code":26},"8175":{"zip_code":"6148175","prefecture":"京都府","prefecture_kana":"キョウトフ","city":"八幡市","city_kana":"ヤワタシ","town":"上津屋石ノ塔","town_kana":"コウヅヤイシノトウ","prefecture_code":26},"8173":{"zip_code":"6148173","prefecture":"京都府","prefecture_kana":"キョウトフ","city":"八幡市","city_kana":"ヤワタシ","town":"上津屋里垣内","town_kana":"コウヅヤサトガイト","prefecture_code":26},"8176":{"zip_code":"6148176","prefecture":"京都府","prefecture_kana":"キョウトフ","city":"八幡市","city_kana":"ヤワタシ","town":"上津屋中堤","town_kana":"コウヅヤナカヅツミ","prefecture_code":26},"8183":{"zip_code":"6148183","prefecture":"京都府","prefecture_kana":"キョウトフ","city":"八幡市","city_kana":"ヤワタシ","town":"上津屋西久保","town_kana":"コウヅヤニシクボ","prefecture_code":26},"8174":{"zip_code":"6148174","prefecture":"京都府","prefecture_kana":"キョウトフ","city":"八幡市","city_kana":"ヤワタシ","town":"上津屋八王子","town_kana":"コウヅヤハチオウジ","prefecture_code":26},"8184":{"zip_code":"6148184","prefecture":"京都府","prefecture_kana":"キョウトフ","city":"八幡市","city_kana":"ヤワタシ","town":"上津屋八丁","town_kana":"コウヅヤハッチョウ","prefecture_code":26},"8181":{"zip_code":"6148181","prefecture":"京都府","prefecture_kana":"キョウトフ","city":"八幡市","city_kana":"ヤワタシ","town":"上津屋浜垣内","town_kana":"コウヅヤハマガイト","prefecture_code":26},"8172":{"zip_code":"6148172","prefecture":"京都府","prefecture_kana":"キョウトフ","city":"八幡市","city_kana":"ヤワタシ","town":"上津屋林","town_kana":"コウヅヤハヤシ","prefecture_code":26},"8182":{"zip_code":"6148182","prefecture":"京都府","prefecture_kana":"キョウトフ","city":"八幡市","city_kana":"ヤワタシ","town":"上津屋南村","town_kana":"コウヅヤミナミムラ","prefecture_code":26},"8148":{"zip_code":"6148148","prefecture":"京都府","prefecture_kana":"キョウトフ","city":"八幡市","city_kana":"ヤワタシ","town":"下奈良井関","town_kana":"シモナライゼキ","prefecture_code":26},"8143":{"zip_code":"6148143","prefecture":"京都府","prefecture_kana":"キョウトフ","city":"八幡市","city_kana":"ヤワタシ","town":"下奈良一丁地","town_kana":"シモナライッチョウチ","prefecture_code":26},"8122":{"zip_code":"6148122","prefecture":"京都府","prefecture_kana":"キョウトフ","city":"八幡市","city_kana":"ヤワタシ","town":"下奈良一丁堤","town_kana":"シモナライッチョウヅツミ","prefecture_code":26},"8147":{"zip_code":"6148147","prefecture":"京都府","prefecture_kana":"キョウトフ","city":"八幡市","city_kana":"ヤワタシ","town":"下奈良今里","town_kana":"シモナライマザト","prefecture_code":26},"8124":{"zip_code":"6148124","prefecture":"京都府","prefecture_kana":"キョウトフ","city":"八幡市","city_kana":"ヤワタシ","town":"下奈良奥垣内","town_kana":"シモナラオクガイト","prefecture_code":26},"8141":{"zip_code":"6148141","prefecture":"京都府","prefecture_kana":"キョウトフ","city":"八幡市","city_kana":"ヤワタシ","town":"下奈良上三床","town_kana":"シモナラカミサンドコ","prefecture_code":26},"8146":{"zip_code":"6148146","prefecture":"京都府","prefecture_kana":"キョウトフ","city":"八幡市","city_kana":"ヤワタシ","town":"下奈良上ノ段","town_kana":"シモナラカミノダン","prefecture_code":26},"8121":{"zip_code":"6148121","prefecture":"京都府","prefecture_kana":"キョウトフ","city":"八幡市","city_kana":"ヤワタシ","town":"下奈良小宮","town_kana":"シモナラコミヤ","prefecture_code":26},"8132":{"zip_code":"6148132","prefecture":"京都府","prefecture_kana":"キョウトフ","city":"八幡市","city_kana":"ヤワタシ","town":"下奈良榊","town_kana":"シモナラサカキ","prefecture_code":26},"8126":{"zip_code":"6148126","prefecture":"京都府","prefecture_kana":"キョウトフ","city":"八幡市","city_kana":"ヤワタシ","town":"下奈良下三床","town_kana":"シモナラシモサンドコ","prefecture_code":26},"8133":{"zip_code":"6148133","prefecture":"京都府","prefecture_kana":"キョウトフ","city":"八幡市","city_kana":"ヤワタシ","town":"下奈良新下","town_kana":"シモナラシンゲ","prefecture_code":26},"8127":{"zip_code":"6148127","prefecture":"京都府","prefecture_kana":"キョウトフ","city":"八幡市","city_kana":"ヤワタシ","town":"下奈良隅田","town_kana":"シモナラスミダ","prefecture_code":26},"8149":{"zip_code":"6148149","prefecture":"京都府","prefecture_kana":"キョウトフ","city":"八幡市","city_kana":"ヤワタシ","town":"下奈良竹垣内","town_kana":"シモナラタケガイト","prefecture_code":26},"8125":{"zip_code":"6148125","prefecture":"京都府","prefecture_kana":"キョウトフ","city":"八幡市","city_kana":"ヤワタシ","town":"下奈良出垣内","town_kana":"シモナラデガイト","prefecture_code":26},"8136":{"zip_code":"6148136","prefecture":"京都府","prefecture_kana":"キョウトフ","city":"八幡市","city_kana":"ヤワタシ","town":"下奈良蜻蛉尻","town_kana":"シモナラトンボジリ","prefecture_code":26},"8135":{"zip_code":"6148135","prefecture":"京都府","prefecture_kana":"キョウトフ","city":"八幡市","city_kana":"ヤワタシ","town":"下奈良蜻蛉尻筋","town_kana":"シモナラトンボジリスジ","prefecture_code":26},"8134":{"zip_code":"6148134","prefecture":"京都府","prefecture_kana":"キョウトフ","city":"八幡市","city_kana":"ヤワタシ","town":"下奈良中ノ坪","town_kana":"シモナラナカノツボ","prefecture_code":26},"8123":{"zip_code":"6148123","prefecture":"京都府","prefecture_kana":"キョウトフ","city":"八幡市","city_kana":"ヤワタシ","town":"下奈良名越","town_kana":"シモナラナゴシ","prefecture_code":26},"8144":{"zip_code":"6148144","prefecture":"京都府","prefecture_kana":"キョウトフ","city":"八幡市","city_kana":"ヤワタシ","town":"下奈良奈良元","town_kana":"シモナラナラモト","prefecture_code":26},"8145":{"zip_code":"6148145","prefecture":"京都府","prefecture_kana":"キョウトフ","city":"八幡市","city_kana":"ヤワタシ","town":"下奈良二階堂","town_kana":"シモナラニカイドウ","prefecture_code":26},"8128":{"zip_code":"6148128","prefecture":"京都府","prefecture_kana":"キョウトフ","city":"八幡市","city_kana":"ヤワタシ","town":"下奈良野神","town_kana":"シモナラノガミ","prefecture_code":26},"8142":{"zip_code":"6148142","prefecture":"京都府","prefecture_kana":"キョウトフ","city":"八幡市","city_kana":"ヤワタシ","town":"下奈良南頭","town_kana":"シモナラミナミガシラ","prefecture_code":26},"8131":{"zip_code":"6148131","prefecture":"京都府","prefecture_kana":"キョウトフ","city":"八幡市","city_kana":"ヤワタシ","town":"下奈良宮ノ道","town_kana":"シモナラミヤノミチ","prefecture_code":26},"8208":{"zip_code":"6148208","prefecture":"京都府","prefecture_kana":"キョウトフ","city":"八幡市","city_kana":"ヤワタシ","town":"戸津荒堀","town_kana":"トウヅアラホリ","prefecture_code":26},"8280":{"zip_code":"6148280","prefecture":"京都府","prefecture_kana":"キョウトフ","city":"八幡市","city_kana":"ヤワタシ","town":"戸津奥谷","town_kana":"トウヅオクタニ","prefecture_code":26},"8207":{"zip_code":"6148207","prefecture":"京都府","prefecture_kana":"キョウトフ","city":"八幡市","city_kana":"ヤワタシ","town":"戸津北小路","town_kana":"トウヅキタショウジ","prefecture_code":26},"8211":{"zip_code":"6148211","prefecture":"京都府","prefecture_kana":"キョウトフ","city":"八幡市","city_kana":"ヤワタシ","town":"戸津小中代","town_kana":"トウヅコナカダイ","prefecture_code":26},"8206":{"zip_code":"6148206","prefecture":"京都府","prefecture_kana":"キョウトフ","city":"八幡市","city_kana":"ヤワタシ","town":"戸津正ノ竹","town_kana":"トウヅショウノタケ","prefecture_code":26},"8216":{"zip_code":"6148216","prefecture":"京都府","prefecture_kana":"キョウトフ","city":"八幡市","city_kana":"ヤワタシ","town":"戸津谷ノ口","town_kana":"トウヅタニノクチ","prefecture_code":26},"8215":{"zip_code":"6148215","prefecture":"京都府","prefecture_kana":"キョウトフ","city":"八幡市","city_kana":"ヤワタシ","town":"戸津堂田","town_kana":"トウヅドウデン","prefecture_code":26},"8204":{"zip_code":"6148204","prefecture":"京都府","prefecture_kana":"キョウトフ","city":"八幡市","city_kana":"ヤワタシ","town":"戸津蜻蛉尻","town_kana":"トウヅトンボジリ","prefecture_code":26},"8203":{"zip_code":"6148203","prefecture":"京都府","prefecture_kana":"キョウトフ","city":"八幡市","city_kana":"ヤワタシ","town":"戸津中垣内","town_kana":"トウヅナカガイト","prefecture_code":26},"8212":{"zip_code":"6148212","prefecture":"京都府","prefecture_kana":"キョウトフ","city":"八幡市","city_kana":"ヤワタシ","town":"戸津中代","town_kana":"トウヅナカダイ","prefecture_code":26},"8205":{"zip_code":"6148205","prefecture":"京都府","prefecture_kana":"キョウトフ","city":"八幡市","city_kana":"ヤワタシ","town":"戸津東代","town_kana":"トウヅヒガシダイ","prefecture_code":26},"8202":{"zip_code":"6148202","prefecture":"京都府","prefecture_kana":"キョウトフ","city":"八幡市","city_kana":"ヤワタシ","town":"戸津東ノ口","town_kana":"トウヅヒガシノクチ","prefecture_code":26},"8214":{"zip_code":"6148214","prefecture":"京都府","prefecture_kana":"キョウトフ","city":"八幡市","city_kana":"ヤワタシ","town":"戸津水戸城","town_kana":"トウヅミトシロ","prefecture_code":26},"8201":{"zip_code":"6148201","prefecture":"京都府","prefecture_kana":"キョウトフ","city":"八幡市","city_kana":"ヤワタシ","town":"戸津南小路","town_kana":"トウヅミナミショウジ","prefecture_code":26},"8213":{"zip_code":"6148213","prefecture":"京都府","prefecture_kana":"キョウトフ","city":"八幡市","city_kana":"ヤワタシ","town":"戸津南代","town_kana":"トウヅミナミダイ","prefecture_code":26},"8351":{"zip_code":"6148351","prefecture":"京都府","prefecture_kana":"キョウトフ","city":"八幡市","city_kana":"ヤワタシ","town":"西山足立","town_kana":"ニシヤマアダチ","prefecture_code":26},"8353":{"zip_code":"6148353","prefecture":"京都府","prefecture_kana":"キョウトフ","city":"八幡市","city_kana":"ヤワタシ","town":"西山丸尾","town_kana":"ニシヤママルオ","prefecture_code":26},"8352":{"zip_code":"6148352","prefecture":"京都府","prefecture_kana":"キョウトフ","city":"八幡市","city_kana":"ヤワタシ","town":"西山和気","town_kana":"ニシヤマワキ","prefecture_code":26},"8193":{"zip_code":"6148193","prefecture":"京都府","prefecture_kana":"キョウトフ","city":"八幡市","city_kana":"ヤワタシ","town":"野尻一庵","town_kana":"ノジリイチアン","prefecture_code":26},"8194":{"zip_code":"6148194","prefecture":"京都府","prefecture_kana":"キョウトフ","city":"八幡市","city_kana":"ヤワタシ","town":"野尻円ノ元","town_kana":"ノジリエンノモト","prefecture_code":26},"8191":{"zip_code":"6148191","prefecture":"京都府","prefecture_kana":"キョウトフ","city":"八幡市","city_kana":"ヤワタシ","town":"野尻北ノ口","town_kana":"ノジリキタノクチ","prefecture_code":26},"8197":{"zip_code":"6148197","prefecture":"京都府","prefecture_kana":"キョウトフ","city":"八幡市","city_kana":"ヤワタシ","town":"野尻倉掛","town_kana":"ノジリクラカケ","prefecture_code":26},"8195":{"zip_code":"6148195","prefecture":"京都府","prefecture_kana":"キョウトフ","city":"八幡市","city_kana":"ヤワタシ","town":"野尻城究","town_kana":"ノジリジョウギワ","prefecture_code":26},"8196":{"zip_code":"6148196","prefecture":"京都府","prefecture_kana":"キョウトフ","city":"八幡市","city_kana":"ヤワタシ","town":"野尻正畑","town_kana":"ノジリショウハタ","prefecture_code":26},"8192":{"zip_code":"6148192","prefecture":"京都府","prefecture_kana":"キョウトフ","city":"八幡市","city_kana":"ヤワタシ","town":"野尻土井ノ内","town_kana":"ノジリドイノウチ","prefecture_code":26},"8345":{"zip_code":"6148345","prefecture":"京都府","prefecture_kana":"キョウトフ","city":"八幡市","city_kana":"ヤワタシ","town":"橋本愛宕山","town_kana":"ハシモトアタゴヤマ","prefecture_code":26},"8326":{"zip_code":"6148326","prefecture":"京都府","prefecture_kana":"キョウトフ","city":"八幡市","city_kana":"ヤワタシ","town":"橋本石ケ谷","town_kana":"ハシモトイシガダニ","prefecture_code":26},"8331":{"zip_code":"6148331","prefecture":"京都府","prefecture_kana":"キョウトフ","city":"八幡市","city_kana":"ヤワタシ","town":"橋本意足","town_kana":"ハシモトイソク","prefecture_code":26},"8349":{"zip_code":"6148349","prefecture":"京都府","prefecture_kana":"キョウトフ","city":"八幡市","city_kana":"ヤワタシ","town":"橋本糸ケ上","town_kana":"ハシモトイトガウエ","prefecture_code":26},"8311":{"zip_code":"6148311","prefecture":"京都府","prefecture_kana":"キョウトフ","city":"八幡市","city_kana":"ヤワタシ","town":"橋本奥ノ町","town_kana":"ハシモトオクノチョウ","prefecture_code":26},"8325":{"zip_code":"6148325","prefecture":"京都府","prefecture_kana":"キョウトフ","city":"八幡市","city_kana":"ヤワタシ","town":"橋本北浄土ケ原","town_kana":"ハシモトキタジョウドガハラ","prefecture_code":26},"8315":{"zip_code":"6148315","prefecture":"京都府","prefecture_kana":"キョウトフ","city":"八幡市","city_kana":"ヤワタシ","town":"橋本北ノ町","town_kana":"ハシモトキタノチョウ","prefecture_code":26},"8327":{"zip_code":"6148327","prefecture":"京都府","prefecture_kana":"キョウトフ","city":"八幡市","city_kana":"ヤワタシ","town":"橋本栗ケ谷","town_kana":"ハシモトクリガダニ","prefecture_code":26},"8323":{"zip_code":"6148323","prefecture":"京都府","prefecture_kana":"キョウトフ","city":"八幡市","city_kana":"ヤワタシ","town":"橋本興正","town_kana":"ハシモトコウショウ","prefecture_code":26},"8342":{"zip_code":"6148342","prefecture":"京都府","prefecture_kana":"キョウトフ","city":"八幡市","city_kana":"ヤワタシ","town":"橋本小金川","town_kana":"ハシモトコガネガワ","prefecture_code":26},"8321":{"zip_code":"6148321","prefecture":"京都府","prefecture_kana":"キョウトフ","city":"八幡市","city_kana":"ヤワタシ","town":"橋本米ノ尾","town_kana":"ハシモトコメノオ","prefecture_code":26},"8346":{"zip_code":"6148346","prefecture":"京都府","prefecture_kana":"キョウトフ","city":"八幡市","city_kana":"ヤワタシ","town":"橋本塩釜","town_kana":"ハシモトシオガマ","prefecture_code":26},"8312":{"zip_code":"6148312","prefecture":"京都府","prefecture_kana":"キョウトフ","city":"八幡市","city_kana":"ヤワタシ","town":"橋本尻江","town_kana":"ハシモトシリエ","prefecture_code":26},"8332":{"zip_code":"6148332","prefecture":"京都府","prefecture_kana":"キョウトフ","city":"八幡市","city_kana":"ヤワタシ","town":"橋本新石","town_kana":"ハシモトシンセキ","prefecture_code":26},"8344":{"zip_code":"6148344","prefecture":"京都府","prefecture_kana":"キョウトフ","city":"八幡市","city_kana":"ヤワタシ","town":"橋本堂ケ原","town_kana":"ハシモトドウガハラ","prefecture_code":26},"8322":{"zip_code":"6148322","prefecture":"京都府","prefecture_kana":"キョウトフ","city":"八幡市","city_kana":"ヤワタシ","town":"橋本狩尾","town_kana":"ハシモトトガノオ","prefecture_code":26},"8335":{"zip_code":"6148335","prefecture":"京都府","prefecture_kana":"キョウトフ","city":"八幡市","city_kana":"ヤワタシ","town":"橋本中ノ池尻","town_kana":"ハシモトナカノイケジリ","prefecture_code":26},"8341":{"zip_code":"6148341","prefecture":"京都府","prefecture_kana":"キョウトフ","city":"八幡市","city_kana":"ヤワタシ","town":"橋本中ノ町","town_kana":"ハシモトナカノチョウ","prefecture_code":26},"8334":{"zip_code":"6148334","prefecture":"京都府","prefecture_kana":"キョウトフ","city":"八幡市","city_kana":"ヤワタシ","town":"橋本西刈又","town_kana":"ハシモトニシカリマタ","prefecture_code":26},"8314":{"zip_code":"6148314","prefecture":"京都府","prefecture_kana":"キョウトフ","city":"八幡市","city_kana":"ヤワタシ","town":"橋本西山本","town_kana":"ハシモトニシヤマモト","prefecture_code":26},"8333":{"zip_code":"6148333","prefecture":"京都府","prefecture_kana":"キョウトフ","city":"八幡市","city_kana":"ヤワタシ","town":"橋本東刈又","town_kana":"ハシモトヒガシカリマタ","prefecture_code":26},"8324":{"zip_code":"6148324","prefecture":"京都府","prefecture_kana":"キョウトフ","city":"八幡市","city_kana":"ヤワタシ","town":"橋本東浄土ケ原","town_kana":"ハシモトヒガシジョウドガハラ","prefecture_code":26},"8348":{"zip_code":"6148348","prefecture":"京都府","prefecture_kana":"キョウトフ","city":"八幡市","city_kana":"ヤワタシ","town":"橋本東原","town_kana":"ハシモトヒガシハラ","prefecture_code":26},"8313":{"zip_code":"6148313","prefecture":"京都府","prefecture_kana":"キョウトフ","city":"八幡市","city_kana":"ヤワタシ","town":"橋本東山本","town_kana":"ハシモトヒガシヤマモト","prefecture_code":26},"8347":{"zip_code":"6148347","prefecture":"京都府","prefecture_kana":"キョウトフ","city":"八幡市","city_kana":"ヤワタシ","town":"橋本平野山","town_kana":"ハシモトヒラノヤマ","prefecture_code":26},"8336":{"zip_code":"6148336","prefecture":"京都府","prefecture_kana":"キョウトフ","city":"八幡市","city_kana":"ヤワタシ","town":"橋本向山","town_kana":"ハシモトムカイヤマ","prefecture_code":26},"8343":{"zip_code":"6148343","prefecture":"京都府","prefecture_kana":"キョウトフ","city":"八幡市","city_kana":"ヤワタシ","town":"橋本焼野","town_kana":"ハシモトヤケノ","prefecture_code":26},"8292":{"zip_code":"6148292","prefecture":"京都府","prefecture_kana":"キョウトフ","city":"八幡市","city_kana":"ヤワタシ","town":"松井交野ケ原","town_kana":"マツイカタノガハラ","prefecture_code":26},"8293":{"zip_code":"6148293","prefecture":"京都府","prefecture_kana":"キョウトフ","city":"八幡市","city_kana":"ヤワタシ","town":"松井手水ケ谷","town_kana":"マツイテミズガダニ","prefecture_code":26},"8291":{"zip_code":"6148291","prefecture":"京都府","prefecture_kana":"キョウトフ","city":"八幡市","city_kana":"ヤワタシ","town":"松井栂谷","town_kana":"マツイトガダニ","prefecture_code":26},"8289":{"zip_code":"6148289","prefecture":"京都府","prefecture_kana":"キョウトフ","city":"八幡市","city_kana":"ヤワタシ","town":"美濃山一ノ谷","town_kana":"ミノヤマイチノタニ","prefecture_code":26},"8273":{"zip_code":"6148273","prefecture":"京都府","prefecture_kana":"キョウトフ","city":"八幡市","city_kana":"ヤワタシ","town":"美濃山井ノ元","town_kana":"ミノヤマイノモト","prefecture_code":26},"8284":{"zip_code":"6148284","prefecture":"京都府","prefecture_kana":"キョウトフ","city":"八幡市","city_kana":"ヤワタシ","town":"美濃山馬ケ背","town_kana":"ミノヤマウマガセ","prefecture_code":26},"8282":{"zip_code":"6148282","prefecture":"京都府","prefecture_kana":"キョウトフ","city":"八幡市","city_kana":"ヤワタシ","town":"美濃山大塚","town_kana":"ミノヤマオオツカ","prefecture_code":26},"8281":{"zip_code":"6148281","prefecture":"京都府","prefecture_kana":"キョウトフ","city":"八幡市","city_kana":"ヤワタシ","town":"美濃山狐谷","town_kana":"ミノヤマキツネダニ","prefecture_code":26},"8279":{"zip_code":"6148279","prefecture":"京都府","prefecture_kana":"キョウトフ","city":"八幡市","city_kana":"ヤワタシ","town":"美濃山幸水","town_kana":"ミノヤマコウスイ","prefecture_code":26},"8286":{"zip_code":"6148286","prefecture":"京都府","prefecture_kana":"キョウトフ","city":"八幡市","city_kana":"ヤワタシ","town":"美濃山千原谷","town_kana":"ミノヤマチハラダニ","prefecture_code":26},"8287":{"zip_code":"6148287","prefecture":"京都府","prefecture_kana":"キョウトフ","city":"八幡市","city_kana":"ヤワタシ","town":"美濃山出口","town_kana":"ミノヤマデグチ","prefecture_code":26},"8288":{"zip_code":"6148288","prefecture":"京都府","prefecture_kana":"キョウトフ","city":"八幡市","city_kana":"ヤワタシ","town":"美濃山出島","town_kana":"ミノヤマデジマ","prefecture_code":26},"8275":{"zip_code":"6148275","prefecture":"京都府","prefecture_kana":"キョウトフ","city":"八幡市","city_kana":"ヤワタシ","town":"美濃山中尾","town_kana":"ミノヤマナカオ","prefecture_code":26},"8278":{"zip_code":"6148278","prefecture":"京都府","prefecture_kana":"キョウトフ","city":"八幡市","city_kana":"ヤワタシ","town":"美濃山西ノ口","town_kana":"ミノヤマニシノクチ","prefecture_code":26},"8274":{"zip_code":"6148274","prefecture":"京都府","prefecture_kana":"キョウトフ","city":"八幡市","city_kana":"ヤワタシ","town":"美濃山野神","town_kana":"ミノヤマノガミ","prefecture_code":26},"8271":{"zip_code":"6148271","prefecture":"京都府","prefecture_kana":"キョウトフ","city":"八幡市","city_kana":"ヤワタシ","town":"美濃山ヒル塚","town_kana":"ミノヤマヒルヅカ","prefecture_code":26},"8283":{"zip_code":"6148283","prefecture":"京都府","prefecture_kana":"キョウトフ","city":"八幡市","city_kana":"ヤワタシ","town":"美濃山細谷","town_kana":"ミノヤマホソダニ","prefecture_code":26},"8277":{"zip_code":"6148277","prefecture":"京都府","prefecture_kana":"キョウトフ","city":"八幡市","city_kana":"ヤワタシ","town":"美濃山宮ノ背","town_kana":"ミノヤマミヤノセ","prefecture_code":26},"8276":{"zip_code":"6148276","prefecture":"京都府","prefecture_kana":"キョウトフ","city":"八幡市","city_kana":"ヤワタシ","town":"美濃山宮道","town_kana":"ミノヤマミヤミチ","prefecture_code":26},"8272":{"zip_code":"6148272","prefecture":"京都府","prefecture_kana":"キョウトフ","city":"八幡市","city_kana":"ヤワタシ","town":"美濃山御幸","town_kana":"ミノヤマミユキ","prefecture_code":26},"8285":{"zip_code":"6148285","prefecture":"京都府","prefecture_kana":"キョウトフ","city":"八幡市","city_kana":"ヤワタシ","town":"美濃山御幸谷","town_kana":"ミノヤマミユキダニ","prefecture_code":26},"8057":{"zip_code":"6148057","prefecture":"京都府","prefecture_kana":"キョウトフ","city":"八幡市","city_kana":"ヤワタシ","town":"八幡安居塚","town_kana":"ヤワタアンゴヅカ","prefecture_code":26},"8301":{"zip_code":"6148301","prefecture":"京都府","prefecture_kana":"キョウトフ","city":"八幡市","city_kana":"ヤワタシ","town":"八幡池ノ首","town_kana":"ヤワタイケノクビ","prefecture_code":26},"8088":{"zip_code":"6148088","prefecture":"京都府","prefecture_kana":"キョウトフ","city":"八幡市","city_kana":"ヤワタシ","town":"八幡石不動","town_kana":"ヤワタイシフドウ","prefecture_code":26},"8043":{"zip_code":"6148043","prefecture":"京都府","prefecture_kana":"キョウトフ","city":"八幡市","city_kana":"ヤワタシ","town":"八幡一ノ坪","town_kana":"ヤワタイチノツボ","prefecture_code":26},"8084":{"zip_code":"6148084","prefecture":"京都府","prefecture_kana":"キョウトフ","city":"八幡市","city_kana":"ヤワタシ","town":"八幡今田","town_kana":"ヤワタイマダ","prefecture_code":26},"8076":{"zip_code":"6148076","prefecture":"京都府","prefecture_kana":"キョウトフ","city":"八幡市","city_kana":"ヤワタシ","town":"八幡植松","town_kana":"ヤワタウエマツ","prefecture_code":26},"8066":{"zip_code":"6148066","prefecture":"京都府","prefecture_kana":"キョウトフ","city":"八幡市","city_kana":"ヤワタシ","town":"八幡大芝","town_kana":"ヤワタオオシバ","prefecture_code":26},"8006":{"zip_code":"6148006","prefecture":"京都府","prefecture_kana":"キョウトフ","city":"八幡市","city_kana":"ヤワタシ","town":"八幡大谷","town_kana":"ヤワタオオタニ","prefecture_code":26},"8072":{"zip_code":"6148072","prefecture":"京都府","prefecture_kana":"キョウトフ","city":"八幡市","city_kana":"ヤワタシ","town":"八幡長田","town_kana":"ヤワタオサダ","prefecture_code":26},"8077":{"zip_code":"6148077","prefecture":"京都府","prefecture_kana":"キョウトフ","city":"八幡市","city_kana":"ヤワタシ","town":"八幡女郎花","town_kana":"ヤワタオミナエシ","prefecture_code":26},"8011":{"zip_code":"6148011","prefecture":"京都府","prefecture_kana":"キョウトフ","city":"八幡市","city_kana":"ヤワタシ","town":"八幡垣内山","town_kana":"ヤワタカイトヤマ","prefecture_code":26},"8302":{"zip_code":"6148302","prefecture":"京都府","prefecture_kana":"キョウトフ","city":"八幡市","city_kana":"ヤワタシ","town":"八幡カイトリ","town_kana":"ヤワタカイトリ","prefecture_code":26},"8055":{"zip_code":"6148055","prefecture":"京都府","prefecture_kana":"キョウトフ","city":"八幡市","city_kana":"ヤワタシ","town":"八幡柿ケ谷","town_kana":"ヤワタカキガダニ","prefecture_code":26},"8036":{"zip_code":"6148036","prefecture":"京都府","prefecture_kana":"キョウトフ","city":"八幡市","city_kana":"ヤワタシ","town":"八幡柿木垣内","town_kana":"ヤワタカキノキガイト","prefecture_code":26},"8087":{"zip_code":"6148087","prefecture":"京都府","prefecture_kana":"キョウトフ","city":"八幡市","city_kana":"ヤワタシ","town":"八幡神原","town_kana":"ヤワタカミハラ","prefecture_code":26},"8086":{"zip_code":"6148086","prefecture":"京都府","prefecture_kana":"キョウトフ","city":"八幡市","city_kana":"ヤワタシ","town":"八幡河原崎","town_kana":"ヤワタカワラザキ","prefecture_code":26},"8063":{"zip_code":"6148063","prefecture":"京都府","prefecture_kana":"キョウトフ","city":"八幡市","city_kana":"ヤワタシ","town":"八幡岸本","town_kana":"ヤワタキシモト","prefecture_code":26},"8014":{"zip_code":"6148014","prefecture":"京都府","prefecture_kana":"キョウトフ","city":"八幡市","city_kana":"ヤワタシ","town":"八幡北浦","town_kana":"ヤワタキタウラ","prefecture_code":26},"8095":{"zip_code":"6148095","prefecture":"京都府","prefecture_kana":"キョウトフ","city":"八幡市","city_kana":"ヤワタシ","town":"八幡沓田","town_kana":"ヤワタクツデン","prefecture_code":26},"8045":{"zip_code":"6148045","prefecture":"京都府","prefecture_kana":"キョウトフ","city":"八幡市","city_kana":"ヤワタシ","town":"八幡久保田","town_kana":"ヤワタクボタ","prefecture_code":26},"8025":{"zip_code":"6148025","prefecture":"京都府","prefecture_kana":"キョウトフ","city":"八幡市","city_kana":"ヤワタシ","town":"八幡源氏垣外","town_kana":"ヤワタゲンジガイト","prefecture_code":26},"8304":{"zip_code":"6148304","prefecture":"京都府","prefecture_kana":"キョウトフ","city":"八幡市","city_kana":"ヤワタシ","town":"八幡源野","town_kana":"ヤワタゲンノ","prefecture_code":26},"8044":{"zip_code":"6148044","prefecture":"京都府","prefecture_kana":"キョウトフ","city":"八幡市","city_kana":"ヤワタシ","town":"八幡御幸谷","town_kana":"ヤワタゴコウダニ","prefecture_code":26},"8071":{"zip_code":"6148071","prefecture":"京都府","prefecture_kana":"キョウトフ","city":"八幡市","city_kana":"ヤワタシ","town":"八幡五反田","town_kana":"ヤワタゴタンダ","prefecture_code":26},"8031":{"zip_code":"6148031","prefecture":"京都府","prefecture_kana":"キョウトフ","city":"八幡市","city_kana":"ヤワタシ","town":"八幡小西","town_kana":"ヤワタコニシ","prefecture_code":26},"8081":{"zip_code":"6148081","prefecture":"京都府","prefecture_kana":"キョウトフ","city":"八幡市","city_kana":"ヤワタシ","town":"八幡御馬所","town_kana":"ヤワタゴバショ","prefecture_code":26},"8035":{"zip_code":"6148035","prefecture":"京都府","prefecture_kana":"キョウトフ","city":"八幡市","city_kana":"ヤワタシ","town":"八幡小松","town_kana":"ヤワタコマツ","prefecture_code":26},"8303":{"zip_code":"6148303","prefecture":"京都府","prefecture_kana":"キョウトフ","city":"八幡市","city_kana":"ヤワタシ","town":"八幡菰池","town_kana":"ヤワタコモイケ","prefecture_code":26},"8307":{"zip_code":"6148307","prefecture":"京都府","prefecture_kana":"キョウトフ","city":"八幡市","city_kana":"ヤワタシ","town":"八幡在応寺","town_kana":"ヤワタザイオウジ","prefecture_code":26},"8042":{"zip_code":"6148042","prefecture":"京都府","prefecture_kana":"キョウトフ","city":"八幡市","city_kana":"ヤワタシ","town":"八幡盛戸","town_kana":"ヤワタサカンド","prefecture_code":26},"8046":{"zip_code":"6148046","prefecture":"京都府","prefecture_kana":"キョウトフ","city":"八幡市","city_kana":"ヤワタシ","town":"八幡砂田","town_kana":"ヤワタサデン","prefecture_code":26},"8306":{"zip_code":"6148306","prefecture":"京都府","prefecture_kana":"キョウトフ","city":"八幡市","city_kana":"ヤワタシ","town":"八幡沢","town_kana":"ヤワタサワ","prefecture_code":26},"8075":{"zip_code":"6148075","prefecture":"京都府","prefecture_kana":"キョウトフ","city":"八幡市","city_kana":"ヤワタシ","town":"八幡三反長","town_kana":"ヤワタサンダオサ","prefecture_code":26},"8096":{"zip_code":"6148096","prefecture":"京都府","prefecture_kana":"キョウトフ","city":"八幡市","city_kana":"ヤワタシ","town":"八幡三ノ甲","town_kana":"ヤワタサンノコウ","prefecture_code":26},"8093":{"zip_code":"6148093","prefecture":"京都府","prefecture_kana":"キョウトフ","city":"八幡市","city_kana":"ヤワタシ","town":"八幡三本橋","town_kana":"ヤワタサンボンバシ","prefecture_code":26},"8061":{"zip_code":"6148061","prefecture":"京都府","prefecture_kana":"キョウトフ","city":"八幡市","city_kana":"ヤワタシ","town":"八幡式部谷","town_kana":"ヤワタシキブダニ","prefecture_code":26},"8073":{"zip_code":"6148073","prefecture":"京都府","prefecture_kana":"キョウトフ","city":"八幡市","city_kana":"ヤワタシ","town":"八幡軸","town_kana":"ヤワタジク","prefecture_code":26},"8001":{"zip_code":"6148001","prefecture":"京都府","prefecture_kana":"キョウトフ","city":"八幡市","city_kana":"ヤワタシ","town":"八幡科手","town_kana":"ヤワタシナデ","prefecture_code":26},"8017":{"zip_code":"6148017","prefecture":"京都府","prefecture_kana":"キョウトフ","city":"八幡市","city_kana":"ヤワタシ","town":"八幡柴座","town_kana":"ヤワタシバザ","prefecture_code":26},"8062":{"zip_code":"6148062","prefecture":"京都府","prefecture_kana":"キョウトフ","city":"八幡市","city_kana":"ヤワタシ","town":"八幡清水井","town_kana":"ヤワタシミズイ","prefecture_code":26},"8092":{"zip_code":"6148092","prefecture":"京都府","prefecture_kana":"キョウトフ","city":"八幡市","city_kana":"ヤワタシ","town":"八幡城ノ内","town_kana":"ヤワタジョウノウチ","prefecture_code":26},"8082":{"zip_code":"6148082","prefecture":"京都府","prefecture_kana":"キョウトフ","city":"八幡市","city_kana":"ヤワタシ","town":"八幡菖蒲池","town_kana":"ヤワタショウブイケ","prefecture_code":26},"8053":{"zip_code":"6148053","prefecture":"京都府","prefecture_kana":"キョウトフ","city":"八幡市","city_kana":"ヤワタシ","town":"八幡水珀","town_kana":"ヤワタスイハク","prefecture_code":26},"8068":{"zip_code":"6148068","prefecture":"京都府","prefecture_kana":"キョウトフ","city":"八幡市","city_kana":"ヤワタシ","town":"八幡隅田口","town_kana":"ヤワタスミダグチ","prefecture_code":26},"8003":{"zip_code":"6148003","prefecture":"京都府","prefecture_kana":"キョウトフ","city":"八幡市","city_kana":"ヤワタシ","town":"八幡千束","town_kana":"ヤワタセンゾク","prefecture_code":26},"8024":{"zip_code":"6148024","prefecture":"京都府","prefecture_kana":"キョウトフ","city":"八幡市","city_kana":"ヤワタシ","town":"八幡双栗","town_kana":"ヤワタソグリ","prefecture_code":26},"8038":{"zip_code":"6148038","prefecture":"京都府","prefecture_kana":"キョウトフ","city":"八幡市","city_kana":"ヤワタシ","town":"八幡園内","town_kana":"ヤワタソノウチ","prefecture_code":26},"8037":{"zip_code":"6148037","prefecture":"京都府","prefecture_kana":"キョウトフ","city":"八幡市","city_kana":"ヤワタシ","town":"八幡高畑","town_kana":"ヤワタタカバタケ","prefecture_code":26},"8005":{"zip_code":"6148005","prefecture":"京都府","prefecture_kana":"キョウトフ","city":"八幡市","city_kana":"ヤワタシ","town":"八幡高坊","town_kana":"ヤワタタカボウ","prefecture_code":26},"8015":{"zip_code":"6148015","prefecture":"京都府","prefecture_kana":"キョウトフ","city":"八幡市","city_kana":"ヤワタシ","town":"八幡旦所","town_kana":"ヤワタダンジョ","prefecture_code":26},"8047":{"zip_code":"6148047","prefecture":"京都府","prefecture_kana":"キョウトフ","city":"八幡市","city_kana":"ヤワタシ","town":"八幡月夜田","town_kana":"ヤワタツキヨダ","prefecture_code":26},"8002":{"zip_code":"6148002","prefecture":"京都府","prefecture_kana":"キョウトフ","city":"八幡市","city_kana":"ヤワタシ","town":"八幡土井","town_kana":"ヤワタドイ","prefecture_code":26},"8079":{"zip_code":"6148079","prefecture":"京都府","prefecture_kana":"キョウトフ","city":"八幡市","city_kana":"ヤワタシ","town":"八幡東林","town_kana":"ヤワタトウリン","prefecture_code":26},"8039":{"zip_code":"6148039","prefecture":"京都府","prefecture_kana":"キョウトフ","city":"八幡市","city_kana":"ヤワタシ","town":"八幡苗田","town_kana":"ヤワタナエダ","prefecture_code":26},"8058":{"zip_code":"6148058","prefecture":"京都府","prefecture_kana":"キョウトフ","city":"八幡市","city_kana":"ヤワタシ","town":"八幡長谷","town_kana":"ヤワタナガタニ","prefecture_code":26},"8067":{"zip_code":"6148067","prefecture":"京都府","prefecture_kana":"キョウトフ","city":"八幡市","city_kana":"ヤワタシ","town":"八幡中ノ山","town_kana":"ヤワタナカノヤマ","prefecture_code":26},"8023":{"zip_code":"6148023","prefecture":"京都府","prefecture_kana":"キョウトフ","city":"八幡市","city_kana":"ヤワタシ","town":"八幡名残","town_kana":"ヤワタナゴリ","prefecture_code":26},"8033":{"zip_code":"6148033","prefecture":"京都府","prefecture_kana":"キョウトフ","city":"八幡市","city_kana":"ヤワタシ","town":"八幡西島","town_kana":"ヤワタニシジマ","prefecture_code":26},"8007":{"zip_code":"6148007","prefecture":"京都府","prefecture_kana":"キョウトフ","city":"八幡市","city_kana":"ヤワタシ","town":"八幡西高坊","town_kana":"ヤワタニシタカボウ","prefecture_code":26},"8085":{"zip_code":"6148085","prefecture":"京都府","prefecture_kana":"キョウトフ","city":"八幡市","city_kana":"ヤワタシ","town":"八幡馬場","town_kana":"ヤワタババ","prefecture_code":26},"8032":{"zip_code":"6148032","prefecture":"京都府","prefecture_kana":"キョウトフ","city":"八幡市","city_kana":"ヤワタシ","town":"八幡番賀","town_kana":"ヤワタバンガ","prefecture_code":26},"8022":{"zip_code":"6148022","prefecture":"京都府","prefecture_kana":"キョウトフ","city":"八幡市","city_kana":"ヤワタシ","town":"八幡東浦","town_kana":"ヤワタヒガシウラ","prefecture_code":26},"8030":{"zip_code":"6148030","prefecture":"京都府","prefecture_kana":"キョウトフ","city":"八幡市","city_kana":"ヤワタシ","town":"八幡東島","town_kana":"ヤワタヒガシジマ","prefecture_code":26},"8048":{"zip_code":"6148048","prefecture":"京都府","prefecture_kana":"キョウトフ","city":"八幡市","city_kana":"ヤワタシ","town":"八幡備前","town_kana":"ヤワタビゼン","prefecture_code":26},"8091":{"zip_code":"6148091","prefecture":"京都府","prefecture_kana":"キョウトフ","city":"八幡市","city_kana":"ヤワタシ","town":"八幡平谷","town_kana":"ヤワタビョウダニ","prefecture_code":26},"8094":{"zip_code":"6148094","prefecture":"京都府","prefecture_kana":"キョウトフ","city":"八幡市","city_kana":"ヤワタシ","town":"八幡平田","town_kana":"ヤワタヒラタ","prefecture_code":26},"8008":{"zip_code":"6148008","prefecture":"京都府","prefecture_kana":"キョウトフ","city":"八幡市","city_kana":"ヤワタシ","town":"八幡平ノ山","town_kana":"ヤワタヒラノヤマ","prefecture_code":26},"8078":{"zip_code":"6148078","prefecture":"京都府","prefecture_kana":"キョウトフ","city":"八幡市","city_kana":"ヤワタシ","town":"八幡広門","town_kana":"ヤワタヒロカド","prefecture_code":26},"8056":{"zip_code":"6148056","prefecture":"京都府","prefecture_kana":"キョウトフ","city":"八幡市","city_kana":"ヤワタシ","town":"八幡福禄谷","town_kana":"ヤワタフクロクダニ","prefecture_code":26},"8034":{"zip_code":"6148034","prefecture":"京都府","prefecture_kana":"キョウトフ","city":"八幡市","city_kana":"ヤワタシ","town":"八幡舞台","town_kana":"ヤワタブタイ","prefecture_code":26},"8064":{"zip_code":"6148064","prefecture":"京都府","prefecture_kana":"キョウトフ","city":"八幡市","city_kana":"ヤワタシ","town":"八幡松原","town_kana":"ヤワタマツバラ","prefecture_code":26},"8054":{"zip_code":"6148054","prefecture":"京都府","prefecture_kana":"キョウトフ","city":"八幡市","city_kana":"ヤワタシ","town":"八幡南山","town_kana":"ヤワタミナミヤマ","prefecture_code":26},"8052":{"zip_code":"6148052","prefecture":"京都府","prefecture_kana":"キョウトフ","city":"八幡市","city_kana":"ヤワタシ","town":"八幡武蔵芝","town_kana":"ヤワタムサシシバ","prefecture_code":26},"8026":{"zip_code":"6148026","prefecture":"京都府","prefecture_kana":"キョウトフ","city":"八幡市","city_kana":"ヤワタシ","town":"八幡森","town_kana":"ヤワタモリ","prefecture_code":26},"8021":{"zip_code":"6148021","prefecture":"京都府","prefecture_kana":"キョウトフ","city":"八幡市","city_kana":"ヤワタシ","town":"八幡森垣内","town_kana":"ヤワタモリガイト","prefecture_code":26},"8305":{"zip_code":"6148305","prefecture":"京都府","prefecture_kana":"キョウトフ","city":"八幡市","city_kana":"ヤワタシ","town":"八幡焼木","town_kana":"ヤワタヤケギ","prefecture_code":26},"8308":{"zip_code":"6148308","prefecture":"京都府","prefecture_kana":"キョウトフ","city":"八幡市","city_kana":"ヤワタシ","town":"八幡八萩","town_kana":"ヤワタヤハギ","prefecture_code":26},"8016":{"zip_code":"6148016","prefecture":"京都府","prefecture_kana":"キョウトフ","city":"八幡市","city_kana":"ヤワタシ","town":"八幡山路","town_kana":"ヤワタヤマジ","prefecture_code":26},"8065":{"zip_code":"6148065","prefecture":"京都府","prefecture_kana":"キョウトフ","city":"八幡市","city_kana":"ヤワタシ","town":"八幡山下","town_kana":"ヤワタヤマシタ","prefecture_code":26},"8004":{"zip_code":"6148004","prefecture":"京都府","prefecture_kana":"キョウトフ","city":"八幡市","city_kana":"ヤワタシ","town":"八幡山柴","town_kana":"ヤワタヤマシバ","prefecture_code":26},"8051":{"zip_code":"6148051","prefecture":"京都府","prefecture_kana":"キョウトフ","city":"八幡市","city_kana":"ヤワタシ","town":"八幡山田","town_kana":"ヤワタヤマダ","prefecture_code":26},"8083":{"zip_code":"6148083","prefecture":"京都府","prefecture_kana":"キョウトフ","city":"八幡市","city_kana":"ヤワタシ","town":"八幡山本","town_kana":"ヤワタヤマモト","prefecture_code":26},"8012":{"zip_code":"6148012","prefecture":"京都府","prefecture_kana":"キョウトフ","city":"八幡市","city_kana":"ヤワタシ","town":"八幡吉野","town_kana":"ヤワタヨシノ","prefecture_code":26},"8013":{"zip_code":"6148013","prefecture":"京都府","prefecture_kana":"キョウトフ","city":"八幡市","city_kana":"ヤワタシ","town":"八幡吉野垣内","town_kana":"ヤワタヨシノガイト","prefecture_code":26},"8041":{"zip_code":"6148041","prefecture":"京都府","prefecture_kana":"キョウトフ","city":"八幡市","city_kana":"ヤワタシ","town":"八幡吉原","town_kana":"ヤワタヨシハラ","prefecture_code":26},"8074":{"zip_code":"6148074","prefecture":"京都府","prefecture_kana":"キョウトフ","city":"八幡市","city_kana":"ヤワタシ","town":"八幡渡ル瀬","town_kana":"ヤワタワタルセ","prefecture_code":26}}