{"0000":{"zip_code":"6160000","prefecture":"京都府","prefecture_kana":"キョウトフ","city":"京都市右京区","city_kana":"キョウトシウキョウク","town":"","town_kana":"","prefecture_code":26},"8171":{"zip_code":"6168171","prefecture":"京都府","prefecture_kana":"キョウトフ","city":"京都市右京区","city_kana":"キョウトシウキョウク","town":"太秦青木ケ原町","town_kana":"ウズマサアオキガハラチョウ","prefecture_code":26},"8172":{"zip_code":"6168172","prefecture":"京都府","prefecture_kana":"キョウトフ","city":"京都市右京区","city_kana":"キョウトシウキョウク","town":"太秦青木元町","town_kana":"ウズマサアオキモトチョウ","prefecture_code":26},"8136":{"zip_code":"6168136","prefecture":"京都府","prefecture_kana":"キョウトフ","city":"京都市右京区","city_kana":"キョウトシウキョウク","town":"太秦荒木町","town_kana":"ウズマサアラキチョウ","prefecture_code":26},"8166":{"zip_code":"6168166","prefecture":"京都府","prefecture_kana":"キョウトフ","city":"京都市右京区","city_kana":"キョウトシウキョウク","town":"太秦石垣町","town_kana":"ウズマサイシガキチョウ","prefecture_code":26},"8101":{"zip_code":"6168101","prefecture":"京都府","prefecture_kana":"キョウトフ","city":"京都市右京区","city_kana":"キョウトシウキョウク","town":"太秦和泉式部町","town_kana":"ウズマサイズミシキブチョウ","prefecture_code":26},"8107":{"zip_code":"6168107","prefecture":"京都府","prefecture_kana":"キョウトフ","city":"京都市右京区","city_kana":"キョウトシウキョウク","town":"太秦一ノ井町","town_kana":"ウズマサイチノイチョウ","prefecture_code":26},"8175":{"zip_code":"6168175","prefecture":"京都府","prefecture_kana":"キョウトフ","city":"京都市右京区","city_kana":"キョウトシウキョウク","town":"太秦一町芝町","town_kana":"ウズマサイッチョウシバチョウ","prefecture_code":26},"8122":{"zip_code":"6168122","prefecture":"京都府","prefecture_kana":"キョウトフ","city":"京都市右京区","city_kana":"キョウトシウキョウク","town":"太秦井戸ケ尻町","town_kana":"ウズマサイドガジリチョウ","prefecture_code":26},"8176":{"zip_code":"6168176","prefecture":"京都府","prefecture_kana":"キョウトフ","city":"京都市右京区","city_kana":"キョウトシウキョウク","town":"太秦乾町","town_kana":"ウズマサイヌイチョウ","prefecture_code":26},"8177":{"zip_code":"6168177","prefecture":"京都府","prefecture_kana":"キョウトフ","city":"京都市右京区","city_kana":"キョウトシウキョウク","town":"太秦馬塚町","town_kana":"ウズマサウマヅカチョウ","prefecture_code":26},"8127":{"zip_code":"6168127","prefecture":"京都府","prefecture_kana":"キョウトフ","city":"京都市右京区","city_kana":"キョウトシウキョウク","town":"太秦奥殿町","town_kana":"ウズマサオクドノチョウ","prefecture_code":26},"8153":{"zip_code":"6168153","prefecture":"京都府","prefecture_kana":"キョウトフ","city":"京都市右京区","city_kana":"キョウトシウキョウク","town":"太秦面影町","town_kana":"ウズマサオモカゲチョウ","prefecture_code":26},"8123":{"zip_code":"6168123","prefecture":"京都府","prefecture_kana":"キョウトフ","city":"京都市右京区","city_kana":"キョウトシウキョウク","town":"太秦海正寺町","town_kana":"ウズマサカイショウジチョウ","prefecture_code":26},"8185":{"zip_code":"6168185","prefecture":"京都府","prefecture_kana":"キョウトフ","city":"京都市右京区","city_kana":"キョウトシウキョウク","town":"太秦開日町","town_kana":"ウズマサカイニチチョウ","prefecture_code":26},"8121":{"zip_code":"6168121","prefecture":"京都府","prefecture_kana":"キョウトフ","city":"京都市右京区","city_kana":"キョウトシウキョウク","town":"太秦垣内町","town_kana":"ウズマサカキウチチョウ","prefecture_code":26},"8151":{"zip_code":"6168151","prefecture":"京都府","prefecture_kana":"キョウトフ","city":"京都市右京区","city_kana":"キョウトシウキョウク","town":"太秦帷子ケ辻町","town_kana":"ウズマサカタビラノツジチョウ","prefecture_code":26},"8165":{"zip_code":"6168165","prefecture":"京都府","prefecture_kana":"キョウトフ","city":"京都市右京区","city_kana":"キョウトシウキョウク","town":"太秦桂ケ原町","town_kana":"ウズマサカツラガハラチョウ","prefecture_code":26},"8164":{"zip_code":"6168164","prefecture":"京都府","prefecture_kana":"キョウトフ","city":"京都市右京区","city_kana":"キョウトシウキョウク","town":"太秦桂木町","town_kana":"ウズマサカツラギチョウ","prefecture_code":26},"8103":{"zip_code":"6168103","prefecture":"京都府","prefecture_kana":"キョウトフ","city":"京都市右京区","city_kana":"キョウトシウキョウク","town":"太秦上刑部町","town_kana":"ウズマサカミケイブチョウ","prefecture_code":26},"8173":{"zip_code":"6168173","prefecture":"京都府","prefecture_kana":"キョウトフ","city":"京都市右京区","city_kana":"キョウトシウキョウク","town":"太秦上ノ段町","town_kana":"ウズマサカミノダンチョウ","prefecture_code":26},"8134":{"zip_code":"6168134","prefecture":"京都府","prefecture_kana":"キョウトフ","city":"京都市右京区","city_kana":"キョウトシウキョウク","town":"太秦唐渡町","town_kana":"ウズマサカラトチョウ","prefecture_code":26},"8143":{"zip_code":"6168143","prefecture":"京都府","prefecture_kana":"キョウトフ","city":"京都市右京区","city_kana":"キョウトシウキョウク","town":"太秦川所町","town_kana":"ウズマサカワドコロチョウ","prefecture_code":26},"8182":{"zip_code":"6168182","prefecture":"京都府","prefecture_kana":"キョウトフ","city":"京都市右京区","city_kana":"キョウトシウキョウク","town":"太秦北路町","town_kana":"ウズマサキタロチョウ","prefecture_code":26},"8112":{"zip_code":"6168112","prefecture":"京都府","prefecture_kana":"キョウトフ","city":"京都市右京区","city_kana":"キョウトシウキョウク","town":"太秦木ノ下町","town_kana":"ウズマサキノシタチョウ","prefecture_code":26},"8181":{"zip_code":"6168181","prefecture":"京都府","prefecture_kana":"キョウトフ","city":"京都市右京区","city_kana":"キョウトシウキョウク","town":"太秦京ノ道町","town_kana":"ウズマサキョウノミチチョウ","prefecture_code":26},"8125":{"zip_code":"6168125","prefecture":"京都府","prefecture_kana":"キョウトフ","city":"京都市右京区","city_kana":"キョウトシウキョウク","town":"太秦組石町","town_kana":"ウズマサクミイシチョウ","prefecture_code":26},"8157":{"zip_code":"6168157","prefecture":"京都府","prefecture_kana":"キョウトフ","city":"京都市右京区","city_kana":"キョウトシウキョウク","town":"太秦御所ノ内町","town_kana":"ウズマサゴショノウチチョウ","prefecture_code":26},"8135":{"zip_code":"6168135","prefecture":"京都府","prefecture_kana":"キョウトフ","city":"京都市右京区","city_kana":"キョウトシウキョウク","town":"太秦小手角町","town_kana":"ウズマサコテスミチョウ","prefecture_code":26},"8187":{"zip_code":"6168187","prefecture":"京都府","prefecture_kana":"キョウトフ","city":"京都市右京区","city_kana":"キョウトシウキョウク","town":"太秦御領田町","town_kana":"ウズマサゴリョウデンチョウ","prefecture_code":26},"8192":{"zip_code":"6168192","prefecture":"京都府","prefecture_kana":"キョウトフ","city":"京都市右京区","city_kana":"キョウトシウキョウク","town":"太秦三尾町","town_kana":"ウズマササンビチョウ","prefecture_code":26},"8111":{"zip_code":"6168111","prefecture":"京都府","prefecture_kana":"キョウトフ","city":"京都市右京区","city_kana":"キョウトシウキョウク","town":"太秦下角田町","town_kana":"ウズマサシモカクダチョウ","prefecture_code":26},"8104":{"zip_code":"6168104","prefecture":"京都府","prefecture_kana":"キョウトフ","city":"京都市右京区","city_kana":"キョウトシウキョウク","town":"太秦下刑部町","town_kana":"ウズマサシモケイブチョウ","prefecture_code":26},"8126":{"zip_code":"6168126","prefecture":"京都府","prefecture_kana":"キョウトフ","city":"京都市右京区","city_kana":"キョウトシウキョウク","town":"太秦椙ケ本町","town_kana":"ウズマサスガモトチョウ","prefecture_code":26},"8137":{"zip_code":"6168137","prefecture":"京都府","prefecture_kana":"キョウトフ","city":"京都市右京区","city_kana":"キョウトシウキョウク","town":"太秦朱雀町","town_kana":"ウズマサスジャクチョウ","prefecture_code":26},"8132":{"zip_code":"6168132","prefecture":"京都府","prefecture_kana":"キョウトフ","city":"京都市右京区","city_kana":"キョウトシウキョウク","town":"太秦滝ケ花町","town_kana":"ウズマサタキガハナチョウ","prefecture_code":26},"8114":{"zip_code":"6168114","prefecture":"京都府","prefecture_kana":"キョウトフ","city":"京都市右京区","city_kana":"キョウトシウキョウク","town":"太秦巽町","town_kana":"ウズマサタツミチョウ","prefecture_code":26},"8141":{"zip_code":"6168141","prefecture":"京都府","prefecture_kana":"キョウトフ","city":"京都市右京区","city_kana":"キョウトシウキョウク","town":"太秦棚森町","town_kana":"ウズマサタナモリチョウ","prefecture_code":26},"8167":{"zip_code":"6168167","prefecture":"京都府","prefecture_kana":"キョウトフ","city":"京都市右京区","city_kana":"キョウトシウキョウク","town":"太秦多薮町","town_kana":"ウズマサタヤブチョウ","prefecture_code":26},"8174":{"zip_code":"6168174","prefecture":"京都府","prefecture_kana":"キョウトフ","city":"京都市右京区","city_kana":"キョウトシウキョウク","town":"太秦垂箕山町","town_kana":"ウズマサタルミヤマチョウ","prefecture_code":26},"8124":{"zip_code":"6168124","prefecture":"京都府","prefecture_kana":"キョウトフ","city":"京都市右京区","city_kana":"キョウトシウキョウク","town":"太秦辻ケ本町","town_kana":"ウズマサツジガモトチョウ","prefecture_code":26},"8147":{"zip_code":"6168147","prefecture":"京都府","prefecture_kana":"キョウトフ","city":"京都市右京区","city_kana":"キョウトシウキョウク","town":"太秦土本町","town_kana":"ウズマサツチモトチョウ","prefecture_code":26},"8184":{"zip_code":"6168184","prefecture":"京都府","prefecture_kana":"キョウトフ","city":"京都市右京区","city_kana":"キョウトシウキョウク","town":"太秦中筋町","town_kana":"ウズマサナカスジチョウ","prefecture_code":26},"8133":{"zip_code":"6168133","prefecture":"京都府","prefecture_kana":"キョウトフ","city":"京都市右京区","city_kana":"キョウトシウキョウク","town":"太秦中堤町","town_kana":"ウズマサナカツツミチョウ","prefecture_code":26},"8191":{"zip_code":"6168191","prefecture":"京都府","prefecture_kana":"キョウトフ","city":"京都市右京区","city_kana":"キョウトシウキョウク","town":"太秦中山町","town_kana":"ウズマサナカヤマチョウ","prefecture_code":26},"8156":{"zip_code":"6168156","prefecture":"京都府","prefecture_kana":"キョウトフ","city":"京都市右京区","city_kana":"キョウトシウキョウク","town":"太秦西野町","town_kana":"ウズマサニシノチョウ","prefecture_code":26},"8163":{"zip_code":"6168163","prefecture":"京都府","prefecture_kana":"キョウトフ","city":"京都市右京区","city_kana":"キョウトシウキョウク","town":"太秦西蜂岡町","town_kana":"ウズマサニシハチオカチョウ","prefecture_code":26},"8113":{"zip_code":"6168113","prefecture":"京都府","prefecture_kana":"キョウトフ","city":"京都市右京区","city_kana":"キョウトシウキョウク","town":"太秦野元町","town_kana":"ウズマサノモトチョウ","prefecture_code":26},"8155":{"zip_code":"6168155","prefecture":"京都府","prefecture_kana":"キョウトフ","city":"京都市右京区","city_kana":"キョウトシウキョウク","town":"太秦袴田町","town_kana":"ウズマサハカマダチョウ","prefecture_code":26},"8162":{"zip_code":"6168162","prefecture":"京都府","prefecture_kana":"キョウトフ","city":"京都市右京区","city_kana":"キョウトシウキョウク","town":"太秦蜂岡町","town_kana":"ウズマサハチオカチョウ","prefecture_code":26},"8145":{"zip_code":"6168145","prefecture":"京都府","prefecture_kana":"キョウトフ","city":"京都市右京区","city_kana":"キョウトシウキョウク","town":"太秦八反田町","town_kana":"ウズマサハッタンダチョウ","prefecture_code":26},"8115":{"zip_code":"6168115","prefecture":"京都府","prefecture_kana":"キョウトフ","city":"京都市右京区","city_kana":"キョウトシウキョウク","town":"太秦東唐渡町","town_kana":"ウズマサヒガシカラトチョウ","prefecture_code":26},"8161":{"zip_code":"6168161","prefecture":"京都府","prefecture_kana":"キョウトフ","city":"京都市右京区","city_kana":"キョウトシウキョウク","town":"太秦東蜂岡町","town_kana":"ウズマサヒガシハチオカチョウ","prefecture_code":26},"8142":{"zip_code":"6168142","prefecture":"京都府","prefecture_kana":"キョウトフ","city":"京都市右京区","city_kana":"キョウトシウキョウク","town":"太秦樋ノ内町","town_kana":"ウズマサヒノウチチョウ","prefecture_code":26},"8131":{"zip_code":"6168131","prefecture":"京都府","prefecture_kana":"キョウトフ","city":"京都市右京区","city_kana":"キョウトシウキョウク","town":"太秦藤ケ森町","town_kana":"ウズマサフジガモリチョウ","prefecture_code":26},"8186":{"zip_code":"6168186","prefecture":"京都府","prefecture_kana":"キョウトフ","city":"京都市右京区","city_kana":"キョウトシウキョウク","town":"太秦堀池町","town_kana":"ウズマサホリイケチョウ","prefecture_code":26},"8152":{"zip_code":"6168152","prefecture":"京都府","prefecture_kana":"キョウトフ","city":"京都市右京区","city_kana":"キョウトシウキョウク","town":"太秦堀ケ内町","town_kana":"ウズマサホリガウチチョウ","prefecture_code":26},"8146":{"zip_code":"6168146","prefecture":"京都府","prefecture_kana":"キョウトフ","city":"京都市右京区","city_kana":"キョウトシウキョウク","town":"太秦前ノ田町","town_kana":"ウズマサマエノダチョウ","prefecture_code":26},"8116":{"zip_code":"6168116","prefecture":"京都府","prefecture_kana":"キョウトフ","city":"京都市右京区","city_kana":"キョウトシウキョウク","town":"太秦松本町","town_kana":"ウズマサマツモトチョウ","prefecture_code":26},"8154":{"zip_code":"6168154","prefecture":"京都府","prefecture_kana":"キョウトフ","city":"京都市右京区","city_kana":"キョウトシウキョウク","town":"太秦皆正寺町","town_kana":"ウズマサミナセイジチョウ","prefecture_code":26},"8183":{"zip_code":"6168183","prefecture":"京都府","prefecture_kana":"キョウトフ","city":"京都市右京区","city_kana":"キョウトシウキョウク","town":"太秦宮ノ前町","town_kana":"ウズマサミヤノマエチョウ","prefecture_code":26},"8106":{"zip_code":"6168106","prefecture":"京都府","prefecture_kana":"キョウトフ","city":"京都市右京区","city_kana":"キョウトシウキョウク","town":"太秦森ケ西町","town_kana":"ウズマサモリガニシチョウ","prefecture_code":26},"8102":{"zip_code":"6168102","prefecture":"京都府","prefecture_kana":"キョウトフ","city":"京都市右京区","city_kana":"キョウトシウキョウク","town":"太秦森ケ東町","town_kana":"ウズマサモリガヒガシチョウ","prefecture_code":26},"8105":{"zip_code":"6168105","prefecture":"京都府","prefecture_kana":"キョウトフ","city":"京都市右京区","city_kana":"キョウトシウキョウク","town":"太秦森ケ前町","town_kana":"ウズマサモリガマエチョウ","prefecture_code":26},"8117":{"zip_code":"6168117","prefecture":"京都府","prefecture_kana":"キョウトフ","city":"京都市右京区","city_kana":"キョウトシウキョウク","town":"太秦門田町","town_kana":"ウズマサモンダチョウ","prefecture_code":26},"8144":{"zip_code":"6168144","prefecture":"京都府","prefecture_kana":"キョウトフ","city":"京都市右京区","city_kana":"キョウトシウキョウク","town":"太秦百合ケ本町","town_kana":"ウズマサユリガモトチョウ","prefecture_code":26},"8081":{"zip_code":"6168081","prefecture":"京都府","prefecture_kana":"キョウトフ","city":"京都市右京区","city_kana":"キョウトシウキョウク","town":"太秦安井池田町","town_kana":"ウズマサヤスイイケダチョウ","prefecture_code":26},"8084":{"zip_code":"6168084","prefecture":"京都府","prefecture_kana":"キョウトフ","city":"京都市右京区","city_kana":"キョウトシウキョウク","town":"太秦安井一町田町","town_kana":"ウズマサヤスイイッチョウデンチョウ","prefecture_code":26},"8077":{"zip_code":"6168077","prefecture":"京都府","prefecture_kana":"キョウトフ","city":"京都市右京区","city_kana":"キョウトシウキョウク","town":"太秦安井馬塚町","town_kana":"ウズマサヤスイウマヅカチョウ","prefecture_code":26},"8082":{"zip_code":"6168082","prefecture":"京都府","prefecture_kana":"キョウトフ","city":"京都市右京区","city_kana":"キョウトシウキョウク","town":"太秦安井奥畑町","town_kana":"ウズマサヤスイオクハタチョウ","prefecture_code":26},"8062":{"zip_code":"6168062","prefecture":"京都府","prefecture_kana":"キョウトフ","city":"京都市右京区","city_kana":"キョウトシウキョウク","town":"太秦安井春日町","town_kana":"ウズマサヤスイカスガチョウ","prefecture_code":26},"8064":{"zip_code":"6168064","prefecture":"京都府","prefecture_kana":"キョウトフ","city":"京都市右京区","city_kana":"キョウトシウキョウク","town":"太秦安井北御所町","town_kana":"ウズマサヤスイキタゴショチョウ","prefecture_code":26},"8066":{"zip_code":"6168066","prefecture":"京都府","prefecture_kana":"キョウトフ","city":"京都市右京区","city_kana":"キョウトシウキョウク","town":"太秦安井車道町","town_kana":"ウズマサヤスイクルマミチチョウ","prefecture_code":26},"8067":{"zip_code":"6168067","prefecture":"京都府","prefecture_kana":"キョウトフ","city":"京都市右京区","city_kana":"キョウトシウキョウク","town":"太秦安井小山町","town_kana":"ウズマサヤスイコヤマチョウ","prefecture_code":26},"8072":{"zip_code":"6168072","prefecture":"京都府","prefecture_kana":"キョウトフ","city":"京都市右京区","city_kana":"キョウトシウキョウク","town":"太秦安井辰巳町","town_kana":"ウズマサヤスイタツミチョウ","prefecture_code":26},"8076":{"zip_code":"6168076","prefecture":"京都府","prefecture_kana":"キョウトフ","city":"京都市右京区","city_kana":"キョウトシウキョウク","town":"太秦安井辻ノ内町","town_kana":"ウズマサヤスイツジノウチチョウ","prefecture_code":26},"8065":{"zip_code":"6168065","prefecture":"京都府","prefecture_kana":"キョウトフ","city":"京都市右京区","city_kana":"キョウトシウキョウク","town":"太秦安井西裏町","town_kana":"ウズマサヤスイニシウラチョウ","prefecture_code":26},"8083":{"zip_code":"6168083","prefecture":"京都府","prefecture_kana":"キョウトフ","city":"京都市右京区","city_kana":"キョウトシウキョウク","town":"太秦安井西沢町","town_kana":"ウズマサヤスイニシザワチョウ","prefecture_code":26},"8074":{"zip_code":"6168074","prefecture":"京都府","prefecture_kana":"キョウトフ","city":"京都市右京区","city_kana":"キョウトシウキョウク","town":"太秦安井二条裏町","town_kana":"ウズマサヤスイニジョウウラチョウ","prefecture_code":26},"8063":{"zip_code":"6168063","prefecture":"京都府","prefecture_kana":"キョウトフ","city":"京都市右京区","city_kana":"キョウトシウキョウク","town":"太秦安井東裏町","town_kana":"ウズマサヤスイヒガシウラチョウ","prefecture_code":26},"8071":{"zip_code":"6168071","prefecture":"京都府","prefecture_kana":"キョウトフ","city":"京都市右京区","city_kana":"キョウトシウキョウク","town":"太秦安井藤ノ木町","town_kana":"ウズマサヤスイフジノキチョウ","prefecture_code":26},"8085":{"zip_code":"6168085","prefecture":"京都府","prefecture_kana":"キョウトフ","city":"京都市右京区","city_kana":"キョウトシウキョウク","town":"太秦安井松本町","town_kana":"ウズマサヤスイマツモトチョウ","prefecture_code":26},"8073":{"zip_code":"6168073","prefecture":"京都府","prefecture_kana":"キョウトフ","city":"京都市右京区","city_kana":"キョウトシウキョウク","town":"太秦安井水戸田町","town_kana":"ウズマサヤスイミトデンチョウ","prefecture_code":26},"8075":{"zip_code":"6168075","prefecture":"京都府","prefecture_kana":"キョウトフ","city":"京都市右京区","city_kana":"キョウトシウキョウク","town":"太秦安井柳通町","town_kana":"ウズマサヤスイヤナギドオリチョウ","prefecture_code":26},"8204":{"zip_code":"6168204","prefecture":"京都府","prefecture_kana":"キョウトフ","city":"京都市右京区","city_kana":"キョウトシウキョウク","town":"宇多野御池町","town_kana":"ウタノオイケチョウ","prefecture_code":26},"8205":{"zip_code":"6168205","prefecture":"京都府","prefecture_kana":"キョウトフ","city":"京都市右京区","city_kana":"キョウトシウキョウク","town":"宇多野御屋敷町","town_kana":"ウタノオヤシキチョウ","prefecture_code":26},"8252":{"zip_code":"6168252","prefecture":"京都府","prefecture_kana":"キョウトフ","city":"京都市右京区","city_kana":"キョウトシウキョウク","town":"宇多野上ノ谷町","town_kana":"ウタノカミノタニチョウ","prefecture_code":26},"8201":{"zip_code":"6168201","prefecture":"京都府","prefecture_kana":"キョウトフ","city":"京都市右京区","city_kana":"キョウトシウキョウク","town":"宇多野北ノ院町","town_kana":"ウタノキタノインチョウ","prefecture_code":26},"8203":{"zip_code":"6168203","prefecture":"京都府","prefecture_kana":"キョウトフ","city":"京都市右京区","city_kana":"キョウトシウキョウク","town":"宇多野柴橋町","town_kana":"ウタノシバハシチョウ","prefecture_code":26},"8209":{"zip_code":"6168209","prefecture":"京都府","prefecture_kana":"キョウトフ","city":"京都市右京区","city_kana":"キョウトシウキョウク","town":"宇多野芝町","town_kana":"ウタノシバマチ","prefecture_code":26},"8207":{"zip_code":"6168207","prefecture":"京都府","prefecture_kana":"キョウトフ","city":"京都市右京区","city_kana":"キョウトシウキョウク","town":"宇多野長尾町","town_kana":"ウタノナガオチョウ","prefecture_code":26},"8202":{"zip_code":"6168202","prefecture":"京都府","prefecture_kana":"キョウトフ","city":"京都市右京区","city_kana":"キョウトシウキョウク","town":"宇多野馬場町","town_kana":"ウタノババチョウ","prefecture_code":26},"8208":{"zip_code":"6168208","prefecture":"京都府","prefecture_kana":"キョウトフ","city":"京都市右京区","city_kana":"キョウトシウキョウク","town":"宇多野福王子町","town_kana":"ウタノフクオウジチョウ","prefecture_code":26},"8206":{"zip_code":"6168206","prefecture":"京都府","prefecture_kana":"キョウトフ","city":"京都市右京区","city_kana":"キョウトシウキョウク","town":"宇多野法安寺町","town_kana":"ウタノホウアンジチョウ","prefecture_code":26},"8272":{"zip_code":"6168272","prefecture":"京都府","prefecture_kana":"キョウトフ","city":"京都市右京区","city_kana":"キョウトシウキョウク","town":"梅ケ畑猪ノ尻町","town_kana":"ウメガハタイノシリチョウ","prefecture_code":26},"8282":{"zip_code":"6168282","prefecture":"京都府","prefecture_kana":"キョウトフ","city":"京都市右京区","city_kana":"キョウトシウキョウク","town":"梅ケ畑上砥町","town_kana":"ウメガハタウエトチョウ","prefecture_code":26},"8274":{"zip_code":"6168274","prefecture":"京都府","prefecture_kana":"キョウトフ","city":"京都市右京区","city_kana":"キョウトシウキョウク","town":"梅ケ畑上ノ町","town_kana":"ウメガハタウエノチョウ","prefecture_code":26},"8283":{"zip_code":"6168283","prefecture":"京都府","prefecture_kana":"キョウトフ","city":"京都市右京区","city_kana":"キョウトシウキョウク","town":"梅ケ畑奥殿町","town_kana":"ウメガハタオクトノチョウ","prefecture_code":26},"8275":{"zip_code":"6168275","prefecture":"京都府","prefecture_kana":"キョウトフ","city":"京都市右京区","city_kana":"キョウトシウキョウク","town":"梅ケ畑篝町","town_kana":"ウメガハタカガリチョウ","prefecture_code":26},"8297":{"zip_code":"6168297","prefecture":"京都府","prefecture_kana":"キョウトフ","city":"京都市右京区","city_kana":"キョウトシウキョウク","town":"梅ケ畑亀石町","town_kana":"ウメガハタカメイシチョウ","prefecture_code":26},"8296":{"zip_code":"6168296","prefecture":"京都府","prefecture_kana":"キョウトフ","city":"京都市右京区","city_kana":"キョウトシウキョウク","town":"梅ケ畑川西町","town_kana":"ウメガハタカワニシチョウ","prefecture_code":26},"8281":{"zip_code":"6168281","prefecture":"京都府","prefecture_kana":"キョウトフ","city":"京都市右京区","city_kana":"キョウトシウキョウク","town":"梅ケ畑久保谷町","town_kana":"ウメガハタクボタニチョウ","prefecture_code":26},"8286":{"zip_code":"6168286","prefecture":"京都府","prefecture_kana":"キョウトフ","city":"京都市右京区","city_kana":"キョウトシウキョウク","town":"梅ケ畑御所ノ口町","town_kana":"ウメガハタゴショノグチチョウ","prefecture_code":26},"8288":{"zip_code":"6168288","prefecture":"京都府","prefecture_kana":"キョウトフ","city":"京都市右京区","city_kana":"キョウトシウキョウク","town":"梅ケ畑笹江辺町","town_kana":"ウメガハタササエベチョウ","prefecture_code":26},"8276":{"zip_code":"6168276","prefecture":"京都府","prefecture_kana":"キョウトフ","city":"京都市右京区","city_kana":"キョウトシウキョウク","town":"梅ケ畑清水町","town_kana":"ウメガハタシミズチョウ","prefecture_code":26},"8278":{"zip_code":"6168278","prefecture":"京都府","prefecture_kana":"キョウトフ","city":"京都市右京区","city_kana":"キョウトシウキョウク","town":"梅ケ畑菖蒲谷","town_kana":"ウメガハタショウブタニ","prefecture_code":26},"8292":{"zip_code":"6168292","prefecture":"京都府","prefecture_kana":"キョウトフ","city":"京都市右京区","city_kana":"キョウトシウキョウク","town":"梅ケ畑高雄町","town_kana":"ウメガハタタカオチョウ","prefecture_code":26},"8261":{"zip_code":"6168261","prefecture":"京都府","prefecture_kana":"キョウトフ","city":"京都市右京区","city_kana":"キョウトシウキョウク","town":"梅ケ畑高鼻町","town_kana":"ウメガハタタカハナチョウ","prefecture_code":26},"8295":{"zip_code":"6168295","prefecture":"京都府","prefecture_kana":"キョウトフ","city":"京都市右京区","city_kana":"キョウトシウキョウク","town":"梅ケ畑栂尾町","town_kana":"ウメガハタトガノオチョウ","prefecture_code":26},"8293":{"zip_code":"6168293","prefecture":"京都府","prefecture_kana":"キョウトフ","city":"京都市右京区","city_kana":"キョウトシウキョウク","town":"梅ケ畑殿畑町","town_kana":"ウメガハタトノハタチョウ","prefecture_code":26},"8287":{"zip_code":"6168287","prefecture":"京都府","prefecture_kana":"キョウトフ","city":"京都市右京区","city_kana":"キョウトシウキョウク","town":"梅ケ畑中嶋町","town_kana":"ウメガハタナカジマチョウ","prefecture_code":26},"8266":{"zip_code":"6168266","prefecture":"京都府","prefecture_kana":"キョウトフ","city":"京都市右京区","city_kana":"キョウトシウキョウク","town":"梅ケ畑中田町","town_kana":"ウメガハタナカタチョウ","prefecture_code":26},"8273":{"zip_code":"6168273","prefecture":"京都府","prefecture_kana":"キョウトフ","city":"京都市右京区","city_kana":"キョウトシウキョウク","town":"梅ケ畑中縄手町","town_kana":"ウメガハタナカナワテチョウ","prefecture_code":26},"8289":{"zip_code":"6168289","prefecture":"京都府","prefecture_kana":"キョウトフ","city":"京都市右京区","city_kana":"キョウトシウキョウク","town":"梅ケ畑西ノ畑町","town_kana":"ウメガハタニシノハタマチ","prefecture_code":26},"8263":{"zip_code":"6168263","prefecture":"京都府","prefecture_kana":"キョウトフ","city":"京都市右京区","city_kana":"キョウトシウキョウク","town":"梅ケ畑畑ノ下町","town_kana":"ウメガハタハタノシタチョウ","prefecture_code":26},"8265":{"zip_code":"6168265","prefecture":"京都府","prefecture_kana":"キョウトフ","city":"京都市右京区","city_kana":"キョウトシウキョウク","town":"梅ケ畑畑町","town_kana":"ウメガハタハタマチ","prefecture_code":26},"8294":{"zip_code":"6168294","prefecture":"京都府","prefecture_kana":"キョウトフ","city":"京都市右京区","city_kana":"キョウトシウキョウク","town":"梅ケ畑引地町","town_kana":"ウメガハタヒキジチョウ","prefecture_code":26},"8285":{"zip_code":"6168285","prefecture":"京都府","prefecture_kana":"キョウトフ","city":"京都市右京区","city_kana":"キョウトシウキョウク","town":"梅ケ畑檜社町","town_kana":"ウメガハタヒノキヤシロチョウ","prefecture_code":26},"8277":{"zip_code":"6168277","prefecture":"京都府","prefecture_kana":"キョウトフ","city":"京都市右京区","city_kana":"キョウトシウキョウク","town":"梅ケ畑広芝町","town_kana":"ウメガハタヒロシバチョウ","prefecture_code":26},"8268":{"zip_code":"6168268","prefecture":"京都府","prefecture_kana":"キョウトフ","city":"京都市右京区","city_kana":"キョウトシウキョウク","town":"梅ケ畑古田町","town_kana":"ウメガハタフルタチョウ","prefecture_code":26},"8291":{"zip_code":"6168291","prefecture":"京都府","prefecture_kana":"キョウトフ","city":"京都市右京区","city_kana":"キョウトシウキョウク","town":"梅ケ畑槇尾町","town_kana":"ウメガハタマキノオチョウ","prefecture_code":26},"8284":{"zip_code":"6168284","prefecture":"京都府","prefecture_kana":"キョウトフ","city":"京都市右京区","city_kana":"キョウトシウキョウク","town":"梅ケ畑御経坂町","town_kana":"ウメガハタミキョウサカチョウ","prefecture_code":26},"8271":{"zip_code":"6168271","prefecture":"京都府","prefecture_kana":"キョウトフ","city":"京都市右京区","city_kana":"キョウトシウキョウク","town":"梅ケ畑宮ノ口町","town_kana":"ウメガハタミヤノクチチョウ","prefecture_code":26},"8262":{"zip_code":"6168262","prefecture":"京都府","prefecture_kana":"キョウトフ","city":"京都市右京区","city_kana":"キョウトシウキョウク","town":"梅ケ畑向ノ地町","town_kana":"ウメガハタムコウノチチョウ","prefecture_code":26},"8264":{"zip_code":"6168264","prefecture":"京都府","prefecture_kana":"キョウトフ","city":"京都市右京区","city_kana":"キョウトシウキョウク","town":"梅ケ畑薮ノ下町","town_kana":"ウメガハタヤブノシタチョウ","prefecture_code":26},"8267":{"zip_code":"6168267","prefecture":"京都府","prefecture_kana":"キョウトフ","city":"京都市右京区","city_kana":"キョウトシウキョウク","town":"梅ケ畑山崎町","town_kana":"ウメガハタヤマサキチョウ","prefecture_code":26},"8092":{"zip_code":"6168092","prefecture":"京都府","prefecture_kana":"キョウトフ","city":"京都市右京区","city_kana":"キョウトシウキョウク","town":"御室大内","town_kana":"オムロオオウチ","prefecture_code":26},"8096":{"zip_code":"6168096","prefecture":"京都府","prefecture_kana":"キョウトフ","city":"京都市右京区","city_kana":"キョウトシウキョウク","town":"御室岡ノ裾町","town_kana":"オムロオカノスソチョウ","prefecture_code":26},"8094":{"zip_code":"6168094","prefecture":"京都府","prefecture_kana":"キョウトフ","city":"京都市右京区","city_kana":"キョウトシウキョウク","town":"御室小松野町","town_kana":"オムロコマツノチョウ","prefecture_code":26},"8095":{"zip_code":"6168095","prefecture":"京都府","prefecture_kana":"キョウトフ","city":"京都市右京区","city_kana":"キョウトシウキョウク","town":"御室芝橋町","town_kana":"オムロシバハシチョウ","prefecture_code":26},"8091":{"zip_code":"6168091","prefecture":"京都府","prefecture_kana":"キョウトフ","city":"京都市右京区","city_kana":"キョウトシウキョウク","town":"御室住吉山町","town_kana":"オムロスミヨシヤマチョウ","prefecture_code":26},"8093":{"zip_code":"6168093","prefecture":"京都府","prefecture_kana":"キョウトフ","city":"京都市右京区","city_kana":"キョウトシウキョウク","town":"御室竪町","town_kana":"オムロタテマチ","prefecture_code":26},"8097":{"zip_code":"6168097","prefecture":"京都府","prefecture_kana":"キョウトフ","city":"京都市右京区","city_kana":"キョウトシウキョウク","town":"御室双岡町","town_kana":"オムロナラビガオカチョウ","prefecture_code":26},"8245":{"zip_code":"6168245","prefecture":"京都府","prefecture_kana":"キョウトフ","city":"京都市右京区","city_kana":"キョウトシウキョウク","town":"音戸山山ノ茶屋町","town_kana":"オンドヤマヤマノチャヤチョウ","prefecture_code":26},"8407":{"zip_code":"6168407","prefecture":"京都府","prefecture_kana":"キョウトフ","city":"京都市右京区","city_kana":"キョウトシウキョウク","town":"北嵯峨赤坂町","town_kana":"キタサガアカサカチョウ","prefecture_code":26},"8441":{"zip_code":"6168441","prefecture":"京都府","prefecture_kana":"キョウトフ","city":"京都市右京区","city_kana":"キョウトシウキョウク","town":"北嵯峨北ノ段町","town_kana":"キタサガキタノダンチョウ","prefecture_code":26},"8442":{"zip_code":"6168442","prefecture":"京都府","prefecture_kana":"キョウトフ","city":"京都市右京区","city_kana":"キョウトシウキョウク","town":"北嵯峨気比社町","town_kana":"キタサガキビシャチョウ","prefecture_code":26},"8406":{"zip_code":"6168406","prefecture":"京都府","prefecture_kana":"キョウトフ","city":"京都市右京区","city_kana":"キョウトシウキョウク","town":"北嵯峨山王町","town_kana":"キタサガサンオウチョウ","prefecture_code":26},"8401":{"zip_code":"6168401","prefecture":"京都府","prefecture_kana":"キョウトフ","city":"京都市右京区","city_kana":"キョウトシウキョウク","town":"北嵯峨長刀坂町","town_kana":"キタサガナギナタザカチョウ","prefecture_code":26},"8405":{"zip_code":"6168405","prefecture":"京都府","prefecture_kana":"キョウトフ","city":"京都市右京区","city_kana":"キョウトシウキョウク","town":"北嵯峨名古曽町","town_kana":"キタサガナコソチョウ","prefecture_code":26},"8404":{"zip_code":"6168404","prefecture":"京都府","prefecture_kana":"キョウトフ","city":"京都市右京区","city_kana":"キョウトシウキョウク","town":"北嵯峨八丈町","town_kana":"キタサガハチジョウチョウ","prefecture_code":26},"8403":{"zip_code":"6168403","prefecture":"京都府","prefecture_kana":"キョウトフ","city":"京都市右京区","city_kana":"キョウトシウキョウク","town":"北嵯峨洞ノ内町","town_kana":"キタサガホラノウチチョウ","prefecture_code":26},"8402":{"zip_code":"6168402","prefecture":"京都府","prefecture_kana":"キョウトフ","city":"京都市右京区","city_kana":"キョウトシウキョウク","town":"北嵯峨六代芝町","town_kana":"キタサガロクダイシバチョウ","prefecture_code":26},"8343":{"zip_code":"6168343","prefecture":"京都府","prefecture_kana":"キョウトフ","city":"京都市右京区","city_kana":"キョウトシウキョウク","town":"嵯峨朝日町","town_kana":"サガアサヒチョウ","prefecture_code":26},"8458":{"zip_code":"6168458","prefecture":"京都府","prefecture_kana":"キョウトフ","city":"京都市右京区","city_kana":"キョウトシウキョウク","town":"嵯峨愛宕町","town_kana":"サガアタゴチョウ","prefecture_code":26},"8335":{"zip_code":"6168335","prefecture":"京都府","prefecture_kana":"キョウトフ","city":"京都市右京区","city_kana":"キョウトシウキョウク","town":"嵯峨石ケ坪町","town_kana":"サガイシガツボチョウ","prefecture_code":26},"8365":{"zip_code":"6168365","prefecture":"京都府","prefecture_kana":"キョウトフ","city":"京都市右京区","city_kana":"キョウトシウキョウク","town":"嵯峨伊勢ノ上町","town_kana":"サガイセノカミチョウ","prefecture_code":26},"8354":{"zip_code":"6168354","prefecture":"京都府","prefecture_kana":"キョウトフ","city":"京都市右京区","city_kana":"キョウトシウキョウク","town":"嵯峨一本木町","town_kana":"サガイッポンギチョウ","prefecture_code":26},"8344":{"zip_code":"6168344","prefecture":"京都府","prefecture_kana":"キョウトフ","city":"京都市右京区","city_kana":"キョウトシウキョウク","town":"嵯峨梅ノ木町","town_kana":"サガウメノキチョウ","prefecture_code":26},"8411":{"zip_code":"6168411","prefecture":"京都府","prefecture_kana":"キョウトフ","city":"京都市右京区","city_kana":"キョウトシウキョウク","town":"嵯峨大沢町","town_kana":"サガオオサワチョウ","prefecture_code":26},"8395":{"zip_code":"6168395","prefecture":"京都府","prefecture_kana":"キョウトフ","city":"京都市右京区","city_kana":"キョウトシウキョウク","town":"嵯峨小倉山町","town_kana":"サガオグラヤマチョウ","prefecture_code":26},"8345":{"zip_code":"6168345","prefecture":"京都府","prefecture_kana":"キョウトフ","city":"京都市右京区","city_kana":"キョウトシウキョウク","town":"嵯峨折戸町","town_kana":"サガオリトチョウ","prefecture_code":26},"8341":{"zip_code":"6168341","prefecture":"京都府","prefecture_kana":"キョウトフ","city":"京都市右京区","city_kana":"キョウトシウキョウク","town":"嵯峨甲塚町","town_kana":"サガカブトヅカチョウ","prefecture_code":26},"8386":{"zip_code":"6168386","prefecture":"京都府","prefecture_kana":"キョウトフ","city":"京都市右京区","city_kana":"キョウトシウキョウク","town":"嵯峨亀ノ尾町","town_kana":"サガカメノオチョウ","prefecture_code":26},"8387":{"zip_code":"6168387","prefecture":"京都府","prefecture_kana":"キョウトフ","city":"京都市右京区","city_kana":"キョウトシウキョウク","town":"嵯峨亀山町","town_kana":"サガカメヤマチョウ","prefecture_code":26},"8342":{"zip_code":"6168342","prefecture":"京都府","prefecture_kana":"キョウトフ","city":"京都市右京区","city_kana":"キョウトシウキョウク","town":"嵯峨苅分町","town_kana":"サガカリワケチョウ","prefecture_code":26},"8367":{"zip_code":"6168367","prefecture":"京都府","prefecture_kana":"キョウトフ","city":"京都市右京区","city_kana":"キョウトシウキョウク","town":"嵯峨北堀町","town_kana":"サガキタボリチョウ","prefecture_code":26},"8452":{"zip_code":"6168452","prefecture":"京都府","prefecture_kana":"キョウトフ","city":"京都市右京区","city_kana":"キョウトシウキョウク","town":"嵯峨清滝町","town_kana":"サガキヨタキチョウ","prefecture_code":26},"8362":{"zip_code":"6168362","prefecture":"京都府","prefecture_kana":"キョウトフ","city":"京都市右京区","city_kana":"キョウトシウキョウク","town":"嵯峨五島町","town_kana":"サガゴトウチョウ","prefecture_code":26},"8355":{"zip_code":"6168355","prefecture":"京都府","prefecture_kana":"キョウトフ","city":"京都市右京区","city_kana":"キョウトシウキョウク","town":"嵯峨新宮町","town_kana":"サガシングウチョウ","prefecture_code":26},"8351":{"zip_code":"6168351","prefecture":"京都府","prefecture_kana":"キョウトフ","city":"京都市右京区","city_kana":"キョウトシウキョウク","town":"嵯峨釣殿町","town_kana":"サガツリドノチョウ","prefecture_code":26},"8336":{"zip_code":"6168336","prefecture":"京都府","prefecture_kana":"キョウトフ","city":"京都市右京区","city_kana":"キョウトシウキョウク","town":"嵯峨蜻蛉尻町","town_kana":"サガトンボジリチョウ","prefecture_code":26},"8361":{"zip_code":"6168361","prefecture":"京都府","prefecture_kana":"キョウトフ","city":"京都市右京区","city_kana":"キョウトシウキョウク","town":"嵯峨中通町","town_kana":"サガナカドオリチョウ","prefecture_code":26},"8383":{"zip_code":"6168383","prefecture":"京都府","prefecture_kana":"キョウトフ","city":"京都市右京区","city_kana":"キョウトシウキョウク","town":"嵯峨中之島町","town_kana":"サガナカノシマチョウ","prefecture_code":26},"8347":{"zip_code":"6168347","prefecture":"京都府","prefecture_kana":"キョウトフ","city":"京都市右京区","city_kana":"キョウトシウキョウク","town":"嵯峨中又町","town_kana":"サガナカマタチョウ","prefecture_code":26},"8364":{"zip_code":"6168364","prefecture":"京都府","prefecture_kana":"キョウトフ","city":"京都市右京区","city_kana":"キョウトシウキョウク","town":"嵯峨中山町","town_kana":"サガナカヤマチョウ","prefecture_code":26},"8393":{"zip_code":"6168393","prefecture":"京都府","prefecture_kana":"キョウトフ","city":"京都市右京区","city_kana":"キョウトシウキョウク","town":"嵯峨野々宮町","town_kana":"サガノノミヤチョウ","prefecture_code":26},"8301":{"zip_code":"6168301","prefecture":"京都府","prefecture_kana":"キョウトフ","city":"京都市右京区","city_kana":"キョウトシウキョウク","town":"嵯峨広沢町","town_kana":"サガヒロサワチョウ","prefecture_code":26},"8334":{"zip_code":"6168334","prefecture":"京都府","prefecture_kana":"キョウトフ","city":"京都市右京区","city_kana":"キョウトシウキョウク","town":"嵯峨罧原町","town_kana":"サガフシハラチョウ","prefecture_code":26},"8337":{"zip_code":"6168337","prefecture":"京都府","prefecture_kana":"キョウトフ","city":"京都市右京区","city_kana":"キョウトシウキョウク","town":"嵯峨明星町","town_kana":"サガミョウジョウチョウ","prefecture_code":26},"8363":{"zip_code":"6168363","prefecture":"京都府","prefecture_kana":"キョウトフ","city":"京都市右京区","city_kana":"キョウトシウキョウク","town":"嵯峨柳田町","town_kana":"サガヤナギダチョウ","prefecture_code":26},"8352":{"zip_code":"6168352","prefecture":"京都府","prefecture_kana":"キョウトフ","city":"京都市右京区","city_kana":"キョウトシウキョウク","town":"嵯峨大沢落久保町","town_kana":"サガオオサワオチクボチョウ","prefecture_code":26},"8353":{"zip_code":"6168353","prefecture":"京都府","prefecture_kana":"キョウトフ","city":"京都市右京区","city_kana":"キョウトシウキョウク","town":"嵯峨大沢柳井手町","town_kana":"サガオオサワヤナギイデチョウ","prefecture_code":26},"8397":{"zip_code":"6168397","prefecture":"京都府","prefecture_kana":"キョウトフ","city":"京都市右京区","city_kana":"キョウトシウキョウク","town":"嵯峨小倉山小倉町","town_kana":"サガオグラヤマオグラチョウ","prefecture_code":26},"8394":{"zip_code":"6168394","prefecture":"京都府","prefecture_kana":"キョウトフ","city":"京都市右京区","city_kana":"キョウトシウキョウク","town":"嵯峨小倉山田渕山町","town_kana":"サガオグラヤマタブチヤマチョウ","prefecture_code":26},"8392":{"zip_code":"6168392","prefecture":"京都府","prefecture_kana":"キョウトフ","city":"京都市右京区","city_kana":"キョウトシウキョウク","town":"嵯峨小倉山堂ノ前町","town_kana":"サガオグラヤマドウノマエチョウ","prefecture_code":26},"8391":{"zip_code":"6168391","prefecture":"京都府","prefecture_kana":"キョウトフ","city":"京都市右京区","city_kana":"キョウトシウキョウク","town":"嵯峨小倉山緋明神町","town_kana":"サガオグラヤマヒノミョウジンチョウ","prefecture_code":26},"8396":{"zip_code":"6168396","prefecture":"京都府","prefecture_kana":"キョウトフ","city":"京都市右京区","city_kana":"キョウトシウキョウク","town":"嵯峨小倉山山本町","town_kana":"サガオグラヤマヤマモトチョウ","prefecture_code":26},"8445":{"zip_code":"6168445","prefecture":"京都府","prefecture_kana":"キョウトフ","city":"京都市右京区","city_kana":"キョウトシウキョウク","town":"嵯峨観空寺岡崎町","town_kana":"サガカンクウジオカザキチョウ","prefecture_code":26},"8444":{"zip_code":"6168444","prefecture":"京都府","prefecture_kana":"キョウトフ","city":"京都市右京区","city_kana":"キョウトシウキョウク","town":"嵯峨観空寺久保殿町","town_kana":"サガカンクウジクボデンチョウ","prefecture_code":26},"8446":{"zip_code":"6168446","prefecture":"京都府","prefecture_kana":"キョウトフ","city":"京都市右京区","city_kana":"キョウトシウキョウク","town":"嵯峨観空寺谷町","town_kana":"サガカンクウジダニチョウ","prefecture_code":26},"8443":{"zip_code":"6168443","prefecture":"京都府","prefecture_kana":"キョウトフ","city":"京都市右京区","city_kana":"キョウトシウキョウク","town":"嵯峨観空寺明水町","town_kana":"サガカンクウジミョウズイチョウ","prefecture_code":26},"8451":{"zip_code":"6168451","prefecture":"京都府","prefecture_kana":"キョウトフ","city":"京都市右京区","city_kana":"キョウトシウキョウク","town":"嵯峨清滝一華表町","town_kana":"サガキヨタキイッカヒョウチョウ","prefecture_code":26},"8453":{"zip_code":"6168453","prefecture":"京都府","prefecture_kana":"キョウトフ","city":"京都市右京区","city_kana":"キョウトシウキョウク","town":"嵯峨清滝大谷町","town_kana":"サガキヨタキオオタニチョウ","prefecture_code":26},"8457":{"zip_code":"6168457","prefecture":"京都府","prefecture_kana":"キョウトフ","city":"京都市右京区","city_kana":"キョウトシウキョウク","town":"嵯峨清滝空也滝町","town_kana":"サガキヨタキクウヤダキチョウ","prefecture_code":26},"8455":{"zip_code":"6168455","prefecture":"京都府","prefecture_kana":"キョウトフ","city":"京都市右京区","city_kana":"キョウトシウキョウク","town":"嵯峨清滝田鶴原町","town_kana":"サガキヨタキタヅハラチョウ","prefecture_code":26},"8456":{"zip_code":"6168456","prefecture":"京都府","prefecture_kana":"キョウトフ","city":"京都市右京区","city_kana":"キョウトシウキョウク","town":"嵯峨清滝月ノ輪町","town_kana":"サガキヨタキツキノワチョウ","prefecture_code":26},"8454":{"zip_code":"6168454","prefecture":"京都府","prefecture_kana":"キョウトフ","city":"京都市右京区","city_kana":"キョウトシウキョウク","town":"嵯峨清滝深谷町","town_kana":"サガキヨタキフカタニチョウ","prefecture_code":26},"8491":{"zip_code":"6168491","prefecture":"京都府","prefecture_kana":"キョウトフ","city":"京都市右京区","city_kana":"キョウトシウキョウク","town":"嵯峨越畑北ノ町","town_kana":"サガコシハタキタノチョウ","prefecture_code":26},"8482":{"zip_code":"6168482","prefecture":"京都府","prefecture_kana":"キョウトフ","city":"京都市右京区","city_kana":"キョウトシウキョウク","town":"嵯峨越畑正権条","town_kana":"サガコシハタショウゴンジョウ","prefecture_code":26},"8494":{"zip_code":"6168494","prefecture":"京都府","prefecture_kana":"キョウトフ","city":"京都市右京区","city_kana":"キョウトシウキョウク","town":"嵯峨越畑尻谷","town_kana":"サガコシハタシリタニ","prefecture_code":26},"8484":{"zip_code":"6168484","prefecture":"京都府","prefecture_kana":"キョウトフ","city":"京都市右京区","city_kana":"キョウトシウキョウク","town":"嵯峨越畑筋違","town_kana":"サガコシハタスジチガイ","prefecture_code":26},"8492":{"zip_code":"6168492","prefecture":"京都府","prefecture_kana":"キョウトフ","city":"京都市右京区","city_kana":"キョウトシウキョウク","town":"嵯峨越畑天慶","town_kana":"サガコシハタテンケイ","prefecture_code":26},"8487":{"zip_code":"6168487","prefecture":"京都府","prefecture_kana":"キョウトフ","city":"京都市右京区","city_kana":"キョウトシウキョウク","town":"嵯峨越畑中ノ町","town_kana":"サガコシハタナカノチョウ","prefecture_code":26},"8483":{"zip_code":"6168483","prefecture":"京都府","prefecture_kana":"キョウトフ","city":"京都市右京区","city_kana":"キョウトシウキョウク","town":"嵯峨越畑鍋浦","town_kana":"サガコシハタナベウラ","prefecture_code":26},"8485":{"zip_code":"6168485","prefecture":"京都府","prefecture_kana":"キョウトフ","city":"京都市右京区","city_kana":"キョウトシウキョウク","town":"嵯峨越畑兵庫前町","town_kana":"サガコシハタヒョウゴマエチョウ","prefecture_code":26},"8486":{"zip_code":"6168486","prefecture":"京都府","prefecture_kana":"キョウトフ","city":"京都市右京区","city_kana":"キョウトシウキョウク","town":"嵯峨越畑南ノ町","town_kana":"サガコシハタミナミノチョウ","prefecture_code":26},"8481":{"zip_code":"6168481","prefecture":"京都府","prefecture_kana":"キョウトフ","city":"京都市右京区","city_kana":"キョウトシウキョウク","town":"嵯峨越畑桃原","town_kana":"サガコシハタモモハラ","prefecture_code":26},"8493":{"zip_code":"6168493","prefecture":"京都府","prefecture_kana":"キョウトフ","city":"京都市右京区","city_kana":"キョウトシウキョウク","town":"嵯峨越畑桃原垣内","town_kana":"サガコシハタモモハラガイチ","prefecture_code":26},"8471":{"zip_code":"6168471","prefecture":"京都府","prefecture_kana":"キョウトフ","city":"京都市右京区","city_kana":"キョウトシウキョウク","town":"嵯峨樒原稲荷元町","town_kana":"サガシキミガハライナリモトチョウ","prefecture_code":26},"8474":{"zip_code":"6168474","prefecture":"京都府","prefecture_kana":"キョウトフ","city":"京都市右京区","city_kana":"キョウトシウキョウク","town":"嵯峨樒原清水町","town_kana":"サガシキミガハラシミズチョウ","prefecture_code":26},"8472":{"zip_code":"6168472","prefecture":"京都府","prefecture_kana":"キョウトフ","city":"京都市右京区","city_kana":"キョウトシウキョウク","town":"嵯峨樒原高見町","town_kana":"サガシキミガハラタカミチョウ","prefecture_code":26},"8475":{"zip_code":"6168475","prefecture":"京都府","prefecture_kana":"キョウトフ","city":"京都市右京区","city_kana":"キョウトシウキョウク","town":"嵯峨樒原宮ノ上町","town_kana":"サガシキミガハラミヤノウエチョウ","prefecture_code":26},"8473":{"zip_code":"6168473","prefecture":"京都府","prefecture_kana":"キョウトフ","city":"京都市右京区","city_kana":"キョウトシウキョウク","town":"嵯峨樒原若宮下町","town_kana":"サガシキミガハラワカミヤシタチョウ","prefecture_code":26},"8422":{"zip_code":"6168422","prefecture":"京都府","prefecture_kana":"キョウトフ","city":"京都市右京区","city_kana":"キョウトシウキョウク","town":"嵯峨釈迦堂大門町","town_kana":"サガシャカドウダイモンチョウ","prefecture_code":26},"8447":{"zip_code":"6168447","prefecture":"京都府","prefecture_kana":"キョウトフ","city":"京都市右京区","city_kana":"キョウトシウキョウク","town":"嵯峨釈迦堂藤ノ木町","town_kana":"サガシャカドウフジノキチョウ","prefecture_code":26},"8423":{"zip_code":"6168423","prefecture":"京都府","prefecture_kana":"キョウトフ","city":"京都市右京区","city_kana":"キョウトシウキョウク","town":"嵯峨釈迦堂門前裏柳町","town_kana":"サガシャカドウモンゼンウラヤナギチョウ","prefecture_code":26},"8421":{"zip_code":"6168421","prefecture":"京都府","prefecture_kana":"キョウトフ","city":"京都市右京区","city_kana":"キョウトシウキョウク","town":"嵯峨釈迦堂門前瀬戸川町","town_kana":"サガシャカドウモンゼンセトガワチョウ","prefecture_code":26},"8424":{"zip_code":"6168424","prefecture":"京都府","prefecture_kana":"キョウトフ","city":"京都市右京区","city_kana":"キョウトシウキョウク","town":"嵯峨釈迦堂門前南中院町","town_kana":"サガシャカドウモンゼンミナミチュウインチョウ","prefecture_code":26},"8416":{"zip_code":"6168416","prefecture":"京都府","prefecture_kana":"キョウトフ","city":"京都市右京区","city_kana":"キョウトシウキョウク","town":"嵯峨大覚寺門前井頭町","town_kana":"サガダイカクジモンゼンイトウチョウ","prefecture_code":26},"8413":{"zip_code":"6168413","prefecture":"京都府","prefecture_kana":"キョウトフ","city":"京都市右京区","city_kana":"キョウトシウキョウク","town":"嵯峨大覚寺門前堂ノ前町","town_kana":"サガダイカクジモンゼンドウノマエチョウ","prefecture_code":26},"8412":{"zip_code":"6168412","prefecture":"京都府","prefecture_kana":"キョウトフ","city":"京都市右京区","city_kana":"キョウトシウキョウク","town":"嵯峨大覚寺門前登り町","town_kana":"サガダイカクジモンゼンノボリチョウ","prefecture_code":26},"8414":{"zip_code":"6168414","prefecture":"京都府","prefecture_kana":"キョウトフ","city":"京都市右京区","city_kana":"キョウトシウキョウク","town":"嵯峨大覚寺門前八軒町","town_kana":"サガダイカクジモンゼンハッケンチョウ","prefecture_code":26},"8415":{"zip_code":"6168415","prefecture":"京都府","prefecture_kana":"キョウトフ","city":"京都市右京区","city_kana":"キョウトシウキョウク","town":"嵯峨大覚寺門前宮ノ下町","town_kana":"サガダイカクジモンゼンミヤノシタチョウ","prefecture_code":26},"8417":{"zip_code":"6168417","prefecture":"京都府","prefecture_kana":"キョウトフ","city":"京都市右京区","city_kana":"キョウトシウキョウク","town":"嵯峨大覚寺門前六道町","town_kana":"サガダイカクジモンゼンロクドウチョウ","prefecture_code":26},"8346":{"zip_code":"6168346","prefecture":"京都府","prefecture_kana":"キョウトフ","city":"京都市右京区","city_kana":"キョウトシウキョウク","town":"嵯峨天龍寺油掛町","town_kana":"サガテンリュウジアブラカケチョウ","prefecture_code":26},"8366":{"zip_code":"6168366","prefecture":"京都府","prefecture_kana":"キョウトフ","city":"京都市右京区","city_kana":"キョウトシウキョウク","town":"嵯峨天龍寺今堀町","town_kana":"サガテンリュウジイマホリチョウ","prefecture_code":26},"8374":{"zip_code":"6168374","prefecture":"京都府","prefecture_kana":"キョウトフ","city":"京都市右京区","city_kana":"キョウトシウキョウク","town":"嵯峨天龍寺北造路町","town_kana":"サガテンリュウジキタツクリミチチョウ","prefecture_code":26},"8373":{"zip_code":"6168373","prefecture":"京都府","prefecture_kana":"キョウトフ","city":"京都市右京区","city_kana":"キョウトシウキョウク","town":"嵯峨天龍寺車道町","town_kana":"サガテンリュウジクルマミチチョウ","prefecture_code":26},"8357":{"zip_code":"6168357","prefecture":"京都府","prefecture_kana":"キョウトフ","city":"京都市右京区","city_kana":"キョウトシウキョウク","town":"嵯峨天龍寺椎野町","town_kana":"サガテンリュウジシイノチョウ","prefecture_code":26},"8385":{"zip_code":"6168385","prefecture":"京都府","prefecture_kana":"キョウトフ","city":"京都市右京区","city_kana":"キョウトシウキョウク","town":"嵯峨天龍寺芒ノ馬場町","town_kana":"サガテンリュウジススキノババチョウ","prefecture_code":26},"8382":{"zip_code":"6168382","prefecture":"京都府","prefecture_kana":"キョウトフ","city":"京都市右京区","city_kana":"キョウトシウキョウク","town":"嵯峨天龍寺角倉町","town_kana":"サガテンリュウジスミノクラチョウ","prefecture_code":26},"8376":{"zip_code":"6168376","prefecture":"京都府","prefecture_kana":"キョウトフ","city":"京都市右京区","city_kana":"キョウトシウキョウク","town":"嵯峨天龍寺瀬戸川町","town_kana":"サガテンリュウジセトガワチョウ","prefecture_code":26},"8375":{"zip_code":"6168375","prefecture":"京都府","prefecture_kana":"キョウトフ","city":"京都市右京区","city_kana":"キョウトシウキョウク","town":"嵯峨天龍寺立石町","town_kana":"サガテンリュウジタテイシチョウ","prefecture_code":26},"8384":{"zip_code":"6168384","prefecture":"京都府","prefecture_kana":"キョウトフ","city":"京都市右京区","city_kana":"キョウトシウキョウク","town":"嵯峨天龍寺造路町","town_kana":"サガテンリュウジツクリミチチョウ","prefecture_code":26},"8356":{"zip_code":"6168356","prefecture":"京都府","prefecture_kana":"キョウトフ","city":"京都市右京区","city_kana":"キョウトシウキョウク","town":"嵯峨天龍寺中島町","town_kana":"サガテンリュウジナカジマチョウ","prefecture_code":26},"8372":{"zip_code":"6168372","prefecture":"京都府","prefecture_kana":"キョウトフ","city":"京都市右京区","city_kana":"キョウトシウキョウク","town":"嵯峨天龍寺広道町","town_kana":"サガテンリュウジヒロミチチョウ","prefecture_code":26},"8381":{"zip_code":"6168381","prefecture":"京都府","prefecture_kana":"キョウトフ","city":"京都市右京区","city_kana":"キョウトシウキョウク","town":"嵯峨天龍寺龍門町","town_kana":"サガテンリュウジリュウモンチョウ","prefecture_code":26},"8371":{"zip_code":"6168371","prefecture":"京都府","prefecture_kana":"キョウトフ","city":"京都市右京区","city_kana":"キョウトシウキョウク","town":"嵯峨天龍寺若宮町","town_kana":"サガテンリュウジワカミヤチョウ","prefecture_code":26},"8436":{"zip_code":"6168436","prefecture":"京都府","prefecture_kana":"キョウトフ","city":"京都市右京区","city_kana":"キョウトシウキョウク","town":"嵯峨鳥居本化野町","town_kana":"サガトリイモトアダシノチョウ","prefecture_code":26},"8431":{"zip_code":"6168431","prefecture":"京都府","prefecture_kana":"キョウトフ","city":"京都市右京区","city_kana":"キョウトシウキョウク","town":"嵯峨鳥居本一華表町","town_kana":"サガトリイモトイッカヒョウチョウ","prefecture_code":26},"8432":{"zip_code":"6168432","prefecture":"京都府","prefecture_kana":"キョウトフ","city":"京都市右京区","city_kana":"キョウトシウキョウク","town":"嵯峨鳥居本北代町","town_kana":"サガトリイモトキタダイチョウ","prefecture_code":26},"8435":{"zip_code":"6168435","prefecture":"京都府","prefecture_kana":"キョウトフ","city":"京都市右京区","city_kana":"キョウトシウキョウク","town":"嵯峨鳥居本小坂町","town_kana":"サガトリイモトコザカチョウ","prefecture_code":26},"8437":{"zip_code":"6168437","prefecture":"京都府","prefecture_kana":"キョウトフ","city":"京都市右京区","city_kana":"キョウトシウキョウク","town":"嵯峨鳥居本仙翁町","town_kana":"サガトリイモトセンノウチョウ","prefecture_code":26},"8433":{"zip_code":"6168433","prefecture":"京都府","prefecture_kana":"キョウトフ","city":"京都市右京区","city_kana":"キョウトシウキョウク","town":"嵯峨鳥居本中筋町","town_kana":"サガトリイモトナカスジチョウ","prefecture_code":26},"8439":{"zip_code":"6168439","prefecture":"京都府","prefecture_kana":"キョウトフ","city":"京都市右京区","city_kana":"キョウトシウキョウク","town":"嵯峨鳥居本深谷町","town_kana":"サガトリイモトフカタニチョウ","prefecture_code":26},"8434":{"zip_code":"6168434","prefecture":"京都府","prefecture_kana":"キョウトフ","city":"京都市右京区","city_kana":"キョウトシウキョウク","town":"嵯峨鳥居本仏餉田町","town_kana":"サガトリイモトブツショウデンチョウ","prefecture_code":26},"8438":{"zip_code":"6168438","prefecture":"京都府","prefecture_kana":"キョウトフ","city":"京都市右京区","city_kana":"キョウトシウキョウク","town":"嵯峨鳥居本六反町","town_kana":"サガトリイモトロクタンチョウ","prefecture_code":26},"8426":{"zip_code":"6168426","prefecture":"京都府","prefecture_kana":"キョウトフ","city":"京都市右京区","city_kana":"キョウトシウキョウク","town":"嵯峨二尊院門前往生院町","town_kana":"サガニソンインモンゼンオウジョウインチョウ","prefecture_code":26},"8428":{"zip_code":"6168428","prefecture":"京都府","prefecture_kana":"キョウトフ","city":"京都市右京区","city_kana":"キョウトシウキョウク","town":"嵯峨二尊院門前北中院町","town_kana":"サガニソンインモンゼンキタチュウインチョウ","prefecture_code":26},"8427":{"zip_code":"6168427","prefecture":"京都府","prefecture_kana":"キョウトフ","city":"京都市右京区","city_kana":"キョウトシウキョウク","town":"嵯峨二尊院門前善光寺山町","town_kana":"サガニソンインモンゼンゼンコウジヤマチョウ","prefecture_code":26},"8425":{"zip_code":"6168425","prefecture":"京都府","prefecture_kana":"キョウトフ","city":"京都市右京区","city_kana":"キョウトシウキョウク","town":"嵯峨二尊院門前長神町","town_kana":"サガニソンインモンゼンチョウジンチョウ","prefecture_code":26},"8314":{"zip_code":"6168314","prefecture":"京都府","prefecture_kana":"キョウトフ","city":"京都市右京区","city_kana":"キョウトシウキョウク","town":"嵯峨野秋街道町","town_kana":"サガノアキカイドウチョウ","prefecture_code":26},"8316":{"zip_code":"6168316","prefecture":"京都府","prefecture_kana":"キョウトフ","city":"京都市右京区","city_kana":"キョウトシウキョウク","town":"嵯峨野有栖川町","town_kana":"サガノアリスガワチョウ","prefecture_code":26},"8331":{"zip_code":"6168331","prefecture":"京都府","prefecture_kana":"キョウトフ","city":"京都市右京区","city_kana":"キョウトシウキョウク","town":"嵯峨野内田町","town_kana":"サガノウチダチョウ","prefecture_code":26},"8317":{"zip_code":"6168317","prefecture":"京都府","prefecture_kana":"キョウトフ","city":"京都市右京区","city_kana":"キョウトシウキョウク","town":"嵯峨野神ノ木町","town_kana":"サガノカミノキチョウ","prefecture_code":26},"8332":{"zip_code":"6168332","prefecture":"京都府","prefecture_kana":"キョウトフ","city":"京都市右京区","city_kana":"キョウトシウキョウク","town":"嵯峨野北野町","town_kana":"サガノキタノチョウ","prefecture_code":26},"8311":{"zip_code":"6168311","prefecture":"京都府","prefecture_kana":"キョウトフ","city":"京都市右京区","city_kana":"キョウトシウキョウク","town":"嵯峨野嵯峨ノ段町","town_kana":"サガノサガノダンマチ","prefecture_code":26},"8322":{"zip_code":"6168322","prefecture":"京都府","prefecture_kana":"キョウトフ","city":"京都市右京区","city_kana":"キョウトシウキョウク","town":"嵯峨野芝野町","town_kana":"サガノシバノチョウ","prefecture_code":26},"8312":{"zip_code":"6168312","prefecture":"京都府","prefecture_kana":"キョウトフ","city":"京都市右京区","city_kana":"キョウトシウキョウク","town":"嵯峨野清水町","town_kana":"サガノシミズチョウ","prefecture_code":26},"8325":{"zip_code":"6168325","prefecture":"京都府","prefecture_kana":"キョウトフ","city":"京都市右京区","city_kana":"キョウトシウキョウク","town":"嵯峨野高田町","town_kana":"サガノタカダチョウ","prefecture_code":26},"8321":{"zip_code":"6168321","prefecture":"京都府","prefecture_kana":"キョウトフ","city":"京都市右京区","city_kana":"キョウトシウキョウク","town":"嵯峨野千代ノ道町","town_kana":"サガノチヨノミチチョウ","prefecture_code":26},"8323":{"zip_code":"6168323","prefecture":"京都府","prefecture_kana":"キョウトフ","city":"京都市右京区","city_kana":"キョウトシウキョウク","town":"嵯峨野投渕町","town_kana":"サガノナゲブチチョウ","prefecture_code":26},"8333":{"zip_code":"6168333","prefecture":"京都府","prefecture_kana":"キョウトフ","city":"京都市右京区","city_kana":"キョウトシウキョウク","town":"嵯峨野西ノ藤町","town_kana":"サガノニシノフジチョウ","prefecture_code":26},"8326":{"zip_code":"6168326","prefecture":"京都府","prefecture_kana":"キョウトフ","city":"京都市右京区","city_kana":"キョウトシウキョウク","town":"嵯峨野東田町","town_kana":"サガノヒガシダチョウ","prefecture_code":26},"8313":{"zip_code":"6168313","prefecture":"京都府","prefecture_kana":"キョウトフ","city":"京都市右京区","city_kana":"キョウトシウキョウク","town":"嵯峨野開町","town_kana":"サガノヒラキチョウ","prefecture_code":26},"8324":{"zip_code":"6168324","prefecture":"京都府","prefecture_kana":"キョウトフ","city":"京都市右京区","city_kana":"キョウトシウキョウク","town":"嵯峨野南浦町","town_kana":"サガノミナミウラチョウ","prefecture_code":26},"8315":{"zip_code":"6168315","prefecture":"京都府","prefecture_kana":"キョウトフ","city":"京都市右京区","city_kana":"キョウトシウキョウク","town":"嵯峨野宮ノ元町","town_kana":"サガノミヤノモトチョウ","prefecture_code":26},"8327":{"zip_code":"6168327","prefecture":"京都府","prefecture_kana":"キョウトフ","city":"京都市右京区","city_kana":"キョウトシウキョウク","town":"嵯峨野六反田町","town_kana":"サガノロクタンダチョウ","prefecture_code":26},"8307":{"zip_code":"6168307","prefecture":"京都府","prefecture_kana":"キョウトフ","city":"京都市右京区","city_kana":"キョウトシウキョウク","town":"嵯峨広沢池下町","town_kana":"サガヒロサワイケシタチョウ","prefecture_code":26},"8302":{"zip_code":"6168302","prefecture":"京都府","prefecture_kana":"キョウトフ","city":"京都市右京区","city_kana":"キョウトシウキョウク","town":"嵯峨広沢北下馬野町","town_kana":"サガヒロサワキタゲバノチョウ","prefecture_code":26},"8305":{"zip_code":"6168305","prefecture":"京都府","prefecture_kana":"キョウトフ","city":"京都市右京区","city_kana":"キョウトシウキョウク","town":"嵯峨広沢御所ノ内町","town_kana":"サガヒロサワゴショノウチチョウ","prefecture_code":26},"8306":{"zip_code":"6168306","prefecture":"京都府","prefecture_kana":"キョウトフ","city":"京都市右京区","city_kana":"キョウトシウキョウク","town":"嵯峨広沢西裏町","town_kana":"サガヒロサワニシウラチョウ","prefecture_code":26},"8303":{"zip_code":"6168303","prefecture":"京都府","prefecture_kana":"キョウトフ","city":"京都市右京区","city_kana":"キョウトシウキョウク","town":"嵯峨広沢南下馬野町","town_kana":"サガヒロサワミナミゲバノチョウ","prefecture_code":26},"8304":{"zip_code":"6168304","prefecture":"京都府","prefecture_kana":"キョウトフ","city":"京都市右京区","city_kana":"キョウトシウキョウク","town":"嵯峨広沢南野町","town_kana":"サガヒロサワミナミノチョウ","prefecture_code":26},"8467":{"zip_code":"6168467","prefecture":"京都府","prefecture_kana":"キョウトフ","city":"京都市右京区","city_kana":"キョウトシウキョウク","town":"嵯峨水尾大岩","town_kana":"サガミズオオオイワ","prefecture_code":26},"8462":{"zip_code":"6168462","prefecture":"京都府","prefecture_kana":"キョウトフ","city":"京都市右京区","city_kana":"キョウトシウキョウク","town":"嵯峨水尾岡ノ窪町","town_kana":"サガミズオオカノクボチョウ","prefecture_code":26},"8468":{"zip_code":"6168468","prefecture":"京都府","prefecture_kana":"キョウトフ","city":"京都市右京区","city_kana":"キョウトシウキョウク","town":"嵯峨水尾北垣内町","town_kana":"サガミズオキタガイチチョウ","prefecture_code":26},"8466":{"zip_code":"6168466","prefecture":"京都府","prefecture_kana":"キョウトフ","city":"京都市右京区","city_kana":"キョウトシウキョウク","town":"嵯峨水尾清和","town_kana":"サガミズオセイワ","prefecture_code":26},"8463":{"zip_code":"6168463","prefecture":"京都府","prefecture_kana":"キョウトフ","city":"京都市右京区","city_kana":"キョウトシウキョウク","town":"嵯峨水尾竹ノ尻町","town_kana":"サガミズオタケノシリチョウ","prefecture_code":26},"8461":{"zip_code":"6168461","prefecture":"京都府","prefecture_kana":"キョウトフ","city":"京都市右京区","city_kana":"キョウトシウキョウク","town":"嵯峨水尾鳩ケ巣","town_kana":"サガミズオハトガス","prefecture_code":26},"8465":{"zip_code":"6168465","prefecture":"京都府","prefecture_kana":"キョウトフ","city":"京都市右京区","city_kana":"キョウトシウキョウク","town":"嵯峨水尾宮ノ脇町","town_kana":"サガミズオミヤノワキチョウ","prefecture_code":26},"8464":{"zip_code":"6168464","prefecture":"京都府","prefecture_kana":"キョウトフ","city":"京都市右京区","city_kana":"キョウトシウキョウク","town":"嵯峨水尾武蔵嶋町","town_kana":"サガミズオムサシジマチョウ","prefecture_code":26},"8014":{"zip_code":"6168014","prefecture":"京都府","prefecture_kana":"キョウトフ","city":"京都市右京区","city_kana":"キョウトシウキョウク","town":"谷口梅津間町","town_kana":"タニグチウメヅマチョウ","prefecture_code":26},"8022":{"zip_code":"6168022","prefecture":"京都府","prefecture_kana":"キョウトフ","city":"京都市右京区","city_kana":"キョウトシウキョウク","town":"谷口円成寺町","town_kana":"タニグチエンジョウジチョウ","prefecture_code":26},"8012":{"zip_code":"6168012","prefecture":"京都府","prefecture_kana":"キョウトフ","city":"京都市右京区","city_kana":"キョウトシウキョウク","town":"谷口垣ノ内町","town_kana":"タニグチカキノウチチョウ","prefecture_code":26},"8013":{"zip_code":"6168013","prefecture":"京都府","prefecture_kana":"キョウトフ","city":"京都市右京区","city_kana":"キョウトシウキョウク","town":"谷口唐田ノ内町","town_kana":"タニグチカラタノウチチョウ","prefecture_code":26},"8015":{"zip_code":"6168015","prefecture":"京都府","prefecture_kana":"キョウトフ","city":"京都市右京区","city_kana":"キョウトシウキョウク","town":"谷口園町","town_kana":"タニグチソノマチ","prefecture_code":26},"8216":{"zip_code":"6168216","prefecture":"京都府","prefecture_kana":"キョウトフ","city":"京都市右京区","city_kana":"キョウトシウキョウク","town":"常盤一ノ井町","town_kana":"トキワイチノイチョウ","prefecture_code":26},"8225":{"zip_code":"6168225","prefecture":"京都府","prefecture_kana":"キョウトフ","city":"京都市右京区","city_kana":"キョウトシウキョウク","town":"常盤馬塚町","town_kana":"トキワウマヅカチョウ","prefecture_code":26},"8211":{"zip_code":"6168211","prefecture":"京都府","prefecture_kana":"キョウトフ","city":"京都市右京区","city_kana":"キョウトシウキョウク","town":"常盤御池町","town_kana":"トキワオイケチョウ","prefecture_code":26},"8213":{"zip_code":"6168213","prefecture":"京都府","prefecture_kana":"キョウトフ","city":"京都市右京区","city_kana":"キョウトシウキョウク","town":"常盤音戸町","town_kana":"トキワオントチョウ","prefecture_code":26},"8231":{"zip_code":"6168231","prefecture":"京都府","prefecture_kana":"キョウトフ","city":"京都市右京区","city_kana":"キョウトシウキョウク","town":"常盤柏ノ木町","town_kana":"トキワカシノキチョウ","prefecture_code":26},"8219":{"zip_code":"6168219","prefecture":"京都府","prefecture_kana":"キョウトフ","city":"京都市右京区","city_kana":"キョウトシウキョウク","town":"常盤神田町","town_kana":"トキワカンダチョウ","prefecture_code":26},"8229":{"zip_code":"6168229","prefecture":"京都府","prefecture_kana":"キョウトフ","city":"京都市右京区","city_kana":"キョウトシウキョウク","town":"常盤北裏町","town_kana":"トキワキタウラチョウ","prefecture_code":26},"8227":{"zip_code":"6168227","prefecture":"京都府","prefecture_kana":"キョウトフ","city":"京都市右京区","city_kana":"キョウトシウキョウク","town":"常盤草木町","town_kana":"トキワクサキチョウ","prefecture_code":26},"8224":{"zip_code":"6168224","prefecture":"京都府","prefecture_kana":"キョウトフ","city":"京都市右京区","city_kana":"キョウトシウキョウク","town":"常盤窪町","town_kana":"トキワクボマチ","prefecture_code":26},"8228":{"zip_code":"6168228","prefecture":"京都府","prefecture_kana":"キョウトフ","city":"京都市右京区","city_kana":"キョウトシウキョウク","town":"常盤下田町","town_kana":"トキワシモダチョウ","prefecture_code":26},"8226":{"zip_code":"6168226","prefecture":"京都府","prefecture_kana":"キョウトフ","city":"京都市右京区","city_kana":"キョウトシウキョウク","town":"常盤段ノ上町","town_kana":"トキワダンノウエチョウ","prefecture_code":26},"8218":{"zip_code":"6168218","prefecture":"京都府","prefecture_kana":"キョウトフ","city":"京都市右京区","city_kana":"キョウトシウキョウク","town":"常盤出口町","town_kana":"トキワデグチチョウ","prefecture_code":26},"8222":{"zip_code":"6168222","prefecture":"京都府","prefecture_kana":"キョウトフ","city":"京都市右京区","city_kana":"キョウトシウキョウク","town":"常盤仲之町","town_kana":"トキワナカノチョウ","prefecture_code":26},"8223":{"zip_code":"6168223","prefecture":"京都府","prefecture_kana":"キョウトフ","city":"京都市右京区","city_kana":"キョウトシウキョウク","town":"常盤西町","town_kana":"トキワニシマチ","prefecture_code":26},"8217":{"zip_code":"6168217","prefecture":"京都府","prefecture_kana":"キョウトフ","city":"京都市右京区","city_kana":"キョウトシウキョウク","town":"常盤東ノ町","town_kana":"トキワヒガシノチョウ","prefecture_code":26},"8214":{"zip_code":"6168214","prefecture":"京都府","prefecture_kana":"キョウトフ","city":"京都市右京区","city_kana":"キョウトシウキョウク","town":"常盤古御所町","town_kana":"トキワフルゴショチョウ","prefecture_code":26},"8221":{"zip_code":"6168221","prefecture":"京都府","prefecture_kana":"キョウトフ","city":"京都市右京区","city_kana":"キョウトシウキョウク","town":"常盤村ノ内町","town_kana":"トキワムラノウチチョウ","prefecture_code":26},"8215":{"zip_code":"6168215","prefecture":"京都府","prefecture_kana":"キョウトフ","city":"京都市右京区","city_kana":"キョウトシウキョウク","town":"常盤森町","town_kana":"トキワモリマチ","prefecture_code":26},"8212":{"zip_code":"6168212","prefecture":"京都府","prefecture_kana":"キョウトフ","city":"京都市右京区","city_kana":"キョウトシウキョウク","town":"常盤山下町","town_kana":"トキワヤマシタチョウ","prefecture_code":26},"8253":{"zip_code":"6168253","prefecture":"京都府","prefecture_kana":"キョウトフ","city":"京都市右京区","city_kana":"キョウトシウキョウク","town":"鳴滝泉谷町","town_kana":"ナルタキイズミタニチョウ","prefecture_code":26},"8241":{"zip_code":"6168241","prefecture":"京都府","prefecture_kana":"キョウトフ","city":"京都市右京区","city_kana":"キョウトシウキョウク","town":"鳴滝泉殿町","town_kana":"ナルタキイズミデンチョウ","prefecture_code":26},"8251":{"zip_code":"6168251","prefecture":"京都府","prefecture_kana":"キョウトフ","city":"京都市右京区","city_kana":"キョウトシウキョウク","town":"鳴滝宇多野谷","town_kana":"ナルタキウダノタニ","prefecture_code":26},"8255":{"zip_code":"6168255","prefecture":"京都府","prefecture_kana":"キョウトフ","city":"京都市右京区","city_kana":"キョウトシウキョウク","town":"鳴滝音戸山町","town_kana":"ナルタキオンドヤマチョウ","prefecture_code":26},"8246":{"zip_code":"6168246","prefecture":"京都府","prefecture_kana":"キョウトフ","city":"京都市右京区","city_kana":"キョウトシウキョウク","town":"鳴滝川西町","town_kana":"ナルタキカワニシチョウ","prefecture_code":26},"8238":{"zip_code":"6168238","prefecture":"京都府","prefecture_kana":"キョウトフ","city":"京都市右京区","city_kana":"キョウトシウキョウク","town":"鳴滝桐ケ淵町","town_kana":"ナルタキキリガフチチョウ","prefecture_code":26},"8234":{"zip_code":"6168234","prefecture":"京都府","prefecture_kana":"キョウトフ","city":"京都市右京区","city_kana":"キョウトシウキョウク","town":"鳴滝嵯峨園町","town_kana":"ナルタキサガソノチョウ","prefecture_code":26},"8257":{"zip_code":"6168257","prefecture":"京都府","prefecture_kana":"キョウトフ","city":"京都市右京区","city_kana":"キョウトシウキョウク","town":"鳴滝白砂","town_kana":"ナルタキシラスナ","prefecture_code":26},"8254":{"zip_code":"6168254","prefecture":"京都府","prefecture_kana":"キョウトフ","city":"京都市右京区","city_kana":"キョウトシウキョウク","town":"鳴滝宅間町","town_kana":"ナルタキタクマチョウ","prefecture_code":26},"8233":{"zip_code":"6168233","prefecture":"京都府","prefecture_kana":"キョウトフ","city":"京都市右京区","city_kana":"キョウトシウキョウク","town":"鳴滝中道町","town_kana":"ナルタキナカミチチョウ","prefecture_code":26},"8235":{"zip_code":"6168235","prefecture":"京都府","prefecture_kana":"キョウトフ","city":"京都市右京区","city_kana":"キョウトシウキョウク","town":"鳴滝西嵯峨園町","town_kana":"ナルタキニシサガソノチョウ","prefecture_code":26},"8247":{"zip_code":"6168247","prefecture":"京都府","prefecture_kana":"キョウトフ","city":"京都市右京区","city_kana":"キョウトシウキョウク","town":"鳴滝蓮池町","town_kana":"ナルタキハスイケチョウ","prefecture_code":26},"8236":{"zip_code":"6168236","prefecture":"京都府","prefecture_kana":"キョウトフ","city":"京都市右京区","city_kana":"キョウトシウキョウク","town":"鳴滝春木町","town_kana":"ナルタキハルキチョウ","prefecture_code":26},"8258":{"zip_code":"6168258","prefecture":"京都府","prefecture_kana":"キョウトフ","city":"京都市右京区","city_kana":"キョウトシウキョウク","town":"鳴滝般若寺町","town_kana":"ナルタキハンニャジチョウ","prefecture_code":26},"8244":{"zip_code":"6168244","prefecture":"京都府","prefecture_kana":"キョウトフ","city":"京都市右京区","city_kana":"キョウトシウキョウク","town":"鳴滝藤ノ木町","town_kana":"ナルタキフジノキチョウ","prefecture_code":26},"8242":{"zip_code":"6168242","prefecture":"京都府","prefecture_kana":"キョウトフ","city":"京都市右京区","city_kana":"キョウトシウキョウク","town":"鳴滝本町","town_kana":"ナルタキホンマチ","prefecture_code":26},"8256":{"zip_code":"6168256","prefecture":"京都府","prefecture_kana":"キョウトフ","city":"京都市右京区","city_kana":"キョウトシウキョウク","town":"鳴滝松本町","town_kana":"ナルタキマツモトチョウ","prefecture_code":26},"8237":{"zip_code":"6168237","prefecture":"京都府","prefecture_kana":"キョウトフ","city":"京都市右京区","city_kana":"キョウトシウキョウク","town":"鳴滝瑞穂町","town_kana":"ナルタキミズホチョウ","prefecture_code":26},"8243":{"zip_code":"6168243","prefecture":"京都府","prefecture_kana":"キョウトフ","city":"京都市右京区","city_kana":"キョウトシウキョウク","town":"鳴滝安井殿町","town_kana":"ナルタキヤスイデンチョウ","prefecture_code":26},"8232":{"zip_code":"6168232","prefecture":"京都府","prefecture_kana":"キョウトフ","city":"京都市右京区","city_kana":"キョウトシウキョウク","town":"鳴滝蓮花寺町","town_kana":"ナルタキレンゲジチョウ","prefecture_code":26},"8024":{"zip_code":"6168024","prefecture":"京都府","prefecture_kana":"キョウトフ","city":"京都市右京区","city_kana":"キョウトシウキョウク","town":"花園一条田町","town_kana":"ハナゾノイチジョウデンチョウ","prefecture_code":26},"8037":{"zip_code":"6168037","prefecture":"京都府","prefecture_kana":"キョウトフ","city":"京都市右京区","city_kana":"キョウトシウキョウク","town":"花園猪ノ毛町","town_kana":"ハナゾノイノケチョウ","prefecture_code":26},"8042":{"zip_code":"6168042","prefecture":"京都府","prefecture_kana":"キョウトフ","city":"京都市右京区","city_kana":"キョウトシウキョウク","town":"花園伊町","town_kana":"ハナゾノイマチ","prefecture_code":26},"8045":{"zip_code":"6168045","prefecture":"京都府","prefecture_kana":"キョウトフ","city":"京都市右京区","city_kana":"キョウトシウキョウク","town":"花園内畑町","town_kana":"ハナゾノウチハタチョウ","prefecture_code":26},"8027":{"zip_code":"6168027","prefecture":"京都府","prefecture_kana":"キョウトフ","city":"京都市右京区","city_kana":"キョウトシウキョウク","town":"花園円成寺町","town_kana":"ハナゾノエンジョウジチョウ","prefecture_code":26},"8044":{"zip_code":"6168044","prefecture":"京都府","prefecture_kana":"キョウトフ","city":"京都市右京区","city_kana":"キョウトシウキョウク","town":"花園扇野町","town_kana":"ハナゾノオウギノチョウ","prefecture_code":26},"8023":{"zip_code":"6168023","prefecture":"京都府","prefecture_kana":"キョウトフ","city":"京都市右京区","city_kana":"キョウトシウキョウク","town":"花園大薮町","town_kana":"ハナゾノオオヤブチョウ","prefecture_code":26},"8026":{"zip_code":"6168026","prefecture":"京都府","prefecture_kana":"キョウトフ","city":"京都市右京区","city_kana":"キョウトシウキョウク","town":"花園岡ノ本町","town_kana":"ハナゾノオカノモトチョウ","prefecture_code":26},"8061":{"zip_code":"6168061","prefecture":"京都府","prefecture_kana":"キョウトフ","city":"京都市右京区","city_kana":"キョウトシウキョウク","town":"花園春日町","town_kana":"ハナゾノカスガチョウ","prefecture_code":26},"8034":{"zip_code":"6168034","prefecture":"京都府","prefecture_kana":"キョウトフ","city":"京都市右京区","city_kana":"キョウトシウキョウク","town":"花園木辻北町","town_kana":"ハナゾノキツジキタマチ","prefecture_code":26},"8057":{"zip_code":"6168057","prefecture":"京都府","prefecture_kana":"キョウトフ","city":"京都市右京区","city_kana":"キョウトシウキョウク","town":"花園木辻南町","town_kana":"ハナゾノキツジミナミチョウ","prefecture_code":26},"8055":{"zip_code":"6168055","prefecture":"京都府","prefecture_kana":"キョウトフ","city":"京都市右京区","city_kana":"キョウトシウキョウク","town":"花園車道町","town_kana":"ハナゾノクルマミチチョウ","prefecture_code":26},"8056":{"zip_code":"6168056","prefecture":"京都府","prefecture_kana":"キョウトフ","city":"京都市右京区","city_kana":"キョウトシウキョウク","town":"花園坤南町","town_kana":"ハナゾノコンナンチョウ","prefecture_code":26},"8033":{"zip_code":"6168033","prefecture":"京都府","prefecture_kana":"キョウトフ","city":"京都市右京区","city_kana":"キョウトシウキョウク","town":"花園艮北町","town_kana":"ハナゾノコンボクチョウ","prefecture_code":26},"8051":{"zip_code":"6168051","prefecture":"京都府","prefecture_kana":"キョウトフ","city":"京都市右京区","city_kana":"キョウトシウキョウク","town":"花園巽南町","town_kana":"ハナゾノソンナンチョウ","prefecture_code":26},"8031":{"zip_code":"6168031","prefecture":"京都府","prefecture_kana":"キョウトフ","city":"京都市右京区","city_kana":"キョウトシウキョウク","town":"花園鷹司町","town_kana":"ハナゾノタカツカサチョウ","prefecture_code":26},"8046":{"zip_code":"6168046","prefecture":"京都府","prefecture_kana":"キョウトフ","city":"京都市右京区","city_kana":"キョウトシウキョウク","town":"花園段ノ岡町","town_kana":"ハナゾノダンノオカチョウ","prefecture_code":26},"8025":{"zip_code":"6168025","prefecture":"京都府","prefecture_kana":"キョウトフ","city":"京都市右京区","city_kana":"キョウトシウキョウク","town":"花園土堂町","town_kana":"ハナゾノツチドウチョウ","prefecture_code":26},"8043":{"zip_code":"6168043","prefecture":"京都府","prefecture_kana":"キョウトフ","city":"京都市右京区","city_kana":"キョウトシウキョウク","town":"花園寺ノ内町","town_kana":"ハナゾノテラノウチチョウ","prefecture_code":26},"8036":{"zip_code":"6168036","prefecture":"京都府","prefecture_kana":"キョウトフ","city":"京都市右京区","city_kana":"キョウトシウキョウク","town":"花園寺ノ中町","town_kana":"ハナゾノテラノナカチョウ","prefecture_code":26},"8041":{"zip_code":"6168041","prefecture":"京都府","prefecture_kana":"キョウトフ","city":"京都市右京区","city_kana":"キョウトシウキョウク","town":"花園寺ノ前町","town_kana":"ハナゾノテラノマエチョウ","prefecture_code":26},"8021":{"zip_code":"6168021","prefecture":"京都府","prefecture_kana":"キョウトフ","city":"京都市右京区","city_kana":"キョウトシウキョウク","town":"花園天授ケ岡町","town_kana":"ハナゾノテンジュガオカチョウ","prefecture_code":26},"8054":{"zip_code":"6168054","prefecture":"京都府","prefecture_kana":"キョウトフ","city":"京都市右京区","city_kana":"キョウトシウキョウク","town":"花園中御門町","town_kana":"ハナゾノナカミカドチョウ","prefecture_code":26},"8032":{"zip_code":"6168032","prefecture":"京都府","prefecture_kana":"キョウトフ","city":"京都市右京区","city_kana":"キョウトシウキョウク","town":"花園馬代町","town_kana":"ハナゾノバダイチョウ","prefecture_code":26},"8047":{"zip_code":"6168047","prefecture":"京都府","prefecture_kana":"キョウトフ","city":"京都市右京区","city_kana":"キョウトシウキョウク","town":"花園宮ノ上町","town_kana":"ハナゾノミヤノカミチョウ","prefecture_code":26},"8035":{"zip_code":"6168035","prefecture":"京都府","prefecture_kana":"キョウトフ","city":"京都市右京区","city_kana":"キョウトシウキョウク","town":"花園妙心寺町","town_kana":"ハナゾノミョウシンジチョウ","prefecture_code":26},"8053":{"zip_code":"6168053","prefecture":"京都府","prefecture_kana":"キョウトフ","city":"京都市右京区","city_kana":"キョウトシウキョウク","town":"花園八ツ口町","town_kana":"ハナゾノヤツクチチョウ","prefecture_code":26},"8052":{"zip_code":"6168052","prefecture":"京都府","prefecture_kana":"キョウトフ","city":"京都市右京区","city_kana":"キョウトシウキョウク","town":"花園薮ノ下町","town_kana":"ハナゾノヤブノシタチョウ","prefecture_code":26},"8197":{"zip_code":"6168197","prefecture":"京都府","prefecture_kana":"キョウトフ","city":"京都市右京区","city_kana":"キョウトシウキョウク","town":"山越乾町","town_kana":"ヤマゴエイヌイチョウ","prefecture_code":26},"8193":{"zip_code":"6168193","prefecture":"京都府","prefecture_kana":"キョウトフ","city":"京都市右京区","city_kana":"キョウトシウキョウク","town":"山越巽町","town_kana":"ヤマゴエタツミチョウ","prefecture_code":26},"8195":{"zip_code":"6168195","prefecture":"京都府","prefecture_kana":"キョウトフ","city":"京都市右京区","city_kana":"キョウトシウキョウク","town":"山越中町","town_kana":"ヤマゴエナカチョウ","prefecture_code":26},"8196":{"zip_code":"6168196","prefecture":"京都府","prefecture_kana":"キョウトフ","city":"京都市右京区","city_kana":"キョウトシウキョウク","town":"山越西町","town_kana":"ヤマゴエニシチョウ","prefecture_code":26},"8194":{"zip_code":"6168194","prefecture":"京都府","prefecture_kana":"キョウトフ","city":"京都市右京区","city_kana":"キョウトシウキョウク","town":"山越東町","town_kana":"ヤマゴエヒガシチョウ","prefecture_code":26},"8003":{"zip_code":"6168003","prefecture":"京都府","prefecture_kana":"キョウトフ","city":"京都市右京区","city_kana":"キョウトシウキョウク","town":"龍安寺池ノ下町","town_kana":"リョウアンジイケノシタチョウ","prefecture_code":26},"8002":{"zip_code":"6168002","prefecture":"京都府","prefecture_kana":"キョウトフ","city":"京都市右京区","city_kana":"キョウトシウキョウク","town":"龍安寺衣笠下町","town_kana":"リョウアンジキヌガサシタチョウ","prefecture_code":26},"8017":{"zip_code":"6168017","prefecture":"京都府","prefecture_kana":"キョウトフ","city":"京都市右京区","city_kana":"キョウトシウキョウク","town":"龍安寺五反田町","town_kana":"リョウアンジゴタンダチョウ","prefecture_code":26},"8001":{"zip_code":"6168001","prefecture":"京都府","prefecture_kana":"キョウトフ","city":"京都市右京区","city_kana":"キョウトシウキョウク","town":"龍安寺御陵ノ下町","town_kana":"リョウアンジゴリョウノシタチョウ","prefecture_code":26},"8011":{"zip_code":"6168011","prefecture":"京都府","prefecture_kana":"キョウトフ","city":"京都市右京区","city_kana":"キョウトシウキョウク","town":"龍安寺斎宮町","town_kana":"リョウアンジサイグウチョウ","prefecture_code":26},"8006":{"zip_code":"6168006","prefecture":"京都府","prefecture_kana":"キョウトフ","city":"京都市右京区","city_kana":"キョウトシウキョウク","town":"龍安寺住吉町","town_kana":"リョウアンジスミヨシチョウ","prefecture_code":26},"8004":{"zip_code":"6168004","prefecture":"京都府","prefecture_kana":"キョウトフ","city":"京都市右京区","city_kana":"キョウトシウキョウク","town":"龍安寺玉津芝町","town_kana":"リョウアンジタマツシバチョウ","prefecture_code":26},"8005":{"zip_code":"6168005","prefecture":"京都府","prefecture_kana":"キョウトフ","city":"京都市右京区","city_kana":"キョウトシウキョウク","town":"龍安寺塔ノ下町","town_kana":"リョウアンジトウノシタチョウ","prefecture_code":26},"8016":{"zip_code":"6168016","prefecture":"京都府","prefecture_kana":"キョウトフ","city":"京都市右京区","city_kana":"キョウトシウキョウク","town":"龍安寺西ノ川町","town_kana":"リョウアンジニシノカワチョウ","prefecture_code":26},"8007":{"zip_code":"6168007","prefecture":"京都府","prefecture_kana":"キョウトフ","city":"京都市右京区","city_kana":"キョウトシウキョウク","town":"龍安寺山田町","town_kana":"リョウアンジヤマタチョウ","prefecture_code":26},"0022":{"zip_code":"6160022","prefecture":"京都府","prefecture_kana":"キョウトフ","city":"京都市西京区","city_kana":"キョウトシニシキョウク","town":"嵐山朝月町","town_kana":"アラシヤマアサツキチョウ","prefecture_code":26},"0027":{"zip_code":"6160027","prefecture":"京都府","prefecture_kana":"キョウトフ","city":"京都市西京区","city_kana":"キョウトシニシキョウク","town":"嵐山内田町","town_kana":"アラシヤマウチダチョウ","prefecture_code":26},"0016":{"zip_code":"6160016","prefecture":"京都府","prefecture_kana":"キョウトフ","city":"京都市西京区","city_kana":"キョウトシニシキョウク","town":"嵐山上海道町","town_kana":"アラシヤマカミカイドウチョウ","prefecture_code":26},"0001":{"zip_code":"6160001","prefecture":"京都府","prefecture_kana":"キョウトフ","city":"京都市西京区","city_kana":"キョウトシニシキョウク","town":"嵐山上河原町","town_kana":"アラシヤマカミカワラチョウ","prefecture_code":26},"0007":{"zip_code":"6160007","prefecture":"京都府","prefecture_kana":"キョウトフ","city":"京都市西京区","city_kana":"キョウトシニシキョウク","town":"嵐山元録山町","town_kana":"アラシヤマゲンロクザンチョウ","prefecture_code":26},"0006":{"zip_code":"6160006","prefecture":"京都府","prefecture_kana":"キョウトフ","city":"京都市西京区","city_kana":"キョウトシニシキョウク","town":"嵐山虚空蔵山町","town_kana":"アラシヤマコクゾウヤマチョウ","prefecture_code":26},"0014":{"zip_code":"6160014","prefecture":"京都府","prefecture_kana":"キョウトフ","city":"京都市西京区","city_kana":"キョウトシニシキョウク","town":"嵐山谷ケ辻子町","town_kana":"アラシヤマタニガツジコチョウ","prefecture_code":26},"0017":{"zip_code":"6160017","prefecture":"京都府","prefecture_kana":"キョウトフ","city":"京都市西京区","city_kana":"キョウトシニシキョウク","town":"嵐山茶尻町","town_kana":"アラシヤマチャジリチョウ","prefecture_code":26},"0004":{"zip_code":"6160004","prefecture":"京都府","prefecture_kana":"キョウトフ","city":"京都市西京区","city_kana":"キョウトシニシキョウク","town":"嵐山中尾下町","town_kana":"アラシヤマナカオシタチョウ","prefecture_code":26},"0003":{"zip_code":"6160003","prefecture":"京都府","prefecture_kana":"キョウトフ","city":"京都市西京区","city_kana":"キョウトシニシキョウク","town":"嵐山西一川町","town_kana":"アラシヤマニシイチカワチョウ","prefecture_code":26},"0002":{"zip_code":"6160002","prefecture":"京都府","prefecture_kana":"キョウトフ","city":"京都市西京区","city_kana":"キョウトシニシキョウク","town":"嵐山東一川町","town_kana":"アラシヤマヒガシイチカワチョウ","prefecture_code":26},"0012":{"zip_code":"6160012","prefecture":"京都府","prefecture_kana":"キョウトフ","city":"京都市西京区","city_kana":"キョウトシニシキョウク","town":"嵐山東海道町","town_kana":"アラシヤマヒガシカイドウチョウ","prefecture_code":26},"0011":{"zip_code":"6160011","prefecture":"京都府","prefecture_kana":"キョウトフ","city":"京都市西京区","city_kana":"キョウトシニシキョウク","town":"嵐山樋ノ上町","town_kana":"アラシヤマヒノカミチョウ","prefecture_code":26},"0013":{"zip_code":"6160013","prefecture":"京都府","prefecture_kana":"キョウトフ","city":"京都市西京区","city_kana":"キョウトシニシキョウク","town":"嵐山風呂ノ橋町","town_kana":"アラシヤマフロノハシチョウ","prefecture_code":26},"0025":{"zip_code":"6160025","prefecture":"京都府","prefecture_kana":"キョウトフ","city":"京都市西京区","city_kana":"キョウトシニシキョウク","town":"嵐山宮ノ北町","town_kana":"アラシヤマミヤノキタチョウ","prefecture_code":26},"0023":{"zip_code":"6160023","prefecture":"京都府","prefecture_kana":"キョウトフ","city":"京都市西京区","city_kana":"キョウトシニシキョウク","town":"嵐山宮ノ前町","town_kana":"アラシヤマミヤノマエチョウ","prefecture_code":26},"0024":{"zip_code":"6160024","prefecture":"京都府","prefecture_kana":"キョウトフ","city":"京都市西京区","city_kana":"キョウトシニシキョウク","town":"嵐山宮町","town_kana":"アラシヤマミヤマチ","prefecture_code":26},"0021":{"zip_code":"6160021","prefecture":"京都府","prefecture_kana":"キョウトフ","city":"京都市西京区","city_kana":"キョウトシニシキョウク","town":"嵐山森ノ前町","town_kana":"アラシヤマモリノマエチョウ","prefecture_code":26},"0026":{"zip_code":"6160026","prefecture":"京都府","prefecture_kana":"キョウトフ","city":"京都市西京区","city_kana":"キョウトシニシキョウク","town":"嵐山薬師下町","town_kana":"アラシヤマヤクシシタチョウ","prefecture_code":26},"0005":{"zip_code":"6160005","prefecture":"京都府","prefecture_kana":"キョウトフ","city":"京都市西京区","city_kana":"キョウトシニシキョウク","town":"嵐山山田町","town_kana":"アラシヤマヤマダチョウ","prefecture_code":26},"0015":{"zip_code":"6160015","prefecture":"京都府","prefecture_kana":"キョウトフ","city":"京都市西京区","city_kana":"キョウトシニシキョウク","town":"嵐山山ノ下町","town_kana":"アラシヤマヤマノシタチョウ","prefecture_code":26}}