{"0000":[{"zip_code":"6170000","prefecture":"京都府","prefecture_kana":"キョウトフ","city":"向日市","city_kana":"ムコウシ","town":"","town_kana":"","prefecture_code":26},{"zip_code":"6170000","prefecture":"京都府","prefecture_kana":"キョウトフ","city":"長岡京市","city_kana":"ナガオカキョウシ","town":"","town_kana":"","prefecture_code":26}],"0004":{"zip_code":"6170004","prefecture":"京都府","prefecture_kana":"キョウトフ","city":"向日市","city_kana":"ムコウシ","town":"鶏冠井町","town_kana":"カイデチョウ","prefecture_code":26},"0006":{"zip_code":"6170006","prefecture":"京都府","prefecture_kana":"キョウトフ","city":"向日市","city_kana":"ムコウシ","town":"上植野町","town_kana":"カミウエノチョウ","prefecture_code":26},"0002":{"zip_code":"6170002","prefecture":"京都府","prefecture_kana":"キョウトフ","city":"向日市","city_kana":"ムコウシ","town":"寺戸町","town_kana":"テラドチョウ","prefecture_code":26},"0005":{"zip_code":"6170005","prefecture":"京都府","prefecture_kana":"キョウトフ","city":"向日市","city_kana":"ムコウシ","town":"向日町","town_kana":"ムコウチョウ","prefecture_code":26},"0001":{"zip_code":"6170001","prefecture":"京都府","prefecture_kana":"キョウトフ","city":"向日市","city_kana":"ムコウシ","town":"物集女町","town_kana":"モズメチョウ","prefecture_code":26},"0003":{"zip_code":"6170003","prefecture":"京都府","prefecture_kana":"キョウトフ","city":"向日市","city_kana":"ムコウシ","town":"森本町","town_kana":"モリモトチョウ","prefecture_code":26},"0811":{"zip_code":"6170811","prefecture":"京都府","prefecture_kana":"キョウトフ","city":"長岡京市","city_kana":"ナガオカキョウシ","town":"粟生","town_kana":"アオ","prefecture_code":26},"0846":{"zip_code":"6170846","prefecture":"京都府","prefecture_kana":"キョウトフ","city":"長岡京市","city_kana":"ナガオカキョウシ","town":"泉が丘","town_kana":"イズミガオカ","prefecture_code":26},"0825":{"zip_code":"6170825","prefecture":"京都府","prefecture_kana":"キョウトフ","city":"長岡京市","city_kana":"ナガオカキョウシ","town":"一文橋","town_kana":"イチモンバシ","prefecture_code":26},"0831":{"zip_code":"6170831","prefecture":"京都府","prefecture_kana":"キョウトフ","city":"長岡京市","city_kana":"ナガオカキョウシ","town":"一里塚","town_kana":"イチリヅカ","prefecture_code":26},"0813":{"zip_code":"6170813","prefecture":"京都府","prefecture_kana":"キョウトフ","city":"長岡京市","city_kana":"ナガオカキョウシ","town":"井ノ内","town_kana":"イノウチ","prefecture_code":26},"0814":{"zip_code":"6170814","prefecture":"京都府","prefecture_kana":"キョウトフ","city":"長岡京市","city_kana":"ナガオカキョウシ","town":"今里","town_kana":"イマザト","prefecture_code":26},"0815":{"zip_code":"6170815","prefecture":"京都府","prefecture_kana":"キョウトフ","city":"長岡京市","city_kana":"ナガオカキョウシ","town":"うぐいす台","town_kana":"ウグイスダイ","prefecture_code":26},"0841":{"zip_code":"6170841","prefecture":"京都府","prefecture_kana":"キョウトフ","city":"長岡京市","city_kana":"ナガオカキョウシ","town":"梅が丘","town_kana":"ウメガオカ","prefecture_code":26},"0853":{"zip_code":"6170853","prefecture":"京都府","prefecture_kana":"キョウトフ","city":"長岡京市","city_kana":"ナガオカキョウシ","town":"奥海印寺","town_kana":"オクカイインジ","prefecture_code":26},"0826":{"zip_code":"6170826","prefecture":"京都府","prefecture_kana":"キョウトフ","city":"長岡京市","city_kana":"ナガオカキョウシ","town":"開田","town_kana":"カイデン","prefecture_code":26},"0856":{"zip_code":"6170856","prefecture":"京都府","prefecture_kana":"キョウトフ","city":"長岡京市","city_kana":"ナガオカキョウシ","town":"金ケ原","town_kana":"カネガハラ","prefecture_code":26},"0852":{"zip_code":"6170852","prefecture":"京都府","prefecture_kana":"キョウトフ","city":"長岡京市","city_kana":"ナガオカキョウシ","town":"河陽が丘","town_kana":"カヨウガオカ","prefecture_code":26},"0837":{"zip_code":"6170837","prefecture":"京都府","prefecture_kana":"キョウトフ","city":"長岡京市","city_kana":"ナガオカキョウシ","town":"久貝","town_kana":"クガイ","prefecture_code":26},"0833":{"zip_code":"6170833","prefecture":"京都府","prefecture_kana":"キョウトフ","city":"長岡京市","city_kana":"ナガオカキョウシ","town":"神足","town_kana":"コウタリ","prefecture_code":26},"0851":{"zip_code":"6170851","prefecture":"京都府","prefecture_kana":"キョウトフ","city":"長岡京市","city_kana":"ナガオカキョウシ","town":"光風台","town_kana":"コウフウダイ","prefecture_code":26},"0854":{"zip_code":"6170854","prefecture":"京都府","prefecture_kana":"キョウトフ","city":"長岡京市","city_kana":"ナガオカキョウシ","town":"こがねが丘","town_kana":"コガネガオカ","prefecture_code":26},"0818":{"zip_code":"6170818","prefecture":"京都府","prefecture_kana":"キョウトフ","city":"長岡京市","city_kana":"ナガオカキョウシ","town":"柴の里","town_kana":"シバノサト","prefecture_code":26},"0845":{"zip_code":"6170845","prefecture":"京都府","prefecture_kana":"キョウトフ","city":"長岡京市","city_kana":"ナガオカキョウシ","town":"下海印寺","town_kana":"シモカイインジ","prefecture_code":26},"0855":{"zip_code":"6170855","prefecture":"京都府","prefecture_kana":"キョウトフ","city":"長岡京市","city_kana":"ナガオカキョウシ","town":"浄土谷","town_kana":"ジョウドダニ","prefecture_code":26},"0836":{"zip_code":"6170836","prefecture":"京都府","prefecture_kana":"キョウトフ","city":"長岡京市","city_kana":"ナガオカキョウシ","town":"勝竜寺","town_kana":"ショウリュウジ","prefecture_code":26},"0835":{"zip_code":"6170835","prefecture":"京都府","prefecture_kana":"キョウトフ","city":"長岡京市","city_kana":"ナガオカキョウシ","town":"城の里","town_kana":"シロノサト","prefecture_code":26},"0847":{"zip_code":"6170847","prefecture":"京都府","prefecture_kana":"キョウトフ","city":"長岡京市","city_kana":"ナガオカキョウシ","town":"高台","town_kana":"タカダイ","prefecture_code":26},"0857":{"zip_code":"6170857","prefecture":"京都府","prefecture_kana":"キョウトフ","city":"長岡京市","city_kana":"ナガオカキョウシ","town":"高台西","town_kana":"タカダイニシ","prefecture_code":26},"0817":{"zip_code":"6170817","prefecture":"京都府","prefecture_kana":"キョウトフ","city":"長岡京市","city_kana":"ナガオカキョウシ","town":"滝ノ町","town_kana":"タキノチョウ","prefecture_code":26},"0827":{"zip_code":"6170827","prefecture":"京都府","prefecture_kana":"キョウトフ","city":"長岡京市","city_kana":"ナガオカキョウシ","town":"竹の台","town_kana":"タケノダイ","prefecture_code":26},"0844":{"zip_code":"6170844","prefecture":"京都府","prefecture_kana":"キョウトフ","city":"長岡京市","city_kana":"ナガオカキョウシ","town":"調子","town_kana":"チョウシ","prefecture_code":26},"0812":{"zip_code":"6170812","prefecture":"京都府","prefecture_kana":"キョウトフ","city":"長岡京市","city_kana":"ナガオカキョウシ","town":"長法寺","town_kana":"チョウホウジ","prefecture_code":26},"0824":{"zip_code":"6170824","prefecture":"京都府","prefecture_kana":"キョウトフ","city":"長岡京市","city_kana":"ナガオカキョウシ","town":"天神","town_kana":"テンジン","prefecture_code":26},"0834":{"zip_code":"6170834","prefecture":"京都府","prefecture_kana":"キョウトフ","city":"長岡京市","city_kana":"ナガオカキョウシ","town":"東和苑","town_kana":"トウワエン","prefecture_code":26},"0843":{"zip_code":"6170843","prefecture":"京都府","prefecture_kana":"キョウトフ","city":"長岡京市","city_kana":"ナガオカキョウシ","town":"友岡","town_kana":"トモオカ","prefecture_code":26},"0823":{"zip_code":"6170823","prefecture":"京都府","prefecture_kana":"キョウトフ","city":"長岡京市","city_kana":"ナガオカキョウシ","town":"長岡","town_kana":"ナガオカ","prefecture_code":26},"0816":{"zip_code":"6170816","prefecture":"京都府","prefecture_kana":"キョウトフ","city":"長岡京市","city_kana":"ナガオカキョウシ","town":"西の京","town_kana":"ニシノキョウ","prefecture_code":26},"0821":{"zip_code":"6170821","prefecture":"京都府","prefecture_kana":"キョウトフ","city":"長岡京市","city_kana":"ナガオカキョウシ","town":"野添","town_kana":"ノゾエ","prefecture_code":26},"0822":{"zip_code":"6170822","prefecture":"京都府","prefecture_kana":"キョウトフ","city":"長岡京市","city_kana":"ナガオカキョウシ","town":"八条が丘","town_kana":"ハチジョウガオカ","prefecture_code":26},"0842":{"zip_code":"6170842","prefecture":"京都府","prefecture_kana":"キョウトフ","city":"長岡京市","city_kana":"ナガオカキョウシ","town":"花山","town_kana":"ハナヤマ","prefecture_code":26},"0828":{"zip_code":"6170828","prefecture":"京都府","prefecture_kana":"キョウトフ","city":"長岡京市","city_kana":"ナガオカキョウシ","town":"馬場","town_kana":"ババ","prefecture_code":26},"0832":{"zip_code":"6170832","prefecture":"京都府","prefecture_kana":"キョウトフ","city":"長岡京市","city_kana":"ナガオカキョウシ","town":"東神足","town_kana":"ヒガシコウタリ","prefecture_code":26},"0838":{"zip_code":"6170838","prefecture":"京都府","prefecture_kana":"キョウトフ","city":"長岡京市","city_kana":"ナガオカキョウシ","town":"緑が丘","town_kana":"ミドリガオカ","prefecture_code":26}}