{"0200":[{"zip_code":"6190200","prefecture":"京都府","prefecture_kana":"キョウトフ","city":"木津川市","city_kana":"キヅガワシ","town":"","town_kana":"","prefecture_code":26},{"zip_code":"6190200","prefecture":"京都府","prefecture_kana":"キョウトフ","city":"相楽郡精華町","city_kana":"ソウラクグンセイカチョウ","town":"","town_kana":"","prefecture_code":26}],"0213":{"zip_code":"6190213","prefecture":"京都府","prefecture_kana":"キョウトフ","city":"木津川市","city_kana":"キヅガワシ","town":"市坂","town_kana":"イチサカ","prefecture_code":26},"0212":{"zip_code":"6190212","prefecture":"京都府","prefecture_kana":"キョウトフ","city":"木津川市","city_kana":"キヅガワシ","town":"梅谷","town_kana":"ウメダニ","prefecture_code":26},"0215":{"zip_code":"6190215","prefecture":"京都府","prefecture_kana":"キョウトフ","city":"木津川市","city_kana":"キヅガワシ","town":"梅美台","town_kana":"ウメミダイ","prefecture_code":26},"0211":{"zip_code":"6190211","prefecture":"京都府","prefecture_kana":"キョウトフ","city":"木津川市","city_kana":"キヅガワシ","town":"鹿背山","town_kana":"カセヤマ","prefecture_code":26},"0224":{"zip_code":"6190224","prefecture":"京都府","prefecture_kana":"キョウトフ","city":"木津川市","city_kana":"キヅガワシ","town":"兜台","town_kana":"カブトダイ","prefecture_code":26},"1102":{"zip_code":"6191102","prefecture":"京都府","prefecture_kana":"キョウトフ","city":"木津川市","city_kana":"キヅガワシ","town":"加茂町井平尾","town_kana":"カモチョウイビラオ","prefecture_code":26},"1133":{"zip_code":"6191133","prefecture":"京都府","prefecture_kana":"キョウトフ","city":"木津川市","city_kana":"キヅガワシ","town":"加茂町岩船","town_kana":"カモチョウイワフネ","prefecture_code":26},"1112":{"zip_code":"6191112","prefecture":"京都府","prefecture_kana":"キョウトフ","city":"木津川市","city_kana":"キヅガワシ","town":"加茂町兎並","town_kana":"カモチョウウナミ","prefecture_code":26},"1153":{"zip_code":"6191153","prefecture":"京都府","prefecture_kana":"キョウトフ","city":"木津川市","city_kana":"キヅガワシ","town":"加茂町駅西","town_kana":"カモチョウエキニシ","prefecture_code":26},"1154":{"zip_code":"6191154","prefecture":"京都府","prefecture_kana":"キョウトフ","city":"木津川市","city_kana":"キヅガワシ","town":"加茂町駅東","town_kana":"カモチョウエキヒガシ","prefecture_code":26},"1142":{"zip_code":"6191142","prefecture":"京都府","prefecture_kana":"キョウトフ","city":"木津川市","city_kana":"キヅガワシ","town":"加茂町大野","town_kana":"カモチョウオオノ","prefecture_code":26},"1132":{"zip_code":"6191132","prefecture":"京都府","prefecture_kana":"キョウトフ","city":"木津川市","city_kana":"キヅガワシ","town":"加茂町大畑","town_kana":"カモチョウオオハタ","prefecture_code":26},"1103":{"zip_code":"6191103","prefecture":"京都府","prefecture_kana":"キョウトフ","city":"木津川市","city_kana":"キヅガワシ","town":"加茂町岡崎","town_kana":"カモチョウオカザキ","prefecture_code":26},"1107":{"zip_code":"6191107","prefecture":"京都府","prefecture_kana":"キョウトフ","city":"木津川市","city_kana":"キヅガワシ","town":"加茂町奥畑","town_kana":"カモチョウオクハタ","prefecture_code":26},"1104":{"zip_code":"6191104","prefecture":"京都府","prefecture_kana":"キョウトフ","city":"木津川市","city_kana":"キヅガワシ","town":"加茂町河原","town_kana":"カモチョウカワラ","prefecture_code":26},"1143":{"zip_code":"6191143","prefecture":"京都府","prefecture_kana":"キョウトフ","city":"木津川市","city_kana":"キヅガワシ","town":"加茂町観音寺","town_kana":"カモチョウカンオンジ","prefecture_code":26},"1113":{"zip_code":"6191113","prefecture":"京都府","prefecture_kana":"キョウトフ","city":"木津川市","city_kana":"キヅガワシ","town":"加茂町北","town_kana":"カモチョウキタ","prefecture_code":26},"1121":{"zip_code":"6191121","prefecture":"京都府","prefecture_kana":"キョウトフ","city":"木津川市","city_kana":"キヅガワシ","town":"加茂町北下手","town_kana":"カモチョウキタシモデ","prefecture_code":26},"1136":[{"zip_code":"6191136","prefecture":"京都府","prefecture_kana":"キョウトフ","city":"木津川市","city_kana":"キヅガワシ","town":"加茂町北大門","town_kana":"カモチョウキタダイモン","prefecture_code":26},{"zip_code":"6191136","prefecture":"京都府","prefecture_kana":"キョウトフ","city":"木津川市","city_kana":"キヅガワシ","town":"加茂町南大門","town_kana":"カモチョウミナミダイモン","prefecture_code":26}],"1152":{"zip_code":"6191152","prefecture":"京都府","prefecture_kana":"キョウトフ","city":"木津川市","city_kana":"キヅガワシ","town":"加茂町里","town_kana":"カモチョウサト","prefecture_code":26},"1124":{"zip_code":"6191124","prefecture":"京都府","prefecture_kana":"キョウトフ","city":"木津川市","city_kana":"キヅガワシ","town":"加茂町勝風","town_kana":"カモチョウショウブ","prefecture_code":26},"1126":{"zip_code":"6191126","prefecture":"京都府","prefecture_kana":"キョウトフ","city":"木津川市","city_kana":"キヅガワシ","town":"加茂町尻枝","town_kana":"カモチョウシリエダ","prefecture_code":26},"1101":{"zip_code":"6191101","prefecture":"京都府","prefecture_kana":"キョウトフ","city":"木津川市","city_kana":"キヅガワシ","town":"加茂町銭司","town_kana":"カモチョウゼズ","prefecture_code":26},"1125":{"zip_code":"6191125","prefecture":"京都府","prefecture_kana":"キョウトフ","city":"木津川市","city_kana":"キヅガワシ","town":"加茂町高去","town_kana":"カモチョウタカサリ","prefecture_code":26},"1144":{"zip_code":"6191144","prefecture":"京都府","prefecture_kana":"キョウトフ","city":"木津川市","city_kana":"キヅガワシ","town":"加茂町高田","town_kana":"カモチョウタカタ","prefecture_code":26},"1131":{"zip_code":"6191131","prefecture":"京都府","prefecture_kana":"キョウトフ","city":"木津川市","city_kana":"キヅガワシ","town":"加茂町辻","town_kana":"カモチョウツジ","prefecture_code":26},"1105":{"zip_code":"6191105","prefecture":"京都府","prefecture_kana":"キョウトフ","city":"木津川市","city_kana":"キヅガワシ","town":"加茂町西","town_kana":"カモチョウニシ","prefecture_code":26},"1135":{"zip_code":"6191135","prefecture":"京都府","prefecture_kana":"キョウトフ","city":"木津川市","city_kana":"キヅガワシ","town":"加茂町西小","town_kana":"カモチョウニシオ","prefecture_code":26},"1134":[{"zip_code":"6191134","prefecture":"京都府","prefecture_kana":"キョウトフ","city":"木津川市","city_kana":"キヅガワシ","town":"加茂町東小上","town_kana":"カモチョウヒガシオカミ","prefecture_code":26},{"zip_code":"6191134","prefecture":"京都府","prefecture_kana":"キョウトフ","city":"木津川市","city_kana":"キヅガワシ","town":"加茂町東小下","town_kana":"カモチョウヒガシオシタ","prefecture_code":26}],"1141":{"zip_code":"6191141","prefecture":"京都府","prefecture_kana":"キョウトフ","city":"木津川市","city_kana":"キヅガワシ","town":"加茂町法花寺野","town_kana":"カモチョウホッケジノ","prefecture_code":26},"1151":{"zip_code":"6191151","prefecture":"京都府","prefecture_kana":"キョウトフ","city":"木津川市","city_kana":"キヅガワシ","town":"加茂町美浪","town_kana":"カモチョウミナミ","prefecture_code":26},"1122":{"zip_code":"6191122","prefecture":"京都府","prefecture_kana":"キョウトフ","city":"木津川市","city_kana":"キヅガワシ","town":"加茂町南下手","town_kana":"カモチョウミナミシモデ","prefecture_code":26},"1123":{"zip_code":"6191123","prefecture":"京都府","prefecture_kana":"キョウトフ","city":"木津川市","city_kana":"キヅガワシ","town":"加茂町森","town_kana":"カモチョウモリ","prefecture_code":26},"1111":{"zip_code":"6191111","prefecture":"京都府","prefecture_kana":"キョウトフ","city":"木津川市","city_kana":"キヅガワシ","town":"加茂町山田","town_kana":"カモチョウヤマダ","prefecture_code":26},"1106":{"zip_code":"6191106","prefecture":"京都府","prefecture_kana":"キョウトフ","city":"木津川市","city_kana":"キヅガワシ","town":"加茂町例幣","town_kana":"カモチョウレイヘイ","prefecture_code":26},"0214":[{"zip_code":"6190214","prefecture":"京都府","prefecture_kana":"キョウトフ","city":"木津川市","city_kana":"キヅガワシ","town":"木津","town_kana":"キヅ","prefecture_code":26},{"zip_code":"6190214","prefecture":"京都府","prefecture_kana":"キョウトフ","city":"木津川市","city_kana":"キヅガワシ","town":"木津駅前","town_kana":"キヅエキマエ","prefecture_code":26}],"0225":{"zip_code":"6190225","prefecture":"京都府","prefecture_kana":"キョウトフ","city":"木津川市","city_kana":"キヅガワシ","town":"木津川台","town_kana":"キヅガワダイ","prefecture_code":26},"0217":{"zip_code":"6190217","prefecture":"京都府","prefecture_kana":"キョウトフ","city":"木津川市","city_kana":"キヅガワシ","town":"木津町","town_kana":"キヅマチ","prefecture_code":26},"0216":{"zip_code":"6190216","prefecture":"京都府","prefecture_kana":"キョウトフ","city":"木津川市","city_kana":"キヅガワシ","town":"州見台","town_kana":"クニミダイ","prefecture_code":26},"0222":{"zip_code":"6190222","prefecture":"京都府","prefecture_kana":"キョウトフ","city":"木津川市","city_kana":"キヅガワシ","town":"相楽","town_kana":"サガナカ","prefecture_code":26},"0223":{"zip_code":"6190223","prefecture":"京都府","prefecture_kana":"キョウトフ","city":"木津川市","city_kana":"キヅガワシ","town":"相楽台","town_kana":"サガナカダイ","prefecture_code":26},"0218":{"zip_code":"6190218","prefecture":"京都府","prefecture_kana":"キョウトフ","city":"木津川市","city_kana":"キヅガワシ","town":"城山台","town_kana":"シロヤマダイ","prefecture_code":26},"1127":{"zip_code":"6191127","prefecture":"京都府","prefecture_kana":"キョウトフ","city":"木津川市","city_kana":"キヅガワシ","town":"南加茂台","town_kana":"ナガモダイ","prefecture_code":26},"0221":{"zip_code":"6190221","prefecture":"京都府","prefecture_kana":"キョウトフ","city":"木津川市","city_kana":"キヅガワシ","town":"吐師","town_kana":"ハゼ","prefecture_code":26},"0201":{"zip_code":"6190201","prefecture":"京都府","prefecture_kana":"キョウトフ","city":"木津川市","city_kana":"キヅガワシ","town":"山城町綺田","town_kana":"ヤマシロチョウカバタ","prefecture_code":26},"0204":{"zip_code":"6190204","prefecture":"京都府","prefecture_kana":"キョウトフ","city":"木津川市","city_kana":"キヅガワシ","town":"山城町上狛","town_kana":"ヤマシロチョウカミコマ","prefecture_code":26},"0206":{"zip_code":"6190206","prefecture":"京都府","prefecture_kana":"キョウトフ","city":"木津川市","city_kana":"キヅガワシ","town":"山城町北河原","town_kana":"ヤマシロチョウキタガワラ","prefecture_code":26},"0203":{"zip_code":"6190203","prefecture":"京都府","prefecture_kana":"キョウトフ","city":"木津川市","city_kana":"キヅガワシ","town":"山城町神童子","town_kana":"ヤマシロチョウジンドウジ","prefecture_code":26},"0205":{"zip_code":"6190205","prefecture":"京都府","prefecture_kana":"キョウトフ","city":"木津川市","city_kana":"キヅガワシ","town":"山城町椿井","town_kana":"ヤマシロチョウツバイ","prefecture_code":26},"0202":{"zip_code":"6190202","prefecture":"京都府","prefecture_kana":"キョウトフ","city":"木津川市","city_kana":"キヅガワシ","town":"山城町平尾","town_kana":"ヤマシロチョウヒラオ","prefecture_code":26},"1300":{"zip_code":"6191300","prefecture":"京都府","prefecture_kana":"キョウトフ","city":"相楽郡笠置町","city_kana":"ソウラクグンカサギチョウ","town":"","town_kana":"","prefecture_code":26},"1302":{"zip_code":"6191302","prefecture":"京都府","prefecture_kana":"キョウトフ","city":"相楽郡笠置町","city_kana":"ソウラクグンカサギチョウ","town":"飛鳥路","town_kana":"アスカジ","prefecture_code":26},"1301":{"zip_code":"6191301","prefecture":"京都府","prefecture_kana":"キョウトフ","city":"相楽郡笠置町","city_kana":"ソウラクグンカサギチョウ","town":"有市","town_kana":"アリイチ","prefecture_code":26},"1303":{"zip_code":"6191303","prefecture":"京都府","prefecture_kana":"キョウトフ","city":"相楽郡笠置町","city_kana":"ソウラクグンカサギチョウ","town":"笠置","town_kana":"カサギ","prefecture_code":26},"1304":{"zip_code":"6191304","prefecture":"京都府","prefecture_kana":"キョウトフ","city":"相楽郡笠置町","city_kana":"ソウラクグンカサギチョウ","town":"切山","town_kana":"キリヤマ","prefecture_code":26},"1200":{"zip_code":"6191200","prefecture":"京都府","prefecture_kana":"キョウトフ","city":"相楽郡和束町","city_kana":"ソウラクグンワヅカチョウ","town":"","town_kana":"","prefecture_code":26},"1221":{"zip_code":"6191221","prefecture":"京都府","prefecture_kana":"キョウトフ","city":"相楽郡和束町","city_kana":"ソウラクグンワヅカチョウ","town":"石寺","town_kana":"イシテラ","prefecture_code":26},"1225":{"zip_code":"6191225","prefecture":"京都府","prefecture_kana":"キョウトフ","city":"相楽郡和束町","city_kana":"ソウラクグンワヅカチョウ","town":"撰原","town_kana":"エリハラ","prefecture_code":26},"1212":{"zip_code":"6191212","prefecture":"京都府","prefecture_kana":"キョウトフ","city":"相楽郡和束町","city_kana":"ソウラクグンワヅカチョウ","town":"釜塚","town_kana":"カマツカ","prefecture_code":26},"1224":{"zip_code":"6191224","prefecture":"京都府","prefecture_kana":"キョウトフ","city":"相楽郡和束町","city_kana":"ソウラクグンワヅカチョウ","town":"木屋","town_kana":"コヤ","prefecture_code":26},"1226":{"zip_code":"6191226","prefecture":"京都府","prefecture_kana":"キョウトフ","city":"相楽郡和束町","city_kana":"ソウラクグンワヅカチョウ","town":"下島","town_kana":"シモジマ","prefecture_code":26},"1222":{"zip_code":"6191222","prefecture":"京都府","prefecture_kana":"キョウトフ","city":"相楽郡和束町","city_kana":"ソウラクグンワヅカチョウ","town":"白栖","town_kana":"シラス","prefecture_code":26},"1201":{"zip_code":"6191201","prefecture":"京都府","prefecture_kana":"キョウトフ","city":"相楽郡和束町","city_kana":"ソウラクグンワヅカチョウ","town":"園","town_kana":"ソノ","prefecture_code":26},"1223":{"zip_code":"6191223","prefecture":"京都府","prefecture_kana":"キョウトフ","city":"相楽郡和束町","city_kana":"ソウラクグンワヅカチョウ","town":"杣田","town_kana":"ソマダ","prefecture_code":26},"1205":{"zip_code":"6191205","prefecture":"京都府","prefecture_kana":"キョウトフ","city":"相楽郡和束町","city_kana":"ソウラクグンワヅカチョウ","town":"中","town_kana":"ナカ","prefecture_code":26},"1202":{"zip_code":"6191202","prefecture":"京都府","prefecture_kana":"キョウトフ","city":"相楽郡和束町","city_kana":"ソウラクグンワヅカチョウ","town":"原山","town_kana":"ハラヤマ","prefecture_code":26},"1211":{"zip_code":"6191211","prefecture":"京都府","prefecture_kana":"キョウトフ","city":"相楽郡和束町","city_kana":"ソウラクグンワヅカチョウ","town":"別所","town_kana":"ベッショ","prefecture_code":26},"1213":{"zip_code":"6191213","prefecture":"京都府","prefecture_kana":"キョウトフ","city":"相楽郡和束町","city_kana":"ソウラクグンワヅカチョウ","town":"南","town_kana":"ミナミ","prefecture_code":26},"1204":{"zip_code":"6191204","prefecture":"京都府","prefecture_kana":"キョウトフ","city":"相楽郡和束町","city_kana":"ソウラクグンワヅカチョウ","town":"門前","town_kana":"モンゼン","prefecture_code":26},"1203":{"zip_code":"6191203","prefecture":"京都府","prefecture_kana":"キョウトフ","city":"相楽郡和束町","city_kana":"ソウラクグンワヅカチョウ","town":"湯船","town_kana":"ユブネ","prefecture_code":26},"0233":{"zip_code":"6190233","prefecture":"京都府","prefecture_kana":"キョウトフ","city":"相楽郡精華町","city_kana":"ソウラクグンセイカチョウ","town":"乾谷","town_kana":"イヌイダニ","prefecture_code":26},"0236":{"zip_code":"6190236","prefecture":"京都府","prefecture_kana":"キョウトフ","city":"相楽郡精華町","city_kana":"ソウラクグンセイカチョウ","town":"植田","town_kana":"ウエダ","prefecture_code":26},"0244":{"zip_code":"6190244","prefecture":"京都府","prefecture_kana":"キョウトフ","city":"相楽郡精華町","city_kana":"ソウラクグンセイカチョウ","town":"北稲八間","town_kana":"キタイナヤヅマ","prefecture_code":26},"0232":{"zip_code":"6190232","prefecture":"京都府","prefecture_kana":"キョウトフ","city":"相楽郡精華町","city_kana":"ソウラクグンセイカチョウ","town":"桜が丘","town_kana":"サクラガオカ","prefecture_code":26},"0234":{"zip_code":"6190234","prefecture":"京都府","prefecture_kana":"キョウトフ","city":"相楽郡精華町","city_kana":"ソウラクグンセイカチョウ","town":"柘榴","town_kana":"ザクロ","prefecture_code":26},"0245":{"zip_code":"6190245","prefecture":"京都府","prefecture_kana":"キョウトフ","city":"相楽郡精華町","city_kana":"ソウラクグンセイカチョウ","town":"下狛","town_kana":"シモコマ","prefecture_code":26},"0242":{"zip_code":"6190242","prefecture":"京都府","prefecture_kana":"キョウトフ","city":"相楽郡精華町","city_kana":"ソウラクグンセイカチョウ","town":"菅井","town_kana":"スガイ","prefecture_code":26},"0238":{"zip_code":"6190238","prefecture":"京都府","prefecture_kana":"キョウトフ","city":"相楽郡精華町","city_kana":"ソウラクグンセイカチョウ","town":"精華台","town_kana":"セイカダイ","prefecture_code":26},"0235":{"zip_code":"6190235","prefecture":"京都府","prefecture_kana":"キョウトフ","city":"相楽郡精華町","city_kana":"ソウラクグンセイカチョウ","town":"東畑","town_kana":"ヒガシバタ","prefecture_code":26},"0237":{"zip_code":"6190237","prefecture":"京都府","prefecture_kana":"キョウトフ","city":"相楽郡精華町","city_kana":"ソウラクグンセイカチョウ","town":"光台","town_kana":"ヒカリダイ","prefecture_code":26},"0246":{"zip_code":"6190246","prefecture":"京都府","prefecture_kana":"キョウトフ","city":"相楽郡精華町","city_kana":"ソウラクグンセイカチョウ","town":"菱田","town_kana":"ヒシダ","prefecture_code":26},"0241":{"zip_code":"6190241","prefecture":"京都府","prefecture_kana":"キョウトフ","city":"相楽郡精華町","city_kana":"ソウラクグンセイカチョウ","town":"祝園","town_kana":"ホウソノ","prefecture_code":26},"0240":{"zip_code":"6190240","prefecture":"京都府","prefecture_kana":"キョウトフ","city":"相楽郡精華町","city_kana":"ソウラクグンセイカチョウ","town":"祝園西","town_kana":"ホウソノニシ","prefecture_code":26},"0243":{"zip_code":"6190243","prefecture":"京都府","prefecture_kana":"キョウトフ","city":"相楽郡精華町","city_kana":"ソウラクグンセイカチョウ","town":"南稲八妻","town_kana":"ミナミイナヤヅマ","prefecture_code":26},"0231":{"zip_code":"6190231","prefecture":"京都府","prefecture_kana":"キョウトフ","city":"相楽郡精華町","city_kana":"ソウラクグンセイカチョウ","town":"山田","town_kana":"ヤマダ","prefecture_code":26},"1400":{"zip_code":"6191400","prefecture":"京都府","prefecture_kana":"キョウトフ","city":"相楽郡南山城村","city_kana":"ソウラクグンミナミヤマシロムラ","town":"","town_kana":"","prefecture_code":26},"1411":{"zip_code":"6191411","prefecture":"京都府","prefecture_kana":"キョウトフ","city":"相楽郡南山城村","city_kana":"ソウラクグンミナミヤマシロムラ","town":"北大河原","town_kana":"キタオオカワラ","prefecture_code":26},"1422":{"zip_code":"6191422","prefecture":"京都府","prefecture_kana":"キョウトフ","city":"相楽郡南山城村","city_kana":"ソウラクグンミナミヤマシロムラ","town":"高尾","town_kana":"タカオ","prefecture_code":26},"1421":{"zip_code":"6191421","prefecture":"京都府","prefecture_kana":"キョウトフ","city":"相楽郡南山城村","city_kana":"ソウラクグンミナミヤマシロムラ","town":"田山","town_kana":"タヤマ","prefecture_code":26},"1401":{"zip_code":"6191401","prefecture":"京都府","prefecture_kana":"キョウトフ","city":"相楽郡南山城村","city_kana":"ソウラクグンミナミヤマシロムラ","town":"童仙房","town_kana":"ドウセンボウ","prefecture_code":26},"1402":{"zip_code":"6191402","prefecture":"京都府","prefecture_kana":"キョウトフ","city":"相楽郡南山城村","city_kana":"ソウラクグンミナミヤマシロムラ","town":"野殿","town_kana":"ノドノ","prefecture_code":26},"1412":{"zip_code":"6191412","prefecture":"京都府","prefecture_kana":"キョウトフ","city":"相楽郡南山城村","city_kana":"ソウラクグンミナミヤマシロムラ","town":"南大河原","town_kana":"ミナミオオカワラ","prefecture_code":26}}