{"0000":{"zip_code":"6200000","prefecture":"京都府","prefecture_kana":"キョウトフ","city":"福知山市","city_kana":"フクチヤマシ","town":"","town_kana":"","prefecture_code":26},"0861":{"zip_code":"6200861","prefecture":"京都府","prefecture_kana":"キョウトフ","city":"福知山市","city_kana":"フクチヤマシ","town":"秋津が丘","town_kana":"アキツガオカ","prefecture_code":26},"0947":{"zip_code":"6200947","prefecture":"京都府","prefecture_kana":"キョウトフ","city":"福知山市","city_kana":"フクチヤマシ","town":"旭が丘","town_kana":"アサヒガオカ","prefecture_code":26},"0058":{"zip_code":"6200058","prefecture":"京都府","prefecture_kana":"キョウトフ","city":"福知山市","city_kana":"フクチヤマシ","town":"厚","town_kana":"アツ","prefecture_code":26},"0056":{"zip_code":"6200056","prefecture":"京都府","prefecture_kana":"キョウトフ","city":"福知山市","city_kana":"フクチヤマシ","town":"厚中町","town_kana":"アツナカマチ","prefecture_code":26},"0059":{"zip_code":"6200059","prefecture":"京都府","prefecture_kana":"キョウトフ","city":"福知山市","city_kana":"フクチヤマシ","town":"厚東町","town_kana":"アツヒガシマチ","prefecture_code":26},"0964":{"zip_code":"6200964","prefecture":"京都府","prefecture_kana":"キョウトフ","city":"福知山市","city_kana":"フクチヤマシ","town":"甘栗","town_kana":"アマグリ","prefecture_code":26},"0201":{"zip_code":"6200201","prefecture":"京都府","prefecture_kana":"キョウトフ","city":"福知山市","city_kana":"フクチヤマシ","town":"天座","town_kana":"アマザ","prefecture_code":26},"0063":{"zip_code":"6200063","prefecture":"京都府","prefecture_kana":"キョウトフ","city":"福知山市","city_kana":"フクチヤマシ","town":"荒河新町","town_kana":"アラガシンマチ","prefecture_code":26},"0061":{"zip_code":"6200061","prefecture":"京都府","prefecture_kana":"キョウトフ","city":"福知山市","city_kana":"フクチヤマシ","town":"荒河東町","town_kana":"アラガヒガシマチ","prefecture_code":26},"0879":{"zip_code":"6200879","prefecture":"京都府","prefecture_kana":"キョウトフ","city":"福知山市","city_kana":"フクチヤマシ","town":"荒木","town_kana":"アラキ","prefecture_code":26},"0823":{"zip_code":"6200823","prefecture":"京都府","prefecture_kana":"キョウトフ","city":"福知山市","city_kana":"フクチヤマシ","town":"生野","town_kana":"イクノ","prefecture_code":26},"0832":{"zip_code":"6200832","prefecture":"京都府","prefecture_kana":"キョウトフ","city":"福知山市","city_kana":"フクチヤマシ","town":"池田","town_kana":"イケダ","prefecture_code":26},"0013":{"zip_code":"6200013","prefecture":"京都府","prefecture_kana":"キョウトフ","city":"福知山市","city_kana":"フクチヤマシ","town":"池部","town_kana":"イケベ","prefecture_code":26},"0804":{"zip_code":"6200804","prefecture":"京都府","prefecture_kana":"キョウトフ","city":"福知山市","city_kana":"フクチヤマシ","town":"石原","town_kana":"イサ","prefecture_code":26},"0017":{"zip_code":"6200017","prefecture":"京都府","prefecture_kana":"キョウトフ","city":"福知山市","city_kana":"フクチヤマシ","town":"猪崎","town_kana":"イザキ","prefecture_code":26},"0961":{"zip_code":"6200961","prefecture":"京都府","prefecture_kana":"キョウトフ","city":"福知山市","city_kana":"フクチヤマシ","town":"石場","town_kana":"イシバ","prefecture_code":26},"0074":{"zip_code":"6200074","prefecture":"京都府","prefecture_kana":"キョウトフ","city":"福知山市","city_kana":"フクチヤマシ","town":"石本","town_kana":"イシモト","prefecture_code":26},"0071":{"zip_code":"6200071","prefecture":"京都府","prefecture_kana":"キョウトフ","city":"福知山市","city_kana":"フクチヤマシ","town":"一尾","town_kana":"イチオ","prefecture_code":26},"0939":{"zip_code":"6200939","prefecture":"京都府","prefecture_kana":"キョウトフ","city":"福知山市","city_kana":"フクチヤマシ","town":"市寺","town_kana":"イチデラ","prefecture_code":26},"0848":{"zip_code":"6200848","prefecture":"京都府","prefecture_kana":"キョウトフ","city":"福知山市","city_kana":"フクチヤマシ","town":"市の谷","town_kana":"イチノタニ","prefecture_code":26},"0907":{"zip_code":"6200907","prefecture":"京都府","prefecture_kana":"キョウトフ","city":"福知山市","city_kana":"フクチヤマシ","town":"一ノ宮","town_kana":"イチノミヤ","prefecture_code":26},"0212":{"zip_code":"6200212","prefecture":"京都府","prefecture_kana":"キョウトフ","city":"福知山市","city_kana":"フクチヤマシ","town":"行積","town_kana":"イツモリ","prefecture_code":26},"0984":{"zip_code":"6200984","prefecture":"京都府","prefecture_kana":"キョウトフ","city":"福知山市","city_kana":"フクチヤマシ","town":"猪野々","town_kana":"イノノ","prefecture_code":26},"0953":{"zip_code":"6200953","prefecture":"京都府","prefecture_kana":"キョウトフ","city":"福知山市","city_kana":"フクチヤマシ","town":"今安","town_kana":"イマヤス","prefecture_code":26},"0031":{"zip_code":"6200031","prefecture":"京都府","prefecture_kana":"キョウトフ","city":"福知山市","city_kana":"フクチヤマシ","town":"鋳物師","town_kana":"イモジ","prefecture_code":26},"0922":{"zip_code":"6200922","prefecture":"京都府","prefecture_kana":"キョウトフ","city":"福知山市","city_kana":"フクチヤマシ","town":"岩井","town_kana":"イワイ","prefecture_code":26},"0920":{"zip_code":"6200920","prefecture":"京都府","prefecture_kana":"キョウトフ","city":"福知山市","city_kana":"フクチヤマシ","town":"岩井新町","town_kana":"イワイシンマチ","prefecture_code":26},"0064":{"zip_code":"6200064","prefecture":"京都府","prefecture_kana":"キョウトフ","city":"福知山市","city_kana":"フクチヤマシ","town":"岩井東町","town_kana":"イワイヒガシマチ","prefecture_code":26},"0831":{"zip_code":"6200831","prefecture":"京都府","prefecture_kana":"キョウトフ","city":"福知山市","city_kana":"フクチヤマシ","town":"岩崎","town_kana":"イワサキ","prefecture_code":26},"0847":{"zip_code":"6200847","prefecture":"京都府","prefecture_kana":"キョウトフ","city":"福知山市","city_kana":"フクチヤマシ","town":"岩間","town_kana":"イワマ","prefecture_code":26},"0005":{"zip_code":"6200005","prefecture":"京都府","prefecture_kana":"キョウトフ","city":"福知山市","city_kana":"フクチヤマシ","town":"印内","town_kana":"インナイ","prefecture_code":26},"0825":{"zip_code":"6200825","prefecture":"京都府","prefecture_kana":"キョウトフ","city":"福知山市","city_kana":"フクチヤマシ","town":"上野","town_kana":"ウエノ","prefecture_code":26},"0845":{"zip_code":"6200845","prefecture":"京都府","prefecture_kana":"キョウトフ","city":"福知山市","city_kana":"フクチヤマシ","town":"上松","town_kana":"ウエマツ","prefecture_code":26},"0881":{"zip_code":"6200881","prefecture":"京都府","prefecture_kana":"キョウトフ","city":"福知山市","city_kana":"フクチヤマシ","town":"内田町","town_kana":"ウチダチョウ","prefecture_code":26},"0985":{"zip_code":"6200985","prefecture":"京都府","prefecture_kana":"キョウトフ","city":"福知山市","city_kana":"フクチヤマシ","town":"梅谷","town_kana":"ウメダニ","prefecture_code":26},"0076":{"zip_code":"6200076","prefecture":"京都府","prefecture_kana":"キョウトフ","city":"福知山市","city_kana":"フクチヤマシ","town":"漆端","town_kana":"ウルシガハナ","prefecture_code":26},"0940":{"zip_code":"6200940","prefecture":"京都府","prefecture_kana":"キョウトフ","city":"福知山市","city_kana":"フクチヤマシ","town":"駅南町","town_kana":"エキナンチョウ","prefecture_code":26},"0045":{"zip_code":"6200045","prefecture":"京都府","prefecture_kana":"キョウトフ","city":"福知山市","city_kana":"フクチヤマシ","town":"駅前町","town_kana":"エキマエチョウ","prefecture_code":26},"0918":{"zip_code":"6200918","prefecture":"京都府","prefecture_kana":"キョウトフ","city":"福知山市","city_kana":"フクチヤマシ","town":"夷","town_kana":"エビス","prefecture_code":26},"0816":{"zip_code":"6200816","prefecture":"京都府","prefecture_kana":"キョウトフ","city":"福知山市","city_kana":"フクチヤマシ","town":"大池坂町","town_kana":"オオイケザカチョウ","prefecture_code":26},"0325":{"zip_code":"6200325","prefecture":"京都府","prefecture_kana":"キョウトフ","city":"福知山市","city_kana":"フクチヤマシ","town":"大江町天田内","town_kana":"オオエチョウアマダウチ","prefecture_code":26},"0354":{"zip_code":"6200354","prefecture":"京都府","prefecture_kana":"キョウトフ","city":"福知山市","city_kana":"フクチヤマシ","town":"大江町在田","town_kana":"オオエチョウアリタ","prefecture_code":26},"0334":{"zip_code":"6200334","prefecture":"京都府","prefecture_kana":"キョウトフ","city":"福知山市","city_kana":"フクチヤマシ","town":"大江町市原谷","town_kana":"オオエチョウイチワラダニ","prefecture_code":26},"0304":{"zip_code":"6200304","prefecture":"京都府","prefecture_kana":"キョウトフ","city":"福知山市","city_kana":"フクチヤマシ","town":"大江町上野","town_kana":"オオエチョウウエノ","prefecture_code":26},"0314":{"zip_code":"6200314","prefecture":"京都府","prefecture_kana":"キョウトフ","city":"福知山市","city_kana":"フクチヤマシ","town":"大江町小原田","town_kana":"オオエチョウオワラタ","prefecture_code":26},"0303":{"zip_code":"6200303","prefecture":"京都府","prefecture_kana":"キョウトフ","city":"福知山市","city_kana":"フクチヤマシ","town":"大江町金屋","town_kana":"オオエチョウカナヤ","prefecture_code":26},"0341":{"zip_code":"6200341","prefecture":"京都府","prefecture_kana":"キョウトフ","city":"福知山市","city_kana":"フクチヤマシ","town":"大江町北有路","town_kana":"オオエチョウキタアリジ","prefecture_code":26},"0327":{"zip_code":"6200327","prefecture":"京都府","prefecture_kana":"キョウトフ","city":"福知山市","city_kana":"フクチヤマシ","town":"大江町北原","town_kana":"オオエチョウキタバラ","prefecture_code":26},"0312":{"zip_code":"6200312","prefecture":"京都府","prefecture_kana":"キョウトフ","city":"福知山市","city_kana":"フクチヤマシ","town":"大江町公庄","town_kana":"オオエチョウグジョウ","prefecture_code":26},"0322":{"zip_code":"6200322","prefecture":"京都府","prefecture_kana":"キョウトフ","city":"福知山市","city_kana":"フクチヤマシ","town":"大江町毛原","town_kana":"オオエチョウケワラ","prefecture_code":26},"0301":{"zip_code":"6200301","prefecture":"京都府","prefecture_kana":"キョウトフ","city":"福知山市","city_kana":"フクチヤマシ","town":"大江町河守","town_kana":"オオエチョウコウモリ","prefecture_code":26},"0302":{"zip_code":"6200302","prefecture":"京都府","prefecture_kana":"キョウトフ","city":"福知山市","city_kana":"フクチヤマシ","town":"大江町関","town_kana":"オオエチョウセキ","prefecture_code":26},"0351":{"zip_code":"6200351","prefecture":"京都府","prefecture_kana":"キョウトフ","city":"福知山市","city_kana":"フクチヤマシ","town":"大江町千原","town_kana":"オオエチョウセンバラ","prefecture_code":26},"0331":{"zip_code":"6200331","prefecture":"京都府","prefecture_kana":"キョウトフ","city":"福知山市","city_kana":"フクチヤマシ","town":"大江町三河","town_kana":"オオエチョウソウゴ","prefecture_code":26},"0332":{"zip_code":"6200332","prefecture":"京都府","prefecture_kana":"キョウトフ","city":"福知山市","city_kana":"フクチヤマシ","town":"大江町高津江","town_kana":"オオエチョウタカツエ","prefecture_code":26},"0311":{"zip_code":"6200311","prefecture":"京都府","prefecture_kana":"キョウトフ","city":"福知山市","city_kana":"フクチヤマシ","town":"大江町蓼原","town_kana":"オオエチョウタデワラ","prefecture_code":26},"0355":{"zip_code":"6200355","prefecture":"京都府","prefecture_kana":"キョウトフ","city":"福知山市","city_kana":"フクチヤマシ","town":"大江町常津","town_kana":"オオエチョウツネヅ","prefecture_code":26},"0323":{"zip_code":"6200323","prefecture":"京都府","prefecture_kana":"キョウトフ","city":"福知山市","city_kana":"フクチヤマシ","town":"大江町内宮","town_kana":"オオエチョウナイク","prefecture_code":26},"0353":{"zip_code":"6200353","prefecture":"京都府","prefecture_kana":"キョウトフ","city":"福知山市","city_kana":"フクチヤマシ","town":"大江町夏間","town_kana":"オオエチョウナツマ","prefecture_code":26},"0333":{"zip_code":"6200333","prefecture":"京都府","prefecture_kana":"キョウトフ","city":"福知山市","city_kana":"フクチヤマシ","town":"大江町二箇","town_kana":"オオエチョウニカ","prefecture_code":26},"0326":{"zip_code":"6200326","prefecture":"京都府","prefecture_kana":"キョウトフ","city":"福知山市","city_kana":"フクチヤマシ","town":"大江町橋谷","town_kana":"オオエチョウハシダニ","prefecture_code":26},"0305":{"zip_code":"6200305","prefecture":"京都府","prefecture_kana":"キョウトフ","city":"福知山市","city_kana":"フクチヤマシ","town":"大江町波美","town_kana":"オオエチョウハビ","prefecture_code":26},"0313":{"zip_code":"6200313","prefecture":"京都府","prefecture_kana":"キョウトフ","city":"福知山市","city_kana":"フクチヤマシ","town":"大江町日藤","town_kana":"オオエチョウヒトウ","prefecture_code":26},"0356":{"zip_code":"6200356","prefecture":"京都府","prefecture_kana":"キョウトフ","city":"福知山市","city_kana":"フクチヤマシ","town":"大江町尾藤","town_kana":"オオエチョウビトウ","prefecture_code":26},"0324":{"zip_code":"6200324","prefecture":"京都府","prefecture_kana":"キョウトフ","city":"福知山市","city_kana":"フクチヤマシ","town":"大江町二俣","town_kana":"オオエチョウフタマタ","prefecture_code":26},"0321":{"zip_code":"6200321","prefecture":"京都府","prefecture_kana":"キョウトフ","city":"福知山市","city_kana":"フクチヤマシ","town":"大江町仏性寺","town_kana":"オオエチョウブツショウジ","prefecture_code":26},"0342":{"zip_code":"6200342","prefecture":"京都府","prefecture_kana":"キョウトフ","city":"福知山市","city_kana":"フクチヤマシ","town":"大江町南有路","town_kana":"オオエチョウミナミアリジ","prefecture_code":26},"0352":{"zip_code":"6200352","prefecture":"京都府","prefecture_kana":"キョウトフ","city":"福知山市","city_kana":"フクチヤマシ","town":"大江町南山","town_kana":"オオエチョウミナミヤマ","prefecture_code":26},"0836":{"zip_code":"6200836","prefecture":"京都府","prefecture_kana":"キョウトフ","city":"福知山市","city_kana":"フクチヤマシ","town":"大内","town_kana":"オオチ","prefecture_code":26},"0858":{"zip_code":"6200858","prefecture":"京都府","prefecture_kana":"キョウトフ","city":"福知山市","city_kana":"フクチヤマシ","town":"大野","town_kana":"オオノ","prefecture_code":26},"0852":{"zip_code":"6200852","prefecture":"京都府","prefecture_kana":"キョウトフ","city":"福知山市","city_kana":"フクチヤマシ","town":"大野上","town_kana":"オオノウエ","prefecture_code":26},"0851":{"zip_code":"6200851","prefecture":"京都府","prefecture_kana":"キョウトフ","city":"福知山市","city_kana":"フクチヤマシ","town":"大野下","town_kana":"オオノシタ","prefecture_code":26},"0988":{"zip_code":"6200988","prefecture":"京都府","prefecture_kana":"キョウトフ","city":"福知山市","city_kana":"フクチヤマシ","town":"大見長祖","town_kana":"オオミナガソ","prefecture_code":26},"0077":{"zip_code":"6200077","prefecture":"京都府","prefecture_kana":"キョウトフ","city":"福知山市","city_kana":"フクチヤマシ","town":"大呂","town_kana":"オオロ","prefecture_code":26},"0872":{"zip_code":"6200872","prefecture":"京都府","prefecture_kana":"キョウトフ","city":"福知山市","city_kana":"フクチヤマシ","town":"岡ノ一町","town_kana":"オカノ1マチ","prefecture_code":26},"0871":{"zip_code":"6200871","prefecture":"京都府","prefecture_kana":"キョウトフ","city":"福知山市","city_kana":"フクチヤマシ","town":"岡ノ二町","town_kana":"オカノ2マチ","prefecture_code":26},"0873":{"zip_code":"6200873","prefecture":"京都府","prefecture_kana":"キョウトフ","city":"福知山市","city_kana":"フクチヤマシ","town":"岡ノ三町","town_kana":"オカノ3マチ","prefecture_code":26},"0891":{"zip_code":"6200891","prefecture":"京都府","prefecture_kana":"キョウトフ","city":"福知山市","city_kana":"フクチヤマシ","town":"岡ノ上町","town_kana":"オカノウエマチ","prefecture_code":26},"0802":{"zip_code":"6200802","prefecture":"京都府","prefecture_kana":"キョウトフ","city":"福知山市","city_kana":"フクチヤマシ","town":"興","town_kana":"オキ","prefecture_code":26},"0963":{"zip_code":"6200963","prefecture":"京都府","prefecture_kana":"キョウトフ","city":"福知山市","city_kana":"フクチヤマシ","town":"奥榎原","town_kana":"オクエバラ","prefecture_code":26},"0928":{"zip_code":"6200928","prefecture":"京都府","prefecture_kana":"キョウトフ","city":"福知山市","city_kana":"フクチヤマシ","town":"奥野部","town_kana":"オクノベ","prefecture_code":26},"0846":{"zip_code":"6200846","prefecture":"京都府","prefecture_kana":"キョウトフ","city":"福知山市","city_kana":"フクチヤマシ","town":"長田段","town_kana":"オサダダン","prefecture_code":26},"0853":{"zip_code":"6200853","prefecture":"京都府","prefecture_kana":"キョウトフ","city":"福知山市","city_kana":"フクチヤマシ","town":"長田野町","town_kana":"オサダノチョウ","prefecture_code":26},"0843":{"zip_code":"6200843","prefecture":"京都府","prefecture_kana":"キョウトフ","city":"福知山市","city_kana":"フクチヤマシ","town":"長田南","town_kana":"オサダミナミ","prefecture_code":26},"0842":{"zip_code":"6200842","prefecture":"京都府","prefecture_kana":"キョウトフ","city":"福知山市","city_kana":"フクチヤマシ","town":"長田北","town_kana":"オサダキタ","prefecture_code":26},"0981":{"zip_code":"6200981","prefecture":"京都府","prefecture_kana":"キョウトフ","city":"福知山市","city_kana":"フクチヤマシ","town":"小田","town_kana":"オダ","prefecture_code":26},"0938":{"zip_code":"6200938","prefecture":"京都府","prefecture_kana":"キョウトフ","city":"福知山市","city_kana":"フクチヤマシ","town":"小野脇","town_kana":"オノワキ","prefecture_code":26},"0034":{"zip_code":"6200034","prefecture":"京都府","prefecture_kana":"キョウトフ","city":"福知山市","city_kana":"フクチヤマシ","town":"鍛冶","town_kana":"カジ","prefecture_code":26},"0921":{"zip_code":"6200921","prefecture":"京都府","prefecture_kana":"キョウトフ","city":"福知山市","city_kana":"フクチヤマシ","town":"かしの木台","town_kana":"カシノキダイ","prefecture_code":26},"0065":{"zip_code":"6200065","prefecture":"京都府","prefecture_kana":"キョウトフ","city":"福知山市","city_kana":"フクチヤマシ","town":"上荒河","town_kana":"カミアラガ","prefecture_code":26},"0911":{"zip_code":"6200911","prefecture":"京都府","prefecture_kana":"キョウトフ","city":"福知山市","city_kana":"フクチヤマシ","town":"上大内","town_kana":"カミオオチ","prefecture_code":26},"0033":{"zip_code":"6200033","prefecture":"京都府","prefecture_kana":"キョウトフ","city":"福知山市","city_kana":"フクチヤマシ","town":"上紺屋","town_kana":"カミコヤ","prefecture_code":26},"0901":{"zip_code":"6200901","prefecture":"京都府","prefecture_kana":"キョウトフ","city":"福知山市","city_kana":"フクチヤマシ","town":"上佐々木","town_kana":"カミササキ","prefecture_code":26},"0925":{"zip_code":"6200925","prefecture":"京都府","prefecture_kana":"キョウトフ","city":"福知山市","city_kana":"フクチヤマシ","town":"上篠尾","town_kana":"カミサソオ","prefecture_code":26},"0028":{"zip_code":"6200028","prefecture":"京都府","prefecture_kana":"キョウトフ","city":"福知山市","city_kana":"フクチヤマシ","town":"上新","town_kana":"カミシン","prefecture_code":26},"0214":{"zip_code":"6200214","prefecture":"京都府","prefecture_kana":"キョウトフ","city":"福知山市","city_kana":"フクチヤマシ","town":"上野条","town_kana":"カミノウジョウ","prefecture_code":26},"0987":{"zip_code":"6200987","prefecture":"京都府","prefecture_kana":"キョウトフ","city":"福知山市","city_kana":"フクチヤマシ","town":"鴨野町","town_kana":"カモノチョウ","prefecture_code":26},"0969":{"zip_code":"6200969","prefecture":"京都府","prefecture_kana":"キョウトフ","city":"福知山市","city_kana":"フクチヤマシ","town":"茅ノ台","town_kana":"カヤノダイ","prefecture_code":26},"0004":{"zip_code":"6200004","prefecture":"京都府","prefecture_kana":"キョウトフ","city":"福知山市","city_kana":"フクチヤマシ","town":"川北","town_kana":"カワギタ","prefecture_code":26},"0803":{"zip_code":"6200803","prefecture":"京都府","prefecture_kana":"キョウトフ","city":"福知山市","city_kana":"フクチヤマシ","town":"観音寺","town_kana":"カンノンジ","prefecture_code":26},"0859":{"zip_code":"6200859","prefecture":"京都府","prefecture_kana":"キョウトフ","city":"福知山市","city_kana":"フクチヤマシ","town":"桔梗が丘","town_kana":"キキョウガオカ","prefecture_code":26},"0003":{"zip_code":"6200003","prefecture":"京都府","prefecture_kana":"キョウトフ","city":"福知山市","city_kana":"フクチヤマシ","town":"私市","town_kana":"キサイチ","prefecture_code":26},"0902":{"zip_code":"6200902","prefecture":"京都府","prefecture_kana":"キョウトフ","city":"福知山市","city_kana":"フクチヤマシ","town":"喜多","town_kana":"キタ","prefecture_code":26},"0943":{"zip_code":"6200943","prefecture":"京都府","prefecture_kana":"キョウトフ","city":"福知山市","city_kana":"フクチヤマシ","town":"北岡町","town_kana":"キタオカチョウ","prefecture_code":26},"0893":{"zip_code":"6200893","prefecture":"京都府","prefecture_kana":"キョウトフ","city":"福知山市","city_kana":"フクチヤマシ","town":"北小谷ケ丘","town_kana":"キタコタニガオカ","prefecture_code":26},"0043":{"zip_code":"6200043","prefecture":"京都府","prefecture_kana":"キョウトフ","city":"福知山市","city_kana":"フクチヤマシ","town":"北栄町","town_kana":"キタサカエマチ","prefecture_code":26},"0931":{"zip_code":"6200931","prefecture":"京都府","prefecture_kana":"キョウトフ","city":"福知山市","city_kana":"フクチヤマシ","town":"北羽合","town_kana":"キタハゴウ","prefecture_code":26},"0811":{"zip_code":"6200811","prefecture":"京都府","prefecture_kana":"キョウトフ","city":"福知山市","city_kana":"フクチヤマシ","town":"北平野町","town_kana":"キタヒラノチョウ","prefecture_code":26},"0041":{"zip_code":"6200041","prefecture":"京都府","prefecture_kana":"キョウトフ","city":"福知山市","city_kana":"フクチヤマシ","town":"北本町一区","town_kana":"キタホンマチイック","prefecture_code":26},"0042":{"zip_code":"6200042","prefecture":"京都府","prefecture_kana":"キョウトフ","city":"福知山市","city_kana":"フクチヤマシ","town":"北本町二区","town_kana":"キタホンマチニク","prefecture_code":26},"0968":{"zip_code":"6200968","prefecture":"京都府","prefecture_kana":"キョウトフ","city":"福知山市","city_kana":"フクチヤマシ","town":"北山","town_kana":"キタヤマ","prefecture_code":26},"0027":{"zip_code":"6200027","prefecture":"京都府","prefecture_kana":"キョウトフ","city":"福知山市","city_kana":"フクチヤマシ","town":"京","town_kana":"キョウ","prefecture_code":26},"0962":{"zip_code":"6200962","prefecture":"京都府","prefecture_kana":"キョウトフ","city":"福知山市","city_kana":"フクチヤマシ","town":"口榎原","town_kana":"クチエバラ","prefecture_code":26},"0221":{"zip_code":"6200221","prefecture":"京都府","prefecture_kana":"キョウトフ","city":"福知山市","city_kana":"フクチヤマシ","town":"雲原","town_kana":"クモハラ","prefecture_code":26},"0835":{"zip_code":"6200835","prefecture":"京都府","prefecture_kana":"キョウトフ","city":"福知山市","city_kana":"フクチヤマシ","town":"後正寺","town_kana":"ゴショウジ","prefecture_code":26},"0026":{"zip_code":"6200026","prefecture":"京都府","prefecture_kana":"キョウトフ","city":"福知山市","city_kana":"フクチヤマシ","town":"呉服","town_kana":"ゴフク","prefecture_code":26},"0078":{"zip_code":"6200078","prefecture":"京都府","prefecture_kana":"キョウトフ","city":"福知山市","city_kana":"フクチヤマシ","town":"瘤木","town_kana":"コブノキ","prefecture_code":26},"0972":{"zip_code":"6200972","prefecture":"京都府","prefecture_kana":"キョウトフ","city":"福知山市","city_kana":"フクチヤマシ","town":"小牧","town_kana":"コマキ","prefecture_code":26},"0863":{"zip_code":"6200863","prefecture":"京都府","prefecture_kana":"キョウトフ","city":"福知山市","city_kana":"フクチヤマシ","town":"小松ケ丘","town_kana":"コマツガオカ","prefecture_code":26},"0841":{"zip_code":"6200841","prefecture":"京都府","prefecture_kana":"キョウトフ","city":"福知山市","city_kana":"フクチヤマシ","town":"駒場","town_kana":"コマバ","prefecture_code":26},"0827":{"zip_code":"6200827","prefecture":"京都府","prefecture_kana":"キョウトフ","city":"福知山市","city_kana":"フクチヤマシ","town":"坂室","town_kana":"サカムロ","prefecture_code":26},"0971":{"zip_code":"6200971","prefecture":"京都府","prefecture_kana":"キョウトフ","city":"福知山市","city_kana":"フクチヤマシ","town":"下戸","town_kana":"サゲト","prefecture_code":26},"0838":{"zip_code":"6200838","prefecture":"京都府","prefecture_kana":"キョウトフ","city":"福知山市","city_kana":"フクチヤマシ","town":"笹場","town_kana":"ササバ","prefecture_code":26},"0055":{"zip_code":"6200055","prefecture":"京都府","prefecture_kana":"キョウトフ","city":"福知山市","city_kana":"フクチヤマシ","town":"篠尾新町","town_kana":"サソオシンマチ","prefecture_code":26},"0958":{"zip_code":"6200958","prefecture":"京都府","prefecture_kana":"キョウトフ","city":"福知山市","city_kana":"フクチヤマシ","town":"さつきケ丘","town_kana":"サツキガオカ","prefecture_code":26},"0072":{"zip_code":"6200072","prefecture":"京都府","prefecture_kana":"キョウトフ","city":"福知山市","city_kana":"フクチヤマシ","town":"下天津","town_kana":"シモアマヅ","prefecture_code":26},"0066":{"zip_code":"6200066","prefecture":"京都府","prefecture_kana":"キョウトフ","city":"福知山市","city_kana":"フクチヤマシ","town":"下荒河","town_kana":"シモアラガ","prefecture_code":26},"0015":{"zip_code":"6200015","prefecture":"京都府","prefecture_kana":"キョウトフ","city":"福知山市","city_kana":"フクチヤマシ","town":"下猪崎","town_kana":"シモイザキ","prefecture_code":26},"0912":{"zip_code":"6200912","prefecture":"京都府","prefecture_kana":"キョウトフ","city":"福知山市","city_kana":"フクチヤマシ","town":"下大内","town_kana":"シモオオチ","prefecture_code":26},"0982":{"zip_code":"6200982","prefecture":"京都府","prefecture_kana":"キョウトフ","city":"福知山市","city_kana":"フクチヤマシ","town":"下小田","town_kana":"シモオダ","prefecture_code":26},"0032":{"zip_code":"6200032","prefecture":"京都府","prefecture_kana":"キョウトフ","city":"福知山市","city_kana":"フクチヤマシ","town":"下紺屋","town_kana":"シモコヤ","prefecture_code":26},"0908":{"zip_code":"6200908","prefecture":"京都府","prefecture_kana":"キョウトフ","city":"福知山市","city_kana":"フクチヤマシ","town":"下佐々木","town_kana":"シモササキ","prefecture_code":26},"0924":{"zip_code":"6200924","prefecture":"京都府","prefecture_kana":"キョウトフ","city":"福知山市","city_kana":"フクチヤマシ","town":"下篠尾","town_kana":"シモサソオ","prefecture_code":26},"0839":{"zip_code":"6200839","prefecture":"京都府","prefecture_kana":"キョウトフ","city":"福知山市","city_kana":"フクチヤマシ","town":"下地","town_kana":"シモジ","prefecture_code":26},"0029":{"zip_code":"6200029","prefecture":"京都府","prefecture_kana":"キョウトフ","city":"福知山市","city_kana":"フクチヤマシ","town":"下新","town_kana":"シモシン","prefecture_code":26},"0211":{"zip_code":"6200211","prefecture":"京都府","prefecture_kana":"キョウトフ","city":"福知山市","city_kana":"フクチヤマシ","town":"下野条","town_kana":"シモノウジョウ","prefecture_code":26},"0022":{"zip_code":"6200022","prefecture":"京都府","prefecture_kana":"キョウトフ","city":"福知山市","city_kana":"フクチヤマシ","town":"下柳","town_kana":"シモヤナギ","prefecture_code":26},"0875":{"zip_code":"6200875","prefecture":"京都府","prefecture_kana":"キョウトフ","city":"福知山市","city_kana":"フクチヤマシ","town":"蛇ケ端","town_kana":"ジャガハナ","prefecture_code":26},"0915":{"zip_code":"6200915","prefecture":"京都府","prefecture_kana":"キョウトフ","city":"福知山市","city_kana":"フクチヤマシ","town":"十二","town_kana":"ジュウニ","prefecture_code":26},"0904":{"zip_code":"6200904","prefecture":"京都府","prefecture_kana":"キョウトフ","city":"福知山市","city_kana":"フクチヤマシ","town":"常願寺","town_kana":"ジョウガンジ","prefecture_code":26},"0826":{"zip_code":"6200826","prefecture":"京都府","prefecture_kana":"キョウトフ","city":"福知山市","city_kana":"フクチヤマシ","town":"正後寺","town_kana":"ショウゴジ","prefecture_code":26},"0828":{"zip_code":"6200828","prefecture":"京都府","prefecture_kana":"キョウトフ","city":"福知山市","city_kana":"フクチヤマシ","town":"正坂","town_kana":"ショウサカ","prefecture_code":26},"0936":{"zip_code":"6200936","prefecture":"京都府","prefecture_kana":"キョウトフ","city":"福知山市","city_kana":"フクチヤマシ","town":"正明寺","town_kana":"ショウミョウジ","prefecture_code":26},"0051":{"zip_code":"6200051","prefecture":"京都府","prefecture_kana":"キョウトフ","city":"福知山市","city_kana":"フクチヤマシ","town":"昭和新町","town_kana":"ショウワシンマチ","prefecture_code":26},"0052":{"zip_code":"6200052","prefecture":"京都府","prefecture_kana":"キョウトフ","city":"福知山市","city_kana":"フクチヤマシ","town":"昭和町","town_kana":"ショウワチョウ","prefecture_code":26},"0016":{"zip_code":"6200016","prefecture":"京都府","prefecture_kana":"キョウトフ","city":"福知山市","city_kana":"フクチヤマシ","town":"城山","town_kana":"シロヤマ","prefecture_code":26},"0906":{"zip_code":"6200906","prefecture":"京都府","prefecture_kana":"キョウトフ","city":"福知山市","city_kana":"フクチヤマシ","town":"新宮","town_kana":"シングウ","prefecture_code":26},"0926":{"zip_code":"6200926","prefecture":"京都府","prefecture_kana":"キョウトフ","city":"福知山市","city_kana":"フクチヤマシ","town":"新庄","town_kana":"シンジョウ","prefecture_code":26},"0054":{"zip_code":"6200054","prefecture":"京都府","prefecture_kana":"キョウトフ","city":"福知山市","city_kana":"フクチヤマシ","town":"末広町","town_kana":"スエヒロチョウ","prefecture_code":26},"0956":{"zip_code":"6200956","prefecture":"京都府","prefecture_kana":"キョウトフ","city":"福知山市","city_kana":"フクチヤマシ","town":"額塚","town_kana":"スクモヅカ","prefecture_code":26},"0849":{"zip_code":"6200849","prefecture":"京都府","prefecture_kana":"キョウトフ","city":"福知山市","city_kana":"フクチヤマシ","town":"砂子町","town_kana":"スナゴマチ","prefecture_code":26},"0989":{"zip_code":"6200989","prefecture":"京都府","prefecture_kana":"キョウトフ","city":"福知山市","city_kana":"フクチヤマシ","town":"住所大山","town_kana":"スミンジョオオヤマ","prefecture_code":26},"0806":{"zip_code":"6200806","prefecture":"京都府","prefecture_kana":"キョウトフ","city":"福知山市","city_kana":"フクチヤマシ","town":"聖佳町","town_kana":"セイカチョウ","prefecture_code":26},"0952":{"zip_code":"6200952","prefecture":"京都府","prefecture_kana":"キョウトフ","city":"福知山市","city_kana":"フクチヤマシ","town":"大門","town_kana":"ダイモン","prefecture_code":26},"0854":{"zip_code":"6200854","prefecture":"京都府","prefecture_kana":"キョウトフ","city":"福知山市","city_kana":"フクチヤマシ","town":"高畑","town_kana":"タカバタケ","prefecture_code":26},"0914":{"zip_code":"6200914","prefecture":"京都府","prefecture_kana":"キョウトフ","city":"福知山市","city_kana":"フクチヤマシ","town":"立原","town_kana":"タツワラ","prefecture_code":26},"0837":{"zip_code":"6200837","prefecture":"京都府","prefecture_kana":"キョウトフ","city":"福知山市","city_kana":"フクチヤマシ","town":"田野","town_kana":"タノ","prefecture_code":26},"0965":{"zip_code":"6200965","prefecture":"京都府","prefecture_kana":"キョウトフ","city":"福知山市","city_kana":"フクチヤマシ","town":"樽水","town_kana":"タルミ","prefecture_code":26},"0905":{"zip_code":"6200905","prefecture":"京都府","prefecture_kana":"キョウトフ","city":"福知山市","city_kana":"フクチヤマシ","town":"田和","town_kana":"タワ","prefecture_code":26},"0973":{"zip_code":"6200973","prefecture":"京都府","prefecture_kana":"キョウトフ","city":"福知山市","city_kana":"フクチヤマシ","town":"談","town_kana":"ダン","prefecture_code":26},"0073":{"zip_code":"6200073","prefecture":"京都府","prefecture_kana":"キョウトフ","city":"福知山市","city_kana":"フクチヤマシ","town":"勅使","town_kana":"チョクシ","prefecture_code":26},"0966":{"zip_code":"6200966","prefecture":"京都府","prefecture_kana":"キョウトフ","city":"福知山市","city_kana":"フクチヤマシ","town":"辻","town_kana":"ツジ","prefecture_code":26},"0808":{"zip_code":"6200808","prefecture":"京都府","prefecture_kana":"キョウトフ","city":"福知山市","city_kana":"フクチヤマシ","town":"土","town_kana":"ツチ","prefecture_code":26},"0949":{"zip_code":"6200949","prefecture":"京都府","prefecture_kana":"キョウトフ","city":"福知山市","city_kana":"フクチヤマシ","town":"つつじケ丘","town_kana":"ツツジガオカ","prefecture_code":26},"0021":{"zip_code":"6200021","prefecture":"京都府","prefecture_kana":"キョウトフ","city":"福知山市","city_kana":"フクチヤマシ","town":"寺","town_kana":"テラ","prefecture_code":26},"0844":{"zip_code":"6200844","prefecture":"京都府","prefecture_kana":"キョウトフ","city":"福知山市","city_kana":"フクチヤマシ","town":"多保市","town_kana":"トオノイチ","prefecture_code":26},"0801":{"zip_code":"6200801","prefecture":"京都府","prefecture_kana":"キョウトフ","city":"福知山市","city_kana":"フクチヤマシ","town":"戸田","town_kana":"トダ","prefecture_code":26},"0951":{"zip_code":"6200951","prefecture":"京都府","prefecture_kana":"キョウトフ","city":"福知山市","city_kana":"フクチヤマシ","town":"十三丘","town_kana":"トミオカ","prefecture_code":26},"0057":{"zip_code":"6200057","prefecture":"京都府","prefecture_kana":"キョウトフ","city":"福知山市","city_kana":"フクチヤマシ","town":"問屋町","town_kana":"トンヤマチ","prefecture_code":26},"0035":{"zip_code":"6200035","prefecture":"京都府","prefecture_kana":"キョウトフ","city":"福知山市","city_kana":"フクチヤマシ","town":"内記","town_kana":"ナイキ","prefecture_code":26},"0014":{"zip_code":"6200014","prefecture":"京都府","prefecture_kana":"キョウトフ","city":"福知山市","city_kana":"フクチヤマシ","town":"中","town_kana":"ナカ","prefecture_code":26},"0213":{"zip_code":"6200213","prefecture":"京都府","prefecture_kana":"キョウトフ","city":"福知山市","city_kana":"フクチヤマシ","town":"長尾","town_kana":"ナガオ","prefecture_code":26},"0817":{"zip_code":"6200817","prefecture":"京都府","prefecture_kana":"キョウトフ","city":"福知山市","city_kana":"フクチヤマシ","town":"中坂町","town_kana":"ナカサカチョウ","prefecture_code":26},"0909":{"zip_code":"6200909","prefecture":"京都府","prefecture_kana":"キョウトフ","city":"福知山市","city_kana":"フクチヤマシ","town":"中佐々木","town_kana":"ナカササキ","prefecture_code":26},"0834":{"zip_code":"6200834","prefecture":"京都府","prefecture_kana":"キョウトフ","city":"福知山市","city_kana":"フクチヤマシ","town":"中地","town_kana":"ナカチ","prefecture_code":26},"0036":{"zip_code":"6200036","prefecture":"京都府","prefecture_kana":"キョウトフ","city":"福知山市","city_kana":"フクチヤマシ","town":"中ノ町","town_kana":"ナカノマチ","prefecture_code":26},"0815":{"zip_code":"6200815","prefecture":"京都府","prefecture_kana":"キョウトフ","city":"福知山市","city_kana":"フクチヤマシ","town":"長山町","town_kana":"ナガヤマチョウ","prefecture_code":26},"0865":{"zip_code":"6200865","prefecture":"京都府","prefecture_kana":"キョウトフ","city":"福知山市","city_kana":"フクチヤマシ","town":"西佳屋野町","town_kana":"ニシカヤノチョウ","prefecture_code":26},"0886":{"zip_code":"6200886","prefecture":"京都府","prefecture_kana":"キョウトフ","city":"福知山市","city_kana":"フクチヤマシ","town":"西小谷ケ丘","town_kana":"ニシコタニガオカ","prefecture_code":26},"0038":{"zip_code":"6200038","prefecture":"京都府","prefecture_kana":"キョウトフ","city":"福知山市","city_kana":"フクチヤマシ","town":"西中ノ町","town_kana":"ニシナカノマチ","prefecture_code":26},"0025":{"zip_code":"6200025","prefecture":"京都府","prefecture_kana":"キョウトフ","city":"福知山市","city_kana":"フクチヤマシ","town":"西長町","town_kana":"ニシナガマチ","prefecture_code":26},"0932":{"zip_code":"6200932","prefecture":"京都府","prefecture_kana":"キョウトフ","city":"福知山市","city_kana":"フクチヤマシ","town":"西羽合","town_kana":"ニシハゴウ","prefecture_code":26},"0814":{"zip_code":"6200814","prefecture":"京都府","prefecture_kana":"キョウトフ","city":"福知山市","city_kana":"フクチヤマシ","town":"西平野町","town_kana":"ニシヒラノチョウ","prefecture_code":26},"0053":{"zip_code":"6200053","prefecture":"京都府","prefecture_kana":"キョウトフ","city":"福知山市","city_kana":"フクチヤマシ","town":"西本町","town_kana":"ニシホンマチ","prefecture_code":26},"0039":{"zip_code":"6200039","prefecture":"京都府","prefecture_kana":"キョウトフ","city":"福知山市","city_kana":"フクチヤマシ","town":"西町","town_kana":"ニシマチ","prefecture_code":26},"0888":{"zip_code":"6200888","prefecture":"京都府","prefecture_kana":"キョウトフ","city":"福知山市","city_kana":"フクチヤマシ","town":"野家","town_kana":"ノケ","prefecture_code":26},"0983":{"zip_code":"6200983","prefecture":"京都府","prefecture_kana":"キョウトフ","city":"福知山市","city_kana":"フクチヤマシ","town":"野笹","town_kana":"ノザサ","prefecture_code":26},"0917":{"zip_code":"6200917","prefecture":"京都府","prefecture_kana":"キョウトフ","city":"福知山市","city_kana":"フクチヤマシ","town":"野花","town_kana":"ノバナ","prefecture_code":26},"0955":{"zip_code":"6200955","prefecture":"京都府","prefecture_kana":"キョウトフ","city":"福知山市","city_kana":"フクチヤマシ","town":"拝師","town_kana":"ハイシ","prefecture_code":26},"0075":{"zip_code":"6200075","prefecture":"京都府","prefecture_kana":"キョウトフ","city":"福知山市","city_kana":"フクチヤマシ","town":"波江","town_kana":"ハエ","prefecture_code":26},"0822":{"zip_code":"6200822","prefecture":"京都府","prefecture_kana":"キョウトフ","city":"福知山市","city_kana":"フクチヤマシ","town":"萩原","town_kana":"ハギワラ","prefecture_code":26},"0011":{"zip_code":"6200011","prefecture":"京都府","prefecture_kana":"キョウトフ","city":"福知山市","city_kana":"フクチヤマシ","town":"筈巻","town_kana":"ハズマキ","prefecture_code":26},"0857":{"zip_code":"6200857","prefecture":"京都府","prefecture_kana":"キョウトフ","city":"福知山市","city_kana":"フクチヤマシ","town":"土師","town_kana":"ハゼ","prefecture_code":26},"0855":{"zip_code":"6200855","prefecture":"京都府","prefecture_kana":"キョウトフ","city":"福知山市","city_kana":"フクチヤマシ","town":"土師新町","town_kana":"ハゼシンマチ","prefecture_code":26},"0856":{"zip_code":"6200856","prefecture":"京都府","prefecture_kana":"キョウトフ","city":"福知山市","city_kana":"フクチヤマシ","town":"土師宮町","town_kana":"ハゼミヤマチ","prefecture_code":26},"0967":{"zip_code":"6200967","prefecture":"京都府","prefecture_kana":"キョウトフ","city":"福知山市","city_kana":"フクチヤマシ","town":"畑中","town_kana":"ハタケナカ","prefecture_code":26},"0954":{"zip_code":"6200954","prefecture":"京都府","prefecture_kana":"キョウトフ","city":"福知山市","city_kana":"フクチヤマシ","town":"半田","town_kana":"ハンダ","prefecture_code":26},"0892":{"zip_code":"6200892","prefecture":"京都府","prefecture_kana":"キョウトフ","city":"福知山市","city_kana":"フクチヤマシ","town":"東岡町","town_kana":"ヒガシオカチョウ","prefecture_code":26},"0862":{"zip_code":"6200862","prefecture":"京都府","prefecture_kana":"キョウトフ","city":"福知山市","city_kana":"フクチヤマシ","town":"東佳屋野町","town_kana":"ヒガシカヤノチョウ","prefecture_code":26},"0887":{"zip_code":"6200887","prefecture":"京都府","prefecture_kana":"キョウトフ","city":"福知山市","city_kana":"フクチヤマシ","town":"東小谷ケ丘","town_kana":"ヒガシコタニガオカ","prefecture_code":26},"0037":{"zip_code":"6200037","prefecture":"京都府","prefecture_kana":"キョウトフ","city":"福知山市","city_kana":"フクチヤマシ","town":"東中ノ町","town_kana":"ヒガシナカノマチ","prefecture_code":26},"0024":{"zip_code":"6200024","prefecture":"京都府","prefecture_kana":"キョウトフ","city":"福知山市","city_kana":"フクチヤマシ","town":"東長町","town_kana":"ヒガシナガマチ","prefecture_code":26},"0807":{"zip_code":"6200807","prefecture":"京都府","prefecture_kana":"キョウトフ","city":"福知山市","city_kana":"フクチヤマシ","town":"東野町","town_kana":"ヒガシノチョウ","prefecture_code":26},"0933":{"zip_code":"6200933","prefecture":"京都府","prefecture_kana":"キョウトフ","city":"福知山市","city_kana":"フクチヤマシ","town":"東羽合","town_kana":"ヒガシハゴウ","prefecture_code":26},"0812":{"zip_code":"6200812","prefecture":"京都府","prefecture_kana":"キョウトフ","city":"福知山市","city_kana":"フクチヤマシ","town":"東平野町","town_kana":"ヒガシヒラノチョウ","prefecture_code":26},"0882":{"zip_code":"6200882","prefecture":"京都府","prefecture_kana":"キョウトフ","city":"福知山市","city_kana":"フクチヤマシ","town":"東堀","town_kana":"ヒガシボリ","prefecture_code":26},"0047":{"zip_code":"6200047","prefecture":"京都府","prefecture_kana":"キョウトフ","city":"福知山市","city_kana":"フクチヤマシ","town":"東本町","town_kana":"ヒガシホンマチ","prefecture_code":26},"0023":{"zip_code":"6200023","prefecture":"京都府","prefecture_kana":"キョウトフ","city":"福知山市","city_kana":"フクチヤマシ","town":"菱屋","town_kana":"ヒシヤ","prefecture_code":26},"0903":{"zip_code":"6200903","prefecture":"京都府","prefecture_kana":"キョウトフ","city":"福知山市","city_kana":"フクチヤマシ","town":"日尾","town_kana":"ヒノオ","prefecture_code":26},"0878":{"zip_code":"6200878","prefecture":"京都府","prefecture_kana":"キョウトフ","city":"福知山市","city_kana":"フクチヤマシ","town":"日吉ケ丘","town_kana":"ヒヨシガオカ","prefecture_code":26},"0945":{"zip_code":"6200945","prefecture":"京都府","prefecture_kana":"キョウトフ","city":"福知山市","city_kana":"フクチヤマシ","town":"広峯町","town_kana":"ヒロミネチョウ","prefecture_code":26},"0974":{"zip_code":"6200974","prefecture":"京都府","prefecture_kana":"キョウトフ","city":"福知山市","city_kana":"フクチヤマシ","town":"法用","town_kana":"ホウヨウ","prefecture_code":26},"0002":{"zip_code":"6200002","prefecture":"京都府","prefecture_kana":"キョウトフ","city":"福知山市","city_kana":"フクチヤマシ","town":"報恩寺","town_kana":"ホオジ","prefecture_code":26},"0874":{"zip_code":"6200874","prefecture":"京都府","prefecture_kana":"キョウトフ","city":"福知山市","city_kana":"フクチヤマシ","town":"堀口","town_kana":"ホリグチ","prefecture_code":26},"0824":{"zip_code":"6200824","prefecture":"京都府","prefecture_kana":"キョウトフ","city":"福知山市","city_kana":"フクチヤマシ","town":"堀越","town_kana":"ホリコシ","prefecture_code":26},"0923":{"zip_code":"6200923","prefecture":"京都府","prefecture_kana":"キョウトフ","city":"福知山市","city_kana":"フクチヤマシ","town":"本庄","town_kana":"ホンショウ","prefecture_code":26},"0883":{"zip_code":"6200883","prefecture":"京都府","prefecture_kana":"キョウトフ","city":"福知山市","city_kana":"フクチヤマシ","town":"本堀","town_kana":"ホンボリ","prefecture_code":26},"0867":{"zip_code":"6200867","prefecture":"京都府","prefecture_kana":"キョウトフ","city":"福知山市","city_kana":"フクチヤマシ","town":"前田","town_kana":"マエダ","prefecture_code":26},"0866":{"zip_code":"6200866","prefecture":"京都府","prefecture_kana":"キョウトフ","city":"福知山市","city_kana":"フクチヤマシ","town":"前田新町","town_kana":"マエダシンマチ","prefecture_code":26},"0913":{"zip_code":"6200913","prefecture":"京都府","prefecture_kana":"キョウトフ","city":"福知山市","city_kana":"フクチヤマシ","town":"牧","town_kana":"マキ","prefecture_code":26},"0894":{"zip_code":"6200894","prefecture":"京都府","prefecture_kana":"キョウトフ","city":"福知山市","city_kana":"フクチヤマシ","town":"丸田ケ丘","town_kana":"マルタガオカ","prefecture_code":26},"0876":{"zip_code":"6200876","prefecture":"京都府","prefecture_kana":"キョウトフ","city":"福知山市","city_kana":"フクチヤマシ","town":"水内","town_kana":"ミズウチ","prefecture_code":26},"0895":{"zip_code":"6200895","prefecture":"京都府","prefecture_kana":"キョウトフ","city":"福知山市","city_kana":"フクチヤマシ","town":"緑ケ丘町","town_kana":"ミドリガオカチョウ","prefecture_code":26},"0946":{"zip_code":"6200946","prefecture":"京都府","prefecture_kana":"キョウトフ","city":"福知山市","city_kana":"フクチヤマシ","town":"南天田町","town_kana":"ミナミアマダチョウ","prefecture_code":26},"0944":{"zip_code":"6200944","prefecture":"京都府","prefecture_kana":"キョウトフ","city":"福知山市","city_kana":"フクチヤマシ","town":"南岡町","town_kana":"ミナミオカマチ","prefecture_code":26},"0864":{"zip_code":"6200864","prefecture":"京都府","prefecture_kana":"キョウトフ","city":"福知山市","city_kana":"フクチヤマシ","town":"南佳屋野町","town_kana":"ミナミカヤノチョウ","prefecture_code":26},"0885":{"zip_code":"6200885","prefecture":"京都府","prefecture_kana":"キョウトフ","city":"福知山市","city_kana":"フクチヤマシ","town":"南小谷ケ丘","town_kana":"ミナミコタニガオカ","prefecture_code":26},"0044":{"zip_code":"6200044","prefecture":"京都府","prefecture_kana":"キョウトフ","city":"福知山市","city_kana":"フクチヤマシ","town":"南栄町","town_kana":"ミナミサカエマチ","prefecture_code":26},"0805":{"zip_code":"6200805","prefecture":"京都府","prefecture_kana":"キョウトフ","city":"福知山市","city_kana":"フクチヤマシ","town":"南土野町","town_kana":"ミナミツチノチョウ","prefecture_code":26},"0934":{"zip_code":"6200934","prefecture":"京都府","prefecture_kana":"キョウトフ","city":"福知山市","city_kana":"フクチヤマシ","town":"南羽合","town_kana":"ミナミハゴウ","prefecture_code":26},"0813":{"zip_code":"6200813","prefecture":"京都府","prefecture_kana":"キョウトフ","city":"福知山市","city_kana":"フクチヤマシ","town":"南平野町","town_kana":"ミナミヒラノチョウ","prefecture_code":26},"0046":{"zip_code":"6200046","prefecture":"京都府","prefecture_kana":"キョウトフ","city":"福知山市","city_kana":"フクチヤマシ","town":"南本町","town_kana":"ミナミホンマチ","prefecture_code":26},"0884":{"zip_code":"6200884","prefecture":"京都府","prefecture_kana":"キョウトフ","city":"福知山市","city_kana":"フクチヤマシ","town":"南本堀","town_kana":"ミナミホンボリ","prefecture_code":26},"0821":{"zip_code":"6200821","prefecture":"京都府","prefecture_kana":"キョウトフ","city":"福知山市","city_kana":"フクチヤマシ","town":"三俣","town_kana":"ミマタ","prefecture_code":26},"0833":{"zip_code":"6200833","prefecture":"京都府","prefecture_kana":"キョウトフ","city":"福知山市","city_kana":"フクチヤマシ","town":"宮","town_kana":"ミヤ","prefecture_code":26},"0986":{"zip_code":"6200986","prefecture":"京都府","prefecture_kana":"キョウトフ","city":"福知山市","city_kana":"フクチヤマシ","town":"宮垣","town_kana":"ミヤガキ","prefecture_code":26},"1444":{"zip_code":"6201444","prefecture":"京都府","prefecture_kana":"キョウトフ","city":"福知山市","city_kana":"フクチヤマシ","town":"三和町芦渕","town_kana":"ミワチョウアシブチ","prefecture_code":26},"1425":{"zip_code":"6201425","prefecture":"京都府","prefecture_kana":"キョウトフ","city":"福知山市","city_kana":"フクチヤマシ","town":"三和町菟原下","town_kana":"ミワチョウウバラシモ","prefecture_code":26},"1422":{"zip_code":"6201422","prefecture":"京都府","prefecture_kana":"キョウトフ","city":"福知山市","city_kana":"フクチヤマシ","town":"三和町菟原中","town_kana":"ミワチョウウバラナカ","prefecture_code":26},"1441":{"zip_code":"6201441","prefecture":"京都府","prefecture_kana":"キョウトフ","city":"福知山市","city_kana":"フクチヤマシ","town":"三和町梅原","town_kana":"ミワチョウウメハラ","prefecture_code":26},"1301":{"zip_code":"6201301","prefecture":"京都府","prefecture_kana":"キョウトフ","city":"福知山市","city_kana":"フクチヤマシ","town":"三和町大原","town_kana":"ミワチョウオオバラ","prefecture_code":26},"1421":{"zip_code":"6201421","prefecture":"京都府","prefecture_kana":"キョウトフ","city":"福知山市","city_kana":"フクチヤマシ","town":"三和町大身","town_kana":"ミワチョウオオミ","prefecture_code":26},"1311":{"zip_code":"6201311","prefecture":"京都府","prefecture_kana":"キョウトフ","city":"福知山市","city_kana":"フクチヤマシ","town":"三和町上川合","town_kana":"ミワチョウカミガワイ","prefecture_code":26},"1314":{"zip_code":"6201314","prefecture":"京都府","prefecture_kana":"キョウトフ","city":"福知山市","city_kana":"フクチヤマシ","town":"三和町加用","town_kana":"ミワチョウカヨウ","prefecture_code":26},"1435":{"zip_code":"6201435","prefecture":"京都府","prefecture_kana":"キョウトフ","city":"福知山市","city_kana":"フクチヤマシ","town":"三和町草山","town_kana":"ミワチョウクサヤマ","prefecture_code":26},"1434":{"zip_code":"6201434","prefecture":"京都府","prefecture_kana":"キョウトフ","city":"福知山市","city_kana":"フクチヤマシ","town":"三和町西松","town_kana":"ミワチョウサイマツ","prefecture_code":26},"1313":{"zip_code":"6201313","prefecture":"京都府","prefecture_kana":"キョウトフ","city":"福知山市","city_kana":"フクチヤマシ","town":"三和町下川合","town_kana":"ミワチョウシモカワイ","prefecture_code":26},"1442":{"zip_code":"6201442","prefecture":"京都府","prefecture_kana":"キョウトフ","city":"福知山市","city_kana":"フクチヤマシ","town":"三和町千束","town_kana":"ミワチョウセンゾク","prefecture_code":26},"1302":{"zip_code":"6201302","prefecture":"京都府","prefecture_kana":"キョウトフ","city":"福知山市","city_kana":"フクチヤマシ","town":"三和町台頭","town_kana":"ミワチョウダイト","prefecture_code":26},"1423":{"zip_code":"6201423","prefecture":"京都府","prefecture_kana":"キョウトフ","city":"福知山市","city_kana":"フクチヤマシ","town":"三和町高杉","town_kana":"ミワチョウタカスギ","prefecture_code":26},"1433":{"zip_code":"6201433","prefecture":"京都府","prefecture_kana":"キョウトフ","city":"福知山市","city_kana":"フクチヤマシ","town":"三和町田ノ谷","town_kana":"ミワチョウタノタニ","prefecture_code":26},"1431":{"zip_code":"6201431","prefecture":"京都府","prefecture_kana":"キョウトフ","city":"福知山市","city_kana":"フクチヤマシ","town":"三和町辻","town_kana":"ミワチョウツジ","prefecture_code":26},"1443":{"zip_code":"6201443","prefecture":"京都府","prefecture_kana":"キョウトフ","city":"福知山市","city_kana":"フクチヤマシ","town":"三和町寺尾","town_kana":"ミワチョウテラオ","prefecture_code":26},"1424":{"zip_code":"6201424","prefecture":"京都府","prefecture_kana":"キョウトフ","city":"福知山市","city_kana":"フクチヤマシ","town":"三和町友渕","town_kana":"ミワチョウトモブチ","prefecture_code":26},"1432":{"zip_code":"6201432","prefecture":"京都府","prefecture_kana":"キョウトフ","city":"福知山市","city_kana":"フクチヤマシ","town":"三和町中出","town_kana":"ミワチョウナカデ","prefecture_code":26},"1445":{"zip_code":"6201445","prefecture":"京都府","prefecture_kana":"キョウトフ","city":"福知山市","city_kana":"フクチヤマシ","town":"三和町みわ","town_kana":"ミワチョウミワ","prefecture_code":26},"1312":{"zip_code":"6201312","prefecture":"京都府","prefecture_kana":"キョウトフ","city":"福知山市","city_kana":"フクチヤマシ","town":"三和町岼","town_kana":"ミワチョウユリ","prefecture_code":26},"0935":{"zip_code":"6200935","prefecture":"京都府","prefecture_kana":"キョウトフ","city":"福知山市","city_kana":"フクチヤマシ","town":"向野","town_kana":"ムカイノ","prefecture_code":26},"0916":{"zip_code":"6200916","prefecture":"京都府","prefecture_kana":"キョウトフ","city":"福知山市","city_kana":"フクチヤマシ","town":"六十内","town_kana":"ムソチ","prefecture_code":26},"0937":{"zip_code":"6200937","prefecture":"京都府","prefecture_kana":"キョウトフ","city":"福知山市","city_kana":"フクチヤマシ","town":"室","town_kana":"ムロ","prefecture_code":26},"0877":{"zip_code":"6200877","prefecture":"京都府","prefecture_kana":"キョウトフ","city":"福知山市","city_kana":"フクチヤマシ","town":"森垣","town_kana":"モリガイ","prefecture_code":26},"0012":{"zip_code":"6200012","prefecture":"京都府","prefecture_kana":"キョウトフ","city":"福知山市","city_kana":"フクチヤマシ","town":"安井","town_kana":"ヤスイ","prefecture_code":26},"0957":{"zip_code":"6200957","prefecture":"京都府","prefecture_kana":"キョウトフ","city":"福知山市","city_kana":"フクチヤマシ","town":"山崎","town_kana":"ヤマザキ","prefecture_code":26},"0001":{"zip_code":"6200001","prefecture":"京都府","prefecture_kana":"キョウトフ","city":"福知山市","city_kana":"フクチヤマシ","town":"山野口","town_kana":"ヤマノクチ","prefecture_code":26},"0948":{"zip_code":"6200948","prefecture":"京都府","prefecture_kana":"キョウトフ","city":"福知山市","city_kana":"フクチヤマシ","town":"夕陽が丘","town_kana":"ユウヒガオカ","prefecture_code":26},"0062":{"zip_code":"6200062","prefecture":"京都府","prefecture_kana":"キョウトフ","city":"福知山市","city_kana":"フクチヤマシ","town":"和久市町","town_kana":"ワクイチチョウ","prefecture_code":26},"0927":{"zip_code":"6200927","prefecture":"京都府","prefecture_kana":"キョウトフ","city":"福知山市","city_kana":"フクチヤマシ","town":"和久寺","town_kana":"ワクデラ","prefecture_code":26}}