{"0000":{"zip_code":"6210000","prefecture":"京都府","prefecture_kana":"キョウトフ","city":"亀岡市","city_kana":"カメオカシ","town":"","town_kana":"","prefecture_code":26},"0001":{"zip_code":"6210001","prefecture":"京都府","prefecture_kana":"キョウトフ","city":"亀岡市","city_kana":"カメオカシ","town":"旭町","town_kana":"アサヒチョウ","prefecture_code":26},"0806":{"zip_code":"6210806","prefecture":"京都府","prefecture_kana":"キョウトフ","city":"亀岡市","city_kana":"カメオカシ","town":"余部町","town_kana":"アマルベチョウ","prefecture_code":26},"0851":{"zip_code":"6210851","prefecture":"京都府","prefecture_kana":"キョウトフ","city":"亀岡市","city_kana":"カメオカシ","town":"荒塚町","town_kana":"アラツカチョウ","prefecture_code":26},"0864":{"zip_code":"6210864","prefecture":"京都府","prefecture_kana":"キョウトフ","city":"亀岡市","city_kana":"カメオカシ","town":"内丸町","town_kana":"ウチマルチョウ","prefecture_code":26},"0801":{"zip_code":"6210801","prefecture":"京都府","prefecture_kana":"キョウトフ","city":"亀岡市","city_kana":"カメオカシ","town":"宇津根町","town_kana":"ウツネチョウ","prefecture_code":26},"0008":{"zip_code":"6210008","prefecture":"京都府","prefecture_kana":"キョウトフ","city":"亀岡市","city_kana":"カメオカシ","town":"馬路町","town_kana":"ウマジチョウ","prefecture_code":26},"0804":{"zip_code":"6210804","prefecture":"京都府","prefecture_kana":"キョウトフ","city":"亀岡市","city_kana":"カメオカシ","town":"追分町","town_kana":"オイワケチョウ","prefecture_code":26},"0012":{"zip_code":"6210012","prefecture":"京都府","prefecture_kana":"キョウトフ","city":"亀岡市","city_kana":"カメオカシ","town":"大井町かすみケ丘","town_kana":"オオイチョウカスミガオカ","prefecture_code":26},"0018":{"zip_code":"6210018","prefecture":"京都府","prefecture_kana":"キョウトフ","city":"亀岡市","city_kana":"カメオカシ","town":"大井町小金岐","town_kana":"オオイチョウコカナゲ","prefecture_code":26},"0011":{"zip_code":"6210011","prefecture":"京都府","prefecture_kana":"キョウトフ","city":"亀岡市","city_kana":"カメオカシ","town":"大井町土田","town_kana":"オオイチョウツチダ","prefecture_code":26},"0013":{"zip_code":"6210013","prefecture":"京都府","prefecture_kana":"キョウトフ","city":"亀岡市","city_kana":"カメオカシ","town":"大井町並河","town_kana":"オオイチョウナミカワ","prefecture_code":26},"0016":{"zip_code":"6210016","prefecture":"京都府","prefecture_kana":"キョウトフ","city":"亀岡市","city_kana":"カメオカシ","town":"大井町南金岐","town_kana":"オオイチョウミナミカナゲ","prefecture_code":26},"0017":{"zip_code":"6210017","prefecture":"京都府","prefecture_kana":"キョウトフ","city":"亀岡市","city_kana":"カメオカシ","town":"大井町北金岐","town_kana":"オオイチョウキタカナゲ","prefecture_code":26},"0856":{"zip_code":"6210856","prefecture":"京都府","prefecture_kana":"キョウトフ","city":"亀岡市","city_kana":"カメオカシ","town":"上矢田町","town_kana":"カミヤダチョウ","prefecture_code":26},"0007":{"zip_code":"6210007","prefecture":"京都府","prefecture_kana":"キョウトフ","city":"亀岡市","city_kana":"カメオカシ","town":"河原林町河原尻","town_kana":"カワラバヤシチョウカワラジリ","prefecture_code":26},"0006":{"zip_code":"6210006","prefecture":"京都府","prefecture_kana":"キョウトフ","city":"亀岡市","city_kana":"カメオカシ","town":"河原林町勝林島","town_kana":"カワラバヤシチョウショウリンジマ","prefecture_code":26},"0803":{"zip_code":"6210803","prefecture":"京都府","prefecture_kana":"キョウトフ","city":"亀岡市","city_kana":"カメオカシ","town":"河原町","town_kana":"カワラマチ","prefecture_code":26},"0802":{"zip_code":"6210802","prefecture":"京都府","prefecture_kana":"キョウトフ","city":"亀岡市","city_kana":"カメオカシ","town":"北河原町","town_kana":"キタカワラマチ","prefecture_code":26},"0811":{"zip_code":"6210811","prefecture":"京都府","prefecture_kana":"キョウトフ","city":"亀岡市","city_kana":"カメオカシ","town":"北古世町","town_kana":"キタコセチョウ","prefecture_code":26},"0861":{"zip_code":"6210861","prefecture":"京都府","prefecture_kana":"キョウトフ","city":"亀岡市","city_kana":"カメオカシ","town":"北町","town_kana":"キタマチ","prefecture_code":26},"0818":{"zip_code":"6210818","prefecture":"京都府","prefecture_kana":"キョウトフ","city":"亀岡市","city_kana":"カメオカシ","town":"京町","town_kana":"キョウマチ","prefecture_code":26},"0815":{"zip_code":"6210815","prefecture":"京都府","prefecture_kana":"キョウトフ","city":"亀岡市","city_kana":"カメオカシ","town":"古世町","town_kana":"コセチョウ","prefecture_code":26},"0819":{"zip_code":"6210819","prefecture":"京都府","prefecture_kana":"キョウトフ","city":"亀岡市","city_kana":"カメオカシ","town":"呉服町","town_kana":"ゴフクマチ","prefecture_code":26},"0852":{"zip_code":"6210852","prefecture":"京都府","prefecture_kana":"キョウトフ","city":"亀岡市","city_kana":"カメオカシ","town":"紺屋町","town_kana":"コンヤマチ","prefecture_code":26},"0867":{"zip_code":"6210867","prefecture":"京都府","prefecture_kana":"キョウトフ","city":"亀岡市","city_kana":"カメオカシ","town":"塩屋町","town_kana":"シオヤマチ","prefecture_code":26},"0823":{"zip_code":"6210823","prefecture":"京都府","prefecture_kana":"キョウトフ","city":"亀岡市","city_kana":"カメオカシ","town":"篠町馬堀","town_kana":"シノチョウウマホリ","prefecture_code":26},"0828":{"zip_code":"6210828","prefecture":"京都府","prefecture_kana":"キョウトフ","city":"亀岡市","city_kana":"カメオカシ","town":"篠町馬堀駅前","town_kana":"シノチョウウマホリエキマエ","prefecture_code":26},"0827":{"zip_code":"6210827","prefecture":"京都府","prefecture_kana":"キョウトフ","city":"亀岡市","city_kana":"カメオカシ","town":"篠町王子","town_kana":"シノチョウオウジ","prefecture_code":26},"0821":{"zip_code":"6210821","prefecture":"京都府","prefecture_kana":"キョウトフ","city":"亀岡市","city_kana":"カメオカシ","town":"篠町柏原","town_kana":"シノチョウカセバラ","prefecture_code":26},"0826":{"zip_code":"6210826","prefecture":"京都府","prefecture_kana":"キョウトフ","city":"亀岡市","city_kana":"カメオカシ","town":"篠町篠","town_kana":"シノチョウシノ","prefecture_code":26},"0835":{"zip_code":"6210835","prefecture":"京都府","prefecture_kana":"キョウトフ","city":"亀岡市","city_kana":"カメオカシ","town":"篠町浄法寺","town_kana":"シノチョウジョウボウジ","prefecture_code":26},"0822":{"zip_code":"6210822","prefecture":"京都府","prefecture_kana":"キョウトフ","city":"亀岡市","city_kana":"カメオカシ","town":"篠町野条","town_kana":"シノチョウノジョウ","prefecture_code":26},"0834":{"zip_code":"6210834","prefecture":"京都府","prefecture_kana":"キョウトフ","city":"亀岡市","city_kana":"カメオカシ","town":"篠町広田","town_kana":"シノチョウヒロタ","prefecture_code":26},"0824":{"zip_code":"6210824","prefecture":"京都府","prefecture_kana":"キョウトフ","city":"亀岡市","city_kana":"カメオカシ","town":"篠町見晴","town_kana":"シノチョウミハル","prefecture_code":26},"0831":{"zip_code":"6210831","prefecture":"京都府","prefecture_kana":"キョウトフ","city":"亀岡市","city_kana":"カメオカシ","town":"篠町森","town_kana":"シノチョウモリ","prefecture_code":26},"0825":{"zip_code":"6210825","prefecture":"京都府","prefecture_kana":"キョウトフ","city":"亀岡市","city_kana":"カメオカシ","town":"篠町山本","town_kana":"シノチョウヤマモト","prefecture_code":26},"0829":{"zip_code":"6210829","prefecture":"京都府","prefecture_kana":"キョウトフ","city":"亀岡市","city_kana":"カメオカシ","town":"篠町夕日ケ丘","town_kana":"シノチョウユウヒガオカ","prefecture_code":26},"0854":{"zip_code":"6210854","prefecture":"京都府","prefecture_kana":"キョウトフ","city":"亀岡市","city_kana":"カメオカシ","town":"下矢田町","town_kana":"シモヤダチョウ","prefecture_code":26},"0865":{"zip_code":"6210865","prefecture":"京都府","prefecture_kana":"キョウトフ","city":"亀岡市","city_kana":"カメオカシ","town":"新町","town_kana":"シンマチ","prefecture_code":26},"0029":{"zip_code":"6210029","prefecture":"京都府","prefecture_kana":"キョウトフ","city":"亀岡市","city_kana":"カメオカシ","town":"曽我部町穴太","town_kana":"ソガベチョウアナオ","prefecture_code":26},"0027":{"zip_code":"6210027","prefecture":"京都府","prefecture_kana":"キョウトフ","city":"亀岡市","city_kana":"カメオカシ","town":"曽我部町犬飼","town_kana":"ソガベチョウイヌカイ","prefecture_code":26},"0024":{"zip_code":"6210024","prefecture":"京都府","prefecture_kana":"キョウトフ","city":"亀岡市","city_kana":"カメオカシ","town":"曽我部町春日部","town_kana":"ソガベチョウカスカベ","prefecture_code":26},"0021":{"zip_code":"6210021","prefecture":"京都府","prefecture_kana":"キョウトフ","city":"亀岡市","city_kana":"カメオカシ","town":"曽我部町重利","town_kana":"ソガベチョウシゲトシ","prefecture_code":26},"0023":{"zip_code":"6210023","prefecture":"京都府","prefecture_kana":"キョウトフ","city":"亀岡市","city_kana":"カメオカシ","town":"曽我部町寺","town_kana":"ソガベチョウテラ","prefecture_code":26},"0025":{"zip_code":"6210025","prefecture":"京都府","prefecture_kana":"キョウトフ","city":"亀岡市","city_kana":"カメオカシ","town":"曽我部町中","town_kana":"ソガベチョウナカ","prefecture_code":26},"0022":{"zip_code":"6210022","prefecture":"京都府","prefecture_kana":"キョウトフ","city":"亀岡市","city_kana":"カメオカシ","town":"曽我部町南条","town_kana":"ソガベチョウナンジョウ","prefecture_code":26},"0028":{"zip_code":"6210028","prefecture":"京都府","prefecture_kana":"キョウトフ","city":"亀岡市","city_kana":"カメオカシ","town":"曽我部町西条","town_kana":"ソガベチョウニシジョウ","prefecture_code":26},"0026":{"zip_code":"6210026","prefecture":"京都府","prefecture_kana":"キョウトフ","city":"亀岡市","city_kana":"カメオカシ","town":"曽我部町法貴","town_kana":"ソガベチョウホウキ","prefecture_code":26},"0003":{"zip_code":"6210003","prefecture":"京都府","prefecture_kana":"キョウトフ","city":"亀岡市","city_kana":"カメオカシ","town":"千歳町国分","town_kana":"チトセチョウコクブ","prefecture_code":26},"0002":{"zip_code":"6210002","prefecture":"京都府","prefecture_kana":"キョウトフ","city":"亀岡市","city_kana":"カメオカシ","town":"千歳町千歳","town_kana":"チトセチョウチトセ","prefecture_code":26},"0004":{"zip_code":"6210004","prefecture":"京都府","prefecture_kana":"キョウトフ","city":"亀岡市","city_kana":"カメオカシ","town":"千歳町毘沙門","town_kana":"チトセチョウビシャモン","prefecture_code":26},"0051":{"zip_code":"6210051","prefecture":"京都府","prefecture_kana":"キョウトフ","city":"亀岡市","city_kana":"カメオカシ","town":"千代川町今津","town_kana":"チヨカワチョウイマヅ","prefecture_code":26},"0041":{"zip_code":"6210041","prefecture":"京都府","prefecture_kana":"キョウトフ","city":"亀岡市","city_kana":"カメオカシ","town":"千代川町小川","town_kana":"チヨカワチョウオガワ","prefecture_code":26},"0043":{"zip_code":"6210043","prefecture":"京都府","prefecture_kana":"キョウトフ","city":"亀岡市","city_kana":"カメオカシ","town":"千代川町小林","town_kana":"チヨカワチョウオバヤシ","prefecture_code":26},"0054":{"zip_code":"6210054","prefecture":"京都府","prefecture_kana":"キョウトフ","city":"亀岡市","city_kana":"カメオカシ","town":"千代川町川関","town_kana":"チヨカワチョウカワゼキ","prefecture_code":26},"0046":{"zip_code":"6210046","prefecture":"京都府","prefecture_kana":"キョウトフ","city":"亀岡市","city_kana":"カメオカシ","town":"千代川町北ノ庄","town_kana":"チヨカワチョウキタノショウ","prefecture_code":26},"0042":{"zip_code":"6210042","prefecture":"京都府","prefecture_kana":"キョウトフ","city":"亀岡市","city_kana":"カメオカシ","town":"千代川町高野林","town_kana":"チヨカワチョウタカノハヤシ","prefecture_code":26},"0052":{"zip_code":"6210052","prefecture":"京都府","prefecture_kana":"キョウトフ","city":"亀岡市","city_kana":"カメオカシ","town":"千代川町千原","town_kana":"チヨカワチョウチハラ","prefecture_code":26},"0053":{"zip_code":"6210053","prefecture":"京都府","prefecture_kana":"キョウトフ","city":"亀岡市","city_kana":"カメオカシ","town":"千代川町拝田","town_kana":"チヨカワチョウハイダ","prefecture_code":26},"0044":{"zip_code":"6210044","prefecture":"京都府","prefecture_kana":"キョウトフ","city":"亀岡市","city_kana":"カメオカシ","town":"千代川町日吉台","town_kana":"チヨカワチョウヒヨシダイ","prefecture_code":26},"0045":{"zip_code":"6210045","prefecture":"京都府","prefecture_kana":"キョウトフ","city":"亀岡市","city_kana":"カメオカシ","town":"千代川町湯井","town_kana":"チヨカワチョウユイ","prefecture_code":26},"0813":{"zip_code":"6210813","prefecture":"京都府","prefecture_kana":"キョウトフ","city":"亀岡市","city_kana":"カメオカシ","town":"突抜町","town_kana":"ツキヌケチョウ","prefecture_code":26},"0855":{"zip_code":"6210855","prefecture":"京都府","prefecture_kana":"キョウトフ","city":"亀岡市","city_kana":"カメオカシ","town":"中矢田町","town_kana":"ナカヤダチョウ","prefecture_code":26},"0863":{"zip_code":"6210863","prefecture":"京都府","prefecture_kana":"キョウトフ","city":"亀岡市","city_kana":"カメオカシ","town":"南郷町","town_kana":"ナンゴウチョウ","prefecture_code":26},"0817":{"zip_code":"6210817","prefecture":"京都府","prefecture_kana":"キョウトフ","city":"亀岡市","city_kana":"カメオカシ","town":"西竪町","town_kana":"ニシタツチョウ","prefecture_code":26},"0842":{"zip_code":"6210842","prefecture":"京都府","prefecture_kana":"キョウトフ","city":"亀岡市","city_kana":"カメオカシ","town":"西つつじケ丘雲仙台","town_kana":"ニシツツジガオカウンゼンダイ","prefecture_code":26},"0844":{"zip_code":"6210844","prefecture":"京都府","prefecture_kana":"キョウトフ","city":"亀岡市","city_kana":"カメオカシ","town":"西つつじケ丘霧島台","town_kana":"ニシツツジガオカキリシマダイ","prefecture_code":26},"0841":{"zip_code":"6210841","prefecture":"京都府","prefecture_kana":"キョウトフ","city":"亀岡市","city_kana":"カメオカシ","town":"西つつじケ丘五月台","town_kana":"ニシツツジガオカサツキダイ","prefecture_code":26},"0843":{"zip_code":"6210843","prefecture":"京都府","prefecture_kana":"キョウトフ","city":"亀岡市","city_kana":"カメオカシ","town":"西つつじケ丘大山台","town_kana":"ニシツツジガオカダイセンダイ","prefecture_code":26},"0845":{"zip_code":"6210845","prefecture":"京都府","prefecture_kana":"キョウトフ","city":"亀岡市","city_kana":"カメオカシ","town":"西つつじケ丘美山台","town_kana":"ニシツツジガオカミヤマダイ","prefecture_code":26},"0126":{"zip_code":"6210126","prefecture":"京都府","prefecture_kana":"キョウトフ","city":"亀岡市","city_kana":"カメオカシ","town":"西別院町犬甘野","town_kana":"ニシベツインチョウイヌカンノ","prefecture_code":26},"0121":{"zip_code":"6210121","prefecture":"京都府","prefecture_kana":"キョウトフ","city":"亀岡市","city_kana":"カメオカシ","town":"西別院町大槻並","town_kana":"ニシベツインチョウオオツクナミ","prefecture_code":26},"0127":{"zip_code":"6210127","prefecture":"京都府","prefecture_kana":"キョウトフ","city":"亀岡市","city_kana":"カメオカシ","town":"西別院町神地","town_kana":"ニシベツインチョウコウジ","prefecture_code":26},"0123":{"zip_code":"6210123","prefecture":"京都府","prefecture_kana":"キョウトフ","city":"亀岡市","city_kana":"カメオカシ","town":"西別院町寺田","town_kana":"ニシベツインチョウテラダ","prefecture_code":26},"0122":{"zip_code":"6210122","prefecture":"京都府","prefecture_kana":"キョウトフ","city":"亀岡市","city_kana":"カメオカシ","town":"西別院町万願寺","town_kana":"ニシベツインチョウマンガンジ","prefecture_code":26},"0124":{"zip_code":"6210124","prefecture":"京都府","prefecture_kana":"キョウトフ","city":"亀岡市","city_kana":"カメオカシ","town":"西別院町柚原","town_kana":"ニシベツインチョウユノハラ","prefecture_code":26},"0125":{"zip_code":"6210125","prefecture":"京都府","prefecture_kana":"キョウトフ","city":"亀岡市","city_kana":"カメオカシ","town":"西別院町笑路","town_kana":"ニシベツインチョウワロウジ","prefecture_code":26},"0862":{"zip_code":"6210862","prefecture":"京都府","prefecture_kana":"キョウトフ","city":"亀岡市","city_kana":"カメオカシ","town":"西町","town_kana":"ニシマチ","prefecture_code":26},"0866":{"zip_code":"6210866","prefecture":"京都府","prefecture_kana":"キョウトフ","city":"亀岡市","city_kana":"カメオカシ","town":"旅籠町","town_kana":"ハタゴマチ","prefecture_code":26},"0261":{"zip_code":"6210261","prefecture":"京都府","prefecture_kana":"キョウトフ","city":"亀岡市","city_kana":"カメオカシ","town":"畑野町千ケ畑","town_kana":"ハタノチョウセンガハタ","prefecture_code":26},"0263":{"zip_code":"6210263","prefecture":"京都府","prefecture_kana":"キョウトフ","city":"亀岡市","city_kana":"カメオカシ","town":"畑野町土ケ畑","town_kana":"ハタノチョウドンガハタ","prefecture_code":26},"0262":{"zip_code":"6210262","prefecture":"京都府","prefecture_kana":"キョウトフ","city":"亀岡市","city_kana":"カメオカシ","town":"畑野町広野","town_kana":"ハタノチョウヒロノ","prefecture_code":26},"0034":{"zip_code":"6210034","prefecture":"京都府","prefecture_kana":"キョウトフ","city":"亀岡市","city_kana":"カメオカシ","town":"ひえ田野町芦ノ山","town_kana":"ヒエダノチョウアシノヤマ","prefecture_code":26},"0031":{"zip_code":"6210031","prefecture":"京都府","prefecture_kana":"キョウトフ","city":"亀岡市","city_kana":"カメオカシ","town":"ひえ田野町太田","town_kana":"ヒエダノチョウオオタ","prefecture_code":26},"0035":{"zip_code":"6210035","prefecture":"京都府","prefecture_kana":"キョウトフ","city":"亀岡市","city_kana":"カメオカシ","town":"ひえ田野町奥条","town_kana":"ヒエダノチョウオクジョウ","prefecture_code":26},"0036":{"zip_code":"6210036","prefecture":"京都府","prefecture_kana":"キョウトフ","city":"亀岡市","city_kana":"カメオカシ","town":"ひえ田野町柿花","town_kana":"ヒエダノチョウカキハナ","prefecture_code":26},"0033":{"zip_code":"6210033","prefecture":"京都府","prefecture_kana":"キョウトフ","city":"亀岡市","city_kana":"カメオカシ","town":"ひえ田野町佐伯","town_kana":"ヒエダノチョウサエキ","prefecture_code":26},"0032":{"zip_code":"6210032","prefecture":"京都府","prefecture_kana":"キョウトフ","city":"亀岡市","city_kana":"カメオカシ","town":"ひえ田野町天川","town_kana":"ヒエダノチョウテンガワ","prefecture_code":26},"0037":{"zip_code":"6210037","prefecture":"京都府","prefecture_kana":"キョウトフ","city":"亀岡市","city_kana":"カメオカシ","town":"ひえ田野町鹿谷","town_kana":"ヒエダノチョウロクヤ","prefecture_code":26},"0816":{"zip_code":"6210816","prefecture":"京都府","prefecture_kana":"キョウトフ","city":"亀岡市","city_kana":"カメオカシ","town":"東竪町","town_kana":"ヒガシタツチョウ","prefecture_code":26},"0833":{"zip_code":"6210833","prefecture":"京都府","prefecture_kana":"キョウトフ","city":"亀岡市","city_kana":"カメオカシ","town":"東つつじケ丘曙台","town_kana":"ヒガシツツジガオカアケボノダイ","prefecture_code":26},"0832":{"zip_code":"6210832","prefecture":"京都府","prefecture_kana":"キョウトフ","city":"亀岡市","city_kana":"カメオカシ","town":"東つつじケ丘都台","town_kana":"ヒガシツツジガオカミヤコダイ","prefecture_code":26},"0104":{"zip_code":"6210104","prefecture":"京都府","prefecture_kana":"キョウトフ","city":"亀岡市","city_kana":"カメオカシ","town":"東別院町大野","town_kana":"ヒガシベツインチョウオオノ","prefecture_code":26},"0115":{"zip_code":"6210115","prefecture":"京都府","prefecture_kana":"キョウトフ","city":"亀岡市","city_kana":"カメオカシ","town":"東別院町栢原","town_kana":"ヒガシベツインチョウカイバラ","prefecture_code":26},"0114":{"zip_code":"6210114","prefecture":"京都府","prefecture_kana":"キョウトフ","city":"亀岡市","city_kana":"カメオカシ","town":"東別院町鎌倉","town_kana":"ヒガシベツインチョウカマクラ","prefecture_code":26},"0102":{"zip_code":"6210102","prefecture":"京都府","prefecture_kana":"キョウトフ","city":"亀岡市","city_kana":"カメオカシ","town":"東別院町神原","town_kana":"ヒガシベツインチョウカミハラ","prefecture_code":26},"0113":{"zip_code":"6210113","prefecture":"京都府","prefecture_kana":"キョウトフ","city":"亀岡市","city_kana":"カメオカシ","town":"東別院町倉谷","town_kana":"ヒガシベツインチョウクラダニ","prefecture_code":26},"0101":{"zip_code":"6210101","prefecture":"京都府","prefecture_kana":"キョウトフ","city":"亀岡市","city_kana":"カメオカシ","town":"東別院町小泉","town_kana":"ヒガシベツインチョウコイズミ","prefecture_code":26},"0103":{"zip_code":"6210103","prefecture":"京都府","prefecture_kana":"キョウトフ","city":"亀岡市","city_kana":"カメオカシ","town":"東別院町東掛","town_kana":"ヒガシベツインチョウトウゲ","prefecture_code":26},"0111":{"zip_code":"6210111","prefecture":"京都府","prefecture_kana":"キョウトフ","city":"亀岡市","city_kana":"カメオカシ","town":"東別院町南掛","town_kana":"ヒガシベツインチョウナンゲ","prefecture_code":26},"0112":{"zip_code":"6210112","prefecture":"京都府","prefecture_kana":"キョウトフ","city":"亀岡市","city_kana":"カメオカシ","town":"東別院町湯谷","town_kana":"ヒガシベツインチョウユヤ","prefecture_code":26},"0234":{"zip_code":"6210234","prefecture":"京都府","prefecture_kana":"キョウトフ","city":"亀岡市","city_kana":"カメオカシ","town":"東本梅町赤熊","town_kana":"ヒガシホンメチョウアカクマ","prefecture_code":26},"0231":{"zip_code":"6210231","prefecture":"京都府","prefecture_kana":"キョウトフ","city":"亀岡市","city_kana":"カメオカシ","town":"東本梅町大内","town_kana":"ヒガシホンメチョウオオウチ","prefecture_code":26},"0233":{"zip_code":"6210233","prefecture":"京都府","prefecture_kana":"キョウトフ","city":"亀岡市","city_kana":"カメオカシ","town":"東本梅町中野","town_kana":"ヒガシホンメチョウナカノ","prefecture_code":26},"0235":{"zip_code":"6210235","prefecture":"京都府","prefecture_kana":"キョウトフ","city":"亀岡市","city_kana":"カメオカシ","town":"東本梅町東大谷","town_kana":"ヒガシホンメチョウヒガシオオタニ","prefecture_code":26},"0232":{"zip_code":"6210232","prefecture":"京都府","prefecture_kana":"キョウトフ","city":"亀岡市","city_kana":"カメオカシ","town":"東本梅町松熊","town_kana":"ヒガシホンメチョウマツクマ","prefecture_code":26},"0005":{"zip_code":"6210005","prefecture":"京都府","prefecture_kana":"キョウトフ","city":"亀岡市","city_kana":"カメオカシ","town":"保津町","town_kana":"ホヅチョウ","prefecture_code":26},"0869":{"zip_code":"6210869","prefecture":"京都府","prefecture_kana":"キョウトフ","city":"亀岡市","city_kana":"カメオカシ","town":"本町","town_kana":"ホンマチ","prefecture_code":26},"0253":{"zip_code":"6210253","prefecture":"京都府","prefecture_kana":"キョウトフ","city":"亀岡市","city_kana":"カメオカシ","town":"本梅町井手","town_kana":"ホンメチョウイデ","prefecture_code":26},"0252":{"zip_code":"6210252","prefecture":"京都府","prefecture_kana":"キョウトフ","city":"亀岡市","city_kana":"カメオカシ","town":"本梅町中野","town_kana":"ホンメチョウナカノ","prefecture_code":26},"0254":{"zip_code":"6210254","prefecture":"京都府","prefecture_kana":"キョウトフ","city":"亀岡市","city_kana":"カメオカシ","town":"本梅町東加舎","town_kana":"ホンメチョウヒガシカヤ","prefecture_code":26},"0255":{"zip_code":"6210255","prefecture":"京都府","prefecture_kana":"キョウトフ","city":"亀岡市","city_kana":"カメオカシ","town":"本梅町西加舎","town_kana":"ホンメチョウニシカヤ","prefecture_code":26},"0251":{"zip_code":"6210251","prefecture":"京都府","prefecture_kana":"キョウトフ","city":"亀岡市","city_kana":"カメオカシ","town":"本梅町平松","town_kana":"ホンメチョウヒラマツ","prefecture_code":26},"0846":{"zip_code":"6210846","prefecture":"京都府","prefecture_kana":"キョウトフ","city":"亀岡市","city_kana":"カメオカシ","town":"南つつじケ丘大葉台","town_kana":"ミナミツツジガオカオオバダイ","prefecture_code":26},"0847":{"zip_code":"6210847","prefecture":"京都府","prefecture_kana":"キョウトフ","city":"亀岡市","city_kana":"カメオカシ","town":"南つつじケ丘桜台","town_kana":"ミナミツツジガオカサクラダイ","prefecture_code":26},"0814":{"zip_code":"6210814","prefecture":"京都府","prefecture_kana":"キョウトフ","city":"亀岡市","city_kana":"カメオカシ","town":"三宅町","town_kana":"ミヤケチョウ","prefecture_code":26},"0241":{"zip_code":"6210241","prefecture":"京都府","prefecture_kana":"キョウトフ","city":"亀岡市","city_kana":"カメオカシ","town":"宮前町猪倉","town_kana":"ミヤザキチョウイノクラ","prefecture_code":26},"0242":{"zip_code":"6210242","prefecture":"京都府","prefecture_kana":"キョウトフ","city":"亀岡市","city_kana":"カメオカシ","town":"宮前町神前","town_kana":"ミヤザキチョウコウザキ","prefecture_code":26},"0243":{"zip_code":"6210243","prefecture":"京都府","prefecture_kana":"キョウトフ","city":"亀岡市","city_kana":"カメオカシ","town":"宮前町宮川","town_kana":"ミヤザキチョウミヤガワ","prefecture_code":26},"0805":{"zip_code":"6210805","prefecture":"京都府","prefecture_kana":"キョウトフ","city":"亀岡市","city_kana":"カメオカシ","town":"安町","town_kana":"ヤスマチ","prefecture_code":26},"0853":{"zip_code":"6210853","prefecture":"京都府","prefecture_kana":"キョウトフ","city":"亀岡市","city_kana":"カメオカシ","town":"矢田町","town_kana":"ヤダマチ","prefecture_code":26},"0868":{"zip_code":"6210868","prefecture":"京都府","prefecture_kana":"キョウトフ","city":"亀岡市","city_kana":"カメオカシ","town":"柳町","town_kana":"ヤナギマチ","prefecture_code":26},"0812":{"zip_code":"6210812","prefecture":"京都府","prefecture_kana":"キョウトフ","city":"亀岡市","city_kana":"カメオカシ","town":"横町","town_kana":"ヨコチョウ","prefecture_code":26},"0014":{"zip_code":"6210014","prefecture":"京都府","prefecture_kana":"キョウトフ","city":"亀岡市","city_kana":"カメオカシ","town":"吉川町穴川","town_kana":"ヨシカワチョウアナガワ","prefecture_code":26},"0015":{"zip_code":"6210015","prefecture":"京都府","prefecture_kana":"キョウトフ","city":"亀岡市","city_kana":"カメオカシ","town":"吉川町吉田","town_kana":"ヨシカワチョウヨシダ","prefecture_code":26}}