{"0000":{"zip_code":"6250000","prefecture":"京都府","prefecture_kana":"キョウトフ","city":"舞鶴市","city_kana":"マイヅルシ","town":"以下に掲載がない場合","town_kana":"イカニケイサイガナイバアイ","prefecture_code":26},"0151":{"zip_code":"6250151","prefecture":"京都府","prefecture_kana":"キョウトフ","city":"舞鶴市","city_kana":"マイヅルシ","town":"赤野","town_kana":"アカノ","prefecture_code":26},"0005":{"zip_code":"6250005","prefecture":"京都府","prefecture_kana":"キョウトフ","city":"舞鶴市","city_kana":"マイヅルシ","town":"朝来中","town_kana":"アセクナカ","prefecture_code":26},"0004":{"zip_code":"6250004","prefecture":"京都府","prefecture_kana":"キョウトフ","city":"舞鶴市","city_kana":"マイヅルシ","town":"朝来西町","town_kana":"アセクニシマチ","prefecture_code":26},"0030":{"zip_code":"6250030","prefecture":"京都府","prefecture_kana":"キョウトフ","city":"舞鶴市","city_kana":"マイヅルシ","town":"愛宕上町","town_kana":"アタゴカミマチ","prefecture_code":26},"0031":{"zip_code":"6250031","prefecture":"京都府","prefecture_kana":"キョウトフ","city":"舞鶴市","city_kana":"マイヅルシ","town":"愛宕中町","town_kana":"アタゴナカマチ","prefecture_code":26},"0032":{"zip_code":"6250032","prefecture":"京都府","prefecture_kana":"キョウトフ","city":"舞鶴市","city_kana":"マイヅルシ","town":"愛宕下町","town_kana":"アタゴシモマチ","prefecture_code":26},"0033":{"zip_code":"6250033","prefecture":"京都府","prefecture_kana":"キョウトフ","city":"舞鶴市","city_kana":"マイヅルシ","town":"愛宕浜町","town_kana":"アタゴハママチ","prefecture_code":26},"0083":{"zip_code":"6250083","prefecture":"京都府","prefecture_kana":"キョウトフ","city":"舞鶴市","city_kana":"マイヅルシ","town":"余部上","town_kana":"アマルベカミ","prefecture_code":26},"0087":{"zip_code":"6250087","prefecture":"京都府","prefecture_kana":"キョウトフ","city":"舞鶴市","city_kana":"マイヅルシ","town":"余部下","town_kana":"アマルベシモ","prefecture_code":26},"0025":{"zip_code":"6250025","prefecture":"京都府","prefecture_kana":"キョウトフ","city":"舞鶴市","city_kana":"マイヅルシ","town":"市場","town_kana":"イチバ","prefecture_code":26},"0043":{"zip_code":"6250043","prefecture":"京都府","prefecture_kana":"キョウトフ","city":"舞鶴市","city_kana":"マイヅルシ","town":"梅ケ谷","town_kana":"ウメガタニ","prefecture_code":26},"0136":{"zip_code":"6250136","prefecture":"京都府","prefecture_kana":"キョウトフ","city":"舞鶴市","city_kana":"マイヅルシ","town":"大丹生","town_kana":"オオニュウ","prefecture_code":26},"0006":{"zip_code":"6250006","prefecture":"京都府","prefecture_kana":"キョウトフ","city":"舞鶴市","city_kana":"マイヅルシ","town":"大波上","town_kana":"オオバカミ","prefecture_code":26},"0007":{"zip_code":"6250007","prefecture":"京都府","prefecture_kana":"キョウトフ","city":"舞鶴市","city_kana":"マイヅルシ","town":"大波下","town_kana":"オオバシモ","prefecture_code":26},"0158":{"zip_code":"6250158","prefecture":"京都府","prefecture_kana":"キョウトフ","city":"舞鶴市","city_kana":"マイヅルシ","town":"大山","town_kana":"オオヤマ","prefecture_code":26},"0015":{"zip_code":"6250015","prefecture":"京都府","prefecture_kana":"キョウトフ","city":"舞鶴市","city_kana":"マイヅルシ","town":"岡安","town_kana":"オカヤス","prefecture_code":26},"0020":{"zip_code":"6250020","prefecture":"京都府","prefecture_kana":"キョウトフ","city":"舞鶴市","city_kana":"マイヅルシ","town":"小倉","town_kana":"オグラ","prefecture_code":26},"0154":{"zip_code":"6250154","prefecture":"京都府","prefecture_kana":"キョウトフ","city":"舞鶴市","city_kana":"マイヅルシ","town":"小橋","town_kana":"オバセ","prefecture_code":26},"0053":{"zip_code":"6250053","prefecture":"京都府","prefecture_kana":"キョウトフ","city":"舞鶴市","city_kana":"マイヅルシ","town":"金屋町","town_kana":"カナヤチョウ","prefecture_code":26},"0014":{"zip_code":"6250014","prefecture":"京都府","prefecture_kana":"キョウトフ","city":"舞鶴市","city_kana":"マイヅルシ","town":"鹿原","town_kana":"カハラ","prefecture_code":26},"0013":{"zip_code":"6250013","prefecture":"京都府","prefecture_kana":"キョウトフ","city":"舞鶴市","city_kana":"マイヅルシ","town":"鹿原西町","town_kana":"カハラニシマチ","prefecture_code":26},"0077":{"zip_code":"6250077","prefecture":"京都府","prefecture_kana":"キョウトフ","city":"舞鶴市","city_kana":"マイヅルシ","town":"亀岩町","town_kana":"カメイワチョウ","prefecture_code":26},"0141":{"zip_code":"6250141","prefecture":"京都府","prefecture_kana":"キョウトフ","city":"舞鶴市","city_kana":"マイヅルシ","town":"河辺中","town_kana":"カワベナカ","prefecture_code":26},"0146":{"zip_code":"6250146","prefecture":"京都府","prefecture_kana":"キョウトフ","city":"舞鶴市","city_kana":"マイヅルシ","town":"河辺原","town_kana":"カワベハラ","prefecture_code":26},"0144":{"zip_code":"6250144","prefecture":"京都府","prefecture_kana":"キョウトフ","city":"舞鶴市","city_kana":"マイヅルシ","town":"河辺由里","town_kana":"カワベユリ","prefecture_code":26},"0145":{"zip_code":"6250145","prefecture":"京都府","prefecture_kana":"キョウトフ","city":"舞鶴市","city_kana":"マイヅルシ","town":"観音寺","town_kana":"カンノンジ","prefecture_code":26},"0080":{"zip_code":"6250080","prefecture":"京都府","prefecture_kana":"キョウトフ","city":"舞鶴市","city_kana":"マイヅルシ","town":"北吸","town_kana":"キタスイ","prefecture_code":26},"0050":{"zip_code":"6250050","prefecture":"京都府","prefecture_kana":"キョウトフ","city":"舞鶴市","city_kana":"マイヅルシ","town":"北浜町","town_kana":"キタハマチョウ","prefecture_code":26},"0011":{"zip_code":"6250011","prefecture":"京都府","prefecture_kana":"キョウトフ","city":"舞鶴市","city_kana":"マイヅルシ","town":"吉坂","town_kana":"キチサカ","prefecture_code":26},"0073":{"zip_code":"6250073","prefecture":"京都府","prefecture_kana":"キョウトフ","city":"舞鶴市","city_kana":"マイヅルシ","town":"木ノ下","town_kana":"キノシタ","prefecture_code":26},"0076":{"zip_code":"6250076","prefecture":"京都府","prefecture_kana":"キョウトフ","city":"舞鶴市","city_kana":"マイヅルシ","town":"京月町","town_kana":"キョウゲツチョウ","prefecture_code":26},"0075":{"zip_code":"6250075","prefecture":"京都府","prefecture_kana":"キョウトフ","city":"舞鶴市","city_kana":"マイヅルシ","town":"京月東町","town_kana":"キョウゲツヒガシマチ","prefecture_code":26},"0056":{"zip_code":"6250056","prefecture":"京都府","prefecture_kana":"キョウトフ","city":"舞鶴市","city_kana":"マイヅルシ","town":"倉梯町","town_kana":"クラハシチョウ","prefecture_code":26},"0055":{"zip_code":"6250055","prefecture":"京都府","prefecture_kana":"キョウトフ","city":"舞鶴市","city_kana":"マイヅルシ","town":"倉梯中町","town_kana":"クラハシナカマチ","prefecture_code":26},"0134":{"zip_code":"6250134","prefecture":"京都府","prefecture_kana":"キョウトフ","city":"舞鶴市","city_kana":"マイヅルシ","town":"佐波賀","town_kana":"サバカ","prefecture_code":26},"0054":{"zip_code":"6250054","prefecture":"京都府","prefecture_kana":"キョウトフ","city":"舞鶴市","city_kana":"マイヅルシ","town":"七条中町","town_kana":"シチジョウナカマチ","prefecture_code":26},"0084":{"zip_code":"6250084","prefecture":"京都府","prefecture_kana":"キョウトフ","city":"舞鶴市","city_kana":"マイヅルシ","town":"白浜台","town_kana":"シラハマダイ","prefecture_code":26},"0016":{"zip_code":"6250016","prefecture":"京都府","prefecture_kana":"キョウトフ","city":"舞鶴市","city_kana":"マイヅルシ","town":"白屋","town_kana":"シロヤ","prefecture_code":26},"0012":{"zip_code":"6250012","prefecture":"京都府","prefecture_kana":"キョウトフ","city":"舞鶴市","city_kana":"マイヅルシ","town":"白屋町","town_kana":"シロヤチョウ","prefecture_code":26},"0001":{"zip_code":"6250001","prefecture":"京都府","prefecture_kana":"キョウトフ","city":"舞鶴市","city_kana":"マイヅルシ","town":"杉山","town_kana":"スギヤマ","prefecture_code":26},"0137":{"zip_code":"6250137","prefecture":"京都府","prefecture_kana":"キョウトフ","city":"舞鶴市","city_kana":"マイヅルシ","town":"瀬崎","town_kana":"セザキ","prefecture_code":26},"0026":{"zip_code":"6250026","prefecture":"京都府","prefecture_kana":"キョウトフ","city":"舞鶴市","city_kana":"マイヅルシ","town":"泉源寺","town_kana":"センゲンジ","prefecture_code":26},"0157":{"zip_code":"6250157","prefecture":"京都府","prefecture_kana":"キョウトフ","city":"舞鶴市","city_kana":"マイヅルシ","town":"田井","town_kana":"タイ","prefecture_code":26},"0133":{"zip_code":"6250133","prefecture":"京都府","prefecture_kana":"キョウトフ","city":"舞鶴市","city_kana":"マイヅルシ","town":"平","town_kana":"タイラ","prefecture_code":26},"0023":{"zip_code":"6250023","prefecture":"京都府","prefecture_kana":"キョウトフ","city":"舞鶴市","city_kana":"マイヅルシ","town":"田中","town_kana":"タナカ","prefecture_code":26},"0024":{"zip_code":"6250024","prefecture":"京都府","prefecture_kana":"キョウトフ","city":"舞鶴市","city_kana":"マイヅルシ","town":"田中町","town_kana":"タナカチョウ","prefecture_code":26},"0152":{"zip_code":"6250152","prefecture":"京都府","prefecture_kana":"キョウトフ","city":"舞鶴市","city_kana":"マイヅルシ","town":"多祢寺","town_kana":"タネジ","prefecture_code":26},"0045":{"zip_code":"6250045","prefecture":"京都府","prefecture_kana":"キョウトフ","city":"舞鶴市","city_kana":"マイヅルシ","town":"多門院","town_kana":"タモンイン","prefecture_code":26},"0135":{"zip_code":"6250135","prefecture":"京都府","prefecture_kana":"キョウトフ","city":"舞鶴市","city_kana":"マイヅルシ","town":"千歳","town_kana":"チトセ","prefecture_code":26},"0082":{"zip_code":"6250082","prefecture":"京都府","prefecture_kana":"キョウトフ","city":"舞鶴市","city_kana":"マイヅルシ","town":"つつじケ丘","town_kana":"ツツジガオカ","prefecture_code":26},"0072":{"zip_code":"6250072","prefecture":"京都府","prefecture_kana":"キョウトフ","city":"舞鶴市","city_kana":"マイヅルシ","town":"常","town_kana":"ツネ","prefecture_code":26},"0071":{"zip_code":"6250071","prefecture":"京都府","prefecture_kana":"キョウトフ","city":"舞鶴市","city_kana":"マイヅルシ","town":"常新町","town_kana":"ツネシンマチ","prefecture_code":26},"0027":{"zip_code":"6250027","prefecture":"京都府","prefecture_kana":"キョウトフ","city":"舞鶴市","city_kana":"マイヅルシ","town":"田園町","town_kana":"デンエンチョウ","prefecture_code":26},"0044":{"zip_code":"6250044","prefecture":"京都府","prefecture_kana":"キョウトフ","city":"舞鶴市","city_kana":"マイヅルシ","town":"堂奥","town_kana":"ドウノオク","prefecture_code":26},"0147":{"zip_code":"6250147","prefecture":"京都府","prefecture_kana":"キョウトフ","city":"舞鶴市","city_kana":"マイヅルシ","town":"栃尾","town_kana":"トチオ","prefecture_code":26},"0132":{"zip_code":"6250132","prefecture":"京都府","prefecture_kana":"キョウトフ","city":"舞鶴市","city_kana":"マイヅルシ","town":"中田","town_kana":"ナカダ","prefecture_code":26},"0131":{"zip_code":"6250131","prefecture":"京都府","prefecture_kana":"キョウトフ","city":"舞鶴市","city_kana":"マイヅルシ","town":"中田町","town_kana":"ナカダチョウ","prefecture_code":26},"0086":{"zip_code":"6250086","prefecture":"京都府","prefecture_kana":"キョウトフ","city":"舞鶴市","city_kana":"マイヅルシ","town":"長浜","town_kana":"ナガハマ","prefecture_code":26},"0156":{"zip_code":"6250156","prefecture":"京都府","prefecture_kana":"キョウトフ","city":"舞鶴市","city_kana":"マイヅルシ","town":"成生","town_kana":"ナリウ","prefecture_code":26},"0142":{"zip_code":"6250142","prefecture":"京都府","prefecture_kana":"キョウトフ","city":"舞鶴市","city_kana":"マイヅルシ","town":"西屋","town_kana":"ニシヤ","prefecture_code":26},"0155":{"zip_code":"6250155","prefecture":"京都府","prefecture_kana":"キョウトフ","city":"舞鶴市","city_kana":"マイヅルシ","town":"野原","town_kana":"ノハラ","prefecture_code":26},"0002":{"zip_code":"6250002","prefecture":"京都府","prefecture_kana":"キョウトフ","city":"舞鶴市","city_kana":"マイヅルシ","town":"登尾","town_kana":"ノボリオ","prefecture_code":26},"0078":{"zip_code":"6250078","prefecture":"京都府","prefecture_kana":"キョウトフ","city":"舞鶴市","city_kana":"マイヅルシ","town":"八反田南町","town_kana":"ハッタンダミナミマチ","prefecture_code":26},"0070":{"zip_code":"6250070","prefecture":"京都府","prefecture_kana":"キョウトフ","city":"舞鶴市","city_kana":"マイヅルシ","town":"八反田北町","town_kana":"ハッタンダキタマチ","prefecture_code":26},"0036":{"zip_code":"6250036","prefecture":"京都府","prefecture_kana":"キョウトフ","city":"舞鶴市","city_kana":"マイヅルシ","town":"浜","town_kana":"ハマ","prefecture_code":26},"0037":{"zip_code":"6250037","prefecture":"京都府","prefecture_kana":"キョウトフ","city":"舞鶴市","city_kana":"マイヅルシ","town":"浜町","town_kana":"ハママチ","prefecture_code":26},"0010":{"zip_code":"6250010","prefecture":"京都府","prefecture_kana":"キョウトフ","city":"舞鶴市","city_kana":"マイヅルシ","town":"松尾","town_kana":"マツオ","prefecture_code":26},"0065":{"zip_code":"6250065","prefecture":"京都府","prefecture_kana":"キョウトフ","city":"舞鶴市","city_kana":"マイヅルシ","town":"丸山中町","town_kana":"マルヤマナカマチ","prefecture_code":26},"0064":{"zip_code":"6250064","prefecture":"京都府","prefecture_kana":"キョウトフ","city":"舞鶴市","city_kana":"マイヅルシ","town":"丸山西町","town_kana":"マルヤマニシマチ","prefecture_code":26},"0066":{"zip_code":"6250066","prefecture":"京都府","prefecture_kana":"キョウトフ","city":"舞鶴市","city_kana":"マイヅルシ","town":"丸山口町","town_kana":"マルヤマグチチョウ","prefecture_code":26},"0063":{"zip_code":"6250063","prefecture":"京都府","prefecture_kana":"キョウトフ","city":"舞鶴市","city_kana":"マイヅルシ","town":"丸山町","town_kana":"マルヤマチョウ","prefecture_code":26},"0035":{"zip_code":"6250035","prefecture":"京都府","prefecture_kana":"キョウトフ","city":"舞鶴市","city_kana":"マイヅルシ","town":"溝尻","town_kana":"ミゾシリ","prefecture_code":26},"0042":{"zip_code":"6250042","prefecture":"京都府","prefecture_kana":"キョウトフ","city":"舞鶴市","city_kana":"マイヅルシ","town":"溝尻町","town_kana":"ミゾシリチョウ","prefecture_code":26},"0041":{"zip_code":"6250041","prefecture":"京都府","prefecture_kana":"キョウトフ","city":"舞鶴市","city_kana":"マイヅルシ","town":"溝尻中町","town_kana":"ミゾシリナカマチ","prefecture_code":26},"0057":{"zip_code":"6250057","prefecture":"京都府","prefecture_kana":"キョウトフ","city":"舞鶴市","city_kana":"マイヅルシ","town":"南浜町","town_kana":"ミナミハマチョウ","prefecture_code":26},"0153":{"zip_code":"6250153","prefecture":"京都府","prefecture_kana":"キョウトフ","city":"舞鶴市","city_kana":"マイヅルシ","town":"三浜","town_kana":"ミハマ","prefecture_code":26},"0081":{"zip_code":"6250081","prefecture":"京都府","prefecture_kana":"キョウトフ","city":"舞鶴市","city_kana":"マイヅルシ","town":"三宅","town_kana":"ミヤケ","prefecture_code":26},"0143":{"zip_code":"6250143","prefecture":"京都府","prefecture_kana":"キョウトフ","city":"舞鶴市","city_kana":"マイヅルシ","town":"室牛","town_kana":"ムロジ","prefecture_code":26},"0060":{"zip_code":"6250060","prefecture":"京都府","prefecture_kana":"キョウトフ","city":"舞鶴市","city_kana":"マイヅルシ","town":"桃山町","town_kana":"モモヤマチョウ","prefecture_code":26},"0062":{"zip_code":"6250062","prefecture":"京都府","prefecture_kana":"キョウトフ","city":"舞鶴市","city_kana":"マイヅルシ","town":"森","town_kana":"モリ","prefecture_code":26},"0061":{"zip_code":"6250061","prefecture":"京都府","prefecture_kana":"キョウトフ","city":"舞鶴市","city_kana":"マイヅルシ","town":"森町","town_kana":"モリチョウ","prefecture_code":26},"0067":{"zip_code":"6250067","prefecture":"京都府","prefecture_kana":"キョウトフ","city":"舞鶴市","city_kana":"マイヅルシ","town":"森本町","town_kana":"モリホンマチ","prefecture_code":26},"0021":{"zip_code":"6250021","prefecture":"京都府","prefecture_kana":"キョウトフ","city":"舞鶴市","city_kana":"マイヅルシ","town":"安岡","town_kana":"ヤスオカ","prefecture_code":26},"0022":{"zip_code":"6250022","prefecture":"京都府","prefecture_kana":"キョウトフ","city":"舞鶴市","city_kana":"マイヅルシ","town":"安岡町","town_kana":"ヤスオカチョウ","prefecture_code":26},"0040":{"zip_code":"6250040","prefecture":"京都府","prefecture_kana":"キョウトフ","city":"舞鶴市","city_kana":"マイヅルシ","town":"矢之助町","town_kana":"ヤノスケチョウ","prefecture_code":26},"0052":{"zip_code":"6250052","prefecture":"京都府","prefecture_kana":"キョウトフ","city":"舞鶴市","city_kana":"マイヅルシ","town":"行永","town_kana":"ユキナガ","prefecture_code":26},"0058":{"zip_code":"6250058","prefecture":"京都府","prefecture_kana":"キョウトフ","city":"舞鶴市","city_kana":"マイヅルシ","town":"行永桜通り","town_kana":"ユキナガサクラドオリ","prefecture_code":26},"0051":{"zip_code":"6250051","prefecture":"京都府","prefecture_kana":"キョウトフ","city":"舞鶴市","city_kana":"マイヅルシ","town":"行永東町","town_kana":"ユキナガヒガシマチ","prefecture_code":26},"0003":{"zip_code":"6250003","prefecture":"京都府","prefecture_kana":"キョウトフ","city":"舞鶴市","city_kana":"マイヅルシ","town":"吉野","town_kana":"ヨシノ","prefecture_code":26},"0074":{"zip_code":"6250074","prefecture":"京都府","prefecture_kana":"キョウトフ","city":"舞鶴市","city_kana":"マイヅルシ","town":"与保呂","town_kana":"ヨホロ","prefecture_code":26},"0034":{"zip_code":"6250034","prefecture":"京都府","prefecture_kana":"キョウトフ","city":"舞鶴市","city_kana":"マイヅルシ","town":"竜宮町","town_kana":"リュウグウチョウ","prefecture_code":26},"0085":{"zip_code":"6250085","prefecture":"京都府","prefecture_kana":"キョウトフ","city":"舞鶴市","city_kana":"マイヅルシ","town":"和田","town_kana":"ワダ","prefecture_code":26}}