{"0000":{"zip_code":"6270000","prefecture":"京都府","prefecture_kana":"キョウトフ","city":"京丹後市","city_kana":"キョウタンゴシ","town":"","town_kana":"","prefecture_code":26},"0227":{"zip_code":"6270227","prefecture":"京都府","prefecture_kana":"キョウトフ","city":"京丹後市","city_kana":"キョウタンゴシ","town":"丹後町家ノ谷","town_kana":"タンゴチョウイエノタニ","prefecture_code":26},"0248":{"zip_code":"6270248","prefecture":"京都府","prefecture_kana":"キョウトフ","city":"京丹後市","city_kana":"キョウタンゴシ","town":"丹後町碇","town_kana":"タンゴチョウイカリ","prefecture_code":26},"0237":{"zip_code":"6270237","prefecture":"京都府","prefecture_kana":"キョウトフ","city":"京丹後市","city_kana":"キョウタンゴシ","town":"丹後町井谷","town_kana":"タンゴチョウイダニ","prefecture_code":26},"0235":{"zip_code":"6270235","prefecture":"京都府","prefecture_kana":"キョウトフ","city":"京丹後市","city_kana":"キョウタンゴシ","town":"丹後町井上","town_kana":"タンゴチョウイノウエ","prefecture_code":26},"0224":{"zip_code":"6270224","prefecture":"京都府","prefecture_kana":"キョウトフ","city":"京丹後市","city_kana":"キョウタンゴシ","town":"丹後町岩木","town_kana":"タンゴチョウイワキ","prefecture_code":26},"0241":{"zip_code":"6270241","prefecture":"京都府","prefecture_kana":"キョウトフ","city":"京丹後市","city_kana":"キョウタンゴシ","town":"丹後町上野","town_kana":"タンゴチョウウエノ","prefecture_code":26},"0247":{"zip_code":"6270247","prefecture":"京都府","prefecture_kana":"キョウトフ","city":"京丹後市","city_kana":"キョウタンゴシ","town":"丹後町上山","town_kana":"タンゴチョウウエヤマ","prefecture_code":26},"0211":{"zip_code":"6270211","prefecture":"京都府","prefecture_kana":"キョウトフ","city":"京丹後市","city_kana":"キョウタンゴシ","town":"丹後町大山","town_kana":"タンゴチョウオオヤマ","prefecture_code":26},"0244":{"zip_code":"6270244","prefecture":"京都府","prefecture_kana":"キョウトフ","city":"京丹後市","city_kana":"キョウタンゴシ","town":"丹後町尾和","town_kana":"タンゴチョウオワ","prefecture_code":26},"0239":{"zip_code":"6270239","prefecture":"京都府","prefecture_kana":"キョウトフ","city":"京丹後市","city_kana":"キョウタンゴシ","town":"丹後町遠下","town_kana":"タンゴチョウオンゲ","prefecture_code":26},"0225":{"zip_code":"6270225","prefecture":"京都府","prefecture_kana":"キョウトフ","city":"京丹後市","city_kana":"キョウタンゴシ","town":"丹後町願興寺","town_kana":"タンゴチョウガンゴウジ","prefecture_code":26},"0242":{"zip_code":"6270242","prefecture":"京都府","prefecture_kana":"キョウトフ","city":"京丹後市","city_kana":"キョウタンゴシ","town":"丹後町久僧","town_kana":"タンゴチョウキュウソ","prefecture_code":26},"0238":{"zip_code":"6270238","prefecture":"京都府","prefecture_kana":"キョウトフ","city":"京丹後市","city_kana":"キョウタンゴシ","town":"丹後町鞍内","town_kana":"タンゴチョウクラウチ","prefecture_code":26},"0232":{"zip_code":"6270232","prefecture":"京都府","prefecture_kana":"キョウトフ","city":"京丹後市","city_kana":"キョウタンゴシ","town":"丹後町此代","town_kana":"タンゴチョウコノシロ","prefecture_code":26},"0214":{"zip_code":"6270214","prefecture":"京都府","prefecture_kana":"キョウトフ","city":"京丹後市","city_kana":"キョウタンゴシ","town":"丹後町是安","town_kana":"タンゴチョウコレヤス","prefecture_code":26},"0215":{"zip_code":"6270215","prefecture":"京都府","prefecture_kana":"キョウトフ","city":"京丹後市","city_kana":"キョウタンゴシ","town":"丹後町成願寺","town_kana":"タンゴチョウジョウガンジ","prefecture_code":26},"0202":{"zip_code":"6270202","prefecture":"京都府","prefecture_kana":"キョウトフ","city":"京丹後市","city_kana":"キョウタンゴシ","town":"丹後町砂方","town_kana":"タンゴチョウスナガタ","prefecture_code":26},"0245":{"zip_code":"6270245","prefecture":"京都府","prefecture_kana":"キョウトフ","city":"京丹後市","city_kana":"キョウタンゴシ","town":"丹後町袖志","town_kana":"タンゴチョウソデシ","prefecture_code":26},"0201":{"zip_code":"6270201","prefecture":"京都府","prefecture_kana":"キョウトフ","city":"京丹後市","city_kana":"キョウタンゴシ","town":"丹後町間人","town_kana":"タンゴチョウタイザ","prefecture_code":26},"0221":{"zip_code":"6270221","prefecture":"京都府","prefecture_kana":"キョウトフ","city":"京丹後市","city_kana":"キョウタンゴシ","town":"丹後町竹野","town_kana":"タンゴチョウタカノ","prefecture_code":26},"0246":{"zip_code":"6270246","prefecture":"京都府","prefecture_kana":"キョウトフ","city":"京丹後市","city_kana":"キョウタンゴシ","town":"丹後町谷内","town_kana":"タンゴチョウタニウチ","prefecture_code":26},"0216":{"zip_code":"6270216","prefecture":"京都府","prefecture_kana":"キョウトフ","city":"京丹後市","city_kana":"キョウタンゴシ","town":"丹後町徳光","town_kana":"タンゴチョウトクミツ","prefecture_code":26},"0234":{"zip_code":"6270234","prefecture":"京都府","prefecture_kana":"キョウトフ","city":"京丹後市","city_kana":"キョウタンゴシ","town":"丹後町中野","town_kana":"タンゴチョウナカノ","prefecture_code":26},"0243":{"zip_code":"6270243","prefecture":"京都府","prefecture_kana":"キョウトフ","city":"京丹後市","city_kana":"キョウタンゴシ","town":"丹後町中浜","town_kana":"タンゴチョウナカハマ","prefecture_code":26},"0231":{"zip_code":"6270231","prefecture":"京都府","prefecture_kana":"キョウトフ","city":"京丹後市","city_kana":"キョウタンゴシ","town":"丹後町乗原","town_kana":"タンゴチョウノンバラ","prefecture_code":26},"0236":{"zip_code":"6270236","prefecture":"京都府","prefecture_kana":"キョウトフ","city":"京丹後市","city_kana":"キョウタンゴシ","town":"丹後町畑","town_kana":"タンゴチョウハタ","prefecture_code":26},"0222":{"zip_code":"6270222","prefecture":"京都府","prefecture_kana":"キョウトフ","city":"京丹後市","city_kana":"キョウタンゴシ","town":"丹後町筆石","town_kana":"タンゴチョウフデシ","prefecture_code":26},"0233":{"zip_code":"6270233","prefecture":"京都府","prefecture_kana":"キョウトフ","city":"京丹後市","city_kana":"キョウタンゴシ","town":"丹後町平","town_kana":"タンゴチョウヘイ","prefecture_code":26},"0226":{"zip_code":"6270226","prefecture":"京都府","prefecture_kana":"キョウトフ","city":"京丹後市","city_kana":"キョウタンゴシ","town":"丹後町牧ノ谷","town_kana":"タンゴチョウマキノタニ","prefecture_code":26},"0228":{"zip_code":"6270228","prefecture":"京都府","prefecture_kana":"キョウトフ","city":"京丹後市","city_kana":"キョウタンゴシ","town":"丹後町宮","town_kana":"タンゴチョウミヤ","prefecture_code":26},"0212":{"zip_code":"6270212","prefecture":"京都府","prefecture_kana":"キョウトフ","city":"京丹後市","city_kana":"キョウタンゴシ","town":"丹後町三宅","town_kana":"タンゴチョウミヤケ","prefecture_code":26},"0249":{"zip_code":"6270249","prefecture":"京都府","prefecture_kana":"キョウトフ","city":"京丹後市","city_kana":"キョウタンゴシ","town":"丹後町三山","town_kana":"タンゴチョウミヤマ","prefecture_code":26},"0223":{"zip_code":"6270223","prefecture":"京都府","prefecture_kana":"キョウトフ","city":"京丹後市","city_kana":"キョウタンゴシ","town":"丹後町矢畑","town_kana":"タンゴチョウヤバタ","prefecture_code":26},"0213":{"zip_code":"6270213","prefecture":"京都府","prefecture_kana":"キョウトフ","city":"京丹後市","city_kana":"キョウタンゴシ","town":"丹後町吉永","town_kana":"タンゴチョウヨシナガ","prefecture_code":26},"0006":{"zip_code":"6270006","prefecture":"京都府","prefecture_kana":"キョウトフ","city":"京丹後市","city_kana":"キョウタンゴシ","town":"峰山町赤坂","town_kana":"ミネヤマチョウアカサカ","prefecture_code":26},"0004":{"zip_code":"6270004","prefecture":"京都府","prefecture_kana":"キョウトフ","city":"京丹後市","city_kana":"キョウタンゴシ","town":"峰山町荒山","town_kana":"ミネヤマチョウアラヤマ","prefecture_code":26},"0007":{"zip_code":"6270007","prefecture":"京都府","prefecture_kana":"キョウトフ","city":"京丹後市","city_kana":"キョウタンゴシ","town":"峰山町石丸","town_kana":"ミネヤマチョウイシマル","prefecture_code":26},"0034":{"zip_code":"6270034","prefecture":"京都府","prefecture_kana":"キョウトフ","city":"京丹後市","city_kana":"キョウタンゴシ","town":"峰山町泉","town_kana":"ミネヤマチョウイズミ","prefecture_code":26},"0036":{"zip_code":"6270036","prefecture":"京都府","prefecture_kana":"キョウトフ","city":"京丹後市","city_kana":"キョウタンゴシ","town":"峰山町御旅","town_kana":"ミネヤマチョウオタビ","prefecture_code":26},"0023":{"zip_code":"6270023","prefecture":"京都府","prefecture_kana":"キョウトフ","city":"京丹後市","city_kana":"キョウタンゴシ","town":"峰山町織元","town_kana":"ミネヤマチョウオリモト","prefecture_code":26},"0022":{"zip_code":"6270022","prefecture":"京都府","prefecture_kana":"キョウトフ","city":"京丹後市","city_kana":"キョウタンゴシ","town":"峰山町上","town_kana":"ミネヤマチョウカミ","prefecture_code":26},"0035":{"zip_code":"6270035","prefecture":"京都府","prefecture_kana":"キョウトフ","city":"京丹後市","city_kana":"キョウタンゴシ","town":"峰山町光明寺","town_kana":"ミネヤマチョウコウミョウジ","prefecture_code":26},"0052":{"zip_code":"6270052","prefecture":"京都府","prefecture_kana":"キョウトフ","city":"京丹後市","city_kana":"キョウタンゴシ","town":"峰山町五箇","town_kana":"ミネヤマチョウゴカ","prefecture_code":26},"0044":{"zip_code":"6270044","prefecture":"京都府","prefecture_kana":"キョウトフ","city":"京丹後市","city_kana":"キョウタンゴシ","town":"峰山町小西","town_kana":"ミネヤマチョウコニシ","prefecture_code":26},"0031":{"zip_code":"6270031","prefecture":"京都府","prefecture_kana":"キョウトフ","city":"京丹後市","city_kana":"キョウタンゴシ","town":"峰山町呉服","town_kana":"ミネヤマチョウゴフク","prefecture_code":26},"0025":{"zip_code":"6270025","prefecture":"京都府","prefecture_kana":"キョウトフ","city":"京丹後市","city_kana":"キョウタンゴシ","town":"峰山町堺","town_kana":"ミネヤマチョウサカイ","prefecture_code":26},"0014":{"zip_code":"6270014","prefecture":"京都府","prefecture_kana":"キョウトフ","city":"京丹後市","city_kana":"キョウタンゴシ","town":"峰山町四軒","town_kana":"ミネヤマチョウシケン","prefecture_code":26},"0033":{"zip_code":"6270033","prefecture":"京都府","prefecture_kana":"キョウトフ","city":"京丹後市","city_kana":"キョウタンゴシ","town":"峰山町白銀","town_kana":"ミネヤマチョウシラガネ","prefecture_code":26},"0005":{"zip_code":"6270005","prefecture":"京都府","prefecture_kana":"キョウトフ","city":"京丹後市","city_kana":"キョウタンゴシ","town":"峰山町新町","town_kana":"ミネヤマチョウシンマチ","prefecture_code":26},"0012":{"zip_code":"6270012","prefecture":"京都府","prefecture_kana":"キョウトフ","city":"京丹後市","city_kana":"キョウタンゴシ","town":"峰山町杉谷","town_kana":"ミネヤマチョウスギタニ","prefecture_code":26},"0041":{"zip_code":"6270041","prefecture":"京都府","prefecture_kana":"キョウトフ","city":"京丹後市","city_kana":"キョウタンゴシ","town":"峰山町菅","town_kana":"ミネヤマチョウスゲ","prefecture_code":26},"0011":{"zip_code":"6270011","prefecture":"京都府","prefecture_kana":"キョウトフ","city":"京丹後市","city_kana":"キョウタンゴシ","town":"峰山町丹波","town_kana":"ミネヤマチョウタンバ","prefecture_code":26},"0037":{"zip_code":"6270037","prefecture":"京都府","prefecture_kana":"キョウトフ","city":"京丹後市","city_kana":"キョウタンゴシ","town":"峰山町千歳","town_kana":"ミネヤマチョウチトセ","prefecture_code":26},"0003":{"zip_code":"6270003","prefecture":"京都府","prefecture_kana":"キョウトフ","city":"京丹後市","city_kana":"キョウタンゴシ","town":"峰山町内記","town_kana":"ミネヤマチョウナイキ","prefecture_code":26},"0042":{"zip_code":"6270042","prefecture":"京都府","prefecture_kana":"キョウトフ","city":"京丹後市","city_kana":"キョウタンゴシ","town":"峰山町長岡","town_kana":"ミネヤマチョウナガオカ","prefecture_code":26},"0032":{"zip_code":"6270032","prefecture":"京都府","prefecture_kana":"キョウトフ","city":"京丹後市","city_kana":"キョウタンゴシ","town":"峰山町浪花","town_kana":"ミネヤマチョウナニワ","prefecture_code":26},"0051":{"zip_code":"6270051","prefecture":"京都府","prefecture_kana":"キョウトフ","city":"京丹後市","city_kana":"キョウタンゴシ","town":"峰山町二箇","town_kana":"ミネヤマチョウニカ","prefecture_code":26},"0045":{"zip_code":"6270045","prefecture":"京都府","prefecture_kana":"キョウトフ","city":"京丹後市","city_kana":"キョウタンゴシ","town":"峰山町西山","town_kana":"ミネヤマチョウニシヤマ","prefecture_code":26},"0043":{"zip_code":"6270043","prefecture":"京都府","prefecture_kana":"キョウトフ","city":"京丹後市","city_kana":"キョウタンゴシ","town":"峰山町新治","town_kana":"ミネヤマチョウニンバリ","prefecture_code":26},"0001":{"zip_code":"6270001","prefecture":"京都府","prefecture_kana":"キョウトフ","city":"京丹後市","city_kana":"キョウタンゴシ","town":"峰山町橋木","town_kana":"ミネヤマチョウハシギ","prefecture_code":26},"0054":{"zip_code":"6270054","prefecture":"京都府","prefecture_kana":"キョウトフ","city":"京丹後市","city_kana":"キョウタンゴシ","town":"峰山町久次","town_kana":"ミネヤマチョウヒサツギ","prefecture_code":26},"0038":{"zip_code":"6270038","prefecture":"京都府","prefecture_kana":"キョウトフ","city":"京丹後市","city_kana":"キョウタンゴシ","town":"峰山町富貴屋","town_kana":"ミネヤマチョウフキヤ","prefecture_code":26},"0013":{"zip_code":"6270013","prefecture":"京都府","prefecture_kana":"キョウトフ","city":"京丹後市","city_kana":"キョウタンゴシ","town":"峰山町不断","town_kana":"ミネヤマチョウフダン","prefecture_code":26},"0026":{"zip_code":"6270026","prefecture":"京都府","prefecture_kana":"キョウトフ","city":"京丹後市","city_kana":"キョウタンゴシ","town":"峰山町古殿","town_kana":"ミネヤマチョウフルドノ","prefecture_code":26},"0053":{"zip_code":"6270053","prefecture":"京都府","prefecture_kana":"キョウトフ","city":"京丹後市","city_kana":"キョウタンゴシ","town":"峰山町鱒留","town_kana":"ミネヤマチョウマスドメ","prefecture_code":26},"0024":{"zip_code":"6270024","prefecture":"京都府","prefecture_kana":"キョウトフ","city":"京丹後市","city_kana":"キョウタンゴシ","town":"峰山町室","town_kana":"ミネヤマチョウムロ","prefecture_code":26},"0027":{"zip_code":"6270027","prefecture":"京都府","prefecture_kana":"キョウトフ","city":"京丹後市","city_kana":"キョウタンゴシ","town":"峰山町安","town_kana":"ミネヤマチョウヤス","prefecture_code":26},"0002":{"zip_code":"6270002","prefecture":"京都府","prefecture_kana":"キョウトフ","city":"京丹後市","city_kana":"キョウタンゴシ","town":"峰山町矢田","town_kana":"ミネヤマチョウヤタ","prefecture_code":26},"0021":{"zip_code":"6270021","prefecture":"京都府","prefecture_kana":"キョウトフ","city":"京丹後市","city_kana":"キョウタンゴシ","town":"峰山町吉原","town_kana":"ミネヤマチョウヨシワラ","prefecture_code":26},"0144":{"zip_code":"6270144","prefecture":"京都府","prefecture_kana":"キョウトフ","city":"京丹後市","city_kana":"キョウタンゴシ","town":"弥栄町井辺","town_kana":"ヤサカチョウイノベ","prefecture_code":26},"0122":{"zip_code":"6270122","prefecture":"京都府","prefecture_kana":"キョウトフ","city":"京丹後市","city_kana":"キョウタンゴシ","town":"弥栄町芋野","town_kana":"ヤサカチョウイモノ","prefecture_code":26},"0132":{"zip_code":"6270132","prefecture":"京都府","prefecture_kana":"キョウトフ","city":"京丹後市","city_kana":"キョウタンゴシ","town":"弥栄町木橋","town_kana":"ヤサカチョウキバシ","prefecture_code":26},"0145":{"zip_code":"6270145","prefecture":"京都府","prefecture_kana":"キョウトフ","city":"京丹後市","city_kana":"キョウタンゴシ","town":"弥栄町国久","town_kana":"ヤサカチョウクニヒサ","prefecture_code":26},"0142":{"zip_code":"6270142","prefecture":"京都府","prefecture_kana":"キョウトフ","city":"京丹後市","city_kana":"キョウタンゴシ","town":"弥栄町黒部","town_kana":"ヤサカチョウクロベ","prefecture_code":26},"0141":{"zip_code":"6270141","prefecture":"京都府","prefecture_kana":"キョウトフ","city":"京丹後市","city_kana":"キョウタンゴシ","town":"弥栄町小田","town_kana":"ヤサカチョウコダ","prefecture_code":26},"0102":{"zip_code":"6270102","prefecture":"京都府","prefecture_kana":"キョウトフ","city":"京丹後市","city_kana":"キョウタンゴシ","town":"弥栄町須川","town_kana":"ヤサカチョウスガワ","prefecture_code":26},"0121":{"zip_code":"6270121","prefecture":"京都府","prefecture_kana":"キョウトフ","city":"京丹後市","city_kana":"キョウタンゴシ","town":"弥栄町堤","town_kana":"ヤサカチョウツツミ","prefecture_code":26},"0112":{"zip_code":"6270112","prefecture":"京都府","prefecture_kana":"キョウトフ","city":"京丹後市","city_kana":"キョウタンゴシ","town":"弥栄町等楽寺","town_kana":"ヤサカチョウトウラクジ","prefecture_code":26},"0133":{"zip_code":"6270133","prefecture":"京都府","prefecture_kana":"キョウトフ","city":"京丹後市","city_kana":"キョウタンゴシ","town":"弥栄町鳥取","town_kana":"ヤサカチョウトットリ","prefecture_code":26},"0101":{"zip_code":"6270101","prefecture":"京都府","prefecture_kana":"キョウトフ","city":"京丹後市","city_kana":"キョウタンゴシ","town":"弥栄町野中","town_kana":"ヤサカチョウノナカ","prefecture_code":26},"0143":{"zip_code":"6270143","prefecture":"京都府","prefecture_kana":"キョウトフ","city":"京丹後市","city_kana":"キョウタンゴシ","town":"弥栄町船木","town_kana":"ヤサカチョウフナキ","prefecture_code":26},"0111":{"zip_code":"6270111","prefecture":"京都府","prefecture_kana":"キョウトフ","city":"京丹後市","city_kana":"キョウタンゴシ","town":"弥栄町溝谷","town_kana":"ヤサカチョウミゾタニ","prefecture_code":26},"0123":{"zip_code":"6270123","prefecture":"京都府","prefecture_kana":"キョウトフ","city":"京丹後市","city_kana":"キョウタンゴシ","town":"弥栄町吉沢","town_kana":"ヤサカチョウヨシサワ","prefecture_code":26},"0131":{"zip_code":"6270131","prefecture":"京都府","prefecture_kana":"キョウトフ","city":"京丹後市","city_kana":"キョウタンゴシ","town":"弥栄町和田野","town_kana":"ヤサカチョウワダノ","prefecture_code":26}}