{"1303":{"zip_code":"6291303","prefecture":"京都府","prefecture_kana":"キョウトフ","city":"福知山市","city_kana":"フクチヤマシ","town":"夜久野町井田","town_kana":"ヤクノチョウイダ","prefecture_code":26},"1323":{"zip_code":"6291323","prefecture":"京都府","prefecture_kana":"キョウトフ","city":"福知山市","city_kana":"フクチヤマシ","town":"夜久野町板生","town_kana":"ヤクノチョウイトウ","prefecture_code":26},"1302":{"zip_code":"6291302","prefecture":"京都府","prefecture_kana":"キョウトフ","city":"福知山市","city_kana":"フクチヤマシ","town":"夜久野町今西中","town_kana":"ヤクノチョウイマニシナカ","prefecture_code":26},"1314":{"zip_code":"6291314","prefecture":"京都府","prefecture_kana":"キョウトフ","city":"福知山市","city_kana":"フクチヤマシ","town":"夜久野町小倉","town_kana":"ヤクノチョウオグラ","prefecture_code":26},"1315":{"zip_code":"6291315","prefecture":"京都府","prefecture_kana":"キョウトフ","city":"福知山市","city_kana":"フクチヤマシ","town":"夜久野町大油子","town_kana":"ヤクノチョウオユゴ","prefecture_code":26},"1312":{"zip_code":"6291312","prefecture":"京都府","prefecture_kana":"キョウトフ","city":"福知山市","city_kana":"フクチヤマシ","town":"夜久野町末","town_kana":"ヤクノチョウスエ","prefecture_code":26},"1313":{"zip_code":"6291313","prefecture":"京都府","prefecture_kana":"キョウトフ","city":"福知山市","city_kana":"フクチヤマシ","town":"夜久野町高内","town_kana":"ヤクノチョウタカウチ","prefecture_code":26},"1305":{"zip_code":"6291305","prefecture":"京都府","prefecture_kana":"キョウトフ","city":"福知山市","city_kana":"フクチヤマシ","town":"夜久野町千原","town_kana":"ヤクノチョウチハラ","prefecture_code":26},"1321":{"zip_code":"6291321","prefecture":"京都府","prefecture_kana":"キョウトフ","city":"福知山市","city_kana":"フクチヤマシ","town":"夜久野町直見","town_kana":"ヤクノチョウナオミ","prefecture_code":26},"1304":{"zip_code":"6291304","prefecture":"京都府","prefecture_kana":"キョウトフ","city":"福知山市","city_kana":"フクチヤマシ","town":"夜久野町額田","town_kana":"ヤクノチョウヌカタ","prefecture_code":26},"1301":{"zip_code":"6291301","prefecture":"京都府","prefecture_kana":"キョウトフ","city":"福知山市","city_kana":"フクチヤマシ","town":"夜久野町畑","town_kana":"ヤクノチョウハタ","prefecture_code":26},"1322":{"zip_code":"6291322","prefecture":"京都府","prefecture_kana":"キョウトフ","city":"福知山市","city_kana":"フクチヤマシ","town":"夜久野町平野","town_kana":"ヤクノチョウヒラノ","prefecture_code":26},"1311":{"zip_code":"6291311","prefecture":"京都府","prefecture_kana":"キョウトフ","city":"福知山市","city_kana":"フクチヤマシ","town":"夜久野町日置","town_kana":"ヤクノチョウヘキ","prefecture_code":26},"1261":{"zip_code":"6291261","prefecture":"京都府","prefecture_kana":"キョウトフ","city":"綾部市","city_kana":"アヤベシ","town":"旭町","town_kana":"アサヒチョウ","prefecture_code":26},"1241":{"zip_code":"6291241","prefecture":"京都府","prefecture_kana":"キョウトフ","city":"綾部市","city_kana":"アヤベシ","town":"井根町","town_kana":"イネチョウ","prefecture_code":26},"1254":{"zip_code":"6291254","prefecture":"京都府","prefecture_kana":"キョウトフ","city":"綾部市","city_kana":"アヤベシ","town":"釜輪町","town_kana":"カマノワチョウ","prefecture_code":26},"1271":{"zip_code":"6291271","prefecture":"京都府","prefecture_kana":"キョウトフ","city":"綾部市","city_kana":"アヤベシ","town":"上原町","town_kana":"カンバラチョウ","prefecture_code":26},"1272":{"zip_code":"6291272","prefecture":"京都府","prefecture_kana":"キョウトフ","city":"綾部市","city_kana":"アヤベシ","town":"下替地町","town_kana":"シタノカチチョウ","prefecture_code":26},"1273":{"zip_code":"6291273","prefecture":"京都府","prefecture_kana":"キョウトフ","city":"綾部市","city_kana":"アヤベシ","town":"下原町","town_kana":"シモバラチョウ","prefecture_code":26},"1263":{"zip_code":"6291263","prefecture":"京都府","prefecture_kana":"キョウトフ","city":"綾部市","city_kana":"アヤベシ","town":"鷹栖町","town_kana":"タカノスチョウ","prefecture_code":26},"1253":{"zip_code":"6291253","prefecture":"京都府","prefecture_kana":"キョウトフ","city":"綾部市","city_kana":"アヤベシ","town":"武吉町","town_kana":"タケヨシチョウ","prefecture_code":26},"1251":{"zip_code":"6291251","prefecture":"京都府","prefecture_kana":"キョウトフ","city":"綾部市","city_kana":"アヤベシ","town":"忠町","town_kana":"タダチョウ","prefecture_code":26},"1252":{"zip_code":"6291252","prefecture":"京都府","prefecture_kana":"キョウトフ","city":"綾部市","city_kana":"アヤベシ","town":"佃町","town_kana":"ツクダチョウ","prefecture_code":26},"1245":{"zip_code":"6291245","prefecture":"京都府","prefecture_kana":"キョウトフ","city":"綾部市","city_kana":"アヤベシ","town":"十倉志茂町","town_kana":"トクラシモチョウ","prefecture_code":26},"1244":{"zip_code":"6291244","prefecture":"京都府","prefecture_kana":"キョウトフ","city":"綾部市","city_kana":"アヤベシ","town":"十倉中町","town_kana":"トクラナカマチ","prefecture_code":26},"1242":{"zip_code":"6291242","prefecture":"京都府","prefecture_kana":"キョウトフ","city":"綾部市","city_kana":"アヤベシ","town":"十倉名畑町","town_kana":"トクラナバタケチョウ","prefecture_code":26},"1243":{"zip_code":"6291243","prefecture":"京都府","prefecture_kana":"キョウトフ","city":"綾部市","city_kana":"アヤベシ","town":"十倉向町","town_kana":"トクラムカイチョウ","prefecture_code":26},"1255":{"zip_code":"6291255","prefecture":"京都府","prefecture_kana":"キョウトフ","city":"綾部市","city_kana":"アヤベシ","town":"戸奈瀬町","town_kana":"トナセチョウ","prefecture_code":26},"1264":{"zip_code":"6291264","prefecture":"京都府","prefecture_kana":"キョウトフ","city":"綾部市","city_kana":"アヤベシ","town":"西原町","town_kana":"ニシバラチョウ","prefecture_code":26},"1257":{"zip_code":"6291257","prefecture":"京都府","prefecture_kana":"キョウトフ","city":"綾部市","city_kana":"アヤベシ","town":"橋上町","town_kana":"ハシカミチョウ","prefecture_code":26},"1262":{"zip_code":"6291262","prefecture":"京都府","prefecture_kana":"キョウトフ","city":"綾部市","city_kana":"アヤベシ","town":"東山町","town_kana":"ヒガシヤマチョウ","prefecture_code":26},"1256":{"zip_code":"6291256","prefecture":"京都府","prefecture_kana":"キョウトフ","city":"綾部市","city_kana":"アヤベシ","town":"広瀬町","town_kana":"ヒロセチョウ","prefecture_code":26},"1274":{"zip_code":"6291274","prefecture":"京都府","prefecture_kana":"キョウトフ","city":"綾部市","city_kana":"アヤベシ","town":"和木町","town_kana":"ワギチョウ","prefecture_code":26},"2244":{"zip_code":"6292244","prefecture":"京都府","prefecture_kana":"キョウトフ","city":"宮津市","city_kana":"ミヤヅシ","town":"江尻","town_kana":"エジリ","prefecture_code":26},"2242":{"zip_code":"6292242","prefecture":"京都府","prefecture_kana":"キョウトフ","city":"宮津市","city_kana":"ミヤヅシ","town":"大垣","town_kana":"オオガキ","prefecture_code":26},"2234":{"zip_code":"6292234","prefecture":"京都府","prefecture_kana":"キョウトフ","city":"宮津市","city_kana":"ミヤヅシ","town":"国分","town_kana":"コクブン","prefecture_code":26},"2231":{"zip_code":"6292231","prefecture":"京都府","prefecture_kana":"キョウトフ","city":"宮津市","city_kana":"ミヤヅシ","town":"小松","town_kana":"コマツ","prefecture_code":26},"2251":{"zip_code":"6292251","prefecture":"京都府","prefecture_kana":"キョウトフ","city":"宮津市","city_kana":"ミヤヅシ","town":"須津","town_kana":"スヅ","prefecture_code":26},"2232":{"zip_code":"6292232","prefecture":"京都府","prefecture_kana":"キョウトフ","city":"宮津市","city_kana":"ミヤヅシ","town":"中野","town_kana":"ナカノ","prefecture_code":26},"2241":{"zip_code":"6292241","prefecture":"京都府","prefecture_kana":"キョウトフ","city":"宮津市","city_kana":"ミヤヅシ","town":"成相寺","town_kana":"ナリアイジ","prefecture_code":26},"2243":{"zip_code":"6292243","prefecture":"京都府","prefecture_kana":"キョウトフ","city":"宮津市","city_kana":"ミヤヅシ","town":"難波野","town_kana":"ナンバノ","prefecture_code":26},"2233":{"zip_code":"6292233","prefecture":"京都府","prefecture_kana":"キョウトフ","city":"宮津市","city_kana":"ミヤヅシ","town":"溝尻","town_kana":"ミゾシリ","prefecture_code":26},"3104":{"zip_code":"6293104","prefecture":"京都府","prefecture_kana":"キョウトフ","city":"京丹後市","city_kana":"キョウタンゴシ","town":"網野町浅茂川","town_kana":"アミノチョウアサモガワ","prefecture_code":26},"3101":{"zip_code":"6293101","prefecture":"京都府","prefecture_kana":"キョウトフ","city":"京丹後市","city_kana":"キョウタンゴシ","town":"網野町網野","town_kana":"アミノチョウアミノ","prefecture_code":26},"3134":{"zip_code":"6293134","prefecture":"京都府","prefecture_kana":"キョウトフ","city":"京丹後市","city_kana":"キョウタンゴシ","town":"網野町生野内","town_kana":"アミノチョウイクノウチ","prefecture_code":26},"3103":{"zip_code":"6293103","prefecture":"京都府","prefecture_kana":"キョウトフ","city":"京丹後市","city_kana":"キョウタンゴシ","town":"網野町磯","town_kana":"アミノチョウイソ","prefecture_code":26},"3112":{"zip_code":"6293112","prefecture":"京都府","prefecture_kana":"キョウトフ","city":"京丹後市","city_kana":"キョウタンゴシ","town":"網野町掛津","town_kana":"アミノチョウカケヅ","prefecture_code":26},"3241":{"zip_code":"6293241","prefecture":"京都府","prefecture_kana":"キョウトフ","city":"京丹後市","city_kana":"キョウタンゴシ","town":"網野町木津","town_kana":"アミノチョウキツ","prefecture_code":26},"3135":{"zip_code":"6293135","prefecture":"京都府","prefecture_kana":"キョウトフ","city":"京丹後市","city_kana":"キョウタンゴシ","town":"網野町切畑","town_kana":"アミノチョウキリハタ","prefecture_code":26},"3132":{"zip_code":"6293132","prefecture":"京都府","prefecture_kana":"キョウトフ","city":"京丹後市","city_kana":"キョウタンゴシ","town":"網野町公庄","town_kana":"アミノチョウグジョウ","prefecture_code":26},"3133":{"zip_code":"6293133","prefecture":"京都府","prefecture_kana":"キョウトフ","city":"京丹後市","city_kana":"キョウタンゴシ","town":"網野町郷","town_kana":"アミノチョウゴウ","prefecture_code":26},"3113":{"zip_code":"6293113","prefecture":"京都府","prefecture_kana":"キョウトフ","city":"京丹後市","city_kana":"キョウタンゴシ","town":"網野町小浜","town_kana":"アミノチョウコバマ","prefecture_code":26},"3246":{"zip_code":"6293246","prefecture":"京都府","prefecture_kana":"キョウトフ","city":"京丹後市","city_kana":"キョウタンゴシ","town":"網野町塩江","town_kana":"アミノチョウシオエ","prefecture_code":26},"3121":{"zip_code":"6293121","prefecture":"京都府","prefecture_kana":"キョウトフ","city":"京丹後市","city_kana":"キョウタンゴシ","town":"網野町島津","town_kana":"アミノチョウシマヅ","prefecture_code":26},"3102":{"zip_code":"6293102","prefecture":"京都府","prefecture_kana":"キョウトフ","city":"京丹後市","city_kana":"キョウタンゴシ","town":"網野町下岡","town_kana":"アミノチョウシモオカ","prefecture_code":26},"3136":{"zip_code":"6293136","prefecture":"京都府","prefecture_kana":"キョウトフ","city":"京丹後市","city_kana":"キョウタンゴシ","town":"網野町新庄","town_kana":"アミノチョウシンジョウ","prefecture_code":26},"3131":{"zip_code":"6293131","prefecture":"京都府","prefecture_kana":"キョウトフ","city":"京丹後市","city_kana":"キョウタンゴシ","town":"網野町高橋","town_kana":"アミノチョウタカハシ","prefecture_code":26},"3244":{"zip_code":"6293244","prefecture":"京都府","prefecture_kana":"キョウトフ","city":"京丹後市","city_kana":"キョウタンゴシ","town":"網野町俵野","town_kana":"アミノチョウタワラノ","prefecture_code":26},"3122":{"zip_code":"6293122","prefecture":"京都府","prefecture_kana":"キョウトフ","city":"京丹後市","city_kana":"キョウタンゴシ","town":"網野町仲禅寺","town_kana":"アミノチョウチュウゼンジ","prefecture_code":26},"3245":{"zip_code":"6293245","prefecture":"京都府","prefecture_kana":"キョウトフ","city":"京丹後市","city_kana":"キョウタンゴシ","town":"網野町浜詰","town_kana":"アミノチョウハマヅメ","prefecture_code":26},"3242":{"zip_code":"6293242","prefecture":"京都府","prefecture_kana":"キョウトフ","city":"京丹後市","city_kana":"キョウタンゴシ","town":"網野町日和田","town_kana":"アミノチョウヒワダ","prefecture_code":26},"3243":{"zip_code":"6293243","prefecture":"京都府","prefecture_kana":"キョウトフ","city":"京丹後市","city_kana":"キョウタンゴシ","town":"網野町溝野","town_kana":"アミノチョウミゾノ","prefecture_code":26},"3111":{"zip_code":"6293111","prefecture":"京都府","prefecture_kana":"キョウトフ","city":"京丹後市","city_kana":"キョウタンゴシ","town":"網野町三津","town_kana":"アミノチョウミツ","prefecture_code":26},"2514":{"zip_code":"6292514","prefecture":"京都府","prefecture_kana":"キョウトフ","city":"京丹後市","city_kana":"キョウタンゴシ","town":"大宮町明田","town_kana":"オオミヤチョウアケダ","prefecture_code":26},"2512":{"zip_code":"6292512","prefecture":"京都府","prefecture_kana":"キョウトフ","city":"京丹後市","city_kana":"キョウタンゴシ","town":"大宮町五十河","town_kana":"オオミヤチョウイカガ","prefecture_code":26},"2531":{"zip_code":"6292531","prefecture":"京都府","prefecture_kana":"キョウトフ","city":"京丹後市","city_kana":"キョウタンゴシ","town":"大宮町奥大野","town_kana":"オオミヤチョウオクオオノ","prefecture_code":26},"2533":{"zip_code":"6292533","prefecture":"京都府","prefecture_kana":"キョウトフ","city":"京丹後市","city_kana":"キョウタンゴシ","town":"大宮町上常吉","town_kana":"オオミヤチョウカミツネヨシ","prefecture_code":26},"2511":{"zip_code":"6292511","prefecture":"京都府","prefecture_kana":"キョウトフ","city":"京丹後市","city_kana":"キョウタンゴシ","town":"大宮町久住","town_kana":"オオミヤチョウクスミ","prefecture_code":26},"2501":{"zip_code":"6292501","prefecture":"京都府","prefecture_kana":"キョウトフ","city":"京丹後市","city_kana":"キョウタンゴシ","town":"大宮町口大野","town_kana":"オオミヤチョウクチオオノ","prefecture_code":26},"2502":{"zip_code":"6292502","prefecture":"京都府","prefecture_kana":"キョウトフ","city":"京丹後市","city_kana":"キョウタンゴシ","town":"大宮町河辺","town_kana":"オオミヤチョウコウベ","prefecture_code":26},"2534":{"zip_code":"6292534","prefecture":"京都府","prefecture_kana":"キョウトフ","city":"京丹後市","city_kana":"キョウタンゴシ","town":"大宮町下常吉","town_kana":"オオミヤチョウシモツネヨシ","prefecture_code":26},"2515":{"zip_code":"6292515","prefecture":"京都府","prefecture_kana":"キョウトフ","city":"京丹後市","city_kana":"キョウタンゴシ","town":"大宮町新宮","town_kana":"オオミヤチョウシングウ","prefecture_code":26},"2503":{"zip_code":"6292503","prefecture":"京都府","prefecture_kana":"キョウトフ","city":"京丹後市","city_kana":"キョウタンゴシ","town":"大宮町周枳","town_kana":"オオミヤチョウスキ","prefecture_code":26},"2504":{"zip_code":"6292504","prefecture":"京都府","prefecture_kana":"キョウトフ","city":"京丹後市","city_kana":"キョウタンゴシ","town":"大宮町善王寺","town_kana":"オオミヤチョウゼンノウジ","prefecture_code":26},"2532":{"zip_code":"6292532","prefecture":"京都府","prefecture_kana":"キョウトフ","city":"京丹後市","city_kana":"キョウタンゴシ","town":"大宮町谷内","town_kana":"オオミヤチョウタニウチ","prefecture_code":26},"2513":{"zip_code":"6292513","prefecture":"京都府","prefecture_kana":"キョウトフ","city":"京丹後市","city_kana":"キョウタンゴシ","town":"大宮町延利","town_kana":"オオミヤチョウノブトシ","prefecture_code":26},"2522":{"zip_code":"6292522","prefecture":"京都府","prefecture_kana":"キョウトフ","city":"京丹後市","city_kana":"キョウタンゴシ","town":"大宮町三重","town_kana":"オオミヤチョウミエ","prefecture_code":26},"2523":{"zip_code":"6292523","prefecture":"京都府","prefecture_kana":"キョウトフ","city":"京丹後市","city_kana":"キョウタンゴシ","town":"大宮町三坂","town_kana":"オオミヤチョウミサカ","prefecture_code":26},"2521":{"zip_code":"6292521","prefecture":"京都府","prefecture_kana":"キョウトフ","city":"京丹後市","city_kana":"キョウタンゴシ","town":"大宮町森本","town_kana":"オオミヤチョウモリモト","prefecture_code":26},"3410":{"zip_code":"6293410","prefecture":"京都府","prefecture_kana":"キョウトフ","city":"京丹後市","city_kana":"キョウタンゴシ","town":"久美浜町","town_kana":"クミハマチョウ","prefecture_code":26},"3424":[{"zip_code":"6293424","prefecture":"京都府","prefecture_kana":"キョウトフ","city":"京丹後市","city_kana":"キョウタンゴシ","town":"久美浜町旭","town_kana":"クミハマチョウアサヒ","prefecture_code":26},{"zip_code":"6293424","prefecture":"京都府","prefecture_kana":"キョウトフ","city":"京丹後市","city_kana":"キョウタンゴシ","town":"久美浜町蒲井","town_kana":"クミハマチョウカマイ","prefecture_code":26}],"3571":{"zip_code":"6293571","prefecture":"京都府","prefecture_kana":"キョウトフ","city":"京丹後市","city_kana":"キョウタンゴシ","town":"久美浜町芦原","town_kana":"クミハマチョウアシワラ","prefecture_code":26},"3443":{"zip_code":"6293443","prefecture":"京都府","prefecture_kana":"キョウトフ","city":"京丹後市","city_kana":"キョウタンゴシ","town":"久美浜町海士","town_kana":"クミハマチョウアマ","prefecture_code":26},"3566":{"zip_code":"6293566","prefecture":"京都府","prefecture_kana":"キョウトフ","city":"京丹後市","city_kana":"キョウタンゴシ","town":"久美浜町安養寺","town_kana":"クミハマチョウアンヨウジ","prefecture_code":26},"3573":{"zip_code":"6293573","prefecture":"京都府","prefecture_kana":"キョウトフ","city":"京丹後市","city_kana":"キョウタンゴシ","town":"久美浜町出角","town_kana":"クミハマチョウイズスミ","prefecture_code":26},"3576":{"zip_code":"6293576","prefecture":"京都府","prefecture_kana":"キョウトフ","city":"京丹後市","city_kana":"キョウタンゴシ","town":"久美浜町市野々","town_kana":"クミハマチョウイチノノ","prefecture_code":26},"3574":{"zip_code":"6293574","prefecture":"京都府","prefecture_kana":"キョウトフ","city":"京丹後市","city_kana":"キョウタンゴシ","town":"久美浜町市場","town_kana":"クミハマチョウイチバ","prefecture_code":26},"3435":{"zip_code":"6293435","prefecture":"京都府","prefecture_kana":"キョウトフ","city":"京丹後市","city_kana":"キョウタンゴシ","town":"久美浜町壱分","town_kana":"クミハマチョウイチブ","prefecture_code":26},"3438":[{"zip_code":"6293438","prefecture":"京都府","prefecture_kana":"キョウトフ","city":"京丹後市","city_kana":"キョウタンゴシ","town":"久美浜町浦明","town_kana":"クミハマチョウウラケ","prefecture_code":26},{"zip_code":"6293438","prefecture":"京都府","prefecture_kana":"キョウトフ","city":"京丹後市","city_kana":"キョウタンゴシ","town":"久美浜町長柄","town_kana":"クミハマチョウナガラ","prefecture_code":26}],"3555":{"zip_code":"6293555","prefecture":"京都府","prefecture_kana":"キョウトフ","city":"京丹後市","city_kana":"キョウタンゴシ","town":"久美浜町円頓寺","town_kana":"クミハマチョウエンドンジ","prefecture_code":26},"3436":{"zip_code":"6293436","prefecture":"京都府","prefecture_kana":"キョウトフ","city":"京丹後市","city_kana":"キョウタンゴシ","town":"久美浜町大井","town_kana":"クミハマチョウオオイ","prefecture_code":26},"3423":{"zip_code":"6293423","prefecture":"京都府","prefecture_kana":"キョウトフ","city":"京丹後市","city_kana":"キョウタンゴシ","town":"久美浜町大向","town_kana":"クミハマチョウオオムカイ","prefecture_code":26},"3414":{"zip_code":"6293414","prefecture":"京都府","prefecture_kana":"キョウトフ","city":"京丹後市","city_kana":"キョウタンゴシ","town":"久美浜町奥馬地","town_kana":"クミハマチョウオクマジ","prefecture_code":26},"3412":[{"zip_code":"6293412","prefecture":"京都府","prefecture_kana":"キョウトフ","city":"京丹後市","city_kana":"キョウタンゴシ","town":"久美浜町奥三谷","town_kana":"クミハマチョウオクミタニ","prefecture_code":26},{"zip_code":"6293412","prefecture":"京都府","prefecture_kana":"キョウトフ","city":"京丹後市","city_kana":"キョウタンゴシ","town":"久美浜町口三谷","town_kana":"クミハマチョウクチミタニ","prefecture_code":26},{"zip_code":"6293412","prefecture":"京都府","prefecture_kana":"キョウトフ","city":"京丹後市","city_kana":"キョウタンゴシ","town":"久美浜町三谷","town_kana":"クミハマチョウミタニ","prefecture_code":26}],"3422":[{"zip_code":"6293422","prefecture":"京都府","prefecture_kana":"キョウトフ","city":"京丹後市","city_kana":"キョウタンゴシ","town":"久美浜町河内","town_kana":"クミハマチョウカッチ","prefecture_code":26},{"zip_code":"6293422","prefecture":"京都府","prefecture_kana":"キョウトフ","city":"京丹後市","city_kana":"キョウタンゴシ","town":"久美浜町箱石","town_kana":"クミハマチョウハコイシ","prefecture_code":26},{"zip_code":"6293422","prefecture":"京都府","prefecture_kana":"キョウトフ","city":"京丹後市","city_kana":"キョウタンゴシ","town":"久美浜町湊宮","town_kana":"クミハマチョウミナトミヤ","prefecture_code":26}],"3421":{"zip_code":"6293421","prefecture":"京都府","prefecture_kana":"キョウトフ","city":"京丹後市","city_kana":"キョウタンゴシ","town":"久美浜町葛野","town_kana":"クミハマチョウカヅラノ","prefecture_code":26},"3575":{"zip_code":"6293575","prefecture":"京都府","prefecture_kana":"キョウトフ","city":"京丹後市","city_kana":"キョウタンゴシ","town":"久美浜町金谷","town_kana":"クミハマチョウカナヤ","prefecture_code":26},"3431":{"zip_code":"6293431","prefecture":"京都府","prefecture_kana":"キョウトフ","city":"京丹後市","city_kana":"キョウタンゴシ","town":"久美浜町鹿野","town_kana":"クミハマチョウカノ","prefecture_code":26},"3441":{"zip_code":"6293441","prefecture":"京都府","prefecture_kana":"キョウトフ","city":"京丹後市","city_kana":"キョウタンゴシ","town":"久美浜町神崎","town_kana":"クミハマチョウカンザキ","prefecture_code":26},"3416":{"zip_code":"6293416","prefecture":"京都府","prefecture_kana":"キョウトフ","city":"京丹後市","city_kana":"キョウタンゴシ","town":"久美浜町神谷","town_kana":"クミハマチョウカンダニ","prefecture_code":26},"3413":{"zip_code":"6293413","prefecture":"京都府","prefecture_kana":"キョウトフ","city":"京丹後市","city_kana":"キョウタンゴシ","town":"久美浜町口馬地","town_kana":"クミハマチョウクチマジ","prefecture_code":26},"3556":{"zip_code":"6293556","prefecture":"京都府","prefecture_kana":"キョウトフ","city":"京丹後市","city_kana":"キョウタンゴシ","town":"久美浜町郷","town_kana":"クミハマチョウゴウ","prefecture_code":26},"3411":[{"zip_code":"6293411","prefecture":"京都府","prefecture_kana":"キョウトフ","city":"京丹後市","city_kana":"キョウタンゴシ","town":"久美浜町甲坂","town_kana":"クミハマチョウコウサカ","prefecture_code":26},{"zip_code":"6293411","prefecture":"京都府","prefecture_kana":"キョウトフ","city":"京丹後市","city_kana":"キョウタンゴシ","town":"久美浜町栃谷","town_kana":"クミハマチョウトチダニ","prefecture_code":26}],"3415":{"zip_code":"6293415","prefecture":"京都府","prefecture_kana":"キョウトフ","city":"京丹後市","city_kana":"キョウタンゴシ","town":"久美浜町河梨","town_kana":"クミハマチョウコウナシ","prefecture_code":26},"3442":{"zip_code":"6293442","prefecture":"京都府","prefecture_kana":"キョウトフ","city":"京丹後市","city_kana":"キョウタンゴシ","town":"久美浜町甲山","town_kana":"クミハマチョウコウヤマ","prefecture_code":26},"3565":{"zip_code":"6293565","prefecture":"京都府","prefecture_kana":"キョウトフ","city":"京丹後市","city_kana":"キョウタンゴシ","town":"久美浜町小桑","town_kana":"クミハマチョウコグワ","prefecture_code":26},"3448":{"zip_code":"6293448","prefecture":"京都府","prefecture_kana":"キョウトフ","city":"京丹後市","city_kana":"キョウタンゴシ","town":"久美浜町坂井","town_kana":"クミハマチョウサカイ","prefecture_code":26},"3405":{"zip_code":"6293405","prefecture":"京都府","prefecture_kana":"キョウトフ","city":"京丹後市","city_kana":"キョウタンゴシ","town":"久美浜町栄町","town_kana":"クミハマチョウサカエマチ","prefecture_code":26},"3554":{"zip_code":"6293554","prefecture":"京都府","prefecture_kana":"キョウトフ","city":"京丹後市","city_kana":"キョウタンゴシ","town":"久美浜町坂谷","town_kana":"クミハマチョウサカダニ","prefecture_code":26},"3562":{"zip_code":"6293562","prefecture":"京都府","prefecture_kana":"キョウトフ","city":"京丹後市","city_kana":"キョウタンゴシ","town":"久美浜町佐野","town_kana":"クミハマチョウサノ","prefecture_code":26},"3433":{"zip_code":"6293433","prefecture":"京都府","prefecture_kana":"キョウトフ","city":"京丹後市","city_kana":"キョウタンゴシ","town":"久美浜町三分","town_kana":"クミハマチョウサンブ","prefecture_code":26},"3445":{"zip_code":"6293445","prefecture":"京都府","prefecture_kana":"キョウトフ","city":"京丹後市","city_kana":"キョウタンゴシ","town":"久美浜町島","town_kana":"クミハマチョウシマ","prefecture_code":26},"3401":{"zip_code":"6293401","prefecture":"京都府","prefecture_kana":"キョウトフ","city":"京丹後市","city_kana":"キョウタンゴシ","town":"久美浜町十楽","town_kana":"クミハマチョウジュウラク","prefecture_code":26},"3564":{"zip_code":"6293564","prefecture":"京都府","prefecture_kana":"キョウトフ","city":"京丹後市","city_kana":"キョウタンゴシ","town":"久美浜町尉ケ畑","town_kana":"クミハマチョウジョウガハタ","prefecture_code":26},"3570":{"zip_code":"6293570","prefecture":"京都府","prefecture_kana":"キョウトフ","city":"京丹後市","city_kana":"キョウタンゴシ","town":"久美浜町新庄","town_kana":"クミハマチョウシンジョウ","prefecture_code":26},"3407":{"zip_code":"6293407","prefecture":"京都府","prefecture_kana":"キョウトフ","city":"京丹後市","city_kana":"キョウタンゴシ","town":"久美浜町新橋","town_kana":"クミハマチョウシンバシ","prefecture_code":26},"3408":{"zip_code":"6293408","prefecture":"京都府","prefecture_kana":"キョウトフ","city":"京丹後市","city_kana":"キョウタンゴシ","town":"久美浜町新町","town_kana":"クミハマチョウシンマチ","prefecture_code":26},"3579":{"zip_code":"6293579","prefecture":"京都府","prefecture_kana":"キョウトフ","city":"京丹後市","city_kana":"キョウタンゴシ","town":"久美浜町須田","town_kana":"クミハマチョウスダ","prefecture_code":26},"3437":{"zip_code":"6293437","prefecture":"京都府","prefecture_kana":"キョウトフ","city":"京丹後市","city_kana":"キョウタンゴシ","town":"久美浜町関","town_kana":"クミハマチョウセキ","prefecture_code":26},"3557":{"zip_code":"6293557","prefecture":"京都府","prefecture_kana":"キョウトフ","city":"京丹後市","city_kana":"キョウタンゴシ","town":"久美浜町竹藤","town_kana":"クミハマチョウタケフジ","prefecture_code":26},"3559":{"zip_code":"6293559","prefecture":"京都府","prefecture_kana":"キョウトフ","city":"京丹後市","city_kana":"キョウタンゴシ","town":"久美浜町谷","town_kana":"クミハマチョウタニ","prefecture_code":26},"3404":{"zip_code":"6293404","prefecture":"京都府","prefecture_kana":"キョウトフ","city":"京丹後市","city_kana":"キョウタンゴシ","town":"久美浜町土居","town_kana":"クミハマチョウドイ","prefecture_code":26},"3447":{"zip_code":"6293447","prefecture":"京都府","prefecture_kana":"キョウトフ","city":"京丹後市","city_kana":"キョウタンゴシ","town":"久美浜町友重","town_kana":"クミハマチョウトモシゲ","prefecture_code":26},"3551":{"zip_code":"6293551","prefecture":"京都府","prefecture_kana":"キョウトフ","city":"京丹後市","city_kana":"キョウタンゴシ","town":"久美浜町永留","town_kana":"クミハマチョウナガドメ","prefecture_code":26},"3553":{"zip_code":"6293553","prefecture":"京都府","prefecture_kana":"キョウトフ","city":"京丹後市","city_kana":"キョウタンゴシ","town":"久美浜町長野","town_kana":"クミハマチョウナガノ","prefecture_code":26},"3402":{"zip_code":"6293402","prefecture":"京都府","prefecture_kana":"キョウトフ","city":"京丹後市","city_kana":"キョウタンゴシ","town":"久美浜町仲町","town_kana":"クミハマチョウナカマチ","prefecture_code":26},"3572":{"zip_code":"6293572","prefecture":"京都府","prefecture_kana":"キョウトフ","city":"京丹後市","city_kana":"キョウタンゴシ","town":"久美浜町新谷","town_kana":"クミハマチョウニイダニ","prefecture_code":26},"3444":[{"zip_code":"6293444","prefecture":"京都府","prefecture_kana":"キョウトフ","city":"京丹後市","city_kana":"キョウタンゴシ","town":"久美浜町西橋爪","town_kana":"クミハマチョウニシハシヅメ","prefecture_code":26},{"zip_code":"6293444","prefecture":"京都府","prefecture_kana":"キョウトフ","city":"京丹後市","city_kana":"キョウタンゴシ","town":"久美浜町橋爪","town_kana":"クミハマチョウハシヅメ","prefecture_code":26}],"3409":{"zip_code":"6293409","prefecture":"京都府","prefecture_kana":"キョウトフ","city":"京丹後市","city_kana":"キョウタンゴシ","town":"久美浜町西本町","town_kana":"クミハマチョウニシホンマチ","prefecture_code":26},"3552":{"zip_code":"6293552","prefecture":"京都府","prefecture_kana":"キョウトフ","city":"京丹後市","city_kana":"キョウタンゴシ","town":"久美浜町女布","town_kana":"クミハマチョウニョウ","prefecture_code":26},"3561":{"zip_code":"6293561","prefecture":"京都府","prefecture_kana":"キョウトフ","city":"京丹後市","city_kana":"キョウタンゴシ","town":"久美浜町野中","town_kana":"クミハマチョウノナカ","prefecture_code":26},"3578":{"zip_code":"6293578","prefecture":"京都府","prefecture_kana":"キョウトフ","city":"京丹後市","city_kana":"キョウタンゴシ","town":"久美浜町畑","town_kana":"クミハマチョウハタ","prefecture_code":26},"3406":{"zip_code":"6293406","prefecture":"京都府","prefecture_kana":"キョウトフ","city":"京丹後市","city_kana":"キョウタンゴシ","town":"久美浜町東本町","town_kana":"クミハマチョウヒガシホンマチ","prefecture_code":26},"3432":{"zip_code":"6293432","prefecture":"京都府","prefecture_kana":"キョウトフ","city":"京丹後市","city_kana":"キョウタンゴシ","town":"久美浜町平田","town_kana":"クミハマチョウヒラタ","prefecture_code":26},"3563":{"zip_code":"6293563","prefecture":"京都府","prefecture_kana":"キョウトフ","city":"京丹後市","city_kana":"キョウタンゴシ","town":"久美浜町二俣","town_kana":"クミハマチョウフタマタ","prefecture_code":26},"3577":{"zip_code":"6293577","prefecture":"京都府","prefecture_kana":"キョウトフ","city":"京丹後市","city_kana":"キョウタンゴシ","town":"久美浜町布袋野","town_kana":"クミハマチョウホタイノ","prefecture_code":26},"3446":{"zip_code":"6293446","prefecture":"京都府","prefecture_kana":"キョウトフ","city":"京丹後市","city_kana":"キョウタンゴシ","town":"久美浜町品田","town_kana":"クミハマチョウホンデ","prefecture_code":26},"3558":{"zip_code":"6293558","prefecture":"京都府","prefecture_kana":"キョウトフ","city":"京丹後市","city_kana":"キョウタンゴシ","town":"久美浜町丸山","town_kana":"クミハマチョウマルヤマ","prefecture_code":26},"3434":{"zip_code":"6293434","prefecture":"京都府","prefecture_kana":"キョウトフ","city":"京丹後市","city_kana":"キョウタンゴシ","town":"久美浜町三原","town_kana":"クミハマチョウミハラ","prefecture_code":26},"3403":{"zip_code":"6293403","prefecture":"京都府","prefecture_kana":"キョウトフ","city":"京丹後市","city_kana":"キョウタンゴシ","town":"久美浜町向町","town_kana":"クミハマチョウムコウマチ","prefecture_code":26},"3449":{"zip_code":"6293449","prefecture":"京都府","prefecture_kana":"キョウトフ","city":"京丹後市","city_kana":"キョウタンゴシ","town":"久美浜町油池","town_kana":"クミハマチョウユイケ","prefecture_code":26},"0334":{"zip_code":"6290334","prefecture":"京都府","prefecture_kana":"キョウトフ","city":"南丹市","city_kana":"ナンタンシ","town":"日吉町天若","town_kana":"ヒヨシチョウアマワカ","prefecture_code":26},"0312":{"zip_code":"6290312","prefecture":"京都府","prefecture_kana":"キョウトフ","city":"南丹市","city_kana":"ナンタンシ","town":"日吉町上胡麻","town_kana":"ヒヨシチョウカミゴマ","prefecture_code":26},"0331":{"zip_code":"6290331","prefecture":"京都府","prefecture_kana":"キョウトフ","city":"南丹市","city_kana":"ナンタンシ","town":"日吉町生畑","town_kana":"ヒヨシチョウキハタ","prefecture_code":26},"0332":{"zip_code":"6290332","prefecture":"京都府","prefecture_kana":"キョウトフ","city":"南丹市","city_kana":"ナンタンシ","town":"日吉町木住","town_kana":"ヒヨシチョウコズミ","prefecture_code":26},"0311":{"zip_code":"6290311","prefecture":"京都府","prefecture_kana":"キョウトフ","city":"南丹市","city_kana":"ナンタンシ","town":"日吉町胡麻","town_kana":"ヒヨシチョウゴマ","prefecture_code":26},"0321":{"zip_code":"6290321","prefecture":"京都府","prefecture_kana":"キョウトフ","city":"南丹市","city_kana":"ナンタンシ","town":"日吉町佐々江","town_kana":"ヒヨシチョウササエ","prefecture_code":26},"0302":{"zip_code":"6290302","prefecture":"京都府","prefecture_kana":"キョウトフ","city":"南丹市","city_kana":"ナンタンシ","town":"日吉町志和賀","town_kana":"ヒヨシチョウシワガ","prefecture_code":26},"0323":{"zip_code":"6290323","prefecture":"京都府","prefecture_kana":"キョウトフ","city":"南丹市","city_kana":"ナンタンシ","town":"日吉町田原","town_kana":"ヒヨシチョウタワラ","prefecture_code":26},"0341":{"zip_code":"6290341","prefecture":"京都府","prefecture_kana":"キョウトフ","city":"南丹市","city_kana":"ナンタンシ","town":"日吉町殿田","town_kana":"ヒヨシチョウトノダ","prefecture_code":26},"0335":{"zip_code":"6290335","prefecture":"京都府","prefecture_kana":"キョウトフ","city":"南丹市","city_kana":"ナンタンシ","town":"日吉町中","town_kana":"ヒヨシチョウナカ","prefecture_code":26},"0333":{"zip_code":"6290333","prefecture":"京都府","prefecture_kana":"キョウトフ","city":"南丹市","city_kana":"ナンタンシ","town":"日吉町中世木","town_kana":"ヒヨシチョウナカセキ","prefecture_code":26},"0313":{"zip_code":"6290313","prefecture":"京都府","prefecture_kana":"キョウトフ","city":"南丹市","city_kana":"ナンタンシ","town":"日吉町畑郷","town_kana":"ヒヨシチョウハタゴウ","prefecture_code":26},"0301":{"zip_code":"6290301","prefecture":"京都府","prefecture_kana":"キョウトフ","city":"南丹市","city_kana":"ナンタンシ","town":"日吉町保野田","town_kana":"ヒヨシチョウホノダ","prefecture_code":26},"0322":{"zip_code":"6290322","prefecture":"京都府","prefecture_kana":"キョウトフ","city":"南丹市","city_kana":"ナンタンシ","town":"日吉町四ツ谷","town_kana":"ヒヨシチョウヨツヤ","prefecture_code":26},"0122":{"zip_code":"6290122","prefecture":"京都府","prefecture_kana":"キョウトフ","city":"南丹市","city_kana":"ナンタンシ","town":"八木町青戸","town_kana":"ヤギチョウアオト","prefecture_code":26},"0112":{"zip_code":"6290112","prefecture":"京都府","prefecture_kana":"キョウトフ","city":"南丹市","city_kana":"ナンタンシ","town":"八木町池上","town_kana":"ヤギチョウイケガミ","prefecture_code":26},"0164":{"zip_code":"6290164","prefecture":"京都府","prefecture_kana":"キョウトフ","city":"南丹市","city_kana":"ナンタンシ","town":"八木町池ノ内","town_kana":"ヤギチョウイケノウチ","prefecture_code":26},"0152":{"zip_code":"6290152","prefecture":"京都府","prefecture_kana":"キョウトフ","city":"南丹市","city_kana":"ナンタンシ","town":"八木町大藪","town_kana":"ヤギチョウオオヤブ","prefecture_code":26},"0113":{"zip_code":"6290113","prefecture":"京都府","prefecture_kana":"キョウトフ","city":"南丹市","city_kana":"ナンタンシ","town":"八木町刑部","town_kana":"ヤギチョウオサベ","prefecture_code":26},"0271":{"zip_code":"6290271","prefecture":"京都府","prefecture_kana":"キョウトフ","city":"南丹市","city_kana":"ナンタンシ","town":"八木町神吉","town_kana":"ヤギチョウカミヨシ","prefecture_code":26},"0133":{"zip_code":"6290133","prefecture":"京都府","prefecture_kana":"キョウトフ","city":"南丹市","city_kana":"ナンタンシ","town":"八木町観音寺","town_kana":"ヤギチョウカンオンジ","prefecture_code":26},"0114":{"zip_code":"6290114","prefecture":"京都府","prefecture_kana":"キョウトフ","city":"南丹市","city_kana":"ナンタンシ","town":"八木町北廣瀬","town_kana":"ヤギチョウキタヒロセ","prefecture_code":26},"0131":{"zip_code":"6290131","prefecture":"京都府","prefecture_kana":"キョウトフ","city":"南丹市","city_kana":"ナンタンシ","town":"八木町北屋賀","town_kana":"ヤギチョウキタヤガ","prefecture_code":26},"0165":{"zip_code":"6290165","prefecture":"京都府","prefecture_kana":"キョウトフ","city":"南丹市","city_kana":"ナンタンシ","town":"八木町木原","town_kana":"ヤギチョウキワラ","prefecture_code":26},"0154":{"zip_code":"6290154","prefecture":"京都府","prefecture_kana":"キョウトフ","city":"南丹市","city_kana":"ナンタンシ","town":"八木町柴山","town_kana":"ヤギチョウシバヤマ","prefecture_code":26},"0163":{"zip_code":"6290163","prefecture":"京都府","prefecture_kana":"キョウトフ","city":"南丹市","city_kana":"ナンタンシ","town":"八木町玉ノ井","town_kana":"ヤギチョウタマノイ","prefecture_code":26},"0162":{"zip_code":"6290162","prefecture":"京都府","prefecture_kana":"キョウトフ","city":"南丹市","city_kana":"ナンタンシ","town":"八木町鳥羽","town_kana":"ヤギチョウトバ","prefecture_code":26},"0134":{"zip_code":"6290134","prefecture":"京都府","prefecture_kana":"キョウトフ","city":"南丹市","city_kana":"ナンタンシ","town":"八木町西田","town_kana":"ヤギチョウニシダ","prefecture_code":26},"0111":{"zip_code":"6290111","prefecture":"京都府","prefecture_kana":"キョウトフ","city":"南丹市","city_kana":"ナンタンシ","town":"八木町野条","town_kana":"ヤギチョウノジョウ","prefecture_code":26},"0104":{"zip_code":"6290104","prefecture":"京都府","prefecture_kana":"キョウトフ","city":"南丹市","city_kana":"ナンタンシ","town":"八木町日置","town_kana":"ヤギチョウヒオキ","prefecture_code":26},"0121":{"zip_code":"6290121","prefecture":"京都府","prefecture_kana":"キョウトフ","city":"南丹市","city_kana":"ナンタンシ","town":"八木町氷所","town_kana":"ヤギチョウヒドコロ","prefecture_code":26},"0101":{"zip_code":"6290101","prefecture":"京都府","prefecture_kana":"キョウトフ","city":"南丹市","city_kana":"ナンタンシ","town":"八木町船枝","town_kana":"ヤギチョウフナエダ","prefecture_code":26},"0161":{"zip_code":"6290161","prefecture":"京都府","prefecture_kana":"キョウトフ","city":"南丹市","city_kana":"ナンタンシ","town":"八木町美里","town_kana":"ヤギチョウミサト","prefecture_code":26},"0151":{"zip_code":"6290151","prefecture":"京都府","prefecture_kana":"キョウトフ","city":"南丹市","city_kana":"ナンタンシ","town":"八木町南廣瀬","town_kana":"ヤギチョウミナミヒロセ","prefecture_code":26},"0166":{"zip_code":"6290166","prefecture":"京都府","prefecture_kana":"キョウトフ","city":"南丹市","city_kana":"ナンタンシ","town":"八木町室河原","town_kana":"ヤギチョウムロガワラ","prefecture_code":26},"0102":{"zip_code":"6290102","prefecture":"京都府","prefecture_kana":"キョウトフ","city":"南丹市","city_kana":"ナンタンシ","town":"八木町室橋","town_kana":"ヤギチョウムロハシ","prefecture_code":26},"0103":{"zip_code":"6290103","prefecture":"京都府","prefecture_kana":"キョウトフ","city":"南丹市","city_kana":"ナンタンシ","town":"八木町諸畑","town_kana":"ヤギチョウモロハタ","prefecture_code":26},"0132":{"zip_code":"6290132","prefecture":"京都府","prefecture_kana":"キョウトフ","city":"南丹市","city_kana":"ナンタンシ","town":"八木町屋賀","town_kana":"ヤギチョウヤガ","prefecture_code":26},"0141":{"zip_code":"6290141","prefecture":"京都府","prefecture_kana":"キョウトフ","city":"南丹市","city_kana":"ナンタンシ","town":"八木町八木","town_kana":"ヤギチョウヤギ","prefecture_code":26},"0153":{"zip_code":"6290153","prefecture":"京都府","prefecture_kana":"キョウトフ","city":"南丹市","city_kana":"ナンタンシ","town":"八木町八木嶋","town_kana":"ヤギチョウヤギノシマ","prefecture_code":26},"0115":{"zip_code":"6290115","prefecture":"京都府","prefecture_kana":"キョウトフ","city":"南丹市","city_kana":"ナンタンシ","town":"八木町山室","town_kana":"ヤギチョウヤマムロ","prefecture_code":26},"1141":{"zip_code":"6291141","prefecture":"京都府","prefecture_kana":"キョウトフ","city":"船井郡京丹波町","city_kana":"フナイグンキョウタンバチョウ","town":"安栖里","town_kana":"アセリ","prefecture_code":26},"1116":{"zip_code":"6291116","prefecture":"京都府","prefecture_kana":"キョウトフ","city":"船井郡京丹波町","city_kana":"フナイグンキョウタンバチョウ","town":"市場","town_kana":"イチバ","prefecture_code":26},"1143":{"zip_code":"6291143","prefecture":"京都府","prefecture_kana":"キョウトフ","city":"船井郡京丹波町","city_kana":"フナイグンキョウタンバチョウ","town":"出野","town_kana":"イデノ","prefecture_code":26},"1142":{"zip_code":"6291142","prefecture":"京都府","prefecture_kana":"キョウトフ","city":"船井郡京丹波町","city_kana":"フナイグンキョウタンバチョウ","town":"稲次","town_kana":"イナツギ","prefecture_code":26},"1117":{"zip_code":"6291117","prefecture":"京都府","prefecture_kana":"キョウトフ","city":"船井郡京丹波町","city_kana":"フナイグンキョウタンバチョウ","town":"大倉","town_kana":"オオクラ","prefecture_code":26},"1111":{"zip_code":"6291111","prefecture":"京都府","prefecture_kana":"キョウトフ","city":"船井郡京丹波町","city_kana":"フナイグンキョウタンバチョウ","town":"大迫","town_kana":"オオサコ","prefecture_code":26},"1145":{"zip_code":"6291145","prefecture":"京都府","prefecture_kana":"キョウトフ","city":"船井郡京丹波町","city_kana":"フナイグンキョウタンバチョウ","town":"大簾","town_kana":"オオミス","prefecture_code":26},"1122":{"zip_code":"6291122","prefecture":"京都府","prefecture_kana":"キョウトフ","city":"船井郡京丹波町","city_kana":"フナイグンキョウタンバチョウ","town":"小畑","town_kana":"オバタ","prefecture_code":26},"1133":{"zip_code":"6291133","prefecture":"京都府","prefecture_kana":"キョウトフ","city":"船井郡京丹波町","city_kana":"フナイグンキョウタンバチョウ","town":"角","town_kana":"カド","prefecture_code":26},"1108":{"zip_code":"6291108","prefecture":"京都府","prefecture_kana":"キョウトフ","city":"船井郡京丹波町","city_kana":"フナイグンキョウタンバチョウ","town":"上粟野","town_kana":"カミアワノ","prefecture_code":26},"1102":{"zip_code":"6291102","prefecture":"京都府","prefecture_kana":"キョウトフ","city":"船井郡京丹波町","city_kana":"フナイグンキョウタンバチョウ","town":"上乙見","town_kana":"カミオトミ","prefecture_code":26},"1135":{"zip_code":"6291135","prefecture":"京都府","prefecture_kana":"キョウトフ","city":"船井郡京丹波町","city_kana":"フナイグンキョウタンバチョウ","town":"才原","town_kana":"サイバラ","prefecture_code":26},"1131":{"zip_code":"6291131","prefecture":"京都府","prefecture_kana":"キョウトフ","city":"船井郡京丹波町","city_kana":"フナイグンキョウタンバチョウ","town":"坂原","town_kana":"サカバラ","prefecture_code":26},"1112":{"zip_code":"6291112","prefecture":"京都府","prefecture_kana":"キョウトフ","city":"船井郡京丹波町","city_kana":"フナイグンキョウタンバチョウ","town":"塩谷","town_kana":"シオタニ","prefecture_code":26},"1104":{"zip_code":"6291104","prefecture":"京都府","prefecture_kana":"キョウトフ","city":"船井郡京丹波町","city_kana":"フナイグンキョウタンバチョウ","town":"篠原","town_kana":"シノハラ","prefecture_code":26},"1105":{"zip_code":"6291105","prefecture":"京都府","prefecture_kana":"キョウトフ","city":"船井郡京丹波町","city_kana":"フナイグンキョウタンバチョウ","town":"下粟野","town_kana":"シモアワノ","prefecture_code":26},"1103":{"zip_code":"6291103","prefecture":"京都府","prefecture_kana":"キョウトフ","city":"船井郡京丹波町","city_kana":"フナイグンキョウタンバチョウ","town":"下乙見","town_kana":"シモオトミ","prefecture_code":26},"1132":{"zip_code":"6291132","prefecture":"京都府","prefecture_kana":"キョウトフ","city":"船井郡京丹波町","city_kana":"フナイグンキョウタンバチョウ","town":"中","town_kana":"ナカ","prefecture_code":26},"1113":{"zip_code":"6291113","prefecture":"京都府","prefecture_kana":"キョウトフ","city":"船井郡京丹波町","city_kana":"フナイグンキョウタンバチョウ","town":"長瀬","town_kana":"ナガセ","prefecture_code":26},"1115":{"zip_code":"6291115","prefecture":"京都府","prefecture_kana":"キョウトフ","city":"船井郡京丹波町","city_kana":"フナイグンキョウタンバチョウ","town":"中山","town_kana":"ナカヤマ","prefecture_code":26},"1107":{"zip_code":"6291107","prefecture":"京都府","prefecture_kana":"キョウトフ","city":"船井郡京丹波町","city_kana":"フナイグンキョウタンバチョウ","town":"西河内","town_kana":"ニシカワウチ","prefecture_code":26},"1134":{"zip_code":"6291134","prefecture":"京都府","prefecture_kana":"キョウトフ","city":"船井郡京丹波町","city_kana":"フナイグンキョウタンバチョウ","town":"広瀬","town_kana":"ヒロセ","prefecture_code":26},"1144":{"zip_code":"6291144","prefecture":"京都府","prefecture_kana":"キョウトフ","city":"船井郡京丹波町","city_kana":"フナイグンキョウタンバチョウ","town":"広野","town_kana":"ヒロノ","prefecture_code":26},"1106":{"zip_code":"6291106","prefecture":"京都府","prefecture_kana":"キョウトフ","city":"船井郡京丹波町","city_kana":"フナイグンキョウタンバチョウ","town":"細谷","town_kana":"ホソタニ","prefecture_code":26},"1101":{"zip_code":"6291101","prefecture":"京都府","prefecture_kana":"キョウトフ","city":"船井郡京丹波町","city_kana":"フナイグンキョウタンバチョウ","town":"仏主","town_kana":"ホドス","prefecture_code":26},"1121":{"zip_code":"6291121","prefecture":"京都府","prefecture_kana":"キョウトフ","city":"船井郡京丹波町","city_kana":"フナイグンキョウタンバチョウ","town":"本庄","town_kana":"ホンジョウ","prefecture_code":26},"1114":{"zip_code":"6291114","prefecture":"京都府","prefecture_kana":"キョウトフ","city":"船井郡京丹波町","city_kana":"フナイグンキョウタンバチョウ","town":"升谷","town_kana":"マスタニ","prefecture_code":26},"2200":{"zip_code":"6292200","prefecture":"京都府","prefecture_kana":"キョウトフ","city":"与謝郡与謝野町","city_kana":"ヨサグンヨサノチョウ","town":"","town_kana":"","prefecture_code":26},"2411":{"zip_code":"6292411","prefecture":"京都府","prefecture_kana":"キョウトフ","city":"与謝郡与謝野町","city_kana":"ヨサグンヨサノチョウ","town":"明石","town_kana":"アケシ","prefecture_code":26},"2413":{"zip_code":"6292413","prefecture":"京都府","prefecture_kana":"キョウトフ","city":"与謝郡与謝野町","city_kana":"ヨサグンヨサノチョウ","town":"温江","town_kana":"アツエ","prefecture_code":26},"2311":{"zip_code":"6292311","prefecture":"京都府","prefecture_kana":"キョウトフ","city":"与謝郡与謝野町","city_kana":"ヨサグンヨサノチョウ","town":"幾地","town_kana":"イクジ","prefecture_code":26},"2303":{"zip_code":"6292303","prefecture":"京都府","prefecture_kana":"キョウトフ","city":"与謝郡与謝野町","city_kana":"ヨサグンヨサノチョウ","town":"石川","town_kana":"イシカワ","prefecture_code":26},"2262":{"zip_code":"6292262","prefecture":"京都府","prefecture_kana":"キョウトフ","city":"与謝郡与謝野町","city_kana":"ヨサグンヨサノチョウ","town":"岩滝","town_kana":"イワタキ","prefecture_code":26},"2314":{"zip_code":"6292314","prefecture":"京都府","prefecture_kana":"キョウトフ","city":"与謝郡与謝野町","city_kana":"ヨサグンヨサノチョウ","town":"岩屋","town_kana":"イワヤ","prefecture_code":26},"2404":{"zip_code":"6292404","prefecture":"京都府","prefecture_kana":"キョウトフ","city":"与謝郡与謝野町","city_kana":"ヨサグンヨサノチョウ","town":"後野","town_kana":"ウシロノ","prefecture_code":26},"2261":{"zip_code":"6292261","prefecture":"京都府","prefecture_kana":"キョウトフ","city":"与謝郡与謝野町","city_kana":"ヨサグンヨサノチョウ","town":"男山","town_kana":"オトコヤマ","prefecture_code":26},"2412":{"zip_code":"6292412","prefecture":"京都府","prefecture_kana":"キョウトフ","city":"与謝郡与謝野町","city_kana":"ヨサグンヨサノチョウ","town":"香河","town_kana":"カゴ","prefecture_code":26},"2421":{"zip_code":"6292421","prefecture":"京都府","prefecture_kana":"キョウトフ","city":"与謝郡与謝野町","city_kana":"ヨサグンヨサノチョウ","town":"金屋","town_kana":"カナヤ","prefecture_code":26},"2301":{"zip_code":"6292301","prefecture":"京都府","prefecture_kana":"キョウトフ","city":"与謝郡与謝野町","city_kana":"ヨサグンヨサノチョウ","town":"上山田","town_kana":"カミヤマダ","prefecture_code":26},"2403":{"zip_code":"6292403","prefecture":"京都府","prefecture_kana":"キョウトフ","city":"与謝郡与謝野町","city_kana":"ヨサグンヨサノチョウ","town":"加悦","town_kana":"カヤ","prefecture_code":26},"2401":{"zip_code":"6292401","prefecture":"京都府","prefecture_kana":"キョウトフ","city":"与謝郡与謝野町","city_kana":"ヨサグンヨサノチョウ","town":"加悦奥","town_kana":"カヤオク","prefecture_code":26},"2402":{"zip_code":"6292402","prefecture":"京都府","prefecture_kana":"キョウトフ","city":"与謝郡与謝野町","city_kana":"ヨサグンヨサノチョウ","town":"算所","town_kana":"サンジョ","prefecture_code":26},"2302":{"zip_code":"6292302","prefecture":"京都府","prefecture_kana":"キョウトフ","city":"与謝郡与謝野町","city_kana":"ヨサグンヨサノチョウ","town":"下山田","town_kana":"シモヤマダ","prefecture_code":26},"2422":{"zip_code":"6292422","prefecture":"京都府","prefecture_kana":"キョウトフ","city":"与謝郡与謝野町","city_kana":"ヨサグンヨサノチョウ","town":"滝","town_kana":"タキ","prefecture_code":26},"2313":{"zip_code":"6292313","prefecture":"京都府","prefecture_kana":"キョウトフ","city":"与謝郡与謝野町","city_kana":"ヨサグンヨサノチョウ","town":"三河内","town_kana":"ミゴウチ","prefecture_code":26},"2263":{"zip_code":"6292263","prefecture":"京都府","prefecture_kana":"キョウトフ","city":"与謝郡与謝野町","city_kana":"ヨサグンヨサノチョウ","town":"弓木","town_kana":"ユミキ","prefecture_code":26},"2423":{"zip_code":"6292423","prefecture":"京都府","prefecture_kana":"キョウトフ","city":"与謝郡与謝野町","city_kana":"ヨサグンヨサノチョウ","town":"与謝","town_kana":"ヨザ","prefecture_code":26},"2312":{"zip_code":"6292312","prefecture":"京都府","prefecture_kana":"キョウトフ","city":"与謝郡与謝野町","city_kana":"ヨサグンヨサノチョウ","town":"四辻","town_kana":"ヨツツジ","prefecture_code":26}}