{"0271":{"zip_code":"6300271","prefecture":"大阪府","prefecture_kana":"オオサカフ","city":"東大阪市","city_kana":"ヒガシオオサカシ","town":"上石切町","town_kana":"カミイシキリチョウ","prefecture_code":27},"0272":{"zip_code":"6300272","prefecture":"大阪府","prefecture_kana":"オオサカフ","city":"東大阪市","city_kana":"ヒガシオオサカシ","town":"山手町","town_kana":"ヤマテチョウ","prefecture_code":27},"0000":{"zip_code":"6300000","prefecture":"奈良県","prefecture_kana":"ナラケン","city":"山辺郡山添村","city_kana":"ヤマベグンヤマゾエムラ","town":"","town_kana":"","prefecture_code":29},"8101":{"zip_code":"6308101","prefecture":"奈良県","prefecture_kana":"ナラケン","city":"奈良市","city_kana":"ナラシ","town":"青山","town_kana":"アオヤマ","prefecture_code":29},"8035":{"zip_code":"6308035","prefecture":"奈良県","prefecture_kana":"ナラケン","city":"奈良市","city_kana":"ナラシ","town":"赤膚町","town_kana":"アカハダチョウ","prefecture_code":29},"8346":{"zip_code":"6308346","prefecture":"奈良県","prefecture_kana":"ナラケン","city":"奈良市","city_kana":"ナラシ","town":"阿字万字町","town_kana":"アゼマメチョウ","prefecture_code":29},"8246":{"zip_code":"6308246","prefecture":"奈良県","prefecture_kana":"ナラケン","city":"奈良市","city_kana":"ナラシ","town":"油阪地方町","town_kana":"アブラサカジカタチョウ","prefecture_code":29},"8247":{"zip_code":"6308247","prefecture":"奈良県","prefecture_kana":"ナラケン","city":"奈良市","city_kana":"ナラシ","town":"油阪町","town_kana":"アブラサカチョウ","prefecture_code":29},"8024":{"zip_code":"6308024","prefecture":"奈良県","prefecture_kana":"ナラケン","city":"奈良市","city_kana":"ナラシ","town":"尼辻中町","town_kana":"アマガツジナカマチ","prefecture_code":29},"8023":{"zip_code":"6308023","prefecture":"奈良県","prefecture_kana":"ナラケン","city":"奈良市","city_kana":"ナラシ","town":"尼辻西町","town_kana":"アマガツジニシマチ","prefecture_code":29},"8022":{"zip_code":"6308022","prefecture":"奈良県","prefecture_kana":"ナラケン","city":"奈良市","city_kana":"ナラシ","town":"尼辻南町","town_kana":"アマガツジミナミマチ","prefecture_code":29},"8025":{"zip_code":"6308025","prefecture":"奈良県","prefecture_kana":"ナラケン","city":"奈良市","city_kana":"ナラシ","town":"尼辻北町","town_kana":"アマガツジキタマチ","prefecture_code":29},"8021":{"zip_code":"6308021","prefecture":"奈良県","prefecture_kana":"ナラケン","city":"奈良市","city_kana":"ナラシ","town":"尼辻町","town_kana":"アマガツジチョウ","prefecture_code":29},"8445":{"zip_code":"6308445","prefecture":"奈良県","prefecture_kana":"ナラケン","city":"奈良市","city_kana":"ナラシ","town":"池田町","town_kana":"イケダチョウ","prefecture_code":29},"8361":{"zip_code":"6308361","prefecture":"奈良県","prefecture_kana":"ナラケン","city":"奈良市","city_kana":"ナラシ","town":"池之町","town_kana":"イケノチョウ","prefecture_code":29},"8317":{"zip_code":"6308317","prefecture":"奈良県","prefecture_kana":"ナラケン","city":"奈良市","city_kana":"ナラシ","town":"井上町","town_kana":"イノウエチョウ","prefecture_code":29},"8444":{"zip_code":"6308444","prefecture":"奈良県","prefecture_kana":"ナラケン","city":"奈良市","city_kana":"ナラシ","town":"今市町","town_kana":"イマイチチョウ","prefecture_code":29},"8207":{"zip_code":"6308207","prefecture":"奈良県","prefecture_kana":"ナラケン","city":"奈良市","city_kana":"ナラシ","town":"今小路町","town_kana":"イマコウジチョウ","prefecture_code":29},"8205":{"zip_code":"6308205","prefecture":"奈良県","prefecture_kana":"ナラケン","city":"奈良市","city_kana":"ナラシ","town":"今在家町","town_kana":"イマザイケチョウ","prefecture_code":29},"8243":{"zip_code":"6308243","prefecture":"奈良県","prefecture_kana":"ナラケン","city":"奈良市","city_kana":"ナラシ","town":"今辻子町","town_kana":"イマヅシチョウ","prefecture_code":29},"8374":{"zip_code":"6308374","prefecture":"奈良県","prefecture_kana":"ナラケン","city":"奈良市","city_kana":"ナラシ","town":"今御門町","town_kana":"イマミカドチョウ","prefecture_code":29},"8338":{"zip_code":"6308338","prefecture":"奈良県","prefecture_kana":"ナラケン","city":"奈良市","city_kana":"ナラシ","town":"陰陽町","town_kana":"インヨウチョウ","prefecture_code":29},"1233":{"zip_code":"6301233","prefecture":"奈良県","prefecture_kana":"ナラケン","city":"奈良市","city_kana":"ナラシ","town":"邑地町","town_kana":"オオジチョウ","prefecture_code":29},"2161":{"zip_code":"6302161","prefecture":"奈良県","prefecture_kana":"ナラケン","city":"奈良市","city_kana":"ナラシ","town":"大野町","town_kana":"オオノチョウ","prefecture_code":29},"1236":{"zip_code":"6301236","prefecture":"奈良県","prefecture_kana":"ナラケン","city":"奈良市","city_kana":"ナラシ","town":"大保町","town_kana":"オオボチョウ","prefecture_code":29},"8115":{"zip_code":"6308115","prefecture":"奈良県","prefecture_kana":"ナラケン","city":"奈良市","city_kana":"ナラシ","town":"大宮町","town_kana":"オオミヤチョウ","prefecture_code":29},"8131":{"zip_code":"6308131","prefecture":"奈良県","prefecture_kana":"ナラケン","city":"奈良市","city_kana":"ナラシ","town":"大森町","town_kana":"オオモリチョウ","prefecture_code":29},"8132":{"zip_code":"6308132","prefecture":"奈良県","prefecture_kana":"ナラケン","city":"奈良市","city_kana":"ナラシ","town":"大森西町","town_kana":"オオモリニシマチ","prefecture_code":29},"1242":{"zip_code":"6301242","prefecture":"奈良県","prefecture_kana":"ナラケン","city":"奈良市","city_kana":"ナラシ","town":"大柳生町","town_kana":"オオヤギュウチョウ","prefecture_code":29},"8233":{"zip_code":"6308233","prefecture":"奈良県","prefecture_kana":"ナラケン","city":"奈良市","city_kana":"ナラシ","town":"小川町","town_kana":"オガワチョウ","prefecture_code":29},"1232":{"zip_code":"6301232","prefecture":"奈良県","prefecture_kana":"ナラケン","city":"奈良市","city_kana":"ナラシ","town":"興ケ原町","town_kana":"オクガハラチョウ","prefecture_code":29},"8235":{"zip_code":"6308235","prefecture":"奈良県","prefecture_kana":"ナラケン","city":"奈良市","city_kana":"ナラシ","town":"奥子守町","town_kana":"オクコモリチョウ","prefecture_code":29},"8256":{"zip_code":"6308256","prefecture":"奈良県","prefecture_kana":"ナラケン","city":"奈良市","city_kana":"ナラシ","town":"奥芝町","town_kana":"オクシバチョウ","prefecture_code":29},"8273":{"zip_code":"6308273","prefecture":"奈良県","prefecture_kana":"ナラケン","city":"奈良市","city_kana":"ナラシ","town":"押上町","town_kana":"オシアゲチョウ","prefecture_code":29},"8294":{"zip_code":"6308294","prefecture":"奈良県","prefecture_kana":"ナラケン","city":"奈良市","city_kana":"ナラシ","town":"押小路町","town_kana":"オシコウジチョウ","prefecture_code":29},"1243":{"zip_code":"6301243","prefecture":"奈良県","prefecture_kana":"ナラケン","city":"奈良市","city_kana":"ナラシ","town":"大平尾町","town_kana":"オビラオチョウ","prefecture_code":29},"8142":{"zip_code":"6308142","prefecture":"奈良県","prefecture_kana":"ナラケン","city":"奈良市","city_kana":"ナラシ","town":"肘塚町","town_kana":"カイノヅカチョウ","prefecture_code":29},"8391":{"zip_code":"6308391","prefecture":"奈良県","prefecture_kana":"ナラケン","city":"奈良市","city_kana":"ナラシ","town":"鵲町","town_kana":"カササギチョウ","prefecture_code":29},"8031":{"zip_code":"6308031","prefecture":"奈良県","prefecture_kana":"ナラケン","city":"奈良市","city_kana":"ナラシ","town":"柏木町","town_kana":"カシワギチョウ","prefecture_code":29},"8212":{"zip_code":"6308212","prefecture":"奈良県","prefecture_kana":"ナラケン","city":"奈良市","city_kana":"ナラシ","town":"春日野町","town_kana":"カスガノチョウ","prefecture_code":29},"8143":{"zip_code":"6308143","prefecture":"奈良県","prefecture_kana":"ナラケン","city":"奈良市","city_kana":"ナラシ","town":"桂木町","town_kana":"カツラギチョウ","prefecture_code":29},"8228":{"zip_code":"6308228","prefecture":"奈良県","prefecture_kana":"ナラケン","city":"奈良市","city_kana":"ナラシ","town":"上三条町","town_kana":"カミサンジョウチョウ","prefecture_code":29},"8454":{"zip_code":"6308454","prefecture":"奈良県","prefecture_kana":"ナラケン","city":"奈良市","city_kana":"ナラシ","town":"杏町","town_kana":"カラモモチョウ","prefecture_code":29},"8202":{"zip_code":"6308202","prefecture":"奈良県","prefecture_kana":"ナラケン","city":"奈良市","city_kana":"ナラシ","town":"川上町","town_kana":"カワカミチョウ","prefecture_code":29},"8293":{"zip_code":"6308293","prefecture":"奈良県","prefecture_kana":"ナラケン","city":"奈良市","city_kana":"ナラシ","town":"川久保町","town_kana":"カワクボチョウ","prefecture_code":29},"8313":{"zip_code":"6308313","prefecture":"奈良県","prefecture_kana":"ナラケン","city":"奈良市","city_kana":"ナラシ","town":"川之上町","town_kana":"カワノカミチョウ","prefecture_code":29},"8314":{"zip_code":"6308314","prefecture":"奈良県","prefecture_kana":"ナラケン","city":"奈良市","city_kana":"ナラシ","town":"川之上突抜町","town_kana":"カワノカミツキヌケチョウ","prefecture_code":29},"8326":{"zip_code":"6308326","prefecture":"奈良県","prefecture_kana":"ナラケン","city":"奈良市","city_kana":"ナラシ","town":"瓦堂町","town_kana":"カワラドウチョウ","prefecture_code":29},"8242":{"zip_code":"6308242","prefecture":"奈良県","prefecture_kana":"ナラケン","city":"奈良市","city_kana":"ナラシ","town":"漢国町","town_kana":"カンゴクチョウ","prefecture_code":29},"8332":{"zip_code":"6308332","prefecture":"奈良県","prefecture_kana":"ナラケン","city":"奈良市","city_kana":"ナラシ","town":"元興寺町","town_kana":"ガンゴウジチョウ","prefecture_code":29},"8221":{"zip_code":"6308221","prefecture":"奈良県","prefecture_kana":"ナラケン","city":"奈良市","city_kana":"ナラシ","town":"元林院町","town_kana":"ガンリインチョウ","prefecture_code":29},"8261":{"zip_code":"6308261","prefecture":"奈良県","prefecture_kana":"ナラケン","city":"奈良市","city_kana":"ナラシ","town":"北市町","town_kana":"キタイチチョウ","prefecture_code":29},"8285":{"zip_code":"6308285","prefecture":"奈良県","prefecture_kana":"ナラケン","city":"奈良市","city_kana":"ナラシ","town":"北魚屋東町","town_kana":"キタウオヤヒガシマチ","prefecture_code":29},"8263":{"zip_code":"6308263","prefecture":"奈良県","prefecture_kana":"ナラケン","city":"奈良市","city_kana":"ナラシ","town":"北魚屋西町","town_kana":"キタウオヤニシマチ","prefecture_code":29},"8297":{"zip_code":"6308297","prefecture":"奈良県","prefecture_kana":"ナラケン","city":"奈良市","city_kana":"ナラシ","town":"北川端町","town_kana":"キタカワバタチョウ","prefecture_code":29},"8322":{"zip_code":"6308322","prefecture":"奈良県","prefecture_kana":"ナラケン","city":"奈良市","city_kana":"ナラシ","town":"北京終町","town_kana":"キタキョウバテチョウ","prefecture_code":29},"8252":{"zip_code":"6308252","prefecture":"奈良県","prefecture_kana":"ナラケン","city":"奈良市","city_kana":"ナラシ","town":"北小路町","town_kana":"キタコウジチョウ","prefecture_code":29},"8011":{"zip_code":"6308011","prefecture":"奈良県","prefecture_kana":"ナラケン","city":"奈良市","city_kana":"ナラシ","town":"北新町","town_kana":"キタシンマチ","prefecture_code":29},"8405":{"zip_code":"6308405","prefecture":"奈良県","prefecture_kana":"ナラケン","city":"奈良市","city_kana":"ナラシ","town":"北椿尾町","town_kana":"キタツバオチョウ","prefecture_code":29},"8442":{"zip_code":"6308442","prefecture":"奈良県","prefecture_kana":"ナラケン","city":"奈良市","city_kana":"ナラシ","town":"北永井町","town_kana":"キタナガイチョウ","prefecture_code":29},"8451":{"zip_code":"6308451","prefecture":"奈良県","prefecture_kana":"ナラケン","city":"奈良市","city_kana":"ナラシ","town":"北之庄町","town_kana":"キタノショウチョウ","prefecture_code":29},"8452":{"zip_code":"6308452","prefecture":"奈良県","prefecture_kana":"ナラケン","city":"奈良市","city_kana":"ナラシ","town":"北之庄西町","town_kana":"キタノショウニシマチ","prefecture_code":29},"1234":{"zip_code":"6301234","prefecture":"奈良県","prefecture_kana":"ナラケン","city":"奈良市","city_kana":"ナラシ","town":"北野山町","town_kana":"キタノヤマチョウ","prefecture_code":29},"8275":{"zip_code":"6308275","prefecture":"奈良県","prefecture_kana":"ナラケン","city":"奈良市","city_kana":"ナラシ","town":"北半田中町","town_kana":"キタハンダナカマチ","prefecture_code":29},"8274":{"zip_code":"6308274","prefecture":"奈良県","prefecture_kana":"ナラケン","city":"奈良市","city_kana":"ナラシ","town":"北半田東町","town_kana":"キタハンダヒガシマチ","prefecture_code":29},"8276":{"zip_code":"6308276","prefecture":"奈良県","prefecture_kana":"ナラケン","city":"奈良市","city_kana":"ナラシ","town":"北半田西町","town_kana":"キタハンダニシマチ","prefecture_code":29},"8262":{"zip_code":"6308262","prefecture":"奈良県","prefecture_kana":"ナラケン","city":"奈良市","city_kana":"ナラシ","town":"北袋町","town_kana":"キタフクロチョウ","prefecture_code":29},"8352":{"zip_code":"6308352","prefecture":"奈良県","prefecture_kana":"ナラケン","city":"奈良市","city_kana":"ナラシ","town":"北風呂町","town_kana":"キタフロチョウ","prefecture_code":29},"8204":{"zip_code":"6308204","prefecture":"奈良県","prefecture_kana":"ナラケン","city":"奈良市","city_kana":"ナラシ","town":"北御門町","town_kana":"キタミカドチョウ","prefecture_code":29},"8232":{"zip_code":"6308232","prefecture":"奈良県","prefecture_kana":"ナラケン","city":"奈良市","city_kana":"ナラシ","town":"北向町","town_kana":"キタムキチョウ","prefecture_code":29},"1113":{"zip_code":"6301113","prefecture":"奈良県","prefecture_kana":"ナラケン","city":"奈良市","city_kana":"ナラシ","town":"北村町","town_kana":"キタムラチョウ","prefecture_code":29},"8364":{"zip_code":"6308364","prefecture":"奈良県","prefecture_kana":"ナラケン","city":"奈良市","city_kana":"ナラシ","town":"北室町","town_kana":"キタムロチョウ","prefecture_code":29},"8306":{"zip_code":"6308306","prefecture":"奈良県","prefecture_kana":"ナラケン","city":"奈良市","city_kana":"ナラシ","town":"紀寺町","town_kana":"キデラチョウ","prefecture_code":29},"8323":{"zip_code":"6308323","prefecture":"奈良県","prefecture_kana":"ナラケン","city":"奈良市","city_kana":"ナラシ","town":"京終地方東側町","town_kana":"キョウバテジカタヒガシガワチョウ","prefecture_code":29},"8324":{"zip_code":"6308324","prefecture":"奈良県","prefecture_kana":"ナラケン","city":"奈良市","city_kana":"ナラシ","town":"京終地方西側町","town_kana":"キョウバテジカタニシガワチョウ","prefecture_code":29},"2172":{"zip_code":"6302172","prefecture":"奈良県","prefecture_kana":"ナラケン","city":"奈良市","city_kana":"ナラシ","town":"沓掛町","town_kana":"クツカケチョウ","prefecture_code":29},"8382":{"zip_code":"6308382","prefecture":"奈良県","prefecture_kana":"ナラケン","city":"奈良市","city_kana":"ナラシ","town":"公納堂町","town_kana":"クノウドウチョウ","prefecture_code":29},"8431":{"zip_code":"6308431","prefecture":"奈良県","prefecture_kana":"ナラケン","city":"奈良市","city_kana":"ナラシ","town":"窪之庄町","town_kana":"クボノショウチョウ","prefecture_code":29},"8136":{"zip_code":"6308136","prefecture":"奈良県","prefecture_kana":"ナラケン","city":"奈良市","city_kana":"ナラシ","town":"恋の窪","town_kana":"コイノクボ","prefecture_code":29},"8137":{"zip_code":"6308137","prefecture":"奈良県","prefecture_kana":"ナラケン","city":"奈良市","city_kana":"ナラシ","town":"恋の窪東町","town_kana":"コイノクボヒガシマチ","prefecture_code":29},"8103":{"zip_code":"6308103","prefecture":"奈良県","prefecture_kana":"ナラケン","city":"奈良市","city_kana":"ナラシ","town":"興善院町","town_kana":"コウゼンインチョウ","prefecture_code":29},"8371":{"zip_code":"6308371","prefecture":"奈良県","prefecture_kana":"ナラケン","city":"奈良市","city_kana":"ナラシ","town":"光明院町","town_kana":"コウミョウインチョウ","prefecture_code":29},"8403":{"zip_code":"6308403","prefecture":"奈良県","prefecture_kana":"ナラケン","city":"奈良市","city_kana":"ナラシ","town":"興隆寺町","town_kana":"コウリュウジチョウ","prefecture_code":29},"8412":{"zip_code":"6308412","prefecture":"奈良県","prefecture_kana":"ナラケン","city":"奈良市","city_kana":"ナラシ","town":"虚空蔵町","town_kana":"コクゾウチョウ","prefecture_code":29},"8348":{"zip_code":"6308348","prefecture":"奈良県","prefecture_kana":"ナラケン","city":"奈良市","city_kana":"ナラシ","town":"小太郎町","town_kana":"コタロウマチ","prefecture_code":29},"8296":{"zip_code":"6308296","prefecture":"奈良県","prefecture_kana":"ナラケン","city":"奈良市","city_kana":"ナラシ","town":"後藤町","town_kana":"ゴトウチョウ","prefecture_code":29},"8441":{"zip_code":"6308441","prefecture":"奈良県","prefecture_kana":"ナラケン","city":"奈良市","city_kana":"ナラシ","town":"神殿町","town_kana":"コドノチョウ","prefecture_code":29},"8226":{"zip_code":"6308226","prefecture":"奈良県","prefecture_kana":"ナラケン","city":"奈良市","city_kana":"ナラシ","town":"小西町","town_kana":"コニシチョウ","prefecture_code":29},"2177":{"zip_code":"6302177","prefecture":"奈良県","prefecture_kana":"ナラケン","city":"奈良市","city_kana":"ナラシ","town":"此瀬町","town_kana":"コノセチョウ","prefecture_code":29},"8033":{"zip_code":"6308033","prefecture":"奈良県","prefecture_kana":"ナラケン","city":"奈良市","city_kana":"ナラシ","town":"五条","town_kana":"ゴジョウ","prefecture_code":29},"8032":{"zip_code":"6308032","prefecture":"奈良県","prefecture_kana":"ナラケン","city":"奈良市","city_kana":"ナラシ","town":"五条町","town_kana":"ゴジョウチョウ","prefecture_code":29},"8036":{"zip_code":"6308036","prefecture":"奈良県","prefecture_kana":"ナラケン","city":"奈良市","city_kana":"ナラシ","town":"五条畑","town_kana":"ゴジョウバタ","prefecture_code":29},"8034":{"zip_code":"6308034","prefecture":"奈良県","prefecture_kana":"ナラケン","city":"奈良市","city_kana":"ナラシ","town":"五条西","town_kana":"ゴジョウニシ","prefecture_code":29},"8453":{"zip_code":"6308453","prefecture":"奈良県","prefecture_kana":"ナラケン","city":"奈良市","city_kana":"ナラシ","town":"西九条町","town_kana":"サイクジョウチョウ","prefecture_code":29},"8255":{"zip_code":"6308255","prefecture":"奈良県","prefecture_kana":"ナラケン","city":"奈良市","city_kana":"ナラシ","town":"阪新屋町","town_kana":"サカノシンヤチョウ","prefecture_code":29},"1241":{"zip_code":"6301241","prefecture":"奈良県","prefecture_kana":"ナラケン","city":"奈良市","city_kana":"ナラシ","town":"阪原町","town_kana":"サカハラチョウ","prefecture_code":29},"1103":{"zip_code":"6301103","prefecture":"奈良県","prefecture_kana":"ナラケン","city":"奈良市","city_kana":"ナラシ","town":"狭川東町","town_kana":"サガワヒガシマチ","prefecture_code":29},"1104":{"zip_code":"6301104","prefecture":"奈良県","prefecture_kana":"ナラケン","city":"奈良市","city_kana":"ナラシ","town":"狭川両町","town_kana":"サガワリョウチョウ","prefecture_code":29},"8003":{"zip_code":"6308003","prefecture":"奈良県","prefecture_kana":"ナラケン","city":"奈良市","city_kana":"ナラシ","town":"佐紀町","town_kana":"サキチョウ","prefecture_code":29},"8105":{"zip_code":"6308105","prefecture":"奈良県","prefecture_kana":"ナラケン","city":"奈良市","city_kana":"ナラシ","town":"佐保台","town_kana":"サホダイ","prefecture_code":29},"8106":{"zip_code":"6308106","prefecture":"奈良県","prefecture_kana":"ナラケン","city":"奈良市","city_kana":"ナラシ","town":"佐保台西町","town_kana":"サホダイニシマチ","prefecture_code":29},"8013":{"zip_code":"6308013","prefecture":"奈良県","prefecture_kana":"ナラケン","city":"奈良市","city_kana":"ナラシ","town":"三条大路","town_kana":"サンジョウオオジ","prefecture_code":29},"8123":{"zip_code":"6308123","prefecture":"奈良県","prefecture_kana":"ナラケン","city":"奈良市","city_kana":"ナラシ","town":"三条大宮町","town_kana":"サンジョウオオミヤチョウ","prefecture_code":29},"8125":{"zip_code":"6308125","prefecture":"奈良県","prefecture_kana":"ナラケン","city":"奈良市","city_kana":"ナラシ","town":"三条川西町","town_kana":"サンジョウカワニシチョウ","prefecture_code":29},"8126":{"zip_code":"6308126","prefecture":"奈良県","prefecture_kana":"ナラケン","city":"奈良市","city_kana":"ナラシ","town":"三条栄町","town_kana":"サンジョウサカエマチ","prefecture_code":29},"8127":{"zip_code":"6308127","prefecture":"奈良県","prefecture_kana":"ナラケン","city":"奈良市","city_kana":"ナラシ","town":"三条添川町","town_kana":"サンジョウソエガワチョウ","prefecture_code":29},"8124":{"zip_code":"6308124","prefecture":"奈良県","prefecture_kana":"ナラケン","city":"奈良市","city_kana":"ナラシ","town":"三条桧町","town_kana":"サンジョウヒノキマチ","prefecture_code":29},"8122":{"zip_code":"6308122","prefecture":"奈良県","prefecture_kana":"ナラケン","city":"奈良市","city_kana":"ナラシ","town":"三条本町","town_kana":"サンジョウホンマチ","prefecture_code":29},"8121":{"zip_code":"6308121","prefecture":"奈良県","prefecture_kana":"ナラケン","city":"奈良市","city_kana":"ナラシ","town":"三条宮前町","town_kana":"サンジョウミヤマエチョウ","prefecture_code":29},"8244":{"zip_code":"6308244","prefecture":"奈良県","prefecture_kana":"ナラケン","city":"奈良市","city_kana":"ナラシ","town":"三条町","town_kana":"サンジョウチョウ","prefecture_code":29},"8014":{"zip_code":"6308014","prefecture":"奈良県","prefecture_kana":"ナラケン","city":"奈良市","city_kana":"ナラシ","town":"四条大路","town_kana":"シジョウオオジ","prefecture_code":29},"8015":{"zip_code":"6308015","prefecture":"奈良県","prefecture_kana":"ナラケン","city":"奈良市","city_kana":"ナラシ","town":"四条大路南町","town_kana":"シジョウオオジミナミマチ","prefecture_code":29},"8053":{"zip_code":"6308053","prefecture":"奈良県","prefecture_kana":"ナラケン","city":"奈良市","city_kana":"ナラシ","town":"七条","town_kana":"シチジョウ","prefecture_code":29},"8051":{"zip_code":"6308051","prefecture":"奈良県","prefecture_kana":"ナラケン","city":"奈良市","city_kana":"ナラシ","town":"七条町","town_kana":"シチジョウチョウ","prefecture_code":29},"8052":{"zip_code":"6308052","prefecture":"奈良県","prefecture_kana":"ナラケン","city":"奈良市","city_kana":"ナラシ","town":"七条東町","town_kana":"シチジョウヒガシマチ","prefecture_code":29},"8054":{"zip_code":"6308054","prefecture":"奈良県","prefecture_kana":"ナラケン","city":"奈良市","city_kana":"ナラシ","town":"七条西町","town_kana":"シチジョウニシマチ","prefecture_code":29},"8385":{"zip_code":"6308385","prefecture":"奈良県","prefecture_kana":"ナラケン","city":"奈良市","city_kana":"ナラシ","town":"芝突抜町","town_kana":"シバツキヌケチョウ","prefecture_code":29},"8114":{"zip_code":"6308114","prefecture":"奈良県","prefecture_kana":"ナラケン","city":"奈良市","city_kana":"ナラシ","town":"芝辻町","town_kana":"シバツジチョウ","prefecture_code":29},"8384":{"zip_code":"6308384","prefecture":"奈良県","prefecture_kana":"ナラケン","city":"奈良市","city_kana":"ナラシ","town":"芝新屋町","town_kana":"シバノシンヤチョウ","prefecture_code":29},"8433":{"zip_code":"6308433","prefecture":"奈良県","prefecture_kana":"ナラケン","city":"奈良市","city_kana":"ナラシ","town":"柴屋町","town_kana":"シバヤチョウ","prefecture_code":29},"1102":{"zip_code":"6301102","prefecture":"奈良県","prefecture_kana":"ナラケン","city":"奈良市","city_kana":"ナラシ","town":"下狭川町","town_kana":"シモサガワチョウ","prefecture_code":29},"8236":{"zip_code":"6308236","prefecture":"奈良県","prefecture_kana":"ナラケン","city":"奈良市","city_kana":"ナラシ","town":"下三条町","town_kana":"シモサンジョウチョウ","prefecture_code":29},"8365":{"zip_code":"6308365","prefecture":"奈良県","prefecture_kana":"ナラケン","city":"奈良市","city_kana":"ナラシ","town":"下御門町","town_kana":"シモミカドチョウ","prefecture_code":29},"8265":{"zip_code":"6308265","prefecture":"奈良県","prefecture_kana":"ナラケン","city":"奈良市","city_kana":"ナラシ","town":"宿院町","town_kana":"シュクインチョウ","prefecture_code":29},"8363":{"zip_code":"6308363","prefecture":"奈良県","prefecture_kana":"ナラケン","city":"奈良市","city_kana":"ナラシ","town":"勝南院町","town_kana":"ショウナミチョウ","prefecture_code":29},"8254":{"zip_code":"6308254","prefecture":"奈良県","prefecture_kana":"ナラケン","city":"奈良市","city_kana":"ナラシ","town":"菖蒲池町","town_kana":"ショウブイケチョウ","prefecture_code":29},"8312":{"zip_code":"6308312","prefecture":"奈良県","prefecture_kana":"ナラケン","city":"奈良市","city_kana":"ナラシ","town":"十輪院町","town_kana":"ジュウリインチョウ","prefecture_code":29},"8311":{"zip_code":"6308311","prefecture":"奈良県","prefecture_kana":"ナラケン","city":"奈良市","city_kana":"ナラシ","town":"十輪院畑町","town_kana":"ジュウリインハタチョウ","prefecture_code":29},"8208":{"zip_code":"6308208","prefecture":"奈良県","prefecture_kana":"ナラケン","city":"奈良市","city_kana":"ナラシ","town":"水門町","town_kana":"スイモンチョウ","prefecture_code":29},"1111":{"zip_code":"6301111","prefecture":"奈良県","prefecture_kana":"ナラケン","city":"奈良市","city_kana":"ナラシ","town":"須川町","town_kana":"スガワチョウ","prefecture_code":29},"2178":{"zip_code":"6302178","prefecture":"奈良県","prefecture_kana":"ナラケン","city":"奈良市","city_kana":"ナラシ","town":"須山町","town_kana":"スヤマチョウ","prefecture_code":29},"8357":{"zip_code":"6308357","prefecture":"奈良県","prefecture_kana":"ナラケン","city":"奈良市","city_kana":"ナラシ","town":"杉ケ町","town_kana":"スルガマチ","prefecture_code":29},"2171":{"zip_code":"6302171","prefecture":"奈良県","prefecture_kana":"ナラケン","city":"奈良市","city_kana":"ナラシ","town":"誓多林町","town_kana":"セタリンチョウ","prefecture_code":29},"8211":{"zip_code":"6308211","prefecture":"奈良県","prefecture_kana":"ナラケン","city":"奈良市","city_kana":"ナラシ","town":"雑司町","town_kana":"ゾウシチョウ","prefecture_code":29},"1121":{"zip_code":"6301121","prefecture":"奈良県","prefecture_kana":"ナラケン","city":"奈良市","city_kana":"ナラシ","town":"園田町","town_kana":"ソノダチョウ","prefecture_code":29},"2152":{"zip_code":"6302152","prefecture":"奈良県","prefecture_kana":"ナラケン","city":"奈良市","city_kana":"ナラシ","town":"杣ノ川町","town_kana":"ソマノカワチョウ","prefecture_code":29},"8133":{"zip_code":"6308133","prefecture":"奈良県","prefecture_kana":"ナラケン","city":"奈良市","city_kana":"ナラシ","town":"大安寺","town_kana":"ダイアンジ","prefecture_code":29},"8135":{"zip_code":"6308135","prefecture":"奈良県","prefecture_kana":"ナラケン","city":"奈良市","city_kana":"ナラシ","town":"大安寺西","town_kana":"ダイアンジニシ","prefecture_code":29},"8134":{"zip_code":"6308134","prefecture":"奈良県","prefecture_kana":"ナラケン","city":"奈良市","city_kana":"ナラシ","town":"大安寺町","town_kana":"ダイアンジチョウ","prefecture_code":29},"1245":{"zip_code":"6301245","prefecture":"奈良県","prefecture_kana":"ナラケン","city":"奈良市","city_kana":"ナラシ","town":"大慈仙町","town_kana":"ダイジセンチョウ","prefecture_code":29},"8301":{"zip_code":"6308301","prefecture":"奈良県","prefecture_kana":"ナラケン","city":"奈良市","city_kana":"ナラシ","town":"高畑町","town_kana":"タカバタケチョウ","prefecture_code":29},"8411":{"zip_code":"6308411","prefecture":"奈良県","prefecture_kana":"ナラケン","city":"奈良市","city_kana":"ナラシ","town":"高樋町","town_kana":"タカヒチョウ","prefecture_code":29},"8238":{"zip_code":"6308238","prefecture":"奈良県","prefecture_kana":"ナラケン","city":"奈良市","city_kana":"ナラシ","town":"高天市町","town_kana":"タカマイチチョウ","prefecture_code":29},"8241":{"zip_code":"6308241","prefecture":"奈良県","prefecture_kana":"ナラケン","city":"奈良市","city_kana":"ナラシ","town":"高天町","town_kana":"タカマチョウ","prefecture_code":29},"8336":{"zip_code":"6308336","prefecture":"奈良県","prefecture_kana":"ナラケン","city":"奈良市","city_kana":"ナラシ","town":"高御門町","town_kana":"タカミカドチョウ","prefecture_code":29},"8432":{"zip_code":"6308432","prefecture":"奈良県","prefecture_kana":"ナラケン","city":"奈良市","city_kana":"ナラシ","town":"田中町","town_kana":"タナカチョウ","prefecture_code":29},"8112":{"zip_code":"6308112","prefecture":"奈良県","prefecture_kana":"ナラケン","city":"奈良市","city_kana":"ナラシ","town":"多門町","town_kana":"タモンチョウ","prefecture_code":29},"8218":{"zip_code":"6308218","prefecture":"奈良県","prefecture_kana":"ナラケン","city":"奈良市","city_kana":"ナラシ","town":"樽井町","town_kana":"タルイチョウ","prefecture_code":29},"2167":{"zip_code":"6302167","prefecture":"奈良県","prefecture_kana":"ナラケン","city":"奈良市","city_kana":"ナラシ","town":"田原春日野町","town_kana":"タワラカスガノチョウ","prefecture_code":29},"8392":{"zip_code":"6308392","prefecture":"奈良県","prefecture_kana":"ナラケン","city":"奈良市","city_kana":"ナラシ","town":"中院町","town_kana":"チュウインチョウ","prefecture_code":29},"2301":{"zip_code":"6302301","prefecture":"奈良県","prefecture_kana":"ナラケン","city":"奈良市","city_kana":"ナラシ","town":"月ケ瀬石打","town_kana":"ツキガセイシウチ","prefecture_code":29},"2302":{"zip_code":"6302302","prefecture":"奈良県","prefecture_kana":"ナラケン","city":"奈良市","city_kana":"ナラシ","town":"月ケ瀬尾山","town_kana":"ツキガセオヤマ","prefecture_code":29},"2304":{"zip_code":"6302304","prefecture":"奈良県","prefecture_kana":"ナラケン","city":"奈良市","city_kana":"ナラシ","town":"月ケ瀬嵩","town_kana":"ツキガセダケ","prefecture_code":29},"2305":{"zip_code":"6302305","prefecture":"奈良県","prefecture_kana":"ナラケン","city":"奈良市","city_kana":"ナラシ","town":"月ケ瀬月瀬","town_kana":"ツキガセツキセ","prefecture_code":29},"2303":{"zip_code":"6302303","prefecture":"奈良県","prefecture_kana":"ナラケン","city":"奈良市","city_kana":"ナラシ","town":"月ケ瀬長引","town_kana":"ツキガセナガヒキ","prefecture_code":29},"2306":{"zip_code":"6302306","prefecture":"奈良県","prefecture_kana":"ナラケン","city":"奈良市","city_kana":"ナラシ","town":"月ケ瀬桃香野","town_kana":"ツキガセモモガノ","prefecture_code":29},"8316":{"zip_code":"6308316","prefecture":"奈良県","prefecture_kana":"ナラケン","city":"奈良市","city_kana":"ナラシ","town":"築地之内町","town_kana":"ツジノウチチョウ","prefecture_code":29},"8223":{"zip_code":"6308223","prefecture":"奈良県","prefecture_kana":"ナラケン","city":"奈良市","city_kana":"ナラシ","town":"角振新屋町","town_kana":"ツノフリシンヤチョウ","prefecture_code":29},"8224":{"zip_code":"6308224","prefecture":"奈良県","prefecture_kana":"ナラケン","city":"奈良市","city_kana":"ナラシ","town":"角振町","town_kana":"ツノフリチョウ","prefecture_code":29},"8343":{"zip_code":"6308343","prefecture":"奈良県","prefecture_kana":"ナラケン","city":"奈良市","city_kana":"ナラシ","town":"椿井町","town_kana":"ツバイチョウ","prefecture_code":29},"8393":{"zip_code":"6308393","prefecture":"奈良県","prefecture_kana":"ナラケン","city":"奈良市","city_kana":"ナラシ","town":"鶴福院町","town_kana":"ツルフクインチョウ","prefecture_code":29},"8206":{"zip_code":"6308206","prefecture":"奈良県","prefecture_kana":"ナラケン","city":"奈良市","city_kana":"ナラシ","town":"手貝町","town_kana":"テガイチョウ","prefecture_code":29},"8423":{"zip_code":"6308423","prefecture":"奈良県","prefecture_kana":"ナラケン","city":"奈良市","city_kana":"ナラシ","town":"出屋敷町","town_kana":"デヤシキチョウ","prefecture_code":29},"8234":{"zip_code":"6308234","prefecture":"奈良県","prefecture_kana":"ナラケン","city":"奈良市","city_kana":"ナラシ","town":"寺町","town_kana":"テラマチ","prefecture_code":29},"8144":{"zip_code":"6308144","prefecture":"奈良県","prefecture_kana":"ナラケン","city":"奈良市","city_kana":"ナラシ","town":"東九条町","town_kana":"トウクジョウチョウ","prefecture_code":29},"8237":{"zip_code":"6308237","prefecture":"奈良県","prefecture_kana":"ナラケン","city":"奈良市","city_kana":"ナラシ","town":"中筋町","town_kana":"ナカスジチョウ","prefecture_code":29},"8315":{"zip_code":"6308315","prefecture":"奈良県","prefecture_kana":"ナラケン","city":"奈良市","city_kana":"ナラシ","town":"中辻町","town_kana":"ナカツジチョウ","prefecture_code":29},"2162":{"zip_code":"6302162","prefecture":"奈良県","prefecture_kana":"ナラケン","city":"奈良市","city_kana":"ナラシ","town":"中貫町","town_kana":"ナカヅラチョウ","prefecture_code":29},"1124":{"zip_code":"6301124","prefecture":"奈良県","prefecture_kana":"ナラケン","city":"奈良市","city_kana":"ナラシ","town":"中ノ川町","town_kana":"ナカノカワチョウ","prefecture_code":29},"8201":{"zip_code":"6308201","prefecture":"奈良県","prefecture_kana":"ナラケン","city":"奈良市","city_kana":"ナラシ","town":"中ノ川町","town_kana":"ナカノカワチョウ","prefecture_code":29},"2163":{"zip_code":"6302163","prefecture":"奈良県","prefecture_kana":"ナラケン","city":"奈良市","city_kana":"ナラシ","town":"中之庄町","town_kana":"ナカノショウチョウ","prefecture_code":29},"8333":{"zip_code":"6308333","prefecture":"奈良県","prefecture_kana":"ナラケン","city":"奈良市","city_kana":"ナラシ","town":"中新屋町","town_kana":"ナカノシンヤチョウ","prefecture_code":29},"8401":{"zip_code":"6308401","prefecture":"奈良県","prefecture_kana":"ナラケン","city":"奈良市","city_kana":"ナラシ","town":"中畑町","town_kana":"ナカハタチョウ","prefecture_code":29},"8037":{"zip_code":"6308037","prefecture":"奈良県","prefecture_kana":"ナラケン","city":"奈良市","city_kana":"ナラシ","town":"５４６３、５４７０、５４７２、５４７５、５４８２〜５５２９）","town_kana":"5463、5470、5472、5475、5482-5529)","prefecture_code":29},"8292":{"zip_code":"6308292","prefecture":"奈良県","prefecture_kana":"ナラケン","city":"奈良市","city_kana":"ナラシ","town":"中御門町","town_kana":"ナカミカドチョウ","prefecture_code":29},"2165":{"zip_code":"6302165","prefecture":"奈良県","prefecture_kana":"ナラケン","city":"奈良市","city_kana":"ナラシ","town":"長谷町","town_kana":"ナガタニチョウ","prefecture_code":29},"8253":{"zip_code":"6308253","prefecture":"奈良県","prefecture_kana":"ナラケン","city":"奈良市","city_kana":"ナラシ","town":"内侍原町","town_kana":"ナシハラチョウ","prefecture_code":29},"8264":{"zip_code":"6308264","prefecture":"奈良県","prefecture_kana":"ナラケン","city":"奈良市","city_kana":"ナラシ","town":"鍋屋町","town_kana":"ナベヤチョウ","prefecture_code":29},"8107":{"zip_code":"6308107","prefecture":"奈良県","prefecture_kana":"ナラケン","city":"奈良市","city_kana":"ナラシ","town":"奈保町","town_kana":"ナホチョウ","prefecture_code":29},"8104":{"zip_code":"6308104","prefecture":"奈良県","prefecture_kana":"ナラケン","city":"奈良市","city_kana":"ナラシ","town":"奈良阪町","town_kana":"ナラザカチョウ","prefecture_code":29},"8335":{"zip_code":"6308335","prefecture":"奈良県","prefecture_kana":"ナラケン","city":"奈良市","city_kana":"ナラシ","town":"鳴川町","town_kana":"ナルカワチョウ","prefecture_code":29},"8287":{"zip_code":"6308287","prefecture":"奈良県","prefecture_kana":"ナラケン","city":"奈良市","city_kana":"ナラシ","town":"西包永町","town_kana":"ニシカネナガチョウ","prefecture_code":29},"8325":{"zip_code":"6308325","prefecture":"奈良県","prefecture_kana":"ナラケン","city":"奈良市","city_kana":"ナラシ","town":"西木辻町","town_kana":"ニシキツジチョウ","prefecture_code":29},"8307":{"zip_code":"6308307","prefecture":"奈良県","prefecture_kana":"ナラケン","city":"奈良市","city_kana":"ナラシ","town":"西紀寺町","town_kana":"ニシキデラチョウ","prefecture_code":29},"1105":{"zip_code":"6301105","prefecture":"奈良県","prefecture_kana":"ナラケン","city":"奈良市","city_kana":"ナラシ","town":"西狭川町","town_kana":"ニシサガワチョウ","prefecture_code":29},"8291":{"zip_code":"6308291","prefecture":"奈良県","prefecture_kana":"ナラケン","city":"奈良市","city_kana":"ナラシ","town":"西笹鉾町","town_kana":"ニシササボコチョウ","prefecture_code":29},"8251":{"zip_code":"6308251","prefecture":"奈良県","prefecture_kana":"ナラケン","city":"奈良市","city_kana":"ナラシ","town":"西新在家号所町","town_kana":"ニシシンザイケゴウショチョウ","prefecture_code":29},"8248":{"zip_code":"6308248","prefecture":"奈良県","prefecture_kana":"ナラケン","city":"奈良市","city_kana":"ナラシ","town":"西新在家町","town_kana":"ニシシンザイケチョウ","prefecture_code":29},"8345":{"zip_code":"6308345","prefecture":"奈良県","prefecture_kana":"ナラケン","city":"奈良市","city_kana":"ナラシ","town":"西城戸町","town_kana":"ニシジョウドチョウ","prefecture_code":29},"8372":{"zip_code":"6308372","prefecture":"奈良県","prefecture_kana":"ナラケン","city":"奈良市","city_kana":"ナラシ","town":"西寺林町","town_kana":"ニシテラバヤシチョウ","prefecture_code":29},"8042":{"zip_code":"6308042","prefecture":"奈良県","prefecture_kana":"ナラケン","city":"奈良市","city_kana":"ナラシ","town":"西ノ京町","town_kana":"ニシノキョウチョウ","prefecture_code":29},"8245":{"zip_code":"6308245","prefecture":"奈良県","prefecture_kana":"ナラケン","city":"奈良市","city_kana":"ナラシ","town":"西之阪町","town_kana":"ニシノサカチョウ","prefecture_code":29},"8334":{"zip_code":"6308334","prefecture":"奈良県","prefecture_kana":"ナラケン","city":"奈良市","city_kana":"ナラシ","town":"西新屋町","town_kana":"ニシノシンヤチョウ","prefecture_code":29},"8225":{"zip_code":"6308225","prefecture":"奈良県","prefecture_kana":"ナラケン","city":"奈良市","city_kana":"ナラシ","town":"西御門町","town_kana":"ニシミカドチョウ","prefecture_code":29},"8012":{"zip_code":"6308012","prefecture":"奈良県","prefecture_kana":"ナラケン","city":"奈良市","city_kana":"ナラシ","town":"二条大路南","town_kana":"ニジョウオオジミナミ","prefecture_code":29},"8002":{"zip_code":"6308002","prefecture":"奈良県","prefecture_kana":"ナラケン","city":"奈良市","city_kana":"ナラシ","town":"二条町","town_kana":"ニジョウチョウ","prefecture_code":29},"1235":{"zip_code":"6301235","prefecture":"奈良県","prefecture_kana":"ナラケン","city":"奈良市","city_kana":"ナラシ","town":"丹生町","town_kana":"ニュウチョウ","prefecture_code":29},"1244":{"zip_code":"6301244","prefecture":"奈良県","prefecture_kana":"ナラケン","city":"奈良市","city_kana":"ナラシ","town":"忍辱山町","town_kana":"ニンニクセンチョウ","prefecture_code":29},"8318":{"zip_code":"6308318","prefecture":"奈良県","prefecture_kana":"ナラケン","city":"奈良市","city_kana":"ナラシ","town":"納院町","town_kana":"ノウインチョウ","prefecture_code":29},"8213":{"zip_code":"6308213","prefecture":"奈良県","prefecture_kana":"ナラケン","city":"奈良市","city_kana":"ナラシ","town":"登大路町","town_kana":"ノボリオオジチョウ","prefecture_code":29},"8217":{"zip_code":"6308217","prefecture":"奈良県","prefecture_kana":"ナラケン","city":"奈良市","city_kana":"ナラシ","town":"橋本町","town_kana":"ハシモトチョウ","prefecture_code":29},"8257":{"zip_code":"6308257","prefecture":"奈良県","prefecture_kana":"ナラケン","city":"奈良市","city_kana":"ナラシ","town":"畑中町","town_kana":"ハタケナカチョウ","prefecture_code":29},"8145":{"zip_code":"6308145","prefecture":"奈良県","prefecture_kana":"ナラケン","city":"奈良市","city_kana":"ナラシ","town":"八条","town_kana":"ハチジョウ","prefecture_code":29},"8146":{"zip_code":"6308146","prefecture":"奈良県","prefecture_kana":"ナラケン","city":"奈良市","city_kana":"ナラシ","town":"八条町","town_kana":"ハチジョウチョウ","prefecture_code":29},"8414":{"zip_code":"6308414","prefecture":"奈良県","prefecture_kana":"ナラケン","city":"奈良市","city_kana":"ナラシ","town":"鉢伏町","town_kana":"ハチブセチョウ","prefecture_code":29},"8266":{"zip_code":"6308266","prefecture":"奈良県","prefecture_kana":"ナラケン","city":"奈良市","city_kana":"ナラシ","town":"花芝町","town_kana":"ハナシバチョウ","prefecture_code":29},"8328":{"zip_code":"6308328","prefecture":"奈良県","prefecture_kana":"ナラケン","city":"奈良市","city_kana":"ナラシ","town":"花園町","town_kana":"ハナゾノチョウ","prefecture_code":29},"8354":{"zip_code":"6308354","prefecture":"奈良県","prefecture_kana":"ナラケン","city":"奈良市","city_kana":"ナラシ","town":"馬場町","town_kana":"ババチョウ","prefecture_code":29},"8227":{"zip_code":"6308227","prefecture":"奈良県","prefecture_kana":"ナラケン","city":"奈良市","city_kana":"ナラシ","town":"林小路町","town_kana":"ハヤシコウジチョウ","prefecture_code":29},"8295":{"zip_code":"6308295","prefecture":"奈良県","prefecture_kana":"ナラケン","city":"奈良市","city_kana":"ナラシ","town":"半田突抜町","town_kana":"ハンダツキヌケチョウ","prefecture_code":29},"8111":{"zip_code":"6308111","prefecture":"奈良県","prefecture_kana":"ナラケン","city":"奈良市","city_kana":"ナラシ","town":"半田開町","town_kana":"ハンダビラキチョウ","prefecture_code":29},"8284":{"zip_code":"6308284","prefecture":"奈良県","prefecture_kana":"ナラケン","city":"奈良市","city_kana":"ナラシ","town":"半田横町","town_kana":"ハンダヨコマチ","prefecture_code":29},"8102":{"zip_code":"6308102","prefecture":"奈良県","prefecture_kana":"ナラケン","city":"奈良市","city_kana":"ナラシ","town":"般若寺町","town_kana":"ハンニャジチョウ","prefecture_code":29},"2173":{"zip_code":"6302173","prefecture":"奈良県","prefecture_kana":"ナラケン","city":"奈良市","city_kana":"ナラシ","town":"日笠町","town_kana":"ヒガサチョウ","prefecture_code":29},"8286":{"zip_code":"6308286","prefecture":"奈良県","prefecture_kana":"ナラケン","city":"奈良市","city_kana":"ナラシ","town":"東包永町","town_kana":"ヒガシカネナガチョウ","prefecture_code":29},"8327":{"zip_code":"6308327","prefecture":"奈良県","prefecture_kana":"ナラケン","city":"奈良市","city_kana":"ナラシ","town":"東木辻町","town_kana":"ヒガシキツジチョウ","prefecture_code":29},"8305":{"zip_code":"6308305","prefecture":"奈良県","prefecture_kana":"ナラケン","city":"奈良市","city_kana":"ナラシ","town":"東紀寺町","town_kana":"ヒガシキデラチョウ","prefecture_code":29},"8288":{"zip_code":"6308288","prefecture":"奈良県","prefecture_kana":"ナラケン","city":"奈良市","city_kana":"ナラシ","town":"東笹鉾町","town_kana":"ヒガシササボコチョウ","prefecture_code":29},"8272":{"zip_code":"6308272","prefecture":"奈良県","prefecture_kana":"ナラケン","city":"奈良市","city_kana":"ナラシ","town":"東新在家町","town_kana":"ヒガシシンザイケチョウ","prefecture_code":29},"8344":{"zip_code":"6308344","prefecture":"奈良県","prefecture_kana":"ナラケン","city":"奈良市","city_kana":"ナラシ","town":"東城戸町","town_kana":"ヒガシジョウドチョウ","prefecture_code":29},"8362":{"zip_code":"6308362","prefecture":"奈良県","prefecture_kana":"ナラケン","city":"奈良市","city_kana":"ナラシ","town":"東寺林町","town_kana":"ヒガシテラバヤシチョウ","prefecture_code":29},"1125":{"zip_code":"6301125","prefecture":"奈良県","prefecture_kana":"ナラケン","city":"奈良市","city_kana":"ナラシ","town":"東鳴川町","town_kana":"ヒガシナルカワチョウ","prefecture_code":29},"8203":{"zip_code":"6308203","prefecture":"奈良県","prefecture_kana":"ナラケン","city":"奈良市","city_kana":"ナラシ","town":"東之阪町","town_kana":"ヒガシノサカチョウ","prefecture_code":29},"8215":{"zip_code":"6308215","prefecture":"奈良県","prefecture_kana":"ナラケン","city":"奈良市","city_kana":"ナラシ","town":"東向中町","town_kana":"ヒガシムキナカマチ","prefecture_code":29},"8216":{"zip_code":"6308216","prefecture":"奈良県","prefecture_kana":"ナラケン","city":"奈良市","city_kana":"ナラシ","town":"東向南町","town_kana":"ヒガシムキミナミマチ","prefecture_code":29},"8214":{"zip_code":"6308214","prefecture":"奈良県","prefecture_kana":"ナラケン","city":"奈良市","city_kana":"ナラシ","town":"東向北町","town_kana":"ヒガシムキキタマチ","prefecture_code":29},"8383":{"zip_code":"6308383","prefecture":"奈良県","prefecture_kana":"ナラケン","city":"奈良市","city_kana":"ナラシ","town":"毘沙門町","town_kana":"ビシャモンチョウ","prefecture_code":29},"8302":{"zip_code":"6308302","prefecture":"奈良県","prefecture_kana":"ナラケン","city":"奈良市","city_kana":"ナラシ","town":"白毫寺町","town_kana":"ビャクゴウジチョウ","prefecture_code":29},"1122":{"zip_code":"6301122","prefecture":"奈良県","prefecture_kana":"ナラケン","city":"奈良市","city_kana":"ナラシ","town":"平清水町","town_kana":"ヒラシミズチョウ","prefecture_code":29},"1101":{"zip_code":"6301101","prefecture":"奈良県","prefecture_kana":"ナラケン","city":"奈良市","city_kana":"ナラシ","town":"広岡町","town_kana":"ヒロオカチョウ","prefecture_code":29},"8381":{"zip_code":"6308381","prefecture":"奈良県","prefecture_kana":"ナラケン","city":"奈良市","city_kana":"ナラシ","town":"福智院町","town_kana":"フクチインチョウ","prefecture_code":29},"8394":{"zip_code":"6308394","prefecture":"奈良県","prefecture_kana":"ナラケン","city":"奈良市","city_kana":"ナラシ","town":"不審ヶ辻子町","town_kana":"フシガヅシチョウ","prefecture_code":29},"8421":{"zip_code":"6308421","prefecture":"奈良県","prefecture_kana":"ナラケン","city":"奈良市","city_kana":"ナラシ","town":"藤原町","town_kana":"フジワラチョウ","prefecture_code":29},"8258":{"zip_code":"6308258","prefecture":"奈良県","prefecture_kana":"ナラケン","city":"奈良市","city_kana":"ナラシ","town":"船橋町","town_kana":"フナハシチョウ","prefecture_code":29},"8424":{"zip_code":"6308424","prefecture":"奈良県","prefecture_kana":"ナラケン","city":"奈良市","city_kana":"ナラシ","town":"古市町","town_kana":"フルイチチョウ","prefecture_code":29},"1123":{"zip_code":"6301123","prefecture":"奈良県","prefecture_kana":"ナラケン","city":"奈良市","city_kana":"ナラシ","town":"生琉里町","town_kana":"フルサトチョウ","prefecture_code":29},"2153":{"zip_code":"6302153","prefecture":"奈良県","prefecture_kana":"ナラケン","city":"奈良市","city_kana":"ナラシ","town":"別所町","town_kana":"ベッシヨチョウ","prefecture_code":29},"1126":{"zip_code":"6301126","prefecture":"奈良県","prefecture_kana":"ナラケン","city":"奈良市","city_kana":"ナラシ","town":"法用町","town_kana":"ホウヨウチョウ","prefecture_code":29},"8108":{"zip_code":"6308108","prefecture":"奈良県","prefecture_kana":"ナラケン","city":"奈良市","city_kana":"ナラシ","town":"法蓮佐保山","town_kana":"ホウレンサホヤマ","prefecture_code":29},"8113":{"zip_code":"6308113","prefecture":"奈良県","prefecture_kana":"ナラケン","city":"奈良市","city_kana":"ナラシ","town":"法蓮町","town_kana":"ホウレンチョウ","prefecture_code":29},"8001":{"zip_code":"6308001","prefecture":"奈良県","prefecture_kana":"ナラケン","city":"奈良市","city_kana":"ナラシ","town":"法華寺町","town_kana":"ホッケジチョウ","prefecture_code":29},"8231":{"zip_code":"6308231","prefecture":"奈良県","prefecture_kana":"ナラケン","city":"奈良市","city_kana":"ナラシ","town":"本子守町","town_kana":"ホンコモリチョウ","prefecture_code":29},"8271":{"zip_code":"6308271","prefecture":"奈良県","prefecture_kana":"ナラケン","city":"奈良市","city_kana":"ナラシ","town":"坊屋敷町","town_kana":"ボウヤシキチョウ","prefecture_code":29},"2168":{"zip_code":"6302168","prefecture":"奈良県","prefecture_kana":"ナラケン","city":"奈良市","city_kana":"ナラシ","town":"菩提山町","town_kana":"ボダイセンチョウ","prefecture_code":29},"8413":{"zip_code":"6308413","prefecture":"奈良県","prefecture_kana":"ナラケン","city":"奈良市","city_kana":"ナラシ","town":"菩提山町","town_kana":"ボダイセンチョウ","prefecture_code":29},"8402":{"zip_code":"6308402","prefecture":"奈良県","prefecture_kana":"ナラケン","city":"奈良市","city_kana":"ナラシ","town":"米谷町","town_kana":"マイタニチョウ","prefecture_code":29},"8268":{"zip_code":"6308268","prefecture":"奈良県","prefecture_kana":"ナラケン","city":"奈良市","city_kana":"ナラシ","town":"大豆山町","town_kana":"マメヤマチョウ","prefecture_code":29},"8267":{"zip_code":"6308267","prefecture":"奈良県","prefecture_kana":"ナラケン","city":"奈良市","city_kana":"ナラシ","town":"大豆山突抜町","town_kana":"マメヤマツキヌケチョウ","prefecture_code":29},"8331":{"zip_code":"6308331","prefecture":"奈良県","prefecture_kana":"ナラケン","city":"奈良市","city_kana":"ナラシ","town":"三棟町","town_kana":"ミツムネチョウ","prefecture_code":29},"8373":{"zip_code":"6308373","prefecture":"奈良県","prefecture_kana":"ナラケン","city":"奈良市","city_kana":"ナラシ","town":"南市町","town_kana":"ミナミイチチョウ","prefecture_code":29},"8355":{"zip_code":"6308355","prefecture":"奈良県","prefecture_kana":"ナラケン","city":"奈良市","city_kana":"ナラシ","town":"南魚屋町","town_kana":"ミナミウオヤチョウ","prefecture_code":29},"8304":{"zip_code":"6308304","prefecture":"奈良県","prefecture_kana":"ナラケン","city":"奈良市","city_kana":"ナラシ","town":"南肘塚町","town_kana":"ミナミカイノヅカチョウ","prefecture_code":29},"8303":{"zip_code":"6308303","prefecture":"奈良県","prefecture_kana":"ナラケン","city":"奈良市","city_kana":"ナラシ","town":"南紀寺町","town_kana":"ミナミキデラチョウ","prefecture_code":29},"8141":{"zip_code":"6308141","prefecture":"奈良県","prefecture_kana":"ナラケン","city":"奈良市","city_kana":"ナラシ","town":"南京終町","town_kana":"ミナミキョウバテチョウ","prefecture_code":29},"1112":{"zip_code":"6301112","prefecture":"奈良県","prefecture_kana":"ナラケン","city":"奈良市","city_kana":"ナラシ","town":"南庄町","town_kana":"ミナミショウチョウ","prefecture_code":29},"8356":{"zip_code":"6308356","prefecture":"奈良県","prefecture_kana":"ナラケン","city":"奈良市","city_kana":"ナラシ","town":"南新町","town_kana":"ミナミシンマチ","prefecture_code":29},"8016":{"zip_code":"6308016","prefecture":"奈良県","prefecture_kana":"ナラケン","city":"奈良市","city_kana":"ナラシ","town":"南新町","town_kana":"ミナミシンチョウ","prefecture_code":29},"8341":{"zip_code":"6308341","prefecture":"奈良県","prefecture_kana":"ナラケン","city":"奈良市","city_kana":"ナラシ","town":"南城戸町","town_kana":"ミナミジョウドチョウ","prefecture_code":29},"2164":{"zip_code":"6302164","prefecture":"奈良県","prefecture_kana":"ナラケン","city":"奈良市","city_kana":"ナラシ","town":"南田原町","town_kana":"ミナミタワラチョウ","prefecture_code":29},"8404":{"zip_code":"6308404","prefecture":"奈良県","prefecture_kana":"ナラケン","city":"奈良市","city_kana":"ナラシ","town":"南椿尾町","town_kana":"ミナミツバオチョウ","prefecture_code":29},"8347":{"zip_code":"6308347","prefecture":"奈良県","prefecture_kana":"ナラケン","city":"奈良市","city_kana":"ナラシ","town":"南中町","town_kana":"ミナミナカマチ","prefecture_code":29},"8443":{"zip_code":"6308443","prefecture":"奈良県","prefecture_kana":"ナラケン","city":"奈良市","city_kana":"ナラシ","town":"南永井町","town_kana":"ミナミナガイチョウ","prefecture_code":29},"8281":{"zip_code":"6308281","prefecture":"奈良県","prefecture_kana":"ナラケン","city":"奈良市","city_kana":"ナラシ","town":"南半田中町","town_kana":"ミナミハンダナカマチ","prefecture_code":29},"8277":{"zip_code":"6308277","prefecture":"奈良県","prefecture_kana":"ナラケン","city":"奈良市","city_kana":"ナラシ","town":"南半田東町","town_kana":"ミナミハンダヒガシマチ","prefecture_code":29},"8282":{"zip_code":"6308282","prefecture":"奈良県","prefecture_kana":"ナラケン","city":"奈良市","city_kana":"ナラシ","town":"南半田西町","town_kana":"ミナミハンダニシマチ","prefecture_code":29},"8342":{"zip_code":"6308342","prefecture":"奈良県","prefecture_kana":"ナラケン","city":"奈良市","city_kana":"ナラシ","town":"南袋町","town_kana":"ミナミフクロチョウ","prefecture_code":29},"8351":{"zip_code":"6308351","prefecture":"奈良県","prefecture_kana":"ナラケン","city":"奈良市","city_kana":"ナラシ","town":"南風呂町","town_kana":"ミナミフロチョウ","prefecture_code":29},"2151":{"zip_code":"6302151","prefecture":"奈良県","prefecture_kana":"ナラケン","city":"奈良市","city_kana":"ナラシ","town":"水間町","town_kana":"ミマチョウ","prefecture_code":29},"2175":{"zip_code":"6302175","prefecture":"奈良県","prefecture_kana":"ナラケン","city":"奈良市","city_kana":"ナラシ","town":"茗荷町","town_kana":"ミョウガチョウ","prefecture_code":29},"8222":{"zip_code":"6308222","prefecture":"奈良県","prefecture_kana":"ナラケン","city":"奈良市","city_kana":"ナラシ","town":"餅飯殿町","town_kana":"モチイドノチョウ","prefecture_code":29},"1231":{"zip_code":"6301231","prefecture":"奈良県","prefecture_kana":"ナラケン","city":"奈良市","city_kana":"ナラシ","town":"柳生下町","town_kana":"ヤギュウシモチョウ","prefecture_code":29},"1237":{"zip_code":"6301237","prefecture":"奈良県","prefecture_kana":"ナラケン","city":"奈良市","city_kana":"ナラシ","town":"柳生町","town_kana":"ヤギュウチョウ","prefecture_code":29},"8321":{"zip_code":"6308321","prefecture":"奈良県","prefecture_kana":"ナラケン","city":"奈良市","city_kana":"ナラシ","town":"薬師堂町","town_kana":"ヤクシドウチョウ","prefecture_code":29},"8435":{"zip_code":"6308435","prefecture":"奈良県","prefecture_kana":"ナラケン","city":"奈良市","city_kana":"ナラシ","town":"八島町","town_kana":"ヤシマチョウ","prefecture_code":29},"2166":{"zip_code":"6302166","prefecture":"奈良県","prefecture_kana":"ナラケン","city":"奈良市","city_kana":"ナラシ","town":"矢田原町","town_kana":"ヤダワラチョウ","prefecture_code":29},"8353":{"zip_code":"6308353","prefecture":"奈良県","prefecture_kana":"ナラケン","city":"奈良市","city_kana":"ナラシ","town":"柳町","town_kana":"ヤナギマチ","prefecture_code":29},"8434":{"zip_code":"6308434","prefecture":"奈良県","prefecture_kana":"ナラケン","city":"奈良市","city_kana":"ナラシ","town":"山町","town_kana":"ヤマチョウ","prefecture_code":29},"8283":{"zip_code":"6308283","prefecture":"奈良県","prefecture_kana":"ナラケン","city":"奈良市","city_kana":"ナラシ","town":"油留木町","town_kana":"ユルギチョウ","prefecture_code":29},"8422":{"zip_code":"6308422","prefecture":"奈良県","prefecture_kana":"ナラケン","city":"奈良市","city_kana":"ナラシ","town":"横井町","town_kana":"ヨコイチョウ","prefecture_code":29},"2174":{"zip_code":"6302174","prefecture":"奈良県","prefecture_kana":"ナラケン","city":"奈良市","city_kana":"ナラシ","town":"横田町","town_kana":"ヨコタチョウ","prefecture_code":29},"8043":{"zip_code":"6308043","prefecture":"奈良県","prefecture_kana":"ナラケン","city":"奈良市","city_kana":"ナラシ","town":"六条","town_kana":"ロクジョウ","prefecture_code":29},"8045":{"zip_code":"6308045","prefecture":"奈良県","prefecture_kana":"ナラケン","city":"奈良市","city_kana":"ナラシ","town":"六条緑町","town_kana":"ロクジョウミドリマチ","prefecture_code":29},"8044":{"zip_code":"6308044","prefecture":"奈良県","prefecture_kana":"ナラケン","city":"奈良市","city_kana":"ナラシ","town":"六条西","town_kana":"ロクジョウニシ","prefecture_code":29},"8041":{"zip_code":"6308041","prefecture":"奈良県","prefecture_kana":"ナラケン","city":"奈良市","city_kana":"ナラシ","town":"六条町","town_kana":"ロクジョウチョウ","prefecture_code":29},"8425":{"zip_code":"6308425","prefecture":"奈良県","prefecture_kana":"ナラケン","city":"奈良市","city_kana":"ナラシ","town":"鹿野園町","town_kana":"ロクヤオンチョウ","prefecture_code":29},"8337":{"zip_code":"6308337","prefecture":"奈良県","prefecture_kana":"ナラケン","city":"奈良市","city_kana":"ナラシ","town":"脇戸町","town_kana":"ワキドチョウ","prefecture_code":29},"2176":{"zip_code":"6302176","prefecture":"奈良県","prefecture_kana":"ナラケン","city":"奈良市","city_kana":"ナラシ","town":"和田町","town_kana":"ワダチョウ","prefecture_code":29},"0200":{"zip_code":"6300200","prefecture":"奈良県","prefecture_kana":"ナラケン","city":"生駒市","city_kana":"イコマシ","town":"","town_kana":"","prefecture_code":29},"0239":{"zip_code":"6300239","prefecture":"奈良県","prefecture_kana":"ナラケン","city":"生駒市","city_kana":"イコマシ","town":"青山台","town_kana":"アオヤマダイ","prefecture_code":29},"0132":{"zip_code":"6300132","prefecture":"奈良県","prefecture_kana":"ナラケン","city":"生駒市","city_kana":"イコマシ","town":"あすか台","town_kana":"アスカダイ","prefecture_code":29},"0133":{"zip_code":"6300133","prefecture":"奈良県","prefecture_kana":"ナラケン","city":"生駒市","city_kana":"イコマシ","town":"あすか野南","town_kana":"アスカノミナミ","prefecture_code":29},"0134":{"zip_code":"6300134","prefecture":"奈良県","prefecture_kana":"ナラケン","city":"生駒市","city_kana":"イコマシ","town":"あすか野北","town_kana":"アスカノキタ","prefecture_code":29},"0233":{"zip_code":"6300233","prefecture":"奈良県","prefecture_kana":"ナラケン","city":"生駒市","city_kana":"イコマシ","town":"有里町","town_kana":"アリサトチョウ","prefecture_code":29},"0202":{"zip_code":"6300202","prefecture":"奈良県","prefecture_kana":"ナラケン","city":"生駒市","city_kana":"イコマシ","town":"生駒台南","town_kana":"イコマダイミナミ","prefecture_code":29},"0203":{"zip_code":"6300203","prefecture":"奈良県","prefecture_kana":"ナラケン","city":"生駒市","city_kana":"イコマシ","town":"生駒台北","town_kana":"イコマダイキタ","prefecture_code":29},"0222":{"zip_code":"6300222","prefecture":"奈良県","prefecture_kana":"ナラケン","city":"生駒市","city_kana":"イコマシ","town":"壱分町","town_kana":"イチブチョウ","prefecture_code":29},"0232":{"zip_code":"6300232","prefecture":"奈良県","prefecture_kana":"ナラケン","city":"生駒市","city_kana":"イコマシ","town":"小倉寺町","town_kana":"オグラジチョウ","prefecture_code":29},"0223":{"zip_code":"6300223","prefecture":"奈良県","prefecture_kana":"ナラケン","city":"生駒市","city_kana":"イコマシ","town":"小瀬町","town_kana":"オゼチョウ","prefecture_code":29},"0227":{"zip_code":"6300227","prefecture":"奈良県","prefecture_kana":"ナラケン","city":"生駒市","city_kana":"イコマシ","town":"乙田町","town_kana":"オトダチョウ","prefecture_code":29},"0237":{"zip_code":"6300237","prefecture":"奈良県","prefecture_kana":"ナラケン","city":"生駒市","city_kana":"イコマシ","town":"鬼取町","town_kana":"オニトリチョウ","prefecture_code":29},"0131":{"zip_code":"6300131","prefecture":"奈良県","prefecture_kana":"ナラケン","city":"生駒市","city_kana":"イコマシ","town":"上町","town_kana":"カミマチ","prefecture_code":29},"0138":{"zip_code":"6300138","prefecture":"奈良県","prefecture_kana":"ナラケン","city":"生駒市","city_kana":"イコマシ","town":"上町台","town_kana":"カミマチダイ","prefecture_code":29},"0265":{"zip_code":"6300265","prefecture":"奈良県","prefecture_kana":"ナラケン","city":"生駒市","city_kana":"イコマシ","town":"軽井沢町","town_kana":"カルイザワチョウ","prefecture_code":29},"0245":{"zip_code":"6300245","prefecture":"奈良県","prefecture_kana":"ナラケン","city":"生駒市","city_kana":"イコマシ","town":"北新町","town_kana":"キタシンマチ","prefecture_code":29},"0142":{"zip_code":"6300142","prefecture":"奈良県","prefecture_kana":"ナラケン","city":"生駒市","city_kana":"イコマシ","town":"北田原町","town_kana":"キタタハラチョウ","prefecture_code":29},"0121":{"zip_code":"6300121","prefecture":"奈良県","prefecture_kana":"ナラケン","city":"生駒市","city_kana":"イコマシ","town":"北大和","town_kana":"キタヤマト","prefecture_code":29},"0248":{"zip_code":"6300248","prefecture":"奈良県","prefecture_kana":"ナラケン","city":"生駒市","city_kana":"イコマシ","town":"喜里が丘","town_kana":"キリガオカ","prefecture_code":29},"0201":{"zip_code":"6300201","prefecture":"奈良県","prefecture_kana":"ナラケン","city":"生駒市","city_kana":"イコマシ","town":"小明町","town_kana":"コウミョウチョウ","prefecture_code":29},"0247":{"zip_code":"6300247","prefecture":"奈良県","prefecture_kana":"ナラケン","city":"生駒市","city_kana":"イコマシ","town":"光陽台","town_kana":"コウヨウダイ","prefecture_code":29},"0226":{"zip_code":"6300226","prefecture":"奈良県","prefecture_kana":"ナラケン","city":"生駒市","city_kana":"イコマシ","town":"小平尾町","town_kana":"コビラオチョウ","prefecture_code":29},"0211":{"zip_code":"6300211","prefecture":"奈良県","prefecture_kana":"ナラケン","city":"生駒市","city_kana":"イコマシ","town":"桜ケ丘","town_kana":"サクラガオカ","prefecture_code":29},"0221":{"zip_code":"6300221","prefecture":"奈良県","prefecture_kana":"ナラケン","city":"生駒市","city_kana":"イコマシ","town":"さつき台","town_kana":"サツキダイ","prefecture_code":29},"0112":{"zip_code":"6300112","prefecture":"奈良県","prefecture_kana":"ナラケン","city":"生駒市","city_kana":"イコマシ","town":"鹿ノ台東","town_kana":"シカノダイヒガシ","prefecture_code":29},"0114":{"zip_code":"6300114","prefecture":"奈良県","prefecture_kana":"ナラケン","city":"生駒市","city_kana":"イコマシ","town":"鹿ノ台西","town_kana":"シカノダイニシ","prefecture_code":29},"0113":{"zip_code":"6300113","prefecture":"奈良県","prefecture_kana":"ナラケン","city":"生駒市","city_kana":"イコマシ","town":"鹿ノ台南","town_kana":"シカノダイミナミ","prefecture_code":29},"0111":{"zip_code":"6300111","prefecture":"奈良県","prefecture_kana":"ナラケン","city":"生駒市","city_kana":"イコマシ","town":"鹿ノ台北","town_kana":"シカノダイキタ","prefecture_code":29},"0115":{"zip_code":"6300115","prefecture":"奈良県","prefecture_kana":"ナラケン","city":"生駒市","city_kana":"イコマシ","town":"鹿畑町","town_kana":"シカハタチョウ","prefecture_code":29},"0136":{"zip_code":"6300136","prefecture":"奈良県","prefecture_kana":"ナラケン","city":"生駒市","city_kana":"イコマシ","town":"白庭台","town_kana":"シラニワダイ","prefecture_code":29},"0253":{"zip_code":"6300253","prefecture":"奈良県","prefecture_kana":"ナラケン","city":"生駒市","city_kana":"イコマシ","town":"新旭ケ丘","town_kana":"シンアサヒガオカ","prefecture_code":29},"0242":{"zip_code":"6300242","prefecture":"奈良県","prefecture_kana":"ナラケン","city":"生駒市","city_kana":"イコマシ","town":"新生駒台","town_kana":"シンイコマダイ","prefecture_code":29},"0238":{"zip_code":"6300238","prefecture":"奈良県","prefecture_kana":"ナラケン","city":"生駒市","city_kana":"イコマシ","town":"大門町","town_kana":"ダイモンチョウ","prefecture_code":29},"0101":{"zip_code":"6300101","prefecture":"奈良県","prefecture_kana":"ナラケン","city":"生駒市","city_kana":"イコマシ","town":"高山町","town_kana":"タカヤマチョウ","prefecture_code":29},"0251":{"zip_code":"6300251","prefecture":"奈良県","prefecture_kana":"ナラケン","city":"生駒市","city_kana":"イコマシ","town":"谷田町","town_kana":"タニダチョウ","prefecture_code":29},"0243":{"zip_code":"6300243","prefecture":"奈良県","prefecture_kana":"ナラケン","city":"生駒市","city_kana":"イコマシ","town":"俵口町","town_kana":"タワラグチチョウ","prefecture_code":29},"0212":{"zip_code":"6300212","prefecture":"奈良県","prefecture_kana":"ナラケン","city":"生駒市","city_kana":"イコマシ","town":"辻町","town_kana":"ツジマチ","prefecture_code":29},"0263":{"zip_code":"6300263","prefecture":"奈良県","prefecture_kana":"ナラケン","city":"生駒市","city_kana":"イコマシ","town":"中菜畑","town_kana":"ナカナバタ","prefecture_code":29},"0267":{"zip_code":"6300267","prefecture":"奈良県","prefecture_kana":"ナラケン","city":"生駒市","city_kana":"イコマシ","town":"仲之町","town_kana":"ナカノチョウ","prefecture_code":29},"0231":{"zip_code":"6300231","prefecture":"奈良県","prefecture_kana":"ナラケン","city":"生駒市","city_kana":"イコマシ","town":"菜畑町","town_kana":"ナバタチョウ","prefecture_code":29},"0261":{"zip_code":"6300261","prefecture":"奈良県","prefecture_kana":"ナラケン","city":"生駒市","city_kana":"イコマシ","town":"西旭ケ丘","town_kana":"ニシアサヒガオカ","prefecture_code":29},"0137":{"zip_code":"6300137","prefecture":"奈良県","prefecture_kana":"ナラケン","city":"生駒市","city_kana":"イコマシ","town":"西白庭台","town_kana":"ニシシラニワダイ","prefecture_code":29},"0264":{"zip_code":"6300264","prefecture":"奈良県","prefecture_kana":"ナラケン","city":"生駒市","city_kana":"イコマシ","town":"西菜畑町","town_kana":"ニシナバタチョウ","prefecture_code":29},"0236":{"zip_code":"6300236","prefecture":"奈良県","prefecture_kana":"ナラケン","city":"生駒市","city_kana":"イコマシ","town":"西畑町","town_kana":"ニシハタチョウ","prefecture_code":29},"0246":{"zip_code":"6300246","prefecture":"奈良県","prefecture_kana":"ナラケン","city":"生駒市","city_kana":"イコマシ","town":"西松ケ丘","town_kana":"ニシマツガオカ","prefecture_code":29},"0224":{"zip_code":"6300224","prefecture":"奈良県","prefecture_kana":"ナラケン","city":"生駒市","city_kana":"イコマシ","town":"萩の台","town_kana":"ハギノダイ","prefecture_code":29},"0234":{"zip_code":"6300234","prefecture":"奈良県","prefecture_kana":"ナラケン","city":"生駒市","city_kana":"イコマシ","town":"萩原町","town_kana":"ハギハラチョウ","prefecture_code":29},"0141":{"zip_code":"6300141","prefecture":"奈良県","prefecture_kana":"ナラケン","city":"生駒市","city_kana":"イコマシ","town":"ひかりが丘","town_kana":"ヒカリガオカ","prefecture_code":29},"0254":{"zip_code":"6300254","prefecture":"奈良県","prefecture_kana":"ナラケン","city":"生駒市","city_kana":"イコマシ","town":"東旭ケ丘","town_kana":"ヒガシアサヒガオカ","prefecture_code":29},"0213":{"zip_code":"6300213","prefecture":"奈良県","prefecture_kana":"ナラケン","city":"生駒市","city_kana":"イコマシ","town":"東生駒","town_kana":"ヒガシイコマ","prefecture_code":29},"0214":{"zip_code":"6300214","prefecture":"奈良県","prefecture_kana":"ナラケン","city":"生駒市","city_kana":"イコマシ","town":"東生駒月見町","town_kana":"ヒガシイコマツキミチョウ","prefecture_code":29},"0258":{"zip_code":"6300258","prefecture":"奈良県","prefecture_kana":"ナラケン","city":"生駒市","city_kana":"イコマシ","town":"東新町","town_kana":"ヒガシシンマチ","prefecture_code":29},"0215":{"zip_code":"6300215","prefecture":"奈良県","prefecture_kana":"ナラケン","city":"生駒市","city_kana":"イコマシ","town":"東菜畑","town_kana":"ヒガシナバタ","prefecture_code":29},"0244":{"zip_code":"6300244","prefecture":"奈良県","prefecture_kana":"ナラケン","city":"生駒市","city_kana":"イコマシ","town":"東松ケ丘","town_kana":"ヒガシマツガオカ","prefecture_code":29},"0225":{"zip_code":"6300225","prefecture":"奈良県","prefecture_kana":"ナラケン","city":"生駒市","city_kana":"イコマシ","town":"東山町","town_kana":"ヒガシヤマチョウ","prefecture_code":29},"0235":{"zip_code":"6300235","prefecture":"奈良県","prefecture_kana":"ナラケン","city":"生駒市","city_kana":"イコマシ","town":"藤尾町","town_kana":"フジオチョウ","prefecture_code":29},"0256":{"zip_code":"6300256","prefecture":"奈良県","prefecture_kana":"ナラケン","city":"生駒市","city_kana":"イコマシ","town":"本町","town_kana":"ホンマチ","prefecture_code":29},"0241":{"zip_code":"6300241","prefecture":"奈良県","prefecture_kana":"ナラケン","city":"生駒市","city_kana":"イコマシ","town":"松美台","town_kana":"マツミダイ","prefecture_code":29},"0122":{"zip_code":"6300122","prefecture":"奈良県","prefecture_kana":"ナラケン","city":"生駒市","city_kana":"イコマシ","town":"真弓","town_kana":"マユミ","prefecture_code":29},"0123":{"zip_code":"6300123","prefecture":"奈良県","prefecture_kana":"ナラケン","city":"生駒市","city_kana":"イコマシ","town":"真弓南","town_kana":"マユミミナミ","prefecture_code":29},"0116":{"zip_code":"6300116","prefecture":"奈良県","prefecture_kana":"ナラケン","city":"生駒市","city_kana":"イコマシ","town":"美鹿の台","town_kana":"ミカノダイ","prefecture_code":29},"0262":{"zip_code":"6300262","prefecture":"奈良県","prefecture_kana":"ナラケン","city":"生駒市","city_kana":"イコマシ","town":"緑ケ丘","town_kana":"ミドリガオカ","prefecture_code":29},"0135":{"zip_code":"6300135","prefecture":"奈良県","prefecture_kana":"ナラケン","city":"生駒市","city_kana":"イコマシ","town":"南田原町","town_kana":"ミナミタワラチョウ","prefecture_code":29},"0228":{"zip_code":"6300228","prefecture":"奈良県","prefecture_kana":"ナラケン","city":"生駒市","city_kana":"イコマシ","town":"南山手台","town_kana":"ミナミヤマテダイ","prefecture_code":29},"0257":{"zip_code":"6300257","prefecture":"奈良県","prefecture_kana":"ナラケン","city":"生駒市","city_kana":"イコマシ","town":"元町","town_kana":"モトマチ","prefecture_code":29},"0266":{"zip_code":"6300266","prefecture":"奈良県","prefecture_kana":"ナラケン","city":"生駒市","city_kana":"イコマシ","town":"門前町","town_kana":"モンゼンチョウ","prefecture_code":29},"0255":{"zip_code":"6300255","prefecture":"奈良県","prefecture_kana":"ナラケン","city":"生駒市","city_kana":"イコマシ","town":"山崎新町","town_kana":"ヤマサキシンマチ","prefecture_code":29},"0252":{"zip_code":"6300252","prefecture":"奈良県","prefecture_kana":"ナラケン","city":"生駒市","city_kana":"イコマシ","town":"山崎町","town_kana":"ヤマサキチョウ","prefecture_code":29},"2232":{"zip_code":"6302232","prefecture":"奈良県","prefecture_kana":"ナラケン","city":"山辺郡山添村","city_kana":"ヤマベグンヤマゾエムラ","town":"岩屋","town_kana":"イワヤ","prefecture_code":29},"2355":{"zip_code":"6302355","prefecture":"奈良県","prefecture_kana":"ナラケン","city":"山辺郡山添村","city_kana":"ヤマベグンヤマゾエムラ","town":"鵜山","town_kana":"ウヤマ","prefecture_code":29},"2212":{"zip_code":"6302212","prefecture":"奈良県","prefecture_kana":"ナラケン","city":"山辺郡山添村","city_kana":"ヤマベグンヤマゾエムラ","town":"大塩","town_kana":"オオシオ","prefecture_code":29},"2344":{"zip_code":"6302344","prefecture":"奈良県","prefecture_kana":"ナラケン","city":"山辺郡山添村","city_kana":"ヤマベグンヤマゾエムラ","town":"大西","town_kana":"オオニシ","prefecture_code":29},"2341":{"zip_code":"6302341","prefecture":"奈良県","prefecture_kana":"ナラケン","city":"山辺郡山添村","city_kana":"ヤマベグンヤマゾエムラ","town":"遅瀬","town_kana":"オソセ","prefecture_code":29},"2343":{"zip_code":"6302343","prefecture":"奈良県","prefecture_kana":"ナラケン","city":"山辺郡山添村","city_kana":"ヤマベグンヤマゾエムラ","town":"春日","town_kana":"カスガ","prefecture_code":29},"2356":{"zip_code":"6302356","prefecture":"奈良県","prefecture_kana":"ナラケン","city":"山辺郡山添村","city_kana":"ヤマベグンヤマゾエムラ","town":"片平","town_kana":"カタヒラ","prefecture_code":29},"2231":{"zip_code":"6302231","prefecture":"奈良県","prefecture_kana":"ナラケン","city":"山辺郡山添村","city_kana":"ヤマベグンヤマゾエムラ","town":"勝原","town_kana":"カツハラ","prefecture_code":29},"2211":{"zip_code":"6302211","prefecture":"奈良県","prefecture_kana":"ナラケン","city":"山辺郡山添村","city_kana":"ヤマベグンヤマゾエムラ","town":"北野","town_kana":"キタノ","prefecture_code":29},"2234":{"zip_code":"6302234","prefecture":"奈良県","prefecture_kana":"ナラケン","city":"山辺郡山添村","city_kana":"ヤマベグンヤマゾエムラ","town":"切幡","town_kana":"キリハタ","prefecture_code":29},"2205":{"zip_code":"6302205","prefecture":"奈良県","prefecture_kana":"ナラケン","city":"山辺郡山添村","city_kana":"ヤマベグンヤマゾエムラ","town":"桐山","town_kana":"キリヤマ","prefecture_code":29},"2357":{"zip_code":"6302357","prefecture":"奈良県","prefecture_kana":"ナラケン","city":"山辺郡山添村","city_kana":"ヤマベグンヤマゾエムラ","town":"葛尾","town_kana":"クズオ","prefecture_code":29},"2233":{"zip_code":"6302233","prefecture":"奈良県","prefecture_kana":"ナラケン","city":"山辺郡山添村","city_kana":"ヤマベグンヤマゾエムラ","town":"毛原","town_kana":"ケハラ","prefecture_code":29},"2345":{"zip_code":"6302345","prefecture":"奈良県","prefecture_kana":"ナラケン","city":"山辺郡山添村","city_kana":"ヤマベグンヤマゾエムラ","town":"菅生","town_kana":"スゴウ","prefecture_code":29},"2224":{"zip_code":"6302224","prefecture":"奈良県","prefecture_kana":"ナラケン","city":"山辺郡山添村","city_kana":"ヤマベグンヤマゾエムラ","town":"助命","town_kana":"ゼミョウ","prefecture_code":29},"2351":{"zip_code":"6302351","prefecture":"奈良県","prefecture_kana":"ナラケン","city":"山辺郡山添村","city_kana":"ヤマベグンヤマゾエムラ","town":"中峰山","town_kana":"チュウムザン","prefecture_code":29},"2222":{"zip_code":"6302222","prefecture":"奈良県","prefecture_kana":"ナラケン","city":"山辺郡山添村","city_kana":"ヤマベグンヤマゾエムラ","town":"堂前","town_kana":"ドウマエ","prefecture_code":29},"2352":{"zip_code":"6302352","prefecture":"奈良県","prefecture_kana":"ナラケン","city":"山辺郡山添村","city_kana":"ヤマベグンヤマゾエムラ","town":"中之庄","town_kana":"ナカノショウ","prefecture_code":29},"2346":{"zip_code":"6302346","prefecture":"奈良県","prefecture_kana":"ナラケン","city":"山辺郡山添村","city_kana":"ヤマベグンヤマゾエムラ","town":"西波多","town_kana":"ニシハタ","prefecture_code":29},"2354":{"zip_code":"6302354","prefecture":"奈良県","prefecture_kana":"ナラケン","city":"山辺郡山添村","city_kana":"ヤマベグンヤマゾエムラ","town":"広瀬","town_kana":"ヒロセ","prefecture_code":29},"2342":{"zip_code":"6302342","prefecture":"奈良県","prefecture_kana":"ナラケン","city":"山辺郡山添村","city_kana":"ヤマベグンヤマゾエムラ","town":"広代","town_kana":"ヒロダイ","prefecture_code":29},"2225":{"zip_code":"6302225","prefecture":"奈良県","prefecture_kana":"ナラケン","city":"山辺郡山添村","city_kana":"ヤマベグンヤマゾエムラ","town":"伏拝","town_kana":"フシオガミ","prefecture_code":29},"2203":{"zip_code":"6302203","prefecture":"奈良県","prefecture_kana":"ナラケン","city":"山辺郡山添村","city_kana":"ヤマベグンヤマゾエムラ","town":"松尾","town_kana":"マツオ","prefecture_code":29},"2202":{"zip_code":"6302202","prefecture":"奈良県","prefecture_kana":"ナラケン","city":"山辺郡山添村","city_kana":"ヤマベグンヤマゾエムラ","town":"的野","town_kana":"マトノ","prefecture_code":29},"2223":{"zip_code":"6302223","prefecture":"奈良県","prefecture_kana":"ナラケン","city":"山辺郡山添村","city_kana":"ヤマベグンヤマゾエムラ","town":"三ケ谷","town_kana":"ミカダニ","prefecture_code":29},"2201":{"zip_code":"6302201","prefecture":"奈良県","prefecture_kana":"ナラケン","city":"山辺郡山添村","city_kana":"ヤマベグンヤマゾエムラ","town":"峰寺","town_kana":"ミネデラ","prefecture_code":29},"2221":{"zip_code":"6302221","prefecture":"奈良県","prefecture_kana":"ナラケン","city":"山辺郡山添村","city_kana":"ヤマベグンヤマゾエムラ","town":"箕輪","town_kana":"ミノワ","prefecture_code":29},"2204":{"zip_code":"6302204","prefecture":"奈良県","prefecture_kana":"ナラケン","city":"山辺郡山添村","city_kana":"ヤマベグンヤマゾエムラ","town":"室津","town_kana":"ムロヅ","prefecture_code":29},"2353":{"zip_code":"6302353","prefecture":"奈良県","prefecture_kana":"ナラケン","city":"山辺郡山添村","city_kana":"ヤマベグンヤマゾエムラ","town":"吉田","town_kana":"ヨシダ","prefecture_code":29}}