{"0053":{"zip_code":"6310053","prefecture":"奈良県","prefecture_kana":"ナラケン","city":"奈良市","city_kana":"ナラシ","town":"青垣台","town_kana":"アオガキダイ","prefecture_code":29},"0841":{"zip_code":"6310841","prefecture":"奈良県","prefecture_kana":"ナラケン","city":"奈良市","city_kana":"ナラシ","town":"青野町","town_kana":"アオノチョウ","prefecture_code":29},"0812":{"zip_code":"6310812","prefecture":"奈良県","prefecture_kana":"ナラケン","city":"奈良市","city_kana":"ナラシ","town":"秋篠早月町","town_kana":"アキシノサツキチョウ","prefecture_code":29},"0814":{"zip_code":"6310814","prefecture":"奈良県","prefecture_kana":"ナラケン","city":"奈良市","city_kana":"ナラシ","town":"秋篠三和町","town_kana":"アキシノサンワチョウ","prefecture_code":29},"0813":{"zip_code":"6310813","prefecture":"奈良県","prefecture_kana":"ナラケン","city":"奈良市","city_kana":"ナラシ","town":"秋篠新町","town_kana":"アキシノシンマチ","prefecture_code":29},"0811":{"zip_code":"6310811","prefecture":"奈良県","prefecture_kana":"ナラケン","city":"奈良市","city_kana":"ナラシ","town":"秋篠町","town_kana":"アキシノチョウ","prefecture_code":29},"0014":{"zip_code":"6310014","prefecture":"奈良県","prefecture_kana":"ナラケン","city":"奈良市","city_kana":"ナラシ","town":"朝日町","town_kana":"アサヒチョウ","prefecture_code":29},"0033":{"zip_code":"6310033","prefecture":"奈良県","prefecture_kana":"ナラケン","city":"奈良市","city_kana":"ナラシ","town":"あやめ池南","town_kana":"アヤメイケミナミ","prefecture_code":29},"0032":{"zip_code":"6310032","prefecture":"奈良県","prefecture_kana":"ナラケン","city":"奈良市","city_kana":"ナラシ","town":"あやめ池北","town_kana":"アヤメイケキタ","prefecture_code":29},"0054":{"zip_code":"6310054","prefecture":"奈良県","prefecture_kana":"ナラケン","city":"奈良市","city_kana":"ナラシ","town":"石木町","town_kana":"イシキチョウ","prefecture_code":29},"0805":{"zip_code":"6310805","prefecture":"奈良県","prefecture_kana":"ナラケン","city":"奈良市","city_kana":"ナラシ","town":"右京","town_kana":"ウキョウ","prefecture_code":29},"0802":{"zip_code":"6310802","prefecture":"奈良県","prefecture_kana":"ナラケン","city":"奈良市","city_kana":"ナラシ","town":"歌姫町","town_kana":"ウタヒメチョウ","prefecture_code":29},"0005":{"zip_code":"6310005","prefecture":"奈良県","prefecture_kana":"ナラケン","city":"奈良市","city_kana":"ナラシ","town":"大渕町","town_kana":"オオブチチョウ","prefecture_code":29},"0042":{"zip_code":"6310042","prefecture":"奈良県","prefecture_kana":"ナラケン","city":"奈良市","city_kana":"ナラシ","town":"大倭町","town_kana":"オオヤマトチョウ","prefecture_code":29},"0055":{"zip_code":"6310055","prefecture":"奈良県","prefecture_kana":"ナラケン","city":"奈良市","city_kana":"ナラシ","town":"大和田町","town_kana":"オオワダチョウ","prefecture_code":29},"0011":{"zip_code":"6310011","prefecture":"奈良県","prefecture_kana":"ナラケン","city":"奈良市","city_kana":"ナラシ","town":"押熊町","town_kana":"オシクマチョウ","prefecture_code":29},"0027":{"zip_code":"6310027","prefecture":"奈良県","prefecture_kana":"ナラケン","city":"奈良市","city_kana":"ナラシ","town":"学園赤松町","town_kana":"ガクエンアカマツチョウ","prefecture_code":29},"0016":{"zip_code":"6310016","prefecture":"奈良県","prefecture_kana":"ナラケン","city":"奈良市","city_kana":"ナラシ","town":"学園朝日町","town_kana":"ガクエンアサヒチョウ","prefecture_code":29},"0015":{"zip_code":"6310015","prefecture":"奈良県","prefecture_kana":"ナラケン","city":"奈良市","city_kana":"ナラシ","town":"学園朝日元町","town_kana":"ガクエンアサヒモトマチ","prefecture_code":29},"0025":{"zip_code":"6310025","prefecture":"奈良県","prefecture_kana":"ナラケン","city":"奈良市","city_kana":"ナラシ","town":"学園新田町","town_kana":"ガクエンシンデンチョウ","prefecture_code":29},"0041":{"zip_code":"6310041","prefecture":"奈良県","prefecture_kana":"ナラケン","city":"奈良市","city_kana":"ナラシ","town":"学園大和町","town_kana":"ガクエンダイワチョウ","prefecture_code":29},"0035":{"zip_code":"6310035","prefecture":"奈良県","prefecture_kana":"ナラケン","city":"奈良市","city_kana":"ナラシ","town":"学園中","town_kana":"ガクエンナカ","prefecture_code":29},"0026":{"zip_code":"6310026","prefecture":"奈良県","prefecture_kana":"ナラケン","city":"奈良市","city_kana":"ナラシ","town":"学園緑ケ丘","town_kana":"ガクエンミドリガオカ","prefecture_code":29},"0034":{"zip_code":"6310034","prefecture":"奈良県","prefecture_kana":"ナラケン","city":"奈良市","city_kana":"ナラシ","town":"学園南","town_kana":"ガクエンミナミ","prefecture_code":29},"0036":{"zip_code":"6310036","prefecture":"奈良県","prefecture_kana":"ナラケン","city":"奈良市","city_kana":"ナラシ","town":"学園北","town_kana":"ガクエンキタ","prefecture_code":29},"0001":{"zip_code":"6310001","prefecture":"奈良県","prefecture_kana":"ナラケン","city":"奈良市","city_kana":"ナラシ","town":"北登美ケ丘","town_kana":"キタトミガオカ","prefecture_code":29},"0818":{"zip_code":"6310818","prefecture":"奈良県","prefecture_kana":"ナラケン","city":"奈良市","city_kana":"ナラシ","town":"西大寺赤田町","town_kana":"サイダイジアコダチョウ","prefecture_code":29},"0823":{"zip_code":"6310823","prefecture":"奈良県","prefecture_kana":"ナラケン","city":"奈良市","city_kana":"ナラシ","town":"西大寺国見町","town_kana":"サイダイジクニミチョウ","prefecture_code":29},"0827":{"zip_code":"6310827","prefecture":"奈良県","prefecture_kana":"ナラケン","city":"奈良市","city_kana":"ナラシ","town":"西大寺小坊町","town_kana":"サイダイジコボウチョウ","prefecture_code":29},"0822":{"zip_code":"6310822","prefecture":"奈良県","prefecture_kana":"ナラケン","city":"奈良市","city_kana":"ナラシ","town":"西大寺栄町","town_kana":"サイダイジサカエマチ","prefecture_code":29},"0825":{"zip_code":"6310825","prefecture":"奈良県","prefecture_kana":"ナラケン","city":"奈良市","city_kana":"ナラシ","town":"西大寺芝町","town_kana":"サイダイジシバマチ","prefecture_code":29},"0834":{"zip_code":"6310834","prefecture":"奈良県","prefecture_kana":"ナラケン","city":"奈良市","city_kana":"ナラシ","town":"西大寺新池町","town_kana":"サイダイジシンイケチョウ","prefecture_code":29},"0832":{"zip_code":"6310832","prefecture":"奈良県","prefecture_kana":"ナラケン","city":"奈良市","city_kana":"ナラシ","town":"西大寺新田町","town_kana":"サイダイジシンデンチョウ","prefecture_code":29},"0815":{"zip_code":"6310815","prefecture":"奈良県","prefecture_kana":"ナラケン","city":"奈良市","city_kana":"ナラシ","town":"西大寺新町","town_kana":"サイダイジシンマチ","prefecture_code":29},"0835":{"zip_code":"6310835","prefecture":"奈良県","prefecture_kana":"ナラケン","city":"奈良市","city_kana":"ナラシ","town":"西大寺高塚町","town_kana":"サイダイジタカツカチョウ","prefecture_code":29},"0831":{"zip_code":"6310831","prefecture":"奈良県","prefecture_kana":"ナラケン","city":"奈良市","city_kana":"ナラシ","town":"西大寺宝ケ丘","town_kana":"サイダイジタカラガオカ","prefecture_code":29},"0833":{"zip_code":"6310833","prefecture":"奈良県","prefecture_kana":"ナラケン","city":"奈良市","city_kana":"ナラシ","town":"西大寺野神町","town_kana":"サイダイジノガミチョウ","prefecture_code":29},"0816":{"zip_code":"6310816","prefecture":"奈良県","prefecture_kana":"ナラケン","city":"奈良市","city_kana":"ナラシ","town":"西大寺本町","town_kana":"サイダイジホンマチ","prefecture_code":29},"0821":{"zip_code":"6310821","prefecture":"奈良県","prefecture_kana":"ナラケン","city":"奈良市","city_kana":"ナラシ","town":"西大寺東町","town_kana":"サイダイジヒガシマチ","prefecture_code":29},"0824":{"zip_code":"6310824","prefecture":"奈良県","prefecture_kana":"ナラケン","city":"奈良市","city_kana":"ナラシ","town":"西大寺南町","town_kana":"サイダイジミナミマチ","prefecture_code":29},"0817":{"zip_code":"6310817","prefecture":"奈良県","prefecture_kana":"ナラケン","city":"奈良市","city_kana":"ナラシ","town":"西大寺北町","town_kana":"サイダイジキタマチ","prefecture_code":29},"0836":{"zip_code":"6310836","prefecture":"奈良県","prefecture_kana":"ナラケン","city":"奈良市","city_kana":"ナラシ","town":"西大寺竜王町","town_kana":"サイダイジリュウオウチョウ","prefecture_code":29},"0826":{"zip_code":"6310826","prefecture":"奈良県","prefecture_kana":"ナラケン","city":"奈良市","city_kana":"ナラシ","town":"西大寺町","town_kana":"サイダイジチョウ","prefecture_code":29},"0801":{"zip_code":"6310801","prefecture":"奈良県","prefecture_kana":"ナラケン","city":"奈良市","city_kana":"ナラシ","town":"左京","town_kana":"サキョウ","prefecture_code":29},"0031":{"zip_code":"6310031","prefecture":"奈良県","prefecture_kana":"ナラケン","city":"奈良市","city_kana":"ナラシ","town":"敷島町","town_kana":"シキシマチョウ","prefecture_code":29},"0007":{"zip_code":"6310007","prefecture":"奈良県","prefecture_kana":"ナラケン","city":"奈良市","city_kana":"ナラシ","town":"松陽台","town_kana":"ショウヨウダイ","prefecture_code":29},"0804":{"zip_code":"6310804","prefecture":"奈良県","prefecture_kana":"ナラケン","city":"奈良市","city_kana":"ナラシ","town":"神功","town_kana":"ジングウ","prefecture_code":29},"0043":{"zip_code":"6310043","prefecture":"奈良県","prefecture_kana":"ナラケン","city":"奈良市","city_kana":"ナラシ","town":"菅野台","town_kana":"スガノダイ","prefecture_code":29},"0842":{"zip_code":"6310842","prefecture":"奈良県","prefecture_kana":"ナラケン","city":"奈良市","city_kana":"ナラシ","town":"菅原町","town_kana":"スガハラチョウ","prefecture_code":29},"0806":{"zip_code":"6310806","prefecture":"奈良県","prefecture_kana":"ナラケン","city":"奈良市","city_kana":"ナラシ","town":"朱雀","town_kana":"スザク","prefecture_code":29},"0045":{"zip_code":"6310045","prefecture":"奈良県","prefecture_kana":"ナラケン","city":"奈良市","city_kana":"ナラシ","town":"千代ケ丘","town_kana":"チヨガオカ","prefecture_code":29},"0021":{"zip_code":"6310021","prefecture":"奈良県","prefecture_kana":"ナラケン","city":"奈良市","city_kana":"ナラシ","town":"鶴舞東町","town_kana":"ツルマイヒガシマチ","prefecture_code":29},"0022":{"zip_code":"6310022","prefecture":"奈良県","prefecture_kana":"ナラケン","city":"奈良市","city_kana":"ナラシ","town":"鶴舞西町","town_kana":"ツルマイニシマチ","prefecture_code":29},"0062":{"zip_code":"6310062","prefecture":"奈良県","prefecture_kana":"ナラケン","city":"奈良市","city_kana":"ナラシ","town":"帝塚山","town_kana":"テヅカヤマ","prefecture_code":29},"0063":{"zip_code":"6310063","prefecture":"奈良県","prefecture_kana":"ナラケン","city":"奈良市","city_kana":"ナラシ","town":"帝塚山中町","town_kana":"テヅカヤマナカマチ","prefecture_code":29},"0066":{"zip_code":"6310066","prefecture":"奈良県","prefecture_kana":"ナラケン","city":"奈良市","city_kana":"ナラシ","town":"帝塚山西","town_kana":"テヅカヤマニシ","prefecture_code":29},"0064":{"zip_code":"6310064","prefecture":"奈良県","prefecture_kana":"ナラケン","city":"奈良市","city_kana":"ナラシ","town":"帝塚山南","town_kana":"テヅカヤマミナミ","prefecture_code":29},"0051":{"zip_code":"6310051","prefecture":"奈良県","prefecture_kana":"ナラケン","city":"奈良市","city_kana":"ナラシ","town":"富雄泉ケ丘","town_kana":"トミオイズミガオカ","prefecture_code":29},"0077":{"zip_code":"6310077","prefecture":"奈良県","prefecture_kana":"ナラケン","city":"奈良市","city_kana":"ナラシ","town":"富雄川西","town_kana":"トミオカワニシ","prefecture_code":29},"0078":{"zip_code":"6310078","prefecture":"奈良県","prefecture_kana":"ナラケン","city":"奈良市","city_kana":"ナラシ","town":"富雄元町","town_kana":"トミオモトマチ","prefecture_code":29},"0076":{"zip_code":"6310076","prefecture":"奈良県","prefecture_kana":"ナラケン","city":"奈良市","city_kana":"ナラシ","town":"富雄北","town_kana":"トミオキタ","prefecture_code":29},"0004":{"zip_code":"6310004","prefecture":"奈良県","prefecture_kana":"ナラケン","city":"奈良市","city_kana":"ナラシ","town":"登美ケ丘","town_kana":"トミガオカ","prefecture_code":29},"0065":{"zip_code":"6310065","prefecture":"奈良県","prefecture_kana":"ナラケン","city":"奈良市","city_kana":"ナラシ","town":"鳥見町","town_kana":"トリミチョウ","prefecture_code":29},"0003":{"zip_code":"6310003","prefecture":"奈良県","prefecture_kana":"ナラケン","city":"奈良市","city_kana":"ナラシ","town":"中登美ケ丘","town_kana":"ナカトミガオカ","prefecture_code":29},"0052":{"zip_code":"6310052","prefecture":"奈良県","prefecture_kana":"ナラケン","city":"奈良市","city_kana":"ナラシ","town":"中町（その他）","town_kana":"ナカマチ(ソノタ)","prefecture_code":29},"0012":{"zip_code":"6310012","prefecture":"奈良県","prefecture_kana":"ナラケン","city":"奈良市","city_kana":"ナラシ","town":"中山町","town_kana":"ナカヤマチョウ","prefecture_code":29},"0013":{"zip_code":"6310013","prefecture":"奈良県","prefecture_kana":"ナラケン","city":"奈良市","city_kana":"ナラシ","town":"中山町西","town_kana":"ナカヤマチョウニシ","prefecture_code":29},"0046":{"zip_code":"6310046","prefecture":"奈良県","prefecture_kana":"ナラケン","city":"奈良市","city_kana":"ナラシ","town":"西千代ケ丘","town_kana":"ニシチヨガオカ","prefecture_code":29},"0006":{"zip_code":"6310006","prefecture":"奈良県","prefecture_kana":"ナラケン","city":"奈良市","city_kana":"ナラシ","town":"西登美ケ丘","town_kana":"ニシトミガオカ","prefecture_code":29},"0072":{"zip_code":"6310072","prefecture":"奈良県","prefecture_kana":"ナラケン","city":"奈良市","city_kana":"ナラシ","town":"二名","town_kana":"ニミョウ","prefecture_code":29},"0073":{"zip_code":"6310073","prefecture":"奈良県","prefecture_kana":"ナラケン","city":"奈良市","city_kana":"ナラシ","town":"二名東町","town_kana":"ニミョウヒガシマチ","prefecture_code":29},"0071":{"zip_code":"6310071","prefecture":"奈良県","prefecture_kana":"ナラケン","city":"奈良市","city_kana":"ナラシ","town":"二名平野","town_kana":"ニミョウヒラノ","prefecture_code":29},"0008":{"zip_code":"6310008","prefecture":"奈良県","prefecture_kana":"ナラケン","city":"奈良市","city_kana":"ナラシ","town":"二名町","town_kana":"ニミョウチョウ","prefecture_code":29},"0002":{"zip_code":"6310002","prefecture":"奈良県","prefecture_kana":"ナラケン","city":"奈良市","city_kana":"ナラシ","town":"東登美ケ丘","town_kana":"ヒガシトミガオカ","prefecture_code":29},"0843":{"zip_code":"6310843","prefecture":"奈良県","prefecture_kana":"ナラケン","city":"奈良市","city_kana":"ナラシ","town":"疋田町","town_kana":"ヒキダチョウ","prefecture_code":29},"0024":{"zip_code":"6310024","prefecture":"奈良県","prefecture_kana":"ナラケン","city":"奈良市","city_kana":"ナラシ","town":"百楽園","town_kana":"ヒャクラクエン","prefecture_code":29},"0846":{"zip_code":"6310846","prefecture":"奈良県","prefecture_kana":"ナラケン","city":"奈良市","city_kana":"ナラシ","town":"平松","town_kana":"ヒラマツ","prefecture_code":29},"0044":{"zip_code":"6310044","prefecture":"奈良県","prefecture_kana":"ナラケン","city":"奈良市","city_kana":"ナラシ","town":"藤ノ木台","town_kana":"フジノキダイ","prefecture_code":29},"0845":{"zip_code":"6310845","prefecture":"奈良県","prefecture_kana":"ナラケン","city":"奈良市","city_kana":"ナラシ","town":"宝来","town_kana":"ホウライ","prefecture_code":29},"0844":{"zip_code":"6310844","prefecture":"奈良県","prefecture_kana":"ナラケン","city":"奈良市","city_kana":"ナラシ","town":"宝来町","town_kana":"ホウライチョウ","prefecture_code":29},"0056":{"zip_code":"6310056","prefecture":"奈良県","prefecture_kana":"ナラケン","city":"奈良市","city_kana":"ナラシ","town":"丸山","town_kana":"マルヤマ","prefecture_code":29},"0803":{"zip_code":"6310803","prefecture":"奈良県","prefecture_kana":"ナラケン","city":"奈良市","city_kana":"ナラシ","town":"山陵町","town_kana":"ミササギチョウ","prefecture_code":29},"0061":[{"zip_code":"6310061","prefecture":"奈良県","prefecture_kana":"ナラケン","city":"奈良市","city_kana":"ナラシ","town":"三碓","town_kana":"ミツガラス","prefecture_code":29},{"zip_code":"6310061","prefecture":"奈良県","prefecture_kana":"ナラケン","city":"奈良市","city_kana":"ナラシ","town":"三碓町","town_kana":"ミツガラスチョウ","prefecture_code":29}],"0023":{"zip_code":"6310023","prefecture":"奈良県","prefecture_kana":"ナラケン","city":"奈良市","city_kana":"ナラシ","town":"南登美ケ丘","town_kana":"ミナミトミガオカ","prefecture_code":29},"0074":{"zip_code":"6310074","prefecture":"奈良県","prefecture_kana":"ナラケン","city":"奈良市","city_kana":"ナラシ","town":"三松","town_kana":"ミマツ","prefecture_code":29},"0075":{"zip_code":"6310075","prefecture":"奈良県","prefecture_kana":"ナラケン","city":"奈良市","city_kana":"ナラシ","town":"三松ケ丘","town_kana":"ミマツガオカ","prefecture_code":29},"0828":{"zip_code":"6310828","prefecture":"奈良県","prefecture_kana":"ナラケン","city":"奈良市","city_kana":"ナラシ","town":"横領町","town_kana":"ヨコリョウチョウ","prefecture_code":29},"0837":{"zip_code":"6310837","prefecture":"奈良県","prefecture_kana":"ナラケン","city":"奈良市","city_kana":"ナラシ","town":"若葉台","town_kana":"ワカバダイ","prefecture_code":29}}