{"0000":[{"zip_code":"6350000","prefecture":"奈良県","prefecture_kana":"ナラケン","city":"大和高田市","city_kana":"ヤマトタカダシ","town":"","town_kana":"","prefecture_code":29},{"zip_code":"6350000","prefecture":"奈良県","prefecture_kana":"ナラケン","city":"北葛城郡広陵町","city_kana":"キタカツラギグンコウリョウチョウ","town":"","town_kana":"","prefecture_code":29}],"0053":{"zip_code":"6350053","prefecture":"奈良県","prefecture_kana":"ナラケン","city":"大和高田市","city_kana":"ヤマトタカダシ","town":"秋吉","town_kana":"アキヨシ","prefecture_code":29},"0012":{"zip_code":"6350012","prefecture":"奈良県","prefecture_kana":"ナラケン","city":"大和高田市","city_kana":"ヤマトタカダシ","town":"曙町","town_kana":"アケボノチョウ","prefecture_code":29},"0035":{"zip_code":"6350035","prefecture":"奈良県","prefecture_kana":"ナラケン","city":"大和高田市","city_kana":"ヤマトタカダシ","town":"旭南町","town_kana":"アサヒミナミチョウ","prefecture_code":29},"0036":{"zip_code":"6350036","prefecture":"奈良県","prefecture_kana":"ナラケン","city":"大和高田市","city_kana":"ヤマトタカダシ","town":"旭北町","town_kana":"アサヒキタチョウ","prefecture_code":29},"0072":{"zip_code":"6350072","prefecture":"奈良県","prefecture_kana":"ナラケン","city":"大和高田市","city_kana":"ヤマトタカダシ","town":"有井","town_kana":"アリイ","prefecture_code":29},"0021":{"zip_code":"6350021","prefecture":"奈良県","prefecture_kana":"ナラケン","city":"大和高田市","city_kana":"ヤマトタカダシ","town":"池尻","town_kana":"イケジリ","prefecture_code":29},"0077":{"zip_code":"6350077","prefecture":"奈良県","prefecture_kana":"ナラケン","city":"大和高田市","city_kana":"ヤマトタカダシ","town":"池田","town_kana":"イケダ","prefecture_code":29},"0093":[{"zip_code":"6350093","prefecture":"奈良県","prefecture_kana":"ナラケン","city":"大和高田市","city_kana":"ヤマトタカダシ","town":"礒野","town_kana":"イソノ","prefecture_code":29},{"zip_code":"6350093","prefecture":"奈良県","prefecture_kana":"ナラケン","city":"大和高田市","city_kana":"ヤマトタカダシ","town":"礒野町","town_kana":"イソノチョウ","prefecture_code":29}],"0063":{"zip_code":"6350063","prefecture":"奈良県","prefecture_kana":"ナラケン","city":"大和高田市","city_kana":"ヤマトタカダシ","town":"礒野新町","town_kana":"イソノシンマチ","prefecture_code":29},"0061":{"zip_code":"6350061","prefecture":"奈良県","prefecture_kana":"ナラケン","city":"大和高田市","city_kana":"ヤマトタカダシ","town":"礒野東町","town_kana":"イソノヒガシチョウ","prefecture_code":29},"0062":{"zip_code":"6350062","prefecture":"奈良県","prefecture_kana":"ナラケン","city":"大和高田市","city_kana":"ヤマトタカダシ","town":"礒野南町","town_kana":"イソノミナミマチ","prefecture_code":29},"0094":{"zip_code":"6350094","prefecture":"奈良県","prefecture_kana":"ナラケン","city":"大和高田市","city_kana":"ヤマトタカダシ","town":"礒野北町","town_kana":"イソノキタチョウ","prefecture_code":29},"0074":{"zip_code":"6350074","prefecture":"奈良県","prefecture_kana":"ナラケン","city":"大和高田市","city_kana":"ヤマトタカダシ","town":"市場","town_kana":"イチバ","prefecture_code":29},"0043":{"zip_code":"6350043","prefecture":"奈良県","prefecture_kana":"ナラケン","city":"大和高田市","city_kana":"ヤマトタカダシ","town":"出","town_kana":"イデ","prefecture_code":29},"0031":[{"zip_code":"6350031","prefecture":"奈良県","prefecture_kana":"ナラケン","city":"大和高田市","city_kana":"ヤマトタカダシ","town":"今里","town_kana":"イマザト","prefecture_code":29},{"zip_code":"6350031","prefecture":"奈良県","prefecture_kana":"ナラケン","city":"大和高田市","city_kana":"ヤマトタカダシ","town":"今里町","town_kana":"イマザトチョウ","prefecture_code":29}],"0032":{"zip_code":"6350032","prefecture":"奈良県","prefecture_kana":"ナラケン","city":"大和高田市","city_kana":"ヤマトタカダシ","town":"今里川合方","town_kana":"イマザトカワイホウ","prefecture_code":29},"0087":{"zip_code":"6350087","prefecture":"奈良県","prefecture_kana":"ナラケン","city":"大和高田市","city_kana":"ヤマトタカダシ","town":"内本町","town_kana":"ウチホンマチ","prefecture_code":29},"0083":{"zip_code":"6350083","prefecture":"奈良県","prefecture_kana":"ナラケン","city":"大和高田市","city_kana":"ヤマトタカダシ","town":"永和町","town_kana":"エイワチョウ","prefecture_code":29},"0076":{"zip_code":"6350076","prefecture":"奈良県","prefecture_kana":"ナラケン","city":"大和高田市","city_kana":"ヤマトタカダシ","town":"大谷","town_kana":"オオタニ","prefecture_code":29},"0095":{"zip_code":"6350095","prefecture":"奈良県","prefecture_kana":"ナラケン","city":"大和高田市","city_kana":"ヤマトタカダシ","town":"大中","town_kana":"オオナカ","prefecture_code":29},"0091":{"zip_code":"6350091","prefecture":"奈良県","prefecture_kana":"ナラケン","city":"大和高田市","city_kana":"ヤマトタカダシ","town":"大中東町","town_kana":"オオナカヒガシチョウ","prefecture_code":29},"0092":{"zip_code":"6350092","prefecture":"奈良県","prefecture_kana":"ナラケン","city":"大和高田市","city_kana":"ヤマトタカダシ","town":"大中南町","town_kana":"オオナカミナミチョウ","prefecture_code":29},"0016":{"zip_code":"6350016","prefecture":"奈良県","prefecture_kana":"ナラケン","city":"大和高田市","city_kana":"ヤマトタカダシ","town":"大東町","town_kana":"オオヒガシチョウ","prefecture_code":29},"0073":{"zip_code":"6350073","prefecture":"奈良県","prefecture_kana":"ナラケン","city":"大和高田市","city_kana":"ヤマトタカダシ","town":"岡崎","town_kana":"オカザキ","prefecture_code":29},"0052":{"zip_code":"6350052","prefecture":"奈良県","prefecture_kana":"ナラケン","city":"大和高田市","city_kana":"ヤマトタカダシ","town":"奥田","town_kana":"オクダ","prefecture_code":29},"0042":{"zip_code":"6350042","prefecture":"奈良県","prefecture_kana":"ナラケン","city":"大和高田市","city_kana":"ヤマトタカダシ","town":"勝目","town_kana":"カジメ","prefecture_code":29},"0067":{"zip_code":"6350067","prefecture":"奈良県","prefecture_kana":"ナラケン","city":"大和高田市","city_kana":"ヤマトタカダシ","town":"春日町","town_kana":"カスガチョウ","prefecture_code":29},"0085":{"zip_code":"6350085","prefecture":"奈良県","prefecture_kana":"ナラケン","city":"大和高田市","city_kana":"ヤマトタカダシ","town":"片塩町","town_kana":"カタシオチョウ","prefecture_code":29},"0056":{"zip_code":"6350056","prefecture":"奈良県","prefecture_kana":"ナラケン","city":"大和高田市","city_kana":"ヤマトタカダシ","town":"甘田町","town_kana":"カンダチョウ","prefecture_code":29},"0084":{"zip_code":"6350084","prefecture":"奈良県","prefecture_kana":"ナラケン","city":"大和高田市","city_kana":"ヤマトタカダシ","town":"北片塩町","town_kana":"キタカタシオチョウ","prefecture_code":29},"0097":{"zip_code":"6350097","prefecture":"奈良県","prefecture_kana":"ナラケン","city":"大和高田市","city_kana":"ヤマトタカダシ","town":"北本町","town_kana":"キタホンマチ","prefecture_code":29},"0044":{"zip_code":"6350044","prefecture":"奈良県","prefecture_kana":"ナラケン","city":"大和高田市","city_kana":"ヤマトタカダシ","town":"蔵之宮町","town_kana":"クラノミヤチョウ","prefecture_code":29},"0011":{"zip_code":"6350011","prefecture":"奈良県","prefecture_kana":"ナラケン","city":"大和高田市","city_kana":"ヤマトタカダシ","town":"材木町","town_kana":"ザイモクチョウ","prefecture_code":29},"0015":{"zip_code":"6350015","prefecture":"奈良県","prefecture_kana":"ナラケン","city":"大和高田市","city_kana":"ヤマトタカダシ","town":"幸町","town_kana":"サイワイチョウ","prefecture_code":29},"0064":{"zip_code":"6350064","prefecture":"奈良県","prefecture_kana":"ナラケン","city":"大和高田市","city_kana":"ヤマトタカダシ","town":"栄町","town_kana":"サカエマチ","prefecture_code":29},"0014":{"zip_code":"6350014","prefecture":"奈良県","prefecture_kana":"ナラケン","city":"大和高田市","city_kana":"ヤマトタカダシ","town":"三和町","town_kana":"サンワチョウ","prefecture_code":29},"0017":{"zip_code":"6350017","prefecture":"奈良県","prefecture_kana":"ナラケン","city":"大和高田市","city_kana":"ヤマトタカダシ","town":"東雲町","town_kana":"シノノメチョウ","prefecture_code":29},"0013":{"zip_code":"6350013","prefecture":"奈良県","prefecture_kana":"ナラケン","city":"大和高田市","city_kana":"ヤマトタカダシ","town":"昭和町","town_kana":"ショウワチョウ","prefecture_code":29},"0025":{"zip_code":"6350025","prefecture":"奈良県","prefecture_kana":"ナラケン","city":"大和高田市","city_kana":"ヤマトタカダシ","town":"神楽","town_kana":"ジンラク","prefecture_code":29},"0026":{"zip_code":"6350026","prefecture":"奈良県","prefecture_kana":"ナラケン","city":"大和高田市","city_kana":"ヤマトタカダシ","town":"神楽","town_kana":"ジンラク","prefecture_code":29},"0055":{"zip_code":"6350055","prefecture":"奈良県","prefecture_kana":"ナラケン","city":"大和高田市","city_kana":"ヤマトタカダシ","town":"曽大根","town_kana":"ソオネ","prefecture_code":29},"0054":{"zip_code":"6350054","prefecture":"奈良県","prefecture_kana":"ナラケン","city":"大和高田市","city_kana":"ヤマトタカダシ","town":"曽大根","town_kana":"ソオネ","prefecture_code":29},"0041":{"zip_code":"6350041","prefecture":"奈良県","prefecture_kana":"ナラケン","city":"大和高田市","city_kana":"ヤマトタカダシ","town":"田井","town_kana":"タイ","prefecture_code":29},"0047":{"zip_code":"6350047","prefecture":"奈良県","prefecture_kana":"ナラケン","city":"大和高田市","city_kana":"ヤマトタカダシ","town":"田井新町","town_kana":"タイシンマチ","prefecture_code":29},"0081":{"zip_code":"6350081","prefecture":"奈良県","prefecture_kana":"ナラケン","city":"大和高田市","city_kana":"ヤマトタカダシ","town":"高砂町","town_kana":"タカサゴチョウ","prefecture_code":29},"0022":[{"zip_code":"6350022","prefecture":"奈良県","prefecture_kana":"ナラケン","city":"大和高田市","city_kana":"ヤマトタカダシ","town":"高田","town_kana":"タカダ","prefecture_code":29},{"zip_code":"6350022","prefecture":"奈良県","prefecture_kana":"ナラケン","city":"大和高田市","city_kana":"ヤマトタカダシ","town":"日之出町","town_kana":"ヒノデチョウ","prefecture_code":29}],"0071":{"zip_code":"6350071","prefecture":"奈良県","prefecture_kana":"ナラケン","city":"大和高田市","city_kana":"ヤマトタカダシ","town":"築山","town_kana":"ツキヤマ","prefecture_code":29},"0002":{"zip_code":"6350002","prefecture":"奈良県","prefecture_kana":"ナラケン","city":"大和高田市","city_kana":"ヤマトタカダシ","town":"土庫","town_kana":"ドンゴ","prefecture_code":29},"0003":{"zip_code":"6350003","prefecture":"奈良県","prefecture_kana":"ナラケン","city":"大和高田市","city_kana":"ヤマトタカダシ","town":"土庫","town_kana":"ドンゴ","prefecture_code":29},"0037":{"zip_code":"6350037","prefecture":"奈良県","prefecture_kana":"ナラケン","city":"大和高田市","city_kana":"ヤマトタカダシ","town":"中今里町","town_kana":"ナカイマザトチョウ","prefecture_code":29},"0045":{"zip_code":"6350045","prefecture":"奈良県","prefecture_kana":"ナラケン","city":"大和高田市","city_kana":"ヤマトタカダシ","town":"中三倉堂","town_kana":"ナカミクラドウ","prefecture_code":29},"0057":{"zip_code":"6350057","prefecture":"奈良県","prefecture_kana":"ナラケン","city":"大和高田市","city_kana":"ヤマトタカダシ","town":"南陽町","town_kana":"ナンヨウチョウ","prefecture_code":29},"0058":{"zip_code":"6350058","prefecture":"奈良県","prefecture_kana":"ナラケン","city":"大和高田市","city_kana":"ヤマトタカダシ","town":"西坊城","town_kana":"ニシボウジョウ","prefecture_code":29},"0096":{"zip_code":"6350096","prefecture":"奈良県","prefecture_kana":"ナラケン","city":"大和高田市","city_kana":"ヤマトタカダシ","town":"西町","town_kana":"ニシマチ","prefecture_code":29},"0046":{"zip_code":"6350046","prefecture":"奈良県","prefecture_kana":"ナラケン","city":"大和高田市","city_kana":"ヤマトタカダシ","town":"西三倉堂","town_kana":"ニシミクラドウ","prefecture_code":29},"0051":{"zip_code":"6350051","prefecture":"奈良県","prefecture_kana":"ナラケン","city":"大和高田市","city_kana":"ヤマトタカダシ","town":"根成柿","town_kana":"ネナリガキ","prefecture_code":29},"0075":{"zip_code":"6350075","prefecture":"奈良県","prefecture_kana":"ナラケン","city":"大和高田市","city_kana":"ヤマトタカダシ","town":"野口","town_kana":"ノグチ","prefecture_code":29},"0065":{"zip_code":"6350065","prefecture":"奈良県","prefecture_kana":"ナラケン","city":"大和高田市","city_kana":"ヤマトタカダシ","town":"東中","town_kana":"ヒガシナカ","prefecture_code":29},"0066":{"zip_code":"6350066","prefecture":"奈良県","prefecture_kana":"ナラケン","city":"大和高田市","city_kana":"ヤマトタカダシ","town":"東中","town_kana":"ヒガシナカ","prefecture_code":29},"0034":{"zip_code":"6350034","prefecture":"奈良県","prefecture_kana":"ナラケン","city":"大和高田市","city_kana":"ヤマトタカダシ","town":"東三倉堂町","town_kana":"ヒガシミクラドウチョウ","prefecture_code":29},"0023":{"zip_code":"6350023","prefecture":"奈良県","prefecture_kana":"ナラケン","city":"大和高田市","city_kana":"ヤマトタカダシ","town":"日之出東本町","town_kana":"ヒノデヒガシホンマチ","prefecture_code":29},"0024":{"zip_code":"6350024","prefecture":"奈良県","prefecture_kana":"ナラケン","city":"大和高田市","city_kana":"ヤマトタカダシ","town":"日之出西本町","town_kana":"ヒノデニシホンマチ","prefecture_code":29},"0004":{"zip_code":"6350004","prefecture":"奈良県","prefecture_kana":"ナラケン","city":"大和高田市","city_kana":"ヤマトタカダシ","town":"藤森","town_kana":"フジノモリ","prefecture_code":29},"0082":{"zip_code":"6350082","prefecture":"奈良県","prefecture_kana":"ナラケン","city":"大和高田市","city_kana":"ヤマトタカダシ","town":"本郷町","town_kana":"ホンゴウチョウ","prefecture_code":29},"0001":{"zip_code":"6350001","prefecture":"奈良県","prefecture_kana":"ナラケン","city":"大和高田市","city_kana":"ヤマトタカダシ","town":"松塚","town_kana":"マツヅカ","prefecture_code":29},"0033":{"zip_code":"6350033","prefecture":"奈良県","prefecture_kana":"ナラケン","city":"大和高田市","city_kana":"ヤマトタカダシ","town":"南今里町","town_kana":"ミナミイマザトチョウ","prefecture_code":29},"0086":{"zip_code":"6350086","prefecture":"奈良県","prefecture_kana":"ナラケン","city":"大和高田市","city_kana":"ヤマトタカダシ","town":"南本町","town_kana":"ミナミホンマチ","prefecture_code":29},"0059":{"zip_code":"6350059","prefecture":"奈良県","prefecture_kana":"ナラケン","city":"大和高田市","city_kana":"ヤマトタカダシ","town":"吉井","town_kana":"ヨシイ","prefecture_code":29},"0100":{"zip_code":"6350100","prefecture":"奈良県","prefecture_kana":"ナラケン","city":"高市郡高取町","city_kana":"タカイチグンタカトリチョウ","town":"","town_kana":"","prefecture_code":29},"0123":{"zip_code":"6350123","prefecture":"奈良県","prefecture_kana":"ナラケン","city":"高市郡高取町","city_kana":"タカイチグンタカトリチョウ","town":"市尾","town_kana":"イチオ","prefecture_code":29},"0144":{"zip_code":"6350144","prefecture":"奈良県","prefecture_kana":"ナラケン","city":"高市郡高取町","city_kana":"タカイチグンタカトリチョウ","town":"越智","town_kana":"オチ","prefecture_code":29},"0104":{"zip_code":"6350104","prefecture":"奈良県","prefecture_kana":"ナラケン","city":"高市郡高取町","city_kana":"タカイチグンタカトリチョウ","town":"上子島","town_kana":"カミコシマ","prefecture_code":29},"0152":{"zip_code":"6350152","prefecture":"奈良県","prefecture_kana":"ナラケン","city":"高市郡高取町","city_kana":"タカイチグンタカトリチョウ","town":"上土佐","town_kana":"カミトサ","prefecture_code":29},"0154":{"zip_code":"6350154","prefecture":"奈良県","prefecture_kana":"ナラケン","city":"高市郡高取町","city_kana":"タカイチグンタカトリチョウ","town":"観覚寺","town_kana":"カンガクジ","prefecture_code":29},"0133":{"zip_code":"6350133","prefecture":"奈良県","prefecture_kana":"ナラケン","city":"高市郡高取町","city_kana":"タカイチグンタカトリチョウ","town":"吉備","town_kana":"キビ","prefecture_code":29},"0143":{"zip_code":"6350143","prefecture":"奈良県","prefecture_kana":"ナラケン","city":"高市郡高取町","city_kana":"タカイチグンタカトリチョウ","town":"車木","town_kana":"クルマキ","prefecture_code":29},"0131":{"zip_code":"6350131","prefecture":"奈良県","prefecture_kana":"ナラケン","city":"高市郡高取町","city_kana":"タカイチグンタカトリチョウ","town":"佐田","town_kana":"サダ","prefecture_code":29},"0134":{"zip_code":"6350134","prefecture":"奈良県","prefecture_kana":"ナラケン","city":"高市郡高取町","city_kana":"タカイチグンタカトリチョウ","town":"薩摩","town_kana":"サツマ","prefecture_code":29},"0103":{"zip_code":"6350103","prefecture":"奈良県","prefecture_kana":"ナラケン","city":"高市郡高取町","city_kana":"タカイチグンタカトリチョウ","town":"清水谷","town_kana":"シミズタニ","prefecture_code":29},"0151":{"zip_code":"6350151","prefecture":"奈良県","prefecture_kana":"ナラケン","city":"高市郡高取町","city_kana":"タカイチグンタカトリチョウ","town":"下子島","town_kana":"シモコシマ","prefecture_code":29},"0153":{"zip_code":"6350153","prefecture":"奈良県","prefecture_kana":"ナラケン","city":"高市郡高取町","city_kana":"タカイチグンタカトリチョウ","town":"下土佐","town_kana":"シモトサ","prefecture_code":29},"0135":{"zip_code":"6350135","prefecture":"奈良県","prefecture_kana":"ナラケン","city":"高市郡高取町","city_kana":"タカイチグンタカトリチョウ","town":"田井庄","town_kana":"タイノショウ","prefecture_code":29},"0101":{"zip_code":"6350101","prefecture":"奈良県","prefecture_kana":"ナラケン","city":"高市郡高取町","city_kana":"タカイチグンタカトリチョウ","town":"高取","town_kana":"タカトリ","prefecture_code":29},"0102":{"zip_code":"6350102","prefecture":"奈良県","prefecture_kana":"ナラケン","city":"高市郡高取町","city_kana":"タカイチグンタカトリチョウ","town":"壺阪","town_kana":"ツボサカ","prefecture_code":29},"0142":{"zip_code":"6350142","prefecture":"奈良県","prefecture_kana":"ナラケン","city":"高市郡高取町","city_kana":"タカイチグンタカトリチョウ","town":"寺崎","town_kana":"テラサキ","prefecture_code":29},"0121":{"zip_code":"6350121","prefecture":"奈良県","prefecture_kana":"ナラケン","city":"高市郡高取町","city_kana":"タカイチグンタカトリチョウ","town":"丹生谷","town_kana":"ニウダニ","prefecture_code":29},"0136":{"zip_code":"6350136","prefecture":"奈良県","prefecture_kana":"ナラケン","city":"高市郡高取町","city_kana":"タカイチグンタカトリチョウ","town":"兵庫","town_kana":"ヒョウゴ","prefecture_code":29},"0112":{"zip_code":"6350112","prefecture":"奈良県","prefecture_kana":"ナラケン","city":"高市郡高取町","city_kana":"タカイチグンタカトリチョウ","town":"藤井","town_kana":"フジイ","prefecture_code":29},"0113":{"zip_code":"6350113","prefecture":"奈良県","prefecture_kana":"ナラケン","city":"高市郡高取町","city_kana":"タカイチグンタカトリチョウ","town":"羽内","town_kana":"ホウチ","prefecture_code":29},"0111":{"zip_code":"6350111","prefecture":"奈良県","prefecture_kana":"ナラケン","city":"高市郡高取町","city_kana":"タカイチグンタカトリチョウ","town":"松山","town_kana":"マツヤマ","prefecture_code":29},"0132":{"zip_code":"6350132","prefecture":"奈良県","prefecture_kana":"ナラケン","city":"高市郡高取町","city_kana":"タカイチグンタカトリチョウ","town":"森","town_kana":"モリ","prefecture_code":29},"0122":{"zip_code":"6350122","prefecture":"奈良県","prefecture_kana":"ナラケン","city":"高市郡高取町","city_kana":"タカイチグンタカトリチョウ","town":"谷田","town_kana":"ヤタ","prefecture_code":29},"0141":{"zip_code":"6350141","prefecture":"奈良県","prefecture_kana":"ナラケン","city":"高市郡高取町","city_kana":"タカイチグンタカトリチョウ","town":"与楽","town_kana":"ヨウラク","prefecture_code":29},"0825":{"zip_code":"6350825","prefecture":"奈良県","prefecture_kana":"ナラケン","city":"北葛城郡広陵町","city_kana":"キタカツラギグンコウリョウチョウ","town":"安部","town_kana":"アベ","prefecture_code":29},"0831":{"zip_code":"6350831","prefecture":"奈良県","prefecture_kana":"ナラケン","city":"北葛城郡広陵町","city_kana":"キタカツラギグンコウリョウチョウ","town":"馬見北","town_kana":"ウマミキタ","prefecture_code":29},"0832":{"zip_code":"6350832","prefecture":"奈良県","prefecture_kana":"ナラケン","city":"北葛城郡広陵町","city_kana":"キタカツラギグンコウリョウチョウ","town":"馬見中","town_kana":"ウマミナカ","prefecture_code":29},"0833":{"zip_code":"6350833","prefecture":"奈良県","prefecture_kana":"ナラケン","city":"北葛城郡広陵町","city_kana":"キタカツラギグンコウリョウチョウ","town":"馬見南","town_kana":"ウマミミナミ","prefecture_code":29},"0834":{"zip_code":"6350834","prefecture":"奈良県","prefecture_kana":"ナラケン","city":"北葛城郡広陵町","city_kana":"キタカツラギグンコウリョウチョウ","town":"大塚","town_kana":"オオツカ","prefecture_code":29},"0803":{"zip_code":"6350803","prefecture":"奈良県","prefecture_kana":"ナラケン","city":"北葛城郡広陵町","city_kana":"キタカツラギグンコウリョウチョウ","town":"大野","town_kana":"オオノ","prefecture_code":29},"0801":{"zip_code":"6350801","prefecture":"奈良県","prefecture_kana":"ナラケン","city":"北葛城郡広陵町","city_kana":"キタカツラギグンコウリョウチョウ","town":"大場","town_kana":"オオバ","prefecture_code":29},"0821":{"zip_code":"6350821","prefecture":"奈良県","prefecture_kana":"ナラケン","city":"北葛城郡広陵町","city_kana":"キタカツラギグンコウリョウチョウ","town":"笠","town_kana":"カサ","prefecture_code":29},"0805":{"zip_code":"6350805","prefecture":"奈良県","prefecture_kana":"ナラケン","city":"北葛城郡広陵町","city_kana":"キタカツラギグンコウリョウチョウ","town":"萱野","town_kana":"カヤノ","prefecture_code":29},"0813":{"zip_code":"6350813","prefecture":"奈良県","prefecture_kana":"ナラケン","city":"北葛城郡広陵町","city_kana":"キタカツラギグンコウリョウチョウ","town":"百済","town_kana":"クダラ","prefecture_code":29},"0815":{"zip_code":"6350815","prefecture":"奈良県","prefecture_kana":"ナラケン","city":"北葛城郡広陵町","city_kana":"キタカツラギグンコウリョウチョウ","town":"古寺","town_kana":"コデラ","prefecture_code":29},"0804":{"zip_code":"6350804","prefecture":"奈良県","prefecture_kana":"ナラケン","city":"北葛城郡広陵町","city_kana":"キタカツラギグンコウリョウチョウ","town":"沢","town_kana":"サワ","prefecture_code":29},"0817":{"zip_code":"6350817","prefecture":"奈良県","prefecture_kana":"ナラケン","city":"北葛城郡広陵町","city_kana":"キタカツラギグンコウリョウチョウ","town":"寺戸","town_kana":"テラド","prefecture_code":29},"0816":{"zip_code":"6350816","prefecture":"奈良県","prefecture_kana":"ナラケン","city":"北葛城郡広陵町","city_kana":"キタカツラギグンコウリョウチョウ","town":"中","town_kana":"ナカ","prefecture_code":29},"0814":{"zip_code":"6350814","prefecture":"奈良県","prefecture_kana":"ナラケン","city":"北葛城郡広陵町","city_kana":"キタカツラギグンコウリョウチョウ","town":"南郷","town_kana":"ナンゴウ","prefecture_code":29},"0824":{"zip_code":"6350824","prefecture":"奈良県","prefecture_kana":"ナラケン","city":"北葛城郡広陵町","city_kana":"キタカツラギグンコウリョウチョウ","town":"疋相","town_kana":"ヒキソ","prefecture_code":29},"0822":{"zip_code":"6350822","prefecture":"奈良県","prefecture_kana":"ナラケン","city":"北葛城郡広陵町","city_kana":"キタカツラギグンコウリョウチョウ","town":"平尾","town_kana":"ヒラオ","prefecture_code":29},"0812":{"zip_code":"6350812","prefecture":"奈良県","prefecture_kana":"ナラケン","city":"北葛城郡広陵町","city_kana":"キタカツラギグンコウリョウチョウ","town":"広瀬","town_kana":"ヒロセ","prefecture_code":29},"0811":{"zip_code":"6350811","prefecture":"奈良県","prefecture_kana":"ナラケン","city":"北葛城郡広陵町","city_kana":"キタカツラギグンコウリョウチョウ","town":"弁財天","town_kana":"ベザイテン","prefecture_code":29},"0802":{"zip_code":"6350802","prefecture":"奈良県","prefecture_kana":"ナラケン","city":"北葛城郡広陵町","city_kana":"キタカツラギグンコウリョウチョウ","town":"的場","town_kana":"マトバ","prefecture_code":29},"0835":{"zip_code":"6350835","prefecture":"奈良県","prefecture_kana":"ナラケン","city":"北葛城郡広陵町","city_kana":"キタカツラギグンコウリョウチョウ","town":"みささぎ台","town_kana":"ミササギダイ","prefecture_code":29},"0823":{"zip_code":"6350823","prefecture":"奈良県","prefecture_kana":"ナラケン","city":"北葛城郡広陵町","city_kana":"キタカツラギグンコウリョウチョウ","town":"三吉","town_kana":"ミツヨシ","prefecture_code":29},"0818":{"zip_code":"6350818","prefecture":"奈良県","prefecture_kana":"ナラケン","city":"北葛城郡広陵町","city_kana":"キタカツラギグンコウリョウチョウ","town":"南","town_kana":"ミナミ","prefecture_code":29}}