{"0000":[{"zip_code":"6360000","prefecture":"奈良県","prefecture_kana":"ナラケン","city":"生駒郡平群町","city_kana":"イコマグンヘグリチョウ","town":"","town_kana":"","prefecture_code":29},{"zip_code":"6360000","prefecture":"奈良県","prefecture_kana":"ナラケン","city":"生駒郡三郷町","city_kana":"イコマグンサンゴウチョウ","town":"","town_kana":"","prefecture_code":29},{"zip_code":"6360000","prefecture":"奈良県","prefecture_kana":"ナラケン","city":"北葛城郡王寺町","city_kana":"キタカツラギグンオウジチョウ","town":"","town_kana":"","prefecture_code":29},{"zip_code":"6360000","prefecture":"奈良県","prefecture_kana":"ナラケン","city":"北葛城郡河合町","city_kana":"キタカツラギグンカワイチョウ","town":"","town_kana":"","prefecture_code":29}],"0944":{"zip_code":"6360944","prefecture":"奈良県","prefecture_kana":"ナラケン","city":"生駒郡平群町","city_kana":"イコマグンヘグリチョウ","town":"櫟原","town_kana":"イチハラ","prefecture_code":29},"0915":{"zip_code":"6360915","prefecture":"奈良県","prefecture_kana":"ナラケン","city":"生駒郡平群町","city_kana":"イコマグンヘグリチョウ","town":"春日丘","town_kana":"カスガオカ","prefecture_code":29},"0905":{"zip_code":"6360905","prefecture":"奈良県","prefecture_kana":"ナラケン","city":"生駒郡平群町","city_kana":"イコマグンヘグリチョウ","town":"上庄","town_kana":"カミショウ","prefecture_code":29},"0906":{"zip_code":"6360906","prefecture":"奈良県","prefecture_kana":"ナラケン","city":"生駒郡平群町","city_kana":"イコマグンヘグリチョウ","town":"菊美台","town_kana":"キクミダイ","prefecture_code":29},"0913":{"zip_code":"6360913","prefecture":"奈良県","prefecture_kana":"ナラケン","city":"生駒郡平群町","city_kana":"イコマグンヘグリチョウ","town":"北信貴ケ丘","town_kana":"キタシギガオカ","prefecture_code":29},"0924":{"zip_code":"6360924","prefecture":"奈良県","prefecture_kana":"ナラケン","city":"生駒郡平群町","city_kana":"イコマグンヘグリチョウ","town":"久安寺","town_kana":"キュウアンジ","prefecture_code":29},"0925":{"zip_code":"6360925","prefecture":"奈良県","prefecture_kana":"ナラケン","city":"生駒郡平群町","city_kana":"イコマグンヘグリチョウ","town":"越木塚","town_kana":"コシキヅカ","prefecture_code":29},"0923":{"zip_code":"6360923","prefecture":"奈良県","prefecture_kana":"ナラケン","city":"生駒郡平群町","city_kana":"イコマグンヘグリチョウ","town":"信貴山","town_kana":"シギサン","prefecture_code":29},"0922":{"zip_code":"6360922","prefecture":"奈良県","prefecture_kana":"ナラケン","city":"生駒郡平群町","city_kana":"イコマグンヘグリチョウ","town":"信貴畑","town_kana":"シギハタ","prefecture_code":29},"0901":{"zip_code":"6360901","prefecture":"奈良県","prefecture_kana":"ナラケン","city":"生駒郡平群町","city_kana":"イコマグンヘグリチョウ","town":"椣原","town_kana":"シデハラ","prefecture_code":29},"0933":{"zip_code":"6360933","prefecture":"奈良県","prefecture_kana":"ナラケン","city":"生駒郡平群町","city_kana":"イコマグンヘグリチョウ","town":"下垣内","town_kana":"シモガイト","prefecture_code":29},"0902":{"zip_code":"6360902","prefecture":"奈良県","prefecture_kana":"ナラケン","city":"生駒郡平群町","city_kana":"イコマグンヘグリチョウ","town":"白石畑","town_kana":"シライシバタ","prefecture_code":29},"0912":{"zip_code":"6360912","prefecture":"奈良県","prefecture_kana":"ナラケン","city":"生駒郡平群町","city_kana":"イコマグンヘグリチョウ","town":"竜田川","town_kana":"タツタガワ","prefecture_code":29},"0911":{"zip_code":"6360911","prefecture":"奈良県","prefecture_kana":"ナラケン","city":"生駒郡平群町","city_kana":"イコマグンヘグリチョウ","town":"椿井","town_kana":"ツバイ","prefecture_code":29},"0943":{"zip_code":"6360943","prefecture":"奈良県","prefecture_kana":"ナラケン","city":"生駒郡平群町","city_kana":"イコマグンヘグリチョウ","town":"椿台","town_kana":"ツバキダイ","prefecture_code":29},"0931":{"zip_code":"6360931","prefecture":"奈良県","prefecture_kana":"ナラケン","city":"生駒郡平群町","city_kana":"イコマグンヘグリチョウ","town":"梨本","town_kana":"ナシモト","prefecture_code":29},"0945":{"zip_code":"6360945","prefecture":"奈良県","prefecture_kana":"ナラケン","city":"生駒郡平群町","city_kana":"イコマグンヘグリチョウ","town":"鳴川","town_kana":"ナルカワ","prefecture_code":29},"0914":{"zip_code":"6360914","prefecture":"奈良県","prefecture_kana":"ナラケン","city":"生駒郡平群町","city_kana":"イコマグンヘグリチョウ","town":"西宮","town_kana":"ニシノミヤ","prefecture_code":29},"0942":{"zip_code":"6360942","prefecture":"奈良県","prefecture_kana":"ナラケン","city":"生駒郡平群町","city_kana":"イコマグンヘグリチョウ","town":"西向","town_kana":"ニシムカイ","prefecture_code":29},"0934":{"zip_code":"6360934","prefecture":"奈良県","prefecture_kana":"ナラケン","city":"生駒郡平群町","city_kana":"イコマグンヘグリチョウ","town":"初香台","town_kana":"ハツカダイ","prefecture_code":29},"0935":{"zip_code":"6360935","prefecture":"奈良県","prefecture_kana":"ナラケン","city":"生駒郡平群町","city_kana":"イコマグンヘグリチョウ","town":"光ケ丘","town_kana":"ヒカリガオカ","prefecture_code":29},"0903":{"zip_code":"6360903","prefecture":"奈良県","prefecture_kana":"ナラケン","city":"生駒郡平群町","city_kana":"イコマグンヘグリチョウ","town":"平等寺","town_kana":"ビョウドウジ","prefecture_code":29},"0936":{"zip_code":"6360936","prefecture":"奈良県","prefecture_kana":"ナラケン","city":"生駒郡平群町","city_kana":"イコマグンヘグリチョウ","town":"福貴","town_kana":"フキ","prefecture_code":29},"0937":{"zip_code":"6360937","prefecture":"奈良県","prefecture_kana":"ナラケン","city":"生駒郡平群町","city_kana":"イコマグンヘグリチョウ","town":"福貴畑","town_kana":"フキハタ","prefecture_code":29},"0921":{"zip_code":"6360921","prefecture":"奈良県","prefecture_kana":"ナラケン","city":"生駒郡平群町","city_kana":"イコマグンヘグリチョウ","town":"椹原","town_kana":"フシハラ","prefecture_code":29},"0904":{"zip_code":"6360904","prefecture":"奈良県","prefecture_kana":"ナラケン","city":"生駒郡平群町","city_kana":"イコマグンヘグリチョウ","town":"三里","town_kana":"ミサト","prefecture_code":29},"0941":{"zip_code":"6360941","prefecture":"奈良県","prefecture_kana":"ナラケン","city":"生駒郡平群町","city_kana":"イコマグンヘグリチョウ","town":"緑ケ丘","town_kana":"ミドリガオカ","prefecture_code":29},"0932":{"zip_code":"6360932","prefecture":"奈良県","prefecture_kana":"ナラケン","city":"生駒郡平群町","city_kana":"イコマグンヘグリチョウ","town":"吉新","town_kana":"ヨシシン","prefecture_code":29},"0916":{"zip_code":"6360916","prefecture":"奈良県","prefecture_kana":"ナラケン","city":"生駒郡平群町","city_kana":"イコマグンヘグリチョウ","town":"若井","town_kana":"ワカイ","prefecture_code":29},"0938":{"zip_code":"6360938","prefecture":"奈良県","prefecture_kana":"ナラケン","city":"生駒郡平群町","city_kana":"イコマグンヘグリチョウ","town":"若葉台","town_kana":"ワカバダイ","prefecture_code":29},"0813":{"zip_code":"6360813","prefecture":"奈良県","prefecture_kana":"ナラケン","city":"生駒郡三郷町","city_kana":"イコマグンサンゴウチョウ","town":"信貴ケ丘","town_kana":"シギガオカ","prefecture_code":29},"0831":{"zip_code":"6360831","prefecture":"奈良県","prefecture_kana":"ナラケン","city":"生駒郡三郷町","city_kana":"イコマグンサンゴウチョウ","town":"信貴山東","town_kana":"シギサンヒガシ","prefecture_code":29},"0832":{"zip_code":"6360832","prefecture":"奈良県","prefecture_kana":"ナラケン","city":"生駒郡三郷町","city_kana":"イコマグンサンゴウチョウ","town":"信貴山西","town_kana":"シギサンニシ","prefecture_code":29},"0833":{"zip_code":"6360833","prefecture":"奈良県","prefecture_kana":"ナラケン","city":"生駒郡三郷町","city_kana":"イコマグンサンゴウチョウ","town":"信貴南畑","town_kana":"シギミナミハタ","prefecture_code":29},"0824":{"zip_code":"6360824","prefecture":"奈良県","prefecture_kana":"ナラケン","city":"生駒郡三郷町","city_kana":"イコマグンサンゴウチョウ","town":"城山台","town_kana":"シロヤマダイ","prefecture_code":29},"0814":{"zip_code":"6360814","prefecture":"奈良県","prefecture_kana":"ナラケン","city":"生駒郡三郷町","city_kana":"イコマグンサンゴウチョウ","town":"勢野","town_kana":"セヤ","prefecture_code":29},"0815":{"zip_code":"6360815","prefecture":"奈良県","prefecture_kana":"ナラケン","city":"生駒郡三郷町","city_kana":"イコマグンサンゴウチョウ","town":"勢野北","town_kana":"セヤキタ","prefecture_code":29},"0811":{"zip_code":"6360811","prefecture":"奈良県","prefecture_kana":"ナラケン","city":"生駒郡三郷町","city_kana":"イコマグンサンゴウチョウ","town":"勢野東","town_kana":"セヤヒガシ","prefecture_code":29},"0812":{"zip_code":"6360812","prefecture":"奈良県","prefecture_kana":"ナラケン","city":"生駒郡三郷町","city_kana":"イコマグンサンゴウチョウ","town":"勢野西","town_kana":"セヤニシ","prefecture_code":29},"0823":{"zip_code":"6360823","prefecture":"奈良県","prefecture_kana":"ナラケン","city":"生駒郡三郷町","city_kana":"イコマグンサンゴウチョウ","town":"立野","town_kana":"タツノ","prefecture_code":29},"0822":{"zip_code":"6360822","prefecture":"奈良県","prefecture_kana":"ナラケン","city":"生駒郡三郷町","city_kana":"イコマグンサンゴウチョウ","town":"立野南","town_kana":"タツノミナミ","prefecture_code":29},"0821":{"zip_code":"6360821","prefecture":"奈良県","prefecture_kana":"ナラケン","city":"生駒郡三郷町","city_kana":"イコマグンサンゴウチョウ","town":"立野北","town_kana":"タツノキタ","prefecture_code":29},"0803":{"zip_code":"6360803","prefecture":"奈良県","prefecture_kana":"ナラケン","city":"生駒郡三郷町","city_kana":"イコマグンサンゴウチョウ","town":"東信貴ケ丘","town_kana":"ヒガシシギガオカ","prefecture_code":29},"0834":{"zip_code":"6360834","prefecture":"奈良県","prefecture_kana":"ナラケン","city":"生駒郡三郷町","city_kana":"イコマグンサンゴウチョウ","town":"南畑","town_kana":"ミナミハタ","prefecture_code":29},"0805":{"zip_code":"6360805","prefecture":"奈良県","prefecture_kana":"ナラケン","city":"生駒郡三郷町","city_kana":"イコマグンサンゴウチョウ","town":"美松ケ丘東","town_kana":"ミマツガオカヒガシ","prefecture_code":29},"0804":{"zip_code":"6360804","prefecture":"奈良県","prefecture_kana":"ナラケン","city":"生駒郡三郷町","city_kana":"イコマグンサンゴウチョウ","town":"美松ケ丘西","town_kana":"ミマツガオカニシ","prefecture_code":29},"0802":{"zip_code":"6360802","prefecture":"奈良県","prefecture_kana":"ナラケン","city":"生駒郡三郷町","city_kana":"イコマグンサンゴウチョウ","town":"三室","town_kana":"ミムロ","prefecture_code":29},"0801":{"zip_code":"6360801","prefecture":"奈良県","prefecture_kana":"ナラケン","city":"生駒郡三郷町","city_kana":"イコマグンサンゴウチョウ","town":"夕陽ケ丘","town_kana":"ユウヒガオカ","prefecture_code":29},"0100":{"zip_code":"6360100","prefecture":"奈良県","prefecture_kana":"ナラケン","city":"生駒郡斑鳩町","city_kana":"イコマグンイカルガチョウ","town":"","town_kana":"","prefecture_code":29},"0122":{"zip_code":"6360122","prefecture":"奈良県","prefecture_kana":"ナラケン","city":"生駒郡斑鳩町","city_kana":"イコマグンイカルガチョウ","town":"阿波","town_kana":"アワ","prefecture_code":29},"0124":{"zip_code":"6360124","prefecture":"奈良県","prefecture_kana":"ナラケン","city":"生駒郡斑鳩町","city_kana":"イコマグンイカルガチョウ","town":"五百井","town_kana":"イオイ","prefecture_code":29},"0144":{"zip_code":"6360144","prefecture":"奈良県","prefecture_kana":"ナラケン","city":"生駒郡斑鳩町","city_kana":"イコマグンイカルガチョウ","town":"稲葉西","town_kana":"イナバニシ","prefecture_code":29},"0141":{"zip_code":"6360141","prefecture":"奈良県","prefecture_kana":"ナラケン","city":"生駒郡斑鳩町","city_kana":"イコマグンイカルガチョウ","town":"稲葉車瀬","town_kana":"イナバクルマセ","prefecture_code":29},"0102":{"zip_code":"6360102","prefecture":"奈良県","prefecture_kana":"ナラケン","city":"生駒郡斑鳩町","city_kana":"イコマグンイカルガチョウ","town":"岡本","town_kana":"オカモト","prefecture_code":29},"0123":{"zip_code":"6360123","prefecture":"奈良県","prefecture_kana":"ナラケン","city":"生駒郡斑鳩町","city_kana":"イコマグンイカルガチョウ","town":"興留","town_kana":"オキドメ","prefecture_code":29},"0121":{"zip_code":"6360121","prefecture":"奈良県","prefecture_kana":"ナラケン","city":"生駒郡斑鳩町","city_kana":"イコマグンイカルガチョウ","town":"興留東","town_kana":"オキドメヒガシ","prefecture_code":29},"0103":{"zip_code":"6360103","prefecture":"奈良県","prefecture_kana":"ナラケン","city":"生駒郡斑鳩町","city_kana":"イコマグンイカルガチョウ","town":"幸前","town_kana":"コウゼン","prefecture_code":29},"0142":{"zip_code":"6360142","prefecture":"奈良県","prefecture_kana":"ナラケン","city":"生駒郡斑鳩町","city_kana":"イコマグンイカルガチョウ","town":"小吉田","town_kana":"コヨシダ","prefecture_code":29},"0143":{"zip_code":"6360143","prefecture":"奈良県","prefecture_kana":"ナラケン","city":"生駒郡斑鳩町","city_kana":"イコマグンイカルガチョウ","town":"神南","town_kana":"ジンナン","prefecture_code":29},"0104":{"zip_code":"6360104","prefecture":"奈良県","prefecture_kana":"ナラケン","city":"生駒郡斑鳩町","city_kana":"イコマグンイカルガチョウ","town":"高安","town_kana":"タカヤス","prefecture_code":29},"0106":{"zip_code":"6360106","prefecture":"奈良県","prefecture_kana":"ナラケン","city":"生駒郡斑鳩町","city_kana":"イコマグンイカルガチョウ","town":"高安西","town_kana":"タカヤスニシ","prefecture_code":29},"0152":{"zip_code":"6360152","prefecture":"奈良県","prefecture_kana":"ナラケン","city":"生駒郡斑鳩町","city_kana":"イコマグンイカルガチョウ","town":"龍田","town_kana":"タツタ","prefecture_code":29},"0154":{"zip_code":"6360154","prefecture":"奈良県","prefecture_kana":"ナラケン","city":"生駒郡斑鳩町","city_kana":"イコマグンイカルガチョウ","town":"龍田西","town_kana":"タツタニシ","prefecture_code":29},"0153":{"zip_code":"6360153","prefecture":"奈良県","prefecture_kana":"ナラケン","city":"生駒郡斑鳩町","city_kana":"イコマグンイカルガチョウ","town":"龍田南","town_kana":"タツタミナミ","prefecture_code":29},"0151":{"zip_code":"6360151","prefecture":"奈良県","prefecture_kana":"ナラケン","city":"生駒郡斑鳩町","city_kana":"イコマグンイカルガチョウ","town":"龍田北","town_kana":"タツタキタ","prefecture_code":29},"0105":{"zip_code":"6360105","prefecture":"奈良県","prefecture_kana":"ナラケン","city":"生駒郡斑鳩町","city_kana":"イコマグンイカルガチョウ","town":"東福寺","town_kana":"トウフクジ","prefecture_code":29},"0131":{"zip_code":"6360131","prefecture":"奈良県","prefecture_kana":"ナラケン","city":"生駒郡斑鳩町","city_kana":"イコマグンイカルガチョウ","town":"服部","town_kana":"ハットリ","prefecture_code":29},"0116":{"zip_code":"6360116","prefecture":"奈良県","prefecture_kana":"ナラケン","city":"生駒郡斑鳩町","city_kana":"イコマグンイカルガチョウ","town":"法隆寺","town_kana":"ホウリュウジ","prefecture_code":29},"0115":{"zip_code":"6360115","prefecture":"奈良県","prefecture_kana":"ナラケン","city":"生駒郡斑鳩町","city_kana":"イコマグンイカルガチョウ","town":"法隆寺山内","town_kana":"ホウリュウジサンナイ","prefecture_code":29},"0112":{"zip_code":"6360112","prefecture":"奈良県","prefecture_kana":"ナラケン","city":"生駒郡斑鳩町","city_kana":"イコマグンイカルガチョウ","town":"法隆寺東","town_kana":"ホウリュウジヒガシ","prefecture_code":29},"0114":{"zip_code":"6360114","prefecture":"奈良県","prefecture_kana":"ナラケン","city":"生駒郡斑鳩町","city_kana":"イコマグンイカルガチョウ","town":"法隆寺西","town_kana":"ホウリュウジニシ","prefecture_code":29},"0113":{"zip_code":"6360113","prefecture":"奈良県","prefecture_kana":"ナラケン","city":"生駒郡斑鳩町","city_kana":"イコマグンイカルガチョウ","town":"法隆寺南","town_kana":"ホウリュウジミナミ","prefecture_code":29},"0111":{"zip_code":"6360111","prefecture":"奈良県","prefecture_kana":"ナラケン","city":"生駒郡斑鳩町","city_kana":"イコマグンイカルガチョウ","town":"法隆寺北","town_kana":"ホウリュウジキタ","prefecture_code":29},"0101":{"zip_code":"6360101","prefecture":"奈良県","prefecture_kana":"ナラケン","city":"生駒郡斑鳩町","city_kana":"イコマグンイカルガチョウ","town":"三井","town_kana":"ミイ","prefecture_code":29},"0132":{"zip_code":"6360132","prefecture":"奈良県","prefecture_kana":"ナラケン","city":"生駒郡斑鳩町","city_kana":"イコマグンイカルガチョウ","town":"目安","town_kana":"メヤス","prefecture_code":29},"0133":{"zip_code":"6360133","prefecture":"奈良県","prefecture_kana":"ナラケン","city":"生駒郡斑鳩町","city_kana":"イコマグンイカルガチョウ","town":"目安北","town_kana":"メヤスキタ","prefecture_code":29},"0300":[{"zip_code":"6360300","prefecture":"奈良県","prefecture_kana":"ナラケン","city":"磯城郡川西町","city_kana":"シキグンカワニシチョウ","town":"","town_kana":"","prefecture_code":29},{"zip_code":"6360300","prefecture":"奈良県","prefecture_kana":"ナラケン","city":"磯城郡三宅町","city_kana":"シキグンミヤケチョウ","town":"","town_kana":"","prefecture_code":29},{"zip_code":"6360300","prefecture":"奈良県","prefecture_kana":"ナラケン","city":"磯城郡田原本町","city_kana":"シキグンタワラモトチョウ","town":"","town_kana":"","prefecture_code":29}],"0203":{"zip_code":"6360203","prefecture":"奈良県","prefecture_kana":"ナラケン","city":"磯城郡川西町","city_kana":"シキグンカワニシチョウ","town":"梅戸","town_kana":"ウメド","prefecture_code":29},"0201":{"zip_code":"6360201","prefecture":"奈良県","prefecture_kana":"ナラケン","city":"磯城郡川西町","city_kana":"シキグンカワニシチョウ","town":"下永","town_kana":"シモナガ","prefecture_code":29},"0204":{"zip_code":"6360204","prefecture":"奈良県","prefecture_kana":"ナラケン","city":"磯城郡川西町","city_kana":"シキグンカワニシチョウ","town":"唐院","town_kana":"トウイン","prefecture_code":29},"0206":{"zip_code":"6360206","prefecture":"奈良県","prefecture_kana":"ナラケン","city":"磯城郡川西町","city_kana":"シキグンカワニシチョウ","town":"吐田","town_kana":"ハンダ","prefecture_code":29},"0205":{"zip_code":"6360205","prefecture":"奈良県","prefecture_kana":"ナラケン","city":"磯城郡川西町","city_kana":"シキグンカワニシチョウ","town":"保田","town_kana":"ホタ","prefecture_code":29},"0202":{"zip_code":"6360202","prefecture":"奈良県","prefecture_kana":"ナラケン","city":"磯城郡川西町","city_kana":"シキグンカワニシチョウ","town":"結崎","town_kana":"ユウザキ","prefecture_code":29},"0212":{"zip_code":"6360212","prefecture":"奈良県","prefecture_kana":"ナラケン","city":"磯城郡三宅町","city_kana":"シキグンミヤケチョウ","town":"石見","town_kana":"イワミ","prefecture_code":29},"0216":{"zip_code":"6360216","prefecture":"奈良県","prefecture_kana":"ナラケン","city":"磯城郡三宅町","city_kana":"シキグンミヤケチョウ","town":"小柳","town_kana":"オヤナギ","prefecture_code":29},"0215":{"zip_code":"6360215","prefecture":"奈良県","prefecture_kana":"ナラケン","city":"磯城郡三宅町","city_kana":"シキグンミヤケチョウ","town":"上但馬","town_kana":"カミタジマ","prefecture_code":29},"0214":{"zip_code":"6360214","prefecture":"奈良県","prefecture_kana":"ナラケン","city":"磯城郡三宅町","city_kana":"シキグンミヤケチョウ","town":"但馬","town_kana":"タジマ","prefecture_code":29},"0213":{"zip_code":"6360213","prefecture":"奈良県","prefecture_kana":"ナラケン","city":"磯城郡三宅町","city_kana":"シキグンミヤケチョウ","town":"伴堂","town_kana":"トモンドウ","prefecture_code":29},"0217":{"zip_code":"6360217","prefecture":"奈良県","prefecture_kana":"ナラケン","city":"磯城郡三宅町","city_kana":"シキグンミヤケチョウ","town":"屏風","town_kana":"ビョウブ","prefecture_code":29},"0211":{"zip_code":"6360211","prefecture":"奈良県","prefecture_kana":"ナラケン","city":"磯城郡三宅町","city_kana":"シキグンミヤケチョウ","town":"三河","town_kana":"ミカワ","prefecture_code":29},"0313":{"zip_code":"6360313","prefecture":"奈良県","prefecture_kana":"ナラケン","city":"磯城郡田原本町","city_kana":"シキグンタワラモトチョウ","town":"旭町","town_kana":"アサヒマチ","prefecture_code":29},"0245":{"zip_code":"6360245","prefecture":"奈良県","prefecture_kana":"ナラケン","city":"磯城郡田原本町","city_kana":"シキグンタワラモトチョウ","town":"味間","town_kana":"アジマ","prefecture_code":29},"0329":{"zip_code":"6360329","prefecture":"奈良県","prefecture_kana":"ナラケン","city":"磯城郡田原本町","city_kana":"シキグンタワラモトチョウ","town":"味間町","town_kana":"アジママチ","prefecture_code":29},"0332":{"zip_code":"6360332","prefecture":"奈良県","prefecture_kana":"ナラケン","city":"磯城郡田原本町","city_kana":"シキグンタワラモトチョウ","town":"市町","town_kana":"イチマチ","prefecture_code":29},"0224":{"zip_code":"6360224","prefecture":"奈良県","prefecture_kana":"ナラケン","city":"磯城郡田原本町","city_kana":"シキグンタワラモトチョウ","town":"今里","town_kana":"イマザト","prefecture_code":29},"0243":{"zip_code":"6360243","prefecture":"奈良県","prefecture_kana":"ナラケン","city":"磯城郡田原本町","city_kana":"シキグンタワラモトチョウ","town":"伊与戸","town_kana":"イヨド","prefecture_code":29},"0331":{"zip_code":"6360331","prefecture":"奈良県","prefecture_kana":"ナラケン","city":"磯城郡田原本町","city_kana":"シキグンタワラモトチョウ","town":"魚町","town_kana":"ウオマチ","prefecture_code":29},"0314":{"zip_code":"6360314","prefecture":"奈良県","prefecture_kana":"ナラケン","city":"磯城郡田原本町","city_kana":"シキグンタワラモトチョウ","town":"戎通","town_kana":"エビスドオリ","prefecture_code":29},"0345":{"zip_code":"6360345","prefecture":"奈良県","prefecture_kana":"ナラケン","city":"磯城郡田原本町","city_kana":"シキグンタワラモトチョウ","town":"多","town_kana":"オオ","prefecture_code":29},"0353":{"zip_code":"6360353","prefecture":"奈良県","prefecture_kana":"ナラケン","city":"磯城郡田原本町","city_kana":"シキグンタワラモトチョウ","town":"大網","town_kana":"オオアミ","prefecture_code":29},"0242":{"zip_code":"6360242","prefecture":"奈良県","prefecture_kana":"ナラケン","city":"磯城郡田原本町","city_kana":"シキグンタワラモトチョウ","town":"大木","town_kana":"オオギ","prefecture_code":29},"0223":{"zip_code":"6360223","prefecture":"奈良県","prefecture_kana":"ナラケン","city":"磯城郡田原本町","city_kana":"シキグンタワラモトチョウ","town":"鍵","town_kana":"カギ","prefecture_code":29},"0322":{"zip_code":"6360322","prefecture":"奈良県","prefecture_kana":"ナラケン","city":"磯城郡田原本町","city_kana":"シキグンタワラモトチョウ","town":"郭内","town_kana":"カクナイ","prefecture_code":29},"0244":{"zip_code":"6360244","prefecture":"奈良県","prefecture_kana":"ナラケン","city":"磯城郡田原本町","city_kana":"シキグンタワラモトチョウ","town":"笠形","town_kana":"カサガタ","prefecture_code":29},"0232":{"zip_code":"6360232","prefecture":"奈良県","prefecture_kana":"ナラケン","city":"磯城郡田原本町","city_kana":"シキグンタワラモトチョウ","town":"金沢","town_kana":"カナザワ","prefecture_code":29},"0226":{"zip_code":"6360226","prefecture":"奈良県","prefecture_kana":"ナラケン","city":"磯城郡田原本町","city_kana":"シキグンタワラモトチョウ","town":"唐古","town_kana":"カラコ","prefecture_code":29},"0333":{"zip_code":"6360333","prefecture":"奈良県","prefecture_kana":"ナラケン","city":"磯城郡田原本町","city_kana":"シキグンタワラモトチョウ","town":"祗園町","town_kana":"ギオンマチ","prefecture_code":29},"0234":{"zip_code":"6360234","prefecture":"奈良県","prefecture_kana":"ナラケン","city":"磯城郡田原本町","city_kana":"シキグンタワラモトチョウ","town":"蔵堂","town_kana":"クラドウ","prefecture_code":29},"0301":{"zip_code":"6360301","prefecture":"奈良県","prefecture_kana":"ナラケン","city":"磯城郡田原本町","city_kana":"シキグンタワラモトチョウ","town":"黒田","town_kana":"クロダ","prefecture_code":29},"0237":{"zip_code":"6360237","prefecture":"奈良県","prefecture_kana":"ナラケン","city":"磯城郡田原本町","city_kana":"シキグンタワラモトチョウ","town":"小阪","town_kana":"コサカ","prefecture_code":29},"0339":{"zip_code":"6360339","prefecture":"奈良県","prefecture_kana":"ナラケン","city":"磯城郡田原本町","city_kana":"シキグンタワラモトチョウ","town":"小室","town_kana":"コムロ","prefecture_code":29},"0352":{"zip_code":"6360352","prefecture":"奈良県","prefecture_kana":"ナラケン","city":"磯城郡田原本町","city_kana":"シキグンタワラモトチョウ","town":"金剛寺","town_kana":"コンゴウジ","prefecture_code":29},"0328":{"zip_code":"6360328","prefecture":"奈良県","prefecture_kana":"ナラケン","city":"磯城郡田原本町","city_kana":"シキグンタワラモトチョウ","town":"材木町","town_kana":"ザイモクマチ","prefecture_code":29},"0315":{"zip_code":"6360315","prefecture":"奈良県","prefecture_kana":"ナラケン","city":"磯城郡田原本町","city_kana":"シキグンタワラモトチョウ","town":"幸町","town_kana":"サイワイマチ","prefecture_code":29},"0327":{"zip_code":"6360327","prefecture":"奈良県","prefecture_kana":"ナラケン","city":"磯城郡田原本町","city_kana":"シキグンタワラモトチョウ","town":"堺町","town_kana":"サカイマチ","prefecture_code":29},"0247":{"zip_code":"6360247","prefecture":"奈良県","prefecture_kana":"ナラケン","city":"磯城郡田原本町","city_kana":"シキグンタワラモトチョウ","town":"阪手","town_kana":"サカテ","prefecture_code":29},"0355":{"zip_code":"6360355","prefecture":"奈良県","prefecture_kana":"ナラケン","city":"磯城郡田原本町","city_kana":"シキグンタワラモトチョウ","town":"佐味","town_kana":"サミ","prefecture_code":29},"0304":{"zip_code":"6360304","prefecture":"奈良県","prefecture_kana":"ナラケン","city":"磯城郡田原本町","city_kana":"シキグンタワラモトチョウ","town":"十六面","town_kana":"ジュウロクセン","prefecture_code":29},"0326":{"zip_code":"6360326","prefecture":"奈良県","prefecture_kana":"ナラケン","city":"磯城郡田原本町","city_kana":"シキグンタワラモトチョウ","town":"新地","town_kana":"シンチ","prefecture_code":29},"0312":{"zip_code":"6360312","prefecture":"奈良県","prefecture_kana":"ナラケン","city":"磯城郡田原本町","city_kana":"シキグンタワラモトチョウ","town":"新町","town_kana":"シンマチ","prefecture_code":29},"0233":{"zip_code":"6360233","prefecture":"奈良県","prefecture_kana":"ナラケン","city":"磯城郡田原本町","city_kana":"シキグンタワラモトチョウ","town":"為川南方","town_kana":"タメガワナンポウ","prefecture_code":29},"0231":{"zip_code":"6360231","prefecture":"奈良県","prefecture_kana":"ナラケン","city":"磯城郡田原本町","city_kana":"シキグンタワラモトチョウ","town":"為川北方","town_kana":"タメガワホッポウ","prefecture_code":29},"0248":{"zip_code":"6360248","prefecture":"奈良県","prefecture_kana":"ナラケン","city":"磯城郡田原本町","city_kana":"シキグンタワラモトチョウ","town":"大安寺","town_kana":"ダイアンジ","prefecture_code":29},"0336":{"zip_code":"6360336","prefecture":"奈良県","prefecture_kana":"ナラケン","city":"磯城郡田原本町","city_kana":"シキグンタワラモトチョウ","town":"大門中","town_kana":"ダイモンナカ","prefecture_code":29},"0335":{"zip_code":"6360335","prefecture":"奈良県","prefecture_kana":"ナラケン","city":"磯城郡田原本町","city_kana":"シキグンタワラモトチョウ","town":"大門東","town_kana":"ダイモンヒガシ","prefecture_code":29},"0337":{"zip_code":"6360337","prefecture":"奈良県","prefecture_kana":"ナラケン","city":"磯城郡田原本町","city_kana":"シキグンタワラモトチョウ","town":"大門西","town_kana":"ダイモンニシ","prefecture_code":29},"0246":{"zip_code":"6360246","prefecture":"奈良県","prefecture_kana":"ナラケン","city":"磯城郡田原本町","city_kana":"シキグンタワラモトチョウ","town":"千代","town_kana":"チシロ","prefecture_code":29},"0338":{"zip_code":"6360338","prefecture":"奈良県","prefecture_kana":"ナラケン","city":"磯城郡田原本町","city_kana":"シキグンタワラモトチョウ","town":"茶町","town_kana":"チャマチ","prefecture_code":29},"0317":{"zip_code":"6360317","prefecture":"奈良県","prefecture_kana":"ナラケン","city":"磯城郡田原本町","city_kana":"シキグンタワラモトチョウ","town":"殿町","town_kana":"トノマチ","prefecture_code":29},"0307":{"zip_code":"6360307","prefecture":"奈良県","prefecture_kana":"ナラケン","city":"磯城郡田原本町","city_kana":"シキグンタワラモトチョウ","town":"富本","town_kana":"トンモト","prefecture_code":29},"0347":{"zip_code":"6360347","prefecture":"奈良県","prefecture_kana":"ナラケン","city":"磯城郡田原本町","city_kana":"シキグンタワラモトチョウ","town":"新木","town_kana":"ニキ","prefecture_code":29},"0236":{"zip_code":"6360236","prefecture":"奈良県","prefecture_kana":"ナラケン","city":"磯城郡田原本町","city_kana":"シキグンタワラモトチョウ","town":"西井上","town_kana":"ニシイネ","prefecture_code":29},"0306":{"zip_code":"6360306","prefecture":"奈良県","prefecture_kana":"ナラケン","city":"磯城郡田原本町","city_kana":"シキグンタワラモトチョウ","town":"西竹田","town_kana":"ニシタケダ","prefecture_code":29},"0225":{"zip_code":"6360225","prefecture":"奈良県","prefecture_kana":"ナラケン","city":"磯城郡田原本町","city_kana":"シキグンタワラモトチョウ","town":"西代","town_kana":"ニシンダイ","prefecture_code":29},"0323":{"zip_code":"6360323","prefecture":"奈良県","prefecture_kana":"ナラケン","city":"磯城郡田原本町","city_kana":"シキグンタワラモトチョウ","town":"根太口","town_kana":"ネブトグチ","prefecture_code":29},"0343":{"zip_code":"6360343","prefecture":"奈良県","prefecture_kana":"ナラケン","city":"磯城郡田原本町","city_kana":"シキグンタワラモトチョウ","town":"秦庄","town_kana":"ハタノショウ","prefecture_code":29},"0221":{"zip_code":"6360221","prefecture":"奈良県","prefecture_kana":"ナラケン","city":"磯城郡田原本町","city_kana":"シキグンタワラモトチョウ","town":"八田","town_kana":"ハッタ","prefecture_code":29},"0235":{"zip_code":"6360235","prefecture":"奈良県","prefecture_kana":"ナラケン","city":"磯城郡田原本町","city_kana":"シキグンタワラモトチョウ","town":"東井上","town_kana":"ヒガシイネ","prefecture_code":29},"0241":{"zip_code":"6360241","prefecture":"奈良県","prefecture_kana":"ナラケン","city":"磯城郡田原本町","city_kana":"シキグンタワラモトチョウ","town":"平田","town_kana":"ヒラタ","prefecture_code":29},"0305":{"zip_code":"6360305","prefecture":"奈良県","prefecture_kana":"ナラケン","city":"磯城郡田原本町","city_kana":"シキグンタワラモトチョウ","town":"平野","town_kana":"ヒラノ","prefecture_code":29},"0222":{"zip_code":"6360222","prefecture":"奈良県","prefecture_kana":"ナラケン","city":"磯城郡田原本町","city_kana":"シキグンタワラモトチョウ","town":"法貴寺","town_kana":"ホウキジ","prefecture_code":29},"0303":{"zip_code":"6360303","prefecture":"奈良県","prefecture_kana":"ナラケン","city":"磯城郡田原本町","city_kana":"シキグンタワラモトチョウ","town":"保津","town_kana":"ホツ","prefecture_code":29},"0334":{"zip_code":"6360334","prefecture":"奈良県","prefecture_kana":"ナラケン","city":"磯城郡田原本町","city_kana":"シキグンタワラモトチョウ","town":"本町","town_kana":"ホンマチ","prefecture_code":29},"0351":{"zip_code":"6360351","prefecture":"奈良県","prefecture_kana":"ナラケン","city":"磯城郡田原本町","city_kana":"シキグンタワラモトチョウ","town":"松本","town_kana":"マツモト","prefecture_code":29},"0354":{"zip_code":"6360354","prefecture":"奈良県","prefecture_kana":"ナラケン","city":"磯城郡田原本町","city_kana":"シキグンタワラモトチョウ","town":"満田","town_kana":"マンダ","prefecture_code":29},"0342":{"zip_code":"6360342","prefecture":"奈良県","prefecture_kana":"ナラケン","city":"磯城郡田原本町","city_kana":"シキグンタワラモトチョウ","town":"三笠","town_kana":"ミカサ","prefecture_code":29},"0325":{"zip_code":"6360325","prefecture":"奈良県","prefecture_kana":"ナラケン","city":"磯城郡田原本町","city_kana":"シキグンタワラモトチョウ","town":"南町","town_kana":"ミナミマチ","prefecture_code":29},"0302":{"zip_code":"6360302","prefecture":"奈良県","prefecture_kana":"ナラケン","city":"磯城郡田原本町","city_kana":"シキグンタワラモトチョウ","town":"宮古","town_kana":"ミヤコ","prefecture_code":29},"0344":{"zip_code":"6360344","prefecture":"奈良県","prefecture_kana":"ナラケン","city":"磯城郡田原本町","city_kana":"シキグンタワラモトチョウ","town":"宮森","town_kana":"ミヤノモリ","prefecture_code":29},"0324":{"zip_code":"6360324","prefecture":"奈良県","prefecture_kana":"ナラケン","city":"磯城郡田原本町","city_kana":"シキグンタワラモトチョウ","town":"三輪町","town_kana":"ミワマチ","prefecture_code":29},"0316":{"zip_code":"6360316","prefecture":"奈良県","prefecture_kana":"ナラケン","city":"磯城郡田原本町","city_kana":"シキグンタワラモトチョウ","town":"室町","town_kana":"ムロマチ","prefecture_code":29},"0311":{"zip_code":"6360311","prefecture":"奈良県","prefecture_kana":"ナラケン","city":"磯城郡田原本町","city_kana":"シキグンタワラモトチョウ","town":"八尾","town_kana":"ヤオ","prefecture_code":29},"0341":{"zip_code":"6360341","prefecture":"奈良県","prefecture_kana":"ナラケン","city":"磯城郡田原本町","city_kana":"シキグンタワラモトチョウ","town":"薬王寺","town_kana":"ヤクオウジ","prefecture_code":29},"0321":{"zip_code":"6360321","prefecture":"奈良県","prefecture_kana":"ナラケン","city":"磯城郡田原本町","city_kana":"シキグンタワラモトチョウ","town":"八幡町","town_kana":"ヤハタマチ","prefecture_code":29},"0346":{"zip_code":"6360346","prefecture":"奈良県","prefecture_kana":"ナラケン","city":"磯城郡田原本町","city_kana":"シキグンタワラモトチョウ","town":"矢部","town_kana":"ヤベ","prefecture_code":29},"0002":{"zip_code":"6360002","prefecture":"奈良県","prefecture_kana":"ナラケン","city":"北葛城郡王寺町","city_kana":"キタカツラギグンオウジチョウ","town":"王寺","town_kana":"オウジ","prefecture_code":29},"0011":{"zip_code":"6360011","prefecture":"奈良県","prefecture_kana":"ナラケン","city":"北葛城郡王寺町","city_kana":"キタカツラギグンオウジチョウ","town":"葛下","town_kana":"カツシモ","prefecture_code":29},"0003":{"zip_code":"6360003","prefecture":"奈良県","prefecture_kana":"ナラケン","city":"北葛城郡王寺町","city_kana":"キタカツラギグンオウジチョウ","town":"久度","town_kana":"クド","prefecture_code":29},"0023":{"zip_code":"6360023","prefecture":"奈良県","prefecture_kana":"ナラケン","city":"北葛城郡王寺町","city_kana":"キタカツラギグンオウジチョウ","town":"太子","town_kana":"タイシ","prefecture_code":29},"0021":{"zip_code":"6360021","prefecture":"奈良県","prefecture_kana":"ナラケン","city":"北葛城郡王寺町","city_kana":"キタカツラギグンオウジチョウ","town":"畠田","town_kana":"ハタケダ","prefecture_code":29},"0014":{"zip_code":"6360014","prefecture":"奈良県","prefecture_kana":"ナラケン","city":"北葛城郡王寺町","city_kana":"キタカツラギグンオウジチョウ","town":"藤井","town_kana":"フジイ","prefecture_code":29},"0001":{"zip_code":"6360001","prefecture":"奈良県","prefecture_kana":"ナラケン","city":"北葛城郡王寺町","city_kana":"キタカツラギグンオウジチョウ","town":"舟戸","town_kana":"フナト","prefecture_code":29},"0012":{"zip_code":"6360012","prefecture":"奈良県","prefecture_kana":"ナラケン","city":"北葛城郡王寺町","city_kana":"キタカツラギグンオウジチョウ","town":"本町","town_kana":"ホンマチ","prefecture_code":29},"0015":{"zip_code":"6360015","prefecture":"奈良県","prefecture_kana":"ナラケン","city":"北葛城郡王寺町","city_kana":"キタカツラギグンオウジチョウ","town":"南元町","town_kana":"ミナミモトマチ","prefecture_code":29},"0022":{"zip_code":"6360022","prefecture":"奈良県","prefecture_kana":"ナラケン","city":"北葛城郡王寺町","city_kana":"キタカツラギグンオウジチョウ","town":"明神","town_kana":"ミョウジン","prefecture_code":29},"0013":{"zip_code":"6360013","prefecture":"奈良県","prefecture_kana":"ナラケン","city":"北葛城郡王寺町","city_kana":"キタカツラギグンオウジチョウ","town":"元町","town_kana":"モトマチ","prefecture_code":29},"0053":{"zip_code":"6360053","prefecture":"奈良県","prefecture_kana":"ナラケン","city":"北葛城郡河合町","city_kana":"キタカツラギグンカワイチョウ","town":"池部","town_kana":"イケベ","prefecture_code":29},"0091":{"zip_code":"6360091","prefecture":"奈良県","prefecture_kana":"ナラケン","city":"北葛城郡河合町","city_kana":"キタカツラギグンカワイチョウ","town":"泉台","town_kana":"イズミダイ","prefecture_code":29},"0057":{"zip_code":"6360057","prefecture":"奈良県","prefecture_kana":"ナラケン","city":"北葛城郡河合町","city_kana":"キタカツラギグンカワイチョウ","town":"彩りの杜","town_kana":"イロドリノモリ","prefecture_code":29},"0093":{"zip_code":"6360093","prefecture":"奈良県","prefecture_kana":"ナラケン","city":"北葛城郡河合町","city_kana":"キタカツラギグンカワイチョウ","town":"大輪田","town_kana":"オオワダ","prefecture_code":29},"0051":{"zip_code":"6360051","prefecture":"奈良県","prefecture_kana":"ナラケン","city":"北葛城郡河合町","city_kana":"キタカツラギグンカワイチョウ","town":"川合","town_kana":"カワイ","prefecture_code":29},"0082":{"zip_code":"6360082","prefecture":"奈良県","prefecture_kana":"ナラケン","city":"北葛城郡河合町","city_kana":"キタカツラギグンカワイチョウ","town":"薬井","town_kana":"クスリイ","prefecture_code":29},"0063":{"zip_code":"6360063","prefecture":"奈良県","prefecture_kana":"ナラケン","city":"北葛城郡河合町","city_kana":"キタカツラギグンカワイチョウ","town":"久美ケ丘","town_kana":"クミガオカ","prefecture_code":29},"0062":{"zip_code":"6360062","prefecture":"奈良県","prefecture_kana":"ナラケン","city":"北葛城郡河合町","city_kana":"キタカツラギグンカワイチョウ","town":"佐味田","town_kana":"サミタ","prefecture_code":29},"0092":{"zip_code":"6360092","prefecture":"奈良県","prefecture_kana":"ナラケン","city":"北葛城郡河合町","city_kana":"キタカツラギグンカワイチョウ","town":"城内","town_kana":"ジョウナイ","prefecture_code":29},"0081":{"zip_code":"6360081","prefecture":"奈良県","prefecture_kana":"ナラケン","city":"北葛城郡河合町","city_kana":"キタカツラギグンカワイチョウ","town":"星和台","town_kana":"セイワダイ","prefecture_code":29},"0071":{"zip_code":"6360071","prefecture":"奈良県","prefecture_kana":"ナラケン","city":"北葛城郡河合町","city_kana":"キタカツラギグンカワイチョウ","town":"高塚台","town_kana":"タカツカダイ","prefecture_code":29},"0052":{"zip_code":"6360052","prefecture":"奈良県","prefecture_kana":"ナラケン","city":"北葛城郡河合町","city_kana":"キタカツラギグンカワイチョウ","town":"長楽","town_kana":"チョウラク","prefecture_code":29},"0072":{"zip_code":"6360072","prefecture":"奈良県","prefecture_kana":"ナラケン","city":"北葛城郡河合町","city_kana":"キタカツラギグンカワイチョウ","town":"中山台","town_kana":"ナカヤマダイ","prefecture_code":29},"0054":{"zip_code":"6360054","prefecture":"奈良県","prefecture_kana":"ナラケン","city":"北葛城郡河合町","city_kana":"キタカツラギグンカワイチョウ","town":"穴闇","town_kana":"ナグラ","prefecture_code":29},"0055":{"zip_code":"6360055","prefecture":"奈良県","prefecture_kana":"ナラケン","city":"北葛城郡河合町","city_kana":"キタカツラギグンカワイチョウ","town":"西穴闇","town_kana":"ニシナグラ","prefecture_code":29},"0056":{"zip_code":"6360056","prefecture":"奈良県","prefecture_kana":"ナラケン","city":"北葛城郡河合町","city_kana":"キタカツラギグンカワイチョウ","town":"西山台","town_kana":"ニシヤマダイ","prefecture_code":29},"0073":{"zip_code":"6360073","prefecture":"奈良県","prefecture_kana":"ナラケン","city":"北葛城郡河合町","city_kana":"キタカツラギグンカワイチョウ","town":"広瀬台","town_kana":"ヒロセダイ","prefecture_code":29},"0061":{"zip_code":"6360061","prefecture":"奈良県","prefecture_kana":"ナラケン","city":"北葛城郡河合町","city_kana":"キタカツラギグンカワイチョウ","town":"山坊","town_kana":"ヤマノボウ","prefecture_code":29}}