{"0643":{"zip_code":"6380643","prefecture":"奈良県","prefecture_kana":"ナラケン","city":"五條市","city_kana":"ゴジョウシ","town":"西吉野町赤松","town_kana":"ニシヨシノチョウアカマツ","prefecture_code":29},"0652":{"zip_code":"6380652","prefecture":"奈良県","prefecture_kana":"ナラケン","city":"五條市","city_kana":"ゴジョウシ","town":"西吉野町尼ケ生","town_kana":"ニシヨシノチョウアマガショウ","prefecture_code":29},"0663":{"zip_code":"6380663","prefecture":"奈良県","prefecture_kana":"ナラケン","city":"五條市","city_kana":"ゴジョウシ","town":"西吉野町奥谷","town_kana":"ニシヨシノチョウオクダニ","prefecture_code":29},"0655":{"zip_code":"6380655","prefecture":"奈良県","prefecture_kana":"ナラケン","city":"五條市","city_kana":"ゴジョウシ","town":"西吉野町小古田","town_kana":"ニシヨシノチョウオブルタ","prefecture_code":29},"0651":{"zip_code":"6380651","prefecture":"奈良県","prefecture_kana":"ナラケン","city":"五條市","city_kana":"ゴジョウシ","town":"西吉野町唐戸","town_kana":"ニシヨシノチョウカラト","prefecture_code":29},"0656":{"zip_code":"6380656","prefecture":"奈良県","prefecture_kana":"ナラケン","city":"五條市","city_kana":"ゴジョウシ","town":"西吉野町鹿場","town_kana":"ニシヨシノチョウシシバ","prefecture_code":29},"0653":{"zip_code":"6380653","prefecture":"奈良県","prefecture_kana":"ナラケン","city":"五條市","city_kana":"ゴジョウシ","town":"西吉野町十日市","town_kana":"ニシヨシノチョウトオカイチ","prefecture_code":29},"0661":{"zip_code":"6380661","prefecture":"奈良県","prefecture_kana":"ナラケン","city":"五條市","city_kana":"ゴジョウシ","town":"西吉野町西新子","town_kana":"ニシヨシノチョウニシアタラシ","prefecture_code":29},"0642":{"zip_code":"6380642","prefecture":"奈良県","prefecture_kana":"ナラケン","city":"五條市","city_kana":"ゴジョウシ","town":"西吉野町平沼田","town_kana":"ニシヨシノチョウヒラヌマタ","prefecture_code":29},"0654":{"zip_code":"6380654","prefecture":"奈良県","prefecture_kana":"ナラケン","city":"五條市","city_kana":"ゴジョウシ","town":"西吉野町南山","town_kana":"ニシヨシノチョウミナミヤマ","prefecture_code":29},"0641":{"zip_code":"6380641","prefecture":"奈良県","prefecture_kana":"ナラケン","city":"五條市","city_kana":"ゴジョウシ","town":"西吉野町百谷","town_kana":"ニシヨシノチョウモモダニ","prefecture_code":29},"0657":{"zip_code":"6380657","prefecture":"奈良県","prefecture_kana":"ナラケン","city":"五條市","city_kana":"ゴジョウシ","town":"西吉野町八ツ川","town_kana":"ニシヨシノチョウヤツカワ","prefecture_code":29},"0644":{"zip_code":"6380644","prefecture":"奈良県","prefecture_kana":"ナラケン","city":"五條市","city_kana":"ゴジョウシ","town":"西吉野町湯川","town_kana":"ニシヨシノチョウユカワ","prefecture_code":29},"0662":{"zip_code":"6380662","prefecture":"奈良県","prefecture_kana":"ナラケン","city":"五條市","city_kana":"ゴジョウシ","town":"西吉野町夜中","town_kana":"ニシヨシノチョウヨナカ","prefecture_code":29},"0000":[{"zip_code":"6380000","prefecture":"奈良県","prefecture_kana":"ナラケン","city":"吉野郡大淀町","city_kana":"ヨシノグンオオヨドチョウ","town":"以下に掲載がない場合","town_kana":"イカニケイサイガナイバアイ","prefecture_code":29},{"zip_code":"6380000","prefecture":"奈良県","prefecture_kana":"ナラケン","city":"吉野郡下市町","city_kana":"ヨシノグンシモイチチョウ","town":"以下に掲載がない場合","town_kana":"イカニケイサイガナイバアイ","prefecture_code":29}],"0801":{"zip_code":"6380801","prefecture":"奈良県","prefecture_kana":"ナラケン","city":"吉野郡大淀町","city_kana":"ヨシノグンオオヨドチョウ","town":"芦原","town_kana":"アシハラ","prefecture_code":29},"0841":{"zip_code":"6380841","prefecture":"奈良県","prefecture_kana":"ナラケン","city":"吉野郡大淀町","city_kana":"ヨシノグンオオヨドチョウ","town":"今木","town_kana":"イマキ","prefecture_code":29},"0851":{"zip_code":"6380851","prefecture":"奈良県","prefecture_kana":"ナラケン","city":"吉野郡大淀町","city_kana":"ヨシノグンオオヨドチョウ","town":"岩壺","town_kana":"イワツボ","prefecture_code":29},"0842":{"zip_code":"6380842","prefecture":"奈良県","prefecture_kana":"ナラケン","city":"吉野郡大淀町","city_kana":"ヨシノグンオオヨドチョウ","town":"大岩","town_kana":"オオイワ","prefecture_code":29},"0832":{"zip_code":"6380832","prefecture":"奈良県","prefecture_kana":"ナラケン","city":"吉野郡大淀町","city_kana":"ヨシノグンオオヨドチョウ","town":"薬水","town_kana":"クスリミズ","prefecture_code":29},"0803":{"zip_code":"6380803","prefecture":"奈良県","prefecture_kana":"ナラケン","city":"吉野郡大淀町","city_kana":"ヨシノグンオオヨドチョウ","town":"越部","town_kana":"コシベ","prefecture_code":29},"0831":{"zip_code":"6380831","prefecture":"奈良県","prefecture_kana":"ナラケン","city":"吉野郡大淀町","city_kana":"ヨシノグンオオヨドチョウ","town":"佐名伝","town_kana":"サナテ","prefecture_code":29},"0821":{"zip_code":"6380821","prefecture":"奈良県","prefecture_kana":"ナラケン","city":"吉野郡大淀町","city_kana":"ヨシノグンオオヨドチョウ","town":"下渕","town_kana":"シモブチ","prefecture_code":29},"0811":{"zip_code":"6380811","prefecture":"奈良県","prefecture_kana":"ナラケン","city":"吉野郡大淀町","city_kana":"ヨシノグンオオヨドチョウ","town":"土田","town_kana":"ツチダ","prefecture_code":29},"0802":{"zip_code":"6380802","prefecture":"奈良県","prefecture_kana":"ナラケン","city":"吉野郡大淀町","city_kana":"ヨシノグンオオヨドチョウ","town":"畑屋","town_kana":"ハタヤ","prefecture_code":29},"0812":{"zip_code":"6380812","prefecture":"奈良県","prefecture_kana":"ナラケン","city":"吉野郡大淀町","city_kana":"ヨシノグンオオヨドチョウ","town":"桧垣本","town_kana":"ヒガイモト","prefecture_code":29},"0833":{"zip_code":"6380833","prefecture":"奈良県","prefecture_kana":"ナラケン","city":"吉野郡大淀町","city_kana":"ヨシノグンオオヨドチョウ","town":"福神","town_kana":"フクガミ","prefecture_code":29},"0843":{"zip_code":"6380843","prefecture":"奈良県","prefecture_kana":"ナラケン","city":"吉野郡大淀町","city_kana":"ヨシノグンオオヨドチョウ","town":"鉾立","town_kana":"ホコタテ","prefecture_code":29},"0852":{"zip_code":"6380852","prefecture":"奈良県","prefecture_kana":"ナラケン","city":"吉野郡大淀町","city_kana":"ヨシノグンオオヨドチョウ","town":"持尾","town_kana":"モチオ","prefecture_code":29},"0853":{"zip_code":"6380853","prefecture":"奈良県","prefecture_kana":"ナラケン","city":"吉野郡大淀町","city_kana":"ヨシノグンオオヨドチョウ","town":"矢走","town_kana":"ヤバセ","prefecture_code":29},"0045":{"zip_code":"6380045","prefecture":"奈良県","prefecture_kana":"ナラケン","city":"吉野郡下市町","city_kana":"ヨシノグンシモイチチョウ","town":"新住","town_kana":"アタラスミ","prefecture_code":29},"0001":{"zip_code":"6380001","prefecture":"奈良県","prefecture_kana":"ナラケン","city":"吉野郡下市町","city_kana":"ヨシノグンシモイチチョウ","town":"阿知賀","town_kana":"アチガ","prefecture_code":29},"0012":{"zip_code":"6380012","prefecture":"奈良県","prefecture_kana":"ナラケン","city":"吉野郡下市町","city_kana":"ヨシノグンシモイチチョウ","town":"岩森","town_kana":"イワモリ","prefecture_code":29},"0043":{"zip_code":"6380043","prefecture":"奈良県","prefecture_kana":"ナラケン","city":"吉野郡下市町","city_kana":"ヨシノグンシモイチチョウ","town":"大峯","town_kana":"オオミネ","prefecture_code":29},"0024":{"zip_code":"6380024","prefecture":"奈良県","prefecture_kana":"ナラケン","city":"吉野郡下市町","city_kana":"ヨシノグンシモイチチョウ","town":"貝原","town_kana":"カイバラ","prefecture_code":29},"0023":{"zip_code":"6380023","prefecture":"奈良県","prefecture_kana":"ナラケン","city":"吉野郡下市町","city_kana":"ヨシノグンシモイチチョウ","town":"黒木","town_kana":"クロギ","prefecture_code":29},"0014":{"zip_code":"6380014","prefecture":"奈良県","prefecture_kana":"ナラケン","city":"吉野郡下市町","city_kana":"ヨシノグンシモイチチョウ","town":"才谷","town_kana":"サイタニ","prefecture_code":29},"0042":{"zip_code":"6380042","prefecture":"奈良県","prefecture_kana":"ナラケン","city":"吉野郡下市町","city_kana":"ヨシノグンシモイチチョウ","town":"栄町","town_kana":"サカエチョウ","prefecture_code":29},"0041":{"zip_code":"6380041","prefecture":"奈良県","prefecture_kana":"ナラケン","city":"吉野郡下市町","city_kana":"ヨシノグンシモイチチョウ","town":"下市","town_kana":"シモイチ","prefecture_code":29},"0002":{"zip_code":"6380002","prefecture":"奈良県","prefecture_kana":"ナラケン","city":"吉野郡下市町","city_kana":"ヨシノグンシモイチチョウ","town":"小路","town_kana":"ショウジ","prefecture_code":29},"0003":{"zip_code":"6380003","prefecture":"奈良県","prefecture_kana":"ナラケン","city":"吉野郡下市町","city_kana":"ヨシノグンシモイチチョウ","town":"善城","town_kana":"ゼンギ","prefecture_code":29},"0013":{"zip_code":"6380013","prefecture":"奈良県","prefecture_kana":"ナラケン","city":"吉野郡下市町","city_kana":"ヨシノグンシモイチチョウ","town":"立石","town_kana":"タテイシ","prefecture_code":29},"0044":{"zip_code":"6380044","prefecture":"奈良県","prefecture_kana":"ナラケン","city":"吉野郡下市町","city_kana":"ヨシノグンシモイチチョウ","town":"田中","town_kana":"タナカ","prefecture_code":29},"0025":{"zip_code":"6380025","prefecture":"奈良県","prefecture_kana":"ナラケン","city":"吉野郡下市町","city_kana":"ヨシノグンシモイチチョウ","town":"谷","town_kana":"タニ","prefecture_code":29},"0035":{"zip_code":"6380035","prefecture":"奈良県","prefecture_kana":"ナラケン","city":"吉野郡下市町","city_kana":"ヨシノグンシモイチチョウ","town":"栃原","town_kana":"トチハラ","prefecture_code":29},"0031":{"zip_code":"6380031","prefecture":"奈良県","prefecture_kana":"ナラケン","city":"吉野郡下市町","city_kana":"ヨシノグンシモイチチョウ","town":"栃本","town_kana":"トチモト","prefecture_code":29},"0021":{"zip_code":"6380021","prefecture":"奈良県","prefecture_kana":"ナラケン","city":"吉野郡下市町","city_kana":"ヨシノグンシモイチチョウ","town":"長谷","town_kana":"ナガタニ","prefecture_code":29},"0033":{"zip_code":"6380033","prefecture":"奈良県","prefecture_kana":"ナラケン","city":"吉野郡下市町","city_kana":"ヨシノグンシモイチチョウ","town":"梨子堂","town_kana":"ナシドウ","prefecture_code":29},"0022":{"zip_code":"6380022","prefecture":"奈良県","prefecture_kana":"ナラケン","city":"吉野郡下市町","city_kana":"ヨシノグンシモイチチョウ","town":"丹生","town_kana":"ニウ","prefecture_code":29},"0026":{"zip_code":"6380026","prefecture":"奈良県","prefecture_kana":"ナラケン","city":"吉野郡下市町","city_kana":"ヨシノグンシモイチチョウ","town":"西山","town_kana":"ニシヤマ","prefecture_code":29},"0032":{"zip_code":"6380032","prefecture":"奈良県","prefecture_kana":"ナラケン","city":"吉野郡下市町","city_kana":"ヨシノグンシモイチチョウ","town":"原谷","town_kana":"ハラダニ","prefecture_code":29},"0015":{"zip_code":"6380015","prefecture":"奈良県","prefecture_kana":"ナラケン","city":"吉野郡下市町","city_kana":"ヨシノグンシモイチチョウ","town":"広橋","town_kana":"ヒロハシ","prefecture_code":29},"0034":{"zip_code":"6380034","prefecture":"奈良県","prefecture_kana":"ナラケン","city":"吉野郡下市町","city_kana":"ヨシノグンシモイチチョウ","town":"平原","town_kana":"ヘイバラ","prefecture_code":29},"0011":{"zip_code":"6380011","prefecture":"奈良県","prefecture_kana":"ナラケン","city":"吉野郡下市町","city_kana":"ヨシノグンシモイチチョウ","town":"よ邑","town_kana":"ヨムラ","prefecture_code":29},"0200":{"zip_code":"6380200","prefecture":"奈良県","prefecture_kana":"ナラケン","city":"吉野郡黒滝村","city_kana":"ヨシノグンクロタキムラ","town":"以下に掲載がない場合","town_kana":"イカニケイサイガナイバアイ","prefecture_code":29},"0211":{"zip_code":"6380211","prefecture":"奈良県","prefecture_kana":"ナラケン","city":"吉野郡黒滝村","city_kana":"ヨシノグンクロタキムラ","town":"赤滝","town_kana":"アカタキ","prefecture_code":29},"0241":{"zip_code":"6380241","prefecture":"奈良県","prefecture_kana":"ナラケン","city":"吉野郡黒滝村","city_kana":"ヨシノグンクロタキムラ","town":"粟飯谷","town_kana":"アワイダニ","prefecture_code":29},"0231":{"zip_code":"6380231","prefecture":"奈良県","prefecture_kana":"ナラケン","city":"吉野郡黒滝村","city_kana":"ヨシノグンクロタキムラ","town":"笠木","town_kana":"カサギ","prefecture_code":29},"0232":{"zip_code":"6380232","prefecture":"奈良県","prefecture_kana":"ナラケン","city":"吉野郡黒滝村","city_kana":"ヨシノグンクロタキムラ","town":"桂原","town_kana":"カツラハラ","prefecture_code":29},"0251":{"zip_code":"6380251","prefecture":"奈良県","prefecture_kana":"ナラケン","city":"吉野郡黒滝村","city_kana":"ヨシノグンクロタキムラ","town":"寺戸","town_kana":"テラド","prefecture_code":29},"0243":{"zip_code":"6380243","prefecture":"奈良県","prefecture_kana":"ナラケン","city":"吉野郡黒滝村","city_kana":"ヨシノグンクロタキムラ","town":"堂原","town_kana":"ドウバラ","prefecture_code":29},"0203":{"zip_code":"6380203","prefecture":"奈良県","prefecture_kana":"ナラケン","city":"吉野郡黒滝村","city_kana":"ヨシノグンクロタキムラ","town":"鳥住","town_kana":"トリスミ","prefecture_code":29},"0221":{"zip_code":"6380221","prefecture":"奈良県","prefecture_kana":"ナラケン","city":"吉野郡黒滝村","city_kana":"ヨシノグンクロタキムラ","town":"中戸","town_kana":"ナカト","prefecture_code":29},"0233":{"zip_code":"6380233","prefecture":"奈良県","prefecture_kana":"ナラケン","city":"吉野郡黒滝村","city_kana":"ヨシノグンクロタキムラ","town":"長瀬","town_kana":"ナガセ","prefecture_code":29},"0201":{"zip_code":"6380201","prefecture":"奈良県","prefecture_kana":"ナラケン","city":"吉野郡黒滝村","city_kana":"ヨシノグンクロタキムラ","town":"槇尾","town_kana":"マキオ","prefecture_code":29},"0242":{"zip_code":"6380242","prefecture":"奈良県","prefecture_kana":"ナラケン","city":"吉野郡黒滝村","city_kana":"ヨシノグンクロタキムラ","town":"御吉野","town_kana":"ミヨシノ","prefecture_code":29},"0202":{"zip_code":"6380202","prefecture":"奈良県","prefecture_kana":"ナラケン","city":"吉野郡黒滝村","city_kana":"ヨシノグンクロタキムラ","town":"脇川","town_kana":"ワキガワ","prefecture_code":29},"0300":{"zip_code":"6380300","prefecture":"奈良県","prefecture_kana":"ナラケン","city":"吉野郡天川村","city_kana":"ヨシノグンテンカワムラ","town":"以下に掲載がない場合","town_kana":"イカニケイサイガナイバアイ","prefecture_code":29},"0552":{"zip_code":"6380552","prefecture":"奈良県","prefecture_kana":"ナラケン","city":"吉野郡天川村","city_kana":"ヨシノグンテンカワムラ","town":"庵住","town_kana":"イオスミ","prefecture_code":29},"0311":{"zip_code":"6380311","prefecture":"奈良県","prefecture_kana":"ナラケン","city":"吉野郡天川村","city_kana":"ヨシノグンテンカワムラ","town":"沖金","town_kana":"オキガネ","prefecture_code":29},"0301":{"zip_code":"6380301","prefecture":"奈良県","prefecture_kana":"ナラケン","city":"吉野郡天川村","city_kana":"ヨシノグンテンカワムラ","town":"川合","town_kana":"カワアイ","prefecture_code":29},"0313":{"zip_code":"6380313","prefecture":"奈良県","prefecture_kana":"ナラケン","city":"吉野郡天川村","city_kana":"ヨシノグンテンカワムラ","town":"北小原","town_kana":"キタコバラ","prefecture_code":29},"0303":{"zip_code":"6380303","prefecture":"奈良県","prefecture_kana":"ナラケン","city":"吉野郡天川村","city_kana":"ヨシノグンテンカワムラ","town":"北角","town_kana":"キトズミ","prefecture_code":29},"0314":{"zip_code":"6380314","prefecture":"奈良県","prefecture_kana":"ナラケン","city":"吉野郡天川村","city_kana":"ヨシノグンテンカワムラ","town":"五色","town_kana":"ゴシキ","prefecture_code":29},"0551":{"zip_code":"6380551","prefecture":"奈良県","prefecture_kana":"ナラケン","city":"吉野郡天川村","city_kana":"ヨシノグンテンカワムラ","town":"籠山","town_kana":"コモリヤマ","prefecture_code":29},"0305":{"zip_code":"6380305","prefecture":"奈良県","prefecture_kana":"ナラケン","city":"吉野郡天川村","city_kana":"ヨシノグンテンカワムラ","town":"沢谷","town_kana":"サワタニ","prefecture_code":29},"0315":{"zip_code":"6380315","prefecture":"奈良県","prefecture_kana":"ナラケン","city":"吉野郡天川村","city_kana":"ヨシノグンテンカワムラ","town":"沢原","town_kana":"サワバラ","prefecture_code":29},"0564":{"zip_code":"6380564","prefecture":"奈良県","prefecture_kana":"ナラケン","city":"吉野郡天川村","city_kana":"ヨシノグンテンカワムラ","town":"塩谷","town_kana":"シオダニ","prefecture_code":29},"0563":{"zip_code":"6380563","prefecture":"奈良県","prefecture_kana":"ナラケン","city":"吉野郡天川村","city_kana":"ヨシノグンテンカワムラ","town":"塩野","town_kana":"シオノ","prefecture_code":29},"0562":{"zip_code":"6380562","prefecture":"奈良県","prefecture_kana":"ナラケン","city":"吉野郡天川村","city_kana":"ヨシノグンテンカワムラ","town":"滝尾","town_kana":"タキオ","prefecture_code":29},"0541":{"zip_code":"6380541","prefecture":"奈良県","prefecture_kana":"ナラケン","city":"吉野郡天川村","city_kana":"ヨシノグンテンカワムラ","town":"九尾","town_kana":"ツヅラオ","prefecture_code":29},"0321":{"zip_code":"6380321","prefecture":"奈良県","prefecture_kana":"ナラケン","city":"吉野郡天川村","city_kana":"ヨシノグンテンカワムラ","town":"坪内","town_kana":"ツボノウチ","prefecture_code":29},"0542":{"zip_code":"6380542","prefecture":"奈良県","prefecture_kana":"ナラケン","city":"吉野郡天川村","city_kana":"ヨシノグンテンカワムラ","town":"栃尾","town_kana":"トチオ","prefecture_code":29},"0431":{"zip_code":"6380431","prefecture":"奈良県","prefecture_kana":"ナラケン","city":"吉野郡天川村","city_kana":"ヨシノグンテンカワムラ","town":"洞川","town_kana":"ドロガワ","prefecture_code":29},"0302":{"zip_code":"6380302","prefecture":"奈良県","prefecture_kana":"ナラケン","city":"吉野郡天川村","city_kana":"ヨシノグンテンカワムラ","town":"中越","town_kana":"ナカゴシ","prefecture_code":29},"0312":{"zip_code":"6380312","prefecture":"奈良県","prefecture_kana":"ナラケン","city":"吉野郡天川村","city_kana":"ヨシノグンテンカワムラ","town":"中谷","town_kana":"ナカタニ","prefecture_code":29},"0561":{"zip_code":"6380561","prefecture":"奈良県","prefecture_kana":"ナラケン","city":"吉野郡天川村","city_kana":"ヨシノグンテンカワムラ","town":"広瀬","town_kana":"ヒロセ","prefecture_code":29},"0322":{"zip_code":"6380322","prefecture":"奈良県","prefecture_kana":"ナラケン","city":"吉野郡天川村","city_kana":"ヨシノグンテンカワムラ","town":"南日裏","town_kana":"ミナミヒウラ","prefecture_code":29},"0304":{"zip_code":"6380304","prefecture":"奈良県","prefecture_kana":"ナラケン","city":"吉野郡天川村","city_kana":"ヨシノグンテンカワムラ","town":"南角","town_kana":"ミノズミ","prefecture_code":29},"0553":{"zip_code":"6380553","prefecture":"奈良県","prefecture_kana":"ナラケン","city":"吉野郡天川村","city_kana":"ヨシノグンテンカワムラ","town":"山西","town_kana":"ヤマニシ","prefecture_code":29},"0543":{"zip_code":"6380543","prefecture":"奈良県","prefecture_kana":"ナラケン","city":"吉野郡天川村","city_kana":"ヨシノグンテンカワムラ","town":"和田","town_kana":"ワダ","prefecture_code":29}}