{"1100":[{"zip_code":"6391100","prefecture":"奈良県","prefecture_kana":"ナラケン","city":"大和郡山市","city_kana":"ヤマトコオリヤマシ","town":"以下に掲載がない場合","town_kana":"イカニケイサイガナイバアイ","prefecture_code":29},{"zip_code":"6391100","prefecture":"奈良県","prefecture_kana":"ナラケン","city":"生駒郡安堵町","city_kana":"イコマグンアンドチョウ","town":"以下に掲載がない場合","town_kana":"イカニケイサイガナイバアイ","prefecture_code":29}],"1013":{"zip_code":"6391013","prefecture":"奈良県","prefecture_kana":"ナラケン","city":"大和郡山市","city_kana":"ヤマトコオリヤマシ","town":"朝日町","town_kana":"アサヒチョウ","prefecture_code":29},"1032":{"zip_code":"6391032","prefecture":"奈良県","prefecture_kana":"ナラケン","city":"大和郡山市","city_kana":"ヤマトコオリヤマシ","town":"池沢町","town_kana":"イケザワチョウ","prefecture_code":29},"1027":{"zip_code":"6391027","prefecture":"奈良県","prefecture_kana":"ナラケン","city":"大和郡山市","city_kana":"ヤマトコオリヤマシ","town":"池之内町","town_kana":"イケノウチチョウ","prefecture_code":29},"1111":{"zip_code":"6391111","prefecture":"奈良県","prefecture_kana":"ナラケン","city":"大和郡山市","city_kana":"ヤマトコオリヤマシ","town":"石川町","town_kana":"イシカワチョウ","prefecture_code":29},"1116":{"zip_code":"6391116","prefecture":"奈良県","prefecture_kana":"ナラケン","city":"大和郡山市","city_kana":"ヤマトコオリヤマシ","town":"伊豆七条町","town_kana":"イズシチジョウチョウ","prefecture_code":29},"1056":{"zip_code":"6391056","prefecture":"奈良県","prefecture_kana":"ナラケン","city":"大和郡山市","city_kana":"ヤマトコオリヤマシ","town":"泉原町","town_kana":"イズミハラチョウ","prefecture_code":29},"1113":{"zip_code":"6391113","prefecture":"奈良県","prefecture_kana":"ナラケン","city":"大和郡山市","city_kana":"ヤマトコオリヤマシ","town":"櫟枝町","town_kana":"イチエダチョウ","prefecture_code":29},"1104":{"zip_code":"6391104","prefecture":"奈良県","prefecture_kana":"ナラケン","city":"大和郡山市","city_kana":"ヤマトコオリヤマシ","town":"井戸野町","town_kana":"イドノチョウ","prefecture_code":29},"1158":{"zip_code":"6391158","prefecture":"奈良県","prefecture_kana":"ナラケン","city":"大和郡山市","city_kana":"ヤマトコオリヤマシ","town":"藺町","town_kana":"イノマチ","prefecture_code":29},"1155":{"zip_code":"6391155","prefecture":"奈良県","prefecture_kana":"ナラケン","city":"大和郡山市","city_kana":"ヤマトコオリヤマシ","town":"今井町","town_kana":"イマイマチ","prefecture_code":29},"1031":{"zip_code":"6391031","prefecture":"奈良県","prefecture_kana":"ナラケン","city":"大和郡山市","city_kana":"ヤマトコオリヤマシ","town":"今国府町","town_kana":"イマゴウチョウ","prefecture_code":29},"1005":{"zip_code":"6391005","prefecture":"奈良県","prefecture_kana":"ナラケン","city":"大和郡山市","city_kana":"ヤマトコオリヤマシ","town":"植槻町","town_kana":"ウエツキチョウ","prefecture_code":29},"1168":{"zip_code":"6391168","prefecture":"奈良県","prefecture_kana":"ナラケン","city":"大和郡山市","city_kana":"ヤマトコオリヤマシ","town":"魚町","town_kana":"ウオマチ","prefecture_code":29},"1019":{"zip_code":"6391019","prefecture":"奈良県","prefecture_kana":"ナラケン","city":"大和郡山市","city_kana":"ヤマトコオリヤマシ","town":"永慶寺町","town_kana":"エイケイジチョウ","prefecture_code":29},"1106":{"zip_code":"6391106","prefecture":"奈良県","prefecture_kana":"ナラケン","city":"大和郡山市","city_kana":"ヤマトコオリヤマシ","town":"大江町","town_kana":"オオエチョウ","prefecture_code":29},"1138":{"zip_code":"6391138","prefecture":"奈良県","prefecture_kana":"ナラケン","city":"大和郡山市","city_kana":"ヤマトコオリヤマシ","town":"大宮町","town_kana":"オオミヤチョウ","prefecture_code":29},"1034":{"zip_code":"6391034","prefecture":"奈良県","prefecture_kana":"ナラケン","city":"大和郡山市","city_kana":"ヤマトコオリヤマシ","town":"柏木町","town_kana":"カシワギチョウ","prefecture_code":29},"1102":{"zip_code":"6391102","prefecture":"奈良県","prefecture_kana":"ナラケン","city":"大和郡山市","city_kana":"ヤマトコオリヤマシ","town":"上三橋町","town_kana":"カミミツハシチョウ","prefecture_code":29},"1018":{"zip_code":"6391018","prefecture":"奈良県","prefecture_kana":"ナラケン","city":"大和郡山市","city_kana":"ヤマトコオリヤマシ","town":"冠山町","town_kana":"カンザンチョウ","prefecture_code":29},"1161":{"zip_code":"6391161","prefecture":"奈良県","prefecture_kana":"ナラケン","city":"大和郡山市","city_kana":"ヤマトコオリヤマシ","town":"観音寺町","town_kana":"カンノンジチョウ","prefecture_code":29},"1165":{"zip_code":"6391165","prefecture":"奈良県","prefecture_kana":"ナラケン","city":"大和郡山市","city_kana":"ヤマトコオリヤマシ","town":"北鍛冶町","town_kana":"キタカジマチ","prefecture_code":29},"1160":{"zip_code":"6391160","prefecture":"奈良県","prefecture_kana":"ナラケン","city":"大和郡山市","city_kana":"ヤマトコオリヤマシ","town":"北郡山町","town_kana":"キタコオリヤマチョウ","prefecture_code":29},"1146":{"zip_code":"6391146","prefecture":"奈良県","prefecture_kana":"ナラケン","city":"大和郡山市","city_kana":"ヤマトコオリヤマシ","town":"北大工町","town_kana":"キタダイクマチ","prefecture_code":29},"1025":{"zip_code":"6391025","prefecture":"奈良県","prefecture_kana":"ナラケン","city":"大和郡山市","city_kana":"ヤマトコオリヤマシ","town":"北西町","town_kana":"キタニシチョウ","prefecture_code":29},"1001":{"zip_code":"6391001","prefecture":"奈良県","prefecture_kana":"ナラケン","city":"大和郡山市","city_kana":"ヤマトコオリヤマシ","town":"九条町","town_kana":"クジョウチョウ","prefecture_code":29},"1002":{"zip_code":"6391002","prefecture":"奈良県","prefecture_kana":"ナラケン","city":"大和郡山市","city_kana":"ヤマトコオリヤマシ","town":"九条平野町","town_kana":"クジョウヒラノチョウ","prefecture_code":29},"1147":{"zip_code":"6391147","prefecture":"奈良県","prefecture_kana":"ナラケン","city":"大和郡山市","city_kana":"ヤマトコオリヤマシ","town":"車町","town_kana":"クルママチ","prefecture_code":29},"1042":{"zip_code":"6391042","prefecture":"奈良県","prefecture_kana":"ナラケン","city":"大和郡山市","city_kana":"ヤマトコオリヤマシ","town":"小泉町","town_kana":"コイズミチョウ","prefecture_code":29},"1044":{"zip_code":"6391044","prefecture":"奈良県","prefecture_kana":"ナラケン","city":"大和郡山市","city_kana":"ヤマトコオリヤマシ","town":"小泉町東","town_kana":"コイズミチョウヒガシ","prefecture_code":29},"1026":{"zip_code":"6391026","prefecture":"奈良県","prefecture_kana":"ナラケン","city":"大和郡山市","city_kana":"ヤマトコオリヤマシ","town":"小林町","town_kana":"コバヤシチョウ","prefecture_code":29},"1045":{"zip_code":"6391045","prefecture":"奈良県","prefecture_kana":"ナラケン","city":"大和郡山市","city_kana":"ヤマトコオリヤマシ","town":"小林町西","town_kana":"コバヤシチョウニシ","prefecture_code":29},"1023":{"zip_code":"6391023","prefecture":"奈良県","prefecture_kana":"ナラケン","city":"大和郡山市","city_kana":"ヤマトコオリヤマシ","town":"小南町","town_kana":"コミナミチョウ","prefecture_code":29},"1148":{"zip_code":"6391148","prefecture":"奈良県","prefecture_kana":"ナラケン","city":"大和郡山市","city_kana":"ヤマトコオリヤマシ","town":"紺屋町","town_kana":"コンヤマチ","prefecture_code":29},"1156":{"zip_code":"6391156","prefecture":"奈良県","prefecture_kana":"ナラケン","city":"大和郡山市","city_kana":"ヤマトコオリヤマシ","town":"堺町","town_kana":"サカイチョウ","prefecture_code":29},"1141":{"zip_code":"6391141","prefecture":"奈良県","prefecture_kana":"ナラケン","city":"大和郡山市","city_kana":"ヤマトコオリヤマシ","town":"材木町","town_kana":"ザイモクマチ","prefecture_code":29},"1150":{"zip_code":"6391150","prefecture":"奈良県","prefecture_kana":"ナラケン","city":"大和郡山市","city_kana":"ヤマトコオリヤマシ","town":"雑穀町","town_kana":"ザコクマチ","prefecture_code":29},"1169":{"zip_code":"6391169","prefecture":"奈良県","prefecture_kana":"ナラケン","city":"大和郡山市","city_kana":"ヤマトコオリヤマシ","town":"塩町","town_kana":"シオマチ","prefecture_code":29},"1039":{"zip_code":"6391039","prefecture":"奈良県","prefecture_kana":"ナラケン","city":"大和郡山市","city_kana":"ヤマトコオリヤマシ","town":"椎木町","town_kana":"シギチョウ","prefecture_code":29},"1101":{"zip_code":"6391101","prefecture":"奈良県","prefecture_kana":"ナラケン","city":"大和郡山市","city_kana":"ヤマトコオリヤマシ","town":"下三橋町","town_kana":"シモミツハシチョウ","prefecture_code":29},"1051":{"zip_code":"6391051","prefecture":"奈良県","prefecture_kana":"ナラケン","city":"大和郡山市","city_kana":"ヤマトコオリヤマシ","town":"城町","town_kana":"ジョウチョウ","prefecture_code":29},"1011":{"zip_code":"6391011","prefecture":"奈良県","prefecture_kana":"ナラケン","city":"大和郡山市","city_kana":"ヤマトコオリヤマシ","town":"城内町","town_kana":"ジョウナイチョウ","prefecture_code":29},"1016":{"zip_code":"6391016","prefecture":"奈良県","prefecture_kana":"ナラケン","city":"大和郡山市","city_kana":"ヤマトコオリヤマシ","town":"城南町","town_kana":"ジョウナンチョウ","prefecture_code":29},"1004":{"zip_code":"6391004","prefecture":"奈良県","prefecture_kana":"ナラケン","city":"大和郡山市","city_kana":"ヤマトコオリヤマシ","town":"城北町","town_kana":"ジョウホクチョウ","prefecture_code":29},"1033":{"zip_code":"6391033","prefecture":"奈良県","prefecture_kana":"ナラケン","city":"大和郡山市","city_kana":"ヤマトコオリヤマシ","town":"昭和町","town_kana":"ショウワチョウ","prefecture_code":29},"1112":{"zip_code":"6391112","prefecture":"奈良県","prefecture_kana":"ナラケン","city":"大和郡山市","city_kana":"ヤマトコオリヤマシ","town":"白土町","town_kana":"シラツチチョウ","prefecture_code":29},"1008":{"zip_code":"6391008","prefecture":"奈良県","prefecture_kana":"ナラケン","city":"大和郡山市","city_kana":"ヤマトコオリヤマシ","town":"城の台町","town_kana":"シロノダイチョウ","prefecture_code":29},"1012":{"zip_code":"6391012","prefecture":"奈良県","prefecture_kana":"ナラケン","city":"大和郡山市","city_kana":"ヤマトコオリヤマシ","town":"城見町","town_kana":"シロミチョウ","prefecture_code":29},"1143":{"zip_code":"6391143","prefecture":"奈良県","prefecture_kana":"ナラケン","city":"大和郡山市","city_kana":"ヤマトコオリヤマシ","town":"新紺屋町","town_kana":"シンコンヤマチ","prefecture_code":29},"1114":{"zip_code":"6391114","prefecture":"奈良県","prefecture_kana":"ナラケン","city":"大和郡山市","city_kana":"ヤマトコオリヤマシ","town":"新庄町","town_kana":"シンジョウチョウ","prefecture_code":29},"1157":{"zip_code":"6391157","prefecture":"奈良県","prefecture_kana":"ナラケン","city":"大和郡山市","city_kana":"ヤマトコオリヤマシ","town":"新中町","town_kana":"シンナカマチ","prefecture_code":29},"1054":{"zip_code":"6391054","prefecture":"奈良県","prefecture_kana":"ナラケン","city":"大和郡山市","city_kana":"ヤマトコオリヤマシ","town":"新町","town_kana":"シンマチ","prefecture_code":29},"1121":{"zip_code":"6391121","prefecture":"奈良県","prefecture_kana":"ナラケン","city":"大和郡山市","city_kana":"ヤマトコオリヤマシ","town":"杉町","town_kana":"スギチョウ","prefecture_code":29},"1053":{"zip_code":"6391053","prefecture":"奈良県","prefecture_kana":"ナラケン","city":"大和郡山市","city_kana":"ヤマトコオリヤマシ","town":"千日町","town_kana":"センニチチョウ","prefecture_code":29},"1003":{"zip_code":"6391003","prefecture":"奈良県","prefecture_kana":"ナラケン","city":"大和郡山市","city_kana":"ヤマトコオリヤマシ","town":"代官町","town_kana":"ダイカンチョウ","prefecture_code":29},"1133":{"zip_code":"6391133","prefecture":"奈良県","prefecture_kana":"ナラケン","city":"大和郡山市","city_kana":"ヤマトコオリヤマシ","town":"高田口町","town_kana":"タカダグチチョウ","prefecture_code":29},"1132":{"zip_code":"6391132","prefecture":"奈良県","prefecture_kana":"ナラケン","city":"大和郡山市","city_kana":"ヤマトコオリヤマシ","town":"高田町","town_kana":"タカダチョウ","prefecture_code":29},"1028":{"zip_code":"6391028","prefecture":"奈良県","prefecture_kana":"ナラケン","city":"大和郡山市","city_kana":"ヤマトコオリヤマシ","town":"田中町","town_kana":"タナカチョウ","prefecture_code":29},"1122":{"zip_code":"6391122","prefecture":"奈良県","prefecture_kana":"ナラケン","city":"大和郡山市","city_kana":"ヤマトコオリヤマシ","town":"丹後庄町","town_kana":"タンゴノショウチョウ","prefecture_code":29},"1152":{"zip_code":"6391152","prefecture":"奈良県","prefecture_kana":"ナラケン","city":"大和郡山市","city_kana":"ヤマトコオリヤマシ","town":"茶町","town_kana":"チャマチ","prefecture_code":29},"1127":{"zip_code":"6391127","prefecture":"奈良県","prefecture_kana":"ナラケン","city":"大和郡山市","city_kana":"ヤマトコオリヤマシ","town":"長安寺町","town_kana":"チョウアンジチョウ","prefecture_code":29},"1123":{"zip_code":"6391123","prefecture":"奈良県","prefecture_kana":"ナラケン","city":"大和郡山市","city_kana":"ヤマトコオリヤマシ","town":"筒井町","town_kana":"ツツイチョウ","prefecture_code":29},"1135":{"zip_code":"6391135","prefecture":"奈良県","prefecture_kana":"ナラケン","city":"大和郡山市","city_kana":"ヤマトコオリヤマシ","town":"天井町","town_kana":"テンジョウチョウ","prefecture_code":29},"1006":{"zip_code":"6391006","prefecture":"奈良県","prefecture_kana":"ナラケン","city":"大和郡山市","city_kana":"ヤマトコオリヤマシ","town":"天理町","town_kana":"テンリチョウ","prefecture_code":29},"1144":{"zip_code":"6391144","prefecture":"奈良県","prefecture_kana":"ナラケン","city":"大和郡山市","city_kana":"ヤマトコオリヤマシ","town":"洞泉寺町","town_kana":"トウセンジチョウ","prefecture_code":29},"1149":{"zip_code":"6391149","prefecture":"奈良県","prefecture_kana":"ナラケン","city":"大和郡山市","city_kana":"ヤマトコオリヤマシ","town":"豆腐町","town_kana":"トウフマチ","prefecture_code":29},"1052":{"zip_code":"6391052","prefecture":"奈良県","prefecture_kana":"ナラケン","city":"大和郡山市","city_kana":"ヤマトコオリヤマシ","town":"外川町","town_kana":"トガワチョウ","prefecture_code":29},"1022":{"zip_code":"6391022","prefecture":"奈良県","prefecture_kana":"ナラケン","city":"大和郡山市","city_kana":"ヤマトコオリヤマシ","town":"豊浦町","town_kana":"トヨウラチョウ","prefecture_code":29},"1166":{"zip_code":"6391166","prefecture":"奈良県","prefecture_kana":"ナラケン","city":"大和郡山市","city_kana":"ヤマトコオリヤマシ","town":"中鍛冶町","town_kana":"ナカカジマチ","prefecture_code":29},"1118":{"zip_code":"6391118","prefecture":"奈良県","prefecture_kana":"ナラケン","city":"大和郡山市","city_kana":"ヤマトコオリヤマシ","town":"中城町","town_kana":"ナカジョウチョウ","prefecture_code":29},"1159":{"zip_code":"6391159","prefecture":"奈良県","prefecture_kana":"ナラケン","city":"大和郡山市","city_kana":"ヤマトコオリヤマシ","town":"奈良町","town_kana":"ナラマチ","prefecture_code":29},"1021":{"zip_code":"6391021","prefecture":"奈良県","prefecture_kana":"ナラケン","city":"大和郡山市","city_kana":"ヤマトコオリヤマシ","town":"新木町","town_kana":"ニキチョウ","prefecture_code":29},"1014":{"zip_code":"6391014","prefecture":"奈良県","prefecture_kana":"ナラケン","city":"大和郡山市","city_kana":"ヤマトコオリヤマシ","town":"西岡町","town_kana":"ニシオカチョウ","prefecture_code":29},"1164":{"zip_code":"6391164","prefecture":"奈良県","prefecture_kana":"ナラケン","city":"大和郡山市","city_kana":"ヤマトコオリヤマシ","town":"西観音寺町","town_kana":"ニシカンノンジチョウ","prefecture_code":29},"1043":{"zip_code":"6391043","prefecture":"奈良県","prefecture_kana":"ナラケン","city":"大和郡山市","city_kana":"ヤマトコオリヤマシ","town":"西田中町","town_kana":"ニシタナカチョウ","prefecture_code":29},"1163":{"zip_code":"6391163","prefecture":"奈良県","prefecture_kana":"ナラケン","city":"大和郡山市","city_kana":"ヤマトコオリヤマシ","town":"西奈良口町","town_kana":"ニシナラグチチョウ","prefecture_code":29},"1153":{"zip_code":"6391153","prefecture":"奈良県","prefecture_kana":"ナラケン","city":"大和郡山市","city_kana":"ヤマトコオリヤマシ","town":"西野垣内町","town_kana":"ニシノガイトチョウ","prefecture_code":29},"1038":{"zip_code":"6391038","prefecture":"奈良県","prefecture_kana":"ナラケン","city":"大和郡山市","city_kana":"ヤマトコオリヤマシ","town":"西町","town_kana":"ニシマチ","prefecture_code":29},"1036":{"zip_code":"6391036","prefecture":"奈良県","prefecture_kana":"ナラケン","city":"大和郡山市","city_kana":"ヤマトコオリヤマシ","town":"額田部寺町","town_kana":"ヌカタベテラマチ","prefecture_code":29},"1035":{"zip_code":"6391035","prefecture":"奈良県","prefecture_kana":"ナラケン","city":"大和郡山市","city_kana":"ヤマトコオリヤマシ","town":"額田部南町","town_kana":"ヌカタベミナミチョウ","prefecture_code":29},"1037":{"zip_code":"6391037","prefecture":"奈良県","prefecture_kana":"ナラケン","city":"大和郡山市","city_kana":"ヤマトコオリヤマシ","town":"額田部北町","town_kana":"ヌカタベキタマチ","prefecture_code":29},"1131":{"zip_code":"6391131","prefecture":"奈良県","prefecture_kana":"ナラケン","city":"大和郡山市","city_kana":"ヤマトコオリヤマシ","town":"野垣内町","town_kana":"ノガイトチョウ","prefecture_code":29},"1125":{"zip_code":"6391125","prefecture":"奈良県","prefecture_kana":"ナラケン","city":"大和郡山市","city_kana":"ヤマトコオリヤマシ","town":"八条町","town_kana":"ハチジョウチョウ","prefecture_code":29},"1119":{"zip_code":"6391119","prefecture":"奈良県","prefecture_kana":"ナラケン","city":"大和郡山市","city_kana":"ヤマトコオリヤマシ","town":"発志院町","town_kana":"ハツシインチョウ","prefecture_code":29},"1105":{"zip_code":"6391105","prefecture":"奈良県","prefecture_kana":"ナラケン","city":"大和郡山市","city_kana":"ヤマトコオリヤマシ","town":"番匠田中町","town_kana":"バンジョウタナカチョウ","prefecture_code":29},"1117":{"zip_code":"6391117","prefecture":"奈良県","prefecture_kana":"ナラケン","city":"大和郡山市","city_kana":"ヤマトコオリヤマシ","town":"番条町","town_kana":"バンジョウチョウ","prefecture_code":29},"1108":{"zip_code":"6391108","prefecture":"奈良県","prefecture_kana":"ナラケン","city":"大和郡山市","city_kana":"ヤマトコオリヤマシ","town":"稗田町","town_kana":"ヒエダチョウ","prefecture_code":29},"1137":{"zip_code":"6391137","prefecture":"奈良県","prefecture_kana":"ナラケン","city":"大和郡山市","city_kana":"ヤマトコオリヤマシ","town":"東岡町","town_kana":"ヒガシオカチョウ","prefecture_code":29},"1162":{"zip_code":"6391162","prefecture":"奈良県","prefecture_kana":"ナラケン","city":"大和郡山市","city_kana":"ヤマトコオリヤマシ","town":"東奈良口町","town_kana":"ヒガシナラグチチョウ","prefecture_code":29},"1017":{"zip_code":"6391017","prefecture":"奈良県","prefecture_kana":"ナラケン","city":"大和郡山市","city_kana":"ヤマトコオリヤマシ","town":"藤原町","town_kana":"フジワラチョウ","prefecture_code":29},"1136":{"zip_code":"6391136","prefecture":"奈良県","prefecture_kana":"ナラケン","city":"大和郡山市","city_kana":"ヤマトコオリヤマシ","town":"本庄町","town_kana":"ホンジョウチョウ","prefecture_code":29},"1151":{"zip_code":"6391151","prefecture":"奈良県","prefecture_kana":"ナラケン","city":"大和郡山市","city_kana":"ヤマトコオリヤマシ","town":"本町","town_kana":"ホンマチ","prefecture_code":29},"1124":{"zip_code":"6391124","prefecture":"奈良県","prefecture_kana":"ナラケン","city":"大和郡山市","city_kana":"ヤマトコオリヤマシ","town":"馬司町","town_kana":"マツカサチョウ","prefecture_code":29},"1041":{"zip_code":"6391041","prefecture":"奈良県","prefecture_kana":"ナラケン","city":"大和郡山市","city_kana":"ヤマトコオリヤマシ","town":"満願寺町","town_kana":"マンガンジチョウ","prefecture_code":29},"1024":{"zip_code":"6391024","prefecture":"奈良県","prefecture_kana":"ナラケン","city":"大和郡山市","city_kana":"ヤマトコオリヤマシ","town":"南井町","town_kana":"ミナミイチョウ","prefecture_code":29},"1167":{"zip_code":"6391167","prefecture":"奈良県","prefecture_kana":"ナラケン","city":"大和郡山市","city_kana":"ヤマトコオリヤマシ","town":"南鍛冶町","town_kana":"ミナミカジマチ","prefecture_code":29},"1007":{"zip_code":"6391007","prefecture":"奈良県","prefecture_kana":"ナラケン","city":"大和郡山市","city_kana":"ヤマトコオリヤマシ","town":"南郡山町","town_kana":"ミナミコオリヤマチョウ","prefecture_code":29},"1145":{"zip_code":"6391145","prefecture":"奈良県","prefecture_kana":"ナラケン","city":"大和郡山市","city_kana":"ヤマトコオリヤマシ","town":"南大工町","town_kana":"ミナミダイクマチ","prefecture_code":29},"1103":{"zip_code":"6391103","prefecture":"奈良県","prefecture_kana":"ナラケン","city":"大和郡山市","city_kana":"ヤマトコオリヤマシ","town":"美濃庄町","town_kana":"ミノショウチョウ","prefecture_code":29},"1015":{"zip_code":"6391015","prefecture":"奈良県","prefecture_kana":"ナラケン","city":"大和郡山市","city_kana":"ヤマトコオリヤマシ","town":"箕山町","town_kana":"ミノヤマチョウ","prefecture_code":29},"1126":{"zip_code":"6391126","prefecture":"奈良県","prefecture_kana":"ナラケン","city":"大和郡山市","city_kana":"ヤマトコオリヤマシ","town":"宮堂町","town_kana":"ミヤドウチョウ","prefecture_code":29},"1058":{"zip_code":"6391058","prefecture":"奈良県","prefecture_kana":"ナラケン","city":"大和郡山市","city_kana":"ヤマトコオリヤマシ","town":"矢田町","town_kana":"ヤタチョウ","prefecture_code":29},"1142":{"zip_code":"6391142","prefecture":"奈良県","prefecture_kana":"ナラケン","city":"大和郡山市","city_kana":"ヤマトコオリヤマシ","town":"矢田町通","town_kana":"ヤタマチドオリ","prefecture_code":29},"1055":{"zip_code":"6391055","prefecture":"奈良県","prefecture_kana":"ナラケン","city":"大和郡山市","city_kana":"ヤマトコオリヤマシ","town":"矢田山町","town_kana":"ヤタヤマチョウ","prefecture_code":29},"1134":{"zip_code":"6391134","prefecture":"奈良県","prefecture_kana":"ナラケン","city":"大和郡山市","city_kana":"ヤマトコオリヤマシ","town":"柳（町）","town_kana":"ヤナギ(マチ)","prefecture_code":29},"1057":{"zip_code":"6391057","prefecture":"奈良県","prefecture_kana":"ナラケン","city":"大和郡山市","city_kana":"ヤマトコオリヤマシ","town":"山田町","town_kana":"ヤマダチョウ","prefecture_code":29},"1115":{"zip_code":"6391115","prefecture":"奈良県","prefecture_kana":"ナラケン","city":"大和郡山市","city_kana":"ヤマトコオリヤマシ","town":"横田町","town_kana":"ヨコタチョウ","prefecture_code":29},"1107":{"zip_code":"6391107","prefecture":"奈良県","prefecture_kana":"ナラケン","city":"大和郡山市","city_kana":"ヤマトコオリヤマシ","town":"若槻町","town_kana":"ワカツキチョウ","prefecture_code":29},"1154":{"zip_code":"6391154","prefecture":"奈良県","prefecture_kana":"ナラケン","city":"大和郡山市","city_kana":"ヤマトコオリヤマシ","town":"綿町","town_kana":"ワタマチ","prefecture_code":29},"2200":{"zip_code":"6392200","prefecture":"奈良県","prefecture_kana":"ナラケン","city":"御所市","city_kana":"ゴセシ","town":"以下に掲載がない場合","town_kana":"イカニケイサイガナイバアイ","prefecture_code":29},"2341":{"zip_code":"6392341","prefecture":"奈良県","prefecture_kana":"ナラケン","city":"御所市","city_kana":"ゴセシ","town":"朝妻","town_kana":"アサヅマ","prefecture_code":29},"2239":{"zip_code":"6392239","prefecture":"奈良県","prefecture_kana":"ナラケン","city":"御所市","city_kana":"ゴセシ","town":"旭町","town_kana":"アサヒマチ","prefecture_code":29},"2255":{"zip_code":"6392255","prefecture":"奈良県","prefecture_kana":"ナラケン","city":"御所市","city_kana":"ゴセシ","town":"朝町","town_kana":"アサマチ","prefecture_code":29},"2264":{"zip_code":"6392264","prefecture":"奈良県","prefecture_kana":"ナラケン","city":"御所市","city_kana":"ゴセシ","town":"五百家","town_kana":"イウカ","prefecture_code":29},"2273":{"zip_code":"6392273","prefecture":"奈良県","prefecture_kana":"ナラケン","city":"御所市","city_kana":"ゴセシ","town":"池之内","town_kana":"イケノウチ","prefecture_code":29},"2326":{"zip_code":"6392326","prefecture":"奈良県","prefecture_kana":"ナラケン","city":"御所市","city_kana":"ゴセシ","town":"井戸","town_kana":"イド","prefecture_code":29},"2258":{"zip_code":"6392258","prefecture":"奈良県","prefecture_kana":"ナラケン","city":"御所市","city_kana":"ゴセシ","town":"稲宿","town_kana":"イナイド","prefecture_code":29},"2245":{"zip_code":"6392245","prefecture":"奈良県","prefecture_kana":"ナラケン","city":"御所市","city_kana":"ゴセシ","town":"今住","town_kana":"イマズミ","prefecture_code":29},"2279":{"zip_code":"6392279","prefecture":"奈良県","prefecture_kana":"ナラケン","city":"御所市","city_kana":"ゴセシ","town":"今出","town_kana":"イマデ","prefecture_code":29},"2207":{"zip_code":"6392207","prefecture":"奈良県","prefecture_kana":"ナラケン","city":"御所市","city_kana":"ゴセシ","town":"今城","town_kana":"イマンジョウ","prefecture_code":29},"2267":{"zip_code":"6392267","prefecture":"奈良県","prefecture_kana":"ナラケン","city":"御所市","city_kana":"ゴセシ","town":"内谷","town_kana":"ウチタニ","prefecture_code":29},"2323":{"zip_code":"6392323","prefecture":"奈良県","prefecture_kana":"ナラケン","city":"御所市","city_kana":"ゴセシ","town":"多田","town_kana":"オイダ","prefecture_code":29},"2238":{"zip_code":"6392238","prefecture":"奈良県","prefecture_kana":"ナラケン","city":"御所市","city_kana":"ゴセシ","town":"大橋通り","town_kana":"オオハシドオリ","prefecture_code":29},"2304":{"zip_code":"6392304","prefecture":"奈良県","prefecture_kana":"ナラケン","city":"御所市","city_kana":"ゴセシ","town":"大広町","town_kana":"オオヒロチョウ","prefecture_code":29},"2257":{"zip_code":"6392257","prefecture":"奈良県","prefecture_kana":"ナラケン","city":"御所市","city_kana":"ゴセシ","town":"小殿","town_kana":"オドノ","prefecture_code":29},"2231":{"zip_code":"6392231","prefecture":"奈良県","prefecture_kana":"ナラケン","city":"御所市","city_kana":"ゴセシ","town":"柿ケ坪町","town_kana":"カキガツボチョウ","prefecture_code":29},"2244":{"zip_code":"6392244","prefecture":"奈良県","prefecture_kana":"ナラケン","city":"御所市","city_kana":"ゴセシ","town":"柏原","town_kana":"カシハラ","prefecture_code":29},"2343":{"zip_code":"6392343","prefecture":"奈良県","prefecture_kana":"ナラケン","city":"御所市","city_kana":"ゴセシ","town":"鴨神","town_kana":"カモガミ","prefecture_code":29},"2229":{"zip_code":"6392229","prefecture":"奈良県","prefecture_kana":"ナラケン","city":"御所市","city_kana":"ゴセシ","town":"鴨口町","town_kana":"カモグチチョウ","prefecture_code":29},"2334":{"zip_code":"6392334","prefecture":"奈良県","prefecture_kana":"ナラケン","city":"御所市","city_kana":"ゴセシ","town":"北窪","town_kana":"キタクボ","prefecture_code":29},"2203":{"zip_code":"6392203","prefecture":"奈良県","prefecture_kana":"ナラケン","city":"御所市","city_kana":"ゴセシ","town":"北十三","town_kana":"キタジュウソ","prefecture_code":29},"2312":{"zip_code":"6392312","prefecture":"奈良県","prefecture_kana":"ナラケン","city":"御所市","city_kana":"ゴセシ","town":"櫛羅","town_kana":"クジラ","prefecture_code":29},"2256":{"zip_code":"6392256","prefecture":"奈良県","prefecture_kana":"ナラケン","city":"御所市","city_kana":"ゴセシ","town":"栗阪","town_kana":"クリサカ","prefecture_code":29},"2211":{"zip_code":"6392211","prefecture":"奈良県","prefecture_kana":"ナラケン","city":"御所市","city_kana":"ゴセシ","town":"国鉄御所駅前通り","town_kana":"コクテツゴセエキマエドオリ","prefecture_code":29},"2337":{"zip_code":"6392337","prefecture":"奈良県","prefecture_kana":"ナラケン","city":"御所市","city_kana":"ゴセシ","town":"極楽寺","town_kana":"ゴクラクジ","prefecture_code":29},"2254":{"zip_code":"6392254","prefecture":"奈良県","prefecture_kana":"ナラケン","city":"御所市","city_kana":"ゴセシ","town":"古瀬","town_kana":"コセ","prefecture_code":29},"2311":{"zip_code":"6392311","prefecture":"奈良県","prefecture_kana":"ナラケン","city":"御所市","city_kana":"ゴセシ","town":"小林","town_kana":"コバヤシ","prefecture_code":29},"2224":{"zip_code":"6392224","prefecture":"奈良県","prefecture_kana":"ナラケン","city":"御所市","city_kana":"ゴセシ","town":"西柏町","town_kana":"サイカシチョウ","prefecture_code":29},"2314":{"zip_code":"6392314","prefecture":"奈良県","prefecture_kana":"ナラケン","city":"御所市","city_kana":"ゴセシ","town":"幸町","town_kana":"サイワイチョウ","prefecture_code":29},"2221":{"zip_code":"6392221","prefecture":"奈良県","prefecture_kana":"ナラケン","city":"御所市","city_kana":"ゴセシ","town":"栄町","town_kana":"サカエマチ","prefecture_code":29},"2325":{"zip_code":"6392325","prefecture":"奈良県","prefecture_kana":"ナラケン","city":"御所市","city_kana":"ゴセシ","town":"佐田","town_kana":"サダ","prefecture_code":29},"2272":{"zip_code":"6392272","prefecture":"奈良県","prefecture_kana":"ナラケン","city":"御所市","city_kana":"ゴセシ","town":"蛇穴","town_kana":"サラギ","prefecture_code":29},"2324":{"zip_code":"6392324","prefecture":"奈良県","prefecture_kana":"ナラケン","city":"御所市","city_kana":"ゴセシ","town":"下茶屋","town_kana":"シモノチャヤ","prefecture_code":29},"2276":{"zip_code":"6392276","prefecture":"奈良県","prefecture_kana":"ナラケン","city":"御所市","city_kana":"ゴセシ","town":"條","town_kana":"ジョウ","prefecture_code":29},"2261":{"zip_code":"6392261","prefecture":"奈良県","prefecture_kana":"ナラケン","city":"御所市","city_kana":"ゴセシ","town":"城山台","town_kana":"シロヤマダイ","prefecture_code":29},"2213":{"zip_code":"6392213","prefecture":"奈良県","prefecture_kana":"ナラケン","city":"御所市","city_kana":"ゴセシ","town":"神宮町","town_kana":"ジングウチョウ","prefecture_code":29},"2217":{"zip_code":"6392217","prefecture":"奈良県","prefecture_kana":"ナラケン","city":"御所市","city_kana":"ゴセシ","town":"新地町","town_kana":"シンチマチ","prefecture_code":29},"2265":{"zip_code":"6392265","prefecture":"奈良県","prefecture_kana":"ナラケン","city":"御所市","city_kana":"ゴセシ","town":"新田","town_kana":"シンデン","prefecture_code":29},"2235":{"zip_code":"6392235","prefecture":"奈良県","prefecture_kana":"ナラケン","city":"御所市","city_kana":"ゴセシ","town":"寺内町","town_kana":"ジナイチョウ","prefecture_code":29},"2303":{"zip_code":"6392303","prefecture":"奈良県","prefecture_kana":"ナラケン","city":"御所市","city_kana":"ゴセシ","town":"末広町","town_kana":"スエヒロチョウ","prefecture_code":29},"2328":{"zip_code":"6392328","prefecture":"奈良県","prefecture_kana":"ナラケン","city":"御所市","city_kana":"ゴセシ","town":"関屋","town_kana":"セキヤ","prefecture_code":29},"2342":{"zip_code":"6392342","prefecture":"奈良県","prefecture_kana":"ナラケン","city":"御所市","city_kana":"ゴセシ","town":"僧堂","town_kana":"ソウドウ","prefecture_code":29},"2236":{"zip_code":"6392236","prefecture":"奈良県","prefecture_kana":"ナラケン","city":"御所市","city_kana":"ゴセシ","town":"代官町","town_kana":"ダイカンマチ","prefecture_code":29},"2336":{"zip_code":"6392336","prefecture":"奈良県","prefecture_kana":"ナラケン","city":"御所市","city_kana":"ゴセシ","town":"高天","town_kana":"タカマ","prefecture_code":29},"2206":{"zip_code":"6392206","prefecture":"奈良県","prefecture_kana":"ナラケン","city":"御所市","city_kana":"ゴセシ","town":"竹田","town_kana":"タケダ","prefecture_code":29},"2247":{"zip_code":"6392247","prefecture":"奈良県","prefecture_kana":"ナラケン","city":"御所市","city_kana":"ゴセシ","town":"玉手","town_kana":"タマデ","prefecture_code":29},"2241":{"zip_code":"6392241","prefecture":"奈良県","prefecture_kana":"ナラケン","city":"御所市","city_kana":"ゴセシ","town":"茅原","town_kana":"チハラ","prefecture_code":29},"2212":{"zip_code":"6392212","prefecture":"奈良県","prefecture_kana":"ナラケン","city":"御所市","city_kana":"ゴセシ","town":"中央通り","town_kana":"チュウオウドオリ","prefecture_code":29},"2275":{"zip_code":"6392275","prefecture":"奈良県","prefecture_kana":"ナラケン","city":"御所市","city_kana":"ゴセシ","town":"出走","town_kana":"デハシリ","prefecture_code":29},"2202":{"zip_code":"6392202","prefecture":"奈良県","prefecture_kana":"ナラケン","city":"御所市","city_kana":"ゴセシ","town":"出屋敷","town_kana":"デヤシキ","prefecture_code":29},"2251":{"zip_code":"6392251","prefecture":"奈良県","prefecture_kana":"ナラケン","city":"御所市","city_kana":"ゴセシ","town":"戸毛","town_kana":"トウゲ","prefecture_code":29},"2274":{"zip_code":"6392274","prefecture":"奈良県","prefecture_kana":"ナラケン","city":"御所市","city_kana":"ゴセシ","town":"冨田","town_kana":"トミタ","prefecture_code":29},"2317":{"zip_code":"6392317","prefecture":"奈良県","prefecture_kana":"ナラケン","city":"御所市","city_kana":"ゴセシ","town":"豊田","town_kana":"トヨダ","prefecture_code":29},"2263":{"zip_code":"6392263","prefecture":"奈良県","prefecture_kana":"ナラケン","city":"御所市","city_kana":"ゴセシ","town":"鳥井戸","town_kana":"トリイド","prefecture_code":29},"2225":{"zip_code":"6392225","prefecture":"奈良県","prefecture_kana":"ナラケン","city":"御所市","city_kana":"ゴセシ","town":"中本町","town_kana":"ナカホンマチ","prefecture_code":29},"2321":{"zip_code":"6392321","prefecture":"奈良県","prefecture_kana":"ナラケン","city":"御所市","city_kana":"ゴセシ","town":"名柄","town_kana":"ナガラ","prefecture_code":29},"2313":{"zip_code":"6392313","prefecture":"奈良県","prefecture_kana":"ナラケン","city":"御所市","city_kana":"ゴセシ","town":"楢原","town_kana":"ナラバラ","prefecture_code":29},"2331":{"zip_code":"6392331","prefecture":"奈良県","prefecture_kana":"ナラケン","city":"御所市","city_kana":"ゴセシ","town":"南郷","town_kana":"ナンゴウ","prefecture_code":29},"2335":{"zip_code":"6392335","prefecture":"奈良県","prefecture_kana":"ナラケン","city":"御所市","city_kana":"ゴセシ","town":"西北窪","town_kana":"ニシキタクボ","prefecture_code":29},"2228":{"zip_code":"6392228","prefecture":"奈良県","prefecture_kana":"ナラケン","city":"御所市","city_kana":"ゴセシ","town":"西久保本町","town_kana":"ニシクボホンマチ","prefecture_code":29},"2345":{"zip_code":"6392345","prefecture":"奈良県","prefecture_kana":"ナラケン","city":"御所市","city_kana":"ゴセシ","town":"西佐味","town_kana":"ニシサビ","prefecture_code":29},"2316":{"zip_code":"6392316","prefecture":"奈良県","prefecture_kana":"ナラケン","city":"御所市","city_kana":"ゴセシ","town":"西寺田","town_kana":"ニシテラダ","prefecture_code":29},"2215":{"zip_code":"6392215","prefecture":"奈良県","prefecture_kana":"ナラケン","city":"御所市","city_kana":"ゴセシ","town":"西町","town_kana":"ニシマチ","prefecture_code":29},"2332":{"zip_code":"6392332","prefecture":"奈良県","prefecture_kana":"ナラケン","city":"御所市","city_kana":"ゴセシ","town":"西持田","town_kana":"ニシモッタ","prefecture_code":29},"2333":{"zip_code":"6392333","prefecture":"奈良県","prefecture_kana":"ナラケン","city":"御所市","city_kana":"ゴセシ","town":"林","town_kana":"ハヤシ","prefecture_code":29},"2246":{"zip_code":"6392246","prefecture":"奈良県","prefecture_kana":"ナラケン","city":"御所市","city_kana":"ゴセシ","town":"原谷","town_kana":"ハラダニ","prefecture_code":29},"2227":{"zip_code":"6392227","prefecture":"奈良県","prefecture_kana":"ナラケン","city":"御所市","city_kana":"ゴセシ","town":"東久保町","town_kana":"ヒガシクボチョウ","prefecture_code":29},"2344":{"zip_code":"6392344","prefecture":"奈良県","prefecture_kana":"ナラケン","city":"御所市","city_kana":"ゴセシ","town":"東佐味","town_kana":"ヒガシサビ","prefecture_code":29},"2205":{"zip_code":"6392205","prefecture":"奈良県","prefecture_kana":"ナラケン","city":"御所市","city_kana":"ゴセシ","town":"東辻","town_kana":"ヒガシツジ","prefecture_code":29},"2243":{"zip_code":"6392243","prefecture":"奈良県","prefecture_kana":"ナラケン","city":"御所市","city_kana":"ゴセシ","town":"東寺田","town_kana":"ヒガシテラダ","prefecture_code":29},"2322":{"zip_code":"6392322","prefecture":"奈良県","prefecture_kana":"ナラケン","city":"御所市","city_kana":"ゴセシ","town":"東名柄","town_kana":"ヒガシナガラ","prefecture_code":29},"2302":{"zip_code":"6392302","prefecture":"奈良県","prefecture_kana":"ナラケン","city":"御所市","city_kana":"ゴセシ","town":"東松本","town_kana":"ヒガシマツモト","prefecture_code":29},"2262":[{"zip_code":"6392262","prefecture":"奈良県","prefecture_kana":"ナラケン","city":"御所市","city_kana":"ゴセシ","town":"東持田","town_kana":"ヒガシモッタ","prefecture_code":29},{"zip_code":"6392262","prefecture":"奈良県","prefecture_kana":"ナラケン","city":"御所市","city_kana":"ゴセシ","town":"持田","town_kana":"モッタ","prefecture_code":29}],"2252":{"zip_code":"6392252","prefecture":"奈良県","prefecture_kana":"ナラケン","city":"御所市","city_kana":"ゴセシ","town":"樋野","town_kana":"ヒノ","prefecture_code":29},"2346":{"zip_code":"6392346","prefecture":"奈良県","prefecture_kana":"ナラケン","city":"御所市","city_kana":"ゴセシ","town":"伏見","town_kana":"フシミ","prefecture_code":29},"2268":{"zip_code":"6392268","prefecture":"奈良県","prefecture_kana":"ナラケン","city":"御所市","city_kana":"ゴセシ","town":"船路","town_kana":"フナジ","prefecture_code":29},"2253":{"zip_code":"6392253","prefecture":"奈良県","prefecture_kana":"ナラケン","city":"御所市","city_kana":"ゴセシ","town":"奉膳","town_kana":"ブンゼ","prefecture_code":29},"2266":{"zip_code":"6392266","prefecture":"奈良県","prefecture_kana":"ナラケン","city":"御所市","city_kana":"ゴセシ","town":"重阪","town_kana":"ヘイサカ","prefecture_code":29},"2237":{"zip_code":"6392237","prefecture":"奈良県","prefecture_kana":"ナラケン","city":"御所市","city_kana":"ゴセシ","town":"豊年橋通り","town_kana":"ホウネンバシドオリ","prefecture_code":29},"2242":{"zip_code":"6392242","prefecture":"奈良県","prefecture_kana":"ナラケン","city":"御所市","city_kana":"ゴセシ","town":"本馬","town_kana":"ホンマ","prefecture_code":29},"2223":{"zip_code":"6392223","prefecture":"奈良県","prefecture_kana":"ナラケン","city":"御所市","city_kana":"ゴセシ","town":"本町","town_kana":"ホンマチ","prefecture_code":29},"2327":{"zip_code":"6392327","prefecture":"奈良県","prefecture_kana":"ナラケン","city":"御所市","city_kana":"ゴセシ","town":"増","town_kana":"マシ","prefecture_code":29},"2232":{"zip_code":"6392232","prefecture":"奈良県","prefecture_kana":"ナラケン","city":"御所市","city_kana":"ゴセシ","town":"御門町","town_kana":"ミカドチョウ","prefecture_code":29},"2216":{"zip_code":"6392216","prefecture":"奈良県","prefecture_kana":"ナラケン","city":"御所市","city_kana":"ゴセシ","town":"御国通り","town_kana":"ミクニドオリ","prefecture_code":29},"2214":{"zip_code":"6392214","prefecture":"奈良県","prefecture_kana":"ナラケン","city":"御所市","city_kana":"ゴセシ","town":"御堂魚棚町","town_kana":"ミドウウオンタナチョウ","prefecture_code":29},"2278":{"zip_code":"6392278","prefecture":"奈良県","prefecture_kana":"ナラケン","city":"御所市","city_kana":"ゴセシ","town":"緑ケ丘","town_kana":"ミドリガオカ","prefecture_code":29},"2248":{"zip_code":"6392248","prefecture":"奈良県","prefecture_kana":"ナラケン","city":"御所市","city_kana":"ゴセシ","town":"緑町","town_kana":"ミドリマチ","prefecture_code":29},"2204":{"zip_code":"6392204","prefecture":"奈良県","prefecture_kana":"ナラケン","city":"御所市","city_kana":"ゴセシ","town":"南十三","town_kana":"ミナミジュウソ","prefecture_code":29},"2226":{"zip_code":"6392226","prefecture":"奈良県","prefecture_kana":"ナラケン","city":"御所市","city_kana":"ゴセシ","town":"南中町","town_kana":"ミナミナカマチ","prefecture_code":29},"2306":{"zip_code":"6392306","prefecture":"奈良県","prefecture_kana":"ナラケン","city":"御所市","city_kana":"ゴセシ","town":"三室","town_kana":"ミムロ","prefecture_code":29},"2233":{"zip_code":"6392233","prefecture":"奈良県","prefecture_kana":"ナラケン","city":"御所市","city_kana":"ゴセシ","town":"都町","town_kana":"ミヤコマチ","prefecture_code":29},"2315":{"zip_code":"6392315","prefecture":"奈良県","prefecture_kana":"ナラケン","city":"御所市","city_kana":"ゴセシ","town":"宮戸","town_kana":"ミヤド","prefecture_code":29},"2271":{"zip_code":"6392271","prefecture":"奈良県","prefecture_kana":"ナラケン","city":"御所市","city_kana":"ゴセシ","town":"宮前町","town_kana":"ミヤマエマチ","prefecture_code":29},"2277":{"zip_code":"6392277","prefecture":"奈良県","prefecture_kana":"ナラケン","city":"御所市","city_kana":"ゴセシ","town":"室","town_kana":"ムロ","prefecture_code":29},"2301":{"zip_code":"6392301","prefecture":"奈良県","prefecture_kana":"ナラケン","city":"御所市","city_kana":"ゴセシ","town":"元町","town_kana":"モトマチ","prefecture_code":29},"2318":{"zip_code":"6392318","prefecture":"奈良県","prefecture_kana":"ナラケン","city":"御所市","city_kana":"ゴセシ","town":"森脇","town_kana":"モリワキ","prefecture_code":29},"2305":{"zip_code":"6392305","prefecture":"奈良県","prefecture_kana":"ナラケン","city":"御所市","city_kana":"ゴセシ","town":"柳田町","town_kana":"ヤナギダチョウ","prefecture_code":29},"2201":{"zip_code":"6392201","prefecture":"奈良県","prefecture_kana":"ナラケン","city":"御所市","city_kana":"ゴセシ","town":"柳原","town_kana":"ヤナギハラ","prefecture_code":29},"2234":{"zip_code":"6392234","prefecture":"奈良県","prefecture_kana":"ナラケン","city":"御所市","city_kana":"ゴセシ","town":"柳町","town_kana":"ヤナギマチ","prefecture_code":29},"2222":{"zip_code":"6392222","prefecture":"奈良県","prefecture_kana":"ナラケン","city":"御所市","city_kana":"ゴセシ","town":"六軒町","town_kana":"ロッケンマチ","prefecture_code":29},"0200":[{"zip_code":"6390200","prefecture":"奈良県","prefecture_kana":"ナラケン","city":"香芝市","city_kana":"カシバシ","town":"以下に掲載がない場合","town_kana":"イカニケイサイガナイバアイ","prefecture_code":29},{"zip_code":"6390200","prefecture":"奈良県","prefecture_kana":"ナラケン","city":"北葛城郡上牧町","city_kana":"キタカツラギグンカンマキチョウ","town":"以下に掲載がない場合","town_kana":"イカニケイサイガナイバアイ","prefecture_code":29}],"0266":{"zip_code":"6390266","prefecture":"奈良県","prefecture_kana":"ナラケン","city":"香芝市","city_kana":"カシバシ","town":"旭ケ丘","town_kana":"アサヒガオカ","prefecture_code":29},"0252":{"zip_code":"6390252","prefecture":"奈良県","prefecture_kana":"ナラケン","city":"香芝市","city_kana":"カシバシ","town":"穴虫","town_kana":"アナムシ","prefecture_code":29},"0236":{"zip_code":"6390236","prefecture":"奈良県","prefecture_kana":"ナラケン","city":"香芝市","city_kana":"カシバシ","town":"磯壁","town_kana":"イソカベ","prefecture_code":29},"0264":{"zip_code":"6390264","prefecture":"奈良県","prefecture_kana":"ナラケン","city":"香芝市","city_kana":"カシバシ","town":"今泉","town_kana":"イマイズミ","prefecture_code":29},"0251":{"zip_code":"6390251","prefecture":"奈良県","prefecture_kana":"ナラケン","city":"香芝市","city_kana":"カシバシ","town":"逢坂","town_kana":"オウサカ","prefecture_code":29},"0227":{"zip_code":"6390227","prefecture":"奈良県","prefecture_kana":"ナラケン","city":"香芝市","city_kana":"カシバシ","town":"鎌田","town_kana":"カマダ","prefecture_code":29},"0265":{"zip_code":"6390265","prefecture":"奈良県","prefecture_kana":"ナラケン","city":"香芝市","city_kana":"カシバシ","town":"上中","town_kana":"カミナカ","prefecture_code":29},"0225":{"zip_code":"6390225","prefecture":"奈良県","prefecture_kana":"ナラケン","city":"香芝市","city_kana":"カシバシ","town":"瓦口","town_kana":"カワラグチ","prefecture_code":29},"0242":{"zip_code":"6390242","prefecture":"奈良県","prefecture_kana":"ナラケン","city":"香芝市","city_kana":"カシバシ","town":"北今市","town_kana":"キタイマイチ","prefecture_code":29},"0234":{"zip_code":"6390234","prefecture":"奈良県","prefecture_kana":"ナラケン","city":"香芝市","city_kana":"カシバシ","town":"狐井","town_kana":"キツイ","prefecture_code":29},"0226":{"zip_code":"6390226","prefecture":"奈良県","prefecture_kana":"ナラケン","city":"香芝市","city_kana":"カシバシ","town":"五位堂","town_kana":"ゴイドウ","prefecture_code":29},"0221":{"zip_code":"6390221","prefecture":"奈良県","prefecture_kana":"ナラケン","city":"香芝市","city_kana":"カシバシ","town":"五ケ所","town_kana":"ゴカショ","prefecture_code":29},"0233":{"zip_code":"6390233","prefecture":"奈良県","prefecture_kana":"ナラケン","city":"香芝市","city_kana":"カシバシ","town":"下田","town_kana":"シモダ","prefecture_code":29},"0232":{"zip_code":"6390232","prefecture":"奈良県","prefecture_kana":"ナラケン","city":"香芝市","city_kana":"カシバシ","town":"下田東","town_kana":"シモダヒガシ","prefecture_code":29},"0231":{"zip_code":"6390231","prefecture":"奈良県","prefecture_kana":"ナラケン","city":"香芝市","city_kana":"カシバシ","town":"下田西","town_kana":"シモダニシ","prefecture_code":29},"0237":{"zip_code":"6390237","prefecture":"奈良県","prefecture_kana":"ナラケン","city":"香芝市","city_kana":"カシバシ","town":"すみれ野","town_kana":"スミレノ","prefecture_code":29},"0255":{"zip_code":"6390255","prefecture":"奈良県","prefecture_kana":"ナラケン","city":"香芝市","city_kana":"カシバシ","town":"関屋","town_kana":"セキヤ","prefecture_code":29},"0254":{"zip_code":"6390254","prefecture":"奈良県","prefecture_kana":"ナラケン","city":"香芝市","city_kana":"カシバシ","town":"関屋北","town_kana":"セキヤキタ","prefecture_code":29},"0241":{"zip_code":"6390241","prefecture":"奈良県","prefecture_kana":"ナラケン","city":"香芝市","city_kana":"カシバシ","town":"高","town_kana":"タカ","prefecture_code":29},"0256":{"zip_code":"6390256","prefecture":"奈良県","prefecture_kana":"ナラケン","city":"香芝市","city_kana":"カシバシ","town":"高山台","town_kana":"タカヤマダイ","prefecture_code":29},"0253":{"zip_code":"6390253","prefecture":"奈良県","prefecture_kana":"ナラケン","city":"香芝市","city_kana":"カシバシ","town":"田尻","town_kana":"タジリ","prefecture_code":29},"0222":{"zip_code":"6390222","prefecture":"奈良県","prefecture_kana":"ナラケン","city":"香芝市","city_kana":"カシバシ","town":"西真美","town_kana":"ニシマミ","prefecture_code":29},"0261":{"zip_code":"6390261","prefecture":"奈良県","prefecture_kana":"ナラケン","city":"香芝市","city_kana":"カシバシ","town":"尼寺","town_kana":"ニンジ","prefecture_code":29},"0262":{"zip_code":"6390262","prefecture":"奈良県","prefecture_kana":"ナラケン","city":"香芝市","city_kana":"カシバシ","town":"白鳳台","town_kana":"ハクホウダイ","prefecture_code":29},"0245":{"zip_code":"6390245","prefecture":"奈良県","prefecture_kana":"ナラケン","city":"香芝市","city_kana":"カシバシ","town":"畑","town_kana":"ハタ","prefecture_code":29},"0263":{"zip_code":"6390263","prefecture":"奈良県","prefecture_kana":"ナラケン","city":"香芝市","city_kana":"カシバシ","town":"平野","town_kana":"ヒラノ","prefecture_code":29},"0243":{"zip_code":"6390243","prefecture":"奈良県","prefecture_kana":"ナラケン","city":"香芝市","city_kana":"カシバシ","town":"藤山","town_kana":"フジヤマ","prefecture_code":29},"0224":{"zip_code":"6390224","prefecture":"奈良県","prefecture_kana":"ナラケン","city":"香芝市","city_kana":"カシバシ","town":"別所","town_kana":"ベッシヨ","prefecture_code":29},"0244":{"zip_code":"6390244","prefecture":"奈良県","prefecture_kana":"ナラケン","city":"香芝市","city_kana":"カシバシ","town":"本町","town_kana":"ホンマチ","prefecture_code":29},"0223":{"zip_code":"6390223","prefecture":"奈良県","prefecture_kana":"ナラケン","city":"香芝市","city_kana":"カシバシ","town":"真美ケ丘","town_kana":"マミガオカ","prefecture_code":29},"0235":{"zip_code":"6390235","prefecture":"奈良県","prefecture_kana":"ナラケン","city":"香芝市","city_kana":"カシバシ","town":"良福寺","town_kana":"リョウフクジ","prefecture_code":29},"2100":{"zip_code":"6392100","prefecture":"奈良県","prefecture_kana":"ナラケン","city":"葛城市","city_kana":"カツラギシ","town":"以下に掲載がない場合","town_kana":"イカニケイサイガナイバアイ","prefecture_code":29},"0274":{"zip_code":"6390274","prefecture":"奈良県","prefecture_kana":"ナラケン","city":"葛城市","city_kana":"カツラギシ","town":"今在家","town_kana":"イマザイケ","prefecture_code":29},"2133":{"zip_code":"6392133","prefecture":"奈良県","prefecture_kana":"ナラケン","city":"葛城市","city_kana":"カツラギシ","town":"梅室","town_kana":"ウメムロ","prefecture_code":29},"2153":{"zip_code":"6392153","prefecture":"奈良県","prefecture_kana":"ナラケン","city":"葛城市","city_kana":"カツラギシ","town":"太田","town_kana":"オオタ","prefecture_code":29},"2145":{"zip_code":"6392145","prefecture":"奈良県","prefecture_kana":"ナラケン","city":"葛城市","city_kana":"カツラギシ","town":"大屋","town_kana":"オオヤ","prefecture_code":29},"2123":[{"zip_code":"6392123","prefecture":"奈良県","prefecture_kana":"ナラケン","city":"葛城市","city_kana":"カツラギシ","town":"忍海","town_kana":"オシミ","prefecture_code":29},{"zip_code":"6392123","prefecture":"奈良県","prefecture_kana":"ナラケン","city":"葛城市","city_kana":"カツラギシ","town":"南新町","town_kana":"ミナミシンマチ","prefecture_code":29}],"2152":{"zip_code":"6392152","prefecture":"奈良県","prefecture_kana":"ナラケン","city":"葛城市","city_kana":"カツラギシ","town":"大畑","town_kana":"オバタケ","prefecture_code":29},"2111":{"zip_code":"6392111","prefecture":"奈良県","prefecture_kana":"ナラケン","city":"葛城市","city_kana":"カツラギシ","town":"柿本","town_kana":"カキノモト","prefecture_code":29},"0275":{"zip_code":"6390275","prefecture":"奈良県","prefecture_kana":"ナラケン","city":"葛城市","city_kana":"カツラギシ","town":"勝根","town_kana":"カツネ","prefecture_code":29},"2144":{"zip_code":"6392144","prefecture":"奈良県","prefecture_kana":"ナラケン","city":"葛城市","city_kana":"カツラギシ","town":"葛木","town_kana":"カツラギ","prefecture_code":29},"0271":{"zip_code":"6390271","prefecture":"奈良県","prefecture_kana":"ナラケン","city":"葛城市","city_kana":"カツラギシ","town":"加守","town_kana":"カモリ","prefecture_code":29},"2113":{"zip_code":"6392113","prefecture":"奈良県","prefecture_kana":"ナラケン","city":"葛城市","city_kana":"カツラギシ","town":"北花内","town_kana":"キタハナウチ","prefecture_code":29},"2142":{"zip_code":"6392142","prefecture":"奈良県","prefecture_kana":"ナラケン","city":"葛城市","city_kana":"カツラギシ","town":"北道穂","town_kana":"キタミツボ","prefecture_code":29},"2161":{"zip_code":"6392161","prefecture":"奈良県","prefecture_kana":"ナラケン","city":"葛城市","city_kana":"カツラギシ","town":"木戸","town_kana":"キド","prefecture_code":29},"2121":{"zip_code":"6392121","prefecture":"奈良県","prefecture_kana":"ナラケン","city":"葛城市","city_kana":"カツラギシ","town":"新村","town_kana":"シムラ","prefecture_code":29},"2162":{"zip_code":"6392162","prefecture":"奈良県","prefecture_kana":"ナラケン","city":"葛城市","city_kana":"カツラギシ","town":"尺土","town_kana":"シャクド","prefecture_code":29},"0272":{"zip_code":"6390272","prefecture":"奈良県","prefecture_kana":"ナラケン","city":"葛城市","city_kana":"カツラギシ","town":"新在家","town_kana":"シンザイケ","prefecture_code":29},"2147":{"zip_code":"6392147","prefecture":"奈良県","prefecture_kana":"ナラケン","city":"葛城市","city_kana":"カツラギシ","town":"新庄","town_kana":"シンジョウ","prefecture_code":29},"2127":{"zip_code":"6392127","prefecture":"奈良県","prefecture_kana":"ナラケン","city":"葛城市","city_kana":"カツラギシ","town":"新町","town_kana":"シンマチ","prefecture_code":29},"0273":{"zip_code":"6390273","prefecture":"奈良県","prefecture_kana":"ナラケン","city":"葛城市","city_kana":"カツラギシ","town":"染野","town_kana":"ソメノ","prefecture_code":29},"0276":{"zip_code":"6390276","prefecture":"奈良県","prefecture_kana":"ナラケン","city":"葛城市","city_kana":"カツラギシ","town":"當麻","town_kana":"タイマ","prefecture_code":29},"2155":{"zip_code":"6392155","prefecture":"奈良県","prefecture_kana":"ナラケン","city":"葛城市","city_kana":"カツラギシ","town":"竹内","town_kana":"タケノウチ","prefecture_code":29},"2135":{"zip_code":"6392135","prefecture":"奈良県","prefecture_kana":"ナラケン","city":"葛城市","city_kana":"カツラギシ","town":"寺口","town_kana":"テラグチ","prefecture_code":29},"2164":{"zip_code":"6392164","prefecture":"奈良県","prefecture_kana":"ナラケン","city":"葛城市","city_kana":"カツラギシ","town":"長尾","town_kana":"ナガオ","prefecture_code":29},"2146":{"zip_code":"6392146","prefecture":"奈良県","prefecture_kana":"ナラケン","city":"葛城市","city_kana":"カツラギシ","town":"中戸","town_kana":"ナカト","prefecture_code":29},"2125":{"zip_code":"6392125","prefecture":"奈良県","prefecture_kana":"ナラケン","city":"葛城市","city_kana":"カツラギシ","town":"西辻","town_kana":"ニシツジ","prefecture_code":29},"2103":{"zip_code":"6392103","prefecture":"奈良県","prefecture_kana":"ナラケン","city":"葛城市","city_kana":"カツラギシ","town":"西室","town_kana":"ニシムロ","prefecture_code":29},"2122":{"zip_code":"6392122","prefecture":"奈良県","prefecture_kana":"ナラケン","city":"葛城市","city_kana":"カツラギシ","town":"薑","town_kana":"ハジカミ","prefecture_code":29},"2163":{"zip_code":"6392163","prefecture":"奈良県","prefecture_kana":"ナラケン","city":"葛城市","city_kana":"カツラギシ","town":"八川","town_kana":"ハチガワ","prefecture_code":29},"2131":{"zip_code":"6392131","prefecture":"奈良県","prefecture_kana":"ナラケン","city":"葛城市","city_kana":"カツラギシ","town":"林堂","town_kana":"ハヤシドウ","prefecture_code":29},"2102":{"zip_code":"6392102","prefecture":"奈良県","prefecture_kana":"ナラケン","city":"葛城市","city_kana":"カツラギシ","town":"東室","town_kana":"ヒガシムロ","prefecture_code":29},"2101":{"zip_code":"6392101","prefecture":"奈良県","prefecture_kana":"ナラケン","city":"葛城市","city_kana":"カツラギシ","town":"疋田","town_kana":"ヒキダ","prefecture_code":29},"2154":{"zip_code":"6392154","prefecture":"奈良県","prefecture_kana":"ナラケン","city":"葛城市","city_kana":"カツラギシ","town":"兵家","town_kana":"ヒョウゲ","prefecture_code":29},"2136":{"zip_code":"6392136","prefecture":"奈良県","prefecture_kana":"ナラケン","city":"葛城市","city_kana":"カツラギシ","town":"平岡","town_kana":"ヒラオカ","prefecture_code":29},"2112":{"zip_code":"6392112","prefecture":"奈良県","prefecture_kana":"ナラケン","city":"葛城市","city_kana":"カツラギシ","town":"笛堂","town_kana":"フエドウ","prefecture_code":29},"2132":{"zip_code":"6392132","prefecture":"奈良県","prefecture_kana":"ナラケン","city":"葛城市","city_kana":"カツラギシ","town":"笛吹","town_kana":"フエフキ","prefecture_code":29},"2141":{"zip_code":"6392141","prefecture":"奈良県","prefecture_kana":"ナラケン","city":"葛城市","city_kana":"カツラギシ","town":"弁之庄","town_kana":"ベンノショウ","prefecture_code":29},"2151":{"zip_code":"6392151","prefecture":"奈良県","prefecture_kana":"ナラケン","city":"葛城市","city_kana":"カツラギシ","town":"南今市","town_kana":"ミナミイマイチ","prefecture_code":29},"2126":{"zip_code":"6392126","prefecture":"奈良県","prefecture_kana":"ナラケン","city":"葛城市","city_kana":"カツラギシ","town":"南花内","town_kana":"ミナミハナウチ","prefecture_code":29},"2137":{"zip_code":"6392137","prefecture":"奈良県","prefecture_kana":"ナラケン","city":"葛城市","city_kana":"カツラギシ","town":"南藤井","town_kana":"ミナミフジイ","prefecture_code":29},"2143":{"zip_code":"6392143","prefecture":"奈良県","prefecture_kana":"ナラケン","city":"葛城市","city_kana":"カツラギシ","town":"南道穂","town_kana":"ミナミミツボ","prefecture_code":29},"2134":{"zip_code":"6392134","prefecture":"奈良県","prefecture_kana":"ナラケン","city":"葛城市","city_kana":"カツラギシ","town":"山口","town_kana":"ヤマグチ","prefecture_code":29},"2138":{"zip_code":"6392138","prefecture":"奈良県","prefecture_kana":"ナラケン","city":"葛城市","city_kana":"カツラギシ","town":"山田","town_kana":"ヤマダ","prefecture_code":29},"2124":{"zip_code":"6392124","prefecture":"奈良県","prefecture_kana":"ナラケン","city":"葛城市","city_kana":"カツラギシ","town":"脇田","town_kana":"ワキダ","prefecture_code":29},"1062":{"zip_code":"6391062","prefecture":"奈良県","prefecture_kana":"ナラケン","city":"生駒郡安堵町","city_kana":"イコマグンアンドチョウ","town":"岡崎","town_kana":"オカサキ","prefecture_code":29},"1065":{"zip_code":"6391065","prefecture":"奈良県","prefecture_kana":"ナラケン","city":"生駒郡安堵町","city_kana":"イコマグンアンドチョウ","town":"笠目","town_kana":"カサメ","prefecture_code":29},"1063":{"zip_code":"6391063","prefecture":"奈良県","prefecture_kana":"ナラケン","city":"生駒郡安堵町","city_kana":"イコマグンアンドチョウ","town":"かしの木台","town_kana":"カシノキダイ","prefecture_code":29},"1064":{"zip_code":"6391064","prefecture":"奈良県","prefecture_kana":"ナラケン","city":"生駒郡安堵町","city_kana":"イコマグンアンドチョウ","town":"窪田","town_kana":"クボタ","prefecture_code":29},"1066":{"zip_code":"6391066","prefecture":"奈良県","prefecture_kana":"ナラケン","city":"生駒郡安堵町","city_kana":"イコマグンアンドチョウ","town":"西安堵","town_kana":"ニシアンド","prefecture_code":29},"1061":{"zip_code":"6391061","prefecture":"奈良県","prefecture_kana":"ナラケン","city":"生駒郡安堵町","city_kana":"イコマグンアンドチョウ","town":"東安堵","town_kana":"ヒガシアンド","prefecture_code":29},"0201":{"zip_code":"6390201","prefecture":"奈良県","prefecture_kana":"ナラケン","city":"北葛城郡上牧町","city_kana":"キタカツラギグンカンマキチョウ","town":"片岡台","town_kana":"カタオカダイ","prefecture_code":29},"0215":{"zip_code":"6390215","prefecture":"奈良県","prefecture_kana":"ナラケン","city":"北葛城郡上牧町","city_kana":"キタカツラギグンカンマキチョウ","town":"葛城台","town_kana":"カツラギダイ","prefecture_code":29},"0214":{"zip_code":"6390214","prefecture":"奈良県","prefecture_kana":"ナラケン","city":"北葛城郡上牧町","city_kana":"キタカツラギグンカンマキチョウ","town":"上牧","town_kana":"カンマキ","prefecture_code":29},"0202":{"zip_code":"6390202","prefecture":"奈良県","prefecture_kana":"ナラケン","city":"北葛城郡上牧町","city_kana":"キタカツラギグンカンマキチョウ","town":"桜ケ丘","town_kana":"サクラガオカ","prefecture_code":29},"0218":{"zip_code":"6390218","prefecture":"奈良県","prefecture_kana":"ナラケン","city":"北葛城郡上牧町","city_kana":"キタカツラギグンカンマキチョウ","town":"ささゆり台","town_kana":"ササユリダイ","prefecture_code":29},"0205":{"zip_code":"6390205","prefecture":"奈良県","prefecture_kana":"ナラケン","city":"北葛城郡上牧町","city_kana":"キタカツラギグンカンマキチョウ","town":"下牧","town_kana":"シモマキ","prefecture_code":29},"0216":{"zip_code":"6390216","prefecture":"奈良県","prefecture_kana":"ナラケン","city":"北葛城郡上牧町","city_kana":"キタカツラギグンカンマキチョウ","town":"松里園","town_kana":"ショウリエン","prefecture_code":29},"0211":{"zip_code":"6390211","prefecture":"奈良県","prefecture_kana":"ナラケン","city":"北葛城郡上牧町","city_kana":"キタカツラギグンカンマキチョウ","town":"滝川台","town_kana":"タキガワダイ","prefecture_code":29},"0203":{"zip_code":"6390203","prefecture":"奈良県","prefecture_kana":"ナラケン","city":"北葛城郡上牧町","city_kana":"キタカツラギグンカンマキチョウ","town":"友が丘","town_kana":"トモガオカ","prefecture_code":29},"0217":{"zip_code":"6390217","prefecture":"奈良県","prefecture_kana":"ナラケン","city":"北葛城郡上牧町","city_kana":"キタカツラギグンカンマキチョウ","town":"中筋出作","town_kana":"ナカスジシュツサク","prefecture_code":29},"0212":{"zip_code":"6390212","prefecture":"奈良県","prefecture_kana":"ナラケン","city":"北葛城郡上牧町","city_kana":"キタカツラギグンカンマキチョウ","town":"服部台","town_kana":"ハットリダイ","prefecture_code":29},"0204":{"zip_code":"6390204","prefecture":"奈良県","prefecture_kana":"ナラケン","city":"北葛城郡上牧町","city_kana":"キタカツラギグンカンマキチョウ","town":"緑ケ丘","town_kana":"ミドリガオカ","prefecture_code":29},"0206":{"zip_code":"6390206","prefecture":"奈良県","prefecture_kana":"ナラケン","city":"北葛城郡上牧町","city_kana":"キタカツラギグンカンマキチョウ","town":"ゆりが丘","town_kana":"ユリガオカ","prefecture_code":29},"0213":{"zip_code":"6390213","prefecture":"奈良県","prefecture_kana":"ナラケン","city":"北葛城郡上牧町","city_kana":"キタカツラギグンカンマキチョウ","town":"米山台","town_kana":"ヨネヤマダイ","prefecture_code":29},"3100":{"zip_code":"6393100","prefecture":"奈良県","prefecture_kana":"ナラケン","city":"吉野郡吉野町","city_kana":"ヨシノグンヨシノチョウ","town":"以下に掲載がない場合","town_kana":"イカニケイサイガナイバアイ","prefecture_code":29},"3433":{"zip_code":"6393433","prefecture":"奈良県","prefecture_kana":"ナラケン","city":"吉野郡吉野町","city_kana":"ヨシノグンヨシノチョウ","town":"新子","town_kana":"アタラシ","prefecture_code":29},"3113":{"zip_code":"6393113","prefecture":"奈良県","prefecture_kana":"ナラケン","city":"吉野郡吉野町","city_kana":"ヨシノグンヨシノチョウ","town":"飯貝","town_kana":"イイガイ","prefecture_code":29},"3323":{"zip_code":"6393323","prefecture":"奈良県","prefecture_kana":"ナラケン","city":"吉野郡吉野町","city_kana":"ヨシノグンヨシノチョウ","town":"色生","town_kana":"イロウ","prefecture_code":29},"3436":{"zip_code":"6393436","prefecture":"奈良県","prefecture_kana":"ナラケン","city":"吉野郡吉野町","city_kana":"ヨシノグンヨシノチョウ","town":"樫尾","town_kana":"カシオ","prefecture_code":29},"3111":{"zip_code":"6393111","prefecture":"奈良県","prefecture_kana":"ナラケン","city":"吉野郡吉野町","city_kana":"ヨシノグンヨシノチョウ","town":"上市","town_kana":"カミイチ","prefecture_code":29},"3102":[{"zip_code":"6393102","prefecture":"奈良県","prefecture_kana":"ナラケン","city":"吉野郡吉野町","city_kana":"ヨシノグンヨシノチョウ","town":"河原屋","town_kana":"カワハラヤ","prefecture_code":29},{"zip_code":"6393102","prefecture":"奈良県","prefecture_kana":"ナラケン","city":"吉野郡吉野町","city_kana":"ヨシノグンヨシノチョウ","town":"津風呂","town_kana":"ツブロ","prefecture_code":29}],"3442":{"zip_code":"6393442","prefecture":"奈良県","prefecture_kana":"ナラケン","city":"吉野郡吉野町","city_kana":"ヨシノグンヨシノチョウ","town":"喜佐谷","town_kana":"キサダニ","prefecture_code":29},"3434":{"zip_code":"6393434","prefecture":"奈良県","prefecture_kana":"ナラケン","city":"吉野郡吉野町","city_kana":"ヨシノグンヨシノチョウ","town":"国栖","town_kana":"クズ","prefecture_code":29},"3432":{"zip_code":"6393432","prefecture":"奈良県","prefecture_kana":"ナラケン","city":"吉野郡吉野町","city_kana":"ヨシノグンヨシノチョウ","town":"窪垣内","town_kana":"クボガイト","prefecture_code":29},"3324":{"zip_code":"6393324","prefecture":"奈良県","prefecture_kana":"ナラケン","city":"吉野郡吉野町","city_kana":"ヨシノグンヨシノチョウ","town":"香束","town_kana":"コウソク","prefecture_code":29},"3322":{"zip_code":"6393322","prefecture":"奈良県","prefecture_kana":"ナラケン","city":"吉野郡吉野町","city_kana":"ヨシノグンヨシノチョウ","town":"小名","town_kana":"コナ","prefecture_code":29},"3107":{"zip_code":"6393107","prefecture":"奈良県","prefecture_kana":"ナラケン","city":"吉野郡吉野町","city_kana":"ヨシノグンヨシノチョウ","town":"佐々羅","town_kana":"ササラ","prefecture_code":29},"3117":{"zip_code":"6393117","prefecture":"奈良県","prefecture_kana":"ナラケン","city":"吉野郡吉野町","city_kana":"ヨシノグンヨシノチョウ","town":"左曽","town_kana":"サソ","prefecture_code":29},"3431":{"zip_code":"6393431","prefecture":"奈良県","prefecture_kana":"ナラケン","city":"吉野郡吉野町","city_kana":"ヨシノグンヨシノチョウ","town":"入野","town_kana":"シオノ","prefecture_code":29},"3106":[{"zip_code":"6393106","prefecture":"奈良県","prefecture_kana":"ナラケン","city":"吉野郡吉野町","city_kana":"ヨシノグンヨシノチョウ","town":"志賀","town_kana":"シガ","prefecture_code":29},{"zip_code":"6393106","prefecture":"奈良県","prefecture_kana":"ナラケン","city":"吉野郡吉野町","city_kana":"ヨシノグンヨシノチョウ","town":"滝畑","town_kana":"タキハタ","prefecture_code":29}],"3112":{"zip_code":"6393112","prefecture":"奈良県","prefecture_kana":"ナラケン","city":"吉野郡吉野町","city_kana":"ヨシノグンヨシノチョウ","town":"立野","town_kana":"タチノ","prefecture_code":29},"3114":{"zip_code":"6393114","prefecture":"奈良県","prefecture_kana":"ナラケン","city":"吉野郡吉野町","city_kana":"ヨシノグンヨシノチョウ","town":"丹治","town_kana":"タンジ","prefecture_code":29},"3105":{"zip_code":"6393105","prefecture":"奈良県","prefecture_kana":"ナラケン","city":"吉野郡吉野町","city_kana":"ヨシノグンヨシノチョウ","town":"千股","town_kana":"チマタ","prefecture_code":29},"3446":{"zip_code":"6393446","prefecture":"奈良県","prefecture_kana":"ナラケン","city":"吉野郡吉野町","city_kana":"ヨシノグンヨシノチョウ","town":"菜摘","town_kana":"ナツミ","prefecture_code":29},"3445":{"zip_code":"6393445","prefecture":"奈良県","prefecture_kana":"ナラケン","city":"吉野郡吉野町","city_kana":"ヨシノグンヨシノチョウ","town":"楢井","town_kana":"ナライ","prefecture_code":29},"3108":[{"zip_code":"6393108","prefecture":"奈良県","prefecture_kana":"ナラケン","city":"吉野郡吉野町","city_kana":"ヨシノグンヨシノチョウ","town":"西谷","town_kana":"ニシタニ","prefecture_code":29},{"zip_code":"6393108","prefecture":"奈良県","prefecture_kana":"ナラケン","city":"吉野郡吉野町","city_kana":"ヨシノグンヨシノチョウ","town":"三津","town_kana":"ミヅ","prefecture_code":29}],"3118":{"zip_code":"6393118","prefecture":"奈良県","prefecture_kana":"ナラケン","city":"吉野郡吉野町","city_kana":"ヨシノグンヨシノチョウ","town":"橋屋","town_kana":"ハシヤ","prefecture_code":29},"3103":{"zip_code":"6393103","prefecture":"奈良県","prefecture_kana":"ナラケン","city":"吉野郡吉野町","city_kana":"ヨシノグンヨシノチョウ","town":"平尾","town_kana":"ヒラオ","prefecture_code":29},"3444":{"zip_code":"6393444","prefecture":"奈良県","prefecture_kana":"ナラケン","city":"吉野郡吉野町","city_kana":"ヨシノグンヨシノチョウ","town":"御園","town_kana":"ミソノ","prefecture_code":29},"3321":{"zip_code":"6393321","prefecture":"奈良県","prefecture_kana":"ナラケン","city":"吉野郡吉野町","city_kana":"ヨシノグンヨシノチョウ","town":"三茶屋","town_kana":"ミツチャヤ","prefecture_code":29},"3437":{"zip_code":"6393437","prefecture":"奈良県","prefecture_kana":"ナラケン","city":"吉野郡吉野町","city_kana":"ヨシノグンヨシノチョウ","town":"南大野","town_kana":"ミナミオオノ","prefecture_code":29},"3435":{"zip_code":"6393435","prefecture":"奈良県","prefecture_kana":"ナラケン","city":"吉野郡吉野町","city_kana":"ヨシノグンヨシノチョウ","town":"南国栖","town_kana":"ミナミクズ","prefecture_code":29},"3104":{"zip_code":"6393104","prefecture":"奈良県","prefecture_kana":"ナラケン","city":"吉野郡吉野町","city_kana":"ヨシノグンヨシノチョウ","town":"峰寺","town_kana":"ミネデラ","prefecture_code":29},"3443":{"zip_code":"6393443","prefecture":"奈良県","prefecture_kana":"ナラケン","city":"吉野郡吉野町","city_kana":"ヨシノグンヨシノチョウ","town":"宮滝","town_kana":"ミヤタキ","prefecture_code":29},"3116":{"zip_code":"6393116","prefecture":"奈良県","prefecture_kana":"ナラケン","city":"吉野郡吉野町","city_kana":"ヨシノグンヨシノチョウ","town":"六田","town_kana":"ムダ","prefecture_code":29},"3441":{"zip_code":"6393441","prefecture":"奈良県","prefecture_kana":"ナラケン","city":"吉野郡吉野町","city_kana":"ヨシノグンヨシノチョウ","town":"矢治","town_kana":"ヤジ","prefecture_code":29},"3325":{"zip_code":"6393325","prefecture":"奈良県","prefecture_kana":"ナラケン","city":"吉野郡吉野町","city_kana":"ヨシノグンヨシノチョウ","town":"柳","town_kana":"ヤナギ","prefecture_code":29},"3101":{"zip_code":"6393101","prefecture":"奈良県","prefecture_kana":"ナラケン","city":"吉野郡吉野町","city_kana":"ヨシノグンヨシノチョウ","town":"山口","town_kana":"ヤマグチ","prefecture_code":29},"3115":{"zip_code":"6393115","prefecture":"奈良県","prefecture_kana":"ナラケン","city":"吉野郡吉野町","city_kana":"ヨシノグンヨシノチョウ","town":"吉野山","town_kana":"ヨシノヤマ","prefecture_code":29},"3125":{"zip_code":"6393125","prefecture":"奈良県","prefecture_kana":"ナラケン","city":"吉野郡大淀町","city_kana":"ヨシノグンオオヨドチョウ","town":"北野","town_kana":"キタノ","prefecture_code":29},"3124":{"zip_code":"6393124","prefecture":"奈良県","prefecture_kana":"ナラケン","city":"吉野郡大淀町","city_kana":"ヨシノグンオオヨドチョウ","town":"北六田","town_kana":"キタムダ","prefecture_code":29},"3122":{"zip_code":"6393122","prefecture":"奈良県","prefecture_kana":"ナラケン","city":"吉野郡大淀町","city_kana":"ヨシノグンオオヨドチョウ","town":"中増","town_kana":"ナカマシ","prefecture_code":29},"3121":{"zip_code":"6393121","prefecture":"奈良県","prefecture_kana":"ナラケン","city":"吉野郡大淀町","city_kana":"ヨシノグンオオヨドチョウ","town":"西増","town_kana":"ニシマシ","prefecture_code":29},"3126":{"zip_code":"6393126","prefecture":"奈良県","prefecture_kana":"ナラケン","city":"吉野郡大淀町","city_kana":"ヨシノグンオオヨドチョウ","town":"新野","town_kana":"ニノ","prefecture_code":29},"3127":{"zip_code":"6393127","prefecture":"奈良県","prefecture_kana":"ナラケン","city":"吉野郡大淀町","city_kana":"ヨシノグンオオヨドチョウ","town":"馬佐","town_kana":"バサ","prefecture_code":29},"3128":{"zip_code":"6393128","prefecture":"奈良県","prefecture_kana":"ナラケン","city":"吉野郡大淀町","city_kana":"ヨシノグンオオヨドチョウ","town":"比曽","town_kana":"ヒソ","prefecture_code":29},"3123":{"zip_code":"6393123","prefecture":"奈良県","prefecture_kana":"ナラケン","city":"吉野郡大淀町","city_kana":"ヨシノグンオオヨドチョウ","town":"増口","town_kana":"マシグチ","prefecture_code":29},"3800":{"zip_code":"6393800","prefecture":"奈良県","prefecture_kana":"ナラケン","city":"吉野郡下北山村","city_kana":"ヨシノグンシモキタヤマムラ","town":"以下に掲載がない場合","town_kana":"イカニケイサイガナイバアイ","prefecture_code":29},"3804":{"zip_code":"6393804","prefecture":"奈良県","prefecture_kana":"ナラケン","city":"吉野郡下北山村","city_kana":"ヨシノグンシモキタヤマムラ","town":"池峰","town_kana":"イケミネ","prefecture_code":29},"3802":{"zip_code":"6393802","prefecture":"奈良県","prefecture_kana":"ナラケン","city":"吉野郡下北山村","city_kana":"ヨシノグンシモキタヤマムラ","town":"浦向","town_kana":"ウラムカイ","prefecture_code":29},"3805":{"zip_code":"6393805","prefecture":"奈良県","prefecture_kana":"ナラケン","city":"吉野郡下北山村","city_kana":"ヨシノグンシモキタヤマムラ","town":"上池原","town_kana":"カミイケハラ","prefecture_code":29},"3808":{"zip_code":"6393808","prefecture":"奈良県","prefecture_kana":"ナラケン","city":"吉野郡下北山村","city_kana":"ヨシノグンシモキタヤマムラ","town":"上桑原","town_kana":"カミクワハラ","prefecture_code":29},"3801":{"zip_code":"6393801","prefecture":"奈良県","prefecture_kana":"ナラケン","city":"吉野郡下北山村","city_kana":"ヨシノグンシモキタヤマムラ","town":"佐田","town_kana":"サダ","prefecture_code":29},"3806":{"zip_code":"6393806","prefecture":"奈良県","prefecture_kana":"ナラケン","city":"吉野郡下北山村","city_kana":"ヨシノグンシモキタヤマムラ","town":"下池原","town_kana":"シモイケハラ","prefecture_code":29},"3807":{"zip_code":"6393807","prefecture":"奈良県","prefecture_kana":"ナラケン","city":"吉野郡下北山村","city_kana":"ヨシノグンシモキタヤマムラ","town":"下桑原","town_kana":"シモクワハラ","prefecture_code":29},"3809":{"zip_code":"6393809","prefecture":"奈良県","prefecture_kana":"ナラケン","city":"吉野郡下北山村","city_kana":"ヨシノグンシモキタヤマムラ","town":"前鬼","town_kana":"ゼンキ","prefecture_code":29},"3803":{"zip_code":"6393803","prefecture":"奈良県","prefecture_kana":"ナラケン","city":"吉野郡下北山村","city_kana":"ヨシノグンシモキタヤマムラ","town":"寺垣内","town_kana":"テラガイト","prefecture_code":29},"3700":{"zip_code":"6393700","prefecture":"奈良県","prefecture_kana":"ナラケン","city":"吉野郡上北山村","city_kana":"ヨシノグンカミキタヤマムラ","town":"以下に掲載がない場合","town_kana":"イカニケイサイガナイバアイ","prefecture_code":29},"3701":{"zip_code":"6393701","prefecture":"奈良県","prefecture_kana":"ナラケン","city":"吉野郡上北山村","city_kana":"ヨシノグンカミキタヤマムラ","town":"河合","town_kana":"カワイ","prefecture_code":29},"3702":{"zip_code":"6393702","prefecture":"奈良県","prefecture_kana":"ナラケン","city":"吉野郡上北山村","city_kana":"ヨシノグンカミキタヤマムラ","town":"小橡","town_kana":"コトチ","prefecture_code":29},"3703":{"zip_code":"6393703","prefecture":"奈良県","prefecture_kana":"ナラケン","city":"吉野郡上北山村","city_kana":"ヨシノグンカミキタヤマムラ","town":"白川","town_kana":"シラカワ","prefecture_code":29},"3704":{"zip_code":"6393704","prefecture":"奈良県","prefecture_kana":"ナラケン","city":"吉野郡上北山村","city_kana":"ヨシノグンカミキタヤマムラ","town":"西原","town_kana":"ニシハラ","prefecture_code":29},"3705":{"zip_code":"6393705","prefecture":"奈良県","prefecture_kana":"ナラケン","city":"吉野郡上北山村","city_kana":"ヨシノグンカミキタヤマムラ","town":"東ノ川","town_kana":"ヒガシノカワ","prefecture_code":29},"3500":{"zip_code":"6393500","prefecture":"奈良県","prefecture_kana":"ナラケン","city":"吉野郡川上村","city_kana":"ヨシノグンカワカミムラ","town":"以下に掲載がない場合","town_kana":"イカニケイサイガナイバアイ","prefecture_code":29},"3623":{"zip_code":"6393623","prefecture":"奈良県","prefecture_kana":"ナラケン","city":"吉野郡川上村","city_kana":"ヨシノグンカワカミムラ","town":"井光","town_kana":"イカリ","prefecture_code":29},"3622":[{"zip_code":"6393622","prefecture":"奈良県","prefecture_kana":"ナラケン","city":"吉野郡川上村","city_kana":"ヨシノグンカワカミムラ","town":"井戸（ネジ畑）","town_kana":"イド(ネジバタ)","prefecture_code":29},{"zip_code":"6393622","prefecture":"奈良県","prefecture_kana":"ナラケン","city":"吉野郡川上村","city_kana":"ヨシノグンカワカミムラ","town":"武木","town_kana":"タキギ","prefecture_code":29}],"3558":{"zip_code":"6393558","prefecture":"奈良県","prefecture_kana":"ナラケン","city":"吉野郡川上村","city_kana":"ヨシノグンカワカミムラ","town":"井戸（その他）","town_kana":"イド(ソノタ)","prefecture_code":29},"3541":{"zip_code":"6393541","prefecture":"奈良県","prefecture_kana":"ナラケン","city":"吉野郡川上村","city_kana":"ヨシノグンカワカミムラ","town":"東川","town_kana":"ウノガワ","prefecture_code":29},"3612":{"zip_code":"6393612","prefecture":"奈良県","prefecture_kana":"ナラケン","city":"吉野郡川上村","city_kana":"ヨシノグンカワカミムラ","town":"大迫","town_kana":"オオサコ","prefecture_code":29},"3543":{"zip_code":"6393543","prefecture":"奈良県","prefecture_kana":"ナラケン","city":"吉野郡川上村","city_kana":"ヨシノグンカワカミムラ","town":"大滝","town_kana":"オオタキ","prefecture_code":29},"3613":{"zip_code":"6393613","prefecture":"奈良県","prefecture_kana":"ナラケン","city":"吉野郡川上村","city_kana":"ヨシノグンカワカミムラ","town":"伯母谷","town_kana":"オバタニ","prefecture_code":29},"3601":{"zip_code":"6393601","prefecture":"奈良県","prefecture_kana":"ナラケン","city":"吉野郡川上村","city_kana":"ヨシノグンカワカミムラ","town":"柏木","town_kana":"カシワギ","prefecture_code":29},"3552":{"zip_code":"6393552","prefecture":"奈良県","prefecture_kana":"ナラケン","city":"吉野郡川上村","city_kana":"ヨシノグンカワカミムラ","town":"北塩谷","town_kana":"キタシオダニ","prefecture_code":29},"3603":{"zip_code":"6393603","prefecture":"奈良県","prefecture_kana":"ナラケン","city":"吉野郡川上村","city_kana":"ヨシノグンカワカミムラ","town":"北和田","town_kana":"キタワダ","prefecture_code":29},"3602":{"zip_code":"6393602","prefecture":"奈良県","prefecture_kana":"ナラケン","city":"吉野郡川上村","city_kana":"ヨシノグンカワカミムラ","town":"上多古","town_kana":"コウダコ","prefecture_code":29},"3604":{"zip_code":"6393604","prefecture":"奈良県","prefecture_kana":"ナラケン","city":"吉野郡川上村","city_kana":"ヨシノグンカワカミムラ","town":"上谷","town_kana":"コウダニ","prefecture_code":29},"3635":{"zip_code":"6393635","prefecture":"奈良県","prefecture_kana":"ナラケン","city":"吉野郡川上村","city_kana":"ヨシノグンカワカミムラ","town":"神之谷","town_kana":"コウノタニ","prefecture_code":29},"3553":{"zip_code":"6393553","prefecture":"奈良県","prefecture_kana":"ナラケン","city":"吉野郡川上村","city_kana":"ヨシノグンカワカミムラ","town":"迫","town_kana":"サコ","prefecture_code":29},"3611":{"zip_code":"6393611","prefecture":"奈良県","prefecture_kana":"ナラケン","city":"吉野郡川上村","city_kana":"ヨシノグンカワカミムラ","town":"入之波","town_kana":"シオノハ","prefecture_code":29},"3621":{"zip_code":"6393621","prefecture":"奈良県","prefecture_kana":"ナラケン","city":"吉野郡川上村","city_kana":"ヨシノグンカワカミムラ","town":"下多古","town_kana":"シモタコ","prefecture_code":29},"3631":{"zip_code":"6393631","prefecture":"奈良県","prefecture_kana":"ナラケン","city":"吉野郡川上村","city_kana":"ヨシノグンカワカミムラ","town":"白川渡","town_kana":"シラカワド","prefecture_code":29},"3555":{"zip_code":"6393555","prefecture":"奈良県","prefecture_kana":"ナラケン","city":"吉野郡川上村","city_kana":"ヨシノグンカワカミムラ","town":"白屋","town_kana":"シラヤ","prefecture_code":29},"3634":{"zip_code":"6393634","prefecture":"奈良県","prefecture_kana":"ナラケン","city":"吉野郡川上村","city_kana":"ヨシノグンカワカミムラ","town":"瀬戸","town_kana":"セト","prefecture_code":29},"3632":{"zip_code":"6393632","prefecture":"奈良県","prefecture_kana":"ナラケン","city":"吉野郡川上村","city_kana":"ヨシノグンカワカミムラ","town":"枌尾","town_kana":"ソギオ","prefecture_code":29},"3554":{"zip_code":"6393554","prefecture":"奈良県","prefecture_kana":"ナラケン","city":"吉野郡川上村","city_kana":"ヨシノグンカワカミムラ","town":"高原","town_kana":"タカハラ","prefecture_code":29},"3556":{"zip_code":"6393556","prefecture":"奈良県","prefecture_kana":"ナラケン","city":"吉野郡川上村","city_kana":"ヨシノグンカワカミムラ","town":"高原土場","town_kana":"タカハラドバ","prefecture_code":29},"3551":{"zip_code":"6393551","prefecture":"奈良県","prefecture_kana":"ナラケン","city":"吉野郡川上村","city_kana":"ヨシノグンカワカミムラ","town":"寺尾","town_kana":"テラオ","prefecture_code":29},"3633":{"zip_code":"6393633","prefecture":"奈良県","prefecture_kana":"ナラケン","city":"吉野郡川上村","city_kana":"ヨシノグンカワカミムラ","town":"中奥","town_kana":"ナカオク","prefecture_code":29},"3542":{"zip_code":"6393542","prefecture":"奈良県","prefecture_kana":"ナラケン","city":"吉野郡川上村","city_kana":"ヨシノグンカワカミムラ","town":"西河","town_kana":"ニシガワ","prefecture_code":29},"3557":{"zip_code":"6393557","prefecture":"奈良県","prefecture_kana":"ナラケン","city":"吉野郡川上村","city_kana":"ヨシノグンカワカミムラ","town":"人知","town_kana":"ヒトジ","prefecture_code":29}}