{"0000":{"zip_code":"6400000","prefecture":"和歌山県","prefecture_kana":"ワカヤマケン","city":"和歌山市","city_kana":"ワカヤマシ","town":"以下に掲載がない場合","town_kana":"イカニケイサイガナイバアイ","prefecture_code":30},"8273":{"zip_code":"6408273","prefecture":"和歌山県","prefecture_kana":"ワカヤマケン","city":"和歌山市","city_kana":"ワカヤマシ","town":"葵町","town_kana":"アオイチョウ","prefecture_code":30},"8322":{"zip_code":"6408322","prefecture":"和歌山県","prefecture_kana":"ワカヤマケン","city":"和歌山市","city_kana":"ワカヤマシ","town":"秋月","town_kana":"アキヅキ","prefecture_code":30},"0344":{"zip_code":"6400344","prefecture":"和歌山県","prefecture_kana":"ワカヤマケン","city":"和歌山市","city_kana":"ワカヤマシ","town":"朝日","town_kana":"アサヒ","prefecture_code":30},"8134":{"zip_code":"6408134","prefecture":"和歌山県","prefecture_kana":"ワカヤマケン","city":"和歌山市","city_kana":"ワカヤマシ","town":"芦辺丁","town_kana":"アシベチョウ","prefecture_code":30},"8238":{"zip_code":"6408238","prefecture":"和歌山県","prefecture_kana":"ワカヤマケン","city":"和歌山市","city_kana":"ワカヤマシ","town":"網屋町","town_kana":"アミヤマチ","prefecture_code":30},"8316":{"zip_code":"6408316","prefecture":"和歌山県","prefecture_kana":"ワカヤマケン","city":"和歌山市","city_kana":"ワカヤマシ","town":"有家","town_kana":"アリエ","prefecture_code":30},"8248":{"zip_code":"6408248","prefecture":"和歌山県","prefecture_kana":"ワカヤマケン","city":"和歌山市","city_kana":"ワカヤマシ","town":"有田屋町","town_kana":"アリダヤマチ","prefecture_code":30},"8246":{"zip_code":"6408246","prefecture":"和歌山県","prefecture_kana":"ワカヤマケン","city":"和歌山市","city_kana":"ワカヤマシ","town":"有田屋町西ノ丁","town_kana":"アリダヤマチニシノチョウ","prefecture_code":30},"8245":{"zip_code":"6408245","prefecture":"和歌山県","prefecture_kana":"ワカヤマケン","city":"和歌山市","city_kana":"ワカヤマシ","town":"有田屋町南ノ丁","town_kana":"アリダヤマチミナミノチョウ","prefecture_code":30},"8390":{"zip_code":"6408390","prefecture":"和歌山県","prefecture_kana":"ワカヤマケン","city":"和歌山市","city_kana":"ワカヤマシ","town":"有本","town_kana":"アリモト","prefecture_code":30},"8351":{"zip_code":"6408351","prefecture":"和歌山県","prefecture_kana":"ワカヤマケン","city":"和歌山市","city_kana":"ワカヤマシ","town":"新内","town_kana":"アロチ","prefecture_code":30},"8462":{"zip_code":"6408462","prefecture":"和歌山県","prefecture_kana":"ワカヤマケン","city":"和歌山市","city_kana":"ワカヤマシ","town":"粟","town_kana":"アワ","prefecture_code":30},"8201":{"zip_code":"6408201","prefecture":"和歌山県","prefecture_kana":"ワカヤマケン","city":"和歌山市","city_kana":"ワカヤマシ","town":"石橋丁","town_kana":"イシバシチョウ","prefecture_code":30},"0114":{"zip_code":"6400114","prefecture":"和歌山県","prefecture_kana":"ワカヤマケン","city":"和歌山市","city_kana":"ワカヤマシ","town":"磯の浦","town_kana":"イソノウラ","prefecture_code":30},"8044":{"zip_code":"6408044","prefecture":"和歌山県","prefecture_kana":"ワカヤマケン","city":"和歌山市","city_kana":"ワカヤマシ","town":"板屋町","town_kana":"イタヤマチ","prefecture_code":30},"0361":{"zip_code":"6400361","prefecture":"和歌山県","prefecture_kana":"ワカヤマケン","city":"和歌山市","city_kana":"ワカヤマシ","town":"伊太祈曽","town_kana":"イダキソ","prefecture_code":30},"8464":{"zip_code":"6408464","prefecture":"和歌山県","prefecture_kana":"ワカヤマケン","city":"和歌山市","city_kana":"ワカヤマシ","town":"市小路","town_kana":"イチショウジ","prefecture_code":30},"8146":{"zip_code":"6408146","prefecture":"和歌山県","prefecture_kana":"ワカヤマケン","city":"和歌山市","city_kana":"ワカヤマシ","town":"一番丁","town_kana":"イチバンチョウ","prefecture_code":30},"8076":{"zip_code":"6408076","prefecture":"和歌山県","prefecture_kana":"ワカヤマケン","city":"和歌山市","city_kana":"ワカヤマシ","town":"五筋目","town_kana":"イツスジメ","prefecture_code":30},"0352":{"zip_code":"6400352","prefecture":"和歌山県","prefecture_kana":"ワカヤマケン","city":"和歌山市","city_kana":"ワカヤマシ","town":"井戸","town_kana":"イド","prefecture_code":30},"8301":{"zip_code":"6408301","prefecture":"和歌山県","prefecture_kana":"ワカヤマケン","city":"和歌山市","city_kana":"ワカヤマシ","town":"岩橋","town_kana":"イワセ","prefecture_code":30},"8302":{"zip_code":"6408302","prefecture":"和歌山県","prefecture_kana":"ワカヤマケン","city":"和歌山市","city_kana":"ワカヤマシ","town":"井辺","town_kana":"インベ","prefecture_code":30},"8242":{"zip_code":"6408242","prefecture":"和歌山県","prefecture_kana":"ワカヤマケン","city":"和歌山市","city_kana":"ワカヤマシ","town":"上野町","town_kana":"ウエノマチ","prefecture_code":30},"8298":{"zip_code":"6408298","prefecture":"和歌山県","prefecture_kana":"ワカヤマケン","city":"和歌山市","city_kana":"ワカヤマシ","town":"植松丁","town_kana":"ウエマツチョウ","prefecture_code":30},"8078":{"zip_code":"6408078","prefecture":"和歌山県","prefecture_kana":"ワカヤマケン","city":"和歌山市","city_kana":"ワカヤマシ","town":"宇治鉄砲場","town_kana":"ウジテッポウバ","prefecture_code":30},"8039":{"zip_code":"6408039","prefecture":"和歌山県","prefecture_kana":"ワカヤマケン","city":"和歌山市","city_kana":"ワカヤマシ","town":"宇治袋町","town_kana":"ウジフクロマチ","prefecture_code":30},"8072":{"zip_code":"6408072","prefecture":"和歌山県","prefecture_kana":"ワカヤマケン","city":"和歌山市","city_kana":"ワカヤマシ","town":"宇治家裏","town_kana":"ウジヤウラ","prefecture_code":30},"8071":{"zip_code":"6408071","prefecture":"和歌山県","prefecture_kana":"ワカヤマケン","city":"和歌山市","city_kana":"ワカヤマシ","town":"宇治薮下","town_kana":"ウジヤブシタ","prefecture_code":30},"8452":{"zip_code":"6408452","prefecture":"和歌山県","prefecture_kana":"ワカヤマケン","city":"和歌山市","city_kana":"ワカヤマシ","town":"梅原","town_kana":"ウメハラ","prefecture_code":30},"8239":{"zip_code":"6408239","prefecture":"和歌山県","prefecture_kana":"ワカヤマケン","city":"和歌山市","city_kana":"ワカヤマシ","town":"上町","town_kana":"ウワマチ","prefecture_code":30},"8335":{"zip_code":"6408335","prefecture":"和歌山県","prefecture_kana":"ワカヤマケン","city":"和歌山市","city_kana":"ワカヤマシ","town":"餌差町","town_kana":"エサシマチ","prefecture_code":30},"0343":{"zip_code":"6400343","prefecture":"和歌山県","prefecture_kana":"ワカヤマケン","city":"和歌山市","city_kana":"ワカヤマシ","town":"江南","town_kana":"エナ","prefecture_code":30},"8434":{"zip_code":"6408434","prefecture":"和歌山県","prefecture_kana":"ワカヤマケン","city":"和歌山市","city_kana":"ワカヤマシ","town":"榎原","town_kana":"エノキハラ","prefecture_code":30},"0101":{"zip_code":"6400101","prefecture":"和歌山県","prefecture_kana":"ワカヤマケン","city":"和歌山市","city_kana":"ワカヤマシ","town":"大川","town_kana":"オオカワ","prefecture_code":30},"0316":{"zip_code":"6400316","prefecture":"和歌山県","prefecture_kana":"ワカヤマケン","city":"和歌山市","city_kana":"ワカヤマシ","town":"大河内","town_kana":"オオカワチ","prefecture_code":30},"8472":{"zip_code":"6408472","prefecture":"和歌山県","prefecture_kana":"ワカヤマケン","city":"和歌山市","city_kana":"ワカヤマシ","town":"大谷","town_kana":"オオタニ","prefecture_code":30},"8323":{"zip_code":"6408323","prefecture":"和歌山県","prefecture_kana":"ワカヤマケン","city":"和歌山市","city_kana":"ワカヤマシ","town":"太田","town_kana":"オオダ","prefecture_code":30},"8361":{"zip_code":"6408361","prefecture":"和歌山県","prefecture_kana":"ワカヤマケン","city":"和歌山市","city_kana":"ワカヤマシ","town":"岡円福院東ノ丁","town_kana":"オカエンプクインヒガシノチョウ","prefecture_code":30},"8364":{"zip_code":"6408364","prefecture":"和歌山県","prefecture_kana":"ワカヤマケン","city":"和歌山市","city_kana":"ワカヤマシ","town":"岡円福院西ノ丁","town_kana":"オカエンプクインニシノチョウ","prefecture_code":30},"8362":{"zip_code":"6408362","prefecture":"和歌山県","prefecture_kana":"ワカヤマケン","city":"和歌山市","city_kana":"ワカヤマシ","town":"岡織屋小路","town_kana":"オカオリヤショウジ","prefecture_code":30},"8365":{"zip_code":"6408365","prefecture":"和歌山県","prefecture_kana":"ワカヤマケン","city":"和歌山市","city_kana":"ワカヤマシ","town":"岡北ノ丁","town_kana":"オカキタノチョウ","prefecture_code":30},"8363":{"zip_code":"6408363","prefecture":"和歌山県","prefecture_kana":"ワカヤマケン","city":"和歌山市","city_kana":"ワカヤマシ","town":"岡南ノ丁","town_kana":"オカミナミノチョウ","prefecture_code":30},"8145":{"zip_code":"6408145","prefecture":"和歌山県","prefecture_kana":"ワカヤマケン","city":"和歌山市","city_kana":"ワカヤマシ","town":"岡山丁","town_kana":"オカヤマチョウ","prefecture_code":30},"0362":{"zip_code":"6400362","prefecture":"和歌山県","prefecture_kana":"ワカヤマケン","city":"和歌山市","city_kana":"ワカヤマシ","town":"奥須佐","town_kana":"オクズサ","prefecture_code":30},"8271":{"zip_code":"6408271","prefecture":"和歌山県","prefecture_kana":"ワカヤマケン","city":"和歌山市","city_kana":"ワカヤマシ","town":"尾崎丁","town_kana":"オザキチョウ","prefecture_code":30},"8230":{"zip_code":"6408230","prefecture":"和歌山県","prefecture_kana":"ワカヤマケン","city":"和歌山市","city_kana":"ワカヤマシ","town":"男野芝丁","town_kana":"オノシバチョウ","prefecture_code":30},"8224":{"zip_code":"6408224","prefecture":"和歌山県","prefecture_kana":"ワカヤマケン","city":"和歌山市","city_kana":"ワカヤマシ","town":"小野町","town_kana":"オノマチ","prefecture_code":30},"8124":{"zip_code":"6408124","prefecture":"和歌山県","prefecture_kana":"ワカヤマケン","city":"和歌山市","city_kana":"ワカヤマシ","town":"雄松町","town_kana":"オマツチョウ","prefecture_code":30},"8073":{"zip_code":"6408073","prefecture":"和歌山県","prefecture_kana":"ワカヤマケン","city":"和歌山市","city_kana":"ワカヤマシ","town":"嘉家作丁","town_kana":"カケヅクリチョウ","prefecture_code":30},"8293":{"zip_code":"6408293","prefecture":"和歌山県","prefecture_kana":"ワカヤマケン","city":"和歌山市","city_kana":"ワカヤマシ","town":"駕町","town_kana":"カゴマチ","prefecture_code":30},"8139":{"zip_code":"6408139","prefecture":"和歌山県","prefecture_kana":"ワカヤマケン","city":"和歌山市","city_kana":"ワカヤマシ","town":"片岡町","town_kana":"カタオカチョウ","prefecture_code":30},"0103":{"zip_code":"6400103","prefecture":"和歌山県","prefecture_kana":"ワカヤマケン","city":"和歌山市","city_kana":"ワカヤマシ","town":"加太","town_kana":"カダ","prefecture_code":30},"8243":{"zip_code":"6408243","prefecture":"和歌山県","prefecture_kana":"ワカヤマケン","city":"和歌山市","city_kana":"ワカヤマシ","town":"徒町","town_kana":"カチマチ","prefecture_code":30},"8391":{"zip_code":"6408391","prefecture":"和歌山県","prefecture_kana":"ワカヤマケン","city":"和歌山市","city_kana":"ワカヤマシ","town":"加納","town_kana":"カノウ","prefecture_code":30},"8288":{"zip_code":"6408288","prefecture":"和歌山県","prefecture_kana":"ワカヤマケン","city":"和歌山市","city_kana":"ワカヤマシ","town":"加納町","town_kana":"カノウマチ","prefecture_code":30},"8411":{"zip_code":"6408411","prefecture":"和歌山県","prefecture_kana":"ワカヤマケン","city":"和歌山市","city_kana":"ワカヤマシ","town":"梶取","town_kana":"カンドリ","prefecture_code":30},"8253":{"zip_code":"6408253","prefecture":"和歌山県","prefecture_kana":"ワカヤマケン","city":"和歌山市","city_kana":"ワカヤマシ","town":"北相生丁","town_kana":"キタアイオイチョウ","prefecture_code":30},"8299":{"zip_code":"6408299","prefecture":"和歌山県","prefecture_kana":"ワカヤマケン","city":"和歌山市","city_kana":"ワカヤマシ","town":"北牛町","town_kana":"キタウシマチ","prefecture_code":30},"8020":{"zip_code":"6408020","prefecture":"和歌山県","prefecture_kana":"ワカヤマケン","city":"和歌山市","city_kana":"ワカヤマシ","town":"北桶屋町","town_kana":"キタオケヤマチ","prefecture_code":30},"8103":{"zip_code":"6408103","prefecture":"和歌山県","prefecture_kana":"ワカヤマケン","city":"和歌山市","city_kana":"ワカヤマシ","town":"北休賀町","town_kana":"キタキュウカマチ","prefecture_code":30},"8062":{"zip_code":"6408062","prefecture":"和歌山県","prefecture_kana":"ワカヤマケン","city":"和歌山市","city_kana":"ワカヤマシ","town":"北釘貫丁","town_kana":"キタクギヌキチョウ","prefecture_code":30},"8118":{"zip_code":"6408118","prefecture":"和歌山県","prefecture_kana":"ワカヤマケン","city":"和歌山市","city_kana":"ワカヤマシ","town":"北細工町","town_kana":"キタサイクマチ","prefecture_code":30},"8233":{"zip_code":"6408233","prefecture":"和歌山県","prefecture_kana":"ワカヤマケン","city":"和歌山市","city_kana":"ワカヤマシ","town":"北坂ノ上丁","town_kana":"キタサカノウエチョウ","prefecture_code":30},"8002":{"zip_code":"6408002","prefecture":"和歌山県","prefecture_kana":"ワカヤマケン","city":"和歌山市","city_kana":"ワカヤマシ","town":"北新","town_kana":"キタシン","prefecture_code":30},"8017":{"zip_code":"6408017","prefecture":"和歌山県","prefecture_kana":"ワカヤマケン","city":"和歌山市","city_kana":"ワカヤマシ","town":"北新戎ノ丁","town_kana":"キタシンエビスノチョウ","prefecture_code":30},"8015":{"zip_code":"6408015","prefecture":"和歌山県","prefecture_kana":"ワカヤマケン","city":"和歌山市","city_kana":"ワカヤマシ","town":"北新桶屋町","town_kana":"キタシンオケヤマチ","prefecture_code":30},"8012":{"zip_code":"6408012","prefecture":"和歌山県","prefecture_kana":"ワカヤマケン","city":"和歌山市","city_kana":"ワカヤマシ","town":"北新金屋丁","town_kana":"キタシンカナヤチョウ","prefecture_code":30},"8001":{"zip_code":"6408001","prefecture":"和歌山県","prefecture_kana":"ワカヤマケン","city":"和歌山市","city_kana":"ワカヤマシ","town":"北新七軒丁","town_kana":"キタシンシチケンチョウ","prefecture_code":30},"8016":{"zip_code":"6408016","prefecture":"和歌山県","prefecture_kana":"ワカヤマケン","city":"和歌山市","city_kana":"ワカヤマシ","town":"北新中ノ丁","town_kana":"キタシンナカノチョウ","prefecture_code":30},"8003":{"zip_code":"6408003","prefecture":"和歌山県","prefecture_kana":"ワカヤマケン","city":"和歌山市","city_kana":"ワカヤマシ","town":"北新博労町","town_kana":"キタシンバクロウマチ","prefecture_code":30},"8011":{"zip_code":"6408011","prefecture":"和歌山県","prefecture_kana":"ワカヤマケン","city":"和歌山市","city_kana":"ワカヤマシ","town":"北新元金屋丁","town_kana":"キタシンモトカナヤチョウ","prefecture_code":30},"8403":{"zip_code":"6408403","prefecture":"和歌山県","prefecture_kana":"ワカヤマケン","city":"和歌山市","city_kana":"ワカヤマシ","town":"北島","town_kana":"キタジマ","prefecture_code":30},"8291":{"zip_code":"6408291","prefecture":"和歌山県","prefecture_kana":"ワカヤマケン","city":"和歌山市","city_kana":"ワカヤマシ","town":"北甚五兵衛丁","town_kana":"キタジンゴベエチョウ","prefecture_code":30},"8252":{"zip_code":"6408252","prefecture":"和歌山県","prefecture_kana":"ワカヤマケン","city":"和歌山市","city_kana":"ワカヤマシ","town":"北田辺丁","town_kana":"キタタナベチョウ","prefecture_code":30},"8031":{"zip_code":"6408031","prefecture":"和歌山県","prefecture_kana":"ワカヤマケン","city":"和歌山市","city_kana":"ワカヤマシ","town":"北大工町","town_kana":"キタダイクマチ","prefecture_code":30},"8294":{"zip_code":"6408294","prefecture":"和歌山県","prefecture_kana":"ワカヤマケン","city":"和歌山市","city_kana":"ワカヤマシ","town":"北中間町","town_kana":"キタチュウゲンマチ","prefecture_code":30},"8317":{"zip_code":"6408317","prefecture":"和歌山県","prefecture_kana":"ワカヤマケン","city":"和歌山市","city_kana":"ワカヤマシ","town":"北出島","town_kana":"キタデジマ","prefecture_code":30},"8296":{"zip_code":"6408296","prefecture":"和歌山県","prefecture_kana":"ワカヤマケン","city":"和歌山市","city_kana":"ワカヤマシ","town":"北土佐丁","town_kana":"キタトサチョウ","prefecture_code":30},"8355":{"zip_code":"6408355","prefecture":"和歌山県","prefecture_kana":"ワカヤマケン","city":"和歌山市","city_kana":"ワカヤマシ","town":"北ノ新地","town_kana":"キタノシンチ","prefecture_code":30},"8352":{"zip_code":"6408352","prefecture":"和歌山県","prefecture_kana":"ワカヤマケン","city":"和歌山市","city_kana":"ワカヤマシ","town":"北ノ新地裏田町","town_kana":"キタノシンチウラタマチ","prefecture_code":30},"8353":{"zip_code":"6408353","prefecture":"和歌山県","prefecture_kana":"ワカヤマケン","city":"和歌山市","city_kana":"ワカヤマシ","town":"北ノ新地榎丁","town_kana":"キタノシンチエノキチョウ","prefecture_code":30},"8356":{"zip_code":"6408356","prefecture":"和歌山県","prefecture_kana":"ワカヤマケン","city":"和歌山市","city_kana":"ワカヤマシ","town":"北ノ新地上六軒丁","town_kana":"キタノシンチカミロッケンチョウ","prefecture_code":30},"8357":{"zip_code":"6408357","prefecture":"和歌山県","prefecture_kana":"ワカヤマケン","city":"和歌山市","city_kana":"ワカヤマシ","town":"北ノ新地中六軒丁","town_kana":"キタノシンチナカロッケンチョウ","prefecture_code":30},"8358":{"zip_code":"6408358","prefecture":"和歌山県","prefecture_kana":"ワカヤマケン","city":"和歌山市","city_kana":"ワカヤマシ","town":"北ノ新地下六軒丁","town_kana":"キタノシンチシモロッケンチョウ","prefecture_code":30},"8359":{"zip_code":"6408359","prefecture":"和歌山県","prefecture_kana":"ワカヤマケン","city":"和歌山市","city_kana":"ワカヤマシ","town":"北ノ新地田町","town_kana":"キタノシンチタマチ","prefecture_code":30},"8354":{"zip_code":"6408354","prefecture":"和歌山県","prefecture_kana":"ワカヤマケン","city":"和歌山市","city_kana":"ワカヤマシ","town":"北ノ新地東ノ丁","town_kana":"キタノシンチヒガシノチョウ","prefecture_code":30},"8350":{"zip_code":"6408350","prefecture":"和歌山県","prefecture_kana":"ワカヤマケン","city":"和歌山市","city_kana":"ワカヤマシ","town":"北ノ新地分銅丁","town_kana":"キタノシンチフンドウチョウ","prefecture_code":30},"8038":{"zip_code":"6408038","prefecture":"和歌山県","prefecture_kana":"ワカヤマケン","city":"和歌山市","city_kana":"ワカヤマシ","town":"北町","town_kana":"キタマチ","prefecture_code":30},"8231":{"zip_code":"6408231","prefecture":"和歌山県","prefecture_kana":"ワカヤマケン","city":"和歌山市","city_kana":"ワカヤマシ","town":"北汀丁","town_kana":"キタミギワチョウ","prefecture_code":30},"8412":{"zip_code":"6408412","prefecture":"和歌山県","prefecture_kana":"ワカヤマケン","city":"和歌山市","city_kana":"ワカヤマシ","town":"狐島","town_kana":"キツネジマ","prefecture_code":30},"8453":{"zip_code":"6408453","prefecture":"和歌山県","prefecture_kana":"ワカヤマケン","city":"和歌山市","city_kana":"ワカヤマシ","town":"木ノ本","town_kana":"キノモト","prefecture_code":30},"8328":{"zip_code":"6408328","prefecture":"和歌山県","prefecture_kana":"ワカヤマケン","city":"和歌山市","city_kana":"ワカヤマシ","town":"木広町","town_kana":"キヒロチョウ","prefecture_code":30},"8244":{"zip_code":"6408244","prefecture":"和歌山県","prefecture_kana":"ワカヤマケン","city":"和歌山市","city_kana":"ワカヤマシ","town":"久右衛門丁","town_kana":"キュウエモンチョウ","prefecture_code":30},"8155":{"zip_code":"6408155","prefecture":"和歌山県","prefecture_kana":"ワカヤマケン","city":"和歌山市","city_kana":"ワカヤマシ","town":"九番丁","town_kana":"キュウバンチョウ","prefecture_code":30},"0351":{"zip_code":"6400351","prefecture":"和歌山県","prefecture_kana":"ワカヤマケン","city":"和歌山市","city_kana":"ワカヤマシ","town":"吉礼","town_kana":"キレ","prefecture_code":30},"8274":{"zip_code":"6408274","prefecture":"和歌山県","prefecture_kana":"ワカヤマケン","city":"和歌山市","city_kana":"ワカヤマシ","town":"金龍寺丁","town_kana":"キンリュウジチョウ","prefecture_code":30},"8055":{"zip_code":"6408055","prefecture":"和歌山県","prefecture_kana":"ワカヤマケン","city":"和歌山市","city_kana":"ワカヤマシ","town":"九家ノ丁","town_kana":"クケノチョウ","prefecture_code":30},"8332":{"zip_code":"6408332","prefecture":"和歌山県","prefecture_kana":"ワカヤマケン","city":"和歌山市","city_kana":"ワカヤマシ","town":"楠右衛門小路","town_kana":"クスエモンショウジ","prefecture_code":30},"8463":{"zip_code":"6408463","prefecture":"和歌山県","prefecture_kana":"ワカヤマケン","city":"和歌山市","city_kana":"ワカヤマシ","town":"楠見中","town_kana":"クスミナカ","prefecture_code":30},"0364":{"zip_code":"6400364","prefecture":"和歌山県","prefecture_kana":"ワカヤマケン","city":"和歌山市","city_kana":"ワカヤマシ","town":"口須佐","town_kana":"クチズサ","prefecture_code":30},"8225":{"zip_code":"6408225","prefecture":"和歌山県","prefecture_kana":"ワカヤマケン","city":"和歌山市","city_kana":"ワカヤマシ","town":"久保丁","town_kana":"クボチョウ","prefecture_code":30},"8333":{"zip_code":"6408333","prefecture":"和歌山県","prefecture_kana":"ワカヤマケン","city":"和歌山市","city_kana":"ワカヤマシ","town":"蔵小路","town_kana":"クラショウジ","prefecture_code":30},"8305":{"zip_code":"6408305","prefecture":"和歌山県","prefecture_kana":"ワカヤマケン","city":"和歌山市","city_kana":"ワカヤマシ","town":"栗栖","town_kana":"クルス","prefecture_code":30},"0311":{"zip_code":"6400311","prefecture":"和歌山県","prefecture_kana":"ワカヤマケン","city":"和歌山市","city_kana":"ワカヤマシ","town":"黒岩","town_kana":"クロイワ","prefecture_code":30},"8341":{"zip_code":"6408341","prefecture":"和歌山県","prefecture_kana":"ワカヤマケン","city":"和歌山市","city_kana":"ワカヤマシ","town":"黒田","town_kana":"クロダ","prefecture_code":30},"0312":{"zip_code":"6400312","prefecture":"和歌山県","prefecture_kana":"ワカヤマケン","city":"和歌山市","city_kana":"ワカヤマシ","town":"黒谷","town_kana":"クロダニ","prefecture_code":30},"0345":{"zip_code":"6400345","prefecture":"和歌山県","prefecture_kana":"ワカヤマケン","city":"和歌山市","city_kana":"ワカヤマシ","town":"桑山","town_kana":"クワヤマ","prefecture_code":30},"8337":{"zip_code":"6408337","prefecture":"和歌山県","prefecture_kana":"ワカヤマケン","city":"和歌山市","city_kana":"ワカヤマシ","town":"毛革屋丁","town_kana":"ケガワヤチョウ","prefecture_code":30},"8220":{"zip_code":"6408220","prefecture":"和歌山県","prefecture_kana":"ワカヤマケン","city":"和歌山市","city_kana":"ワカヤマシ","town":"下町","town_kana":"ゲノマチ","prefecture_code":30},"8075":{"zip_code":"6408075","prefecture":"和歌山県","prefecture_kana":"ワカヤマケン","city":"和歌山市","city_kana":"ワカヤマシ","town":"源蔵馬場","town_kana":"ゲンゾウババ","prefecture_code":30},"8314":{"zip_code":"6408314","prefecture":"和歌山県","prefecture_kana":"ワカヤマケン","city":"和歌山市","city_kana":"ワカヤマシ","town":"神前","town_kana":"コウザキ","prefecture_code":30},"0323":{"zip_code":"6400323","prefecture":"和歌山県","prefecture_kana":"ワカヤマケン","city":"和歌山市","city_kana":"ワカヤマシ","town":"小瀬田","town_kana":"コゼタ","prefecture_code":30},"8141":{"zip_code":"6408141","prefecture":"和歌山県","prefecture_kana":"ワカヤマケン","city":"和歌山市","city_kana":"ワカヤマシ","town":"五番丁","town_kana":"ゴバンチョウ","prefecture_code":30},"8373":{"zip_code":"6408373","prefecture":"和歌山県","prefecture_kana":"ワカヤマケン","city":"和歌山市","city_kana":"ワカヤマシ","town":"木挽丁","town_kana":"コビキチョウ","prefecture_code":30},"8226":{"zip_code":"6408226","prefecture":"和歌山県","prefecture_kana":"ワカヤマケン","city":"和歌山市","city_kana":"ワカヤマシ","town":"小人町","town_kana":"コビトマチ","prefecture_code":30},"8228":{"zip_code":"6408228","prefecture":"和歌山県","prefecture_kana":"ワカヤマケン","city":"和歌山市","city_kana":"ワカヤマシ","town":"小人町南ノ丁","town_kana":"コビトマチミナミノチョウ","prefecture_code":30},"0301":{"zip_code":"6400301","prefecture":"和歌山県","prefecture_kana":"ワカヤマケン","city":"和歌山市","city_kana":"ワカヤマシ","town":"木枕","town_kana":"コマクラ","prefecture_code":30},"8265":{"zip_code":"6408265","prefecture":"和歌山県","prefecture_kana":"ワカヤマケン","city":"和歌山市","city_kana":"ワカヤマシ","town":"小松原","town_kana":"コマツバラ","prefecture_code":30},"8269":{"zip_code":"6408269","prefecture":"和歌山県","prefecture_kana":"ワカヤマケン","city":"和歌山市","city_kana":"ワカヤマシ","town":"小松原通","town_kana":"コマツバラドオリ","prefecture_code":30},"8027":{"zip_code":"6408027","prefecture":"和歌山県","prefecture_kana":"ワカヤマケン","city":"和歌山市","city_kana":"ワカヤマシ","town":"米屋町","town_kana":"コメヤマチ","prefecture_code":30},"8435":{"zip_code":"6408435","prefecture":"和歌山県","prefecture_kana":"ワカヤマケン","city":"和歌山市","city_kana":"ワカヤマシ","town":"古屋","town_kana":"コヤ","prefecture_code":30},"8108":{"zip_code":"6408108","prefecture":"和歌山県","prefecture_kana":"ワカヤマケン","city":"和歌山市","city_kana":"ワカヤマシ","town":"雑賀町","town_kana":"サイカマチ","prefecture_code":30},"8121":{"zip_code":"6408121","prefecture":"和歌山県","prefecture_kana":"ワカヤマケン","city":"和歌山市","city_kana":"ワカヤマシ","town":"雑賀道","town_kana":"サイカミチ","prefecture_code":30},"8249":{"zip_code":"6408249","prefecture":"和歌山県","prefecture_kana":"ワカヤマケン","city":"和歌山市","city_kana":"ワカヤマシ","town":"雑賀屋町","town_kana":"サイカヤマチ","prefecture_code":30},"8241":{"zip_code":"6408241","prefecture":"和歌山県","prefecture_kana":"ワカヤマケン","city":"和歌山市","city_kana":"ワカヤマシ","town":"雑賀屋町東ノ丁","town_kana":"サイカヤマチヒガシノチョウ","prefecture_code":30},"8237":{"zip_code":"6408237","prefecture":"和歌山県","prefecture_kana":"ワカヤマケン","city":"和歌山市","city_kana":"ワカヤマシ","town":"材木丁","town_kana":"ザイモクチョウ","prefecture_code":30},"0313":{"zip_code":"6400313","prefecture":"和歌山県","prefecture_kana":"ワカヤマケン","city":"和歌山市","city_kana":"ワカヤマシ","town":"境原","town_kana":"サカイバラ","prefecture_code":30},"8441":{"zip_code":"6408441","prefecture":"和歌山県","prefecture_kana":"ワカヤマケン","city":"和歌山市","city_kana":"ワカヤマシ","town":"栄谷","town_kana":"サカエダニ","prefecture_code":30},"8053":{"zip_code":"6408053","prefecture":"和歌山県","prefecture_kana":"ワカヤマケン","city":"和歌山市","city_kana":"ワカヤマシ","town":"鷺ノ森","town_kana":"サギノモリ","prefecture_code":30},"8054":{"zip_code":"6408054","prefecture":"和歌山県","prefecture_kana":"ワカヤマケン","city":"和歌山市","city_kana":"ワカヤマシ","town":"鷺ノ森片町","town_kana":"サギノモリカタマチ","prefecture_code":30},"8057":{"zip_code":"6408057","prefecture":"和歌山県","prefecture_kana":"ワカヤマケン","city":"和歌山市","city_kana":"ワカヤマシ","town":"鷺ノ森新道","town_kana":"サギノモリシンミチ","prefecture_code":30},"8052":{"zip_code":"6408052","prefecture":"和歌山県","prefecture_kana":"ワカヤマケン","city":"和歌山市","city_kana":"ワカヤマシ","town":"鷺ノ森堂前丁","town_kana":"サギノモリドウマエチョウ","prefecture_code":30},"8058":{"zip_code":"6408058","prefecture":"和歌山県","prefecture_kana":"ワカヤマケン","city":"和歌山市","city_kana":"ワカヤマシ","town":"鷺ノ森中ノ丁","town_kana":"サギノモリナカノチョウ","prefecture_code":30},"8051":{"zip_code":"6408051","prefecture":"和歌山県","prefecture_kana":"ワカヤマケン","city":"和歌山市","city_kana":"ワカヤマシ","town":"鷺ノ森東ノ丁","town_kana":"サギノモリヒガシノチョウ","prefecture_code":30},"8056":{"zip_code":"6408056","prefecture":"和歌山県","prefecture_kana":"ワカヤマケン","city":"和歌山市","city_kana":"ワカヤマシ","town":"鷺ノ森西ノ丁","town_kana":"サギノモリニシノチョウ","prefecture_code":30},"8047":{"zip_code":"6408047","prefecture":"和歌山県","prefecture_kana":"ワカヤマケン","city":"和歌山市","city_kana":"ワカヤマシ","town":"鷺ノ森南ノ丁","town_kana":"サギノモリミナミノチョウ","prefecture_code":30},"8059":{"zip_code":"6408059","prefecture":"和歌山県","prefecture_kana":"ワカヤマケン","city":"和歌山市","city_kana":"ワカヤマシ","town":"鷺ノ森明神丁","town_kana":"サギノモリミョウジンチョウ","prefecture_code":30},"8276":{"zip_code":"6408276","prefecture":"和歌山県","prefecture_kana":"ワカヤマケン","city":"和歌山市","city_kana":"ワカヤマシ","town":"作事丁","town_kana":"サクジチョウ","prefecture_code":30},"0303":{"zip_code":"6400303","prefecture":"和歌山県","prefecture_kana":"ワカヤマケン","city":"和歌山市","city_kana":"ワカヤマシ","town":"山東中","town_kana":"サンドウナカ","prefecture_code":30},"8142":{"zip_code":"6408142","prefecture":"和歌山県","prefecture_kana":"ワカヤマケン","city":"和歌山市","city_kana":"ワカヤマシ","town":"三番丁","town_kana":"サンバンチョウ","prefecture_code":30},"0306":{"zip_code":"6400306","prefecture":"和歌山県","prefecture_kana":"ワカヤマケン","city":"和歌山市","city_kana":"ワカヤマシ","town":"塩ノ谷","town_kana":"シオノタニ","prefecture_code":30},"8122":{"zip_code":"6408122","prefecture":"和歌山県","prefecture_kana":"ワカヤマケン","city":"和歌山市","city_kana":"ワカヤマシ","town":"汐見町","town_kana":"シオミチョウ","prefecture_code":30},"8156":{"zip_code":"6408156","prefecture":"和歌山県","prefecture_kana":"ワカヤマケン","city":"和歌山市","city_kana":"ワカヤマシ","town":"七番丁","town_kana":"シチバンチョウ","prefecture_code":30},"8267":{"zip_code":"6408267","prefecture":"和歌山県","prefecture_kana":"ワカヤマケン","city":"和歌山市","city_kana":"ワカヤマシ","town":"芝ノ丁","town_kana":"シバノチョウ","prefecture_code":30},"8125":{"zip_code":"6408125","prefecture":"和歌山県","prefecture_kana":"ワカヤマケン","city":"和歌山市","city_kana":"ワカヤマシ","town":"島崎町","town_kana":"シマザキチョウ","prefecture_code":30},"8413":{"zip_code":"6408413","prefecture":"和歌山県","prefecture_kana":"ワカヤマケン","city":"和歌山市","city_kana":"ワカヤマシ","town":"島橋東ノ丁","town_kana":"シマバシヒガシノチョウ","prefecture_code":30},"8414":{"zip_code":"6408414","prefecture":"和歌山県","prefecture_kana":"ワカヤマケン","city":"和歌山市","city_kana":"ワカヤマシ","town":"島橋西ノ丁","town_kana":"シマバシニシノチョウ","prefecture_code":30},"8415":{"zip_code":"6408415","prefecture":"和歌山県","prefecture_kana":"ワカヤマケン","city":"和歌山市","city_kana":"ワカヤマシ","town":"島橋南ノ丁","town_kana":"シマバシミナミノチョウ","prefecture_code":30},"8416":{"zip_code":"6408416","prefecture":"和歌山県","prefecture_kana":"ワカヤマケン","city":"和歌山市","city_kana":"ワカヤマシ","town":"島橋北ノ丁","town_kana":"シマバシキタノチョウ","prefecture_code":30},"8074":{"zip_code":"6408074","prefecture":"和歌山県","prefecture_kana":"ワカヤマケン","city":"和歌山市","city_kana":"ワカヤマシ","town":"新魚町","town_kana":"シンギョマチ","prefecture_code":30},"8101":{"zip_code":"6408101","prefecture":"和歌山県","prefecture_kana":"ワカヤマケン","city":"和歌山市","city_kana":"ワカヤマシ","town":"新雑賀町","town_kana":"シンサイカマチ","prefecture_code":30},"8377":{"zip_code":"6408377","prefecture":"和歌山県","prefecture_kana":"ワカヤマケン","city":"和歌山市","city_kana":"ワカヤマシ","town":"新堺丁","town_kana":"シンサカイチョウ","prefecture_code":30},"8345":{"zip_code":"6408345","prefecture":"和歌山県","prefecture_kana":"ワカヤマケン","city":"和歌山市","city_kana":"ワカヤマシ","town":"新在家","town_kana":"シンザイケ","prefecture_code":30},"8325":{"zip_code":"6408325","prefecture":"和歌山県","prefecture_kana":"ワカヤマケン","city":"和歌山市","city_kana":"ワカヤマシ","town":"新生町","town_kana":"シンセイチョウ","prefecture_code":30},"8372":{"zip_code":"6408372","prefecture":"和歌山県","prefecture_kana":"ワカヤマケン","city":"和歌山市","city_kana":"ワカヤマシ","town":"新大工町","town_kana":"シンダイクマチ","prefecture_code":30},"8111":{"zip_code":"6408111","prefecture":"和歌山県","prefecture_kana":"ワカヤマケン","city":"和歌山市","city_kana":"ワカヤマシ","town":"新通","town_kana":"シントオリ","prefecture_code":30},"8376":{"zip_code":"6408376","prefecture":"和歌山県","prefecture_kana":"ワカヤマケン","city":"和歌山市","city_kana":"ワカヤマシ","town":"新中通","town_kana":"シンナカドオリ","prefecture_code":30},"8371":{"zip_code":"6408371","prefecture":"和歌山県","prefecture_kana":"ワカヤマケン","city":"和歌山市","city_kana":"ワカヤマシ","town":"新八百屋丁","town_kana":"シンヤオヤチョウ","prefecture_code":30},"8152":{"zip_code":"6408152","prefecture":"和歌山県","prefecture_kana":"ワカヤマケン","city":"和歌山市","city_kana":"ワカヤマシ","town":"十番丁","town_kana":"ジュウバンチョウ","prefecture_code":30},"8159":{"zip_code":"6408159","prefecture":"和歌山県","prefecture_kana":"ワカヤマケン","city":"和歌山市","city_kana":"ワカヤマシ","town":"十一番丁","town_kana":"ジュウイチバンチョウ","prefecture_code":30},"8158":{"zip_code":"6408158","prefecture":"和歌山県","prefecture_kana":"ワカヤマケン","city":"和歌山市","city_kana":"ワカヤマシ","town":"十二番丁","town_kana":"ジュウニバンチョウ","prefecture_code":30},"8150":{"zip_code":"6408150","prefecture":"和歌山県","prefecture_kana":"ワカヤマケン","city":"和歌山市","city_kana":"ワカヤマシ","town":"十三番丁","town_kana":"ジュウサンバンチョウ","prefecture_code":30},"8444":{"zip_code":"6408444","prefecture":"和歌山県","prefecture_kana":"ワカヤマケン","city":"和歌山市","city_kana":"ワカヤマシ","town":"次郎丸","town_kana":"ジロマル","prefecture_code":30},"8374":{"zip_code":"6408374","prefecture":"和歌山県","prefecture_kana":"ワカヤマケン","city":"和歌山市","city_kana":"ワカヤマシ","town":"数寄屋丁","town_kana":"スキヤチョウ","prefecture_code":30},"8212":{"zip_code":"6408212","prefecture":"和歌山県","prefecture_kana":"ワカヤマケン","city":"和歌山市","city_kana":"ワカヤマシ","town":"杉ノ馬場","town_kana":"スギノババ","prefecture_code":30},"8378":{"zip_code":"6408378","prefecture":"和歌山県","prefecture_kana":"ワカヤマケン","city":"和歌山市","city_kana":"ワカヤマシ","town":"鈴丸丁","town_kana":"スズマルチョウ","prefecture_code":30},"0314":{"zip_code":"6400314","prefecture":"和歌山県","prefecture_kana":"ワカヤマケン","city":"和歌山市","city_kana":"ワカヤマシ","town":"頭陀寺","town_kana":"ズダジ","prefecture_code":30},"8272":{"zip_code":"6408272","prefecture":"和歌山県","prefecture_kana":"ワカヤマケン","city":"和歌山市","city_kana":"ワカヤマシ","town":"砂山南","town_kana":"スナヤマミナミ","prefecture_code":30},"8022":{"zip_code":"6408022","prefecture":"和歌山県","prefecture_kana":"ワカヤマケン","city":"和歌山市","city_kana":"ワカヤマシ","town":"住吉町","town_kana":"スミヨシマチ","prefecture_code":30},"8034":{"zip_code":"6408034","prefecture":"和歌山県","prefecture_kana":"ワカヤマケン","city":"和歌山市","city_kana":"ワカヤマシ","town":"駿河町","town_kana":"スルガマチ","prefecture_code":30},"8041":{"zip_code":"6408041","prefecture":"和歌山県","prefecture_kana":"ワカヤマケン","city":"和歌山市","city_kana":"ワカヤマシ","town":"専光寺門前丁","town_kana":"センコウジモンゼンチョウ","prefecture_code":30},"8114":{"zip_code":"6408114","prefecture":"和歌山県","prefecture_kana":"ワカヤマケン","city":"和歌山市","city_kana":"ワカヤマシ","town":"船場町","town_kana":"センバチョウ","prefecture_code":30},"8471":{"zip_code":"6408471","prefecture":"和歌山県","prefecture_kana":"ワカヤマケン","city":"和歌山市","city_kana":"ワカヤマシ","town":"善明寺","town_kana":"ゼンミョウジ","prefecture_code":30},"0341":{"zip_code":"6400341","prefecture":"和歌山県","prefecture_kana":"ワカヤマケン","city":"和歌山市","city_kana":"ワカヤマシ","town":"相坂","town_kana":"ソウザカ","prefecture_code":30},"8483":{"zip_code":"6408483","prefecture":"和歌山県","prefecture_kana":"ワカヤマケン","city":"和歌山市","city_kana":"ワカヤマシ","town":"園部","town_kana":"ソノベ","prefecture_code":30},"8135":{"zip_code":"6408135","prefecture":"和歌山県","prefecture_kana":"ワカヤマケン","city":"和歌山市","city_kana":"ワカヤマシ","town":"鷹匠町","town_kana":"タカジョウマチ","prefecture_code":30},"8028":{"zip_code":"6408028","prefecture":"和歌山県","prefecture_kana":"ワカヤマケン","city":"和歌山市","city_kana":"ワカヤマシ","town":"匠町","town_kana":"タクミマチ","prefecture_code":30},"8061":{"zip_code":"6408061","prefecture":"和歌山県","prefecture_kana":"ワカヤマケン","city":"和歌山市","city_kana":"ワカヤマシ","town":"畳屋町","town_kana":"タタミヤマチ","prefecture_code":30},"8329":{"zip_code":"6408329","prefecture":"和歌山県","prefecture_kana":"ワカヤマケン","city":"和歌山市","city_kana":"ワカヤマシ","town":"田中町","town_kana":"タナカマチ","prefecture_code":30},"8133":{"zip_code":"6408133","prefecture":"和歌山県","prefecture_kana":"ワカヤマケン","city":"和歌山市","city_kana":"ワカヤマシ","town":"谷町","town_kana":"タニマチ","prefecture_code":30},"8287":{"zip_code":"6408287","prefecture":"和歌山県","prefecture_kana":"ワカヤマケン","city":"和歌山市","city_kana":"ワカヤマシ","town":"築港","town_kana":"チッコウ","prefecture_code":30},"8263":{"zip_code":"6408263","prefecture":"和歌山県","prefecture_kana":"ワカヤマケン","city":"和歌山市","city_kana":"ワカヤマシ","town":"茶屋ノ丁","town_kana":"チャヤノチョウ","prefecture_code":30},"8334":{"zip_code":"6408334","prefecture":"和歌山県","prefecture_kana":"ワカヤマケン","city":"和歌山市","city_kana":"ワカヤマシ","town":"茶屋町","town_kana":"チャヤマチ","prefecture_code":30},"0115":{"zip_code":"6400115","prefecture":"和歌山県","prefecture_kana":"ワカヤマケン","city":"和歌山市","city_kana":"ワカヤマシ","town":"つつじが丘","town_kana":"ツツジガオカ","prefecture_code":30},"8315":{"zip_code":"6408315","prefecture":"和歌山県","prefecture_kana":"ワカヤマケン","city":"和歌山市","city_kana":"ワカヤマシ","town":"津秦","town_kana":"ツワダ","prefecture_code":30},"8319":{"zip_code":"6408319","prefecture":"和歌山県","prefecture_kana":"ワカヤマケン","city":"和歌山市","city_kana":"ワカヤマシ","town":"手平","town_kana":"テビラ","prefecture_code":30},"8320":{"zip_code":"6408320","prefecture":"和歌山県","prefecture_kana":"ワカヤマケン","city":"和歌山市","city_kana":"ワカヤマシ","town":"手平出島","town_kana":"テビラデジマ","prefecture_code":30},"8311":{"zip_code":"6408311","prefecture":"和歌山県","prefecture_kana":"ワカヤマケン","city":"和歌山市","city_kana":"ワカヤマシ","town":"寺内","town_kana":"テラウチ","prefecture_code":30},"8282":{"zip_code":"6408282","prefecture":"和歌山県","prefecture_kana":"ワカヤマケン","city":"和歌山市","city_kana":"ワカヤマシ","town":"出口甲賀丁","town_kana":"デグチコウガチョウ","prefecture_code":30},"8285":{"zip_code":"6408285","prefecture":"和歌山県","prefecture_kana":"ワカヤマケン","city":"和歌山市","city_kana":"ワカヤマシ","town":"出口新端ノ丁","town_kana":"デグチシンハシノチョウ","prefecture_code":30},"8283":{"zip_code":"6408283","prefecture":"和歌山県","prefecture_kana":"ワカヤマケン","city":"和歌山市","city_kana":"ワカヤマシ","town":"出口中ノ丁","town_kana":"デグチナカノチョウ","prefecture_code":30},"8284":{"zip_code":"6408284","prefecture":"和歌山県","prefecture_kana":"ワカヤマケン","city":"和歌山市","city_kana":"ワカヤマシ","town":"出口端ノ丁","town_kana":"デグチハシノチョウ","prefecture_code":30},"8306":{"zip_code":"6408306","prefecture":"和歌山県","prefecture_kana":"ワカヤマケン","city":"和歌山市","city_kana":"ワカヤマシ","town":"出島","town_kana":"デジマ","prefecture_code":30},"8321":{"zip_code":"6408321","prefecture":"和歌山県","prefecture_kana":"ワカヤマケン","city":"和歌山市","city_kana":"ワカヤマシ","town":"出水","town_kana":"デミズ","prefecture_code":30},"8204":{"zip_code":"6408204","prefecture":"和歌山県","prefecture_kana":"ワカヤマケン","city":"和歌山市","city_kana":"ワカヤマシ","town":"伝法橋南ノ丁","town_kana":"デンポウバシミナミノチョウ","prefecture_code":30},"8229":{"zip_code":"6408229","prefecture":"和歌山県","prefecture_kana":"ワカヤマケン","city":"和歌山市","city_kana":"ワカヤマシ","town":"道場町","town_kana":"ドウジョウマチ","prefecture_code":30},"8432":{"zip_code":"6408432","prefecture":"和歌山県","prefecture_kana":"ワカヤマケン","city":"和歌山市","city_kana":"ワカヤマシ","town":"土入","town_kana":"ドウニュウ","prefecture_code":30},"8206":{"zip_code":"6408206","prefecture":"和歌山県","prefecture_kana":"ワカヤマケン","city":"和歌山市","city_kana":"ワカヤマシ","town":"徳田木丁","town_kana":"トクダギチョウ","prefecture_code":30},"8256":{"zip_code":"6408256","prefecture":"和歌山県","prefecture_kana":"ワカヤマケン","city":"和歌山市","city_kana":"ワカヤマシ","town":"土佐町","town_kana":"トサマチ","prefecture_code":30},"8342":{"zip_code":"6408342","prefecture":"和歌山県","prefecture_kana":"ワカヤマケン","city":"和歌山市","city_kana":"ワカヤマシ","town":"友田町","town_kana":"トモダチョウ","prefecture_code":30},"8451":{"zip_code":"6408451","prefecture":"和歌山県","prefecture_kana":"ワカヤマケン","city":"和歌山市","city_kana":"ワカヤマシ","town":"中","town_kana":"ナカ","prefecture_code":30},"8433":{"zip_code":"6408433","prefecture":"和歌山県","prefecture_kana":"ワカヤマケン","city":"和歌山市","city_kana":"ワカヤマシ","town":"中野","town_kana":"ナカノ","prefecture_code":30},"8392":{"zip_code":"6408392","prefecture":"和歌山県","prefecture_kana":"ワカヤマケン","city":"和歌山市","city_kana":"ワカヤマシ","town":"中之島","town_kana":"ナカノシマ","prefecture_code":30},"8025":{"zip_code":"6408025","prefecture":"和歌山県","prefecture_kana":"ワカヤマケン","city":"和歌山市","city_kana":"ワカヤマシ","town":"中ノ店中ノ丁","town_kana":"ナカノタナナカノチョウ","prefecture_code":30},"8026":{"zip_code":"6408026","prefecture":"和歌山県","prefecture_kana":"ワカヤマケン","city":"和歌山市","city_kana":"ワカヤマシ","town":"中ノ店南ノ丁","town_kana":"ナカノタナミナミノチョウ","prefecture_code":30},"8023":{"zip_code":"6408023","prefecture":"和歌山県","prefecture_kana":"ワカヤマケン","city":"和歌山市","city_kana":"ワカヤマシ","town":"中ノ店北ノ丁","town_kana":"ナカノタナキタノチョウ","prefecture_code":30},"0302":{"zip_code":"6400302","prefecture":"和歌山県","prefecture_kana":"ワカヤマケン","city":"和歌山市","city_kana":"ワカヤマシ","town":"永山","town_kana":"ナガヤマ","prefecture_code":30},"8236":{"zip_code":"6408236","prefecture":"和歌山県","prefecture_kana":"ワカヤマケン","city":"和歌山市","city_kana":"ワカヤマシ","town":"七曲り","town_kana":"ナナマガリ","prefecture_code":30},"8009":{"zip_code":"6408009","prefecture":"和歌山県","prefecture_kana":"ワカヤマケン","city":"和歌山市","city_kana":"ワカヤマシ","town":"鍋屋町","town_kana":"ナベヤマチ","prefecture_code":30},"8303":{"zip_code":"6408303","prefecture":"和歌山県","prefecture_kana":"ワカヤマケン","city":"和歌山市","city_kana":"ワカヤマシ","town":"鳴神","town_kana":"ナルカミ","prefecture_code":30},"0322":{"zip_code":"6400322","prefecture":"和歌山県","prefecture_kana":"ワカヤマケン","city":"和歌山市","city_kana":"ワカヤマシ","town":"仁井辺","town_kana":"ニイベ","prefecture_code":30},"8313":{"zip_code":"6408313","prefecture":"和歌山県","prefecture_kana":"ワカヤマケン","city":"和歌山市","city_kana":"ワカヤマシ","town":"西","town_kana":"ニシ","prefecture_code":30},"8046":{"zip_code":"6408046","prefecture":"和歌山県","prefecture_kana":"ワカヤマケン","city":"和歌山市","city_kana":"ワカヤマシ","town":"西鍛冶屋町","town_kana":"ニシカジヤマチ","prefecture_code":30},"8297":{"zip_code":"6408297","prefecture":"和歌山県","prefecture_kana":"ワカヤマケン","city":"和歌山市","city_kana":"ワカヤマシ","town":"西河岸町","town_kana":"ニシカワギシチョウ","prefecture_code":30},"8063":{"zip_code":"6408063","prefecture":"和歌山県","prefecture_kana":"ワカヤマケン","city":"和歌山市","city_kana":"ワカヤマシ","town":"西釘貫丁","town_kana":"ニシクギヌキチョウ","prefecture_code":30},"8205":{"zip_code":"6408205","prefecture":"和歌山県","prefecture_kana":"ワカヤマケン","city":"和歌山市","city_kana":"ワカヤマシ","town":"西蔵前丁","town_kana":"ニシクラマエチョウ","prefecture_code":30},"8116":{"zip_code":"6408116","prefecture":"和歌山県","prefecture_kana":"ワカヤマケン","city":"和歌山市","city_kana":"ワカヤマシ","town":"西紺屋町","town_kana":"ニシコンヤマチ","prefecture_code":30},"8234":{"zip_code":"6408234","prefecture":"和歌山県","prefecture_kana":"ワカヤマケン","city":"和歌山市","city_kana":"ワカヤマシ","town":"西坂ノ上丁","town_kana":"ニシサカノウエチョウ","prefecture_code":30},"8037":{"zip_code":"6408037","prefecture":"和歌山県","prefecture_kana":"ワカヤマケン","city":"和歌山市","city_kana":"ワカヤマシ","town":"西大工町","town_kana":"ニシダイクマチ","prefecture_code":30},"8014":{"zip_code":"6408014","prefecture":"和歌山県","prefecture_kana":"ワカヤマケン","city":"和歌山市","city_kana":"ワカヤマシ","town":"西仲間町","town_kana":"ニシチュウゲンマチ","prefecture_code":30},"8290":{"zip_code":"6408290","prefecture":"和歌山県","prefecture_kana":"ワカヤマケン","city":"和歌山市","city_kana":"ワカヤマシ","town":"西長町","town_kana":"ニシナガマチ","prefecture_code":30},"8211":{"zip_code":"6408211","prefecture":"和歌山県","prefecture_kana":"ワカヤマケン","city":"和歌山市","city_kana":"ワカヤマシ","town":"西布経丁","town_kana":"ニシヌノエチョウ","prefecture_code":30},"0112":{"zip_code":"6400112","prefecture":"和歌山県","prefecture_kana":"ワカヤマケン","city":"和歌山市","city_kana":"ワカヤマシ","town":"西庄","town_kana":"ニシノショウ","prefecture_code":30},"8042":{"zip_code":"6408042","prefecture":"和歌山県","prefecture_kana":"ワカヤマケン","city":"和歌山市","city_kana":"ワカヤマシ","town":"西ノ店","town_kana":"ニシノタナ","prefecture_code":30},"8021":{"zip_code":"6408021","prefecture":"和歌山県","prefecture_kana":"ワカヤマケン","city":"和歌山市","city_kana":"ワカヤマシ","town":"西旅籠町","town_kana":"ニシハタゴマチ","prefecture_code":30},"8227":{"zip_code":"6408227","prefecture":"和歌山県","prefecture_kana":"ワカヤマケン","city":"和歌山市","city_kana":"ワカヤマシ","town":"西汀丁","town_kana":"ニシミギワチョウ","prefecture_code":30},"8143":{"zip_code":"6408143","prefecture":"和歌山県","prefecture_kana":"ワカヤマケン","city":"和歌山市","city_kana":"ワカヤマシ","town":"二番丁","town_kana":"ニバンチョウ","prefecture_code":30},"8326":{"zip_code":"6408326","prefecture":"和歌山県","prefecture_kana":"ワカヤマケン","city":"和歌山市","city_kana":"ワカヤマシ","town":"新留丁","town_kana":"ニントメチョウ","prefecture_code":30},"8481":{"zip_code":"6408481","prefecture":"和歌山県","prefecture_kana":"ワカヤマケン","city":"和歌山市","city_kana":"ワカヤマシ","town":"直川","town_kana":"ノウガワ","prefecture_code":30},"8344":{"zip_code":"6408344","prefecture":"和歌山県","prefecture_kana":"ワカヤマケン","city":"和歌山市","city_kana":"ワカヤマシ","town":"納定","town_kana":"ノウジョウ","prefecture_code":30},"8402":{"zip_code":"6408402","prefecture":"和歌山県","prefecture_kana":"ワカヤマケン","city":"和歌山市","city_kana":"ワカヤマシ","town":"野崎","town_kana":"ノザキ","prefecture_code":30},"8443":{"zip_code":"6408443","prefecture":"和歌山県","prefecture_kana":"ワカヤマケン","city":"和歌山市","city_kana":"ワカヤマシ","town":"延時","town_kana":"ノブトキ","prefecture_code":30},"8215":{"zip_code":"6408215","prefecture":"和歌山県","prefecture_kana":"ワカヤマケン","city":"和歌山市","city_kana":"ワカヤマシ","town":"橋丁","town_kana":"ハシチョウ","prefecture_code":30},"8327":{"zip_code":"6408327","prefecture":"和歌山県","prefecture_kana":"ワカヤマケン","city":"和歌山市","city_kana":"ワカヤマシ","town":"橋向丁","town_kana":"ハシムカイチョウ","prefecture_code":30},"8382":{"zip_code":"6408382","prefecture":"和歌山県","prefecture_kana":"ワカヤマケン","city":"和歌山市","city_kana":"ワカヤマシ","town":"畑屋敷榎丁","town_kana":"ハタヤシキエノキノチョウ","prefecture_code":30},"8383":{"zip_code":"6408383","prefecture":"和歌山県","prefecture_kana":"ワカヤマケン","city":"和歌山市","city_kana":"ワカヤマシ","town":"畑屋敷円福院東ノ丁","town_kana":"ハタヤシキエンプクインヒガシノチョウ","prefecture_code":30},"8385":{"zip_code":"6408385","prefecture":"和歌山県","prefecture_kana":"ワカヤマケン","city":"和歌山市","city_kana":"ワカヤマシ","town":"畑屋敷円福院西ノ丁","town_kana":"ハタヤシキエンプクインニシノチョウ","prefecture_code":30},"8386":{"zip_code":"6408386","prefecture":"和歌山県","prefecture_kana":"ワカヤマケン","city":"和歌山市","city_kana":"ワカヤマシ","town":"畑屋敷雁木丁","town_kana":"ハタヤシキガンギチョウ","prefecture_code":30},"8384":{"zip_code":"6408384","prefecture":"和歌山県","prefecture_kana":"ワカヤマケン","city":"和歌山市","city_kana":"ワカヤマシ","town":"畑屋敷葛屋丁","town_kana":"ハタヤシキクズヤチョウ","prefecture_code":30},"8397":{"zip_code":"6408397","prefecture":"和歌山県","prefecture_kana":"ワカヤマケン","city":"和歌山市","city_kana":"ワカヤマシ","town":"畑屋敷新道丁","town_kana":"ハタヤシキシンミチチョウ","prefecture_code":30},"8394":{"zip_code":"6408394","prefecture":"和歌山県","prefecture_kana":"ワカヤマケン","city":"和歌山市","city_kana":"ワカヤマシ","town":"畑屋敷千体仏丁","town_kana":"ハタヤシキセンタイブツチョウ","prefecture_code":30},"8395":{"zip_code":"6408395","prefecture":"和歌山県","prefecture_kana":"ワカヤマケン","city":"和歌山市","city_kana":"ワカヤマシ","town":"畑屋敷中ノ丁","town_kana":"ハタヤシキナカノチョウ","prefecture_code":30},"8393":{"zip_code":"6408393","prefecture":"和歌山県","prefecture_kana":"ワカヤマケン","city":"和歌山市","city_kana":"ワカヤマシ","town":"畑屋敷端ノ丁","town_kana":"ハタヤシキハシノチョウ","prefecture_code":30},"8381":{"zip_code":"6408381","prefecture":"和歌山県","prefecture_kana":"ワカヤマケン","city":"和歌山市","city_kana":"ワカヤマシ","town":"畑屋敷東ノ丁","town_kana":"ハタヤシキヒガシノチョウ","prefecture_code":30},"8396":{"zip_code":"6408396","prefecture":"和歌山県","prefecture_kana":"ワカヤマケン","city":"和歌山市","city_kana":"ワカヤマシ","town":"畑屋敷西ノ丁","town_kana":"ハタヤシキニシノチョウ","prefecture_code":30},"8399":{"zip_code":"6408399","prefecture":"和歌山県","prefecture_kana":"ワカヤマケン","city":"和歌山市","city_kana":"ワカヤマシ","town":"畑屋敷兵庫ノ丁","town_kana":"ハタヤシキヒョウゴノチョウ","prefecture_code":30},"8387":{"zip_code":"6408387","prefecture":"和歌山県","prefecture_kana":"ワカヤマケン","city":"和歌山市","city_kana":"ワカヤマシ","town":"畑屋敷袋町","town_kana":"ハタヤシキフクロマチ","prefecture_code":30},"8398":{"zip_code":"6408398","prefecture":"和歌山県","prefecture_kana":"ワカヤマケン","city":"和歌山市","city_kana":"ワカヤマシ","town":"畑屋敷松ケ枝丁","town_kana":"ハタヤシキマツガエチョウ","prefecture_code":30},"8157":{"zip_code":"6408157","prefecture":"和歌山県","prefecture_kana":"ワカヤマケン","city":"和歌山市","city_kana":"ワカヤマシ","town":"八番丁","town_kana":"ハチバンチョウ","prefecture_code":30},"0353":{"zip_code":"6400353","prefecture":"和歌山県","prefecture_kana":"ワカヤマケン","city":"和歌山市","city_kana":"ワカヤマシ","town":"馬場","town_kana":"ババ","prefecture_code":30},"8036":{"zip_code":"6408036","prefecture":"和歌山県","prefecture_kana":"ワカヤマケン","city":"和歌山市","city_kana":"ワカヤマシ","town":"東鍛冶屋町","town_kana":"ヒガシカジヤマチ","prefecture_code":30},"8064":{"zip_code":"6408064","prefecture":"和歌山県","prefecture_kana":"ワカヤマケン","city":"和歌山市","city_kana":"ワカヤマシ","town":"東釘貫丁","town_kana":"ヒガシクギヌキチョウ","prefecture_code":30},"8203":{"zip_code":"6408203","prefecture":"和歌山県","prefecture_kana":"ワカヤマケン","city":"和歌山市","city_kana":"ワカヤマシ","town":"東蔵前丁","town_kana":"ヒガシクラマエチョウ","prefecture_code":30},"8115":{"zip_code":"6408115","prefecture":"和歌山県","prefecture_kana":"ワカヤマケン","city":"和歌山市","city_kana":"ワカヤマシ","town":"東紺屋町","town_kana":"ヒガシコンヤマチ","prefecture_code":30},"8247":{"zip_code":"6408247","prefecture":"和歌山県","prefecture_kana":"ワカヤマケン","city":"和歌山市","city_kana":"ワカヤマシ","town":"東坂ノ上丁","town_kana":"ヒガシサカノウエチョウ","prefecture_code":30},"8013":{"zip_code":"6408013","prefecture":"和歌山県","prefecture_kana":"ワカヤマケン","city":"和歌山市","city_kana":"ワカヤマシ","town":"東仲間町","town_kana":"ヒガシチュウゲンマチ","prefecture_code":30},"8235":{"zip_code":"6408235","prefecture":"和歌山県","prefecture_kana":"ワカヤマケン","city":"和歌山市","city_kana":"ワカヤマシ","town":"東長町","town_kana":"ヒガシナガマチ","prefecture_code":30},"8266":{"zip_code":"6408266","prefecture":"和歌山県","prefecture_kana":"ワカヤマケン","city":"和歌山市","city_kana":"ワカヤマシ","town":"東長町中ノ丁","town_kana":"ヒガシナガマチナカノチョウ","prefecture_code":30},"8066":{"zip_code":"6408066","prefecture":"和歌山県","prefecture_kana":"ワカヤマケン","city":"和歌山市","city_kana":"ワカヤマシ","town":"東布経丁","town_kana":"ヒガシヌノエチョウ","prefecture_code":30},"8004":{"zip_code":"6408004","prefecture":"和歌山県","prefecture_kana":"ワカヤマケン","city":"和歌山市","city_kana":"ワカヤマシ","town":"東旅籠町","town_kana":"ヒガシハタゴマチ","prefecture_code":30},"8067":{"zip_code":"6408067","prefecture":"和歌山県","prefecture_kana":"ワカヤマケン","city":"和歌山市","city_kana":"ワカヤマシ","town":"一筋目","town_kana":"ヒトスジメ","prefecture_code":30},"0111":{"zip_code":"6400111","prefecture":"和歌山県","prefecture_kana":"ワカヤマケン","city":"和歌山市","city_kana":"ワカヤマシ","town":"日野","town_kana":"ヒノ","prefecture_code":30},"8202":{"zip_code":"6408202","prefecture":"和歌山県","prefecture_kana":"ワカヤマケン","city":"和歌山市","city_kana":"ワカヤマシ","town":"屏風丁","town_kana":"ビョウブチョウ","prefecture_code":30},"8442":{"zip_code":"6408442","prefecture":"和歌山県","prefecture_kana":"ワカヤマケン","city":"和歌山市","city_kana":"ワカヤマシ","town":"平井","town_kana":"ヒライ","prefecture_code":30},"0304":{"zip_code":"6400304","prefecture":"和歌山県","prefecture_kana":"ワカヤマケン","city":"和歌山市","city_kana":"ワカヤマシ","town":"平尾","town_kana":"ヒラオ","prefecture_code":30},"8113":{"zip_code":"6408113","prefecture":"和歌山県","prefecture_kana":"ワカヤマケン","city":"和歌山市","city_kana":"ワカヤマシ","town":"広瀬通丁","town_kana":"ヒロセトオリチョウ","prefecture_code":30},"8128":{"zip_code":"6408128","prefecture":"和歌山県","prefecture_kana":"ワカヤマケン","city":"和歌山市","city_kana":"ワカヤマシ","town":"広瀬中ノ丁","town_kana":"ヒロセナカノチョウ","prefecture_code":30},"0333":{"zip_code":"6400333","prefecture":"和歌山県","prefecture_kana":"ワカヤマケン","city":"和歌山市","city_kana":"ワカヤマシ","town":"広原","town_kana":"ヒロハラ","prefecture_code":30},"8268":{"zip_code":"6408268","prefecture":"和歌山県","prefecture_kana":"ワカヤマケン","city":"和歌山市","city_kana":"ワカヤマシ","town":"広道","town_kana":"ヒロミチ","prefecture_code":30},"8137":{"zip_code":"6408137","prefecture":"和歌山県","prefecture_kana":"ワカヤマケン","city":"和歌山市","city_kana":"ワカヤマシ","town":"吹上","town_kana":"フキアゲ","prefecture_code":30},"8324":{"zip_code":"6408324","prefecture":"和歌山県","prefecture_kana":"ワカヤマケン","city":"和歌山市","city_kana":"ワカヤマシ","town":"吹屋町","town_kana":"フキヤチョウ","prefecture_code":30},"8401":{"zip_code":"6408401","prefecture":"和歌山県","prefecture_kana":"ワカヤマケン","city":"和歌山市","city_kana":"ワカヤマシ","town":"福島","town_kana":"フクシマ","prefecture_code":30},"8043":{"zip_code":"6408043","prefecture":"和歌山県","prefecture_kana":"ワカヤマケン","city":"和歌山市","city_kana":"ワカヤマシ","town":"福町","town_kana":"フクマチ","prefecture_code":30},"8068":{"zip_code":"6408068","prefecture":"和歌山県","prefecture_kana":"ワカヤマケン","city":"和歌山市","city_kana":"ワカヤマシ","town":"二筋目","town_kana":"フタスジメ","prefecture_code":30},"8213":{"zip_code":"6408213","prefecture":"和歌山県","prefecture_kana":"ワカヤマケン","city":"和歌山市","city_kana":"ワカヤマシ","town":"舟大工町","town_kana":"フナダイクマチ","prefecture_code":30},"8255":{"zip_code":"6408255","prefecture":"和歌山県","prefecture_kana":"ワカヤマケン","city":"和歌山市","city_kana":"ワカヤマシ","town":"舟津町","town_kana":"フナヅチョウ","prefecture_code":30},"8461":{"zip_code":"6408461","prefecture":"和歌山県","prefecture_kana":"ワカヤマケン","city":"和歌山市","city_kana":"ワカヤマシ","town":"船所","town_kana":"フナドコロ","prefecture_code":30},"0332":{"zip_code":"6400332","prefecture":"和歌山県","prefecture_kana":"ワカヤマケン","city":"和歌山市","city_kana":"ワカヤマシ","town":"冬野","town_kana":"フユノ","prefecture_code":30},"8131":{"zip_code":"6408131","prefecture":"和歌山県","prefecture_kana":"ワカヤマケン","city":"和歌山市","city_kana":"ワカヤマシ","town":"弁財天丁","town_kana":"ベザイテンチョウ","prefecture_code":30},"8375":{"zip_code":"6408375","prefecture":"和歌山県","prefecture_kana":"ワカヤマケン","city":"和歌山市","city_kana":"ワカヤマシ","town":"坊主丁","town_kana":"ボウズチョウ","prefecture_code":30},"8045":{"zip_code":"6408045","prefecture":"和歌山県","prefecture_kana":"ワカヤマケン","city":"和歌山市","city_kana":"ワカヤマシ","town":"卜半町","town_kana":"ボクハンマチ","prefecture_code":30},"8136":{"zip_code":"6408136","prefecture":"和歌山県","prefecture_kana":"ワカヤマケン","city":"和歌山市","city_kana":"ワカヤマシ","town":"堀止東","town_kana":"ホリドメヒガシ","prefecture_code":30},"8033":{"zip_code":"6408033","prefecture":"和歌山県","prefecture_kana":"ワカヤマケン","city":"和歌山市","city_kana":"ワカヤマシ","town":"本町","town_kana":"ホンマチ","prefecture_code":30},"8261":{"zip_code":"6408261","prefecture":"和歌山県","prefecture_kana":"ワカヤマケン","city":"和歌山市","city_kana":"ワカヤマシ","town":"真砂丁","town_kana":"マサゴチョウ","prefecture_code":30},"8421":{"zip_code":"6408421","prefecture":"和歌山県","prefecture_kana":"ワカヤマケン","city":"和歌山市","city_kana":"ワカヤマシ","town":"松江","town_kana":"マツエ","prefecture_code":30},"8423":{"zip_code":"6408423","prefecture":"和歌山県","prefecture_kana":"ワカヤマケン","city":"和歌山市","city_kana":"ワカヤマシ","town":"松江中","town_kana":"マツエナカ","prefecture_code":30},"8422":{"zip_code":"6408422","prefecture":"和歌山県","prefecture_kana":"ワカヤマケン","city":"和歌山市","city_kana":"ワカヤマシ","town":"松江東","town_kana":"マツエヒガシ","prefecture_code":30},"8424":{"zip_code":"6408424","prefecture":"和歌山県","prefecture_kana":"ワカヤマケン","city":"和歌山市","city_kana":"ワカヤマシ","town":"松江西","town_kana":"マツエニシ","prefecture_code":30},"8425":{"zip_code":"6408425","prefecture":"和歌山県","prefecture_kana":"ワカヤマケン","city":"和歌山市","city_kana":"ワカヤマシ","town":"松江北","town_kana":"マツエキタ","prefecture_code":30},"8304":{"zip_code":"6408304","prefecture":"和歌山県","prefecture_kana":"ワカヤマケン","city":"和歌山市","city_kana":"ワカヤマシ","town":"松島","town_kana":"マツシマ","prefecture_code":30},"0342":{"zip_code":"6400342","prefecture":"和歌山県","prefecture_kana":"ワカヤマケン","city":"和歌山市","city_kana":"ワカヤマシ","town":"松原","town_kana":"マツバラ","prefecture_code":30},"8153":{"zip_code":"6408153","prefecture":"和歌山県","prefecture_kana":"ワカヤマケン","city":"和歌山市","city_kana":"ワカヤマシ","town":"三木町台所町","town_kana":"ミキマチダイドコロマチ","prefecture_code":30},"8106":{"zip_code":"6408106","prefecture":"和歌山県","prefecture_kana":"ワカヤマケン","city":"和歌山市","city_kana":"ワカヤマシ","town":"三木町中ノ丁","town_kana":"ミキマチナカノチョウ","prefecture_code":30},"8107":{"zip_code":"6408107","prefecture":"和歌山県","prefecture_kana":"ワカヤマケン","city":"和歌山市","city_kana":"ワカヤマシ","town":"三木町堀詰","town_kana":"ミキマチホリヅメ","prefecture_code":30},"8105":{"zip_code":"6408105","prefecture":"和歌山県","prefecture_kana":"ワカヤマケン","city":"和歌山市","city_kana":"ワカヤマシ","town":"三木町南ノ丁","town_kana":"ミキマチミナミノチョウ","prefecture_code":30},"8123":{"zip_code":"6408123","prefecture":"和歌山県","prefecture_kana":"ワカヤマケン","city":"和歌山市","city_kana":"ワカヤマシ","town":"三沢町","town_kana":"ミサワチョウ","prefecture_code":30},"8069":{"zip_code":"6408069","prefecture":"和歌山県","prefecture_kana":"ワカヤマケン","city":"和歌山市","city_kana":"ワカヤマシ","town":"三筋目","town_kana":"ミスジメ","prefecture_code":30},"8331":{"zip_code":"6408331","prefecture":"和歌山県","prefecture_kana":"ワカヤマケン","city":"和歌山市","city_kana":"ワカヤマシ","town":"美園町","town_kana":"ミソノチョウ","prefecture_code":30},"8404":{"zip_code":"6408404","prefecture":"和歌山県","prefecture_kana":"ワカヤマケン","city":"和歌山市","city_kana":"ワカヤマシ","town":"湊","town_kana":"ミナト","prefecture_code":30},"8264":{"zip_code":"6408264","prefecture":"和歌山県","prefecture_kana":"ワカヤマケン","city":"和歌山市","city_kana":"ワカヤマシ","town":"湊桶屋町","town_kana":"ミナトオケヤマチ","prefecture_code":30},"8223":{"zip_code":"6408223","prefecture":"和歌山県","prefecture_kana":"ワカヤマケン","city":"和歌山市","city_kana":"ワカヤマシ","town":"湊北町","town_kana":"ミナトキタマチ","prefecture_code":30},"8221":{"zip_code":"6408221","prefecture":"和歌山県","prefecture_kana":"ワカヤマケン","city":"和歌山市","city_kana":"ワカヤマシ","town":"湊紺屋町","town_kana":"ミナトコンヤマチ","prefecture_code":30},"8286":{"zip_code":"6408286","prefecture":"和歌山県","prefecture_kana":"ワカヤマケン","city":"和歌山市","city_kana":"ワカヤマシ","town":"湊御殿","town_kana":"ミナトゴテン","prefecture_code":30},"8281":{"zip_code":"6408281","prefecture":"和歌山県","prefecture_kana":"ワカヤマケン","city":"和歌山市","city_kana":"ワカヤマシ","town":"湊通丁南","town_kana":"ミナトトオリチョウミナミ","prefecture_code":30},"8262":{"zip_code":"6408262","prefecture":"和歌山県","prefecture_kana":"ワカヤマケン","city":"和歌山市","city_kana":"ワカヤマシ","town":"湊通丁北","town_kana":"ミナトトオリチョウキタ","prefecture_code":30},"8222":{"zip_code":"6408222","prefecture":"和歌山県","prefecture_kana":"ワカヤマケン","city":"和歌山市","city_kana":"ワカヤマシ","town":"湊本町","town_kana":"ミナトホンマチ","prefecture_code":30},"8275":{"zip_code":"6408275","prefecture":"和歌山県","prefecture_kana":"ワカヤマケン","city":"和歌山市","city_kana":"ワカヤマシ","town":"南相生丁","town_kana":"ミナミアイオイチョウ","prefecture_code":30},"8295":{"zip_code":"6408295","prefecture":"和歌山県","prefecture_kana":"ワカヤマケン","city":"和歌山市","city_kana":"ワカヤマシ","town":"南牛町","town_kana":"ミナミウシマチ","prefecture_code":30},"8029":{"zip_code":"6408029","prefecture":"和歌山県","prefecture_kana":"ワカヤマケン","city":"和歌山市","city_kana":"ワカヤマシ","town":"南桶屋町","town_kana":"ミナミオケヤマチ","prefecture_code":30},"8126":{"zip_code":"6408126","prefecture":"和歌山県","prefecture_kana":"ワカヤマケン","city":"和歌山市","city_kana":"ワカヤマシ","town":"南片原","town_kana":"ミナミカタハラ","prefecture_code":30},"8104":{"zip_code":"6408104","prefecture":"和歌山県","prefecture_kana":"ワカヤマケン","city":"和歌山市","city_kana":"ワカヤマシ","town":"南休賀町","town_kana":"ミナミキュウカマチ","prefecture_code":30},"8102":{"zip_code":"6408102","prefecture":"和歌山県","prefecture_kana":"ワカヤマケン","city":"和歌山市","city_kana":"ワカヤマシ","town":"南雑賀町","town_kana":"ミナミサイカマチ","prefecture_code":30},"8117":{"zip_code":"6408117","prefecture":"和歌山県","prefecture_kana":"ワカヤマケン","city":"和歌山市","city_kana":"ワカヤマシ","town":"南細工町","town_kana":"ミナミサイクマチ","prefecture_code":30},"8112":{"zip_code":"6408112","prefecture":"和歌山県","prefecture_kana":"ワカヤマケン","city":"和歌山市","city_kana":"ワカヤマシ","town":"南材木丁","town_kana":"ミナミザイモクチョウ","prefecture_code":30},"8292":{"zip_code":"6408292","prefecture":"和歌山県","prefecture_kana":"ワカヤマケン","city":"和歌山市","city_kana":"ワカヤマシ","town":"南甚五兵衛丁","town_kana":"ミナミジンゴベエチョウ","prefecture_code":30},"8254":{"zip_code":"6408254","prefecture":"和歌山県","prefecture_kana":"ワカヤマケン","city":"和歌山市","city_kana":"ワカヤマシ","town":"南田辺丁","town_kana":"ミナミタナベチョウ","prefecture_code":30},"8032":{"zip_code":"6408032","prefecture":"和歌山県","prefecture_kana":"ワカヤマケン","city":"和歌山市","city_kana":"ワカヤマシ","town":"南大工町","town_kana":"ミナミダイクマチ","prefecture_code":30},"8251":{"zip_code":"6408251","prefecture":"和歌山県","prefecture_kana":"ワカヤマケン","city":"和歌山市","city_kana":"ワカヤマシ","town":"南中間町","town_kana":"ミナミチュウゲンマチ","prefecture_code":30},"8318":{"zip_code":"6408318","prefecture":"和歌山県","prefecture_kana":"ワカヤマケン","city":"和歌山市","city_kana":"ワカヤマシ","town":"南出島","town_kana":"ミナミデジマ","prefecture_code":30},"0315":{"zip_code":"6400315","prefecture":"和歌山県","prefecture_kana":"ワカヤマケン","city":"和歌山市","city_kana":"ワカヤマシ","town":"南畑","town_kana":"ミナミバタ","prefecture_code":30},"8232":{"zip_code":"6408232","prefecture":"和歌山県","prefecture_kana":"ワカヤマケン","city":"和歌山市","city_kana":"ワカヤマシ","town":"南汀丁","town_kana":"ミナミミギワチョウ","prefecture_code":30},"0102":{"zip_code":"6400102","prefecture":"和歌山県","prefecture_kana":"ワカヤマケン","city":"和歌山市","city_kana":"ワカヤマシ","town":"深山","town_kana":"ミヤマ","prefecture_code":30},"0305":{"zip_code":"6400305","prefecture":"和歌山県","prefecture_kana":"ワカヤマケン","city":"和歌山市","city_kana":"ワカヤマシ","town":"明王寺","town_kana":"ミョウオウジ","prefecture_code":30},"8431":{"zip_code":"6408431","prefecture":"和歌山県","prefecture_kana":"ワカヤマケン","city":"和歌山市","city_kana":"ワカヤマシ","town":"向","town_kana":"ムカイ","prefecture_code":30},"8077":{"zip_code":"6408077","prefecture":"和歌山県","prefecture_kana":"ワカヤマケン","city":"和歌山市","city_kana":"ワカヤマシ","town":"六筋目","town_kana":"ムスジメ","prefecture_code":30},"8482":{"zip_code":"6408482","prefecture":"和歌山県","prefecture_kana":"ワカヤマケン","city":"和歌山市","city_kana":"ワカヤマシ","town":"六十谷","town_kana":"ムソタ","prefecture_code":30},"8024":{"zip_code":"6408024","prefecture":"和歌山県","prefecture_kana":"ワカヤマケン","city":"和歌山市","city_kana":"ワカヤマシ","town":"元寺町","town_kana":"モトデラマチ","prefecture_code":30},"8006":{"zip_code":"6408006","prefecture":"和歌山県","prefecture_kana":"ワカヤマケン","city":"和歌山市","city_kana":"ワカヤマシ","town":"元寺町東ノ丁","town_kana":"モトデラマチヒガシノチョウ","prefecture_code":30},"8007":{"zip_code":"6408007","prefecture":"和歌山県","prefecture_kana":"ワカヤマケン","city":"和歌山市","city_kana":"ワカヤマシ","town":"元寺町西ノ丁","town_kana":"モトデラマチニシノチョウ","prefecture_code":30},"8005":{"zip_code":"6408005","prefecture":"和歌山県","prefecture_kana":"ワカヤマケン","city":"和歌山市","city_kana":"ワカヤマシ","town":"元寺町南ノ丁","town_kana":"モトデラマチミナミノチョウ","prefecture_code":30},"8008":{"zip_code":"6408008","prefecture":"和歌山県","prefecture_kana":"ワカヤマケン","city":"和歌山市","city_kana":"ワカヤマシ","town":"元寺町北ノ丁","town_kana":"モトデラマチキタノチョウ","prefecture_code":30},"8216":{"zip_code":"6408216","prefecture":"和歌山県","prefecture_kana":"ワカヤマケン","city":"和歌山市","city_kana":"ワカヤマシ","town":"元博労町","town_kana":"モトバクロウマチ","prefecture_code":30},"8127":{"zip_code":"6408127","prefecture":"和歌山県","prefecture_kana":"ワカヤマケン","city":"和歌山市","city_kana":"ワカヤマシ","town":"元町奉行丁","town_kana":"モトマチブギョウチョウ","prefecture_code":30},"0113":{"zip_code":"6400113","prefecture":"和歌山県","prefecture_kana":"ワカヤマケン","city":"和歌山市","city_kana":"ワカヤマシ","town":"本脇","town_kana":"モトワキ","prefecture_code":30},"0324":{"zip_code":"6400324","prefecture":"和歌山県","prefecture_kana":"ワカヤマケン","city":"和歌山市","city_kana":"ワカヤマシ","town":"本渡","town_kana":"モトワタリ","prefecture_code":30},"8312":{"zip_code":"6408312","prefecture":"和歌山県","prefecture_kana":"ワカヤマケン","city":"和歌山市","city_kana":"ワカヤマシ","town":"森小手穂","town_kana":"モリオテボ","prefecture_code":30},"8151":{"zip_code":"6408151","prefecture":"和歌山県","prefecture_kana":"ワカヤマケン","city":"和歌山市","city_kana":"ワカヤマシ","town":"屋形町","town_kana":"ヤカタマチ","prefecture_code":30},"0321":{"zip_code":"6400321","prefecture":"和歌山県","prefecture_kana":"ワカヤマケン","city":"和歌山市","city_kana":"ワカヤマシ","town":"薬勝寺","town_kana":"ヤクショウジ","prefecture_code":30},"0307":{"zip_code":"6400307","prefecture":"和歌山県","prefecture_kana":"ワカヤマケン","city":"和歌山市","city_kana":"ワカヤマシ","town":"矢田","town_kana":"ヤタ","prefecture_code":30},"8336":{"zip_code":"6408336","prefecture":"和歌山県","prefecture_kana":"ワカヤマケン","city":"和歌山市","city_kana":"ワカヤマシ","town":"柳丁","town_kana":"ヤナギチョウ","prefecture_code":30},"8138":{"zip_code":"6408138","prefecture":"和歌山県","prefecture_kana":"ワカヤマケン","city":"和歌山市","city_kana":"ワカヤマシ","town":"薮ノ丁","town_kana":"ヤブノチョウ","prefecture_code":30},"8132":{"zip_code":"6408132","prefecture":"和歌山県","prefecture_kana":"ワカヤマケン","city":"和歌山市","city_kana":"ワカヤマシ","town":"山蔭丁","town_kana":"ヤマカゲチョウ","prefecture_code":30},"8065":{"zip_code":"6408065","prefecture":"和歌山県","prefecture_kana":"ワカヤマケン","city":"和歌山市","city_kana":"ワカヤマシ","town":"山吹丁","town_kana":"ヤマブキチョウ","prefecture_code":30},"0363":{"zip_code":"6400363","prefecture":"和歌山県","prefecture_kana":"ワカヤマケン","city":"和歌山市","city_kana":"ワカヤマシ","town":"吉里","town_kana":"ヨシザト","prefecture_code":30},"8343":{"zip_code":"6408343","prefecture":"和歌山県","prefecture_kana":"ワカヤマケン","city":"和歌山市","city_kana":"ワカヤマシ","town":"吉田","town_kana":"ヨシダ","prefecture_code":30},"0331":{"zip_code":"6400331","prefecture":"和歌山県","prefecture_kana":"ワカヤマケン","city":"和歌山市","city_kana":"ワカヤマシ","town":"吉原","town_kana":"ヨシハラ","prefecture_code":30},"8060":{"zip_code":"6408060","prefecture":"和歌山県","prefecture_kana":"ワカヤマケン","city":"和歌山市","city_kana":"ワカヤマシ","town":"四筋目","town_kana":"ヨスジメ","prefecture_code":30},"8214":{"zip_code":"6408214","prefecture":"和歌山県","prefecture_kana":"ワカヤマケン","city":"和歌山市","city_kana":"ワカヤマシ","town":"寄合町","town_kana":"ヨリアイマチ","prefecture_code":30},"8035":{"zip_code":"6408035","prefecture":"和歌山県","prefecture_kana":"ワカヤマケン","city":"和歌山市","city_kana":"ワカヤマシ","town":"万町","town_kana":"ヨロズマチ","prefecture_code":30},"8144":{"zip_code":"6408144","prefecture":"和歌山県","prefecture_kana":"ワカヤマケン","city":"和歌山市","city_kana":"ワカヤマシ","town":"四番丁","town_kana":"ヨンバンチョウ","prefecture_code":30},"8154":{"zip_code":"6408154","prefecture":"和歌山県","prefecture_kana":"ワカヤマケン","city":"和歌山市","city_kana":"ワカヤマシ","town":"六番丁","town_kana":"ロクバンチョウ","prefecture_code":30},"8119":{"zip_code":"6408119","prefecture":"和歌山県","prefecture_kana":"ワカヤマケン","city":"和歌山市","city_kana":"ワカヤマシ","town":"和歌町","town_kana":"ワカマチ","prefecture_code":30},"1163":{"zip_code":"6401163","prefecture":"和歌山県","prefecture_kana":"ワカヤマケン","city":"海南市","city_kana":"カイナンシ","town":"赤沼","town_kana":"アカヌマ","prefecture_code":30},"1164":{"zip_code":"6401164","prefecture":"和歌山県","prefecture_kana":"ワカヤマケン","city":"海南市","city_kana":"カイナンシ","town":"海老谷","town_kana":"エビタニ","prefecture_code":30},"1175":{"zip_code":"6401175","prefecture":"和歌山県","prefecture_kana":"ワカヤマケン","city":"海南市","city_kana":"カイナンシ","town":"沖野々","town_kana":"オキノノ","prefecture_code":30},"1162":{"zip_code":"6401162","prefecture":"和歌山県","prefecture_kana":"ワカヤマケン","city":"海南市","city_kana":"カイナンシ","town":"上谷","town_kana":"カミダニ","prefecture_code":30},"1174":{"zip_code":"6401174","prefecture":"和歌山県","prefecture_kana":"ワカヤマケン","city":"海南市","city_kana":"カイナンシ","town":"木津","town_kana":"キヅ","prefecture_code":30},"1167":{"zip_code":"6401167","prefecture":"和歌山県","prefecture_kana":"ワカヤマケン","city":"海南市","city_kana":"カイナンシ","town":"九品寺","town_kana":"クホンジ","prefecture_code":30},"0443":{"zip_code":"6400443","prefecture":"和歌山県","prefecture_kana":"ワカヤマケン","city":"海南市","city_kana":"カイナンシ","town":"下津野","town_kana":"シモツノ","prefecture_code":30},"0451":{"zip_code":"6400451","prefecture":"和歌山県","prefecture_kana":"ワカヤマケン","city":"海南市","city_kana":"カイナンシ","town":"高津","town_kana":"タカヅ","prefecture_code":30},"1166":{"zip_code":"6401166","prefecture":"和歌山県","prefecture_kana":"ワカヤマケン","city":"海南市","city_kana":"カイナンシ","town":"次ケ谷","town_kana":"ツゲダニ","prefecture_code":30},"0441":{"zip_code":"6400441","prefecture":"和歌山県","prefecture_kana":"ワカヤマケン","city":"海南市","city_kana":"カイナンシ","town":"七山","town_kana":"ナナヤマ","prefecture_code":30},"1161":{"zip_code":"6401161","prefecture":"和歌山県","prefecture_kana":"ワカヤマケン","city":"海南市","city_kana":"カイナンシ","town":"野上新","town_kana":"ノカミシン","prefecture_code":30},"1171":{"zip_code":"6401171","prefecture":"和歌山県","prefecture_kana":"ワカヤマケン","city":"海南市","city_kana":"カイナンシ","town":"野上中","town_kana":"ノカミナカ","prefecture_code":30},"0453":{"zip_code":"6400453","prefecture":"和歌山県","prefecture_kana":"ワカヤマケン","city":"海南市","city_kana":"カイナンシ","town":"野尻","town_kana":"ノジリ","prefecture_code":30},"0442":{"zip_code":"6400442","prefecture":"和歌山県","prefecture_kana":"ワカヤマケン","city":"海南市","city_kana":"カイナンシ","town":"原野","town_kana":"ハラノ","prefecture_code":30},"1165":{"zip_code":"6401165","prefecture":"和歌山県","prefecture_kana":"ワカヤマケン","city":"海南市","city_kana":"カイナンシ","town":"ひや水","town_kana":"ヒヤミズ","prefecture_code":30},"0454":{"zip_code":"6400454","prefecture":"和歌山県","prefecture_kana":"ワカヤマケン","city":"海南市","city_kana":"カイナンシ","town":"別院","town_kana":"ベツイン","prefecture_code":30},"1172":{"zip_code":"6401172","prefecture":"和歌山県","prefecture_kana":"ワカヤマケン","city":"海南市","city_kana":"カイナンシ","town":"溝ノ口","town_kana":"ミゾノクチ","prefecture_code":30},"1173":{"zip_code":"6401173","prefecture":"和歌山県","prefecture_kana":"ワカヤマケン","city":"海南市","city_kana":"カイナンシ","town":"椋木","town_kana":"ムクノキ","prefecture_code":30},"0452":{"zip_code":"6400452","prefecture":"和歌山県","prefecture_kana":"ワカヤマケン","city":"海南市","city_kana":"カイナンシ","town":"孟子","town_kana":"モウコ","prefecture_code":30},"0403":{"zip_code":"6400403","prefecture":"和歌山県","prefecture_kana":"ワカヤマケン","city":"紀の川市","city_kana":"キノカワシ","town":"貴志川町尼寺","town_kana":"キシガワチョウアマテラ","prefecture_code":30},"0424":{"zip_code":"6400424","prefecture":"和歌山県","prefecture_kana":"ワカヤマケン","city":"紀の川市","city_kana":"キノカワシ","town":"貴志川町井ノ口","town_kana":"キシガワチョウイノクチ","prefecture_code":30},"0412":{"zip_code":"6400412","prefecture":"和歌山県","prefecture_kana":"ワカヤマケン","city":"紀の川市","city_kana":"キノカワシ","town":"貴志川町上野山","town_kana":"キシガワチョウウエノヤマ","prefecture_code":30},"0422":{"zip_code":"6400422","prefecture":"和歌山県","prefecture_kana":"ワカヤマケン","city":"紀の川市","city_kana":"キノカワシ","town":"貴志川町岸小野","town_kana":"キシガワチョウキシオノ","prefecture_code":30},"0405":{"zip_code":"6400405","prefecture":"和歌山県","prefecture_kana":"ワカヤマケン","city":"紀の川市","city_kana":"キノカワシ","town":"貴志川町岸宮","town_kana":"キシガワチョウキシミヤ","prefecture_code":30},"0421":{"zip_code":"6400421","prefecture":"和歌山県","prefecture_kana":"ワカヤマケン","city":"紀の川市","city_kana":"キノカワシ","town":"貴志川町北","town_kana":"キシガワチョウキタ","prefecture_code":30},"0402":{"zip_code":"6400402","prefecture":"和歌山県","prefecture_kana":"ワカヤマケン","city":"紀の川市","city_kana":"キノカワシ","town":"貴志川町北山","town_kana":"キシガワチョウキタヤマ","prefecture_code":30},"0414":{"zip_code":"6400414","prefecture":"和歌山県","prefecture_kana":"ワカヤマケン","city":"紀の川市","city_kana":"キノカワシ","town":"貴志川町国主","town_kana":"キシガワチョウクニシ","prefecture_code":30},"0413":{"zip_code":"6400413","prefecture":"和歌山県","prefecture_kana":"ワカヤマケン","city":"紀の川市","city_kana":"キノカワシ","town":"貴志川町神戸","town_kana":"キシガワチョウコウド","prefecture_code":30},"0423":{"zip_code":"6400423","prefecture":"和歌山県","prefecture_kana":"ワカヤマケン","city":"紀の川市","city_kana":"キノカワシ","town":"貴志川町高尾","town_kana":"キシガワチョウタカオ","prefecture_code":30},"0404":{"zip_code":"6400404","prefecture":"和歌山県","prefecture_kana":"ワカヤマケン","city":"紀の川市","city_kana":"キノカワシ","town":"貴志川町鳥居","town_kana":"キシガワチョウトリイ","prefecture_code":30},"0415":{"zip_code":"6400415","prefecture":"和歌山県","prefecture_kana":"ワカヤマケン","city":"紀の川市","city_kana":"キノカワシ","town":"貴志川町長原","town_kana":"キシガワチョウナガハラ","prefecture_code":30},"0416":{"zip_code":"6400416","prefecture":"和歌山県","prefecture_kana":"ワカヤマケン","city":"紀の川市","city_kana":"キノカワシ","town":"貴志川町長山","town_kana":"キシガワチョウナガヤマ","prefecture_code":30},"0406":{"zip_code":"6400406","prefecture":"和歌山県","prefecture_kana":"ワカヤマケン","city":"紀の川市","city_kana":"キノカワシ","town":"貴志川町西山","town_kana":"キシガワチョウニシヤマ","prefecture_code":30},"0411":{"zip_code":"6400411","prefecture":"和歌山県","prefecture_kana":"ワカヤマケン","city":"紀の川市","city_kana":"キノカワシ","town":"貴志川町前田","town_kana":"キシガワチョウマエダ","prefecture_code":30},"0401":{"zip_code":"6400401","prefecture":"和歌山県","prefecture_kana":"ワカヤマケン","city":"紀の川市","city_kana":"キノカワシ","town":"貴志川町丸栖","town_kana":"キシガワチョウマルス","prefecture_code":30},"1333":{"zip_code":"6401333","prefecture":"和歌山県","prefecture_kana":"ワカヤマケン","city":"紀の川市","city_kana":"キノカワシ","town":"桃山町垣内","town_kana":"モモヤマチョウカイト","prefecture_code":30},"1332":{"zip_code":"6401332","prefecture":"和歌山県","prefecture_kana":"ワカヤマケン","city":"紀の川市","city_kana":"キノカワシ","town":"桃山町中畑","town_kana":"モモヤマチョウナカハタ","prefecture_code":30},"1331":{"zip_code":"6401331","prefecture":"和歌山県","prefecture_kana":"ワカヤマケン","city":"紀の川市","city_kana":"キノカワシ","town":"桃山町峯","town_kana":"モモヤマチョウミネ","prefecture_code":30},"1100":{"zip_code":"6401100","prefecture":"和歌山県","prefecture_kana":"ワカヤマケン","city":"海草郡紀美野町","city_kana":"カイソウグンキミノチョウ","town":"以下に掲載がない場合","town_kana":"イカニケイサイガナイバアイ","prefecture_code":30},"1213":{"zip_code":"6401213","prefecture":"和歌山県","prefecture_kana":"ワカヤマケン","city":"海草郡紀美野町","city_kana":"カイソウグンキミノチョウ","town":"赤木","town_kana":"アカギ","prefecture_code":30},"1231":{"zip_code":"6401231","prefecture":"和歌山県","prefecture_kana":"ワカヤマケン","city":"海草郡紀美野町","city_kana":"カイソウグンキミノチョウ","town":"上ケ井","town_kana":"アゲイ","prefecture_code":30},"1207":{"zip_code":"6401207","prefecture":"和歌山県","prefecture_kana":"ワカヤマケン","city":"海草郡紀美野町","city_kana":"カイソウグンキミノチョウ","town":"井堰","town_kana":"イセキ","prefecture_code":30},"1365":{"zip_code":"6401365","prefecture":"和歌山県","prefecture_kana":"ワカヤマケン","city":"海草郡紀美野町","city_kana":"カイソウグンキミノチョウ","town":"今西","town_kana":"イマニシ","prefecture_code":30},"1202":{"zip_code":"6401202","prefecture":"和歌山県","prefecture_kana":"ワカヤマケン","city":"海草郡紀美野町","city_kana":"カイソウグンキミノチョウ","town":"初生谷","town_kana":"ウイタニ","prefecture_code":30},"1113":{"zip_code":"6401113","prefecture":"和歌山県","prefecture_kana":"ワカヤマケン","city":"海草郡紀美野町","city_kana":"カイソウグンキミノチョウ","town":"梅本","town_kana":"ウメモト","prefecture_code":30},"1353":{"zip_code":"6401353","prefecture":"和歌山県","prefecture_kana":"ワカヤマケン","city":"海草郡紀美野町","city_kana":"カイソウグンキミノチョウ","town":"円明寺","town_kana":"エンミョウジ","prefecture_code":30},"1222":{"zip_code":"6401222","prefecture":"和歌山県","prefecture_kana":"ワカヤマケン","city":"海草郡紀美野町","city_kana":"カイソウグンキミノチョウ","town":"大角","town_kana":"オオスミ","prefecture_code":30},"1115":{"zip_code":"6401115","prefecture":"和歌山県","prefecture_kana":"ワカヤマケン","city":"海草郡紀美野町","city_kana":"カイソウグンキミノチョウ","town":"奥佐々","town_kana":"オクササ","prefecture_code":30},"1351":{"zip_code":"6401351","prefecture":"和歌山県","prefecture_kana":"ワカヤマケン","city":"海草郡紀美野町","city_kana":"カイソウグンキミノチョウ","town":"勝谷","town_kana":"カチヤ","prefecture_code":30},"1211":{"zip_code":"6401211","prefecture":"和歌山県","prefecture_kana":"ワカヤマケン","city":"海草郡紀美野町","city_kana":"カイソウグンキミノチョウ","town":"桂瀬","town_kana":"カツラセ","prefecture_code":30},"1255":{"zip_code":"6401255","prefecture":"和歌山県","prefecture_kana":"ワカヤマケン","city":"海草郡紀美野町","city_kana":"カイソウグンキミノチョウ","town":"釜滝","town_kana":"カマタキ","prefecture_code":30},"1215":{"zip_code":"6401215","prefecture":"和歌山県","prefecture_kana":"ワカヤマケン","city":"海草郡紀美野町","city_kana":"カイソウグンキミノチョウ","town":"鎌滝","town_kana":"カマタキ","prefecture_code":30},"1201":{"zip_code":"6401201","prefecture":"和歌山県","prefecture_kana":"ワカヤマケン","city":"海草郡紀美野町","city_kana":"カイソウグンキミノチョウ","town":"北野","town_kana":"キタノ","prefecture_code":30},"1251":{"zip_code":"6401251","prefecture":"和歌山県","prefecture_kana":"ワカヤマケン","city":"海草郡紀美野町","city_kana":"カイソウグンキミノチョウ","town":"国木原","town_kana":"クニギハラ","prefecture_code":30},"1472":{"zip_code":"6401472","prefecture":"和歌山県","prefecture_kana":"ワカヤマケン","city":"海草郡紀美野町","city_kana":"カイソウグンキミノチョウ","town":"毛原上","town_kana":"ケバラカミ","prefecture_code":30},"1476":{"zip_code":"6401476","prefecture":"和歌山県","prefecture_kana":"ワカヤマケン","city":"海草郡紀美野町","city_kana":"カイソウグンキミノチョウ","town":"毛原下","town_kana":"ケバラシモ","prefecture_code":30},"1474":{"zip_code":"6401474","prefecture":"和歌山県","prefecture_kana":"ワカヤマケン","city":"海草郡紀美野町","city_kana":"カイソウグンキミノチョウ","town":"毛原中","town_kana":"ケバラナカ","prefecture_code":30},"1473":{"zip_code":"6401473","prefecture":"和歌山県","prefecture_kana":"ワカヤマケン","city":"海草郡紀美野町","city_kana":"カイソウグンキミノチョウ","town":"毛原宮","town_kana":"ケバラミヤ","prefecture_code":30},"1243":{"zip_code":"6401243","prefecture":"和歌山県","prefecture_kana":"ワカヤマケン","city":"海草郡紀美野町","city_kana":"カイソウグンキミノチョウ","town":"神野市場","town_kana":"コウノイチバ","prefecture_code":30},"1475":{"zip_code":"6401475","prefecture":"和歌山県","prefecture_kana":"ワカヤマケン","city":"海草郡紀美野町","city_kana":"カイソウグンキミノチョウ","town":"小西","town_kana":"コニシ","prefecture_code":30},"1112":{"zip_code":"6401112","prefecture":"和歌山県","prefecture_kana":"ワカヤマケン","city":"海草郡紀美野町","city_kana":"カイソウグンキミノチョウ","town":"坂本","town_kana":"サカモト","prefecture_code":30},"1102":{"zip_code":"6401102","prefecture":"和歌山県","prefecture_kana":"ワカヤマケン","city":"海草郡紀美野町","city_kana":"カイソウグンキミノチョウ","town":"柴目","town_kana":"シバメ","prefecture_code":30},"1121":{"zip_code":"6401121","prefecture":"和歌山県","prefecture_kana":"ワカヤマケン","city":"海草郡紀美野町","city_kana":"カイソウグンキミノチョウ","town":"下佐々","town_kana":"シモササ","prefecture_code":30},"1141":{"zip_code":"6401141","prefecture":"和歌山県","prefecture_kana":"ワカヤマケン","city":"海草郡紀美野町","city_kana":"カイソウグンキミノチョウ","town":"小畑","town_kana":"ショウバタ","prefecture_code":30},"1364":{"zip_code":"6401364","prefecture":"和歌山県","prefecture_kana":"ワカヤマケン","city":"海草郡紀美野町","city_kana":"カイソウグンキミノチョウ","town":"菅沢","town_kana":"スゲザワ","prefecture_code":30},"1363":{"zip_code":"6401363","prefecture":"和歌山県","prefecture_kana":"ワカヤマケン","city":"海草郡紀美野町","city_kana":"カイソウグンキミノチョウ","town":"田","town_kana":"タ","prefecture_code":30},"1212":{"zip_code":"6401212","prefecture":"和歌山県","prefecture_kana":"ワカヤマケン","city":"海草郡紀美野町","city_kana":"カイソウグンキミノチョウ","town":"高畑","town_kana":"タカハタ","prefecture_code":30},"1362":{"zip_code":"6401362","prefecture":"和歌山県","prefecture_kana":"ワカヤマケン","city":"海草郡紀美野町","city_kana":"カイソウグンキミノチョウ","town":"滝ノ川","town_kana":"タキノガワ","prefecture_code":30},"1352":{"zip_code":"6401352","prefecture":"和歌山県","prefecture_kana":"ワカヤマケン","city":"海草郡紀美野町","city_kana":"カイソウグンキミノチョウ","town":"谷","town_kana":"タニ","prefecture_code":30},"1223":{"zip_code":"6401223","prefecture":"和歌山県","prefecture_kana":"ワカヤマケン","city":"海草郡紀美野町","city_kana":"カイソウグンキミノチョウ","town":"津川","town_kana":"ツガワ","prefecture_code":30},"1131":{"zip_code":"6401131","prefecture":"和歌山県","prefecture_kana":"ワカヤマケン","city":"海草郡紀美野町","city_kana":"カイソウグンキミノチョウ","town":"動木","town_kana":"トドロキ","prefecture_code":30},"1361":{"zip_code":"6401361","prefecture":"和歌山県","prefecture_kana":"ワカヤマケン","city":"海草郡紀美野町","city_kana":"カイソウグンキミノチョウ","town":"中","town_kana":"ナカ","prefecture_code":30},"1114":{"zip_code":"6401114","prefecture":"和歌山県","prefecture_kana":"ワカヤマケン","city":"海草郡紀美野町","city_kana":"カイソウグンキミノチョウ","town":"中田","town_kana":"ナカダ","prefecture_code":30},"1101":{"zip_code":"6401101","prefecture":"和歌山県","prefecture_kana":"ワカヤマケン","city":"海草郡紀美野町","city_kana":"カイソウグンキミノチョウ","town":"長谷","town_kana":"ナガタニ","prefecture_code":30},"1241":{"zip_code":"6401241","prefecture":"和歌山県","prefecture_kana":"ワカヤマケン","city":"海草郡紀美野町","city_kana":"カイソウグンキミノチョウ","town":"永谷","town_kana":"ナガタニ","prefecture_code":30},"1252":{"zip_code":"6401252","prefecture":"和歌山県","prefecture_kana":"ワカヤマケン","city":"海草郡紀美野町","city_kana":"カイソウグンキミノチョウ","town":"西野","town_kana":"ニシノ","prefecture_code":30},"1235":{"zip_code":"6401235","prefecture":"和歌山県","prefecture_kana":"ワカヤマケン","city":"海草郡紀美野町","city_kana":"カイソウグンキミノチョウ","town":"野中","town_kana":"ノナカ","prefecture_code":30},"1471":{"zip_code":"6401471","prefecture":"和歌山県","prefecture_kana":"ワカヤマケン","city":"海草郡紀美野町","city_kana":"カイソウグンキミノチョウ","town":"長谷宮","town_kana":"ハセミヤ","prefecture_code":30},"1203":{"zip_code":"6401203","prefecture":"和歌山県","prefecture_kana":"ワカヤマケン","city":"海草郡紀美野町","city_kana":"カイソウグンキミノチョウ","town":"花野原","town_kana":"ハナノハラ","prefecture_code":30},"1253":{"zip_code":"6401253","prefecture":"和歌山県","prefecture_kana":"ワカヤマケン","city":"海草郡紀美野町","city_kana":"カイソウグンキミノチョウ","town":"東野","town_kana":"ヒガシノ","prefecture_code":30},"1242":{"zip_code":"6401242","prefecture":"和歌山県","prefecture_kana":"ワカヤマケン","city":"海草郡紀美野町","city_kana":"カイソウグンキミノチョウ","town":"樋下","town_kana":"ヒノシタ","prefecture_code":30},"1111":{"zip_code":"6401111","prefecture":"和歌山県","prefecture_kana":"ワカヤマケン","city":"海草郡紀美野町","city_kana":"カイソウグンキミノチョウ","town":"福井","town_kana":"フクイ","prefecture_code":30},"1244":{"zip_code":"6401244","prefecture":"和歌山県","prefecture_kana":"ワカヤマケン","city":"海草郡紀美野町","city_kana":"カイソウグンキミノチョウ","town":"福田","town_kana":"フクダ","prefecture_code":30},"1205":{"zip_code":"6401205","prefecture":"和歌山県","prefecture_kana":"ワカヤマケン","city":"海草郡紀美野町","city_kana":"カイソウグンキミノチョウ","town":"真国宮","town_kana":"マクニミヤ","prefecture_code":30},"1366":{"zip_code":"6401366","prefecture":"和歌山県","prefecture_kana":"ワカヤマケン","city":"海草郡紀美野町","city_kana":"カイソウグンキミノチョウ","town":"松ケ峰","town_kana":"マツガミネ","prefecture_code":30},"1254":{"zip_code":"6401254","prefecture":"和歌山県","prefecture_kana":"ワカヤマケン","city":"海草郡紀美野町","city_kana":"カイソウグンキミノチョウ","town":"松瀬","town_kana":"マツセ","prefecture_code":30},"1221":{"zip_code":"6401221","prefecture":"和歌山県","prefecture_kana":"ワカヤマケン","city":"海草郡紀美野町","city_kana":"カイソウグンキミノチョウ","town":"三尾川","town_kana":"ミオガワ","prefecture_code":30},"1233":{"zip_code":"6401233","prefecture":"和歌山県","prefecture_kana":"ワカヤマケン","city":"海草郡紀美野町","city_kana":"カイソウグンキミノチョウ","town":"南畑","town_kana":"ミナミバタ","prefecture_code":30},"1206":{"zip_code":"6401206","prefecture":"和歌山県","prefecture_kana":"ワカヤマケン","city":"海草郡紀美野町","city_kana":"カイソウグンキミノチョウ","town":"蓑垣内","town_kana":"ミノガイト","prefecture_code":30},"1204":{"zip_code":"6401204","prefecture":"和歌山県","prefecture_kana":"ワカヤマケン","city":"海草郡紀美野町","city_kana":"カイソウグンキミノチョウ","town":"蓑津呂","town_kana":"ミノツロ","prefecture_code":30},"1214":{"zip_code":"6401214","prefecture":"和歌山県","prefecture_kana":"ワカヤマケン","city":"海草郡紀美野町","city_kana":"カイソウグンキミノチョウ","town":"明添","town_kana":"ミョウゾエ","prefecture_code":30},"1232":{"zip_code":"6401232","prefecture":"和歌山県","prefecture_kana":"ワカヤマケン","city":"海草郡紀美野町","city_kana":"カイソウグンキミノチョウ","town":"箕六","town_kana":"ミロク","prefecture_code":30},"1234":{"zip_code":"6401234","prefecture":"和歌山県","prefecture_kana":"ワカヤマケン","city":"海草郡紀美野町","city_kana":"カイソウグンキミノチョウ","town":"安井","town_kana":"ヤスイ","prefecture_code":30},"1354":{"zip_code":"6401354","prefecture":"和歌山県","prefecture_kana":"ワカヤマケン","city":"海草郡紀美野町","city_kana":"カイソウグンキミノチョウ","town":"四郷","town_kana":"ヨゴウ","prefecture_code":30},"1103":{"zip_code":"6401103","prefecture":"和歌山県","prefecture_kana":"ワカヤマケン","city":"海草郡紀美野町","city_kana":"カイソウグンキミノチョウ","town":"吉野","town_kana":"ヨシノ","prefecture_code":30},"1481":{"zip_code":"6401481","prefecture":"和歌山県","prefecture_kana":"ワカヤマケン","city":"伊都郡かつらぎ町","city_kana":"イトグンカツラギチョウ","town":"新城","town_kana":"シンジョウ","prefecture_code":30}}