{"0056":{"zip_code":"6410056","prefecture":"和歌山県","prefecture_kana":"ワカヤマケン","city":"和歌山市","city_kana":"ワカヤマシ","town":"秋葉町","town_kana":"アキバチョウ","prefecture_code":30},"0044":{"zip_code":"6410044","prefecture":"和歌山県","prefecture_kana":"ワカヤマケン","city":"和歌山市","city_kana":"ワカヤマシ","town":"今福","town_kana":"イマブク","prefecture_code":30},"0043":{"zip_code":"6410043","prefecture":"和歌山県","prefecture_kana":"ワカヤマケン","city":"和歌山市","city_kana":"ワカヤマシ","town":"宇須","town_kana":"ウズ","prefecture_code":30},"0053":{"zip_code":"6410053","prefecture":"和歌山県","prefecture_kana":"ワカヤマケン","city":"和歌山市","city_kana":"ワカヤマシ","town":"打越町","town_kana":"ウチコシチョウ","prefecture_code":30},"0013":{"zip_code":"6410013","prefecture":"和歌山県","prefecture_kana":"ワカヤマケン","city":"和歌山市","city_kana":"ワカヤマシ","town":"内原","town_kana":"ウチハラ","prefecture_code":30},"0008":{"zip_code":"6410008","prefecture":"和歌山県","prefecture_kana":"ワカヤマケン","city":"和歌山市","city_kana":"ワカヤマシ","town":"北中島","town_kana":"キタナカジマ","prefecture_code":30},"0012":{"zip_code":"6410012","prefecture":"和歌山県","prefecture_kana":"ワカヤマケン","city":"和歌山市","city_kana":"ワカヤマシ","town":"紀三井寺","town_kana":"キミイデラ","prefecture_code":30},"0001":{"zip_code":"6410001","prefecture":"和歌山県","prefecture_kana":"ワカヤマケン","city":"和歌山市","city_kana":"ワカヤマシ","town":"杭ノ瀬","town_kana":"クイノセ","prefecture_code":30},"0014":{"zip_code":"6410014","prefecture":"和歌山県","prefecture_kana":"ワカヤマケン","city":"和歌山市","city_kana":"ワカヤマシ","town":"毛見","town_kana":"ケミ","prefecture_code":30},"0007":{"zip_code":"6410007","prefecture":"和歌山県","prefecture_kana":"ワカヤマケン","city":"和歌山市","city_kana":"ワカヤマシ","town":"小雑賀","town_kana":"コザイカ","prefecture_code":30},"0062":{"zip_code":"6410062","prefecture":"和歌山県","prefecture_kana":"ワカヤマケン","city":"和歌山市","city_kana":"ワカヤマシ","town":"雑賀崎","town_kana":"サイカザキ","prefecture_code":30},"0003":{"zip_code":"6410003","prefecture":"和歌山県","prefecture_kana":"ワカヤマケン","city":"和歌山市","city_kana":"ワカヤマシ","town":"坂田","town_kana":"サカダ","prefecture_code":30},"0054":{"zip_code":"6410054","prefecture":"和歌山県","prefecture_kana":"ワカヤマケン","city":"和歌山市","city_kana":"ワカヤマシ","town":"塩屋","town_kana":"シオヤ","prefecture_code":30},"0002":{"zip_code":"6410002","prefecture":"和歌山県","prefecture_kana":"ワカヤマケン","city":"和歌山市","city_kana":"ワカヤマシ","town":"新中島","town_kana":"シンナカジマ","prefecture_code":30},"0042":{"zip_code":"6410042","prefecture":"和歌山県","prefecture_kana":"ワカヤマケン","city":"和歌山市","city_kana":"ワカヤマシ","town":"新堀東","town_kana":"シンボリヒガシ","prefecture_code":30},"0023":{"zip_code":"6410023","prefecture":"和歌山県","prefecture_kana":"ワカヤマケン","city":"和歌山市","city_kana":"ワカヤマシ","town":"新和歌浦","town_kana":"シンワカウラ","prefecture_code":30},"0035":{"zip_code":"6410035","prefecture":"和歌山県","prefecture_kana":"ワカヤマケン","city":"和歌山市","city_kana":"ワカヤマシ","town":"関戸","town_kana":"セキド","prefecture_code":30},"0005":{"zip_code":"6410005","prefecture":"和歌山県","prefecture_kana":"ワカヤマケン","city":"和歌山市","city_kana":"ワカヤマシ","town":"田尻","town_kana":"タジリ","prefecture_code":30},"0061":{"zip_code":"6410061","prefecture":"和歌山県","prefecture_kana":"ワカヤマケン","city":"和歌山市","city_kana":"ワカヤマシ","town":"田野","town_kana":"タノ","prefecture_code":30},"0006":{"zip_code":"6410006","prefecture":"和歌山県","prefecture_kana":"ワカヤマケン","city":"和歌山市","city_kana":"ワカヤマシ","town":"中島","town_kana":"ナカジマ","prefecture_code":30},"0034":{"zip_code":"6410034","prefecture":"和歌山県","prefecture_kana":"ワカヤマケン","city":"和歌山市","city_kana":"ワカヤマシ","town":"新高町","town_kana":"ニイタカチョウ","prefecture_code":30},"0031":{"zip_code":"6410031","prefecture":"和歌山県","prefecture_kana":"ワカヤマケン","city":"和歌山市","city_kana":"ワカヤマシ","town":"西小二里","town_kana":"ニシコニリ","prefecture_code":30},"0051":{"zip_code":"6410051","prefecture":"和歌山県","prefecture_kana":"ワカヤマケン","city":"和歌山市","city_kana":"ワカヤマシ","town":"西高松","town_kana":"ニシタカマツ","prefecture_code":30},"0036":{"zip_code":"6410036","prefecture":"和歌山県","prefecture_kana":"ワカヤマケン","city":"和歌山市","city_kana":"ワカヤマシ","town":"西浜","town_kana":"ニシハマ","prefecture_code":30},"0015":{"zip_code":"6410015","prefecture":"和歌山県","prefecture_kana":"ワカヤマケン","city":"和歌山市","city_kana":"ワカヤマシ","town":"布引","town_kana":"ヌノヒキ","prefecture_code":30},"0032":{"zip_code":"6410032","prefecture":"和歌山県","prefecture_kana":"ワカヤマケン","city":"和歌山市","city_kana":"ワカヤマシ","town":"東小二里町","town_kana":"ヒガシコニリチョウ","prefecture_code":30},"0052":{"zip_code":"6410052","prefecture":"和歌山県","prefecture_kana":"ワカヤマケン","city":"和歌山市","city_kana":"ワカヤマシ","town":"東高松","town_kana":"ヒガシタカマツ","prefecture_code":30},"0041":{"zip_code":"6410041","prefecture":"和歌山県","prefecture_kana":"ワカヤマケン","city":"和歌山市","city_kana":"ワカヤマシ","town":"堀止南ノ丁","town_kana":"ホリドメミナミノチョウ","prefecture_code":30},"0045":{"zip_code":"6410045","prefecture":"和歌山県","prefecture_kana":"ワカヤマケン","city":"和歌山市","city_kana":"ワカヤマシ","town":"堀止西","town_kana":"ホリドメニシ","prefecture_code":30},"0033":{"zip_code":"6410033","prefecture":"和歌山県","prefecture_kana":"ワカヤマケン","city":"和歌山市","city_kana":"ワカヤマシ","town":"松ケ丘","town_kana":"マツガオカ","prefecture_code":30},"0011":{"zip_code":"6410011","prefecture":"和歌山県","prefecture_kana":"ワカヤマケン","city":"和歌山市","city_kana":"ワカヤマシ","town":"三葛","town_kana":"ミカズラ","prefecture_code":30},"0025":{"zip_code":"6410025","prefecture":"和歌山県","prefecture_kana":"ワカヤマケン","city":"和歌山市","city_kana":"ワカヤマシ","town":"和歌浦中","town_kana":"ワカウラナカ","prefecture_code":30},"0021":{"zip_code":"6410021","prefecture":"和歌山県","prefecture_kana":"ワカヤマケン","city":"和歌山市","city_kana":"ワカヤマシ","town":"和歌浦東","town_kana":"ワカウラヒガシ","prefecture_code":30},"0024":{"zip_code":"6410024","prefecture":"和歌山県","prefecture_kana":"ワカヤマケン","city":"和歌山市","city_kana":"ワカヤマシ","town":"和歌浦西","town_kana":"ワカウラニシ","prefecture_code":30},"0022":{"zip_code":"6410022","prefecture":"和歌山県","prefecture_kana":"ワカヤマケン","city":"和歌山市","city_kana":"ワカヤマシ","town":"和歌浦南","town_kana":"ワカウラミナミ","prefecture_code":30},"0055":{"zip_code":"6410055","prefecture":"和歌山県","prefecture_kana":"ワカヤマケン","city":"和歌山市","city_kana":"ワカヤマシ","town":"和歌川町","town_kana":"ワカガワチョウ","prefecture_code":30},"0004":{"zip_code":"6410004","prefecture":"和歌山県","prefecture_kana":"ワカヤマケン","city":"和歌山市","city_kana":"ワカヤマシ","town":"和田","town_kana":"ワダ","prefecture_code":30}}