{"0614":{"zip_code":"6430614","prefecture":"和歌山県","prefecture_kana":"ワカヤマケン","city":"伊都郡かつらぎ町","city_kana":"イトグンカツラギチョウ","town":"花園新子","town_kana":"ハナゾノアタラシ","prefecture_code":30},"0613":{"zip_code":"6430613","prefecture":"和歌山県","prefecture_kana":"ワカヤマケン","city":"伊都郡かつらぎ町","city_kana":"イトグンカツラギチョウ","town":"花園池ノ窪","town_kana":"ハナゾノイケノクボ","prefecture_code":30},"0612":{"zip_code":"6430612","prefecture":"和歌山県","prefecture_kana":"ワカヤマケン","city":"伊都郡かつらぎ町","city_kana":"イトグンカツラギチョウ","town":"花園北寺","town_kana":"ハナゾノキタデラ","prefecture_code":30},"0611":{"zip_code":"6430611","prefecture":"和歌山県","prefecture_kana":"ワカヤマケン","city":"伊都郡かつらぎ町","city_kana":"イトグンカツラギチョウ","town":"花園梁瀬","town_kana":"ハナゾノヤナセ","prefecture_code":30},"0000":{"zip_code":"6430000","prefecture":"和歌山県","prefecture_kana":"ワカヤマケン","city":"有田郡有田川町","city_kana":"アリダグンアリダガワチョウ","town":"","town_kana":"","prefecture_code":30},"0002":{"zip_code":"6430002","prefecture":"和歌山県","prefecture_kana":"ワカヤマケン","city":"有田郡湯浅町","city_kana":"アリダグンユアサチョウ","town":"青木","town_kana":"アオキ","prefecture_code":30},"0005":{"zip_code":"6430005","prefecture":"和歌山県","prefecture_kana":"ワカヤマケン","city":"有田郡湯浅町","city_kana":"アリダグンユアサチョウ","town":"栖原","town_kana":"スハラ","prefecture_code":30},"0006":{"zip_code":"6430006","prefecture":"和歌山県","prefecture_kana":"ワカヤマケン","city":"有田郡湯浅町","city_kana":"アリダグンユアサチョウ","town":"田","town_kana":"タ","prefecture_code":30},"0003":{"zip_code":"6430003","prefecture":"和歌山県","prefecture_kana":"ワカヤマケン","city":"有田郡湯浅町","city_kana":"アリダグンユアサチョウ","town":"別所","town_kana":"ベッシヨ","prefecture_code":30},"0001":{"zip_code":"6430001","prefecture":"和歌山県","prefecture_kana":"ワカヤマケン","city":"有田郡湯浅町","city_kana":"アリダグンユアサチョウ","town":"山田","town_kana":"ヤマダ","prefecture_code":30},"0004":{"zip_code":"6430004","prefecture":"和歌山県","prefecture_kana":"ワカヤマケン","city":"有田郡湯浅町","city_kana":"アリダグンユアサチョウ","town":"湯浅","town_kana":"ユアサ","prefecture_code":30},"0007":{"zip_code":"6430007","prefecture":"和歌山県","prefecture_kana":"ワカヤマケン","city":"有田郡湯浅町","city_kana":"アリダグンユアサチョウ","town":"吉川","town_kana":"ヨシカワ","prefecture_code":30},"0055":{"zip_code":"6430055","prefecture":"和歌山県","prefecture_kana":"ワカヤマケン","city":"有田郡広川町","city_kana":"アリダグンヒロガワチョウ","town":"井関","town_kana":"イセキ","prefecture_code":30},"0052":{"zip_code":"6430052","prefecture":"和歌山県","prefecture_kana":"ワカヤマケン","city":"有田郡広川町","city_kana":"アリダグンヒロガワチョウ","town":"上津木","town_kana":"カミツギ","prefecture_code":30},"0064":{"zip_code":"6430064","prefecture":"和歌山県","prefecture_kana":"ワカヤマケン","city":"有田郡広川町","city_kana":"アリダグンヒロガワチョウ","town":"上中野","town_kana":"カミナカノ","prefecture_code":30},"0073":{"zip_code":"6430073","prefecture":"和歌山県","prefecture_kana":"ワカヤマケン","city":"有田郡広川町","city_kana":"アリダグンヒロガワチョウ","town":"唐尾","town_kana":"カロ","prefecture_code":30},"0053":{"zip_code":"6430053","prefecture":"和歌山県","prefecture_kana":"ワカヤマケン","city":"有田郡広川町","city_kana":"アリダグンヒロガワチョウ","town":"河瀬","town_kana":"ゴノセ","prefecture_code":30},"0051":{"zip_code":"6430051","prefecture":"和歌山県","prefecture_kana":"ワカヤマケン","city":"有田郡広川町","city_kana":"アリダグンヒロガワチョウ","town":"下津木","town_kana":"シモツギ","prefecture_code":30},"0062":{"zip_code":"6430062","prefecture":"和歌山県","prefecture_kana":"ワカヤマケン","city":"有田郡広川町","city_kana":"アリダグンヒロガワチョウ","town":"殿","town_kana":"トノ","prefecture_code":30},"0066":{"zip_code":"6430066","prefecture":"和歌山県","prefecture_kana":"ワカヤマケン","city":"有田郡広川町","city_kana":"アリダグンヒロガワチョウ","town":"名島","town_kana":"ナシマ","prefecture_code":30},"0074":{"zip_code":"6430074","prefecture":"和歌山県","prefecture_kana":"ワカヤマケン","city":"有田郡広川町","city_kana":"アリダグンヒロガワチョウ","town":"西広","town_kana":"ニシヒロ","prefecture_code":30},"0065":{"zip_code":"6430065","prefecture":"和歌山県","prefecture_kana":"ワカヤマケン","city":"有田郡広川町","city_kana":"アリダグンヒロガワチョウ","town":"東中","town_kana":"ヒガシナカ","prefecture_code":30},"0071":{"zip_code":"6430071","prefecture":"和歌山県","prefecture_kana":"ワカヤマケン","city":"有田郡広川町","city_kana":"アリダグンヒロガワチョウ","town":"広","town_kana":"ヒロ","prefecture_code":30},"0054":{"zip_code":"6430054","prefecture":"和歌山県","prefecture_kana":"ワカヤマケン","city":"有田郡広川町","city_kana":"アリダグンヒロガワチョウ","town":"前田","town_kana":"マエダ","prefecture_code":30},"0063":{"zip_code":"6430063","prefecture":"和歌山県","prefecture_kana":"ワカヤマケン","city":"有田郡広川町","city_kana":"アリダグンヒロガワチョウ","town":"南金屋","town_kana":"ミナミカナヤ","prefecture_code":30},"0061":{"zip_code":"6430061","prefecture":"和歌山県","prefecture_kana":"ワカヤマケン","city":"有田郡広川町","city_kana":"アリダグンヒロガワチョウ","town":"柳瀬","town_kana":"ヤナセ","prefecture_code":30},"0072":{"zip_code":"6430072","prefecture":"和歌山県","prefecture_kana":"ワカヤマケン","city":"有田郡広川町","city_kana":"アリダグンヒロガワチョウ","town":"山本","town_kana":"ヤマモト","prefecture_code":30},"0075":{"zip_code":"6430075","prefecture":"和歌山県","prefecture_kana":"ワカヤマケン","city":"有田郡広川町","city_kana":"アリダグンヒロガワチョウ","town":"和田","town_kana":"ワダ","prefecture_code":30},"0366":{"zip_code":"6430366","prefecture":"和歌山県","prefecture_kana":"ワカヤマケン","city":"有田郡有田川町","city_kana":"アリダグンアリダガワチョウ","town":"粟生","town_kana":"アオ","prefecture_code":30},"0136":{"zip_code":"6430136","prefecture":"和歌山県","prefecture_kana":"ワカヤマケン","city":"有田郡有田川町","city_kana":"アリダグンアリダガワチョウ","town":"青田","town_kana":"アオタ","prefecture_code":30},"0129":{"zip_code":"6430129","prefecture":"和歌山県","prefecture_kana":"ワカヤマケン","city":"有田郡有田川町","city_kana":"アリダグンアリダガワチョウ","town":"畦田","town_kana":"アゼタ","prefecture_code":30},"0127":{"zip_code":"6430127","prefecture":"和歌山県","prefecture_kana":"ワカヤマケン","city":"有田郡有田川町","city_kana":"アリダグンアリダガワチョウ","town":"有原","town_kana":"アリハラ","prefecture_code":30},"0603":{"zip_code":"6430603","prefecture":"和歌山県","prefecture_kana":"ワカヤマケン","city":"有田郡有田川町","city_kana":"アリダグンアリダガワチョウ","town":"板尾","town_kana":"イタオ","prefecture_code":30},"0604":{"zip_code":"6430604","prefecture":"和歌山県","prefecture_kana":"ワカヤマケン","city":"有田郡有田川町","city_kana":"アリダグンアリダガワチョウ","town":"井谷","town_kana":"イダニ","prefecture_code":30},"0144":{"zip_code":"6430144","prefecture":"和歌山県","prefecture_kana":"ワカヤマケン","city":"有田郡有田川町","city_kana":"アリダグンアリダガワチョウ","town":"市場","town_kana":"イチバ","prefecture_code":30},"0851":{"zip_code":"6430851","prefecture":"和歌山県","prefecture_kana":"ワカヤマケン","city":"有田郡有田川町","city_kana":"アリダグンアリダガワチョウ","town":"出","town_kana":"イデ","prefecture_code":30},"0165":{"zip_code":"6430165","prefecture":"和歌山県","prefecture_kana":"ワカヤマケン","city":"有田郡有田川町","city_kana":"アリダグンアリダガワチョウ","town":"糸川","town_kana":"イトガワ","prefecture_code":30},"0174":{"zip_code":"6430174","prefecture":"和歌山県","prefecture_kana":"ワカヤマケン","city":"有田郡有田川町","city_kana":"アリダグンアリダガワチョウ","town":"糸野","town_kana":"イトノ","prefecture_code":30},"0844":{"zip_code":"6430844","prefecture":"和歌山県","prefecture_kana":"ワカヤマケン","city":"有田郡有田川町","city_kana":"アリダグンアリダガワチョウ","town":"井口","town_kana":"イノクチ","prefecture_code":30},"0312":{"zip_code":"6430312","prefecture":"和歌山県","prefecture_kana":"ワカヤマケン","city":"有田郡有田川町","city_kana":"アリダグンアリダガワチョウ","town":"岩野河","town_kana":"イワノガワ","prefecture_code":30},"0164":{"zip_code":"6430164","prefecture":"和歌山県","prefecture_kana":"ワカヤマケン","city":"有田郡有田川町","city_kana":"アリダグンアリダガワチョウ","town":"宇井苔","town_kana":"ウイゴケ","prefecture_code":30},"0026":{"zip_code":"6430026","prefecture":"和歌山県","prefecture_kana":"ワカヤマケン","city":"有田郡有田川町","city_kana":"アリダグンアリダガワチョウ","town":"植野","town_kana":"ウエノ","prefecture_code":30},"0131":{"zip_code":"6430131","prefecture":"和歌山県","prefecture_kana":"ワカヤマケン","city":"有田郡有田川町","city_kana":"アリダグンアリダガワチョウ","town":"生石","town_kana":"オイシ","prefecture_code":30},"0847":{"zip_code":"6430847","prefecture":"和歌山県","prefecture_kana":"ワカヤマケン","city":"有田郡有田川町","city_kana":"アリダグンアリダガワチョウ","town":"大賀畑","town_kana":"オオカハタ","prefecture_code":30},"0513":{"zip_code":"6430513","prefecture":"和歌山県","prefecture_kana":"ワカヤマケン","city":"有田郡有田川町","city_kana":"アリダグンアリダガワチョウ","town":"大蔵","town_kana":"オオゾウ","prefecture_code":30},"0134":{"zip_code":"6430134","prefecture":"和歌山県","prefecture_kana":"ワカヤマケン","city":"有田郡有田川町","city_kana":"アリダグンアリダガワチョウ","town":"大薗","town_kana":"オオソノ","prefecture_code":30},"0845":{"zip_code":"6430845","prefecture":"和歌山県","prefecture_kana":"ワカヤマケン","city":"有田郡有田川町","city_kana":"アリダグンアリダガワチョウ","town":"大谷","town_kana":"オオタニ","prefecture_code":30},"0135":{"zip_code":"6430135","prefecture":"和歌山県","prefecture_kana":"ワカヤマケン","city":"有田郡有田川町","city_kana":"アリダグンアリダガワチョウ","town":"大西","town_kana":"オオニシ","prefecture_code":30},"0142":{"zip_code":"6430142","prefecture":"和歌山県","prefecture_kana":"ワカヤマケン","city":"有田郡有田川町","city_kana":"アリダグンアリダガワチョウ","town":"小川","town_kana":"オガワ","prefecture_code":30},"0022":{"zip_code":"6430022","prefecture":"和歌山県","prefecture_kana":"ワカヤマケン","city":"有田郡有田川町","city_kana":"アリダグンアリダガワチョウ","town":"奥","town_kana":"オキ","prefecture_code":30},"0601":{"zip_code":"6430601","prefecture":"和歌山県","prefecture_kana":"ワカヤマケン","city":"有田郡有田川町","city_kana":"アリダグンアリダガワチョウ","town":"押手","town_kana":"オシテ","prefecture_code":30},"0034":{"zip_code":"6430034","prefecture":"和歌山県","prefecture_kana":"ワカヤマケン","city":"有田郡有田川町","city_kana":"アリダグンアリダガワチョウ","town":"小島","town_kana":"オシマ","prefecture_code":30},"0852":{"zip_code":"6430852","prefecture":"和歌山県","prefecture_kana":"ワカヤマケン","city":"有田郡有田川町","city_kana":"アリダグンアリダガワチョウ","town":"尾中","town_kana":"オナカ","prefecture_code":30},"0133":{"zip_code":"6430133","prefecture":"和歌山県","prefecture_kana":"ワカヤマケン","city":"有田郡有田川町","city_kana":"アリダグンアリダガワチョウ","town":"尾上","town_kana":"オノウエ","prefecture_code":30},"0132":{"zip_code":"6430132","prefecture":"和歌山県","prefecture_kana":"ワカヤマケン","city":"有田郡有田川町","city_kana":"アリダグンアリダガワチョウ","town":"小原","town_kana":"オハラ","prefecture_code":30},"0812":{"zip_code":"6430812","prefecture":"和歌山県","prefecture_kana":"ワカヤマケン","city":"有田郡有田川町","city_kana":"アリダグンアリダガワチョウ","town":"垣倉","town_kana":"カイグラ","prefecture_code":30},"0843":{"zip_code":"6430843","prefecture":"和歌山県","prefecture_kana":"ワカヤマケン","city":"有田郡有田川町","city_kana":"アリダグンアリダガワチョウ","town":"賢","town_kana":"カシコ","prefecture_code":30},"0152":{"zip_code":"6430152","prefecture":"和歌山県","prefecture_kana":"ワカヤマケン","city":"有田郡有田川町","city_kana":"アリダグンアリダガワチョウ","town":"金屋","town_kana":"カナヤ","prefecture_code":30},"0176":{"zip_code":"6430176","prefecture":"和歌山県","prefecture_kana":"ワカヤマケン","city":"有田郡有田川町","city_kana":"アリダグンアリダガワチョウ","town":"釜中","town_kana":"カマナカ","prefecture_code":30},"0855":{"zip_code":"6430855","prefecture":"和歌山県","prefecture_kana":"ワカヤマケン","city":"有田郡有田川町","city_kana":"アリダグンアリダガワチョウ","town":"上中島","town_kana":"カミナカシマ","prefecture_code":30},"0171":{"zip_code":"6430171","prefecture":"和歌山県","prefecture_kana":"ワカヤマケン","city":"有田郡有田川町","city_kana":"アリダグンアリダガワチョウ","town":"上六川","town_kana":"カミムツガワ","prefecture_code":30},"0551":{"zip_code":"6430551","prefecture":"和歌山県","prefecture_kana":"ワカヤマケン","city":"有田郡有田川町","city_kana":"アリダグンアリダガワチョウ","town":"上湯川","town_kana":"カミユカワ","prefecture_code":30},"0364":{"zip_code":"6430364","prefecture":"和歌山県","prefecture_kana":"ワカヤマケン","city":"有田郡有田川町","city_kana":"アリダグンアリダガワチョウ","town":"川合","town_kana":"カワイ","prefecture_code":30},"0313":{"zip_code":"6430313","prefecture":"和歌山県","prefecture_kana":"ワカヤマケン","city":"有田郡有田川町","city_kana":"アリダグンアリダガワチョウ","town":"川口","town_kana":"カワグチ","prefecture_code":30},"0161":{"zip_code":"6430161","prefecture":"和歌山県","prefecture_kana":"ワカヤマケン","city":"有田郡有田川町","city_kana":"アリダグンアリダガワチョウ","town":"歓喜寺","town_kana":"カンギジ","prefecture_code":30},"0362":{"zip_code":"6430362","prefecture":"和歌山県","prefecture_kana":"ワカヤマケン","city":"有田郡有田川町","city_kana":"アリダグンアリダガワチョウ","town":"北野川","town_kana":"キタノカワ","prefecture_code":30},"0531":{"zip_code":"6430531","prefecture":"和歌山県","prefecture_kana":"ワカヤマケン","city":"有田郡有田川町","city_kana":"アリダグンアリダガワチョウ","town":"楠本","town_kana":"クスモト","prefecture_code":30},"0514":{"zip_code":"6430514","prefecture":"和歌山県","prefecture_kana":"ワカヤマケン","city":"有田郡有田川町","city_kana":"アリダグンアリダガワチョウ","town":"久野原","town_kana":"クノハラ","prefecture_code":30},"0023":{"zip_code":"6430023","prefecture":"和歌山県","prefecture_kana":"ワカヤマケン","city":"有田郡有田川町","city_kana":"アリダグンアリダガワチョウ","town":"熊井","town_kana":"クマイ","prefecture_code":30},"0172":{"zip_code":"6430172","prefecture":"和歌山県","prefecture_kana":"ワカヤマケン","city":"有田郡有田川町","city_kana":"アリダグンアリダガワチョウ","town":"黒松","town_kana":"クロマツ","prefecture_code":30},"0544":{"zip_code":"6430544","prefecture":"和歌山県","prefecture_kana":"ワカヤマケン","city":"有田郡有田川町","city_kana":"アリダグンアリダガワチョウ","town":"境川","town_kana":"サカイガワ","prefecture_code":30},"0521":{"zip_code":"6430521","prefecture":"和歌山県","prefecture_kana":"ワカヤマケン","city":"有田郡有田川町","city_kana":"アリダグンアリダガワチョウ","town":"清水","town_kana":"シミズ","prefecture_code":30},"0021":{"zip_code":"6430021","prefecture":"和歌山県","prefecture_kana":"ワカヤマケン","city":"有田郡有田川町","city_kana":"アリダグンアリダガワチョウ","town":"下津野","town_kana":"シモツノ","prefecture_code":30},"0173":{"zip_code":"6430173","prefecture":"和歌山県","prefecture_kana":"ワカヤマケン","city":"有田郡有田川町","city_kana":"アリダグンアリダガワチョウ","town":"下六川","town_kana":"シモムツガワ","prefecture_code":30},"0522":{"zip_code":"6430522","prefecture":"和歌山県","prefecture_kana":"ワカヤマケン","city":"有田郡有田川町","city_kana":"アリダグンアリダガワチョウ","town":"下湯川","town_kana":"シモユカワ","prefecture_code":30},"0811":{"zip_code":"6430811","prefecture":"和歌山県","prefecture_kana":"ワカヤマケン","city":"有田郡有田川町","city_kana":"アリダグンアリダガワチョウ","town":"庄","town_kana":"ショウ","prefecture_code":30},"0602":{"zip_code":"6430602","prefecture":"和歌山県","prefecture_kana":"ワカヤマケン","city":"有田郡有田川町","city_kana":"アリダグンアリダガワチョウ","town":"杉野原","town_kana":"スギノハラ","prefecture_code":30},"0853":{"zip_code":"6430853","prefecture":"和歌山県","prefecture_kana":"ワカヤマケン","city":"有田郡有田川町","city_kana":"アリダグンアリダガワチョウ","town":"角","town_kana":"スミ","prefecture_code":30},"0163":{"zip_code":"6430163","prefecture":"和歌山県","prefecture_kana":"ワカヤマケン","city":"有田郡有田川町","city_kana":"アリダグンアリダガワチョウ","town":"修理川","town_kana":"スリガワ","prefecture_code":30},"0122":{"zip_code":"6430122","prefecture":"和歌山県","prefecture_kana":"ワカヤマケン","city":"有田郡有田川町","city_kana":"アリダグンアリダガワチョウ","town":"瀬井","town_kana":"セイ","prefecture_code":30},"0846":{"zip_code":"6430846","prefecture":"和歌山県","prefecture_kana":"ワカヤマケン","city":"有田郡有田川町","city_kana":"アリダグンアリダガワチョウ","town":"田口","town_kana":"タグチ","prefecture_code":30},"0848":{"zip_code":"6430848","prefecture":"和歌山県","prefecture_kana":"ワカヤマケン","city":"有田郡有田川町","city_kana":"アリダグンアリダガワチョウ","town":"田角","town_kana":"タズミ","prefecture_code":30},"0314":{"zip_code":"6430314","prefecture":"和歌山県","prefecture_kana":"ワカヤマケン","city":"有田郡有田川町","city_kana":"アリダグンアリダガワチョウ","town":"立石","town_kana":"タテイシ","prefecture_code":30},"0311":{"zip_code":"6430311","prefecture":"和歌山県","prefecture_kana":"ワカヤマケン","city":"有田郡有田川町","city_kana":"アリダグンアリダガワチョウ","town":"谷","town_kana":"タニ","prefecture_code":30},"0032":{"zip_code":"6430032","prefecture":"和歌山県","prefecture_kana":"ワカヤマケン","city":"有田郡有田川町","city_kana":"アリダグンアリダガワチョウ","town":"天満","town_kana":"テンマ","prefecture_code":30},"0533":{"zip_code":"6430533","prefecture":"和歌山県","prefecture_kana":"ワカヤマケン","city":"有田郡有田川町","city_kana":"アリダグンアリダガワチョウ","town":"遠井","town_kana":"トイ","prefecture_code":30},"0801":{"zip_code":"6430801","prefecture":"和歌山県","prefecture_kana":"ワカヤマケン","city":"有田郡有田川町","city_kana":"アリダグンアリダガワチョウ","town":"徳田","town_kana":"トクダ","prefecture_code":30},"0123":{"zip_code":"6430123","prefecture":"和歌山県","prefecture_kana":"ワカヤマケン","city":"有田郡有田川町","city_kana":"アリダグンアリダガワチョウ","town":"中","town_kana":"ナカ","prefecture_code":30},"0153":{"zip_code":"6430153","prefecture":"和歌山県","prefecture_kana":"ワカヤマケン","city":"有田郡有田川町","city_kana":"アリダグンアリダガワチョウ","town":"中井原","town_kana":"ナカイバラ","prefecture_code":30},"0854":{"zip_code":"6430854","prefecture":"和歌山県","prefecture_kana":"ワカヤマケン","city":"有田郡有田川町","city_kana":"アリダグンアリダガワチョウ","town":"長田","town_kana":"ナガタ","prefecture_code":30},"0841":{"zip_code":"6430841","prefecture":"和歌山県","prefecture_kana":"ワカヤマケン","city":"有田郡有田川町","city_kana":"アリダグンアリダガワチョウ","town":"長谷","town_kana":"ナガタニ","prefecture_code":30},"0143":{"zip_code":"6430143","prefecture":"和歌山県","prefecture_kana":"ワカヤマケン","city":"有田郡有田川町","city_kana":"アリダグンアリダガワチョウ","town":"中野","town_kana":"ナカノ","prefecture_code":30},"0365":{"zip_code":"6430365","prefecture":"和歌山県","prefecture_kana":"ワカヤマケン","city":"有田郡有田川町","city_kana":"アリダグンアリダガワチョウ","town":"中原","town_kana":"ナカハラ","prefecture_code":30},"0124":{"zip_code":"6430124","prefecture":"和歌山県","prefecture_kana":"ワカヤマケン","city":"有田郡有田川町","city_kana":"アリダグンアリダガワチョウ","town":"中峯","town_kana":"ナカミネ","prefecture_code":30},"0175":{"zip_code":"6430175","prefecture":"和歌山県","prefecture_kana":"ワカヤマケン","city":"有田郡有田川町","city_kana":"アリダグンアリダガワチョウ","town":"丹生","town_kana":"ニウ","prefecture_code":30},"0363":{"zip_code":"6430363","prefecture":"和歌山県","prefecture_kana":"ワカヤマケン","city":"有田郡有田川町","city_kana":"アリダグンアリダガワチョウ","town":"二沢","town_kana":"ニサワ","prefecture_code":30},"0128":{"zip_code":"6430128","prefecture":"和歌山県","prefecture_kana":"ワカヤマケン","city":"有田郡有田川町","city_kana":"アリダグンアリダガワチョウ","town":"西ケ峯","town_kana":"ニシガミネ","prefecture_code":30},"0813":{"zip_code":"6430813","prefecture":"和歌山県","prefecture_kana":"ワカヤマケン","city":"有田郡有田川町","city_kana":"アリダグンアリダガワチョウ","town":"西丹生図","town_kana":"ニシニュウノズ","prefecture_code":30},"0125":{"zip_code":"6430125","prefecture":"和歌山県","prefecture_kana":"ワカヤマケン","city":"有田郡有田川町","city_kana":"アリダグンアリダガワチョウ","town":"沼田","town_kana":"ヌタダ","prefecture_code":30},"0532":{"zip_code":"6430532","prefecture":"和歌山県","prefecture_kana":"ワカヤマケン","city":"有田郡有田川町","city_kana":"アリダグンアリダガワチョウ","town":"沼","town_kana":"ヌマ","prefecture_code":30},"0605":{"zip_code":"6430605","prefecture":"和歌山県","prefecture_kana":"ワカヤマケン","city":"有田郡有田川町","city_kana":"アリダグンアリダガワチョウ","town":"沼谷","town_kana":"ヌマタニ","prefecture_code":30},"0031":{"zip_code":"6430031","prefecture":"和歌山県","prefecture_kana":"ワカヤマケン","city":"有田郡有田川町","city_kana":"アリダグンアリダガワチョウ","town":"野田","town_kana":"ノダ","prefecture_code":30},"0137":{"zip_code":"6430137","prefecture":"和歌山県","prefecture_kana":"ワカヤマケン","city":"有田郡有田川町","city_kana":"アリダグンアリダガワチョウ","town":"延坂","town_kana":"ノブサカ","prefecture_code":30},"0151":{"zip_code":"6430151","prefecture":"和歌山県","prefecture_kana":"ワカヤマケン","city":"有田郡有田川町","city_kana":"アリダグンアリダガワチョウ","town":"長谷川","town_kana":"ハセガワ","prefecture_code":30},"0025":{"zip_code":"6430025","prefecture":"和歌山県","prefecture_kana":"ワカヤマケン","city":"有田郡有田川町","city_kana":"アリダグンアリダガワチョウ","town":"土生","town_kana":"ハブ","prefecture_code":30},"0541":{"zip_code":"6430541","prefecture":"和歌山県","prefecture_kana":"ワカヤマケン","city":"有田郡有田川町","city_kana":"アリダグンアリダガワチョウ","town":"東大谷","town_kana":"ヒガシオオダニ","prefecture_code":30},"0803":{"zip_code":"6430803","prefecture":"和歌山県","prefecture_kana":"ワカヤマケン","city":"有田郡有田川町","city_kana":"アリダグンアリダガワチョウ","town":"東丹生図","town_kana":"ヒガシニュウノズ","prefecture_code":30},"0121":{"zip_code":"6430121","prefecture":"和歌山県","prefecture_kana":"ワカヤマケン","city":"有田郡有田川町","city_kana":"アリダグンアリダガワチョウ","town":"彦ケ瀬","town_kana":"ヒコガセ","prefecture_code":30},"0543":{"zip_code":"6430543","prefecture":"和歌山県","prefecture_kana":"ワカヤマケン","city":"有田郡有田川町","city_kana":"アリダグンアリダガワチョウ","town":"日物川","town_kana":"ヒモノガワ","prefecture_code":30},"0542":{"zip_code":"6430542","prefecture":"和歌山県","prefecture_kana":"ワカヤマケン","city":"有田郡有田川町","city_kana":"アリダグンアリダガワチョウ","town":"二川","town_kana":"フタガワ","prefecture_code":30},"0842":{"zip_code":"6430842","prefecture":"和歌山県","prefecture_kana":"ワカヤマケン","city":"有田郡有田川町","city_kana":"アリダグンアリダガワチョウ","town":"船坂","town_kana":"フナサカ","prefecture_code":30},"0141":{"zip_code":"6430141","prefecture":"和歌山県","prefecture_kana":"ワカヤマケン","city":"有田郡有田川町","city_kana":"アリダグンアリダガワチョウ","town":"伏羊","town_kana":"ブヨウ","prefecture_code":30},"0126":{"zip_code":"6430126","prefecture":"和歌山県","prefecture_kana":"ワカヤマケン","city":"有田郡有田川町","city_kana":"アリダグンアリダガワチョウ","town":"本堂","town_kana":"ホンドウ","prefecture_code":30},"0162":{"zip_code":"6430162","prefecture":"和歌山県","prefecture_kana":"ワカヤマケン","city":"有田郡有田川町","city_kana":"アリダグンアリダガワチョウ","town":"松原","town_kana":"マツバラ","prefecture_code":30},"0024":{"zip_code":"6430024","prefecture":"和歌山県","prefecture_kana":"ワカヤマケン","city":"有田郡有田川町","city_kana":"アリダグンアリダガワチョウ","town":"水尻","town_kana":"ミズシリ","prefecture_code":30},"0361":{"zip_code":"6430361","prefecture":"和歌山県","prefecture_kana":"ワカヤマケン","city":"有田郡有田川町","city_kana":"アリダグンアリダガワチョウ","town":"三瀬川","town_kana":"ミセガワ","prefecture_code":30},"0511":{"zip_code":"6430511","prefecture":"和歌山県","prefecture_kana":"ワカヤマケン","city":"有田郡有田川町","city_kana":"アリダグンアリダガワチョウ","town":"三田","town_kana":"ミタ","prefecture_code":30},"0512":{"zip_code":"6430512","prefecture":"和歌山県","prefecture_kana":"ワカヤマケン","city":"有田郡有田川町","city_kana":"アリダグンアリダガワチョウ","town":"宮川","town_kana":"ミヤガワ","prefecture_code":30},"0033":{"zip_code":"6430033","prefecture":"和歌山県","prefecture_kana":"ワカヤマケン","city":"有田郡有田川町","city_kana":"アリダグンアリダガワチョウ","town":"明王寺","town_kana":"ミョウジ","prefecture_code":30},"0515":{"zip_code":"6430515","prefecture":"和歌山県","prefecture_kana":"ワカヤマケン","city":"有田郡有田川町","city_kana":"アリダグンアリダガワチョウ","town":"室川","town_kana":"ムロガワ","prefecture_code":30},"0166":{"zip_code":"6430166","prefecture":"和歌山県","prefecture_kana":"ワカヤマケン","city":"有田郡有田川町","city_kana":"アリダグンアリダガワチョウ","town":"吉原","town_kana":"ヨシハラ","prefecture_code":30},"0802":{"zip_code":"6430802","prefecture":"和歌山県","prefecture_kana":"ワカヤマケン","city":"有田郡有田川町","city_kana":"アリダグンアリダガワチョウ","town":"吉見","town_kana":"ヨシミ","prefecture_code":30}}