{"0303":{"zip_code":"6450303","prefecture":"和歌山県","prefecture_kana":"ワカヤマケン","city":"田辺市","city_kana":"タナベシ","town":"龍神村小家","town_kana":"リュウジンムラオイエ","prefecture_code":30},"0302":{"zip_code":"6450302","prefecture":"和歌山県","prefecture_kana":"ワカヤマケン","city":"田辺市","city_kana":"タナベシ","town":"龍神村甲斐ノ川","town_kana":"リュウジンムラカイノガワ","prefecture_code":30},"0521":{"zip_code":"6450521","prefecture":"和歌山県","prefecture_kana":"ワカヤマケン","city":"田辺市","city_kana":"タナベシ","town":"龍神村小又川","town_kana":"リュウジンムラコマタガワ","prefecture_code":30},"0413":{"zip_code":"6450413","prefecture":"和歌山県","prefecture_kana":"ワカヤマケン","city":"田辺市","city_kana":"タナベシ","town":"龍神村殿原","town_kana":"リュウジンムラトノハラ","prefecture_code":30},"0415":{"zip_code":"6450415","prefecture":"和歌山県","prefecture_kana":"ワカヤマケン","city":"田辺市","city_kana":"タナベシ","town":"龍神村西","town_kana":"リュウジンムラニシ","prefecture_code":30},"0412":{"zip_code":"6450412","prefecture":"和歌山県","prefecture_kana":"ワカヤマケン","city":"田辺市","city_kana":"タナベシ","town":"龍神村丹生ノ川","town_kana":"リュウジンムラニュウノガワ","prefecture_code":30},"0414":{"zip_code":"6450414","prefecture":"和歌山県","prefecture_kana":"ワカヤマケン","city":"田辺市","city_kana":"タナベシ","town":"龍神村東","town_kana":"リュウジンムラヒガシ","prefecture_code":30},"0523":{"zip_code":"6450523","prefecture":"和歌山県","prefecture_kana":"ワカヤマケン","city":"田辺市","city_kana":"タナベシ","town":"龍神村広井原","town_kana":"リュウジンムラヒロイハラ","prefecture_code":30},"0301":{"zip_code":"6450301","prefecture":"和歌山県","prefecture_kana":"ワカヤマケン","city":"田辺市","city_kana":"タナベシ","town":"龍神村福井","town_kana":"リュウジンムラフクイ","prefecture_code":30},"0522":{"zip_code":"6450522","prefecture":"和歌山県","prefecture_kana":"ワカヤマケン","city":"田辺市","city_kana":"タナベシ","town":"龍神村三ツ又","town_kana":"リュウジンムラミツマタ","prefecture_code":30},"0411":{"zip_code":"6450411","prefecture":"和歌山県","prefecture_kana":"ワカヤマケン","city":"田辺市","city_kana":"タナベシ","town":"龍神村宮代","town_kana":"リュウジンムラミヤシロ","prefecture_code":30},"0416":{"zip_code":"6450416","prefecture":"和歌山県","prefecture_kana":"ワカヤマケン","city":"田辺市","city_kana":"タナベシ","town":"龍神村安井","town_kana":"リュウジンムラヤスイ","prefecture_code":30},"0417":{"zip_code":"6450417","prefecture":"和歌山県","prefecture_kana":"ワカヤマケン","city":"田辺市","city_kana":"タナベシ","town":"龍神村柳瀬","town_kana":"リュウジンムラヤナセ","prefecture_code":30},"0524":{"zip_code":"6450524","prefecture":"和歌山県","prefecture_kana":"ワカヤマケン","city":"田辺市","city_kana":"タナベシ","town":"龍神村湯ノ又","town_kana":"リュウジンムラユノマタ","prefecture_code":30},"0525":{"zip_code":"6450525","prefecture":"和歌山県","prefecture_kana":"ワカヤマケン","city":"田辺市","city_kana":"タナベシ","town":"龍神村龍神","town_kana":"リュウジンムラリュウジン","prefecture_code":30},"0000":{"zip_code":"6450000","prefecture":"和歌山県","prefecture_kana":"ワカヤマケン","city":"日高郡みなべ町","city_kana":"ヒダカグンミナベチョウ","town":"","town_kana":"","prefecture_code":30},"0208":{"zip_code":"6450208","prefecture":"和歌山県","prefecture_kana":"ワカヤマケン","city":"日高郡みなべ町","city_kana":"ヒダカグンミナベチョウ","town":"市井川","town_kana":"イチイガワ","prefecture_code":30},"0022":{"zip_code":"6450022","prefecture":"和歌山県","prefecture_kana":"ワカヤマケン","city":"日高郡みなべ町","city_kana":"ヒダカグンミナベチョウ","town":"晩稲","town_kana":"オシネ","prefecture_code":30},"0011":{"zip_code":"6450011","prefecture":"和歌山県","prefecture_kana":"ワカヤマケン","city":"日高郡みなべ町","city_kana":"ヒダカグンミナベチョウ","town":"気佐藤","town_kana":"キサト","prefecture_code":30},"0006":{"zip_code":"6450006","prefecture":"和歌山県","prefecture_kana":"ワカヤマケン","city":"日高郡みなべ町","city_kana":"ヒダカグンミナベチョウ","town":"北道","town_kana":"キタドウ","prefecture_code":30},"0201":{"zip_code":"6450201","prefecture":"和歌山県","prefecture_kana":"ワカヤマケン","city":"日高郡みなべ町","city_kana":"ヒダカグンミナベチョウ","town":"清川","town_kana":"キヨカワ","prefecture_code":30},"0023":{"zip_code":"6450023","prefecture":"和歌山県","prefecture_kana":"ワカヤマケン","city":"日高郡みなべ町","city_kana":"ヒダカグンミナベチョウ","town":"熊岡","town_kana":"クマオカ","prefecture_code":30},"0028":{"zip_code":"6450028","prefecture":"和歌山県","prefecture_kana":"ワカヤマケン","city":"日高郡みなべ町","city_kana":"ヒダカグンミナベチョウ","town":"熊瀬川","town_kana":"クマセガワ","prefecture_code":30},"0003":{"zip_code":"6450003","prefecture":"和歌山県","prefecture_kana":"ワカヤマケン","city":"日高郡みなべ町","city_kana":"ヒダカグンミナベチョウ","town":"堺","town_kana":"サカイ","prefecture_code":30},"0002":{"zip_code":"6450002","prefecture":"和歌山県","prefecture_kana":"ワカヤマケン","city":"日高郡みなべ町","city_kana":"ヒダカグンミナベチョウ","town":"芝","town_kana":"シバ","prefecture_code":30},"0203":{"zip_code":"6450203","prefecture":"和歌山県","prefecture_kana":"ワカヤマケン","city":"日高郡みなべ町","city_kana":"ヒダカグンミナベチョウ","town":"島之瀬","town_kana":"シマノセ","prefecture_code":30},"0025":{"zip_code":"6450025","prefecture":"和歌山県","prefecture_kana":"ワカヤマケン","city":"日高郡みなべ町","city_kana":"ヒダカグンミナベチョウ","town":"筋","town_kana":"スジ","prefecture_code":30},"0207":{"zip_code":"6450207","prefecture":"和歌山県","prefecture_kana":"ワカヤマケン","city":"日高郡みなべ町","city_kana":"ヒダカグンミナベチョウ","town":"高野","town_kana":"タカノ","prefecture_code":30},"0205":{"zip_code":"6450205","prefecture":"和歌山県","prefecture_kana":"ワカヤマケン","city":"日高郡みなべ町","city_kana":"ヒダカグンミナベチョウ","town":"滝","town_kana":"タキ","prefecture_code":30},"0026":{"zip_code":"6450026","prefecture":"和歌山県","prefecture_kana":"ワカヤマケン","city":"日高郡みなべ町","city_kana":"ヒダカグンミナベチョウ","town":"谷口","town_kana":"タニグチ","prefecture_code":30},"0206":{"zip_code":"6450206","prefecture":"和歌山県","prefecture_kana":"ワカヤマケン","city":"日高郡みなべ町","city_kana":"ヒダカグンミナベチョウ","town":"土井","town_kana":"ドイ","prefecture_code":30},"0024":{"zip_code":"6450024","prefecture":"和歌山県","prefecture_kana":"ワカヤマケン","city":"日高郡みなべ町","city_kana":"ヒダカグンミナベチョウ","town":"徳蔵","town_kana":"トクゾウ","prefecture_code":30},"0014":{"zip_code":"6450014","prefecture":"和歌山県","prefecture_kana":"ワカヤマケン","city":"日高郡みなべ町","city_kana":"ヒダカグンミナベチョウ","town":"西岩代","town_kana":"ニシイワシロ","prefecture_code":30},"0027":{"zip_code":"6450027","prefecture":"和歌山県","prefecture_kana":"ワカヤマケン","city":"日高郡みなべ町","city_kana":"ヒダカグンミナベチョウ","town":"西本庄","town_kana":"ニシホンジョウ","prefecture_code":30},"0004":{"zip_code":"6450004","prefecture":"和歌山県","prefecture_kana":"ワカヤマケン","city":"日高郡みなべ町","city_kana":"ヒダカグンミナベチョウ","town":"埴田","town_kana":"ハネタ","prefecture_code":30},"0013":{"zip_code":"6450013","prefecture":"和歌山県","prefecture_kana":"ワカヤマケン","city":"日高郡みなべ町","city_kana":"ヒダカグンミナベチョウ","town":"東岩代","town_kana":"ヒガシイワシロ","prefecture_code":30},"0202":{"zip_code":"6450202","prefecture":"和歌山県","prefecture_kana":"ワカヤマケン","city":"日高郡みなべ町","city_kana":"ヒダカグンミナベチョウ","town":"東神野川","town_kana":"ヒガシコウノガワ","prefecture_code":30},"0021":{"zip_code":"6450021","prefecture":"和歌山県","prefecture_kana":"ワカヤマケン","city":"日高郡みなべ町","city_kana":"ヒダカグンミナベチョウ","town":"東本庄","town_kana":"ヒガシホンジョウ","prefecture_code":30},"0001":{"zip_code":"6450001","prefecture":"和歌山県","prefecture_kana":"ワカヤマケン","city":"日高郡みなべ町","city_kana":"ヒダカグンミナベチョウ","town":"東吉田","town_kana":"ヒガシヨシダ","prefecture_code":30},"0204":{"zip_code":"6450204","prefecture":"和歌山県","prefecture_kana":"ワカヤマケン","city":"日高郡みなべ町","city_kana":"ヒダカグンミナベチョウ","town":"広野","town_kana":"ヒロノ","prefecture_code":30},"0005":{"zip_code":"6450005","prefecture":"和歌山県","prefecture_kana":"ワカヤマケン","city":"日高郡みなべ町","city_kana":"ヒダカグンミナベチョウ","town":"南道","town_kana":"ミナミドウ","prefecture_code":30},"0012":{"zip_code":"6450012","prefecture":"和歌山県","prefecture_kana":"ワカヤマケン","city":"日高郡みなべ町","city_kana":"ヒダカグンミナベチョウ","town":"山内","town_kana":"ヤマウチ","prefecture_code":30},"0551":{"zip_code":"6450551","prefecture":"和歌山県","prefecture_kana":"ワカヤマケン","city":"日高郡日高川町","city_kana":"ヒダカグンヒダカガワチョウ","town":"寒川","town_kana":"ソウガワ","prefecture_code":30}}