{"0000":{"zip_code":"6460000","prefecture":"和歌山県","prefecture_kana":"ワカヤマケン","city":"田辺市","city_kana":"タナベシ","town":"","town_kana":"","prefecture_code":30},"0102":{"zip_code":"6460102","prefecture":"和歌山県","prefecture_kana":"ワカヤマケン","city":"田辺市","city_kana":"タナベシ","town":"秋津川","town_kana":"アキヅガワ","prefecture_code":30},"0005":{"zip_code":"6460005","prefecture":"和歌山県","prefecture_kana":"ワカヤマケン","city":"田辺市","city_kana":"タナベシ","town":"秋津町","town_kana":"アキヅチョウ","prefecture_code":30},"0021":{"zip_code":"6460021","prefecture":"和歌山県","prefecture_kana":"ワカヤマケン","city":"田辺市","city_kana":"タナベシ","town":"あけぼの","town_kana":"アケボノ","prefecture_code":30},"0027":{"zip_code":"6460027","prefecture":"和歌山県","prefecture_kana":"ワカヤマケン","city":"田辺市","city_kana":"タナベシ","town":"朝日ヶ丘","town_kana":"アサヒガオカ","prefecture_code":30},"1101":{"zip_code":"6461101","prefecture":"和歌山県","prefecture_kana":"ワカヤマケン","city":"田辺市","city_kana":"タナベシ","town":"鮎川","town_kana":"アユカワ","prefecture_code":30},"0037":{"zip_code":"6460037","prefecture":"和歌山県","prefecture_kana":"ワカヤマケン","city":"田辺市","city_kana":"タナベシ","town":"磯間","town_kana":"イソマ","prefecture_code":30},"0051":{"zip_code":"6460051","prefecture":"和歌山県","prefecture_kana":"ワカヤマケン","city":"田辺市","city_kana":"タナベシ","town":"稲成町","town_kana":"イナリチョウ","prefecture_code":30},"0043":{"zip_code":"6460043","prefecture":"和歌山県","prefecture_kana":"ワカヤマケン","city":"田辺市","city_kana":"タナベシ","town":"今福町","town_kana":"イマフクマチ","prefecture_code":30},"1321":{"zip_code":"6461321","prefecture":"和歌山県","prefecture_kana":"ワカヤマケン","city":"田辺市","city_kana":"タナベシ","town":"熊野","town_kana":"イヤ","prefecture_code":30},"0212":{"zip_code":"6460212","prefecture":"和歌山県","prefecture_kana":"ワカヤマケン","city":"田辺市","city_kana":"タナベシ","town":"上野","town_kana":"ウエノ","prefecture_code":30},"0061":{"zip_code":"6460061","prefecture":"和歌山県","prefecture_kana":"ワカヤマケン","city":"田辺市","city_kana":"タナベシ","town":"上の山","town_kana":"ウエノヤマ","prefecture_code":30},"0054":{"zip_code":"6460054","prefecture":"和歌山県","prefecture_kana":"ワカヤマケン","city":"田辺市","city_kana":"タナベシ","town":"江川","town_kana":"エガワ","prefecture_code":30},"0034":{"zip_code":"6460034","prefecture":"和歌山県","prefecture_kana":"ワカヤマケン","city":"田辺市","city_kana":"タナベシ","town":"扇ケ浜","town_kana":"オウギガハマ","prefecture_code":30},"0024":{"zip_code":"6460024","prefecture":"和歌山県","prefecture_kana":"ワカヤマケン","city":"田辺市","city_kana":"タナベシ","town":"学園","town_kana":"ガクエン","prefecture_code":30},"0012":{"zip_code":"6460012","prefecture":"和歌山県","prefecture_kana":"ワカヤマケン","city":"田辺市","city_kana":"タナベシ","town":"神島台","town_kana":"カシマダイ","prefecture_code":30},"0045":{"zip_code":"6460045","prefecture":"和歌山県","prefecture_kana":"ワカヤマケン","city":"田辺市","city_kana":"タナベシ","town":"片町","town_kana":"カタマチ","prefecture_code":30},"0001":{"zip_code":"6460001","prefecture":"和歌山県","prefecture_kana":"ワカヤマケン","city":"田辺市","city_kana":"タナベシ","town":"上秋津","town_kana":"カミアキヅ","prefecture_code":30},"0101":{"zip_code":"6460101","prefecture":"和歌山県","prefecture_kana":"ワカヤマケン","city":"田辺市","city_kana":"タナベシ","town":"上芳養","town_kana":"カミハヤ","prefecture_code":30},"0002":{"zip_code":"6460002","prefecture":"和歌山県","prefecture_kana":"ワカヤマケン","city":"田辺市","city_kana":"タナベシ","town":"上万呂","town_kana":"カミマロ","prefecture_code":30},"0214":{"zip_code":"6460214","prefecture":"和歌山県","prefecture_kana":"ワカヤマケン","city":"田辺市","city_kana":"タナベシ","town":"上三栖","town_kana":"カミミス","prefecture_code":30},"0036":{"zip_code":"6460036","prefecture":"和歌山県","prefecture_kana":"ワカヤマケン","city":"田辺市","city_kana":"タナベシ","town":"上屋敷","town_kana":"カミヤシキ","prefecture_code":30},"0041":{"zip_code":"6460041","prefecture":"和歌山県","prefecture_kana":"ワカヤマケン","city":"田辺市","city_kana":"タナベシ","town":"北新町","town_kana":"キタシンマチ","prefecture_code":30},"1334":{"zip_code":"6461334","prefecture":"和歌山県","prefecture_kana":"ワカヤマケン","city":"田辺市","city_kana":"タナベシ","town":"九川","town_kana":"クガワ","prefecture_code":30},"1335":{"zip_code":"6461335","prefecture":"和歌山県","prefecture_kana":"ワカヤマケン","city":"田辺市","city_kana":"タナベシ","town":"串","town_kana":"クシ","prefecture_code":30},"1338":{"zip_code":"6461338","prefecture":"和歌山県","prefecture_kana":"ワカヤマケン","city":"田辺市","city_kana":"タナベシ","town":"合川","town_kana":"ゴウガワ","prefecture_code":30},"1325":{"zip_code":"6461325","prefecture":"和歌山県","prefecture_kana":"ワカヤマケン","city":"田辺市","city_kana":"タナベシ","town":"小谷","town_kana":"コダニ","prefecture_code":30},"1332":{"zip_code":"6461332","prefecture":"和歌山県","prefecture_kana":"ワカヤマケン","city":"田辺市","city_kana":"タナベシ","town":"五味","town_kana":"ゴミ","prefecture_code":30},"1331":{"zip_code":"6461331","prefecture":"和歌山県","prefecture_kana":"ワカヤマケン","city":"田辺市","city_kana":"タナベシ","town":"木守","town_kana":"コモリ","prefecture_code":30},"0047":{"zip_code":"6460047","prefecture":"和歌山県","prefecture_kana":"ワカヤマケン","city":"田辺市","city_kana":"タナベシ","town":"紺屋町","town_kana":"コンヤマチ","prefecture_code":30},"0048":{"zip_code":"6460048","prefecture":"和歌山県","prefecture_kana":"ワカヤマケン","city":"田辺市","city_kana":"タナベシ","town":"栄町","town_kana":"サカエマチ","prefecture_code":30},"1212":{"zip_code":"6461212","prefecture":"和歌山県","prefecture_kana":"ワカヤマケン","city":"田辺市","city_kana":"タナベシ","town":"下川上","town_kana":"シモガワカミ","prefecture_code":30},"1213":{"zip_code":"6461213","prefecture":"和歌山県","prefecture_kana":"ワカヤマケン","city":"田辺市","city_kana":"タナベシ","town":"下川下","town_kana":"シモガワシモ","prefecture_code":30},"1337":{"zip_code":"6461337","prefecture":"和歌山県","prefecture_kana":"ワカヤマケン","city":"田辺市","city_kana":"タナベシ","town":"下露","town_kana":"シモツユ","prefecture_code":30},"0004":{"zip_code":"6460004","prefecture":"和歌山県","prefecture_kana":"ワカヤマケン","city":"田辺市","city_kana":"タナベシ","town":"下万呂","town_kana":"シモマロ","prefecture_code":30},"0216":{"zip_code":"6460216","prefecture":"和歌山県","prefecture_kana":"ワカヤマケン","city":"田辺市","city_kana":"タナベシ","town":"下三栖","town_kana":"シモミス","prefecture_code":30},"0032":{"zip_code":"6460032","prefecture":"和歌山県","prefecture_kana":"ワカヤマケン","city":"田辺市","city_kana":"タナベシ","town":"下屋敷町","town_kana":"シモヤシキマチ","prefecture_code":30},"0217":{"zip_code":"6460217","prefecture":"和歌山県","prefecture_kana":"ワカヤマケン","city":"田辺市","city_kana":"タナベシ","town":"城山台","town_kana":"シロヤマダイ","prefecture_code":30},"0011":{"zip_code":"6460011","prefecture":"和歌山県","prefecture_kana":"ワカヤマケン","city":"田辺市","city_kana":"タナベシ","town":"新庄町","town_kana":"シンジョウチョウ","prefecture_code":30},"0014":{"zip_code":"6460014","prefecture":"和歌山県","prefecture_kana":"ワカヤマケン","city":"田辺市","city_kana":"タナベシ","town":"新万","town_kana":"シンマン","prefecture_code":30},"0033":{"zip_code":"6460033","prefecture":"和歌山県","prefecture_kana":"ワカヤマケン","city":"田辺市","city_kana":"タナベシ","town":"新屋敷町","town_kana":"シンヤシキマチ","prefecture_code":30},"0038":{"zip_code":"6460038","prefecture":"和歌山県","prefecture_kana":"ワカヤマケン","city":"田辺市","city_kana":"タナベシ","town":"末広町","town_kana":"スエヒロチョウ","prefecture_code":30},"0028":{"zip_code":"6460028","prefecture":"和歌山県","prefecture_kana":"ワカヤマケン","city":"田辺市","city_kana":"タナベシ","town":"高雄","town_kana":"タカオ","prefecture_code":30},"0015":{"zip_code":"6460015","prefecture":"和歌山県","prefecture_kana":"ワカヤマケン","city":"田辺市","city_kana":"タナベシ","town":"たきない町","town_kana":"タキナイチョウ","prefecture_code":30},"1324":{"zip_code":"6461324","prefecture":"和歌山県","prefecture_kana":"ワカヤマケン","city":"田辺市","city_kana":"タナベシ","town":"竹ノ平","town_kana":"タケノタイラ","prefecture_code":30},"1336":{"zip_code":"6461336","prefecture":"和歌山県","prefecture_kana":"ワカヤマケン","city":"田辺市","city_kana":"タナベシ","town":"谷野口","town_kana":"タニノクチ","prefecture_code":30},"0050":{"zip_code":"6460050","prefecture":"和歌山県","prefecture_kana":"ワカヤマケン","city":"田辺市","city_kana":"タナベシ","town":"天神崎","town_kana":"テンジンザキ","prefecture_code":30},"0029":{"zip_code":"6460029","prefecture":"和歌山県","prefecture_kana":"ワカヤマケン","city":"田辺市","city_kana":"タナベシ","town":"東陽","town_kana":"トウヨウ","prefecture_code":30},"1339":{"zip_code":"6461339","prefecture":"和歌山県","prefecture_kana":"ワカヤマケン","city":"田辺市","city_kana":"タナベシ","town":"長瀬","town_kana":"ナガセ","prefecture_code":30},"0057":{"zip_code":"6460057","prefecture":"和歌山県","prefecture_kana":"ワカヤマケン","city":"田辺市","city_kana":"タナベシ","town":"中芳養","town_kana":"ナカハヤ","prefecture_code":30},"1412":{"zip_code":"6461412","prefecture":"和歌山県","prefecture_kana":"ワカヤマケン","city":"田辺市","city_kana":"タナベシ","town":"中辺路町石船","town_kana":"ナカヘチチョウイシブリ","prefecture_code":30},"1439":{"zip_code":"6461439","prefecture":"和歌山県","prefecture_kana":"ワカヤマケン","city":"田辺市","city_kana":"タナベシ","town":"中辺路町内井川","town_kana":"ナカヘチチョウウチイガワ","prefecture_code":30},"1411":{"zip_code":"6461411","prefecture":"和歌山県","prefecture_kana":"ワカヤマケン","city":"田辺市","city_kana":"タナベシ","town":"中辺路町大内川","town_kana":"ナカヘチチョウオオウチガワ","prefecture_code":30},"1433":{"zip_code":"6461433","prefecture":"和歌山県","prefecture_kana":"ワカヤマケン","city":"田辺市","city_kana":"タナベシ","town":"中辺路町大川","town_kana":"ナカヘチチョウオオカワ","prefecture_code":30},"1417":{"zip_code":"6461417","prefecture":"和歌山県","prefecture_kana":"ワカヤマケン","city":"田辺市","city_kana":"タナベシ","town":"中辺路町川合","town_kana":"ナカヘチチョウカワイ","prefecture_code":30},"1436":{"zip_code":"6461436","prefecture":"和歌山県","prefecture_kana":"ワカヤマケン","city":"田辺市","city_kana":"タナベシ","town":"中辺路町熊野川","town_kana":"ナカヘチチョウクマノガワ","prefecture_code":30},"1421":{"zip_code":"6461421","prefecture":"和歌山県","prefecture_kana":"ワカヤマケン","city":"田辺市","city_kana":"タナベシ","town":"中辺路町栗栖川","town_kana":"ナカヘチチョウクリスガワ","prefecture_code":30},"1435":{"zip_code":"6461435","prefecture":"和歌山県","prefecture_kana":"ワカヤマケン","city":"田辺市","city_kana":"タナベシ","town":"中辺路町小皆","town_kana":"ナカヘチチョウコカイ","prefecture_code":30},"1431":{"zip_code":"6461431","prefecture":"和歌山県","prefecture_kana":"ワカヤマケン","city":"田辺市","city_kana":"タナベシ","town":"中辺路町小松原","town_kana":"ナカヘチチョウコマツバラ","prefecture_code":30},"1437":{"zip_code":"6461437","prefecture":"和歌山県","prefecture_kana":"ワカヤマケン","city":"田辺市","city_kana":"タナベシ","town":"中辺路町沢","town_kana":"ナカヘチチョウサワ","prefecture_code":30},"1416":{"zip_code":"6461416","prefecture":"和歌山県","prefecture_kana":"ワカヤマケン","city":"田辺市","city_kana":"タナベシ","town":"中辺路町高原","town_kana":"ナカヘチチョウタカハラ","prefecture_code":30},"1402":{"zip_code":"6461402","prefecture":"和歌山県","prefecture_kana":"ワカヤマケン","city":"田辺市","city_kana":"タナベシ","town":"中辺路町近露","town_kana":"ナカヘチチョウチカツユ","prefecture_code":30},"1414":{"zip_code":"6461414","prefecture":"和歌山県","prefecture_kana":"ワカヤマケン","city":"田辺市","city_kana":"タナベシ","town":"中辺路町西谷","town_kana":"ナカヘチチョウニシダニ","prefecture_code":30},"1434":{"zip_code":"6461434","prefecture":"和歌山県","prefecture_kana":"ワカヤマケン","city":"田辺市","city_kana":"タナベシ","town":"中辺路町温川","town_kana":"ナカヘチチョウヌルミガワ","prefecture_code":30},"1401":{"zip_code":"6461401","prefecture":"和歌山県","prefecture_kana":"ワカヤマケン","city":"田辺市","city_kana":"タナベシ","town":"中辺路町野中","town_kana":"ナカヘチチョウノナカ","prefecture_code":30},"1432":{"zip_code":"6461432","prefecture":"和歌山県","prefecture_kana":"ワカヤマケン","city":"田辺市","city_kana":"タナベシ","town":"中辺路町福定","town_kana":"ナカヘチチョウフクサダ","prefecture_code":30},"1413":{"zip_code":"6461413","prefecture":"和歌山県","prefecture_kana":"ワカヤマケン","city":"田辺市","city_kana":"タナベシ","town":"中辺路町北郡","town_kana":"ナカヘチチョウホクソギ","prefecture_code":30},"1415":{"zip_code":"6461415","prefecture":"和歌山県","prefecture_kana":"ワカヤマケン","city":"田辺市","city_kana":"タナベシ","town":"中辺路町真砂","town_kana":"ナカヘチチョウマナゴ","prefecture_code":30},"1438":{"zip_code":"6461438","prefecture":"和歌山県","prefecture_kana":"ワカヤマケン","city":"田辺市","city_kana":"タナベシ","town":"中辺路町水上","town_kana":"ナカヘチチョウミズカミ","prefecture_code":30},"0003":{"zip_code":"6460003","prefecture":"和歌山県","prefecture_kana":"ワカヤマケン","city":"田辺市","city_kana":"タナベシ","town":"中万呂","town_kana":"ナカマロ","prefecture_code":30},"0215":{"zip_code":"6460215","prefecture":"和歌山県","prefecture_kana":"ワカヤマケン","city":"田辺市","city_kana":"タナベシ","town":"中三栖","town_kana":"ナカミス","prefecture_code":30},"0035":{"zip_code":"6460035","prefecture":"和歌山県","prefecture_kana":"ワカヤマケン","city":"田辺市","city_kana":"タナベシ","town":"中屋敷町","town_kana":"ナカヤシキマチ","prefecture_code":30},"0213":{"zip_code":"6460213","prefecture":"和歌山県","prefecture_kana":"ワカヤマケン","city":"田辺市","city_kana":"タナベシ","town":"長野","town_kana":"ナガノ","prefecture_code":30},"0056":{"zip_code":"6460056","prefecture":"和歌山県","prefecture_kana":"ワカヤマケン","city":"田辺市","city_kana":"タナベシ","town":"芳養町","town_kana":"ハヤチョウ","prefecture_code":30},"0063":{"zip_code":"6460063","prefecture":"和歌山県","prefecture_kana":"ワカヤマケン","city":"田辺市","city_kana":"タナベシ","town":"芳養松原","town_kana":"ハヤマツバラ","prefecture_code":30},"1333":{"zip_code":"6461333","prefecture":"和歌山県","prefecture_kana":"ワカヤマケン","city":"田辺市","city_kana":"タナベシ","town":"東伏菟野","town_kana":"ヒガシフドノ","prefecture_code":30},"0022":{"zip_code":"6460022","prefecture":"和歌山県","prefecture_kana":"ワカヤマケン","city":"田辺市","city_kana":"タナベシ","town":"東山","town_kana":"ヒガシヤマ","prefecture_code":30},"1214":{"zip_code":"6461214","prefecture":"和歌山県","prefecture_kana":"ワカヤマケン","city":"田辺市","city_kana":"タナベシ","town":"平瀬","town_kana":"ヒラセ","prefecture_code":30},"1326":{"zip_code":"6461326","prefecture":"和歌山県","prefecture_kana":"ワカヤマケン","city":"田辺市","city_kana":"タナベシ","town":"深谷","town_kana":"フカタニ","prefecture_code":30},"0044":{"zip_code":"6460044","prefecture":"和歌山県","prefecture_kana":"ワカヤマケン","city":"田辺市","city_kana":"タナベシ","town":"福路町","town_kana":"フクロマチ","prefecture_code":30},"0211":{"zip_code":"6460211","prefecture":"和歌山県","prefecture_kana":"ワカヤマケン","city":"田辺市","city_kana":"タナベシ","town":"伏菟野","town_kana":"フドノ","prefecture_code":30},"0059":{"zip_code":"6460059","prefecture":"和歌山県","prefecture_kana":"ワカヤマケン","city":"田辺市","city_kana":"タナベシ","town":"古尾","town_kana":"フルオ","prefecture_code":30},"0026":{"zip_code":"6460026","prefecture":"和歌山県","prefecture_kana":"ワカヤマケン","city":"田辺市","city_kana":"タナベシ","town":"宝来町","town_kana":"ホウライチョウ","prefecture_code":30},"0046":{"zip_code":"6460046","prefecture":"和歌山県","prefecture_kana":"ワカヤマケン","city":"田辺市","city_kana":"タナベシ","town":"本町","town_kana":"ホンマチ","prefecture_code":30},"0025":{"zip_code":"6460025","prefecture":"和歌山県","prefecture_kana":"ワカヤマケン","city":"田辺市","city_kana":"タナベシ","town":"神子浜","town_kana":"ミコノハマ","prefecture_code":30},"0031":{"zip_code":"6460031","prefecture":"和歌山県","prefecture_kana":"ワカヤマケン","city":"田辺市","city_kana":"タナベシ","town":"湊","town_kana":"ミナト","prefecture_code":30},"0042":{"zip_code":"6460042","prefecture":"和歌山県","prefecture_kana":"ワカヤマケン","city":"田辺市","city_kana":"タナベシ","town":"南新町","town_kana":"ミナミシンマチ","prefecture_code":30},"0013":{"zip_code":"6460013","prefecture":"和歌山県","prefecture_kana":"ワカヤマケン","city":"田辺市","city_kana":"タナベシ","town":"南新万","town_kana":"ミナミシンマン","prefecture_code":30},"1323":{"zip_code":"6461323","prefecture":"和歌山県","prefecture_kana":"ワカヤマケン","city":"田辺市","city_kana":"タナベシ","town":"向山","town_kana":"ムカイヤマ","prefecture_code":30},"0052":{"zip_code":"6460052","prefecture":"和歌山県","prefecture_kana":"ワカヤマケン","city":"田辺市","city_kana":"タナベシ","town":"むつみ","town_kana":"ムツミ","prefecture_code":30},"0062":{"zip_code":"6460062","prefecture":"和歌山県","prefecture_kana":"ワカヤマケン","city":"田辺市","city_kana":"タナベシ","town":"明洋","town_kana":"メイヨウ","prefecture_code":30},"0058":{"zip_code":"6460058","prefecture":"和歌山県","prefecture_kana":"ワカヤマケン","city":"田辺市","city_kana":"タナベシ","town":"目良","town_kana":"メラ","prefecture_code":30},"1322":{"zip_code":"6461322","prefecture":"和歌山県","prefecture_kana":"ワカヤマケン","city":"田辺市","city_kana":"タナベシ","town":"面川","town_kana":"メンガワ","prefecture_code":30},"0053":{"zip_code":"6460053","prefecture":"和歌山県","prefecture_kana":"ワカヤマケン","city":"田辺市","city_kana":"タナベシ","town":"元町","town_kana":"モトマチ","prefecture_code":30},"0023":{"zip_code":"6460023","prefecture":"和歌山県","prefecture_kana":"ワカヤマケン","city":"田辺市","city_kana":"タナベシ","town":"文里","town_kana":"モリ","prefecture_code":30},"1211":{"zip_code":"6461211","prefecture":"和歌山県","prefecture_kana":"ワカヤマケン","city":"田辺市","city_kana":"タナベシ","town":"和田","town_kana":"ワダ","prefecture_code":30},"0301":{"zip_code":"6460301","prefecture":"和歌山県","prefecture_kana":"ワカヤマケン","city":"西牟婁郡白浜町","city_kana":"ニシムログンシラハマチョウ","town":"市鹿野","town_kana":"イチカノ","prefecture_code":30},"0312":{"zip_code":"6460312","prefecture":"和歌山県","prefecture_kana":"ワカヤマケン","city":"西牟婁郡白浜町","city_kana":"ニシムログンシラハマチョウ","town":"大","town_kana":"オオ","prefecture_code":30},"0303":{"zip_code":"6460303","prefecture":"和歌山県","prefecture_kana":"ワカヤマケン","city":"西牟婁郡白浜町","city_kana":"ニシムログンシラハマチョウ","town":"大瀬","town_kana":"オオセ","prefecture_code":30},"0311":{"zip_code":"6460311","prefecture":"和歌山県","prefecture_kana":"ワカヤマケン","city":"西牟婁郡白浜町","city_kana":"ニシムログンシラハマチョウ","town":"小房","town_kana":"オブサ","prefecture_code":30},"0305":{"zip_code":"6460305","prefecture":"和歌山県","prefecture_kana":"ワカヤマケン","city":"西牟婁郡白浜町","city_kana":"ニシムログンシラハマチョウ","town":"北谷","town_kana":"キタダニ","prefecture_code":30},"0302":{"zip_code":"6460302","prefecture":"和歌山県","prefecture_kana":"ワカヤマケン","city":"西牟婁郡白浜町","city_kana":"ニシムログンシラハマチョウ","town":"上露","town_kana":"コウヅユ","prefecture_code":30},"0314":{"zip_code":"6460314","prefecture":"和歌山県","prefecture_kana":"ワカヤマケン","city":"西牟婁郡白浜町","city_kana":"ニシムログンシラハマチョウ","town":"里谷","town_kana":"サトダニ","prefecture_code":30},"0304":{"zip_code":"6460304","prefecture":"和歌山県","prefecture_kana":"ワカヤマケン","city":"西牟婁郡白浜町","city_kana":"ニシムログンシラハマチョウ","town":"竹垣内","town_kana":"タケガイト","prefecture_code":30},"0313":{"zip_code":"6460313","prefecture":"和歌山県","prefecture_kana":"ワカヤマケン","city":"西牟婁郡白浜町","city_kana":"ニシムログンシラハマチョウ","town":"玉伝","town_kana":"タマデ","prefecture_code":30}}