{"1321":{"zip_code":"6471321","prefecture":"三重県","prefecture_kana":"ミエケン","city":"熊野市","city_kana":"クマノシ","town":"紀和町花井","town_kana":"キワチョウケイ","prefecture_code":24},"1322":{"zip_code":"6471322","prefecture":"三重県","prefecture_kana":"ミエケン","city":"熊野市","city_kana":"クマノシ","town":"紀和町小船","town_kana":"キワチョウコブネ","prefecture_code":24},"1325":{"zip_code":"6471325","prefecture":"三重県","prefecture_kana":"ミエケン","city":"熊野市","city_kana":"クマノシ","town":"紀和町楊枝","town_kana":"キワチョウヨウジ","prefecture_code":24},"1323":{"zip_code":"6471323","prefecture":"三重県","prefecture_kana":"ミエケン","city":"熊野市","city_kana":"クマノシ","town":"紀和町楊枝川","town_kana":"キワチョウヨウジガワ","prefecture_code":24},"1324":{"zip_code":"6471324","prefecture":"三重県","prefecture_kana":"ミエケン","city":"熊野市","city_kana":"クマノシ","town":"紀和町和気","town_kana":"キワチョウワケ","prefecture_code":24},"1584":{"zip_code":"6471584","prefecture":"奈良県","prefecture_kana":"ナラケン","city":"吉野郡十津川村","city_kana":"ヨシノグントツカワムラ","town":"上葛川","town_kana":"カミクズガワ","prefecture_code":29},"1581":{"zip_code":"6471581","prefecture":"奈良県","prefecture_kana":"ナラケン","city":"吉野郡十津川村","city_kana":"ヨシノグントツカワムラ","town":"神下","town_kana":"コウカ","prefecture_code":29},"1271":{"zip_code":"6471271","prefecture":"奈良県","prefecture_kana":"ナラケン","city":"吉野郡十津川村","city_kana":"ヨシノグントツカワムラ","town":"竹筒","town_kana":"タケトウ","prefecture_code":29},"1582":{"zip_code":"6471582","prefecture":"奈良県","prefecture_kana":"ナラケン","city":"吉野郡十津川村","city_kana":"ヨシノグントツカワムラ","town":"玉置川","town_kana":"タマイガワ","prefecture_code":29},"1583":{"zip_code":"6471583","prefecture":"奈良県","prefecture_kana":"ナラケン","city":"吉野郡十津川村","city_kana":"ヨシノグントツカワムラ","town":"東中","town_kana":"ヒガシナカ","prefecture_code":29},"1742":{"zip_code":"6471742","prefecture":"和歌山県","prefecture_kana":"ワカヤマケン","city":"田辺市","city_kana":"タナベシ","town":"本宮町一本松","town_kana":"ホングウチョウイッポンマツ","prefecture_code":30},"1703":{"zip_code":"6471703","prefecture":"和歌山県","prefecture_kana":"ワカヤマケン","city":"田辺市","city_kana":"タナベシ","town":"本宮町請川","town_kana":"ホングウチョウウケガワ","prefecture_code":30},"1741":{"zip_code":"6471741","prefecture":"和歌山県","prefecture_kana":"ワカヤマケン","city":"田辺市","city_kana":"タナベシ","town":"本宮町大居","town_kana":"ホングウチョウオオイ","prefecture_code":30},"1725":{"zip_code":"6471725","prefecture":"和歌山県","prefecture_kana":"ワカヤマケン","city":"田辺市","city_kana":"タナベシ","town":"本宮町大瀬","town_kana":"ホングウチョウオオゼ","prefecture_code":30},"1702":{"zip_code":"6471702","prefecture":"和歌山県","prefecture_kana":"ワカヤマケン","city":"田辺市","city_kana":"タナベシ","town":"本宮町大津荷","town_kana":"ホングウチョウオオツガ","prefecture_code":30},"1716":{"zip_code":"6471716","prefecture":"和歌山県","prefecture_kana":"ワカヤマケン","city":"田辺市","city_kana":"タナベシ","town":"本宮町上大野","town_kana":"ホングウチョウカミオオノ","prefecture_code":30},"1751":{"zip_code":"6471751","prefecture":"和歌山県","prefecture_kana":"ワカヤマケン","city":"田辺市","city_kana":"タナベシ","town":"本宮町上切原","town_kana":"ホングウチョウカミキリバラ","prefecture_code":30},"1717":{"zip_code":"6471717","prefecture":"和歌山県","prefecture_kana":"ワカヤマケン","city":"田辺市","city_kana":"タナベシ","town":"本宮町川湯","town_kana":"ホングウチョウカワユ","prefecture_code":30},"1752":{"zip_code":"6471752","prefecture":"和歌山県","prefecture_kana":"ワカヤマケン","city":"田辺市","city_kana":"タナベシ","town":"本宮町切畑","town_kana":"ホングウチョウキリハタ","prefecture_code":30},"1736":{"zip_code":"6471736","prefecture":"和歌山県","prefecture_kana":"ワカヤマケン","city":"田辺市","city_kana":"タナベシ","town":"本宮町久保野","town_kana":"ホングウチョウクボノ","prefecture_code":30},"1722":{"zip_code":"6471722","prefecture":"和歌山県","prefecture_kana":"ワカヤマケン","city":"田辺市","city_kana":"タナベシ","town":"本宮町小々森","town_kana":"ホングウチョウコゴモリ","prefecture_code":30},"1701":{"zip_code":"6471701","prefecture":"和歌山県","prefecture_kana":"ワカヤマケン","city":"田辺市","city_kana":"タナベシ","town":"本宮町小津荷","town_kana":"ホングウチョウコツガ","prefecture_code":30},"1714":{"zip_code":"6471714","prefecture":"和歌山県","prefecture_kana":"ワカヤマケン","city":"田辺市","city_kana":"タナベシ","town":"本宮町静川","town_kana":"ホングウチョウシズカワ","prefecture_code":30},"1734":{"zip_code":"6471734","prefecture":"和歌山県","prefecture_kana":"ワカヤマケン","city":"田辺市","city_kana":"タナベシ","town":"本宮町下湯川","town_kana":"ホングウチョウシモユカワ","prefecture_code":30},"1705":{"zip_code":"6471705","prefecture":"和歌山県","prefecture_kana":"ワカヤマケン","city":"田辺市","city_kana":"タナベシ","town":"本宮町高山","town_kana":"ホングウチョウタカヤマ","prefecture_code":30},"1712":{"zip_code":"6471712","prefecture":"和歌山県","prefecture_kana":"ワカヤマケン","city":"田辺市","city_kana":"タナベシ","town":"本宮町田代","town_kana":"ホングウチョウタシロ","prefecture_code":30},"1753":{"zip_code":"6471753","prefecture":"和歌山県","prefecture_kana":"ワカヤマケン","city":"田辺市","city_kana":"タナベシ","town":"本宮町土河屋","town_kana":"ホングウチョウツチゴヤ","prefecture_code":30},"1724":{"zip_code":"6471724","prefecture":"和歌山県","prefecture_kana":"ワカヤマケン","city":"田辺市","city_kana":"タナベシ","town":"本宮町野竹","town_kana":"ホングウチョウノダケ","prefecture_code":30},"1715":{"zip_code":"6471715","prefecture":"和歌山県","prefecture_kana":"ワカヤマケン","city":"田辺市","city_kana":"タナベシ","town":"本宮町東和田","town_kana":"ホングウチョウヒガシワダ","prefecture_code":30},"1721":{"zip_code":"6471721","prefecture":"和歌山県","prefecture_kana":"ワカヤマケン","city":"田辺市","city_kana":"タナベシ","town":"本宮町檜葉","town_kana":"ホングウチョウヒバ","prefecture_code":30},"1743":{"zip_code":"6471743","prefecture":"和歌山県","prefecture_kana":"ワカヤマケン","city":"田辺市","city_kana":"タナベシ","town":"本宮町伏拝","town_kana":"ホングウチョウフシオガミ","prefecture_code":30},"1726":{"zip_code":"6471726","prefecture":"和歌山県","prefecture_kana":"ワカヤマケン","city":"田辺市","city_kana":"タナベシ","town":"本宮町武住","town_kana":"ホングウチョウブジュウ","prefecture_code":30},"1731":{"zip_code":"6471731","prefecture":"和歌山県","prefecture_kana":"ワカヤマケン","city":"田辺市","city_kana":"タナベシ","town":"本宮町本宮","town_kana":"ホングウチョウホングウ","prefecture_code":30},"1735":{"zip_code":"6471735","prefecture":"和歌山県","prefecture_kana":"ワカヤマケン","city":"田辺市","city_kana":"タナベシ","town":"本宮町曲川","town_kana":"ホングウチョウマガリカワ","prefecture_code":30},"1744":{"zip_code":"6471744","prefecture":"和歌山県","prefecture_kana":"ワカヤマケン","city":"田辺市","city_kana":"タナベシ","town":"本宮町三越","town_kana":"ホングウチョウミコシ","prefecture_code":30},"1711":{"zip_code":"6471711","prefecture":"和歌山県","prefecture_kana":"ワカヤマケン","city":"田辺市","city_kana":"タナベシ","town":"本宮町皆瀬川","town_kana":"ホングウチョウミナセガワ","prefecture_code":30},"1723":{"zip_code":"6471723","prefecture":"和歌山県","prefecture_kana":"ワカヤマケン","city":"田辺市","city_kana":"タナベシ","town":"本宮町皆地","town_kana":"ホングウチョウミナチ","prefecture_code":30},"1713":{"zip_code":"6471713","prefecture":"和歌山県","prefecture_kana":"ワカヤマケン","city":"田辺市","city_kana":"タナベシ","town":"本宮町簑尾谷","town_kana":"ホングウチョウミノオダニ","prefecture_code":30},"1704":{"zip_code":"6471704","prefecture":"和歌山県","prefecture_kana":"ワカヤマケン","city":"田辺市","city_kana":"タナベシ","town":"本宮町耳打","town_kana":"ホングウチョウミミウチ","prefecture_code":30},"1732":{"zip_code":"6471732","prefecture":"和歌山県","prefecture_kana":"ワカヤマケン","city":"田辺市","city_kana":"タナベシ","town":"本宮町湯峰","town_kana":"ホングウチョウユノミネ","prefecture_code":30},"1733":{"zip_code":"6471733","prefecture":"和歌山県","prefecture_kana":"ワカヤマケン","city":"田辺市","city_kana":"タナベシ","town":"本宮町渡瀬","town_kana":"ホングウチョウワタゼ","prefecture_code":30},"0000":{"zip_code":"6470000","prefecture":"和歌山県","prefecture_kana":"ワカヤマケン","city":"新宮市","city_kana":"シングウシ","town":"","town_kana":"","prefecture_code":30},"0001":{"zip_code":"6470001","prefecture":"和歌山県","prefecture_kana":"ワカヤマケン","city":"新宮市","city_kana":"シングウシ","town":"相筋","town_kana":"アイスジ","prefecture_code":30},"0025":{"zip_code":"6470025","prefecture":"和歌山県","prefecture_kana":"ワカヤマケン","city":"新宮市","city_kana":"シングウシ","town":"あけぼの","town_kana":"アケボノ","prefecture_code":30},"0022":{"zip_code":"6470022","prefecture":"和歌山県","prefecture_kana":"ワカヤマケン","city":"新宮市","city_kana":"シングウシ","town":"阿須賀","town_kana":"アスカ","prefecture_code":30},"0021":{"zip_code":"6470021","prefecture":"和歌山県","prefecture_kana":"ワカヤマケン","city":"新宮市","city_kana":"シングウシ","town":"池田","town_kana":"イケダ","prefecture_code":30},"0012":{"zip_code":"6470012","prefecture":"和歌山県","prefecture_kana":"ワカヤマケン","city":"新宮市","city_kana":"シングウシ","town":"伊佐田町","town_kana":"イサダチョウ","prefecture_code":30},"0045":{"zip_code":"6470045","prefecture":"和歌山県","prefecture_kana":"ワカヤマケン","city":"新宮市","city_kana":"シングウシ","town":"井の沢","town_kana":"イノサワ","prefecture_code":30},"0051":{"zip_code":"6470051","prefecture":"和歌山県","prefecture_kana":"ワカヤマケン","city":"新宮市","city_kana":"シングウシ","town":"磐盾","town_kana":"イワタテ","prefecture_code":30},"0014":{"zip_code":"6470014","prefecture":"和歌山県","prefecture_kana":"ワカヤマケン","city":"新宮市","city_kana":"シングウシ","town":"浮島","town_kana":"ウキジマ","prefecture_code":30},"0008":{"zip_code":"6470008","prefecture":"和歌山県","prefecture_kana":"ワカヤマケン","city":"新宮市","city_kana":"シングウシ","town":"馬町","town_kana":"ウママチ","prefecture_code":30},"1102":{"zip_code":"6471102","prefecture":"和歌山県","prefecture_kana":"ワカヤマケン","city":"新宮市","city_kana":"シングウシ","town":"相賀","town_kana":"オウガ","prefecture_code":30},"0032":{"zip_code":"6470032","prefecture":"和歌山県","prefecture_kana":"ワカヤマケン","city":"新宮市","city_kana":"シングウシ","town":"王子町","town_kana":"オウジチョウ","prefecture_code":30},"0004":{"zip_code":"6470004","prefecture":"和歌山県","prefecture_kana":"ワカヤマケン","city":"新宮市","city_kana":"シングウシ","town":"大橋通","town_kana":"オオハシドオリ","prefecture_code":30},"0013":{"zip_code":"6470013","prefecture":"和歌山県","prefecture_kana":"ワカヤマケン","city":"新宮市","city_kana":"シングウシ","town":"春日","town_kana":"カスガ","prefecture_code":30},"0044":{"zip_code":"6470044","prefecture":"和歌山県","prefecture_kana":"ワカヤマケン","city":"新宮市","city_kana":"シングウシ","town":"神倉","town_kana":"カミクラ","prefecture_code":30},"0003":{"zip_code":"6470003","prefecture":"和歌山県","prefecture_kana":"ワカヤマケン","city":"新宮市","city_kana":"シングウシ","town":"上本町","town_kana":"カミホンマチ","prefecture_code":30},"0073":{"zip_code":"6470073","prefecture":"和歌山県","prefecture_kana":"ワカヤマケン","city":"新宮市","city_kana":"シングウシ","town":"木ノ川","town_kana":"キノカワ","prefecture_code":30},"1216":{"zip_code":"6471216","prefecture":"和歌山県","prefecture_kana":"ワカヤマケン","city":"新宮市","city_kana":"シングウシ","town":"熊野川町相須","town_kana":"クマノガワチョウアイス","prefecture_code":30},"1214":{"zip_code":"6471214","prefecture":"和歌山県","prefecture_kana":"ワカヤマケン","city":"新宮市","city_kana":"シングウシ","town":"熊野川町赤木","town_kana":"クマノガワチョウアカギ","prefecture_code":30},"1207":{"zip_code":"6471207","prefecture":"和歌山県","prefecture_kana":"ワカヤマケン","city":"新宮市","city_kana":"シングウシ","town":"熊野川町畝畑","town_kana":"クマノガワチョウウネハタ","prefecture_code":30},"1203":{"zip_code":"6471203","prefecture":"和歌山県","prefecture_kana":"ワカヤマケン","city":"新宮市","city_kana":"シングウシ","town":"熊野川町大山","town_kana":"クマノガワチョウオオヤマ","prefecture_code":30},"1204":{"zip_code":"6471204","prefecture":"和歌山県","prefecture_kana":"ワカヤマケン","city":"新宮市","city_kana":"シングウシ","town":"熊野川町鎌塚","town_kana":"クマノガワチョウカマヅカ","prefecture_code":30},"1201":{"zip_code":"6471201","prefecture":"和歌山県","prefecture_kana":"ワカヤマケン","city":"新宮市","city_kana":"シングウシ","town":"熊野川町上長井","town_kana":"クマノガワチョウカミナガイ","prefecture_code":30},"1233":{"zip_code":"6471233","prefecture":"和歌山県","prefecture_kana":"ワカヤマケン","city":"新宮市","city_kana":"シングウシ","town":"熊野川町九重","town_kana":"クマノガワチョウクジュウ","prefecture_code":30},"1223":{"zip_code":"6471223","prefecture":"和歌山県","prefecture_kana":"ワカヤマケン","city":"新宮市","city_kana":"シングウシ","town":"熊野川町篠尾","town_kana":"クマノガワチョウササビ","prefecture_code":30},"1234":{"zip_code":"6471234","prefecture":"和歌山県","prefecture_kana":"ワカヤマケン","city":"新宮市","city_kana":"シングウシ","town":"熊野川町四滝","town_kana":"クマノガワチョウシタキ","prefecture_code":30},"1232":{"zip_code":"6471232","prefecture":"和歌山県","prefecture_kana":"ワカヤマケン","city":"新宮市","city_kana":"シングウシ","town":"熊野川町嶋津","town_kana":"クマノガワチョウシマヅ","prefecture_code":30},"1205":{"zip_code":"6471205","prefecture":"和歌山県","prefecture_kana":"ワカヤマケン","city":"新宮市","city_kana":"シングウシ","town":"熊野川町滝本","town_kana":"クマノガワチョウタキモト","prefecture_code":30},"1212":{"zip_code":"6471212","prefecture":"和歌山県","prefecture_kana":"ワカヤマケン","city":"新宮市","city_kana":"シングウシ","town":"熊野川町田長","town_kana":"クマノガワチョウタナゴ","prefecture_code":30},"1231":{"zip_code":"6471231","prefecture":"和歌山県","prefecture_kana":"ワカヤマケン","city":"新宮市","city_kana":"シングウシ","town":"熊野川町玉置口","town_kana":"クマノガワチョウタマキグチ","prefecture_code":30},"1206":{"zip_code":"6471206","prefecture":"和歌山県","prefecture_kana":"ワカヤマケン","city":"新宮市","city_kana":"シングウシ","town":"熊野川町西","town_kana":"クマノガワチョウニシ","prefecture_code":30},"1221":{"zip_code":"6471221","prefecture":"和歌山県","prefecture_kana":"ワカヤマケン","city":"新宮市","city_kana":"シングウシ","town":"熊野川町西敷屋","town_kana":"クマノガワチョウニシシキヤ","prefecture_code":30},"1213":{"zip_code":"6471213","prefecture":"和歌山県","prefecture_kana":"ワカヤマケン","city":"新宮市","city_kana":"シングウシ","town":"熊野川町能城山本","town_kana":"クマノガワチョウノキヤマモト","prefecture_code":30},"1202":{"zip_code":"6471202","prefecture":"和歌山県","prefecture_kana":"ワカヤマケン","city":"新宮市","city_kana":"シングウシ","town":"熊野川町東","town_kana":"クマノガワチョウヒガシ","prefecture_code":30},"1222":{"zip_code":"6471222","prefecture":"和歌山県","prefecture_kana":"ワカヤマケン","city":"新宮市","city_kana":"シングウシ","town":"熊野川町東敷屋","town_kana":"クマノガワチョウヒガシシキヤ","prefecture_code":30},"1211":{"zip_code":"6471211","prefecture":"和歌山県","prefecture_kana":"ワカヤマケン","city":"新宮市","city_kana":"シングウシ","town":"熊野川町日足","town_kana":"クマノガワチョウヒタリ","prefecture_code":30},"1235":{"zip_code":"6471235","prefecture":"和歌山県","prefecture_kana":"ワカヤマケン","city":"新宮市","city_kana":"シングウシ","town":"熊野川町宮井","town_kana":"クマノガワチョウミヤイ","prefecture_code":30},"1215":{"zip_code":"6471215","prefecture":"和歌山県","prefecture_kana":"ワカヤマケン","city":"新宮市","city_kana":"シングウシ","town":"熊野川町椋井","town_kana":"クマノガワチョウムクノイ","prefecture_code":30},"0024":{"zip_code":"6470024","prefecture":"和歌山県","prefecture_kana":"ワカヤマケン","city":"新宮市","city_kana":"シングウシ","town":"熊野地","town_kana":"クマノジ","prefecture_code":30},"0053":{"zip_code":"6470053","prefecture":"和歌山県","prefecture_kana":"ワカヤマケン","city":"新宮市","city_kana":"シングウシ","town":"五新","town_kana":"ゴシン","prefecture_code":30},"0071":{"zip_code":"6470071","prefecture":"和歌山県","prefecture_kana":"ワカヤマケン","city":"新宮市","city_kana":"シングウシ","town":"佐野","town_kana":"サノ","prefecture_code":30},"0033":{"zip_code":"6470033","prefecture":"和歌山県","prefecture_kana":"ワカヤマケン","city":"新宮市","city_kana":"シングウシ","town":"清水元","town_kana":"シミズモト","prefecture_code":30},"0042":{"zip_code":"6470042","prefecture":"和歌山県","prefecture_kana":"ワカヤマケン","city":"新宮市","city_kana":"シングウシ","town":"下田","town_kana":"シモダ","prefecture_code":30},"0011":{"zip_code":"6470011","prefecture":"和歌山県","prefecture_kana":"ワカヤマケン","city":"新宮市","city_kana":"シングウシ","town":"下本町","town_kana":"シモホンマチ","prefecture_code":30},"0020":{"zip_code":"6470020","prefecture":"和歌山県","prefecture_kana":"ワカヤマケン","city":"新宮市","city_kana":"シングウシ","town":"徐福","town_kana":"ジョフク","prefecture_code":30},"0081":{"zip_code":"6470081","prefecture":"和歌山県","prefecture_kana":"ワカヤマケン","city":"新宮市","city_kana":"シングウシ","town":"新宮","town_kana":"シングウ","prefecture_code":30},"0019":{"zip_code":"6470019","prefecture":"和歌山県","prefecture_kana":"ワカヤマケン","city":"新宮市","city_kana":"シングウシ","town":"新町","town_kana":"シンマチ","prefecture_code":30},"1101":{"zip_code":"6471101","prefecture":"和歌山県","prefecture_kana":"ワカヤマケン","city":"新宮市","city_kana":"シングウシ","town":"高田","town_kana":"タカタ","prefecture_code":30},"0031":{"zip_code":"6470031","prefecture":"和歌山県","prefecture_kana":"ワカヤマケン","city":"新宮市","city_kana":"シングウシ","town":"田鶴原町","town_kana":"タズハラチョウ","prefecture_code":30},"0016":{"zip_code":"6470016","prefecture":"和歌山県","prefecture_kana":"ワカヤマケン","city":"新宮市","city_kana":"シングウシ","town":"谷王子町","town_kana":"タニオウジチョウ","prefecture_code":30},"0015":{"zip_code":"6470015","prefecture":"和歌山県","prefecture_kana":"ワカヤマケン","city":"新宮市","city_kana":"シングウシ","town":"千穂","town_kana":"チホ","prefecture_code":30},"0018":{"zip_code":"6470018","prefecture":"和歌山県","prefecture_kana":"ワカヤマケン","city":"新宮市","city_kana":"シングウシ","town":"仲之町","town_kana":"ナカノチョウ","prefecture_code":30},"0041":{"zip_code":"6470041","prefecture":"和歌山県","prefecture_kana":"ワカヤマケン","city":"新宮市","city_kana":"シングウシ","town":"野田","town_kana":"ノダ","prefecture_code":30},"0052":{"zip_code":"6470052","prefecture":"和歌山県","prefecture_kana":"ワカヤマケン","city":"新宮市","city_kana":"シングウシ","town":"橋本","town_kana":"ハシモト","prefecture_code":30},"0072":{"zip_code":"6470072","prefecture":"和歌山県","prefecture_kana":"ワカヤマケン","city":"新宮市","city_kana":"シングウシ","town":"蜂伏","town_kana":"ハチブセ","prefecture_code":30},"0002":{"zip_code":"6470002","prefecture":"和歌山県","prefecture_kana":"ワカヤマケン","city":"新宮市","city_kana":"シングウシ","town":"船町","town_kana":"フナマチ","prefecture_code":30},"0007":{"zip_code":"6470007","prefecture":"和歌山県","prefecture_kana":"ワカヤマケン","city":"新宮市","city_kana":"シングウシ","town":"別当屋敷町","town_kana":"ベットウヤシキチョウ","prefecture_code":30},"0023":{"zip_code":"6470023","prefecture":"和歌山県","prefecture_kana":"ワカヤマケン","city":"新宮市","city_kana":"シングウシ","town":"蓬莱","town_kana":"ホウライ","prefecture_code":30},"0034":{"zip_code":"6470034","prefecture":"和歌山県","prefecture_kana":"ワカヤマケン","city":"新宮市","city_kana":"シングウシ","town":"丸山","town_kana":"マルヤマ","prefecture_code":30},"0043":{"zip_code":"6470043","prefecture":"和歌山県","prefecture_kana":"ワカヤマケン","city":"新宮市","city_kana":"シングウシ","town":"緑ケ丘","town_kana":"ミドリガオカ","prefecture_code":30},"0054":{"zip_code":"6470054","prefecture":"和歌山県","prefecture_kana":"ワカヤマケン","city":"新宮市","city_kana":"シングウシ","town":"南檜杖","town_kana":"ミナミヒヅエ","prefecture_code":30},"1103":[{"zip_code":"6471103","prefecture":"和歌山県","prefecture_kana":"ワカヤマケン","city":"新宮市","city_kana":"シングウシ","town":"南檜杖","town_kana":"ミナミヒヅエ","prefecture_code":30},{"zip_code":"6471103","prefecture":"和歌山県","prefecture_kana":"ワカヤマケン","city":"新宮市","city_kana":"シングウシ","town":"南檜杖土ノ河","town_kana":"ミナミヒヅエツチノコ","prefecture_code":30}],"0061":{"zip_code":"6470061","prefecture":"和歌山県","prefecture_kana":"ワカヤマケン","city":"新宮市","city_kana":"シングウシ","town":"三輪崎","town_kana":"ミワサキ","prefecture_code":30},"0005":{"zip_code":"6470005","prefecture":"和歌山県","prefecture_kana":"ワカヤマケン","city":"新宮市","city_kana":"シングウシ","town":"元鍛治町","town_kana":"モトカジチョウ","prefecture_code":30},"0006":{"zip_code":"6470006","prefecture":"和歌山県","prefecture_kana":"ワカヤマケン","city":"新宮市","city_kana":"シングウシ","town":"薬師町","town_kana":"ヤクシマチ","prefecture_code":30},"0017":{"zip_code":"6470017","prefecture":"和歌山県","prefecture_kana":"ワカヤマケン","city":"新宮市","city_kana":"シングウシ","town":"横町","town_kana":"ヨコマチ","prefecture_code":30},"1600":{"zip_code":"6471600","prefecture":"和歌山県","prefecture_kana":"ワカヤマケン","city":"東牟婁郡北山村","city_kana":"ヒガシムログンキタヤマムラ","town":"","town_kana":"","prefecture_code":30},"1603":{"zip_code":"6471603","prefecture":"和歌山県","prefecture_kana":"ワカヤマケン","city":"東牟婁郡北山村","city_kana":"ヒガシムログンキタヤマムラ","town":"大沼","town_kana":"オオヌマ","prefecture_code":30},"1605":{"zip_code":"6471605","prefecture":"和歌山県","prefecture_kana":"ワカヤマケン","city":"東牟婁郡北山村","city_kana":"ヒガシムログンキタヤマムラ","town":"小松","town_kana":"コマツ","prefecture_code":30},"1604":{"zip_code":"6471604","prefecture":"和歌山県","prefecture_kana":"ワカヤマケン","city":"東牟婁郡北山村","city_kana":"ヒガシムログンキタヤマムラ","town":"下尾井","town_kana":"シモオイ","prefecture_code":30},"1602":{"zip_code":"6471602","prefecture":"和歌山県","prefecture_kana":"ワカヤマケン","city":"東牟婁郡北山村","city_kana":"ヒガシムログンキタヤマムラ","town":"竹原","town_kana":"タケハラ","prefecture_code":30},"1601":{"zip_code":"6471601","prefecture":"和歌山県","prefecture_kana":"ワカヤマケン","city":"東牟婁郡北山村","city_kana":"ヒガシムログンキタヤマムラ","town":"七色","town_kana":"ナナイロ","prefecture_code":30}}