{"0300":{"zip_code":"6480300","prefecture":"奈良県","prefecture_kana":"ナラケン","city":"吉野郡野迫川村","city_kana":"ヨシノグンノセガワムラ","town":"","town_kana":"","prefecture_code":29},"0301":{"zip_code":"6480301","prefecture":"奈良県","prefecture_kana":"ナラケン","city":"吉野郡野迫川村","city_kana":"ヨシノグンノセガワムラ","town":"池津川","town_kana":"イケツカワ","prefecture_code":29},"0307":{"zip_code":"6480307","prefecture":"奈良県","prefecture_kana":"ナラケン","city":"吉野郡野迫川村","city_kana":"ヨシノグンノセガワムラ","town":"北今西","town_kana":"キタイマニシ","prefecture_code":29},"0305":{"zip_code":"6480305","prefecture":"奈良県","prefecture_kana":"ナラケン","city":"吉野郡野迫川村","city_kana":"ヨシノグンノセガワムラ","town":"北股","town_kana":"キタマタ","prefecture_code":29},"0302":{"zip_code":"6480302","prefecture":"奈良県","prefecture_kana":"ナラケン","city":"吉野郡野迫川村","city_kana":"ヨシノグンノセガワムラ","town":"紫園","town_kana":"シオン","prefecture_code":29},"0306":{"zip_code":"6480306","prefecture":"奈良県","prefecture_kana":"ナラケン","city":"吉野郡野迫川村","city_kana":"ヨシノグンノセガワムラ","town":"平","town_kana":"タイラ","prefecture_code":29},"0304":{"zip_code":"6480304","prefecture":"奈良県","prefecture_kana":"ナラケン","city":"吉野郡野迫川村","city_kana":"ヨシノグンノセガワムラ","town":"立里","town_kana":"タテリ","prefecture_code":29},"0303":{"zip_code":"6480303","prefecture":"奈良県","prefecture_kana":"ナラケン","city":"吉野郡野迫川村","city_kana":"ヨシノグンノセガワムラ","town":"中津川","town_kana":"ナカツガワ","prefecture_code":29},"0308":{"zip_code":"6480308","prefecture":"奈良県","prefecture_kana":"ナラケン","city":"吉野郡野迫川村","city_kana":"ヨシノグンノセガワムラ","town":"桧股","town_kana":"ヒノキマタ","prefecture_code":29},"0309":{"zip_code":"6480309","prefecture":"奈良県","prefecture_kana":"ナラケン","city":"吉野郡野迫川村","city_kana":"ヨシノグンノセガワムラ","town":"弓手原","town_kana":"ユミテハラ","prefecture_code":29},"0000":{"zip_code":"6480000","prefecture":"和歌山県","prefecture_kana":"ワカヤマケン","city":"橋本市","city_kana":"ハシモトシ","town":"","town_kana":"","prefecture_code":30},"0022":{"zip_code":"6480022","prefecture":"和歌山県","prefecture_kana":"ワカヤマケン","city":"橋本市","city_kana":"ハシモトシ","town":"赤塚","town_kana":"アカツカ","prefecture_code":30},"0019":{"zip_code":"6480019","prefecture":"和歌山県","prefecture_kana":"ワカヤマケン","city":"橋本市","city_kana":"ハシモトシ","town":"あやの台","town_kana":"アヤノダイ","prefecture_code":30},"0073":{"zip_code":"6480073","prefecture":"和歌山県","prefecture_kana":"ワカヤマケン","city":"橋本市","city_kana":"ハシモトシ","town":"市脇","town_kana":"イチワキ","prefecture_code":30},"0024":{"zip_code":"6480024","prefecture":"和歌山県","prefecture_kana":"ワカヤマケン","city":"橋本市","city_kana":"ハシモトシ","town":"上田","town_kana":"ウエダ","prefecture_code":30},"0071":{"zip_code":"6480071","prefecture":"和歌山県","prefecture_kana":"ワカヤマケン","city":"橋本市","city_kana":"ハシモトシ","town":"小原田","town_kana":"オハラタ","prefecture_code":30},"0005":{"zip_code":"6480005","prefecture":"和歌山県","prefecture_kana":"ワカヤマケン","city":"橋本市","city_kana":"ハシモトシ","town":"小峰台","town_kana":"オミネダイ","prefecture_code":30},"0097":{"zip_code":"6480097","prefecture":"和歌山県","prefecture_kana":"ワカヤマケン","city":"橋本市","city_kana":"ハシモトシ","town":"柿の木坂","town_kana":"カキノキザカ","prefecture_code":30},"0037":{"zip_code":"6480037","prefecture":"和歌山県","prefecture_kana":"ワカヤマケン","city":"橋本市","city_kana":"ハシモトシ","town":"賢堂","town_kana":"カシコドウ","prefecture_code":30},"0084":{"zip_code":"6480084","prefecture":"和歌山県","prefecture_kana":"ワカヤマケン","city":"橋本市","city_kana":"ハシモトシ","town":"柏原","town_kana":"カセバラ","prefecture_code":30},"0043":{"zip_code":"6480043","prefecture":"和歌山県","prefecture_kana":"ワカヤマケン","city":"橋本市","city_kana":"ハシモトシ","town":"学文路","town_kana":"カムロ","prefecture_code":30},"0085":{"zip_code":"6480085","prefecture":"和歌山県","prefecture_kana":"ワカヤマケン","city":"橋本市","city_kana":"ハシモトシ","town":"岸上","town_kana":"キシガミ","prefecture_code":30},"0061":{"zip_code":"6480061","prefecture":"和歌山県","prefecture_kana":"ワカヤマケン","city":"橋本市","city_kana":"ハシモトシ","town":"北馬場","town_kana":"キタババ","prefecture_code":30},"0033":{"zip_code":"6480033","prefecture":"和歌山県","prefecture_kana":"ワカヤマケン","city":"橋本市","city_kana":"ハシモトシ","town":"北宿","town_kana":"キタヤドリ","prefecture_code":30},"0007":{"zip_code":"6480007","prefecture":"和歌山県","prefecture_kana":"ワカヤマケン","city":"橋本市","city_kana":"ハシモトシ","town":"紀ノ光台","town_kana":"キノヒカリダイ","prefecture_code":30},"0052":{"zip_code":"6480052","prefecture":"和歌山県","prefecture_kana":"ワカヤマケン","city":"橋本市","city_kana":"ハシモトシ","town":"紀見","town_kana":"キミ","prefecture_code":30},"0092":{"zip_code":"6480092","prefecture":"和歌山県","prefecture_kana":"ワカヤマケン","city":"橋本市","city_kana":"ハシモトシ","town":"紀見ケ丘","town_kana":"キミガオカ","prefecture_code":30},"0093":{"zip_code":"6480093","prefecture":"和歌山県","prefecture_kana":"ワカヤマケン","city":"橋本市","city_kana":"ハシモトシ","town":"慶賀野","town_kana":"ケガノ","prefecture_code":30},"0021":{"zip_code":"6480021","prefecture":"和歌山県","prefecture_kana":"ワカヤマケン","city":"橋本市","city_kana":"ハシモトシ","town":"恋野","town_kana":"コイノ","prefecture_code":30},"0099":{"zip_code":"6480099","prefecture":"和歌山県","prefecture_kana":"ワカヤマケン","city":"橋本市","city_kana":"ハシモトシ","town":"光陽台","town_kana":"コウヨウダイ","prefecture_code":30},"0065":{"zip_code":"6480065","prefecture":"和歌山県","prefecture_kana":"ワカヤマケン","city":"橋本市","city_kana":"ハシモトシ","town":"古佐田","town_kana":"コサダ","prefecture_code":30},"0086":{"zip_code":"6480086","prefecture":"和歌山県","prefecture_kana":"ワカヤマケン","city":"橋本市","city_kana":"ハシモトシ","town":"神野々","town_kana":"コノノ","prefecture_code":30},"0066":{"zip_code":"6480066","prefecture":"和歌山県","prefecture_kana":"ワカヤマケン","city":"橋本市","city_kana":"ハシモトシ","town":"胡麻生","town_kana":"ゴモウ","prefecture_code":30},"0006":{"zip_code":"6480006","prefecture":"和歌山県","prefecture_kana":"ワカヤマケン","city":"橋本市","city_kana":"ハシモトシ","town":"境原","town_kana":"サカイバラ","prefecture_code":30},"0075":{"zip_code":"6480075","prefecture":"和歌山県","prefecture_kana":"ワカヤマケン","city":"橋本市","city_kana":"ハシモトシ","town":"さつき台","town_kana":"サツキダイ","prefecture_code":30},"0041":{"zip_code":"6480041","prefecture":"和歌山県","prefecture_kana":"ワカヤマケン","city":"橋本市","city_kana":"ハシモトシ","town":"清水","town_kana":"シミズ","prefecture_code":30},"0082":{"zip_code":"6480082","prefecture":"和歌山県","prefecture_kana":"ワカヤマケン","city":"橋本市","city_kana":"ハシモトシ","town":"菖蒲谷","town_kana":"ショウブタニ","prefecture_code":30},"0053":{"zip_code":"6480053","prefecture":"和歌山県","prefecture_kana":"ワカヤマケン","city":"橋本市","city_kana":"ハシモトシ","town":"しらさぎ台","town_kana":"シラサギダイ","prefecture_code":30},"0054":{"zip_code":"6480054","prefecture":"和歌山県","prefecture_kana":"ワカヤマケン","city":"橋本市","city_kana":"ハシモトシ","town":"城山台","town_kana":"シロヤマダイ","prefecture_code":30},"0001":{"zip_code":"6480001","prefecture":"和歌山県","prefecture_kana":"ワカヤマケン","city":"橋本市","city_kana":"ハシモトシ","town":"杉尾","town_kana":"スギオ","prefecture_code":30},"0038":{"zip_code":"6480038","prefecture":"和歌山県","prefecture_kana":"ワカヤマケン","city":"橋本市","city_kana":"ハシモトシ","town":"須河","town_kana":"スゴウ","prefecture_code":30},"0012":{"zip_code":"6480012","prefecture":"和歌山県","prefecture_kana":"ワカヤマケン","city":"橋本市","city_kana":"ハシモトシ","town":"隅田町芋生","town_kana":"スダチョウイモウ","prefecture_code":30},"0014":{"zip_code":"6480014","prefecture":"和歌山県","prefecture_kana":"ワカヤマケン","city":"橋本市","city_kana":"ハシモトシ","town":"隅田町上兵庫","town_kana":"スダチョウカミヒョウゴ","prefecture_code":30},"0016":{"zip_code":"6480016","prefecture":"和歌山県","prefecture_kana":"ワカヤマケン","city":"橋本市","city_kana":"ハシモトシ","town":"隅田町下兵庫","town_kana":"スダチョウシモヒョウゴ","prefecture_code":30},"0015":{"zip_code":"6480015","prefecture":"和歌山県","prefecture_kana":"ワカヤマケン","city":"橋本市","city_kana":"ハシモトシ","town":"隅田町河瀬","town_kana":"スダチョウコウゼ","prefecture_code":30},"0004":{"zip_code":"6480004","prefecture":"和歌山県","prefecture_kana":"ワカヤマケン","city":"橋本市","city_kana":"ハシモトシ","town":"隅田町霜草","town_kana":"スダチョウシモクサ","prefecture_code":30},"0018":{"zip_code":"6480018","prefecture":"和歌山県","prefecture_kana":"ワカヤマケン","city":"橋本市","city_kana":"ハシモトシ","town":"隅田町垂井","town_kana":"スダチョウタルイ","prefecture_code":30},"0013":{"zip_code":"6480013","prefecture":"和歌山県","prefecture_kana":"ワカヤマケン","city":"橋本市","city_kana":"ハシモトシ","town":"隅田町中下","town_kana":"スダチョウチュウゲ","prefecture_code":30},"0017":{"zip_code":"6480017","prefecture":"和歌山県","prefecture_kana":"ワカヤマケン","city":"橋本市","city_kana":"ハシモトシ","town":"隅田町中島","town_kana":"スダチョウナカジマ","prefecture_code":30},"0002":{"zip_code":"6480002","prefecture":"和歌山県","prefecture_kana":"ワカヤマケン","city":"橋本市","city_kana":"ハシモトシ","town":"隅田町平野","town_kana":"スダチョウヒラノ","prefecture_code":30},"0011":{"zip_code":"6480011","prefecture":"和歌山県","prefecture_kana":"ワカヤマケン","city":"橋本市","city_kana":"ハシモトシ","town":"隅田町真土","town_kana":"スダチョウマツチ","prefecture_code":30},"0003":{"zip_code":"6480003","prefecture":"和歌山県","prefecture_kana":"ワカヤマケン","city":"橋本市","city_kana":"ハシモトシ","town":"隅田町山内","town_kana":"スダチョウヤマウチ","prefecture_code":30},"0031":{"zip_code":"6480031","prefecture":"和歌山県","prefecture_kana":"ワカヤマケン","city":"橋本市","city_kana":"ハシモトシ","town":"只野","town_kana":"タダノ","prefecture_code":30},"0032":{"zip_code":"6480032","prefecture":"和歌山県","prefecture_kana":"ワカヤマケン","city":"橋本市","city_kana":"ハシモトシ","town":"谷奥深","town_kana":"タニオブカ","prefecture_code":30},"0062":{"zip_code":"6480062","prefecture":"和歌山県","prefecture_kana":"ワカヤマケン","city":"橋本市","city_kana":"ハシモトシ","town":"妻","town_kana":"ツマ","prefecture_code":30},"0083":{"zip_code":"6480083","prefecture":"和歌山県","prefecture_kana":"ワカヤマケン","city":"橋本市","city_kana":"ハシモトシ","town":"出塔","town_kana":"デトウ","prefecture_code":30},"0072":{"zip_code":"6480072","prefecture":"和歌山県","prefecture_kana":"ワカヤマケン","city":"橋本市","city_kana":"ハシモトシ","town":"東家","town_kana":"トウゲ","prefecture_code":30},"0023":{"zip_code":"6480023","prefecture":"和歌山県","prefecture_kana":"ワカヤマケン","city":"橋本市","city_kana":"ハシモトシ","town":"中道","town_kana":"ナカドウ","prefecture_code":30},"0042":{"zip_code":"6480042","prefecture":"和歌山県","prefecture_kana":"ワカヤマケン","city":"橋本市","city_kana":"ハシモトシ","town":"西畑","town_kana":"ニシバタ","prefecture_code":30},"0074":{"zip_code":"6480074","prefecture":"和歌山県","prefecture_kana":"ワカヤマケン","city":"橋本市","city_kana":"ハシモトシ","town":"野","town_kana":"ノ","prefecture_code":30},"0095":{"zip_code":"6480095","prefecture":"和歌山県","prefecture_kana":"ワカヤマケン","city":"橋本市","city_kana":"ハシモトシ","town":"橋谷","town_kana":"ハシタニ","prefecture_code":30},"0064":{"zip_code":"6480064","prefecture":"和歌山県","prefecture_kana":"ワカヤマケン","city":"橋本市","city_kana":"ハシモトシ","town":"橋本","town_kana":"ハシモト","prefecture_code":30},"0091":{"zip_code":"6480091","prefecture":"和歌山県","prefecture_kana":"ワカヤマケン","city":"橋本市","city_kana":"ハシモトシ","town":"柱本","town_kana":"ハシラモト","prefecture_code":30},"0063":{"zip_code":"6480063","prefecture":"和歌山県","prefecture_kana":"ワカヤマケン","city":"橋本市","city_kana":"ハシモトシ","town":"原田","town_kana":"ハラダ","prefecture_code":30},"0035":{"zip_code":"6480035","prefecture":"和歌山県","prefecture_kana":"ワカヤマケン","city":"橋本市","city_kana":"ハシモトシ","town":"彦谷","town_kana":"ヒコタニ","prefecture_code":30},"0051":{"zip_code":"6480051","prefecture":"和歌山県","prefecture_kana":"ワカヤマケン","city":"橋本市","city_kana":"ハシモトシ","town":"細川","town_kana":"ホソカワ","prefecture_code":30},"0094":{"zip_code":"6480094","prefecture":"和歌山県","prefecture_kana":"ワカヤマケン","city":"橋本市","city_kana":"ハシモトシ","town":"三石台","town_kana":"ミツイシダイ","prefecture_code":30},"0044":{"zip_code":"6480044","prefecture":"和歌山県","prefecture_kana":"ワカヤマケン","city":"橋本市","city_kana":"ハシモトシ","town":"南馬場","town_kana":"ミナミババ","prefecture_code":30},"0034":{"zip_code":"6480034","prefecture":"和歌山県","prefecture_kana":"ワカヤマケン","city":"橋本市","city_kana":"ハシモトシ","town":"南宿","town_kana":"ミナミヤドリ","prefecture_code":30},"0088":{"zip_code":"6480088","prefecture":"和歌山県","prefecture_kana":"ワカヤマケン","city":"橋本市","city_kana":"ハシモトシ","town":"みゆき台","town_kana":"ミユキダイ","prefecture_code":30},"0096":{"zip_code":"6480096","prefecture":"和歌山県","prefecture_kana":"ワカヤマケン","city":"橋本市","city_kana":"ハシモトシ","town":"御幸辻","town_kana":"ミユキツジ","prefecture_code":30},"0025":{"zip_code":"6480025","prefecture":"和歌山県","prefecture_kana":"ワカヤマケン","city":"橋本市","city_kana":"ハシモトシ","town":"向副","town_kana":"ムカソイ","prefecture_code":30},"0098":{"zip_code":"6480098","prefecture":"和歌山県","prefecture_kana":"ワカヤマケン","city":"橋本市","city_kana":"ハシモトシ","town":"矢倉脇","town_kana":"ヤグラワキ","prefecture_code":30},"0081":{"zip_code":"6480081","prefecture":"和歌山県","prefecture_kana":"ワカヤマケン","city":"橋本市","city_kana":"ハシモトシ","town":"山田","town_kana":"ヤマダ","prefecture_code":30},"0036":{"zip_code":"6480036","prefecture":"和歌山県","prefecture_kana":"ワカヤマケン","city":"橋本市","city_kana":"ハシモトシ","town":"横座","town_kana":"ヨコザ","prefecture_code":30},"0087":{"zip_code":"6480087","prefecture":"和歌山県","prefecture_kana":"ワカヤマケン","city":"橋本市","city_kana":"ハシモトシ","town":"吉原","town_kana":"ヨシハラ","prefecture_code":30},"0201":{"zip_code":"6480201","prefecture":"和歌山県","prefecture_kana":"ワカヤマケン","city":"伊都郡かつらぎ町","city_kana":"イトグンカツラギチョウ","town":"花園久木","town_kana":"ハナゾノクキ","prefecture_code":30},"0202":{"zip_code":"6480202","prefecture":"和歌山県","prefecture_kana":"ワカヤマケン","city":"伊都郡かつらぎ町","city_kana":"イトグンカツラギチョウ","town":"花園中南","town_kana":"ハナゾノナカミナミ","prefecture_code":30},"0100":{"zip_code":"6480100","prefecture":"和歌山県","prefecture_kana":"ワカヤマケン","city":"伊都郡九度山町","city_kana":"イトグンクドヤマチョウ","town":"","town_kana":"","prefecture_code":30},"0131":{"zip_code":"6480131","prefecture":"和歌山県","prefecture_kana":"ワカヤマケン","city":"伊都郡九度山町","city_kana":"イトグンクドヤマチョウ","town":"市平","town_kana":"イチタイラ","prefecture_code":30},"0142":{"zip_code":"6480142","prefecture":"和歌山県","prefecture_kana":"ワカヤマケン","city":"伊都郡九度山町","city_kana":"イトグンクドヤマチョウ","town":"笠木","town_kana":"カサギ","prefecture_code":30},"0111":{"zip_code":"6480111","prefecture":"和歌山県","prefecture_kana":"ワカヤマケン","city":"伊都郡九度山町","city_kana":"イトグンクドヤマチョウ","town":"河根","town_kana":"カネ","prefecture_code":30},"0143":{"zip_code":"6480143","prefecture":"和歌山県","prefecture_kana":"ワカヤマケン","city":"伊都郡九度山町","city_kana":"イトグンクドヤマチョウ","town":"上古沢","town_kana":"カミコサワ","prefecture_code":30},"0132":{"zip_code":"6480132","prefecture":"和歌山県","prefecture_kana":"ワカヤマケン","city":"伊都郡九度山町","city_kana":"イトグンクドヤマチョウ","town":"北又","town_kana":"キタマタ","prefecture_code":30},"0101":{"zip_code":"6480101","prefecture":"和歌山県","prefecture_kana":"ワカヤマケン","city":"伊都郡九度山町","city_kana":"イトグンクドヤマチョウ","town":"九度山","town_kana":"クドヤマ","prefecture_code":30},"0141":{"zip_code":"6480141","prefecture":"和歌山県","prefecture_kana":"ワカヤマケン","city":"伊都郡九度山町","city_kana":"イトグンクドヤマチョウ","town":"椎出","town_kana":"シイデ","prefecture_code":30},"0151":{"zip_code":"6480151","prefecture":"和歌山県","prefecture_kana":"ワカヤマケン","city":"伊都郡九度山町","city_kana":"イトグンクドヤマチョウ","town":"慈尊院","town_kana":"ジソンイン","prefecture_code":30},"0145":{"zip_code":"6480145","prefecture":"和歌山県","prefecture_kana":"ワカヤマケン","city":"伊都郡九度山町","city_kana":"イトグンクドヤマチョウ","town":"下古沢","town_kana":"シモコサワ","prefecture_code":30},"0144":{"zip_code":"6480144","prefecture":"和歌山県","prefecture_kana":"ワカヤマケン","city":"伊都郡九度山町","city_kana":"イトグンクドヤマチョウ","town":"中古沢","town_kana":"ナカコサワ","prefecture_code":30},"0121":{"zip_code":"6480121","prefecture":"和歌山県","prefecture_kana":"ワカヤマケン","city":"伊都郡九度山町","city_kana":"イトグンクドヤマチョウ","town":"丹生川","town_kana":"ニュウカワ","prefecture_code":30},"0161":{"zip_code":"6480161","prefecture":"和歌山県","prefecture_kana":"ワカヤマケン","city":"伊都郡九度山町","city_kana":"イトグンクドヤマチョウ","town":"入郷","town_kana":"ニュウゴウ","prefecture_code":30},"0133":{"zip_code":"6480133","prefecture":"和歌山県","prefecture_kana":"ワカヤマケン","city":"伊都郡九度山町","city_kana":"イトグンクドヤマチョウ","town":"東郷","town_kana":"ヒガシゴウ","prefecture_code":30},"0200":{"zip_code":"6480200","prefecture":"和歌山県","prefecture_kana":"ワカヤマケン","city":"伊都郡高野町","city_kana":"イトグンコウヤチョウ","town":"","town_kana":"","prefecture_code":30},"0241":{"zip_code":"6480241","prefecture":"和歌山県","prefecture_kana":"ワカヤマケン","city":"伊都郡高野町","city_kana":"イトグンコウヤチョウ","town":"相ノ浦","town_kana":"アイノウラ","prefecture_code":30},"0231":{"zip_code":"6480231","prefecture":"和歌山県","prefecture_kana":"ワカヤマケン","city":"伊都郡高野町","city_kana":"イトグンコウヤチョウ","town":"大滝","town_kana":"オオタキ","prefecture_code":30},"0227":{"zip_code":"6480227","prefecture":"和歌山県","prefecture_kana":"ワカヤマケン","city":"伊都郡高野町","city_kana":"イトグンコウヤチョウ","town":"樫原","town_kana":"カシハラ","prefecture_code":30},"0403":{"zip_code":"6480403","prefecture":"和歌山県","prefecture_kana":"ワカヤマケン","city":"伊都郡高野町","city_kana":"イトグンコウヤチョウ","town":"上筒香","town_kana":"カミツツガ","prefecture_code":30},"0211":{"zip_code":"6480211","prefecture":"和歌山県","prefecture_kana":"ワカヤマケン","city":"伊都郡高野町","city_kana":"イトグンコウヤチョウ","town":"高野山","town_kana":"コウヤサン","prefecture_code":30},"0405":{"zip_code":"6480405","prefecture":"和歌山県","prefecture_kana":"ワカヤマケン","city":"伊都郡高野町","city_kana":"イトグンコウヤチョウ","town":"下筒香","town_kana":"シモツツガ","prefecture_code":30},"0225":{"zip_code":"6480225","prefecture":"和歌山県","prefecture_kana":"ワカヤマケン","city":"伊都郡高野町","city_kana":"イトグンコウヤチョウ","town":"杖ケ薮","town_kana":"ツエガヤブ","prefecture_code":30},"0404":{"zip_code":"6480404","prefecture":"和歌山県","prefecture_kana":"ワカヤマケン","city":"伊都郡高野町","city_kana":"イトグンコウヤチョウ","town":"中筒香","town_kana":"ナカツツガ","prefecture_code":30},"0221":{"zip_code":"6480221","prefecture":"和歌山県","prefecture_kana":"ワカヤマケン","city":"伊都郡高野町","city_kana":"イトグンコウヤチョウ","town":"西ケ峰","town_kana":"ニシガミネ","prefecture_code":30},"0261":{"zip_code":"6480261","prefecture":"和歌山県","prefecture_kana":"ワカヤマケン","city":"伊都郡高野町","city_kana":"イトグンコウヤチョウ","town":"西郷","town_kana":"ニシゴウ","prefecture_code":30},"0171":{"zip_code":"6480171","prefecture":"和歌山県","prefecture_kana":"ワカヤマケン","city":"伊都郡高野町","city_kana":"イトグンコウヤチョウ","town":"西郷","town_kana":"ニシゴウ","prefecture_code":30},"0401":{"zip_code":"6480401","prefecture":"和歌山県","prefecture_kana":"ワカヤマケン","city":"伊都郡高野町","city_kana":"イトグンコウヤチョウ","town":"西富貴","town_kana":"ニシフキ","prefecture_code":30},"0263":{"zip_code":"6480263","prefecture":"和歌山県","prefecture_kana":"ワカヤマケン","city":"伊都郡高野町","city_kana":"イトグンコウヤチョウ","town":"花坂","town_kana":"ハナサカ","prefecture_code":30},"0223":{"zip_code":"6480223","prefecture":"和歌山県","prefecture_kana":"ワカヤマケン","city":"伊都郡高野町","city_kana":"イトグンコウヤチョウ","town":"林","town_kana":"ハヤシ","prefecture_code":30},"0402":{"zip_code":"6480402","prefecture":"和歌山県","prefecture_kana":"ワカヤマケン","city":"伊都郡高野町","city_kana":"イトグンコウヤチョウ","town":"東富貴","town_kana":"ヒガシフキ","prefecture_code":30},"0226":{"zip_code":"6480226","prefecture":"和歌山県","prefecture_kana":"ワカヤマケン","city":"伊都郡高野町","city_kana":"イトグンコウヤチョウ","town":"東又","town_kana":"ヒガシマタ","prefecture_code":30},"0224":{"zip_code":"6480224","prefecture":"和歌山県","prefecture_kana":"ワカヤマケン","city":"伊都郡高野町","city_kana":"イトグンコウヤチョウ","town":"平原","town_kana":"ヒラハラ","prefecture_code":30},"0262":{"zip_code":"6480262","prefecture":"和歌山県","prefecture_kana":"ワカヤマケン","city":"伊都郡高野町","city_kana":"イトグンコウヤチョウ","town":"細川","town_kana":"ホソカワ","prefecture_code":30},"0222":{"zip_code":"6480222","prefecture":"和歌山県","prefecture_kana":"ワカヤマケン","city":"伊都郡高野町","city_kana":"イトグンコウヤチョウ","town":"南","town_kana":"ミナミ","prefecture_code":30},"0251":{"zip_code":"6480251","prefecture":"和歌山県","prefecture_kana":"ワカヤマケン","city":"伊都郡高野町","city_kana":"イトグンコウヤチョウ","town":"湯川","town_kana":"ユカワ","prefecture_code":30}}