{"6336":{"zip_code":"6496336","prefecture":"和歌山県","prefecture_kana":"ワカヤマケン","city":"和歌山市","city_kana":"ワカヤマシ","town":"小豆島","town_kana":"アズシマ","prefecture_code":30},"6323":{"zip_code":"6496323","prefecture":"和歌山県","prefecture_kana":"ワカヤマケン","city":"和歌山市","city_kana":"ワカヤマシ","town":"井ノ口","town_kana":"イノクチ","prefecture_code":30},"6316":{"zip_code":"6496316","prefecture":"和歌山県","prefecture_kana":"ワカヤマケン","city":"和歌山市","city_kana":"ワカヤマシ","town":"上野","town_kana":"ウエノ","prefecture_code":30},"6332":{"zip_code":"6496332","prefecture":"和歌山県","prefecture_kana":"ワカヤマケン","city":"和歌山市","city_kana":"ワカヤマシ","town":"宇田森","town_kana":"ウダモリ","prefecture_code":30},"6272":{"zip_code":"6496272","prefecture":"和歌山県","prefecture_kana":"ワカヤマケン","city":"和歌山市","city_kana":"ワカヤマシ","town":"大垣内","town_kana":"オオガイト","prefecture_code":30},"6261":{"zip_code":"6496261","prefecture":"和歌山県","prefecture_kana":"ワカヤマケン","city":"和歌山市","city_kana":"ワカヤマシ","town":"小倉","town_kana":"オグラ","prefecture_code":30},"6308":{"zip_code":"6496308","prefecture":"和歌山県","prefecture_kana":"ワカヤマケン","city":"和歌山市","city_kana":"ワカヤマシ","town":"落合","town_kana":"オチアイ","prefecture_code":30},"6274":{"zip_code":"6496274","prefecture":"和歌山県","prefecture_kana":"ワカヤマケン","city":"和歌山市","city_kana":"ワカヤマシ","town":"金谷","town_kana":"カナヤ","prefecture_code":30},"6306":{"zip_code":"6496306","prefecture":"和歌山県","prefecture_kana":"ワカヤマケン","city":"和歌山市","city_kana":"ワカヤマシ","town":"上黒谷","town_kana":"カミクロダニ","prefecture_code":30},"6262":{"zip_code":"6496262","prefecture":"和歌山県","prefecture_kana":"ワカヤマケン","city":"和歌山市","city_kana":"ワカヤマシ","town":"上三毛","town_kana":"カミミケ","prefecture_code":30},"6312":{"zip_code":"6496312","prefecture":"和歌山県","prefecture_kana":"ワカヤマケン","city":"和歌山市","city_kana":"ワカヤマシ","town":"川辺","town_kana":"カワナベ","prefecture_code":30},"6334":{"zip_code":"6496334","prefecture":"和歌山県","prefecture_kana":"ワカヤマケン","city":"和歌山市","city_kana":"ワカヤマシ","town":"北","town_kana":"キタ","prefecture_code":30},"6331":{"zip_code":"6496331","prefecture":"和歌山県","prefecture_kana":"ワカヤマケン","city":"和歌山市","city_kana":"ワカヤマシ","town":"北野","town_kana":"キタノ","prefecture_code":30},"6307":{"zip_code":"6496307","prefecture":"和歌山県","prefecture_kana":"ワカヤマケン","city":"和歌山市","city_kana":"ワカヤマシ","town":"北別所","town_kana":"キタベッシヨ","prefecture_code":30},"6313":{"zip_code":"6496313","prefecture":"和歌山県","prefecture_kana":"ワカヤマケン","city":"和歌山市","city_kana":"ワカヤマシ","town":"楠本","town_kana":"クスモト","prefecture_code":30},"6315":{"zip_code":"6496315","prefecture":"和歌山県","prefecture_kana":"ワカヤマケン","city":"和歌山市","city_kana":"ワカヤマシ","town":"神波","town_kana":"コウナミ","prefecture_code":30},"6311":{"zip_code":"6496311","prefecture":"和歌山県","prefecture_kana":"ワカヤマケン","city":"和歌山市","city_kana":"ワカヤマシ","town":"里","town_kana":"サト","prefecture_code":30},"6314":{"zip_code":"6496314","prefecture":"和歌山県","prefecture_kana":"ワカヤマケン","city":"和歌山市","city_kana":"ワカヤマシ","town":"島","town_kana":"シマ","prefecture_code":30},"6263":{"zip_code":"6496263","prefecture":"和歌山県","prefecture_kana":"ワカヤマケン","city":"和歌山市","city_kana":"ワカヤマシ","town":"下三毛","town_kana":"シモミケ","prefecture_code":30},"6325":{"zip_code":"6496325","prefecture":"和歌山県","prefecture_kana":"ワカヤマケン","city":"和歌山市","city_kana":"ワカヤマシ","town":"下和佐","town_kana":"シモワサ","prefecture_code":30},"6264":{"zip_code":"6496264","prefecture":"和歌山県","prefecture_kana":"ワカヤマケン","city":"和歌山市","city_kana":"ワカヤマシ","town":"新庄","town_kana":"シンジョウ","prefecture_code":30},"6301":{"zip_code":"6496301","prefecture":"和歌山県","prefecture_kana":"ワカヤマケン","city":"和歌山市","city_kana":"ワカヤマシ","town":"滝畑","town_kana":"タキハタ","prefecture_code":30},"6305":{"zip_code":"6496305","prefecture":"和歌山県","prefecture_kana":"ワカヤマケン","city":"和歌山市","city_kana":"ワカヤマシ","town":"谷","town_kana":"タニ","prefecture_code":30},"6337":{"zip_code":"6496337","prefecture":"和歌山県","prefecture_kana":"ワカヤマケン","city":"和歌山市","city_kana":"ワカヤマシ","town":"田屋","town_kana":"タヤ","prefecture_code":30},"6304":{"zip_code":"6496304","prefecture":"和歌山県","prefecture_kana":"ワカヤマケン","city":"和歌山市","city_kana":"ワカヤマシ","town":"中筋日延","town_kana":"ナカスジヒノベ","prefecture_code":30},"6333":{"zip_code":"6496333","prefecture":"和歌山県","prefecture_kana":"ワカヤマケン","city":"和歌山市","city_kana":"ワカヤマシ","town":"永穂","town_kana":"ナンゴ","prefecture_code":30},"6335":{"zip_code":"6496335","prefecture":"和歌山県","prefecture_kana":"ワカヤマケン","city":"和歌山市","city_kana":"ワカヤマシ","town":"西田井","town_kana":"ニシタイ","prefecture_code":30},"6324":{"zip_code":"6496324","prefecture":"和歌山県","prefecture_kana":"ワカヤマケン","city":"和歌山市","city_kana":"ワカヤマシ","town":"祢宜","town_kana":"ネギ","prefecture_code":30},"6275":{"zip_code":"6496275","prefecture":"和歌山県","prefecture_kana":"ワカヤマケン","city":"和歌山市","city_kana":"ワカヤマシ","town":"吐前","town_kana":"ハンザキ","prefecture_code":30},"6273":{"zip_code":"6496273","prefecture":"和歌山県","prefecture_kana":"ワカヤマケン","city":"和歌山市","city_kana":"ワカヤマシ","town":"東田中","town_kana":"ヒガシタナカ","prefecture_code":30},"6303":{"zip_code":"6496303","prefecture":"和歌山県","prefecture_kana":"ワカヤマケン","city":"和歌山市","city_kana":"ワカヤマシ","town":"平岡","town_kana":"ヒラオカ","prefecture_code":30},"6339":{"zip_code":"6496339","prefecture":"和歌山県","prefecture_kana":"ワカヤマケン","city":"和歌山市","city_kana":"ワカヤマシ","town":"弘西","town_kana":"ヒロニシ","prefecture_code":30},"6318":{"zip_code":"6496318","prefecture":"和歌山県","prefecture_kana":"ワカヤマケン","city":"和歌山市","city_kana":"ワカヤマシ","town":"藤田","town_kana":"フジタ","prefecture_code":30},"6338":{"zip_code":"6496338","prefecture":"和歌山県","prefecture_kana":"ワカヤマケン","city":"和歌山市","city_kana":"ワカヤマシ","town":"府中","town_kana":"フチュウ","prefecture_code":30},"6321":{"zip_code":"6496321","prefecture":"和歌山県","prefecture_kana":"ワカヤマケン","city":"和歌山市","city_kana":"ワカヤマシ","town":"布施屋","town_kana":"ホシヤ","prefecture_code":30},"6271":{"zip_code":"6496271","prefecture":"和歌山県","prefecture_kana":"ワカヤマケン","city":"和歌山市","city_kana":"ワカヤマシ","town":"満屋","town_kana":"ミツヤ","prefecture_code":30},"6317":{"zip_code":"6496317","prefecture":"和歌山県","prefecture_kana":"ワカヤマケン","city":"和歌山市","city_kana":"ワカヤマシ","town":"山口西","town_kana":"ヤマグチニシ","prefecture_code":30},"6302":{"zip_code":"6496302","prefecture":"和歌山県","prefecture_kana":"ワカヤマケン","city":"和歌山市","city_kana":"ワカヤマシ","town":"湯屋谷","town_kana":"ユヤダニ","prefecture_code":30},"6322":{"zip_code":"6496322","prefecture":"和歌山県","prefecture_kana":"ワカヤマケン","city":"和歌山市","city_kana":"ワカヤマシ","town":"和佐関戸","town_kana":"ワサセキド","prefecture_code":30},"6326":{"zip_code":"6496326","prefecture":"和歌山県","prefecture_kana":"ワカヤマケン","city":"和歌山市","city_kana":"ワカヤマシ","town":"和佐中","town_kana":"ワサナカ","prefecture_code":30},"0147":{"zip_code":"6490147","prefecture":"和歌山県","prefecture_kana":"ワカヤマケン","city":"海南市","city_kana":"カイナンシ","town":"下津町青枝","town_kana":"シモツチョウアオシ","prefecture_code":30},"0145":{"zip_code":"6490145","prefecture":"和歌山県","prefecture_kana":"ワカヤマケン","city":"海南市","city_kana":"カイナンシ","town":"下津町市坪","town_kana":"シモツチョウイチツボ","prefecture_code":30},"0132":{"zip_code":"6490132","prefecture":"和歌山県","prefecture_kana":"ワカヤマケン","city":"海南市","city_kana":"カイナンシ","town":"下津町梅田","town_kana":"シモツチョウウメダ","prefecture_code":30},"0155":{"zip_code":"6490155","prefecture":"和歌山県","prefecture_kana":"ワカヤマケン","city":"海南市","city_kana":"カイナンシ","town":"下津町大窪","town_kana":"シモツチョウオオクボ","prefecture_code":30},"0112":{"zip_code":"6490112","prefecture":"和歌山県","prefecture_kana":"ワカヤマケン","city":"海南市","city_kana":"カイナンシ","town":"下津町大崎","town_kana":"シモツチョウオオサキ","prefecture_code":30},"0153":{"zip_code":"6490153","prefecture":"和歌山県","prefecture_kana":"ワカヤマケン","city":"海南市","city_kana":"カイナンシ","town":"下津町興","town_kana":"シモツチョウオキ","prefecture_code":30},"0162":{"zip_code":"6490162","prefecture":"和歌山県","prefecture_kana":"ワカヤマケン","city":"海南市","city_kana":"カイナンシ","town":"下津町小原","town_kana":"シモツチョウオバラ","prefecture_code":30},"0154":{"zip_code":"6490154","prefecture":"和歌山県","prefecture_kana":"ワカヤマケン","city":"海南市","city_kana":"カイナンシ","town":"下津町笠畑","town_kana":"シモツチョウカサバタ","prefecture_code":30},"0111":{"zip_code":"6490111","prefecture":"和歌山県","prefecture_kana":"ワカヤマケン","city":"海南市","city_kana":"カイナンシ","town":"下津町方","town_kana":"シモツチョウカタ","prefecture_code":30},"0164":{"zip_code":"6490164","prefecture":"和歌山県","prefecture_kana":"ワカヤマケン","city":"海南市","city_kana":"カイナンシ","town":"下津町上","town_kana":"シモツチョウカミ","prefecture_code":30},"0163":{"zip_code":"6490163","prefecture":"和歌山県","prefecture_kana":"ワカヤマケン","city":"海南市","city_kana":"カイナンシ","town":"下津町鰈川","town_kana":"シモツチョウカレガワ","prefecture_code":30},"0144":{"zip_code":"6490144","prefecture":"和歌山県","prefecture_kana":"ワカヤマケン","city":"海南市","city_kana":"カイナンシ","town":"下津町橘本","town_kana":"シモツチョウキツモト","prefecture_code":30},"0146":{"zip_code":"6490146","prefecture":"和歌山県","prefecture_kana":"ワカヤマケン","city":"海南市","city_kana":"カイナンシ","town":"下津町沓掛","town_kana":"シモツチョウクツカケ","prefecture_code":30},"0122":{"zip_code":"6490122","prefecture":"和歌山県","prefecture_kana":"ワカヤマケン","city":"海南市","city_kana":"カイナンシ","town":"下津町黒田","town_kana":"シモツチョウクロダ","prefecture_code":30},"0161":{"zip_code":"6490161","prefecture":"和歌山県","prefecture_kana":"ワカヤマケン","city":"海南市","city_kana":"カイナンシ","town":"下津町小畑","town_kana":"シモツチョウコバタ","prefecture_code":30},"0143":{"zip_code":"6490143","prefecture":"和歌山県","prefecture_kana":"ワカヤマケン","city":"海南市","city_kana":"カイナンシ","town":"下津町小松原","town_kana":"シモツチョウコマツバラ","prefecture_code":30},"0141":{"zip_code":"6490141","prefecture":"和歌山県","prefecture_kana":"ワカヤマケン","city":"海南市","city_kana":"カイナンシ","town":"下津町小南","town_kana":"シモツチョウコミナミ","prefecture_code":30},"0131":{"zip_code":"6490131","prefecture":"和歌山県","prefecture_kana":"ワカヤマケン","city":"海南市","city_kana":"カイナンシ","town":"下津町塩津","town_kana":"シモツチョウシオツ","prefecture_code":30},"0133":{"zip_code":"6490133","prefecture":"和歌山県","prefecture_kana":"ワカヤマケン","city":"海南市","city_kana":"カイナンシ","town":"下津町下","town_kana":"シモツチョウシモ","prefecture_code":30},"0101":{"zip_code":"6490101","prefecture":"和歌山県","prefecture_kana":"ワカヤマケン","city":"海南市","city_kana":"カイナンシ","town":"下津町下津","town_kana":"シモツチョウシモツ","prefecture_code":30},"0151":{"zip_code":"6490151","prefecture":"和歌山県","prefecture_kana":"ワカヤマケン","city":"海南市","city_kana":"カイナンシ","town":"下津町曽根田","town_kana":"シモツチョウソネダ","prefecture_code":30},"0142":{"zip_code":"6490142","prefecture":"和歌山県","prefecture_kana":"ワカヤマケン","city":"海南市","city_kana":"カイナンシ","town":"下津町中","town_kana":"シモツチョウナカ","prefecture_code":30},"0152":{"zip_code":"6490152","prefecture":"和歌山県","prefecture_kana":"ワカヤマケン","city":"海南市","city_kana":"カイナンシ","town":"下津町引尾","town_kana":"シモツチョウヒキオ","prefecture_code":30},"0121":{"zip_code":"6490121","prefecture":"和歌山県","prefecture_kana":"ワカヤマケン","city":"海南市","city_kana":"カイナンシ","town":"下津町丸田","town_kana":"シモツチョウマルダ","prefecture_code":30},"0156":{"zip_code":"6490156","prefecture":"和歌山県","prefecture_kana":"ワカヤマケン","city":"海南市","city_kana":"カイナンシ","town":"下津町百垣内","town_kana":"シモツチョウモモガイト","prefecture_code":30},"0123":{"zip_code":"6490123","prefecture":"和歌山県","prefecture_kana":"ワカヤマケン","city":"海南市","city_kana":"カイナンシ","town":"下津町丁","town_kana":"シモツチョウヨロ","prefecture_code":30},"7201":{"zip_code":"6497201","prefecture":"和歌山県","prefecture_kana":"ワカヤマケン","city":"橋本市","city_kana":"ハシモトシ","town":"高野口町応其","town_kana":"コウヤグチチョウオウゴ","prefecture_code":30},"7207":{"zip_code":"6497207","prefecture":"和歌山県","prefecture_kana":"ワカヤマケン","city":"橋本市","city_kana":"ハシモトシ","town":"高野口町大野","town_kana":"コウヤグチチョウオオノ","prefecture_code":30},"7204":{"zip_code":"6497204","prefecture":"和歌山県","prefecture_kana":"ワカヤマケン","city":"橋本市","city_kana":"ハシモトシ","town":"高野口町小田","town_kana":"コウヤグチチョウオダ","prefecture_code":30},"7212":{"zip_code":"6497212","prefecture":"和歌山県","prefecture_kana":"ワカヤマケン","city":"橋本市","city_kana":"ハシモトシ","town":"高野口町上中","town_kana":"コウヤグチチョウカミナカ","prefecture_code":30},"7215":{"zip_code":"6497215","prefecture":"和歌山県","prefecture_kana":"ワカヤマケン","city":"橋本市","city_kana":"ハシモトシ","town":"高野口町九重","town_kana":"コウヤグチチョウクジュウ","prefecture_code":30},"7213":{"zip_code":"6497213","prefecture":"和歌山県","prefecture_kana":"ワカヤマケン","city":"橋本市","city_kana":"ハシモトシ","town":"高野口町嵯峨谷","town_kana":"コウヤグチチョウサガタニ","prefecture_code":30},"7211":{"zip_code":"6497211","prefecture":"和歌山県","prefecture_kana":"ワカヤマケン","city":"橋本市","city_kana":"ハシモトシ","town":"高野口町下中","town_kana":"コウヤグチチョウシモナカ","prefecture_code":30},"7214":{"zip_code":"6497214","prefecture":"和歌山県","prefecture_kana":"ワカヤマケン","city":"橋本市","city_kana":"ハシモトシ","town":"高野口町竹尾","town_kana":"コウヤグチチョウタケオ","prefecture_code":30},"7216":{"zip_code":"6497216","prefecture":"和歌山県","prefecture_kana":"ワカヤマケン","city":"橋本市","city_kana":"ハシモトシ","town":"高野口町田原","town_kana":"コウヤグチチョウタハラ","prefecture_code":30},"7205":{"zip_code":"6497205","prefecture":"和歌山県","prefecture_kana":"ワカヤマケン","city":"橋本市","city_kana":"ハシモトシ","town":"高野口町名倉","town_kana":"コウヤグチチョウナグラ","prefecture_code":30},"7203":{"zip_code":"6497203","prefecture":"和歌山県","prefecture_kana":"ワカヤマケン","city":"橋本市","city_kana":"ハシモトシ","town":"高野口町名古曽","town_kana":"コウヤグチチョウナゴソ","prefecture_code":30},"7202":{"zip_code":"6497202","prefecture":"和歌山県","prefecture_kana":"ワカヤマケン","city":"橋本市","city_kana":"ハシモトシ","town":"高野口町伏原","town_kana":"コウヤグチチョウフシハラ","prefecture_code":30},"7206":{"zip_code":"6497206","prefecture":"和歌山県","prefecture_kana":"ワカヤマケン","city":"橋本市","city_kana":"ハシモトシ","town":"高野口町向島","town_kana":"コウヤグチチョウムコウジマ","prefecture_code":30},"0300":{"zip_code":"6490300","prefecture":"和歌山県","prefecture_kana":"ワカヤマケン","city":"有田市","city_kana":"アリダシ","town":"","town_kana":"","prefecture_code":30},"0421":{"zip_code":"6490421","prefecture":"和歌山県","prefecture_kana":"ワカヤマケン","city":"有田市","city_kana":"アリダシ","town":"糸我町中番","town_kana":"イトガチョウナカバン","prefecture_code":30},"0422":{"zip_code":"6490422","prefecture":"和歌山県","prefecture_kana":"ワカヤマケン","city":"有田市","city_kana":"アリダシ","town":"糸我町西","town_kana":"イトガチョウニシ","prefecture_code":30},"0317":{"zip_code":"6490317","prefecture":"和歌山県","prefecture_kana":"ワカヤマケン","city":"有田市","city_kana":"アリダシ","town":"古江見","town_kana":"コエミ","prefecture_code":30},"0301":{"zip_code":"6490301","prefecture":"和歌山県","prefecture_kana":"ワカヤマケン","city":"有田市","city_kana":"アリダシ","town":"下中島","town_kana":"シモナカシマ","prefecture_code":30},"0303":{"zip_code":"6490303","prefecture":"和歌山県","prefecture_kana":"ワカヤマケン","city":"有田市","city_kana":"アリダシ","town":"新堂","town_kana":"シンドウ","prefecture_code":30},"0313":{"zip_code":"6490313","prefecture":"和歌山県","prefecture_kana":"ワカヤマケン","city":"有田市","city_kana":"アリダシ","town":"千田","town_kana":"チダ","prefecture_code":30},"0311":{"zip_code":"6490311","prefecture":"和歌山県","prefecture_kana":"ワカヤマケン","city":"有田市","city_kana":"アリダシ","town":"辻堂","town_kana":"ツジドウ","prefecture_code":30},"0314":{"zip_code":"6490314","prefecture":"和歌山県","prefecture_kana":"ワカヤマケン","city":"有田市","city_kana":"アリダシ","town":"野","town_kana":"ノ","prefecture_code":30},"0307":{"zip_code":"6490307","prefecture":"和歌山県","prefecture_kana":"ワカヤマケン","city":"有田市","city_kana":"アリダシ","town":"初島町里","town_kana":"ハツシマチョウサト","prefecture_code":30},"0306":{"zip_code":"6490306","prefecture":"和歌山県","prefecture_kana":"ワカヤマケン","city":"有田市","city_kana":"アリダシ","town":"初島町浜","town_kana":"ハツシマチョウハマ","prefecture_code":30},"0312":{"zip_code":"6490312","prefecture":"和歌山県","prefecture_kana":"ワカヤマケン","city":"有田市","city_kana":"アリダシ","town":"星尾","town_kana":"ホシオ","prefecture_code":30},"0305":{"zip_code":"6490305","prefecture":"和歌山県","prefecture_kana":"ワカヤマケン","city":"有田市","city_kana":"アリダシ","town":"港町","town_kana":"ミナトマチ","prefecture_code":30},"0304":{"zip_code":"6490304","prefecture":"和歌山県","prefecture_kana":"ワカヤマケン","city":"有田市","city_kana":"アリダシ","town":"箕島","town_kana":"ミノシマ","prefecture_code":30},"0316":{"zip_code":"6490316","prefecture":"和歌山県","prefecture_kana":"ワカヤマケン","city":"有田市","city_kana":"アリダシ","town":"宮崎町","town_kana":"ミヤザキチョウ","prefecture_code":30},"0434":{"zip_code":"6490434","prefecture":"和歌山県","prefecture_kana":"ワカヤマケン","city":"有田市","city_kana":"アリダシ","town":"宮原町新町","town_kana":"ミヤハラチョウシンマチ","prefecture_code":30},"0433":{"zip_code":"6490433","prefecture":"和歌山県","prefecture_kana":"ワカヤマケン","city":"有田市","city_kana":"アリダシ","town":"宮原町須谷","town_kana":"ミヤハラチョウスガイ","prefecture_code":30},"0437":{"zip_code":"6490437","prefecture":"和歌山県","prefecture_kana":"ワカヤマケン","city":"有田市","city_kana":"アリダシ","town":"宮原町滝","town_kana":"ミヤハラチョウタキ","prefecture_code":30},"0435":{"zip_code":"6490435","prefecture":"和歌山県","prefecture_kana":"ワカヤマケン","city":"有田市","city_kana":"アリダシ","town":"宮原町滝川原","town_kana":"ミヤハラチョウタキガハラ","prefecture_code":30},"0436":{"zip_code":"6490436","prefecture":"和歌山県","prefecture_kana":"ワカヤマケン","city":"有田市","city_kana":"アリダシ","town":"宮原町道","town_kana":"ミヤハラチョウドウ","prefecture_code":30},"0431":{"zip_code":"6490431","prefecture":"和歌山県","prefecture_kana":"ワカヤマケン","city":"有田市","city_kana":"アリダシ","town":"宮原町畑","town_kana":"ミヤハラチョウハタ","prefecture_code":30},"0432":{"zip_code":"6490432","prefecture":"和歌山県","prefecture_kana":"ワカヤマケン","city":"有田市","city_kana":"アリダシ","town":"宮原町東","town_kana":"ミヤハラチョウヒガシ","prefecture_code":30},"0302":{"zip_code":"6490302","prefecture":"和歌山県","prefecture_kana":"ワカヤマケン","city":"有田市","city_kana":"アリダシ","town":"山田原","town_kana":"ヤマダハラ","prefecture_code":30},"0315":{"zip_code":"6490315","prefecture":"和歌山県","prefecture_kana":"ワカヤマケン","city":"有田市","city_kana":"アリダシ","town":"山地","town_kana":"ヤマチ","prefecture_code":30},"1341":{"zip_code":"6491341","prefecture":"和歌山県","prefecture_kana":"ワカヤマケン","city":"御坊市","city_kana":"ゴボウシ","town":"藤田町藤井","town_kana":"フジタチョウフジイ","prefecture_code":30},"1342":{"zip_code":"6491342","prefecture":"和歌山県","prefecture_kana":"ワカヤマケン","city":"御坊市","city_kana":"ゴボウシ","town":"藤田町吉田","town_kana":"フジタチョウヨシダ","prefecture_code":30},"6400":{"zip_code":"6496400","prefecture":"和歌山県","prefecture_kana":"ワカヤマケン","city":"紀の川市","city_kana":"キノカワシ","town":"","town_kana":"","prefecture_code":30},"6404":{"zip_code":"6496404","prefecture":"和歌山県","prefecture_kana":"ワカヤマケン","city":"紀の川市","city_kana":"キノカワシ","town":"赤尾","town_kana":"アカオ","prefecture_code":30},"6614":{"zip_code":"6496614","prefecture":"和歌山県","prefecture_kana":"ワカヤマケン","city":"紀の川市","city_kana":"キノカワシ","town":"赤沼田","town_kana":"アカンタ","prefecture_code":30},"6611":{"zip_code":"6496611","prefecture":"和歌山県","prefecture_kana":"ワカヤマケン","city":"紀の川市","city_kana":"キノカワシ","town":"穴伏","town_kana":"アナブシ","prefecture_code":30},"6561":{"zip_code":"6496561","prefecture":"和歌山県","prefecture_kana":"ワカヤマケン","city":"紀の川市","city_kana":"キノカワシ","town":"荒見","town_kana":"アラミ","prefecture_code":30},"6407":{"zip_code":"6496407","prefecture":"和歌山県","prefecture_kana":"ワカヤマケン","city":"紀の川市","city_kana":"キノカワシ","town":"池田新","town_kana":"イケダシン","prefecture_code":30},"6541":{"zip_code":"6496541","prefecture":"和歌山県","prefecture_kana":"ワカヤマケン","city":"紀の川市","city_kana":"キノカワシ","town":"井田","town_kana":"イダ","prefecture_code":30},"6511":{"zip_code":"6496511","prefecture":"和歌山県","prefecture_kana":"ワカヤマケン","city":"紀の川市","city_kana":"キノカワシ","town":"猪垣","town_kana":"イノカケ","prefecture_code":30},"6416":{"zip_code":"6496416","prefecture":"和歌山県","prefecture_kana":"ワカヤマケン","city":"紀の川市","city_kana":"キノカワシ","town":"上野","town_kana":"ウエノ","prefecture_code":30},"6414":{"zip_code":"6496414","prefecture":"和歌山県","prefecture_kana":"ワカヤマケン","city":"紀の川市","city_kana":"キノカワシ","town":"打田","town_kana":"ウチタ","prefecture_code":30},"6521":{"zip_code":"6496521","prefecture":"和歌山県","prefecture_kana":"ワカヤマケン","city":"紀の川市","city_kana":"キノカワシ","town":"馬宿","town_kana":"ウマヤド","prefecture_code":30},"6605":{"zip_code":"6496605","prefecture":"和歌山県","prefecture_kana":"ワカヤマケン","city":"紀の川市","city_kana":"キノカワシ","town":"江川中","town_kana":"エカワナカ","prefecture_code":30},"6624":{"zip_code":"6496624","prefecture":"和歌山県","prefecture_kana":"ワカヤマケン","city":"紀の川市","city_kana":"キノカワシ","town":"王子","town_kana":"オウジ","prefecture_code":30},"6615":{"zip_code":"6496615","prefecture":"和歌山県","prefecture_kana":"ワカヤマケン","city":"紀の川市","city_kana":"キノカワシ","town":"麻生津中","town_kana":"オウヅナカ","prefecture_code":30},"6423":{"zip_code":"6496423","prefecture":"和歌山県","prefecture_kana":"ワカヤマケン","city":"紀の川市","city_kana":"キノカワシ","town":"尾崎","town_kana":"オザキ","prefecture_code":30},"6562":{"zip_code":"6496562","prefecture":"和歌山県","prefecture_kana":"ワカヤマケン","city":"紀の川市","city_kana":"キノカワシ","town":"遠方","town_kana":"オチカタ","prefecture_code":30},"6563":{"zip_code":"6496563","prefecture":"和歌山県","prefecture_kana":"ワカヤマケン","city":"紀の川市","city_kana":"キノカワシ","town":"風市","town_kana":"カザシ","prefecture_code":30},"6564":{"zip_code":"6496564","prefecture":"和歌山県","prefecture_kana":"ワカヤマケン","city":"紀の川市","city_kana":"キノカワシ","town":"勝神","town_kana":"カスカミ","prefecture_code":30},"6571":{"zip_code":"6496571","prefecture":"和歌山県","prefecture_kana":"ワカヤマケン","city":"紀の川市","city_kana":"キノカワシ","town":"上鞆渕","town_kana":"カミトモブチ","prefecture_code":30},"6522":{"zip_code":"6496522","prefecture":"和歌山県","prefecture_kana":"ワカヤマケン","city":"紀の川市","city_kana":"キノカワシ","town":"上丹生谷","town_kana":"カミニュウヤ","prefecture_code":30},"6406":{"zip_code":"6496406","prefecture":"和歌山県","prefecture_kana":"ワカヤマケン","city":"紀の川市","city_kana":"キノカワシ","town":"北大井","town_kana":"キタオオイ","prefecture_code":30},"6501":{"zip_code":"6496501","prefecture":"和歌山県","prefecture_kana":"ワカヤマケン","city":"紀の川市","city_kana":"キノカワシ","town":"北志野","town_kana":"キタシノ","prefecture_code":30},"6402":{"zip_code":"6496402","prefecture":"和歌山県","prefecture_kana":"ワカヤマケン","city":"紀の川市","city_kana":"キノカワシ","town":"北勢田","town_kana":"キタセイダ","prefecture_code":30},"6443":{"zip_code":"6496443","prefecture":"和歌山県","prefecture_kana":"ワカヤマケン","city":"紀の川市","city_kana":"キノカワシ","town":"北中","town_kana":"キタナカ","prefecture_code":30},"6502":{"zip_code":"6496502","prefecture":"和歌山県","prefecture_kana":"ワカヤマケン","city":"紀の川市","city_kana":"キノカワシ","town":"北長田","town_kana":"キタナガタ","prefecture_code":30},"6612":{"zip_code":"6496612","prefecture":"和歌山県","prefecture_kana":"ワカヤマケン","city":"紀の川市","city_kana":"キノカワシ","town":"北涌","town_kana":"キタワキ","prefecture_code":30},"6606":{"zip_code":"6496606","prefecture":"和歌山県","prefecture_kana":"ワカヤマケン","city":"紀の川市","city_kana":"キノカワシ","town":"切畑","town_kana":"キリハタ","prefecture_code":30},"6415":{"zip_code":"6496415","prefecture":"和歌山県","prefecture_kana":"ワカヤマケン","city":"紀の川市","city_kana":"キノカワシ","town":"窪","town_kana":"クボ","prefecture_code":30},"6418":{"zip_code":"6496418","prefecture":"和歌山県","prefecture_kana":"ワカヤマケン","city":"紀の川市","city_kana":"キノカワシ","town":"久留壁","town_kana":"クルベキ","prefecture_code":30},"6412":{"zip_code":"6496412","prefecture":"和歌山県","prefecture_kana":"ワカヤマケン","city":"紀の川市","city_kana":"キノカワシ","town":"黒土","town_kana":"クロツチ","prefecture_code":30},"6422":{"zip_code":"6496422","prefecture":"和歌山県","prefecture_kana":"ワカヤマケン","city":"紀の川市","city_kana":"キノカワシ","town":"花野","town_kana":"ケヤ","prefecture_code":30},"6551":{"zip_code":"6496551","prefecture":"和歌山県","prefecture_kana":"ワカヤマケン","city":"紀の川市","city_kana":"キノカワシ","town":"上田井","town_kana":"コウダイ","prefecture_code":30},"6531":{"zip_code":"6496531","prefecture":"和歌山県","prefecture_kana":"ワカヤマケン","city":"紀の川市","city_kana":"キノカワシ","town":"粉河","town_kana":"コカワ","prefecture_code":30},"6401":{"zip_code":"6496401","prefecture":"和歌山県","prefecture_kana":"ワカヤマケン","city":"紀の川市","city_kana":"キノカワシ","town":"重行","town_kana":"シゲキ","prefecture_code":30},"6552":{"zip_code":"6496552","prefecture":"和歌山県","prefecture_kana":"ワカヤマケン","city":"紀の川市","city_kana":"キノカワシ","town":"嶋","town_kana":"シマ","prefecture_code":30},"6426":{"zip_code":"6496426","prefecture":"和歌山県","prefecture_kana":"ワカヤマケン","city":"紀の川市","city_kana":"キノカワシ","town":"下井阪","town_kana":"シモイサカ","prefecture_code":30},"6572":{"zip_code":"6496572","prefecture":"和歌山県","prefecture_kana":"ワカヤマケン","city":"紀の川市","city_kana":"キノカワシ","town":"下鞆渕","town_kana":"シモトモブチ","prefecture_code":30},"6523":{"zip_code":"6496523","prefecture":"和歌山県","prefecture_kana":"ワカヤマケン","city":"紀の川市","city_kana":"キノカワシ","town":"下丹生谷","town_kana":"シモニュウヤ","prefecture_code":30},"6622":{"zip_code":"6496622","prefecture":"和歌山県","prefecture_kana":"ワカヤマケン","city":"紀の川市","city_kana":"キノカワシ","town":"後田","town_kana":"シレダ","prefecture_code":30},"6451":{"zip_code":"6496451","prefecture":"和歌山県","prefecture_kana":"ワカヤマケン","city":"紀の川市","city_kana":"キノカワシ","town":"神通","town_kana":"ジンヅウ","prefecture_code":30},"6442":{"zip_code":"6496442","prefecture":"和歌山県","prefecture_kana":"ワカヤマケン","city":"紀の川市","city_kana":"キノカワシ","town":"神領","town_kana":"ジンリョウ","prefecture_code":30},"6565":{"zip_code":"6496565","prefecture":"和歌山県","prefecture_kana":"ワカヤマケン","city":"紀の川市","city_kana":"キノカワシ","town":"杉原","town_kana":"スイバラ","prefecture_code":30},"6161":{"zip_code":"6496161","prefecture":"和歌山県","prefecture_kana":"ワカヤマケン","city":"紀の川市","city_kana":"キノカワシ","town":"高野","town_kana":"タカノ","prefecture_code":30},"6413":{"zip_code":"6496413","prefecture":"和歌山県","prefecture_kana":"ワカヤマケン","city":"紀の川市","city_kana":"キノカワシ","town":"竹房","town_kana":"タケブサ","prefecture_code":30},"6162":{"zip_code":"6496162","prefecture":"和歌山県","prefecture_kana":"ワカヤマケン","city":"紀の川市","city_kana":"キノカワシ","town":"竹房","town_kana":"タケブサ","prefecture_code":30},"6421":{"zip_code":"6496421","prefecture":"和歌山県","prefecture_kana":"ワカヤマケン","city":"紀の川市","city_kana":"キノカワシ","town":"田中馬場","town_kana":"タナカババ","prefecture_code":30},"6512":{"zip_code":"6496512","prefecture":"和歌山県","prefecture_kana":"ワカヤマケン","city":"紀の川市","city_kana":"キノカワシ","town":"東毛","town_kana":"トウゲ","prefecture_code":30},"6445":{"zip_code":"6496445","prefecture":"和歌山県","prefecture_kana":"ワカヤマケン","city":"紀の川市","city_kana":"キノカワシ","town":"豊田","town_kana":"トヨダ","prefecture_code":30},"6425":{"zip_code":"6496425","prefecture":"和歌山県","prefecture_kana":"ワカヤマケン","city":"紀の川市","city_kana":"キノカワシ","town":"中井阪","town_kana":"ナカイサカ","prefecture_code":30},"6503":{"zip_code":"6496503","prefecture":"和歌山県","prefecture_kana":"ワカヤマケン","city":"紀の川市","city_kana":"キノカワシ","town":"長田中","town_kana":"ナガタナカ","prefecture_code":30},"6513":{"zip_code":"6496513","prefecture":"和歌山県","prefecture_kana":"ワカヤマケン","city":"紀の川市","city_kana":"キノカワシ","town":"中津川","town_kana":"ナカツガワ","prefecture_code":30},"6573":{"zip_code":"6496573","prefecture":"和歌山県","prefecture_kana":"ワカヤマケン","city":"紀の川市","city_kana":"キノカワシ","town":"中鞆渕","town_kana":"ナカトモブチ","prefecture_code":30},"6452":{"zip_code":"6496452","prefecture":"和歌山県","prefecture_kana":"ワカヤマケン","city":"紀の川市","city_kana":"キノカワシ","town":"中畑","town_kana":"ナカハタ","prefecture_code":30},"6434":{"zip_code":"6496434","prefecture":"和歌山県","prefecture_kana":"ワカヤマケン","city":"紀の川市","city_kana":"キノカワシ","town":"中三谷","town_kana":"ナカミタニ","prefecture_code":30},"6532":{"zip_code":"6496532","prefecture":"和歌山県","prefecture_kana":"ワカヤマケン","city":"紀の川市","city_kana":"キノカワシ","town":"中山","town_kana":"ナカヤマ","prefecture_code":30},"6631":{"zip_code":"6496631","prefecture":"和歌山県","prefecture_kana":"ワカヤマケン","city":"紀の川市","city_kana":"キノカワシ","town":"名手市場","town_kana":"ナテイチバ","prefecture_code":30},"6601":{"zip_code":"6496601","prefecture":"和歌山県","prefecture_kana":"ワカヤマケン","city":"紀の川市","city_kana":"キノカワシ","town":"名手上","town_kana":"ナテカミ","prefecture_code":30},"6603":{"zip_code":"6496603","prefecture":"和歌山県","prefecture_kana":"ワカヤマケン","city":"紀の川市","city_kana":"キノカワシ","town":"名手下","town_kana":"ナテシモ","prefecture_code":30},"6621":{"zip_code":"6496621","prefecture":"和歌山県","prefecture_kana":"ワカヤマケン","city":"紀の川市","city_kana":"キノカワシ","town":"名手西野","town_kana":"ナテニシノ","prefecture_code":30},"6427":{"zip_code":"6496427","prefecture":"和歌山県","prefecture_kana":"ワカヤマケン","city":"紀の川市","city_kana":"キノカワシ","town":"西井阪","town_kana":"ニシイサカ","prefecture_code":30},"6417":{"zip_code":"6496417","prefecture":"和歌山県","prefecture_kana":"ワカヤマケン","city":"紀の川市","city_kana":"キノカワシ","town":"西大井","town_kana":"ニシオオイ","prefecture_code":30},"6524":{"zip_code":"6496524","prefecture":"和歌山県","prefecture_kana":"ワカヤマケン","city":"紀の川市","city_kana":"キノカワシ","town":"西川原","town_kana":"ニシカワハラ","prefecture_code":30},"6604":{"zip_code":"6496604","prefecture":"和歌山県","prefecture_kana":"ワカヤマケン","city":"紀の川市","city_kana":"キノカワシ","town":"西野山","town_kana":"ニシノヤマ","prefecture_code":30},"6433":{"zip_code":"6496433","prefecture":"和歌山県","prefecture_kana":"ワカヤマケン","city":"紀の川市","city_kana":"キノカワシ","town":"西三谷","town_kana":"ニシミタニ","prefecture_code":30},"6447":{"zip_code":"6496447","prefecture":"和歌山県","prefecture_kana":"ワカヤマケン","city":"紀の川市","city_kana":"キノカワシ","town":"西山田","town_kana":"ニシヤマダ","prefecture_code":30},"6616":{"zip_code":"6496616","prefecture":"和歌山県","prefecture_kana":"ワカヤマケン","city":"紀の川市","city_kana":"キノカワシ","town":"西脇","town_kana":"ニシワキ","prefecture_code":30},"6525":{"zip_code":"6496525","prefecture":"和歌山県","prefecture_kana":"ワカヤマケン","city":"紀の川市","city_kana":"キノカワシ","town":"野上","town_kana":"ノガミ","prefecture_code":30},"6444":{"zip_code":"6496444","prefecture":"和歌山県","prefecture_kana":"ワカヤマケン","city":"紀の川市","city_kana":"キノカワシ","town":"登尾","town_kana":"ノボリオ","prefecture_code":30},"6424":{"zip_code":"6496424","prefecture":"和歌山県","prefecture_kana":"ワカヤマケン","city":"紀の川市","city_kana":"キノカワシ","town":"畑野上","town_kana":"ハタノウエ","prefecture_code":30},"6405":{"zip_code":"6496405","prefecture":"和歌山県","prefecture_kana":"ワカヤマケン","city":"紀の川市","city_kana":"キノカワシ","town":"東大井","town_kana":"ヒガシオオイ","prefecture_code":30},"6526":{"zip_code":"6496526","prefecture":"和歌山県","prefecture_kana":"ワカヤマケン","city":"紀の川市","city_kana":"キノカワシ","town":"東川原","town_kana":"ヒガシカワハラ","prefecture_code":30},"6428":{"zip_code":"6496428","prefecture":"和歌山県","prefecture_kana":"ワカヤマケン","city":"紀の川市","city_kana":"キノカワシ","town":"東国分","town_kana":"ヒガシコクブ","prefecture_code":30},"6542":{"zip_code":"6496542","prefecture":"和歌山県","prefecture_kana":"ワカヤマケン","city":"紀の川市","city_kana":"キノカワシ","town":"東野","town_kana":"ヒガシノ","prefecture_code":30},"6435":{"zip_code":"6496435","prefecture":"和歌山県","prefecture_kana":"ワカヤマケン","city":"紀の川市","city_kana":"キノカワシ","town":"東三谷","town_kana":"ヒガシミタニ","prefecture_code":30},"6441":{"zip_code":"6496441","prefecture":"和歌山県","prefecture_kana":"ワカヤマケン","city":"紀の川市","city_kana":"キノカワシ","town":"東山田","town_kana":"ヒガシヤマダ","prefecture_code":30},"6602":{"zip_code":"6496602","prefecture":"和歌山県","prefecture_kana":"ワカヤマケン","city":"紀の川市","city_kana":"キノカワシ","town":"平野","town_kana":"ヒラノ","prefecture_code":30},"6411":{"zip_code":"6496411","prefecture":"和歌山県","prefecture_kana":"ワカヤマケン","city":"紀の川市","city_kana":"キノカワシ","town":"広野","town_kana":"ヒロノ","prefecture_code":30},"6446":{"zip_code":"6496446","prefecture":"和歌山県","prefecture_kana":"ワカヤマケン","city":"紀の川市","city_kana":"キノカワシ","town":"枇杷谷","town_kana":"ビワダニ","prefecture_code":30},"6553":{"zip_code":"6496553","prefecture":"和歌山県","prefecture_kana":"ワカヤマケン","city":"紀の川市","city_kana":"キノカワシ","town":"深田","town_kana":"フケダ","prefecture_code":30},"6514":{"zip_code":"6496514","prefecture":"和歌山県","prefecture_kana":"ワカヤマケン","city":"紀の川市","city_kana":"キノカワシ","town":"藤井","town_kana":"フジイ","prefecture_code":30},"6623":{"zip_code":"6496623","prefecture":"和歌山県","prefecture_kana":"ワカヤマケン","city":"紀の川市","city_kana":"キノカワシ","town":"藤崎","town_kana":"フジサキ","prefecture_code":30},"6432":{"zip_code":"6496432","prefecture":"和歌山県","prefecture_kana":"ワカヤマケン","city":"紀の川市","city_kana":"キノカワシ","town":"古和田","town_kana":"フルワダ","prefecture_code":30},"6554":{"zip_code":"6496554","prefecture":"和歌山県","prefecture_kana":"ワカヤマケン","city":"紀の川市","city_kana":"キノカワシ","town":"別所","town_kana":"ベッシヨ","prefecture_code":30},"6555":{"zip_code":"6496555","prefecture":"和歌山県","prefecture_kana":"ワカヤマケン","city":"紀の川市","city_kana":"キノカワシ","town":"松井","town_kana":"マツイ","prefecture_code":30},"6504":{"zip_code":"6496504","prefecture":"和歌山県","prefecture_kana":"ワカヤマケン","city":"紀の川市","city_kana":"キノカワシ","town":"南志野","town_kana":"ミナミシノ","prefecture_code":30},"6403":{"zip_code":"6496403","prefecture":"和歌山県","prefecture_kana":"ワカヤマケン","city":"紀の川市","city_kana":"キノカワシ","town":"南勢田","town_kana":"ミナミセイダ","prefecture_code":30},"6431":{"zip_code":"6496431","prefecture":"和歌山県","prefecture_kana":"ワカヤマケン","city":"紀の川市","city_kana":"キノカワシ","town":"南中","town_kana":"ミナミナカ","prefecture_code":30},"6124":{"zip_code":"6496124","prefecture":"和歌山県","prefecture_kana":"ワカヤマケン","city":"紀の川市","city_kana":"キノカワシ","town":"桃山町市場","town_kana":"モモヤマチョウイチバ","prefecture_code":30},"6105":{"zip_code":"6496105","prefecture":"和歌山県","prefecture_kana":"ワカヤマケン","city":"紀の川市","city_kana":"キノカワシ","town":"桃山町大原","town_kana":"モモヤマチョウオオバラ","prefecture_code":30},"6102":{"zip_code":"6496102","prefecture":"和歌山県","prefecture_kana":"ワカヤマケン","city":"紀の川市","city_kana":"キノカワシ","town":"桃山町黒川","town_kana":"モモヤマチョウクロカワ","prefecture_code":30},"6123":{"zip_code":"6496123","prefecture":"和歌山県","prefecture_kana":"ワカヤマケン","city":"紀の川市","city_kana":"キノカワシ","town":"桃山町神田","town_kana":"モモヤマチョウコウダ","prefecture_code":30},"6101":{"zip_code":"6496101","prefecture":"和歌山県","prefecture_kana":"ワカヤマケン","city":"紀の川市","city_kana":"キノカワシ","town":"桃山町善田","town_kana":"モモヤマチョウゼンダ","prefecture_code":30},"6125":{"zip_code":"6496125","prefecture":"和歌山県","prefecture_kana":"ワカヤマケン","city":"紀の川市","city_kana":"キノカワシ","town":"桃山町段","town_kana":"モモヤマチョウダン","prefecture_code":30},"6121":{"zip_code":"6496121","prefecture":"和歌山県","prefecture_kana":"ワカヤマケン","city":"紀の川市","city_kana":"キノカワシ","town":"桃山町段新田","town_kana":"モモヤマチョウダンシンデン","prefecture_code":30},"6112":{"zip_code":"6496112","prefecture":"和歌山県","prefecture_kana":"ワカヤマケン","city":"紀の川市","city_kana":"キノカワシ","town":"桃山町調月","town_kana":"モモヤマチョウツカツキ","prefecture_code":30},"6103":{"zip_code":"6496103","prefecture":"和歌山県","prefecture_kana":"ワカヤマケン","city":"紀の川市","city_kana":"キノカワシ","town":"桃山町野田原","town_kana":"モモヤマチョウノタハラ","prefecture_code":30},"6111":{"zip_code":"6496111","prefecture":"和歌山県","prefecture_kana":"ワカヤマケン","city":"紀の川市","city_kana":"キノカワシ","town":"桃山町最上","town_kana":"モモヤマチョウモガミ","prefecture_code":30},"6122":{"zip_code":"6496122","prefecture":"和歌山県","prefecture_kana":"ワカヤマケン","city":"紀の川市","city_kana":"キノカワシ","town":"桃山町元","town_kana":"モモヤマチョウモト","prefecture_code":30},"6104":{"zip_code":"6496104","prefecture":"和歌山県","prefecture_kana":"ワカヤマケン","city":"紀の川市","city_kana":"キノカワシ","town":"桃山町脇谷","town_kana":"モモヤマチョウワキダニ","prefecture_code":30},"6613":{"zip_code":"6496613","prefecture":"和歌山県","prefecture_kana":"ワカヤマケン","city":"紀の川市","city_kana":"キノカワシ","town":"横谷","town_kana":"ヨコダニ","prefecture_code":30},"6200":{"zip_code":"6496200","prefecture":"和歌山県","prefecture_kana":"ワカヤマケン","city":"岩出市","city_kana":"イワデシ","town":"","town_kana":"","prefecture_code":30},"6257":{"zip_code":"6496257","prefecture":"和歌山県","prefecture_kana":"ワカヤマケン","city":"岩出市","city_kana":"イワデシ","town":"相谷","town_kana":"アイダニ","prefecture_code":30},"6242":{"zip_code":"6496242","prefecture":"和歌山県","prefecture_kana":"ワカヤマケン","city":"岩出市","city_kana":"イワデシ","town":"赤垣内","town_kana":"アカガイト","prefecture_code":30},"6207":{"zip_code":"6496207","prefecture":"和歌山県","prefecture_kana":"ワカヤマケン","city":"岩出市","city_kana":"イワデシ","town":"尼ケ辻","town_kana":"アマガツジ","prefecture_code":30},"6252":{"zip_code":"6496252","prefecture":"和歌山県","prefecture_kana":"ワカヤマケン","city":"岩出市","city_kana":"イワデシ","town":"安上","town_kana":"アンジョウ","prefecture_code":30},"6232":{"zip_code":"6496232","prefecture":"和歌山県","prefecture_kana":"ワカヤマケン","city":"岩出市","city_kana":"イワデシ","town":"荊本","town_kana":"イバラモト","prefecture_code":30},"6204":{"zip_code":"6496204","prefecture":"和歌山県","prefecture_kana":"ワカヤマケン","city":"岩出市","city_kana":"イワデシ","town":"今中","town_kana":"イマナカ","prefecture_code":30},"6208":{"zip_code":"6496208","prefecture":"和歌山県","prefecture_kana":"ワカヤマケン","city":"岩出市","city_kana":"イワデシ","town":"今畑","town_kana":"イマハタ","prefecture_code":30},"6228":{"zip_code":"6496228","prefecture":"和歌山県","prefecture_kana":"ワカヤマケン","city":"岩出市","city_kana":"イワデシ","town":"大町","town_kana":"オオマチ","prefecture_code":30},"6222":{"zip_code":"6496222","prefecture":"和歌山県","prefecture_kana":"ワカヤマケン","city":"岩出市","city_kana":"イワデシ","town":"岡田","town_kana":"オカダ","prefecture_code":30},"6201":{"zip_code":"6496201","prefecture":"和歌山県","prefecture_kana":"ワカヤマケン","city":"岩出市","city_kana":"イワデシ","town":"押川","town_kana":"オシガワ","prefecture_code":30},"6256":{"zip_code":"6496256","prefecture":"和歌山県","prefecture_kana":"ワカヤマケン","city":"岩出市","city_kana":"イワデシ","town":"金池","town_kana":"カナイケ","prefecture_code":30},"6243":{"zip_code":"6496243","prefecture":"和歌山県","prefecture_kana":"ワカヤマケン","city":"岩出市","city_kana":"イワデシ","town":"金屋","town_kana":"カナヤ","prefecture_code":30},"6231":{"zip_code":"6496231","prefecture":"和歌山県","prefecture_kana":"ワカヤマケン","city":"岩出市","city_kana":"イワデシ","town":"川尻","town_kana":"カワシリ","prefecture_code":30},"6253":{"zip_code":"6496253","prefecture":"和歌山県","prefecture_kana":"ワカヤマケン","city":"岩出市","city_kana":"イワデシ","town":"紀泉台","town_kana":"キセンダイ","prefecture_code":30},"6219":{"zip_code":"6496219","prefecture":"和歌山県","prefecture_kana":"ワカヤマケン","city":"岩出市","city_kana":"イワデシ","town":"北大池","town_kana":"キタオイケ","prefecture_code":30},"6251":{"zip_code":"6496251","prefecture":"和歌山県","prefecture_kana":"ワカヤマケン","city":"岩出市","city_kana":"イワデシ","town":"境谷","town_kana":"サカイダニ","prefecture_code":30},"6203":{"zip_code":"6496203","prefecture":"和歌山県","prefecture_kana":"ワカヤマケン","city":"岩出市","city_kana":"イワデシ","town":"桜台","town_kana":"サクラダイ","prefecture_code":30},"6227":{"zip_code":"6496227","prefecture":"和歌山県","prefecture_kana":"ワカヤマケン","city":"岩出市","city_kana":"イワデシ","town":"清水","town_kana":"シミズ","prefecture_code":30},"6212":{"zip_code":"6496212","prefecture":"和歌山県","prefecture_kana":"ワカヤマケン","city":"岩出市","city_kana":"イワデシ","town":"新田広芝","town_kana":"シンデンヒロシバ","prefecture_code":30},"6236":{"zip_code":"6496236","prefecture":"和歌山県","prefecture_kana":"ワカヤマケン","city":"岩出市","city_kana":"イワデシ","town":"曽屋","town_kana":"ソウヤ","prefecture_code":30},"6234":{"zip_code":"6496234","prefecture":"和歌山県","prefecture_kana":"ワカヤマケン","city":"岩出市","city_kana":"イワデシ","town":"高瀬","town_kana":"タカセ","prefecture_code":30},"6223":{"zip_code":"6496223","prefecture":"和歌山県","prefecture_kana":"ワカヤマケン","city":"岩出市","city_kana":"イワデシ","town":"高塚","town_kana":"タカツカ","prefecture_code":30},"6248":[{"zip_code":"6496248","prefecture":"和歌山県","prefecture_kana":"ワカヤマケン","city":"岩出市","city_kana":"イワデシ","town":"中黒","town_kana":"ナカクロ","prefecture_code":30},{"zip_code":"6496248","prefecture":"和歌山県","prefecture_kana":"ワカヤマケン","city":"岩出市","city_kana":"イワデシ","town":"湯窪","town_kana":"ユクボ","prefecture_code":30}],"6245":{"zip_code":"6496245","prefecture":"和歌山県","prefecture_kana":"ワカヤマケン","city":"岩出市","city_kana":"イワデシ","town":"中島","town_kana":"ナカジマ","prefecture_code":30},"6215":{"zip_code":"6496215","prefecture":"和歌山県","prefecture_kana":"ワカヤマケン","city":"岩出市","city_kana":"イワデシ","town":"中迫","town_kana":"ナカブサ","prefecture_code":30},"6255":{"zip_code":"6496255","prefecture":"和歌山県","prefecture_kana":"ワカヤマケン","city":"岩出市","city_kana":"イワデシ","town":"西安上","town_kana":"ニシアンジョウ","prefecture_code":30},"6213":{"zip_code":"6496213","prefecture":"和歌山県","prefecture_kana":"ワカヤマケン","city":"岩出市","city_kana":"イワデシ","town":"西国分","town_kana":"ニシコクブ","prefecture_code":30},"6235":{"zip_code":"6496235","prefecture":"和歌山県","prefecture_kana":"ワカヤマケン","city":"岩出市","city_kana":"イワデシ","town":"西野","town_kana":"ニシノ","prefecture_code":30},"6202":{"zip_code":"6496202","prefecture":"和歌山県","prefecture_kana":"ワカヤマケン","city":"岩出市","city_kana":"イワデシ","town":"根来","town_kana":"ネゴロ","prefecture_code":30},"6216":{"zip_code":"6496216","prefecture":"和歌山県","prefecture_kana":"ワカヤマケン","city":"岩出市","city_kana":"イワデシ","town":"野上野","town_kana":"ノジョノ","prefecture_code":30},"6244":{"zip_code":"6496244","prefecture":"和歌山県","prefecture_kana":"ワカヤマケン","city":"岩出市","city_kana":"イワデシ","town":"畑毛","town_kana":"ハタケ","prefecture_code":30},"6241":{"zip_code":"6496241","prefecture":"和歌山県","prefecture_kana":"ワカヤマケン","city":"岩出市","city_kana":"イワデシ","town":"波分","town_kana":"ハブ","prefecture_code":30},"6254":{"zip_code":"6496254","prefecture":"和歌山県","prefecture_kana":"ワカヤマケン","city":"岩出市","city_kana":"イワデシ","town":"原","town_kana":"ハラ","prefecture_code":30},"6211":{"zip_code":"6496211","prefecture":"和歌山県","prefecture_kana":"ワカヤマケン","city":"岩出市","city_kana":"イワデシ","town":"東坂本","town_kana":"ヒガシサカモト","prefecture_code":30},"6233":{"zip_code":"6496233","prefecture":"和歌山県","prefecture_kana":"ワカヤマケン","city":"岩出市","city_kana":"イワデシ","town":"備前","town_kana":"ビゼン","prefecture_code":30},"6225":{"zip_code":"6496225","prefecture":"和歌山県","prefecture_kana":"ワカヤマケン","city":"岩出市","city_kana":"イワデシ","town":"船戸","town_kana":"フナト","prefecture_code":30},"6206":{"zip_code":"6496206","prefecture":"和歌山県","prefecture_kana":"ワカヤマケン","city":"岩出市","city_kana":"イワデシ","town":"堀口","town_kana":"ホリグチ","prefecture_code":30},"6214":{"zip_code":"6496214","prefecture":"和歌山県","prefecture_kana":"ワカヤマケン","city":"岩出市","city_kana":"イワデシ","town":"水栖","town_kana":"ミズス","prefecture_code":30},"6221":{"zip_code":"6496221","prefecture":"和歌山県","prefecture_kana":"ワカヤマケン","city":"岩出市","city_kana":"イワデシ","town":"溝川","town_kana":"ミゾカワ","prefecture_code":30},"6218":{"zip_code":"6496218","prefecture":"和歌山県","prefecture_kana":"ワカヤマケン","city":"岩出市","city_kana":"イワデシ","town":"南大池","town_kana":"ミナミオイケ","prefecture_code":30},"6226":{"zip_code":"6496226","prefecture":"和歌山県","prefecture_kana":"ワカヤマケン","city":"岩出市","city_kana":"イワデシ","town":"宮","town_kana":"ミヤ","prefecture_code":30},"6205":{"zip_code":"6496205","prefecture":"和歌山県","prefecture_kana":"ワカヤマケン","city":"岩出市","city_kana":"イワデシ","town":"森","town_kana":"モリ","prefecture_code":30},"6258":{"zip_code":"6496258","prefecture":"和歌山県","prefecture_kana":"ワカヤマケン","city":"岩出市","city_kana":"イワデシ","town":"山","town_kana":"ヤマ","prefecture_code":30},"6224":{"zip_code":"6496224","prefecture":"和歌山県","prefecture_kana":"ワカヤマケン","city":"岩出市","city_kana":"イワデシ","town":"山崎","town_kana":"ヤマサキ","prefecture_code":30},"6217":{"zip_code":"6496217","prefecture":"和歌山県","prefecture_kana":"ワカヤマケン","city":"岩出市","city_kana":"イワデシ","town":"山田","town_kana":"ヤマダ","prefecture_code":30},"6246":{"zip_code":"6496246","prefecture":"和歌山県","prefecture_kana":"ワカヤマケン","city":"岩出市","city_kana":"イワデシ","town":"吉田","town_kana":"ヨシダ","prefecture_code":30},"7100":{"zip_code":"6497100","prefecture":"和歌山県","prefecture_kana":"ワカヤマケン","city":"伊都郡かつらぎ町","city_kana":"イトグンカツラギチョウ","town":"","town_kana":"","prefecture_code":30},"7137":{"zip_code":"6497137","prefecture":"和歌山県","prefecture_kana":"ワカヤマケン","city":"伊都郡かつらぎ町","city_kana":"イトグンカツラギチョウ","town":"兄井","town_kana":"アニイ","prefecture_code":30},"7167":{"zip_code":"6497167","prefecture":"和歌山県","prefecture_kana":"ワカヤマケン","city":"伊都郡かつらぎ町","city_kana":"イトグンカツラギチョウ","town":"移","town_kana":"ウツリ","prefecture_code":30},"7172":{"zip_code":"6497172","prefecture":"和歌山県","prefecture_kana":"ワカヤマケン","city":"伊都郡かつらぎ町","city_kana":"イトグンカツラギチョウ","town":"蛭子","town_kana":"エビス","prefecture_code":30},"7173":{"zip_code":"6497173","prefecture":"和歌山県","prefecture_kana":"ワカヤマケン","city":"伊都郡かつらぎ町","city_kana":"イトグンカツラギチョウ","town":"大谷","town_kana":"オオタニ","prefecture_code":30},"7111":{"zip_code":"6497111","prefecture":"和歌山県","prefecture_kana":"ワカヤマケン","city":"伊都郡かつらぎ町","city_kana":"イトグンカツラギチョウ","town":"大畑","town_kana":"オオハタ","prefecture_code":30},"7171":{"zip_code":"6497171","prefecture":"和歌山県","prefecture_kana":"ワカヤマケン","city":"伊都郡かつらぎ町","city_kana":"イトグンカツラギチョウ","town":"大薮","town_kana":"オオヤブ","prefecture_code":30},"7123":{"zip_code":"6497123","prefecture":"和歌山県","prefecture_kana":"ワカヤマケン","city":"伊都郡かつらぎ町","city_kana":"イトグンカツラギチョウ","town":"柏木","town_kana":"カシワギ","prefecture_code":30},"7162":{"zip_code":"6497162","prefecture":"和歌山県","prefecture_kana":"ワカヤマケン","city":"伊都郡かつらぎ町","city_kana":"イトグンカツラギチョウ","town":"笠田中","town_kana":"カセダナカ","prefecture_code":30},"7161":{"zip_code":"6497161","prefecture":"和歌山県","prefecture_kana":"ワカヤマケン","city":"伊都郡かつらぎ町","city_kana":"イトグンカツラギチョウ","town":"笠田東","town_kana":"カセダヒガシ","prefecture_code":30},"7141":{"zip_code":"6497141","prefecture":"和歌山県","prefecture_kana":"ワカヤマケン","city":"伊都郡かつらぎ町","city_kana":"イトグンカツラギチョウ","town":"上天野","town_kana":"カミアマノ","prefecture_code":30},"7132":{"zip_code":"6497132","prefecture":"和歌山県","prefecture_kana":"ワカヤマケン","city":"伊都郡かつらぎ町","city_kana":"イトグンカツラギチョウ","town":"教良寺","town_kana":"キョウラジ","prefecture_code":30},"7164":{"zip_code":"6497164","prefecture":"和歌山県","prefecture_kana":"ワカヤマケン","city":"伊都郡かつらぎ町","city_kana":"イトグンカツラギチョウ","town":"窪","town_kana":"クボ","prefecture_code":30},"7143":{"zip_code":"6497143","prefecture":"和歌山県","prefecture_kana":"ワカヤマケン","city":"伊都郡かつらぎ町","city_kana":"イトグンカツラギチョウ","town":"神田","town_kana":"コウダ","prefecture_code":30},"7153":{"zip_code":"6497153","prefecture":"和歌山県","prefecture_kana":"ワカヤマケン","city":"伊都郡かつらぎ町","city_kana":"イトグンカツラギチョウ","town":"御所","town_kana":"ゴセ","prefecture_code":30},"7174":{"zip_code":"6497174","prefecture":"和歌山県","prefecture_kana":"ワカヤマケン","city":"伊都郡かつらぎ町","city_kana":"イトグンカツラギチョウ","town":"佐野","town_kana":"サヤ","prefecture_code":30},"7144":{"zip_code":"6497144","prefecture":"和歌山県","prefecture_kana":"ワカヤマケン","city":"伊都郡かつらぎ町","city_kana":"イトグンカツラギチョウ","town":"志賀","town_kana":"シガ","prefecture_code":30},"7155":{"zip_code":"6497155","prefecture":"和歌山県","prefecture_kana":"ワカヤマケン","city":"伊都郡かつらぎ町","city_kana":"イトグンカツラギチョウ","town":"島","town_kana":"シマ","prefecture_code":30},"7142":{"zip_code":"6497142","prefecture":"和歌山県","prefecture_kana":"ワカヤマケン","city":"伊都郡かつらぎ町","city_kana":"イトグンカツラギチョウ","town":"下天野","town_kana":"シモアマノ","prefecture_code":30},"7122":{"zip_code":"6497122","prefecture":"和歌山県","prefecture_kana":"ワカヤマケン","city":"伊都郡かつらぎ町","city_kana":"イトグンカツラギチョウ","town":"新田","town_kana":"シンデン","prefecture_code":30},"7165":{"zip_code":"6497165","prefecture":"和歌山県","prefecture_kana":"ワカヤマケン","city":"伊都郡かつらぎ町","city_kana":"イトグンカツラギチョウ","town":"背ノ山","town_kana":"セノヤマ","prefecture_code":30},"7104":{"zip_code":"6497104","prefecture":"和歌山県","prefecture_kana":"ワカヤマケン","city":"伊都郡かつらぎ町","city_kana":"イトグンカツラギチョウ","town":"平","town_kana":"タイラ","prefecture_code":30},"7166":{"zip_code":"6497166","prefecture":"和歌山県","prefecture_kana":"ワカヤマケン","city":"伊都郡かつらぎ町","city_kana":"イトグンカツラギチョウ","town":"高田","town_kana":"タカダ","prefecture_code":30},"7102":{"zip_code":"6497102","prefecture":"和歌山県","prefecture_kana":"ワカヤマケン","city":"伊都郡かつらぎ町","city_kana":"イトグンカツラギチョウ","town":"滝","town_kana":"タキ","prefecture_code":30},"7121":{"zip_code":"6497121","prefecture":"和歌山県","prefecture_kana":"ワカヤマケン","city":"伊都郡かつらぎ町","city_kana":"イトグンカツラギチョウ","town":"丁ノ町","town_kana":"チョウノマチ","prefecture_code":30},"7136":{"zip_code":"6497136","prefecture":"和歌山県","prefecture_kana":"ワカヤマケン","city":"伊都郡かつらぎ町","city_kana":"イトグンカツラギチョウ","town":"寺尾","town_kana":"テラオ","prefecture_code":30},"7112":{"zip_code":"6497112","prefecture":"和歌山県","prefecture_kana":"ワカヤマケン","city":"伊都郡かつらぎ町","city_kana":"イトグンカツラギチョウ","town":"中飯降","town_kana":"ナカイブリ","prefecture_code":30},"7114":{"zip_code":"6497114","prefecture":"和歌山県","prefecture_kana":"ワカヤマケン","city":"伊都郡かつらぎ町","city_kana":"イトグンカツラギチョウ","town":"西飯降","town_kana":"ニシイブリ","prefecture_code":30},"7154":{"zip_code":"6497154","prefecture":"和歌山県","prefecture_kana":"ワカヤマケン","city":"伊都郡かつらぎ町","city_kana":"イトグンカツラギチョウ","town":"西渋田","town_kana":"ニシシブタ","prefecture_code":30},"7163":{"zip_code":"6497163","prefecture":"和歌山県","prefecture_kana":"ワカヤマケン","city":"伊都郡かつらぎ町","city_kana":"イトグンカツラギチョウ","town":"萩原","town_kana":"ハギハラ","prefecture_code":30},"7151":{"zip_code":"6497151","prefecture":"和歌山県","prefecture_kana":"ワカヤマケン","city":"伊都郡かつらぎ町","city_kana":"イトグンカツラギチョウ","town":"東渋田","town_kana":"ヒガシシブタ","prefecture_code":30},"7101":{"zip_code":"6497101","prefecture":"和歌山県","prefecture_kana":"ワカヤマケン","city":"伊都郡かつらぎ町","city_kana":"イトグンカツラギチョウ","town":"東谷","town_kana":"ヒガシタニ","prefecture_code":30},"7145":{"zip_code":"6497145","prefecture":"和歌山県","prefecture_kana":"ワカヤマケン","city":"伊都郡かつらぎ町","city_kana":"イトグンカツラギチョウ","town":"日高","town_kana":"ヒダカ","prefecture_code":30},"7135":{"zip_code":"6497135","prefecture":"和歌山県","prefecture_kana":"ワカヤマケン","city":"伊都郡かつらぎ町","city_kana":"イトグンカツラギチョウ","town":"平沼田","town_kana":"ヒランタ","prefecture_code":30},"7175":{"zip_code":"6497175","prefecture":"和歌山県","prefecture_kana":"ワカヤマケン","city":"伊都郡かつらぎ町","city_kana":"イトグンカツラギチョウ","town":"広浦","town_kana":"ヒロウラ","prefecture_code":30},"7103":{"zip_code":"6497103","prefecture":"和歌山県","prefecture_kana":"ワカヤマケン","city":"伊都郡かつらぎ町","city_kana":"イトグンカツラギチョウ","town":"広口","town_kana":"ヒロクチ","prefecture_code":30},"7152":{"zip_code":"6497152","prefecture":"和歌山県","prefecture_kana":"ワカヤマケン","city":"伊都郡かつらぎ町","city_kana":"イトグンカツラギチョウ","town":"星川","town_kana":"ホシカワ","prefecture_code":30},"7146":{"zip_code":"6497146","prefecture":"和歌山県","prefecture_kana":"ワカヤマケン","city":"伊都郡かつらぎ町","city_kana":"イトグンカツラギチョウ","town":"星山","town_kana":"ホシヤマ","prefecture_code":30},"7115":{"zip_code":"6497115","prefecture":"和歌山県","prefecture_kana":"ワカヤマケン","city":"伊都郡かつらぎ町","city_kana":"イトグンカツラギチョウ","town":"短野","town_kana":"ミジカノ","prefecture_code":30},"7133":{"zip_code":"6497133","prefecture":"和歌山県","prefecture_kana":"ワカヤマケン","city":"伊都郡かつらぎ町","city_kana":"イトグンカツラギチョウ","town":"三谷","town_kana":"ミタニ","prefecture_code":30},"7134":{"zip_code":"6497134","prefecture":"和歌山県","prefecture_kana":"ワカヤマケン","city":"伊都郡かつらぎ町","city_kana":"イトグンカツラギチョウ","town":"宮本","town_kana":"ミヤモト","prefecture_code":30},"7113":{"zip_code":"6497113","prefecture":"和歌山県","prefecture_kana":"ワカヤマケン","city":"伊都郡かつらぎ町","city_kana":"イトグンカツラギチョウ","town":"妙寺","town_kana":"ミョウジ","prefecture_code":30},"7131":{"zip_code":"6497131","prefecture":"和歌山県","prefecture_kana":"ワカヤマケン","city":"伊都郡かつらぎ町","city_kana":"イトグンカツラギチョウ","town":"山崎","town_kana":"ヤマサキ","prefecture_code":30},"1200":{"zip_code":"6491200","prefecture":"和歌山県","prefecture_kana":"ワカヤマケン","city":"日高郡日高町","city_kana":"ヒダカグンヒダカチョウ","town":"","town_kana":"","prefecture_code":30},"1232":{"zip_code":"6491232","prefecture":"和歌山県","prefecture_kana":"ワカヤマケン","city":"日高郡日高町","city_kana":"ヒダカグンヒダカチョウ","town":"阿尾","town_kana":"アオ","prefecture_code":30},"1203":{"zip_code":"6491203","prefecture":"和歌山県","prefecture_kana":"ワカヤマケン","city":"日高郡日高町","city_kana":"ヒダカグンヒダカチョウ","town":"池田","town_kana":"イケダ","prefecture_code":30},"1211":{"zip_code":"6491211","prefecture":"和歌山県","prefecture_kana":"ワカヤマケン","city":"日高郡日高町","city_kana":"ヒダカグンヒダカチョウ","town":"荊木","town_kana":"イバラキ","prefecture_code":30},"1233":{"zip_code":"6491233","prefecture":"和歌山県","prefecture_kana":"ワカヤマケン","city":"日高郡日高町","city_kana":"ヒダカグンヒダカチョウ","town":"産湯","town_kana":"ウブユ","prefecture_code":30},"1222":{"zip_code":"6491222","prefecture":"和歌山県","prefecture_kana":"ワカヤマケン","city":"日高郡日高町","city_kana":"ヒダカグンヒダカチョウ","town":"小池","town_kana":"オイケ","prefecture_code":30},"1223":{"zip_code":"6491223","prefecture":"和歌山県","prefecture_kana":"ワカヤマケン","city":"日高郡日高町","city_kana":"ヒダカグンヒダカチョウ","town":"小浦","town_kana":"オウラ","prefecture_code":30},"1231":{"zip_code":"6491231","prefecture":"和歌山県","prefecture_kana":"ワカヤマケン","city":"日高郡日高町","city_kana":"ヒダカグンヒダカチョウ","town":"小坂","town_kana":"オサカ","prefecture_code":30},"1212":{"zip_code":"6491212","prefecture":"和歌山県","prefecture_kana":"ワカヤマケン","city":"日高郡日高町","city_kana":"ヒダカグンヒダカチョウ","town":"小中","town_kana":"オナカ","prefecture_code":30},"1225":{"zip_code":"6491225","prefecture":"和歌山県","prefecture_kana":"ワカヤマケン","city":"日高郡日高町","city_kana":"ヒダカグンヒダカチョウ","town":"方杭","town_kana":"カタクイ","prefecture_code":30},"1221":{"zip_code":"6491221","prefecture":"和歌山県","prefecture_kana":"ワカヤマケン","city":"日高郡日高町","city_kana":"ヒダカグンヒダカチョウ","town":"志賀","town_kana":"シガ","prefecture_code":30},"1213":{"zip_code":"6491213","prefecture":"和歌山県","prefecture_kana":"ワカヤマケン","city":"日高郡日高町","city_kana":"ヒダカグンヒダカチョウ","town":"高家","town_kana":"タイエ","prefecture_code":30},"1224":{"zip_code":"6491224","prefecture":"和歌山県","prefecture_kana":"ワカヤマケン","city":"日高郡日高町","city_kana":"ヒダカグンヒダカチョウ","town":"津久野","town_kana":"ツクノ","prefecture_code":30},"1202":{"zip_code":"6491202","prefecture":"和歌山県","prefecture_kana":"ワカヤマケン","city":"日高郡日高町","city_kana":"ヒダカグンヒダカチョウ","town":"萩原","town_kana":"ハギワラ","prefecture_code":30},"1201":{"zip_code":"6491201","prefecture":"和歌山県","prefecture_kana":"ワカヤマケン","city":"日高郡日高町","city_kana":"ヒダカグンヒダカチョウ","town":"原谷","town_kana":"ハラダニ","prefecture_code":30},"1234":{"zip_code":"6491234","prefecture":"和歌山県","prefecture_kana":"ワカヤマケン","city":"日高郡日高町","city_kana":"ヒダカグンヒダカチョウ","town":"比井","town_kana":"ヒイ","prefecture_code":30},"1100":{"zip_code":"6491100","prefecture":"和歌山県","prefecture_kana":"ワカヤマケン","city":"日高郡由良町","city_kana":"ヒダカグンユラチョウ","town":"","town_kana":"","prefecture_code":30},"1112":{"zip_code":"6491112","prefecture":"和歌山県","prefecture_kana":"ワカヤマケン","city":"日高郡由良町","city_kana":"ヒダカグンユラチョウ","town":"網代","town_kana":"アジロ","prefecture_code":30},"1113":{"zip_code":"6491113","prefecture":"和歌山県","prefecture_kana":"ワカヤマケン","city":"日高郡由良町","city_kana":"ヒダカグンユラチョウ","town":"阿戸","town_kana":"アト","prefecture_code":30},"1132":{"zip_code":"6491132","prefecture":"和歌山県","prefecture_kana":"ワカヤマケン","city":"日高郡由良町","city_kana":"ヒダカグンユラチョウ","town":"衣奈","town_kana":"エナ","prefecture_code":30},"1104":{"zip_code":"6491104","prefecture":"和歌山県","prefecture_kana":"ワカヤマケン","city":"日高郡由良町","city_kana":"ヒダカグンユラチョウ","town":"江ノ駒","town_kana":"エノコマ","prefecture_code":30},"1123":{"zip_code":"6491123","prefecture":"和歌山県","prefecture_kana":"ワカヤマケン","city":"日高郡由良町","city_kana":"ヒダカグンユラチョウ","town":"大引","town_kana":"オオビキ","prefecture_code":30},"1122":{"zip_code":"6491122","prefecture":"和歌山県","prefecture_kana":"ワカヤマケン","city":"日高郡由良町","city_kana":"ヒダカグンユラチョウ","town":"神谷","town_kana":"カミヤ","prefecture_code":30},"1131":{"zip_code":"6491131","prefecture":"和歌山県","prefecture_kana":"ワカヤマケン","city":"日高郡由良町","city_kana":"ヒダカグンユラチョウ","town":"小引","town_kana":"コビキ","prefecture_code":30},"1111":{"zip_code":"6491111","prefecture":"和歌山県","prefecture_kana":"ワカヤマケン","city":"日高郡由良町","city_kana":"ヒダカグンユラチョウ","town":"里","town_kana":"サト","prefecture_code":30},"1134":{"zip_code":"6491134","prefecture":"和歌山県","prefecture_kana":"ワカヤマケン","city":"日高郡由良町","city_kana":"ヒダカグンユラチョウ","town":"戸津井","town_kana":"トツイ","prefecture_code":30},"1102":{"zip_code":"6491102","prefecture":"和歌山県","prefecture_kana":"ワカヤマケン","city":"日高郡由良町","city_kana":"ヒダカグンユラチョウ","town":"中","town_kana":"ナカ","prefecture_code":30},"1101":{"zip_code":"6491101","prefecture":"和歌山県","prefecture_kana":"ワカヤマケン","city":"日高郡由良町","city_kana":"ヒダカグンユラチョウ","town":"畑","town_kana":"ハタ","prefecture_code":30},"1121":{"zip_code":"6491121","prefecture":"和歌山県","prefecture_kana":"ワカヤマケン","city":"日高郡由良町","city_kana":"ヒダカグンユラチョウ","town":"吹井","town_kana":"フケイ","prefecture_code":30},"1133":{"zip_code":"6491133","prefecture":"和歌山県","prefecture_kana":"ワカヤマケン","city":"日高郡由良町","city_kana":"ヒダカグンユラチョウ","town":"三尾川","town_kana":"ミオガワ","prefecture_code":30},"1103":{"zip_code":"6491103","prefecture":"和歌山県","prefecture_kana":"ワカヤマケン","city":"日高郡由良町","city_kana":"ヒダカグンユラチョウ","town":"門前","town_kana":"モンゼン","prefecture_code":30},"1500":{"zip_code":"6491500","prefecture":"和歌山県","prefecture_kana":"ワカヤマケン","city":"日高郡印南町","city_kana":"ヒダカグンイナミチョウ","town":"","town_kana":"","prefecture_code":30},"1534":{"zip_code":"6491534","prefecture":"和歌山県","prefecture_kana":"ワカヤマケン","city":"日高郡印南町","city_kana":"ヒダカグンイナミチョウ","town":"印南","town_kana":"イナミ","prefecture_code":30},"1532":{"zip_code":"6491532","prefecture":"和歌山県","prefecture_kana":"ワカヤマケン","city":"日高郡印南町","city_kana":"ヒダカグンイナミチョウ","town":"印南原","town_kana":"イナンバラ","prefecture_code":30},"1527":{"zip_code":"6491527","prefecture":"和歌山県","prefecture_kana":"ワカヤマケン","city":"日高郡印南町","city_kana":"ヒダカグンイナミチョウ","town":"島田","town_kana":"シマダ","prefecture_code":30},"1531":{"zip_code":"6491531","prefecture":"和歌山県","prefecture_kana":"ワカヤマケン","city":"日高郡印南町","city_kana":"ヒダカグンイナミチョウ","town":"立石","town_kana":"タテイシ","prefecture_code":30},"1535":{"zip_code":"6491535","prefecture":"和歌山県","prefecture_kana":"ワカヤマケン","city":"日高郡印南町","city_kana":"ヒダカグンイナミチョウ","town":"津井","town_kana":"ツイ","prefecture_code":30},"1528":{"zip_code":"6491528","prefecture":"和歌山県","prefecture_kana":"ワカヤマケン","city":"日高郡印南町","city_kana":"ヒダカグンイナミチョウ","town":"西ノ地","town_kana":"ニシノジ","prefecture_code":30},"1524":{"zip_code":"6491524","prefecture":"和歌山県","prefecture_kana":"ワカヤマケン","city":"日高郡印南町","city_kana":"ヒダカグンイナミチョウ","town":"羽六","town_kana":"ハロク","prefecture_code":30},"1522":{"zip_code":"6491522","prefecture":"和歌山県","prefecture_kana":"ワカヤマケン","city":"日高郡印南町","city_kana":"ヒダカグンイナミチョウ","town":"古井","town_kana":"フルイ","prefecture_code":30},"1525":{"zip_code":"6491525","prefecture":"和歌山県","prefecture_kana":"ワカヤマケン","city":"日高郡印南町","city_kana":"ヒダカグンイナミチョウ","town":"古屋","town_kana":"フルヤ","prefecture_code":30},"1523":{"zip_code":"6491523","prefecture":"和歌山県","prefecture_kana":"ワカヤマケン","city":"日高郡印南町","city_kana":"ヒダカグンイナミチョウ","town":"樮川","town_kana":"ホクソガワ","prefecture_code":30},"1521":{"zip_code":"6491521","prefecture":"和歌山県","prefecture_kana":"ワカヤマケン","city":"日高郡印南町","city_kana":"ヒダカグンイナミチョウ","town":"美里","town_kana":"ミサト","prefecture_code":30},"1536":{"zip_code":"6491536","prefecture":"和歌山県","prefecture_kana":"ワカヤマケン","city":"日高郡印南町","city_kana":"ヒダカグンイナミチョウ","town":"南谷","town_kana":"ミナミダニ","prefecture_code":30},"1526":{"zip_code":"6491526","prefecture":"和歌山県","prefecture_kana":"ワカヤマケン","city":"日高郡印南町","city_kana":"ヒダカグンイナミチョウ","town":"宮ノ前","town_kana":"ミヤノマエ","prefecture_code":30},"1537":{"zip_code":"6491537","prefecture":"和歌山県","prefecture_kana":"ワカヤマケン","city":"日高郡印南町","city_kana":"ヒダカグンイナミチョウ","town":"明神川","town_kana":"ミョウジンガワ","prefecture_code":30},"1533":{"zip_code":"6491533","prefecture":"和歌山県","prefecture_kana":"ワカヤマケン","city":"日高郡印南町","city_kana":"ヒダカグンイナミチョウ","town":"山口","town_kana":"ヤマグチ","prefecture_code":30},"1300":{"zip_code":"6491300","prefecture":"和歌山県","prefecture_kana":"ワカヤマケン","city":"日高郡日高川町","city_kana":"ヒダカグンヒダカガワチョウ","town":"","town_kana":"","prefecture_code":30},"1313":{"zip_code":"6491313","prefecture":"和歌山県","prefecture_kana":"ワカヤマケン","city":"日高郡日高川町","city_kana":"ヒダカグンヒダカガワチョウ","town":"伊藤川","town_kana":"イトゴ","prefecture_code":30},"1442":{"zip_code":"6491442","prefecture":"和歌山県","prefecture_kana":"ワカヤマケン","city":"日高郡日高川町","city_kana":"ヒダカグンヒダカガワチョウ","town":"江川","town_kana":"エカワ","prefecture_code":30},"1331":{"zip_code":"6491331","prefecture":"和歌山県","prefecture_kana":"ワカヤマケン","city":"日高郡日高川町","city_kana":"ヒダカグンヒダカガワチョウ","town":"鐘巻","town_kana":"カネマキ","prefecture_code":30},"1315":{"zip_code":"6491315","prefecture":"和歌山県","prefecture_kana":"ワカヤマケン","city":"日高郡日高川町","city_kana":"ヒダカグンヒダカガワチョウ","town":"玄子","town_kana":"ゲンゴ","prefecture_code":30},"1323":{"zip_code":"6491323","prefecture":"和歌山県","prefecture_kana":"ワカヤマケン","city":"日高郡日高川町","city_kana":"ヒダカグンヒダカガワチョウ","town":"小熊","town_kana":"コグマ","prefecture_code":30},"1441":{"zip_code":"6491441","prefecture":"和歌山県","prefecture_kana":"ワカヤマケン","city":"日高郡日高川町","city_kana":"ヒダカグンヒダカガワチョウ","town":"山野","town_kana":"サンヤ","prefecture_code":30},"1332":{"zip_code":"6491332","prefecture":"和歌山県","prefecture_kana":"ワカヤマケン","city":"日高郡日高川町","city_kana":"ヒダカグンヒダカガワチョウ","town":"千津川","town_kana":"センヅガワ","prefecture_code":30},"1325":{"zip_code":"6491325","prefecture":"和歌山県","prefecture_kana":"ワカヤマケン","city":"日高郡日高川町","city_kana":"ヒダカグンヒダカガワチョウ","town":"中津川","town_kana":"ナカツカワ","prefecture_code":30},"1321":{"zip_code":"6491321","prefecture":"和歌山県","prefecture_kana":"ワカヤマケン","city":"日高郡日高川町","city_kana":"ヒダカグンヒダカガワチョウ","town":"入野","town_kana":"ニュウノ","prefecture_code":30},"1314":{"zip_code":"6491314","prefecture":"和歌山県","prefecture_kana":"ワカヤマケン","city":"日高郡日高川町","city_kana":"ヒダカグンヒダカガワチョウ","town":"早藤","town_kana":"ハイクズ","prefecture_code":30},"1324":{"zip_code":"6491324","prefecture":"和歌山県","prefecture_kana":"ワカヤマケン","city":"日高郡日高川町","city_kana":"ヒダカグンヒダカガワチョウ","town":"土生","town_kana":"ハブ","prefecture_code":30},"1311":{"zip_code":"6491311","prefecture":"和歌山県","prefecture_kana":"ワカヤマケン","city":"日高郡日高川町","city_kana":"ヒダカグンヒダカガワチョウ","town":"平川","town_kana":"ヒュウガワ","prefecture_code":30},"1316":{"zip_code":"6491316","prefecture":"和歌山県","prefecture_kana":"ワカヤマケン","city":"日高郡日高川町","city_kana":"ヒダカグンヒダカガワチョウ","town":"蛇尾","town_kana":"ヘビオ","prefecture_code":30},"1444":{"zip_code":"6491444","prefecture":"和歌山県","prefecture_kana":"ワカヤマケン","city":"日高郡日高川町","city_kana":"ヒダカグンヒダカガワチョウ","town":"松瀬","town_kana":"マツセ","prefecture_code":30},"1312":{"zip_code":"6491312","prefecture":"和歌山県","prefecture_kana":"ワカヤマケン","city":"日高郡日高川町","city_kana":"ヒダカグンヒダカガワチョウ","town":"三百瀬","town_kana":"ミヨセ","prefecture_code":30},"1322":{"zip_code":"6491322","prefecture":"和歌山県","prefecture_kana":"ワカヤマケン","city":"日高郡日高川町","city_kana":"ヒダカグンヒダカガワチョウ","town":"若野","town_kana":"ワカノ","prefecture_code":30},"1443":{"zip_code":"6491443","prefecture":"和歌山県","prefecture_kana":"ワカヤマケン","city":"日高郡日高川町","city_kana":"ヒダカグンヒダカガワチョウ","town":"和佐","town_kana":"ワサ","prefecture_code":30},"2200":{"zip_code":"6492200","prefecture":"和歌山県","prefecture_kana":"ワカヤマケン","city":"西牟婁郡白浜町","city_kana":"ニシムログンシラハマチョウ","town":"","town_kana":"","prefecture_code":30},"2211":{"zip_code":"6492211","prefecture":"和歌山県","prefecture_kana":"ワカヤマケン","city":"西牟婁郡白浜町","city_kana":"ニシムログンシラハマチョウ","town":"","town_kana":"","prefecture_code":30},"2532":{"zip_code":"6492532","prefecture":"和歌山県","prefecture_kana":"ワカヤマケン","city":"西牟婁郡白浜町","city_kana":"ニシムログンシラハマチョウ","town":"安居","town_kana":"アゴ","prefecture_code":30},"2524":{"zip_code":"6492524","prefecture":"和歌山県","prefecture_kana":"ワカヤマケン","city":"西牟婁郡白浜町","city_kana":"ニシムログンシラハマチョウ","town":"安宅","town_kana":"アタギ","prefecture_code":30},"2322":{"zip_code":"6492322","prefecture":"和歌山県","prefecture_kana":"ワカヤマケン","city":"西牟婁郡白浜町","city_kana":"ニシムログンシラハマチョウ","town":"内ノ川","town_kana":"ウチノカワ","prefecture_code":30},"2537":{"zip_code":"6492537","prefecture":"和歌山県","prefecture_kana":"ワカヤマケン","city":"西牟婁郡白浜町","city_kana":"ニシムログンシラハマチョウ","town":"宇津木","town_kana":"ウツギ","prefecture_code":30},"2521":{"zip_code":"6492521","prefecture":"和歌山県","prefecture_kana":"ワカヤマケン","city":"西牟婁郡白浜町","city_kana":"ニシムログンシラハマチョウ","town":"大古","town_kana":"オオフル","prefecture_code":30},"2201":{"zip_code":"6492201","prefecture":"和歌山県","prefecture_kana":"ワカヤマケン","city":"西牟婁郡白浜町","city_kana":"ニシムログンシラハマチョウ","town":"堅田","town_kana":"カタタ","prefecture_code":30},"2531":{"zip_code":"6492531","prefecture":"和歌山県","prefecture_kana":"ワカヤマケン","city":"西牟婁郡白浜町","city_kana":"ニシムログンシラハマチョウ","town":"口ケ谷","town_kana":"クチガタニ","prefecture_code":30},"2538":{"zip_code":"6492538","prefecture":"和歌山県","prefecture_kana":"ワカヤマケン","city":"西牟婁郡白浜町","city_kana":"ニシムログンシラハマチョウ","town":"小川","town_kana":"コガワ","prefecture_code":30},"2334":{"zip_code":"6492334","prefecture":"和歌山県","prefecture_kana":"ワカヤマケン","city":"西牟婁郡白浜町","city_kana":"ニシムログンシラハマチョウ","town":"才野","town_kana":"サイノ","prefecture_code":30},"2332":{"zip_code":"6492332","prefecture":"和歌山県","prefecture_kana":"ワカヤマケン","city":"西牟婁郡白浜町","city_kana":"ニシムログンシラハマチョウ","town":"栄","town_kana":"サカエ","prefecture_code":30},"2525":{"zip_code":"6492525","prefecture":"和歌山県","prefecture_kana":"ワカヤマケン","city":"西牟婁郡白浜町","city_kana":"ニシムログンシラハマチョウ","town":"塩野","town_kana":"シオノ","prefecture_code":30},"2323":{"zip_code":"6492323","prefecture":"和歌山県","prefecture_kana":"ワカヤマケン","city":"西牟婁郡白浜町","city_kana":"ニシムログンシラハマチョウ","town":"庄川","town_kana":"シャガワ","prefecture_code":30},"2539":{"zip_code":"6492539","prefecture":"和歌山県","prefecture_kana":"ワカヤマケン","city":"西牟婁郡白浜町","city_kana":"ニシムログンシラハマチョウ","town":"城","town_kana":"ジョウ","prefecture_code":30},"2331":{"zip_code":"6492331","prefecture":"和歌山県","prefecture_kana":"ワカヤマケン","city":"西牟婁郡白浜町","city_kana":"ニシムログンシラハマチョウ","town":"平","town_kana":"タイラ","prefecture_code":30},"2523":{"zip_code":"6492523","prefecture":"和歌山県","prefecture_kana":"ワカヤマケン","city":"西牟婁郡白浜町","city_kana":"ニシムログンシラハマチョウ","town":"田野井","town_kana":"タノイ","prefecture_code":30},"2324":{"zip_code":"6492324","prefecture":"和歌山県","prefecture_kana":"ワカヤマケン","city":"西牟婁郡白浜町","city_kana":"ニシムログンシラハマチョウ","town":"十九渕","town_kana":"ツヅラフチ","prefecture_code":30},"2326":{"zip_code":"6492326","prefecture":"和歌山県","prefecture_kana":"ワカヤマケン","city":"西牟婁郡白浜町","city_kana":"ニシムログンシラハマチョウ","town":"椿","town_kana":"ツバキ","prefecture_code":30},"2534":{"zip_code":"6492534","prefecture":"和歌山県","prefecture_kana":"ワカヤマケン","city":"西牟婁郡白浜町","city_kana":"ニシムログンシラハマチョウ","town":"寺山","town_kana":"テラヤマ","prefecture_code":30},"2325":{"zip_code":"6492325","prefecture":"和歌山県","prefecture_kana":"ワカヤマケン","city":"西牟婁郡白浜町","city_kana":"ニシムログンシラハマチョウ","town":"富田","town_kana":"トンダ","prefecture_code":30},"2333":{"zip_code":"6492333","prefecture":"和歌山県","prefecture_kana":"ワカヤマケン","city":"西牟婁郡白浜町","city_kana":"ニシムログンシラハマチョウ","town":"中","town_kana":"ナカ","prefecture_code":30},"2533":{"zip_code":"6492533","prefecture":"和歌山県","prefecture_kana":"ワカヤマケン","city":"西牟婁郡白浜町","city_kana":"ニシムログンシラハマチョウ","town":"中嶋","town_kana":"ナカジマ","prefecture_code":30},"2511":{"zip_code":"6492511","prefecture":"和歌山県","prefecture_kana":"ワカヤマケン","city":"西牟婁郡白浜町","city_kana":"ニシムログンシラハマチョウ","town":"日置","town_kana":"ヒキ","prefecture_code":30},"2536":{"zip_code":"6492536","prefecture":"和歌山県","prefecture_kana":"ワカヤマケン","city":"西牟婁郡白浜町","city_kana":"ニシムログンシラハマチョウ","town":"久木","town_kana":"ヒサギ","prefecture_code":30},"2321":{"zip_code":"6492321","prefecture":"和歌山県","prefecture_kana":"ワカヤマケン","city":"西牟婁郡白浜町","city_kana":"ニシムログンシラハマチョウ","town":"保呂","town_kana":"ホロ","prefecture_code":30},"2535":{"zip_code":"6492535","prefecture":"和歌山県","prefecture_kana":"ワカヤマケン","city":"西牟婁郡白浜町","city_kana":"ニシムログンシラハマチョウ","town":"向平","town_kana":"ムカイダイラ","prefecture_code":30},"2522":{"zip_code":"6492522","prefecture":"和歌山県","prefecture_kana":"ワカヤマケン","city":"西牟婁郡白浜町","city_kana":"ニシムログンシラハマチョウ","town":"矢田","town_kana":"ヤタ","prefecture_code":30},"2100":{"zip_code":"6492100","prefecture":"和歌山県","prefecture_kana":"ワカヤマケン","city":"西牟婁郡上富田町","city_kana":"ニシムログンカミトンダチョウ","town":"","town_kana":"","prefecture_code":30},"2105":{"zip_code":"6492105","prefecture":"和歌山県","prefecture_kana":"ワカヤマケン","city":"西牟婁郡上富田町","city_kana":"ニシムログンカミトンダチョウ","town":"朝来","town_kana":"アッソ","prefecture_code":30},"2103":{"zip_code":"6492103","prefecture":"和歌山県","prefecture_kana":"ワカヤマケン","city":"西牟婁郡上富田町","city_kana":"ニシムログンカミトンダチョウ","town":"生馬","town_kana":"イクマ","prefecture_code":30},"2107":{"zip_code":"6492107","prefecture":"和歌山県","prefecture_kana":"ワカヤマケン","city":"西牟婁郡上富田町","city_kana":"ニシムログンカミトンダチョウ","town":"市ノ瀬","town_kana":"イチノセ","prefecture_code":30},"2104":{"zip_code":"6492104","prefecture":"和歌山県","prefecture_kana":"ワカヤマケン","city":"西牟婁郡上富田町","city_kana":"ニシムログンカミトンダチョウ","town":"岩崎","town_kana":"イワサキ","prefecture_code":30},"2102":{"zip_code":"6492102","prefecture":"和歌山県","prefecture_kana":"ワカヤマケン","city":"西牟婁郡上富田町","city_kana":"ニシムログンカミトンダチョウ","town":"岩田","town_kana":"イワダ","prefecture_code":30},"2101":{"zip_code":"6492101","prefecture":"和歌山県","prefecture_kana":"ワカヤマケン","city":"西牟婁郡上富田町","city_kana":"ニシムログンカミトンダチョウ","town":"岡","town_kana":"オカ","prefecture_code":30},"2108":{"zip_code":"6492108","prefecture":"和歌山県","prefecture_kana":"ワカヤマケン","city":"西牟婁郡上富田町","city_kana":"ニシムログンカミトンダチョウ","town":"下鮎川","town_kana":"シモアユカワ","prefecture_code":30},"2106":{"zip_code":"6492106","prefecture":"和歌山県","prefecture_kana":"ワカヤマケン","city":"西牟婁郡上富田町","city_kana":"ニシムログンカミトンダチョウ","town":"南紀の台","town_kana":"ナンキノダイ","prefecture_code":30},"2600":{"zip_code":"6492600","prefecture":"和歌山県","prefecture_kana":"ワカヤマケン","city":"西牟婁郡すさみ町","city_kana":"ニシムログンスサミチョウ","town":"","town_kana":"","prefecture_code":30},"3142":{"zip_code":"6493142","prefecture":"和歌山県","prefecture_kana":"ワカヤマケン","city":"西牟婁郡すさみ町","city_kana":"ニシムログンスサミチョウ","town":"江住","town_kana":"エスミ","prefecture_code":30},"3151":{"zip_code":"6493151","prefecture":"和歌山県","prefecture_kana":"ワカヤマケン","city":"西牟婁郡すさみ町","city_kana":"ニシムログンスサミチョウ","town":"大鎌","town_kana":"オオガマ","prefecture_code":30},"3153":{"zip_code":"6493153","prefecture":"和歌山県","prefecture_kana":"ワカヤマケン","city":"西牟婁郡すさみ町","city_kana":"ニシムログンスサミチョウ","town":"大谷","town_kana":"オオタニ","prefecture_code":30},"2602":{"zip_code":"6492602","prefecture":"和歌山県","prefecture_kana":"ワカヤマケン","city":"西牟婁郡すさみ町","city_kana":"ニシムログンスサミチョウ","town":"大附","town_kana":"オオツキ","prefecture_code":30},"2603":{"zip_code":"6492603","prefecture":"和歌山県","prefecture_kana":"ワカヤマケン","city":"西牟婁郡すさみ町","city_kana":"ニシムログンスサミチョウ","town":"小河内","town_kana":"オカウチ","prefecture_code":30},"2612":{"zip_code":"6492612","prefecture":"和歌山県","prefecture_kana":"ワカヤマケン","city":"西牟婁郡すさみ町","city_kana":"ニシムログンスサミチョウ","town":"口和深","town_kana":"クチワブカ","prefecture_code":30},"2601":{"zip_code":"6492601","prefecture":"和歌山県","prefecture_kana":"ワカヤマケン","city":"西牟婁郡すさみ町","city_kana":"ニシムログンスサミチョウ","town":"小附","town_kana":"コツキ","prefecture_code":30},"3143":{"zip_code":"6493143","prefecture":"和歌山県","prefecture_kana":"ワカヤマケン","city":"西牟婁郡すさみ町","city_kana":"ニシムログンスサミチョウ","town":"里野","town_kana":"サトノ","prefecture_code":30},"3162":{"zip_code":"6493162","prefecture":"和歌山県","prefecture_kana":"ワカヤマケン","city":"西牟婁郡すさみ町","city_kana":"ニシムログンスサミチョウ","town":"佐本追川","town_kana":"サモトオイガワ","prefecture_code":30},"3161":{"zip_code":"6493161","prefecture":"和歌山県","prefecture_kana":"ワカヤマケン","city":"西牟婁郡すさみ町","city_kana":"ニシムログンスサミチョウ","town":"佐本中","town_kana":"サモトナカ","prefecture_code":30},"3165":{"zip_code":"6493165","prefecture":"和歌山県","prefecture_kana":"ワカヤマケン","city":"西牟婁郡すさみ町","city_kana":"ニシムログンスサミチョウ","town":"佐本中野","town_kana":"サモトナカノ","prefecture_code":30},"3163":{"zip_code":"6493163","prefecture":"和歌山県","prefecture_kana":"ワカヤマケン","city":"西牟婁郡すさみ町","city_kana":"ニシムログンスサミチョウ","town":"佐本西栗垣内","town_kana":"サモトニシクリガイト","prefecture_code":30},"3166":{"zip_code":"6493166","prefecture":"和歌山県","prefecture_kana":"ワカヤマケン","city":"西牟婁郡すさみ町","city_kana":"ニシムログンスサミチョウ","town":"佐本西野川","town_kana":"サモトニシノカワ","prefecture_code":30},"3168":{"zip_code":"6493168","prefecture":"和歌山県","prefecture_kana":"ワカヤマケン","city":"西牟婁郡すさみ町","city_kana":"ニシムログンスサミチョウ","town":"佐本根倉","town_kana":"サモトネクラ","prefecture_code":30},"3164":{"zip_code":"6493164","prefecture":"和歌山県","prefecture_kana":"ワカヤマケン","city":"西牟婁郡すさみ町","city_kana":"ニシムログンスサミチョウ","town":"佐本東栗垣内","town_kana":"サモトヒガシクリガイト","prefecture_code":30},"3167":{"zip_code":"6493167","prefecture":"和歌山県","prefecture_kana":"ワカヤマケン","city":"西牟婁郡すさみ町","city_kana":"ニシムログンスサミチョウ","town":"佐本平野","town_kana":"サモトヒラノ","prefecture_code":30},"3169":{"zip_code":"6493169","prefecture":"和歌山県","prefecture_kana":"ワカヤマケン","city":"西牟婁郡すさみ町","city_kana":"ニシムログンスサミチョウ","town":"佐本深谷","town_kana":"サモトフカタニ","prefecture_code":30},"2621":{"zip_code":"6492621","prefecture":"和歌山県","prefecture_kana":"ワカヤマケン","city":"西牟婁郡すさみ町","city_kana":"ニシムログンスサミチョウ","town":"周参見","town_kana":"スサミ","prefecture_code":30},"2631":{"zip_code":"6492631","prefecture":"和歌山県","prefecture_kana":"ワカヤマケン","city":"西牟婁郡すさみ町","city_kana":"ニシムログンスサミチョウ","town":"太間川","town_kana":"タイマガワ","prefecture_code":30},"3152":{"zip_code":"6493152","prefecture":"和歌山県","prefecture_kana":"ワカヤマケン","city":"西牟婁郡すさみ町","city_kana":"ニシムログンスサミチョウ","town":"防己","town_kana":"ツヅラ","prefecture_code":30},"3141":{"zip_code":"6493141","prefecture":"和歌山県","prefecture_kana":"ワカヤマケン","city":"西牟婁郡すさみ町","city_kana":"ニシムログンスサミチョウ","town":"見老津","town_kana":"ミロヅ","prefecture_code":30},"2604":{"zip_code":"6492604","prefecture":"和歌山県","prefecture_kana":"ワカヤマケン","city":"西牟婁郡すさみ町","city_kana":"ニシムログンスサミチョウ","town":"矢野口","town_kana":"ヤノクチ","prefecture_code":30},"2611":{"zip_code":"6492611","prefecture":"和歌山県","prefecture_kana":"ワカヤマケン","city":"西牟婁郡すさみ町","city_kana":"ニシムログンスサミチョウ","town":"和深川","town_kana":"ワブカガワ","prefecture_code":30},"5300":{"zip_code":"6495300","prefecture":"和歌山県","prefecture_kana":"ワカヤマケン","city":"東牟婁郡那智勝浦町","city_kana":"ヒガシムログンナチカツウラチョウ","town":"","town_kana":"","prefecture_code":30},"5332":{"zip_code":"6495332","prefecture":"和歌山県","prefecture_kana":"ワカヤマケン","city":"東牟婁郡那智勝浦町","city_kana":"ヒガシムログンナチカツウラチョウ","town":"朝日","town_kana":"アサヒ","prefecture_code":30},"5133":{"zip_code":"6495133","prefecture":"和歌山県","prefecture_kana":"ワカヤマケン","city":"東牟婁郡那智勝浦町","city_kana":"ヒガシムログンナチカツウラチョウ","town":"井鹿","town_kana":"イジシ","prefecture_code":30},"5303":{"zip_code":"6495303","prefecture":"和歌山県","prefecture_kana":"ワカヤマケン","city":"東牟婁郡那智勝浦町","city_kana":"ヒガシムログンナチカツウラチョウ","town":"井関","town_kana":"イセキ","prefecture_code":30},"5302":{"zip_code":"6495302","prefecture":"和歌山県","prefecture_kana":"ワカヤマケン","city":"東牟婁郡那智勝浦町","city_kana":"ヒガシムログンナチカツウラチョウ","town":"市野々","town_kana":"イチノノ","prefecture_code":30},"5339":[{"zip_code":"6495339","prefecture":"和歌山県","prefecture_kana":"ワカヤマケン","city":"東牟婁郡那智勝浦町","city_kana":"ヒガシムログンナチカツウラチョウ","town":"市屋大浦","town_kana":"イチヤオオウラ","prefecture_code":30},{"zip_code":"6495339","prefecture":"和歌山県","prefecture_kana":"ワカヤマケン","city":"東牟婁郡那智勝浦町","city_kana":"ヒガシムログンナチカツウラチョウ","town":"市屋","town_kana":"イチヤ","prefecture_code":30}],"5141":{"zip_code":"6495141","prefecture":"和歌山県","prefecture_kana":"ワカヤマケン","city":"東牟婁郡那智勝浦町","city_kana":"ヒガシムログンナチカツウラチョウ","town":"市屋","town_kana":"イチヤ","prefecture_code":30},"5312":{"zip_code":"6495312","prefecture":"和歌山県","prefecture_kana":"ワカヤマケン","city":"東牟婁郡那智勝浦町","city_kana":"ヒガシムログンナチカツウラチョウ","town":"宇久井","town_kana":"ウグイ","prefecture_code":30},"5145":{"zip_code":"6495145","prefecture":"和歌山県","prefecture_kana":"ワカヤマケン","city":"東牟婁郡那智勝浦町","city_kana":"ヒガシムログンナチカツウラチョウ","town":"浦神","town_kana":"ウラガミ","prefecture_code":30},"5461":{"zip_code":"6495461","prefecture":"和歌山県","prefecture_kana":"ワカヤマケン","city":"東牟婁郡那智勝浦町","city_kana":"ヒガシムログンナチカツウラチョウ","town":"大野","town_kana":"オオノ","prefecture_code":30},"5466":{"zip_code":"6495466","prefecture":"和歌山県","prefecture_kana":"ワカヤマケン","city":"東牟婁郡那智勝浦町","city_kana":"ヒガシムログンナチカツウラチョウ","town":"樫原","town_kana":"カシワラ","prefecture_code":30},"5334":{"zip_code":"6495334","prefecture":"和歌山県","prefecture_kana":"ワカヤマケン","city":"東牟婁郡那智勝浦町","city_kana":"ヒガシムログンナチカツウラチョウ","town":"勝浦","town_kana":"カツウラ","prefecture_code":30},"5304":{"zip_code":"6495304","prefecture":"和歌山県","prefecture_kana":"ワカヤマケン","city":"東牟婁郡那智勝浦町","city_kana":"ヒガシムログンナチカツウラチョウ","town":"川関","town_kana":"カワセキ","prefecture_code":30},"5333":{"zip_code":"6495333","prefecture":"和歌山県","prefecture_kana":"ワカヤマケン","city":"東牟婁郡那智勝浦町","city_kana":"ヒガシムログンナチカツウラチョウ","town":"北浜","town_kana":"キタハマ","prefecture_code":30},"5313":{"zip_code":"6495313","prefecture":"和歌山県","prefecture_kana":"ワカヤマケン","city":"東牟婁郡那智勝浦町","city_kana":"ヒガシムログンナチカツウラチョウ","town":"狗子ノ川","town_kana":"クジノカワ","prefecture_code":30},"5451":{"zip_code":"6495451","prefecture":"和歌山県","prefecture_kana":"ワカヤマケン","city":"東牟婁郡那智勝浦町","city_kana":"ヒガシムログンナチカツウラチョウ","town":"口色川","town_kana":"クチイロカワ","prefecture_code":30},"5454":{"zip_code":"6495454","prefecture":"和歌山県","prefecture_kana":"ワカヤマケン","city":"東牟婁郡那智勝浦町","city_kana":"ヒガシムログンナチカツウラチョウ","town":"熊瀬川","town_kana":"クマセガワ","prefecture_code":30},"5311":{"zip_code":"6495311","prefecture":"和歌山県","prefecture_kana":"ワカヤマケン","city":"東牟婁郡那智勝浦町","city_kana":"ヒガシムログンナチカツウラチョウ","town":"高津気","town_kana":"コウヅケ","prefecture_code":30},"5135":{"zip_code":"6495135","prefecture":"和歌山県","prefecture_kana":"ワカヤマケン","city":"東牟婁郡那智勝浦町","city_kana":"ヒガシムログンナチカツウラチョウ","town":"高遠井","town_kana":"コウドオイ","prefecture_code":30},"5452":{"zip_code":"6495452","prefecture":"和歌山県","prefecture_kana":"ワカヤマケン","city":"東牟婁郡那智勝浦町","city_kana":"ヒガシムログンナチカツウラチョウ","town":"小阪","town_kana":"コサカ","prefecture_code":30},"5137":{"zip_code":"6495137","prefecture":"和歌山県","prefecture_kana":"ワカヤマケン","city":"東牟婁郡那智勝浦町","city_kana":"ヒガシムログンナチカツウラチョウ","town":"小匠","town_kana":"コダクミ","prefecture_code":30},"5144":{"zip_code":"6495144","prefecture":"和歌山県","prefecture_kana":"ワカヤマケン","city":"東牟婁郡那智勝浦町","city_kana":"ヒガシムログンナチカツウラチョウ","town":"粉白","town_kana":"コノシロ","prefecture_code":30},"5465":{"zip_code":"6495465","prefecture":"和歌山県","prefecture_kana":"ワカヤマケン","city":"東牟婁郡那智勝浦町","city_kana":"ヒガシムログンナチカツウラチョウ","town":"坂足","town_kana":"サカアシ","prefecture_code":30},"5142":{"zip_code":"6495142","prefecture":"和歌山県","prefecture_kana":"ワカヤマケン","city":"東牟婁郡那智勝浦町","city_kana":"ヒガシムログンナチカツウラチョウ","town":"下里","town_kana":"シモサト","prefecture_code":30},"5148":{"zip_code":"6495148","prefecture":"和歌山県","prefecture_kana":"ワカヤマケン","city":"東牟婁郡那智勝浦町","city_kana":"ヒガシムログンナチカツウラチョウ","town":"下和田","town_kana":"シモワダ","prefecture_code":30},"5147":{"zip_code":"6495147","prefecture":"和歌山県","prefecture_kana":"ワカヤマケン","city":"東牟婁郡那智勝浦町","city_kana":"ヒガシムログンナチカツウラチョウ","town":"庄","town_kana":"ショウ","prefecture_code":30},"5463":{"zip_code":"6495463","prefecture":"和歌山県","prefecture_kana":"ワカヤマケン","city":"東牟婁郡那智勝浦町","city_kana":"ヒガシムログンナチカツウラチョウ","town":"高野","town_kana":"タカノ","prefecture_code":30},"5462":{"zip_code":"6495462","prefecture":"和歌山県","prefecture_kana":"ワカヤマケン","city":"東牟婁郡那智勝浦町","city_kana":"ヒガシムログンナチカツウラチョウ","town":"田垣内","town_kana":"タガイト","prefecture_code":30},"5335":{"zip_code":"6495335","prefecture":"和歌山県","prefecture_kana":"ワカヤマケン","city":"東牟婁郡那智勝浦町","city_kana":"ヒガシムログンナチカツウラチョウ","town":"築地","town_kana":"ツキジ","prefecture_code":30},"5331":{"zip_code":"6495331","prefecture":"和歌山県","prefecture_kana":"ワカヤマケン","city":"東牟婁郡那智勝浦町","city_kana":"ヒガシムログンナチカツウラチョウ","town":"天満","town_kana":"テンマ","prefecture_code":30},"5146":{"zip_code":"6495146","prefecture":"和歌山県","prefecture_kana":"ワカヤマケン","city":"東牟婁郡那智勝浦町","city_kana":"ヒガシムログンナチカツウラチョウ","town":"中里","town_kana":"ナカサト","prefecture_code":30},"5132":{"zip_code":"6495132","prefecture":"和歌山県","prefecture_kana":"ワカヤマケン","city":"東牟婁郡那智勝浦町","city_kana":"ヒガシムログンナチカツウラチョウ","town":"中ノ川","town_kana":"ナカノカワ","prefecture_code":30},"5136":{"zip_code":"6495136","prefecture":"和歌山県","prefecture_kana":"ワカヤマケン","city":"東牟婁郡那智勝浦町","city_kana":"ヒガシムログンナチカツウラチョウ","town":"長井","town_kana":"ナガイ","prefecture_code":30},"5301":{"zip_code":"6495301","prefecture":"和歌山県","prefecture_kana":"ワカヤマケン","city":"東牟婁郡那智勝浦町","city_kana":"ヒガシムログンナチカツウラチョウ","town":"那智山","town_kana":"ナチサン","prefecture_code":30},"5338":{"zip_code":"6495338","prefecture":"和歌山県","prefecture_kana":"ワカヤマケン","city":"東牟婁郡那智勝浦町","city_kana":"ヒガシムログンナチカツウラチョウ","town":"二河","town_kana":"ニコウ","prefecture_code":30},"5131":{"zip_code":"6495131","prefecture":"和歌山県","prefecture_kana":"ワカヤマケン","city":"東牟婁郡那智勝浦町","city_kana":"ヒガシムログンナチカツウラチョウ","town":"西中野川","town_kana":"ニシナカノカワ","prefecture_code":30},"5337":{"zip_code":"6495337","prefecture":"和歌山県","prefecture_kana":"ワカヤマケン","city":"東牟婁郡那智勝浦町","city_kana":"ヒガシムログンナチカツウラチョウ","town":"橋ノ川","town_kana":"ハシノカワ","prefecture_code":30},"5314":{"zip_code":"6495314","prefecture":"和歌山県","prefecture_kana":"ワカヤマケン","city":"東牟婁郡那智勝浦町","city_kana":"ヒガシムログンナチカツウラチョウ","town":"浜ノ宮","town_kana":"ハマノミヤ","prefecture_code":30},"5464":{"zip_code":"6495464","prefecture":"和歌山県","prefecture_kana":"ワカヤマケン","city":"東牟婁郡那智勝浦町","city_kana":"ヒガシムログンナチカツウラチョウ","town":"直柱","town_kana":"ヒタハシラ","prefecture_code":30},"5134":{"zip_code":"6495134","prefecture":"和歌山県","prefecture_kana":"ワカヤマケン","city":"東牟婁郡那智勝浦町","city_kana":"ヒガシムログンナチカツウラチョウ","town":"南大居","town_kana":"ミナミオオイ","prefecture_code":30},"5453":{"zip_code":"6495453","prefecture":"和歌山県","prefecture_kana":"ワカヤマケン","city":"東牟婁郡那智勝浦町","city_kana":"ヒガシムログンナチカツウラチョウ","town":"南平野","town_kana":"ミナミヒラノ","prefecture_code":30},"5143":{"zip_code":"6495143","prefecture":"和歌山県","prefecture_kana":"ワカヤマケン","city":"東牟婁郡那智勝浦町","city_kana":"ヒガシムログンナチカツウラチョウ","town":"八尺鏡野","town_kana":"ヤタガノ","prefecture_code":30},"5336":{"zip_code":"6495336","prefecture":"和歌山県","prefecture_kana":"ワカヤマケン","city":"東牟婁郡那智勝浦町","city_kana":"ヒガシムログンナチカツウラチョウ","town":"湯川","town_kana":"ユカワ","prefecture_code":30},"5100":{"zip_code":"6495100","prefecture":"和歌山県","prefecture_kana":"ワカヤマケン","city":"東牟婁郡太地町","city_kana":"ヒガシムログンタイジチョウ","town":"","town_kana":"","prefecture_code":30},"5371":{"zip_code":"6495371","prefecture":"和歌山県","prefecture_kana":"ワカヤマケン","city":"東牟婁郡太地町","city_kana":"ヒガシムログンタイジチョウ","town":"太地","town_kana":"タイジ","prefecture_code":30},"5171":{"zip_code":"6495171","prefecture":"和歌山県","prefecture_kana":"ワカヤマケン","city":"東牟婁郡太地町","city_kana":"ヒガシムログンタイジチョウ","town":"太地","town_kana":"タイジ","prefecture_code":30},"5172":{"zip_code":"6495172","prefecture":"和歌山県","prefecture_kana":"ワカヤマケン","city":"東牟婁郡太地町","city_kana":"ヒガシムログンタイジチョウ","town":"森浦","town_kana":"モリウラ","prefecture_code":30},"4100":{"zip_code":"6494100","prefecture":"和歌山県","prefecture_kana":"ワカヤマケン","city":"東牟婁郡古座川町","city_kana":"ヒガシムログンコザガワチョウ","town":"","town_kana":"","prefecture_code":30},"4235":{"zip_code":"6494235","prefecture":"和歌山県","prefecture_kana":"ワカヤマケン","city":"東牟婁郡古座川町","city_kana":"ヒガシムログンコザガワチョウ","town":"相瀬","town_kana":"アイセ","prefecture_code":30},"4103":{"zip_code":"6494103","prefecture":"和歌山県","prefecture_kana":"ワカヤマケン","city":"東牟婁郡古座川町","city_kana":"ヒガシムログンコザガワチョウ","town":"池野山","town_kana":"イケノヤマ","prefecture_code":30},"4232":{"zip_code":"6494232","prefecture":"和歌山県","prefecture_kana":"ワカヤマケン","city":"東牟婁郡古座川町","city_kana":"ヒガシムログンコザガワチョウ","town":"一雨","town_kana":"イチブリ","prefecture_code":30},"4453":{"zip_code":"6494453","prefecture":"和歌山県","prefecture_kana":"ワカヤマケン","city":"東牟婁郡古座川町","city_kana":"ヒガシムログンコザガワチョウ","town":"洞尾","town_kana":"ウツオ","prefecture_code":30},"4105":{"zip_code":"6494105","prefecture":"和歌山県","prefecture_kana":"ワカヤマケン","city":"東牟婁郡古座川町","city_kana":"ヒガシムログンコザガワチョウ","town":"宇津木","town_kana":"ウツギ","prefecture_code":30},"4214":{"zip_code":"6494214","prefecture":"和歌山県","prefecture_kana":"ワカヤマケン","city":"東牟婁郡古座川町","city_kana":"ヒガシムログンコザガワチョウ","town":"宇筒井","town_kana":"ウヅツイ","prefecture_code":30},"4225":{"zip_code":"6494225","prefecture":"和歌山県","prefecture_kana":"ワカヤマケン","city":"東牟婁郡古座川町","city_kana":"ヒガシムログンコザガワチョウ","town":"潤野","town_kana":"ウルノ","prefecture_code":30},"4451":{"zip_code":"6494451","prefecture":"和歌山県","prefecture_kana":"ワカヤマケン","city":"東牟婁郡古座川町","city_kana":"ヒガシムログンコザガワチョウ","town":"大川","town_kana":"オオカワ","prefecture_code":30},"4215":{"zip_code":"6494215","prefecture":"和歌山県","prefecture_kana":"ワカヤマケン","city":"東牟婁郡古座川町","city_kana":"ヒガシムログンコザガワチョウ","town":"大桑","town_kana":"オオグワ","prefecture_code":30},"4227":{"zip_code":"6494227","prefecture":"和歌山県","prefecture_kana":"ワカヤマケン","city":"東牟婁郡古座川町","city_kana":"ヒガシムログンコザガワチョウ","town":"大柳","town_kana":"オオヤナギ","prefecture_code":30},"4101":{"zip_code":"6494101","prefecture":"和歌山県","prefecture_kana":"ワカヤマケン","city":"東牟婁郡古座川町","city_kana":"ヒガシムログンコザガワチョウ","town":"樫山","town_kana":"カシヤマ","prefecture_code":30},"4223":{"zip_code":"6494223","prefecture":"和歌山県","prefecture_kana":"ワカヤマケン","city":"東牟婁郡古座川町","city_kana":"ヒガシムログンコザガワチョウ","town":"川口","town_kana":"カワグチ","prefecture_code":30},"4102":{"zip_code":"6494102","prefecture":"和歌山県","prefecture_kana":"ワカヤマケン","city":"東牟婁郡古座川町","city_kana":"ヒガシムログンコザガワチョウ","town":"楠","town_kana":"クス","prefecture_code":30},"4452":{"zip_code":"6494452","prefecture":"和歌山県","prefecture_kana":"ワカヤマケン","city":"東牟婁郡古座川町","city_kana":"ヒガシムログンコザガワチョウ","town":"蔵土","town_kana":"クロズ","prefecture_code":30},"4216":{"zip_code":"6494216","prefecture":"和歌山県","prefecture_kana":"ワカヤマケン","city":"東牟婁郡古座川町","city_kana":"ヒガシムログンコザガワチョウ","town":"小川","town_kana":"コガワ","prefecture_code":30},"4211":{"zip_code":"6494211","prefecture":"和歌山県","prefecture_kana":"ワカヤマケン","city":"東牟婁郡古座川町","city_kana":"ヒガシムログンコザガワチョウ","town":"小森川","town_kana":"コモリガワ","prefecture_code":30},"4442":{"zip_code":"6494442","prefecture":"和歌山県","prefecture_kana":"ワカヤマケン","city":"東牟婁郡古座川町","city_kana":"ヒガシムログンコザガワチョウ","town":"佐田","town_kana":"サダ","prefecture_code":30},"4562":{"zip_code":"6494562","prefecture":"和歌山県","prefecture_kana":"ワカヤマケン","city":"東牟婁郡古座川町","city_kana":"ヒガシムログンコザガワチョウ","town":"下露","town_kana":"シモツユ","prefecture_code":30},"4441":{"zip_code":"6494441","prefecture":"和歌山県","prefecture_kana":"ワカヤマケン","city":"東牟婁郡古座川町","city_kana":"ヒガシムログンコザガワチョウ","town":"添野川","town_kana":"ソイノガワ","prefecture_code":30},"4104":{"zip_code":"6494104","prefecture":"和歌山県","prefecture_kana":"ワカヤマケン","city":"東牟婁郡古座川町","city_kana":"ヒガシムログンコザガワチョウ","town":"高池","town_kana":"タカイケ","prefecture_code":30},"4224":{"zip_code":"6494224","prefecture":"和歌山県","prefecture_kana":"ワカヤマケン","city":"東牟婁郡古座川町","city_kana":"ヒガシムログンコザガワチョウ","town":"高瀬","town_kana":"タカセ","prefecture_code":30},"4212":{"zip_code":"6494212","prefecture":"和歌山県","prefecture_kana":"ワカヤマケン","city":"東牟婁郡古座川町","city_kana":"ヒガシムログンコザガワチョウ","town":"田川","town_kana":"タガワ","prefecture_code":30},"4233":{"zip_code":"6494233","prefecture":"和歌山県","prefecture_kana":"ワカヤマケン","city":"東牟婁郡古座川町","city_kana":"ヒガシムログンコザガワチョウ","town":"立合","town_kana":"タチアイ","prefecture_code":30},"4236":{"zip_code":"6494236","prefecture":"和歌山県","prefecture_kana":"ワカヤマケン","city":"東牟婁郡古座川町","city_kana":"ヒガシムログンコザガワチョウ","town":"立合川","town_kana":"タチアイガワ","prefecture_code":30},"4106":{"zip_code":"6494106","prefecture":"和歌山県","prefecture_kana":"ワカヤマケン","city":"東牟婁郡古座川町","city_kana":"ヒガシムログンコザガワチョウ","town":"月野瀬","town_kana":"ツキノセ","prefecture_code":30},"4231":{"zip_code":"6494231","prefecture":"和歌山県","prefecture_kana":"ワカヤマケン","city":"東牟婁郡古座川町","city_kana":"ヒガシムログンコザガワチョウ","town":"鶴川","town_kana":"ツルガワ","prefecture_code":30},"4221":{"zip_code":"6494221","prefecture":"和歌山県","prefecture_kana":"ワカヤマケン","city":"東牟婁郡古座川町","city_kana":"ヒガシムログンコザガワチョウ","town":"中崎","town_kana":"ナカザキ","prefecture_code":30},"4444":{"zip_code":"6494444","prefecture":"和歌山県","prefecture_kana":"ワカヤマケン","city":"東牟婁郡古座川町","city_kana":"ヒガシムログンコザガワチョウ","town":"長追","town_kana":"ナガオイ","prefecture_code":30},"4454":{"zip_code":"6494454","prefecture":"和歌山県","prefecture_kana":"ワカヤマケン","city":"東牟婁郡古座川町","city_kana":"ヒガシムログンコザガワチョウ","town":"南平","town_kana":"ナベラ","prefecture_code":30},"4565":{"zip_code":"6494565","prefecture":"和歌山県","prefecture_kana":"ワカヤマケン","city":"東牟婁郡古座川町","city_kana":"ヒガシムログンコザガワチョウ","town":"成川","town_kana":"ナルカワ","prefecture_code":30},"4213":{"zip_code":"6494213","prefecture":"和歌山県","prefecture_kana":"ワカヤマケン","city":"東牟婁郡古座川町","city_kana":"ヒガシムログンコザガワチョウ","town":"西赤木","town_kana":"ニシアカギ","prefecture_code":30},"4561":{"zip_code":"6494561","prefecture":"和歌山県","prefecture_kana":"ワカヤマケン","city":"東牟婁郡古座川町","city_kana":"ヒガシムログンコザガワチョウ","town":"西川","town_kana":"ニシカワ","prefecture_code":30},"4222":{"zip_code":"6494222","prefecture":"和歌山県","prefecture_kana":"ワカヤマケン","city":"東牟婁郡古座川町","city_kana":"ヒガシムログンコザガワチョウ","town":"直見","town_kana":"ヌクミ","prefecture_code":30},"4563":{"zip_code":"6494563","prefecture":"和歌山県","prefecture_kana":"ワカヤマケン","city":"東牟婁郡古座川町","city_kana":"ヒガシムログンコザガワチョウ","town":"平井","town_kana":"ヒライ","prefecture_code":30},"4564":{"zip_code":"6494564","prefecture":"和歌山県","prefecture_kana":"ワカヤマケン","city":"東牟婁郡古座川町","city_kana":"ヒガシムログンコザガワチョウ","town":"松根","town_kana":"マツネ","prefecture_code":30},"4443":{"zip_code":"6494443","prefecture":"和歌山県","prefecture_kana":"ワカヤマケン","city":"東牟婁郡古座川町","city_kana":"ヒガシムログンコザガワチョウ","town":"真砂","town_kana":"マナゴ","prefecture_code":30},"4455":{"zip_code":"6494455","prefecture":"和歌山県","prefecture_kana":"ワカヤマケン","city":"東牟婁郡古座川町","city_kana":"ヒガシムログンコザガワチョウ","town":"三尾川","town_kana":"ミトガワ","prefecture_code":30},"4234":{"zip_code":"6494234","prefecture":"和歌山県","prefecture_kana":"ワカヤマケン","city":"東牟婁郡古座川町","city_kana":"ヒガシムログンコザガワチョウ","town":"峰","town_kana":"ミネ","prefecture_code":30},"4226":{"zip_code":"6494226","prefecture":"和歌山県","prefecture_kana":"ワカヤマケン","city":"東牟婁郡古座川町","city_kana":"ヒガシムログンコザガワチョウ","town":"明神","town_kana":"ミョウジン","prefecture_code":30},"4217":{"zip_code":"6494217","prefecture":"和歌山県","prefecture_kana":"ワカヤマケン","city":"東牟婁郡古座川町","city_kana":"ヒガシムログンコザガワチョウ","town":"山手","town_kana":"ヤマテ","prefecture_code":30},"3500":{"zip_code":"6493500","prefecture":"和歌山県","prefecture_kana":"ワカヤマケン","city":"東牟婁郡串本町","city_kana":"ヒガシムログンクシモトチョウ","town":"","town_kana":"","prefecture_code":30},"3514":{"zip_code":"6493514","prefecture":"和歌山県","prefecture_kana":"ワカヤマケン","city":"東牟婁郡串本町","city_kana":"ヒガシムログンクシモトチョウ","town":"有田","town_kana":"アリダ","prefecture_code":30},"3518":{"zip_code":"6493518","prefecture":"和歌山県","prefecture_kana":"ワカヤマケン","city":"東牟婁郡串本町","city_kana":"ヒガシムログンクシモトチョウ","town":"有田上","town_kana":"アリダカミ","prefecture_code":30},"4124":{"zip_code":"6494124","prefecture":"和歌山県","prefecture_kana":"ワカヤマケン","city":"東牟婁郡串本町","city_kana":"ヒガシムログンクシモトチョウ","town":"伊串","town_kana":"イクシ","prefecture_code":30},"3501":{"zip_code":"6493501","prefecture":"和歌山県","prefecture_kana":"ワカヤマケン","city":"東牟婁郡串本町","city_kana":"ヒガシムログンクシモトチョウ","town":"出雲","town_kana":"イツモ","prefecture_code":30},"4114":{"zip_code":"6494114","prefecture":"和歌山県","prefecture_kana":"ワカヤマケン","city":"東牟婁郡串本町","city_kana":"ヒガシムログンクシモトチョウ","town":"上野山","town_kana":"ウエノヤマ","prefecture_code":30},"3521":{"zip_code":"6493521","prefecture":"和歌山県","prefecture_kana":"ワカヤマケン","city":"東牟婁郡串本町","city_kana":"ヒガシムログンクシモトチョウ","town":"江田","town_kana":"エダ","prefecture_code":30},"3633":{"zip_code":"6493633","prefecture":"和歌山県","prefecture_kana":"ワカヤマケン","city":"東牟婁郡串本町","city_kana":"ヒガシムログンクシモトチョウ","town":"大島","town_kana":"オオシマ","prefecture_code":30},"3631":{"zip_code":"6493631","prefecture":"和歌山県","prefecture_kana":"ワカヤマケン","city":"東牟婁郡串本町","city_kana":"ヒガシムログンクシモトチョウ","town":"樫野","town_kana":"カシノ","prefecture_code":30},"4111":{"zip_code":"6494111","prefecture":"和歌山県","prefecture_kana":"ワカヤマケン","city":"東牟婁郡串本町","city_kana":"ヒガシムログンクシモトチョウ","town":"上田原","town_kana":"カミタワラ","prefecture_code":30},"3511":{"zip_code":"6493511","prefecture":"和歌山県","prefecture_kana":"ワカヤマケン","city":"東牟婁郡串本町","city_kana":"ヒガシムログンクシモトチョウ","town":"鬮野川","town_kana":"クジノカワ","prefecture_code":30},"3503":{"zip_code":"6493503","prefecture":"和歌山県","prefecture_kana":"ワカヤマケン","city":"東牟婁郡串本町","city_kana":"ヒガシムログンクシモトチョウ","town":"串本","town_kana":"クシモト","prefecture_code":30},"4115":{"zip_code":"6494115","prefecture":"和歌山県","prefecture_kana":"ワカヤマケン","city":"東牟婁郡串本町","city_kana":"ヒガシムログンクシモトチョウ","town":"古座","town_kana":"コザ","prefecture_code":30},"4123":{"zip_code":"6494123","prefecture":"和歌山県","prefecture_kana":"ワカヤマケン","city":"東牟婁郡串本町","city_kana":"ヒガシムログンクシモトチョウ","town":"神野川","town_kana":"コノガワ","prefecture_code":30},"3524":{"zip_code":"6493524","prefecture":"和歌山県","prefecture_kana":"ワカヤマケン","city":"東牟婁郡串本町","city_kana":"ヒガシムログンクシモトチョウ","town":"里川","town_kana":"サトガワ","prefecture_code":30},"4117":{"zip_code":"6494117","prefecture":"和歌山県","prefecture_kana":"ワカヤマケン","city":"東牟婁郡串本町","city_kana":"ヒガシムログンクシモトチョウ","town":"佐部","town_kana":"サベ","prefecture_code":30},"3510":{"zip_code":"6493510","prefecture":"和歌山県","prefecture_kana":"ワカヤマケン","city":"東牟婁郡串本町","city_kana":"ヒガシムログンクシモトチョウ","town":"サンゴ台","town_kana":"サンゴダイ","prefecture_code":30},"3502":{"zip_code":"6493502","prefecture":"和歌山県","prefecture_kana":"ワカヤマケン","city":"東牟婁郡串本町","city_kana":"ヒガシムログンクシモトチョウ","town":"潮岬","town_kana":"シオノミサキ","prefecture_code":30},"3632":{"zip_code":"6493632","prefecture":"和歌山県","prefecture_kana":"ワカヤマケン","city":"東牟婁郡串本町","city_kana":"ヒガシムログンクシモトチョウ","town":"須江","town_kana":"スエ","prefecture_code":30},"3513":{"zip_code":"6493513","prefecture":"和歌山県","prefecture_kana":"ワカヤマケン","city":"東牟婁郡串本町","city_kana":"ヒガシムログンクシモトチョウ","town":"高富","town_kana":"タカトミ","prefecture_code":30},"3522":{"zip_code":"6493522","prefecture":"和歌山県","prefecture_kana":"ワカヤマケン","city":"東牟婁郡串本町","city_kana":"ヒガシムログンクシモトチョウ","town":"田子","town_kana":"タコ","prefecture_code":30},"3515":{"zip_code":"6493515","prefecture":"和歌山県","prefecture_kana":"ワカヤマケン","city":"東牟婁郡串本町","city_kana":"ヒガシムログンクシモトチョウ","town":"田並","town_kana":"タナミ","prefecture_code":30},"3516":{"zip_code":"6493516","prefecture":"和歌山県","prefecture_kana":"ワカヤマケン","city":"東牟婁郡串本町","city_kana":"ヒガシムログンクシモトチョウ","town":"田並上","town_kana":"タナミカミ","prefecture_code":30},"4112":{"zip_code":"6494112","prefecture":"和歌山県","prefecture_kana":"ワカヤマケン","city":"東牟婁郡串本町","city_kana":"ヒガシムログンクシモトチョウ","town":"田原","town_kana":"タワラ","prefecture_code":30},"4113":{"zip_code":"6494113","prefecture":"和歌山県","prefecture_kana":"ワカヤマケン","city":"東牟婁郡串本町","city_kana":"ヒガシムログンクシモトチョウ","town":"津荷","town_kana":"ツガ","prefecture_code":30},"4116":{"zip_code":"6494116","prefecture":"和歌山県","prefecture_kana":"ワカヤマケン","city":"東牟婁郡串本町","city_kana":"ヒガシムログンクシモトチョウ","town":"中湊","town_kana":"ナカミナト","prefecture_code":30},"3512":{"zip_code":"6493512","prefecture":"和歌山県","prefecture_kana":"ワカヤマケン","city":"東牟婁郡串本町","city_kana":"ヒガシムログンクシモトチョウ","town":"二色","town_kana":"ニシキ","prefecture_code":30},"4122":{"zip_code":"6494122","prefecture":"和歌山県","prefecture_kana":"ワカヤマケン","city":"東牟婁郡串本町","city_kana":"ヒガシムログンクシモトチョウ","town":"西向","town_kana":"ニシムカイ","prefecture_code":30},"3517":{"zip_code":"6493517","prefecture":"和歌山県","prefecture_kana":"ワカヤマケン","city":"東牟婁郡串本町","city_kana":"ヒガシムログンクシモトチョウ","town":"吐生","town_kana":"ハブ","prefecture_code":30},"4125":{"zip_code":"6494125","prefecture":"和歌山県","prefecture_kana":"ワカヤマケン","city":"東牟婁郡串本町","city_kana":"ヒガシムログンクシモトチョウ","town":"姫","town_kana":"ヒメ","prefecture_code":30},"4126":{"zip_code":"6494126","prefecture":"和歌山県","prefecture_kana":"ワカヤマケン","city":"東牟婁郡串本町","city_kana":"ヒガシムログンクシモトチョウ","town":"姫川","town_kana":"ヒメガワ","prefecture_code":30},"4121":{"zip_code":"6494121","prefecture":"和歌山県","prefecture_kana":"ワカヤマケン","city":"東牟婁郡串本町","city_kana":"ヒガシムログンクシモトチョウ","town":"古田","town_kana":"フルタ","prefecture_code":30},"3523":{"zip_code":"6493523","prefecture":"和歌山県","prefecture_kana":"ワカヤマケン","city":"東牟婁郡串本町","city_kana":"ヒガシムログンクシモトチョウ","town":"和深","town_kana":"ワブカ","prefecture_code":30}}