{"1100":{"zip_code":"6511100","prefecture":"兵庫県","prefecture_kana":"ヒョウゴケン","city":"神戸市北区","city_kana":"コウベシキタク","town":"","town_kana":"","prefecture_code":28},"1231":{"zip_code":"6511231","prefecture":"兵庫県","prefecture_kana":"ヒョウゴケン","city":"神戸市北区","city_kana":"コウベシキタク","town":"青葉台","town_kana":"アオバダイ","prefecture_code":28},"1516":{"zip_code":"6511516","prefecture":"兵庫県","prefecture_kana":"ヒョウゴケン","city":"神戸市北区","city_kana":"コウベシキタク","town":"赤松台","town_kana":"アカマツダイ","prefecture_code":28},"1321":{"zip_code":"6511321","prefecture":"兵庫県","prefecture_kana":"ヒョウゴケン","city":"神戸市北区","city_kana":"コウベシキタク","town":"有野台","town_kana":"アリノダイ","prefecture_code":28},"1312":{"zip_code":"6511312","prefecture":"兵庫県","prefecture_kana":"ヒョウゴケン","city":"神戸市北区","city_kana":"コウベシキタク","town":"有野町有野","town_kana":"アリノチョウアリノ","prefecture_code":28},"1331":{"zip_code":"6511331","prefecture":"兵庫県","prefecture_kana":"ヒョウゴケン","city":"神戸市北区","city_kana":"コウベシキタク","town":"有野町唐櫃","town_kana":"アリノチョウカラト","prefecture_code":28},"1311":{"zip_code":"6511311","prefecture":"兵庫県","prefecture_kana":"ヒョウゴケン","city":"神戸市北区","city_kana":"コウベシキタク","town":"有野町二郎","town_kana":"アリノチョウニロウ","prefecture_code":28},"1313":{"zip_code":"6511313","prefecture":"兵庫県","prefecture_kana":"ヒョウゴケン","city":"神戸市北区","city_kana":"コウベシキタク","town":"有野中町","town_kana":"アリノナカマチ","prefecture_code":28},"1401":{"zip_code":"6511401","prefecture":"兵庫県","prefecture_kana":"ヒョウゴケン","city":"神戸市北区","city_kana":"コウベシキタク","town":"有馬町","town_kana":"アリマチョウ","prefecture_code":28},"1141":{"zip_code":"6511141","prefecture":"兵庫県","prefecture_kana":"ヒョウゴケン","city":"神戸市北区","city_kana":"コウベシキタク","town":"泉台","town_kana":"イズミダイ","prefecture_code":28},"1603":{"zip_code":"6511603","prefecture":"兵庫県","prefecture_kana":"ヒョウゴケン","city":"神戸市北区","city_kana":"コウベシキタク","town":"淡河町淡河","town_kana":"オウゴチョウオウゴ","prefecture_code":28},"1604":{"zip_code":"6511604","prefecture":"兵庫県","prefecture_kana":"ヒョウゴケン","city":"神戸市北区","city_kana":"コウベシキタク","town":"淡河町勝雄","town_kana":"オウゴチョウカツオ","prefecture_code":28},"1601":{"zip_code":"6511601","prefecture":"兵庫県","prefecture_kana":"ヒョウゴケン","city":"神戸市北区","city_kana":"コウベシキタク","town":"淡河町北僧尾","town_kana":"オウゴチョウキタソオ","prefecture_code":28},"1616":{"zip_code":"6511616","prefecture":"兵庫県","prefecture_kana":"ヒョウゴケン","city":"神戸市北区","city_kana":"コウベシキタク","town":"淡河町北畑","town_kana":"オウゴチョウキタハタ","prefecture_code":28},"1614":{"zip_code":"6511614","prefecture":"兵庫県","prefecture_kana":"ヒョウゴケン","city":"神戸市北区","city_kana":"コウベシキタク","town":"淡河町木津","town_kana":"オウゴチョウキヅ","prefecture_code":28},"1613":{"zip_code":"6511613","prefecture":"兵庫県","prefecture_kana":"ヒョウゴケン","city":"神戸市北区","city_kana":"コウベシキタク","town":"淡河町行原","town_kana":"オウゴチョウギョウノハラ","prefecture_code":28},"1622":{"zip_code":"6511622","prefecture":"兵庫県","prefecture_kana":"ヒョウゴケン","city":"神戸市北区","city_kana":"コウベシキタク","town":"淡河町神田","town_kana":"オウゴチョウコウダ","prefecture_code":28},"1611":{"zip_code":"6511611","prefecture":"兵庫県","prefecture_kana":"ヒョウゴケン","city":"神戸市北区","city_kana":"コウベシキタク","town":"淡河町中山","town_kana":"オウゴチョウナカヤマ","prefecture_code":28},"1623":{"zip_code":"6511623","prefecture":"兵庫県","prefecture_kana":"ヒョウゴケン","city":"神戸市北区","city_kana":"コウベシキタク","town":"淡河町野瀬","town_kana":"オウゴチョウノセ","prefecture_code":28},"1615":{"zip_code":"6511615","prefecture":"兵庫県","prefecture_kana":"ヒョウゴケン","city":"神戸市北区","city_kana":"コウベシキタク","town":"淡河町萩原","town_kana":"オウゴチョウハギワラ","prefecture_code":28},"1612":{"zip_code":"6511612","prefecture":"兵庫県","prefecture_kana":"ヒョウゴケン","city":"神戸市北区","city_kana":"コウベシキタク","town":"淡河町東畑","town_kana":"オウゴチョウヒガシバタ","prefecture_code":28},"1621":{"zip_code":"6511621","prefecture":"兵庫県","prefecture_kana":"ヒョウゴケン","city":"神戸市北区","city_kana":"コウベシキタク","town":"淡河町神影","town_kana":"オウゴチョウミカゲ","prefecture_code":28},"1602":{"zip_code":"6511602","prefecture":"兵庫県","prefecture_kana":"ヒョウゴケン","city":"神戸市北区","city_kana":"コウベシキタク","town":"淡河町南僧尾","town_kana":"オウゴチョウミナミソオ","prefecture_code":28},"1206":{"zip_code":"6511206","prefecture":"兵庫県","prefecture_kana":"ヒョウゴケン","city":"神戸市北区","city_kana":"コウベシキタク","town":"大池見山台","town_kana":"オオイケミヤマダイ","prefecture_code":28},"1521":{"zip_code":"6511521","prefecture":"兵庫県","prefecture_kana":"ヒョウゴケン","city":"神戸市北区","city_kana":"コウベシキタク","town":"大沢町市原","town_kana":"オオゾウチョウイチハラ","prefecture_code":28},"1522":{"zip_code":"6511522","prefecture":"兵庫県","prefecture_kana":"ヒョウゴケン","city":"神戸市北区","city_kana":"コウベシキタク","town":"大沢町上大沢","town_kana":"オオゾウチョウカミオオゾウ","prefecture_code":28},"1523":{"zip_code":"6511523","prefecture":"兵庫県","prefecture_kana":"ヒョウゴケン","city":"神戸市北区","city_kana":"コウベシキタク","town":"大沢町神付","town_kana":"オオゾウチョウカンヅケ","prefecture_code":28},"1526":{"zip_code":"6511526","prefecture":"兵庫県","prefecture_kana":"ヒョウゴケン","city":"神戸市北区","city_kana":"コウベシキタク","town":"大沢町簾","town_kana":"オオゾウチョウスダレ","prefecture_code":28},"1524":{"zip_code":"6511524","prefecture":"兵庫県","prefecture_kana":"ヒョウゴケン","city":"神戸市北区","city_kana":"コウベシキタク","town":"大沢町中大沢","town_kana":"オオゾウチョウナカオオゾウ","prefecture_code":28},"1525":{"zip_code":"6511525","prefecture":"兵庫県","prefecture_kana":"ヒョウゴケン","city":"神戸市北区","city_kana":"コウベシキタク","town":"大沢町日西原","town_kana":"オオゾウチョウヒサイバラ","prefecture_code":28},"1222":{"zip_code":"6511222","prefecture":"兵庫県","prefecture_kana":"ヒョウゴケン","city":"神戸市北区","city_kana":"コウベシキタク","town":"大原","town_kana":"オオハラ","prefecture_code":28},"1144":{"zip_code":"6511144","prefecture":"兵庫県","prefecture_kana":"ヒョウゴケン","city":"神戸市北区","city_kana":"コウベシキタク","town":"大脇台","town_kana":"オオワキダイ","prefecture_code":28},"1211":{"zip_code":"6511211","prefecture":"兵庫県","prefecture_kana":"ヒョウゴケン","city":"神戸市北区","city_kana":"コウベシキタク","town":"小倉台","town_kana":"オグラダイ","prefecture_code":28},"1255":{"zip_code":"6511255","prefecture":"兵庫県","prefecture_kana":"ヒョウゴケン","city":"神戸市北区","city_kana":"コウベシキタク","town":"柏尾台","town_kana":"カシオダイ","prefecture_code":28},"1223":{"zip_code":"6511223","prefecture":"兵庫県","prefecture_kana":"ヒョウゴケン","city":"神戸市北区","city_kana":"コウベシキタク","town":"桂木","town_kana":"カツラギ","prefecture_code":28},"1514":{"zip_code":"6511514","prefecture":"兵庫県","prefecture_kana":"ヒョウゴケン","city":"神戸市北区","city_kana":"コウベシキタク","town":"鹿の子台南町","town_kana":"カノコダイミナミマチ","prefecture_code":28},"1513":{"zip_code":"6511513","prefecture":"兵庫県","prefecture_kana":"ヒョウゴケン","city":"神戸市北区","city_kana":"コウベシキタク","town":"鹿の子台北町","town_kana":"カノコダイキタマチ","prefecture_code":28},"1332":{"zip_code":"6511332","prefecture":"兵庫県","prefecture_kana":"ヒョウゴケン","city":"神戸市北区","city_kana":"コウベシキタク","town":"唐櫃台","town_kana":"カラトダイ","prefecture_code":28},"1334":{"zip_code":"6511334","prefecture":"兵庫県","prefecture_kana":"ヒョウゴケン","city":"神戸市北区","city_kana":"コウベシキタク","town":"唐櫃六甲台","town_kana":"カラトロッコウダイ","prefecture_code":28},"1131":{"zip_code":"6511131","prefecture":"兵庫県","prefecture_kana":"ヒョウゴケン","city":"神戸市北区","city_kana":"コウベシキタク","town":"北五葉","town_kana":"キタゴヨウ","prefecture_code":28},"1122":{"zip_code":"6511122","prefecture":"兵庫県","prefecture_kana":"ヒョウゴケン","city":"神戸市北区","city_kana":"コウベシキタク","town":"君影町","town_kana":"キミカゲチョウ","prefecture_code":28},"1304":{"zip_code":"6511304","prefecture":"兵庫県","prefecture_kana":"ヒョウゴケン","city":"神戸市北区","city_kana":"コウベシキタク","town":"京地","town_kana":"キョウジ","prefecture_code":28},"1142":{"zip_code":"6511142","prefecture":"兵庫県","prefecture_kana":"ヒョウゴケン","city":"神戸市北区","city_kana":"コウベシキタク","town":"甲栄台","town_kana":"コウエイダイ","prefecture_code":28},"1515":{"zip_code":"6511515","prefecture":"兵庫県","prefecture_kana":"ヒョウゴケン","city":"神戸市北区","city_kana":"コウベシキタク","town":"上津台","town_kana":"コウヅダイ","prefecture_code":28},"1203":{"zip_code":"6511203","prefecture":"兵庫県","prefecture_kana":"ヒョウゴケン","city":"神戸市北区","city_kana":"コウベシキタク","town":"幸陽町","town_kana":"コウヨウチョウ","prefecture_code":28},"1213":{"zip_code":"6511213","prefecture":"兵庫県","prefecture_kana":"ヒョウゴケン","city":"神戸市北区","city_kana":"コウベシキタク","town":"広陵町","town_kana":"コウリョウチョウ","prefecture_code":28},"1214":{"zip_code":"6511214","prefecture":"兵庫県","prefecture_kana":"ヒョウゴケン","city":"神戸市北区","city_kana":"コウベシキタク","town":"桜森町","town_kana":"サクラシンマチ","prefecture_code":28},"1306":{"zip_code":"6511306","prefecture":"兵庫県","prefecture_kana":"ヒョウゴケン","city":"神戸市北区","city_kana":"コウベシキタク","town":"菖蒲が丘","town_kana":"ショウブガオカ","prefecture_code":28},"1146":{"zip_code":"6511146","prefecture":"兵庫県","prefecture_kana":"ヒョウゴケン","city":"神戸市北区","city_kana":"コウベシキタク","town":"杉尾台","town_kana":"スギオダイ","prefecture_code":28},"1112":{"zip_code":"6511112","prefecture":"兵庫県","prefecture_kana":"ヒョウゴケン","city":"神戸市北区","city_kana":"コウベシキタク","town":"鈴蘭台東町","town_kana":"スズランダイヒガシマチ","prefecture_code":28},"1114":{"zip_code":"6511114","prefecture":"兵庫県","prefecture_kana":"ヒョウゴケン","city":"神戸市北区","city_kana":"コウベシキタク","town":"鈴蘭台西町","town_kana":"スズランダイニシマチ","prefecture_code":28},"1113":{"zip_code":"6511113","prefecture":"兵庫県","prefecture_kana":"ヒョウゴケン","city":"神戸市北区","city_kana":"コウベシキタク","town":"鈴蘭台南町","town_kana":"スズランダイミナミマチ","prefecture_code":28},"1111":{"zip_code":"6511111","prefecture":"兵庫県","prefecture_kana":"ヒョウゴケン","city":"神戸市北区","city_kana":"コウベシキタク","town":"鈴蘭台北町","town_kana":"スズランダイキタマチ","prefecture_code":28},"1121":{"zip_code":"6511121","prefecture":"兵庫県","prefecture_kana":"ヒョウゴケン","city":"神戸市北区","city_kana":"コウベシキタク","town":"星和台","town_kana":"セイワダイ","prefecture_code":28},"1145":{"zip_code":"6511145","prefecture":"兵庫県","prefecture_kana":"ヒョウゴケン","city":"神戸市北区","city_kana":"コウベシキタク","town":"惣山町","town_kana":"ソウヤマチョウ","prefecture_code":28},"1245":{"zip_code":"6511245","prefecture":"兵庫県","prefecture_kana":"ヒョウゴケン","city":"神戸市北区","city_kana":"コウベシキタク","town":"谷上東町","town_kana":"タニガミヒガシマチ","prefecture_code":28},"1246":{"zip_code":"6511246","prefecture":"兵庫県","prefecture_kana":"ヒョウゴケン","city":"神戸市北区","city_kana":"コウベシキタク","town":"谷上西町","town_kana":"タニガミニシマチ","prefecture_code":28},"1244":{"zip_code":"6511244","prefecture":"兵庫県","prefecture_kana":"ヒョウゴケン","city":"神戸市北区","city_kana":"コウベシキタク","town":"谷上南町","town_kana":"タニガミミナミマチ","prefecture_code":28},"1212":{"zip_code":"6511212","prefecture":"兵庫県","prefecture_kana":"ヒョウゴケン","city":"神戸市北区","city_kana":"コウベシキタク","town":"筑紫が丘","town_kana":"ツクシガオカ","prefecture_code":28},"1505":{"zip_code":"6511505","prefecture":"兵庫県","prefecture_kana":"ヒョウゴケン","city":"神戸市北区","city_kana":"コウベシキタク","town":"道場町日下部","town_kana":"ドウジョウチョウクサカベ","prefecture_code":28},"1502":{"zip_code":"6511502","prefecture":"兵庫県","prefecture_kana":"ヒョウゴケン","city":"神戸市北区","city_kana":"コウベシキタク","town":"道場町塩田","town_kana":"ドウジョウチョウシオタ","prefecture_code":28},"1501":{"zip_code":"6511501","prefecture":"兵庫県","prefecture_kana":"ヒョウゴケン","city":"神戸市北区","city_kana":"コウベシキタク","town":"道場町道場","town_kana":"ドウジョウチョウドウジョウ","prefecture_code":28},"1504":{"zip_code":"6511504","prefecture":"兵庫県","prefecture_kana":"ヒョウゴケン","city":"神戸市北区","city_kana":"コウベシキタク","town":"道場町平田","town_kana":"ドウジョウチョウヒラタ","prefecture_code":28},"1503":{"zip_code":"6511503","prefecture":"兵庫県","prefecture_kana":"ヒョウゴケン","city":"神戸市北区","city_kana":"コウベシキタク","town":"道場町生野","town_kana":"ドウジョウチョウイクノ","prefecture_code":28},"1103":{"zip_code":"6511103","prefecture":"兵庫県","prefecture_kana":"ヒョウゴケン","city":"神戸市北区","city_kana":"コウベシキタク","town":"中里町","town_kana":"ナカザトチョウ","prefecture_code":28},"1511":{"zip_code":"6511511","prefecture":"兵庫県","prefecture_kana":"ヒョウゴケン","city":"神戸市北区","city_kana":"コウベシキタク","town":"長尾町宅原","town_kana":"ナガオチョウエイバラ","prefecture_code":28},"1512":{"zip_code":"6511512","prefecture":"兵庫県","prefecture_kana":"ヒョウゴケン","city":"神戸市北区","city_kana":"コウベシキタク","town":"長尾町上津","town_kana":"ナガオチョウコウヅ","prefecture_code":28},"1133":{"zip_code":"6511133","prefecture":"兵庫県","prefecture_kana":"ヒョウゴケン","city":"神戸市北区","city_kana":"コウベシキタク","town":"鳴子","town_kana":"ナルコ","prefecture_code":28},"1201":{"zip_code":"6511201","prefecture":"兵庫県","prefecture_kana":"ヒョウゴケン","city":"神戸市北区","city_kana":"コウベシキタク","town":"西大池","town_kana":"ニシオオイケ","prefecture_code":28},"1305":{"zip_code":"6511305","prefecture":"兵庫県","prefecture_kana":"ヒョウゴケン","city":"神戸市北区","city_kana":"コウベシキタク","town":"西山","town_kana":"ニシヤマ","prefecture_code":28},"1354":{"zip_code":"6511354","prefecture":"兵庫県","prefecture_kana":"ヒョウゴケン","city":"神戸市北区","city_kana":"コウベシキタク","town":"八多町上小名田","town_kana":"ハタチョウカミオナダ","prefecture_code":28},"1352":{"zip_code":"6511352","prefecture":"兵庫県","prefecture_kana":"ヒョウゴケン","city":"神戸市北区","city_kana":"コウベシキタク","town":"八多町下小名田","town_kana":"ハタチョウシモオナダ","prefecture_code":28},"1343":{"zip_code":"6511343","prefecture":"兵庫県","prefecture_kana":"ヒョウゴケン","city":"神戸市北区","city_kana":"コウベシキタク","town":"八多町附物","town_kana":"ハタチョウツクモノ","prefecture_code":28},"1351":{"zip_code":"6511351","prefecture":"兵庫県","prefecture_kana":"ヒョウゴケン","city":"神戸市北区","city_kana":"コウベシキタク","town":"八多町中","town_kana":"ハタチョウナカ","prefecture_code":28},"1345":{"zip_code":"6511345","prefecture":"兵庫県","prefecture_kana":"ヒョウゴケン","city":"神戸市北区","city_kana":"コウベシキタク","town":"八多町西畑","town_kana":"ハタチョウニシバタ","prefecture_code":28},"1344":{"zip_code":"6511344","prefecture":"兵庫県","prefecture_kana":"ヒョウゴケン","city":"神戸市北区","city_kana":"コウベシキタク","town":"八多町屏風","town_kana":"ハタチョウビョウブ","prefecture_code":28},"1341":{"zip_code":"6511341","prefecture":"兵庫県","prefecture_kana":"ヒョウゴケン","city":"神戸市北区","city_kana":"コウベシキタク","town":"八多町深谷","town_kana":"ハタチョウフカタニ","prefecture_code":28},"1342":{"zip_code":"6511342","prefecture":"兵庫県","prefecture_kana":"ヒョウゴケン","city":"神戸市北区","city_kana":"コウベシキタク","town":"八多町柳谷","town_kana":"ハタチョウヤナギダニ","prefecture_code":28},"1353":{"zip_code":"6511353","prefecture":"兵庫県","prefecture_kana":"ヒョウゴケン","city":"神戸市北区","city_kana":"コウベシキタク","town":"八多町吉尾","town_kana":"ハタチョウヨシオ","prefecture_code":28},"1205":{"zip_code":"6511205","prefecture":"兵庫県","prefecture_kana":"ヒョウゴケン","city":"神戸市北区","city_kana":"コウベシキタク","town":"花山台","town_kana":"ハナヤマダイ","prefecture_code":28},"1202":{"zip_code":"6511202","prefecture":"兵庫県","prefecture_kana":"ヒョウゴケン","city":"神戸市北区","city_kana":"コウベシキタク","town":"花山中尾台","town_kana":"ハナヤマナカオダイ","prefecture_code":28},"1204":{"zip_code":"6511204","prefecture":"兵庫県","prefecture_kana":"ヒョウゴケン","city":"神戸市北区","city_kana":"コウベシキタク","town":"花山東町","town_kana":"ハナヤマヒガシマチ","prefecture_code":28},"1322":{"zip_code":"6511322","prefecture":"兵庫県","prefecture_kana":"ヒョウゴケン","city":"神戸市北区","city_kana":"コウベシキタク","town":"東有野台","town_kana":"ヒガシアリノダイ","prefecture_code":28},"1333":{"zip_code":"6511333","prefecture":"兵庫県","prefecture_kana":"ヒョウゴケン","city":"神戸市北区","city_kana":"コウベシキタク","town":"東大池","town_kana":"ヒガシオオイケ","prefecture_code":28},"1233":{"zip_code":"6511233","prefecture":"兵庫県","prefecture_kana":"ヒョウゴケン","city":"神戸市北区","city_kana":"コウベシキタク","town":"日の峰","town_kana":"ヒノミネ","prefecture_code":28},"1124":{"zip_code":"6511124","prefecture":"兵庫県","prefecture_kana":"ヒョウゴケン","city":"神戸市北区","city_kana":"コウベシキタク","town":"ひよどり北町","town_kana":"ヒヨドリキタマチ","prefecture_code":28},"1123":{"zip_code":"6511123","prefecture":"兵庫県","prefecture_kana":"ヒョウゴケン","city":"神戸市北区","city_kana":"コウベシキタク","town":"ひよどり台","town_kana":"ヒヨドリダイ","prefecture_code":28},"1125":{"zip_code":"6511125","prefecture":"兵庫県","prefecture_kana":"ヒョウゴケン","city":"神戸市北区","city_kana":"コウベシキタク","town":"ひよどり台南町","town_kana":"ヒヨドリダイミナミマチ","prefecture_code":28},"1301":{"zip_code":"6511301","prefecture":"兵庫県","prefecture_kana":"ヒョウゴケン","city":"神戸市北区","city_kana":"コウベシキタク","town":"藤原台北町","town_kana":"フジワラダイキタマチ","prefecture_code":28},"1302":{"zip_code":"6511302","prefecture":"兵庫県","prefecture_kana":"ヒョウゴケン","city":"神戸市北区","city_kana":"コウベシキタク","town":"藤原台中町","town_kana":"フジワラダイナカマチ","prefecture_code":28},"1303":{"zip_code":"6511303","prefecture":"兵庫県","prefecture_kana":"ヒョウゴケン","city":"神戸市北区","city_kana":"コウベシキタク","town":"藤原台南町","town_kana":"フジワラダイミナミマチ","prefecture_code":28},"1232":{"zip_code":"6511232","prefecture":"兵庫県","prefecture_kana":"ヒョウゴケン","city":"神戸市北区","city_kana":"コウベシキタク","town":"松が枝町","town_kana":"マツガエチョウ","prefecture_code":28},"1147":{"zip_code":"6511147","prefecture":"兵庫県","prefecture_kana":"ヒョウゴケン","city":"神戸市北区","city_kana":"コウベシキタク","town":"松宮台","town_kana":"マツミヤダイ","prefecture_code":28},"1221":{"zip_code":"6511221","prefecture":"兵庫県","prefecture_kana":"ヒョウゴケン","city":"神戸市北区","city_kana":"コウベシキタク","town":"緑町","town_kana":"ミドリマチ","prefecture_code":28},"1132":{"zip_code":"6511132","prefecture":"兵庫県","prefecture_kana":"ヒョウゴケン","city":"神戸市北区","city_kana":"コウベシキタク","town":"南五葉","town_kana":"ミナミゴヨウ","prefecture_code":28},"1104":{"zip_code":"6511104","prefecture":"兵庫県","prefecture_kana":"ヒョウゴケン","city":"神戸市北区","city_kana":"コウベシキタク","town":"山田町藍那","town_kana":"ヤマダチョウアイナ","prefecture_code":28},"1105":{"zip_code":"6511105","prefecture":"兵庫県","prefecture_kana":"ヒョウゴケン","city":"神戸市北区","city_kana":"コウベシキタク","town":"山田町小河","town_kana":"ヤマダチョウオウゴ","prefecture_code":28},"1101":{"zip_code":"6511101","prefecture":"兵庫県","prefecture_kana":"ヒョウゴケン","city":"神戸市北区","city_kana":"コウベシキタク","town":"山田町小部","town_kana":"ヤマダチョウオウブ","prefecture_code":28},"1241":{"zip_code":"6511241","prefecture":"兵庫県","prefecture_kana":"ヒョウゴケン","city":"神戸市北区","city_kana":"コウベシキタク","town":"山田町大池","town_kana":"ヤマダチョウオオイケ","prefecture_code":28},"1242":{"zip_code":"6511242","prefecture":"兵庫県","prefecture_kana":"ヒョウゴケン","city":"神戸市北区","city_kana":"コウベシキタク","town":"山田町上谷上","town_kana":"ヤマダチョウカミタニガミ","prefecture_code":28},"1261":{"zip_code":"6511261","prefecture":"兵庫県","prefecture_kana":"ヒョウゴケン","city":"神戸市北区","city_kana":"コウベシキタク","town":"山田町坂本","town_kana":"ヤマダチョウサカモト","prefecture_code":28},"1102":[{"zip_code":"6511102","prefecture":"兵庫県","prefecture_kana":"ヒョウゴケン","city":"神戸市北区","city_kana":"コウベシキタク","town":"山田町下谷上大上谷","town_kana":"ヤマダチョウシモタニガミオオカミダニ","prefecture_code":28},{"zip_code":"6511102","prefecture":"兵庫県","prefecture_kana":"ヒョウゴケン","city":"神戸市北区","city_kana":"コウベシキタク","town":"山田町下谷上修法ケ原","town_kana":"ヤマダチョウシモタニガミシュウホウガハラ","prefecture_code":28},{"zip_code":"6511102","prefecture":"兵庫県","prefecture_kana":"ヒョウゴケン","city":"神戸市北区","city_kana":"コウベシキタク","town":"山田町下谷上","town_kana":"ヤマダチョウシモタニガミ","prefecture_code":28},{"zip_code":"6511102","prefecture":"兵庫県","prefecture_kana":"ヒョウゴケン","city":"神戸市北区","city_kana":"コウベシキタク","town":"山田町下谷上再度公園","town_kana":"ヤマダチョウシモタニガミフタタビコウエン","prefecture_code":28}],"1243":{"zip_code":"6511243","prefecture":"兵庫県","prefecture_kana":"ヒョウゴケン","city":"神戸市北区","city_kana":"コウベシキタク","town":"山田町下谷上","town_kana":"ヤマダチョウシモタニガミ","prefecture_code":28},"1264":{"zip_code":"6511264","prefecture":"兵庫県","prefecture_kana":"ヒョウゴケン","city":"神戸市北区","city_kana":"コウベシキタク","town":"山田町衝原","town_kana":"ヤマダチョウツクハラ","prefecture_code":28},"1253":{"zip_code":"6511253","prefecture":"兵庫県","prefecture_kana":"ヒョウゴケン","city":"神戸市北区","city_kana":"コウベシキタク","town":"山田町中","town_kana":"ヤマダチョウナカ","prefecture_code":28},"1263":{"zip_code":"6511263","prefecture":"兵庫県","prefecture_kana":"ヒョウゴケン","city":"神戸市北区","city_kana":"コウベシキタク","town":"山田町西下","town_kana":"ヤマダチョウニシシモ","prefecture_code":28},"1252":{"zip_code":"6511252","prefecture":"兵庫県","prefecture_kana":"ヒョウゴケン","city":"神戸市北区","city_kana":"コウベシキタク","town":"山田町原野","town_kana":"ヤマダチョウハラノ","prefecture_code":28},"1262":{"zip_code":"6511262","prefecture":"兵庫県","prefecture_kana":"ヒョウゴケン","city":"神戸市北区","city_kana":"コウベシキタク","town":"山田町東下","town_kana":"ヤマダチョウヒガシシモ","prefecture_code":28},"1254":{"zip_code":"6511254","prefecture":"兵庫県","prefecture_kana":"ヒョウゴケン","city":"神戸市北区","city_kana":"コウベシキタク","town":"山田町福地","town_kana":"ヤマダチョウフクチ","prefecture_code":28},"1251":{"zip_code":"6511251","prefecture":"兵庫県","prefecture_kana":"ヒョウゴケン","city":"神戸市北区","city_kana":"コウベシキタク","town":"山田町与左衛門新田","town_kana":"ヤマダチョウヨザエモンシンデン","prefecture_code":28},"1143":{"zip_code":"6511143","prefecture":"兵庫県","prefecture_kana":"ヒョウゴケン","city":"神戸市北区","city_kana":"コウベシキタク","town":"若葉台","town_kana":"ワカバダイ","prefecture_code":28},"0095":{"zip_code":"6510095","prefecture":"兵庫県","prefecture_kana":"ヒョウゴケン","city":"神戸市中央区","city_kana":"コウベシチュウオウク","town":"旭通","town_kana":"アサヒドオリ","prefecture_code":28},"0076":{"zip_code":"6510076","prefecture":"兵庫県","prefecture_kana":"ヒョウゴケン","city":"神戸市中央区","city_kana":"コウベシチュウオウク","town":"吾妻通","town_kana":"アヅマドオリ","prefecture_code":28},"0092":{"zip_code":"6510092","prefecture":"兵庫県","prefecture_kana":"ヒョウゴケン","city":"神戸市中央区","city_kana":"コウベシチュウオウク","town":"生田町","town_kana":"イクタチョウ","prefecture_code":28},"0086":{"zip_code":"6510086","prefecture":"兵庫県","prefecture_kana":"ヒョウゴケン","city":"神戸市中央区","city_kana":"コウベシチュウオウク","town":"磯上通","town_kana":"イソガミドオリ","prefecture_code":28},"0084":{"zip_code":"6510084","prefecture":"兵庫県","prefecture_kana":"ヒョウゴケン","city":"神戸市中央区","city_kana":"コウベシチュウオウク","town":"磯辺通","town_kana":"イソベドオリ","prefecture_code":28},"0088":{"zip_code":"6510088","prefecture":"兵庫県","prefecture_kana":"ヒョウゴケン","city":"神戸市中央区","city_kana":"コウベシチュウオウク","town":"小野柄通","town_kana":"オノエドオリ","prefecture_code":28},"0082":{"zip_code":"6510082","prefecture":"兵庫県","prefecture_kana":"ヒョウゴケン","city":"神戸市中央区","city_kana":"コウベシチュウオウク","town":"小野浜町","town_kana":"オノハマチョウ","prefecture_code":28},"0053":{"zip_code":"6510053","prefecture":"兵庫県","prefecture_kana":"ヒョウゴケン","city":"神戸市中央区","city_kana":"コウベシチュウオウク","town":"籠池通","town_kana":"カゴイケドオリ","prefecture_code":28},"0061":{"zip_code":"6510061","prefecture":"兵庫県","prefecture_kana":"ヒョウゴケン","city":"神戸市中央区","city_kana":"コウベシチュウオウク","town":"上筒井通","town_kana":"カミツツイドオリ","prefecture_code":28},"0067":{"zip_code":"6510067","prefecture":"兵庫県","prefecture_kana":"ヒョウゴケン","city":"神戸市中央区","city_kana":"コウベシチュウオウク","town":"神若通","town_kana":"カミワカドオリ","prefecture_code":28},"0075":{"zip_code":"6510075","prefecture":"兵庫県","prefecture_kana":"ヒョウゴケン","city":"神戸市中央区","city_kana":"コウベシチュウオウク","town":"北本町通","town_kana":"キタホンマチドオリ","prefecture_code":28},"0066":{"zip_code":"6510066","prefecture":"兵庫県","prefecture_kana":"ヒョウゴケン","city":"神戸市中央区","city_kana":"コウベシチュウオウク","town":"国香通","town_kana":"クニカドオリ","prefecture_code":28},"0096":{"zip_code":"6510096","prefecture":"兵庫県","prefecture_kana":"ヒョウゴケン","city":"神戸市中央区","city_kana":"コウベシチュウオウク","town":"雲井通","town_kana":"クモイドオリ","prefecture_code":28},"0056":{"zip_code":"6510056","prefecture":"兵庫県","prefecture_kana":"ヒョウゴケン","city":"神戸市中央区","city_kana":"コウベシチュウオウク","town":"熊内町","town_kana":"クモチチョウ","prefecture_code":28},"0055":{"zip_code":"6510055","prefecture":"兵庫県","prefecture_kana":"ヒョウゴケン","city":"神戸市中央区","city_kana":"コウベシチュウオウク","town":"熊内橋通","town_kana":"クモチバシドオリ","prefecture_code":28},"0087":{"zip_code":"6510087","prefecture":"兵庫県","prefecture_kana":"ヒョウゴケン","city":"神戸市中央区","city_kana":"コウベシチュウオウク","town":"御幸通","town_kana":"ゴコウドオリ","prefecture_code":28},"0094":{"zip_code":"6510094","prefecture":"兵庫県","prefecture_kana":"ヒョウゴケン","city":"神戸市中央区","city_kana":"コウベシチュウオウク","town":"琴ノ緒町","town_kana":"コトノオチョウ","prefecture_code":28},"0062":{"zip_code":"6510062","prefecture":"兵庫県","prefecture_kana":"ヒョウゴケン","city":"神戸市中央区","city_kana":"コウベシチュウオウク","town":"坂口通","town_kana":"サカグチドオリ","prefecture_code":28},"0079":{"zip_code":"6510079","prefecture":"兵庫県","prefecture_kana":"ヒョウゴケン","city":"神戸市中央区","city_kana":"コウベシチュウオウク","town":"東雲通","town_kana":"シノノメドオリ","prefecture_code":28},"0051":{"zip_code":"6510051","prefecture":"兵庫県","prefecture_kana":"ヒョウゴケン","city":"神戸市中央区","city_kana":"コウベシチュウオウク","town":"神仙寺通","town_kana":"シンセンジドオリ","prefecture_code":28},"0064":{"zip_code":"6510064","prefecture":"兵庫県","prefecture_kana":"ヒョウゴケン","city":"神戸市中央区","city_kana":"コウベシチュウオウク","town":"大日通","town_kana":"ダイニチドオリ","prefecture_code":28},"0071":{"zip_code":"6510071","prefecture":"兵庫県","prefecture_kana":"ヒョウゴケン","city":"神戸市中央区","city_kana":"コウベシチュウオウク","town":"筒井町","town_kana":"ツツイチョウ","prefecture_code":28},"0057":{"zip_code":"6510057","prefecture":"兵庫県","prefecture_kana":"ヒョウゴケン","city":"神戸市中央区","city_kana":"コウベシチュウオウク","town":"中尾町","town_kana":"ナカオチョウ","prefecture_code":28},"0052":{"zip_code":"6510052","prefecture":"兵庫県","prefecture_kana":"ヒョウゴケン","city":"神戸市中央区","city_kana":"コウベシチュウオウク","town":"中島通","town_kana":"ナカジマドオリ","prefecture_code":28},"0093":{"zip_code":"6510093","prefecture":"兵庫県","prefecture_kana":"ヒョウゴケン","city":"神戸市中央区","city_kana":"コウベシチュウオウク","town":"二宮町","town_kana":"ニノミヤチョウ","prefecture_code":28},"0097":{"zip_code":"6510097","prefecture":"兵庫県","prefecture_kana":"ヒョウゴケン","city":"神戸市中央区","city_kana":"コウベシチュウオウク","town":"布引町","town_kana":"ヌノビキチョウ","prefecture_code":28},"0054":{"zip_code":"6510054","prefecture":"兵庫県","prefecture_kana":"ヒョウゴケン","city":"神戸市中央区","city_kana":"コウベシチュウオウク","town":"野崎通","town_kana":"ノザキドオリ","prefecture_code":28},"0068":{"zip_code":"6510068","prefecture":"兵庫県","prefecture_kana":"ヒョウゴケン","city":"神戸市中央区","city_kana":"コウベシチュウオウク","town":"旗塚通","town_kana":"ハタツカドオリ","prefecture_code":28},"0085":{"zip_code":"6510085","prefecture":"兵庫県","prefecture_kana":"ヒョウゴケン","city":"神戸市中央区","city_kana":"コウベシチュウオウク","town":"八幡通","town_kana":"ハチマンドオリ","prefecture_code":28},"0083":{"zip_code":"6510083","prefecture":"兵庫県","prefecture_kana":"ヒョウゴケン","city":"神戸市中央区","city_kana":"コウベシチュウオウク","town":"浜辺通","town_kana":"ハマベドオリ","prefecture_code":28},"0077":{"zip_code":"6510077","prefecture":"兵庫県","prefecture_kana":"ヒョウゴケン","city":"神戸市中央区","city_kana":"コウベシチュウオウク","town":"日暮通","town_kana":"ヒグレドオリ","prefecture_code":28},"0058":{"zip_code":"6510058","prefecture":"兵庫県","prefecture_kana":"ヒョウゴケン","city":"神戸市中央区","city_kana":"コウベシチュウオウク","town":"葺合町","town_kana":"フキアイチョウ","prefecture_code":28},"0081":{"zip_code":"6510081","prefecture":"兵庫県","prefecture_kana":"ヒョウゴケン","city":"神戸市中央区","city_kana":"コウベシチュウオウク","town":"真砂通","town_kana":"マサゴドオリ","prefecture_code":28},"0074":{"zip_code":"6510074","prefecture":"兵庫県","prefecture_kana":"ヒョウゴケン","city":"神戸市中央区","city_kana":"コウベシチュウオウク","town":"南本町通","town_kana":"ミナミホンマチドオリ","prefecture_code":28},"0063":{"zip_code":"6510063","prefecture":"兵庫県","prefecture_kana":"ヒョウゴケン","city":"神戸市中央区","city_kana":"コウベシチュウオウク","town":"宮本通","town_kana":"ミヤモトドオリ","prefecture_code":28},"0078":{"zip_code":"6510078","prefecture":"兵庫県","prefecture_kana":"ヒョウゴケン","city":"神戸市中央区","city_kana":"コウベシチュウオウク","town":"八雲通","town_kana":"ヤグモドオリ","prefecture_code":28},"0091":{"zip_code":"6510091","prefecture":"兵庫県","prefecture_kana":"ヒョウゴケン","city":"神戸市中央区","city_kana":"コウベシチュウオウク","town":"若菜通","town_kana":"ワカナドオリ","prefecture_code":28},"0073":{"zip_code":"6510073","prefecture":"兵庫県","prefecture_kana":"ヒョウゴケン","city":"神戸市中央区","city_kana":"コウベシチュウオウク","town":"脇浜海岸通","town_kana":"ワキノハマカイガンドオリ","prefecture_code":28},"0072":{"zip_code":"6510072","prefecture":"兵庫県","prefecture_kana":"ヒョウゴケン","city":"神戸市中央区","city_kana":"コウベシチュウオウク","town":"脇浜町","town_kana":"ワキノハマチョウ","prefecture_code":28},"0065":{"zip_code":"6510065","prefecture":"兵庫県","prefecture_kana":"ヒョウゴケン","city":"神戸市中央区","city_kana":"コウベシチュウオウク","town":"割塚通","town_kana":"ワリヅカドオリ","prefecture_code":28},"2224":{"zip_code":"6512224","prefecture":"兵庫県","prefecture_kana":"ヒョウゴケン","city":"神戸市西区","city_kana":"コウベシニシク","town":"秋葉台","town_kana":"アキバダイ","prefecture_code":28},"2134":{"zip_code":"6512134","prefecture":"兵庫県","prefecture_kana":"ヒョウゴケン","city":"神戸市西区","city_kana":"コウベシニシク","town":"曙町","town_kana":"アケボノチョウ","prefecture_code":28},"2141":{"zip_code":"6512141","prefecture":"兵庫県","prefecture_kana":"ヒョウゴケン","city":"神戸市西区","city_kana":"コウベシニシク","town":"天が岡","town_kana":"アマガオカ","prefecture_code":28},"2113":{"zip_code":"6512113","prefecture":"兵庫県","prefecture_kana":"ヒョウゴケン","city":"神戸市西区","city_kana":"コウベシニシク","town":"伊川谷町有瀬","town_kana":"イカワダニチョウアリセ","prefecture_code":28},"2106":{"zip_code":"6512106","prefecture":"兵庫県","prefecture_kana":"ヒョウゴケン","city":"神戸市西区","city_kana":"コウベシニシク","town":"伊川谷町井吹","town_kana":"イカワダニチョウイブキ","prefecture_code":28},"2105":{"zip_code":"6512105","prefecture":"兵庫県","prefecture_kana":"ヒョウゴケン","city":"神戸市西区","city_kana":"コウベシニシク","town":"伊川谷町上脇","town_kana":"イカワダニチョウカミワキ","prefecture_code":28},"2107":{"zip_code":"6512107","prefecture":"兵庫県","prefecture_kana":"ヒョウゴケン","city":"神戸市西区","city_kana":"コウベシニシク","town":"伊川谷町小寺","town_kana":"イカワダニチョウコデラ","prefecture_code":28},"2124":{"zip_code":"6512124","prefecture":"兵庫県","prefecture_kana":"ヒョウゴケン","city":"神戸市西区","city_kana":"コウベシニシク","town":"伊川谷町潤和","town_kana":"イカワダニチョウジュンナ","prefecture_code":28},"2108":{"zip_code":"6512108","prefecture":"兵庫県","prefecture_kana":"ヒョウゴケン","city":"神戸市西区","city_kana":"コウベシニシク","town":"伊川谷町前開","town_kana":"イカワダニチョウゼンカイ","prefecture_code":28},"2104":{"zip_code":"6512104","prefecture":"兵庫県","prefecture_kana":"ヒョウゴケン","city":"神戸市西区","city_kana":"コウベシニシク","town":"伊川谷町長坂","town_kana":"イカワダニチョウナガサカ","prefecture_code":28},"2101":{"zip_code":"6512101","prefecture":"兵庫県","prefecture_kana":"ヒョウゴケン","city":"神戸市西区","city_kana":"コウベシニシク","town":"伊川谷町布施畑","town_kana":"イカワダニチョウフセハタ","prefecture_code":28},"2115":{"zip_code":"6512115","prefecture":"兵庫県","prefecture_kana":"ヒョウゴケン","city":"神戸市西区","city_kana":"コウベシニシク","town":"伊川谷町別府","town_kana":"イカワダニチョウベフ","prefecture_code":28},"2111":{"zip_code":"6512111","prefecture":"兵庫県","prefecture_kana":"ヒョウゴケン","city":"神戸市西区","city_kana":"コウベシニシク","town":"池上","town_kana":"イケガミ","prefecture_code":28},"2242":{"zip_code":"6512242","prefecture":"兵庫県","prefecture_kana":"ヒョウゴケン","city":"神戸市西区","city_kana":"コウベシニシク","town":"井吹台東町","town_kana":"イブキダイヒガシマチ","prefecture_code":28},"2243":{"zip_code":"6512243","prefecture":"兵庫県","prefecture_kana":"ヒョウゴケン","city":"神戸市西区","city_kana":"コウベシニシク","town":"井吹台西町","town_kana":"イブキダイニシマチ","prefecture_code":28},"2244":{"zip_code":"6512244","prefecture":"兵庫県","prefecture_kana":"ヒョウゴケン","city":"神戸市西区","city_kana":"コウベシニシク","town":"井吹台北町","town_kana":"イブキダイキタマチ","prefecture_code":28},"2114":{"zip_code":"6512114","prefecture":"兵庫県","prefecture_kana":"ヒョウゴケン","city":"神戸市西区","city_kana":"コウベシニシク","town":"今寺","town_kana":"イマデラ","prefecture_code":28},"2401":{"zip_code":"6512401","prefecture":"兵庫県","prefecture_kana":"ヒョウゴケン","city":"神戸市西区","city_kana":"コウベシニシク","town":"岩岡町岩岡","town_kana":"イワオカチョウイワオカ","prefecture_code":28},"2402":{"zip_code":"6512402","prefecture":"兵庫県","prefecture_kana":"ヒョウゴケン","city":"神戸市西区","city_kana":"コウベシニシク","town":"岩岡町印路","town_kana":"イワオカチョウインジ","prefecture_code":28},"2403":{"zip_code":"6512403","prefecture":"兵庫県","prefecture_kana":"ヒョウゴケン","city":"神戸市西区","city_kana":"コウベシニシク","town":"岩岡町西脇","town_kana":"イワオカチョウニシワキ","prefecture_code":28},"2405":{"zip_code":"6512405","prefecture":"兵庫県","prefecture_kana":"ヒョウゴケン","city":"神戸市西区","city_kana":"コウベシニシク","town":"岩岡町野中","town_kana":"イワオカチョウノナカ","prefecture_code":28},"2404":{"zip_code":"6512404","prefecture":"兵庫県","prefecture_kana":"ヒョウゴケン","city":"神戸市西区","city_kana":"コウベシニシク","town":"岩岡町古郷","town_kana":"イワオカチョウフルサト","prefecture_code":28},"2133":{"zip_code":"6512133","prefecture":"兵庫県","prefecture_kana":"ヒョウゴケン","city":"神戸市西区","city_kana":"コウベシニシク","town":"枝吉","town_kana":"エダヨシ","prefecture_code":28},"2135":{"zip_code":"6512135","prefecture":"兵庫県","prefecture_kana":"ヒョウゴケン","city":"神戸市西区","city_kana":"コウベシニシク","town":"王塚台","town_kana":"オウツカダイ","prefecture_code":28},"2414":{"zip_code":"6512414","prefecture":"兵庫県","prefecture_kana":"ヒョウゴケン","city":"神戸市西区","city_kana":"コウベシニシク","town":"大沢","town_kana":"オオサワ","prefecture_code":28},"2112":{"zip_code":"6512112","prefecture":"兵庫県","prefecture_kana":"ヒョウゴケン","city":"神戸市西区","city_kana":"コウベシニシク","town":"大津和","town_kana":"オオツワ","prefecture_code":28},"2212":{"zip_code":"6512212","prefecture":"兵庫県","prefecture_kana":"ヒョウゴケン","city":"神戸市西区","city_kana":"コウベシニシク","town":"押部谷町押部","town_kana":"オシベダニチョウオシベ","prefecture_code":28},"2222":{"zip_code":"6512222","prefecture":"兵庫県","prefecture_kana":"ヒョウゴケン","city":"神戸市西区","city_kana":"コウベシニシク","town":"押部谷町木津","town_kana":"オシベダニチョウキヅ","prefecture_code":28},"2203":{"zip_code":"6512203","prefecture":"兵庫県","prefecture_kana":"ヒョウゴケン","city":"神戸市西区","city_kana":"コウベシニシク","town":"押部谷町近江","town_kana":"オシベダニチョウキンコウ","prefecture_code":28},"2223":{"zip_code":"6512223","prefecture":"兵庫県","prefecture_kana":"ヒョウゴケン","city":"神戸市西区","city_kana":"コウベシニシク","town":"押部谷町木見","town_kana":"オシベダニチョウコウミ","prefecture_code":28},"2221":{"zip_code":"6512221","prefecture":"兵庫県","prefecture_kana":"ヒョウゴケン","city":"神戸市西区","city_kana":"コウベシニシク","town":"押部谷町木幡","town_kana":"オシベダニチョウコバタ","prefecture_code":28},"2207":{"zip_code":"6512207","prefecture":"兵庫県","prefecture_kana":"ヒョウゴケン","city":"神戸市西区","city_kana":"コウベシニシク","town":"押部谷町細田","town_kana":"オシベダニチョウサイタ","prefecture_code":28},"2211":{"zip_code":"6512211","prefecture":"兵庫県","prefecture_kana":"ヒョウゴケン","city":"神戸市西区","city_kana":"コウベシニシク","town":"押部谷町栄","town_kana":"オシベダニチョウサカエ","prefecture_code":28},"2204":{"zip_code":"6512204","prefecture":"兵庫県","prefecture_kana":"ヒョウゴケン","city":"神戸市西区","city_kana":"コウベシニシク","town":"押部谷町高和","town_kana":"オシベダニチョウタカワ","prefecture_code":28},"2202":{"zip_code":"6512202","prefecture":"兵庫県","prefecture_kana":"ヒョウゴケン","city":"神戸市西区","city_kana":"コウベシニシク","town":"押部谷町西盛","town_kana":"オシベダニチョウニシモリ","prefecture_code":28},"2213":{"zip_code":"6512213","prefecture":"兵庫県","prefecture_kana":"ヒョウゴケン","city":"神戸市西区","city_kana":"コウベシニシク","town":"押部谷町福住","town_kana":"オシベダニチョウフクスミ","prefecture_code":28},"2205":{"zip_code":"6512205","prefecture":"兵庫県","prefecture_kana":"ヒョウゴケン","city":"神戸市西区","city_kana":"コウベシニシク","town":"押部谷町養田","town_kana":"オシベダニチョウヨウダ","prefecture_code":28},"2206":{"zip_code":"6512206","prefecture":"兵庫県","prefecture_kana":"ヒョウゴケン","city":"神戸市西区","city_kana":"コウベシニシク","town":"押部谷町和田","town_kana":"オシベダニチョウワダ","prefecture_code":28},"2103":{"zip_code":"6512103","prefecture":"兵庫県","prefecture_kana":"ヒョウゴケン","city":"神戸市西区","city_kana":"コウベシニシク","town":"学園西町","town_kana":"ガクエンニシマチ","prefecture_code":28},"2102":{"zip_code":"6512102","prefecture":"兵庫県","prefecture_kana":"ヒョウゴケン","city":"神戸市西区","city_kana":"コウベシニシク","town":"学園東町","town_kana":"ガクエンヒガシマチ","prefecture_code":28},"2275":{"zip_code":"6512275","prefecture":"兵庫県","prefecture_kana":"ヒョウゴケン","city":"神戸市西区","city_kana":"コウベシニシク","town":"樫野台","town_kana":"カシノダイ","prefecture_code":28},"2276":{"zip_code":"6512276","prefecture":"兵庫県","prefecture_kana":"ヒョウゴケン","city":"神戸市西区","city_kana":"コウベシニシク","town":"春日台","town_kana":"カスガダイ","prefecture_code":28},"2411":{"zip_code":"6512411","prefecture":"兵庫県","prefecture_kana":"ヒョウゴケン","city":"神戸市西区","city_kana":"コウベシニシク","town":"上新地","town_kana":"カミシンチ","prefecture_code":28},"2272":{"zip_code":"6512272","prefecture":"兵庫県","prefecture_kana":"ヒョウゴケン","city":"神戸市西区","city_kana":"コウベシニシク","town":"狩場台","town_kana":"カリバダイ","prefecture_code":28},"2303":{"zip_code":"6512303","prefecture":"兵庫県","prefecture_kana":"ヒョウゴケン","city":"神戸市西区","city_kana":"コウベシニシク","town":"神出町五百蔵","town_kana":"カンデチョウイオロイ","prefecture_code":28},"2333":{"zip_code":"6512333","prefecture":"兵庫県","prefecture_kana":"ヒョウゴケン","city":"神戸市西区","city_kana":"コウベシニシク","town":"神出町池田","town_kana":"カンデチョウイケダ","prefecture_code":28},"2302":{"zip_code":"6512302","prefecture":"兵庫県","prefecture_kana":"ヒョウゴケン","city":"神戸市西区","city_kana":"コウベシニシク","town":"神出町古神","town_kana":"カンデチョウコガミ","prefecture_code":28},"2304":{"zip_code":"6512304","prefecture":"兵庫県","prefecture_kana":"ヒョウゴケン","city":"神戸市西区","city_kana":"コウベシニシク","town":"神出町小束野","town_kana":"カンデチョウコソクノ","prefecture_code":28},"2313":{"zip_code":"6512313","prefecture":"兵庫県","prefecture_kana":"ヒョウゴケン","city":"神戸市西区","city_kana":"コウベシニシク","town":"神出町田井","town_kana":"カンデチョウタイ","prefecture_code":28},"2331":{"zip_code":"6512331","prefecture":"兵庫県","prefecture_kana":"ヒョウゴケン","city":"神戸市西区","city_kana":"コウベシニシク","town":"神出町広谷","town_kana":"カンデチョウヒロタニ","prefecture_code":28},"2321":{"zip_code":"6512321","prefecture":"兵庫県","prefecture_kana":"ヒョウゴケン","city":"神戸市西区","city_kana":"コウベシニシク","town":"神出町宝勢","town_kana":"カンデチョウホウセイ","prefecture_code":28},"2334":{"zip_code":"6512334","prefecture":"兵庫県","prefecture_kana":"ヒョウゴケン","city":"神戸市西区","city_kana":"コウベシニシク","town":"神出町紫合","town_kana":"カンデチョウユウダ","prefecture_code":28},"2301":{"zip_code":"6512301","prefecture":"兵庫県","prefecture_kana":"ヒョウゴケン","city":"神戸市西区","city_kana":"コウベシニシク","town":"神出町勝成","town_kana":"カンデチョウヨシナリ","prefecture_code":28},"2311":{"zip_code":"6512311","prefecture":"兵庫県","prefecture_kana":"ヒョウゴケン","city":"神戸市西区","city_kana":"コウベシニシク","town":"神出町東","town_kana":"カンデチョウヒガシ","prefecture_code":28},"2312":{"zip_code":"6512312","prefecture":"兵庫県","prefecture_kana":"ヒョウゴケン","city":"神戸市西区","city_kana":"コウベシニシク","town":"神出町南","town_kana":"カンデチョウミナミ","prefecture_code":28},"2332":{"zip_code":"6512332","prefecture":"兵庫県","prefecture_kana":"ヒョウゴケン","city":"神戸市西区","city_kana":"コウベシニシク","town":"神出町北","town_kana":"カンデチョウキタ","prefecture_code":28},"2117":{"zip_code":"6512117","prefecture":"兵庫県","prefecture_kana":"ヒョウゴケン","city":"神戸市西区","city_kana":"コウベシニシク","town":"北別府","town_kana":"キタベフ","prefecture_code":28},"2215":{"zip_code":"6512215","prefecture":"兵庫県","prefecture_kana":"ヒョウゴケン","city":"神戸市西区","city_kana":"コウベシニシク","town":"北山台","town_kana":"キタヤマダイ","prefecture_code":28},"2273":{"zip_code":"6512273","prefecture":"兵庫県","prefecture_kana":"ヒョウゴケン","city":"神戸市西区","city_kana":"コウベシニシク","town":"糀台","town_kana":"コウジダイ","prefecture_code":28},"2144":[{"zip_code":"6512144","prefecture":"兵庫県","prefecture_kana":"ヒョウゴケン","city":"神戸市西区","city_kana":"コウベシニシク","town":"小山","town_kana":"コヤマ","prefecture_code":28},{"zip_code":"6512144","prefecture":"兵庫県","prefecture_kana":"ヒョウゴケン","city":"神戸市西区","city_kana":"コウベシニシク","town":"玉津町小山","town_kana":"タマツチョウコヤマ","prefecture_code":28}],"2226":{"zip_code":"6512226","prefecture":"兵庫県","prefecture_kana":"ヒョウゴケン","city":"神戸市西区","city_kana":"コウベシニシク","town":"桜が丘中町","town_kana":"サクラガオカナカマチ","prefecture_code":28},"2225":{"zip_code":"6512225","prefecture":"兵庫県","prefecture_kana":"ヒョウゴケン","city":"神戸市西区","city_kana":"コウベシニシク","town":"桜が丘東町","town_kana":"サクラガオカヒガシマチ","prefecture_code":28},"2227":{"zip_code":"6512227","prefecture":"兵庫県","prefecture_kana":"ヒョウゴケン","city":"神戸市西区","city_kana":"コウベシニシク","town":"桜が丘西町","town_kana":"サクラガオカニシマチ","prefecture_code":28},"2129":{"zip_code":"6512129","prefecture":"兵庫県","prefecture_kana":"ヒョウゴケン","city":"神戸市西区","city_kana":"コウベシニシク","town":"白水","town_kana":"シラミズ","prefecture_code":28},"2109":{"zip_code":"6512109","prefecture":"兵庫県","prefecture_kana":"ヒョウゴケン","city":"神戸市西区","city_kana":"コウベシニシク","town":"前開南町","town_kana":"ゼンカイミナミマチ","prefecture_code":28},"2201":{"zip_code":"6512201","prefecture":"兵庫県","prefecture_kana":"ヒョウゴケン","city":"神戸市西区","city_kana":"コウベシニシク","town":"高雄台","town_kana":"タカオダイ","prefecture_code":28},"2271":{"zip_code":"6512271","prefecture":"兵庫県","prefecture_kana":"ヒョウゴケン","city":"神戸市西区","city_kana":"コウベシニシク","town":"高塚台","town_kana":"タカツカダイ","prefecture_code":28},"2274":{"zip_code":"6512274","prefecture":"兵庫県","prefecture_kana":"ヒョウゴケン","city":"神戸市西区","city_kana":"コウベシニシク","town":"竹の台","town_kana":"タケノダイ","prefecture_code":28},"2145":{"zip_code":"6512145","prefecture":"兵庫県","prefecture_kana":"ヒョウゴケン","city":"神戸市西区","city_kana":"コウベシニシク","town":"玉津町居住","town_kana":"タマツチョウイスミ","prefecture_code":28},"2128":{"zip_code":"6512128","prefecture":"兵庫県","prefecture_kana":"ヒョウゴケン","city":"神戸市西区","city_kana":"コウベシニシク","town":"玉津町今津","town_kana":"タマツチョウイマヅ","prefecture_code":28},"2126":{"zip_code":"6512126","prefecture":"兵庫県","prefecture_kana":"ヒョウゴケン","city":"神戸市西区","city_kana":"コウベシニシク","town":"玉津町上池","town_kana":"タマツチョウカミイケ","prefecture_code":28},"2122":{"zip_code":"6512122","prefecture":"兵庫県","prefecture_kana":"ヒョウゴケン","city":"神戸市西区","city_kana":"コウベシニシク","town":"玉津町高津橋","town_kana":"タマツチョウコウヅバシ","prefecture_code":28},"2125":{"zip_code":"6512125","prefecture":"兵庫県","prefecture_kana":"ヒョウゴケン","city":"神戸市西区","city_kana":"コウベシニシク","town":"玉津町新方","town_kana":"タマツチョウシンポウ","prefecture_code":28},"2147":{"zip_code":"6512147","prefecture":"兵庫県","prefecture_kana":"ヒョウゴケン","city":"神戸市西区","city_kana":"コウベシニシク","town":"玉津町田中","town_kana":"タマツチョウタナカ","prefecture_code":28},"2137":{"zip_code":"6512137","prefecture":"兵庫県","prefecture_kana":"ヒョウゴケン","city":"神戸市西区","city_kana":"コウベシニシク","town":"玉津町出合","town_kana":"タマツチョウデアイ","prefecture_code":28},"2127":{"zip_code":"6512127","prefecture":"兵庫県","prefecture_kana":"ヒョウゴケン","city":"神戸市西区","city_kana":"コウベシニシク","town":"玉津町西河原","town_kana":"タマツチョウニシガワラ","prefecture_code":28},"2142":[{"zip_code":"6512142","prefecture":"兵庫県","prefecture_kana":"ヒョウゴケン","city":"神戸市西区","city_kana":"コウベシニシク","town":"玉津町二ツ屋","town_kana":"タマツチョウフタツヤ","prefecture_code":28},{"zip_code":"6512142","prefecture":"兵庫県","prefecture_kana":"ヒョウゴケン","city":"神戸市西区","city_kana":"コウベシニシク","town":"二ツ屋","town_kana":"フタツヤ","prefecture_code":28}],"2143":[{"zip_code":"6512143","prefecture":"兵庫県","prefecture_kana":"ヒョウゴケン","city":"神戸市西区","city_kana":"コウベシニシク","town":"玉津町丸塚","town_kana":"タマツチョウマルヅカ","prefecture_code":28},{"zip_code":"6512143","prefecture":"兵庫県","prefecture_kana":"ヒョウゴケン","city":"神戸市西区","city_kana":"コウベシニシク","town":"丸塚","town_kana":"マルヅカ","prefecture_code":28}],"2121":[{"zip_code":"6512121","prefecture":"兵庫県","prefecture_kana":"ヒョウゴケン","city":"神戸市西区","city_kana":"コウベシニシク","town":"玉津町水谷","town_kana":"タマツチョウミタニ","prefecture_code":28},{"zip_code":"6512121","prefecture":"兵庫県","prefecture_kana":"ヒョウゴケン","city":"神戸市西区","city_kana":"コウベシニシク","town":"水谷","town_kana":"ミタニ","prefecture_code":28}],"2138":{"zip_code":"6512138","prefecture":"兵庫県","prefecture_kana":"ヒョウゴケン","city":"神戸市西区","city_kana":"コウベシニシク","town":"玉津町吉田","town_kana":"タマツチョウヨシダ","prefecture_code":28},"2217":{"zip_code":"6512217","prefecture":"兵庫県","prefecture_kana":"ヒョウゴケン","city":"神戸市西区","city_kana":"コウベシニシク","town":"月が丘","town_kana":"ツキガオカ","prefecture_code":28},"2123":{"zip_code":"6512123","prefecture":"兵庫県","prefecture_kana":"ヒョウゴケン","city":"神戸市西区","city_kana":"コウベシニシク","town":"天王山","town_kana":"テンノウザン","prefecture_code":28},"2136":{"zip_code":"6512136","prefecture":"兵庫県","prefecture_kana":"ヒョウゴケン","city":"神戸市西区","city_kana":"コウベシニシク","town":"中野","town_kana":"ナカノ","prefecture_code":28},"2148":{"zip_code":"6512148","prefecture":"兵庫県","prefecture_kana":"ヒョウゴケン","city":"神戸市西区","city_kana":"コウベシニシク","town":"長畑町","town_kana":"ナガハタチョウ","prefecture_code":28},"2234":{"zip_code":"6512234","prefecture":"兵庫県","prefecture_kana":"ヒョウゴケン","city":"神戸市西区","city_kana":"コウベシニシク","town":"櫨谷町池谷","town_kana":"ハセタニチョウイケタニ","prefecture_code":28},"2238":{"zip_code":"6512238","prefecture":"兵庫県","prefecture_kana":"ヒョウゴケン","city":"神戸市西区","city_kana":"コウベシニシク","town":"櫨谷町菅野","town_kana":"ハセタニチョウスガノ","prefecture_code":28},"2237":{"zip_code":"6512237","prefecture":"兵庫県","prefecture_kana":"ヒョウゴケン","city":"神戸市西区","city_kana":"コウベシニシク","town":"櫨谷町谷口","town_kana":"ハセタニチョウタニグチ","prefecture_code":28},"2231":{"zip_code":"6512231","prefecture":"兵庫県","prefecture_kana":"ヒョウゴケン","city":"神戸市西区","city_kana":"コウベシニシク","town":"櫨谷町寺谷","town_kana":"ハセタニチョウテラタニ","prefecture_code":28},"2236":{"zip_code":"6512236","prefecture":"兵庫県","prefecture_kana":"ヒョウゴケン","city":"神戸市西区","city_kana":"コウベシニシク","town":"櫨谷町栃木","town_kana":"ハセタニチョウトチノキ","prefecture_code":28},"2232":{"zip_code":"6512232","prefecture":"兵庫県","prefecture_kana":"ヒョウゴケン","city":"神戸市西区","city_kana":"コウベシニシク","town":"櫨谷町友清","town_kana":"ハセタニチョウトモキヨ","prefecture_code":28},"2235":{"zip_code":"6512235","prefecture":"兵庫県","prefecture_kana":"ヒョウゴケン","city":"神戸市西区","city_kana":"コウベシニシク","town":"櫨谷町長谷","town_kana":"ハセタニチョウハセ","prefecture_code":28},"2233":{"zip_code":"6512233","prefecture":"兵庫県","prefecture_kana":"ヒョウゴケン","city":"神戸市西区","city_kana":"コウベシニシク","town":"櫨谷町福谷","town_kana":"ハセタニチョウフクタニ","prefecture_code":28},"2239":{"zip_code":"6512239","prefecture":"兵庫県","prefecture_kana":"ヒョウゴケン","city":"神戸市西区","city_kana":"コウベシニシク","town":"櫨谷町松本","town_kana":"ハセタニチョウマツモト","prefecture_code":28},"2266":{"zip_code":"6512266","prefecture":"兵庫県","prefecture_kana":"ヒョウゴケン","city":"神戸市西区","city_kana":"コウベシニシク","town":"平野町印路","town_kana":"ヒラノチョウインジ","prefecture_code":28},"2256":{"zip_code":"6512256","prefecture":"兵庫県","prefecture_kana":"ヒョウゴケン","city":"神戸市西区","city_kana":"コウベシニシク","town":"平野町大野","town_kana":"ヒラノチョウオオノ","prefecture_code":28},"2264":{"zip_code":"6512264","prefecture":"兵庫県","prefecture_kana":"ヒョウゴケン","city":"神戸市西区","city_kana":"コウベシニシク","town":"平野町大畑","town_kana":"ヒラノチョウオオハタ","prefecture_code":28},"2261":{"zip_code":"6512261","prefecture":"兵庫県","prefecture_kana":"ヒョウゴケン","city":"神戸市西区","city_kana":"コウベシニシク","town":"平野町堅田","town_kana":"ヒラノチョウカタダ","prefecture_code":28},"2268":{"zip_code":"6512268","prefecture":"兵庫県","prefecture_kana":"ヒョウゴケン","city":"神戸市西区","city_kana":"コウベシニシク","town":"平野町黒田","town_kana":"ヒラノチョウクロダ","prefecture_code":28},"2255":{"zip_code":"6512255","prefecture":"兵庫県","prefecture_kana":"ヒョウゴケン","city":"神戸市西区","city_kana":"コウベシニシク","town":"平野町慶明","town_kana":"ヒラノチョウケイメイ","prefecture_code":28},"2262":{"zip_code":"6512262","prefecture":"兵庫県","prefecture_kana":"ヒョウゴケン","city":"神戸市西区","city_kana":"コウベシニシク","town":"平野町繁田","town_kana":"ヒラノチョウシゲタ","prefecture_code":28},"2254":{"zip_code":"6512254","prefecture":"兵庫県","prefecture_kana":"ヒョウゴケン","city":"神戸市西区","city_kana":"コウベシニシク","town":"平野町芝崎","town_kana":"ヒラノチョウシバサキ","prefecture_code":28},"2251":{"zip_code":"6512251","prefecture":"兵庫県","prefecture_kana":"ヒョウゴケン","city":"神戸市西区","city_kana":"コウベシニシク","town":"平野町下村","town_kana":"ヒラノチョウシモムラ","prefecture_code":28},"2263":{"zip_code":"6512263","prefecture":"兵庫県","prefecture_kana":"ヒョウゴケン","city":"神戸市西区","city_kana":"コウベシニシク","town":"平野町常本","town_kana":"ヒラノチョウツネモト","prefecture_code":28},"2257":{"zip_code":"6512257","prefecture":"兵庫県","prefecture_kana":"ヒョウゴケン","city":"神戸市西区","city_kana":"コウベシニシク","town":"平野町中津","town_kana":"ヒラノチョウナカツ","prefecture_code":28},"2267":{"zip_code":"6512267","prefecture":"兵庫県","prefecture_kana":"ヒョウゴケン","city":"神戸市西区","city_kana":"コウベシニシク","town":"平野町西戸田","town_kana":"ヒラノチョウニシトダ","prefecture_code":28},"2252":{"zip_code":"6512252","prefecture":"兵庫県","prefecture_kana":"ヒョウゴケン","city":"神戸市西区","city_kana":"コウベシニシク","town":"平野町福中","town_kana":"ヒラノチョウフクナカ","prefecture_code":28},"2265":{"zip_code":"6512265","prefecture":"兵庫県","prefecture_kana":"ヒョウゴケン","city":"神戸市西区","city_kana":"コウベシニシク","town":"平野町宮前","town_kana":"ヒラノチョウミヤマエ","prefecture_code":28},"2253":{"zip_code":"6512253","prefecture":"兵庫県","prefecture_kana":"ヒョウゴケン","city":"神戸市西区","city_kana":"コウベシニシク","town":"平野町向井","town_kana":"ヒラノチョウムカイ","prefecture_code":28},"2413":{"zip_code":"6512413","prefecture":"兵庫県","prefecture_kana":"ヒョウゴケン","city":"神戸市西区","city_kana":"コウベシニシク","town":"福吉台","town_kana":"フクヨシダイ","prefecture_code":28},"2214":{"zip_code":"6512214","prefecture":"兵庫県","prefecture_kana":"ヒョウゴケン","city":"神戸市西区","city_kana":"コウベシニシク","town":"富士見が丘","town_kana":"フジミガオカ","prefecture_code":28},"2277":{"zip_code":"6512277","prefecture":"兵庫県","prefecture_kana":"ヒョウゴケン","city":"神戸市西区","city_kana":"コウベシニシク","town":"美賀多台","town_kana":"ミカタダイ","prefecture_code":28},"2228":{"zip_code":"6512228","prefecture":"兵庫県","prefecture_kana":"ヒョウゴケン","city":"神戸市西区","city_kana":"コウベシニシク","town":"見津が丘","town_kana":"ミツガオカ","prefecture_code":28},"2116":{"zip_code":"6512116","prefecture":"兵庫県","prefecture_kana":"ヒョウゴケン","city":"神戸市西区","city_kana":"コウベシニシク","town":"南別府","town_kana":"ミナミベフ","prefecture_code":28},"2216":{"zip_code":"6512216","prefecture":"兵庫県","prefecture_kana":"ヒョウゴケン","city":"神戸市西区","city_kana":"コウベシニシク","town":"美穂が丘","town_kana":"ミホガオカ","prefecture_code":28},"2146":{"zip_code":"6512146","prefecture":"兵庫県","prefecture_kana":"ヒョウゴケン","city":"神戸市西区","city_kana":"コウベシニシク","town":"宮下","town_kana":"ミヤシタ","prefecture_code":28},"2241":{"zip_code":"6512241","prefecture":"兵庫県","prefecture_kana":"ヒョウゴケン","city":"神戸市西区","city_kana":"コウベシニシク","town":"室谷","town_kana":"ムロタニ","prefecture_code":28},"2131":{"zip_code":"6512131","prefecture":"兵庫県","prefecture_kana":"ヒョウゴケン","city":"神戸市西区","city_kana":"コウベシニシク","town":"持子","town_kana":"モチコ","prefecture_code":28},"2132":{"zip_code":"6512132","prefecture":"兵庫県","prefecture_kana":"ヒョウゴケン","city":"神戸市西区","city_kana":"コウベシニシク","town":"森友","town_kana":"モリトモ","prefecture_code":28},"2412":{"zip_code":"6512412","prefecture":"兵庫県","prefecture_kana":"ヒョウゴケン","city":"神戸市西区","city_kana":"コウベシニシク","town":"竜が岡","town_kana":"リュウガオカ","prefecture_code":28},"2120":{"zip_code":"6512120","prefecture":"兵庫県","prefecture_kana":"ヒョウゴケン","city":"神戸市西区","city_kana":"コウベシニシク","town":"和井取","town_kana":"ワイドリ","prefecture_code":28},"1413":{"zip_code":"6511413","prefecture":"兵庫県","prefecture_kana":"ヒョウゴケン","city":"西宮市","city_kana":"ニシノミヤシ","town":"北六甲台","town_kana":"キタロッコウダイ","prefecture_code":28},"1432":{"zip_code":"6511432","prefecture":"兵庫県","prefecture_kana":"ヒョウゴケン","city":"西宮市","city_kana":"ニシノミヤシ","town":"すみれ台","town_kana":"スミレダイ","prefecture_code":28},"1421":{"zip_code":"6511421","prefecture":"兵庫県","prefecture_kana":"ヒョウゴケン","city":"西宮市","city_kana":"ニシノミヤシ","town":"山口町上山口","town_kana":"ヤマグチチョウカミヤマグチ","prefecture_code":28},"1422":{"zip_code":"6511422","prefecture":"兵庫県","prefecture_kana":"ヒョウゴケン","city":"西宮市","city_kana":"ニシノミヤシ","town":"山口町金仙寺","town_kana":"ヤマグチチョウキンセンジ","prefecture_code":28},"1424":{"zip_code":"6511424","prefecture":"兵庫県","prefecture_kana":"ヒョウゴケン","city":"西宮市","city_kana":"ニシノミヤシ","town":"山口町香花園","town_kana":"ヤマグチチョウコウカエン","prefecture_code":28},"1412":{"zip_code":"6511412","prefecture":"兵庫県","prefecture_kana":"ヒョウゴケン","city":"西宮市","city_kana":"ニシノミヤシ","town":"山口町下山口","town_kana":"ヤマグチチョウシモヤマグチ","prefecture_code":28},"1433":{"zip_code":"6511433","prefecture":"兵庫県","prefecture_kana":"ヒョウゴケン","city":"西宮市","city_kana":"ニシノミヤシ","town":"山口町中野","town_kana":"ヤマグチチョウナカノ","prefecture_code":28},"1411":{"zip_code":"6511411","prefecture":"兵庫県","prefecture_kana":"ヒョウゴケン","city":"西宮市","city_kana":"ニシノミヤシ","town":"山口町名来","town_kana":"ヤマグチチョウナライ","prefecture_code":28},"1431":{"zip_code":"6511431","prefecture":"兵庫県","prefecture_kana":"ヒョウゴケン","city":"西宮市","city_kana":"ニシノミヤシ","town":"山口町阪神流通センター","town_kana":"ヤマグチチョウハンシンリュウツウセンター","prefecture_code":28},"1423":{"zip_code":"6511423","prefecture":"兵庫県","prefecture_kana":"ヒョウゴケン","city":"西宮市","city_kana":"ニシノミヤシ","town":"山口町船坂","town_kana":"ヤマグチチョウフナサカ","prefecture_code":28}}