{"0000":{"zip_code":"6520000","prefecture":"兵庫県","prefecture_kana":"ヒョウゴケン","city":"神戸市兵庫区","city_kana":"コウベシヒョウゴク","town":"","town_kana":"","prefecture_code":28},"0882":{"zip_code":"6520882","prefecture":"兵庫県","prefecture_kana":"ヒョウゴケン","city":"神戸市兵庫区","city_kana":"コウベシヒョウゴク","town":"芦原通","town_kana":"アシハラドオリ","prefecture_code":28},"0032":{"zip_code":"6520032","prefecture":"兵庫県","prefecture_kana":"ヒョウゴケン","city":"神戸市兵庫区","city_kana":"コウベシヒョウゴク","town":"荒田町","town_kana":"アラタチョウ","prefecture_code":28},"0061":{"zip_code":"6520061","prefecture":"兵庫県","prefecture_kana":"ヒョウゴケン","city":"神戸市兵庫区","city_kana":"コウベシヒョウゴク","town":"石井町","town_kana":"イシイチョウ","prefecture_code":28},"0842":{"zip_code":"6520842","prefecture":"兵庫県","prefecture_kana":"ヒョウゴケン","city":"神戸市兵庫区","city_kana":"コウベシヒョウゴク","town":"磯之町","town_kana":"イソノチョウ","prefecture_code":28},"0853":{"zip_code":"6520853","prefecture":"兵庫県","prefecture_kana":"ヒョウゴケン","city":"神戸市兵庫区","city_kana":"コウベシヒョウゴク","town":"今出在家町","town_kana":"イマデザイケチョウ","prefecture_code":28},"0894":{"zip_code":"6520894","prefecture":"兵庫県","prefecture_kana":"ヒョウゴケン","city":"神戸市兵庫区","city_kana":"コウベシヒョウゴク","town":"入江通","town_kana":"イリエドオリ","prefecture_code":28},"0003":{"zip_code":"6520003","prefecture":"兵庫県","prefecture_kana":"ヒョウゴケン","city":"神戸市兵庫区","city_kana":"コウベシヒョウゴク","town":"梅元町","town_kana":"ウメモトチョウ","prefecture_code":28},"0816":{"zip_code":"6520816","prefecture":"兵庫県","prefecture_kana":"ヒョウゴケン","city":"神戸市兵庫区","city_kana":"コウベシヒョウゴク","town":"永沢町","town_kana":"エイザワチョウ","prefecture_code":28},"0898":{"zip_code":"6520898","prefecture":"兵庫県","prefecture_kana":"ヒョウゴケン","city":"神戸市兵庫区","city_kana":"コウベシヒョウゴク","town":"駅前通","town_kana":"エキマエドオリ","prefecture_code":28},"0897":{"zip_code":"6520897","prefecture":"兵庫県","prefecture_kana":"ヒョウゴケン","city":"神戸市兵庫区","city_kana":"コウベシヒョウゴク","town":"駅南通","town_kana":"エキミナミドオリ","prefecture_code":28},"0043":{"zip_code":"6520043","prefecture":"兵庫県","prefecture_kana":"ヒョウゴケン","city":"神戸市兵庫区","city_kana":"コウベシヒョウゴク","town":"会下山町","town_kana":"エゲヤマチョウ","prefecture_code":28},"0044":{"zip_code":"6520044","prefecture":"兵庫県","prefecture_kana":"ヒョウゴケン","city":"神戸市兵庫区","city_kana":"コウベシヒョウゴク","town":"大井通","town_kana":"オオイドオリ","prefecture_code":28},"0895":{"zip_code":"6520895","prefecture":"兵庫県","prefecture_kana":"ヒョウゴケン","city":"神戸市兵庫区","city_kana":"コウベシヒョウゴク","town":"小河通","town_kana":"オガワドオリ","prefecture_code":28},"0864":{"zip_code":"6520864","prefecture":"兵庫県","prefecture_kana":"ヒョウゴケン","city":"神戸市兵庫区","city_kana":"コウベシヒョウゴク","town":"笠松通","town_kana":"カサマツドオリ","prefecture_code":28},"0832":{"zip_code":"6520832","prefecture":"兵庫県","prefecture_kana":"ヒョウゴケン","city":"神戸市兵庫区","city_kana":"コウベシヒョウゴク","town":"鍛冶屋町","town_kana":"カジヤチョウ","prefecture_code":28},"0008":{"zip_code":"6520008","prefecture":"兵庫県","prefecture_kana":"ヒョウゴケン","city":"神戸市兵庫区","city_kana":"コウベシヒョウゴク","town":"上祇園町","town_kana":"カミギオンチョウ","prefecture_code":28},"0046":{"zip_code":"6520046","prefecture":"兵庫県","prefecture_kana":"ヒョウゴケン","city":"神戸市兵庫区","city_kana":"コウベシヒョウゴク","town":"上沢通","town_kana":"カミサワドオリ","prefecture_code":28},"0013":{"zip_code":"6520013","prefecture":"兵庫県","prefecture_kana":"ヒョウゴケン","city":"神戸市兵庫区","city_kana":"コウベシヒョウゴク","town":"上三条町","town_kana":"カミサンジョウチョウ","prefecture_code":28},"0862":{"zip_code":"6520862","prefecture":"兵庫県","prefecture_kana":"ヒョウゴケン","city":"神戸市兵庫区","city_kana":"コウベシヒョウゴク","town":"上庄通","town_kana":"カミショウドオリ","prefecture_code":28},"0001":{"zip_code":"6520001","prefecture":"兵庫県","prefecture_kana":"ヒョウゴケン","city":"神戸市兵庫区","city_kana":"コウベシヒョウゴク","town":"烏原町","town_kana":"カラスハラチョウ","prefecture_code":28},"0006":{"zip_code":"6520006","prefecture":"兵庫県","prefecture_kana":"ヒョウゴケン","city":"神戸市兵庫区","city_kana":"コウベシヒョウゴク","town":"神田町","town_kana":"カンダチョウ","prefecture_code":28},"0058":{"zip_code":"6520058","prefecture":"兵庫県","prefecture_kana":"ヒョウゴケン","city":"神戸市兵庫区","city_kana":"コウベシヒョウゴク","town":"菊水町","town_kana":"キクスイチョウ","prefecture_code":28},"0837":{"zip_code":"6520837","prefecture":"兵庫県","prefecture_kana":"ヒョウゴケン","city":"神戸市兵庫区","city_kana":"コウベシヒョウゴク","town":"北逆瀬川町","town_kana":"キタサカセガワチョウ","prefecture_code":28},"0053":{"zip_code":"6520053","prefecture":"兵庫県","prefecture_kana":"ヒョウゴケン","city":"神戸市兵庫区","city_kana":"コウベシヒョウゴク","town":"北山町","town_kana":"キタヤマチョウ","prefecture_code":28},"0847":{"zip_code":"6520847","prefecture":"兵庫県","prefecture_kana":"ヒョウゴケン","city":"神戸市兵庫区","city_kana":"コウベシヒョウゴク","town":"切戸町","town_kana":"キレトチョウ","prefecture_code":28},"0873":{"zip_code":"6520873","prefecture":"兵庫県","prefecture_kana":"ヒョウゴケン","city":"神戸市兵庫区","city_kana":"コウベシヒョウゴク","town":"金平町","town_kana":"キンペイチョウ","prefecture_code":28},"0004":{"zip_code":"6520004","prefecture":"兵庫県","prefecture_kana":"ヒョウゴケン","city":"神戸市兵庫区","city_kana":"コウベシヒョウゴク","town":"楠谷町","town_kana":"クスダニチョウ","prefecture_code":28},"0064":{"zip_code":"6520064","prefecture":"兵庫県","prefecture_kana":"ヒョウゴケン","city":"神戸市兵庫区","city_kana":"コウベシヒョウゴク","town":"熊野町","town_kana":"クマノチョウ","prefecture_code":28},"0885":{"zip_code":"6520885","prefecture":"兵庫県","prefecture_kana":"ヒョウゴケン","city":"神戸市兵庫区","city_kana":"コウベシヒョウゴク","town":"御所通","town_kana":"ゴショドオリ","prefecture_code":28},"0007":{"zip_code":"6520007","prefecture":"兵庫県","prefecture_kana":"ヒョウゴケン","city":"神戸市兵庫区","city_kana":"コウベシヒョウゴク","town":"五宮町","town_kana":"ゴノミヤチョウ","prefecture_code":28},"0865":{"zip_code":"6520865","prefecture":"兵庫県","prefecture_kana":"ヒョウゴケン","city":"神戸市兵庫区","city_kana":"コウベシヒョウゴク","town":"小松通","town_kana":"コマツドオリ","prefecture_code":28},"0055":{"zip_code":"6520055","prefecture":"兵庫県","prefecture_kana":"ヒョウゴケン","city":"神戸市兵庫区","city_kana":"コウベシヒョウゴク","town":"小山町","town_kana":"コヤマチョウ","prefecture_code":28},"0851":{"zip_code":"6520851","prefecture":"兵庫県","prefecture_kana":"ヒョウゴケン","city":"神戸市兵庫区","city_kana":"コウベシヒョウゴク","town":"材木町","town_kana":"ザイモクチョウ","prefecture_code":28},"0051":{"zip_code":"6520051","prefecture":"兵庫県","prefecture_kana":"ヒョウゴケン","city":"神戸市兵庫区","city_kana":"コウベシヒョウゴク","town":"里山町","town_kana":"サトヤマチョウ","prefecture_code":28},"0821":{"zip_code":"6520821","prefecture":"兵庫県","prefecture_kana":"ヒョウゴケン","city":"神戸市兵庫区","city_kana":"コウベシヒョウゴク","town":"佐比江町","town_kana":"サビエチョウ","prefecture_code":28},"0011":{"zip_code":"6520011","prefecture":"兵庫県","prefecture_kana":"ヒョウゴケン","city":"神戸市兵庫区","city_kana":"コウベシヒョウゴク","town":"山王町","town_kana":"サンノウチョウ","prefecture_code":28},"0831":{"zip_code":"6520831","prefecture":"兵庫県","prefecture_kana":"ヒョウゴケン","city":"神戸市兵庫区","city_kana":"コウベシヒョウゴク","town":"七宮町","town_kana":"シチノミヤチョウ","prefecture_code":28},"0833":{"zip_code":"6520833","prefecture":"兵庫県","prefecture_kana":"ヒョウゴケン","city":"神戸市兵庫区","city_kana":"コウベシヒョウゴク","town":"島上町","town_kana":"シマガミチョウ","prefecture_code":28},"0065":{"zip_code":"6520065","prefecture":"兵庫県","prefecture_kana":"ヒョウゴケン","city":"神戸市兵庫区","city_kana":"コウベシヒョウゴク","town":"清水町","town_kana":"シミズチョウ","prefecture_code":28},"0015":{"zip_code":"6520015","prefecture":"兵庫県","prefecture_kana":"ヒョウゴケン","city":"神戸市兵庫区","city_kana":"コウベシヒョウゴク","town":"下祇園町","town_kana":"シモギオンチョウ","prefecture_code":28},"0047":{"zip_code":"6520047","prefecture":"兵庫県","prefecture_kana":"ヒョウゴケン","city":"神戸市兵庫区","city_kana":"コウベシヒョウゴク","town":"下沢通","town_kana":"シモサワドオリ","prefecture_code":28},"0014":{"zip_code":"6520014","prefecture":"兵庫県","prefecture_kana":"ヒョウゴケン","city":"神戸市兵庫区","city_kana":"コウベシヒョウゴク","town":"下三条町","town_kana":"シモサンジョウチョウ","prefecture_code":28},"0811":{"zip_code":"6520811","prefecture":"兵庫県","prefecture_kana":"ヒョウゴケン","city":"神戸市兵庫区","city_kana":"コウベシヒョウゴク","town":"新開地","town_kana":"シンカイチ","prefecture_code":28},"0836":{"zip_code":"6520836","prefecture":"兵庫県","prefecture_kana":"ヒョウゴケン","city":"神戸市兵庫区","city_kana":"コウベシヒョウゴク","town":"神明町","town_kana":"シンメイチョウ","prefecture_code":28},"0896":{"zip_code":"6520896","prefecture":"兵庫県","prefecture_kana":"ヒョウゴケン","city":"神戸市兵庫区","city_kana":"コウベシヒョウゴク","town":"須佐野通","town_kana":"スサノドオリ","prefecture_code":28},"0062":{"zip_code":"6520062","prefecture":"兵庫県","prefecture_kana":"ヒョウゴケン","city":"神戸市兵庫区","city_kana":"コウベシヒョウゴク","town":"大同町","town_kana":"ダイドウチョウ","prefecture_code":28},"0874":{"zip_code":"6520874","prefecture":"兵庫県","prefecture_kana":"ヒョウゴケン","city":"神戸市兵庫区","city_kana":"コウベシヒョウゴク","town":"高松町","town_kana":"タカマツチョウ","prefecture_code":28},"0056":{"zip_code":"6520056","prefecture":"兵庫県","prefecture_kana":"ヒョウゴケン","city":"神戸市兵庫区","city_kana":"コウベシヒョウゴク","town":"滝山町","town_kana":"タキヤマチョウ","prefecture_code":28},"0803":{"zip_code":"6520803","prefecture":"兵庫県","prefecture_kana":"ヒョウゴケン","city":"神戸市兵庫区","city_kana":"コウベシヒョウゴク","town":"大開通","town_kana":"ダイカイドオリ","prefecture_code":28},"0022":{"zip_code":"6520022","prefecture":"兵庫県","prefecture_kana":"ヒョウゴケン","city":"神戸市兵庫区","city_kana":"コウベシヒョウゴク","town":"千鳥町","town_kana":"チドリチョウ","prefecture_code":28},"0804":{"zip_code":"6520804","prefecture":"兵庫県","prefecture_kana":"ヒョウゴケン","city":"神戸市兵庫区","city_kana":"コウベシヒョウゴク","town":"塚本通","town_kana":"ツカモトドオリ","prefecture_code":28},"0845":{"zip_code":"6520845","prefecture":"兵庫県","prefecture_kana":"ヒョウゴケン","city":"神戸市兵庫区","city_kana":"コウベシヒョウゴク","town":"築地町","town_kana":"ツキジチョウ","prefecture_code":28},"0023":{"zip_code":"6520023","prefecture":"兵庫県","prefecture_kana":"ヒョウゴケン","city":"神戸市兵庫区","city_kana":"コウベシヒョウゴク","town":"都由乃町","town_kana":"ツユノチョウ","prefecture_code":28},"0846":{"zip_code":"6520846","prefecture":"兵庫県","prefecture_kana":"ヒョウゴケン","city":"神戸市兵庫区","city_kana":"コウベシヒョウゴク","town":"出在家町","town_kana":"デザイケチョウ","prefecture_code":28},"0021":{"zip_code":"6520021","prefecture":"兵庫県","prefecture_kana":"ヒョウゴケン","city":"神戸市兵庫区","city_kana":"コウベシヒョウゴク","town":"天王町","town_kana":"テンノウチョウ","prefecture_code":28},"0866":{"zip_code":"6520866","prefecture":"兵庫県","prefecture_kana":"ヒョウゴケン","city":"神戸市兵庫区","city_kana":"コウベシヒョウゴク","town":"遠矢浜町","town_kana":"トオヤハマチョウ","prefecture_code":28},"0844":{"zip_code":"6520844","prefecture":"兵庫県","prefecture_kana":"ヒョウゴケン","city":"神戸市兵庫区","city_kana":"コウベシヒョウゴク","town":"中之島","town_kana":"ナカノシマ","prefecture_code":28},"0801":{"zip_code":"6520801","prefecture":"兵庫県","prefecture_kana":"ヒョウゴケン","city":"神戸市兵庫区","city_kana":"コウベシヒョウゴク","town":"中道通","town_kana":"ナカミチドオリ","prefecture_code":28},"0033":{"zip_code":"6520033","prefecture":"兵庫県","prefecture_kana":"ヒョウゴケン","city":"神戸市兵庫区","city_kana":"コウベシヒョウゴク","town":"西上橘通","town_kana":"ニシカミタチバナドオリ","prefecture_code":28},"0034":{"zip_code":"6520034","prefecture":"兵庫県","prefecture_kana":"ヒョウゴケン","city":"神戸市兵庫区","city_kana":"コウベシヒョウゴク","town":"西橘通","town_kana":"ニシタチバナドオリ","prefecture_code":28},"0035":{"zip_code":"6520035","prefecture":"兵庫県","prefecture_kana":"ヒョウゴケン","city":"神戸市兵庫区","city_kana":"コウベシヒョウゴク","town":"西多聞通","town_kana":"ニシタモンドオリ","prefecture_code":28},"0822":{"zip_code":"6520822","prefecture":"兵庫県","prefecture_kana":"ヒョウゴケン","city":"神戸市兵庫区","city_kana":"コウベシヒョウゴク","town":"西出町","town_kana":"ニシデマチ","prefecture_code":28},"0835":{"zip_code":"6520835","prefecture":"兵庫県","prefecture_kana":"ヒョウゴケン","city":"神戸市兵庫区","city_kana":"コウベシヒョウゴク","town":"西仲町","town_kana":"ニシナカマチ","prefecture_code":28},"0891":{"zip_code":"6520891","prefecture":"兵庫県","prefecture_kana":"ヒョウゴケン","city":"神戸市兵庫区","city_kana":"コウベシヒョウゴク","town":"西宮内町","town_kana":"ニシミヤウチチョウ","prefecture_code":28},"0806":{"zip_code":"6520806","prefecture":"兵庫県","prefecture_kana":"ヒョウゴケン","city":"神戸市兵庫区","city_kana":"コウベシヒョウゴク","town":"西柳原町","town_kana":"ニシヤナギワラチョウ","prefecture_code":28},"0805":{"zip_code":"6520805","prefecture":"兵庫県","prefecture_kana":"ヒョウゴケン","city":"神戸市兵庫区","city_kana":"コウベシヒョウゴク","town":"羽坂通","town_kana":"ハサカドオリ","prefecture_code":28},"0016":{"zip_code":"6520016","prefecture":"兵庫県","prefecture_kana":"ヒョウゴケン","city":"神戸市兵庫区","city_kana":"コウベシヒョウゴク","town":"馬場町","town_kana":"ババチョウ","prefecture_code":28},"0807":{"zip_code":"6520807","prefecture":"兵庫県","prefecture_kana":"ヒョウゴケン","city":"神戸市兵庫区","city_kana":"コウベシヒョウゴク","town":"浜崎通","town_kana":"ハマサキドオリ","prefecture_code":28},"0875":{"zip_code":"6520875","prefecture":"兵庫県","prefecture_kana":"ヒョウゴケン","city":"神戸市兵庫区","city_kana":"コウベシヒョウゴク","town":"浜中町","town_kana":"ハマナカチョウ","prefecture_code":28},"0871":{"zip_code":"6520871","prefecture":"兵庫県","prefecture_kana":"ヒョウゴケン","city":"神戸市兵庫区","city_kana":"コウベシヒョウゴク","town":"浜山通","town_kana":"ハマヤマドオリ","prefecture_code":28},"0823":{"zip_code":"6520823","prefecture":"兵庫県","prefecture_kana":"ヒョウゴケン","city":"神戸市兵庫区","city_kana":"コウベシヒョウゴク","town":"東出町","town_kana":"ヒガシデマチ","prefecture_code":28},"0892":{"zip_code":"6520892","prefecture":"兵庫県","prefecture_kana":"ヒョウゴケン","city":"神戸市兵庫区","city_kana":"コウベシヒョウゴク","town":"東柳原町","town_kana":"ヒガシヤナギワラチョウ","prefecture_code":28},"0042":{"zip_code":"6520042","prefecture":"兵庫県","prefecture_kana":"ヒョウゴケン","city":"神戸市兵庫区","city_kana":"コウベシヒョウゴク","town":"東山町","town_kana":"ヒガシヤマチョウ","prefecture_code":28},"0054":{"zip_code":"6520054","prefecture":"兵庫県","prefecture_kana":"ヒョウゴケン","city":"神戸市兵庫区","city_kana":"コウベシヒョウゴク","town":"氷室町","town_kana":"ヒムロチョウ","prefecture_code":28},"0813":{"zip_code":"6520813","prefecture":"兵庫県","prefecture_kana":"ヒョウゴケン","city":"神戸市兵庫区","city_kana":"コウベシヒョウゴク","town":"兵庫町","town_kana":"ヒョウゴチョウ","prefecture_code":28},"0052":{"zip_code":"6520052","prefecture":"兵庫県","prefecture_kana":"ヒョウゴケン","city":"神戸市兵庫区","city_kana":"コウベシヒョウゴク","town":"鵯越筋","town_kana":"ヒヨドリゴエスジ","prefecture_code":28},"0057":{"zip_code":"6520057","prefecture":"兵庫県","prefecture_kana":"ヒョウゴケン","city":"神戸市兵庫区","city_kana":"コウベシヒョウゴク","town":"鵯越町","town_kana":"ヒヨドリゴエチョウ","prefecture_code":28},"0002":{"zip_code":"6520002","prefecture":"兵庫県","prefecture_kana":"ヒョウゴケン","city":"神戸市兵庫区","city_kana":"コウベシヒョウゴク","town":"平野町","town_kana":"ヒラノチョウ","prefecture_code":28},"0036":{"zip_code":"6520036","prefecture":"兵庫県","prefecture_kana":"ヒョウゴケン","city":"神戸市兵庫区","city_kana":"コウベシヒョウゴク","town":"福原町","town_kana":"フクワラチョウ","prefecture_code":28},"0843":{"zip_code":"6520843","prefecture":"兵庫県","prefecture_kana":"ヒョウゴケン","city":"神戸市兵庫区","city_kana":"コウベシヒョウゴク","town":"船大工町","town_kana":"フナダイクチョウ","prefecture_code":28},"0834":{"zip_code":"6520834","prefecture":"兵庫県","prefecture_kana":"ヒョウゴケン","city":"神戸市兵庫区","city_kana":"コウベシヒョウゴク","town":"本町","town_kana":"ホンマチ","prefecture_code":28},"0881":{"zip_code":"6520881","prefecture":"兵庫県","prefecture_kana":"ヒョウゴケン","city":"神戸市兵庫区","city_kana":"コウベシヒョウゴク","town":"松原通","town_kana":"マツバラドオリ","prefecture_code":28},"0045":{"zip_code":"6520045","prefecture":"兵庫県","prefecture_kana":"ヒョウゴケン","city":"神戸市兵庫区","city_kana":"コウベシヒョウゴク","town":"松本通","town_kana":"マツモトドオリ","prefecture_code":28},"0815":{"zip_code":"6520815","prefecture":"兵庫県","prefecture_kana":"ヒョウゴケン","city":"神戸市兵庫区","city_kana":"コウベシヒョウゴク","town":"三川口町","town_kana":"ミカワグチチョウ","prefecture_code":28},"0855":{"zip_code":"6520855","prefecture":"兵庫県","prefecture_kana":"ヒョウゴケン","city":"神戸市兵庫区","city_kana":"コウベシヒョウゴク","town":"御崎町","town_kana":"ミサキチョウ","prefecture_code":28},"0852":{"zip_code":"6520852","prefecture":"兵庫県","prefecture_kana":"ヒョウゴケン","city":"神戸市兵庫区","city_kana":"コウベシヒョウゴク","town":"御崎本町","town_kana":"ミサキホンマチ","prefecture_code":28},"0802":{"zip_code":"6520802","prefecture":"兵庫県","prefecture_kana":"ヒョウゴケン","city":"神戸市兵庫区","city_kana":"コウベシヒョウゴク","town":"水木通","town_kana":"ミズキドオリ","prefecture_code":28},"0861":{"zip_code":"6520861","prefecture":"兵庫県","prefecture_kana":"ヒョウゴケン","city":"神戸市兵庫区","city_kana":"コウベシヒョウゴク","town":"三石通","town_kana":"ミツイシドオリ","prefecture_code":28},"0041":{"zip_code":"6520041","prefecture":"兵庫県","prefecture_kana":"ヒョウゴケン","city":"神戸市兵庫区","city_kana":"コウベシヒョウゴク","town":"湊川町","town_kana":"ミナトガワチョウ","prefecture_code":28},"0812":{"zip_code":"6520812","prefecture":"兵庫県","prefecture_kana":"ヒョウゴケン","city":"神戸市兵庫区","city_kana":"コウベシヒョウゴク","town":"湊町","town_kana":"ミナトチョウ","prefecture_code":28},"0012":{"zip_code":"6520012","prefecture":"兵庫県","prefecture_kana":"ヒョウゴケン","city":"神戸市兵庫区","city_kana":"コウベシヒョウゴク","town":"湊山町","town_kana":"ミナトヤマチョウ","prefecture_code":28},"0893":{"zip_code":"6520893","prefecture":"兵庫県","prefecture_kana":"ヒョウゴケン","city":"神戸市兵庫区","city_kana":"コウベシヒョウゴク","town":"南逆瀬川町","town_kana":"ミナミサカセガワチョウ","prefecture_code":28},"0841":{"zip_code":"6520841","prefecture":"兵庫県","prefecture_kana":"ヒョウゴケン","city":"神戸市兵庫区","city_kana":"コウベシヒョウゴク","town":"南仲町","town_kana":"ミナミナカマチ","prefecture_code":28},"0883":{"zip_code":"6520883","prefecture":"兵庫県","prefecture_kana":"ヒョウゴケン","city":"神戸市兵庫区","city_kana":"コウベシヒョウゴク","town":"明和通","town_kana":"メイワドオリ","prefecture_code":28},"0814":{"zip_code":"6520814","prefecture":"兵庫県","prefecture_kana":"ヒョウゴケン","city":"神戸市兵庫区","city_kana":"コウベシヒョウゴク","town":"門口町","town_kana":"モングチチョウ","prefecture_code":28},"0005":{"zip_code":"6520005","prefecture":"兵庫県","prefecture_kana":"ヒョウゴケン","city":"神戸市兵庫区","city_kana":"コウベシヒョウゴク","town":"矢部町","town_kana":"ヤベチョウ","prefecture_code":28},"0031":{"zip_code":"6520031","prefecture":"兵庫県","prefecture_kana":"ヒョウゴケン","city":"神戸市兵庫区","city_kana":"コウベシヒョウゴク","town":"雪御所町","town_kana":"ユキノゴショチョウ","prefecture_code":28},"0063":{"zip_code":"6520063","prefecture":"兵庫県","prefecture_kana":"ヒョウゴケン","city":"神戸市兵庫区","city_kana":"コウベシヒョウゴク","town":"夢野町","town_kana":"ユメノチョウ","prefecture_code":28},"0872":{"zip_code":"6520872","prefecture":"兵庫県","prefecture_kana":"ヒョウゴケン","city":"神戸市兵庫区","city_kana":"コウベシヒョウゴク","town":"吉田町","town_kana":"ヨシダチョウ","prefecture_code":28},"0854":{"zip_code":"6520854","prefecture":"兵庫県","prefecture_kana":"ヒョウゴケン","city":"神戸市兵庫区","city_kana":"コウベシヒョウゴク","town":"和田崎町","town_kana":"ワダサキチョウ","prefecture_code":28},"0863":{"zip_code":"6520863","prefecture":"兵庫県","prefecture_kana":"ヒョウゴケン","city":"神戸市兵庫区","city_kana":"コウベシヒョウゴク","town":"和田宮通","town_kana":"ワダミヤドオリ","prefecture_code":28},"0884":{"zip_code":"6520884","prefecture":"兵庫県","prefecture_kana":"ヒョウゴケン","city":"神戸市兵庫区","city_kana":"コウベシヒョウゴク","town":"和田山通","town_kana":"ワダヤマドオリ","prefecture_code":28},"0071":[{"zip_code":"6520071","prefecture":"兵庫県","prefecture_kana":"ヒョウゴケン","city":"神戸市北区","city_kana":"コウベシキタク","town":"山田町下谷上菊水山","town_kana":"ヤマダチョウシモタニガミキクスイヤマ","prefecture_code":28},{"zip_code":"6520071","prefecture":"兵庫県","prefecture_kana":"ヒョウゴケン","city":"神戸市北区","city_kana":"コウベシキタク","town":"山田町下谷上高座川向","town_kana":"ヤマダチョウシモタニガミコウザカワムカイ","prefecture_code":28},{"zip_code":"6520071","prefecture":"兵庫県","prefecture_kana":"ヒョウゴケン","city":"神戸市北区","city_kana":"コウベシキタク","town":"山田町下谷上","town_kana":"ヤマダチョウシモタニガミ","prefecture_code":28},{"zip_code":"6520071","prefecture":"兵庫県","prefecture_kana":"ヒョウゴケン","city":"神戸市北区","city_kana":"コウベシキタク","town":"山田町下谷上ひよどり越","town_kana":"ヤマダチョウシモタニガミヒヨドリゴエ","prefecture_code":28}]}