{"0000":{"zip_code":"6530000","prefecture":"兵庫県","prefecture_kana":"ヒョウゴケン","city":"神戸市長田区","city_kana":"コウベシナガタク","town":"","town_kana":"","prefecture_code":28},"0824":{"zip_code":"6530824","prefecture":"兵庫県","prefecture_kana":"ヒョウゴケン","city":"神戸市長田区","city_kana":"コウベシナガタク","town":"池田上町","town_kana":"イケダウエマチ","prefecture_code":28},"0823":{"zip_code":"6530823","prefecture":"兵庫県","prefecture_kana":"ヒョウゴケン","city":"神戸市長田区","city_kana":"コウベシナガタク","town":"池田経町","town_kana":"イケダキョウマチ","prefecture_code":28},"0826":{"zip_code":"6530826","prefecture":"兵庫県","prefecture_kana":"ヒョウゴケン","city":"神戸市長田区","city_kana":"コウベシナガタク","town":"池田塩町","town_kana":"イケダシオマチ","prefecture_code":28},"0825":{"zip_code":"6530825","prefecture":"兵庫県","prefecture_kana":"ヒョウゴケン","city":"神戸市長田区","city_kana":"コウベシナガタク","town":"池田新町","town_kana":"イケダシンマチ","prefecture_code":28},"0864":{"zip_code":"6530864","prefecture":"兵庫県","prefecture_kana":"ヒョウゴケン","city":"神戸市長田区","city_kana":"コウベシナガタク","town":"池田惣町","town_kana":"イケダソウマチ","prefecture_code":28},"0822":{"zip_code":"6530822","prefecture":"兵庫県","prefecture_kana":"ヒョウゴケン","city":"神戸市長田区","city_kana":"コウベシナガタク","town":"池田寺町","town_kana":"イケダテラマチ","prefecture_code":28},"0814":{"zip_code":"6530814","prefecture":"兵庫県","prefecture_kana":"ヒョウゴケン","city":"神戸市長田区","city_kana":"コウベシナガタク","town":"池田広町","town_kana":"イケダヒロマチ","prefecture_code":28},"0865":{"zip_code":"6530865","prefecture":"兵庫県","prefecture_kana":"ヒョウゴケン","city":"神戸市長田区","city_kana":"コウベシナガタク","town":"池田宮町","town_kana":"イケダミヤマチ","prefecture_code":28},"0821":{"zip_code":"6530821","prefecture":"兵庫県","prefecture_kana":"ヒョウゴケン","city":"神戸市長田区","city_kana":"コウベシナガタク","town":"池田谷町","town_kana":"イケダタニマチ","prefecture_code":28},"0013":{"zip_code":"6530013","prefecture":"兵庫県","prefecture_kana":"ヒョウゴケン","city":"神戸市長田区","city_kana":"コウベシナガタク","town":"一番町","town_kana":"イチバンチョウ","prefecture_code":28},"0878":{"zip_code":"6530878","prefecture":"兵庫県","prefecture_kana":"ヒョウゴケン","city":"神戸市長田区","city_kana":"コウベシナガタク","town":"一里山町","town_kana":"イチリヤマチョウ","prefecture_code":28},"0871":{"zip_code":"6530871","prefecture":"兵庫県","prefecture_kana":"ヒョウゴケン","city":"神戸市長田区","city_kana":"コウベシナガタク","town":"鶯町","town_kana":"ウグイスチョウ","prefecture_code":28},"0036":{"zip_code":"6530036","prefecture":"兵庫県","prefecture_kana":"ヒョウゴケン","city":"神戸市長田区","city_kana":"コウベシナガタク","town":"腕塚町","town_kana":"ウデヅカチョウ","prefecture_code":28},"0021":{"zip_code":"6530021","prefecture":"兵庫県","prefecture_kana":"ヒョウゴケン","city":"神戸市長田区","city_kana":"コウベシナガタク","town":"梅ケ香町","town_kana":"ウメガカチョウ","prefecture_code":28},"0838":{"zip_code":"6530838","prefecture":"兵庫県","prefecture_kana":"ヒョウゴケン","city":"神戸市長田区","city_kana":"コウベシナガタク","town":"大谷町","town_kana":"オオタニチョウ","prefecture_code":28},"0811":{"zip_code":"6530811","prefecture":"兵庫県","prefecture_kana":"ヒョウゴケン","city":"神戸市長田区","city_kana":"コウベシナガタク","town":"大塚町","town_kana":"オオツカチョウ","prefecture_code":28},"0037":{"zip_code":"6530037","prefecture":"兵庫県","prefecture_kana":"ヒョウゴケン","city":"神戸市長田区","city_kana":"コウベシナガタク","town":"大橋町","town_kana":"オオハシチョウ","prefecture_code":28},"0833":{"zip_code":"6530833","prefecture":"兵庫県","prefecture_kana":"ヒョウゴケン","city":"神戸市長田区","city_kana":"コウベシナガタク","town":"大道通","town_kana":"オオミチドオリ","prefecture_code":28},"0802":{"zip_code":"6530802","prefecture":"兵庫県","prefecture_kana":"ヒョウゴケン","city":"神戸市長田区","city_kana":"コウベシナガタク","town":"重池町","town_kana":"オモイケチョウ","prefecture_code":28},"0843":{"zip_code":"6530843","prefecture":"兵庫県","prefecture_kana":"ヒョウゴケン","city":"神戸市長田区","city_kana":"コウベシナガタク","town":"御屋敷通","town_kana":"オヤシキドオリ","prefecture_code":28},"0052":{"zip_code":"6530052","prefecture":"兵庫県","prefecture_kana":"ヒョウゴケン","city":"神戸市長田区","city_kana":"コウベシナガタク","town":"海運町","town_kana":"カイウンチョウ","prefecture_code":28},"0836":{"zip_code":"6530836","prefecture":"兵庫県","prefecture_kana":"ヒョウゴケン","city":"神戸市長田区","city_kana":"コウベシナガタク","town":"神楽町","town_kana":"カグラチョウ","prefecture_code":28},"0805":{"zip_code":"6530805","prefecture":"兵庫県","prefecture_kana":"ヒョウゴケン","city":"神戸市長田区","city_kana":"コウベシナガタク","town":"片山町","town_kana":"カタヤマチョウ","prefecture_code":28},"0827":{"zip_code":"6530827","prefecture":"兵庫県","prefecture_kana":"ヒョウゴケン","city":"神戸市長田区","city_kana":"コウベシナガタク","town":"上池田","town_kana":"カミイケダ","prefecture_code":28},"0033":{"zip_code":"6530033","prefecture":"兵庫県","prefecture_kana":"ヒョウゴケン","city":"神戸市長田区","city_kana":"コウベシナガタク","town":"苅藻島町","town_kana":"カルモジマチョウ","prefecture_code":28},"0032":{"zip_code":"6530032","prefecture":"兵庫県","prefecture_kana":"ヒョウゴケン","city":"神戸市長田区","city_kana":"コウベシナガタク","town":"苅藻通","town_kana":"カルモドオリ","prefecture_code":28},"0834":{"zip_code":"6530834","prefecture":"兵庫県","prefecture_kana":"ヒョウゴケン","city":"神戸市長田区","city_kana":"コウベシナガタク","town":"川西通","town_kana":"カワニシドオリ","prefecture_code":28},"0016":{"zip_code":"6530016","prefecture":"兵庫県","prefecture_kana":"ヒョウゴケン","city":"神戸市長田区","city_kana":"コウベシナガタク","town":"北町","town_kana":"キタマチ","prefecture_code":28},"0041":{"zip_code":"6530041","prefecture":"兵庫県","prefecture_kana":"ヒョウゴケン","city":"神戸市長田区","city_kana":"コウベシナガタク","town":"久保町","town_kana":"クボチョウ","prefecture_code":28},"0888":{"zip_code":"6530888","prefecture":"兵庫県","prefecture_kana":"ヒョウゴケン","city":"神戸市長田区","city_kana":"コウベシナガタク","town":"源平町","town_kana":"ゲンペイチョウ","prefecture_code":28},"0851":{"zip_code":"6530851","prefecture":"兵庫県","prefecture_kana":"ヒョウゴケン","city":"神戸市長田区","city_kana":"コウベシナガタク","town":"五位ノ池町","town_kana":"ゴイノイケチョウ","prefecture_code":28},"0867":{"zip_code":"6530867","prefecture":"兵庫県","prefecture_kana":"ヒョウゴケン","city":"神戸市長田区","city_kana":"コウベシナガタク","town":"高東町","town_kana":"コウトウチョウ","prefecture_code":28},"0003":{"zip_code":"6530003","prefecture":"兵庫県","prefecture_kana":"ヒョウゴケン","city":"神戸市長田区","city_kana":"コウベシナガタク","town":"五番町","town_kana":"ゴバンチョウ","prefecture_code":28},"0034":{"zip_code":"6530034","prefecture":"兵庫県","prefecture_kana":"ヒョウゴケン","city":"神戸市長田区","city_kana":"コウベシナガタク","town":"駒栄町","town_kana":"コマエチョウ","prefecture_code":28},"0043":{"zip_code":"6530043","prefecture":"兵庫県","prefecture_kana":"ヒョウゴケン","city":"神戸市長田区","city_kana":"コウベシナガタク","town":"駒ケ林町","town_kana":"コマガバヤシチョウ","prefecture_code":28},"0045":{"zip_code":"6530045","prefecture":"兵庫県","prefecture_kana":"ヒョウゴケン","city":"神戸市長田区","city_kana":"コウベシナガタク","town":"駒ケ林南町","town_kana":"コマガバヤシミナミチョウ","prefecture_code":28},"0011":{"zip_code":"6530011","prefecture":"兵庫県","prefecture_kana":"ヒョウゴケン","city":"神戸市長田区","city_kana":"コウベシナガタク","town":"三番町","town_kana":"サンバンチョウ","prefecture_code":28},"0877":{"zip_code":"6530877","prefecture":"兵庫県","prefecture_kana":"ヒョウゴケン","city":"神戸市長田区","city_kana":"コウベシナガタク","town":"鹿松町","town_kana":"シカマツチョウ","prefecture_code":28},"0035":{"zip_code":"6530035","prefecture":"兵庫県","prefecture_kana":"ヒョウゴケン","city":"神戸市長田区","city_kana":"コウベシナガタク","town":"庄田町","town_kana":"ショウダチョウ","prefecture_code":28},"0853":{"zip_code":"6530853","prefecture":"兵庫県","prefecture_kana":"ヒョウゴケン","city":"神戸市長田区","city_kana":"コウベシナガタク","town":"庄山町","town_kana":"ショウヤマチョウ","prefecture_code":28},"0015":{"zip_code":"6530015","prefecture":"兵庫県","prefecture_kana":"ヒョウゴケン","city":"神戸市長田区","city_kana":"コウベシナガタク","town":"菅原通","town_kana":"スガハラドオリ","prefecture_code":28},"0806":{"zip_code":"6530806","prefecture":"兵庫県","prefecture_kana":"ヒョウゴケン","city":"神戸市長田区","city_kana":"コウベシナガタク","town":"大丸町","town_kana":"ダイマルチョウ","prefecture_code":28},"0856":{"zip_code":"6530856","prefecture":"兵庫県","prefecture_kana":"ヒョウゴケン","city":"神戸市長田区","city_kana":"コウベシナガタク","town":"高取山町","town_kana":"タカトリサンチョウ","prefecture_code":28},"0881":{"zip_code":"6530881","prefecture":"兵庫県","prefecture_kana":"ヒョウゴケン","city":"神戸市長田区","city_kana":"コウベシナガタク","town":"滝谷町","town_kana":"タキタニチョウ","prefecture_code":28},"0872":{"zip_code":"6530872","prefecture":"兵庫県","prefecture_kana":"ヒョウゴケン","city":"神戸市長田区","city_kana":"コウベシナガタク","town":"大日丘町","town_kana":"ダイニチガオカチョウ","prefecture_code":28},"0866":{"zip_code":"6530866","prefecture":"兵庫県","prefecture_kana":"ヒョウゴケン","city":"神戸市長田区","city_kana":"コウベシナガタク","town":"長者町","town_kana":"チョウジャマチ","prefecture_code":28},"0804":{"zip_code":"6530804","prefecture":"兵庫県","prefecture_kana":"ヒョウゴケン","city":"神戸市長田区","city_kana":"コウベシナガタク","town":"寺池町","town_kana":"テライケチョウ","prefecture_code":28},"0845":{"zip_code":"6530845","prefecture":"兵庫県","prefecture_kana":"ヒョウゴケン","city":"神戸市長田区","city_kana":"コウベシナガタク","town":"戸崎通","town_kana":"トザキドオリ","prefecture_code":28},"0855":{"zip_code":"6530855","prefecture":"兵庫県","prefecture_kana":"ヒョウゴケン","city":"神戸市長田区","city_kana":"コウベシナガタク","town":"長尾町","town_kana":"ナガオチョウ","prefecture_code":28},"0812":{"zip_code":"6530812","prefecture":"兵庫県","prefecture_kana":"ヒョウゴケン","city":"神戸市長田区","city_kana":"コウベシナガタク","town":"長田町","town_kana":"ナガタチョウ","prefecture_code":28},"0882":{"zip_code":"6530882","prefecture":"兵庫県","prefecture_kana":"ヒョウゴケン","city":"神戸市長田区","city_kana":"コウベシナガタク","town":"長田天神町","town_kana":"ナガタテンジンチョウ","prefecture_code":28},"0054":{"zip_code":"6530054","prefecture":"兵庫県","prefecture_kana":"ヒョウゴケン","city":"神戸市長田区","city_kana":"コウベシナガタク","town":"長楽町","town_kana":"ナガラチョウ","prefecture_code":28},"0883":{"zip_code":"6530883","prefecture":"兵庫県","prefecture_kana":"ヒョウゴケン","city":"神戸市長田区","city_kana":"コウベシナガタク","town":"名倉町","town_kana":"ナグラチョウ","prefecture_code":28},"0001":{"zip_code":"6530001","prefecture":"兵庫県","prefecture_kana":"ヒョウゴケン","city":"神戸市長田区","city_kana":"コウベシナガタク","town":"七番町","town_kana":"ナナバンチョウ","prefecture_code":28},"0055":{"zip_code":"6530055","prefecture":"兵庫県","prefecture_kana":"ヒョウゴケン","city":"神戸市長田区","city_kana":"コウベシナガタク","town":"浪松町","town_kana":"ナミマツチョウ","prefecture_code":28},"0031":{"zip_code":"6530031","prefecture":"兵庫県","prefecture_kana":"ヒョウゴケン","city":"神戸市長田区","city_kana":"コウベシナガタク","town":"西尻池町","town_kana":"ニシシリイケチョウ","prefecture_code":28},"0844":{"zip_code":"6530844","prefecture":"兵庫県","prefecture_kana":"ヒョウゴケン","city":"神戸市長田区","city_kana":"コウベシナガタク","town":"西代通","town_kana":"ニシダイドオリ","prefecture_code":28},"0874":{"zip_code":"6530874","prefecture":"兵庫県","prefecture_kana":"ヒョウゴケン","city":"神戸市長田区","city_kana":"コウベシナガタク","town":"西丸山町","town_kana":"ニシマルヤマチョウ","prefecture_code":28},"0862":{"zip_code":"6530862","prefecture":"兵庫県","prefecture_kana":"ヒョウゴケン","city":"神戸市長田区","city_kana":"コウベシナガタク","town":"西山町","town_kana":"ニシヤマチョウ","prefecture_code":28},"0012":{"zip_code":"6530012","prefecture":"兵庫県","prefecture_kana":"ヒョウゴケン","city":"神戸市長田区","city_kana":"コウベシナガタク","town":"二番町","town_kana":"ニバンチョウ","prefecture_code":28},"0051":{"zip_code":"6530051","prefecture":"兵庫県","prefecture_kana":"ヒョウゴケン","city":"神戸市長田区","city_kana":"コウベシナガタク","town":"野田町","town_kana":"ノダチョウ","prefecture_code":28},"0873":{"zip_code":"6530873","prefecture":"兵庫県","prefecture_kana":"ヒョウゴケン","city":"神戸市長田区","city_kana":"コウベシナガタク","town":"萩乃町","town_kana":"ハギノチョウ","prefecture_code":28},"0837":{"zip_code":"6530837","prefecture":"兵庫県","prefecture_kana":"ヒョウゴケン","city":"神戸市長田区","city_kana":"コウベシナガタク","town":"蓮池町","town_kana":"ハスイケチョウ","prefecture_code":28},"0831":{"zip_code":"6530831","prefecture":"兵庫県","prefecture_kana":"ヒョウゴケン","city":"神戸市長田区","city_kana":"コウベシナガタク","town":"蓮宮通","town_kana":"ハスミヤドオリ","prefecture_code":28},"0876":{"zip_code":"6530876","prefecture":"兵庫県","prefecture_kana":"ヒョウゴケン","city":"神戸市長田区","city_kana":"コウベシナガタク","town":"花山町","town_kana":"ハナヤマチョウ","prefecture_code":28},"0024":{"zip_code":"6530024","prefecture":"兵庫県","prefecture_kana":"ヒョウゴケン","city":"神戸市長田区","city_kana":"コウベシナガタク","town":"浜添通","town_kana":"ハマゾエドオリ","prefecture_code":28},"0861":{"zip_code":"6530861","prefecture":"兵庫県","prefecture_kana":"ヒョウゴケン","city":"神戸市長田区","city_kana":"コウベシナガタク","town":"林山町","town_kana":"ハヤシヤマチョウ","prefecture_code":28},"0887":{"zip_code":"6530887","prefecture":"兵庫県","prefecture_kana":"ヒョウゴケン","city":"神戸市長田区","city_kana":"コウベシナガタク","town":"檜川町","town_kana":"ヒカワチョウ","prefecture_code":28},"0023":{"zip_code":"6530023","prefecture":"兵庫県","prefecture_kana":"ヒョウゴケン","city":"神戸市長田区","city_kana":"コウベシナガタク","town":"東尻池新町","town_kana":"ヒガシシリイケシンチョウ","prefecture_code":28},"0022":{"zip_code":"6530022","prefecture":"兵庫県","prefecture_kana":"ヒョウゴケン","city":"神戸市長田区","city_kana":"コウベシナガタク","town":"東尻池町","town_kana":"ヒガシシリイケチョウ","prefecture_code":28},"0886":{"zip_code":"6530886","prefecture":"兵庫県","prefecture_kana":"ヒョウゴケン","city":"神戸市長田区","city_kana":"コウベシナガタク","town":"東丸山町","town_kana":"ヒガシマルヤマチョウ","prefecture_code":28},"0879":{"zip_code":"6530879","prefecture":"兵庫県","prefecture_kana":"ヒョウゴケン","city":"神戸市長田区","city_kana":"コウベシナガタク","town":"雲雀ケ丘","town_kana":"ヒバリガオカ","prefecture_code":28},"0039":{"zip_code":"6530039","prefecture":"兵庫県","prefecture_kana":"ヒョウゴケン","city":"神戸市長田区","city_kana":"コウベシナガタク","town":"日吉町","town_kana":"ヒヨシチョウ","prefecture_code":28},"0042":{"zip_code":"6530042","prefecture":"兵庫県","prefecture_kana":"ヒョウゴケン","city":"神戸市長田区","city_kana":"コウベシナガタク","town":"二葉町","town_kana":"フタバチョウ","prefecture_code":28},"0854":{"zip_code":"6530854","prefecture":"兵庫県","prefecture_kana":"ヒョウゴケン","city":"神戸市長田区","city_kana":"コウベシナガタク","town":"平和台町","town_kana":"ヘイワダイチョウ","prefecture_code":28},"0801":{"zip_code":"6530801","prefecture":"兵庫県","prefecture_kana":"ヒョウゴケン","city":"神戸市長田区","city_kana":"コウベシナガタク","town":"房王寺町","town_kana":"ボウオウジチョウ","prefecture_code":28},"0835":{"zip_code":"6530835","prefecture":"兵庫県","prefecture_kana":"ヒョウゴケン","city":"神戸市長田区","city_kana":"コウベシナガタク","town":"細田町","town_kana":"ホソダチョウ","prefecture_code":28},"0885":{"zip_code":"6530885","prefecture":"兵庫県","prefecture_kana":"ヒョウゴケン","city":"神戸市長田区","city_kana":"コウベシナガタク","town":"堀切町","town_kana":"ホリキリチョウ","prefecture_code":28},"0053":{"zip_code":"6530053","prefecture":"兵庫県","prefecture_kana":"ヒョウゴケン","city":"神戸市長田区","city_kana":"コウベシナガタク","town":"本庄町","town_kana":"ホンジョウチョウ","prefecture_code":28},"0803":{"zip_code":"6530803","prefecture":"兵庫県","prefecture_kana":"ヒョウゴケン","city":"神戸市長田区","city_kana":"コウベシナガタク","town":"前原町","town_kana":"マエバラチョウ","prefecture_code":28},"0841":{"zip_code":"6530841","prefecture":"兵庫県","prefecture_kana":"ヒョウゴケン","city":"神戸市長田区","city_kana":"コウベシナガタク","town":"松野通","town_kana":"マツノドオリ","prefecture_code":28},"0025":{"zip_code":"6530025","prefecture":"兵庫県","prefecture_kana":"ヒョウゴケン","city":"神戸市長田区","city_kana":"コウベシナガタク","town":"真野町","town_kana":"マノチョウ","prefecture_code":28},"0875":{"zip_code":"6530875","prefecture":"兵庫県","prefecture_kana":"ヒョウゴケン","city":"神戸市長田区","city_kana":"コウベシナガタク","town":"丸山町","town_kana":"マルヤマチョウ","prefecture_code":28},"0014":{"zip_code":"6530014","prefecture":"兵庫県","prefecture_kana":"ヒョウゴケン","city":"神戸市長田区","city_kana":"コウベシナガタク","town":"御蔵通","town_kana":"ミクラドオリ","prefecture_code":28},"0842":{"zip_code":"6530842","prefecture":"兵庫県","prefecture_kana":"ヒョウゴケン","city":"神戸市長田区","city_kana":"コウベシナガタク","town":"水笠通","town_kana":"ミズカサドオリ","prefecture_code":28},"0044":{"zip_code":"6530044","prefecture":"兵庫県","prefecture_kana":"ヒョウゴケン","city":"神戸市長田区","city_kana":"コウベシナガタク","town":"南駒栄町","town_kana":"ミナミコマエチョウ","prefecture_code":28},"0832":{"zip_code":"6530832","prefecture":"兵庫県","prefecture_kana":"ヒョウゴケン","city":"神戸市長田区","city_kana":"コウベシナガタク","town":"御船通","town_kana":"ミフネドオリ","prefecture_code":28},"0863":{"zip_code":"6530863","prefecture":"兵庫県","prefecture_kana":"ヒョウゴケン","city":"神戸市長田区","city_kana":"コウベシナガタク","town":"宮丘町","town_kana":"ミヤオカチョウ","prefecture_code":28},"0813":{"zip_code":"6530813","prefecture":"兵庫県","prefecture_kana":"ヒョウゴケン","city":"神戸市長田区","city_kana":"コウベシナガタク","town":"宮川町","town_kana":"ミヤガワチョウ","prefecture_code":28},"0884":{"zip_code":"6530884","prefecture":"兵庫県","prefecture_kana":"ヒョウゴケン","city":"神戸市長田区","city_kana":"コウベシナガタク","town":"明泉寺町","town_kana":"ミョウセンジチョウ","prefecture_code":28},"0852":{"zip_code":"6530852","prefecture":"兵庫県","prefecture_kana":"ヒョウゴケン","city":"神戸市長田区","city_kana":"コウベシナガタク","town":"山下町","town_kana":"ヤマシタチョウ","prefecture_code":28},"0004":{"zip_code":"6530004","prefecture":"兵庫県","prefecture_kana":"ヒョウゴケン","city":"神戸市長田区","city_kana":"コウベシナガタク","town":"四番町","town_kana":"ヨンバンチョウ","prefecture_code":28},"0002":{"zip_code":"6530002","prefecture":"兵庫県","prefecture_kana":"ヒョウゴケン","city":"神戸市長田区","city_kana":"コウベシナガタク","town":"六番町","town_kana":"ロクバンチョウ","prefecture_code":28},"0038":{"zip_code":"6530038","prefecture":"兵庫県","prefecture_kana":"ヒョウゴケン","city":"神戸市長田区","city_kana":"コウベシナガタク","town":"若松町","town_kana":"ワカマツチョウ","prefecture_code":28}}