{"0000":{"zip_code":"6540000","prefecture":"兵庫県","prefecture_kana":"ヒョウゴケン","city":"神戸市須磨区","city_kana":"コウベシスマク","town":"以下に掲載がない場合","town_kana":"イカニケイサイガナイバアイ","prefecture_code":28},"0038":{"zip_code":"6540038","prefecture":"兵庫県","prefecture_kana":"ヒョウゴケン","city":"神戸市須磨区","city_kana":"コウベシスマク","town":"青葉町","town_kana":"アオバチョウ","prefecture_code":28},"0047":{"zip_code":"6540047","prefecture":"兵庫県","prefecture_kana":"ヒョウゴケン","city":"神戸市須磨区","city_kana":"コウベシスマク","town":"磯馴町","town_kana":"イソナレチョウ","prefecture_code":28},"0009":{"zip_code":"6540009","prefecture":"兵庫県","prefecture_kana":"ヒョウゴケン","city":"神戸市須磨区","city_kana":"コウベシスマク","town":"板宿町","town_kana":"イタヤドチョウ","prefecture_code":28},"0076":{"zip_code":"6540076","prefecture":"兵庫県","prefecture_kana":"ヒョウゴケン","city":"神戸市須磨区","city_kana":"コウベシスマク","town":"一ノ谷町","town_kana":"イチノタニチョウ","prefecture_code":28},"0044":{"zip_code":"6540044","prefecture":"兵庫県","prefecture_kana":"ヒョウゴケン","city":"神戸市須磨区","city_kana":"コウベシスマク","town":"稲葉町","town_kana":"イナバチョウ","prefecture_code":28},"0004":{"zip_code":"6540004","prefecture":"兵庫県","prefecture_kana":"ヒョウゴケン","city":"神戸市須磨区","city_kana":"コウベシスマク","town":"永楽町","town_kana":"エイラクチョウ","prefecture_code":28},"0023":{"zip_code":"6540023","prefecture":"兵庫県","prefecture_kana":"ヒョウゴケン","city":"神戸市須磨区","city_kana":"コウベシスマク","town":"戎町","town_kana":"エビスチョウ","prefecture_code":28},"0026":{"zip_code":"6540026","prefecture":"兵庫県","prefecture_kana":"ヒョウゴケン","city":"神戸市須磨区","city_kana":"コウベシスマク","town":"大池町","town_kana":"オオイケチョウ","prefecture_code":28},"0024":{"zip_code":"6540024","prefecture":"兵庫県","prefecture_kana":"ヒョウゴケン","city":"神戸市須磨区","city_kana":"コウベシスマク","town":"大田町","town_kana":"オオタチョウ","prefecture_code":28},"0017":{"zip_code":"6540017","prefecture":"兵庫県","prefecture_kana":"ヒョウゴケン","city":"神戸市須磨区","city_kana":"コウベシスマク","town":"大手","town_kana":"オオテ","prefecture_code":28},"0013":{"zip_code":"6540013","prefecture":"兵庫県","prefecture_kana":"ヒョウゴケン","city":"神戸市須磨区","city_kana":"コウベシスマク","town":"大手町","town_kana":"オオテチョウ","prefecture_code":28},"0015":{"zip_code":"6540015","prefecture":"兵庫県","prefecture_kana":"ヒョウゴケン","city":"神戸市須磨区","city_kana":"コウベシスマク","town":"奥山畑町","town_kana":"オクヤマハタチョウ","prefecture_code":28},"0162":{"zip_code":"6540162","prefecture":"兵庫県","prefecture_kana":"ヒョウゴケン","city":"神戸市須磨区","city_kana":"コウベシスマク","town":"神の谷","town_kana":"カミノタニ","prefecture_code":28},"0016":{"zip_code":"6540016","prefecture":"兵庫県","prefecture_kana":"ヒョウゴケン","city":"神戸市須磨区","city_kana":"コウベシスマク","town":"上細沢町","town_kana":"カミホソザワチョウ","prefecture_code":28},"0005":{"zip_code":"6540005","prefecture":"兵庫県","prefecture_kana":"ヒョウゴケン","city":"神戸市須磨区","city_kana":"コウベシスマク","town":"川上町","town_kana":"カワカミチョウ","prefecture_code":28},"0008":{"zip_code":"6540008","prefecture":"兵庫県","prefecture_kana":"ヒョウゴケン","city":"神戸市須磨区","city_kana":"コウベシスマク","town":"菊池町","town_kana":"キクイケチョウ","prefecture_code":28},"0151":{"zip_code":"6540151","prefecture":"兵庫県","prefecture_kana":"ヒョウゴケン","city":"神戸市須磨区","city_kana":"コウベシスマク","town":"北落合","town_kana":"キタオチアイ","prefecture_code":28},"0064":{"zip_code":"6540064","prefecture":"兵庫県","prefecture_kana":"ヒョウゴケン","city":"神戸市須磨区","city_kana":"コウベシスマク","town":"北町","town_kana":"キタマチ","prefecture_code":28},"0048":{"zip_code":"6540048","prefecture":"兵庫県","prefecture_kana":"ヒョウゴケン","city":"神戸市須磨区","city_kana":"コウベシスマク","town":"衣掛町","town_kana":"キヌガケチョウ","prefecture_code":28},"0111":{"zip_code":"6540111","prefecture":"兵庫県","prefecture_kana":"ヒョウゴケン","city":"神戸市須磨区","city_kana":"コウベシスマク","town":"車","town_kana":"クルマ","prefecture_code":28},"0042":{"zip_code":"6540042","prefecture":"兵庫県","prefecture_kana":"ヒョウゴケン","city":"神戸市須磨区","city_kana":"コウベシスマク","town":"小寺町","town_kana":"コデラチョウ","prefecture_code":28},"0031":{"zip_code":"6540031","prefecture":"兵庫県","prefecture_kana":"ヒョウゴケン","city":"神戸市須磨区","city_kana":"コウベシスマク","town":"権現町","town_kana":"ゴンゲンチョウ","prefecture_code":28},"0066":{"zip_code":"6540066","prefecture":"兵庫県","prefecture_kana":"ヒョウゴケン","city":"神戸市須磨区","city_kana":"コウベシスマク","town":"桜木町","town_kana":"サクラギチョウ","prefecture_code":28},"0114":{"zip_code":"6540114","prefecture":"兵庫県","prefecture_kana":"ヒョウゴケン","city":"神戸市須磨区","city_kana":"コウベシスマク","town":"桜の杜","town_kana":"サクラノモリ","prefecture_code":28},"0075":{"zip_code":"6540075","prefecture":"兵庫県","prefecture_kana":"ヒョウゴケン","city":"神戸市須磨区","city_kana":"コウベシスマク","town":"潮見台町","town_kana":"シオミダイチョウ","prefecture_code":28},"0123":{"zip_code":"6540123","prefecture":"兵庫県","prefecture_kana":"ヒョウゴケン","city":"神戸市須磨区","city_kana":"コウベシスマク","town":"清水台","town_kana":"シミズダイ","prefecture_code":28},"0101":{"zip_code":"6540101","prefecture":"兵庫県","prefecture_kana":"ヒョウゴケン","city":"神戸市須磨区","city_kana":"コウベシスマク","town":"白川","town_kana":"シラカワ","prefecture_code":28},"0103":{"zip_code":"6540103","prefecture":"兵庫県","prefecture_kana":"ヒョウゴケン","city":"神戸市須磨区","city_kana":"コウベシスマク","town":"白川台","town_kana":"シラカワダイ","prefecture_code":28},"0003":{"zip_code":"6540003","prefecture":"兵庫県","prefecture_kana":"ヒョウゴケン","city":"神戸市須磨区","city_kana":"コウベシスマク","town":"神撫町","town_kana":"ジンブチョウ","prefecture_code":28},"0143":{"zip_code":"6540143","prefecture":"兵庫県","prefecture_kana":"ヒョウゴケン","city":"神戸市須磨区","city_kana":"コウベシスマク","town":"菅の台","town_kana":"スガノダイ","prefecture_code":28},"0055":{"zip_code":"6540055","prefecture":"兵庫県","prefecture_kana":"ヒョウゴケン","city":"神戸市須磨区","city_kana":"コウベシスマク","town":"須磨浦通","town_kana":"スマウラドオリ","prefecture_code":28},"0071":{"zip_code":"6540071","prefecture":"兵庫県","prefecture_kana":"ヒョウゴケン","city":"神戸市須磨区","city_kana":"コウベシスマク","town":"須磨寺町","town_kana":"スマデラチョウ","prefecture_code":28},"0054":{"zip_code":"6540054","prefecture":"兵庫県","prefecture_kana":"ヒョウゴケン","city":"神戸市須磨区","city_kana":"コウベシスマク","town":"須磨本町","town_kana":"スマホンマチ","prefecture_code":28},"0073":{"zip_code":"6540073","prefecture":"兵庫県","prefecture_kana":"ヒョウゴケン","city":"神戸市須磨区","city_kana":"コウベシスマク","town":"関守町","town_kana":"セキモリチョウ","prefecture_code":28},"0001":{"zip_code":"6540001","prefecture":"兵庫県","prefecture_kana":"ヒョウゴケン","city":"神戸市須磨区","city_kana":"コウベシスマク","town":"禅昌寺町","town_kana":"ゼンショウジチョウ","prefecture_code":28},"0043":{"zip_code":"6540043","prefecture":"兵庫県","prefecture_kana":"ヒョウゴケン","city":"神戸市須磨区","city_kana":"コウベシスマク","town":"外浜町","town_kana":"ソトハマチョウ","prefecture_code":28},"0022":{"zip_code":"6540022","prefecture":"兵庫県","prefecture_kana":"ヒョウゴケン","city":"神戸市須磨区","city_kana":"コウベシスマク","town":"大黒町","town_kana":"ダイコクチョウ","prefecture_code":28},"0133":{"zip_code":"6540133","prefecture":"兵庫県","prefecture_kana":"ヒョウゴケン","city":"神戸市須磨区","city_kana":"コウベシスマク","town":"多井畑","town_kana":"タイノハタ","prefecture_code":28},"0134":{"zip_code":"6540134","prefecture":"兵庫県","prefecture_kana":"ヒョウゴケン","city":"神戸市須磨区","city_kana":"コウベシスマク","town":"多井畑東町","town_kana":"タイノハタヒガシマチ","prefecture_code":28},"0132":{"zip_code":"6540132","prefecture":"兵庫県","prefecture_kana":"ヒョウゴケン","city":"神戸市須磨区","city_kana":"コウベシスマク","town":"多井畑南町","town_kana":"タイノハタミナミマチ","prefecture_code":28},"0061":{"zip_code":"6540061","prefecture":"兵庫県","prefecture_kana":"ヒョウゴケン","city":"神戸市須磨区","city_kana":"コウベシスマク","town":"高尾台","town_kana":"タカオダイ","prefecture_code":28},"0081":{"zip_code":"6540081","prefecture":"兵庫県","prefecture_kana":"ヒョウゴケン","city":"神戸市須磨区","city_kana":"コウベシスマク","town":"高倉台","town_kana":"タカクラダイ","prefecture_code":28},"0074":{"zip_code":"6540074","prefecture":"兵庫県","prefecture_kana":"ヒョウゴケン","city":"神戸市須磨区","city_kana":"コウベシスマク","town":"高倉町","town_kana":"タカクラチョウ","prefecture_code":28},"0039":{"zip_code":"6540039","prefecture":"兵庫県","prefecture_kana":"ヒョウゴケン","city":"神戸市須磨区","city_kana":"コウベシスマク","town":"鷹取町","town_kana":"タカトリチョウ","prefecture_code":28},"0027":{"zip_code":"6540027","prefecture":"兵庫県","prefecture_kana":"ヒョウゴケン","city":"神戸市須磨区","city_kana":"コウベシスマク","town":"千歳町","town_kana":"チトセチョウ","prefecture_code":28},"0072":{"zip_code":"6540072","prefecture":"兵庫県","prefecture_kana":"ヒョウゴケン","city":"神戸市須磨区","city_kana":"コウベシスマク","town":"千守町","town_kana":"チモリチョウ","prefecture_code":28},"0063":{"zip_code":"6540063","prefecture":"兵庫県","prefecture_kana":"ヒョウゴケン","city":"神戸市須磨区","city_kana":"コウベシスマク","town":"月見山町","town_kana":"ツキミヤマチョウ","prefecture_code":28},"0051":{"zip_code":"6540051","prefecture":"兵庫県","prefecture_kana":"ヒョウゴケン","city":"神戸市須磨区","city_kana":"コウベシスマク","town":"月見山本町","town_kana":"ツキミヤマホンマチ","prefecture_code":28},"0025":{"zip_code":"6540025","prefecture":"兵庫県","prefecture_kana":"ヒョウゴケン","city":"神戸市須磨区","city_kana":"コウベシスマク","town":"寺田町","town_kana":"テラダチョウ","prefecture_code":28},"0053":{"zip_code":"6540053","prefecture":"兵庫県","prefecture_kana":"ヒョウゴケン","city":"神戸市須磨区","city_kana":"コウベシスマク","town":"天神町","town_kana":"テンジンチョウ","prefecture_code":28},"0122":{"zip_code":"6540122","prefecture":"兵庫県","prefecture_kana":"ヒョウゴケン","city":"神戸市須磨区","city_kana":"コウベシスマク","town":"道正台","town_kana":"ドウショウダイ","prefecture_code":28},"0028":{"zip_code":"6540028","prefecture":"兵庫県","prefecture_kana":"ヒョウゴケン","city":"神戸市須磨区","city_kana":"コウベシスマク","town":"常盤町","town_kana":"トキワチョウ","prefecture_code":28},"0012":{"zip_code":"6540012","prefecture":"兵庫県","prefecture_kana":"ヒョウゴケン","city":"神戸市須磨区","city_kana":"コウベシスマク","town":"飛松町","town_kana":"トビマツチョウ","prefecture_code":28},"0034":{"zip_code":"6540034","prefecture":"兵庫県","prefecture_kana":"ヒョウゴケン","city":"神戸市須磨区","city_kana":"コウベシスマク","town":"戸政町","town_kana":"トマサチョウ","prefecture_code":28},"0142":{"zip_code":"6540142","prefecture":"兵庫県","prefecture_kana":"ヒョウゴケン","city":"神戸市須磨区","city_kana":"コウベシスマク","town":"友が丘","town_kana":"トモガオカ","prefecture_code":28},"0154":{"zip_code":"6540154","prefecture":"兵庫県","prefecture_kana":"ヒョウゴケン","city":"神戸市須磨区","city_kana":"コウベシスマク","town":"中落合","town_kana":"ナカオチアイ","prefecture_code":28},"0035":{"zip_code":"6540035","prefecture":"兵庫県","prefecture_kana":"ヒョウゴケン","city":"神戸市須磨区","city_kana":"コウベシスマク","town":"中島町","town_kana":"ナカジマチョウ","prefecture_code":28},"0155":{"zip_code":"6540155","prefecture":"兵庫県","prefecture_kana":"ヒョウゴケン","city":"神戸市須磨区","city_kana":"コウベシスマク","town":"西落合","town_kana":"ニシオチアイ","prefecture_code":28},"0068":{"zip_code":"6540068","prefecture":"兵庫県","prefecture_kana":"ヒョウゴケン","city":"神戸市須磨区","city_kana":"コウベシスマク","town":"西須磨","town_kana":"ニシスマ","prefecture_code":28},"0152":{"zip_code":"6540152","prefecture":"兵庫県","prefecture_kana":"ヒョウゴケン","city":"神戸市須磨区","city_kana":"コウベシスマク","town":"東落合","town_kana":"ヒガシオチアイ","prefecture_code":28},"0102":{"zip_code":"6540102","prefecture":"兵庫県","prefecture_kana":"ヒョウゴケン","city":"神戸市須磨区","city_kana":"コウベシスマク","town":"東白川台","town_kana":"ヒガシシラカワダイ","prefecture_code":28},"0018":{"zip_code":"6540018","prefecture":"兵庫県","prefecture_kana":"ヒョウゴケン","city":"神戸市須磨区","city_kana":"コウベシスマク","town":"東須磨","town_kana":"ヒガシスマ","prefecture_code":28},"0033":{"zip_code":"6540033","prefecture":"兵庫県","prefecture_kana":"ヒョウゴケン","city":"神戸市須磨区","city_kana":"コウベシスマク","town":"東町","town_kana":"ヒガシマチ","prefecture_code":28},"0021":{"zip_code":"6540021","prefecture":"兵庫県","prefecture_kana":"ヒョウゴケン","city":"神戸市須磨区","city_kana":"コウベシスマク","town":"平田町","town_kana":"ヒラタチョウ","prefecture_code":28},"0041":{"zip_code":"6540041","prefecture":"兵庫県","prefecture_kana":"ヒョウゴケン","city":"神戸市須磨区","city_kana":"コウベシスマク","town":"古川町","town_kana":"フルカワチョウ","prefecture_code":28},"0007":{"zip_code":"6540007","prefecture":"兵庫県","prefecture_kana":"ヒョウゴケン","city":"神戸市須磨区","city_kana":"コウベシスマク","town":"宝田町","town_kana":"ホウデンチョウ","prefecture_code":28},"0032":{"zip_code":"6540032","prefecture":"兵庫県","prefecture_kana":"ヒョウゴケン","city":"神戸市須磨区","city_kana":"コウベシスマク","town":"堀池町","town_kana":"ホリイケチョウ","prefecture_code":28},"0011":{"zip_code":"6540011","prefecture":"兵庫県","prefecture_kana":"ヒョウゴケン","city":"神戸市須磨区","city_kana":"コウベシスマク","town":"前池町","town_kana":"マエイケチョウ","prefecture_code":28},"0045":{"zip_code":"6540045","prefecture":"兵庫県","prefecture_kana":"ヒョウゴケン","city":"神戸市須磨区","city_kana":"コウベシスマク","town":"松風町","town_kana":"マツカゼチョウ","prefecture_code":28},"0062":{"zip_code":"6540062","prefecture":"兵庫県","prefecture_kana":"ヒョウゴケン","city":"神戸市須磨区","city_kana":"コウベシスマク","town":"水野町","town_kana":"ミズノチョウ","prefecture_code":28},"0113":{"zip_code":"6540113","prefecture":"兵庫県","prefecture_kana":"ヒョウゴケン","city":"神戸市須磨区","city_kana":"コウベシスマク","town":"緑が丘","town_kana":"ミドリガオカ","prefecture_code":28},"0163":{"zip_code":"6540163","prefecture":"兵庫県","prefecture_kana":"ヒョウゴケン","city":"神戸市須磨区","city_kana":"コウベシスマク","town":"緑台","town_kana":"ミドリダイ","prefecture_code":28},"0153":{"zip_code":"6540153","prefecture":"兵庫県","prefecture_kana":"ヒョウゴケン","city":"神戸市須磨区","city_kana":"コウベシスマク","town":"南落合","town_kana":"ミナミオチアイ","prefecture_code":28},"0036":{"zip_code":"6540036","prefecture":"兵庫県","prefecture_kana":"ヒョウゴケン","city":"神戸市須磨区","city_kana":"コウベシスマク","town":"南町","town_kana":"ミナミマチ","prefecture_code":28},"0052":{"zip_code":"6540052","prefecture":"兵庫県","prefecture_kana":"ヒョウゴケン","city":"神戸市須磨区","city_kana":"コウベシスマク","town":"行幸町","town_kana":"ミユキチョウ","prefecture_code":28},"0002":{"zip_code":"6540002","prefecture":"兵庫県","prefecture_kana":"ヒョウゴケン","city":"神戸市須磨区","city_kana":"コウベシスマク","town":"明神町","town_kana":"ミョウジンチョウ","prefecture_code":28},"0121":{"zip_code":"6540121","prefecture":"兵庫県","prefecture_kana":"ヒョウゴケン","city":"神戸市須磨区","city_kana":"コウベシスマク","town":"妙法寺","town_kana":"ミョウホウジ","prefecture_code":28},"0046":{"zip_code":"6540046","prefecture":"兵庫県","prefecture_kana":"ヒョウゴケン","city":"神戸市須磨区","city_kana":"コウベシスマク","town":"村雨町","town_kana":"ムラサメチョウ","prefecture_code":28},"0161":{"zip_code":"6540161","prefecture":"兵庫県","prefecture_kana":"ヒョウゴケン","city":"神戸市須磨区","city_kana":"コウベシスマク","town":"弥栄台","town_kana":"ヤサカダイ","prefecture_code":28},"0037":{"zip_code":"6540037","prefecture":"兵庫県","prefecture_kana":"ヒョウゴケン","city":"神戸市須磨区","city_kana":"コウベシスマク","town":"行平町","town_kana":"ユキヒラチョウ","prefecture_code":28},"0006":{"zip_code":"6540006","prefecture":"兵庫県","prefecture_kana":"ヒョウゴケン","city":"神戸市須磨区","city_kana":"コウベシスマク","town":"養老町","town_kana":"ヨウロウチョウ","prefecture_code":28},"0131":{"zip_code":"6540131","prefecture":"兵庫県","prefecture_kana":"ヒョウゴケン","city":"神戸市須磨区","city_kana":"コウベシスマク","town":"横尾","town_kana":"ヨコオ","prefecture_code":28},"0067":{"zip_code":"6540067","prefecture":"兵庫県","prefecture_kana":"ヒョウゴケン","city":"神戸市須磨区","city_kana":"コウベシスマク","town":"離宮西町","town_kana":"リキュウニシチョウ","prefecture_code":28},"0065":{"zip_code":"6540065","prefecture":"兵庫県","prefecture_kana":"ヒョウゴケン","city":"神戸市須磨区","city_kana":"コウベシスマク","town":"離宮前町","town_kana":"リキュウマエマチ","prefecture_code":28},"0141":{"zip_code":"6540141","prefecture":"兵庫県","prefecture_kana":"ヒョウゴケン","city":"神戸市須磨区","city_kana":"コウベシスマク","town":"竜が台","town_kana":"リュウガダイ","prefecture_code":28},"0014":{"zip_code":"6540014","prefecture":"兵庫県","prefecture_kana":"ヒョウゴケン","city":"神戸市須磨区","city_kana":"コウベシスマク","town":"若木町","town_kana":"ワカギチョウ","prefecture_code":28},"0112":{"zip_code":"6540112","prefecture":"兵庫県","prefecture_kana":"ヒョウゴケン","city":"神戸市須磨区","city_kana":"コウベシスマク","town":"若草町","town_kana":"ワカクサチョウ","prefecture_code":28},"0049":{"zip_code":"6540049","prefecture":"兵庫県","prefecture_kana":"ヒョウゴケン","city":"神戸市須磨区","city_kana":"コウベシスマク","town":"若宮町","town_kana":"ワカミヤチョウ","prefecture_code":28}}