{"0000":{"zip_code":"6550000","prefecture":"兵庫県","prefecture_kana":"ヒョウゴケン","city":"神戸市垂水区","city_kana":"コウベシタルミク","town":"","town_kana":"","prefecture_code":28},"0873":{"zip_code":"6550873","prefecture":"兵庫県","prefecture_kana":"ヒョウゴケン","city":"神戸市垂水区","city_kana":"コウベシタルミク","town":"青山台","town_kana":"アオヤマダイ","prefecture_code":28},"0862":{"zip_code":"6550862","prefecture":"兵庫県","prefecture_kana":"ヒョウゴケン","city":"神戸市垂水区","city_kana":"コウベシタルミク","town":"朝谷町","town_kana":"アサタニチョウ","prefecture_code":28},"0033":{"zip_code":"6550033","prefecture":"兵庫県","prefecture_kana":"ヒョウゴケン","city":"神戸市垂水区","city_kana":"コウベシタルミク","town":"旭が丘","town_kana":"アサヒガオカ","prefecture_code":28},"0885":{"zip_code":"6550885","prefecture":"兵庫県","prefecture_kana":"ヒョウゴケン","city":"神戸市垂水区","city_kana":"コウベシタルミク","town":"泉が丘","town_kana":"イズミガオカ","prefecture_code":28},"0037":{"zip_code":"6550037","prefecture":"兵庫県","prefecture_kana":"ヒョウゴケン","city":"神戸市垂水区","city_kana":"コウベシタルミク","town":"歌敷山","town_kana":"ウタシキヤマ","prefecture_code":28},"0883":{"zip_code":"6550883","prefecture":"兵庫県","prefecture_kana":"ヒョウゴケン","city":"神戸市垂水区","city_kana":"コウベシタルミク","town":"王居殿","town_kana":"オウイデン","prefecture_code":28},"0014":{"zip_code":"6550014","prefecture":"兵庫県","prefecture_kana":"ヒョウゴケン","city":"神戸市垂水区","city_kana":"コウベシタルミク","town":"大町","town_kana":"オオマチ","prefecture_code":28},"0882":{"zip_code":"6550882","prefecture":"兵庫県","prefecture_kana":"ヒョウゴケン","city":"神戸市垂水区","city_kana":"コウベシタルミク","town":"乙木","town_kana":"オトギ","prefecture_code":28},"0036":{"zip_code":"6550036","prefecture":"兵庫県","prefecture_kana":"ヒョウゴケン","city":"神戸市垂水区","city_kana":"コウベシタルミク","town":"海岸通","town_kana":"カイガンドオリ","prefecture_code":28},"0039":{"zip_code":"6550039","prefecture":"兵庫県","prefecture_kana":"ヒョウゴケン","city":"神戸市垂水区","city_kana":"コウベシタルミク","town":"霞ケ丘","town_kana":"カスミガオカ","prefecture_code":28},"0017":{"zip_code":"6550017","prefecture":"兵庫県","prefecture_kana":"ヒョウゴケン","city":"神戸市垂水区","city_kana":"コウベシタルミク","town":"上高丸","town_kana":"カミタカマル","prefecture_code":28},"0049":{"zip_code":"6550049","prefecture":"兵庫県","prefecture_kana":"ヒョウゴケン","city":"神戸市垂水区","city_kana":"コウベシタルミク","town":"狩口台","town_kana":"カリグチダイ","prefecture_code":28},"0894":{"zip_code":"6550894","prefecture":"兵庫県","prefecture_kana":"ヒョウゴケン","city":"神戸市垂水区","city_kana":"コウベシタルミク","town":"川原","town_kana":"カワハラ","prefecture_code":28},"0027":{"zip_code":"6550027","prefecture":"兵庫県","prefecture_kana":"ヒョウゴケン","city":"神戸市垂水区","city_kana":"コウベシタルミク","town":"神田町","town_kana":"カンダチョウ","prefecture_code":28},"0045":{"zip_code":"6550045","prefecture":"兵庫県","prefecture_kana":"ヒョウゴケン","city":"神戸市垂水区","city_kana":"コウベシタルミク","town":"北舞子","town_kana":"キタマイコ","prefecture_code":28},"0026":{"zip_code":"6550026","prefecture":"兵庫県","prefecture_kana":"ヒョウゴケン","city":"神戸市垂水区","city_kana":"コウベシタルミク","town":"陸ノ町","town_kana":"クガノチョウ","prefecture_code":28},"0012":{"zip_code":"6550012","prefecture":"兵庫県","prefecture_kana":"ヒョウゴケン","city":"神戸市垂水区","city_kana":"コウベシタルミク","town":"向陽","town_kana":"コウヨウ","prefecture_code":28},"0008":{"zip_code":"6550008","prefecture":"兵庫県","prefecture_kana":"ヒョウゴケン","city":"神戸市垂水区","city_kana":"コウベシタルミク","town":"小束台","town_kana":"コヅカダイ","prefecture_code":28},"0002":{"zip_code":"6550002","prefecture":"兵庫県","prefecture_kana":"ヒョウゴケン","city":"神戸市垂水区","city_kana":"コウベシタルミク","town":"小束山","town_kana":"コヅカヤマ","prefecture_code":28},"0009":{"zip_code":"6550009","prefecture":"兵庫県","prefecture_kana":"ヒョウゴケン","city":"神戸市垂水区","city_kana":"コウベシタルミク","town":"小束山手","town_kana":"コヅカヤマテ","prefecture_code":28},"0003":{"zip_code":"6550003","prefecture":"兵庫県","prefecture_kana":"ヒョウゴケン","city":"神戸市垂水区","city_kana":"コウベシタルミク","town":"小束山本町","town_kana":"コヅカヤマホンマチ","prefecture_code":28},"0035":{"zip_code":"6550035","prefecture":"兵庫県","prefecture_kana":"ヒョウゴケン","city":"神戸市垂水区","city_kana":"コウベシタルミク","town":"五色山","town_kana":"ゴシキヤマ","prefecture_code":28},"0024":{"zip_code":"6550024","prefecture":"兵庫県","prefecture_kana":"ヒョウゴケン","city":"神戸市垂水区","city_kana":"コウベシタルミク","town":"御霊町","town_kana":"ゴリョウチョウ","prefecture_code":28},"0895":{"zip_code":"6550895","prefecture":"兵庫県","prefecture_kana":"ヒョウゴケン","city":"神戸市垂水区","city_kana":"コウベシタルミク","town":"坂上","town_kana":"サカガミ","prefecture_code":28},"0005":{"zip_code":"6550005","prefecture":"兵庫県","prefecture_kana":"ヒョウゴケン","city":"神戸市垂水区","city_kana":"コウベシタルミク","town":"潮見が丘","town_kana":"シオミガオカ","prefecture_code":28},"0863":{"zip_code":"6550863","prefecture":"兵庫県","prefecture_kana":"ヒョウゴケン","city":"神戸市垂水区","city_kana":"コウベシタルミク","town":"塩屋北町","town_kana":"シオヤキタマチ","prefecture_code":28},"0864":{"zip_code":"6550864","prefecture":"兵庫県","prefecture_kana":"ヒョウゴケン","city":"神戸市垂水区","city_kana":"コウベシタルミク","town":"塩屋台","town_kana":"シオヤダイ","prefecture_code":28},"0872":{"zip_code":"6550872","prefecture":"兵庫県","prefecture_kana":"ヒョウゴケン","city":"神戸市垂水区","city_kana":"コウベシタルミク","town":"塩屋町","town_kana":"シオヤチョウ","prefecture_code":28},"0031":{"zip_code":"6550031","prefecture":"兵庫県","prefecture_kana":"ヒョウゴケン","city":"神戸市垂水区","city_kana":"コウベシタルミク","town":"清水が丘","town_kana":"シミズガオカ","prefecture_code":28},"0023":{"zip_code":"6550023","prefecture":"兵庫県","prefecture_kana":"ヒョウゴケン","city":"神戸市垂水区","city_kana":"コウベシタルミク","town":"清水通","town_kana":"シミズドオリ","prefecture_code":28},"0861":{"zip_code":"6550861","prefecture":"兵庫県","prefecture_kana":"ヒョウゴケン","city":"神戸市垂水区","city_kana":"コウベシタルミク","town":"下畑町","town_kana":"シモハタチョウ","prefecture_code":28},"0871":{"zip_code":"6550871","prefecture":"兵庫県","prefecture_kana":"ヒョウゴケン","city":"神戸市垂水区","city_kana":"コウベシタルミク","town":"松風台","town_kana":"ショウフウダイ","prefecture_code":28},"0884":{"zip_code":"6550884","prefecture":"兵庫県","prefecture_kana":"ヒョウゴケン","city":"神戸市垂水区","city_kana":"コウベシタルミク","town":"城が山","town_kana":"シロガヤマ","prefecture_code":28},"0041":{"zip_code":"6550041","prefecture":"兵庫県","prefecture_kana":"ヒョウゴケン","city":"神戸市垂水区","city_kana":"コウベシタルミク","town":"神陵台","town_kana":"シンリョウダイ","prefecture_code":28},"0851":{"zip_code":"6550851","prefecture":"兵庫県","prefecture_kana":"ヒョウゴケン","city":"神戸市垂水区","city_kana":"コウベシタルミク","town":"神和台","town_kana":"シンワダイ","prefecture_code":28},"0865":{"zip_code":"6550865","prefecture":"兵庫県","prefecture_kana":"ヒョウゴケン","city":"神戸市垂水区","city_kana":"コウベシタルミク","town":"清玄町","town_kana":"セイゲンチョウ","prefecture_code":28},"0038":{"zip_code":"6550038","prefecture":"兵庫県","prefecture_kana":"ヒョウゴケン","city":"神戸市垂水区","city_kana":"コウベシタルミク","town":"星陵台","town_kana":"セイリョウダイ","prefecture_code":28},"0016":{"zip_code":"6550016","prefecture":"兵庫県","prefecture_kana":"ヒョウゴケン","city":"神戸市垂水区","city_kana":"コウベシタルミク","town":"高丸","town_kana":"タカマル","prefecture_code":28},"0007":{"zip_code":"6550007","prefecture":"兵庫県","prefecture_kana":"ヒョウゴケン","city":"神戸市垂水区","city_kana":"コウベシタルミク","town":"多聞台","town_kana":"タモンダイ","prefecture_code":28},"0001":{"zip_code":"6550001","prefecture":"兵庫県","prefecture_kana":"ヒョウゴケン","city":"神戸市垂水区","city_kana":"コウベシタルミク","town":"多聞町","town_kana":"タモンチョウ","prefecture_code":28},"0011":{"zip_code":"6550011","prefecture":"兵庫県","prefecture_kana":"ヒョウゴケン","city":"神戸市垂水区","city_kana":"コウベシタルミク","town":"千鳥が丘","town_kana":"チドリガオカ","prefecture_code":28},"0018":{"zip_code":"6550018","prefecture":"兵庫県","prefecture_kana":"ヒョウゴケン","city":"神戸市垂水区","city_kana":"コウベシタルミク","town":"千代が丘","town_kana":"チヨガオカ","prefecture_code":28},"0853":{"zip_code":"6550853","prefecture":"兵庫県","prefecture_kana":"ヒョウゴケン","city":"神戸市垂水区","city_kana":"コウベシタルミク","town":"つつじが丘","town_kana":"ツツジガオカ","prefecture_code":28},"0029":{"zip_code":"6550029","prefecture":"兵庫県","prefecture_kana":"ヒョウゴケン","city":"神戸市垂水区","city_kana":"コウベシタルミク","town":"天ノ下町","town_kana":"テンノシタチョウ","prefecture_code":28},"0034":{"zip_code":"6550034","prefecture":"兵庫県","prefecture_kana":"ヒョウゴケン","city":"神戸市垂水区","city_kana":"コウベシタルミク","town":"仲田","town_kana":"ナカタ","prefecture_code":28},"0896":{"zip_code":"6550896","prefecture":"兵庫県","prefecture_kana":"ヒョウゴケン","city":"神戸市垂水区","city_kana":"コウベシタルミク","town":"中道","town_kana":"ナカミチ","prefecture_code":28},"0048":{"zip_code":"6550048","prefecture":"兵庫県","prefecture_kana":"ヒョウゴケン","city":"神戸市垂水区","city_kana":"コウベシタルミク","town":"西舞子","town_kana":"ニシマイコ","prefecture_code":28},"0042":{"zip_code":"6550042","prefecture":"兵庫県","prefecture_kana":"ヒョウゴケン","city":"神戸市垂水区","city_kana":"コウベシタルミク","town":"西脇","town_kana":"ニシワキ","prefecture_code":28},"0015":{"zip_code":"6550015","prefecture":"兵庫県","prefecture_kana":"ヒョウゴケン","city":"神戸市垂水区","city_kana":"コウベシタルミク","town":"野田通","town_kana":"ノダドオリ","prefecture_code":28},"0021":{"zip_code":"6550021","prefecture":"兵庫県","prefecture_kana":"ヒョウゴケン","city":"神戸市垂水区","city_kana":"コウベシタルミク","town":"馬場通","town_kana":"ババドオリ","prefecture_code":28},"0886":{"zip_code":"6550886","prefecture":"兵庫県","prefecture_kana":"ヒョウゴケン","city":"神戸市垂水区","city_kana":"コウベシタルミク","town":"東垂水","town_kana":"ヒガシタルミ","prefecture_code":28},"0881":{"zip_code":"6550881","prefecture":"兵庫県","prefecture_kana":"ヒョウゴケン","city":"神戸市垂水区","city_kana":"コウベシタルミク","town":"東垂水町","town_kana":"ヒガシタルミチョウ","prefecture_code":28},"0047":{"zip_code":"6550047","prefecture":"兵庫県","prefecture_kana":"ヒョウゴケン","city":"神戸市垂水区","city_kana":"コウベシタルミク","town":"東舞子町","town_kana":"ヒガシマイコチョウ","prefecture_code":28},"0893":{"zip_code":"6550893","prefecture":"兵庫県","prefecture_kana":"ヒョウゴケン","city":"神戸市垂水区","city_kana":"コウベシタルミク","town":"日向","town_kana":"ヒュウガ","prefecture_code":28},"0892":{"zip_code":"6550892","prefecture":"兵庫県","prefecture_kana":"ヒョウゴケン","city":"神戸市垂水区","city_kana":"コウベシタルミク","town":"平磯","town_kana":"ヒライソ","prefecture_code":28},"0013":{"zip_code":"6550013","prefecture":"兵庫県","prefecture_kana":"ヒョウゴケン","city":"神戸市垂水区","city_kana":"コウベシタルミク","town":"福田","town_kana":"フクダ","prefecture_code":28},"0032":{"zip_code":"6550032","prefecture":"兵庫県","prefecture_kana":"ヒョウゴケン","city":"神戸市垂水区","city_kana":"コウベシタルミク","town":"星が丘","town_kana":"ホシガオカ","prefecture_code":28},"0006":{"zip_code":"6550006","prefecture":"兵庫県","prefecture_kana":"ヒョウゴケン","city":"神戸市垂水区","city_kana":"コウベシタルミク","town":"本多聞","town_kana":"ホンタモン","prefecture_code":28},"0044":{"zip_code":"6550044","prefecture":"兵庫県","prefecture_kana":"ヒョウゴケン","city":"神戸市垂水区","city_kana":"コウベシタルミク","town":"舞子坂","town_kana":"マイコザカ","prefecture_code":28},"0046":{"zip_code":"6550046","prefecture":"兵庫県","prefecture_kana":"ヒョウゴケン","city":"神戸市垂水区","city_kana":"コウベシタルミク","town":"舞子台","town_kana":"マイコダイ","prefecture_code":28},"0051":{"zip_code":"6550051","prefecture":"兵庫県","prefecture_kana":"ヒョウゴケン","city":"神戸市垂水区","city_kana":"コウベシタルミク","town":"舞多聞西","town_kana":"マイタモンニシ","prefecture_code":28},"0052":{"zip_code":"6550052","prefecture":"兵庫県","prefecture_kana":"ヒョウゴケン","city":"神戸市垂水区","city_kana":"コウベシタルミク","town":"舞多聞東","town_kana":"マイタモンヒガシ","prefecture_code":28},"0004":{"zip_code":"6550004","prefecture":"兵庫県","prefecture_kana":"ヒョウゴケン","city":"神戸市垂水区","city_kana":"コウベシタルミク","town":"学が丘","town_kana":"マナビガオカ","prefecture_code":28},"0025":{"zip_code":"6550025","prefecture":"兵庫県","prefecture_kana":"ヒョウゴケン","city":"神戸市垂水区","city_kana":"コウベシタルミク","town":"瑞ケ丘","town_kana":"ミズガオカ","prefecture_code":28},"0022":{"zip_code":"6550022","prefecture":"兵庫県","prefecture_kana":"ヒョウゴケン","city":"神戸市垂水区","city_kana":"コウベシタルミク","town":"瑞穂通","town_kana":"ミズホドオリ","prefecture_code":28},"0043":{"zip_code":"6550043","prefecture":"兵庫県","prefecture_kana":"ヒョウゴケン","city":"神戸市垂水区","city_kana":"コウベシタルミク","town":"南多聞台","town_kana":"ミナミタモンダイ","prefecture_code":28},"0874":{"zip_code":"6550874","prefecture":"兵庫県","prefecture_kana":"ヒョウゴケン","city":"神戸市垂水区","city_kana":"コウベシタルミク","town":"美山台","town_kana":"ミヤマダイ","prefecture_code":28},"0028":{"zip_code":"6550028","prefecture":"兵庫県","prefecture_kana":"ヒョウゴケン","city":"神戸市垂水区","city_kana":"コウベシタルミク","town":"宮本町","town_kana":"ミヤモトチョウ","prefecture_code":28},"0852":{"zip_code":"6550852","prefecture":"兵庫県","prefecture_kana":"ヒョウゴケン","city":"神戸市垂水区","city_kana":"コウベシタルミク","town":"名谷町","town_kana":"ミョウダニチョウ","prefecture_code":28},"0854":{"zip_code":"6550854","prefecture":"兵庫県","prefecture_kana":"ヒョウゴケン","city":"神戸市垂水区","city_kana":"コウベシタルミク","town":"桃山台","town_kana":"モモヤマダイ","prefecture_code":28},"0891":{"zip_code":"6550891","prefecture":"兵庫県","prefecture_kana":"ヒョウゴケン","city":"神戸市垂水区","city_kana":"コウベシタルミク","town":"山手","town_kana":"ヤマテ","prefecture_code":28}}