{"0000":{"zip_code":"6560000","prefecture":"兵庫県","prefecture_kana":"ヒョウゴケン","city":"洲本市","city_kana":"スモトシ","town":"","town_kana":"","prefecture_code":28},"2531":{"zip_code":"6562531","prefecture":"兵庫県","prefecture_kana":"ヒョウゴケン","city":"洲本市","city_kana":"スモトシ","town":"相川組","town_kana":"アイカワグミ","prefecture_code":28},"2124":{"zip_code":"6562124","prefecture":"兵庫県","prefecture_kana":"ヒョウゴケン","city":"洲本市","city_kana":"スモトシ","town":"安乎町北谷","town_kana":"アイガチョウキタダニ","prefecture_code":28},"2122":{"zip_code":"6562122","prefecture":"兵庫県","prefecture_kana":"ヒョウゴケン","city":"洲本市","city_kana":"スモトシ","town":"安乎町中田","town_kana":"アイガチョウナカダ","prefecture_code":28},"2123":{"zip_code":"6562123","prefecture":"兵庫県","prefecture_kana":"ヒョウゴケン","city":"洲本市","city_kana":"スモトシ","town":"安乎町古宮","town_kana":"アイガチョウフルミヤ","prefecture_code":28},"2121":{"zip_code":"6562121","prefecture":"兵庫県","prefecture_kana":"ヒョウゴケン","city":"洲本市","city_kana":"スモトシ","town":"安乎町平安浦","town_kana":"アイガチョウヘイアンウラ","prefecture_code":28},"2126":{"zip_code":"6562126","prefecture":"兵庫県","prefecture_kana":"ヒョウゴケン","city":"洲本市","city_kana":"スモトシ","town":"安乎町宮野原","town_kana":"アイガチョウミヤノハラ","prefecture_code":28},"2125":{"zip_code":"6562125","prefecture":"兵庫県","prefecture_kana":"ヒョウゴケン","city":"洲本市","city_kana":"スモトシ","town":"安乎町山田原","town_kana":"アイガチョウヤマダハラ","prefecture_code":28},"0111":{"zip_code":"6560111","prefecture":"兵庫県","prefecture_kana":"ヒョウゴケン","city":"洲本市","city_kana":"スモトシ","town":"鮎屋","town_kana":"アイヤ","prefecture_code":28},"0043":{"zip_code":"6560043","prefecture":"兵庫県","prefecture_kana":"ヒョウゴケン","city":"洲本市","city_kana":"スモトシ","town":"池田","town_kana":"イケダ","prefecture_code":28},"0042":{"zip_code":"6560042","prefecture":"兵庫県","prefecture_kana":"ヒョウゴケン","city":"洲本市","city_kana":"スモトシ","town":"池内","town_kana":"イケノウチ","prefecture_code":28},"0054":{"zip_code":"6560054","prefecture":"兵庫県","prefecture_kana":"ヒョウゴケン","city":"洲本市","city_kana":"スモトシ","town":"宇原","town_kana":"ウハラ","prefecture_code":28},"0012":{"zip_code":"6560012","prefecture":"兵庫県","prefecture_kana":"ヒョウゴケン","city":"洲本市","city_kana":"スモトシ","town":"宇山","town_kana":"ウヤマ","prefecture_code":28},"0055":{"zip_code":"6560055","prefecture":"兵庫県","prefecture_kana":"ヒョウゴケン","city":"洲本市","city_kana":"スモトシ","town":"大野","town_kana":"オオノ","prefecture_code":28},"0018":{"zip_code":"6560018","prefecture":"兵庫県","prefecture_kana":"ヒョウゴケン","city":"洲本市","city_kana":"スモトシ","town":"奥畑","town_kana":"オクハタ","prefecture_code":28},"0101":{"zip_code":"6560101","prefecture":"兵庫県","prefecture_kana":"ヒョウゴケン","city":"洲本市","city_kana":"スモトシ","town":"納","town_kana":"オサメ","prefecture_code":28},"0023":{"zip_code":"6560023","prefecture":"兵庫県","prefecture_kana":"ヒョウゴケン","city":"洲本市","city_kana":"スモトシ","town":"小路谷","town_kana":"オロダニ","prefecture_code":28},"0022":{"zip_code":"6560022","prefecture":"兵庫県","prefecture_kana":"ヒョウゴケン","city":"洲本市","city_kana":"スモトシ","town":"海岸通","town_kana":"カイガンドオリ","prefecture_code":28},"0046":{"zip_code":"6560046","prefecture":"兵庫県","prefecture_kana":"ヒョウゴケン","city":"洲本市","city_kana":"スモトシ","town":"金屋","town_kana":"カナヤ","prefecture_code":28},"0015":{"zip_code":"6560015","prefecture":"兵庫県","prefecture_kana":"ヒョウゴケン","city":"洲本市","city_kana":"スモトシ","town":"上加茂","town_kana":"カミガモ","prefecture_code":28},"0017":{"zip_code":"6560017","prefecture":"兵庫県","prefecture_kana":"ヒョウゴケン","city":"洲本市","city_kana":"スモトシ","town":"上内膳","town_kana":"カミナイゼン","prefecture_code":28},"0053":{"zip_code":"6560053","prefecture":"兵庫県","prefecture_kana":"ヒョウゴケン","city":"洲本市","city_kana":"スモトシ","town":"上物部","town_kana":"カミモノベ","prefecture_code":28},"0045":{"zip_code":"6560045","prefecture":"兵庫県","prefecture_kana":"ヒョウゴケン","city":"洲本市","city_kana":"スモトシ","town":"木戸","town_kana":"キド","prefecture_code":28},"0014":{"zip_code":"6560014","prefecture":"兵庫県","prefecture_kana":"ヒョウゴケン","city":"洲本市","city_kana":"スモトシ","town":"桑間","town_kana":"クワマ","prefecture_code":28},"1314":{"zip_code":"6561314","prefecture":"兵庫県","prefecture_kana":"ヒョウゴケン","city":"洲本市","city_kana":"スモトシ","town":"五色町鮎原鮎の郷","town_kana":"ゴシキチョウアイハラアユノサト","prefecture_code":28},"1315":{"zip_code":"6561315","prefecture":"兵庫県","prefecture_kana":"ヒョウゴケン","city":"洲本市","city_kana":"スモトシ","town":"五色町鮎原宇谷","town_kana":"ゴシキチョウアイハラウダニ","prefecture_code":28},"1322":{"zip_code":"6561322","prefecture":"兵庫県","prefecture_kana":"ヒョウゴケン","city":"洲本市","city_kana":"スモトシ","town":"五色町鮎原上","town_kana":"ゴシキチョウアイハラカミ","prefecture_code":28},"1316":{"zip_code":"6561316","prefecture":"兵庫県","prefecture_kana":"ヒョウゴケン","city":"洲本市","city_kana":"スモトシ","town":"五色町鮎原栢野","town_kana":"ゴシキチョウアイハラカヤノ","prefecture_code":28},"1317":{"zip_code":"6561317","prefecture":"兵庫県","prefecture_kana":"ヒョウゴケン","city":"洲本市","city_kana":"スモトシ","town":"五色町鮎原小山田","town_kana":"ゴシキチョウアイハラコヤマダ","prefecture_code":28},"1326":{"zip_code":"6561326","prefecture":"兵庫県","prefecture_kana":"ヒョウゴケン","city":"洲本市","city_kana":"スモトシ","town":"五色町鮎原下","town_kana":"ゴシキチョウアイハラシモ","prefecture_code":28},"1318":{"zip_code":"6561318","prefecture":"兵庫県","prefecture_kana":"ヒョウゴケン","city":"洲本市","city_kana":"スモトシ","town":"五色町鮎原神陽","town_kana":"ゴシキチョウアイハラシンヨウ","prefecture_code":28},"1327":{"zip_code":"6561327","prefecture":"兵庫県","prefecture_kana":"ヒョウゴケン","city":"洲本市","city_kana":"スモトシ","town":"五色町鮎原田処","town_kana":"ゴシキチョウアイハラタドコロ","prefecture_code":28},"1311":{"zip_code":"6561311","prefecture":"兵庫県","prefecture_kana":"ヒョウゴケン","city":"洲本市","city_kana":"スモトシ","town":"五色町鮎原葛尾","town_kana":"ゴシキチョウアイハラツヅラオ","prefecture_code":28},"1323":{"zip_code":"6561323","prefecture":"兵庫県","prefecture_kana":"ヒョウゴケン","city":"洲本市","city_kana":"スモトシ","town":"五色町鮎原塔下","town_kana":"ゴシキチョウアイハラトウゲ","prefecture_code":28},"1321":{"zip_code":"6561321","prefecture":"兵庫県","prefecture_kana":"ヒョウゴケン","city":"洲本市","city_kana":"スモトシ","town":"五色町鮎原中邑","town_kana":"ゴシキチョウアイハラナカムラ","prefecture_code":28},"1313":{"zip_code":"6561313","prefecture":"兵庫県","prefecture_kana":"ヒョウゴケン","city":"洲本市","city_kana":"スモトシ","town":"五色町鮎原西","town_kana":"ゴシキチョウアイハラニシ","prefecture_code":28},"1325":{"zip_code":"6561325","prefecture":"兵庫県","prefecture_kana":"ヒョウゴケン","city":"洲本市","city_kana":"スモトシ","town":"五色町鮎原南谷","town_kana":"ゴシキチョウアイハラミナミダニ","prefecture_code":28},"1324":{"zip_code":"6561324","prefecture":"兵庫県","prefecture_kana":"ヒョウゴケン","city":"洲本市","city_kana":"スモトシ","town":"五色町鮎原三野畑","town_kana":"ゴシキチョウアイハラミノハタ","prefecture_code":28},"1312":{"zip_code":"6561312","prefecture":"兵庫県","prefecture_kana":"ヒョウゴケン","city":"洲本市","city_kana":"スモトシ","town":"五色町鮎原吉田","town_kana":"ゴシキチョウアイハラヨシダ","prefecture_code":28},"1336":{"zip_code":"6561336","prefecture":"兵庫県","prefecture_kana":"ヒョウゴケン","city":"洲本市","city_kana":"スモトシ","town":"五色町上堺","town_kana":"ゴシキチョウカミサカイ","prefecture_code":28},"1337":{"zip_code":"6561337","prefecture":"兵庫県","prefecture_kana":"ヒョウゴケン","city":"洲本市","city_kana":"スモトシ","town":"五色町下堺","town_kana":"ゴシキチョウシモサカイ","prefecture_code":28},"1301":{"zip_code":"6561301","prefecture":"兵庫県","prefecture_kana":"ヒョウゴケン","city":"洲本市","city_kana":"スモトシ","town":"五色町都志","town_kana":"ゴシキチョウツシ","prefecture_code":28},"1303":{"zip_code":"6561303","prefecture":"兵庫県","prefecture_kana":"ヒョウゴケン","city":"洲本市","city_kana":"スモトシ","town":"五色町都志大宮","town_kana":"ゴシキチョウツシオオミヤ","prefecture_code":28},"1302":{"zip_code":"6561302","prefecture":"兵庫県","prefecture_kana":"ヒョウゴケン","city":"洲本市","city_kana":"スモトシ","town":"五色町都志米山","town_kana":"ゴシキチョウツシコメヤマ","prefecture_code":28},"1331":{"zip_code":"6561331","prefecture":"兵庫県","prefecture_kana":"ヒョウゴケン","city":"洲本市","city_kana":"スモトシ","town":"五色町都志大日","town_kana":"ゴシキチョウツシダイニチ","prefecture_code":28},"1341":{"zip_code":"6561341","prefecture":"兵庫県","prefecture_kana":"ヒョウゴケン","city":"洲本市","city_kana":"スモトシ","town":"五色町都志角川","town_kana":"ゴシキチョウツシツノカワ","prefecture_code":28},"1304":{"zip_code":"6561304","prefecture":"兵庫県","prefecture_kana":"ヒョウゴケン","city":"洲本市","city_kana":"スモトシ","town":"五色町都志万歳","town_kana":"ゴシキチョウツシマンザイ","prefecture_code":28},"1344":{"zip_code":"6561344","prefecture":"兵庫県","prefecture_kana":"ヒョウゴケン","city":"洲本市","city_kana":"スモトシ","town":"五色町鳥飼浦","town_kana":"ゴシキチョウトリカイウラ","prefecture_code":28},"1342":{"zip_code":"6561342","prefecture":"兵庫県","prefecture_kana":"ヒョウゴケン","city":"洲本市","city_kana":"スモトシ","town":"五色町鳥飼上","town_kana":"ゴシキチョウトリカイカミ","prefecture_code":28},"1343":{"zip_code":"6561343","prefecture":"兵庫県","prefecture_kana":"ヒョウゴケン","city":"洲本市","city_kana":"スモトシ","town":"五色町鳥飼中","town_kana":"ゴシキチョウトリカイナカ","prefecture_code":28},"1333":{"zip_code":"6561333","prefecture":"兵庫県","prefecture_kana":"ヒョウゴケン","city":"洲本市","city_kana":"スモトシ","town":"五色町広石上","town_kana":"ゴシキチョウヒロイシカミ","prefecture_code":28},"1332":{"zip_code":"6561332","prefecture":"兵庫県","prefecture_kana":"ヒョウゴケン","city":"洲本市","city_kana":"スモトシ","town":"五色町広石北","town_kana":"ゴシキチョウヒロイシキタ","prefecture_code":28},"1335":{"zip_code":"6561335","prefecture":"兵庫県","prefecture_kana":"ヒョウゴケン","city":"洲本市","city_kana":"スモトシ","town":"五色町広石下","town_kana":"ゴシキチョウヒロイシシモ","prefecture_code":28},"1334":{"zip_code":"6561334","prefecture":"兵庫県","prefecture_kana":"ヒョウゴケン","city":"洲本市","city_kana":"スモトシ","town":"五色町広石中","town_kana":"ゴシキチョウヒロイシナカ","prefecture_code":28},"0026":{"zip_code":"6560026","prefecture":"兵庫県","prefecture_kana":"ヒョウゴケン","city":"洲本市","city_kana":"スモトシ","town":"栄町","town_kana":"サカエマチ","prefecture_code":28},"0021":{"zip_code":"6560021","prefecture":"兵庫県","prefecture_kana":"ヒョウゴケン","city":"洲本市","city_kana":"スモトシ","town":"塩屋","town_kana":"シオヤ","prefecture_code":28},"0013":{"zip_code":"6560013","prefecture":"兵庫県","prefecture_kana":"ヒョウゴケン","city":"洲本市","city_kana":"スモトシ","town":"下加茂","town_kana":"シモガモ","prefecture_code":28},"0016":{"zip_code":"6560016","prefecture":"兵庫県","prefecture_kana":"ヒョウゴケン","city":"洲本市","city_kana":"スモトシ","town":"下内膳","town_kana":"シモナイゼン","prefecture_code":28},"0041":{"zip_code":"6560041","prefecture":"兵庫県","prefecture_kana":"ヒョウゴケン","city":"洲本市","city_kana":"スモトシ","town":"新村","town_kana":"シンムラ","prefecture_code":28},"0011":{"zip_code":"6560011","prefecture":"兵庫県","prefecture_kana":"ヒョウゴケン","city":"洲本市","city_kana":"スモトシ","town":"炬口","town_kana":"タケノクチ","prefecture_code":28},"0031":{"zip_code":"6560031","prefecture":"兵庫県","prefecture_kana":"ヒョウゴケン","city":"洲本市","city_kana":"スモトシ","town":"千草","town_kana":"チクサ","prefecture_code":28},"0052":{"zip_code":"6560052","prefecture":"兵庫県","prefecture_kana":"ヒョウゴケン","city":"洲本市","city_kana":"スモトシ","town":"津田","town_kana":"ツダ","prefecture_code":28},"0001":{"zip_code":"6560001","prefecture":"兵庫県","prefecture_kana":"ヒョウゴケン","city":"洲本市","city_kana":"スモトシ","town":"中川原町厚浜","town_kana":"ナカガワラチョウアツハマ","prefecture_code":28},"0005":{"zip_code":"6560005","prefecture":"兵庫県","prefecture_kana":"ヒョウゴケン","city":"洲本市","city_kana":"スモトシ","town":"中川原町市原","town_kana":"ナカガワラチョウイチバラ","prefecture_code":28},"0002":{"zip_code":"6560002","prefecture":"兵庫県","prefecture_kana":"ヒョウゴケン","city":"洲本市","city_kana":"スモトシ","town":"中川原町中川原","town_kana":"ナカガワラチョウナカガワラ","prefecture_code":28},"0006":{"zip_code":"6560006","prefecture":"兵庫県","prefecture_kana":"ヒョウゴケン","city":"洲本市","city_kana":"スモトシ","town":"中川原町二ツ石","town_kana":"ナカガワラチョウフタツイシ","prefecture_code":28},"0003":{"zip_code":"6560003","prefecture":"兵庫県","prefecture_kana":"ヒョウゴケン","city":"洲本市","city_kana":"スモトシ","town":"中川原町三木田","town_kana":"ナカガワラチョウミキダ","prefecture_code":28},"0004":{"zip_code":"6560004","prefecture":"兵庫県","prefecture_kana":"ヒョウゴケン","city":"洲本市","city_kana":"スモトシ","town":"中川原町安坂","town_kana":"ナカガワラチョウヤスサカ","prefecture_code":28},"2532":{"zip_code":"6562532","prefecture":"兵庫県","prefecture_kana":"ヒョウゴケン","city":"洲本市","city_kana":"スモトシ","town":"中津川組","town_kana":"ナカツガワグミ","prefecture_code":28},"2533":{"zip_code":"6562533","prefecture":"兵庫県","prefecture_kana":"ヒョウゴケン","city":"洲本市","city_kana":"スモトシ","town":"畑田組","town_kana":"ハタダグミ","prefecture_code":28},"0025":{"zip_code":"6560025","prefecture":"兵庫県","prefecture_kana":"ヒョウゴケン","city":"洲本市","city_kana":"スモトシ","town":"本町","town_kana":"ホンマチ","prefecture_code":28},"0044":{"zip_code":"6560044","prefecture":"兵庫県","prefecture_kana":"ヒョウゴケン","city":"洲本市","city_kana":"スモトシ","town":"前平","town_kana":"マエヒラ","prefecture_code":28},"0027":{"zip_code":"6560027","prefecture":"兵庫県","prefecture_kana":"ヒョウゴケン","city":"洲本市","city_kana":"スモトシ","town":"港","town_kana":"ミナト","prefecture_code":28},"0051":{"zip_code":"6560051","prefecture":"兵庫県","prefecture_kana":"ヒョウゴケン","city":"洲本市","city_kana":"スモトシ","town":"物部","town_kana":"モノベ","prefecture_code":28},"0024":{"zip_code":"6560024","prefecture":"兵庫県","prefecture_kana":"ヒョウゴケン","city":"洲本市","city_kana":"スモトシ","town":"山手","town_kana":"ヤマテ","prefecture_code":28},"2541":{"zip_code":"6562541","prefecture":"兵庫県","prefecture_kana":"ヒョウゴケン","city":"洲本市","city_kana":"スモトシ","town":"由良","town_kana":"ユラ","prefecture_code":28},"2542":{"zip_code":"6562542","prefecture":"兵庫県","prefecture_kana":"ヒョウゴケン","city":"洲本市","city_kana":"スモトシ","town":"由良町内田","town_kana":"ユラチョウウチダ","prefecture_code":28},"2543":{"zip_code":"6562543","prefecture":"兵庫県","prefecture_kana":"ヒョウゴケン","city":"洲本市","city_kana":"スモトシ","town":"由良町由良","town_kana":"ユラチョウユラ","prefecture_code":28},"0400":{"zip_code":"6560400","prefecture":"兵庫県","prefecture_kana":"ヒョウゴケン","city":"南あわじ市","city_kana":"ミナミアワジシ","town":"","town_kana":"","prefecture_code":28},"0661":{"zip_code":"6560661","prefecture":"兵庫県","prefecture_kana":"ヒョウゴケン","city":"南あわじ市","city_kana":"ミナミアワジシ","town":"阿那賀","town_kana":"アナガ","prefecture_code":28},"0662":{"zip_code":"6560662","prefecture":"兵庫県","prefecture_kana":"ヒョウゴケン","city":"南あわじ市","city_kana":"ミナミアワジシ","town":"阿那賀志知川","town_kana":"アナガシチガワ","prefecture_code":28},"0663":{"zip_code":"6560663","prefecture":"兵庫県","prefecture_kana":"ヒョウゴケン","city":"南あわじ市","city_kana":"ミナミアワジシ","town":"阿那賀西路","town_kana":"アナガニシジ","prefecture_code":28},"0541":{"zip_code":"6560541","prefecture":"兵庫県","prefecture_kana":"ヒョウゴケン","city":"南あわじ市","city_kana":"ミナミアワジシ","town":"阿万上町","town_kana":"アマカミマチ","prefecture_code":28},"0543":{"zip_code":"6560543","prefecture":"兵庫県","prefecture_kana":"ヒョウゴケン","city":"南あわじ市","city_kana":"ミナミアワジシ","town":"阿万塩屋町","town_kana":"アマシオヤマチ","prefecture_code":28},"0544":{"zip_code":"6560544","prefecture":"兵庫県","prefecture_kana":"ヒョウゴケン","city":"南あわじ市","city_kana":"ミナミアワジシ","town":"阿万下町","town_kana":"アマシモマチ","prefecture_code":28},"0545":{"zip_code":"6560545","prefecture":"兵庫県","prefecture_kana":"ヒョウゴケン","city":"南あわじ市","city_kana":"ミナミアワジシ","town":"阿万西町","town_kana":"アマニシマチ","prefecture_code":28},"0546":{"zip_code":"6560546","prefecture":"兵庫県","prefecture_kana":"ヒョウゴケン","city":"南あわじ市","city_kana":"ミナミアワジシ","town":"阿万東町","town_kana":"アマヒガシマチ","prefecture_code":28},"0542":{"zip_code":"6560542","prefecture":"兵庫県","prefecture_kana":"ヒョウゴケン","city":"南あわじ市","city_kana":"ミナミアワジシ","town":"阿万吹上町","town_kana":"アマフキアゲマチ","prefecture_code":28},"0651":{"zip_code":"6560651","prefecture":"兵庫県","prefecture_kana":"ヒョウゴケン","city":"南あわじ市","city_kana":"ミナミアワジシ","town":"伊加利","town_kana":"イカリ","prefecture_code":28},"0462":{"zip_code":"6560462","prefecture":"兵庫県","prefecture_kana":"ヒョウゴケン","city":"南あわじ市","city_kana":"ミナミアワジシ","town":"市青木","town_kana":"イチアオキ","prefecture_code":28},"0474":{"zip_code":"6560474","prefecture":"兵庫県","prefecture_kana":"ヒョウゴケン","city":"南あわじ市","city_kana":"ミナミアワジシ","town":"市市","town_kana":"イチイチ","prefecture_code":28},"0461":{"zip_code":"6560461","prefecture":"兵庫県","prefecture_kana":"ヒョウゴケン","city":"南あわじ市","city_kana":"ミナミアワジシ","town":"市円行寺","town_kana":"イチエンギョウジ","prefecture_code":28},"0473":{"zip_code":"6560473","prefecture":"兵庫県","prefecture_kana":"ヒョウゴケン","city":"南あわじ市","city_kana":"ミナミアワジシ","town":"市小井","town_kana":"イチオイ","prefecture_code":28},"0475":{"zip_code":"6560475","prefecture":"兵庫県","prefecture_kana":"ヒョウゴケン","city":"南あわじ市","city_kana":"ミナミアワジシ","town":"市三條","town_kana":"イチサンジョウ","prefecture_code":28},"0471":{"zip_code":"6560471","prefecture":"兵庫県","prefecture_kana":"ヒョウゴケン","city":"南あわじ市","city_kana":"ミナミアワジシ","town":"市十一ケ所","town_kana":"イチジュウイッカショ","prefecture_code":28},"0476":{"zip_code":"6560476","prefecture":"兵庫県","prefecture_kana":"ヒョウゴケン","city":"南あわじ市","city_kana":"ミナミアワジシ","town":"市新","town_kana":"イチシン","prefecture_code":28},"0472":{"zip_code":"6560472","prefecture":"兵庫県","prefecture_kana":"ヒョウゴケン","city":"南あわじ市","city_kana":"ミナミアワジシ","town":"市善光寺","town_kana":"イチゼンコウジ","prefecture_code":28},"0477":{"zip_code":"6560477","prefecture":"兵庫県","prefecture_kana":"ヒョウゴケン","city":"南あわじ市","city_kana":"ミナミアワジシ","town":"市徳長","town_kana":"イチトクナガ","prefecture_code":28},"0478":{"zip_code":"6560478","prefecture":"兵庫県","prefecture_kana":"ヒョウゴケン","city":"南あわじ市","city_kana":"ミナミアワジシ","town":"市福永","town_kana":"イチフクナガ","prefecture_code":28},"0426":{"zip_code":"6560426","prefecture":"兵庫県","prefecture_kana":"ヒョウゴケン","city":"南あわじ市","city_kana":"ミナミアワジシ","town":"榎列大榎列","town_kana":"エナミオオエナミ","prefecture_code":28},"0422":{"zip_code":"6560422","prefecture":"兵庫県","prefecture_kana":"ヒョウゴケン","city":"南あわじ市","city_kana":"ミナミアワジシ","town":"榎列上幡多","town_kana":"エナミカミハダ","prefecture_code":28},"0428":{"zip_code":"6560428","prefecture":"兵庫県","prefecture_kana":"ヒョウゴケン","city":"南あわじ市","city_kana":"ミナミアワジシ","town":"榎列掃守","town_kana":"エナミカモリ","prefecture_code":28},"0425":{"zip_code":"6560425","prefecture":"兵庫県","prefecture_kana":"ヒョウゴケン","city":"南あわじ市","city_kana":"ミナミアワジシ","town":"榎列小榎列","town_kana":"エナミコエナミ","prefecture_code":28},"0423":{"zip_code":"6560423","prefecture":"兵庫県","prefecture_kana":"ヒョウゴケン","city":"南あわじ市","city_kana":"ミナミアワジシ","town":"榎列下幡多","town_kana":"エナミシモハダ","prefecture_code":28},"0424":{"zip_code":"6560424","prefecture":"兵庫県","prefecture_kana":"ヒョウゴケン","city":"南あわじ市","city_kana":"ミナミアワジシ","town":"榎列西川","town_kana":"エナミニシガワ","prefecture_code":28},"0427":{"zip_code":"6560427","prefecture":"兵庫県","prefecture_kana":"ヒョウゴケン","city":"南あわじ市","city_kana":"ミナミアワジシ","town":"榎列松田","town_kana":"エナミマツダ","prefecture_code":28},"0421":{"zip_code":"6560421","prefecture":"兵庫県","prefecture_kana":"ヒョウゴケン","city":"南あわじ市","city_kana":"ミナミアワジシ","town":"榎列山所","town_kana":"エナミヤマジョ","prefecture_code":28},"0518":{"zip_code":"6560518","prefecture":"兵庫県","prefecture_kana":"ヒョウゴケン","city":"南あわじ市","city_kana":"ミナミアワジシ","town":"賀集牛内","town_kana":"カシュウウシウチ","prefecture_code":28},"0517":[{"zip_code":"6560517","prefecture":"兵庫県","prefecture_kana":"ヒョウゴケン","city":"南あわじ市","city_kana":"ミナミアワジシ","town":"賀集内ケ原","town_kana":"カシュウウチガハラ","prefecture_code":28},{"zip_code":"6560517","prefecture":"兵庫県","prefecture_kana":"ヒョウゴケン","city":"南あわじ市","city_kana":"ミナミアワジシ","town":"賀集生子","town_kana":"カシュウセイゴ","prefecture_code":28},{"zip_code":"6560517","prefecture":"兵庫県","prefecture_kana":"ヒョウゴケン","city":"南あわじ市","city_kana":"ミナミアワジシ","town":"賀集長原","town_kana":"カシュウナガハラ","prefecture_code":28}],"0515":{"zip_code":"6560515","prefecture":"兵庫県","prefecture_kana":"ヒョウゴケン","city":"南あわじ市","city_kana":"ミナミアワジシ","town":"賀集鍛治屋","town_kana":"カシュウカジヤ","prefecture_code":28},"0512":{"zip_code":"6560512","prefecture":"兵庫県","prefecture_kana":"ヒョウゴケン","city":"南あわじ市","city_kana":"ミナミアワジシ","town":"賀集立川瀬","town_kana":"カシュウタテガワセ","prefecture_code":28},"0513":{"zip_code":"6560513","prefecture":"兵庫県","prefecture_kana":"ヒョウゴケン","city":"南あわじ市","city_kana":"ミナミアワジシ","town":"賀集野田","town_kana":"カシュウノタ","prefecture_code":28},"0516":{"zip_code":"6560516","prefecture":"兵庫県","prefecture_kana":"ヒョウゴケン","city":"南あわじ市","city_kana":"ミナミアワジシ","town":"賀集福井","town_kana":"カシュウフクイ","prefecture_code":28},"0511":{"zip_code":"6560511","prefecture":"兵庫県","prefecture_kana":"ヒョウゴケン","city":"南あわじ市","city_kana":"ミナミアワジシ","town":"賀集八幡","town_kana":"カシュウヤハタ","prefecture_code":28},"0514":{"zip_code":"6560514","prefecture":"兵庫県","prefecture_kana":"ヒョウゴケン","city":"南あわじ市","city_kana":"ミナミアワジシ","town":"賀集","town_kana":"カシュウ","prefecture_code":28},"0531":{"zip_code":"6560531","prefecture":"兵庫県","prefecture_kana":"ヒョウゴケン","city":"南あわじ市","city_kana":"ミナミアワジシ","town":"北阿万伊賀野","town_kana":"キタアマイガノ","prefecture_code":28},"0532":{"zip_code":"6560532","prefecture":"兵庫県","prefecture_kana":"ヒョウゴケン","city":"南あわじ市","city_kana":"ミナミアワジシ","town":"北阿万稲田南","town_kana":"キタアマイナダミナミ","prefecture_code":28},"0533":[{"zip_code":"6560533","prefecture":"兵庫県","prefecture_kana":"ヒョウゴケン","city":"南あわじ市","city_kana":"ミナミアワジシ","town":"北阿万新田北","town_kana":"キタアマシンデンキタ","prefecture_code":28},{"zip_code":"6560533","prefecture":"兵庫県","prefecture_kana":"ヒョウゴケン","city":"南あわじ市","city_kana":"ミナミアワジシ","town":"北阿万新田中","town_kana":"キタアマシンデンナカ","prefecture_code":28}],"0534":{"zip_code":"6560534","prefecture":"兵庫県","prefecture_kana":"ヒョウゴケン","city":"南あわじ市","city_kana":"ミナミアワジシ","town":"北阿万筒井","town_kana":"キタアマツツイ","prefecture_code":28},"0521":{"zip_code":"6560521","prefecture":"兵庫県","prefecture_kana":"ヒョウゴケン","city":"南あわじ市","city_kana":"ミナミアワジシ","town":"潮美台","town_kana":"シオミダイ","prefecture_code":28},"0321":{"zip_code":"6560321","prefecture":"兵庫県","prefecture_kana":"ヒョウゴケン","city":"南あわじ市","city_kana":"ミナミアワジシ","town":"志知","town_kana":"シチ","prefecture_code":28},"0325":{"zip_code":"6560325","prefecture":"兵庫県","prefecture_kana":"ヒョウゴケン","city":"南あわじ市","city_kana":"ミナミアワジシ","town":"志知奥","town_kana":"シチオク","prefecture_code":28},"0327":{"zip_code":"6560327","prefecture":"兵庫県","prefecture_kana":"ヒョウゴケン","city":"南あわじ市","city_kana":"ミナミアワジシ","town":"志知北","town_kana":"シチキタ","prefecture_code":28},"0324":{"zip_code":"6560324","prefecture":"兵庫県","prefecture_kana":"ヒョウゴケン","city":"南あわじ市","city_kana":"ミナミアワジシ","town":"志知口","town_kana":"シチクチ","prefecture_code":28},"0484":{"zip_code":"6560484","prefecture":"兵庫県","prefecture_kana":"ヒョウゴケン","city":"南あわじ市","city_kana":"ミナミアワジシ","town":"志知佐礼尾","town_kana":"シチサレオ","prefecture_code":28},"0322":{"zip_code":"6560322","prefecture":"兵庫県","prefecture_kana":"ヒョウゴケン","city":"南あわじ市","city_kana":"ミナミアワジシ","town":"志知鈩","town_kana":"シチタタラ","prefecture_code":28},"0483":{"zip_code":"6560483","prefecture":"兵庫県","prefecture_kana":"ヒョウゴケン","city":"南あわじ市","city_kana":"ミナミアワジシ","town":"志知中島","town_kana":"シチナカシマ","prefecture_code":28},"0482":{"zip_code":"6560482","prefecture":"兵庫県","prefecture_kana":"ヒョウゴケン","city":"南あわじ市","city_kana":"ミナミアワジシ","town":"志知難波","town_kana":"シチナンバ","prefecture_code":28},"0323":{"zip_code":"6560323","prefecture":"兵庫県","prefecture_kana":"ヒョウゴケン","city":"南あわじ市","city_kana":"ミナミアワジシ","town":"志知飯山寺","town_kana":"シチハンサンジ","prefecture_code":28},"0481":{"zip_code":"6560481","prefecture":"兵庫県","prefecture_kana":"ヒョウゴケン","city":"南あわじ市","city_kana":"ミナミアワジシ","town":"志知松本","town_kana":"シチマツモト","prefecture_code":28},"0326":{"zip_code":"6560326","prefecture":"兵庫県","prefecture_kana":"ヒョウゴケン","city":"南あわじ市","city_kana":"ミナミアワジシ","town":"志知南","town_kana":"シチミナミ","prefecture_code":28},"0151":{"zip_code":"6560151","prefecture":"兵庫県","prefecture_kana":"ヒョウゴケン","city":"南あわじ市","city_kana":"ミナミアワジシ","town":"倭文安住寺","town_kana":"シトオリアンジュウジ","prefecture_code":28},"0412":{"zip_code":"6560412","prefecture":"兵庫県","prefecture_kana":"ヒョウゴケン","city":"南あわじ市","city_kana":"ミナミアワジシ","town":"倭文委文","town_kana":"シトオリイブン","prefecture_code":28},"0411":{"zip_code":"6560411","prefecture":"兵庫県","prefecture_kana":"ヒョウゴケン","city":"南あわじ市","city_kana":"ミナミアワジシ","town":"倭文高","town_kana":"シトオリコウ","prefecture_code":28},"0153":{"zip_code":"6560153","prefecture":"兵庫県","prefecture_kana":"ヒョウゴケン","city":"南あわじ市","city_kana":"ミナミアワジシ","town":"倭文庄田","town_kana":"シトオリショウダ","prefecture_code":28},"0154":{"zip_code":"6560154","prefecture":"兵庫県","prefecture_kana":"ヒョウゴケン","city":"南あわじ市","city_kana":"ミナミアワジシ","town":"倭文神道","town_kana":"シトオリジンドウ","prefecture_code":28},"0161":{"zip_code":"6560161","prefecture":"兵庫県","prefecture_kana":"ヒョウゴケン","city":"南あわじ市","city_kana":"ミナミアワジシ","town":"倭文土井","town_kana":"シトオリドイ","prefecture_code":28},"0152":{"zip_code":"6560152","prefecture":"兵庫県","prefecture_kana":"ヒョウゴケン","city":"南あわじ市","city_kana":"ミナミアワジシ","town":"倭文長田","town_kana":"シトオリナガタ","prefecture_code":28},"0413":{"zip_code":"6560413","prefecture":"兵庫県","prefecture_kana":"ヒョウゴケン","city":"南あわじ市","city_kana":"ミナミアワジシ","town":"倭文流","town_kana":"シトオリナガレ","prefecture_code":28},"0452":{"zip_code":"6560452","prefecture":"兵庫県","prefecture_kana":"ヒョウゴケン","city":"南あわじ市","city_kana":"ミナミアワジシ","town":"神代浦壁","town_kana":"ジンダイウラカベ","prefecture_code":28},"0454":{"zip_code":"6560454","prefecture":"兵庫県","prefecture_kana":"ヒョウゴケン","city":"南あわじ市","city_kana":"ミナミアワジシ","town":"神代喜来","town_kana":"ジンダイキライ","prefecture_code":28},"0453":{"zip_code":"6560453","prefecture":"兵庫県","prefecture_kana":"ヒョウゴケン","city":"南あわじ市","city_kana":"ミナミアワジシ","town":"神代黒道","town_kana":"ジンダイクロミチ","prefecture_code":28},"0455":{"zip_code":"6560455","prefecture":"兵庫県","prefecture_kana":"ヒョウゴケン","city":"南あわじ市","city_kana":"ミナミアワジシ","town":"神代國衙","town_kana":"ジンダイコクガ","prefecture_code":28},"0456":{"zip_code":"6560456","prefecture":"兵庫県","prefecture_kana":"ヒョウゴケン","city":"南あわじ市","city_kana":"ミナミアワジシ","town":"神代地頭方","town_kana":"ジンダイジトホウ","prefecture_code":28},"0451":{"zip_code":"6560451","prefecture":"兵庫県","prefecture_kana":"ヒョウゴケン","city":"南あわじ市","city_kana":"ミナミアワジシ","town":"神代社家","town_kana":"ジンダイシャケ","prefecture_code":28},"0457":{"zip_code":"6560457","prefecture":"兵庫県","prefecture_kana":"ヒョウゴケン","city":"南あわじ市","city_kana":"ミナミアワジシ","town":"神代富田","town_kana":"ジンダイトミダ","prefecture_code":28},"0143":{"zip_code":"6560143","prefecture":"兵庫県","prefecture_kana":"ヒョウゴケン","city":"南あわじ市","city_kana":"ミナミアワジシ","town":"中条中筋","town_kana":"チュウジョウチュウキン","prefecture_code":28},"0142":{"zip_code":"6560142","prefecture":"兵庫県","prefecture_kana":"ヒョウゴケン","city":"南あわじ市","city_kana":"ミナミアワジシ","town":"中条徳原","town_kana":"チュウジョウトクハラ","prefecture_code":28},"0141":{"zip_code":"6560141","prefecture":"兵庫県","prefecture_kana":"ヒョウゴケン","city":"南あわじ市","city_kana":"ミナミアワジシ","town":"中条広田","town_kana":"チュウジョウヒロタ","prefecture_code":28},"0341":{"zip_code":"6560341","prefecture":"兵庫県","prefecture_kana":"ヒョウゴケン","city":"南あわじ市","city_kana":"ミナミアワジシ","town":"津井","town_kana":"ツイ","prefecture_code":28},"0551":{"zip_code":"6560551","prefecture":"兵庫県","prefecture_kana":"ヒョウゴケン","city":"南あわじ市","city_kana":"ミナミアワジシ","town":"灘","town_kana":"ナダ","prefecture_code":28},"0961":{"zip_code":"6560961","prefecture":"兵庫県","prefecture_kana":"ヒョウゴケン","city":"南あわじ市","city_kana":"ミナミアワジシ","town":"沼島","town_kana":"ヌシマ","prefecture_code":28},"0131":{"zip_code":"6560131","prefecture":"兵庫県","prefecture_kana":"ヒョウゴケン","city":"南あわじ市","city_kana":"ミナミアワジシ","town":"広田中筋","town_kana":"ヒロタナカスジ","prefecture_code":28},"0122":{"zip_code":"6560122","prefecture":"兵庫県","prefecture_kana":"ヒョウゴケン","city":"南あわじ市","city_kana":"ミナミアワジシ","town":"広田広田","town_kana":"ヒロタヒロタ","prefecture_code":28},"0502":{"zip_code":"6560502","prefecture":"兵庫県","prefecture_kana":"ヒョウゴケン","city":"南あわじ市","city_kana":"ミナミアワジシ","town":"福良乙","town_kana":"フクラオツ","prefecture_code":28},"0501":{"zip_code":"6560501","prefecture":"兵庫県","prefecture_kana":"ヒョウゴケン","city":"南あわじ市","city_kana":"ミナミアワジシ","town":"福良甲","town_kana":"フクラコウ","prefecture_code":28},"0503":{"zip_code":"6560503","prefecture":"兵庫県","prefecture_kana":"ヒョウゴケン","city":"南あわじ市","city_kana":"ミナミアワジシ","town":"福良丙","town_kana":"フクラヘイ","prefecture_code":28},"0307":{"zip_code":"6560307","prefecture":"兵庫県","prefecture_kana":"ヒョウゴケン","city":"南あわじ市","city_kana":"ミナミアワジシ","town":"松帆檪田","town_kana":"マツホイチダ","prefecture_code":28},"0303":{"zip_code":"6560303","prefecture":"兵庫県","prefecture_kana":"ヒョウゴケン","city":"南あわじ市","city_kana":"ミナミアワジシ","town":"松帆江尻","town_kana":"マツホエジリ","prefecture_code":28},"0311":{"zip_code":"6560311","prefecture":"兵庫県","prefecture_kana":"ヒョウゴケン","city":"南あわじ市","city_kana":"ミナミアワジシ","town":"松帆戒旦寺","town_kana":"マツホカイダンジ","prefecture_code":28},"0301":{"zip_code":"6560301","prefecture":"兵庫県","prefecture_kana":"ヒョウゴケン","city":"南あわじ市","city_kana":"ミナミアワジシ","town":"松帆北方","town_kana":"マツホキタカタ","prefecture_code":28},"0305":{"zip_code":"6560305","prefecture":"兵庫県","prefecture_kana":"ヒョウゴケン","city":"南あわじ市","city_kana":"ミナミアワジシ","town":"松帆北浜","town_kana":"マツホキタハマ","prefecture_code":28},"0306":{"zip_code":"6560306","prefecture":"兵庫県","prefecture_kana":"ヒョウゴケン","city":"南あわじ市","city_kana":"ミナミアワジシ","town":"松帆慶野","town_kana":"マツホケイノ","prefecture_code":28},"0304":{"zip_code":"6560304","prefecture":"兵庫県","prefecture_kana":"ヒョウゴケン","city":"南あわじ市","city_kana":"ミナミアワジシ","town":"松帆古津路","town_kana":"マツホコツロ","prefecture_code":28},"0302":{"zip_code":"6560302","prefecture":"兵庫県","prefecture_kana":"ヒョウゴケン","city":"南あわじ市","city_kana":"ミナミアワジシ","town":"松帆塩浜","town_kana":"マツホシオハマ","prefecture_code":28},"0313":{"zip_code":"6560313","prefecture":"兵庫県","prefecture_kana":"ヒョウゴケン","city":"南あわじ市","city_kana":"ミナミアワジシ","town":"松帆志知川","town_kana":"マツホシチガワ","prefecture_code":28},"0315":{"zip_code":"6560315","prefecture":"兵庫県","prefecture_kana":"ヒョウゴケン","city":"南あわじ市","city_kana":"ミナミアワジシ","town":"松帆高屋","town_kana":"マツホタカヤ","prefecture_code":28},"0314":{"zip_code":"6560314","prefecture":"兵庫県","prefecture_kana":"ヒョウゴケン","city":"南あわじ市","city_kana":"ミナミアワジシ","town":"松帆西路","town_kana":"マツホニシジ","prefecture_code":28},"0308":{"zip_code":"6560308","prefecture":"兵庫県","prefecture_kana":"ヒョウゴケン","city":"南あわじ市","city_kana":"ミナミアワジシ","town":"松帆宝明寺","town_kana":"マツホホウミョウジ","prefecture_code":28},"0312":{"zip_code":"6560312","prefecture":"兵庫県","prefecture_kana":"ヒョウゴケン","city":"南あわじ市","city_kana":"ミナミアワジシ","town":"松帆脇田","town_kana":"マツホワキダ","prefecture_code":28},"0332":{"zip_code":"6560332","prefecture":"兵庫県","prefecture_kana":"ヒョウゴケン","city":"南あわじ市","city_kana":"ミナミアワジシ","town":"湊","town_kana":"ミナト","prefecture_code":28},"0331":{"zip_code":"6560331","prefecture":"兵庫県","prefecture_kana":"ヒョウゴケン","city":"南あわじ市","city_kana":"ミナミアワジシ","town":"湊里","town_kana":"ミナトサト","prefecture_code":28},"0441":{"zip_code":"6560441","prefecture":"兵庫県","prefecture_kana":"ヒョウゴケン","city":"南あわじ市","city_kana":"ミナミアワジシ","town":"八木入田","town_kana":"ヤギイリタ","prefecture_code":28},"0445":{"zip_code":"6560445","prefecture":"兵庫県","prefecture_kana":"ヒョウゴケン","city":"南あわじ市","city_kana":"ミナミアワジシ","town":"八木馬回","town_kana":"ヤギウママワリ","prefecture_code":28},"0444":{"zip_code":"6560444","prefecture":"兵庫県","prefecture_kana":"ヒョウゴケン","city":"南あわじ市","city_kana":"ミナミアワジシ","town":"八木大久保","town_kana":"ヤギオオクボ","prefecture_code":28},"0434":{"zip_code":"6560434","prefecture":"兵庫県","prefecture_kana":"ヒョウゴケン","city":"南あわじ市","city_kana":"ミナミアワジシ","town":"八木国分","town_kana":"ヤギコクブ","prefecture_code":28},"0446":{"zip_code":"6560446","prefecture":"兵庫県","prefecture_kana":"ヒョウゴケン","city":"南あわじ市","city_kana":"ミナミアワジシ","town":"八木寺内","town_kana":"ヤギジナイ","prefecture_code":28},"0436":{"zip_code":"6560436","prefecture":"兵庫県","prefecture_kana":"ヒョウゴケン","city":"南あわじ市","city_kana":"ミナミアワジシ","town":"八木新庄","town_kana":"ヤギシンジョウ","prefecture_code":28},"0435":{"zip_code":"6560435","prefecture":"兵庫県","prefecture_kana":"ヒョウゴケン","city":"南あわじ市","city_kana":"ミナミアワジシ","town":"八木立石","town_kana":"ヤギタテイシ","prefecture_code":28},"0432":{"zip_code":"6560432","prefecture":"兵庫県","prefecture_kana":"ヒョウゴケン","city":"南あわじ市","city_kana":"ミナミアワジシ","town":"八木徳野","town_kana":"ヤギトクノ","prefecture_code":28},"0433":{"zip_code":"6560433","prefecture":"兵庫県","prefecture_kana":"ヒョウゴケン","city":"南あわじ市","city_kana":"ミナミアワジシ","town":"八木鳥井","town_kana":"ヤギトリイ","prefecture_code":28},"0431":{"zip_code":"6560431","prefecture":"兵庫県","prefecture_kana":"ヒョウゴケン","city":"南あわじ市","city_kana":"ミナミアワジシ","town":"八木野原","town_kana":"ヤギノハラ","prefecture_code":28},"0443":{"zip_code":"6560443","prefecture":"兵庫県","prefecture_kana":"ヒョウゴケン","city":"南あわじ市","city_kana":"ミナミアワジシ","town":"八木養宜上","town_kana":"ヤギヨウギカミ","prefecture_code":28},"0442":{"zip_code":"6560442","prefecture":"兵庫県","prefecture_kana":"ヒョウゴケン","city":"南あわじ市","city_kana":"ミナミアワジシ","town":"八木養宜中","town_kana":"ヤギヨウギナカ","prefecture_code":28},"0121":{"zip_code":"6560121","prefecture":"兵庫県","prefecture_kana":"ヒョウゴケン","city":"南あわじ市","city_kana":"ミナミアワジシ","town":"山添","town_kana":"ヤマゾエ","prefecture_code":28},"2100":{"zip_code":"6562100","prefecture":"兵庫県","prefecture_kana":"ヒョウゴケン","city":"淡路市","city_kana":"アワジシ","town":"","town_kana":"","prefecture_code":28},"1742":{"zip_code":"6561742","prefecture":"兵庫県","prefecture_kana":"ヒョウゴケン","city":"淡路市","city_kana":"アワジシ","town":"浅野神田","town_kana":"アサノカンダ","prefecture_code":28},"1741":{"zip_code":"6561741","prefecture":"兵庫県","prefecture_kana":"ヒョウゴケン","city":"淡路市","city_kana":"アワジシ","town":"浅野南","town_kana":"アサノミナミ","prefecture_code":28},"1603":{"zip_code":"6561603","prefecture":"兵庫県","prefecture_kana":"ヒョウゴケン","city":"淡路市","city_kana":"アワジシ","town":"生田大坪","town_kana":"イクタオオツボ","prefecture_code":28},"1605":{"zip_code":"6561605","prefecture":"兵庫県","prefecture_kana":"ヒョウゴケン","city":"淡路市","city_kana":"アワジシ","town":"生田田尻","town_kana":"イクタタジリ","prefecture_code":28},"1604":{"zip_code":"6561604","prefecture":"兵庫県","prefecture_kana":"ヒョウゴケン","city":"淡路市","city_kana":"アワジシ","town":"生田畑","town_kana":"イクタハタ","prefecture_code":28},"1602":{"zip_code":"6561602","prefecture":"兵庫県","prefecture_kana":"ヒョウゴケン","city":"淡路市","city_kana":"アワジシ","town":"育波","town_kana":"イクハ","prefecture_code":28},"2223":{"zip_code":"6562223","prefecture":"兵庫県","prefecture_kana":"ヒョウゴケン","city":"淡路市","city_kana":"アワジシ","town":"生穂","town_kana":"イクホ","prefecture_code":28},"2225":{"zip_code":"6562225","prefecture":"兵庫県","prefecture_kana":"ヒョウゴケン","city":"淡路市","city_kana":"アワジシ","town":"生穂新島","town_kana":"イクホニイジマ","prefecture_code":28},"2161":{"zip_code":"6562161","prefecture":"兵庫県","prefecture_kana":"ヒョウゴケン","city":"淡路市","city_kana":"アワジシ","town":"池ノ内","town_kana":"イケノウチ","prefecture_code":28},"1712":{"zip_code":"6561712","prefecture":"兵庫県","prefecture_kana":"ヒョウゴケン","city":"淡路市","city_kana":"アワジシ","town":"石田","town_kana":"イシダ","prefecture_code":28},"1525":{"zip_code":"6561525","prefecture":"兵庫県","prefecture_kana":"ヒョウゴケン","city":"淡路市","city_kana":"アワジシ","town":"井手","town_kana":"イデ","prefecture_code":28},"1552":{"zip_code":"6561552","prefecture":"兵庫県","prefecture_kana":"ヒョウゴケン","city":"淡路市","city_kana":"アワジシ","town":"入野","town_kana":"イリノ","prefecture_code":28},"2401":{"zip_code":"6562401","prefecture":"兵庫県","prefecture_kana":"ヒョウゴケン","city":"淡路市","city_kana":"アワジシ","town":"岩屋","town_kana":"イワヤ","prefecture_code":28},"2305":{"zip_code":"6562305","prefecture":"兵庫県","prefecture_kana":"ヒョウゴケン","city":"淡路市","city_kana":"アワジシ","town":"浦","town_kana":"ウラ","prefecture_code":28},"1531":{"zip_code":"6561531","prefecture":"兵庫県","prefecture_kana":"ヒョウゴケン","city":"淡路市","city_kana":"アワジシ","town":"江井","town_kana":"エイ","prefecture_code":28},"2162":{"zip_code":"6562162","prefecture":"兵庫県","prefecture_kana":"ヒョウゴケン","city":"淡路市","city_kana":"アワジシ","town":"王子","town_kana":"オウジ","prefecture_code":28},"2302":{"zip_code":"6562302","prefecture":"兵庫県","prefecture_kana":"ヒョウゴケン","city":"淡路市","city_kana":"アワジシ","town":"大磯","town_kana":"オオイソ","prefecture_code":28},"2224":{"zip_code":"6562224","prefecture":"兵庫県","prefecture_kana":"ヒョウゴケン","city":"淡路市","city_kana":"アワジシ","town":"大谷","town_kana":"オオタニ","prefecture_code":28},"2155":{"zip_code":"6562155","prefecture":"兵庫県","prefecture_kana":"ヒョウゴケン","city":"淡路市","city_kana":"アワジシ","town":"大町上","town_kana":"オオマチカミ","prefecture_code":28},"2156":{"zip_code":"6562156","prefecture":"兵庫県","prefecture_kana":"ヒョウゴケン","city":"淡路市","city_kana":"アワジシ","town":"大町下","town_kana":"オオマチシモ","prefecture_code":28},"2151":{"zip_code":"6562151","prefecture":"兵庫県","prefecture_kana":"ヒョウゴケン","city":"淡路市","city_kana":"アワジシ","town":"大町畑","town_kana":"オオマチハタ","prefecture_code":28},"1736":{"zip_code":"6561736","prefecture":"兵庫県","prefecture_kana":"ヒョウゴケン","city":"淡路市","city_kana":"アワジシ","town":"小倉","town_kana":"オグラ","prefecture_code":28},"1501":{"zip_code":"6561501","prefecture":"兵庫県","prefecture_kana":"ヒョウゴケン","city":"淡路市","city_kana":"アワジシ","town":"尾崎","town_kana":"オサキ","prefecture_code":28},"1732":{"zip_code":"6561732","prefecture":"兵庫県","prefecture_kana":"ヒョウゴケン","city":"淡路市","city_kana":"アワジシ","town":"小田","town_kana":"オダ","prefecture_code":28},"2334":{"zip_code":"6562334","prefecture":"兵庫県","prefecture_kana":"ヒョウゴケン","city":"淡路市","city_kana":"アワジシ","town":"釜口","town_kana":"カマグチ","prefecture_code":28},"1523":{"zip_code":"6561523","prefecture":"兵庫県","prefecture_kana":"ヒョウゴケン","city":"淡路市","city_kana":"アワジシ","town":"上河合","town_kana":"カミガワイ","prefecture_code":28},"2331":{"zip_code":"6562331","prefecture":"兵庫県","prefecture_kana":"ヒョウゴケン","city":"淡路市","city_kana":"アワジシ","town":"仮屋","town_kana":"カリヤ","prefecture_code":28},"2152":{"zip_code":"6562152","prefecture":"兵庫県","prefecture_kana":"ヒョウゴケン","city":"淡路市","city_kana":"アワジシ","town":"木曽上","town_kana":"キソカミ","prefecture_code":28},"2153":{"zip_code":"6562153","prefecture":"兵庫県","prefecture_kana":"ヒョウゴケン","city":"淡路市","city_kana":"アワジシ","town":"木曽上畑","town_kana":"キソカミハタ","prefecture_code":28},"2154":{"zip_code":"6562154","prefecture":"兵庫県","prefecture_kana":"ヒョウゴケン","city":"淡路市","city_kana":"アワジシ","town":"木曽下","town_kana":"キソシモ","prefecture_code":28},"1512":{"zip_code":"6561512","prefecture":"兵庫県","prefecture_kana":"ヒョウゴケン","city":"淡路市","city_kana":"アワジシ","town":"北山","town_kana":"キタヤマ","prefecture_code":28},"1556":{"zip_code":"6561556","prefecture":"兵庫県","prefecture_kana":"ヒョウゴケン","city":"淡路市","city_kana":"アワジシ","town":"草香","town_kana":"クサカ","prefecture_code":28},"1558":{"zip_code":"6561558","prefecture":"兵庫県","prefecture_kana":"ヒョウゴケン","city":"淡路市","city_kana":"アワジシ","town":"草香北","town_kana":"クサカキタ","prefecture_code":28},"2301":{"zip_code":"6562301","prefecture":"兵庫県","prefecture_kana":"ヒョウゴケン","city":"淡路市","city_kana":"アワジシ","town":"楠本","town_kana":"クスモト","prefecture_code":28},"2144":{"zip_code":"6562144","prefecture":"兵庫県","prefecture_kana":"ヒョウゴケン","city":"淡路市","city_kana":"アワジシ","town":"下司","town_kana":"クダシ","prefecture_code":28},"1735":{"zip_code":"6561735","prefecture":"兵庫県","prefecture_kana":"ヒョウゴケン","city":"淡路市","city_kana":"アワジシ","town":"久野々","town_kana":"クノノ","prefecture_code":28},"2311":{"zip_code":"6562311","prefecture":"兵庫県","prefecture_kana":"ヒョウゴケン","city":"淡路市","city_kana":"アワジシ","town":"久留麻","town_kana":"クルマ","prefecture_code":28},"1601":{"zip_code":"6561601","prefecture":"兵庫県","prefecture_kana":"ヒョウゴケン","city":"淡路市","city_kana":"アワジシ","town":"黒谷","town_kana":"クロダニ","prefecture_code":28},"1511":{"zip_code":"6561511","prefecture":"兵庫県","prefecture_kana":"ヒョウゴケン","city":"淡路市","city_kana":"アワジシ","town":"郡家","town_kana":"グンゲ","prefecture_code":28},"2303":{"zip_code":"6562303","prefecture":"兵庫県","prefecture_kana":"ヒョウゴケン","city":"淡路市","city_kana":"アワジシ","town":"小磯","town_kana":"コイソ","prefecture_code":28},"2323":{"zip_code":"6562323","prefecture":"兵庫県","prefecture_kana":"ヒョウゴケン","city":"淡路市","city_kana":"アワジシ","town":"河内","town_kana":"コウチ","prefecture_code":28},"2211":{"zip_code":"6562211","prefecture":"兵庫県","prefecture_kana":"ヒョウゴケン","city":"淡路市","city_kana":"アワジシ","town":"興隆寺","town_kana":"コウリュウジ","prefecture_code":28},"2143":{"zip_code":"6562143","prefecture":"兵庫県","prefecture_kana":"ヒョウゴケン","city":"淡路市","city_kana":"アワジシ","town":"里","town_kana":"サト","prefecture_code":28},"2212":{"zip_code":"6562212","prefecture":"兵庫県","prefecture_kana":"ヒョウゴケン","city":"淡路市","city_kana":"アワジシ","town":"佐野","town_kana":"サノ","prefecture_code":28},"2213":{"zip_code":"6562213","prefecture":"兵庫県","prefecture_kana":"ヒョウゴケン","city":"淡路市","city_kana":"アワジシ","town":"佐野新島","town_kana":"サノニイジマ","prefecture_code":28},"2141":{"zip_code":"6562141","prefecture":"兵庫県","prefecture_kana":"ヒョウゴケン","city":"淡路市","city_kana":"アワジシ","town":"塩尾","town_kana":"シオ","prefecture_code":28},"2142":{"zip_code":"6562142","prefecture":"兵庫県","prefecture_kana":"ヒョウゴケン","city":"淡路市","city_kana":"アワジシ","town":"塩田新島","town_kana":"シオタニイジマ","prefecture_code":28},"2131":{"zip_code":"6562131","prefecture":"兵庫県","prefecture_kana":"ヒョウゴケン","city":"淡路市","city_kana":"アワジシ","town":"志筑","town_kana":"シヅキ","prefecture_code":28},"2132":{"zip_code":"6562132","prefecture":"兵庫県","prefecture_kana":"ヒョウゴケン","city":"淡路市","city_kana":"アワジシ","town":"志筑新島","town_kana":"シヅキニイジマ","prefecture_code":28},"1522":{"zip_code":"6561522","prefecture":"兵庫県","prefecture_kana":"ヒョウゴケン","city":"淡路市","city_kana":"アワジシ","town":"下河合","town_kana":"シモガワイ","prefecture_code":28},"2333":{"zip_code":"6562333","prefecture":"兵庫県","prefecture_kana":"ヒョウゴケン","city":"淡路市","city_kana":"アワジシ","town":"下田","town_kana":"シモダ","prefecture_code":28},"2322":{"zip_code":"6562322","prefecture":"兵庫県","prefecture_kana":"ヒョウゴケン","city":"淡路市","city_kana":"アワジシ","town":"白山","town_kana":"シラヤマ","prefecture_code":28},"1502":{"zip_code":"6561502","prefecture":"兵庫県","prefecture_kana":"ヒョウゴケン","city":"淡路市","city_kana":"アワジシ","town":"新村","town_kana":"シンムラ","prefecture_code":28},"1521":{"zip_code":"6561521","prefecture":"兵庫県","prefecture_kana":"ヒョウゴケン","city":"淡路市","city_kana":"アワジシ","town":"多賀","town_kana":"タガ","prefecture_code":28},"1551":{"zip_code":"6561551","prefecture":"兵庫県","prefecture_kana":"ヒョウゴケン","city":"淡路市","city_kana":"アワジシ","town":"高山","town_kana":"タカヤマ","prefecture_code":28},"1524":{"zip_code":"6561524","prefecture":"兵庫県","prefecture_kana":"ヒョウゴケン","city":"淡路市","city_kana":"アワジシ","town":"竹谷","town_kana":"タケダニ","prefecture_code":28},"2332":{"zip_code":"6562332","prefecture":"兵庫県","prefecture_kana":"ヒョウゴケン","city":"淡路市","city_kana":"アワジシ","town":"谷","town_kana":"タニ","prefecture_code":28},"2214":{"zip_code":"6562214","prefecture":"兵庫県","prefecture_kana":"ヒョウゴケン","city":"淡路市","city_kana":"アワジシ","town":"津名の郷","town_kana":"ツナノサト","prefecture_code":28},"1503":{"zip_code":"6561503","prefecture":"兵庫県","prefecture_kana":"ヒョウゴケン","city":"淡路市","city_kana":"アワジシ","town":"遠田","town_kana":"トオダ","prefecture_code":28},"1711":{"zip_code":"6561711","prefecture":"兵庫県","prefecture_kana":"ヒョウゴケン","city":"淡路市","city_kana":"アワジシ","town":"富島","town_kana":"トシマ","prefecture_code":28},"1743":{"zip_code":"6561743","prefecture":"兵庫県","prefecture_kana":"ヒョウゴケン","city":"淡路市","city_kana":"アワジシ","town":"斗ノ内","town_kana":"トノウチ","prefecture_code":28},"2221":{"zip_code":"6562221","prefecture":"兵庫県","prefecture_kana":"ヒョウゴケン","city":"淡路市","city_kana":"アワジシ","town":"長沢","town_kana":"ナガサワ","prefecture_code":28},"2163":{"zip_code":"6562163","prefecture":"兵庫県","prefecture_kana":"ヒョウゴケン","city":"淡路市","city_kana":"アワジシ","town":"中田","town_kana":"ナカダ","prefecture_code":28},"1733":{"zip_code":"6561733","prefecture":"兵庫県","prefecture_kana":"ヒョウゴケン","city":"淡路市","city_kana":"アワジシ","town":"長畠","town_kana":"ナガバタケ","prefecture_code":28},"1526":{"zip_code":"6561526","prefecture":"兵庫県","prefecture_kana":"ヒョウゴケン","city":"淡路市","city_kana":"アワジシ","town":"中村","town_kana":"ナカムラ","prefecture_code":28},"2321":{"zip_code":"6562321","prefecture":"兵庫県","prefecture_kana":"ヒョウゴケン","city":"淡路市","city_kana":"アワジシ","town":"中持","town_kana":"ナカモチ","prefecture_code":28},"1731":{"zip_code":"6561731","prefecture":"兵庫県","prefecture_kana":"ヒョウゴケン","city":"淡路市","city_kana":"アワジシ","town":"仁井","town_kana":"ニイ","prefecture_code":28},"1723":{"zip_code":"6561723","prefecture":"兵庫県","prefecture_kana":"ヒョウゴケン","city":"淡路市","city_kana":"アワジシ","town":"野島大川","town_kana":"ノジマオオカワ","prefecture_code":28},"1727":{"zip_code":"6561727","prefecture":"兵庫県","prefecture_kana":"ヒョウゴケン","city":"淡路市","city_kana":"アワジシ","town":"野島貴船","town_kana":"ノジマキフネ","prefecture_code":28},"1726":{"zip_code":"6561726","prefecture":"兵庫県","prefecture_kana":"ヒョウゴケン","city":"淡路市","city_kana":"アワジシ","town":"野島常盤","town_kana":"ノジマトキワ","prefecture_code":28},"1722":{"zip_code":"6561722","prefecture":"兵庫県","prefecture_kana":"ヒョウゴケン","city":"淡路市","city_kana":"アワジシ","town":"野島轟木","town_kana":"ノジマトドロキ","prefecture_code":28},"1721":{"zip_code":"6561721","prefecture":"兵庫県","prefecture_kana":"ヒョウゴケン","city":"淡路市","city_kana":"アワジシ","town":"野島蟇浦","town_kana":"ノジマヒキノウラ","prefecture_code":28},"1724":{"zip_code":"6561724","prefecture":"兵庫県","prefecture_kana":"ヒョウゴケン","city":"淡路市","city_kana":"アワジシ","town":"野島平林","town_kana":"ノジマヒラバヤシ","prefecture_code":28},"2451":{"zip_code":"6562451","prefecture":"兵庫県","prefecture_kana":"ヒョウゴケン","city":"淡路市","city_kana":"アワジシ","town":"野島江崎","town_kana":"ノジマエザキ","prefecture_code":28},"1725":{"zip_code":"6561725","prefecture":"兵庫県","prefecture_kana":"ヒョウゴケン","city":"淡路市","city_kana":"アワジシ","town":"野島江崎","town_kana":"ノジマエザキ","prefecture_code":28},"2222":{"zip_code":"6562222","prefecture":"兵庫県","prefecture_kana":"ヒョウゴケン","city":"淡路市","city_kana":"アワジシ","town":"野田尾","town_kana":"ノタオ","prefecture_code":28},"2304":{"zip_code":"6562304","prefecture":"兵庫県","prefecture_kana":"ヒョウゴケン","city":"淡路市","city_kana":"アワジシ","town":"浜","town_kana":"ハマ","prefecture_code":28},"1554":{"zip_code":"6561554","prefecture":"兵庫県","prefecture_kana":"ヒョウゴケン","city":"淡路市","city_kana":"アワジシ","town":"深草","town_kana":"フカクサ","prefecture_code":28},"1734":{"zip_code":"6561734","prefecture":"兵庫県","prefecture_kana":"ヒョウゴケン","city":"淡路市","city_kana":"アワジシ","town":"舟木","town_kana":"フナキ","prefecture_code":28},"1555":{"zip_code":"6561555","prefecture":"兵庫県","prefecture_kana":"ヒョウゴケン","city":"淡路市","city_kana":"アワジシ","town":"南","town_kana":"ミナミ","prefecture_code":28},"2307":{"zip_code":"6562307","prefecture":"兵庫県","prefecture_kana":"ヒョウゴケン","city":"淡路市","city_kana":"アワジシ","town":"南鵜崎","town_kana":"ミナミウザキ","prefecture_code":28},"1557":{"zip_code":"6561557","prefecture":"兵庫県","prefecture_kana":"ヒョウゴケン","city":"淡路市","city_kana":"アワジシ","town":"明神","town_kana":"ミョウジン","prefecture_code":28},"1606":{"zip_code":"6561606","prefecture":"兵庫県","prefecture_kana":"ヒョウゴケン","city":"淡路市","city_kana":"アワジシ","town":"室津","town_kana":"ムロツ","prefecture_code":28},"1541":{"zip_code":"6561541","prefecture":"兵庫県","prefecture_kana":"ヒョウゴケン","city":"淡路市","city_kana":"アワジシ","town":"柳沢","town_kana":"ヤナギサワ","prefecture_code":28},"1553":{"zip_code":"6561553","prefecture":"兵庫県","prefecture_kana":"ヒョウゴケン","city":"淡路市","city_kana":"アワジシ","town":"山田","town_kana":"ヤマダ","prefecture_code":28},"2306":{"zip_code":"6562306","prefecture":"兵庫県","prefecture_kana":"ヒョウゴケン","city":"淡路市","city_kana":"アワジシ","town":"夢舞台","town_kana":"ユメブタイ","prefecture_code":28}}