{"0111":{"zip_code":"6570111","prefecture":"兵庫県","prefecture_kana":"ヒョウゴケン","city":"神戸市東灘区","city_kana":"コウベシヒガシナダク","town":"本山町森","town_kana":"モトヤマチョウモリ","prefecture_code":28},"0000":{"zip_code":"6570000","prefecture":"兵庫県","prefecture_kana":"ヒョウゴケン","city":"神戸市灘区","city_kana":"コウベシナダク","town":"","town_kana":"","prefecture_code":28},"0805":{"zip_code":"6570805","prefecture":"兵庫県","prefecture_kana":"ヒョウゴケン","city":"神戸市灘区","city_kana":"コウベシナダク","town":"青谷町","town_kana":"アオタニチョウ","prefecture_code":28},"0821":{"zip_code":"6570821","prefecture":"兵庫県","prefecture_kana":"ヒョウゴケン","city":"神戸市灘区","city_kana":"コウベシナダク","town":"赤坂通","town_kana":"アカサカドオリ","prefecture_code":28},"0061":{"zip_code":"6570061","prefecture":"兵庫県","prefecture_kana":"ヒョウゴケン","city":"神戸市灘区","city_kana":"コウベシナダク","town":"赤松町","town_kana":"アカマツチョウ","prefecture_code":28},"0823":{"zip_code":"6570823","prefecture":"兵庫県","prefecture_kana":"ヒョウゴケン","city":"神戸市灘区","city_kana":"コウベシナダク","town":"天城通","town_kana":"アマギドオリ","prefecture_code":28},"0834":{"zip_code":"6570834","prefecture":"兵庫県","prefecture_kana":"ヒョウゴケン","city":"神戸市灘区","city_kana":"コウベシナダク","town":"泉通","town_kana":"イズミドオリ","prefecture_code":28},"0012":{"zip_code":"6570012","prefecture":"兵庫県","prefecture_kana":"ヒョウゴケン","city":"神戸市灘区","city_kana":"コウベシナダク","town":"一王山町","town_kana":"イチノウサンチョウ","prefecture_code":28},"0803":{"zip_code":"6570803","prefecture":"兵庫県","prefecture_kana":"ヒョウゴケン","city":"神戸市灘区","city_kana":"コウベシナダク","town":"岩屋","town_kana":"イワヤ","prefecture_code":28},"0846":{"zip_code":"6570846","prefecture":"兵庫県","prefecture_kana":"ヒョウゴケン","city":"神戸市灘区","city_kana":"コウベシナダク","town":"岩屋北町","town_kana":"イワヤキタマチ","prefecture_code":28},"0845":{"zip_code":"6570845","prefecture":"兵庫県","prefecture_kana":"ヒョウゴケン","city":"神戸市灘区","city_kana":"コウベシナダク","town":"岩屋中町","town_kana":"イワヤナカマチ","prefecture_code":28},"0856":{"zip_code":"6570856","prefecture":"兵庫県","prefecture_kana":"ヒョウゴケン","city":"神戸市灘区","city_kana":"コウベシナダク","town":"岩屋南町","town_kana":"イワヤミナミマチ","prefecture_code":28},"0103":[{"zip_code":"6570103","prefecture":"兵庫県","prefecture_kana":"ヒョウゴケン","city":"神戸市灘区","city_kana":"コウベシナダク","town":"上野小屋場","town_kana":"ウエノコヤバ","prefecture_code":28},{"zip_code":"6570103","prefecture":"兵庫県","prefecture_kana":"ヒョウゴケン","city":"神戸市灘区","city_kana":"コウベシナダク","town":"上野三ノ休原","town_kana":"ウエノサンノキュウハラ","prefecture_code":28}],"0817":{"zip_code":"6570817","prefecture":"兵庫県","prefecture_kana":"ヒョウゴケン","city":"神戸市灘区","city_kana":"コウベシナダク","town":"上野通","town_kana":"ウエノドオリ","prefecture_code":28},"0042":{"zip_code":"6570042","prefecture":"兵庫県","prefecture_kana":"ヒョウゴケン","city":"神戸市灘区","city_kana":"コウベシナダク","town":"烏帽子町","town_kana":"エボシチョウ","prefecture_code":28},"0838":{"zip_code":"6570838","prefecture":"兵庫県","prefecture_kana":"ヒョウゴケン","city":"神戸市灘区","city_kana":"コウベシナダク","town":"王子町","town_kana":"オウジチョウ","prefecture_code":28},"0843":{"zip_code":"6570843","prefecture":"兵庫県","prefecture_kana":"ヒョウゴケン","city":"神戸市灘区","city_kana":"コウベシナダク","town":"大石北町","town_kana":"オオイシキタマチ","prefecture_code":28},"0043":{"zip_code":"6570043","prefecture":"兵庫県","prefecture_kana":"ヒョウゴケン","city":"神戸市灘区","city_kana":"コウベシナダク","town":"大石東町","town_kana":"オオイシヒガシマチ","prefecture_code":28},"0852":{"zip_code":"6570852","prefecture":"兵庫県","prefecture_kana":"ヒョウゴケン","city":"神戸市灘区","city_kana":"コウベシナダク","town":"大石南町","town_kana":"オオイシミナミマチ","prefecture_code":28},"0833":{"zip_code":"6570833","prefecture":"兵庫県","prefecture_kana":"ヒョウゴケン","city":"神戸市灘区","city_kana":"コウベシナダク","town":"大内通","town_kana":"オオウチドオリ","prefecture_code":28},"0017":{"zip_code":"6570017","prefecture":"兵庫県","prefecture_kana":"ヒョウゴケン","city":"神戸市灘区","city_kana":"コウベシナダク","town":"大月台","town_kana":"オオツキダイ","prefecture_code":28},"0014":{"zip_code":"6570014","prefecture":"兵庫県","prefecture_kana":"ヒョウゴケン","city":"神戸市灘区","city_kana":"コウベシナダク","town":"大土平町","town_kana":"オオドガヒラチョウ","prefecture_code":28},"0055":{"zip_code":"6570055","prefecture":"兵庫県","prefecture_kana":"ヒョウゴケン","city":"神戸市灘区","city_kana":"コウベシナダク","town":"上河原通","town_kana":"カミカワラドオリ","prefecture_code":28},"0057":{"zip_code":"6570057","prefecture":"兵庫県","prefecture_kana":"ヒョウゴケン","city":"神戸市灘区","city_kana":"コウベシナダク","town":"神ノ木通","town_kana":"カミノキドオリ","prefecture_code":28},"0052":{"zip_code":"6570052","prefecture":"兵庫県","prefecture_kana":"ヒョウゴケン","city":"神戸市灘区","city_kana":"コウベシナダク","town":"神前町","town_kana":"カミマエチョウ","prefecture_code":28},"0832":{"zip_code":"6570832","prefecture":"兵庫県","prefecture_kana":"ヒョウゴケン","city":"神戸市灘区","city_kana":"コウベシナダク","town":"岸地通","town_kana":"キシチドオリ","prefecture_code":28},"0034":{"zip_code":"6570034","prefecture":"兵庫県","prefecture_kana":"ヒョウゴケン","city":"神戸市灘区","city_kana":"コウベシナダク","town":"記田町","town_kana":"キダチョウ","prefecture_code":28},"0024":{"zip_code":"6570024","prefecture":"兵庫県","prefecture_kana":"ヒョウゴケン","city":"神戸市灘区","city_kana":"コウベシナダク","town":"楠丘町","town_kana":"クスガオカチョウ","prefecture_code":28},"0816":{"zip_code":"6570816","prefecture":"兵庫県","prefecture_kana":"ヒョウゴケン","city":"神戸市灘区","city_kana":"コウベシナダク","town":"国玉通","town_kana":"クニタマドオリ","prefecture_code":28},"0826":{"zip_code":"6570826","prefecture":"兵庫県","prefecture_kana":"ヒョウゴケン","city":"神戸市灘区","city_kana":"コウベシナダク","town":"倉石通","town_kana":"クライシドオリ","prefecture_code":28},"0025":{"zip_code":"6570025","prefecture":"兵庫県","prefecture_kana":"ヒョウゴケン","city":"神戸市灘区","city_kana":"コウベシナダク","town":"高徳町","town_kana":"コウトクチョウ","prefecture_code":28},"0801":{"zip_code":"6570801","prefecture":"兵庫県","prefecture_kana":"ヒョウゴケン","city":"神戸市灘区","city_kana":"コウベシナダク","town":"五毛","town_kana":"ゴモウ","prefecture_code":28},"0814":{"zip_code":"6570814","prefecture":"兵庫県","prefecture_kana":"ヒョウゴケン","city":"神戸市灘区","city_kana":"コウベシナダク","town":"五毛通","town_kana":"ゴモウドオリ","prefecture_code":28},"0021":{"zip_code":"6570021","prefecture":"兵庫県","prefecture_kana":"ヒョウゴケン","city":"神戸市灘区","city_kana":"コウベシナダク","town":"桜ケ丘町","town_kana":"サクラガオカチョウ","prefecture_code":28},"0036":{"zip_code":"6570036","prefecture":"兵庫県","prefecture_kana":"ヒョウゴケン","city":"神戸市灘区","city_kana":"コウベシナダク","town":"桜口町","town_kana":"サクラグチチョウ","prefecture_code":28},"0044":{"zip_code":"6570044","prefecture":"兵庫県","prefecture_kana":"ヒョウゴケン","city":"神戸市灘区","city_kana":"コウベシナダク","town":"鹿ノ下通","town_kana":"シカノシタドオリ","prefecture_code":28},"0015":{"zip_code":"6570015","prefecture":"兵庫県","prefecture_kana":"ヒョウゴケン","city":"神戸市灘区","city_kana":"コウベシナダク","town":"篠原伯母野山町","town_kana":"シノハラオバノヤマチョウ","prefecture_code":28},"0068":{"zip_code":"6570068","prefecture":"兵庫県","prefecture_kana":"ヒョウゴケン","city":"神戸市灘区","city_kana":"コウベシナダク","town":"篠原北町","town_kana":"シノハラキタマチ","prefecture_code":28},"0016":{"zip_code":"6570016","prefecture":"兵庫県","prefecture_kana":"ヒョウゴケン","city":"神戸市灘区","city_kana":"コウベシナダク","town":"篠原台","town_kana":"シノハラダイ","prefecture_code":28},"0066":{"zip_code":"6570066","prefecture":"兵庫県","prefecture_kana":"ヒョウゴケン","city":"神戸市灘区","city_kana":"コウベシナダク","town":"篠原中町","town_kana":"シノハラナカマチ","prefecture_code":28},"0067":{"zip_code":"6570067","prefecture":"兵庫県","prefecture_kana":"ヒョウゴケン","city":"神戸市灘区","city_kana":"コウベシナダク","town":"篠原本町","town_kana":"シノハラホンマチ","prefecture_code":28},"0059":{"zip_code":"6570059","prefecture":"兵庫県","prefecture_kana":"ヒョウゴケン","city":"神戸市灘区","city_kana":"コウベシナダク","town":"篠原南町","town_kana":"シノハラミナミマチ","prefecture_code":28},"0002":{"zip_code":"6570002","prefecture":"兵庫県","prefecture_kana":"ヒョウゴケン","city":"神戸市灘区","city_kana":"コウベシナダク","town":"篠原","town_kana":"シノハラ","prefecture_code":28},"0045":{"zip_code":"6570045","prefecture":"兵庫県","prefecture_kana":"ヒョウゴケン","city":"神戸市灘区","city_kana":"コウベシナダク","town":"下河原通","town_kana":"シモガワラドオリ","prefecture_code":28},"0058":{"zip_code":"6570058","prefecture":"兵庫県","prefecture_kana":"ヒョウゴケン","city":"神戸市灘区","city_kana":"コウベシナダク","town":"将軍通","town_kana":"ショウグンドオリ","prefecture_code":28},"0836":{"zip_code":"6570836","prefecture":"兵庫県","prefecture_kana":"ヒョウゴケン","city":"神戸市灘区","city_kana":"コウベシナダク","town":"城内通","town_kana":"シロノウチドオリ","prefecture_code":28},"0804":{"zip_code":"6570804","prefecture":"兵庫県","prefecture_kana":"ヒョウゴケン","city":"神戸市灘区","city_kana":"コウベシナダク","town":"城の下通","town_kana":"シロノシタドオリ","prefecture_code":28},"0864":{"zip_code":"6570864","prefecture":"兵庫県","prefecture_kana":"ヒョウゴケン","city":"神戸市灘区","city_kana":"コウベシナダク","town":"新在家南町","town_kana":"シンザイケミナミマチ","prefecture_code":28},"0861":{"zip_code":"6570861","prefecture":"兵庫県","prefecture_kana":"ヒョウゴケン","city":"神戸市灘区","city_kana":"コウベシナダク","town":"新在家北町","town_kana":"シンザイケキタマチ","prefecture_code":28},"0018":{"zip_code":"6570018","prefecture":"兵庫県","prefecture_kana":"ヒョウゴケン","city":"神戸市灘区","city_kana":"コウベシナダク","town":"水車新田","town_kana":"スイシャシンデン","prefecture_code":28},"0831":{"zip_code":"6570831","prefecture":"兵庫県","prefecture_kana":"ヒョウゴケン","city":"神戸市灘区","city_kana":"コウベシナダク","town":"水道筋","town_kana":"スイドウスジ","prefecture_code":28},"0056":{"zip_code":"6570056","prefecture":"兵庫県","prefecture_kana":"ヒョウゴケン","city":"神戸市灘区","city_kana":"コウベシナダク","town":"千旦通","town_kana":"センタンドオリ","prefecture_code":28},"0063":{"zip_code":"6570063","prefecture":"兵庫県","prefecture_kana":"ヒョウゴケン","city":"神戸市灘区","city_kana":"コウベシナダク","town":"曾和町","town_kana":"ソワチョウ","prefecture_code":28},"0813":{"zip_code":"6570813","prefecture":"兵庫県","prefecture_kana":"ヒョウゴケン","city":"神戸市灘区","city_kana":"コウベシナダク","town":"高尾通","town_kana":"タカオドオリ","prefecture_code":28},"0001":{"zip_code":"6570001","prefecture":"兵庫県","prefecture_kana":"ヒョウゴケン","city":"神戸市灘区","city_kana":"コウベシナダク","town":"高羽","town_kana":"タカハ","prefecture_code":28},"0023":{"zip_code":"6570023","prefecture":"兵庫県","prefecture_kana":"ヒョウゴケン","city":"神戸市灘区","city_kana":"コウベシナダク","town":"高羽町","town_kana":"タカハチョウ","prefecture_code":28},"0022":{"zip_code":"6570022","prefecture":"兵庫県","prefecture_kana":"ヒョウゴケン","city":"神戸市灘区","city_kana":"コウベシナダク","town":"土山町","town_kana":"ツチヤマチョウ","prefecture_code":28},"0011":{"zip_code":"6570011","prefecture":"兵庫県","prefecture_kana":"ヒョウゴケン","city":"神戸市灘区","city_kana":"コウベシナダク","town":"鶴甲","town_kana":"ツルカブト","prefecture_code":28},"0062":{"zip_code":"6570062","prefecture":"兵庫県","prefecture_kana":"ヒョウゴケン","city":"神戸市灘区","city_kana":"コウベシナダク","town":"寺口町","town_kana":"テラグチチョウ","prefecture_code":28},"0033":{"zip_code":"6570033","prefecture":"兵庫県","prefecture_kana":"ヒョウゴケン","city":"神戸市灘区","city_kana":"コウベシナダク","town":"徳井町","town_kana":"トクイチョウ","prefecture_code":28},"0035":{"zip_code":"6570035","prefecture":"兵庫県","prefecture_kana":"ヒョウゴケン","city":"神戸市灘区","city_kana":"コウベシナダク","town":"友田町","town_kana":"トモダチョウ","prefecture_code":28},"0032":{"zip_code":"6570032","prefecture":"兵庫県","prefecture_kana":"ヒョウゴケン","city":"神戸市灘区","city_kana":"コウベシナダク","town":"中郷町","town_kana":"ナカゴウチョウ","prefecture_code":28},"0825":{"zip_code":"6570825","prefecture":"兵庫県","prefecture_kana":"ヒョウゴケン","city":"神戸市灘区","city_kana":"コウベシナダク","town":"中原通","town_kana":"ナカハラドオリ","prefecture_code":28},"0027":{"zip_code":"6570027","prefecture":"兵庫県","prefecture_kana":"ヒョウゴケン","city":"神戸市灘区","city_kana":"コウベシナダク","town":"永手町","town_kana":"ナガテチョウ","prefecture_code":28},"0811":{"zip_code":"6570811","prefecture":"兵庫県","prefecture_kana":"ヒョウゴケン","city":"神戸市灘区","city_kana":"コウベシナダク","town":"長峰台","town_kana":"ナガミネダイ","prefecture_code":28},"0835":{"zip_code":"6570835","prefecture":"兵庫県","prefecture_kana":"ヒョウゴケン","city":"神戸市灘区","city_kana":"コウベシナダク","town":"灘北通","town_kana":"ナダキタドオリ","prefecture_code":28},"0853":{"zip_code":"6570853","prefecture":"兵庫県","prefecture_kana":"ヒョウゴケン","city":"神戸市灘区","city_kana":"コウベシナダク","town":"灘浜町","town_kana":"ナダハマチョウ","prefecture_code":28},"0863":{"zip_code":"6570863","prefecture":"兵庫県","prefecture_kana":"ヒョウゴケン","city":"神戸市灘区","city_kana":"コウベシナダク","town":"灘浜東町","town_kana":"ナダハマヒガシチョウ","prefecture_code":28},"0841":{"zip_code":"6570841","prefecture":"兵庫県","prefecture_kana":"ヒョウゴケン","city":"神戸市灘区","city_kana":"コウベシナダク","town":"灘南通","town_kana":"ナダミナミドオリ","prefecture_code":28},"0102":{"zip_code":"6570102","prefecture":"兵庫県","prefecture_kana":"ヒョウゴケン","city":"神戸市灘区","city_kana":"コウベシナダク","town":"畑原ノタ山","town_kana":"ハタハラノタヤマ","prefecture_code":28},"0822":{"zip_code":"6570822","prefecture":"兵庫県","prefecture_kana":"ヒョウゴケン","city":"神戸市灘区","city_kana":"コウベシナダク","town":"畑原通","town_kana":"ハタハラドオリ","prefecture_code":28},"0862":{"zip_code":"6570862","prefecture":"兵庫県","prefecture_kana":"ヒョウゴケン","city":"神戸市灘区","city_kana":"コウベシナダク","town":"浜田町","town_kana":"ハマダチョウ","prefecture_code":28},"0802":{"zip_code":"6570802","prefecture":"兵庫県","prefecture_kana":"ヒョウゴケン","city":"神戸市灘区","city_kana":"コウベシナダク","town":"原田","town_kana":"ハラダ","prefecture_code":28},"0837":{"zip_code":"6570837","prefecture":"兵庫県","prefecture_kana":"ヒョウゴケン","city":"神戸市灘区","city_kana":"コウベシナダク","town":"原田通","town_kana":"ハラダドオリ","prefecture_code":28},"0054":{"zip_code":"6570054","prefecture":"兵庫県","prefecture_kana":"ヒョウゴケン","city":"神戸市灘区","city_kana":"コウベシナダク","town":"稗原町","town_kana":"ヒエハラチョウ","prefecture_code":28},"0029":{"zip_code":"6570029","prefecture":"兵庫県","prefecture_kana":"ヒョウゴケン","city":"神戸市灘区","city_kana":"コウベシナダク","town":"日尾町","town_kana":"ヒオチョウ","prefecture_code":28},"0041":{"zip_code":"6570041","prefecture":"兵庫県","prefecture_kana":"ヒョウゴケン","city":"神戸市灘区","city_kana":"コウベシナダク","town":"琵琶町","town_kana":"ビワチョウ","prefecture_code":28},"0037":{"zip_code":"6570037","prefecture":"兵庫県","prefecture_kana":"ヒョウゴケン","city":"神戸市灘区","city_kana":"コウベシナダク","town":"備後町","town_kana":"ビンゴチョウ","prefecture_code":28},"0038":{"zip_code":"6570038","prefecture":"兵庫県","prefecture_kana":"ヒョウゴケン","city":"神戸市灘区","city_kana":"コウベシナダク","town":"深田町","town_kana":"フカダチョウ","prefecture_code":28},"0824":{"zip_code":"6570824","prefecture":"兵庫県","prefecture_kana":"ヒョウゴケン","city":"神戸市灘区","city_kana":"コウベシナダク","town":"福住通","town_kana":"フクズミドオリ","prefecture_code":28},"0842":{"zip_code":"6570842","prefecture":"兵庫県","prefecture_kana":"ヒョウゴケン","city":"神戸市灘区","city_kana":"コウベシナダク","town":"船寺通","town_kana":"フナデラドオリ","prefecture_code":28},"0855":{"zip_code":"6570855","prefecture":"兵庫県","prefecture_kana":"ヒョウゴケン","city":"神戸市灘区","city_kana":"コウベシナダク","town":"摩耶海岸通","town_kana":"マヤカイガンドオリ","prefecture_code":28},"0104":{"zip_code":"6570104","prefecture":"兵庫県","prefecture_kana":"ヒョウゴケン","city":"神戸市灘区","city_kana":"コウベシナダク","town":"摩耶山","town_kana":"マヤサン","prefecture_code":28},"0105":{"zip_code":"6570105","prefecture":"兵庫県","prefecture_kana":"ヒョウゴケン","city":"神戸市灘区","city_kana":"コウベシナダク","town":"摩耶山町","town_kana":"マヤサンチョウ","prefecture_code":28},"0854":{"zip_code":"6570854","prefecture":"兵庫県","prefecture_kana":"ヒョウゴケン","city":"神戸市灘区","city_kana":"コウベシナダク","town":"摩耶埠頭","town_kana":"マヤフトウ","prefecture_code":28},"0851":{"zip_code":"6570851","prefecture":"兵庫県","prefecture_kana":"ヒョウゴケン","city":"神戸市灘区","city_kana":"コウベシナダク","town":"味泥町","town_kana":"ミドロチョウ","prefecture_code":28},"0812":{"zip_code":"6570812","prefecture":"兵庫県","prefecture_kana":"ヒョウゴケン","city":"神戸市灘区","city_kana":"コウベシナダク","town":"箕岡通","town_kana":"ミノオカドオリ","prefecture_code":28},"0844":{"zip_code":"6570844","prefecture":"兵庫県","prefecture_kana":"ヒョウゴケン","city":"神戸市灘区","city_kana":"コウベシナダク","town":"都通","town_kana":"ミヤコドオリ","prefecture_code":28},"0065":{"zip_code":"6570065","prefecture":"兵庫県","prefecture_kana":"ヒョウゴケン","city":"神戸市灘区","city_kana":"コウベシナダク","town":"宮山町","town_kana":"ミヤヤマチョウ","prefecture_code":28},"0028":{"zip_code":"6570028","prefecture":"兵庫県","prefecture_kana":"ヒョウゴケン","city":"神戸市灘区","city_kana":"コウベシナダク","town":"森後町","town_kana":"モリゴチョウ","prefecture_code":28},"0815":{"zip_code":"6570815","prefecture":"兵庫県","prefecture_kana":"ヒョウゴケン","city":"神戸市灘区","city_kana":"コウベシナダク","town":"薬師通","town_kana":"ヤクシドオリ","prefecture_code":28},"0051":{"zip_code":"6570051","prefecture":"兵庫県","prefecture_kana":"ヒョウゴケン","city":"神戸市灘区","city_kana":"コウベシナダク","town":"八幡町","town_kana":"ヤハタチョウ","prefecture_code":28},"0064":{"zip_code":"6570064","prefecture":"兵庫県","prefecture_kana":"ヒョウゴケン","city":"神戸市灘区","city_kana":"コウベシナダク","town":"山田町","town_kana":"ヤマダチョウ","prefecture_code":28},"0031":{"zip_code":"6570031","prefecture":"兵庫県","prefecture_kana":"ヒョウゴケン","city":"神戸市灘区","city_kana":"コウベシナダク","town":"大和町","town_kana":"ヤマトチョウ","prefecture_code":28},"0026":{"zip_code":"6570026","prefecture":"兵庫県","prefecture_kana":"ヒョウゴケン","city":"神戸市灘区","city_kana":"コウベシナダク","town":"弓木町","town_kana":"ユミノキチョウ","prefecture_code":28},"0101":{"zip_code":"6570101","prefecture":"兵庫県","prefecture_kana":"ヒョウゴケン","city":"神戸市灘区","city_kana":"コウベシナダク","town":"六甲山町","town_kana":"ロッコウサンチョウ","prefecture_code":28},"0013":{"zip_code":"6570013","prefecture":"兵庫県","prefecture_kana":"ヒョウゴケン","city":"神戸市灘区","city_kana":"コウベシナダク","town":"六甲台町","town_kana":"ロッコウダイチョウ","prefecture_code":28},"0053":{"zip_code":"6570053","prefecture":"兵庫県","prefecture_kana":"ヒョウゴケン","city":"神戸市灘区","city_kana":"コウベシナダク","town":"六甲町","town_kana":"ロッコウチョウ","prefecture_code":28}}