{"0000":{"zip_code":"6600000","prefecture":"兵庫県","prefecture_kana":"ヒョウゴケン","city":"尼崎市","city_kana":"アマガサキシ","town":"","town_kana":"","prefecture_code":28},"0064":{"zip_code":"6600064","prefecture":"兵庫県","prefecture_kana":"ヒョウゴケン","city":"尼崎市","city_kana":"アマガサキシ","town":"稲葉荘","town_kana":"イナバソウ","prefecture_code":28},"0055":{"zip_code":"6600055","prefecture":"兵庫県","prefecture_kana":"ヒョウゴケン","city":"尼崎市","city_kana":"アマガサキシ","town":"稲葉元町","town_kana":"イナバモトマチ","prefecture_code":28},"0812":{"zip_code":"6600812","prefecture":"兵庫県","prefecture_kana":"ヒョウゴケン","city":"尼崎市","city_kana":"アマガサキシ","town":"今福","town_kana":"イマフク","prefecture_code":28},"0096":{"zip_code":"6600096","prefecture":"兵庫県","prefecture_kana":"ヒョウゴケン","city":"尼崎市","city_kana":"アマガサキシ","town":"扇町","town_kana":"オウギマチ","prefecture_code":28},"0076":{"zip_code":"6600076","prefecture":"兵庫県","prefecture_kana":"ヒョウゴケン","city":"尼崎市","city_kana":"アマガサキシ","town":"大島","town_kana":"オオシマ","prefecture_code":28},"0072":{"zip_code":"6600072","prefecture":"兵庫県","prefecture_kana":"ヒョウゴケン","city":"尼崎市","city_kana":"アマガサキシ","town":"大庄川田町","town_kana":"オオショウカワタチョウ","prefecture_code":28},"0075":{"zip_code":"6600075","prefecture":"兵庫県","prefecture_kana":"ヒョウゴケン","city":"尼崎市","city_kana":"アマガサキシ","town":"大庄中通","town_kana":"オオショウナカドオリ","prefecture_code":28},"0077":{"zip_code":"6600077","prefecture":"兵庫県","prefecture_kana":"ヒョウゴケン","city":"尼崎市","city_kana":"アマガサキシ","town":"大庄西町","town_kana":"オオショウニシマチ","prefecture_code":28},"0063":{"zip_code":"6600063","prefecture":"兵庫県","prefecture_kana":"ヒョウゴケン","city":"尼崎市","city_kana":"アマガサキシ","town":"大庄北","town_kana":"オオショウキタ","prefecture_code":28},"0842":{"zip_code":"6600842","prefecture":"兵庫県","prefecture_kana":"ヒョウゴケン","city":"尼崎市","city_kana":"アマガサキシ","town":"大高洲町","town_kana":"オオタカスチョウ","prefecture_code":28},"0095":{"zip_code":"6600095","prefecture":"兵庫県","prefecture_kana":"ヒョウゴケン","city":"尼崎市","city_kana":"アマガサキシ","town":"大浜町","town_kana":"オオハマチョウ","prefecture_code":28},"0862":{"zip_code":"6600862","prefecture":"兵庫県","prefecture_kana":"ヒョウゴケン","city":"尼崎市","city_kana":"アマガサキシ","town":"開明町","town_kana":"カイメイチョウ","prefecture_code":28},"0821":{"zip_code":"6600821","prefecture":"兵庫県","prefecture_kana":"ヒョウゴケン","city":"尼崎市","city_kana":"アマガサキシ","town":"梶ケ島","town_kana":"カジガシマ","prefecture_code":28},"0884":{"zip_code":"6600884","prefecture":"兵庫県","prefecture_kana":"ヒョウゴケン","city":"尼崎市","city_kana":"アマガサキシ","town":"神田中通","town_kana":"カンダナカドオリ","prefecture_code":28},"0885":{"zip_code":"6600885","prefecture":"兵庫県","prefecture_kana":"ヒョウゴケン","city":"尼崎市","city_kana":"アマガサキシ","town":"神田南通","town_kana":"カンダミナミドオリ","prefecture_code":28},"0883":{"zip_code":"6600883","prefecture":"兵庫県","prefecture_kana":"ヒョウゴケン","city":"尼崎市","city_kana":"アマガサキシ","town":"神田北通","town_kana":"カンダキタドオリ","prefecture_code":28},"0826":{"zip_code":"6600826","prefecture":"兵庫県","prefecture_kana":"ヒョウゴケン","city":"尼崎市","city_kana":"アマガサキシ","town":"北城内","town_kana":"キタジョウナイ","prefecture_code":28},"0878":{"zip_code":"6600878","prefecture":"兵庫県","prefecture_kana":"ヒョウゴケン","city":"尼崎市","city_kana":"アマガサキシ","town":"北竹谷町","town_kana":"キタタケヤチョウ","prefecture_code":28},"0804":{"zip_code":"6600804","prefecture":"兵庫県","prefecture_kana":"ヒョウゴケン","city":"尼崎市","city_kana":"アマガサキシ","town":"北大物町","town_kana":"キタダイモツチョウ","prefecture_code":28},"0834":{"zip_code":"6600834","prefecture":"兵庫県","prefecture_kana":"ヒョウゴケン","city":"尼崎市","city_kana":"アマガサキシ","town":"北初島町","town_kana":"キタハツシマチョウ","prefecture_code":28},"0806":{"zip_code":"6600806","prefecture":"兵庫県","prefecture_kana":"ヒョウゴケン","city":"尼崎市","city_kana":"アマガサキシ","town":"金楽寺町","town_kana":"キンラクジチョウ","prefecture_code":28},"0813":{"zip_code":"6600813","prefecture":"兵庫県","prefecture_kana":"ヒョウゴケン","city":"尼崎市","city_kana":"アマガサキシ","town":"杭瀬寺島","town_kana":"クイセテラジマ","prefecture_code":28},"0814":{"zip_code":"6600814","prefecture":"兵庫県","prefecture_kana":"ヒョウゴケン","city":"尼崎市","city_kana":"アマガサキシ","town":"杭瀬本町","town_kana":"クイセホンマチ","prefecture_code":28},"0822":{"zip_code":"6600822","prefecture":"兵庫県","prefecture_kana":"ヒョウゴケン","city":"尼崎市","city_kana":"アマガサキシ","town":"杭瀬南新町","town_kana":"クイセミナミシンマチ","prefecture_code":28},"0815":{"zip_code":"6600815","prefecture":"兵庫県","prefecture_kana":"ヒョウゴケン","city":"尼崎市","city_kana":"アマガサキシ","town":"杭瀬北新町","town_kana":"クイセキタシンマチ","prefecture_code":28},"0873":{"zip_code":"6600873","prefecture":"兵庫県","prefecture_kana":"ヒョウゴケン","city":"尼崎市","city_kana":"アマガサキシ","town":"玄番南之町","town_kana":"ゲンバンミナミノチョウ","prefecture_code":28},"0872":{"zip_code":"6600872","prefecture":"兵庫県","prefecture_kana":"ヒョウゴケン","city":"尼崎市","city_kana":"アマガサキシ","town":"玄番北之町","town_kana":"ゲンバンキタノチョウ","prefecture_code":28},"0074":{"zip_code":"6600074","prefecture":"兵庫県","prefecture_kana":"ヒョウゴケン","city":"尼崎市","city_kana":"アマガサキシ","town":"琴浦町","town_kana":"コトウラチョウ","prefecture_code":28},"0808":{"zip_code":"6600808","prefecture":"兵庫県","prefecture_kana":"ヒョウゴケン","city":"尼崎市","city_kana":"アマガサキシ","town":"潮江","town_kana":"シオエ","prefecture_code":28},"0866":{"zip_code":"6600866","prefecture":"兵庫県","prefecture_kana":"ヒョウゴケン","city":"尼崎市","city_kana":"アマガサキシ","town":"汐町","town_kana":"シオマチ","prefecture_code":28},"0811":{"zip_code":"6600811","prefecture":"兵庫県","prefecture_kana":"ヒョウゴケン","city":"尼崎市","city_kana":"アマガサキシ","town":"常光寺","town_kana":"ジョウコウジ","prefecture_code":28},"0881":{"zip_code":"6600881","prefecture":"兵庫県","prefecture_kana":"ヒョウゴケン","city":"尼崎市","city_kana":"アマガサキシ","town":"昭和通","town_kana":"ショウワドオリ","prefecture_code":28},"0882":{"zip_code":"6600882","prefecture":"兵庫県","prefecture_kana":"ヒョウゴケン","city":"尼崎市","city_kana":"アマガサキシ","town":"昭和南通","town_kana":"ショウワミナミドオリ","prefecture_code":28},"0082":{"zip_code":"6600082","prefecture":"兵庫県","prefecture_kana":"ヒョウゴケン","city":"尼崎市","city_kana":"アマガサキシ","town":"水明町","town_kana":"スイメイチョウ","prefecture_code":28},"0094":{"zip_code":"6600094","prefecture":"兵庫県","prefecture_kana":"ヒョウゴケン","city":"尼崎市","city_kana":"アマガサキシ","town":"末広町","town_kana":"スエヒロチョウ","prefecture_code":28},"0071":{"zip_code":"6600071","prefecture":"兵庫県","prefecture_kana":"ヒョウゴケン","city":"尼崎市","city_kana":"アマガサキシ","town":"崇徳院","town_kana":"ストクイン","prefecture_code":28},"0823":{"zip_code":"6600823","prefecture":"兵庫県","prefecture_kana":"ヒョウゴケン","city":"尼崎市","city_kana":"アマガサキシ","town":"大物町","town_kana":"ダイモツチョウ","prefecture_code":28},"0876":{"zip_code":"6600876","prefecture":"兵庫県","prefecture_kana":"ヒョウゴケン","city":"尼崎市","city_kana":"アマガサキシ","town":"竹谷町","town_kana":"タケヤチョウ","prefecture_code":28},"0871":{"zip_code":"6600871","prefecture":"兵庫県","prefecture_kana":"ヒョウゴケン","city":"尼崎市","city_kana":"アマガサキシ","town":"建家町","town_kana":"タテヤチョウ","prefecture_code":28},"0858":{"zip_code":"6600858","prefecture":"兵庫県","prefecture_kana":"ヒョウゴケン","city":"尼崎市","city_kana":"アマガサキシ","town":"築地","town_kana":"ツキジ","prefecture_code":28},"0092":{"zip_code":"6600092","prefecture":"兵庫県","prefecture_kana":"ヒョウゴケン","city":"尼崎市","city_kana":"アマガサキシ","town":"鶴町","town_kana":"ツルマチ","prefecture_code":28},"0867":{"zip_code":"6600867","prefecture":"兵庫県","prefecture_kana":"ヒョウゴケン","city":"尼崎市","city_kana":"アマガサキシ","town":"寺町","town_kana":"テラマチ","prefecture_code":28},"0083":{"zip_code":"6600083","prefecture":"兵庫県","prefecture_kana":"ヒョウゴケン","city":"尼崎市","city_kana":"アマガサキシ","town":"道意町","town_kana":"ドイチョウ","prefecture_code":28},"0851":{"zip_code":"6600851","prefecture":"兵庫県","prefecture_kana":"ヒョウゴケン","city":"尼崎市","city_kana":"アマガサキシ","town":"中在家町","town_kana":"ナカザイケチョウ","prefecture_code":28},"0091":{"zip_code":"6600091","prefecture":"兵庫県","prefecture_kana":"ヒョウゴケン","city":"尼崎市","city_kana":"アマガサキシ","town":"中浜町","town_kana":"ナカハマチョウ","prefecture_code":28},"0802":{"zip_code":"6600802","prefecture":"兵庫県","prefecture_kana":"ヒョウゴケン","city":"尼崎市","city_kana":"アマガサキシ","town":"長洲中通","town_kana":"ナガスナカドオリ","prefecture_code":28},"0801":{"zip_code":"6600801","prefecture":"兵庫県","prefecture_kana":"ヒョウゴケン","city":"尼崎市","city_kana":"アマガサキシ","town":"長洲東通","town_kana":"ナガスヒガシドオリ","prefecture_code":28},"0807":{"zip_code":"6600807","prefecture":"兵庫県","prefecture_kana":"ヒョウゴケン","city":"尼崎市","city_kana":"アマガサキシ","town":"長洲西通","town_kana":"ナガスニシドオリ","prefecture_code":28},"0803":{"zip_code":"6600803","prefecture":"兵庫県","prefecture_kana":"ヒョウゴケン","city":"尼崎市","city_kana":"アマガサキシ","town":"長洲本通","town_kana":"ナガスホンドオリ","prefecture_code":28},"0073":{"zip_code":"6600073","prefecture":"兵庫県","prefecture_kana":"ヒョウゴケン","city":"尼崎市","city_kana":"アマガサキシ","town":"菜切山町","town_kana":"ナキリヤマチョウ","prefecture_code":28},"0052":{"zip_code":"6600052","prefecture":"兵庫県","prefecture_kana":"ヒョウゴケン","city":"尼崎市","city_kana":"アマガサキシ","town":"七松町","town_kana":"ナナマツチョウ","prefecture_code":28},"0093":{"zip_code":"6600093","prefecture":"兵庫県","prefecture_kana":"ヒョウゴケン","city":"尼崎市","city_kana":"アマガサキシ","town":"西海岸町","town_kana":"ニシカイガンチョウ","prefecture_code":28},"0865":{"zip_code":"6600865","prefecture":"兵庫県","prefecture_kana":"ヒョウゴケン","city":"尼崎市","city_kana":"アマガサキシ","town":"西桜木町","town_kana":"ニシサクラギチョウ","prefecture_code":28},"0845":{"zip_code":"6600845","prefecture":"兵庫県","prefecture_kana":"ヒョウゴケン","city":"尼崎市","city_kana":"アマガサキシ","town":"西高洲町","town_kana":"ニシタカスチョウ","prefecture_code":28},"0054":{"zip_code":"6600054","prefecture":"兵庫県","prefecture_kana":"ヒョウゴケン","city":"尼崎市","city_kana":"アマガサキシ","town":"西立花町","town_kana":"ニシタチバナチョウ","prefecture_code":28},"0827":{"zip_code":"6600827","prefecture":"兵庫県","prefecture_kana":"ヒョウゴケン","city":"尼崎市","city_kana":"アマガサキシ","town":"西大物町","town_kana":"ニシダイモツチョウ","prefecture_code":28},"0805":{"zip_code":"6600805","prefecture":"兵庫県","prefecture_kana":"ヒョウゴケン","city":"尼崎市","city_kana":"アマガサキシ","town":"西長洲町","town_kana":"ニシナガスチョウ","prefecture_code":28},"0893":{"zip_code":"6600893","prefecture":"兵庫県","prefecture_kana":"ヒョウゴケン","city":"尼崎市","city_kana":"アマガサキシ","town":"西難波町","town_kana":"ニシナニワチョウ","prefecture_code":28},"0874":{"zip_code":"6600874","prefecture":"兵庫県","prefecture_kana":"ヒョウゴケン","city":"尼崎市","city_kana":"アマガサキシ","town":"西本町","town_kana":"ニシホンマチ","prefecture_code":28},"0863":{"zip_code":"6600863","prefecture":"兵庫県","prefecture_kana":"ヒョウゴケン","city":"尼崎市","city_kana":"アマガサキシ","town":"西本町北通","town_kana":"ニシホンマチキタドオリ","prefecture_code":28},"0837":{"zip_code":"6600837","prefecture":"兵庫県","prefecture_kana":"ヒョウゴケン","city":"尼崎市","city_kana":"アマガサキシ","town":"西松島町","town_kana":"ニシマツシマチョウ","prefecture_code":28},"0868":{"zip_code":"6600868","prefecture":"兵庫県","prefecture_kana":"ヒョウゴケン","city":"尼崎市","city_kana":"アマガサキシ","town":"西御園町","town_kana":"ニシミソノチョウ","prefecture_code":28},"0857":{"zip_code":"6600857","prefecture":"兵庫県","prefecture_kana":"ヒョウゴケン","city":"尼崎市","city_kana":"アマガサキシ","town":"西向島町","town_kana":"ニシムコウジマチョウ","prefecture_code":28},"0062":{"zip_code":"6600062","prefecture":"兵庫県","prefecture_kana":"ヒョウゴケン","city":"尼崎市","city_kana":"アマガサキシ","town":"浜田町","town_kana":"ハマダチョウ","prefecture_code":28},"0843":{"zip_code":"6600843","prefecture":"兵庫県","prefecture_kana":"ヒョウゴケン","city":"尼崎市","city_kana":"アマガサキシ","town":"東海岸町","town_kana":"ヒガシカイガンチョウ","prefecture_code":28},"0864":{"zip_code":"6600864","prefecture":"兵庫県","prefecture_kana":"ヒョウゴケン","city":"尼崎市","city_kana":"アマガサキシ","town":"東桜木町","town_kana":"ヒガシサクラギチョウ","prefecture_code":28},"0841":{"zip_code":"6600841","prefecture":"兵庫県","prefecture_kana":"ヒョウゴケン","city":"尼崎市","city_kana":"アマガサキシ","town":"東高洲町","town_kana":"ヒガシタカスチョウ","prefecture_code":28},"0828":{"zip_code":"6600828","prefecture":"兵庫県","prefecture_kana":"ヒョウゴケン","city":"尼崎市","city_kana":"アマガサキシ","town":"東大物町","town_kana":"ヒガシダイモツチョウ","prefecture_code":28},"0051":{"zip_code":"6600051","prefecture":"兵庫県","prefecture_kana":"ヒョウゴケン","city":"尼崎市","city_kana":"アマガサキシ","town":"東七松町","town_kana":"ヒガシナナマツチョウ","prefecture_code":28},"0892":{"zip_code":"6600892","prefecture":"兵庫県","prefecture_kana":"ヒョウゴケン","city":"尼崎市","city_kana":"アマガサキシ","town":"東難波町","town_kana":"ヒガシナニワチョウ","prefecture_code":28},"0832":{"zip_code":"6600832","prefecture":"兵庫県","prefecture_kana":"ヒョウゴケン","city":"尼崎市","city_kana":"アマガサキシ","town":"東初島町","town_kana":"ヒガシハツシマチョウ","prefecture_code":28},"0844":{"zip_code":"6600844","prefecture":"兵庫県","prefecture_kana":"ヒョウゴケン","city":"尼崎市","city_kana":"アマガサキシ","town":"東浜町","town_kana":"ヒガシハマチョウ","prefecture_code":28},"0824":{"zip_code":"6600824","prefecture":"兵庫県","prefecture_kana":"ヒョウゴケン","city":"尼崎市","city_kana":"アマガサキシ","town":"東本町","town_kana":"ヒガシホンマチ","prefecture_code":28},"0831":{"zip_code":"6600831","prefecture":"兵庫県","prefecture_kana":"ヒョウゴケン","city":"尼崎市","city_kana":"アマガサキシ","town":"東松島町","town_kana":"ヒガシマツシマチョウ","prefecture_code":28},"0835":{"zip_code":"6600835","prefecture":"兵庫県","prefecture_kana":"ヒョウゴケン","city":"尼崎市","city_kana":"アマガサキシ","town":"東向島東之町","town_kana":"ヒガシムコウジマヒガシノチョウ","prefecture_code":28},"0856":{"zip_code":"6600856","prefecture":"兵庫県","prefecture_kana":"ヒョウゴケン","city":"尼崎市","city_kana":"アマガサキシ","town":"東向島西之町","town_kana":"ヒガシムコウジマニシノチョウ","prefecture_code":28},"0891":{"zip_code":"6600891","prefecture":"兵庫県","prefecture_kana":"ヒョウゴケン","city":"尼崎市","city_kana":"アマガサキシ","town":"扶桑町","town_kana":"フソウチョウ","prefecture_code":28},"0846":{"zip_code":"6600846","prefecture":"兵庫県","prefecture_kana":"ヒョウゴケン","city":"尼崎市","city_kana":"アマガサキシ","town":"船出","town_kana":"フナデ","prefecture_code":28},"0087":{"zip_code":"6600087","prefecture":"兵庫県","prefecture_kana":"ヒョウゴケン","city":"尼崎市","city_kana":"アマガサキシ","town":"平左衛門町","town_kana":"ヘイザエモンチョウ","prefecture_code":28},"0086":{"zip_code":"6600086","prefecture":"兵庫県","prefecture_kana":"ヒョウゴケン","city":"尼崎市","city_kana":"アマガサキシ","town":"丸島町","town_kana":"マルシマチョウ","prefecture_code":28},"0861":{"zip_code":"6600861","prefecture":"兵庫県","prefecture_kana":"ヒョウゴケン","city":"尼崎市","city_kana":"アマガサキシ","town":"御園町","town_kana":"ミソノチョウ","prefecture_code":28},"0825":{"zip_code":"6600825","prefecture":"兵庫県","prefecture_kana":"ヒョウゴケン","city":"尼崎市","city_kana":"アマガサキシ","town":"南城内","town_kana":"ミナミジョウナイ","prefecture_code":28},"0875":{"zip_code":"6600875","prefecture":"兵庫県","prefecture_kana":"ヒョウゴケン","city":"尼崎市","city_kana":"アマガサキシ","town":"南竹谷町","town_kana":"ミナミタケヤチョウ","prefecture_code":28},"0053":{"zip_code":"6600053","prefecture":"兵庫県","prefecture_kana":"ヒョウゴケン","city":"尼崎市","city_kana":"アマガサキシ","town":"南七松町","town_kana":"ミナミナナマツチョウ","prefecture_code":28},"0833":{"zip_code":"6600833","prefecture":"兵庫県","prefecture_kana":"ヒョウゴケン","city":"尼崎市","city_kana":"アマガサキシ","town":"南初島町","town_kana":"ミナミハツシマチョウ","prefecture_code":28},"0877":{"zip_code":"6600877","prefecture":"兵庫県","prefecture_kana":"ヒョウゴケン","city":"尼崎市","city_kana":"アマガサキシ","town":"宮内町","town_kana":"ミヤウチチョウ","prefecture_code":28},"0084":{"zip_code":"6600084","prefecture":"兵庫県","prefecture_kana":"ヒョウゴケン","city":"尼崎市","city_kana":"アマガサキシ","town":"武庫川町","town_kana":"ムコガワチョウ","prefecture_code":28},"0085":{"zip_code":"6600085","prefecture":"兵庫県","prefecture_kana":"ヒョウゴケン","city":"尼崎市","city_kana":"アマガサキシ","town":"元浜町","town_kana":"モトハマチョウ","prefecture_code":28},"0061":{"zip_code":"6600061","prefecture":"兵庫県","prefecture_kana":"ヒョウゴケン","city":"尼崎市","city_kana":"アマガサキシ","town":"蓬川荘園","town_kana":"ヨモガワソウエン","prefecture_code":28},"0081":{"zip_code":"6600081","prefecture":"兵庫県","prefecture_kana":"ヒョウゴケン","city":"尼崎市","city_kana":"アマガサキシ","town":"蓬川町","town_kana":"ヨモガワチョウ","prefecture_code":28}}