{"0981":{"zip_code":"6610981","prefecture":"兵庫県","prefecture_kana":"ヒョウゴケン","city":"尼崎市","city_kana":"アマガサキシ","town":"猪名寺","town_kana":"イナデラ","prefecture_code":28},"0023":{"zip_code":"6610023","prefecture":"兵庫県","prefecture_kana":"ヒョウゴケン","city":"尼崎市","city_kana":"アマガサキシ","town":"大西町","town_kana":"オオニシチョウ","prefecture_code":28},"0022":{"zip_code":"6610022","prefecture":"兵庫県","prefecture_kana":"ヒョウゴケン","city":"尼崎市","city_kana":"アマガサキシ","town":"尾浜町","town_kana":"オハマチョウ","prefecture_code":28},"0979":{"zip_code":"6610979","prefecture":"兵庫県","prefecture_kana":"ヒョウゴケン","city":"尼崎市","city_kana":"アマガサキシ","town":"上坂部","town_kana":"カミサカベ","prefecture_code":28},"0014":{"zip_code":"6610014","prefecture":"兵庫県","prefecture_kana":"ヒョウゴケン","city":"尼崎市","city_kana":"アマガサキシ","town":"上ノ島町","town_kana":"カミノシマチョウ","prefecture_code":28},"0971":{"zip_code":"6610971","prefecture":"兵庫県","prefecture_kana":"ヒョウゴケン","city":"尼崎市","city_kana":"アマガサキシ","town":"瓦宮","town_kana":"カワラノミヤ","prefecture_code":28},"0964":{"zip_code":"6610964","prefecture":"兵庫県","prefecture_kana":"ヒョウゴケン","city":"尼崎市","city_kana":"アマガサキシ","town":"神崎町","town_kana":"カンザキチョウ","prefecture_code":28},"0977":{"zip_code":"6610977","prefecture":"兵庫県","prefecture_kana":"ヒョウゴケン","city":"尼崎市","city_kana":"アマガサキシ","town":"久々知","town_kana":"ククチ","prefecture_code":28},"0978":{"zip_code":"6610978","prefecture":"兵庫県","prefecture_kana":"ヒョウゴケン","city":"尼崎市","city_kana":"アマガサキシ","town":"久々知西町","town_kana":"ククチニシマチ","prefecture_code":28},"0983":{"zip_code":"6610983","prefecture":"兵庫県","prefecture_kana":"ヒョウゴケン","city":"尼崎市","city_kana":"アマガサキシ","town":"口田中","town_kana":"クチタナカ","prefecture_code":28},"0013":{"zip_code":"6610013","prefecture":"兵庫県","prefecture_kana":"ヒョウゴケン","city":"尼崎市","city_kana":"アマガサキシ","town":"栗山町","town_kana":"クリヤマチョウ","prefecture_code":28},"0982":{"zip_code":"6610982","prefecture":"兵庫県","prefecture_kana":"ヒョウゴケン","city":"尼崎市","city_kana":"アマガサキシ","town":"食満","town_kana":"ケマ","prefecture_code":28},"0972":{"zip_code":"6610972","prefecture":"兵庫県","prefecture_kana":"ヒョウゴケン","city":"尼崎市","city_kana":"アマガサキシ","town":"小中島","town_kana":"コナカジマ","prefecture_code":28},"0024":{"zip_code":"6610024","prefecture":"兵庫県","prefecture_kana":"ヒョウゴケン","city":"尼崎市","city_kana":"アマガサキシ","town":"三反田町","town_kana":"サンタンダチョウ","prefecture_code":28},"0976":{"zip_code":"6610976","prefecture":"兵庫県","prefecture_kana":"ヒョウゴケン","city":"尼崎市","city_kana":"アマガサキシ","town":"潮江（その他）","town_kana":"シオエ(ソノタ)","prefecture_code":28},"0952":{"zip_code":"6610952","prefecture":"兵庫県","prefecture_kana":"ヒョウゴケン","city":"尼崎市","city_kana":"アマガサキシ","town":"椎堂","town_kana":"シドウ","prefecture_code":28},"0975":{"zip_code":"6610975","prefecture":"兵庫県","prefecture_kana":"ヒョウゴケン","city":"尼崎市","city_kana":"アマガサキシ","town":"下坂部","town_kana":"シモサカベ","prefecture_code":28},"0973":{"zip_code":"6610973","prefecture":"兵庫県","prefecture_kana":"ヒョウゴケン","city":"尼崎市","city_kana":"アマガサキシ","town":"善法寺町","town_kana":"ゼンポウジチョウ","prefecture_code":28},"0963":{"zip_code":"6610963","prefecture":"兵庫県","prefecture_kana":"ヒョウゴケン","city":"尼崎市","city_kana":"アマガサキシ","town":"高田町","town_kana":"タカタチョウ","prefecture_code":28},"0025":{"zip_code":"6610025","prefecture":"兵庫県","prefecture_kana":"ヒョウゴケン","city":"尼崎市","city_kana":"アマガサキシ","town":"立花町","town_kana":"タチバナチョウ","prefecture_code":28},"0951":{"zip_code":"6610951","prefecture":"兵庫県","prefecture_kana":"ヒョウゴケン","city":"尼崎市","city_kana":"アマガサキシ","town":"田能","town_kana":"タノウ","prefecture_code":28},"0002":{"zip_code":"6610002","prefecture":"兵庫県","prefecture_kana":"ヒョウゴケン","city":"尼崎市","city_kana":"アマガサキシ","town":"塚口町","town_kana":"ツカグチチョウ","prefecture_code":28},"0001":{"zip_code":"6610001","prefecture":"兵庫県","prefecture_kana":"ヒョウゴケン","city":"尼崎市","city_kana":"アマガサキシ","town":"塚口本町","town_kana":"ツカグチホンマチ","prefecture_code":28},"0965":{"zip_code":"6610965","prefecture":"兵庫県","prefecture_kana":"ヒョウゴケン","city":"尼崎市","city_kana":"アマガサキシ","town":"次屋","town_kana":"ツギヤ","prefecture_code":28},"0046":{"zip_code":"6610046","prefecture":"兵庫県","prefecture_kana":"ヒョウゴケン","city":"尼崎市","city_kana":"アマガサキシ","town":"常松","town_kana":"ツネマツ","prefecture_code":28},"0042":{"zip_code":"6610042","prefecture":"兵庫県","prefecture_kana":"ヒョウゴケン","city":"尼崎市","city_kana":"アマガサキシ","town":"常吉","town_kana":"ツネヨシ","prefecture_code":28},"0961":{"zip_code":"6610961","prefecture":"兵庫県","prefecture_kana":"ヒョウゴケン","city":"尼崎市","city_kana":"アマガサキシ","town":"戸ノ内町","town_kana":"トノウチチョウ","prefecture_code":28},"0003":{"zip_code":"6610003","prefecture":"兵庫県","prefecture_kana":"ヒョウゴケン","city":"尼崎市","city_kana":"アマガサキシ","town":"富松町","town_kana":"トマツチョウ","prefecture_code":28},"0974":{"zip_code":"6610974","prefecture":"兵庫県","prefecture_kana":"ヒョウゴケン","city":"尼崎市","city_kana":"アマガサキシ","town":"若王寺","town_kana":"ナコウジ","prefecture_code":28},"0966":{"zip_code":"6610966","prefecture":"兵庫県","prefecture_kana":"ヒョウゴケン","city":"尼崎市","city_kana":"アマガサキシ","town":"西川","town_kana":"ニシカワ","prefecture_code":28},"0047":{"zip_code":"6610047","prefecture":"兵庫県","prefecture_kana":"ヒョウゴケン","city":"尼崎市","city_kana":"アマガサキシ","town":"西昆陽","town_kana":"ニシコヤ","prefecture_code":28},"0962":{"zip_code":"6610962","prefecture":"兵庫県","prefecture_kana":"ヒョウゴケン","city":"尼崎市","city_kana":"アマガサキシ","town":"額田町","town_kana":"ヌカタチョウ","prefecture_code":28},"0967":{"zip_code":"6610967","prefecture":"兵庫県","prefecture_kana":"ヒョウゴケン","city":"尼崎市","city_kana":"アマガサキシ","town":"浜","town_kana":"ハマ","prefecture_code":28},"0953":{"zip_code":"6610953","prefecture":"兵庫県","prefecture_kana":"ヒョウゴケン","city":"尼崎市","city_kana":"アマガサキシ","town":"東園田町","town_kana":"ヒガシソノダチョウ","prefecture_code":28},"0011":{"zip_code":"6610011","prefecture":"兵庫県","prefecture_kana":"ヒョウゴケン","city":"尼崎市","city_kana":"アマガサキシ","town":"東塚口町","town_kana":"ヒガシツカグチチョウ","prefecture_code":28},"0026":{"zip_code":"6610026","prefecture":"兵庫県","prefecture_kana":"ヒョウゴケン","city":"尼崎市","city_kana":"アマガサキシ","town":"水堂町","town_kana":"ミズドウチョウ","prefecture_code":28},"0984":{"zip_code":"6610984","prefecture":"兵庫県","prefecture_kana":"ヒョウゴケン","city":"尼崎市","city_kana":"アマガサキシ","town":"御園","town_kana":"ミソノ","prefecture_code":28},"0985":{"zip_code":"6610985","prefecture":"兵庫県","prefecture_kana":"ヒョウゴケン","city":"尼崎市","city_kana":"アマガサキシ","town":"南清水","town_kana":"ミナミシミズ","prefecture_code":28},"0012":{"zip_code":"6610012","prefecture":"兵庫県","prefecture_kana":"ヒョウゴケン","city":"尼崎市","city_kana":"アマガサキシ","town":"南塚口町","town_kana":"ミナミツカグチチョウ","prefecture_code":28},"0033":{"zip_code":"6610033","prefecture":"兵庫県","prefecture_kana":"ヒョウゴケン","city":"尼崎市","city_kana":"アマガサキシ","town":"南武庫之荘","town_kana":"ミナミムコノソウ","prefecture_code":28},"0044":{"zip_code":"6610044","prefecture":"兵庫県","prefecture_kana":"ヒョウゴケン","city":"尼崎市","city_kana":"アマガサキシ","town":"武庫町","town_kana":"ムコチョウ","prefecture_code":28},"0041":{"zip_code":"6610041","prefecture":"兵庫県","prefecture_kana":"ヒョウゴケン","city":"尼崎市","city_kana":"アマガサキシ","town":"武庫の里","town_kana":"ムコノサト","prefecture_code":28},"0035":{"zip_code":"6610035","prefecture":"兵庫県","prefecture_kana":"ヒョウゴケン","city":"尼崎市","city_kana":"アマガサキシ","town":"武庫之荘","town_kana":"ムコノソウ","prefecture_code":28},"0031":{"zip_code":"6610031","prefecture":"兵庫県","prefecture_kana":"ヒョウゴケン","city":"尼崎市","city_kana":"アマガサキシ","town":"武庫之荘本町","town_kana":"ムコノソウホンマチ","prefecture_code":28},"0032":{"zip_code":"6610032","prefecture":"兵庫県","prefecture_kana":"ヒョウゴケン","city":"尼崎市","city_kana":"アマガサキシ","town":"武庫之荘東","town_kana":"ムコノソウヒガシ","prefecture_code":28},"0034":{"zip_code":"6610034","prefecture":"兵庫県","prefecture_kana":"ヒョウゴケン","city":"尼崎市","city_kana":"アマガサキシ","town":"武庫之荘西","town_kana":"ムコノソウニシ","prefecture_code":28},"0043":{"zip_code":"6610043","prefecture":"兵庫県","prefecture_kana":"ヒョウゴケン","city":"尼崎市","city_kana":"アマガサキシ","town":"武庫元町","town_kana":"ムコモトマチ","prefecture_code":28},"0045":{"zip_code":"6610045","prefecture":"兵庫県","prefecture_kana":"ヒョウゴケン","city":"尼崎市","city_kana":"アマガサキシ","town":"武庫豊町","town_kana":"ムコユタカマチ","prefecture_code":28},"0021":{"zip_code":"6610021","prefecture":"兵庫県","prefecture_kana":"ヒョウゴケン","city":"尼崎市","city_kana":"アマガサキシ","town":"名神町","town_kana":"メイシンチョウ","prefecture_code":28},"0970":{"zip_code":"6610970","prefecture":"兵庫県","prefecture_kana":"ヒョウゴケン","city":"尼崎市","city_kana":"アマガサキシ","town":"弥生ケ丘町","town_kana":"ヤヨイガオカチョウ","prefecture_code":28}}