{"0000":{"zip_code":"6620000","prefecture":"兵庫県","prefecture_kana":"ヒョウゴケン","city":"西宮市","city_kana":"ニシノミヤシ","town":"以下に掲載がない場合","town_kana":"イカニケイサイガナイバアイ","prefecture_code":28},"0063":{"zip_code":"6620063","prefecture":"兵庫県","prefecture_kana":"ヒョウゴケン","city":"西宮市","city_kana":"ニシノミヤシ","town":"相生町","town_kana":"アイオイチョウ","prefecture_code":28},"0862":{"zip_code":"6620862","prefecture":"兵庫県","prefecture_kana":"ヒョウゴケン","city":"西宮市","city_kana":"ニシノミヤシ","town":"青木町","town_kana":"アオキチョウ","prefecture_code":28},"0925":{"zip_code":"6620925","prefecture":"兵庫県","prefecture_kana":"ヒョウゴケン","city":"西宮市","city_kana":"ニシノミヤシ","town":"朝凪町","town_kana":"アサナギチョウ","prefecture_code":28},"0842":{"zip_code":"6620842","prefecture":"兵庫県","prefecture_kana":"ヒョウゴケン","city":"西宮市","city_kana":"ニシノミヤシ","town":"芦原町","town_kana":"アシハラチョウ","prefecture_code":28},"0871":{"zip_code":"6620871","prefecture":"兵庫県","prefecture_kana":"ヒョウゴケン","city":"西宮市","city_kana":"ニシノミヤシ","town":"愛宕山","town_kana":"アタゴヤマ","prefecture_code":28},"0946":{"zip_code":"6620946","prefecture":"兵庫県","prefecture_kana":"ヒョウゴケン","city":"西宮市","city_kana":"ニシノミヤシ","town":"荒戎町","town_kana":"アラエビスチョウ","prefecture_code":28},"0911":{"zip_code":"6620911","prefecture":"兵庫県","prefecture_kana":"ヒョウゴケン","city":"西宮市","city_kana":"ニシノミヤシ","town":"池田町","town_kana":"イケダチョウ","prefecture_code":28},"0928":{"zip_code":"6620928","prefecture":"兵庫県","prefecture_kana":"ヒョウゴケン","city":"西宮市","city_kana":"ニシノミヤシ","town":"石在町","town_kana":"イシザイチョウ","prefecture_code":28},"0074":{"zip_code":"6620074","prefecture":"兵庫県","prefecture_kana":"ヒョウゴケン","city":"西宮市","city_kana":"ニシノミヤシ","town":"石刎町","town_kana":"イシバネチョウ","prefecture_code":28},"0932":{"zip_code":"6620932","prefecture":"兵庫県","prefecture_kana":"ヒョウゴケン","city":"西宮市","city_kana":"ニシノミヤシ","town":"泉町","town_kana":"イズミチョウ","prefecture_code":28},"0873":{"zip_code":"6620873","prefecture":"兵庫県","prefecture_kana":"ヒョウゴケン","city":"西宮市","city_kana":"ニシノミヤシ","town":"一ケ谷町","town_kana":"イチガヤチョウ","prefecture_code":28},"0975":{"zip_code":"6620975","prefecture":"兵庫県","prefecture_kana":"ヒョウゴケン","city":"西宮市","city_kana":"ニシノミヤシ","town":"市庭町","town_kana":"イチニワチョウ","prefecture_code":28},"0972":{"zip_code":"6620972","prefecture":"兵庫県","prefecture_kana":"ヒョウゴケン","city":"西宮市","city_kana":"ニシノミヤシ","town":"今在家町","town_kana":"イマザイケチョウ","prefecture_code":28},"0886":{"zip_code":"6620886","prefecture":"兵庫県","prefecture_kana":"ヒョウゴケン","city":"西宮市","city_kana":"ニシノミヤシ","town":"上ケ原山田町","town_kana":"ウエガハラヤマダチョウ","prefecture_code":28},"0885":{"zip_code":"6620885","prefecture":"兵庫県","prefecture_kana":"ヒョウゴケン","city":"西宮市","city_kana":"ニシノミヤシ","town":"上ケ原山手町","town_kana":"ウエガハラヤマテチョウ","prefecture_code":28},"0891":{"zip_code":"6620891","prefecture":"兵庫県","prefecture_kana":"ヒョウゴケン","city":"西宮市","city_kana":"ニシノミヤシ","town":"上ケ原一番町","town_kana":"ウエガハラ1バンチョウ","prefecture_code":28},"0892":{"zip_code":"6620892","prefecture":"兵庫県","prefecture_kana":"ヒョウゴケン","city":"西宮市","city_kana":"ニシノミヤシ","town":"上ケ原二番町","town_kana":"ウエガハラ2バンチョウ","prefecture_code":28},"0893":{"zip_code":"6620893","prefecture":"兵庫県","prefecture_kana":"ヒョウゴケン","city":"西宮市","city_kana":"ニシノミヤシ","town":"上ケ原三番町","town_kana":"ウエガハラ3バンチョウ","prefecture_code":28},"0894":{"zip_code":"6620894","prefecture":"兵庫県","prefecture_kana":"ヒョウゴケン","city":"西宮市","city_kana":"ニシノミヤシ","town":"上ケ原四番町","town_kana":"ウエガハラ4バンチョウ","prefecture_code":28},"0895":{"zip_code":"6620895","prefecture":"兵庫県","prefecture_kana":"ヒョウゴケン","city":"西宮市","city_kana":"ニシノミヤシ","town":"上ケ原五番町","town_kana":"ウエガハラ5バンチョウ","prefecture_code":28},"0896":{"zip_code":"6620896","prefecture":"兵庫県","prefecture_kana":"ヒョウゴケン","city":"西宮市","city_kana":"ニシノミヤシ","town":"上ケ原六番町","town_kana":"ウエガハラ6バンチョウ","prefecture_code":28},"0881":{"zip_code":"6620881","prefecture":"兵庫県","prefecture_kana":"ヒョウゴケン","city":"西宮市","city_kana":"ニシノミヤシ","town":"上ケ原七番町","town_kana":"ウエガハラ7バンチョウ","prefecture_code":28},"0882":{"zip_code":"6620882","prefecture":"兵庫県","prefecture_kana":"ヒョウゴケン","city":"西宮市","city_kana":"ニシノミヤシ","town":"上ケ原八番町","town_kana":"ウエガハラ8バンチョウ","prefecture_code":28},"0883":{"zip_code":"6620883","prefecture":"兵庫県","prefecture_kana":"ヒョウゴケン","city":"西宮市","city_kana":"ニシノミヤシ","town":"上ケ原九番町","town_kana":"ウエガハラ9バンチョウ","prefecture_code":28},"0884":{"zip_code":"6620884","prefecture":"兵庫県","prefecture_kana":"ヒョウゴケン","city":"西宮市","city_kana":"ニシノミヤシ","town":"上ケ原十番町","town_kana":"ウエガハラ10バンチョウ","prefecture_code":28},"0855":{"zip_code":"6620855","prefecture":"兵庫県","prefecture_kana":"ヒョウゴケン","city":"西宮市","city_kana":"ニシノミヤシ","town":"江上町","town_kana":"エガミチョウ","prefecture_code":28},"0085":{"zip_code":"6620085","prefecture":"兵庫県","prefecture_kana":"ヒョウゴケン","city":"西宮市","city_kana":"ニシノミヤシ","town":"老松町","town_kana":"オイマツチョウ","prefecture_code":28},"0036":{"zip_code":"6620036","prefecture":"兵庫県","prefecture_kana":"ヒョウゴケン","city":"西宮市","city_kana":"ニシノミヤシ","town":"大井手町","town_kana":"オオイデチョウ","prefecture_code":28},"0054":{"zip_code":"6620054","prefecture":"兵庫県","prefecture_kana":"ヒョウゴケン","city":"西宮市","city_kana":"ニシノミヤシ","town":"大谷町","town_kana":"オオタニチョウ","prefecture_code":28},"0836":{"zip_code":"6620836","prefecture":"兵庫県","prefecture_kana":"ヒョウゴケン","city":"西宮市","city_kana":"ニシノミヤシ","town":"大畑町","town_kana":"オオハタチョウ","prefecture_code":28},"0957":{"zip_code":"6620957","prefecture":"兵庫県","prefecture_kana":"ヒョウゴケン","city":"西宮市","city_kana":"ニシノミヤシ","town":"大浜町","town_kana":"オオハマチョウ","prefecture_code":28},"0827":{"zip_code":"6620827","prefecture":"兵庫県","prefecture_kana":"ヒョウゴケン","city":"西宮市","city_kana":"ニシノミヤシ","town":"岡田山","town_kana":"オカダヤマ","prefecture_code":28},"0022":{"zip_code":"6620022","prefecture":"兵庫県","prefecture_kana":"ヒョウゴケン","city":"西宮市","city_kana":"ニシノミヤシ","town":"奥畑","town_kana":"オクハタ","prefecture_code":28},"0961":{"zip_code":"6620961","prefecture":"兵庫県","prefecture_kana":"ヒョウゴケン","city":"西宮市","city_kana":"ニシノミヤシ","town":"御茶家所町","town_kana":"オチャヤショチョウ","prefecture_code":28},"0977":{"zip_code":"6620977","prefecture":"兵庫県","prefecture_kana":"ヒョウゴケン","city":"西宮市","city_kana":"ニシノミヤシ","town":"神楽町","town_kana":"カグラチョウ","prefecture_code":28},"0052":{"zip_code":"6620052","prefecture":"兵庫県","prefecture_kana":"ヒョウゴケン","city":"西宮市","city_kana":"ニシノミヤシ","town":"霞町","town_kana":"カスミチョウ","prefecture_code":28},"0001":{"zip_code":"6620001","prefecture":"兵庫県","prefecture_kana":"ヒョウゴケン","city":"西宮市","city_kana":"ニシノミヤシ","town":"甲山町","town_kana":"カブトヤマチョウ","prefecture_code":28},"0865":{"zip_code":"6620865","prefecture":"兵庫県","prefecture_kana":"ヒョウゴケン","city":"西宮市","city_kana":"ニシノミヤシ","town":"神垣町","town_kana":"カミガキチョウ","prefecture_code":28},"0813":{"zip_code":"6620813","prefecture":"兵庫県","prefecture_kana":"ヒョウゴケン","city":"西宮市","city_kana":"ニシノミヤシ","town":"上甲東園","town_kana":"カミコウトウエン","prefecture_code":28},"0027":{"zip_code":"6620027","prefecture":"兵庫県","prefecture_kana":"ヒョウゴケン","city":"西宮市","city_kana":"ニシノミヤシ","town":"神園町","town_kana":"カミゾノチョウ","prefecture_code":28},"0954":{"zip_code":"6620954","prefecture":"兵庫県","prefecture_kana":"ヒョウゴケン","city":"西宮市","city_kana":"ニシノミヤシ","town":"上葭原町","town_kana":"カミヨシハラチョウ","prefecture_code":28},"0097":{"zip_code":"6620097","prefecture":"兵庫県","prefecture_kana":"ヒョウゴケン","city":"西宮市","city_kana":"ニシノミヤシ","town":"柏堂町","town_kana":"カヤンドウチョウ","prefecture_code":28},"0098":{"zip_code":"6620098","prefecture":"兵庫県","prefecture_kana":"ヒョウゴケン","city":"西宮市","city_kana":"ニシノミヤシ","town":"柏堂西町","town_kana":"カヤンドウニシマチ","prefecture_code":28},"0944":{"zip_code":"6620944","prefecture":"兵庫県","prefecture_kana":"ヒョウゴケン","city":"西宮市","city_kana":"ニシノミヤシ","town":"川添町","town_kana":"カワゾエチョウ","prefecture_code":28},"0951":{"zip_code":"6620951","prefecture":"兵庫県","prefecture_kana":"ヒョウゴケン","city":"西宮市","city_kana":"ニシノミヤシ","town":"川西町","town_kana":"カワニシチョウ","prefecture_code":28},"0861":{"zip_code":"6620861","prefecture":"兵庫県","prefecture_kana":"ヒョウゴケン","city":"西宮市","city_kana":"ニシノミヤシ","town":"河原町","town_kana":"カワハラチョウ","prefecture_code":28},"0945":{"zip_code":"6620945","prefecture":"兵庫県","prefecture_kana":"ヒョウゴケン","city":"西宮市","city_kana":"ニシノミヤシ","town":"川東町","town_kana":"カワヒガシチョウ","prefecture_code":28},"0823":{"zip_code":"6620823","prefecture":"兵庫県","prefecture_kana":"ヒョウゴケン","city":"西宮市","city_kana":"ニシノミヤシ","town":"神呪町","town_kana":"カンノウチョウ","prefecture_code":28},"0021":{"zip_code":"6620021","prefecture":"兵庫県","prefecture_kana":"ヒョウゴケン","city":"西宮市","city_kana":"ニシノミヤシ","town":"神原","town_kana":"カンバラ","prefecture_code":28},"0078":{"zip_code":"6620078","prefecture":"兵庫県","prefecture_kana":"ヒョウゴケン","city":"西宮市","city_kana":"ニシノミヤシ","town":"菊谷町","town_kana":"キクタニチョウ","prefecture_code":28},"0062":{"zip_code":"6620062","prefecture":"兵庫県","prefecture_kana":"ヒョウゴケン","city":"西宮市","city_kana":"ニシノミヤシ","town":"木津山町","town_kana":"キズヤマチョウ","prefecture_code":28},"0833":{"zip_code":"6620833","prefecture":"兵庫県","prefecture_kana":"ヒョウゴケン","city":"西宮市","city_kana":"ニシノミヤシ","town":"北昭和町","town_kana":"キタショウワチョウ","prefecture_code":28},"0025":{"zip_code":"6620025","prefecture":"兵庫県","prefecture_kana":"ヒョウゴケン","city":"西宮市","city_kana":"ニシノミヤシ","town":"北名次町","town_kana":"キタナツギチョウ","prefecture_code":28},"0091":{"zip_code":"6620091","prefecture":"兵庫県","prefecture_kana":"ヒョウゴケン","city":"西宮市","city_kana":"ニシノミヤシ","town":"北山町","town_kana":"キタヤマチョウ","prefecture_code":28},"0077":{"zip_code":"6620077","prefecture":"兵庫県","prefecture_kana":"ヒョウゴケン","city":"西宮市","city_kana":"ニシノミヤシ","town":"久出ケ谷町","town_kana":"クデガヤチョウ","prefecture_code":28},"0927":{"zip_code":"6620927","prefecture":"兵庫県","prefecture_kana":"ヒョウゴケン","city":"西宮市","city_kana":"ニシノミヤシ","town":"久保町","town_kana":"クボチョウ","prefecture_code":28},"0064":{"zip_code":"6620064","prefecture":"兵庫県","prefecture_kana":"ヒョウゴケン","city":"西宮市","city_kana":"ニシノミヤシ","town":"雲井町","town_kana":"クモイチョウ","prefecture_code":28},"0926":{"zip_code":"6620926","prefecture":"兵庫県","prefecture_kana":"ヒョウゴケン","city":"西宮市","city_kana":"ニシノミヤシ","town":"鞍掛町","town_kana":"クラカケチョウ","prefecture_code":28},"0083":{"zip_code":"6620083","prefecture":"兵庫県","prefecture_kana":"ヒョウゴケン","city":"西宮市","city_kana":"ニシノミヤシ","town":"苦楽園一番町","town_kana":"クラクエン1バンチョウ","prefecture_code":28},"0082":{"zip_code":"6620082","prefecture":"兵庫県","prefecture_kana":"ヒョウゴケン","city":"西宮市","city_kana":"ニシノミヤシ","town":"苦楽園二番町","town_kana":"クラクエン2バンチョウ","prefecture_code":28},"0081":{"zip_code":"6620081","prefecture":"兵庫県","prefecture_kana":"ヒョウゴケン","city":"西宮市","city_kana":"ニシノミヤシ","town":"苦楽園三番町","town_kana":"クラクエン3バンチョウ","prefecture_code":28},"0088":{"zip_code":"6620088","prefecture":"兵庫県","prefecture_kana":"ヒョウゴケン","city":"西宮市","city_kana":"ニシノミヤシ","town":"苦楽園四番町","town_kana":"クラクエン4バンチョウ","prefecture_code":28},"0087":{"zip_code":"6620087","prefecture":"兵庫県","prefecture_kana":"ヒョウゴケン","city":"西宮市","city_kana":"ニシノミヤシ","town":"苦楽園五番町","town_kana":"クラクエン5バンチョウ","prefecture_code":28},"0086":{"zip_code":"6620086","prefecture":"兵庫県","prefecture_kana":"ヒョウゴケン","city":"西宮市","city_kana":"ニシノミヤシ","town":"苦楽園六番町","town_kana":"クラクエン6バンチョウ","prefecture_code":28},"0037":{"zip_code":"6620037","prefecture":"兵庫県","prefecture_kana":"ヒョウゴケン","city":"西宮市","city_kana":"ニシノミヤシ","town":"結善町","town_kana":"ケツゼンチョウ","prefecture_code":28},"0099":{"zip_code":"6620099","prefecture":"兵庫県","prefecture_kana":"ヒョウゴケン","city":"西宮市","city_kana":"ニシノミヤシ","town":"剣谷町","town_kana":"ケンダニチョウ","prefecture_code":28},"0812":{"zip_code":"6620812","prefecture":"兵庫県","prefecture_kana":"ヒョウゴケン","city":"西宮市","city_kana":"ニシノミヤシ","town":"甲東園","town_kana":"コウトウエン","prefecture_code":28},"0832":{"zip_code":"6620832","prefecture":"兵庫県","prefecture_kana":"ヒョウゴケン","city":"西宮市","city_kana":"ニシノミヤシ","town":"甲風園","town_kana":"コウフウエン","prefecture_code":28},"0965":{"zip_code":"6620965","prefecture":"兵庫県","prefecture_kana":"ヒョウゴケン","city":"西宮市","city_kana":"ニシノミヤシ","town":"郷免町","town_kana":"ゴウメンチョウ","prefecture_code":28},"0018":{"zip_code":"6620018","prefecture":"兵庫県","prefecture_kana":"ヒョウゴケン","city":"西宮市","city_kana":"ニシノミヤシ","town":"甲陽園山王町","town_kana":"コウヨウエンサンノウチョウ","prefecture_code":28},"0012":{"zip_code":"6620012","prefecture":"兵庫県","prefecture_kana":"ヒョウゴケン","city":"西宮市","city_kana":"ニシノミヤシ","town":"甲陽園東山町","town_kana":"コウヨウエンヒガシヤマチョウ","prefecture_code":28},"0017":{"zip_code":"6620017","prefecture":"兵庫県","prefecture_kana":"ヒョウゴケン","city":"西宮市","city_kana":"ニシノミヤシ","town":"甲陽園西山町","town_kana":"コウヨウエンニシヤマチョウ","prefecture_code":28},"0014":{"zip_code":"6620014","prefecture":"兵庫県","prefecture_kana":"ヒョウゴケン","city":"西宮市","city_kana":"ニシノミヤシ","town":"甲陽園日之出町","town_kana":"コウヨウエンヒノデチョウ","prefecture_code":28},"0015":{"zip_code":"6620015","prefecture":"兵庫県","prefecture_kana":"ヒョウゴケン","city":"西宮市","city_kana":"ニシノミヤシ","town":"甲陽園本庄町","town_kana":"コウヨウエンホンジョウチョウ","prefecture_code":28},"0011":{"zip_code":"6620011","prefecture":"兵庫県","prefecture_kana":"ヒョウゴケン","city":"西宮市","city_kana":"ニシノミヤシ","town":"甲陽園目神山町","town_kana":"コウヨウエンメガミヤマチョウ","prefecture_code":28},"0016":{"zip_code":"6620016","prefecture":"兵庫県","prefecture_kana":"ヒョウゴケン","city":"西宮市","city_kana":"ニシノミヤシ","town":"甲陽園若江町","town_kana":"コウヨウエンワカエチョウ","prefecture_code":28},"0092":{"zip_code":"6620092","prefecture":"兵庫県","prefecture_kana":"ヒョウゴケン","city":"西宮市","city_kana":"ニシノミヤシ","town":"甑岩町","town_kana":"コシキイワチョウ","prefecture_code":28},"0006":{"zip_code":"6620006","prefecture":"兵庫県","prefecture_kana":"ヒョウゴケン","city":"西宮市","city_kana":"ニシノミヤシ","town":"越水社家郷山","town_kana":"コシミズシャケゴウヤマ","prefecture_code":28},"0864":{"zip_code":"6620864","prefecture":"兵庫県","prefecture_kana":"ヒョウゴケン","city":"西宮市","city_kana":"ニシノミヤシ","town":"越水町","town_kana":"コシミズチョウ","prefecture_code":28},"0047":{"zip_code":"6620047","prefecture":"兵庫県","prefecture_kana":"ヒョウゴケン","city":"西宮市","city_kana":"ニシノミヤシ","town":"寿町","town_kana":"コトブキチョウ","prefecture_code":28},"0844":{"zip_code":"6620844","prefecture":"兵庫県","prefecture_kana":"ヒョウゴケン","city":"西宮市","city_kana":"ニシノミヤシ","town":"西福町","town_kana":"サイフクチョウ","prefecture_code":28},"0032":{"zip_code":"6620032","prefecture":"兵庫県","prefecture_kana":"ヒョウゴケン","city":"西宮市","city_kana":"ニシノミヤシ","town":"桜谷町","town_kana":"サクラダニチョウ","prefecture_code":28},"0071":{"zip_code":"6620071","prefecture":"兵庫県","prefecture_kana":"ヒョウゴケン","city":"西宮市","city_kana":"ニシノミヤシ","town":"桜町","town_kana":"サクラマチ","prefecture_code":28},"0875":{"zip_code":"6620875","prefecture":"兵庫県","prefecture_kana":"ヒョウゴケン","city":"西宮市","city_kana":"ニシノミヤシ","town":"五月ケ丘","town_kana":"サツキガオカ","prefecture_code":28},"0978":{"zip_code":"6620978","prefecture":"兵庫県","prefecture_kana":"ヒョウゴケン","city":"西宮市","city_kana":"ニシノミヤシ","town":"産所町","town_kana":"サンショチョウ","prefecture_code":28},"0026":{"zip_code":"6620026","prefecture":"兵庫県","prefecture_kana":"ヒョウゴケン","city":"西宮市","city_kana":"ニシノミヤシ","town":"獅子ケ口町","town_kana":"シシガグチチョウ","prefecture_code":28},"0033":{"zip_code":"6620033","prefecture":"兵庫県","prefecture_kana":"ヒョウゴケン","city":"西宮市","city_kana":"ニシノミヤシ","town":"清水町","town_kana":"シミズチョウ","prefecture_code":28},"0956":{"zip_code":"6620956","prefecture":"兵庫県","prefecture_kana":"ヒョウゴケン","city":"西宮市","city_kana":"ニシノミヤシ","town":"下葭原町","town_kana":"シモヨシハラチョウ","prefecture_code":28},"0974":{"zip_code":"6620974","prefecture":"兵庫県","prefecture_kana":"ヒョウゴケン","city":"西宮市","city_kana":"ニシノミヤシ","town":"社家町","town_kana":"シャケチョウ","prefecture_code":28},"0004":{"zip_code":"6620004","prefecture":"兵庫県","prefecture_kana":"ヒョウゴケン","city":"西宮市","city_kana":"ニシノミヤシ","town":"鷲林寺","town_kana":"ジュウリンジ","prefecture_code":28},"0003":{"zip_code":"6620003","prefecture":"兵庫県","prefecture_kana":"ヒョウゴケン","city":"西宮市","city_kana":"ニシノミヤシ","town":"鷲林寺町","town_kana":"ジュウリンジチョウ","prefecture_code":28},"0002":{"zip_code":"6620002","prefecture":"兵庫県","prefecture_kana":"ヒョウゴケン","city":"西宮市","city_kana":"ニシノミヤシ","town":"鷲林寺南町","town_kana":"ジュウリンジミナミマチ","prefecture_code":28},"0856":{"zip_code":"6620856","prefecture":"兵庫県","prefecture_kana":"ヒョウゴケン","city":"西宮市","city_kana":"ニシノミヤシ","town":"城ケ堀町","town_kana":"ジョウガボリチョウ","prefecture_code":28},"0822":{"zip_code":"6620822","prefecture":"兵庫県","prefecture_kana":"ヒョウゴケン","city":"西宮市","city_kana":"ニシノミヤシ","town":"松籟荘","town_kana":"ショウライソウ","prefecture_code":28},"0023":{"zip_code":"6620023","prefecture":"兵庫県","prefecture_kana":"ヒョウゴケン","city":"西宮市","city_kana":"ニシノミヤシ","town":"城山","town_kana":"シロヤマ","prefecture_code":28},"0843":{"zip_code":"6620843","prefecture":"兵庫県","prefecture_kana":"ヒョウゴケン","city":"西宮市","city_kana":"ニシノミヤシ","town":"神祇官町","town_kana":"ジンギカンチョウ","prefecture_code":28},"0013":{"zip_code":"6620013","prefecture":"兵庫県","prefecture_kana":"ヒョウゴケン","city":"西宮市","city_kana":"ニシノミヤシ","town":"新甲陽町","town_kana":"シンコウヨウチョウ","prefecture_code":28},"0845":{"zip_code":"6620845","prefecture":"兵庫県","prefecture_kana":"ヒョウゴケン","city":"西宮市","city_kana":"ニシノミヤシ","town":"神明町","town_kana":"シンメイチョウ","prefecture_code":28},"0041":{"zip_code":"6620041","prefecture":"兵庫県","prefecture_kana":"ヒョウゴケン","city":"西宮市","city_kana":"ニシノミヤシ","town":"末広町","town_kana":"スエヒロチョウ","prefecture_code":28},"0096":{"zip_code":"6620096","prefecture":"兵庫県","prefecture_kana":"ヒョウゴケン","city":"西宮市","city_kana":"ニシノミヤシ","town":"角石町","town_kana":"スミイシチョウ","prefecture_code":28},"0913":{"zip_code":"6620913","prefecture":"兵庫県","prefecture_kana":"ヒョウゴケン","city":"西宮市","city_kana":"ニシノミヤシ","town":"染殿町","town_kana":"ソメドノチョウ","prefecture_code":28},"0867":{"zip_code":"6620867","prefecture":"兵庫県","prefecture_kana":"ヒョウゴケン","city":"西宮市","city_kana":"ニシノミヤシ","town":"大社町","town_kana":"タイシャチョウ","prefecture_code":28},"0872":{"zip_code":"6620872","prefecture":"兵庫県","prefecture_kana":"ヒョウゴケン","city":"西宮市","city_kana":"ニシノミヤシ","town":"高座町","town_kana":"タカクラチョウ","prefecture_code":28},"0066":{"zip_code":"6620066","prefecture":"兵庫県","prefecture_kana":"ヒョウゴケン","city":"西宮市","city_kana":"ニシノミヤシ","town":"高塚町","town_kana":"タカツカチョウ","prefecture_code":28},"0943":{"zip_code":"6620943","prefecture":"兵庫県","prefecture_kana":"ヒョウゴケン","city":"西宮市","city_kana":"ニシノミヤシ","town":"建石町","town_kana":"タテイシチョウ","prefecture_code":28},"0973":{"zip_code":"6620973","prefecture":"兵庫県","prefecture_kana":"ヒョウゴケン","city":"西宮市","city_kana":"ニシノミヤシ","town":"田中町","town_kana":"タナカチョウ","prefecture_code":28},"0046":{"zip_code":"6620046","prefecture":"兵庫県","prefecture_kana":"ヒョウゴケン","city":"西宮市","city_kana":"ニシノミヤシ","town":"千歳町","town_kana":"チトセチョウ","prefecture_code":28},"0853":{"zip_code":"6620853","prefecture":"兵庫県","prefecture_kana":"ヒョウゴケン","city":"西宮市","city_kana":"ニシノミヤシ","town":"津田町","town_kana":"ツダチョウ","prefecture_code":28},"0043":{"zip_code":"6620043","prefecture":"兵庫県","prefecture_kana":"ヒョウゴケン","city":"西宮市","city_kana":"ニシノミヤシ","town":"常磐町","town_kana":"トキワチョウ","prefecture_code":28},"0916":{"zip_code":"6620916","prefecture":"兵庫県","prefecture_kana":"ヒョウゴケン","city":"西宮市","city_kana":"ニシノミヤシ","town":"戸田町","town_kana":"トダチョウ","prefecture_code":28},"0065":{"zip_code":"6620065","prefecture":"兵庫県","prefecture_kana":"ヒョウゴケン","city":"西宮市","city_kana":"ニシノミヤシ","town":"殿山町","town_kana":"トノヤマチョウ","prefecture_code":28},"0851":{"zip_code":"6620851","prefecture":"兵庫県","prefecture_kana":"ヒョウゴケン","city":"西宮市","city_kana":"ニシノミヤシ","town":"中須佐町","town_kana":"ナカスサチョウ","prefecture_code":28},"0852":{"zip_code":"6620852","prefecture":"兵庫県","prefecture_kana":"ヒョウゴケン","city":"西宮市","city_kana":"ニシノミヤシ","town":"中殿町","town_kana":"ナカドノチョウ","prefecture_code":28},"0952":{"zip_code":"6620952","prefecture":"兵庫県","prefecture_kana":"ヒョウゴケン","city":"西宮市","city_kana":"ニシノミヤシ","town":"中浜町","town_kana":"ナカハマチョウ","prefecture_code":28},"0857":{"zip_code":"6620857","prefecture":"兵庫県","prefecture_kana":"ヒョウゴケン","city":"西宮市","city_kana":"ニシノミヤシ","town":"中前田町","town_kana":"ナカマエダチョウ","prefecture_code":28},"0868":{"zip_code":"6620868","prefecture":"兵庫県","prefecture_kana":"ヒョウゴケン","city":"西宮市","city_kana":"ニシノミヤシ","town":"中屋町","town_kana":"ナカヤチョウ","prefecture_code":28},"0955":{"zip_code":"6620955","prefecture":"兵庫県","prefecture_kana":"ヒョウゴケン","city":"西宮市","city_kana":"ニシノミヤシ","town":"中葭原町","town_kana":"ナカヨシハラチョウ","prefecture_code":28},"0024":{"zip_code":"6620024","prefecture":"兵庫県","prefecture_kana":"ヒョウゴケン","city":"西宮市","city_kana":"ニシノミヤシ","town":"名次町","town_kana":"ナツギチョウ","prefecture_code":28},"0038":{"zip_code":"6620038","prefecture":"兵庫県","prefecture_kana":"ヒョウゴケン","city":"西宮市","city_kana":"ニシノミヤシ","town":"南郷町","town_kana":"ナンゴウチョウ","prefecture_code":28},"0814":{"zip_code":"6620814","prefecture":"兵庫県","prefecture_kana":"ヒョウゴケン","city":"西宮市","city_kana":"ニシノミヤシ","town":"仁川五ケ山町","town_kana":"ニガワゴカヤマチョウ","prefecture_code":28},"0815":{"zip_code":"6620815","prefecture":"兵庫県","prefecture_kana":"ヒョウゴケン","city":"西宮市","city_kana":"ニシノミヤシ","town":"仁川百合野町","town_kana":"ニガワユリノチョウ","prefecture_code":28},"0811":{"zip_code":"6620811","prefecture":"兵庫県","prefecture_kana":"ヒョウゴケン","city":"西宮市","city_kana":"ニシノミヤシ","town":"仁川町","town_kana":"ニガワチョウ","prefecture_code":28},"0034":{"zip_code":"6620034","prefecture":"兵庫県","prefecture_kana":"ヒョウゴケン","city":"西宮市","city_kana":"ニシノミヤシ","town":"西田町","town_kana":"ニシダチョウ","prefecture_code":28},"0934":{"zip_code":"6620934","prefecture":"兵庫県","prefecture_kana":"ヒョウゴケン","city":"西宮市","city_kana":"ニシノミヤシ","town":"西宮浜","town_kana":"ニシノミヤハマ","prefecture_code":28},"0933":{"zip_code":"6620933","prefecture":"兵庫県","prefecture_kana":"ヒョウゴケン","city":"西宮市","city_kana":"ニシノミヤシ","town":"西波止町","town_kana":"ニシハトチョウ","prefecture_code":28},"0093":{"zip_code":"6620093","prefecture":"兵庫県","prefecture_kana":"ヒョウゴケン","city":"西宮市","city_kana":"ニシノミヤシ","town":"西平町","town_kana":"ニシヒラチョウ","prefecture_code":28},"0838":{"zip_code":"6620838","prefecture":"兵庫県","prefecture_kana":"ヒョウゴケン","city":"西宮市","city_kana":"ニシノミヤシ","town":"能登町","town_kana":"ノトチョウ","prefecture_code":28},"0051":{"zip_code":"6620051","prefecture":"兵庫県","prefecture_kana":"ヒョウゴケン","city":"西宮市","city_kana":"ニシノミヤシ","town":"羽衣町","town_kana":"ハゴロモチョウ","prefecture_code":28},"0854":{"zip_code":"6620854","prefecture":"兵庫県","prefecture_kana":"ヒョウゴケン","city":"西宮市","city_kana":"ニシノミヤシ","town":"櫨塚町","town_kana":"ハゼツカチョウ","prefecture_code":28},"0915":{"zip_code":"6620915","prefecture":"兵庫県","prefecture_kana":"ヒョウゴケン","city":"西宮市","city_kana":"ニシノミヤシ","town":"馬場町","town_kana":"ババチョウ","prefecture_code":28},"0942":{"zip_code":"6620942","prefecture":"兵庫県","prefecture_kana":"ヒョウゴケン","city":"西宮市","city_kana":"ニシノミヤシ","town":"浜町","town_kana":"ハマチョウ","prefecture_code":28},"0923":{"zip_code":"6620923","prefecture":"兵庫県","prefecture_kana":"ヒョウゴケン","city":"西宮市","city_kana":"ニシノミヤシ","town":"浜松原町","town_kana":"ハママツバラチョウ","prefecture_code":28},"0941":{"zip_code":"6620941","prefecture":"兵庫県","prefecture_kana":"ヒョウゴケン","city":"西宮市","city_kana":"ニシノミヤシ","town":"浜脇町","town_kana":"ハマワキチョウ","prefecture_code":28},"0924":{"zip_code":"6620924","prefecture":"兵庫県","prefecture_kana":"ヒョウゴケン","city":"西宮市","city_kana":"ニシノミヤシ","town":"東浜町","town_kana":"ヒガシハマチョウ","prefecture_code":28},"0922":{"zip_code":"6620922","prefecture":"兵庫県","prefecture_kana":"ヒョウゴケン","city":"西宮市","city_kana":"ニシノミヤシ","town":"東町","town_kana":"ヒガシマチ","prefecture_code":28},"0094":{"zip_code":"6620094","prefecture":"兵庫県","prefecture_kana":"ヒョウゴケン","city":"西宮市","city_kana":"ニシノミヤシ","town":"毘沙門町","town_kana":"ビシャモンチョウ","prefecture_code":28},"0084":{"zip_code":"6620084","prefecture":"兵庫県","prefecture_kana":"ヒョウゴケン","city":"西宮市","city_kana":"ニシノミヤシ","town":"樋之池町","town_kana":"ヒノイケチョウ","prefecture_code":28},"0835":{"zip_code":"6620835","prefecture":"兵庫県","prefecture_kana":"ヒョウゴケン","city":"西宮市","city_kana":"ニシノミヤシ","town":"平木町","town_kana":"ヒラキチョウ","prefecture_code":28},"0044":{"zip_code":"6620044","prefecture":"兵庫県","prefecture_kana":"ヒョウゴケン","city":"西宮市","city_kana":"ニシノミヤシ","town":"平松町","town_kana":"ヒラマツチョウ","prefecture_code":28},"0837":{"zip_code":"6620837","prefecture":"兵庫県","prefecture_kana":"ヒョウゴケン","city":"西宮市","city_kana":"ニシノミヤシ","town":"広田町","town_kana":"ヒロタチョウ","prefecture_code":28},"0067":{"zip_code":"6620067","prefecture":"兵庫県","prefecture_kana":"ヒョウゴケン","city":"西宮市","city_kana":"ニシノミヤシ","town":"深谷町","town_kana":"フカタニチョウ","prefecture_code":28},"0042":{"zip_code":"6620042","prefecture":"兵庫県","prefecture_kana":"ヒョウゴケン","city":"西宮市","city_kana":"ニシノミヤシ","town":"分銅町","town_kana":"ブンドウチョウ","prefecture_code":28},"0072":{"zip_code":"6620072","prefecture":"兵庫県","prefecture_kana":"ヒョウゴケン","city":"西宮市","city_kana":"ニシノミヤシ","town":"豊楽町","town_kana":"ホウラクチョウ","prefecture_code":28},"0953":{"zip_code":"6620953","prefecture":"兵庫県","prefecture_kana":"ヒョウゴケン","city":"西宮市","city_kana":"ニシノミヤシ","town":"堀切町","town_kana":"ホリキリチョウ","prefecture_code":28},"0914":{"zip_code":"6620914","prefecture":"兵庫県","prefecture_kana":"ヒョウゴケン","city":"西宮市","city_kana":"ニシノミヤシ","town":"本町","town_kana":"ホンマチ","prefecture_code":28},"0931":{"zip_code":"6620931","prefecture":"兵庫県","prefecture_kana":"ヒョウゴケン","city":"西宮市","city_kana":"ニシノミヤシ","town":"前浜町","town_kana":"マエハマチョウ","prefecture_code":28},"0076":{"zip_code":"6620076","prefecture":"兵庫県","prefecture_kana":"ヒョウゴケン","city":"西宮市","city_kana":"ニシノミヤシ","town":"松生町","town_kana":"マツオイチョウ","prefecture_code":28},"0073":{"zip_code":"6620073","prefecture":"兵庫県","prefecture_kana":"ヒョウゴケン","city":"西宮市","city_kana":"ニシノミヤシ","town":"松風町","town_kana":"マツカゼチョウ","prefecture_code":28},"0061":{"zip_code":"6620061","prefecture":"兵庫県","prefecture_kana":"ヒョウゴケン","city":"西宮市","city_kana":"ニシノミヤシ","town":"松ケ丘町","town_kana":"マツガオカチョウ","prefecture_code":28},"0962":{"zip_code":"6620962","prefecture":"兵庫県","prefecture_kana":"ヒョウゴケン","city":"西宮市","city_kana":"ニシノミヤシ","town":"松下町","town_kana":"マツシタチョウ","prefecture_code":28},"0053":{"zip_code":"6620053","prefecture":"兵庫県","prefecture_kana":"ヒョウゴケン","city":"西宮市","city_kana":"ニシノミヤシ","town":"松園町","town_kana":"マツゾノチョウ","prefecture_code":28},"0912":{"zip_code":"6620912","prefecture":"兵庫県","prefecture_kana":"ヒョウゴケン","city":"西宮市","city_kana":"ニシノミヤシ","town":"松原町","town_kana":"マツバラチョウ","prefecture_code":28},"0831":{"zip_code":"6620831","prefecture":"兵庫県","prefecture_kana":"ヒョウゴケン","city":"西宮市","city_kana":"ニシノミヤシ","town":"丸橋町","town_kana":"マルハシチョウ","prefecture_code":28},"0031":{"zip_code":"6620031","prefecture":"兵庫県","prefecture_kana":"ヒョウゴケン","city":"西宮市","city_kana":"ニシノミヤシ","town":"満池谷町","town_kana":"マンチダニチョウ","prefecture_code":28},"0095":{"zip_code":"6620095","prefecture":"兵庫県","prefecture_kana":"ヒョウゴケン","city":"西宮市","city_kana":"ニシノミヤシ","town":"美作町","town_kana":"ミサクチョウ","prefecture_code":28},"0075":{"zip_code":"6620075","prefecture":"兵庫県","prefecture_kana":"ヒョウゴケン","city":"西宮市","city_kana":"ニシノミヤシ","town":"南越木岩町","town_kana":"ミナミコシキイワチョウ","prefecture_code":28},"0834":{"zip_code":"6620834","prefecture":"兵庫県","prefecture_kana":"ヒョウゴケン","city":"西宮市","city_kana":"ニシノミヤシ","town":"南昭和町","town_kana":"ミナミショウワチョウ","prefecture_code":28},"0976":{"zip_code":"6620976","prefecture":"兵庫県","prefecture_kana":"ヒョウゴケン","city":"西宮市","city_kana":"ニシノミヤシ","town":"宮西町","town_kana":"ミヤニシチョウ","prefecture_code":28},"0947":{"zip_code":"6620947","prefecture":"兵庫県","prefecture_kana":"ヒョウゴケン","city":"西宮市","city_kana":"ニシノミヤシ","town":"宮前町","town_kana":"ミヤマエチョウ","prefecture_code":28},"0863":{"zip_code":"6620863","prefecture":"兵庫県","prefecture_kana":"ヒョウゴケン","city":"西宮市","city_kana":"ニシノミヤシ","town":"室川町","town_kana":"ムロカワチョウ","prefecture_code":28},"0846":{"zip_code":"6620846","prefecture":"兵庫県","prefecture_kana":"ヒョウゴケン","city":"西宮市","city_kana":"ニシノミヤシ","town":"森下町","town_kana":"モリシタチョウ","prefecture_code":28},"0826":{"zip_code":"6620826","prefecture":"兵庫県","prefecture_kana":"ヒョウゴケン","city":"西宮市","city_kana":"ニシノミヤシ","town":"門戸岡田町","town_kana":"モンドオカダチョウ","prefecture_code":28},"0824":{"zip_code":"6620824","prefecture":"兵庫県","prefecture_kana":"ヒョウゴケン","city":"西宮市","city_kana":"ニシノミヤシ","town":"門戸東町","town_kana":"モンドヒガシマチ","prefecture_code":28},"0828":{"zip_code":"6620828","prefecture":"兵庫県","prefecture_kana":"ヒョウゴケン","city":"西宮市","city_kana":"ニシノミヤシ","town":"門戸西町","town_kana":"モンドニシマチ","prefecture_code":28},"0825":{"zip_code":"6620825","prefecture":"兵庫県","prefecture_kana":"ヒョウゴケン","city":"西宮市","city_kana":"ニシノミヤシ","town":"門戸荘","town_kana":"モンドソウ","prefecture_code":28},"0963":{"zip_code":"6620963","prefecture":"兵庫県","prefecture_kana":"ヒョウゴケン","city":"西宮市","city_kana":"ニシノミヤシ","town":"屋敷町","town_kana":"ヤシキチョウ","prefecture_code":28},"0045":{"zip_code":"6620045","prefecture":"兵庫県","prefecture_kana":"ヒョウゴケン","city":"西宮市","city_kana":"ニシノミヤシ","town":"安井町","town_kana":"ヤスイチョウ","prefecture_code":28},"0866":{"zip_code":"6620866","prefecture":"兵庫県","prefecture_kana":"ヒョウゴケン","city":"西宮市","city_kana":"ニシノミヤシ","town":"柳本町","town_kana":"ヤナギモトチョウ","prefecture_code":28},"0005":{"zip_code":"6620005","prefecture":"兵庫県","prefecture_kana":"ヒョウゴケン","city":"西宮市","city_kana":"ニシノミヤシ","town":"湯元町","town_kana":"ユノモトチョウ","prefecture_code":28},"0964":{"zip_code":"6620964","prefecture":"兵庫県","prefecture_kana":"ヒョウゴケン","city":"西宮市","city_kana":"ニシノミヤシ","town":"弓場町","town_kana":"ユバチョウ","prefecture_code":28},"0921":{"zip_code":"6620921","prefecture":"兵庫県","prefecture_kana":"ヒョウゴケン","city":"西宮市","city_kana":"ニシノミヤシ","town":"用海町","town_kana":"ヨウガイチョウ","prefecture_code":28},"0917":{"zip_code":"6620917","prefecture":"兵庫県","prefecture_kana":"ヒョウゴケン","city":"西宮市","city_kana":"ニシノミヤシ","town":"与古道町","town_kana":"ヨコミチチョウ","prefecture_code":28},"0841":{"zip_code":"6620841","prefecture":"兵庫県","prefecture_kana":"ヒョウゴケン","city":"西宮市","city_kana":"ニシノミヤシ","town":"両度町","town_kana":"リョウドチョウ","prefecture_code":28},"0918":{"zip_code":"6620918","prefecture":"兵庫県","prefecture_kana":"ヒョウゴケン","city":"西宮市","city_kana":"ニシノミヤシ","town":"六湛寺町","town_kana":"ロクタンジチョウ","prefecture_code":28},"0874":{"zip_code":"6620874","prefecture":"兵庫県","prefecture_kana":"ヒョウゴケン","city":"西宮市","city_kana":"ニシノミヤシ","town":"六軒町","town_kana":"ロッケンチョウ","prefecture_code":28},"0035":{"zip_code":"6620035","prefecture":"兵庫県","prefecture_kana":"ヒョウゴケン","city":"西宮市","city_kana":"ニシノミヤシ","town":"若松町","town_kana":"ワカマツチョウ","prefecture_code":28},"0971":{"zip_code":"6620971","prefecture":"兵庫県","prefecture_kana":"ヒョウゴケン","city":"西宮市","city_kana":"ニシノミヤシ","town":"和上町","town_kana":"ワジョウチョウ","prefecture_code":28}}