{"0000":{"zip_code":"6650000","prefecture":"兵庫県","prefecture_kana":"ヒョウゴケン","city":"宝塚市","city_kana":"タカラヅカシ","town":"","town_kana":"","prefecture_code":28},"0014":{"zip_code":"6650014","prefecture":"兵庫県","prefecture_kana":"ヒョウゴケン","city":"宝塚市","city_kana":"タカラヅカシ","town":"青葉台","town_kana":"アオバダイ","prefecture_code":28},"0822":{"zip_code":"6650822","prefecture":"兵庫県","prefecture_kana":"ヒョウゴケン","city":"宝塚市","city_kana":"タカラヅカシ","town":"安倉中","town_kana":"アクラナカ","prefecture_code":28},"0825":{"zip_code":"6650825","prefecture":"兵庫県","prefecture_kana":"ヒョウゴケン","city":"宝塚市","city_kana":"タカラヅカシ","town":"安倉西","town_kana":"アクラニシ","prefecture_code":28},"0823":{"zip_code":"6650823","prefecture":"兵庫県","prefecture_kana":"ヒョウゴケン","city":"宝塚市","city_kana":"タカラヅカシ","town":"安倉南","town_kana":"アクラミナミ","prefecture_code":28},"0821":{"zip_code":"6650821","prefecture":"兵庫県","prefecture_kana":"ヒョウゴケン","city":"宝塚市","city_kana":"タカラヅカシ","town":"安倉北","town_kana":"アクラキタ","prefecture_code":28},"0835":{"zip_code":"6650835","prefecture":"兵庫県","prefecture_kana":"ヒョウゴケン","city":"宝塚市","city_kana":"タカラヅカシ","town":"旭町","town_kana":"アサヒマチ","prefecture_code":28},"0851":{"zip_code":"6650851","prefecture":"兵庫県","prefecture_kana":"ヒョウゴケン","city":"宝塚市","city_kana":"タカラヅカシ","town":"泉ガ丘","town_kana":"イズミガオカ","prefecture_code":28},"0864":{"zip_code":"6650864","prefecture":"兵庫県","prefecture_kana":"ヒョウゴケン","city":"宝塚市","city_kana":"タカラヅカシ","town":"泉町","town_kana":"イズミチョウ","prefecture_code":28},"0033":{"zip_code":"6650033","prefecture":"兵庫県","prefecture_kana":"ヒョウゴケン","city":"宝塚市","city_kana":"タカラヅカシ","town":"伊孑志","town_kana":"イソシ","prefecture_code":28},"0007":{"zip_code":"6650007","prefecture":"兵庫県","prefecture_kana":"ヒョウゴケン","city":"宝塚市","city_kana":"タカラヅカシ","town":"伊孑志武庫山","town_kana":"イソシムコヤマ","prefecture_code":28},"0862":{"zip_code":"6650862","prefecture":"兵庫県","prefecture_kana":"ヒョウゴケン","city":"宝塚市","city_kana":"タカラヅカシ","town":"今里町","town_kana":"イマザトチョウ","prefecture_code":28},"0004":{"zip_code":"6650004","prefecture":"兵庫県","prefecture_kana":"ヒョウゴケン","city":"宝塚市","city_kana":"タカラヅカシ","town":"梅野町","town_kana":"ウメノチョウ","prefecture_code":28},"0057":{"zip_code":"6650057","prefecture":"兵庫県","prefecture_kana":"ヒョウゴケン","city":"宝塚市","city_kana":"タカラヅカシ","town":"大吹町","town_kana":"オオブキチョウ","prefecture_code":28},"0034":{"zip_code":"6650034","prefecture":"兵庫県","prefecture_kana":"ヒョウゴケン","city":"宝塚市","city_kana":"タカラヅカシ","town":"小林","town_kana":"オバヤシ","prefecture_code":28},"0017":{"zip_code":"6650017","prefecture":"兵庫県","prefecture_kana":"ヒョウゴケン","city":"宝塚市","city_kana":"タカラヅカシ","town":"小林西山","town_kana":"オバヤシニシヤマ","prefecture_code":28},"0054":{"zip_code":"6650054","prefecture":"兵庫県","prefecture_kana":"ヒョウゴケン","city":"宝塚市","city_kana":"タカラヅカシ","town":"鹿塩","town_kana":"カシオ","prefecture_code":28},"0824":{"zip_code":"6650824","prefecture":"兵庫県","prefecture_kana":"ヒョウゴケン","city":"宝塚市","city_kana":"タカラヅカシ","town":"金井町","town_kana":"カナイチョウ","prefecture_code":28},"0047":{"zip_code":"6650047","prefecture":"兵庫県","prefecture_kana":"ヒョウゴケン","city":"宝塚市","city_kana":"タカラヅカシ","town":"亀井町","town_kana":"カメイチョウ","prefecture_code":28},"0842":{"zip_code":"6650842","prefecture":"兵庫県","prefecture_kana":"ヒョウゴケン","city":"宝塚市","city_kana":"タカラヅカシ","town":"川面","town_kana":"カワモ","prefecture_code":28},"0848":{"zip_code":"6650848","prefecture":"兵庫県","prefecture_kana":"ヒョウゴケン","city":"宝塚市","city_kana":"タカラヅカシ","town":"川面長尾山","town_kana":"カワモナガオヤマ","prefecture_code":28},"0836":{"zip_code":"6650836","prefecture":"兵庫県","prefecture_kana":"ヒョウゴケン","city":"宝塚市","city_kana":"タカラヅカシ","town":"清荒神","town_kana":"キヨシコウジン","prefecture_code":28},"0808":{"zip_code":"6650808","prefecture":"兵庫県","prefecture_kana":"ヒョウゴケン","city":"宝塚市","city_kana":"タカラヅカシ","town":"切畑","town_kana":"キリハタ","prefecture_code":28},"0812":{"zip_code":"6650812","prefecture":"兵庫県","prefecture_kana":"ヒョウゴケン","city":"宝塚市","city_kana":"タカラヅカシ","town":"口谷東","town_kana":"クチタニヒガシ","prefecture_code":28},"0813":{"zip_code":"6650813","prefecture":"兵庫県","prefecture_kana":"ヒョウゴケン","city":"宝塚市","city_kana":"タカラヅカシ","town":"口谷西","town_kana":"クチタニニシ","prefecture_code":28},"0023":{"zip_code":"6650023","prefecture":"兵庫県","prefecture_kana":"ヒョウゴケン","city":"宝塚市","city_kana":"タカラヅカシ","town":"蔵人","town_kana":"クランド","prefecture_code":28},"0832":{"zip_code":"6650832","prefecture":"兵庫県","prefecture_kana":"ヒョウゴケン","city":"宝塚市","city_kana":"タカラヅカシ","town":"向月町","town_kana":"コウゲツチョウ","prefecture_code":28},"0045":{"zip_code":"6650045","prefecture":"兵庫県","prefecture_kana":"ヒョウゴケン","city":"宝塚市","city_kana":"タカラヅカシ","town":"光明町","town_kana":"コウミョウチョウ","prefecture_code":28},"0041":{"zip_code":"6650041","prefecture":"兵庫県","prefecture_kana":"ヒョウゴケン","city":"宝塚市","city_kana":"タカラヅカシ","town":"御所の前町","town_kana":"ゴショノマエチョウ","prefecture_code":28},"0841":{"zip_code":"6650841","prefecture":"兵庫県","prefecture_kana":"ヒョウゴケン","city":"宝塚市","city_kana":"タカラヅカシ","town":"御殿山","town_kana":"ゴテンヤマ","prefecture_code":28},"0865":{"zip_code":"6650865","prefecture":"兵庫県","prefecture_kana":"ヒョウゴケン","city":"宝塚市","city_kana":"タカラヅカシ","town":"寿町","town_kana":"コトブキチョウ","prefecture_code":28},"0827":{"zip_code":"6650827","prefecture":"兵庫県","prefecture_kana":"ヒョウゴケン","city":"宝塚市","city_kana":"タカラヅカシ","town":"小浜","town_kana":"コハマ","prefecture_code":28},"0053":{"zip_code":"6650053","prefecture":"兵庫県","prefecture_kana":"ヒョウゴケン","city":"宝塚市","city_kana":"タカラヅカシ","town":"駒の町","town_kana":"コマノチョウ","prefecture_code":28},"0845":{"zip_code":"6650845","prefecture":"兵庫県","prefecture_kana":"ヒョウゴケン","city":"宝塚市","city_kana":"タカラヅカシ","town":"栄町","town_kana":"サカエマチ","prefecture_code":28},"0035":{"zip_code":"6650035","prefecture":"兵庫県","prefecture_kana":"ヒョウゴケン","city":"宝塚市","city_kana":"タカラヅカシ","town":"逆瀬川","town_kana":"サカセガワ","prefecture_code":28},"0024":{"zip_code":"6650024","prefecture":"兵庫県","prefecture_kana":"ヒョウゴケン","city":"宝塚市","city_kana":"タカラヅカシ","town":"逆瀬台","town_kana":"サカセダイ","prefecture_code":28},"0846":{"zip_code":"6650846","prefecture":"兵庫県","prefecture_kana":"ヒョウゴケン","city":"宝塚市","city_kana":"タカラヅカシ","town":"桜ガ丘","town_kana":"サクラガオカ","prefecture_code":28},"0012":{"zip_code":"6650012","prefecture":"兵庫県","prefecture_kana":"ヒョウゴケン","city":"宝塚市","city_kana":"タカラヅカシ","town":"寿楽荘","town_kana":"ジュラクソウ","prefecture_code":28},"0052":{"zip_code":"6650052","prefecture":"兵庫県","prefecture_kana":"ヒョウゴケン","city":"宝塚市","city_kana":"タカラヅカシ","town":"新明和町","town_kana":"シンメイワチョウ","prefecture_code":28},"0044":{"zip_code":"6650044","prefecture":"兵庫県","prefecture_kana":"ヒョウゴケン","city":"宝塚市","city_kana":"タカラヅカシ","town":"末成町","town_kana":"スエナリチョウ","prefecture_code":28},"0031":{"zip_code":"6650031","prefecture":"兵庫県","prefecture_kana":"ヒョウゴケン","city":"宝塚市","city_kana":"タカラヅカシ","town":"末広町","town_kana":"スエヒロチョウ","prefecture_code":28},"0847":{"zip_code":"6650847","prefecture":"兵庫県","prefecture_kana":"ヒョウゴケン","city":"宝塚市","city_kana":"タカラヅカシ","town":"すみれガ丘","town_kana":"スミレガオカ","prefecture_code":28},"0055":{"zip_code":"6650055","prefecture":"兵庫県","prefecture_kana":"ヒョウゴケン","city":"宝塚市","city_kana":"タカラヅカシ","town":"大成町","town_kana":"タイセイチョウ","prefecture_code":28},"0051":{"zip_code":"6650051","prefecture":"兵庫県","prefecture_kana":"ヒョウゴケン","city":"宝塚市","city_kana":"タカラヅカシ","town":"高司","town_kana":"タカツカサ","prefecture_code":28},"0043":{"zip_code":"6650043","prefecture":"兵庫県","prefecture_kana":"ヒョウゴケン","city":"宝塚市","city_kana":"タカラヅカシ","town":"高松町","town_kana":"タカマツチョウ","prefecture_code":28},"0076":{"zip_code":"6650076","prefecture":"兵庫県","prefecture_kana":"ヒョウゴケン","city":"宝塚市","city_kana":"タカラヅカシ","town":"谷口町","town_kana":"タニグチチョウ","prefecture_code":28},"0072":{"zip_code":"6650072","prefecture":"兵庫県","prefecture_kana":"ヒョウゴケン","city":"宝塚市","city_kana":"タカラヅカシ","town":"千種","town_kana":"チグサ","prefecture_code":28},"0001":{"zip_code":"6650001","prefecture":"兵庫県","prefecture_kana":"ヒョウゴケン","city":"宝塚市","city_kana":"タカラヅカシ","town":"長寿ガ丘","town_kana":"チョウジュガオカ","prefecture_code":28},"0002":{"zip_code":"6650002","prefecture":"兵庫県","prefecture_kana":"ヒョウゴケン","city":"宝塚市","city_kana":"タカラヅカシ","town":"月見山","town_kana":"ツキミヤマ","prefecture_code":28},"0833":{"zip_code":"6650833","prefecture":"兵庫県","prefecture_kana":"ヒョウゴケン","city":"宝塚市","city_kana":"タカラヅカシ","town":"鶴の荘","town_kana":"ツルノソウ","prefecture_code":28},"0073":{"zip_code":"6650073","prefecture":"兵庫県","prefecture_kana":"ヒョウゴケン","city":"宝塚市","city_kana":"タカラヅカシ","town":"塔の町","town_kana":"トウノチョウ","prefecture_code":28},"0032":{"zip_code":"6650032","prefecture":"兵庫県","prefecture_kana":"ヒョウゴケン","city":"宝塚市","city_kana":"タカラヅカシ","town":"東洋町","town_kana":"トウヨウチョウ","prefecture_code":28},"0021":{"zip_code":"6650021","prefecture":"兵庫県","prefecture_kana":"ヒョウゴケン","city":"宝塚市","city_kana":"タカラヅカシ","town":"中州","town_kana":"ナカス","prefecture_code":28},"0874":{"zip_code":"6650874","prefecture":"兵庫県","prefecture_kana":"ヒョウゴケン","city":"宝塚市","city_kana":"タカラヅカシ","town":"中筋","town_kana":"ナカスジ","prefecture_code":28},"0872":{"zip_code":"6650872","prefecture":"兵庫県","prefecture_kana":"ヒョウゴケン","city":"宝塚市","city_kana":"タカラヅカシ","town":"中筋平井","town_kana":"ナカスジヒライ","prefecture_code":28},"0875":{"zip_code":"6650875","prefecture":"兵庫県","prefecture_kana":"ヒョウゴケン","city":"宝塚市","city_kana":"タカラヅカシ","town":"中筋山手","town_kana":"ナカスジヤマテ","prefecture_code":28},"0056":{"zip_code":"6650056","prefecture":"兵庫県","prefecture_kana":"ヒョウゴケン","city":"宝塚市","city_kana":"タカラヅカシ","town":"中野町","town_kana":"ナカノチョウ","prefecture_code":28},"0877":{"zip_code":"6650877","prefecture":"兵庫県","prefecture_kana":"ヒョウゴケン","city":"宝塚市","city_kana":"タカラヅカシ","town":"中山桜台","town_kana":"ナカヤマサクラダイ","prefecture_code":28},"0871":{"zip_code":"6650871","prefecture":"兵庫県","prefecture_kana":"ヒョウゴケン","city":"宝塚市","city_kana":"タカラヅカシ","town":"中山五月台","town_kana":"ナカヤマサツキダイ","prefecture_code":28},"0868":{"zip_code":"6650868","prefecture":"兵庫県","prefecture_kana":"ヒョウゴケン","city":"宝塚市","city_kana":"タカラヅカシ","town":"中山荘園","town_kana":"ナカヤマソウエン","prefecture_code":28},"0876":{"zip_code":"6650876","prefecture":"兵庫県","prefecture_kana":"ヒョウゴケン","city":"宝塚市","city_kana":"タカラヅカシ","town":"中山台","town_kana":"ナカヤマダイ","prefecture_code":28},"0861":{"zip_code":"6650861","prefecture":"兵庫県","prefecture_kana":"ヒョウゴケン","city":"宝塚市","city_kana":"タカラヅカシ","town":"中山寺","town_kana":"ナカヤマデラ","prefecture_code":28},"0807":{"zip_code":"6650807","prefecture":"兵庫県","prefecture_kana":"ヒョウゴケン","city":"宝塚市","city_kana":"タカラヅカシ","town":"長尾台","town_kana":"ナガオダイ","prefecture_code":28},"0873":{"zip_code":"6650873","prefecture":"兵庫県","prefecture_kana":"ヒョウゴケン","city":"宝塚市","city_kana":"タカラヅカシ","town":"長尾町","town_kana":"ナガオチョウ","prefecture_code":28},"0065":{"zip_code":"6650065","prefecture":"兵庫県","prefecture_kana":"ヒョウゴケン","city":"宝塚市","city_kana":"タカラヅカシ","town":"仁川旭ガ丘","town_kana":"ニガワアサヒガオカ","prefecture_code":28},"0064":{"zip_code":"6650064","prefecture":"兵庫県","prefecture_kana":"ヒョウゴケン","city":"宝塚市","city_kana":"タカラヅカシ","town":"仁川うぐいす台","town_kana":"ニガワウグイスダイ","prefecture_code":28},"0062":{"zip_code":"6650062","prefecture":"兵庫県","prefecture_kana":"ヒョウゴケン","city":"宝塚市","city_kana":"タカラヅカシ","town":"仁川高台","town_kana":"ニガワタカダイ","prefecture_code":28},"0063":{"zip_code":"6650063","prefecture":"兵庫県","prefecture_kana":"ヒョウゴケン","city":"宝塚市","city_kana":"タカラヅカシ","town":"仁川高丸","town_kana":"ニガワタカマル","prefecture_code":28},"0066":{"zip_code":"6650066","prefecture":"兵庫県","prefecture_kana":"ヒョウゴケン","city":"宝塚市","city_kana":"タカラヅカシ","town":"仁川団地","town_kana":"ニガワダンチ","prefecture_code":28},"0067":{"zip_code":"6650067","prefecture":"兵庫県","prefecture_kana":"ヒョウゴケン","city":"宝塚市","city_kana":"タカラヅカシ","town":"仁川月見ガ丘","town_kana":"ニガワツキミガオカ","prefecture_code":28},"0075":{"zip_code":"6650075","prefecture":"兵庫県","prefecture_kana":"ヒョウゴケン","city":"宝塚市","city_kana":"タカラヅカシ","town":"仁川宮西町","town_kana":"ニガワミヤニシチョウ","prefecture_code":28},"0061":{"zip_code":"6650061","prefecture":"兵庫県","prefecture_kana":"ヒョウゴケン","city":"宝塚市","city_kana":"タカラヅカシ","town":"仁川北","town_kana":"ニガワキタ","prefecture_code":28},"0074":{"zip_code":"6650074","prefecture":"兵庫県","prefecture_kana":"ヒョウゴケン","city":"宝塚市","city_kana":"タカラヅカシ","town":"仁川台","town_kana":"ニガワダイ","prefecture_code":28},"0022":{"zip_code":"6650022","prefecture":"兵庫県","prefecture_kana":"ヒョウゴケン","city":"宝塚市","city_kana":"タカラヅカシ","town":"野上","town_kana":"ノガミ","prefecture_code":28},"0802":{"zip_code":"6650802","prefecture":"兵庫県","prefecture_kana":"ヒョウゴケン","city":"宝塚市","city_kana":"タカラヅカシ","town":"花屋敷荘園","town_kana":"ハナヤシキソウエン","prefecture_code":28},"0803":{"zip_code":"6650803","prefecture":"兵庫県","prefecture_kana":"ヒョウゴケン","city":"宝塚市","city_kana":"タカラヅカシ","town":"花屋敷つつじガ丘","town_kana":"ハナヤシキツツジガオカ","prefecture_code":28},"0801":{"zip_code":"6650801","prefecture":"兵庫県","prefecture_kana":"ヒョウゴケン","city":"宝塚市","city_kana":"タカラヅカシ","town":"花屋敷松ガ丘","town_kana":"ハナヤシキマツガオカ","prefecture_code":28},"0015":{"zip_code":"6650015","prefecture":"兵庫県","prefecture_kana":"ヒョウゴケン","city":"宝塚市","city_kana":"タカラヅカシ","town":"光ガ丘","town_kana":"ヒカリガオカ","prefecture_code":28},"0805":{"zip_code":"6650805","prefecture":"兵庫県","prefecture_kana":"ヒョウゴケン","city":"宝塚市","city_kana":"タカラヅカシ","town":"雲雀丘","town_kana":"ヒバリガオカ","prefecture_code":28},"0804":{"zip_code":"6650804","prefecture":"兵庫県","prefecture_kana":"ヒョウゴケン","city":"宝塚市","city_kana":"タカラヅカシ","town":"雲雀丘山手","town_kana":"ヒバリガオカヤマテ","prefecture_code":28},"0816":{"zip_code":"6650816","prefecture":"兵庫県","prefecture_kana":"ヒョウゴケン","city":"宝塚市","city_kana":"タカラヅカシ","town":"平井","town_kana":"ヒライ","prefecture_code":28},"0817":{"zip_code":"6650817","prefecture":"兵庫県","prefecture_kana":"ヒョウゴケン","city":"宝塚市","city_kana":"タカラヅカシ","town":"平井山荘","town_kana":"ヒライサンソウ","prefecture_code":28},"0046":{"zip_code":"6650046","prefecture":"兵庫県","prefecture_kana":"ヒョウゴケン","city":"宝塚市","city_kana":"タカラヅカシ","town":"福井町","town_kana":"フクイチョウ","prefecture_code":28},"0806":{"zip_code":"6650806","prefecture":"兵庫県","prefecture_kana":"ヒョウゴケン","city":"宝塚市","city_kana":"タカラヅカシ","town":"ふじガ丘","town_kana":"フジガオカ","prefecture_code":28},"0016":{"zip_code":"6650016","prefecture":"兵庫県","prefecture_kana":"ヒョウゴケン","city":"宝塚市","city_kana":"タカラヅカシ","town":"宝松苑","town_kana":"ホウショウエン","prefecture_code":28},"0013":{"zip_code":"6650013","prefecture":"兵庫県","prefecture_kana":"ヒョウゴケン","city":"宝塚市","city_kana":"タカラヅカシ","town":"宝梅","town_kana":"ホウバイ","prefecture_code":28},"0866":{"zip_code":"6650866","prefecture":"兵庫県","prefecture_kana":"ヒョウゴケン","city":"宝塚市","city_kana":"タカラヅカシ","town":"星の荘","town_kana":"ホシノソウ","prefecture_code":28},"0831":{"zip_code":"6650831","prefecture":"兵庫県","prefecture_kana":"ヒョウゴケン","city":"宝塚市","city_kana":"タカラヅカシ","town":"米谷","town_kana":"マイタニ","prefecture_code":28},"0837":{"zip_code":"6650837","prefecture":"兵庫県","prefecture_kana":"ヒョウゴケン","city":"宝塚市","city_kana":"タカラヅカシ","town":"米谷清","town_kana":"マイタニキヨシ","prefecture_code":28},"0863":{"zip_code":"6650863","prefecture":"兵庫県","prefecture_kana":"ヒョウゴケン","city":"宝塚市","city_kana":"タカラヅカシ","town":"三笠町","town_kana":"ミカサチョウ","prefecture_code":28},"0834":{"zip_code":"6650834","prefecture":"兵庫県","prefecture_kana":"ヒョウゴケン","city":"宝塚市","city_kana":"タカラヅカシ","town":"美座","town_kana":"ミザ","prefecture_code":28},"0011":{"zip_code":"6650011","prefecture":"兵庫県","prefecture_kana":"ヒョウゴケン","city":"宝塚市","city_kana":"タカラヅカシ","town":"南口","town_kana":"ミナミグチ","prefecture_code":28},"0811":{"zip_code":"6650811","prefecture":"兵庫県","prefecture_kana":"ヒョウゴケン","city":"宝塚市","city_kana":"タカラヅカシ","town":"南ひばりガ丘","town_kana":"ミナミヒバリガオカ","prefecture_code":28},"0843":{"zip_code":"6650843","prefecture":"兵庫県","prefecture_kana":"ヒョウゴケン","city":"宝塚市","city_kana":"タカラヅカシ","town":"宮の町","town_kana":"ミヤノチョウ","prefecture_code":28},"0042":{"zip_code":"6650042","prefecture":"兵庫県","prefecture_kana":"ヒョウゴケン","city":"宝塚市","city_kana":"タカラヅカシ","town":"美幸町","town_kana":"ミユキチョウ","prefecture_code":28},"0844":{"zip_code":"6650844","prefecture":"兵庫県","prefecture_kana":"ヒョウゴケン","city":"宝塚市","city_kana":"タカラヅカシ","town":"武庫川町","town_kana":"ムコガワチョウ","prefecture_code":28},"0005":{"zip_code":"6650005","prefecture":"兵庫県","prefecture_kana":"ヒョウゴケン","city":"宝塚市","city_kana":"タカラヅカシ","town":"武庫山","town_kana":"ムコヤマ","prefecture_code":28},"0852":{"zip_code":"6650852","prefecture":"兵庫県","prefecture_kana":"ヒョウゴケン","city":"宝塚市","city_kana":"タカラヅカシ","town":"売布","town_kana":"メフ","prefecture_code":28},"0855":{"zip_code":"6650855","prefecture":"兵庫県","prefecture_kana":"ヒョウゴケン","city":"宝塚市","city_kana":"タカラヅカシ","town":"売布きよしガ丘","town_kana":"メフキヨシガオカ","prefecture_code":28},"0856":{"zip_code":"6650856","prefecture":"兵庫県","prefecture_kana":"ヒョウゴケン","city":"宝塚市","city_kana":"タカラヅカシ","town":"売布自由ガ丘","town_kana":"メフジユウガオカ","prefecture_code":28},"0867":{"zip_code":"6650867","prefecture":"兵庫県","prefecture_kana":"ヒョウゴケン","city":"宝塚市","city_kana":"タカラヅカシ","town":"売布東の町","town_kana":"メフヒガシノチョウ","prefecture_code":28},"0854":{"zip_code":"6650854","prefecture":"兵庫県","prefecture_kana":"ヒョウゴケン","city":"宝塚市","city_kana":"タカラヅカシ","town":"売布山手町","town_kana":"メフヤマテチョウ","prefecture_code":28},"0853":{"zip_code":"6650853","prefecture":"兵庫県","prefecture_kana":"ヒョウゴケン","city":"宝塚市","city_kana":"タカラヅカシ","town":"売布ガ丘","town_kana":"メフガオカ","prefecture_code":28},"0006":{"zip_code":"6650006","prefecture":"兵庫県","prefecture_kana":"ヒョウゴケン","city":"宝塚市","city_kana":"タカラヅカシ","town":"紅葉ガ丘","town_kana":"モミジガオカ","prefecture_code":28},"0071":{"zip_code":"6650071","prefecture":"兵庫県","prefecture_kana":"ヒョウゴケン","city":"宝塚市","city_kana":"タカラヅカシ","town":"社町","town_kana":"ヤシロチョウ","prefecture_code":28},"0887":{"zip_code":"6650887","prefecture":"兵庫県","prefecture_kana":"ヒョウゴケン","city":"宝塚市","city_kana":"タカラヅカシ","town":"山手台東","town_kana":"ヤマテダイヒガシ","prefecture_code":28},"0886":{"zip_code":"6650886","prefecture":"兵庫県","prefecture_kana":"ヒョウゴケン","city":"宝塚市","city_kana":"タカラヅカシ","town":"山手台西","town_kana":"ヤマテダイニシ","prefecture_code":28},"0883":{"zip_code":"6650883","prefecture":"兵庫県","prefecture_kana":"ヒョウゴケン","city":"宝塚市","city_kana":"タカラヅカシ","town":"山本中","town_kana":"ヤマモトナカ","prefecture_code":28},"0814":{"zip_code":"6650814","prefecture":"兵庫県","prefecture_kana":"ヒョウゴケン","city":"宝塚市","city_kana":"タカラヅカシ","town":"山本野里","town_kana":"ヤマモトノザト","prefecture_code":28},"0815":{"zip_code":"6650815","prefecture":"兵庫県","prefecture_kana":"ヒョウゴケン","city":"宝塚市","city_kana":"タカラヅカシ","town":"山本丸橋","town_kana":"ヤマモトマルハシ","prefecture_code":28},"0881":{"zip_code":"6650881","prefecture":"兵庫県","prefecture_kana":"ヒョウゴケン","city":"宝塚市","city_kana":"タカラヅカシ","town":"山本東","town_kana":"ヤマモトヒガシ","prefecture_code":28},"0884":{"zip_code":"6650884","prefecture":"兵庫県","prefecture_kana":"ヒョウゴケン","city":"宝塚市","city_kana":"タカラヅカシ","town":"山本西","town_kana":"ヤマモトニシ","prefecture_code":28},"0882":{"zip_code":"6650882","prefecture":"兵庫県","prefecture_kana":"ヒョウゴケン","city":"宝塚市","city_kana":"タカラヅカシ","town":"山本南","town_kana":"ヤマモトミナミ","prefecture_code":28},"0885":{"zip_code":"6650885","prefecture":"兵庫県","prefecture_kana":"ヒョウゴケン","city":"宝塚市","city_kana":"タカラヅカシ","town":"山本台","town_kana":"ヤマモトダイ","prefecture_code":28},"0826":{"zip_code":"6650826","prefecture":"兵庫県","prefecture_kana":"ヒョウゴケン","city":"宝塚市","city_kana":"タカラヅカシ","town":"弥生町","town_kana":"ヤヨイチョウ","prefecture_code":28},"0025":{"zip_code":"6650025","prefecture":"兵庫県","prefecture_kana":"ヒョウゴケン","city":"宝塚市","city_kana":"タカラヅカシ","town":"ゆずり葉台","town_kana":"ユズリハダイ","prefecture_code":28},"0003":{"zip_code":"6650003","prefecture":"兵庫県","prefecture_kana":"ヒョウゴケン","city":"宝塚市","city_kana":"タカラヅカシ","town":"湯本町","town_kana":"ユモトチョウ","prefecture_code":28},"0891":{"zip_code":"6650891","prefecture":"兵庫県","prefecture_kana":"ヒョウゴケン","city":"川西市","city_kana":"カワニシシ","town":"満願寺町","town_kana":"マンガンジチョウ","prefecture_code":28}}