{"0161":{"zip_code":"6660161","prefecture":"兵庫県","prefecture_kana":"ヒョウゴケン","city":"宝塚市","city_kana":"タカラヅカシ","town":"切畑","town_kana":"キリハタ","prefecture_code":28},"0162":{"zip_code":"6660162","prefecture":"兵庫県","prefecture_kana":"ヒョウゴケン","city":"宝塚市","city_kana":"タカラヅカシ","town":"花屋敷緑ガ丘","town_kana":"ハナヤシキミドリガオカ","prefecture_code":28},"0000":{"zip_code":"6660000","prefecture":"兵庫県","prefecture_kana":"ヒョウゴケン","city":"川西市","city_kana":"カワニシシ","town":"","town_kana":"","prefecture_code":28},"0148":{"zip_code":"6660148","prefecture":"兵庫県","prefecture_kana":"ヒョウゴケン","city":"川西市","city_kana":"カワニシシ","town":"赤松","town_kana":"アカマツ","prefecture_code":28},"0156":{"zip_code":"6660156","prefecture":"兵庫県","prefecture_kana":"ヒョウゴケン","city":"川西市","city_kana":"カワニシシ","town":"石道","town_kana":"イシミチ","prefecture_code":28},"0146":{"zip_code":"6660146","prefecture":"兵庫県","prefecture_kana":"ヒョウゴケン","city":"川西市","city_kana":"カワニシシ","town":"芋生","town_kana":"イモオ","prefecture_code":28},"0007":{"zip_code":"6660007","prefecture":"兵庫県","prefecture_kana":"ヒョウゴケン","city":"川西市","city_kana":"カワニシシ","town":"鴬が丘","town_kana":"ウグイスガオカ","prefecture_code":28},"0133":{"zip_code":"6660133","prefecture":"兵庫県","prefecture_kana":"ヒョウゴケン","city":"川西市","city_kana":"カワニシシ","town":"鴬台","town_kana":"ウグイスダイ","prefecture_code":28},"0001":{"zip_code":"6660001","prefecture":"兵庫県","prefecture_kana":"ヒョウゴケン","city":"川西市","city_kana":"カワニシシ","town":"鴬の森町","town_kana":"ウグイスノモリチョウ","prefecture_code":28},"0014":{"zip_code":"6660014","prefecture":"兵庫県","prefecture_kana":"ヒョウゴケン","city":"川西市","city_kana":"カワニシシ","town":"小戸","town_kana":"オオベ","prefecture_code":28},"0015":{"zip_code":"6660015","prefecture":"兵庫県","prefecture_kana":"ヒョウゴケン","city":"川西市","city_kana":"カワニシシ","town":"小花","town_kana":"オバナ","prefecture_code":28},"0031":{"zip_code":"6660031","prefecture":"兵庫県","prefecture_kana":"ヒョウゴケン","city":"川西市","city_kana":"カワニシシ","town":"霞ケ丘","town_kana":"カスミガオカ","prefecture_code":28},"0025":{"zip_code":"6660025","prefecture":"兵庫県","prefecture_kana":"ヒョウゴケン","city":"川西市","city_kana":"カワニシシ","town":"加茂","town_kana":"カモ","prefecture_code":28},"0012":{"zip_code":"6660012","prefecture":"兵庫県","prefecture_kana":"ヒョウゴケン","city":"川西市","city_kana":"カワニシシ","town":"絹延町","town_kana":"キヌノベチョウ","prefecture_code":28},"0135":{"zip_code":"6660135","prefecture":"兵庫県","prefecture_kana":"ヒョウゴケン","city":"川西市","city_kana":"カワニシシ","town":"錦松台","town_kana":"キンショウダイ","prefecture_code":28},"0024":{"zip_code":"6660024","prefecture":"兵庫県","prefecture_kana":"ヒョウゴケン","city":"川西市","city_kana":"カワニシシ","town":"久代","town_kana":"クシロ","prefecture_code":28},"0103":{"zip_code":"6660103","prefecture":"兵庫県","prefecture_kana":"ヒョウゴケン","city":"川西市","city_kana":"カワニシシ","town":"国崎","town_kana":"クニサキ","prefecture_code":28},"0101":{"zip_code":"6660101","prefecture":"兵庫県","prefecture_kana":"ヒョウゴケン","city":"川西市","city_kana":"カワニシシ","town":"黒川","town_kana":"クロカワ","prefecture_code":28},"0107":{"zip_code":"6660107","prefecture":"兵庫県","prefecture_kana":"ヒョウゴケン","city":"川西市","city_kana":"カワニシシ","town":"下財町","town_kana":"ゲザイチョウ","prefecture_code":28},"0145":{"zip_code":"6660145","prefecture":"兵庫県","prefecture_kana":"ヒョウゴケン","city":"川西市","city_kana":"カワニシシ","town":"けやき坂","town_kana":"ケヤキザカ","prefecture_code":28},"0115":{"zip_code":"6660115","prefecture":"兵庫県","prefecture_kana":"ヒョウゴケン","city":"川西市","city_kana":"カワニシシ","town":"向陽台","town_kana":"コウヨウダイ","prefecture_code":28},"0033":{"zip_code":"6660033","prefecture":"兵庫県","prefecture_kana":"ヒョウゴケン","city":"川西市","city_kana":"カワニシシ","town":"栄町","town_kana":"サカエマチ","prefecture_code":28},"0021":{"zip_code":"6660021","prefecture":"兵庫県","prefecture_kana":"ヒョウゴケン","city":"川西市","city_kana":"カワニシシ","town":"栄根","town_kana":"サカネ","prefecture_code":28},"0104":{"zip_code":"6660104","prefecture":"兵庫県","prefecture_kana":"ヒョウゴケン","city":"川西市","city_kana":"カワニシシ","town":"笹部","town_kana":"ササベ","prefecture_code":28},"0022":{"zip_code":"6660022","prefecture":"兵庫県","prefecture_kana":"ヒョウゴケン","city":"川西市","city_kana":"カワニシシ","town":"下加茂","town_kana":"シタカモ","prefecture_code":28},"0125":{"zip_code":"6660125","prefecture":"兵庫県","prefecture_kana":"ヒョウゴケン","city":"川西市","city_kana":"カワニシシ","town":"新田","town_kana":"シンデン","prefecture_code":28},"0116":{"zip_code":"6660116","prefecture":"兵庫県","prefecture_kana":"ヒョウゴケン","city":"川西市","city_kana":"カワニシシ","town":"水明台","town_kana":"スイメイダイ","prefecture_code":28},"0158":{"zip_code":"6660158","prefecture":"兵庫県","prefecture_kana":"ヒョウゴケン","city":"川西市","city_kana":"カワニシシ","town":"清流台","town_kana":"セイリュウダイ","prefecture_code":28},"0142":{"zip_code":"6660142","prefecture":"兵庫県","prefecture_kana":"ヒョウゴケン","city":"川西市","city_kana":"カワニシシ","town":"清和台東","town_kana":"セイワダイヒガシ","prefecture_code":28},"0143":{"zip_code":"6660143","prefecture":"兵庫県","prefecture_kana":"ヒョウゴケン","city":"川西市","city_kana":"カワニシシ","town":"清和台西","town_kana":"セイワダイニシ","prefecture_code":28},"0111":{"zip_code":"6660111","prefecture":"兵庫県","prefecture_kana":"ヒョウゴケン","city":"川西市","city_kana":"カワニシシ","town":"大和東","town_kana":"ダイワヒガシ","prefecture_code":28},"0112":{"zip_code":"6660112","prefecture":"兵庫県","prefecture_kana":"ヒョウゴケン","city":"川西市","city_kana":"カワニシシ","town":"大和西","town_kana":"ダイワニシ","prefecture_code":28},"0002":{"zip_code":"6660002","prefecture":"兵庫県","prefecture_kana":"ヒョウゴケン","city":"川西市","city_kana":"カワニシシ","town":"滝山町","town_kana":"タキヤマチョウ","prefecture_code":28},"0126":{"zip_code":"6660126","prefecture":"兵庫県","prefecture_kana":"ヒョウゴケン","city":"川西市","city_kana":"カワニシシ","town":"多田院","town_kana":"タダイン","prefecture_code":28},"0127":{"zip_code":"6660127","prefecture":"兵庫県","prefecture_kana":"ヒョウゴケン","city":"川西市","city_kana":"カワニシシ","town":"多田院多田所町","town_kana":"タダインタダドコロチョウ","prefecture_code":28},"0128":{"zip_code":"6660128","prefecture":"兵庫県","prefecture_kana":"ヒョウゴケン","city":"川西市","city_kana":"カワニシシ","town":"多田院西","town_kana":"タダインニシ","prefecture_code":28},"0124":{"zip_code":"6660124","prefecture":"兵庫県","prefecture_kana":"ヒョウゴケン","city":"川西市","city_kana":"カワニシシ","town":"多田桜木","town_kana":"タダサクラギ","prefecture_code":28},"0016":{"zip_code":"6660016","prefecture":"兵庫県","prefecture_kana":"ヒョウゴケン","city":"川西市","city_kana":"カワニシシ","town":"中央町","town_kana":"チュウオウチョウ","prefecture_code":28},"0123":{"zip_code":"6660123","prefecture":"兵庫県","prefecture_kana":"ヒョウゴケン","city":"川西市","city_kana":"カワニシシ","town":"鼓が滝","town_kana":"ツツミガタキ","prefecture_code":28},"0011":{"zip_code":"6660011","prefecture":"兵庫県","prefecture_kana":"ヒョウゴケン","city":"川西市","city_kana":"カワニシシ","town":"出在家町","town_kana":"デザイケチョウ","prefecture_code":28},"0034":{"zip_code":"6660034","prefecture":"兵庫県","prefecture_kana":"ヒョウゴケン","city":"川西市","city_kana":"カワニシシ","town":"寺畑","town_kana":"テラハタ","prefecture_code":28},"0113":{"zip_code":"6660113","prefecture":"兵庫県","prefecture_kana":"ヒョウゴケン","city":"川西市","city_kana":"カワニシシ","town":"長尾町","town_kana":"ナガオチョウ","prefecture_code":28},"0155":{"zip_code":"6660155","prefecture":"兵庫県","prefecture_kana":"ヒョウゴケン","city":"川西市","city_kana":"カワニシシ","town":"西畦野","town_kana":"ニシウネノ","prefecture_code":28},"0138":{"zip_code":"6660138","prefecture":"兵庫県","prefecture_kana":"ヒョウゴケン","city":"川西市","city_kana":"カワニシシ","town":"西多田","town_kana":"ニシタダ","prefecture_code":28},"0004":{"zip_code":"6660004","prefecture":"兵庫県","prefecture_kana":"ヒョウゴケン","city":"川西市","city_kana":"カワニシシ","town":"萩原","town_kana":"ハギハラ","prefecture_code":28},"0005":{"zip_code":"6660005","prefecture":"兵庫県","prefecture_kana":"ヒョウゴケン","city":"川西市","city_kana":"カワニシシ","town":"萩原台東","town_kana":"ハギハラダイヒガシ","prefecture_code":28},"0006":{"zip_code":"6660006","prefecture":"兵庫県","prefecture_kana":"ヒョウゴケン","city":"川西市","city_kana":"カワニシシ","town":"萩原台西","town_kana":"ハギハラダイニシ","prefecture_code":28},"0134":{"zip_code":"6660134","prefecture":"兵庫県","prefecture_kana":"ヒョウゴケン","city":"川西市","city_kana":"カワニシシ","town":"萩原台西","town_kana":"ハギハラダイニシ","prefecture_code":28},"0035":{"zip_code":"6660035","prefecture":"兵庫県","prefecture_kana":"ヒョウゴケン","city":"川西市","city_kana":"カワニシシ","town":"花屋敷","town_kana":"ハナヤシキ","prefecture_code":28},"0036":{"zip_code":"6660036","prefecture":"兵庫県","prefecture_kana":"ヒョウゴケン","city":"川西市","city_kana":"カワニシシ","town":"花屋敷山手町","town_kana":"ハナヤシキヤマテチョウ","prefecture_code":28},"0017":{"zip_code":"6660017","prefecture":"兵庫県","prefecture_kana":"ヒョウゴケン","city":"川西市","city_kana":"カワニシシ","town":"火打","town_kana":"ヒウチ","prefecture_code":28},"0117":{"zip_code":"6660117","prefecture":"兵庫県","prefecture_kana":"ヒョウゴケン","city":"川西市","city_kana":"カワニシシ","town":"東畦野","town_kana":"ヒガシウネノ","prefecture_code":28},"0114":{"zip_code":"6660114","prefecture":"兵庫県","prefecture_kana":"ヒョウゴケン","city":"川西市","city_kana":"カワニシシ","town":"東畦野山手","town_kana":"ヒガシウネノヤマテ","prefecture_code":28},"0023":{"zip_code":"6660023","prefecture":"兵庫県","prefecture_kana":"ヒョウゴケン","city":"川西市","city_kana":"カワニシシ","town":"東久代","town_kana":"ヒガシクシロ","prefecture_code":28},"0122":{"zip_code":"6660122","prefecture":"兵庫県","prefecture_kana":"ヒョウゴケン","city":"川西市","city_kana":"カワニシシ","town":"東多田","town_kana":"ヒガシタダ","prefecture_code":28},"0032":{"zip_code":"6660032","prefecture":"兵庫県","prefecture_kana":"ヒョウゴケン","city":"川西市","city_kana":"カワニシシ","town":"日高町","town_kana":"ヒダカチョウ","prefecture_code":28},"0153":{"zip_code":"6660153","prefecture":"兵庫県","prefecture_kana":"ヒョウゴケン","city":"川西市","city_kana":"カワニシシ","town":"一庫","town_kana":"ヒトクラ","prefecture_code":28},"0121":{"zip_code":"6660121","prefecture":"兵庫県","prefecture_kana":"ヒョウゴケン","city":"川西市","city_kana":"カワニシシ","town":"平野","town_kana":"ヒラノ","prefecture_code":28},"0037":{"zip_code":"6660037","prefecture":"兵庫県","prefecture_kana":"ヒョウゴケン","city":"川西市","city_kana":"カワニシシ","town":"松が丘町","town_kana":"マツガオカチョウ","prefecture_code":28},"0003":{"zip_code":"6660003","prefecture":"兵庫県","prefecture_kana":"ヒョウゴケン","city":"川西市","city_kana":"カワニシシ","town":"丸の内町","town_kana":"マルノウチチョウ","prefecture_code":28},"0152":{"zip_code":"6660152","prefecture":"兵庫県","prefecture_kana":"ヒョウゴケン","city":"川西市","city_kana":"カワニシシ","town":"丸山台","town_kana":"マルヤマダイ","prefecture_code":28},"0013":{"zip_code":"6660013","prefecture":"兵庫県","prefecture_kana":"ヒョウゴケン","city":"川西市","city_kana":"カワニシシ","town":"美園町","town_kana":"ミソノチョウ","prefecture_code":28},"0157":{"zip_code":"6660157","prefecture":"兵庫県","prefecture_kana":"ヒョウゴケン","city":"川西市","city_kana":"カワニシシ","town":"緑が丘","town_kana":"ミドリガオカ","prefecture_code":28},"0129":{"zip_code":"6660129","prefecture":"兵庫県","prefecture_kana":"ヒョウゴケン","city":"川西市","city_kana":"カワニシシ","town":"緑台","town_kana":"ミドリダイ","prefecture_code":28},"0136":{"zip_code":"6660136","prefecture":"兵庫県","prefecture_kana":"ヒョウゴケン","city":"川西市","city_kana":"カワニシシ","town":"南野坂","town_kana":"ミナミノサカ","prefecture_code":28},"0026":{"zip_code":"6660026","prefecture":"兵庫県","prefecture_kana":"ヒョウゴケン","city":"川西市","city_kana":"カワニシシ","town":"南花屋敷","town_kana":"ミナミハナヤシキ","prefecture_code":28},"0105":{"zip_code":"6660105","prefecture":"兵庫県","prefecture_kana":"ヒョウゴケン","city":"川西市","city_kana":"カワニシシ","town":"見野","town_kana":"ミノ","prefecture_code":28},"0151":{"zip_code":"6660151","prefecture":"兵庫県","prefecture_kana":"ヒョウゴケン","city":"川西市","city_kana":"カワニシシ","town":"美山台","town_kana":"ミヤマダイ","prefecture_code":28},"0141":{"zip_code":"6660141","prefecture":"兵庫県","prefecture_kana":"ヒョウゴケン","city":"川西市","city_kana":"カワニシシ","town":"虫生","town_kana":"ムシュウ","prefecture_code":28},"0131":{"zip_code":"6660131","prefecture":"兵庫県","prefecture_kana":"ヒョウゴケン","city":"川西市","city_kana":"カワニシシ","town":"矢問","town_kana":"ヤトウ","prefecture_code":28},"0132":{"zip_code":"6660132","prefecture":"兵庫県","prefecture_kana":"ヒョウゴケン","city":"川西市","city_kana":"カワニシシ","town":"矢問東町","town_kana":"ヤトウヒガシマチ","prefecture_code":28},"0144":{"zip_code":"6660144","prefecture":"兵庫県","prefecture_kana":"ヒョウゴケン","city":"川西市","city_kana":"カワニシシ","town":"柳谷","town_kana":"ヤナギタニ","prefecture_code":28},"0106":{"zip_code":"6660106","prefecture":"兵庫県","prefecture_kana":"ヒョウゴケン","city":"川西市","city_kana":"カワニシシ","town":"山下町","town_kana":"ヤマシタチョウ","prefecture_code":28},"0154":{"zip_code":"6660154","prefecture":"兵庫県","prefecture_kana":"ヒョウゴケン","city":"川西市","city_kana":"カワニシシ","town":"山原","town_kana":"ヤマハラ","prefecture_code":28},"0137":{"zip_code":"6660137","prefecture":"兵庫県","prefecture_kana":"ヒョウゴケン","city":"川西市","city_kana":"カワニシシ","town":"湯山台","town_kana":"ユヤマダイ","prefecture_code":28},"0102":{"zip_code":"6660102","prefecture":"兵庫県","prefecture_kana":"ヒョウゴケン","city":"川西市","city_kana":"カワニシシ","town":"横路","town_kana":"ヨコジ","prefecture_code":28},"0147":{"zip_code":"6660147","prefecture":"兵庫県","prefecture_kana":"ヒョウゴケン","city":"川西市","city_kana":"カワニシシ","town":"若宮","town_kana":"ワカミヤ","prefecture_code":28},"0200":{"zip_code":"6660200","prefecture":"兵庫県","prefecture_kana":"ヒョウゴケン","city":"川辺郡猪名川町","city_kana":"カワベグンイナガワチョウ","town":"","town_kana":"","prefecture_code":28},"0212":{"zip_code":"6660212","prefecture":"兵庫県","prefecture_kana":"ヒョウゴケン","city":"川辺郡猪名川町","city_kana":"カワベグンイナガワチョウ","town":"旭ケ丘","town_kana":"アサヒガオカ","prefecture_code":28},"0246":{"zip_code":"6660246","prefecture":"兵庫県","prefecture_kana":"ヒョウゴケン","city":"川辺郡猪名川町","city_kana":"カワベグンイナガワチョウ","town":"猪名川台","town_kana":"イナガワダイ","prefecture_code":28},"0255":{"zip_code":"6660255","prefecture":"兵庫県","prefecture_kana":"ヒョウゴケン","city":"川辺郡猪名川町","city_kana":"カワベグンイナガワチョウ","town":"猪渕","town_kana":"イブチ","prefecture_code":28},"0244":{"zip_code":"6660244","prefecture":"兵庫県","prefecture_kana":"ヒョウゴケン","city":"川辺郡猪名川町","city_kana":"カワベグンイナガワチョウ","town":"上野","town_kana":"ウエノ","prefecture_code":28},"0241":{"zip_code":"6660241","prefecture":"兵庫県","prefecture_kana":"ヒョウゴケン","city":"川辺郡猪名川町","city_kana":"カワベグンイナガワチョウ","town":"内馬場","town_kana":"ウチババ","prefecture_code":28},"0243":{"zip_code":"6660243","prefecture":"兵庫県","prefecture_kana":"ヒョウゴケン","city":"川辺郡猪名川町","city_kana":"カワベグンイナガワチョウ","town":"柏梨田","town_kana":"カシウダ","prefecture_code":28},"0204":{"zip_code":"6660204","prefecture":"兵庫県","prefecture_kana":"ヒョウゴケン","city":"川辺郡猪名川町","city_kana":"カワベグンイナガワチョウ","town":"柏原","town_kana":"カシハラ","prefecture_code":28},"0202":{"zip_code":"6660202","prefecture":"兵庫県","prefecture_kana":"ヒョウゴケン","city":"川辺郡猪名川町","city_kana":"カワベグンイナガワチョウ","town":"鎌倉","town_kana":"カマクラ","prefecture_code":28},"0231":{"zip_code":"6660231","prefecture":"兵庫県","prefecture_kana":"ヒョウゴケン","city":"川辺郡猪名川町","city_kana":"カワベグンイナガワチョウ","town":"上阿古谷","town_kana":"カミアコタニ","prefecture_code":28},"0236":{"zip_code":"6660236","prefecture":"兵庫県","prefecture_kana":"ヒョウゴケン","city":"川辺郡猪名川町","city_kana":"カワベグンイナガワチョウ","town":"北田原","town_kana":"キタタハラ","prefecture_code":28},"0234":{"zip_code":"6660234","prefecture":"兵庫県","prefecture_kana":"ヒョウゴケン","city":"川辺郡猪名川町","city_kana":"カワベグンイナガワチョウ","town":"北野","town_kana":"キタノ","prefecture_code":28},"0225":{"zip_code":"6660225","prefecture":"兵庫県","prefecture_kana":"ヒョウゴケン","city":"川辺郡猪名川町","city_kana":"カワベグンイナガワチョウ","town":"木津","town_kana":"キヅ","prefecture_code":28},"0254":{"zip_code":"6660254","prefecture":"兵庫県","prefecture_kana":"ヒョウゴケン","city":"川辺郡猪名川町","city_kana":"カワベグンイナガワチョウ","town":"肝川","town_kana":"キモカワ","prefecture_code":28},"0256":{"zip_code":"6660256","prefecture":"兵庫県","prefecture_kana":"ヒョウゴケン","city":"川辺郡猪名川町","city_kana":"カワベグンイナガワチョウ","town":"銀山","town_kana":"ギンザン","prefecture_code":28},"0223":{"zip_code":"6660223","prefecture":"兵庫県","prefecture_kana":"ヒョウゴケン","city":"川辺郡猪名川町","city_kana":"カワベグンイナガワチョウ","town":"木間生","town_kana":"コモオ","prefecture_code":28},"0227":{"zip_code":"6660227","prefecture":"兵庫県","prefecture_kana":"ヒョウゴケン","city":"川辺郡猪名川町","city_kana":"カワベグンイナガワチョウ","town":"笹尾","town_kana":"ササオ","prefecture_code":28},"0253":{"zip_code":"6660253","prefecture":"兵庫県","prefecture_kana":"ヒョウゴケン","city":"川辺郡猪名川町","city_kana":"カワベグンイナガワチョウ","town":"差組","town_kana":"サシクミ","prefecture_code":28},"0215":{"zip_code":"6660215","prefecture":"兵庫県","prefecture_kana":"ヒョウゴケン","city":"川辺郡猪名川町","city_kana":"カワベグンイナガワチョウ","town":"島","town_kana":"シマ","prefecture_code":28},"0214":{"zip_code":"6660214","prefecture":"兵庫県","prefecture_kana":"ヒョウゴケン","city":"川辺郡猪名川町","city_kana":"カワベグンイナガワチョウ","town":"清水","town_kana":"シミズ","prefecture_code":28},"0213":{"zip_code":"6660213","prefecture":"兵庫県","prefecture_kana":"ヒョウゴケン","city":"川辺郡猪名川町","city_kana":"カワベグンイナガワチョウ","town":"清水東","town_kana":"シミズヒガシ","prefecture_code":28},"0237":{"zip_code":"6660237","prefecture":"兵庫県","prefecture_kana":"ヒョウゴケン","city":"川辺郡猪名川町","city_kana":"カワベグンイナガワチョウ","town":"下阿古谷","town_kana":"シモアコタニ","prefecture_code":28},"0257":{"zip_code":"6660257","prefecture":"兵庫県","prefecture_kana":"ヒョウゴケン","city":"川辺郡猪名川町","city_kana":"カワベグンイナガワチョウ","town":"白金","town_kana":"シロガネ","prefecture_code":28},"0201":{"zip_code":"6660201","prefecture":"兵庫県","prefecture_kana":"ヒョウゴケン","city":"川辺郡猪名川町","city_kana":"カワベグンイナガワチョウ","town":"杉生","town_kana":"スギオ","prefecture_code":28},"0238":{"zip_code":"6660238","prefecture":"兵庫県","prefecture_kana":"ヒョウゴケン","city":"川辺郡猪名川町","city_kana":"カワベグンイナガワチョウ","town":"荘苑","town_kana":"ソウエン","prefecture_code":28},"0232":{"zip_code":"6660232","prefecture":"兵庫県","prefecture_kana":"ヒョウゴケン","city":"川辺郡猪名川町","city_kana":"カワベグンイナガワチョウ","town":"民田","town_kana":"タミダ","prefecture_code":28},"0222":{"zip_code":"6660222","prefecture":"兵庫県","prefecture_kana":"ヒョウゴケン","city":"川辺郡猪名川町","city_kana":"カワベグンイナガワチョウ","town":"槻並","town_kana":"ツクナミ","prefecture_code":28},"0245":{"zip_code":"6660245","prefecture":"兵庫県","prefecture_kana":"ヒョウゴケン","city":"川辺郡猪名川町","city_kana":"カワベグンイナガワチョウ","town":"つつじが丘","town_kana":"ツツジガオカ","prefecture_code":28},"0221":{"zip_code":"6660221","prefecture":"兵庫県","prefecture_kana":"ヒョウゴケン","city":"川辺郡猪名川町","city_kana":"カワベグンイナガワチョウ","town":"杤原","town_kana":"トチハラ","prefecture_code":28},"0203":{"zip_code":"6660203","prefecture":"兵庫県","prefecture_kana":"ヒョウゴケン","city":"川辺郡猪名川町","city_kana":"カワベグンイナガワチョウ","town":"西畑","town_kana":"ニシハタ","prefecture_code":28},"0211":{"zip_code":"6660211","prefecture":"兵庫県","prefecture_kana":"ヒョウゴケン","city":"川辺郡猪名川町","city_kana":"カワベグンイナガワチョウ","town":"仁頂寺","town_kana":"ニジョウジ","prefecture_code":28},"0226":{"zip_code":"6660226","prefecture":"兵庫県","prefecture_kana":"ヒョウゴケン","city":"川辺郡猪名川町","city_kana":"カワベグンイナガワチョウ","town":"林田","town_kana":"ハヤシタ","prefecture_code":28},"0242":{"zip_code":"6660242","prefecture":"兵庫県","prefecture_kana":"ヒョウゴケン","city":"川辺郡猪名川町","city_kana":"カワベグンイナガワチョウ","town":"原","town_kana":"ハラ","prefecture_code":28},"0252":{"zip_code":"6660252","prefecture":"兵庫県","prefecture_kana":"ヒョウゴケン","city":"川辺郡猪名川町","city_kana":"カワベグンイナガワチョウ","town":"広根","town_kana":"ヒロネ","prefecture_code":28},"0262":{"zip_code":"6660262","prefecture":"兵庫県","prefecture_kana":"ヒョウゴケン","city":"川辺郡猪名川町","city_kana":"カワベグンイナガワチョウ","town":"伏見台","town_kana":"フシミダイ","prefecture_code":28},"0261":{"zip_code":"6660261","prefecture":"兵庫県","prefecture_kana":"ヒョウゴケン","city":"川辺郡猪名川町","city_kana":"カワベグンイナガワチョウ","town":"松尾台","town_kana":"マツオダイ","prefecture_code":28},"0224":{"zip_code":"6660224","prefecture":"兵庫県","prefecture_kana":"ヒョウゴケン","city":"川辺郡猪名川町","city_kana":"カワベグンイナガワチョウ","town":"万善","town_kana":"マンゼン","prefecture_code":28},"0235":{"zip_code":"6660235","prefecture":"兵庫県","prefecture_kana":"ヒョウゴケン","city":"川辺郡猪名川町","city_kana":"カワベグンイナガワチョウ","town":"南田原","town_kana":"ミナミタハラ","prefecture_code":28},"0233":{"zip_code":"6660233","prefecture":"兵庫県","prefecture_kana":"ヒョウゴケン","city":"川辺郡猪名川町","city_kana":"カワベグンイナガワチョウ","town":"紫合","town_kana":"ユウダ","prefecture_code":28},"0251":{"zip_code":"6660251","prefecture":"兵庫県","prefecture_kana":"ヒョウゴケン","city":"川辺郡猪名川町","city_kana":"カワベグンイナガワチョウ","town":"若葉","town_kana":"ワカバ","prefecture_code":28}}