{"0000":{"zip_code":"6670000","prefecture":"兵庫県","prefecture_kana":"ヒョウゴケン","city":"養父市","city_kana":"ヤブシ","town":"","town_kana":"","prefecture_code":28},"0115":{"zip_code":"6670115","prefecture":"兵庫県","prefecture_kana":"ヒョウゴケン","city":"養父市","city_kana":"ヤブシ","town":"上箇","town_kana":"アゲ","prefecture_code":28},"0103":{"zip_code":"6670103","prefecture":"兵庫県","prefecture_kana":"ヒョウゴケン","city":"養父市","city_kana":"ヤブシ","town":"浅野","town_kana":"アザノ","prefecture_code":28},"0104":{"zip_code":"6670104","prefecture":"兵庫県","prefecture_kana":"ヒョウゴケン","city":"養父市","city_kana":"ヤブシ","town":"伊豆","town_kana":"イズ","prefecture_code":28},"0132":{"zip_code":"6670132","prefecture":"兵庫県","prefecture_kana":"ヒョウゴケン","city":"養父市","city_kana":"ヤブシ","town":"稲津","town_kana":"イナヅ","prefecture_code":28},"0131":{"zip_code":"6670131","prefecture":"兵庫県","prefecture_kana":"ヒョウゴケン","city":"養父市","city_kana":"ヤブシ","town":"上野","town_kana":"ウエノ","prefecture_code":28},"1119":{"zip_code":"6671119","prefecture":"兵庫県","prefecture_kana":"ヒョウゴケン","city":"養父市","city_kana":"ヤブシ","town":"鵜縄","town_kana":"ウナワ","prefecture_code":28},"1127":{"zip_code":"6671127","prefecture":"兵庫県","prefecture_kana":"ヒョウゴケン","city":"養父市","city_kana":"ヤブシ","town":"大久保","town_kana":"オオクボ","prefecture_code":28},"1102":{"zip_code":"6671102","prefecture":"兵庫県","prefecture_kana":"ヒョウゴケン","city":"養父市","city_kana":"ヤブシ","town":"大谷","town_kana":"オオタニ","prefecture_code":28},"0125":{"zip_code":"6670125","prefecture":"兵庫県","prefecture_kana":"ヒョウゴケン","city":"養父市","city_kana":"ヤブシ","town":"大塚","town_kana":"オオツカ","prefecture_code":28},"0134":{"zip_code":"6670134","prefecture":"兵庫県","prefecture_kana":"ヒョウゴケン","city":"養父市","city_kana":"ヤブシ","town":"大坪","town_kana":"オオツボ","prefecture_code":28},"0436":{"zip_code":"6670436","prefecture":"兵庫県","prefecture_kana":"ヒョウゴケン","city":"養父市","city_kana":"ヤブシ","town":"大屋町明延","town_kana":"オオヤチョウアケノベ","prefecture_code":28},"0322":{"zip_code":"6670322","prefecture":"兵庫県","prefecture_kana":"ヒョウゴケン","city":"養父市","city_kana":"ヤブシ","town":"大屋町筏","town_kana":"オオヤチョウイカダ","prefecture_code":28},"0431":{"zip_code":"6670431","prefecture":"兵庫県","prefecture_kana":"ヒョウゴケン","city":"養父市","city_kana":"ヤブシ","town":"大屋町糸原","town_kana":"オオヤチョウイトワラ","prefecture_code":28},"0301":{"zip_code":"6670301","prefecture":"兵庫県","prefecture_kana":"ヒョウゴケン","city":"養父市","city_kana":"ヤブシ","town":"大屋町上山","town_kana":"オオヤチョウウヤマ","prefecture_code":28},"0303":{"zip_code":"6670303","prefecture":"兵庫県","prefecture_kana":"ヒョウゴケン","city":"養父市","city_kana":"ヤブシ","town":"大屋町おうみ","town_kana":"オオヤチョウオウミ","prefecture_code":28},"0314":{"zip_code":"6670314","prefecture":"兵庫県","prefecture_kana":"ヒョウゴケン","city":"養父市","city_kana":"ヤブシ","town":"大屋町大杉","town_kana":"オオヤチョウオオスギ","prefecture_code":28},"0311":{"zip_code":"6670311","prefecture":"兵庫県","prefecture_kana":"ヒョウゴケン","city":"養父市","city_kana":"ヤブシ","town":"大屋町大屋市場","town_kana":"オオヤチョウオオヤイチバ","prefecture_code":28},"0313":{"zip_code":"6670313","prefecture":"兵庫県","prefecture_kana":"ヒョウゴケン","city":"養父市","city_kana":"ヤブシ","town":"大屋町笠谷","town_kana":"オオヤチョウカサダニ","prefecture_code":28},"0433":{"zip_code":"6670433","prefecture":"兵庫県","prefecture_kana":"ヒョウゴケン","city":"養父市","city_kana":"ヤブシ","town":"大屋町門野","town_kana":"オオヤチョウカドノ","prefecture_code":28},"0315":{"zip_code":"6670315","prefecture":"兵庫県","prefecture_kana":"ヒョウゴケン","city":"養父市","city_kana":"ヤブシ","town":"大屋町加保","town_kana":"オオヤチョウカボ","prefecture_code":28},"0321":{"zip_code":"6670321","prefecture":"兵庫県","prefecture_kana":"ヒョウゴケン","city":"養父市","city_kana":"ヤブシ","town":"大屋町蔵垣","town_kana":"オオヤチョウクラガキ","prefecture_code":28},"0325":{"zip_code":"6670325","prefecture":"兵庫県","prefecture_kana":"ヒョウゴケン","city":"養父市","city_kana":"ヤブシ","town":"大屋町中間","town_kana":"オオヤチョウナカマ","prefecture_code":28},"0434":{"zip_code":"6670434","prefecture":"兵庫県","prefecture_kana":"ヒョウゴケン","city":"養父市","city_kana":"ヤブシ","town":"大屋町須西","town_kana":"オオヤチョウスサイ","prefecture_code":28},"0302":{"zip_code":"6670302","prefecture":"兵庫県","prefecture_kana":"ヒョウゴケン","city":"養父市","city_kana":"ヤブシ","town":"大屋町樽見","town_kana":"オオヤチョウタルミ","prefecture_code":28},"0304":{"zip_code":"6670304","prefecture":"兵庫県","prefecture_kana":"ヒョウゴケン","city":"養父市","city_kana":"ヤブシ","town":"大屋町由良","town_kana":"オオヤチョウユラ","prefecture_code":28},"0305":{"zip_code":"6670305","prefecture":"兵庫県","prefecture_kana":"ヒョウゴケン","city":"養父市","city_kana":"ヤブシ","town":"大屋町夏梅","town_kana":"オオヤチョウナツメ","prefecture_code":28},"0306":{"zip_code":"6670306","prefecture":"兵庫県","prefecture_kana":"ヒョウゴケン","city":"養父市","city_kana":"ヤブシ","town":"大屋町宮垣","town_kana":"オオヤチョウミヤガキ","prefecture_code":28},"0432":{"zip_code":"6670432","prefecture":"兵庫県","prefecture_kana":"ヒョウゴケン","city":"養父市","city_kana":"ヤブシ","town":"大屋町宮本","town_kana":"オオヤチョウミヤモト","prefecture_code":28},"0312":{"zip_code":"6670312","prefecture":"兵庫県","prefecture_kana":"ヒョウゴケン","city":"養父市","city_kana":"ヤブシ","town":"大屋町山路","town_kana":"オオヤチョウヤマジ","prefecture_code":28},"0324":{"zip_code":"6670324","prefecture":"兵庫県","prefecture_kana":"ヒョウゴケン","city":"養父市","city_kana":"ヤブシ","town":"大屋町横行","town_kana":"オオヤチョウヨコイキ","prefecture_code":28},"0323":{"zip_code":"6670323","prefecture":"兵庫県","prefecture_kana":"ヒョウゴケン","city":"養父市","city_kana":"ヤブシ","town":"大屋町若杉","town_kana":"オオヤチョウワカス","prefecture_code":28},"0435":{"zip_code":"6670435","prefecture":"兵庫県","prefecture_kana":"ヒョウゴケン","city":"養父市","city_kana":"ヤブシ","town":"大屋町和田","town_kana":"オオヤチョウワダ","prefecture_code":28},"0111":{"zip_code":"6670111","prefecture":"兵庫県","prefecture_kana":"ヒョウゴケン","city":"養父市","city_kana":"ヤブシ","town":"大薮","town_kana":"オオヤブ","prefecture_code":28},"0121":{"zip_code":"6670121","prefecture":"兵庫県","prefecture_kana":"ヒョウゴケン","city":"養父市","city_kana":"ヤブシ","town":"奥米地","town_kana":"オクメイジ","prefecture_code":28},"1104":{"zip_code":"6671104","prefecture":"兵庫県","prefecture_kana":"ヒョウゴケン","city":"養父市","city_kana":"ヤブシ","town":"尾崎","town_kana":"オサキ","prefecture_code":28},"1114":{"zip_code":"6671114","prefecture":"兵庫県","prefecture_kana":"ヒョウゴケン","city":"養父市","city_kana":"ヤブシ","town":"小路頃","town_kana":"オジコロ","prefecture_code":28},"1115":{"zip_code":"6671115","prefecture":"兵庫県","prefecture_kana":"ヒョウゴケン","city":"養父市","city_kana":"ヤブシ","town":"葛畑","town_kana":"カズラハタ","prefecture_code":28},"0123":{"zip_code":"6670123","prefecture":"兵庫県","prefecture_kana":"ヒョウゴケン","city":"養父市","city_kana":"ヤブシ","town":"鉄屋米地","town_kana":"カナヤメイジ","prefecture_code":28},"1113":{"zip_code":"6671113","prefecture":"兵庫県","prefecture_kana":"ヒョウゴケン","city":"養父市","city_kana":"ヤブシ","town":"川原場","town_kana":"カワラバ","prefecture_code":28},"1122":{"zip_code":"6671122","prefecture":"兵庫県","prefecture_kana":"ヒョウゴケン","city":"養父市","city_kana":"ヤブシ","town":"草出","town_kana":"クサイデ","prefecture_code":28},"0124":{"zip_code":"6670124","prefecture":"兵庫県","prefecture_kana":"ヒョウゴケン","city":"養父市","city_kana":"ヤブシ","town":"口米地","town_kana":"クチメイジ","prefecture_code":28},"0114":{"zip_code":"6670114","prefecture":"兵庫県","prefecture_kana":"ヒョウゴケン","city":"養父市","city_kana":"ヤブシ","town":"小城","town_kana":"コジョウ","prefecture_code":28},"0105":{"zip_code":"6670105","prefecture":"兵庫県","prefecture_kana":"ヒョウゴケン","city":"養父市","city_kana":"ヤブシ","town":"左近山","town_kana":"サコヤマ","prefecture_code":28},"0102":{"zip_code":"6670102","prefecture":"兵庫県","prefecture_kana":"ヒョウゴケン","city":"養父市","city_kana":"ヤブシ","town":"十二所","town_kana":"ジュウニショ","prefecture_code":28},"0107":{"zip_code":"6670107","prefecture":"兵庫県","prefecture_kana":"ヒョウゴケン","city":"養父市","city_kana":"ヤブシ","town":"新津","town_kana":"シンヅ","prefecture_code":28},"1105":{"zip_code":"6671105","prefecture":"兵庫県","prefecture_kana":"ヒョウゴケン","city":"養父市","city_kana":"ヤブシ","town":"関宮","town_kana":"セキノミヤ","prefecture_code":28},"0142":{"zip_code":"6670142","prefecture":"兵庫県","prefecture_kana":"ヒョウゴケン","city":"養父市","city_kana":"ヤブシ","town":"建屋","town_kana":"タキノヤ","prefecture_code":28},"0106":{"zip_code":"6670106","prefecture":"兵庫県","prefecture_kana":"ヒョウゴケン","city":"養父市","city_kana":"ヤブシ","town":"玉見","town_kana":"タマミ","prefecture_code":28},"1124":{"zip_code":"6671124","prefecture":"兵庫県","prefecture_kana":"ヒョウゴケン","city":"養父市","city_kana":"ヤブシ","town":"丹戸","town_kana":"タンド","prefecture_code":28},"1112":{"zip_code":"6671112","prefecture":"兵庫県","prefecture_kana":"ヒョウゴケン","city":"養父市","city_kana":"ヤブシ","town":"出合","town_kana":"デアイ","prefecture_code":28},"1117":{"zip_code":"6671117","prefecture":"兵庫県","prefecture_kana":"ヒョウゴケン","city":"養父市","city_kana":"ヤブシ","town":"轟","town_kana":"トドロキ","prefecture_code":28},"1121":{"zip_code":"6671121","prefecture":"兵庫県","prefecture_kana":"ヒョウゴケン","city":"養父市","city_kana":"ヤブシ","town":"外野","town_kana":"トノ","prefecture_code":28},"1116":{"zip_code":"6671116","prefecture":"兵庫県","prefecture_kana":"ヒョウゴケン","city":"養父市","city_kana":"ヤブシ","town":"中瀬","town_kana":"ナカゼ","prefecture_code":28},"0145":{"zip_code":"6670145","prefecture":"兵庫県","prefecture_kana":"ヒョウゴケン","city":"養父市","city_kana":"ヤブシ","town":"長野","town_kana":"ナガノ","prefecture_code":28},"0122":{"zip_code":"6670122","prefecture":"兵庫県","prefecture_kana":"ヒョウゴケン","city":"養父市","city_kana":"ヤブシ","town":"中米地","town_kana":"ナカメイジ","prefecture_code":28},"1123":{"zip_code":"6671123","prefecture":"兵庫県","prefecture_kana":"ヒョウゴケン","city":"養父市","city_kana":"ヤブシ","town":"梨ケ原","town_kana":"ナシガハラ","prefecture_code":28},"1125":{"zip_code":"6671125","prefecture":"兵庫県","prefecture_kana":"ヒョウゴケン","city":"養父市","city_kana":"ヤブシ","town":"奈良尾","town_kana":"ナラオ","prefecture_code":28},"0143":{"zip_code":"6670143","prefecture":"兵庫県","prefecture_kana":"ヒョウゴケン","city":"養父市","city_kana":"ヤブシ","town":"能座","town_kana":"ノウザ","prefecture_code":28},"0133":{"zip_code":"6670133","prefecture":"兵庫県","prefecture_kana":"ヒョウゴケン","city":"養父市","city_kana":"ヤブシ","town":"畑","town_kana":"ハタ","prefecture_code":28},"0101":{"zip_code":"6670101","prefecture":"兵庫県","prefecture_kana":"ヒョウゴケン","city":"養父市","city_kana":"ヤブシ","town":"広谷","town_kana":"ヒロタニ","prefecture_code":28},"1126":{"zip_code":"6671126","prefecture":"兵庫県","prefecture_kana":"ヒョウゴケン","city":"養父市","city_kana":"ヤブシ","town":"福定","town_kana":"フクサダ","prefecture_code":28},"0135":{"zip_code":"6670135","prefecture":"兵庫県","prefecture_kana":"ヒョウゴケン","city":"養父市","city_kana":"ヤブシ","town":"船谷","town_kana":"フネダニ","prefecture_code":28},"1128":{"zip_code":"6671128","prefecture":"兵庫県","prefecture_kana":"ヒョウゴケン","city":"養父市","city_kana":"ヤブシ","town":"別宮","town_kana":"ベックウ","prefecture_code":28},"0126":{"zip_code":"6670126","prefecture":"兵庫県","prefecture_kana":"ヒョウゴケン","city":"養父市","city_kana":"ヤブシ","town":"堀畑","town_kana":"ホリハタ","prefecture_code":28},"1103":{"zip_code":"6671103","prefecture":"兵庫県","prefecture_kana":"ヒョウゴケン","city":"養父市","city_kana":"ヤブシ","town":"万久里","town_kana":"マクリ","prefecture_code":28},"0136":{"zip_code":"6670136","prefecture":"兵庫県","prefecture_kana":"ヒョウゴケン","city":"養父市","city_kana":"ヤブシ","town":"三谷","town_kana":"ミタニ","prefecture_code":28},"1101":{"zip_code":"6671101","prefecture":"兵庫県","prefecture_kana":"ヒョウゴケン","city":"養父市","city_kana":"ヤブシ","town":"三宅","town_kana":"ミヤケ","prefecture_code":28},"0144":{"zip_code":"6670144","prefecture":"兵庫県","prefecture_kana":"ヒョウゴケン","city":"養父市","city_kana":"ヤブシ","town":"餅耕地","town_kana":"モチゴウチ","prefecture_code":28},"0141":{"zip_code":"6670141","prefecture":"兵庫県","prefecture_kana":"ヒョウゴケン","city":"養父市","city_kana":"ヤブシ","town":"森","town_kana":"モリ","prefecture_code":28},"1118":{"zip_code":"6671118","prefecture":"兵庫県","prefecture_kana":"ヒョウゴケン","city":"養父市","city_kana":"ヤブシ","town":"安井","town_kana":"ヤスイ","prefecture_code":28},"0112":{"zip_code":"6670112","prefecture":"兵庫県","prefecture_kana":"ヒョウゴケン","city":"養父市","city_kana":"ヤブシ","town":"養父市場","town_kana":"ヤブイチバ","prefecture_code":28},"0113":{"zip_code":"6670113","prefecture":"兵庫県","prefecture_kana":"ヒョウゴケン","city":"養父市","city_kana":"ヤブシ","town":"薮崎","town_kana":"ヤブサキ","prefecture_code":28},"0001":{"zip_code":"6670001","prefecture":"兵庫県","prefecture_kana":"ヒョウゴケン","city":"養父市","city_kana":"ヤブシ","town":"八鹿町青山","town_kana":"ヨウカチョウアオヤマ","prefecture_code":28},"0024":{"zip_code":"6670024","prefecture":"兵庫県","prefecture_kana":"ヒョウゴケン","city":"養父市","city_kana":"ヤブシ","town":"八鹿町朝倉","town_kana":"ヨウカチョウアサクラ","prefecture_code":28},"0011":{"zip_code":"6670011","prefecture":"兵庫県","prefecture_kana":"ヒョウゴケン","city":"養父市","city_kana":"ヤブシ","town":"八鹿町浅間","town_kana":"ヨウカチョウアサマ","prefecture_code":28},"0012":{"zip_code":"6670012","prefecture":"兵庫県","prefecture_kana":"ヒョウゴケン","city":"養父市","city_kana":"ヤブシ","town":"八鹿町伊佐","town_kana":"ヨウカチョウイザ","prefecture_code":28},"0051":{"zip_code":"6670051","prefecture":"兵庫県","prefecture_kana":"ヒョウゴケン","city":"養父市","city_kana":"ヤブシ","town":"八鹿町石原","town_kana":"ヨウカチョウイシハラ","prefecture_code":28},"0014":{"zip_code":"6670014","prefecture":"兵庫県","prefecture_kana":"ヒョウゴケン","city":"養父市","city_kana":"ヤブシ","town":"八鹿町岩崎","town_kana":"ヨウカチョウイワサイ","prefecture_code":28},"0015":{"zip_code":"6670015","prefecture":"兵庫県","prefecture_kana":"ヒョウゴケン","city":"養父市","city_kana":"ヤブシ","town":"八鹿町大江","town_kana":"ヨウカチョウオオエ","prefecture_code":28},"0053":{"zip_code":"6670053","prefecture":"兵庫県","prefecture_kana":"ヒョウゴケン","city":"養父市","city_kana":"ヤブシ","town":"八鹿町小佐","town_kana":"ヨウカチョウオサ","prefecture_code":28},"0004":{"zip_code":"6670004","prefecture":"兵庫県","prefecture_kana":"ヒョウゴケン","city":"養父市","city_kana":"ヤブシ","town":"八鹿町上小田","town_kana":"ヨウカチョウカミオダ","prefecture_code":28},"0023":{"zip_code":"6670023","prefecture":"兵庫県","prefecture_kana":"ヒョウゴケン","city":"養父市","city_kana":"ヤブシ","town":"八鹿町上網場","town_kana":"ヨウカチョウカミナンバ","prefecture_code":28},"0044":{"zip_code":"6670044","prefecture":"兵庫県","prefecture_kana":"ヒョウゴケン","city":"養父市","city_kana":"ヤブシ","town":"八鹿町国木","town_kana":"ヨウカチョウクヌギ","prefecture_code":28},"0031":{"zip_code":"6670031","prefecture":"兵庫県","prefecture_kana":"ヒョウゴケン","city":"養父市","city_kana":"ヤブシ","town":"八鹿町九鹿","town_kana":"ヨウカチョウクロク","prefecture_code":28},"0032":{"zip_code":"6670032","prefecture":"兵庫県","prefecture_kana":"ヒョウゴケン","city":"養父市","city_kana":"ヤブシ","town":"八鹿町小山","town_kana":"ヨウカチョウコヤマ","prefecture_code":28},"0042":{"zip_code":"6670042","prefecture":"兵庫県","prefecture_kana":"ヒョウゴケン","city":"養父市","city_kana":"ヤブシ","town":"八鹿町今滝寺","town_kana":"ヨウカチョウコンリュウジ","prefecture_code":28},"0013":{"zip_code":"6670013","prefecture":"兵庫県","prefecture_kana":"ヒョウゴケン","city":"養父市","city_kana":"ヤブシ","town":"八鹿町坂本","town_kana":"ヨウカチョウサカモト","prefecture_code":28},"0005":{"zip_code":"6670005","prefecture":"兵庫県","prefecture_kana":"ヒョウゴケン","city":"養父市","city_kana":"ヤブシ","town":"八鹿町下小田","town_kana":"ヨウカチョウシモオダ","prefecture_code":28},"0022":{"zip_code":"6670022","prefecture":"兵庫県","prefecture_kana":"ヒョウゴケン","city":"養父市","city_kana":"ヤブシ","town":"八鹿町下網場","town_kana":"ヨウカチョウシモナンバ","prefecture_code":28},"0003":{"zip_code":"6670003","prefecture":"兵庫県","prefecture_kana":"ヒョウゴケン","city":"養父市","city_kana":"ヤブシ","town":"八鹿町宿南","town_kana":"ヨウカチョウシュクナミ","prefecture_code":28},"0043":{"zip_code":"6670043","prefecture":"兵庫県","prefecture_kana":"ヒョウゴケン","city":"養父市","city_kana":"ヤブシ","town":"八鹿町高柳","town_kana":"ヨウカチョウタカヤナギ","prefecture_code":28},"0052":{"zip_code":"6670052","prefecture":"兵庫県","prefecture_kana":"ヒョウゴケン","city":"養父市","city_kana":"ヤブシ","town":"八鹿町日畑","town_kana":"ヨウカチョウヒバタ","prefecture_code":28},"0016":{"zip_code":"6670016","prefecture":"兵庫県","prefecture_kana":"ヒョウゴケン","city":"養父市","city_kana":"ヤブシ","town":"八鹿町舞狂","town_kana":"ヨウカチョウブキョウ","prefecture_code":28},"0002":{"zip_code":"6670002","prefecture":"兵庫県","prefecture_kana":"ヒョウゴケン","city":"養父市","city_kana":"ヤブシ","town":"八鹿町三谷","town_kana":"ヨウカチョウミタニ","prefecture_code":28},"0045":{"zip_code":"6670045","prefecture":"兵庫県","prefecture_kana":"ヒョウゴケン","city":"養父市","city_kana":"ヤブシ","town":"八鹿町米里","town_kana":"ヨウカチョウメイリ","prefecture_code":28},"0041":{"zip_code":"6670041","prefecture":"兵庫県","prefecture_kana":"ヒョウゴケン","city":"養父市","city_kana":"ヤブシ","town":"八鹿町八木","town_kana":"ヨウカチョウヤギ","prefecture_code":28},"0021":{"zip_code":"6670021","prefecture":"兵庫県","prefecture_kana":"ヒョウゴケン","city":"養父市","city_kana":"ヤブシ","town":"八鹿町八鹿","town_kana":"ヨウカチョウヨウカ","prefecture_code":28},"1111":{"zip_code":"6671111","prefecture":"兵庫県","prefecture_kana":"ヒョウゴケン","city":"養父市","city_kana":"ヤブシ","town":"吉井","town_kana":"ヨシイ","prefecture_code":28},"1533":{"zip_code":"6671533","prefecture":"兵庫県","prefecture_kana":"ヒョウゴケン","city":"美方郡香美町","city_kana":"ミカタグンカミチョウ","town":"小代区秋岡","town_kana":"オジロクアキオカ","prefecture_code":28},"1512":{"zip_code":"6671512","prefecture":"兵庫県","prefecture_kana":"ヒョウゴケン","city":"美方郡香美町","city_kana":"ミカタグンカミチョウ","town":"小代区石寺","town_kana":"オジロクイシデラ","prefecture_code":28},"1503":{"zip_code":"6671503","prefecture":"兵庫県","prefecture_kana":"ヒョウゴケン","city":"美方郡香美町","city_kana":"ミカタグンカミチョウ","town":"小代区大谷","town_kana":"オジロクオオタニ","prefecture_code":28},"1542":{"zip_code":"6671542","prefecture":"兵庫県","prefecture_kana":"ヒョウゴケン","city":"美方郡香美町","city_kana":"ミカタグンカミチョウ","town":"小代区鍛治屋","town_kana":"オジロクカジヤ","prefecture_code":28},"1531":{"zip_code":"6671531","prefecture":"兵庫県","prefecture_kana":"ヒョウゴケン","city":"美方郡香美町","city_kana":"ミカタグンカミチョウ","town":"小代区茅野","town_kana":"オジロクカヤノ","prefecture_code":28},"1511":{"zip_code":"6671511","prefecture":"兵庫県","prefecture_kana":"ヒョウゴケン","city":"美方郡香美町","city_kana":"ミカタグンカミチョウ","town":"小代区神水","town_kana":"オジロクカンズイ","prefecture_code":28},"1514":{"zip_code":"6671514","prefecture":"兵庫県","prefecture_kana":"ヒョウゴケン","city":"美方郡香美町","city_kana":"ミカタグンカミチョウ","town":"小代区神場","town_kana":"オジロクカンバ","prefecture_code":28},"1501":{"zip_code":"6671501","prefecture":"兵庫県","prefecture_kana":"ヒョウゴケン","city":"美方郡香美町","city_kana":"ミカタグンカミチョウ","town":"小代区久須部","town_kana":"オジロククスベ","prefecture_code":28},"1522":{"zip_code":"6671522","prefecture":"兵庫県","prefecture_kana":"ヒョウゴケン","city":"美方郡香美町","city_kana":"ミカタグンカミチョウ","town":"小代区実山","town_kana":"オジロクサネヤマ","prefecture_code":28},"1541":{"zip_code":"6671541","prefecture":"兵庫県","prefecture_kana":"ヒョウゴケン","city":"美方郡香美町","city_kana":"ミカタグンカミチョウ","town":"小代区佐坊","town_kana":"オジロクサボウ","prefecture_code":28},"1502":{"zip_code":"6671502","prefecture":"兵庫県","prefecture_kana":"ヒョウゴケン","city":"美方郡香美町","city_kana":"ミカタグンカミチョウ","town":"小代区城山","town_kana":"オジロクジョウヤマ","prefecture_code":28},"1543":{"zip_code":"6671543","prefecture":"兵庫県","prefecture_kana":"ヒョウゴケン","city":"美方郡香美町","city_kana":"ミカタグンカミチョウ","town":"小代区忠宮","town_kana":"オジロクタダノミヤ","prefecture_code":28},"1532":{"zip_code":"6671532","prefecture":"兵庫県","prefecture_kana":"ヒョウゴケン","city":"美方郡香美町","city_kana":"ミカタグンカミチョウ","town":"小代区新屋","town_kana":"オジロクニイヤ","prefecture_code":28},"1544":{"zip_code":"6671544","prefecture":"兵庫県","prefecture_kana":"ヒョウゴケン","city":"美方郡香美町","city_kana":"ミカタグンカミチョウ","town":"小代区貫田","town_kana":"オジロクヌキダ","prefecture_code":28},"1521":{"zip_code":"6671521","prefecture":"兵庫県","prefecture_kana":"ヒョウゴケン","city":"美方郡香美町","city_kana":"ミカタグンカミチョウ","town":"小代区野間谷","town_kana":"オジロクノマタニ","prefecture_code":28},"1545":{"zip_code":"6671545","prefecture":"兵庫県","prefecture_kana":"ヒョウゴケン","city":"美方郡香美町","city_kana":"ミカタグンカミチョウ","town":"小代区東垣","town_kana":"オジロクヒガシガキ","prefecture_code":28},"1523":{"zip_code":"6671523","prefecture":"兵庫県","prefecture_kana":"ヒョウゴケン","city":"美方郡香美町","city_kana":"ミカタグンカミチョウ","town":"小代区平野","town_kana":"オジロクヒラノ","prefecture_code":28},"1513":{"zip_code":"6671513","prefecture":"兵庫県","prefecture_kana":"ヒョウゴケン","city":"美方郡香美町","city_kana":"ミカタグンカミチョウ","town":"小代区広井","town_kana":"オジロクヒロイ","prefecture_code":28},"1515":{"zip_code":"6671515","prefecture":"兵庫県","prefecture_kana":"ヒョウゴケン","city":"美方郡香美町","city_kana":"ミカタグンカミチョウ","town":"小代区水間","town_kana":"オジロクミズマ","prefecture_code":28},"1312":{"zip_code":"6671312","prefecture":"兵庫県","prefecture_kana":"ヒョウゴケン","city":"美方郡香美町","city_kana":"ミカタグンカミチョウ","town":"村岡区相田","town_kana":"ムラオカクアイダ","prefecture_code":28},"1346":{"zip_code":"6671346","prefecture":"兵庫県","prefecture_kana":"ヒョウゴケン","city":"美方郡香美町","city_kana":"ミカタグンカミチョウ","town":"村岡区池ケ平","town_kana":"ムラオカクイケガナル","prefecture_code":28},"1315":{"zip_code":"6671315","prefecture":"兵庫県","prefecture_kana":"ヒョウゴケン","city":"美方郡香美町","city_kana":"ミカタグンカミチョウ","town":"村岡区板仕野","town_kana":"ムラオカクイタシノ","prefecture_code":28},"1324":{"zip_code":"6671324","prefecture":"兵庫県","prefecture_kana":"ヒョウゴケン","city":"美方郡香美町","city_kana":"ミカタグンカミチョウ","town":"村岡区市原","town_kana":"ムラオカクイチバラ","prefecture_code":28},"1368":{"zip_code":"6671368","prefecture":"兵庫県","prefecture_kana":"ヒョウゴケン","city":"美方郡香美町","city_kana":"ミカタグンカミチョウ","town":"村岡区入江","town_kana":"ムラオカクイリエ","prefecture_code":28},"1344":{"zip_code":"6671344","prefecture":"兵庫県","prefecture_kana":"ヒョウゴケン","city":"美方郡香美町","city_kana":"ミカタグンカミチョウ","town":"村岡区大笹","town_kana":"ムラオカクオオササ","prefecture_code":28},"1321":{"zip_code":"6671321","prefecture":"兵庫県","prefecture_kana":"ヒョウゴケン","city":"美方郡香美町","city_kana":"ミカタグンカミチョウ","town":"村岡区大糠","town_kana":"ムラオカクオオヌカ","prefecture_code":28},"1333":{"zip_code":"6671333","prefecture":"兵庫県","prefecture_kana":"ヒョウゴケン","city":"美方郡香美町","city_kana":"ミカタグンカミチョウ","town":"村岡区大野","town_kana":"ムラオカクオオノ","prefecture_code":28},"1323":{"zip_code":"6671323","prefecture":"兵庫県","prefecture_kana":"ヒョウゴケン","city":"美方郡香美町","city_kana":"ミカタグンカミチョウ","town":"村岡区耀山","town_kana":"ムラオカクカカヤマ","prefecture_code":28},"1366":{"zip_code":"6671366","prefecture":"兵庫県","prefecture_kana":"ヒョウゴケン","city":"美方郡香美町","city_kana":"ミカタグンカミチョウ","town":"村岡区川会","town_kana":"ムラオカクカワイ","prefecture_code":28},"1313":{"zip_code":"6671313","prefecture":"兵庫県","prefecture_kana":"ヒョウゴケン","city":"美方郡香美町","city_kana":"ミカタグンカミチョウ","town":"村岡区神坂","town_kana":"ムラオカクカンザカ","prefecture_code":28},"1342":{"zip_code":"6671342","prefecture":"兵庫県","prefecture_kana":"ヒョウゴケン","city":"美方郡香美町","city_kana":"ミカタグンカミチョウ","town":"村岡区口大谷","town_kana":"ムラオカククチオオタニ","prefecture_code":28},"1353":{"zip_code":"6671353","prefecture":"兵庫県","prefecture_kana":"ヒョウゴケン","city":"美方郡香美町","city_kana":"ミカタグンカミチョウ","town":"村岡区熊波","town_kana":"ムラオカククマナミ","prefecture_code":28},"1335":{"zip_code":"6671335","prefecture":"兵庫県","prefecture_kana":"ヒョウゴケン","city":"美方郡香美町","city_kana":"ミカタグンカミチョウ","town":"村岡区黒田","town_kana":"ムラオカククロダ","prefecture_code":28},"1354":{"zip_code":"6671354","prefecture":"兵庫県","prefecture_kana":"ヒョウゴケン","city":"美方郡香美町","city_kana":"ミカタグンカミチョウ","town":"村岡区柤岡","town_kana":"ムラオカクケビオカ","prefecture_code":28},"1326":{"zip_code":"6671326","prefecture":"兵庫県","prefecture_kana":"ヒョウゴケン","city":"美方郡香美町","city_kana":"ミカタグンカミチョウ","town":"村岡区光陽","town_kana":"ムラオカクコウヨウ","prefecture_code":28},"1303":{"zip_code":"6671303","prefecture":"兵庫県","prefecture_kana":"ヒョウゴケン","city":"美方郡香美町","city_kana":"ミカタグンカミチョウ","town":"村岡区小城","town_kana":"ムラオカクコジョウ","prefecture_code":28},"1301":{"zip_code":"6671301","prefecture":"兵庫県","prefecture_kana":"ヒョウゴケン","city":"美方郡香美町","city_kana":"ミカタグンカミチョウ","town":"村岡区境","town_kana":"ムラオカクサカイ","prefecture_code":28},"1316":{"zip_code":"6671316","prefecture":"兵庫県","prefecture_kana":"ヒョウゴケン","city":"美方郡香美町","city_kana":"ミカタグンカミチョウ","town":"村岡区鹿田","town_kana":"ムラオカクシカダ","prefecture_code":28},"1325":{"zip_code":"6671325","prefecture":"兵庫県","prefecture_kana":"ヒョウゴケン","city":"美方郡香美町","city_kana":"ミカタグンカミチョウ","town":"村岡区高井","town_kana":"ムラオカクタカイ","prefecture_code":28},"1345":{"zip_code":"6671345","prefecture":"兵庫県","prefecture_kana":"ヒョウゴケン","city":"美方郡香美町","city_kana":"ミカタグンカミチョウ","town":"村岡区高坂","town_kana":"ムラオカクタカサカ","prefecture_code":28},"1365":{"zip_code":"6671365","prefecture":"兵庫県","prefecture_kana":"ヒョウゴケン","city":"美方郡香美町","city_kana":"ミカタグンカミチョウ","town":"村岡区高津","town_kana":"ムラオカクタカヅ","prefecture_code":28},"1331":{"zip_code":"6671331","prefecture":"兵庫県","prefecture_kana":"ヒョウゴケン","city":"美方郡香美町","city_kana":"ミカタグンカミチョウ","town":"村岡区作山","town_kana":"ムラオカクツクリヤマ","prefecture_code":28},"1322":{"zip_code":"6671322","prefecture":"兵庫県","prefecture_kana":"ヒョウゴケン","city":"美方郡香美町","city_kana":"ミカタグンカミチョウ","town":"村岡区寺河内","town_kana":"ムラオカクテラガワウチ","prefecture_code":28},"1352":{"zip_code":"6671352","prefecture":"兵庫県","prefecture_kana":"ヒョウゴケン","city":"美方郡香美町","city_kana":"ミカタグンカミチョウ","town":"村岡区長板","town_kana":"ムラオカクナガイタ","prefecture_code":28},"1343":{"zip_code":"6671343","prefecture":"兵庫県","prefecture_kana":"ヒョウゴケン","city":"美方郡香美町","city_kana":"ミカタグンカミチョウ","town":"村岡区中大谷","town_kana":"ムラオカクナカオオタニ","prefecture_code":28},"1364":{"zip_code":"6671364","prefecture":"兵庫県","prefecture_kana":"ヒョウゴケン","city":"美方郡香美町","city_kana":"ミカタグンカミチョウ","town":"村岡区長須","town_kana":"ムラオカクナガス","prefecture_code":28},"1361":{"zip_code":"6671361","prefecture":"兵庫県","prefecture_kana":"ヒョウゴケン","city":"美方郡香美町","city_kana":"ミカタグンカミチョウ","town":"村岡区長瀬","town_kana":"ムラオカクナガセ","prefecture_code":28},"1314":{"zip_code":"6671314","prefecture":"兵庫県","prefecture_kana":"ヒョウゴケン","city":"美方郡香美町","city_kana":"ミカタグンカミチョウ","town":"村岡区萩山","town_kana":"ムラオカクハギヤマ","prefecture_code":28},"1362":{"zip_code":"6671362","prefecture":"兵庫県","prefecture_kana":"ヒョウゴケン","city":"美方郡香美町","city_kana":"ミカタグンカミチョウ","town":"村岡区原","town_kana":"ムラオカクハラ","prefecture_code":28},"1337":{"zip_code":"6671337","prefecture":"兵庫県","prefecture_kana":"ヒョウゴケン","city":"美方郡香美町","city_kana":"ミカタグンカミチョウ","town":"村岡区日影","town_kana":"ムラオカクヒカゲ","prefecture_code":28},"1334":{"zip_code":"6671334","prefecture":"兵庫県","prefecture_kana":"ヒョウゴケン","city":"美方郡香美町","city_kana":"ミカタグンカミチョウ","town":"村岡区福岡","town_kana":"ムラオカクフクオカ","prefecture_code":28},"1351":{"zip_code":"6671351","prefecture":"兵庫県","prefecture_kana":"ヒョウゴケン","city":"美方郡香美町","city_kana":"ミカタグンカミチョウ","town":"村岡区丸味","town_kana":"ムラオカクマルミ","prefecture_code":28},"1363":{"zip_code":"6671363","prefecture":"兵庫県","prefecture_kana":"ヒョウゴケン","city":"美方郡香美町","city_kana":"ミカタグンカミチョウ","town":"村岡区味取","town_kana":"ムラオカクミドリ","prefecture_code":28},"1311":{"zip_code":"6671311","prefecture":"兵庫県","prefecture_kana":"ヒョウゴケン","city":"美方郡香美町","city_kana":"ミカタグンカミチョウ","town":"村岡区村岡","town_kana":"ムラオカクムラオカ","prefecture_code":28},"1341":{"zip_code":"6671341","prefecture":"兵庫県","prefecture_kana":"ヒョウゴケン","city":"美方郡香美町","city_kana":"ミカタグンカミチョウ","town":"村岡区森脇","town_kana":"ムラオカクモリワキ","prefecture_code":28},"1332":{"zip_code":"6671332","prefecture":"兵庫県","prefecture_kana":"ヒョウゴケン","city":"美方郡香美町","city_kana":"ミカタグンカミチョウ","town":"村岡区八井谷","town_kana":"ムラオカクヤイダニ","prefecture_code":28},"1336":{"zip_code":"6671336","prefecture":"兵庫県","prefecture_kana":"ヒョウゴケン","city":"美方郡香美町","city_kana":"ミカタグンカミチョウ","town":"村岡区宿","town_kana":"ムラオカクヤド","prefecture_code":28},"1302":{"zip_code":"6671302","prefecture":"兵庫県","prefecture_kana":"ヒョウゴケン","city":"美方郡香美町","city_kana":"ミカタグンカミチョウ","town":"村岡区山田","town_kana":"ムラオカクヤマダ","prefecture_code":28},"1317":{"zip_code":"6671317","prefecture":"兵庫県","prefecture_kana":"ヒョウゴケン","city":"美方郡香美町","city_kana":"ミカタグンカミチョウ","town":"村岡区用野","town_kana":"ムラオカクヨウノ","prefecture_code":28},"1304":{"zip_code":"6671304","prefecture":"兵庫県","prefecture_kana":"ヒョウゴケン","city":"美方郡香美町","city_kana":"ミカタグンカミチョウ","town":"村岡区和佐父","town_kana":"ムラオカクワサブ","prefecture_code":28},"1367":{"zip_code":"6671367","prefecture":"兵庫県","prefecture_kana":"ヒョウゴケン","city":"美方郡香美町","city_kana":"ミカタグンカミチョウ","town":"村岡区和田","town_kana":"ムラオカクワダ","prefecture_code":28},"1347":{"zip_code":"6671347","prefecture":"兵庫県","prefecture_kana":"ヒョウゴケン","city":"美方郡香美町","city_kana":"ミカタグンカミチョウ","town":"村岡区和池","town_kana":"ムラオカクワチ","prefecture_code":28}}