{"0000":{"zip_code":"6680000","prefecture":"兵庫県","prefecture_kana":"ヒョウゴケン","city":"豊岡市","city_kana":"トヨオカシ","town":"以下に掲載がない場合","town_kana":"イカニケイサイガナイバアイ","prefecture_code":28},"0801":{"zip_code":"6680801","prefecture":"兵庫県","prefecture_kana":"ヒョウゴケン","city":"豊岡市","city_kana":"トヨオカシ","town":"赤石","town_kana":"アカイシ","prefecture_code":28},"0001":{"zip_code":"6680001","prefecture":"兵庫県","prefecture_kana":"ヒョウゴケン","city":"豊岡市","city_kana":"トヨオカシ","town":"伊賀谷","town_kana":"イガダニ","prefecture_code":28},"0261":{"zip_code":"6680261","prefecture":"兵庫県","prefecture_kana":"ヒョウゴケン","city":"豊岡市","city_kana":"トヨオカシ","town":"出石町荒木","town_kana":"イズシチョウアラキ","prefecture_code":28},"0213":{"zip_code":"6680213","prefecture":"兵庫県","prefecture_kana":"ヒョウゴケン","city":"豊岡市","city_kana":"トヨオカシ","town":"出石町伊木","town_kana":"イズシチョウイギ","prefecture_code":28},"0207":{"zip_code":"6680207","prefecture":"兵庫県","prefecture_kana":"ヒョウゴケン","city":"豊岡市","city_kana":"トヨオカシ","town":"出石町伊豆","town_kana":"イズシチョウイズ","prefecture_code":28},"0218":{"zip_code":"6680218","prefecture":"兵庫県","prefecture_kana":"ヒョウゴケン","city":"豊岡市","city_kana":"トヨオカシ","town":"出石町入佐","town_kana":"イズシチョウイルサ","prefecture_code":28},"0244":{"zip_code":"6680244","prefecture":"兵庫県","prefecture_kana":"ヒョウゴケン","city":"豊岡市","city_kana":"トヨオカシ","town":"出石町上野","town_kana":"イズシチョウウエノ","prefecture_code":28},"0215":{"zip_code":"6680215","prefecture":"兵庫県","prefecture_kana":"ヒョウゴケン","city":"豊岡市","city_kana":"トヨオカシ","town":"出石町魚屋","town_kana":"イズシチョウウオヤ","prefecture_code":28},"0214":{"zip_code":"6680214","prefecture":"兵庫県","prefecture_kana":"ヒョウゴケン","city":"豊岡市","city_kana":"トヨオカシ","town":"出石町内町","town_kana":"イズシチョウウチマチ","prefecture_code":28},"0271":{"zip_code":"6680271","prefecture":"兵庫県","prefecture_kana":"ヒョウゴケン","city":"豊岡市","city_kana":"トヨオカシ","town":"出石町大谷","town_kana":"イズシチョウオオタニ","prefecture_code":28},"0201":{"zip_code":"6680201","prefecture":"兵庫県","prefecture_kana":"ヒョウゴケン","city":"豊岡市","city_kana":"トヨオカシ","town":"出石町奥小野","town_kana":"イズシチョウオクオノ","prefecture_code":28},"0251":{"zip_code":"6680251","prefecture":"兵庫県","prefecture_kana":"ヒョウゴケン","city":"豊岡市","city_kana":"トヨオカシ","town":"出石町奥山","town_kana":"イズシチョウオクヤマ","prefecture_code":28},"0235":{"zip_code":"6680235","prefecture":"兵庫県","prefecture_kana":"ヒョウゴケン","city":"豊岡市","city_kana":"トヨオカシ","town":"出石町鍛冶屋","town_kana":"イズシチョウカジヤ","prefecture_code":28},"0279":{"zip_code":"6680279","prefecture":"兵庫県","prefecture_kana":"ヒョウゴケン","city":"豊岡市","city_kana":"トヨオカシ","town":"出石町片間","town_kana":"イズシチョウカタマ","prefecture_code":28},"0255":{"zip_code":"6680255","prefecture":"兵庫県","prefecture_kana":"ヒョウゴケン","city":"豊岡市","city_kana":"トヨオカシ","town":"出石町上村","town_kana":"イズシチョウカミムラ","prefecture_code":28},"0231":{"zip_code":"6680231","prefecture":"兵庫県","prefecture_kana":"ヒョウゴケン","city":"豊岡市","city_kana":"トヨオカシ","town":"出石町川原","town_kana":"イズシチョウカワラ","prefecture_code":28},"0242":{"zip_code":"6680242","prefecture":"兵庫県","prefecture_kana":"ヒョウゴケン","city":"豊岡市","city_kana":"トヨオカシ","town":"出石町桐野","town_kana":"イズシチョウキリノ","prefecture_code":28},"0202":{"zip_code":"6680202","prefecture":"兵庫県","prefecture_kana":"ヒョウゴケン","city":"豊岡市","city_kana":"トヨオカシ","town":"出石町口小野","town_kana":"イズシチョウクチオノ","prefecture_code":28},"0264":{"zip_code":"6680264","prefecture":"兵庫県","prefecture_kana":"ヒョウゴケン","city":"豊岡市","city_kana":"トヨオカシ","town":"出石町暮坂","town_kana":"イズシチョウクレサカ","prefecture_code":28},"0256":{"zip_code":"6680256","prefecture":"兵庫県","prefecture_kana":"ヒョウゴケン","city":"豊岡市","city_kana":"トヨオカシ","town":"出石町小人","town_kana":"イズシチョウコビト","prefecture_code":28},"0216":{"zip_code":"6680216","prefecture":"兵庫県","prefecture_kana":"ヒョウゴケン","city":"豊岡市","city_kana":"トヨオカシ","town":"出石町材木","town_kana":"イズシチョウザイモク","prefecture_code":28},"0205":{"zip_code":"6680205","prefecture":"兵庫県","prefecture_kana":"ヒョウゴケン","city":"豊岡市","city_kana":"トヨオカシ","town":"出石町嶋","town_kana":"イズシチョウシマ","prefecture_code":28},"0211":{"zip_code":"6680211","prefecture":"兵庫県","prefecture_kana":"ヒョウゴケン","city":"豊岡市","city_kana":"トヨオカシ","town":"出石町下谷","town_kana":"イズシチョウシモタニ","prefecture_code":28},"0233":{"zip_code":"6680233","prefecture":"兵庫県","prefecture_kana":"ヒョウゴケン","city":"豊岡市","city_kana":"トヨオカシ","town":"出石町田結庄","town_kana":"イズシチョウタイノショウ","prefecture_code":28},"0209":{"zip_code":"6680209","prefecture":"兵庫県","prefecture_kana":"ヒョウゴケン","city":"豊岡市","city_kana":"トヨオカシ","town":"出石町田多地","town_kana":"イズシチョウタダチ","prefecture_code":28},"0212":{"zip_code":"6680212","prefecture":"兵庫県","prefecture_kana":"ヒョウゴケン","city":"豊岡市","city_kana":"トヨオカシ","town":"出石町谷山","town_kana":"イズシチョウタニヤマ","prefecture_code":28},"0273":{"zip_code":"6680273","prefecture":"兵庫県","prefecture_kana":"ヒョウゴケン","city":"豊岡市","city_kana":"トヨオカシ","town":"出石町坪井","town_kana":"イズシチョウツボイ","prefecture_code":28},"0257":{"zip_code":"6680257","prefecture":"兵庫県","prefecture_kana":"ヒョウゴケン","city":"豊岡市","city_kana":"トヨオカシ","town":"出石町坪口","town_kana":"イズシチョウツボグチ","prefecture_code":28},"0223":{"zip_code":"6680223","prefecture":"兵庫県","prefecture_kana":"ヒョウゴケン","city":"豊岡市","city_kana":"トヨオカシ","town":"出石町鉄砲","town_kana":"イズシチョウテッポウ","prefecture_code":28},"0241":{"zip_code":"6680241","prefecture":"兵庫県","prefecture_kana":"ヒョウゴケン","city":"豊岡市","city_kana":"トヨオカシ","town":"出石町寺坂","town_kana":"イズシチョウテラサカ","prefecture_code":28},"0222":{"zip_code":"6680222","prefecture":"兵庫県","prefecture_kana":"ヒョウゴケン","city":"豊岡市","city_kana":"トヨオカシ","town":"出石町寺町","town_kana":"イズシチョウテラマチ","prefecture_code":28},"0217":{"zip_code":"6680217","prefecture":"兵庫県","prefecture_kana":"ヒョウゴケン","city":"豊岡市","city_kana":"トヨオカシ","town":"出石町東條","town_kana":"イズシチョウトウジョウ","prefecture_code":28},"0272":{"zip_code":"6680272","prefecture":"兵庫県","prefecture_kana":"ヒョウゴケン","city":"豊岡市","city_kana":"トヨオカシ","town":"出石町鳥居","town_kana":"イズシチョウトリイ","prefecture_code":28},"0275":{"zip_code":"6680275","prefecture":"兵庫県","prefecture_kana":"ヒョウゴケン","city":"豊岡市","city_kana":"トヨオカシ","town":"出石町長砂","town_kana":"イズシチョウナガスナ","prefecture_code":28},"0243":{"zip_code":"6680243","prefecture":"兵庫県","prefecture_kana":"ヒョウゴケン","city":"豊岡市","city_kana":"トヨオカシ","town":"出石町中野","town_kana":"イズシチョウナカノ","prefecture_code":28},"0254":{"zip_code":"6680254","prefecture":"兵庫県","prefecture_kana":"ヒョウゴケン","city":"豊岡市","city_kana":"トヨオカシ","town":"出石町中村","town_kana":"イズシチョウナカムラ","prefecture_code":28},"0203":{"zip_code":"6680203","prefecture":"兵庫県","prefecture_kana":"ヒョウゴケン","city":"豊岡市","city_kana":"トヨオカシ","town":"出石町袴狭","town_kana":"イズシチョウハカザ","prefecture_code":28},"0237":{"zip_code":"6680237","prefecture":"兵庫県","prefecture_kana":"ヒョウゴケン","city":"豊岡市","city_kana":"トヨオカシ","town":"出石町馬場","town_kana":"イズシチョウババ","prefecture_code":28},"0246":{"zip_code":"6680246","prefecture":"兵庫県","prefecture_kana":"ヒョウゴケン","city":"豊岡市","city_kana":"トヨオカシ","town":"出石町日野辺","town_kana":"イズシチョウヒノベ","prefecture_code":28},"0266":{"zip_code":"6680266","prefecture":"兵庫県","prefecture_kana":"ヒョウゴケン","city":"豊岡市","city_kana":"トヨオカシ","town":"出石町平田","town_kana":"イズシチョウヒラタ","prefecture_code":28},"0238":{"zip_code":"6680238","prefecture":"兵庫県","prefecture_kana":"ヒョウゴケン","city":"豊岡市","city_kana":"トヨオカシ","town":"出石町弘原","town_kana":"イズシチョウヒロハラ","prefecture_code":28},"0206":{"zip_code":"6680206","prefecture":"兵庫県","prefecture_kana":"ヒョウゴケン","city":"豊岡市","city_kana":"トヨオカシ","town":"出石町福居","town_kana":"イズシチョウフクイ","prefecture_code":28},"0263":{"zip_code":"6680263","prefecture":"兵庫県","prefecture_kana":"ヒョウゴケン","city":"豊岡市","city_kana":"トヨオカシ","town":"出石町福住","town_kana":"イズシチョウフクスミ","prefecture_code":28},"0265":{"zip_code":"6680265","prefecture":"兵庫県","prefecture_kana":"ヒョウゴケン","city":"豊岡市","city_kana":"トヨオカシ","town":"出石町福見","town_kana":"イズシチョウフクミ","prefecture_code":28},"0262":{"zip_code":"6680262","prefecture":"兵庫県","prefecture_kana":"ヒョウゴケン","city":"豊岡市","city_kana":"トヨオカシ","town":"出石町細見","town_kana":"イズシチョウホソミ","prefecture_code":28},"0224":{"zip_code":"6680224","prefecture":"兵庫県","prefecture_kana":"ヒョウゴケン","city":"豊岡市","city_kana":"トヨオカシ","town":"出石町本町","town_kana":"イズシチョウホンマチ","prefecture_code":28},"0221":{"zip_code":"6680221","prefecture":"兵庫県","prefecture_kana":"ヒョウゴケン","city":"豊岡市","city_kana":"トヨオカシ","town":"出石町町分","town_kana":"イズシチョウマチブン","prefecture_code":28},"0236":{"zip_code":"6680236","prefecture":"兵庫県","prefecture_kana":"ヒョウゴケン","city":"豊岡市","city_kana":"トヨオカシ","town":"出石町松枝","town_kana":"イズシチョウマツガエ","prefecture_code":28},"0277":{"zip_code":"6680277","prefecture":"兵庫県","prefecture_kana":"ヒョウゴケン","city":"豊岡市","city_kana":"トヨオカシ","town":"出石町丸中","town_kana":"イズシチョウマルナカ","prefecture_code":28},"0278":{"zip_code":"6680278","prefecture":"兵庫県","prefecture_kana":"ヒョウゴケン","city":"豊岡市","city_kana":"トヨオカシ","town":"出石町三木","town_kana":"イズシチョウミツキ","prefecture_code":28},"0204":{"zip_code":"6680204","prefecture":"兵庫県","prefecture_kana":"ヒョウゴケン","city":"豊岡市","city_kana":"トヨオカシ","town":"出石町宮内","town_kana":"イズシチョウミヤウチ","prefecture_code":28},"0274":{"zip_code":"6680274","prefecture":"兵庫県","prefecture_kana":"ヒョウゴケン","city":"豊岡市","city_kana":"トヨオカシ","town":"出石町水上","town_kana":"イズシチョウムナガイ","prefecture_code":28},"0276":{"zip_code":"6680276","prefecture":"兵庫県","prefecture_kana":"ヒョウゴケン","city":"豊岡市","city_kana":"トヨオカシ","town":"出石町森井","town_kana":"イズシチョウモリイ","prefecture_code":28},"0225":{"zip_code":"6680225","prefecture":"兵庫県","prefecture_kana":"ヒョウゴケン","city":"豊岡市","city_kana":"トヨオカシ","town":"出石町八木","town_kana":"イズシチョウヤギ","prefecture_code":28},"0208":{"zip_code":"6680208","prefecture":"兵庫県","prefecture_kana":"ヒョウゴケン","city":"豊岡市","city_kana":"トヨオカシ","town":"出石町安良","town_kana":"イズシチョウヤスラ","prefecture_code":28},"0234":{"zip_code":"6680234","prefecture":"兵庫県","prefecture_kana":"ヒョウゴケン","city":"豊岡市","city_kana":"トヨオカシ","town":"出石町柳","town_kana":"イズシチョウヤナギ","prefecture_code":28},"0245":{"zip_code":"6680245","prefecture":"兵庫県","prefecture_kana":"ヒョウゴケン","city":"豊岡市","city_kana":"トヨオカシ","town":"出石町百合","town_kana":"イズシチョウユリ","prefecture_code":28},"0232":{"zip_code":"6680232","prefecture":"兵庫県","prefecture_kana":"ヒョウゴケン","city":"豊岡市","city_kana":"トヨオカシ","town":"出石町宵田","town_kana":"イズシチョウヨイダ","prefecture_code":28},"0253":{"zip_code":"6680253","prefecture":"兵庫県","prefecture_kana":"ヒョウゴケン","city":"豊岡市","city_kana":"トヨオカシ","town":"出石町榎見","town_kana":"イズシチョウヨノミ","prefecture_code":28},"0252":{"zip_code":"6680252","prefecture":"兵庫県","prefecture_kana":"ヒョウゴケン","city":"豊岡市","city_kana":"トヨオカシ","town":"出石町和屋","town_kana":"イズシチョウワヤ","prefecture_code":28},"0021":{"zip_code":"6680021","prefecture":"兵庫県","prefecture_kana":"ヒョウゴケン","city":"豊岡市","city_kana":"トヨオカシ","town":"泉町","town_kana":"イズミチョウ","prefecture_code":28},"0821":{"zip_code":"6680821","prefecture":"兵庫県","prefecture_kana":"ヒョウゴケン","city":"豊岡市","city_kana":"トヨオカシ","town":"市場","town_kana":"イチバ","prefecture_code":28},"0851":{"zip_code":"6680851","prefecture":"兵庫県","prefecture_kana":"ヒョウゴケン","city":"豊岡市","city_kana":"トヨオカシ","town":"今森","town_kana":"イマモリ","prefecture_code":28},"0081":{"zip_code":"6680081","prefecture":"兵庫県","prefecture_kana":"ヒョウゴケン","city":"豊岡市","city_kana":"トヨオカシ","town":"岩井","town_kana":"イワイ","prefecture_code":28},"0002":{"zip_code":"6680002","prefecture":"兵庫県","prefecture_kana":"ヒョウゴケン","city":"豊岡市","city_kana":"トヨオカシ","town":"岩熊","town_kana":"イワクマ","prefecture_code":28},"0071":{"zip_code":"6680071","prefecture":"兵庫県","prefecture_kana":"ヒョウゴケン","city":"豊岡市","city_kana":"トヨオカシ","town":"内町","town_kana":"ウチマチ","prefecture_code":28},"0852":{"zip_code":"6680852","prefecture":"兵庫県","prefecture_kana":"ヒョウゴケン","city":"豊岡市","city_kana":"トヨオカシ","town":"江本","town_kana":"エモト","prefecture_code":28},"0041":{"zip_code":"6680041","prefecture":"兵庫県","prefecture_kana":"ヒョウゴケン","city":"豊岡市","city_kana":"トヨオカシ","town":"大磯町","town_kana":"オオイソチョウ","prefecture_code":28},"0861":{"zip_code":"6680861","prefecture":"兵庫県","prefecture_kana":"ヒョウゴケン","city":"豊岡市","city_kana":"トヨオカシ","town":"大篠岡","town_kana":"オオシノカ","prefecture_code":28},"0072":{"zip_code":"6680072","prefecture":"兵庫県","prefecture_kana":"ヒョウゴケン","city":"豊岡市","city_kana":"トヨオカシ","town":"大谷","town_kana":"オオタニ","prefecture_code":28},"0031":{"zip_code":"6680031","prefecture":"兵庫県","prefecture_kana":"ヒョウゴケン","city":"豊岡市","city_kana":"トヨオカシ","town":"大手町","town_kana":"オオテマチ","prefecture_code":28},"0822":{"zip_code":"6680822","prefecture":"兵庫県","prefecture_kana":"ヒョウゴケン","city":"豊岡市","city_kana":"トヨオカシ","town":"奥野","town_kana":"オクノ","prefecture_code":28},"0022":{"zip_code":"6680022","prefecture":"兵庫県","prefecture_kana":"ヒョウゴケン","city":"豊岡市","city_kana":"トヨオカシ","town":"小田井町","town_kana":"オダイチョウ","prefecture_code":28},"0871":{"zip_code":"6680871","prefecture":"兵庫県","prefecture_kana":"ヒョウゴケン","city":"豊岡市","city_kana":"トヨオカシ","town":"梶原","town_kana":"カジワラ","prefecture_code":28},"0862":{"zip_code":"6680862","prefecture":"兵庫県","prefecture_kana":"ヒョウゴケン","city":"豊岡市","city_kana":"トヨオカシ","town":"香住","town_kana":"カスミ","prefecture_code":28},"0023":{"zip_code":"6680023","prefecture":"兵庫県","prefecture_kana":"ヒョウゴケン","city":"豊岡市","city_kana":"トヨオカシ","town":"加広町","town_kana":"カヒロチョウ","prefecture_code":28},"0811":{"zip_code":"6680811","prefecture":"兵庫県","prefecture_kana":"ヒョウゴケン","city":"豊岡市","city_kana":"トヨオカシ","town":"鎌田","town_kana":"カマタ","prefecture_code":28},"0011":{"zip_code":"6680011","prefecture":"兵庫県","prefecture_kana":"ヒョウゴケン","city":"豊岡市","city_kana":"トヨオカシ","town":"上陰","town_kana":"カミカゲ","prefecture_code":28},"0061":{"zip_code":"6680061","prefecture":"兵庫県","prefecture_kana":"ヒョウゴケン","city":"豊岡市","city_kana":"トヨオカシ","town":"上佐野","town_kana":"カミサノ","prefecture_code":28},"0863":{"zip_code":"6680863","prefecture":"兵庫県","prefecture_kana":"ヒョウゴケン","city":"豊岡市","city_kana":"トヨオカシ","town":"上鉢山","town_kana":"カミハチヤマ","prefecture_code":28},"0831":{"zip_code":"6680831","prefecture":"兵庫県","prefecture_kana":"ヒョウゴケン","city":"豊岡市","city_kana":"トヨオカシ","town":"神美台","town_kana":"カミヨシダイ","prefecture_code":28},"0841":{"zip_code":"6680841","prefecture":"兵庫県","prefecture_kana":"ヒョウゴケン","city":"豊岡市","city_kana":"トヨオカシ","town":"加陽","town_kana":"カヤ","prefecture_code":28},"0864":{"zip_code":"6680864","prefecture":"兵庫県","prefecture_kana":"ヒョウゴケン","city":"豊岡市","city_kana":"トヨオカシ","town":"木内","town_kana":"キナシ","prefecture_code":28},"0042":{"zip_code":"6680042","prefecture":"兵庫県","prefecture_kana":"ヒョウゴケン","city":"豊岡市","city_kana":"トヨオカシ","town":"京町","town_kana":"キョウマチ","prefecture_code":28},"0832":{"zip_code":"6680832","prefecture":"兵庫県","prefecture_kana":"ヒョウゴケン","city":"豊岡市","city_kana":"トヨオカシ","town":"倉見","town_kana":"クラミ","prefecture_code":28},"0872":{"zip_code":"6680872","prefecture":"兵庫県","prefecture_kana":"ヒョウゴケン","city":"豊岡市","city_kana":"トヨオカシ","town":"河谷","town_kana":"コウダニ","prefecture_code":28},"0003":{"zip_code":"6680003","prefecture":"兵庫県","prefecture_kana":"ヒョウゴケン","city":"豊岡市","city_kana":"トヨオカシ","town":"江野","town_kana":"ゴウノ","prefecture_code":28},"0051":{"zip_code":"6680051","prefecture":"兵庫県","prefecture_kana":"ヒョウゴケン","city":"豊岡市","city_kana":"トヨオカシ","town":"九日市上町","town_kana":"ココノカイチカミノチョウ","prefecture_code":28},"0053":{"zip_code":"6680053","prefecture":"兵庫県","prefecture_kana":"ヒョウゴケン","city":"豊岡市","city_kana":"トヨオカシ","town":"九日市中町","town_kana":"ココノカイチナカノチョウ","prefecture_code":28},"0052":{"zip_code":"6680052","prefecture":"兵庫県","prefecture_kana":"ヒョウゴケン","city":"豊岡市","city_kana":"トヨオカシ","town":"九日市下町","town_kana":"ココノカイチシモノチョウ","prefecture_code":28},"0024":{"zip_code":"6680024","prefecture":"兵庫県","prefecture_kana":"ヒョウゴケン","city":"豊岡市","city_kana":"トヨオカシ","town":"寿町","town_kana":"コトブキチョウ","prefecture_code":28},"0802":{"zip_code":"6680802","prefecture":"兵庫県","prefecture_kana":"ヒョウゴケン","city":"豊岡市","city_kana":"トヨオカシ","town":"金剛寺","town_kana":"コンゴウジ","prefecture_code":28},"0025":{"zip_code":"6680025","prefecture":"兵庫県","prefecture_kana":"ヒョウゴケン","city":"豊岡市","city_kana":"トヨオカシ","town":"幸町","town_kana":"サイワイチョウ","prefecture_code":28},"0812":{"zip_code":"6680812","prefecture":"兵庫県","prefecture_kana":"ヒョウゴケン","city":"豊岡市","city_kana":"トヨオカシ","town":"栄町","town_kana":"サカエマチ","prefecture_code":28},"0043":{"zip_code":"6680043","prefecture":"兵庫県","prefecture_kana":"ヒョウゴケン","city":"豊岡市","city_kana":"トヨオカシ","town":"桜町","town_kana":"サクラマチ","prefecture_code":28},"0062":{"zip_code":"6680062","prefecture":"兵庫県","prefecture_kana":"ヒョウゴケン","city":"豊岡市","city_kana":"トヨオカシ","town":"佐野","town_kana":"サノ","prefecture_code":28},"0044":{"zip_code":"6680044","prefecture":"兵庫県","prefecture_kana":"ヒョウゴケン","city":"豊岡市","city_kana":"トヨオカシ","town":"山王町","town_kana":"サンノウチョウ","prefecture_code":28},"0054":{"zip_code":"6680054","prefecture":"兵庫県","prefecture_kana":"ヒョウゴケン","city":"豊岡市","city_kana":"トヨオカシ","town":"塩津町","town_kana":"シオツチョウ","prefecture_code":28},"0012":{"zip_code":"6680012","prefecture":"兵庫県","prefecture_kana":"ヒョウゴケン","city":"豊岡市","city_kana":"トヨオカシ","town":"下陰","town_kana":"シモカゲ","prefecture_code":28},"0803":{"zip_code":"6680803","prefecture":"兵庫県","prefecture_kana":"ヒョウゴケン","city":"豊岡市","city_kana":"トヨオカシ","town":"下鶴井","town_kana":"シモツルイ","prefecture_code":28},"0813":{"zip_code":"6680813","prefecture":"兵庫県","prefecture_kana":"ヒョウゴケン","city":"豊岡市","city_kana":"トヨオカシ","town":"下宮","town_kana":"シモノミヤ","prefecture_code":28},"0865":{"zip_code":"6680865","prefecture":"兵庫県","prefecture_kana":"ヒョウゴケン","city":"豊岡市","city_kana":"トヨオカシ","town":"下鉢山","town_kana":"シモハチヤマ","prefecture_code":28},"0082":{"zip_code":"6680082","prefecture":"兵庫県","prefecture_kana":"ヒョウゴケン","city":"豊岡市","city_kana":"トヨオカシ","town":"庄","town_kana":"ショウ","prefecture_code":28},"0814":{"zip_code":"6680814","prefecture":"兵庫県","prefecture_kana":"ヒョウゴケン","city":"豊岡市","city_kana":"トヨオカシ","town":"祥雲寺","town_kana":"ショウウンジ","prefecture_code":28},"0873":{"zip_code":"6680873","prefecture":"兵庫県","prefecture_kana":"ヒョウゴケン","city":"豊岡市","city_kana":"トヨオカシ","town":"庄境","town_kana":"ショウザカイ","prefecture_code":28},"0045":{"zip_code":"6680045","prefecture":"兵庫県","prefecture_kana":"ヒョウゴケン","city":"豊岡市","city_kana":"トヨオカシ","town":"城南町","town_kana":"ジョウナンチョウ","prefecture_code":28},"0063":{"zip_code":"6680063","prefecture":"兵庫県","prefecture_kana":"ヒョウゴケン","city":"豊岡市","city_kana":"トヨオカシ","town":"正法寺","town_kana":"ショウボウジ","prefecture_code":28},"0853":{"zip_code":"6680853","prefecture":"兵庫県","prefecture_kana":"ヒョウゴケン","city":"豊岡市","city_kana":"トヨオカシ","town":"清冷寺","town_kana":"ショウレンジ","prefecture_code":28},"0055":{"zip_code":"6680055","prefecture":"兵庫県","prefecture_kana":"ヒョウゴケン","city":"豊岡市","city_kana":"トヨオカシ","town":"昭和町","town_kana":"ショウワチョウ","prefecture_code":28},"0004":{"zip_code":"6680004","prefecture":"兵庫県","prefecture_kana":"ヒョウゴケン","city":"豊岡市","city_kana":"トヨオカシ","town":"新堂","town_kana":"シンドウ","prefecture_code":28},"0064":{"zip_code":"6680064","prefecture":"兵庫県","prefecture_kana":"ヒョウゴケン","city":"豊岡市","city_kana":"トヨオカシ","town":"高屋","town_kana":"タカヤ","prefecture_code":28},"0005":{"zip_code":"6680005","prefecture":"兵庫県","prefecture_kana":"ヒョウゴケン","city":"豊岡市","city_kana":"トヨオカシ","town":"滝","town_kana":"タキ","prefecture_code":28},"0866":{"zip_code":"6680866","prefecture":"兵庫県","prefecture_kana":"ヒョウゴケン","city":"豊岡市","city_kana":"トヨオカシ","town":"駄坂","town_kana":"ダサカ","prefecture_code":28},"0046":{"zip_code":"6680046","prefecture":"兵庫県","prefecture_kana":"ヒョウゴケン","city":"豊岡市","city_kana":"トヨオカシ","town":"立野町","town_kana":"タチノチョウ","prefecture_code":28},"0833":{"zip_code":"6680833","prefecture":"兵庫県","prefecture_kana":"ヒョウゴケン","city":"豊岡市","city_kana":"トヨオカシ","town":"立石","town_kana":"タテイシ","prefecture_code":28},"0324":{"zip_code":"6680324","prefecture":"兵庫県","prefecture_kana":"ヒョウゴケン","city":"豊岡市","city_kana":"トヨオカシ","town":"但東町相田","town_kana":"タントウチョウアイダ","prefecture_code":28},"0352":{"zip_code":"6680352","prefecture":"兵庫県","prefecture_kana":"ヒョウゴケン","city":"豊岡市","city_kana":"トヨオカシ","town":"但東町赤花","town_kana":"タントウチョウアカバナ","prefecture_code":28},"0316":{"zip_code":"6680316","prefecture":"兵庫県","prefecture_kana":"ヒョウゴケン","city":"豊岡市","city_kana":"トヨオカシ","town":"但東町天谷","town_kana":"タントウチョウアマダニ","prefecture_code":28},"0374":{"zip_code":"6680374","prefecture":"兵庫県","prefecture_kana":"ヒョウゴケン","city":"豊岡市","city_kana":"トヨオカシ","town":"但東町後","town_kana":"タントウチョウウシロ","prefecture_code":28},"0372":{"zip_code":"6680372","prefecture":"兵庫県","prefecture_kana":"ヒョウゴケン","city":"豊岡市","city_kana":"トヨオカシ","town":"但東町大河内","town_kana":"タントウチョウオオゴウチ","prefecture_code":28},"0335":{"zip_code":"6680335","prefecture":"兵庫県","prefecture_kana":"ヒョウゴケン","city":"豊岡市","city_kana":"トヨオカシ","town":"但東町太田","town_kana":"タントウチョウオオタ","prefecture_code":28},"0353":{"zip_code":"6680353","prefecture":"兵庫県","prefecture_kana":"ヒョウゴケン","city":"豊岡市","city_kana":"トヨオカシ","town":"但東町奥赤","town_kana":"タントウチョウオクアカ","prefecture_code":28},"0343":{"zip_code":"6680343","prefecture":"兵庫県","prefecture_kana":"ヒョウゴケン","city":"豊岡市","city_kana":"トヨオカシ","town":"但東町奥藤","town_kana":"タントウチョウオクフジ","prefecture_code":28},"0301":{"zip_code":"6680301","prefecture":"兵庫県","prefecture_kana":"ヒョウゴケン","city":"豊岡市","city_kana":"トヨオカシ","town":"但東町奥矢根","town_kana":"タントウチョウオクヤネ","prefecture_code":28},"0323":{"zip_code":"6680323","prefecture":"兵庫県","prefecture_kana":"ヒョウゴケン","city":"豊岡市","city_kana":"トヨオカシ","town":"但東町小谷","town_kana":"タントウチョウオダニ","prefecture_code":28},"0321":{"zip_code":"6680321","prefecture":"兵庫県","prefecture_kana":"ヒョウゴケン","city":"豊岡市","city_kana":"トヨオカシ","town":"但東町唐川","town_kana":"タントウチョウカラカワ","prefecture_code":28},"0331":{"zip_code":"6680331","prefecture":"兵庫県","prefecture_kana":"ヒョウゴケン","city":"豊岡市","city_kana":"トヨオカシ","town":"但東町木村","town_kana":"タントウチョウキムラ","prefecture_code":28},"0341":{"zip_code":"6680341","prefecture":"兵庫県","prefecture_kana":"ヒョウゴケン","city":"豊岡市","city_kana":"トヨオカシ","town":"但東町口藤","town_kana":"タントウチョウクチフジ","prefecture_code":28},"0373":{"zip_code":"6680373","prefecture":"兵庫県","prefecture_kana":"ヒョウゴケン","city":"豊岡市","city_kana":"トヨオカシ","town":"但東町久畑","town_kana":"タントウチョウクバタ","prefecture_code":28},"0363":{"zip_code":"6680363","prefecture":"兵庫県","prefecture_kana":"ヒョウゴケン","city":"豊岡市","city_kana":"トヨオカシ","town":"但東町栗尾","town_kana":"タントウチョウクリオ","prefecture_code":28},"0315":{"zip_code":"6680315","prefecture":"兵庫県","prefecture_kana":"ヒョウゴケン","city":"豊岡市","city_kana":"トヨオカシ","town":"但東町河本","town_kana":"タントウチョウコウモト","prefecture_code":28},"0333":{"zip_code":"6680333","prefecture":"兵庫県","prefecture_kana":"ヒョウゴケン","city":"豊岡市","city_kana":"トヨオカシ","town":"但東町高龍寺","town_kana":"タントウチョウコウリュウジ","prefecture_code":28},"0376":{"zip_code":"6680376","prefecture":"兵庫県","prefecture_kana":"ヒョウゴケン","city":"豊岡市","city_kana":"トヨオカシ","town":"但東町小坂","town_kana":"タントウチョウコザコ","prefecture_code":28},"0354":{"zip_code":"6680354","prefecture":"兵庫県","prefecture_kana":"ヒョウゴケン","city":"豊岡市","city_kana":"トヨオカシ","town":"但東町坂津","town_kana":"タントウチョウサカヅ","prefecture_code":28},"0334":{"zip_code":"6680334","prefecture":"兵庫県","prefecture_kana":"ヒョウゴケン","city":"豊岡市","city_kana":"トヨオカシ","town":"但東町坂野","town_kana":"タントウチョウサカノ","prefecture_code":28},"0325":{"zip_code":"6680325","prefecture":"兵庫県","prefecture_kana":"ヒョウゴケン","city":"豊岡市","city_kana":"トヨオカシ","town":"但東町佐々木","town_kana":"タントウチョウササキ","prefecture_code":28},"0364":{"zip_code":"6680364","prefecture":"兵庫県","prefecture_kana":"ヒョウゴケン","city":"豊岡市","city_kana":"トヨオカシ","town":"但東町佐田","town_kana":"タントウチョウサダ","prefecture_code":28},"0361":{"zip_code":"6680361","prefecture":"兵庫県","prefecture_kana":"ヒョウゴケン","city":"豊岡市","city_kana":"トヨオカシ","town":"但東町正法寺","town_kana":"タントウチョウショウボウジ","prefecture_code":28},"0311":{"zip_code":"6680311","prefecture":"兵庫県","prefecture_kana":"ヒョウゴケン","city":"豊岡市","city_kana":"トヨオカシ","town":"但東町出合","town_kana":"タントウチョウデアイ","prefecture_code":28},"0313":{"zip_code":"6680313","prefecture":"兵庫県","prefecture_kana":"ヒョウゴケン","city":"豊岡市","city_kana":"トヨオカシ","town":"但東町出合市場","town_kana":"タントウチョウデアイイチバ","prefecture_code":28},"0337":{"zip_code":"6680337","prefecture":"兵庫県","prefecture_kana":"ヒョウゴケン","city":"豊岡市","city_kana":"トヨオカシ","town":"但東町東里","town_kana":"タントウチョウトウリ","prefecture_code":28},"0342":{"zip_code":"6680342","prefecture":"兵庫県","prefecture_kana":"ヒョウゴケン","city":"豊岡市","city_kana":"トヨオカシ","town":"但東町中藤","town_kana":"タントウチョウナカフジ","prefecture_code":28},"0345":{"zip_code":"6680345","prefecture":"兵庫県","prefecture_kana":"ヒョウゴケン","city":"豊岡市","city_kana":"トヨオカシ","town":"但東町中山","town_kana":"タントウチョウナカヤマ","prefecture_code":28},"0317":{"zip_code":"6680317","prefecture":"兵庫県","prefecture_kana":"ヒョウゴケン","city":"豊岡市","city_kana":"トヨオカシ","town":"但東町西谷","town_kana":"タントウチョウニシダニ","prefecture_code":28},"0332":{"zip_code":"6680332","prefecture":"兵庫県","prefecture_kana":"ヒョウゴケン","city":"豊岡市","city_kana":"トヨオカシ","town":"但東町西野々","town_kana":"タントウチョウニシノノ","prefecture_code":28},"0303":{"zip_code":"6680303","prefecture":"兵庫県","prefecture_kana":"ヒョウゴケン","city":"豊岡市","city_kana":"トヨオカシ","town":"但東町畑","town_kana":"タントウチョウハタ","prefecture_code":28},"0351":{"zip_code":"6680351","prefecture":"兵庫県","prefecture_kana":"ヒョウゴケン","city":"豊岡市","city_kana":"トヨオカシ","town":"但東町畑山","town_kana":"タントウチョウハタヤマ","prefecture_code":28},"0375":{"zip_code":"6680375","prefecture":"兵庫県","prefecture_kana":"ヒョウゴケン","city":"豊岡市","city_kana":"トヨオカシ","town":"但東町東中","town_kana":"タントウチョウヒガシナカ","prefecture_code":28},"0314":{"zip_code":"6680314","prefecture":"兵庫県","prefecture_kana":"ヒョウゴケン","city":"豊岡市","city_kana":"トヨオカシ","town":"但東町日殿","town_kana":"タントウチョウヒドノ","prefecture_code":28},"0336":{"zip_code":"6680336","prefecture":"兵庫県","prefecture_kana":"ヒョウゴケン","city":"豊岡市","city_kana":"トヨオカシ","town":"但東町日向","town_kana":"タントウチョウヒナダ","prefecture_code":28},"0362":{"zip_code":"6680362","prefecture":"兵庫県","prefecture_kana":"ヒョウゴケン","city":"豊岡市","city_kana":"トヨオカシ","town":"但東町平田","town_kana":"タントウチョウヒラタ","prefecture_code":28},"0304":{"zip_code":"6680304","prefecture":"兵庫県","prefecture_kana":"ヒョウゴケン","city":"豊岡市","city_kana":"トヨオカシ","town":"但東町水石","town_kana":"タントウチョウミズシ","prefecture_code":28},"0312":{"zip_code":"6680312","prefecture":"兵庫県","prefecture_kana":"ヒョウゴケン","city":"豊岡市","city_kana":"トヨオカシ","town":"但東町南尾","town_kana":"タントウチョウミノオ","prefecture_code":28},"0322":{"zip_code":"6680322","prefecture":"兵庫県","prefecture_kana":"ヒョウゴケン","city":"豊岡市","city_kana":"トヨオカシ","town":"但東町三原","town_kana":"タントウチョウミハラ","prefecture_code":28},"0344":{"zip_code":"6680344","prefecture":"兵庫県","prefecture_kana":"ヒョウゴケン","city":"豊岡市","city_kana":"トヨオカシ","town":"但東町虫生","town_kana":"タントウチョウムシュウ","prefecture_code":28},"0371":{"zip_code":"6680371","prefecture":"兵庫県","prefecture_kana":"ヒョウゴケン","city":"豊岡市","city_kana":"トヨオカシ","town":"但東町薬王寺","town_kana":"タントウチョウヤクオウジ","prefecture_code":28},"0302":{"zip_code":"6680302","prefecture":"兵庫県","prefecture_kana":"ヒョウゴケン","city":"豊岡市","city_kana":"トヨオカシ","town":"但東町矢根","town_kana":"タントウチョウヤネ","prefecture_code":28},"0033":{"zip_code":"6680033","prefecture":"兵庫県","prefecture_kana":"ヒョウゴケン","city":"豊岡市","city_kana":"トヨオカシ","town":"中央町","town_kana":"チュウオウマチ","prefecture_code":28},"0032":{"zip_code":"6680032","prefecture":"兵庫県","prefecture_kana":"ヒョウゴケン","city":"豊岡市","city_kana":"トヨオカシ","town":"千代田町","town_kana":"チヨダチョウ","prefecture_code":28},"0073":{"zip_code":"6680073","prefecture":"兵庫県","prefecture_kana":"ヒョウゴケン","city":"豊岡市","city_kana":"トヨオカシ","town":"辻","town_kana":"ツジ","prefecture_code":28},"0083":{"zip_code":"6680083","prefecture":"兵庫県","prefecture_kana":"ヒョウゴケン","city":"豊岡市","city_kana":"トヨオカシ","town":"栃江","town_kana":"トチエ","prefecture_code":28},"0065":{"zip_code":"6680065","prefecture":"兵庫県","prefecture_kana":"ヒョウゴケン","city":"豊岡市","city_kana":"トヨオカシ","town":"戸牧","town_kana":"トベラ","prefecture_code":28},"0013":{"zip_code":"6680013","prefecture":"兵庫県","prefecture_kana":"ヒョウゴケン","city":"豊岡市","city_kana":"トヨオカシ","town":"中陰","town_kana":"ナカカゲ","prefecture_code":28},"0842":{"zip_code":"6680842","prefecture":"兵庫県","prefecture_kana":"ヒョウゴケン","city":"豊岡市","city_kana":"トヨオカシ","town":"中郷","town_kana":"ナカノゴウ","prefecture_code":28},"0874":{"zip_code":"6680874","prefecture":"兵庫県","prefecture_kana":"ヒョウゴケン","city":"豊岡市","city_kana":"トヨオカシ","town":"中谷","town_kana":"ナカノタニ","prefecture_code":28},"0834":{"zip_code":"6680834","prefecture":"兵庫県","prefecture_kana":"ヒョウゴケン","city":"豊岡市","city_kana":"トヨオカシ","town":"長谷","town_kana":"ナガタニ","prefecture_code":28},"0074":{"zip_code":"6680074","prefecture":"兵庫県","prefecture_kana":"ヒョウゴケン","city":"豊岡市","city_kana":"トヨオカシ","town":"野垣","town_kana":"ノガキ","prefecture_code":28},"0804":{"zip_code":"6680804","prefecture":"兵庫県","prefecture_kana":"ヒョウゴケン","city":"豊岡市","city_kana":"トヨオカシ","town":"野上","town_kana":"ノジョウ","prefecture_code":28},"0014":{"zip_code":"6680014","prefecture":"兵庫県","prefecture_kana":"ヒョウゴケン","city":"豊岡市","city_kana":"トヨオカシ","town":"野田","town_kana":"ノダ","prefecture_code":28},"0854":{"zip_code":"6680854","prefecture":"兵庫県","prefecture_kana":"ヒョウゴケン","city":"豊岡市","city_kana":"トヨオカシ","town":"八社宮","town_kana":"ハサミ","prefecture_code":28},"0843":{"zip_code":"6680843","prefecture":"兵庫県","prefecture_kana":"ヒョウゴケン","city":"豊岡市","city_kana":"トヨオカシ","town":"引野","town_kana":"ヒキノ","prefecture_code":28},"0844":{"zip_code":"6680844","prefecture":"兵庫県","prefecture_kana":"ヒョウゴケン","city":"豊岡市","city_kana":"トヨオカシ","town":"土渕","town_kana":"ヒジウチ","prefecture_code":28},"0015":{"zip_code":"6680015","prefecture":"兵庫県","prefecture_kana":"ヒョウゴケン","city":"豊岡市","city_kana":"トヨオカシ","town":"一日市","town_kana":"ヒトイチ","prefecture_code":28},"0815":{"zip_code":"6680815","prefecture":"兵庫県","prefecture_kana":"ヒョウゴケン","city":"豊岡市","city_kana":"トヨオカシ","town":"日撫","town_kana":"ヒナド","prefecture_code":28},"0075":{"zip_code":"6680075","prefecture":"兵庫県","prefecture_kana":"ヒョウゴケン","city":"豊岡市","city_kana":"トヨオカシ","town":"福成寺","town_kana":"フクジョウジ","prefecture_code":28},"0084":{"zip_code":"6680084","prefecture":"兵庫県","prefecture_kana":"ヒョウゴケン","city":"豊岡市","city_kana":"トヨオカシ","town":"福田","town_kana":"フクダ","prefecture_code":28},"0855":{"zip_code":"6680855","prefecture":"兵庫県","prefecture_kana":"ヒョウゴケン","city":"豊岡市","city_kana":"トヨオカシ","town":"伏","town_kana":"フシ","prefecture_code":28},"0076":{"zip_code":"6680076","prefecture":"兵庫県","prefecture_kana":"ヒョウゴケン","city":"豊岡市","city_kana":"トヨオカシ","town":"船谷","town_kana":"フナダニ","prefecture_code":28},"0805":{"zip_code":"6680805","prefecture":"兵庫県","prefecture_kana":"ヒョウゴケン","city":"豊岡市","city_kana":"トヨオカシ","town":"船町","town_kana":"フナマチ","prefecture_code":28},"0816":{"zip_code":"6680816","prefecture":"兵庫県","prefecture_kana":"ヒョウゴケン","city":"豊岡市","city_kana":"トヨオカシ","town":"法花寺","town_kana":"ホッケイジ","prefecture_code":28},"0047":{"zip_code":"6680047","prefecture":"兵庫県","prefecture_kana":"ヒョウゴケン","city":"豊岡市","city_kana":"トヨオカシ","town":"三坂町","town_kana":"ミサカチョウ","prefecture_code":28},"0085":{"zip_code":"6680085","prefecture":"兵庫県","prefecture_kana":"ヒョウゴケン","city":"豊岡市","city_kana":"トヨオカシ","town":"宮井","town_kana":"ミヤイ","prefecture_code":28},"0823":{"zip_code":"6680823","prefecture":"兵庫県","prefecture_kana":"ヒョウゴケン","city":"豊岡市","city_kana":"トヨオカシ","town":"三宅","town_kana":"ミヤケ","prefecture_code":28},"0016":{"zip_code":"6680016","prefecture":"兵庫県","prefecture_kana":"ヒョウゴケン","city":"豊岡市","city_kana":"トヨオカシ","town":"宮島","town_kana":"ミヤジマ","prefecture_code":28},"0056":{"zip_code":"6680056","prefecture":"兵庫県","prefecture_kana":"ヒョウゴケン","city":"豊岡市","city_kana":"トヨオカシ","town":"妙楽寺","town_kana":"ミョウラクジ","prefecture_code":28},"0077":{"zip_code":"6680077","prefecture":"兵庫県","prefecture_kana":"ヒョウゴケン","city":"豊岡市","city_kana":"トヨオカシ","town":"目坂","town_kana":"メサカ","prefecture_code":28},"0026":{"zip_code":"6680026","prefecture":"兵庫県","prefecture_kana":"ヒョウゴケン","city":"豊岡市","city_kana":"トヨオカシ","town":"元町","town_kana":"モトマチ","prefecture_code":28},"0806":{"zip_code":"6680806","prefecture":"兵庫県","prefecture_kana":"ヒョウゴケン","city":"豊岡市","city_kana":"トヨオカシ","town":"森","town_kana":"モリ","prefecture_code":28},"0824":{"zip_code":"6680824","prefecture":"兵庫県","prefecture_kana":"ヒョウゴケン","city":"豊岡市","city_kana":"トヨオカシ","town":"森尾","town_kana":"モリオ","prefecture_code":28},"0006":{"zip_code":"6680006","prefecture":"兵庫県","prefecture_kana":"ヒョウゴケン","city":"豊岡市","city_kana":"トヨオカシ","town":"森津","town_kana":"モリヅ","prefecture_code":28},"0057":{"zip_code":"6680057","prefecture":"兵庫県","prefecture_kana":"ヒョウゴケン","city":"豊岡市","city_kana":"トヨオカシ","town":"弥栄町","town_kana":"ヤサカチョウ","prefecture_code":28},"0807":{"zip_code":"6680807","prefecture":"兵庫県","prefecture_kana":"ヒョウゴケン","city":"豊岡市","city_kana":"トヨオカシ","town":"山本","town_kana":"ヤマモト","prefecture_code":28},"0875":{"zip_code":"6680875","prefecture":"兵庫県","prefecture_kana":"ヒョウゴケン","city":"豊岡市","city_kana":"トヨオカシ","town":"百合地","town_kana":"ユルジ","prefecture_code":28},"0078":{"zip_code":"6680078","prefecture":"兵庫県","prefecture_kana":"ヒョウゴケン","city":"豊岡市","city_kana":"トヨオカシ","town":"吉井","town_kana":"ヨシイ","prefecture_code":28},"0817":{"zip_code":"6680817","prefecture":"兵庫県","prefecture_kana":"ヒョウゴケン","city":"豊岡市","city_kana":"トヨオカシ","town":"六地蔵","town_kana":"ロクジゾウ","prefecture_code":28},"0027":{"zip_code":"6680027","prefecture":"兵庫県","prefecture_kana":"ヒョウゴケン","city":"豊岡市","city_kana":"トヨオカシ","town":"若松町","town_kana":"ワカマツチョウ","prefecture_code":28}}