{"1161":{"zip_code":"6691161","prefecture":"兵庫県","prefecture_kana":"ヒョウゴケン","city":"神戸市北区","city_kana":"コウベシキタク","town":"道場町生野","town_kana":"ドウジョウチョウイクノ","prefecture_code":28},"1122":{"zip_code":"6691122","prefecture":"兵庫県","prefecture_kana":"ヒョウゴケン","city":"西宮市","city_kana":"ニシノミヤシ","town":"青葉台","town_kana":"アオバダイ","prefecture_code":28},"1131":{"zip_code":"6691131","prefecture":"兵庫県","prefecture_kana":"ヒョウゴケン","city":"西宮市","city_kana":"ニシノミヤシ","town":"清瀬台","town_kana":"キヨセダイ","prefecture_code":28},"1135":{"zip_code":"6691135","prefecture":"兵庫県","prefecture_kana":"ヒョウゴケン","city":"西宮市","city_kana":"ニシノミヤシ","town":"国見台","town_kana":"クニミダイ","prefecture_code":28},"1101":{"zip_code":"6691101","prefecture":"兵庫県","prefecture_kana":"ヒョウゴケン","city":"西宮市","city_kana":"ニシノミヤシ","town":"塩瀬町生瀬","town_kana":"シオセチョウナマゼ","prefecture_code":28},"1251":{"zip_code":"6691251","prefecture":"兵庫県","prefecture_kana":"ヒョウゴケン","city":"西宮市","city_kana":"ニシノミヤシ","town":"塩瀬町名塩","town_kana":"シオセチョウナジオ","prefecture_code":28},"1141":{"zip_code":"6691141","prefecture":"兵庫県","prefecture_kana":"ヒョウゴケン","city":"西宮市","city_kana":"ニシノミヤシ","town":"塩瀬町名塩","town_kana":"シオセチョウナジオ","prefecture_code":28},"1147":{"zip_code":"6691147","prefecture":"兵庫県","prefecture_kana":"ヒョウゴケン","city":"西宮市","city_kana":"ニシノミヤシ","town":"名塩","town_kana":"ナジオ","prefecture_code":28},"1149":{"zip_code":"6691149","prefecture":"兵庫県","prefecture_kana":"ヒョウゴケン","city":"西宮市","city_kana":"ニシノミヤシ","town":"名塩赤坂","town_kana":"ナジオアカサカ","prefecture_code":28},"1143":{"zip_code":"6691143","prefecture":"兵庫県","prefecture_kana":"ヒョウゴケン","city":"西宮市","city_kana":"ニシノミヤシ","town":"名塩ガーデン","town_kana":"ナジオガーデン","prefecture_code":28},"1136":{"zip_code":"6691136","prefecture":"兵庫県","prefecture_kana":"ヒョウゴケン","city":"西宮市","city_kana":"ニシノミヤシ","town":"名塩木之元","town_kana":"ナジオコノモト","prefecture_code":28},"1146":{"zip_code":"6691146","prefecture":"兵庫県","prefecture_kana":"ヒョウゴケン","city":"西宮市","city_kana":"ニシノミヤシ","town":"名塩さくら台","town_kana":"ナジオサクラダイ","prefecture_code":28},"1142":{"zip_code":"6691142","prefecture":"兵庫県","prefecture_kana":"ヒョウゴケン","city":"西宮市","city_kana":"ニシノミヤシ","town":"名塩山荘","town_kana":"ナジオサンソウ","prefecture_code":28},"1144":{"zip_code":"6691144","prefecture":"兵庫県","prefecture_kana":"ヒョウゴケン","city":"西宮市","city_kana":"ニシノミヤシ","town":"名塩茶園町","town_kana":"ナジオチャエンチョウ","prefecture_code":28},"1148":{"zip_code":"6691148","prefecture":"兵庫県","prefecture_kana":"ヒョウゴケン","city":"西宮市","city_kana":"ニシノミヤシ","town":"名塩東久保","town_kana":"ナジオトウクボ","prefecture_code":28},"1145":{"zip_code":"6691145","prefecture":"兵庫県","prefecture_kana":"ヒョウゴケン","city":"西宮市","city_kana":"ニシノミヤシ","town":"名塩平成台","town_kana":"ナジオヘイセイダイ","prefecture_code":28},"1132":{"zip_code":"6691132","prefecture":"兵庫県","prefecture_kana":"ヒョウゴケン","city":"西宮市","city_kana":"ニシノミヤシ","town":"名塩南台","town_kana":"ナジオミナミダイ","prefecture_code":28},"1162":{"zip_code":"6691162","prefecture":"兵庫県","prefecture_kana":"ヒョウゴケン","city":"西宮市","city_kana":"ニシノミヤシ","town":"名塩美山","town_kana":"ナジオミヤマ","prefecture_code":28},"1134":{"zip_code":"6691134","prefecture":"兵庫県","prefecture_kana":"ヒョウゴケン","city":"西宮市","city_kana":"ニシノミヤシ","town":"名塩新町","town_kana":"ナジオシンマチ","prefecture_code":28},"1103":{"zip_code":"6691103","prefecture":"兵庫県","prefecture_kana":"ヒョウゴケン","city":"西宮市","city_kana":"ニシノミヤシ","town":"生瀬東町","town_kana":"ナマゼヒガシマチ","prefecture_code":28},"1111":{"zip_code":"6691111","prefecture":"兵庫県","prefecture_kana":"ヒョウゴケン","city":"西宮市","city_kana":"ニシノミヤシ","town":"生瀬高台","town_kana":"ナマゼタカダイ","prefecture_code":28},"1102":{"zip_code":"6691102","prefecture":"兵庫県","prefecture_kana":"ヒョウゴケン","city":"西宮市","city_kana":"ニシノミヤシ","town":"生瀬町","town_kana":"ナマゼチョウ","prefecture_code":28},"1104":{"zip_code":"6691104","prefecture":"兵庫県","prefecture_kana":"ヒョウゴケン","city":"西宮市","city_kana":"ニシノミヤシ","town":"生瀬武庫川町","town_kana":"ナマセムコガワチョウ","prefecture_code":28},"1121":{"zip_code":"6691121","prefecture":"兵庫県","prefecture_kana":"ヒョウゴケン","city":"西宮市","city_kana":"ニシノミヤシ","town":"花の峯","town_kana":"ハナノミネ","prefecture_code":28},"1133":{"zip_code":"6691133","prefecture":"兵庫県","prefecture_kana":"ヒョウゴケン","city":"西宮市","city_kana":"ニシノミヤシ","town":"東山台","town_kana":"ヒガシヤマダイ","prefecture_code":28},"1112":{"zip_code":"6691112","prefecture":"兵庫県","prefecture_kana":"ヒョウゴケン","city":"西宮市","city_kana":"ニシノミヤシ","town":"宝生ケ丘","town_kana":"ホウショウガオカ","prefecture_code":28},"6123":{"zip_code":"6696123","prefecture":"兵庫県","prefecture_kana":"ヒョウゴケン","city":"豊岡市","city_kana":"トヨオカシ","town":"小島","town_kana":"オシマ","prefecture_code":28},"6103":{"zip_code":"6696103","prefecture":"兵庫県","prefecture_kana":"ヒョウゴケン","city":"豊岡市","city_kana":"トヨオカシ","town":"城崎町今津","town_kana":"キノサキチョウイマヅ","prefecture_code":28},"6116":{"zip_code":"6696116","prefecture":"兵庫県","prefecture_kana":"ヒョウゴケン","city":"豊岡市","city_kana":"トヨオカシ","town":"城崎町上山","town_kana":"キノサキチョウウヤマ","prefecture_code":28},"6115":{"zip_code":"6696115","prefecture":"兵庫県","prefecture_kana":"ヒョウゴケン","city":"豊岡市","city_kana":"トヨオカシ","town":"城崎町来日","town_kana":"キノサキチョウクルヒ","prefecture_code":28},"6111":{"zip_code":"6696111","prefecture":"兵庫県","prefecture_kana":"ヒョウゴケン","city":"豊岡市","city_kana":"トヨオカシ","town":"城崎町楽々浦","town_kana":"キノサキチョウササウラ","prefecture_code":28},"6114":{"zip_code":"6696114","prefecture":"兵庫県","prefecture_kana":"ヒョウゴケン","city":"豊岡市","city_kana":"トヨオカシ","town":"城崎町戸島","town_kana":"キノサキチョウトシマ","prefecture_code":28},"6112":{"zip_code":"6696112","prefecture":"兵庫県","prefecture_kana":"ヒョウゴケン","city":"豊岡市","city_kana":"トヨオカシ","town":"城崎町飯谷","town_kana":"キノサキチョウハンダニ","prefecture_code":28},"6113":{"zip_code":"6696113","prefecture":"兵庫県","prefecture_kana":"ヒョウゴケン","city":"豊岡市","city_kana":"トヨオカシ","town":"城崎町結","town_kana":"キノサキチョウムスブ","prefecture_code":28},"6102":{"zip_code":"6696102","prefecture":"兵庫県","prefecture_kana":"ヒョウゴケン","city":"豊岡市","city_kana":"トヨオカシ","town":"城崎町桃島","town_kana":"キノサキチョウモモシマ","prefecture_code":28},"6101":{"zip_code":"6696101","prefecture":"兵庫県","prefecture_kana":"ヒョウゴケン","city":"豊岡市","city_kana":"トヨオカシ","town":"城崎町湯島","town_kana":"キノサキチョウユシマ","prefecture_code":28},"6124":{"zip_code":"6696124","prefecture":"兵庫県","prefecture_kana":"ヒョウゴケン","city":"豊岡市","city_kana":"トヨオカシ","town":"気比","town_kana":"ケヒ","prefecture_code":28},"6122":{"zip_code":"6696122","prefecture":"兵庫県","prefecture_kana":"ヒョウゴケン","city":"豊岡市","city_kana":"トヨオカシ","town":"瀬戸","town_kana":"セト","prefecture_code":28},"6125":{"zip_code":"6696125","prefecture":"兵庫県","prefecture_kana":"ヒョウゴケン","city":"豊岡市","city_kana":"トヨオカシ","town":"田結","town_kana":"タイ","prefecture_code":28},"6214":{"zip_code":"6696214","prefecture":"兵庫県","prefecture_kana":"ヒョウゴケン","city":"豊岡市","city_kana":"トヨオカシ","town":"竹野町阿金谷","town_kana":"タケノチョウアコンダニ","prefecture_code":28},"6223":{"zip_code":"6696223","prefecture":"兵庫県","prefecture_kana":"ヒョウゴケン","city":"豊岡市","city_kana":"トヨオカシ","town":"竹野町芦谷","town_kana":"タケノチョウアシダニ","prefecture_code":28},"6202":{"zip_code":"6696202","prefecture":"兵庫県","prefecture_kana":"ヒョウゴケン","city":"豊岡市","city_kana":"トヨオカシ","town":"竹野町宇日","town_kana":"タケノチョウウヒ","prefecture_code":28},"6352":{"zip_code":"6696352","prefecture":"兵庫県","prefecture_kana":"ヒョウゴケン","city":"豊岡市","city_kana":"トヨオカシ","town":"竹野町大森","town_kana":"タケノチョウオオモリ","prefecture_code":28},"6218":{"zip_code":"6696218","prefecture":"兵庫県","prefecture_kana":"ヒョウゴケン","city":"豊岡市","city_kana":"トヨオカシ","town":"竹野町奥須井","town_kana":"タケノチョウオクスイ","prefecture_code":28},"6224":{"zip_code":"6696224","prefecture":"兵庫県","prefecture_kana":"ヒョウゴケン","city":"豊岡市","city_kana":"トヨオカシ","town":"竹野町鬼神谷","town_kana":"タケノチョウオジンダニ","prefecture_code":28},"6333":{"zip_code":"6696333","prefecture":"兵庫県","prefecture_kana":"ヒョウゴケン","city":"豊岡市","city_kana":"トヨオカシ","town":"竹野町御又","town_kana":"タケノチョウオンマタ","prefecture_code":28},"6354":{"zip_code":"6696354","prefecture":"兵庫県","prefecture_kana":"ヒョウゴケン","city":"豊岡市","city_kana":"トヨオカシ","town":"竹野町川南谷","town_kana":"タケノチョウカナンダニ","prefecture_code":28},"6334":{"zip_code":"6696334","prefecture":"兵庫県","prefecture_kana":"ヒョウゴケン","city":"豊岡市","city_kana":"トヨオカシ","town":"竹野町河内","town_kana":"タケノチョウカワチ","prefecture_code":28},"6216":{"zip_code":"6696216","prefecture":"兵庫県","prefecture_kana":"ヒョウゴケン","city":"豊岡市","city_kana":"トヨオカシ","town":"竹野町切浜","town_kana":"タケノチョウキリハマ","prefecture_code":28},"6229":{"zip_code":"6696229","prefecture":"兵庫県","prefecture_kana":"ヒョウゴケン","city":"豊岡市","city_kana":"トヨオカシ","town":"竹野町金原","town_kana":"タケノチョウキンバラ","prefecture_code":28},"6215":{"zip_code":"6696215","prefecture":"兵庫県","prefecture_kana":"ヒョウゴケン","city":"豊岡市","city_kana":"トヨオカシ","town":"竹野町草飼","town_kana":"タケノチョウクサカイ","prefecture_code":28},"6353":{"zip_code":"6696353","prefecture":"兵庫県","prefecture_kana":"ヒョウゴケン","city":"豊岡市","city_kana":"トヨオカシ","town":"竹野町桑野本","town_kana":"タケノチョウクワノモト","prefecture_code":28},"6341":{"zip_code":"6696341","prefecture":"兵庫県","prefecture_kana":"ヒョウゴケン","city":"豊岡市","city_kana":"トヨオカシ","town":"竹野町小城","town_kana":"タケノチョウコジョウ","prefecture_code":28},"6222":{"zip_code":"6696222","prefecture":"兵庫県","prefecture_kana":"ヒョウゴケン","city":"豊岡市","city_kana":"トヨオカシ","town":"竹野町小丸","town_kana":"タケノチョウコマル","prefecture_code":28},"6226":{"zip_code":"6696226","prefecture":"兵庫県","prefecture_kana":"ヒョウゴケン","city":"豊岡市","city_kana":"トヨオカシ","town":"竹野町下塚","town_kana":"タケノチョウシモヅカ","prefecture_code":28},"6221":{"zip_code":"6696221","prefecture":"兵庫県","prefecture_kana":"ヒョウゴケン","city":"豊岡市","city_kana":"トヨオカシ","town":"竹野町須谷","town_kana":"タケノチョウスダニ","prefecture_code":28},"6351":{"zip_code":"6696351","prefecture":"兵庫県","prefecture_kana":"ヒョウゴケン","city":"豊岡市","city_kana":"トヨオカシ","town":"竹野町須野谷","town_kana":"タケノチョウスノタニ","prefecture_code":28},"6203":{"zip_code":"6696203","prefecture":"兵庫県","prefecture_kana":"ヒョウゴケン","city":"豊岡市","city_kana":"トヨオカシ","town":"竹野町田久日","town_kana":"タケノチョウタクヒ","prefecture_code":28},"6201":{"zip_code":"6696201","prefecture":"兵庫県","prefecture_kana":"ヒョウゴケン","city":"豊岡市","city_kana":"トヨオカシ","town":"竹野町竹野","town_kana":"タケノチョウタケノ","prefecture_code":28},"6343":{"zip_code":"6696343","prefecture":"兵庫県","prefecture_kana":"ヒョウゴケン","city":"豊岡市","city_kana":"トヨオカシ","town":"竹野町段","town_kana":"タケノチョウダン","prefecture_code":28},"6225":{"zip_code":"6696225","prefecture":"兵庫県","prefecture_kana":"ヒョウゴケン","city":"豊岡市","city_kana":"トヨオカシ","town":"竹野町轟","town_kana":"タケノチョウトドロキ","prefecture_code":28},"6342":{"zip_code":"6696342","prefecture":"兵庫県","prefecture_kana":"ヒョウゴケン","city":"豊岡市","city_kana":"トヨオカシ","town":"竹野町二連原","town_kana":"タケノチョウニレンバラ","prefecture_code":28},"6344":{"zip_code":"6696344","prefecture":"兵庫県","prefecture_kana":"ヒョウゴケン","city":"豊岡市","city_kana":"トヨオカシ","town":"竹野町椒","town_kana":"タケノチョウハジカミ","prefecture_code":28},"6213":{"zip_code":"6696213","prefecture":"兵庫県","prefecture_kana":"ヒョウゴケン","city":"豊岡市","city_kana":"トヨオカシ","town":"竹野町羽入","town_kana":"タケノチョウハニュウ","prefecture_code":28},"6217":{"zip_code":"6696217","prefecture":"兵庫県","prefecture_kana":"ヒョウゴケン","city":"豊岡市","city_kana":"トヨオカシ","town":"竹野町浜須井","town_kana":"タケノチョウハマスイ","prefecture_code":28},"6227":{"zip_code":"6696227","prefecture":"兵庫県","prefecture_kana":"ヒョウゴケン","city":"豊岡市","city_kana":"トヨオカシ","town":"竹野町林","town_kana":"タケノチョウハヤシ","prefecture_code":28},"6228":{"zip_code":"6696228","prefecture":"兵庫県","prefecture_kana":"ヒョウゴケン","city":"豊岡市","city_kana":"トヨオカシ","town":"竹野町東大谷","town_kana":"タケノチョウヒガシオオタニ","prefecture_code":28},"6331":{"zip_code":"6696331","prefecture":"兵庫県","prefecture_kana":"ヒョウゴケン","city":"豊岡市","city_kana":"トヨオカシ","town":"竹野町坊岡","town_kana":"タケノチョウボウオカ","prefecture_code":28},"6212":{"zip_code":"6696212","prefecture":"兵庫県","prefecture_kana":"ヒョウゴケン","city":"豊岡市","city_kana":"トヨオカシ","town":"竹野町松本","town_kana":"タケノチョウマツモト","prefecture_code":28},"6355":{"zip_code":"6696355","prefecture":"兵庫県","prefecture_kana":"ヒョウゴケン","city":"豊岡市","city_kana":"トヨオカシ","town":"竹野町三原","town_kana":"タケノチョウミハラ","prefecture_code":28},"6332":{"zip_code":"6696332","prefecture":"兵庫県","prefecture_kana":"ヒョウゴケン","city":"豊岡市","city_kana":"トヨオカシ","town":"竹野町森本","town_kana":"タケノチョウモリモト","prefecture_code":28},"6335":{"zip_code":"6696335","prefecture":"兵庫県","prefecture_kana":"ヒョウゴケン","city":"豊岡市","city_kana":"トヨオカシ","town":"竹野町門谷","town_kana":"タケノチョウモンダニ","prefecture_code":28},"6211":{"zip_code":"6696211","prefecture":"兵庫県","prefecture_kana":"ヒョウゴケン","city":"豊岡市","city_kana":"トヨオカシ","town":"竹野町和田","town_kana":"タケノチョウワダ","prefecture_code":28},"6121":{"zip_code":"6696121","prefecture":"兵庫県","prefecture_kana":"ヒョウゴケン","city":"豊岡市","city_kana":"トヨオカシ","town":"津居山","town_kana":"ツイヤマ","prefecture_code":28},"6127":{"zip_code":"6696127","prefecture":"兵庫県","prefecture_kana":"ヒョウゴケン","city":"豊岡市","city_kana":"トヨオカシ","town":"畑上","town_kana":"ハタガミ","prefecture_code":28},"5314":{"zip_code":"6695314","prefecture":"兵庫県","prefecture_kana":"ヒョウゴケン","city":"豊岡市","city_kana":"トヨオカシ","town":"日高町赤崎","town_kana":"ヒダカチョウアカサキ","prefecture_code":28},"5331":{"zip_code":"6695331","prefecture":"兵庫県","prefecture_kana":"ヒョウゴケン","city":"豊岡市","city_kana":"トヨオカシ","town":"日高町上石","town_kana":"ヒダカチョウアゲシ","prefecture_code":28},"5315":{"zip_code":"6695315","prefecture":"兵庫県","prefecture_kana":"ヒョウゴケン","city":"豊岡市","city_kana":"トヨオカシ","town":"日高町浅倉","town_kana":"ヒダカチョウアサクラ","prefecture_code":28},"5356":{"zip_code":"6695356","prefecture":"兵庫県","prefecture_kana":"ヒョウゴケン","city":"豊岡市","city_kana":"トヨオカシ","town":"日高町荒川","town_kana":"ヒダカチョウアラカワ","prefecture_code":28},"5326":{"zip_code":"6695326","prefecture":"兵庫県","prefecture_kana":"ヒョウゴケン","city":"豊岡市","city_kana":"トヨオカシ","town":"日高町池上","town_kana":"ヒダカチョウイケガミ","prefecture_code":28},"5367":{"zip_code":"6695367","prefecture":"兵庫県","prefecture_kana":"ヒョウゴケン","city":"豊岡市","city_kana":"トヨオカシ","town":"日高町石井","town_kana":"ヒダカチョウイシイ","prefecture_code":28},"5375":{"zip_code":"6695375","prefecture":"兵庫県","prefecture_kana":"ヒョウゴケン","city":"豊岡市","city_kana":"トヨオカシ","town":"日高町稲葉","town_kana":"ヒダカチョウイナンバ","prefecture_code":28},"5357":[{"zip_code":"6695357","prefecture":"兵庫県","prefecture_kana":"ヒョウゴケン","city":"豊岡市","city_kana":"トヨオカシ","town":"日高町猪子垣","town_kana":"ヒダカチョウイノコガキ","prefecture_code":28},{"zip_code":"6695357","prefecture":"兵庫県","prefecture_kana":"ヒョウゴケン","city":"豊岡市","city_kana":"トヨオカシ","town":"日高町田ノ口","town_kana":"ヒダカチョウタノクチ","prefecture_code":28}],"5338":{"zip_code":"6695338","prefecture":"兵庫県","prefecture_kana":"ヒョウゴケン","city":"豊岡市","city_kana":"トヨオカシ","town":"日高町猪爪","town_kana":"ヒダカチョウイノツメ","prefecture_code":28},"5346":{"zip_code":"6695346","prefecture":"兵庫県","prefecture_kana":"ヒョウゴケン","city":"豊岡市","city_kana":"トヨオカシ","town":"日高町伊府","town_kana":"ヒダカチョウイブ","prefecture_code":28},"5302":{"zip_code":"6695302","prefecture":"兵庫県","prefecture_kana":"ヒョウゴケン","city":"豊岡市","city_kana":"トヨオカシ","town":"日高町岩中","town_kana":"ヒダカチョウイワナカ","prefecture_code":28},"5301":{"zip_code":"6695301","prefecture":"兵庫県","prefecture_kana":"ヒョウゴケン","city":"豊岡市","city_kana":"トヨオカシ","town":"日高町江原","town_kana":"ヒダカチョウエバラ","prefecture_code":28},"5339":[{"zip_code":"6695339","prefecture":"兵庫県","prefecture_kana":"ヒョウゴケン","city":"豊岡市","city_kana":"トヨオカシ","town":"日高町大岡","town_kana":"ヒダカチョウオオオカ","prefecture_code":28},{"zip_code":"6695339","prefecture":"兵庫県","prefecture_kana":"ヒョウゴケン","city":"豊岡市","city_kana":"トヨオカシ","town":"日高町河江","town_kana":"ヒダカチョウカワエ","prefecture_code":28},{"zip_code":"6695339","prefecture":"兵庫県","prefecture_kana":"ヒョウゴケン","city":"豊岡市","city_kana":"トヨオカシ","town":"日高町小河江","town_kana":"ヒダカチョウコガワエ","prefecture_code":28},{"zip_code":"6695339","prefecture":"兵庫県","prefecture_kana":"ヒョウゴケン","city":"豊岡市","city_kana":"トヨオカシ","town":"日高町八代","town_kana":"ヒダカチョウヤシロ","prefecture_code":28}],"5324":{"zip_code":"6695324","prefecture":"兵庫県","prefecture_kana":"ヒョウゴケン","city":"豊岡市","city_kana":"トヨオカシ","town":"日高町上郷","town_kana":"ヒダカチョウカミノゴウ","prefecture_code":28},"5354":{"zip_code":"6695354","prefecture":"兵庫県","prefecture_kana":"ヒョウゴケン","city":"豊岡市","city_kana":"トヨオカシ","town":"日高町観音寺","town_kana":"ヒダカチョウカンノンジ","prefecture_code":28},"5345":{"zip_code":"6695345","prefecture":"兵庫県","prefecture_kana":"ヒョウゴケン","city":"豊岡市","city_kana":"トヨオカシ","town":"日高町久田谷","town_kana":"ヒダカチョウクタダニ","prefecture_code":28},"5342":{"zip_code":"6695342","prefecture":"兵庫県","prefecture_kana":"ヒョウゴケン","city":"豊岡市","city_kana":"トヨオカシ","town":"日高町久斗","town_kana":"ヒダカチョウクト","prefecture_code":28},"5372":{"zip_code":"6695372","prefecture":"兵庫県","prefecture_kana":"ヒョウゴケン","city":"豊岡市","city_kana":"トヨオカシ","town":"日高町栗栖野","town_kana":"ヒダカチョウクリスノ","prefecture_code":28},"5361":{"zip_code":"6695361","prefecture":"兵庫県","prefecture_kana":"ヒョウゴケン","city":"豊岡市","city_kana":"トヨオカシ","town":"日高町栗山","town_kana":"ヒダカチョウクリヤマ","prefecture_code":28},"5341":{"zip_code":"6695341","prefecture":"兵庫県","prefecture_kana":"ヒョウゴケン","city":"豊岡市","city_kana":"トヨオカシ","town":"日高町国分寺","town_kana":"ヒダカチョウコクブンジ","prefecture_code":28},"5366":{"zip_code":"6695366","prefecture":"兵庫県","prefecture_kana":"ヒョウゴケン","city":"豊岡市","city_kana":"トヨオカシ","town":"日高町頃垣","town_kana":"ヒダカチョウコロガキ","prefecture_code":28},"5351":{"zip_code":"6695351","prefecture":"兵庫県","prefecture_kana":"ヒョウゴケン","city":"豊岡市","city_kana":"トヨオカシ","town":"日高町佐田","town_kana":"ヒダカチョウサタ","prefecture_code":28},"5355":{"zip_code":"6695355","prefecture":"兵庫県","prefecture_kana":"ヒョウゴケン","city":"豊岡市","city_kana":"トヨオカシ","town":"日高町篠垣","town_kana":"ヒダカチョウシノガキ","prefecture_code":28},"5362":{"zip_code":"6695362","prefecture":"兵庫県","prefecture_kana":"ヒョウゴケン","city":"豊岡市","city_kana":"トヨオカシ","town":"日高町芝","town_kana":"ヒダカチョウシバ","prefecture_code":28},"5365":{"zip_code":"6695365","prefecture":"兵庫県","prefecture_kana":"ヒョウゴケン","city":"豊岡市","city_kana":"トヨオカシ","town":"日高町十戸","town_kana":"ヒダカチョウジュウゴ","prefecture_code":28},"5364":{"zip_code":"6695364","prefecture":"兵庫県","prefecture_kana":"ヒョウゴケン","city":"豊岡市","city_kana":"トヨオカシ","town":"日高町庄境","town_kana":"ヒダカチョウショウザカエ","prefecture_code":28},"5332":{"zip_code":"6695332","prefecture":"兵庫県","prefecture_kana":"ヒョウゴケン","city":"豊岡市","city_kana":"トヨオカシ","town":"日高町竹貫","town_kana":"ヒダカチョウタカヌキ","prefecture_code":28},"5371":{"zip_code":"6695371","prefecture":"兵庫県","prefecture_kana":"ヒョウゴケン","city":"豊岡市","city_kana":"トヨオカシ","town":"日高町太田","town_kana":"ヒダカチョウタダ","prefecture_code":28},"5336":{"zip_code":"6695336","prefecture":"兵庫県","prefecture_kana":"ヒョウゴケン","city":"豊岡市","city_kana":"トヨオカシ","town":"日高町谷","town_kana":"ヒダカチョウタニ","prefecture_code":28},"5352":{"zip_code":"6695352","prefecture":"兵庫県","prefecture_kana":"ヒョウゴケン","city":"豊岡市","city_kana":"トヨオカシ","town":"日高町知見","town_kana":"ヒダカチョウチミ","prefecture_code":28},"5313":{"zip_code":"6695313","prefecture":"兵庫県","prefecture_kana":"ヒョウゴケン","city":"豊岡市","city_kana":"トヨオカシ","town":"日高町鶴岡","town_kana":"ヒダカチョウツルオカ","prefecture_code":28},"5321":{"zip_code":"6695321","prefecture":"兵庫県","prefecture_kana":"ヒョウゴケン","city":"豊岡市","city_kana":"トヨオカシ","town":"日高町土居","town_kana":"ヒダカチョウドイ","prefecture_code":28},"5343":{"zip_code":"6695343","prefecture":"兵庫県","prefecture_kana":"ヒョウゴケン","city":"豊岡市","city_kana":"トヨオカシ","town":"日高町道場","town_kana":"ヒダカチョウドウジョウ","prefecture_code":28},"5369":{"zip_code":"6695369","prefecture":"兵庫県","prefecture_kana":"ヒョウゴケン","city":"豊岡市","city_kana":"トヨオカシ","town":"日高町栃本","town_kana":"ヒダカチョウトチモト","prefecture_code":28},"5358":[{"zip_code":"6695358","prefecture":"兵庫県","prefecture_kana":"ヒョウゴケン","city":"豊岡市","city_kana":"トヨオカシ","town":"日高町殿","town_kana":"ヒダカチョウトノ","prefecture_code":28},{"zip_code":"6695358","prefecture":"兵庫県","prefecture_kana":"ヒョウゴケン","city":"豊岡市","city_kana":"トヨオカシ","town":"日高町広井","town_kana":"ヒダカチョウヒロイ","prefecture_code":28}],"5337":{"zip_code":"6695337","prefecture":"兵庫県","prefecture_kana":"ヒョウゴケン","city":"豊岡市","city_kana":"トヨオカシ","town":"日高町中","town_kana":"ヒダカチョウナカ","prefecture_code":28},"5335":{"zip_code":"6695335","prefecture":"兵庫県","prefecture_kana":"ヒョウゴケン","city":"豊岡市","city_kana":"トヨオカシ","town":"日高町奈佐路","town_kana":"ヒダカチョウナサジ","prefecture_code":28},"5379":{"zip_code":"6695379","prefecture":"兵庫県","prefecture_kana":"ヒョウゴケン","city":"豊岡市","city_kana":"トヨオカシ","town":"日高町名色","town_kana":"ヒダカチョウナシキ","prefecture_code":28},"5344":{"zip_code":"6695344","prefecture":"兵庫県","prefecture_kana":"ヒョウゴケン","city":"豊岡市","city_kana":"トヨオカシ","town":"日高町夏栗","town_kana":"ヒダカチョウナツクリ","prefecture_code":28},"5328":[{"zip_code":"6695328","prefecture":"兵庫県","prefecture_kana":"ヒョウゴケン","city":"豊岡市","city_kana":"トヨオカシ","town":"日高町西芝","town_kana":"ヒダカチョウニシシバ","prefecture_code":28},{"zip_code":"6695328","prefecture":"兵庫県","prefecture_kana":"ヒョウゴケン","city":"豊岡市","city_kana":"トヨオカシ","town":"日高町東芝","town_kana":"ヒダカチョウヒガシシバ","prefecture_code":28}],"5305":{"zip_code":"6695305","prefecture":"兵庫県","prefecture_kana":"ヒョウゴケン","city":"豊岡市","city_kana":"トヨオカシ","town":"日高町祢布","town_kana":"ヒダカチョウニョウ","prefecture_code":28},"5363":{"zip_code":"6695363","prefecture":"兵庫県","prefecture_kana":"ヒョウゴケン","city":"豊岡市","city_kana":"トヨオカシ","town":"日高町野","town_kana":"ヒダカチョウノ","prefecture_code":28},"5327":{"zip_code":"6695327","prefecture":"兵庫県","prefecture_kana":"ヒョウゴケン","city":"豊岡市","city_kana":"トヨオカシ","town":"日高町野々庄","town_kana":"ヒダカチョウノノショウ","prefecture_code":28},"5359":{"zip_code":"6695359","prefecture":"兵庫県","prefecture_kana":"ヒョウゴケン","city":"豊岡市","city_kana":"トヨオカシ","town":"日高町羽尻","town_kana":"ヒダカチョウハジリ","prefecture_code":28},"5311":{"zip_code":"6695311","prefecture":"兵庫県","prefecture_kana":"ヒョウゴケン","city":"豊岡市","city_kana":"トヨオカシ","town":"日高町日置","town_kana":"ヒダカチョウヒオキ","prefecture_code":28},"5303":{"zip_code":"6695303","prefecture":"兵庫県","prefecture_kana":"ヒョウゴケン","city":"豊岡市","city_kana":"トヨオカシ","town":"日高町東構","town_kana":"ヒダカチョウヒガシガマエ","prefecture_code":28},"5373":{"zip_code":"6695373","prefecture":"兵庫県","prefecture_kana":"ヒョウゴケン","city":"豊岡市","city_kana":"トヨオカシ","town":"日高町東河内","town_kana":"ヒダカチョウヒガシゴウチ","prefecture_code":28},"5312":{"zip_code":"6695312","prefecture":"兵庫県","prefecture_kana":"ヒョウゴケン","city":"豊岡市","city_kana":"トヨオカシ","town":"日高町日高","town_kana":"ヒダカチョウヒダカ","prefecture_code":28},"5322":{"zip_code":"6695322","prefecture":"兵庫県","prefecture_kana":"ヒョウゴケン","city":"豊岡市","city_kana":"トヨオカシ","town":"日高町府市場","town_kana":"ヒダカチョウフイチバ","prefecture_code":28},"5333":{"zip_code":"6695333","prefecture":"兵庫県","prefecture_kana":"ヒョウゴケン","city":"豊岡市","city_kana":"トヨオカシ","town":"日高町藤井","town_kana":"ヒダカチョウフジイ","prefecture_code":28},"5323":{"zip_code":"6695323","prefecture":"兵庫県","prefecture_kana":"ヒョウゴケン","city":"豊岡市","city_kana":"トヨオカシ","town":"日高町府中新","town_kana":"ヒダカチョウフチュウシン","prefecture_code":28},"5325":{"zip_code":"6695325","prefecture":"兵庫県","prefecture_kana":"ヒョウゴケン","city":"豊岡市","city_kana":"トヨオカシ","town":"日高町堀","town_kana":"ヒダカチョウホリ","prefecture_code":28},"5307":{"zip_code":"6695307","prefecture":"兵庫県","prefecture_kana":"ヒョウゴケン","city":"豊岡市","city_kana":"トヨオカシ","town":"日高町松岡","town_kana":"ヒダカチョウマツオカ","prefecture_code":28},"5376":{"zip_code":"6695376","prefecture":"兵庫県","prefecture_kana":"ヒョウゴケン","city":"豊岡市","city_kana":"トヨオカシ","town":"日高町万劫","town_kana":"ヒダカチョウマンゴウ","prefecture_code":28},"5378":{"zip_code":"6695378","prefecture":"兵庫県","prefecture_kana":"ヒョウゴケン","city":"豊岡市","city_kana":"トヨオカシ","town":"日高町万場","town_kana":"ヒダカチョウマンバ","prefecture_code":28},"5306":{"zip_code":"6695306","prefecture":"兵庫県","prefecture_kana":"ヒョウゴケン","city":"豊岡市","city_kana":"トヨオカシ","town":"日高町水上","town_kana":"ヒダカチョウミノカミ","prefecture_code":28},"5374":{"zip_code":"6695374","prefecture":"兵庫県","prefecture_kana":"ヒョウゴケン","city":"豊岡市","city_kana":"トヨオカシ","town":"日高町水口","town_kana":"ヒダカチョウミノクチ","prefecture_code":28},"5353":{"zip_code":"6695353","prefecture":"兵庫県","prefecture_kana":"ヒョウゴケン","city":"豊岡市","city_kana":"トヨオカシ","town":"日高町森山","town_kana":"ヒダカチョウモリヤマ","prefecture_code":28},"5377":{"zip_code":"6695377","prefecture":"兵庫県","prefecture_kana":"ヒョウゴケン","city":"豊岡市","city_kana":"トヨオカシ","town":"日高町山田","town_kana":"ヒダカチョウヤマタ","prefecture_code":28},"5368":{"zip_code":"6695368","prefecture":"兵庫県","prefecture_kana":"ヒョウゴケン","city":"豊岡市","city_kana":"トヨオカシ","town":"日高町山宮","town_kana":"ヒダカチョウヤマノミヤ","prefecture_code":28},"5334":{"zip_code":"6695334","prefecture":"兵庫県","prefecture_kana":"ヒョウゴケン","city":"豊岡市","city_kana":"トヨオカシ","town":"日高町山本","town_kana":"ヒダカチョウヤマモト","prefecture_code":28},"5304":{"zip_code":"6695304","prefecture":"兵庫県","prefecture_kana":"ヒョウゴケン","city":"豊岡市","city_kana":"トヨオカシ","town":"日高町宵田","town_kana":"ヒダカチョウヨイダ","prefecture_code":28},"6126":{"zip_code":"6696126","prefecture":"兵庫県","prefecture_kana":"ヒョウゴケン","city":"豊岡市","city_kana":"トヨオカシ","town":"三原","town_kana":"ミハラ","prefecture_code":28},"1211":{"zip_code":"6691211","prefecture":"兵庫県","prefecture_kana":"ヒョウゴケン","city":"宝塚市","city_kana":"タカラヅカシ","town":"大原野","town_kana":"オオハラノ","prefecture_code":28},"1202":{"zip_code":"6691202","prefecture":"兵庫県","prefecture_kana":"ヒョウゴケン","city":"宝塚市","city_kana":"タカラヅカシ","town":"上佐曽利","town_kana":"カミサソリ","prefecture_code":28},"1241":[{"zip_code":"6691241","prefecture":"兵庫県","prefecture_kana":"ヒョウゴケン","city":"宝塚市","city_kana":"タカラヅカシ","town":"切畑","town_kana":"キリハタ","prefecture_code":28},{"zip_code":"6691241","prefecture":"兵庫県","prefecture_kana":"ヒョウゴケン","city":"宝塚市","city_kana":"タカラヅカシ","town":"切畑","town_kana":"キリハタ","prefecture_code":28}],"1201":{"zip_code":"6691201","prefecture":"兵庫県","prefecture_kana":"ヒョウゴケン","city":"宝塚市","city_kana":"タカラヅカシ","town":"香合新田","town_kana":"コウバコシンデン","prefecture_code":28},"1222":{"zip_code":"6691222","prefecture":"兵庫県","prefecture_kana":"ヒョウゴケン","city":"宝塚市","city_kana":"タカラヅカシ","town":"境野","town_kana":"サカイノ","prefecture_code":28},"1205":{"zip_code":"6691205","prefecture":"兵庫県","prefecture_kana":"ヒョウゴケン","city":"宝塚市","city_kana":"タカラヅカシ","town":"芝辻新田","town_kana":"シバツジシンデン","prefecture_code":28},"1203":{"zip_code":"6691203","prefecture":"兵庫県","prefecture_kana":"ヒョウゴケン","city":"宝塚市","city_kana":"タカラヅカシ","town":"下佐曽利","town_kana":"シモサソリ","prefecture_code":28},"1231":{"zip_code":"6691231","prefecture":"兵庫県","prefecture_kana":"ヒョウゴケン","city":"宝塚市","city_kana":"タカラヅカシ","town":"玉瀬","town_kana":"タマセ","prefecture_code":28},"1204":{"zip_code":"6691204","prefecture":"兵庫県","prefecture_kana":"ヒョウゴケン","city":"宝塚市","city_kana":"タカラヅカシ","town":"長谷","town_kana":"ナガタニ","prefecture_code":28},"1221":{"zip_code":"6691221","prefecture":"兵庫県","prefecture_kana":"ヒョウゴケン","city":"宝塚市","city_kana":"タカラヅカシ","town":"波豆","town_kana":"ハズ","prefecture_code":28},"1300":{"zip_code":"6691300","prefecture":"兵庫県","prefecture_kana":"ヒョウゴケン","city":"三田市","city_kana":"サンダシ","town":"","town_kana":"","prefecture_code":28},"1536":{"zip_code":"6691536","prefecture":"兵庫県","prefecture_kana":"ヒョウゴケン","city":"三田市","city_kana":"サンダシ","town":"","town_kana":"","prefecture_code":28},"1526":{"zip_code":"6691526","prefecture":"兵庫県","prefecture_kana":"ヒョウゴケン","city":"三田市","city_kana":"サンダシ","town":"相生町","town_kana":"アイオイチョウ","prefecture_code":28},"1358":{"zip_code":"6691358","prefecture":"兵庫県","prefecture_kana":"ヒョウゴケン","city":"三田市","city_kana":"サンダシ","town":"藍本","town_kana":"アイモト","prefecture_code":28},"1323":{"zip_code":"6691323","prefecture":"兵庫県","prefecture_kana":"ヒョウゴケン","city":"三田市","city_kana":"サンダシ","town":"あかしあ台","town_kana":"アカシアダイ","prefecture_code":28},"1548":{"zip_code":"6691548","prefecture":"兵庫県","prefecture_kana":"ヒョウゴケン","city":"三田市","city_kana":"サンダシ","town":"池尻","town_kana":"イケジリ","prefecture_code":28},"1414":{"zip_code":"6691414","prefecture":"兵庫県","prefecture_kana":"ヒョウゴケン","city":"三田市","city_kana":"サンダシ","town":"市之瀬","town_kana":"イチノセ","prefecture_code":28},"1356":{"zip_code":"6691356","prefecture":"兵庫県","prefecture_kana":"ヒョウゴケン","city":"三田市","city_kana":"サンダシ","town":"井ノ草","town_kana":"イノクサ","prefecture_code":28},"1336":{"zip_code":"6691336","prefecture":"兵庫県","prefecture_kana":"ヒョウゴケン","city":"三田市","city_kana":"サンダシ","town":"馬渡","town_kana":"ウマワタリ","prefecture_code":28},"1502":{"zip_code":"6691502","prefecture":"兵庫県","prefecture_kana":"ヒョウゴケン","city":"三田市","city_kana":"サンダシ","town":"永沢寺","town_kana":"エイタクジ","prefecture_code":28},"1528":{"zip_code":"6691528","prefecture":"兵庫県","prefecture_kana":"ヒョウゴケン","city":"三田市","city_kana":"サンダシ","town":"駅前町","town_kana":"エキマエチョウ","prefecture_code":28},"1349":{"zip_code":"6691349","prefecture":"兵庫県","prefecture_kana":"ヒョウゴケン","city":"三田市","city_kana":"サンダシ","town":"大川瀬","town_kana":"オオカワセ","prefecture_code":28},"1354":{"zip_code":"6691354","prefecture":"兵庫県","prefecture_kana":"ヒョウゴケン","city":"三田市","city_kana":"サンダシ","town":"大畑","town_kana":"オオハタ","prefecture_code":28},"1515":{"zip_code":"6691515","prefecture":"兵庫県","prefecture_kana":"ヒョウゴケン","city":"三田市","city_kana":"サンダシ","town":"大原","town_kana":"オオハラ","prefecture_code":28},"1503":{"zip_code":"6691503","prefecture":"兵庫県","prefecture_kana":"ヒョウゴケン","city":"三田市","city_kana":"サンダシ","town":"乙原","town_kana":"オチバラ","prefecture_code":28},"1504":{"zip_code":"6691504","prefecture":"兵庫県","prefecture_kana":"ヒョウゴケン","city":"三田市","city_kana":"サンダシ","town":"小野","town_kana":"オノ","prefecture_code":28},"1337":{"zip_code":"6691337","prefecture":"兵庫県","prefecture_kana":"ヒョウゴケン","city":"三田市","city_kana":"サンダシ","town":"学園","town_kana":"ガクエン","prefecture_code":28},"1507":{"zip_code":"6691507","prefecture":"兵庫県","prefecture_kana":"ヒョウゴケン","city":"三田市","city_kana":"サンダシ","town":"香下","town_kana":"カシタ","prefecture_code":28},"1346":{"zip_code":"6691346","prefecture":"兵庫県","prefecture_kana":"ヒョウゴケン","city":"三田市","city_kana":"サンダシ","town":"上相野","town_kana":"カミアイノ","prefecture_code":28},"1301":{"zip_code":"6691301","prefecture":"兵庫県","prefecture_kana":"ヒョウゴケン","city":"三田市","city_kana":"サンダシ","town":"上青野","town_kana":"カミアオノ","prefecture_code":28},"1316":{"zip_code":"6691316","prefecture":"兵庫県","prefecture_kana":"ヒョウゴケン","city":"三田市","city_kana":"サンダシ","town":"上井沢","town_kana":"カミイサワ","prefecture_code":28},"1338":{"zip_code":"6691338","prefecture":"兵庫県","prefecture_kana":"ヒョウゴケン","city":"三田市","city_kana":"サンダシ","town":"上内神","town_kana":"カミウチガミ","prefecture_code":28},"1415":{"zip_code":"6691415","prefecture":"兵庫県","prefecture_kana":"ヒョウゴケン","city":"三田市","city_kana":"サンダシ","town":"上槻瀬","town_kana":"カミヅキセ","prefecture_code":28},"1542":{"zip_code":"6691542","prefecture":"兵庫県","prefecture_kana":"ヒョウゴケン","city":"三田市","city_kana":"サンダシ","town":"上深田","town_kana":"カミフカタ","prefecture_code":28},"1351":{"zip_code":"6691351","prefecture":"兵庫県","prefecture_kana":"ヒョウゴケン","city":"三田市","city_kana":"サンダシ","town":"上本庄","town_kana":"カミホンジョウ","prefecture_code":28},"1311":{"zip_code":"6691311","prefecture":"兵庫県","prefecture_kana":"ヒョウゴケン","city":"三田市","city_kana":"サンダシ","town":"加茂","town_kana":"カモ","prefecture_code":28},"1514":{"zip_code":"6691514","prefecture":"兵庫県","prefecture_kana":"ヒョウゴケン","city":"三田市","city_kana":"サンダシ","town":"川除","town_kana":"カワヨケ","prefecture_code":28},"1403":{"zip_code":"6691403","prefecture":"兵庫県","prefecture_kana":"ヒョウゴケン","city":"三田市","city_kana":"サンダシ","town":"川原","town_kana":"カワラ","prefecture_code":28},"1541":{"zip_code":"6691541","prefecture":"兵庫県","prefecture_kana":"ヒョウゴケン","city":"三田市","city_kana":"サンダシ","town":"貴志","town_kana":"キシ","prefecture_code":28},"1304":{"zip_code":"6691304","prefecture":"兵庫県","prefecture_kana":"ヒョウゴケン","city":"三田市","city_kana":"サンダシ","town":"北浦","town_kana":"キタウラ","prefecture_code":28},"1521":{"zip_code":"6691521","prefecture":"兵庫県","prefecture_kana":"ヒョウゴケン","city":"三田市","city_kana":"サンダシ","town":"桑原","town_kana":"クワバラ","prefecture_code":28},"1321":{"zip_code":"6691321","prefecture":"兵庫県","prefecture_kana":"ヒョウゴケン","city":"三田市","city_kana":"サンダシ","town":"けやき台","town_kana":"ケヤキダイ","prefecture_code":28},"1412":{"zip_code":"6691412","prefecture":"兵庫県","prefecture_kana":"ヒョウゴケン","city":"三田市","city_kana":"サンダシ","town":"木器","town_kana":"コウヅキ","prefecture_code":28},"1401":{"zip_code":"6691401","prefecture":"兵庫県","prefecture_kana":"ヒョウゴケン","city":"三田市","city_kana":"サンダシ","town":"小柿","town_kana":"コガキ","prefecture_code":28},"1405":{"zip_code":"6691405","prefecture":"兵庫県","prefecture_kana":"ヒョウゴケン","city":"三田市","city_kana":"サンダシ","town":"酒井","town_kana":"サカイ","prefecture_code":28},"1325":{"zip_code":"6691325","prefecture":"兵庫県","prefecture_kana":"ヒョウゴケン","city":"三田市","city_kana":"サンダシ","town":"さくら坂","town_kana":"サクラザカ","prefecture_code":28},"1335":{"zip_code":"6691335","prefecture":"兵庫県","prefecture_kana":"ヒョウゴケン","city":"三田市","city_kana":"サンダシ","town":"沢谷","town_kana":"サワダニ","prefecture_code":28},"1533":{"zip_code":"6691533","prefecture":"兵庫県","prefecture_kana":"ヒョウゴケン","city":"三田市","city_kana":"サンダシ","town":"三田町","town_kana":"サンダチョウ","prefecture_code":28},"1506":{"zip_code":"6691506","prefecture":"兵庫県","prefecture_kana":"ヒョウゴケン","city":"三田市","city_kana":"サンダシ","town":"志手原","town_kana":"シデハラ","prefecture_code":28},"1345":{"zip_code":"6691345","prefecture":"兵庫県","prefecture_kana":"ヒョウゴケン","city":"三田市","city_kana":"サンダシ","town":"下相野","town_kana":"シモアイノ","prefecture_code":28},"1302":{"zip_code":"6691302","prefecture":"兵庫県","prefecture_kana":"ヒョウゴケン","city":"三田市","city_kana":"サンダシ","town":"下青野","town_kana":"シモアオノ","prefecture_code":28},"1315":{"zip_code":"6691315","prefecture":"兵庫県","prefecture_kana":"ヒョウゴケン","city":"三田市","city_kana":"サンダシ","town":"下井沢","town_kana":"シモイサワ","prefecture_code":28},"1333":{"zip_code":"6691333","prefecture":"兵庫県","prefecture_kana":"ヒョウゴケン","city":"三田市","city_kana":"サンダシ","town":"下内神","town_kana":"シモウチガミ","prefecture_code":28},"1416":{"zip_code":"6691416","prefecture":"兵庫県","prefecture_kana":"ヒョウゴケン","city":"三田市","city_kana":"サンダシ","town":"下里","town_kana":"シモザト","prefecture_code":28},"1522":{"zip_code":"6691522","prefecture":"兵庫県","prefecture_kana":"ヒョウゴケン","city":"三田市","city_kana":"サンダシ","town":"下田中","town_kana":"シモタナカ","prefecture_code":28},"1413":{"zip_code":"6691413","prefecture":"兵庫県","prefecture_kana":"ヒョウゴケン","city":"三田市","city_kana":"サンダシ","town":"下槻瀬","town_kana":"シモヅキセ","prefecture_code":28},"1543":{"zip_code":"6691543","prefecture":"兵庫県","prefecture_kana":"ヒョウゴケン","city":"三田市","city_kana":"サンダシ","town":"下深田","town_kana":"シモフカタ","prefecture_code":28},"1303":{"zip_code":"6691303","prefecture":"兵庫県","prefecture_kana":"ヒョウゴケン","city":"三田市","city_kana":"サンダシ","town":"末","town_kana":"スエ","prefecture_code":28},"1402":{"zip_code":"6691402","prefecture":"兵庫県","prefecture_kana":"ヒョウゴケン","city":"三田市","city_kana":"サンダシ","town":"末吉","town_kana":"スエヨシ","prefecture_code":28},"1417":{"zip_code":"6691417","prefecture":"兵庫県","prefecture_kana":"ヒョウゴケン","city":"三田市","city_kana":"サンダシ","town":"鈴鹿","town_kana":"スズカ","prefecture_code":28},"1322":{"zip_code":"6691322","prefecture":"兵庫県","prefecture_kana":"ヒョウゴケン","city":"三田市","city_kana":"サンダシ","town":"すずかけ台","town_kana":"スズカケダイ","prefecture_code":28},"1352":{"zip_code":"6691352","prefecture":"兵庫県","prefecture_kana":"ヒョウゴケン","city":"三田市","city_kana":"サンダシ","town":"須磨田","town_kana":"スマダ","prefecture_code":28},"1525":{"zip_code":"6691525","prefecture":"兵庫県","prefecture_kana":"ヒョウゴケン","city":"三田市","city_kana":"サンダシ","town":"対中町","town_kana":"タイナカチョウ","prefecture_code":28},"1512":{"zip_code":"6691512","prefecture":"兵庫県","prefecture_kana":"ヒョウゴケン","city":"三田市","city_kana":"サンダシ","town":"高次","town_kana":"タカスギ","prefecture_code":28},"1406":{"zip_code":"6691406","prefecture":"兵庫県","prefecture_kana":"ヒョウゴケン","city":"三田市","city_kana":"サンダシ","town":"田中","town_kana":"タナカ","prefecture_code":28},"1529":{"zip_code":"6691529","prefecture":"兵庫県","prefecture_kana":"ヒョウゴケン","city":"三田市","city_kana":"サンダシ","town":"中央町","town_kana":"チュウオウチョウ","prefecture_code":28},"1347":{"zip_code":"6691347","prefecture":"兵庫県","prefecture_kana":"ヒョウゴケン","city":"三田市","city_kana":"サンダシ","town":"つつじが丘南","town_kana":"ツツジガオカミナミ","prefecture_code":28},"1348":{"zip_code":"6691348","prefecture":"兵庫県","prefecture_kana":"ヒョウゴケン","city":"三田市","city_kana":"サンダシ","town":"つつじが丘北","town_kana":"ツツジガオカキタ","prefecture_code":28},"1339":{"zip_code":"6691339","prefecture":"兵庫県","prefecture_kana":"ヒョウゴケン","city":"三田市","city_kana":"サンダシ","town":"テクノパーク","town_kana":"テクノパーク","prefecture_code":28},"1523":{"zip_code":"6691523","prefecture":"兵庫県","prefecture_kana":"ヒョウゴケン","city":"三田市","city_kana":"サンダシ","town":"寺村町","town_kana":"テラムラチョウ","prefecture_code":28},"1531":{"zip_code":"6691531","prefecture":"兵庫県","prefecture_kana":"ヒョウゴケン","city":"三田市","city_kana":"サンダシ","town":"天神","town_kana":"テンジン","prefecture_code":28},"1404":{"zip_code":"6691404","prefecture":"兵庫県","prefecture_kana":"ヒョウゴケン","city":"三田市","city_kana":"サンダシ","town":"十倉","town_kana":"トクラ","prefecture_code":28},"1516":{"zip_code":"6691516","prefecture":"兵庫県","prefecture_kana":"ヒョウゴケン","city":"三田市","city_kana":"サンダシ","town":"友が丘","town_kana":"トモガオカ","prefecture_code":28},"1334":{"zip_code":"6691334","prefecture":"兵庫県","prefecture_kana":"ヒョウゴケン","city":"三田市","city_kana":"サンダシ","town":"中内神","town_kana":"ナカウチガミ","prefecture_code":28},"1527":{"zip_code":"6691527","prefecture":"兵庫県","prefecture_kana":"ヒョウゴケン","city":"三田市","city_kana":"サンダシ","town":"中町","town_kana":"ナカマチ","prefecture_code":28},"1355":{"zip_code":"6691355","prefecture":"兵庫県","prefecture_kana":"ヒョウゴケン","city":"三田市","city_kana":"サンダシ","town":"長坂","town_kana":"ナガサカ","prefecture_code":28},"1517":{"zip_code":"6691517","prefecture":"兵庫県","prefecture_kana":"ヒョウゴケン","city":"三田市","city_kana":"サンダシ","town":"成谷","town_kana":"ナルタニ","prefecture_code":28},"1341":{"zip_code":"6691341","prefecture":"兵庫県","prefecture_kana":"ヒョウゴケン","city":"三田市","city_kana":"サンダシ","town":"西相野","town_kana":"ニシアイノ","prefecture_code":28},"1314":{"zip_code":"6691314","prefecture":"兵庫県","prefecture_kana":"ヒョウゴケン","city":"三田市","city_kana":"サンダシ","town":"西野上","town_kana":"ニシノガミ","prefecture_code":28},"1537":{"zip_code":"6691537","prefecture":"兵庫県","prefecture_kana":"ヒョウゴケン","city":"三田市","city_kana":"サンダシ","town":"西山","town_kana":"ニシヤマ","prefecture_code":28},"1505":{"zip_code":"6691505","prefecture":"兵庫県","prefecture_kana":"ヒョウゴケン","city":"三田市","city_kana":"サンダシ","town":"尼寺","town_kana":"ニンジ","prefecture_code":28},"1545":{"zip_code":"6691545","prefecture":"兵庫県","prefecture_kana":"ヒョウゴケン","city":"三田市","city_kana":"サンダシ","town":"狭間が丘","town_kana":"ハサマガオカ","prefecture_code":28},"1411":{"zip_code":"6691411","prefecture":"兵庫県","prefecture_kana":"ヒョウゴケン","city":"三田市","city_kana":"サンダシ","town":"波豆川","town_kana":"ハズカワ","prefecture_code":28},"1524":{"zip_code":"6691524","prefecture":"兵庫県","prefecture_kana":"ヒョウゴケン","city":"三田市","city_kana":"サンダシ","town":"八景町","town_kana":"ハッケイチョウ","prefecture_code":28},"1312":{"zip_code":"6691312","prefecture":"兵庫県","prefecture_kana":"ヒョウゴケン","city":"三田市","city_kana":"サンダシ","town":"東野上","town_kana":"ヒガシノガミ","prefecture_code":28},"1357":{"zip_code":"6691357","prefecture":"兵庫県","prefecture_kana":"ヒョウゴケン","city":"三田市","city_kana":"サンダシ","town":"東本庄","town_kana":"ヒガシホンジョウ","prefecture_code":28},"1353":{"zip_code":"6691353","prefecture":"兵庫県","prefecture_kana":"ヒョウゴケン","city":"三田市","city_kana":"サンダシ","town":"東山","town_kana":"ヒガシヤマ","prefecture_code":28},"1332":{"zip_code":"6691332","prefecture":"兵庫県","prefecture_kana":"ヒョウゴケン","city":"三田市","city_kana":"サンダシ","town":"広沢","town_kana":"ヒロサワ","prefecture_code":28},"1331":{"zip_code":"6691331","prefecture":"兵庫県","prefecture_kana":"ヒョウゴケン","city":"三田市","city_kana":"サンダシ","town":"広野","town_kana":"ヒロノ","prefecture_code":28},"1407":{"zip_code":"6691407","prefecture":"兵庫県","prefecture_kana":"ヒョウゴケン","city":"三田市","city_kana":"サンダシ","town":"布木","town_kana":"フキ","prefecture_code":28},"1313":{"zip_code":"6691313","prefecture":"兵庫県","prefecture_kana":"ヒョウゴケン","city":"三田市","city_kana":"サンダシ","town":"福島","town_kana":"フクシマ","prefecture_code":28},"1547":{"zip_code":"6691547","prefecture":"兵庫県","prefecture_kana":"ヒョウゴケン","city":"三田市","city_kana":"サンダシ","town":"富士が丘","town_kana":"フジガオカ","prefecture_code":28},"1343":{"zip_code":"6691343","prefecture":"兵庫県","prefecture_kana":"ヒョウゴケン","city":"三田市","city_kana":"サンダシ","town":"洞","town_kana":"ホラ","prefecture_code":28},"1344":{"zip_code":"6691344","prefecture":"兵庫県","prefecture_kana":"ヒョウゴケン","city":"三田市","city_kana":"サンダシ","town":"溝口","town_kana":"ミゾグチ","prefecture_code":28},"1535":{"zip_code":"6691535","prefecture":"兵庫県","prefecture_kana":"ヒョウゴケン","city":"三田市","city_kana":"サンダシ","town":"南が丘","town_kana":"ミナミガオカ","prefecture_code":28},"1317":{"zip_code":"6691317","prefecture":"兵庫県","prefecture_kana":"ヒョウゴケン","city":"三田市","city_kana":"サンダシ","town":"宮脇","town_kana":"ミヤワキ","prefecture_code":28},"1513":{"zip_code":"6691513","prefecture":"兵庫県","prefecture_kana":"ヒョウゴケン","city":"三田市","city_kana":"サンダシ","town":"三輪","town_kana":"ミワ","prefecture_code":28},"1544":{"zip_code":"6691544","prefecture":"兵庫県","prefecture_kana":"ヒョウゴケン","city":"三田市","city_kana":"サンダシ","town":"武庫が丘","town_kana":"ムコガオカ","prefecture_code":28},"1501":{"zip_code":"6691501","prefecture":"兵庫県","prefecture_kana":"ヒョウゴケン","city":"三田市","city_kana":"サンダシ","town":"母子","town_kana":"モウシ","prefecture_code":28},"1532":{"zip_code":"6691532","prefecture":"兵庫県","prefecture_kana":"ヒョウゴケン","city":"三田市","city_kana":"サンダシ","town":"屋敷町","town_kana":"ヤシキマチ","prefecture_code":28},"1511":{"zip_code":"6691511","prefecture":"兵庫県","prefecture_kana":"ヒョウゴケン","city":"三田市","city_kana":"サンダシ","town":"山田","town_kana":"ヤマタ","prefecture_code":28},"1546":{"zip_code":"6691546","prefecture":"兵庫県","prefecture_kana":"ヒョウゴケン","city":"三田市","city_kana":"サンダシ","town":"弥生が丘","town_kana":"ヤヨイガオカ","prefecture_code":28},"1324":{"zip_code":"6691324","prefecture":"兵庫県","prefecture_kana":"ヒョウゴケン","city":"三田市","city_kana":"サンダシ","town":"ゆりのき台","town_kana":"ユリノキダイ","prefecture_code":28},"1534":{"zip_code":"6691534","prefecture":"兵庫県","prefecture_kana":"ヒョウゴケン","city":"三田市","city_kana":"サンダシ","town":"横山町","town_kana":"ヨコヤマチョウ","prefecture_code":28},"1342":{"zip_code":"6691342","prefecture":"兵庫県","prefecture_kana":"ヒョウゴケン","city":"三田市","city_kana":"サンダシ","town":"四ツ辻","town_kana":"ヨツツジ","prefecture_code":28},"2300":{"zip_code":"6692300","prefecture":"兵庫県","prefecture_kana":"ヒョウゴケン","city":"篠山市","city_kana":"ササヤマシ","town":"","town_kana":"","prefecture_code":28},"2205":{"zip_code":"6692205","prefecture":"兵庫県","prefecture_kana":"ヒョウゴケン","city":"篠山市","city_kana":"ササヤマシ","town":"網掛","town_kana":"アガケ","prefecture_code":28},"2402":{"zip_code":"6692402","prefecture":"兵庫県","prefecture_kana":"ヒョウゴケン","city":"篠山市","city_kana":"ササヤマシ","town":"県守","town_kana":"アガタモリ","prefecture_code":28},"2822":{"zip_code":"6692822","prefecture":"兵庫県","prefecture_kana":"ヒョウゴケン","city":"篠山市","city_kana":"ササヤマシ","town":"明野","town_kana":"アケノ","prefecture_code":28},"2223":{"zip_code":"6692223","prefecture":"兵庫県","prefecture_kana":"ヒョウゴケン","city":"篠山市","city_kana":"ササヤマシ","town":"味間奥","town_kana":"アジマオク","prefecture_code":28},"2224":{"zip_code":"6692224","prefecture":"兵庫県","prefecture_kana":"ヒョウゴケン","city":"篠山市","city_kana":"ササヤマシ","town":"味間北","town_kana":"アジマキタ","prefecture_code":28},"2214":{"zip_code":"6692214","prefecture":"兵庫県","prefecture_kana":"ヒョウゴケン","city":"篠山市","city_kana":"ササヤマシ","town":"味間新","town_kana":"アジマシン","prefecture_code":28},"2222":{"zip_code":"6692222","prefecture":"兵庫県","prefecture_kana":"ヒョウゴケン","city":"篠山市","city_kana":"ササヤマシ","town":"味間南","town_kana":"アジマミナミ","prefecture_code":28},"2114":{"zip_code":"6692114","prefecture":"兵庫県","prefecture_kana":"ヒョウゴケン","city":"篠山市","city_kana":"ササヤマシ","town":"油井","town_kana":"アブライ","prefecture_code":28},"2804":{"zip_code":"6692804","prefecture":"兵庫県","prefecture_kana":"ヒョウゴケン","city":"篠山市","city_kana":"ササヤマシ","town":"荒子新田","town_kana":"アラコシンデン","prefecture_code":28},"2354":{"zip_code":"6692354","prefecture":"兵庫県","prefecture_kana":"ヒョウゴケン","city":"篠山市","city_kana":"ササヤマシ","town":"有居","town_kana":"アリイ","prefecture_code":28},"2541":{"zip_code":"6692541","prefecture":"兵庫県","prefecture_kana":"ヒョウゴケン","city":"篠山市","city_kana":"ササヤマシ","town":"井串","town_kana":"イクシ","prefecture_code":28},"2436":{"zip_code":"6692436","prefecture":"兵庫県","prefecture_kana":"ヒョウゴケン","city":"篠山市","city_kana":"ササヤマシ","town":"池上","town_kana":"イケガミ","prefecture_code":28},"2811":{"zip_code":"6692811","prefecture":"兵庫県","prefecture_kana":"ヒョウゴケン","city":"篠山市","city_kana":"ササヤマシ","town":"石住","town_kana":"イシズミ","prefecture_code":28},"2406":{"zip_code":"6692406","prefecture":"兵庫県","prefecture_kana":"ヒョウゴケン","city":"篠山市","city_kana":"ササヤマシ","town":"泉","town_kana":"イズミ","prefecture_code":28},"2813":{"zip_code":"6692813","prefecture":"兵庫県","prefecture_kana":"ヒョウゴケン","city":"篠山市","city_kana":"ササヤマシ","town":"一印谷","town_kana":"イチインダニ","prefecture_code":28},"2613":{"zip_code":"6692613","prefecture":"兵庫県","prefecture_kana":"ヒョウゴケン","city":"篠山市","city_kana":"ササヤマシ","town":"市野々","town_kana":"イチノノ","prefecture_code":28},"2718":{"zip_code":"6692718","prefecture":"兵庫県","prefecture_kana":"ヒョウゴケン","city":"篠山市","city_kana":"ササヤマシ","town":"市山","town_kana":"イチヤマ","prefecture_code":28},"2335":{"zip_code":"6692335","prefecture":"兵庫県","prefecture_kana":"ヒョウゴケン","city":"篠山市","city_kana":"ササヤマシ","town":"乾新町","town_kana":"イヌイシンマチ","prefecture_code":28},"2105":{"zip_code":"6692105","prefecture":"兵庫県","prefecture_kana":"ヒョウゴケン","city":"篠山市","city_kana":"ササヤマシ","town":"犬飼","town_kana":"イヌカイ","prefecture_code":28},"2416":{"zip_code":"6692416","prefecture":"兵庫県","prefecture_kana":"ヒョウゴケン","city":"篠山市","city_kana":"ササヤマシ","town":"井ノ上","town_kana":"イノウエ","prefecture_code":28},"2304":{"zip_code":"6692304","prefecture":"兵庫県","prefecture_kana":"ヒョウゴケン","city":"篠山市","city_kana":"ササヤマシ","town":"今谷","town_kana":"イマダニ","prefecture_code":28},"2357":{"zip_code":"6692357","prefecture":"兵庫県","prefecture_kana":"ヒョウゴケン","city":"篠山市","city_kana":"ササヤマシ","town":"今福","town_kana":"イマフク","prefecture_code":28},"2454":{"zip_code":"6692454","prefecture":"兵庫県","prefecture_kana":"ヒョウゴケン","city":"篠山市","city_kana":"ササヤマシ","town":"岩崎","town_kana":"イワザキ","prefecture_code":28},"2336":{"zip_code":"6692336","prefecture":"兵庫県","prefecture_kana":"ヒョウゴケン","city":"篠山市","city_kana":"ササヤマシ","town":"魚屋町","town_kana":"ウオヤマチ","prefecture_code":28},"2106":{"zip_code":"6692106","prefecture":"兵庫県","prefecture_kana":"ヒョウゴケン","city":"篠山市","city_kana":"ササヤマシ","town":"牛ケ瀬","town_kana":"ウシガセ","prefecture_code":28},"2715":{"zip_code":"6692715","prefecture":"兵庫県","prefecture_kana":"ヒョウゴケン","city":"篠山市","city_kana":"ササヤマシ","town":"打坂","town_kana":"ウチサカ","prefecture_code":28},"2455":{"zip_code":"6692455","prefecture":"兵庫県","prefecture_kana":"ヒョウゴケン","city":"篠山市","city_kana":"ササヤマシ","town":"宇土","town_kana":"ウド","prefecture_code":28},"2801":{"zip_code":"6692801","prefecture":"兵庫県","prefecture_kana":"ヒョウゴケン","city":"篠山市","city_kana":"ササヤマシ","town":"追入","town_kana":"オイレ","prefecture_code":28},"2306":{"zip_code":"6692306","prefecture":"兵庫県","prefecture_kana":"ヒョウゴケン","city":"篠山市","city_kana":"ササヤマシ","town":"大上","town_kana":"オオガミ","prefecture_code":28},"2318":{"zip_code":"6692318","prefecture":"兵庫県","prefecture_kana":"ヒョウゴケン","city":"篠山市","city_kana":"ササヤマシ","town":"大熊","town_kana":"オオクマ","prefecture_code":28},"2212":{"zip_code":"6692212","prefecture":"兵庫県","prefecture_kana":"ヒョウゴケン","city":"篠山市","city_kana":"ササヤマシ","town":"大沢","town_kana":"オオザワ","prefecture_code":28},"2211":{"zip_code":"6692211","prefecture":"兵庫県","prefecture_kana":"ヒョウゴケン","city":"篠山市","city_kana":"ササヤマシ","town":"大沢新","town_kana":"オオザワシン","prefecture_code":28},"2363":{"zip_code":"6692363","prefecture":"兵庫県","prefecture_kana":"ヒョウゴケン","city":"篠山市","city_kana":"ササヤマシ","town":"大谷","town_kana":"オオタニ","prefecture_code":28},"2355":{"zip_code":"6692355","prefecture":"兵庫県","prefecture_kana":"ヒョウゴケン","city":"篠山市","city_kana":"ササヤマシ","town":"大野","town_kana":"オオノ","prefecture_code":28},"2611":{"zip_code":"6692611","prefecture":"兵庫県","prefecture_kana":"ヒョウゴケン","city":"篠山市","city_kana":"ササヤマシ","town":"大藤","town_kana":"オオフジ","prefecture_code":28},"2309":{"zip_code":"6692309","prefecture":"兵庫県","prefecture_kana":"ヒョウゴケン","city":"篠山市","city_kana":"ササヤマシ","town":"大渕","town_kana":"オオブチ","prefecture_code":28},"2803":{"zip_code":"6692803","prefecture":"兵庫県","prefecture_kana":"ヒョウゴケン","city":"篠山市","city_kana":"ササヤマシ","town":"大山上","town_kana":"オオヤマカミ","prefecture_code":28},"2823":{"zip_code":"6692823","prefecture":"兵庫県","prefecture_kana":"ヒョウゴケン","city":"篠山市","city_kana":"ササヤマシ","town":"大山下","town_kana":"オオヤマシモ","prefecture_code":28},"2827":{"zip_code":"6692827","prefecture":"兵庫県","prefecture_kana":"ヒョウゴケン","city":"篠山市","city_kana":"ササヤマシ","town":"大山新","town_kana":"オオヤマシン","prefecture_code":28},"2802":{"zip_code":"6692802","prefecture":"兵庫県","prefecture_kana":"ヒョウゴケン","city":"篠山市","city_kana":"ササヤマシ","town":"大山宮","town_kana":"オオヤマミヤ","prefecture_code":28},"2326":{"zip_code":"6692326","prefecture":"兵庫県","prefecture_kana":"ヒョウゴケン","city":"篠山市","city_kana":"ササヤマシ","town":"小川町","town_kana":"オガワマチ","prefecture_code":28},"2401":{"zip_code":"6692401","prefecture":"兵庫県","prefecture_kana":"ヒョウゴケン","city":"篠山市","city_kana":"ササヤマシ","town":"奥県守","town_kana":"オクアガタモリ","prefecture_code":28},"2302":{"zip_code":"6692302","prefecture":"兵庫県","prefecture_kana":"ヒョウゴケン","city":"篠山市","city_kana":"ササヤマシ","town":"奥畑","town_kana":"オクハタ","prefecture_code":28},"2501":{"zip_code":"6692501","prefecture":"兵庫県","prefecture_kana":"ヒョウゴケン","city":"篠山市","city_kana":"ササヤマシ","town":"奥原山","town_kana":"オクハラヤマ","prefecture_code":28},"2616":{"zip_code":"6692616","prefecture":"兵庫県","prefecture_kana":"ヒョウゴケン","city":"篠山市","city_kana":"ササヤマシ","town":"奥山","town_kana":"オクヤマ","prefecture_code":28},"2614":{"zip_code":"6692614","prefecture":"兵庫県","prefecture_kana":"ヒョウゴケン","city":"篠山市","city_kana":"ササヤマシ","town":"小倉","town_kana":"オグラ","prefecture_code":28},"2731":{"zip_code":"6692731","prefecture":"兵庫県","prefecture_kana":"ヒョウゴケン","city":"篠山市","city_kana":"ササヤマシ","town":"小坂","town_kana":"オサカ","prefecture_code":28},"2435":{"zip_code":"6692435","prefecture":"兵庫県","prefecture_kana":"ヒョウゴケン","city":"篠山市","city_kana":"ササヤマシ","town":"小多田","town_kana":"オタダ","prefecture_code":28},"2532":{"zip_code":"6692532","prefecture":"兵庫県","prefecture_kana":"ヒョウゴケン","city":"篠山市","city_kana":"ササヤマシ","town":"小立","town_kana":"オダチ","prefecture_code":28},"2704":{"zip_code":"6692704","prefecture":"兵庫県","prefecture_kana":"ヒョウゴケン","city":"篠山市","city_kana":"ササヤマシ","town":"遠方","town_kana":"オチカタ","prefecture_code":28},"2522":{"zip_code":"6692522","prefecture":"兵庫県","prefecture_kana":"ヒョウゴケン","city":"篠山市","city_kana":"ササヤマシ","town":"小野奥谷","town_kana":"オノオクダニ","prefecture_code":28},"2523":{"zip_code":"6692523","prefecture":"兵庫県","prefecture_kana":"ヒョウゴケン","city":"篠山市","city_kana":"ササヤマシ","town":"小野新","town_kana":"オノシン","prefecture_code":28},"2604":{"zip_code":"6692604","prefecture":"兵庫県","prefecture_kana":"ヒョウゴケン","city":"篠山市","city_kana":"ササヤマシ","town":"小原","town_kana":"オバラ","prefecture_code":28},"2554":{"zip_code":"6692554","prefecture":"兵庫県","prefecture_kana":"ヒョウゴケン","city":"篠山市","city_kana":"ササヤマシ","town":"貝田","town_kana":"カイタ","prefecture_code":28},"2714":{"zip_code":"6692714","prefecture":"兵庫県","prefecture_kana":"ヒョウゴケン","city":"篠山市","city_kana":"ササヤマシ","town":"垣屋","town_kana":"カキヤ","prefecture_code":28},"2408":{"zip_code":"6692408","prefecture":"兵庫県","prefecture_kana":"ヒョウゴケン","city":"篠山市","city_kana":"ササヤマシ","town":"春日江","town_kana":"カスガエ","prefecture_code":28},"2732":{"zip_code":"6692732","prefecture":"兵庫県","prefecture_kana":"ヒョウゴケン","city":"篠山市","city_kana":"ササヤマシ","town":"上板井","town_kana":"カミイタイ","prefecture_code":28},"2534":{"zip_code":"6692534","prefecture":"兵庫県","prefecture_kana":"ヒョウゴケン","city":"篠山市","city_kana":"ササヤマシ","town":"上筱見","town_kana":"カミササミ","prefecture_code":28},"2415":{"zip_code":"6692415","prefecture":"兵庫県","prefecture_kana":"ヒョウゴケン","city":"篠山市","city_kana":"ササヤマシ","town":"上宿","town_kana":"カミジュク","prefecture_code":28},"2722":{"zip_code":"6692722","prefecture":"兵庫県","prefecture_kana":"ヒョウゴケン","city":"篠山市","city_kana":"ササヤマシ","town":"河内台","town_kana":"コウチダイ","prefecture_code":28},"2724":{"zip_code":"6692724","prefecture":"兵庫県","prefecture_kana":"ヒョウゴケン","city":"篠山市","city_kana":"ササヤマシ","town":"川北","town_kana":"カワギタ","prefecture_code":28},"2725":{"zip_code":"6692725","prefecture":"兵庫県","prefecture_kana":"ヒョウゴケン","city":"篠山市","city_kana":"ササヤマシ","town":"川北新田","town_kana":"カワギタシンデン","prefecture_code":28},"2701":{"zip_code":"6692701","prefecture":"兵庫県","prefecture_kana":"ヒョウゴケン","city":"篠山市","city_kana":"ササヤマシ","town":"川阪","town_kana":"カワサカ","prefecture_code":28},"2735":{"zip_code":"6692735","prefecture":"兵庫県","prefecture_kana":"ヒョウゴケン","city":"篠山市","city_kana":"ササヤマシ","town":"川西","town_kana":"カワニシ","prefecture_code":28},"2512":{"zip_code":"6692512","prefecture":"兵庫県","prefecture_kana":"ヒョウゴケン","city":"篠山市","city_kana":"ササヤマシ","town":"川原","town_kana":"カワラ","prefecture_code":28},"2325":{"zip_code":"6692325","prefecture":"兵庫県","prefecture_kana":"ヒョウゴケン","city":"篠山市","city_kana":"ササヤマシ","town":"河原町","town_kana":"カワラマチ","prefecture_code":28},"2451":{"zip_code":"6692451","prefecture":"兵庫県","prefecture_kana":"ヒョウゴケン","city":"篠山市","city_kana":"ササヤマシ","town":"北","town_kana":"キタ","prefecture_code":28},"2317":{"zip_code":"6692317","prefecture":"兵庫県","prefecture_kana":"ヒョウゴケン","city":"篠山市","city_kana":"ササヤマシ","town":"北沢田","town_kana":"キタサワダ","prefecture_code":28},"2417":{"zip_code":"6692417","prefecture":"兵庫県","prefecture_kana":"ヒョウゴケン","city":"篠山市","city_kana":"ササヤマシ","town":"北島","town_kana":"キタジマ","prefecture_code":28},"2332":{"zip_code":"6692332","prefecture":"兵庫県","prefecture_kana":"ヒョウゴケン","city":"篠山市","city_kana":"ササヤマシ","town":"北新町","town_kana":"キタシンマチ","prefecture_code":28},"2824":{"zip_code":"6692824","prefecture":"兵庫県","prefecture_kana":"ヒョウゴケン","city":"篠山市","city_kana":"ササヤマシ","town":"北野","town_kana":"キタノ","prefecture_code":28},"2825":{"zip_code":"6692825","prefecture":"兵庫県","prefecture_kana":"ヒョウゴケン","city":"篠山市","city_kana":"ササヤマシ","town":"北野新田","town_kana":"キタノシンデン","prefecture_code":28},"2438":{"zip_code":"6692438","prefecture":"兵庫県","prefecture_kana":"ヒョウゴケン","city":"篠山市","city_kana":"ササヤマシ","town":"京町","town_kana":"キョウマチ","prefecture_code":28},"2113":{"zip_code":"6692113","prefecture":"兵庫県","prefecture_kana":"ヒョウゴケン","city":"篠山市","city_kana":"ササヤマシ","town":"草野","town_kana":"クサノ","prefecture_code":28},"2544":{"zip_code":"6692544","prefecture":"兵庫県","prefecture_kana":"ヒョウゴケン","city":"篠山市","city_kana":"ササヤマシ","town":"草ノ上","town_kana":"クサノカミ","prefecture_code":28},"2723":{"zip_code":"6692723","prefecture":"兵庫県","prefecture_kana":"ヒョウゴケン","city":"篠山市","city_kana":"ササヤマシ","town":"口阪本","town_kana":"クチサカモト","prefecture_code":28},"2367":{"zip_code":"6692367","prefecture":"兵庫県","prefecture_kana":"ヒョウゴケン","city":"篠山市","city_kana":"ササヤマシ","town":"熊谷","town_kana":"クマダニ","prefecture_code":28},"2407":{"zip_code":"6692407","prefecture":"兵庫県","prefecture_kana":"ヒョウゴケン","city":"篠山市","city_kana":"ササヤマシ","town":"倉谷","town_kana":"クラタニ","prefecture_code":28},"2713":{"zip_code":"6692713","prefecture":"兵庫県","prefecture_kana":"ヒョウゴケン","city":"篠山市","city_kana":"ササヤマシ","town":"倉本","town_kana":"クラモト","prefecture_code":28},"2711":{"zip_code":"6692711","prefecture":"兵庫県","prefecture_kana":"ヒョウゴケン","city":"篠山市","city_kana":"ササヤマシ","town":"栗柄","town_kana":"クリカラ","prefecture_code":28},"2465":{"zip_code":"6692465","prefecture":"兵庫県","prefecture_kana":"ヒョウゴケン","city":"篠山市","city_kana":"ササヤマシ","town":"栗栖野","town_kana":"クリスノ","prefecture_code":28},"2321":{"zip_code":"6692321","prefecture":"兵庫県","prefecture_kana":"ヒョウゴケン","city":"篠山市","city_kana":"ササヤマシ","town":"黒岡","town_kana":"クロオカ","prefecture_code":28},"2726":{"zip_code":"6692726","prefecture":"兵庫県","prefecture_kana":"ヒョウゴケン","city":"篠山市","city_kana":"ササヤマシ","town":"黒田","town_kana":"クロダ","prefecture_code":28},"2703":{"zip_code":"6692703","prefecture":"兵庫県","prefecture_kana":"ヒョウゴケン","city":"篠山市","city_kana":"ササヤマシ","town":"桑原","town_kana":"クワバラ","prefecture_code":28},"2341":{"zip_code":"6692341","prefecture":"兵庫県","prefecture_kana":"ヒョウゴケン","city":"篠山市","city_kana":"ササヤマシ","town":"郡家","town_kana":"グンゲ","prefecture_code":28},"2112":{"zip_code":"6692112","prefecture":"兵庫県","prefecture_kana":"ヒョウゴケン","city":"篠山市","city_kana":"ササヤマシ","town":"古森","town_kana":"コウモリ","prefecture_code":28},"2545":{"zip_code":"6692545","prefecture":"兵庫県","prefecture_kana":"ヒョウゴケン","city":"篠山市","city_kana":"ササヤマシ","town":"小田中","town_kana":"コダナカ","prefecture_code":28},"2412":{"zip_code":"6692412","prefecture":"兵庫県","prefecture_kana":"ヒョウゴケン","city":"篠山市","city_kana":"ササヤマシ","town":"小中","town_kana":"コナカ","prefecture_code":28},"2124":{"zip_code":"6692124","prefecture":"兵庫県","prefecture_kana":"ヒョウゴケン","city":"篠山市","city_kana":"ササヤマシ","town":"不来坂","town_kana":"コノサカ","prefecture_code":28},"2322":{"zip_code":"6692322","prefecture":"兵庫県","prefecture_kana":"ヒョウゴケン","city":"篠山市","city_kana":"ササヤマシ","town":"呉服町","town_kana":"ゴフクマチ","prefecture_code":28},"2461":{"zip_code":"6692461","prefecture":"兵庫県","prefecture_kana":"ヒョウゴケン","city":"篠山市","city_kana":"ササヤマシ","town":"小枕","town_kana":"コマクラ","prefecture_code":28},"2144":{"zip_code":"6692144","prefecture":"兵庫県","prefecture_kana":"ヒョウゴケン","city":"篠山市","city_kana":"ササヤマシ","town":"今田町間新田","town_kana":"コンダチョウアイシンデン","prefecture_code":28},"2155":{"zip_code":"6692155","prefecture":"兵庫県","prefecture_kana":"ヒョウゴケン","city":"篠山市","city_kana":"ササヤマシ","town":"今田町芦原新田","town_kana":"コンダチョウアシハラシンデン","prefecture_code":28},"2154":{"zip_code":"6692154","prefecture":"兵庫県","prefecture_kana":"ヒョウゴケン","city":"篠山市","city_kana":"ササヤマシ","town":"今田町市原","town_kana":"コンダチョウイチハラ","prefecture_code":28},"2152":{"zip_code":"6692152","prefecture":"兵庫県","prefecture_kana":"ヒョウゴケン","city":"篠山市","city_kana":"ササヤマシ","town":"今田町荻野分","town_kana":"コンダチョウオギノブン","prefecture_code":28},"2143":{"zip_code":"6692143","prefecture":"兵庫県","prefecture_kana":"ヒョウゴケン","city":"篠山市","city_kana":"ササヤマシ","town":"今田町釜屋","town_kana":"コンダチョウカマヤ","prefecture_code":28},"2132":{"zip_code":"6692132","prefecture":"兵庫県","prefecture_kana":"ヒョウゴケン","city":"篠山市","city_kana":"ササヤマシ","town":"今田町上小野原","town_kana":"コンダチョウカミオノバラ","prefecture_code":28},"2135":{"zip_code":"6692135","prefecture":"兵庫県","prefecture_kana":"ヒョウゴケン","city":"篠山市","city_kana":"ササヤマシ","town":"今田町上立杭","town_kana":"コンダチョウカミタチクイ","prefecture_code":28},"2162":{"zip_code":"6692162","prefecture":"兵庫県","prefecture_kana":"ヒョウゴケン","city":"篠山市","city_kana":"ササヤマシ","town":"今田町黒石","town_kana":"コンダチョウクロイシ","prefecture_code":28},"2145":{"zip_code":"6692145","prefecture":"兵庫県","prefecture_kana":"ヒョウゴケン","city":"篠山市","city_kana":"ササヤマシ","town":"今田町木津","town_kana":"コンダチョウコツ","prefecture_code":28},"2151":{"zip_code":"6692151","prefecture":"兵庫県","prefecture_kana":"ヒョウゴケン","city":"篠山市","city_kana":"ササヤマシ","town":"今田町今田","town_kana":"コンダチョウコンダ","prefecture_code":28},"2153":{"zip_code":"6692153","prefecture":"兵庫県","prefecture_kana":"ヒョウゴケン","city":"篠山市","city_kana":"ササヤマシ","town":"今田町今田新田","town_kana":"コンダチョウコンダシンデン","prefecture_code":28},"2156":{"zip_code":"6692156","prefecture":"兵庫県","prefecture_kana":"ヒョウゴケン","city":"篠山市","city_kana":"ササヤマシ","town":"今田町佐曽良新田","town_kana":"コンダチョウサソラシンデン","prefecture_code":28},"2161":{"zip_code":"6692161","prefecture":"兵庫県","prefecture_kana":"ヒョウゴケン","city":"篠山市","city_kana":"ササヤマシ","town":"今田町四斗谷","town_kana":"コンダチョウシトダニ","prefecture_code":28},"2133":{"zip_code":"6692133","prefecture":"兵庫県","prefecture_kana":"ヒョウゴケン","city":"篠山市","city_kana":"ササヤマシ","town":"今田町下小野原","town_kana":"コンダチョウシモオノバラ","prefecture_code":28},"2141":{"zip_code":"6692141","prefecture":"兵庫県","prefecture_kana":"ヒョウゴケン","city":"篠山市","city_kana":"ササヤマシ","town":"今田町下立杭","town_kana":"コンダチョウシモタチクイ","prefecture_code":28},"2131":{"zip_code":"6692131","prefecture":"兵庫県","prefecture_kana":"ヒョウゴケン","city":"篠山市","city_kana":"ササヤマシ","town":"今田町辰巳","town_kana":"コンダチョウタツミ","prefecture_code":28},"2142":{"zip_code":"6692142","prefecture":"兵庫県","prefecture_kana":"ヒョウゴケン","city":"篠山市","city_kana":"ササヤマシ","town":"今田町東庄","town_kana":"コンダチョウヒガシショウ","prefecture_code":28},"2163":{"zip_code":"6692163","prefecture":"兵庫県","prefecture_kana":"ヒョウゴケン","city":"篠山市","city_kana":"ササヤマシ","town":"今田町本荘","town_kana":"コンダチョウホンジョウ","prefecture_code":28},"2134":{"zip_code":"6692134","prefecture":"兵庫県","prefecture_kana":"ヒョウゴケン","city":"篠山市","city_kana":"ササヤマシ","town":"今田町休場","town_kana":"コンダチョウヤスンバ","prefecture_code":28},"2542":{"zip_code":"6692542","prefecture":"兵庫県","prefecture_kana":"ヒョウゴケン","city":"篠山市","city_kana":"ササヤマシ","town":"細工所","town_kana":"サイクジョ","prefecture_code":28},"2712":{"zip_code":"6692712","prefecture":"兵庫県","prefecture_kana":"ヒョウゴケン","city":"篠山市","city_kana":"ササヤマシ","town":"坂本","town_kana":"サカモト","prefecture_code":28},"2365":{"zip_code":"6692365","prefecture":"兵庫県","prefecture_kana":"ヒョウゴケン","city":"篠山市","city_kana":"ササヤマシ","town":"佐倉","town_kana":"サクラ","prefecture_code":28},"2405":{"zip_code":"6692405","prefecture":"兵庫県","prefecture_kana":"ヒョウゴケン","city":"篠山市","city_kana":"ササヤマシ","town":"佐貫谷","town_kana":"サヌキダニ","prefecture_code":28},"2425":{"zip_code":"6692425","prefecture":"兵庫県","prefecture_kana":"ヒョウゴケン","city":"篠山市","city_kana":"ササヤマシ","town":"後川奥","town_kana":"シツカワオク","prefecture_code":28},"2422":{"zip_code":"6692422","prefecture":"兵庫県","prefecture_kana":"ヒョウゴケン","city":"篠山市","city_kana":"ササヤマシ","town":"後川上","town_kana":"シツカワカミ","prefecture_code":28},"2424":{"zip_code":"6692424","prefecture":"兵庫県","prefecture_kana":"ヒョウゴケン","city":"篠山市","city_kana":"ササヤマシ","town":"後川下","town_kana":"シツカワシモ","prefecture_code":28},"2421":{"zip_code":"6692421","prefecture":"兵庫県","prefecture_kana":"ヒョウゴケン","city":"篠山市","city_kana":"ササヤマシ","town":"後川新田","town_kana":"シツカワシンデン","prefecture_code":28},"2423":{"zip_code":"6692423","prefecture":"兵庫県","prefecture_kana":"ヒョウゴケン","city":"篠山市","city_kana":"ササヤマシ","town":"後川中","town_kana":"シツカワナカ","prefecture_code":28},"2439":{"zip_code":"6692439","prefecture":"兵庫県","prefecture_kana":"ヒョウゴケン","city":"篠山市","city_kana":"ササヤマシ","town":"渋谷","town_kana":"シブタニ","prefecture_code":28},"2733":{"zip_code":"6692733","prefecture":"兵庫県","prefecture_kana":"ヒョウゴケン","city":"篠山市","city_kana":"ササヤマシ","town":"下板井","town_kana":"シモイタイ","prefecture_code":28},"2535":{"zip_code":"6692535","prefecture":"兵庫県","prefecture_kana":"ヒョウゴケン","city":"篠山市","city_kana":"ササヤマシ","town":"下筱見","town_kana":"シモササミ","prefecture_code":28},"2503":{"zip_code":"6692503","prefecture":"兵庫県","prefecture_kana":"ヒョウゴケン","city":"篠山市","city_kana":"ササヤマシ","town":"下原山","town_kana":"シモハラヤマ","prefecture_code":28},"2543":{"zip_code":"6692543","prefecture":"兵庫県","prefecture_kana":"ヒョウゴケン","city":"篠山市","city_kana":"ササヤマシ","town":"塩岡","town_kana":"ショウカ","prefecture_code":28},"2311":{"zip_code":"6692311","prefecture":"兵庫県","prefecture_kana":"ヒョウゴケン","city":"篠山市","city_kana":"ササヤマシ","town":"新荘","town_kana":"シンジョウ","prefecture_code":28},"2204":{"zip_code":"6692204","prefecture":"兵庫県","prefecture_kana":"ヒョウゴケン","city":"篠山市","city_kana":"ササヤマシ","town":"杉","town_kana":"スギ","prefecture_code":28},"2312":{"zip_code":"6692312","prefecture":"兵庫県","prefecture_kana":"ヒョウゴケン","city":"篠山市","city_kana":"ササヤマシ","town":"菅","town_kana":"スゲ","prefecture_code":28},"2315":{"zip_code":"6692315","prefecture":"兵庫県","prefecture_kana":"ヒョウゴケン","city":"篠山市","city_kana":"ササヤマシ","town":"筋山","town_kana":"スジヤマ","prefecture_code":28},"2125":{"zip_code":"6692125","prefecture":"兵庫県","prefecture_kana":"ヒョウゴケン","city":"篠山市","city_kana":"ササヤマシ","town":"住山","town_kana":"スミヤマ","prefecture_code":28},"2231":{"zip_code":"6692231","prefecture":"兵庫県","prefecture_kana":"ヒョウゴケン","city":"篠山市","city_kana":"ササヤマシ","town":"住吉台","town_kana":"スミヨシダイ","prefecture_code":28},"2303":{"zip_code":"6692303","prefecture":"兵庫県","prefecture_kana":"ヒョウゴケン","city":"篠山市","city_kana":"ササヤマシ","town":"瀬利","town_kana":"セリ","prefecture_code":28},"2444":{"zip_code":"6692444","prefecture":"兵庫県","prefecture_kana":"ヒョウゴケン","city":"篠山市","city_kana":"ササヤマシ","town":"曽地奥","town_kana":"ソウジオク","prefecture_code":28},"2442":{"zip_code":"6692442","prefecture":"兵庫県","prefecture_kana":"ヒョウゴケン","city":"篠山市","city_kana":"ササヤマシ","town":"曽地口","town_kana":"ソウジクチ","prefecture_code":28},"2443":{"zip_code":"6692443","prefecture":"兵庫県","prefecture_kana":"ヒョウゴケン","city":"篠山市","city_kana":"ササヤマシ","town":"曽地中","town_kana":"ソウジナカ","prefecture_code":28},"2805":{"zip_code":"6692805","prefecture":"兵庫県","prefecture_kana":"ヒョウゴケン","city":"篠山市","city_kana":"ササヤマシ","town":"園田分","town_kana":"ソノダブン","prefecture_code":28},"2812":{"zip_code":"6692812","prefecture":"兵庫県","prefecture_kana":"ヒョウゴケン","city":"篠山市","city_kana":"ササヤマシ","town":"高倉","town_kana":"タカクラ","prefecture_code":28},"2717":{"zip_code":"6692717","prefecture":"兵庫県","prefecture_kana":"ヒョウゴケン","city":"篠山市","city_kana":"ササヤマシ","town":"高坂","town_kana":"タカサカ","prefecture_code":28},"2727":{"zip_code":"6692727","prefecture":"兵庫県","prefecture_kana":"ヒョウゴケン","city":"篠山市","city_kana":"ササヤマシ","town":"高屋","town_kana":"タカヤ","prefecture_code":28},"2612":{"zip_code":"6692612","prefecture":"兵庫県","prefecture_kana":"ヒョウゴケン","city":"篠山市","city_kana":"ササヤマシ","town":"立金","town_kana":"タツガネ","prefecture_code":28},"2323":{"zip_code":"6692323","prefecture":"兵庫県","prefecture_kana":"ヒョウゴケン","city":"篠山市","city_kana":"ササヤマシ","town":"立町","town_kana":"タツマチ","prefecture_code":28},"2453":{"zip_code":"6692453","prefecture":"兵庫県","prefecture_kana":"ヒョウゴケン","city":"篠山市","city_kana":"ササヤマシ","town":"谷山","town_kana":"タニヤマ","prefecture_code":28},"2531":{"zip_code":"6692531","prefecture":"兵庫県","prefecture_kana":"ヒョウゴケン","city":"篠山市","city_kana":"ササヤマシ","town":"垂水","town_kana":"タルミ","prefecture_code":28},"2362":{"zip_code":"6692362","prefecture":"兵庫県","prefecture_kana":"ヒョウゴケン","city":"篠山市","city_kana":"ササヤマシ","town":"知足","town_kana":"チソク","prefecture_code":28},"2814":{"zip_code":"6692814","prefecture":"兵庫県","prefecture_kana":"ヒョウゴケン","city":"篠山市","city_kana":"ササヤマシ","town":"長安寺","town_kana":"チョウアンジ","prefecture_code":28},"2815":{"zip_code":"6692815","prefecture":"兵庫県","prefecture_kana":"ヒョウゴケン","city":"篠山市","city_kana":"ササヤマシ","town":"町ノ田","town_kana":"チョウノタ","prefecture_code":28},"2411":{"zip_code":"6692411","prefecture":"兵庫県","prefecture_kana":"ヒョウゴケン","city":"篠山市","city_kana":"ササヤマシ","town":"辻","town_kana":"ツジ","prefecture_code":28},"2366":{"zip_code":"6692366","prefecture":"兵庫県","prefecture_kana":"ヒョウゴケン","city":"篠山市","city_kana":"ササヤマシ","town":"寺内","town_kana":"テラウチ","prefecture_code":28},"2821":{"zip_code":"6692821","prefecture":"兵庫県","prefecture_kana":"ヒョウゴケン","city":"篠山市","city_kana":"ササヤマシ","town":"東河地","town_kana":"トウコウチ","prefecture_code":28},"2111":{"zip_code":"6692111","prefecture":"兵庫県","prefecture_kana":"ヒョウゴケン","city":"篠山市","city_kana":"ササヤマシ","town":"当野","town_kana":"トウノ","prefecture_code":28},"2826":{"zip_code":"6692826","prefecture":"兵庫県","prefecture_kana":"ヒョウゴケン","city":"篠山市","city_kana":"ササヤマシ","town":"徳永","town_kana":"トクナガ","prefecture_code":28},"2525":{"zip_code":"6692525","prefecture":"兵庫県","prefecture_kana":"ヒョウゴケン","city":"篠山市","city_kana":"ササヤマシ","town":"栃梨","town_kana":"トチナシ","prefecture_code":28},"2434":{"zip_code":"6692434","prefecture":"兵庫県","prefecture_kana":"ヒョウゴケン","city":"篠山市","city_kana":"ササヤマシ","town":"殿町","town_kana":"トノマチ","prefecture_code":28},"2601":{"zip_code":"6692601","prefecture":"兵庫県","prefecture_kana":"ヒョウゴケン","city":"篠山市","city_kana":"ササヤマシ","town":"中","town_kana":"ナカ","prefecture_code":28},"2213":{"zip_code":"6692213","prefecture":"兵庫県","prefecture_kana":"ヒョウゴケン","city":"篠山市","city_kana":"ササヤマシ","town":"中野","town_kana":"ナカノ","prefecture_code":28},"2502":{"zip_code":"6692502","prefecture":"兵庫県","prefecture_kana":"ヒョウゴケン","city":"篠山市","city_kana":"ササヤマシ","town":"中原山","town_kana":"ナカハラヤマ","prefecture_code":28},"2331":{"zip_code":"6692331","prefecture":"兵庫県","prefecture_kana":"ヒョウゴケン","city":"篠山市","city_kana":"ササヤマシ","town":"二階町","town_kana":"ニカイマチ","prefecture_code":28},"2346":{"zip_code":"6692346","prefecture":"兵庫県","prefecture_kana":"ヒョウゴケン","city":"篠山市","city_kana":"ササヤマシ","town":"西岡屋","town_kana":"ニシオカヤ","prefecture_code":28},"2736":{"zip_code":"6692736","prefecture":"兵庫県","prefecture_kana":"ヒョウゴケン","city":"篠山市","city_kana":"ササヤマシ","town":"西木之部","town_kana":"ニシキノベ","prefecture_code":28},"2221":{"zip_code":"6692221","prefecture":"兵庫県","prefecture_kana":"ヒョウゴケン","city":"篠山市","city_kana":"ササヤマシ","town":"西古佐","town_kana":"ニシコサ","prefecture_code":28},"2728":{"zip_code":"6692728","prefecture":"兵庫県","prefecture_kana":"ヒョウゴケン","city":"篠山市","city_kana":"ササヤマシ","town":"西阪本","town_kana":"ニシサカモト","prefecture_code":28},"2447":{"zip_code":"6692447","prefecture":"兵庫県","prefecture_kana":"ヒョウゴケン","city":"篠山市","city_kana":"ササヤマシ","town":"西荘","town_kana":"ニシジョウ","prefecture_code":28},"2334":{"zip_code":"6692334","prefecture":"兵庫県","prefecture_kana":"ヒョウゴケン","city":"篠山市","city_kana":"ササヤマシ","town":"西新町","town_kana":"ニシシンマチ","prefecture_code":28},"2721":{"zip_code":"6692721","prefecture":"兵庫県","prefecture_kana":"ヒョウゴケン","city":"篠山市","city_kana":"ササヤマシ","town":"西谷","town_kana":"ニシタニ","prefecture_code":28},"2504":{"zip_code":"6692504","prefecture":"兵庫県","prefecture_kana":"ヒョウゴケン","city":"篠山市","city_kana":"ササヤマシ","town":"西野々","town_kana":"ニシノノ","prefecture_code":28},"2352":{"zip_code":"6692352","prefecture":"兵庫県","prefecture_kana":"ヒョウゴケン","city":"篠山市","city_kana":"ササヤマシ","town":"西浜谷","town_kana":"ニシハマダニ","prefecture_code":28},"2206":{"zip_code":"6692206","prefecture":"兵庫県","prefecture_kana":"ヒョウゴケン","city":"篠山市","city_kana":"ササヤマシ","town":"西吹","town_kana":"ニシブキ","prefecture_code":28},"2404":{"zip_code":"6692404","prefecture":"兵庫県","prefecture_kana":"ヒョウゴケン","city":"篠山市","city_kana":"ササヤマシ","town":"西本荘","town_kana":"ニシホンジョウ","prefecture_code":28},"2342":{"zip_code":"6692342","prefecture":"兵庫県","prefecture_kana":"ヒョウゴケン","city":"篠山市","city_kana":"ササヤマシ","town":"西町","town_kana":"ニシマチ","prefecture_code":28},"2433":{"zip_code":"6692433","prefecture":"兵庫県","prefecture_kana":"ヒョウゴケン","city":"篠山市","city_kana":"ササヤマシ","town":"西八上","town_kana":"ニシヤカミ","prefecture_code":28},"2521":{"zip_code":"6692521","prefecture":"兵庫県","prefecture_kana":"ヒョウゴケン","city":"篠山市","city_kana":"ササヤマシ","town":"二之坪","town_kana":"ニノツボ","prefecture_code":28},"2353":{"zip_code":"6692353","prefecture":"兵庫県","prefecture_kana":"ヒョウゴケン","city":"篠山市","city_kana":"ササヤマシ","town":"野尻","town_kana":"ノジリ","prefecture_code":28},"2452":{"zip_code":"6692452","prefecture":"兵庫県","prefecture_kana":"ヒョウゴケン","city":"篠山市","city_kana":"ササヤマシ","town":"野中","town_kana":"ノナカ","prefecture_code":28},"2445":{"zip_code":"6692445","prefecture":"兵庫県","prefecture_kana":"ヒョウゴケン","city":"篠山市","city_kana":"ササヤマシ","town":"野々垣","town_kana":"ノノガキ","prefecture_code":28},"2313":{"zip_code":"6692313","prefecture":"兵庫県","prefecture_kana":"ヒョウゴケン","city":"篠山市","city_kana":"ササヤマシ","town":"野間","town_kana":"ノマ","prefecture_code":28},"2716":{"zip_code":"6692716","prefecture":"兵庫県","prefecture_kana":"ヒョウゴケン","city":"篠山市","city_kana":"ササヤマシ","town":"乗竹","town_kana":"ノリタケ","prefecture_code":28},"2103":{"zip_code":"6692103","prefecture":"兵庫県","prefecture_kana":"ヒョウゴケン","city":"篠山市","city_kana":"ササヤマシ","town":"波賀野","town_kana":"ハガノ","prefecture_code":28},"2122":{"zip_code":"6692122","prefecture":"兵庫県","prefecture_kana":"ヒョウゴケン","city":"篠山市","city_kana":"ササヤマシ","town":"波賀野新田","town_kana":"ハガノシンデン","prefecture_code":28},"2524":{"zip_code":"6692524","prefecture":"兵庫県","prefecture_kana":"ヒョウゴケン","city":"篠山市","city_kana":"ササヤマシ","town":"箱谷","town_kana":"ハコダニ","prefecture_code":28},"2418":{"zip_code":"6692418","prefecture":"兵庫県","prefecture_kana":"ヒョウゴケン","city":"篠山市","city_kana":"ササヤマシ","town":"畑井","town_kana":"ハタイ","prefecture_code":28},"2413":{"zip_code":"6692413","prefecture":"兵庫県","prefecture_kana":"ヒョウゴケン","city":"篠山市","city_kana":"ササヤマシ","town":"畑市","town_kana":"ハタイチ","prefecture_code":28},"2505":{"zip_code":"6692505","prefecture":"兵庫県","prefecture_kana":"ヒョウゴケン","city":"篠山市","city_kana":"ササヤマシ","town":"安口","town_kana":"ハダカス","prefecture_code":28},"2553":{"zip_code":"6692553","prefecture":"兵庫県","prefecture_kana":"ヒョウゴケン","city":"篠山市","city_kana":"ササヤマシ","town":"幡路","town_kana":"ハダチ","prefecture_code":28},"2305":{"zip_code":"6692305","prefecture":"兵庫県","prefecture_kana":"ヒョウゴケン","city":"篠山市","city_kana":"ササヤマシ","town":"畑宮","town_kana":"ハタミヤ","prefecture_code":28},"2101":{"zip_code":"6692101","prefecture":"兵庫県","prefecture_kana":"ヒョウゴケン","city":"篠山市","city_kana":"ササヤマシ","town":"初田","town_kana":"ハツダ","prefecture_code":28},"2307":{"zip_code":"6692307","prefecture":"兵庫県","prefecture_kana":"ヒョウゴケン","city":"篠山市","city_kana":"ササヤマシ","town":"般若寺","town_kana":"ハンニャジ","prefecture_code":28},"2301":{"zip_code":"6692301","prefecture":"兵庫県","prefecture_kana":"ヒョウゴケン","city":"篠山市","city_kana":"ササヤマシ","town":"火打岩","town_kana":"ヒウチワン","prefecture_code":28},"2441":{"zip_code":"6692441","prefecture":"兵庫県","prefecture_kana":"ヒョウゴケン","city":"篠山市","city_kana":"ササヤマシ","town":"日置","town_kana":"ヒオキ","prefecture_code":28},"2345":{"zip_code":"6692345","prefecture":"兵庫県","prefecture_kana":"ヒョウゴケン","city":"篠山市","city_kana":"ササヤマシ","town":"東岡屋","town_kana":"ヒガシオカヤ","prefecture_code":28},"2737":{"zip_code":"6692737","prefecture":"兵庫県","prefecture_kana":"ヒョウゴケン","city":"篠山市","city_kana":"ササヤマシ","town":"東木之部","town_kana":"ヒガシキノベ","prefecture_code":28},"2201":{"zip_code":"6692201","prefecture":"兵庫県","prefecture_kana":"ヒョウゴケン","city":"篠山市","city_kana":"ササヤマシ","town":"東古佐","town_kana":"ヒガシコサ","prefecture_code":28},"2314":{"zip_code":"6692314","prefecture":"兵庫県","prefecture_kana":"ヒョウゴケン","city":"篠山市","city_kana":"ササヤマシ","town":"東沢田","town_kana":"ヒガシサワダ","prefecture_code":28},"2324":{"zip_code":"6692324","prefecture":"兵庫県","prefecture_kana":"ヒョウゴケン","city":"篠山市","city_kana":"ササヤマシ","town":"東新町","town_kana":"ヒガシシンマチ","prefecture_code":28},"2351":{"zip_code":"6692351","prefecture":"兵庫県","prefecture_kana":"ヒョウゴケン","city":"篠山市","city_kana":"ササヤマシ","town":"東浜谷","town_kana":"ヒガシハマダニ","prefecture_code":28},"2202":{"zip_code":"6692202","prefecture":"兵庫県","prefecture_kana":"ヒョウゴケン","city":"篠山市","city_kana":"ササヤマシ","town":"東吹","town_kana":"ヒガシブキ","prefecture_code":28},"2403":{"zip_code":"6692403","prefecture":"兵庫県","prefecture_kana":"ヒョウゴケン","city":"篠山市","city_kana":"ササヤマシ","town":"東本荘","town_kana":"ヒガシホンジョウ","prefecture_code":28},"2343":{"zip_code":"6692343","prefecture":"兵庫県","prefecture_kana":"ヒョウゴケン","city":"篠山市","city_kana":"ササヤマシ","town":"風深","town_kana":"フウカ","prefecture_code":28},"2344":{"zip_code":"6692344","prefecture":"兵庫県","prefecture_kana":"ヒョウゴケン","city":"篠山市","city_kana":"ササヤマシ","town":"吹上","town_kana":"フキガミ","prefecture_code":28},"2203":{"zip_code":"6692203","prefecture":"兵庫県","prefecture_kana":"ヒョウゴケン","city":"篠山市","city_kana":"ササヤマシ","town":"吹新","town_kana":"フキシン","prefecture_code":28},"2603":{"zip_code":"6692603","prefecture":"兵庫県","prefecture_kana":"ヒョウゴケン","city":"篠山市","city_kana":"ササヤマシ","town":"福井","town_kana":"フクイ","prefecture_code":28},"2513":{"zip_code":"6692513","prefecture":"兵庫県","prefecture_kana":"ヒョウゴケン","city":"篠山市","city_kana":"ササヤマシ","town":"福住","town_kana":"フクスミ","prefecture_code":28},"2369":{"zip_code":"6692369","prefecture":"兵庫県","prefecture_kana":"ヒョウゴケン","city":"篠山市","city_kana":"ササヤマシ","town":"藤岡奥","town_kana":"フジオカオク","prefecture_code":28},"2368":{"zip_code":"6692368","prefecture":"兵庫県","prefecture_kana":"ヒョウゴケン","city":"篠山市","city_kana":"ササヤマシ","town":"藤岡口","town_kana":"フジオカクチ","prefecture_code":28},"2605":{"zip_code":"6692605","prefecture":"兵庫県","prefecture_kana":"ヒョウゴケン","city":"篠山市","city_kana":"ササヤマシ","town":"藤坂","town_kana":"フジサカ","prefecture_code":28},"2552":{"zip_code":"6692552","prefecture":"兵庫県","prefecture_kana":"ヒョウゴケン","city":"篠山市","city_kana":"ササヤマシ","town":"藤之木","town_kana":"フジノキ","prefecture_code":28},"2123":{"zip_code":"6692123","prefecture":"兵庫県","prefecture_kana":"ヒョウゴケン","city":"篠山市","city_kana":"ササヤマシ","town":"古市","town_kana":"フルイチ","prefecture_code":28},"2702":{"zip_code":"6692702","prefecture":"兵庫県","prefecture_kana":"ヒョウゴケン","city":"篠山市","city_kana":"ササヤマシ","town":"本郷","town_kana":"ホンゴウ","prefecture_code":28},"2511":{"zip_code":"6692511","prefecture":"兵庫県","prefecture_kana":"ヒョウゴケン","city":"篠山市","city_kana":"ササヤマシ","town":"本明谷","town_kana":"ホンミョウダニ","prefecture_code":28},"2316":{"zip_code":"6692316","prefecture":"兵庫県","prefecture_kana":"ヒョウゴケン","city":"篠山市","city_kana":"ササヤマシ","town":"前沢田","town_kana":"マエサワダ","prefecture_code":28},"2527":{"zip_code":"6692527","prefecture":"兵庫県","prefecture_kana":"ヒョウゴケン","city":"篠山市","city_kana":"ササヤマシ","town":"松ケ鼻","town_kana":"マツガハナ","prefecture_code":28},"2462":{"zip_code":"6692462","prefecture":"兵庫県","prefecture_kana":"ヒョウゴケン","city":"篠山市","city_kana":"ササヤマシ","town":"真南条上","town_kana":"マナンジョウカミ","prefecture_code":28},"2464":{"zip_code":"6692464","prefecture":"兵庫県","prefecture_kana":"ヒョウゴケン","city":"篠山市","city_kana":"ササヤマシ","town":"真南条下","town_kana":"マナンジョウシモ","prefecture_code":28},"2463":{"zip_code":"6692463","prefecture":"兵庫県","prefecture_kana":"ヒョウゴケン","city":"篠山市","city_kana":"ササヤマシ","town":"真南条中","town_kana":"マナンジョウナカ","prefecture_code":28},"2361":{"zip_code":"6692361","prefecture":"兵庫県","prefecture_kana":"ヒョウゴケン","city":"篠山市","city_kana":"ササヤマシ","town":"丸山","town_kana":"マルヤマ","prefecture_code":28},"2121":{"zip_code":"6692121","prefecture":"兵庫県","prefecture_kana":"ヒョウゴケン","city":"篠山市","city_kana":"ササヤマシ","town":"見内","town_kana":"ミウチ","prefecture_code":28},"2602":{"zip_code":"6692602","prefecture":"兵庫県","prefecture_kana":"ヒョウゴケン","city":"篠山市","city_kana":"ササヤマシ","town":"三熊","town_kana":"ミクマ","prefecture_code":28},"2333":{"zip_code":"6692333","prefecture":"兵庫県","prefecture_kana":"ヒョウゴケン","city":"篠山市","city_kana":"ササヤマシ","town":"南新町","town_kana":"ミナミシンマチ","prefecture_code":28},"2102":{"zip_code":"6692102","prefecture":"兵庫県","prefecture_kana":"ヒョウゴケン","city":"篠山市","city_kana":"ササヤマシ","town":"南矢代","town_kana":"ミナミヤシロ","prefecture_code":28},"2615":{"zip_code":"6692615","prefecture":"兵庫県","prefecture_kana":"ヒョウゴケン","city":"篠山市","city_kana":"ササヤマシ","town":"宮代","town_kana":"ミヤシロ","prefecture_code":28},"2734":{"zip_code":"6692734","prefecture":"兵庫県","prefecture_kana":"ヒョウゴケン","city":"篠山市","city_kana":"ササヤマシ","town":"宮田","town_kana":"ミヤダ","prefecture_code":28},"2414":{"zip_code":"6692414","prefecture":"兵庫県","prefecture_kana":"ヒョウゴケン","city":"篠山市","city_kana":"ササヤマシ","town":"宮ノ前","town_kana":"ミヤノマエ","prefecture_code":28},"2526":{"zip_code":"6692526","prefecture":"兵庫県","prefecture_kana":"ヒョウゴケン","city":"篠山市","city_kana":"ササヤマシ","town":"向井","town_kana":"ムカイ","prefecture_code":28},"2437":{"zip_code":"6692437","prefecture":"兵庫県","prefecture_kana":"ヒョウゴケン","city":"篠山市","city_kana":"ササヤマシ","town":"糯ケ坪","town_kana":"モチガツボ","prefecture_code":28},"2432":{"zip_code":"6692432","prefecture":"兵庫県","prefecture_kana":"ヒョウゴケン","city":"篠山市","city_kana":"ササヤマシ","town":"八上内","town_kana":"ヤカミウチ","prefecture_code":28},"2446":{"zip_code":"6692446","prefecture":"兵庫県","prefecture_kana":"ヒョウゴケン","city":"篠山市","city_kana":"ササヤマシ","town":"八上上","town_kana":"ヤカミカミ","prefecture_code":28},"2431":{"zip_code":"6692431","prefecture":"兵庫県","prefecture_kana":"ヒョウゴケン","city":"篠山市","city_kana":"ササヤマシ","town":"八上下","town_kana":"ヤカミシモ","prefecture_code":28},"2356":{"zip_code":"6692356","prefecture":"兵庫県","prefecture_kana":"ヒョウゴケン","city":"篠山市","city_kana":"ササヤマシ","town":"矢代","town_kana":"ヤシロ","prefecture_code":28},"2104":{"zip_code":"6692104","prefecture":"兵庫県","prefecture_kana":"ヒョウゴケン","city":"篠山市","city_kana":"ササヤマシ","town":"矢代新","town_kana":"ヤシロシン","prefecture_code":28},"2551":{"zip_code":"6692551","prefecture":"兵庫県","prefecture_kana":"ヒョウゴケン","city":"篠山市","city_kana":"ササヤマシ","town":"安田","town_kana":"ヤスダ","prefecture_code":28},"2337":{"zip_code":"6692337","prefecture":"兵庫県","prefecture_kana":"ヒョウゴケン","city":"篠山市","city_kana":"ササヤマシ","town":"山内町","town_kana":"ヤマウチチョウ","prefecture_code":28},"2533":{"zip_code":"6692533","prefecture":"兵庫県","prefecture_kana":"ヒョウゴケン","city":"篠山市","city_kana":"ササヤマシ","town":"山田","town_kana":"ヤマダ","prefecture_code":28},"2364":{"zip_code":"6692364","prefecture":"兵庫県","prefecture_kana":"ヒョウゴケン","city":"篠山市","city_kana":"ササヤマシ","town":"鷲尾","town_kana":"ワシオ","prefecture_code":28},"2308":{"zip_code":"6692308","prefecture":"兵庫県","prefecture_kana":"ヒョウゴケン","city":"篠山市","city_kana":"ササヤマシ","town":"和田","town_kana":"ワダ","prefecture_code":28},"3300":{"zip_code":"6693300","prefecture":"兵庫県","prefecture_kana":"ヒョウゴケン","city":"丹波市","city_kana":"タンバシ","town":"","town_kana":"","prefecture_code":28},"3831":{"zip_code":"6693831","prefecture":"兵庫県","prefecture_kana":"ヒョウゴケン","city":"丹波市","city_kana":"タンバシ","town":"青垣町市原","town_kana":"アオガキチョウイチバラ","prefecture_code":28},"3827":{"zip_code":"6693827","prefecture":"兵庫県","prefecture_kana":"ヒョウゴケン","city":"丹波市","city_kana":"タンバシ","town":"青垣町稲土","town_kana":"アオガキチョウイナヅチ","prefecture_code":28},"3843":{"zip_code":"6693843","prefecture":"兵庫県","prefecture_kana":"ヒョウゴケン","city":"丹波市","city_kana":"タンバシ","town":"青垣町奥塩久","town_kana":"アオガキチョウオクシオク","prefecture_code":28},"3812":{"zip_code":"6693812","prefecture":"兵庫県","prefecture_kana":"ヒョウゴケン","city":"丹波市","city_kana":"タンバシ","town":"青垣町小倉","town_kana":"アオガキチョウオグラ","prefecture_code":28},"3822":{"zip_code":"6693822","prefecture":"兵庫県","prefecture_kana":"ヒョウゴケン","city":"丹波市","city_kana":"タンバシ","town":"青垣町大名草","town_kana":"アオガキチョウオナザ","prefecture_code":28},"3823":{"zip_code":"6693823","prefecture":"兵庫県","prefecture_kana":"ヒョウゴケン","city":"丹波市","city_kana":"タンバシ","town":"青垣町大稗","town_kana":"アオガキチョウオビエ","prefecture_code":28},"3841":{"zip_code":"6693841","prefecture":"兵庫県","prefecture_kana":"ヒョウゴケン","city":"丹波市","city_kana":"タンバシ","town":"青垣町口塩久","town_kana":"アオガキチョウクチシオク","prefecture_code":28},"3802":{"zip_code":"6693802","prefecture":"兵庫県","prefecture_kana":"ヒョウゴケン","city":"丹波市","city_kana":"タンバシ","town":"青垣町栗住野","town_kana":"アオガキチョウクリスノ","prefecture_code":28},"3824":{"zip_code":"6693824","prefecture":"兵庫県","prefecture_kana":"ヒョウゴケン","city":"丹波市","city_kana":"タンバシ","town":"青垣町小稗","town_kana":"アオガキチョウコビエ","prefecture_code":28},"3811":{"zip_code":"6693811","prefecture":"兵庫県","prefecture_kana":"ヒョウゴケン","city":"丹波市","city_kana":"タンバシ","town":"青垣町佐治","town_kana":"アオガキチョウサジ","prefecture_code":28},"3842":{"zip_code":"6693842","prefecture":"兵庫県","prefecture_kana":"ヒョウゴケン","city":"丹波市","city_kana":"タンバシ","town":"青垣町沢野","town_kana":"アオガキチョウサワノ","prefecture_code":28},"3825":{"zip_code":"6693825","prefecture":"兵庫県","prefecture_kana":"ヒョウゴケン","city":"丹波市","city_kana":"タンバシ","town":"青垣町惣持","town_kana":"アオガキチョウソウジ","prefecture_code":28},"3804":{"zip_code":"6693804","prefecture":"兵庫県","prefecture_kana":"ヒョウゴケン","city":"丹波市","city_kana":"タンバシ","town":"青垣町田井縄","town_kana":"アオガキチョウタイナワ","prefecture_code":28},"3832":{"zip_code":"6693832","prefecture":"兵庫県","prefecture_kana":"ヒョウゴケン","city":"丹波市","city_kana":"タンバシ","town":"青垣町遠阪","town_kana":"アオガキチョウトオザカ","prefecture_code":28},"3834":{"zip_code":"6693834","prefecture":"兵庫県","prefecture_kana":"ヒョウゴケン","city":"丹波市","city_kana":"タンバシ","town":"青垣町中佐治","town_kana":"アオガキチョウナカサジ","prefecture_code":28},"3803":{"zip_code":"6693803","prefecture":"兵庫県","prefecture_kana":"ヒョウゴケン","city":"丹波市","city_kana":"タンバシ","town":"青垣町西芦田","town_kana":"アオガキチョウニシアシダ","prefecture_code":28},"3801":{"zip_code":"6693801","prefecture":"兵庫県","prefecture_kana":"ヒョウゴケン","city":"丹波市","city_kana":"タンバシ","town":"青垣町東芦田","town_kana":"アオガキチョウヒガシアシダ","prefecture_code":28},"3821":{"zip_code":"6693821","prefecture":"兵庫県","prefecture_kana":"ヒョウゴケン","city":"丹波市","city_kana":"タンバシ","town":"青垣町桧倉","town_kana":"アオガキチョウヒノクラ","prefecture_code":28},"3826":{"zip_code":"6693826","prefecture":"兵庫県","prefecture_kana":"ヒョウゴケン","city":"丹波市","city_kana":"タンバシ","town":"青垣町文室","town_kana":"アオガキチョウフムロ","prefecture_code":28},"3833":{"zip_code":"6693833","prefecture":"兵庫県","prefecture_kana":"ヒョウゴケン","city":"丹波市","city_kana":"タンバシ","town":"青垣町山垣","town_kana":"アオガキチョウヤマガイ","prefecture_code":28},"4324":{"zip_code":"6694324","prefecture":"兵庫県","prefecture_kana":"ヒョウゴケン","city":"丹波市","city_kana":"タンバシ","town":"市島町市島","town_kana":"イチジマチョウイチジマ","prefecture_code":28},"4316":{"zip_code":"6694316","prefecture":"兵庫県","prefecture_kana":"ヒョウゴケン","city":"丹波市","city_kana":"タンバシ","town":"市島町岩戸","town_kana":"イチジマチョウイワト","prefecture_code":28},"4321":{"zip_code":"6694321","prefecture":"兵庫県","prefecture_kana":"ヒョウゴケン","city":"丹波市","city_kana":"タンバシ","town":"市島町上垣","town_kana":"イチジマチョウウエガイ","prefecture_code":28},"4317":{"zip_code":"6694317","prefecture":"兵庫県","prefecture_kana":"ヒョウゴケン","city":"丹波市","city_kana":"タンバシ","town":"市島町上牧","town_kana":"イチジマチョウウエマキ","prefecture_code":28},"4336":{"zip_code":"6694336","prefecture":"兵庫県","prefecture_kana":"ヒョウゴケン","city":"丹波市","city_kana":"タンバシ","town":"市島町乙河内","town_kana":"イチジマチョウオトガワチ","prefecture_code":28},"4323":{"zip_code":"6694323","prefecture":"兵庫県","prefecture_kana":"ヒョウゴケン","city":"丹波市","city_kana":"タンバシ","town":"市島町梶原","town_kana":"イチジマチョウカジワラ","prefecture_code":28},"4344":{"zip_code":"6694344","prefecture":"兵庫県","prefecture_kana":"ヒョウゴケン","city":"丹波市","city_kana":"タンバシ","town":"市島町上鴨阪","town_kana":"イチジマチョウカミカモサカ","prefecture_code":28},"4322":{"zip_code":"6694322","prefecture":"兵庫県","prefecture_kana":"ヒョウゴケン","city":"丹波市","city_kana":"タンバシ","town":"市島町上田","town_kana":"イチジマチョウカミダ","prefecture_code":28},"4341":{"zip_code":"6694341","prefecture":"兵庫県","prefecture_kana":"ヒョウゴケン","city":"丹波市","city_kana":"タンバシ","town":"市島町上竹田","town_kana":"イチジマチョウカミタケダ","prefecture_code":28},"4315":{"zip_code":"6694315","prefecture":"兵庫県","prefecture_kana":"ヒョウゴケン","city":"丹波市","city_kana":"タンバシ","town":"市島町喜多","town_kana":"イチジマチョウキタ","prefecture_code":28},"4325":{"zip_code":"6694325","prefecture":"兵庫県","prefecture_kana":"ヒョウゴケン","city":"丹波市","city_kana":"タンバシ","town":"市島町北岡本","town_kana":"イチジマチョウキタオカモト","prefecture_code":28},"4312":{"zip_code":"6694312","prefecture":"兵庫県","prefecture_kana":"ヒョウゴケン","city":"丹波市","city_kana":"タンバシ","town":"市島町北奥","town_kana":"イチジマチョウキタオク","prefecture_code":28},"4337":{"zip_code":"6694337","prefecture":"兵庫県","prefecture_kana":"ヒョウゴケン","city":"丹波市","city_kana":"タンバシ","town":"市島町酒梨","town_kana":"イチジマチョウサナセ","prefecture_code":28},"4343":{"zip_code":"6694343","prefecture":"兵庫県","prefecture_kana":"ヒョウゴケン","city":"丹波市","city_kana":"タンバシ","town":"市島町下鴨阪","town_kana":"イチジマチョウシモカモサカ","prefecture_code":28},"4301":{"zip_code":"6694301","prefecture":"兵庫県","prefecture_kana":"ヒョウゴケン","city":"丹波市","city_kana":"タンバシ","town":"市島町下竹田","town_kana":"イチジマチョウシモタケダ","prefecture_code":28},"4313":{"zip_code":"6694313","prefecture":"兵庫県","prefecture_kana":"ヒョウゴケン","city":"丹波市","city_kana":"タンバシ","town":"市島町多利","town_kana":"イチジマチョウタリ","prefecture_code":28},"4332":{"zip_code":"6694332","prefecture":"兵庫県","prefecture_kana":"ヒョウゴケン","city":"丹波市","city_kana":"タンバシ","town":"市島町勅使","town_kana":"イチジマチョウチョクシ","prefecture_code":28},"4345":{"zip_code":"6694345","prefecture":"兵庫県","prefecture_kana":"ヒョウゴケン","city":"丹波市","city_kana":"タンバシ","town":"市島町徳尾","town_kana":"イチジマチョウトクオ","prefecture_code":28},"4333":{"zip_code":"6694333","prefecture":"兵庫県","prefecture_kana":"ヒョウゴケン","city":"丹波市","city_kana":"タンバシ","town":"市島町戸坂","town_kana":"イチジマチョウトサカ","prefecture_code":28},"4311":{"zip_code":"6694311","prefecture":"兵庫県","prefecture_kana":"ヒョウゴケン","city":"丹波市","city_kana":"タンバシ","town":"市島町戸平","town_kana":"イチジマチョウトベラ","prefecture_code":28},"4302":{"zip_code":"6694302","prefecture":"兵庫県","prefecture_kana":"ヒョウゴケン","city":"丹波市","city_kana":"タンバシ","town":"市島町中竹田","town_kana":"イチジマチョウナカタケダ","prefecture_code":28},"4331":{"zip_code":"6694331","prefecture":"兵庫県","prefecture_kana":"ヒョウゴケン","city":"丹波市","city_kana":"タンバシ","town":"市島町東勅使","town_kana":"イチジマチョウヒガシチョクシ","prefecture_code":28},"4334":{"zip_code":"6694334","prefecture":"兵庫県","prefecture_kana":"ヒョウゴケン","city":"丹波市","city_kana":"タンバシ","town":"市島町白毫寺","town_kana":"イチジマチョウビャクゴウジ","prefecture_code":28},"4314":{"zip_code":"6694314","prefecture":"兵庫県","prefecture_kana":"ヒョウゴケン","city":"丹波市","city_kana":"タンバシ","town":"市島町南","town_kana":"イチジマチョウミナミ","prefecture_code":28},"4342":{"zip_code":"6694342","prefecture":"兵庫県","prefecture_kana":"ヒョウゴケン","city":"丹波市","city_kana":"タンバシ","town":"市島町矢代","town_kana":"イチジマチョウヤシロ","prefecture_code":28},"4335":{"zip_code":"6694335","prefecture":"兵庫県","prefecture_kana":"ヒョウゴケン","city":"丹波市","city_kana":"タンバシ","town":"市島町与戸","town_kana":"イチジマチョウヨト","prefecture_code":28},"3314":{"zip_code":"6693314","prefecture":"兵庫県","prefecture_kana":"ヒョウゴケン","city":"丹波市","city_kana":"タンバシ","town":"柏原町挙田","town_kana":"カイバラチョウアグタ","prefecture_code":28},"3307":{"zip_code":"6693307","prefecture":"兵庫県","prefecture_kana":"ヒョウゴケン","city":"丹波市","city_kana":"タンバシ","town":"柏原町石戸","town_kana":"カイバラチョウイシド","prefecture_code":28},"3315":{"zip_code":"6693315","prefecture":"兵庫県","prefecture_kana":"ヒョウゴケン","city":"丹波市","city_kana":"タンバシ","town":"柏原町大新屋","town_kana":"カイバラチョウオオニヤ","prefecture_code":28},"3309":{"zip_code":"6693309","prefecture":"兵庫県","prefecture_kana":"ヒョウゴケン","city":"丹波市","city_kana":"タンバシ","town":"柏原町柏原","town_kana":"カイバラチョウカイバラ","prefecture_code":28},"3304":{"zip_code":"6693304","prefecture":"兵庫県","prefecture_kana":"ヒョウゴケン","city":"丹波市","city_kana":"タンバシ","town":"柏原町上小倉","town_kana":"カイバラチョウカミオグラ","prefecture_code":28},"3316":{"zip_code":"6693316","prefecture":"兵庫県","prefecture_kana":"ヒョウゴケン","city":"丹波市","city_kana":"タンバシ","town":"柏原町鴨野","town_kana":"カイバラチョウカモノ","prefecture_code":28},"3306":{"zip_code":"6693306","prefecture":"兵庫県","prefecture_kana":"ヒョウゴケン","city":"丹波市","city_kana":"タンバシ","town":"柏原町北中","town_kana":"カイバラチョウキタナカ","prefecture_code":28},"3313":{"zip_code":"6693313","prefecture":"兵庫県","prefecture_kana":"ヒョウゴケン","city":"丹波市","city_kana":"タンバシ","town":"柏原町北山","town_kana":"カイバラチョウキタヤマ","prefecture_code":28},"3308":{"zip_code":"6693308","prefecture":"兵庫県","prefecture_kana":"ヒョウゴケン","city":"丹波市","city_kana":"タンバシ","town":"柏原町小南","town_kana":"カイバラチョウコミナミ","prefecture_code":28},"3305":{"zip_code":"6693305","prefecture":"兵庫県","prefecture_kana":"ヒョウゴケン","city":"丹波市","city_kana":"タンバシ","town":"柏原町下小倉","town_kana":"カイバラチョウシモオグラ","prefecture_code":28},"3312":{"zip_code":"6693312","prefecture":"兵庫県","prefecture_kana":"ヒョウゴケン","city":"丹波市","city_kana":"タンバシ","town":"柏原町田路","town_kana":"カイバラチョウタジ","prefecture_code":28},"3302":{"zip_code":"6693302","prefecture":"兵庫県","prefecture_kana":"ヒョウゴケン","city":"丹波市","city_kana":"タンバシ","town":"柏原町東奥","town_kana":"カイバラチョウヒガシオク","prefecture_code":28},"3311":{"zip_code":"6693311","prefecture":"兵庫県","prefecture_kana":"ヒョウゴケン","city":"丹波市","city_kana":"タンバシ","town":"柏原町母坪","town_kana":"カイバラチョウホツボ","prefecture_code":28},"3303":{"zip_code":"6693303","prefecture":"兵庫県","prefecture_kana":"ヒョウゴケン","city":"丹波市","city_kana":"タンバシ","town":"柏原町見長","town_kana":"カイバラチョウミナガ","prefecture_code":28},"3301":{"zip_code":"6693301","prefecture":"兵庫県","prefecture_kana":"ヒョウゴケン","city":"丹波市","city_kana":"タンバシ","town":"柏原町南多田","town_kana":"カイバラチョウミナミタダ","prefecture_code":28},"3411":{"zip_code":"6693411","prefecture":"兵庫県","prefecture_kana":"ヒョウゴケン","city":"丹波市","city_kana":"タンバシ","town":"春日町朝日","town_kana":"カスガチョウアサヒ","prefecture_code":28},"4121":{"zip_code":"6694121","prefecture":"兵庫県","prefecture_kana":"ヒョウゴケン","city":"丹波市","city_kana":"タンバシ","town":"春日町池尾","town_kana":"カスガチョウイケオ","prefecture_code":28},"3413":{"zip_code":"6693413","prefecture":"兵庫県","prefecture_kana":"ヒョウゴケン","city":"丹波市","city_kana":"タンバシ","town":"春日町石才","town_kana":"カスガチョウイシザイ","prefecture_code":28},"4135":{"zip_code":"6694135","prefecture":"兵庫県","prefecture_kana":"ヒョウゴケン","city":"丹波市","city_kana":"タンバシ","town":"春日町稲塚","town_kana":"カスガチョウイナヅカ","prefecture_code":28},"3404":{"zip_code":"6693404","prefecture":"兵庫県","prefecture_kana":"ヒョウゴケン","city":"丹波市","city_kana":"タンバシ","town":"春日町牛河内","town_kana":"カスガチョウウシガワチ","prefecture_code":28},"3414":{"zip_code":"6693414","prefecture":"兵庫県","prefecture_kana":"ヒョウゴケン","city":"丹波市","city_kana":"タンバシ","town":"春日町歌道谷","town_kana":"カスガチョウウトウダニ","prefecture_code":28},"4251":{"zip_code":"6694251","prefecture":"兵庫県","prefecture_kana":"ヒョウゴケン","city":"丹波市","city_kana":"タンバシ","town":"春日町上三井庄","town_kana":"カスガチョウカミミノショウ","prefecture_code":28},"4262":{"zip_code":"6694262","prefecture":"兵庫県","prefecture_kana":"ヒョウゴケン","city":"丹波市","city_kana":"タンバシ","town":"春日町栢野","town_kana":"カスガチョウカヤノ","prefecture_code":28},"4253":{"zip_code":"6694253","prefecture":"兵庫県","prefecture_kana":"ヒョウゴケン","city":"丹波市","city_kana":"タンバシ","town":"春日町鹿場","town_kana":"カスガチョウカンバ","prefecture_code":28},"4141":{"zip_code":"6694141","prefecture":"兵庫県","prefecture_kana":"ヒョウゴケン","city":"丹波市","city_kana":"タンバシ","town":"春日町黒井","town_kana":"カスガチョウクロイ","prefecture_code":28},"4273":{"zip_code":"6694273","prefecture":"兵庫県","prefecture_kana":"ヒョウゴケン","city":"丹波市","city_kana":"タンバシ","town":"春日町国領","town_kana":"カスガチョウコクリョウ","prefecture_code":28},"4122":{"zip_code":"6694122","prefecture":"兵庫県","prefecture_kana":"ヒョウゴケン","city":"丹波市","city_kana":"タンバシ","town":"春日町小多利","town_kana":"カスガチョウコダリ","prefecture_code":28},"3415":{"zip_code":"6693415","prefecture":"兵庫県","prefecture_kana":"ヒョウゴケン","city":"丹波市","city_kana":"タンバシ","town":"春日町坂","town_kana":"カスガチョウサカ","prefecture_code":28},"4252":{"zip_code":"6694252","prefecture":"兵庫県","prefecture_kana":"ヒョウゴケン","city":"丹波市","city_kana":"タンバシ","town":"春日町下三井庄","town_kana":"カスガチョウシモミノショウ","prefecture_code":28},"3402":{"zip_code":"6693402","prefecture":"兵庫県","prefecture_kana":"ヒョウゴケン","city":"丹波市","city_kana":"タンバシ","town":"春日町新才","town_kana":"カスガチョウシンサイ","prefecture_code":28},"3412":{"zip_code":"6693412","prefecture":"兵庫県","prefecture_kana":"ヒョウゴケン","city":"丹波市","city_kana":"タンバシ","town":"春日町園部","town_kana":"カスガチョウソノベ","prefecture_code":28},"4125":{"zip_code":"6694125","prefecture":"兵庫県","prefecture_kana":"ヒョウゴケン","city":"丹波市","city_kana":"タンバシ","town":"春日町多田","town_kana":"カスガチョウタダ","prefecture_code":28},"4274":{"zip_code":"6694274","prefecture":"兵庫県","prefecture_kana":"ヒョウゴケン","city":"丹波市","city_kana":"タンバシ","town":"春日町棚原","town_kana":"カスガチョウタナバラ","prefecture_code":28},"4123":{"zip_code":"6694123","prefecture":"兵庫県","prefecture_kana":"ヒョウゴケン","city":"丹波市","city_kana":"タンバシ","town":"春日町多利","town_kana":"カスガチョウタリ","prefecture_code":28},"3403":{"zip_code":"6693403","prefecture":"兵庫県","prefecture_kana":"ヒョウゴケン","city":"丹波市","city_kana":"タンバシ","town":"春日町長王","town_kana":"カスガチョウナガオウ","prefecture_code":28},"4265":{"zip_code":"6694265","prefecture":"兵庫県","prefecture_kana":"ヒョウゴケン","city":"丹波市","city_kana":"タンバシ","town":"春日町中山","town_kana":"カスガチョウナカヤマ","prefecture_code":28},"4131":{"zip_code":"6694131","prefecture":"兵庫県","prefecture_kana":"ヒョウゴケン","city":"丹波市","city_kana":"タンバシ","town":"春日町七日市","town_kana":"カスガチョウナヌカイチ","prefecture_code":28},"4124":{"zip_code":"6694124","prefecture":"兵庫県","prefecture_kana":"ヒョウゴケン","city":"丹波市","city_kana":"タンバシ","town":"春日町野上野","town_kana":"カスガチョウノコノ","prefecture_code":28},"4261":{"zip_code":"6694261","prefecture":"兵庫県","prefecture_kana":"ヒョウゴケン","city":"丹波市","city_kana":"タンバシ","town":"春日町野瀬","town_kana":"カスガチョウノセ","prefecture_code":28},"4132":{"zip_code":"6694132","prefecture":"兵庫県","prefecture_kana":"ヒョウゴケン","city":"丹波市","city_kana":"タンバシ","town":"春日町野村","town_kana":"カスガチョウノムラ","prefecture_code":28},"3416":{"zip_code":"6693416","prefecture":"兵庫県","prefecture_kana":"ヒョウゴケン","city":"丹波市","city_kana":"タンバシ","town":"春日町野山","town_kana":"カスガチョウノヤマ","prefecture_code":28},"4272":{"zip_code":"6694272","prefecture":"兵庫県","prefecture_kana":"ヒョウゴケン","city":"丹波市","city_kana":"タンバシ","town":"春日町東中","town_kana":"カスガチョウヒガシナカ","prefecture_code":28},"4133":{"zip_code":"6694133","prefecture":"兵庫県","prefecture_kana":"ヒョウゴケン","city":"丹波市","city_kana":"タンバシ","town":"春日町平松","town_kana":"カスガチョウヒラマツ","prefecture_code":28},"4263":{"zip_code":"6694263","prefecture":"兵庫県","prefecture_kana":"ヒョウゴケン","city":"丹波市","city_kana":"タンバシ","town":"春日町広瀬","town_kana":"カスガチョウヒロセ","prefecture_code":28},"4134":{"zip_code":"6694134","prefecture":"兵庫県","prefecture_kana":"ヒョウゴケン","city":"丹波市","city_kana":"タンバシ","town":"春日町古河","town_kana":"カスガチョウフルカワ","prefecture_code":28},"4264":{"zip_code":"6694264","prefecture":"兵庫県","prefecture_kana":"ヒョウゴケン","city":"丹波市","city_kana":"タンバシ","town":"春日町松森","town_kana":"カスガチョウマツモリ","prefecture_code":28},"3401":{"zip_code":"6693401","prefecture":"兵庫県","prefecture_kana":"ヒョウゴケン","city":"丹波市","city_kana":"タンバシ","town":"春日町山田","town_kana":"カスガチョウヤマダ","prefecture_code":28},"4271":{"zip_code":"6694271","prefecture":"兵庫県","prefecture_kana":"ヒョウゴケン","city":"丹波市","city_kana":"タンバシ","town":"春日町柚津","town_kana":"カスガチョウユヅ","prefecture_code":28},"3112":{"zip_code":"6693112","prefecture":"兵庫県","prefecture_kana":"ヒョウゴケン","city":"丹波市","city_kana":"タンバシ","town":"山南町青田","town_kana":"サンナンチョウアオダ","prefecture_code":28},"3111":{"zip_code":"6693111","prefecture":"兵庫県","prefecture_kana":"ヒョウゴケン","city":"丹波市","city_kana":"タンバシ","town":"山南町阿草","town_kana":"サンナンチョウアクサ","prefecture_code":28},"3125":{"zip_code":"6693125","prefecture":"兵庫県","prefecture_kana":"ヒョウゴケン","city":"丹波市","city_kana":"タンバシ","town":"山南町池谷","town_kana":"サンナンチョウイケダニ","prefecture_code":28},"3143":{"zip_code":"6693143","prefecture":"兵庫県","prefecture_kana":"ヒョウゴケン","city":"丹波市","city_kana":"タンバシ","town":"山南町井原","town_kana":"サンナンチョウイバラ","prefecture_code":28},"3141":{"zip_code":"6693141","prefecture":"兵庫県","prefecture_kana":"ヒョウゴケン","city":"丹波市","city_kana":"タンバシ","town":"山南町岩屋","town_kana":"サンナンチョウイワヤ","prefecture_code":28},"3158":{"zip_code":"6693158","prefecture":"兵庫県","prefecture_kana":"ヒョウゴケン","city":"丹波市","city_kana":"タンバシ","town":"山南町応地","town_kana":"サンナンチョウオウチ","prefecture_code":28},"3123":{"zip_code":"6693123","prefecture":"兵庫県","prefecture_kana":"ヒョウゴケン","city":"丹波市","city_kana":"タンバシ","town":"山南町大河","town_kana":"サンナンチョウオオカ","prefecture_code":28},"3113":{"zip_code":"6693113","prefecture":"兵庫県","prefecture_kana":"ヒョウゴケン","city":"丹波市","city_kana":"タンバシ","town":"山南町太田","town_kana":"サンナンチョウオオダ","prefecture_code":28},"3124":{"zip_code":"6693124","prefecture":"兵庫県","prefecture_kana":"ヒョウゴケン","city":"丹波市","city_kana":"タンバシ","town":"山南町大谷","town_kana":"サンナンチョウオオタニ","prefecture_code":28},"3127":{"zip_code":"6693127","prefecture":"兵庫県","prefecture_kana":"ヒョウゴケン","city":"丹波市","city_kana":"タンバシ","town":"山南町岡本","town_kana":"サンナンチョウオカモト","prefecture_code":28},"3144":{"zip_code":"6693144","prefecture":"兵庫県","prefecture_kana":"ヒョウゴケン","city":"丹波市","city_kana":"タンバシ","town":"山南町奥","town_kana":"サンナンチョウオク","prefecture_code":28},"3121":{"zip_code":"6693121","prefecture":"兵庫県","prefecture_kana":"ヒョウゴケン","city":"丹波市","city_kana":"タンバシ","town":"山南町奥野々","town_kana":"サンナンチョウオクノノ","prefecture_code":28},"3166":{"zip_code":"6693166","prefecture":"兵庫県","prefecture_kana":"ヒョウゴケン","city":"丹波市","city_kana":"タンバシ","town":"山南町小野尻","town_kana":"サンナンチョウオノジリ","prefecture_code":28},"3167":{"zip_code":"6693167","prefecture":"兵庫県","prefecture_kana":"ヒョウゴケン","city":"丹波市","city_kana":"タンバシ","town":"山南町小畑","town_kana":"サンナンチョウオバタケ","prefecture_code":28},"3154":{"zip_code":"6693154","prefecture":"兵庫県","prefecture_kana":"ヒョウゴケン","city":"丹波市","city_kana":"タンバシ","town":"山南町梶","town_kana":"サンナンチョウカジ","prefecture_code":28},"3156":{"zip_code":"6693156","prefecture":"兵庫県","prefecture_kana":"ヒョウゴケン","city":"丹波市","city_kana":"タンバシ","town":"山南町金倉","town_kana":"サンナンチョウカナクラ","prefecture_code":28},"3128":{"zip_code":"6693128","prefecture":"兵庫県","prefecture_kana":"ヒョウゴケン","city":"丹波市","city_kana":"タンバシ","town":"山南町金屋","town_kana":"サンナンチョウカナヤ","prefecture_code":28},"3101":{"zip_code":"6693101","prefecture":"兵庫県","prefecture_kana":"ヒョウゴケン","city":"丹波市","city_kana":"タンバシ","town":"山南町上滝","town_kana":"サンナンチョウカミタキ","prefecture_code":28},"3105":{"zip_code":"6693105","prefecture":"兵庫県","prefecture_kana":"ヒョウゴケン","city":"丹波市","city_kana":"タンバシ","town":"山南町北太田","town_kana":"サンナンチョウキタオオダ","prefecture_code":28},"3152":{"zip_code":"6693152","prefecture":"兵庫県","prefecture_kana":"ヒョウゴケン","city":"丹波市","city_kana":"タンバシ","town":"山南町北和田","town_kana":"サンナンチョウキタワダ","prefecture_code":28},"3148":{"zip_code":"6693148","prefecture":"兵庫県","prefecture_kana":"ヒョウゴケン","city":"丹波市","city_kana":"タンバシ","town":"山南町きらら通","town_kana":"サンナンチョウキララドオリ","prefecture_code":28},"3151":{"zip_code":"6693151","prefecture":"兵庫県","prefecture_kana":"ヒョウゴケン","city":"丹波市","city_kana":"タンバシ","town":"山南町草部","town_kana":"サンナンチョウクサベ","prefecture_code":28},"3161":{"zip_code":"6693161","prefecture":"兵庫県","prefecture_kana":"ヒョウゴケン","city":"丹波市","city_kana":"タンバシ","town":"山南町五ケ野","town_kana":"サンナンチョウゴガノ","prefecture_code":28},"3155":{"zip_code":"6693155","prefecture":"兵庫県","prefecture_kana":"ヒョウゴケン","city":"丹波市","city_kana":"タンバシ","town":"山南町小新屋","town_kana":"サンナンチョウコニヤ","prefecture_code":28},"3162":{"zip_code":"6693162","prefecture":"兵庫県","prefecture_kana":"ヒョウゴケン","city":"丹波市","city_kana":"タンバシ","town":"山南町坂尻","town_kana":"サンナンチョウサカジリ","prefecture_code":28},"3103":{"zip_code":"6693103","prefecture":"兵庫県","prefecture_kana":"ヒョウゴケン","city":"丹波市","city_kana":"タンバシ","town":"山南町篠場","town_kana":"サンナンチョウササバ","prefecture_code":28},"3147":{"zip_code":"6693147","prefecture":"兵庫県","prefecture_kana":"ヒョウゴケン","city":"丹波市","city_kana":"タンバシ","town":"山南町子茂田","town_kana":"サンナンチョウシモダ","prefecture_code":28},"3102":{"zip_code":"6693102","prefecture":"兵庫県","prefecture_kana":"ヒョウゴケン","city":"丹波市","city_kana":"タンバシ","town":"山南町下滝","town_kana":"サンナンチョウシモタキ","prefecture_code":28},"3131":{"zip_code":"6693131","prefecture":"兵庫県","prefecture_kana":"ヒョウゴケン","city":"丹波市","city_kana":"タンバシ","town":"山南町谷川","town_kana":"サンナンチョウタニガワ","prefecture_code":28},"3122":{"zip_code":"6693122","prefecture":"兵庫県","prefecture_kana":"ヒョウゴケン","city":"丹波市","city_kana":"タンバシ","town":"山南町玉巻","town_kana":"サンナンチョウタマキ","prefecture_code":28},"3165":{"zip_code":"6693165","prefecture":"兵庫県","prefecture_kana":"ヒョウゴケン","city":"丹波市","city_kana":"タンバシ","town":"山南町富田","town_kana":"サンナンチョウトミタ","prefecture_code":28},"3126":{"zip_code":"6693126","prefecture":"兵庫県","prefecture_kana":"ヒョウゴケン","city":"丹波市","city_kana":"タンバシ","town":"山南町長野","town_kana":"サンナンチョウナガノ","prefecture_code":28},"3168":{"zip_code":"6693168","prefecture":"兵庫県","prefecture_kana":"ヒョウゴケン","city":"丹波市","city_kana":"タンバシ","town":"山南町西谷","town_kana":"サンナンチョウニシタニ","prefecture_code":28},"3145":{"zip_code":"6693145","prefecture":"兵庫県","prefecture_kana":"ヒョウゴケン","city":"丹波市","city_kana":"タンバシ","town":"山南町野坂","town_kana":"サンナンチョウノサカ","prefecture_code":28},"3104":{"zip_code":"6693104","prefecture":"兵庫県","prefecture_kana":"ヒョウゴケン","city":"丹波市","city_kana":"タンバシ","town":"山南町畑内","town_kana":"サンナンチョウハタウチ","prefecture_code":28},"3153":{"zip_code":"6693153","prefecture":"兵庫県","prefecture_kana":"ヒョウゴケン","city":"丹波市","city_kana":"タンバシ","town":"山南町前川","town_kana":"サンナンチョウマエガワ","prefecture_code":28},"3146":{"zip_code":"6693146","prefecture":"兵庫県","prefecture_kana":"ヒョウゴケン","city":"丹波市","city_kana":"タンバシ","town":"山南町南中","town_kana":"サンナンチョウミナミナカ","prefecture_code":28},"3159":{"zip_code":"6693159","prefecture":"兵庫県","prefecture_kana":"ヒョウゴケン","city":"丹波市","city_kana":"タンバシ","town":"山南町美和","town_kana":"サンナンチョウミワ","prefecture_code":28},"3142":{"zip_code":"6693142","prefecture":"兵庫県","prefecture_kana":"ヒョウゴケン","city":"丹波市","city_kana":"タンバシ","town":"山南町村森","town_kana":"サンナンチョウムラモリ","prefecture_code":28},"3132":{"zip_code":"6693132","prefecture":"兵庫県","prefecture_kana":"ヒョウゴケン","city":"丹波市","city_kana":"タンバシ","town":"山南町山崎","town_kana":"サンナンチョウヤマサキ","prefecture_code":28},"3163":{"zip_code":"6693163","prefecture":"兵庫県","prefecture_kana":"ヒョウゴケン","city":"丹波市","city_kana":"タンバシ","town":"山南町山本","town_kana":"サンナンチョウヤマモト","prefecture_code":28},"3164":{"zip_code":"6693164","prefecture":"兵庫県","prefecture_kana":"ヒョウゴケン","city":"丹波市","city_kana":"タンバシ","town":"山南町若林","town_kana":"サンナンチョウワカバヤシ","prefecture_code":28},"3157":{"zip_code":"6693157","prefecture":"兵庫県","prefecture_kana":"ヒョウゴケン","city":"丹波市","city_kana":"タンバシ","town":"山南町和田","town_kana":"サンナンチョウワダ","prefecture_code":28},"3606":{"zip_code":"6693606","prefecture":"兵庫県","prefecture_kana":"ヒョウゴケン","city":"丹波市","city_kana":"タンバシ","town":"氷上町上成松","town_kana":"ヒカミチョウアゲナリマツ","prefecture_code":28},"3574":{"zip_code":"6693574","prefecture":"兵庫県","prefecture_kana":"ヒョウゴケン","city":"丹波市","city_kana":"タンバシ","town":"氷上町朝阪","town_kana":"ヒカミチョウアサカ","prefecture_code":28},"3643":{"zip_code":"6693643","prefecture":"兵庫県","prefecture_kana":"ヒョウゴケン","city":"丹波市","city_kana":"タンバシ","town":"氷上町伊佐口","town_kana":"ヒカミチョウイサクチ","prefecture_code":28},"3464":{"zip_code":"6693464","prefecture":"兵庫県","prefecture_kana":"ヒョウゴケン","city":"丹波市","city_kana":"タンバシ","town":"氷上町石生","town_kana":"ヒカミチョウイソウ","prefecture_code":28},"3461":{"zip_code":"6693461","prefecture":"兵庫県","prefecture_kana":"ヒョウゴケン","city":"丹波市","city_kana":"タンバシ","town":"氷上町市辺","town_kana":"ヒカミチョウイチベ","prefecture_code":28},"3632":{"zip_code":"6693632","prefecture":"兵庫県","prefecture_kana":"ヒョウゴケン","city":"丹波市","city_kana":"タンバシ","town":"氷上町井中","town_kana":"ヒカミチョウイナカ","prefecture_code":28},"3466":{"zip_code":"6693466","prefecture":"兵庫県","prefecture_kana":"ヒョウゴケン","city":"丹波市","city_kana":"タンバシ","town":"氷上町稲継","town_kana":"ヒカミチョウイナツギ","prefecture_code":28},"3581":{"zip_code":"6693581","prefecture":"兵庫県","prefecture_kana":"ヒョウゴケン","city":"丹波市","city_kana":"タンバシ","town":"氷上町稲畑","town_kana":"ヒカミチョウイナハタ","prefecture_code":28},"3604":{"zip_code":"6693604","prefecture":"兵庫県","prefecture_kana":"ヒョウゴケン","city":"丹波市","city_kana":"タンバシ","town":"氷上町犬岡","town_kana":"ヒカミチョウイヌオカ","prefecture_code":28},"3462":{"zip_code":"6693462","prefecture":"兵庫県","prefecture_kana":"ヒョウゴケン","city":"丹波市","city_kana":"タンバシ","town":"氷上町大崎","town_kana":"ヒカミチョウオオサキ","prefecture_code":28},"3621":{"zip_code":"6693621","prefecture":"兵庫県","prefecture_kana":"ヒョウゴケン","city":"丹波市","city_kana":"タンバシ","town":"氷上町大谷","town_kana":"ヒカミチョウオオタニ","prefecture_code":28},"3612":{"zip_code":"6693612","prefecture":"兵庫県","prefecture_kana":"ヒョウゴケン","city":"丹波市","city_kana":"タンバシ","town":"氷上町長野","town_kana":"ヒカミチョウオサノ","prefecture_code":28},"3575":{"zip_code":"6693575","prefecture":"兵庫県","prefecture_kana":"ヒョウゴケン","city":"丹波市","city_kana":"タンバシ","town":"氷上町小野","town_kana":"ヒカミチョウオノ","prefecture_code":28},"3611":{"zip_code":"6693611","prefecture":"兵庫県","prefecture_kana":"ヒョウゴケン","city":"丹波市","city_kana":"タンバシ","town":"氷上町柿柴","town_kana":"ヒカミチョウカキシバ","prefecture_code":28},"3613":{"zip_code":"6693613","prefecture":"兵庫県","prefecture_kana":"ヒョウゴケン","city":"丹波市","city_kana":"タンバシ","town":"氷上町上新庄","town_kana":"ヒカミチョウカミシンジョウ","prefecture_code":28},"3631":{"zip_code":"6693631","prefecture":"兵庫県","prefecture_kana":"ヒョウゴケン","city":"丹波市","city_kana":"タンバシ","town":"氷上町賀茂","town_kana":"ヒカミチョウカモ","prefecture_code":28},"3645":{"zip_code":"6693645","prefecture":"兵庫県","prefecture_kana":"ヒョウゴケン","city":"丹波市","city_kana":"タンバシ","town":"氷上町鴨内","town_kana":"ヒカミチョウカモウチ","prefecture_code":28},"3463":{"zip_code":"6693463","prefecture":"兵庫県","prefecture_kana":"ヒョウゴケン","city":"丹波市","city_kana":"タンバシ","town":"氷上町北野","town_kana":"ヒカミチョウキタノ","prefecture_code":28},"3653":{"zip_code":"6693653","prefecture":"兵庫県","prefecture_kana":"ヒョウゴケン","city":"丹波市","city_kana":"タンバシ","town":"氷上町北油良","town_kana":"ヒカミチョウキタユラ","prefecture_code":28},"3641":{"zip_code":"6693641","prefecture":"兵庫県","prefecture_kana":"ヒョウゴケン","city":"丹波市","city_kana":"タンバシ","town":"氷上町絹山","town_kana":"ヒカミチョウキヌヤマ","prefecture_code":28},"3626":{"zip_code":"6693626","prefecture":"兵庫県","prefecture_kana":"ヒョウゴケン","city":"丹波市","city_kana":"タンバシ","town":"氷上町清住","town_kana":"ヒカミチョウキヨズミ","prefecture_code":28},"3605":{"zip_code":"6693605","prefecture":"兵庫県","prefecture_kana":"ヒョウゴケン","city":"丹波市","city_kana":"タンバシ","town":"氷上町黒田","town_kana":"ヒカミチョウクロダ","prefecture_code":28},"3642":{"zip_code":"6693642","prefecture":"兵庫県","prefecture_kana":"ヒョウゴケン","city":"丹波市","city_kana":"タンバシ","town":"氷上町香良","town_kana":"ヒカミチョウコウラ","prefecture_code":28},"3646":{"zip_code":"6693646","prefecture":"兵庫県","prefecture_kana":"ヒョウゴケン","city":"丹波市","city_kana":"タンバシ","town":"氷上町小谷","town_kana":"ヒカミチョウコタニ","prefecture_code":28},"3633":{"zip_code":"6693633","prefecture":"兵庫県","prefecture_kana":"ヒョウゴケン","city":"丹波市","city_kana":"タンバシ","town":"氷上町御油","town_kana":"ヒカミチョウゴユ","prefecture_code":28},"3652":{"zip_code":"6693652","prefecture":"兵庫県","prefecture_kana":"ヒョウゴケン","city":"丹波市","city_kana":"タンバシ","town":"氷上町桟敷","town_kana":"ヒカミチョウサジキ","prefecture_code":28},"3582":{"zip_code":"6693582","prefecture":"兵庫県","prefecture_kana":"ヒョウゴケン","city":"丹波市","city_kana":"タンバシ","town":"氷上町佐野","town_kana":"ヒカミチョウサノ","prefecture_code":28},"3614":{"zip_code":"6693614","prefecture":"兵庫県","prefecture_kana":"ヒョウゴケン","city":"丹波市","city_kana":"タンバシ","town":"氷上町下新庄","town_kana":"ヒカミチョウシモシンジョウ","prefecture_code":28},"3602":{"zip_code":"6693602","prefecture":"兵庫県","prefecture_kana":"ヒョウゴケン","city":"丹波市","city_kana":"タンバシ","town":"氷上町常楽","town_kana":"ヒカミチョウジョウラク","prefecture_code":28},"3571":{"zip_code":"6693571","prefecture":"兵庫県","prefecture_kana":"ヒョウゴケン","city":"丹波市","city_kana":"タンバシ","town":"氷上町新郷","town_kana":"ヒカミチョウシンゴウ","prefecture_code":28},"3572":{"zip_code":"6693572","prefecture":"兵庫県","prefecture_kana":"ヒョウゴケン","city":"丹波市","city_kana":"タンバシ","town":"氷上町谷村","town_kana":"ヒカミチョウタニムラ","prefecture_code":28},"3625":{"zip_code":"6693625","prefecture":"兵庫県","prefecture_kana":"ヒョウゴケン","city":"丹波市","city_kana":"タンバシ","town":"氷上町中","town_kana":"ヒカミチョウナカ","prefecture_code":28},"3623":{"zip_code":"6693623","prefecture":"兵庫県","prefecture_kana":"ヒョウゴケン","city":"丹波市","city_kana":"タンバシ","town":"氷上町中野","town_kana":"ヒカミチョウナカノ","prefecture_code":28},"3601":{"zip_code":"6693601","prefecture":"兵庫県","prefecture_kana":"ヒョウゴケン","city":"丹波市","city_kana":"タンバシ","town":"氷上町成松","town_kana":"ヒカミチョウナリマツ","prefecture_code":28},"3603":{"zip_code":"6693603","prefecture":"兵庫県","prefecture_kana":"ヒョウゴケン","city":"丹波市","city_kana":"タンバシ","town":"氷上町西中","town_kana":"ヒカミチョウニシナカ","prefecture_code":28},"3634":{"zip_code":"6693634","prefecture":"兵庫県","prefecture_kana":"ヒョウゴケン","city":"丹波市","city_kana":"タンバシ","town":"氷上町沼","town_kana":"ヒカミチョウヌマ","prefecture_code":28},"3651":{"zip_code":"6693651","prefecture":"兵庫県","prefecture_kana":"ヒョウゴケン","city":"丹波市","city_kana":"タンバシ","town":"氷上町氷上","town_kana":"ヒカミチョウヒカミ","prefecture_code":28},"3644":{"zip_code":"6693644","prefecture":"兵庫県","prefecture_kana":"ヒョウゴケン","city":"丹波市","city_kana":"タンバシ","town":"氷上町日比宇","town_kana":"ヒカミチョウヒビウ","prefecture_code":28},"3583":{"zip_code":"6693583","prefecture":"兵庫県","prefecture_kana":"ヒョウゴケン","city":"丹波市","city_kana":"タンバシ","town":"氷上町福田","town_kana":"ヒカミチョウフクタ","prefecture_code":28},"3467":{"zip_code":"6693467","prefecture":"兵庫県","prefecture_kana":"ヒョウゴケン","city":"丹波市","city_kana":"タンバシ","town":"氷上町本郷","town_kana":"ヒカミチョウホンゴウ","prefecture_code":28},"3624":{"zip_code":"6693624","prefecture":"兵庫県","prefecture_kana":"ヒョウゴケン","city":"丹波市","city_kana":"タンバシ","town":"氷上町三方","town_kana":"ヒカミチョウミカタ","prefecture_code":28},"3654":{"zip_code":"6693654","prefecture":"兵庫県","prefecture_kana":"ヒョウゴケン","city":"丹波市","city_kana":"タンバシ","town":"氷上町南油良","town_kana":"ヒカミチョウミナミユラ","prefecture_code":28},"3622":{"zip_code":"6693622","prefecture":"兵庫県","prefecture_kana":"ヒョウゴケン","city":"丹波市","city_kana":"タンバシ","town":"氷上町三原","town_kana":"ヒカミチョウミハラ","prefecture_code":28},"3573":{"zip_code":"6693573","prefecture":"兵庫県","prefecture_kana":"ヒョウゴケン","city":"丹波市","city_kana":"タンバシ","town":"氷上町油利","town_kana":"ヒカミチョウユリ","prefecture_code":28},"3465":{"zip_code":"6693465","prefecture":"兵庫県","prefecture_kana":"ヒョウゴケン","city":"丹波市","city_kana":"タンバシ","town":"氷上町横田","town_kana":"ヒカミチョウヨコタ","prefecture_code":28},"5200":{"zip_code":"6695200","prefecture":"兵庫県","prefecture_kana":"ヒョウゴケン","city":"朝来市","city_kana":"アサゴシ","town":"","town_kana":"","prefecture_code":28},"5125":{"zip_code":"6695125","prefecture":"兵庫県","prefecture_kana":"ヒョウゴケン","city":"朝来市","city_kana":"アサゴシ","town":"山東町粟鹿","town_kana":"サントウチョウアワガ","prefecture_code":28},"5123":{"zip_code":"6695123","prefecture":"兵庫県","prefecture_kana":"ヒョウゴケン","city":"朝来市","city_kana":"アサゴシ","town":"山東町一品","town_kana":"サントウチョウイッポウ","prefecture_code":28},"5112":{"zip_code":"6695112","prefecture":"兵庫県","prefecture_kana":"ヒョウゴケン","city":"朝来市","city_kana":"アサゴシ","town":"山東町大内","town_kana":"サントウチョウオオウチ","prefecture_code":28},"5102":{"zip_code":"6695102","prefecture":"兵庫県","prefecture_kana":"ヒョウゴケン","city":"朝来市","city_kana":"アサゴシ","town":"山東町大垣","town_kana":"サントウチョウオオカイ","prefecture_code":28},"5153":{"zip_code":"6695153","prefecture":"兵庫県","prefecture_kana":"ヒョウゴケン","city":"朝来市","city_kana":"アサゴシ","town":"山東町大月","town_kana":"サントウチョウオオツキ","prefecture_code":28},"5142":{"zip_code":"6695142","prefecture":"兵庫県","prefecture_kana":"ヒョウゴケン","city":"朝来市","city_kana":"アサゴシ","town":"山東町越田","town_kana":"サントウチョウオッタ","prefecture_code":28},"5143":{"zip_code":"6695143","prefecture":"兵庫県","prefecture_kana":"ヒョウゴケン","city":"朝来市","city_kana":"アサゴシ","town":"山東町柿坪","town_kana":"サントウチョウカキツボ","prefecture_code":28},"5152":{"zip_code":"6695152","prefecture":"兵庫県","prefecture_kana":"ヒョウゴケン","city":"朝来市","city_kana":"アサゴシ","town":"山東町楽音寺","town_kana":"サントウチョウガクオンジ","prefecture_code":28},"5115":{"zip_code":"6695115","prefecture":"兵庫県","prefecture_kana":"ヒョウゴケン","city":"朝来市","city_kana":"アサゴシ","town":"山東町金浦","town_kana":"サントウチョウカナウラ","prefecture_code":28},"5133":{"zip_code":"6695133","prefecture":"兵庫県","prefecture_kana":"ヒョウゴケン","city":"朝来市","city_kana":"アサゴシ","town":"山東町喜多垣","town_kana":"サントウチョウキタガキ","prefecture_code":28},"5151":{"zip_code":"6695151","prefecture":"兵庫県","prefecture_kana":"ヒョウゴケン","city":"朝来市","city_kana":"アサゴシ","town":"山東町小谷","town_kana":"サントウチョウコタニ","prefecture_code":28},"5113":{"zip_code":"6695113","prefecture":"兵庫県","prefecture_kana":"ヒョウゴケン","city":"朝来市","city_kana":"アサゴシ","town":"山東町塩田","town_kana":"サントウチョウシオタ","prefecture_code":28},"5124":{"zip_code":"6695124","prefecture":"兵庫県","prefecture_kana":"ヒョウゴケン","city":"朝来市","city_kana":"アサゴシ","town":"山東町柴","town_kana":"サントウチョウシバ","prefecture_code":28},"5111":{"zip_code":"6695111","prefecture":"兵庫県","prefecture_kana":"ヒョウゴケン","city":"朝来市","city_kana":"アサゴシ","town":"山東町新堂","town_kana":"サントウチョウシンドウ","prefecture_code":28},"5101":{"zip_code":"6695101","prefecture":"兵庫県","prefecture_kana":"ヒョウゴケン","city":"朝来市","city_kana":"アサゴシ","town":"山東町滝田","town_kana":"サントウチョウタキタ","prefecture_code":28},"5114":{"zip_code":"6695114","prefecture":"兵庫県","prefecture_kana":"ヒョウゴケン","city":"朝来市","city_kana":"アサゴシ","town":"山東町野間","town_kana":"サントウチョウノマ","prefecture_code":28},"5134":{"zip_code":"6695134","prefecture":"兵庫県","prefecture_kana":"ヒョウゴケン","city":"朝来市","city_kana":"アサゴシ","town":"山東町迫間","town_kana":"サントウチョウハサマ","prefecture_code":28},"5131":{"zip_code":"6695131","prefecture":"兵庫県","prefecture_kana":"ヒョウゴケン","city":"朝来市","city_kana":"アサゴシ","town":"山東町柊木","town_kana":"サントウチョウヒイラギ","prefecture_code":28},"5104":{"zip_code":"6695104","prefecture":"兵庫県","prefecture_kana":"ヒョウゴケン","city":"朝来市","city_kana":"アサゴシ","town":"山東町末歳","town_kana":"サントウチョウマッサイ","prefecture_code":28},"5132":{"zip_code":"6695132","prefecture":"兵庫県","prefecture_kana":"ヒョウゴケン","city":"朝来市","city_kana":"アサゴシ","town":"山東町溝黒","town_kana":"サントウチョウミゾクロ","prefecture_code":28},"5141":{"zip_code":"6695141","prefecture":"兵庫県","prefecture_kana":"ヒョウゴケン","city":"朝来市","city_kana":"アサゴシ","town":"山東町三保","town_kana":"サントウチョウミホ","prefecture_code":28},"5135":{"zip_code":"6695135","prefecture":"兵庫県","prefecture_kana":"ヒョウゴケン","city":"朝来市","city_kana":"アサゴシ","town":"山東町森","town_kana":"サントウチョウモリ","prefecture_code":28},"5103":{"zip_code":"6695103","prefecture":"兵庫県","prefecture_kana":"ヒョウゴケン","city":"朝来市","city_kana":"アサゴシ","town":"山東町矢名瀬町","town_kana":"サントウチョウヤナセマチ","prefecture_code":28},"5136":{"zip_code":"6695136","prefecture":"兵庫県","prefecture_kana":"ヒョウゴケン","city":"朝来市","city_kana":"アサゴシ","town":"山東町与布土","town_kana":"サントウチョウヨフド","prefecture_code":28},"5121":{"zip_code":"6695121","prefecture":"兵庫県","prefecture_kana":"ヒョウゴケン","city":"朝来市","city_kana":"アサゴシ","town":"山東町和賀","town_kana":"サントウチョウワガ","prefecture_code":28},"5122":{"zip_code":"6695122","prefecture":"兵庫県","prefecture_kana":"ヒョウゴケン","city":"朝来市","city_kana":"アサゴシ","town":"山東町早田","town_kana":"サントウチョウワサダ","prefecture_code":28},"5221":{"zip_code":"6695221","prefecture":"兵庫県","prefecture_kana":"ヒョウゴケン","city":"朝来市","city_kana":"アサゴシ","town":"和田山町秋葉台","town_kana":"ワダヤマチョウアキバダイ","prefecture_code":28},"5238":{"zip_code":"6695238","prefecture":"兵庫県","prefecture_kana":"ヒョウゴケン","city":"朝来市","city_kana":"アサゴシ","town":"和田山町朝日","town_kana":"ワダヤマチョウアサヒ","prefecture_code":28},"5234":{"zip_code":"6695234","prefecture":"兵庫県","prefecture_kana":"ヒョウゴケン","city":"朝来市","city_kana":"アサゴシ","town":"和田山町市場","town_kana":"ワダヤマチョウイチバ","prefecture_code":28},"5262":{"zip_code":"6695262","prefecture":"兵庫県","prefecture_kana":"ヒョウゴケン","city":"朝来市","city_kana":"アサゴシ","town":"和田山町市御堂","town_kana":"ワダヤマチョウイチミドウ","prefecture_code":28},"5236":{"zip_code":"6695236","prefecture":"兵庫県","prefecture_kana":"ヒョウゴケン","city":"朝来市","city_kana":"アサゴシ","town":"和田山町内海","town_kana":"ワダヤマチョウウツノミ","prefecture_code":28},"5204":{"zip_code":"6695204","prefecture":"兵庫県","prefecture_kana":"ヒョウゴケン","city":"朝来市","city_kana":"アサゴシ","town":"和田山町駅北","town_kana":"ワダヤマチョウエキキタ","prefecture_code":28},"5246":{"zip_code":"6695246","prefecture":"兵庫県","prefecture_kana":"ヒョウゴケン","city":"朝来市","city_kana":"アサゴシ","town":"和田山町岡","town_kana":"ワダヤマチョウオカ","prefecture_code":28},"5224":{"zip_code":"6695224","prefecture":"兵庫県","prefecture_kana":"ヒョウゴケン","city":"朝来市","city_kana":"アサゴシ","town":"和田山町岡田","town_kana":"ワダヤマチョウオカダ","prefecture_code":28},"5264":{"zip_code":"6695264","prefecture":"兵庫県","prefecture_kana":"ヒョウゴケン","city":"朝来市","city_kana":"アサゴシ","town":"和田山町加都","town_kana":"ワダヤマチョウカツ","prefecture_code":28},"5253":{"zip_code":"6695253","prefecture":"兵庫県","prefecture_kana":"ヒョウゴケン","city":"朝来市","city_kana":"アサゴシ","town":"和田山町久世田","town_kana":"ワダヤマチョウクセダ","prefecture_code":28},"5228":{"zip_code":"6695228","prefecture":"兵庫県","prefecture_kana":"ヒョウゴケン","city":"朝来市","city_kana":"アサゴシ","town":"和田山町久田和","town_kana":"ワダヤマチョウクダワ","prefecture_code":28},"5263":{"zip_code":"6695263","prefecture":"兵庫県","prefecture_kana":"ヒョウゴケン","city":"朝来市","city_kana":"アサゴシ","town":"和田山町久留引","town_kana":"ワダヤマチョウクルブキ","prefecture_code":28},"5214":{"zip_code":"6695214","prefecture":"兵庫県","prefecture_kana":"ヒョウゴケン","city":"朝来市","city_kana":"アサゴシ","town":"和田山町桑原","town_kana":"ワダヤマチョウクワバラ","prefecture_code":28},"5251":{"zip_code":"6695251","prefecture":"兵庫県","prefecture_kana":"ヒョウゴケン","city":"朝来市","city_kana":"アサゴシ","town":"和田山町栄町","town_kana":"ワダヤマチョウサカエマチ","prefecture_code":28},"5256":{"zip_code":"6695256","prefecture":"兵庫県","prefecture_kana":"ヒョウゴケン","city":"朝来市","city_kana":"アサゴシ","town":"和田山町三波","town_kana":"ワダヤマチョウサンナミ","prefecture_code":28},"5258":{"zip_code":"6695258","prefecture":"兵庫県","prefecture_kana":"ヒョウゴケン","city":"朝来市","city_kana":"アサゴシ","town":"和田山町城南台","town_kana":"ワダヤマチョウジョウナンダイ","prefecture_code":28},"5220":{"zip_code":"6695220","prefecture":"兵庫県","prefecture_kana":"ヒョウゴケン","city":"朝来市","city_kana":"アサゴシ","town":"和田山町白井","town_kana":"ワダヤマチョウシライ","prefecture_code":28},"5243":{"zip_code":"6695243","prefecture":"兵庫県","prefecture_kana":"ヒョウゴケン","city":"朝来市","city_kana":"アサゴシ","town":"和田山町高田","town_kana":"ワダヤマチョウタカタ","prefecture_code":28},"5252":{"zip_code":"6695252","prefecture":"兵庫県","prefecture_kana":"ヒョウゴケン","city":"朝来市","city_kana":"アサゴシ","town":"和田山町竹田","town_kana":"ワダヤマチョウタケダ","prefecture_code":28},"5237":{"zip_code":"6695237","prefecture":"兵庫県","prefecture_kana":"ヒョウゴケン","city":"朝来市","city_kana":"アサゴシ","town":"和田山町竹ノ内","town_kana":"ワダヤマチョウタケノウチ","prefecture_code":28},"5233":{"zip_code":"6695233","prefecture":"兵庫県","prefecture_kana":"ヒョウゴケン","city":"朝来市","city_kana":"アサゴシ","town":"和田山町高生田","town_kana":"ワダヤマチョウタコウダ","prefecture_code":28},"5268":{"zip_code":"6695268","prefecture":"兵庫県","prefecture_kana":"ヒョウゴケン","city":"朝来市","city_kana":"アサゴシ","town":"和田山町立ノ原","town_kana":"ワダヤマチョウタツノハラ","prefecture_code":28},"5213":{"zip_code":"6695213","prefecture":"兵庫県","prefecture_kana":"ヒョウゴケン","city":"朝来市","city_kana":"アサゴシ","town":"和田山町玉置","town_kana":"ワダヤマチョウタマキ","prefecture_code":28},"5265":{"zip_code":"6695265","prefecture":"兵庫県","prefecture_kana":"ヒョウゴケン","city":"朝来市","city_kana":"アサゴシ","town":"和田山町筒江","town_kana":"ワダヤマチョウツツエ","prefecture_code":28},"5232":{"zip_code":"6695232","prefecture":"兵庫県","prefecture_kana":"ヒョウゴケン","city":"朝来市","city_kana":"アサゴシ","town":"和田山町寺内","town_kana":"ワダヤマチョウテラウチ","prefecture_code":28},"5203":{"zip_code":"6695203","prefecture":"兵庫県","prefecture_kana":"ヒョウゴケン","city":"朝来市","city_kana":"アサゴシ","town":"和田山町寺谷","town_kana":"ワダヤマチョウテラダニ","prefecture_code":28},"5255":{"zip_code":"6695255","prefecture":"兵庫県","prefecture_kana":"ヒョウゴケン","city":"朝来市","city_kana":"アサゴシ","town":"和田山町殿","town_kana":"ワダヤマチョウトノ","prefecture_code":28},"5226":{"zip_code":"6695226","prefecture":"兵庫県","prefecture_kana":"ヒョウゴケン","city":"朝来市","city_kana":"アサゴシ","town":"和田山町中","town_kana":"ワダヤマチョウナカ","prefecture_code":28},"5225":{"zip_code":"6695225","prefecture":"兵庫県","prefecture_kana":"ヒョウゴケン","city":"朝来市","city_kana":"アサゴシ","town":"和田山町野村","town_kana":"ワダヤマチョウノムラ","prefecture_code":28},"5231":{"zip_code":"6695231","prefecture":"兵庫県","prefecture_kana":"ヒョウゴケン","city":"朝来市","city_kana":"アサゴシ","town":"和田山町林垣","town_kana":"ワダヤマチョウハヤシガキ","prefecture_code":28},"5241":{"zip_code":"6695241","prefecture":"兵庫県","prefecture_kana":"ヒョウゴケン","city":"朝来市","city_kana":"アサゴシ","town":"和田山町土田","town_kana":"ワダヤマチョウハンダ","prefecture_code":28},"5202":{"zip_code":"6695202","prefecture":"兵庫県","prefecture_kana":"ヒョウゴケン","city":"朝来市","city_kana":"アサゴシ","town":"和田山町東谷","town_kana":"ワダヤマチョウヒガシダニ","prefecture_code":28},"5227":{"zip_code":"6695227","prefecture":"兵庫県","prefecture_kana":"ヒョウゴケン","city":"朝来市","city_kana":"アサゴシ","town":"和田山町東和田","town_kana":"ワダヤマチョウヒガシワダ","prefecture_code":28},"5266":{"zip_code":"6695266","prefecture":"兵庫県","prefecture_kana":"ヒョウゴケン","city":"朝来市","city_kana":"アサゴシ","town":"和田山町比治","town_kana":"ワダヤマチョウヒジ","prefecture_code":28},"5261":{"zip_code":"6695261","prefecture":"兵庫県","prefecture_kana":"ヒョウゴケン","city":"朝来市","city_kana":"アサゴシ","town":"和田山町枚田","town_kana":"ワダヤマチョウヒラタ","prefecture_code":28},"5215":{"zip_code":"6695215","prefecture":"兵庫県","prefecture_kana":"ヒョウゴケン","city":"朝来市","city_kana":"アサゴシ","town":"和田山町枚田岡","town_kana":"ワダヤマチョウヒラタオカ","prefecture_code":28},"5211":{"zip_code":"6695211","prefecture":"兵庫県","prefecture_kana":"ヒョウゴケン","city":"朝来市","city_kana":"アサゴシ","town":"和田山町平野","town_kana":"ワダヤマチョウヒラノ","prefecture_code":28},"5257":{"zip_code":"6695257","prefecture":"兵庫県","prefecture_kana":"ヒョウゴケン","city":"朝来市","city_kana":"アサゴシ","town":"和田山町藤和","town_kana":"ワダヤマチョウフジワ","prefecture_code":28},"5245":{"zip_code":"6695245","prefecture":"兵庫県","prefecture_kana":"ヒョウゴケン","city":"朝来市","city_kana":"アサゴシ","town":"和田山町法道寺","town_kana":"ワダヤマチョウホウドウジ","prefecture_code":28},"5267":{"zip_code":"6695267","prefecture":"兵庫県","prefecture_kana":"ヒョウゴケン","city":"朝来市","city_kana":"アサゴシ","town":"和田山町法興寺","town_kana":"ワダヤマチョウホツコウジ","prefecture_code":28},"5222":{"zip_code":"6695222","prefecture":"兵庫県","prefecture_kana":"ヒョウゴケン","city":"朝来市","city_kana":"アサゴシ","town":"和田山町万葉台","town_kana":"ワダヤマチョウマンヨウダイ","prefecture_code":28},"5229":{"zip_code":"6695229","prefecture":"兵庫県","prefecture_kana":"ヒョウゴケン","city":"朝来市","city_kana":"アサゴシ","town":"和田山町宮","town_kana":"ワダヤマチョウミヤ","prefecture_code":28},"5244":{"zip_code":"6695244","prefecture":"兵庫県","prefecture_kana":"ヒョウゴケン","city":"朝来市","city_kana":"アサゴシ","town":"和田山町宮内","town_kana":"ワダヤマチョウミヤウチ","prefecture_code":28},"5242":{"zip_code":"6695242","prefecture":"兵庫県","prefecture_kana":"ヒョウゴケン","city":"朝来市","city_kana":"アサゴシ","town":"和田山町宮田","town_kana":"ワダヤマチョウミヤダ","prefecture_code":28},"5223":{"zip_code":"6695223","prefecture":"兵庫県","prefecture_kana":"ヒョウゴケン","city":"朝来市","city_kana":"アサゴシ","town":"和田山町室尾","town_kana":"ワダヤマチョウムロオ","prefecture_code":28},"5254":{"zip_code":"6695254","prefecture":"兵庫県","prefecture_kana":"ヒョウゴケン","city":"朝来市","city_kana":"アサゴシ","town":"和田山町安井","town_kana":"ワダヤマチョウヤスイ","prefecture_code":28},"5212":{"zip_code":"6695212","prefecture":"兵庫県","prefecture_kana":"ヒョウゴケン","city":"朝来市","city_kana":"アサゴシ","town":"和田山町柳原","town_kana":"ワダヤマチョウヤナギハラ","prefecture_code":28},"5216":{"zip_code":"6695216","prefecture":"兵庫県","prefecture_kana":"ヒョウゴケン","city":"朝来市","city_kana":"アサゴシ","town":"和田山町弥生が丘","town_kana":"ワダヤマチョウヤヨイガオカ","prefecture_code":28},"5235":{"zip_code":"6695235","prefecture":"兵庫県","prefecture_kana":"ヒョウゴケン","city":"朝来市","city_kana":"アサゴシ","town":"和田山町和田","town_kana":"ワダヤマチョウワダ","prefecture_code":28},"5201":{"zip_code":"6695201","prefecture":"兵庫県","prefecture_kana":"ヒョウゴケン","city":"朝来市","city_kana":"アサゴシ","town":"和田山町和田山","town_kana":"ワダヤマチョウワダヤマ","prefecture_code":28},"6500":{"zip_code":"6696500","prefecture":"兵庫県","prefecture_kana":"ヒョウゴケン","city":"美方郡香美町","city_kana":"ミカタグンカミチョウ","town":"","town_kana":"","prefecture_code":28},"6404":{"zip_code":"6696404","prefecture":"兵庫県","prefecture_kana":"ヒョウゴケン","city":"美方郡香美町","city_kana":"ミカタグンカミチョウ","town":"香住区相谷","town_kana":"カスミクアイダニ","prefecture_code":28},"6432":{"zip_code":"6696432","prefecture":"兵庫県","prefecture_kana":"ヒョウゴケン","city":"美方郡香美町","city_kana":"ミカタグンカミチョウ","town":"香住区上計","town_kana":"カスミクアゲ","prefecture_code":28},"6671":{"zip_code":"6696671","prefecture":"兵庫県","prefecture_kana":"ヒョウゴケン","city":"美方郡香美町","city_kana":"ミカタグンカミチョウ","town":"香住区余部","town_kana":"カスミクアマルベ","prefecture_code":28},"6431":{"zip_code":"6696431","prefecture":"兵庫県","prefecture_kana":"ヒョウゴケン","city":"美方郡香美町","city_kana":"ミカタグンカミチョウ","town":"香住区浦上","town_kana":"カスミクウラガミ","prefecture_code":28},"6425":{"zip_code":"6696425","prefecture":"兵庫県","prefecture_kana":"ヒョウゴケン","city":"美方郡香美町","city_kana":"ミカタグンカミチョウ","town":"香住区大梶","town_kana":"カスミクオオカジ","prefecture_code":28},"6554":{"zip_code":"6696554","prefecture":"兵庫県","prefecture_kana":"ヒョウゴケン","city":"美方郡香美町","city_kana":"ミカタグンカミチョウ","town":"香住区大谷","town_kana":"カスミクオオダニ","prefecture_code":28},"6555":{"zip_code":"6696555","prefecture":"兵庫県","prefecture_kana":"ヒョウゴケン","city":"美方郡香美町","city_kana":"ミカタグンカミチョウ","town":"香住区大野","town_kana":"カスミクオオノ","prefecture_code":28},"6433":{"zip_code":"6696433","prefecture":"兵庫県","prefecture_kana":"ヒョウゴケン","city":"美方郡香美町","city_kana":"ミカタグンカミチョウ","town":"香住区沖浦","town_kana":"カスミクオキノウラ","prefecture_code":28},"6552":{"zip_code":"6696552","prefecture":"兵庫県","prefecture_kana":"ヒョウゴケン","city":"美方郡香美町","city_kana":"ミカタグンカミチョウ","town":"香住区加鹿野","town_kana":"カスミクカジカノ","prefecture_code":28},"6544":{"zip_code":"6696544","prefecture":"兵庫県","prefecture_kana":"ヒョウゴケン","city":"美方郡香美町","city_kana":"ミカタグンカミチョウ","town":"香住区香住","town_kana":"カスミクカスミ","prefecture_code":28},"6414":{"zip_code":"6696414","prefecture":"兵庫県","prefecture_kana":"ヒョウゴケン","city":"美方郡香美町","city_kana":"ミカタグンカミチョウ","town":"香住区上岡","town_kana":"カスミクカミオカ","prefecture_code":28},"6411":{"zip_code":"6696411","prefecture":"兵庫県","prefecture_kana":"ヒョウゴケン","city":"美方郡香美町","city_kana":"ミカタグンカミチョウ","town":"香住区九斗","town_kana":"カスミククト","prefecture_code":28},"6402":{"zip_code":"6696402","prefecture":"兵庫県","prefecture_kana":"ヒョウゴケン","city":"美方郡香美町","city_kana":"ミカタグンカミチョウ","town":"香住区訓谷","town_kana":"カスミククンダニ","prefecture_code":28},"6559":{"zip_code":"6696559","prefecture":"兵庫県","prefecture_kana":"ヒョウゴケン","city":"美方郡香美町","city_kana":"ミカタグンカミチョウ","town":"香住区小原","town_kana":"カスミクコバラ","prefecture_code":28},"6541":{"zip_code":"6696541","prefecture":"兵庫県","prefecture_kana":"ヒョウゴケン","city":"美方郡香美町","city_kana":"ミカタグンカミチョウ","town":"香住区境","town_kana":"カスミクサカイ","prefecture_code":28},"6413":{"zip_code":"6696413","prefecture":"兵庫県","prefecture_kana":"ヒョウゴケン","city":"美方郡香美町","city_kana":"ミカタグンカミチョウ","town":"香住区下岡","town_kana":"カスミクシモオカ","prefecture_code":28},"6564":{"zip_code":"6696564","prefecture":"兵庫県","prefecture_kana":"ヒョウゴケン","city":"美方郡香美町","city_kana":"ミカタグンカミチョウ","town":"香住区下浜","town_kana":"カスミクシモノハマ","prefecture_code":28},"6551":{"zip_code":"6696551","prefecture":"兵庫県","prefecture_kana":"ヒョウゴケン","city":"美方郡香美町","city_kana":"ミカタグンカミチョウ","town":"香住区守柄","town_kana":"カスミクスカラ","prefecture_code":28},"6556":{"zip_code":"6696556","prefecture":"兵庫県","prefecture_kana":"ヒョウゴケン","city":"美方郡香美町","city_kana":"ミカタグンカミチョウ","town":"香住区中野","town_kana":"カスミクナカノ","prefecture_code":28},"6546":{"zip_code":"6696546","prefecture":"兵庫県","prefecture_kana":"ヒョウゴケン","city":"美方郡香美町","city_kana":"ミカタグンカミチョウ","town":"香住区七日市","town_kana":"カスミクナヌカイチ","prefecture_code":28},"6416":{"zip_code":"6696416","prefecture":"兵庫県","prefecture_kana":"ヒョウゴケン","city":"美方郡香美町","city_kana":"ミカタグンカミチョウ","town":"香住区丹生地","town_kana":"カスミクニウジ","prefecture_code":28},"6415":{"zip_code":"6696415","prefecture":"兵庫県","prefecture_kana":"ヒョウゴケン","city":"美方郡香美町","city_kana":"ミカタグンカミチョウ","town":"香住区西下岡","town_kana":"カスミクニシシモオカ","prefecture_code":28},"6423":{"zip_code":"6696423","prefecture":"兵庫県","prefecture_kana":"ヒョウゴケン","city":"美方郡香美町","city_kana":"ミカタグンカミチョウ","town":"香住区畑","town_kana":"カスミクハタ","prefecture_code":28},"6422":{"zip_code":"6696422","prefecture":"兵庫県","prefecture_kana":"ヒョウゴケン","city":"美方郡香美町","city_kana":"ミカタグンカミチョウ","town":"香住区土生","town_kana":"カスミクハブ","prefecture_code":28},"6424":{"zip_code":"6696424","prefecture":"兵庫県","prefecture_kana":"ヒョウゴケン","city":"美方郡香美町","city_kana":"ミカタグンカミチョウ","town":"香住区隼人","town_kana":"カスミクハヤト","prefecture_code":28},"6542":{"zip_code":"6696542","prefecture":"兵庫県","prefecture_kana":"ヒョウゴケン","city":"美方郡香美町","city_kana":"ミカタグンカミチョウ","town":"香住区一日市","town_kana":"カスミクヒトイチ","prefecture_code":28},"6557":{"zip_code":"6696557","prefecture":"兵庫県","prefecture_kana":"ヒョウゴケン","city":"美方郡香美町","city_kana":"ミカタグンカミチョウ","town":"香住区藤","town_kana":"カスミクフジ","prefecture_code":28},"6561":{"zip_code":"6696561","prefecture":"兵庫県","prefecture_kana":"ヒョウゴケン","city":"美方郡香美町","city_kana":"ミカタグンカミチョウ","town":"香住区間室","town_kana":"カスミクマムロ","prefecture_code":28},"6426":{"zip_code":"6696426","prefecture":"兵庫県","prefecture_kana":"ヒョウゴケン","city":"美方郡香美町","city_kana":"ミカタグンカミチョウ","town":"香住区三川","town_kana":"カスミクミカワ","prefecture_code":28},"6553":{"zip_code":"6696553","prefecture":"兵庫県","prefecture_kana":"ヒョウゴケン","city":"美方郡香美町","city_kana":"ミカタグンカミチョウ","town":"香住区三谷","town_kana":"カスミクミタニ","prefecture_code":28},"6401":{"zip_code":"6696401","prefecture":"兵庫県","prefecture_kana":"ヒョウゴケン","city":"美方郡香美町","city_kana":"ミカタグンカミチョウ","town":"香住区無南垣","town_kana":"カスミクムナガイ","prefecture_code":28},"6412":{"zip_code":"6696412","prefecture":"兵庫県","prefecture_kana":"ヒョウゴケン","city":"美方郡香美町","city_kana":"ミカタグンカミチョウ","town":"香住区米地","town_kana":"カスミクメジ","prefecture_code":28},"6421":{"zip_code":"6696421","prefecture":"兵庫県","prefecture_kana":"ヒョウゴケン","city":"美方郡香美町","city_kana":"ミカタグンカミチョウ","town":"香住区本見塚","town_kana":"カスミクモトミヅカ","prefecture_code":28},"6545":{"zip_code":"6696545","prefecture":"兵庫県","prefecture_kana":"ヒョウゴケン","city":"美方郡香美町","city_kana":"ミカタグンカミチョウ","town":"香住区森","town_kana":"カスミクモリ","prefecture_code":28},"6403":{"zip_code":"6696403","prefecture":"兵庫県","prefecture_kana":"ヒョウゴケン","city":"美方郡香美町","city_kana":"ミカタグンカミチョウ","town":"香住区安木","town_kana":"カスミクヤスギ","prefecture_code":28},"6563":{"zip_code":"6696563","prefecture":"兵庫県","prefecture_kana":"ヒョウゴケン","city":"美方郡香美町","city_kana":"ミカタグンカミチョウ","town":"香住区矢田","town_kana":"カスミクヤダ","prefecture_code":28},"6558":{"zip_code":"6696558","prefecture":"兵庫県","prefecture_kana":"ヒョウゴケン","city":"美方郡香美町","city_kana":"ミカタグンカミチョウ","town":"香住区八原","town_kana":"カスミクヤハラ","prefecture_code":28},"6562":{"zip_code":"6696562","prefecture":"兵庫県","prefecture_kana":"ヒョウゴケン","city":"美方郡香美町","city_kana":"ミカタグンカミチョウ","town":"香住区油良","town_kana":"カスミクユラ","prefecture_code":28},"6672":{"zip_code":"6696672","prefecture":"兵庫県","prefecture_kana":"ヒョウゴケン","city":"美方郡香美町","city_kana":"ミカタグンカミチョウ","town":"香住区鎧","town_kana":"カスミクヨロイ","prefecture_code":28},"6543":{"zip_code":"6696543","prefecture":"兵庫県","prefecture_kana":"ヒョウゴケン","city":"美方郡香美町","city_kana":"ミカタグンカミチョウ","town":"香住区若松","town_kana":"カスミクワカマツ","prefecture_code":28},"6700":{"zip_code":"6696700","prefecture":"兵庫県","prefecture_kana":"ヒョウゴケン","city":"美方郡新温泉町","city_kana":"ミカタグンシンオンセンチョウ","town":"","town_kana":"","prefecture_code":28},"6714":{"zip_code":"6696714","prefecture":"兵庫県","prefecture_kana":"ヒョウゴケン","city":"美方郡新温泉町","city_kana":"ミカタグンシンオンセンチョウ","town":"赤崎","town_kana":"アカサキ","prefecture_code":28},"6701":{"zip_code":"6696701","prefecture":"兵庫県","prefecture_kana":"ヒョウゴケン","city":"美方郡新温泉町","city_kana":"ミカタグンシンオンセンチョウ","town":"芦屋","town_kana":"アシヤ","prefecture_code":28},"6832":{"zip_code":"6696832","prefecture":"兵庫県","prefecture_kana":"ヒョウゴケン","city":"美方郡新温泉町","city_kana":"ミカタグンシンオンセンチョウ","town":"飯野","town_kana":"イイノ","prefecture_code":28},"6751":{"zip_code":"6696751","prefecture":"兵庫県","prefecture_kana":"ヒョウゴケン","city":"美方郡新温泉町","city_kana":"ミカタグンシンオンセンチョウ","town":"居組","town_kana":"イグミ","prefecture_code":28},"6953":{"zip_code":"6696953","prefecture":"兵庫県","prefecture_kana":"ヒョウゴケン","city":"美方郡新温泉町","city_kana":"ミカタグンシンオンセンチョウ","town":"石橋","town_kana":"イシバシ","prefecture_code":28},"6805":{"zip_code":"6696805","prefecture":"兵庫県","prefecture_kana":"ヒョウゴケン","city":"美方郡新温泉町","city_kana":"ミカタグンシンオンセンチョウ","town":"伊角","town_kana":"イスミ","prefecture_code":28},"6801":{"zip_code":"6696801","prefecture":"兵庫県","prefecture_kana":"ヒョウゴケン","city":"美方郡新温泉町","city_kana":"ミカタグンシンオンセンチョウ","town":"井土","town_kana":"イド","prefecture_code":28},"6803":{"zip_code":"6696803","prefecture":"兵庫県","prefecture_kana":"ヒョウゴケン","city":"美方郡新温泉町","city_kana":"ミカタグンシンオンセンチョウ","town":"今岡","town_kana":"イマオカ","prefecture_code":28},"6808":{"zip_code":"6696808","prefecture":"兵庫県","prefecture_kana":"ヒョウゴケン","city":"美方郡新温泉町","city_kana":"ミカタグンシンオンセンチョウ","town":"歌長","town_kana":"ウタオサ","prefecture_code":28},"6945":{"zip_code":"6696945","prefecture":"兵庫県","prefecture_kana":"ヒョウゴケン","city":"美方郡新温泉町","city_kana":"ミカタグンシンオンセンチョウ","town":"内山","town_kana":"ウチヤマ","prefecture_code":28},"6952":{"zip_code":"6696952","prefecture":"兵庫県","prefecture_kana":"ヒョウゴケン","city":"美方郡新温泉町","city_kana":"ミカタグンシンオンセンチョウ","town":"海上","town_kana":"ウミガミ","prefecture_code":28},"6811":{"zip_code":"6696811","prefecture":"兵庫県","prefecture_kana":"ヒョウゴケン","city":"美方郡新温泉町","city_kana":"ミカタグンシンオンセンチョウ","town":"多子","town_kana":"オイゴ","prefecture_code":28},"6946":{"zip_code":"6696946","prefecture":"兵庫県","prefecture_kana":"ヒョウゴケン","city":"美方郡新温泉町","city_kana":"ミカタグンシンオンセンチョウ","town":"越坂","town_kana":"オッサカ","prefecture_code":28},"6802":{"zip_code":"6696802","prefecture":"兵庫県","prefecture_kana":"ヒョウゴケン","city":"美方郡新温泉町","city_kana":"ミカタグンシンオンセンチョウ","town":"金屋","town_kana":"カナヤ","prefecture_code":28},"6942":{"zip_code":"6696942","prefecture":"兵庫県","prefecture_kana":"ヒョウゴケン","city":"美方郡新温泉町","city_kana":"ミカタグンシンオンセンチョウ","town":"鐘尾","town_kana":"カネオ","prefecture_code":28},"6752":{"zip_code":"6696752","prefecture":"兵庫県","prefecture_kana":"ヒョウゴケン","city":"美方郡新温泉町","city_kana":"ミカタグンシンオンセンチョウ","town":"釜屋","town_kana":"カマヤ","prefecture_code":28},"6954":{"zip_code":"6696954","prefecture":"兵庫県","prefecture_kana":"ヒョウゴケン","city":"美方郡新温泉町","city_kana":"ミカタグンシンオンセンチョウ","town":"岸田","town_kana":"キシダ","prefecture_code":28},"6711":{"zip_code":"6696711","prefecture":"兵庫県","prefecture_kana":"ヒョウゴケン","city":"美方郡新温泉町","city_kana":"ミカタグンシンオンセンチョウ","town":"清富","town_kana":"キヨトミ","prefecture_code":28},"6815":{"zip_code":"6696815","prefecture":"兵庫県","prefecture_kana":"ヒョウゴケン","city":"美方郡新温泉町","city_kana":"ミカタグンシンオンセンチョウ","town":"桐岡","town_kana":"キリオカ","prefecture_code":28},"6812":{"zip_code":"6696812","prefecture":"兵庫県","prefecture_kana":"ヒョウゴケン","city":"美方郡新温泉町","city_kana":"ミカタグンシンオンセンチョウ","town":"切畑","town_kana":"キリハタ","prefecture_code":28},"6721":{"zip_code":"6696721","prefecture":"兵庫県","prefecture_kana":"ヒョウゴケン","city":"美方郡新温泉町","city_kana":"ミカタグンシンオンセンチョウ","town":"久谷","town_kana":"クタニ","prefecture_code":28},"6727":{"zip_code":"6696727","prefecture":"兵庫県","prefecture_kana":"ヒョウゴケン","city":"美方郡新温泉町","city_kana":"ミカタグンシンオンセンチョウ","town":"久斗山","town_kana":"クトヤマ","prefecture_code":28},"6804":{"zip_code":"6696804","prefecture":"兵庫県","prefecture_kana":"ヒョウゴケン","city":"美方郡新温泉町","city_kana":"ミカタグンシンオンセンチョウ","town":"熊谷","town_kana":"クマダニ","prefecture_code":28},"6726":{"zip_code":"6696726","prefecture":"兵庫県","prefecture_kana":"ヒョウゴケン","city":"美方郡新温泉町","city_kana":"ミカタグンシンオンセンチョウ","town":"境","town_kana":"サカイ","prefecture_code":28},"6712":{"zip_code":"6696712","prefecture":"兵庫県","prefecture_kana":"ヒョウゴケン","city":"美方郡新温泉町","city_kana":"ミカタグンシンオンセンチョウ","town":"指杭","town_kana":"サシクイ","prefecture_code":28},"6833":{"zip_code":"6696833","prefecture":"兵庫県","prefecture_kana":"ヒョウゴケン","city":"美方郡新温泉町","city_kana":"ミカタグンシンオンセンチョウ","town":"塩山","town_kana":"シオヤマ","prefecture_code":28},"6741":{"zip_code":"6696741","prefecture":"兵庫県","prefecture_kana":"ヒョウゴケン","city":"美方郡新温泉町","city_kana":"ミカタグンシンオンセンチョウ","town":"七釜","town_kana":"シチカマ","prefecture_code":28},"6723":{"zip_code":"6696723","prefecture":"兵庫県","prefecture_kana":"ヒョウゴケン","city":"美方郡新温泉町","city_kana":"ミカタグンシンオンセンチョウ","town":"正法庵","town_kana":"ショウボウアン","prefecture_code":28},"6742":{"zip_code":"6696742","prefecture":"兵庫県","prefecture_kana":"ヒョウゴケン","city":"美方郡新温泉町","city_kana":"ミカタグンシンオンセンチョウ","town":"新市","town_kana":"シンイチ","prefecture_code":28},"6713":{"zip_code":"6696713","prefecture":"兵庫県","prefecture_kana":"ヒョウゴケン","city":"美方郡新温泉町","city_kana":"ミカタグンシンオンセンチョウ","town":"田井","town_kana":"タイ","prefecture_code":28},"6728":{"zip_code":"6696728","prefecture":"兵庫県","prefecture_kana":"ヒョウゴケン","city":"美方郡新温泉町","city_kana":"ミカタグンシンオンセンチョウ","town":"対田","town_kana":"タイタ","prefecture_code":28},"6722":{"zip_code":"6696722","prefecture":"兵庫県","prefecture_kana":"ヒョウゴケン","city":"美方郡新温泉町","city_kana":"ミカタグンシンオンセンチョウ","town":"高末","town_kana":"タカスエ","prefecture_code":28},"6761":[{"zip_code":"6696761","prefecture":"兵庫県","prefecture_kana":"ヒョウゴケン","city":"美方郡新温泉町","city_kana":"ミカタグンシンオンセンチョウ","town":"竹田後山","town_kana":"タケダウシロヤマ","prefecture_code":28},{"zip_code":"6696761","prefecture":"兵庫県","prefecture_kana":"ヒョウゴケン","city":"美方郡新温泉町","city_kana":"ミカタグンシンオンセンチョウ","town":"竹田細見谷","town_kana":"タケダホソミダニ","prefecture_code":28}],"6831":{"zip_code":"6696831","prefecture":"兵庫県","prefecture_kana":"ヒョウゴケン","city":"美方郡新温泉町","city_kana":"ミカタグンシンオンセンチョウ","town":"竹田","town_kana":"タケダ","prefecture_code":28},"6813":{"zip_code":"6696813","prefecture":"兵庫県","prefecture_kana":"ヒョウゴケン","city":"美方郡新温泉町","city_kana":"ミカタグンシンオンセンチョウ","town":"丹土","town_kana":"タンド","prefecture_code":28},"6943":{"zip_code":"6696943","prefecture":"兵庫県","prefecture_kana":"ヒョウゴケン","city":"美方郡新温泉町","city_kana":"ミカタグンシンオンセンチョウ","town":"千谷","town_kana":"チダニ","prefecture_code":28},"6941":{"zip_code":"6696941","prefecture":"兵庫県","prefecture_kana":"ヒョウゴケン","city":"美方郡新温泉町","city_kana":"ミカタグンシンオンセンチョウ","town":"千原","town_kana":"チハラ","prefecture_code":28},"6745":{"zip_code":"6696745","prefecture":"兵庫県","prefecture_kana":"ヒョウゴケン","city":"美方郡新温泉町","city_kana":"ミカタグンシンオンセンチョウ","town":"栃谷","town_kana":"トチダニ","prefecture_code":28},"6814":{"zip_code":"6696814","prefecture":"兵庫県","prefecture_kana":"ヒョウゴケン","city":"美方郡新温泉町","city_kana":"ミカタグンシンオンセンチョウ","town":"中辻","town_kana":"ナカツジ","prefecture_code":28},"6702":{"zip_code":"6696702","prefecture":"兵庫県","prefecture_kana":"ヒョウゴケン","city":"美方郡新温泉町","city_kana":"ミカタグンシンオンセンチョウ","town":"浜坂","town_kana":"ハマサカ","prefecture_code":28},"6807":{"zip_code":"6696807","prefecture":"兵庫県","prefecture_kana":"ヒョウゴケン","city":"美方郡新温泉町","city_kana":"ミカタグンシンオンセンチョウ","town":"春来","town_kana":"ハルキ","prefecture_code":28},"6806":{"zip_code":"6696806","prefecture":"兵庫県","prefecture_kana":"ヒョウゴケン","city":"美方郡新温泉町","city_kana":"ミカタグンシンオンセンチョウ","town":"桧尾","town_kana":"ヒノキオ","prefecture_code":28},"6732":{"zip_code":"6696732","prefecture":"兵庫県","prefecture_kana":"ヒョウゴケン","city":"美方郡新温泉町","city_kana":"ミカタグンシンオンセンチョウ","town":"福富","town_kana":"フクトミ","prefecture_code":28},"6725":{"zip_code":"6696725","prefecture":"兵庫県","prefecture_kana":"ヒョウゴケン","city":"美方郡新温泉町","city_kana":"ミカタグンシンオンセンチョウ","town":"藤尾","town_kana":"フジオ","prefecture_code":28},"6731":{"zip_code":"6696731","prefecture":"兵庫県","prefecture_kana":"ヒョウゴケン","city":"美方郡新温泉町","city_kana":"ミカタグンシンオンセンチョウ","town":"二日市","town_kana":"フツカイチ","prefecture_code":28},"6743":{"zip_code":"6696743","prefecture":"兵庫県","prefecture_kana":"ヒョウゴケン","city":"美方郡新温泉町","city_kana":"ミカタグンシンオンセンチョウ","town":"古市","town_kana":"フルイチ","prefecture_code":28},"6746":{"zip_code":"6696746","prefecture":"兵庫県","prefecture_kana":"ヒョウゴケン","city":"美方郡新温泉町","city_kana":"ミカタグンシンオンセンチョウ","town":"戸田","town_kana":"ヘダ","prefecture_code":28},"6724":{"zip_code":"6696724","prefecture":"兵庫県","prefecture_kana":"ヒョウゴケン","city":"美方郡新温泉町","city_kana":"ミカタグンシンオンセンチョウ","town":"辺地","town_kana":"ヘッチ","prefecture_code":28},"6822":{"zip_code":"6696822","prefecture":"兵庫県","prefecture_kana":"ヒョウゴケン","city":"美方郡新温泉町","city_kana":"ミカタグンシンオンセンチョウ","town":"細田","town_kana":"ホソダ","prefecture_code":28},"6951":{"zip_code":"6696951","prefecture":"兵庫県","prefecture_kana":"ヒョウゴケン","city":"美方郡新温泉町","city_kana":"ミカタグンシンオンセンチョウ","town":"前","town_kana":"マエ","prefecture_code":28},"6715":{"zip_code":"6696715","prefecture":"兵庫県","prefecture_kana":"ヒョウゴケン","city":"美方郡新温泉町","city_kana":"ミカタグンシンオンセンチョウ","town":"三尾","town_kana":"ミオ","prefecture_code":28},"6747":{"zip_code":"6696747","prefecture":"兵庫県","prefecture_kana":"ヒョウゴケン","city":"美方郡新温泉町","city_kana":"ミカタグンシンオンセンチョウ","town":"三谷","town_kana":"ミタニ","prefecture_code":28},"6944":{"zip_code":"6696944","prefecture":"兵庫県","prefecture_kana":"ヒョウゴケン","city":"美方郡新温泉町","city_kana":"ミカタグンシンオンセンチョウ","town":"宮脇","town_kana":"ミヤワキ","prefecture_code":28},"6753":{"zip_code":"6696753","prefecture":"兵庫県","prefecture_kana":"ヒョウゴケン","city":"美方郡新温泉町","city_kana":"ミカタグンシンオンセンチョウ","town":"諸寄","town_kana":"モロヨセ","prefecture_code":28},"6821":{"zip_code":"6696821","prefecture":"兵庫県","prefecture_kana":"ヒョウゴケン","city":"美方郡新温泉町","city_kana":"ミカタグンシンオンセンチョウ","town":"湯","town_kana":"ユ","prefecture_code":28},"6744":{"zip_code":"6696744","prefecture":"兵庫県","prefecture_kana":"ヒョウゴケン","city":"美方郡新温泉町","city_kana":"ミカタグンシンオンセンチョウ","town":"用土","town_kana":"ヨウド","prefecture_code":28},"6716":{"zip_code":"6696716","prefecture":"兵庫県","prefecture_kana":"ヒョウゴケン","city":"美方郡新温泉町","city_kana":"ミカタグンシンオンセンチョウ","town":"和田","town_kana":"ワダ","prefecture_code":28}}