{"0000":{"zip_code":"6700000","prefecture":"兵庫県","prefecture_kana":"ヒョウゴケン","city":"姫路市","city_kana":"ヒメジシ","town":"","town_kana":"","prefecture_code":28},"0934":{"zip_code":"6700934","prefecture":"兵庫県","prefecture_kana":"ヒョウゴケン","city":"姫路市","city_kana":"ヒメジシ","town":"朝日町","town_kana":"アサヒマチ","prefecture_code":28},"0944":{"zip_code":"6700944","prefecture":"兵庫県","prefecture_kana":"ヒョウゴケン","city":"姫路市","city_kana":"ヒメジシ","town":"阿保","town_kana":"アボ","prefecture_code":28},"0029":{"zip_code":"6700029","prefecture":"兵庫県","prefecture_kana":"ヒョウゴケン","city":"姫路市","city_kana":"ヒメジシ","town":"嵐山町","town_kana":"アラシヤマチョウ","prefecture_code":28},"0974":{"zip_code":"6700974","prefecture":"兵庫県","prefecture_kana":"ヒョウゴケン","city":"姫路市","city_kana":"ヒメジシ","town":"飯田","town_kana":"イイダ","prefecture_code":28},"0007":{"zip_code":"6700007","prefecture":"兵庫県","prefecture_kana":"ヒョウゴケン","city":"姫路市","city_kana":"ヒメジシ","town":"生野町","town_kana":"イクノマチ","prefecture_code":28},"0822":{"zip_code":"6700822","prefecture":"兵庫県","prefecture_kana":"ヒョウゴケン","city":"姫路市","city_kana":"ヒメジシ","town":"市川台","town_kana":"イチカワダイ","prefecture_code":28},"0825":{"zip_code":"6700825","prefecture":"兵庫県","prefecture_kana":"ヒョウゴケン","city":"姫路市","city_kana":"ヒメジシ","town":"市川橋通","town_kana":"イチカワバシドオリ","prefecture_code":28},"0943":{"zip_code":"6700943","prefecture":"兵庫県","prefecture_kana":"ヒョウゴケン","city":"姫路市","city_kana":"ヒメジシ","town":"市之郷町","town_kana":"イチノゴウチョウ","prefecture_code":28},"0871":{"zip_code":"6700871","prefecture":"兵庫県","prefecture_kana":"ヒョウゴケン","city":"姫路市","city_kana":"ヒメジシ","town":"伊伝居","town_kana":"イデイ","prefecture_code":28},"0816":{"zip_code":"6700816","prefecture":"兵庫県","prefecture_kana":"ヒョウゴケン","city":"姫路市","city_kana":"ヒメジシ","town":"威徳寺町","town_kana":"イトクジマチ","prefecture_code":28},"0983":{"zip_code":"6700983","prefecture":"兵庫県","prefecture_kana":"ヒョウゴケン","city":"姫路市","city_kana":"ヒメジシ","town":"井ノ口","town_kana":"イノグチ","prefecture_code":28},"0052":{"zip_code":"6700052","prefecture":"兵庫県","prefecture_kana":"ヒョウゴケン","city":"姫路市","city_kana":"ヒメジシ","town":"今宿","town_kana":"イマジュク","prefecture_code":28},"0028":{"zip_code":"6700028","prefecture":"兵庫県","prefecture_kana":"ヒョウゴケン","city":"姫路市","city_kana":"ヒメジシ","town":"岩端町","town_kana":"イワバナチョウ","prefecture_code":28},"0905":{"zip_code":"6700905","prefecture":"兵庫県","prefecture_kana":"ヒョウゴケン","city":"姫路市","city_kana":"ヒメジシ","town":"魚町","town_kana":"ウオマチ","prefecture_code":28},"0817":{"zip_code":"6700817","prefecture":"兵庫県","prefecture_kana":"ヒョウゴケン","city":"姫路市","city_kana":"ヒメジシ","town":"梅ケ枝町","town_kana":"ウメガエチョウ","prefecture_code":28},"0894":{"zip_code":"6700894","prefecture":"兵庫県","prefecture_kana":"ヒョウゴケン","city":"姫路市","city_kana":"ヒメジシ","town":"梅ケ谷町","town_kana":"ウメガタニチョウ","prefecture_code":28},"0927":{"zip_code":"6700927","prefecture":"兵庫県","prefecture_kana":"ヒョウゴケン","city":"姫路市","city_kana":"ヒメジシ","town":"駅前町","town_kana":"エキマエチョウ","prefecture_code":28},"0868":{"zip_code":"6700868","prefecture":"兵庫県","prefecture_kana":"ヒョウゴケン","city":"姫路市","city_kana":"ヒメジシ","town":"大野町","town_kana":"オオノマチ","prefecture_code":28},"0982":{"zip_code":"6700982","prefecture":"兵庫県","prefecture_kana":"ヒョウゴケン","city":"姫路市","city_kana":"ヒメジシ","town":"岡田","town_kana":"オカダ","prefecture_code":28},"0026":{"zip_code":"6700026","prefecture":"兵庫県","prefecture_kana":"ヒョウゴケン","city":"姫路市","city_kana":"ヒメジシ","town":"岡町","town_kana":"オカマチ","prefecture_code":28},"0037":{"zip_code":"6700037","prefecture":"兵庫県","prefecture_kana":"ヒョウゴケン","city":"姫路市","city_kana":"ヒメジシ","town":"柿山伏","town_kana":"カキヤマブシ","prefecture_code":28},"0009":{"zip_code":"6700009","prefecture":"兵庫県","prefecture_kana":"ヒョウゴケン","city":"姫路市","city_kana":"ヒメジシ","town":"鍵町","town_kana":"カギマチ","prefecture_code":28},"0002":{"zip_code":"6700002","prefecture":"兵庫県","prefecture_kana":"ヒョウゴケン","city":"姫路市","city_kana":"ヒメジシ","town":"鍛冶町","town_kana":"カジマチ","prefecture_code":28},"0045":{"zip_code":"6700045","prefecture":"兵庫県","prefecture_kana":"ヒョウゴケン","city":"姫路市","city_kana":"ヒメジシ","town":"片田町","town_kana":"カタダマチ","prefecture_code":28},"0005":{"zip_code":"6700005","prefecture":"兵庫県","prefecture_kana":"ヒョウゴケン","city":"姫路市","city_kana":"ヒメジシ","town":"金屋町","town_kana":"カナヤマチ","prefecture_code":28},"0896":{"zip_code":"6700896","prefecture":"兵庫県","prefecture_kana":"ヒョウゴケン","city":"姫路市","city_kana":"ヒメジシ","town":"上大野","town_kana":"カミオオノ","prefecture_code":28},"0041":{"zip_code":"6700041","prefecture":"兵庫県","prefecture_kana":"ヒョウゴケン","city":"姫路市","city_kana":"ヒメジシ","town":"上片町","town_kana":"カミカタマチ","prefecture_code":28},"0065":{"zip_code":"6700065","prefecture":"兵庫県","prefecture_kana":"ヒョウゴケン","city":"姫路市","city_kana":"ヒメジシ","town":"上手野","town_kana":"カミテノ","prefecture_code":28},"0836":{"zip_code":"6700836","prefecture":"兵庫県","prefecture_kana":"ヒョウゴケン","city":"姫路市","city_kana":"ヒメジシ","town":"神屋町","town_kana":"カミヤチョウ","prefecture_code":28},"0925":{"zip_code":"6700925","prefecture":"兵庫県","prefecture_kana":"ヒョウゴケン","city":"姫路市","city_kana":"ヒメジシ","town":"亀井町","town_kana":"カメイマチ","prefecture_code":28},"0973":{"zip_code":"6700973","prefecture":"兵庫県","prefecture_kana":"ヒョウゴケン","city":"姫路市","city_kana":"ヒメジシ","town":"亀山","town_kana":"カメヤマ","prefecture_code":28},"0991":{"zip_code":"6700991","prefecture":"兵庫県","prefecture_kana":"ヒョウゴケン","city":"姫路市","city_kana":"ヒメジシ","town":"神田町","town_kana":"カンダチョウ","prefecture_code":28},"0057":{"zip_code":"6700057","prefecture":"兵庫県","prefecture_kana":"ヒョウゴケン","city":"姫路市","city_kana":"ヒメジシ","town":"北今宿","town_kana":"キタイマジュク","prefecture_code":28},"0091":{"zip_code":"6700091","prefecture":"兵庫県","prefecture_kana":"ヒョウゴケン","city":"姫路市","city_kana":"ヒメジシ","town":"北新在家","town_kana":"キタシンザイケ","prefecture_code":28},"0893":{"zip_code":"6700893","prefecture":"兵庫県","prefecture_kana":"ヒョウゴケン","city":"姫路市","city_kana":"ヒメジシ","town":"北平野","town_kana":"キタヒラノ","prefecture_code":28},"0892":{"zip_code":"6700892","prefecture":"兵庫県","prefecture_kana":"ヒョウゴケン","city":"姫路市","city_kana":"ヒメジシ","town":"北平野奥垣内","town_kana":"キタヒラノオクガイチ","prefecture_code":28},"0895":{"zip_code":"6700895","prefecture":"兵庫県","prefecture_kana":"ヒョウゴケン","city":"姫路市","city_kana":"ヒメジシ","town":"北平野台町","town_kana":"キタヒラノダイチョウ","prefecture_code":28},"0887":{"zip_code":"6700887","prefecture":"兵庫県","prefecture_kana":"ヒョウゴケン","city":"姫路市","city_kana":"ヒメジシ","town":"北平野南の町","town_kana":"キタヒラノミナミノチョウ","prefecture_code":28},"0877":{"zip_code":"6700877","prefecture":"兵庫県","prefecture_kana":"ヒョウゴケン","city":"姫路市","city_kana":"ヒメジシ","town":"北八代","town_kana":"キタヤシロ","prefecture_code":28},"0075":{"zip_code":"6700075","prefecture":"兵庫県","prefecture_kana":"ヒョウゴケン","city":"姫路市","city_kana":"ヒメジシ","town":"北夢前台","town_kana":"キタユメサキダイ","prefecture_code":28},"0851":{"zip_code":"6700851","prefecture":"兵庫県","prefecture_kana":"ヒョウゴケン","city":"姫路市","city_kana":"ヒメジシ","town":"京口町","town_kana":"キョウグチマチ","prefecture_code":28},"0824":{"zip_code":"6700824","prefecture":"兵庫県","prefecture_kana":"ヒョウゴケン","city":"姫路市","city_kana":"ヒメジシ","town":"京町","town_kana":"キョウマチ","prefecture_code":28},"0826":{"zip_code":"6700826","prefecture":"兵庫県","prefecture_kana":"ヒョウゴケン","city":"姫路市","city_kana":"ヒメジシ","town":"楠町","town_kana":"クスノキチョウ","prefecture_code":28},"0916":{"zip_code":"6700916","prefecture":"兵庫県","prefecture_kana":"ヒョウゴケン","city":"姫路市","city_kana":"ヒメジシ","town":"久保町","town_kana":"クボチョウ","prefecture_code":28},"0954":{"zip_code":"6700954","prefecture":"兵庫県","prefecture_kana":"ヒョウゴケン","city":"姫路市","city_kana":"ヒメジシ","town":"栗山町","town_kana":"クリヤマチョウ","prefecture_code":28},"0058":{"zip_code":"6700058","prefecture":"兵庫県","prefecture_kana":"ヒョウゴケン","city":"姫路市","city_kana":"ヒメジシ","town":"車崎","town_kana":"クルマザキ","prefecture_code":28},"0027":{"zip_code":"6700027","prefecture":"兵庫県","prefecture_kana":"ヒョウゴケン","city":"姫路市","city_kana":"ヒメジシ","town":"景福寺前","town_kana":"ケイフクジマエ","prefecture_code":28},"0852":{"zip_code":"6700852","prefecture":"兵庫県","prefecture_kana":"ヒョウゴケン","city":"姫路市","city_kana":"ヒメジシ","town":"国府寺町","town_kana":"コオデラマチ","prefecture_code":28},"0854":{"zip_code":"6700854","prefecture":"兵庫県","prefecture_kana":"ヒョウゴケン","city":"姫路市","city_kana":"ヒメジシ","town":"五軒邸","town_kana":"ゴケンヤシキ","prefecture_code":28},"0043":{"zip_code":"6700043","prefecture":"兵庫県","prefecture_kana":"ヒョウゴケン","city":"姫路市","city_kana":"ヒメジシ","town":"小姓町","town_kana":"コショウマチ","prefecture_code":28},"0035":{"zip_code":"6700035","prefecture":"兵庫県","prefecture_kana":"ヒョウゴケン","city":"姫路市","city_kana":"ヒメジシ","town":"琴岡町","town_kana":"コトオカチョウ","prefecture_code":28},"0936":{"zip_code":"6700936","prefecture":"兵庫県","prefecture_kana":"ヒョウゴケン","city":"姫路市","city_kana":"ヒメジシ","town":"古二階町","town_kana":"コニカイマチ","prefecture_code":28},"0001":{"zip_code":"6700001","prefecture":"兵庫県","prefecture_kana":"ヒョウゴケン","city":"姫路市","city_kana":"ヒメジシ","town":"河間町","town_kana":"コバサマチョウ","prefecture_code":28},"0003":{"zip_code":"6700003","prefecture":"兵庫県","prefecture_kana":"ヒョウゴケン","city":"姫路市","city_kana":"ヒメジシ","town":"米屋町","town_kana":"コメヤマチ","prefecture_code":28},"0022":{"zip_code":"6700022","prefecture":"兵庫県","prefecture_kana":"ヒョウゴケン","city":"姫路市","city_kana":"ヒメジシ","town":"小利木町","town_kana":"コリキマチ","prefecture_code":28},"0924":{"zip_code":"6700924","prefecture":"兵庫県","prefecture_kana":"ヒョウゴケン","city":"姫路市","city_kana":"ヒメジシ","town":"紺屋町","town_kana":"コンヤマチ","prefecture_code":28},"0923":{"zip_code":"6700923","prefecture":"兵庫県","prefecture_kana":"ヒョウゴケン","city":"姫路市","city_kana":"ヒメジシ","town":"呉服町","town_kana":"ゴフクマチ","prefecture_code":28},"0857":{"zip_code":"6700857","prefecture":"兵庫県","prefecture_kana":"ヒョウゴケン","city":"姫路市","city_kana":"ヒメジシ","town":"五郎右衛門邸","town_kana":"ゴロウエモンテイ","prefecture_code":28},"0981":{"zip_code":"6700981","prefecture":"兵庫県","prefecture_kana":"ヒョウゴケン","city":"姫路市","city_kana":"ヒメジシ","town":"西庄","town_kana":"サイショウ","prefecture_code":28},"0025":{"zip_code":"6700025","prefecture":"兵庫県","prefecture_kana":"ヒョウゴケン","city":"姫路市","city_kana":"ヒメジシ","town":"材木町","town_kana":"ザイモクマチ","prefecture_code":28},"0835":{"zip_code":"6700835","prefecture":"兵庫県","prefecture_kana":"ヒョウゴケン","city":"姫路市","city_kana":"ヒメジシ","town":"幸町","town_kana":"サイワイチョウ","prefecture_code":28},"0014":{"zip_code":"6700014","prefecture":"兵庫県","prefecture_kana":"ヒョウゴケン","city":"姫路市","city_kana":"ヒメジシ","town":"堺町","town_kana":"サカイマチ","prefecture_code":28},"0931":{"zip_code":"6700931","prefecture":"兵庫県","prefecture_kana":"ヒョウゴケン","city":"姫路市","city_kana":"ヒメジシ","town":"坂田町","town_kana":"サカタマチ","prefecture_code":28},"0016":{"zip_code":"6700016","prefecture":"兵庫県","prefecture_kana":"ヒョウゴケン","city":"姫路市","city_kana":"ヒメジシ","town":"坂元町","town_kana":"サカモトマチ","prefecture_code":28},"0994":{"zip_code":"6700994","prefecture":"兵庫県","prefecture_kana":"ヒョウゴケン","city":"姫路市","city_kana":"ヒメジシ","town":"定元町","town_kana":"サダモトマチ","prefecture_code":28},"0940":{"zip_code":"6700940","prefecture":"兵庫県","prefecture_kana":"ヒョウゴケン","city":"姫路市","city_kana":"ヒメジシ","town":"三左衛門堀西の町","town_kana":"サンザエモンボリニシノマチ","prefecture_code":28},"0949":{"zip_code":"6700949","prefecture":"兵庫県","prefecture_kana":"ヒョウゴケン","city":"姫路市","city_kana":"ヒメジシ","town":"三左衛門堀東の町","town_kana":"サンザエモンボリヒガシノマチ","prefecture_code":28},"0953":{"zip_code":"6700953","prefecture":"兵庫県","prefecture_kana":"ヒョウゴケン","city":"姫路市","city_kana":"ヒメジシ","town":"三条町","town_kana":"サンジョウチョウ","prefecture_code":28},"0904":{"zip_code":"6700904","prefecture":"兵庫県","prefecture_kana":"ヒョウゴケン","city":"姫路市","city_kana":"ヒメジシ","town":"塩町","town_kana":"シオマチ","prefecture_code":28},"0044":{"zip_code":"6700044","prefecture":"兵庫県","prefecture_kana":"ヒョウゴケン","city":"姫路市","city_kana":"ヒメジシ","town":"地内町","town_kana":"ジナイマチ","prefecture_code":28},"0046":{"zip_code":"6700046","prefecture":"兵庫県","prefecture_kana":"ヒョウゴケン","city":"姫路市","city_kana":"ヒメジシ","town":"東雲町","town_kana":"シノノメチョウ","prefecture_code":28},"0917":{"zip_code":"6700917","prefecture":"兵庫県","prefecture_kana":"ヒョウゴケン","city":"姫路市","city_kana":"ヒメジシ","town":"忍町","town_kana":"シノブマチ","prefecture_code":28},"0063":{"zip_code":"6700063","prefecture":"兵庫県","prefecture_kana":"ヒョウゴケン","city":"姫路市","city_kana":"ヒメジシ","town":"下手野","town_kana":"シモテノ","prefecture_code":28},"0932":{"zip_code":"6700932","prefecture":"兵庫県","prefecture_kana":"ヒョウゴケン","city":"姫路市","city_kana":"ヒメジシ","town":"下寺町","town_kana":"シモデラマチ","prefecture_code":28},"0911":{"zip_code":"6700911","prefecture":"兵庫県","prefecture_kana":"ヒョウゴケン","city":"姫路市","city_kana":"ヒメジシ","town":"十二所前町","town_kana":"ジュウニショマエチョウ","prefecture_code":28},"0951":{"zip_code":"6700951","prefecture":"兵庫県","prefecture_kana":"ヒョウゴケン","city":"姫路市","city_kana":"ヒメジシ","town":"庄田","town_kana":"ショウダ","prefecture_code":28},"0841":{"zip_code":"6700841","prefecture":"兵庫県","prefecture_kana":"ヒョウゴケン","city":"姫路市","city_kana":"ヒメジシ","town":"城東町","town_kana":"ジョウトウマチ","prefecture_code":28},"0845":{"zip_code":"6700845","prefecture":"兵庫県","prefecture_kana":"ヒョウゴケン","city":"姫路市","city_kana":"ヒメジシ","town":"城東町京口台","town_kana":"ジョウトウマチキョウグチダイ","prefecture_code":28},"0849":{"zip_code":"6700849","prefecture":"兵庫県","prefecture_kana":"ヒョウゴケン","city":"姫路市","city_kana":"ヒメジシ","town":"城東町五軒屋","town_kana":"ジョウトウマチゴケンヤ","prefecture_code":28},"0843":{"zip_code":"6700843","prefecture":"兵庫県","prefecture_kana":"ヒョウゴケン","city":"姫路市","city_kana":"ヒメジシ","town":"城東町清水","town_kana":"ジョウトウマチシミズ","prefecture_code":28},"0848":{"zip_code":"6700848","prefecture":"兵庫県","prefecture_kana":"ヒョウゴケン","city":"姫路市","city_kana":"ヒメジシ","town":"城東町竹之門","town_kana":"ジョウトウマチタケノモン","prefecture_code":28},"0847":{"zip_code":"6700847","prefecture":"兵庫県","prefecture_kana":"ヒョウゴケン","city":"姫路市","city_kana":"ヒメジシ","town":"城東町中河原","town_kana":"ジョウトウマチナカガワラ","prefecture_code":28},"0844":{"zip_code":"6700844","prefecture":"兵庫県","prefecture_kana":"ヒョウゴケン","city":"姫路市","city_kana":"ヒメジシ","town":"城東町野田","town_kana":"ジョウトウマチノダ","prefecture_code":28},"0842":{"zip_code":"6700842","prefecture":"兵庫県","prefecture_kana":"ヒョウゴケン","city":"姫路市","city_kana":"ヒメジシ","town":"城東町毘沙門","town_kana":"ジョウトウマチビシャモン","prefecture_code":28},"0883":{"zip_code":"6700883","prefecture":"兵庫県","prefecture_kana":"ヒョウゴケン","city":"姫路市","city_kana":"ヒメジシ","town":"城北新町","town_kana":"ジョウホクシンマチ","prefecture_code":28},"0884":{"zip_code":"6700884","prefecture":"兵庫県","prefecture_kana":"ヒョウゴケン","city":"姫路市","city_kana":"ヒメジシ","town":"城北本町","town_kana":"ジョウホクホンチョウ","prefecture_code":28},"0808":{"zip_code":"6700808","prefecture":"兵庫県","prefecture_kana":"ヒョウゴケン","city":"姫路市","city_kana":"ヒメジシ","town":"白国","town_kana":"シラクニ","prefecture_code":28},"0902":{"zip_code":"6700902","prefecture":"兵庫県","prefecture_kana":"ヒョウゴケン","city":"姫路市","city_kana":"ヒメジシ","town":"白銀町","town_kana":"シロガネマチ","prefecture_code":28},"0803":{"zip_code":"6700803","prefecture":"兵庫県","prefecture_kana":"ヒョウゴケン","city":"姫路市","city_kana":"ヒメジシ","town":"城見台","town_kana":"シロミダイ","prefecture_code":28},"0831":{"zip_code":"6700831","prefecture":"兵庫県","prefecture_kana":"ヒョウゴケン","city":"姫路市","city_kana":"ヒメジシ","town":"城見町","town_kana":"シロミチョウ","prefecture_code":28},"0095":{"zip_code":"6700095","prefecture":"兵庫県","prefecture_kana":"ヒョウゴケン","city":"姫路市","city_kana":"ヒメジシ","town":"新在家","town_kana":"シンザイケ","prefecture_code":28},"0094":{"zip_code":"6700094","prefecture":"兵庫県","prefecture_kana":"ヒョウゴケン","city":"姫路市","city_kana":"ヒメジシ","town":"新在家中の町","town_kana":"シンザイケナカノチョウ","prefecture_code":28},"0092":{"zip_code":"6700092","prefecture":"兵庫県","prefecture_kana":"ヒョウゴケン","city":"姫路市","city_kana":"ヒメジシ","town":"新在家本町","town_kana":"シンザイケホンチョウ","prefecture_code":28},"0834":{"zip_code":"6700834","prefecture":"兵庫県","prefecture_kana":"ヒョウゴケン","city":"姫路市","city_kana":"ヒメジシ","town":"神和町","town_kana":"シンワチョウ","prefecture_code":28},"0015":{"zip_code":"6700015","prefecture":"兵庫県","prefecture_kana":"ヒョウゴケン","city":"姫路市","city_kana":"ヒメジシ","town":"総社本町","town_kana":"ソウシャホンマチ","prefecture_code":28},"0853":{"zip_code":"6700853","prefecture":"兵庫県","prefecture_kana":"ヒョウゴケン","city":"姫路市","city_kana":"ヒメジシ","town":"大黒壱丁町","town_kana":"ダイコクイッチョウマチ","prefecture_code":28},"0898":{"zip_code":"6700898","prefecture":"兵庫県","prefecture_kana":"ヒョウゴケン","city":"姫路市","city_kana":"ヒメジシ","town":"大寿台","town_kana":"ダイジュダイ","prefecture_code":28},"0833":{"zip_code":"6700833","prefecture":"兵庫県","prefecture_kana":"ヒョウゴケン","city":"姫路市","city_kana":"ヒメジシ","town":"大善町","town_kana":"ダイゼンチョウ","prefecture_code":28},"0062":{"zip_code":"6700062","prefecture":"兵庫県","prefecture_kana":"ヒョウゴケン","city":"姫路市","city_kana":"ヒメジシ","town":"高岡新町","town_kana":"タカオカシンマチ","prefecture_code":28},"0915":{"zip_code":"6700915","prefecture":"兵庫県","prefecture_kana":"ヒョウゴケン","city":"姫路市","city_kana":"ヒメジシ","town":"高尾町","town_kana":"タカオチョウ","prefecture_code":28},"0024":{"zip_code":"6700024","prefecture":"兵庫県","prefecture_kana":"ヒョウゴケン","city":"姫路市","city_kana":"ヒメジシ","town":"鷹匠町","town_kana":"タカジョウチョウ","prefecture_code":28},"0013":{"zip_code":"6700013","prefecture":"兵庫県","prefecture_kana":"ヒョウゴケン","city":"姫路市","city_kana":"ヒメジシ","town":"竹田町","town_kana":"タケダマチ","prefecture_code":28},"0032":{"zip_code":"6700032","prefecture":"兵庫県","prefecture_kana":"ヒョウゴケン","city":"姫路市","city_kana":"ヒメジシ","town":"龍野町","town_kana":"タツノマチ","prefecture_code":28},"0903":{"zip_code":"6700903","prefecture":"兵庫県","prefecture_kana":"ヒョウゴケン","city":"姫路市","city_kana":"ヒメジシ","town":"立町","town_kana":"タテマチ","prefecture_code":28},"0086":{"zip_code":"6700086","prefecture":"兵庫県","prefecture_kana":"ヒョウゴケン","city":"姫路市","city_kana":"ヒメジシ","town":"田寺","town_kana":"タデラ","prefecture_code":28},"0082":{"zip_code":"6700082","prefecture":"兵庫県","prefecture_kana":"ヒョウゴケン","city":"姫路市","city_kana":"ヒメジシ","town":"田寺山手町","town_kana":"タデラヤマテチョウ","prefecture_code":28},"0081":{"zip_code":"6700081","prefecture":"兵庫県","prefecture_kana":"ヒョウゴケン","city":"姫路市","city_kana":"ヒメジシ","town":"田寺東","town_kana":"タデラヒガシ","prefecture_code":28},"0985":{"zip_code":"6700985","prefecture":"兵庫県","prefecture_kana":"ヒョウゴケン","city":"姫路市","city_kana":"ヒメジシ","town":"玉手","town_kana":"タマテ","prefecture_code":28},"0976":{"zip_code":"6700976","prefecture":"兵庫県","prefecture_kana":"ヒョウゴケン","city":"姫路市","city_kana":"ヒメジシ","town":"中地","town_kana":"チュウジ","prefecture_code":28},"0975":{"zip_code":"6700975","prefecture":"兵庫県","prefecture_kana":"ヒョウゴケン","city":"姫路市","city_kana":"ヒメジシ","town":"中地南町","town_kana":"チュウジミナミノチョウ","prefecture_code":28},"0984":{"zip_code":"6700984","prefecture":"兵庫県","prefecture_kana":"ヒョウゴケン","city":"姫路市","city_kana":"ヒメジシ","town":"町坪","town_kana":"チョウノツボ","prefecture_code":28},"0989":{"zip_code":"6700989","prefecture":"兵庫県","prefecture_kana":"ヒョウゴケン","city":"姫路市","city_kana":"ヒメジシ","town":"町坪南町","town_kana":"チョウノツボミナミマチ","prefecture_code":28},"0993":{"zip_code":"6700993","prefecture":"兵庫県","prefecture_kana":"ヒョウゴケン","city":"姫路市","city_kana":"ヒメジシ","town":"千代田町","town_kana":"チヨダマチ","prefecture_code":28},"0083":{"zip_code":"6700083","prefecture":"兵庫県","prefecture_kana":"ヒョウゴケン","city":"姫路市","city_kana":"ヒメジシ","town":"辻井","town_kana":"ツジイ","prefecture_code":28},"0996":{"zip_code":"6700996","prefecture":"兵庫県","prefecture_kana":"ヒョウゴケン","city":"姫路市","city_kana":"ヒメジシ","town":"土山","town_kana":"ツチヤマ","prefecture_code":28},"0995":{"zip_code":"6700995","prefecture":"兵庫県","prefecture_kana":"ヒョウゴケン","city":"姫路市","city_kana":"ヒメジシ","town":"土山東の町","town_kana":"ツチヤマヒガシノチョウ","prefecture_code":28},"0972":{"zip_code":"6700972","prefecture":"兵庫県","prefecture_kana":"ヒョウゴケン","city":"姫路市","city_kana":"ヒメジシ","town":"手柄","town_kana":"テガラ","prefecture_code":28},"0846":{"zip_code":"6700846","prefecture":"兵庫県","prefecture_kana":"ヒョウゴケン","city":"姫路市","city_kana":"ヒメジシ","town":"天神町","town_kana":"テンジンマチ","prefecture_code":28},"0821":{"zip_code":"6700821","prefecture":"兵庫県","prefecture_kana":"ヒョウゴケン","city":"姫路市","city_kana":"ヒメジシ","town":"東郷町","town_kana":"トウゴウチョウ","prefecture_code":28},"0856":{"zip_code":"6700856","prefecture":"兵庫県","prefecture_kana":"ヒョウゴケン","city":"姫路市","city_kana":"ヒメジシ","town":"同心町","town_kana":"ドウシンマチ","prefecture_code":28},"0914":{"zip_code":"6700914","prefecture":"兵庫県","prefecture_kana":"ヒョウゴケン","city":"姫路市","city_kana":"ヒメジシ","town":"豆腐町","town_kana":"トウフマチ","prefecture_code":28},"0802":{"zip_code":"6700802","prefecture":"兵庫県","prefecture_kana":"ヒョウゴケン","city":"姫路市","city_kana":"ヒメジシ","town":"砥堀","town_kana":"トホリ","prefecture_code":28},"0986":{"zip_code":"6700986","prefecture":"兵庫県","prefecture_kana":"ヒョウゴケン","city":"姫路市","city_kana":"ヒメジシ","town":"苫編","town_kana":"トマミ","prefecture_code":28},"0987":{"zip_code":"6700987","prefecture":"兵庫県","prefecture_kana":"ヒョウゴケン","city":"姫路市","city_kana":"ヒメジシ","town":"苫編南","town_kana":"トマミミナミ","prefecture_code":28},"0964":{"zip_code":"6700964","prefecture":"兵庫県","prefecture_kana":"ヒョウゴケン","city":"姫路市","city_kana":"ヒメジシ","town":"豊沢町","town_kana":"トヨザワチョウ","prefecture_code":28},"0051":{"zip_code":"6700051","prefecture":"兵庫県","prefecture_kana":"ヒョウゴケン","city":"姫路市","city_kana":"ヒメジシ","town":"名古山町","town_kana":"ナゴヤマチョウ","prefecture_code":28},"0952":{"zip_code":"6700952","prefecture":"兵庫県","prefecture_kana":"ヒョウゴケン","city":"姫路市","city_kana":"ヒメジシ","town":"南条","town_kana":"ナンジョウ","prefecture_code":28},"0922":{"zip_code":"6700922","prefecture":"兵庫県","prefecture_kana":"ヒョウゴケン","city":"姫路市","city_kana":"ヒメジシ","town":"二階町","town_kana":"ニカイマチ","prefecture_code":28},"0061":{"zip_code":"6700061","prefecture":"兵庫県","prefecture_kana":"ヒョウゴケン","city":"姫路市","city_kana":"ヒメジシ","town":"西今宿","town_kana":"ニシイマジュク","prefecture_code":28},"0913":{"zip_code":"6700913","prefecture":"兵庫県","prefecture_kana":"ヒョウゴケン","city":"姫路市","city_kana":"ヒメジシ","town":"西駅前町","town_kana":"ニシエキマエチョウ","prefecture_code":28},"0096":{"zip_code":"6700096","prefecture":"兵庫県","prefecture_kana":"ヒョウゴケン","city":"姫路市","city_kana":"ヒメジシ","town":"西新在家","town_kana":"ニシシンザイケ","prefecture_code":28},"0033":{"zip_code":"6700033","prefecture":"兵庫県","prefecture_kana":"ヒョウゴケン","city":"姫路市","city_kana":"ヒメジシ","town":"西新町","town_kana":"ニシシンマチ","prefecture_code":28},"0897":{"zip_code":"6700897","prefecture":"兵庫県","prefecture_kana":"ヒョウゴケン","city":"姫路市","city_kana":"ヒメジシ","town":"西大寿台","town_kana":"ニシダイジュダイ","prefecture_code":28},"0805":{"zip_code":"6700805","prefecture":"兵庫県","prefecture_kana":"ヒョウゴケン","city":"姫路市","city_kana":"ヒメジシ","town":"西中島","town_kana":"ニシナカジマ","prefecture_code":28},"0901":{"zip_code":"6700901","prefecture":"兵庫県","prefecture_kana":"ヒョウゴケン","city":"姫路市","city_kana":"ヒメジシ","town":"西二階町","town_kana":"ニシニカイマチ","prefecture_code":28},"0971":{"zip_code":"6700971","prefecture":"兵庫県","prefecture_kana":"ヒョウゴケン","city":"姫路市","city_kana":"ヒメジシ","town":"西延末","town_kana":"ニシノブスエ","prefecture_code":28},"0876":{"zip_code":"6700876","prefecture":"兵庫県","prefecture_kana":"ヒョウゴケン","city":"姫路市","city_kana":"ヒメジシ","town":"西八代町","town_kana":"ニシヤシロチョウ","prefecture_code":28},"0801":{"zip_code":"6700801","prefecture":"兵庫県","prefecture_kana":"ヒョウゴケン","city":"姫路市","city_kana":"ヒメジシ","town":"仁豊野","town_kana":"ニブノ","prefecture_code":28},"0038":{"zip_code":"6700038","prefecture":"兵庫県","prefecture_kana":"ヒョウゴケン","city":"姫路市","city_kana":"ヒメジシ","town":"農人町","town_kana":"ノウニンマチ","prefecture_code":28},"0961":{"zip_code":"6700961","prefecture":"兵庫県","prefecture_kana":"ヒョウゴケン","city":"姫路市","city_kana":"ヒメジシ","town":"南畝町","town_kana":"ノウネンチョウ","prefecture_code":28},"0811":{"zip_code":"6700811","prefecture":"兵庫県","prefecture_kana":"ヒョウゴケン","city":"姫路市","city_kana":"ヒメジシ","town":"野里","town_kana":"ノザト","prefecture_code":28},"0814":{"zip_code":"6700814","prefecture":"兵庫県","prefecture_kana":"ヒョウゴケン","city":"姫路市","city_kana":"ヒメジシ","town":"野里上野町","town_kana":"ノザトウエノチョウ","prefecture_code":28},"0813":{"zip_code":"6700813","prefecture":"兵庫県","prefecture_kana":"ヒョウゴケン","city":"姫路市","city_kana":"ヒメジシ","town":"野里慶雲寺前町","town_kana":"ノザトケイウンジマエチョウ","prefecture_code":28},"0862":{"zip_code":"6700862","prefecture":"兵庫県","prefecture_kana":"ヒョウゴケン","city":"姫路市","city_kana":"ヒメジシ","town":"野里新町","town_kana":"ノザトシンマチ","prefecture_code":28},"0815":{"zip_code":"6700815","prefecture":"兵庫県","prefecture_kana":"ヒョウゴケン","city":"姫路市","city_kana":"ヒメジシ","town":"野里大和町","town_kana":"ノザトダイワマチ","prefecture_code":28},"0865":{"zip_code":"6700865","prefecture":"兵庫県","prefecture_kana":"ヒョウゴケン","city":"姫路市","city_kana":"ヒメジシ","town":"野里月丘町","town_kana":"ノザトツキオカマチ","prefecture_code":28},"0867":{"zip_code":"6700867","prefecture":"兵庫県","prefecture_kana":"ヒョウゴケン","city":"姫路市","city_kana":"ヒメジシ","town":"野里寺町","town_kana":"ノザトテラマチ","prefecture_code":28},"0864":{"zip_code":"6700864","prefecture":"兵庫県","prefecture_kana":"ヒョウゴケン","city":"姫路市","city_kana":"ヒメジシ","town":"野里中町","town_kana":"ノザトナカマチ","prefecture_code":28},"0863":{"zip_code":"6700863","prefecture":"兵庫県","prefecture_kana":"ヒョウゴケン","city":"姫路市","city_kana":"ヒメジシ","town":"野里東同心町","town_kana":"ノザトヒガシドウシンマチ","prefecture_code":28},"0861":{"zip_code":"6700861","prefecture":"兵庫県","prefecture_kana":"ヒョウゴケン","city":"姫路市","city_kana":"ヒメジシ","town":"野里東町","town_kana":"ノザトヒガシマチ","prefecture_code":28},"0866":{"zip_code":"6700866","prefecture":"兵庫県","prefecture_kana":"ヒョウゴケン","city":"姫路市","city_kana":"ヒメジシ","town":"野里堀留町","town_kana":"ノザトホリドメマチ","prefecture_code":28},"0966":{"zip_code":"6700966","prefecture":"兵庫県","prefecture_kana":"ヒョウゴケン","city":"姫路市","city_kana":"ヒメジシ","town":"延末","town_kana":"ノブスエ","prefecture_code":28},"0906":{"zip_code":"6700906","prefecture":"兵庫県","prefecture_kana":"ヒョウゴケン","city":"姫路市","city_kana":"ヒメジシ","town":"博労町","town_kana":"バクロウマチ","prefecture_code":28},"0008":{"zip_code":"6700008","prefecture":"兵庫県","prefecture_kana":"ヒョウゴケン","city":"姫路市","city_kana":"ヒメジシ","town":"橋之町","town_kana":"ハシノマチ","prefecture_code":28},"0047":{"zip_code":"6700047","prefecture":"兵庫県","prefecture_kana":"ヒョウゴケン","city":"姫路市","city_kana":"ヒメジシ","town":"花影町","town_kana":"ハナカゲチョウ","prefecture_code":28},"0056":{"zip_code":"6700056","prefecture":"兵庫県","prefecture_kana":"ヒョウゴケン","city":"姫路市","city_kana":"ヒメジシ","town":"東今宿","town_kana":"ヒガシイマジュク","prefecture_code":28},"0926":{"zip_code":"6700926","prefecture":"兵庫県","prefecture_kana":"ヒョウゴケン","city":"姫路市","city_kana":"ヒメジシ","town":"東駅前町","town_kana":"ヒガシエキマエチョウ","prefecture_code":28},"0084":{"zip_code":"6700084","prefecture":"兵庫県","prefecture_kana":"ヒョウゴケン","city":"姫路市","city_kana":"ヒメジシ","town":"東辻井","town_kana":"ヒガシツジイ","prefecture_code":28},"0965":{"zip_code":"6700965","prefecture":"兵庫県","prefecture_kana":"ヒョウゴケン","city":"姫路市","city_kana":"ヒメジシ","town":"東延末","town_kana":"ヒガシノブスエ","prefecture_code":28},"0064":{"zip_code":"6700064","prefecture":"兵庫県","prefecture_kana":"ヒョウゴケン","city":"姫路市","city_kana":"ヒメジシ","town":"東夢前台","town_kana":"ヒガシユメサキダイ","prefecture_code":28},"0942":{"zip_code":"6700942","prefecture":"兵庫県","prefecture_kana":"ヒョウゴケン","city":"姫路市","city_kana":"ヒメジシ","town":"日出町","town_kana":"ヒノデチョウ","prefecture_code":28},"0933":{"zip_code":"6700933","prefecture":"兵庫県","prefecture_kana":"ヒョウゴケン","city":"姫路市","city_kana":"ヒメジシ","town":"平野町","town_kana":"ヒラノマチ","prefecture_code":28},"0882":{"zip_code":"6700882","prefecture":"兵庫県","prefecture_kana":"ヒョウゴケン","city":"姫路市","city_kana":"ヒメジシ","town":"広峰","town_kana":"ヒロミネ","prefecture_code":28},"0891":{"zip_code":"6700891","prefecture":"兵庫県","prefecture_kana":"ヒョウゴケン","city":"姫路市","city_kana":"ヒメジシ","town":"広嶺山","town_kana":"ヒロミネヤマ","prefecture_code":28},"0855":{"zip_code":"6700855","prefecture":"兵庫県","prefecture_kana":"ヒョウゴケン","city":"姫路市","city_kana":"ヒメジシ","town":"福居町","town_kana":"フクイマチ","prefecture_code":28},"0992":{"zip_code":"6700992","prefecture":"兵庫県","prefecture_kana":"ヒョウゴケン","city":"姫路市","city_kana":"ヒメジシ","town":"福沢町","town_kana":"フクザワチョウ","prefecture_code":28},"0017":{"zip_code":"6700017","prefecture":"兵庫県","prefecture_kana":"ヒョウゴケン","city":"姫路市","city_kana":"ヒメジシ","town":"福中町","town_kana":"フクナカマチ","prefecture_code":28},"0004":{"zip_code":"6700004","prefecture":"兵庫県","prefecture_kana":"ヒョウゴケン","city":"姫路市","city_kana":"ヒメジシ","town":"福本町","town_kana":"フクモトマチ","prefecture_code":28},"0066":{"zip_code":"6700066","prefecture":"兵庫県","prefecture_kana":"ヒョウゴケン","city":"姫路市","city_kana":"ヒメジシ","town":"藤ケ台","town_kana":"フジガダイ","prefecture_code":28},"0832":{"zip_code":"6700832","prefecture":"兵庫県","prefecture_kana":"ヒョウゴケン","city":"姫路市","city_kana":"ヒメジシ","town":"双葉町","town_kana":"フタバチョウ","prefecture_code":28},"0034":{"zip_code":"6700034","prefecture":"兵庫県","prefecture_kana":"ヒョウゴケン","city":"姫路市","city_kana":"ヒメジシ","town":"船丘町","town_kana":"フナオカチョウ","prefecture_code":28},"0048":{"zip_code":"6700048","prefecture":"兵庫県","prefecture_kana":"ヒョウゴケン","city":"姫路市","city_kana":"ヒメジシ","town":"船橋町","town_kana":"フナハシチョウ","prefecture_code":28},"0947":{"zip_code":"6700947","prefecture":"兵庫県","prefecture_kana":"ヒョウゴケン","city":"姫路市","city_kana":"ヒメジシ","town":"北条","town_kana":"ホウジョウ","prefecture_code":28},"0945":{"zip_code":"6700945","prefecture":"兵庫県","prefecture_kana":"ヒョウゴケン","city":"姫路市","city_kana":"ヒメジシ","town":"北条梅原町","town_kana":"ホウジョウウメハラチョウ","prefecture_code":28},"0946":{"zip_code":"6700946","prefecture":"兵庫県","prefecture_kana":"ヒョウゴケン","city":"姫路市","city_kana":"ヒメジシ","town":"北条永良町","town_kana":"ホウジョウナガラチョウ","prefecture_code":28},"0948":{"zip_code":"6700948","prefecture":"兵庫県","prefecture_kana":"ヒョウゴケン","city":"姫路市","city_kana":"ヒメジシ","town":"北条宮の町","town_kana":"ホウジョウミヤノマチ","prefecture_code":28},"0935":{"zip_code":"6700935","prefecture":"兵庫県","prefecture_kana":"ヒョウゴケン","city":"姫路市","city_kana":"ヒメジシ","town":"北条口","town_kana":"ホウジョウグチ","prefecture_code":28},"0804":{"zip_code":"6700804","prefecture":"兵庫県","prefecture_kana":"ヒョウゴケン","city":"姫路市","city_kana":"ヒメジシ","town":"保城","town_kana":"ホウシロ","prefecture_code":28},"0011":{"zip_code":"6700011","prefecture":"兵庫県","prefecture_kana":"ヒョウゴケン","city":"姫路市","city_kana":"ヒメジシ","town":"坊主町","town_kana":"ボウズマチ","prefecture_code":28},"0881":{"zip_code":"6700881","prefecture":"兵庫県","prefecture_kana":"ヒョウゴケン","city":"姫路市","city_kana":"ヒメジシ","town":"峰南町","town_kana":"ホウナンチョウ","prefecture_code":28},"0012":{"zip_code":"6700012","prefecture":"兵庫県","prefecture_kana":"ヒョウゴケン","city":"姫路市","city_kana":"ヒメジシ","town":"本町","town_kana":"ホンマチ","prefecture_code":28},"0806":{"zip_code":"6700806","prefecture":"兵庫県","prefecture_kana":"ヒョウゴケン","city":"姫路市","city_kana":"ヒメジシ","town":"増位新町","town_kana":"マスイシンマチ","prefecture_code":28},"0807":{"zip_code":"6700807","prefecture":"兵庫県","prefecture_kana":"ヒョウゴケン","city":"姫路市","city_kana":"ヒメジシ","town":"増位本町","town_kana":"マスイホンマチ","prefecture_code":28},"0827":{"zip_code":"6700827","prefecture":"兵庫県","prefecture_kana":"ヒョウゴケン","city":"姫路市","city_kana":"ヒメジシ","town":"丸尾町","town_kana":"マルオチョウ","prefecture_code":28},"0055":{"zip_code":"6700055","prefecture":"兵庫県","prefecture_kana":"ヒョウゴケン","city":"姫路市","city_kana":"ヒメジシ","town":"神子岡前","town_kana":"ミコオカマエ","prefecture_code":28},"0073":{"zip_code":"6700073","prefecture":"兵庫県","prefecture_kana":"ヒョウゴケン","city":"姫路市","city_kana":"ヒメジシ","town":"御立中","town_kana":"ミタチナカ","prefecture_code":28},"0072":{"zip_code":"6700072","prefecture":"兵庫県","prefecture_kana":"ヒョウゴケン","city":"姫路市","city_kana":"ヒメジシ","town":"御立東","town_kana":"ミタチヒガシ","prefecture_code":28},"0074":{"zip_code":"6700074","prefecture":"兵庫県","prefecture_kana":"ヒョウゴケン","city":"姫路市","city_kana":"ヒメジシ","town":"御立西","town_kana":"ミタチニシ","prefecture_code":28},"0071":{"zip_code":"6700071","prefecture":"兵庫県","prefecture_kana":"ヒョウゴケン","city":"姫路市","city_kana":"ヒメジシ","town":"御立北","town_kana":"ミタチキタ","prefecture_code":28},"0054":{"zip_code":"6700054","prefecture":"兵庫県","prefecture_kana":"ヒョウゴケン","city":"姫路市","city_kana":"ヒメジシ","town":"南今宿","town_kana":"ミナミイマジュク","prefecture_code":28},"0962":{"zip_code":"6700962","prefecture":"兵庫県","prefecture_kana":"ヒョウゴケン","city":"姫路市","city_kana":"ヒメジシ","town":"南駅前町","town_kana":"ミナミエキマエチョウ","prefecture_code":28},"0053":{"zip_code":"6700053","prefecture":"兵庫県","prefecture_kana":"ヒョウゴケン","city":"姫路市","city_kana":"ヒメジシ","town":"南車崎","town_kana":"ミナミクルマザキ","prefecture_code":28},"0093":{"zip_code":"6700093","prefecture":"兵庫県","prefecture_kana":"ヒョウゴケン","city":"姫路市","city_kana":"ヒメジシ","town":"南新在家","town_kana":"ミナミシンザイケ","prefecture_code":28},"0912":{"zip_code":"6700912","prefecture":"兵庫県","prefecture_kana":"ヒョウゴケン","city":"姫路市","city_kana":"ヒメジシ","town":"南町","town_kana":"ミナミマチ","prefecture_code":28},"0875":{"zip_code":"6700875","prefecture":"兵庫県","prefecture_kana":"ヒョウゴケン","city":"姫路市","city_kana":"ヒメジシ","town":"南八代町","town_kana":"ミナミヤシロチョウ","prefecture_code":28},"0823":{"zip_code":"6700823","prefecture":"兵庫県","prefecture_kana":"ヒョウゴケン","city":"姫路市","city_kana":"ヒメジシ","town":"宮上町","town_kana":"ミヤウエチョウ","prefecture_code":28},"0837":{"zip_code":"6700837","prefecture":"兵庫県","prefecture_kana":"ヒョウゴケン","city":"姫路市","city_kana":"ヒメジシ","town":"宮西町","town_kana":"ミヤニシチョウ","prefecture_code":28},"0812":{"zip_code":"6700812","prefecture":"兵庫県","prefecture_kana":"ヒョウゴケン","city":"姫路市","city_kana":"ヒメジシ","town":"睦町","town_kana":"ムツミチョウ","prefecture_code":28},"0937":{"zip_code":"6700937","prefecture":"兵庫県","prefecture_kana":"ヒョウゴケン","city":"姫路市","city_kana":"ヒメジシ","town":"元塩町","town_kana":"モトシオマチ","prefecture_code":28},"0049":{"zip_code":"6700049","prefecture":"兵庫県","prefecture_kana":"ヒョウゴケン","city":"姫路市","city_kana":"ヒメジシ","town":"元町","town_kana":"モトマチ","prefecture_code":28},"0006":{"zip_code":"6700006","prefecture":"兵庫県","prefecture_kana":"ヒョウゴケン","city":"姫路市","city_kana":"ヒメジシ","town":"八木町","town_kana":"ヤギマチ","prefecture_code":28},"0872":{"zip_code":"6700872","prefecture":"兵庫県","prefecture_kana":"ヒョウゴケン","city":"姫路市","city_kana":"ヒメジシ","town":"八代","town_kana":"ヤシロ","prefecture_code":28},"0873":{"zip_code":"6700873","prefecture":"兵庫県","prefecture_kana":"ヒョウゴケン","city":"姫路市","city_kana":"ヒメジシ","town":"八代東光寺町","town_kana":"ヤシロトウコウジチョウ","prefecture_code":28},"0874":{"zip_code":"6700874","prefecture":"兵庫県","prefecture_kana":"ヒョウゴケン","city":"姫路市","city_kana":"ヒメジシ","town":"八代本町","town_kana":"ヤシロホンチョウ","prefecture_code":28},"0886":{"zip_code":"6700886","prefecture":"兵庫県","prefecture_kana":"ヒョウゴケン","city":"姫路市","city_kana":"ヒメジシ","town":"八代緑ケ丘町","town_kana":"ヤシロミドリガオカチョウ","prefecture_code":28},"0885":{"zip_code":"6700885","prefecture":"兵庫県","prefecture_kana":"ヒョウゴケン","city":"姫路市","city_kana":"ヒメジシ","town":"八代宮前町","town_kana":"ヤシロミヤマエチョウ","prefecture_code":28},"0955":{"zip_code":"6700955","prefecture":"兵庫県","prefecture_kana":"ヒョウゴケン","city":"姫路市","city_kana":"ヒメジシ","town":"安田","town_kana":"ヤスダ","prefecture_code":28},"0023":{"zip_code":"6700023","prefecture":"兵庫県","prefecture_kana":"ヒョウゴケン","city":"姫路市","city_kana":"ヒメジシ","town":"柳町","town_kana":"ヤナギマチ","prefecture_code":28},"0021":{"zip_code":"6700021","prefecture":"兵庫県","prefecture_kana":"ヒョウゴケン","city":"姫路市","city_kana":"ヒメジシ","town":"山野井町","town_kana":"ヤマノイチョウ","prefecture_code":28},"0036":{"zip_code":"6700036","prefecture":"兵庫県","prefecture_kana":"ヒョウゴケン","city":"姫路市","city_kana":"ヒメジシ","town":"山畑新田","town_kana":"ヤマハタシンデン","prefecture_code":28},"0085":{"zip_code":"6700085","prefecture":"兵庫県","prefecture_kana":"ヒョウゴケン","city":"姫路市","city_kana":"ヒメジシ","town":"山吹","town_kana":"ヤマブキ","prefecture_code":28},"0031":{"zip_code":"6700031","prefecture":"兵庫県","prefecture_kana":"ヒョウゴケン","city":"姫路市","city_kana":"ヒメジシ","town":"吉田町","town_kana":"ヨシダマチ","prefecture_code":28},"0042":{"zip_code":"6700042","prefecture":"兵庫県","prefecture_kana":"ヒョウゴケン","city":"姫路市","city_kana":"ヒメジシ","town":"米田町","town_kana":"ヨネダマチ","prefecture_code":28},"0941":{"zip_code":"6700941","prefecture":"兵庫県","prefecture_kana":"ヒョウゴケン","city":"姫路市","city_kana":"ヒメジシ","town":"若菜町","town_kana":"ワカナチョウ","prefecture_code":28},"0921":{"zip_code":"6700921","prefecture":"兵庫県","prefecture_kana":"ヒョウゴケン","city":"姫路市","city_kana":"ヒメジシ","town":"綿町","town_kana":"ワタマチ","prefecture_code":28}}