{"2232":{"zip_code":"6712232","prefecture":"兵庫県","prefecture_kana":"ヒョウゴケン","city":"姫路市","city_kana":"ヒメジシ","town":"相野","town_kana":"アイノ","prefecture_code":28},"2222":{"zip_code":"6712222","prefecture":"兵庫県","prefecture_kana":"ヒョウゴケン","city":"姫路市","city_kana":"ヒメジシ","town":"青山","town_kana":"アオヤマ","prefecture_code":28},"2224":{"zip_code":"6712224","prefecture":"兵庫県","prefecture_kana":"ヒョウゴケン","city":"姫路市","city_kana":"ヒメジシ","town":"青山西","town_kana":"アオヤマニシ","prefecture_code":28},"2223":{"zip_code":"6712223","prefecture":"兵庫県","prefecture_kana":"ヒョウゴケン","city":"姫路市","city_kana":"ヒメジシ","town":"青山南","town_kana":"アオヤマミナミ","prefecture_code":28},"2221":{"zip_code":"6712221","prefecture":"兵庫県","prefecture_kana":"ヒョウゴケン","city":"姫路市","city_kana":"ヒメジシ","town":"青山北","town_kana":"アオヤマキタ","prefecture_code":28},"1236":{"zip_code":"6711236","prefecture":"兵庫県","prefecture_kana":"ヒョウゴケン","city":"姫路市","city_kana":"ヒメジシ","town":"網干区網干浜","town_kana":"アボシクアボシハマ","prefecture_code":28},"1231":{"zip_code":"6711231","prefecture":"兵庫県","prefecture_kana":"ヒョウゴケン","city":"姫路市","city_kana":"ヒメジシ","town":"網干区大江島","town_kana":"アボシクオオエジマ","prefecture_code":28},"1232":{"zip_code":"6711232","prefecture":"兵庫県","prefecture_kana":"ヒョウゴケン","city":"姫路市","city_kana":"ヒメジシ","town":"網干区大江島寺前町","town_kana":"アボシクオオエジマテラマエチョウ","prefecture_code":28},"1233":{"zip_code":"6711233","prefecture":"兵庫県","prefecture_kana":"ヒョウゴケン","city":"姫路市","city_kana":"ヒメジシ","town":"網干区大江島古川町","town_kana":"アボシクオオエジマフルカワチョウ","prefecture_code":28},"1241":{"zip_code":"6711241","prefecture":"兵庫県","prefecture_kana":"ヒョウゴケン","city":"姫路市","city_kana":"ヒメジシ","town":"網干区興浜","town_kana":"アボシクオキノハマ","prefecture_code":28},"1253":{"zip_code":"6711253","prefecture":"兵庫県","prefecture_kana":"ヒョウゴケン","city":"姫路市","city_kana":"ヒメジシ","town":"網干区垣内中町","town_kana":"アボシクカイチナカマチ","prefecture_code":28},"1252":{"zip_code":"6711252","prefecture":"兵庫県","prefecture_kana":"ヒョウゴケン","city":"姫路市","city_kana":"ヒメジシ","town":"網干区垣内東町","town_kana":"アボシクカイチヒガシマチ","prefecture_code":28},"1256":{"zip_code":"6711256","prefecture":"兵庫県","prefecture_kana":"ヒョウゴケン","city":"姫路市","city_kana":"ヒメジシ","town":"網干区垣内西町","town_kana":"アボシクカイチニシマチ","prefecture_code":28},"1255":{"zip_code":"6711255","prefecture":"兵庫県","prefecture_kana":"ヒョウゴケン","city":"姫路市","city_kana":"ヒメジシ","town":"網干区垣内南町","town_kana":"アボシクカイチミナミマチ","prefecture_code":28},"1251":{"zip_code":"6711251","prefecture":"兵庫県","prefecture_kana":"ヒョウゴケン","city":"姫路市","city_kana":"ヒメジシ","town":"網干区垣内北町","town_kana":"アボシクカイチキタマチ","prefecture_code":28},"1257":{"zip_code":"6711257","prefecture":"兵庫県","prefecture_kana":"ヒョウゴケン","city":"姫路市","city_kana":"ヒメジシ","town":"網干区垣内本町","town_kana":"アボシクカイチホンマチ","prefecture_code":28},"1235":{"zip_code":"6711235","prefecture":"兵庫県","prefecture_kana":"ヒョウゴケン","city":"姫路市","city_kana":"ヒメジシ","town":"網干区北新在家","town_kana":"アボシクキタシンザイケ","prefecture_code":28},"1223":{"zip_code":"6711223","prefecture":"兵庫県","prefecture_kana":"ヒョウゴケン","city":"姫路市","city_kana":"ヒメジシ","town":"網干区坂上","town_kana":"アボシクサカウエ","prefecture_code":28},"1228":{"zip_code":"6711228","prefecture":"兵庫県","prefecture_kana":"ヒョウゴケン","city":"姫路市","city_kana":"ヒメジシ","town":"網干区坂出","town_kana":"アボシクサカデ","prefecture_code":28},"1234":{"zip_code":"6711234","prefecture":"兵庫県","prefecture_kana":"ヒョウゴケン","city":"姫路市","city_kana":"ヒメジシ","town":"網干区新在家","town_kana":"アボシクシンザイケ","prefecture_code":28},"1221":{"zip_code":"6711221","prefecture":"兵庫県","prefecture_kana":"ヒョウゴケン","city":"姫路市","city_kana":"ヒメジシ","town":"網干区田井","town_kana":"アボシクタイ","prefecture_code":28},"1226":{"zip_code":"6711226","prefecture":"兵庫県","prefecture_kana":"ヒョウゴケン","city":"姫路市","city_kana":"ヒメジシ","town":"網干区高田","town_kana":"アボシクタカダ","prefecture_code":28},"1224":{"zip_code":"6711224","prefecture":"兵庫県","prefecture_kana":"ヒョウゴケン","city":"姫路市","city_kana":"ヒメジシ","town":"網干区津市場","town_kana":"アボシクツイチバ","prefecture_code":28},"1242":{"zip_code":"6711242","prefecture":"兵庫県","prefecture_kana":"ヒョウゴケン","city":"姫路市","city_kana":"ヒメジシ","town":"網干区浜田","town_kana":"アボシクハマダ","prefecture_code":28},"1225":{"zip_code":"6711225","prefecture":"兵庫県","prefecture_kana":"ヒョウゴケン","city":"姫路市","city_kana":"ヒメジシ","town":"網干区福井","town_kana":"アボシクフクイ","prefecture_code":28},"1222":{"zip_code":"6711222","prefecture":"兵庫県","prefecture_kana":"ヒョウゴケン","city":"姫路市","city_kana":"ヒメジシ","town":"網干区宮内","town_kana":"アボシクミヤウチ","prefecture_code":28},"1254":{"zip_code":"6711254","prefecture":"兵庫県","prefecture_kana":"ヒョウゴケン","city":"姫路市","city_kana":"ヒメジシ","town":"網干区余子浜","town_kana":"アボシクヨコハマ","prefecture_code":28},"1227":{"zip_code":"6711227","prefecture":"兵庫県","prefecture_kana":"ヒョウゴケン","city":"姫路市","city_kana":"ヒメジシ","town":"網干区和久","town_kana":"アボシクワク","prefecture_code":28},"2231":{"zip_code":"6712231","prefecture":"兵庫県","prefecture_kana":"ヒョウゴケン","city":"姫路市","city_kana":"ヒメジシ","town":"石倉","town_kana":"イシクラ","prefecture_code":28},"2246":{"zip_code":"6712246","prefecture":"兵庫県","prefecture_kana":"ヒョウゴケン","city":"姫路市","city_kana":"ヒメジシ","town":"打越","town_kana":"ウチコシ","prefecture_code":28},"2233":{"zip_code":"6712233","prefecture":"兵庫県","prefecture_kana":"ヒョウゴケン","city":"姫路市","city_kana":"ヒメジシ","town":"太市中","town_kana":"オオイチナカ","prefecture_code":28},"0101":{"zip_code":"6710101","prefecture":"兵庫県","prefecture_kana":"ヒョウゴケン","city":"姫路市","city_kana":"ヒメジシ","town":"大塩町","town_kana":"オオシオチョウ","prefecture_code":28},"0102":{"zip_code":"6710102","prefecture":"兵庫県","prefecture_kana":"ヒョウゴケン","city":"姫路市","city_kana":"ヒメジシ","town":"大塩町汐咲","town_kana":"オオシオチョウシオサキ","prefecture_code":28},"0103":{"zip_code":"6710103","prefecture":"兵庫県","prefecture_kana":"ヒョウゴケン","city":"姫路市","city_kana":"ヒメジシ","town":"大塩町宮前","town_kana":"オオシオチョウミヤマエ","prefecture_code":28},"1136":{"zip_code":"6711136","prefecture":"兵庫県","prefecture_kana":"ヒョウゴケン","city":"姫路市","city_kana":"ヒメジシ","town":"大津区恵美酒町","town_kana":"オオツクエビスマチ","prefecture_code":28},"1146":{"zip_code":"6711146","prefecture":"兵庫県","prefecture_kana":"ヒョウゴケン","city":"姫路市","city_kana":"ヒメジシ","town":"大津区大津町","town_kana":"オオツクオオツチョウ","prefecture_code":28},"1132":{"zip_code":"6711132","prefecture":"兵庫県","prefecture_kana":"ヒョウゴケン","city":"姫路市","city_kana":"ヒメジシ","town":"大津区勘兵衛町","town_kana":"オオツクカンベエチョウ","prefecture_code":28},"1142":{"zip_code":"6711142","prefecture":"兵庫県","prefecture_kana":"ヒョウゴケン","city":"姫路市","city_kana":"ヒメジシ","town":"大津区北天満町","town_kana":"オオツクキタテンマンチョウ","prefecture_code":28},"1133":{"zip_code":"6711133","prefecture":"兵庫県","prefecture_kana":"ヒョウゴケン","city":"姫路市","city_kana":"ヒメジシ","town":"大津区吉美","town_kana":"オオツクキビ","prefecture_code":28},"1135":{"zip_code":"6711135","prefecture":"兵庫県","prefecture_kana":"ヒョウゴケン","city":"姫路市","city_kana":"ヒメジシ","town":"大津区新町","town_kana":"オオツクシンマチ","prefecture_code":28},"1131":{"zip_code":"6711131","prefecture":"兵庫県","prefecture_kana":"ヒョウゴケン","city":"姫路市","city_kana":"ヒメジシ","town":"大津区天神町","town_kana":"オオツクテンジンマチ","prefecture_code":28},"1143":{"zip_code":"6711143","prefecture":"兵庫県","prefecture_kana":"ヒョウゴケン","city":"姫路市","city_kana":"ヒメジシ","town":"大津区天満","town_kana":"オオツクテンマ","prefecture_code":28},"1144":{"zip_code":"6711144","prefecture":"兵庫県","prefecture_kana":"ヒョウゴケン","city":"姫路市","city_kana":"ヒメジシ","town":"大津区長松","town_kana":"オオツクナガマツ","prefecture_code":28},"1141":{"zip_code":"6711141","prefecture":"兵庫県","prefecture_kana":"ヒョウゴケン","city":"姫路市","city_kana":"ヒメジシ","town":"大津区西土井","town_kana":"オオツクニシドイ","prefecture_code":28},"1145":{"zip_code":"6711145","prefecture":"兵庫県","prefecture_kana":"ヒョウゴケン","city":"姫路市","city_kana":"ヒメジシ","town":"大津区平松","town_kana":"オオツクヒラマツ","prefecture_code":28},"1134":{"zip_code":"6711134","prefecture":"兵庫県","prefecture_kana":"ヒョウゴケン","city":"姫路市","city_kana":"ヒメジシ","town":"大津区真砂町","town_kana":"オオツクマサゴチョウ","prefecture_code":28},"2241":{"zip_code":"6712241","prefecture":"兵庫県","prefecture_kana":"ヒョウゴケン","city":"姫路市","city_kana":"ヒメジシ","town":"刀出","town_kana":"カタナデ","prefecture_code":28},"1204":{"zip_code":"6711204","prefecture":"兵庫県","prefecture_kana":"ヒョウゴケン","city":"姫路市","city_kana":"ヒメジシ","town":"勝原区朝日谷","town_kana":"カツハラクアサヒダニ","prefecture_code":28},"1205":{"zip_code":"6711205","prefecture":"兵庫県","prefecture_kana":"ヒョウゴケン","city":"姫路市","city_kana":"ヒメジシ","town":"勝原区大谷","town_kana":"カツハラクオオタニ","prefecture_code":28},"1212":{"zip_code":"6711212","prefecture":"兵庫県","prefecture_kana":"ヒョウゴケン","city":"姫路市","city_kana":"ヒメジシ","town":"勝原区勝原町","town_kana":"カツハラクカツハラチョウ","prefecture_code":28},"1202":{"zip_code":"6711202","prefecture":"兵庫県","prefecture_kana":"ヒョウゴケン","city":"姫路市","city_kana":"ヒメジシ","town":"勝原区勝山町","town_kana":"カツハラクカツヤマチョウ","prefecture_code":28},"1211":{"zip_code":"6711211","prefecture":"兵庫県","prefecture_kana":"ヒョウゴケン","city":"姫路市","city_kana":"ヒメジシ","town":"勝原区熊見","town_kana":"カツハラククマミ","prefecture_code":28},"1201":{"zip_code":"6711201","prefecture":"兵庫県","prefecture_kana":"ヒョウゴケン","city":"姫路市","city_kana":"ヒメジシ","town":"勝原区下太田","town_kana":"カツハラクシモオオタ","prefecture_code":28},"1213":{"zip_code":"6711213","prefecture":"兵庫県","prefecture_kana":"ヒョウゴケン","city":"姫路市","city_kana":"ヒメジシ","town":"勝原区宮田","town_kana":"カツハラクミヤタ","prefecture_code":28},"1214":{"zip_code":"6711214","prefecture":"兵庫県","prefecture_kana":"ヒョウゴケン","city":"姫路市","city_kana":"ヒメジシ","town":"勝原区山戸","town_kana":"カツハラクヤマト","prefecture_code":28},"1203":{"zip_code":"6711203","prefecture":"兵庫県","prefecture_kana":"ヒョウゴケン","city":"姫路市","city_kana":"ヒメジシ","town":"勝原区丁","town_kana":"カツハラクヨロ","prefecture_code":28},"2213":{"zip_code":"6712213","prefecture":"兵庫県","prefecture_kana":"ヒョウゴケン","city":"姫路市","city_kana":"ヒメジシ","town":"川西台","town_kana":"カワニシダイ","prefecture_code":28},"2212":{"zip_code":"6712212","prefecture":"兵庫県","prefecture_kana":"ヒョウゴケン","city":"姫路市","city_kana":"ヒメジシ","town":"川西","town_kana":"カワニシ","prefecture_code":28},"2202":{"zip_code":"6712202","prefecture":"兵庫県","prefecture_kana":"ヒョウゴケン","city":"姫路市","city_kana":"ヒメジシ","town":"北夢前台（１丁目１〜７７番地）","town_kana":"キタユメサキダイ(1チョウメ1-77バンチ)","prefecture_code":28},"2216":{"zip_code":"6712216","prefecture":"兵庫県","prefecture_kana":"ヒョウゴケン","city":"姫路市","city_kana":"ヒメジシ","town":"飾西","town_kana":"シキサイ","prefecture_code":28},"2215":{"zip_code":"6712215","prefecture":"兵庫県","prefecture_kana":"ヒョウゴケン","city":"姫路市","city_kana":"ヒメジシ","town":"飾西台","town_kana":"シキサイダイ","prefecture_code":28},"0203":{"zip_code":"6710203","prefecture":"兵庫県","prefecture_kana":"ヒョウゴケン","city":"姫路市","city_kana":"ヒメジシ","town":"飾東町大釜","town_kana":"シキトウチョウオオガマ","prefecture_code":28},"0204":{"zip_code":"6710204","prefecture":"兵庫県","prefecture_kana":"ヒョウゴケン","city":"姫路市","city_kana":"ヒメジシ","town":"飾東町大釜新","town_kana":"シキトウチョウオオガマシン","prefecture_code":28},"0209":{"zip_code":"6710209","prefecture":"兵庫県","prefecture_kana":"ヒョウゴケン","city":"姫路市","city_kana":"ヒメジシ","town":"飾東町小原","town_kana":"シキトウチョウオハラ","prefecture_code":28},"0201":{"zip_code":"6710201","prefecture":"兵庫県","prefecture_kana":"ヒョウゴケン","city":"姫路市","city_kana":"ヒメジシ","town":"飾東町小原新","town_kana":"シキトウチョウオハラシン","prefecture_code":28},"0214":{"zip_code":"6710214","prefecture":"兵庫県","prefecture_kana":"ヒョウゴケン","city":"姫路市","city_kana":"ヒメジシ","town":"飾東町唐端新","town_kana":"シキトウチョウカラハタシン","prefecture_code":28},"0202":{"zip_code":"6710202","prefecture":"兵庫県","prefecture_kana":"ヒョウゴケン","city":"姫路市","city_kana":"ヒメジシ","town":"飾東町北野","town_kana":"シキトウチョウキタノ","prefecture_code":28},"0212":{"zip_code":"6710212","prefecture":"兵庫県","prefecture_kana":"ヒョウゴケン","city":"姫路市","city_kana":"ヒメジシ","town":"飾東町北山","town_kana":"シキトウチョウキタヤマ","prefecture_code":28},"0205":{"zip_code":"6710205","prefecture":"兵庫県","prefecture_kana":"ヒョウゴケン","city":"姫路市","city_kana":"ヒメジシ","town":"飾東町清住","town_kana":"シキトウチョウキヨスミ","prefecture_code":28},"0217":{"zip_code":"6710217","prefecture":"兵庫県","prefecture_kana":"ヒョウゴケン","city":"姫路市","city_kana":"ヒメジシ","town":"飾東町佐良和","town_kana":"シキトウチョウサロオ","prefecture_code":28},"0211":{"zip_code":"6710211","prefecture":"兵庫県","prefecture_kana":"ヒョウゴケン","city":"姫路市","city_kana":"ヒメジシ","town":"飾東町塩崎","town_kana":"シキトウチョウシオザキ","prefecture_code":28},"0216":{"zip_code":"6710216","prefecture":"兵庫県","prefecture_kana":"ヒョウゴケン","city":"姫路市","city_kana":"ヒメジシ","town":"飾東町志吹","town_kana":"シキトウチョウシブキ","prefecture_code":28},"0218":{"zip_code":"6710218","prefecture":"兵庫県","prefecture_kana":"ヒョウゴケン","city":"姫路市","city_kana":"ヒメジシ","town":"飾東町庄","town_kana":"シキトウチョウショウ","prefecture_code":28},"0219":{"zip_code":"6710219","prefecture":"兵庫県","prefecture_kana":"ヒョウゴケン","city":"姫路市","city_kana":"ヒメジシ","town":"飾東町豊国","town_kana":"シキトウチョウトヨクニ","prefecture_code":28},"0208":{"zip_code":"6710208","prefecture":"兵庫県","prefecture_kana":"ヒョウゴケン","city":"姫路市","city_kana":"ヒメジシ","town":"飾東町八重畑","town_kana":"シキトウチョウヤエバタ","prefecture_code":28},"0207":{"zip_code":"6710207","prefecture":"兵庫県","prefecture_kana":"ヒョウゴケン","city":"姫路市","city_kana":"ヒメジシ","town":"飾東町山崎","town_kana":"シキトウチョウヤマサキ","prefecture_code":28},"0215":{"zip_code":"6710215","prefecture":"兵庫県","prefecture_kana":"ヒョウゴケン","city":"姫路市","city_kana":"ヒメジシ","town":"飾東町夕陽ケ丘","town_kana":"シキトウチョウユウヒガオカ","prefecture_code":28},"0245":{"zip_code":"6710245","prefecture":"兵庫県","prefecture_kana":"ヒョウゴケン","city":"姫路市","city_kana":"ヒメジシ","town":"四郷町明田","town_kana":"シゴウチョウアケダ","prefecture_code":28},"0241":{"zip_code":"6710241","prefecture":"兵庫県","prefecture_kana":"ヒョウゴケン","city":"姫路市","city_kana":"ヒメジシ","town":"四郷町上鈴","town_kana":"シゴウチョウカミスズ","prefecture_code":28},"0246":{"zip_code":"6710246","prefecture":"兵庫県","prefecture_kana":"ヒョウゴケン","city":"姫路市","city_kana":"ヒメジシ","town":"四郷町坂元","town_kana":"シゴウチョウサカモト","prefecture_code":28},"0242":{"zip_code":"6710242","prefecture":"兵庫県","prefecture_kana":"ヒョウゴケン","city":"姫路市","city_kana":"ヒメジシ","town":"四郷町中鈴","town_kana":"シゴウチョウナカスズ","prefecture_code":28},"0247":{"zip_code":"6710247","prefecture":"兵庫県","prefecture_kana":"ヒョウゴケン","city":"姫路市","city_kana":"ヒメジシ","town":"四郷町東阿保","town_kana":"シゴウチョウヒガシアボ","prefecture_code":28},"0243":{"zip_code":"6710243","prefecture":"兵庫県","prefecture_kana":"ヒョウゴケン","city":"姫路市","city_kana":"ヒメジシ","town":"四郷町本郷","town_kana":"シゴウチョウホンゴウ","prefecture_code":28},"0244":{"zip_code":"6710244","prefecture":"兵庫県","prefecture_kana":"ヒョウゴケン","city":"姫路市","city_kana":"ヒメジシ","town":"四郷町見野","town_kana":"シゴウチョウミノ","prefecture_code":28},"0248":{"zip_code":"6710248","prefecture":"兵庫県","prefecture_kana":"ヒョウゴケン","city":"姫路市","city_kana":"ヒメジシ","town":"四郷町山脇","town_kana":"シゴウチョウヤマワキ","prefecture_code":28},"2244":{"zip_code":"6712244","prefecture":"兵庫県","prefecture_kana":"ヒョウゴケン","city":"姫路市","city_kana":"ヒメジシ","town":"実法寺","town_kana":"ジホウジ","prefecture_code":28},"2201":{"zip_code":"6712201","prefecture":"兵庫県","prefecture_kana":"ヒョウゴケン","city":"姫路市","city_kana":"ヒメジシ","town":"書写","town_kana":"ショシャ","prefecture_code":28},"2203":{"zip_code":"6712203","prefecture":"兵庫県","prefecture_kana":"ヒョウゴケン","city":"姫路市","city_kana":"ヒメジシ","town":"書写台","town_kana":"ショシャダイ","prefecture_code":28},"2243":{"zip_code":"6712243","prefecture":"兵庫県","prefecture_kana":"ヒョウゴケン","city":"姫路市","city_kana":"ヒメジシ","town":"菅生台","town_kana":"スゴウダイ","prefecture_code":28},"2211":{"zip_code":"6712211","prefecture":"兵庫県","prefecture_kana":"ヒョウゴケン","city":"姫路市","city_kana":"ヒメジシ","town":"田井台","town_kana":"タイダイ","prefecture_code":28},"2217":{"zip_code":"6712217","prefecture":"兵庫県","prefecture_kana":"ヒョウゴケン","city":"姫路市","city_kana":"ヒメジシ","town":"町田","town_kana":"チョウダ","prefecture_code":28},"2214":{"zip_code":"6712214","prefecture":"兵庫県","prefecture_kana":"ヒョウゴケン","city":"姫路市","city_kana":"ヒメジシ","town":"西夢前台","town_kana":"ニシユメサキダイ","prefecture_code":28},"2234":{"zip_code":"6712234","prefecture":"兵庫県","prefecture_kana":"ヒョウゴケン","city":"姫路市","city_kana":"ヒメジシ","town":"西脇","town_kana":"ニシワキ","prefecture_code":28},"2245":{"zip_code":"6712245","prefecture":"兵庫県","prefecture_kana":"ヒョウゴケン","city":"姫路市","city_kana":"ヒメジシ","town":"白鳥台","town_kana":"ハクチョウダイ","prefecture_code":28},"0253":{"zip_code":"6710253","prefecture":"兵庫県","prefecture_kana":"ヒョウゴケン","city":"姫路市","city_kana":"ヒメジシ","town":"花田町一本松","town_kana":"ハナダチョウイッポンマツ","prefecture_code":28},"0255":{"zip_code":"6710255","prefecture":"兵庫県","prefecture_kana":"ヒョウゴケン","city":"姫路市","city_kana":"ヒメジシ","town":"花田町小川","town_kana":"ハナダチョウオガワ","prefecture_code":28},"0252":{"zip_code":"6710252","prefecture":"兵庫県","prefecture_kana":"ヒョウゴケン","city":"姫路市","city_kana":"ヒメジシ","town":"花田町加納原田","town_kana":"ハナダチョウカノウハラダ","prefecture_code":28},"0251":{"zip_code":"6710251","prefecture":"兵庫県","prefecture_kana":"ヒョウゴケン","city":"姫路市","city_kana":"ヒメジシ","town":"花田町上原田","town_kana":"ハナダチョウカミハラダ","prefecture_code":28},"0256":{"zip_code":"6710256","prefecture":"兵庫県","prefecture_kana":"ヒョウゴケン","city":"姫路市","city_kana":"ヒメジシ","town":"花田町高木","town_kana":"ハナダチョウタカギ","prefecture_code":28},"0254":{"zip_code":"6710254","prefecture":"兵庫県","prefecture_kana":"ヒョウゴケン","city":"姫路市","city_kana":"ヒメジシ","town":"花田町勅旨","town_kana":"ハナダチョウチョクシ","prefecture_code":28},"1154":{"zip_code":"6711154","prefecture":"兵庫県","prefecture_kana":"ヒョウゴケン","city":"姫路市","city_kana":"ヒメジシ","town":"広畑区吾妻町","town_kana":"ヒロハタクアヅマチョウ","prefecture_code":28},"1155":{"zip_code":"6711155","prefecture":"兵庫県","prefecture_kana":"ヒョウゴケン","city":"姫路市","city_kana":"ヒメジシ","town":"広畑区大町","town_kana":"ヒロハタクオオマチ","prefecture_code":28},"1102":{"zip_code":"6711102","prefecture":"兵庫県","prefecture_kana":"ヒョウゴケン","city":"姫路市","city_kana":"ヒメジシ","town":"広畑区蒲田","town_kana":"ヒロハタクカマダ","prefecture_code":28},"1111":{"zip_code":"6711111","prefecture":"兵庫県","prefecture_kana":"ヒョウゴケン","city":"姫路市","city_kana":"ヒメジシ","town":"広畑区北河原町","town_kana":"ヒロハタクキタカワラチョウ","prefecture_code":28},"1112":{"zip_code":"6711112","prefecture":"兵庫県","prefecture_kana":"ヒョウゴケン","city":"姫路市","city_kana":"ヒメジシ","town":"広畑区北野町","town_kana":"ヒロハタクキタノチョウ","prefecture_code":28},"1106":{"zip_code":"6711106","prefecture":"兵庫県","prefecture_kana":"ヒョウゴケン","city":"姫路市","city_kana":"ヒメジシ","town":"広畑区京見町","town_kana":"ヒロハタクキョウミチョウ","prefecture_code":28},"1156":{"zip_code":"6711156","prefecture":"兵庫県","prefecture_kana":"ヒョウゴケン","city":"姫路市","city_kana":"ヒメジシ","town":"広畑区小坂","town_kana":"ヒロハタクコサカ","prefecture_code":28},"1152":{"zip_code":"6711152","prefecture":"兵庫県","prefecture_kana":"ヒョウゴケン","city":"姫路市","city_kana":"ヒメジシ","town":"広畑区小松町","town_kana":"ヒロハタクコマツチョウ","prefecture_code":28},"1104":{"zip_code":"6711104","prefecture":"兵庫県","prefecture_kana":"ヒョウゴケン","city":"姫路市","city_kana":"ヒメジシ","town":"広畑区才","town_kana":"ヒロハタクサイ","prefecture_code":28},"1113":{"zip_code":"6711113","prefecture":"兵庫県","prefecture_kana":"ヒョウゴケン","city":"姫路市","city_kana":"ヒメジシ","town":"広畑区清水町","town_kana":"ヒロハタクシミズチョウ","prefecture_code":28},"1108":{"zip_code":"6711108","prefecture":"兵庫県","prefecture_kana":"ヒョウゴケン","city":"姫路市","city_kana":"ヒメジシ","town":"広畑区城山町","town_kana":"ヒロハタクシロヤマチョウ","prefecture_code":28},"1115":{"zip_code":"6711115","prefecture":"兵庫県","prefecture_kana":"ヒョウゴケン","city":"姫路市","city_kana":"ヒメジシ","town":"広畑区末広町","town_kana":"ヒロハタクスエヒロチョウ","prefecture_code":28},"1116":{"zip_code":"6711116","prefecture":"兵庫県","prefecture_kana":"ヒョウゴケン","city":"姫路市","city_kana":"ヒメジシ","town":"広畑区正門通","town_kana":"ヒロハタクセイモンドオリ","prefecture_code":28},"1153":{"zip_code":"6711153","prefecture":"兵庫県","prefecture_kana":"ヒョウゴケン","city":"姫路市","city_kana":"ヒメジシ","town":"広畑区高浜町","town_kana":"ヒロハタクタカハマチョウ","prefecture_code":28},"1124":{"zip_code":"6711124","prefecture":"兵庫県","prefecture_kana":"ヒョウゴケン","city":"姫路市","city_kana":"ヒメジシ","town":"広畑区鶴町","town_kana":"ヒロハタクツルマチ","prefecture_code":28},"1125":{"zip_code":"6711125","prefecture":"兵庫県","prefecture_kana":"ヒョウゴケン","city":"姫路市","city_kana":"ヒメジシ","town":"広畑区長町","town_kana":"ヒロハタクナガマチ","prefecture_code":28},"1107":{"zip_code":"6711107","prefecture":"兵庫県","prefecture_kana":"ヒョウゴケン","city":"姫路市","city_kana":"ヒメジシ","town":"広畑区西蒲田","town_kana":"ヒロハタクニシカマダ","prefecture_code":28},"1105":{"zip_code":"6711105","prefecture":"兵庫県","prefecture_kana":"ヒョウゴケン","city":"姫路市","city_kana":"ヒメジシ","town":"広畑区則直","town_kana":"ヒロハタクノリナオ","prefecture_code":28},"1151":{"zip_code":"6711151","prefecture":"兵庫県","prefecture_kana":"ヒョウゴケン","city":"姫路市","city_kana":"ヒメジシ","town":"広畑区早瀬町","town_kana":"ヒロハタクハヤセチョウ","prefecture_code":28},"1121":{"zip_code":"6711121","prefecture":"兵庫県","prefecture_kana":"ヒョウゴケン","city":"姫路市","city_kana":"ヒメジシ","town":"広畑区東新町","town_kana":"ヒロハタクヒガシシンマチ","prefecture_code":28},"1101":{"zip_code":"6711101","prefecture":"兵庫県","prefecture_kana":"ヒョウゴケン","city":"姫路市","city_kana":"ヒメジシ","town":"広畑区東夢前台","town_kana":"ヒロハタクヒガシユメサキダイ","prefecture_code":28},"1103":{"zip_code":"6711103","prefecture":"兵庫県","prefecture_kana":"ヒョウゴケン","city":"姫路市","city_kana":"ヒメジシ","town":"広畑区西夢前台","town_kana":"ヒロハタクニシユメサキダイ","prefecture_code":28},"1123":{"zip_code":"6711123","prefecture":"兵庫県","prefecture_kana":"ヒョウゴケン","city":"姫路市","city_kana":"ヒメジシ","town":"広畑区富士町","town_kana":"ヒロハタクフジチョウ","prefecture_code":28},"1114":{"zip_code":"6711114","prefecture":"兵庫県","prefecture_kana":"ヒョウゴケン","city":"姫路市","city_kana":"ヒメジシ","town":"広畑区本町","town_kana":"ヒロハタクホンマチ","prefecture_code":28},"1122":{"zip_code":"6711122","prefecture":"兵庫県","prefecture_kana":"ヒョウゴケン","city":"姫路市","city_kana":"ヒメジシ","town":"広畑区夢前町","town_kana":"ヒロハタクユメサキチョウ","prefecture_code":28},"0225":{"zip_code":"6710225","prefecture":"兵庫県","prefecture_kana":"ヒョウゴケン","city":"姫路市","city_kana":"ヒメジシ","town":"別所町家具町","town_kana":"ベッショチョウカグマチ","prefecture_code":28},"0223":{"zip_code":"6710223","prefecture":"兵庫県","prefecture_kana":"ヒョウゴケン","city":"姫路市","city_kana":"ヒメジシ","town":"別所町北宿","town_kana":"ベッショチョウキタジュク","prefecture_code":28},"0222":{"zip_code":"6710222","prefecture":"兵庫県","prefecture_kana":"ヒョウゴケン","city":"姫路市","city_kana":"ヒメジシ","town":"別所町小林","town_kana":"ベッショチョウコバヤシ","prefecture_code":28},"0224":{"zip_code":"6710224","prefecture":"兵庫県","prefecture_kana":"ヒョウゴケン","city":"姫路市","city_kana":"ヒメジシ","town":"別所町佐土","town_kana":"ベッショチョウサヅチ","prefecture_code":28},"0226":{"zip_code":"6710226","prefecture":"兵庫県","prefecture_kana":"ヒョウゴケン","city":"姫路市","city_kana":"ヒメジシ","town":"別所町佐土新","town_kana":"ベッショチョウサヅチシン","prefecture_code":28},"0221":{"zip_code":"6710221","prefecture":"兵庫県","prefecture_kana":"ヒョウゴケン","city":"姫路市","city_kana":"ヒメジシ","town":"別所町別所","town_kana":"ベッショチョウベッショ","prefecture_code":28},"0112":{"zip_code":"6710112","prefecture":"兵庫県","prefecture_kana":"ヒョウゴケン","city":"姫路市","city_kana":"ヒメジシ","town":"的形町福泊","town_kana":"マトガタチョウフクドマリ","prefecture_code":28},"0111":{"zip_code":"6710111","prefecture":"兵庫県","prefecture_kana":"ヒョウゴケン","city":"姫路市","city_kana":"ヒメジシ","town":"的形町的形","town_kana":"マトガタチョウマトガタ","prefecture_code":28},"0234":{"zip_code":"6710234","prefecture":"兵庫県","prefecture_kana":"ヒョウゴケン","city":"姫路市","city_kana":"ヒメジシ","town":"御国野町国分寺","town_kana":"ミクニノチョウコクブンジ","prefecture_code":28},"0232":{"zip_code":"6710232","prefecture":"兵庫県","prefecture_kana":"ヒョウゴケン","city":"姫路市","city_kana":"ヒメジシ","town":"御国野町御着","town_kana":"ミクニノチョウゴチャク","prefecture_code":28},"0233":{"zip_code":"6710233","prefecture":"兵庫県","prefecture_kana":"ヒョウゴケン","city":"姫路市","city_kana":"ヒメジシ","town":"御国野町西御着","town_kana":"ミクニノチョウニシゴチャク","prefecture_code":28},"0231":{"zip_code":"6710231","prefecture":"兵庫県","prefecture_kana":"ヒョウゴケン","city":"姫路市","city_kana":"ヒメジシ","town":"御国野町深志野","town_kana":"ミクニノチョウフカシノ","prefecture_code":28},"2247":{"zip_code":"6712247","prefecture":"兵庫県","prefecture_kana":"ヒョウゴケン","city":"姫路市","city_kana":"ヒメジシ","town":"緑台","town_kana":"ミドリダイ","prefecture_code":28},"2401":{"zip_code":"6712401","prefecture":"兵庫県","prefecture_kana":"ヒョウゴケン","city":"姫路市","city_kana":"ヒメジシ","town":"安富町安志","town_kana":"ヤストミチョウアンジ","prefecture_code":28},"2426":{"zip_code":"6712426","prefecture":"兵庫県","prefecture_kana":"ヒョウゴケン","city":"姫路市","city_kana":"ヒメジシ","town":"安富町植木野","town_kana":"ヤストミチョウウエキノ","prefecture_code":28},"2422":{"zip_code":"6712422","prefecture":"兵庫県","prefecture_kana":"ヒョウゴケン","city":"姫路市","city_kana":"ヒメジシ","town":"安富町塩野","town_kana":"ヤストミチョウシオノ","prefecture_code":28},"2413":{"zip_code":"6712413","prefecture":"兵庫県","prefecture_kana":"ヒョウゴケン","city":"姫路市","city_kana":"ヒメジシ","town":"安富町末広","town_kana":"ヤストミチョウスエヒロ","prefecture_code":28},"2424":{"zip_code":"6712424","prefecture":"兵庫県","prefecture_kana":"ヒョウゴケン","city":"姫路市","city_kana":"ヒメジシ","town":"安富町瀬川","town_kana":"ヤストミチョウセガワ","prefecture_code":28},"2416":{"zip_code":"6712416","prefecture":"兵庫県","prefecture_kana":"ヒョウゴケン","city":"姫路市","city_kana":"ヒメジシ","town":"安富町関","town_kana":"ヤストミチョウセキ","prefecture_code":28},"2423":{"zip_code":"6712423","prefecture":"兵庫県","prefecture_kana":"ヒョウゴケン","city":"姫路市","city_kana":"ヒメジシ","town":"安富町狭戸","town_kana":"ヤストミチョウセバト","prefecture_code":28},"2414":{"zip_code":"6712414","prefecture":"兵庫県","prefecture_kana":"ヒョウゴケン","city":"姫路市","city_kana":"ヒメジシ","town":"安富町杤原","town_kana":"ヤストミチョウトチハラ","prefecture_code":28},"2421":{"zip_code":"6712421","prefecture":"兵庫県","prefecture_kana":"ヒョウゴケン","city":"姫路市","city_kana":"ヒメジシ","town":"安富町長野","town_kana":"ヤストミチョウナガノ","prefecture_code":28},"2412":{"zip_code":"6712412","prefecture":"兵庫県","prefecture_kana":"ヒョウゴケン","city":"姫路市","city_kana":"ヒメジシ","town":"安富町名坂","town_kana":"ヤストミチョウナサカ","prefecture_code":28},"2425":{"zip_code":"6712425","prefecture":"兵庫県","prefecture_kana":"ヒョウゴケン","city":"姫路市","city_kana":"ヒメジシ","town":"安富町三坂","town_kana":"ヤストミチョウミサカ","prefecture_code":28},"2411":{"zip_code":"6712411","prefecture":"兵庫県","prefecture_kana":"ヒョウゴケン","city":"姫路市","city_kana":"ヒメジシ","town":"安富町三森","town_kana":"ヤストミチョウミツモリ","prefecture_code":28},"2415":{"zip_code":"6712415","prefecture":"兵庫県","prefecture_kana":"ヒョウゴケン","city":"姫路市","city_kana":"ヒメジシ","town":"安富町皆河","town_kana":"ヤストミチョウミナゴ","prefecture_code":28},"2133":{"zip_code":"6712133","prefecture":"兵庫県","prefecture_kana":"ヒョウゴケン","city":"姫路市","city_kana":"ヒメジシ","town":"夢前町芦田","town_kana":"ユメサキチョウアシダ","prefecture_code":28},"2106":{"zip_code":"6712106","prefecture":"兵庫県","prefecture_kana":"ヒョウゴケン","city":"姫路市","city_kana":"ヒメジシ","town":"夢前町莇野","town_kana":"ユメサキチョウアゾノ","prefecture_code":28},"2114":{"zip_code":"6712114","prefecture":"兵庫県","prefecture_kana":"ヒョウゴケン","city":"姫路市","city_kana":"ヒメジシ","town":"夢前町糸田","town_kana":"ユメサキチョウイトタ","prefecture_code":28},"2122":{"zip_code":"6712122","prefecture":"兵庫県","prefecture_kana":"ヒョウゴケン","city":"姫路市","city_kana":"ヒメジシ","town":"夢前町置本","town_kana":"ユメサキチョウオキモト","prefecture_code":28},"2117":{"zip_code":"6712117","prefecture":"兵庫県","prefecture_kana":"ヒョウゴケン","city":"姫路市","city_kana":"ヒメジシ","town":"夢前町高長","town_kana":"ユメサキチョウコウチョウ","prefecture_code":28},"2136":{"zip_code":"6712136","prefecture":"兵庫県","prefecture_kana":"ヒョウゴケン","city":"姫路市","city_kana":"ヒメジシ","town":"夢前町護持","town_kana":"ユメサキチョウゴジ","prefecture_code":28},"2132":{"zip_code":"6712132","prefecture":"兵庫県","prefecture_kana":"ヒョウゴケン","city":"姫路市","city_kana":"ヒメジシ","town":"夢前町古瀬畑","town_kana":"ユメサキチョウコセバタ","prefecture_code":28},"2113":{"zip_code":"6712113","prefecture":"兵庫県","prefecture_kana":"ヒョウゴケン","city":"姫路市","city_kana":"ヒメジシ","town":"夢前町古知之庄","town_kana":"ユメサキチョウコチノショウ","prefecture_code":28},"2105":{"zip_code":"6712105","prefecture":"兵庫県","prefecture_kana":"ヒョウゴケン","city":"姫路市","city_kana":"ヒメジシ","town":"夢前町神種","town_kana":"ユメサキチョウコノクサ","prefecture_code":28},"2112":{"zip_code":"6712112","prefecture":"兵庫県","prefecture_kana":"ヒョウゴケン","city":"姫路市","city_kana":"ヒメジシ","town":"夢前町塩田","town_kana":"ユメサキチョウシオタ","prefecture_code":28},"2102":{"zip_code":"6712102","prefecture":"兵庫県","prefecture_kana":"ヒョウゴケン","city":"姫路市","city_kana":"ヒメジシ","town":"夢前町新庄","town_kana":"ユメサキチョウシンジョウ","prefecture_code":28},"2111":{"zip_code":"6712111","prefecture":"兵庫県","prefecture_kana":"ヒョウゴケン","city":"姫路市","city_kana":"ヒメジシ","town":"夢前町杉之内","town_kana":"ユメサキチョウスギノウチ","prefecture_code":28},"2134":{"zip_code":"6712134","prefecture":"兵庫県","prefecture_kana":"ヒョウゴケン","city":"姫路市","city_kana":"ヒメジシ","town":"夢前町菅生澗","town_kana":"ユメサキチョウスゴウダニ","prefecture_code":28},"2124":{"zip_code":"6712124","prefecture":"兵庫県","prefecture_kana":"ヒョウゴケン","city":"姫路市","city_kana":"ヒメジシ","town":"夢前町玉田","town_kana":"ユメサキチョウタマダ","prefecture_code":28},"2135":{"zip_code":"6712135","prefecture":"兵庫県","prefecture_kana":"ヒョウゴケン","city":"姫路市","city_kana":"ヒメジシ","town":"夢前町塚本","town_kana":"ユメサキチョウツカモト","prefecture_code":28},"2116":{"zip_code":"6712116","prefecture":"兵庫県","prefecture_kana":"ヒョウゴケン","city":"姫路市","city_kana":"ヒメジシ","town":"夢前町寺","town_kana":"ユメサキチョウテラ","prefecture_code":28},"2131":{"zip_code":"6712131","prefecture":"兵庫県","prefecture_kana":"ヒョウゴケン","city":"姫路市","city_kana":"ヒメジシ","town":"夢前町戸倉","town_kana":"ユメサキチョウトクラ","prefecture_code":28},"2137":{"zip_code":"6712137","prefecture":"兵庫県","prefecture_kana":"ヒョウゴケン","city":"姫路市","city_kana":"ヒメジシ","town":"夢前町野畑","town_kana":"ユメサキチョウノバタケ","prefecture_code":28},"2103":{"zip_code":"6712103","prefecture":"兵庫県","prefecture_kana":"ヒョウゴケン","city":"姫路市","city_kana":"ヒメジシ","town":"夢前町前之庄","town_kana":"ユメサキチョウマエノショウ","prefecture_code":28},"2115":{"zip_code":"6712115","prefecture":"兵庫県","prefecture_kana":"ヒョウゴケン","city":"姫路市","city_kana":"ヒメジシ","town":"夢前町又坂","town_kana":"ユメサキチョウマタサカ","prefecture_code":28},"2121":{"zip_code":"6712121","prefecture":"兵庫県","prefecture_kana":"ヒョウゴケン","city":"姫路市","city_kana":"ヒメジシ","town":"夢前町宮置","town_kana":"ユメサキチョウミヤオキ","prefecture_code":28},"2123":{"zip_code":"6712123","prefecture":"兵庫県","prefecture_kana":"ヒョウゴケン","city":"姫路市","city_kana":"ヒメジシ","town":"夢前町山冨","town_kana":"ユメサキチョウヤマトミ","prefecture_code":28},"2101":{"zip_code":"6712101","prefecture":"兵庫県","prefecture_kana":"ヒョウゴケン","city":"姫路市","city_kana":"ヒメジシ","town":"夢前町山之内","town_kana":"ユメサキチョウヤマノウチ","prefecture_code":28},"1263":{"zip_code":"6711263","prefecture":"兵庫県","prefecture_kana":"ヒョウゴケン","city":"姫路市","city_kana":"ヒメジシ","town":"余部区上川原","town_kana":"ヨベクカミガワラ","prefecture_code":28},"1262":{"zip_code":"6711262","prefecture":"兵庫県","prefecture_kana":"ヒョウゴケン","city":"姫路市","city_kana":"ヒメジシ","town":"余部区上余部","town_kana":"ヨベクカミヨベ","prefecture_code":28},"1261":{"zip_code":"6711261","prefecture":"兵庫県","prefecture_kana":"ヒョウゴケン","city":"姫路市","city_kana":"ヒメジシ","town":"余部区下余部","town_kana":"ヨベクシモヨベ","prefecture_code":28},"2242":{"zip_code":"6712242","prefecture":"兵庫県","prefecture_kana":"ヒョウゴケン","city":"姫路市","city_kana":"ヒメジシ","town":"六角","town_kana":"ロッカク","prefecture_code":28},"0121":{"zip_code":"6710121","prefecture":"兵庫県","prefecture_kana":"ヒョウゴケン","city":"高砂市","city_kana":"タカサゴシ","town":"北浜町牛谷","town_kana":"キタハマチョウウシタニ","prefecture_code":28},"0122":{"zip_code":"6710122","prefecture":"兵庫県","prefecture_kana":"ヒョウゴケン","city":"高砂市","city_kana":"タカサゴシ","town":"北浜町北脇","town_kana":"キタハマチョウキタワキ","prefecture_code":28},"0123":{"zip_code":"6710123","prefecture":"兵庫県","prefecture_kana":"ヒョウゴケン","city":"高砂市","city_kana":"タカサゴシ","town":"北浜町西浜","town_kana":"キタハマチョウニシハマ","prefecture_code":28},"2500":{"zip_code":"6712500","prefecture":"兵庫県","prefecture_kana":"ヒョウゴケン","city":"宍粟市","city_kana":"シソウシ","town":"以下に掲載がない場合","town_kana":"イカニケイサイガナイバアイ","prefecture_code":28},"4135":{"zip_code":"6714135","prefecture":"兵庫県","prefecture_kana":"ヒョウゴケン","city":"宍粟市","city_kana":"シソウシ","town":"一宮町安黒","town_kana":"イチノミヤチョウアグロ","prefecture_code":28},"4131":{"zip_code":"6714131","prefecture":"兵庫県","prefecture_kana":"ヒョウゴケン","city":"宍粟市","city_kana":"シソウシ","town":"一宮町安積","town_kana":"イチノミヤチョウアヅミ","prefecture_code":28},"4104":{"zip_code":"6714104","prefecture":"兵庫県","prefecture_kana":"ヒョウゴケン","city":"宍粟市","city_kana":"シソウシ","town":"一宮町井内","town_kana":"イチノミヤチョウイウチ","prefecture_code":28},"4123":{"zip_code":"6714123","prefecture":"兵庫県","prefecture_kana":"ヒョウゴケン","city":"宍粟市","city_kana":"シソウシ","town":"一宮町生栖","town_kana":"イチノミヤチョウイギス","prefecture_code":28},"4134":{"zip_code":"6714134","prefecture":"兵庫県","prefecture_kana":"ヒョウゴケン","city":"宍粟市","city_kana":"シソウシ","town":"一宮町伊和","town_kana":"イチノミヤチョウイワ","prefecture_code":28},"4137":{"zip_code":"6714137","prefecture":"兵庫県","prefecture_kana":"ヒョウゴケン","city":"宍粟市","city_kana":"シソウシ","town":"一宮町閏賀","town_kana":"イチノミヤチョウウルカ","prefecture_code":28},"4106":{"zip_code":"6714106","prefecture":"兵庫県","prefecture_kana":"ヒョウゴケン","city":"宍粟市","city_kana":"シソウシ","town":"一宮町百千家満","town_kana":"イチノミヤチョウオチヤマ","prefecture_code":28},"4105":{"zip_code":"6714105","prefecture":"兵庫県","prefecture_kana":"ヒョウゴケン","city":"宍粟市","city_kana":"シソウシ","town":"一宮町上岸田","town_kana":"イチノミヤチョウカミキシダ","prefecture_code":28},"4143":{"zip_code":"6714143","prefecture":"兵庫県","prefecture_kana":"ヒョウゴケン","city":"宍粟市","city_kana":"シソウシ","town":"一宮町上野田","town_kana":"イチノミヤチョウカミノダ","prefecture_code":28},"4115":{"zip_code":"6714115","prefecture":"兵庫県","prefecture_kana":"ヒョウゴケン","city":"宍粟市","city_kana":"シソウシ","town":"一宮町河原田","town_kana":"イチノミヤチョウカワハラダ","prefecture_code":28},"4107":{"zip_code":"6714107","prefecture":"兵庫県","prefecture_kana":"ヒョウゴケン","city":"宍粟市","city_kana":"シソウシ","town":"一宮町草木","town_kana":"イチノミヤチョウクサギ","prefecture_code":28},"4111":{"zip_code":"6714111","prefecture":"兵庫県","prefecture_kana":"ヒョウゴケン","city":"宍粟市","city_kana":"シソウシ","town":"一宮町公文","town_kana":"イチノミヤチョウクモン","prefecture_code":28},"4101":{"zip_code":"6714101","prefecture":"兵庫県","prefecture_kana":"ヒョウゴケン","city":"宍粟市","city_kana":"シソウシ","town":"一宮町倉床","town_kana":"イチノミヤチョウクラトコ","prefecture_code":28},"4103":{"zip_code":"6714103","prefecture":"兵庫県","prefecture_kana":"ヒョウゴケン","city":"宍粟市","city_kana":"シソウシ","town":"一宮町黒原","town_kana":"イチノミヤチョウクロハラ","prefecture_code":28},"4136":{"zip_code":"6714136","prefecture":"兵庫県","prefecture_kana":"ヒョウゴケン","city":"宍粟市","city_kana":"シソウシ","town":"一宮町嶋田","town_kana":"イチノミヤチョウシマダ","prefecture_code":28},"4144":{"zip_code":"6714144","prefecture":"兵庫県","prefecture_kana":"ヒョウゴケン","city":"宍粟市","city_kana":"シソウシ","town":"一宮町下野田","town_kana":"イチノミヤチョウシモノダ","prefecture_code":28},"4139":{"zip_code":"6714139","prefecture":"兵庫県","prefecture_kana":"ヒョウゴケン","city":"宍粟市","city_kana":"シソウシ","town":"一宮町杉田","town_kana":"イチノミヤチョウスギタ","prefecture_code":28},"4133":{"zip_code":"6714133","prefecture":"兵庫県","prefecture_kana":"ヒョウゴケン","city":"宍粟市","city_kana":"シソウシ","town":"一宮町須行名","town_kana":"イチノミヤチョウスギョウメ","prefecture_code":28},"4108":{"zip_code":"6714108","prefecture":"兵庫県","prefecture_kana":"ヒョウゴケン","city":"宍粟市","city_kana":"シソウシ","town":"一宮町千町","town_kana":"イチノミヤチョウセンチョウ","prefecture_code":28},"4138":{"zip_code":"6714138","prefecture":"兵庫県","prefecture_kana":"ヒョウゴケン","city":"宍粟市","city_kana":"シソウシ","town":"一宮町西安積","town_kana":"イチノミヤチョウニシアヅミ","prefecture_code":28},"4125":{"zip_code":"6714125","prefecture":"兵庫県","prefecture_kana":"ヒョウゴケン","city":"宍粟市","city_kana":"シソウシ","town":"一宮町西深","town_kana":"イチノミヤチョウニシブカ","prefecture_code":28},"4132":{"zip_code":"6714132","prefecture":"兵庫県","prefecture_kana":"ヒョウゴケン","city":"宍粟市","city_kana":"シソウシ","town":"一宮町東市場","town_kana":"イチノミヤチョウヒガシイチバ","prefecture_code":28},"4141":{"zip_code":"6714141","prefecture":"兵庫県","prefecture_kana":"ヒョウゴケン","city":"宍粟市","city_kana":"シソウシ","town":"一宮町東河内","town_kana":"イチノミヤチョウヒガシゴウチ","prefecture_code":28},"4124":{"zip_code":"6714124","prefecture":"兵庫県","prefecture_kana":"ヒョウゴケン","city":"宍粟市","city_kana":"シソウシ","town":"一宮町深河谷","town_kana":"イチノミヤチョウフカダニ","prefecture_code":28},"4122":{"zip_code":"6714122","prefecture":"兵庫県","prefecture_kana":"ヒョウゴケン","city":"宍粟市","city_kana":"シソウシ","town":"一宮町福知","town_kana":"イチノミヤチョウフクチ","prefecture_code":28},"4121":{"zip_code":"6714121","prefecture":"兵庫県","prefecture_kana":"ヒョウゴケン","city":"宍粟市","city_kana":"シソウシ","town":"一宮町福中","town_kana":"イチノミヤチョウフクナカ","prefecture_code":28},"4114":{"zip_code":"6714114","prefecture":"兵庫県","prefecture_kana":"ヒョウゴケン","city":"宍粟市","city_kana":"シソウシ","town":"一宮町福野","town_kana":"イチノミヤチョウフクノ","prefecture_code":28},"4113":{"zip_code":"6714113","prefecture":"兵庫県","prefecture_kana":"ヒョウゴケン","city":"宍粟市","city_kana":"シソウシ","town":"一宮町三方町","town_kana":"イチノミヤチョウミカタマチ","prefecture_code":28},"4112":{"zip_code":"6714112","prefecture":"兵庫県","prefecture_kana":"ヒョウゴケン","city":"宍粟市","city_kana":"シソウシ","town":"一宮町森添","town_kana":"イチノミヤチョウモリソエ","prefecture_code":28},"4142":{"zip_code":"6714142","prefecture":"兵庫県","prefecture_kana":"ヒョウゴケン","city":"宍粟市","city_kana":"シソウシ","town":"一宮町能倉","town_kana":"イチノミヤチョウヨクラ","prefecture_code":28},"4102":{"zip_code":"6714102","prefecture":"兵庫県","prefecture_kana":"ヒョウゴケン","city":"宍粟市","city_kana":"シソウシ","town":"一宮町横山","town_kana":"イチノミヤチョウヨコヤマ","prefecture_code":28},"3211":{"zip_code":"6713211","prefecture":"兵庫県","prefecture_kana":"ヒョウゴケン","city":"宍粟市","city_kana":"シソウシ","town":"千種町岩野辺","town_kana":"チクサチョウイワノベ","prefecture_code":28},"3222":{"zip_code":"6713222","prefecture":"兵庫県","prefecture_kana":"ヒョウゴケン","city":"宍粟市","city_kana":"シソウシ","town":"千種町奥西山","town_kana":"チクサチョウオクニシヤマ","prefecture_code":28},"3202":{"zip_code":"6713202","prefecture":"兵庫県","prefecture_kana":"ヒョウゴケン","city":"宍粟市","city_kana":"シソウシ","town":"千種町黒土","town_kana":"チクサチョウクロヅチ","prefecture_code":28},"3225":{"zip_code":"6713225","prefecture":"兵庫県","prefecture_kana":"ヒョウゴケン","city":"宍粟市","city_kana":"シソウシ","town":"千種町下河野","town_kana":"チクサチョウケゴノ","prefecture_code":28},"3232":{"zip_code":"6713232","prefecture":"兵庫県","prefecture_kana":"ヒョウゴケン","city":"宍粟市","city_kana":"シソウシ","town":"千種町河内","town_kana":"チクサチョウコウチ","prefecture_code":28},"3231":{"zip_code":"6713231","prefecture":"兵庫県","prefecture_kana":"ヒョウゴケン","city":"宍粟市","city_kana":"シソウシ","town":"千種町河呂","town_kana":"チクサチョウコウロ","prefecture_code":28},"3212":{"zip_code":"6713212","prefecture":"兵庫県","prefecture_kana":"ヒョウゴケン","city":"宍粟市","city_kana":"シソウシ","town":"千種町鷹巣","town_kana":"チクサチョウタカノス","prefecture_code":28},"3201":{"zip_code":"6713201","prefecture":"兵庫県","prefecture_kana":"ヒョウゴケン","city":"宍粟市","city_kana":"シソウシ","town":"千種町千草","town_kana":"チクサチョウチクサ","prefecture_code":28},"3233":{"zip_code":"6713233","prefecture":"兵庫県","prefecture_kana":"ヒョウゴケン","city":"宍粟市","city_kana":"シソウシ","town":"千種町西河内","town_kana":"チクサチョウニシゴウチ","prefecture_code":28},"3221":{"zip_code":"6713221","prefecture":"兵庫県","prefecture_kana":"ヒョウゴケン","city":"宍粟市","city_kana":"シソウシ","town":"千種町西山","town_kana":"チクサチョウニシヤマ","prefecture_code":28},"3224":{"zip_code":"6713224","prefecture":"兵庫県","prefecture_kana":"ヒョウゴケン","city":"宍粟市","city_kana":"シソウシ","town":"千種町七野","town_kana":"チクサチョウヒツノ","prefecture_code":28},"3223":{"zip_code":"6713223","prefecture":"兵庫県","prefecture_kana":"ヒョウゴケン","city":"宍粟市","city_kana":"シソウシ","town":"千種町室","town_kana":"チクサチョウムロ","prefecture_code":28},"4231":{"zip_code":"6714231","prefecture":"兵庫県","prefecture_kana":"ヒョウゴケン","city":"宍粟市","city_kana":"シソウシ","town":"波賀町有賀","town_kana":"ハガチョウアリガ","prefecture_code":28},"4215":{"zip_code":"6714215","prefecture":"兵庫県","prefecture_kana":"ヒョウゴケン","city":"宍粟市","city_kana":"シソウシ","town":"波賀町飯見","town_kana":"ハガチョウイイミ","prefecture_code":28},"4242":{"zip_code":"6714242","prefecture":"兵庫県","prefecture_kana":"ヒョウゴケン","city":"宍粟市","city_kana":"シソウシ","town":"波賀町今市","town_kana":"ハガチョウイマイチ","prefecture_code":28},"4221":{"zip_code":"6714221","prefecture":"兵庫県","prefecture_kana":"ヒョウゴケン","city":"宍粟市","city_kana":"シソウシ","town":"波賀町上野","town_kana":"ハガチョウウエノ","prefecture_code":28},"4243":{"zip_code":"6714243","prefecture":"兵庫県","prefecture_kana":"ヒョウゴケン","city":"宍粟市","city_kana":"シソウシ","town":"波賀町小野","town_kana":"ハガチョウオノ","prefecture_code":28},"4211":{"zip_code":"6714211","prefecture":"兵庫県","prefecture_kana":"ヒョウゴケン","city":"宍粟市","city_kana":"シソウシ","town":"波賀町音水","town_kana":"ハガチョウオンズイ","prefecture_code":28},"4232":{"zip_code":"6714232","prefecture":"兵庫県","prefecture_kana":"ヒョウゴケン","city":"宍粟市","city_kana":"シソウシ","town":"波賀町斉木","town_kana":"ハガチョウサイキ","prefecture_code":28},"4203":{"zip_code":"6714203","prefecture":"兵庫県","prefecture_kana":"ヒョウゴケン","city":"宍粟市","city_kana":"シソウシ","town":"波賀町鹿伏","town_kana":"ハガチョウシカブシ","prefecture_code":28},"4244":{"zip_code":"6714244","prefecture":"兵庫県","prefecture_kana":"ヒョウゴケン","city":"宍粟市","city_kana":"シソウシ","town":"波賀町谷","town_kana":"ハガチョウタニ","prefecture_code":28},"4202":{"zip_code":"6714202","prefecture":"兵庫県","prefecture_kana":"ヒョウゴケン","city":"宍粟市","city_kana":"シソウシ","town":"波賀町道谷","town_kana":"ハガチョウドウタニ","prefecture_code":28},"4201":{"zip_code":"6714201","prefecture":"兵庫県","prefecture_kana":"ヒョウゴケン","city":"宍粟市","city_kana":"シソウシ","town":"波賀町戸倉","town_kana":"ハガチョウトクラ","prefecture_code":28},"4214":{"zip_code":"6714214","prefecture":"兵庫県","prefecture_kana":"ヒョウゴケン","city":"宍粟市","city_kana":"シソウシ","town":"波賀町野尻","town_kana":"ハガチョウノジリ","prefecture_code":28},"4213":{"zip_code":"6714213","prefecture":"兵庫県","prefecture_kana":"ヒョウゴケン","city":"宍粟市","city_kana":"シソウシ","town":"波賀町原","town_kana":"ハガチョウハラ","prefecture_code":28},"4204":{"zip_code":"6714204","prefecture":"兵庫県","prefecture_kana":"ヒョウゴケン","city":"宍粟市","city_kana":"シソウシ","town":"波賀町引原","town_kana":"ハガチョウヒキハラ","prefecture_code":28},"4212":{"zip_code":"6714212","prefecture":"兵庫県","prefecture_kana":"ヒョウゴケン","city":"宍粟市","city_kana":"シソウシ","town":"波賀町日ノ原","town_kana":"ハガチョウヒノハラ","prefecture_code":28},"4245":{"zip_code":"6714245","prefecture":"兵庫県","prefecture_kana":"ヒョウゴケン","city":"宍粟市","city_kana":"シソウシ","town":"波賀町日見谷","town_kana":"ハガチョウヒミタニ","prefecture_code":28},"4216":{"zip_code":"6714216","prefecture":"兵庫県","prefecture_kana":"ヒョウゴケン","city":"宍粟市","city_kana":"シソウシ","town":"波賀町皆木","town_kana":"ハガチョウミナギ","prefecture_code":28},"4241":{"zip_code":"6714241","prefecture":"兵庫県","prefecture_kana":"ヒョウゴケン","city":"宍粟市","city_kana":"シソウシ","town":"波賀町安賀","town_kana":"ハガチョウヤスガ","prefecture_code":28},"2564":{"zip_code":"6712564","prefecture":"兵庫県","prefecture_kana":"ヒョウゴケン","city":"宍粟市","city_kana":"シソウシ","town":"山崎町青木","town_kana":"ヤマサキチョウアオキ","prefecture_code":28},"2515":{"zip_code":"6712515","prefecture":"兵庫県","prefecture_kana":"ヒョウゴケン","city":"宍粟市","city_kana":"シソウシ","town":"山崎町五十波","town_kana":"ヤマサキチョウイカバ","prefecture_code":28},"2517":{"zip_code":"6712517","prefecture":"兵庫県","prefecture_kana":"ヒョウゴケン","city":"宍粟市","city_kana":"シソウシ","town":"山崎町生谷","town_kana":"ヤマサキチョウイギダニ","prefecture_code":28},"2566":{"zip_code":"6712566","prefecture":"兵庫県","prefecture_kana":"ヒョウゴケン","city":"宍粟市","city_kana":"シソウシ","town":"山崎町市場","town_kana":"ヤマサキチョウイチバ","prefecture_code":28},"2573":{"zip_code":"6712573","prefecture":"兵庫県","prefecture_kana":"ヒョウゴケン","city":"宍粟市","city_kana":"シソウシ","town":"山崎町今宿","town_kana":"ヤマサキチョウイマジュク","prefecture_code":28},"2571":{"zip_code":"6712571","prefecture":"兵庫県","prefecture_kana":"ヒョウゴケン","city":"宍粟市","city_kana":"シソウシ","town":"山崎町上寺","town_kana":"ヤマサキチョウウエデラ","prefecture_code":28},"2506":{"zip_code":"6712506","prefecture":"兵庫県","prefecture_kana":"ヒョウゴケン","city":"宍粟市","city_kana":"シソウシ","town":"山崎町宇野","town_kana":"ヤマサキチョウウノ","prefecture_code":28},"2535":{"zip_code":"6712535","prefecture":"兵庫県","prefecture_kana":"ヒョウゴケン","city":"宍粟市","city_kana":"シソウシ","town":"山崎町宇原","town_kana":"ヤマサキチョウウワラ","prefecture_code":28},"2562":{"zip_code":"6712562","prefecture":"兵庫県","prefecture_kana":"ヒョウゴケン","city":"宍粟市","city_kana":"シソウシ","town":"山崎町大沢","town_kana":"ヤマサキチョウオオサワ","prefecture_code":28},"2503":{"zip_code":"6712503","prefecture":"兵庫県","prefecture_kana":"ヒョウゴケン","city":"宍粟市","city_kana":"シソウシ","town":"山崎町大谷","town_kana":"ヤマサキチョウオオタニ","prefecture_code":28},"2513":{"zip_code":"6712513","prefecture":"兵庫県","prefecture_kana":"ヒョウゴケン","city":"宍粟市","city_kana":"シソウシ","town":"山崎町梯","town_kana":"ヤマサキチョウカケハシ","prefecture_code":28},"2570":{"zip_code":"6712570","prefecture":"兵庫県","prefecture_kana":"ヒョウゴケン","city":"宍粟市","city_kana":"シソウシ","town":"山崎町加生","town_kana":"ヤマサキチョウカショウ","prefecture_code":28},"2568":{"zip_code":"6712568","prefecture":"兵庫県","prefecture_kana":"ヒョウゴケン","city":"宍粟市","city_kana":"シソウシ","town":"山崎町葛根","town_kana":"ヤマサキチョウカズラネ","prefecture_code":28},"2505":{"zip_code":"6712505","prefecture":"兵庫県","prefecture_kana":"ヒョウゴケン","city":"宍粟市","city_kana":"シソウシ","town":"山崎町片山","town_kana":"ヤマサキチョウカタヤマ","prefecture_code":28},"2555":{"zip_code":"6712555","prefecture":"兵庫県","prefecture_kana":"ヒョウゴケン","city":"宍粟市","city_kana":"シソウシ","town":"山崎町金谷","town_kana":"ヤマサキチョウカナヤ","prefecture_code":28},"2501":{"zip_code":"6712501","prefecture":"兵庫県","prefecture_kana":"ヒョウゴケン","city":"宍粟市","city_kana":"シソウシ","town":"山崎町上ノ","town_kana":"ヤマサキチョウカミノ","prefecture_code":28},"2558":{"zip_code":"6712558","prefecture":"兵庫県","prefecture_kana":"ヒョウゴケン","city":"宍粟市","city_kana":"シソウシ","town":"山崎町上比地","town_kana":"ヤマサキチョウカミヒジ","prefecture_code":28},"2508":{"zip_code":"6712508","prefecture":"兵庫県","prefecture_kana":"ヒョウゴケン","city":"宍粟市","city_kana":"シソウシ","town":"山崎町上牧谷","town_kana":"ヤマサキチョウカミマキダニ","prefecture_code":28},"2534":{"zip_code":"6712534","prefecture":"兵庫県","prefecture_kana":"ヒョウゴケン","city":"宍粟市","city_kana":"シソウシ","town":"山崎町川戸","town_kana":"ヤマサキチョウカワト","prefecture_code":28},"2527":{"zip_code":"6712527","prefecture":"兵庫県","prefecture_kana":"ヒョウゴケン","city":"宍粟市","city_kana":"シソウシ","town":"山崎町岸田","town_kana":"ヤマサキチョウキシダ","prefecture_code":28},"2567":{"zip_code":"6712567","prefecture":"兵庫県","prefecture_kana":"ヒョウゴケン","city":"宍粟市","city_kana":"シソウシ","town":"山崎町木谷","town_kana":"ヤマサキチョウキダニ","prefecture_code":28},"2521":{"zip_code":"6712521","prefecture":"兵庫県","prefecture_kana":"ヒョウゴケン","city":"宍粟市","city_kana":"シソウシ","town":"山崎町木ノ谷","town_kana":"ヤマサキチョウキノタニ","prefecture_code":28},"2565":{"zip_code":"6712565","prefecture":"兵庫県","prefecture_kana":"ヒョウゴケン","city":"宍粟市","city_kana":"シソウシ","town":"山崎町高下","town_kana":"ヤマサキチョウコウゲ","prefecture_code":28},"2532":{"zip_code":"6712532","prefecture":"兵庫県","prefecture_kana":"ヒョウゴケン","city":"宍粟市","city_kana":"シソウシ","town":"山崎町高所","town_kana":"ヤマサキチョウコウゾ","prefecture_code":28},"2525":{"zip_code":"6712525","prefecture":"兵庫県","prefecture_kana":"ヒョウゴケン","city":"宍粟市","city_kana":"シソウシ","town":"山崎町神谷","town_kana":"ヤマサキチョウコウダニ","prefecture_code":28},"2561":{"zip_code":"6712561","prefecture":"兵庫県","prefecture_kana":"ヒョウゴケン","city":"宍粟市","city_kana":"シソウシ","town":"山崎町小茅野","town_kana":"ヤマサキチョウコガイノ","prefecture_code":28},"2554":{"zip_code":"6712554","prefecture":"兵庫県","prefecture_kana":"ヒョウゴケン","city":"宍粟市","city_kana":"シソウシ","town":"山崎町御名","town_kana":"ヤマサキチョウゴミョウ","prefecture_code":28},"2563":{"zip_code":"6712563","prefecture":"兵庫県","prefecture_kana":"ヒョウゴケン","city":"宍粟市","city_kana":"シソウシ","town":"山崎町塩田","town_kana":"ヤマサキチョウシオタ","prefecture_code":28},"2560":{"zip_code":"6712560","prefecture":"兵庫県","prefecture_kana":"ヒョウゴケン","city":"宍粟市","city_kana":"シソウシ","town":"山崎町塩山","town_kana":"ヤマサキチョウシオヤマ","prefecture_code":28},"2576":{"zip_code":"6712576","prefecture":"兵庫県","prefecture_kana":"ヒョウゴケン","city":"宍粟市","city_kana":"シソウシ","town":"山崎町鹿沢","town_kana":"ヤマサキチョウシカサワ","prefecture_code":28},"2536":{"zip_code":"6712536","prefecture":"兵庫県","prefecture_kana":"ヒョウゴケン","city":"宍粟市","city_kana":"シソウシ","town":"山崎町下宇原","town_kana":"ヤマサキチョウシモウワラ","prefecture_code":28},"2556":{"zip_code":"6712556","prefecture":"兵庫県","prefecture_kana":"ヒョウゴケン","city":"宍粟市","city_kana":"シソウシ","town":"山崎町下比地","town_kana":"ヤマサキチョウシモヒジ","prefecture_code":28},"2541":{"zip_code":"6712541","prefecture":"兵庫県","prefecture_kana":"ヒョウゴケン","city":"宍粟市","city_kana":"シソウシ","town":"山崎町下広瀬","town_kana":"ヤマサキチョウシモビロセ","prefecture_code":28},"2507":{"zip_code":"6712507","prefecture":"兵庫県","prefecture_kana":"ヒョウゴケン","city":"宍粟市","city_kana":"シソウシ","town":"山崎町下牧谷","town_kana":"ヤマサキチョウシモマキダニ","prefecture_code":28},"2519":{"zip_code":"6712519","prefecture":"兵庫県","prefecture_kana":"ヒョウゴケン","city":"宍粟市","city_kana":"シソウシ","town":"山崎町下町","town_kana":"ヤマサキチョウシモマチ","prefecture_code":28},"2572":{"zip_code":"6712572","prefecture":"兵庫県","prefecture_kana":"ヒョウゴケン","city":"宍粟市","city_kana":"シソウシ","town":"山崎町庄能","town_kana":"ヤマサキチョウショウノウ","prefecture_code":28},"2533":{"zip_code":"6712533","prefecture":"兵庫県","prefecture_kana":"ヒョウゴケン","city":"宍粟市","city_kana":"シソウシ","town":"山崎町須賀沢","town_kana":"ヤマサキチョウスカザワ","prefecture_code":28},"2522":{"zip_code":"6712522","prefecture":"兵庫県","prefecture_kana":"ヒョウゴケン","city":"宍粟市","city_kana":"シソウシ","town":"山崎町杉ケ瀬","town_kana":"ヤマサキチョウスギガセ","prefecture_code":28},"2511":{"zip_code":"6712511","prefecture":"兵庫県","prefecture_kana":"ヒョウゴケン","city":"宍粟市","city_kana":"シソウシ","town":"山崎町清野","town_kana":"ヤマサキチョウセイノ","prefecture_code":28},"2544":{"zip_code":"6712544","prefecture":"兵庫県","prefecture_kana":"ヒョウゴケン","city":"宍粟市","city_kana":"シソウシ","town":"山崎町千本屋","town_kana":"ヤマサキチョウセンボンヤ","prefecture_code":28},"2514":{"zip_code":"6712514","prefecture":"兵庫県","prefecture_kana":"ヒョウゴケン","city":"宍粟市","city_kana":"シソウシ","town":"山崎町田井","town_kana":"ヤマサキチョウタイ","prefecture_code":28},"2552":{"zip_code":"6712552","prefecture":"兵庫県","prefecture_kana":"ヒョウゴケン","city":"宍粟市","city_kana":"シソウシ","town":"山崎町段","town_kana":"ヤマサキチョウダン","prefecture_code":28},"2553":{"zip_code":"6712553","prefecture":"兵庫県","prefecture_kana":"ヒョウゴケン","city":"宍粟市","city_kana":"シソウシ","town":"山崎町鶴木","town_kana":"ヤマサキチョウツルギ","prefecture_code":28},"2531":{"zip_code":"6712531","prefecture":"兵庫県","prefecture_kana":"ヒョウゴケン","city":"宍粟市","city_kana":"シソウシ","town":"山崎町中","town_kana":"ヤマサキチョウナカ","prefecture_code":28},"2545":{"zip_code":"6712545","prefecture":"兵庫県","prefecture_kana":"ヒョウゴケン","city":"宍粟市","city_kana":"シソウシ","town":"山崎町中井","town_kana":"ヤマサキチョウナカイ","prefecture_code":28},"2502":{"zip_code":"6712502","prefecture":"兵庫県","prefecture_kana":"ヒョウゴケン","city":"宍粟市","city_kana":"シソウシ","town":"山崎町中野","town_kana":"ヤマサキチョウナカノ","prefecture_code":28},"2557":{"zip_code":"6712557","prefecture":"兵庫県","prefecture_kana":"ヒョウゴケン","city":"宍粟市","city_kana":"シソウシ","town":"山崎町中比地","town_kana":"ヤマサキチョウナカヒジ","prefecture_code":28},"2574":{"zip_code":"6712574","prefecture":"兵庫県","prefecture_kana":"ヒョウゴケン","city":"宍粟市","city_kana":"シソウシ","town":"山崎町中広瀬","town_kana":"ヤマサキチョウナカビロセ","prefecture_code":28},"2543":{"zip_code":"6712543","prefecture":"兵庫県","prefecture_kana":"ヒョウゴケン","city":"宍粟市","city_kana":"シソウシ","town":"山崎町野","town_kana":"ヤマサキチョウノ","prefecture_code":28},"2528":{"zip_code":"6712528","prefecture":"兵庫県","prefecture_kana":"ヒョウゴケン","city":"宍粟市","city_kana":"シソウシ","town":"山崎町野々上","town_kana":"ヤマサキチョウノノウエ","prefecture_code":28},"2551":{"zip_code":"6712551","prefecture":"兵庫県","prefecture_kana":"ヒョウゴケン","city":"宍粟市","city_kana":"シソウシ","town":"山崎町春安","town_kana":"ヤマサキチョウハルヤス","prefecture_code":28},"2504":{"zip_code":"6712504","prefecture":"兵庫県","prefecture_kana":"ヒョウゴケン","city":"宍粟市","city_kana":"シソウシ","town":"山崎町東下野","town_kana":"ヤマサキチョウヒガシシモノ","prefecture_code":28},"2569":{"zip_code":"6712569","prefecture":"兵庫県","prefecture_kana":"ヒョウゴケン","city":"宍粟市","city_kana":"シソウシ","town":"山崎町土万","town_kana":"ヤマサキチョウヒジマ","prefecture_code":28},"2542":{"zip_code":"6712542","prefecture":"兵庫県","prefecture_kana":"ヒョウゴケン","city":"宍粟市","city_kana":"シソウシ","town":"山崎町船元","town_kana":"ヤマサキチョウフナモト","prefecture_code":28},"2524":{"zip_code":"6712524","prefecture":"兵庫県","prefecture_kana":"ヒョウゴケン","city":"宍粟市","city_kana":"シソウシ","town":"山崎町三谷","town_kana":"ヤマサキチョウミタニ","prefecture_code":28},"2516":{"zip_code":"6712516","prefecture":"兵庫県","prefecture_kana":"ヒョウゴケン","city":"宍粟市","city_kana":"シソウシ","town":"山崎町三津","town_kana":"ヤマサキチョウミツヅ","prefecture_code":28},"2523":{"zip_code":"6712523","prefecture":"兵庫県","prefecture_kana":"ヒョウゴケン","city":"宍粟市","city_kana":"シソウシ","town":"山崎町母栖","town_kana":"ヤマサキチョウモス","prefecture_code":28},"2578":{"zip_code":"6712578","prefecture":"兵庫県","prefecture_kana":"ヒョウゴケン","city":"宍粟市","city_kana":"シソウシ","town":"山崎町元山崎","town_kana":"ヤマサキチョウモトヤマサキ","prefecture_code":28},"2579":{"zip_code":"6712579","prefecture":"兵庫県","prefecture_kana":"ヒョウゴケン","city":"宍粟市","city_kana":"シソウシ","town":"山崎町門前","town_kana":"ヤマサキチョウモンゼン","prefecture_code":28},"2526":{"zip_code":"6712526","prefecture":"兵庫県","prefecture_kana":"ヒョウゴケン","city":"宍粟市","city_kana":"シソウシ","town":"山崎町矢原","town_kana":"ヤマサキチョウヤバラ","prefecture_code":28},"2577":{"zip_code":"6712577","prefecture":"兵庫県","prefecture_kana":"ヒョウゴケン","city":"宍粟市","city_kana":"シソウシ","town":"山崎町山崎","town_kana":"ヤマサキチョウヤマサキ","prefecture_code":28},"2575":{"zip_code":"6712575","prefecture":"兵庫県","prefecture_kana":"ヒョウゴケン","city":"宍粟市","city_kana":"シソウシ","town":"山崎町山田","town_kana":"ヤマサキチョウヤマダ","prefecture_code":28},"2512":{"zip_code":"6712512","prefecture":"兵庫県","prefecture_kana":"ヒョウゴケン","city":"宍粟市","city_kana":"シソウシ","town":"山崎町与位","town_kana":"ヤマサキチョウヨイ","prefecture_code":28},"2518":{"zip_code":"6712518","prefecture":"兵庫県","prefecture_kana":"ヒョウゴケン","city":"宍粟市","city_kana":"シソウシ","town":"山崎町横須","town_kana":"ヤマサキチョウヨコス","prefecture_code":28},"1662":{"zip_code":"6711662","prefecture":"兵庫県","prefecture_kana":"ヒョウゴケン","city":"たつの市","city_kana":"タツノシ","town":"揖保川町市場","town_kana":"イボガワチョウイチバ","prefecture_code":28},"1665":{"zip_code":"6711665","prefecture":"兵庫県","prefecture_kana":"ヒョウゴケン","city":"たつの市","city_kana":"タツノシ","town":"揖保川町馬場","town_kana":"イボガワチョウウマバ","prefecture_code":28},"1663":{"zip_code":"6711663","prefecture":"兵庫県","prefecture_kana":"ヒョウゴケン","city":"たつの市","city_kana":"タツノシ","town":"揖保川町浦部","town_kana":"イボガワチョウウラベ","prefecture_code":28},"1651":{"zip_code":"6711651","prefecture":"兵庫県","prefecture_kana":"ヒョウゴケン","city":"たつの市","city_kana":"タツノシ","town":"揖保川町片島","town_kana":"イボガワチョウカタシマ","prefecture_code":28},"1643":{"zip_code":"6711643","prefecture":"兵庫県","prefecture_kana":"ヒョウゴケン","city":"たつの市","city_kana":"タツノシ","town":"揖保川町神戸北山","town_kana":"イボガワチョウカンベキタヤマ","prefecture_code":28},"1632":{"zip_code":"6711632","prefecture":"兵庫県","prefecture_kana":"ヒョウゴケン","city":"たつの市","city_kana":"タツノシ","town":"揖保川町黍田","town_kana":"イボガワチョウキビタ","prefecture_code":28},"1664":{"zip_code":"6711664","prefecture":"兵庫県","prefecture_kana":"ヒョウゴケン","city":"たつの市","city_kana":"タツノシ","town":"揖保川町金剛山","town_kana":"イボガワチョウコンゴウサン","prefecture_code":28},"1621":{"zip_code":"6711621","prefecture":"兵庫県","prefecture_kana":"ヒョウゴケン","city":"たつの市","city_kana":"タツノシ","town":"揖保川町正條","town_kana":"イボガワチョウショウジョウ","prefecture_code":28},"1611":{"zip_code":"6711611","prefecture":"兵庫県","prefecture_kana":"ヒョウゴケン","city":"たつの市","city_kana":"タツノシ","town":"揖保川町新在家","town_kana":"イボガワチョウシンザイケ","prefecture_code":28},"1642":{"zip_code":"6711642","prefecture":"兵庫県","prefecture_kana":"ヒョウゴケン","city":"たつの市","city_kana":"タツノシ","town":"揖保川町大門","town_kana":"イボガワチョウダイモン","prefecture_code":28},"1602":{"zip_code":"6711602","prefecture":"兵庫県","prefecture_kana":"ヒョウゴケン","city":"たつの市","city_kana":"タツノシ","town":"揖保川町野田","town_kana":"イボガワチョウノダ","prefecture_code":28},"1641":{"zip_code":"6711641","prefecture":"兵庫県","prefecture_kana":"ヒョウゴケン","city":"たつの市","city_kana":"タツノシ","town":"揖保川町原","town_kana":"イボガワチョウハラ","prefecture_code":28},"1601":{"zip_code":"6711601","prefecture":"兵庫県","prefecture_kana":"ヒョウゴケン","city":"たつの市","city_kana":"タツノシ","town":"揖保川町半田","town_kana":"イボガワチョウハンダ","prefecture_code":28},"1661":{"zip_code":"6711661","prefecture":"兵庫県","prefecture_kana":"ヒョウゴケン","city":"たつの市","city_kana":"タツノシ","town":"揖保川町袋尻","town_kana":"イボガワチョウフクロジリ","prefecture_code":28},"1613":{"zip_code":"6711613","prefecture":"兵庫県","prefecture_kana":"ヒョウゴケン","city":"たつの市","city_kana":"タツノシ","town":"揖保川町二塚","town_kana":"イボガワチョウフタツカ","prefecture_code":28},"1612":{"zip_code":"6711612","prefecture":"兵庫県","prefecture_kana":"ヒョウゴケン","city":"たつの市","city_kana":"タツノシ","town":"揖保川町本條","town_kana":"イボガワチョウホンジョウ","prefecture_code":28},"1603":{"zip_code":"6711603","prefecture":"兵庫県","prefecture_kana":"ヒョウゴケン","city":"たつの市","city_kana":"タツノシ","town":"揖保川町養久","town_kana":"イボガワチョウヤク","prefecture_code":28},"1631":{"zip_code":"6711631","prefecture":"兵庫県","prefecture_kana":"ヒョウゴケン","city":"たつの市","city_kana":"タツノシ","town":"揖保川町山津屋","town_kana":"イボガワチョウヤマツヤ","prefecture_code":28},"1342":{"zip_code":"6711342","prefecture":"兵庫県","prefecture_kana":"ヒョウゴケン","city":"たつの市","city_kana":"タツノシ","town":"御津町朝臣","town_kana":"ミツチョウアサトミ","prefecture_code":28},"1312":{"zip_code":"6711312","prefecture":"兵庫県","prefecture_kana":"ヒョウゴケン","city":"たつの市","city_kana":"タツノシ","town":"御津町碇岩","town_kana":"ミツチョウイカリイワ","prefecture_code":28},"1331":{"zip_code":"6711331","prefecture":"兵庫県","prefecture_kana":"ヒョウゴケン","city":"たつの市","city_kana":"タツノシ","town":"御津町岩見","town_kana":"ミツチョウイワミ","prefecture_code":28},"1341":{"zip_code":"6711341","prefecture":"兵庫県","prefecture_kana":"ヒョウゴケン","city":"たつの市","city_kana":"タツノシ","town":"御津町釜屋","town_kana":"ミツチョウカマヤ","prefecture_code":28},"1321":{"zip_code":"6711321","prefecture":"兵庫県","prefecture_kana":"ヒョウゴケン","city":"たつの市","city_kana":"タツノシ","town":"御津町苅屋","town_kana":"ミツチョウカリヤ","prefecture_code":28},"1301":{"zip_code":"6711301","prefecture":"兵庫県","prefecture_kana":"ヒョウゴケン","city":"たつの市","city_kana":"タツノシ","town":"御津町黒崎","town_kana":"ミツチョウクロサキ","prefecture_code":28},"1311":{"zip_code":"6711311","prefecture":"兵庫県","prefecture_kana":"ヒョウゴケン","city":"たつの市","city_kana":"タツノシ","town":"御津町中島","town_kana":"ミツチョウナカシマ","prefecture_code":28},"1332":{"zip_code":"6711332","prefecture":"兵庫県","prefecture_kana":"ヒョウゴケン","city":"たつの市","city_kana":"タツノシ","town":"御津町室津","town_kana":"ミツチョウムロツ","prefecture_code":28},"1500":{"zip_code":"6711500","prefecture":"兵庫県","prefecture_kana":"ヒョウゴケン","city":"揖保郡太子町","city_kana":"イボグンタイシチョウ","town":"以下に掲載がない場合","town_kana":"イカニケイサイガナイバアイ","prefecture_code":28},"1557":{"zip_code":"6711557","prefecture":"兵庫県","prefecture_kana":"ヒョウゴケン","city":"揖保郡太子町","city_kana":"イボグンタイシチョウ","town":"阿曽","town_kana":"アソ","prefecture_code":28},"1561":{"zip_code":"6711561","prefecture":"兵庫県","prefecture_kana":"ヒョウゴケン","city":"揖保郡太子町","city_kana":"イボグンタイシチョウ","town":"鵤","town_kana":"イカルガ","prefecture_code":28},"1532":{"zip_code":"6711532","prefecture":"兵庫県","prefecture_kana":"ヒョウゴケン","city":"揖保郡太子町","city_kana":"イボグンタイシチョウ","town":"糸井","town_kana":"イトイ","prefecture_code":28},"1545":{"zip_code":"6711545","prefecture":"兵庫県","prefecture_kana":"ヒョウゴケン","city":"揖保郡太子町","city_kana":"イボグンタイシチョウ","town":"岩見構","town_kana":"イワミカマエ","prefecture_code":28},"1553":{"zip_code":"6711553","prefecture":"兵庫県","prefecture_kana":"ヒョウゴケン","city":"揖保郡太子町","city_kana":"イボグンタイシチョウ","town":"老原","town_kana":"オイバラ","prefecture_code":28},"1572":{"zip_code":"6711572","prefecture":"兵庫県","prefecture_kana":"ヒョウゴケン","city":"揖保郡太子町","city_kana":"イボグンタイシチョウ","town":"王子","town_kana":"オウジ","prefecture_code":28},"1511":{"zip_code":"6711511","prefecture":"兵庫県","prefecture_kana":"ヒョウゴケン","city":"揖保郡太子町","city_kana":"イボグンタイシチョウ","town":"太田","town_kana":"オオタ","prefecture_code":28},"1543":{"zip_code":"6711543","prefecture":"兵庫県","prefecture_kana":"ヒョウゴケン","city":"揖保郡太子町","city_kana":"イボグンタイシチョウ","town":"沖代","town_kana":"オキダイ","prefecture_code":28},"1573":{"zip_code":"6711573","prefecture":"兵庫県","prefecture_kana":"ヒョウゴケン","city":"揖保郡太子町","city_kana":"イボグンタイシチョウ","town":"上太田","town_kana":"カミオオダ","prefecture_code":28},"1504":{"zip_code":"6711504","prefecture":"兵庫県","prefecture_kana":"ヒョウゴケン","city":"揖保郡太子町","city_kana":"イボグンタイシチョウ","town":"黒岡","town_kana":"クロオカ","prefecture_code":28},"1575":{"zip_code":"6711575","prefecture":"兵庫県","prefecture_kana":"ヒョウゴケン","city":"揖保郡太子町","city_kana":"イボグンタイシチョウ","town":"佐用岡","town_kana":"サヨオカ","prefecture_code":28},"1552":{"zip_code":"6711552","prefecture":"兵庫県","prefecture_kana":"ヒョウゴケン","city":"揖保郡太子町","city_kana":"イボグンタイシチョウ","town":"下阿曽","town_kana":"シモアソ","prefecture_code":28},"1556":{"zip_code":"6711556","prefecture":"兵庫県","prefecture_kana":"ヒョウゴケン","city":"揖保郡太子町","city_kana":"イボグンタイシチョウ","town":"常全","town_kana":"ジョウゼン","prefecture_code":28},"1533":{"zip_code":"6711533","prefecture":"兵庫県","prefecture_kana":"ヒョウゴケン","city":"揖保郡太子町","city_kana":"イボグンタイシチョウ","town":"竹広","town_kana":"タケヒロ","prefecture_code":28},"1531":{"zip_code":"6711531","prefecture":"兵庫県","prefecture_kana":"ヒョウゴケン","city":"揖保郡太子町","city_kana":"イボグンタイシチョウ","town":"立岡","town_kana":"タツオカ","prefecture_code":28},"1541":{"zip_code":"6711541","prefecture":"兵庫県","prefecture_kana":"ヒョウゴケン","city":"揖保郡太子町","city_kana":"イボグンタイシチョウ","town":"塚森","town_kana":"ツカモリ","prefecture_code":28},"1503":{"zip_code":"6711503","prefecture":"兵庫県","prefecture_kana":"ヒョウゴケン","city":"揖保郡太子町","city_kana":"イボグンタイシチョウ","town":"天満山","town_kana":"テンマヤマ","prefecture_code":28},"1521":{"zip_code":"6711521","prefecture":"兵庫県","prefecture_kana":"ヒョウゴケン","city":"揖保郡太子町","city_kana":"イボグンタイシチョウ","town":"東出","town_kana":"トウデ","prefecture_code":28},"1523":{"zip_code":"6711523","prefecture":"兵庫県","prefecture_kana":"ヒョウゴケン","city":"揖保郡太子町","city_kana":"イボグンタイシチョウ","town":"東南","town_kana":"トウナン","prefecture_code":28},"1524":{"zip_code":"6711524","prefecture":"兵庫県","prefecture_kana":"ヒョウゴケン","city":"揖保郡太子町","city_kana":"イボグンタイシチョウ","town":"東保","town_kana":"トウボ","prefecture_code":28},"1551":{"zip_code":"6711551","prefecture":"兵庫県","prefecture_kana":"ヒョウゴケン","city":"揖保郡太子町","city_kana":"イボグンタイシチョウ","town":"馬場","town_kana":"ババ","prefecture_code":28},"1502":{"zip_code":"6711502","prefecture":"兵庫県","prefecture_kana":"ヒョウゴケン","city":"揖保郡太子町","city_kana":"イボグンタイシチョウ","town":"原","town_kana":"ハラ","prefecture_code":28},"1571":{"zip_code":"6711571","prefecture":"兵庫県","prefecture_kana":"ヒョウゴケン","city":"揖保郡太子町","city_kana":"イボグンタイシチョウ","town":"広坂","town_kana":"ヒロサカ","prefecture_code":28},"1534":{"zip_code":"6711534","prefecture":"兵庫県","prefecture_kana":"ヒョウゴケン","city":"揖保郡太子町","city_kana":"イボグンタイシチョウ","town":"福地","town_kana":"フクジ","prefecture_code":28},"1554":{"zip_code":"6711554","prefecture":"兵庫県","prefecture_kana":"ヒョウゴケン","city":"揖保郡太子町","city_kana":"イボグンタイシチョウ","town":"船代","town_kana":"フナダイ","prefecture_code":28},"1576":{"zip_code":"6711576","prefecture":"兵庫県","prefecture_kana":"ヒョウゴケン","city":"揖保郡太子町","city_kana":"イボグンタイシチョウ","town":"松尾","town_kana":"マツオ","prefecture_code":28},"1574":{"zip_code":"6711574","prefecture":"兵庫県","prefecture_kana":"ヒョウゴケン","city":"揖保郡太子町","city_kana":"イボグンタイシチョウ","town":"松ケ下","town_kana":"マツガシタ","prefecture_code":28},"1555":{"zip_code":"6711555","prefecture":"兵庫県","prefecture_kana":"ヒョウゴケン","city":"揖保郡太子町","city_kana":"イボグンタイシチョウ","town":"宮本","town_kana":"ミヤモト","prefecture_code":28},"1522":{"zip_code":"6711522","prefecture":"兵庫県","prefecture_kana":"ヒョウゴケン","city":"揖保郡太子町","city_kana":"イボグンタイシチョウ","town":"矢田部","town_kana":"ヤタベ","prefecture_code":28},"1501":{"zip_code":"6711501","prefecture":"兵庫県","prefecture_kana":"ヒョウゴケン","city":"揖保郡太子町","city_kana":"イボグンタイシチョウ","town":"山田","town_kana":"ヤマダ","prefecture_code":28},"1544":{"zip_code":"6711544","prefecture":"兵庫県","prefecture_kana":"ヒョウゴケン","city":"揖保郡太子町","city_kana":"イボグンタイシチョウ","town":"吉福","town_kana":"ヨシフク","prefecture_code":28},"1542":{"zip_code":"6711542","prefecture":"兵庫県","prefecture_kana":"ヒョウゴケン","city":"揖保郡太子町","city_kana":"イボグンタイシチョウ","town":"米田","town_kana":"ヨネダ","prefecture_code":28},"1535":{"zip_code":"6711535","prefecture":"兵庫県","prefecture_kana":"ヒョウゴケン","city":"揖保郡太子町","city_kana":"イボグンタイシチョウ","town":"蓮常寺","town_kana":"レンジョウジ","prefecture_code":28}}