{"0000":{"zip_code":"6730000","prefecture":"兵庫県","prefecture_kana":"ヒョウゴケン","city":"明石市","city_kana":"アカシシ","town":"","town_kana":"","prefecture_code":28},"0882":{"zip_code":"6730882","prefecture":"兵庫県","prefecture_kana":"ヒョウゴケン","city":"明石市","city_kana":"アカシシ","town":"相生町","town_kana":"アイオイチョウ","prefecture_code":28},"0847":{"zip_code":"6730847","prefecture":"兵庫県","prefecture_kana":"ヒョウゴケン","city":"明石市","city_kana":"アカシシ","town":"明石公園","town_kana":"アカシコウエン","prefecture_code":28},"0851":{"zip_code":"6730851","prefecture":"兵庫県","prefecture_kana":"ヒョウゴケン","city":"明石市","city_kana":"アカシシ","town":"朝霧北町","town_kana":"アサギリキタマチ","prefecture_code":28},"0852":{"zip_code":"6730852","prefecture":"兵庫県","prefecture_kana":"ヒョウゴケン","city":"明石市","city_kana":"アカシシ","town":"朝霧台","town_kana":"アサギリダイ","prefecture_code":28},"0866":{"zip_code":"6730866","prefecture":"兵庫県","prefecture_kana":"ヒョウゴケン","city":"明石市","city_kana":"アカシシ","town":"朝霧町","town_kana":"アサギリチョウ","prefecture_code":28},"0860":{"zip_code":"6730860","prefecture":"兵庫県","prefecture_kana":"ヒョウゴケン","city":"明石市","city_kana":"アカシシ","town":"朝霧東町","town_kana":"アサギリヒガシマチ","prefecture_code":28},"0870":{"zip_code":"6730870","prefecture":"兵庫県","prefecture_kana":"ヒョウゴケン","city":"明石市","city_kana":"アカシシ","town":"朝霧南町","town_kana":"アサギリミナミマチ","prefecture_code":28},"0853":{"zip_code":"6730853","prefecture":"兵庫県","prefecture_kana":"ヒョウゴケン","city":"明石市","city_kana":"アカシシ","town":"朝霧山手町","town_kana":"アサギリヤマテチョウ","prefecture_code":28},"0002":{"zip_code":"6730002","prefecture":"兵庫県","prefecture_kana":"ヒョウゴケン","city":"明石市","city_kana":"アカシシ","town":"旭が丘","town_kana":"アサヒガオカ","prefecture_code":28},"0846":{"zip_code":"6730846","prefecture":"兵庫県","prefecture_kana":"ヒョウゴケン","city":"明石市","city_kana":"アカシシ","town":"上ノ丸","town_kana":"ウエノマル","prefecture_code":28},"0022":{"zip_code":"6730022","prefecture":"兵庫県","prefecture_kana":"ヒョウゴケン","city":"明石市","city_kana":"アカシシ","town":"王子","town_kana":"オウジ","prefecture_code":28},"0891":{"zip_code":"6730891","prefecture":"兵庫県","prefecture_kana":"ヒョウゴケン","city":"明石市","city_kana":"アカシシ","town":"大明石町","town_kana":"オオアカシチョウ","prefecture_code":28},"0879":{"zip_code":"6730879","prefecture":"兵庫県","prefecture_kana":"ヒョウゴケン","city":"明石市","city_kana":"アカシシ","town":"大蔵海岸通","town_kana":"オオクラカイガンドオリ","prefecture_code":28},"0875":{"zip_code":"6730875","prefecture":"兵庫県","prefecture_kana":"ヒョウゴケン","city":"明石市","city_kana":"アカシシ","town":"大蔵天神町","town_kana":"オオクラテンジンチョウ","prefecture_code":28},"0873":{"zip_code":"6730873","prefecture":"兵庫県","prefecture_kana":"ヒョウゴケン","city":"明石市","city_kana":"アカシシ","town":"大蔵中町","town_kana":"オオクラナカマチ","prefecture_code":28},"0871":{"zip_code":"6730871","prefecture":"兵庫県","prefecture_kana":"ヒョウゴケン","city":"明石市","city_kana":"アカシシ","town":"大蔵八幡町","town_kana":"オオクラハチマンチョウ","prefecture_code":28},"0874":{"zip_code":"6730874","prefecture":"兵庫県","prefecture_kana":"ヒョウゴケン","city":"明石市","city_kana":"アカシシ","town":"大蔵本町","town_kana":"オオクラホンマチ","prefecture_code":28},"0867":{"zip_code":"6730867","prefecture":"兵庫県","prefecture_kana":"ヒョウゴケン","city":"明石市","city_kana":"アカシシ","town":"大蔵谷奥","town_kana":"オオクラダニオク","prefecture_code":28},"0872":{"zip_code":"6730872","prefecture":"兵庫県","prefecture_kana":"ヒョウゴケン","city":"明石市","city_kana":"アカシシ","town":"大蔵町","town_kana":"オオクラチョウ","prefecture_code":28},"0884":{"zip_code":"6730884","prefecture":"兵庫県","prefecture_kana":"ヒョウゴケン","city":"明石市","city_kana":"アカシシ","town":"鍛治屋町","town_kana":"カジヤチョウ","prefecture_code":28},"0012":[{"zip_code":"6730012","prefecture":"兵庫県","prefecture_kana":"ヒョウゴケン","city":"明石市","city_kana":"アカシシ","town":"和坂","town_kana":"カニガサカ","prefecture_code":28},{"zip_code":"6730012","prefecture":"兵庫県","prefecture_kana":"ヒョウゴケン","city":"明石市","city_kana":"アカシシ","town":"和坂","town_kana":"ワサカ","prefecture_code":28}],"0014":{"zip_code":"6730014","prefecture":"兵庫県","prefecture_kana":"ヒョウゴケン","city":"明石市","city_kana":"アカシシ","town":"川崎町","town_kana":"カワサキチョウ","prefecture_code":28},"0037":{"zip_code":"6730037","prefecture":"兵庫県","prefecture_kana":"ヒョウゴケン","city":"明石市","city_kana":"アカシシ","town":"貴崎","town_kana":"キサキ","prefecture_code":28},"0857":{"zip_code":"6730857","prefecture":"兵庫県","prefecture_kana":"ヒョウゴケン","city":"明石市","city_kana":"アカシシ","town":"北朝霧丘","town_kana":"キタアサギリオカ","prefecture_code":28},"0021":{"zip_code":"6730021","prefecture":"兵庫県","prefecture_kana":"ヒョウゴケン","city":"明石市","city_kana":"アカシシ","town":"北王子町","town_kana":"キタオウジチョウ","prefecture_code":28},"0005":{"zip_code":"6730005","prefecture":"兵庫県","prefecture_kana":"ヒョウゴケン","city":"明石市","city_kana":"アカシシ","town":"小久保","town_kana":"コクボ","prefecture_code":28},"0893":{"zip_code":"6730893","prefecture":"兵庫県","prefecture_kana":"ヒョウゴケン","city":"明石市","city_kana":"アカシシ","town":"材木町","town_kana":"ザイモクチョウ","prefecture_code":28},"0849":{"zip_code":"6730849","prefecture":"兵庫県","prefecture_kana":"ヒョウゴケン","city":"明石市","city_kana":"アカシシ","town":"茶園場町","town_kana":"サエンバチョウ","prefecture_code":28},"0885":{"zip_code":"6730885","prefecture":"兵庫県","prefecture_kana":"ヒョウゴケン","city":"明石市","city_kana":"アカシシ","town":"桜町","town_kana":"サクラチョウ","prefecture_code":28},"0008":{"zip_code":"6730008","prefecture":"兵庫県","prefecture_kana":"ヒョウゴケン","city":"明石市","city_kana":"アカシシ","town":"沢野","town_kana":"サワノ","prefecture_code":28},"0027":{"zip_code":"6730027","prefecture":"兵庫県","prefecture_kana":"ヒョウゴケン","city":"明石市","city_kana":"アカシシ","town":"新明町","town_kana":"シンメイチョウ","prefecture_code":28},"0028":{"zip_code":"6730028","prefecture":"兵庫県","prefecture_kana":"ヒョウゴケン","city":"明石市","city_kana":"アカシシ","town":"硯町","town_kana":"スズリチョウ","prefecture_code":28},"0897":{"zip_code":"6730897","prefecture":"兵庫県","prefecture_kana":"ヒョウゴケン","city":"明石市","city_kana":"アカシシ","town":"大観町","town_kana":"タイカンチョウ","prefecture_code":28},"0845":{"zip_code":"6730845","prefecture":"兵庫県","prefecture_kana":"ヒョウゴケン","city":"明石市","city_kana":"アカシシ","town":"太寺","town_kana":"タイデラ","prefecture_code":28},"0843":{"zip_code":"6730843","prefecture":"兵庫県","prefecture_kana":"ヒョウゴケン","city":"明石市","city_kana":"アカシシ","town":"太寺大野町","town_kana":"タイデラオオノチョウ","prefecture_code":28},"0841":{"zip_code":"6730841","prefecture":"兵庫県","prefecture_kana":"ヒョウゴケン","city":"明石市","city_kana":"アカシシ","town":"太寺天王町","town_kana":"タイデラテンノウチョウ","prefecture_code":28},"0029":{"zip_code":"6730029","prefecture":"兵庫県","prefecture_kana":"ヒョウゴケン","city":"明石市","city_kana":"アカシシ","town":"大道町","town_kana":"ダイドウチョウ","prefecture_code":28},"0848":{"zip_code":"6730848","prefecture":"兵庫県","prefecture_kana":"ヒョウゴケン","city":"明石市","city_kana":"アカシシ","town":"鷹匠町","town_kana":"タカショウマチ","prefecture_code":28},"0032":{"zip_code":"6730032","prefecture":"兵庫県","prefecture_kana":"ヒョウゴケン","city":"明石市","city_kana":"アカシシ","town":"立石","town_kana":"タテイシ","prefecture_code":28},"0025":{"zip_code":"6730025","prefecture":"兵庫県","prefecture_kana":"ヒョウゴケン","city":"明石市","city_kana":"アカシシ","town":"田町","town_kana":"タマチ","prefecture_code":28},"0898":{"zip_code":"6730898","prefecture":"兵庫県","prefecture_kana":"ヒョウゴケン","city":"明石市","city_kana":"アカシシ","town":"樽屋町","town_kana":"タルヤマチ","prefecture_code":28},"0881":{"zip_code":"6730881","prefecture":"兵庫県","prefecture_kana":"ヒョウゴケン","city":"明石市","city_kana":"アカシシ","town":"天文町","town_kana":"テンモンチョウ","prefecture_code":28},"0003":{"zip_code":"6730003","prefecture":"兵庫県","prefecture_kana":"ヒョウゴケン","city":"明石市","city_kana":"アカシシ","town":"鳥羽","town_kana":"トバ","prefecture_code":28},"0007":{"zip_code":"6730007","prefecture":"兵庫県","prefecture_kana":"ヒョウゴケン","city":"明石市","city_kana":"アカシシ","town":"鳥羽西鳥羽","town_kana":"トバニシトバ","prefecture_code":28},"0006":{"zip_code":"6730006","prefecture":"兵庫県","prefecture_kana":"ヒョウゴケン","city":"明石市","city_kana":"アカシシ","town":"鳥羽二本松","town_kana":"トバニホンマツ","prefecture_code":28},"0004":{"zip_code":"6730004","prefecture":"兵庫県","prefecture_kana":"ヒョウゴケン","city":"明石市","city_kana":"アカシシ","town":"鳥羽弁財天","town_kana":"トバベンザイテン","prefecture_code":28},"0855":{"zip_code":"6730855","prefecture":"兵庫県","prefecture_kana":"ヒョウゴケン","city":"明石市","city_kana":"アカシシ","town":"中朝霧丘","town_kana":"ナカアサギリオカ","prefecture_code":28},"0883":{"zip_code":"6730883","prefecture":"兵庫県","prefecture_kana":"ヒョウゴケン","city":"明石市","city_kana":"アカシシ","town":"中崎","town_kana":"ナカサキ","prefecture_code":28},"0009":{"zip_code":"6730009","prefecture":"兵庫県","prefecture_kana":"ヒョウゴケン","city":"明石市","city_kana":"アカシシ","town":"西明石東町","town_kana":"ニシアカシヒガシマチ","prefecture_code":28},"0049":{"zip_code":"6730049","prefecture":"兵庫県","prefecture_kana":"ヒョウゴケン","city":"明石市","city_kana":"アカシシ","town":"西明石西町","town_kana":"ニシアカシニシマチ","prefecture_code":28},"0041":{"zip_code":"6730041","prefecture":"兵庫県","prefecture_kana":"ヒョウゴケン","city":"明石市","city_kana":"アカシシ","town":"西明石南町","town_kana":"ニシアカシミナミチョウ","prefecture_code":28},"0018":{"zip_code":"6730018","prefecture":"兵庫県","prefecture_kana":"ヒョウゴケン","city":"明石市","city_kana":"アカシシ","town":"西明石北町","town_kana":"ニシアカシキタマチ","prefecture_code":28},"0011":{"zip_code":"6730011","prefecture":"兵庫県","prefecture_kana":"ヒョウゴケン","city":"明石市","city_kana":"アカシシ","town":"西明石町","town_kana":"ニシアカシチョウ","prefecture_code":28},"0856":{"zip_code":"6730856","prefecture":"兵庫県","prefecture_kana":"ヒョウゴケン","city":"明石市","city_kana":"アカシシ","town":"西朝霧丘","town_kana":"ニシアサギリオカ","prefecture_code":28},"0023":{"zip_code":"6730023","prefecture":"兵庫県","prefecture_kana":"ヒョウゴケン","city":"明石市","city_kana":"アカシシ","town":"西新町","town_kana":"ニシシンマチ","prefecture_code":28},"0842":{"zip_code":"6730842","prefecture":"兵庫県","prefecture_kana":"ヒョウゴケン","city":"明石市","city_kana":"アカシシ","town":"荷山町","town_kana":"ニヤマチョウ","prefecture_code":28},"0017":{"zip_code":"6730017","prefecture":"兵庫県","prefecture_kana":"ヒョウゴケン","city":"明石市","city_kana":"アカシシ","town":"野々上","town_kana":"ノノウエ","prefecture_code":28},"0015":{"zip_code":"6730015","prefecture":"兵庫県","prefecture_kana":"ヒョウゴケン","city":"明石市","city_kana":"アカシシ","town":"花園町","town_kana":"ハナゾノチョウ","prefecture_code":28},"0034":{"zip_code":"6730034","prefecture":"兵庫県","prefecture_kana":"ヒョウゴケン","city":"明石市","city_kana":"アカシシ","town":"林","town_kana":"ハヤシ","prefecture_code":28},"0033":{"zip_code":"6730033","prefecture":"兵庫県","prefecture_kana":"ヒョウゴケン","city":"明石市","city_kana":"アカシシ","town":"林崎町","town_kana":"ハヤシサキチョウ","prefecture_code":28},"0854":{"zip_code":"6730854","prefecture":"兵庫県","prefecture_kana":"ヒョウゴケン","city":"明石市","city_kana":"アカシシ","town":"東朝霧丘","town_kana":"ヒガシアサギリオカ","prefecture_code":28},"0886":{"zip_code":"6730886","prefecture":"兵庫県","prefecture_kana":"ヒョウゴケン","city":"明石市","city_kana":"アカシシ","town":"東仲ノ町","town_kana":"ヒガシナカノチョウ","prefecture_code":28},"0844":{"zip_code":"6730844","prefecture":"兵庫県","prefecture_kana":"ヒョウゴケン","city":"明石市","city_kana":"アカシシ","town":"東野町","town_kana":"ヒガシノチョウ","prefecture_code":28},"0876":{"zip_code":"6730876","prefecture":"兵庫県","prefecture_kana":"ヒョウゴケン","city":"明石市","city_kana":"アカシシ","town":"東人丸町","town_kana":"ヒガシヒトマルチョウ","prefecture_code":28},"0042":{"zip_code":"6730042","prefecture":"兵庫県","prefecture_kana":"ヒョウゴケン","city":"明石市","city_kana":"アカシシ","town":"東藤江","town_kana":"ヒガシフジエ","prefecture_code":28},"0868":{"zip_code":"6730868","prefecture":"兵庫県","prefecture_kana":"ヒョウゴケン","city":"明石市","city_kana":"アカシシ","town":"東山町","town_kana":"ヒガシヤマチョウ","prefecture_code":28},"0877":{"zip_code":"6730877","prefecture":"兵庫県","prefecture_kana":"ヒョウゴケン","city":"明石市","city_kana":"アカシシ","town":"人丸町","town_kana":"ヒトマルチョウ","prefecture_code":28},"0896":{"zip_code":"6730896","prefecture":"兵庫県","prefecture_kana":"ヒョウゴケン","city":"明石市","city_kana":"アカシシ","town":"日富美町","town_kana":"ヒフミチョウ","prefecture_code":28},"0044":{"zip_code":"6730044","prefecture":"兵庫県","prefecture_kana":"ヒョウゴケン","city":"明石市","city_kana":"アカシシ","town":"藤江","town_kana":"フジエ","prefecture_code":28},"0043":{"zip_code":"6730043","prefecture":"兵庫県","prefecture_kana":"ヒョウゴケン","city":"明石市","city_kana":"アカシシ","town":"藤江川添","town_kana":"フジエカワゾエ","prefecture_code":28},"0047":{"zip_code":"6730047","prefecture":"兵庫県","prefecture_kana":"ヒョウゴケン","city":"明石市","city_kana":"アカシシ","town":"藤江中谷町","town_kana":"フジエナカタニチョウ","prefecture_code":28},"0048":{"zip_code":"6730048","prefecture":"兵庫県","prefecture_kana":"ヒョウゴケン","city":"明石市","city_kana":"アカシシ","town":"藤江中谷山","town_kana":"フジエナカタニヤマ","prefecture_code":28},"0045":{"zip_code":"6730045","prefecture":"兵庫県","prefecture_kana":"ヒョウゴケン","city":"明石市","city_kana":"アカシシ","town":"藤江若林","town_kana":"フジエワカバヤシ","prefecture_code":28},"0046":{"zip_code":"6730046","prefecture":"兵庫県","prefecture_kana":"ヒョウゴケン","city":"明石市","city_kana":"アカシシ","town":"藤が丘","town_kana":"フジガオカ","prefecture_code":28},"0026":{"zip_code":"6730026","prefecture":"兵庫県","prefecture_kana":"ヒョウゴケン","city":"明石市","city_kana":"アカシシ","town":"船上町","town_kana":"フナゲチョウ","prefecture_code":28},"0038":{"zip_code":"6730038","prefecture":"兵庫県","prefecture_kana":"ヒョウゴケン","city":"明石市","city_kana":"アカシシ","town":"別所町","town_kana":"ベッショチョウ","prefecture_code":28},"0892":{"zip_code":"6730892","prefecture":"兵庫県","prefecture_kana":"ヒョウゴケン","city":"明石市","city_kana":"アカシシ","town":"本町","town_kana":"ホンマチ","prefecture_code":28},"0036":{"zip_code":"6730036","prefecture":"兵庫県","prefecture_kana":"ヒョウゴケン","city":"明石市","city_kana":"アカシシ","town":"松江","town_kana":"マツエ","prefecture_code":28},"0862":{"zip_code":"6730862","prefecture":"兵庫県","prefecture_kana":"ヒョウゴケン","city":"明石市","city_kana":"アカシシ","town":"松が丘","town_kana":"マツガオカ","prefecture_code":28},"0861":{"zip_code":"6730861","prefecture":"兵庫県","prefecture_kana":"ヒョウゴケン","city":"明石市","city_kana":"アカシシ","town":"松が丘北町","town_kana":"マツガオカキタマチ","prefecture_code":28},"0016":{"zip_code":"6730016","prefecture":"兵庫県","prefecture_kana":"ヒョウゴケン","city":"明石市","city_kana":"アカシシ","town":"松の内","town_kana":"マツノウチ","prefecture_code":28},"0895":{"zip_code":"6730895","prefecture":"兵庫県","prefecture_kana":"ヒョウゴケン","city":"明石市","city_kana":"アカシシ","town":"岬町","town_kana":"ミサキチョウ","prefecture_code":28},"0894":{"zip_code":"6730894","prefecture":"兵庫県","prefecture_kana":"ヒョウゴケン","city":"明石市","city_kana":"アカシシ","town":"港町","town_kana":"ミナトチョウ","prefecture_code":28},"0024":{"zip_code":"6730024","prefecture":"兵庫県","prefecture_kana":"ヒョウゴケン","city":"明石市","city_kana":"アカシシ","town":"南王子町","town_kana":"ミナミオウジチョウ","prefecture_code":28},"0035":{"zip_code":"6730035","prefecture":"兵庫県","prefecture_kana":"ヒョウゴケン","city":"明石市","city_kana":"アカシシ","town":"南貴崎町","town_kana":"ミナミキサキチョウ","prefecture_code":28},"0031":{"zip_code":"6730031","prefecture":"兵庫県","prefecture_kana":"ヒョウゴケン","city":"明石市","city_kana":"アカシシ","town":"宮の上","town_kana":"ミヤノウエ","prefecture_code":28},"0001":{"zip_code":"6730001","prefecture":"兵庫県","prefecture_kana":"ヒョウゴケン","city":"明石市","city_kana":"アカシシ","town":"明南町","town_kana":"メイナンチョウ","prefecture_code":28},"0878":{"zip_code":"6730878","prefecture":"兵庫県","prefecture_kana":"ヒョウゴケン","city":"明石市","city_kana":"アカシシ","town":"山下町","town_kana":"ヤマシタチョウ","prefecture_code":28},"0013":{"zip_code":"6730013","prefecture":"兵庫県","prefecture_kana":"ヒョウゴケン","city":"明石市","city_kana":"アカシシ","town":"和坂稲荷町","town_kana":"ワサカイナリチョウ","prefecture_code":28},"0400":{"zip_code":"6730400","prefecture":"兵庫県","prefecture_kana":"ヒョウゴケン","city":"三木市","city_kana":"ミキシ","town":"","town_kana":"","prefecture_code":28},"0401":{"zip_code":"6730401","prefecture":"兵庫県","prefecture_kana":"ヒョウゴケン","city":"三木市","city_kana":"ミキシ","town":"跡部","town_kana":"アトベ","prefecture_code":28},"0412":{"zip_code":"6730412","prefecture":"兵庫県","prefecture_kana":"ヒョウゴケン","city":"三木市","city_kana":"ミキシ","town":"岩宮","town_kana":"イワミヤ","prefecture_code":28},"0432":{"zip_code":"6730432","prefecture":"兵庫県","prefecture_kana":"ヒョウゴケン","city":"三木市","city_kana":"ミキシ","town":"上の丸町","town_kana":"ウエノマルチョウ","prefecture_code":28},"0413":{"zip_code":"6730413","prefecture":"兵庫県","prefecture_kana":"ヒョウゴケン","city":"三木市","city_kana":"ミキシ","town":"大塚","town_kana":"オオツカ","prefecture_code":28},"0404":{"zip_code":"6730404","prefecture":"兵庫県","prefecture_kana":"ヒョウゴケン","city":"三木市","city_kana":"ミキシ","town":"大村","town_kana":"オオムラ","prefecture_code":28},"0402":{"zip_code":"6730402","prefecture":"兵庫県","prefecture_kana":"ヒョウゴケン","city":"三木市","city_kana":"ミキシ","town":"加佐","town_kana":"カサ","prefecture_code":28},"0723":{"zip_code":"6730723","prefecture":"兵庫県","prefecture_kana":"ヒョウゴケン","city":"三木市","city_kana":"ミキシ","town":"加佐草荷野","town_kana":"カサソウカノ","prefecture_code":28},"0425":{"zip_code":"6730425","prefecture":"兵庫県","prefecture_kana":"ヒョウゴケン","city":"三木市","city_kana":"ミキシ","town":"君が峰町","town_kana":"キミガミネチョウ","prefecture_code":28},"0755":{"zip_code":"6730755","prefecture":"兵庫県","prefecture_kana":"ヒョウゴケン","city":"三木市","city_kana":"ミキシ","town":"口吉川町大島","town_kana":"クチヨカワチョウオオシマ","prefecture_code":28},"0752":{"zip_code":"6730752","prefecture":"兵庫県","prefecture_kana":"ヒョウゴケン","city":"三木市","city_kana":"ミキシ","town":"口吉川町吉祥寺","town_kana":"クチヨカワチョウキツショウジ","prefecture_code":28},"0743":{"zip_code":"6730743","prefecture":"兵庫県","prefecture_kana":"ヒョウゴケン","city":"三木市","city_kana":"ミキシ","town":"口吉川町桾原","town_kana":"クチヨカワチョウクヌギハラ","prefecture_code":28},"0757":{"zip_code":"6730757","prefecture":"兵庫県","prefecture_kana":"ヒョウゴケン","city":"三木市","city_kana":"ミキシ","town":"口吉川町笹原","town_kana":"クチヨカワチョウササハラ","prefecture_code":28},"0751":{"zip_code":"6730751","prefecture":"兵庫県","prefecture_kana":"ヒョウゴケン","city":"三木市","city_kana":"ミキシ","town":"口吉川町里脇","town_kana":"クチヨカワチョウサトワキ","prefecture_code":28},"0754":{"zip_code":"6730754","prefecture":"兵庫県","prefecture_kana":"ヒョウゴケン","city":"三木市","city_kana":"ミキシ","town":"口吉川町善祥寺","town_kana":"クチヨカワチョウゼンショウジ","prefecture_code":28},"0741":{"zip_code":"6730741","prefecture":"兵庫県","prefecture_kana":"ヒョウゴケン","city":"三木市","city_kana":"ミキシ","town":"口吉川町殿畑","town_kana":"クチヨカワチョウトノハタ","prefecture_code":28},"0735":{"zip_code":"6730735","prefecture":"兵庫県","prefecture_kana":"ヒョウゴケン","city":"三木市","city_kana":"ミキシ","town":"口吉川町西中","town_kana":"クチヨカワチョウニシナカ","prefecture_code":28},"0732":{"zip_code":"6730732","prefecture":"兵庫県","prefecture_kana":"ヒョウゴケン","city":"三木市","city_kana":"ミキシ","town":"口吉川町馬場","town_kana":"クチヨカワチョウババ","prefecture_code":28},"0731":{"zip_code":"6730731","prefecture":"兵庫県","prefecture_kana":"ヒョウゴケン","city":"三木市","city_kana":"ミキシ","town":"口吉川町東中","town_kana":"クチヨカワチョウヒガシナカ","prefecture_code":28},"0758":{"zip_code":"6730758","prefecture":"兵庫県","prefecture_kana":"ヒョウゴケン","city":"三木市","city_kana":"ミキシ","town":"口吉川町久次","town_kana":"クチヨカワチョウヒサツグ","prefecture_code":28},"0742":{"zip_code":"6730742","prefecture":"兵庫県","prefecture_kana":"ヒョウゴケン","city":"三木市","city_kana":"ミキシ","town":"口吉川町保木","town_kana":"クチヨカワチョウホキ","prefecture_code":28},"0753":{"zip_code":"6730753","prefecture":"兵庫県","prefecture_kana":"ヒョウゴケン","city":"三木市","city_kana":"ミキシ","town":"口吉川町槇","town_kana":"クチヨカワチョウマキ","prefecture_code":28},"0756":{"zip_code":"6730756","prefecture":"兵庫県","prefecture_kana":"ヒョウゴケン","city":"三木市","city_kana":"ミキシ","town":"口吉川町南畑","town_kana":"クチヨカワチョウミナミバタ","prefecture_code":28},"0736":{"zip_code":"6730736","prefecture":"兵庫県","prefecture_kana":"ヒョウゴケン","city":"三木市","city_kana":"ミキシ","town":"口吉川町桃坂","town_kana":"クチヨカワチョウモモザカ","prefecture_code":28},"0734":{"zip_code":"6730734","prefecture":"兵庫県","prefecture_kana":"ヒョウゴケン","city":"三木市","city_kana":"ミキシ","town":"口吉川町蓮花寺","town_kana":"クチヨカワチョウレンゲジ","prefecture_code":28},"0733":{"zip_code":"6730733","prefecture":"兵庫県","prefecture_kana":"ヒョウゴケン","city":"三木市","city_kana":"ミキシ","town":"口吉川町東","town_kana":"クチヨカワチョウヒガシ","prefecture_code":28},"0411":{"zip_code":"6730411","prefecture":"兵庫県","prefecture_kana":"ヒョウゴケン","city":"三木市","city_kana":"ミキシ","town":"久留美","town_kana":"クルミ","prefecture_code":28},"0436":{"zip_code":"6730436","prefecture":"兵庫県","prefecture_kana":"ヒョウゴケン","city":"三木市","city_kana":"ミキシ","town":"さつき台","town_kana":"サツキダイ","prefecture_code":28},"0521":{"zip_code":"6730521","prefecture":"兵庫県","prefecture_kana":"ヒョウゴケン","city":"三木市","city_kana":"ミキシ","town":"志染町青山","town_kana":"シジミチョウアオヤマ","prefecture_code":28},"0502":{"zip_code":"6730502","prefecture":"兵庫県","prefecture_kana":"ヒョウゴケン","city":"三木市","city_kana":"ミキシ","town":"志染町安福田","town_kana":"シジミチョウアブタ","prefecture_code":28},"0512":{"zip_code":"6730512","prefecture":"兵庫県","prefecture_kana":"ヒョウゴケン","city":"三木市","city_kana":"ミキシ","town":"志染町井上","town_kana":"シジミチョウイノウエ","prefecture_code":28},"0503":{"zip_code":"6730503","prefecture":"兵庫県","prefecture_kana":"ヒョウゴケン","city":"三木市","city_kana":"ミキシ","town":"志染町窟屋","town_kana":"シジミチョウイワヤ","prefecture_code":28},"0513":{"zip_code":"6730513","prefecture":"兵庫県","prefecture_kana":"ヒョウゴケン","city":"三木市","city_kana":"ミキシ","town":"志染町大谷","town_kana":"シジミチョウオオタニ","prefecture_code":28},"0504":{"zip_code":"6730504","prefecture":"兵庫県","prefecture_kana":"ヒョウゴケン","city":"三木市","city_kana":"ミキシ","town":"志染町高男寺","town_kana":"シジミチョウコウナンジ","prefecture_code":28},"0506":{"zip_code":"6730506","prefecture":"兵庫県","prefecture_kana":"ヒョウゴケン","city":"三木市","city_kana":"ミキシ","town":"志染町四合谷","town_kana":"シジミチョウシゴウダニ","prefecture_code":28},"0511":{"zip_code":"6730511","prefecture":"兵庫県","prefecture_kana":"ヒョウゴケン","city":"三木市","city_kana":"ミキシ","town":"志染町志染中","town_kana":"シジミチョウシジミナカ","prefecture_code":28},"0514":{"zip_code":"6730514","prefecture":"兵庫県","prefecture_kana":"ヒョウゴケン","city":"三木市","city_kana":"ミキシ","town":"志染町戸田","town_kana":"シジミチョウトダ","prefecture_code":28},"0552":{"zip_code":"6730552","prefecture":"兵庫県","prefecture_kana":"ヒョウゴケン","city":"三木市","city_kana":"ミキシ","town":"志染町中自由が丘","town_kana":"シジミチョウナカジユウガオカ","prefecture_code":28},"0553":{"zip_code":"6730553","prefecture":"兵庫県","prefecture_kana":"ヒョウゴケン","city":"三木市","city_kana":"ミキシ","town":"志染町東自由が丘","town_kana":"シジミチョウヒガシジユウガオカ","prefecture_code":28},"0551":{"zip_code":"6730551","prefecture":"兵庫県","prefecture_kana":"ヒョウゴケン","city":"三木市","city_kana":"ミキシ","town":"志染町西自由が丘","town_kana":"シジミチョウニシジユウガオカ","prefecture_code":28},"0541":{"zip_code":"6730541","prefecture":"兵庫県","prefecture_kana":"ヒョウゴケン","city":"三木市","city_kana":"ミキシ","town":"志染町広野","town_kana":"シジミチョウヒロノ","prefecture_code":28},"0505":{"zip_code":"6730505","prefecture":"兵庫県","prefecture_kana":"ヒョウゴケン","city":"三木市","city_kana":"ミキシ","town":"志染町細目","town_kana":"シジミチョウホソメ","prefecture_code":28},"0516":{"zip_code":"6730516","prefecture":"兵庫県","prefecture_kana":"ヒョウゴケン","city":"三木市","city_kana":"ミキシ","town":"志染町御坂","town_kana":"シジミチョウミサカ","prefecture_code":28},"0515":{"zip_code":"6730515","prefecture":"兵庫県","prefecture_kana":"ヒョウゴケン","city":"三木市","city_kana":"ミキシ","town":"志染町三津田","town_kana":"シジミチョウミツダ","prefecture_code":28},"0501":{"zip_code":"6730501","prefecture":"兵庫県","prefecture_kana":"ヒョウゴケン","city":"三木市","city_kana":"ミキシ","town":"志染町吉田","town_kana":"シジミチョウヨシダ","prefecture_code":28},"0414":{"zip_code":"6730414","prefecture":"兵庫県","prefecture_kana":"ヒョウゴケン","city":"三木市","city_kana":"ミキシ","town":"芝町","town_kana":"シバマチ","prefecture_code":28},"0424":{"zip_code":"6730424","prefecture":"兵庫県","prefecture_kana":"ヒョウゴケン","city":"三木市","city_kana":"ミキシ","town":"自由が丘本町","town_kana":"ジユウガオカホンマチ","prefecture_code":28},"0423":{"zip_code":"6730423","prefecture":"兵庫県","prefecture_kana":"ヒョウゴケン","city":"三木市","city_kana":"ミキシ","town":"宿原","town_kana":"シュクハラ","prefecture_code":28},"0403":{"zip_code":"6730403","prefecture":"兵庫県","prefecture_kana":"ヒョウゴケン","city":"三木市","city_kana":"ミキシ","town":"末広","town_kana":"スエヒロ","prefecture_code":28},"0456":{"zip_code":"6730456","prefecture":"兵庫県","prefecture_kana":"ヒョウゴケン","city":"三木市","city_kana":"ミキシ","town":"鳥町","town_kana":"トリマチ","prefecture_code":28},"0421":{"zip_code":"6730421","prefecture":"兵庫県","prefecture_kana":"ヒョウゴケン","city":"三木市","city_kana":"ミキシ","town":"平井","town_kana":"ヒライ","prefecture_code":28},"0405":{"zip_code":"6730405","prefecture":"兵庫県","prefecture_kana":"ヒョウゴケン","city":"三木市","city_kana":"ミキシ","town":"平田","town_kana":"ヒラタ","prefecture_code":28},"0433":{"zip_code":"6730433","prefecture":"兵庫県","prefecture_kana":"ヒョウゴケン","city":"三木市","city_kana":"ミキシ","town":"福井","town_kana":"フクイ","prefecture_code":28},"0415":{"zip_code":"6730415","prefecture":"兵庫県","prefecture_kana":"ヒョウゴケン","city":"三木市","city_kana":"ミキシ","town":"府内","town_kana":"フナイ","prefecture_code":28},"0441":{"zip_code":"6730441","prefecture":"兵庫県","prefecture_kana":"ヒョウゴケン","city":"三木市","city_kana":"ミキシ","town":"別所町朝日ケ丘","town_kana":"ベッショチョウアサヒガオカ","prefecture_code":28},"0452":{"zip_code":"6730452","prefecture":"兵庫県","prefecture_kana":"ヒョウゴケン","city":"三木市","city_kana":"ミキシ","town":"別所町石野","town_kana":"ベッショチョウイシノ","prefecture_code":28},"0442":{"zip_code":"6730442","prefecture":"兵庫県","prefecture_kana":"ヒョウゴケン","city":"三木市","city_kana":"ミキシ","town":"別所町興治","town_kana":"ベッショチョウオキハル","prefecture_code":28},"0434":{"zip_code":"6730434","prefecture":"兵庫県","prefecture_kana":"ヒョウゴケン","city":"三木市","city_kana":"ミキシ","town":"別所町小林","town_kana":"ベッショチョウコバヤシ","prefecture_code":28},"0451":{"zip_code":"6730451","prefecture":"兵庫県","prefecture_kana":"ヒョウゴケン","city":"三木市","city_kana":"ミキシ","town":"別所町近藤","town_kana":"ベッショチョウコンドウ","prefecture_code":28},"0453":{"zip_code":"6730453","prefecture":"兵庫県","prefecture_kana":"ヒョウゴケン","city":"三木市","city_kana":"ミキシ","town":"別所町下石野","town_kana":"ベッショチョウシモイシノ","prefecture_code":28},"0454":{"zip_code":"6730454","prefecture":"兵庫県","prefecture_kana":"ヒョウゴケン","city":"三木市","city_kana":"ミキシ","town":"別所町正法寺","town_kana":"ベッショチョウショウボウジ","prefecture_code":28},"0435":{"zip_code":"6730435","prefecture":"兵庫県","prefecture_kana":"ヒョウゴケン","city":"三木市","city_kana":"ミキシ","town":"別所町高木","town_kana":"ベッショチョウタカギ","prefecture_code":28},"0443":{"zip_code":"6730443","prefecture":"兵庫県","prefecture_kana":"ヒョウゴケン","city":"三木市","city_kana":"ミキシ","town":"別所町巴","town_kana":"ベッショチョウトモエ","prefecture_code":28},"0446":{"zip_code":"6730446","prefecture":"兵庫県","prefecture_kana":"ヒョウゴケン","city":"三木市","city_kana":"ミキシ","town":"別所町花尻","town_kana":"ベッショチョウハナジリ","prefecture_code":28},"0444":{"zip_code":"6730444","prefecture":"兵庫県","prefecture_kana":"ヒョウゴケン","city":"三木市","city_kana":"ミキシ","town":"別所町東這田","town_kana":"ベッショチョウヒガシホウダ","prefecture_code":28},"0445":{"zip_code":"6730445","prefecture":"兵庫県","prefecture_kana":"ヒョウゴケン","city":"三木市","city_kana":"ミキシ","town":"別所町西這田","town_kana":"ベッショチョウニシホウダ","prefecture_code":28},"0455":{"zip_code":"6730455","prefecture":"兵庫県","prefecture_kana":"ヒョウゴケン","city":"三木市","city_kana":"ミキシ","town":"別所町和田","town_kana":"ベッショチョウワダ","prefecture_code":28},"0711":{"zip_code":"6730711","prefecture":"兵庫県","prefecture_kana":"ヒョウゴケン","city":"三木市","city_kana":"ミキシ","town":"細川町金屋","town_kana":"ホソカワチョウカナヤ","prefecture_code":28},"0721":{"zip_code":"6730721","prefecture":"兵庫県","prefecture_kana":"ヒョウゴケン","city":"三木市","city_kana":"ミキシ","town":"細川町高篠","town_kana":"ホソカワチョウタカシノ","prefecture_code":28},"0724":{"zip_code":"6730724","prefecture":"兵庫県","prefecture_kana":"ヒョウゴケン","city":"三木市","city_kana":"ミキシ","town":"細川町高畑","town_kana":"ホソカワチョウタカハタ","prefecture_code":28},"0703":{"zip_code":"6730703","prefecture":"兵庫県","prefecture_kana":"ヒョウゴケン","city":"三木市","city_kana":"ミキシ","town":"細川町垂穂","town_kana":"ホソカワチョウタルホ","prefecture_code":28},"0713":{"zip_code":"6730713","prefecture":"兵庫県","prefecture_kana":"ヒョウゴケン","city":"三木市","city_kana":"ミキシ","town":"細川町豊地","town_kana":"ホソカワチョウトヨチ","prefecture_code":28},"0702":{"zip_code":"6730702","prefecture":"兵庫県","prefecture_kana":"ヒョウゴケン","city":"三木市","city_kana":"ミキシ","town":"細川町中里","town_kana":"ホソカワチョウナカザト","prefecture_code":28},"0714":{"zip_code":"6730714","prefecture":"兵庫県","prefecture_kana":"ヒョウゴケン","city":"三木市","city_kana":"ミキシ","town":"細川町細川中","town_kana":"ホソカワチョウホソカワナカ","prefecture_code":28},"0704":{"zip_code":"6730704","prefecture":"兵庫県","prefecture_kana":"ヒョウゴケン","city":"三木市","city_kana":"ミキシ","town":"細川町増田","town_kana":"ホソカワチョウマスダ","prefecture_code":28},"0701":{"zip_code":"6730701","prefecture":"兵庫県","prefecture_kana":"ヒョウゴケン","city":"三木市","city_kana":"ミキシ","town":"細川町瑞穂","town_kana":"ホソカワチョウミズホ","prefecture_code":28},"0712":{"zip_code":"6730712","prefecture":"兵庫県","prefecture_kana":"ヒョウゴケン","city":"三木市","city_kana":"ミキシ","town":"細川町桃津","town_kana":"ホソカワチョウモモヅ","prefecture_code":28},"0722":{"zip_code":"6730722","prefecture":"兵庫県","prefecture_kana":"ヒョウゴケン","city":"三木市","city_kana":"ミキシ","town":"細川町脇川","town_kana":"ホソカワチョウワキガワ","prefecture_code":28},"0715":{"zip_code":"6730715","prefecture":"兵庫県","prefecture_kana":"ヒョウゴケン","city":"三木市","city_kana":"ミキシ","town":"細川町西","town_kana":"ホソカワチョウニシ","prefecture_code":28},"0431":{"zip_code":"6730431","prefecture":"兵庫県","prefecture_kana":"ヒョウゴケン","city":"三木市","city_kana":"ミキシ","town":"本町","town_kana":"ホンマチ","prefecture_code":28},"0532":{"zip_code":"6730532","prefecture":"兵庫県","prefecture_kana":"ヒョウゴケン","city":"三木市","city_kana":"ミキシ","town":"緑が丘町中","town_kana":"ミドリガオカチョウナカ","prefecture_code":28},"0534":{"zip_code":"6730534","prefecture":"兵庫県","prefecture_kana":"ヒョウゴケン","city":"三木市","city_kana":"ミキシ","town":"緑が丘町本町","town_kana":"ミドリガオカチョウホンマチ","prefecture_code":28},"0533":{"zip_code":"6730533","prefecture":"兵庫県","prefecture_kana":"ヒョウゴケン","city":"三木市","city_kana":"ミキシ","town":"緑が丘町東","town_kana":"ミドリガオカチョウヒガシ","prefecture_code":28},"0531":{"zip_code":"6730531","prefecture":"兵庫県","prefecture_kana":"ヒョウゴケン","city":"三木市","city_kana":"ミキシ","town":"緑が丘町西","town_kana":"ミドリガオカチョウニシ","prefecture_code":28},"1107":{"zip_code":"6731107","prefecture":"兵庫県","prefecture_kana":"ヒョウゴケン","city":"三木市","city_kana":"ミキシ","town":"吉川町有安","town_kana":"ヨカワチョウアリヤス","prefecture_code":28},"1235":{"zip_code":"6731235","prefecture":"兵庫県","prefecture_kana":"ヒョウゴケン","city":"三木市","city_kana":"ミキシ","town":"吉川町市野瀬","town_kana":"ヨカワチョウイチノセ","prefecture_code":28},"1231":{"zip_code":"6731231","prefecture":"兵庫県","prefecture_kana":"ヒョウゴケン","city":"三木市","city_kana":"ミキシ","town":"吉川町稲田","town_kana":"ヨカワチョウイナダ","prefecture_code":28},"1126":{"zip_code":"6731126","prefecture":"兵庫県","prefecture_kana":"ヒョウゴケン","city":"三木市","city_kana":"ミキシ","town":"吉川町上松","town_kana":"ヨカワチョウウエマツ","prefecture_code":28},"1115":{"zip_code":"6731115","prefecture":"兵庫県","prefecture_kana":"ヒョウゴケン","city":"三木市","city_kana":"ミキシ","town":"吉川町大沢","town_kana":"ヨカワチョウオオソ","prefecture_code":28},"1116":{"zip_code":"6731116","prefecture":"兵庫県","prefecture_kana":"ヒョウゴケン","city":"三木市","city_kana":"ミキシ","town":"吉川町大畑","town_kana":"ヨカワチョウオオハタ","prefecture_code":28},"1242":{"zip_code":"6731242","prefecture":"兵庫県","prefecture_kana":"ヒョウゴケン","city":"三木市","city_kana":"ミキシ","town":"吉川町奥谷","town_kana":"ヨカワチョウオクダニ","prefecture_code":28},"1118":{"zip_code":"6731118","prefecture":"兵庫県","prefecture_kana":"ヒョウゴケン","city":"三木市","city_kana":"ミキシ","town":"吉川町貸潮","town_kana":"ヨカワチョウカシオ","prefecture_code":28},"1119":{"zip_code":"6731119","prefecture":"兵庫県","prefecture_kana":"ヒョウゴケン","city":"三木市","city_kana":"ミキシ","town":"吉川町鍛治屋","town_kana":"ヨカワチョウカジヤ","prefecture_code":28},"1111":{"zip_code":"6731111","prefecture":"兵庫県","prefecture_kana":"ヒョウゴケン","city":"三木市","city_kana":"ミキシ","town":"吉川町上荒川","town_kana":"ヨカワチョウカミアラカワ","prefecture_code":28},"1104":{"zip_code":"6731104","prefecture":"兵庫県","prefecture_kana":"ヒョウゴケン","city":"三木市","city_kana":"ミキシ","town":"吉川町上中","town_kana":"ヨカワチョウカミナカ","prefecture_code":28},"1114":{"zip_code":"6731114","prefecture":"兵庫県","prefecture_kana":"ヒョウゴケン","city":"三木市","city_kana":"ミキシ","town":"吉川町吉安","town_kana":"ヨカワチョウキチヤス","prefecture_code":28},"1232":{"zip_code":"6731232","prefecture":"兵庫県","prefecture_kana":"ヒョウゴケン","city":"三木市","city_kana":"ミキシ","town":"吉川町金会","town_kana":"ヨカワチョウキンカイ","prefecture_code":28},"1241":{"zip_code":"6731241","prefecture":"兵庫県","prefecture_kana":"ヒョウゴケン","city":"三木市","city_kana":"ミキシ","town":"吉川町楠原","town_kana":"ヨカワチョウクスハラ","prefecture_code":28},"1106":{"zip_code":"6731106","prefecture":"兵庫県","prefecture_kana":"ヒョウゴケン","city":"三木市","city_kana":"ミキシ","town":"吉川町実楽","town_kana":"ヨカワチョウジツラク","prefecture_code":28},"1125":{"zip_code":"6731125","prefecture":"兵庫県","prefecture_kana":"ヒョウゴケン","city":"三木市","city_kana":"ミキシ","town":"吉川町田谷","town_kana":"ヨカワチョウタヤ","prefecture_code":28},"1102":{"zip_code":"6731102","prefecture":"兵庫県","prefecture_kana":"ヒョウゴケン","city":"三木市","city_kana":"ミキシ","town":"吉川町冨岡","town_kana":"ヨカワチョウトミオカ","prefecture_code":28},"1243":{"zip_code":"6731243","prefecture":"兵庫県","prefecture_kana":"ヒョウゴケン","city":"三木市","city_kana":"ミキシ","town":"吉川町豊岡","town_kana":"ヨカワチョウトヨオカ","prefecture_code":28},"1127":{"zip_code":"6731127","prefecture":"兵庫県","prefecture_kana":"ヒョウゴケン","city":"三木市","city_kana":"ミキシ","town":"吉川町長谷","town_kana":"ヨカワチョウナガタニ","prefecture_code":28},"1122":{"zip_code":"6731122","prefecture":"兵庫県","prefecture_kana":"ヒョウゴケン","city":"三木市","city_kana":"ミキシ","town":"吉川町西奥","town_kana":"ヨカワチョウニシオク","prefecture_code":28},"1101":{"zip_code":"6731101","prefecture":"兵庫県","prefecture_kana":"ヒョウゴケン","city":"三木市","city_kana":"ミキシ","town":"吉川町新田","town_kana":"ヨカワチョウニッタ","prefecture_code":28},"1112":{"zip_code":"6731112","prefecture":"兵庫県","prefecture_kana":"ヒョウゴケン","city":"三木市","city_kana":"ミキシ","town":"吉川町畑枝","town_kana":"ヨカワチョウハタエダ","prefecture_code":28},"1236":{"zip_code":"6731236","prefecture":"兵庫県","prefecture_kana":"ヒョウゴケン","city":"三木市","city_kana":"ミキシ","town":"吉川町東田","town_kana":"ヨカワチョウヒガシダ","prefecture_code":28},"1233":{"zip_code":"6731233","prefecture":"兵庫県","prefecture_kana":"ヒョウゴケン","city":"三木市","city_kana":"ミキシ","town":"吉川町毘沙門","town_kana":"ヨカワチョウビシャモン","prefecture_code":28},"1113":{"zip_code":"6731113","prefecture":"兵庫県","prefecture_kana":"ヒョウゴケン","city":"三木市","city_kana":"ミキシ","town":"吉川町福井","town_kana":"ヨカワチョウフクイ","prefecture_code":28},"1234":{"zip_code":"6731234","prefecture":"兵庫県","prefecture_kana":"ヒョウゴケン","city":"三木市","city_kana":"ミキシ","town":"吉川町福吉","town_kana":"ヨカワチョウフクヨシ","prefecture_code":28},"1108":{"zip_code":"6731108","prefecture":"兵庫県","prefecture_kana":"ヒョウゴケン","city":"三木市","city_kana":"ミキシ","town":"吉川町古市","town_kana":"ヨカワチョウフルイチ","prefecture_code":28},"1105":{"zip_code":"6731105","prefecture":"兵庫県","prefecture_kana":"ヒョウゴケン","city":"三木市","city_kana":"ミキシ","town":"吉川町古川","town_kana":"ヨカワチョウフルカワ","prefecture_code":28},"1124":{"zip_code":"6731124","prefecture":"兵庫県","prefecture_kana":"ヒョウゴケン","city":"三木市","city_kana":"ミキシ","town":"吉川町法光寺","town_kana":"ヨカワチョウホウコウジ","prefecture_code":28},"1103":{"zip_code":"6731103","prefecture":"兵庫県","prefecture_kana":"ヒョウゴケン","city":"三木市","city_kana":"ミキシ","town":"吉川町前田","town_kana":"ヨカワチョウマエダ","prefecture_code":28},"1244":{"zip_code":"6731244","prefecture":"兵庫県","prefecture_kana":"ヒョウゴケン","city":"三木市","city_kana":"ミキシ","town":"吉川町水上","town_kana":"ヨカワチョウミズカミ","prefecture_code":28},"1117":{"zip_code":"6731117","prefecture":"兵庫県","prefecture_kana":"ヒョウゴケン","city":"三木市","city_kana":"ミキシ","town":"吉川町みなぎ台","town_kana":"ヨカワチョウミナギダイ","prefecture_code":28},"1128":{"zip_code":"6731128","prefecture":"兵庫県","prefecture_kana":"ヒョウゴケン","city":"三木市","city_kana":"ミキシ","town":"吉川町山上","town_kana":"ヨカワチョウヤマノウエ","prefecture_code":28},"1123":{"zip_code":"6731123","prefecture":"兵庫県","prefecture_kana":"ヒョウゴケン","city":"三木市","city_kana":"ミキシ","town":"吉川町湯谷","town_kana":"ヨカワチョウユダニ","prefecture_code":28},"1121":{"zip_code":"6731121","prefecture":"兵庫県","prefecture_kana":"ヒョウゴケン","city":"三木市","city_kana":"ミキシ","town":"吉川町米田","town_kana":"ヨカワチョウヨネダ","prefecture_code":28},"1129":{"zip_code":"6731129","prefecture":"兵庫県","prefecture_kana":"ヒョウゴケン","city":"三木市","city_kana":"ミキシ","town":"吉川町渡瀬","town_kana":"ヨカワチョウワタセ","prefecture_code":28},"0422":{"zip_code":"6730422","prefecture":"兵庫県","prefecture_kana":"ヒョウゴケン","city":"三木市","city_kana":"ミキシ","town":"与呂木","town_kana":"ヨロキ","prefecture_code":28},"1400":{"zip_code":"6731400","prefecture":"兵庫県","prefecture_kana":"ヒョウゴケン","city":"加東市","city_kana":"カトウシ","town":"","town_kana":"","prefecture_code":28},"1302":{"zip_code":"6731302","prefecture":"兵庫県","prefecture_kana":"ヒョウゴケン","city":"加東市","city_kana":"カトウシ","town":"秋津","town_kana":"アキツ","prefecture_code":28},"1338":{"zip_code":"6731338","prefecture":"兵庫県","prefecture_kana":"ヒョウゴケン","city":"加東市","city_kana":"カトウシ","town":"厚利","town_kana":"アツトシ","prefecture_code":28},"1451":{"zip_code":"6731451","prefecture":"兵庫県","prefecture_kana":"ヒョウゴケン","city":"加東市","city_kana":"カトウシ","town":"家原","town_kana":"イエハラ","prefecture_code":28},"1413":{"zip_code":"6731413","prefecture":"兵庫県","prefecture_kana":"ヒョウゴケン","city":"加東市","city_kana":"カトウシ","town":"池之内","town_kana":"イケノウチ","prefecture_code":28},"1442":{"zip_code":"6731442","prefecture":"兵庫県","prefecture_kana":"ヒョウゴケン","city":"加東市","city_kana":"カトウシ","town":"出水","town_kana":"イズミ","prefecture_code":28},"1321":{"zip_code":"6731321","prefecture":"兵庫県","prefecture_kana":"ヒョウゴケン","city":"加東市","city_kana":"カトウシ","town":"岩屋","town_kana":"イワヤ","prefecture_code":28},"1446":{"zip_code":"6731446","prefecture":"兵庫県","prefecture_kana":"ヒョウゴケン","city":"加東市","city_kana":"カトウシ","town":"上田","town_kana":"ウエダ","prefecture_code":28},"1404":{"zip_code":"6731404","prefecture":"兵庫県","prefecture_kana":"ヒョウゴケン","city":"加東市","city_kana":"カトウシ","town":"馬瀬","town_kana":"ウマゼ","prefecture_code":28},"1313":{"zip_code":"6731313","prefecture":"兵庫県","prefecture_kana":"ヒョウゴケン","city":"加東市","city_kana":"カトウシ","town":"永福","town_kana":"エイフク","prefecture_code":28},"1325":{"zip_code":"6731325","prefecture":"兵庫県","prefecture_kana":"ヒョウゴケン","city":"加東市","city_kana":"カトウシ","town":"大畑","town_kana":"オオハタ","prefecture_code":28},"1323":{"zip_code":"6731323","prefecture":"兵庫県","prefecture_kana":"ヒョウゴケン","city":"加東市","city_kana":"カトウシ","town":"岡本","town_kana":"オカモト","prefecture_code":28},"1333":{"zip_code":"6731333","prefecture":"兵庫県","prefecture_kana":"ヒョウゴケン","city":"加東市","city_kana":"カトウシ","town":"小沢","town_kana":"オザワ","prefecture_code":28},"1453":{"zip_code":"6731453","prefecture":"兵庫県","prefecture_kana":"ヒョウゴケン","city":"加東市","city_kana":"カトウシ","town":"貝原","town_kana":"カイハラ","prefecture_code":28},"1463":{"zip_code":"6731463","prefecture":"兵庫県","prefecture_kana":"ヒョウゴケン","city":"加東市","city_kana":"カトウシ","town":"梶原","town_kana":"カジワラ","prefecture_code":28},"1401":{"zip_code":"6731401","prefecture":"兵庫県","prefecture_kana":"ヒョウゴケン","city":"加東市","city_kana":"カトウシ","town":"上鴨川","town_kana":"カミカモガワ","prefecture_code":28},"1414":{"zip_code":"6731414","prefecture":"兵庫県","prefecture_kana":"ヒョウゴケン","city":"加東市","city_kana":"カトウシ","town":"上久米","town_kana":"カミクメ","prefecture_code":28},"1464":{"zip_code":"6731464","prefecture":"兵庫県","prefecture_kana":"ヒョウゴケン","city":"加東市","city_kana":"カトウシ","town":"上中","town_kana":"カミナカ","prefecture_code":28},"1472":{"zip_code":"6731472","prefecture":"兵庫県","prefecture_kana":"ヒョウゴケン","city":"加東市","city_kana":"カトウシ","town":"上三草","town_kana":"カミミクサ","prefecture_code":28},"1465":{"zip_code":"6731465","prefecture":"兵庫県","prefecture_kana":"ヒョウゴケン","city":"加東市","city_kana":"カトウシ","town":"喜田","town_kana":"キタ","prefecture_code":28},"1461":{"zip_code":"6731461","prefecture":"兵庫県","prefecture_kana":"ヒョウゴケン","city":"加東市","city_kana":"カトウシ","town":"木梨","town_kana":"キナシ","prefecture_code":28},"1456":{"zip_code":"6731456","prefecture":"兵庫県","prefecture_kana":"ヒョウゴケン","city":"加東市","city_kana":"カトウシ","town":"窪田","town_kana":"クボタ","prefecture_code":28},"1416":{"zip_code":"6731416","prefecture":"兵庫県","prefecture_kana":"ヒョウゴケン","city":"加東市","city_kana":"カトウシ","town":"久米","town_kana":"クメ","prefecture_code":28},"1301":{"zip_code":"6731301","prefecture":"兵庫県","prefecture_kana":"ヒョウゴケン","city":"加東市","city_kana":"カトウシ","town":"黒谷","town_kana":"クロダニ","prefecture_code":28},"1332":{"zip_code":"6731332","prefecture":"兵庫県","prefecture_kana":"ヒョウゴケン","city":"加東市","city_kana":"カトウシ","town":"栄枝","town_kana":"サカエ","prefecture_code":28},"1447":{"zip_code":"6731447","prefecture":"兵庫県","prefecture_kana":"ヒョウゴケン","city":"加東市","city_kana":"カトウシ","town":"佐保","town_kana":"サホ","prefecture_code":28},"1444":{"zip_code":"6731444","prefecture":"兵庫県","prefecture_kana":"ヒョウゴケン","city":"加東市","city_kana":"カトウシ","town":"沢部","town_kana":"サワベ","prefecture_code":28},"1403":{"zip_code":"6731403","prefecture":"兵庫県","prefecture_kana":"ヒョウゴケン","city":"加東市","city_kana":"カトウシ","town":"下鴨川","town_kana":"シモカモガワ","prefecture_code":28},"1415":{"zip_code":"6731415","prefecture":"兵庫県","prefecture_kana":"ヒョウゴケン","city":"加東市","city_kana":"カトウシ","town":"下久米","town_kana":"シモクメ","prefecture_code":28},"1473":{"zip_code":"6731473","prefecture":"兵庫県","prefecture_kana":"ヒョウゴケン","city":"加東市","city_kana":"カトウシ","town":"下三草","town_kana":"シモミクサ","prefecture_code":28},"1303":{"zip_code":"6731303","prefecture":"兵庫県","prefecture_kana":"ヒョウゴケン","city":"加東市","city_kana":"カトウシ","town":"少分谷","town_kana":"ショウブダニ","prefecture_code":28},"1324":{"zip_code":"6731324","prefecture":"兵庫県","prefecture_kana":"ヒョウゴケン","city":"加東市","city_kana":"カトウシ","town":"新定","town_kana":"シンジョウ","prefecture_code":28},"1445":{"zip_code":"6731445","prefecture":"兵庫県","prefecture_kana":"ヒョウゴケン","city":"加東市","city_kana":"カトウシ","town":"大門","town_kana":"ダイモン","prefecture_code":28},"1441":{"zip_code":"6731441","prefecture":"兵庫県","prefecture_kana":"ヒョウゴケン","city":"加東市","city_kana":"カトウシ","town":"田中","town_kana":"タナカ","prefecture_code":28},"1311":{"zip_code":"6731311","prefecture":"兵庫県","prefecture_kana":"ヒョウゴケン","city":"加東市","city_kana":"カトウシ","town":"天神","town_kana":"テンジン","prefecture_code":28},"1434":{"zip_code":"6731434","prefecture":"兵庫県","prefecture_kana":"ヒョウゴケン","city":"加東市","city_kana":"カトウシ","town":"東実","town_kana":"トウジツ","prefecture_code":28},"1452":{"zip_code":"6731452","prefecture":"兵庫県","prefecture_kana":"ヒョウゴケン","city":"加東市","city_kana":"カトウシ","town":"鳥居","town_kana":"トリイ","prefecture_code":28},"1424":{"zip_code":"6731424","prefecture":"兵庫県","prefecture_kana":"ヒョウゴケン","city":"加東市","city_kana":"カトウシ","town":"中古瀬","town_kana":"ナカゴセ","prefecture_code":28},"1304":{"zip_code":"6731304","prefecture":"兵庫県","prefecture_kana":"ヒョウゴケン","city":"加東市","city_kana":"カトウシ","town":"長貞","town_kana":"ナガサダ","prefecture_code":28},"1425":{"zip_code":"6731425","prefecture":"兵庫県","prefecture_kana":"ヒョウゴケン","city":"加東市","city_kana":"カトウシ","town":"西古瀬","town_kana":"ニシコセ","prefecture_code":28},"1455":{"zip_code":"6731455","prefecture":"兵庫県","prefecture_kana":"ヒョウゴケン","city":"加東市","city_kana":"カトウシ","town":"西垂水","town_kana":"ニシタルミ","prefecture_code":28},"1454":{"zip_code":"6731454","prefecture":"兵庫県","prefecture_kana":"ヒョウゴケン","city":"加東市","city_kana":"カトウシ","town":"野村","town_kana":"ノムラ","prefecture_code":28},"1312":{"zip_code":"6731312","prefecture":"兵庫県","prefecture_kana":"ヒョウゴケン","city":"加東市","city_kana":"カトウシ","town":"掎鹿谷","town_kana":"ハシカダニ","prefecture_code":28},"1411":{"zip_code":"6731411","prefecture":"兵庫県","prefecture_kana":"ヒョウゴケン","city":"加東市","city_kana":"カトウシ","town":"畑","town_kana":"ハタ","prefecture_code":28},"1423":{"zip_code":"6731423","prefecture":"兵庫県","prefecture_kana":"ヒョウゴケン","city":"加東市","city_kana":"カトウシ","town":"東古瀬","town_kana":"ヒガシゴセ","prefecture_code":28},"1336":{"zip_code":"6731336","prefecture":"兵庫県","prefecture_kana":"ヒョウゴケン","city":"加東市","city_kana":"カトウシ","town":"東垂水","town_kana":"ヒガシタルミ","prefecture_code":28},"1402":{"zip_code":"6731402","prefecture":"兵庫県","prefecture_kana":"ヒョウゴケン","city":"加東市","city_kana":"カトウシ","town":"平木","town_kana":"ヒラキ","prefecture_code":28},"1432":{"zip_code":"6731432","prefecture":"兵庫県","prefecture_kana":"ヒョウゴケン","city":"加東市","city_kana":"カトウシ","town":"ひろのが丘","town_kana":"ヒロノガオカ","prefecture_code":28},"1443":{"zip_code":"6731443","prefecture":"兵庫県","prefecture_kana":"ヒョウゴケン","city":"加東市","city_kana":"カトウシ","town":"福吉","town_kana":"フクヨシ","prefecture_code":28},"1462":{"zip_code":"6731462","prefecture":"兵庫県","prefecture_kana":"ヒョウゴケン","city":"加東市","city_kana":"カトウシ","town":"藤田","town_kana":"フジタ","prefecture_code":28},"1474":{"zip_code":"6731474","prefecture":"兵庫県","prefecture_kana":"ヒョウゴケン","city":"加東市","city_kana":"カトウシ","town":"牧野","town_kana":"マキノ","prefecture_code":28},"1433":{"zip_code":"6731433","prefecture":"兵庫県","prefecture_kana":"ヒョウゴケン","city":"加東市","city_kana":"カトウシ","town":"松尾","town_kana":"マツオ","prefecture_code":28},"1337":{"zip_code":"6731337","prefecture":"兵庫県","prefecture_kana":"ヒョウゴケン","city":"加東市","city_kana":"カトウシ","town":"松沢","town_kana":"マツザワ","prefecture_code":28},"1412":{"zip_code":"6731412","prefecture":"兵庫県","prefecture_kana":"ヒョウゴケン","city":"加東市","city_kana":"カトウシ","town":"廻渕","town_kana":"マワリブチ","prefecture_code":28},"1341":{"zip_code":"6731341","prefecture":"兵庫県","prefecture_kana":"ヒョウゴケン","city":"加東市","city_kana":"カトウシ","town":"南山","town_kana":"ミナミヤマ","prefecture_code":28},"1322":{"zip_code":"6731322","prefecture":"兵庫県","prefecture_kana":"ヒョウゴケン","city":"加東市","city_kana":"カトウシ","town":"森","town_kana":"モリ","prefecture_code":28},"1331":{"zip_code":"6731331","prefecture":"兵庫県","prefecture_kana":"ヒョウゴケン","city":"加東市","city_kana":"カトウシ","town":"森尾","town_kana":"モリオ","prefecture_code":28},"1431":{"zip_code":"6731431","prefecture":"兵庫県","prefecture_kana":"ヒョウゴケン","city":"加東市","city_kana":"カトウシ","town":"社","town_kana":"ヤシロ","prefecture_code":28},"1422":{"zip_code":"6731422","prefecture":"兵庫県","prefecture_kana":"ヒョウゴケン","city":"加東市","city_kana":"カトウシ","town":"屋度","town_kana":"ヤド","prefecture_code":28},"1335":{"zip_code":"6731335","prefecture":"兵庫県","prefecture_kana":"ヒョウゴケン","city":"加東市","city_kana":"カトウシ","town":"藪","town_kana":"ヤブ","prefecture_code":28},"1471":{"zip_code":"6731471","prefecture":"兵庫県","prefecture_kana":"ヒョウゴケン","city":"加東市","city_kana":"カトウシ","town":"山口","town_kana":"ヤマグチ","prefecture_code":28},"1421":{"zip_code":"6731421","prefecture":"兵庫県","prefecture_kana":"ヒョウゴケン","city":"加東市","city_kana":"カトウシ","town":"山国","town_kana":"ヤマクニ","prefecture_code":28},"1314":{"zip_code":"6731314","prefecture":"兵庫県","prefecture_kana":"ヒョウゴケン","city":"加東市","city_kana":"カトウシ","town":"横谷","town_kana":"ヨコダニ","prefecture_code":28},"1334":{"zip_code":"6731334","prefecture":"兵庫県","prefecture_kana":"ヒョウゴケン","city":"加東市","city_kana":"カトウシ","town":"吉井","town_kana":"ヨシイ","prefecture_code":28},"1475":{"zip_code":"6731475","prefecture":"兵庫県","prefecture_kana":"ヒョウゴケン","city":"加東市","city_kana":"カトウシ","town":"吉馬","town_kana":"ヨシマ","prefecture_code":28}}