{"0071":{"zip_code":"6740071","prefecture":"兵庫県","prefecture_kana":"ヒョウゴケン","city":"明石市","city_kana":"アカシシ","town":"魚住町金ケ崎","town_kana":"ウオズミチョウカナガサキ","prefecture_code":28},"0073":{"zip_code":"6740073","prefecture":"兵庫県","prefecture_kana":"ヒョウゴケン","city":"明石市","city_kana":"アカシシ","town":"魚住町鴨池","town_kana":"ウオズミチョウカモイケ","prefecture_code":28},"0074":{"zip_code":"6740074","prefecture":"兵庫県","prefecture_kana":"ヒョウゴケン","city":"明石市","city_kana":"アカシシ","town":"魚住町清水","town_kana":"ウオズミチョウシミズ","prefecture_code":28},"0083":{"zip_code":"6740083","prefecture":"兵庫県","prefecture_kana":"ヒョウゴケン","city":"明石市","city_kana":"アカシシ","town":"魚住町住吉","town_kana":"ウオズミチョウスミヨシ","prefecture_code":28},"0072":{"zip_code":"6740072","prefecture":"兵庫県","prefecture_kana":"ヒョウゴケン","city":"明石市","city_kana":"アカシシ","town":"魚住町長坂寺","town_kana":"ウオズミチョウチョウハンジ","prefecture_code":28},"0082":{"zip_code":"6740082","prefecture":"兵庫県","prefecture_kana":"ヒョウゴケン","city":"明石市","city_kana":"アカシシ","town":"魚住町中尾","town_kana":"ウオズミチョウナカオ","prefecture_code":28},"0084":{"zip_code":"6740084","prefecture":"兵庫県","prefecture_kana":"ヒョウゴケン","city":"明石市","city_kana":"アカシシ","town":"魚住町西岡","town_kana":"ウオズミチョウニシオカ","prefecture_code":28},"0081":{"zip_code":"6740081","prefecture":"兵庫県","prefecture_kana":"ヒョウゴケン","city":"明石市","city_kana":"アカシシ","town":"魚住町錦が丘","town_kana":"ウオズミチョウニシキガオカ","prefecture_code":28},"0064":{"zip_code":"6740064","prefecture":"兵庫県","prefecture_kana":"ヒョウゴケン","city":"明石市","city_kana":"アカシシ","town":"大久保町江井島","town_kana":"オオクボチョウエイガシマ","prefecture_code":28},"0058":{"zip_code":"6740058","prefecture":"兵庫県","prefecture_kana":"ヒョウゴケン","city":"明石市","city_kana":"アカシシ","town":"大久保町駅前","town_kana":"オオクボチョウエキマエ","prefecture_code":28},"0051":{"zip_code":"6740051","prefecture":"兵庫県","prefecture_kana":"ヒョウゴケン","city":"明石市","city_kana":"アカシシ","town":"大久保町大窪","town_kana":"オオクボチョウオオクボ","prefecture_code":28},"0067":{"zip_code":"6740067","prefecture":"兵庫県","prefecture_kana":"ヒョウゴケン","city":"明石市","city_kana":"アカシシ","town":"大久保町大久保町","town_kana":"オオクボチョウオオクボマチ","prefecture_code":28},"0057":{"zip_code":"6740057","prefecture":"兵庫県","prefecture_kana":"ヒョウゴケン","city":"明石市","city_kana":"アカシシ","town":"大久保町高丘","town_kana":"オオクボチョウタカオカ","prefecture_code":28},"0062":{"zip_code":"6740062","prefecture":"兵庫県","prefecture_kana":"ヒョウゴケン","city":"明石市","city_kana":"アカシシ","town":"大久保町谷八木","town_kana":"オオクボチョウタニヤギ","prefecture_code":28},"0065":{"zip_code":"6740065","prefecture":"兵庫県","prefecture_kana":"ヒョウゴケン","city":"明石市","city_kana":"アカシシ","town":"大久保町西島","town_kana":"オオクボチョウニシジマ","prefecture_code":28},"0054":{"zip_code":"6740054","prefecture":"兵庫県","prefecture_kana":"ヒョウゴケン","city":"明石市","city_kana":"アカシシ","town":"大久保町西脇","town_kana":"オオクボチョウニシワキ","prefecture_code":28},"0066":{"zip_code":"6740066","prefecture":"兵庫県","prefecture_kana":"ヒョウゴケン","city":"明石市","city_kana":"アカシシ","town":"大久保町福田","town_kana":"オオクボチョウフクダ","prefecture_code":28},"0053":{"zip_code":"6740053","prefecture":"兵庫県","prefecture_kana":"ヒョウゴケン","city":"明石市","city_kana":"アカシシ","town":"大久保町松陰","town_kana":"オオクボチョウマツカゲ","prefecture_code":28},"0052":{"zip_code":"6740052","prefecture":"兵庫県","prefecture_kana":"ヒョウゴケン","city":"明石市","city_kana":"アカシシ","town":"大久保町松陰新田","town_kana":"オオクボチョウマツカゲシンデン","prefecture_code":28},"0055":{"zip_code":"6740055","prefecture":"兵庫県","prefecture_kana":"ヒョウゴケン","city":"明石市","city_kana":"アカシシ","town":"大久保町緑が丘","town_kana":"オオクボチョウミドリガオカ","prefecture_code":28},"0061":{"zip_code":"6740061","prefecture":"兵庫県","prefecture_kana":"ヒョウゴケン","city":"明石市","city_kana":"アカシシ","town":"大久保町森田","town_kana":"オオクボチョウモリタ","prefecture_code":28},"0063":{"zip_code":"6740063","prefecture":"兵庫県","prefecture_kana":"ヒョウゴケン","city":"明石市","city_kana":"アカシシ","town":"大久保町八木","town_kana":"オオクボチョウヤギ","prefecture_code":28},"0056":{"zip_code":"6740056","prefecture":"兵庫県","prefecture_kana":"ヒョウゴケン","city":"明石市","city_kana":"アカシシ","town":"大久保町山手台","town_kana":"オオクボチョウヤマテダイ","prefecture_code":28},"0068":{"zip_code":"6740068","prefecture":"兵庫県","prefecture_kana":"ヒョウゴケン","city":"明石市","city_kana":"アカシシ","town":"大久保町ゆりのき通","town_kana":"オオクボチョウユリノキドオリ","prefecture_code":28},"0069":{"zip_code":"6740069","prefecture":"兵庫県","prefecture_kana":"ヒョウゴケン","city":"明石市","city_kana":"アカシシ","town":"大久保町わかば","town_kana":"オオクボチョウワカバ","prefecture_code":28},"0092":{"zip_code":"6740092","prefecture":"兵庫県","prefecture_kana":"ヒョウゴケン","city":"明石市","city_kana":"アカシシ","town":"二見町東二見","town_kana":"フタミチョウヒガシフタミ","prefecture_code":28},"0094":{"zip_code":"6740094","prefecture":"兵庫県","prefecture_kana":"ヒョウゴケン","city":"明石市","city_kana":"アカシシ","town":"二見町西二見","town_kana":"フタミチョウニシフタミ","prefecture_code":28},"0095":{"zip_code":"6740095","prefecture":"兵庫県","prefecture_kana":"ヒョウゴケン","city":"明石市","city_kana":"アカシシ","town":"二見町西二見駅前","town_kana":"フタミチョウニシフタミエキマエ","prefecture_code":28},"0093":{"zip_code":"6740093","prefecture":"兵庫県","prefecture_kana":"ヒョウゴケン","city":"明石市","city_kana":"アカシシ","town":"二見町南二見","town_kana":"フタミチョウミナミフタミ","prefecture_code":28},"0091":{"zip_code":"6740091","prefecture":"兵庫県","prefecture_kana":"ヒョウゴケン","city":"明石市","city_kana":"アカシシ","town":"二見町福里","town_kana":"フタミチョウフクサト","prefecture_code":28}}