{"0000":{"zip_code":"6750000","prefecture":"兵庫県","prefecture_kana":"ヒョウゴケン","city":"加西市","city_kana":"カサイシ","town":"","town_kana":"","prefecture_code":28},"0026":{"zip_code":"6750026","prefecture":"兵庫県","prefecture_kana":"ヒョウゴケン","city":"加古川市","city_kana":"カコガワシ","town":"尾上町旭","town_kana":"オノエチョウアサヒ","prefecture_code":28},"0023":{"zip_code":"6750023","prefecture":"兵庫県","prefecture_kana":"ヒョウゴケン","city":"加古川市","city_kana":"カコガワシ","town":"尾上町池田","town_kana":"オノエチョウイケダ","prefecture_code":28},"0027":{"zip_code":"6750027","prefecture":"兵庫県","prefecture_kana":"ヒョウゴケン","city":"加古川市","city_kana":"カコガワシ","town":"尾上町今福","town_kana":"オノエチョウイマフク","prefecture_code":28},"0022":{"zip_code":"6750022","prefecture":"兵庫県","prefecture_kana":"ヒョウゴケン","city":"加古川市","city_kana":"カコガワシ","town":"尾上町口里","town_kana":"オノエチョウクチリ","prefecture_code":28},"0024":{"zip_code":"6750024","prefecture":"兵庫県","prefecture_kana":"ヒョウゴケン","city":"加古川市","city_kana":"カコガワシ","town":"尾上町長田","town_kana":"オノエチョウナガタ","prefecture_code":28},"0021":{"zip_code":"6750021","prefecture":"兵庫県","prefecture_kana":"ヒョウゴケン","city":"加古川市","city_kana":"カコガワシ","town":"尾上町安田","town_kana":"オノエチョウヤスタ","prefecture_code":28},"0025":{"zip_code":"6750025","prefecture":"兵庫県","prefecture_kana":"ヒョウゴケン","city":"加古川市","city_kana":"カコガワシ","town":"尾上町養田","town_kana":"オノエチョウヨウタ","prefecture_code":28},"0039":{"zip_code":"6750039","prefecture":"兵庫県","prefecture_kana":"ヒョウゴケン","city":"加古川市","city_kana":"カコガワシ","town":"加古川町粟津","town_kana":"カコガワチョウアワヅ","prefecture_code":28},"0034":{"zip_code":"6750034","prefecture":"兵庫県","prefecture_kana":"ヒョウゴケン","city":"加古川市","city_kana":"カコガワシ","town":"加古川町稲屋","town_kana":"カコガワチョウイナヤ","prefecture_code":28},"0061":{"zip_code":"6750061","prefecture":"兵庫県","prefecture_kana":"ヒョウゴケン","city":"加古川市","city_kana":"カコガワシ","town":"加古川町大野","town_kana":"カコガワチョウオオノ","prefecture_code":28},"0067":{"zip_code":"6750067","prefecture":"兵庫県","prefecture_kana":"ヒョウゴケン","city":"加古川市","city_kana":"カコガワシ","town":"加古川町河原","town_kana":"カコガワチョウカワラ","prefecture_code":28},"0031":{"zip_code":"6750031","prefecture":"兵庫県","prefecture_kana":"ヒョウゴケン","city":"加古川市","city_kana":"カコガワシ","town":"加古川町北在家","town_kana":"カコガワチョウキタザイケ","prefecture_code":28},"0038":{"zip_code":"6750038","prefecture":"兵庫県","prefecture_kana":"ヒョウゴケン","city":"加古川市","city_kana":"カコガワシ","town":"加古川町木村","town_kana":"カコガワチョウキムラ","prefecture_code":28},"0065":{"zip_code":"6750065","prefecture":"兵庫県","prefecture_kana":"ヒョウゴケン","city":"加古川市","city_kana":"カコガワシ","town":"加古川町篠原町","town_kana":"カコガワチョウシノハラチョウ","prefecture_code":28},"0066":{"zip_code":"6750066","prefecture":"兵庫県","prefecture_kana":"ヒョウゴケン","city":"加古川市","city_kana":"カコガワシ","town":"加古川町寺家町","town_kana":"カコガワチョウジケマチ","prefecture_code":28},"0035":{"zip_code":"6750035","prefecture":"兵庫県","prefecture_kana":"ヒョウゴケン","city":"加古川市","city_kana":"カコガワシ","town":"加古川町友沢","town_kana":"カコガワチョウトモサワ","prefecture_code":28},"0068":{"zip_code":"6750068","prefecture":"兵庫県","prefecture_kana":"ヒョウゴケン","city":"加古川市","city_kana":"カコガワシ","town":"加古川町中津","town_kana":"カコガワチョウナカツ","prefecture_code":28},"0036":{"zip_code":"6750036","prefecture":"兵庫県","prefecture_kana":"ヒョウゴケン","city":"加古川市","city_kana":"カコガワシ","town":"加古川町西河原","town_kana":"カコガワチョウニシガワラ","prefecture_code":28},"0063":{"zip_code":"6750063","prefecture":"兵庫県","prefecture_kana":"ヒョウゴケン","city":"加古川市","city_kana":"カコガワシ","town":"加古川町平野","town_kana":"カコガワチョウヒラノ","prefecture_code":28},"0032":{"zip_code":"6750032","prefecture":"兵庫県","prefecture_kana":"ヒョウゴケン","city":"加古川市","city_kana":"カコガワシ","town":"加古川町備後","town_kana":"カコガワチョウビンゴ","prefecture_code":28},"0037":{"zip_code":"6750037","prefecture":"兵庫県","prefecture_kana":"ヒョウゴケン","city":"加古川市","city_kana":"カコガワシ","town":"加古川町本町","town_kana":"カコガワチョウホンマチ","prefecture_code":28},"0064":{"zip_code":"6750064","prefecture":"兵庫県","prefecture_kana":"ヒョウゴケン","city":"加古川市","city_kana":"カコガワシ","town":"加古川町溝之口","town_kana":"カコガワチョウミゾノクチ","prefecture_code":28},"0033":{"zip_code":"6750033","prefecture":"兵庫県","prefecture_kana":"ヒョウゴケン","city":"加古川市","city_kana":"カコガワシ","town":"加古川町南備後","town_kana":"カコガワチョウミナミビンゴ","prefecture_code":28},"0062":{"zip_code":"6750062","prefecture":"兵庫県","prefecture_kana":"ヒョウゴケン","city":"加古川市","city_kana":"カコガワシ","town":"加古川町美乃利","town_kana":"カコガワチョウミノリ","prefecture_code":28},"0137":{"zip_code":"6750137","prefecture":"兵庫県","prefecture_kana":"ヒョウゴケン","city":"加古川市","city_kana":"カコガワシ","town":"金沢町","town_kana":"カナザワチョウ","prefecture_code":28},"1212":{"zip_code":"6751212","prefecture":"兵庫県","prefecture_kana":"ヒョウゴケン","city":"加古川市","city_kana":"カコガワシ","town":"上荘町井ノ口","town_kana":"カミソウチョウイノクチ","prefecture_code":28},"1218":{"zip_code":"6751218","prefecture":"兵庫県","prefecture_kana":"ヒョウゴケン","city":"加古川市","city_kana":"カコガワシ","town":"上荘町小野","town_kana":"カミソウチョウオノ","prefecture_code":28},"1217":{"zip_code":"6751217","prefecture":"兵庫県","prefecture_kana":"ヒョウゴケン","city":"加古川市","city_kana":"カコガワシ","town":"上荘町薬栗","town_kana":"カミソウチョウクスクリ","prefecture_code":28},"1213":{"zip_code":"6751213","prefecture":"兵庫県","prefecture_kana":"ヒョウゴケン","city":"加古川市","city_kana":"カコガワシ","town":"上荘町国包","town_kana":"カミソウチョウクニカネ","prefecture_code":28},"1211":{"zip_code":"6751211","prefecture":"兵庫県","prefecture_kana":"ヒョウゴケン","city":"加古川市","city_kana":"カコガワシ","town":"上荘町白沢","town_kana":"カミソウチョウシラサワ","prefecture_code":28},"1216":{"zip_code":"6751216","prefecture":"兵庫県","prefecture_kana":"ヒョウゴケン","city":"加古川市","city_kana":"カコガワシ","town":"上荘町都染","town_kana":"カミソウチョウツゾメ","prefecture_code":28},"1214":{"zip_code":"6751214","prefecture":"兵庫県","prefecture_kana":"ヒョウゴケン","city":"加古川市","city_kana":"カコガワシ","town":"上荘町見土呂","town_kana":"カミソウチョウミドロ","prefecture_code":28},"1215":{"zip_code":"6751215","prefecture":"兵庫県","prefecture_kana":"ヒョウゴケン","city":"加古川市","city_kana":"カコガワシ","town":"上荘町都台","town_kana":"カミソウチョウミヤコダイ","prefecture_code":28},"0005":{"zip_code":"6750005","prefecture":"兵庫県","prefecture_kana":"ヒョウゴケン","city":"加古川市","city_kana":"カコガワシ","town":"神野町石守","town_kana":"カンノチョウイシモリ","prefecture_code":28},"0003":{"zip_code":"6750003","prefecture":"兵庫県","prefecture_kana":"ヒョウゴケン","city":"加古川市","city_kana":"カコガワシ","town":"神野町神野","town_kana":"カンノチョウカンノ","prefecture_code":28},"0009":{"zip_code":"6750009","prefecture":"兵庫県","prefecture_kana":"ヒョウゴケン","city":"加古川市","city_kana":"カコガワシ","town":"神野町西条","town_kana":"カンノチョウサイジョウ","prefecture_code":28},"0007":{"zip_code":"6750007","prefecture":"兵庫県","prefecture_kana":"ヒョウゴケン","city":"加古川市","city_kana":"カコガワシ","town":"神野町西之山","town_kana":"カンノチョウニシノヤマ","prefecture_code":28},"0006":{"zip_code":"6750006","prefecture":"兵庫県","prefecture_kana":"ヒョウゴケン","city":"加古川市","city_kana":"カコガワシ","town":"神野町日岡苑","town_kana":"カンノチョウヒオカエン","prefecture_code":28},"0004":{"zip_code":"6750004","prefecture":"兵庫県","prefecture_kana":"ヒョウゴケン","city":"加古川市","city_kana":"カコガワシ","town":"神野町福留","town_kana":"カンノチョウフクドメ","prefecture_code":28},"0001":{"zip_code":"6750001","prefecture":"兵庫県","prefecture_kana":"ヒョウゴケン","city":"加古川市","city_kana":"カコガワシ","town":"西条山手","town_kana":"サイジョウヤマテ","prefecture_code":28},"0301":{"zip_code":"6750301","prefecture":"兵庫県","prefecture_kana":"ヒョウゴケン","city":"加古川市","city_kana":"カコガワシ","town":"志方町大澤","town_kana":"シカタチョウオオザワ","prefecture_code":28},"0305":{"zip_code":"6750305","prefecture":"兵庫県","prefecture_kana":"ヒョウゴケン","city":"加古川市","city_kana":"カコガワシ","town":"志方町大宗","town_kana":"シカタチョウオオムネ","prefecture_code":28},"0311":{"zip_code":"6750311","prefecture":"兵庫県","prefecture_kana":"ヒョウゴケン","city":"加古川市","city_kana":"カコガワシ","town":"志方町岡","town_kana":"シカタチョウオカ","prefecture_code":28},"0314":{"zip_code":"6750314","prefecture":"兵庫県","prefecture_kana":"ヒョウゴケン","city":"加古川市","city_kana":"カコガワシ","town":"志方町上冨木","town_kana":"シカタチョウカミトミキ","prefecture_code":28},"0303":{"zip_code":"6750303","prefecture":"兵庫県","prefecture_kana":"ヒョウゴケン","city":"加古川市","city_kana":"カコガワシ","town":"志方町細工所","town_kana":"シカタチョウサイクジョ","prefecture_code":28},"0321":{"zip_code":"6750321","prefecture":"兵庫県","prefecture_kana":"ヒョウゴケン","city":"加古川市","city_kana":"カコガワシ","town":"志方町志方町","town_kana":"シカタチョウシカタマチ","prefecture_code":28},"0342":{"zip_code":"6750342","prefecture":"兵庫県","prefecture_kana":"ヒョウゴケン","city":"加古川市","city_kana":"カコガワシ","town":"志方町雑郷","town_kana":"シカタチョウゾウゴウ","prefecture_code":28},"0304":{"zip_code":"6750304","prefecture":"兵庫県","prefecture_kana":"ヒョウゴケン","city":"加古川市","city_kana":"カコガワシ","town":"志方町高畑","town_kana":"シカタチョウタカハタ","prefecture_code":28},"0347":{"zip_code":"6750347","prefecture":"兵庫県","prefecture_kana":"ヒョウゴケン","city":"加古川市","city_kana":"カコガワシ","town":"志方町永室","town_kana":"シカタチョウナガムロ","prefecture_code":28},"0334":{"zip_code":"6750334","prefecture":"兵庫県","prefecture_kana":"ヒョウゴケン","city":"加古川市","city_kana":"カコガワシ","town":"志方町成井","town_kana":"シカタチョウナルイ","prefecture_code":28},"0345":{"zip_code":"6750345","prefecture":"兵庫県","prefecture_kana":"ヒョウゴケン","city":"加古川市","city_kana":"カコガワシ","town":"志方町西飯坂","town_kana":"シカタチョウニシイイザカ","prefecture_code":28},"0346":{"zip_code":"6750346","prefecture":"兵庫県","prefecture_kana":"ヒョウゴケン","city":"加古川市","city_kana":"カコガワシ","town":"志方町西中","town_kana":"シカタチョウニシナカ","prefecture_code":28},"0331":{"zip_code":"6750331","prefecture":"兵庫県","prefecture_kana":"ヒョウゴケン","city":"加古川市","city_kana":"カコガワシ","town":"志方町西牧","town_kana":"シカタチョウニシマキ","prefecture_code":28},"0333":{"zip_code":"6750333","prefecture":"兵庫県","prefecture_kana":"ヒョウゴケン","city":"加古川市","city_kana":"カコガワシ","town":"志方町西山","town_kana":"シカタチョウニシヤマ","prefecture_code":28},"0313":{"zip_code":"6750313","prefecture":"兵庫県","prefecture_kana":"ヒョウゴケン","city":"加古川市","city_kana":"カコガワシ","town":"志方町投松","town_kana":"シカタチョウネジマツ","prefecture_code":28},"0302":{"zip_code":"6750302","prefecture":"兵庫県","prefecture_kana":"ヒョウゴケン","city":"加古川市","city_kana":"カコガワシ","town":"志方町野尻","town_kana":"シカタチョウノジリ","prefecture_code":28},"0341":{"zip_code":"6750341","prefecture":"兵庫県","prefecture_kana":"ヒョウゴケン","city":"加古川市","city_kana":"カコガワシ","town":"志方町畑","town_kana":"シカタチョウハタ","prefecture_code":28},"0335":{"zip_code":"6750335","prefecture":"兵庫県","prefecture_kana":"ヒョウゴケン","city":"加古川市","city_kana":"カコガワシ","town":"志方町原","town_kana":"シカタチョウハラ","prefecture_code":28},"0344":{"zip_code":"6750344","prefecture":"兵庫県","prefecture_kana":"ヒョウゴケン","city":"加古川市","city_kana":"カコガワシ","town":"志方町東飯坂","town_kana":"シカタチョウヒガシイイザカ","prefecture_code":28},"0306":{"zip_code":"6750306","prefecture":"兵庫県","prefecture_kana":"ヒョウゴケン","city":"加古川市","city_kana":"カコガワシ","town":"志方町東中","town_kana":"シカタチョウヒガシナカ","prefecture_code":28},"0312":{"zip_code":"6750312","prefecture":"兵庫県","prefecture_kana":"ヒョウゴケン","city":"加古川市","city_kana":"カコガワシ","town":"志方町広尾","town_kana":"シカタチョウヒロオ","prefecture_code":28},"0336":{"zip_code":"6750336","prefecture":"兵庫県","prefecture_kana":"ヒョウゴケン","city":"加古川市","city_kana":"カコガワシ","town":"志方町山中","town_kana":"シカタチョウヤマナカ","prefecture_code":28},"0343":{"zip_code":"6750343","prefecture":"兵庫県","prefecture_kana":"ヒョウゴケン","city":"加古川市","city_kana":"カコガワシ","town":"志方町行常","town_kana":"シカタチョウユキツネ","prefecture_code":28},"0332":{"zip_code":"6750332","prefecture":"兵庫県","prefecture_kana":"ヒョウゴケン","city":"加古川市","city_kana":"カコガワシ","town":"志方町横大路","town_kana":"シカタチョウヨコオオジ","prefecture_code":28},"0008":{"zip_code":"6750008","prefecture":"兵庫県","prefecture_kana":"ヒョウゴケン","city":"加古川市","city_kana":"カコガワシ","town":"新神野","town_kana":"シンカンノ","prefecture_code":28},"0044":{"zip_code":"6750044","prefecture":"兵庫県","prefecture_kana":"ヒョウゴケン","city":"加古川市","city_kana":"カコガワシ","town":"西神吉町大国","town_kana":"ニシカンキチョウオオグニ","prefecture_code":28},"0047":{"zip_code":"6750047","prefecture":"兵庫県","prefecture_kana":"ヒョウゴケン","city":"加古川市","city_kana":"カコガワシ","town":"西神吉町鼎","town_kana":"ニシカンキチョウカナエ","prefecture_code":28},"0045":{"zip_code":"6750045","prefecture":"兵庫県","prefecture_kana":"ヒョウゴケン","city":"加古川市","city_kana":"カコガワシ","town":"西神吉町岸","town_kana":"ニシカンキチョウキシ","prefecture_code":28},"0046":{"zip_code":"6750046","prefecture":"兵庫県","prefecture_kana":"ヒョウゴケン","city":"加古川市","city_kana":"カコガワシ","town":"西神吉町辻","town_kana":"ニシカンキチョウツジ","prefecture_code":28},"0043":{"zip_code":"6750043","prefecture":"兵庫県","prefecture_kana":"ヒョウゴケン","city":"加古川市","city_kana":"カコガワシ","town":"西神吉町中西","town_kana":"ニシカンキチョウナカニシ","prefecture_code":28},"0042":{"zip_code":"6750042","prefecture":"兵庫県","prefecture_kana":"ヒョウゴケン","city":"加古川市","city_kana":"カコガワシ","town":"西神吉町西村","town_kana":"ニシカンキチョウニシムラ","prefecture_code":28},"0041":{"zip_code":"6750041","prefecture":"兵庫県","prefecture_kana":"ヒョウゴケン","city":"加古川市","city_kana":"カコガワシ","town":"西神吉町宮前","town_kana":"ニシカンキチョウミヤマエ","prefecture_code":28},"0011":{"zip_code":"6750011","prefecture":"兵庫県","prefecture_kana":"ヒョウゴケン","city":"加古川市","city_kana":"カコガワシ","town":"野口町北野","town_kana":"ノグチチョウキタノ","prefecture_code":28},"0015":{"zip_code":"6750015","prefecture":"兵庫県","prefecture_kana":"ヒョウゴケン","city":"加古川市","city_kana":"カコガワシ","town":"野口町坂井","town_kana":"ノグチチョウサカイ","prefecture_code":28},"0018":{"zip_code":"6750018","prefecture":"兵庫県","prefecture_kana":"ヒョウゴケン","city":"加古川市","city_kana":"カコガワシ","town":"野口町坂元","town_kana":"ノグチチョウサカモト","prefecture_code":28},"0010":{"zip_code":"6750010","prefecture":"兵庫県","prefecture_kana":"ヒョウゴケン","city":"加古川市","city_kana":"カコガワシ","town":"野口町坂元北","town_kana":"ノグチチョウサカモトキタ","prefecture_code":28},"0016":{"zip_code":"6750016","prefecture":"兵庫県","prefecture_kana":"ヒョウゴケン","city":"加古川市","city_kana":"カコガワシ","town":"野口町長砂","town_kana":"ノグチチョウナガスナ","prefecture_code":28},"0012":{"zip_code":"6750012","prefecture":"兵庫県","prefecture_kana":"ヒョウゴケン","city":"加古川市","city_kana":"カコガワシ","town":"野口町野口","town_kana":"ノグチチョウノグチ","prefecture_code":28},"0013":{"zip_code":"6750013","prefecture":"兵庫県","prefecture_kana":"ヒョウゴケン","city":"加古川市","city_kana":"カコガワシ","town":"野口町二屋","town_kana":"ノグチチョウフタヤ","prefecture_code":28},"0014":{"zip_code":"6750014","prefecture":"兵庫県","prefecture_kana":"ヒョウゴケン","city":"加古川市","city_kana":"カコガワシ","town":"野口町古大内","town_kana":"ノグチチョウフルオウチ","prefecture_code":28},"0019":{"zip_code":"6750019","prefecture":"兵庫県","prefecture_kana":"ヒョウゴケン","city":"加古川市","city_kana":"カコガワシ","town":"野口町水足","town_kana":"ノグチチョウミズアシ","prefecture_code":28},"0017":{"zip_code":"6750017","prefecture":"兵庫県","prefecture_kana":"ヒョウゴケン","city":"加古川市","city_kana":"カコガワシ","town":"野口町良野","town_kana":"ノグチチョウヨシノ","prefecture_code":28},"0058":{"zip_code":"6750058","prefecture":"兵庫県","prefecture_kana":"ヒョウゴケン","city":"加古川市","city_kana":"カコガワシ","town":"東神吉町天下原","town_kana":"ヒガシカンキチョウアマガハラ","prefecture_code":28},"0056":{"zip_code":"6750056","prefecture":"兵庫県","prefecture_kana":"ヒョウゴケン","city":"加古川市","city_kana":"カコガワシ","town":"東神吉町砂部","town_kana":"ヒガシカンキチョウイサベ","prefecture_code":28},"0057":{"zip_code":"6750057","prefecture":"兵庫県","prefecture_kana":"ヒョウゴケン","city":"加古川市","city_kana":"カコガワシ","town":"東神吉町神吉","town_kana":"ヒガシカンキチョウカンキ","prefecture_code":28},"0052":{"zip_code":"6750052","prefecture":"兵庫県","prefecture_kana":"ヒョウゴケン","city":"加古川市","city_kana":"カコガワシ","town":"東神吉町出河原","town_kana":"ヒガシカンキチョウデガハラ","prefecture_code":28},"0055":{"zip_code":"6750055","prefecture":"兵庫県","prefecture_kana":"ヒョウゴケン","city":"加古川市","city_kana":"カコガワシ","town":"東神吉町西井ノ口","town_kana":"ヒガシカンキチョウニシイノクチ","prefecture_code":28},"0051":{"zip_code":"6750051","prefecture":"兵庫県","prefecture_kana":"ヒョウゴケン","city":"加古川市","city_kana":"カコガワシ","town":"東神吉町升田","town_kana":"ヒガシカンキチョウマスダ","prefecture_code":28},"0115":{"zip_code":"6750115","prefecture":"兵庫県","prefecture_kana":"ヒョウゴケン","city":"加古川市","city_kana":"カコガワシ","town":"平岡町一色","town_kana":"ヒラオカチョウイシキ","prefecture_code":28},"0116":{"zip_code":"6750116","prefecture":"兵庫県","prefecture_kana":"ヒョウゴケン","city":"加古川市","city_kana":"カコガワシ","town":"平岡町一色東","town_kana":"ヒラオカチョウイシキヒガシ","prefecture_code":28},"0117":{"zip_code":"6750117","prefecture":"兵庫県","prefecture_kana":"ヒョウゴケン","city":"加古川市","city_kana":"カコガワシ","town":"平岡町一色西","town_kana":"ヒラオカチョウイシキニシ","prefecture_code":28},"0101":{"zip_code":"6750101","prefecture":"兵庫県","prefecture_kana":"ヒョウゴケン","city":"加古川市","city_kana":"カコガワシ","town":"平岡町新在家","town_kana":"ヒラオカチョウシンザイケ","prefecture_code":28},"0103":{"zip_code":"6750103","prefecture":"兵庫県","prefecture_kana":"ヒョウゴケン","city":"加古川市","city_kana":"カコガワシ","town":"平岡町高畑","town_kana":"ヒラオカチョウタカハタ","prefecture_code":28},"0104":{"zip_code":"6750104","prefecture":"兵庫県","prefecture_kana":"ヒョウゴケン","city":"加古川市","city_kana":"カコガワシ","town":"平岡町土山","town_kana":"ヒラオカチョウツチヤマ","prefecture_code":28},"0105":{"zip_code":"6750105","prefecture":"兵庫県","prefecture_kana":"ヒョウゴケン","city":"加古川市","city_kana":"カコガワシ","town":"平岡町つつじ野","town_kana":"ヒラオカチョウツツジノ","prefecture_code":28},"0113":{"zip_code":"6750113","prefecture":"兵庫県","prefecture_kana":"ヒョウゴケン","city":"加古川市","city_kana":"カコガワシ","town":"平岡町中野","town_kana":"ヒラオカチョウナカノ","prefecture_code":28},"0102":{"zip_code":"6750102","prefecture":"兵庫県","prefecture_kana":"ヒョウゴケン","city":"加古川市","city_kana":"カコガワシ","town":"平岡町西谷","town_kana":"ヒラオカチョウニシタニ","prefecture_code":28},"0114":{"zip_code":"6750114","prefecture":"兵庫県","prefecture_kana":"ヒョウゴケン","city":"加古川市","city_kana":"カコガワシ","town":"平岡町八反田","town_kana":"ヒラオカチョウハッタンダ","prefecture_code":28},"0111":{"zip_code":"6750111","prefecture":"兵庫県","prefecture_kana":"ヒョウゴケン","city":"加古川市","city_kana":"カコガワシ","town":"平岡町二俣","town_kana":"ヒラオカチョウフタマタ","prefecture_code":28},"0112":{"zip_code":"6750112","prefecture":"兵庫県","prefecture_kana":"ヒョウゴケン","city":"加古川市","city_kana":"カコガワシ","town":"平岡町山之上","town_kana":"ヒラオカチョウヤマノウエ","prefecture_code":28},"1233":{"zip_code":"6751233","prefecture":"兵庫県","prefecture_kana":"ヒョウゴケン","city":"加古川市","city_kana":"カコガワシ","town":"平荘町池尻","town_kana":"ヘイソウチョウイケジリ","prefecture_code":28},"1236":{"zip_code":"6751236","prefecture":"兵庫県","prefecture_kana":"ヒョウゴケン","city":"加古川市","city_kana":"カコガワシ","town":"平荘町一本松","town_kana":"ヘイソウチョウイッポンマツ","prefecture_code":28},"1226":{"zip_code":"6751226","prefecture":"兵庫県","prefecture_kana":"ヒョウゴケン","city":"加古川市","city_kana":"カコガワシ","town":"平荘町磐","town_kana":"ヘイソウチョウイワオ","prefecture_code":28},"1224":{"zip_code":"6751224","prefecture":"兵庫県","prefecture_kana":"ヒョウゴケン","city":"加古川市","city_kana":"カコガワシ","town":"平荘町上原","town_kana":"ヘイソウチョウカミハラ","prefecture_code":28},"1222":{"zip_code":"6751222","prefecture":"兵庫県","prefecture_kana":"ヒョウゴケン","city":"加古川市","city_kana":"カコガワシ","town":"平荘町神木","town_kana":"ヘイソウチョウコウギ","prefecture_code":28},"1235":{"zip_code":"6751235","prefecture":"兵庫県","prefecture_kana":"ヒョウゴケン","city":"加古川市","city_kana":"カコガワシ","town":"平荘町小畑","town_kana":"ヘイソウチョウコバタ","prefecture_code":28},"1232":{"zip_code":"6751232","prefecture":"兵庫県","prefecture_kana":"ヒョウゴケン","city":"加古川市","city_kana":"カコガワシ","town":"平荘町里","town_kana":"ヘイソウチョウサト","prefecture_code":28},"1223":{"zip_code":"6751223","prefecture":"兵庫県","prefecture_kana":"ヒョウゴケン","city":"加古川市","city_kana":"カコガワシ","town":"平荘町新中山","town_kana":"ヘイソウチョウシンナカヤマ","prefecture_code":28},"1225":{"zip_code":"6751225","prefecture":"兵庫県","prefecture_kana":"ヒョウゴケン","city":"加古川市","city_kana":"カコガワシ","town":"平荘町中山","town_kana":"ヘイソウチョウナカヤマ","prefecture_code":28},"1234":{"zip_code":"6751234","prefecture":"兵庫県","prefecture_kana":"ヒョウゴケン","city":"加古川市","city_kana":"カコガワシ","town":"平荘町西山","town_kana":"ヘイソウチョウニシヤマ","prefecture_code":28},"1221":{"zip_code":"6751221","prefecture":"兵庫県","prefecture_kana":"ヒョウゴケン","city":"加古川市","city_kana":"カコガワシ","town":"平荘町山角","town_kana":"ヘイソウチョウヤマカド","prefecture_code":28},"1231":{"zip_code":"6751231","prefecture":"兵庫県","prefecture_kana":"ヒョウゴケン","city":"加古川市","city_kana":"カコガワシ","town":"平荘町養老","town_kana":"ヘイソウチョウヨウロウ","prefecture_code":28},"0123":{"zip_code":"6750123","prefecture":"兵庫県","prefecture_kana":"ヒョウゴケン","city":"加古川市","city_kana":"カコガワシ","town":"別府町朝日町","town_kana":"ベフチョウアサヒマチ","prefecture_code":28},"0127":{"zip_code":"6750127","prefecture":"兵庫県","prefecture_kana":"ヒョウゴケン","city":"加古川市","city_kana":"カコガワシ","town":"別府町石町","town_kana":"ベフチョウイシマチ","prefecture_code":28},"0131":{"zip_code":"6750131","prefecture":"兵庫県","prefecture_kana":"ヒョウゴケン","city":"加古川市","city_kana":"カコガワシ","town":"別府町新野辺","town_kana":"ベフチョウシノベ","prefecture_code":28},"0121":{"zip_code":"6750121","prefecture":"兵庫県","prefecture_kana":"ヒョウゴケン","city":"加古川市","city_kana":"カコガワシ","town":"別府町新野辺北町","town_kana":"ベフチョウシノベキタマチ","prefecture_code":28},"0128":{"zip_code":"6750128","prefecture":"兵庫県","prefecture_kana":"ヒョウゴケン","city":"加古川市","city_kana":"カコガワシ","town":"別府町中島町","town_kana":"ベフチョウナカシママチ","prefecture_code":28},"0133":{"zip_code":"6750133","prefecture":"兵庫県","prefecture_kana":"ヒョウゴケン","city":"加古川市","city_kana":"カコガワシ","town":"別府町西町","town_kana":"ベフチョウニシマチ","prefecture_code":28},"0125":{"zip_code":"6750125","prefecture":"兵庫県","prefecture_kana":"ヒョウゴケン","city":"加古川市","city_kana":"カコガワシ","town":"別府町西脇","town_kana":"ベフチョウニシワキ","prefecture_code":28},"0135":{"zip_code":"6750135","prefecture":"兵庫県","prefecture_kana":"ヒョウゴケン","city":"加古川市","city_kana":"カコガワシ","town":"別府町東町","town_kana":"ベフチョウヒガシマチ","prefecture_code":28},"0122":{"zip_code":"6750122","prefecture":"兵庫県","prefecture_kana":"ヒョウゴケン","city":"加古川市","city_kana":"カコガワシ","town":"別府町別府","town_kana":"ベフチョウベフ","prefecture_code":28},"0126":{"zip_code":"6750126","prefecture":"兵庫県","prefecture_kana":"ヒョウゴケン","city":"加古川市","city_kana":"カコガワシ","town":"別府町本町","town_kana":"ベフチョウホンマチ","prefecture_code":28},"0124":{"zip_code":"6750124","prefecture":"兵庫県","prefecture_kana":"ヒョウゴケン","city":"加古川市","city_kana":"カコガワシ","town":"別府町緑町","town_kana":"ベフチョウミドリマチ","prefecture_code":28},"0136":{"zip_code":"6750136","prefecture":"兵庫県","prefecture_kana":"ヒョウゴケン","city":"加古川市","city_kana":"カコガワシ","town":"別府町港町","town_kana":"ベフチョウミナトマチ","prefecture_code":28},"0132":{"zip_code":"6750132","prefecture":"兵庫県","prefecture_kana":"ヒョウゴケン","city":"加古川市","city_kana":"カコガワシ","town":"別府町宮田町","town_kana":"ベフチョウミヤデンマチ","prefecture_code":28},"0134":{"zip_code":"6750134","prefecture":"兵庫県","prefecture_kana":"ヒョウゴケン","city":"加古川市","city_kana":"カコガワシ","town":"別府町元町","town_kana":"ベフチョウモトマチ","prefecture_code":28},"1204":{"zip_code":"6751204","prefecture":"兵庫県","prefecture_kana":"ヒョウゴケン","city":"加古川市","city_kana":"カコガワシ","town":"八幡町上西条","town_kana":"ヤハタチョウカミサイジョウ","prefecture_code":28},"1203":{"zip_code":"6751203","prefecture":"兵庫県","prefecture_kana":"ヒョウゴケン","city":"加古川市","city_kana":"カコガワシ","town":"八幡町下村","town_kana":"ヤハタチョウシモムラ","prefecture_code":28},"1201":{"zip_code":"6751201","prefecture":"兵庫県","prefecture_kana":"ヒョウゴケン","city":"加古川市","city_kana":"カコガワシ","town":"八幡町宗佐","town_kana":"ヤハタチョウソウサ","prefecture_code":28},"1205":{"zip_code":"6751205","prefecture":"兵庫県","prefecture_kana":"ヒョウゴケン","city":"加古川市","city_kana":"カコガワシ","town":"八幡町中西条","town_kana":"ヤハタチョウナカサイジョウ","prefecture_code":28},"1202":{"zip_code":"6751202","prefecture":"兵庫県","prefecture_kana":"ヒョウゴケン","city":"加古川市","city_kana":"カコガワシ","town":"八幡町野村","town_kana":"ヤハタチョウノムラ","prefecture_code":28},"1206":{"zip_code":"6751206","prefecture":"兵庫県","prefecture_kana":"ヒョウゴケン","city":"加古川市","city_kana":"カコガワシ","town":"八幡町船町","town_kana":"ヤハタチョウフナマチ","prefecture_code":28},"0002":{"zip_code":"6750002","prefecture":"兵庫県","prefecture_kana":"ヒョウゴケン","city":"加古川市","city_kana":"カコガワシ","town":"山手","town_kana":"ヤマテ","prefecture_code":28},"0053":{"zip_code":"6750053","prefecture":"兵庫県","prefecture_kana":"ヒョウゴケン","city":"加古川市","city_kana":"カコガワシ","town":"米田町船頭","town_kana":"ヨネダチョウセンドウ","prefecture_code":28},"0054":{"zip_code":"6750054","prefecture":"兵庫県","prefecture_kana":"ヒョウゴケン","city":"加古川市","city_kana":"カコガワシ","town":"米田町平津","town_kana":"ヨネダチョウヒラツ","prefecture_code":28},"1300":{"zip_code":"6751300","prefecture":"兵庫県","prefecture_kana":"ヒョウゴケン","city":"小野市","city_kana":"オノシ","town":"","town_kana":"","prefecture_code":28},"1358":{"zip_code":"6751358","prefecture":"兵庫県","prefecture_kana":"ヒョウゴケン","city":"小野市","city_kana":"オノシ","town":"粟生町","town_kana":"アオチョウ","prefecture_code":28},"1352":{"zip_code":"6751352","prefecture":"兵庫県","prefecture_kana":"ヒョウゴケン","city":"小野市","city_kana":"オノシ","town":"復井町","town_kana":"フクイチョウ","prefecture_code":28},"1342":{"zip_code":"6751342","prefecture":"兵庫県","prefecture_kana":"ヒョウゴケン","city":"小野市","city_kana":"オノシ","town":"阿形町","town_kana":"アガタチョウ","prefecture_code":28},"1356":{"zip_code":"6751356","prefecture":"兵庫県","prefecture_kana":"ヒョウゴケン","city":"小野市","city_kana":"オノシ","town":"旭町","town_kana":"アサヒチョウ","prefecture_code":28},"1324":{"zip_code":"6751324","prefecture":"兵庫県","prefecture_kana":"ヒョウゴケン","city":"小野市","city_kana":"オノシ","town":"育ケ丘町","town_kana":"イクガオカチョウ","prefecture_code":28},"1326":{"zip_code":"6751326","prefecture":"兵庫県","prefecture_kana":"ヒョウゴケン","city":"小野市","city_kana":"オノシ","town":"池尻町","town_kana":"イケジリチョウ","prefecture_code":28},"1303":{"zip_code":"6751303","prefecture":"兵庫県","prefecture_kana":"ヒョウゴケン","city":"小野市","city_kana":"オノシ","town":"池田町","town_kana":"イケダチョウ","prefecture_code":28},"1327":{"zip_code":"6751327","prefecture":"兵庫県","prefecture_kana":"ヒョウゴケン","city":"小野市","city_kana":"オノシ","town":"市場町","town_kana":"イチバチョウ","prefecture_code":28},"1378":{"zip_code":"6751378","prefecture":"兵庫県","prefecture_kana":"ヒョウゴケン","city":"小野市","city_kana":"オノシ","town":"上新町","town_kana":"カミシンマチ","prefecture_code":28},"1334":{"zip_code":"6751334","prefecture":"兵庫県","prefecture_kana":"ヒョウゴケン","city":"小野市","city_kana":"オノシ","town":"大島町","town_kana":"オオシマチョウ","prefecture_code":28},"1301":{"zip_code":"6751301","prefecture":"兵庫県","prefecture_kana":"ヒョウゴケン","city":"小野市","city_kana":"オノシ","town":"小田町","town_kana":"オダチョウ","prefecture_code":28},"1325":{"zip_code":"6751325","prefecture":"兵庫県","prefecture_kana":"ヒョウゴケン","city":"小野市","city_kana":"オノシ","town":"樫山町","town_kana":"カシヤマチョウ","prefecture_code":28},"1335":{"zip_code":"6751335","prefecture":"兵庫県","prefecture_kana":"ヒョウゴケン","city":"小野市","city_kana":"オノシ","town":"片山町","town_kana":"カタヤマチョウ","prefecture_code":28},"1364":{"zip_code":"6751364","prefecture":"兵庫県","prefecture_kana":"ヒョウゴケン","city":"小野市","city_kana":"オノシ","town":"鹿野町","town_kana":"カノチョウ","prefecture_code":28},"1379":{"zip_code":"6751379","prefecture":"兵庫県","prefecture_kana":"ヒョウゴケン","city":"小野市","city_kana":"オノシ","town":"上本町","town_kana":"カミホンマチ","prefecture_code":28},"1353":{"zip_code":"6751353","prefecture":"兵庫県","prefecture_kana":"ヒョウゴケン","city":"小野市","city_kana":"オノシ","town":"河合中町","town_kana":"カワイナカチョウ","prefecture_code":28},"1354":{"zip_code":"6751354","prefecture":"兵庫県","prefecture_kana":"ヒョウゴケン","city":"小野市","city_kana":"オノシ","town":"河合西町","town_kana":"カワイニシチョウ","prefecture_code":28},"1343":{"zip_code":"6751343","prefecture":"兵庫県","prefecture_kana":"ヒョウゴケン","city":"小野市","city_kana":"オノシ","town":"来住町","town_kana":"キシチョウ","prefecture_code":28},"1318":{"zip_code":"6751318","prefecture":"兵庫県","prefecture_kana":"ヒョウゴケン","city":"小野市","city_kana":"オノシ","town":"北丘町","town_kana":"キタオカチョウ","prefecture_code":28},"1360":{"zip_code":"6751360","prefecture":"兵庫県","prefecture_kana":"ヒョウゴケン","city":"小野市","city_kana":"オノシ","town":"喜多町","town_kana":"キタチョウ","prefecture_code":28},"1345":{"zip_code":"6751345","prefecture":"兵庫県","prefecture_kana":"ヒョウゴケン","city":"小野市","city_kana":"オノシ","town":"黍田町","town_kana":"キビタチョウ","prefecture_code":28},"1317":{"zip_code":"6751317","prefecture":"兵庫県","prefecture_kana":"ヒョウゴケン","city":"小野市","city_kana":"オノシ","town":"浄谷町","town_kana":"キヨタニチョウ","prefecture_code":28},"1362":{"zip_code":"6751362","prefecture":"兵庫県","prefecture_kana":"ヒョウゴケン","city":"小野市","city_kana":"オノシ","town":"高山町","town_kana":"タカヤマチョウ","prefecture_code":28},"1337":{"zip_code":"6751337","prefecture":"兵庫県","prefecture_kana":"ヒョウゴケン","city":"小野市","city_kana":"オノシ","town":"久茂町","town_kana":"クモチョウ","prefecture_code":28},"1371":{"zip_code":"6751371","prefecture":"兵庫県","prefecture_kana":"ヒョウゴケン","city":"小野市","city_kana":"オノシ","town":"黒川町","town_kana":"クロカワチョウ","prefecture_code":28},"1365":{"zip_code":"6751365","prefecture":"兵庫県","prefecture_kana":"ヒョウゴケン","city":"小野市","city_kana":"オノシ","town":"広渡町","town_kana":"コウドチョウ","prefecture_code":28},"1312":{"zip_code":"6751312","prefecture":"兵庫県","prefecture_kana":"ヒョウゴケン","city":"小野市","city_kana":"オノシ","town":"栄町","town_kana":"サカエチョウ","prefecture_code":28},"1323":{"zip_code":"6751323","prefecture":"兵庫県","prefecture_kana":"ヒョウゴケン","city":"小野市","city_kana":"オノシ","town":"榊町","town_kana":"サガキチョウ","prefecture_code":28},"1351":{"zip_code":"6751351","prefecture":"兵庫県","prefecture_kana":"ヒョウゴケン","city":"小野市","city_kana":"オノシ","town":"桜台","town_kana":"サクラダイ","prefecture_code":28},"1367":{"zip_code":"6751367","prefecture":"兵庫県","prefecture_kana":"ヒョウゴケン","city":"小野市","city_kana":"オノシ","town":"敷地町","town_kana":"シキジチョウ","prefecture_code":28},"1336":{"zip_code":"6751336","prefecture":"兵庫県","prefecture_kana":"ヒョウゴケン","city":"小野市","city_kana":"オノシ","town":"下大部町","town_kana":"シモオオベチョウ","prefecture_code":28},"1344":{"zip_code":"6751344","prefecture":"兵庫県","prefecture_kana":"ヒョウゴケン","city":"小野市","city_kana":"オノシ","town":"下来住町","town_kana":"シモキシチョウ","prefecture_code":28},"1359":{"zip_code":"6751359","prefecture":"兵庫県","prefecture_kana":"ヒョウゴケン","city":"小野市","city_kana":"オノシ","town":"昭和町","town_kana":"ショウワチョウ","prefecture_code":28},"1355":{"zip_code":"6751355","prefecture":"兵庫県","prefecture_kana":"ヒョウゴケン","city":"小野市","city_kana":"オノシ","town":"新部町","town_kana":"シンベチョウ","prefecture_code":28},"1331":{"zip_code":"6751331","prefecture":"兵庫県","prefecture_kana":"ヒョウゴケン","city":"小野市","city_kana":"オノシ","town":"神明町","town_kana":"シンメイチョウ","prefecture_code":28},"1307":{"zip_code":"6751307","prefecture":"兵庫県","prefecture_kana":"ヒョウゴケン","city":"小野市","city_kana":"オノシ","town":"菅田町","town_kana":"スガタチョウ","prefecture_code":28},"1368":{"zip_code":"6751368","prefecture":"兵庫県","prefecture_kana":"ヒョウゴケン","city":"小野市","city_kana":"オノシ","town":"住永町","town_kana":"スミナガチョウ","prefecture_code":28},"1361":{"zip_code":"6751361","prefecture":"兵庫県","prefecture_kana":"ヒョウゴケン","city":"小野市","city_kana":"オノシ","town":"住吉町","town_kana":"スミヨシチョウ","prefecture_code":28},"1302":{"zip_code":"6751302","prefecture":"兵庫県","prefecture_kana":"ヒョウゴケン","city":"小野市","city_kana":"オノシ","town":"曽根町","town_kana":"ソネチョウ","prefecture_code":28},"1313":{"zip_code":"6751313","prefecture":"兵庫県","prefecture_kana":"ヒョウゴケン","city":"小野市","city_kana":"オノシ","town":"大開町","town_kana":"ダイカイチョウ","prefecture_code":28},"1369":{"zip_code":"6751369","prefecture":"兵庫県","prefecture_kana":"ヒョウゴケン","city":"小野市","city_kana":"オノシ","town":"高田町","town_kana":"タカタチョウ","prefecture_code":28},"1322":{"zip_code":"6751322","prefecture":"兵庫県","prefecture_kana":"ヒョウゴケン","city":"小野市","city_kana":"オノシ","town":"匠台","town_kana":"タクミダイ","prefecture_code":28},"1333":{"zip_code":"6751333","prefecture":"兵庫県","prefecture_kana":"ヒョウゴケン","city":"小野市","city_kana":"オノシ","town":"垂井町","town_kana":"タルイチョウ","prefecture_code":28},"1338":{"zip_code":"6751338","prefecture":"兵庫県","prefecture_kana":"ヒョウゴケン","city":"小野市","city_kana":"オノシ","town":"田園町","town_kana":"デンエンチョウ","prefecture_code":28},"1316":{"zip_code":"6751316","prefecture":"兵庫県","prefecture_kana":"ヒョウゴケン","city":"小野市","city_kana":"オノシ","town":"天神町","town_kana":"テンジンチョウ","prefecture_code":28},"1366":{"zip_code":"6751366","prefecture":"兵庫県","prefecture_kana":"ヒョウゴケン","city":"小野市","city_kana":"オノシ","town":"中島町","town_kana":"ナカシマチョウ","prefecture_code":28},"1304":{"zip_code":"6751304","prefecture":"兵庫県","prefecture_kana":"ヒョウゴケン","city":"小野市","city_kana":"オノシ","town":"中谷町","town_kana":"ナカタニチョウ","prefecture_code":28},"1332":{"zip_code":"6751332","prefecture":"兵庫県","prefecture_kana":"ヒョウゴケン","city":"小野市","city_kana":"オノシ","town":"中町","town_kana":"ナカチョウ","prefecture_code":28},"1308":{"zip_code":"6751308","prefecture":"兵庫県","prefecture_kana":"ヒョウゴケン","city":"小野市","city_kana":"オノシ","town":"中番町","town_kana":"ナカバンチョウ","prefecture_code":28},"1314":{"zip_code":"6751314","prefecture":"兵庫県","prefecture_kana":"ヒョウゴケン","city":"小野市","city_kana":"オノシ","town":"長尾町","town_kana":"ナガオチョウ","prefecture_code":28},"1375":{"zip_code":"6751375","prefecture":"兵庫県","prefecture_kana":"ヒョウゴケン","city":"小野市","city_kana":"オノシ","town":"西本町","town_kana":"ニシホンマチ","prefecture_code":28},"1341":{"zip_code":"6751341","prefecture":"兵庫県","prefecture_kana":"ヒョウゴケン","city":"小野市","city_kana":"オノシ","town":"西脇町","town_kana":"ニシワキチョウ","prefecture_code":28},"1377":{"zip_code":"6751377","prefecture":"兵庫県","prefecture_kana":"ヒョウゴケン","city":"小野市","city_kana":"オノシ","town":"葉多町","town_kana":"ハタチョウ","prefecture_code":28},"1373":{"zip_code":"6751373","prefecture":"兵庫県","prefecture_kana":"ヒョウゴケン","city":"小野市","city_kana":"オノシ","town":"東本町","town_kana":"ヒガシホンマチ","prefecture_code":28},"1315":{"zip_code":"6751315","prefecture":"兵庫県","prefecture_kana":"ヒョウゴケン","city":"小野市","city_kana":"オノシ","town":"日吉町","town_kana":"ヒヨシチョウ","prefecture_code":28},"1309":{"zip_code":"6751309","prefecture":"兵庫県","prefecture_kana":"ヒョウゴケン","city":"小野市","city_kana":"オノシ","town":"福住町","town_kana":"フクズミチョウ","prefecture_code":28},"1346":{"zip_code":"6751346","prefecture":"兵庫県","prefecture_kana":"ヒョウゴケン","city":"小野市","city_kana":"オノシ","town":"福甸町","town_kana":"フクデンチョウ","prefecture_code":28},"1328":{"zip_code":"6751328","prefecture":"兵庫県","prefecture_kana":"ヒョウゴケン","city":"小野市","city_kana":"オノシ","town":"二葉町","town_kana":"フタバチョウ","prefecture_code":28},"1306":{"zip_code":"6751306","prefecture":"兵庫県","prefecture_kana":"ヒョウゴケン","city":"小野市","city_kana":"オノシ","town":"船木町","town_kana":"フナキチョウ","prefecture_code":28},"1363":{"zip_code":"6751363","prefecture":"兵庫県","prefecture_kana":"ヒョウゴケン","city":"小野市","city_kana":"オノシ","town":"古川町","town_kana":"フルカワチョウ","prefecture_code":28},"1374":{"zip_code":"6751374","prefecture":"兵庫県","prefecture_kana":"ヒョウゴケン","city":"小野市","city_kana":"オノシ","town":"本町","town_kana":"ホンマチ","prefecture_code":28},"1372":{"zip_code":"6751372","prefecture":"兵庫県","prefecture_kana":"ヒョウゴケン","city":"小野市","city_kana":"オノシ","town":"本町","town_kana":"ホンマチ","prefecture_code":28},"1376":{"zip_code":"6751376","prefecture":"兵庫県","prefecture_kana":"ヒョウゴケン","city":"小野市","city_kana":"オノシ","town":"丸山町","town_kana":"マルヤマチョウ","prefecture_code":28},"1311":{"zip_code":"6751311","prefecture":"兵庫県","prefecture_kana":"ヒョウゴケン","city":"小野市","city_kana":"オノシ","town":"万勝寺町","town_kana":"マンショウジチョウ","prefecture_code":28},"1350":{"zip_code":"6751350","prefecture":"兵庫県","prefecture_kana":"ヒョウゴケン","city":"小野市","city_kana":"オノシ","town":"南青野町","town_kana":"ミナミアオノチョウ","prefecture_code":28},"1357":{"zip_code":"6751357","prefecture":"兵庫県","prefecture_kana":"ヒョウゴケン","city":"小野市","city_kana":"オノシ","town":"三和町","town_kana":"ミワチョウ","prefecture_code":28},"1321":{"zip_code":"6751321","prefecture":"兵庫県","prefecture_kana":"ヒョウゴケン","city":"小野市","city_kana":"オノシ","town":"山田町","town_kana":"ヤマダチョウ","prefecture_code":28},"1305":{"zip_code":"6751305","prefecture":"兵庫県","prefecture_kana":"ヒョウゴケン","city":"小野市","city_kana":"オノシ","town":"脇本町","town_kana":"ワキモトチョウ","prefecture_code":28},"2413":{"zip_code":"6752413","prefecture":"兵庫県","prefecture_kana":"ヒョウゴケン","city":"加西市","city_kana":"カサイシ","town":"青野町","town_kana":"アオノチョウ","prefecture_code":28},"2113":{"zip_code":"6752113","prefecture":"兵庫県","prefecture_kana":"ヒョウゴケン","city":"加西市","city_kana":"カサイシ","town":"網引町","town_kana":"アビキチョウ","prefecture_code":28},"2425":{"zip_code":"6752425","prefecture":"兵庫県","prefecture_kana":"ヒョウゴケン","city":"加西市","city_kana":"カサイシ","town":"池上町","town_kana":"イケガミチョウ","prefecture_code":28},"2423":{"zip_code":"6752423","prefecture":"兵庫県","prefecture_kana":"ヒョウゴケン","city":"加西市","city_kana":"カサイシ","town":"和泉町","town_kana":"イズミチョウ","prefecture_code":28},"2337":{"zip_code":"6752337","prefecture":"兵庫県","prefecture_kana":"ヒョウゴケン","city":"加西市","city_kana":"カサイシ","town":"市村町","town_kana":"イチムラチョウ","prefecture_code":28},"2434":{"zip_code":"6752434","prefecture":"兵庫県","prefecture_kana":"ヒョウゴケン","city":"加西市","city_kana":"カサイシ","town":"上野町","town_kana":"ウエノチョウ","prefecture_code":28},"2203":{"zip_code":"6752203","prefecture":"兵庫県","prefecture_kana":"ヒョウゴケン","city":"加西市","city_kana":"カサイシ","town":"牛居町","town_kana":"ウシイチョウ","prefecture_code":28},"2103":{"zip_code":"6752103","prefecture":"兵庫県","prefecture_kana":"ヒョウゴケン","city":"加西市","city_kana":"カサイシ","town":"鶉野町","town_kana":"ウズラノチョウ","prefecture_code":28},"2441":{"zip_code":"6752441","prefecture":"兵庫県","prefecture_kana":"ヒョウゴケン","city":"加西市","city_kana":"カサイシ","town":"越水町","town_kana":"ウテミチョウ","prefecture_code":28},"2231":{"zip_code":"6752231","prefecture":"兵庫県","prefecture_kana":"ヒョウゴケン","city":"加西市","city_kana":"カサイシ","town":"王子町","town_kana":"オウジチョウ","prefecture_code":28},"2455":{"zip_code":"6752455","prefecture":"兵庫県","prefecture_kana":"ヒョウゴケン","city":"加西市","city_kana":"カサイシ","town":"大内町","town_kana":"オオチチョウ","prefecture_code":28},"2234":{"zip_code":"6752234","prefecture":"兵庫県","prefecture_kana":"ヒョウゴケン","city":"加西市","city_kana":"カサイシ","town":"大村町","town_kana":"オオムラチョウ","prefecture_code":28},"2242":{"zip_code":"6752242","prefecture":"兵庫県","prefecture_kana":"ヒョウゴケン","city":"加西市","city_kana":"カサイシ","town":"尾崎町","town_kana":"オサキチョウ","prefecture_code":28},"2344":{"zip_code":"6752344","prefecture":"兵庫県","prefecture_kana":"ヒョウゴケン","city":"加西市","city_kana":"カサイシ","town":"大柳町","town_kana":"オヤナギチョウ","prefecture_code":28},"2412":{"zip_code":"6752412","prefecture":"兵庫県","prefecture_kana":"ヒョウゴケン","city":"加西市","city_kana":"カサイシ","town":"鍛治屋町","town_kana":"カジヤチョウ","prefecture_code":28},"2465":{"zip_code":"6752465","prefecture":"兵庫県","prefecture_kana":"ヒョウゴケン","city":"加西市","city_kana":"カサイシ","town":"上芥田町","town_kana":"カミゲタチョウ","prefecture_code":28},"2451":{"zip_code":"6752451","prefecture":"兵庫県","prefecture_kana":"ヒョウゴケン","city":"加西市","city_kana":"カサイシ","town":"上万願寺町","town_kana":"カミマンガンジチョウ","prefecture_code":28},"2453":{"zip_code":"6752453","prefecture":"兵庫県","prefecture_kana":"ヒョウゴケン","city":"加西市","city_kana":"カサイシ","town":"上道山町","town_kana":"カミミチヤマチョウ","prefecture_code":28},"2104":{"zip_code":"6752104","prefecture":"兵庫県","prefecture_kana":"ヒョウゴケン","city":"加西市","city_kana":"カサイシ","town":"上宮木町","town_kana":"カミミヤキチョウ","prefecture_code":28},"2444":{"zip_code":"6752444","prefecture":"兵庫県","prefecture_kana":"ヒョウゴケン","city":"加西市","city_kana":"カサイシ","town":"鴨谷町","town_kana":"カモダニチョウ","prefecture_code":28},"2333":{"zip_code":"6752333","prefecture":"兵庫県","prefecture_kana":"ヒョウゴケン","city":"加西市","city_kana":"カサイシ","town":"岸呂町","town_kana":"キシロチョウ","prefecture_code":28},"2433":{"zip_code":"6752433","prefecture":"兵庫県","prefecture_kana":"ヒョウゴケン","city":"加西市","city_kana":"カサイシ","town":"北町","town_kana":"キタチョウ","prefecture_code":28},"2401":{"zip_code":"6752401","prefecture":"兵庫県","prefecture_kana":"ヒョウゴケン","city":"加西市","city_kana":"カサイシ","town":"国正町","town_kana":"クニマサチョウ","prefecture_code":28},"2364":{"zip_code":"6752364","prefecture":"兵庫県","prefecture_kana":"ヒョウゴケン","city":"加西市","city_kana":"カサイシ","town":"窪田町","town_kana":"クボタチョウ","prefecture_code":28},"2221":{"zip_code":"6752221","prefecture":"兵庫県","prefecture_kana":"ヒョウゴケン","city":"加西市","city_kana":"カサイシ","town":"倉谷町","town_kana":"クラタニチョウ","prefecture_code":28},"2111":{"zip_code":"6752111","prefecture":"兵庫県","prefecture_kana":"ヒョウゴケン","city":"加西市","city_kana":"カサイシ","town":"桑原田町","town_kana":"クワハラダチョウ","prefecture_code":28},"2403":{"zip_code":"6752403","prefecture":"兵庫県","prefecture_kana":"ヒョウゴケン","city":"加西市","city_kana":"カサイシ","town":"小印南町","town_kana":"コイナミチョウ","prefecture_code":28},"2421":{"zip_code":"6752421","prefecture":"兵庫県","prefecture_kana":"ヒョウゴケン","city":"加西市","city_kana":"カサイシ","town":"河内町","town_kana":"コウチチョウ","prefecture_code":28},"2112":{"zip_code":"6752112","prefecture":"兵庫県","prefecture_kana":"ヒョウゴケン","city":"加西市","city_kana":"カサイシ","town":"栄町","town_kana":"サカエチョウ","prefecture_code":28},"2222":{"zip_code":"6752222","prefecture":"兵庫県","prefecture_kana":"ヒョウゴケン","city":"加西市","city_kana":"カサイシ","town":"坂本町","town_kana":"サカモトチョウ","prefecture_code":28},"2336":{"zip_code":"6752336","prefecture":"兵庫県","prefecture_kana":"ヒョウゴケン","city":"加西市","city_kana":"カサイシ","town":"坂元町","town_kana":"サカモトチョウ","prefecture_code":28},"2443":{"zip_code":"6752443","prefecture":"兵庫県","prefecture_kana":"ヒョウゴケン","city":"加西市","city_kana":"カサイシ","town":"笹倉町","town_kana":"ササクラチョウ","prefecture_code":28},"2461":{"zip_code":"6752461","prefecture":"兵庫県","prefecture_kana":"ヒョウゴケン","city":"加西市","city_kana":"カサイシ","town":"佐谷町","town_kana":"サタニチョウ","prefecture_code":28},"2431":{"zip_code":"6752431","prefecture":"兵庫県","prefecture_kana":"ヒョウゴケン","city":"加西市","city_kana":"カサイシ","town":"島町","town_kana":"シマチョウ","prefecture_code":28},"2464":{"zip_code":"6752464","prefecture":"兵庫県","prefecture_kana":"ヒョウゴケン","city":"加西市","city_kana":"カサイシ","town":"下芥田町","town_kana":"シモゲタチョウ","prefecture_code":28},"2452":{"zip_code":"6752452","prefecture":"兵庫県","prefecture_kana":"ヒョウゴケン","city":"加西市","city_kana":"カサイシ","town":"下万願寺町","town_kana":"シモマンガンジチョウ","prefecture_code":28},"2454":{"zip_code":"6752454","prefecture":"兵庫県","prefecture_kana":"ヒョウゴケン","city":"加西市","city_kana":"カサイシ","town":"下道山町","town_kana":"シモミチヤマチョウ","prefecture_code":28},"2105":{"zip_code":"6752105","prefecture":"兵庫県","prefecture_kana":"ヒョウゴケン","city":"加西市","city_kana":"カサイシ","town":"下宮木町","town_kana":"シモミヤキチョウ","prefecture_code":28},"2204":{"zip_code":"6752204","prefecture":"兵庫県","prefecture_kana":"ヒョウゴケン","city":"加西市","city_kana":"カサイシ","town":"新生町","town_kana":"シンジョウチョウ","prefecture_code":28},"2363":{"zip_code":"6752363","prefecture":"兵庫県","prefecture_kana":"ヒョウゴケン","city":"加西市","city_kana":"カサイシ","town":"吸谷町","town_kana":"スイダニチョウ","prefecture_code":28},"2411":{"zip_code":"6752411","prefecture":"兵庫県","prefecture_kana":"ヒョウゴケン","city":"加西市","city_kana":"カサイシ","town":"大工町","town_kana":"ダイクチョウ","prefecture_code":28},"2352":{"zip_code":"6752352","prefecture":"兵庫県","prefecture_kana":"ヒョウゴケン","city":"加西市","city_kana":"カサイシ","town":"谷口町","town_kana":"タニグチチョウ","prefecture_code":28},"2361":{"zip_code":"6752361","prefecture":"兵庫県","prefecture_kana":"ヒョウゴケン","city":"加西市","city_kana":"カサイシ","town":"谷町","town_kana":"タニチョウ","prefecture_code":28},"2114":{"zip_code":"6752114","prefecture":"兵庫県","prefecture_kana":"ヒョウゴケン","city":"加西市","city_kana":"カサイシ","town":"田原町","town_kana":"タハラチョウ","prefecture_code":28},"2402":{"zip_code":"6752402","prefecture":"兵庫県","prefecture_kana":"ヒョウゴケン","city":"加西市","city_kana":"カサイシ","town":"田谷町","town_kana":"タヤチョウ","prefecture_code":28},"2241":{"zip_code":"6752241","prefecture":"兵庫県","prefecture_kana":"ヒョウゴケン","city":"加西市","city_kana":"カサイシ","town":"段下町","town_kana":"ダンゲチョウ","prefecture_code":28},"2332":{"zip_code":"6752332","prefecture":"兵庫県","prefecture_kana":"ヒョウゴケン","city":"加西市","city_kana":"カサイシ","town":"鎮岩町","town_kana":"トコナベチョウ","prefecture_code":28},"2232":{"zip_code":"6752232","prefecture":"兵庫県","prefecture_kana":"ヒョウゴケン","city":"加西市","city_kana":"カサイシ","town":"戸田井町","town_kana":"トタイチョウ","prefecture_code":28},"2445":{"zip_code":"6752445","prefecture":"兵庫県","prefecture_kana":"ヒョウゴケン","city":"加西市","city_kana":"カサイシ","town":"殿原町","town_kana":"トノハラチョウ","prefecture_code":28},"2442":{"zip_code":"6752442","prefecture":"兵庫県","prefecture_kana":"ヒョウゴケン","city":"加西市","city_kana":"カサイシ","town":"中富町","town_kana":"ナカトミチョウ","prefecture_code":28},"2243":{"zip_code":"6752243","prefecture":"兵庫県","prefecture_kana":"ヒョウゴケン","city":"加西市","city_kana":"カサイシ","town":"中西町","town_kana":"ナカニシチョウ","prefecture_code":28},"2102":{"zip_code":"6752102","prefecture":"兵庫県","prefecture_kana":"ヒョウゴケン","city":"加西市","city_kana":"カサイシ","town":"中野町","town_kana":"ナカノチョウ","prefecture_code":28},"2343":{"zip_code":"6752343","prefecture":"兵庫県","prefecture_kana":"ヒョウゴケン","city":"加西市","city_kana":"カサイシ","town":"中山町","town_kana":"ナカヤマチョウ","prefecture_code":28},"2362":{"zip_code":"6752362","prefecture":"兵庫県","prefecture_kana":"ヒョウゴケン","city":"加西市","city_kana":"カサイシ","town":"西上野町","town_kana":"ニシウエノチョウ","prefecture_code":28},"2342":{"zip_code":"6752342","prefecture":"兵庫県","prefecture_kana":"ヒョウゴケン","city":"加西市","city_kana":"カサイシ","town":"西長町","town_kana":"ニシオサチョウ","prefecture_code":28},"2213":{"zip_code":"6752213","prefecture":"兵庫県","prefecture_kana":"ヒョウゴケン","city":"加西市","city_kana":"カサイシ","town":"西笠原町","town_kana":"ニシカサハラチョウ","prefecture_code":28},"2345":{"zip_code":"6752345","prefecture":"兵庫県","prefecture_kana":"ヒョウゴケン","city":"加西市","city_kana":"カサイシ","town":"西剣坂町","town_kana":"ニシケンザカチョウ","prefecture_code":28},"2366":{"zip_code":"6752366","prefecture":"兵庫県","prefecture_kana":"ヒョウゴケン","city":"加西市","city_kana":"カサイシ","town":"西谷町","town_kana":"ニシタニチョウ","prefecture_code":28},"2426":{"zip_code":"6752426","prefecture":"兵庫県","prefecture_kana":"ヒョウゴケン","city":"加西市","city_kana":"カサイシ","town":"西野々町","town_kana":"ニシノノチョウ","prefecture_code":28},"2335":{"zip_code":"6752335","prefecture":"兵庫県","prefecture_kana":"ヒョウゴケン","city":"加西市","city_kana":"カサイシ","town":"西横田町","town_kana":"ニシヨコタチョウ","prefecture_code":28},"2202":{"zip_code":"6752202","prefecture":"兵庫県","prefecture_kana":"ヒョウゴケン","city":"加西市","city_kana":"カサイシ","town":"野条町","town_kana":"ノウジョウチョウ","prefecture_code":28},"2424":{"zip_code":"6752424","prefecture":"兵庫県","prefecture_kana":"ヒョウゴケン","city":"加西市","city_kana":"カサイシ","town":"野上町","town_kana":"ノガミチョウ","prefecture_code":28},"2211":{"zip_code":"6752211","prefecture":"兵庫県","prefecture_kana":"ヒョウゴケン","city":"加西市","city_kana":"カサイシ","town":"野田町","town_kana":"ノダチョウ","prefecture_code":28},"2365":{"zip_code":"6752365","prefecture":"兵庫県","prefecture_kana":"ヒョウゴケン","city":"加西市","city_kana":"カサイシ","town":"畑町","town_kana":"ハタチョウ","prefecture_code":28},"2101":{"zip_code":"6752101","prefecture":"兵庫県","prefecture_kana":"ヒョウゴケン","city":"加西市","city_kana":"カサイシ","town":"繁昌町","town_kana":"ハンジョウチョウ","prefecture_code":28},"2341":{"zip_code":"6752341","prefecture":"兵庫県","prefecture_kana":"ヒョウゴケン","city":"加西市","city_kana":"カサイシ","town":"東長町","town_kana":"ヒガシオサチョウ","prefecture_code":28},"2212":{"zip_code":"6752212","prefecture":"兵庫県","prefecture_kana":"ヒョウゴケン","city":"加西市","city_kana":"カサイシ","town":"東笠原町","town_kana":"ヒガシカサハラチョウ","prefecture_code":28},"2346":{"zip_code":"6752346","prefecture":"兵庫県","prefecture_kana":"ヒョウゴケン","city":"加西市","city_kana":"カサイシ","town":"東剣坂町","town_kana":"ヒガシケンザカチョウ","prefecture_code":28},"2331":{"zip_code":"6752331","prefecture":"兵庫県","prefecture_kana":"ヒョウゴケン","city":"加西市","city_kana":"カサイシ","town":"東横田町","town_kana":"ヒガシヨコタチョウ","prefecture_code":28},"2463":{"zip_code":"6752463","prefecture":"兵庫県","prefecture_kana":"ヒョウゴケン","city":"加西市","city_kana":"カサイシ","town":"広原町","town_kana":"ヒロワラチョウ","prefecture_code":28},"2201":{"zip_code":"6752201","prefecture":"兵庫県","prefecture_kana":"ヒョウゴケン","city":"加西市","city_kana":"カサイシ","town":"琵琶甲町","town_kana":"ビワコウチョウ","prefecture_code":28},"2351":{"zip_code":"6752351","prefecture":"兵庫県","prefecture_kana":"ヒョウゴケン","city":"加西市","city_kana":"カサイシ","town":"福居町","town_kana":"フクイチョウ","prefecture_code":28},"2334":{"zip_code":"6752334","prefecture":"兵庫県","prefecture_kana":"ヒョウゴケン","city":"加西市","city_kana":"カサイシ","town":"福住町","town_kana":"フクズミチョウ","prefecture_code":28},"2462":{"zip_code":"6752462","prefecture":"兵庫県","prefecture_kana":"ヒョウゴケン","city":"加西市","city_kana":"カサイシ","town":"別所町","town_kana":"ベッショチョウ","prefecture_code":28},"2302":{"zip_code":"6752302","prefecture":"兵庫県","prefecture_kana":"ヒョウゴケン","city":"加西市","city_kana":"カサイシ","town":"北条町栗田","town_kana":"ホウジョウチョウクリダ","prefecture_code":28},"2313":{"zip_code":"6752313","prefecture":"兵庫県","prefecture_kana":"ヒョウゴケン","city":"加西市","city_kana":"カサイシ","town":"北条町黒駒","town_kana":"ホウジョウチョウクロコマ","prefecture_code":28},"2301":{"zip_code":"6752301","prefecture":"兵庫県","prefecture_kana":"ヒョウゴケン","city":"加西市","city_kana":"カサイシ","town":"北条町小谷","town_kana":"ホウジョウチョウコダニ","prefecture_code":28},"2321":{"zip_code":"6752321","prefecture":"兵庫県","prefecture_kana":"ヒョウゴケン","city":"加西市","city_kana":"カサイシ","town":"北条町東高室","town_kana":"ホウジョウチョウヒガシタカムロ","prefecture_code":28},"2322":{"zip_code":"6752322","prefecture":"兵庫県","prefecture_kana":"ヒョウゴケン","city":"加西市","city_kana":"カサイシ","town":"北条町西高室","town_kana":"ホウジョウチョウニシタカムロ","prefecture_code":28},"2324":{"zip_code":"6752324","prefecture":"兵庫県","prefecture_kana":"ヒョウゴケン","city":"加西市","city_kana":"カサイシ","town":"北条町東南","town_kana":"ホウジョウチョウヒガシナン","prefecture_code":28},"2323":{"zip_code":"6752323","prefecture":"兵庫県","prefecture_kana":"ヒョウゴケン","city":"加西市","city_kana":"カサイシ","town":"北条町西南","town_kana":"ホウジョウチョウニシナン","prefecture_code":28},"2303":{"zip_code":"6752303","prefecture":"兵庫県","prefecture_kana":"ヒョウゴケン","city":"加西市","city_kana":"カサイシ","town":"北条町古坂","town_kana":"ホウジョウチョウフルサカ","prefecture_code":28},"2312":{"zip_code":"6752312","prefecture":"兵庫県","prefecture_kana":"ヒョウゴケン","city":"加西市","city_kana":"カサイシ","town":"北条町北条","town_kana":"ホウジョウチョウホウジョウ","prefecture_code":28},"2311":{"zip_code":"6752311","prefecture":"兵庫県","prefecture_kana":"ヒョウゴケン","city":"加西市","city_kana":"カサイシ","town":"北条町横尾","town_kana":"ホウジョウチョウヨコオ","prefecture_code":28},"2432":{"zip_code":"6752432","prefecture":"兵庫県","prefecture_kana":"ヒョウゴケン","city":"加西市","city_kana":"カサイシ","town":"満久町","town_kana":"マクチョウ","prefecture_code":28},"2223":{"zip_code":"6752223","prefecture":"兵庫県","prefecture_kana":"ヒョウゴケン","city":"加西市","city_kana":"カサイシ","town":"三口町","town_kana":"ミクチチョウ","prefecture_code":28},"2414":{"zip_code":"6752414","prefecture":"兵庫県","prefecture_kana":"ヒョウゴケン","city":"加西市","city_kana":"カサイシ","town":"馬渡谷町","town_kana":"モオタニチョウ","prefecture_code":28},"2354":{"zip_code":"6752354","prefecture":"兵庫県","prefecture_kana":"ヒョウゴケン","city":"加西市","city_kana":"カサイシ","town":"山下町","town_kana":"ヤマシタチョウ","prefecture_code":28},"2422":{"zip_code":"6752422","prefecture":"兵庫県","prefecture_kana":"ヒョウゴケン","city":"加西市","city_kana":"カサイシ","town":"山田町","town_kana":"ヤマダチョウ","prefecture_code":28},"2404":{"zip_code":"6752404","prefecture":"兵庫県","prefecture_kana":"ヒョウゴケン","city":"加西市","city_kana":"カサイシ","town":"油谷町","town_kana":"ユダニチョウ","prefecture_code":28},"2353":{"zip_code":"6752353","prefecture":"兵庫県","prefecture_kana":"ヒョウゴケン","city":"加西市","city_kana":"カサイシ","town":"吉野町","town_kana":"ヨシノチョウ","prefecture_code":28},"2456":{"zip_code":"6752456","prefecture":"兵庫県","prefecture_kana":"ヒョウゴケン","city":"加西市","city_kana":"カサイシ","town":"若井町","town_kana":"ワカイチョウ","prefecture_code":28},"2233":{"zip_code":"6752233","prefecture":"兵庫県","prefecture_kana":"ヒョウゴケン","city":"加西市","city_kana":"カサイシ","town":"両月町","town_kana":"ワチチョウ","prefecture_code":28},"1100":{"zip_code":"6751100","prefecture":"兵庫県","prefecture_kana":"ヒョウゴケン","city":"加古郡稲美町","city_kana":"カコグンイナミチョウ","town":"","town_kana":"","prefecture_code":28},"1111":{"zip_code":"6751111","prefecture":"兵庫県","prefecture_kana":"ヒョウゴケン","city":"加古郡稲美町","city_kana":"カコグンイナミチョウ","town":"印南","town_kana":"インナミ","prefecture_code":28},"1113":{"zip_code":"6751113","prefecture":"兵庫県","prefecture_kana":"ヒョウゴケン","city":"加古郡稲美町","city_kana":"カコグンイナミチョウ","town":"岡","town_kana":"オカ","prefecture_code":28},"1105":{"zip_code":"6751105","prefecture":"兵庫県","prefecture_kana":"ヒョウゴケン","city":"加古郡稲美町","city_kana":"カコグンイナミチョウ","town":"加古","town_kana":"カコ","prefecture_code":28},"1121":{"zip_code":"6751121","prefecture":"兵庫県","prefecture_kana":"ヒョウゴケン","city":"加古郡稲美町","city_kana":"カコグンイナミチョウ","town":"北山","town_kana":"キタヤマ","prefecture_code":28},"1102":{"zip_code":"6751102","prefecture":"兵庫県","prefecture_kana":"ヒョウゴケン","city":"加古郡稲美町","city_kana":"カコグンイナミチョウ","town":"草谷","town_kana":"クサダニ","prefecture_code":28},"1115":{"zip_code":"6751115","prefecture":"兵庫県","prefecture_kana":"ヒョウゴケン","city":"加古郡稲美町","city_kana":"カコグンイナミチョウ","town":"国岡","town_kana":"クニオカ","prefecture_code":28},"1123":{"zip_code":"6751123","prefecture":"兵庫県","prefecture_kana":"ヒョウゴケン","city":"加古郡稲美町","city_kana":"カコグンイナミチョウ","town":"国北","town_kana":"クニホク","prefecture_code":28},"1114":{"zip_code":"6751114","prefecture":"兵庫県","prefecture_kana":"ヒョウゴケン","city":"加古郡稲美町","city_kana":"カコグンイナミチョウ","town":"国安","town_kana":"クニヤス","prefecture_code":28},"1126":{"zip_code":"6751126","prefecture":"兵庫県","prefecture_kana":"ヒョウゴケン","city":"加古郡稲美町","city_kana":"カコグンイナミチョウ","town":"幸竹","town_kana":"コウタケ","prefecture_code":28},"1101":{"zip_code":"6751101","prefecture":"兵庫県","prefecture_kana":"ヒョウゴケン","city":"加古郡稲美町","city_kana":"カコグンイナミチョウ","town":"下草谷","town_kana":"シモクサダニ","prefecture_code":28},"1116":{"zip_code":"6751116","prefecture":"兵庫県","prefecture_kana":"ヒョウゴケン","city":"加古郡稲美町","city_kana":"カコグンイナミチョウ","town":"蛸草","town_kana":"タコクサ","prefecture_code":28},"1127":{"zip_code":"6751127","prefecture":"兵庫県","prefecture_kana":"ヒョウゴケン","city":"加古郡稲美町","city_kana":"カコグンイナミチョウ","town":"中一色","town_kana":"ナカイシキ","prefecture_code":28},"1122":{"zip_code":"6751122","prefecture":"兵庫県","prefecture_kana":"ヒョウゴケン","city":"加古郡稲美町","city_kana":"カコグンイナミチョウ","town":"中村","town_kana":"ナカムラ","prefecture_code":28},"1103":{"zip_code":"6751103","prefecture":"兵庫県","prefecture_kana":"ヒョウゴケン","city":"加古郡稲美町","city_kana":"カコグンイナミチョウ","town":"野谷","town_kana":"ノダニ","prefecture_code":28},"1104":{"zip_code":"6751104","prefecture":"兵庫県","prefecture_kana":"ヒョウゴケン","city":"加古郡稲美町","city_kana":"カコグンイナミチョウ","town":"野寺","town_kana":"ノデラ","prefecture_code":28},"1124":{"zip_code":"6751124","prefecture":"兵庫県","prefecture_kana":"ヒョウゴケン","city":"加古郡稲美町","city_kana":"カコグンイナミチョウ","town":"森安","town_kana":"モリヤス","prefecture_code":28},"1112":{"zip_code":"6751112","prefecture":"兵庫県","prefecture_kana":"ヒョウゴケン","city":"加古郡稲美町","city_kana":"カコグンイナミチョウ","town":"六分一","town_kana":"ロクブイチ","prefecture_code":28},"1125":{"zip_code":"6751125","prefecture":"兵庫県","prefecture_kana":"ヒョウゴケン","city":"加古郡稲美町","city_kana":"カコグンイナミチョウ","town":"和田","town_kana":"ワダ","prefecture_code":28},"0100":{"zip_code":"6750100","prefecture":"兵庫県","prefecture_kana":"ヒョウゴケン","city":"加古郡播磨町","city_kana":"カコグンハリマチョウ","town":"","town_kana":"","prefecture_code":28},"0142":{"zip_code":"6750142","prefecture":"兵庫県","prefecture_kana":"ヒョウゴケン","city":"加古郡播磨町","city_kana":"カコグンハリマチョウ","town":"大中","town_kana":"オオナカ","prefecture_code":28},"0157":{"zip_code":"6750157","prefecture":"兵庫県","prefecture_kana":"ヒョウゴケン","city":"加古郡播磨町","city_kana":"カコグンハリマチョウ","town":"上野添","town_kana":"カミノゾエ","prefecture_code":28},"0158":{"zip_code":"6750158","prefecture":"兵庫県","prefecture_kana":"ヒョウゴケン","city":"加古郡播磨町","city_kana":"カコグンハリマチョウ","town":"北野添","town_kana":"キタノゾエ","prefecture_code":28},"0148":{"zip_code":"6750148","prefecture":"兵庫県","prefecture_kana":"ヒョウゴケン","city":"加古郡播磨町","city_kana":"カコグンハリマチョウ","town":"北古田","town_kana":"キタフルタ","prefecture_code":28},"0144":{"zip_code":"6750144","prefecture":"兵庫県","prefecture_kana":"ヒョウゴケン","city":"加古郡播磨町","city_kana":"カコグンハリマチョウ","town":"北本荘","town_kana":"キタホンジョウ","prefecture_code":28},"0163":{"zip_code":"6750163","prefecture":"兵庫県","prefecture_kana":"ヒョウゴケン","city":"加古郡播磨町","city_kana":"カコグンハリマチョウ","town":"古宮","town_kana":"コミヤ","prefecture_code":28},"0155":{"zip_code":"6750155","prefecture":"兵庫県","prefecture_kana":"ヒョウゴケン","city":"加古郡播磨町","city_kana":"カコグンハリマチョウ","town":"新島","town_kana":"ニイジマ","prefecture_code":28},"0160":{"zip_code":"6750160","prefecture":"兵庫県","prefecture_kana":"ヒョウゴケン","city":"加古郡播磨町","city_kana":"カコグンハリマチョウ","town":"西野添","town_kana":"ニシノゾエ","prefecture_code":28},"0151":{"zip_code":"6750151","prefecture":"兵庫県","prefecture_kana":"ヒョウゴケン","city":"加古郡播磨町","city_kana":"カコグンハリマチョウ","town":"野添","town_kana":"ノゾエ","prefecture_code":28},"0141":{"zip_code":"6750141","prefecture":"兵庫県","prefecture_kana":"ヒョウゴケン","city":"加古郡播磨町","city_kana":"カコグンハリマチョウ","town":"野添城","town_kana":"ノゾエジョウ","prefecture_code":28},"0164":{"zip_code":"6750164","prefecture":"兵庫県","prefecture_kana":"ヒョウゴケン","city":"加古郡播磨町","city_kana":"カコグンハリマチョウ","town":"東新島","town_kana":"ヒガシニイジマ","prefecture_code":28},"0159":{"zip_code":"6750159","prefecture":"兵庫県","prefecture_kana":"ヒョウゴケン","city":"加古郡播磨町","city_kana":"カコグンハリマチョウ","town":"東野添","town_kana":"ヒガシノゾエ","prefecture_code":28},"0156":{"zip_code":"6750156","prefecture":"兵庫県","prefecture_kana":"ヒョウゴケン","city":"加古郡播磨町","city_kana":"カコグンハリマチョウ","town":"東本荘","town_kana":"ヒガシホンジョウ","prefecture_code":28},"0162":{"zip_code":"6750162","prefecture":"兵庫県","prefecture_kana":"ヒョウゴケン","city":"加古郡播磨町","city_kana":"カコグンハリマチョウ","town":"二子","town_kana":"フタゴ","prefecture_code":28},"0146":{"zip_code":"6750146","prefecture":"兵庫県","prefecture_kana":"ヒョウゴケン","city":"加古郡播磨町","city_kana":"カコグンハリマチョウ","town":"古田","town_kana":"フルタ","prefecture_code":28},"0154":{"zip_code":"6750154","prefecture":"兵庫県","prefecture_kana":"ヒョウゴケン","city":"加古郡播磨町","city_kana":"カコグンハリマチョウ","town":"本荘","town_kana":"ホンジョウ","prefecture_code":28},"0147":{"zip_code":"6750147","prefecture":"兵庫県","prefecture_kana":"ヒョウゴケン","city":"加古郡播磨町","city_kana":"カコグンハリマチョウ","town":"南大中","town_kana":"ミナミオオナカ","prefecture_code":28},"0150":{"zip_code":"6750150","prefecture":"兵庫県","prefecture_kana":"ヒョウゴケン","city":"加古郡播磨町","city_kana":"カコグンハリマチョウ","town":"南野添","town_kana":"ミナミノゾエ","prefecture_code":28},"0143":{"zip_code":"6750143","prefecture":"兵庫県","prefecture_kana":"ヒョウゴケン","city":"加古郡播磨町","city_kana":"カコグンハリマチョウ","town":"宮北","town_kana":"ミヤキタ","prefecture_code":28},"0145":{"zip_code":"6750145","prefecture":"兵庫県","prefecture_kana":"ヒョウゴケン","city":"加古郡播磨町","city_kana":"カコグンハリマチョウ","town":"宮西","town_kana":"ミヤニシ","prefecture_code":28}}