{"0000":{"zip_code":"6780000","prefecture":"兵庫県","prefecture_kana":"ヒョウゴケン","city":"相生市","city_kana":"アイオイシ","town":"","town_kana":"","prefecture_code":28},"0141":{"zip_code":"6780141","prefecture":"兵庫県","prefecture_kana":"ヒョウゴケン","city":"相生市","city_kana":"アイオイシ","town":"相生","town_kana":"アイオイ","prefecture_code":28},"0041":{"zip_code":"6780041","prefecture":"兵庫県","prefecture_kana":"ヒョウゴケン","city":"相生市","city_kana":"アイオイシ","town":"相生","town_kana":"アイオイ","prefecture_code":28},"0064":{"zip_code":"6780064","prefecture":"兵庫県","prefecture_kana":"ヒョウゴケン","city":"相生市","city_kana":"アイオイシ","town":"青葉台","town_kana":"アオバダイ","prefecture_code":28},"0021":{"zip_code":"6780021","prefecture":"兵庫県","prefecture_kana":"ヒョウゴケン","city":"相生市","city_kana":"アイオイシ","town":"赤坂","town_kana":"アカサカ","prefecture_code":28},"0031":{"zip_code":"6780031","prefecture":"兵庫県","prefecture_kana":"ヒョウゴケン","city":"相生市","city_kana":"アイオイシ","town":"旭","town_kana":"アサヒ","prefecture_code":28},"0004":{"zip_code":"6780004","prefecture":"兵庫県","prefecture_kana":"ヒョウゴケン","city":"相生市","city_kana":"アイオイシ","town":"池之内","town_kana":"イケノウチ","prefecture_code":28},"0005":{"zip_code":"6780005","prefecture":"兵庫県","prefecture_kana":"ヒョウゴケン","city":"相生市","city_kana":"アイオイシ","town":"大石町","town_kana":"オオイシチョウ","prefecture_code":28},"0052":{"zip_code":"6780052","prefecture":"兵庫県","prefecture_kana":"ヒョウゴケン","city":"相生市","city_kana":"アイオイシ","town":"大島町","town_kana":"オオシマチョウ","prefecture_code":28},"0043":{"zip_code":"6780043","prefecture":"兵庫県","prefecture_kana":"ヒョウゴケン","city":"相生市","city_kana":"アイオイシ","town":"大谷町","town_kana":"オオタニチョウ","prefecture_code":28},"0022":{"zip_code":"6780022","prefecture":"兵庫県","prefecture_kana":"ヒョウゴケン","city":"相生市","city_kana":"アイオイシ","town":"垣内町","town_kana":"カキウチチョウ","prefecture_code":28},"0042":{"zip_code":"6780042","prefecture":"兵庫県","prefecture_kana":"ヒョウゴケン","city":"相生市","city_kana":"アイオイシ","town":"川原町","town_kana":"カワハラチョウ","prefecture_code":28},"0003":{"zip_code":"6780003","prefecture":"兵庫県","prefecture_kana":"ヒョウゴケン","city":"相生市","city_kana":"アイオイシ","town":"陸","town_kana":"クガ","prefecture_code":28},"0007":{"zip_code":"6780007","prefecture":"兵庫県","prefecture_kana":"ヒョウゴケン","city":"相生市","city_kana":"アイオイシ","town":"陸本町","town_kana":"クガホンマチ","prefecture_code":28},"0023":{"zip_code":"6780023","prefecture":"兵庫県","prefecture_kana":"ヒョウゴケン","city":"相生市","city_kana":"アイオイシ","town":"向陽台","town_kana":"コウヨウダイ","prefecture_code":28},"0008":{"zip_code":"6780008","prefecture":"兵庫県","prefecture_kana":"ヒョウゴケン","city":"相生市","city_kana":"アイオイシ","town":"栄町","town_kana":"サカエマチ","prefecture_code":28},"0063":{"zip_code":"6780063","prefecture":"兵庫県","prefecture_kana":"ヒョウゴケン","city":"相生市","city_kana":"アイオイシ","town":"佐方","town_kana":"サガタ","prefecture_code":28},"0061":{"zip_code":"6780061","prefecture":"兵庫県","prefecture_kana":"ヒョウゴケン","city":"相生市","city_kana":"アイオイシ","town":"桜ケ丘町","town_kana":"サクラガオカチョウ","prefecture_code":28},"0002":{"zip_code":"6780002","prefecture":"兵庫県","prefecture_kana":"ヒョウゴケン","city":"相生市","city_kana":"アイオイシ","town":"汐見台","town_kana":"シオミダイ","prefecture_code":28},"0073":{"zip_code":"6780073","prefecture":"兵庫県","prefecture_kana":"ヒョウゴケン","city":"相生市","city_kana":"アイオイシ","town":"菅原町","town_kana":"スガハラチョウ","prefecture_code":28},"0062":{"zip_code":"6780062","prefecture":"兵庫県","prefecture_kana":"ヒョウゴケン","city":"相生市","city_kana":"アイオイシ","town":"千尋町","town_kana":"チヒロチョウ","prefecture_code":28},"0067":{"zip_code":"6780067","prefecture":"兵庫県","prefecture_kana":"ヒョウゴケン","city":"相生市","city_kana":"アイオイシ","town":"那波","town_kana":"ナバ","prefecture_code":28},"0051":{"zip_code":"6780051","prefecture":"兵庫県","prefecture_kana":"ヒョウゴケン","city":"相生市","city_kana":"アイオイシ","town":"那波大浜町","town_kana":"ナバオオハマチョウ","prefecture_code":28},"0056":{"zip_code":"6780056","prefecture":"兵庫県","prefecture_kana":"ヒョウゴケン","city":"相生市","city_kana":"アイオイシ","town":"那波東本町","town_kana":"ナバヒガシホンマチ","prefecture_code":28},"0054":{"zip_code":"6780054","prefecture":"兵庫県","prefecture_kana":"ヒョウゴケン","city":"相生市","city_kana":"アイオイシ","town":"那波西本町","town_kana":"ナバニシホンマチ","prefecture_code":28},"0053":{"zip_code":"6780053","prefecture":"兵庫県","prefecture_kana":"ヒョウゴケン","city":"相生市","city_kana":"アイオイシ","town":"那波南本町","town_kana":"ナバミナミホンマチ","prefecture_code":28},"0055":{"zip_code":"6780055","prefecture":"兵庫県","prefecture_kana":"ヒョウゴケン","city":"相生市","city_kana":"アイオイシ","town":"那波本町","town_kana":"ナバホンマチ","prefecture_code":28},"0011":{"zip_code":"6780011","prefecture":"兵庫県","prefecture_kana":"ヒョウゴケン","city":"相生市","city_kana":"アイオイシ","town":"那波野","town_kana":"ナバノ","prefecture_code":28},"0065":{"zip_code":"6780065","prefecture":"兵庫県","prefecture_kana":"ヒョウゴケン","city":"相生市","city_kana":"アイオイシ","town":"西谷町","town_kana":"ニシタニチョウ","prefecture_code":28},"0044":{"zip_code":"6780044","prefecture":"兵庫県","prefecture_kana":"ヒョウゴケン","city":"相生市","city_kana":"アイオイシ","town":"野瀬","town_kana":"ノセ","prefecture_code":28},"0074":{"zip_code":"6780074","prefecture":"兵庫県","prefecture_kana":"ヒョウゴケン","city":"相生市","city_kana":"アイオイシ","town":"ひかりが丘","town_kana":"ヒカリガオカ","prefecture_code":28},"0024":{"zip_code":"6780024","prefecture":"兵庫県","prefecture_kana":"ヒョウゴケン","city":"相生市","city_kana":"アイオイシ","town":"双葉","town_kana":"フタバ","prefecture_code":28},"0012":{"zip_code":"6780012","prefecture":"兵庫県","prefecture_kana":"ヒョウゴケン","city":"相生市","city_kana":"アイオイシ","town":"古池","town_kana":"フルイケ","prefecture_code":28},"0025":{"zip_code":"6780025","prefecture":"兵庫県","prefecture_kana":"ヒョウゴケン","city":"相生市","city_kana":"アイオイシ","town":"古池本町","town_kana":"フルイケホンマチ","prefecture_code":28},"0006":{"zip_code":"6780006","prefecture":"兵庫県","prefecture_kana":"ヒョウゴケン","city":"相生市","city_kana":"アイオイシ","town":"本郷町","town_kana":"ホンゴウチョウ","prefecture_code":28},"0071":{"zip_code":"6780071","prefecture":"兵庫県","prefecture_kana":"ヒョウゴケン","city":"相生市","city_kana":"アイオイシ","town":"緑ケ丘","town_kana":"ミドリガオカ","prefecture_code":28},"0091":[{"zip_code":"6780091","prefecture":"兵庫県","prefecture_kana":"ヒョウゴケン","city":"相生市","city_kana":"アイオイシ","town":"矢野町瓜生","town_kana":"ヤノチョウウリュウ","prefecture_code":28},{"zip_code":"6780091","prefecture":"兵庫県","prefecture_kana":"ヒョウゴケン","city":"相生市","city_kana":"アイオイシ","town":"矢野町金坂","town_kana":"ヤノチョウカネサカ","prefecture_code":28},{"zip_code":"6780091","prefecture":"兵庫県","prefecture_kana":"ヒョウゴケン","city":"相生市","city_kana":"アイオイシ","town":"矢野町釜出","town_kana":"ヤノチョウカマデ","prefecture_code":28},{"zip_code":"6780091","prefecture":"兵庫県","prefecture_kana":"ヒョウゴケン","city":"相生市","city_kana":"アイオイシ","town":"矢野町上","town_kana":"ヤノチョウカミ","prefecture_code":28},{"zip_code":"6780091","prefecture":"兵庫県","prefecture_kana":"ヒョウゴケン","city":"相生市","city_kana":"アイオイシ","town":"矢野町榊","town_kana":"ヤノチョウサカキ","prefecture_code":28},{"zip_code":"6780091","prefecture":"兵庫県","prefecture_kana":"ヒョウゴケン","city":"相生市","city_kana":"アイオイシ","town":"矢野町菅谷","town_kana":"ヤノチョウスガタニ","prefecture_code":28},{"zip_code":"6780091","prefecture":"兵庫県","prefecture_kana":"ヒョウゴケン","city":"相生市","city_kana":"アイオイシ","town":"矢野町中野","town_kana":"ヤノチョウナカノ","prefecture_code":28},{"zip_code":"6780091","prefecture":"兵庫県","prefecture_kana":"ヒョウゴケン","city":"相生市","city_kana":"アイオイシ","town":"矢野町能下","town_kana":"ヤノチョウノウゲ","prefecture_code":28},{"zip_code":"6780091","prefecture":"兵庫県","prefecture_kana":"ヒョウゴケン","city":"相生市","city_kana":"アイオイシ","town":"矢野町二木","town_kana":"ヤノチョウフタツギ","prefecture_code":28},{"zip_code":"6780091","prefecture":"兵庫県","prefecture_kana":"ヒョウゴケン","city":"相生市","city_kana":"アイオイシ","town":"矢野町真広","town_kana":"ヤノチョウマヒロ","prefecture_code":28},{"zip_code":"6780091","prefecture":"兵庫県","prefecture_kana":"ヒョウゴケン","city":"相生市","city_kana":"アイオイシ","town":"矢野町森","town_kana":"ヤノチョウモリ","prefecture_code":28}],"0092":[{"zip_code":"6780092","prefecture":"兵庫県","prefecture_kana":"ヒョウゴケン","city":"相生市","city_kana":"アイオイシ","town":"矢野町小河","town_kana":"ヤノチョウオウゴ","prefecture_code":28},{"zip_code":"6780092","prefecture":"兵庫県","prefecture_kana":"ヒョウゴケン","city":"相生市","city_kana":"アイオイシ","town":"矢野町上土井","town_kana":"ヤノチョウカミドイ","prefecture_code":28},{"zip_code":"6780092","prefecture":"兵庫県","prefecture_kana":"ヒョウゴケン","city":"相生市","city_kana":"アイオイシ","town":"矢野町下田","town_kana":"ヤノチョウシモダ","prefecture_code":28}],"0066":{"zip_code":"6780066","prefecture":"兵庫県","prefecture_kana":"ヒョウゴケン","city":"相生市","city_kana":"アイオイシ","town":"山崎町","town_kana":"ヤマサキチョウ","prefecture_code":28},"0001":{"zip_code":"6780001","prefecture":"兵庫県","prefecture_kana":"ヒョウゴケン","city":"相生市","city_kana":"アイオイシ","town":"山手","town_kana":"ヤマテ","prefecture_code":28},"0072":{"zip_code":"6780072","prefecture":"兵庫県","prefecture_kana":"ヒョウゴケン","city":"相生市","city_kana":"アイオイシ","town":"竜泉町","town_kana":"リュウセンチョウ","prefecture_code":28},"0081":[{"zip_code":"6780081","prefecture":"兵庫県","prefecture_kana":"ヒョウゴケン","city":"相生市","city_kana":"アイオイシ","town":"若狭野町雨内","town_kana":"ワカサノチョウアマウチ","prefecture_code":28},{"zip_code":"6780081","prefecture":"兵庫県","prefecture_kana":"ヒョウゴケン","city":"相生市","city_kana":"アイオイシ","town":"若狭野町入野","town_kana":"ワカサノチョウイリノ","prefecture_code":28},{"zip_code":"6780081","prefecture":"兵庫県","prefecture_kana":"ヒョウゴケン","city":"相生市","city_kana":"アイオイシ","town":"若狭野町上松","town_kana":"ワカサノチョウウエマツ","prefecture_code":28},{"zip_code":"6780081","prefecture":"兵庫県","prefecture_kana":"ヒョウゴケン","city":"相生市","city_kana":"アイオイシ","town":"若狭野町東後明","town_kana":"ワカサノチョウヒガシゴミョウ","prefecture_code":28},{"zip_code":"6780081","prefecture":"兵庫県","prefecture_kana":"ヒョウゴケン","city":"相生市","city_kana":"アイオイシ","town":"若狭野町西後明","town_kana":"ワカサノチョウニシゴミョウ","prefecture_code":28},{"zip_code":"6780081","prefecture":"兵庫県","prefecture_kana":"ヒョウゴケン","city":"相生市","city_kana":"アイオイシ","town":"若狭野町若狭野","town_kana":"ワカサノチョウワカサノ","prefecture_code":28}],"0082":[{"zip_code":"6780082","prefecture":"兵庫県","prefecture_kana":"ヒョウゴケン","city":"相生市","city_kana":"アイオイシ","town":"若狭野町下土井","town_kana":"ワカサノチョウシモドイ","prefecture_code":28},{"zip_code":"6780082","prefecture":"兵庫県","prefecture_kana":"ヒョウゴケン","city":"相生市","city_kana":"アイオイシ","town":"若狭野町寺田","town_kana":"ワカサノチョウテラダ","prefecture_code":28},{"zip_code":"6780082","prefecture":"兵庫県","prefecture_kana":"ヒョウゴケン","city":"相生市","city_kana":"アイオイシ","town":"若狭野町出","town_kana":"ワカサノチョウデ","prefecture_code":28},{"zip_code":"6780082","prefecture":"兵庫県","prefecture_kana":"ヒョウゴケン","city":"相生市","city_kana":"アイオイシ","town":"若狭野町野々","town_kana":"ワカサノチョウノノ","prefecture_code":28},{"zip_code":"6780082","prefecture":"兵庫県","prefecture_kana":"ヒョウゴケン","city":"相生市","city_kana":"アイオイシ","town":"若狭野町八洞","town_kana":"ワカサノチョウハットウ","prefecture_code":28},{"zip_code":"6780082","prefecture":"兵庫県","prefecture_kana":"ヒョウゴケン","city":"相生市","city_kana":"アイオイシ","town":"若狭野町福井","town_kana":"ワカサノチョウフクイ","prefecture_code":28}],"0200":{"zip_code":"6780200","prefecture":"兵庫県","prefecture_kana":"ヒョウゴケン","city":"赤穂市","city_kana":"アコウシ","town":"","town_kana":"","prefecture_code":28},"0214":{"zip_code":"6780214","prefecture":"兵庫県","prefecture_kana":"ヒョウゴケン","city":"赤穂市","city_kana":"アコウシ","town":"朝日町","town_kana":"アサヒチョウ","prefecture_code":28},"0250":{"zip_code":"6780250","prefecture":"兵庫県","prefecture_kana":"ヒョウゴケン","city":"赤穂市","city_kana":"アコウシ","town":"磯浜町","town_kana":"イソハマチョウ","prefecture_code":28},"0248":{"zip_code":"6780248","prefecture":"兵庫県","prefecture_kana":"ヒョウゴケン","city":"赤穂市","city_kana":"アコウシ","town":"板屋町","town_kana":"イタヤチョウ","prefecture_code":28},"1181":{"zip_code":"6781181","prefecture":"兵庫県","prefecture_kana":"ヒョウゴケン","city":"赤穂市","city_kana":"アコウシ","town":"有年楢原","town_kana":"ウネナラバラ","prefecture_code":28},"1182":{"zip_code":"6781182","prefecture":"兵庫県","prefecture_kana":"ヒョウゴケン","city":"赤穂市","city_kana":"アコウシ","town":"有年原","town_kana":"ウネハラ","prefecture_code":28},"1183":{"zip_code":"6781183","prefecture":"兵庫県","prefecture_kana":"ヒョウゴケン","city":"赤穂市","city_kana":"アコウシ","town":"有年牟礼","town_kana":"ウネムレ","prefecture_code":28},"1184":{"zip_code":"6781184","prefecture":"兵庫県","prefecture_kana":"ヒョウゴケン","city":"赤穂市","city_kana":"アコウシ","town":"有年横尾","town_kana":"ウネヨコオ","prefecture_code":28},"0252":{"zip_code":"6780252","prefecture":"兵庫県","prefecture_kana":"ヒョウゴケン","city":"赤穂市","city_kana":"アコウシ","town":"大津","town_kana":"オオツ","prefecture_code":28},"0229":{"zip_code":"6780229","prefecture":"兵庫県","prefecture_kana":"ヒョウゴケン","city":"赤穂市","city_kana":"アコウシ","town":"大橋町","town_kana":"オオハシチョウ","prefecture_code":28},"0205":{"zip_code":"6780205","prefecture":"兵庫県","prefecture_kana":"ヒョウゴケン","city":"赤穂市","city_kana":"アコウシ","town":"大町","town_kana":"オオマチ","prefecture_code":28},"0221":{"zip_code":"6780221","prefecture":"兵庫県","prefecture_kana":"ヒョウゴケン","city":"赤穂市","city_kana":"アコウシ","town":"尾崎","town_kana":"オサキ","prefecture_code":28},"0254":{"zip_code":"6780254","prefecture":"兵庫県","prefecture_kana":"ヒョウゴケン","city":"赤穂市","city_kana":"アコウシ","town":"折方","town_kana":"オリカタ","prefecture_code":28},"0225":{"zip_code":"6780225","prefecture":"兵庫県","prefecture_kana":"ヒョウゴケン","city":"赤穂市","city_kana":"アコウシ","town":"海浜町","town_kana":"カイヒンチョウ","prefecture_code":28},"0249":{"zip_code":"6780249","prefecture":"兵庫県","prefecture_kana":"ヒョウゴケン","city":"赤穂市","city_kana":"アコウシ","town":"片浜町","town_kana":"カタハマチョウ","prefecture_code":28},"0235":{"zip_code":"6780235","prefecture":"兵庫県","prefecture_kana":"ヒョウゴケン","city":"赤穂市","city_kana":"アコウシ","town":"上仮屋","town_kana":"カミカリヤ","prefecture_code":28},"0236":{"zip_code":"6780236","prefecture":"兵庫県","prefecture_kana":"ヒョウゴケン","city":"赤穂市","city_kana":"アコウシ","town":"上仮屋南","town_kana":"カミカリヤミナミ","prefecture_code":28},"0237":{"zip_code":"6780237","prefecture":"兵庫県","prefecture_kana":"ヒョウゴケン","city":"赤穂市","city_kana":"アコウシ","town":"上仮屋北","town_kana":"カミカリヤキタ","prefecture_code":28},"0239":{"zip_code":"6780239","prefecture":"兵庫県","prefecture_kana":"ヒョウゴケン","city":"赤穂市","city_kana":"アコウシ","town":"加里屋","town_kana":"カリヤ","prefecture_code":28},"0233":{"zip_code":"6780233","prefecture":"兵庫県","prefecture_kana":"ヒョウゴケン","city":"赤穂市","city_kana":"アコウシ","town":"加里屋中洲","town_kana":"カリヤナカス","prefecture_code":28},"0234":{"zip_code":"6780234","prefecture":"兵庫県","prefecture_kana":"ヒョウゴケン","city":"赤穂市","city_kana":"アコウシ","town":"加里屋南","town_kana":"カリヤミナミ","prefecture_code":28},"0175":{"zip_code":"6780175","prefecture":"兵庫県","prefecture_kana":"ヒョウゴケン","city":"赤穂市","city_kana":"アコウシ","town":"北野中","town_kana":"キタノナカ","prefecture_code":28},"0165":{"zip_code":"6780165","prefecture":"兵庫県","prefecture_kana":"ヒョウゴケン","city":"赤穂市","city_kana":"アコウシ","town":"木津","town_kana":"キヅ","prefecture_code":28},"0253":{"zip_code":"6780253","prefecture":"兵庫県","prefecture_kana":"ヒョウゴケン","city":"赤穂市","city_kana":"アコウシ","town":"木生谷","town_kana":"キュウノタニ","prefecture_code":28},"0259":{"zip_code":"6780259","prefecture":"兵庫県","prefecture_kana":"ヒョウゴケン","city":"赤穂市","city_kana":"アコウシ","town":"黒崎町","town_kana":"クロサキチョウ","prefecture_code":28},"0223":{"zip_code":"6780223","prefecture":"兵庫県","prefecture_kana":"ヒョウゴケン","city":"赤穂市","city_kana":"アコウシ","town":"元禄橋町","town_kana":"ゲンロクバシチョウ","prefecture_code":28},"0171":{"zip_code":"6780171","prefecture":"兵庫県","prefecture_kana":"ヒョウゴケン","city":"赤穂市","city_kana":"アコウシ","town":"高野","town_kana":"コウノ","prefecture_code":28},"0204":{"zip_code":"6780204","prefecture":"兵庫県","prefecture_kana":"ヒョウゴケン","city":"赤穂市","city_kana":"アコウシ","town":"寿町","town_kana":"コトブキチョウ","prefecture_code":28},"0258":{"zip_code":"6780258","prefecture":"兵庫県","prefecture_kana":"ヒョウゴケン","city":"赤穂市","city_kana":"アコウシ","town":"古浜町","town_kana":"コハマチョウ","prefecture_code":28},"0172":{"zip_code":"6780172","prefecture":"兵庫県","prefecture_kana":"ヒョウゴケン","city":"赤穂市","city_kana":"アコウシ","town":"坂越","town_kana":"サコシ","prefecture_code":28},"0226":{"zip_code":"6780226","prefecture":"兵庫県","prefecture_kana":"ヒョウゴケン","city":"赤穂市","city_kana":"アコウシ","town":"さつき町","town_kana":"サツキチョウ","prefecture_code":28},"0201":{"zip_code":"6780201","prefecture":"兵庫県","prefecture_kana":"ヒョウゴケン","city":"赤穂市","city_kana":"アコウシ","town":"塩屋","town_kana":"シオヤ","prefecture_code":28},"0212":{"zip_code":"6780212","prefecture":"兵庫県","prefecture_kana":"ヒョウゴケン","city":"赤穂市","city_kana":"アコウシ","town":"清水町","town_kana":"シミズチョウ","prefecture_code":28},"0244":{"zip_code":"6780244","prefecture":"兵庫県","prefecture_kana":"ヒョウゴケン","city":"赤穂市","city_kana":"アコウシ","town":"城西町","town_kana":"ジョウサイチョウ","prefecture_code":28},"0216":{"zip_code":"6780216","prefecture":"兵庫県","prefecture_kana":"ヒョウゴケン","city":"赤穂市","city_kana":"アコウシ","town":"正保橋町","town_kana":"ショウホバシチョウ","prefecture_code":28},"0255":{"zip_code":"6780255","prefecture":"兵庫県","prefecture_kana":"ヒョウゴケン","city":"赤穂市","city_kana":"アコウシ","town":"新田","town_kana":"シンデン","prefecture_code":28},"0162":{"zip_code":"6780162","prefecture":"兵庫県","prefecture_kana":"ヒョウゴケン","city":"赤穂市","city_kana":"アコウシ","town":"周世","town_kana":"スセ","prefecture_code":28},"0241":{"zip_code":"6780241","prefecture":"兵庫県","prefecture_kana":"ヒョウゴケン","city":"赤穂市","city_kana":"アコウシ","town":"惣門町","town_kana":"ソウモンチョウ","prefecture_code":28},"0163":{"zip_code":"6780163","prefecture":"兵庫県","prefecture_kana":"ヒョウゴケン","city":"赤穂市","city_kana":"アコウシ","town":"高雄","town_kana":"タカオ","prefecture_code":28},"0256":{"zip_code":"6780256","prefecture":"兵庫県","prefecture_kana":"ヒョウゴケン","city":"赤穂市","city_kana":"アコウシ","town":"鷆和","town_kana":"テンワ","prefecture_code":28},"0227":{"zip_code":"6780227","prefecture":"兵庫県","prefecture_kana":"ヒョウゴケン","city":"赤穂市","city_kana":"アコウシ","town":"中浜町","town_kana":"ナカハマチョウ","prefecture_code":28},"0232":{"zip_code":"6780232","prefecture":"兵庫県","prefecture_kana":"ヒョウゴケン","city":"赤穂市","city_kana":"アコウシ","town":"中広","town_kana":"ナカヒロ","prefecture_code":28},"0161":{"zip_code":"6780161","prefecture":"兵庫県","prefecture_kana":"ヒョウゴケン","city":"赤穂市","city_kana":"アコウシ","town":"中山","town_kana":"ナカヤマ","prefecture_code":28},"0242":{"zip_code":"6780242","prefecture":"兵庫県","prefecture_kana":"ヒョウゴケン","city":"赤穂市","city_kana":"アコウシ","town":"長池町","town_kana":"ナガイケチョウ","prefecture_code":28},"0211":{"zip_code":"6780211","prefecture":"兵庫県","prefecture_kana":"ヒョウゴケン","city":"赤穂市","city_kana":"アコウシ","town":"南宮町","town_kana":"ナングウチョウ","prefecture_code":28},"0251":[{"zip_code":"6780251","prefecture":"兵庫県","prefecture_kana":"ヒョウゴケン","city":"赤穂市","city_kana":"アコウシ","town":"西有年","town_kana":"ニシウネ","prefecture_code":28},{"zip_code":"6780251","prefecture":"兵庫県","prefecture_kana":"ヒョウゴケン","city":"赤穂市","city_kana":"アコウシ","town":"西有年湯の内","town_kana":"ニシウネユノウチ","prefecture_code":28}],"1186":{"zip_code":"6781186","prefecture":"兵庫県","prefecture_kana":"ヒョウゴケン","city":"赤穂市","city_kana":"アコウシ","town":"西有年","town_kana":"ニシウネ","prefecture_code":28},"0207":{"zip_code":"6780207","prefecture":"兵庫県","prefecture_kana":"ヒョウゴケン","city":"赤穂市","city_kana":"アコウシ","town":"西浜北町","town_kana":"ニシハマキタマチ","prefecture_code":28},"0208":{"zip_code":"6780208","prefecture":"兵庫県","prefecture_kana":"ヒョウゴケン","city":"赤穂市","city_kana":"アコウシ","town":"西浜町","town_kana":"ニシハマチョウ","prefecture_code":28},"0238":{"zip_code":"6780238","prefecture":"兵庫県","prefecture_kana":"ヒョウゴケン","city":"赤穂市","city_kana":"アコウシ","town":"農神町","town_kana":"ノウジンチョウ","prefecture_code":28},"0173":{"zip_code":"6780173","prefecture":"兵庫県","prefecture_kana":"ヒョウゴケン","city":"赤穂市","city_kana":"アコウシ","town":"浜市","town_kana":"ハマイチ","prefecture_code":28},"1185":{"zip_code":"6781185","prefecture":"兵庫県","prefecture_kana":"ヒョウゴケン","city":"赤穂市","city_kana":"アコウシ","town":"東有年","town_kana":"ヒガシウネ","prefecture_code":28},"0222":{"zip_code":"6780222","prefecture":"兵庫県","prefecture_kana":"ヒョウゴケン","city":"赤穂市","city_kana":"アコウシ","town":"東浜町","town_kana":"ヒガシハマチョウ","prefecture_code":28},"0257":{"zip_code":"6780257","prefecture":"兵庫県","prefecture_kana":"ヒョウゴケン","city":"赤穂市","city_kana":"アコウシ","town":"福浦","town_kana":"フクウラ","prefecture_code":28},"0247":{"zip_code":"6780247","prefecture":"兵庫県","prefecture_kana":"ヒョウゴケン","city":"赤穂市","city_kana":"アコウシ","town":"平成町","town_kana":"ヘイセイチョウ","prefecture_code":28},"0231":{"zip_code":"6780231","prefecture":"兵庫県","prefecture_kana":"ヒョウゴケン","city":"赤穂市","city_kana":"アコウシ","town":"細野町","town_kana":"ホソノチョウ","prefecture_code":28},"0217":{"zip_code":"6780217","prefecture":"兵庫県","prefecture_kana":"ヒョウゴケン","city":"赤穂市","city_kana":"アコウシ","town":"本水尾町","town_kana":"ホンミオチョウ","prefecture_code":28},"0228":{"zip_code":"6780228","prefecture":"兵庫県","prefecture_kana":"ヒョウゴケン","city":"赤穂市","city_kana":"アコウシ","town":"松原町","town_kana":"マツバラチョウ","prefecture_code":28},"0166":{"zip_code":"6780166","prefecture":"兵庫県","prefecture_kana":"ヒョウゴケン","city":"赤穂市","city_kana":"アコウシ","town":"真殿","town_kana":"マトノ","prefecture_code":28},"0174":{"zip_code":"6780174","prefecture":"兵庫県","prefecture_kana":"ヒョウゴケン","city":"赤穂市","city_kana":"アコウシ","town":"砂子","town_kana":"マナゴ","prefecture_code":28},"0215":{"zip_code":"6780215","prefecture":"兵庫県","prefecture_kana":"ヒョウゴケン","city":"赤穂市","city_kana":"アコウシ","town":"御崎","town_kana":"ミサキ","prefecture_code":28},"0245":{"zip_code":"6780245","prefecture":"兵庫県","prefecture_kana":"ヒョウゴケン","city":"赤穂市","city_kana":"アコウシ","town":"三樋町","town_kana":"ミツヒチョウ","prefecture_code":28},"0176":{"zip_code":"6780176","prefecture":"兵庫県","prefecture_kana":"ヒョウゴケン","city":"赤穂市","city_kana":"アコウシ","town":"南野中","town_kana":"ミナミノナカ","prefecture_code":28},"0206":{"zip_code":"6780206","prefecture":"兵庫県","prefecture_kana":"ヒョウゴケン","city":"赤穂市","city_kana":"アコウシ","town":"宮前町","town_kana":"ミヤマエチョウ","prefecture_code":28},"0164":{"zip_code":"6780164","prefecture":"兵庫県","prefecture_kana":"ヒョウゴケン","city":"赤穂市","city_kana":"アコウシ","town":"目坂","town_kana":"メサカ","prefecture_code":28},"0224":{"zip_code":"6780224","prefecture":"兵庫県","prefecture_kana":"ヒョウゴケン","city":"赤穂市","city_kana":"アコウシ","town":"元沖町","town_kana":"モトオキチョウ","prefecture_code":28},"0213":{"zip_code":"6780213","prefecture":"兵庫県","prefecture_kana":"ヒョウゴケン","city":"赤穂市","city_kana":"アコウシ","town":"元塩町","town_kana":"モトシオチョウ","prefecture_code":28},"0203":{"zip_code":"6780203","prefecture":"兵庫県","prefecture_kana":"ヒョウゴケン","city":"赤穂市","city_kana":"アコウシ","town":"元町","town_kana":"モトマチ","prefecture_code":28},"0202":{"zip_code":"6780202","prefecture":"兵庫県","prefecture_kana":"ヒョウゴケン","city":"赤穂市","city_kana":"アコウシ","town":"山手町","town_kana":"ヤマテチョウ","prefecture_code":28},"0246":{"zip_code":"6780246","prefecture":"兵庫県","prefecture_kana":"ヒョウゴケン","city":"赤穂市","city_kana":"アコウシ","town":"六百目町","town_kana":"ロッピャクメチョウ","prefecture_code":28},"0243":{"zip_code":"6780243","prefecture":"兵庫県","prefecture_kana":"ヒョウゴケン","city":"赤穂市","city_kana":"アコウシ","town":"若草町","town_kana":"ワカクサチョウ","prefecture_code":28},"1200":{"zip_code":"6781200","prefecture":"兵庫県","prefecture_kana":"ヒョウゴケン","city":"赤穂郡上郡町","city_kana":"アコウグンカミゴオリチョウ","town":"","town_kana":"","prefecture_code":28},"1273":{"zip_code":"6781273","prefecture":"兵庫県","prefecture_kana":"ヒョウゴケン","city":"赤穂郡上郡町","city_kana":"アコウグンカミゴオリチョウ","town":"赤松","town_kana":"アカマツ","prefecture_code":28},"1261":{"zip_code":"6781261","prefecture":"兵庫県","prefecture_kana":"ヒョウゴケン","city":"赤穂郡上郡町","city_kana":"アコウグンカミゴオリチョウ","town":"旭日","town_kana":"アサヒ","prefecture_code":28},"1251":{"zip_code":"6781251","prefecture":"兵庫県","prefecture_kana":"ヒョウゴケン","city":"赤穂郡上郡町","city_kana":"アコウグンカミゴオリチョウ","town":"井上","town_kana":"イノカミ","prefecture_code":28},"1262":{"zip_code":"6781262","prefecture":"兵庫県","prefecture_kana":"ヒョウゴケン","city":"赤穂郡上郡町","city_kana":"アコウグンカミゴオリチョウ","town":"岩木","town_kana":"イワキ","prefecture_code":28},"1218":{"zip_code":"6781218","prefecture":"兵庫県","prefecture_kana":"ヒョウゴケン","city":"赤穂郡上郡町","city_kana":"アコウグンカミゴオリチョウ","town":"宇治山","town_kana":"ウジヤマ","prefecture_code":28},"1213":{"zip_code":"6781213","prefecture":"兵庫県","prefecture_kana":"ヒョウゴケン","city":"赤穂郡上郡町","city_kana":"アコウグンカミゴオリチョウ","town":"宇野山","town_kana":"ウノヤマ","prefecture_code":28},"1275":{"zip_code":"6781275","prefecture":"兵庫県","prefecture_kana":"ヒョウゴケン","city":"赤穂郡上郡町","city_kana":"アコウグンカミゴオリチョウ","town":"大枝","town_kana":"オエダ","prefecture_code":28},"1276":{"zip_code":"6781276","prefecture":"兵庫県","prefecture_kana":"ヒョウゴケン","city":"赤穂郡上郡町","city_kana":"アコウグンカミゴオリチョウ","town":"大枝新","town_kana":"オエダシン","prefecture_code":28},"1204":{"zip_code":"6781204","prefecture":"兵庫県","prefecture_kana":"ヒョウゴケン","city":"赤穂郡上郡町","city_kana":"アコウグンカミゴオリチョウ","town":"大冨","town_kana":"オオトミ","prefecture_code":28},"1219":{"zip_code":"6781219","prefecture":"兵庫県","prefecture_kana":"ヒョウゴケン","city":"赤穂郡上郡町","city_kana":"アコウグンカミゴオリチョウ","town":"奥","town_kana":"オク","prefecture_code":28},"1203":{"zip_code":"6781203","prefecture":"兵庫県","prefecture_kana":"ヒョウゴケン","city":"赤穂郡上郡町","city_kana":"アコウグンカミゴオリチョウ","town":"尾長谷","town_kana":"オナガダニ","prefecture_code":28},"1211":{"zip_code":"6781211","prefecture":"兵庫県","prefecture_kana":"ヒョウゴケン","city":"赤穂郡上郡町","city_kana":"アコウグンカミゴオリチョウ","town":"小野豆","town_kana":"オノズ","prefecture_code":28},"1243":{"zip_code":"6781243","prefecture":"兵庫県","prefecture_kana":"ヒョウゴケン","city":"赤穂郡上郡町","city_kana":"アコウグンカミゴオリチョウ","town":"落地","town_kana":"オロチ","prefecture_code":28},"1274":{"zip_code":"6781274","prefecture":"兵庫県","prefecture_kana":"ヒョウゴケン","city":"赤穂郡上郡町","city_kana":"アコウグンカミゴオリチョウ","town":"柏野","town_kana":"カシワノ","prefecture_code":28},"1201":{"zip_code":"6781201","prefecture":"兵庫県","prefecture_kana":"ヒョウゴケン","city":"赤穂郡上郡町","city_kana":"アコウグンカミゴオリチョウ","town":"金出地","town_kana":"カナジ","prefecture_code":28},"1223":{"zip_code":"6781223","prefecture":"兵庫県","prefecture_kana":"ヒョウゴケン","city":"赤穂郡上郡町","city_kana":"アコウグンカミゴオリチョウ","town":"釜島","town_kana":"カマシマ","prefecture_code":28},"1231":{"zip_code":"6781231","prefecture":"兵庫県","prefecture_kana":"ヒョウゴケン","city":"赤穂郡上郡町","city_kana":"アコウグンカミゴオリチョウ","town":"上郡","town_kana":"カミゴオリ","prefecture_code":28},"1214":{"zip_code":"6781214","prefecture":"兵庫県","prefecture_kana":"ヒョウゴケン","city":"赤穂郡上郡町","city_kana":"アコウグンカミゴオリチョウ","town":"休治","town_kana":"キュウジ","prefecture_code":28},"1271":{"zip_code":"6781271","prefecture":"兵庫県","prefecture_kana":"ヒョウゴケン","city":"赤穂郡上郡町","city_kana":"アコウグンカミゴオリチョウ","town":"楠","town_kana":"クスノキ","prefecture_code":28},"1242":{"zip_code":"6781242","prefecture":"兵庫県","prefecture_kana":"ヒョウゴケン","city":"赤穂郡上郡町","city_kana":"アコウグンカミゴオリチョウ","town":"栗原","town_kana":"クリバラ","prefecture_code":28},"1205":{"zip_code":"6781205","prefecture":"兵庫県","prefecture_kana":"ヒョウゴケン","city":"赤穂郡上郡町","city_kana":"アコウグンカミゴオリチョウ","town":"光都","town_kana":"コウト","prefecture_code":28},"1278":{"zip_code":"6781278","prefecture":"兵庫県","prefecture_kana":"ヒョウゴケン","city":"赤穂郡上郡町","city_kana":"アコウグンカミゴオリチョウ","town":"河野原","town_kana":"コウノハラ","prefecture_code":28},"1277":{"zip_code":"6781277","prefecture":"兵庫県","prefecture_kana":"ヒョウゴケン","city":"赤穂郡上郡町","city_kana":"アコウグンカミゴオリチョウ","town":"苔縄","town_kana":"コケナワ","prefecture_code":28},"1212":{"zip_code":"6781212","prefecture":"兵庫県","prefecture_kana":"ヒョウゴケン","city":"赤穂郡上郡町","city_kana":"アコウグンカミゴオリチョウ","town":"佐用谷","town_kana":"サヨダニ","prefecture_code":28},"1221":{"zip_code":"6781221","prefecture":"兵庫県","prefecture_kana":"ヒョウゴケン","city":"赤穂郡上郡町","city_kana":"アコウグンカミゴオリチョウ","town":"神明寺","town_kana":"ジミョウジ","prefecture_code":28},"1217":{"zip_code":"6781217","prefecture":"兵庫県","prefecture_kana":"ヒョウゴケン","city":"赤穂郡上郡町","city_kana":"アコウグンカミゴオリチョウ","town":"宿","town_kana":"シュク","prefecture_code":28},"1215":{"zip_code":"6781215","prefecture":"兵庫県","prefecture_kana":"ヒョウゴケン","city":"赤穂郡上郡町","city_kana":"アコウグンカミゴオリチョウ","town":"正福寺","town_kana":"ショウフクジ","prefecture_code":28},"1233":{"zip_code":"6781233","prefecture":"兵庫県","prefecture_kana":"ヒョウゴケン","city":"赤穂郡上郡町","city_kana":"アコウグンカミゴオリチョウ","town":"大持","town_kana":"ダイモチ","prefecture_code":28},"1226":{"zip_code":"6781226","prefecture":"兵庫県","prefecture_kana":"ヒョウゴケン","city":"赤穂郡上郡町","city_kana":"アコウグンカミゴオリチョウ","town":"高田台","town_kana":"タカタダイ","prefecture_code":28},"1254":{"zip_code":"6781254","prefecture":"兵庫県","prefecture_kana":"ヒョウゴケン","city":"赤穂郡上郡町","city_kana":"アコウグンカミゴオリチョウ","town":"高山","town_kana":"タカヤマ","prefecture_code":28},"1232":{"zip_code":"6781232","prefecture":"兵庫県","prefecture_kana":"ヒョウゴケン","city":"赤穂郡上郡町","city_kana":"アコウグンカミゴオリチョウ","town":"竹万","town_kana":"チクマ","prefecture_code":28},"1216":{"zip_code":"6781216","prefecture":"兵庫県","prefecture_kana":"ヒョウゴケン","city":"赤穂郡上郡町","city_kana":"アコウグンカミゴオリチョウ","town":"中野","town_kana":"ナカノ","prefecture_code":28},"1244":{"zip_code":"6781244","prefecture":"兵庫県","prefecture_kana":"ヒョウゴケン","city":"赤穂郡上郡町","city_kana":"アコウグンカミゴオリチョウ","town":"梨ケ原","town_kana":"ナシガハラ","prefecture_code":28},"1222":{"zip_code":"6781222","prefecture":"兵庫県","prefecture_kana":"ヒョウゴケン","city":"赤穂郡上郡町","city_kana":"アコウグンカミゴオリチョウ","town":"西野山","town_kana":"ニシノヤマ","prefecture_code":28},"1202":{"zip_code":"6781202","prefecture":"兵庫県","prefecture_kana":"ヒョウゴケン","city":"赤穂郡上郡町","city_kana":"アコウグンカミゴオリチョウ","town":"野桑","town_kana":"ノクワ","prefecture_code":28},"1252":{"zip_code":"6781252","prefecture":"兵庫県","prefecture_kana":"ヒョウゴケン","city":"赤穂郡上郡町","city_kana":"アコウグンカミゴオリチョウ","town":"船坂","town_kana":"フナサカ","prefecture_code":28},"1253":{"zip_code":"6781253","prefecture":"兵庫県","prefecture_kana":"ヒョウゴケン","city":"赤穂郡上郡町","city_kana":"アコウグンカミゴオリチョウ","town":"別名","town_kana":"ベツミョウ","prefecture_code":28},"1272":{"zip_code":"6781272","prefecture":"兵庫県","prefecture_kana":"ヒョウゴケン","city":"赤穂郡上郡町","city_kana":"アコウグンカミゴオリチョウ","town":"細野","town_kana":"ホソノ","prefecture_code":28},"1256":{"zip_code":"6781256","prefecture":"兵庫県","prefecture_kana":"ヒョウゴケン","city":"赤穂郡上郡町","city_kana":"アコウグンカミゴオリチョウ","town":"八保","town_kana":"ヤホ","prefecture_code":28},"1241":{"zip_code":"6781241","prefecture":"兵庫県","prefecture_kana":"ヒョウゴケン","city":"赤穂郡上郡町","city_kana":"アコウグンカミゴオリチョウ","town":"山野里","town_kana":"ヤマノサト","prefecture_code":28},"1255":{"zip_code":"6781255","prefecture":"兵庫県","prefecture_kana":"ヒョウゴケン","city":"赤穂郡上郡町","city_kana":"アコウグンカミゴオリチョウ","town":"行頭","town_kana":"ユクトウ","prefecture_code":28},"1225":{"zip_code":"6781225","prefecture":"兵庫県","prefecture_kana":"ヒョウゴケン","city":"赤穂郡上郡町","city_kana":"アコウグンカミゴオリチョウ","town":"與井","town_kana":"ヨイ","prefecture_code":28},"1224":{"zip_code":"6781224","prefecture":"兵庫県","prefecture_kana":"ヒョウゴケン","city":"赤穂郡上郡町","city_kana":"アコウグンカミゴオリチョウ","town":"與井新","town_kana":"ヨイシン","prefecture_code":28}}