{"2154":{"zip_code":"6792154","prefecture":"兵庫県","prefecture_kana":"ヒョウゴケン","city":"姫路市","city_kana":"ヒメジシ","town":"香寺町相坂","town_kana":"コウデラチョウアイサカ","prefecture_code":28},"2131":{"zip_code":"6792131","prefecture":"兵庫県","prefecture_kana":"ヒョウゴケン","city":"姫路市","city_kana":"ヒメジシ","town":"香寺町犬飼","town_kana":"コウデラチョウイヌカイ","prefecture_code":28},"2141":{"zip_code":"6792141","prefecture":"兵庫県","prefecture_kana":"ヒョウゴケン","city":"姫路市","city_kana":"ヒメジシ","town":"香寺町岩部","town_kana":"コウデラチョウイワベ","prefecture_code":28},"2167":{"zip_code":"6792167","prefecture":"兵庫県","prefecture_kana":"ヒョウゴケン","city":"姫路市","city_kana":"ヒメジシ","town":"香寺町久畑","town_kana":"コウデラチョウクバタ","prefecture_code":28},"2151":{"zip_code":"6792151","prefecture":"兵庫県","prefecture_kana":"ヒョウゴケン","city":"姫路市","city_kana":"ヒメジシ","town":"香寺町香呂","town_kana":"コウデラチョウコウロ","prefecture_code":28},"2132":{"zip_code":"6792132","prefecture":"兵庫県","prefecture_kana":"ヒョウゴケン","city":"姫路市","city_kana":"ヒメジシ","town":"香寺町須加院","town_kana":"コウデラチョウスカイン","prefecture_code":28},"2153":{"zip_code":"6792153","prefecture":"兵庫県","prefecture_kana":"ヒョウゴケン","city":"姫路市","city_kana":"ヒメジシ","town":"香寺町田野","town_kana":"コウデラチョウタノ","prefecture_code":28},"2165":{"zip_code":"6792165","prefecture":"兵庫県","prefecture_kana":"ヒョウゴケン","city":"姫路市","city_kana":"ヒメジシ","town":"香寺町恒屋","town_kana":"コウデラチョウツネヤ","prefecture_code":28},"2164":{"zip_code":"6792164","prefecture":"兵庫県","prefecture_kana":"ヒョウゴケン","city":"姫路市","city_kana":"ヒメジシ","town":"香寺町中寺","town_kana":"コウデラチョウナカデラ","prefecture_code":28},"2143":{"zip_code":"6792143","prefecture":"兵庫県","prefecture_kana":"ヒョウゴケン","city":"姫路市","city_kana":"ヒメジシ","town":"香寺町中仁野","town_kana":"コウデラチョウナカニノ","prefecture_code":28},"2166":{"zip_code":"6792166","prefecture":"兵庫県","prefecture_kana":"ヒョウゴケン","city":"姫路市","city_kana":"ヒメジシ","town":"香寺町中村","town_kana":"コウデラチョウナカムラ","prefecture_code":28},"2144":{"zip_code":"6792144","prefecture":"兵庫県","prefecture_kana":"ヒョウゴケン","city":"姫路市","city_kana":"ヒメジシ","town":"香寺町中屋","town_kana":"コウデラチョウナカヤ","prefecture_code":28},"2162":{"zip_code":"6792162","prefecture":"兵庫県","prefecture_kana":"ヒョウゴケン","city":"姫路市","city_kana":"ヒメジシ","town":"香寺町野田","town_kana":"コウデラチョウノダ","prefecture_code":28},"2163":{"zip_code":"6792163","prefecture":"兵庫県","prefecture_kana":"ヒョウゴケン","city":"姫路市","city_kana":"ヒメジシ","town":"香寺町土師","town_kana":"コウデラチョウハゼ","prefecture_code":28},"2142":{"zip_code":"6792142","prefecture":"兵庫県","prefecture_kana":"ヒョウゴケン","city":"姫路市","city_kana":"ヒメジシ","town":"香寺町広瀬","town_kana":"コウデラチョウヒロセ","prefecture_code":28},"2161":{"zip_code":"6792161","prefecture":"兵庫県","prefecture_kana":"ヒョウゴケン","city":"姫路市","city_kana":"ヒメジシ","town":"香寺町溝口","town_kana":"コウデラチョウミゾグチ","prefecture_code":28},"2155":{"zip_code":"6792155","prefecture":"兵庫県","prefecture_kana":"ヒョウゴケン","city":"姫路市","city_kana":"ヒメジシ","town":"香寺町矢田部","town_kana":"コウデラチョウヤタベ","prefecture_code":28},"2152":{"zip_code":"6792152","prefecture":"兵庫県","prefecture_kana":"ヒョウゴケン","city":"姫路市","city_kana":"ヒメジシ","town":"香寺町行重","town_kana":"コウデラチョウユキシゲ","prefecture_code":28},"2124":{"zip_code":"6792124","prefecture":"兵庫県","prefecture_kana":"ヒョウゴケン","city":"姫路市","city_kana":"ヒメジシ","town":"豊富町甲丘","town_kana":"トヨトミチョウカブトガオカ","prefecture_code":28},"2121":{"zip_code":"6792121","prefecture":"兵庫県","prefecture_kana":"ヒョウゴケン","city":"姫路市","city_kana":"ヒメジシ","town":"豊富町神谷","town_kana":"トヨトミチョウコダニ","prefecture_code":28},"2123":{"zip_code":"6792123","prefecture":"兵庫県","prefecture_kana":"ヒョウゴケン","city":"姫路市","city_kana":"ヒメジシ","town":"豊富町豊富","town_kana":"トヨトミチョウトヨトミ","prefecture_code":28},"2122":{"zip_code":"6792122","prefecture":"兵庫県","prefecture_kana":"ヒョウゴケン","city":"姫路市","city_kana":"ヒメジシ","town":"豊富町御蔭","town_kana":"トヨトミチョウミカゲ","prefecture_code":28},"4231":{"zip_code":"6794231","prefecture":"兵庫県","prefecture_kana":"ヒョウゴケン","city":"姫路市","city_kana":"ヒメジシ","town":"林田町大堤","town_kana":"ハヤシダチョウオオヅツミ","prefecture_code":28},"4223":{"zip_code":"6794223","prefecture":"兵庫県","prefecture_kana":"ヒョウゴケン","city":"姫路市","city_kana":"ヒメジシ","town":"林田町奥佐見","town_kana":"ハヤシダチョウオクサミ","prefecture_code":28},"4232":{"zip_code":"6794232","prefecture":"兵庫県","prefecture_kana":"ヒョウゴケン","city":"姫路市","city_kana":"ヒメジシ","town":"林田町上伊勢","town_kana":"ハヤシダチョウカミイセ","prefecture_code":28},"4233":{"zip_code":"6794233","prefecture":"兵庫県","prefecture_kana":"ヒョウゴケン","city":"姫路市","city_kana":"ヒメジシ","town":"林田町下伊勢","town_kana":"ハヤシダチョウシモイセ","prefecture_code":28},"4204":{"zip_code":"6794204","prefecture":"兵庫県","prefecture_kana":"ヒョウゴケン","city":"姫路市","city_kana":"ヒメジシ","town":"林田町上構","town_kana":"ハヤシダチョウカミカマエ","prefecture_code":28},"4203":{"zip_code":"6794203","prefecture":"兵庫県","prefecture_kana":"ヒョウゴケン","city":"姫路市","city_kana":"ヒメジシ","town":"林田町中構","town_kana":"ハヤシダチョウナカカマエ","prefecture_code":28},"4202":{"zip_code":"6794202","prefecture":"兵庫県","prefecture_kana":"ヒョウゴケン","city":"姫路市","city_kana":"ヒメジシ","town":"林田町下構","town_kana":"ハヤシダチョウシモカマエ","prefecture_code":28},"4222":{"zip_code":"6794222","prefecture":"兵庫県","prefecture_kana":"ヒョウゴケン","city":"姫路市","city_kana":"ヒメジシ","town":"林田町口佐見","town_kana":"ハヤシダチョウクチサミ","prefecture_code":28},"4201":{"zip_code":"6794201","prefecture":"兵庫県","prefecture_kana":"ヒョウゴケン","city":"姫路市","city_kana":"ヒメジシ","town":"林田町久保","town_kana":"ハヤシダチョウクボ","prefecture_code":28},"4205":{"zip_code":"6794205","prefecture":"兵庫県","prefecture_kana":"ヒョウゴケン","city":"姫路市","city_kana":"ヒメジシ","town":"林田町新町","town_kana":"ハヤシダチョウシンマチ","prefecture_code":28},"4214":{"zip_code":"6794214","prefecture":"兵庫県","prefecture_kana":"ヒョウゴケン","city":"姫路市","city_kana":"ヒメジシ","town":"林田町中山下","town_kana":"ハヤシダチョウナカヤマシタ","prefecture_code":28},"4206":{"zip_code":"6794206","prefecture":"兵庫県","prefecture_kana":"ヒョウゴケン","city":"姫路市","city_kana":"ヒメジシ","town":"林田町林田","town_kana":"ハヤシダチョウハヤシダ","prefecture_code":28},"4221":{"zip_code":"6794221","prefecture":"兵庫県","prefecture_kana":"ヒョウゴケン","city":"姫路市","city_kana":"ヒメジシ","town":"林田町林谷","town_kana":"ハヤシダチョウハヤシダニ","prefecture_code":28},"4212":{"zip_code":"6794212","prefecture":"兵庫県","prefecture_kana":"ヒョウゴケン","city":"姫路市","city_kana":"ヒメジシ","town":"林田町松山","town_kana":"ハヤシダチョウマツヤマ","prefecture_code":28},"4211":{"zip_code":"6794211","prefecture":"兵庫県","prefecture_kana":"ヒョウゴケン","city":"姫路市","city_kana":"ヒメジシ","town":"林田町六九谷","town_kana":"ハヤシダチョウムクダニ","prefecture_code":28},"4215":{"zip_code":"6794215","prefecture":"兵庫県","prefecture_kana":"ヒョウゴケン","city":"姫路市","city_kana":"ヒメジシ","town":"林田町八幡","town_kana":"ハヤシダチョウヤハタ","prefecture_code":28},"4213":{"zip_code":"6794213","prefecture":"兵庫県","prefecture_kana":"ヒョウゴケン","city":"姫路市","city_kana":"ヒメジシ","town":"林田町山田","town_kana":"ハヤシダチョウヤマダ","prefecture_code":28},"2101":{"zip_code":"6792101","prefecture":"兵庫県","prefecture_kana":"ヒョウゴケン","city":"姫路市","city_kana":"ヒメジシ","town":"船津町","town_kana":"フナツチョウ","prefecture_code":28},"2111":{"zip_code":"6792111","prefecture":"兵庫県","prefecture_kana":"ヒョウゴケン","city":"姫路市","city_kana":"ヒメジシ","town":"山田町多田","town_kana":"ヤマダチョウタダ","prefecture_code":28},"2114":{"zip_code":"6792114","prefecture":"兵庫県","prefecture_kana":"ヒョウゴケン","city":"姫路市","city_kana":"ヒメジシ","town":"山田町牧野","town_kana":"ヤマダチョウマキノ","prefecture_code":28},"2115":{"zip_code":"6792115","prefecture":"兵庫県","prefecture_kana":"ヒョウゴケン","city":"姫路市","city_kana":"ヒメジシ","town":"山田町西山田","town_kana":"ヤマダチョウニシヤマダ","prefecture_code":28},"2113":{"zip_code":"6792113","prefecture":"兵庫県","prefecture_kana":"ヒョウゴケン","city":"姫路市","city_kana":"ヒメジシ","town":"山田町南山田","town_kana":"ヤマダチョウミナミヤマダ","prefecture_code":28},"2112":{"zip_code":"6792112","prefecture":"兵庫県","prefecture_kana":"ヒョウゴケン","city":"姫路市","city_kana":"ヒメジシ","town":"山田町北山田","town_kana":"ヤマダチョウキタヤマダ","prefecture_code":28},"0322":{"zip_code":"6790322","prefecture":"兵庫県","prefecture_kana":"ヒョウゴケン","city":"西脇市","city_kana":"ニシワキシ","town":"黒田庄町石原","town_kana":"クロダショウチョウイシハラ","prefecture_code":28},"0324":{"zip_code":"6790324","prefecture":"兵庫県","prefecture_kana":"ヒョウゴケン","city":"西脇市","city_kana":"ニシワキシ","town":"黒田庄町大伏","town_kana":"クロダショウチョウオオフシ","prefecture_code":28},"0313":{"zip_code":"6790313","prefecture":"兵庫県","prefecture_kana":"ヒョウゴケン","city":"西脇市","city_kana":"ニシワキシ","town":"黒田庄町岡","town_kana":"クロダショウチョウオカ","prefecture_code":28},"0311":{"zip_code":"6790311","prefecture":"兵庫県","prefecture_kana":"ヒョウゴケン","city":"西脇市","city_kana":"ニシワキシ","town":"黒田庄町喜多","town_kana":"クロダショウチョウキタ","prefecture_code":28},"0302":{"zip_code":"6790302","prefecture":"兵庫県","prefecture_kana":"ヒョウゴケン","city":"西脇市","city_kana":"ニシワキシ","town":"黒田庄町黒田","town_kana":"クロダショウチョウクロダ","prefecture_code":28},"0301":{"zip_code":"6790301","prefecture":"兵庫県","prefecture_kana":"ヒョウゴケン","city":"西脇市","city_kana":"ニシワキシ","town":"黒田庄町小苗","town_kana":"クロダショウチョウコナエ","prefecture_code":28},"0316":{"zip_code":"6790316","prefecture":"兵庫県","prefecture_kana":"ヒョウゴケン","city":"西脇市","city_kana":"ニシワキシ","town":"黒田庄町大門","town_kana":"クロダショウチョウダイモン","prefecture_code":28},"0321":{"zip_code":"6790321","prefecture":"兵庫県","prefecture_kana":"ヒョウゴケン","city":"西脇市","city_kana":"ニシワキシ","town":"黒田庄町田高","town_kana":"クロダショウチョウタコウ","prefecture_code":28},"0315":{"zip_code":"6790315","prefecture":"兵庫県","prefecture_kana":"ヒョウゴケン","city":"西脇市","city_kana":"ニシワキシ","town":"黒田庄町津万井","town_kana":"クロダショウチョウツマイ","prefecture_code":28},"0323":{"zip_code":"6790323","prefecture":"兵庫県","prefecture_kana":"ヒョウゴケン","city":"西脇市","city_kana":"ニシワキシ","town":"黒田庄町西澤","town_kana":"クロダショウチョウニシザワ","prefecture_code":28},"0314":{"zip_code":"6790314","prefecture":"兵庫県","prefecture_kana":"ヒョウゴケン","city":"西脇市","city_kana":"ニシワキシ","town":"黒田庄町福地","town_kana":"クロダショウチョウフクジ","prefecture_code":28},"0304":{"zip_code":"6790304","prefecture":"兵庫県","prefecture_kana":"ヒョウゴケン","city":"西脇市","city_kana":"ニシワキシ","town":"黒田庄町船町","town_kana":"クロダショウチョウフナマチ","prefecture_code":28},"0303":{"zip_code":"6790303","prefecture":"兵庫県","prefecture_kana":"ヒョウゴケン","city":"西脇市","city_kana":"ニシワキシ","town":"黒田庄町前坂","town_kana":"クロダショウチョウマエサカ","prefecture_code":28},"0312":{"zip_code":"6790312","prefecture":"兵庫県","prefecture_kana":"ヒョウゴケン","city":"西脇市","city_kana":"ニシワキシ","town":"黒田庄町門柳","town_kana":"クロダショウチョウモンリュウ","prefecture_code":28},"0102":{"zip_code":"6790102","prefecture":"兵庫県","prefecture_kana":"ヒョウゴケン","city":"加西市","city_kana":"カサイシ","town":"青野原町","town_kana":"アオノハラチョウ","prefecture_code":28},"0105":{"zip_code":"6790105","prefecture":"兵庫県","prefecture_kana":"ヒョウゴケン","city":"加西市","city_kana":"カサイシ","town":"朝妻町","town_kana":"アサヅマチョウ","prefecture_code":28},"0109":{"zip_code":"6790109","prefecture":"兵庫県","prefecture_kana":"ヒョウゴケン","city":"加西市","city_kana":"カサイシ","town":"玉丘町","town_kana":"タマオカチョウ","prefecture_code":28},"0107":{"zip_code":"6790107","prefecture":"兵庫県","prefecture_kana":"ヒョウゴケン","city":"加西市","city_kana":"カサイシ","town":"玉野町","town_kana":"タマノチョウ","prefecture_code":28},"0101":{"zip_code":"6790101","prefecture":"兵庫県","prefecture_kana":"ヒョウゴケン","city":"加西市","city_kana":"カサイシ","town":"都染町","town_kana":"ツソメチョウ","prefecture_code":28},"0104":{"zip_code":"6790104","prefecture":"兵庫県","prefecture_kana":"ヒョウゴケン","city":"加西市","city_kana":"カサイシ","town":"常吉町","town_kana":"ツネヨシチョウ","prefecture_code":28},"0106":{"zip_code":"6790106","prefecture":"兵庫県","prefecture_kana":"ヒョウゴケン","city":"加西市","city_kana":"カサイシ","town":"豊倉町","town_kana":"トヨクラチョウ","prefecture_code":28},"0103":{"zip_code":"6790103","prefecture":"兵庫県","prefecture_kana":"ヒョウゴケン","city":"加西市","city_kana":"カサイシ","town":"別府町","town_kana":"ベフチョウ","prefecture_code":28},"0108":{"zip_code":"6790108","prefecture":"兵庫県","prefecture_kana":"ヒョウゴケン","city":"加西市","city_kana":"カサイシ","town":"山枝町","town_kana":"ヤマエダチョウ","prefecture_code":28},"3325":{"zip_code":"6793325","prefecture":"兵庫県","prefecture_kana":"ヒョウゴケン","city":"朝来市","city_kana":"アサゴシ","town":"生野町猪野々","town_kana":"イクノチョウイノノ","prefecture_code":28},"3322":{"zip_code":"6793322","prefecture":"兵庫県","prefecture_kana":"ヒョウゴケン","city":"朝来市","city_kana":"アサゴシ","town":"生野町奥銀谷","town_kana":"イクノチョウオクガナヤ","prefecture_code":28},"3332":{"zip_code":"6793332","prefecture":"兵庫県","prefecture_kana":"ヒョウゴケン","city":"朝来市","city_kana":"アサゴシ","town":"生野町川尻","town_kana":"イクノチョウカワシリ","prefecture_code":28},"3301":{"zip_code":"6793301","prefecture":"兵庫県","prefecture_kana":"ヒョウゴケン","city":"朝来市","city_kana":"アサゴシ","town":"生野町口銀谷","town_kana":"イクノチョウクチガナヤ","prefecture_code":28},"3341":{"zip_code":"6793341","prefecture":"兵庫県","prefecture_kana":"ヒョウゴケン","city":"朝来市","city_kana":"アサゴシ","town":"生野町黒川","town_kana":"イクノチョウクロカワ","prefecture_code":28},"3324":{"zip_code":"6793324","prefecture":"兵庫県","prefecture_kana":"ヒョウゴケン","city":"朝来市","city_kana":"アサゴシ","town":"生野町小野","town_kana":"イクノチョウコノ","prefecture_code":28},"3326":{"zip_code":"6793326","prefecture":"兵庫県","prefecture_kana":"ヒョウゴケン","city":"朝来市","city_kana":"アサゴシ","town":"生野町白口","town_kana":"イクノチョウシラクチ","prefecture_code":28},"3321":{"zip_code":"6793321","prefecture":"兵庫県","prefecture_kana":"ヒョウゴケン","city":"朝来市","city_kana":"アサゴシ","town":"生野町新町","town_kana":"イクノチョウシンマチ","prefecture_code":28},"3323":{"zip_code":"6793323","prefecture":"兵庫県","prefecture_kana":"ヒョウゴケン","city":"朝来市","city_kana":"アサゴシ","town":"生野町竹原野","town_kana":"イクノチョウタケハラノ","prefecture_code":28},"3331":{"zip_code":"6793331","prefecture":"兵庫県","prefecture_kana":"ヒョウゴケン","city":"朝来市","city_kana":"アサゴシ","town":"生野町栃原","town_kana":"イクノチョウトチハラ","prefecture_code":28},"3311":{"zip_code":"6793311","prefecture":"兵庫県","prefecture_kana":"ヒョウゴケン","city":"朝来市","city_kana":"アサゴシ","town":"生野町真弓","town_kana":"イクノチョウマユミ","prefecture_code":28},"3302":{"zip_code":"6793302","prefecture":"兵庫県","prefecture_kana":"ヒョウゴケン","city":"朝来市","city_kana":"アサゴシ","town":"生野町円山","town_kana":"イクノチョウマルヤマ","prefecture_code":28},"3422":{"zip_code":"6793422","prefecture":"兵庫県","prefecture_kana":"ヒョウゴケン","city":"朝来市","city_kana":"アサゴシ","town":"石田","town_kana":"イシダ","prefecture_code":28},"3421":{"zip_code":"6793421","prefecture":"兵庫県","prefecture_kana":"ヒョウゴケン","city":"朝来市","city_kana":"アサゴシ","town":"伊由市場","town_kana":"イユウイチバ","prefecture_code":28},"3433":{"zip_code":"6793433","prefecture":"兵庫県","prefecture_kana":"ヒョウゴケン","city":"朝来市","city_kana":"アサゴシ","town":"岩津","town_kana":"イワツ","prefecture_code":28},"3451":{"zip_code":"6793451","prefecture":"兵庫県","prefecture_kana":"ヒョウゴケン","city":"朝来市","city_kana":"アサゴシ","town":"上八代","town_kana":"カミヤシロ","prefecture_code":28},"3414":{"zip_code":"6793414","prefecture":"兵庫県","prefecture_kana":"ヒョウゴケン","city":"朝来市","city_kana":"アサゴシ","town":"川上","town_kana":"カワカミ","prefecture_code":28},"3402":{"zip_code":"6793402","prefecture":"兵庫県","prefecture_kana":"ヒョウゴケン","city":"朝来市","city_kana":"アサゴシ","town":"桑市","town_kana":"クワイチ","prefecture_code":28},"3453":{"zip_code":"6793453","prefecture":"兵庫県","prefecture_kana":"ヒョウゴケン","city":"朝来市","city_kana":"アサゴシ","town":"佐嚢","town_kana":"サノウ","prefecture_code":28},"3411":{"zip_code":"6793411","prefecture":"兵庫県","prefecture_kana":"ヒョウゴケン","city":"朝来市","city_kana":"アサゴシ","town":"沢","town_kana":"サワ","prefecture_code":28},"3423":{"zip_code":"6793423","prefecture":"兵庫県","prefecture_kana":"ヒョウゴケン","city":"朝来市","city_kana":"アサゴシ","town":"多々良木","town_kana":"タタラギ","prefecture_code":28},"3403":{"zip_code":"6793403","prefecture":"兵庫県","prefecture_kana":"ヒョウゴケン","city":"朝来市","city_kana":"アサゴシ","town":"立脇","town_kana":"タチワキ","prefecture_code":28},"3424":{"zip_code":"6793424","prefecture":"兵庫県","prefecture_kana":"ヒョウゴケン","city":"朝来市","city_kana":"アサゴシ","town":"立野","town_kana":"タテノ","prefecture_code":28},"3442":{"zip_code":"6793442","prefecture":"兵庫県","prefecture_kana":"ヒョウゴケン","city":"朝来市","city_kana":"アサゴシ","town":"田路","town_kana":"トウジ","prefecture_code":28},"3431":{"zip_code":"6793431","prefecture":"兵庫県","prefecture_kana":"ヒョウゴケン","city":"朝来市","city_kana":"アサゴシ","town":"新井","town_kana":"ニイ","prefecture_code":28},"3413":{"zip_code":"6793413","prefecture":"兵庫県","prefecture_kana":"ヒョウゴケン","city":"朝来市","city_kana":"アサゴシ","town":"納座","town_kana":"ノウザ","prefecture_code":28},"3441":{"zip_code":"6793441","prefecture":"兵庫県","prefecture_kana":"ヒョウゴケン","city":"朝来市","city_kana":"アサゴシ","town":"羽渕","town_kana":"ハブチ","prefecture_code":28},"3401":{"zip_code":"6793401","prefecture":"兵庫県","prefecture_kana":"ヒョウゴケン","city":"朝来市","city_kana":"アサゴシ","town":"物部","town_kana":"モノノベ","prefecture_code":28},"3452":{"zip_code":"6793452","prefecture":"兵庫県","prefecture_kana":"ヒョウゴケン","city":"朝来市","city_kana":"アサゴシ","town":"八代","town_kana":"ヤシロ","prefecture_code":28},"3412":{"zip_code":"6793412","prefecture":"兵庫県","prefecture_kana":"ヒョウゴケン","city":"朝来市","city_kana":"アサゴシ","town":"山内","town_kana":"ヤマウチ","prefecture_code":28},"3432":{"zip_code":"6793432","prefecture":"兵庫県","prefecture_kana":"ヒョウゴケン","city":"朝来市","city_kana":"アサゴシ","town":"山口","town_kana":"ヤマグチ","prefecture_code":28},"0203":{"zip_code":"6790203","prefecture":"兵庫県","prefecture_kana":"ヒョウゴケン","city":"加東市","city_kana":"カトウシ","town":"稲尾","town_kana":"イナオ","prefecture_code":28},"0202":{"zip_code":"6790202","prefecture":"兵庫県","prefecture_kana":"ヒョウゴケン","city":"加東市","city_kana":"カトウシ","town":"多井田","town_kana":"オイダ","prefecture_code":28},"0211":{"zip_code":"6790211","prefecture":"兵庫県","prefecture_kana":"ヒョウゴケン","city":"加東市","city_kana":"カトウシ","town":"上滝野","town_kana":"カミタキノ","prefecture_code":28},"0205":{"zip_code":"6790205","prefecture":"兵庫県","prefecture_kana":"ヒョウゴケン","city":"加東市","city_kana":"カトウシ","town":"北野","town_kana":"キタノ","prefecture_code":28},"0221":{"zip_code":"6790221","prefecture":"兵庫県","prefecture_kana":"ヒョウゴケン","city":"加東市","city_kana":"カトウシ","town":"河高","town_kana":"コウタカ","prefecture_code":28},"0213":{"zip_code":"6790213","prefecture":"兵庫県","prefecture_kana":"ヒョウゴケン","city":"加東市","city_kana":"カトウシ","town":"光明寺","town_kana":"コウミョウジ","prefecture_code":28},"0223":{"zip_code":"6790223","prefecture":"兵庫県","prefecture_kana":"ヒョウゴケン","city":"加東市","city_kana":"カトウシ","town":"桜台","town_kana":"サクラダイ","prefecture_code":28},"0212":{"zip_code":"6790212","prefecture":"兵庫県","prefecture_kana":"ヒョウゴケン","city":"加東市","city_kana":"カトウシ","town":"下滝野","town_kana":"シモタキノ","prefecture_code":28},"0204":{"zip_code":"6790204","prefecture":"兵庫県","prefecture_kana":"ヒョウゴケン","city":"加東市","city_kana":"カトウシ","town":"新町","town_kana":"シンマチ","prefecture_code":28},"0201":{"zip_code":"6790201","prefecture":"兵庫県","prefecture_kana":"ヒョウゴケン","city":"加東市","city_kana":"カトウシ","town":"曽我","town_kana":"ソガ","prefecture_code":28},"0222":{"zip_code":"6790222","prefecture":"兵庫県","prefecture_kana":"ヒョウゴケン","city":"加東市","city_kana":"カトウシ","town":"高岡","town_kana":"タカオカ","prefecture_code":28},"0207":{"zip_code":"6790207","prefecture":"兵庫県","prefecture_kana":"ヒョウゴケン","city":"加東市","city_kana":"カトウシ","town":"滝野団地","town_kana":"タキノダンチ","prefecture_code":28},"0206":{"zip_code":"6790206","prefecture":"兵庫県","prefecture_kana":"ヒョウゴケン","city":"加東市","city_kana":"カトウシ","town":"穂積","town_kana":"ホヅミ","prefecture_code":28},"4100":{"zip_code":"6794100","prefecture":"兵庫県","prefecture_kana":"ヒョウゴケン","city":"たつの市","city_kana":"タツノシ","town":"以下に掲載がない場合","town_kana":"イカニケイサイガナイバアイ","prefecture_code":28},"4008":{"zip_code":"6794008","prefecture":"兵庫県","prefecture_kana":"ヒョウゴケン","city":"たつの市","city_kana":"タツノシ","town":"揖西町芦原台","town_kana":"イッサイチョウアシハラダイ","prefecture_code":28},"4003":{"zip_code":"6794003","prefecture":"兵庫県","prefecture_kana":"ヒョウゴケン","city":"たつの市","city_kana":"タツノシ","town":"揖西町小神","town_kana":"イッサイチョウオガミ","prefecture_code":28},"4024":{"zip_code":"6794024","prefecture":"兵庫県","prefecture_kana":"ヒョウゴケン","city":"たつの市","city_kana":"タツノシ","town":"揖西町尾崎","town_kana":"イッサイチョウオサキ","prefecture_code":28},"4025":{"zip_code":"6794025","prefecture":"兵庫県","prefecture_kana":"ヒョウゴケン","city":"たつの市","city_kana":"タツノシ","town":"揖西町小畑","town_kana":"イッサイチョウオバタケ","prefecture_code":28},"4007":{"zip_code":"6794007","prefecture":"兵庫県","prefecture_kana":"ヒョウゴケン","city":"たつの市","city_kana":"タツノシ","town":"揖西町構","town_kana":"イッサイチョウカマエ","prefecture_code":28},"4022":{"zip_code":"6794022","prefecture":"兵庫県","prefecture_kana":"ヒョウゴケン","city":"たつの市","city_kana":"タツノシ","town":"揖西町北沢","town_kana":"イッサイチョウキタサワ","prefecture_code":28},"4013":{"zip_code":"6794013","prefecture":"兵庫県","prefecture_kana":"ヒョウゴケン","city":"たつの市","city_kana":"タツノシ","town":"揖西町北山","town_kana":"イッサイチョウキタヤマ","prefecture_code":28},"4021":{"zip_code":"6794021","prefecture":"兵庫県","prefecture_kana":"ヒョウゴケン","city":"たつの市","city_kana":"タツノシ","town":"揖西町小犬丸","town_kana":"イッサイチョウコイヌマル","prefecture_code":28},"4011":{"zip_code":"6794011","prefecture":"兵庫県","prefecture_kana":"ヒョウゴケン","city":"たつの市","city_kana":"タツノシ","town":"揖西町佐江","town_kana":"イッサイチョウサエ","prefecture_code":28},"4005":{"zip_code":"6794005","prefecture":"兵庫県","prefecture_kana":"ヒョウゴケン","city":"たつの市","city_kana":"タツノシ","town":"揖西町清水","town_kana":"イッサイチョウシミズ","prefecture_code":28},"4004":{"zip_code":"6794004","prefecture":"兵庫県","prefecture_kana":"ヒョウゴケン","city":"たつの市","city_kana":"タツノシ","town":"揖西町清水新","town_kana":"イッサイチョウシミズシン","prefecture_code":28},"4001":{"zip_code":"6794001","prefecture":"兵庫県","prefecture_kana":"ヒョウゴケン","city":"たつの市","city_kana":"タツノシ","town":"揖西町新宮","town_kana":"イッサイチョウシングウ","prefecture_code":28},"4023":{"zip_code":"6794023","prefecture":"兵庫県","prefecture_kana":"ヒョウゴケン","city":"たつの市","city_kana":"タツノシ","town":"揖西町住吉","town_kana":"イッサイチョウスミヨシ","prefecture_code":28},"4006":{"zip_code":"6794006","prefecture":"兵庫県","prefecture_kana":"ヒョウゴケン","city":"たつの市","city_kana":"タツノシ","town":"揖西町田井","town_kana":"イッサイチョウタイ","prefecture_code":28},"4026":{"zip_code":"6794026","prefecture":"兵庫県","prefecture_kana":"ヒョウゴケン","city":"たつの市","city_kana":"タツノシ","town":"揖西町竹原","town_kana":"イッサイチョウタケハラ","prefecture_code":28},"4014":{"zip_code":"6794014","prefecture":"兵庫県","prefecture_kana":"ヒョウゴケン","city":"たつの市","city_kana":"タツノシ","town":"揖西町竹万","town_kana":"イッサイチョウチクマ","prefecture_code":28},"4027":{"zip_code":"6794027","prefecture":"兵庫県","prefecture_kana":"ヒョウゴケン","city":"たつの市","city_kana":"タツノシ","town":"揖西町長尾","town_kana":"イッサイチョウナガオ","prefecture_code":28},"4002":{"zip_code":"6794002","prefecture":"兵庫県","prefecture_kana":"ヒョウゴケン","city":"たつの市","city_kana":"タツノシ","town":"揖西町中垣内","town_kana":"イッサイチョウナカガイチ","prefecture_code":28},"4017":{"zip_code":"6794017","prefecture":"兵庫県","prefecture_kana":"ヒョウゴケン","city":"たつの市","city_kana":"タツノシ","town":"揖西町土師","town_kana":"イッサイチョウハゼ","prefecture_code":28},"4012":{"zip_code":"6794012","prefecture":"兵庫県","prefecture_kana":"ヒョウゴケン","city":"たつの市","city_kana":"タツノシ","town":"揖西町前地","town_kana":"イッサイチョウマエジ","prefecture_code":28},"4016":{"zip_code":"6794016","prefecture":"兵庫県","prefecture_kana":"ヒョウゴケン","city":"たつの市","city_kana":"タツノシ","town":"揖西町南山","town_kana":"イッサイチョウミナミヤマ","prefecture_code":28},"4015":{"zip_code":"6794015","prefecture":"兵庫県","prefecture_kana":"ヒョウゴケン","city":"たつの市","city_kana":"タツノシ","town":"揖西町龍子","town_kana":"イッサイチョウリュウコ","prefecture_code":28},"4156":{"zip_code":"6794156","prefecture":"兵庫県","prefecture_kana":"ヒョウゴケン","city":"たつの市","city_kana":"タツノシ","town":"揖保町揖保上","town_kana":"イボチョウイボカミ","prefecture_code":28},"4155":{"zip_code":"6794155","prefecture":"兵庫県","prefecture_kana":"ヒョウゴケン","city":"たつの市","city_kana":"タツノシ","town":"揖保町揖保中","town_kana":"イボチョウイボナカ","prefecture_code":28},"4146":{"zip_code":"6794146","prefecture":"兵庫県","prefecture_kana":"ヒョウゴケン","city":"たつの市","city_kana":"タツノシ","town":"揖保町今市","town_kana":"イボチョウイマイチ","prefecture_code":28},"4141":{"zip_code":"6794141","prefecture":"兵庫県","prefecture_kana":"ヒョウゴケン","city":"たつの市","city_kana":"タツノシ","town":"揖保町栄","town_kana":"イボチョウサカエ","prefecture_code":28},"4143":{"zip_code":"6794143","prefecture":"兵庫県","prefecture_kana":"ヒョウゴケン","city":"たつの市","city_kana":"タツノシ","town":"揖保町東用","town_kana":"イボチョウトウヨウ","prefecture_code":28},"4152":{"zip_code":"6794152","prefecture":"兵庫県","prefecture_kana":"ヒョウゴケン","city":"たつの市","city_kana":"タツノシ","town":"揖保町中臣","town_kana":"イボチョウナカジン","prefecture_code":28},"4154":{"zip_code":"6794154","prefecture":"兵庫県","prefecture_kana":"ヒョウゴケン","city":"たつの市","city_kana":"タツノシ","town":"揖保町西構","town_kana":"イボチョウニシガマエ","prefecture_code":28},"4145":{"zip_code":"6794145","prefecture":"兵庫県","prefecture_kana":"ヒョウゴケン","city":"たつの市","city_kana":"タツノシ","town":"揖保町萩原","town_kana":"イボチョウハイバラ","prefecture_code":28},"4144":{"zip_code":"6794144","prefecture":"兵庫県","prefecture_kana":"ヒョウゴケン","city":"たつの市","city_kana":"タツノシ","town":"揖保町真砂","town_kana":"イボチョウマサゴ","prefecture_code":28},"4142":{"zip_code":"6794142","prefecture":"兵庫県","prefecture_kana":"ヒョウゴケン","city":"たつの市","city_kana":"タツノシ","town":"揖保町松原","town_kana":"イボチョウマツバラ","prefecture_code":28},"4153":{"zip_code":"6794153","prefecture":"兵庫県","prefecture_kana":"ヒョウゴケン","city":"たつの市","city_kana":"タツノシ","town":"揖保町門前","town_kana":"イボチョウモンゼン","prefecture_code":28},"4151":{"zip_code":"6794151","prefecture":"兵庫県","prefecture_kana":"ヒョウゴケン","city":"たつの市","city_kana":"タツノシ","town":"揖保町山下","town_kana":"イボチョウヤマシタ","prefecture_code":28},"4115":{"zip_code":"6794115","prefecture":"兵庫県","prefecture_kana":"ヒョウゴケン","city":"たつの市","city_kana":"タツノシ","town":"神岡町入野","town_kana":"カミオカチョウイリノ","prefecture_code":28},"4112":{"zip_code":"6794112","prefecture":"兵庫県","prefecture_kana":"ヒョウゴケン","city":"たつの市","city_kana":"タツノシ","town":"神岡町追分","town_kana":"カミオカチョウオイワケ","prefecture_code":28},"4101":{"zip_code":"6794101","prefecture":"兵庫県","prefecture_kana":"ヒョウゴケン","city":"たつの市","city_kana":"タツノシ","town":"神岡町奥村","town_kana":"カミオカチョウオクムラ","prefecture_code":28},"4103":{"zip_code":"6794103","prefecture":"兵庫県","prefecture_kana":"ヒョウゴケン","city":"たつの市","city_kana":"タツノシ","town":"神岡町上横内","town_kana":"カミオカチョウカミヨコウチ","prefecture_code":28},"4102":{"zip_code":"6794102","prefecture":"兵庫県","prefecture_kana":"ヒョウゴケン","city":"たつの市","city_kana":"タツノシ","town":"神岡町北横内","town_kana":"カミオカチョウキタヨコウチ","prefecture_code":28},"4116":{"zip_code":"6794116","prefecture":"兵庫県","prefecture_kana":"ヒョウゴケン","city":"たつの市","city_kana":"タツノシ","town":"神岡町沢田","town_kana":"カミオカチョウサワダ","prefecture_code":28},"4108":{"zip_code":"6794108","prefecture":"兵庫県","prefecture_kana":"ヒョウゴケン","city":"たつの市","city_kana":"タツノシ","town":"神岡町大住寺","town_kana":"カミオカチョウダイジュウジ","prefecture_code":28},"4113":{"zip_code":"6794113","prefecture":"兵庫県","prefecture_kana":"ヒョウゴケン","city":"たつの市","city_kana":"タツノシ","town":"神岡町田中","town_kana":"カミオカチョウタナカ","prefecture_code":28},"4104":{"zip_code":"6794104","prefecture":"兵庫県","prefecture_kana":"ヒョウゴケン","city":"たつの市","city_kana":"タツノシ","town":"神岡町筒井","town_kana":"カミオカチョウツツイ","prefecture_code":28},"4105":{"zip_code":"6794105","prefecture":"兵庫県","prefecture_kana":"ヒョウゴケン","city":"たつの市","city_kana":"タツノシ","town":"神岡町西鳥井","town_kana":"カミオカチョウニシトリイ","prefecture_code":28},"4107":{"zip_code":"6794107","prefecture":"兵庫県","prefecture_kana":"ヒョウゴケン","city":"たつの市","city_kana":"タツノシ","town":"神岡町西横内","town_kana":"カミオカチョウニシヨコウチ","prefecture_code":28},"4111":{"zip_code":"6794111","prefecture":"兵庫県","prefecture_kana":"ヒョウゴケン","city":"たつの市","city_kana":"タツノシ","town":"神岡町野部","town_kana":"カミオカチョウノベ","prefecture_code":28},"4109":{"zip_code":"6794109","prefecture":"兵庫県","prefecture_kana":"ヒョウゴケン","city":"たつの市","city_kana":"タツノシ","town":"神岡町東觜崎","town_kana":"カミオカチョウヒガシハシサキ","prefecture_code":28},"4106":{"zip_code":"6794106","prefecture":"兵庫県","prefecture_kana":"ヒョウゴケン","city":"たつの市","city_kana":"タツノシ","town":"神岡町横内","town_kana":"カミオカチョウヨコウチ","prefecture_code":28},"4114":{"zip_code":"6794114","prefecture":"兵庫県","prefecture_kana":"ヒョウゴケン","city":"たつの市","city_kana":"タツノシ","town":"神岡町寄井","town_kana":"カミオカチョウヨリイ","prefecture_code":28},"4331":{"zip_code":"6794331","prefecture":"兵庫県","prefecture_kana":"ヒョウゴケン","city":"たつの市","city_kana":"タツノシ","town":"新宮町市野保","town_kana":"シングウチョウイチノホ","prefecture_code":28},"4315":{"zip_code":"6794315","prefecture":"兵庫県","prefecture_kana":"ヒョウゴケン","city":"たつの市","city_kana":"タツノシ","town":"新宮町井野原","town_kana":"シングウチョウイノハラ","prefecture_code":28},"4332":{"zip_code":"6794332","prefecture":"兵庫県","prefecture_kana":"ヒョウゴケン","city":"たつの市","city_kana":"タツノシ","town":"新宮町馬立","town_kana":"シングウチョウウマタテ","prefecture_code":28},"4343":{"zip_code":"6794343","prefecture":"兵庫県","prefecture_kana":"ヒョウゴケン","city":"たつの市","city_kana":"タツノシ","town":"新宮町大屋","town_kana":"シングウチョウオオヤ","prefecture_code":28},"5151":{"zip_code":"6795151","prefecture":"兵庫県","prefecture_kana":"ヒョウゴケン","city":"たつの市","city_kana":"タツノシ","town":"新宮町奥小屋","town_kana":"シングウチョウオクゴヤ","prefecture_code":28},"5154":{"zip_code":"6795154","prefecture":"兵庫県","prefecture_kana":"ヒョウゴケン","city":"たつの市","city_kana":"タツノシ","town":"新宮町鍛冶屋","town_kana":"シングウチョウカジヤ","prefecture_code":28},"5162":{"zip_code":"6795162","prefecture":"兵庫県","prefecture_kana":"ヒョウゴケン","city":"たつの市","city_kana":"タツノシ","town":"新宮町上莇原","town_kana":"シングウチョウカミアザワラ","prefecture_code":28},"4303":{"zip_code":"6794303","prefecture":"兵庫県","prefecture_kana":"ヒョウゴケン","city":"たつの市","city_kana":"タツノシ","town":"新宮町上笹","town_kana":"シングウチョウカミササ","prefecture_code":28},"4323":{"zip_code":"6794323","prefecture":"兵庫県","prefecture_kana":"ヒョウゴケン","city":"たつの市","city_kana":"タツノシ","town":"新宮町北村","town_kana":"シングウチョウキタムラ","prefecture_code":28},"5155":{"zip_code":"6795155","prefecture":"兵庫県","prefecture_kana":"ヒョウゴケン","city":"たつの市","city_kana":"タツノシ","town":"新宮町栗町","town_kana":"シングウチョウクリマチ","prefecture_code":28},"5165":{"zip_code":"6795165","prefecture":"兵庫県","prefecture_kana":"ヒョウゴケン","city":"たつの市","city_kana":"タツノシ","town":"新宮町光都","town_kana":"シングウチョウコウト","prefecture_code":28},"4302":{"zip_code":"6794302","prefecture":"兵庫県","prefecture_kana":"ヒョウゴケン","city":"たつの市","city_kana":"タツノシ","town":"新宮町香山","town_kana":"シングウチョウコウヤマ","prefecture_code":28},"4316":{"zip_code":"6794316","prefecture":"兵庫県","prefecture_kana":"ヒョウゴケン","city":"たつの市","city_kana":"タツノシ","town":"新宮町芝田","town_kana":"シングウチョウコゲタ","prefecture_code":28},"4325":{"zip_code":"6794325","prefecture":"兵庫県","prefecture_kana":"ヒョウゴケン","city":"たつの市","city_kana":"タツノシ","town":"新宮町佐野","town_kana":"シングウチョウサノ","prefecture_code":28},"4301":{"zip_code":"6794301","prefecture":"兵庫県","prefecture_kana":"ヒョウゴケン","city":"たつの市","city_kana":"タツノシ","town":"新宮町篠首","town_kana":"シングウチョウシノクビ","prefecture_code":28},"5161":{"zip_code":"6795161","prefecture":"兵庫県","prefecture_kana":"ヒョウゴケン","city":"たつの市","city_kana":"タツノシ","town":"新宮町下莇原","town_kana":"シングウチョウシモアザワラ","prefecture_code":28},"4304":{"zip_code":"6794304","prefecture":"兵庫県","prefecture_kana":"ヒョウゴケン","city":"たつの市","city_kana":"タツノシ","town":"新宮町下笹","town_kana":"シングウチョウシモササ","prefecture_code":28},"4312":{"zip_code":"6794312","prefecture":"兵庫県","prefecture_kana":"ヒョウゴケン","city":"たつの市","city_kana":"タツノシ","town":"新宮町下野","town_kana":"シングウチョウシモノ","prefecture_code":28},"4333":{"zip_code":"6794333","prefecture":"兵庫県","prefecture_kana":"ヒョウゴケン","city":"たつの市","city_kana":"タツノシ","town":"新宮町下野田","town_kana":"シングウチョウシモノダ","prefecture_code":28},"4313":{"zip_code":"6794313","prefecture":"兵庫県","prefecture_kana":"ヒョウゴケン","city":"たつの市","city_kana":"タツノシ","town":"新宮町新宮","town_kana":"シングウチョウシングウ","prefecture_code":28},"4344":{"zip_code":"6794344","prefecture":"兵庫県","prefecture_kana":"ヒョウゴケン","city":"たつの市","city_kana":"タツノシ","town":"新宮町善定","town_kana":"シングウチョウゼンジョ","prefecture_code":28},"4322":{"zip_code":"6794322","prefecture":"兵庫県","prefecture_kana":"ヒョウゴケン","city":"たつの市","city_kana":"タツノシ","town":"新宮町仙正","town_kana":"シングウチョウセンショウ","prefecture_code":28},"4346":{"zip_code":"6794346","prefecture":"兵庫県","prefecture_kana":"ヒョウゴケン","city":"たつの市","city_kana":"タツノシ","town":"新宮町千本","town_kana":"シングウチョウセンボン","prefecture_code":28},"4314":{"zip_code":"6794314","prefecture":"兵庫県","prefecture_kana":"ヒョウゴケン","city":"たつの市","city_kana":"タツノシ","town":"新宮町曽我井","town_kana":"シングウチョウソガイ","prefecture_code":28},"4321":{"zip_code":"6794321","prefecture":"兵庫県","prefecture_kana":"ヒョウゴケン","city":"たつの市","city_kana":"タツノシ","town":"新宮町段之上","town_kana":"シングウチョウダンノウエ","prefecture_code":28},"5163":{"zip_code":"6795163","prefecture":"兵庫県","prefecture_kana":"ヒョウゴケン","city":"たつの市","city_kana":"タツノシ","town":"新宮町角亀","town_kana":"シングウチョウツノガメ","prefecture_code":28},"5153":{"zip_code":"6795153","prefecture":"兵庫県","prefecture_kana":"ヒョウゴケン","city":"たつの市","city_kana":"タツノシ","town":"新宮町時重","town_kana":"シングウチョウトキシゲ","prefecture_code":28},"4327":{"zip_code":"6794327","prefecture":"兵庫県","prefecture_kana":"ヒョウゴケン","city":"たつの市","city_kana":"タツノシ","town":"新宮町中野庄","town_kana":"シングウチョウナカノショウ","prefecture_code":28},"4341":{"zip_code":"6794341","prefecture":"兵庫県","prefecture_kana":"ヒョウゴケン","city":"たつの市","city_kana":"タツノシ","town":"新宮町能地","town_kana":"シングウチョウノウジ","prefecture_code":28},"4324":{"zip_code":"6794324","prefecture":"兵庫県","prefecture_kana":"ヒョウゴケン","city":"たつの市","city_kana":"タツノシ","town":"新宮町觜崎","town_kana":"シングウチョウハシサキ","prefecture_code":28},"4342":{"zip_code":"6794342","prefecture":"兵庫県","prefecture_kana":"ヒョウゴケン","city":"たつの市","city_kana":"タツノシ","town":"新宮町平野","town_kana":"シングウチョウヒラノ","prefecture_code":28},"4345":{"zip_code":"6794345","prefecture":"兵庫県","prefecture_kana":"ヒョウゴケン","city":"たつの市","city_kana":"タツノシ","town":"新宮町福栖","town_kana":"シングウチョウフクス","prefecture_code":28},"5164":{"zip_code":"6795164","prefecture":"兵庫県","prefecture_kana":"ヒョウゴケン","city":"たつの市","city_kana":"タツノシ","town":"新宮町二柏野","town_kana":"シングウチョウフタツガイノ","prefecture_code":28},"4326":{"zip_code":"6794326","prefecture":"兵庫県","prefecture_kana":"ヒョウゴケン","city":"たつの市","city_kana":"タツノシ","town":"新宮町船渡","town_kana":"シングウチョウフナト","prefecture_code":28},"5152":{"zip_code":"6795152","prefecture":"兵庫県","prefecture_kana":"ヒョウゴケン","city":"たつの市","city_kana":"タツノシ","town":"新宮町牧","town_kana":"シングウチョウマキ","prefecture_code":28},"4311":{"zip_code":"6794311","prefecture":"兵庫県","prefecture_kana":"ヒョウゴケン","city":"たつの市","city_kana":"タツノシ","town":"新宮町宮内","town_kana":"シングウチョウミヤウチ","prefecture_code":28},"4305":{"zip_code":"6794305","prefecture":"兵庫県","prefecture_kana":"ヒョウゴケン","city":"たつの市","city_kana":"タツノシ","town":"新宮町吉島","town_kana":"シングウチョウヨシマ","prefecture_code":28},"4175":{"zip_code":"6794175","prefecture":"兵庫県","prefecture_kana":"ヒョウゴケン","city":"たつの市","city_kana":"タツノシ","town":"龍野町旭町","town_kana":"タツノチョウアサヒマチ","prefecture_code":28},"4178":{"zip_code":"6794178","prefecture":"兵庫県","prefecture_kana":"ヒョウゴケン","city":"たつの市","city_kana":"タツノシ","town":"龍野町大手","town_kana":"タツノチョウオオテ","prefecture_code":28},"4128":{"zip_code":"6794128","prefecture":"兵庫県","prefecture_kana":"ヒョウゴケン","city":"たつの市","city_kana":"タツノシ","town":"龍野町小宅北","town_kana":"タツノチョウオヤケキタ","prefecture_code":28},"4123":{"zip_code":"6794123","prefecture":"兵庫県","prefecture_kana":"ヒョウゴケン","city":"たつの市","city_kana":"タツノシ","town":"龍野町片山","town_kana":"タツノチョウカタヤマ","prefecture_code":28},"4179":{"zip_code":"6794179","prefecture":"兵庫県","prefecture_kana":"ヒョウゴケン","city":"たつの市","city_kana":"タツノシ","town":"龍野町上霞城","town_kana":"タツノチョウカミカジョウ","prefecture_code":28},"4172":{"zip_code":"6794172","prefecture":"兵庫県","prefecture_kana":"ヒョウゴケン","city":"たつの市","city_kana":"タツノシ","town":"龍野町上川原","town_kana":"タツノチョウカミガワラ","prefecture_code":28},"4166":{"zip_code":"6794166","prefecture":"兵庫県","prefecture_kana":"ヒョウゴケン","city":"たつの市","city_kana":"タツノシ","town":"龍野町川原町","town_kana":"タツノチョウカワラチョウ","prefecture_code":28},"4171":{"zip_code":"6794171","prefecture":"兵庫県","prefecture_kana":"ヒョウゴケン","city":"たつの市","city_kana":"タツノシ","town":"龍野町北龍野","town_kana":"タツノチョウキタタツノ","prefecture_code":28},"4121":{"zip_code":"6794121","prefecture":"兵庫県","prefecture_kana":"ヒョウゴケン","city":"たつの市","city_kana":"タツノシ","town":"龍野町島田","town_kana":"タツノチョウシマダ","prefecture_code":28},"4162":{"zip_code":"6794162","prefecture":"兵庫県","prefecture_kana":"ヒョウゴケン","city":"たつの市","city_kana":"タツノシ","town":"龍野町下霞城","town_kana":"タツノチョウシモカジョウ","prefecture_code":28},"4177":{"zip_code":"6794177","prefecture":"兵庫県","prefecture_kana":"ヒョウゴケン","city":"たつの市","city_kana":"タツノシ","town":"龍野町下川原","town_kana":"タツノチョウシモガワラ","prefecture_code":28},"4176":{"zip_code":"6794176","prefecture":"兵庫県","prefecture_kana":"ヒョウゴケン","city":"たつの市","city_kana":"タツノシ","town":"龍野町水神町","town_kana":"タツノチョウスイジンチョウ","prefecture_code":28},"4125":{"zip_code":"6794125","prefecture":"兵庫県","prefecture_kana":"ヒョウゴケン","city":"たつの市","city_kana":"タツノシ","town":"龍野町末政","town_kana":"タツノチョウスエマサ","prefecture_code":28},"4169":{"zip_code":"6794169","prefecture":"兵庫県","prefecture_kana":"ヒョウゴケン","city":"たつの市","city_kana":"タツノシ","town":"龍野町大道","town_kana":"タツノチョウダイドウ","prefecture_code":28},"4164":{"zip_code":"6794164","prefecture":"兵庫県","prefecture_kana":"ヒョウゴケン","city":"たつの市","city_kana":"タツノシ","town":"龍野町立町","town_kana":"タツノチョウタテマチ","prefecture_code":28},"4129":{"zip_code":"6794129","prefecture":"兵庫県","prefecture_kana":"ヒョウゴケン","city":"たつの市","city_kana":"タツノシ","town":"龍野町堂本","town_kana":"タツノチョウドウモト","prefecture_code":28},"4167":{"zip_code":"6794167","prefecture":"兵庫県","prefecture_kana":"ヒョウゴケン","city":"たつの市","city_kana":"タツノシ","town":"龍野町富永","town_kana":"タツノチョウトミナガ","prefecture_code":28},"4124":{"zip_code":"6794124","prefecture":"兵庫県","prefecture_kana":"ヒョウゴケン","city":"たつの市","city_kana":"タツノシ","town":"龍野町中井","town_kana":"タツノチョウナカイ","prefecture_code":28},"4170":{"zip_code":"6794170","prefecture":"兵庫県","prefecture_kana":"ヒョウゴケン","city":"たつの市","city_kana":"タツノシ","town":"龍野町中霞城","town_kana":"タツノチョウナカカジョウ","prefecture_code":28},"4126":{"zip_code":"6794126","prefecture":"兵庫県","prefecture_kana":"ヒョウゴケン","city":"たつの市","city_kana":"タツノシ","town":"龍野町中村","town_kana":"タツノチョウナカムラ","prefecture_code":28},"4122":{"zip_code":"6794122","prefecture":"兵庫県","prefecture_kana":"ヒョウゴケン","city":"たつの市","city_kana":"タツノシ","town":"龍野町日飼","town_kana":"タツノチョウヒガイ","prefecture_code":28},"4161":{"zip_code":"6794161","prefecture":"兵庫県","prefecture_kana":"ヒョウゴケン","city":"たつの市","city_kana":"タツノシ","town":"龍野町日山","town_kana":"タツノチョウヒヤマ","prefecture_code":28},"4163":{"zip_code":"6794163","prefecture":"兵庫県","prefecture_kana":"ヒョウゴケン","city":"たつの市","city_kana":"タツノシ","town":"龍野町福の神","town_kana":"タツノチョウフクノカミ","prefecture_code":28},"4165":{"zip_code":"6794165","prefecture":"兵庫県","prefecture_kana":"ヒョウゴケン","city":"たつの市","city_kana":"タツノシ","town":"龍野町本町","town_kana":"タツノチョウホンマチ","prefecture_code":28},"4127":{"zip_code":"6794127","prefecture":"兵庫県","prefecture_kana":"ヒョウゴケン","city":"たつの市","city_kana":"タツノシ","town":"龍野町宮脇","town_kana":"タツノチョウミヤワキ","prefecture_code":28},"4173":{"zip_code":"6794173","prefecture":"兵庫県","prefecture_kana":"ヒョウゴケン","city":"たつの市","city_kana":"タツノシ","town":"龍野町門の外","town_kana":"タツノチョウモンノソト","prefecture_code":28},"4174":{"zip_code":"6794174","prefecture":"兵庫県","prefecture_kana":"ヒョウゴケン","city":"たつの市","city_kana":"タツノシ","town":"龍野町柳原","town_kana":"タツノチョウヤナギハラ","prefecture_code":28},"4168":{"zip_code":"6794168","prefecture":"兵庫県","prefecture_kana":"ヒョウゴケン","city":"たつの市","city_kana":"タツノシ","town":"龍野町四箇","town_kana":"タツノチョウヨッカ","prefecture_code":28},"4136":{"zip_code":"6794136","prefecture":"兵庫県","prefecture_kana":"ヒョウゴケン","city":"たつの市","city_kana":"タツノシ","town":"誉田町井上","town_kana":"ホンダチョウイノカミ","prefecture_code":28},"4131":{"zip_code":"6794131","prefecture":"兵庫県","prefecture_kana":"ヒョウゴケン","city":"たつの市","city_kana":"タツノシ","town":"誉田町内山","town_kana":"ホンダチョウウチヤマ","prefecture_code":28},"4137":{"zip_code":"6794137","prefecture":"兵庫県","prefecture_kana":"ヒョウゴケン","city":"たつの市","city_kana":"タツノシ","town":"誉田町片吹","town_kana":"ホンダチョウカタブキ","prefecture_code":28},"4139":{"zip_code":"6794139","prefecture":"兵庫県","prefecture_kana":"ヒョウゴケン","city":"たつの市","city_kana":"タツノシ","town":"誉田町上沖","town_kana":"ホンダチョウカミオキ","prefecture_code":28},"4138":{"zip_code":"6794138","prefecture":"兵庫県","prefecture_kana":"ヒョウゴケン","city":"たつの市","city_kana":"タツノシ","town":"誉田町下沖","town_kana":"ホンダチョウシモオキ","prefecture_code":28},"4135":{"zip_code":"6794135","prefecture":"兵庫県","prefecture_kana":"ヒョウゴケン","city":"たつの市","city_kana":"タツノシ","town":"誉田町高駄","town_kana":"ホンダチョウタカダ","prefecture_code":28},"4130":{"zip_code":"6794130","prefecture":"兵庫県","prefecture_kana":"ヒョウゴケン","city":"たつの市","city_kana":"タツノシ","town":"誉田町長真","town_kana":"ホンダチョウナガザネ","prefecture_code":28},"4134":{"zip_code":"6794134","prefecture":"兵庫県","prefecture_kana":"ヒョウゴケン","city":"たつの市","city_kana":"タツノシ","town":"誉田町広山","town_kana":"ホンダチョウヒロヤマ","prefecture_code":28},"4132":{"zip_code":"6794132","prefecture":"兵庫県","prefecture_kana":"ヒョウゴケン","city":"たつの市","city_kana":"タツノシ","town":"誉田町福田","town_kana":"ホンダチョウフクダ","prefecture_code":28},"4133":{"zip_code":"6794133","prefecture":"兵庫県","prefecture_kana":"ヒョウゴケン","city":"たつの市","city_kana":"タツノシ","town":"誉田町誉","town_kana":"ホンダチョウホマレ","prefecture_code":28},"1100":{"zip_code":"6791100","prefecture":"兵庫県","prefecture_kana":"ヒョウゴケン","city":"多可郡多可町","city_kana":"タカグンタカチョウ","town":"以下に掲載がない場合","town_kana":"イカニケイサイガナイバアイ","prefecture_code":28},"1205":{"zip_code":"6791205","prefecture":"兵庫県","prefecture_kana":"ヒョウゴケン","city":"多可郡多可町","city_kana":"タカグンタカチョウ","town":"加美区岩座神","town_kana":"カミクイサリガミ","prefecture_code":28},"1327":{"zip_code":"6791327","prefecture":"兵庫県","prefecture_kana":"ヒョウゴケン","city":"多可郡多可町","city_kana":"タカグンタカチョウ","town":"加美区市原","town_kana":"カミクイチハラ","prefecture_code":28},"1332":{"zip_code":"6791332","prefecture":"兵庫県","prefecture_kana":"ヒョウゴケン","city":"多可郡多可町","city_kana":"タカグンタカチョウ","town":"加美区大袋","town_kana":"カミクオオブクロ","prefecture_code":28},"1215":{"zip_code":"6791215","prefecture":"兵庫県","prefecture_kana":"ヒョウゴケン","city":"多可郡多可町","city_kana":"タカグンタカチョウ","town":"加美区奥荒田","town_kana":"カミクオクアラタ","prefecture_code":28},"1337":{"zip_code":"6791337","prefecture":"兵庫県","prefecture_kana":"ヒョウゴケン","city":"多可郡多可町","city_kana":"タカグンタカチョウ","town":"加美区奥豊部","town_kana":"カミクオクトヨベ","prefecture_code":28},"1335":{"zip_code":"6791335","prefecture":"兵庫県","prefecture_kana":"ヒョウゴケン","city":"多可郡多可町","city_kana":"タカグンタカチョウ","town":"加美区門村","town_kana":"カミクカドムラ","prefecture_code":28},"1338":{"zip_code":"6791338","prefecture":"兵庫県","prefecture_kana":"ヒョウゴケン","city":"多可郡多可町","city_kana":"タカグンタカチョウ","town":"加美区観音寺","town_kana":"カミクカンノンジ","prefecture_code":28},"1323":{"zip_code":"6791323","prefecture":"兵庫県","prefecture_kana":"ヒョウゴケン","city":"多可郡多可町","city_kana":"タカグンタカチョウ","town":"加美区清水","town_kana":"カミクキヨミズ","prefecture_code":28},"1202":{"zip_code":"6791202","prefecture":"兵庫県","prefecture_kana":"ヒョウゴケン","city":"多可郡多可町","city_kana":"タカグンタカチョウ","town":"加美区熊野部","town_kana":"カミククマノベ","prefecture_code":28},"1336":{"zip_code":"6791336","prefecture":"兵庫県","prefecture_kana":"ヒョウゴケン","city":"多可郡多可町","city_kana":"タカグンタカチョウ","town":"加美区杉原","town_kana":"カミクスギハラ","prefecture_code":28},"1203":{"zip_code":"6791203","prefecture":"兵庫県","prefecture_kana":"ヒョウゴケン","city":"多可郡多可町","city_kana":"タカグンタカチョウ","town":"加美区多田","town_kana":"カミクタダ","prefecture_code":28},"1204":{"zip_code":"6791204","prefecture":"兵庫県","prefecture_kana":"ヒョウゴケン","city":"多可郡多可町","city_kana":"タカグンタカチョウ","town":"加美区棚釜","town_kana":"カミクタナカマ","prefecture_code":28},"1331":{"zip_code":"6791331","prefecture":"兵庫県","prefecture_kana":"ヒョウゴケン","city":"多可郡多可町","city_kana":"タカグンタカチョウ","town":"加美区丹治","town_kana":"カミクタンジ","prefecture_code":28},"1211":{"zip_code":"6791211","prefecture":"兵庫県","prefecture_kana":"ヒョウゴケン","city":"多可郡多可町","city_kana":"タカグンタカチョウ","town":"加美区寺内","town_kana":"カミクテラウチ","prefecture_code":28},"1324":{"zip_code":"6791324","prefecture":"兵庫県","prefecture_kana":"ヒョウゴケン","city":"多可郡多可町","city_kana":"タカグンタカチョウ","town":"加美区轟","town_kana":"カミクトドロキ","prefecture_code":28},"1201":{"zip_code":"6791201","prefecture":"兵庫県","prefecture_kana":"ヒョウゴケン","city":"多可郡多可町","city_kana":"タカグンタカチョウ","town":"加美区豊部","town_kana":"カミクトヨベ","prefecture_code":28},"1322":{"zip_code":"6791322","prefecture":"兵庫県","prefecture_kana":"ヒョウゴケン","city":"多可郡多可町","city_kana":"タカグンタカチョウ","town":"加美区鳥羽","town_kana":"カミクトリマ","prefecture_code":28},"1326":{"zip_code":"6791326","prefecture":"兵庫県","prefecture_kana":"ヒョウゴケン","city":"多可郡多可町","city_kana":"タカグンタカチョウ","town":"加美区西山","town_kana":"カミクニシヤマ","prefecture_code":28},"1212":{"zip_code":"6791212","prefecture":"兵庫県","prefecture_kana":"ヒョウゴケン","city":"多可郡多可町","city_kana":"タカグンタカチョウ","town":"加美区西脇","town_kana":"カミクニシワキ","prefecture_code":28},"1334":{"zip_code":"6791334","prefecture":"兵庫県","prefecture_kana":"ヒョウゴケン","city":"多可郡多可町","city_kana":"タカグンタカチョウ","town":"加美区箸荷","town_kana":"カミクハセガイ","prefecture_code":28},"1214":{"zip_code":"6791214","prefecture":"兵庫県","prefecture_kana":"ヒョウゴケン","city":"多可郡多可町","city_kana":"タカグンタカチョウ","town":"加美区的場","town_kana":"カミクマトバ","prefecture_code":28},"1333":{"zip_code":"6791333","prefecture":"兵庫県","prefecture_kana":"ヒョウゴケン","city":"多可郡多可町","city_kana":"タカグンタカチョウ","town":"加美区三谷","town_kana":"カミクミダニ","prefecture_code":28},"1325":{"zip_code":"6791325","prefecture":"兵庫県","prefecture_kana":"ヒョウゴケン","city":"多可郡多可町","city_kana":"タカグンタカチョウ","town":"加美区山口","town_kana":"カミクヤマグチ","prefecture_code":28},"1213":{"zip_code":"6791213","prefecture":"兵庫県","prefecture_kana":"ヒョウゴケン","city":"多可郡多可町","city_kana":"タカグンタカチョウ","town":"加美区山野部","town_kana":"カミクヤマノベ","prefecture_code":28},"1321":{"zip_code":"6791321","prefecture":"兵庫県","prefecture_kana":"ヒョウゴケン","city":"多可郡多可町","city_kana":"タカグンタカチョウ","town":"加美区山寄上","town_kana":"カミクヤマヨリカミ","prefecture_code":28},"1135":{"zip_code":"6791135","prefecture":"兵庫県","prefecture_kana":"ヒョウゴケン","city":"多可郡多可町","city_kana":"タカグンタカチョウ","town":"中区安坂","town_kana":"ナカクアサカ","prefecture_code":28},"1115":{"zip_code":"6791115","prefecture":"兵庫県","prefecture_kana":"ヒョウゴケン","city":"多可郡多可町","city_kana":"タカグンタカチョウ","town":"中区天田","town_kana":"ナカクアマダ","prefecture_code":28},"1102":{"zip_code":"6791102","prefecture":"兵庫県","prefecture_kana":"ヒョウゴケン","city":"多可郡多可町","city_kana":"タカグンタカチョウ","town":"中区安楽田","town_kana":"ナカクアラタ","prefecture_code":28},"1107":[{"zip_code":"6791107","prefecture":"兵庫県","prefecture_kana":"ヒョウゴケン","city":"多可郡多可町","city_kana":"タカグンタカチョウ","town":"中区奥中","town_kana":"ナカクオクナカ","prefecture_code":28},{"zip_code":"6791107","prefecture":"兵庫県","prefecture_kana":"ヒョウゴケン","city":"多可郡多可町","city_kana":"タカグンタカチョウ","town":"中区徳畑","town_kana":"ナカクトクバタ","prefecture_code":28}],"1111":{"zip_code":"6791111","prefecture":"兵庫県","prefecture_kana":"ヒョウゴケン","city":"多可郡多可町","city_kana":"タカグンタカチョウ","town":"中区鍛冶屋","town_kana":"ナカクカジヤ","prefecture_code":28},"1114":{"zip_code":"6791114","prefecture":"兵庫県","prefecture_kana":"ヒョウゴケン","city":"多可郡多可町","city_kana":"タカグンタカチョウ","town":"中区岸上","town_kana":"ナカクキシカミ","prefecture_code":28},"1133":{"zip_code":"6791133","prefecture":"兵庫県","prefecture_kana":"ヒョウゴケン","city":"多可郡多可町","city_kana":"タカグンタカチョウ","town":"中区糀屋","town_kana":"ナカクコウジヤ","prefecture_code":28},"1132":{"zip_code":"6791132","prefecture":"兵庫県","prefecture_kana":"ヒョウゴケン","city":"多可郡多可町","city_kana":"タカグンタカチョウ","town":"中区坂本","town_kana":"ナカクサカモト","prefecture_code":28},"1134":{"zip_code":"6791134","prefecture":"兵庫県","prefecture_kana":"ヒョウゴケン","city":"多可郡多可町","city_kana":"タカグンタカチョウ","town":"中区茂利","town_kana":"ナカクシゲリ","prefecture_code":28},"1131":{"zip_code":"6791131","prefecture":"兵庫県","prefecture_kana":"ヒョウゴケン","city":"多可郡多可町","city_kana":"タカグンタカチョウ","town":"中区曽我井","town_kana":"ナカクソガイ","prefecture_code":28},"1106":{"zip_code":"6791106","prefecture":"兵庫県","prefecture_kana":"ヒョウゴケン","city":"多可郡多可町","city_kana":"タカグンタカチョウ","town":"中区高岸","town_kana":"ナカクタカギシ","prefecture_code":28},"1104":{"zip_code":"6791104","prefecture":"兵庫県","prefecture_kana":"ヒョウゴケン","city":"多可郡多可町","city_kana":"タカグンタカチョウ","town":"中区田野口","town_kana":"ナカクタノクチ","prefecture_code":28},"1113":{"zip_code":"6791113","prefecture":"兵庫県","prefecture_kana":"ヒョウゴケン","city":"多可郡多可町","city_kana":"タカグンタカチョウ","town":"中区中村町","town_kana":"ナカクナカムラマチ","prefecture_code":28},"1122":{"zip_code":"6791122","prefecture":"兵庫県","prefecture_kana":"ヒョウゴケン","city":"多可郡多可町","city_kana":"タカグンタカチョウ","town":"中区中安田","town_kana":"ナカクナカヤスダ","prefecture_code":28},"1123":{"zip_code":"6791123","prefecture":"兵庫県","prefecture_kana":"ヒョウゴケン","city":"多可郡多可町","city_kana":"タカグンタカチョウ","town":"中区西安田","town_kana":"ナカクニシヤスダ","prefecture_code":28},"1121":{"zip_code":"6791121","prefecture":"兵庫県","prefecture_kana":"ヒョウゴケン","city":"多可郡多可町","city_kana":"タカグンタカチョウ","town":"中区東安田","town_kana":"ナカクヒガシヤスダ","prefecture_code":28},"1105":{"zip_code":"6791105","prefecture":"兵庫県","prefecture_kana":"ヒョウゴケン","city":"多可郡多可町","city_kana":"タカグンタカチョウ","town":"中区東山","town_kana":"ナカクヒガシヤマ","prefecture_code":28},"1103":{"zip_code":"6791103","prefecture":"兵庫県","prefecture_kana":"ヒョウゴケン","city":"多可郡多可町","city_kana":"タカグンタカチョウ","town":"中区牧野","town_kana":"ナカクマキノ","prefecture_code":28},"1112":{"zip_code":"6791112","prefecture":"兵庫県","prefecture_kana":"ヒョウゴケン","city":"多可郡多可町","city_kana":"タカグンタカチョウ","town":"中区間子","town_kana":"ナカクマコウ","prefecture_code":28},"1124":{"zip_code":"6791124","prefecture":"兵庫県","prefecture_kana":"ヒョウゴケン","city":"多可郡多可町","city_kana":"タカグンタカチョウ","town":"中区森本","town_kana":"ナカクモリモト","prefecture_code":28},"1101":{"zip_code":"6791101","prefecture":"兵庫県","prefecture_kana":"ヒョウゴケン","city":"多可郡多可町","city_kana":"タカグンタカチョウ","town":"中区門前","town_kana":"ナカクモンゼン","prefecture_code":28},"2300":{"zip_code":"6792300","prefecture":"兵庫県","prefecture_kana":"ヒョウゴケン","city":"神崎郡市川町","city_kana":"カンザキグンイチカワチョウ","town":"以下に掲載がない場合","town_kana":"イカニケイサイガナイバアイ","prefecture_code":28},"2317":{"zip_code":"6792317","prefecture":"兵庫県","prefecture_kana":"ヒョウゴケン","city":"神崎郡市川町","city_kana":"カンザキグンイチカワチョウ","town":"浅野","town_kana":"アサノ","prefecture_code":28},"2323":{"zip_code":"6792323","prefecture":"兵庫県","prefecture_kana":"ヒョウゴケン","city":"神崎郡市川町","city_kana":"カンザキグンイチカワチョウ","town":"甘地","town_kana":"アマジ","prefecture_code":28},"2311":{"zip_code":"6792311","prefecture":"兵庫県","prefecture_kana":"ヒョウゴケン","city":"神崎郡市川町","city_kana":"カンザキグンイチカワチョウ","town":"上田中","town_kana":"ウエダナカ","prefecture_code":28},"2325":{"zip_code":"6792325","prefecture":"兵庫県","prefecture_kana":"ヒョウゴケン","city":"神崎郡市川町","city_kana":"カンザキグンイチカワチョウ","town":"奥","town_kana":"オク","prefecture_code":28},"2318":{"zip_code":"6792318","prefecture":"兵庫県","prefecture_kana":"ヒョウゴケン","city":"神崎郡市川町","city_kana":"カンザキグンイチカワチョウ","town":"小畑","town_kana":"オバタ","prefecture_code":28},"2301":{"zip_code":"6792301","prefecture":"兵庫県","prefecture_kana":"ヒョウゴケン","city":"神崎郡市川町","city_kana":"カンザキグンイチカワチョウ","town":"上牛尾","town_kana":"カミウシオ","prefecture_code":28},"2303":{"zip_code":"6792303","prefecture":"兵庫県","prefecture_kana":"ヒョウゴケン","city":"神崎郡市川町","city_kana":"カンザキグンイチカワチョウ","town":"上瀬加","town_kana":"カミセカ","prefecture_code":28},"2333":{"zip_code":"6792333","prefecture":"兵庫県","prefecture_kana":"ヒョウゴケン","city":"神崎郡市川町","city_kana":"カンザキグンイチカワチョウ","town":"神崎","town_kana":"カンザキ","prefecture_code":28},"2314":{"zip_code":"6792314","prefecture":"兵庫県","prefecture_kana":"ヒョウゴケン","city":"神崎郡市川町","city_kana":"カンザキグンイチカワチョウ","town":"北田中","town_kana":"キタタナカ","prefecture_code":28},"2322":{"zip_code":"6792322","prefecture":"兵庫県","prefecture_kana":"ヒョウゴケン","city":"神崎郡市川町","city_kana":"カンザキグンイチカワチョウ","town":"小谷","town_kana":"コダニ","prefecture_code":28},"2331":{"zip_code":"6792331","prefecture":"兵庫県","prefecture_kana":"ヒョウゴケン","city":"神崎郡市川町","city_kana":"カンザキグンイチカワチョウ","town":"小室","town_kana":"コムロ","prefecture_code":28},"2324":{"zip_code":"6792324","prefecture":"兵庫県","prefecture_kana":"ヒョウゴケン","city":"神崎郡市川町","city_kana":"カンザキグンイチカワチョウ","town":"坂戸","town_kana":"サカド","prefecture_code":28},"2336":{"zip_code":"6792336","prefecture":"兵庫県","prefecture_kana":"ヒョウゴケン","city":"神崎郡市川町","city_kana":"カンザキグンイチカワチョウ","town":"沢","town_kana":"サワ","prefecture_code":28},"2302":{"zip_code":"6792302","prefecture":"兵庫県","prefecture_kana":"ヒョウゴケン","city":"神崎郡市川町","city_kana":"カンザキグンイチカワチョウ","town":"下牛尾","town_kana":"シモウシオ","prefecture_code":28},"2304":{"zip_code":"6792304","prefecture":"兵庫県","prefecture_kana":"ヒョウゴケン","city":"神崎郡市川町","city_kana":"カンザキグンイチカワチョウ","town":"下瀬加","town_kana":"シモセカ","prefecture_code":28},"2332":{"zip_code":"6792332","prefecture":"兵庫県","prefecture_kana":"ヒョウゴケン","city":"神崎郡市川町","city_kana":"カンザキグンイチカワチョウ","town":"田中","town_kana":"タナカ","prefecture_code":28},"2326":{"zip_code":"6792326","prefecture":"兵庫県","prefecture_kana":"ヒョウゴケン","city":"神崎郡市川町","city_kana":"カンザキグンイチカワチョウ","town":"谷","town_kana":"タニ","prefecture_code":28},"2327":{"zip_code":"6792327","prefecture":"兵庫県","prefecture_kana":"ヒョウゴケン","city":"神崎郡市川町","city_kana":"カンザキグンイチカワチョウ","town":"近平","town_kana":"チカラ","prefecture_code":28},"2321":{"zip_code":"6792321","prefecture":"兵庫県","prefecture_kana":"ヒョウゴケン","city":"神崎郡市川町","city_kana":"カンザキグンイチカワチョウ","town":"千原","town_kana":"チハラ","prefecture_code":28},"2334":{"zip_code":"6792334","prefecture":"兵庫県","prefecture_kana":"ヒョウゴケン","city":"神崎郡市川町","city_kana":"カンザキグンイチカワチョウ","town":"鶴居","town_kana":"ツルイ","prefecture_code":28},"2315":{"zip_code":"6792315","prefecture":"兵庫県","prefecture_kana":"ヒョウゴケン","city":"神崎郡市川町","city_kana":"カンザキグンイチカワチョウ","town":"西川辺","town_kana":"ニシカワナベ","prefecture_code":28},"2313":{"zip_code":"6792313","prefecture":"兵庫県","prefecture_kana":"ヒョウゴケン","city":"神崎郡市川町","city_kana":"カンザキグンイチカワチョウ","town":"西田中","town_kana":"ニシタナカ","prefecture_code":28},"2316":{"zip_code":"6792316","prefecture":"兵庫県","prefecture_kana":"ヒョウゴケン","city":"神崎郡市川町","city_kana":"カンザキグンイチカワチョウ","town":"東川辺","town_kana":"ヒガシカワナベ","prefecture_code":28},"2312":{"zip_code":"6792312","prefecture":"兵庫県","prefecture_kana":"ヒョウゴケン","city":"神崎郡市川町","city_kana":"カンザキグンイチカワチョウ","town":"保喜","town_kana":"ホキ","prefecture_code":28},"2335":{"zip_code":"6792335","prefecture":"兵庫県","prefecture_kana":"ヒョウゴケン","city":"神崎郡市川町","city_kana":"カンザキグンイチカワチョウ","town":"美佐","town_kana":"ミサ","prefecture_code":28},"2337":{"zip_code":"6792337","prefecture":"兵庫県","prefecture_kana":"ヒョウゴケン","city":"神崎郡市川町","city_kana":"カンザキグンイチカワチョウ","town":"屋形","town_kana":"ヤカタ","prefecture_code":28},"2200":{"zip_code":"6792200","prefecture":"兵庫県","prefecture_kana":"ヒョウゴケン","city":"神崎郡福崎町","city_kana":"カンザキグンフクサキチョウ","town":"以下に掲載がない場合","town_kana":"イカニケイサイガナイバアイ","prefecture_code":28},"2213":{"zip_code":"6792213","prefecture":"兵庫県","prefecture_kana":"ヒョウゴケン","city":"神崎郡福崎町","city_kana":"カンザキグンフクサキチョウ","town":"馬田","town_kana":"ウマダ","prefecture_code":28},"2201":{"zip_code":"6792201","prefecture":"兵庫県","prefecture_kana":"ヒョウゴケン","city":"神崎郡福崎町","city_kana":"カンザキグンフクサキチョウ","town":"大貫","town_kana":"オオヌキ","prefecture_code":28},"2215":{"zip_code":"6792215","prefecture":"兵庫県","prefecture_kana":"ヒョウゴケン","city":"神崎郡福崎町","city_kana":"カンザキグンフクサキチョウ","town":"西治","town_kana":"サイジ","prefecture_code":28},"2217":{"zip_code":"6792217","prefecture":"兵庫県","prefecture_kana":"ヒョウゴケン","city":"神崎郡福崎町","city_kana":"カンザキグンフクサキチョウ","town":"高岡","town_kana":"タカオカ","prefecture_code":28},"2216":{"zip_code":"6792216","prefecture":"兵庫県","prefecture_kana":"ヒョウゴケン","city":"神崎郡福崎町","city_kana":"カンザキグンフクサキチョウ","town":"高橋","town_kana":"タカハシ","prefecture_code":28},"2218":{"zip_code":"6792218","prefecture":"兵庫県","prefecture_kana":"ヒョウゴケン","city":"神崎郡福崎町","city_kana":"カンザキグンフクサキチョウ","town":"田口","town_kana":"タグチ","prefecture_code":28},"2204":{"zip_code":"6792204","prefecture":"兵庫県","prefecture_kana":"ヒョウゴケン","city":"神崎郡福崎町","city_kana":"カンザキグンフクサキチョウ","town":"西田原","town_kana":"ニシタワラ","prefecture_code":28},"2205":{"zip_code":"6792205","prefecture":"兵庫県","prefecture_kana":"ヒョウゴケン","city":"神崎郡福崎町","city_kana":"カンザキグンフクサキチョウ","town":"東田原","town_kana":"ヒガシタワラ","prefecture_code":28},"2214":{"zip_code":"6792214","prefecture":"兵庫県","prefecture_kana":"ヒョウゴケン","city":"神崎郡福崎町","city_kana":"カンザキグンフクサキチョウ","town":"福崎新","town_kana":"フクサキシン","prefecture_code":28},"2212":{"zip_code":"6792212","prefecture":"兵庫県","prefecture_kana":"ヒョウゴケン","city":"神崎郡福崎町","city_kana":"カンザキグンフクサキチョウ","town":"福田","town_kana":"フクダ","prefecture_code":28},"2203":{"zip_code":"6792203","prefecture":"兵庫県","prefecture_kana":"ヒョウゴケン","city":"神崎郡福崎町","city_kana":"カンザキグンフクサキチョウ","town":"南田原","town_kana":"ミナミタワラ","prefecture_code":28},"2202":{"zip_code":"6792202","prefecture":"兵庫県","prefecture_kana":"ヒョウゴケン","city":"神崎郡福崎町","city_kana":"カンザキグンフクサキチョウ","town":"八千種","town_kana":"ヤチクサ","prefecture_code":28},"2211":{"zip_code":"6792211","prefecture":"兵庫県","prefecture_kana":"ヒョウゴケン","city":"神崎郡福崎町","city_kana":"カンザキグンフクサキチョウ","town":"山崎","town_kana":"ヤマサキ","prefecture_code":28},"3100":{"zip_code":"6793100","prefecture":"兵庫県","prefecture_kana":"ヒョウゴケン","city":"神崎郡神河町","city_kana":"カンザキグンカミカワチョウ","town":"以下に掲載がない場合","town_kana":"イカニケイサイガナイバアイ","prefecture_code":28},"3121":{"zip_code":"6793121","prefecture":"兵庫県","prefecture_kana":"ヒョウゴケン","city":"神崎郡神河町","city_kana":"カンザキグンカミカワチョウ","town":"上岩","town_kana":"アゲイワ","prefecture_code":28},"2414":{"zip_code":"6792414","prefecture":"兵庫県","prefecture_kana":"ヒョウゴケン","city":"神崎郡神河町","city_kana":"カンザキグンカミカワチョウ","town":"粟賀町","town_kana":"アワガマチ","prefecture_code":28},"2431":{"zip_code":"6792431","prefecture":"兵庫県","prefecture_kana":"ヒョウゴケン","city":"神崎郡神河町","city_kana":"カンザキグンカミカワチョウ","town":"猪篠","town_kana":"イザサ","prefecture_code":28},"2405":{"zip_code":"6792405","prefecture":"兵庫県","prefecture_kana":"ヒョウゴケン","city":"神崎郡神河町","city_kana":"カンザキグンカミカワチョウ","town":"岩屋","town_kana":"イワヤ","prefecture_code":28},"3111":{"zip_code":"6793111","prefecture":"兵庫県","prefecture_kana":"ヒョウゴケン","city":"神崎郡神河町","city_kana":"カンザキグンカミカワチョウ","town":"大河","town_kana":"オオカワ","prefecture_code":28},"2403":{"zip_code":"6792403","prefecture":"兵庫県","prefecture_kana":"ヒョウゴケン","city":"神崎郡神河町","city_kana":"カンザキグンカミカワチョウ","town":"大畑","town_kana":"オオハタ","prefecture_code":28},"2432":{"zip_code":"6792432","prefecture":"兵庫県","prefecture_kana":"ヒョウゴケン","city":"神崎郡神河町","city_kana":"カンザキグンカミカワチョウ","town":"大山","town_kana":"オオヤマ","prefecture_code":28},"2404":{"zip_code":"6792404","prefecture":"兵庫県","prefecture_kana":"ヒョウゴケン","city":"神崎郡神河町","city_kana":"カンザキグンカミカワチョウ","town":"越知","town_kana":"オチ","prefecture_code":28},"2422":{"zip_code":"6792422","prefecture":"兵庫県","prefecture_kana":"ヒョウゴケン","city":"神崎郡神河町","city_kana":"カンザキグンカミカワチョウ","town":"貝野","town_kana":"カイノ","prefecture_code":28},"3112":{"zip_code":"6793112","prefecture":"兵庫県","prefecture_kana":"ヒョウゴケン","city":"神崎郡神河町","city_kana":"カンザキグンカミカワチョウ","town":"鍛治","town_kana":"カジ","prefecture_code":28},"2424":{"zip_code":"6792424","prefecture":"兵庫県","prefecture_kana":"ヒョウゴケン","city":"神崎郡神河町","city_kana":"カンザキグンカミカワチョウ","town":"柏尾","town_kana":"カシオ","prefecture_code":28},"2421":{"zip_code":"6792421","prefecture":"兵庫県","prefecture_kana":"ヒョウゴケン","city":"神崎郡神河町","city_kana":"カンザキグンカミカワチョウ","town":"加納","town_kana":"カノウ","prefecture_code":28},"3125":{"zip_code":"6793125","prefecture":"兵庫県","prefecture_kana":"ヒョウゴケン","city":"神崎郡神河町","city_kana":"カンザキグンカミカワチョウ","town":"上小田","town_kana":"カミオダ","prefecture_code":28},"3104":{"zip_code":"6793104","prefecture":"兵庫県","prefecture_kana":"ヒョウゴケン","city":"神崎郡神河町","city_kana":"カンザキグンカミカワチョウ","town":"川上","town_kana":"カワカミ","prefecture_code":28},"3102":{"zip_code":"6793102","prefecture":"兵庫県","prefecture_kana":"ヒョウゴケン","city":"神崎郡神河町","city_kana":"カンザキグンカミカワチョウ","town":"栗","town_kana":"クリ","prefecture_code":28},"2402":{"zip_code":"6792402","prefecture":"兵庫県","prefecture_kana":"ヒョウゴケン","city":"神崎郡神河町","city_kana":"カンザキグンカミカワチョウ","town":"作畑","town_kana":"サクハタ","prefecture_code":28},"2401":{"zip_code":"6792401","prefecture":"兵庫県","prefecture_kana":"ヒョウゴケン","city":"神崎郡神河町","city_kana":"カンザキグンカミカワチョウ","town":"新田","town_kana":"シンデン","prefecture_code":28},"2433":{"zip_code":"6792433","prefecture":"兵庫県","prefecture_kana":"ヒョウゴケン","city":"神崎郡神河町","city_kana":"カンザキグンカミカワチョウ","town":"杉","town_kana":"スギ","prefecture_code":28},"3122":{"zip_code":"6793122","prefecture":"兵庫県","prefecture_kana":"ヒョウゴケン","city":"神崎郡神河町","city_kana":"カンザキグンカミカワチョウ","town":"高朝田","town_kana":"タカチョウダ","prefecture_code":28},"2423":{"zip_code":"6792423","prefecture":"兵庫県","prefecture_kana":"ヒョウゴケン","city":"神崎郡神河町","city_kana":"カンザキグンカミカワチョウ","town":"寺野","town_kana":"テラノ","prefecture_code":28},"3116":{"zip_code":"6793116","prefecture":"兵庫県","prefecture_kana":"ヒョウゴケン","city":"神崎郡神河町","city_kana":"カンザキグンカミカワチョウ","town":"寺前","town_kana":"テラマエ","prefecture_code":28},"2413":{"zip_code":"6792413","prefecture":"兵庫県","prefecture_kana":"ヒョウゴケン","city":"神崎郡神河町","city_kana":"カンザキグンカミカワチョウ","town":"中村","town_kana":"ナカムラ","prefecture_code":28},"3114":{"zip_code":"6793114","prefecture":"兵庫県","prefecture_kana":"ヒョウゴケン","city":"神崎郡神河町","city_kana":"カンザキグンカミカワチョウ","town":"新野","town_kana":"ニイノ","prefecture_code":28},"3113":{"zip_code":"6793113","prefecture":"兵庫県","prefecture_kana":"ヒョウゴケン","city":"神崎郡神河町","city_kana":"カンザキグンカミカワチョウ","town":"野村","town_kana":"ノムラ","prefecture_code":28},"3103":{"zip_code":"6793103","prefecture":"兵庫県","prefecture_kana":"ヒョウゴケン","city":"神崎郡神河町","city_kana":"カンザキグンカミカワチョウ","town":"長谷","town_kana":"ハセ","prefecture_code":28},"3115":{"zip_code":"6793115","prefecture":"兵庫県","prefecture_kana":"ヒョウゴケン","city":"神崎郡神河町","city_kana":"カンザキグンカミカワチョウ","town":"比延","town_kana":"ヒエ","prefecture_code":28},"2425":{"zip_code":"6792425","prefecture":"兵庫県","prefecture_kana":"ヒョウゴケン","city":"神崎郡神河町","city_kana":"カンザキグンカミカワチョウ","town":"東柏尾","town_kana":"ヒガシカシオ","prefecture_code":28},"2415":{"zip_code":"6792415","prefecture":"兵庫県","prefecture_kana":"ヒョウゴケン","city":"神崎郡神河町","city_kana":"カンザキグンカミカワチョウ","town":"福本","town_kana":"フクモト","prefecture_code":28},"3101":{"zip_code":"6793101","prefecture":"兵庫県","prefecture_kana":"ヒョウゴケン","city":"神崎郡神河町","city_kana":"カンザキグンカミカワチョウ","town":"渕","town_kana":"フチ","prefecture_code":28},"3124":{"zip_code":"6793124","prefecture":"兵庫県","prefecture_kana":"ヒョウゴケン","city":"神崎郡神河町","city_kana":"カンザキグンカミカワチョウ","town":"南小田","town_kana":"ミナミオダ","prefecture_code":28},"3123":{"zip_code":"6793123","prefecture":"兵庫県","prefecture_kana":"ヒョウゴケン","city":"神崎郡神河町","city_kana":"カンザキグンカミカワチョウ","town":"宮野","town_kana":"ミヤノ","prefecture_code":28},"2411":{"zip_code":"6792411","prefecture":"兵庫県","prefecture_kana":"ヒョウゴケン","city":"神崎郡神河町","city_kana":"カンザキグンカミカワチョウ","town":"根宇野","town_kana":"ミヨノ","prefecture_code":28},"2412":{"zip_code":"6792412","prefecture":"兵庫県","prefecture_kana":"ヒョウゴケン","city":"神崎郡神河町","city_kana":"カンザキグンカミカワチョウ","town":"山田","town_kana":"ヤマダ","prefecture_code":28},"2434":{"zip_code":"6792434","prefecture":"兵庫県","prefecture_kana":"ヒョウゴケン","city":"神崎郡神河町","city_kana":"カンザキグンカミカワチョウ","town":"吉冨","town_kana":"ヨシトミ","prefecture_code":28},"5300":{"zip_code":"6795300","prefecture":"兵庫県","prefecture_kana":"ヒョウゴケン","city":"佐用郡佐用町","city_kana":"サヨウグンサヨウチョウ","town":"以下に掲載がない場合","town_kana":"イカニケイサイガナイバアイ","prefecture_code":28},"5333":{"zip_code":"6795333","prefecture":"兵庫県","prefecture_kana":"ヒョウゴケン","city":"佐用郡佐用町","city_kana":"サヨウグンサヨウチョウ","town":"庵","town_kana":"イオリ","prefecture_code":28},"5531":{"zip_code":"6795531","prefecture":"兵庫県","prefecture_kana":"ヒョウゴケン","city":"佐用郡佐用町","city_kana":"サヨウグンサヨウチョウ","town":"宇根","town_kana":"ウネ","prefecture_code":28},"5221":{"zip_code":"6795221","prefecture":"兵庫県","prefecture_kana":"ヒョウゴケン","city":"佐用郡佐用町","city_kana":"サヨウグンサヨウチョウ","town":"漆野","town_kana":"ウルシノ","prefecture_code":28},"5642":{"zip_code":"6795642","prefecture":"兵庫県","prefecture_kana":"ヒョウゴケン","city":"佐用郡佐用町","city_kana":"サヨウグンサヨウチョウ","town":"円光寺","town_kana":"エンコウジ","prefecture_code":28},"5307":{"zip_code":"6795307","prefecture":"兵庫県","prefecture_kana":"ヒョウゴケン","city":"佐用郡佐用町","city_kana":"サヨウグンサヨウチョウ","town":"円応寺","town_kana":"エンノウジ","prefecture_code":28},"5504":{"zip_code":"6795504","prefecture":"兵庫県","prefecture_kana":"ヒョウゴケン","city":"佐用郡佐用町","city_kana":"サヨウグンサヨウチョウ","town":"大垣内","town_kana":"オオガイチ","prefecture_code":28},"5314":{"zip_code":"6795314","prefecture":"兵庫県","prefecture_kana":"ヒョウゴケン","city":"佐用郡佐用町","city_kana":"サヨウグンサヨウチョウ","town":"大木谷","town_kana":"オオキダニ","prefecture_code":28},"5146":{"zip_code":"6795146","prefecture":"兵庫県","prefecture_kana":"ヒョウゴケン","city":"佐用郡佐用町","city_kana":"サヨウグンサヨウチョウ","town":"大下り","town_kana":"オオサガリ","prefecture_code":28},"5654":{"zip_code":"6795654","prefecture":"兵庫県","prefecture_kana":"ヒョウゴケン","city":"佐用郡佐用町","city_kana":"サヨウグンサヨウチョウ","town":"大酒","town_kana":"オオザケ","prefecture_code":28},"5145":{"zip_code":"6795145","prefecture":"兵庫県","prefecture_kana":"ヒョウゴケン","city":"佐用郡佐用町","city_kana":"サヨウグンサヨウチョウ","town":"大畑","town_kana":"オオハタ","prefecture_code":28},"5319":{"zip_code":"6795319","prefecture":"兵庫県","prefecture_kana":"ヒョウゴケン","city":"佐用郡佐用町","city_kana":"サヨウグンサヨウチョウ","town":"大畠","town_kana":"オオバタケ","prefecture_code":28},"5646":{"zip_code":"6795646","prefecture":"兵庫県","prefecture_kana":"ヒョウゴケン","city":"佐用郡佐用町","city_kana":"サヨウグンサヨウチョウ","town":"大日山","town_kana":"オオビヤマ","prefecture_code":28},"5345":{"zip_code":"6795345","prefecture":"兵庫県","prefecture_kana":"ヒョウゴケン","city":"佐用郡佐用町","city_kana":"サヨウグンサヨウチョウ","town":"奥金近","town_kana":"オクカネチカ","prefecture_code":28},"5344":{"zip_code":"6795344","prefecture":"兵庫県","prefecture_kana":"ヒョウゴケン","city":"佐用郡佐用町","city_kana":"サヨウグンサヨウチョウ","town":"奥長谷","town_kana":"オクナガタニ","prefecture_code":28},"5324":{"zip_code":"6795324","prefecture":"兵庫県","prefecture_kana":"ヒョウゴケン","city":"佐用郡佐用町","city_kana":"サヨウグンサヨウチョウ","town":"奥海","town_kana":"オネミ","prefecture_code":28},"5505":{"zip_code":"6795505","prefecture":"兵庫県","prefecture_kana":"ヒョウゴケン","city":"佐用郡佐用町","city_kana":"サヨウグンサヨウチョウ","town":"皆田","town_kana":"カイタ","prefecture_code":28},"5513":{"zip_code":"6795513","prefecture":"兵庫県","prefecture_kana":"ヒョウゴケン","city":"佐用郡佐用町","city_kana":"サヨウグンサヨウチョウ","town":"金屋","town_kana":"カナヤ","prefecture_code":28},"5644":{"zip_code":"6795644","prefecture":"兵庫県","prefecture_kana":"ヒョウゴケン","city":"佐用郡佐用町","city_kana":"サヨウグンサヨウチョウ","town":"上秋里","town_kana":"カミアキサト","prefecture_code":28},"5322":{"zip_code":"6795322","prefecture":"兵庫県","prefecture_kana":"ヒョウゴケン","city":"佐用郡佐用町","city_kana":"サヨウグンサヨウチョウ","town":"上石井","town_kana":"カミイシイ","prefecture_code":28},"5131":{"zip_code":"6795131","prefecture":"兵庫県","prefecture_kana":"ヒョウゴケン","city":"佐用郡佐用町","city_kana":"サヨウグンサヨウチョウ","town":"上本郷","town_kana":"カミホンゴウ","prefecture_code":28},"5225":{"zip_code":"6795225","prefecture":"兵庫県","prefecture_kana":"ヒョウゴケン","city":"佐用郡佐用町","city_kana":"サヨウグンサヨウチョウ","town":"上三河","town_kana":"カミミカワ","prefecture_code":28},"5641":{"zip_code":"6795641","prefecture":"兵庫県","prefecture_kana":"ヒョウゴケン","city":"佐用郡佐用町","city_kana":"サヨウグンサヨウチョウ","town":"久崎","town_kana":"クザキ","prefecture_code":28},"5651":{"zip_code":"6795651","prefecture":"兵庫県","prefecture_kana":"ヒョウゴケン","city":"佐用郡佐用町","city_kana":"サヨウグンサヨウチョウ","town":"櫛田","town_kana":"クシダ","prefecture_code":28},"5346":{"zip_code":"6795346","prefecture":"兵庫県","prefecture_kana":"ヒョウゴケン","city":"佐用郡佐用町","city_kana":"サヨウグンサヨウチョウ","town":"口金近","town_kana":"クチカネチカ","prefecture_code":28},"5343":{"zip_code":"6795343","prefecture":"兵庫県","prefecture_kana":"ヒョウゴケン","city":"佐用郡佐用町","city_kana":"サヨウグンサヨウチョウ","town":"口長谷","town_kana":"クチナガタニ","prefecture_code":28},"5334":{"zip_code":"6795334","prefecture":"兵庫県","prefecture_kana":"ヒョウゴケン","city":"佐用郡佐用町","city_kana":"サヨウグンサヨウチョウ","town":"桑野","town_kana":"クワノ","prefecture_code":28},"5652":{"zip_code":"6795652","prefecture":"兵庫県","prefecture_kana":"ヒョウゴケン","city":"佐用郡佐用町","city_kana":"サヨウグンサヨウチョウ","town":"家内","town_kana":"ケナイ","prefecture_code":28},"5653":{"zip_code":"6795653","prefecture":"兵庫県","prefecture_kana":"ヒョウゴケン","city":"佐用郡佐用町","city_kana":"サヨウグンサヨウチョウ","town":"小赤松","town_kana":"コアカマツ","prefecture_code":28},"5226":{"zip_code":"6795226","prefecture":"兵庫県","prefecture_kana":"ヒョウゴケン","city":"佐用郡佐用町","city_kana":"サヨウグンサヨウチョウ","town":"河崎","town_kana":"コウザキ","prefecture_code":28},"5523":{"zip_code":"6795523","prefecture":"兵庫県","prefecture_kana":"ヒョウゴケン","city":"佐用郡佐用町","city_kana":"サヨウグンサヨウチョウ","town":"上月","town_kana":"コウヅキ","prefecture_code":28},"5148":{"zip_code":"6795148","prefecture":"兵庫県","prefecture_kana":"ヒョウゴケン","city":"佐用郡佐用町","city_kana":"サヨウグンサヨウチョウ","town":"光都","town_kana":"コウト","prefecture_code":28},"5535":{"zip_code":"6795535","prefecture":"兵庫県","prefecture_kana":"ヒョウゴケン","city":"佐用郡佐用町","city_kana":"サヨウグンサヨウチョウ","town":"小日山","town_kana":"コビヤマ","prefecture_code":28},"5204":{"zip_code":"6795204","prefecture":"兵庫県","prefecture_kana":"ヒョウゴケン","city":"佐用郡佐用町","city_kana":"サヨウグンサヨウチョウ","town":"小山","town_kana":"コヤマ","prefecture_code":28},"5502":{"zip_code":"6795502","prefecture":"兵庫県","prefecture_kana":"ヒョウゴケン","city":"佐用郡佐用町","city_kana":"サヨウグンサヨウチョウ","town":"才金","town_kana":"サイカネ","prefecture_code":28},"5501":{"zip_code":"6795501","prefecture":"兵庫県","prefecture_kana":"ヒョウゴケン","city":"佐用郡佐用町","city_kana":"サヨウグンサヨウチョウ","town":"桜山","town_kana":"サクラヤマ","prefecture_code":28},"5303":{"zip_code":"6795303","prefecture":"兵庫県","prefecture_kana":"ヒョウゴケン","city":"佐用郡佐用町","city_kana":"サヨウグンサヨウチョウ","town":"真盛","town_kana":"サネモリ","prefecture_code":28},"5137":{"zip_code":"6795137","prefecture":"兵庫県","prefecture_kana":"ヒョウゴケン","city":"佐用郡佐用町","city_kana":"サヨウグンサヨウチョウ","town":"真宗","town_kana":"サノムネ","prefecture_code":28},"5301":{"zip_code":"6795301","prefecture":"兵庫県","prefecture_kana":"ヒョウゴケン","city":"佐用郡佐用町","city_kana":"サヨウグンサヨウチョウ","town":"佐用","town_kana":"サヨウ","prefecture_code":28},"5136":{"zip_code":"6795136","prefecture":"兵庫県","prefecture_kana":"ヒョウゴケン","city":"佐用郡佐用町","city_kana":"サヨウグンサヨウチョウ","town":"志文","town_kana":"シブミ","prefecture_code":28},"5643":{"zip_code":"6795643","prefecture":"兵庫県","prefecture_kana":"ヒョウゴケン","city":"佐用郡佐用町","city_kana":"サヨウグンサヨウチョウ","town":"下秋里","town_kana":"シモアキサト","prefecture_code":28},"5321":{"zip_code":"6795321","prefecture":"兵庫県","prefecture_kana":"ヒョウゴケン","city":"佐用郡佐用町","city_kana":"サヨウグンサヨウチョウ","town":"下石井","town_kana":"シモイシイ","prefecture_code":28},"5211":{"zip_code":"6795211","prefecture":"兵庫県","prefecture_kana":"ヒョウゴケン","city":"佐用郡佐用町","city_kana":"サヨウグンサヨウチョウ","town":"下徳久","town_kana":"シモトクサ","prefecture_code":28},"5132":{"zip_code":"6795132","prefecture":"兵庫県","prefecture_kana":"ヒョウゴケン","city":"佐用郡佐用町","city_kana":"サヨウグンサヨウチョウ","town":"下本郷","town_kana":"シモホンゴウ","prefecture_code":28},"5223":{"zip_code":"6795223","prefecture":"兵庫県","prefecture_kana":"ヒョウゴケン","city":"佐用郡佐用町","city_kana":"サヨウグンサヨウチョウ","town":"下三河","town_kana":"シモミカワ","prefecture_code":28},"5317":{"zip_code":"6795317","prefecture":"兵庫県","prefecture_kana":"ヒョウゴケン","city":"佐用郡佐用町","city_kana":"サヨウグンサヨウチョウ","town":"末包","town_kana":"スエカネ","prefecture_code":28},"5147":{"zip_code":"6795147","prefecture":"兵庫県","prefecture_kana":"ヒョウゴケン","city":"佐用郡佐用町","city_kana":"サヨウグンサヨウチョウ","town":"末廣","town_kana":"スエヒロ","prefecture_code":28},"5532":{"zip_code":"6795532","prefecture":"兵庫県","prefecture_kana":"ヒョウゴケン","city":"佐用郡佐用町","city_kana":"サヨウグンサヨウチョウ","town":"須安","town_kana":"スヤス","prefecture_code":28},"5201":{"zip_code":"6795201","prefecture":"兵庫県","prefecture_kana":"ヒョウゴケン","city":"佐用郡佐用町","city_kana":"サヨウグンサヨウチョウ","town":"多賀","town_kana":"タガ","prefecture_code":28},"5142":{"zip_code":"6795142","prefecture":"兵庫県","prefecture_kana":"ヒョウゴケン","city":"佐用郡佐用町","city_kana":"サヨウグンサヨウチョウ","town":"弦谷","town_kana":"ツルダニ","prefecture_code":28},"5206":{"zip_code":"6795206","prefecture":"兵庫県","prefecture_kana":"ヒョウゴケン","city":"佐用郡佐用町","city_kana":"サヨウグンサヨウチョウ","town":"土井","town_kana":"ドイ","prefecture_code":28},"5316":{"zip_code":"6795316","prefecture":"兵庫県","prefecture_kana":"ヒョウゴケン","city":"佐用郡佐用町","city_kana":"サヨウグンサヨウチョウ","town":"豊福","town_kana":"トヨフク","prefecture_code":28},"5202":{"zip_code":"6795202","prefecture":"兵庫県","prefecture_kana":"ヒョウゴケン","city":"佐用郡佐用町","city_kana":"サヨウグンサヨウチョウ","town":"中島","town_kana":"ナカシマ","prefecture_code":28},"5224":{"zip_code":"6795224","prefecture":"兵庫県","prefecture_kana":"ヒョウゴケン","city":"佐用郡佐用町","city_kana":"サヨウグンサヨウチョウ","town":"中三河","town_kana":"ナカミカワ","prefecture_code":28},"5305":{"zip_code":"6795305","prefecture":"兵庫県","prefecture_kana":"ヒョウゴケン","city":"佐用郡佐用町","city_kana":"サヨウグンサヨウチョウ","town":"長尾","town_kana":"ナガオ","prefecture_code":28},"5522":{"zip_code":"6795522","prefecture":"兵庫県","prefecture_kana":"ヒョウゴケン","city":"佐用郡佐用町","city_kana":"サヨウグンサヨウチョウ","town":"仁位","town_kana":"ニイ","prefecture_code":28},"5312":{"zip_code":"6795312","prefecture":"兵庫県","prefecture_kana":"ヒョウゴケン","city":"佐用郡佐用町","city_kana":"サヨウグンサヨウチョウ","town":"仁方","town_kana":"ニガタ","prefecture_code":28},"5534":{"zip_code":"6795534","prefecture":"兵庫県","prefecture_kana":"ヒョウゴケン","city":"佐用郡佐用町","city_kana":"サヨウグンサヨウチョウ","town":"西大畠","town_kana":"ニシオオバタケ","prefecture_code":28},"5313":{"zip_code":"6795313","prefecture":"兵庫県","prefecture_kana":"ヒョウゴケン","city":"佐用郡佐用町","city_kana":"サヨウグンサヨウチョウ","town":"西河内","town_kana":"ニシガイチ","prefecture_code":28},"5222":{"zip_code":"6795222","prefecture":"兵庫県","prefecture_kana":"ヒョウゴケン","city":"佐用郡佐用町","city_kana":"サヨウグンサヨウチョウ","town":"西下野","town_kana":"ニシシモノ","prefecture_code":28},"5645":{"zip_code":"6795645","prefecture":"兵庫県","prefecture_kana":"ヒョウゴケン","city":"佐用郡佐用町","city_kana":"サヨウグンサヨウチョウ","town":"西新宿","town_kana":"ニシシンジュク","prefecture_code":28},"5214":{"zip_code":"6795214","prefecture":"兵庫県","prefecture_kana":"ヒョウゴケン","city":"佐用郡佐用町","city_kana":"サヨウグンサヨウチョウ","town":"西徳久","town_kana":"ニシトクサ","prefecture_code":28},"5134":{"zip_code":"6795134","prefecture":"兵庫県","prefecture_kana":"ヒョウゴケン","city":"佐用郡佐用町","city_kana":"サヨウグンサヨウチョウ","town":"乃井野","town_kana":"ノイノ","prefecture_code":28},"5332":{"zip_code":"6795332","prefecture":"兵庫県","prefecture_kana":"ヒョウゴケン","city":"佐用郡佐用町","city_kana":"サヨウグンサヨウチョウ","town":"延吉","town_kana":"ノブヨシ","prefecture_code":28},"5212":{"zip_code":"6795212","prefecture":"兵庫県","prefecture_kana":"ヒョウゴケン","city":"佐用郡佐用町","city_kana":"サヨウグンサヨウチョウ","town":"林崎","town_kana":"ハヤシサキ","prefecture_code":28},"5521":{"zip_code":"6795521","prefecture":"兵庫県","prefecture_kana":"ヒョウゴケン","city":"佐用郡佐用町","city_kana":"サヨウグンサヨウチョウ","town":"早瀬","town_kana":"ハヤセ","prefecture_code":28},"5135":{"zip_code":"6795135","prefecture":"兵庫県","prefecture_kana":"ヒョウゴケン","city":"佐用郡佐用町","city_kana":"サヨウグンサヨウチョウ","town":"春哉","town_kana":"ハルカナ","prefecture_code":28},"5213":{"zip_code":"6795213","prefecture":"兵庫県","prefecture_kana":"ヒョウゴケン","city":"佐用郡佐用町","city_kana":"サヨウグンサヨウチョウ","town":"東徳久","town_kana":"ヒガシトクサ","prefecture_code":28},"5318":{"zip_code":"6795318","prefecture":"兵庫県","prefecture_kana":"ヒョウゴケン","city":"佐用郡佐用町","city_kana":"サヨウグンサヨウチョウ","town":"東中山","town_kana":"ヒガシナカヤマ","prefecture_code":28},"5331":{"zip_code":"6795331","prefecture":"兵庫県","prefecture_kana":"ヒョウゴケン","city":"佐用郡佐用町","city_kana":"サヨウグンサヨウチョウ","town":"平福","town_kana":"ヒラフク","prefecture_code":28},"5215":{"zip_code":"6795215","prefecture":"兵庫県","prefecture_kana":"ヒョウゴケン","city":"佐用郡佐用町","city_kana":"サヨウグンサヨウチョウ","town":"平松","town_kana":"ヒラマツ","prefecture_code":28},"5141":{"zip_code":"6795141","prefecture":"兵庫県","prefecture_kana":"ヒョウゴケン","city":"佐用郡佐用町","city_kana":"サヨウグンサヨウチョウ","town":"廣山","town_kana":"ヒロヤマ","prefecture_code":28},"5311":{"zip_code":"6795311","prefecture":"兵庫県","prefecture_kana":"ヒョウゴケン","city":"佐用郡佐用町","city_kana":"サヨウグンサヨウチョウ","town":"福沢","town_kana":"フクサワ","prefecture_code":28},"5511":{"zip_code":"6795511","prefecture":"兵庫県","prefecture_kana":"ヒョウゴケン","city":"佐用郡佐用町","city_kana":"サヨウグンサヨウチョウ","town":"福中","town_kana":"フクナカ","prefecture_code":28},"5514":{"zip_code":"6795514","prefecture":"兵庫県","prefecture_kana":"ヒョウゴケン","city":"佐用郡佐用町","city_kana":"サヨウグンサヨウチョウ","town":"福吉","town_kana":"フクヨシ","prefecture_code":28},"5227":{"zip_code":"6795227","prefecture":"兵庫県","prefecture_kana":"ヒョウゴケン","city":"佐用郡佐用町","city_kana":"サヨウグンサヨウチョウ","town":"船越","town_kana":"フナコシ","prefecture_code":28},"5207":{"zip_code":"6795207","prefecture":"兵庫県","prefecture_kana":"ヒョウゴケン","city":"佐用郡佐用町","city_kana":"サヨウグンサヨウチョウ","town":"宝蔵寺","town_kana":"ホウゾウジ","prefecture_code":28},"5306":{"zip_code":"6795306","prefecture":"兵庫県","prefecture_kana":"ヒョウゴケン","city":"佐用郡佐用町","city_kana":"サヨウグンサヨウチョウ","town":"本位田","town_kana":"ホンイデン","prefecture_code":28},"5503":{"zip_code":"6795503","prefecture":"兵庫県","prefecture_kana":"ヒョウゴケン","city":"佐用郡佐用町","city_kana":"サヨウグンサヨウチョウ","town":"本郷","town_kana":"ホンゴウ","prefecture_code":28},"5335":{"zip_code":"6795335","prefecture":"兵庫県","prefecture_kana":"ヒョウゴケン","city":"佐用郡佐用町","city_kana":"サヨウグンサヨウチョウ","town":"海内","town_kana":"ミウチ","prefecture_code":28},"5133":{"zip_code":"6795133","prefecture":"兵庫県","prefecture_kana":"ヒョウゴケン","city":"佐用郡佐用町","city_kana":"サヨウグンサヨウチョウ","town":"三日月","town_kana":"ミカヅキ","prefecture_code":28},"5325":{"zip_code":"6795325","prefecture":"兵庫県","prefecture_kana":"ヒョウゴケン","city":"佐用郡佐用町","city_kana":"サヨウグンサヨウチョウ","town":"水根","town_kana":"ミズネ","prefecture_code":28},"5144":{"zip_code":"6795144","prefecture":"兵庫県","prefecture_kana":"ヒョウゴケン","city":"佐用郡佐用町","city_kana":"サヨウグンサヨウチョウ","town":"三ツ尾","town_kana":"ミツオ","prefecture_code":28},"5512":{"zip_code":"6795512","prefecture":"兵庫県","prefecture_kana":"ヒョウゴケン","city":"佐用郡佐用町","city_kana":"サヨウグンサヨウチョウ","town":"南中山","town_kana":"ミナミナカヤマ","prefecture_code":28},"5143":{"zip_code":"6795143","prefecture":"兵庫県","prefecture_kana":"ヒョウゴケン","city":"佐用郡佐用町","city_kana":"サヨウグンサヨウチョウ","town":"三原","town_kana":"ミハラ","prefecture_code":28},"5342":{"zip_code":"6795342","prefecture":"兵庫県","prefecture_kana":"ヒョウゴケン","city":"佐用郡佐用町","city_kana":"サヨウグンサヨウチョウ","town":"宗行","town_kana":"ムネユキ","prefecture_code":28},"5525":{"zip_code":"6795525","prefecture":"兵庫県","prefecture_kana":"ヒョウゴケン","city":"佐用郡佐用町","city_kana":"サヨウグンサヨウチョウ","town":"目高","town_kana":"メタカ","prefecture_code":28},"5205":{"zip_code":"6795205","prefecture":"兵庫県","prefecture_kana":"ヒョウゴケン","city":"佐用郡佐用町","city_kana":"サヨウグンサヨウチョウ","town":"安川","town_kana":"ヤスカワ","prefecture_code":28},"5304":{"zip_code":"6795304","prefecture":"兵庫県","prefecture_kana":"ヒョウゴケン","city":"佐用郡佐用町","city_kana":"サヨウグンサヨウチョウ","town":"山田","town_kana":"ヤマダ","prefecture_code":28},"5302":{"zip_code":"6795302","prefecture":"兵庫県","prefecture_kana":"ヒョウゴケン","city":"佐用郡佐用町","city_kana":"サヨウグンサヨウチョウ","town":"山脇","town_kana":"ヤマワキ","prefecture_code":28},"5341":{"zip_code":"6795341","prefecture":"兵庫県","prefecture_kana":"ヒョウゴケン","city":"佐用郡佐用町","city_kana":"サヨウグンサヨウチョウ","town":"横坂","town_kana":"ヨコサカ","prefecture_code":28},"5315":{"zip_code":"6795315","prefecture":"兵庫県","prefecture_kana":"ヒョウゴケン","city":"佐用郡佐用町","city_kana":"サヨウグンサヨウチョウ","town":"淀","town_kana":"ヨド","prefecture_code":28},"5203":{"zip_code":"6795203","prefecture":"兵庫県","prefecture_kana":"ヒョウゴケン","city":"佐用郡佐用町","city_kana":"サヨウグンサヨウチョウ","town":"米田","town_kana":"ヨネダ","prefecture_code":28},"5524":{"zip_code":"6795524","prefecture":"兵庫県","prefecture_kana":"ヒョウゴケン","city":"佐用郡佐用町","city_kana":"サヨウグンサヨウチョウ","town":"寄延","town_kana":"ヨリノブ","prefecture_code":28},"5533":{"zip_code":"6795533","prefecture":"兵庫県","prefecture_kana":"ヒョウゴケン","city":"佐用郡佐用町","city_kana":"サヨウグンサヨウチョウ","town":"力万","town_kana":"リキマン","prefecture_code":28},"5323":{"zip_code":"6795323","prefecture":"兵庫県","prefecture_kana":"ヒョウゴケン","city":"佐用郡佐用町","city_kana":"サヨウグンサヨウチョウ","town":"若州","town_kana":"ワカス","prefecture_code":28}}