{"0000":{"zip_code":"6800000","prefecture":"鳥取県","prefecture_kana":"トットリケン","city":"鳥取市","city_kana":"トットリシ","town":"以下に掲載がない場合","town_kana":"イカニケイサイガナイバアイ","prefecture_code":31},"0805":{"zip_code":"6800805","prefecture":"鳥取県","prefecture_kana":"トットリケン","city":"鳥取市","city_kana":"トットリシ","town":"相生町","town_kana":"アイオイチョウ","prefecture_code":31},"0802":{"zip_code":"6800802","prefecture":"鳥取県","prefecture_kana":"トットリケン","city":"鳥取市","city_kana":"トットリシ","town":"青葉町","town_kana":"アオバチョウ","prefecture_code":31},"0902":{"zip_code":"6800902","prefecture":"鳥取県","prefecture_kana":"トットリケン","city":"鳥取市","city_kana":"トットリシ","town":"秋里","town_kana":"アキサト","prefecture_code":31},"1146":{"zip_code":"6801146","prefecture":"鳥取県","prefecture_kana":"トットリケン","city":"鳥取市","city_kana":"トットリシ","town":"赤子田","town_kana":"アコダ","prefecture_code":31},"1166":{"zip_code":"6801166","prefecture":"鳥取県","prefecture_kana":"トットリケン","city":"鳥取市","city_kana":"トットリシ","town":"朝月","town_kana":"アサヅキ","prefecture_code":31},"1176":{"zip_code":"6801176","prefecture":"鳥取県","prefecture_kana":"トットリケン","city":"鳥取市","city_kana":"トットリシ","town":"有富","town_kana":"アリドメ","prefecture_code":31},"1164":{"zip_code":"6801164","prefecture":"鳥取県","prefecture_kana":"トットリケン","city":"鳥取市","city_kana":"トットリシ","town":"猪子","town_kana":"イノコ","prefecture_code":31},"0822":{"zip_code":"6800822","prefecture":"鳥取県","prefecture_kana":"トットリケン","city":"鳥取市","city_kana":"トットリシ","town":"今町","town_kana":"イママチ","prefecture_code":31},"0081":{"zip_code":"6800081","prefecture":"鳥取県","prefecture_kana":"トットリケン","city":"鳥取市","city_kana":"トットリシ","town":"岩倉","town_kana":"イワクラ","prefecture_code":31},"1157":{"zip_code":"6801157","prefecture":"鳥取県","prefecture_kana":"トットリケン","city":"鳥取市","city_kana":"トットリシ","town":"岩坪","town_kana":"イワツボ","prefecture_code":31},"0931":{"zip_code":"6800931","prefecture":"鳥取県","prefecture_kana":"トットリケン","city":"鳥取市","city_kana":"トットリシ","town":"岩吉","town_kana":"イワヨシ","prefecture_code":31},"1422":{"zip_code":"6801422","prefecture":"鳥取県","prefecture_kana":"トットリケン","city":"鳥取市","city_kana":"トットリシ","town":"上原","town_kana":"ウエバラ","prefecture_code":31},"0015":{"zip_code":"6800015","prefecture":"鳥取県","prefecture_kana":"トットリケン","city":"鳥取市","city_kana":"トットリシ","town":"上町","town_kana":"ウエマチ","prefecture_code":31},"0834":{"zip_code":"6800834","prefecture":"鳥取県","prefecture_kana":"トットリケン","city":"鳥取市","city_kana":"トットリシ","town":"永楽温泉町","town_kana":"エイラクオンセンチョウ","prefecture_code":31},"0013":{"zip_code":"6800013","prefecture":"鳥取県","prefecture_kana":"トットリケン","city":"鳥取市","city_kana":"トットリシ","town":"江崎町","town_kana":"エザキチョウ","prefecture_code":31},"0901":{"zip_code":"6800901","prefecture":"鳥取県","prefecture_kana":"トットリケン","city":"鳥取市","city_kana":"トットリシ","town":"江津","town_kana":"エヅ","prefecture_code":31},"0055":{"zip_code":"6800055","prefecture":"鳥取県","prefecture_kana":"トットリケン","city":"鳥取市","city_kana":"トットリシ","town":"戎町","town_kana":"エビスマチ","prefecture_code":31},"0005":{"zip_code":"6800005","prefecture":"鳥取県","prefecture_kana":"トットリケン","city":"鳥取市","city_kana":"トットリシ","town":"円護寺","town_kana":"エンゴジ","prefecture_code":31},"1144":{"zip_code":"6801144","prefecture":"鳥取県","prefecture_kana":"トットリケン","city":"鳥取市","city_kana":"トットリシ","town":"円通寺","town_kana":"エンツウジ","prefecture_code":31},"0846":{"zip_code":"6800846","prefecture":"鳥取県","prefecture_kana":"トットリケン","city":"鳥取市","city_kana":"トットリシ","town":"扇町","town_kana":"オウギマチ","prefecture_code":31},"0043":{"zip_code":"6800043","prefecture":"鳥取県","prefecture_kana":"トットリケン","city":"鳥取市","city_kana":"トットリシ","town":"大榎町","town_kana":"オオエノキチョウ","prefecture_code":31},"0851":{"zip_code":"6800851","prefecture":"鳥取県","prefecture_kana":"トットリケン","city":"鳥取市","city_kana":"トットリシ","town":"大杙","town_kana":"オオクイ","prefecture_code":31},"1415":{"zip_code":"6801415","prefecture":"鳥取県","prefecture_kana":"トットリケン","city":"鳥取市","city_kana":"トットリシ","town":"大塚","town_kana":"オオヅカ","prefecture_code":31},"1437":{"zip_code":"6801437","prefecture":"鳥取県","prefecture_kana":"トットリケン","city":"鳥取市","city_kana":"トットリシ","town":"大畑","town_kana":"オオバタケ","prefecture_code":31},"0904":{"zip_code":"6800904","prefecture":"鳥取県","prefecture_kana":"トットリケン","city":"鳥取市","city_kana":"トットリシ","town":"晩稲","town_kana":"オクテ","prefecture_code":31},"0054":{"zip_code":"6800054","prefecture":"鳥取県","prefecture_kana":"トットリケン","city":"鳥取市","city_kana":"トットリシ","town":"桶屋町","town_kana":"オケヤマチ","prefecture_code":31},"1427":{"zip_code":"6801427","prefecture":"鳥取県","prefecture_kana":"トットリケン","city":"鳥取市","city_kana":"トットリシ","town":"尾崎","town_kana":"オサキ","prefecture_code":31},"0855":{"zip_code":"6800855","prefecture":"鳥取県","prefecture_kana":"トットリケン","city":"鳥取市","city_kana":"トットリシ","town":"面影","town_kana":"オモカゲ","prefecture_code":31},"0044":{"zip_code":"6800044","prefecture":"鳥取県","prefecture_kana":"トットリケン","city":"鳥取市","city_kana":"トットリシ","town":"御弓町","town_kana":"オユミノチョウ","prefecture_code":31},"0003":{"zip_code":"6800003","prefecture":"鳥取県","prefecture_kana":"トットリケン","city":"鳥取市","city_kana":"トットリシ","town":"覚寺","town_kana":"カクジ","prefecture_code":31},"0041":{"zip_code":"6800041","prefecture":"鳥取県","prefecture_kana":"トットリケン","city":"鳥取市","city_kana":"トットリシ","town":"掛出町","town_kana":"カケダシチョウ","prefecture_code":31},"0052":{"zip_code":"6800052","prefecture":"鳥取県","prefecture_kana":"トットリケン","city":"鳥取市","city_kana":"トットリシ","town":"鍛冶町","town_kana":"カジマチ","prefecture_code":31},"0023":{"zip_code":"6800023","prefecture":"鳥取県","prefecture_kana":"トットリケン","city":"鳥取市","city_kana":"トットリシ","town":"片原","town_kana":"カタハラ","prefecture_code":31},"1417":{"zip_code":"6801417","prefecture":"鳥取県","prefecture_kana":"トットリケン","city":"鳥取市","city_kana":"トットリシ","town":"桂見","town_kana":"カツラミ","prefecture_code":31},"1439":{"zip_code":"6801439","prefecture":"鳥取県","prefecture_kana":"トットリケン","city":"鳥取市","city_kana":"トットリシ","town":"金沢","town_kana":"カナザワ","prefecture_code":31},"0874":{"zip_code":"6800874","prefecture":"鳥取県","prefecture_kana":"トットリケン","city":"鳥取市","city_kana":"トットリシ","town":"叶","town_kana":"カノウ","prefecture_code":31},"1167":{"zip_code":"6801167","prefecture":"鳥取県","prefecture_kana":"トットリケン","city":"鳥取市","city_kana":"トットリシ","town":"上味野","town_kana":"カミアジノ","prefecture_code":31},"0047":{"zip_code":"6800047","prefecture":"鳥取県","prefecture_kana":"トットリケン","city":"鳥取市","city_kana":"トットリシ","town":"上魚町","town_kana":"カミウオマチ","prefecture_code":31},"1156":{"zip_code":"6801156","prefecture":"鳥取県","prefecture_kana":"トットリケン","city":"鳥取市","city_kana":"トットリシ","town":"上砂見","town_kana":"カミスナミ","prefecture_code":31},"1421":{"zip_code":"6801421","prefecture":"鳥取県","prefecture_kana":"トットリケン","city":"鳥取市","city_kana":"トットリシ","town":"上段","town_kana":"カミダン","prefecture_code":31},"0905":{"zip_code":"6800905","prefecture":"鳥取県","prefecture_kana":"トットリケン","city":"鳥取市","city_kana":"トットリシ","town":"賀露町","town_kana":"カロチョウ","prefecture_code":31},"0907":{"zip_code":"6800907","prefecture":"鳥取県","prefecture_kana":"トットリケン","city":"鳥取市","city_kana":"トットリシ","town":"賀露町北","town_kana":"カロチョウキタ","prefecture_code":31},"0908":{"zip_code":"6800908","prefecture":"鳥取県","prefecture_kana":"トットリケン","city":"鳥取市","city_kana":"トットリシ","town":"賀露町西","town_kana":"カロチョウニシ","prefecture_code":31},"0909":{"zip_code":"6800909","prefecture":"鳥取県","prefecture_kana":"トットリケン","city":"鳥取市","city_kana":"トットリシ","town":"賀露町南","town_kana":"カロチョウミナミ","prefecture_code":31},"0036":{"zip_code":"6800036","prefecture":"鳥取県","prefecture_kana":"トットリケン","city":"鳥取市","city_kana":"トットリシ","town":"川端","town_kana":"カワバタ","prefecture_code":31},"1208":{"zip_code":"6801208","prefecture":"鳥取県","prefecture_kana":"トットリケン","city":"鳥取市","city_kana":"トットリシ","town":"河原町鮎ケ丘","town_kana":"カワハラチョウアユガオカ","prefecture_code":31},"1203":{"zip_code":"6801203","prefecture":"鳥取県","prefecture_kana":"トットリケン","city":"鳥取市","city_kana":"トットリシ","town":"河原町稲常","town_kana":"カワハラチョウイナツネ","prefecture_code":31},"1205":{"zip_code":"6801205","prefecture":"鳥取県","prefecture_kana":"トットリケン","city":"鳥取市","city_kana":"トットリシ","town":"河原町今在家","town_kana":"カワハラチョウイマザイケ","prefecture_code":31},"1225":{"zip_code":"6801225","prefecture":"鳥取県","prefecture_kana":"トットリケン","city":"鳥取市","city_kana":"トットリシ","town":"河原町牛戸","town_kana":"カワハラチョウウシト","prefecture_code":31},"1245":{"zip_code":"6801245","prefecture":"鳥取県","prefecture_kana":"トットリケン","city":"鳥取市","city_kana":"トットリシ","town":"河原町小倉","town_kana":"カワハラチョウオグラ","prefecture_code":31},"1253":{"zip_code":"6801253","prefecture":"鳥取県","prefecture_kana":"トットリケン","city":"鳥取市","city_kana":"トットリシ","town":"河原町小河内","town_kana":"カワハラチョウオゴウチ","prefecture_code":31},"1232":{"zip_code":"6801232","prefecture":"鳥取県","prefecture_kana":"トットリケン","city":"鳥取市","city_kana":"トットリシ","town":"河原町小畑","town_kana":"カワハラチョウオバタ","prefecture_code":31},"1204":{"zip_code":"6801204","prefecture":"鳥取県","prefecture_kana":"トットリケン","city":"鳥取市","city_kana":"トットリシ","town":"河原町片山","town_kana":"カワハラチョウカタヤマ","prefecture_code":31},"1216":{"zip_code":"6801216","prefecture":"鳥取県","prefecture_kana":"トットリケン","city":"鳥取市","city_kana":"トットリシ","town":"河原町釜口","town_kana":"カワハラチョウカマグチ","prefecture_code":31},"1251":{"zip_code":"6801251","prefecture":"鳥取県","prefecture_kana":"トットリケン","city":"鳥取市","city_kana":"トットリシ","town":"河原町河原","town_kana":"カワハラチョウカワハラ","prefecture_code":31},"1254":{"zip_code":"6801254","prefecture":"鳥取県","prefecture_kana":"トットリケン","city":"鳥取市","city_kana":"トットリシ","town":"河原町神馬","town_kana":"カワハラチョウカンバ","prefecture_code":31},"1234":{"zip_code":"6801234","prefecture":"鳥取県","prefecture_kana":"トットリケン","city":"鳥取市","city_kana":"トットリシ","town":"河原町北村","town_kana":"カワハラチョウキタムラ","prefecture_code":31},"1207":{"zip_code":"6801207","prefecture":"鳥取県","prefecture_kana":"トットリケン","city":"鳥取市","city_kana":"トットリシ","town":"河原町郷原","town_kana":"カワハラチョウゴウバラ","prefecture_code":31},"1243":{"zip_code":"6801243","prefecture":"鳥取県","prefecture_kana":"トットリケン","city":"鳥取市","city_kana":"トットリシ","town":"河原町佐貫","town_kana":"カワハラチョウサヌキ","prefecture_code":31},"1213":{"zip_code":"6801213","prefecture":"鳥取県","prefecture_kana":"トットリケン","city":"鳥取市","city_kana":"トットリシ","town":"河原町高福","town_kana":"カワハラチョウタカフク","prefecture_code":31},"1242":{"zip_code":"6801242","prefecture":"鳥取県","prefecture_kana":"トットリケン","city":"鳥取市","city_kana":"トットリシ","town":"河原町谷一木","town_kana":"カワハラチョウタニヒトツギ","prefecture_code":31},"1223":{"zip_code":"6801223","prefecture":"鳥取県","prefecture_kana":"トットリケン","city":"鳥取市","city_kana":"トットリシ","town":"河原町天神原","town_kana":"カワハラチョウテンジンバラ","prefecture_code":31},"1212":{"zip_code":"6801212","prefecture":"鳥取県","prefecture_kana":"トットリケン","city":"鳥取市","city_kana":"トットリシ","town":"河原町徳吉","town_kana":"カワハラチョウトクヨシ","prefecture_code":31},"1224":{"zip_code":"6801224","prefecture":"鳥取県","prefecture_kana":"トットリケン","city":"鳥取市","city_kana":"トットリシ","town":"河原町中井","town_kana":"カワハラチョウナカイ","prefecture_code":31},"1241":{"zip_code":"6801241","prefecture":"鳥取県","prefecture_kana":"トットリケン","city":"鳥取市","city_kana":"トットリシ","town":"河原町長瀬","town_kana":"カワハラチョウナガセ","prefecture_code":31},"1222":{"zip_code":"6801222","prefecture":"鳥取県","prefecture_kana":"トットリケン","city":"鳥取市","city_kana":"トットリシ","town":"河原町曳田","town_kana":"カワハラチョウヒケタ","prefecture_code":31},"1201":{"zip_code":"6801201","prefecture":"鳥取県","prefecture_kana":"トットリケン","city":"鳥取市","city_kana":"トットリシ","town":"河原町袋河原","town_kana":"カワハラチョウフクロガワラ","prefecture_code":31},"1202":{"zip_code":"6801202","prefecture":"鳥取県","prefecture_kana":"トットリケン","city":"鳥取市","city_kana":"トットリシ","town":"河原町布袋","town_kana":"カワハラチョウホテイ","prefecture_code":31},"1252":{"zip_code":"6801252","prefecture":"鳥取県","prefecture_kana":"トットリケン","city":"鳥取市","city_kana":"トットリシ","town":"河原町本鹿","town_kana":"カワハラチョウホンガ","prefecture_code":31},"1244":{"zip_code":"6801244","prefecture":"鳥取県","prefecture_kana":"トットリケン","city":"鳥取市","city_kana":"トットリシ","town":"河原町水根","town_kana":"カワハラチョウミズネ","prefecture_code":31},"1206":{"zip_code":"6801206","prefecture":"鳥取県","prefecture_kana":"トットリケン","city":"鳥取市","city_kana":"トットリシ","town":"河原町三谷","town_kana":"カワハラチョウミタニ","prefecture_code":31},"1246":{"zip_code":"6801246","prefecture":"鳥取県","prefecture_kana":"トットリケン","city":"鳥取市","city_kana":"トットリシ","town":"河原町山上","town_kana":"カワハラチョウヤマガミ","prefecture_code":31},"1211":{"zip_code":"6801211","prefecture":"鳥取県","prefecture_kana":"トットリケン","city":"鳥取市","city_kana":"トットリシ","town":"河原町山手","town_kana":"カワハラチョウヤマテ","prefecture_code":31},"1231":{"zip_code":"6801231","prefecture":"鳥取県","prefecture_kana":"トットリケン","city":"鳥取市","city_kana":"トットリシ","town":"河原町湯谷","town_kana":"カワハラチョウユダニ","prefecture_code":31},"1233":{"zip_code":"6801233","prefecture":"鳥取県","prefecture_kana":"トットリケン","city":"鳥取市","city_kana":"トットリシ","town":"河原町弓河内","town_kana":"カワハラチョウユミゴウチ","prefecture_code":31},"1214":{"zip_code":"6801214","prefecture":"鳥取県","prefecture_kana":"トットリケン","city":"鳥取市","city_kana":"トットリシ","town":"河原町八日市","town_kana":"カワハラチョウヨウカイチ","prefecture_code":31},"1221":{"zip_code":"6801221","prefecture":"鳥取県","prefecture_kana":"トットリケン","city":"鳥取市","city_kana":"トットリシ","town":"河原町渡一木","town_kana":"カワハラチョウワタリヒトツギ","prefecture_code":31},"1215":{"zip_code":"6801215","prefecture":"鳥取県","prefecture_kana":"トットリケン","city":"鳥取市","city_kana":"トットリシ","town":"河原町和奈見","town_kana":"カワハラチョウワナミ","prefecture_code":31},"0821":{"zip_code":"6800821","prefecture":"鳥取県","prefecture_kana":"トットリケン","city":"鳥取市","city_kana":"トットリシ","town":"瓦町","town_kana":"カワラマチ","prefecture_code":31},"0004":{"zip_code":"6800004","prefecture":"鳥取県","prefecture_kana":"トットリケン","city":"鳥取市","city_kana":"トットリシ","town":"北園","town_kana":"キタゾノ","prefecture_code":31},"1172":{"zip_code":"6801172","prefecture":"鳥取県","prefecture_kana":"トットリケン","city":"鳥取市","city_kana":"トットリシ","town":"北村","town_kana":"キタムラ","prefecture_code":31},"0824":{"zip_code":"6800824","prefecture":"鳥取県","prefecture_kana":"トットリケン","city":"鳥取市","city_kana":"トットリシ","town":"行徳","town_kana":"ギョウトク","prefecture_code":31},"1132":{"zip_code":"6801132","prefecture":"鳥取県","prefecture_kana":"トットリケン","city":"鳥取市","city_kana":"トットリシ","town":"国安","town_kana":"クニヤス","prefecture_code":31},"0862":{"zip_code":"6800862","prefecture":"鳥取県","prefecture_kana":"トットリケン","city":"鳥取市","city_kana":"トットリシ","town":"雲山","town_kana":"クモヤマ","prefecture_code":31},"1141":{"zip_code":"6801141","prefecture":"鳥取県","prefecture_kana":"トットリケン","city":"鳥取市","city_kana":"トットリシ","town":"蔵田","town_kana":"クラダ","prefecture_code":31},"0012":{"zip_code":"6800012","prefecture":"鳥取県","prefecture_kana":"トットリケン","city":"鳥取市","city_kana":"トットリシ","town":"栗谷町","town_kana":"クリタニチョウ","prefecture_code":31},"0024":{"zip_code":"6800024","prefecture":"鳥取県","prefecture_kana":"トットリケン","city":"鳥取市","city_kana":"トットリシ","town":"玄好町","town_kana":"ゲンコウチョウ","prefecture_code":31},"1133":{"zip_code":"6801133","prefecture":"鳥取県","prefecture_kana":"トットリケン","city":"鳥取市","city_kana":"トットリシ","town":"源太","town_kana":"ゲンタ","prefecture_code":31},"1425":{"zip_code":"6801425","prefecture":"鳥取県","prefecture_kana":"トットリケン","city":"鳥取市","city_kana":"トットリシ","town":"河内","town_kana":"コウチ","prefecture_code":31},"0844":{"zip_code":"6800844","prefecture":"鳥取県","prefecture_kana":"トットリケン","city":"鳥取市","city_kana":"トットリシ","town":"興南町","town_kana":"コウナンチョウ","prefecture_code":31},"1177":{"zip_code":"6801177","prefecture":"鳥取県","prefecture_kana":"トットリケン","city":"鳥取市","city_kana":"トットリシ","town":"高路","town_kana":"コウロ","prefecture_code":31},"0142":{"zip_code":"6800142","prefecture":"鳥取県","prefecture_kana":"トットリケン","city":"鳥取市","city_kana":"トットリシ","town":"国府町麻生","town_kana":"コクフチョウアソウ","prefecture_code":31},"0201":{"zip_code":"6800201","prefecture":"鳥取県","prefecture_kana":"トットリケン","city":"鳥取市","city_kana":"トットリシ","town":"国府町雨滝","town_kana":"コクフチョウアメダキ","prefecture_code":31},"0216":{"zip_code":"6800216","prefecture":"鳥取県","prefecture_kana":"トットリケン","city":"鳥取市","city_kana":"トットリシ","town":"国府町荒舟","town_kana":"コクフチョウアラフネ","prefecture_code":31},"0136":{"zip_code":"6800136","prefecture":"鳥取県","prefecture_kana":"トットリケン","city":"鳥取市","city_kana":"トットリシ","town":"国府町糸谷","town_kana":"コクフチョウイトタニ","prefecture_code":31},"8062":{"zip_code":"6808062","prefecture":"鳥取県","prefecture_kana":"トットリケン","city":"鳥取市","city_kana":"トットリシ","town":"国府町稲葉丘","town_kana":"コクフチョウイナバガオカ","prefecture_code":31},"0202":{"zip_code":"6800202","prefecture":"鳥取県","prefecture_kana":"トットリケン","city":"鳥取市","city_kana":"トットリシ","town":"国府町石井谷","town_kana":"コクフチョウイワイダニ","prefecture_code":31},"0203":{"zip_code":"6800203","prefecture":"鳥取県","prefecture_kana":"トットリケン","city":"鳥取市","city_kana":"トットリシ","town":"国府町大石","town_kana":"コクフチョウオオイシ","prefecture_code":31},"0144":{"zip_code":"6800144","prefecture":"鳥取県","prefecture_kana":"トットリケン","city":"鳥取市","city_kana":"トットリシ","town":"国府町岡益","town_kana":"コクフチョウオカマス","prefecture_code":31},"8063":{"zip_code":"6808063","prefecture":"鳥取県","prefecture_kana":"トットリケン","city":"鳥取市","city_kana":"トットリシ","town":"国府町奥谷","town_kana":"コクフチョウオクダニ","prefecture_code":31},"0214":{"zip_code":"6800214","prefecture":"鳥取県","prefecture_kana":"トットリケン","city":"鳥取市","city_kana":"トットリシ","town":"国府町上荒舟","town_kana":"コクフチョウカミアラフネ","prefecture_code":31},"0213":{"zip_code":"6800213","prefecture":"鳥取県","prefecture_kana":"トットリケン","city":"鳥取市","city_kana":"トットリシ","town":"国府町上上地","town_kana":"コクフチョウカミワジ","prefecture_code":31},"0221":{"zip_code":"6800221","prefecture":"鳥取県","prefecture_kana":"トットリケン","city":"鳥取市","city_kana":"トットリシ","town":"国府町神護","town_kana":"コクフチョウカンゴ","prefecture_code":31},"0208":{"zip_code":"6800208","prefecture":"鳥取県","prefecture_kana":"トットリケン","city":"鳥取市","city_kana":"トットリシ","town":"国府町木原","town_kana":"コクフチョウキハラ","prefecture_code":31},"0132":{"zip_code":"6800132","prefecture":"鳥取県","prefecture_kana":"トットリケン","city":"鳥取市","city_kana":"トットリシ","town":"国府町神垣","town_kana":"コクフチョウコウガケ","prefecture_code":31},"0155":{"zip_code":"6800155","prefecture":"鳥取県","prefecture_kana":"トットリケン","city":"鳥取市","city_kana":"トットリシ","town":"国府町国分寺","town_kana":"コクフチョウコクブンジ","prefecture_code":31},"0154":{"zip_code":"6800154","prefecture":"鳥取県","prefecture_kana":"トットリケン","city":"鳥取市","city_kana":"トットリシ","town":"国府町三代寺","town_kana":"コクフチョウサンダイジ","prefecture_code":31},"0205":{"zip_code":"6800205","prefecture":"鳥取県","prefecture_kana":"トットリケン","city":"鳥取市","city_kana":"トットリシ","town":"国府町拾石","town_kana":"コクフチョウジッコク","prefecture_code":31},"0207":{"zip_code":"6800207","prefecture":"鳥取県","prefecture_kana":"トットリケン","city":"鳥取市","city_kana":"トットリシ","town":"国府町下木原","town_kana":"コクフチョウシモキハラ","prefecture_code":31},"8066":{"zip_code":"6808066","prefecture":"鳥取県","prefecture_kana":"トットリケン","city":"鳥取市","city_kana":"トットリシ","town":"国府町新通り","town_kana":"コクフチョウシンドオリ","prefecture_code":31},"8065":{"zip_code":"6808065","prefecture":"鳥取県","prefecture_kana":"トットリケン","city":"鳥取市","city_kana":"トットリシ","town":"国府町新町","town_kana":"コクフチョウシンマチ","prefecture_code":31},"0211":{"zip_code":"6800211","prefecture":"鳥取県","prefecture_kana":"トットリケン","city":"鳥取市","city_kana":"トットリシ","town":"国府町菅野","town_kana":"コクフチョウスガノ","prefecture_code":31},"0134":{"zip_code":"6800134","prefecture":"鳥取県","prefecture_kana":"トットリケン","city":"鳥取市","city_kana":"トットリシ","town":"国府町清水","town_kana":"コクフチョウスンズ","prefecture_code":31},"0131":{"zip_code":"6800131","prefecture":"鳥取県","prefecture_kana":"トットリケン","city":"鳥取市","city_kana":"トットリシ","town":"国府町高岡","town_kana":"コクフチョウタカオカ","prefecture_code":31},"0135":{"zip_code":"6800135","prefecture":"鳥取県","prefecture_kana":"トットリケン","city":"鳥取市","city_kana":"トットリシ","town":"国府町谷","town_kana":"コクフチョウタニ","prefecture_code":31},"0143":{"zip_code":"6800143","prefecture":"鳥取県","prefecture_kana":"トットリケン","city":"鳥取市","city_kana":"トットリシ","town":"国府町玉鉾","town_kana":"コクフチョウタマボコ","prefecture_code":31},"0156":{"zip_code":"6800156","prefecture":"鳥取県","prefecture_kana":"トットリケン","city":"鳥取市","city_kana":"トットリシ","town":"国府町中郷","town_kana":"コクフチョウチュウゴウ","prefecture_code":31},"0152":{"zip_code":"6800152","prefecture":"鳥取県","prefecture_kana":"トットリケン","city":"鳥取市","city_kana":"トットリシ","town":"国府町庁","town_kana":"コクフチョウチョウ","prefecture_code":31},"0206":{"zip_code":"6800206","prefecture":"鳥取県","prefecture_kana":"トットリケン","city":"鳥取市","city_kana":"トットリシ","town":"国府町栃本","town_kana":"コクフチョウトチモト","prefecture_code":31},"0222":{"zip_code":"6800222","prefecture":"鳥取県","prefecture_kana":"トットリケン","city":"鳥取市","city_kana":"トットリシ","town":"国府町殿","town_kana":"コクフチョウトノ","prefecture_code":31},"0223":{"zip_code":"6800223","prefecture":"鳥取県","prefecture_kana":"トットリケン","city":"鳥取市","city_kana":"トットリシ","town":"国府町中河原","town_kana":"コクフチョウナカガワラ","prefecture_code":31},"0204":{"zip_code":"6800204","prefecture":"鳥取県","prefecture_kana":"トットリケン","city":"鳥取市","city_kana":"トットリシ","town":"国府町楠城","town_kana":"コクフチョウナワシロ","prefecture_code":31},"0226":{"zip_code":"6800226","prefecture":"鳥取県","prefecture_kana":"トットリケン","city":"鳥取市","city_kana":"トットリシ","town":"国府町新井","town_kana":"コクフチョウニイ","prefecture_code":31},"0145":{"zip_code":"6800145","prefecture":"鳥取県","prefecture_kana":"トットリケン","city":"鳥取市","city_kana":"トットリシ","town":"国府町広西","town_kana":"コクフチョウヒロセ","prefecture_code":31},"8064":{"zip_code":"6808064","prefecture":"鳥取県","prefecture_kana":"トットリケン","city":"鳥取市","city_kana":"トットリシ","town":"国府町分上","town_kana":"コクフチョウブンジョウ","prefecture_code":31},"0153":{"zip_code":"6800153","prefecture":"鳥取県","prefecture_kana":"トットリケン","city":"鳥取市","city_kana":"トットリシ","town":"国府町法花寺","town_kana":"コクフチョウホッケジ","prefecture_code":31},"0146":{"zip_code":"6800146","prefecture":"鳥取県","prefecture_kana":"トットリケン","city":"鳥取市","city_kana":"トットリシ","town":"国府町町屋","town_kana":"コクフチョウマチヤ","prefecture_code":31},"0224":{"zip_code":"6800224","prefecture":"鳥取県","prefecture_kana":"トットリケン","city":"鳥取市","city_kana":"トットリシ","town":"国府町松尾","town_kana":"コクフチョウマツオ","prefecture_code":31},"0141":{"zip_code":"6800141","prefecture":"鳥取県","prefecture_kana":"トットリケン","city":"鳥取市","city_kana":"トットリシ","town":"国府町美歎","town_kana":"コクフチョウミタニ","prefecture_code":31},"0151":{"zip_code":"6800151","prefecture":"鳥取県","prefecture_kana":"トットリケン","city":"鳥取市","city_kana":"トットリシ","town":"国府町宮下","town_kana":"コクフチョウミヤノシタ","prefecture_code":31},"0215":{"zip_code":"6800215","prefecture":"鳥取県","prefecture_kana":"トットリケン","city":"鳥取市","city_kana":"トットリシ","town":"国府町山崎","town_kana":"コクフチョウヤマサキ","prefecture_code":31},"0133":{"zip_code":"6800133","prefecture":"鳥取県","prefecture_kana":"トットリケン","city":"鳥取市","city_kana":"トットリシ","town":"国府町山根","town_kana":"コクフチョウヤマネ","prefecture_code":31},"0225":{"zip_code":"6800225","prefecture":"鳥取県","prefecture_kana":"トットリケン","city":"鳥取市","city_kana":"トットリシ","town":"国府町吉野","town_kana":"コクフチョウヨシノ","prefecture_code":31},"0212":{"zip_code":"6800212","prefecture":"鳥取県","prefecture_kana":"トットリケン","city":"鳥取市","city_kana":"トットリシ","town":"国府町上地","town_kana":"コクフチョウワジ","prefecture_code":31},"0073":{"zip_code":"6800073","prefecture":"鳥取県","prefecture_kana":"トットリケン","city":"鳥取市","city_kana":"トットリシ","town":"小西谷","town_kana":"コザイ","prefecture_code":31},"0932":{"zip_code":"6800932","prefecture":"鳥取県","prefecture_kana":"トットリケン","city":"鳥取市","city_kana":"トットリシ","town":"五反田町","town_kana":"ゴタンダチョウ","prefecture_code":31},"0813":{"zip_code":"6800813","prefecture":"鳥取県","prefecture_kana":"トットリケン","city":"鳥取市","city_kana":"トットリシ","town":"寿町","town_kana":"コトブキチョウ","prefecture_code":31},"0946":{"zip_code":"6800946","prefecture":"鳥取県","prefecture_kana":"トットリケン","city":"鳥取市","city_kana":"トットリシ","town":"湖山町","town_kana":"コヤマチョウ","prefecture_code":31},"0942":{"zip_code":"6800942","prefecture":"鳥取県","prefecture_kana":"トットリケン","city":"鳥取市","city_kana":"トットリシ","town":"湖山町東","town_kana":"コヤマチョウヒガシ","prefecture_code":31},"0947":{"zip_code":"6800947","prefecture":"鳥取県","prefecture_kana":"トットリケン","city":"鳥取市","city_kana":"トットリシ","town":"湖山町西","town_kana":"コヤマチョウニシ","prefecture_code":31},"0945":{"zip_code":"6800945","prefecture":"鳥取県","prefecture_kana":"トットリケン","city":"鳥取市","city_kana":"トットリシ","town":"湖山町南","town_kana":"コヤマチョウミナミ","prefecture_code":31},"0941":{"zip_code":"6800941","prefecture":"鳥取県","prefecture_kana":"トットリケン","city":"鳥取市","city_kana":"トットリシ","town":"湖山町北","town_kana":"コヤマチョウキタ","prefecture_code":31},"0021":{"zip_code":"6800021","prefecture":"鳥取県","prefecture_kana":"トットリケン","city":"鳥取市","city_kana":"トットリシ","town":"材木町","town_kana":"ザイモクチョウ","prefecture_code":31},"0823":{"zip_code":"6800823","prefecture":"鳥取県","prefecture_kana":"トットリケン","city":"鳥取市","city_kana":"トットリシ","town":"幸町","town_kana":"サイワイチョウ","prefecture_code":31},"0831":{"zip_code":"6800831","prefecture":"鳥取県","prefecture_kana":"トットリケン","city":"鳥取市","city_kana":"トットリシ","town":"栄町","town_kana":"サカエマチ","prefecture_code":31},"0853":{"zip_code":"6800853","prefecture":"鳥取県","prefecture_kana":"トットリケン","city":"鳥取市","city_kana":"トットリシ","town":"桜谷","town_kana":"サクラダニ","prefecture_code":31},"0935":{"zip_code":"6800935","prefecture":"鳥取県","prefecture_kana":"トットリケン","city":"鳥取市","city_kana":"トットリシ","town":"里仁","town_kana":"サトニ","prefecture_code":31},"1151":{"zip_code":"6801151","prefecture":"鳥取県","prefecture_kana":"トットリケン","city":"鳥取市","city_kana":"トットリシ","town":"倭文","town_kana":"シトリ","prefecture_code":31},"1174":{"zip_code":"6801174","prefecture":"鳥取県","prefecture_kana":"トットリケン","city":"鳥取市","city_kana":"トットリシ","town":"篠坂","town_kana":"シノザカ","prefecture_code":31},"1411":{"zip_code":"6801411","prefecture":"鳥取県","prefecture_kana":"トットリケン","city":"鳥取市","city_kana":"トットリシ","town":"嶋","town_kana":"シマ","prefecture_code":31},"1165":{"zip_code":"6801165","prefecture":"鳥取県","prefecture_kana":"トットリケン","city":"鳥取市","city_kana":"トットリシ","town":"下味野","town_kana":"シモアジノ","prefecture_code":31},"1154":{"zip_code":"6801154","prefecture":"鳥取県","prefecture_kana":"トットリケン","city":"鳥取市","city_kana":"トットリシ","town":"下砂見","town_kana":"シモスナミ","prefecture_code":31},"1414":{"zip_code":"6801414","prefecture":"鳥取県","prefecture_kana":"トットリケン","city":"鳥取市","city_kana":"トットリシ","town":"下段","town_kana":"シモダン","prefecture_code":31},"0912":{"zip_code":"6800912","prefecture":"鳥取県","prefecture_kana":"トットリケン","city":"鳥取市","city_kana":"トットリシ","town":"商栄町","town_kana":"ショウエイチョウ","prefecture_code":31},"0017":{"zip_code":"6800017","prefecture":"鳥取県","prefecture_kana":"トットリケン","city":"鳥取市","city_kana":"トットリシ","town":"尚徳町","town_kana":"ショウトクチョウ","prefecture_code":31},"0922":{"zip_code":"6800922","prefecture":"鳥取県","prefecture_kana":"トットリケン","city":"鳥取市","city_kana":"トットリシ","town":"菖蒲","town_kana":"ショウブ","prefecture_code":31},"0854":{"zip_code":"6800854","prefecture":"鳥取県","prefecture_kana":"トットリケン","city":"鳥取市","city_kana":"トットリシ","town":"正蓮寺","town_kana":"ショウレンジ","prefecture_code":31},"0056":{"zip_code":"6800056","prefecture":"鳥取県","prefecture_kana":"トットリケン","city":"鳥取市","city_kana":"トットリシ","town":"職人町","town_kana":"ショクニンマチ","prefecture_code":31},"0861":{"zip_code":"6800861","prefecture":"鳥取県","prefecture_kana":"トットリケン","city":"鳥取市","city_kana":"トットリシ","town":"新","town_kana":"シン","prefecture_code":31},"0812":{"zip_code":"6800812","prefecture":"鳥取県","prefecture_kana":"トットリケン","city":"鳥取市","city_kana":"トットリシ","town":"新品治町","town_kana":"シンホンジチョウ","prefecture_code":31},"0035":{"zip_code":"6800035","prefecture":"鳥取県","prefecture_kana":"トットリケン","city":"鳥取市","city_kana":"トットリシ","town":"新町","town_kana":"シンマチ","prefecture_code":31},"0833":{"zip_code":"6800833","prefecture":"鳥取県","prefecture_kana":"トットリケン","city":"鳥取市","city_kana":"トットリシ","town":"末広温泉町","town_kana":"スエヒロオンセンチョウ","prefecture_code":31},"0875":{"zip_code":"6800875","prefecture":"鳥取県","prefecture_kana":"トットリケン","city":"鳥取市","city_kana":"トットリシ","town":"数津","town_kana":"スヅ","prefecture_code":31},"1435":{"zip_code":"6801435","prefecture":"鳥取県","prefecture_kana":"トットリケン","city":"鳥取市","city_kana":"トットリシ","town":"瀬田蔵","town_kana":"セタグラ","prefecture_code":31},"1432":{"zip_code":"6801432","prefecture":"鳥取県","prefecture_kana":"トットリケン","city":"鳥取市","city_kana":"トットリシ","town":"双六原","town_kana":"ソウロクバラ","prefecture_code":31},"1418":{"zip_code":"6801418","prefecture":"鳥取県","prefecture_kana":"トットリケン","city":"鳥取市","city_kana":"トットリシ","town":"大桷","town_kana":"ダイカク","prefecture_code":31},"0863":{"zip_code":"6800863","prefecture":"鳥取県","prefecture_kana":"トットリケン","city":"鳥取市","city_kana":"トットリシ","town":"大覚寺","town_kana":"ダイカクジ","prefecture_code":31},"1416":{"zip_code":"6801416","prefecture":"鳥取県","prefecture_kana":"トットリケン","city":"鳥取市","city_kana":"トットリシ","town":"高住","town_kana":"タカズミ","prefecture_code":31},"0045":{"zip_code":"6800045","prefecture":"鳥取県","prefecture_kana":"トットリケン","city":"鳥取市","city_kana":"トットリシ","town":"大工町頭","town_kana":"ダイクマチガシラ","prefecture_code":31},"0072":{"zip_code":"6800072","prefecture":"鳥取県","prefecture_kana":"トットリケン","city":"鳥取市","city_kana":"トットリシ","town":"滝山","town_kana":"タキヤマ","prefecture_code":31},"1162":{"zip_code":"6801162","prefecture":"鳥取県","prefecture_kana":"トットリケン","city":"鳥取市","city_kana":"トットリシ","town":"竹生","town_kana":"タケナリ","prefecture_code":31},"0804":{"zip_code":"6800804","prefecture":"鳥取県","prefecture_kana":"トットリケン","city":"鳥取市","city_kana":"トットリシ","town":"田島","town_kana":"タシマ","prefecture_code":31},"0061":{"zip_code":"6800061","prefecture":"鳥取県","prefecture_kana":"トットリケン","city":"鳥取市","city_kana":"トットリシ","town":"立川町","town_kana":"タチカワチョウ","prefecture_code":31},"1152":{"zip_code":"6801152","prefecture":"鳥取県","prefecture_kana":"トットリケン","city":"鳥取市","city_kana":"トットリシ","town":"玉津","town_kana":"タマヅ","prefecture_code":31},"0943":{"zip_code":"6800943","prefecture":"鳥取県","prefecture_kana":"トットリケン","city":"鳥取市","city_kana":"トットリシ","town":"足山","town_kana":"タリヤマ","prefecture_code":31},"0032":{"zip_code":"6800032","prefecture":"鳥取県","prefecture_kana":"トットリケン","city":"鳥取市","city_kana":"トットリシ","town":"茶町","town_kana":"チャマチ","prefecture_code":31},"0911":{"zip_code":"6800911","prefecture":"鳥取県","prefecture_kana":"トットリケン","city":"鳥取市","city_kana":"トットリシ","town":"千代水","town_kana":"チヨミ","prefecture_code":31},"0053":{"zip_code":"6800053","prefecture":"鳥取県","prefecture_kana":"トットリケン","city":"鳥取市","city_kana":"トットリシ","town":"寺町","town_kana":"テラマチ","prefecture_code":31},"0803":{"zip_code":"6800803","prefecture":"鳥取県","prefecture_kana":"トットリケン","city":"鳥取市","city_kana":"トットリシ","town":"田園町","town_kana":"デンエンチョウ","prefecture_code":31},"0847":{"zip_code":"6800847","prefecture":"鳥取県","prefecture_kana":"トットリケン","city":"鳥取市","city_kana":"トットリシ","town":"天神町","town_kana":"テンジンチョウ","prefecture_code":31},"0934":{"zip_code":"6800934","prefecture":"鳥取県","prefecture_kana":"トットリケン","city":"鳥取市","city_kana":"トットリシ","town":"徳尾","town_kana":"トクノオ","prefecture_code":31},"0933":{"zip_code":"6800933","prefecture":"鳥取県","prefecture_kana":"トットリケン","city":"鳥取市","city_kana":"トットリシ","town":"徳吉","town_kana":"トクヨシ","prefecture_code":31},"0845":{"zip_code":"6800845","prefecture":"鳥取県","prefecture_kana":"トットリケン","city":"鳥取市","city_kana":"トットリシ","town":"富安","town_kana":"トミヤス","prefecture_code":31},"1155":{"zip_code":"6801155","prefecture":"鳥取県","prefecture_kana":"トットリケン","city":"鳥取市","city_kana":"トットリシ","town":"中砂見","town_kana":"ナカスナミ","prefecture_code":31},"0016":{"zip_code":"6800016","prefecture":"鳥取県","prefecture_kana":"トットリケン","city":"鳥取市","city_kana":"トットリシ","town":"中町","town_kana":"ナカマチ","prefecture_code":31},"1175":{"zip_code":"6801175","prefecture":"鳥取県","prefecture_kana":"トットリケン","city":"鳥取市","city_kana":"トットリシ","town":"中村","town_kana":"ナカムラ","prefecture_code":31},"1436":{"zip_code":"6801436","prefecture":"鳥取県","prefecture_kana":"トットリケン","city":"鳥取市","city_kana":"トットリシ","town":"長柄","town_kana":"ナガラ","prefecture_code":31},"0033":{"zip_code":"6800033","prefecture":"鳥取県","prefecture_kana":"トットリケン","city":"鳥取市","city_kana":"トットリシ","town":"二階町","town_kana":"ニカイマチ","prefecture_code":31},"1173":{"zip_code":"6801173","prefecture":"鳥取県","prefecture_kana":"トットリケン","city":"鳥取市","city_kana":"トットリシ","town":"西今在家","town_kana":"ニシイマザイケ","prefecture_code":31},"1145":{"zip_code":"6801145","prefecture":"鳥取県","prefecture_kana":"トットリケン","city":"鳥取市","city_kana":"トットリシ","town":"西円通寺","town_kana":"ニシエンツウジ","prefecture_code":31},"0811":{"zip_code":"6800811","prefecture":"鳥取県","prefecture_kana":"トットリケン","city":"鳥取市","city_kana":"トットリシ","town":"西品治","town_kana":"ニシホンジ","prefecture_code":31},"0022":{"zip_code":"6800022","prefecture":"鳥取県","prefecture_kana":"トットリケン","city":"鳥取市","city_kana":"トットリシ","town":"西町","town_kana":"ニシマチ","prefecture_code":31},"1413":{"zip_code":"6801413","prefecture":"鳥取県","prefecture_kana":"トットリケン","city":"鳥取市","city_kana":"トットリシ","town":"野坂","town_kana":"ノサカ","prefecture_code":31},"0924":{"zip_code":"6800924","prefecture":"鳥取県","prefecture_kana":"トットリケン","city":"鳥取市","city_kana":"トットリシ","town":"野寺","town_kana":"ノデラ","prefecture_code":31},"1142":{"zip_code":"6801142","prefecture":"鳥取県","prefecture_kana":"トットリケン","city":"鳥取市","city_kana":"トットリシ","town":"橋本","town_kana":"ハシモト","prefecture_code":31},"1153":{"zip_code":"6801153","prefecture":"鳥取県","prefecture_kana":"トットリケン","city":"鳥取市","city_kana":"トットリシ","town":"長谷","town_kana":"ハセ","prefecture_code":31},"1143":{"zip_code":"6801143","prefecture":"鳥取県","prefecture_kana":"トットリケン","city":"鳥取市","city_kana":"トットリシ","town":"八坂","town_kana":"ハツサカ","prefecture_code":31},"0923":{"zip_code":"6800923","prefecture":"鳥取県","prefecture_kana":"トットリケン","city":"鳥取市","city_kana":"トットリシ","town":"服部","town_kana":"ハットリ","prefecture_code":31},"1131":{"zip_code":"6801131","prefecture":"鳥取県","prefecture_kana":"トットリケン","city":"鳥取市","city_kana":"トットリシ","town":"馬場","town_kana":"ババ","prefecture_code":31},"0014":{"zip_code":"6800014","prefecture":"鳥取県","prefecture_kana":"トットリケン","city":"鳥取市","city_kana":"トットリシ","town":"馬場町","town_kana":"ババノチョウ","prefecture_code":31},"0001":{"zip_code":"6800001","prefecture":"鳥取県","prefecture_kana":"トットリケン","city":"鳥取市","city_kana":"トットリシ","town":"浜坂","town_kana":"ハマサカ","prefecture_code":31},"0002":{"zip_code":"6800002","prefecture":"鳥取県","prefecture_kana":"トットリケン","city":"鳥取市","city_kana":"トットリシ","town":"浜坂東","town_kana":"ハマサカヒガシ","prefecture_code":31},"0852":{"zip_code":"6800852","prefecture":"鳥取県","prefecture_kana":"トットリケン","city":"鳥取市","city_kana":"トットリシ","town":"東今在家","town_kana":"ヒガシイマザイケ","prefecture_code":31},"0835":{"zip_code":"6800835","prefecture":"鳥取県","prefecture_kana":"トットリケン","city":"鳥取市","city_kana":"トットリシ","town":"東品治町","town_kana":"ヒガシホンジチョウ","prefecture_code":31},"0011":{"zip_code":"6800011","prefecture":"鳥取県","prefecture_kana":"トットリケン","city":"鳥取市","city_kana":"トットリシ","town":"東町","town_kana":"ヒガシマチ","prefecture_code":31},"1438":{"zip_code":"6801438","prefecture":"鳥取県","prefecture_kana":"トットリケン","city":"鳥取市","city_kana":"トットリシ","town":"福井","town_kana":"フクイ","prefecture_code":31},"8021":{"zip_code":"6808021","prefecture":"鳥取県","prefecture_kana":"トットリケン","city":"鳥取市","city_kana":"トットリシ","town":"福部町久志羅（上野）","town_kana":"フクベチョウクジラ(ウエノ)","prefecture_code":31},"8022":{"zip_code":"6808022","prefecture":"鳥取県","prefecture_kana":"トットリケン","city":"鳥取市","city_kana":"トットリシ","town":"福部町左近（上野）","town_kana":"フクベチョウサコ(ウエノ)","prefecture_code":31},"0944":{"zip_code":"6800944","prefecture":"鳥取県","prefecture_kana":"トットリケン","city":"鳥取市","city_kana":"トットリシ","town":"布勢","town_kana":"フセ","prefecture_code":31},"0865":{"zip_code":"6800865","prefecture":"鳥取県","prefecture_kana":"トットリケン","city":"鳥取市","city_kana":"トットリシ","town":"古市","town_kana":"フルイチ","prefecture_code":31},"0921":{"zip_code":"6800921","prefecture":"鳥取県","prefecture_kana":"トットリケン","city":"鳥取市","city_kana":"トットリシ","town":"古海","town_kana":"フルミ","prefecture_code":31},"0074":{"zip_code":"6800074","prefecture":"鳥取県","prefecture_kana":"トットリケン","city":"鳥取市","city_kana":"トットリシ","town":"卯垣","town_kana":"ボウガキ","prefecture_code":31},"0042":{"zip_code":"6800042","prefecture":"鳥取県","prefecture_kana":"トットリケン","city":"鳥取市","city_kana":"トットリシ","town":"庖丁人町","town_kana":"ホウチョウニンマチ","prefecture_code":31},"1426":{"zip_code":"6801426","prefecture":"鳥取県","prefecture_kana":"トットリケン","city":"鳥取市","city_kana":"トットリシ","town":"細見","town_kana":"ホソミ","prefecture_code":31},"1434":{"zip_code":"6801434","prefecture":"鳥取県","prefecture_kana":"トットリケン","city":"鳥取市","city_kana":"トットリシ","town":"洞谷","town_kana":"ホラダニ","prefecture_code":31},"0031":{"zip_code":"6800031","prefecture":"鳥取県","prefecture_kana":"トットリケン","city":"鳥取市","city_kana":"トットリシ","town":"本町","town_kana":"ホンマチ","prefecture_code":31},"1424":{"zip_code":"6801424","prefecture":"鳥取県","prefecture_kana":"トットリケン","city":"鳥取市","city_kana":"トットリシ","town":"槇原","town_kana":"マキバラ","prefecture_code":31},"1423":{"zip_code":"6801423","prefecture":"鳥取県","prefecture_kana":"トットリケン","city":"鳥取市","city_kana":"トットリシ","town":"松上","town_kana":"マツガミ","prefecture_code":31},"0801":{"zip_code":"6800801","prefecture":"鳥取県","prefecture_kana":"トットリケン","city":"鳥取市","city_kana":"トットリシ","town":"松並町","town_kana":"マツナミチョウ","prefecture_code":31},"1444":{"zip_code":"6801444","prefecture":"鳥取県","prefecture_kana":"トットリケン","city":"鳥取市","city_kana":"トットリシ","town":"松原","town_kana":"マツバラ","prefecture_code":31},"0873":{"zip_code":"6800873","prefecture":"鳥取県","prefecture_kana":"トットリケン","city":"鳥取市","city_kana":"トットリシ","town":"的場","town_kana":"マトバ","prefecture_code":31},"0006":{"zip_code":"6800006","prefecture":"鳥取県","prefecture_kana":"トットリケン","city":"鳥取市","city_kana":"トットリシ","town":"丸山町","town_kana":"マルヤマチョウ","prefecture_code":31},"0915":{"zip_code":"6800915","prefecture":"鳥取県","prefecture_kana":"トットリケン","city":"鳥取市","city_kana":"トットリシ","town":"緑ケ丘","town_kana":"ミドリガオカ","prefecture_code":31},"0906":{"zip_code":"6800906","prefecture":"鳥取県","prefecture_kana":"トットリケン","city":"鳥取市","city_kana":"トットリシ","town":"港町","town_kana":"ミナトマチ","prefecture_code":31},"0903":{"zip_code":"6800903","prefecture":"鳥取県","prefecture_kana":"トットリケン","city":"鳥取市","city_kana":"トットリシ","town":"南隈","town_kana":"ミナミガクマ","prefecture_code":31},"0814":{"zip_code":"6800814","prefecture":"鳥取県","prefecture_kana":"トットリケン","city":"鳥取市","city_kana":"トットリシ","town":"南町","town_kana":"ミナミマチ","prefecture_code":31},"0914":{"zip_code":"6800914","prefecture":"鳥取県","prefecture_kana":"トットリケン","city":"鳥取市","city_kana":"トットリシ","town":"南安長","town_kana":"ミナミヤスナガ","prefecture_code":31},"0843":{"zip_code":"6800843","prefecture":"鳥取県","prefecture_kana":"トットリケン","city":"鳥取市","city_kana":"トットリシ","town":"南吉方","town_kana":"ミナミヨシカタ","prefecture_code":31},"1412":{"zip_code":"6801412","prefecture":"鳥取県","prefecture_kana":"トットリケン","city":"鳥取市","city_kana":"トットリシ","town":"宮谷","town_kana":"ミヤダニ","prefecture_code":31},"0872":{"zip_code":"6800872","prefecture":"鳥取県","prefecture_kana":"トットリケン","city":"鳥取市","city_kana":"トットリシ","town":"宮長","town_kana":"ミヤナガ","prefecture_code":31},"1428":{"zip_code":"6801428","prefecture":"鳥取県","prefecture_kana":"トットリケン","city":"鳥取市","city_kana":"トットリシ","town":"三山口","town_kana":"ミヤマグチ","prefecture_code":31},"1431":{"zip_code":"6801431","prefecture":"鳥取県","prefecture_kana":"トットリケン","city":"鳥取市","city_kana":"トットリシ","town":"妙徳寺","town_kana":"ミョウトクジ","prefecture_code":31},"1161":{"zip_code":"6801161","prefecture":"鳥取県","prefecture_kana":"トットリケン","city":"鳥取市","city_kana":"トットリシ","town":"向国安","town_kana":"ムコウグニヤス","prefecture_code":31},"0034":{"zip_code":"6800034","prefecture":"鳥取県","prefecture_kana":"トットリケン","city":"鳥取市","city_kana":"トットリシ","town":"元魚町","town_kana":"モトウオマチ","prefecture_code":31},"0046":{"zip_code":"6800046","prefecture":"鳥取県","prefecture_kana":"トットリケン","city":"鳥取市","city_kana":"トットリシ","town":"元大工町","town_kana":"モトダイクマチ","prefecture_code":31},"1171":{"zip_code":"6801171","prefecture":"鳥取県","prefecture_kana":"トットリケン","city":"鳥取市","city_kana":"トットリシ","town":"本高","town_kana":"モトダカ","prefecture_code":31},"0037":{"zip_code":"6800037","prefecture":"鳥取県","prefecture_kana":"トットリケン","city":"鳥取市","city_kana":"トットリシ","town":"元町","town_kana":"モトマチ","prefecture_code":31},"0071":{"zip_code":"6800071","prefecture":"鳥取県","prefecture_kana":"トットリケン","city":"鳥取市","city_kana":"トットリシ","town":"百谷","town_kana":"モモダニ","prefecture_code":31},"0806":{"zip_code":"6800806","prefecture":"鳥取県","prefecture_kana":"トットリケン","city":"鳥取市","city_kana":"トットリシ","town":"薬師町","town_kana":"ヤクシマチ","prefecture_code":31},"0913":{"zip_code":"6800913","prefecture":"鳥取県","prefecture_kana":"トットリケン","city":"鳥取市","city_kana":"トットリシ","town":"安長","town_kana":"ヤスナガ","prefecture_code":31},"1433":{"zip_code":"6801433","prefecture":"鳥取県","prefecture_kana":"トットリケン","city":"鳥取市","city_kana":"トットリシ","town":"矢矯","town_kana":"ヤハギ","prefecture_code":31},"0008":{"zip_code":"6800008","prefecture":"鳥取県","prefecture_kana":"トットリケン","city":"鳥取市","city_kana":"トットリシ","town":"山城町","town_kana":"ヤマシロチョウ","prefecture_code":31},"0832":{"zip_code":"6800832","prefecture":"鳥取県","prefecture_kana":"トットリケン","city":"鳥取市","city_kana":"トットリシ","town":"弥生町","town_kana":"ヤヨイチョウ","prefecture_code":31},"0007":{"zip_code":"6800007","prefecture":"鳥取県","prefecture_kana":"トットリケン","city":"鳥取市","city_kana":"トットリシ","town":"湯所町","town_kana":"ユトコロチョウ","prefecture_code":31},"1163":{"zip_code":"6801163","prefecture":"鳥取県","prefecture_kana":"トットリケン","city":"鳥取市","city_kana":"トットリシ","town":"横枕","town_kana":"ヨコマクラ","prefecture_code":31},"1442":{"zip_code":"6801442","prefecture":"鳥取県","prefecture_kana":"トットリケン","city":"鳥取市","city_kana":"トットリシ","town":"吉岡温泉町","town_kana":"ヨシオカオンセンチョウ","prefecture_code":31},"0842":{"zip_code":"6800842","prefecture":"鳥取県","prefecture_kana":"トットリケン","city":"鳥取市","city_kana":"トットリシ","town":"吉方","town_kana":"ヨシカタ","prefecture_code":31},"0841":{"zip_code":"6800841","prefecture":"鳥取県","prefecture_kana":"トットリケン","city":"鳥取市","city_kana":"トットリシ","town":"吉方温泉","town_kana":"ヨシカタオンセン","prefecture_code":31},"0062":{"zip_code":"6800062","prefecture":"鳥取県","prefecture_kana":"トットリケン","city":"鳥取市","city_kana":"トットリシ","town":"吉方町","town_kana":"ヨシカタチョウ","prefecture_code":31},"1441":{"zip_code":"6801441","prefecture":"鳥取県","prefecture_kana":"トットリケン","city":"鳥取市","city_kana":"トットリシ","town":"良田","town_kana":"ヨシダ","prefecture_code":31},"0864":{"zip_code":"6800864","prefecture":"鳥取県","prefecture_kana":"トットリケン","city":"鳥取市","city_kana":"トットリシ","town":"吉成","town_kana":"ヨシナリ","prefecture_code":31},"0871":{"zip_code":"6800871","prefecture":"鳥取県","prefecture_kana":"トットリケン","city":"鳥取市","city_kana":"トットリシ","town":"吉成南町","town_kana":"ヨシナリミナミマチ","prefecture_code":31},"1443":{"zip_code":"6801443","prefecture":"鳥取県","prefecture_kana":"トットリケン","city":"鳥取市","city_kana":"トットリシ","town":"六反田","town_kana":"ロクタンダ","prefecture_code":31},"0051":{"zip_code":"6800051","prefecture":"鳥取県","prefecture_kana":"トットリケン","city":"鳥取市","city_kana":"トットリシ","town":"若桜町","town_kana":"ワカサマチ","prefecture_code":31},"0700":{"zip_code":"6800700","prefecture":"鳥取県","prefecture_kana":"トットリケン","city":"八頭郡若桜町","city_kana":"ヤズグンワカサチョウ","town":"以下に掲載がない場合","town_kana":"イカニケイサイガナイバアイ","prefecture_code":31},"0713":{"zip_code":"6800713","prefecture":"鳥取県","prefecture_kana":"トットリケン","city":"八頭郡若桜町","city_kana":"ヤズグンワカサチョウ","town":"赤松","town_kana":"アカマツ","prefecture_code":31},"0722":{"zip_code":"6800722","prefecture":"鳥取県","prefecture_kana":"トットリケン","city":"八頭郡若桜町","city_kana":"ヤズグンワカサチョウ","town":"浅井","town_kana":"アサイ","prefecture_code":31},"0743":{"zip_code":"6800743","prefecture":"鳥取県","prefecture_kana":"トットリケン","city":"八頭郡若桜町","city_kana":"ヤズグンワカサチョウ","town":"糸白見","town_kana":"イトシロミ","prefecture_code":31},"0731":{"zip_code":"6800731","prefecture":"鳥取県","prefecture_kana":"トットリケン","city":"八頭郡若桜町","city_kana":"ヤズグンワカサチョウ","town":"岩屋堂","town_kana":"イワヤドウ","prefecture_code":31},"0741":{"zip_code":"6800741","prefecture":"鳥取県","prefecture_kana":"トットリケン","city":"八頭郡若桜町","city_kana":"ヤズグンワカサチョウ","town":"大炊","town_kana":"オオイ","prefecture_code":31},"0733":{"zip_code":"6800733","prefecture":"鳥取県","prefecture_kana":"トットリケン","city":"八頭郡若桜町","city_kana":"ヤズグンワカサチョウ","town":"大野","town_kana":"オオノ","prefecture_code":31},"0735":{"zip_code":"6800735","prefecture":"鳥取県","prefecture_kana":"トットリケン","city":"八頭郡若桜町","city_kana":"ヤズグンワカサチョウ","town":"落折","town_kana":"オチオリ","prefecture_code":31},"0734":{"zip_code":"6800734","prefecture":"鳥取県","prefecture_kana":"トットリケン","city":"八頭郡若桜町","city_kana":"ヤズグンワカサチョウ","town":"小船","town_kana":"オブネ","prefecture_code":31},"0742":{"zip_code":"6800742","prefecture":"鳥取県","prefecture_kana":"トットリケン","city":"八頭郡若桜町","city_kana":"ヤズグンワカサチョウ","town":"岸野","town_kana":"キシノ","prefecture_code":31},"0714":{"zip_code":"6800714","prefecture":"鳥取県","prefecture_kana":"トットリケン","city":"八頭郡若桜町","city_kana":"ヤズグンワカサチョウ","town":"来見野","town_kana":"クルミノ","prefecture_code":31},"0723":{"zip_code":"6800723","prefecture":"鳥取県","prefecture_kana":"トットリケン","city":"八頭郡若桜町","city_kana":"ヤズグンワカサチョウ","town":"香田","town_kana":"コウダ","prefecture_code":31},"0745":{"zip_code":"6800745","prefecture":"鳥取県","prefecture_kana":"トットリケン","city":"八頭郡若桜町","city_kana":"ヤズグンワカサチョウ","town":"須澄","town_kana":"ススミ","prefecture_code":31},"0712":{"zip_code":"6800712","prefecture":"鳥取県","prefecture_kana":"トットリケン","city":"八頭郡若桜町","city_kana":"ヤズグンワカサチョウ","town":"高野","town_kana":"タカノ","prefecture_code":31},"0728":{"zip_code":"6800728","prefecture":"鳥取県","prefecture_kana":"トットリケン","city":"八頭郡若桜町","city_kana":"ヤズグンワカサチョウ","town":"つく米","town_kana":"ツクヨネ","prefecture_code":31},"0732":{"zip_code":"6800732","prefecture":"鳥取県","prefecture_kana":"トットリケン","city":"八頭郡若桜町","city_kana":"ヤズグンワカサチョウ","town":"中原","town_kana":"ナカハラ","prefecture_code":31},"0724":{"zip_code":"6800724","prefecture":"鳥取県","prefecture_kana":"トットリケン","city":"八頭郡若桜町","city_kana":"ヤズグンワカサチョウ","town":"長砂","town_kana":"ナガスナ","prefecture_code":31},"0744":{"zip_code":"6800744","prefecture":"鳥取県","prefecture_kana":"トットリケン","city":"八頭郡若桜町","city_kana":"ヤズグンワカサチョウ","town":"根安","town_kana":"ネヤス","prefecture_code":31},"0726":{"zip_code":"6800726","prefecture":"鳥取県","prefecture_kana":"トットリケン","city":"八頭郡若桜町","city_kana":"ヤズグンワカサチョウ","town":"淵見","town_kana":"フチミ","prefecture_code":31},"0711":{"zip_code":"6800711","prefecture":"鳥取県","prefecture_kana":"トットリケン","city":"八頭郡若桜町","city_kana":"ヤズグンワカサチョウ","town":"三倉","town_kana":"ミクラ","prefecture_code":31},"0727":{"zip_code":"6800727","prefecture":"鳥取県","prefecture_kana":"トットリケン","city":"八頭郡若桜町","city_kana":"ヤズグンワカサチョウ","town":"茗荷谷","town_kana":"ミョウガダニ","prefecture_code":31},"0715":{"zip_code":"6800715","prefecture":"鳥取県","prefecture_kana":"トットリケン","city":"八頭郡若桜町","city_kana":"ヤズグンワカサチョウ","town":"諸鹿","town_kana":"モロガ","prefecture_code":31},"0721":{"zip_code":"6800721","prefecture":"鳥取県","prefecture_kana":"トットリケン","city":"八頭郡若桜町","city_kana":"ヤズグンワカサチョウ","town":"屋堂羅","town_kana":"ヤドラ","prefecture_code":31},"0725":{"zip_code":"6800725","prefecture":"鳥取県","prefecture_kana":"トットリケン","city":"八頭郡若桜町","city_kana":"ヤズグンワカサチョウ","town":"湯原","town_kana":"ユワラ","prefecture_code":31},"0746":{"zip_code":"6800746","prefecture":"鳥取県","prefecture_kana":"トットリケン","city":"八頭郡若桜町","city_kana":"ヤズグンワカサチョウ","town":"吉川","town_kana":"ヨシカワ","prefecture_code":31},"0701":{"zip_code":"6800701","prefecture":"鳥取県","prefecture_kana":"トットリケン","city":"八頭郡若桜町","city_kana":"ヤズグンワカサチョウ","town":"若桜","town_kana":"ワカサ","prefecture_code":31},"0400":{"zip_code":"6800400","prefecture":"鳥取県","prefecture_kana":"トットリケン","city":"八頭郡八頭町","city_kana":"ヤズグンヤズチョウ","town":"以下に掲載がない場合","town_kana":"イカニケイサイガナイバアイ","prefecture_code":31},"0302":{"zip_code":"6800302","prefecture":"鳥取県","prefecture_kana":"トットリケン","city":"八頭郡八頭町","city_kana":"ヤズグンヤズチョウ","town":"明辺","town_kana":"アケナベ","prefecture_code":31},"0305":{"zip_code":"6800305","prefecture":"鳥取県","prefecture_kana":"トットリケン","city":"八頭郡八頭町","city_kana":"ヤズグンヤズチョウ","town":"麻生","town_kana":"アソウ","prefecture_code":31},"0452":{"zip_code":"6800452","prefecture":"鳥取県","prefecture_kana":"トットリケン","city":"八頭郡八頭町","city_kana":"ヤズグンヤズチョウ","town":"池田","town_kana":"イケダ","prefecture_code":31},"0425":{"zip_code":"6800425","prefecture":"鳥取県","prefecture_kana":"トットリケン","city":"八頭郡八頭町","city_kana":"ヤズグンヤズチョウ","town":"井古","town_kana":"イゴ","prefecture_code":31},"0454":{"zip_code":"6800454","prefecture":"鳥取県","prefecture_kana":"トットリケン","city":"八頭郡八頭町","city_kana":"ヤズグンヤズチョウ","town":"石田百井","town_kana":"イシダモモイ","prefecture_code":31},"0442":{"zip_code":"6800442","prefecture":"鳥取県","prefecture_kana":"トットリケン","city":"八頭郡八頭町","city_kana":"ヤズグンヤズチョウ","town":"市谷","town_kana":"イチノタニ","prefecture_code":31},"0311":{"zip_code":"6800311","prefecture":"鳥取県","prefecture_kana":"トットリケン","city":"八頭郡八頭町","city_kana":"ヤズグンヤズチョウ","town":"市場","town_kana":"イチバ","prefecture_code":31},"0424":{"zip_code":"6800424","prefecture":"鳥取県","prefecture_kana":"トットリケン","city":"八頭郡八頭町","city_kana":"ヤズグンヤズチョウ","town":"稲荷","town_kana":"イナリ","prefecture_code":31},"0537":{"zip_code":"6800537","prefecture":"鳥取県","prefecture_kana":"トットリケン","city":"八頭郡八頭町","city_kana":"ヤズグンヤズチョウ","town":"岩淵","town_kana":"イワブチ","prefecture_code":31},"0434":{"zip_code":"6800434","prefecture":"鳥取県","prefecture_kana":"トットリケン","city":"八頭郡八頭町","city_kana":"ヤズグンヤズチョウ","town":"延命寺","town_kana":"エンメイジ","prefecture_code":31},"0416":{"zip_code":"6800416","prefecture":"鳥取県","prefecture_kana":"トットリケン","city":"八頭郡八頭町","city_kana":"ヤズグンヤズチョウ","town":"大江","town_kana":"オオエ","prefecture_code":31},"0435":{"zip_code":"6800435","prefecture":"鳥取県","prefecture_kana":"トットリケン","city":"八頭郡八頭町","city_kana":"ヤズグンヤズチョウ","town":"大坪","town_kana":"オオツボ","prefecture_code":31},"0427":{"zip_code":"6800427","prefecture":"鳥取県","prefecture_kana":"トットリケン","city":"八頭郡八頭町","city_kana":"ヤズグンヤズチョウ","town":"奥谷","town_kana":"オクダニ","prefecture_code":31},"0543":{"zip_code":"6800543","prefecture":"鳥取県","prefecture_kana":"トットリケン","city":"八頭郡八頭町","city_kana":"ヤズグンヤズチョウ","town":"奥野","town_kana":"オクノ","prefecture_code":31},"0303":{"zip_code":"6800303","prefecture":"鳥取県","prefecture_kana":"トットリケン","city":"八頭郡八頭町","city_kana":"ヤズグンヤズチョウ","town":"落岩","town_kana":"オチイワ","prefecture_code":31},"0426":{"zip_code":"6800426","prefecture":"鳥取県","prefecture_kana":"トットリケン","city":"八頭郡八頭町","city_kana":"ヤズグンヤズチョウ","town":"下坂","town_kana":"オリサカ","prefecture_code":31},"0533":{"zip_code":"6800533","prefecture":"鳥取県","prefecture_kana":"トットリケン","city":"八頭郡八頭町","city_kana":"ヤズグンヤズチョウ","town":"皆原","town_kana":"カイハラ","prefecture_code":31},"0545":{"zip_code":"6800545","prefecture":"鳥取県","prefecture_kana":"トットリケン","city":"八頭郡八頭町","city_kana":"ヤズグンヤズチョウ","town":"柿原","town_kana":"カキハラ","prefecture_code":31},"0312":{"zip_code":"6800312","prefecture":"鳥取県","prefecture_kana":"トットリケン","city":"八頭郡八頭町","city_kana":"ヤズグンヤズチョウ","town":"覚王寺","town_kana":"カクオウジ","prefecture_code":31},"0534":{"zip_code":"6800534","prefecture":"鳥取県","prefecture_kana":"トットリケン","city":"八頭郡八頭町","city_kana":"ヤズグンヤズチョウ","town":"鍛冶屋","town_kana":"カジヤ","prefecture_code":31},"0422":{"zip_code":"6800422","prefecture":"鳥取県","prefecture_kana":"トットリケン","city":"八頭郡八頭町","city_kana":"ヤズグンヤズチョウ","town":"門尾","town_kana":"カドオ","prefecture_code":31},"0313":{"zip_code":"6800313","prefecture":"鳥取県","prefecture_kana":"トットリケン","city":"八頭郡八頭町","city_kana":"ヤズグンヤズチョウ","town":"上津黒","town_kana":"カミツグロ","prefecture_code":31},"0401":{"zip_code":"6800401","prefecture":"鳥取県","prefecture_kana":"トットリケン","city":"八頭郡八頭町","city_kana":"ヤズグンヤズチョウ","town":"上野","town_kana":"カミノ","prefecture_code":31},"0432":{"zip_code":"6800432","prefecture":"鳥取県","prefecture_kana":"トットリケン","city":"八頭郡八頭町","city_kana":"ヤズグンヤズチョウ","town":"上峰寺","town_kana":"カミミネデラ","prefecture_code":31},"0601":{"zip_code":"6800601","prefecture":"鳥取県","prefecture_kana":"トットリケン","city":"八頭郡八頭町","city_kana":"ヤズグンヤズチョウ","town":"北山","town_kana":"キタヤマ","prefecture_code":31},"0526":{"zip_code":"6800526","prefecture":"鳥取県","prefecture_kana":"トットリケン","city":"八頭郡八頭町","city_kana":"ヤズグンヤズチョウ","town":"日下部","town_kana":"クサカベ","prefecture_code":31},"0457":{"zip_code":"6800457","prefecture":"鳥取県","prefecture_kana":"トットリケン","city":"八頭郡八頭町","city_kana":"ヤズグンヤズチョウ","town":"国中","town_kana":"クニナカ","prefecture_code":31},"0451":{"zip_code":"6800451","prefecture":"鳥取県","prefecture_kana":"トットリケン","city":"八頭郡八頭町","city_kana":"ヤズグンヤズチョウ","town":"久能寺","town_kana":"クノウジ","prefecture_code":31},"0443":{"zip_code":"6800443","prefecture":"鳥取県","prefecture_kana":"トットリケン","city":"八頭郡八頭町","city_kana":"ヤズグンヤズチョウ","town":"郡家殿","town_kana":"コウゲトノ","prefecture_code":31},"0461":{"zip_code":"6800461","prefecture":"鳥取県","prefecture_kana":"トットリケン","city":"八頭郡八頭町","city_kana":"ヤズグンヤズチョウ","town":"郡家","town_kana":"コオゲ","prefecture_code":31},"0523":{"zip_code":"6800523","prefecture":"鳥取県","prefecture_kana":"トットリケン","city":"八頭郡八頭町","city_kana":"ヤズグンヤズチョウ","town":"小別府","town_kana":"コベフ","prefecture_code":31},"0531":{"zip_code":"6800531","prefecture":"鳥取県","prefecture_kana":"トットリケン","city":"八頭郡八頭町","city_kana":"ヤズグンヤズチョウ","town":"才代","town_kana":"サイタイ","prefecture_code":31},"0473":{"zip_code":"6800473","prefecture":"鳥取県","prefecture_kana":"トットリケン","city":"八頭郡八頭町","city_kana":"ヤズグンヤズチョウ","town":"坂田","town_kana":"サカダ","prefecture_code":31},"0527":{"zip_code":"6800527","prefecture":"鳥取県","prefecture_kana":"トットリケン","city":"八頭郡八頭町","city_kana":"ヤズグンヤズチョウ","town":"桜ヶ丘","town_kana":"サクラガオカ","prefecture_code":31},"0544":{"zip_code":"6800544","prefecture":"鳥取県","prefecture_kana":"トットリケン","city":"八頭郡八頭町","city_kana":"ヤズグンヤズチョウ","town":"佐崎","town_kana":"ササキ","prefecture_code":31},"0316":{"zip_code":"6800316","prefecture":"鳥取県","prefecture_kana":"トットリケン","city":"八頭郡八頭町","city_kana":"ヤズグンヤズチョウ","town":"篠波","town_kana":"ササナミ","prefecture_code":31},"0413":{"zip_code":"6800413","prefecture":"鳥取県","prefecture_kana":"トットリケン","city":"八頭郡八頭町","city_kana":"ヤズグンヤズチョウ","town":"塩上","town_kana":"シオノウエ","prefecture_code":31},"0606":{"zip_code":"6800606","prefecture":"鳥取県","prefecture_kana":"トットリケン","city":"八頭郡八頭町","city_kana":"ヤズグンヤズチョウ","town":"重枝","town_kana":"シゲエダ","prefecture_code":31},"0407":{"zip_code":"6800407","prefecture":"鳥取県","prefecture_kana":"トットリケン","city":"八頭郡八頭町","city_kana":"ヤズグンヤズチョウ","town":"志子部","town_kana":"シコベ","prefecture_code":31},"0612":{"zip_code":"6800612","prefecture":"鳥取県","prefecture_kana":"トットリケン","city":"八頭郡八頭町","city_kana":"ヤズグンヤズチョウ","town":"志谷","town_kana":"シタニ","prefecture_code":31},"0605":{"zip_code":"6800605","prefecture":"鳥取県","prefecture_kana":"トットリケン","city":"八頭郡八頭町","city_kana":"ヤズグンヤズチョウ","town":"島","town_kana":"シマ","prefecture_code":31},"0421":{"zip_code":"6800421","prefecture":"鳥取県","prefecture_kana":"トットリケン","city":"八頭郡八頭町","city_kana":"ヤズグンヤズチョウ","town":"下門尾","town_kana":"シモカドオ","prefecture_code":31},"0314":{"zip_code":"6800314","prefecture":"鳥取県","prefecture_kana":"トットリケン","city":"八頭郡八頭町","city_kana":"ヤズグンヤズチョウ","town":"下津黒","town_kana":"シモツグロ","prefecture_code":31},"0415":{"zip_code":"6800415","prefecture":"鳥取県","prefecture_kana":"トットリケン","city":"八頭郡八頭町","city_kana":"ヤズグンヤズチョウ","town":"下野","town_kana":"シモツケ","prefecture_code":31},"0472":{"zip_code":"6800472","prefecture":"鳥取県","prefecture_kana":"トットリケン","city":"八頭郡八頭町","city_kana":"ヤズグンヤズチョウ","town":"下濃","town_kana":"シモノ","prefecture_code":31},"0431":{"zip_code":"6800431","prefecture":"鳥取県","prefecture_kana":"トットリケン","city":"八頭郡八頭町","city_kana":"ヤズグンヤズチョウ","town":"下峰寺","town_kana":"シモミネデラ","prefecture_code":31},"0522":{"zip_code":"6800522","prefecture":"鳥取県","prefecture_kana":"トットリケン","city":"八頭郡八頭町","city_kana":"ヤズグンヤズチョウ","town":"新興寺","town_kana":"シンゴウジ","prefecture_code":31},"0541":{"zip_code":"6800541","prefecture":"鳥取県","prefecture_kana":"トットリケン","city":"八頭郡八頭町","city_kana":"ヤズグンヤズチョウ","town":"清徳","town_kana":"セイトク","prefecture_code":31},"0445":{"zip_code":"6800445","prefecture":"鳥取県","prefecture_kana":"トットリケン","city":"八頭郡八頭町","city_kana":"ヤズグンヤズチョウ","town":"大門","town_kana":"ダイモン","prefecture_code":31},"0607":{"zip_code":"6800607","prefecture":"鳥取県","prefecture_kana":"トットリケン","city":"八頭郡八頭町","city_kana":"ヤズグンヤズチョウ","town":"徳丸","town_kana":"トクマル","prefecture_code":31},"0611":{"zip_code":"6800611","prefecture":"鳥取県","prefecture_kana":"トットリケン","city":"八頭郡八頭町","city_kana":"ヤズグンヤズチョウ","town":"富枝","town_kana":"トミエダ","prefecture_code":31},"0614":{"zip_code":"6800614","prefecture":"鳥取県","prefecture_kana":"トットリケン","city":"八頭郡八頭町","city_kana":"ヤズグンヤズチョウ","town":"中","town_kana":"ナカ","prefecture_code":31},"0408":{"zip_code":"6800408","prefecture":"鳥取県","prefecture_kana":"トットリケン","city":"八頭郡八頭町","city_kana":"ヤズグンヤズチョウ","town":"西谷","town_kana":"ニシダニ","prefecture_code":31},"0441":{"zip_code":"6800441","prefecture":"鳥取県","prefecture_kana":"トットリケン","city":"八頭郡八頭町","city_kana":"ヤズグンヤズチョウ","town":"西御門","town_kana":"ニシミカド","prefecture_code":31},"0306":{"zip_code":"6800306","prefecture":"鳥取県","prefecture_kana":"トットリケン","city":"八頭郡八頭町","city_kana":"ヤズグンヤズチョウ","town":"野町","town_kana":"ノマチ","prefecture_code":31},"0414":{"zip_code":"6800414","prefecture":"鳥取県","prefecture_kana":"トットリケン","city":"八頭郡八頭町","city_kana":"ヤズグンヤズチョウ","town":"橋本","town_kana":"ハシモト","prefecture_code":31},"0455":{"zip_code":"6800455","prefecture":"鳥取県","prefecture_kana":"トットリケン","city":"八頭郡八頭町","city_kana":"ヤズグンヤズチョウ","town":"土師百井","town_kana":"ハジモモイ","prefecture_code":31},"0444":{"zip_code":"6800444","prefecture":"鳥取県","prefecture_kana":"トットリケン","city":"八頭郡八頭町","city_kana":"ヤズグンヤズチョウ","town":"花","town_kana":"ハナ","prefecture_code":31},"0437":{"zip_code":"6800437","prefecture":"鳥取県","prefecture_kana":"トットリケン","city":"八頭郡八頭町","city_kana":"ヤズグンヤズチョウ","town":"花原","town_kana":"ハナバラ","prefecture_code":31},"0402":{"zip_code":"6800402","prefecture":"鳥取県","prefecture_kana":"トットリケン","city":"八頭郡八頭町","city_kana":"ヤズグンヤズチョウ","town":"隼福","town_kana":"ハヤフク","prefecture_code":31},"0405":{"zip_code":"6800405","prefecture":"鳥取県","prefecture_kana":"トットリケン","city":"八頭郡八頭町","city_kana":"ヤズグンヤズチョウ","town":"隼郡家","town_kana":"ハヤブサコオゲ","prefecture_code":31},"0613":{"zip_code":"6800613","prefecture":"鳥取県","prefecture_kana":"トットリケン","city":"八頭郡八頭町","city_kana":"ヤズグンヤズチョウ","town":"稗谷","town_kana":"ヒエダニ","prefecture_code":31},"0532":{"zip_code":"6800532","prefecture":"鳥取県","prefecture_kana":"トットリケン","city":"八頭郡八頭町","city_kana":"ヤズグンヤズチョウ","town":"東","town_kana":"ヒガシ","prefecture_code":31},"0603":{"zip_code":"6800603","prefecture":"鳥取県","prefecture_kana":"トットリケン","city":"八頭郡八頭町","city_kana":"ヤズグンヤズチョウ","town":"日田","town_kana":"ヒダ","prefecture_code":31},"0301":{"zip_code":"6800301","prefecture":"鳥取県","prefecture_kana":"トットリケン","city":"八頭郡八頭町","city_kana":"ヤズグンヤズチョウ","town":"姫路","town_kana":"ヒメジ","prefecture_code":31},"0403":{"zip_code":"6800403","prefecture":"鳥取県","prefecture_kana":"トットリケン","city":"八頭郡八頭町","city_kana":"ヤズグンヤズチョウ","town":"福井","town_kana":"フクイ","prefecture_code":31},"0307":{"zip_code":"6800307","prefecture":"鳥取県","prefecture_kana":"トットリケン","city":"八頭郡八頭町","city_kana":"ヤズグンヤズチョウ","town":"福地","town_kana":"フクチ","prefecture_code":31},"0462":{"zip_code":"6800462","prefecture":"鳥取県","prefecture_kana":"トットリケン","city":"八頭郡八頭町","city_kana":"ヤズグンヤズチョウ","town":"福本","town_kana":"フクモト","prefecture_code":31},"0471":{"zip_code":"6800471","prefecture":"鳥取県","prefecture_kana":"トットリケン","city":"八頭郡八頭町","city_kana":"ヤズグンヤズチョウ","town":"船岡","town_kana":"フナオカ","prefecture_code":31},"0411":{"zip_code":"6800411","prefecture":"鳥取県","prefecture_kana":"トットリケン","city":"八頭郡八頭町","city_kana":"ヤズグンヤズチョウ","town":"船岡殿","town_kana":"フナオカトノ","prefecture_code":31},"0315":{"zip_code":"6800315","prefecture":"鳥取県","prefecture_kana":"トットリケン","city":"八頭郡八頭町","city_kana":"ヤズグンヤズチョウ","town":"別府","town_kana":"ベフ","prefecture_code":31},"0423":{"zip_code":"6800423","prefecture":"鳥取県","prefecture_kana":"トットリケン","city":"八頭郡八頭町","city_kana":"ヤズグンヤズチョウ","town":"堀越","town_kana":"ホリゴシ","prefecture_code":31},"0453":{"zip_code":"6800453","prefecture":"鳥取県","prefecture_kana":"トットリケン","city":"八頭郡八頭町","city_kana":"ヤズグンヤズチョウ","town":"万代寺","town_kana":"マンタイジ","prefecture_code":31},"0536":{"zip_code":"6800536","prefecture":"鳥取県","prefecture_kana":"トットリケン","city":"八頭郡八頭町","city_kana":"ヤズグンヤズチョウ","town":"三浦","town_kana":"ミウラ","prefecture_code":31},"0406":{"zip_code":"6800406","prefecture":"鳥取県","prefecture_kana":"トットリケン","city":"八頭郡八頭町","city_kana":"ヤズグンヤズチョウ","town":"見槻","town_kana":"ミヅキ","prefecture_code":31},"0404":{"zip_code":"6800404","prefecture":"鳥取県","prefecture_kana":"トットリケン","city":"八頭郡八頭町","city_kana":"ヤズグンヤズチョウ","town":"見槻中","town_kana":"ミヅキナカ","prefecture_code":31},"0412":{"zip_code":"6800412","prefecture":"鳥取県","prefecture_kana":"トットリケン","city":"八頭郡八頭町","city_kana":"ヤズグンヤズチョウ","town":"水口","town_kana":"ミナクチ","prefecture_code":31},"0604":{"zip_code":"6800604","prefecture":"鳥取県","prefecture_kana":"トットリケン","city":"八頭郡八頭町","city_kana":"ヤズグンヤズチョウ","town":"南","town_kana":"ミナミ","prefecture_code":31},"0463":{"zip_code":"6800463","prefecture":"鳥取県","prefecture_kana":"トットリケン","city":"八頭郡八頭町","city_kana":"ヤズグンヤズチョウ","town":"宮谷","town_kana":"ミヤダニ","prefecture_code":31},"0535":{"zip_code":"6800535","prefecture":"鳥取県","prefecture_kana":"トットリケン","city":"八頭郡八頭町","city_kana":"ヤズグンヤズチョウ","town":"三山口","town_kana":"ミヤマグチ","prefecture_code":31},"0524":{"zip_code":"6800524","prefecture":"鳥取県","prefecture_kana":"トットリケン","city":"八頭郡八頭町","city_kana":"ヤズグンヤズチョウ","town":"茂田","town_kana":"モダ","prefecture_code":31},"0542":{"zip_code":"6800542","prefecture":"鳥取県","prefecture_kana":"トットリケン","city":"八頭郡八頭町","city_kana":"ヤズグンヤズチョウ","town":"茂谷","town_kana":"モタニ","prefecture_code":31},"0521":{"zip_code":"6800521","prefecture":"鳥取県","prefecture_kana":"トットリケン","city":"八頭郡八頭町","city_kana":"ヤズグンヤズチョウ","town":"安井宿","town_kana":"ヤスイシュク","prefecture_code":31},"0436":{"zip_code":"6800436","prefecture":"鳥取県","prefecture_kana":"トットリケン","city":"八頭郡八頭町","city_kana":"ヤズグンヤズチョウ","town":"山路","town_kana":"ヤマジ","prefecture_code":31},"0304":{"zip_code":"6800304","prefecture":"鳥取県","prefecture_kana":"トットリケン","city":"八頭郡八頭町","city_kana":"ヤズグンヤズチョウ","town":"山志谷","town_kana":"ヤマシダニ","prefecture_code":31},"0438":{"zip_code":"6800438","prefecture":"鳥取県","prefecture_kana":"トットリケン","city":"八頭郡八頭町","city_kana":"ヤズグンヤズチョウ","town":"山田","town_kana":"ヤマダ","prefecture_code":31},"0433":{"zip_code":"6800433","prefecture":"鳥取県","prefecture_kana":"トットリケン","city":"八頭郡八頭町","city_kana":"ヤズグンヤズチョウ","town":"山上","town_kana":"ヤマノウエ","prefecture_code":31},"0602":{"zip_code":"6800602","prefecture":"鳥取県","prefecture_kana":"トットリケン","city":"八頭郡八頭町","city_kana":"ヤズグンヤズチョウ","town":"用呂","town_kana":"ヨウロ","prefecture_code":31},"0525":{"zip_code":"6800525","prefecture":"鳥取県","prefecture_kana":"トットリケン","city":"八頭郡八頭町","city_kana":"ヤズグンヤズチョウ","town":"横田","town_kana":"ヨコタ","prefecture_code":31},"0456":{"zip_code":"6800456","prefecture":"鳥取県","prefecture_kana":"トットリケン","city":"八頭郡八頭町","city_kana":"ヤズグンヤズチョウ","town":"米岡","town_kana":"ヨネオカ","prefecture_code":31},"0474":{"zip_code":"6800474","prefecture":"鳥取県","prefecture_kana":"トットリケン","city":"八頭郡八頭町","city_kana":"ヤズグンヤズチョウ","town":"破岩","town_kana":"ワレイワ","prefecture_code":31}}