{"0000":{"zip_code":"6820000","prefecture":"鳥取県","prefecture_kana":"トットリケン","city":"倉吉市","city_kana":"クラヨシシ","town":"以下に掲載がない場合","town_kana":"イカニケイサイガナイバアイ","prefecture_code":31},"0822":{"zip_code":"6820822","prefecture":"鳥取県","prefecture_kana":"トットリケン","city":"倉吉市","city_kana":"クラヨシシ","town":"葵町","town_kana":"アオイマチ","prefecture_code":31},"0021":{"zip_code":"6820021","prefecture":"鳥取県","prefecture_kana":"トットリケン","city":"倉吉市","city_kana":"クラヨシシ","town":"上井","town_kana":"アゲイ","prefecture_code":31},"0022":{"zip_code":"6820022","prefecture":"鳥取県","prefecture_kana":"トットリケン","city":"倉吉市","city_kana":"クラヨシシ","town":"上井町","town_kana":"アゲイチョウ","prefecture_code":31},"0871":{"zip_code":"6820871","prefecture":"鳥取県","prefecture_kana":"トットリケン","city":"倉吉市","city_kana":"クラヨシシ","town":"旭田町","town_kana":"アサヒダチョウ","prefecture_code":31},"0001":{"zip_code":"6820001","prefecture":"鳥取県","prefecture_kana":"トットリケン","city":"倉吉市","city_kana":"クラヨシシ","town":"穴窪","town_kana":"アナクボ","prefecture_code":31},"0901":{"zip_code":"6820901","prefecture":"鳥取県","prefecture_kana":"トットリケン","city":"倉吉市","city_kana":"クラヨシシ","town":"穴沢","town_kana":"アナザワ","prefecture_code":31},"0024":{"zip_code":"6820024","prefecture":"鳥取県","prefecture_kana":"トットリケン","city":"倉吉市","city_kana":"クラヨシシ","town":"伊木","town_kana":"イギ","prefecture_code":31},"0855":{"zip_code":"6820855","prefecture":"鳥取県","prefecture_kana":"トットリケン","city":"倉吉市","city_kana":"クラヨシシ","town":"生田","town_kana":"イクタ","prefecture_code":31},"0933":{"zip_code":"6820933","prefecture":"鳥取県","prefecture_kana":"トットリケン","city":"倉吉市","city_kana":"クラヨシシ","town":"石塚","town_kana":"イシヅカ","prefecture_code":31},"0006":{"zip_code":"6820006","prefecture":"鳥取県","prefecture_kana":"トットリケン","city":"倉吉市","city_kana":"クラヨシシ","town":"井手畑","town_kana":"イデバタ","prefecture_code":31},"0641":{"zip_code":"6820641","prefecture":"鳥取県","prefecture_kana":"トットリケン","city":"倉吉市","city_kana":"クラヨシシ","town":"今在家","town_kana":"イマザイケ","prefecture_code":31},"0801":{"zip_code":"6820801","prefecture":"鳥取県","prefecture_kana":"トットリケン","city":"倉吉市","city_kana":"クラヨシシ","town":"巌城","town_kana":"イワキ","prefecture_code":31},"0842":{"zip_code":"6820842","prefecture":"鳥取県","prefecture_kana":"トットリケン","city":"倉吉市","city_kana":"クラヨシシ","town":"岩倉","town_kana":"イワクラ","prefecture_code":31},"0821":{"zip_code":"6820821","prefecture":"鳥取県","prefecture_kana":"トットリケン","city":"倉吉市","city_kana":"クラヨシシ","town":"魚町","town_kana":"ウオマチ","prefecture_code":31},"0811":{"zip_code":"6820811","prefecture":"鳥取県","prefecture_kana":"トットリケン","city":"倉吉市","city_kana":"クラヨシシ","town":"上灘町","town_kana":"ウワナダチョウ","prefecture_code":31},"0865":{"zip_code":"6820865","prefecture":"鳥取県","prefecture_kana":"トットリケン","city":"倉吉市","city_kana":"クラヨシシ","town":"越中町","town_kana":"エッチュウマチ","prefecture_code":31},"0813":{"zip_code":"6820813","prefecture":"鳥取県","prefecture_kana":"トットリケン","city":"倉吉市","city_kana":"クラヨシシ","town":"円谷町","town_kana":"エンダニチョウ","prefecture_code":31},"0623":{"zip_code":"6820623","prefecture":"鳥取県","prefecture_kana":"トットリケン","city":"倉吉市","city_kana":"クラヨシシ","town":"大河内","town_kana":"オオカチ","prefecture_code":31},"0947":{"zip_code":"6820947","prefecture":"鳥取県","prefecture_kana":"トットリケン","city":"倉吉市","city_kana":"クラヨシシ","town":"大沢","town_kana":"オオサワ","prefecture_code":31},"0632":{"zip_code":"6820632","prefecture":"鳥取県","prefecture_kana":"トットリケン","city":"倉吉市","city_kana":"クラヨシシ","town":"大立","town_kana":"オオタチ","prefecture_code":31},"0941":{"zip_code":"6820941","prefecture":"鳥取県","prefecture_kana":"トットリケン","city":"倉吉市","city_kana":"クラヨシシ","town":"大谷","town_kana":"オオタニ","prefecture_code":31},"0948":{"zip_code":"6820948","prefecture":"鳥取県","prefecture_kana":"トットリケン","city":"倉吉市","city_kana":"クラヨシシ","town":"大谷茶屋","town_kana":"オオタニチャヤ","prefecture_code":31},"0011":{"zip_code":"6820011","prefecture":"鳥取県","prefecture_kana":"トットリケン","city":"倉吉市","city_kana":"クラヨシシ","town":"大塚","town_kana":"オオツカ","prefecture_code":31},"0042":{"zip_code":"6820042","prefecture":"鳥取県","prefecture_kana":"トットリケン","city":"倉吉市","city_kana":"クラヨシシ","town":"大平町","town_kana":"オオヒラチョウ","prefecture_code":31},"0841":{"zip_code":"6820841","prefecture":"鳥取県","prefecture_kana":"トットリケン","city":"倉吉市","city_kana":"クラヨシシ","town":"大宮","town_kana":"オオミヤ","prefecture_code":31},"0645":{"zip_code":"6820645","prefecture":"鳥取県","prefecture_kana":"トットリケン","city":"倉吉市","city_kana":"クラヨシシ","town":"岡","town_kana":"オカ","prefecture_code":31},"0931":{"zip_code":"6820931","prefecture":"鳥取県","prefecture_kana":"トットリケン","city":"倉吉市","city_kana":"クラヨシシ","town":"小鴨","town_kana":"オガモ","prefecture_code":31},"0607":{"zip_code":"6820607","prefecture":"鳥取県","prefecture_kana":"トットリケン","city":"倉吉市","city_kana":"クラヨシシ","town":"尾田","town_kana":"オダ","prefecture_code":31},"0034":{"zip_code":"6820034","prefecture":"鳥取県","prefecture_kana":"トットリケン","city":"倉吉市","city_kana":"クラヨシシ","town":"大原","town_kana":"オハラ","prefecture_code":31},"0904":{"zip_code":"6820904","prefecture":"鳥取県","prefecture_kana":"トットリケン","city":"倉吉市","city_kana":"クラヨシシ","town":"尾原","town_kana":"オワラ","prefecture_code":31},"0014":{"zip_code":"6820014","prefecture":"鳥取県","prefecture_kana":"トットリケン","city":"倉吉市","city_kana":"クラヨシシ","town":"海田東町","town_kana":"カイダヒガシマチ","prefecture_code":31},"0016":{"zip_code":"6820016","prefecture":"鳥取県","prefecture_kana":"トットリケン","city":"倉吉市","city_kana":"クラヨシシ","town":"海田西町","town_kana":"カイダニシマチ","prefecture_code":31},"0015":{"zip_code":"6820015","prefecture":"鳥取県","prefecture_kana":"トットリケン","city":"倉吉市","city_kana":"クラヨシシ","town":"海田南町","town_kana":"カイダミナミマチ","prefecture_code":31},"0864":{"zip_code":"6820864","prefecture":"鳥取県","prefecture_kana":"トットリケン","city":"倉吉市","city_kana":"クラヨシシ","town":"鍛冶町","town_kana":"カジマチ","prefecture_code":31},"0902":{"zip_code":"6820902","prefecture":"鳥取県","prefecture_kana":"トットリケン","city":"倉吉市","city_kana":"クラヨシシ","town":"上神","town_kana":"カズワ","prefecture_code":31},"0621":{"zip_code":"6820621","prefecture":"鳥取県","prefecture_kana":"トットリケン","city":"倉吉市","city_kana":"クラヨシシ","town":"忰谷","town_kana":"カセダニ","prefecture_code":31},"0875":{"zip_code":"6820875","prefecture":"鳥取県","prefecture_kana":"トットリケン","city":"倉吉市","city_kana":"クラヨシシ","town":"金森町","town_kana":"カナモリチョウ","prefecture_code":31},"0041":{"zip_code":"6820041","prefecture":"鳥取県","prefecture_kana":"トットリケン","city":"倉吉市","city_kana":"クラヨシシ","town":"河北町","town_kana":"カホクチョウ","prefecture_code":31},"0631":{"zip_code":"6820631","prefecture":"鳥取県","prefecture_kana":"トットリケン","city":"倉吉市","city_kana":"クラヨシシ","town":"上大立","town_kana":"カミオオタチ","prefecture_code":31},"0642":{"zip_code":"6820642","prefecture":"鳥取県","prefecture_kana":"トットリケン","city":"倉吉市","city_kana":"クラヨシシ","town":"上福田","town_kana":"カミフクダ","prefecture_code":31},"0934":{"zip_code":"6820934","prefecture":"鳥取県","prefecture_kana":"トットリケン","city":"倉吉市","city_kana":"クラヨシシ","town":"上古川","town_kana":"カミフルカワ","prefecture_code":31},"0032":{"zip_code":"6820032","prefecture":"鳥取県","prefecture_kana":"トットリケン","city":"倉吉市","city_kana":"クラヨシシ","town":"上余戸","town_kana":"カミヨド","prefecture_code":31},"0602":{"zip_code":"6820602","prefecture":"鳥取県","prefecture_kana":"トットリケン","city":"倉吉市","city_kana":"クラヨシシ","town":"上米積","town_kana":"カミヨナヅミ","prefecture_code":31},"0923":{"zip_code":"6820923","prefecture":"鳥取県","prefecture_kana":"トットリケン","city":"倉吉市","city_kana":"クラヨシシ","town":"鴨川町","town_kana":"カモガワチョウ","prefecture_code":31},"0846":{"zip_code":"6820846","prefecture":"鳥取県","prefecture_kana":"トットリケン","city":"倉吉市","city_kana":"クラヨシシ","town":"鴨河内","town_kana":"カモゴウチ","prefecture_code":31},"0633":{"zip_code":"6820633","prefecture":"鳥取県","prefecture_kana":"トットリケン","city":"倉吉市","city_kana":"クラヨシシ","town":"河来見","town_kana":"カワクルミ","prefecture_code":31},"0924":{"zip_code":"6820924","prefecture":"鳥取県","prefecture_kana":"トットリケン","city":"倉吉市","city_kana":"クラヨシシ","town":"河原町","town_kana":"カワラマチ","prefecture_code":31},"0857":{"zip_code":"6820857","prefecture":"鳥取県","prefecture_kana":"トットリケン","city":"倉吉市","city_kana":"クラヨシシ","town":"北野","town_kana":"キタノ","prefecture_code":31},"0903":{"zip_code":"6820903","prefecture":"鳥取県","prefecture_kana":"トットリケン","city":"倉吉市","city_kana":"クラヨシシ","town":"北面","town_kana":"キタモ","prefecture_code":31},"0932":{"zip_code":"6820932","prefecture":"鳥取県","prefecture_kana":"トットリケン","city":"倉吉市","city_kana":"クラヨシシ","town":"蔵内","town_kana":"クラウチ","prefecture_code":31},"0033":{"zip_code":"6820033","prefecture":"鳥取県","prefecture_kana":"トットリケン","city":"倉吉市","city_kana":"クラヨシシ","town":"栗尾","town_kana":"クリオ","prefecture_code":31},"0945":{"zip_code":"6820945","prefecture":"鳥取県","prefecture_kana":"トットリケン","city":"倉吉市","city_kana":"クラヨシシ","town":"黒見","town_kana":"クロミ","prefecture_code":31},"0942":{"zip_code":"6820942","prefecture":"鳥取県","prefecture_kana":"トットリケン","city":"倉吉市","city_kana":"クラヨシシ","town":"国府","town_kana":"コウ","prefecture_code":31},"0035":{"zip_code":"6820035","prefecture":"鳥取県","prefecture_kana":"トットリケン","city":"倉吉市","city_kana":"クラヨシシ","town":"広栄町","town_kana":"コウエイチョウ","prefecture_code":31},"0883":{"zip_code":"6820883","prefecture":"鳥取県","prefecture_kana":"トットリケン","city":"倉吉市","city_kana":"クラヨシシ","town":"荒神町","town_kana":"コウジンチョウ","prefecture_code":31},"0943":{"zip_code":"6820943","prefecture":"鳥取県","prefecture_kana":"トットリケン","city":"倉吉市","city_kana":"クラヨシシ","town":"国分寺","town_kana":"コクブンジ","prefecture_code":31},"0867":{"zip_code":"6820867","prefecture":"鳥取県","prefecture_kana":"トットリケン","city":"倉吉市","city_kana":"クラヨシシ","town":"越殿町","town_kana":"コシドノチョウ","prefecture_code":31},"0044":{"zip_code":"6820044","prefecture":"鳥取県","prefecture_kana":"トットリケン","city":"倉吉市","city_kana":"クラヨシシ","town":"小田","town_kana":"コダ","prefecture_code":31},"0045":{"zip_code":"6820045","prefecture":"鳥取県","prefecture_kana":"トットリケン","city":"倉吉市","city_kana":"クラヨシシ","town":"小田東","town_kana":"コダヒガシ","prefecture_code":31},"0807":{"zip_code":"6820807","prefecture":"鳥取県","prefecture_kana":"トットリケン","city":"倉吉市","city_kana":"クラヨシシ","town":"幸町","town_kana":"サイワイマチ","prefecture_code":31},"0885":{"zip_code":"6820885","prefecture":"鳥取県","prefecture_kana":"トットリケン","city":"倉吉市","city_kana":"クラヨシシ","town":"堺町","town_kana":"サカエマチ","prefecture_code":31},"0634":{"zip_code":"6820634","prefecture":"鳥取県","prefecture_kana":"トットリケン","city":"倉吉市","city_kana":"クラヨシシ","town":"桜","town_kana":"サクラ","prefecture_code":31},"0606":{"zip_code":"6820606","prefecture":"鳥取県","prefecture_kana":"トットリケン","city":"倉吉市","city_kana":"クラヨシシ","town":"沢谷","town_kana":"サワダニ","prefecture_code":31},"0613":{"zip_code":"6820613","prefecture":"鳥取県","prefecture_kana":"トットリケン","city":"倉吉市","city_kana":"クラヨシシ","town":"志津","town_kana":"シツ","prefecture_code":31},"0837":{"zip_code":"6820837","prefecture":"鳥取県","prefecture_kana":"トットリケン","city":"倉吉市","city_kana":"クラヨシシ","town":"下大江","town_kana":"シモオオエ","prefecture_code":31},"0812":{"zip_code":"6820812","prefecture":"鳥取県","prefecture_kana":"トットリケン","city":"倉吉市","city_kana":"クラヨシシ","town":"下田中町","town_kana":"シモタナカチョウ","prefecture_code":31},"0643":{"zip_code":"6820643","prefecture":"鳥取県","prefecture_kana":"トットリケン","city":"倉吉市","city_kana":"クラヨシシ","town":"下福田","town_kana":"シモフクダ","prefecture_code":31},"0005":{"zip_code":"6820005","prefecture":"鳥取県","prefecture_kana":"トットリケン","city":"倉吉市","city_kana":"クラヨシシ","town":"下古川","town_kana":"シモフルカワ","prefecture_code":31},"0031":{"zip_code":"6820031","prefecture":"鳥取県","prefecture_kana":"トットリケン","city":"倉吉市","city_kana":"クラヨシシ","town":"下余戸","town_kana":"シモヨド","prefecture_code":31},"0601":{"zip_code":"6820601","prefecture":"鳥取県","prefecture_kana":"トットリケン","city":"倉吉市","city_kana":"クラヨシシ","town":"下米積","town_kana":"シモヨナヅミ","prefecture_code":31},"0925":{"zip_code":"6820925","prefecture":"鳥取県","prefecture_kana":"トットリケン","city":"倉吉市","city_kana":"クラヨシシ","town":"秋喜","town_kana":"シュウキ","prefecture_code":31},"0926":{"zip_code":"6820926","prefecture":"鳥取県","prefecture_kana":"トットリケン","city":"倉吉市","city_kana":"クラヨシシ","town":"秋喜西町","town_kana":"シュウキニシマチ","prefecture_code":31},"0806":{"zip_code":"6820806","prefecture":"鳥取県","prefecture_kana":"トットリケン","city":"倉吉市","city_kana":"クラヨシシ","town":"昭和町","town_kana":"ショウワマチ","prefecture_code":31},"0003":{"zip_code":"6820003","prefecture":"鳥取県","prefecture_kana":"トットリケン","city":"倉吉市","city_kana":"クラヨシシ","town":"新田","town_kana":"シンデン","prefecture_code":31},"0861":{"zip_code":"6820861","prefecture":"鳥取県","prefecture_kana":"トットリケン","city":"倉吉市","city_kana":"クラヨシシ","town":"新町","town_kana":"シンマチ","prefecture_code":31},"0815":{"zip_code":"6820815","prefecture":"鳥取県","prefecture_kana":"トットリケン","city":"倉吉市","city_kana":"クラヨシシ","town":"新陽町","town_kana":"シンヨウチョウ","prefecture_code":31},"0952":{"zip_code":"6820952","prefecture":"鳥取県","prefecture_kana":"トットリケン","city":"倉吉市","city_kana":"クラヨシシ","town":"鋤","town_kana":"スキ","prefecture_code":31},"0611":{"zip_code":"6820611","prefecture":"鳥取県","prefecture_kana":"トットリケン","city":"倉吉市","city_kana":"クラヨシシ","town":"杉野","town_kana":"スギノ","prefecture_code":31},"0843":{"zip_code":"6820843","prefecture":"鳥取県","prefecture_kana":"トットリケン","city":"倉吉市","city_kana":"クラヨシシ","town":"菅原","town_kana":"スゲガハラ","prefecture_code":31},"0817":{"zip_code":"6820817","prefecture":"鳥取県","prefecture_kana":"トットリケン","city":"倉吉市","city_kana":"クラヨシシ","town":"住吉町","town_kana":"スミヨシチョウ","prefecture_code":31},"0012":{"zip_code":"6820012","prefecture":"鳥取県","prefecture_kana":"トットリケン","city":"倉吉市","city_kana":"クラヨシシ","town":"清谷","town_kana":"セイダニ","prefecture_code":31},"0017":{"zip_code":"6820017","prefecture":"鳥取県","prefecture_kana":"トットリケン","city":"倉吉市","city_kana":"クラヨシシ","town":"清谷町","town_kana":"セイダニチョウ","prefecture_code":31},"0401":{"zip_code":"6820401","prefecture":"鳥取県","prefecture_kana":"トットリケン","city":"倉吉市","city_kana":"クラヨシシ","town":"関金町安歩","town_kana":"セキガネチョウアブ","prefecture_code":31},"0421":{"zip_code":"6820421","prefecture":"鳥取県","prefecture_kana":"トットリケン","city":"倉吉市","city_kana":"クラヨシシ","town":"関金町今西","town_kana":"セキガネチョウイマニシ","prefecture_code":31},"0402":{"zip_code":"6820402","prefecture":"鳥取県","prefecture_kana":"トットリケン","city":"倉吉市","city_kana":"クラヨシシ","town":"関金町大鳥居","town_kana":"セキガネチョウオオドリイ","prefecture_code":31},"0433":{"zip_code":"6820433","prefecture":"鳥取県","prefecture_kana":"トットリケン","city":"倉吉市","city_kana":"クラヨシシ","town":"関金町小泉","town_kana":"セキガネチョウコイズミ","prefecture_code":31},"0413":{"zip_code":"6820413","prefecture":"鳥取県","prefecture_kana":"トットリケン","city":"倉吉市","city_kana":"クラヨシシ","town":"関金町郡家","town_kana":"セキガネチョウコオゲ","prefecture_code":31},"0411":{"zip_code":"6820411","prefecture":"鳥取県","prefecture_kana":"トットリケン","city":"倉吉市","city_kana":"クラヨシシ","town":"関金町関金宿","town_kana":"セキガネチョウセキガネシュク","prefecture_code":31},"0404":{"zip_code":"6820404","prefecture":"鳥取県","prefecture_kana":"トットリケン","city":"倉吉市","city_kana":"クラヨシシ","town":"関金町泰久寺","town_kana":"セキガネチョウタイキュウジ","prefecture_code":31},"0434":{"zip_code":"6820434","prefecture":"鳥取県","prefecture_kana":"トットリケン","city":"倉吉市","city_kana":"クラヨシシ","town":"関金町野添","town_kana":"セキガネチョウノゾエ","prefecture_code":31},"0432":{"zip_code":"6820432","prefecture":"鳥取県","prefecture_kana":"トットリケン","city":"倉吉市","city_kana":"クラヨシシ","town":"関金町福原","town_kana":"セキガネチョウフクハラ","prefecture_code":31},"0422":{"zip_code":"6820422","prefecture":"鳥取県","prefecture_kana":"トットリケン","city":"倉吉市","city_kana":"クラヨシシ","town":"関金町堀","town_kana":"セキガネチョウホリ","prefecture_code":31},"0403":{"zip_code":"6820403","prefecture":"鳥取県","prefecture_kana":"トットリケン","city":"倉吉市","city_kana":"クラヨシシ","town":"関金町松河原","town_kana":"セキガネチョウマツガワラ","prefecture_code":31},"0423":{"zip_code":"6820423","prefecture":"鳥取県","prefecture_kana":"トットリケン","city":"倉吉市","city_kana":"クラヨシシ","town":"関金町明高","town_kana":"セキガネチョウミョウコウ","prefecture_code":31},"0412":{"zip_code":"6820412","prefecture":"鳥取県","prefecture_kana":"トットリケン","city":"倉吉市","city_kana":"クラヨシシ","town":"関金町山口","town_kana":"セキガネチョウヤマグチ","prefecture_code":31},"0431":{"zip_code":"6820431","prefecture":"鳥取県","prefecture_kana":"トットリケン","city":"倉吉市","city_kana":"クラヨシシ","town":"関金町米富","town_kana":"セキガネチョウヨネドメ","prefecture_code":31},"0863":{"zip_code":"6820863","prefecture":"鳥取県","prefecture_kana":"トットリケン","city":"倉吉市","city_kana":"クラヨシシ","town":"瀬崎町","town_kana":"セサキマチ","prefecture_code":31},"0886":{"zip_code":"6820886","prefecture":"鳥取県","prefecture_kana":"トットリケン","city":"倉吉市","city_kana":"クラヨシシ","town":"大正町","town_kana":"タイショウマチ","prefecture_code":31},"0816":{"zip_code":"6820816","prefecture":"鳥取県","prefecture_kana":"トットリケン","city":"倉吉市","city_kana":"クラヨシシ","town":"駄経寺町","town_kana":"ダキョウジチョウ","prefecture_code":31},"0626":{"zip_code":"6820626","prefecture":"鳥取県","prefecture_kana":"トットリケン","city":"倉吉市","city_kana":"クラヨシシ","town":"立見","town_kana":"タテミ","prefecture_code":31},"0954":{"zip_code":"6820954","prefecture":"鳥取県","prefecture_kana":"トットリケン","city":"倉吉市","city_kana":"クラヨシシ","town":"谷","town_kana":"タニ","prefecture_code":31},"0951":{"zip_code":"6820951","prefecture":"鳥取県","prefecture_kana":"トットリケン","city":"倉吉市","city_kana":"クラヨシシ","town":"津原","town_kana":"ツワラ","prefecture_code":31},"0911":{"zip_code":"6820911","prefecture":"鳥取県","prefecture_kana":"トットリケン","city":"倉吉市","city_kana":"クラヨシシ","town":"寺谷","town_kana":"テラダニ","prefecture_code":31},"0043":{"zip_code":"6820043","prefecture":"鳥取県","prefecture_kana":"トットリケン","city":"倉吉市","city_kana":"クラヨシシ","town":"天神町","town_kana":"テンジンチョウ","prefecture_code":31},"0884":{"zip_code":"6820884","prefecture":"鳥取県","prefecture_kana":"トットリケン","city":"倉吉市","city_kana":"クラヨシシ","town":"研屋町","town_kana":"トギヤマチ","prefecture_code":31},"0832":{"zip_code":"6820832","prefecture":"鳥取県","prefecture_kana":"トットリケン","city":"倉吉市","city_kana":"クラヨシシ","town":"富海","town_kana":"トドミ","prefecture_code":31},"0002":{"zip_code":"6820002","prefecture":"鳥取県","prefecture_kana":"トットリケン","city":"倉吉市","city_kana":"クラヨシシ","town":"中江","town_kana":"ナカエ","prefecture_code":31},"0856":{"zip_code":"6820856","prefecture":"鳥取県","prefecture_kana":"トットリケン","city":"倉吉市","city_kana":"クラヨシシ","town":"中河原","town_kana":"ナカガワラ","prefecture_code":31},"0612":{"zip_code":"6820612","prefecture":"鳥取県","prefecture_kana":"トットリケン","city":"倉吉市","city_kana":"クラヨシシ","town":"中野","town_kana":"ナカノ","prefecture_code":31},"0824":{"zip_code":"6820824","prefecture":"鳥取県","prefecture_kana":"トットリケン","city":"倉吉市","city_kana":"クラヨシシ","town":"仲ノ町","town_kana":"ナカノチョウ","prefecture_code":31},"0836":{"zip_code":"6820836","prefecture":"鳥取県","prefecture_kana":"トットリケン","city":"倉吉市","city_kana":"クラヨシシ","town":"長坂新町","town_kana":"ナガサカシンマチ","prefecture_code":31},"0835":{"zip_code":"6820835","prefecture":"鳥取県","prefecture_kana":"トットリケン","city":"倉吉市","city_kana":"クラヨシシ","town":"長坂町","town_kana":"ナガサカチョウ","prefecture_code":31},"0622":{"zip_code":"6820622","prefecture":"鳥取県","prefecture_kana":"トットリケン","city":"倉吉市","city_kana":"クラヨシシ","town":"長谷","town_kana":"ナガタニ","prefecture_code":31},"0874":{"zip_code":"6820874","prefecture":"鳥取県","prefecture_kana":"トットリケン","city":"倉吉市","city_kana":"クラヨシシ","town":"西岩倉町","town_kana":"ニシイワクラマチ","prefecture_code":31},"0851":{"zip_code":"6820851","prefecture":"鳥取県","prefecture_kana":"トットリケン","city":"倉吉市","city_kana":"クラヨシシ","town":"西倉吉町","town_kana":"ニシクラヨシチョウ","prefecture_code":31},"0825":{"zip_code":"6820825","prefecture":"鳥取県","prefecture_kana":"トットリケン","city":"倉吉市","city_kana":"クラヨシシ","town":"西仲町","town_kana":"ニシナカマチ","prefecture_code":31},"0921":{"zip_code":"6820921","prefecture":"鳥取県","prefecture_kana":"トットリケン","city":"倉吉市","city_kana":"クラヨシシ","town":"西福守町","town_kana":"ニシフクモリチョウ","prefecture_code":31},"0862":{"zip_code":"6820862","prefecture":"鳥取県","prefecture_kana":"トットリケン","city":"倉吉市","city_kana":"クラヨシシ","town":"西町","town_kana":"ニシマチ","prefecture_code":31},"0036":{"zip_code":"6820036","prefecture":"鳥取県","prefecture_kana":"トットリケン","city":"倉吉市","city_kana":"クラヨシシ","town":"虹ケ丘町","town_kana":"ニジガオカチョウ","prefecture_code":31},"0831":{"zip_code":"6820831","prefecture":"鳥取県","prefecture_kana":"トットリケン","city":"倉吉市","city_kana":"クラヨシシ","town":"八幡町","town_kana":"ハチマンチョウ","prefecture_code":31},"0635":{"zip_code":"6820635","prefecture":"鳥取県","prefecture_kana":"トットリケン","city":"倉吉市","city_kana":"クラヨシシ","town":"服部","town_kana":"ハットリ","prefecture_code":31},"0953":{"zip_code":"6820953","prefecture":"鳥取県","prefecture_kana":"トットリケン","city":"倉吉市","city_kana":"クラヨシシ","town":"半坂","town_kana":"ハンザカ","prefecture_code":31},"0914":{"zip_code":"6820914","prefecture":"鳥取県","prefecture_kana":"トットリケン","city":"倉吉市","city_kana":"クラヨシシ","town":"馬場町","town_kana":"ババチョウ","prefecture_code":31},"0624":{"zip_code":"6820624","prefecture":"鳥取県","prefecture_kana":"トットリケン","city":"倉吉市","city_kana":"クラヨシシ","town":"般若","town_kana":"ハンニャ","prefecture_code":31},"0802":{"zip_code":"6820802","prefecture":"鳥取県","prefecture_kana":"トットリケン","city":"倉吉市","city_kana":"クラヨシシ","town":"東巌城町","town_kana":"ヒガシイワキチョウ","prefecture_code":31},"0873":{"zip_code":"6820873","prefecture":"鳥取県","prefecture_kana":"トットリケン","city":"倉吉市","city_kana":"クラヨシシ","town":"東岩倉町","town_kana":"ヒガシイワクラマチ","prefecture_code":31},"0834":{"zip_code":"6820834","prefecture":"鳥取県","prefecture_kana":"トットリケン","city":"倉吉市","city_kana":"クラヨシシ","town":"東鴨","town_kana":"ヒガシガモ","prefecture_code":31},"0833":{"zip_code":"6820833","prefecture":"鳥取県","prefecture_kana":"トットリケン","city":"倉吉市","city_kana":"クラヨシシ","town":"東鴨新町","town_kana":"ヒガシガモシンマチ","prefecture_code":31},"0804":{"zip_code":"6820804","prefecture":"鳥取県","prefecture_kana":"トットリケン","city":"倉吉市","city_kana":"クラヨシシ","town":"東昭和町","town_kana":"ヒガシショウワマチ","prefecture_code":31},"0826":{"zip_code":"6820826","prefecture":"鳥取県","prefecture_kana":"トットリケン","city":"倉吉市","city_kana":"クラヨシシ","town":"東仲町","town_kana":"ヒガシナカマチ","prefecture_code":31},"0823":{"zip_code":"6820823","prefecture":"鳥取県","prefecture_kana":"トットリケン","city":"倉吉市","city_kana":"クラヨシシ","town":"東町","town_kana":"ヒガシマチ","prefecture_code":31},"0844":{"zip_code":"6820844","prefecture":"鳥取県","prefecture_kana":"トットリケン","city":"倉吉市","city_kana":"クラヨシシ","town":"広瀬","town_kana":"ヒロセ","prefecture_code":31},"0866":{"zip_code":"6820866","prefecture":"鳥取県","prefecture_kana":"トットリケン","city":"倉吉市","city_kana":"クラヨシシ","town":"広瀬町","town_kana":"ヒロセマチ","prefecture_code":31},"0644":{"zip_code":"6820644","prefecture":"鳥取県","prefecture_kana":"トットリケン","city":"倉吉市","city_kana":"クラヨシシ","town":"福積","town_kana":"フクヅミ","prefecture_code":31},"0605":{"zip_code":"6820605","prefecture":"鳥取県","prefecture_kana":"トットリケン","city":"倉吉市","city_kana":"クラヨシシ","town":"福富","town_kana":"フクドミ","prefecture_code":31},"0013":{"zip_code":"6820013","prefecture":"鳥取県","prefecture_kana":"トットリケン","city":"倉吉市","city_kana":"クラヨシシ","town":"福庭","town_kana":"フクバ","prefecture_code":31},"0018":{"zip_code":"6820018","prefecture":"鳥取県","prefecture_kana":"トットリケン","city":"倉吉市","city_kana":"クラヨシシ","town":"福庭町","town_kana":"フクバチョウ","prefecture_code":31},"0944":{"zip_code":"6820944","prefecture":"鳥取県","prefecture_kana":"トットリケン","city":"倉吉市","city_kana":"クラヨシシ","town":"福光","town_kana":"フクミツ","prefecture_code":31},"0604":{"zip_code":"6820604","prefecture":"鳥取県","prefecture_kana":"トットリケン","city":"倉吉市","city_kana":"クラヨシシ","town":"福本","town_kana":"フクモト","prefecture_code":31},"0922":{"zip_code":"6820922","prefecture":"鳥取県","prefecture_kana":"トットリケン","city":"倉吉市","city_kana":"クラヨシシ","town":"福守町","town_kana":"フクモリチョウ","prefecture_code":31},"0847":{"zip_code":"6820847","prefecture":"鳥取県","prefecture_kana":"トットリケン","city":"倉吉市","city_kana":"クラヨシシ","town":"福山","town_kana":"フクヤマ","prefecture_code":31},"0872":{"zip_code":"6820872","prefecture":"鳥取県","prefecture_kana":"トットリケン","city":"倉吉市","city_kana":"クラヨシシ","town":"福吉町","town_kana":"フクヨシチョウ","prefecture_code":31},"0915":{"zip_code":"6820915","prefecture":"鳥取県","prefecture_kana":"トットリケン","city":"倉吉市","city_kana":"クラヨシシ","town":"不入岡","town_kana":"フニオカ","prefecture_code":31},"0004":{"zip_code":"6820004","prefecture":"鳥取県","prefecture_kana":"トットリケン","city":"倉吉市","city_kana":"クラヨシシ","town":"古川沢","town_kana":"フルカワサワ","prefecture_code":31},"0905":{"zip_code":"6820905","prefecture":"鳥取県","prefecture_kana":"トットリケン","city":"倉吉市","city_kana":"クラヨシシ","town":"別所","town_kana":"ベッシヨ","prefecture_code":31},"0852":{"zip_code":"6820852","prefecture":"鳥取県","prefecture_kana":"トットリケン","city":"倉吉市","city_kana":"クラヨシシ","town":"丸山町","town_kana":"マルヤマチョウ","prefecture_code":31},"0603":{"zip_code":"6820603","prefecture":"鳥取県","prefecture_kana":"トットリケン","city":"倉吉市","city_kana":"クラヨシシ","town":"三江","town_kana":"ミエ","prefecture_code":31},"0854":{"zip_code":"6820854","prefecture":"鳥取県","prefecture_kana":"トットリケン","city":"倉吉市","city_kana":"クラヨシシ","town":"みどり町","town_kana":"ミドリマチ","prefecture_code":31},"0882":{"zip_code":"6820882","prefecture":"鳥取県","prefecture_kana":"トットリケン","city":"倉吉市","city_kana":"クラヨシシ","town":"湊町","town_kana":"ミナトマチ","prefecture_code":31},"0805":{"zip_code":"6820805","prefecture":"鳥取県","prefecture_kana":"トットリケン","city":"倉吉市","city_kana":"クラヨシシ","town":"南昭和町","town_kana":"ミナミショウワマチ","prefecture_code":31},"0845":{"zip_code":"6820845","prefecture":"鳥取県","prefecture_kana":"トットリケン","city":"倉吉市","city_kana":"クラヨシシ","town":"耳","town_kana":"ミミ","prefecture_code":31},"0881":{"zip_code":"6820881","prefecture":"鳥取県","prefecture_kana":"トットリケン","city":"倉吉市","city_kana":"クラヨシシ","town":"宮川町","town_kana":"ミヤガワチョウ","prefecture_code":31},"0803":{"zip_code":"6820803","prefecture":"鳥取県","prefecture_kana":"トットリケン","city":"倉吉市","city_kana":"クラヨシシ","town":"見日町","town_kana":"ミルカチョウ","prefecture_code":31},"0887":{"zip_code":"6820887","prefecture":"鳥取県","prefecture_kana":"トットリケン","city":"倉吉市","city_kana":"クラヨシシ","town":"明治町","town_kana":"メイジマチ","prefecture_code":31},"0625":{"zip_code":"6820625","prefecture":"鳥取県","prefecture_kana":"トットリケン","city":"倉吉市","city_kana":"クラヨシシ","town":"椋波","town_kana":"モクナミ","prefecture_code":31},"0615":{"zip_code":"6820615","prefecture":"鳥取県","prefecture_kana":"トットリケン","city":"倉吉市","city_kana":"クラヨシシ","town":"森","town_kana":"モリ","prefecture_code":31},"0025":{"zip_code":"6820025","prefecture":"鳥取県","prefecture_kana":"トットリケン","city":"倉吉市","city_kana":"クラヨシシ","town":"八屋","town_kana":"ヤツヤ","prefecture_code":31},"0023":{"zip_code":"6820023","prefecture":"鳥取県","prefecture_kana":"トットリケン","city":"倉吉市","city_kana":"クラヨシシ","town":"山根","town_kana":"ヤマネ","prefecture_code":31},"0946":{"zip_code":"6820946","prefecture":"鳥取県","prefecture_kana":"トットリケン","city":"倉吉市","city_kana":"クラヨシシ","town":"横田","town_kana":"ヨコタ","prefecture_code":31},"0853":{"zip_code":"6820853","prefecture":"鳥取県","prefecture_kana":"トットリケン","city":"倉吉市","city_kana":"クラヨシシ","town":"余戸谷町","town_kana":"ヨドヤチョウ","prefecture_code":31},"0814":{"zip_code":"6820814","prefecture":"鳥取県","prefecture_kana":"トットリケン","city":"倉吉市","city_kana":"クラヨシシ","town":"米田町","town_kana":"ヨネダチョウ","prefecture_code":31},"0912":{"zip_code":"6820912","prefecture":"鳥取県","prefecture_kana":"トットリケン","city":"倉吉市","city_kana":"クラヨシシ","town":"和田","town_kana":"ワダ","prefecture_code":31},"0913":{"zip_code":"6820913","prefecture":"鳥取県","prefecture_kana":"トットリケン","city":"倉吉市","city_kana":"クラヨシシ","town":"和田東町","town_kana":"ワダヒガシマチ","prefecture_code":31},"0100":{"zip_code":"6820100","prefecture":"鳥取県","prefecture_kana":"トットリケン","city":"東伯郡三朝町","city_kana":"トウハクグンミササチョウ","town":"以下に掲載がない場合","town_kana":"イカニケイサイガナイバアイ","prefecture_code":31},"0172":{"zip_code":"6820172","prefecture":"鳥取県","prefecture_kana":"トットリケン","city":"東伯郡三朝町","city_kana":"トウハクグンミササチョウ","town":"赤松","town_kana":"アカマツ","prefecture_code":31},"0303":{"zip_code":"6820303","prefecture":"鳥取県","prefecture_kana":"トットリケン","city":"東伯郡三朝町","city_kana":"トウハクグンミササチョウ","town":"穴鴨","town_kana":"アナガモ","prefecture_code":31},"0151":[{"zip_code":"6820151","prefecture":"鳥取県","prefecture_kana":"トットリケン","city":"東伯郡三朝町","city_kana":"トウハクグンミササチョウ","town":"今泉","town_kana":"イマイズミ","prefecture_code":31},{"zip_code":"6820151","prefecture":"鳥取県","prefecture_kana":"トットリケン","city":"東伯郡三朝町","city_kana":"トウハクグンミササチョウ","town":"若宮","town_kana":"ワカミヤ","prefecture_code":31}],"0177":{"zip_code":"6820177","prefecture":"鳥取県","prefecture_kana":"トットリケン","city":"東伯郡三朝町","city_kana":"トウハクグンミササチョウ","town":"大柿","town_kana":"オオガキ","prefecture_code":31},"0121":{"zip_code":"6820121","prefecture":"鳥取県","prefecture_kana":"トットリケン","city":"東伯郡三朝町","city_kana":"トウハクグンミササチョウ","town":"大瀬","town_kana":"オオゼ","prefecture_code":31},"0315":{"zip_code":"6820315","prefecture":"鳥取県","prefecture_kana":"トットリケン","city":"東伯郡三朝町","city_kana":"トウハクグンミササチョウ","town":"大谷","town_kana":"オオタニ","prefecture_code":31},"0157":{"zip_code":"6820157","prefecture":"鳥取県","prefecture_kana":"トットリケン","city":"東伯郡三朝町","city_kana":"トウハクグンミササチョウ","town":"小河内","town_kana":"オゴチ","prefecture_code":31},"0173":{"zip_code":"6820173","prefecture":"鳥取県","prefecture_kana":"トットリケン","city":"東伯郡三朝町","city_kana":"トウハクグンミササチョウ","town":"恩地","town_kana":"オンジ","prefecture_code":31},"0161":{"zip_code":"6820161","prefecture":"鳥取県","prefecture_kana":"トットリケン","city":"東伯郡三朝町","city_kana":"トウハクグンミササチョウ","town":"柿谷","town_kana":"カキダニ","prefecture_code":31},"0135":{"zip_code":"6820135","prefecture":"鳥取県","prefecture_kana":"トットリケン","city":"東伯郡三朝町","city_kana":"トウハクグンミササチョウ","town":"片柴","town_kana":"カタシバ","prefecture_code":31},"0302":{"zip_code":"6820302","prefecture":"鳥取県","prefecture_kana":"トットリケン","city":"東伯郡三朝町","city_kana":"トウハクグンミササチョウ","town":"加谷","town_kana":"カダニ","prefecture_code":31},"0154":{"zip_code":"6820154","prefecture":"鳥取県","prefecture_kana":"トットリケン","city":"東伯郡三朝町","city_kana":"トウハクグンミササチョウ","town":"鎌田","town_kana":"カマダ","prefecture_code":31},"0313":{"zip_code":"6820313","prefecture":"鳥取県","prefecture_kana":"トットリケン","city":"東伯郡三朝町","city_kana":"トウハクグンミササチョウ","town":"上西谷","town_kana":"カミニシダニ","prefecture_code":31},"0142":{"zip_code":"6820142","prefecture":"鳥取県","prefecture_kana":"トットリケン","city":"東伯郡三朝町","city_kana":"トウハクグンミササチョウ","town":"神倉","town_kana":"カンノクラ","prefecture_code":31},"0301":{"zip_code":"6820301","prefecture":"鳥取県","prefecture_kana":"トットリケン","city":"東伯郡三朝町","city_kana":"トウハクグンミササチョウ","town":"木地山","town_kana":"キジヤマ","prefecture_code":31},"0375":{"zip_code":"6820375","prefecture":"鳥取県","prefecture_kana":"トットリケン","city":"東伯郡三朝町","city_kana":"トウハクグンミササチョウ","town":"久原","town_kana":"クバラ","prefecture_code":31},"0123":[{"zip_code":"6820123","prefecture":"鳥取県","prefecture_kana":"トットリケン","city":"東伯郡三朝町","city_kana":"トウハクグンミササチョウ","town":"恋谷","town_kana":"コイダニ","prefecture_code":31},{"zip_code":"6820123","prefecture":"鳥取県","prefecture_kana":"トットリケン","city":"東伯郡三朝町","city_kana":"トウハクグンミササチョウ","town":"三朝","town_kana":"ミササ","prefecture_code":31}],"0136":{"zip_code":"6820136","prefecture":"鳥取県","prefecture_kana":"トットリケン","city":"東伯郡三朝町","city_kana":"トウハクグンミササチョウ","town":"坂本","town_kana":"サカモト","prefecture_code":31},"0133":[{"zip_code":"6820133","prefecture":"鳥取県","prefecture_kana":"トットリケン","city":"東伯郡三朝町","city_kana":"トウハクグンミササチョウ","town":"桜ケ丘","town_kana":"サクラガオカ","prefecture_code":31},{"zip_code":"6820133","prefecture":"鳥取県","prefecture_kana":"トットリケン","city":"東伯郡三朝町","city_kana":"トウハクグンミササチョウ","town":"吉田","town_kana":"ヨシダ","prefecture_code":31}],"0156":{"zip_code":"6820156","prefecture":"鳥取県","prefecture_kana":"トットリケン","city":"東伯郡三朝町","city_kana":"トウハクグンミササチョウ","town":"下谷","town_kana":"シモダニ","prefecture_code":31},"0312":{"zip_code":"6820312","prefecture":"鳥取県","prefecture_kana":"トットリケン","city":"東伯郡三朝町","city_kana":"トウハクグンミササチョウ","town":"下西谷","town_kana":"シモニシダニ","prefecture_code":31},"0316":{"zip_code":"6820316","prefecture":"鳥取県","prefecture_kana":"トットリケン","city":"東伯郡三朝町","city_kana":"トウハクグンミササチョウ","town":"下畑","town_kana":"シモバタ","prefecture_code":31},"0176":{"zip_code":"6820176","prefecture":"鳥取県","prefecture_kana":"トットリケン","city":"東伯郡三朝町","city_kana":"トウハクグンミササチョウ","town":"助谷","town_kana":"スケダニ","prefecture_code":31},"0124":{"zip_code":"6820124","prefecture":"鳥取県","prefecture_kana":"トットリケン","city":"東伯郡三朝町","city_kana":"トウハクグンミササチョウ","town":"砂原","town_kana":"スナワラ","prefecture_code":31},"0374":{"zip_code":"6820374","prefecture":"鳥取県","prefecture_kana":"トットリケン","city":"東伯郡三朝町","city_kana":"トウハクグンミササチョウ","town":"曹源寺","town_kana":"ソウゲンジ","prefecture_code":31},"0146":{"zip_code":"6820146","prefecture":"鳥取県","prefecture_kana":"トットリケン","city":"東伯郡三朝町","city_kana":"トウハクグンミササチョウ","town":"高橋","town_kana":"タカハシ","prefecture_code":31},"0314":{"zip_code":"6820314","prefecture":"鳥取県","prefecture_kana":"トットリケン","city":"東伯郡三朝町","city_kana":"トウハクグンミササチョウ","town":"田代","town_kana":"タシロ","prefecture_code":31},"0131":{"zip_code":"6820131","prefecture":"鳥取県","prefecture_kana":"トットリケン","city":"東伯郡三朝町","city_kana":"トウハクグンミササチョウ","town":"俵原","town_kana":"タワラ","prefecture_code":31},"0158":{"zip_code":"6820158","prefecture":"鳥取県","prefecture_kana":"トットリケン","city":"東伯郡三朝町","city_kana":"トウハクグンミササチョウ","town":"笏賀","town_kana":"ツガ","prefecture_code":31},"0153":[{"zip_code":"6820153","prefecture":"鳥取県","prefecture_kana":"トットリケン","city":"東伯郡三朝町","city_kana":"トウハクグンミササチョウ","town":"天神","town_kana":"テンジン","prefecture_code":31},{"zip_code":"6820153","prefecture":"鳥取県","prefecture_kana":"トットリケン","city":"東伯郡三朝町","city_kana":"トウハクグンミササチョウ","town":"森","town_kana":"モリ","prefecture_code":31}],"0125":[{"zip_code":"6820125","prefecture":"鳥取県","prefecture_kana":"トットリケン","city":"東伯郡三朝町","city_kana":"トウハクグンミササチョウ","town":"徳本","town_kana":"トクモト","prefecture_code":31},{"zip_code":"6820125","prefecture":"鳥取県","prefecture_kana":"トットリケン","city":"東伯郡三朝町","city_kana":"トウハクグンミササチョウ","town":"横手","town_kana":"ヨコテ","prefecture_code":31}],"0141":{"zip_code":"6820141","prefecture":"鳥取県","prefecture_kana":"トットリケン","city":"東伯郡三朝町","city_kana":"トウハクグンミササチョウ","town":"中津","town_kana":"ナカツ","prefecture_code":31},"0162":{"zip_code":"6820162","prefecture":"鳥取県","prefecture_kana":"トットリケン","city":"東伯郡三朝町","city_kana":"トウハクグンミササチョウ","town":"鉛山","town_kana":"ナマリヤマ","prefecture_code":31},"0145":{"zip_code":"6820145","prefecture":"鳥取県","prefecture_kana":"トットリケン","city":"東伯郡三朝町","city_kana":"トウハクグンミササチョウ","town":"西尾","town_kana":"ニシオ","prefecture_code":31},"0144":{"zip_code":"6820144","prefecture":"鳥取県","prefecture_kana":"トットリケン","city":"東伯郡三朝町","city_kana":"トウハクグンミササチョウ","town":"西小鹿","town_kana":"ニシオシカ","prefecture_code":31},"0143":{"zip_code":"6820143","prefecture":"鳥取県","prefecture_kana":"トットリケン","city":"東伯郡三朝町","city_kana":"トウハクグンミササチョウ","town":"東小鹿","town_kana":"ヒガシオシカ","prefecture_code":31},"0159":{"zip_code":"6820159","prefecture":"鳥取県","prefecture_kana":"トットリケン","city":"東伯郡三朝町","city_kana":"トウハクグンミササチョウ","town":"福田","town_kana":"フクダ","prefecture_code":31},"0317":{"zip_code":"6820317","prefecture":"鳥取県","prefecture_kana":"トットリケン","city":"東伯郡三朝町","city_kana":"トウハクグンミササチョウ","town":"福本","town_kana":"フクモト","prefecture_code":31},"0311":{"zip_code":"6820311","prefecture":"鳥取県","prefecture_kana":"トットリケン","city":"東伯郡三朝町","city_kana":"トウハクグンミササチョウ","town":"福山","town_kana":"フクヤマ","prefecture_code":31},"0163":{"zip_code":"6820163","prefecture":"鳥取県","prefecture_kana":"トットリケン","city":"東伯郡三朝町","city_kana":"トウハクグンミササチョウ","town":"福吉","town_kana":"フクヨシ","prefecture_code":31},"0178":{"zip_code":"6820178","prefecture":"鳥取県","prefecture_kana":"トットリケン","city":"東伯郡三朝町","city_kana":"トウハクグンミササチョウ","town":"牧","town_kana":"マキ","prefecture_code":31},"0132":{"zip_code":"6820132","prefecture":"鳥取県","prefecture_kana":"トットリケン","city":"東伯郡三朝町","city_kana":"トウハクグンミササチョウ","town":"三徳","town_kana":"ミトク","prefecture_code":31},"0152":{"zip_code":"6820152","prefecture":"鳥取県","prefecture_kana":"トットリケン","city":"東伯郡三朝町","city_kana":"トウハクグンミササチョウ","town":"本泉","town_kana":"モトイズミ","prefecture_code":31},"0122":{"zip_code":"6820122","prefecture":"鳥取県","prefecture_kana":"トットリケン","city":"東伯郡三朝町","city_kana":"トウハクグンミササチョウ","town":"山田","town_kana":"ヤマダ","prefecture_code":31},"0171":{"zip_code":"6820171","prefecture":"鳥取県","prefecture_kana":"トットリケン","city":"東伯郡三朝町","city_kana":"トウハクグンミササチョウ","town":"湯谷","town_kana":"ユタニ","prefecture_code":31},"0155":{"zip_code":"6820155","prefecture":"鳥取県","prefecture_kana":"トットリケン","city":"東伯郡三朝町","city_kana":"トウハクグンミササチョウ","town":"吉尾","town_kana":"ヨシオ","prefecture_code":31},"0134":{"zip_code":"6820134","prefecture":"鳥取県","prefecture_kana":"トットリケン","city":"東伯郡三朝町","city_kana":"トウハクグンミササチョウ","town":"余戸","town_kana":"ヨド","prefecture_code":31},"0700":{"zip_code":"6820700","prefecture":"鳥取県","prefecture_kana":"トットリケン","city":"東伯郡湯梨浜町","city_kana":"トウハクグンユリハマチョウ","town":"以下に掲載がない場合","town_kana":"イカニケイサイガナイバアイ","prefecture_code":31},"0714":{"zip_code":"6820714","prefecture":"鳥取県","prefecture_kana":"トットリケン","city":"東伯郡湯梨浜町","city_kana":"トウハクグンユリハマチョウ","town":"赤池","town_kana":"アカイケ","prefecture_code":31},"0701":{"zip_code":"6820701","prefecture":"鳥取県","prefecture_kana":"トットリケン","city":"東伯郡湯梨浜町","city_kana":"トウハクグンユリハマチョウ","town":"宇野","town_kana":"ウノ","prefecture_code":31},"0712":{"zip_code":"6820712","prefecture":"鳥取県","prefecture_kana":"トットリケン","city":"東伯郡湯梨浜町","city_kana":"トウハクグンユリハマチョウ","town":"上浅津","town_kana":"カミアソヅ","prefecture_code":31},"0703":{"zip_code":"6820703","prefecture":"鳥取県","prefecture_kana":"トットリケン","city":"東伯郡湯梨浜町","city_kana":"トウハクグンユリハマチョウ","town":"上橋津","town_kana":"カミハシヅ","prefecture_code":31},"0711":{"zip_code":"6820711","prefecture":"鳥取県","prefecture_kana":"トットリケン","city":"東伯郡湯梨浜町","city_kana":"トウハクグンユリハマチョウ","town":"下浅津","town_kana":"シモアソヅ","prefecture_code":31},"0721":{"zip_code":"6820721","prefecture":"鳥取県","prefecture_kana":"トットリケン","city":"東伯郡湯梨浜町","city_kana":"トウハクグンユリハマチョウ","town":"田後","town_kana":"タジリ","prefecture_code":31},"0702":{"zip_code":"6820702","prefecture":"鳥取県","prefecture_kana":"トットリケン","city":"東伯郡湯梨浜町","city_kana":"トウハクグンユリハマチョウ","town":"橋津","town_kana":"ハシヅ","prefecture_code":31},"0715":{"zip_code":"6820715","prefecture":"鳥取県","prefecture_kana":"トットリケン","city":"東伯郡湯梨浜町","city_kana":"トウハクグンユリハマチョウ","town":"はわい温泉","town_kana":"ハワイオンセン","prefecture_code":31},"0722":{"zip_code":"6820722","prefecture":"鳥取県","prefecture_kana":"トットリケン","city":"東伯郡湯梨浜町","city_kana":"トウハクグンユリハマチョウ","town":"はわい長瀬","town_kana":"ハワイナガセ","prefecture_code":31},"0723":{"zip_code":"6820723","prefecture":"鳥取県","prefecture_kana":"トットリケン","city":"東伯郡湯梨浜町","city_kana":"トウハクグンユリハマチョウ","town":"久留","town_kana":"ヒサドメ","prefecture_code":31},"0724":{"zip_code":"6820724","prefecture":"鳥取県","prefecture_kana":"トットリケン","city":"東伯郡湯梨浜町","city_kana":"トウハクグンユリハマチョウ","town":"水下","town_kana":"ミズオチ","prefecture_code":31},"0713":{"zip_code":"6820713","prefecture":"鳥取県","prefecture_kana":"トットリケン","city":"東伯郡湯梨浜町","city_kana":"トウハクグンユリハマチョウ","town":"光吉","town_kana":"ミツヨシ","prefecture_code":31},"0704":{"zip_code":"6820704","prefecture":"鳥取県","prefecture_kana":"トットリケン","city":"東伯郡湯梨浜町","city_kana":"トウハクグンユリハマチョウ","town":"南谷","town_kana":"ミナミダニ","prefecture_code":31}}