{"0000":{"zip_code":"6830000","prefecture":"鳥取県","prefecture_kana":"トットリケン","city":"米子市","city_kana":"ヨナゴシ","town":"","town_kana":"","prefecture_code":31},"0252":{"zip_code":"6830252","prefecture":"鳥取県","prefecture_kana":"トットリケン","city":"米子市","city_kana":"ヨナゴシ","town":"青木","town_kana":"アオキ","prefecture_code":31},"0813":{"zip_code":"6830813","prefecture":"鳥取県","prefecture_kana":"トットリケン","city":"米子市","city_kana":"ヨナゴシ","town":"朝日町","town_kana":"アサヒマチ","prefecture_code":31},"0046":{"zip_code":"6830046","prefecture":"鳥取県","prefecture_kana":"トットリケン","city":"米子市","city_kana":"ヨナゴシ","town":"愛宕町","town_kana":"アタゴチョウ","prefecture_code":31},"0846":{"zip_code":"6830846","prefecture":"鳥取県","prefecture_kana":"トットリケン","city":"米子市","city_kana":"ヨナゴシ","town":"安倍","town_kana":"アベ","prefecture_code":31},"0021":{"zip_code":"6830021","prefecture":"鳥取県","prefecture_kana":"トットリケン","city":"米子市","city_kana":"ヨナゴシ","town":"石井","town_kana":"イシイ","prefecture_code":31},"0833":{"zip_code":"6830833","prefecture":"鳥取県","prefecture_kana":"トットリケン","city":"米子市","city_kana":"ヨナゴシ","town":"岩倉町","town_kana":"イワクラマチ","prefecture_code":31},"0027":{"zip_code":"6830027","prefecture":"鳥取県","prefecture_kana":"トットリケン","city":"米子市","city_kana":"ヨナゴシ","town":"陰田町","town_kana":"インダチョウ","prefecture_code":31},"0834":{"zip_code":"6830834","prefecture":"鳥取県","prefecture_kana":"トットリケン","city":"米子市","city_kana":"ヨナゴシ","town":"内町","town_kana":"ウチマチ","prefecture_code":31},"0257":{"zip_code":"6830257","prefecture":"鳥取県","prefecture_kana":"トットリケン","city":"米子市","city_kana":"ヨナゴシ","town":"榎原","town_kana":"エノキハラ","prefecture_code":31},"0104":{"zip_code":"6830104","prefecture":"鳥取県","prefecture_kana":"トットリケン","city":"米子市","city_kana":"ヨナゴシ","town":"大崎","town_kana":"オオザキ","prefecture_code":31},"0101":{"zip_code":"6830101","prefecture":"鳥取県","prefecture_kana":"トットリケン","city":"米子市","city_kana":"ヨナゴシ","town":"大篠津町","town_kana":"オオシノヅチョウ","prefecture_code":31},"0045":{"zip_code":"6830045","prefecture":"鳥取県","prefecture_kana":"トットリケン","city":"米子市","city_kana":"ヨナゴシ","town":"大谷町","town_kana":"オオダニチョウ","prefecture_code":31},"0256":{"zip_code":"6830256","prefecture":"鳥取県","prefecture_kana":"トットリケン","city":"米子市","city_kana":"ヨナゴシ","town":"大袋","town_kana":"オオブクロ","prefecture_code":31},"0016":{"zip_code":"6830016","prefecture":"鳥取県","prefecture_kana":"トットリケン","city":"米子市","city_kana":"ヨナゴシ","town":"奥谷","town_kana":"オクノタニ","prefecture_code":31},"0814":{"zip_code":"6830814","prefecture":"鳥取県","prefecture_kana":"トットリケン","city":"米子市","city_kana":"ヨナゴシ","town":"尾高町","town_kana":"オダカマチ","prefecture_code":31},"0003":{"zip_code":"6830003","prefecture":"鳥取県","prefecture_kana":"トットリケン","city":"米子市","city_kana":"ヨナゴシ","town":"皆生","town_kana":"カイケ","prefecture_code":31},"0001":{"zip_code":"6830001","prefecture":"鳥取県","prefecture_kana":"トットリケン","city":"米子市","city_kana":"ヨナゴシ","town":"皆生温泉","town_kana":"カイケオンセン","prefecture_code":31},"0002":{"zip_code":"6830002","prefecture":"鳥取県","prefecture_kana":"トットリケン","city":"米子市","city_kana":"ヨナゴシ","town":"皆生新田","town_kana":"カイケシンデン","prefecture_code":31},"0812":{"zip_code":"6830812","prefecture":"鳥取県","prefecture_kana":"トットリケン","city":"米子市","city_kana":"ヨナゴシ","town":"角盤町","town_kana":"カクバンチョウ","prefecture_code":31},"0251":{"zip_code":"6830251","prefecture":"鳥取県","prefecture_kana":"トットリケン","city":"米子市","city_kana":"ヨナゴシ","town":"兼久","town_kana":"カネヒサ","prefecture_code":31},"0255":{"zip_code":"6830255","prefecture":"鳥取県","prefecture_kana":"トットリケン","city":"米子市","city_kana":"ヨナゴシ","town":"上安曇","town_kana":"カミアズマ","prefecture_code":31},"0841":{"zip_code":"6830841","prefecture":"鳥取県","prefecture_kana":"トットリケン","city":"米子市","city_kana":"ヨナゴシ","town":"上後藤","town_kana":"カミゴトウ","prefecture_code":31},"0004":{"zip_code":"6830004","prefecture":"鳥取県","prefecture_kana":"トットリケン","city":"米子市","city_kana":"ヨナゴシ","town":"上福原","town_kana":"カミフクバラ","prefecture_code":31},"0823":{"zip_code":"6830823","prefecture":"鳥取県","prefecture_kana":"トットリケン","city":"米子市","city_kana":"ヨナゴシ","town":"加茂町","town_kana":"カモチョウ","prefecture_code":31},"0852":{"zip_code":"6830852","prefecture":"鳥取県","prefecture_kana":"トットリケン","city":"米子市","city_kana":"ヨナゴシ","town":"河崎","town_kana":"カワサキ","prefecture_code":31},"0051":{"zip_code":"6830051","prefecture":"鳥取県","prefecture_kana":"トットリケン","city":"米子市","city_kana":"ヨナゴシ","town":"勝田町","town_kana":"カンダマチ","prefecture_code":31},"0007":{"zip_code":"6830007","prefecture":"鳥取県","prefecture_kana":"トットリケン","city":"米子市","city_kana":"ヨナゴシ","town":"観音寺","town_kana":"カンノンジ","prefecture_code":31},"0009":{"zip_code":"6830009","prefecture":"鳥取県","prefecture_kana":"トットリケン","city":"米子市","city_kana":"ヨナゴシ","town":"観音寺新町","town_kana":"カンノンジシンマチ","prefecture_code":31},"0047":{"zip_code":"6830047","prefecture":"鳥取県","prefecture_kana":"トットリケン","city":"米子市","city_kana":"ヨナゴシ","town":"祇園町","town_kana":"ギオンチョウ","prefecture_code":31},"0844":{"zip_code":"6830844","prefecture":"鳥取県","prefecture_kana":"トットリケン","city":"米子市","city_kana":"ヨナゴシ","town":"義方町","town_kana":"ギホウチョウ","prefecture_code":31},"0825":{"zip_code":"6830825","prefecture":"鳥取県","prefecture_kana":"トットリケン","city":"米子市","city_kana":"ヨナゴシ","town":"錦海町","town_kana":"キンカイチョウ","prefecture_code":31},"0006":{"zip_code":"6830006","prefecture":"鳥取県","prefecture_kana":"トットリケン","city":"米子市","city_kana":"ヨナゴシ","town":"車尾","town_kana":"クズモ","prefecture_code":31},"0008":{"zip_code":"6830008","prefecture":"鳥取県","prefecture_kana":"トットリケン","city":"米子市","city_kana":"ヨナゴシ","town":"車尾南","town_kana":"クズモミナミ","prefecture_code":31},"0824":{"zip_code":"6830824","prefecture":"鳥取県","prefecture_kana":"トットリケン","city":"米子市","city_kana":"ヨナゴシ","town":"久米町","town_kana":"クメチョウ","prefecture_code":31},"0054":{"zip_code":"6830054","prefecture":"鳥取県","prefecture_kana":"トットリケン","city":"米子市","city_kana":"ヨナゴシ","town":"糀町","town_kana":"コウジマチ","prefecture_code":31},"0062":{"zip_code":"6830062","prefecture":"鳥取県","prefecture_kana":"トットリケン","city":"米子市","city_kana":"ヨナゴシ","town":"紺屋町","town_kana":"コウヤマチ","prefecture_code":31},"0842":{"zip_code":"6830842","prefecture":"鳥取県","prefecture_kana":"トットリケン","city":"米子市","city_kana":"ヨナゴシ","town":"三本松","town_kana":"サンボンマツ","prefecture_code":31},"0042":{"zip_code":"6830042","prefecture":"鳥取県","prefecture_kana":"トットリケン","city":"米子市","city_kana":"ヨナゴシ","town":"塩町","town_kana":"シオマチ","prefecture_code":31},"0253":{"zip_code":"6830253","prefecture":"鳥取県","prefecture_kana":"トットリケン","city":"米子市","city_kana":"ヨナゴシ","town":"下安曇","town_kana":"シモアズマ","prefecture_code":31},"0037":{"zip_code":"6830037","prefecture":"鳥取県","prefecture_kana":"トットリケン","city":"米子市","city_kana":"ヨナゴシ","town":"昭和町","town_kana":"ショウワチョウ","prefecture_code":31},"0801":{"zip_code":"6830801","prefecture":"鳥取県","prefecture_kana":"トットリケン","city":"米子市","city_kana":"ヨナゴシ","town":"新開","town_kana":"シンカイ","prefecture_code":31},"0043":{"zip_code":"6830043","prefecture":"鳥取県","prefecture_kana":"トットリケン","city":"米子市","city_kana":"ヨナゴシ","town":"末広町","town_kana":"スエヒロチョウ","prefecture_code":31},"0013":{"zip_code":"6830013","prefecture":"鳥取県","prefecture_kana":"トットリケン","city":"米子市","city_kana":"ヨナゴシ","town":"諏訪","town_kana":"スワ","prefecture_code":31},"0044":{"zip_code":"6830044","prefecture":"鳥取県","prefecture_kana":"トットリケン","city":"米子市","city_kana":"ヨナゴシ","town":"大工町","town_kana":"ダイクマチ","prefecture_code":31},"0832":{"zip_code":"6830832","prefecture":"鳥取県","prefecture_kana":"トットリケン","city":"米子市","city_kana":"ヨナゴシ","town":"立町","town_kana":"タテマチ","prefecture_code":31},"0041":{"zip_code":"6830041","prefecture":"鳥取県","prefecture_kana":"トットリケン","city":"米子市","city_kana":"ヨナゴシ","town":"茶町","town_kana":"チャマチ","prefecture_code":31},"0831":{"zip_code":"6830831","prefecture":"鳥取県","prefecture_kana":"トットリケン","city":"米子市","city_kana":"ヨナゴシ","town":"寺町","town_kana":"テラマチ","prefecture_code":31},"0821":{"zip_code":"6830821","prefecture":"鳥取県","prefecture_kana":"トットリケン","city":"米子市","city_kana":"ヨナゴシ","town":"天神町","town_kana":"テンジンマチ","prefecture_code":31},"0064":{"zip_code":"6830064","prefecture":"鳥取県","prefecture_kana":"トットリケン","city":"米子市","city_kana":"ヨナゴシ","town":"道笑町","town_kana":"ドウショウマチ","prefecture_code":31},"0103":{"zip_code":"6830103","prefecture":"鳥取県","prefecture_kana":"トットリケン","city":"米子市","city_kana":"ヨナゴシ","town":"富益町","town_kana":"トミマスチョウ","prefecture_code":31},"0005":{"zip_code":"6830005","prefecture":"鳥取県","prefecture_kana":"トットリケン","city":"米子市","city_kana":"ヨナゴシ","town":"中島","town_kana":"ナカシマ","prefecture_code":31},"0822":{"zip_code":"6830822","prefecture":"鳥取県","prefecture_kana":"トットリケン","city":"米子市","city_kana":"ヨナゴシ","town":"中町","town_kana":"ナカマチ","prefecture_code":31},"0014":{"zip_code":"6830014","prefecture":"鳥取県","prefecture_kana":"トットリケン","city":"米子市","city_kana":"ヨナゴシ","town":"永江","town_kana":"ナガエ","prefecture_code":31},"0033":{"zip_code":"6830033","prefecture":"鳥取県","prefecture_kana":"トットリケン","city":"米子市","city_kana":"ヨナゴシ","town":"長砂町","town_kana":"ナガスナチョウ","prefecture_code":31},"0022":{"zip_code":"6830022","prefecture":"鳥取県","prefecture_kana":"トットリケン","city":"米子市","city_kana":"ヨナゴシ","town":"奈喜良","town_kana":"ナギラ","prefecture_code":31},"0835":{"zip_code":"6830835","prefecture":"鳥取県","prefecture_kana":"トットリケン","city":"米子市","city_kana":"ヨナゴシ","town":"灘町","town_kana":"ナダマチ","prefecture_code":31},"0026":{"zip_code":"6830026","prefecture":"鳥取県","prefecture_kana":"トットリケン","city":"米子市","city_kana":"ヨナゴシ","town":"新山","town_kana":"ニイヤマ","prefecture_code":31},"0811":{"zip_code":"6830811","prefecture":"鳥取県","prefecture_kana":"トットリケン","city":"米子市","city_kana":"ヨナゴシ","town":"錦町","town_kana":"ニシキチョウ","prefecture_code":31},"0816":{"zip_code":"6830816","prefecture":"鳥取県","prefecture_kana":"トットリケン","city":"米子市","city_kana":"ヨナゴシ","town":"西倉吉町","town_kana":"ニシクラヨシマチ","prefecture_code":31},"0826":{"zip_code":"6830826","prefecture":"鳥取県","prefecture_kana":"トットリケン","city":"米子市","city_kana":"ヨナゴシ","town":"西町","town_kana":"ニシチョウ","prefecture_code":31},"0805":{"zip_code":"6830805","prefecture":"鳥取県","prefecture_kana":"トットリケン","city":"米子市","city_kana":"ヨナゴシ","town":"西福原","town_kana":"ニシフクバラ","prefecture_code":31},"0052":{"zip_code":"6830052","prefecture":"鳥取県","prefecture_kana":"トットリケン","city":"米子市","city_kana":"ヨナゴシ","town":"博労町","town_kana":"バクロウマチ","prefecture_code":31},"0023":{"zip_code":"6830023","prefecture":"鳥取県","prefecture_kana":"トットリケン","city":"米子市","city_kana":"ヨナゴシ","town":"橋本","town_kana":"ハシモト","prefecture_code":31},"0845":{"zip_code":"6830845","prefecture":"鳥取県","prefecture_kana":"トットリケン","city":"米子市","city_kana":"ヨナゴシ","town":"旗ケ崎","town_kana":"ハタガサキ","prefecture_code":31},"0836":{"zip_code":"6830836","prefecture":"鳥取県","prefecture_kana":"トットリケン","city":"米子市","city_kana":"ヨナゴシ","town":"花園町","town_kana":"ハナゾノチョウ","prefecture_code":31},"0815":{"zip_code":"6830815","prefecture":"鳥取県","prefecture_kana":"トットリケン","city":"米子市","city_kana":"ヨナゴシ","town":"東倉吉町","town_kana":"ヒガシクラヨシマチ","prefecture_code":31},"0067":{"zip_code":"6830067","prefecture":"鳥取県","prefecture_kana":"トットリケン","city":"米子市","city_kana":"ヨナゴシ","town":"東町","town_kana":"ヒガシチョウ","prefecture_code":31},"0802":{"zip_code":"6830802","prefecture":"鳥取県","prefecture_kana":"トットリケン","city":"米子市","city_kana":"ヨナゴシ","town":"東福原","town_kana":"ヒガシフクバラ","prefecture_code":31},"0031":{"zip_code":"6830031","prefecture":"鳥取県","prefecture_kana":"トットリケン","city":"米子市","city_kana":"ヨナゴシ","town":"東山町","town_kana":"ヒガシヤマチョウ","prefecture_code":31},"0855":{"zip_code":"6830855","prefecture":"鳥取県","prefecture_kana":"トットリケン","city":"米子市","city_kana":"ヨナゴシ","town":"彦名新田","town_kana":"ヒコナシンデン","prefecture_code":31},"0854":{"zip_code":"6830854","prefecture":"鳥取県","prefecture_kana":"トットリケン","city":"米子市","city_kana":"ヨナゴシ","town":"彦名町","town_kana":"ヒコナチョウ","prefecture_code":31},"0803":{"zip_code":"6830803","prefecture":"鳥取県","prefecture_kana":"トットリケン","city":"米子市","city_kana":"ヨナゴシ","town":"日ノ出町","town_kana":"ヒノデチョウ","prefecture_code":31},"0066":{"zip_code":"6830066","prefecture":"鳥取県","prefecture_kana":"トットリケン","city":"米子市","city_kana":"ヨナゴシ","town":"日野町","town_kana":"ヒノマチ","prefecture_code":31},"0015":{"zip_code":"6830015","prefecture":"鳥取県","prefecture_kana":"トットリケン","city":"米子市","city_kana":"ヨナゴシ","town":"日原","town_kana":"ヒバラ","prefecture_code":31},"0011":{"zip_code":"6830011","prefecture":"鳥取県","prefecture_kana":"トットリケン","city":"米子市","city_kana":"ヨナゴシ","town":"福市","town_kana":"フクイチ","prefecture_code":31},"0055":{"zip_code":"6830055","prefecture":"鳥取県","prefecture_kana":"トットリケン","city":"米子市","city_kana":"ヨナゴシ","town":"冨士見町","town_kana":"フジミチョウ","prefecture_code":31},"0025":{"zip_code":"6830025","prefecture":"鳥取県","prefecture_kana":"トットリケン","city":"米子市","city_kana":"ヨナゴシ","town":"古市","town_kana":"フルイチ","prefecture_code":31},"0254":{"zip_code":"6830254","prefecture":"鳥取県","prefecture_kana":"トットリケン","city":"米子市","city_kana":"ヨナゴシ","town":"別所","town_kana":"ベッショ","prefecture_code":31},"0063":{"zip_code":"6830063","prefecture":"鳥取県","prefecture_kana":"トットリケン","city":"米子市","city_kana":"ヨナゴシ","town":"法勝寺町","town_kana":"ホツショウジマチ","prefecture_code":31},"0065":{"zip_code":"6830065","prefecture":"鳥取県","prefecture_kana":"トットリケン","city":"米子市","city_kana":"ヨナゴシ","town":"万能町","town_kana":"マンノウチョウ","prefecture_code":31},"0843":{"zip_code":"6830843","prefecture":"鳥取県","prefecture_kana":"トットリケン","city":"米子市","city_kana":"ヨナゴシ","town":"三旗町","town_kana":"ミハタチョウ","prefecture_code":31},"0034":{"zip_code":"6830034","prefecture":"鳥取県","prefecture_kana":"トットリケン","city":"米子市","city_kana":"ヨナゴシ","town":"美吉","town_kana":"ミヨシ","prefecture_code":31},"0017":{"zip_code":"6830017","prefecture":"鳥取県","prefecture_kana":"トットリケン","city":"米子市","city_kana":"ヨナゴシ","town":"宗像","town_kana":"ムナカタ","prefecture_code":31},"0053":{"zip_code":"6830053","prefecture":"鳥取県","prefecture_kana":"トットリケン","city":"米子市","city_kana":"ヨナゴシ","town":"明治町","town_kana":"メイジチョウ","prefecture_code":31},"0035":{"zip_code":"6830035","prefecture":"鳥取県","prefecture_kana":"トットリケン","city":"米子市","city_kana":"ヨナゴシ","town":"目久美町","town_kana":"メグミチョウ","prefecture_code":31},"0036":{"zip_code":"6830036","prefecture":"鳥取県","prefecture_kana":"トットリケン","city":"米子市","city_kana":"ヨナゴシ","town":"弥生町","town_kana":"ヤヨイチョウ","prefecture_code":31},"0012":{"zip_code":"6830012","prefecture":"鳥取県","prefecture_kana":"トットリケン","city":"米子市","city_kana":"ヨナゴシ","town":"八幡","town_kana":"ヤワタ","prefecture_code":31},"0032":{"zip_code":"6830032","prefecture":"鳥取県","prefecture_kana":"トットリケン","city":"米子市","city_kana":"ヨナゴシ","town":"陽田町","town_kana":"ヨウデンチョウ","prefecture_code":31},"0024":{"zip_code":"6830024","prefecture":"鳥取県","prefecture_kana":"トットリケン","city":"米子市","city_kana":"ヨナゴシ","town":"吉谷","town_kana":"ヨシタニ","prefecture_code":31},"0105":{"zip_code":"6830105","prefecture":"鳥取県","prefecture_kana":"トットリケン","city":"米子市","city_kana":"ヨナゴシ","town":"葭津","town_kana":"ヨシヅ","prefecture_code":31},"0061":{"zip_code":"6830061","prefecture":"鳥取県","prefecture_kana":"トットリケン","city":"米子市","city_kana":"ヨナゴシ","town":"四日市町","town_kana":"ヨッカイチマチ","prefecture_code":31},"0804":{"zip_code":"6830804","prefecture":"鳥取県","prefecture_kana":"トットリケン","city":"米子市","city_kana":"ヨナゴシ","town":"米原","town_kana":"ヨネハラ","prefecture_code":31},"0851":{"zip_code":"6830851","prefecture":"鳥取県","prefecture_kana":"トットリケン","city":"米子市","city_kana":"ヨナゴシ","town":"夜見町","town_kana":"ヨミチョウ","prefecture_code":31},"0853":{"zip_code":"6830853","prefecture":"鳥取県","prefecture_kana":"トットリケン","city":"米子市","city_kana":"ヨナゴシ","town":"両三柳","town_kana":"リョウミツヤナギ","prefecture_code":31},"0102":{"zip_code":"6830102","prefecture":"鳥取県","prefecture_kana":"トットリケン","city":"米子市","city_kana":"ヨナゴシ","town":"和田町","town_kana":"ワダチョウ","prefecture_code":31},"0300":{"zip_code":"6830300","prefecture":"鳥取県","prefecture_kana":"トットリケン","city":"西伯郡南部町","city_kana":"サイハクグンナンブチョウ","town":"","town_kana":"","prefecture_code":31},"0322":{"zip_code":"6830322","prefecture":"鳥取県","prefecture_kana":"トットリケン","city":"西伯郡南部町","city_kana":"サイハクグンナンブチョウ","town":"阿賀","town_kana":"アガ","prefecture_code":31},"0227":{"zip_code":"6830227","prefecture":"鳥取県","prefecture_kana":"トットリケン","city":"西伯郡南部町","city_kana":"サイハクグンナンブチョウ","town":"浅井","town_kana":"アサイ","prefecture_code":31},"0216":{"zip_code":"6830216","prefecture":"鳥取県","prefecture_kana":"トットリケン","city":"西伯郡南部町","city_kana":"サイハクグンナンブチョウ","town":"朝金","town_kana":"アサカネ","prefecture_code":31},"0218":{"zip_code":"6830218","prefecture":"鳥取県","prefecture_kana":"トットリケン","city":"西伯郡南部町","city_kana":"サイハクグンナンブチョウ","town":"池野","town_kana":"イケノ","prefecture_code":31},"0222":{"zip_code":"6830222","prefecture":"鳥取県","prefecture_kana":"トットリケン","city":"西伯郡南部町","city_kana":"サイハクグンナンブチョウ","town":"市山","town_kana":"イチヤマ","prefecture_code":31},"0223":{"zip_code":"6830223","prefecture":"鳥取県","prefecture_kana":"トットリケン","city":"西伯郡南部町","city_kana":"サイハクグンナンブチョウ","town":"井上","town_kana":"イノウエ","prefecture_code":31},"0367":{"zip_code":"6830367","prefecture":"鳥取県","prefecture_kana":"トットリケン","city":"西伯郡南部町","city_kana":"サイハクグンナンブチョウ","town":"猪小路","town_kana":"イノコウジ","prefecture_code":31},"0345":{"zip_code":"6830345","prefecture":"鳥取県","prefecture_kana":"トットリケン","city":"西伯郡南部町","city_kana":"サイハクグンナンブチョウ","town":"大木屋","town_kana":"オオキヤ","prefecture_code":31},"0215":{"zip_code":"6830215","prefecture":"鳥取県","prefecture_kana":"トットリケン","city":"西伯郡南部町","city_kana":"サイハクグンナンブチョウ","town":"荻名","town_kana":"オギナ","prefecture_code":31},"0337":{"zip_code":"6830337","prefecture":"鳥取県","prefecture_kana":"トットリケン","city":"西伯郡南部町","city_kana":"サイハクグンナンブチョウ","town":"落合","town_kana":"オチアイ","prefecture_code":31},"0331":{"zip_code":"6830331","prefecture":"鳥取県","prefecture_kana":"トットリケン","city":"西伯郡南部町","city_kana":"サイハクグンナンブチョウ","town":"掛相","town_kana":"カケアイ","prefecture_code":31},"0224":{"zip_code":"6830224","prefecture":"鳥取県","prefecture_kana":"トットリケン","city":"西伯郡南部町","city_kana":"サイハクグンナンブチョウ","town":"金田","town_kana":"カネダ","prefecture_code":31},"0344":{"zip_code":"6830344","prefecture":"鳥取県","prefecture_kana":"トットリケン","city":"西伯郡南部町","city_kana":"サイハクグンナンブチョウ","town":"上中谷","town_kana":"カミナカタニ","prefecture_code":31},"0341":{"zip_code":"6830341","prefecture":"鳥取県","prefecture_kana":"トットリケン","city":"西伯郡南部町","city_kana":"サイハクグンナンブチョウ","town":"鴨部","town_kana":"カモベ","prefecture_code":31},"0361":{"zip_code":"6830361","prefecture":"鳥取県","prefecture_kana":"トットリケン","city":"西伯郡南部町","city_kana":"サイハクグンナンブチョウ","town":"北方","town_kana":"キタガタ","prefecture_code":31},"0364":{"zip_code":"6830364","prefecture":"鳥取県","prefecture_kana":"トットリケン","city":"西伯郡南部町","city_kana":"サイハクグンナンブチョウ","town":"絹屋","town_kana":"キヌヤ","prefecture_code":31},"0356":{"zip_code":"6830356","prefecture":"鳥取県","prefecture_kana":"トットリケン","city":"西伯郡南部町","city_kana":"サイハクグンナンブチョウ","town":"伐株","town_kana":"キリクイ","prefecture_code":31},"0311":{"zip_code":"6830311","prefecture":"鳥取県","prefecture_kana":"トットリケン","city":"西伯郡南部町","city_kana":"サイハクグンナンブチョウ","town":"境","town_kana":"サカエ","prefecture_code":31},"0321":{"zip_code":"6830321","prefecture":"鳥取県","prefecture_kana":"トットリケン","city":"西伯郡南部町","city_kana":"サイハクグンナンブチョウ","town":"清水川","town_kana":"シミズガワ","prefecture_code":31},"0343":{"zip_code":"6830343","prefecture":"鳥取県","prefecture_kana":"トットリケン","city":"西伯郡南部町","city_kana":"サイハクグンナンブチョウ","town":"下中谷","town_kana":"シモナカタニ","prefecture_code":31},"0226":{"zip_code":"6830226","prefecture":"鳥取県","prefecture_kana":"トットリケン","city":"西伯郡南部町","city_kana":"サイハクグンナンブチョウ","town":"高姫","town_kana":"タカヒメ","prefecture_code":31},"0354":{"zip_code":"6830354","prefecture":"鳥取県","prefecture_kana":"トットリケン","city":"西伯郡南部町","city_kana":"サイハクグンナンブチョウ","town":"武信","town_kana":"タケノブ","prefecture_code":31},"0214":{"zip_code":"6830214","prefecture":"鳥取県","prefecture_kana":"トットリケン","city":"西伯郡南部町","city_kana":"サイハクグンナンブチョウ","town":"田住","town_kana":"タスミ","prefecture_code":31},"0217":{"zip_code":"6830217","prefecture":"鳥取県","prefecture_kana":"トットリケン","city":"西伯郡南部町","city_kana":"サイハクグンナンブチョウ","town":"鶴田","town_kana":"ツルダ","prefecture_code":31},"0202":{"zip_code":"6830202","prefecture":"鳥取県","prefecture_kana":"トットリケン","city":"西伯郡南部町","city_kana":"サイハクグンナンブチョウ","town":"寺内","town_kana":"テラウチ","prefecture_code":31},"0201":{"zip_code":"6830201","prefecture":"鳥取県","prefecture_kana":"トットリケン","city":"西伯郡南部町","city_kana":"サイハクグンナンブチョウ","town":"天万","town_kana":"テンマン","prefecture_code":31},"0355":{"zip_code":"6830355","prefecture":"鳥取県","prefecture_kana":"トットリケン","city":"西伯郡南部町","city_kana":"サイハクグンナンブチョウ","town":"道河内","town_kana":"ドウガワウチ","prefecture_code":31},"0334":{"zip_code":"6830334","prefecture":"鳥取県","prefecture_kana":"トットリケン","city":"西伯郡南部町","city_kana":"サイハクグンナンブチョウ","town":"東上","town_kana":"トウジョウ","prefecture_code":31},"0353":{"zip_code":"6830353","prefecture":"鳥取県","prefecture_kana":"トットリケン","city":"西伯郡南部町","city_kana":"サイハクグンナンブチョウ","town":"徳長","town_kana":"トクナガ","prefecture_code":31},"0335":{"zip_code":"6830335","prefecture":"鳥取県","prefecture_kana":"トットリケン","city":"西伯郡南部町","city_kana":"サイハクグンナンブチョウ","town":"中","town_kana":"ナカ","prefecture_code":31},"0365":{"zip_code":"6830365","prefecture":"鳥取県","prefecture_kana":"トットリケン","city":"西伯郡南部町","city_kana":"サイハクグンナンブチョウ","town":"鍋倉","town_kana":"ナベクラ","prefecture_code":31},"0363":{"zip_code":"6830363","prefecture":"鳥取県","prefecture_kana":"トットリケン","city":"西伯郡南部町","city_kana":"サイハクグンナンブチョウ","town":"西","town_kana":"ニシ","prefecture_code":31},"0213":{"zip_code":"6830213","prefecture":"鳥取県","prefecture_kana":"トットリケン","city":"西伯郡南部町","city_kana":"サイハクグンナンブチョウ","town":"西原","town_kana":"ニシバラ","prefecture_code":31},"0302":{"zip_code":"6830302","prefecture":"鳥取県","prefecture_kana":"トットリケン","city":"西伯郡南部町","city_kana":"サイハクグンナンブチョウ","town":"西町","town_kana":"ニシマチ","prefecture_code":31},"0342":{"zip_code":"6830342","prefecture":"鳥取県","prefecture_kana":"トットリケン","city":"西伯郡南部町","city_kana":"サイハクグンナンブチョウ","town":"能竹","town_kana":"ノウジク","prefecture_code":31},"0332":{"zip_code":"6830332","prefecture":"鳥取県","prefecture_kana":"トットリケン","city":"西伯郡南部町","city_kana":"サイハクグンナンブチョウ","town":"馬佐良","town_kana":"バサラ","prefecture_code":31},"0352":{"zip_code":"6830352","prefecture":"鳥取県","prefecture_kana":"トットリケン","city":"西伯郡南部町","city_kana":"サイハクグンナンブチョウ","town":"馬場","town_kana":"ババ","prefecture_code":31},"0362":{"zip_code":"6830362","prefecture":"鳥取県","prefecture_kana":"トットリケン","city":"西伯郡南部町","city_kana":"サイハクグンナンブチョウ","town":"原","town_kana":"ハラ","prefecture_code":31},"0301":{"zip_code":"6830301","prefecture":"鳥取県","prefecture_kana":"トットリケン","city":"西伯郡南部町","city_kana":"サイハクグンナンブチョウ","town":"東町","town_kana":"ヒガシマチ","prefecture_code":31},"0204":{"zip_code":"6830204","prefecture":"鳥取県","prefecture_kana":"トットリケン","city":"西伯郡南部町","city_kana":"サイハクグンナンブチョウ","town":"福里","town_kana":"フクサト","prefecture_code":31},"0312":{"zip_code":"6830312","prefecture":"鳥取県","prefecture_kana":"トットリケン","city":"西伯郡南部町","city_kana":"サイハクグンナンブチョウ","town":"福成","town_kana":"フクナリ","prefecture_code":31},"0336":{"zip_code":"6830336","prefecture":"鳥取県","prefecture_kana":"トットリケン","city":"西伯郡南部町","city_kana":"サイハクグンナンブチョウ","town":"福頼","town_kana":"フクヨリ","prefecture_code":31},"0351":{"zip_code":"6830351","prefecture":"鳥取県","prefecture_kana":"トットリケン","city":"西伯郡南部町","city_kana":"サイハクグンナンブチョウ","town":"法勝寺","town_kana":"ホッショウジ","prefecture_code":31},"0211":{"zip_code":"6830211","prefecture":"鳥取県","prefecture_kana":"トットリケン","city":"西伯郡南部町","city_kana":"サイハクグンナンブチョウ","town":"円山","town_kana":"マルヤマ","prefecture_code":31},"0225":{"zip_code":"6830225","prefecture":"鳥取県","prefecture_kana":"トットリケン","city":"西伯郡南部町","city_kana":"サイハクグンナンブチョウ","town":"御内谷","town_kana":"ミウチダニ","prefecture_code":31},"0203":{"zip_code":"6830203","prefecture":"鳥取県","prefecture_kana":"トットリケン","city":"西伯郡南部町","city_kana":"サイハクグンナンブチョウ","town":"三崎","town_kana":"ミサキ","prefecture_code":31},"0221":{"zip_code":"6830221","prefecture":"鳥取県","prefecture_kana":"トットリケン","city":"西伯郡南部町","city_kana":"サイハクグンナンブチョウ","town":"宮前","town_kana":"ミヤマエ","prefecture_code":31},"0212":{"zip_code":"6830212","prefecture":"鳥取県","prefecture_kana":"トットリケン","city":"西伯郡南部町","city_kana":"サイハクグンナンブチョウ","town":"諸木","town_kana":"モロギ","prefecture_code":31},"0333":{"zip_code":"6830333","prefecture":"鳥取県","prefecture_kana":"トットリケン","city":"西伯郡南部町","city_kana":"サイハクグンナンブチョウ","town":"八金","town_kana":"ヤカネ","prefecture_code":31},"0323":{"zip_code":"6830323","prefecture":"鳥取県","prefecture_kana":"トットリケン","city":"西伯郡南部町","city_kana":"サイハクグンナンブチョウ","town":"倭","town_kana":"ヤマト","prefecture_code":31},"0366":{"zip_code":"6830366","prefecture":"鳥取県","prefecture_kana":"トットリケン","city":"西伯郡南部町","city_kana":"サイハクグンナンブチョウ","town":"与一谷","town_kana":"ヨイチダニ","prefecture_code":31}}