{"0501":{"zip_code":"6890501","prefecture":"鳥取県","prefecture_kana":"トットリケン","city":"鳥取市","city_kana":"トットリシ","town":"青谷町青谷","town_kana":"アオヤチョウアオヤ","prefecture_code":31},"0535":{"zip_code":"6890535","prefecture":"鳥取県","prefecture_kana":"トットリケン","city":"鳥取市","city_kana":"トットリシ","town":"青谷町井手","town_kana":"アオヤチョウイデ","prefecture_code":31},"0518":{"zip_code":"6890518","prefecture":"鳥取県","prefecture_kana":"トットリケン","city":"鳥取市","city_kana":"トットリシ","town":"青谷町大坪","town_kana":"アオヤチョウオオツボ","prefecture_code":31},"0519":{"zip_code":"6890519","prefecture":"鳥取県","prefecture_kana":"トットリケン","city":"鳥取市","city_kana":"トットリシ","town":"青谷町奥崎","town_kana":"アオヤチョウオクザキ","prefecture_code":31},"0516":{"zip_code":"6890516","prefecture":"鳥取県","prefecture_kana":"トットリケン","city":"鳥取市","city_kana":"トットリシ","town":"青谷町小畑","town_kana":"アオヤチョウオバタ","prefecture_code":31},"0526":{"zip_code":"6890526","prefecture":"鳥取県","prefecture_kana":"トットリケン","city":"鳥取市","city_kana":"トットリシ","town":"青谷町紙屋","town_kana":"アオヤチョウカミヤ","prefecture_code":31},"0522":{"zip_code":"6890522","prefecture":"鳥取県","prefecture_kana":"トットリケン","city":"鳥取市","city_kana":"トットリシ","town":"青谷町亀尻","town_kana":"アオヤチョウカメジリ","prefecture_code":31},"0515":{"zip_code":"6890515","prefecture":"鳥取県","prefecture_kana":"トットリケン","city":"鳥取市","city_kana":"トットリシ","town":"青谷町河原","town_kana":"アオヤチョウカワラ","prefecture_code":31},"0532":{"zip_code":"6890532","prefecture":"鳥取県","prefecture_kana":"トットリケン","city":"鳥取市","city_kana":"トットリシ","town":"青谷町北河原","town_kana":"アオヤチョウキタガワラ","prefecture_code":31},"0533":{"zip_code":"6890533","prefecture":"鳥取県","prefecture_kana":"トットリケン","city":"鳥取市","city_kana":"トットリシ","town":"青谷町絹見","town_kana":"アオヤチョウキヌミ","prefecture_code":31},"0527":{"zip_code":"6890527","prefecture":"鳥取県","prefecture_kana":"トットリケン","city":"鳥取市","city_kana":"トットリシ","town":"青谷町楠根","town_kana":"アオヤチョウクスネ","prefecture_code":31},"0513":{"zip_code":"6890513","prefecture":"鳥取県","prefecture_kana":"トットリケン","city":"鳥取市","city_kana":"トットリシ","town":"青谷町蔵内","town_kana":"アオヤチョウクラウチ","prefecture_code":31},"0529":{"zip_code":"6890529","prefecture":"鳥取県","prefecture_kana":"トットリケン","city":"鳥取市","city_kana":"トットリシ","town":"青谷町桑原","town_kana":"アオヤチョウクワバラ","prefecture_code":31},"0537":{"zip_code":"6890537","prefecture":"鳥取県","prefecture_kana":"トットリケン","city":"鳥取市","city_kana":"トットリシ","town":"青谷町栄町","town_kana":"アオヤチョウサカエマチ","prefecture_code":31},"0528":{"zip_code":"6890528","prefecture":"鳥取県","prefecture_kana":"トットリケン","city":"鳥取市","city_kana":"トットリシ","town":"青谷町澄水","town_kana":"アオヤチョウスンズ","prefecture_code":31},"0525":{"zip_code":"6890525","prefecture":"鳥取県","prefecture_kana":"トットリケン","city":"鳥取市","city_kana":"トットリシ","town":"青谷町田原谷","town_kana":"アオヤチョウタワラダニ","prefecture_code":31},"0521":{"zip_code":"6890521","prefecture":"鳥取県","prefecture_kana":"トットリケン","city":"鳥取市","city_kana":"トットリシ","town":"青谷町露谷","town_kana":"アオヤチョウツユダニ","prefecture_code":31},"0536":{"zip_code":"6890536","prefecture":"鳥取県","prefecture_kana":"トットリケン","city":"鳥取市","city_kana":"トットリシ","town":"青谷町長和瀬","town_kana":"アオヤチョウナガワセ","prefecture_code":31},"0531":{"zip_code":"6890531","prefecture":"鳥取県","prefecture_kana":"トットリケン","city":"鳥取市","city_kana":"トットリシ","town":"青谷町鳴滝","town_kana":"アオヤチョウナルタキ","prefecture_code":31},"0524":{"zip_code":"6890524","prefecture":"鳥取県","prefecture_kana":"トットリケン","city":"鳥取市","city_kana":"トットリシ","town":"青谷町八葉寺","town_kana":"アオヤチョウハツショウジ","prefecture_code":31},"0517":{"zip_code":"6890517","prefecture":"鳥取県","prefecture_kana":"トットリケン","city":"鳥取市","city_kana":"トットリシ","town":"青谷町早牛","town_kana":"アオヤチョウハヤウジ","prefecture_code":31},"0523":{"zip_code":"6890523","prefecture":"鳥取県","prefecture_kana":"トットリケン","city":"鳥取市","city_kana":"トットリシ","town":"青谷町山田","town_kana":"アオヤチョウヤマダ","prefecture_code":31},"0514":{"zip_code":"6890514","prefecture":"鳥取県","prefecture_kana":"トットリケン","city":"鳥取市","city_kana":"トットリシ","town":"青谷町山根","town_kana":"アオヤチョウヤマネ","prefecture_code":31},"0512":{"zip_code":"6890512","prefecture":"鳥取県","prefecture_kana":"トットリケン","city":"鳥取市","city_kana":"トットリシ","town":"青谷町養郷","town_kana":"アオヤチョウヨウゴウ","prefecture_code":31},"0534":{"zip_code":"6890534","prefecture":"鳥取県","prefecture_kana":"トットリケン","city":"鳥取市","city_kana":"トットリシ","town":"青谷町吉川","town_kana":"アオヤチョウヨシカワ","prefecture_code":31},"0511":{"zip_code":"6890511","prefecture":"鳥取県","prefecture_kana":"トットリケン","city":"鳥取市","city_kana":"トットリシ","town":"青谷町善田","town_kana":"アオヤチョウヨシダ","prefecture_code":31},"0205":{"zip_code":"6890205","prefecture":"鳥取県","prefecture_kana":"トットリケン","city":"鳥取市","city_kana":"トットリシ","town":"内海中","town_kana":"ウツミナカ","prefecture_code":31},"1117":{"zip_code":"6891117","prefecture":"鳥取県","prefecture_kana":"トットリケン","city":"鳥取市","city_kana":"トットリシ","town":"海蔵寺","town_kana":"カイゾウジ","prefecture_code":31},"1115":{"zip_code":"6891115","prefecture":"鳥取県","prefecture_kana":"トットリケン","city":"鳥取市","city_kana":"トットリシ","town":"紙子谷","town_kana":"カゴダニ","prefecture_code":31},"1104":{"zip_code":"6891104","prefecture":"鳥取県","prefecture_kana":"トットリケン","city":"鳥取市","city_kana":"トットリシ","town":"桂木","town_kana":"カツラギ","prefecture_code":31},"1114":{"zip_code":"6891114","prefecture":"鳥取県","prefecture_kana":"トットリケン","city":"鳥取市","city_kana":"トットリシ","town":"香取","town_kana":"カトリ","prefecture_code":31},"0343":{"zip_code":"6890343","prefecture":"鳥取県","prefecture_kana":"トットリケン","city":"鳥取市","city_kana":"トットリシ","town":"気高町飯里","town_kana":"ケタカチョウイイザト","prefecture_code":31},"0355":{"zip_code":"6890355","prefecture":"鳥取県","prefecture_kana":"トットリケン","city":"鳥取市","city_kana":"トットリシ","town":"気高町会下","town_kana":"ケタカチョウエゲ","prefecture_code":31},"0211":{"zip_code":"6890211","prefecture":"鳥取県","prefecture_kana":"トットリケン","city":"鳥取市","city_kana":"トットリシ","town":"気高町奥沢見","town_kana":"ケタカチョウオクゾウミ","prefecture_code":31},"0341":{"zip_code":"6890341","prefecture":"鳥取県","prefecture_kana":"トットリケン","city":"鳥取市","city_kana":"トットリシ","town":"気高町下石","town_kana":"ケタカチョウオロジ","prefecture_code":31},"0332":{"zip_code":"6890332","prefecture":"鳥取県","prefecture_kana":"トットリケン","city":"鳥取市","city_kana":"トットリシ","town":"気高町勝見","town_kana":"ケタカチョウカチミ","prefecture_code":31},"0214":{"zip_code":"6890214","prefecture":"鳥取県","prefecture_kana":"トットリケン","city":"鳥取市","city_kana":"トットリシ","town":"気高町上光","town_kana":"ケタカチョウカミミツ","prefecture_code":31},"0344":{"zip_code":"6890344","prefecture":"鳥取県","prefecture_kana":"トットリケン","city":"鳥取市","city_kana":"トットリシ","town":"気高町上原","town_kana":"ケタカチョウカンバラ","prefecture_code":31},"0334":{"zip_code":"6890334","prefecture":"鳥取県","prefecture_kana":"トットリケン","city":"鳥取市","city_kana":"トットリシ","town":"気高町北浜","town_kana":"ケタカチョウキタハマ","prefecture_code":31},"0353":{"zip_code":"6890353","prefecture":"鳥取県","prefecture_kana":"トットリケン","city":"鳥取市","city_kana":"トットリシ","town":"気高町郡家","town_kana":"ケタカチョウコウゲ","prefecture_code":31},"0217":{"zip_code":"6890217","prefecture":"鳥取県","prefecture_kana":"トットリケン","city":"鳥取市","city_kana":"トットリシ","town":"気高町酒津","town_kana":"ケタカチョウサケノツ","prefecture_code":31},"0224":{"zip_code":"6890224","prefecture":"鳥取県","prefecture_kana":"トットリケン","city":"鳥取市","city_kana":"トットリシ","town":"気高町重高","town_kana":"ケタカチョウシゲタカ","prefecture_code":31},"0221":{"zip_code":"6890221","prefecture":"鳥取県","prefecture_kana":"トットリケン","city":"鳥取市","city_kana":"トットリシ","town":"気高町下坂本","town_kana":"ケタカチョウシモサカモト","prefecture_code":31},"0356":{"zip_code":"6890356","prefecture":"鳥取県","prefecture_kana":"トットリケン","city":"鳥取市","city_kana":"トットリシ","town":"気高町下原","town_kana":"ケタカチョウシモバラ","prefecture_code":31},"0213":{"zip_code":"6890213","prefecture":"鳥取県","prefecture_kana":"トットリケン","city":"鳥取市","city_kana":"トットリシ","town":"気高町下光元","town_kana":"ケタカチョウシモミツモト","prefecture_code":31},"0226":{"zip_code":"6890226","prefecture":"鳥取県","prefecture_kana":"トットリケン","city":"鳥取市","city_kana":"トットリシ","town":"気高町宿","town_kana":"ケタカチョウシュク","prefecture_code":31},"0333":{"zip_code":"6890333","prefecture":"鳥取県","prefecture_kana":"トットリケン","city":"鳥取市","city_kana":"トットリシ","town":"気高町新町","town_kana":"ケタカチョウシンマチ","prefecture_code":31},"0352":{"zip_code":"6890352","prefecture":"鳥取県","prefecture_kana":"トットリケン","city":"鳥取市","city_kana":"トットリシ","town":"気高町高江","town_kana":"ケタカチョウタカエ","prefecture_code":31},"0212":{"zip_code":"6890212","prefecture":"鳥取県","prefecture_kana":"トットリケン","city":"鳥取市","city_kana":"トットリシ","town":"気高町常松","town_kana":"ケタカチョウツネマツ","prefecture_code":31},"0225":{"zip_code":"6890225","prefecture":"鳥取県","prefecture_kana":"トットリケン","city":"鳥取市","city_kana":"トットリシ","town":"気高町土居","town_kana":"ケタカチョウドイ","prefecture_code":31},"0342":{"zip_code":"6890342","prefecture":"鳥取県","prefecture_kana":"トットリケン","city":"鳥取市","city_kana":"トットリシ","town":"気高町殿","town_kana":"ケタカチョウトノ","prefecture_code":31},"0215":{"zip_code":"6890215","prefecture":"鳥取県","prefecture_kana":"トットリケン","city":"鳥取市","city_kana":"トットリシ","town":"気高町冨吉","town_kana":"ケタカチョウトミヨシ","prefecture_code":31},"0222":{"zip_code":"6890222","prefecture":"鳥取県","prefecture_kana":"トットリケン","city":"鳥取市","city_kana":"トットリシ","town":"気高町日光","town_kana":"ケタカチョウニッコウ","prefecture_code":31},"0223":{"zip_code":"6890223","prefecture":"鳥取県","prefecture_kana":"トットリケン","city":"鳥取市","city_kana":"トットリシ","town":"気高町二本木","town_kana":"ケタカチョウニホンギ","prefecture_code":31},"0331":{"zip_code":"6890331","prefecture":"鳥取県","prefecture_kana":"トットリケン","city":"鳥取市","city_kana":"トットリシ","town":"気高町浜村","town_kana":"ケタカチョウハマムラ","prefecture_code":31},"0216":{"zip_code":"6890216","prefecture":"鳥取県","prefecture_kana":"トットリケン","city":"鳥取市","city_kana":"トットリシ","town":"気高町宝木","town_kana":"ケタカチョウホウギ","prefecture_code":31},"0354":{"zip_code":"6890354","prefecture":"鳥取県","prefecture_kana":"トットリケン","city":"鳥取市","city_kana":"トットリシ","town":"気高町睦逢","town_kana":"ケタカチョウムツオ","prefecture_code":31},"0357":{"zip_code":"6890357","prefecture":"鳥取県","prefecture_kana":"トットリケン","city":"鳥取市","city_kana":"トットリシ","town":"気高町八束水","town_kana":"ケタカチョウヤツカミ","prefecture_code":31},"0345":{"zip_code":"6890345","prefecture":"鳥取県","prefecture_kana":"トットリケン","city":"鳥取市","city_kana":"トットリシ","town":"気高町山宮","town_kana":"ケタカチョウヤマミヤ","prefecture_code":31},"0351":{"zip_code":"6890351","prefecture":"鳥取県","prefecture_kana":"トットリケン","city":"鳥取市","city_kana":"トットリシ","town":"気高町八幡","town_kana":"ケタカチョウヤワタ","prefecture_code":31},"1124":{"zip_code":"6891124","prefecture":"鳥取県","prefecture_kana":"トットリケン","city":"鳥取市","city_kana":"トットリシ","town":"越路","town_kana":"コイジ","prefecture_code":31},"1125":{"zip_code":"6891125","prefecture":"鳥取県","prefecture_kana":"トットリケン","city":"鳥取市","city_kana":"トットリシ","town":"古郡家","town_kana":"ココオゲ","prefecture_code":31},"0207":{"zip_code":"6890207","prefecture":"鳥取県","prefecture_kana":"トットリケン","city":"鳥取市","city_kana":"トットリシ","town":"小沢見","town_kana":"コゾミ","prefecture_code":31},"1304":{"zip_code":"6891304","prefecture":"鳥取県","prefecture_kana":"トットリケン","city":"鳥取市","city_kana":"トットリシ","town":"佐治町大井","town_kana":"サジチョウオオイ","prefecture_code":31},"1324":{"zip_code":"6891324","prefecture":"鳥取県","prefecture_kana":"トットリケン","city":"鳥取市","city_kana":"トットリシ","town":"佐治町尾際","town_kana":"サジチョウオワイ","prefecture_code":31},"1301":{"zip_code":"6891301","prefecture":"鳥取県","prefecture_kana":"トットリケン","city":"鳥取市","city_kana":"トットリシ","town":"佐治町葛谷","town_kana":"サジチョウカズラタニ","prefecture_code":31},"1313":{"zip_code":"6891313","prefecture":"鳥取県","prefecture_kana":"トットリケン","city":"鳥取市","city_kana":"トットリシ","town":"佐治町加瀬木","town_kana":"サジチョウカセギ","prefecture_code":31},"1314":{"zip_code":"6891314","prefecture":"鳥取県","prefecture_kana":"トットリケン","city":"鳥取市","city_kana":"トットリシ","town":"佐治町加茂","town_kana":"サジチョウカモ","prefecture_code":31},"1303":{"zip_code":"6891303","prefecture":"鳥取県","prefecture_kana":"トットリケン","city":"鳥取市","city_kana":"トットリシ","town":"佐治町刈地","town_kana":"サジチョウカルチ","prefecture_code":31},"1321":{"zip_code":"6891321","prefecture":"鳥取県","prefecture_kana":"トットリケン","city":"鳥取市","city_kana":"トットリシ","town":"佐治町河本","town_kana":"サジチョウカワモト","prefecture_code":31},"1302":{"zip_code":"6891302","prefecture":"鳥取県","prefecture_kana":"トットリケン","city":"鳥取市","city_kana":"トットリシ","town":"佐治町小原","town_kana":"サジチョウコバラ","prefecture_code":31},"1312":{"zip_code":"6891312","prefecture":"鳥取県","prefecture_kana":"トットリケン","city":"鳥取市","city_kana":"トットリシ","town":"佐治町高山","town_kana":"サジチョウタカヤマ","prefecture_code":31},"1322":{"zip_code":"6891322","prefecture":"鳥取県","prefecture_kana":"トットリケン","city":"鳥取市","city_kana":"トットリシ","town":"佐治町つく谷","town_kana":"サジチョウツクダニ","prefecture_code":31},"1307":{"zip_code":"6891307","prefecture":"鳥取県","prefecture_kana":"トットリケン","city":"鳥取市","city_kana":"トットリシ","town":"佐治町津無","town_kana":"サジチョウツナシ","prefecture_code":31},"1311":{"zip_code":"6891311","prefecture":"鳥取県","prefecture_kana":"トットリケン","city":"鳥取市","city_kana":"トットリシ","town":"佐治町津野","town_kana":"サジチョウツノ","prefecture_code":31},"1326":{"zip_code":"6891326","prefecture":"鳥取県","prefecture_kana":"トットリケン","city":"鳥取市","city_kana":"トットリシ","town":"佐治町栃原","town_kana":"サジチョウトチワラ","prefecture_code":31},"1325":{"zip_code":"6891325","prefecture":"鳥取県","prefecture_kana":"トットリケン","city":"鳥取市","city_kana":"トットリシ","town":"佐治町中","town_kana":"サジチョウナカ","prefecture_code":31},"1315":{"zip_code":"6891315","prefecture":"鳥取県","prefecture_kana":"トットリケン","city":"鳥取市","city_kana":"トットリシ","town":"佐治町畑","town_kana":"サジチョウハタ","prefecture_code":31},"1316":{"zip_code":"6891316","prefecture":"鳥取県","prefecture_kana":"トットリケン","city":"鳥取市","city_kana":"トットリシ","town":"佐治町福園","town_kana":"サジチョウフクゾノ","prefecture_code":31},"1306":{"zip_code":"6891306","prefecture":"鳥取県","prefecture_kana":"トットリケン","city":"鳥取市","city_kana":"トットリシ","town":"佐治町古市","town_kana":"サジチョウフルイチ","prefecture_code":31},"1305":{"zip_code":"6891305","prefecture":"鳥取県","prefecture_kana":"トットリケン","city":"鳥取市","city_kana":"トットリシ","town":"佐治町森坪","town_kana":"サジチョウモリツボ","prefecture_code":31},"1323":{"zip_code":"6891323","prefecture":"鳥取県","prefecture_kana":"トットリケン","city":"鳥取市","city_kana":"トットリシ","town":"佐治町余戸","town_kana":"サジチョウヨド","prefecture_code":31},"0425":{"zip_code":"6890425","prefecture":"鳥取県","prefecture_kana":"トットリケン","city":"鳥取市","city_kana":"トットリシ","town":"鹿野町今市","town_kana":"シカノチョウイマイチ","prefecture_code":31},"0422":{"zip_code":"6890422","prefecture":"鳥取県","prefecture_kana":"トットリケン","city":"鳥取市","city_kana":"トットリシ","town":"鹿野町岡木","town_kana":"シカノチョウオカキ","prefecture_code":31},"0421":{"zip_code":"6890421","prefecture":"鳥取県","prefecture_kana":"トットリケン","city":"鳥取市","city_kana":"トットリシ","town":"鹿野町乙亥正","town_kana":"シカノチョウオツガセ","prefecture_code":31},"0412":{"zip_code":"6890412","prefecture":"鳥取県","prefecture_kana":"トットリケン","city":"鳥取市","city_kana":"トットリシ","town":"鹿野町河内","town_kana":"シカノチョウコウチ","prefecture_code":31},"0413":{"zip_code":"6890413","prefecture":"鳥取県","prefecture_kana":"トットリケン","city":"鳥取市","city_kana":"トットリシ","town":"鹿野町小別所","town_kana":"シカノチョウコベツシヨ","prefecture_code":31},"0405":{"zip_code":"6890405","prefecture":"鳥取県","prefecture_kana":"トットリケン","city":"鳥取市","city_kana":"トットリシ","town":"鹿野町鹿野","town_kana":"シカノチョウシカノ","prefecture_code":31},"0411":{"zip_code":"6890411","prefecture":"鳥取県","prefecture_kana":"トットリケン","city":"鳥取市","city_kana":"トットリシ","town":"鹿野町鷲峯","town_kana":"シカノチョウジュウボウ","prefecture_code":31},"0403":{"zip_code":"6890403","prefecture":"鳥取県","prefecture_kana":"トットリケン","city":"鳥取市","city_kana":"トットリシ","town":"鹿野町末用","town_kana":"シカノチョウスエモチ","prefecture_code":31},"0426":{"zip_code":"6890426","prefecture":"鳥取県","prefecture_kana":"トットリケン","city":"鳥取市","city_kana":"トットリシ","town":"鹿野町寺内","town_kana":"シカノチョウテラウチ","prefecture_code":31},"0402":{"zip_code":"6890402","prefecture":"鳥取県","prefecture_kana":"トットリケン","city":"鳥取市","city_kana":"トットリシ","town":"鹿野町閉野","town_kana":"シカノチョウトジノ","prefecture_code":31},"0423":{"zip_code":"6890423","prefecture":"鳥取県","prefecture_kana":"トットリケン","city":"鳥取市","city_kana":"トットリシ","town":"鹿野町中園","town_kana":"シカノチョウナカゾノ","prefecture_code":31},"0401":{"zip_code":"6890401","prefecture":"鳥取県","prefecture_kana":"トットリケン","city":"鳥取市","city_kana":"トットリシ","town":"鹿野町広木","town_kana":"シカノチョウヒロギ","prefecture_code":31},"0404":{"zip_code":"6890404","prefecture":"鳥取県","prefecture_kana":"トットリケン","city":"鳥取市","city_kana":"トットリシ","town":"鹿野町水谷","town_kana":"シカノチョウミズタニ","prefecture_code":31},"0424":{"zip_code":"6890424","prefecture":"鳥取県","prefecture_kana":"トットリケン","city":"鳥取市","city_kana":"トットリシ","town":"鹿野町宮方","town_kana":"シカノチョウミヤカタ","prefecture_code":31},"1103":{"zip_code":"6891103","prefecture":"鳥取県","prefecture_kana":"トットリケン","city":"鳥取市","city_kana":"トットリシ","town":"生山","town_kana":"ショウザン","prefecture_code":31},"1101":{"zip_code":"6891101","prefecture":"鳥取県","prefecture_kana":"トットリケン","city":"鳥取市","city_kana":"トットリシ","town":"杉崎","town_kana":"スギザキ","prefecture_code":31},"1102":{"zip_code":"6891102","prefecture":"鳥取県","prefecture_kana":"トットリケン","city":"鳥取市","city_kana":"トットリシ","town":"津ノ井","town_kana":"ツノイ","prefecture_code":31},"1106":{"zip_code":"6891106","prefecture":"鳥取県","prefecture_kana":"トットリケン","city":"鳥取市","city_kana":"トットリシ","town":"中大路","town_kana":"ナカオオロ","prefecture_code":31},"1121":{"zip_code":"6891121","prefecture":"鳥取県","prefecture_kana":"トットリケン","city":"鳥取市","city_kana":"トットリシ","town":"南栄町","town_kana":"ナンエイチョウ","prefecture_code":31},"1107":{"zip_code":"6891107","prefecture":"鳥取県","prefecture_kana":"トットリケン","city":"鳥取市","city_kana":"トットリシ","town":"西大路","town_kana":"ニシオオロ","prefecture_code":31},"1113":{"zip_code":"6891113","prefecture":"鳥取県","prefecture_kana":"トットリケン","city":"鳥取市","city_kana":"トットリシ","town":"祢宜谷","town_kana":"ネギダニ","prefecture_code":31},"0206":{"zip_code":"6890206","prefecture":"鳥取県","prefecture_kana":"トットリケン","city":"鳥取市","city_kana":"トットリシ","town":"白兎","town_kana":"ハクト","prefecture_code":31},"1105":{"zip_code":"6891105","prefecture":"鳥取県","prefecture_kana":"トットリケン","city":"鳥取市","city_kana":"トットリシ","town":"東大路","town_kana":"ヒガシオオロ","prefecture_code":31},"1123":{"zip_code":"6891123","prefecture":"鳥取県","prefecture_kana":"トットリケン","city":"鳥取市","city_kana":"トットリシ","town":"久末","town_kana":"ヒサスエ","prefecture_code":31},"1116":{"zip_code":"6891116","prefecture":"鳥取県","prefecture_kana":"トットリケン","city":"鳥取市","city_kana":"トットリシ","town":"広岡","town_kana":"ヒロオカ","prefecture_code":31},"0106":{"zip_code":"6890106","prefecture":"鳥取県","prefecture_kana":"トットリケン","city":"鳥取市","city_kana":"トットリシ","town":"福部町海士","town_kana":"フクベチョウアモウ","prefecture_code":31},"0101":{"zip_code":"6890101","prefecture":"鳥取県","prefecture_kana":"トットリケン","city":"鳥取市","city_kana":"トットリシ","town":"福部町岩戸","town_kana":"フクベチョウイワド","prefecture_code":31},"0113":{"zip_code":"6890113","prefecture":"鳥取県","prefecture_kana":"トットリケン","city":"鳥取市","city_kana":"トットリシ","town":"福部町久志羅","town_kana":"フクベチョウクジラ","prefecture_code":31},"0112":{"zip_code":"6890112","prefecture":"鳥取県","prefecture_kana":"トットリケン","city":"鳥取市","city_kana":"トットリシ","town":"福部町蔵見","town_kana":"フクベチョウクラミ","prefecture_code":31},"0111":{"zip_code":"6890111","prefecture":"鳥取県","prefecture_kana":"トットリケン","city":"鳥取市","city_kana":"トットリシ","town":"福部町栗谷","town_kana":"フクベチョウクリタニ","prefecture_code":31},"0114":{"zip_code":"6890114","prefecture":"鳥取県","prefecture_kana":"トットリケン","city":"鳥取市","city_kana":"トットリシ","town":"福部町左近","town_kana":"フクベチョウサコ","prefecture_code":31},"0103":{"zip_code":"6890103","prefecture":"鳥取県","prefecture_kana":"トットリケン","city":"鳥取市","city_kana":"トットリシ","town":"福部町高江","town_kana":"フクベチョウタカエ","prefecture_code":31},"0116":{"zip_code":"6890116","prefecture":"鳥取県","prefecture_kana":"トットリケン","city":"鳥取市","city_kana":"トットリシ","town":"福部町中","town_kana":"フクベチョウナカ","prefecture_code":31},"0117":{"zip_code":"6890117","prefecture":"鳥取県","prefecture_kana":"トットリケン","city":"鳥取市","city_kana":"トットリシ","town":"福部町南田","town_kana":"フクベチョウノウダ","prefecture_code":31},"0102":{"zip_code":"6890102","prefecture":"鳥取県","prefecture_kana":"トットリケン","city":"鳥取市","city_kana":"トットリシ","town":"福部町細川","town_kana":"フクベチョウホソガワ","prefecture_code":31},"0115":{"zip_code":"6890115","prefecture":"鳥取県","prefecture_kana":"トットリケン","city":"鳥取市","city_kana":"トットリシ","town":"福部町八重原","town_kana":"フクベチョウヤエバラ","prefecture_code":31},"0104":{"zip_code":"6890104","prefecture":"鳥取県","prefecture_kana":"トットリケン","city":"鳥取市","city_kana":"トットリシ","town":"福部町箭渓","town_kana":"フクベチョウヤダニ","prefecture_code":31},"0105":{"zip_code":"6890105","prefecture":"鳥取県","prefecture_kana":"トットリケン","city":"鳥取市","city_kana":"トットリシ","town":"福部町湯山","town_kana":"フクベチョウユヤマ","prefecture_code":31},"0201":{"zip_code":"6890201","prefecture":"鳥取県","prefecture_kana":"トットリケン","city":"鳥取市","city_kana":"トットリシ","town":"伏野","town_kana":"フシノ","prefecture_code":31},"1122":{"zip_code":"6891122","prefecture":"鳥取県","prefecture_kana":"トットリケン","city":"鳥取市","city_kana":"トットリシ","town":"船木","town_kana":"フナキ","prefecture_code":31},"0204":{"zip_code":"6890204","prefecture":"鳥取県","prefecture_kana":"トットリケン","city":"鳥取市","city_kana":"トットリシ","town":"御熊","town_kana":"ミクマ","prefecture_code":31},"0203":{"zip_code":"6890203","prefecture":"鳥取県","prefecture_kana":"トットリケン","city":"鳥取市","city_kana":"トットリシ","town":"三津","town_kana":"ミツ","prefecture_code":31},"0202":{"zip_code":"6890202","prefecture":"鳥取県","prefecture_kana":"トットリケン","city":"鳥取市","city_kana":"トットリシ","town":"美萩野","town_kana":"ミハギノ","prefecture_code":31},"1126":{"zip_code":"6891126","prefecture":"鳥取県","prefecture_kana":"トットリケン","city":"鳥取市","city_kana":"トットリシ","town":"美和","town_kana":"ミワ","prefecture_code":31},"1215":{"zip_code":"6891215","prefecture":"鳥取県","prefecture_kana":"トットリケン","city":"鳥取市","city_kana":"トットリシ","town":"用瀬町赤波","town_kana":"モチガセチョウアガナミ","prefecture_code":31},"1214":{"zip_code":"6891214","prefecture":"鳥取県","prefecture_kana":"トットリケン","city":"鳥取市","city_kana":"トットリシ","town":"用瀬町旭ケ丘","town_kana":"モチガセチョウアサヒガオカ","prefecture_code":31},"1227":{"zip_code":"6891227","prefecture":"鳥取県","prefecture_kana":"トットリケン","city":"鳥取市","city_kana":"トットリシ","town":"用瀬町安蔵","town_kana":"モチガセチョウアゾウ","prefecture_code":31},"1222":{"zip_code":"6891222","prefecture":"鳥取県","prefecture_kana":"トットリケン","city":"鳥取市","city_kana":"トットリシ","town":"用瀬町家奥","town_kana":"モチガセチョウイエオク","prefecture_code":31},"1229":{"zip_code":"6891229","prefecture":"鳥取県","prefecture_kana":"トットリケン","city":"鳥取市","city_kana":"トットリシ","town":"用瀬町江波","town_kana":"モチガセチョウエナミ","prefecture_code":31},"1223":{"zip_code":"6891223","prefecture":"鳥取県","prefecture_kana":"トットリケン","city":"鳥取市","city_kana":"トットリシ","town":"用瀬町金屋","town_kana":"モチガセチョウカナヤ","prefecture_code":31},"1226":{"zip_code":"6891226","prefecture":"鳥取県","prefecture_kana":"トットリケン","city":"鳥取市","city_kana":"トットリシ","town":"用瀬町川中","town_kana":"モチガセチョウカワナカ","prefecture_code":31},"1224":{"zip_code":"6891224","prefecture":"鳥取県","prefecture_kana":"トットリケン","city":"鳥取市","city_kana":"トットリシ","town":"用瀬町樟原","town_kana":"モチガセチョウクヌギワラ","prefecture_code":31},"1213":{"zip_code":"6891213","prefecture":"鳥取県","prefecture_kana":"トットリケン","city":"鳥取市","city_kana":"トットリシ","town":"用瀬町鷹狩","town_kana":"モチガセチョウタカガリ","prefecture_code":31},"1221":{"zip_code":"6891221","prefecture":"鳥取県","prefecture_kana":"トットリケン","city":"鳥取市","city_kana":"トットリシ","town":"用瀬町古用瀬","town_kana":"モチガセチョウフルモチガセ","prefecture_code":31},"1211":{"zip_code":"6891211","prefecture":"鳥取県","prefecture_kana":"トットリケン","city":"鳥取市","city_kana":"トットリシ","town":"用瀬町別府","town_kana":"モチガセチョウベフ","prefecture_code":31},"1212":{"zip_code":"6891212","prefecture":"鳥取県","prefecture_kana":"トットリケン","city":"鳥取市","city_kana":"トットリシ","town":"用瀬町美成","town_kana":"モチガセチョウミナリ","prefecture_code":31},"1225":{"zip_code":"6891225","prefecture":"鳥取県","prefecture_kana":"トットリケン","city":"鳥取市","city_kana":"トットリシ","town":"用瀬町宮原","town_kana":"モチガセチョウミヤバラ","prefecture_code":31},"1201":{"zip_code":"6891201","prefecture":"鳥取県","prefecture_kana":"トットリケン","city":"鳥取市","city_kana":"トットリシ","town":"用瀬町用瀬","town_kana":"モチガセチョウモチガセ","prefecture_code":31},"1228":{"zip_code":"6891228","prefecture":"鳥取県","prefecture_kana":"トットリケン","city":"鳥取市","city_kana":"トットリシ","town":"用瀬町屋住","town_kana":"モチガセチョウヤズミ","prefecture_code":31},"1112":{"zip_code":"6891112","prefecture":"鳥取県","prefecture_kana":"トットリケン","city":"鳥取市","city_kana":"トットリシ","town":"若葉台南","town_kana":"ワカバダイミナミ","prefecture_code":31},"1111":{"zip_code":"6891111","prefecture":"鳥取県","prefecture_kana":"トットリケン","city":"鳥取市","city_kana":"トットリシ","town":"若葉台北","town_kana":"ワカバダイキタ","prefecture_code":31},"3515":{"zip_code":"6893515","prefecture":"鳥取県","prefecture_kana":"トットリケン","city":"米子市","city_kana":"ヨナゴシ","town":"赤井手","town_kana":"アカイデ","prefecture_code":31},"3512":{"zip_code":"6893512","prefecture":"鳥取県","prefecture_kana":"トットリケン","city":"米子市","city_kana":"ヨナゴシ","town":"泉","town_kana":"イズミ","prefecture_code":31},"3533":{"zip_code":"6893533","prefecture":"鳥取県","prefecture_kana":"トットリケン","city":"米子市","city_kana":"ヨナゴシ","town":"一部","town_kana":"イチブ","prefecture_code":31},"3542":{"zip_code":"6893542","prefecture":"鳥取県","prefecture_kana":"トットリケン","city":"米子市","city_kana":"ヨナゴシ","town":"今在家","town_kana":"イマザイケ","prefecture_code":31},"3544":{"zip_code":"6893544","prefecture":"鳥取県","prefecture_kana":"トットリケン","city":"米子市","city_kana":"ヨナゴシ","town":"浦津","town_kana":"ウラツ","prefecture_code":31},"3513":{"zip_code":"6893513","prefecture":"鳥取県","prefecture_kana":"トットリケン","city":"米子市","city_kana":"ヨナゴシ","town":"岡成","town_kana":"オカナリ","prefecture_code":31},"3514":{"zip_code":"6893514","prefecture":"鳥取県","prefecture_kana":"トットリケン","city":"米子市","city_kana":"ヨナゴシ","town":"尾高","town_kana":"オダカ","prefecture_code":31},"3532":{"zip_code":"6893532","prefecture":"鳥取県","prefecture_kana":"トットリケン","city":"米子市","city_kana":"ヨナゴシ","town":"上新印","town_kana":"カミシイ","prefecture_code":31},"3543":{"zip_code":"6893543","prefecture":"鳥取県","prefecture_kana":"トットリケン","city":"米子市","city_kana":"ヨナゴシ","town":"蚊屋","town_kana":"カヤ","prefecture_code":31},"3521":{"zip_code":"6893521","prefecture":"鳥取県","prefecture_kana":"トットリケン","city":"米子市","city_kana":"ヨナゴシ","town":"河岡","town_kana":"カワオカ","prefecture_code":31},"3522":{"zip_code":"6893522","prefecture":"鳥取県","prefecture_kana":"トットリケン","city":"米子市","city_kana":"ヨナゴシ","town":"日下","town_kana":"クサカ","prefecture_code":31},"3546":{"zip_code":"6893546","prefecture":"鳥取県","prefecture_kana":"トットリケン","city":"米子市","city_kana":"ヨナゴシ","town":"熊党","town_kana":"クマントウ","prefecture_code":31},"3537":{"zip_code":"6893537","prefecture":"鳥取県","prefecture_kana":"トットリケン","city":"米子市","city_kana":"ヨナゴシ","town":"古豊千","town_kana":"コホウチ","prefecture_code":31},"3531":{"zip_code":"6893531","prefecture":"鳥取県","prefecture_kana":"トットリケン","city":"米子市","city_kana":"ヨナゴシ","town":"下新印","town_kana":"シモシイ","prefecture_code":31},"3511":{"zip_code":"6893511","prefecture":"鳥取県","prefecture_kana":"トットリケン","city":"米子市","city_kana":"ヨナゴシ","town":"下郷","town_kana":"シモノゴウ","prefecture_code":31},"3524":{"zip_code":"6893524","prefecture":"鳥取県","prefecture_kana":"トットリケン","city":"米子市","city_kana":"ヨナゴシ","town":"石州府","town_kana":"セキシュウフ","prefecture_code":31},"3536":{"zip_code":"6893536","prefecture":"鳥取県","prefecture_kana":"トットリケン","city":"米子市","city_kana":"ヨナゴシ","town":"高島","town_kana":"タカシマ","prefecture_code":31},"3541":{"zip_code":"6893541","prefecture":"鳥取県","prefecture_kana":"トットリケン","city":"米子市","city_kana":"ヨナゴシ","town":"二本木","town_kana":"ニホンギ","prefecture_code":31},"3535":{"zip_code":"6893535","prefecture":"鳥取県","prefecture_kana":"トットリケン","city":"米子市","city_kana":"ヨナゴシ","town":"東八幡","town_kana":"ヒガシヤワタ","prefecture_code":31},"3523":{"zip_code":"6893523","prefecture":"鳥取県","prefecture_kana":"トットリケン","city":"米子市","city_kana":"ヨナゴシ","town":"福万","town_kana":"フクマン","prefecture_code":31},"3534":{"zip_code":"6893534","prefecture":"鳥取県","prefecture_kana":"トットリケン","city":"米子市","city_kana":"ヨナゴシ","town":"水浜","town_kana":"ミズハマ","prefecture_code":31},"3545":{"zip_code":"6893545","prefecture":"鳥取県","prefecture_kana":"トットリケン","city":"米子市","city_kana":"ヨナゴシ","town":"吉岡","town_kana":"ヨシオカ","prefecture_code":31},"3412":{"zip_code":"6893412","prefecture":"鳥取県","prefecture_kana":"トットリケン","city":"米子市","city_kana":"ヨナゴシ","town":"淀江町稲吉","town_kana":"ヨドエチョウイナヨシ","prefecture_code":31},"3401":{"zip_code":"6893401","prefecture":"鳥取県","prefecture_kana":"トットリケン","city":"米子市","city_kana":"ヨナゴシ","town":"淀江町今津","town_kana":"ヨドエチョウイマヅ","prefecture_code":31},"3423":{"zip_code":"6893423","prefecture":"鳥取県","prefecture_kana":"トットリケン","city":"米子市","city_kana":"ヨナゴシ","town":"淀江町小波","town_kana":"ヨドエチョウコナミ","prefecture_code":31},"3425":{"zip_code":"6893425","prefecture":"鳥取県","prefecture_kana":"トットリケン","city":"米子市","city_kana":"ヨナゴシ","town":"淀江町佐陀","town_kana":"ヨドエチョウサダ","prefecture_code":31},"3418":{"zip_code":"6893418","prefecture":"鳥取県","prefecture_kana":"トットリケン","city":"米子市","city_kana":"ヨナゴシ","town":"淀江町高井谷","town_kana":"ヨドエチョウタカイダニ","prefecture_code":31},"3415":{"zip_code":"6893415","prefecture":"鳥取県","prefecture_kana":"トットリケン","city":"米子市","city_kana":"ヨナゴシ","town":"淀江町富繁","town_kana":"ヨドエチョウトミシゲ","prefecture_code":31},"3417":{"zip_code":"6893417","prefecture":"鳥取県","prefecture_kana":"トットリケン","city":"米子市","city_kana":"ヨナゴシ","town":"淀江町中西尾","town_kana":"ヨドエチョウナカニシオ","prefecture_code":31},"3424":{"zip_code":"6893424","prefecture":"鳥取県","prefecture_kana":"トットリケン","city":"米子市","city_kana":"ヨナゴシ","town":"淀江町中間","town_kana":"ヨドエチョウナカマ","prefecture_code":31},"3414":{"zip_code":"6893414","prefecture":"鳥取県","prefecture_kana":"トットリケン","city":"米子市","city_kana":"ヨナゴシ","town":"淀江町西尾原","town_kana":"ヨドエチョウニシオハラ","prefecture_code":31},"3403":{"zip_code":"6893403","prefecture":"鳥取県","prefecture_kana":"トットリケン","city":"米子市","city_kana":"ヨナゴシ","town":"淀江町西原","town_kana":"ヨドエチョウニシバラ","prefecture_code":31},"3422":{"zip_code":"6893422","prefecture":"鳥取県","prefecture_kana":"トットリケン","city":"米子市","city_kana":"ヨナゴシ","town":"淀江町平岡","town_kana":"ヨドエチョウヒラオカ","prefecture_code":31},"3416":{"zip_code":"6893416","prefecture":"鳥取県","prefecture_kana":"トットリケン","city":"米子市","city_kana":"ヨナゴシ","town":"淀江町福井","town_kana":"ヨドエチョウフクイ","prefecture_code":31},"3411":{"zip_code":"6893411","prefecture":"鳥取県","prefecture_kana":"トットリケン","city":"米子市","city_kana":"ヨナゴシ","town":"淀江町福岡","town_kana":"ヨドエチョウフクオカ","prefecture_code":31},"3421":{"zip_code":"6893421","prefecture":"鳥取県","prefecture_kana":"トットリケン","city":"米子市","city_kana":"ヨナゴシ","town":"淀江町福頼","town_kana":"ヨドエチョウフクヨリ","prefecture_code":31},"3413":{"zip_code":"6893413","prefecture":"鳥取県","prefecture_kana":"トットリケン","city":"米子市","city_kana":"ヨナゴシ","town":"淀江町本宮","town_kana":"ヨドエチョウホングウ","prefecture_code":31},"3402":{"zip_code":"6893402","prefecture":"鳥取県","prefecture_kana":"トットリケン","city":"米子市","city_kana":"ヨナゴシ","town":"淀江町淀江","town_kana":"ヨドエチョウヨドエ","prefecture_code":31},"3547":{"zip_code":"6893547","prefecture":"鳥取県","prefecture_kana":"トットリケン","city":"米子市","city_kana":"ヨナゴシ","town":"流通町","town_kana":"リュウツウチョウ","prefecture_code":31},"1400":{"zip_code":"6891400","prefecture":"鳥取県","prefecture_kana":"トットリケン","city":"八頭郡智頭町","city_kana":"ヤズグンチヅチョウ","town":"","town_kana":"","prefecture_code":31},"1412":{"zip_code":"6891412","prefecture":"鳥取県","prefecture_kana":"トットリケン","city":"八頭郡智頭町","city_kana":"ヤズグンチヅチョウ","town":"芦津","town_kana":"アシヅ","prefecture_code":31},"1401":{"zip_code":"6891401","prefecture":"鳥取県","prefecture_kana":"トットリケン","city":"八頭郡智頭町","city_kana":"ヤズグンチヅチョウ","town":"市瀬","town_kana":"イチノセ","prefecture_code":31},"1404":{"zip_code":"6891404","prefecture":"鳥取県","prefecture_kana":"トットリケン","city":"八頭郡智頭町","city_kana":"ヤズグンチヅチョウ","town":"岩神","town_kana":"イワガミ","prefecture_code":31},"1465":{"zip_code":"6891465","prefecture":"鳥取県","prefecture_kana":"トットリケン","city":"八頭郡智頭町","city_kana":"ヤズグンチヅチョウ","town":"宇波","town_kana":"ウナミ","prefecture_code":31},"1451":{"zip_code":"6891451","prefecture":"鳥取県","prefecture_kana":"トットリケン","city":"八頭郡智頭町","city_kana":"ヤズグンチヅチョウ","town":"大背","town_kana":"オオセ","prefecture_code":31},"1421":{"zip_code":"6891421","prefecture":"鳥取県","prefecture_kana":"トットリケン","city":"八頭郡智頭町","city_kana":"ヤズグンチヅチョウ","town":"大内","town_kana":"オオチ","prefecture_code":31},"1442":{"zip_code":"6891442","prefecture":"鳥取県","prefecture_kana":"トットリケン","city":"八頭郡智頭町","city_kana":"ヤズグンチヅチョウ","town":"大屋","town_kana":"オオヤ","prefecture_code":31},"1413":{"zip_code":"6891413","prefecture":"鳥取県","prefecture_kana":"トットリケン","city":"八頭郡智頭町","city_kana":"ヤズグンチヅチョウ","town":"大呂","town_kana":"オオロ","prefecture_code":31},"1452":{"zip_code":"6891452","prefecture":"鳥取県","prefecture_kana":"トットリケン","city":"八頭郡智頭町","city_kana":"ヤズグンチヅチョウ","town":"奥本","town_kana":"オクモト","prefecture_code":31},"1422":{"zip_code":"6891422","prefecture":"鳥取県","prefecture_kana":"トットリケン","city":"八頭郡智頭町","city_kana":"ヤズグンチヅチョウ","town":"尾見","town_kana":"オミ","prefecture_code":31},"1436":{"zip_code":"6891436","prefecture":"鳥取県","prefecture_kana":"トットリケン","city":"八頭郡智頭町","city_kana":"ヤズグンチヅチョウ","town":"木原","town_kana":"キハラ","prefecture_code":31},"1464":{"zip_code":"6891464","prefecture":"鳥取県","prefecture_kana":"トットリケン","city":"八頭郡智頭町","city_kana":"ヤズグンチヅチョウ","town":"口宇波","town_kana":"クチウナミ","prefecture_code":31},"1467":{"zip_code":"6891467","prefecture":"鳥取県","prefecture_kana":"トットリケン","city":"八頭郡智頭町","city_kana":"ヤズグンチヅチョウ","town":"口波多","town_kana":"クチハタ","prefecture_code":31},"1441":{"zip_code":"6891441","prefecture":"鳥取県","prefecture_kana":"トットリケン","city":"八頭郡智頭町","city_kana":"ヤズグンチヅチョウ","town":"慶所","town_kana":"ケイジョ","prefecture_code":31},"1416":{"zip_code":"6891416","prefecture":"鳥取県","prefecture_kana":"トットリケン","city":"八頭郡智頭町","city_kana":"ヤズグンチヅチョウ","town":"毛谷","town_kana":"ケダニ","prefecture_code":31},"1454":{"zip_code":"6891454","prefecture":"鳥取県","prefecture_kana":"トットリケン","city":"八頭郡智頭町","city_kana":"ヤズグンチヅチョウ","town":"河津原","town_kana":"コウヅワラ","prefecture_code":31},"1415":{"zip_code":"6891415","prefecture":"鳥取県","prefecture_kana":"トットリケン","city":"八頭郡智頭町","city_kana":"ヤズグンチヅチョウ","town":"郷原","town_kana":"ゴウバラ","prefecture_code":31},"1424":{"zip_code":"6891424","prefecture":"鳥取県","prefecture_kana":"トットリケン","city":"八頭郡智頭町","city_kana":"ヤズグンチヅチョウ","town":"駒帰","town_kana":"コマガエリ","prefecture_code":31},"1461":{"zip_code":"6891461","prefecture":"鳥取県","prefecture_kana":"トットリケン","city":"八頭郡智頭町","city_kana":"ヤズグンチヅチョウ","town":"坂原","town_kana":"サカワラ","prefecture_code":31},"1417":{"zip_code":"6891417","prefecture":"鳥取県","prefecture_kana":"トットリケン","city":"八頭郡智頭町","city_kana":"ヤズグンチヅチョウ","town":"篠坂","town_kana":"シノザカ","prefecture_code":31},"1468":{"zip_code":"6891468","prefecture":"鳥取県","prefecture_kana":"トットリケン","city":"八頭郡智頭町","city_kana":"ヤズグンチヅチョウ","town":"惣地","town_kana":"ソウチ","prefecture_code":31},"1402":{"zip_code":"6891402","prefecture":"鳥取県","prefecture_kana":"トットリケン","city":"八頭郡智頭町","city_kana":"ヤズグンチヅチョウ","town":"智頭","town_kana":"チズ","prefecture_code":31},"1462":{"zip_code":"6891462","prefecture":"鳥取県","prefecture_kana":"トットリケン","city":"八頭郡智頭町","city_kana":"ヤズグンチヅチョウ","town":"中田","town_kana":"ナカダ","prefecture_code":31},"1423":{"zip_code":"6891423","prefecture":"鳥取県","prefecture_kana":"トットリケン","city":"八頭郡智頭町","city_kana":"ヤズグンチヅチョウ","town":"中原","town_kana":"ナカバラ","prefecture_code":31},"1463":{"zip_code":"6891463","prefecture":"鳥取県","prefecture_kana":"トットリケン","city":"八頭郡智頭町","city_kana":"ヤズグンチヅチョウ","town":"新見","town_kana":"ニイミ","prefecture_code":31},"1455":{"zip_code":"6891455","prefecture":"鳥取県","prefecture_kana":"トットリケン","city":"八頭郡智頭町","city_kana":"ヤズグンチヅチョウ","town":"西宇塚","town_kana":"ニシウヅカ","prefecture_code":31},"1426":{"zip_code":"6891426","prefecture":"鳥取県","prefecture_kana":"トットリケン","city":"八頭郡智頭町","city_kana":"ヤズグンチヅチョウ","town":"西谷","town_kana":"ニシダニ","prefecture_code":31},"1414":{"zip_code":"6891414","prefecture":"鳥取県","prefecture_kana":"トットリケン","city":"八頭郡智頭町","city_kana":"ヤズグンチヅチョウ","town":"西野","town_kana":"ニシノ","prefecture_code":31},"1444":{"zip_code":"6891444","prefecture":"鳥取県","prefecture_kana":"トットリケン","city":"八頭郡智頭町","city_kana":"ヤズグンチヅチョウ","town":"野原","town_kana":"ノバラ","prefecture_code":31},"1466":{"zip_code":"6891466","prefecture":"鳥取県","prefecture_kana":"トットリケン","city":"八頭郡智頭町","city_kana":"ヤズグンチヅチョウ","town":"波多","town_kana":"ハタ","prefecture_code":31},"1433":{"zip_code":"6891433","prefecture":"鳥取県","prefecture_kana":"トットリケン","city":"八頭郡智頭町","city_kana":"ヤズグンチヅチョウ","town":"埴師","town_kana":"ハニシ","prefecture_code":31},"1445":{"zip_code":"6891445","prefecture":"鳥取県","prefecture_kana":"トットリケン","city":"八頭郡智頭町","city_kana":"ヤズグンチヅチョウ","town":"早瀬","town_kana":"ハヤセ","prefecture_code":31},"1453":{"zip_code":"6891453","prefecture":"鳥取県","prefecture_kana":"トットリケン","city":"八頭郡智頭町","city_kana":"ヤズグンチヅチョウ","town":"東宇塚","town_kana":"ヒガシウヅカ","prefecture_code":31},"1425":{"zip_code":"6891425","prefecture":"鳥取県","prefecture_kana":"トットリケン","city":"八頭郡智頭町","city_kana":"ヤズグンチヅチョウ","town":"福原","town_kana":"フクワラ","prefecture_code":31},"1432":{"zip_code":"6891432","prefecture":"鳥取県","prefecture_kana":"トットリケン","city":"八頭郡智頭町","city_kana":"ヤズグンチヅチョウ","town":"穂見","town_kana":"ホノミ","prefecture_code":31},"1443":{"zip_code":"6891443","prefecture":"鳥取県","prefecture_kana":"トットリケン","city":"八頭郡智頭町","city_kana":"ヤズグンチヅチョウ","town":"真鹿野","town_kana":"マガノ","prefecture_code":31},"1437":{"zip_code":"6891437","prefecture":"鳥取県","prefecture_kana":"トットリケン","city":"八頭郡智頭町","city_kana":"ヤズグンチヅチョウ","town":"三田","town_kana":"ミタ","prefecture_code":31},"1403":{"zip_code":"6891403","prefecture":"鳥取県","prefecture_kana":"トットリケン","city":"八頭郡智頭町","city_kana":"ヤズグンチヅチョウ","town":"南方","town_kana":"ミナミガタ","prefecture_code":31},"1434":{"zip_code":"6891434","prefecture":"鳥取県","prefecture_kana":"トットリケン","city":"八頭郡智頭町","city_kana":"ヤズグンチヅチョウ","town":"三吉","town_kana":"ミヨシ","prefecture_code":31},"1411":{"zip_code":"6891411","prefecture":"鳥取県","prefecture_kana":"トットリケン","city":"八頭郡智頭町","city_kana":"ヤズグンチヅチョウ","town":"八河谷","town_kana":"ヤコウダニ","prefecture_code":31},"1431":{"zip_code":"6891431","prefecture":"鳥取県","prefecture_kana":"トットリケン","city":"八頭郡智頭町","city_kana":"ヤズグンチヅチョウ","town":"山根","town_kana":"ヤマネ","prefecture_code":31},"1435":{"zip_code":"6891435","prefecture":"鳥取県","prefecture_kana":"トットリケン","city":"八頭郡智頭町","city_kana":"ヤズグンチヅチョウ","town":"横田","town_kana":"ヨコタ","prefecture_code":31},"0721":{"zip_code":"6890721","prefecture":"鳥取県","prefecture_kana":"トットリケン","city":"東伯郡湯梨浜町","city_kana":"トウハクグンユリハマチョウ","town":"麻畑","town_kana":"アサバタケ","prefecture_code":31},"0713":{"zip_code":"6890713","prefecture":"鳥取県","prefecture_kana":"トットリケン","city":"東伯郡湯梨浜町","city_kana":"トウハクグンユリハマチョウ","town":"旭","town_kana":"アサヒ","prefecture_code":31},"0602":{"zip_code":"6890602","prefecture":"鳥取県","prefecture_kana":"トットリケン","city":"東伯郡湯梨浜町","city_kana":"トウハクグンユリハマチョウ","town":"石脇","town_kana":"イシワキ","prefecture_code":31},"0733":{"zip_code":"6890733","prefecture":"鳥取県","prefecture_kana":"トットリケン","city":"東伯郡湯梨浜町","city_kana":"トウハクグンユリハマチョウ","town":"羽衣石","town_kana":"ウエシ","prefecture_code":31},"0607":{"zip_code":"6890607","prefecture":"鳥取県","prefecture_kana":"トットリケン","city":"東伯郡湯梨浜町","city_kana":"トウハクグンユリハマチョウ","town":"宇谷","town_kana":"ウタニ","prefecture_code":31},"0702":{"zip_code":"6890702","prefecture":"鳥取県","prefecture_kana":"トットリケン","city":"東伯郡湯梨浜町","city_kana":"トウハクグンユリハマチョウ","town":"漆原","town_kana":"ウルシバラ","prefecture_code":31},"0729":{"zip_code":"6890729","prefecture":"鳥取県","prefecture_kana":"トットリケン","city":"東伯郡湯梨浜町","city_kana":"トウハクグンユリハマチョウ","town":"小鹿谷","town_kana":"オシカダニ","prefecture_code":31},"0724":{"zip_code":"6890724","prefecture":"鳥取県","prefecture_kana":"トットリケン","city":"東伯郡湯梨浜町","city_kana":"トウハクグンユリハマチョウ","town":"方面","town_kana":"カタモ","prefecture_code":31},"0736":{"zip_code":"6890736","prefecture":"鳥取県","prefecture_kana":"トットリケン","city":"東伯郡湯梨浜町","city_kana":"トウハクグンユリハマチョウ","town":"門田","town_kana":"カドタ","prefecture_code":31},"0722":{"zip_code":"6890722","prefecture":"鳥取県","prefecture_kana":"トットリケン","city":"東伯郡湯梨浜町","city_kana":"トウハクグンユリハマチョウ","town":"川上","town_kana":"カワカミ","prefecture_code":31},"0701":{"zip_code":"6890701","prefecture":"鳥取県","prefecture_kana":"トットリケン","city":"東伯郡湯梨浜町","city_kana":"トウハクグンユリハマチョウ","town":"北福","town_kana":"キタフク","prefecture_code":31},"0726":{"zip_code":"6890726","prefecture":"鳥取県","prefecture_kana":"トットリケン","city":"東伯郡湯梨浜町","city_kana":"トウハクグンユリハマチョウ","town":"国信","town_kana":"クニノブ","prefecture_code":31},"0603":{"zip_code":"6890603","prefecture":"鳥取県","prefecture_kana":"トットリケン","city":"東伯郡湯梨浜町","city_kana":"トウハクグンユリハマチョウ","town":"小浜","town_kana":"コバマ","prefecture_code":31},"0735":{"zip_code":"6890735","prefecture":"鳥取県","prefecture_kana":"トットリケン","city":"東伯郡湯梨浜町","city_kana":"トウハクグンユリハマチョウ","town":"佐美","town_kana":"サビ","prefecture_code":31},"0704":{"zip_code":"6890704","prefecture":"鳥取県","prefecture_kana":"トットリケン","city":"東伯郡湯梨浜町","city_kana":"トウハクグンユリハマチョウ","town":"白石","town_kana":"シライシ","prefecture_code":31},"0605":{"zip_code":"6890605","prefecture":"鳥取県","prefecture_kana":"トットリケン","city":"東伯郡湯梨浜町","city_kana":"トウハクグンユリハマチョウ","town":"園","town_kana":"ソノ","prefecture_code":31},"0723":{"zip_code":"6890723","prefecture":"鳥取県","prefecture_kana":"トットリケン","city":"東伯郡湯梨浜町","city_kana":"トウハクグンユリハマチョウ","town":"高辻","town_kana":"タカツジ","prefecture_code":31},"0727":{"zip_code":"6890727","prefecture":"鳥取県","prefecture_kana":"トットリケン","city":"東伯郡湯梨浜町","city_kana":"トウハクグンユリハマチョウ","town":"田畑","town_kana":"タバタケ","prefecture_code":31},"0712":{"zip_code":"6890712","prefecture":"鳥取県","prefecture_kana":"トットリケン","city":"東伯郡湯梨浜町","city_kana":"トウハクグンユリハマチョウ","town":"中興寺","town_kana":"チュウコウジ","prefecture_code":31},"0604":{"zip_code":"6890604","prefecture":"鳥取県","prefecture_kana":"トットリケン","city":"東伯郡湯梨浜町","city_kana":"トウハクグンユリハマチョウ","town":"筒地","town_kana":"ツツジ","prefecture_code":31},"0601":{"zip_code":"6890601","prefecture":"鳥取県","prefecture_kana":"トットリケン","city":"東伯郡湯梨浜町","city_kana":"トウハクグンユリハマチョウ","town":"泊","town_kana":"トマリ","prefecture_code":31},"0737":{"zip_code":"6890737","prefecture":"鳥取県","prefecture_kana":"トットリケン","city":"東伯郡湯梨浜町","city_kana":"トウハクグンユリハマチョウ","town":"長江","town_kana":"ナガエ","prefecture_code":31},"0732":{"zip_code":"6890732","prefecture":"鳥取県","prefecture_kana":"トットリケン","city":"東伯郡湯梨浜町","city_kana":"トウハクグンユリハマチョウ","town":"長和田","town_kana":"ナゴウタ","prefecture_code":31},"0705":{"zip_code":"6890705","prefecture":"鳥取県","prefecture_kana":"トットリケン","city":"東伯郡湯梨浜町","city_kana":"トウハクグンユリハマチョウ","town":"野方","town_kana":"ノカタ","prefecture_code":31},"0731":{"zip_code":"6890731","prefecture":"鳥取県","prefecture_kana":"トットリケン","city":"東伯郡湯梨浜町","city_kana":"トウハクグンユリハマチョウ","town":"野花","town_kana":"ノキョウ","prefecture_code":31},"0734":{"zip_code":"6890734","prefecture":"鳥取県","prefecture_kana":"トットリケン","city":"東伯郡湯梨浜町","city_kana":"トウハクグンユリハマチョウ","town":"埴見","town_kana":"ハナミ","prefecture_code":31},"0606":{"zip_code":"6890606","prefecture":"鳥取県","prefecture_kana":"トットリケン","city":"東伯郡湯梨浜町","city_kana":"トウハクグンユリハマチョウ","town":"原","town_kana":"ハラ","prefecture_code":31},"0715":{"zip_code":"6890715","prefecture":"鳥取県","prefecture_kana":"トットリケン","city":"東伯郡湯梨浜町","city_kana":"トウハクグンユリハマチョウ","town":"引地","town_kana":"ヒキジ","prefecture_code":31},"0728":{"zip_code":"6890728","prefecture":"鳥取県","prefecture_kana":"トットリケン","city":"東伯郡湯梨浜町","city_kana":"トウハクグンユリハマチョウ","town":"久見","town_kana":"ヒサミ","prefecture_code":31},"0706":{"zip_code":"6890706","prefecture":"鳥取県","prefecture_kana":"トットリケン","city":"東伯郡湯梨浜町","city_kana":"トウハクグンユリハマチョウ","town":"藤津","town_kana":"フジツ","prefecture_code":31},"0725":{"zip_code":"6890725","prefecture":"鳥取県","prefecture_kana":"トットリケン","city":"東伯郡湯梨浜町","city_kana":"トウハクグンユリハマチョウ","town":"別所","town_kana":"ベッショ","prefecture_code":31},"0703":{"zip_code":"6890703","prefecture":"鳥取県","prefecture_kana":"トットリケン","city":"東伯郡湯梨浜町","city_kana":"トウハクグンユリハマチョウ","town":"方地","town_kana":"ホウジ","prefecture_code":31},"0711":{"zip_code":"6890711","prefecture":"鳥取県","prefecture_kana":"トットリケン","city":"東伯郡湯梨浜町","city_kana":"トウハクグンユリハマチョウ","town":"松崎","town_kana":"マツザキ","prefecture_code":31},"0707":{"zip_code":"6890707","prefecture":"鳥取県","prefecture_kana":"トットリケン","city":"東伯郡湯梨浜町","city_kana":"トウハクグンユリハマチョウ","town":"宮内","town_kana":"ミヤウチ","prefecture_code":31},"0714":{"zip_code":"6890714","prefecture":"鳥取県","prefecture_kana":"トットリケン","city":"東伯郡湯梨浜町","city_kana":"トウハクグンユリハマチョウ","town":"龍島","town_kana":"リュウトウ","prefecture_code":31},"2300":{"zip_code":"6892300","prefecture":"鳥取県","prefecture_kana":"トットリケン","city":"東伯郡琴浦町","city_kana":"トウハクグンコトウラチョウ","town":"","town_kana":"","prefecture_code":31},"2501":{"zip_code":"6892501","prefecture":"鳥取県","prefecture_kana":"トットリケン","city":"東伯郡琴浦町","city_kana":"トウハクグンコトウラチョウ","town":"赤碕","town_kana":"アカサキ","prefecture_code":31},"2511":{"zip_code":"6892511","prefecture":"鳥取県","prefecture_kana":"トットリケン","city":"東伯郡琴浦町","city_kana":"トウハクグンコトウラチョウ","town":"出上","town_kana":"イデカミ","prefecture_code":31},"2543":{"zip_code":"6892543","prefecture":"鳥取県","prefecture_kana":"トットリケン","city":"東伯郡琴浦町","city_kana":"トウハクグンコトウラチョウ","town":"梅田","town_kana":"ウメダ","prefecture_code":31},"2352":{"zip_code":"6892352","prefecture":"鳥取県","prefecture_kana":"トットリケン","city":"東伯郡琴浦町","city_kana":"トウハクグンコトウラチョウ","town":"浦安","town_kana":"ウラヤス","prefecture_code":31},"2344":{"zip_code":"6892344","prefecture":"鳥取県","prefecture_kana":"トットリケン","city":"東伯郡琴浦町","city_kana":"トウハクグンコトウラチョウ","town":"大杉","town_kana":"オオスギ","prefecture_code":31},"2304":{"zip_code":"6892304","prefecture":"鳥取県","prefecture_kana":"トットリケン","city":"東伯郡琴浦町","city_kana":"トウハクグンコトウラチョウ","town":"逢束","town_kana":"オオツカ","prefecture_code":31},"2524":{"zip_code":"6892524","prefecture":"鳥取県","prefecture_kana":"トットリケン","city":"東伯郡琴浦町","city_kana":"トウハクグンコトウラチョウ","town":"大父","town_kana":"オオブ","prefecture_code":31},"2535":{"zip_code":"6892535","prefecture":"鳥取県","prefecture_kana":"トットリケン","city":"東伯郡琴浦町","city_kana":"トウハクグンコトウラチョウ","town":"尾張","town_kana":"オワリ","prefecture_code":31},"2306":{"zip_code":"6892306","prefecture":"鳥取県","prefecture_kana":"トットリケン","city":"東伯郡琴浦町","city_kana":"トウハクグンコトウラチョウ","town":"笠見","town_kana":"カサミ","prefecture_code":31},"2512":{"zip_code":"6892512","prefecture":"鳥取県","prefecture_kana":"トットリケン","city":"東伯郡琴浦町","city_kana":"トウハクグンコトウラチョウ","town":"勝田","town_kana":"カツタ","prefecture_code":31},"2312":{"zip_code":"6892312","prefecture":"鳥取県","prefecture_kana":"トットリケン","city":"東伯郡琴浦町","city_kana":"トウハクグンコトウラチョウ","town":"金屋","town_kana":"カナヤ","prefecture_code":31},"2315":{"zip_code":"6892315","prefecture":"鳥取県","prefecture_kana":"トットリケン","city":"東伯郡琴浦町","city_kana":"トウハクグンコトウラチョウ","town":"上伊勢","town_kana":"カミイセ","prefecture_code":31},"2342":{"zip_code":"6892342","prefecture":"鳥取県","prefecture_kana":"トットリケン","city":"東伯郡琴浦町","city_kana":"トウハクグンコトウラチョウ","town":"公文","town_kana":"クモン","prefecture_code":31},"2341":{"zip_code":"6892341","prefecture":"鳥取県","prefecture_kana":"トットリケン","city":"東伯郡琴浦町","city_kana":"トウハクグンコトウラチョウ","town":"倉坂","town_kana":"クラサカ","prefecture_code":31},"2355":{"zip_code":"6892355","prefecture":"鳥取県","prefecture_kana":"トットリケン","city":"東伯郡琴浦町","city_kana":"トウハクグンコトウラチョウ","town":"釛","town_kana":"コガネ","prefecture_code":31},"2531":{"zip_code":"6892531","prefecture":"鳥取県","prefecture_kana":"トットリケン","city":"東伯郡琴浦町","city_kana":"トウハクグンコトウラチョウ","town":"佐崎","town_kana":"サザキ","prefecture_code":31},"2334":{"zip_code":"6892334","prefecture":"鳥取県","prefecture_kana":"トットリケン","city":"東伯郡琴浦町","city_kana":"トウハクグンコトウラチョウ","town":"三本杉","town_kana":"サンボンスギ","prefecture_code":31},"2316":{"zip_code":"6892316","prefecture":"鳥取県","prefecture_kana":"トットリケン","city":"東伯郡琴浦町","city_kana":"トウハクグンコトウラチョウ","town":"下伊勢","town_kana":"シモイセ","prefecture_code":31},"2314":{"zip_code":"6892314","prefecture":"鳥取県","prefecture_kana":"トットリケン","city":"東伯郡琴浦町","city_kana":"トウハクグンコトウラチョウ","town":"下大江","town_kana":"シモオオエ","prefecture_code":31},"2331":{"zip_code":"6892331","prefecture":"鳥取県","prefecture_kana":"トットリケン","city":"東伯郡琴浦町","city_kana":"トウハクグンコトウラチョウ","town":"杉地","town_kana":"スギジ","prefecture_code":31},"2313":{"zip_code":"6892313","prefecture":"鳥取県","prefecture_kana":"トットリケン","city":"東伯郡琴浦町","city_kana":"トウハクグンコトウラチョウ","town":"杉下","town_kana":"スギシタ","prefecture_code":31},"2532":{"zip_code":"6892532","prefecture":"鳥取県","prefecture_kana":"トットリケン","city":"東伯郡琴浦町","city_kana":"トウハクグンコトウラチョウ","town":"太一垣","town_kana":"タイチガキ","prefecture_code":31},"2523":{"zip_code":"6892523","prefecture":"鳥取県","prefecture_kana":"トットリケン","city":"東伯郡琴浦町","city_kana":"トウハクグンコトウラチョウ","town":"高岡","town_kana":"タカオカ","prefecture_code":31},"2521":{"zip_code":"6892521","prefecture":"鳥取県","prefecture_kana":"トットリケン","city":"東伯郡琴浦町","city_kana":"トウハクグンコトウラチョウ","town":"竹内","town_kana":"タケウチ","prefecture_code":31},"2356":{"zip_code":"6892356","prefecture":"鳥取県","prefecture_kana":"トットリケン","city":"東伯郡琴浦町","city_kana":"トウハクグンコトウラチョウ","town":"田越","town_kana":"タコエ","prefecture_code":31},"2305":{"zip_code":"6892305","prefecture":"鳥取県","prefecture_kana":"トットリケン","city":"東伯郡琴浦町","city_kana":"トウハクグンコトウラチョウ","town":"槻下","town_kana":"ツキノシタ","prefecture_code":31},"2303":{"zip_code":"6892303","prefecture":"鳥取県","prefecture_kana":"トットリケン","city":"東伯郡琴浦町","city_kana":"トウハクグンコトウラチョウ","town":"徳万","town_kana":"トクマン","prefecture_code":31},"2311":{"zip_code":"6892311","prefecture":"鳥取県","prefecture_kana":"トットリケン","city":"東伯郡琴浦町","city_kana":"トウハクグンコトウラチョウ","town":"中尾","town_kana":"ナカオ","prefecture_code":31},"2335":{"zip_code":"6892335","prefecture":"鳥取県","prefecture_kana":"トットリケン","city":"東伯郡琴浦町","city_kana":"トウハクグンコトウラチョウ","town":"中津原","town_kana":"ナカツハラ","prefecture_code":31},"2533":{"zip_code":"6892533","prefecture":"鳥取県","prefecture_kana":"トットリケン","city":"東伯郡琴浦町","city_kana":"トウハクグンコトウラチョウ","town":"中村","town_kana":"ナカムラ","prefecture_code":31},"2513":{"zip_code":"6892513","prefecture":"鳥取県","prefecture_kana":"トットリケン","city":"東伯郡琴浦町","city_kana":"トウハクグンコトウラチョウ","town":"西宮","town_kana":"ニシミヤ","prefecture_code":31},"2336":{"zip_code":"6892336","prefecture":"鳥取県","prefecture_kana":"トットリケン","city":"東伯郡琴浦町","city_kana":"トウハクグンコトウラチョウ","town":"野井倉","town_kana":"ノイグラ","prefecture_code":31},"2346":{"zip_code":"6892346","prefecture":"鳥取県","prefecture_kana":"トットリケン","city":"東伯郡琴浦町","city_kana":"トウハクグンコトウラチョウ","town":"野田","town_kana":"ノタ","prefecture_code":31},"2544":{"zip_code":"6892544","prefecture":"鳥取県","prefecture_kana":"トットリケン","city":"東伯郡琴浦町","city_kana":"トウハクグンコトウラチョウ","town":"箆津","town_kana":"ノツ","prefecture_code":31},"2322":{"zip_code":"6892322","prefecture":"鳥取県","prefecture_kana":"トットリケン","city":"東伯郡琴浦町","city_kana":"トウハクグンコトウラチョウ","town":"八反田","town_kana":"ハッタンダ","prefecture_code":31},"2345":{"zip_code":"6892345","prefecture":"鳥取県","prefecture_kana":"トットリケン","city":"東伯郡琴浦町","city_kana":"トウハクグンコトウラチョウ","town":"福永","town_kana":"フクナガ","prefecture_code":31},"2332":{"zip_code":"6892332","prefecture":"鳥取県","prefecture_kana":"トットリケン","city":"東伯郡琴浦町","city_kana":"トウハクグンコトウラチョウ","town":"古長","town_kana":"フルナガ","prefecture_code":31},"2502":{"zip_code":"6892502","prefecture":"鳥取県","prefecture_kana":"トットリケン","city":"東伯郡琴浦町","city_kana":"トウハクグンコトウラチョウ","town":"別所","town_kana":"ベッショ","prefecture_code":31},"2333":{"zip_code":"6892333","prefecture":"鳥取県","prefecture_kana":"トットリケン","city":"東伯郡琴浦町","city_kana":"トウハクグンコトウラチョウ","town":"別宮","town_kana":"ベツミヤ","prefecture_code":31},"2351":{"zip_code":"6892351","prefecture":"鳥取県","prefecture_kana":"トットリケン","city":"東伯郡琴浦町","city_kana":"トウハクグンコトウラチョウ","town":"保","town_kana":"ホウ","prefecture_code":31},"2325":{"zip_code":"6892325","prefecture":"鳥取県","prefecture_kana":"トットリケン","city":"東伯郡琴浦町","city_kana":"トウハクグンコトウラチョウ","town":"法万","town_kana":"ホウマン","prefecture_code":31},"2503":{"zip_code":"6892503","prefecture":"鳥取県","prefecture_kana":"トットリケン","city":"東伯郡琴浦町","city_kana":"トウハクグンコトウラチョウ","town":"松谷","town_kana":"マツダニ","prefecture_code":31},"2302":{"zip_code":"6892302","prefecture":"鳥取県","prefecture_kana":"トットリケン","city":"東伯郡琴浦町","city_kana":"トウハクグンコトウラチョウ","town":"丸尾","town_kana":"マルオ","prefecture_code":31},"2534":{"zip_code":"6892534","prefecture":"鳥取県","prefecture_kana":"トットリケン","city":"東伯郡琴浦町","city_kana":"トウハクグンコトウラチョウ","town":"光","town_kana":"ミツ","prefecture_code":31},"2326":{"zip_code":"6892326","prefecture":"鳥取県","prefecture_kana":"トットリケン","city":"東伯郡琴浦町","city_kana":"トウハクグンコトウラチョウ","town":"光好","town_kana":"ミツヨシ","prefecture_code":31},"2353":{"zip_code":"6892353","prefecture":"鳥取県","prefecture_kana":"トットリケン","city":"東伯郡琴浦町","city_kana":"トウハクグンコトウラチョウ","town":"三保","town_kana":"ミホ","prefecture_code":31},"2522":{"zip_code":"6892522","prefecture":"鳥取県","prefecture_kana":"トットリケン","city":"東伯郡琴浦町","city_kana":"トウハクグンコトウラチョウ","town":"宮木","town_kana":"ミヤキ","prefecture_code":31},"2323":{"zip_code":"6892323","prefecture":"鳥取県","prefecture_kana":"トットリケン","city":"東伯郡琴浦町","city_kana":"トウハクグンコトウラチョウ","town":"宮場","town_kana":"ミヤバ","prefecture_code":31},"2354":{"zip_code":"6892354","prefecture":"鳥取県","prefecture_kana":"トットリケン","city":"東伯郡琴浦町","city_kana":"トウハクグンコトウラチョウ","town":"美好","town_kana":"ミヨシ","prefecture_code":31},"2321":{"zip_code":"6892321","prefecture":"鳥取県","prefecture_kana":"トットリケン","city":"東伯郡琴浦町","city_kana":"トウハクグンコトウラチョウ","town":"森藤","town_kana":"モリトウ","prefecture_code":31},"2324":{"zip_code":"6892324","prefecture":"鳥取県","prefecture_kana":"トットリケン","city":"東伯郡琴浦町","city_kana":"トウハクグンコトウラチョウ","town":"矢下","town_kana":"ヤジタ","prefecture_code":31},"2301":{"zip_code":"6892301","prefecture":"鳥取県","prefecture_kana":"トットリケン","city":"東伯郡琴浦町","city_kana":"トウハクグンコトウラチョウ","town":"八橋","town_kana":"ヤバセ","prefecture_code":31},"2525":{"zip_code":"6892525","prefecture":"鳥取県","prefecture_kana":"トットリケン","city":"東伯郡琴浦町","city_kana":"トウハクグンコトウラチョウ","town":"山川","town_kana":"ヤマガワ","prefecture_code":31},"2343":{"zip_code":"6892343","prefecture":"鳥取県","prefecture_kana":"トットリケン","city":"東伯郡琴浦町","city_kana":"トウハクグンコトウラチョウ","town":"山田","town_kana":"ヤマタ","prefecture_code":31},"2541":{"zip_code":"6892541","prefecture":"鳥取県","prefecture_kana":"トットリケン","city":"東伯郡琴浦町","city_kana":"トウハクグンコトウラチョウ","town":"八幡","town_kana":"ヤワタ","prefecture_code":31},"2542":{"zip_code":"6892542","prefecture":"鳥取県","prefecture_kana":"トットリケン","city":"東伯郡琴浦町","city_kana":"トウハクグンコトウラチョウ","town":"湯坂","town_kana":"ユザカ","prefecture_code":31},"2200":{"zip_code":"6892200","prefecture":"鳥取県","prefecture_kana":"トットリケン","city":"東伯郡北栄町","city_kana":"トウハクグンホクエイチョウ","town":"","town_kana":"","prefecture_code":31},"2216":{"zip_code":"6892216","prefecture":"鳥取県","prefecture_kana":"トットリケン","city":"東伯郡北栄町","city_kana":"トウハクグンホクエイチョウ","town":"岩坪","town_kana":"イワツボ","prefecture_code":31},"2101":{"zip_code":"6892101","prefecture":"鳥取県","prefecture_kana":"トットリケン","city":"東伯郡北栄町","city_kana":"トウハクグンホクエイチョウ","town":"江北","town_kana":"エキタ","prefecture_code":31},"2206":{"zip_code":"6892206","prefecture":"鳥取県","prefecture_kana":"トットリケン","city":"東伯郡北栄町","city_kana":"トウハクグンホクエイチョウ","town":"大島","town_kana":"オオシマ","prefecture_code":31},"2223":{"zip_code":"6892223","prefecture":"鳥取県","prefecture_kana":"トットリケン","city":"東伯郡北栄町","city_kana":"トウハクグンホクエイチョウ","town":"大谷","town_kana":"オオダニ","prefecture_code":31},"2213":{"zip_code":"6892213","prefecture":"鳥取県","prefecture_kana":"トットリケン","city":"東伯郡北栄町","city_kana":"トウハクグンホクエイチョウ","town":"上種","town_kana":"カミダネ","prefecture_code":31},"2211":{"zip_code":"6892211","prefecture":"鳥取県","prefecture_kana":"トットリケン","city":"東伯郡北栄町","city_kana":"トウハクグンホクエイチョウ","town":"亀谷","town_kana":"カメダニ","prefecture_code":31},"2114":{"zip_code":"6892114","prefecture":"鳥取県","prefecture_kana":"トットリケン","city":"東伯郡北栄町","city_kana":"トウハクグンホクエイチョウ","town":"北尾","town_kana":"キタオ","prefecture_code":31},"2102":{"zip_code":"6892102","prefecture":"鳥取県","prefecture_kana":"トットリケン","city":"東伯郡北栄町","city_kana":"トウハクグンホクエイチョウ","town":"国坂","town_kana":"クニサカ","prefecture_code":31},"2212":{"zip_code":"6892212","prefecture":"鳥取県","prefecture_kana":"トットリケン","city":"東伯郡北栄町","city_kana":"トウハクグンホクエイチョウ","town":"下種","town_kana":"シモダネ","prefecture_code":31},"2105":{"zip_code":"6892105","prefecture":"鳥取県","prefecture_kana":"トットリケン","city":"東伯郡北栄町","city_kana":"トウハクグンホクエイチョウ","town":"下神","town_kana":"シモツワ","prefecture_code":31},"2205":{"zip_code":"6892205","prefecture":"鳥取県","prefecture_kana":"トットリケン","city":"東伯郡北栄町","city_kana":"トウハクグンホクエイチョウ","town":"瀬戸","town_kana":"セト","prefecture_code":31},"2103":{"zip_code":"6892103","prefecture":"鳥取県","prefecture_kana":"トットリケン","city":"東伯郡北栄町","city_kana":"トウハクグンホクエイチョウ","town":"田井","town_kana":"タイ","prefecture_code":31},"2224":{"zip_code":"6892224","prefecture":"鳥取県","prefecture_kana":"トットリケン","city":"東伯郡北栄町","city_kana":"トウハクグンホクエイチョウ","town":"妻波","town_kana":"ツマナミ","prefecture_code":31},"2201":{"zip_code":"6892201","prefecture":"鳥取県","prefecture_kana":"トットリケン","city":"東伯郡北栄町","city_kana":"トウハクグンホクエイチョウ","town":"西園","town_kana":"ニシソノ","prefecture_code":31},"2215":{"zip_code":"6892215","prefecture":"鳥取県","prefecture_kana":"トットリケン","city":"東伯郡北栄町","city_kana":"トウハクグンホクエイチョウ","town":"西高尾","town_kana":"ニシタカオ","prefecture_code":31},"2207":{"zip_code":"6892207","prefecture":"鳥取県","prefecture_kana":"トットリケン","city":"東伯郡北栄町","city_kana":"トウハクグンホクエイチョウ","town":"西穂波","town_kana":"ニシホナミ","prefecture_code":31},"2111":{"zip_code":"6892111","prefecture":"鳥取県","prefecture_kana":"トットリケン","city":"東伯郡北栄町","city_kana":"トウハクグンホクエイチョウ","town":"土下","town_kana":"ハシタ","prefecture_code":31},"2203":{"zip_code":"6892203","prefecture":"鳥取県","prefecture_kana":"トットリケン","city":"東伯郡北栄町","city_kana":"トウハクグンホクエイチョウ","town":"原","town_kana":"ハラ","prefecture_code":31},"2202":{"zip_code":"6892202","prefecture":"鳥取県","prefecture_kana":"トットリケン","city":"東伯郡北栄町","city_kana":"トウハクグンホクエイチョウ","town":"東園","town_kana":"ヒガシソノ","prefecture_code":31},"2214":{"zip_code":"6892214","prefecture":"鳥取県","prefecture_kana":"トットリケン","city":"東伯郡北栄町","city_kana":"トウハクグンホクエイチョウ","town":"東高尾","town_kana":"ヒガシタカオ","prefecture_code":31},"2112":{"zip_code":"6892112","prefecture":"鳥取県","prefecture_kana":"トットリケン","city":"東伯郡北栄町","city_kana":"トウハクグンホクエイチョウ","town":"北条島","town_kana":"ホウジョウシマ","prefecture_code":31},"2204":{"zip_code":"6892204","prefecture":"鳥取県","prefecture_kana":"トットリケン","city":"東伯郡北栄町","city_kana":"トウハクグンホクエイチョウ","town":"穂波","town_kana":"ホナミ","prefecture_code":31},"2115":{"zip_code":"6892115","prefecture":"鳥取県","prefecture_kana":"トットリケン","city":"東伯郡北栄町","city_kana":"トウハクグンホクエイチョウ","town":"曲","town_kana":"マガリ","prefecture_code":31},"2106":{"zip_code":"6892106","prefecture":"鳥取県","prefecture_kana":"トットリケン","city":"東伯郡北栄町","city_kana":"トウハクグンホクエイチョウ","town":"松神","town_kana":"マツガミ","prefecture_code":31},"2208":{"zip_code":"6892208","prefecture":"鳥取県","prefecture_kana":"トットリケン","city":"東伯郡北栄町","city_kana":"トウハクグンホクエイチョウ","town":"六尾","town_kana":"ムツオ","prefecture_code":31},"2104":{"zip_code":"6892104","prefecture":"鳥取県","prefecture_kana":"トットリケン","city":"東伯郡北栄町","city_kana":"トウハクグンホクエイチョウ","town":"弓原","town_kana":"ユミハラ","prefecture_code":31},"2221":{"zip_code":"6892221","prefecture":"鳥取県","prefecture_kana":"トットリケン","city":"東伯郡北栄町","city_kana":"トウハクグンホクエイチョウ","town":"由良宿","town_kana":"ユラシュク","prefecture_code":31},"2113":{"zip_code":"6892113","prefecture":"鳥取県","prefecture_kana":"トットリケン","city":"東伯郡北栄町","city_kana":"トウハクグンホクエイチョウ","town":"米里","town_kana":"ヨネサト","prefecture_code":31},"3500":{"zip_code":"6893500","prefecture":"鳥取県","prefecture_kana":"トットリケン","city":"西伯郡日吉津村","city_kana":"サイハクグンヒエヅソン","town":"","town_kana":"","prefecture_code":31},"3551":{"zip_code":"6893551","prefecture":"鳥取県","prefecture_kana":"トットリケン","city":"西伯郡日吉津村","city_kana":"サイハクグンヒエヅソン","town":"今吉","town_kana":"イマヨシ","prefecture_code":31},"3552":{"zip_code":"6893552","prefecture":"鳥取県","prefecture_kana":"トットリケン","city":"西伯郡日吉津村","city_kana":"サイハクグンヒエヅソン","town":"富吉","town_kana":"トミヨシ","prefecture_code":31},"3553":{"zip_code":"6893553","prefecture":"鳥取県","prefecture_kana":"トットリケン","city":"西伯郡日吉津村","city_kana":"サイハクグンヒエヅソン","town":"日吉津","town_kana":"ヒエヅ","prefecture_code":31},"3200":{"zip_code":"6893200","prefecture":"鳥取県","prefecture_kana":"トットリケン","city":"西伯郡大山町","city_kana":"サイハクグンダイセンチョウ","town":"","town_kana":"","prefecture_code":31},"3111":{"zip_code":"6893111","prefecture":"鳥取県","prefecture_kana":"トットリケン","city":"西伯郡大山町","city_kana":"サイハクグンダイセンチョウ","town":"赤坂","town_kana":"アカザカ","prefecture_code":31},"3319":{"zip_code":"6893319","prefecture":"鳥取県","prefecture_kana":"トットリケン","city":"西伯郡大山町","city_kana":"サイハクグンダイセンチョウ","town":"赤松","town_kana":"アカマツ","prefecture_code":31},"3334":{"zip_code":"6893334","prefecture":"鳥取県","prefecture_kana":"トットリケン","city":"西伯郡大山町","city_kana":"サイハクグンダイセンチョウ","town":"稲光","town_kana":"イナミツ","prefecture_code":31},"3314":{"zip_code":"6893314","prefecture":"鳥取県","prefecture_kana":"トットリケン","city":"西伯郡大山町","city_kana":"サイハクグンダイセンチョウ","town":"今在家","town_kana":"イマザイケ","prefecture_code":31},"3102":{"zip_code":"6893102","prefecture":"鳥取県","prefecture_kana":"トットリケン","city":"西伯郡大山町","city_kana":"サイハクグンダイセンチョウ","town":"石井垣","town_kana":"イワイガキ","prefecture_code":31},"3302":{"zip_code":"6893302","prefecture":"鳥取県","prefecture_kana":"トットリケン","city":"西伯郡大山町","city_kana":"サイハクグンダイセンチョウ","town":"上野","town_kana":"ウエノ","prefecture_code":31},"3124":{"zip_code":"6893124","prefecture":"鳥取県","prefecture_kana":"トットリケン","city":"西伯郡大山町","city_kana":"サイハクグンダイセンチョウ","town":"上市","town_kana":"ウワイチ","prefecture_code":31},"3226":{"zip_code":"6893226","prefecture":"鳥取県","prefecture_kana":"トットリケン","city":"西伯郡大山町","city_kana":"サイハクグンダイセンチョウ","town":"大塚","town_kana":"オオツカ","prefecture_code":31},"3121":{"zip_code":"6893121","prefecture":"鳥取県","prefecture_kana":"トットリケン","city":"西伯郡大山町","city_kana":"サイハクグンダイセンチョウ","town":"岡","town_kana":"オカ","prefecture_code":31},"3225":{"zip_code":"6893225","prefecture":"鳥取県","prefecture_kana":"トットリケン","city":"西伯郡大山町","city_kana":"サイハクグンダイセンチョウ","town":"押平","town_kana":"オシナラ","prefecture_code":31},"3214":{"zip_code":"6893214","prefecture":"鳥取県","prefecture_kana":"トットリケン","city":"西伯郡大山町","city_kana":"サイハクグンダイセンチョウ","town":"加茂","town_kana":"カモ","prefecture_code":31},"3305":{"zip_code":"6893305","prefecture":"鳥取県","prefecture_kana":"トットリケン","city":"西伯郡大山町","city_kana":"サイハクグンダイセンチョウ","town":"神原","town_kana":"カンバラ","prefecture_code":31},"3308":{"zip_code":"6893308","prefecture":"鳥取県","prefecture_kana":"トットリケン","city":"西伯郡大山町","city_kana":"サイハクグンダイセンチョウ","town":"清原","town_kana":"キヨハラ","prefecture_code":31},"3309":{"zip_code":"6893309","prefecture":"鳥取県","prefecture_kana":"トットリケン","city":"西伯郡大山町","city_kana":"サイハクグンダイセンチョウ","town":"国信","town_kana":"クニノブ","prefecture_code":31},"3202":{"zip_code":"6893202","prefecture":"鳥取県","prefecture_kana":"トットリケン","city":"西伯郡大山町","city_kana":"サイハクグンダイセンチョウ","town":"倉谷","town_kana":"クラダニ","prefecture_code":31},"3203":{"zip_code":"6893203","prefecture":"鳥取県","prefecture_kana":"トットリケン","city":"西伯郡大山町","city_kana":"サイハクグンダイセンチョウ","town":"小竹","town_kana":"コダケ","prefecture_code":31},"3222":{"zip_code":"6893222","prefecture":"鳥取県","prefecture_kana":"トットリケン","city":"西伯郡大山町","city_kana":"サイハクグンダイセンチョウ","town":"古御堂","town_kana":"コミドウ","prefecture_code":31},"3115":{"zip_code":"6893115","prefecture":"鳥取県","prefecture_kana":"トットリケン","city":"西伯郡大山町","city_kana":"サイハクグンダイセンチョウ","town":"栄田","town_kana":"サカエダ","prefecture_code":31},"3313":{"zip_code":"6893313","prefecture":"鳥取県","prefecture_kana":"トットリケン","city":"西伯郡大山町","city_kana":"サイハクグンダイセンチョウ","town":"佐摩","town_kana":"サマ","prefecture_code":31},"3122":{"zip_code":"6893122","prefecture":"鳥取県","prefecture_kana":"トットリケン","city":"西伯郡大山町","city_kana":"サイハクグンダイセンチョウ","town":"塩津","town_kana":"シオツ","prefecture_code":31},"3125":{"zip_code":"6893125","prefecture":"鳥取県","prefecture_kana":"トットリケン","city":"西伯郡大山町","city_kana":"サイハクグンダイセンチョウ","town":"下市","town_kana":"シモイチ","prefecture_code":31},"3112":{"zip_code":"6893112","prefecture":"鳥取県","prefecture_kana":"トットリケン","city":"西伯郡大山町","city_kana":"サイハクグンダイセンチョウ","town":"下甲","town_kana":"シモギ","prefecture_code":31},"3323":{"zip_code":"6893323","prefecture":"鳥取県","prefecture_kana":"トットリケン","city":"西伯郡大山町","city_kana":"サイハクグンダイセンチョウ","town":"荘田","town_kana":"ショウダ","prefecture_code":31},"3335":{"zip_code":"6893335","prefecture":"鳥取県","prefecture_kana":"トットリケン","city":"西伯郡大山町","city_kana":"サイハクグンダイセンチョウ","town":"上万","town_kana":"ジョウマン","prefecture_code":31},"3332":{"zip_code":"6893332","prefecture":"鳥取県","prefecture_kana":"トットリケン","city":"西伯郡大山町","city_kana":"サイハクグンダイセンチョウ","town":"末長","town_kana":"スエナガ","prefecture_code":31},"3331":{"zip_code":"6893331","prefecture":"鳥取県","prefecture_kana":"トットリケン","city":"西伯郡大山町","city_kana":"サイハクグンダイセンチョウ","town":"末吉","town_kana":"スエヨシ","prefecture_code":31},"3123":{"zip_code":"6893123","prefecture":"鳥取県","prefecture_kana":"トットリケン","city":"西伯郡大山町","city_kana":"サイハクグンダイセンチョウ","town":"住吉","town_kana":"スミヨシ","prefecture_code":31},"3133":{"zip_code":"6893133","prefecture":"鳥取県","prefecture_kana":"トットリケン","city":"西伯郡大山町","city_kana":"サイハクグンダイセンチョウ","town":"退休寺","town_kana":"タイキュウジ","prefecture_code":31},"3318":{"zip_code":"6893318","prefecture":"鳥取県","prefecture_kana":"トットリケン","city":"西伯郡大山町","city_kana":"サイハクグンダイセンチョウ","town":"大山","town_kana":"ダイセン","prefecture_code":31},"3224":{"zip_code":"6893224","prefecture":"鳥取県","prefecture_kana":"トットリケン","city":"西伯郡大山町","city_kana":"サイハクグンダイセンチョウ","town":"高田","town_kana":"タカタ","prefecture_code":31},"3134":{"zip_code":"6893134","prefecture":"鳥取県","prefecture_kana":"トットリケン","city":"西伯郡大山町","city_kana":"サイハクグンダイセンチョウ","town":"高橋","town_kana":"タカハシ","prefecture_code":31},"3317":{"zip_code":"6893317","prefecture":"鳥取県","prefecture_kana":"トットリケン","city":"西伯郡大山町","city_kana":"サイハクグンダイセンチョウ","town":"鈑戸","town_kana":"タタラド","prefecture_code":31},"3114":{"zip_code":"6893114","prefecture":"鳥取県","prefecture_kana":"トットリケン","city":"西伯郡大山町","city_kana":"サイハクグンダイセンチョウ","town":"田中","town_kana":"タナカ","prefecture_code":31},"3223":{"zip_code":"6893223","prefecture":"鳥取県","prefecture_kana":"トットリケン","city":"西伯郡大山町","city_kana":"サイハクグンダイセンチョウ","town":"茶畑","town_kana":"チャバタ","prefecture_code":31},"3101":{"zip_code":"6893101","prefecture":"鳥取県","prefecture_kana":"トットリケン","city":"西伯郡大山町","city_kana":"サイハクグンダイセンチョウ","town":"潮音寺","town_kana":"チョウオンジ","prefecture_code":31},"3105":{"zip_code":"6893105","prefecture":"鳥取県","prefecture_kana":"トットリケン","city":"西伯郡大山町","city_kana":"サイハクグンダイセンチョウ","town":"束積","town_kana":"ツカヅミ","prefecture_code":31},"3333":{"zip_code":"6893333","prefecture":"鳥取県","prefecture_kana":"トットリケン","city":"西伯郡大山町","city_kana":"サイハクグンダイセンチョウ","town":"唐王","town_kana":"トウノウ","prefecture_code":31},"3303":{"zip_code":"6893303","prefecture":"鳥取県","prefecture_kana":"トットリケン","city":"西伯郡大山町","city_kana":"サイハクグンダイセンチョウ","town":"所子","town_kana":"トコロゴ","prefecture_code":31},"3135":{"zip_code":"6893135","prefecture":"鳥取県","prefecture_kana":"トットリケン","city":"西伯郡大山町","city_kana":"サイハクグンダイセンチョウ","town":"殿河内","town_kana":"トノガワチ","prefecture_code":31},"3325":{"zip_code":"6893325","prefecture":"鳥取県","prefecture_kana":"トットリケン","city":"西伯郡大山町","city_kana":"サイハクグンダイセンチョウ","town":"富岡","town_kana":"トミオカ","prefecture_code":31},"3221":{"zip_code":"6893221","prefecture":"鳥取県","prefecture_kana":"トットリケン","city":"西伯郡大山町","city_kana":"サイハクグンダイセンチョウ","town":"富長","town_kana":"トミナガ","prefecture_code":31},"3201":{"zip_code":"6893201","prefecture":"鳥取県","prefecture_kana":"トットリケン","city":"西伯郡大山町","city_kana":"サイハクグンダイセンチョウ","town":"豊成","town_kana":"トヨシゲ","prefecture_code":31},"3316":{"zip_code":"6893316","prefecture":"鳥取県","prefecture_kana":"トットリケン","city":"西伯郡大山町","city_kana":"サイハクグンダイセンチョウ","town":"豊房","town_kana":"トヨフサ","prefecture_code":31},"3322":{"zip_code":"6893322","prefecture":"鳥取県","prefecture_kana":"トットリケン","city":"西伯郡大山町","city_kana":"サイハクグンダイセンチョウ","town":"長田","town_kana":"ナガタ","prefecture_code":31},"3306":{"zip_code":"6893306","prefecture":"鳥取県","prefecture_kana":"トットリケン","city":"西伯郡大山町","city_kana":"サイハクグンダイセンチョウ","town":"中高","town_kana":"ナカダカ","prefecture_code":31},"3136":{"zip_code":"6893136","prefecture":"鳥取県","prefecture_kana":"トットリケン","city":"西伯郡大山町","city_kana":"サイハクグンダイセンチョウ","town":"長野","town_kana":"ナガノ","prefecture_code":31},"3212":{"zip_code":"6893212","prefecture":"鳥取県","prefecture_kana":"トットリケン","city":"西伯郡大山町","city_kana":"サイハクグンダイセンチョウ","town":"名和","town_kana":"ナワ","prefecture_code":31},"3205":{"zip_code":"6893205","prefecture":"鳥取県","prefecture_kana":"トットリケン","city":"西伯郡大山町","city_kana":"サイハクグンダイセンチョウ","town":"西坪","town_kana":"ニシツボ","prefecture_code":31},"3307":{"zip_code":"6893307","prefecture":"鳥取県","prefecture_kana":"トットリケン","city":"西伯郡大山町","city_kana":"サイハクグンダイセンチョウ","town":"野田","town_kana":"ノダ","prefecture_code":31},"3106":{"zip_code":"6893106","prefecture":"鳥取県","prefecture_kana":"トットリケン","city":"西伯郡大山町","city_kana":"サイハクグンダイセンチョウ","town":"羽田井","town_kana":"ハタイ","prefecture_code":31},"3204":{"zip_code":"6893204","prefecture":"鳥取県","prefecture_kana":"トットリケン","city":"西伯郡大山町","city_kana":"サイハクグンダイセンチョウ","town":"東坪","town_kana":"ヒガシツボ","prefecture_code":31},"3103":{"zip_code":"6893103","prefecture":"鳥取県","prefecture_kana":"トットリケン","city":"西伯郡大山町","city_kana":"サイハクグンダイセンチョウ","town":"樋口","town_kana":"ヒノクチ","prefecture_code":31},"3321":{"zip_code":"6893321","prefecture":"鳥取県","prefecture_kana":"トットリケン","city":"西伯郡大山町","city_kana":"サイハクグンダイセンチョウ","town":"平","town_kana":"ヒラ","prefecture_code":31},"3304":{"zip_code":"6893304","prefecture":"鳥取県","prefecture_kana":"トットリケン","city":"西伯郡大山町","city_kana":"サイハクグンダイセンチョウ","town":"平木","town_kana":"ヒラギ","prefecture_code":31},"3336":{"zip_code":"6893336","prefecture":"鳥取県","prefecture_kana":"トットリケン","city":"西伯郡大山町","city_kana":"サイハクグンダイセンチョウ","town":"平田","town_kana":"ヒラダ","prefecture_code":31},"3301":{"zip_code":"6893301","prefecture":"鳥取県","prefecture_kana":"トットリケン","city":"西伯郡大山町","city_kana":"サイハクグンダイセンチョウ","town":"福尾","town_kana":"フクオ","prefecture_code":31},"3312":{"zip_code":"6893312","prefecture":"鳥取県","prefecture_kana":"トットリケン","city":"西伯郡大山町","city_kana":"サイハクグンダイセンチョウ","town":"坊領","town_kana":"ボウリョウ","prefecture_code":31},"3315":{"zip_code":"6893315","prefecture":"鳥取県","prefecture_kana":"トットリケン","city":"西伯郡大山町","city_kana":"サイハクグンダイセンチョウ","town":"前","town_kana":"マエ","prefecture_code":31},"3132":{"zip_code":"6893132","prefecture":"鳥取県","prefecture_kana":"トットリケン","city":"西伯郡大山町","city_kana":"サイハクグンダイセンチョウ","town":"松河原","town_kana":"マツガワラ","prefecture_code":31},"3211":{"zip_code":"6893211","prefecture":"鳥取県","prefecture_kana":"トットリケン","city":"西伯郡大山町","city_kana":"サイハクグンダイセンチョウ","town":"御来屋","town_kana":"ミクリヤ","prefecture_code":31},"3113":{"zip_code":"6893113","prefecture":"鳥取県","prefecture_kana":"トットリケン","city":"西伯郡大山町","city_kana":"サイハクグンダイセンチョウ","town":"御崎","town_kana":"ミサキ","prefecture_code":31},"3311":{"zip_code":"6893311","prefecture":"鳥取県","prefecture_kana":"トットリケン","city":"西伯郡大山町","city_kana":"サイハクグンダイセンチョウ","town":"宮内","town_kana":"ミヤウチ","prefecture_code":31},"3324":{"zip_code":"6893324","prefecture":"鳥取県","prefecture_kana":"トットリケン","city":"西伯郡大山町","city_kana":"サイハクグンダイセンチョウ","town":"妻木","town_kana":"ムキ","prefecture_code":31},"3213":{"zip_code":"6893213","prefecture":"鳥取県","prefecture_kana":"トットリケン","city":"西伯郡大山町","city_kana":"サイハクグンダイセンチョウ","town":"門前","town_kana":"モンゼン","prefecture_code":31},"3104":{"zip_code":"6893104","prefecture":"鳥取県","prefecture_kana":"トットリケン","city":"西伯郡大山町","city_kana":"サイハクグンダイセンチョウ","town":"八重","town_kana":"ヤエ","prefecture_code":31},"3327":{"zip_code":"6893327","prefecture":"鳥取県","prefecture_kana":"トットリケン","city":"西伯郡大山町","city_kana":"サイハクグンダイセンチョウ","town":"保田","town_kana":"ヤスダ","prefecture_code":31},"3326":{"zip_code":"6893326","prefecture":"鳥取県","prefecture_kana":"トットリケン","city":"西伯郡大山町","city_kana":"サイハクグンダイセンチョウ","town":"安原","town_kana":"ヤスハラ","prefecture_code":31},"4100":{"zip_code":"6894100","prefecture":"鳥取県","prefecture_kana":"トットリケン","city":"西伯郡伯耆町","city_kana":"サイハクグンホウキチョウ","town":"","town_kana":"","prefecture_code":31},"4214":{"zip_code":"6894214","prefecture":"鳥取県","prefecture_kana":"トットリケン","city":"西伯郡伯耆町","city_kana":"サイハクグンホウキチョウ","town":"岩立","town_kana":"イワタテ","prefecture_code":31},"4123":{"zip_code":"6894123","prefecture":"鳥取県","prefecture_kana":"トットリケン","city":"西伯郡伯耆町","city_kana":"サイハクグンホウキチョウ","town":"岩屋谷","town_kana":"イワヤダニ","prefecture_code":31},"4212":{"zip_code":"6894212","prefecture":"鳥取県","prefecture_kana":"トットリケン","city":"西伯郡伯耆町","city_kana":"サイハクグンホウキチョウ","town":"上野","town_kana":"ウエノ","prefecture_code":31},"4207":{"zip_code":"6894207","prefecture":"鳥取県","prefecture_kana":"トットリケン","city":"西伯郡伯耆町","city_kana":"サイハクグンホウキチョウ","town":"宇代","town_kana":"ウダイ","prefecture_code":31},"4134":{"zip_code":"6894134","prefecture":"鳥取県","prefecture_kana":"トットリケン","city":"西伯郡伯耆町","city_kana":"サイハクグンホウキチョウ","town":"遠藤","town_kana":"エンドウ","prefecture_code":31},"4215":{"zip_code":"6894215","prefecture":"鳥取県","prefecture_kana":"トットリケン","city":"西伯郡伯耆町","city_kana":"サイハクグンホウキチョウ","town":"大内","town_kana":"オオウチ","prefecture_code":31},"4211":{"zip_code":"6894211","prefecture":"鳥取県","prefecture_kana":"トットリケン","city":"西伯郡伯耆町","city_kana":"サイハクグンホウキチョウ","town":"大江","town_kana":"オオエ","prefecture_code":31},"4205":{"zip_code":"6894205","prefecture":"鳥取県","prefecture_kana":"トットリケン","city":"西伯郡伯耆町","city_kana":"サイハクグンホウキチョウ","town":"大倉","town_kana":"オオクラ","prefecture_code":31},"4226":{"zip_code":"6894226","prefecture":"鳥取県","prefecture_kana":"トットリケン","city":"西伯郡伯耆町","city_kana":"サイハクグンホウキチョウ","town":"大坂","town_kana":"オオサカ","prefecture_code":31},"4222":{"zip_code":"6894222","prefecture":"鳥取県","prefecture_kana":"トットリケン","city":"西伯郡伯耆町","city_kana":"サイハクグンホウキチョウ","town":"大滝","town_kana":"オオタキ","prefecture_code":31},"4121":{"zip_code":"6894121","prefecture":"鳥取県","prefecture_kana":"トットリケン","city":"西伯郡伯耆町","city_kana":"サイハクグンホウキチョウ","town":"大殿","town_kana":"オオトノ","prefecture_code":31},"4102":{"zip_code":"6894102","prefecture":"鳥取県","prefecture_kana":"トットリケン","city":"西伯郡伯耆町","city_kana":"サイハクグンホウキチョウ","town":"大原","town_kana":"オオハラ","prefecture_code":31},"4135":{"zip_code":"6894135","prefecture":"鳥取県","prefecture_kana":"トットリケン","city":"西伯郡伯耆町","city_kana":"サイハクグンホウキチョウ","town":"押口","town_kana":"オサエグチ","prefecture_code":31},"4113":{"zip_code":"6894113","prefecture":"鳥取県","prefecture_kana":"トットリケン","city":"西伯郡伯耆町","city_kana":"サイハクグンホウキチョウ","town":"小野","town_kana":"オノ","prefecture_code":31},"4213":{"zip_code":"6894213","prefecture":"鳥取県","prefecture_kana":"トットリケン","city":"西伯郡伯耆町","city_kana":"サイハクグンホウキチョウ","town":"金屋谷","town_kana":"カナヤダニ","prefecture_code":31},"4112":{"zip_code":"6894112","prefecture":"鳥取県","prefecture_kana":"トットリケン","city":"西伯郡伯耆町","city_kana":"サイハクグンホウキチョウ","town":"上細見","town_kana":"カミホソミ","prefecture_code":31},"4132":{"zip_code":"6894132","prefecture":"鳥取県","prefecture_kana":"トットリケン","city":"西伯郡伯耆町","city_kana":"サイハクグンホウキチョウ","town":"岸本","town_kana":"キシモト","prefecture_code":31},"4203":{"zip_code":"6894203","prefecture":"鳥取県","prefecture_kana":"トットリケン","city":"西伯郡伯耆町","city_kana":"サイハクグンホウキチョウ","town":"貴住","town_kana":"キズミ","prefecture_code":31},"4111":{"zip_code":"6894111","prefecture":"鳥取県","prefecture_kana":"トットリケン","city":"西伯郡伯耆町","city_kana":"サイハクグンホウキチョウ","town":"清原","town_kana":"キヨハラ","prefecture_code":31},"4105":{"zip_code":"6894105","prefecture":"鳥取県","prefecture_kana":"トットリケン","city":"西伯郡伯耆町","city_kana":"サイハクグンホウキチョウ","town":"久古","town_kana":"クゴ","prefecture_code":31},"4106":{"zip_code":"6894106","prefecture":"鳥取県","prefecture_kana":"トットリケン","city":"西伯郡伯耆町","city_kana":"サイハクグンホウキチョウ","town":"口別所","town_kana":"クチベッシヨ","prefecture_code":31},"4101":{"zip_code":"6894101","prefecture":"鳥取県","prefecture_kana":"トットリケン","city":"西伯郡伯耆町","city_kana":"サイハクグンホウキチョウ","town":"小林","town_kana":"コバヤシ","prefecture_code":31},"4115":{"zip_code":"6894115","prefecture":"鳥取県","prefecture_kana":"トットリケン","city":"西伯郡伯耆町","city_kana":"サイハクグンホウキチョウ","town":"小町","town_kana":"コマチ","prefecture_code":31},"4122":{"zip_code":"6894122","prefecture":"鳥取県","prefecture_kana":"トットリケン","city":"西伯郡伯耆町","city_kana":"サイハクグンホウキチョウ","town":"坂長","town_kana":"サカチョウ","prefecture_code":31},"4246":{"zip_code":"6894246","prefecture":"鳥取県","prefecture_kana":"トットリケン","city":"西伯郡伯耆町","city_kana":"サイハクグンホウキチョウ","town":"三部","town_kana":"サンブ","prefecture_code":31},"4243":{"zip_code":"6894243","prefecture":"鳥取県","prefecture_kana":"トットリケン","city":"西伯郡伯耆町","city_kana":"サイハクグンホウキチョウ","town":"荘","town_kana":"ショウ","prefecture_code":31},"4225":{"zip_code":"6894225","prefecture":"鳥取県","prefecture_kana":"トットリケン","city":"西伯郡伯耆町","city_kana":"サイハクグンホウキチョウ","town":"白水","town_kana":"シラミ","prefecture_code":31},"4107":{"zip_code":"6894107","prefecture":"鳥取県","prefecture_kana":"トットリケン","city":"西伯郡伯耆町","city_kana":"サイハクグンホウキチョウ","town":"須村","town_kana":"スムラ","prefecture_code":31},"4217":{"zip_code":"6894217","prefecture":"鳥取県","prefecture_kana":"トットリケン","city":"西伯郡伯耆町","city_kana":"サイハクグンホウキチョウ","town":"添谷","town_kana":"ソエダニ","prefecture_code":31},"4114":{"zip_code":"6894114","prefecture":"鳥取県","prefecture_kana":"トットリケン","city":"西伯郡伯耆町","city_kana":"サイハクグンホウキチョウ","town":"立岩","town_kana":"タテイワ","prefecture_code":31},"4204":{"zip_code":"6894204","prefecture":"鳥取県","prefecture_kana":"トットリケン","city":"西伯郡伯耆町","city_kana":"サイハクグンホウキチョウ","town":"谷川","town_kana":"タニガワ","prefecture_code":31},"4244":{"zip_code":"6894244","prefecture":"鳥取県","prefecture_kana":"トットリケン","city":"西伯郡伯耆町","city_kana":"サイハクグンホウキチョウ","town":"父原","town_kana":"チチバラ","prefecture_code":31},"4223":{"zip_code":"6894223","prefecture":"鳥取県","prefecture_kana":"トットリケン","city":"西伯郡伯耆町","city_kana":"サイハクグンホウキチョウ","town":"栃原","town_kana":"トチバラ","prefecture_code":31},"4221":{"zip_code":"6894221","prefecture":"鳥取県","prefecture_kana":"トットリケン","city":"西伯郡伯耆町","city_kana":"サイハクグンホウキチョウ","town":"富江","town_kana":"トミエ","prefecture_code":31},"4241":{"zip_code":"6894241","prefecture":"鳥取県","prefecture_kana":"トットリケン","city":"西伯郡伯耆町","city_kana":"サイハクグンホウキチョウ","town":"中祖","town_kana":"ナカゾ","prefecture_code":31},"4202":{"zip_code":"6894202","prefecture":"鳥取県","prefecture_kana":"トットリケン","city":"西伯郡伯耆町","city_kana":"サイハクグンホウキチョウ","town":"長山","town_kana":"ナガヤマ","prefecture_code":31},"4233":{"zip_code":"6894233","prefecture":"鳥取県","prefecture_kana":"トットリケン","city":"西伯郡伯耆町","city_kana":"サイハクグンホウキチョウ","town":"二部","town_kana":"ニブ","prefecture_code":31},"4224":{"zip_code":"6894224","prefecture":"鳥取県","prefecture_kana":"トットリケン","city":"西伯郡伯耆町","city_kana":"サイハクグンホウキチョウ","town":"根雨原","town_kana":"ネウバラ","prefecture_code":31},"4234":{"zip_code":"6894234","prefecture":"鳥取県","prefecture_kana":"トットリケン","city":"西伯郡伯耆町","city_kana":"サイハクグンホウキチョウ","town":"畑池","town_kana":"ハタイケ","prefecture_code":31},"4104":{"zip_code":"6894104","prefecture":"鳥取県","prefecture_kana":"トットリケン","city":"西伯郡伯耆町","city_kana":"サイハクグンホウキチョウ","town":"番原","town_kana":"バンバラ","prefecture_code":31},"4237":{"zip_code":"6894237","prefecture":"鳥取県","prefecture_kana":"トットリケン","city":"西伯郡伯耆町","city_kana":"サイハクグンホウキチョウ","town":"福居","town_kana":"フクイ","prefecture_code":31},"4235":{"zip_code":"6894235","prefecture":"鳥取県","prefecture_kana":"トットリケン","city":"西伯郡伯耆町","city_kana":"サイハクグンホウキチョウ","town":"福岡","town_kana":"フクオカ","prefecture_code":31},"4136":{"zip_code":"6894136","prefecture":"鳥取県","prefecture_kana":"トットリケン","city":"西伯郡伯耆町","city_kana":"サイハクグンホウキチョウ","town":"福岡原","town_kana":"フクオカハラ","prefecture_code":31},"4216":{"zip_code":"6894216","prefecture":"鳥取県","prefecture_kana":"トットリケン","city":"西伯郡伯耆町","city_kana":"サイハクグンホウキチョウ","town":"福兼","town_kana":"フクカネ","prefecture_code":31},"4232":{"zip_code":"6894232","prefecture":"鳥取県","prefecture_kana":"トットリケン","city":"西伯郡伯耆町","city_kana":"サイハクグンホウキチョウ","town":"福島","town_kana":"フクジマ","prefecture_code":31},"4245":{"zip_code":"6894245","prefecture":"鳥取県","prefecture_kana":"トットリケン","city":"西伯郡伯耆町","city_kana":"サイハクグンホウキチョウ","town":"福吉","town_kana":"フクヨシ","prefecture_code":31},"4231":{"zip_code":"6894231","prefecture":"鳥取県","prefecture_kana":"トットリケン","city":"西伯郡伯耆町","city_kana":"サイハクグンホウキチョウ","town":"船越","town_kana":"フナコシ","prefecture_code":31},"4242":{"zip_code":"6894242","prefecture":"鳥取県","prefecture_kana":"トットリケン","city":"西伯郡伯耆町","city_kana":"サイハクグンホウキチョウ","town":"古市","town_kana":"フルイチ","prefecture_code":31},"4103":{"zip_code":"6894103","prefecture":"鳥取県","prefecture_kana":"トットリケン","city":"西伯郡伯耆町","city_kana":"サイハクグンホウキチョウ","town":"真野","town_kana":"マノ","prefecture_code":31},"4108":{"zip_code":"6894108","prefecture":"鳥取県","prefecture_kana":"トットリケン","city":"西伯郡伯耆町","city_kana":"サイハクグンホウキチョウ","town":"丸山","town_kana":"マルヤマ","prefecture_code":31},"4201":{"zip_code":"6894201","prefecture":"鳥取県","prefecture_kana":"トットリケン","city":"西伯郡伯耆町","city_kana":"サイハクグンホウキチョウ","town":"溝口","town_kana":"ミゾクチ","prefecture_code":31},"4206":{"zip_code":"6894206","prefecture":"鳥取県","prefecture_kana":"トットリケン","city":"西伯郡伯耆町","city_kana":"サイハクグンホウキチョウ","town":"宮原","town_kana":"ミヤバラ","prefecture_code":31},"4236":{"zip_code":"6894236","prefecture":"鳥取県","prefecture_kana":"トットリケン","city":"西伯郡伯耆町","city_kana":"サイハクグンホウキチョウ","town":"焼杉","town_kana":"ヤケスギ","prefecture_code":31},"4131":{"zip_code":"6894131","prefecture":"鳥取県","prefecture_kana":"トットリケン","city":"西伯郡伯耆町","city_kana":"サイハクグンホウキチョウ","town":"吉定","town_kana":"ヨシサダ","prefecture_code":31},"4133":{"zip_code":"6894133","prefecture":"鳥取県","prefecture_kana":"トットリケン","city":"西伯郡伯耆町","city_kana":"サイハクグンホウキチョウ","town":"吉長","town_kana":"ヨシナガ","prefecture_code":31},"5200":{"zip_code":"6895200","prefecture":"鳥取県","prefecture_kana":"トットリケン","city":"日野郡日南町","city_kana":"ヒノグンニチナンチョウ","town":"","town_kana":"","prefecture_code":31},"5551":{"zip_code":"6895551","prefecture":"鳥取県","prefecture_kana":"トットリケン","city":"日野郡日南町","city_kana":"ヒノグンニチナンチョウ","town":"阿毘縁","town_kana":"アビレ","prefecture_code":31},"5531":{"zip_code":"6895531","prefecture":"鳥取県","prefecture_kana":"トットリケン","city":"日野郡日南町","city_kana":"ヒノグンニチナンチョウ","town":"印賀","town_kana":"インガ","prefecture_code":31},"5534":{"zip_code":"6895534","prefecture":"鳥取県","prefecture_kana":"トットリケン","city":"日野郡日南町","city_kana":"ヒノグンニチナンチョウ","town":"折渡","town_kana":"オリワタリ","prefecture_code":31},"5543":{"zip_code":"6895543","prefecture":"鳥取県","prefecture_kana":"トットリケン","city":"日野郡日南町","city_kana":"ヒノグンニチナンチョウ","town":"笠木","town_kana":"カサギ","prefecture_code":31},"5212":{"zip_code":"6895212","prefecture":"鳥取県","prefecture_kana":"トットリケン","city":"日野郡日南町","city_kana":"ヒノグンニチナンチョウ","town":"霞","town_kana":"カスミ","prefecture_code":31},"5662":{"zip_code":"6895662","prefecture":"鳥取県","prefecture_kana":"トットリケン","city":"日野郡日南町","city_kana":"ヒノグンニチナンチョウ","town":"神戸上","town_kana":"カドノカミ","prefecture_code":31},"5663":{"zip_code":"6895663","prefecture":"鳥取県","prefecture_kana":"トットリケン","city":"日野郡日南町","city_kana":"ヒノグンニチナンチョウ","town":"上石見","town_kana":"カミイワミ","prefecture_code":31},"5223":{"zip_code":"6895223","prefecture":"鳥取県","prefecture_kana":"トットリケン","city":"日野郡日南町","city_kana":"ヒノグンニチナンチョウ","town":"上萩山","town_kana":"カミハギヤマ","prefecture_code":31},"5672":{"zip_code":"6895672","prefecture":"鳥取県","prefecture_kana":"トットリケン","city":"日野郡日南町","city_kana":"ヒノグンニチナンチョウ","town":"神福","town_kana":"カミフク","prefecture_code":31},"5221":{"zip_code":"6895221","prefecture":"鳥取県","prefecture_kana":"トットリケン","city":"日野郡日南町","city_kana":"ヒノグンニチナンチョウ","town":"河上","town_kana":"カワカミ","prefecture_code":31},"5541":{"zip_code":"6895541","prefecture":"鳥取県","prefecture_kana":"トットリケン","city":"日野郡日南町","city_kana":"ヒノグンニチナンチョウ","town":"佐木谷","town_kana":"サギダニ","prefecture_code":31},"5552":{"zip_code":"6895552","prefecture":"鳥取県","prefecture_kana":"トットリケン","city":"日野郡日南町","city_kana":"ヒノグンニチナンチョウ","town":"下阿毘縁","town_kana":"シモアビレ","prefecture_code":31},"5665":{"zip_code":"6895665","prefecture":"鳥取県","prefecture_kana":"トットリケン","city":"日野郡日南町","city_kana":"ヒノグンニチナンチョウ","town":"下石見","town_kana":"シモイワミ","prefecture_code":31},"5211":{"zip_code":"6895211","prefecture":"鳥取県","prefecture_kana":"トットリケン","city":"日野郡日南町","city_kana":"ヒノグンニチナンチョウ","town":"生山","town_kana":"ショウヤマ","prefecture_code":31},"5532":{"zip_code":"6895532","prefecture":"鳥取県","prefecture_kana":"トットリケン","city":"日野郡日南町","city_kana":"ヒノグンニチナンチョウ","town":"菅沢","town_kana":"スゲザワ","prefecture_code":31},"5533":{"zip_code":"6895533","prefecture":"鳥取県","prefecture_kana":"トットリケン","city":"日野郡日南町","city_kana":"ヒノグンニチナンチョウ","town":"宝谷","town_kana":"タカラダニ","prefecture_code":31},"5224":{"zip_code":"6895224","prefecture":"鳥取県","prefecture_kana":"トットリケン","city":"日野郡日南町","city_kana":"ヒノグンニチナンチョウ","town":"多里","town_kana":"タリ","prefecture_code":31},"5544":{"zip_code":"6895544","prefecture":"鳥取県","prefecture_kana":"トットリケン","city":"日野郡日南町","city_kana":"ヒノグンニチナンチョウ","town":"茶屋","town_kana":"チャヤ","prefecture_code":31},"5673":{"zip_code":"6895673","prefecture":"鳥取県","prefecture_kana":"トットリケン","city":"日野郡日南町","city_kana":"ヒノグンニチナンチョウ","town":"豊栄","town_kana":"トヨサカエ","prefecture_code":31},"5664":{"zip_code":"6895664","prefecture":"鳥取県","prefecture_kana":"トットリケン","city":"日野郡日南町","city_kana":"ヒノグンニチナンチョウ","town":"中石見","town_kana":"ナカイワミ","prefecture_code":31},"5225":{"zip_code":"6895225","prefecture":"鳥取県","prefecture_kana":"トットリケン","city":"日野郡日南町","city_kana":"ヒノグンニチナンチョウ","town":"新屋","town_kana":"ニイヤ","prefecture_code":31},"5222":{"zip_code":"6895222","prefecture":"鳥取県","prefecture_kana":"トットリケン","city":"日野郡日南町","city_kana":"ヒノグンニチナンチョウ","town":"萩原","town_kana":"ハギハラ","prefecture_code":31},"5661":{"zip_code":"6895661","prefecture":"鳥取県","prefecture_kana":"トットリケン","city":"日野郡日南町","city_kana":"ヒノグンニチナンチョウ","town":"花口","town_kana":"ハナグチ","prefecture_code":31},"5545":{"zip_code":"6895545","prefecture":"鳥取県","prefecture_kana":"トットリケン","city":"日野郡日南町","city_kana":"ヒノグンニチナンチョウ","town":"福寿実","town_kana":"フクスミ","prefecture_code":31},"5671":{"zip_code":"6895671","prefecture":"鳥取県","prefecture_kana":"トットリケン","city":"日野郡日南町","city_kana":"ヒノグンニチナンチョウ","town":"福塚","town_kana":"フクヅカ","prefecture_code":31},"5542":{"zip_code":"6895542","prefecture":"鳥取県","prefecture_kana":"トットリケン","city":"日野郡日南町","city_kana":"ヒノグンニチナンチョウ","town":"福万来","town_kana":"フクマキ","prefecture_code":31},"5213":{"zip_code":"6895213","prefecture":"鳥取県","prefecture_kana":"トットリケン","city":"日野郡日南町","city_kana":"ヒノグンニチナンチョウ","town":"丸山","town_kana":"マルヤマ","prefecture_code":31},"5214":{"zip_code":"6895214","prefecture":"鳥取県","prefecture_kana":"トットリケン","city":"日野郡日南町","city_kana":"ヒノグンニチナンチョウ","town":"三栄","town_kana":"ミサカエ","prefecture_code":31},"5216":{"zip_code":"6895216","prefecture":"鳥取県","prefecture_kana":"トットリケン","city":"日野郡日南町","city_kana":"ヒノグンニチナンチョウ","town":"宮内","town_kana":"ミヤウチ","prefecture_code":31},"5666":{"zip_code":"6895666","prefecture":"鳥取県","prefecture_kana":"トットリケン","city":"日野郡日南町","city_kana":"ヒノグンニチナンチョウ","town":"三吉","town_kana":"ミヨシ","prefecture_code":31},"5215":{"zip_code":"6895215","prefecture":"鳥取県","prefecture_kana":"トットリケン","city":"日野郡日南町","city_kana":"ヒノグンニチナンチョウ","town":"矢戸","town_kana":"ヤト","prefecture_code":31},"5226":{"zip_code":"6895226","prefecture":"鳥取県","prefecture_kana":"トットリケン","city":"日野郡日南町","city_kana":"ヒノグンニチナンチョウ","town":"湯河","town_kana":"ユカワ","prefecture_code":31},"4500":{"zip_code":"6894500","prefecture":"鳥取県","prefecture_kana":"トットリケン","city":"日野郡日野町","city_kana":"ヒノグンヒノチョウ","town":"","town_kana":"","prefecture_code":31},"4515":{"zip_code":"6894515","prefecture":"鳥取県","prefecture_kana":"トットリケン","city":"日野郡日野町","city_kana":"ヒノグンヒノチョウ","town":"秋縄","town_kana":"アキツナ","prefecture_code":31},"4513":{"zip_code":"6894513","prefecture":"鳥取県","prefecture_kana":"トットリケン","city":"日野郡日野町","city_kana":"ヒノグンヒノチョウ","town":"板井原","town_kana":"イタイバラ","prefecture_code":31},"4523":{"zip_code":"6894523","prefecture":"鳥取県","prefecture_kana":"トットリケン","city":"日野郡日野町","city_kana":"ヒノグンヒノチョウ","town":"榎市","town_kana":"エノキイチ","prefecture_code":31},"5136":{"zip_code":"6895136","prefecture":"鳥取県","prefecture_kana":"トットリケン","city":"日野郡日野町","city_kana":"ヒノグンヒノチョウ","town":"小河内","town_kana":"オゴウジ","prefecture_code":31},"4501":{"zip_code":"6894501","prefecture":"鳥取県","prefecture_kana":"トットリケン","city":"日野郡日野町","city_kana":"ヒノグンヒノチョウ","town":"貝原","town_kana":"カイハラ","prefecture_code":31},"4516":{"zip_code":"6894516","prefecture":"鳥取県","prefecture_kana":"トットリケン","city":"日野郡日野町","city_kana":"ヒノグンヒノチョウ","town":"門谷","town_kana":"カドタニ","prefecture_code":31},"5137":[{"zip_code":"6895137","prefecture":"鳥取県","prefecture_kana":"トットリケン","city":"日野郡日野町","city_kana":"ヒノグンヒノチョウ","town":"上菅","town_kana":"カミスゲ","prefecture_code":31},{"zip_code":"6895137","prefecture":"鳥取県","prefecture_kana":"トットリケン","city":"日野郡日野町","city_kana":"ヒノグンヒノチョウ","town":"福長","town_kana":"フクナガ","prefecture_code":31}],"4512":{"zip_code":"6894512","prefecture":"鳥取県","prefecture_kana":"トットリケン","city":"日野郡日野町","city_kana":"ヒノグンヒノチョウ","town":"金持","town_kana":"カモチ","prefecture_code":31},"5132":{"zip_code":"6895132","prefecture":"鳥取県","prefecture_kana":"トットリケン","city":"日野郡日野町","city_kana":"ヒノグンヒノチョウ","town":"久住","town_kana":"クスミ","prefecture_code":31},"5131":{"zip_code":"6895131","prefecture":"鳥取県","prefecture_kana":"トットリケン","city":"日野郡日野町","city_kana":"ヒノグンヒノチョウ","town":"黒坂","town_kana":"クロサカ","prefecture_code":31},"4511":{"zip_code":"6894511","prefecture":"鳥取県","prefecture_kana":"トットリケン","city":"日野郡日野町","city_kana":"ヒノグンヒノチョウ","town":"高尾","town_kana":"コオ","prefecture_code":31},"4525":{"zip_code":"6894525","prefecture":"鳥取県","prefecture_kana":"トットリケン","city":"日野郡日野町","city_kana":"ヒノグンヒノチョウ","town":"小原","town_kana":"コバラ","prefecture_code":31},"4526":{"zip_code":"6894526","prefecture":"鳥取県","prefecture_kana":"トットリケン","city":"日野郡日野町","city_kana":"ヒノグンヒノチョウ","town":"下榎","town_kana":"シモエノキ","prefecture_code":31},"5133":{"zip_code":"6895133","prefecture":"鳥取県","prefecture_kana":"トットリケン","city":"日野郡日野町","city_kana":"ヒノグンヒノチョウ","town":"下黒坂","town_kana":"シモグロサカ","prefecture_code":31},"5134":{"zip_code":"6895134","prefecture":"鳥取県","prefecture_kana":"トットリケン","city":"日野郡日野町","city_kana":"ヒノグンヒノチョウ","town":"下菅","town_kana":"シモスゲ","prefecture_code":31},"4521":{"zip_code":"6894521","prefecture":"鳥取県","prefecture_kana":"トットリケン","city":"日野郡日野町","city_kana":"ヒノグンヒノチョウ","town":"津地","town_kana":"ツチ","prefecture_code":31},"5135":{"zip_code":"6895135","prefecture":"鳥取県","prefecture_kana":"トットリケン","city":"日野郡日野町","city_kana":"ヒノグンヒノチョウ","town":"中菅","town_kana":"ナカスゲ","prefecture_code":31},"4517":{"zip_code":"6894517","prefecture":"鳥取県","prefecture_kana":"トットリケン","city":"日野郡日野町","city_kana":"ヒノグンヒノチョウ","town":"濁谷","town_kana":"ニゴタニ","prefecture_code":31},"4503":{"zip_code":"6894503","prefecture":"鳥取県","prefecture_kana":"トットリケン","city":"日野郡日野町","city_kana":"ヒノグンヒノチョウ","town":"根雨","town_kana":"ネウ","prefecture_code":31},"4504":{"zip_code":"6894504","prefecture":"鳥取県","prefecture_kana":"トットリケン","city":"日野郡日野町","city_kana":"ヒノグンヒノチョウ","town":"野田","town_kana":"ノタ","prefecture_code":31},"4505":{"zip_code":"6894505","prefecture":"鳥取県","prefecture_kana":"トットリケン","city":"日野郡日野町","city_kana":"ヒノグンヒノチョウ","town":"舟場","town_kana":"フナバ","prefecture_code":31},"4524":{"zip_code":"6894524","prefecture":"鳥取県","prefecture_kana":"トットリケン","city":"日野郡日野町","city_kana":"ヒノグンヒノチョウ","town":"別所","town_kana":"ベッショ","prefecture_code":31},"4522":{"zip_code":"6894522","prefecture":"鳥取県","prefecture_kana":"トットリケン","city":"日野郡日野町","city_kana":"ヒノグンヒノチョウ","town":"本郷","town_kana":"ホンゴウ","prefecture_code":31},"4502":{"zip_code":"6894502","prefecture":"鳥取県","prefecture_kana":"トットリケン","city":"日野郡日野町","city_kana":"ヒノグンヒノチョウ","town":"三谷","town_kana":"ミタニ","prefecture_code":31},"4514":{"zip_code":"6894514","prefecture":"鳥取県","prefecture_kana":"トットリケン","city":"日野郡日野町","city_kana":"ヒノグンヒノチョウ","town":"三土","town_kana":"ミツチ","prefecture_code":31},"4527":{"zip_code":"6894527","prefecture":"鳥取県","prefecture_kana":"トットリケン","city":"日野郡日野町","city_kana":"ヒノグンヒノチョウ","town":"安原","town_kana":"ヤスハラ","prefecture_code":31},"4400":{"zip_code":"6894400","prefecture":"鳥取県","prefecture_kana":"トットリケン","city":"日野郡江府町","city_kana":"ヒノグンコウフチョウ","town":"","town_kana":"","prefecture_code":31},"4401":{"zip_code":"6894401","prefecture":"鳥取県","prefecture_kana":"トットリケン","city":"日野郡江府町","city_kana":"ヒノグンコウフチョウ","town":"江尾","town_kana":"エビ","prefecture_code":31},"4434":{"zip_code":"6894434","prefecture":"鳥取県","prefecture_kana":"トットリケン","city":"日野郡江府町","city_kana":"ヒノグンコウフチョウ","town":"大河原","town_kana":"オオカワラ","prefecture_code":31},"4435":{"zip_code":"6894435","prefecture":"鳥取県","prefecture_kana":"トットリケン","city":"日野郡江府町","city_kana":"ヒノグンコウフチョウ","town":"貝田","town_kana":"カイダ","prefecture_code":31},"4432":{"zip_code":"6894432","prefecture":"鳥取県","prefecture_kana":"トットリケン","city":"日野郡江府町","city_kana":"ヒノグンコウフチョウ","town":"柿原","town_kana":"カキバラ","prefecture_code":31},"4403":{"zip_code":"6894403","prefecture":"鳥取県","prefecture_kana":"トットリケン","city":"日野郡江府町","city_kana":"ヒノグンコウフチョウ","town":"久連","town_kana":"クレ","prefecture_code":31},"4402":{"zip_code":"6894402","prefecture":"鳥取県","prefecture_kana":"トットリケン","city":"日野郡江府町","city_kana":"ヒノグンコウフチョウ","town":"小江尾","town_kana":"コエビ","prefecture_code":31},"4425":{"zip_code":"6894425","prefecture":"鳥取県","prefecture_kana":"トットリケン","city":"日野郡江府町","city_kana":"ヒノグンコウフチョウ","town":"下蚊屋","town_kana":"サガリカヤ","prefecture_code":31},"4431":{"zip_code":"6894431","prefecture":"鳥取県","prefecture_kana":"トットリケン","city":"日野郡江府町","city_kana":"ヒノグンコウフチョウ","town":"佐川","town_kana":"サガワ","prefecture_code":31},"4412":{"zip_code":"6894412","prefecture":"鳥取県","prefecture_kana":"トットリケン","city":"日野郡江府町","city_kana":"ヒノグンコウフチョウ","town":"下安井","town_kana":"シモヤスイ","prefecture_code":31},"4413":{"zip_code":"6894413","prefecture":"鳥取県","prefecture_kana":"トットリケン","city":"日野郡江府町","city_kana":"ヒノグンコウフチョウ","town":"洲河崎","town_kana":"スガサキ","prefecture_code":31},"4422":{"zip_code":"6894422","prefecture":"鳥取県","prefecture_kana":"トットリケン","city":"日野郡江府町","city_kana":"ヒノグンコウフチョウ","town":"杉谷","town_kana":"スギタニ","prefecture_code":31},"4426":{"zip_code":"6894426","prefecture":"鳥取県","prefecture_kana":"トットリケン","city":"日野郡江府町","city_kana":"ヒノグンコウフチョウ","town":"助沢","town_kana":"スケサワ","prefecture_code":31},"4414":{"zip_code":"6894414","prefecture":"鳥取県","prefecture_kana":"トットリケン","city":"日野郡江府町","city_kana":"ヒノグンコウフチョウ","town":"俣野","town_kana":"マタノ","prefecture_code":31},"4424":{"zip_code":"6894424","prefecture":"鳥取県","prefecture_kana":"トットリケン","city":"日野郡江府町","city_kana":"ヒノグンコウフチョウ","town":"御机","town_kana":"ミツクエ","prefecture_code":31},"4421":{"zip_code":"6894421","prefecture":"鳥取県","prefecture_kana":"トットリケン","city":"日野郡江府町","city_kana":"ヒノグンコウフチョウ","town":"宮市","town_kana":"ミヤイチ","prefecture_code":31},"4423":{"zip_code":"6894423","prefecture":"鳥取県","prefecture_kana":"トットリケン","city":"日野郡江府町","city_kana":"ヒノグンコウフチョウ","town":"美用","town_kana":"ミヨウ","prefecture_code":31},"4411":{"zip_code":"6894411","prefecture":"鳥取県","prefecture_kana":"トットリケン","city":"日野郡江府町","city_kana":"ヒノグンコウフチョウ","town":"武庫","town_kana":"ムコ","prefecture_code":31},"4433":{"zip_code":"6894433","prefecture":"鳥取県","prefecture_kana":"トットリケン","city":"日野郡江府町","city_kana":"ヒノグンコウフチョウ","town":"吉原","town_kana":"ヨシハラ","prefecture_code":31}}