{"0000":{"zip_code":"6900000","prefecture":"島根県","prefecture_kana":"シマネケン","city":"松江市","city_kana":"マツエシ","town":"","town_kana":"","prefecture_code":32},"0261":{"zip_code":"6900261","prefecture":"島根県","prefecture_kana":"シマネケン","city":"松江市","city_kana":"マツエシ","town":"秋鹿町","town_kana":"アイカチョウ","prefecture_code":32},"0022":{"zip_code":"6900022","prefecture":"島根県","prefecture_kana":"シマネケン","city":"松江市","city_kana":"マツエシ","town":"青葉台","town_kana":"アオバダイ","prefecture_code":32},"0015":{"zip_code":"6900015","prefecture":"島根県","prefecture_kana":"シマネケン","city":"松江市","city_kana":"マツエシ","town":"上乃木","town_kana":"アゲノギ","prefecture_code":32},"0834":{"zip_code":"6900834","prefecture":"島根県","prefecture_kana":"シマネケン","city":"松江市","city_kana":"マツエシ","town":"朝酌町","town_kana":"アサクミチョウ","prefecture_code":32},"0003":{"zip_code":"6900003","prefecture":"島根県","prefecture_kana":"シマネケン","city":"松江市","city_kana":"マツエシ","town":"朝日町","town_kana":"アサヒマチ","prefecture_code":32},"0027":{"zip_code":"6900027","prefecture":"島根県","prefecture_kana":"シマネケン","city":"松江市","city_kana":"マツエシ","town":"意宇町","town_kana":"イウチョウ","prefecture_code":32},"0881":{"zip_code":"6900881","prefecture":"島根県","prefecture_kana":"シマネケン","city":"松江市","city_kana":"マツエシ","town":"石橋町","town_kana":"イシバシチョウ","prefecture_code":32},"0006":{"zip_code":"6900006","prefecture":"島根県","prefecture_kana":"シマネケン","city":"松江市","city_kana":"マツエシ","town":"伊勢宮町","town_kana":"イセミヤチョウ","prefecture_code":32},"0034":{"zip_code":"6900034","prefecture":"島根県","prefecture_kana":"シマネケン","city":"松江市","city_kana":"マツエシ","town":"一の谷町","town_kana":"イチノタニチョウ","prefecture_code":32},"0062":{"zip_code":"6900062","prefecture":"島根県","prefecture_kana":"シマネケン","city":"松江市","city_kana":"マツエシ","town":"魚町","town_kana":"ウオマチ","prefecture_code":32},"0869":{"zip_code":"6900869","prefecture":"島根県","prefecture_kana":"シマネケン","city":"松江市","city_kana":"マツエシ","town":"うぐいす台","town_kana":"ウグイスダイ","prefecture_code":32},"0131":{"zip_code":"6900131","prefecture":"島根県","prefecture_kana":"シマネケン","city":"松江市","city_kana":"マツエシ","town":"打出町","town_kana":"ウチデチョウ","prefecture_code":32},"0873":{"zip_code":"6900873","prefecture":"島根県","prefecture_kana":"シマネケン","city":"松江市","city_kana":"マツエシ","town":"内中原町","town_kana":"ウチナカバラチョウ","prefecture_code":32},"1115":{"zip_code":"6901115","prefecture":"島根県","prefecture_kana":"シマネケン","city":"松江市","city_kana":"マツエシ","town":"邑生町","town_kana":"オウチョウ","prefecture_code":32},"0832":{"zip_code":"6900832","prefecture":"島根県","prefecture_kana":"シマネケン","city":"松江市","city_kana":"マツエシ","town":"大井町","town_kana":"オオイチョウ","prefecture_code":32},"0263":{"zip_code":"6900263","prefecture":"島根県","prefecture_kana":"シマネケン","city":"松江市","city_kana":"マツエシ","town":"大垣町","town_kana":"オオガキチョウ","prefecture_code":32},"0032":{"zip_code":"6900032","prefecture":"島根県","prefecture_kana":"シマネケン","city":"松江市","city_kana":"マツエシ","town":"大草町","town_kana":"オオクサチョウ","prefecture_code":32},"0264":{"zip_code":"6900264","prefecture":"島根県","prefecture_kana":"シマネケン","city":"松江市","city_kana":"マツエシ","town":"大野町","town_kana":"オオノチョウ","prefecture_code":32},"0033":{"zip_code":"6900033","prefecture":"島根県","prefecture_kana":"シマネケン","city":"松江市","city_kana":"マツエシ","town":"大庭町","town_kana":"オオバチョウ","prefecture_code":32},"0831":{"zip_code":"6900831","prefecture":"島根県","prefecture_kana":"シマネケン","city":"松江市","city_kana":"マツエシ","town":"大海崎町","town_kana":"オオミサキチョウ","prefecture_code":32},"0262":{"zip_code":"6900262","prefecture":"島根県","prefecture_kana":"シマネケン","city":"松江市","city_kana":"マツエシ","town":"岡本町","town_kana":"オカモトチョウ","prefecture_code":32},"0872":{"zip_code":"6900872","prefecture":"島根県","prefecture_kana":"シマネケン","city":"松江市","city_kana":"マツエシ","town":"奥谷町","town_kana":"オクダニチョウ","prefecture_code":32},"0007":{"zip_code":"6900007","prefecture":"島根県","prefecture_kana":"シマネケン","city":"松江市","city_kana":"マツエシ","town":"御手船場町","town_kana":"オテセンバチョウ","prefecture_code":32},"0266":{"zip_code":"6900266","prefecture":"島根県","prefecture_kana":"シマネケン","city":"松江市","city_kana":"マツエシ","town":"魚瀬町","town_kana":"オノゼチョウ","prefecture_code":32},"0848":{"zip_code":"6900848","prefecture":"島根県","prefecture_kana":"シマネケン","city":"松江市","city_kana":"マツエシ","town":"苧町","town_kana":"オマチ","prefecture_code":32},"0825":{"zip_code":"6900825","prefecture":"島根県","prefecture_kana":"シマネケン","city":"松江市","city_kana":"マツエシ","town":"学園","town_kana":"ガクエン","prefecture_code":32},"0826":{"zip_code":"6900826","prefecture":"島根県","prefecture_kana":"シマネケン","city":"松江市","city_kana":"マツエシ","town":"学園南","town_kana":"ガクエンミナミ","prefecture_code":32},"0322":{"zip_code":"6900322","prefecture":"島根県","prefecture_kana":"シマネケン","city":"松江市","city_kana":"マツエシ","town":"鹿島町恵曇","town_kana":"カシマチョウエトモ","prefecture_code":32},"0324":{"zip_code":"6900324","prefecture":"島根県","prefecture_kana":"シマネケン","city":"松江市","city_kana":"マツエシ","town":"鹿島町片句","town_kana":"カシマチョウカタク","prefecture_code":32},"0801":{"zip_code":"6900801","prefecture":"島根県","prefecture_kana":"シマネケン","city":"松江市","city_kana":"マツエシ","town":"鹿島町上講武","town_kana":"カシマチョウカミコウブ","prefecture_code":32},"0804":{"zip_code":"6900804","prefecture":"島根県","prefecture_kana":"シマネケン","city":"松江市","city_kana":"マツエシ","town":"鹿島町北講武","town_kana":"カシマチョウキタコウブ","prefecture_code":32},"0333":{"zip_code":"6900333","prefecture":"島根県","prefecture_kana":"シマネケン","city":"松江市","city_kana":"マツエシ","town":"鹿島町古浦","town_kana":"カシマチョウコウラ","prefecture_code":32},"0332":{"zip_code":"6900332","prefecture":"島根県","prefecture_kana":"シマネケン","city":"松江市","city_kana":"マツエシ","town":"鹿島町佐陀本郷","town_kana":"カシマチョウサダホンゴウ","prefecture_code":32},"0331":{"zip_code":"6900331","prefecture":"島根県","prefecture_kana":"シマネケン","city":"松江市","city_kana":"マツエシ","town":"鹿島町佐陀宮内","town_kana":"カシマチョウサダミヤウチ","prefecture_code":32},"0321":{"zip_code":"6900321","prefecture":"島根県","prefecture_kana":"シマネケン","city":"松江市","city_kana":"マツエシ","town":"鹿島町武代","town_kana":"カシマチョウタケダイ","prefecture_code":32},"0323":{"zip_code":"6900323","prefecture":"島根県","prefecture_kana":"シマネケン","city":"松江市","city_kana":"マツエシ","town":"鹿島町手結","town_kana":"カシマチョウタユ","prefecture_code":32},"0411":{"zip_code":"6900411","prefecture":"島根県","prefecture_kana":"シマネケン","city":"松江市","city_kana":"マツエシ","town":"鹿島町御津","town_kana":"カシマチョウミツ","prefecture_code":32},"0802":{"zip_code":"6900802","prefecture":"島根県","prefecture_kana":"シマネケン","city":"松江市","city_kana":"マツエシ","town":"鹿島町南講武","town_kana":"カシマチョウミナミコウブ","prefecture_code":32},"0803":{"zip_code":"6900803","prefecture":"島根県","prefecture_kana":"シマネケン","city":"松江市","city_kana":"マツエシ","town":"鹿島町名分","town_kana":"カシマチョウミョウブン","prefecture_code":32},"0877":{"zip_code":"6900877","prefecture":"島根県","prefecture_kana":"シマネケン","city":"松江市","city_kana":"マツエシ","town":"春日町","town_kana":"カスガチョウ","prefecture_code":32},"0847":{"zip_code":"6900847","prefecture":"島根県","prefecture_kana":"シマネケン","city":"松江市","city_kana":"マツエシ","town":"片原町","town_kana":"カタハラチョウ","prefecture_code":32},"1104":{"zip_code":"6901104","prefecture":"島根県","prefecture_kana":"シマネケン","city":"松江市","city_kana":"マツエシ","town":"上宇部尾町","town_kana":"カミウベオチョウ","prefecture_code":32},"0265":{"zip_code":"6900265","prefecture":"島根県","prefecture_kana":"シマネケン","city":"松江市","city_kana":"マツエシ","town":"上大野町","town_kana":"カミオオノチョウ","prefecture_code":32},"0867":{"zip_code":"6900867","prefecture":"島根県","prefecture_kana":"シマネケン","city":"松江市","city_kana":"マツエシ","town":"上佐陀町","town_kana":"カミサダチョウ","prefecture_code":32},"0821":{"zip_code":"6900821","prefecture":"島根県","prefecture_kana":"シマネケン","city":"松江市","city_kana":"マツエシ","town":"上東川津町","town_kana":"カミヒガシカワツチョウ","prefecture_code":32},"1102":{"zip_code":"6901102","prefecture":"島根県","prefecture_kana":"シマネケン","city":"松江市","city_kana":"マツエシ","town":"上本庄町","town_kana":"カミホンジョウチョウ","prefecture_code":32},"0812":{"zip_code":"6900812","prefecture":"島根県","prefecture_kana":"シマネケン","city":"松江市","city_kana":"マツエシ","town":"川原町","town_kana":"カワハラチョウ","prefecture_code":32},"0883":{"zip_code":"6900883","prefecture":"島根県","prefecture_kana":"シマネケン","city":"松江市","city_kana":"マツエシ","town":"北田町","town_kana":"キタタマチ","prefecture_code":32},"0888":{"zip_code":"6900888","prefecture":"島根県","prefecture_kana":"シマネケン","city":"松江市","city_kana":"マツエシ","town":"北堀町","town_kana":"キタホリチョウ","prefecture_code":32},"0859":{"zip_code":"6900859","prefecture":"島根県","prefecture_kana":"シマネケン","city":"松江市","city_kana":"マツエシ","town":"国屋町","town_kana":"クヤチョウ","prefecture_code":32},"0876":{"zip_code":"6900876","prefecture":"島根県","prefecture_kana":"シマネケン","city":"松江市","city_kana":"マツエシ","town":"黒田町","town_kana":"クロダチョウ","prefecture_code":32},"0121":{"zip_code":"6900121","prefecture":"島根県","prefecture_kana":"シマネケン","city":"松江市","city_kana":"マツエシ","town":"古志町","town_kana":"コシチョウ","prefecture_code":32},"0012":{"zip_code":"6900012","prefecture":"島根県","prefecture_kana":"シマネケン","city":"松江市","city_kana":"マツエシ","town":"古志原","town_kana":"コシバラ","prefecture_code":32},"0013":{"zip_code":"6900013","prefecture":"島根県","prefecture_kana":"シマネケン","city":"松江市","city_kana":"マツエシ","town":"古志原町","town_kana":"コシバラチョウ","prefecture_code":32},"0151":{"zip_code":"6900151","prefecture":"島根県","prefecture_kana":"シマネケン","city":"松江市","city_kana":"マツエシ","town":"古曽志町","town_kana":"コソシチョウ","prefecture_code":32},"0856":{"zip_code":"6900856","prefecture":"島根県","prefecture_kana":"シマネケン","city":"松江市","city_kana":"マツエシ","town":"薦津町","town_kana":"コモヅチョウ","prefecture_code":32},"0056":{"zip_code":"6900056","prefecture":"島根県","prefecture_kana":"シマネケン","city":"松江市","city_kana":"マツエシ","town":"雑賀町","town_kana":"サイカマチ","prefecture_code":32},"0041":{"zip_code":"6900041","prefecture":"島根県","prefecture_kana":"シマネケン","city":"松江市","city_kana":"マツエシ","town":"幸町","town_kana":"サイワイマチ","prefecture_code":32},"0042":{"zip_code":"6900042","prefecture":"島根県","prefecture_kana":"シマネケン","city":"松江市","city_kana":"マツエシ","town":"栄町","town_kana":"サカエマチ","prefecture_code":32},"0813":{"zip_code":"6900813","prefecture":"島根県","prefecture_kana":"シマネケン","city":"松江市","city_kana":"マツエシ","town":"坂本町","town_kana":"サカモトチョウ","prefecture_code":32},"0035":{"zip_code":"6900035","prefecture":"島根県","prefecture_kana":"シマネケン","city":"松江市","city_kana":"マツエシ","town":"佐草町","town_kana":"サクサチョウ","prefecture_code":32},"0402":{"zip_code":"6900402","prefecture":"島根県","prefecture_kana":"シマネケン","city":"松江市","city_kana":"マツエシ","town":"島根町大芦","town_kana":"シマネチョウオワシ","prefecture_code":32},"0401":{"zip_code":"6900401","prefecture":"島根県","prefecture_kana":"シマネケン","city":"松江市","city_kana":"マツエシ","town":"島根町加賀","town_kana":"シマネチョウカカ","prefecture_code":32},"1213":{"zip_code":"6901213","prefecture":"島根県","prefecture_kana":"シマネケン","city":"松江市","city_kana":"マツエシ","town":"島根町多古","town_kana":"シマネチョウタコ","prefecture_code":32},"1211":{"zip_code":"6901211","prefecture":"島根県","prefecture_kana":"シマネケン","city":"松江市","city_kana":"マツエシ","town":"島根町野井","town_kana":"シマネチョウノイ","prefecture_code":32},"1212":{"zip_code":"6901212","prefecture":"島根県","prefecture_kana":"シマネケン","city":"松江市","city_kana":"マツエシ","town":"島根町野波","town_kana":"シマネチョウノナミ","prefecture_code":32},"0866":{"zip_code":"6900866","prefecture":"島根県","prefecture_kana":"シマネケン","city":"松江市","city_kana":"マツエシ","town":"下佐陀町","town_kana":"シモサダチョウ","prefecture_code":32},"0822":{"zip_code":"6900822","prefecture":"島根県","prefecture_kana":"シマネケン","city":"松江市","city_kana":"マツエシ","town":"下東川津町","town_kana":"シモヒガシカワツチョウ","prefecture_code":32},"0141":{"zip_code":"6900141","prefecture":"島根県","prefecture_kana":"シマネケン","city":"松江市","city_kana":"マツエシ","town":"荘成町","town_kana":"ショウジョウチョウ","prefecture_code":32},"0868":{"zip_code":"6900868","prefecture":"島根県","prefecture_kana":"シマネケン","city":"松江市","city_kana":"マツエシ","town":"淞北台","town_kana":"ショウホクダイ","prefecture_code":32},"0061":{"zip_code":"6900061","prefecture":"島根県","prefecture_kana":"シマネケン","city":"松江市","city_kana":"マツエシ","town":"白潟本町","town_kana":"シラカタホンマチ","prefecture_code":32},"0054":{"zip_code":"6900054","prefecture":"島根県","prefecture_kana":"シマネケン","city":"松江市","city_kana":"マツエシ","town":"新雑賀町","town_kana":"シンサイカマチ","prefecture_code":32},"1103":{"zip_code":"6901103","prefecture":"島根県","prefecture_kana":"シマネケン","city":"松江市","city_kana":"マツエシ","town":"新庄町","town_kana":"シンジョウチョウ","prefecture_code":32},"0057":{"zip_code":"6900057","prefecture":"島根県","prefecture_kana":"シマネケン","city":"松江市","city_kana":"マツエシ","town":"新町","town_kana":"シンマチ","prefecture_code":32},"0846":{"zip_code":"6900846","prefecture":"島根県","prefecture_kana":"シマネケン","city":"松江市","city_kana":"マツエシ","town":"末次町","town_kana":"スエツグチョウ","prefecture_code":32},"0843":{"zip_code":"6900843","prefecture":"島根県","prefecture_kana":"シマネケン","city":"松江市","city_kana":"マツエシ","town":"末次本町","town_kana":"スエツグホンマチ","prefecture_code":32},"0824":{"zip_code":"6900824","prefecture":"島根県","prefecture_kana":"シマネケン","city":"松江市","city_kana":"マツエシ","town":"菅田町","town_kana":"スガタチョウ","prefecture_code":32},"0878":{"zip_code":"6900878","prefecture":"島根県","prefecture_kana":"シマネケン","city":"松江市","city_kana":"マツエシ","town":"砂子町","town_kana":"スナゴチョウ","prefecture_code":32},"0049":{"zip_code":"6900049","prefecture":"島根県","prefecture_kana":"シマネケン","city":"松江市","city_kana":"マツエシ","town":"袖師町","town_kana":"ソデシチョウ","prefecture_code":32},"0875":{"zip_code":"6900875","prefecture":"島根県","prefecture_kana":"シマネケン","city":"松江市","city_kana":"マツエシ","town":"外中原町","town_kana":"ソトナカバラチョウ","prefecture_code":32},"0002":{"zip_code":"6900002","prefecture":"島根県","prefecture_kana":"シマネケン","city":"松江市","city_kana":"マツエシ","town":"大正町","town_kana":"タイショウマチ","prefecture_code":32},"0882":{"zip_code":"6900882","prefecture":"島根県","prefecture_kana":"シマネケン","city":"松江市","city_kana":"マツエシ","town":"大輪町","town_kana":"ダイリンチョウ","prefecture_code":32},"1113":{"zip_code":"6901113","prefecture":"島根県","prefecture_kana":"シマネケン","city":"松江市","city_kana":"マツエシ","town":"手角町","town_kana":"タスミチョウ","prefecture_code":32},"0052":{"zip_code":"6900052","prefecture":"島根県","prefecture_kana":"シマネケン","city":"松江市","city_kana":"マツエシ","town":"竪町","town_kana":"タテマチ","prefecture_code":32},"0058":{"zip_code":"6900058","prefecture":"島根県","prefecture_kana":"シマネケン","city":"松江市","city_kana":"マツエシ","town":"田和山町","town_kana":"タワヤマチョウ","prefecture_code":32},"0023":{"zip_code":"6900023","prefecture":"島根県","prefecture_kana":"シマネケン","city":"松江市","city_kana":"マツエシ","town":"竹矢町","town_kana":"チクヤチョウ","prefecture_code":32},"0852":{"zip_code":"6900852","prefecture":"島根県","prefecture_kana":"シマネケン","city":"松江市","city_kana":"マツエシ","town":"千鳥町","town_kana":"チドリチョウ","prefecture_code":32},"0055":{"zip_code":"6900055","prefecture":"島根県","prefecture_kana":"シマネケン","city":"松江市","city_kana":"マツエシ","town":"津田町","town_kana":"ツダマチ","prefecture_code":32},"0063":{"zip_code":"6900063","prefecture":"島根県","prefecture_kana":"シマネケン","city":"松江市","city_kana":"マツエシ","town":"寺町","town_kana":"テラマチ","prefecture_code":32},"0064":{"zip_code":"6900064","prefecture":"島根県","prefecture_kana":"シマネケン","city":"松江市","city_kana":"マツエシ","town":"天神町","town_kana":"テンジンマチ","prefecture_code":32},"0851":{"zip_code":"6900851","prefecture":"島根県","prefecture_kana":"シマネケン","city":"松江市","city_kana":"マツエシ","town":"堂形町","town_kana":"ドウガタチョウ","prefecture_code":32},"0887":{"zip_code":"6900887","prefecture":"島根県","prefecture_kana":"シマネケン","city":"松江市","city_kana":"マツエシ","town":"殿町","town_kana":"トノマチ","prefecture_code":32},"0874":{"zip_code":"6900874","prefecture":"島根県","prefecture_kana":"シマネケン","city":"松江市","city_kana":"マツエシ","town":"中原町","town_kana":"ナカハラチョウ","prefecture_code":32},"1112":{"zip_code":"6901112","prefecture":"島根県","prefecture_kana":"シマネケン","city":"松江市","city_kana":"マツエシ","town":"長海町","town_kana":"ナガミチョウ","prefecture_code":32},"0065":{"zip_code":"6900065","prefecture":"島根県","prefecture_kana":"シマネケン","city":"松江市","city_kana":"マツエシ","town":"灘町","town_kana":"ナダマチ","prefecture_code":32},"0854":{"zip_code":"6900854","prefecture":"島根県","prefecture_kana":"シマネケン","city":"松江市","city_kana":"マツエシ","town":"南平台","town_kana":"ナンペイダイ","prefecture_code":32},"0865":{"zip_code":"6900865","prefecture":"島根県","prefecture_kana":"シマネケン","city":"松江市","city_kana":"マツエシ","town":"西生馬町","town_kana":"ニシイクマチョウ","prefecture_code":32},"0037":{"zip_code":"6900037","prefecture":"島根県","prefecture_kana":"シマネケン","city":"松江市","city_kana":"マツエシ","town":"西忌部町","town_kana":"ニシインベチョウ","prefecture_code":32},"0835":{"zip_code":"6900835","prefecture":"島根県","prefecture_kana":"シマネケン","city":"松江市","city_kana":"マツエシ","town":"西尾町","town_kana":"ニシオチョウ","prefecture_code":32},"0823":{"zip_code":"6900823","prefecture":"島根県","prefecture_kana":"シマネケン","city":"松江市","city_kana":"マツエシ","town":"西川津町","town_kana":"ニシカワツチョウ","prefecture_code":32},"0142":{"zip_code":"6900142","prefecture":"島根県","prefecture_kana":"シマネケン","city":"松江市","city_kana":"マツエシ","town":"西谷町","town_kana":"ニシダニチョウ","prefecture_code":32},"0845":{"zip_code":"6900845","prefecture":"島根県","prefecture_kana":"シマネケン","city":"松江市","city_kana":"マツエシ","town":"西茶町","town_kana":"ニシチャマチ","prefecture_code":32},"0017":{"zip_code":"6900017","prefecture":"島根県","prefecture_kana":"シマネケン","city":"松江市","city_kana":"マツエシ","town":"西津田","town_kana":"ニシツダ","prefecture_code":32},"0132":{"zip_code":"6900132","prefecture":"島根県","prefecture_kana":"シマネケン","city":"松江市","city_kana":"マツエシ","town":"西長江町","town_kana":"ニシナガエチョウ","prefecture_code":32},"0122":{"zip_code":"6900122","prefecture":"島根県","prefecture_kana":"シマネケン","city":"松江市","city_kana":"マツエシ","town":"西浜佐陀町","town_kana":"ニシハマサダチョウ","prefecture_code":32},"0860":{"zip_code":"6900860","prefecture":"島根県","prefecture_kana":"シマネケン","city":"松江市","city_kana":"マツエシ","town":"西法吉町","town_kana":"ニシホッキチョウ","prefecture_code":32},"0815":{"zip_code":"6900815","prefecture":"島根県","prefecture_kana":"シマネケン","city":"松江市","city_kana":"マツエシ","town":"西持田町","town_kana":"ニシモチダチョウ","prefecture_code":32},"0048":{"zip_code":"6900048","prefecture":"島根県","prefecture_kana":"シマネケン","city":"松江市","city_kana":"マツエシ","town":"西嫁島","town_kana":"ニシヨメシマ","prefecture_code":32},"0046":{"zip_code":"6900046","prefecture":"島根県","prefecture_kana":"シマネケン","city":"松江市","city_kana":"マツエシ","town":"乃木福富町","town_kana":"ノギフクトミチョウ","prefecture_code":32},"0045":{"zip_code":"6900045","prefecture":"島根県","prefecture_kana":"シマネケン","city":"松江市","city_kana":"マツエシ","town":"乃白町","town_kana":"ノシラチョウ","prefecture_code":32},"1114":{"zip_code":"6901114","prefecture":"島根県","prefecture_kana":"シマネケン","city":"松江市","city_kana":"マツエシ","town":"野原町","town_kana":"ノバラチョウ","prefecture_code":32},"0004":{"zip_code":"6900004","prefecture":"島根県","prefecture_kana":"シマネケン","city":"松江市","city_kana":"マツエシ","town":"八軒屋町","town_kana":"ハチケンヤマチ","prefecture_code":32},"0855":{"zip_code":"6900855","prefecture":"島根県","prefecture_kana":"シマネケン","city":"松江市","city_kana":"マツエシ","town":"浜佐田町","town_kana":"ハマサダチョウ","prefecture_code":32},"0044":{"zip_code":"6900044","prefecture":"島根県","prefecture_kana":"シマネケン","city":"松江市","city_kana":"マツエシ","town":"浜乃木","town_kana":"ハマノギ","prefecture_code":32},"0001":{"zip_code":"6900001","prefecture":"島根県","prefecture_kana":"シマネケン","city":"松江市","city_kana":"マツエシ","town":"東朝日町","town_kana":"ヒガシアサヒマチ","prefecture_code":32},"0864":{"zip_code":"6900864","prefecture":"島根県","prefecture_kana":"シマネケン","city":"松江市","city_kana":"マツエシ","town":"東生馬町","town_kana":"ヒガシイクマチョウ","prefecture_code":32},"0036":{"zip_code":"6900036","prefecture":"島根県","prefecture_kana":"シマネケン","city":"松江市","city_kana":"マツエシ","town":"東忌部町","town_kana":"ヒガシインベチョウ","prefecture_code":32},"0871":{"zip_code":"6900871","prefecture":"島根県","prefecture_kana":"シマネケン","city":"松江市","city_kana":"マツエシ","town":"東奥谷町","town_kana":"ヒガシオクダニチョウ","prefecture_code":32},"0844":{"zip_code":"6900844","prefecture":"島根県","prefecture_kana":"シマネケン","city":"松江市","city_kana":"マツエシ","town":"東茶町","town_kana":"ヒガシチャマチ","prefecture_code":32},"0011":{"zip_code":"6900011","prefecture":"島根県","prefecture_kana":"シマネケン","city":"松江市","city_kana":"マツエシ","town":"東津田町","town_kana":"ヒガシツダチョウ","prefecture_code":32},"0133":{"zip_code":"6900133","prefecture":"島根県","prefecture_kana":"シマネケン","city":"松江市","city_kana":"マツエシ","town":"東長江町","town_kana":"ヒガシナガエチョウ","prefecture_code":32},"0842":{"zip_code":"6900842","prefecture":"島根県","prefecture_kana":"シマネケン","city":"松江市","city_kana":"マツエシ","town":"東本町","town_kana":"ヒガシホンマチ","prefecture_code":32},"0814":{"zip_code":"6900814","prefecture":"島根県","prefecture_kana":"シマネケン","city":"松江市","city_kana":"マツエシ","town":"東持田町","town_kana":"ヒガシモチダチョウ","prefecture_code":32},"0862":{"zip_code":"6900862","prefecture":"島根県","prefecture_kana":"シマネケン","city":"松江市","city_kana":"マツエシ","town":"比津が丘","town_kana":"ヒツガオカ","prefecture_code":32},"0863":{"zip_code":"6900863","prefecture":"島根県","prefecture_kana":"シマネケン","city":"松江市","city_kana":"マツエシ","town":"比津町","town_kana":"ヒツチョウ","prefecture_code":32},"0833":{"zip_code":"6900833","prefecture":"島根県","prefecture_kana":"シマネケン","city":"松江市","city_kana":"マツエシ","town":"福富町","town_kana":"フクトミチョウ","prefecture_code":32},"0811":{"zip_code":"6900811","prefecture":"島根県","prefecture_kana":"シマネケン","city":"松江市","city_kana":"マツエシ","town":"福原町","town_kana":"フクハラチョウ","prefecture_code":32},"0026":{"zip_code":"6900026","prefecture":"島根県","prefecture_kana":"シマネケン","city":"松江市","city_kana":"マツエシ","town":"富士見町","town_kana":"フジミチョウ","prefecture_code":32},"0038":{"zip_code":"6900038","prefecture":"島根県","prefecture_kana":"シマネケン","city":"松江市","city_kana":"マツエシ","town":"平成町","town_kana":"ヘイセイチョウ","prefecture_code":32},"0816":{"zip_code":"6900816","prefecture":"島根県","prefecture_kana":"シマネケン","city":"松江市","city_kana":"マツエシ","town":"北陵町","town_kana":"ホクリョウチョウ","prefecture_code":32},"0861":{"zip_code":"6900861","prefecture":"島根県","prefecture_kana":"シマネケン","city":"松江市","city_kana":"マツエシ","town":"法吉町","town_kana":"ホッキチョウ","prefecture_code":32},"0886":{"zip_code":"6900886","prefecture":"島根県","prefecture_kana":"シマネケン","city":"松江市","city_kana":"マツエシ","town":"母衣町","town_kana":"ホロマチ","prefecture_code":32},"0053":{"zip_code":"6900053","prefecture":"島根県","prefecture_kana":"シマネケン","city":"松江市","city_kana":"マツエシ","town":"本郷町","town_kana":"ホンゴウチョウ","prefecture_code":32},"1101":{"zip_code":"6901101","prefecture":"島根県","prefecture_kana":"シマネケン","city":"松江市","city_kana":"マツエシ","town":"本庄町","town_kana":"ホンジョウチョウ","prefecture_code":32},"0024":{"zip_code":"6900024","prefecture":"島根県","prefecture_kana":"シマネケン","city":"松江市","city_kana":"マツエシ","town":"馬潟町","town_kana":"マカタチョウ","prefecture_code":32},"1111":{"zip_code":"6901111","prefecture":"島根県","prefecture_kana":"シマネケン","city":"松江市","city_kana":"マツエシ","town":"枕木町","town_kana":"マクラギチョウ","prefecture_code":32},"0043":{"zip_code":"6900043","prefecture":"島根県","prefecture_kana":"シマネケン","city":"松江市","city_kana":"マツエシ","town":"松尾町","town_kana":"マツオチョウ","prefecture_code":32},"0884":{"zip_code":"6900884","prefecture":"島根県","prefecture_kana":"シマネケン","city":"松江市","city_kana":"マツエシ","town":"南田町","town_kana":"ミナミタマチ","prefecture_code":32},"1223":{"zip_code":"6901223","prefecture":"島根県","prefecture_kana":"シマネケン","city":"松江市","city_kana":"マツエシ","town":"美保関町笠浦","town_kana":"ミホノセキチョウカサウラ","prefecture_code":32},"1315":{"zip_code":"6901315","prefecture":"島根県","prefecture_kana":"シマネケン","city":"松江市","city_kana":"マツエシ","town":"美保関町片江","town_kana":"ミホノセキチョウカタエ","prefecture_code":32},"1221":{"zip_code":"6901221","prefecture":"島根県","prefecture_kana":"シマネケン","city":"松江市","city_kana":"マツエシ","town":"美保関町北浦","town_kana":"ミホノセキチョウキタウラ","prefecture_code":32},"1502":{"zip_code":"6901502","prefecture":"島根県","prefecture_kana":"シマネケン","city":"松江市","city_kana":"マツエシ","town":"美保関町雲津","town_kana":"ミホノセキチョウクモヅ","prefecture_code":32},"1311":{"zip_code":"6901311","prefecture":"島根県","prefecture_kana":"シマネケン","city":"松江市","city_kana":"マツエシ","town":"美保関町七類","town_kana":"ミホノセキチョウシチルイ","prefecture_code":32},"1313":{"zip_code":"6901313","prefecture":"島根県","prefecture_kana":"シマネケン","city":"松江市","city_kana":"マツエシ","town":"美保関町下宇部尾","town_kana":"ミホノセキチョウシモウベオ","prefecture_code":32},"1314":{"zip_code":"6901314","prefecture":"島根県","prefecture_kana":"シマネケン","city":"松江市","city_kana":"マツエシ","town":"美保関町菅浦","town_kana":"ミホノセキチョウスゲウラ","prefecture_code":32},"1222":{"zip_code":"6901222","prefecture":"島根県","prefecture_kana":"シマネケン","city":"松江市","city_kana":"マツエシ","town":"美保関町千酌","town_kana":"ミホノセキチョウチクミ","prefecture_code":32},"1504":{"zip_code":"6901504","prefecture":"島根県","prefecture_kana":"シマネケン","city":"松江市","city_kana":"マツエシ","town":"美保関町福浦","town_kana":"ミホノセキチョウフクウラ","prefecture_code":32},"1501":{"zip_code":"6901501","prefecture":"島根県","prefecture_kana":"シマネケン","city":"松江市","city_kana":"マツエシ","town":"美保関町美保関","town_kana":"ミホノセキチョウミホノセキ","prefecture_code":32},"1505":{"zip_code":"6901505","prefecture":"島根県","prefecture_kana":"シマネケン","city":"松江市","city_kana":"マツエシ","town":"美保関町森山古金崎","town_kana":"ミホノセキチョウモリヤマコガネザキ","prefecture_code":32},"1312":{"zip_code":"6901312","prefecture":"島根県","prefecture_kana":"シマネケン","city":"松江市","city_kana":"マツエシ","town":"美保関町森山","town_kana":"ミホノセキチョウモリヤマ","prefecture_code":32},"1503":{"zip_code":"6901503","prefecture":"島根県","prefecture_kana":"シマネケン","city":"松江市","city_kana":"マツエシ","town":"美保関町諸喰","town_kana":"ミホノセキチョウモロクイ","prefecture_code":32},"0841":{"zip_code":"6900841","prefecture":"島根県","prefecture_kana":"シマネケン","city":"松江市","city_kana":"マツエシ","town":"向島町","town_kana":"ムコウジマチョウ","prefecture_code":32},"0014":{"zip_code":"6900014","prefecture":"島根県","prefecture_kana":"シマネケン","city":"松江市","city_kana":"マツエシ","town":"八雲台","town_kana":"ヤクモダイ","prefecture_code":32},"2104":{"zip_code":"6902104","prefecture":"島根県","prefecture_kana":"シマネケン","city":"松江市","city_kana":"マツエシ","town":"八雲町熊野","town_kana":"ヤクモチョウクマノ","prefecture_code":32},"2103":{"zip_code":"6902103","prefecture":"島根県","prefecture_kana":"シマネケン","city":"松江市","city_kana":"マツエシ","town":"八雲町西岩坂","town_kana":"ヤクモチョウニシイワサカ","prefecture_code":32},"2102":{"zip_code":"6902102","prefecture":"島根県","prefecture_kana":"シマネケン","city":"松江市","city_kana":"マツエシ","town":"八雲町東岩坂","town_kana":"ヤクモチョウヒガシイワサカ","prefecture_code":32},"2101":{"zip_code":"6902101","prefecture":"島根県","prefecture_kana":"シマネケン","city":"松江市","city_kana":"マツエシ","town":"八雲町日吉","town_kana":"ヤクモチョウヒヨシ","prefecture_code":32},"2105":{"zip_code":"6902105","prefecture":"島根県","prefecture_kana":"シマネケン","city":"松江市","city_kana":"マツエシ","town":"八雲町平原","town_kana":"ヤクモチョウヒラハラ","prefecture_code":32},"0021":{"zip_code":"6900021","prefecture":"島根県","prefecture_kana":"シマネケン","city":"松江市","city_kana":"マツエシ","town":"矢田町","town_kana":"ヤダチョウ","prefecture_code":32},"1401":{"zip_code":"6901401","prefecture":"島根県","prefecture_kana":"シマネケン","city":"松江市","city_kana":"マツエシ","town":"八束町江島","town_kana":"ヤツカチョウエシマ","prefecture_code":32},"1403":{"zip_code":"6901403","prefecture":"島根県","prefecture_kana":"シマネケン","city":"松江市","city_kana":"マツエシ","town":"八束町遅江","town_kana":"ヤツカチョウオソエ","prefecture_code":32},"1408":{"zip_code":"6901408","prefecture":"島根県","prefecture_kana":"シマネケン","city":"松江市","city_kana":"マツエシ","town":"八束町亀尻","town_kana":"ヤツカチョウカメシリ","prefecture_code":32},"1407":{"zip_code":"6901407","prefecture":"島根県","prefecture_kana":"シマネケン","city":"松江市","city_kana":"マツエシ","town":"八束町寺津","town_kana":"ヤツカチョウテラヅ","prefecture_code":32},"1405":{"zip_code":"6901405","prefecture":"島根県","prefecture_kana":"シマネケン","city":"松江市","city_kana":"マツエシ","town":"八束町入江","town_kana":"ヤツカチョウニュウコウ","prefecture_code":32},"1404":{"zip_code":"6901404","prefecture":"島根県","prefecture_kana":"シマネケン","city":"松江市","city_kana":"マツエシ","town":"八束町波入","town_kana":"ヤツカチョウハニュウ","prefecture_code":32},"1406":{"zip_code":"6901406","prefecture":"島根県","prefecture_kana":"シマネケン","city":"松江市","city_kana":"マツエシ","town":"八束町二子","town_kana":"ヤツカチョウフタゴ","prefecture_code":32},"1402":{"zip_code":"6901402","prefecture":"島根県","prefecture_kana":"シマネケン","city":"松江市","city_kana":"マツエシ","town":"八束町馬渡","town_kana":"ヤツカチョウマワタシ","prefecture_code":32},"0031":{"zip_code":"6900031","prefecture":"島根県","prefecture_kana":"シマネケン","city":"松江市","city_kana":"マツエシ","town":"山代町","town_kana":"ヤマシロチョウ","prefecture_code":32},"0025":{"zip_code":"6900025","prefecture":"島根県","prefecture_kana":"シマネケン","city":"松江市","city_kana":"マツエシ","town":"八幡町","town_kana":"ヤワタチョウ","prefecture_code":32},"0051":{"zip_code":"6900051","prefecture":"島根県","prefecture_kana":"シマネケン","city":"松江市","city_kana":"マツエシ","town":"横浜町","town_kana":"ヨコバマチョウ","prefecture_code":32},"0885":{"zip_code":"6900885","prefecture":"島根県","prefecture_kana":"シマネケン","city":"松江市","city_kana":"マツエシ","town":"米子町","town_kana":"ヨナゴマチ","prefecture_code":32},"0047":{"zip_code":"6900047","prefecture":"島根県","prefecture_kana":"シマネケン","city":"松江市","city_kana":"マツエシ","town":"嫁島町","town_kana":"ヨメシマチョウ","prefecture_code":32},"0005":{"zip_code":"6900005","prefecture":"島根県","prefecture_kana":"シマネケン","city":"松江市","city_kana":"マツエシ","town":"和多見町","town_kana":"ワダミチョウ","prefecture_code":32},"2400":{"zip_code":"6902400","prefecture":"島根県","prefecture_kana":"シマネケン","city":"雲南市","city_kana":"ウンナンシ","town":"","town_kana":"","prefecture_code":32},"2704":{"zip_code":"6902704","prefecture":"島根県","prefecture_kana":"シマネケン","city":"雲南市","city_kana":"ウンナンシ","town":"掛合町穴見","town_kana":"カケヤチョウアナミ","prefecture_code":32},"2702":{"zip_code":"6902702","prefecture":"島根県","prefecture_kana":"シマネケン","city":"雲南市","city_kana":"ウンナンシ","town":"掛合町入間","town_kana":"カケヤチョウイルマ","prefecture_code":32},"2701":{"zip_code":"6902701","prefecture":"島根県","prefecture_kana":"シマネケン","city":"雲南市","city_kana":"ウンナンシ","town":"掛合町掛合","town_kana":"カケヤチョウカケヤ","prefecture_code":32},"2706":{"zip_code":"6902706","prefecture":"島根県","prefecture_kana":"シマネケン","city":"雲南市","city_kana":"ウンナンシ","town":"掛合町多根","town_kana":"カケヤチョウタネ","prefecture_code":32},"2703":{"zip_code":"6902703","prefecture":"島根県","prefecture_kana":"シマネケン","city":"雲南市","city_kana":"ウンナンシ","town":"掛合町波多","town_kana":"カケヤチョウハタ","prefecture_code":32},"2705":{"zip_code":"6902705","prefecture":"島根県","prefecture_kana":"シマネケン","city":"雲南市","city_kana":"ウンナンシ","town":"掛合町松笠","town_kana":"カケヤチョウマツカサ","prefecture_code":32},"2513":{"zip_code":"6902513","prefecture":"島根県","prefecture_kana":"シマネケン","city":"雲南市","city_kana":"ウンナンシ","town":"三刀屋町粟谷","town_kana":"ミトヤチョウアワダニ","prefecture_code":32},"2401":{"zip_code":"6902401","prefecture":"島根県","prefecture_kana":"シマネケン","city":"雲南市","city_kana":"ウンナンシ","town":"三刀屋町伊萱","town_kana":"ミトヤチョウイガヤ","prefecture_code":32},"2634":{"zip_code":"6902634","prefecture":"島根県","prefecture_kana":"シマネケン","city":"雲南市","city_kana":"ウンナンシ","town":"三刀屋町乙加宮","town_kana":"ミトヤチョウオツカミヤ","prefecture_code":32},"2511":{"zip_code":"6902511","prefecture":"島根県","prefecture_kana":"シマネケン","city":"雲南市","city_kana":"ウンナンシ","town":"三刀屋町上熊谷","town_kana":"ミトヤチョウカミクマタニ","prefecture_code":32},"2402":{"zip_code":"6902402","prefecture":"島根県","prefecture_kana":"シマネケン","city":"雲南市","city_kana":"ウンナンシ","town":"三刀屋町給下","town_kana":"ミトヤチョウキュウシタ","prefecture_code":32},"2521":{"zip_code":"6902521","prefecture":"島根県","prefecture_kana":"シマネケン","city":"雲南市","city_kana":"ウンナンシ","town":"三刀屋町神代","town_kana":"ミトヤチョウコウジロ","prefecture_code":32},"2405":{"zip_code":"6902405","prefecture":"島根県","prefecture_kana":"シマネケン","city":"雲南市","city_kana":"ウンナンシ","town":"三刀屋町古城","town_kana":"ミトヤチョウコジョウ","prefecture_code":32},"2525":{"zip_code":"6902525","prefecture":"島根県","prefecture_kana":"シマネケン","city":"雲南市","city_kana":"ウンナンシ","town":"三刀屋町坂本森谷","town_kana":"ミトヤチョウサカモトモリダニ","prefecture_code":32},"2625":{"zip_code":"6902625","prefecture":"島根県","prefecture_kana":"シマネケン","city":"雲南市","city_kana":"ウンナンシ","town":"三刀屋町坂本","town_kana":"ミトヤチョウサカモト","prefecture_code":32},"2632":{"zip_code":"6902632","prefecture":"島根県","prefecture_kana":"シマネケン","city":"雲南市","city_kana":"ウンナンシ","town":"三刀屋町里坊","town_kana":"ミトヤチョウサトボウ","prefecture_code":32},"2403":{"zip_code":"6902403","prefecture":"島根県","prefecture_kana":"シマネケン","city":"雲南市","city_kana":"ウンナンシ","town":"三刀屋町下熊谷","town_kana":"ミトヤチョウシモクマタニ","prefecture_code":32},"2524":{"zip_code":"6902524","prefecture":"島根県","prefecture_kana":"シマネケン","city":"雲南市","city_kana":"ウンナンシ","town":"三刀屋町須所","town_kana":"ミトヤチョウスゾ","prefecture_code":32},"2406":{"zip_code":"6902406","prefecture":"島根県","prefecture_kana":"シマネケン","city":"雲南市","city_kana":"ウンナンシ","town":"三刀屋町高窪","town_kana":"ミトヤチョウタカクボ","prefecture_code":32},"2512":{"zip_code":"6902512","prefecture":"島根県","prefecture_kana":"シマネケン","city":"雲南市","city_kana":"ウンナンシ","town":"三刀屋町多久和","town_kana":"ミトヤチョウタクワ","prefecture_code":32},"2633":{"zip_code":"6902633","prefecture":"島根県","prefecture_kana":"シマネケン","city":"雲南市","city_kana":"ウンナンシ","town":"三刀屋町殿河内","town_kana":"ミトヤチョウトノゴウチ","prefecture_code":32},"2523":{"zip_code":"6902523","prefecture":"島根県","prefecture_kana":"シマネケン","city":"雲南市","city_kana":"ウンナンシ","town":"三刀屋町中野","town_kana":"ミトヤチョウナカノ","prefecture_code":32},"2631":{"zip_code":"6902631","prefecture":"島根県","prefecture_kana":"シマネケン","city":"雲南市","city_kana":"ウンナンシ","town":"三刀屋町根波別所","town_kana":"ミトヤチョウネバベッシヨ","prefecture_code":32},"2404":{"zip_code":"6902404","prefecture":"島根県","prefecture_kana":"シマネケン","city":"雲南市","city_kana":"ウンナンシ","town":"三刀屋町三刀屋","town_kana":"ミトヤチョウミトヤ","prefecture_code":32},"2522":{"zip_code":"6902522","prefecture":"島根県","prefecture_kana":"シマネケン","city":"雲南市","city_kana":"ウンナンシ","town":"三刀屋町六重","town_kana":"ミトヤチョウムエ","prefecture_code":32},"2311":{"zip_code":"6902311","prefecture":"島根県","prefecture_kana":"シマネケン","city":"雲南市","city_kana":"ウンナンシ","town":"吉田町上山","town_kana":"ヨシダチョウウエヤマ","prefecture_code":32},"2314":{"zip_code":"6902314","prefecture":"島根県","prefecture_kana":"シマネケン","city":"雲南市","city_kana":"ウンナンシ","town":"吉田町川手","town_kana":"ヨシダチョウカワテ","prefecture_code":32},"2312":{"zip_code":"6902312","prefecture":"島根県","prefecture_kana":"シマネケン","city":"雲南市","city_kana":"ウンナンシ","town":"吉田町曽木","town_kana":"ヨシダチョウソギ","prefecture_code":32},"2313":{"zip_code":"6902313","prefecture":"島根県","prefecture_kana":"シマネケン","city":"雲南市","city_kana":"ウンナンシ","town":"吉田町深野","town_kana":"ヨシダチョウフカノ","prefecture_code":32},"2802":{"zip_code":"6902802","prefecture":"島根県","prefecture_kana":"シマネケン","city":"雲南市","city_kana":"ウンナンシ","town":"吉田町民谷","town_kana":"ヨシダチョウミンダニ","prefecture_code":32},"2801":{"zip_code":"6902801","prefecture":"島根県","prefecture_kana":"シマネケン","city":"雲南市","city_kana":"ウンナンシ","town":"吉田町吉田","town_kana":"ヨシダチョウヨシダ","prefecture_code":32},"3200":{"zip_code":"6903200","prefecture":"島根県","prefecture_kana":"シマネケン","city":"飯石郡飯南町","city_kana":"イイシグンイイナンチョウ","town":"","town_kana":"","prefecture_code":32},"3511":{"zip_code":"6903511","prefecture":"島根県","prefecture_kana":"シマネケン","city":"飯石郡飯南町","city_kana":"イイシグンイイナンチョウ","town":"赤名","town_kana":"アカナ","prefecture_code":32},"3514":{"zip_code":"6903514","prefecture":"島根県","prefecture_kana":"シマネケン","city":"飯石郡飯南町","city_kana":"イイシグンイイナンチョウ","town":"井戸谷","town_kana":"イドダニ","prefecture_code":32},"3403":{"zip_code":"6903403","prefecture":"島根県","prefecture_kana":"シマネケン","city":"飯石郡飯南町","city_kana":"イイシグンイイナンチョウ","town":"小田","town_kana":"オダ","prefecture_code":32},"3512":{"zip_code":"6903512","prefecture":"島根県","prefecture_kana":"シマネケン","city":"飯石郡飯南町","city_kana":"イイシグンイイナンチョウ","town":"上赤名","town_kana":"カミアカナ","prefecture_code":32},"3405":{"zip_code":"6903405","prefecture":"島根県","prefecture_kana":"シマネケン","city":"飯石郡飯南町","city_kana":"イイシグンイイナンチョウ","town":"上来島","town_kana":"カミキジマ","prefecture_code":32},"3204":{"zip_code":"6903204","prefecture":"島根県","prefecture_kana":"シマネケン","city":"飯石郡飯南町","city_kana":"イイシグンイイナンチョウ","town":"佐見","town_kana":"サミ","prefecture_code":32},"3515":{"zip_code":"6903515","prefecture":"島根県","prefecture_kana":"シマネケン","city":"飯石郡飯南町","city_kana":"イイシグンイイナンチョウ","town":"塩谷","town_kana":"シオダニ","prefecture_code":32},"3311":{"zip_code":"6903311","prefecture":"島根県","prefecture_kana":"シマネケン","city":"飯石郡飯南町","city_kana":"イイシグンイイナンチョウ","town":"獅子","town_kana":"シシ","prefecture_code":32},"3313":{"zip_code":"6903313","prefecture":"島根県","prefecture_kana":"シマネケン","city":"飯石郡飯南町","city_kana":"イイシグンイイナンチョウ","town":"志津見","town_kana":"シツミ","prefecture_code":32},"3513":{"zip_code":"6903513","prefecture":"島根県","prefecture_kana":"シマネケン","city":"飯石郡飯南町","city_kana":"イイシグンイイナンチョウ","town":"下赤名","town_kana":"シモアカナ","prefecture_code":32},"3402":{"zip_code":"6903402","prefecture":"島根県","prefecture_kana":"シマネケン","city":"飯石郡飯南町","city_kana":"イイシグンイイナンチョウ","town":"下来島","town_kana":"シモキジマ","prefecture_code":32},"3203":{"zip_code":"6903203","prefecture":"島根県","prefecture_kana":"シマネケン","city":"飯石郡飯南町","city_kana":"イイシグンイイナンチョウ","town":"都加賀","town_kana":"ツガカ","prefecture_code":32},"3314":{"zip_code":"6903314","prefecture":"島根県","prefecture_kana":"シマネケン","city":"飯石郡飯南町","city_kana":"イイシグンイイナンチョウ","town":"角井","town_kana":"ツノイ","prefecture_code":32},"3207":{"zip_code":"6903207","prefecture":"島根県","prefecture_kana":"シマネケン","city":"飯石郡飯南町","city_kana":"イイシグンイイナンチョウ","town":"頓原","town_kana":"トンバラ","prefecture_code":32},"3205":{"zip_code":"6903205","prefecture":"島根県","prefecture_kana":"シマネケン","city":"飯石郡飯南町","city_kana":"イイシグンイイナンチョウ","town":"長谷","town_kana":"ナガタニ","prefecture_code":32},"3401":{"zip_code":"6903401","prefecture":"島根県","prefecture_kana":"シマネケン","city":"飯石郡飯南町","city_kana":"イイシグンイイナンチョウ","town":"野萱","town_kana":"ノガヤ","prefecture_code":32},"3312":{"zip_code":"6903312","prefecture":"島根県","prefecture_kana":"シマネケン","city":"飯石郡飯南町","city_kana":"イイシグンイイナンチョウ","town":"八神","town_kana":"ハカミ","prefecture_code":32},"3516":{"zip_code":"6903516","prefecture":"島根県","prefecture_kana":"シマネケン","city":"飯石郡飯南町","city_kana":"イイシグンイイナンチョウ","town":"畑田","town_kana":"ハタタ","prefecture_code":32},"3206":{"zip_code":"6903206","prefecture":"島根県","prefecture_kana":"シマネケン","city":"飯石郡飯南町","city_kana":"イイシグンイイナンチョウ","town":"花栗","town_kana":"ハナグリ","prefecture_code":32},"3404":{"zip_code":"6903404","prefecture":"島根県","prefecture_kana":"シマネケン","city":"飯石郡飯南町","city_kana":"イイシグンイイナンチョウ","town":"真木","town_kana":"マキ","prefecture_code":32}}