{"0024":{"zip_code":"6910024","prefecture":"島根県","prefecture_kana":"シマネケン","city":"出雲市","city_kana":"イズモシ","town":"猪目町","town_kana":"イノメチョウ","prefecture_code":32},"0042":{"zip_code":"6910042","prefecture":"島根県","prefecture_kana":"シマネケン","city":"出雲市","city_kana":"イズモシ","town":"十六島町","town_kana":"ウップルイチョウ","prefecture_code":32},"0063":{"zip_code":"6910063","prefecture":"島根県","prefecture_kana":"シマネケン","city":"出雲市","city_kana":"イズモシ","town":"岡田町","town_kana":"オカダチョウ","prefecture_code":32},"0021":{"zip_code":"6910021","prefecture":"島根県","prefecture_kana":"シマネケン","city":"出雲市","city_kana":"イズモシ","town":"奥宇賀町","town_kana":"オクウガチョウ","prefecture_code":32},"0043":{"zip_code":"6910043","prefecture":"島根県","prefecture_kana":"シマネケン","city":"出雲市","city_kana":"イズモシ","town":"釜浦町","town_kana":"カマウラチョウ","prefecture_code":32},"0064":{"zip_code":"6910064","prefecture":"島根県","prefecture_kana":"シマネケン","city":"出雲市","city_kana":"イズモシ","town":"上岡田町","town_kana":"カミオカダチョウ","prefecture_code":32},"0023":{"zip_code":"6910023","prefecture":"島根県","prefecture_kana":"シマネケン","city":"出雲市","city_kana":"イズモシ","town":"唐川町","town_kana":"カラカワチョウ","prefecture_code":32},"0025":{"zip_code":"6910025","prefecture":"島根県","prefecture_kana":"シマネケン","city":"出雲市","city_kana":"イズモシ","town":"河下町","town_kana":"カワシモチョウ","prefecture_code":32},"0034":{"zip_code":"6910034","prefecture":"島根県","prefecture_kana":"シマネケン","city":"出雲市","city_kana":"イズモシ","town":"久多見町","town_kana":"クタミチョウ","prefecture_code":32},"0014":{"zip_code":"6910014","prefecture":"島根県","prefecture_kana":"シマネケン","city":"出雲市","city_kana":"イズモシ","town":"口宇賀町","town_kana":"クチウガチョウ","prefecture_code":32},"0011":{"zip_code":"6910011","prefecture":"島根県","prefecture_kana":"シマネケン","city":"出雲市","city_kana":"イズモシ","town":"国富町","town_kana":"クンドミチョウ","prefecture_code":32},"0052":{"zip_code":"6910052","prefecture":"島根県","prefecture_kana":"シマネケン","city":"出雲市","city_kana":"イズモシ","town":"小伊津町","town_kana":"コイヅチョウ","prefecture_code":32},"0074":{"zip_code":"6910074","prefecture":"島根県","prefecture_kana":"シマネケン","city":"出雲市","city_kana":"イズモシ","town":"小境町","town_kana":"コザカイチョウ","prefecture_code":32},"0041":{"zip_code":"6910041","prefecture":"島根県","prefecture_kana":"シマネケン","city":"出雲市","city_kana":"イズモシ","town":"小津町","town_kana":"コヅチョウ","prefecture_code":32},"0015":{"zip_code":"6910015","prefecture":"島根県","prefecture_kana":"シマネケン","city":"出雲市","city_kana":"イズモシ","town":"西郷町","town_kana":"サイゴウチョウ","prefecture_code":32},"0051":{"zip_code":"6910051","prefecture":"島根県","prefecture_kana":"シマネケン","city":"出雲市","city_kana":"イズモシ","town":"坂浦町","town_kana":"サカウラチョウ","prefecture_code":32},"0044":{"zip_code":"6910044","prefecture":"島根県","prefecture_kana":"シマネケン","city":"出雲市","city_kana":"イズモシ","town":"塩津町","town_kana":"シオツチョウ","prefecture_code":32},"0004":{"zip_code":"6910004","prefecture":"島根県","prefecture_kana":"シマネケン","city":"出雲市","city_kana":"イズモシ","town":"島村町","town_kana":"シマムラチョウ","prefecture_code":32},"0076":{"zip_code":"6910076","prefecture":"島根県","prefecture_kana":"シマネケン","city":"出雲市","city_kana":"イズモシ","town":"園町","town_kana":"ソノチョウ","prefecture_code":32},"0062":{"zip_code":"6910062","prefecture":"島根県","prefecture_kana":"シマネケン","city":"出雲市","city_kana":"イズモシ","town":"多久谷町","town_kana":"タクダニチョウ","prefecture_code":32},"0061":{"zip_code":"6910061","prefecture":"島根県","prefecture_kana":"シマネケン","city":"出雲市","city_kana":"イズモシ","town":"多久町","town_kana":"タクチョウ","prefecture_code":32},"0071":{"zip_code":"6910071","prefecture":"島根県","prefecture_kana":"シマネケン","city":"出雲市","city_kana":"イズモシ","town":"地合町","town_kana":"チゴウチョウ","prefecture_code":32},"0065":{"zip_code":"6910065","prefecture":"島根県","prefecture_kana":"シマネケン","city":"出雲市","city_kana":"イズモシ","town":"東郷町","town_kana":"トウゴウチョウ","prefecture_code":32},"0031":{"zip_code":"6910031","prefecture":"島根県","prefecture_kana":"シマネケン","city":"出雲市","city_kana":"イズモシ","town":"東福町","town_kana":"トウフクチョウ","prefecture_code":32},"0003":{"zip_code":"6910003","prefecture":"島根県","prefecture_kana":"シマネケン","city":"出雲市","city_kana":"イズモシ","town":"灘分町","town_kana":"ナダブンチョウ","prefecture_code":32},"0012":{"zip_code":"6910012","prefecture":"島根県","prefecture_kana":"シマネケン","city":"出雲市","city_kana":"イズモシ","town":"西代町","town_kana":"ニシダイチョウ","prefecture_code":32},"0002":{"zip_code":"6910002","prefecture":"島根県","prefecture_kana":"シマネケン","city":"出雲市","city_kana":"イズモシ","town":"西平田町","town_kana":"ニシヒラタチョウ","prefecture_code":32},"0066":{"zip_code":"6910066","prefecture":"島根県","prefecture_kana":"シマネケン","city":"出雲市","city_kana":"イズモシ","town":"野石谷町","town_kana":"ノイシダニチョウ","prefecture_code":32},"0072":{"zip_code":"6910072","prefecture":"島根県","prefecture_kana":"シマネケン","city":"出雲市","city_kana":"イズモシ","town":"野郷町","town_kana":"ノザトチョウ","prefecture_code":32},"0001":{"zip_code":"6910001","prefecture":"島根県","prefecture_kana":"シマネケン","city":"出雲市","city_kana":"イズモシ","town":"平田町","town_kana":"ヒラタチョウ","prefecture_code":32},"0022":{"zip_code":"6910022","prefecture":"島根県","prefecture_kana":"シマネケン","city":"出雲市","city_kana":"イズモシ","town":"別所町","town_kana":"ベッシヨチョウ","prefecture_code":32},"0032":{"zip_code":"6910032","prefecture":"島根県","prefecture_kana":"シマネケン","city":"出雲市","city_kana":"イズモシ","town":"本庄町","town_kana":"ホンジョウチョウ","prefecture_code":32},"0033":{"zip_code":"6910033","prefecture":"島根県","prefecture_kana":"シマネケン","city":"出雲市","city_kana":"イズモシ","town":"万田町","town_kana":"マンダチョウ","prefecture_code":32},"0013":{"zip_code":"6910013","prefecture":"島根県","prefecture_kana":"シマネケン","city":"出雲市","city_kana":"イズモシ","town":"美談町","town_kana":"ミダミチョウ","prefecture_code":32},"0053":{"zip_code":"6910053","prefecture":"島根県","prefecture_kana":"シマネケン","city":"出雲市","city_kana":"イズモシ","town":"三津町","town_kana":"ミツチョウ","prefecture_code":32},"0045":{"zip_code":"6910045","prefecture":"島根県","prefecture_kana":"シマネケン","city":"出雲市","city_kana":"イズモシ","town":"美保町","town_kana":"ミホチョウ","prefecture_code":32},"0073":{"zip_code":"6910073","prefecture":"島根県","prefecture_kana":"シマネケン","city":"出雲市","city_kana":"イズモシ","town":"美野町","town_kana":"ヨシノチョウ","prefecture_code":32},"0075":{"zip_code":"6910075","prefecture":"島根県","prefecture_kana":"シマネケン","city":"出雲市","city_kana":"イズモシ","town":"鹿園寺町","town_kana":"ロクオンジチョウ","prefecture_code":32}}