{"0000":{"zip_code":"6920000","prefecture":"島根県","prefecture_kana":"シマネケン","city":"安来市","city_kana":"ヤスギシ","town":"","town_kana":"","prefecture_code":32},"0001":{"zip_code":"6920001","prefecture":"島根県","prefecture_kana":"シマネケン","city":"安来市","city_kana":"ヤスギシ","town":"赤江町","town_kana":"アカエチョウ","prefecture_code":32},"0052":{"zip_code":"6920052","prefecture":"島根県","prefecture_kana":"シマネケン","city":"安来市","city_kana":"ヤスギシ","town":"赤崎町","town_kana":"アカサキチョウ","prefecture_code":32},"0007":{"zip_code":"6920007","prefecture":"島根県","prefecture_kana":"シマネケン","city":"安来市","city_kana":"ヤスギシ","town":"荒島町","town_kana":"アラシマチョウ","prefecture_code":32},"0066":{"zip_code":"6920066","prefecture":"島根県","prefecture_kana":"シマネケン","city":"安来市","city_kana":"ヤスギシ","town":"飯梨町","town_kana":"イイナシチョウ","prefecture_code":32},"0055":{"zip_code":"6920055","prefecture":"島根県","prefecture_kana":"シマネケン","city":"安来市","city_kana":"ヤスギシ","town":"飯生町","town_kana":"イナリチョウ","prefecture_code":32},"0015":{"zip_code":"6920015","prefecture":"島根県","prefecture_kana":"シマネケン","city":"安来市","city_kana":"ヤスギシ","town":"今津町","town_kana":"イマヅチョウ","prefecture_code":32},"0065":{"zip_code":"6920065","prefecture":"島根県","prefecture_kana":"シマネケン","city":"安来市","city_kana":"ヤスギシ","town":"岩舟町","town_kana":"イワフネチョウ","prefecture_code":32},"0063":{"zip_code":"6920063","prefecture":"島根県","prefecture_kana":"シマネケン","city":"安来市","city_kana":"ヤスギシ","town":"植田町","town_kana":"ウエダチョウ","prefecture_code":32},"0034":{"zip_code":"6920034","prefecture":"島根県","prefecture_kana":"シマネケン","city":"安来市","city_kana":"ヤスギシ","town":"宇賀荘町","town_kana":"ウカショウチョウ","prefecture_code":32},"0057":{"zip_code":"6920057","prefecture":"島根県","prefecture_kana":"シマネケン","city":"安来市","city_kana":"ヤスギシ","town":"恵乃島町","town_kana":"エノシマチョウ","prefecture_code":32},"0042":{"zip_code":"6920042","prefecture":"島根県","prefecture_kana":"シマネケン","city":"安来市","city_kana":"ヤスギシ","town":"大塚町","town_kana":"オオツカチョウ","prefecture_code":32},"0046":{"zip_code":"6920046","prefecture":"島根県","prefecture_kana":"シマネケン","city":"安来市","city_kana":"ヤスギシ","town":"折坂町","town_kana":"オリサカチョウ","prefecture_code":32},"0045":{"zip_code":"6920045","prefecture":"島根県","prefecture_kana":"シマネケン","city":"安来市","city_kana":"ヤスギシ","town":"柿谷町","town_kana":"カキダニチョウ","prefecture_code":32},"0027":{"zip_code":"6920027","prefecture":"島根県","prefecture_kana":"シマネケン","city":"安来市","city_kana":"ヤスギシ","town":"門生町","town_kana":"カドウチョウ","prefecture_code":32},"0002":{"zip_code":"6920002","prefecture":"島根県","prefecture_kana":"シマネケン","city":"安来市","city_kana":"ヤスギシ","town":"上坂田町","town_kana":"カミサカダチョウ","prefecture_code":32},"0043":{"zip_code":"6920043","prefecture":"島根県","prefecture_kana":"シマネケン","city":"安来市","city_kana":"ヤスギシ","town":"上吉田町","town_kana":"カミヨシダチョウ","prefecture_code":32},"0071":{"zip_code":"6920071","prefecture":"島根県","prefecture_kana":"シマネケン","city":"安来市","city_kana":"ヤスギシ","town":"亀島町","town_kana":"カメシマチョウ","prefecture_code":32},"0075":{"zip_code":"6920075","prefecture":"島根県","prefecture_kana":"シマネケン","city":"安来市","city_kana":"ヤスギシ","town":"神庭町","town_kana":"カンバチョウ","prefecture_code":32},"0026":{"zip_code":"6920026","prefecture":"島根県","prefecture_kana":"シマネケン","city":"安来市","city_kana":"ヤスギシ","town":"吉佐町","town_kana":"キサチョウ","prefecture_code":32},"0056":{"zip_code":"6920056","prefecture":"島根県","prefecture_kana":"シマネケン","city":"安来市","city_kana":"ヤスギシ","town":"清井町","town_kana":"キヨイチョウ","prefecture_code":32},"0035":{"zip_code":"6920035","prefecture":"島根県","prefecture_kana":"シマネケン","city":"安来市","city_kana":"ヤスギシ","town":"清瀬町","town_kana":"キヨセチョウ","prefecture_code":32},"0033":{"zip_code":"6920033","prefecture":"島根県","prefecture_kana":"シマネケン","city":"安来市","city_kana":"ヤスギシ","town":"清水町","town_kana":"キヨミズチョウ","prefecture_code":32},"0051":{"zip_code":"6920051","prefecture":"島根県","prefecture_kana":"シマネケン","city":"安来市","city_kana":"ヤスギシ","town":"切川町","town_kana":"キレカワチョウ","prefecture_code":32},"0004":{"zip_code":"6920004","prefecture":"島根県","prefecture_kana":"シマネケン","city":"安来市","city_kana":"ヤスギシ","town":"久白町","town_kana":"クジラチョウ","prefecture_code":32},"0032":{"zip_code":"6920032","prefecture":"島根県","prefecture_kana":"シマネケン","city":"安来市","city_kana":"ヤスギシ","town":"九重町","town_kana":"クノウチョウ","prefecture_code":32},"0023":{"zip_code":"6920023","prefecture":"島根県","prefecture_kana":"シマネケン","city":"安来市","city_kana":"ヤスギシ","town":"黒井田町","town_kana":"クロイダチョウ","prefecture_code":32},"0031":{"zip_code":"6920031","prefecture":"島根県","prefecture_kana":"シマネケン","city":"安来市","city_kana":"ヤスギシ","town":"佐久保町","town_kana":"サクボチョウ","prefecture_code":32},"0062":{"zip_code":"6920062","prefecture":"島根県","prefecture_kana":"シマネケン","city":"安来市","city_kana":"ヤスギシ","town":"実松町","town_kana":"サネマツチョウ","prefecture_code":32},"0053":{"zip_code":"6920053","prefecture":"島根県","prefecture_kana":"シマネケン","city":"安来市","city_kana":"ヤスギシ","town":"沢町","town_kana":"サワチョウ","prefecture_code":32},"0028":{"zip_code":"6920028","prefecture":"島根県","prefecture_kana":"シマネケン","city":"安来市","city_kana":"ヤスギシ","town":"汐手が丘","town_kana":"シオデガオカ","prefecture_code":32},"0024":{"zip_code":"6920024","prefecture":"島根県","prefecture_kana":"シマネケン","city":"安来市","city_kana":"ヤスギシ","town":"島田町","town_kana":"シマタチョウ","prefecture_code":32},"0017":{"zip_code":"6920017","prefecture":"島根県","prefecture_kana":"シマネケン","city":"安来市","city_kana":"ヤスギシ","town":"下坂田町","town_kana":"シモサカダチョウ","prefecture_code":32},"0044":{"zip_code":"6920044","prefecture":"島根県","prefecture_kana":"シマネケン","city":"安来市","city_kana":"ヤスギシ","town":"下吉田町","town_kana":"シモヨシダチョウ","prefecture_code":32},"0021":{"zip_code":"6920021","prefecture":"島根県","prefecture_kana":"シマネケン","city":"安来市","city_kana":"ヤスギシ","town":"新十神町","town_kana":"シントカミチョウ","prefecture_code":32},"0047":{"zip_code":"6920047","prefecture":"島根県","prefecture_kana":"シマネケン","city":"安来市","city_kana":"ヤスギシ","town":"早田町","town_kana":"ソウダチョウ","prefecture_code":32},"0067":{"zip_code":"6920067","prefecture":"島根県","prefecture_kana":"シマネケン","city":"安来市","city_kana":"ヤスギシ","town":"田頼町","town_kana":"タヨリチョウ","prefecture_code":32},"0013":{"zip_code":"6920013","prefecture":"島根県","prefecture_kana":"シマネケン","city":"安来市","city_kana":"ヤスギシ","town":"月坂町","town_kana":"ツキザカチョウ","prefecture_code":32},"0054":{"zip_code":"6920054","prefecture":"島根県","prefecture_kana":"シマネケン","city":"安来市","city_kana":"ヤスギシ","town":"利弘町","town_kana":"トシヒロチョウ","prefecture_code":32},"0041":{"zip_code":"6920041","prefecture":"島根県","prefecture_kana":"シマネケン","city":"安来市","city_kana":"ヤスギシ","town":"鳥木町","town_kana":"トリギチョウ","prefecture_code":32},"0074":{"zip_code":"6920074","prefecture":"島根県","prefecture_kana":"シマネケン","city":"安来市","city_kana":"ヤスギシ","town":"中海町","town_kana":"ナカウミチョウ","prefecture_code":32},"0061":{"zip_code":"6920061","prefecture":"島根県","prefecture_kana":"シマネケン","city":"安来市","city_kana":"ヤスギシ","town":"中津町","town_kana":"ナカヅチョウ","prefecture_code":32},"0003":{"zip_code":"6920003","prefecture":"島根県","prefecture_kana":"シマネケン","city":"安来市","city_kana":"ヤスギシ","town":"西赤江町","town_kana":"ニシアカエチョウ","prefecture_code":32},"0006":{"zip_code":"6920006","prefecture":"島根県","prefecture_kana":"シマネケン","city":"安来市","city_kana":"ヤスギシ","town":"西荒島町","town_kana":"ニシアラシマチョウ","prefecture_code":32},"0058":{"zip_code":"6920058","prefecture":"島根県","prefecture_kana":"シマネケン","city":"安来市","city_kana":"ヤスギシ","town":"西恵乃島町","town_kana":"ニシエノシマチョウ","prefecture_code":32},"0077":{"zip_code":"6920077","prefecture":"島根県","prefecture_kana":"シマネケン","city":"安来市","city_kana":"ヤスギシ","town":"西松井町","town_kana":"ニシマツイチョウ","prefecture_code":32},"0036":{"zip_code":"6920036","prefecture":"島根県","prefecture_kana":"シマネケン","city":"安来市","city_kana":"ヤスギシ","town":"野方町","town_kana":"ノカタチョウ","prefecture_code":32},"0072":{"zip_code":"6920072","prefecture":"島根県","prefecture_kana":"シマネケン","city":"安来市","city_kana":"ヤスギシ","town":"能義町","town_kana":"ノキチョウ","prefecture_code":32},"0321":{"zip_code":"6920321","prefecture":"島根県","prefecture_kana":"シマネケン","city":"安来市","city_kana":"ヤスギシ","town":"伯太町赤屋","town_kana":"ハクタチョウアカヤ","prefecture_code":32},"0213":{"zip_code":"6920213","prefecture":"島根県","prefecture_kana":"シマネケン","city":"安来市","city_kana":"ヤスギシ","town":"伯太町井尻","town_kana":"ハクタチョウイジリ","prefecture_code":32},"0322":{"zip_code":"6920322","prefecture":"島根県","prefecture_kana":"シマネケン","city":"安来市","city_kana":"ヤスギシ","town":"伯太町上小竹","town_kana":"ハクタチョウカミオダケ","prefecture_code":32},"0325":{"zip_code":"6920325","prefecture":"島根県","prefecture_kana":"シマネケン","city":"安来市","city_kana":"ヤスギシ","town":"伯太町上十年畑","town_kana":"ハクタチョウカミジュウネンバタ","prefecture_code":32},"0324":{"zip_code":"6920324","prefecture":"島根県","prefecture_kana":"シマネケン","city":"安来市","city_kana":"ヤスギシ","town":"伯太町草野","town_kana":"ハクタチョウクサノ","prefecture_code":32},"0323":{"zip_code":"6920323","prefecture":"島根県","prefecture_kana":"シマネケン","city":"安来市","city_kana":"ヤスギシ","town":"伯太町下小竹","town_kana":"ハクタチョウシモオダケ","prefecture_code":32},"0326":{"zip_code":"6920326","prefecture":"島根県","prefecture_kana":"シマネケン","city":"安来市","city_kana":"ヤスギシ","town":"伯太町下十年畑","town_kana":"ハクタチョウシモジュウネンバタ","prefecture_code":32},"0214":{"zip_code":"6920214","prefecture":"島根県","prefecture_kana":"シマネケン","city":"安来市","city_kana":"ヤスギシ","town":"伯太町須山福冨","town_kana":"ハクタチョウスヤマフクドメ","prefecture_code":32},"0215":{"zip_code":"6920215","prefecture":"島根県","prefecture_kana":"シマネケン","city":"安来市","city_kana":"ヤスギシ","town":"伯太町高江寸次","town_kana":"ハクタチョウタカエスンジ","prefecture_code":32},"0218":{"zip_code":"6920218","prefecture":"島根県","prefecture_kana":"シマネケン","city":"安来市","city_kana":"ヤスギシ","town":"伯太町峠之内","town_kana":"ハクタチョウタワノウチ","prefecture_code":32},"0212":{"zip_code":"6920212","prefecture":"島根県","prefecture_kana":"シマネケン","city":"安来市","city_kana":"ヤスギシ","town":"伯太町西母里","town_kana":"ハクタチョウニシモリ","prefecture_code":32},"0207":{"zip_code":"6920207","prefecture":"島根県","prefecture_kana":"シマネケン","city":"安来市","city_kana":"ヤスギシ","town":"伯太町東母里","town_kana":"ハクタチョウヒガシモリ","prefecture_code":32},"0216":{"zip_code":"6920216","prefecture":"島根県","prefecture_kana":"シマネケン","city":"安来市","city_kana":"ヤスギシ","town":"伯太町日次","town_kana":"ハクタチョウヒナミ","prefecture_code":32},"0203":{"zip_code":"6920203","prefecture":"島根県","prefecture_kana":"シマネケン","city":"安来市","city_kana":"ヤスギシ","town":"伯太町未明","town_kana":"ハクタチョウホノカ","prefecture_code":32},"0211":{"zip_code":"6920211","prefecture":"島根県","prefecture_kana":"シマネケン","city":"安来市","city_kana":"ヤスギシ","town":"伯太町母里","town_kana":"ハクタチョウモリ","prefecture_code":32},"0206":{"zip_code":"6920206","prefecture":"島根県","prefecture_kana":"シマネケン","city":"安来市","city_kana":"ヤスギシ","town":"伯太町安田","town_kana":"ハクタチョウヤスダ","prefecture_code":32},"0202":{"zip_code":"6920202","prefecture":"島根県","prefecture_kana":"シマネケン","city":"安来市","city_kana":"ヤスギシ","town":"伯太町安田関","town_kana":"ハクタチョウヤスダセキ","prefecture_code":32},"0205":{"zip_code":"6920205","prefecture":"島根県","prefecture_kana":"シマネケン","city":"安来市","city_kana":"ヤスギシ","town":"伯太町安田中","town_kana":"ハクタチョウヤスダナカ","prefecture_code":32},"0204":{"zip_code":"6920204","prefecture":"島根県","prefecture_kana":"シマネケン","city":"安来市","city_kana":"ヤスギシ","town":"伯太町安田宮内","town_kana":"ハクタチョウヤスダミヤウチ","prefecture_code":32},"0201":{"zip_code":"6920201","prefecture":"島根県","prefecture_kana":"シマネケン","city":"安来市","city_kana":"ヤスギシ","town":"伯太町安田山形","town_kana":"ハクタチョウヤスダヤマガタ","prefecture_code":32},"0217":{"zip_code":"6920217","prefecture":"島根県","prefecture_kana":"シマネケン","city":"安来市","city_kana":"ヤスギシ","town":"伯太町横屋","town_kana":"ハクタチョウヨコヤ","prefecture_code":32},"0014":{"zip_code":"6920014","prefecture":"島根県","prefecture_kana":"シマネケン","city":"安来市","city_kana":"ヤスギシ","town":"飯島町","town_kana":"ハシマチョウ","prefecture_code":32},"0016":{"zip_code":"6920016","prefecture":"島根県","prefecture_kana":"シマネケン","city":"安来市","city_kana":"ヤスギシ","town":"東赤江町","town_kana":"ヒガシアカエチョウ","prefecture_code":32},"0005":{"zip_code":"6920005","prefecture":"島根県","prefecture_kana":"シマネケン","city":"安来市","city_kana":"ヤスギシ","town":"日白町","town_kana":"ヒジラチョウ","prefecture_code":32},"0401":{"zip_code":"6920401","prefecture":"島根県","prefecture_kana":"シマネケン","city":"安来市","city_kana":"ヤスギシ","town":"広瀬町石原","town_kana":"ヒロセチョウイシハラ","prefecture_code":32},"0622":{"zip_code":"6920622","prefecture":"島根県","prefecture_kana":"シマネケン","city":"安来市","city_kana":"ヤスギシ","town":"広瀬町宇波","town_kana":"ヒロセチョウウナミ","prefecture_code":32},"0625":{"zip_code":"6920625","prefecture":"島根県","prefecture_kana":"シマネケン","city":"安来市","city_kana":"ヤスギシ","town":"広瀬町奥田原","town_kana":"ヒロセチョウオクタワラ","prefecture_code":32},"0405":{"zip_code":"6920405","prefecture":"島根県","prefecture_kana":"シマネケン","city":"安来市","city_kana":"ヤスギシ","town":"広瀬町祖父谷","town_kana":"ヒロセチョウオジダニ","prefecture_code":32},"0732":{"zip_code":"6920732","prefecture":"島根県","prefecture_kana":"シマネケン","city":"安来市","city_kana":"ヤスギシ","town":"広瀬町梶福留","town_kana":"ヒロセチョウカジフクドメ","prefecture_code":32},"0413":{"zip_code":"6920413","prefecture":"島根県","prefecture_kana":"シマネケン","city":"安来市","city_kana":"ヤスギシ","town":"広瀬町上山佐","town_kana":"ヒロセチョウカミヤマサ","prefecture_code":32},"0412":{"zip_code":"6920412","prefecture":"島根県","prefecture_kana":"シマネケン","city":"安来市","city_kana":"ヤスギシ","town":"広瀬町下山佐","town_kana":"ヒロセチョウシモヤマサ","prefecture_code":32},"0411":{"zip_code":"6920411","prefecture":"島根県","prefecture_kana":"シマネケン","city":"安来市","city_kana":"ヤスギシ","town":"広瀬町菅原下田原","town_kana":"ヒロセチョウスガハラシモタワラ","prefecture_code":32},"0621":{"zip_code":"6920621","prefecture":"島根県","prefecture_kana":"シマネケン","city":"安来市","city_kana":"ヤスギシ","town":"広瀬町菅原","town_kana":"ヒロセチョウスガハラ","prefecture_code":32},"0403":{"zip_code":"6920403","prefecture":"島根県","prefecture_kana":"シマネケン","city":"安来市","city_kana":"ヤスギシ","town":"広瀬町富田","town_kana":"ヒロセチョウトダ","prefecture_code":32},"0624":{"zip_code":"6920624","prefecture":"島根県","prefecture_kana":"シマネケン","city":"安来市","city_kana":"ヤスギシ","town":"広瀬町西谷","town_kana":"ヒロセチョウニシダニ","prefecture_code":32},"0731":{"zip_code":"6920731","prefecture":"島根県","prefecture_kana":"シマネケン","city":"安来市","city_kana":"ヤスギシ","town":"広瀬町西比田","town_kana":"ヒロセチョウニシヒダ","prefecture_code":32},"0733":{"zip_code":"6920733","prefecture":"島根県","prefecture_kana":"シマネケン","city":"安来市","city_kana":"ヤスギシ","town":"広瀬町東比田","town_kana":"ヒロセチョウヒガシヒダ","prefecture_code":32},"0404":{"zip_code":"6920404","prefecture":"島根県","prefecture_kana":"シマネケン","city":"安来市","city_kana":"ヤスギシ","town":"広瀬町広瀬","town_kana":"ヒロセチョウヒロセ","prefecture_code":32},"0623":{"zip_code":"6920623","prefecture":"島根県","prefecture_kana":"シマネケン","city":"安来市","city_kana":"ヤスギシ","town":"広瀬町布部","town_kana":"ヒロセチョウフベ","prefecture_code":32},"0402":{"zip_code":"6920402","prefecture":"島根県","prefecture_kana":"シマネケン","city":"安来市","city_kana":"ヤスギシ","town":"広瀬町町帳","town_kana":"ヒロセチョウマチチョウ","prefecture_code":32},"0064":{"zip_code":"6920064","prefecture":"島根県","prefecture_kana":"シマネケン","city":"安来市","city_kana":"ヤスギシ","town":"古川町","town_kana":"フルカワチョウ","prefecture_code":32},"0025":{"zip_code":"6920025","prefecture":"島根県","prefecture_kana":"シマネケン","city":"安来市","city_kana":"ヤスギシ","town":"穂日島町","town_kana":"ホヒジマチョウ","prefecture_code":32},"0022":{"zip_code":"6920022","prefecture":"島根県","prefecture_kana":"シマネケン","city":"安来市","city_kana":"ヤスギシ","town":"南十神町","town_kana":"ミナミトカミチョウ","prefecture_code":32},"0012":{"zip_code":"6920012","prefecture":"島根県","prefecture_kana":"シマネケン","city":"安来市","city_kana":"ヤスギシ","town":"宮内町","town_kana":"ミヤウチチョウ","prefecture_code":32},"0011":{"zip_code":"6920011","prefecture":"島根県","prefecture_kana":"シマネケン","city":"安来市","city_kana":"ヤスギシ","town":"安来町","town_kana":"ヤスギチョウ","prefecture_code":32},"0073":{"zip_code":"6920073","prefecture":"島根県","prefecture_kana":"シマネケン","city":"安来市","city_kana":"ヤスギシ","town":"矢田町","town_kana":"ヤタチョウ","prefecture_code":32},"0037":{"zip_code":"6920037","prefecture":"島根県","prefecture_kana":"シマネケン","city":"安来市","city_kana":"ヤスギシ","town":"吉岡町","town_kana":"ヨシオカチョウ","prefecture_code":32}}