{"0000":{"zip_code":"6930000","prefecture":"島根県","prefecture_kana":"シマネケン","city":"出雲市","city_kana":"イズモシ","town":"以下に掲載がない場合","town_kana":"イカニケイサイガナイバアイ","prefecture_code":32},"0213":{"zip_code":"6930213","prefecture":"島根県","prefecture_kana":"シマネケン","city":"出雲市","city_kana":"イズモシ","town":"朝山町","town_kana":"アサヤマチョウ","prefecture_code":32},"0035":{"zip_code":"6930035","prefecture":"島根県","prefecture_kana":"シマネケン","city":"出雲市","city_kana":"イズモシ","town":"芦渡町","town_kana":"アシワタチョウ","prefecture_code":32},"0044":{"zip_code":"6930044","prefecture":"島根県","prefecture_kana":"シマネケン","city":"出雲市","city_kana":"イズモシ","town":"荒茅町","town_kana":"アラカヤチョウ","prefecture_code":32},"0027":{"zip_code":"6930027","prefecture":"島根県","prefecture_kana":"シマネケン","city":"出雲市","city_kana":"イズモシ","town":"医大南町","town_kana":"イダイミナミマチ","prefecture_code":32},"0071":{"zip_code":"6930071","prefecture":"島根県","prefecture_kana":"シマネケン","city":"出雲市","city_kana":"イズモシ","town":"稲岡町","town_kana":"イナオカチョウ","prefecture_code":32},"0001":{"zip_code":"6930001","prefecture":"島根県","prefecture_kana":"シマネケン","city":"出雲市","city_kana":"イズモシ","town":"今市町","town_kana":"イマイチチョウ","prefecture_code":32},"0002":{"zip_code":"6930002","prefecture":"島根県","prefecture_kana":"シマネケン","city":"出雲市","city_kana":"イズモシ","town":"今市町北本町","town_kana":"イマイチチョウキタホンマチ","prefecture_code":32},"0003":{"zip_code":"6930003","prefecture":"島根県","prefecture_kana":"シマネケン","city":"出雲市","city_kana":"イズモシ","town":"今市町南本町","town_kana":"イマイチチョウミナミホンマチ","prefecture_code":32},"0105":{"zip_code":"6930105","prefecture":"島根県","prefecture_kana":"シマネケン","city":"出雲市","city_kana":"イズモシ","town":"宇那手町","town_kana":"ウナテチョウ","prefecture_code":32},"0007":{"zip_code":"6930007","prefecture":"島根県","prefecture_kana":"シマネケン","city":"出雲市","city_kana":"イズモシ","town":"駅北町","town_kana":"エキキタマチ","prefecture_code":32},"0008":{"zip_code":"6930008","prefecture":"島根県","prefecture_kana":"シマネケン","city":"出雲市","city_kana":"イズモシ","town":"駅南町","town_kana":"エキミナミマチ","prefecture_code":32},"0017":{"zip_code":"6930017","prefecture":"島根県","prefecture_kana":"シマネケン","city":"出雲市","city_kana":"イズモシ","town":"枝大津町","town_kana":"エダオオツチョウ","prefecture_code":32},"0056":{"zip_code":"6930056","prefecture":"島根県","prefecture_kana":"シマネケン","city":"出雲市","city_kana":"イズモシ","town":"江田町","town_kana":"エタチョウ","prefecture_code":32},"0023":{"zip_code":"6930023","prefecture":"島根県","prefecture_kana":"シマネケン","city":"出雲市","city_kana":"イズモシ","town":"塩冶有原町","town_kana":"エンヤアリハラチョウ","prefecture_code":32},"0024":{"zip_code":"6930024","prefecture":"島根県","prefecture_kana":"シマネケン","city":"出雲市","city_kana":"イズモシ","town":"塩冶神前","town_kana":"エンヤカンマエ","prefecture_code":32},"0028":{"zip_code":"6930028","prefecture":"島根県","prefecture_kana":"シマネケン","city":"出雲市","city_kana":"イズモシ","town":"塩冶善行町","town_kana":"エンヤゼンコウチョウ","prefecture_code":32},"0021":{"zip_code":"6930021","prefecture":"島根県","prefecture_kana":"シマネケン","city":"出雲市","city_kana":"イズモシ","town":"塩冶町","town_kana":"エンヤチョウ","prefecture_code":32},"0025":{"zip_code":"6930025","prefecture":"島根県","prefecture_kana":"シマネケン","city":"出雲市","city_kana":"イズモシ","town":"塩冶町南町","town_kana":"エンヤチョウミナミマチ","prefecture_code":32},"0026":{"zip_code":"6930026","prefecture":"島根県","prefecture_kana":"シマネケン","city":"出雲市","city_kana":"イズモシ","town":"塩冶原町","town_kana":"エンヤハラマチ","prefecture_code":32},"0015":{"zip_code":"6930015","prefecture":"島根県","prefecture_kana":"シマネケン","city":"出雲市","city_kana":"イズモシ","town":"大津朝倉","town_kana":"オオツアサクラ","prefecture_code":32},"0063":{"zip_code":"6930063","prefecture":"島根県","prefecture_kana":"シマネケン","city":"出雲市","city_kana":"イズモシ","town":"大塚町","town_kana":"オオツカチョウ","prefecture_code":32},"0012":{"zip_code":"6930012","prefecture":"島根県","prefecture_kana":"シマネケン","city":"出雲市","city_kana":"イズモシ","town":"大津新崎町","town_kana":"オオツシンザキチョウ","prefecture_code":32},"0011":{"zip_code":"6930011","prefecture":"島根県","prefecture_kana":"シマネケン","city":"出雲市","city_kana":"イズモシ","town":"大津町","town_kana":"オオツチョウ","prefecture_code":32},"0013":{"zip_code":"6930013","prefecture":"島根県","prefecture_kana":"シマネケン","city":"出雲市","city_kana":"イズモシ","town":"荻杼町","town_kana":"オギトチチョウ","prefecture_code":32},"0216":{"zip_code":"6930216","prefecture":"島根県","prefecture_kana":"シマネケン","city":"出雲市","city_kana":"イズモシ","town":"乙立町","town_kana":"オッタチチョウ","prefecture_code":32},"0051":{"zip_code":"6930051","prefecture":"島根県","prefecture_kana":"シマネケン","city":"出雲市","city_kana":"イズモシ","town":"小山町","town_kana":"オヤマチョウ","prefecture_code":32},"0022":{"zip_code":"6930022","prefecture":"島根県","prefecture_kana":"シマネケン","city":"出雲市","city_kana":"イズモシ","town":"上塩冶町","town_kana":"カミエンヤチョウ","prefecture_code":32},"0101":{"zip_code":"6930101","prefecture":"島根県","prefecture_kana":"シマネケン","city":"出雲市","city_kana":"イズモシ","town":"上島町","town_kana":"カミシマチョウ","prefecture_code":32},"0034":{"zip_code":"6930034","prefecture":"島根県","prefecture_kana":"シマネケン","city":"出雲市","city_kana":"イズモシ","town":"神門町","town_kana":"カンドチョウ","prefecture_code":32},"0072":{"zip_code":"6930072","prefecture":"島根県","prefecture_kana":"シマネケン","city":"出雲市","city_kana":"イズモシ","town":"日下町","town_kana":"クサカチョウ","prefecture_code":32},"0031":{"zip_code":"6930031","prefecture":"島根県","prefecture_kana":"シマネケン","city":"出雲市","city_kana":"イズモシ","town":"古志町","town_kana":"コシチョウ","prefecture_code":32},"0501":{"zip_code":"6930501","prefecture":"島根県","prefecture_kana":"シマネケン","city":"出雲市","city_kana":"イズモシ","town":"佐田町朝原","town_kana":"サダチョウアザバラ","prefecture_code":32},"0504":{"zip_code":"6930504","prefecture":"島根県","prefecture_kana":"シマネケン","city":"出雲市","city_kana":"イズモシ","town":"佐田町大呂","town_kana":"サダチョウオオロ","prefecture_code":32},"0526":{"zip_code":"6930526","prefecture":"島根県","prefecture_kana":"シマネケン","city":"出雲市","city_kana":"イズモシ","town":"佐田町上橋波","town_kana":"サダチョウカミハシナミ","prefecture_code":32},"0521":{"zip_code":"6930521","prefecture":"島根県","prefecture_kana":"シマネケン","city":"出雲市","city_kana":"イズモシ","town":"佐田町毛津","town_kana":"サダチョウケヅ","prefecture_code":32},"0523":{"zip_code":"6930523","prefecture":"島根県","prefecture_kana":"シマネケン","city":"出雲市","city_kana":"イズモシ","town":"佐田町佐津目","town_kana":"サダチョウサツメ","prefecture_code":32},"0525":{"zip_code":"6930525","prefecture":"島根県","prefecture_kana":"シマネケン","city":"出雲市","city_kana":"イズモシ","town":"佐田町下橋波","town_kana":"サダチョウシモハシナミ","prefecture_code":32},"0503":{"zip_code":"6930503","prefecture":"島根県","prefecture_kana":"シマネケン","city":"出雲市","city_kana":"イズモシ","town":"佐田町須佐","town_kana":"サダチョウスサ","prefecture_code":32},"0524":{"zip_code":"6930524","prefecture":"島根県","prefecture_kana":"シマネケン","city":"出雲市","city_kana":"イズモシ","town":"佐田町高津屋","town_kana":"サダチョウタカツヤ","prefecture_code":32},"0506":{"zip_code":"6930506","prefecture":"島根県","prefecture_kana":"シマネケン","city":"出雲市","city_kana":"イズモシ","town":"佐田町反辺","town_kana":"サダチョウタンベ","prefecture_code":32},"0502":{"zip_code":"6930502","prefecture":"島根県","prefecture_kana":"シマネケン","city":"出雲市","city_kana":"イズモシ","town":"佐田町原田","town_kana":"サダチョウハラダ","prefecture_code":32},"0512":{"zip_code":"6930512","prefecture":"島根県","prefecture_kana":"シマネケン","city":"出雲市","city_kana":"イズモシ","town":"佐田町東村","town_kana":"サダチョウヒガシムラ","prefecture_code":32},"0522":{"zip_code":"6930522","prefecture":"島根県","prefecture_kana":"シマネケン","city":"出雲市","city_kana":"イズモシ","town":"佐田町一窪田","town_kana":"サダチョウヒトクボタ","prefecture_code":32},"0511":{"zip_code":"6930511","prefecture":"島根県","prefecture_kana":"シマネケン","city":"出雲市","city_kana":"イズモシ","town":"佐田町八幡原","town_kana":"サダチョウヤワタバラ","prefecture_code":32},"0505":{"zip_code":"6930505","prefecture":"島根県","prefecture_kana":"シマネケン","city":"出雲市","city_kana":"イズモシ","town":"佐田町吉野","town_kana":"サダチョウヨシノ","prefecture_code":32},"0064":{"zip_code":"6930064","prefecture":"島根県","prefecture_kana":"シマネケン","city":"出雲市","city_kana":"イズモシ","town":"里方町","town_kana":"サトカタチョウ","prefecture_code":32},"0032":{"zip_code":"6930032","prefecture":"島根県","prefecture_kana":"シマネケン","city":"出雲市","city_kana":"イズモシ","town":"下古志町","town_kana":"シモコシチョウ","prefecture_code":32},"0046":{"zip_code":"6930046","prefecture":"島根県","prefecture_kana":"シマネケン","city":"出雲市","city_kana":"イズモシ","town":"下横町","town_kana":"シモヨコチョウ","prefecture_code":32},"0006":{"zip_code":"6930006","prefecture":"島根県","prefecture_kana":"シマネケン","city":"出雲市","city_kana":"イズモシ","town":"白枝町","town_kana":"シロエダチョウ","prefecture_code":32},"0042":{"zip_code":"6930042","prefecture":"島根県","prefecture_kana":"シマネケン","city":"出雲市","city_kana":"イズモシ","town":"外園町","town_kana":"ソトゾノチョウ","prefecture_code":32},"0066":{"zip_code":"6930066","prefecture":"島根県","prefecture_kana":"シマネケン","city":"出雲市","city_kana":"イズモシ","town":"高岡町","town_kana":"タカオカチョウ","prefecture_code":32},"0053":{"zip_code":"6930053","prefecture":"島根県","prefecture_kana":"シマネケン","city":"出雲市","city_kana":"イズモシ","town":"高松町","town_kana":"タカマツチョウ","prefecture_code":32},"0014":{"zip_code":"6930014","prefecture":"島根県","prefecture_kana":"シマネケン","city":"出雲市","city_kana":"イズモシ","town":"武志町","town_kana":"タケシチョウ","prefecture_code":32},"0033":{"zip_code":"6930033","prefecture":"島根県","prefecture_kana":"シマネケン","city":"出雲市","city_kana":"イズモシ","town":"知井宮町","town_kana":"チイミヤチョウ","prefecture_code":32},"0029":{"zip_code":"6930029","prefecture":"島根県","prefecture_kana":"シマネケン","city":"出雲市","city_kana":"イズモシ","town":"築山新町","town_kana":"ツキヤマシンマチ","prefecture_code":32},"0057":{"zip_code":"6930057","prefecture":"島根県","prefecture_kana":"シマネケン","city":"出雲市","city_kana":"イズモシ","town":"常松町","town_kana":"ツネマツチョウ","prefecture_code":32},"0005":{"zip_code":"6930005","prefecture":"島根県","prefecture_kana":"シマネケン","city":"出雲市","city_kana":"イズモシ","town":"天神町","town_kana":"テンジンチョウ","prefecture_code":32},"0214":{"zip_code":"6930214","prefecture":"島根県","prefecture_kana":"シマネケン","city":"出雲市","city_kana":"イズモシ","town":"所原町","town_kana":"トコロハラチョウ","prefecture_code":32},"0062":{"zip_code":"6930062","prefecture":"島根県","prefecture_kana":"シマネケン","city":"出雲市","city_kana":"イズモシ","town":"中野町","town_kana":"ナカノチョウ","prefecture_code":32},"0081":{"zip_code":"6930081","prefecture":"島根県","prefecture_kana":"シマネケン","city":"出雲市","city_kana":"イズモシ","town":"中野美保北","town_kana":"ナカノミホキタ","prefecture_code":32},"0082":{"zip_code":"6930082","prefecture":"島根県","prefecture_kana":"シマネケン","city":"出雲市","city_kana":"イズモシ","town":"中野美保南","town_kana":"ナカノミホミナミ","prefecture_code":32},"0043":{"zip_code":"6930043","prefecture":"島根県","prefecture_kana":"シマネケン","city":"出雲市","city_kana":"イズモシ","town":"長浜町","town_kana":"ナガハマチョウ","prefecture_code":32},"0037":{"zip_code":"6930037","prefecture":"島根県","prefecture_kana":"シマネケン","city":"出雲市","city_kana":"イズモシ","town":"西新町","town_kana":"ニシシンマチ","prefecture_code":32},"0041":{"zip_code":"6930041","prefecture":"島根県","prefecture_kana":"シマネケン","city":"出雲市","city_kana":"イズモシ","town":"西園町","town_kana":"ニシゾノチョウ","prefecture_code":32},"0102":{"zip_code":"6930102","prefecture":"島根県","prefecture_kana":"シマネケン","city":"出雲市","city_kana":"イズモシ","town":"西谷町","town_kana":"ニシダニチョウ","prefecture_code":32},"0073":{"zip_code":"6930073","prefecture":"島根県","prefecture_kana":"シマネケン","city":"出雲市","city_kana":"イズモシ","town":"西林木町","town_kana":"ニシハヤシギチョウ","prefecture_code":32},"0103":{"zip_code":"6930103","prefecture":"島根県","prefecture_kana":"シマネケン","city":"出雲市","city_kana":"イズモシ","town":"野尻町","town_kana":"ノジリチョウ","prefecture_code":32},"0054":{"zip_code":"6930054","prefecture":"島根県","prefecture_kana":"シマネケン","city":"出雲市","city_kana":"イズモシ","town":"浜町","town_kana":"ハマチョウ","prefecture_code":32},"0104":{"zip_code":"6930104","prefecture":"島根県","prefecture_kana":"シマネケン","city":"出雲市","city_kana":"イズモシ","town":"稗原町","town_kana":"ヒエバラチョウ","prefecture_code":32},"0045":{"zip_code":"6930045","prefecture":"島根県","prefecture_kana":"シマネケン","city":"出雲市","city_kana":"イズモシ","town":"東園町","town_kana":"ヒガシゾノチョウ","prefecture_code":32},"0074":{"zip_code":"6930074","prefecture":"島根県","prefecture_kana":"シマネケン","city":"出雲市","city_kana":"イズモシ","town":"東林木町","town_kana":"ヒガシハヤシギチョウ","prefecture_code":32},"0068":{"zip_code":"6930068","prefecture":"島根県","prefecture_kana":"シマネケン","city":"出雲市","city_kana":"イズモシ","town":"姫原（１〜４丁目）","town_kana":"ヒメバラ(1-4チョウメ)","prefecture_code":32},"0061":{"zip_code":"6930061","prefecture":"島根県","prefecture_kana":"シマネケン","city":"出雲市","city_kana":"イズモシ","town":"姫原町","town_kana":"ヒメバラチョウ","prefecture_code":32},"0065":{"zip_code":"6930065","prefecture":"島根県","prefecture_kana":"シマネケン","city":"出雲市","city_kana":"イズモシ","town":"平野町","town_kana":"ヒラノチョウ","prefecture_code":32},"0106":{"zip_code":"6930106","prefecture":"島根県","prefecture_kana":"シマネケン","city":"出雲市","city_kana":"イズモシ","town":"船津町","town_kana":"フナツチョウ","prefecture_code":32},"0036":{"zip_code":"6930036","prefecture":"島根県","prefecture_kana":"シマネケン","city":"出雲市","city_kana":"イズモシ","town":"平成町","town_kana":"ヘイセイチョウ","prefecture_code":32},"0211":{"zip_code":"6930211","prefecture":"島根県","prefecture_kana":"シマネケン","city":"出雲市","city_kana":"イズモシ","town":"馬木北町","town_kana":"マキキタマチ","prefecture_code":32},"0212":{"zip_code":"6930212","prefecture":"島根県","prefecture_kana":"シマネケン","city":"出雲市","city_kana":"イズモシ","town":"馬木町","town_kana":"マキチョウ","prefecture_code":32},"0052":{"zip_code":"6930052","prefecture":"島根県","prefecture_kana":"シマネケン","city":"出雲市","city_kana":"イズモシ","town":"松寄下町","town_kana":"マツヨリシモチョウ","prefecture_code":32},"0215":{"zip_code":"6930215","prefecture":"島根県","prefecture_kana":"シマネケン","city":"出雲市","city_kana":"イズモシ","town":"見々久町","town_kana":"ミミクチョウ","prefecture_code":32},"0055":{"zip_code":"6930055","prefecture":"島根県","prefecture_kana":"シマネケン","city":"出雲市","city_kana":"イズモシ","town":"八島町","town_kana":"ヤシマチョウ","prefecture_code":32},"0058":{"zip_code":"6930058","prefecture":"島根県","prefecture_kana":"シマネケン","city":"出雲市","city_kana":"イズモシ","town":"矢野町","town_kana":"ヤノチョウ","prefecture_code":32},"0067":{"zip_code":"6930067","prefecture":"島根県","prefecture_kana":"シマネケン","city":"出雲市","city_kana":"イズモシ","town":"矢尾町","town_kana":"ヤビチョウ","prefecture_code":32},"0004":{"zip_code":"6930004","prefecture":"島根県","prefecture_kana":"シマネケン","city":"出雲市","city_kana":"イズモシ","town":"渡橋町","town_kana":"ワタリハシチョウ","prefecture_code":32}}