{"0000":{"zip_code":"6940000","prefecture":"島根県","prefecture_kana":"シマネケン","city":"大田市","city_kana":"オオダシ","town":"","town_kana":"","prefecture_code":32},"0035":{"zip_code":"6940035","prefecture":"島根県","prefecture_kana":"シマネケン","city":"大田市","city_kana":"オオダシ","town":"五十猛町","town_kana":"イソタケチョウ","prefecture_code":32},"0433":{"zip_code":"6940433","prefecture":"島根県","prefecture_kana":"シマネケン","city":"大田市","city_kana":"オオダシ","town":"大代町大家","town_kana":"オオシロチョウオオエ","prefecture_code":32},"0432":{"zip_code":"6940432","prefecture":"島根県","prefecture_kana":"シマネケン","city":"大田市","city_kana":"オオダシ","town":"大代町新屋","town_kana":"オオシロチョウニイヤ","prefecture_code":32},"0064":{"zip_code":"6940064","prefecture":"島根県","prefecture_kana":"シマネケン","city":"大田市","city_kana":"オオダシ","town":"大田町大田","town_kana":"オオダチョウオオダ","prefecture_code":32},"0062":{"zip_code":"6940062","prefecture":"島根県","prefecture_kana":"シマネケン","city":"大田市","city_kana":"オオダシ","town":"大田町野城","town_kana":"オオダチョウノジロ","prefecture_code":32},"0063":{"zip_code":"6940063","prefecture":"島根県","prefecture_kana":"シマネケン","city":"大田市","city_kana":"オオダシ","town":"大田町吉永","town_kana":"オオダチョウヨシナガ","prefecture_code":32},"0305":{"zip_code":"6940305","prefecture":"島根県","prefecture_kana":"シマネケン","city":"大田市","city_kana":"オオダシ","town":"大森町","town_kana":"オオモリチョウ","prefecture_code":32},"0033":{"zip_code":"6940033","prefecture":"島根県","prefecture_kana":"シマネケン","city":"大田市","city_kana":"オオダシ","town":"大屋町大国","town_kana":"オオヤチョウオオグニ","prefecture_code":32},"0034":{"zip_code":"6940034","prefecture":"島根県","prefecture_kana":"シマネケン","city":"大田市","city_kana":"オオダシ","town":"大屋町大屋","town_kana":"オオヤチョウオオヤ","prefecture_code":32},"0032":{"zip_code":"6940032","prefecture":"島根県","prefecture_kana":"シマネケン","city":"大田市","city_kana":"オオダシ","town":"大屋町鬼村","town_kana":"オオヤチョウオニムラ","prefecture_code":32},"0012":{"zip_code":"6940012","prefecture":"島根県","prefecture_kana":"シマネケン","city":"大田市","city_kana":"オオダシ","town":"川合町忍原","town_kana":"カワイチョウオシハラ","prefecture_code":32},"0011":{"zip_code":"6940011","prefecture":"島根県","prefecture_kana":"シマネケン","city":"大田市","city_kana":"オオダシ","town":"川合町川合","town_kana":"カワイチョウカワイ","prefecture_code":32},"0013":{"zip_code":"6940013","prefecture":"島根県","prefecture_kana":"シマネケン","city":"大田市","city_kana":"オオダシ","town":"川合町吉永","town_kana":"カワイチョウヨシナガ","prefecture_code":32},"0052":{"zip_code":"6940052","prefecture":"島根県","prefecture_kana":"シマネケン","city":"大田市","city_kana":"オオダシ","town":"久手町刺鹿","town_kana":"クテチョウサツカ","prefecture_code":32},"0051":{"zip_code":"6940051","prefecture":"島根県","prefecture_kana":"シマネケン","city":"大田市","city_kana":"オオダシ","town":"久手町波根西","town_kana":"クテチョウハネニシ","prefecture_code":32},"0022":{"zip_code":"6940022","prefecture":"島根県","prefecture_kana":"シマネケン","city":"大田市","city_kana":"オオダシ","town":"久利町市原","town_kana":"クリチョウイチハラ","prefecture_code":32},"0024":{"zip_code":"6940024","prefecture":"島根県","prefecture_kana":"シマネケン","city":"大田市","city_kana":"オオダシ","town":"久利町久利","town_kana":"クリチョウクリ","prefecture_code":32},"0023":{"zip_code":"6940023","prefecture":"島根県","prefecture_kana":"シマネケン","city":"大田市","city_kana":"オオダシ","town":"久利町佐摩","town_kana":"クリチョウサマ","prefecture_code":32},"0025":{"zip_code":"6940025","prefecture":"島根県","prefecture_kana":"シマネケン","city":"大田市","city_kana":"オオダシ","town":"久利町松代","town_kana":"クリチョウマツシロ","prefecture_code":32},"0021":{"zip_code":"6940021","prefecture":"島根県","prefecture_kana":"シマネケン","city":"大田市","city_kana":"オオダシ","town":"久利町行恒","town_kana":"クリチョウユキツネ","prefecture_code":32},"0223":{"zip_code":"6940223","prefecture":"島根県","prefecture_kana":"シマネケン","city":"大田市","city_kana":"オオダシ","town":"三瓶町池田","town_kana":"サンベチョウイケダ","prefecture_code":32},"0221":{"zip_code":"6940221","prefecture":"島根県","prefecture_kana":"シマネケン","city":"大田市","city_kana":"オオダシ","town":"三瓶町上山","town_kana":"サンベチョウウヤマ","prefecture_code":32},"0224":{"zip_code":"6940224","prefecture":"島根県","prefecture_kana":"シマネケン","city":"大田市","city_kana":"オオダシ","town":"三瓶町小屋原","town_kana":"サンベチョウコヤハラ","prefecture_code":32},"0222":{"zip_code":"6940222","prefecture":"島根県","prefecture_kana":"シマネケン","city":"大田市","city_kana":"オオダシ","town":"三瓶町志学","town_kana":"サンベチョウシガク","prefecture_code":32},"0003":{"zip_code":"6940003","prefecture":"島根県","prefecture_kana":"シマネケン","city":"大田市","city_kana":"オオダシ","town":"三瓶町多根","town_kana":"サンベチョウタネ","prefecture_code":32},"0004":{"zip_code":"6940004","prefecture":"島根県","prefecture_kana":"シマネケン","city":"大田市","city_kana":"オオダシ","town":"三瓶町野城","town_kana":"サンベチョウノジロ","prefecture_code":32},"0031":{"zip_code":"6940031","prefecture":"島根県","prefecture_kana":"シマネケン","city":"大田市","city_kana":"オオダシ","town":"静間町","town_kana":"シズマチョウ","prefecture_code":32},"0431":{"zip_code":"6940431","prefecture":"島根県","prefecture_kana":"シマネケン","city":"大田市","city_kana":"オオダシ","town":"祖式町","town_kana":"ソジキチョウ","prefecture_code":32},"0061":[{"zip_code":"6940061","prefecture":"島根県","prefecture_kana":"シマネケン","city":"大田市","city_kana":"オオダシ","town":"富山町山中","town_kana":"トミヤマチョウヤマナカ","prefecture_code":32},{"zip_code":"6940061","prefecture":"島根県","prefecture_kana":"シマネケン","city":"大田市","city_kana":"オオダシ","town":"富山町山中押ケ峠","town_kana":"トミヤマチョウヤマナカオシガト","prefecture_code":32}],"0054":{"zip_code":"6940054","prefecture":"島根県","prefecture_kana":"シマネケン","city":"大田市","city_kana":"オオダシ","town":"鳥井町鳥井","town_kana":"トリイチョウトリイ","prefecture_code":32},"0053":{"zip_code":"6940053","prefecture":"島根県","prefecture_kana":"シマネケン","city":"大田市","city_kana":"オオダシ","town":"鳥井町鳥越","town_kana":"トリイチョウトリゴエ","prefecture_code":32},"0042":{"zip_code":"6940042","prefecture":"島根県","prefecture_kana":"シマネケン","city":"大田市","city_kana":"オオダシ","town":"長久町稲用","town_kana":"ナガヒサチョウイナモチ","prefecture_code":32},"0044":{"zip_code":"6940044","prefecture":"島根県","prefecture_kana":"シマネケン","city":"大田市","city_kana":"オオダシ","town":"長久町土江","town_kana":"ナガヒサチョウツチエ","prefecture_code":32},"0041":{"zip_code":"6940041","prefecture":"島根県","prefecture_kana":"シマネケン","city":"大田市","city_kana":"オオダシ","town":"長久町長久","town_kana":"ナガヒサチョウナガヒサ","prefecture_code":32},"0043":{"zip_code":"6940043","prefecture":"島根県","prefecture_kana":"シマネケン","city":"大田市","city_kana":"オオダシ","town":"長久町延里","town_kana":"ナガヒサチョウノブサト","prefecture_code":32},"0301":{"zip_code":"6940301","prefecture":"島根県","prefecture_kana":"シマネケン","city":"大田市","city_kana":"オオダシ","town":"水上町荻原","town_kana":"ミナカミチョウオギハラ","prefecture_code":32},"0303":{"zip_code":"6940303","prefecture":"島根県","prefecture_kana":"シマネケン","city":"大田市","city_kana":"オオダシ","town":"水上町白坏","town_kana":"ミナカミチョウシロツキ","prefecture_code":32},"0302":{"zip_code":"6940302","prefecture":"島根県","prefecture_kana":"シマネケン","city":"大田市","city_kana":"オオダシ","town":"水上町福原","town_kana":"ミナカミチョウフクハラ","prefecture_code":32},"0304":{"zip_code":"6940304","prefecture":"島根県","prefecture_kana":"シマネケン","city":"大田市","city_kana":"オオダシ","town":"水上町三久須","town_kana":"ミナカミチョウミクス","prefecture_code":32},"0001":{"zip_code":"6940001","prefecture":"島根県","prefecture_kana":"シマネケン","city":"大田市","city_kana":"オオダシ","town":"山口町佐津目","town_kana":"ヤマグチチョウサツメ","prefecture_code":32},"0002":{"zip_code":"6940002","prefecture":"島根県","prefecture_kana":"シマネケン","city":"大田市","city_kana":"オオダシ","town":"山口町山口","town_kana":"ヤマグチチョウヤマグチ","prefecture_code":32}}