{"0102":{"zip_code":"6950102","prefecture":"島根県","prefecture_kana":"シマネケン","city":"浜田市","city_kana":"ハマダシ","town":"宇野町","town_kana":"ウノチョウ","prefecture_code":32},"0103":{"zip_code":"6950103","prefecture":"島根県","prefecture_kana":"シマネケン","city":"浜田市","city_kana":"ハマダシ","town":"大金町","town_kana":"オオガネチョウ","prefecture_code":32},"0101":{"zip_code":"6950101","prefecture":"島根県","prefecture_kana":"シマネケン","city":"浜田市","city_kana":"ハマダシ","town":"下有福町","town_kana":"シモアリフクチョウ","prefecture_code":32},"0000":{"zip_code":"6950000","prefecture":"島根県","prefecture_kana":"シマネケン","city":"江津市","city_kana":"ゴウツシ","town":"以下に掲載がない場合","town_kana":"イカニケイサイガナイバアイ","prefecture_code":32},"0002":{"zip_code":"6950002","prefecture":"島根県","prefecture_kana":"シマネケン","city":"江津市","city_kana":"ゴウツシ","town":"浅利町","town_kana":"アサリチョウ","prefecture_code":32},"0152":{"zip_code":"6950152","prefecture":"島根県","prefecture_kana":"シマネケン","city":"江津市","city_kana":"ゴウツシ","town":"跡市町","town_kana":"アトイチチョウ","prefecture_code":32},"0156":{"zip_code":"6950156","prefecture":"島根県","prefecture_kana":"シマネケン","city":"江津市","city_kana":"ゴウツシ","town":"有福温泉町","town_kana":"アリフクオンセンチョウ","prefecture_code":32},"0155":{"zip_code":"6950155","prefecture":"島根県","prefecture_kana":"シマネケン","city":"江津市","city_kana":"ゴウツシ","town":"有福温泉町本明","town_kana":"アリフクオンセンチョウホンミョウ","prefecture_code":32},"0154":{"zip_code":"6950154","prefecture":"島根県","prefecture_kana":"シマネケン","city":"江津市","city_kana":"ゴウツシ","town":"井沢町","town_kana":"イソウチョウ","prefecture_code":32},"0016":{"zip_code":"6950016","prefecture":"島根県","prefecture_kana":"シマネケン","city":"江津市","city_kana":"ゴウツシ","town":"嘉久志町","town_kana":"カクシチョウ","prefecture_code":32},"0012":{"zip_code":"6950012","prefecture":"島根県","prefecture_kana":"シマネケン","city":"江津市","city_kana":"ゴウツシ","town":"金田町","town_kana":"カネタチョウ","prefecture_code":32},"0014":{"zip_code":"6950014","prefecture":"島根県","prefecture_kana":"シマネケン","city":"江津市","city_kana":"ゴウツシ","town":"川平町平田","town_kana":"カワヒラチョウヒラタ","prefecture_code":32},"0013":{"zip_code":"6950013","prefecture":"島根県","prefecture_kana":"シマネケン","city":"江津市","city_kana":"ゴウツシ","town":"川平町南川上","town_kana":"カワヒラチョウミナミカワノボリ","prefecture_code":32},"0011":{"zip_code":"6950011","prefecture":"島根県","prefecture_kana":"シマネケン","city":"江津市","city_kana":"ゴウツシ","town":"江津町","town_kana":"ゴウツチョウ","prefecture_code":32},"0015":{"zip_code":"6950015","prefecture":"島根県","prefecture_kana":"シマネケン","city":"江津市","city_kana":"ゴウツシ","town":"島の星町","town_kana":"シマノホシチョウ","prefecture_code":32},"0153":{"zip_code":"6950153","prefecture":"島根県","prefecture_kana":"シマネケン","city":"江津市","city_kana":"ゴウツシ","town":"清見町","town_kana":"セイミチョウ","prefecture_code":32},"0151":{"zip_code":"6950151","prefecture":"島根県","prefecture_kana":"シマネケン","city":"江津市","city_kana":"ゴウツシ","town":"千田町","town_kana":"チダチョウ","prefecture_code":32},"0021":{"zip_code":"6950021","prefecture":"島根県","prefecture_kana":"シマネケン","city":"江津市","city_kana":"ゴウツシ","town":"都野津町","town_kana":"ツノヅチョウ","prefecture_code":32},"0023":{"zip_code":"6950023","prefecture":"島根県","prefecture_kana":"シマネケン","city":"江津市","city_kana":"ゴウツシ","town":"二宮町神村","town_kana":"ニノミヤチョウカムラ","prefecture_code":32},"0024":{"zip_code":"6950024","prefecture":"島根県","prefecture_kana":"シマネケン","city":"江津市","city_kana":"ゴウツシ","town":"二宮町神主","town_kana":"ニノミヤチョウカンヌシ","prefecture_code":32},"0022":{"zip_code":"6950022","prefecture":"島根県","prefecture_kana":"シマネケン","city":"江津市","city_kana":"ゴウツシ","town":"二宮町羽代","town_kana":"ニノミヤチョウハシロ","prefecture_code":32},"0004":{"zip_code":"6950004","prefecture":"島根県","prefecture_kana":"シマネケン","city":"江津市","city_kana":"ゴウツシ","town":"松川町市村","town_kana":"マツカワチョウイチムラ","prefecture_code":32},"0007":{"zip_code":"6950007","prefecture":"島根県","prefecture_kana":"シマネケン","city":"江津市","city_kana":"ゴウツシ","town":"松川町太田","town_kana":"マツカワチョウオオタ","prefecture_code":32},"0003":{"zip_code":"6950003","prefecture":"島根県","prefecture_kana":"シマネケン","city":"江津市","city_kana":"ゴウツシ","town":"松川町下河戸","town_kana":"マツカワチョウシモカワド","prefecture_code":32},"0005":{"zip_code":"6950005","prefecture":"島根県","prefecture_kana":"シマネケン","city":"江津市","city_kana":"ゴウツシ","town":"松川町長良","town_kana":"マツカワチョウナガラ","prefecture_code":32},"0006":{"zip_code":"6950006","prefecture":"島根県","prefecture_kana":"シマネケン","city":"江津市","city_kana":"ゴウツシ","town":"松川町八神","town_kana":"マツカワチョウヤカミ","prefecture_code":32},"0017":{"zip_code":"6950017","prefecture":"島根県","prefecture_kana":"シマネケン","city":"江津市","city_kana":"ゴウツシ","town":"和木町","town_kana":"ワキチョウ","prefecture_code":32},"0001":{"zip_code":"6950001","prefecture":"島根県","prefecture_kana":"シマネケン","city":"江津市","city_kana":"ゴウツシ","town":"渡津町","town_kana":"ワタヅチョウ","prefecture_code":32}}