{"0000":{"zip_code":"6960000","prefecture":"島根県","prefecture_kana":"シマネケン","city":"邑智郡川本町","city_kana":"オオチグンカワモトマチ","town":"","town_kana":"","prefecture_code":32},"0003":{"zip_code":"6960003","prefecture":"島根県","prefecture_kana":"シマネケン","city":"邑智郡川本町","city_kana":"オオチグンカワモトマチ","town":"因原","town_kana":"インバラ","prefecture_code":32},"0011":{"zip_code":"6960011","prefecture":"島根県","prefecture_kana":"シマネケン","city":"邑智郡川本町","city_kana":"オオチグンカワモトマチ","town":"川内","town_kana":"カワウチ","prefecture_code":32},"0004":{"zip_code":"6960004","prefecture":"島根県","prefecture_kana":"シマネケン","city":"邑智郡川本町","city_kana":"オオチグンカワモトマチ","town":"川下","town_kana":"カワクダリ","prefecture_code":32},"0001":{"zip_code":"6960001","prefecture":"島根県","prefecture_kana":"シマネケン","city":"邑智郡川本町","city_kana":"オオチグンカワモトマチ","town":"川本","town_kana":"カワモト","prefecture_code":32},"1221":{"zip_code":"6961221","prefecture":"島根県","prefecture_kana":"シマネケン","city":"邑智郡川本町","city_kana":"オオチグンカワモトマチ","town":"北佐木","town_kana":"キタサキ","prefecture_code":32},"0006":{"zip_code":"6960006","prefecture":"島根県","prefecture_kana":"シマネケン","city":"邑智郡川本町","city_kana":"オオチグンカワモトマチ","town":"久座仁","town_kana":"クザニ","prefecture_code":32},"0012":{"zip_code":"6960012","prefecture":"島根県","prefecture_kana":"シマネケン","city":"邑智郡川本町","city_kana":"オオチグンカワモトマチ","town":"小谷","town_kana":"コタニ","prefecture_code":32},"1226":{"zip_code":"6961226","prefecture":"島根県","prefecture_kana":"シマネケン","city":"邑智郡川本町","city_kana":"オオチグンカワモトマチ","town":"田窪","town_kana":"タクボ","prefecture_code":32},"0007":{"zip_code":"6960007","prefecture":"島根県","prefecture_kana":"シマネケン","city":"邑智郡川本町","city_kana":"オオチグンカワモトマチ","town":"多田","town_kana":"タタ","prefecture_code":32},"0005":{"zip_code":"6960005","prefecture":"島根県","prefecture_kana":"シマネケン","city":"邑智郡川本町","city_kana":"オオチグンカワモトマチ","town":"谷戸","town_kana":"タンド","prefecture_code":32},"0002":{"zip_code":"6960002","prefecture":"島根県","prefecture_kana":"シマネケン","city":"邑智郡川本町","city_kana":"オオチグンカワモトマチ","town":"都賀行","town_kana":"ツガユキ","prefecture_code":32},"0013":{"zip_code":"6960013","prefecture":"島根県","prefecture_kana":"シマネケン","city":"邑智郡川本町","city_kana":"オオチグンカワモトマチ","town":"馬野原","town_kana":"マノハラ","prefecture_code":32},"1225":{"zip_code":"6961225","prefecture":"島根県","prefecture_kana":"シマネケン","city":"邑智郡川本町","city_kana":"オオチグンカワモトマチ","town":"南佐木","town_kana":"ミナミサキ","prefecture_code":32},"1224":{"zip_code":"6961224","prefecture":"島根県","prefecture_kana":"シマネケン","city":"邑智郡川本町","city_kana":"オオチグンカワモトマチ","town":"三原","town_kana":"ミハラ","prefecture_code":32},"1223":{"zip_code":"6961223","prefecture":"島根県","prefecture_kana":"シマネケン","city":"邑智郡川本町","city_kana":"オオチグンカワモトマチ","town":"三俣","town_kana":"ミマタ","prefecture_code":32},"1222":{"zip_code":"6961222","prefecture":"島根県","prefecture_kana":"シマネケン","city":"邑智郡川本町","city_kana":"オオチグンカワモトマチ","town":"湯谷","town_kana":"ユダニ","prefecture_code":32},"0701":{"zip_code":"6960701","prefecture":"島根県","prefecture_kana":"シマネケン","city":"邑智郡美郷町","city_kana":"オオチグンミサトチョウ","town":"潮村","town_kana":"ウシオムラ","prefecture_code":32},"1136":{"zip_code":"6961136","prefecture":"島根県","prefecture_kana":"シマネケン","city":"邑智郡美郷町","city_kana":"オオチグンミサトチョウ","town":"内田","town_kana":"ウチダ","prefecture_code":32},"1137":{"zip_code":"6961137","prefecture":"島根県","prefecture_kana":"シマネケン","city":"邑智郡美郷町","city_kana":"オオチグンミサトチョウ","town":"櫨谷","town_kana":"カタラガイ","prefecture_code":32},"0702":{"zip_code":"6960702","prefecture":"島根県","prefecture_kana":"シマネケン","city":"邑智郡美郷町","city_kana":"オオチグンミサトチョウ","town":"上野","town_kana":"カミノ","prefecture_code":32},"1141":{"zip_code":"6961141","prefecture":"島根県","prefecture_kana":"シマネケン","city":"邑智郡美郷町","city_kana":"オオチグンミサトチョウ","town":"京覧原","town_kana":"キョランバラ","prefecture_code":32},"1142":{"zip_code":"6961142","prefecture":"島根県","prefecture_kana":"シマネケン","city":"邑智郡美郷町","city_kana":"オオチグンミサトチョウ","town":"久喜原","town_kana":"クキバラ","prefecture_code":32},"1144":{"zip_code":"6961144","prefecture":"島根県","prefecture_kana":"シマネケン","city":"邑智郡美郷町","city_kana":"オオチグンミサトチョウ","town":"小谷","town_kana":"コタニ","prefecture_code":32},"1133":{"zip_code":"6961133","prefecture":"島根県","prefecture_kana":"シマネケン","city":"邑智郡美郷町","city_kana":"オオチグンミサトチョウ","town":"小林","town_kana":"コバヤシ","prefecture_code":32},"1135":{"zip_code":"6961135","prefecture":"島根県","prefecture_kana":"シマネケン","city":"邑智郡美郷町","city_kana":"オオチグンミサトチョウ","town":"小松地","town_kana":"コマツジ","prefecture_code":32},"1132":{"zip_code":"6961132","prefecture":"島根県","prefecture_kana":"シマネケン","city":"邑智郡美郷町","city_kana":"オオチグンミサトチョウ","town":"志君","town_kana":"シギミ","prefecture_code":32},"1143":{"zip_code":"6961143","prefecture":"島根県","prefecture_kana":"シマネケン","city":"邑智郡美郷町","city_kana":"オオチグンミサトチョウ","town":"地頭所","town_kana":"ジトウショ","prefecture_code":32},"1134":{"zip_code":"6961134","prefecture":"島根県","prefecture_kana":"シマネケン","city":"邑智郡美郷町","city_kana":"オオチグンミサトチョウ","town":"惣森","town_kana":"ソウモリ","prefecture_code":32},"0703":{"zip_code":"6960703","prefecture":"島根県","prefecture_kana":"シマネケン","city":"邑智郡美郷町","city_kana":"オオチグンミサトチョウ","town":"都賀西","town_kana":"ツガニシ","prefecture_code":32},"0704":{"zip_code":"6960704","prefecture":"島根県","prefecture_kana":"シマネケン","city":"邑智郡美郷町","city_kana":"オオチグンミサトチョウ","town":"都賀本郷","town_kana":"ツガホンゴウ","prefecture_code":32},"0705":{"zip_code":"6960705","prefecture":"島根県","prefecture_kana":"シマネケン","city":"邑智郡美郷町","city_kana":"オオチグンミサトチョウ","town":"都賀行","town_kana":"ツガユキ","prefecture_code":32},"0706":{"zip_code":"6960706","prefecture":"島根県","prefecture_kana":"シマネケン","city":"邑智郡美郷町","city_kana":"オオチグンミサトチョウ","town":"長藤","town_kana":"ナガトウ","prefecture_code":32},"0712":{"zip_code":"6960712","prefecture":"島根県","prefecture_kana":"シマネケン","city":"邑智郡美郷町","city_kana":"オオチグンミサトチョウ","town":"比敷","town_kana":"ヒジキ","prefecture_code":32},"1131":{"zip_code":"6961131","prefecture":"島根県","prefecture_kana":"シマネケン","city":"邑智郡美郷町","city_kana":"オオチグンミサトチョウ","town":"別府","town_kana":"ベップ","prefecture_code":32},"1145":{"zip_code":"6961145","prefecture":"島根県","prefecture_kana":"シマネケン","city":"邑智郡美郷町","city_kana":"オオチグンミサトチョウ","town":"港","town_kana":"ミナト","prefecture_code":32},"0711":{"zip_code":"6960711","prefecture":"島根県","prefecture_kana":"シマネケン","city":"邑智郡美郷町","city_kana":"オオチグンミサトチョウ","town":"宮内","town_kana":"ミヤウチ","prefecture_code":32},"0713":{"zip_code":"6960713","prefecture":"島根県","prefecture_kana":"シマネケン","city":"邑智郡美郷町","city_kana":"オオチグンミサトチョウ","town":"村之郷","town_kana":"ムラノゴウ","prefecture_code":32},"0100":{"zip_code":"6960100","prefecture":"島根県","prefecture_kana":"シマネケン","city":"邑智郡邑南町","city_kana":"オオチグンオオナンチョウ","town":"","town_kana":"","prefecture_code":32},"0501":{"zip_code":"6960501","prefecture":"島根県","prefecture_kana":"シマネケン","city":"邑智郡邑南町","city_kana":"オオチグンオオナンチョウ","town":"阿須那","town_kana":"アスナ","prefecture_code":32},"0312":{"zip_code":"6960312","prefecture":"島根県","prefecture_kana":"シマネケン","city":"邑智郡邑南町","city_kana":"オオチグンオオナンチョウ","town":"出羽","town_kana":"イズハ","prefecture_code":32},"0101":{"zip_code":"6960101","prefecture":"島根県","prefecture_kana":"シマネケン","city":"邑智郡邑南町","city_kana":"オオチグンオオナンチョウ","town":"井原","town_kana":"イバラ","prefecture_code":32},"0504":{"zip_code":"6960504","prefecture":"島根県","prefecture_kana":"シマネケン","city":"邑智郡邑南町","city_kana":"オオチグンオオナンチョウ","town":"今井","town_kana":"イマイ","prefecture_code":32},"0314":{"zip_code":"6960314","prefecture":"島根県","prefecture_kana":"シマネケン","city":"邑智郡邑南町","city_kana":"オオチグンオオナンチョウ","town":"岩屋","town_kana":"イワヤ","prefecture_code":32},"0601":{"zip_code":"6960601","prefecture":"島根県","prefecture_kana":"シマネケン","city":"邑智郡邑南町","city_kana":"オオチグンオオナンチョウ","town":"上田","town_kana":"ウエダ","prefecture_code":32},"0503":{"zip_code":"6960503","prefecture":"島根県","prefecture_kana":"シマネケン","city":"邑智郡邑南町","city_kana":"オオチグンオオナンチョウ","town":"宇都井","town_kana":"ウヅイ","prefecture_code":32},"0315":{"zip_code":"6960315","prefecture":"島根県","prefecture_kana":"シマネケン","city":"邑智郡邑南町","city_kana":"オオチグンオオナンチョウ","town":"大林","town_kana":"オオバヤシ","prefecture_code":32},"0224":{"zip_code":"6960224","prefecture":"島根県","prefecture_kana":"シマネケン","city":"邑智郡邑南町","city_kana":"オオチグンオオナンチョウ","town":"上亀谷","town_kana":"カミカメダニ","prefecture_code":32},"0602":{"zip_code":"6960602","prefecture":"島根県","prefecture_kana":"シマネケン","city":"邑智郡邑南町","city_kana":"オオチグンオオナンチョウ","town":"上口羽","town_kana":"カミクチバ","prefecture_code":32},"0225":{"zip_code":"6960225","prefecture":"島根県","prefecture_kana":"シマネケン","city":"邑智郡邑南町","city_kana":"オオチグンオオナンチョウ","town":"上田所","town_kana":"カミタドコロ","prefecture_code":32},"0405":{"zip_code":"6960405","prefecture":"島根県","prefecture_kana":"シマネケン","city":"邑智郡邑南町","city_kana":"オオチグンオオナンチョウ","town":"上原","town_kana":"カミハラ","prefecture_code":32},"0502":{"zip_code":"6960502","prefecture":"島根県","prefecture_kana":"シマネケン","city":"邑智郡邑南町","city_kana":"オオチグンオオナンチョウ","town":"木須田","town_kana":"キズタ","prefecture_code":32},"0316":{"zip_code":"6960316","prefecture":"島根県","prefecture_kana":"シマネケン","city":"邑智郡邑南町","city_kana":"オオチグンオオナンチョウ","town":"久喜","town_kana":"クキ","prefecture_code":32},"0131":{"zip_code":"6960131","prefecture":"島根県","prefecture_kana":"シマネケン","city":"邑智郡邑南町","city_kana":"オオチグンオオナンチョウ","town":"高水","town_kana":"コウズイ","prefecture_code":32},"0223":{"zip_code":"6960223","prefecture":"島根県","prefecture_kana":"シマネケン","city":"邑智郡邑南町","city_kana":"オオチグンオオナンチョウ","town":"下亀谷","town_kana":"シモカメダニ","prefecture_code":32},"0603":{"zip_code":"6960603","prefecture":"島根県","prefecture_kana":"シマネケン","city":"邑智郡邑南町","city_kana":"オオチグンオオナンチョウ","town":"下口羽","town_kana":"シモクチバ","prefecture_code":32},"0222":{"zip_code":"6960222","prefecture":"島根県","prefecture_kana":"シマネケン","city":"邑智郡邑南町","city_kana":"オオチグンオオナンチョウ","town":"下田所","town_kana":"シモタドコロ","prefecture_code":32},"0406":{"zip_code":"6960406","prefecture":"島根県","prefecture_kana":"シマネケン","city":"邑智郡邑南町","city_kana":"オオチグンオオナンチョウ","town":"高見","town_kana":"タカミ","prefecture_code":32},"0505":{"zip_code":"6960505","prefecture":"島根県","prefecture_kana":"シマネケン","city":"邑智郡邑南町","city_kana":"オオチグンオオナンチョウ","town":"戸河内","town_kana":"トガウチ","prefecture_code":32},"0102":{"zip_code":"6960102","prefecture":"島根県","prefecture_kana":"シマネケン","city":"邑智郡邑南町","city_kana":"オオチグンオオナンチョウ","town":"中野","town_kana":"ナカノ","prefecture_code":32},"0404":{"zip_code":"6960404","prefecture":"島根県","prefecture_kana":"シマネケン","city":"邑智郡邑南町","city_kana":"オオチグンオオナンチョウ","town":"原村","town_kana":"ハラムラ","prefecture_code":32},"0104":{"zip_code":"6960104","prefecture":"島根県","prefecture_kana":"シマネケン","city":"邑智郡邑南町","city_kana":"オオチグンオオナンチョウ","town":"日和","town_kana":"ヒワ","prefecture_code":32},"0402":{"zip_code":"6960402","prefecture":"島根県","prefecture_kana":"シマネケン","city":"邑智郡邑南町","city_kana":"オオチグンオオナンチョウ","town":"伏谷","town_kana":"フシタニ","prefecture_code":32},"0401":{"zip_code":"6960401","prefecture":"島根県","prefecture_kana":"シマネケン","city":"邑智郡邑南町","city_kana":"オオチグンオオナンチョウ","town":"布施","town_kana":"フセ","prefecture_code":32},"0221":{"zip_code":"6960221","prefecture":"島根県","prefecture_kana":"シマネケン","city":"邑智郡邑南町","city_kana":"オオチグンオオナンチョウ","town":"鱒渕","town_kana":"マスブチ","prefecture_code":32},"0311":{"zip_code":"6960311","prefecture":"島根県","prefecture_kana":"シマネケン","city":"邑智郡邑南町","city_kana":"オオチグンオオナンチョウ","town":"三日市","town_kana":"ミッカイチ","prefecture_code":32},"0407":{"zip_code":"6960407","prefecture":"島根県","prefecture_kana":"シマネケン","city":"邑智郡邑南町","city_kana":"オオチグンオオナンチョウ","town":"八色石","town_kana":"ヤイロイシ","prefecture_code":32},"0103":{"zip_code":"6960103","prefecture":"島根県","prefecture_kana":"シマネケン","city":"邑智郡邑南町","city_kana":"オオチグンオオナンチョウ","town":"矢上","town_kana":"ヤカミ","prefecture_code":32},"0313":{"zip_code":"6960313","prefecture":"島根県","prefecture_kana":"シマネケン","city":"邑智郡邑南町","city_kana":"オオチグンオオナンチョウ","town":"山田","town_kana":"ヤマダ","prefecture_code":32},"0506":{"zip_code":"6960506","prefecture":"島根県","prefecture_kana":"シマネケン","city":"邑智郡邑南町","city_kana":"オオチグンオオナンチョウ","town":"雪田","town_kana":"ユキタ","prefecture_code":32},"0317":{"zip_code":"6960317","prefecture":"島根県","prefecture_kana":"シマネケン","city":"邑智郡邑南町","city_kana":"オオチグンオオナンチョウ","town":"淀原","town_kana":"ヨドハラ","prefecture_code":32},"0403":{"zip_code":"6960403","prefecture":"島根県","prefecture_kana":"シマネケン","city":"邑智郡邑南町","city_kana":"オオチグンオオナンチョウ","town":"和田","town_kana":"ワダ","prefecture_code":32}}