{"0000":{"zip_code":"6970000","prefecture":"島根県","prefecture_kana":"シマネケン","city":"浜田市","city_kana":"ハマダシ","town":"","town_kana":"","prefecture_code":32},"0034":{"zip_code":"6970034","prefecture":"島根県","prefecture_kana":"シマネケン","city":"浜田市","city_kana":"ハマダシ","town":"相生町","town_kana":"アイオイチョウ","prefecture_code":32},"0022":{"zip_code":"6970022","prefecture":"島根県","prefecture_kana":"シマネケン","city":"浜田市","city_kana":"ハマダシ","town":"浅井町","town_kana":"アサイチョウ","prefecture_code":32},"0514":{"zip_code":"6970514","prefecture":"島根県","prefecture_kana":"シマネケン","city":"浜田市","city_kana":"ハマダシ","town":"旭町市木","town_kana":"アサヒチョウイチギ","prefecture_code":32},"0425":{"zip_code":"6970425","prefecture":"島根県","prefecture_kana":"シマネケン","city":"浜田市","city_kana":"ハマダシ","town":"旭町今市","town_kana":"アサヒチョウイマイチ","prefecture_code":32},"0427":{"zip_code":"6970427","prefecture":"島根県","prefecture_kana":"シマネケン","city":"浜田市","city_kana":"ハマダシ","town":"旭町木田","town_kana":"アサヒチョウキタ","prefecture_code":32},"0512":{"zip_code":"6970512","prefecture":"島根県","prefecture_kana":"シマネケン","city":"浜田市","city_kana":"ハマダシ","town":"旭町来尾","town_kana":"アサヒチョウキタオ","prefecture_code":32},"0513":{"zip_code":"6970513","prefecture":"島根県","prefecture_kana":"シマネケン","city":"浜田市","city_kana":"ハマダシ","town":"旭町坂本","town_kana":"アサヒチョウサカモト","prefecture_code":32},"0431":{"zip_code":"6970431","prefecture":"島根県","prefecture_kana":"シマネケン","city":"浜田市","city_kana":"ハマダシ","town":"旭町坂本","town_kana":"アサヒチョウサカモト","prefecture_code":32},"0423":{"zip_code":"6970423","prefecture":"島根県","prefecture_kana":"シマネケン","city":"浜田市","city_kana":"ハマダシ","town":"旭町重富","town_kana":"アサヒチョウシゲトミ","prefecture_code":32},"0511":{"zip_code":"6970511","prefecture":"島根県","prefecture_kana":"シマネケン","city":"浜田市","city_kana":"ハマダシ","town":"旭町都川","town_kana":"アサヒチョウツカワ","prefecture_code":32},"0422":{"zip_code":"6970422","prefecture":"島根県","prefecture_kana":"シマネケン","city":"浜田市","city_kana":"ハマダシ","town":"旭町本郷","town_kana":"アサヒチョウホンゴウ","prefecture_code":32},"0426":{"zip_code":"6970426","prefecture":"島根県","prefecture_kana":"シマネケン","city":"浜田市","city_kana":"ハマダシ","town":"旭町丸原","town_kana":"アサヒチョウマルバラ","prefecture_code":32},"0421":{"zip_code":"6970421","prefecture":"島根県","prefecture_kana":"シマネケン","city":"浜田市","city_kana":"ハマダシ","town":"旭町山ノ内","town_kana":"アサヒチョウヤマノウチ","prefecture_code":32},"0424":{"zip_code":"6970424","prefecture":"島根県","prefecture_kana":"シマネケン","city":"浜田市","city_kana":"ハマダシ","town":"旭町和田","town_kana":"アサヒチョウワダ","prefecture_code":32},"0033":{"zip_code":"6970033","prefecture":"島根県","prefecture_kana":"シマネケン","city":"浜田市","city_kana":"ハマダシ","town":"朝日町","town_kana":"アサヒマチ","prefecture_code":32},"0062":{"zip_code":"6970062","prefecture":"島根県","prefecture_kana":"シマネケン","city":"浜田市","city_kana":"ハマダシ","town":"熱田町","town_kana":"アツタチョウ","prefecture_code":32},"1334":{"zip_code":"6971334","prefecture":"島根県","prefecture_kana":"シマネケン","city":"浜田市","city_kana":"ハマダシ","town":"櫟田原町","town_kana":"イチイタバラチョウ","prefecture_code":32},"1335":{"zip_code":"6971335","prefecture":"島根県","prefecture_kana":"シマネケン","city":"浜田市","city_kana":"ハマダシ","town":"井野町","town_kana":"イノチョウ","prefecture_code":32},"0032":{"zip_code":"6970032","prefecture":"島根県","prefecture_kana":"シマネケン","city":"浜田市","city_kana":"ハマダシ","town":"牛市町","town_kana":"ウシイチチョウ","prefecture_code":32},"0011":{"zip_code":"6970011","prefecture":"島根県","prefecture_kana":"シマネケン","city":"浜田市","city_kana":"ハマダシ","town":"後野町","town_kana":"ウシロノチョウ","prefecture_code":32},"0064":{"zip_code":"6970064","prefecture":"島根県","prefecture_kana":"シマネケン","city":"浜田市","city_kana":"ハマダシ","town":"内田町","town_kana":"ウチダチョウ","prefecture_code":32},"1323":{"zip_code":"6971323","prefecture":"島根県","prefecture_kana":"シマネケン","city":"浜田市","city_kana":"ハマダシ","town":"内田町","town_kana":"ウチダチョウ","prefecture_code":32},"0312":{"zip_code":"6970312","prefecture":"島根県","prefecture_kana":"シマネケン","city":"浜田市","city_kana":"ハマダシ","town":"宇津井町","town_kana":"ウツイチョウ","prefecture_code":32},"0002":{"zip_code":"6970002","prefecture":"島根県","prefecture_kana":"シマネケン","city":"浜田市","city_kana":"ハマダシ","town":"生湯町","town_kana":"ウブユチョウ","prefecture_code":32},"0044":{"zip_code":"6970044","prefecture":"島根県","prefecture_kana":"シマネケン","city":"浜田市","city_kana":"ハマダシ","town":"蛭子町","town_kana":"エビスチョウ","prefecture_code":32},"0053":{"zip_code":"6970053","prefecture":"島根県","prefecture_kana":"シマネケン","city":"浜田市","city_kana":"ハマダシ","town":"大辻町","town_kana":"オオツジチョウ","prefecture_code":32},"1338":{"zip_code":"6971338","prefecture":"島根県","prefecture_kana":"シマネケン","city":"浜田市","city_kana":"ハマダシ","town":"折居町","town_kana":"オリイチョウ","prefecture_code":32},"0061":{"zip_code":"6970061","prefecture":"島根県","prefecture_kana":"シマネケン","city":"浜田市","city_kana":"ハマダシ","town":"笠柄町","town_kana":"カサガラチョウ","prefecture_code":32},"0041":{"zip_code":"6970041","prefecture":"島根県","prefecture_kana":"シマネケン","city":"浜田市","city_kana":"ハマダシ","town":"片庭町","town_kana":"カタニワチョウ","prefecture_code":32},"0302":{"zip_code":"6970302","prefecture":"島根県","prefecture_kana":"シマネケン","city":"浜田市","city_kana":"ハマダシ","town":"金城町今福","town_kana":"カナギチョウイマフク","prefecture_code":32},"0305":{"zip_code":"6970305","prefecture":"島根県","prefecture_kana":"シマネケン","city":"浜田市","city_kana":"ハマダシ","town":"金城町入野","town_kana":"カナギチョウイリノ","prefecture_code":32},"0304":{"zip_code":"6970304","prefecture":"島根県","prefecture_kana":"シマネケン","city":"浜田市","city_kana":"ハマダシ","town":"金城町宇津井","town_kana":"カナギチョウウツイ","prefecture_code":32},"0301":{"zip_code":"6970301","prefecture":"島根県","prefecture_kana":"シマネケン","city":"浜田市","city_kana":"ハマダシ","town":"金城町追原","town_kana":"カナギチョウオイバラ","prefecture_code":32},"0213":{"zip_code":"6970213","prefecture":"島根県","prefecture_kana":"シマネケン","city":"浜田市","city_kana":"ハマダシ","town":"金城町小国","town_kana":"カナギチョウオグニ","prefecture_code":32},"0122":{"zip_code":"6970122","prefecture":"島根県","prefecture_kana":"シマネケン","city":"浜田市","city_kana":"ハマダシ","town":"金城町上来原","town_kana":"カナギチョウカミクルバラ","prefecture_code":32},"0303":{"zip_code":"6970303","prefecture":"島根県","prefecture_kana":"シマネケン","city":"浜田市","city_kana":"ハマダシ","town":"金城町久佐","town_kana":"カナギチョウクザ","prefecture_code":32},"0123":{"zip_code":"6970123","prefecture":"島根県","prefecture_kana":"シマネケン","city":"浜田市","city_kana":"ハマダシ","town":"金城町七条","town_kana":"カナギチョウシチジョウ","prefecture_code":32},"0121":{"zip_code":"6970121","prefecture":"島根県","prefecture_kana":"シマネケン","city":"浜田市","city_kana":"ハマダシ","town":"金城町下来原","town_kana":"カナギチョウシモクルバラ","prefecture_code":32},"0212":{"zip_code":"6970212","prefecture":"島根県","prefecture_kana":"シマネケン","city":"浜田市","city_kana":"ハマダシ","town":"金城町長田","town_kana":"カナギチョウナガタ","prefecture_code":32},"0211":{"zip_code":"6970211","prefecture":"島根県","prefecture_kana":"シマネケン","city":"浜田市","city_kana":"ハマダシ","town":"金城町波佐","town_kana":"カナギチョウハザ","prefecture_code":32},"0005":{"zip_code":"6970005","prefecture":"島根県","prefecture_kana":"シマネケン","city":"浜田市","city_kana":"ハマダシ","town":"上府町","town_kana":"カミコウチョウ","prefecture_code":32},"0045":{"zip_code":"6970045","prefecture":"島根県","prefecture_kana":"シマネケン","city":"浜田市","city_kana":"ハマダシ","town":"京町","town_kana":"キョウマチ","prefecture_code":32},"0004":{"zip_code":"6970004","prefecture":"島根県","prefecture_kana":"シマネケン","city":"浜田市","city_kana":"ハマダシ","town":"久代町","town_kana":"クシロチョウ","prefecture_code":32},"0024":{"zip_code":"6970024","prefecture":"島根県","prefecture_kana":"シマネケン","city":"浜田市","city_kana":"ハマダシ","town":"黒川町","town_kana":"クロカワチョウ","prefecture_code":32},"0007":{"zip_code":"6970007","prefecture":"島根県","prefecture_kana":"シマネケン","city":"浜田市","city_kana":"ハマダシ","town":"高佐町","town_kana":"コウサチョウ","prefecture_code":32},"0012":{"zip_code":"6970012","prefecture":"島根県","prefecture_kana":"シマネケン","city":"浜田市","city_kana":"ハマダシ","town":"河内町","town_kana":"コウチチョウ","prefecture_code":32},"0003":{"zip_code":"6970003","prefecture":"島根県","prefecture_kana":"シマネケン","city":"浜田市","city_kana":"ハマダシ","town":"国分町","town_kana":"コクブチョウ","prefecture_code":32},"0031":{"zip_code":"6970031","prefecture":"島根県","prefecture_kana":"シマネケン","city":"浜田市","city_kana":"ハマダシ","town":"紺屋町","town_kana":"コンヤマチ","prefecture_code":32},"0043":{"zip_code":"6970043","prefecture":"島根県","prefecture_kana":"シマネケン","city":"浜田市","city_kana":"ハマダシ","town":"栄町","town_kana":"サカエマチ","prefecture_code":32},"0311":{"zip_code":"6970311","prefecture":"島根県","prefecture_kana":"シマネケン","city":"浜田市","city_kana":"ハマダシ","town":"佐野町","town_kana":"サノチョウ","prefecture_code":32},"0013":{"zip_code":"6970013","prefecture":"島根県","prefecture_kana":"シマネケン","city":"浜田市","city_kana":"ハマダシ","town":"三階町","town_kana":"サンガイチョウ","prefecture_code":32},"0047":{"zip_code":"6970047","prefecture":"島根県","prefecture_kana":"シマネケン","city":"浜田市","city_kana":"ハマダシ","town":"清水町","town_kana":"シミズチョウ","prefecture_code":32},"0006":{"zip_code":"6970006","prefecture":"島根県","prefecture_kana":"シマネケン","city":"浜田市","city_kana":"ハマダシ","town":"下府町","town_kana":"シモコウチョウ","prefecture_code":32},"0046":{"zip_code":"6970046","prefecture":"島根県","prefecture_kana":"シマネケン","city":"浜田市","city_kana":"ハマダシ","town":"真光町","town_kana":"シンコウチョウ","prefecture_code":32},"0037":{"zip_code":"6970037","prefecture":"島根県","prefecture_kana":"シマネケン","city":"浜田市","city_kana":"ハマダシ","town":"新町","town_kana":"シンマチ","prefecture_code":32},"0035":{"zip_code":"6970035","prefecture":"島根県","prefecture_kana":"シマネケン","city":"浜田市","city_kana":"ハマダシ","town":"杉戸町","town_kana":"スギドチョウ","prefecture_code":32},"1321":{"zip_code":"6971321","prefecture":"島根県","prefecture_kana":"シマネケン","city":"浜田市","city_kana":"ハマダシ","town":"周布町","town_kana":"スフチョウ","prefecture_code":32},"0051":{"zip_code":"6970051","prefecture":"島根県","prefecture_kana":"シマネケン","city":"浜田市","city_kana":"ハマダシ","town":"瀬戸ケ島町","town_kana":"セトガシマチョウ","prefecture_code":32},"0057":{"zip_code":"6970057","prefecture":"島根県","prefecture_kana":"シマネケン","city":"浜田市","city_kana":"ハマダシ","town":"瀬戸見町","town_kana":"セトミチョウ","prefecture_code":32},"0054":{"zip_code":"6970054","prefecture":"島根県","prefecture_kana":"シマネケン","city":"浜田市","city_kana":"ハマダシ","town":"高田町","town_kana":"タカタチョウ","prefecture_code":32},"0015":{"zip_code":"6970015","prefecture":"島根県","prefecture_kana":"シマネケン","city":"浜田市","city_kana":"ハマダシ","town":"竹迫町","town_kana":"タケザコチョウ","prefecture_code":32},"1332":{"zip_code":"6971332","prefecture":"島根県","prefecture_kana":"シマネケン","city":"浜田市","city_kana":"ハマダシ","town":"田橋町","town_kana":"タバセチョウ","prefecture_code":32},"0026":{"zip_code":"6970026","prefecture":"島根県","prefecture_kana":"シマネケン","city":"浜田市","city_kana":"ハマダシ","town":"田町","town_kana":"タマチ","prefecture_code":32},"1326":{"zip_code":"6971326","prefecture":"島根県","prefecture_kana":"シマネケン","city":"浜田市","city_kana":"ハマダシ","town":"治和町","town_kana":"チワチョウ","prefecture_code":32},"1327":{"zip_code":"6971327","prefecture":"島根県","prefecture_kana":"シマネケン","city":"浜田市","city_kana":"ハマダシ","town":"津摩町","town_kana":"ツマチョウ","prefecture_code":32},"0036":{"zip_code":"6970036","prefecture":"島根県","prefecture_kana":"シマネケン","city":"浜田市","city_kana":"ハマダシ","town":"天満町","town_kana":"テンマチョウ","prefecture_code":32},"0001":{"zip_code":"6970001","prefecture":"島根県","prefecture_kana":"シマネケン","city":"浜田市","city_kana":"ハマダシ","town":"外ノ浦町","town_kana":"トノウラチョウ","prefecture_code":32},"0027":{"zip_code":"6970027","prefecture":"島根県","prefecture_kana":"シマネケン","city":"浜田市","city_kana":"ハマダシ","town":"殿町","town_kana":"トノマチ","prefecture_code":32},"0065":{"zip_code":"6970065","prefecture":"島根県","prefecture_kana":"シマネケン","city":"浜田市","city_kana":"ハマダシ","town":"内村町","town_kana":"ナイムラチョウ","prefecture_code":32},"1331":{"zip_code":"6971331","prefecture":"島根県","prefecture_kana":"シマネケン","city":"浜田市","city_kana":"ハマダシ","town":"内村町","town_kana":"ナイムラチョウ","prefecture_code":32},"0023":{"zip_code":"6970023","prefecture":"島根県","prefecture_kana":"シマネケン","city":"浜田市","city_kana":"ハマダシ","town":"長沢町","town_kana":"ナガサワチョウ","prefecture_code":32},"0063":{"zip_code":"6970063","prefecture":"島根県","prefecture_kana":"シマネケン","city":"浜田市","city_kana":"ハマダシ","town":"長浜町","town_kana":"ナガハマチョウ","prefecture_code":32},"0014":{"zip_code":"6970014","prefecture":"島根県","prefecture_kana":"シマネケン","city":"浜田市","city_kana":"ハマダシ","town":"長見町","town_kana":"ナガミチョウ","prefecture_code":32},"1333":{"zip_code":"6971333","prefecture":"島根県","prefecture_kana":"シマネケン","city":"浜田市","city_kana":"ハマダシ","town":"鍋石町","town_kana":"ナベイシチョウ","prefecture_code":32},"0042":{"zip_code":"6970042","prefecture":"島根県","prefecture_kana":"シマネケン","city":"浜田市","city_kana":"ハマダシ","town":"錦町","town_kana":"ニシキマチ","prefecture_code":32},"1337":{"zip_code":"6971337","prefecture":"島根県","prefecture_kana":"シマネケン","city":"浜田市","city_kana":"ハマダシ","town":"西村町","town_kana":"ニシムラチョウ","prefecture_code":32},"0016":{"zip_code":"6970016","prefecture":"島根県","prefecture_kana":"シマネケン","city":"浜田市","city_kana":"ハマダシ","town":"野原町","town_kana":"ノバラチョウ","prefecture_code":32},"0017":{"zip_code":"6970017","prefecture":"島根県","prefecture_kana":"シマネケン","city":"浜田市","city_kana":"ハマダシ","town":"原井町","town_kana":"ハライチョウ","prefecture_code":32},"0056":{"zip_code":"6970056","prefecture":"島根県","prefecture_kana":"シマネケン","city":"浜田市","city_kana":"ハマダシ","town":"原町","town_kana":"ハラチョウ","prefecture_code":32},"1322":{"zip_code":"6971322","prefecture":"島根県","prefecture_kana":"シマネケン","city":"浜田市","city_kana":"ハマダシ","town":"日脚町","town_kana":"ヒナシチョウ","prefecture_code":32},"0025":{"zip_code":"6970025","prefecture":"島根県","prefecture_kana":"シマネケン","city":"浜田市","city_kana":"ハマダシ","town":"琵琶町","town_kana":"ビワマチ","prefecture_code":32},"1324":{"zip_code":"6971324","prefecture":"島根県","prefecture_kana":"シマネケン","city":"浜田市","city_kana":"ハマダシ","town":"穂出町","town_kana":"ホノデチョウ","prefecture_code":32},"0021":{"zip_code":"6970021","prefecture":"島根県","prefecture_kana":"シマネケン","city":"浜田市","city_kana":"ハマダシ","town":"松原町","town_kana":"マツバラチョウ","prefecture_code":32},"0052":{"zip_code":"6970052","prefecture":"島根県","prefecture_kana":"シマネケン","city":"浜田市","city_kana":"ハマダシ","town":"港町","town_kana":"ミナトマチ","prefecture_code":32},"0055":{"zip_code":"6970055","prefecture":"島根県","prefecture_kana":"シマネケン","city":"浜田市","city_kana":"ハマダシ","town":"元浜町","town_kana":"モトハマチョウ","prefecture_code":32},"1215":{"zip_code":"6971215","prefecture":"島根県","prefecture_kana":"シマネケン","city":"浜田市","city_kana":"ハマダシ","town":"弥栄町稲代","town_kana":"ヤサカチョウイナシロ","prefecture_code":32},"1214":{"zip_code":"6971214","prefecture":"島根県","prefecture_kana":"シマネケン","city":"浜田市","city_kana":"ハマダシ","town":"弥栄町大坪","town_kana":"ヤサカチョウオオツボ","prefecture_code":32},"1202":{"zip_code":"6971202","prefecture":"島根県","prefecture_kana":"シマネケン","city":"浜田市","city_kana":"ハマダシ","town":"弥栄町小坂","town_kana":"ヤサカチョウオサカ","prefecture_code":32},"1204":{"zip_code":"6971204","prefecture":"島根県","prefecture_kana":"シマネケン","city":"浜田市","city_kana":"ハマダシ","town":"弥栄町門田","town_kana":"ヤサカチョウカドタ","prefecture_code":32},"1122":{"zip_code":"6971122","prefecture":"島根県","prefecture_kana":"シマネケン","city":"浜田市","city_kana":"ハマダシ","town":"弥栄町木都賀","town_kana":"ヤサカチョウキツカ","prefecture_code":32},"1203":{"zip_code":"6971203","prefecture":"島根県","prefecture_kana":"シマネケン","city":"浜田市","city_kana":"ハマダシ","town":"弥栄町高内","town_kana":"ヤサカチョウタカウチ","prefecture_code":32},"1123":{"zip_code":"6971123","prefecture":"島根県","prefecture_kana":"シマネケン","city":"浜田市","city_kana":"ハマダシ","town":"弥栄町田野原","town_kana":"ヤサカチョウタノハラ","prefecture_code":32},"1201":{"zip_code":"6971201","prefecture":"島根県","prefecture_kana":"シマネケン","city":"浜田市","city_kana":"ハマダシ","town":"弥栄町栃木","town_kana":"ヤサカチョウトチギ","prefecture_code":32},"1211":{"zip_code":"6971211","prefecture":"島根県","prefecture_kana":"シマネケン","city":"浜田市","city_kana":"ハマダシ","town":"弥栄町長安本郷","town_kana":"ヤサカチョウナガヤスホンゴウ","prefecture_code":32},"1121":{"zip_code":"6971121","prefecture":"島根県","prefecture_kana":"シマネケン","city":"浜田市","city_kana":"ハマダシ","town":"弥栄町野坂","town_kana":"ヤサカチョウノサカ","prefecture_code":32},"1213":{"zip_code":"6971213","prefecture":"島根県","prefecture_kana":"シマネケン","city":"浜田市","city_kana":"ハマダシ","town":"弥栄町程原","town_kana":"ヤサカチョウホドハラ","prefecture_code":32},"1212":{"zip_code":"6971212","prefecture":"島根県","prefecture_kana":"シマネケン","city":"浜田市","city_kana":"ハマダシ","town":"弥栄町三里","town_kana":"ヤサカチョウミサト","prefecture_code":32},"1336":{"zip_code":"6971336","prefecture":"島根県","prefecture_kana":"シマネケン","city":"浜田市","city_kana":"ハマダシ","town":"横山町","town_kana":"ヨコヤマチョウ","prefecture_code":32},"1325":{"zip_code":"6971325","prefecture":"島根県","prefecture_kana":"シマネケン","city":"浜田市","city_kana":"ハマダシ","town":"吉地町","town_kana":"ヨシジチョウ","prefecture_code":32},"0631":{"zip_code":"6970631","prefecture":"島根県","prefecture_kana":"シマネケン","city":"邑智郡邑南町","city_kana":"オオチグンオオナンチョウ","town":"市木","town_kana":"イチギ","prefecture_code":32}}