{"0407":{"zip_code":"6990407","prefecture":"島根県","prefecture_kana":"シマネケン","city":"松江市","city_kana":"マツエシ","town":"宍道町伊志見","town_kana":"シンジチョウイジミ","prefecture_code":32},"0405":{"zip_code":"6990405","prefecture":"島根県","prefecture_kana":"シマネケン","city":"松江市","city_kana":"マツエシ","town":"宍道町上来待","town_kana":"シンジチョウカミキマチ","prefecture_code":32},"0406":{"zip_code":"6990406","prefecture":"島根県","prefecture_kana":"シマネケン","city":"松江市","city_kana":"マツエシ","town":"宍道町佐々布","town_kana":"シンジチョウサソウ","prefecture_code":32},"0408":{"zip_code":"6990408","prefecture":"島根県","prefecture_kana":"シマネケン","city":"松江市","city_kana":"マツエシ","town":"宍道町昭和","town_kana":"シンジチョウショウワ","prefecture_code":32},"0401":{"zip_code":"6990401","prefecture":"島根県","prefecture_kana":"シマネケン","city":"松江市","city_kana":"マツエシ","town":"宍道町宍道","town_kana":"シンジチョウシンジ","prefecture_code":32},"0403":{"zip_code":"6990403","prefecture":"島根県","prefecture_kana":"シマネケン","city":"松江市","city_kana":"マツエシ","town":"宍道町西来待","town_kana":"シンジチョウニシキマチ","prefecture_code":32},"0402":{"zip_code":"6990402","prefecture":"島根県","prefecture_kana":"シマネケン","city":"松江市","city_kana":"マツエシ","town":"宍道町白石","town_kana":"シンジチョウハクイシ","prefecture_code":32},"0404":{"zip_code":"6990404","prefecture":"島根県","prefecture_kana":"シマネケン","city":"松江市","city_kana":"マツエシ","town":"宍道町東来待","town_kana":"シンジチョウヒガシキマチ","prefecture_code":32},"0205":{"zip_code":"6990205","prefecture":"島根県","prefecture_kana":"シマネケン","city":"松江市","city_kana":"マツエシ","town":"玉湯町大谷","town_kana":"タマユチョウオオダニ","prefecture_code":32},"0201":{"zip_code":"6990201","prefecture":"島根県","prefecture_kana":"シマネケン","city":"松江市","city_kana":"マツエシ","town":"玉湯町玉造","town_kana":"タマユチョウタマツクリ","prefecture_code":32},"0204":{"zip_code":"6990204","prefecture":"島根県","prefecture_kana":"シマネケン","city":"松江市","city_kana":"マツエシ","town":"玉湯町林","town_kana":"タマユチョウハヤシ","prefecture_code":32},"0203":{"zip_code":"6990203","prefecture":"島根県","prefecture_kana":"シマネケン","city":"松江市","city_kana":"マツエシ","town":"玉湯町布志名","town_kana":"タマユチョウフジナ","prefecture_code":32},"0202":{"zip_code":"6990202","prefecture":"島根県","prefecture_kana":"シマネケン","city":"松江市","city_kana":"マツエシ","town":"玉湯町湯町","town_kana":"タマユチョウユマチ","prefecture_code":32},"0108":{"zip_code":"6990108","prefecture":"島根県","prefecture_kana":"シマネケン","city":"松江市","city_kana":"マツエシ","town":"東出雲町出雲郷","town_kana":"ヒガシイズモチョウアダカエ","prefecture_code":32},"0111":{"zip_code":"6990111","prefecture":"島根県","prefecture_kana":"シマネケン","city":"松江市","city_kana":"マツエシ","town":"東出雲町意宇南","town_kana":"ヒガシイズモチョウイウナン","prefecture_code":32},"0112":{"zip_code":"6990112","prefecture":"島根県","prefecture_kana":"シマネケン","city":"松江市","city_kana":"マツエシ","town":"東出雲町意宇東","town_kana":"ヒガシイズモチョウイウヒガシ","prefecture_code":32},"0107":{"zip_code":"6990107","prefecture":"島根県","prefecture_kana":"シマネケン","city":"松江市","city_kana":"マツエシ","town":"東出雲町今宮","town_kana":"ヒガシイズモチョウイマミヤ","prefecture_code":32},"0101":{"zip_code":"6990101","prefecture":"島根県","prefecture_kana":"シマネケン","city":"松江市","city_kana":"マツエシ","town":"東出雲町揖屋","town_kana":"ヒガシイズモチョウイヤ","prefecture_code":32},"0105":{"zip_code":"6990105","prefecture":"島根県","prefecture_kana":"シマネケン","city":"松江市","city_kana":"マツエシ","town":"東出雲町内馬","town_kana":"ヒガシイズモチョウウチウマ","prefecture_code":32},"0106":{"zip_code":"6990106","prefecture":"島根県","prefecture_kana":"シマネケン","city":"松江市","city_kana":"マツエシ","town":"東出雲町春日","town_kana":"ヒガシイズモチョウカスガ","prefecture_code":32},"0103":{"zip_code":"6990103","prefecture":"島根県","prefecture_kana":"シマネケン","city":"松江市","city_kana":"マツエシ","town":"東出雲町上意東","town_kana":"ヒガシイズモチョウカミイトウ","prefecture_code":32},"0102":{"zip_code":"6990102","prefecture":"島根県","prefecture_kana":"シマネケン","city":"松江市","city_kana":"マツエシ","town":"東出雲町下意東","town_kana":"ヒガシイズモチョウシモイトウ","prefecture_code":32},"0104":{"zip_code":"6990104","prefecture":"島根県","prefecture_kana":"シマネケン","city":"松江市","city_kana":"マツエシ","town":"東出雲町須田","town_kana":"ヒガシイズモチョウスタ","prefecture_code":32},"0110":{"zip_code":"6990110","prefecture":"島根県","prefecture_kana":"シマネケン","city":"松江市","city_kana":"マツエシ","town":"東出雲町錦新町","town_kana":"ヒガシイズモチョウニシキシンマチ","prefecture_code":32},"0109":{"zip_code":"6990109","prefecture":"島根県","prefecture_kana":"シマネケン","city":"松江市","city_kana":"マツエシ","town":"東出雲町錦浜","town_kana":"ヒガシイズモチョウニシキハマ","prefecture_code":32},"3302":{"zip_code":"6993302","prefecture":"島根県","prefecture_kana":"シマネケン","city":"浜田市","city_kana":"ハマダシ","town":"三隅町芦谷","town_kana":"ミスミチョウアシダニ","prefecture_code":32},"3215":[{"zip_code":"6993215","prefecture":"島根県","prefecture_kana":"シマネケン","city":"浜田市","city_kana":"ハマダシ","town":"三隅町井川","town_kana":"ミスミチョウイガワ","prefecture_code":32},{"zip_code":"6993215","prefecture":"島根県","prefecture_kana":"シマネケン","city":"浜田市","city_kana":"ハマダシ","town":"三隅町下古和","town_kana":"ミスミチョウシモコワ","prefecture_code":32}],"3301":{"zip_code":"6993301","prefecture":"島根県","prefecture_kana":"シマネケン","city":"浜田市","city_kana":"ハマダシ","town":"三隅町井野","town_kana":"ミスミチョウイノ","prefecture_code":32},"3226":{"zip_code":"6993226","prefecture":"島根県","prefecture_kana":"シマネケン","city":"浜田市","city_kana":"ハマダシ","town":"三隅町岡見","town_kana":"ミスミチョウオカミ","prefecture_code":32},"3222":{"zip_code":"6993222","prefecture":"島根県","prefecture_kana":"シマネケン","city":"浜田市","city_kana":"ハマダシ","town":"三隅町折居","town_kana":"ミスミチョウオリイ","prefecture_code":32},"3216":{"zip_code":"6993216","prefecture":"島根県","prefecture_kana":"シマネケン","city":"浜田市","city_kana":"ハマダシ","town":"三隅町上古和","town_kana":"ミスミチョウカミコワ","prefecture_code":32},"3217":{"zip_code":"6993217","prefecture":"島根県","prefecture_kana":"シマネケン","city":"浜田市","city_kana":"ハマダシ","town":"三隅町黒沢","town_kana":"ミスミチョウクロサワ","prefecture_code":32},"3213":{"zip_code":"6993213","prefecture":"島根県","prefecture_kana":"シマネケン","city":"浜田市","city_kana":"ハマダシ","town":"三隅町河内","town_kana":"ミスミチョウコウチ","prefecture_code":32},"3223":{"zip_code":"6993223","prefecture":"島根県","prefecture_kana":"シマネケン","city":"浜田市","city_kana":"ハマダシ","town":"三隅町西河内","town_kana":"ミスミチョウサイゴウチ","prefecture_code":32},"3221":{"zip_code":"6993221","prefecture":"島根県","prefecture_kana":"シマネケン","city":"浜田市","city_kana":"ハマダシ","town":"三隅町東平原","town_kana":"ミスミチョウヒガシヒラバラ","prefecture_code":32},"3225":{"zip_code":"6993225","prefecture":"島根県","prefecture_kana":"シマネケン","city":"浜田市","city_kana":"ハマダシ","town":"三隅町古市場","town_kana":"ミスミチョウフルイチバ","prefecture_code":32},"3211":{"zip_code":"6993211","prefecture":"島根県","prefecture_kana":"シマネケン","city":"浜田市","city_kana":"ハマダシ","town":"三隅町三隅","town_kana":"ミスミチョウミスミ","prefecture_code":32},"3224":{"zip_code":"6993224","prefecture":"島根県","prefecture_kana":"シマネケン","city":"浜田市","city_kana":"ハマダシ","town":"三隅町湊浦","town_kana":"ミスミチョウミナトウラ","prefecture_code":32},"3212":{"zip_code":"6993212","prefecture":"島根県","prefecture_kana":"シマネケン","city":"浜田市","city_kana":"ハマダシ","town":"三隅町向野田","town_kana":"ミスミチョウムカイノタ","prefecture_code":32},"3303":{"zip_code":"6993303","prefecture":"島根県","prefecture_kana":"シマネケン","city":"浜田市","city_kana":"ハマダシ","town":"三隅町室谷","town_kana":"ミスミチョウムロダニ","prefecture_code":32},"3214":{"zip_code":"6993214","prefecture":"島根県","prefecture_kana":"シマネケン","city":"浜田市","city_kana":"ハマダシ","town":"三隅町矢原","town_kana":"ミスミチョウヤバラ","prefecture_code":32},"0821":{"zip_code":"6990821","prefecture":"島根県","prefecture_kana":"シマネケン","city":"出雲市","city_kana":"イズモシ","town":"大島町","town_kana":"オオジマチョウ","prefecture_code":32},"0817":{"zip_code":"6990817","prefecture":"島根県","prefecture_kana":"シマネケン","city":"出雲市","city_kana":"イズモシ","town":"湖陵町板津","town_kana":"コリョウチョウイタヅ","prefecture_code":32},"0816":{"zip_code":"6990816","prefecture":"島根県","prefecture_kana":"シマネケン","city":"出雲市","city_kana":"イズモシ","town":"湖陵町大池","town_kana":"コリョウチョウオオイケ","prefecture_code":32},"0811":{"zip_code":"6990811","prefecture":"島根県","prefecture_kana":"シマネケン","city":"出雲市","city_kana":"イズモシ","town":"湖陵町差海","town_kana":"コリョウチョウサシウミ","prefecture_code":32},"0813":{"zip_code":"6990813","prefecture":"島根県","prefecture_kana":"シマネケン","city":"出雲市","city_kana":"イズモシ","town":"湖陵町三部","town_kana":"コリョウチョウサンブ","prefecture_code":32},"0814":{"zip_code":"6990814","prefecture":"島根県","prefecture_kana":"シマネケン","city":"出雲市","city_kana":"イズモシ","town":"湖陵町常楽寺","town_kana":"コリョウチョウジョウラクジ","prefecture_code":32},"0812":{"zip_code":"6990812","prefecture":"島根県","prefecture_kana":"シマネケン","city":"出雲市","city_kana":"イズモシ","town":"湖陵町二部","town_kana":"コリョウチョウニブ","prefecture_code":32},"0815":{"zip_code":"6990815","prefecture":"島根県","prefecture_kana":"シマネケン","city":"出雲市","city_kana":"イズモシ","town":"湖陵町畑村","town_kana":"コリョウチョウハタムラ","prefecture_code":32},"0822":{"zip_code":"6990822","prefecture":"島根県","prefecture_kana":"シマネケン","city":"出雲市","city_kana":"イズモシ","town":"神西沖町","town_kana":"ジンザイオキチョウ","prefecture_code":32},"0825":{"zip_code":"6990825","prefecture":"島根県","prefecture_kana":"シマネケン","city":"出雲市","city_kana":"イズモシ","town":"神西新町","town_kana":"ジンザイシンマチ","prefecture_code":32},"0762":{"zip_code":"6990762","prefecture":"島根県","prefecture_kana":"シマネケン","city":"出雲市","city_kana":"イズモシ","town":"大社町鵜峠","town_kana":"タイシャチョウウド","prefecture_code":32},"0764":{"zip_code":"6990764","prefecture":"島根県","prefecture_kana":"シマネケン","city":"出雲市","city_kana":"イズモシ","town":"大社町宇龍","town_kana":"タイシャチョウウリュウ","prefecture_code":32},"0722":{"zip_code":"6990722","prefecture":"島根県","prefecture_kana":"シマネケン","city":"出雲市","city_kana":"イズモシ","town":"大社町北荒木","town_kana":"タイシャチョウキタアラキ","prefecture_code":32},"0702":{"zip_code":"6990702","prefecture":"島根県","prefecture_kana":"シマネケン","city":"出雲市","city_kana":"イズモシ","town":"大社町杵築北","town_kana":"タイシャチョウキヅキキタ","prefecture_code":32},"0751":{"zip_code":"6990751","prefecture":"島根県","prefecture_kana":"シマネケン","city":"出雲市","city_kana":"イズモシ","town":"大社町杵築西","town_kana":"タイシャチョウキヅキニシ","prefecture_code":32},"0701":{"zip_code":"6990701","prefecture":"島根県","prefecture_kana":"シマネケン","city":"出雲市","city_kana":"イズモシ","town":"大社町杵築東","town_kana":"タイシャチョウキヅキヒガシ","prefecture_code":32},"0711":{"zip_code":"6990711","prefecture":"島根県","prefecture_kana":"シマネケン","city":"出雲市","city_kana":"イズモシ","town":"大社町杵築南","town_kana":"タイシャチョウキヅキミナミ","prefecture_code":32},"0761":{"zip_code":"6990761","prefecture":"島根県","prefecture_kana":"シマネケン","city":"出雲市","city_kana":"イズモシ","town":"大社町鷺浦","town_kana":"タイシャチョウサギウラ","prefecture_code":32},"0721":{"zip_code":"6990721","prefecture":"島根県","prefecture_kana":"シマネケン","city":"出雲市","city_kana":"イズモシ","town":"大社町修理免","town_kana":"タイシャチョウシュウリメン","prefecture_code":32},"0741":{"zip_code":"6990741","prefecture":"島根県","prefecture_kana":"シマネケン","city":"出雲市","city_kana":"イズモシ","town":"大社町中荒木","town_kana":"タイシャチョウナカアラキ","prefecture_code":32},"0732":{"zip_code":"6990732","prefecture":"島根県","prefecture_kana":"シマネケン","city":"出雲市","city_kana":"イズモシ","town":"大社町入南","town_kana":"タイシャチョウニュウナン","prefecture_code":32},"0733":{"zip_code":"6990733","prefecture":"島根県","prefecture_kana":"シマネケン","city":"出雲市","city_kana":"イズモシ","town":"大社町菱根","town_kana":"タイシャチョウヒシネ","prefecture_code":32},"0763":{"zip_code":"6990763","prefecture":"島根県","prefecture_kana":"シマネケン","city":"出雲市","city_kana":"イズモシ","town":"大社町日御碕","town_kana":"タイシャチョウヒノミサキ","prefecture_code":32},"0731":{"zip_code":"6990731","prefecture":"島根県","prefecture_kana":"シマネケン","city":"出雲市","city_kana":"イズモシ","town":"大社町遙堪","town_kana":"タイシャチョウヨウカン","prefecture_code":32},"0905":{"zip_code":"6990905","prefecture":"島根県","prefecture_kana":"シマネケン","city":"出雲市","city_kana":"イズモシ","town":"多伎町奥田儀","town_kana":"タキチョウオクタギ","prefecture_code":32},"0903":{"zip_code":"6990903","prefecture":"島根県","prefecture_kana":"シマネケン","city":"出雲市","city_kana":"イズモシ","town":"多伎町小田","town_kana":"タキチョウオダ","prefecture_code":32},"0906":{"zip_code":"6990906","prefecture":"島根県","prefecture_kana":"シマネケン","city":"出雲市","city_kana":"イズモシ","town":"多伎町神原","town_kana":"タキチョウカンバラ","prefecture_code":32},"0904":{"zip_code":"6990904","prefecture":"島根県","prefecture_kana":"シマネケン","city":"出雲市","city_kana":"イズモシ","town":"多伎町口田儀","town_kana":"タキチョウクチタギ","prefecture_code":32},"0901":{"zip_code":"6990901","prefecture":"島根県","prefecture_kana":"シマネケン","city":"出雲市","city_kana":"イズモシ","town":"多伎町久村","town_kana":"タキチョウクムラ","prefecture_code":32},"0902":{"zip_code":"6990902","prefecture":"島根県","prefecture_kana":"シマネケン","city":"出雲市","city_kana":"イズモシ","town":"多伎町多岐","town_kana":"タキチョウタキ","prefecture_code":32},"0824":{"zip_code":"6990824","prefecture":"島根県","prefecture_kana":"シマネケン","city":"出雲市","city_kana":"イズモシ","town":"西神西町","town_kana":"ニシジンザイチョウ","prefecture_code":32},"0823":{"zip_code":"6990823","prefecture":"島根県","prefecture_kana":"シマネケン","city":"出雲市","city_kana":"イズモシ","town":"東神西町","town_kana":"ヒガシジンザイチョウ","prefecture_code":32},"0615":{"zip_code":"6990615","prefecture":"島根県","prefecture_kana":"シマネケン","city":"出雲市","city_kana":"イズモシ","town":"斐川町併川","town_kana":"ヒカワチョウアイカワ","prefecture_code":32},"0611":{"zip_code":"6990611","prefecture":"島根県","prefecture_kana":"シマネケン","city":"出雲市","city_kana":"イズモシ","town":"斐川町阿宮","town_kana":"ヒカワチョウアグ","prefecture_code":32},"0644":{"zip_code":"6990644","prefecture":"島根県","prefecture_kana":"シマネケン","city":"出雲市","city_kana":"イズモシ","town":"斐川町今在家","town_kana":"ヒカワチョウイマザイケ","prefecture_code":32},"0551":{"zip_code":"6990551","prefecture":"島根県","prefecture_kana":"シマネケン","city":"出雲市","city_kana":"イズモシ","town":"斐川町沖洲","town_kana":"ヒカワチョウオキノス","prefecture_code":32},"0501":{"zip_code":"6990501","prefecture":"島根県","prefecture_kana":"シマネケン","city":"出雲市","city_kana":"イズモシ","town":"斐川町学頭","town_kana":"ヒカワチョウガクトウ","prefecture_code":32},"0505":{"zip_code":"6990505","prefecture":"島根県","prefecture_kana":"シマネケン","city":"出雲市","city_kana":"イズモシ","town":"斐川町上庄原","town_kana":"ヒカワチョウカミショウバラ","prefecture_code":32},"0624":{"zip_code":"6990624","prefecture":"島根県","prefecture_kana":"シマネケン","city":"出雲市","city_kana":"イズモシ","town":"斐川町上直江","town_kana":"ヒカワチョウカミナオエ","prefecture_code":32},"0503":{"zip_code":"6990503","prefecture":"島根県","prefecture_kana":"シマネケン","city":"出雲市","city_kana":"イズモシ","town":"斐川町神庭","town_kana":"ヒカワチョウカンバ","prefecture_code":32},"0613":{"zip_code":"6990613","prefecture":"島根県","prefecture_kana":"シマネケン","city":"出雲市","city_kana":"イズモシ","town":"斐川町神氷","town_kana":"ヒカワチョウカンピ","prefecture_code":32},"0614":{"zip_code":"6990614","prefecture":"島根県","prefecture_kana":"シマネケン","city":"出雲市","city_kana":"イズモシ","town":"斐川町求院","town_kana":"ヒカワチョウグイ","prefecture_code":32},"0553":{"zip_code":"6990553","prefecture":"島根県","prefecture_kana":"シマネケン","city":"出雲市","city_kana":"イズモシ","town":"斐川町黒目","town_kana":"ヒカワチョウクロメ","prefecture_code":32},"0555":{"zip_code":"6990555","prefecture":"島根県","prefecture_kana":"シマネケン","city":"出雲市","city_kana":"イズモシ","town":"斐川町坂田","town_kana":"ヒカワチョウサカダ","prefecture_code":32},"0554":{"zip_code":"6990554","prefecture":"島根県","prefecture_kana":"シマネケン","city":"出雲市","city_kana":"イズモシ","town":"斐川町三分市","town_kana":"ヒカワチョウサンブイチ","prefecture_code":32},"0612":{"zip_code":"6990612","prefecture":"島根県","prefecture_kana":"シマネケン","city":"出雲市","city_kana":"イズモシ","town":"斐川町出西","town_kana":"ヒカワチョウシュッサイ","prefecture_code":32},"0502":{"zip_code":"6990502","prefecture":"島根県","prefecture_kana":"シマネケン","city":"出雲市","city_kana":"イズモシ","town":"斐川町荘原","town_kana":"ヒカワチョウショウバラ","prefecture_code":32},"0621":{"zip_code":"6990621","prefecture":"島根県","prefecture_kana":"シマネケン","city":"出雲市","city_kana":"イズモシ","town":"斐川町富村","town_kana":"ヒカワチョウトビムラ","prefecture_code":32},"0623":{"zip_code":"6990623","prefecture":"島根県","prefecture_kana":"シマネケン","city":"出雲市","city_kana":"イズモシ","town":"斐川町鳥井","town_kana":"ヒカワチョウトリイ","prefecture_code":32},"0631":{"zip_code":"6990631","prefecture":"島根県","prefecture_kana":"シマネケン","city":"出雲市","city_kana":"イズモシ","town":"斐川町直江","town_kana":"ヒカワチョウナオエ","prefecture_code":32},"0552":{"zip_code":"6990552","prefecture":"島根県","prefecture_kana":"シマネケン","city":"出雲市","city_kana":"イズモシ","town":"斐川町中洲","town_kana":"ヒカワチョウナカノス","prefecture_code":32},"0622":{"zip_code":"6990622","prefecture":"島根県","prefecture_kana":"シマネケン","city":"出雲市","city_kana":"イズモシ","town":"斐川町名島","town_kana":"ヒカワチョウナシマ","prefecture_code":32},"0643":{"zip_code":"6990643","prefecture":"島根県","prefecture_kana":"シマネケン","city":"出雲市","city_kana":"イズモシ","town":"斐川町原鹿","town_kana":"ヒカワチョウハラシカ","prefecture_code":32},"0642":{"zip_code":"6990642","prefecture":"島根県","prefecture_kana":"シマネケン","city":"出雲市","city_kana":"イズモシ","town":"斐川町福富","town_kana":"ヒカワチョウフクドミ","prefecture_code":32},"0504":{"zip_code":"6990504","prefecture":"島根県","prefecture_kana":"シマネケン","city":"出雲市","city_kana":"イズモシ","town":"斐川町三絡","town_kana":"ヒカワチョウミツガネ","prefecture_code":32},"0641":{"zip_code":"6990641","prefecture":"島根県","prefecture_kana":"シマネケン","city":"出雲市","city_kana":"イズモシ","town":"斐川町美南","town_kana":"ヒカワチョウミナミ","prefecture_code":32},"3672":{"zip_code":"6993672","prefecture":"島根県","prefecture_kana":"シマネケン","city":"益田市","city_kana":"マスダシ","town":"赤雁町","town_kana":"アカガリチョウ","prefecture_code":32},"3765":{"zip_code":"6993765","prefecture":"島根県","prefecture_kana":"シマネケン","city":"益田市","city_kana":"マスダシ","town":"有田町","town_kana":"アリタチョウ","prefecture_code":32},"3761":{"zip_code":"6993761","prefecture":"島根県","prefecture_kana":"シマネケン","city":"益田市","city_kana":"マスダシ","town":"飯浦町","town_kana":"イイノウラチョウ","prefecture_code":32},"5123":{"zip_code":"6995123","prefecture":"島根県","prefecture_kana":"シマネケン","city":"益田市","city_kana":"マスダシ","town":"猪木谷町","town_kana":"イノキダニチョウ","prefecture_code":32},"5127":{"zip_code":"6995127","prefecture":"島根県","prefecture_kana":"シマネケン","city":"益田市","city_kana":"マスダシ","town":"梅月町","town_kana":"ウメツキチョウ","prefecture_code":32},"3674":{"zip_code":"6993674","prefecture":"島根県","prefecture_kana":"シマネケン","city":"益田市","city_kana":"マスダシ","town":"大草町","town_kana":"オオクサチョウ","prefecture_code":32},"3675":{"zip_code":"6993675","prefecture":"島根県","prefecture_kana":"シマネケン","city":"益田市","city_kana":"マスダシ","town":"乙子町","town_kana":"オトコチョウ","prefecture_code":32},"3501":{"zip_code":"6993501","prefecture":"島根県","prefecture_kana":"シマネケン","city":"益田市","city_kana":"マスダシ","town":"金山町","town_kana":"カネヤマチョウ","prefecture_code":32},"5133":{"zip_code":"6995133","prefecture":"島根県","prefecture_kana":"シマネケン","city":"益田市","city_kana":"マスダシ","town":"神田町","town_kana":"カンダチョウ","prefecture_code":32},"3764":{"zip_code":"6993764","prefecture":"島根県","prefecture_kana":"シマネケン","city":"益田市","city_kana":"マスダシ","town":"喜阿弥町","town_kana":"キアミチョウ","prefecture_code":32},"3502":{"zip_code":"6993502","prefecture":"島根県","prefecture_kana":"シマネケン","city":"益田市","city_kana":"マスダシ","town":"木部町","town_kana":"キベチョウ","prefecture_code":32},"3762":{"zip_code":"6993762","prefecture":"島根県","prefecture_kana":"シマネケン","city":"益田市","city_kana":"マスダシ","town":"小浜町","town_kana":"コハマチョウ","prefecture_code":32},"3503":{"zip_code":"6993503","prefecture":"島根県","prefecture_kana":"シマネケン","city":"益田市","city_kana":"マスダシ","town":"下種町","town_kana":"シモタネチョウ","prefecture_code":32},"5125":{"zip_code":"6995125","prefecture":"島根県","prefecture_kana":"シマネケン","city":"益田市","city_kana":"マスダシ","town":"白岩町","town_kana":"シライワチョウ","prefecture_code":32},"5124":{"zip_code":"6995124","prefecture":"島根県","prefecture_kana":"シマネケン","city":"益田市","city_kana":"マスダシ","town":"薄原町","town_kana":"ススキバラチョウ","prefecture_code":32},"5126":{"zip_code":"6995126","prefecture":"島根県","prefecture_kana":"シマネケン","city":"益田市","city_kana":"マスダシ","town":"隅村町","town_kana":"スミムラチョウ","prefecture_code":32},"3504":{"zip_code":"6993504","prefecture":"島根県","prefecture_kana":"シマネケン","city":"益田市","city_kana":"マスダシ","town":"種村町","town_kana":"タネムラチョウ","prefecture_code":32},"3671":{"zip_code":"6993671","prefecture":"島根県","prefecture_kana":"シマネケン","city":"益田市","city_kana":"マスダシ","town":"津田町","town_kana":"ツダチョウ","prefecture_code":32},"3505":{"zip_code":"6993505","prefecture":"島根県","prefecture_kana":"シマネケン","city":"益田市","city_kana":"マスダシ","town":"土田町","town_kana":"ツチダチョウ","prefecture_code":32},"3676":{"zip_code":"6993676","prefecture":"島根県","prefecture_kana":"シマネケン","city":"益田市","city_kana":"マスダシ","town":"遠田町","town_kana":"トウダチョウ","prefecture_code":32},"3763":{"zip_code":"6993763","prefecture":"島根県","prefecture_kana":"シマネケン","city":"益田市","city_kana":"マスダシ","town":"戸田町","town_kana":"トダチョウ","prefecture_code":32},"3506":{"zip_code":"6993506","prefecture":"島根県","prefecture_kana":"シマネケン","city":"益田市","city_kana":"マスダシ","town":"西平原町","town_kana":"ニシヒラバラチョウ","prefecture_code":32},"5121":{"zip_code":"6995121","prefecture":"島根県","prefecture_kana":"シマネケン","city":"益田市","city_kana":"マスダシ","town":"左ケ山町","town_kana":"ヒダリガヤマチョウ","prefecture_code":32},"5122":{"zip_code":"6995122","prefecture":"島根県","prefecture_kana":"シマネケン","city":"益田市","city_kana":"マスダシ","town":"本俣賀町","town_kana":"ホンマタガチョウ","prefecture_code":32},"3766":{"zip_code":"6993766","prefecture":"島根県","prefecture_kana":"シマネケン","city":"益田市","city_kana":"マスダシ","town":"美濃地町","town_kana":"ミノジチョウ","prefecture_code":32},"5134":{"zip_code":"6995134","prefecture":"島根県","prefecture_kana":"シマネケン","city":"益田市","city_kana":"マスダシ","town":"向横田町","town_kana":"ムカイヨコタチョウ","prefecture_code":32},"5131":{"zip_code":"6995131","prefecture":"島根県","prefecture_kana":"シマネケン","city":"益田市","city_kana":"マスダシ","town":"安富町","town_kana":"ヤスドミチョウ","prefecture_code":32},"3673":{"zip_code":"6993673","prefecture":"島根県","prefecture_kana":"シマネケン","city":"益田市","city_kana":"マスダシ","town":"山折町","town_kana":"ヤマオリチョウ","prefecture_code":32},"5132":{"zip_code":"6995132","prefecture":"島根県","prefecture_kana":"シマネケン","city":"益田市","city_kana":"マスダシ","town":"横田町","town_kana":"ヨコタチョウ","prefecture_code":32},"2213":{"zip_code":"6992213","prefecture":"島根県","prefecture_kana":"シマネケン","city":"大田市","city_kana":"オオダシ","town":"朝山町朝倉","town_kana":"アサヤマチョウアサクラ","prefecture_code":32},"2212":{"zip_code":"6992212","prefecture":"島根県","prefecture_kana":"シマネケン","city":"大田市","city_kana":"オオダシ","town":"朝山町仙山","town_kana":"アサヤマチョウセンヤマ","prefecture_code":32},"2214":{"zip_code":"6992214","prefecture":"島根県","prefecture_kana":"シマネケン","city":"大田市","city_kana":"オオダシ","town":"富山町神原","town_kana":"トミヤマチョウカンバラ","prefecture_code":32},"2215":{"zip_code":"6992215","prefecture":"島根県","prefecture_kana":"シマネケン","city":"大田市","city_kana":"オオダシ","town":"富山町才坂","town_kana":"トミヤマチョウサイザカ","prefecture_code":32},"2216":{"zip_code":"6992216","prefecture":"島根県","prefecture_kana":"シマネケン","city":"大田市","city_kana":"オオダシ","town":"富山町山中","town_kana":"トミヤマチョウヤマナカ","prefecture_code":32},"2305":{"zip_code":"6992305","prefecture":"島根県","prefecture_kana":"シマネケン","city":"大田市","city_kana":"オオダシ","town":"仁摩町天河内","town_kana":"ニマチョウアマゴウチ","prefecture_code":32},"2303":{"zip_code":"6992303","prefecture":"島根県","prefecture_kana":"シマネケン","city":"大田市","city_kana":"オオダシ","town":"仁摩町大国","town_kana":"ニマチョウオオグニ","prefecture_code":32},"2302":{"zip_code":"6992302","prefecture":"島根県","prefecture_kana":"シマネケン","city":"大田市","city_kana":"オオダシ","town":"仁摩町宅野","town_kana":"ニマチョウタクノ","prefecture_code":32},"2301":{"zip_code":"6992301","prefecture":"島根県","prefecture_kana":"シマネケン","city":"大田市","city_kana":"オオダシ","town":"仁摩町仁万","town_kana":"ニマチョウニマ","prefecture_code":32},"2304":{"zip_code":"6992304","prefecture":"島根県","prefecture_kana":"シマネケン","city":"大田市","city_kana":"オオダシ","town":"仁摩町馬路","town_kana":"ニマチョウマジ","prefecture_code":32},"2211":{"zip_code":"6992211","prefecture":"島根県","prefecture_kana":"シマネケン","city":"大田市","city_kana":"オオダシ","town":"波根町","town_kana":"ハネチョウ","prefecture_code":32},"2507":{"zip_code":"6992507","prefecture":"島根県","prefecture_kana":"シマネケン","city":"大田市","city_kana":"オオダシ","town":"温泉津町井田","town_kana":"ユノツチョウイダ","prefecture_code":32},"2515":{"zip_code":"6992515","prefecture":"島根県","prefecture_kana":"シマネケン","city":"大田市","city_kana":"オオダシ","town":"温泉津町今浦","town_kana":"ユノツチョウイマウラ","prefecture_code":32},"2505":{"zip_code":"6992505","prefecture":"島根県","prefecture_kana":"シマネケン","city":"大田市","city_kana":"オオダシ","town":"温泉津町太田","town_kana":"ユノツチョウオオタ","prefecture_code":32},"2504":{"zip_code":"6992504","prefecture":"島根県","prefecture_kana":"シマネケン","city":"大田市","city_kana":"オオダシ","town":"温泉津町荻村","town_kana":"ユノツチョウオギムラ","prefecture_code":32},"2513":{"zip_code":"6992513","prefecture":"島根県","prefecture_kana":"シマネケン","city":"大田市","city_kana":"オオダシ","town":"温泉津町上村","town_kana":"ユノツチョウカミムラ","prefecture_code":32},"2511":{"zip_code":"6992511","prefecture":"島根県","prefecture_kana":"シマネケン","city":"大田市","city_kana":"オオダシ","town":"温泉津町小浜","town_kana":"ユノツチョウコハマ","prefecture_code":32},"2503":{"zip_code":"6992503","prefecture":"島根県","prefecture_kana":"シマネケン","city":"大田市","city_kana":"オオダシ","town":"温泉津町西田","town_kana":"ユノツチョウニシタ","prefecture_code":32},"2512":{"zip_code":"6992512","prefecture":"島根県","prefecture_kana":"シマネケン","city":"大田市","city_kana":"オオダシ","town":"温泉津町飯原","town_kana":"ユノツチョウハンバラ","prefecture_code":32},"2506":{"zip_code":"6992506","prefecture":"島根県","prefecture_kana":"シマネケン","city":"大田市","city_kana":"オオダシ","town":"温泉津町福田","town_kana":"ユノツチョウフクダ","prefecture_code":32},"2514":{"zip_code":"6992514","prefecture":"島根県","prefecture_kana":"シマネケン","city":"大田市","city_kana":"オオダシ","town":"温泉津町福光","town_kana":"ユノツチョウフクミツ","prefecture_code":32},"2502":{"zip_code":"6992502","prefecture":"島根県","prefecture_kana":"シマネケン","city":"大田市","city_kana":"オオダシ","town":"温泉津町湯里","town_kana":"ユノツチョウユサト","prefecture_code":32},"2501":{"zip_code":"6992501","prefecture":"島根県","prefecture_kana":"シマネケン","city":"大田市","city_kana":"オオダシ","town":"温泉津町温泉津","town_kana":"ユノツチョウユノツ","prefecture_code":32},"2516":{"zip_code":"6992516","prefecture":"島根県","prefecture_kana":"シマネケン","city":"大田市","city_kana":"オオダシ","town":"温泉津町吉浦","town_kana":"ユノツチョウヨシウラ","prefecture_code":32},"2841":{"zip_code":"6992841","prefecture":"島根県","prefecture_kana":"シマネケン","city":"江津市","city_kana":"ゴウツシ","town":"後地町","town_kana":"ウシロジチョウ","prefecture_code":32},"3162":{"zip_code":"6993162","prefecture":"島根県","prefecture_kana":"シマネケン","city":"江津市","city_kana":"ゴウツシ","town":"敬川町","town_kana":"ウヤガワチョウ","prefecture_code":32},"2831":{"zip_code":"6992831","prefecture":"島根県","prefecture_kana":"シマネケン","city":"江津市","city_kana":"ゴウツシ","town":"黒松町","town_kana":"クロマツチョウ","prefecture_code":32},"4221":{"zip_code":"6994221","prefecture":"島根県","prefecture_kana":"シマネケン","city":"江津市","city_kana":"ゴウツシ","town":"桜江町市山","town_kana":"サクラエチョウイチヤマ","prefecture_code":32},"4222":{"zip_code":"6994222","prefecture":"島根県","prefecture_kana":"シマネケン","city":"江津市","city_kana":"ゴウツシ","town":"桜江町今田","town_kana":"サクラエチョウイマダ","prefecture_code":32},"4223":{"zip_code":"6994223","prefecture":"島根県","prefecture_kana":"シマネケン","city":"江津市","city_kana":"ゴウツシ","town":"桜江町後山","town_kana":"サクラエチョウウシロヤマ","prefecture_code":32},"4224":{"zip_code":"6994224","prefecture":"島根県","prefecture_kana":"シマネケン","city":"江津市","city_kana":"ゴウツシ","town":"桜江町江尾","town_kana":"サクラエチョウエノオ","prefecture_code":32},"4504":{"zip_code":"6994504","prefecture":"島根県","prefecture_kana":"シマネケン","city":"江津市","city_kana":"ゴウツシ","town":"桜江町大貫","town_kana":"サクラエチョウオオヌキ","prefecture_code":32},"4225":{"zip_code":"6994225","prefecture":"島根県","prefecture_kana":"シマネケン","city":"江津市","city_kana":"ゴウツシ","town":"桜江町小田","town_kana":"サクラエチョウオダ","prefecture_code":32},"4502":{"zip_code":"6994502","prefecture":"島根県","prefecture_kana":"シマネケン","city":"江津市","city_kana":"ゴウツシ","town":"桜江町川越","town_kana":"サクラエチョウカワゴエ","prefecture_code":32},"4226":{"zip_code":"6994226","prefecture":"島根県","prefecture_kana":"シマネケン","city":"江津市","city_kana":"ゴウツシ","town":"桜江町川戸","town_kana":"サクラエチョウカワド","prefecture_code":32},"4505":{"zip_code":"6994505","prefecture":"島根県","prefecture_kana":"シマネケン","city":"江津市","city_kana":"ゴウツシ","town":"桜江町坂本","town_kana":"サクラエチョウサカモト","prefecture_code":32},"4501":{"zip_code":"6994501","prefecture":"島根県","prefecture_kana":"シマネケン","city":"江津市","city_kana":"ゴウツシ","town":"桜江町鹿賀","town_kana":"サクラエチョウシカガ","prefecture_code":32},"4503":{"zip_code":"6994503","prefecture":"島根県","prefecture_kana":"シマネケン","city":"江津市","city_kana":"ゴウツシ","town":"桜江町田津","town_kana":"サクラエチョウタヅ","prefecture_code":32},"4111":{"zip_code":"6994111","prefecture":"島根県","prefecture_kana":"シマネケン","city":"江津市","city_kana":"ゴウツシ","town":"桜江町谷住郷","town_kana":"サクラエチョウタニジュウゴウ","prefecture_code":32},"4431":{"zip_code":"6994431","prefecture":"島根県","prefecture_kana":"シマネケン","city":"江津市","city_kana":"ゴウツシ","town":"桜江町長谷","town_kana":"サクラエチョウナガタニ","prefecture_code":32},"4432":{"zip_code":"6994432","prefecture":"島根県","prefecture_kana":"シマネケン","city":"江津市","city_kana":"ゴウツシ","town":"桜江町八戸","town_kana":"サクラエチョウヤト","prefecture_code":32},"2842":{"zip_code":"6992842","prefecture":"島根県","prefecture_kana":"シマネケン","city":"江津市","city_kana":"ゴウツシ","town":"都治町","town_kana":"ツチチョウ","prefecture_code":32},"3161":{"zip_code":"6993161","prefecture":"島根県","prefecture_kana":"シマネケン","city":"江津市","city_kana":"ゴウツシ","town":"波子町","town_kana":"ハシチョウ","prefecture_code":32},"2833":{"zip_code":"6992833","prefecture":"島根県","prefecture_kana":"シマネケン","city":"江津市","city_kana":"ゴウツシ","town":"波積町本郷","town_kana":"ハヅミチョウホンゴウ","prefecture_code":32},"2834":{"zip_code":"6992834","prefecture":"島根県","prefecture_kana":"シマネケン","city":"江津市","city_kana":"ゴウツシ","town":"波積町南","town_kana":"ハヅミチョウミナミ","prefecture_code":32},"2832":{"zip_code":"6992832","prefecture":"島根県","prefecture_kana":"シマネケン","city":"江津市","city_kana":"ゴウツシ","town":"波積町北","town_kana":"ハヅミチョウキタ","prefecture_code":32},"2837":{"zip_code":"6992837","prefecture":"島根県","prefecture_kana":"シマネケン","city":"江津市","city_kana":"ゴウツシ","town":"松川町上河戸","town_kana":"マツカワチョウカミカワド","prefecture_code":32},"2835":{"zip_code":"6992835","prefecture":"島根県","prefecture_kana":"シマネケン","city":"江津市","city_kana":"ゴウツシ","town":"松川町上津井","town_kana":"マツカワチョウカンヅイ","prefecture_code":32},"2836":{"zip_code":"6992836","prefecture":"島根県","prefecture_kana":"シマネケン","city":"江津市","city_kana":"ゴウツシ","town":"松川町畑田","town_kana":"マツカワチョウハタダ","prefecture_code":32},"1114":{"zip_code":"6991114","prefecture":"島根県","prefecture_kana":"シマネケン","city":"雲南市","city_kana":"ウンナンシ","town":"加茂町猪尾","town_kana":"カモチョウイノオ","prefecture_code":32},"1115":{"zip_code":"6991115","prefecture":"島根県","prefecture_kana":"シマネケン","city":"雲南市","city_kana":"ウンナンシ","town":"加茂町岩倉","town_kana":"カモチョウイワクラ","prefecture_code":32},"1105":{"zip_code":"6991105","prefecture":"島根県","prefecture_kana":"シマネケン","city":"雲南市","city_kana":"ウンナンシ","town":"加茂町宇治","town_kana":"カモチョウウジ","prefecture_code":32},"1125":{"zip_code":"6991125","prefecture":"島根県","prefecture_kana":"シマネケン","city":"雲南市","city_kana":"ウンナンシ","town":"加茂町大崎","town_kana":"カモチョウオオサキ","prefecture_code":32},"1123":{"zip_code":"6991123","prefecture":"島根県","prefecture_kana":"シマネケン","city":"雲南市","city_kana":"ウンナンシ","town":"加茂町大竹","town_kana":"カモチョウオオタケ","prefecture_code":32},"1106":{"zip_code":"6991106","prefecture":"島根県","prefecture_kana":"シマネケン","city":"雲南市","city_kana":"ウンナンシ","town":"加茂町加茂中","town_kana":"カモチョウカモナカ","prefecture_code":32},"1121":{"zip_code":"6991121","prefecture":"島根県","prefecture_kana":"シマネケン","city":"雲南市","city_kana":"ウンナンシ","town":"加茂町神原","town_kana":"カモチョウカンバラ","prefecture_code":32},"1112":{"zip_code":"6991112","prefecture":"島根県","prefecture_kana":"シマネケン","city":"雲南市","city_kana":"ウンナンシ","town":"加茂町新宮","town_kana":"カモチョウシングウ","prefecture_code":32},"1111":{"zip_code":"6991111","prefecture":"島根県","prefecture_kana":"シマネケン","city":"雲南市","city_kana":"ウンナンシ","town":"加茂町砂子原","town_kana":"カモチョウスナゴハラ","prefecture_code":32},"1101":{"zip_code":"6991101","prefecture":"島根県","prefecture_kana":"シマネケン","city":"雲南市","city_kana":"ウンナンシ","town":"加茂町大西","town_kana":"カモチョウダイサイ","prefecture_code":32},"1102":{"zip_code":"6991102","prefecture":"島根県","prefecture_kana":"シマネケン","city":"雲南市","city_kana":"ウンナンシ","town":"加茂町立原","town_kana":"カモチョウタチバラ","prefecture_code":32},"1103":{"zip_code":"6991103","prefecture":"島根県","prefecture_kana":"シマネケン","city":"雲南市","city_kana":"ウンナンシ","town":"加茂町近松","town_kana":"カモチョウチカマツ","prefecture_code":32},"1124":{"zip_code":"6991124","prefecture":"島根県","prefecture_kana":"シマネケン","city":"雲南市","city_kana":"ウンナンシ","town":"加茂町延野","town_kana":"カモチョウノブノ","prefecture_code":32},"1113":{"zip_code":"6991113","prefecture":"島根県","prefecture_kana":"シマネケン","city":"雲南市","city_kana":"ウンナンシ","town":"加茂町東谷","town_kana":"カモチョウヒガシダニ","prefecture_code":32},"1122":{"zip_code":"6991122","prefecture":"島根県","prefecture_kana":"シマネケン","city":"雲南市","city_kana":"ウンナンシ","town":"加茂町三代","town_kana":"カモチョウミジロ","prefecture_code":32},"1104":{"zip_code":"6991104","prefecture":"島根県","prefecture_kana":"シマネケン","city":"雲南市","city_kana":"ウンナンシ","town":"加茂町南加茂","town_kana":"カモチョウミナミガモ","prefecture_code":32},"1321":{"zip_code":"6991321","prefecture":"島根県","prefecture_kana":"シマネケン","city":"雲南市","city_kana":"ウンナンシ","town":"木次町宇谷","town_kana":"キスキチョウウダニ","prefecture_code":32},"1331":{"zip_code":"6991331","prefecture":"島根県","prefecture_kana":"シマネケン","city":"雲南市","city_kana":"ウンナンシ","town":"木次町上熊谷","town_kana":"キスキチョウカミクマタニ","prefecture_code":32},"1332":{"zip_code":"6991332","prefecture":"島根県","prefecture_kana":"シマネケン","city":"雲南市","city_kana":"ウンナンシ","town":"木次町木次","town_kana":"キスキチョウキスキ","prefecture_code":32},"1401":{"zip_code":"6991401","prefecture":"島根県","prefecture_kana":"シマネケン","city":"雲南市","city_kana":"ウンナンシ","town":"木次町北原尾白","town_kana":"キスキチョウキタハラオジロ","prefecture_code":32},"1341":{"zip_code":"6991341","prefecture":"島根県","prefecture_kana":"シマネケン","city":"雲南市","city_kana":"ウンナンシ","town":"木次町北原","town_kana":"キスキチョウキタハラ","prefecture_code":32},"1311":{"zip_code":"6991311","prefecture":"島根県","prefecture_kana":"シマネケン","city":"雲南市","city_kana":"ウンナンシ","town":"木次町里方","town_kana":"キスキチョウサトガタ","prefecture_code":32},"1333":{"zip_code":"6991333","prefecture":"島根県","prefecture_kana":"シマネケン","city":"雲南市","city_kana":"ウンナンシ","town":"木次町下熊谷","town_kana":"キスキチョウシモクマタニ","prefecture_code":32},"1322":{"zip_code":"6991322","prefecture":"島根県","prefecture_kana":"シマネケン","city":"雲南市","city_kana":"ウンナンシ","town":"木次町寺領","town_kana":"キスキチョウジリョウ","prefecture_code":32},"1334":{"zip_code":"6991334","prefecture":"島根県","prefecture_kana":"シマネケン","city":"雲南市","city_kana":"ウンナンシ","town":"木次町新市","town_kana":"キスキチョウシンイチ","prefecture_code":32},"1324":{"zip_code":"6991324","prefecture":"島根県","prefecture_kana":"シマネケン","city":"雲南市","city_kana":"ウンナンシ","town":"木次町西日登","town_kana":"キスキチョウニシヒノボリ","prefecture_code":32},"1323":{"zip_code":"6991323","prefecture":"島根県","prefecture_kana":"シマネケン","city":"雲南市","city_kana":"ウンナンシ","town":"木次町東日登","town_kana":"キスキチョウヒガシヒノボリ","prefecture_code":32},"1342":{"zip_code":"6991342","prefecture":"島根県","prefecture_kana":"シマネケン","city":"雲南市","city_kana":"ウンナンシ","town":"木次町平田","town_kana":"キスキチョウヒラタ","prefecture_code":32},"1312":{"zip_code":"6991312","prefecture":"島根県","prefecture_kana":"シマネケン","city":"雲南市","city_kana":"ウンナンシ","town":"木次町山方","town_kana":"キスキチョウヤマガタ","prefecture_code":32},"1343":{"zip_code":"6991343","prefecture":"島根県","prefecture_kana":"シマネケン","city":"雲南市","city_kana":"ウンナンシ","town":"木次町湯村","town_kana":"キスキチョウユムラ","prefecture_code":32},"1221":[{"zip_code":"6991221","prefecture":"島根県","prefecture_kana":"シマネケン","city":"雲南市","city_kana":"ウンナンシ","town":"大東町飯田","town_kana":"ダイトウチョウイイダ","prefecture_code":32},{"zip_code":"6991221","prefecture":"島根県","prefecture_kana":"シマネケン","city":"雲南市","city_kana":"ウンナンシ","town":"大東町岡村","town_kana":"ダイトウチョウオカムラ","prefecture_code":32}],"1231":{"zip_code":"6991231","prefecture":"島根県","prefecture_kana":"シマネケン","city":"雲南市","city_kana":"ウンナンシ","town":"大東町遠所","town_kana":"ダイトウチョウエンジョ","prefecture_code":32},"1213":{"zip_code":"6991213","prefecture":"島根県","prefecture_kana":"シマネケン","city":"雲南市","city_kana":"ウンナンシ","town":"大東町大ケ谷","town_kana":"ダイトウチョウオオカダニ","prefecture_code":32},"1201":{"zip_code":"6991201","prefecture":"島根県","prefecture_kana":"シマネケン","city":"雲南市","city_kana":"ウンナンシ","town":"大東町小河内","town_kana":"ダイトウチョウオガワウチ","prefecture_code":32},"1261":{"zip_code":"6991261","prefecture":"島根県","prefecture_kana":"シマネケン","city":"雲南市","city_kana":"ウンナンシ","town":"大東町金成","town_kana":"ダイトウチョウカネナリ","prefecture_code":32},"1211":{"zip_code":"6991211","prefecture":"島根県","prefecture_kana":"シマネケン","city":"雲南市","city_kana":"ウンナンシ","town":"大東町上久野","town_kana":"ダイトウチョウカミクノ","prefecture_code":32},"1214":{"zip_code":"6991214","prefecture":"島根県","prefecture_kana":"シマネケン","city":"雲南市","city_kana":"ウンナンシ","town":"大東町上佐世","town_kana":"ダイトウチョウカミサセ","prefecture_code":32},"1202":{"zip_code":"6991202","prefecture":"島根県","prefecture_kana":"シマネケン","city":"雲南市","city_kana":"ウンナンシ","town":"大東町刈畑","town_kana":"ダイトウチョウカリハタ","prefecture_code":32},"1222":{"zip_code":"6991222","prefecture":"島根県","prefecture_kana":"シマネケン","city":"雲南市","city_kana":"ウンナンシ","town":"大東町川井","town_kana":"ダイトウチョウカワイ","prefecture_code":32},"1203":{"zip_code":"6991203","prefecture":"島根県","prefecture_kana":"シマネケン","city":"雲南市","city_kana":"ウンナンシ","town":"大東町北村","town_kana":"ダイトウチョウキタムラ","prefecture_code":32},"1204":{"zip_code":"6991204","prefecture":"島根県","prefecture_kana":"シマネケン","city":"雲南市","city_kana":"ウンナンシ","town":"大東町薦澤","town_kana":"ダイトウチョウコモザワ","prefecture_code":32},"1241":{"zip_code":"6991241","prefecture":"島根県","prefecture_kana":"シマネケン","city":"雲南市","city_kana":"ウンナンシ","town":"大東町山王寺","town_kana":"ダイトウチョウサンノウジ","prefecture_code":32},"1262":{"zip_code":"6991262","prefecture":"島根県","prefecture_kana":"シマネケン","city":"雲南市","city_kana":"ウンナンシ","town":"大東町塩田","town_kana":"ダイトウチョウシオタ","prefecture_code":32},"1263":{"zip_code":"6991263","prefecture":"島根県","prefecture_kana":"シマネケン","city":"雲南市","city_kana":"ウンナンシ","town":"大東町篠淵","town_kana":"ダイトウチョウシノブチ","prefecture_code":32},"1223":{"zip_code":"6991223","prefecture":"島根県","prefecture_kana":"シマネケン","city":"雲南市","city_kana":"ウンナンシ","town":"大東町下阿用","town_kana":"ダイトウチョウシモアヨウ","prefecture_code":32},"1212":{"zip_code":"6991212","prefecture":"島根県","prefecture_kana":"シマネケン","city":"雲南市","city_kana":"ウンナンシ","town":"大東町下久野","town_kana":"ダイトウチョウシモクノ","prefecture_code":32},"1215":{"zip_code":"6991215","prefecture":"島根県","prefecture_kana":"シマネケン","city":"雲南市","city_kana":"ウンナンシ","town":"大東町下佐世","town_kana":"ダイトウチョウシモサセ","prefecture_code":32},"1251":[{"zip_code":"6991251","prefecture":"島根県","prefecture_kana":"シマネケン","city":"雲南市","city_kana":"ウンナンシ","town":"大東町新庄","town_kana":"ダイトウチョウシンジョウ","prefecture_code":32},{"zip_code":"6991251","prefecture":"島根県","prefecture_kana":"シマネケン","city":"雲南市","city_kana":"ウンナンシ","town":"大東町大東","town_kana":"ダイトウチョウダイトウ","prefecture_code":32}],"1205":{"zip_code":"6991205","prefecture":"島根県","prefecture_kana":"シマネケン","city":"雲南市","city_kana":"ウンナンシ","town":"大東町須賀","town_kana":"ダイトウチョウスガ","prefecture_code":32},"1264":{"zip_code":"6991264","prefecture":"島根県","prefecture_kana":"シマネケン","city":"雲南市","city_kana":"ウンナンシ","town":"大東町清田","town_kana":"ダイトウチョウセイダ","prefecture_code":32},"1242":{"zip_code":"6991242","prefecture":"島根県","prefecture_kana":"シマネケン","city":"雲南市","city_kana":"ウンナンシ","town":"大東町大東下分","town_kana":"ダイトウチョウダイトウシモブン","prefecture_code":32},"1252":{"zip_code":"6991252","prefecture":"島根県","prefecture_kana":"シマネケン","city":"雲南市","city_kana":"ウンナンシ","town":"大東町田中","town_kana":"ダイトウチョウタナカ","prefecture_code":32},"1253":{"zip_code":"6991253","prefecture":"島根県","prefecture_kana":"シマネケン","city":"雲南市","city_kana":"ウンナンシ","town":"大東町中湯石","town_kana":"ダイトウチョウナカユイシ","prefecture_code":32},"1216":{"zip_code":"6991216","prefecture":"島根県","prefecture_kana":"シマネケン","city":"雲南市","city_kana":"ウンナンシ","town":"大東町西阿用","town_kana":"ダイトウチョウニシアヨウ","prefecture_code":32},"1232":{"zip_code":"6991232","prefecture":"島根県","prefecture_kana":"シマネケン","city":"雲南市","city_kana":"ウンナンシ","town":"大東町仁和寺","town_kana":"ダイトウチョウニンナジ","prefecture_code":32},"1243":{"zip_code":"6991243","prefecture":"島根県","prefecture_kana":"シマネケン","city":"雲南市","city_kana":"ウンナンシ","town":"大東町畑鵯","town_kana":"ダイトウチョウハタヒヨドリ","prefecture_code":32},"1233":{"zip_code":"6991233","prefecture":"島根県","prefecture_kana":"シマネケン","city":"雲南市","city_kana":"ウンナンシ","town":"大東町幡屋","town_kana":"ダイトウチョウハタヤ","prefecture_code":32},"1224":{"zip_code":"6991224","prefecture":"島根県","prefecture_kana":"シマネケン","city":"雲南市","city_kana":"ウンナンシ","town":"大東町東阿用","town_kana":"ダイトウチョウヒガシアヨウ","prefecture_code":32},"1234":{"zip_code":"6991234","prefecture":"島根県","prefecture_kana":"シマネケン","city":"雲南市","city_kana":"ウンナンシ","town":"大東町前原","town_kana":"ダイトウチョウマエバラ","prefecture_code":32},"1206":{"zip_code":"6991206","prefecture":"島根県","prefecture_kana":"シマネケン","city":"雲南市","city_kana":"ウンナンシ","town":"大東町南村","town_kana":"ダイトウチョウミナミムラ","prefecture_code":32},"1244":{"zip_code":"6991244","prefecture":"島根県","prefecture_kana":"シマネケン","city":"雲南市","city_kana":"ウンナンシ","town":"大東町山田","town_kana":"ダイトウチョウヤマダ","prefecture_code":32},"1245":{"zip_code":"6991245","prefecture":"島根県","prefecture_kana":"シマネケン","city":"雲南市","city_kana":"ウンナンシ","town":"大東町養賀","town_kana":"ダイトウチョウヨウカ","prefecture_code":32},"1500":{"zip_code":"6991500","prefecture":"島根県","prefecture_kana":"シマネケン","city":"仁多郡奥出雲町","city_kana":"ニタグンオクイズモチョウ","town":"","town_kana":"","prefecture_code":32},"1821":{"zip_code":"6991821","prefecture":"島根県","prefecture_kana":"シマネケン","city":"仁多郡奥出雲町","city_kana":"ニタグンオクイズモチョウ","town":"稲原","town_kana":"イナハラ","prefecture_code":32},"1812":{"zip_code":"6991812","prefecture":"島根県","prefecture_kana":"シマネケン","city":"仁多郡奥出雲町","city_kana":"ニタグンオクイズモチョウ","town":"大谷","town_kana":"オオタニ","prefecture_code":32},"1941":{"zip_code":"6991941","prefecture":"島根県","prefecture_kana":"シマネケン","city":"仁多郡奥出雲町","city_kana":"ニタグンオクイズモチョウ","town":"大馬木","town_kana":"オオマキ","prefecture_code":32},"1802":{"zip_code":"6991802","prefecture":"島根県","prefecture_kana":"シマネケン","city":"仁多郡奥出雲町","city_kana":"ニタグンオクイズモチョウ","town":"大呂","town_kana":"オオロ","prefecture_code":32},"1621":{"zip_code":"6991621","prefecture":"島根県","prefecture_kana":"シマネケン","city":"仁多郡奥出雲町","city_kana":"ニタグンオクイズモチョウ","town":"上阿井","town_kana":"カミアイ","prefecture_code":32},"1431":{"zip_code":"6991431","prefecture":"島根県","prefecture_kana":"シマネケン","city":"仁多郡奥出雲町","city_kana":"ニタグンオクイズモチョウ","town":"上三所","town_kana":"カミミトコロ","prefecture_code":32},"1701":{"zip_code":"6991701","prefecture":"島根県","prefecture_kana":"シマネケン","city":"仁多郡奥出雲町","city_kana":"ニタグンオクイズモチョウ","town":"亀嵩","town_kana":"カメダケ","prefecture_code":32},"1515":{"zip_code":"6991515","prefecture":"島根県","prefecture_kana":"シマネケン","city":"仁多郡奥出雲町","city_kana":"ニタグンオクイズモチョウ","town":"鴨倉","town_kana":"カモクラ","prefecture_code":32},"1514":{"zip_code":"6991514","prefecture":"島根県","prefecture_kana":"シマネケン","city":"仁多郡奥出雲町","city_kana":"ニタグンオクイズモチョウ","town":"河内","town_kana":"カワチ","prefecture_code":32},"1702":{"zip_code":"6991702","prefecture":"島根県","prefecture_kana":"シマネケン","city":"仁多郡奥出雲町","city_kana":"ニタグンオクイズモチョウ","town":"郡","town_kana":"コオリ","prefecture_code":32},"1942":{"zip_code":"6991942","prefecture":"島根県","prefecture_kana":"シマネケン","city":"仁多郡奥出雲町","city_kana":"ニタグンオクイズモチョウ","town":"小馬木","town_kana":"コマキ","prefecture_code":32},"1434":{"zip_code":"6991434","prefecture":"島根県","prefecture_kana":"シマネケン","city":"仁多郡奥出雲町","city_kana":"ニタグンオクイズモチョウ","town":"佐白","town_kana":"サジロ","prefecture_code":32},"1517":{"zip_code":"6991517","prefecture":"島根県","prefecture_kana":"シマネケン","city":"仁多郡奥出雲町","city_kana":"ニタグンオクイズモチョウ","town":"下阿井宇根路","town_kana":"シモアイウネジ","prefecture_code":32},"1622":{"zip_code":"6991622","prefecture":"島根県","prefecture_kana":"シマネケン","city":"仁多郡奥出雲町","city_kana":"ニタグンオクイズモチョウ","town":"下阿井","town_kana":"シモアイ","prefecture_code":32},"1822":{"zip_code":"6991822","prefecture":"島根県","prefecture_kana":"シマネケン","city":"仁多郡奥出雲町","city_kana":"ニタグンオクイズモチョウ","town":"下横田","town_kana":"シモヨコタ","prefecture_code":32},"1512":{"zip_code":"6991512","prefecture":"島根県","prefecture_kana":"シマネケン","city":"仁多郡奥出雲町","city_kana":"ニタグンオクイズモチョウ","town":"高尾","town_kana":"タカオ","prefecture_code":32},"1703":{"zip_code":"6991703","prefecture":"島根県","prefecture_kana":"シマネケン","city":"仁多郡奥出雲町","city_kana":"ニタグンオクイズモチョウ","town":"高田","town_kana":"タカタ","prefecture_code":32},"1801":{"zip_code":"6991801","prefecture":"島根県","prefecture_kana":"シマネケン","city":"仁多郡奥出雲町","city_kana":"ニタグンオクイズモチョウ","town":"竹崎","town_kana":"タケザキ","prefecture_code":32},"1831":{"zip_code":"6991831","prefecture":"島根県","prefecture_kana":"シマネケン","city":"仁多郡奥出雲町","city_kana":"ニタグンオクイズモチョウ","town":"中村","town_kana":"ナカムラ","prefecture_code":32},"1432":{"zip_code":"6991432","prefecture":"島根県","prefecture_kana":"シマネケン","city":"仁多郡奥出雲町","city_kana":"ニタグンオクイズモチョウ","town":"馬馳","town_kana":"マバセ","prefecture_code":32},"1513":{"zip_code":"6991513","prefecture":"島根県","prefecture_kana":"シマネケン","city":"仁多郡奥出雲町","city_kana":"ニタグンオクイズモチョウ","town":"三沢","town_kana":"ミザワ","prefecture_code":32},"1516":{"zip_code":"6991516","prefecture":"島根県","prefecture_kana":"シマネケン","city":"仁多郡奥出雲町","city_kana":"ニタグンオクイズモチョウ","town":"三所","town_kana":"ミトコロ","prefecture_code":32},"1511":{"zip_code":"6991511","prefecture":"島根県","prefecture_kana":"シマネケン","city":"仁多郡奥出雲町","city_kana":"ニタグンオクイズモチョウ","town":"三成","town_kana":"ミナリ","prefecture_code":32},"1811":{"zip_code":"6991811","prefecture":"島根県","prefecture_kana":"シマネケン","city":"仁多郡奥出雲町","city_kana":"ニタグンオクイズモチョウ","town":"八川","town_kana":"ヤカワ","prefecture_code":32},"1433":{"zip_code":"6991433","prefecture":"島根県","prefecture_kana":"シマネケン","city":"仁多郡奥出雲町","city_kana":"ニタグンオクイズモチョウ","town":"八代","town_kana":"ヤシロ","prefecture_code":32},"1832":{"zip_code":"6991832","prefecture":"島根県","prefecture_kana":"シマネケン","city":"仁多郡奥出雲町","city_kana":"ニタグンオクイズモチョウ","town":"横田","town_kana":"ヨコタ","prefecture_code":32},"4600":{"zip_code":"6994600","prefecture":"島根県","prefecture_kana":"シマネケン","city":"邑智郡美郷町","city_kana":"オオチグンミサトチョウ","town":"","town_kana":"","prefecture_code":32},"4624":{"zip_code":"6994624","prefecture":"島根県","prefecture_kana":"シマネケン","city":"邑智郡美郷町","city_kana":"オオチグンミサトチョウ","town":"明塚","town_kana":"アカツカ","prefecture_code":32},"4627":{"zip_code":"6994627","prefecture":"島根県","prefecture_kana":"シマネケン","city":"邑智郡美郷町","city_kana":"オオチグンミサトチョウ","town":"吾郷","town_kana":"アゴウ","prefecture_code":32},"4715":{"zip_code":"6994715","prefecture":"島根県","prefecture_kana":"シマネケン","city":"邑智郡美郷町","city_kana":"オオチグンミサトチョウ","town":"石原","town_kana":"イシハラ","prefecture_code":32},"4631":{"zip_code":"6994631","prefecture":"島根県","prefecture_kana":"シマネケン","city":"邑智郡美郷町","city_kana":"オオチグンミサトチョウ","town":"奥山","town_kana":"オクヤマ","prefecture_code":32},"4626":{"zip_code":"6994626","prefecture":"島根県","prefecture_kana":"シマネケン","city":"邑智郡美郷町","city_kana":"オオチグンミサトチョウ","town":"乙原","town_kana":"オンバラ","prefecture_code":32},"4621":{"zip_code":"6994621","prefecture":"島根県","prefecture_kana":"シマネケン","city":"邑智郡美郷町","city_kana":"オオチグンミサトチョウ","town":"粕渕","town_kana":"カスブチ","prefecture_code":32},"4714":{"zip_code":"6994714","prefecture":"島根県","prefecture_kana":"シマネケン","city":"邑智郡美郷町","city_kana":"オオチグンミサトチョウ","town":"片山","town_kana":"カタヤマ","prefecture_code":32},"4702":{"zip_code":"6994702","prefecture":"島根県","prefecture_kana":"シマネケン","city":"邑智郡美郷町","city_kana":"オオチグンミサトチョウ","town":"上川戸","town_kana":"カミカワド","prefecture_code":32},"4707":{"zip_code":"6994707","prefecture":"島根県","prefecture_kana":"シマネケン","city":"邑智郡美郷町","city_kana":"オオチグンミサトチョウ","town":"亀村","town_kana":"カメムラ","prefecture_code":32},"4622":{"zip_code":"6994622","prefecture":"島根県","prefecture_kana":"シマネケン","city":"邑智郡美郷町","city_kana":"オオチグンミサトチョウ","town":"久保","town_kana":"クボ","prefecture_code":32},"4703":{"zip_code":"6994703","prefecture":"島根県","prefecture_kana":"シマネケン","city":"邑智郡美郷町","city_kana":"オオチグンミサトチョウ","town":"熊見","town_kana":"クマミ","prefecture_code":32},"4712":{"zip_code":"6994712","prefecture":"島根県","prefecture_kana":"シマネケン","city":"邑智郡美郷町","city_kana":"オオチグンミサトチョウ","town":"九日市","town_kana":"ココノカイチ","prefecture_code":32},"4713":{"zip_code":"6994713","prefecture":"島根県","prefecture_kana":"シマネケン","city":"邑智郡美郷町","city_kana":"オオチグンミサトチョウ","town":"酒谷","town_kana":"サケダニ","prefecture_code":32},"4704":{"zip_code":"6994704","prefecture":"島根県","prefecture_kana":"シマネケン","city":"邑智郡美郷町","city_kana":"オオチグンミサトチョウ","town":"信喜","town_kana":"シキ","prefecture_code":32},"4632":{"zip_code":"6994632","prefecture":"島根県","prefecture_kana":"シマネケン","city":"邑智郡美郷町","city_kana":"オオチグンミサトチョウ","town":"高畑","town_kana":"タカハタ","prefecture_code":32},"4605":{"zip_code":"6994605","prefecture":"島根県","prefecture_kana":"シマネケン","city":"邑智郡美郷町","city_kana":"オオチグンミサトチョウ","town":"高山","town_kana":"タカヤマ","prefecture_code":32},"4706":{"zip_code":"6994706","prefecture":"島根県","prefecture_kana":"シマネケン","city":"邑智郡美郷町","city_kana":"オオチグンミサトチョウ","town":"滝原","town_kana":"タキバラ","prefecture_code":32},"4711":{"zip_code":"6994711","prefecture":"島根県","prefecture_kana":"シマネケン","city":"邑智郡美郷町","city_kana":"オオチグンミサトチョウ","town":"千原","town_kana":"チハラ","prefecture_code":32},"4623":{"zip_code":"6994623","prefecture":"島根県","prefecture_kana":"シマネケン","city":"邑智郡美郷町","city_kana":"オオチグンミサトチョウ","town":"野井","town_kana":"ノイ","prefecture_code":32},"4701":{"zip_code":"6994701","prefecture":"島根県","prefecture_kana":"シマネケン","city":"邑智郡美郷町","city_kana":"オオチグンミサトチョウ","town":"浜原","town_kana":"ハマハラ","prefecture_code":32},"4625":{"zip_code":"6994625","prefecture":"島根県","prefecture_kana":"シマネケン","city":"邑智郡美郷町","city_kana":"オオチグンミサトチョウ","town":"簗瀬","town_kana":"ヤナゼ","prefecture_code":32},"4633":{"zip_code":"6994633","prefecture":"島根県","prefecture_kana":"シマネケン","city":"邑智郡美郷町","city_kana":"オオチグンミサトチョウ","town":"湯抱","town_kana":"ユガカイ","prefecture_code":32},"4311":{"zip_code":"6994311","prefecture":"島根県","prefecture_kana":"シマネケン","city":"邑智郡邑南町","city_kana":"オオチグンオオナンチョウ","town":"日貫","town_kana":"ヒヌイ","prefecture_code":32},"5600":{"zip_code":"6995600","prefecture":"島根県","prefecture_kana":"シマネケン","city":"鹿足郡津和野町","city_kana":"カノアシグンツワノチョウ","town":"","town_kana":"","prefecture_code":32},"5211":{"zip_code":"6995211","prefecture":"島根県","prefecture_kana":"シマネケン","city":"鹿足郡津和野町","city_kana":"カノアシグンツワノチョウ","town":"青原","town_kana":"アオハラ","prefecture_code":32},"5201":{"zip_code":"6995201","prefecture":"島根県","prefecture_kana":"シマネケン","city":"鹿足郡津和野町","city_kana":"カノアシグンツワノチョウ","town":"商人","town_kana":"アキンド","prefecture_code":32},"5601":{"zip_code":"6995601","prefecture":"島根県","prefecture_kana":"シマネケン","city":"鹿足郡津和野町","city_kana":"カノアシグンツワノチョウ","town":"商人","town_kana":"アキンド","prefecture_code":32},"5216":{"zip_code":"6995216","prefecture":"島根県","prefecture_kana":"シマネケン","city":"鹿足郡津和野町","city_kana":"カノアシグンツワノチョウ","town":"池村","town_kana":"イケムラ","prefecture_code":32},"5605":{"zip_code":"6995605","prefecture":"島根県","prefecture_kana":"シマネケン","city":"鹿足郡津和野町","city_kana":"カノアシグンツワノチョウ","town":"後田","town_kana":"ウシロダ","prefecture_code":32},"5212":{"zip_code":"6995212","prefecture":"島根県","prefecture_kana":"シマネケン","city":"鹿足郡津和野町","city_kana":"カノアシグンツワノチョウ","town":"河村","town_kana":"カワムラ","prefecture_code":32},"5607":{"zip_code":"6995607","prefecture":"島根県","prefecture_kana":"シマネケン","city":"鹿足郡津和野町","city_kana":"カノアシグンツワノチョウ","town":"耕田","town_kana":"コウダ","prefecture_code":32},"5603":{"zip_code":"6995603","prefecture":"島根県","prefecture_kana":"シマネケン","city":"鹿足郡津和野町","city_kana":"カノアシグンツワノチョウ","town":"笹山","town_kana":"ササヤマ","prefecture_code":32},"5202":{"zip_code":"6995202","prefecture":"島根県","prefecture_kana":"シマネケン","city":"鹿足郡津和野町","city_kana":"カノアシグンツワノチョウ","town":"左鐙","town_kana":"サブミ","prefecture_code":32},"5204":{"zip_code":"6995204","prefecture":"島根県","prefecture_kana":"シマネケン","city":"鹿足郡津和野町","city_kana":"カノアシグンツワノチョウ","town":"須川","town_kana":"スガワ","prefecture_code":32},"5203":{"zip_code":"6995203","prefecture":"島根県","prefecture_kana":"シマネケン","city":"鹿足郡津和野町","city_kana":"カノアシグンツワノチョウ","town":"相撲ケ原","town_kana":"スモウガハラ","prefecture_code":32},"5213":{"zip_code":"6995213","prefecture":"島根県","prefecture_kana":"シマネケン","city":"鹿足郡津和野町","city_kana":"カノアシグンツワノチョウ","town":"添谷","town_kana":"ソエダニ","prefecture_code":32},"5614":{"zip_code":"6995614","prefecture":"島根県","prefecture_kana":"シマネケン","city":"鹿足郡津和野町","city_kana":"カノアシグンツワノチョウ","town":"高峯","town_kana":"タカミネ","prefecture_code":32},"5205":{"zip_code":"6995205","prefecture":"島根県","prefecture_kana":"シマネケン","city":"鹿足郡津和野町","city_kana":"カノアシグンツワノチョウ","town":"瀧谷","town_kana":"タキダニ","prefecture_code":32},"5206":{"zip_code":"6995206","prefecture":"島根県","prefecture_kana":"シマネケン","city":"鹿足郡津和野町","city_kana":"カノアシグンツワノチョウ","town":"瀧元","town_kana":"タキモト","prefecture_code":32},"5602":{"zip_code":"6995602","prefecture":"島根県","prefecture_kana":"シマネケン","city":"鹿足郡津和野町","city_kana":"カノアシグンツワノチョウ","town":"直地","town_kana":"タダチ","prefecture_code":32},"5617":{"zip_code":"6995617","prefecture":"島根県","prefecture_kana":"シマネケン","city":"鹿足郡津和野町","city_kana":"カノアシグンツワノチョウ","town":"田二穂","town_kana":"タニホ","prefecture_code":32},"5214":{"zip_code":"6995214","prefecture":"島根県","prefecture_kana":"シマネケン","city":"鹿足郡津和野町","city_kana":"カノアシグンツワノチョウ","town":"溪村","town_kana":"タニムラ","prefecture_code":32},"5606":{"zip_code":"6995606","prefecture":"島根県","prefecture_kana":"シマネケン","city":"鹿足郡津和野町","city_kana":"カノアシグンツワノチョウ","town":"寺田","town_kana":"テラダ","prefecture_code":32},"5215":{"zip_code":"6995215","prefecture":"島根県","prefecture_kana":"シマネケン","city":"鹿足郡津和野町","city_kana":"カノアシグンツワノチョウ","town":"冨田","town_kana":"トミタ","prefecture_code":32},"5632":{"zip_code":"6995632","prefecture":"島根県","prefecture_kana":"シマネケン","city":"鹿足郡津和野町","city_kana":"カノアシグンツワノチョウ","town":"豊稼","town_kana":"トヨカ","prefecture_code":32},"5621":{"zip_code":"6995621","prefecture":"島根県","prefecture_kana":"シマネケン","city":"鹿足郡津和野町","city_kana":"カノアシグンツワノチョウ","town":"内美","town_kana":"ナイミ","prefecture_code":32},"5634":{"zip_code":"6995634","prefecture":"島根県","prefecture_kana":"シマネケン","city":"鹿足郡津和野町","city_kana":"カノアシグンツワノチョウ","town":"中川","town_kana":"ナカガワ","prefecture_code":32},"5612":{"zip_code":"6995612","prefecture":"島根県","prefecture_kana":"シマネケン","city":"鹿足郡津和野町","city_kana":"カノアシグンツワノチョウ","town":"中座","town_kana":"ナカザ","prefecture_code":32},"5636":{"zip_code":"6995636","prefecture":"島根県","prefecture_kana":"シマネケン","city":"鹿足郡津和野町","city_kana":"カノアシグンツワノチョウ","town":"中曽野","town_kana":"ナカソノ","prefecture_code":32},"5631":{"zip_code":"6995631","prefecture":"島根県","prefecture_kana":"シマネケン","city":"鹿足郡津和野町","city_kana":"カノアシグンツワノチョウ","town":"中山","town_kana":"ナカヤマ","prefecture_code":32},"5633":{"zip_code":"6995633","prefecture":"島根県","prefecture_kana":"シマネケン","city":"鹿足郡津和野町","city_kana":"カノアシグンツワノチョウ","town":"長福","town_kana":"ナガフク","prefecture_code":32},"5615":{"zip_code":"6995615","prefecture":"島根県","prefecture_kana":"シマネケン","city":"鹿足郡津和野町","city_kana":"カノアシグンツワノチョウ","town":"名賀","town_kana":"ナヨシ","prefecture_code":32},"5221":{"zip_code":"6995221","prefecture":"島根県","prefecture_kana":"シマネケン","city":"鹿足郡津和野町","city_kana":"カノアシグンツワノチョウ","town":"日原","town_kana":"ニチハラ","prefecture_code":32},"5637":{"zip_code":"6995637","prefecture":"島根県","prefecture_kana":"シマネケン","city":"鹿足郡津和野町","city_kana":"カノアシグンツワノチョウ","town":"吹野","town_kana":"フキノ","prefecture_code":32},"5616":{"zip_code":"6995616","prefecture":"島根県","prefecture_kana":"シマネケン","city":"鹿足郡津和野町","city_kana":"カノアシグンツワノチョウ","town":"部栄","town_kana":"ブサカ","prefecture_code":32},"5207":{"zip_code":"6995207","prefecture":"島根県","prefecture_kana":"シマネケン","city":"鹿足郡津和野町","city_kana":"カノアシグンツワノチョウ","town":"枕瀬","town_kana":"マクラセ","prefecture_code":32},"5611":{"zip_code":"6995611","prefecture":"島根県","prefecture_kana":"シマネケン","city":"鹿足郡津和野町","city_kana":"カノアシグンツワノチョウ","town":"町田","town_kana":"マチダ","prefecture_code":32},"5622":{"zip_code":"6995622","prefecture":"島根県","prefecture_kana":"シマネケン","city":"鹿足郡津和野町","city_kana":"カノアシグンツワノチョウ","town":"邑輝","town_kana":"ムラキ","prefecture_code":32},"5604":{"zip_code":"6995604","prefecture":"島根県","prefecture_kana":"シマネケン","city":"鹿足郡津和野町","city_kana":"カノアシグンツワノチョウ","town":"森村","town_kana":"モリムラ","prefecture_code":32},"5217":{"zip_code":"6995217","prefecture":"島根県","prefecture_kana":"シマネケン","city":"鹿足郡津和野町","city_kana":"カノアシグンツワノチョウ","town":"柳村","town_kana":"ヤナギムラ","prefecture_code":32},"5635":{"zip_code":"6995635","prefecture":"島根県","prefecture_kana":"シマネケン","city":"鹿足郡津和野町","city_kana":"カノアシグンツワノチョウ","town":"山下","town_kana":"ヤマシタ","prefecture_code":32},"5613":{"zip_code":"6995613","prefecture":"島根県","prefecture_kana":"シマネケン","city":"鹿足郡津和野町","city_kana":"カノアシグンツワノチョウ","town":"鷲原","town_kana":"ワシバラ","prefecture_code":32},"5500":{"zip_code":"6995500","prefecture":"島根県","prefecture_kana":"シマネケン","city":"鹿足郡吉賀町","city_kana":"カノアシグンヨシカチョウ","town":"","town_kana":"","prefecture_code":32},"5523":{"zip_code":"6995523","prefecture":"島根県","prefecture_kana":"シマネケン","city":"鹿足郡吉賀町","city_kana":"カノアシグンヨシカチョウ","town":"朝倉","town_kana":"アサクラ","prefecture_code":32},"5506":{"zip_code":"6995506","prefecture":"島根県","prefecture_kana":"シマネケン","city":"鹿足郡吉賀町","city_kana":"カノアシグンヨシカチョウ","town":"有飯","town_kana":"アリイ","prefecture_code":32},"5306":{"zip_code":"6995306","prefecture":"島根県","prefecture_kana":"シマネケン","city":"鹿足郡吉賀町","city_kana":"カノアシグンヨシカチョウ","town":"柿木村大野原","town_kana":"カキノキムラオオノバラ","prefecture_code":32},"5301":{"zip_code":"6995301","prefecture":"島根県","prefecture_kana":"シマネケン","city":"鹿足郡吉賀町","city_kana":"カノアシグンヨシカチョウ","town":"柿木村柿木","town_kana":"カキノキムラカキノキ","prefecture_code":32},"5303":{"zip_code":"6995303","prefecture":"島根県","prefecture_kana":"シマネケン","city":"鹿足郡吉賀町","city_kana":"カノアシグンヨシカチョウ","town":"柿木村椛谷","town_kana":"カキノキムラカバタニ","prefecture_code":32},"5307":{"zip_code":"6995307","prefecture":"島根県","prefecture_kana":"シマネケン","city":"鹿足郡吉賀町","city_kana":"カノアシグンヨシカチョウ","town":"柿木村木部谷","town_kana":"カキノキムラキベダニ","prefecture_code":32},"5305":{"zip_code":"6995305","prefecture":"島根県","prefecture_kana":"シマネケン","city":"鹿足郡吉賀町","city_kana":"カノアシグンヨシカチョウ","town":"柿木村下須","town_kana":"カキノキムラシモス","prefecture_code":32},"5304":{"zip_code":"6995304","prefecture":"島根県","prefecture_kana":"シマネケン","city":"鹿足郡吉賀町","city_kana":"カノアシグンヨシカチョウ","town":"柿木村白谷","town_kana":"カキノキムラシラタニ","prefecture_code":32},"5302":{"zip_code":"6995302","prefecture":"島根県","prefecture_kana":"シマネケン","city":"鹿足郡吉賀町","city_kana":"カノアシグンヨシカチョウ","town":"柿木村福川","town_kana":"カキノキムラフクガワ","prefecture_code":32},"5501":{"zip_code":"6995501","prefecture":"島根県","prefecture_kana":"シマネケン","city":"鹿足郡吉賀町","city_kana":"カノアシグンヨシカチョウ","town":"上高尻","town_kana":"カミタカジリ","prefecture_code":32},"5504":{"zip_code":"6995504","prefecture":"島根県","prefecture_kana":"シマネケン","city":"鹿足郡吉賀町","city_kana":"カノアシグンヨシカチョウ","town":"蔵木","town_kana":"クラギ","prefecture_code":32},"5505":{"zip_code":"6995505","prefecture":"島根県","prefecture_kana":"シマネケン","city":"鹿足郡吉賀町","city_kana":"カノアシグンヨシカチョウ","town":"九郎原","town_kana":"クロウバラ","prefecture_code":32},"5515":{"zip_code":"6995515","prefecture":"島根県","prefecture_kana":"シマネケン","city":"鹿足郡吉賀町","city_kana":"カノアシグンヨシカチョウ","town":"幸地","town_kana":"コウジ","prefecture_code":32},"5521":{"zip_code":"6995521","prefecture":"島根県","prefecture_kana":"シマネケン","city":"鹿足郡吉賀町","city_kana":"カノアシグンヨシカチョウ","town":"真田","town_kana":"サナダ","prefecture_code":32},"5516":{"zip_code":"6995516","prefecture":"島根県","prefecture_kana":"シマネケン","city":"鹿足郡吉賀町","city_kana":"カノアシグンヨシカチョウ","town":"沢田","town_kana":"サワダ","prefecture_code":32},"5517":{"zip_code":"6995517","prefecture":"島根県","prefecture_kana":"シマネケン","city":"鹿足郡吉賀町","city_kana":"カノアシグンヨシカチョウ","town":"注連川","town_kana":"シメガワ","prefecture_code":32},"5507":{"zip_code":"6995507","prefecture":"島根県","prefecture_kana":"シマネケン","city":"鹿足郡吉賀町","city_kana":"カノアシグンヨシカチョウ","town":"下高尻","town_kana":"シモタカジリ","prefecture_code":32},"5514":{"zip_code":"6995514","prefecture":"島根県","prefecture_kana":"シマネケン","city":"鹿足郡吉賀町","city_kana":"カノアシグンヨシカチョウ","town":"立河内","town_kana":"タチゴウチ","prefecture_code":32},"5511":{"zip_code":"6995511","prefecture":"島根県","prefecture_kana":"シマネケン","city":"鹿足郡吉賀町","city_kana":"カノアシグンヨシカチョウ","town":"立戸","town_kana":"タチド","prefecture_code":32},"5524":{"zip_code":"6995524","prefecture":"島根県","prefecture_kana":"シマネケン","city":"鹿足郡吉賀町","city_kana":"カノアシグンヨシカチョウ","town":"蓼野","town_kana":"タデノ","prefecture_code":32},"5502":{"zip_code":"6995502","prefecture":"島根県","prefecture_kana":"シマネケン","city":"鹿足郡吉賀町","city_kana":"カノアシグンヨシカチョウ","town":"田野原","town_kana":"タノハラ","prefecture_code":32},"5522":{"zip_code":"6995522","prefecture":"島根県","prefecture_kana":"シマネケン","city":"鹿足郡吉賀町","city_kana":"カノアシグンヨシカチョウ","town":"七日市","town_kana":"ナヌカイチ","prefecture_code":32},"5525":{"zip_code":"6995525","prefecture":"島根県","prefecture_kana":"シマネケン","city":"鹿足郡吉賀町","city_kana":"カノアシグンヨシカチョウ","town":"抜月","town_kana":"ヌクツキ","prefecture_code":32},"5503":{"zip_code":"6995503","prefecture":"島根県","prefecture_kana":"シマネケン","city":"鹿足郡吉賀町","city_kana":"カノアシグンヨシカチョウ","town":"樋口","town_kana":"ヒグチ","prefecture_code":32},"5512":{"zip_code":"6995512","prefecture":"島根県","prefecture_kana":"シマネケン","city":"鹿足郡吉賀町","city_kana":"カノアシグンヨシカチョウ","town":"広石","town_kana":"ヒロイシ","prefecture_code":32},"5513":{"zip_code":"6995513","prefecture":"島根県","prefecture_kana":"シマネケン","city":"鹿足郡吉賀町","city_kana":"カノアシグンヨシカチョウ","town":"六日市","town_kana":"ムイカイチ","prefecture_code":32}}