{"0000":[{"zip_code":"7000000","prefecture":"岡山県","prefecture_kana":"オカヤマケン","city":"岡山市北区","city_kana":"オカヤマシキタク","town":"","town_kana":"","prefecture_code":33},{"zip_code":"7000000","prefecture":"岡山県","prefecture_kana":"オカヤマケン","city":"岡山市中区","city_kana":"オカヤマシナカク","town":"","town_kana":"","prefecture_code":33},{"zip_code":"7000000","prefecture":"岡山県","prefecture_kana":"オカヤマケン","city":"岡山市東区","city_kana":"オカヤマシヒガシク","town":"","town_kana":"","prefecture_code":33},{"zip_code":"7000000","prefecture":"岡山県","prefecture_kana":"オカヤマケン","city":"岡山市南区","city_kana":"オカヤマシミナミク","town":"","town_kana":"","prefecture_code":33}],"0045":{"zip_code":"7000045","prefecture":"岡山県","prefecture_kana":"オカヤマケン","city":"岡山市北区","city_kana":"オカヤマシキタク","town":"葵町","town_kana":"アオイチョウ","prefecture_code":33},"0941":[{"zip_code":"7000941","prefecture":"岡山県","prefecture_kana":"オカヤマケン","city":"岡山市北区","city_kana":"オカヤマシキタク","town":"青江","town_kana":"アオエ","prefecture_code":33},{"zip_code":"7000941","prefecture":"岡山県","prefecture_kana":"オカヤマケン","city":"岡山市南区","city_kana":"オカヤマシミナミク","town":"青江","town_kana":"アオエ","prefecture_code":33}],"0865":{"zip_code":"7000865","prefecture":"岡山県","prefecture_kana":"オカヤマケン","city":"岡山市北区","city_kana":"オカヤマシキタク","town":"旭本町","town_kana":"アサヒホンマチ","prefecture_code":33},"0864":{"zip_code":"7000864","prefecture":"岡山県","prefecture_kana":"オカヤマケン","city":"岡山市北区","city_kana":"オカヤマシキタク","town":"旭町","town_kana":"アサヒマチ","prefecture_code":33},"0833":{"zip_code":"7000833","prefecture":"岡山県","prefecture_kana":"オカヤマケン","city":"岡山市北区","city_kana":"オカヤマシキタク","town":"天瀬","town_kana":"アマセ","prefecture_code":33},"0834":{"zip_code":"7000834","prefecture":"岡山県","prefecture_kana":"オカヤマケン","city":"岡山市北区","city_kana":"オカヤマシキタク","town":"天瀬南町","town_kana":"アマセミナミマチ","prefecture_code":33},"0813":{"zip_code":"7000813","prefecture":"岡山県","prefecture_kana":"オカヤマケン","city":"岡山市北区","city_kana":"オカヤマシキタク","town":"石関町","town_kana":"イシゼキチョウ","prefecture_code":33},"0017":{"zip_code":"7000017","prefecture":"岡山県","prefecture_kana":"オカヤマケン","city":"岡山市北区","city_kana":"オカヤマシキタク","town":"伊島北町","town_kana":"イシマキタマチ","prefecture_code":33},"0016":{"zip_code":"7000016","prefecture":"岡山県","prefecture_kana":"オカヤマケン","city":"岡山市北区","city_kana":"オカヤマシキタク","town":"伊島町","town_kana":"イシマチョウ","prefecture_code":33},"0812":{"zip_code":"7000812","prefecture":"岡山県","prefecture_kana":"オカヤマケン","city":"岡山市北区","city_kana":"オカヤマシキタク","town":"出石町","town_kana":"イズシチョウ","prefecture_code":33},"0012":{"zip_code":"7000012","prefecture":"岡山県","prefecture_kana":"オカヤマケン","city":"岡山市北区","city_kana":"オカヤマシキタク","town":"いずみ町","town_kana":"イズミチョウ","prefecture_code":33},"0013":{"zip_code":"7000013","prefecture":"岡山県","prefecture_kana":"オカヤマケン","city":"岡山市北区","city_kana":"オカヤマシキタク","town":"伊福町","town_kana":"イフクチョウ","prefecture_code":33},"0975":{"zip_code":"7000975","prefecture":"岡山県","prefecture_kana":"オカヤマケン","city":"岡山市北区","city_kana":"オカヤマシキタク","town":"今","town_kana":"イマ","prefecture_code":33},"0974":{"zip_code":"7000974","prefecture":"岡山県","prefecture_kana":"オカヤマケン","city":"岡山市北区","city_kana":"オカヤマシキタク","town":"今村","town_kana":"イマムラ","prefecture_code":33},"0046":{"zip_code":"7000046","prefecture":"岡山県","prefecture_kana":"オカヤマケン","city":"岡山市北区","city_kana":"オカヤマシキタク","town":"岩井","town_kana":"イワイ","prefecture_code":33},"0041":{"zip_code":"7000041","prefecture":"岡山県","prefecture_kana":"オカヤマケン","city":"岡山市北区","city_kana":"オカヤマシキタク","town":"岩井宮裏","town_kana":"イワイミヤウラ","prefecture_code":33},"0022":{"zip_code":"7000022","prefecture":"岡山県","prefecture_kana":"オカヤマケン","city":"岡山市北区","city_kana":"オカヤマシキタク","town":"岩田町","town_kana":"イワタチョウ","prefecture_code":33},"0824":{"zip_code":"7000824","prefecture":"岡山県","prefecture_kana":"オカヤマケン","city":"岡山市北区","city_kana":"オカヤマシキタク","town":"内山下","town_kana":"ウチサンゲ","prefecture_code":33},"0023":{"zip_code":"7000023","prefecture":"岡山県","prefecture_kana":"オカヤマケン","city":"岡山市北区","city_kana":"オカヤマシキタク","town":"駅前町","town_kana":"エキマエチョウ","prefecture_code":33},"0024":{"zip_code":"7000024","prefecture":"岡山県","prefecture_kana":"オカヤマケン","city":"岡山市北区","city_kana":"オカヤマシキタク","town":"駅元町","town_kana":"エキモトマチ","prefecture_code":33},"0028":{"zip_code":"7000028","prefecture":"岡山県","prefecture_kana":"オカヤマケン","city":"岡山市北区","city_kana":"オカヤマシキタク","town":"絵図町","town_kana":"エズチョウ","prefecture_code":33},"0924":{"zip_code":"7000924","prefecture":"岡山県","prefecture_kana":"オカヤマケン","city":"岡山市北区","city_kana":"オカヤマシキタク","town":"大元","town_kana":"オオモト","prefecture_code":33},"0923":{"zip_code":"7000923","prefecture":"岡山県","prefecture_kana":"オカヤマケン","city":"岡山市北区","city_kana":"オカヤマシキタク","town":"大元駅前","town_kana":"オオモトエキマエ","prefecture_code":33},"0925":{"zip_code":"7000925","prefecture":"岡山県","prefecture_kana":"オカヤマケン","city":"岡山市北区","city_kana":"オカヤマシキタク","town":"大元上町","town_kana":"オオモトカミマチ","prefecture_code":33},"0867":{"zip_code":"7000867","prefecture":"岡山県","prefecture_kana":"オカヤマケン","city":"岡山市北区","city_kana":"オカヤマシキタク","town":"岡町","town_kana":"オカマチ","prefecture_code":33},"0933":{"zip_code":"7000933","prefecture":"岡山県","prefecture_kana":"オカヤマケン","city":"岡山市北区","city_kana":"オカヤマシキタク","town":"奥田","town_kana":"オクダ","prefecture_code":33},"0931":{"zip_code":"7000931","prefecture":"岡山県","prefecture_kana":"オカヤマケン","city":"岡山市北区","city_kana":"オカヤマシキタク","town":"奥田西町","town_kana":"オクダニシマチ","prefecture_code":33},"0932":{"zip_code":"7000932","prefecture":"岡山県","prefecture_kana":"オカヤマケン","city":"岡山市北区","city_kana":"オカヤマシキタク","town":"奥田本町","town_kana":"オクダホンマチ","prefecture_code":33},"0934":{"zip_code":"7000934","prefecture":"岡山県","prefecture_kana":"オカヤマケン","city":"岡山市北区","city_kana":"オカヤマシキタク","town":"奥田南町","town_kana":"オクダミナミマチ","prefecture_code":33},"0844":{"zip_code":"7000844","prefecture":"岡山県","prefecture_kana":"オカヤマケン","city":"岡山市北区","city_kana":"オカヤマシキタク","town":"御舟入町","town_kana":"オフナイリチョウ","prefecture_code":33},"0822":{"zip_code":"7000822","prefecture":"岡山県","prefecture_kana":"オカヤマケン","city":"岡山市北区","city_kana":"オカヤマシキタク","town":"表町","town_kana":"オモテチョウ","prefecture_code":33},"0011":{"zip_code":"7000011","prefecture":"岡山県","prefecture_kana":"オカヤマケン","city":"岡山市北区","city_kana":"オカヤマシキタク","town":"学南町","town_kana":"ガクナンチョウ","prefecture_code":33},"0905":{"zip_code":"7000905","prefecture":"岡山県","prefecture_kana":"オカヤマケン","city":"岡山市北区","city_kana":"オカヤマシキタク","town":"春日町","town_kana":"カスガチョウ","prefecture_code":33},"0972":{"zip_code":"7000972","prefecture":"岡山県","prefecture_kana":"オカヤマケン","city":"岡山市北区","city_kana":"オカヤマシキタク","town":"上中野","town_kana":"カミナカノ","prefecture_code":33},"0047":{"zip_code":"7000047","prefecture":"岡山県","prefecture_kana":"オカヤマケン","city":"岡山市北区","city_kana":"オカヤマシキタク","town":"関西町","town_kana":"カンゼイチョウ","prefecture_code":33},"0935":{"zip_code":"7000935","prefecture":"岡山県","prefecture_kana":"オカヤマケン","city":"岡山市北区","city_kana":"オカヤマシキタク","town":"神田町","town_kana":"カンダチョウ","prefecture_code":33},"0803":{"zip_code":"7000803","prefecture":"岡山県","prefecture_kana":"オカヤマケン","city":"岡山市北区","city_kana":"オカヤマシキタク","town":"北方","town_kana":"キタガタ","prefecture_code":33},"0963":{"zip_code":"7000963","prefecture":"岡山県","prefecture_kana":"オカヤマケン","city":"岡山市北区","city_kana":"オカヤマシキタク","town":"北長瀬","town_kana":"キタナガセ","prefecture_code":33},"0962":{"zip_code":"7000962","prefecture":"岡山県","prefecture_kana":"オカヤマケン","city":"岡山市北区","city_kana":"オカヤマシキタク","town":"北長瀬表町","town_kana":"キタナガセオモテマチ","prefecture_code":33},"0961":{"zip_code":"7000961","prefecture":"岡山県","prefecture_kana":"オカヤマケン","city":"岡山市北区","city_kana":"オカヤマシキタク","town":"北長瀬本町","town_kana":"キタナガセホンマチ","prefecture_code":33},"0831":{"zip_code":"7000831","prefecture":"岡山県","prefecture_kana":"オカヤマケン","city":"岡山市北区","city_kana":"オカヤマシキタク","town":"京橋町","town_kana":"キョウバシチョウ","prefecture_code":33},"0832":{"zip_code":"7000832","prefecture":"岡山県","prefecture_kana":"オカヤマケン","city":"岡山市北区","city_kana":"オカヤマシキタク","town":"京橋南町","town_kana":"キョウバシミナミマチ","prefecture_code":33},"0838":{"zip_code":"7000838","prefecture":"岡山県","prefecture_kana":"オカヤマケン","city":"岡山市北区","city_kana":"オカヤマシキタク","town":"京町","town_kana":"キョウマチ","prefecture_code":33},"0015":{"zip_code":"7000015","prefecture":"岡山県","prefecture_kana":"オカヤマケン","city":"岡山市北区","city_kana":"オカヤマシキタク","town":"京山","town_kana":"キョウヤマ","prefecture_code":33},"0984":{"zip_code":"7000984","prefecture":"岡山県","prefecture_kana":"オカヤマケン","city":"岡山市北区","city_kana":"オカヤマシキタク","town":"桑田町","town_kana":"クワダチョウ","prefecture_code":33},"0985":{"zip_code":"7000985","prefecture":"岡山県","prefecture_kana":"オカヤマケン","city":"岡山市北区","city_kana":"オカヤマシキタク","town":"厚生町","town_kana":"コウセイチョウ","prefecture_code":33},"0866":{"zip_code":"7000866","prefecture":"岡山県","prefecture_kana":"オカヤマケン","city":"岡山市北区","city_kana":"オカヤマシキタク","town":"岡南町","town_kana":"コウナンチョウ","prefecture_code":33},"0021":{"zip_code":"7000021","prefecture":"岡山県","prefecture_kana":"オカヤマケン","city":"岡山市北区","city_kana":"オカヤマシキタク","town":"国体町","town_kana":"コクタイチョウ","prefecture_code":33},"0025":{"zip_code":"7000025","prefecture":"岡山県","prefecture_kana":"オカヤマケン","city":"岡山市北区","city_kana":"オカヤマシキタク","town":"寿町","town_kana":"コトブキチョウ","prefecture_code":33},"0903":{"zip_code":"7000903","prefecture":"岡山県","prefecture_kana":"オカヤマケン","city":"岡山市北区","city_kana":"オカヤマシキタク","town":"幸町","town_kana":"サイワイチョウ","prefecture_code":33},"0914":{"zip_code":"7000914","prefecture":"岡山県","prefecture_kana":"オカヤマケン","city":"岡山市北区","city_kana":"オカヤマシキタク","town":"鹿田町","town_kana":"シカタチョウ","prefecture_code":33},"0915":{"zip_code":"7000915","prefecture":"岡山県","prefecture_kana":"オカヤマケン","city":"岡山市北区","city_kana":"オカヤマシキタク","town":"鹿田本町","town_kana":"シカタホンマチ","prefecture_code":33},"0033":{"zip_code":"7000033","prefecture":"岡山県","prefecture_kana":"オカヤマケン","city":"岡山市北区","city_kana":"オカヤマシキタク","town":"島田本町","town_kana":"シマダホンマチ","prefecture_code":33},"0907":{"zip_code":"7000907","prefecture":"岡山県","prefecture_kana":"オカヤマケン","city":"岡山市北区","city_kana":"オカヤマシキタク","town":"下石井","town_kana":"シモイシイ","prefecture_code":33},"0052":{"zip_code":"7000052","prefecture":"岡山県","prefecture_kana":"オカヤマケン","city":"岡山市北区","city_kana":"オカヤマシキタク","town":"下伊福","town_kana":"シモイフク","prefecture_code":33},"0051":{"zip_code":"7000051","prefecture":"岡山県","prefecture_kana":"オカヤマケン","city":"岡山市北区","city_kana":"オカヤマシキタク","town":"下伊福上町","town_kana":"シモイフクカミマチ","prefecture_code":33},"0054":{"zip_code":"7000054","prefecture":"岡山県","prefecture_kana":"オカヤマケン","city":"岡山市北区","city_kana":"オカヤマシキタク","town":"下伊福西町","town_kana":"シモイフクニシマチ","prefecture_code":33},"0053":{"zip_code":"7000053","prefecture":"岡山県","prefecture_kana":"オカヤマケン","city":"岡山市北区","city_kana":"オカヤマシキタク","town":"下伊福本町","town_kana":"シモイフクホンマチ","prefecture_code":33},"0846":{"zip_code":"7000846","prefecture":"岡山県","prefecture_kana":"オカヤマケン","city":"岡山市北区","city_kana":"オカヤマシキタク","town":"下内田町","town_kana":"シモウチダチョウ","prefecture_code":33},"0973":[{"zip_code":"7000973","prefecture":"岡山県","prefecture_kana":"オカヤマケン","city":"岡山市北区","city_kana":"オカヤマシキタク","town":"下中野","town_kana":"シモナカノ","prefecture_code":33},{"zip_code":"7000973","prefecture":"岡山県","prefecture_kana":"オカヤマケン","city":"岡山市南区","city_kana":"オカヤマシミナミク","town":"下中野","town_kana":"シモナカノ","prefecture_code":33}],"0001":{"zip_code":"7000001","prefecture":"岡山県","prefecture_kana":"オカヤマケン","city":"岡山市北区","city_kana":"オカヤマシキタク","town":"宿","town_kana":"シュク","prefecture_code":33},"0002":{"zip_code":"7000002","prefecture":"岡山県","prefecture_kana":"オカヤマケン","city":"岡山市北区","city_kana":"オカヤマシキタク","town":"宿本町","town_kana":"シュクホンマチ","prefecture_code":33},"0032":{"zip_code":"7000032","prefecture":"岡山県","prefecture_kana":"オカヤマケン","city":"岡山市北区","city_kana":"オカヤマシキタク","town":"昭和町","town_kana":"ショウワチョウ","prefecture_code":33},"0863":{"zip_code":"7000863","prefecture":"岡山県","prefecture_kana":"オカヤマケン","city":"岡山市北区","city_kana":"オカヤマシキタク","town":"新道","town_kana":"シンミチ","prefecture_code":33},"0986":{"zip_code":"7000986","prefecture":"岡山県","prefecture_kana":"オカヤマケン","city":"岡山市北区","city_kana":"オカヤマシキタク","town":"新屋敷町","town_kana":"シンヤシキチョウ","prefecture_code":33},"0861":{"zip_code":"7000861","prefecture":"岡山県","prefecture_kana":"オカヤマケン","city":"岡山市北区","city_kana":"オカヤマシキタク","town":"清輝橋","town_kana":"セイキバシ","prefecture_code":33},"0862":{"zip_code":"7000862","prefecture":"岡山県","prefecture_kana":"オカヤマケン","city":"岡山市北区","city_kana":"オカヤマシキタク","town":"清輝本町","town_kana":"セイキホンマチ","prefecture_code":33},"0027":{"zip_code":"7000027","prefecture":"岡山県","prefecture_kana":"オカヤマケン","city":"岡山市北区","city_kana":"オカヤマシキタク","town":"清心町","town_kana":"セイシンチョウ","prefecture_code":33},"0842":{"zip_code":"7000842","prefecture":"岡山県","prefecture_kana":"オカヤマケン","city":"岡山市北区","city_kana":"オカヤマシキタク","town":"船頭町","town_kana":"センドウチョウ","prefecture_code":33},"0062":{"zip_code":"7000062","prefecture":"岡山県","prefecture_kana":"オカヤマケン","city":"岡山市北区","city_kana":"オカヤマシキタク","town":"大安寺中町","town_kana":"ダイアンジナカマチ","prefecture_code":33},"0061":{"zip_code":"7000061","prefecture":"岡山県","prefecture_kana":"オカヤマケン","city":"岡山市北区","city_kana":"オカヤマシキタク","town":"大安寺西町","town_kana":"ダイアンジニシマチ","prefecture_code":33},"0063":{"zip_code":"7000063","prefecture":"岡山県","prefecture_kana":"オカヤマケン","city":"岡山市北区","city_kana":"オカヤマシキタク","town":"大安寺東町","town_kana":"ダイアンジヒガシマチ","prefecture_code":33},"0064":{"zip_code":"7000064","prefecture":"岡山県","prefecture_kana":"オカヤマケン","city":"岡山市北区","city_kana":"オカヤマシキタク","town":"大安寺南町","town_kana":"ダイアンジミナミマチ","prefecture_code":33},"0906":{"zip_code":"7000906","prefecture":"岡山県","prefecture_kana":"オカヤマケン","city":"岡山市北区","city_kana":"オカヤマシキタク","town":"大学町","town_kana":"ダイガクチョウ","prefecture_code":33},"0913":{"zip_code":"7000913","prefecture":"岡山県","prefecture_kana":"オカヤマケン","city":"岡山市北区","city_kana":"オカヤマシキタク","town":"大供","town_kana":"ダイク","prefecture_code":33},"0912":{"zip_code":"7000912","prefecture":"岡山県","prefecture_kana":"オカヤマケン","city":"岡山市北区","city_kana":"オカヤマシキタク","town":"大供表町","town_kana":"ダイクオモテマチ","prefecture_code":33},"0911":{"zip_code":"7000911","prefecture":"岡山県","prefecture_kana":"オカヤマケン","city":"岡山市北区","city_kana":"オカヤマシキタク","town":"大供本町","town_kana":"ダイクホンマチ","prefecture_code":33},"0035":{"zip_code":"7000035","prefecture":"岡山県","prefecture_kana":"オカヤマケン","city":"岡山市北区","city_kana":"オカヤマシキタク","town":"高柳西町","town_kana":"タカヤナギニシマチ","prefecture_code":33},"0034":{"zip_code":"7000034","prefecture":"岡山県","prefecture_kana":"オカヤマケン","city":"岡山市北区","city_kana":"オカヤマシキタク","town":"高柳東町","town_kana":"タカヤナギヒガシマチ","prefecture_code":33},"0976":{"zip_code":"7000976","prefecture":"岡山県","prefecture_kana":"オカヤマケン","city":"岡山市北区","city_kana":"オカヤマシキタク","town":"辰巳","town_kana":"タツミ","prefecture_code":33},"0951":{"zip_code":"7000951","prefecture":"岡山県","prefecture_kana":"オカヤマケン","city":"岡山市北区","city_kana":"オカヤマシキタク","town":"田中","town_kana":"タナカ","prefecture_code":33},"0071":{"zip_code":"7000071","prefecture":"岡山県","prefecture_kana":"オカヤマケン","city":"岡山市北区","city_kana":"オカヤマシキタク","town":"谷万成","town_kana":"タニマンナリ","prefecture_code":33},"0825":{"zip_code":"7000825","prefecture":"岡山県","prefecture_kana":"オカヤマケン","city":"岡山市北区","city_kana":"オカヤマシキタク","town":"田町","town_kana":"タマチ","prefecture_code":33},"0836":{"zip_code":"7000836","prefecture":"岡山県","prefecture_kana":"オカヤマケン","city":"岡山市北区","city_kana":"オカヤマシキタク","town":"中央町","town_kana":"チュウオウチョウ","prefecture_code":33},"0014":{"zip_code":"7000014","prefecture":"岡山県","prefecture_kana":"オカヤマケン","city":"岡山市北区","city_kana":"オカヤマシキタク","town":"津倉町","town_kana":"ツクラチョウ","prefecture_code":33},"0087":{"zip_code":"7000087","prefecture":"岡山県","prefecture_kana":"オカヤマケン","city":"岡山市北区","city_kana":"オカヤマシキタク","town":"津島京町","town_kana":"ツシマキョウマチ","prefecture_code":33},"0084":{"zip_code":"7000084","prefecture":"岡山県","prefecture_kana":"オカヤマケン","city":"岡山市北区","city_kana":"オカヤマシキタク","town":"津島桑の木町","town_kana":"ツシマクワノキチョウ","prefecture_code":33},"0088":{"zip_code":"7000088","prefecture":"岡山県","prefecture_kana":"オカヤマケン","city":"岡山市北区","city_kana":"オカヤマシキタク","town":"津島笹が瀬","town_kana":"ツシマササガセ","prefecture_code":33},"0082":{"zip_code":"7000082","prefecture":"岡山県","prefecture_kana":"オカヤマケン","city":"岡山市北区","city_kana":"オカヤマシキタク","town":"津島中","town_kana":"ツシマナカ","prefecture_code":33},"0083":{"zip_code":"7000083","prefecture":"岡山県","prefecture_kana":"オカヤマケン","city":"岡山市北区","city_kana":"オカヤマシキタク","town":"津島新野","town_kana":"ツシマニイノ","prefecture_code":33},"0086":{"zip_code":"7000086","prefecture":"岡山県","prefecture_kana":"オカヤマケン","city":"岡山市北区","city_kana":"オカヤマシキタク","town":"津島西坂","town_kana":"ツシマニシザカ","prefecture_code":33},"0081":{"zip_code":"7000081","prefecture":"岡山県","prefecture_kana":"オカヤマケン","city":"岡山市北区","city_kana":"オカヤマシキタク","town":"津島東","town_kana":"ツシマヒガシ","prefecture_code":33},"0080":{"zip_code":"7000080","prefecture":"岡山県","prefecture_kana":"オカヤマケン","city":"岡山市北区","city_kana":"オカヤマシキタク","town":"津島福居","town_kana":"ツシマフクイ","prefecture_code":33},"0089":{"zip_code":"7000089","prefecture":"岡山県","prefecture_kana":"オカヤマケン","city":"岡山市北区","city_kana":"オカヤマシキタク","town":"津島本町","town_kana":"ツシマホンマチ","prefecture_code":33},"0085":{"zip_code":"7000085","prefecture":"岡山県","prefecture_kana":"オカヤマケン","city":"岡山市北区","city_kana":"オカヤマシキタク","town":"津島南","town_kana":"ツシマミナミ","prefecture_code":33},"0814":{"zip_code":"7000814","prefecture":"岡山県","prefecture_kana":"オカヤマケン","city":"岡山市北区","city_kana":"オカヤマシキタク","town":"天神町","town_kana":"テンジンチョウ","prefecture_code":33},"0977":{"zip_code":"7000977","prefecture":"岡山県","prefecture_kana":"オカヤマケン","city":"岡山市北区","city_kana":"オカヤマシキタク","town":"問屋町","town_kana":"トイヤチョウ","prefecture_code":33},"0855":{"zip_code":"7000855","prefecture":"岡山県","prefecture_kana":"オカヤマケン","city":"岡山市北区","city_kana":"オカヤマシキタク","town":"十日市中町","town_kana":"トウカイチナカマチ","prefecture_code":33},"0856":{"zip_code":"7000856","prefecture":"岡山県","prefecture_kana":"オカヤマケン","city":"岡山市北区","city_kana":"オカヤマシキタク","town":"十日市西町","town_kana":"トウカイチニシマチ","prefecture_code":33},"0854":{"zip_code":"7000854","prefecture":"岡山県","prefecture_kana":"オカヤマケン","city":"岡山市北区","city_kana":"オカヤマシキタク","town":"十日市東町","town_kana":"トウカイチヒガシマチ","prefecture_code":33},"0826":{"zip_code":"7000826","prefecture":"岡山県","prefecture_kana":"オカヤマケン","city":"岡山市北区","city_kana":"オカヤマシキタク","town":"磨屋町","town_kana":"トギヤチョウ","prefecture_code":33},"0936":{"zip_code":"7000936","prefecture":"岡山県","prefecture_kana":"オカヤマケン","city":"岡山市北区","city_kana":"オカヤマシキタク","town":"富田","town_kana":"トミタ","prefecture_code":33},"0031":{"zip_code":"7000031","prefecture":"岡山県","prefecture_kana":"オカヤマケン","city":"岡山市北区","city_kana":"オカヤマシキタク","town":"富町","town_kana":"トミマチ","prefecture_code":33},"0816":{"zip_code":"7000816","prefecture":"岡山県","prefecture_kana":"オカヤマケン","city":"岡山市北区","city_kana":"オカヤマシキタク","town":"富田町","town_kana":"トンダチョウ","prefecture_code":33},"0804":{"zip_code":"7000804","prefecture":"岡山県","prefecture_kana":"オカヤマケン","city":"岡山市北区","city_kana":"オカヤマシキタク","town":"中井町","town_kana":"ナカイチョウ","prefecture_code":33},"0821":{"zip_code":"7000821","prefecture":"岡山県","prefecture_kana":"オカヤマケン","city":"岡山市北区","city_kana":"オカヤマシキタク","town":"中山下","town_kana":"ナカサンゲ","prefecture_code":33},"0982":{"zip_code":"7000982","prefecture":"岡山県","prefecture_kana":"オカヤマケン","city":"岡山市北区","city_kana":"オカヤマシキタク","town":"中島田町","town_kana":"ナカシマダチョウ","prefecture_code":33},"0964":{"zip_code":"7000964","prefecture":"岡山県","prefecture_kana":"オカヤマケン","city":"岡山市北区","city_kana":"オカヤマシキタク","town":"中仙道","town_kana":"ナカセンドウ","prefecture_code":33},"0851":{"zip_code":"7000851","prefecture":"岡山県","prefecture_kana":"オカヤマケン","city":"岡山市北区","city_kana":"オカヤマシキタク","town":"七日市西町","town_kana":"ナノカイチニシマチ","prefecture_code":33},"0852":{"zip_code":"7000852","prefecture":"岡山県","prefecture_kana":"オカヤマケン","city":"岡山市北区","city_kana":"オカヤマシキタク","town":"七日市東町","town_kana":"ナノカイチヒガシマチ","prefecture_code":33},"0953":[{"zip_code":"7000953","prefecture":"岡山県","prefecture_kana":"オカヤマケン","city":"岡山市北区","city_kana":"オカヤマシキタク","town":"西市","town_kana":"ニシイチ","prefecture_code":33},{"zip_code":"7000953","prefecture":"岡山県","prefecture_kana":"オカヤマケン","city":"岡山市南区","city_kana":"オカヤマシミナミク","town":"西市","town_kana":"ニシイチ","prefecture_code":33}],"0902":{"zip_code":"7000902","prefecture":"岡山県","prefecture_kana":"オカヤマケン","city":"岡山市北区","city_kana":"オカヤマシキタク","town":"錦町","town_kana":"ニシキマチ","prefecture_code":33},"0055":{"zip_code":"7000055","prefecture":"岡山県","prefecture_kana":"オカヤマケン","city":"岡山市北区","city_kana":"オカヤマシキタク","town":"西崎","town_kana":"ニシザキ","prefecture_code":33},"0056":{"zip_code":"7000056","prefecture":"岡山県","prefecture_kana":"オカヤマケン","city":"岡山市北区","city_kana":"オカヤマシキタク","town":"西崎本町","town_kana":"ニシザキホンマチ","prefecture_code":33},"0981":{"zip_code":"7000981","prefecture":"岡山県","prefecture_kana":"オカヤマケン","city":"岡山市北区","city_kana":"オカヤマシキタク","town":"西島田町","town_kana":"ニシシマダチョウ","prefecture_code":33},"0965":{"zip_code":"7000965","prefecture":"岡山県","prefecture_kana":"オカヤマケン","city":"岡山市北区","city_kana":"オカヤマシキタク","town":"西長瀬","town_kana":"ニシナガセ","prefecture_code":33},"0916":{"zip_code":"7000916","prefecture":"岡山県","prefecture_kana":"オカヤマケン","city":"岡山市北区","city_kana":"オカヤマシキタク","town":"西之町","town_kana":"ニシノチョウ","prefecture_code":33},"0067":{"zip_code":"7000067","prefecture":"岡山県","prefecture_kana":"オカヤマケン","city":"岡山市北区","city_kana":"オカヤマシキタク","town":"西野山町","town_kana":"ニシノヤマチョウ","prefecture_code":33},"0927":{"zip_code":"7000927","prefecture":"岡山県","prefecture_kana":"オカヤマケン","city":"岡山市北区","city_kana":"オカヤマシキタク","town":"西古松","town_kana":"ニシフルマツ","prefecture_code":33},"0926":{"zip_code":"7000926","prefecture":"岡山県","prefecture_kana":"オカヤマケン","city":"岡山市北区","city_kana":"オカヤマシキタク","town":"西古松西町","town_kana":"ニシフルマツニシマチ","prefecture_code":33},"0971":{"zip_code":"7000971","prefecture":"岡山県","prefecture_kana":"オカヤマケン","city":"岡山市北区","city_kana":"オカヤマシキタク","town":"野田","town_kana":"ノダ","prefecture_code":33},"0815":{"zip_code":"7000815","prefecture":"岡山県","prefecture_kana":"オカヤマケン","city":"岡山市北区","city_kana":"オカヤマシキタク","town":"野田屋町","town_kana":"ノダヤチョウ","prefecture_code":33},"0066":{"zip_code":"7000066","prefecture":"岡山県","prefecture_kana":"オカヤマケン","city":"岡山市北区","city_kana":"オカヤマシキタク","town":"野殿西町","town_kana":"ノドノニシマチ","prefecture_code":33},"0065":{"zip_code":"7000065","prefecture":"岡山県","prefecture_kana":"オカヤマケン","city":"岡山市北区","city_kana":"オカヤマシキタク","town":"野殿東町","town_kana":"ノドノヒガシマチ","prefecture_code":33},"0818":{"zip_code":"7000818","prefecture":"岡山県","prefecture_kana":"オカヤマケン","city":"岡山市北区","city_kana":"オカヤマシキタク","town":"蕃山町","town_kana":"バンザンチョウ","prefecture_code":33},"0003":{"zip_code":"7000003","prefecture":"岡山県","prefecture_kana":"オカヤマケン","city":"岡山市北区","city_kana":"オカヤマシキタク","town":"半田町","town_kana":"ハンダチョウ","prefecture_code":33},"0811":{"zip_code":"7000811","prefecture":"岡山県","prefecture_kana":"オカヤマケン","city":"岡山市北区","city_kana":"オカヤマシキタク","town":"番町","town_kana":"バンチョウ","prefecture_code":33},"0983":{"zip_code":"7000983","prefecture":"岡山県","prefecture_kana":"オカヤマケン","city":"岡山市北区","city_kana":"オカヤマシキタク","town":"東島田町","town_kana":"ヒガシシマダチョウ","prefecture_code":33},"0835":{"zip_code":"7000835","prefecture":"岡山県","prefecture_kana":"オカヤマケン","city":"岡山市北区","city_kana":"オカヤマシキタク","town":"東中央町","town_kana":"ヒガシチュウオウチョウ","prefecture_code":33},"0068":{"zip_code":"7000068","prefecture":"岡山県","prefecture_kana":"オカヤマケン","city":"岡山市北区","city_kana":"オカヤマシキタク","town":"東野山町","town_kana":"ヒガシノヤマチョウ","prefecture_code":33},"0921":{"zip_code":"7000921","prefecture":"岡山県","prefecture_kana":"オカヤマケン","city":"岡山市北区","city_kana":"オカヤマシキタク","town":"東古松","town_kana":"ヒガシフルマツ","prefecture_code":33},"0922":{"zip_code":"7000922","prefecture":"岡山県","prefecture_kana":"オカヤマケン","city":"岡山市北区","city_kana":"オカヤマシキタク","town":"東古松南町","town_kana":"ヒガシフルマツミナミマチ","prefecture_code":33},"0966":{"zip_code":"7000966","prefecture":"岡山県","prefecture_kana":"オカヤマケン","city":"岡山市北区","city_kana":"オカヤマシキタク","town":"日吉町","town_kana":"ヒヨシチョウ","prefecture_code":33},"0952":{"zip_code":"7000952","prefecture":"岡山県","prefecture_kana":"オカヤマケン","city":"岡山市北区","city_kana":"オカヤマシキタク","town":"平田","town_kana":"ヒラタ","prefecture_code":33},"0806":{"zip_code":"7000806","prefecture":"岡山県","prefecture_kana":"オカヤマケン","city":"岡山市北区","city_kana":"オカヤマシキタク","town":"広瀬町","town_kana":"ヒロセチョウ","prefecture_code":33},"0843":{"zip_code":"7000843","prefecture":"岡山県","prefecture_kana":"オカヤマケン","city":"岡山市北区","city_kana":"オカヤマシキタク","town":"二日市町","town_kana":"フツカイチマチ","prefecture_code":33},"0841":{"zip_code":"7000841","prefecture":"岡山県","prefecture_kana":"オカヤマケン","city":"岡山市北区","city_kana":"オカヤマシキタク","town":"舟橋町","town_kana":"フナバシチョウ","prefecture_code":33},"0805":{"zip_code":"7000805","prefecture":"岡山県","prefecture_kana":"オカヤマケン","city":"岡山市北区","city_kana":"オカヤマシキタク","town":"兵団","town_kana":"ヘイダン","prefecture_code":33},"0827":{"zip_code":"7000827","prefecture":"岡山県","prefecture_kana":"オカヤマケン","city":"岡山市北区","city_kana":"オカヤマシキタク","town":"平和町","town_kana":"ヘイワチョウ","prefecture_code":33},"0004":{"zip_code":"7000004","prefecture":"岡山県","prefecture_kana":"オカヤマケン","city":"岡山市北区","city_kana":"オカヤマシキタク","town":"法界院","town_kana":"ホウカイイン","prefecture_code":33},"0026":{"zip_code":"7000026","prefecture":"岡山県","prefecture_kana":"オカヤマケン","city":"岡山市北区","city_kana":"オカヤマシキタク","town":"奉還町","town_kana":"ホウカンチョウ","prefecture_code":33},"0901":{"zip_code":"7000901","prefecture":"岡山県","prefecture_kana":"オカヤマケン","city":"岡山市北区","city_kana":"オカヤマシキタク","town":"本町","town_kana":"ホンマチ","prefecture_code":33},"0823":{"zip_code":"7000823","prefecture":"岡山県","prefecture_kana":"オカヤマケン","city":"岡山市北区","city_kana":"オカヤマシキタク","town":"丸の内","town_kana":"マルノウチ","prefecture_code":33},"0073":{"zip_code":"7000073","prefecture":"岡山県","prefecture_kana":"オカヤマケン","city":"岡山市北区","city_kana":"オカヤマシキタク","town":"万成西町","town_kana":"マンナリニシマチ","prefecture_code":33},"0072":{"zip_code":"7000072","prefecture":"岡山県","prefecture_kana":"オカヤマケン","city":"岡山市北区","city_kana":"オカヤマシキタク","town":"万成東町","town_kana":"マンナリヒガシマチ","prefecture_code":33},"0043":{"zip_code":"7000043","prefecture":"岡山県","prefecture_kana":"オカヤマケン","city":"岡山市北区","city_kana":"オカヤマシキタク","town":"三門中町","town_kana":"ミカドナカマチ","prefecture_code":33},"0044":{"zip_code":"7000044","prefecture":"岡山県","prefecture_kana":"オカヤマケン","city":"岡山市北区","city_kana":"オカヤマシキタク","town":"三門西町","town_kana":"ミカドニシマチ","prefecture_code":33},"0042":{"zip_code":"7000042","prefecture":"岡山県","prefecture_kana":"オカヤマケン","city":"岡山市北区","city_kana":"オカヤマシキタク","town":"三門東町","town_kana":"ミカドヒガシマチ","prefecture_code":33},"0807":{"zip_code":"7000807","prefecture":"岡山県","prefecture_kana":"オカヤマケン","city":"岡山市北区","city_kana":"オカヤマシキタク","town":"南方","town_kana":"ミナミガタ","prefecture_code":33},"0837":{"zip_code":"7000837","prefecture":"岡山県","prefecture_kana":"オカヤマケン","city":"岡山市北区","city_kana":"オカヤマシキタク","town":"南中央町","town_kana":"ミナミチュウオウチョウ","prefecture_code":33},"0802":{"zip_code":"7000802","prefecture":"岡山県","prefecture_kana":"オカヤマケン","city":"岡山市北区","city_kana":"オカヤマシキタク","town":"三野","town_kana":"ミノ","prefecture_code":33},"0801":{"zip_code":"7000801","prefecture":"岡山県","prefecture_kana":"オカヤマケン","city":"岡山市北区","city_kana":"オカヤマシキタク","town":"三野本町","town_kana":"ミノホンマチ","prefecture_code":33},"0076":{"zip_code":"7000076","prefecture":"岡山県","prefecture_kana":"オカヤマケン","city":"岡山市北区","city_kana":"オカヤマシキタク","town":"矢坂西町","town_kana":"ヤサカニシマチ","prefecture_code":33},"0074":{"zip_code":"7000074","prefecture":"岡山県","prefecture_kana":"オカヤマケン","city":"岡山市北区","city_kana":"オカヤマシキタク","town":"矢坂東町","town_kana":"ヤサカヒガシマチ","prefecture_code":33},"0075":{"zip_code":"7000075","prefecture":"岡山県","prefecture_kana":"オカヤマケン","city":"岡山市北区","city_kana":"オカヤマシキタク","town":"矢坂本町","town_kana":"ヤサカホンマチ","prefecture_code":33},"0904":{"zip_code":"7000904","prefecture":"岡山県","prefecture_kana":"オカヤマケン","city":"岡山市北区","city_kana":"オカヤマシキタク","town":"柳町","town_kana":"ヤナギマチ","prefecture_code":33},"0847":{"zip_code":"7000847","prefecture":"岡山県","prefecture_kana":"オカヤマケン","city":"岡山市北区","city_kana":"オカヤマシキタク","town":"山科町","town_kana":"ヤマシナチョウ","prefecture_code":33},"0808":{"zip_code":"7000808","prefecture":"岡山県","prefecture_kana":"オカヤマケン","city":"岡山市北区","city_kana":"オカヤマシキタク","town":"大和町","town_kana":"ヤマトマチ","prefecture_code":33},"0817":{"zip_code":"7000817","prefecture":"岡山県","prefecture_kana":"オカヤマケン","city":"岡山市北区","city_kana":"オカヤマシキタク","town":"弓之町","town_kana":"ユミノチョウ","prefecture_code":33},"0005":{"zip_code":"7000005","prefecture":"岡山県","prefecture_kana":"オカヤマケン","city":"岡山市北区","city_kana":"オカヤマシキタク","town":"理大町","town_kana":"リダイチョウ","prefecture_code":33},"0944":{"zip_code":"7000944","prefecture":"岡山県","prefecture_kana":"オカヤマケン","city":"岡山市南区","city_kana":"オカヤマシミナミク","town":"泉田","town_kana":"イズミダ","prefecture_code":33},"0943":{"zip_code":"7000943","prefecture":"岡山県","prefecture_kana":"オカヤマケン","city":"岡山市南区","city_kana":"オカヤマシミナミク","town":"新福","town_kana":"シンプク","prefecture_code":33},"0945":{"zip_code":"7000945","prefecture":"岡山県","prefecture_kana":"オカヤマケン","city":"岡山市南区","city_kana":"オカヤマシミナミク","town":"新保","town_kana":"シンボウ","prefecture_code":33},"0956":{"zip_code":"7000956","prefecture":"岡山県","prefecture_kana":"オカヤマケン","city":"岡山市南区","city_kana":"オカヤマシミナミク","town":"当新田","town_kana":"トウシンデン","prefecture_code":33},"0942":{"zip_code":"7000942","prefecture":"岡山県","prefecture_kana":"オカヤマケン","city":"岡山市南区","city_kana":"オカヤマシミナミク","town":"豊成","town_kana":"トヨナリ","prefecture_code":33},"0853":{"zip_code":"7000853","prefecture":"岡山県","prefecture_kana":"オカヤマケン","city":"岡山市南区","city_kana":"オカヤマシミナミク","town":"豊浜町","town_kana":"トヨハマチョウ","prefecture_code":33},"0845":{"zip_code":"7000845","prefecture":"岡山県","prefecture_kana":"オカヤマケン","city":"岡山市南区","city_kana":"オカヤマシミナミク","town":"浜野","town_kana":"ハマノ","prefecture_code":33},"0955":{"zip_code":"7000955","prefecture":"岡山県","prefecture_kana":"オカヤマケン","city":"岡山市南区","city_kana":"オカヤマシミナミク","town":"万倍","town_kana":"マンバイ","prefecture_code":33},"0954":{"zip_code":"7000954","prefecture":"岡山県","prefecture_kana":"オカヤマケン","city":"岡山市南区","city_kana":"オカヤマシミナミク","town":"米倉","town_kana":"ヨネグラ","prefecture_code":33}}