{"1463":{"zip_code":"7011463","prefecture":"岡山県","prefecture_kana":"オカヤマケン","city":"岡山市北区","city_kana":"オカヤマシキタク","town":"足守","town_kana":"アシモリ","prefecture_code":33},"1461":{"zip_code":"7011461","prefecture":"岡山県","prefecture_kana":"オカヤマケン","city":"岡山市北区","city_kana":"オカヤマシキタク","town":"粟井","town_kana":"アワイ","prefecture_code":33},"1527":{"zip_code":"7011527","prefecture":"岡山県","prefecture_kana":"オカヤマケン","city":"岡山市北区","city_kana":"オカヤマシキタク","town":"石妻","town_kana":"イシヅマ","prefecture_code":33},"1211":{"zip_code":"7011211","prefecture":"岡山県","prefecture_kana":"オカヤマケン","city":"岡山市北区","city_kana":"オカヤマシキタク","town":"一宮","town_kana":"イチノミヤ","prefecture_code":33},"1203":{"zip_code":"7011203","prefecture":"岡山県","prefecture_kana":"オカヤマケン","city":"岡山市北区","city_kana":"オカヤマシキタク","town":"一宮山崎","town_kana":"イチノミヤヤマサキ","prefecture_code":33},"1204":{"zip_code":"7011204","prefecture":"岡山県","prefecture_kana":"オカヤマケン","city":"岡山市北区","city_kana":"オカヤマシキタク","town":"今岡","town_kana":"イマオカ","prefecture_code":33},"0145":{"zip_code":"7010145","prefecture":"岡山県","prefecture_kana":"オカヤマケン","city":"岡山市北区","city_kana":"オカヤマシキタク","town":"今保","town_kana":"イマボウ","prefecture_code":33},"1462":{"zip_code":"7011462","prefecture":"岡山県","prefecture_kana":"オカヤマケン","city":"岡山市北区","city_kana":"オカヤマシキタク","town":"大井","town_kana":"オオイ","prefecture_code":33},"0165":{"zip_code":"7010165","prefecture":"岡山県","prefecture_kana":"オカヤマケン","city":"岡山市北区","city_kana":"オカヤマシキタク","town":"大内田","town_kana":"オオウチダ","prefecture_code":33},"1223":{"zip_code":"7011223","prefecture":"岡山県","prefecture_kana":"オカヤマケン","city":"岡山市北区","city_kana":"オカヤマシキタク","town":"大窪","town_kana":"オオクボ","prefecture_code":33},"1336":{"zip_code":"7011336","prefecture":"岡山県","prefecture_kana":"オカヤマケン","city":"岡山市北区","city_kana":"オカヤマシキタク","town":"大崎","town_kana":"オオザキ","prefecture_code":33},"1212":{"zip_code":"7011212","prefecture":"岡山県","prefecture_kana":"オカヤマケン","city":"岡山市北区","city_kana":"オカヤマシキタク","town":"尾上","town_kana":"オノウエ","prefecture_code":33},"1144":{"zip_code":"7011144","prefecture":"岡山県","prefecture_kana":"オカヤマケン","city":"岡山市北区","city_kana":"オカヤマシキタク","town":"栢谷","town_kana":"カイダニ","prefecture_code":33},"1601":{"zip_code":"7011601","prefecture":"岡山県","prefecture_kana":"オカヤマケン","city":"岡山市北区","city_kana":"オカヤマシキタク","town":"掛畑","town_kana":"カケハタ","prefecture_code":33},"2151":{"zip_code":"7012151","prefecture":"岡山県","prefecture_kana":"オカヤマケン","city":"岡山市北区","city_kana":"オカヤマシキタク","town":"金山寺","town_kana":"カナヤマジ","prefecture_code":33},"1525":{"zip_code":"7011525","prefecture":"岡山県","prefecture_kana":"オカヤマケン","city":"岡山市北区","city_kana":"オカヤマシキタク","town":"上高田","town_kana":"カミタカダ","prefecture_code":33},"1465":{"zip_code":"7011465","prefecture":"岡山県","prefecture_kana":"オカヤマケン","city":"岡山市北区","city_kana":"オカヤマシキタク","town":"上土田","town_kana":"カミツチダ","prefecture_code":33},"1342":{"zip_code":"7011342","prefecture":"岡山県","prefecture_kana":"オカヤマケン","city":"岡山市北区","city_kana":"オカヤマシキタク","town":"加茂","town_kana":"カモ","prefecture_code":33},"1214":{"zip_code":"7011214","prefecture":"岡山県","prefecture_kana":"オカヤマケン","city":"岡山市北区","city_kana":"オカヤマシキタク","town":"辛川市場","town_kana":"カラカワイチバ","prefecture_code":33},"0161":{"zip_code":"7010161","prefecture":"岡山県","prefecture_kana":"オカヤマケン","city":"岡山市北区","city_kana":"オカヤマシキタク","town":"川入","town_kana":"カワイリ","prefecture_code":33},"1605":{"zip_code":"7011605","prefecture":"岡山県","prefecture_kana":"オカヤマケン","city":"岡山市北区","city_kana":"オカヤマシキタク","town":"河原","town_kana":"カワハラ","prefecture_code":33},"1341":{"zip_code":"7011341","prefecture":"岡山県","prefecture_kana":"オカヤマケン","city":"岡山市北区","city_kana":"オカヤマシキタク","town":"吉備津","town_kana":"キビツ","prefecture_code":33},"0144":{"zip_code":"7010144","prefecture":"岡山県","prefecture_kana":"オカヤマケン","city":"岡山市北区","city_kana":"オカヤマシキタク","town":"久米","town_kana":"クメ","prefecture_code":33},"1201":{"zip_code":"7011201","prefecture":"岡山県","prefecture_kana":"オカヤマケン","city":"岡山市北区","city_kana":"オカヤマシキタク","town":"首部","town_kana":"コウベ","prefecture_code":33},"2152":{"zip_code":"7012152","prefecture":"岡山県","prefecture_kana":"オカヤマケン","city":"岡山市北区","city_kana":"オカヤマシキタク","town":"高野尻","town_kana":"コウヤジリ","prefecture_code":33},"1604":{"zip_code":"7011604","prefecture":"岡山県","prefecture_kana":"オカヤマケン","city":"岡山市北区","city_kana":"オカヤマシキタク","town":"苔山","town_kana":"コケヤマ","prefecture_code":33},"1352":{"zip_code":"7011352","prefecture":"岡山県","prefecture_kana":"オカヤマケン","city":"岡山市北区","city_kana":"オカヤマシキタク","town":"小山","town_kana":"コヤマ","prefecture_code":33},"1205":{"zip_code":"7011205","prefecture":"岡山県","prefecture_kana":"オカヤマケン","city":"岡山市北区","city_kana":"オカヤマシキタク","town":"佐山","town_kana":"サヤマ","prefecture_code":33},"1464":{"zip_code":"7011464","prefecture":"岡山県","prefecture_kana":"オカヤマケン","city":"岡山市北区","city_kana":"オカヤマシキタク","town":"下足守","town_kana":"シモアシモリ","prefecture_code":33},"1524":{"zip_code":"7011524","prefecture":"岡山県","prefecture_kana":"オカヤマケン","city":"岡山市北区","city_kana":"オカヤマシキタク","town":"下高田","town_kana":"シモタカダ","prefecture_code":33},"1356":{"zip_code":"7011356","prefecture":"岡山県","prefecture_kana":"オカヤマケン","city":"岡山市北区","city_kana":"オカヤマシキタク","town":"下土田","town_kana":"シモツチダ","prefecture_code":33},"2143":{"zip_code":"7012143","prefecture":"岡山県","prefecture_kana":"オカヤマケン","city":"岡山市北区","city_kana":"オカヤマシキタク","town":"下牧","town_kana":"シモマキ","prefecture_code":33},"1603":{"zip_code":"7011603","prefecture":"岡山県","prefecture_kana":"オカヤマケン","city":"岡山市北区","city_kana":"オカヤマシキタク","town":"庄田","town_kana":"ショウダ","prefecture_code":33},"0143":{"zip_code":"7010143","prefecture":"岡山県","prefecture_kana":"オカヤマケン","city":"岡山市北区","city_kana":"オカヤマシキタク","town":"白石","town_kana":"シライシ","prefecture_code":33},"0142":{"zip_code":"7010142","prefecture":"岡山県","prefecture_kana":"オカヤマケン","city":"岡山市北区","city_kana":"オカヤマシキタク","town":"白石西新町","town_kana":"シライシニシシンマチ","prefecture_code":33},"0141":{"zip_code":"7010141","prefecture":"岡山県","prefecture_kana":"オカヤマケン","city":"岡山市北区","city_kana":"オカヤマシキタク","town":"白石東新町","town_kana":"シライシヒガシシンマチ","prefecture_code":33},"1345":{"zip_code":"7011345","prefecture":"岡山県","prefecture_kana":"オカヤマケン","city":"岡山市北区","city_kana":"オカヤマシキタク","town":"新庄上","town_kana":"シンジョウカミ","prefecture_code":33},"1344":{"zip_code":"7011344","prefecture":"岡山県","prefecture_kana":"オカヤマケン","city":"岡山市北区","city_kana":"オカヤマシキタク","town":"新庄下","town_kana":"シンジョウシモ","prefecture_code":33},"1141":{"zip_code":"7011141","prefecture":"岡山県","prefecture_kana":"オカヤマケン","city":"岡山市北区","city_kana":"オカヤマシキタク","town":"菅野","town_kana":"スガノ","prefecture_code":33},"1522":{"zip_code":"7011522","prefecture":"岡山県","prefecture_kana":"オカヤマケン","city":"岡山市北区","city_kana":"オカヤマシキタク","town":"杉谷","town_kana":"スギタニ","prefecture_code":33},"1343":{"zip_code":"7011343","prefecture":"岡山県","prefecture_kana":"オカヤマケン","city":"岡山市北区","city_kana":"オカヤマシキタク","town":"惣爪","town_kana":"ソウヅメ","prefecture_code":33},"1354":{"zip_code":"7011354","prefecture":"岡山県","prefecture_kana":"オカヤマケン","city":"岡山市北区","city_kana":"オカヤマシキタク","town":"高塚","town_kana":"タカツカ","prefecture_code":33},"1142":{"zip_code":"7011142","prefecture":"岡山県","prefecture_kana":"オカヤマケン","city":"岡山市北区","city_kana":"オカヤマシキタク","town":"高野","town_kana":"タカノ","prefecture_code":33},"1335":{"zip_code":"7011335","prefecture":"岡山県","prefecture_kana":"オカヤマケン","city":"岡山市北区","city_kana":"オカヤマシキタク","town":"高松","town_kana":"タカマツ","prefecture_code":33},"1331":{"zip_code":"7011331","prefecture":"岡山県","prefecture_kana":"オカヤマケン","city":"岡山市北区","city_kana":"オカヤマシキタク","town":"高松稲荷","town_kana":"タカマツイナリ","prefecture_code":33},"1355":{"zip_code":"7011355","prefecture":"岡山県","prefecture_kana":"オカヤマケン","city":"岡山市北区","city_kana":"オカヤマシキタク","town":"高松田中","town_kana":"タカマツタナカ","prefecture_code":33},"1334":{"zip_code":"7011334","prefecture":"岡山県","prefecture_kana":"オカヤマケン","city":"岡山市北区","city_kana":"オカヤマシキタク","town":"高松原古才","town_kana":"タカマツハラコサイ","prefecture_code":33},"1333":{"zip_code":"7011333","prefecture":"岡山県","prefecture_kana":"オカヤマケン","city":"岡山市北区","city_kana":"オカヤマシキタク","town":"立田","town_kana":"タツタ","prefecture_code":33},"1132":{"zip_code":"7011132","prefecture":"岡山県","prefecture_kana":"オカヤマケン","city":"岡山市北区","city_kana":"オカヤマシキタク","town":"田原","town_kana":"タバラ","prefecture_code":33},"2142":{"zip_code":"7012142","prefecture":"岡山県","prefecture_kana":"オカヤマケン","city":"岡山市北区","city_kana":"オカヤマシキタク","town":"玉柏","town_kana":"タマガシ","prefecture_code":33},"1154":{"zip_code":"7011154","prefecture":"岡山県","prefecture_kana":"オカヤマケン","city":"岡山市北区","city_kana":"オカヤマシキタク","town":"田益","town_kana":"タマス","prefecture_code":33},"1152":{"zip_code":"7011152","prefecture":"岡山県","prefecture_kana":"オカヤマケン","city":"岡山市北区","city_kana":"オカヤマシキタク","town":"津高","town_kana":"ツダカ","prefecture_code":33},"1151":{"zip_code":"7011151","prefecture":"岡山県","prefecture_kana":"オカヤマケン","city":"岡山市北区","city_kana":"オカヤマシキタク","town":"津高台","town_kana":"ツダカダイ","prefecture_code":33},"1346":{"zip_code":"7011346","prefecture":"岡山県","prefecture_kana":"オカヤマケン","city":"岡山市北区","city_kana":"オカヤマシキタク","town":"津寺","town_kana":"ツデラ","prefecture_code":33},"1153":{"zip_code":"7011153","prefecture":"岡山県","prefecture_kana":"オカヤマケン","city":"岡山市北区","city_kana":"オカヤマシキタク","town":"富原","town_kana":"トミハラ","prefecture_code":33},"1133":{"zip_code":"7011133","prefecture":"岡山県","prefecture_kana":"オカヤマケン","city":"岡山市北区","city_kana":"オカヤマシキタク","town":"富吉","town_kana":"トミヨシ","prefecture_code":33},"0163":{"zip_code":"7010163","prefecture":"岡山県","prefecture_kana":"オカヤマケン","city":"岡山市北区","city_kana":"オカヤマシキタク","town":"中撫川","town_kana":"ナカナツカワ","prefecture_code":33},"1224":{"zip_code":"7011224","prefecture":"岡山県","prefecture_kana":"オカヤマケン","city":"岡山市北区","city_kana":"オカヤマシキタク","town":"長野","town_kana":"ナガノ","prefecture_code":33},"2155":{"zip_code":"7012155","prefecture":"岡山県","prefecture_kana":"オカヤマケン","city":"岡山市北区","city_kana":"オカヤマシキタク","town":"中原","town_kana":"ナカハラ","prefecture_code":33},"2144":{"zip_code":"7012144","prefecture":"岡山県","prefecture_kana":"オカヤマケン","city":"岡山市北区","city_kana":"オカヤマシキタク","town":"中牧","town_kana":"ナカマキ","prefecture_code":33},"0164":{"zip_code":"7010164","prefecture":"岡山県","prefecture_kana":"オカヤマケン","city":"岡山市北区","city_kana":"オカヤマシキタク","town":"撫川","town_kana":"ナツカワ","prefecture_code":33},"1202":{"zip_code":"7011202","prefecture":"岡山県","prefecture_kana":"オカヤマケン","city":"岡山市北区","city_kana":"オカヤマシキタク","town":"楢津","town_kana":"ナラヅ","prefecture_code":33},"1213":{"zip_code":"7011213","prefecture":"岡山県","prefecture_kana":"オカヤマケン","city":"岡山市北区","city_kana":"オカヤマシキタク","town":"西辛川","town_kana":"ニシカラカワ","prefecture_code":33},"0136":{"zip_code":"7010136","prefecture":"岡山県","prefecture_kana":"オカヤマケン","city":"岡山市北区","city_kana":"オカヤマシキタク","town":"西花尻","town_kana":"ニシハナジリ","prefecture_code":33},"1612":{"zip_code":"7011612","prefecture":"岡山県","prefecture_kana":"オカヤマケン","city":"岡山市北区","city_kana":"オカヤマシキタク","town":"西山内","town_kana":"ニシヤマノウチ","prefecture_code":33},"1131":{"zip_code":"7011131","prefecture":"岡山県","prefecture_kana":"オカヤマケン","city":"岡山市北区","city_kana":"オカヤマシキタク","town":"日応寺","town_kana":"ニチオウジ","prefecture_code":33},"0153":{"zip_code":"7010153","prefecture":"岡山県","prefecture_kana":"オカヤマケン","city":"岡山市北区","city_kana":"オカヤマシキタク","town":"庭瀬","town_kana":"ニワセ","prefecture_code":33},"0162":{"zip_code":"7010162","prefecture":"岡山県","prefecture_kana":"オカヤマケン","city":"岡山市北区","city_kana":"オカヤマシキタク","town":"納所","town_kana":"ノウソ","prefecture_code":33},"0152":{"zip_code":"7010152","prefecture":"岡山県","prefecture_kana":"オカヤマケン","city":"岡山市北区","city_kana":"オカヤマシキタク","town":"延友","town_kana":"ノブトモ","prefecture_code":33},"1221":{"zip_code":"7011221","prefecture":"岡山県","prefecture_kana":"オカヤマケン","city":"岡山市北区","city_kana":"オカヤマシキタク","town":"芳賀","town_kana":"ハガ","prefecture_code":33},"2153":{"zip_code":"7012153","prefecture":"岡山県","prefecture_kana":"オカヤマケン","city":"岡山市北区","city_kana":"オカヤマシキタク","town":"畑鮎","town_kana":"ハタアユ","prefecture_code":33},"0134":{"zip_code":"7010134","prefecture":"岡山県","prefecture_kana":"オカヤマケン","city":"岡山市北区","city_kana":"オカヤマシキタク","town":"花尻","town_kana":"ハナジリ","prefecture_code":33},"0133":{"zip_code":"7010133","prefecture":"岡山県","prefecture_kana":"オカヤマケン","city":"岡山市北区","city_kana":"オカヤマシキタク","town":"花尻あかね町","town_kana":"ハナジリアカネマチ","prefecture_code":33},"0132":{"zip_code":"7010132","prefecture":"岡山県","prefecture_kana":"オカヤマケン","city":"岡山市北区","city_kana":"オカヤマシキタク","town":"花尻ききょう町","town_kana":"ハナジリキキョウマチ","prefecture_code":33},"0131":{"zip_code":"7010131","prefecture":"岡山県","prefecture_kana":"オカヤマケン","city":"岡山市北区","city_kana":"オカヤマシキタク","town":"花尻みどり町","town_kana":"ハナジリミドリマチ","prefecture_code":33},"2154":{"zip_code":"7012154","prefecture":"岡山県","prefecture_kana":"オカヤマケン","city":"岡山市北区","city_kana":"オカヤマシキタク","town":"原","town_kana":"ハラ","prefecture_code":33},"0135":{"zip_code":"7010135","prefecture":"岡山県","prefecture_kana":"オカヤマケン","city":"岡山市北区","city_kana":"オカヤマシキタク","town":"東花尻","town_kana":"ヒガシハナジリ","prefecture_code":33},"1611":{"zip_code":"7011611","prefecture":"岡山県","prefecture_kana":"オカヤマケン","city":"岡山市北区","city_kana":"オカヤマシキタク","town":"東山内","town_kana":"ヒガシヤマノウチ","prefecture_code":33},"1521":{"zip_code":"7011521","prefecture":"岡山県","prefecture_kana":"オカヤマケン","city":"岡山市北区","city_kana":"オカヤマシキタク","town":"日近","town_kana":"ヒジカイ","prefecture_code":33},"0151":{"zip_code":"7010151","prefecture":"岡山県","prefecture_kana":"オカヤマケン","city":"岡山市北区","city_kana":"オカヤマシキタク","town":"平野","town_kana":"ヒラノ","prefecture_code":33},"1332":{"zip_code":"7011332","prefecture":"岡山県","prefecture_kana":"オカヤマケン","city":"岡山市北区","city_kana":"オカヤマシキタク","town":"平山","town_kana":"ヒラヤマ","prefecture_code":33},"1357":{"zip_code":"7011357","prefecture":"岡山県","prefecture_kana":"オカヤマケン","city":"岡山市北区","city_kana":"オカヤマシキタク","town":"福崎","town_kana":"フクザキ","prefecture_code":33},"1225":{"zip_code":"7011225","prefecture":"岡山県","prefecture_kana":"オカヤマケン","city":"岡山市北区","city_kana":"オカヤマシキタク","town":"福谷","town_kana":"フクタニ","prefecture_code":33},"1613":{"zip_code":"7011613","prefecture":"岡山県","prefecture_kana":"オカヤマケン","city":"岡山市北区","city_kana":"オカヤマシキタク","town":"間倉","town_kana":"マグラ","prefecture_code":33},"1222":{"zip_code":"7011222","prefecture":"岡山県","prefecture_kana":"オカヤマケン","city":"岡山市北区","city_kana":"オカヤマシキタク","town":"松尾","town_kana":"マツオ","prefecture_code":33},"1602":{"zip_code":"7011602","prefecture":"岡山県","prefecture_kana":"オカヤマケン","city":"岡山市北区","city_kana":"オカヤマシキタク","town":"真星","town_kana":"マナボシ","prefecture_code":33},"1353":{"zip_code":"7011353","prefecture":"岡山県","prefecture_kana":"オカヤマケン","city":"岡山市北区","city_kana":"オカヤマシキタク","town":"三手","town_kana":"ミテ","prefecture_code":33},"1134":{"zip_code":"7011134","prefecture":"岡山県","prefecture_kana":"オカヤマケン","city":"岡山市北区","city_kana":"オカヤマシキタク","town":"三和","town_kana":"ミト","prefecture_code":33},"2141":{"zip_code":"7012141","prefecture":"岡山県","prefecture_kana":"オカヤマケン","city":"岡山市北区","city_kana":"オカヤマシキタク","town":"牟佐","town_kana":"ムサ","prefecture_code":33},"1351":{"zip_code":"7011351","prefecture":"岡山県","prefecture_kana":"オカヤマケン","city":"岡山市北区","city_kana":"オカヤマシキタク","town":"門前","town_kana":"モンゼン","prefecture_code":33},"1526":{"zip_code":"7011526","prefecture":"岡山県","prefecture_kana":"オカヤマケン","city":"岡山市北区","city_kana":"オカヤマシキタク","town":"山上","town_kana":"ヤマノウエ","prefecture_code":33},"1145":{"zip_code":"7011145","prefecture":"岡山県","prefecture_kana":"オカヤマケン","city":"岡山市北区","city_kana":"オカヤマシキタク","town":"横井上","town_kana":"ヨコイカミ","prefecture_code":33},"1226":{"zip_code":"7011226","prefecture":"岡山県","prefecture_kana":"オカヤマケン","city":"岡山市北区","city_kana":"オカヤマシキタク","town":"横尾","town_kana":"ヨコオ","prefecture_code":33},"1523":{"zip_code":"7011523","prefecture":"岡山県","prefecture_kana":"オカヤマケン","city":"岡山市北区","city_kana":"オカヤマシキタク","town":"吉","town_kana":"ヨシ","prefecture_code":33},"1143":{"zip_code":"7011143","prefecture":"岡山県","prefecture_kana":"オカヤマケン","city":"岡山市北区","city_kana":"オカヤマシキタク","town":"吉宗","town_kana":"ヨシムネ","prefecture_code":33},"1337":{"zip_code":"7011337","prefecture":"岡山県","prefecture_kana":"オカヤマケン","city":"岡山市北区","city_kana":"オカヤマシキタク","town":"和井元","town_kana":"ワイモト","prefecture_code":33},"0212":{"zip_code":"7010212","prefecture":"岡山県","prefecture_kana":"オカヤマケン","city":"岡山市南区","city_kana":"オカヤマシミナミク","town":"内尾","town_kana":"ウチオ","prefecture_code":33},"0204":{"zip_code":"7010204","prefecture":"岡山県","prefecture_kana":"オカヤマケン","city":"岡山市南区","city_kana":"オカヤマシミナミク","town":"大福","town_kana":"オオフク","prefecture_code":33},"0203":{"zip_code":"7010203","prefecture":"岡山県","prefecture_kana":"オカヤマケン","city":"岡山市南区","city_kana":"オカヤマシミナミク","town":"古新田","town_kana":"コシンデン","prefecture_code":33},"0205":{"zip_code":"7010205","prefecture":"岡山県","prefecture_kana":"オカヤマケン","city":"岡山市南区","city_kana":"オカヤマシミナミク","town":"妹尾","town_kana":"セノオ","prefecture_code":33},"0201":{"zip_code":"7010201","prefecture":"岡山県","prefecture_kana":"オカヤマケン","city":"岡山市南区","city_kana":"オカヤマシミナミク","town":"妹尾崎","town_kana":"セノオザキ","prefecture_code":33},"0214":{"zip_code":"7010214","prefecture":"岡山県","prefecture_kana":"オカヤマケン","city":"岡山市南区","city_kana":"オカヤマシミナミク","town":"曽根","town_kana":"ソネ","prefecture_code":33},"0213":{"zip_code":"7010213","prefecture":"岡山県","prefecture_kana":"オカヤマケン","city":"岡山市南区","city_kana":"オカヤマシミナミク","town":"中畦","town_kana":"ナカウネ","prefecture_code":33},"0215":{"zip_code":"7010215","prefecture":"岡山県","prefecture_kana":"オカヤマケン","city":"岡山市南区","city_kana":"オカヤマシミナミク","town":"西畦","town_kana":"ニシウネ","prefecture_code":33},"0211":{"zip_code":"7010211","prefecture":"岡山県","prefecture_kana":"オカヤマケン","city":"岡山市南区","city_kana":"オカヤマシミナミク","town":"東畦","town_kana":"ヒガシウネ","prefecture_code":33},"0221":{"zip_code":"7010221","prefecture":"岡山県","prefecture_kana":"オカヤマケン","city":"岡山市南区","city_kana":"オカヤマシミナミク","town":"藤田","town_kana":"フジタ","prefecture_code":33},"0206":{"zip_code":"7010206","prefecture":"岡山県","prefecture_kana":"オカヤマケン","city":"岡山市南区","city_kana":"オカヤマシミナミク","town":"箕島","town_kana":"ミシマ","prefecture_code":33},"0202":{"zip_code":"7010202","prefecture":"岡山県","prefecture_kana":"オカヤマケン","city":"岡山市南区","city_kana":"オカヤマシミナミク","town":"山田","town_kana":"ヤマダ","prefecture_code":33},"0113":{"zip_code":"7010113","prefecture":"岡山県","prefecture_kana":"オカヤマケン","city":"倉敷市","city_kana":"クラシキシ","town":"栗坂","town_kana":"クリサカ","prefecture_code":33},"0112":{"zip_code":"7010112","prefecture":"岡山県","prefecture_kana":"オカヤマケン","city":"倉敷市","city_kana":"クラシキシ","town":"下庄","town_kana":"シモショウ","prefecture_code":33},"0102":{"zip_code":"7010102","prefecture":"岡山県","prefecture_kana":"オカヤマケン","city":"倉敷市","city_kana":"クラシキシ","town":"庄新町","town_kana":"ショウシンマチ","prefecture_code":33},"0111":{"zip_code":"7010111","prefecture":"岡山県","prefecture_kana":"オカヤマケン","city":"倉敷市","city_kana":"クラシキシ","town":"上東","town_kana":"ジョウトウ","prefecture_code":33},"0103":{"zip_code":"7010103","prefecture":"岡山県","prefecture_kana":"オカヤマケン","city":"倉敷市","city_kana":"クラシキシ","town":"西尾","town_kana":"ニシオ","prefecture_code":33},"0101":{"zip_code":"7010101","prefecture":"岡山県","prefecture_kana":"オカヤマケン","city":"倉敷市","city_kana":"クラシキシ","town":"日畑","town_kana":"ヒバタ","prefecture_code":33},"0115":{"zip_code":"7010115","prefecture":"岡山県","prefecture_kana":"オカヤマケン","city":"倉敷市","city_kana":"クラシキシ","town":"二子","town_kana":"フタゴ","prefecture_code":33},"0114":{"zip_code":"7010114","prefecture":"岡山県","prefecture_kana":"オカヤマケン","city":"倉敷市","city_kana":"クラシキシ","town":"松島","town_kana":"マツシマ","prefecture_code":33},"0105":{"zip_code":"7010105","prefecture":"岡山県","prefecture_kana":"オカヤマケン","city":"倉敷市","city_kana":"クラシキシ","town":"矢部","town_kana":"ヤベ","prefecture_code":33},"0104":{"zip_code":"7010104","prefecture":"岡山県","prefecture_kana":"オカヤマケン","city":"倉敷市","city_kana":"クラシキシ","town":"山地","town_kana":"ヤマジ","prefecture_code":33},"3203":{"zip_code":"7013203","prefecture":"岡山県","prefecture_kana":"オカヤマケン","city":"備前市","city_kana":"ビゼンシ","town":"日生町大多府","town_kana":"ヒナセチョウオオタブ","prefecture_code":33},"3202":{"zip_code":"7013202","prefecture":"岡山県","prefecture_kana":"オカヤマケン","city":"備前市","city_kana":"ビゼンシ","town":"日生町寒河","town_kana":"ヒナセチョウソウゴ","prefecture_code":33},"3201":{"zip_code":"7013201","prefecture":"岡山県","prefecture_kana":"オカヤマケン","city":"備前市","city_kana":"ビゼンシ","town":"日生町寺山","town_kana":"ヒナセチョウテラヤマ","prefecture_code":33},"3204":{"zip_code":"7013204","prefecture":"岡山県","prefecture_kana":"オカヤマケン","city":"備前市","city_kana":"ビゼンシ","town":"日生町日生","town_kana":"ヒナセチョウヒナセ","prefecture_code":33},"4200":{"zip_code":"7014200","prefecture":"岡山県","prefecture_kana":"オカヤマケン","city":"瀬戸内市","city_kana":"セトウチシ","town":"","town_kana":"","prefecture_code":33},"4302":{"zip_code":"7014302","prefecture":"岡山県","prefecture_kana":"オカヤマケン","city":"瀬戸内市","city_kana":"セトウチシ","town":"牛窓町牛窓","town_kana":"ウシマドチョウウシマド","prefecture_code":33},"4303":{"zip_code":"7014303","prefecture":"岡山県","prefecture_kana":"オカヤマケン","city":"瀬戸内市","city_kana":"セトウチシ","town":"牛窓町鹿忍","town_kana":"ウシマドチョウカシノ","prefecture_code":33},"4304":{"zip_code":"7014304","prefecture":"岡山県","prefecture_kana":"オカヤマケン","city":"瀬戸内市","city_kana":"セトウチシ","town":"牛窓町千手","town_kana":"ウシマドチョウセンズ","prefecture_code":33},"4301":{"zip_code":"7014301","prefecture":"岡山県","prefecture_kana":"オカヤマケン","city":"瀬戸内市","city_kana":"セトウチシ","town":"牛窓町長浜","town_kana":"ウシマドチョウナガハマ","prefecture_code":33},"4231":{"zip_code":"7014231","prefecture":"岡山県","prefecture_kana":"オカヤマケン","city":"瀬戸内市","city_kana":"セトウチシ","town":"邑久町大窪","town_kana":"オクチョウオオクボ","prefecture_code":33},"4234":{"zip_code":"7014234","prefecture":"岡山県","prefecture_kana":"オカヤマケン","city":"瀬戸内市","city_kana":"セトウチシ","town":"邑久町大富","town_kana":"オクチョウオオドミ","prefecture_code":33},"4221":{"zip_code":"7014221","prefecture":"岡山県","prefecture_kana":"オカヤマケン","city":"瀬戸内市","city_kana":"セトウチシ","town":"邑久町尾張","town_kana":"オクチョウオワリ","prefecture_code":33},"4252":{"zip_code":"7014252","prefecture":"岡山県","prefecture_kana":"オカヤマケン","city":"瀬戸内市","city_kana":"セトウチシ","town":"邑久町上笠加","town_kana":"オクチョウカミガサカ","prefecture_code":33},"4215":{"zip_code":"7014215","prefecture":"岡山県","prefecture_kana":"オカヤマケン","city":"瀬戸内市","city_kana":"セトウチシ","town":"邑久町上山田","town_kana":"オクチョウカミヤマダ","prefecture_code":33},"4251":{"zip_code":"7014251","prefecture":"岡山県","prefecture_kana":"オカヤマケン","city":"瀬戸内市","city_kana":"セトウチシ","town":"邑久町北池","town_kana":"オクチョウキタイケ","prefecture_code":33},"4232":{"zip_code":"7014232","prefecture":"岡山県","prefecture_kana":"オカヤマケン","city":"瀬戸内市","city_kana":"セトウチシ","town":"邑久町北島","town_kana":"オクチョウキタシマ","prefecture_code":33},"4247":{"zip_code":"7014247","prefecture":"岡山県","prefecture_kana":"オカヤマケン","city":"瀬戸内市","city_kana":"セトウチシ","town":"邑久町下笠加","town_kana":"オクチョウシモガサカ","prefecture_code":33},"4216":{"zip_code":"7014216","prefecture":"岡山県","prefecture_kana":"オカヤマケン","city":"瀬戸内市","city_kana":"セトウチシ","town":"邑久町下山田","town_kana":"オクチョウシモヤマダ","prefecture_code":33},"4211":{"zip_code":"7014211","prefecture":"岡山県","prefecture_kana":"オカヤマケン","city":"瀬戸内市","city_kana":"セトウチシ","town":"邑久町庄田","town_kana":"オクチョウショウダ","prefecture_code":33},"4212":{"zip_code":"7014212","prefecture":"岡山県","prefecture_kana":"オカヤマケン","city":"瀬戸内市","city_kana":"セトウチシ","town":"邑久町尻海","town_kana":"オクチョウシリミ","prefecture_code":33},"4243":{"zip_code":"7014243","prefecture":"岡山県","prefecture_kana":"オカヤマケン","city":"瀬戸内市","city_kana":"セトウチシ","town":"邑久町宗三","town_kana":"オクチョウソウサン","prefecture_code":33},"4223":{"zip_code":"7014223","prefecture":"岡山県","prefecture_kana":"オカヤマケン","city":"瀬戸内市","city_kana":"セトウチシ","town":"邑久町豊原","town_kana":"オクチョウトヨハラ","prefecture_code":33},"4222":{"zip_code":"7014222","prefecture":"岡山県","prefecture_kana":"オカヤマケン","city":"瀬戸内市","city_kana":"セトウチシ","town":"邑久町豊安","town_kana":"オクチョウトヨヤス","prefecture_code":33},"4224":{"zip_code":"7014224","prefecture":"岡山県","prefecture_kana":"オカヤマケン","city":"瀬戸内市","city_kana":"セトウチシ","town":"邑久町東谷","town_kana":"オクチョウヒガシダニ","prefecture_code":33},"4502":{"zip_code":"7014502","prefecture":"岡山県","prefecture_kana":"オカヤマケン","city":"瀬戸内市","city_kana":"セトウチシ","town":"邑久町福谷","town_kana":"オクチョウフクタニ","prefecture_code":33},"4244":{"zip_code":"7014244","prefecture":"岡山県","prefecture_kana":"オカヤマケン","city":"瀬戸内市","city_kana":"セトウチシ","town":"邑久町福中","town_kana":"オクチョウフクナカ","prefecture_code":33},"4241":{"zip_code":"7014241","prefecture":"岡山県","prefecture_kana":"オカヤマケン","city":"瀬戸内市","city_kana":"セトウチシ","town":"邑久町福元","town_kana":"オクチョウフクモト","prefecture_code":33},"4245":{"zip_code":"7014245","prefecture":"岡山県","prefecture_kana":"オカヤマケン","city":"瀬戸内市","city_kana":"セトウチシ","town":"邑久町福山","town_kana":"オクチョウフクヤマ","prefecture_code":33},"4214":{"zip_code":"7014214","prefecture":"岡山県","prefecture_kana":"オカヤマケン","city":"瀬戸内市","city_kana":"セトウチシ","town":"邑久町本庄","town_kana":"オクチョウホンジョウ","prefecture_code":33},"4254":{"zip_code":"7014254","prefecture":"岡山県","prefecture_kana":"オカヤマケン","city":"瀬戸内市","city_kana":"セトウチシ","town":"邑久町豆田","town_kana":"オクチョウマメダ","prefecture_code":33},"4253":{"zip_code":"7014253","prefecture":"岡山県","prefecture_kana":"オカヤマケン","city":"瀬戸内市","city_kana":"セトウチシ","town":"邑久町箕輪","town_kana":"オクチョウミノワ","prefecture_code":33},"4233":{"zip_code":"7014233","prefecture":"岡山県","prefecture_kana":"オカヤマケン","city":"瀬戸内市","city_kana":"セトウチシ","town":"邑久町向山","town_kana":"オクチョウムコウヤマ","prefecture_code":33},"4501":{"zip_code":"7014501","prefecture":"岡山県","prefecture_kana":"オカヤマケン","city":"瀬戸内市","city_kana":"セトウチシ","town":"邑久町虫明","town_kana":"オクチョウムシアケ","prefecture_code":33},"4248":{"zip_code":"7014248","prefecture":"岡山県","prefecture_kana":"オカヤマケン","city":"瀬戸内市","city_kana":"セトウチシ","town":"邑久町百田","town_kana":"オクチョウモモダ","prefecture_code":33},"4246":{"zip_code":"7014246","prefecture":"岡山県","prefecture_kana":"オカヤマケン","city":"瀬戸内市","city_kana":"セトウチシ","town":"邑久町山田庄","town_kana":"オクチョウヤマダノショウ","prefecture_code":33},"4213":{"zip_code":"7014213","prefecture":"岡山県","prefecture_kana":"オカヤマケン","city":"瀬戸内市","city_kana":"セトウチシ","town":"邑久町山手","town_kana":"オクチョウヤマテ","prefecture_code":33},"4261":{"zip_code":"7014261","prefecture":"岡山県","prefecture_kana":"オカヤマケン","city":"瀬戸内市","city_kana":"セトウチシ","town":"長船町飯井","town_kana":"オサフネチョウイイ","prefecture_code":33},"4273":{"zip_code":"7014273","prefecture":"岡山県","prefecture_kana":"オカヤマケン","city":"瀬戸内市","city_kana":"セトウチシ","town":"長船町磯上","town_kana":"オサフネチョウイソカミ","prefecture_code":33},"4274":{"zip_code":"7014274","prefecture":"岡山県","prefecture_kana":"オカヤマケン","city":"瀬戸内市","city_kana":"セトウチシ","town":"長船町牛文","town_kana":"オサフネチョウウシフミ","prefecture_code":33},"4271":{"zip_code":"7014271","prefecture":"岡山県","prefecture_kana":"オカヤマケン","city":"瀬戸内市","city_kana":"セトウチシ","town":"長船町長船","town_kana":"オサフネチョウオサフネ","prefecture_code":33},"4263":{"zip_code":"7014263","prefecture":"岡山県","prefecture_kana":"オカヤマケン","city":"瀬戸内市","city_kana":"セトウチシ","town":"長船町西須恵","town_kana":"オサフネチョウニシスエ","prefecture_code":33},"4264":{"zip_code":"7014264","prefecture":"岡山県","prefecture_kana":"オカヤマケン","city":"瀬戸内市","city_kana":"セトウチシ","town":"長船町土師","town_kana":"オサフネチョウハジ","prefecture_code":33},"4276":{"zip_code":"7014276","prefecture":"岡山県","prefecture_kana":"オカヤマケン","city":"瀬戸内市","city_kana":"セトウチシ","town":"長船町服部","town_kana":"オサフネチョウハットリ","prefecture_code":33},"4262":{"zip_code":"7014262","prefecture":"岡山県","prefecture_kana":"オカヤマケン","city":"瀬戸内市","city_kana":"セトウチシ","town":"長船町東須恵","town_kana":"オサフネチョウヒガシスエ","prefecture_code":33},"4265":{"zip_code":"7014265","prefecture":"岡山県","prefecture_kana":"オカヤマケン","city":"瀬戸内市","city_kana":"セトウチシ","town":"長船町福岡","town_kana":"オサフネチョウフクオカ","prefecture_code":33},"4275":{"zip_code":"7014275","prefecture":"岡山県","prefecture_kana":"オカヤマケン","city":"瀬戸内市","city_kana":"セトウチシ","town":"長船町福里","town_kana":"オサフネチョウフクサト","prefecture_code":33},"4272":{"zip_code":"7014272","prefecture":"岡山県","prefecture_kana":"オカヤマケン","city":"瀬戸内市","city_kana":"セトウチシ","town":"長船町八日市","town_kana":"オサフネチョウヨウカイチ","prefecture_code":33},"2443":{"zip_code":"7012443","prefecture":"岡山県","prefecture_kana":"オカヤマケン","city":"赤磐市","city_kana":"アカイワシ","town":"合田","town_kana":"アイダ","prefecture_code":33},"2514":{"zip_code":"7012514","prefecture":"岡山県","prefecture_kana":"オカヤマケン","city":"赤磐市","city_kana":"アカイワシ","town":"石","town_kana":"イシ","prefecture_code":33},"2445":{"zip_code":"7012445","prefecture":"岡山県","prefecture_kana":"オカヤマケン","city":"赤磐市","city_kana":"アカイワシ","town":"石上","town_kana":"イシカミ","prefecture_code":33},"2511":{"zip_code":"7012511","prefecture":"岡山県","prefecture_kana":"オカヤマケン","city":"赤磐市","city_kana":"アカイワシ","town":"稲蒔","town_kana":"イナマキ","prefecture_code":33},"2213":{"zip_code":"7012213","prefecture":"岡山県","prefecture_kana":"オカヤマケン","city":"赤磐市","city_kana":"アカイワシ","town":"今井","town_kana":"イマイ","prefecture_code":33},"2221":{"zip_code":"7012221","prefecture":"岡山県","prefecture_kana":"オカヤマケン","city":"赤磐市","city_kana":"アカイワシ","town":"大苅田","town_kana":"オオカンダ","prefecture_code":33},"2205":{"zip_code":"7012205","prefecture":"岡山県","prefecture_kana":"オカヤマケン","city":"赤磐市","city_kana":"アカイワシ","town":"大屋","town_kana":"オオヤ","prefecture_code":33},"2446":{"zip_code":"7012446","prefecture":"岡山県","prefecture_kana":"オカヤマケン","city":"赤磐市","city_kana":"アカイワシ","town":"小鎌","town_kana":"オガモ","prefecture_code":33},"2501":{"zip_code":"7012501","prefecture":"岡山県","prefecture_kana":"オカヤマケン","city":"赤磐市","city_kana":"アカイワシ","town":"河原屋","town_kana":"カワラヤ","prefecture_code":33},"2211":{"zip_code":"7012211","prefecture":"岡山県","prefecture_kana":"オカヤマケン","city":"赤磐市","city_kana":"アカイワシ","town":"北佐古田","town_kana":"キタサコダ","prefecture_code":33},"2502":{"zip_code":"7012502","prefecture":"岡山県","prefecture_kana":"オカヤマケン","city":"赤磐市","city_kana":"アカイワシ","town":"草生","town_kana":"クソウ","prefecture_code":33},"2512":{"zip_code":"7012512","prefecture":"岡山県","prefecture_kana":"オカヤマケン","city":"赤磐市","city_kana":"アカイワシ","town":"暮田","town_kana":"クレダ","prefecture_code":33},"2522":{"zip_code":"7012522","prefecture":"岡山県","prefecture_kana":"オカヤマケン","city":"赤磐市","city_kana":"アカイワシ","town":"黒沢","town_kana":"クロサワ","prefecture_code":33},"2521":{"zip_code":"7012521","prefecture":"岡山県","prefecture_kana":"オカヤマケン","city":"赤磐市","city_kana":"アカイワシ","town":"黒本","town_kana":"クロモト","prefecture_code":33},"2515":{"zip_code":"7012515","prefecture":"岡山県","prefecture_kana":"オカヤマケン","city":"赤磐市","city_kana":"アカイワシ","town":"光木","town_kana":"コウキ","prefecture_code":33},"2201":{"zip_code":"7012201","prefecture":"岡山県","prefecture_kana":"オカヤマケン","city":"赤磐市","city_kana":"アカイワシ","town":"小原","town_kana":"コバラ","prefecture_code":33},"2525":{"zip_code":"7012525","prefecture":"岡山県","prefecture_kana":"オカヤマケン","city":"赤磐市","city_kana":"アカイワシ","town":"是里","town_kana":"コレサト","prefecture_code":33},"2202":{"zip_code":"7012202","prefecture":"岡山県","prefecture_kana":"オカヤマケン","city":"赤磐市","city_kana":"アカイワシ","town":"坂辺","town_kana":"サカナベ","prefecture_code":33},"2432":{"zip_code":"7012432","prefecture":"岡山県","prefecture_kana":"オカヤマケン","city":"赤磐市","city_kana":"アカイワシ","town":"塩木","town_kana":"シオギ","prefecture_code":33},"2503":{"zip_code":"7012503","prefecture":"岡山県","prefecture_kana":"オカヤマケン","city":"赤磐市","city_kana":"アカイワシ","town":"周匝","town_kana":"スサイ","prefecture_code":33},"2203":{"zip_code":"7012203","prefecture":"岡山県","prefecture_kana":"オカヤマケン","city":"赤磐市","city_kana":"アカイワシ","town":"惣分","town_kana":"ソウブン","prefecture_code":33},"2216":{"zip_code":"7012216","prefecture":"岡山県","prefecture_kana":"オカヤマケン","city":"赤磐市","city_kana":"アカイワシ","town":"多賀","town_kana":"タガ","prefecture_code":33},"2524":{"zip_code":"7012524","prefecture":"岡山県","prefecture_kana":"オカヤマケン","city":"赤磐市","city_kana":"アカイワシ","town":"滝山","town_kana":"タキヤマ","prefecture_code":33},"2431":{"zip_code":"7012431","prefecture":"岡山県","prefecture_kana":"オカヤマケン","city":"赤磐市","city_kana":"アカイワシ","town":"戸津野","town_kana":"トツノ","prefecture_code":33},"2437":{"zip_code":"7012437","prefecture":"岡山県","prefecture_kana":"オカヤマケン","city":"赤磐市","city_kana":"アカイワシ","town":"中勢実","town_kana":"ナカセイジツ","prefecture_code":33},"2444":{"zip_code":"7012444","prefecture":"岡山県","prefecture_kana":"オカヤマケン","city":"赤磐市","city_kana":"アカイワシ","town":"中畑","town_kana":"ナカハタ","prefecture_code":33},"2523":{"zip_code":"7012523","prefecture":"岡山県","prefecture_kana":"オカヤマケン","city":"赤磐市","city_kana":"アカイワシ","town":"中山","town_kana":"ナカヤマ","prefecture_code":33},"2215":{"zip_code":"7012215","prefecture":"岡山県","prefecture_kana":"オカヤマケン","city":"赤磐市","city_kana":"アカイワシ","town":"西軽部","town_kana":"ニシカルベ","prefecture_code":33},"2224":{"zip_code":"7012224","prefecture":"岡山県","prefecture_kana":"オカヤマケン","city":"赤磐市","city_kana":"アカイワシ","town":"西窪田","town_kana":"ニシクボタ","prefecture_code":33},"2441":{"zip_code":"7012441","prefecture":"岡山県","prefecture_kana":"オカヤマケン","city":"赤磐市","city_kana":"アカイワシ","town":"西勢実","town_kana":"ニシセイジツ","prefecture_code":33},"2435":{"zip_code":"7012435","prefecture":"岡山県","prefecture_kana":"オカヤマケン","city":"赤磐市","city_kana":"アカイワシ","town":"仁堀中","town_kana":"ニボリナカ","prefecture_code":33},"2436":{"zip_code":"7012436","prefecture":"岡山県","prefecture_kana":"オカヤマケン","city":"赤磐市","city_kana":"アカイワシ","town":"仁堀西","town_kana":"ニボリニシ","prefecture_code":33},"2434":{"zip_code":"7012434","prefecture":"岡山県","prefecture_kana":"オカヤマケン","city":"赤磐市","city_kana":"アカイワシ","town":"仁堀東","town_kana":"ニボリヒガシ","prefecture_code":33},"2214":{"zip_code":"7012214","prefecture":"岡山県","prefecture_kana":"オカヤマケン","city":"赤磐市","city_kana":"アカイワシ","town":"東軽部","town_kana":"ヒガシカルベ","prefecture_code":33},"2223":{"zip_code":"7012223","prefecture":"岡山県","prefecture_kana":"オカヤマケン","city":"赤磐市","city_kana":"アカイワシ","town":"東窪田","town_kana":"ヒガシクボタ","prefecture_code":33},"2433":{"zip_code":"7012433","prefecture":"岡山県","prefecture_kana":"オカヤマケン","city":"赤磐市","city_kana":"アカイワシ","town":"平山","town_kana":"ヒラヤマ","prefecture_code":33},"2442":{"zip_code":"7012442","prefecture":"岡山県","prefecture_kana":"オカヤマケン","city":"赤磐市","city_kana":"アカイワシ","town":"広戸","town_kana":"ヒロド","prefecture_code":33},"2504":{"zip_code":"7012504","prefecture":"岡山県","prefecture_kana":"オカヤマケン","city":"赤磐市","city_kana":"アカイワシ","town":"福田","town_kana":"フクダ","prefecture_code":33},"2222":{"zip_code":"7012222","prefecture":"岡山県","prefecture_kana":"オカヤマケン","city":"赤磐市","city_kana":"アカイワシ","town":"町苅田","town_kana":"マチカンダ","prefecture_code":33},"2212":{"zip_code":"7012212","prefecture":"岡山県","prefecture_kana":"オカヤマケン","city":"赤磐市","city_kana":"アカイワシ","town":"南佐古田","town_kana":"ミナミサコダ","prefecture_code":33},"2513":{"zip_code":"7012513","prefecture":"岡山県","prefecture_kana":"オカヤマケン","city":"赤磐市","city_kana":"アカイワシ","town":"八島田","town_kana":"ヤシマダ","prefecture_code":33},"2225":{"zip_code":"7012225","prefecture":"岡山県","prefecture_kana":"オカヤマケン","city":"赤磐市","city_kana":"アカイワシ","town":"山口","town_kana":"ヤマグチ","prefecture_code":33},"2204":{"zip_code":"7012204","prefecture":"岡山県","prefecture_kana":"オカヤマケン","city":"赤磐市","city_kana":"アカイワシ","town":"山手","town_kana":"ヤマテ","prefecture_code":33},"2226":{"zip_code":"7012226","prefecture":"岡山県","prefecture_kana":"オカヤマケン","city":"赤磐市","city_kana":"アカイワシ","town":"由津里","town_kana":"ユヅリ","prefecture_code":33},"2623":{"zip_code":"7012623","prefecture":"岡山県","prefecture_kana":"オカヤマケン","city":"美作市","city_kana":"ミマサカシ","town":"英田青野","town_kana":"アイダアオノ","prefecture_code":33},"2606":{"zip_code":"7012606","prefecture":"岡山県","prefecture_kana":"オカヤマケン","city":"美作市","city_kana":"ミマサカシ","town":"井口","town_kana":"イグチ","prefecture_code":33},"2614":{"zip_code":"7012614","prefecture":"岡山県","prefecture_kana":"オカヤマケン","city":"美作市","city_kana":"ミマサカシ","town":"上山","town_kana":"ウエヤマ","prefecture_code":33},"2605":{"zip_code":"7012605","prefecture":"岡山県","prefecture_kana":"オカヤマケン","city":"美作市","city_kana":"ミマサカシ","town":"奥","town_kana":"オク","prefecture_code":33},"2601":{"zip_code":"7012601","prefecture":"岡山県","prefecture_kana":"オカヤマケン","city":"美作市","city_kana":"ミマサカシ","town":"尾谷","town_kana":"オタニ","prefecture_code":33},"2611":{"zip_code":"7012611","prefecture":"岡山県","prefecture_kana":"オカヤマケン","city":"美作市","city_kana":"ミマサカシ","town":"北","town_kana":"キタ","prefecture_code":33},"2621":{"zip_code":"7012621","prefecture":"岡山県","prefecture_kana":"オカヤマケン","city":"美作市","city_kana":"ミマサカシ","town":"下山","town_kana":"シモヤマ","prefecture_code":33},"2625":{"zip_code":"7012625","prefecture":"岡山県","prefecture_kana":"オカヤマケン","city":"美作市","city_kana":"ミマサカシ","town":"城田","town_kana":"ジョウデン","prefecture_code":33},"2612":{"zip_code":"7012612","prefecture":"岡山県","prefecture_kana":"オカヤマケン","city":"美作市","city_kana":"ミマサカシ","town":"滝宮","town_kana":"タキミヤ","prefecture_code":33},"2622":{"zip_code":"7012622","prefecture":"岡山県","prefecture_kana":"オカヤマケン","city":"美作市","city_kana":"ミマサカシ","town":"鳥渕","town_kana":"トリブチ","prefecture_code":33},"2615":{"zip_code":"7012615","prefecture":"岡山県","prefecture_kana":"オカヤマケン","city":"美作市","city_kana":"ミマサカシ","town":"中川","town_kana":"ナカガワ","prefecture_code":33},"2624":{"zip_code":"7012624","prefecture":"岡山県","prefecture_kana":"オカヤマケン","city":"美作市","city_kana":"ミマサカシ","town":"中河内","town_kana":"ナカゴウチ","prefecture_code":33},"2604":{"zip_code":"7012604","prefecture":"岡山県","prefecture_kana":"オカヤマケン","city":"美作市","city_kana":"ミマサカシ","town":"福本","town_kana":"フクモト","prefecture_code":33},"2602":{"zip_code":"7012602","prefecture":"岡山県","prefecture_kana":"オカヤマケン","city":"美作市","city_kana":"ミマサカシ","town":"真神","town_kana":"マガミ","prefecture_code":33},"2616":{"zip_code":"7012616","prefecture":"岡山県","prefecture_kana":"オカヤマケン","city":"美作市","city_kana":"ミマサカシ","town":"南","town_kana":"ミナミ","prefecture_code":33},"2603":{"zip_code":"7012603","prefecture":"岡山県","prefecture_kana":"オカヤマケン","city":"美作市","city_kana":"ミマサカシ","town":"三保原","town_kana":"ミホバラ","prefecture_code":33},"2613":{"zip_code":"7012613","prefecture":"岡山県","prefecture_kana":"オカヤマケン","city":"美作市","city_kana":"ミマサカシ","town":"横尾","town_kana":"ヨコオ","prefecture_code":33},"0300":{"zip_code":"7010300","prefecture":"岡山県","prefecture_kana":"オカヤマケン","city":"都窪郡早島町","city_kana":"ツクボグンハヤシマチョウ","town":"","town_kana":"","prefecture_code":33},"0304":{"zip_code":"7010304","prefecture":"岡山県","prefecture_kana":"オカヤマケン","city":"都窪郡早島町","city_kana":"ツクボグンハヤシマチョウ","town":"早島","town_kana":"ハヤシマ","prefecture_code":33},"0303":{"zip_code":"7010303","prefecture":"岡山県","prefecture_kana":"オカヤマケン","city":"都窪郡早島町","city_kana":"ツクボグンハヤシマチョウ","town":"前潟","town_kana":"マエガタ","prefecture_code":33},"0301":{"zip_code":"7010301","prefecture":"岡山県","prefecture_kana":"オカヤマケン","city":"都窪郡早島町","city_kana":"ツクボグンハヤシマチョウ","town":"矢尾","town_kana":"ヤオ","prefecture_code":33},"0302":{"zip_code":"7010302","prefecture":"岡山県","prefecture_kana":"オカヤマケン","city":"都窪郡早島町","city_kana":"ツクボグンハヤシマチョウ","town":"若宮","town_kana":"ワカミヤ","prefecture_code":33}}