{"8005":{"zip_code":"7028005","prefecture":"岡山県","prefecture_kana":"オカヤマケン","city":"岡山市中区","city_kana":"オカヤマシナカク","town":"江崎","town_kana":"エザキ","prefecture_code":33},"8004":{"zip_code":"7028004","prefecture":"岡山県","prefecture_kana":"オカヤマケン","city":"岡山市中区","city_kana":"オカヤマシナカク","town":"江並","town_kana":"エナミ","prefecture_code":33},"8001":{"zip_code":"7028001","prefecture":"岡山県","prefecture_kana":"オカヤマケン","city":"岡山市中区","city_kana":"オカヤマシナカク","town":"沖元","town_kana":"オキモト","prefecture_code":33},"8002":{"zip_code":"7028002","prefecture":"岡山県","prefecture_kana":"オカヤマケン","city":"岡山市中区","city_kana":"オカヤマシナカク","town":"桑野","town_kana":"クワノ","prefecture_code":33},"8003":{"zip_code":"7028003","prefecture":"岡山県","prefecture_kana":"オカヤマケン","city":"岡山市中区","city_kana":"オカヤマシナカク","town":"新築港","town_kana":"シンチッコウ","prefecture_code":33},"8006":{"zip_code":"7028006","prefecture":"岡山県","prefecture_kana":"オカヤマケン","city":"岡山市中区","city_kana":"オカヤマシナカク","town":"藤崎","town_kana":"フジサキ","prefecture_code":33},"8013":{"zip_code":"7028013","prefecture":"岡山県","prefecture_kana":"オカヤマケン","city":"岡山市南区","city_kana":"オカヤマシミナミク","town":"飽浦","town_kana":"アクラ","prefecture_code":33},"8057":{"zip_code":"7028057","prefecture":"岡山県","prefecture_kana":"オカヤマケン","city":"岡山市南区","city_kana":"オカヤマシミナミク","town":"あけぼの町","town_kana":"アケボノチョウ","prefecture_code":33},"8015":{"zip_code":"7028015","prefecture":"岡山県","prefecture_kana":"オカヤマケン","city":"岡山市南区","city_kana":"オカヤマシミナミク","town":"阿津","town_kana":"アツ","prefecture_code":33},"8025":{"zip_code":"7028025","prefecture":"岡山県","prefecture_kana":"オカヤマケン","city":"岡山市南区","city_kana":"オカヤマシミナミク","town":"浦安西町","town_kana":"ウラヤスニシマチ","prefecture_code":33},"8026":{"zip_code":"7028026","prefecture":"岡山県","prefecture_kana":"オカヤマケン","city":"岡山市南区","city_kana":"オカヤマシミナミク","town":"浦安本町","town_kana":"ウラヤスホンマチ","prefecture_code":33},"8024":{"zip_code":"7028024","prefecture":"岡山県","prefecture_kana":"オカヤマケン","city":"岡山市南区","city_kana":"オカヤマシミナミク","town":"浦安南町","town_kana":"ウラヤスミナミマチ","prefecture_code":33},"8045":{"zip_code":"7028045","prefecture":"岡山県","prefecture_kana":"オカヤマケン","city":"岡山市南区","city_kana":"オカヤマシミナミク","town":"海岸通","town_kana":"カイガンドオリ","prefecture_code":33},"8012":{"zip_code":"7028012","prefecture":"岡山県","prefecture_kana":"オカヤマケン","city":"岡山市南区","city_kana":"オカヤマシミナミク","town":"北浦","town_kana":"キタウラ","prefecture_code":33},"8011":{"zip_code":"7028011","prefecture":"岡山県","prefecture_kana":"オカヤマケン","city":"岡山市南区","city_kana":"オカヤマシミナミク","town":"郡","town_kana":"コオリ","prefecture_code":33},"8016":{"zip_code":"7028016","prefecture":"岡山県","prefecture_kana":"オカヤマケン","city":"岡山市南区","city_kana":"オカヤマシミナミク","town":"小串","town_kana":"コグシ","prefecture_code":33},"8052":{"zip_code":"7028052","prefecture":"岡山県","prefecture_kana":"オカヤマケン","city":"岡山市南区","city_kana":"オカヤマシミナミク","town":"市場","town_kana":"シジョウ","prefecture_code":33},"8042":{"zip_code":"7028042","prefecture":"岡山県","prefecture_kana":"オカヤマケン","city":"岡山市南区","city_kana":"オカヤマシミナミク","town":"洲崎","town_kana":"スザキ","prefecture_code":33},"8046":{"zip_code":"7028046","prefecture":"岡山県","prefecture_kana":"オカヤマケン","city":"岡山市南区","city_kana":"オカヤマシミナミク","town":"立川町","town_kana":"タチカワチョウ","prefecture_code":33},"8053":{"zip_code":"7028053","prefecture":"岡山県","prefecture_kana":"オカヤマケン","city":"岡山市南区","city_kana":"オカヤマシミナミク","town":"築港栄町","town_kana":"チッコウサカエマチ","prefecture_code":33},"8056":{"zip_code":"7028056","prefecture":"岡山県","prefecture_kana":"オカヤマケン","city":"岡山市南区","city_kana":"オカヤマシミナミク","town":"築港新町","town_kana":"チッコウシンマチ","prefecture_code":33},"8054":{"zip_code":"7028054","prefecture":"岡山県","prefecture_kana":"オカヤマケン","city":"岡山市南区","city_kana":"オカヤマシミナミク","town":"築港ひかり町","town_kana":"チッコウヒカリマチ","prefecture_code":33},"8055":{"zip_code":"7028055","prefecture":"岡山県","prefecture_kana":"オカヤマケン","city":"岡山市南区","city_kana":"オカヤマシミナミク","town":"築港緑町","town_kana":"チッコウミドリマチ","prefecture_code":33},"8051":{"zip_code":"7028051","prefecture":"岡山県","prefecture_kana":"オカヤマケン","city":"岡山市南区","city_kana":"オカヤマシミナミク","town":"築港元町","town_kana":"チッコウモトマチ","prefecture_code":33},"8037":{"zip_code":"7028037","prefecture":"岡山県","prefecture_kana":"オカヤマケン","city":"岡山市南区","city_kana":"オカヤマシミナミク","town":"千鳥町","town_kana":"チドリチョウ","prefecture_code":33},"8041":{"zip_code":"7028041","prefecture":"岡山県","prefecture_kana":"オカヤマケン","city":"岡山市南区","city_kana":"オカヤマシミナミク","town":"富浜町","town_kana":"トミハマチョウ","prefecture_code":33},"8058":{"zip_code":"7028058","prefecture":"岡山県","prefecture_kana":"オカヤマケン","city":"岡山市南区","city_kana":"オカヤマシミナミク","town":"並木町","town_kana":"ナミキチョウ","prefecture_code":33},"8023":{"zip_code":"7028023","prefecture":"岡山県","prefecture_kana":"オカヤマケン","city":"岡山市南区","city_kana":"オカヤマシミナミク","town":"南輝","town_kana":"ナンキ","prefecture_code":33},"8043":{"zip_code":"7028043","prefecture":"岡山県","prefecture_kana":"オカヤマケン","city":"岡山市南区","city_kana":"オカヤマシミナミク","town":"平福","town_kana":"ヒラフク","prefecture_code":33},"8044":{"zip_code":"7028044","prefecture":"岡山県","prefecture_kana":"オカヤマケン","city":"岡山市南区","city_kana":"オカヤマシミナミク","town":"福島","town_kana":"フクシマ","prefecture_code":33},"8021":{"zip_code":"7028021","prefecture":"岡山県","prefecture_kana":"オカヤマケン","city":"岡山市南区","city_kana":"オカヤマシミナミク","town":"福田","town_kana":"フクダ","prefecture_code":33},"8032":{"zip_code":"7028032","prefecture":"岡山県","prefecture_kana":"オカヤマケン","city":"岡山市南区","city_kana":"オカヤマシミナミク","town":"福富中","town_kana":"フクトミナカ","prefecture_code":33},"8031":{"zip_code":"7028031","prefecture":"岡山県","prefecture_kana":"オカヤマケン","city":"岡山市南区","city_kana":"オカヤマシミナミク","town":"福富西","town_kana":"フクトミニシ","prefecture_code":33},"8033":{"zip_code":"7028033","prefecture":"岡山県","prefecture_kana":"オカヤマケン","city":"岡山市南区","city_kana":"オカヤマシミナミク","town":"福富東","town_kana":"フクトミヒガシ","prefecture_code":33},"8022":{"zip_code":"7028022","prefecture":"岡山県","prefecture_kana":"オカヤマケン","city":"岡山市南区","city_kana":"オカヤマシミナミク","town":"福成","town_kana":"フクナリ","prefecture_code":33},"8035":{"zip_code":"7028035","prefecture":"岡山県","prefecture_kana":"オカヤマケン","city":"岡山市南区","city_kana":"オカヤマシミナミク","town":"福浜町","town_kana":"フクハマチョウ","prefecture_code":33},"8034":{"zip_code":"7028034","prefecture":"岡山県","prefecture_kana":"オカヤマケン","city":"岡山市南区","city_kana":"オカヤマシミナミク","town":"福浜西町","town_kana":"フクハマニシマチ","prefecture_code":33},"8048":{"zip_code":"7028048","prefecture":"岡山県","prefecture_kana":"オカヤマケン","city":"岡山市南区","city_kana":"オカヤマシミナミク","town":"福吉町","town_kana":"フクヨシチョウ","prefecture_code":33},"8027":{"zip_code":"7028027","prefecture":"岡山県","prefecture_kana":"オカヤマケン","city":"岡山市南区","city_kana":"オカヤマシミナミク","town":"芳泉","town_kana":"ホウセン","prefecture_code":33},"8038":{"zip_code":"7028038","prefecture":"岡山県","prefecture_kana":"オカヤマケン","city":"岡山市南区","city_kana":"オカヤマシミナミク","town":"松浜町","town_kana":"マツハマチョウ","prefecture_code":33},"8036":{"zip_code":"7028036","prefecture":"岡山県","prefecture_kana":"オカヤマケン","city":"岡山市南区","city_kana":"オカヤマシミナミク","town":"三浜町","town_kana":"ミハマチョウ","prefecture_code":33},"8014":{"zip_code":"7028014","prefecture":"岡山県","prefecture_kana":"オカヤマケン","city":"岡山市南区","city_kana":"オカヤマシミナミク","town":"宮浦","town_kana":"ミヤウラ","prefecture_code":33},"8047":{"zip_code":"7028047","prefecture":"岡山県","prefecture_kana":"オカヤマケン","city":"岡山市南区","city_kana":"オカヤマシミナミク","town":"若葉町","town_kana":"ワカバチョウ","prefecture_code":33}}