{"8207":{"zip_code":"7038207","prefecture":"岡山県","prefecture_kana":"オカヤマケン","city":"岡山市中区","city_kana":"オカヤマシナカク","town":"祇園","town_kana":"ギオン","prefecture_code":33},"8257":{"zip_code":"7038257","prefecture":"岡山県","prefecture_kana":"オカヤマケン","city":"岡山市北区","city_kana":"オカヤマシキタク","town":"後楽園","town_kana":"コウラクエン","prefecture_code":33},"8288":{"zip_code":"7038288","prefecture":"岡山県","prefecture_kana":"オカヤマケン","city":"岡山市中区","city_kana":"オカヤマシナカク","town":"赤坂本町","town_kana":"アカサカホンマチ","prefecture_code":33},"8283":{"zip_code":"7038283","prefecture":"岡山県","prefecture_kana":"オカヤマケン","city":"岡山市中区","city_kana":"オカヤマシナカク","town":"赤坂南新町","town_kana":"アカサカミナミシンマチ","prefecture_code":33},"8287":{"zip_code":"7038287","prefecture":"岡山県","prefecture_kana":"オカヤマケン","city":"岡山市中区","city_kana":"オカヤマシナカク","town":"赤坂台","town_kana":"アカサカダイ","prefecture_code":33},"8231":{"zip_code":"7038231","prefecture":"岡山県","prefecture_kana":"オカヤマケン","city":"岡山市中区","city_kana":"オカヤマシナカク","town":"赤田","town_kana":"アコダ","prefecture_code":33},"8284":{"zip_code":"7038284","prefecture":"岡山県","prefecture_kana":"オカヤマケン","city":"岡山市中区","city_kana":"オカヤマシナカク","town":"網浜","town_kana":"アミノハマ","prefecture_code":33},"8208":{"zip_code":"7038208","prefecture":"岡山県","prefecture_kana":"オカヤマケン","city":"岡山市中区","city_kana":"オカヤマシナカク","town":"今在家","town_kana":"イマザイケ","prefecture_code":33},"8226":{"zip_code":"7038226","prefecture":"岡山県","prefecture_kana":"オカヤマケン","city":"岡山市中区","city_kana":"オカヤマシナカク","town":"今谷","town_kana":"イマダニ","prefecture_code":33},"8272":{"zip_code":"7038272","prefecture":"岡山県","prefecture_kana":"オカヤマケン","city":"岡山市中区","city_kana":"オカヤマシナカク","town":"奥市","town_kana":"オクイチ","prefecture_code":33},"8228":{"zip_code":"7038228","prefecture":"岡山県","prefecture_kana":"オカヤマケン","city":"岡山市中区","city_kana":"オカヤマシナカク","town":"乙多見","town_kana":"オタミ","prefecture_code":33},"8277":{"zip_code":"7038277","prefecture":"岡山県","prefecture_kana":"オカヤマケン","city":"岡山市中区","city_kana":"オカヤマシナカク","town":"御成町","town_kana":"オナリチョウ","prefecture_code":33},"8204":{"zip_code":"7038204","prefecture":"岡山県","prefecture_kana":"オカヤマケン","city":"岡山市中区","city_kana":"オカヤマシナカク","town":"雄町","town_kana":"オマチ","prefecture_code":33},"8273":{"zip_code":"7038273","prefecture":"岡山県","prefecture_kana":"オカヤマケン","city":"岡山市中区","city_kana":"オカヤマシナカク","town":"門田文化町","town_kana":"カドタブンカマチ","prefecture_code":33},"8274":{"zip_code":"7038274","prefecture":"岡山県","prefecture_kana":"オカヤマケン","city":"岡山市中区","city_kana":"オカヤマシナカク","town":"門田本町","town_kana":"カドタホンマチ","prefecture_code":33},"8275":{"zip_code":"7038275","prefecture":"岡山県","prefecture_kana":"オカヤマケン","city":"岡山市中区","city_kana":"オカヤマシナカク","town":"門田屋敷","town_kana":"カドタヤシキ","prefecture_code":33},"8276":{"zip_code":"7038276","prefecture":"岡山県","prefecture_kana":"オカヤマケン","city":"岡山市中区","city_kana":"オカヤマシナカク","town":"門田屋敷本町","town_kana":"カドタヤシキホンマチ","prefecture_code":33},"8227":{"zip_code":"7038227","prefecture":"岡山県","prefecture_kana":"オカヤマケン","city":"岡山市中区","city_kana":"オカヤマシナカク","town":"兼基","town_kana":"カネモト","prefecture_code":33},"8286":{"zip_code":"7038286","prefecture":"岡山県","prefecture_kana":"オカヤマケン","city":"岡山市中区","city_kana":"オカヤマシナカク","town":"旭東町","town_kana":"キョクトウチョウ","prefecture_code":33},"8236":{"zip_code":"7038236","prefecture":"岡山県","prefecture_kana":"オカヤマケン","city":"岡山市中区","city_kana":"オカヤマシナカク","town":"国富","town_kana":"クニトミ","prefecture_code":33},"8265":{"zip_code":"7038265","prefecture":"岡山県","prefecture_kana":"オカヤマケン","city":"岡山市中区","city_kana":"オカヤマシナカク","town":"倉田","town_kana":"クラタ","prefecture_code":33},"8264":{"zip_code":"7038264","prefecture":"岡山県","prefecture_kana":"オカヤマケン","city":"岡山市中区","city_kana":"オカヤマシナカク","town":"倉富","town_kana":"クラトミ","prefecture_code":33},"8263":{"zip_code":"7038263","prefecture":"岡山県","prefecture_kana":"オカヤマケン","city":"岡山市中区","city_kana":"オカヤマシナカク","town":"倉益","town_kana":"クラマス","prefecture_code":33},"8225":{"zip_code":"7038225","prefecture":"岡山県","prefecture_kana":"オカヤマケン","city":"岡山市中区","city_kana":"オカヤマシナカク","town":"神下","town_kana":"コウシタ","prefecture_code":33},"8203":{"zip_code":"7038203","prefecture":"岡山県","prefecture_kana":"オカヤマケン","city":"岡山市中区","city_kana":"オカヤマシナカク","town":"国府市場","town_kana":"コクフイチバ","prefecture_code":33},"8293":{"zip_code":"7038293","prefecture":"岡山県","prefecture_kana":"オカヤマケン","city":"岡山市中区","city_kana":"オカヤマシナカク","town":"小橋町","town_kana":"コバシチョウ","prefecture_code":33},"8248":{"zip_code":"7038248","prefecture":"岡山県","prefecture_kana":"オカヤマケン","city":"岡山市中区","city_kana":"オカヤマシナカク","town":"さい","town_kana":"サイ","prefecture_code":33},"8247":{"zip_code":"7038247","prefecture":"岡山県","prefecture_kana":"オカヤマケン","city":"岡山市中区","city_kana":"オカヤマシナカク","town":"さい東町","town_kana":"サイヒガシマチ","prefecture_code":33},"8296":{"zip_code":"7038296","prefecture":"岡山県","prefecture_kana":"オカヤマケン","city":"岡山市中区","city_kana":"オカヤマシナカク","town":"さくら住座","town_kana":"サクラジュウザ","prefecture_code":33},"8285":{"zip_code":"7038285","prefecture":"岡山県","prefecture_kana":"オカヤマケン","city":"岡山市中区","city_kana":"オカヤマシナカク","town":"桜橋","town_kana":"サクラバシ","prefecture_code":33},"8234":{"zip_code":"7038234","prefecture":"岡山県","prefecture_kana":"オカヤマケン","city":"岡山市中区","city_kana":"オカヤマシナカク","town":"沢田","town_kana":"サワダ","prefecture_code":33},"8201":{"zip_code":"7038201","prefecture":"岡山県","prefecture_kana":"オカヤマケン","city":"岡山市中区","city_kana":"オカヤマシナカク","town":"四御神","town_kana":"シノゴゼ","prefecture_code":33},"8243":{"zip_code":"7038243","prefecture":"岡山県","prefecture_kana":"オカヤマケン","city":"岡山市中区","city_kana":"オカヤマシナカク","town":"清水","town_kana":"シミズ","prefecture_code":33},"8222":{"zip_code":"7038222","prefecture":"岡山県","prefecture_kana":"オカヤマケン","city":"岡山市中区","city_kana":"オカヤマシナカク","town":"下","town_kana":"シモ","prefecture_code":33},"8206":{"zip_code":"7038206","prefecture":"岡山県","prefecture_kana":"オカヤマケン","city":"岡山市中区","city_kana":"オカヤマシナカク","town":"賞田","town_kana":"ショウダ","prefecture_code":33},"8294":{"zip_code":"7038294","prefecture":"岡山県","prefecture_kana":"オカヤマケン","city":"岡山市中区","city_kana":"オカヤマシナカク","town":"新京橋","town_kana":"シンキョウバシ","prefecture_code":33},"8238":{"zip_code":"7038238","prefecture":"岡山県","prefecture_kana":"オカヤマケン","city":"岡山市中区","city_kana":"オカヤマシナカク","town":"住吉町","town_kana":"スミヨシチョウ","prefecture_code":33},"8232":{"zip_code":"7038232","prefecture":"岡山県","prefecture_kana":"オカヤマケン","city":"岡山市中区","city_kana":"オカヤマシナカク","town":"関","town_kana":"セキ","prefecture_code":33},"8242":{"zip_code":"7038242","prefecture":"岡山県","prefecture_kana":"オカヤマケン","city":"岡山市中区","city_kana":"オカヤマシナカク","town":"高島","town_kana":"タカシマ","prefecture_code":33},"8241":{"zip_code":"7038241","prefecture":"岡山県","prefecture_kana":"オカヤマケン","city":"岡山市中区","city_kana":"オカヤマシナカク","town":"高島新屋敷","town_kana":"タカシマシンヤシキ","prefecture_code":33},"8233":{"zip_code":"7038233","prefecture":"岡山県","prefecture_kana":"オカヤマケン","city":"岡山市中区","city_kana":"オカヤマシナカク","town":"高屋","town_kana":"タカヤ","prefecture_code":33},"8251":{"zip_code":"7038251","prefecture":"岡山県","prefecture_kana":"オカヤマケン","city":"岡山市中区","city_kana":"オカヤマシナカク","town":"竹田","town_kana":"タケダ","prefecture_code":33},"8292":{"zip_code":"7038292","prefecture":"岡山県","prefecture_kana":"オカヤマケン","city":"岡山市中区","city_kana":"オカヤマシナカク","town":"中納言町","town_kana":"チュウナゴンチョウ","prefecture_code":33},"8217":{"zip_code":"7038217","prefecture":"岡山県","prefecture_kana":"オカヤマケン","city":"岡山市中区","city_kana":"オカヤマシナカク","town":"土田","town_kana":"ツチダ","prefecture_code":33},"8291":{"zip_code":"7038291","prefecture":"岡山県","prefecture_kana":"オカヤマケン","city":"岡山市中区","city_kana":"オカヤマシナカク","town":"徳吉町","town_kana":"トクヨシチョウ","prefecture_code":33},"8205":{"zip_code":"7038205","prefecture":"岡山県","prefecture_kana":"オカヤマケン","city":"岡山市中区","city_kana":"オカヤマシナカク","town":"中井","town_kana":"ナカイ","prefecture_code":33},"8221":{"zip_code":"7038221","prefecture":"岡山県","prefecture_kana":"オカヤマケン","city":"岡山市中区","city_kana":"オカヤマシナカク","town":"長岡","town_kana":"ナガオカ","prefecture_code":33},"8252":{"zip_code":"7038252","prefecture":"岡山県","prefecture_kana":"オカヤマケン","city":"岡山市中区","city_kana":"オカヤマシナカク","town":"中島","town_kana":"ナカシマ","prefecture_code":33},"8223":{"zip_code":"7038223","prefecture":"岡山県","prefecture_kana":"オカヤマケン","city":"岡山市中区","city_kana":"オカヤマシナカク","town":"長利","town_kana":"ナガトシ","prefecture_code":33},"8258":{"zip_code":"7038258","prefecture":"岡山県","prefecture_kana":"オカヤマケン","city":"岡山市中区","city_kana":"オカヤマシナカク","town":"西川原","town_kana":"ニシガワラ","prefecture_code":33},"8298":{"zip_code":"7038298","prefecture":"岡山県","prefecture_kana":"オカヤマケン","city":"岡山市中区","city_kana":"オカヤマシナカク","town":"西中島町","town_kana":"ニシナカジマチョウ","prefecture_code":33},"8256":{"zip_code":"7038256","prefecture":"岡山県","prefecture_kana":"オカヤマケン","city":"岡山市中区","city_kana":"オカヤマシナカク","town":"浜","town_kana":"ハマ","prefecture_code":33},"8235":{"zip_code":"7038235","prefecture":"岡山県","prefecture_kana":"オカヤマケン","city":"岡山市中区","city_kana":"オカヤマシナカク","town":"原尾島","town_kana":"ハラオシマ","prefecture_code":33},"8255":{"zip_code":"7038255","prefecture":"岡山県","prefecture_kana":"オカヤマケン","city":"岡山市中区","city_kana":"オカヤマシナカク","town":"東川原","town_kana":"ヒガシガワラ","prefecture_code":33},"8297":{"zip_code":"7038297","prefecture":"岡山県","prefecture_kana":"オカヤマケン","city":"岡山市中区","city_kana":"オカヤマシナカク","town":"東中島町","town_kana":"ヒガシナカジマチョウ","prefecture_code":33},"8281":{"zip_code":"7038281","prefecture":"岡山県","prefecture_kana":"オカヤマケン","city":"岡山市中区","city_kana":"オカヤマシナカク","town":"東山","town_kana":"ヒガシヤマ","prefecture_code":33},"8282":{"zip_code":"7038282","prefecture":"岡山県","prefecture_kana":"オカヤマケン","city":"岡山市中区","city_kana":"オカヤマシナカク","town":"平井","town_kana":"ヒライ","prefecture_code":33},"8262":{"zip_code":"7038262","prefecture":"岡山県","prefecture_kana":"オカヤマケン","city":"岡山市中区","city_kana":"オカヤマシナカク","town":"福泊","town_kana":"フクドマリ","prefecture_code":33},"8245":{"zip_code":"7038245","prefecture":"岡山県","prefecture_kana":"オカヤマケン","city":"岡山市中区","city_kana":"オカヤマシナカク","town":"藤原","town_kana":"フジワラ","prefecture_code":33},"8244":{"zip_code":"7038244","prefecture":"岡山県","prefecture_kana":"オカヤマケン","city":"岡山市中区","city_kana":"オカヤマシナカク","town":"藤原西町","town_kana":"フジワラニシマチ","prefecture_code":33},"8246":{"zip_code":"7038246","prefecture":"岡山県","prefecture_kana":"オカヤマケン","city":"岡山市中区","city_kana":"オカヤマシナカク","town":"藤原光町","town_kana":"フジワラヒカリマチ","prefecture_code":33},"8278":{"zip_code":"7038278","prefecture":"岡山県","prefecture_kana":"オカヤマケン","city":"岡山市中区","city_kana":"オカヤマシナカク","town":"古京町","town_kana":"フルギョウチョウ","prefecture_code":33},"8271":{"zip_code":"7038271","prefecture":"岡山県","prefecture_kana":"オカヤマケン","city":"岡山市中区","city_kana":"オカヤマシナカク","town":"円山","town_kana":"マルヤマ","prefecture_code":33},"8266":{"zip_code":"7038266","prefecture":"岡山県","prefecture_kana":"オカヤマケン","city":"岡山市中区","city_kana":"オカヤマシナカク","town":"湊","town_kana":"ミナト","prefecture_code":33},"8295":{"zip_code":"7038295","prefecture":"岡山県","prefecture_kana":"オカヤマケン","city":"岡山市中区","city_kana":"オカヤマシナカク","town":"御幸町","town_kana":"ミユキチョウ","prefecture_code":33},"8261":{"zip_code":"7038261","prefecture":"岡山県","prefecture_kana":"オカヤマケン","city":"岡山市中区","city_kana":"オカヤマシナカク","town":"海吉","town_kana":"ミヨシ","prefecture_code":33},"8237":{"zip_code":"7038237","prefecture":"岡山県","prefecture_kana":"オカヤマケン","city":"岡山市中区","city_kana":"オカヤマシナカク","town":"森下町","town_kana":"モリシタチョウ","prefecture_code":33},"8254":{"zip_code":"7038254","prefecture":"岡山県","prefecture_kana":"オカヤマケン","city":"岡山市中区","city_kana":"オカヤマシナカク","town":"八幡","town_kana":"ヤハタ","prefecture_code":33},"8253":{"zip_code":"7038253","prefecture":"岡山県","prefecture_kana":"オカヤマケン","city":"岡山市中区","city_kana":"オカヤマシナカク","town":"八幡東町","town_kana":"ヤハタヒガシマチ","prefecture_code":33},"8267":{"zip_code":"7038267","prefecture":"岡山県","prefecture_kana":"オカヤマケン","city":"岡山市中区","city_kana":"オカヤマシナカク","town":"山崎","town_kana":"ヤマサキ","prefecture_code":33},"8202":{"zip_code":"7038202","prefecture":"岡山県","prefecture_kana":"オカヤマケン","city":"岡山市中区","city_kana":"オカヤマシナカク","town":"湯迫","town_kana":"ユバ","prefecture_code":33},"8224":{"zip_code":"7038224","prefecture":"岡山県","prefecture_kana":"オカヤマケン","city":"岡山市中区","city_kana":"オカヤマシナカク","town":"米田","town_kana":"ヨネダ","prefecture_code":33},"8214":{"zip_code":"7038214","prefecture":"岡山県","prefecture_kana":"オカヤマケン","city":"岡山市東区","city_kana":"オカヤマシヒガシク","town":"鉄","town_kana":"クロガネ","prefecture_code":33},"8212":{"zip_code":"7038212","prefecture":"岡山県","prefecture_kana":"オカヤマケン","city":"岡山市東区","city_kana":"オカヤマシヒガシク","town":"古都宿","town_kana":"コズシュク","prefecture_code":33},"8215":{"zip_code":"7038215","prefecture":"岡山県","prefecture_kana":"オカヤマケン","city":"岡山市東区","city_kana":"オカヤマシヒガシク","town":"古都南方","town_kana":"コズミナミガタ","prefecture_code":33},"8216":{"zip_code":"7038216","prefecture":"岡山県","prefecture_kana":"オカヤマケン","city":"岡山市東区","city_kana":"オカヤマシヒガシク","town":"宍甘","town_kana":"シジカイ","prefecture_code":33},"8213":{"zip_code":"7038213","prefecture":"岡山県","prefecture_kana":"オカヤマケン","city":"岡山市東区","city_kana":"オカヤマシヒガシク","town":"藤井","town_kana":"フジイ","prefecture_code":33},"8211":{"zip_code":"7038211","prefecture":"岡山県","prefecture_kana":"オカヤマケン","city":"岡山市東区","city_kana":"オカヤマシヒガシク","town":"矢津","town_kana":"ヤヅ","prefecture_code":33}}