{"0000":{"zip_code":"7050000","prefecture":"岡山県","prefecture_kana":"オカヤマケン","city":"備前市","city_kana":"ビゼンシ","town":"","town_kana":"","prefecture_code":33},"0032":{"zip_code":"7050032","prefecture":"岡山県","prefecture_kana":"オカヤマケン","city":"備前市","city_kana":"ビゼンシ","town":"麻宇那","town_kana":"アソウナ","prefecture_code":33},"0023":{"zip_code":"7050023","prefecture":"岡山県","prefecture_kana":"オカヤマケン","city":"備前市","city_kana":"ビゼンシ","town":"伊里中","town_kana":"イリナカ","prefecture_code":33},"0001":{"zip_code":"7050001","prefecture":"岡山県","prefecture_kana":"オカヤマケン","city":"備前市","city_kana":"ビゼンシ","town":"伊部","town_kana":"インベ","prefecture_code":33},"0002":{"zip_code":"7050002","prefecture":"岡山県","prefecture_kana":"オカヤマケン","city":"備前市","city_kana":"ビゼンシ","town":"浦伊部","town_kana":"ウラインベ","prefecture_code":33},"0003":{"zip_code":"7050003","prefecture":"岡山県","prefecture_kana":"オカヤマケン","city":"備前市","city_kana":"ビゼンシ","town":"大内","town_kana":"オオチ","prefecture_code":33},"0012":{"zip_code":"7050012","prefecture":"岡山県","prefecture_kana":"オカヤマケン","city":"備前市","city_kana":"ビゼンシ","town":"香登本","town_kana":"カガトモト","prefecture_code":33},"0011":{"zip_code":"7050011","prefecture":"岡山県","prefecture_kana":"オカヤマケン","city":"備前市","city_kana":"ビゼンシ","town":"香登西","town_kana":"カガトニシ","prefecture_code":33},"0035":{"zip_code":"7050035","prefecture":"岡山県","prefecture_kana":"オカヤマケン","city":"備前市","city_kana":"ビゼンシ","town":"木谷","town_kana":"キダニ","prefecture_code":33},"0024":{"zip_code":"7050024","prefecture":"岡山県","prefecture_kana":"オカヤマケン","city":"備前市","city_kana":"ビゼンシ","town":"久々井","town_kana":"クグイ","prefecture_code":33},"0016":{"zip_code":"7050016","prefecture":"岡山県","prefecture_kana":"オカヤマケン","city":"備前市","city_kana":"ビゼンシ","town":"坂根","town_kana":"サカネ","prefecture_code":33},"0026":{"zip_code":"7050026","prefecture":"岡山県","prefecture_kana":"オカヤマケン","city":"備前市","city_kana":"ビゼンシ","town":"佐山","town_kana":"サヤマ","prefecture_code":33},"0031":{"zip_code":"7050031","prefecture":"岡山県","prefecture_kana":"オカヤマケン","city":"備前市","city_kana":"ビゼンシ","town":"蕃山","town_kana":"シゲヤマ","prefecture_code":33},"0036":{"zip_code":"7050036","prefecture":"岡山県","prefecture_kana":"オカヤマケン","city":"備前市","city_kana":"ビゼンシ","town":"閑谷","town_kana":"シズタニ","prefecture_code":33},"0014":{"zip_code":"7050014","prefecture":"岡山県","prefecture_kana":"オカヤマケン","city":"備前市","city_kana":"ビゼンシ","town":"新庄","town_kana":"シンジョウ","prefecture_code":33},"0025":{"zip_code":"7050025","prefecture":"岡山県","prefecture_kana":"オカヤマケン","city":"備前市","city_kana":"ビゼンシ","town":"鶴海","town_kana":"ツルミ","prefecture_code":33},"0034":{"zip_code":"7050034","prefecture":"岡山県","prefecture_kana":"オカヤマケン","city":"備前市","city_kana":"ビゼンシ","town":"友延","town_kana":"トモノブ","prefecture_code":33},"0021":{"zip_code":"7050021","prefecture":"岡山県","prefecture_kana":"オカヤマケン","city":"備前市","city_kana":"ビゼンシ","town":"西片上","town_kana":"ニシカタカミ","prefecture_code":33},"0131":{"zip_code":"7050131","prefecture":"岡山県","prefecture_kana":"オカヤマケン","city":"備前市","city_kana":"ビゼンシ","town":"野谷","town_kana":"ノダニ","prefecture_code":33},"0015":{"zip_code":"7050015","prefecture":"岡山県","prefecture_kana":"オカヤマケン","city":"備前市","city_kana":"ビゼンシ","town":"畠田","town_kana":"ハタケダ","prefecture_code":33},"0022":{"zip_code":"7050022","prefecture":"岡山県","prefecture_kana":"オカヤマケン","city":"備前市","city_kana":"ビゼンシ","town":"東片上","town_kana":"ヒガシカタカミ","prefecture_code":33},"0013":{"zip_code":"7050013","prefecture":"岡山県","prefecture_kana":"オカヤマケン","city":"備前市","city_kana":"ビゼンシ","town":"福田","town_kana":"フクダ","prefecture_code":33},"0033":{"zip_code":"7050033","prefecture":"岡山県","prefecture_kana":"オカヤマケン","city":"備前市","city_kana":"ビゼンシ","town":"穂浪","town_kana":"ホナミ","prefecture_code":33},"0132":{"zip_code":"7050132","prefecture":"岡山県","prefecture_kana":"オカヤマケン","city":"備前市","city_kana":"ビゼンシ","town":"三石","town_kana":"ミツイシ","prefecture_code":33},"0133":{"zip_code":"7050133","prefecture":"岡山県","prefecture_kana":"オカヤマケン","city":"備前市","city_kana":"ビゼンシ","town":"八木山","town_kana":"ヤキヤマ","prefecture_code":33}}