{"0000":{"zip_code":"7070000","prefecture":"岡山県","prefecture_kana":"オカヤマケン","city":"美作市","city_kana":"ミマサカシ","town":"","town_kana":"","prefecture_code":33},"0065":{"zip_code":"7070065","prefecture":"岡山県","prefecture_kana":"オカヤマケン","city":"美作市","city_kana":"ミマサカシ","town":"青木","town_kana":"アオキ","prefecture_code":33},"0432":{"zip_code":"7070432","prefecture":"岡山県","prefecture_kana":"オカヤマケン","city":"美作市","city_kana":"ミマサカシ","town":"赤田","town_kana":"アカダ","prefecture_code":33},"0053":{"zip_code":"7070053","prefecture":"岡山県","prefecture_kana":"オカヤマケン","city":"美作市","city_kana":"ミマサカシ","town":"安蘇","town_kana":"アソ","prefecture_code":33},"0437":{"zip_code":"7070437","prefecture":"岡山県","prefecture_kana":"オカヤマケン","city":"美作市","city_kana":"ミマサカシ","town":"粟野","town_kana":"アワノ","prefecture_code":33},"0052":{"zip_code":"7070052","prefecture":"岡山県","prefecture_kana":"オカヤマケン","city":"美作市","city_kana":"ミマサカシ","town":"位田","town_kana":"イデン","prefecture_code":33},"0051":{"zip_code":"7070051","prefecture":"岡山県","prefecture_kana":"オカヤマケン","city":"美作市","city_kana":"ミマサカシ","town":"稲穂","town_kana":"イナホ","prefecture_code":33},"0034":{"zip_code":"7070034","prefecture":"岡山県","prefecture_kana":"オカヤマケン","city":"美作市","city_kana":"ミマサカシ","town":"猪臥","town_kana":"イブシ","prefecture_code":33},"0416":{"zip_code":"7070416","prefecture":"岡山県","prefecture_kana":"オカヤマケン","city":"美作市","city_kana":"ミマサカシ","town":"今岡","town_kana":"イマオカ","prefecture_code":33},"0054":{"zip_code":"7070054","prefecture":"岡山県","prefecture_kana":"オカヤマケン","city":"美作市","city_kana":"ミマサカシ","town":"岩見田","town_kana":"イワミダ","prefecture_code":33},"0401":{"zip_code":"7070401","prefecture":"岡山県","prefecture_kana":"オカヤマケン","city":"美作市","city_kana":"ミマサカシ","town":"後山","town_kana":"ウシロヤマ","prefecture_code":33},"0204":{"zip_code":"7070204","prefecture":"岡山県","prefecture_kana":"オカヤマケン","city":"美作市","city_kana":"ミマサカシ","town":"右手","town_kana":"ウテ","prefecture_code":33},"0411":{"zip_code":"7070411","prefecture":"岡山県","prefecture_kana":"オカヤマケン","city":"美作市","city_kana":"ミマサカシ","town":"江ノ原","town_kana":"エノハラ","prefecture_code":33},"0005":{"zip_code":"7070005","prefecture":"岡山県","prefecture_kana":"オカヤマケン","city":"美作市","city_kana":"ミマサカシ","town":"大井が丘","town_kana":"オオイガオカ","prefecture_code":33},"0404":{"zip_code":"7070404","prefecture":"岡山県","prefecture_kana":"オカヤマケン","city":"美作市","city_kana":"ミマサカシ","town":"太田","town_kana":"オオタ","prefecture_code":33},"0033":{"zip_code":"7070033","prefecture":"岡山県","prefecture_kana":"オカヤマケン","city":"美作市","city_kana":"ミマサカシ","town":"大原","town_kana":"オオバラ","prefecture_code":33},"0124":{"zip_code":"7070124","prefecture":"岡山県","prefecture_kana":"オカヤマケン","city":"美作市","city_kana":"ミマサカシ","town":"大町","town_kana":"オオマチ","prefecture_code":33},"0067":{"zip_code":"7070067","prefecture":"岡山県","prefecture_kana":"オカヤマケン","city":"美作市","city_kana":"ミマサカシ","town":"奥大谷","town_kana":"オクオオタニ","prefecture_code":33},"0132":{"zip_code":"7070132","prefecture":"岡山県","prefecture_kana":"オカヤマケン","city":"美作市","city_kana":"ミマサカシ","town":"小畑","town_kana":"オバタ","prefecture_code":33},"0423":{"zip_code":"7070423","prefecture":"岡山県","prefecture_kana":"オカヤマケン","city":"美作市","city_kana":"ミマサカシ","town":"小原田","town_kana":"オハラダ","prefecture_code":33},"0044":{"zip_code":"7070044","prefecture":"岡山県","prefecture_kana":"オカヤマケン","city":"美作市","city_kana":"ミマサカシ","town":"海田","town_kana":"カイタ","prefecture_code":33},"0201":{"zip_code":"7070201","prefecture":"岡山県","prefecture_kana":"オカヤマケン","city":"美作市","city_kana":"ミマサカシ","town":"梶並","town_kana":"カジナミ","prefecture_code":33},"0426":{"zip_code":"7070426","prefecture":"岡山県","prefecture_kana":"オカヤマケン","city":"美作市","city_kana":"ミマサカシ","town":"桂坪","town_kana":"カツラツボ","prefecture_code":33},"0055":{"zip_code":"7070055","prefecture":"岡山県","prefecture_kana":"オカヤマケン","city":"美作市","city_kana":"ミマサカシ","town":"金原","town_kana":"カナハラ","prefecture_code":33},"0001":{"zip_code":"7070001","prefecture":"岡山県","prefecture_kana":"オカヤマケン","city":"美作市","city_kana":"ミマサカシ","town":"上相","town_kana":"カミヤ","prefecture_code":33},"0421":{"zip_code":"7070421","prefecture":"岡山県","prefecture_kana":"オカヤマケン","city":"美作市","city_kana":"ミマサカシ","town":"川上","town_kana":"カワカミ","prefecture_code":33},"0436":{"zip_code":"7070436","prefecture":"岡山県","prefecture_kana":"オカヤマケン","city":"美作市","city_kana":"ミマサカシ","town":"川戸","town_kana":"カワト","prefecture_code":33},"0407":{"zip_code":"7070407","prefecture":"岡山県","prefecture_kana":"オカヤマケン","city":"美作市","city_kana":"ミマサカシ","town":"川東","town_kana":"カワヒガシ","prefecture_code":33},"0063":{"zip_code":"7070063","prefecture":"岡山県","prefecture_kana":"オカヤマケン","city":"美作市","city_kana":"ミマサカシ","town":"北坂","town_kana":"キタサカ","prefecture_code":33},"0036":{"zip_code":"7070036","prefecture":"岡山県","prefecture_kana":"オカヤマケン","city":"美作市","city_kana":"ミマサカシ","town":"北原","town_kana":"キタバラ","prefecture_code":33},"0014":{"zip_code":"7070014","prefecture":"岡山県","prefecture_kana":"オカヤマケン","city":"美作市","city_kana":"ミマサカシ","town":"北山","town_kana":"キタヤマ","prefecture_code":33},"0111":{"zip_code":"7070111","prefecture":"岡山県","prefecture_kana":"オカヤマケン","city":"美作市","city_kana":"ミマサカシ","town":"久賀","town_kana":"クガ","prefecture_code":33},"0042":{"zip_code":"7070042","prefecture":"岡山県","prefecture_kana":"オカヤマケン","city":"美作市","city_kana":"ミマサカシ","town":"朽木","town_kana":"クツギ","prefecture_code":33},"0202":{"zip_code":"7070202","prefecture":"岡山県","prefecture_kana":"オカヤマケン","city":"美作市","city_kana":"ミマサカシ","town":"楮","town_kana":"コウゾ","prefecture_code":33},"0131":{"zip_code":"7070131","prefecture":"岡山県","prefecture_kana":"オカヤマケン","city":"美作市","city_kana":"ミマサカシ","town":"河内","town_kana":"コウチ","prefecture_code":33},"0045":{"zip_code":"7070045","prefecture":"岡山県","prefecture_kana":"オカヤマケン","city":"美作市","city_kana":"ミマサカシ","town":"巨勢","town_kana":"コセ","prefecture_code":33},"0025":{"zip_code":"7070025","prefecture":"岡山県","prefecture_kana":"オカヤマケン","city":"美作市","city_kana":"ミマサカシ","town":"栄町","town_kana":"サカエマチ","prefecture_code":33},"0422":{"zip_code":"7070422","prefecture":"岡山県","prefecture_kana":"オカヤマケン","city":"美作市","city_kana":"ミマサカシ","town":"笹岡","town_kana":"ササオカ","prefecture_code":33},"0435":{"zip_code":"7070435","prefecture":"岡山県","prefecture_kana":"オカヤマケン","city":"美作市","city_kana":"ミマサカシ","town":"沢田","town_kana":"サワダ","prefecture_code":33},"0066":{"zip_code":"7070066","prefecture":"岡山県","prefecture_kana":"オカヤマケン","city":"美作市","city_kana":"ミマサカシ","town":"下大谷","town_kana":"シモオオタニ","prefecture_code":33},"0016":{"zip_code":"7070016","prefecture":"岡山県","prefecture_kana":"オカヤマケン","city":"美作市","city_kana":"ミマサカシ","town":"下香山","town_kana":"シモカヤマ","prefecture_code":33},"0425":{"zip_code":"7070425","prefecture":"岡山県","prefecture_kana":"オカヤマケン","city":"美作市","city_kana":"ミマサカシ","town":"下庄町","town_kana":"シモショウマチ","prefecture_code":33},"0417":{"zip_code":"7070417","prefecture":"岡山県","prefecture_kana":"オカヤマケン","city":"美作市","city_kana":"ミマサカシ","town":"下町","town_kana":"シモマチ","prefecture_code":33},"0133":{"zip_code":"7070133","prefecture":"岡山県","prefecture_kana":"オカヤマケン","city":"美作市","city_kana":"ミマサカシ","town":"杉原","town_kana":"スギハラ","prefecture_code":33},"0431":{"zip_code":"7070431","prefecture":"岡山県","prefecture_kana":"オカヤマケン","city":"美作市","city_kana":"ミマサカシ","town":"田井","town_kana":"タイ","prefecture_code":33},"0427":{"zip_code":"7070427","prefecture":"岡山県","prefecture_kana":"オカヤマケン","city":"美作市","city_kana":"ミマサカシ","town":"滝","town_kana":"タキ","prefecture_code":33},"0433":{"zip_code":"7070433","prefecture":"岡山県","prefecture_kana":"オカヤマケン","city":"美作市","city_kana":"ミマサカシ","town":"立石","town_kana":"タテイシ","prefecture_code":33},"0012":{"zip_code":"7070012","prefecture":"岡山県","prefecture_kana":"オカヤマケン","city":"美作市","city_kana":"ミマサカシ","town":"田殿","town_kana":"タドノ","prefecture_code":33},"0064":{"zip_code":"7070064","prefecture":"岡山県","prefecture_kana":"オカヤマケン","city":"美作市","city_kana":"ミマサカシ","town":"殿所","town_kana":"トノドコロ","prefecture_code":33},"0037":{"zip_code":"7070037","prefecture":"岡山県","prefecture_kana":"オカヤマケン","city":"美作市","city_kana":"ミマサカシ","town":"友野","town_kana":"トモノ","prefecture_code":33},"0015":{"zip_code":"7070015","prefecture":"岡山県","prefecture_kana":"オカヤマケン","city":"美作市","city_kana":"ミマサカシ","town":"豊国原","town_kana":"トヨクニハラ","prefecture_code":33},"0056":{"zip_code":"7070056","prefecture":"岡山県","prefecture_kana":"オカヤマケン","city":"美作市","city_kana":"ミマサカシ","town":"長内","town_kana":"ナガウチ","prefecture_code":33},"0002":{"zip_code":"7070002","prefecture":"岡山県","prefecture_kana":"オカヤマケン","city":"美作市","city_kana":"ミマサカシ","town":"中尾","town_kana":"ナカオ","prefecture_code":33},"0402":{"zip_code":"7070402","prefecture":"岡山県","prefecture_kana":"オカヤマケン","city":"美作市","city_kana":"ミマサカシ","town":"中谷","town_kana":"ナカダニ","prefecture_code":33},"0413":{"zip_code":"7070413","prefecture":"岡山県","prefecture_kana":"オカヤマケン","city":"美作市","city_kana":"ミマサカシ","town":"中町","town_kana":"ナカマチ","prefecture_code":33},"0061":{"zip_code":"7070061","prefecture":"岡山県","prefecture_kana":"オカヤマケン","city":"美作市","city_kana":"ミマサカシ","town":"中山","town_kana":"ナカヤマ","prefecture_code":33},"0022":{"zip_code":"7070022","prefecture":"岡山県","prefecture_kana":"オカヤマケン","city":"美作市","city_kana":"ミマサカシ","town":"楢原上","town_kana":"ナラハラカミ","prefecture_code":33},"0024":{"zip_code":"7070024","prefecture":"岡山県","prefecture_kana":"オカヤマケン","city":"美作市","city_kana":"ミマサカシ","town":"楢原下","town_kana":"ナラハラシモ","prefecture_code":33},"0021":{"zip_code":"7070021","prefecture":"岡山県","prefecture_kana":"オカヤマケン","city":"美作市","city_kana":"ミマサカシ","town":"楢原中","town_kana":"ナラハラナカ","prefecture_code":33},"0414":{"zip_code":"7070414","prefecture":"岡山県","prefecture_kana":"オカヤマケン","city":"美作市","city_kana":"ミマサカシ","town":"西町","town_kana":"ニシマチ","prefecture_code":33},"0004":{"zip_code":"7070004","prefecture":"岡山県","prefecture_kana":"オカヤマケン","city":"美作市","city_kana":"ミマサカシ","town":"入田","town_kana":"ニュウタ","prefecture_code":33},"0424":{"zip_code":"7070424","prefecture":"岡山県","prefecture_kana":"オカヤマケン","city":"美作市","city_kana":"ミマサカシ","town":"野形","town_kana":"ノガタ","prefecture_code":33},"0405":{"zip_code":"7070405","prefecture":"岡山県","prefecture_kana":"オカヤマケン","city":"美作市","city_kana":"ミマサカシ","town":"野原","town_kana":"ノハラ","prefecture_code":33},"0057":{"zip_code":"7070057","prefecture":"岡山県","prefecture_kana":"オカヤマケン","city":"美作市","city_kana":"ミマサカシ","town":"則平","town_kana":"ノリヒラ","prefecture_code":33},"0121":{"zip_code":"7070121","prefecture":"岡山県","prefecture_kana":"オカヤマケン","city":"美作市","city_kana":"ミマサカシ","town":"長谷内","town_kana":"ハセウチ","prefecture_code":33},"0041":{"zip_code":"7070041","prefecture":"岡山県","prefecture_kana":"オカヤマケン","city":"美作市","city_kana":"ミマサカシ","town":"林野","town_kana":"ハヤシノ","prefecture_code":33},"0403":{"zip_code":"7070403","prefecture":"岡山県","prefecture_kana":"オカヤマケン","city":"美作市","city_kana":"ミマサカシ","town":"東青野","town_kana":"ヒガシアオノ","prefecture_code":33},"0205":{"zip_code":"7070205","prefecture":"岡山県","prefecture_kana":"オカヤマケン","city":"美作市","city_kana":"ミマサカシ","town":"東谷上","town_kana":"ヒガシダニカミ","prefecture_code":33},"0206":{"zip_code":"7070206","prefecture":"岡山県","prefecture_kana":"オカヤマケン","city":"美作市","city_kana":"ミマサカシ","town":"東谷下","town_kana":"ヒガシダニシモ","prefecture_code":33},"0406":{"zip_code":"7070406","prefecture":"岡山県","prefecture_kana":"オカヤマケン","city":"美作市","city_kana":"ミマサカシ","town":"東吉田","town_kana":"ヒガシヨシダ","prefecture_code":33},"0035":{"zip_code":"7070035","prefecture":"岡山県","prefecture_kana":"オカヤマケン","city":"美作市","city_kana":"ミマサカシ","town":"平田","town_kana":"ヒラタ","prefecture_code":33},"0023":{"zip_code":"7070023","prefecture":"岡山県","prefecture_kana":"オカヤマケン","city":"美作市","city_kana":"ミマサカシ","town":"平福","town_kana":"ヒラフク","prefecture_code":33},"0412":{"zip_code":"7070412","prefecture":"岡山県","prefecture_kana":"オカヤマケン","city":"美作市","city_kana":"ミマサカシ","town":"古町","town_kana":"フルマチ","prefecture_code":33},"0122":{"zip_code":"7070122","prefecture":"岡山県","prefecture_kana":"オカヤマケン","city":"美作市","city_kana":"ミマサカシ","town":"馬形","town_kana":"マガタ","prefecture_code":33},"0113":{"zip_code":"7070113","prefecture":"岡山県","prefecture_kana":"オカヤマケン","city":"美作市","city_kana":"ミマサカシ","town":"真加部","town_kana":"マカベ","prefecture_code":33},"0203":{"zip_code":"7070203","prefecture":"岡山県","prefecture_kana":"オカヤマケン","city":"美作市","city_kana":"ミマサカシ","town":"真殿","town_kana":"マトノ","prefecture_code":33},"0043":{"zip_code":"7070043","prefecture":"岡山県","prefecture_kana":"オカヤマケン","city":"美作市","city_kana":"ミマサカシ","town":"海内","town_kana":"ミウチ","prefecture_code":33},"0046":{"zip_code":"7070046","prefecture":"岡山県","prefecture_kana":"オカヤマケン","city":"美作市","city_kana":"ミマサカシ","town":"三倉田","town_kana":"ミクラダ","prefecture_code":33},"0434":{"zip_code":"7070434","prefecture":"岡山県","prefecture_kana":"オカヤマケン","city":"美作市","city_kana":"ミマサカシ","town":"壬生","town_kana":"ミブ","prefecture_code":33},"0415":{"zip_code":"7070415","prefecture":"岡山県","prefecture_kana":"オカヤマケン","city":"美作市","city_kana":"ミマサカシ","town":"宮本","town_kana":"ミヤモト","prefecture_code":33},"0003":{"zip_code":"7070003","prefecture":"岡山県","prefecture_kana":"オカヤマケン","city":"美作市","city_kana":"ミマサカシ","town":"明見","town_kana":"ミョウケン","prefecture_code":33},"0123":{"zip_code":"7070123","prefecture":"岡山県","prefecture_kana":"オカヤマケン","city":"美作市","city_kana":"ミマサカシ","town":"宗掛","town_kana":"ムナカケ","prefecture_code":33},"0134":{"zip_code":"7070134","prefecture":"岡山県","prefecture_kana":"オカヤマケン","city":"美作市","city_kana":"ミマサカシ","town":"矢田","town_kana":"ヤタ","prefecture_code":33},"0031":{"zip_code":"7070031","prefecture":"岡山県","prefecture_kana":"オカヤマケン","city":"美作市","city_kana":"ミマサカシ","town":"山口","town_kana":"ヤマグチ","prefecture_code":33},"0032":{"zip_code":"7070032","prefecture":"岡山県","prefecture_kana":"オカヤマケン","city":"美作市","city_kana":"ミマサカシ","town":"山外野","town_kana":"ヤマトノ","prefecture_code":33},"0062":{"zip_code":"7070062","prefecture":"岡山県","prefecture_kana":"オカヤマケン","city":"美作市","city_kana":"ミマサカシ","town":"湯郷","town_kana":"ユノゴウ","prefecture_code":33},"0013":{"zip_code":"7070013","prefecture":"岡山県","prefecture_kana":"オカヤマケン","city":"美作市","city_kana":"ミマサカシ","town":"吉","town_kana":"ヨシ","prefecture_code":33},"0112":{"zip_code":"7070112","prefecture":"岡山県","prefecture_kana":"オカヤマケン","city":"美作市","city_kana":"ミマサカシ","town":"余野","town_kana":"ヨノ","prefecture_code":33},"0011":{"zip_code":"7070011","prefecture":"岡山県","prefecture_kana":"オカヤマケン","city":"美作市","city_kana":"ミマサカシ","town":"和田","town_kana":"ワダ","prefecture_code":33},"0500":{"zip_code":"7070500","prefecture":"岡山県","prefecture_kana":"オカヤマケン","city":"英田郡西粟倉村","city_kana":"アイダグンニシアワクラソン","town":"","town_kana":"","prefecture_code":33},"0505":{"zip_code":"7070505","prefecture":"岡山県","prefecture_kana":"オカヤマケン","city":"英田郡西粟倉村","city_kana":"アイダグンニシアワクラソン","town":"筏津","town_kana":"イカダツ","prefecture_code":33},"0501":{"zip_code":"7070501","prefecture":"岡山県","prefecture_kana":"オカヤマケン","city":"英田郡西粟倉村","city_kana":"アイダグンニシアワクラソン","town":"大茅","town_kana":"オオガヤ","prefecture_code":33},"0503":{"zip_code":"7070503","prefecture":"岡山県","prefecture_kana":"オカヤマケン","city":"英田郡西粟倉村","city_kana":"アイダグンニシアワクラソン","town":"影石","town_kana":"カゲイシ","prefecture_code":33},"0502":{"zip_code":"7070502","prefecture":"岡山県","prefecture_kana":"オカヤマケン","city":"英田郡西粟倉村","city_kana":"アイダグンニシアワクラソン","town":"坂根","town_kana":"サカネ","prefecture_code":33},"0506":{"zip_code":"7070506","prefecture":"岡山県","prefecture_kana":"オカヤマケン","city":"英田郡西粟倉村","city_kana":"アイダグンニシアワクラソン","town":"知社","town_kana":"チシャ","prefecture_code":33},"0504":{"zip_code":"7070504","prefecture":"岡山県","prefecture_kana":"オカヤマケン","city":"英田郡西粟倉村","city_kana":"アイダグンニシアワクラソン","town":"長尾","town_kana":"ナガオ","prefecture_code":33}}