{"0000":{"zip_code":"7080000","prefecture":"岡山県","prefecture_kana":"オカヤマケン","city":"津山市","city_kana":"ツヤマシ","town":"","town_kana":"","prefecture_code":33},"1104":{"zip_code":"7081104","prefecture":"岡山県","prefecture_kana":"オカヤマケン","city":"津山市","city_kana":"ツヤマシ","town":"綾部","town_kana":"アヤベ","prefecture_code":33},"0852":{"zip_code":"7080852","prefecture":"岡山県","prefecture_kana":"オカヤマケン","city":"津山市","city_kana":"ツヤマシ","town":"池ケ原","town_kana":"イケガハラ","prefecture_code":33},"0815":{"zip_code":"7080815","prefecture":"岡山県","prefecture_kana":"オカヤマケン","city":"津山市","city_kana":"ツヤマシ","town":"一宮","town_kana":"イチノミヤ","prefecture_code":33},"1206":{"zip_code":"7081206","prefecture":"岡山県","prefecture_kana":"オカヤマケン","city":"津山市","city_kana":"ツヤマシ","town":"市場","town_kana":"イチバ","prefecture_code":33},"0883":{"zip_code":"7080883","prefecture":"岡山県","prefecture_kana":"オカヤマケン","city":"津山市","city_kana":"ツヤマシ","town":"一方","town_kana":"イッポウ","prefecture_code":33},"0885":{"zip_code":"7080885","prefecture":"岡山県","prefecture_kana":"オカヤマケン","city":"津山市","city_kana":"ツヤマシ","town":"井口","town_kana":"イノクチ","prefecture_code":33},"0014":{"zip_code":"7080014","prefecture":"岡山県","prefecture_kana":"オカヤマケン","city":"津山市","city_kana":"ツヤマシ","town":"院庄","town_kana":"インノショウ","prefecture_code":33},"0831":{"zip_code":"7080831","prefecture":"岡山県","prefecture_kana":"オカヤマケン","city":"津山市","city_kana":"ツヤマシ","town":"上之町","town_kana":"ウエノチョウ","prefecture_code":33},"0844":{"zip_code":"7080844","prefecture":"岡山県","prefecture_kana":"オカヤマケン","city":"津山市","city_kana":"ツヤマシ","town":"瓜生原","town_kana":"ウリュウバラ","prefecture_code":33},"1202":{"zip_code":"7081202","prefecture":"岡山県","prefecture_kana":"オカヤマケン","city":"津山市","city_kana":"ツヤマシ","town":"大岩","town_kana":"オオイワ","prefecture_code":33},"0802":{"zip_code":"7080802","prefecture":"岡山県","prefecture_kana":"オカヤマケン","city":"津山市","city_kana":"ツヤマシ","town":"大篠","town_kana":"オオササ","prefecture_code":33},"0882":{"zip_code":"7080882","prefecture":"岡山県","prefecture_kana":"オカヤマケン","city":"津山市","city_kana":"ツヤマシ","town":"大谷","town_kana":"オオタニ","prefecture_code":33},"0806":{"zip_code":"7080806","prefecture":"岡山県","prefecture_kana":"オカヤマケン","city":"津山市","city_kana":"ツヤマシ","town":"大田","town_kana":"オオダ","prefecture_code":33},"0023":{"zip_code":"7080023","prefecture":"岡山県","prefecture_kana":"オカヤマケン","city":"津山市","city_kana":"ツヤマシ","town":"大手町","town_kana":"オオテマチ","prefecture_code":33},"1203":{"zip_code":"7081203","prefecture":"岡山県","prefecture_kana":"オカヤマケン","city":"津山市","city_kana":"ツヤマシ","town":"大吉","town_kana":"オオヨシ","prefecture_code":33},"1201":[{"zip_code":"7081201","prefecture":"岡山県","prefecture_kana":"オカヤマケン","city":"津山市","city_kana":"ツヤマシ","town":"奥津川","town_kana":"オクツガワ","prefecture_code":33},{"zip_code":"7081201","prefecture":"岡山県","prefecture_kana":"オカヤマケン","city":"津山市","city_kana":"ツヤマシ","town":"加茂町下津川","town_kana":"カモチョウシモツガワ","prefecture_code":33}],"0066":{"zip_code":"7080066","prefecture":"岡山県","prefecture_kana":"オカヤマケン","city":"津山市","city_kana":"ツヤマシ","town":"桶屋町","town_kana":"オケヤマチ","prefecture_code":33},"0863":{"zip_code":"7080863","prefecture":"岡山県","prefecture_kana":"オカヤマケン","city":"津山市","city_kana":"ツヤマシ","town":"小桁","town_kana":"オゲタ","prefecture_code":33},"1126":{"zip_code":"7081126","prefecture":"岡山県","prefecture_kana":"オカヤマケン","city":"津山市","city_kana":"ツヤマシ","town":"押入","town_kana":"オシイレ","prefecture_code":33},"0865":{"zip_code":"7080865","prefecture":"岡山県","prefecture_kana":"オカヤマケン","city":"津山市","city_kana":"ツヤマシ","town":"押渕","town_kana":"オシブチ","prefecture_code":33},"0006":{"zip_code":"7080006","prefecture":"岡山県","prefecture_kana":"オカヤマケン","city":"津山市","city_kana":"ツヤマシ","town":"小田中","town_kana":"オダナカ","prefecture_code":33},"0001":{"zip_code":"7080001","prefecture":"岡山県","prefecture_kana":"オカヤマケン","city":"津山市","city_kana":"ツヤマシ","town":"小原","town_kana":"オバラ","prefecture_code":33},"0077":{"zip_code":"7080077","prefecture":"岡山県","prefecture_kana":"オカヤマケン","city":"津山市","city_kana":"ツヤマシ","town":"鍛治町","town_kana":"カジマチ","prefecture_code":33},"0804":{"zip_code":"7080804","prefecture":"岡山県","prefecture_kana":"オカヤマケン","city":"津山市","city_kana":"ツヤマシ","town":"勝部","town_kana":"カツベ","prefecture_code":33},"0835":{"zip_code":"7080835","prefecture":"岡山県","prefecture_kana":"オカヤマケン","city":"津山市","city_kana":"ツヤマシ","town":"勝間田町","town_kana":"カツマダマチ","prefecture_code":33},"0855":{"zip_code":"7080855","prefecture":"岡山県","prefecture_kana":"オカヤマケン","city":"津山市","city_kana":"ツヤマシ","town":"金井","town_kana":"カナイ","prefecture_code":33},"0864":{"zip_code":"7080864","prefecture":"岡山県","prefecture_kana":"オカヤマケン","city":"津山市","city_kana":"ツヤマシ","town":"金屋","town_kana":"カナヤ","prefecture_code":33},"0002":{"zip_code":"7080002","prefecture":"岡山県","prefecture_kana":"オカヤマケン","city":"津山市","city_kana":"ツヤマシ","town":"上河原","town_kana":"カミガワラ","prefecture_code":33},"0076":{"zip_code":"7080076","prefecture":"岡山県","prefecture_kana":"オカヤマケン","city":"津山市","city_kana":"ツヤマシ","town":"上紺屋町","town_kana":"カミコウヤマチ","prefecture_code":33},"1121":{"zip_code":"7081121","prefecture":"岡山県","prefecture_kana":"オカヤマケン","city":"津山市","city_kana":"ツヤマシ","town":"上高倉","town_kana":"カミタカクラ","prefecture_code":33},"0011":{"zip_code":"7080011","prefecture":"岡山県","prefecture_kana":"オカヤマケン","city":"津山市","city_kana":"ツヤマシ","town":"上田邑","town_kana":"カミタノムラ","prefecture_code":33},"1214":{"zip_code":"7081214","prefecture":"岡山県","prefecture_kana":"オカヤマケン","city":"津山市","city_kana":"ツヤマシ","town":"上野田","town_kana":"カミノダ","prefecture_code":33},"1224":{"zip_code":"7081224","prefecture":"岡山県","prefecture_kana":"オカヤマケン","city":"津山市","city_kana":"ツヤマシ","town":"上村","town_kana":"カミムラ","prefecture_code":33},"0801":{"zip_code":"7080801","prefecture":"岡山県","prefecture_kana":"オカヤマケン","city":"津山市","city_kana":"ツヤマシ","town":"上横野","town_kana":"カミヨコノ","prefecture_code":33},"0043":{"zip_code":"7080043","prefecture":"岡山県","prefecture_kana":"オカヤマケン","city":"津山市","city_kana":"ツヤマシ","town":"茅町","town_kana":"カヤマチ","prefecture_code":33},"0841":{"zip_code":"7080841","prefecture":"岡山県","prefecture_kana":"オカヤマケン","city":"津山市","city_kana":"ツヤマシ","town":"川崎","town_kana":"カワサキ","prefecture_code":33},"0842":{"zip_code":"7080842","prefecture":"岡山県","prefecture_kana":"オカヤマケン","city":"津山市","city_kana":"ツヤマシ","town":"河辺","town_kana":"カワナベ","prefecture_code":33},"0033":{"zip_code":"7080033","prefecture":"岡山県","prefecture_kana":"オカヤマケン","city":"津山市","city_kana":"ツヤマシ","town":"河原町","town_kana":"カワラマチ","prefecture_code":33},"0003":{"zip_code":"7080003","prefecture":"岡山県","prefecture_kana":"オカヤマケン","city":"津山市","city_kana":"ツヤマシ","town":"北園町","town_kana":"キタゾノチョウ","prefecture_code":33},"0021":{"zip_code":"7080021","prefecture":"岡山県","prefecture_kana":"オカヤマケン","city":"津山市","city_kana":"ツヤマシ","town":"北町","town_kana":"キタマチ","prefecture_code":33},"0062":{"zip_code":"7080062","prefecture":"岡山県","prefecture_kana":"オカヤマケン","city":"津山市","city_kana":"ツヤマシ","town":"京町","town_kana":"キョウマチ","prefecture_code":33},"1117":{"zip_code":"7081117","prefecture":"岡山県","prefecture_kana":"オカヤマケン","city":"津山市","city_kana":"ツヤマシ","town":"草加部","town_kana":"クサカベ","prefecture_code":33},"0866":{"zip_code":"7080866","prefecture":"岡山県","prefecture_kana":"オカヤマケン","city":"津山市","city_kana":"ツヤマシ","town":"荒神山","town_kana":"コウジンヤマ","prefecture_code":33},"1115":{"zip_code":"7081115","prefecture":"岡山県","prefecture_kana":"オカヤマケン","city":"津山市","city_kana":"ツヤマシ","town":"河面","town_kana":"コウモ","prefecture_code":33},"0843":{"zip_code":"7080843","prefecture":"岡山県","prefecture_kana":"オカヤマケン","city":"津山市","city_kana":"ツヤマシ","town":"国分寺","town_kana":"コクブンジ","prefecture_code":33},"0063":{"zip_code":"7080063","prefecture":"岡山県","prefecture_kana":"オカヤマケン","city":"津山市","city_kana":"ツヤマシ","town":"小性町","town_kana":"コショウマチ","prefecture_code":33},"0053":{"zip_code":"7080053","prefecture":"岡山県","prefecture_kana":"オカヤマケン","city":"津山市","city_kana":"ツヤマシ","town":"細工町","town_kana":"サイクノチョウ","prefecture_code":33},"0031":{"zip_code":"7080031","prefecture":"岡山県","prefecture_kana":"オカヤマケン","city":"津山市","city_kana":"ツヤマシ","town":"材木町","town_kana":"ザイモクマチ","prefecture_code":33},"0064":{"zip_code":"7080064","prefecture":"岡山県","prefecture_kana":"オカヤマケン","city":"津山市","city_kana":"ツヤマシ","town":"堺町","town_kana":"サカイマチ","prefecture_code":33},"1223":{"zip_code":"7081223","prefecture":"岡山県","prefecture_kana":"オカヤマケン","city":"津山市","city_kana":"ツヤマシ","town":"坂上","town_kana":"サカウエ","prefecture_code":33},"0873":{"zip_code":"7080873","prefecture":"岡山県","prefecture_kana":"オカヤマケン","city":"津山市","city_kana":"ツヤマシ","town":"皿","town_kana":"サラ","prefecture_code":33},"0022":{"zip_code":"7080022","prefecture":"岡山県","prefecture_kana":"オカヤマケン","city":"津山市","city_kana":"ツヤマシ","town":"山下","town_kana":"サンゲ","prefecture_code":33},"0825":{"zip_code":"7080825","prefecture":"岡山県","prefecture_kana":"オカヤマケン","city":"津山市","city_kana":"ツヤマシ","town":"志戸部","town_kana":"シトベ","prefecture_code":33},"0805":{"zip_code":"7080805","prefecture":"岡山県","prefecture_kana":"オカヤマケン","city":"津山市","city_kana":"ツヤマシ","town":"紫保井","town_kana":"シボイ","prefecture_code":33},"0071":{"zip_code":"7080071","prefecture":"岡山県","prefecture_kana":"オカヤマケン","city":"津山市","city_kana":"ツヤマシ","town":"下紺屋町","town_kana":"シモコウヤマチ","prefecture_code":33},"1122":{"zip_code":"7081122","prefecture":"岡山県","prefecture_kana":"オカヤマケン","city":"津山市","city_kana":"ツヤマシ","town":"下高倉東","town_kana":"シモタカクラヒガシ","prefecture_code":33},"1123":{"zip_code":"7081123","prefecture":"岡山県","prefecture_kana":"オカヤマケン","city":"津山市","city_kana":"ツヤマシ","town":"下高倉西","town_kana":"シモタカクラニシ","prefecture_code":33},"0012":{"zip_code":"7080012","prefecture":"岡山県","prefecture_kana":"オカヤマケン","city":"津山市","city_kana":"ツヤマシ","town":"下田邑","town_kana":"シモタノムラ","prefecture_code":33},"1213":{"zip_code":"7081213","prefecture":"岡山県","prefecture_kana":"オカヤマケン","city":"津山市","city_kana":"ツヤマシ","town":"下野田","town_kana":"シモノダ","prefecture_code":33},"0807":{"zip_code":"7080807","prefecture":"岡山県","prefecture_kana":"オカヤマケン","city":"津山市","city_kana":"ツヤマシ","town":"下横野","town_kana":"シモヨコノ","prefecture_code":33},"0005":{"zip_code":"7080005","prefecture":"岡山県","prefecture_kana":"オカヤマケン","city":"津山市","city_kana":"ツヤマシ","town":"城代町","town_kana":"ジョウダイマチ","prefecture_code":33},"0886":{"zip_code":"7080886","prefecture":"岡山県","prefecture_kana":"オカヤマケン","city":"津山市","city_kana":"ツヤマシ","town":"昭和町","town_kana":"ショウワマチ","prefecture_code":33},"0065":{"zip_code":"7080065","prefecture":"岡山県","prefecture_kana":"オカヤマケン","city":"津山市","city_kana":"ツヤマシ","town":"新魚町","town_kana":"シンウオマチ","prefecture_code":33},"0042":{"zip_code":"7080042","prefecture":"岡山県","prefecture_kana":"オカヤマケン","city":"津山市","city_kana":"ツヤマシ","town":"新茅町","town_kana":"シンカヤマチ","prefecture_code":33},"0015":{"zip_code":"7080015","prefecture":"岡山県","prefecture_kana":"オカヤマケン","city":"津山市","city_kana":"ツヤマシ","town":"神戸","town_kana":"ジンゴ","prefecture_code":33},"0067":{"zip_code":"7080067","prefecture":"岡山県","prefecture_kana":"オカヤマケン","city":"津山市","city_kana":"ツヤマシ","town":"新職人町","town_kana":"シンショクニンマチ","prefecture_code":33},"1215":{"zip_code":"7081215","prefecture":"岡山県","prefecture_kana":"オカヤマケン","city":"津山市","city_kana":"ツヤマシ","town":"杉宮","town_kana":"スギノミヤ","prefecture_code":33},"0034":{"zip_code":"7080034","prefecture":"岡山県","prefecture_kana":"オカヤマケン","city":"津山市","city_kana":"ツヤマシ","town":"船頭町","town_kana":"センドウマチ","prefecture_code":33},"0007":{"zip_code":"7080007","prefecture":"岡山県","prefecture_kana":"オカヤマケン","city":"津山市","city_kana":"ツヤマシ","town":"総社","town_kana":"ソウジャ","prefecture_code":33},"0876":{"zip_code":"7080876","prefecture":"岡山県","prefecture_kana":"オカヤマケン","city":"津山市","city_kana":"ツヤマシ","town":"高尾","town_kana":"タカオ","prefecture_code":33},"1125":{"zip_code":"7081125","prefecture":"岡山県","prefecture_kana":"オカヤマケン","city":"津山市","city_kana":"ツヤマシ","town":"高野本郷","town_kana":"タカノホンゴウ","prefecture_code":33},"1124":{"zip_code":"7081124","prefecture":"岡山県","prefecture_kana":"オカヤマケン","city":"津山市","city_kana":"ツヤマシ","town":"高野山西","town_kana":"タカノヤマニシ","prefecture_code":33},"0874":{"zip_code":"7080874","prefecture":"岡山県","prefecture_kana":"オカヤマケン","city":"津山市","city_kana":"ツヤマシ","town":"種","town_kana":"タネ","prefecture_code":33},"1113":{"zip_code":"7081113","prefecture":"岡山県","prefecture_kana":"オカヤマケン","city":"津山市","city_kana":"ツヤマシ","town":"田熊","town_kana":"タノクマ","prefecture_code":33},"0052":{"zip_code":"7080052","prefecture":"岡山県","prefecture_kana":"オカヤマケン","city":"津山市","city_kana":"ツヤマシ","town":"田町","town_kana":"タマチ","prefecture_code":33},"1112":{"zip_code":"7081112","prefecture":"岡山県","prefecture_kana":"オカヤマケン","city":"津山市","city_kana":"ツヤマシ","town":"近長","town_kana":"チカナガ","prefecture_code":33},"0051":{"zip_code":"7080051","prefecture":"岡山県","prefecture_kana":"オカヤマケン","city":"津山市","city_kana":"ツヤマシ","town":"椿高下","town_kana":"ツバキコウゲ","prefecture_code":33},"0075":{"zip_code":"7080075","prefecture":"岡山県","prefecture_kana":"オカヤマケン","city":"津山市","city_kana":"ツヤマシ","town":"坪井町","town_kana":"ツボイマチ","prefecture_code":33},"0884":{"zip_code":"7080884","prefecture":"岡山県","prefecture_kana":"オカヤマケン","city":"津山市","city_kana":"ツヤマシ","town":"津山口","town_kana":"ツヤマグチ","prefecture_code":33},"0041":{"zip_code":"7080041","prefecture":"岡山県","prefecture_kana":"オカヤマケン","city":"津山市","city_kana":"ツヤマシ","town":"鉄砲町","town_kana":"テッポウマチ","prefecture_code":33},"0853":{"zip_code":"7080853","prefecture":"岡山県","prefecture_kana":"オカヤマケン","city":"津山市","city_kana":"ツヤマシ","town":"堂尾","town_kana":"ドウノオ","prefecture_code":33},"0037":{"zip_code":"7080037","prefecture":"岡山県","prefecture_kana":"オカヤマケン","city":"津山市","city_kana":"ツヤマシ","town":"戸川町","town_kana":"トガワマチ","prefecture_code":33},"0016":{"zip_code":"7080016","prefecture":"岡山県","prefecture_kana":"オカヤマケン","city":"津山市","city_kana":"ツヤマシ","town":"戸島","town_kana":"トシマ","prefecture_code":33},"0871":{"zip_code":"7080871","prefecture":"岡山県","prefecture_kana":"オカヤマケン","city":"津山市","city_kana":"ツヤマシ","town":"中島","town_kana":"ナカシマ","prefecture_code":33},"0834":{"zip_code":"7080834","prefecture":"岡山県","prefecture_kana":"オカヤマケン","city":"津山市","city_kana":"ツヤマシ","town":"中之町","town_kana":"ナカノチョウ","prefecture_code":33},"0854":{"zip_code":"7080854","prefecture":"岡山県","prefecture_kana":"オカヤマケン","city":"津山市","city_kana":"ツヤマシ","town":"中原","town_kana":"ナカバラ","prefecture_code":33},"1216":{"zip_code":"7081216","prefecture":"岡山県","prefecture_kana":"オカヤマケン","city":"津山市","city_kana":"ツヤマシ","town":"中村","town_kana":"ナカムラ","prefecture_code":33},"1111":{"zip_code":"7081111","prefecture":"岡山県","prefecture_kana":"オカヤマケン","city":"津山市","city_kana":"ツヤマシ","town":"楢","town_kana":"ナラ","prefecture_code":33},"0851":{"zip_code":"7080851","prefecture":"岡山県","prefecture_kana":"オカヤマケン","city":"津山市","city_kana":"ツヤマシ","town":"新田","town_kana":"ニイダ","prefecture_code":33},"1205":{"zip_code":"7081205","prefecture":"岡山県","prefecture_kana":"オカヤマケン","city":"津山市","city_kana":"ツヤマシ","town":"新野東","town_kana":"ニイノヒガシ","prefecture_code":33},"1226":{"zip_code":"7081226","prefecture":"岡山県","prefecture_kana":"オカヤマケン","city":"津山市","city_kana":"ツヤマシ","town":"新野山形","town_kana":"ニイノヤマガタ","prefecture_code":33},"0024":{"zip_code":"7080024","prefecture":"岡山県","prefecture_kana":"オカヤマケン","city":"津山市","city_kana":"ツヤマシ","town":"二階町","town_kana":"ニカイマチ","prefecture_code":33},"0046":{"zip_code":"7080046","prefecture":"岡山県","prefecture_kana":"オカヤマケン","city":"津山市","city_kana":"ツヤマシ","town":"西今町","town_kana":"ニシイママチ","prefecture_code":33},"1221":{"zip_code":"7081221","prefecture":"岡山県","prefecture_kana":"オカヤマケン","city":"津山市","city_kana":"ツヤマシ","town":"西上","town_kana":"ニシカミ","prefecture_code":33},"1225":{"zip_code":"7081225","prefecture":"岡山県","prefecture_kana":"オカヤマケン","city":"津山市","city_kana":"ツヤマシ","town":"西下","town_kana":"ニシシモ","prefecture_code":33},"0833":{"zip_code":"7080833","prefecture":"岡山県","prefecture_kana":"オカヤマケン","city":"津山市","city_kana":"ツヤマシ","town":"西新町","town_kana":"ニシシンマチ","prefecture_code":33},"0811":{"zip_code":"7080811","prefecture":"岡山県","prefecture_kana":"オカヤマケン","city":"津山市","city_kana":"ツヤマシ","town":"西田辺","town_kana":"ニシタナベ","prefecture_code":33},"0045":{"zip_code":"7080045","prefecture":"岡山県","prefecture_kana":"オカヤマケン","city":"津山市","city_kana":"ツヤマシ","town":"西寺町","town_kana":"ニシテラマチ","prefecture_code":33},"1222":{"zip_code":"7081222","prefecture":"岡山県","prefecture_kana":"オカヤマケン","city":"津山市","city_kana":"ツヤマシ","town":"西中","town_kana":"ニシナカ","prefecture_code":33},"0856":{"zip_code":"7080856","prefecture":"岡山県","prefecture_kana":"オカヤマケン","city":"津山市","city_kana":"ツヤマシ","town":"西吉田","town_kana":"ニシヨシダ","prefecture_code":33},"0013":{"zip_code":"7080013","prefecture":"岡山県","prefecture_kana":"オカヤマケン","city":"津山市","city_kana":"ツヤマシ","town":"二宮","town_kana":"ニノミヤ","prefecture_code":33},"1204":{"zip_code":"7081204","prefecture":"岡山県","prefecture_kana":"オカヤマケン","city":"津山市","city_kana":"ツヤマシ","town":"日本原","town_kana":"ニホンバラ","prefecture_code":33},"0824":{"zip_code":"7080824","prefecture":"岡山県","prefecture_kana":"オカヤマケン","city":"津山市","city_kana":"ツヤマシ","town":"沼","town_kana":"ヌマ","prefecture_code":33},"0821":{"zip_code":"7080821","prefecture":"岡山県","prefecture_kana":"オカヤマケン","city":"津山市","city_kana":"ツヤマシ","town":"野介代","town_kana":"ノケダ","prefecture_code":33},"1116":{"zip_code":"7081116","prefecture":"岡山県","prefecture_kana":"オカヤマケン","city":"津山市","city_kana":"ツヤマシ","town":"野村","town_kana":"ノムラ","prefecture_code":33},"0822":{"zip_code":"7080822","prefecture":"岡山県","prefecture_kana":"オカヤマケン","city":"津山市","city_kana":"ツヤマシ","town":"林田","town_kana":"ハイダ","prefecture_code":33},"0836":{"zip_code":"7080836","prefecture":"岡山県","prefecture_kana":"オカヤマケン","city":"津山市","city_kana":"ツヤマシ","town":"林田町","town_kana":"ハイダマチ","prefecture_code":33},"0837":{"zip_code":"7080837","prefecture":"岡山県","prefecture_kana":"オカヤマケン","city":"津山市","city_kana":"ツヤマシ","town":"橋本町","town_kana":"ハシモトマチ","prefecture_code":33},"1211":{"zip_code":"7081211","prefecture":"岡山県","prefecture_kana":"オカヤマケン","city":"津山市","city_kana":"ツヤマシ","town":"原","town_kana":"ハラ","prefecture_code":33},"0845":{"zip_code":"7080845","prefecture":"岡山県","prefecture_kana":"オカヤマケン","city":"津山市","city_kana":"ツヤマシ","town":"日上","town_kana":"ヒカミ","prefecture_code":33},"0814":{"zip_code":"7080814","prefecture":"岡山県","prefecture_kana":"オカヤマケン","city":"津山市","city_kana":"ツヤマシ","town":"東一宮","town_kana":"ヒガシイチノミヤ","prefecture_code":33},"0832":{"zip_code":"7080832","prefecture":"岡山県","prefecture_kana":"オカヤマケン","city":"津山市","city_kana":"ツヤマシ","town":"東新町","town_kana":"ヒガシシンマチ","prefecture_code":33},"0812":{"zip_code":"7080812","prefecture":"岡山県","prefecture_kana":"オカヤマケン","city":"津山市","city_kana":"ツヤマシ","town":"東田辺","town_kana":"ヒガシタナベ","prefecture_code":33},"0872":{"zip_code":"7080872","prefecture":"岡山県","prefecture_kana":"オカヤマケン","city":"津山市","city_kana":"ツヤマシ","town":"平福","town_kana":"ヒラフク","prefecture_code":33},"0035":{"zip_code":"7080035","prefecture":"岡山県","prefecture_kana":"オカヤマケン","city":"津山市","city_kana":"ツヤマシ","town":"吹屋町","town_kana":"フキヤマチ","prefecture_code":33},"1114":{"zip_code":"7081114","prefecture":"岡山県","prefecture_kana":"オカヤマケン","city":"津山市","city_kana":"ツヤマシ","town":"福井","town_kana":"フクイ","prefecture_code":33},"0875":{"zip_code":"7080875","prefecture":"岡山県","prefecture_kana":"オカヤマケン","city":"津山市","city_kana":"ツヤマシ","town":"福田","town_kana":"フクダ","prefecture_code":33},"0857":{"zip_code":"7080857","prefecture":"岡山県","prefecture_kana":"オカヤマケン","city":"津山市","city_kana":"ツヤマシ","town":"福力","town_kana":"フクリキ","prefecture_code":33},"0074":{"zip_code":"7080074","prefecture":"岡山県","prefecture_kana":"オカヤマケン","city":"津山市","city_kana":"ツヤマシ","town":"福渡町","town_kana":"フクワタリマチ","prefecture_code":33},"0032":{"zip_code":"7080032","prefecture":"岡山県","prefecture_kana":"オカヤマケン","city":"津山市","city_kana":"ツヤマシ","town":"伏見町","town_kana":"フシミチョウ","prefecture_code":33},"1103":{"zip_code":"7081103","prefecture":"岡山県","prefecture_kana":"オカヤマケン","city":"津山市","city_kana":"ツヤマシ","town":"堀坂","town_kana":"ホリサカ","prefecture_code":33},"0073":{"zip_code":"7080073","prefecture":"岡山県","prefecture_kana":"オカヤマケン","city":"津山市","city_kana":"ツヤマシ","town":"本町","town_kana":"ホンマチ","prefecture_code":33},"1101":{"zip_code":"7081101","prefecture":"岡山県","prefecture_kana":"オカヤマケン","city":"津山市","city_kana":"ツヤマシ","town":"三浦","town_kana":"ミウラ","prefecture_code":33},"0036":{"zip_code":"7080036","prefecture":"岡山県","prefecture_kana":"オカヤマケン","city":"津山市","city_kana":"ツヤマシ","town":"南新座","town_kana":"ミナミシンザ","prefecture_code":33},"0881":{"zip_code":"7080881","prefecture":"岡山県","prefecture_kana":"オカヤマケン","city":"津山市","city_kana":"ツヤマシ","town":"南町","town_kana":"ミナミマチ","prefecture_code":33},"0072":{"zip_code":"7080072","prefecture":"岡山県","prefecture_kana":"オカヤマケン","city":"津山市","city_kana":"ツヤマシ","town":"美濃町","town_kana":"ミノマチ","prefecture_code":33},"0047":{"zip_code":"7080047","prefecture":"岡山県","prefecture_kana":"オカヤマケン","city":"津山市","city_kana":"ツヤマシ","town":"宮脇町","town_kana":"ミヤワキチョウ","prefecture_code":33},"1102":{"zip_code":"7081102","prefecture":"岡山県","prefecture_kana":"オカヤマケン","city":"津山市","city_kana":"ツヤマシ","town":"妙原","town_kana":"ミョウバラ","prefecture_code":33},"0061":{"zip_code":"7080061","prefecture":"岡山県","prefecture_kana":"オカヤマケン","city":"津山市","city_kana":"ツヤマシ","town":"元魚町","town_kana":"モトウオマチ","prefecture_code":33},"0803":{"zip_code":"7080803","prefecture":"岡山県","prefecture_kana":"オカヤマケン","city":"津山市","city_kana":"ツヤマシ","town":"籾保","town_kana":"モミホ","prefecture_code":33},"0861":{"zip_code":"7080861","prefecture":"岡山県","prefecture_kana":"オカヤマケン","city":"津山市","city_kana":"ツヤマシ","town":"八出","town_kana":"ヤイデ","prefecture_code":33},"1212":{"zip_code":"7081212","prefecture":"岡山県","prefecture_kana":"オカヤマケン","city":"津山市","city_kana":"ツヤマシ","town":"安井","town_kana":"ヤスイ","prefecture_code":33},"0044":{"zip_code":"7080044","prefecture":"岡山県","prefecture_kana":"オカヤマケン","city":"津山市","city_kana":"ツヤマシ","town":"安岡町","town_kana":"ヤスオカマチ","prefecture_code":33},"0813":{"zip_code":"7080813","prefecture":"岡山県","prefecture_kana":"オカヤマケン","city":"津山市","city_kana":"ツヤマシ","town":"山方","town_kana":"ヤマガタ","prefecture_code":33},"0004":{"zip_code":"7080004","prefecture":"岡山県","prefecture_kana":"オカヤマケン","city":"津山市","city_kana":"ツヤマシ","town":"山北","town_kana":"ヤマキタ","prefecture_code":33},"0823":{"zip_code":"7080823","prefecture":"岡山県","prefecture_kana":"オカヤマケン","city":"津山市","city_kana":"ツヤマシ","town":"弥生町","town_kana":"ヤヨイチョウ","prefecture_code":33},"0862":{"zip_code":"7080862","prefecture":"岡山県","prefecture_kana":"オカヤマケン","city":"津山市","city_kana":"ツヤマシ","town":"横山","town_kana":"ヨコヤマ","prefecture_code":33},"1105":{"zip_code":"7081105","prefecture":"岡山県","prefecture_kana":"オカヤマケン","city":"津山市","city_kana":"ツヤマシ","town":"吉見","town_kana":"ヨシミ","prefecture_code":33},"0300":{"zip_code":"7080300","prefecture":"岡山県","prefecture_kana":"オカヤマケン","city":"苫田郡鏡野町","city_kana":"トマタグンカガミノチョウ","town":"","town_kana":"","prefecture_code":33},"0421":{"zip_code":"7080421","prefecture":"岡山県","prefecture_kana":"オカヤマケン","city":"苫田郡鏡野町","city_kana":"トマタグンカガミノチョウ","town":"井坂","town_kana":"イザカ","prefecture_code":33},"0315":{"zip_code":"7080315","prefecture":"岡山県","prefecture_kana":"オカヤマケン","city":"苫田郡鏡野町","city_kana":"トマタグンカガミノチョウ","town":"市場","town_kana":"イチバ","prefecture_code":33},"0351":{"zip_code":"7080351","prefecture":"岡山県","prefecture_kana":"オカヤマケン","city":"苫田郡鏡野町","city_kana":"トマタグンカガミノチョウ","town":"入","town_kana":"イリ","prefecture_code":33},"0302":{"zip_code":"7080302","prefecture":"岡山県","prefecture_kana":"オカヤマケン","city":"苫田郡鏡野町","city_kana":"トマタグンカガミノチョウ","town":"岩屋","town_kana":"イワヤ","prefecture_code":33},"0321":{"zip_code":"7080321","prefecture":"岡山県","prefecture_kana":"オカヤマケン","city":"苫田郡鏡野町","city_kana":"トマタグンカガミノチョウ","town":"円宗寺","town_kana":"エンジュウジ","prefecture_code":33},"0704":{"zip_code":"7080704","prefecture":"岡山県","prefecture_kana":"オカヤマケン","city":"苫田郡鏡野町","city_kana":"トマタグンカガミノチョウ","town":"大","town_kana":"オオ","prefecture_code":33},"0303":{"zip_code":"7080303","prefecture":"岡山県","prefecture_kana":"オカヤマケン","city":"苫田郡鏡野町","city_kana":"トマタグンカガミノチョウ","town":"大町","town_kana":"オオマチ","prefecture_code":33},"0322":{"zip_code":"7080322","prefecture":"岡山県","prefecture_kana":"オカヤマケン","city":"苫田郡鏡野町","city_kana":"トマタグンカガミノチョウ","town":"沖","town_kana":"オキ","prefecture_code":33},"0503":{"zip_code":"7080503","prefecture":"岡山県","prefecture_kana":"オカヤマケン","city":"苫田郡鏡野町","city_kana":"トマタグンカガミノチョウ","town":"奥津","town_kana":"オクツ","prefecture_code":33},"0504":{"zip_code":"7080504","prefecture":"岡山県","prefecture_kana":"オカヤマケン","city":"苫田郡鏡野町","city_kana":"トマタグンカガミノチョウ","town":"奥津川西","town_kana":"オクツカワニシ","prefecture_code":33},"0363":{"zip_code":"7080363","prefecture":"岡山県","prefecture_kana":"オカヤマケン","city":"苫田郡鏡野町","city_kana":"トマタグンカガミノチョウ","town":"小座","town_kana":"オザ","prefecture_code":33},"0423":{"zip_code":"7080423","prefecture":"岡山県","prefecture_kana":"オカヤマケン","city":"苫田郡鏡野町","city_kana":"トマタグンカガミノチョウ","town":"女原","town_kana":"オナバラ","prefecture_code":33},"0312":{"zip_code":"7080312","prefecture":"岡山県","prefecture_kana":"オカヤマケン","city":"苫田郡鏡野町","city_kana":"トマタグンカガミノチョウ","town":"香々美","town_kana":"カガミ","prefecture_code":33},"0601":{"zip_code":"7080601","prefecture":"岡山県","prefecture_kana":"オカヤマケン","city":"苫田郡鏡野町","city_kana":"トマタグンカガミノチョウ","town":"上齋原","town_kana":"カミサイバラ","prefecture_code":33},"0361":{"zip_code":"7080361","prefecture":"岡山県","prefecture_kana":"オカヤマケン","city":"苫田郡鏡野町","city_kana":"トマタグンカガミノチョウ","town":"上森原","town_kana":"カミモリバラ","prefecture_code":33},"0705":{"zip_code":"7080705","prefecture":"岡山県","prefecture_kana":"オカヤマケン","city":"苫田郡鏡野町","city_kana":"トマタグンカガミノチョウ","town":"楠","town_kana":"クス","prefecture_code":33},"0432":{"zip_code":"7080432","prefecture":"岡山県","prefecture_kana":"オカヤマケン","city":"苫田郡鏡野町","city_kana":"トマタグンカガミノチョウ","town":"久田上原","town_kana":"クタカミノハラ","prefecture_code":33},"0433":{"zip_code":"7080433","prefecture":"岡山県","prefecture_kana":"オカヤマケン","city":"苫田郡鏡野町","city_kana":"トマタグンカガミノチョウ","town":"久田下原","town_kana":"クタシモノハラ","prefecture_code":33},"0313":{"zip_code":"7080313","prefecture":"岡山県","prefecture_kana":"オカヤマケン","city":"苫田郡鏡野町","city_kana":"トマタグンカガミノチョウ","town":"公保田","town_kana":"クホウデン","prefecture_code":33},"0435":{"zip_code":"7080435","prefecture":"岡山県","prefecture_kana":"オカヤマケン","city":"苫田郡鏡野町","city_kana":"トマタグンカガミノチョウ","town":"黒木","town_kana":"クロギ","prefecture_code":33},"0431":{"zip_code":"7080431","prefecture":"岡山県","prefecture_kana":"オカヤマケン","city":"苫田郡鏡野町","city_kana":"トマタグンカガミノチョウ","town":"河内","town_kana":"コウチ","prefecture_code":33},"0343":{"zip_code":"7080343","prefecture":"岡山県","prefecture_kana":"オカヤマケン","city":"苫田郡鏡野町","city_kana":"トマタグンカガミノチョウ","town":"河本","town_kana":"コウモト","prefecture_code":33},"0301":{"zip_code":"7080301","prefecture":"岡山県","prefecture_kana":"オカヤマケン","city":"苫田郡鏡野町","city_kana":"トマタグンカガミノチョウ","town":"越畑","town_kana":"コシワタ","prefecture_code":33},"0304":{"zip_code":"7080304","prefecture":"岡山県","prefecture_kana":"オカヤマケン","city":"苫田郡鏡野町","city_kana":"トマタグンカガミノチョウ","town":"真経","town_kana":"サネツネ","prefecture_code":33},"0314":{"zip_code":"7080314","prefecture":"岡山県","prefecture_kana":"オカヤマケン","city":"苫田郡鏡野町","city_kana":"トマタグンカガミノチョウ","town":"沢田","town_kana":"サワタ","prefecture_code":33},"0427":{"zip_code":"7080427","prefecture":"岡山県","prefecture_kana":"オカヤマケン","city":"苫田郡鏡野町","city_kana":"トマタグンカガミノチョウ","town":"至孝農","town_kana":"シコウノ","prefecture_code":33},"0501":{"zip_code":"7080501","prefecture":"岡山県","prefecture_kana":"オカヤマケン","city":"苫田郡鏡野町","city_kana":"トマタグンカガミノチョウ","town":"下斎原","town_kana":"シモサイバラ","prefecture_code":33},"0341":{"zip_code":"7080341","prefecture":"岡山県","prefecture_kana":"オカヤマケン","city":"苫田郡鏡野町","city_kana":"トマタグンカガミノチョウ","town":"下原","town_kana":"シモバラ","prefecture_code":33},"0364":{"zip_code":"7080364","prefecture":"岡山県","prefecture_kana":"オカヤマケン","city":"苫田郡鏡野町","city_kana":"トマタグンカガミノチョウ","town":"下森原","town_kana":"シモモリバラ","prefecture_code":33},"0424":{"zip_code":"7080424","prefecture":"岡山県","prefecture_kana":"オカヤマケン","city":"苫田郡鏡野町","city_kana":"トマタグンカガミノチョウ","town":"杉","town_kana":"スギ","prefecture_code":33},"0325":{"zip_code":"7080325","prefecture":"岡山県","prefecture_kana":"オカヤマケン","city":"苫田郡鏡野町","city_kana":"トマタグンカガミノチョウ","town":"瀬戸","town_kana":"セト","prefecture_code":33},"0345":{"zip_code":"7080345","prefecture":"岡山県","prefecture_kana":"オカヤマケン","city":"苫田郡鏡野町","city_kana":"トマタグンカガミノチョウ","town":"高山","town_kana":"タカヤマ","prefecture_code":33},"0342":{"zip_code":"7080342","prefecture":"岡山県","prefecture_kana":"オカヤマケン","city":"苫田郡鏡野町","city_kana":"トマタグンカガミノチョウ","town":"薪森原","town_kana":"タキギモリバラ","prefecture_code":33},"0324":{"zip_code":"7080324","prefecture":"岡山県","prefecture_kana":"オカヤマケン","city":"苫田郡鏡野町","city_kana":"トマタグンカガミノチョウ","town":"竹田","town_kana":"タケダ","prefecture_code":33},"0365":{"zip_code":"7080365","prefecture":"岡山県","prefecture_kana":"オカヤマケン","city":"苫田郡鏡野町","city_kana":"トマタグンカガミノチョウ","town":"塚谷","town_kana":"ツカダニ","prefecture_code":33},"0362":{"zip_code":"7080362","prefecture":"岡山県","prefecture_kana":"オカヤマケン","city":"苫田郡鏡野町","city_kana":"トマタグンカガミノチョウ","town":"貞永寺","town_kana":"テエジ","prefecture_code":33},"0323":{"zip_code":"7080323","prefecture":"岡山県","prefecture_kana":"オカヤマケン","city":"苫田郡鏡野町","city_kana":"トマタグンカガミノチョウ","town":"寺元","town_kana":"テラモト","prefecture_code":33},"0311":{"zip_code":"7080311","prefecture":"岡山県","prefecture_kana":"オカヤマケン","city":"苫田郡鏡野町","city_kana":"トマタグンカガミノチョウ","town":"寺和田","town_kana":"テラワダ","prefecture_code":33},"0317":{"zip_code":"7080317","prefecture":"岡山県","prefecture_kana":"オカヤマケン","city":"苫田郡鏡野町","city_kana":"トマタグンカガミノチョウ","town":"土居","town_kana":"ドイ","prefecture_code":33},"0703":{"zip_code":"7080703","prefecture":"岡山県","prefecture_kana":"オカヤマケン","city":"苫田郡鏡野町","city_kana":"トマタグンカガミノチョウ","town":"富仲間","town_kana":"トミナカマ","prefecture_code":33},"0701":{"zip_code":"7080701","prefecture":"岡山県","prefecture_kana":"オカヤマケン","city":"苫田郡鏡野町","city_kana":"トマタグンカガミノチョウ","town":"富西谷","town_kana":"トミニシダニ","prefecture_code":33},"0702":{"zip_code":"7080702","prefecture":"岡山県","prefecture_kana":"オカヤマケン","city":"苫田郡鏡野町","city_kana":"トマタグンカガミノチョウ","town":"富東谷","town_kana":"トミヒガシダニ","prefecture_code":33},"0353":{"zip_code":"7080353","prefecture":"岡山県","prefecture_kana":"オカヤマケン","city":"苫田郡鏡野町","city_kana":"トマタグンカガミノチョウ","town":"中谷","town_kana":"ナカダニ","prefecture_code":33},"0502":{"zip_code":"7080502","prefecture":"岡山県","prefecture_kana":"オカヤマケン","city":"苫田郡鏡野町","city_kana":"トマタグンカガミノチョウ","town":"長藤","town_kana":"ナガトウ","prefecture_code":33},"0426":{"zip_code":"7080426","prefecture":"岡山県","prefecture_kana":"オカヤマケン","city":"苫田郡鏡野町","city_kana":"トマタグンカガミノチョウ","town":"西屋","town_kana":"ニシヤ","prefecture_code":33},"0331":{"zip_code":"7080331","prefecture":"岡山県","prefecture_kana":"オカヤマケン","city":"苫田郡鏡野町","city_kana":"トマタグンカガミノチョウ","town":"布原","town_kana":"ヌノハラ","prefecture_code":33},"0425":{"zip_code":"7080425","prefecture":"岡山県","prefecture_kana":"オカヤマケン","city":"苫田郡鏡野町","city_kana":"トマタグンカガミノチョウ","town":"箱","town_kana":"ハコ","prefecture_code":33},"0511":{"zip_code":"7080511","prefecture":"岡山県","prefecture_kana":"オカヤマケン","city":"苫田郡鏡野町","city_kana":"トマタグンカガミノチョウ","town":"羽出","town_kana":"ハデ","prefecture_code":33},"0512":{"zip_code":"7080512","prefecture":"岡山県","prefecture_kana":"オカヤマケン","city":"苫田郡鏡野町","city_kana":"トマタグンカガミノチョウ","town":"羽出西谷","town_kana":"ハデニシダニ","prefecture_code":33},"0366":{"zip_code":"7080366","prefecture":"岡山県","prefecture_kana":"オカヤマケン","city":"苫田郡鏡野町","city_kana":"トマタグンカガミノチョウ","town":"馬場","town_kana":"ババ","prefecture_code":33},"0434":{"zip_code":"7080434","prefecture":"岡山県","prefecture_kana":"オカヤマケン","city":"苫田郡鏡野町","city_kana":"トマタグンカガミノチョウ","town":"土生","town_kana":"ハブ","prefecture_code":33},"0344":{"zip_code":"7080344","prefecture":"岡山県","prefecture_kana":"オカヤマケン","city":"苫田郡鏡野町","city_kana":"トマタグンカガミノチョウ","town":"原","town_kana":"ハラ","prefecture_code":33},"0333":{"zip_code":"7080333","prefecture":"岡山県","prefecture_kana":"オカヤマケン","city":"苫田郡鏡野町","city_kana":"トマタグンカガミノチョウ","town":"古川","town_kana":"フルカワ","prefecture_code":33},"0335":{"zip_code":"7080335","prefecture":"岡山県","prefecture_kana":"オカヤマケン","city":"苫田郡鏡野町","city_kana":"トマタグンカガミノチョウ","town":"真加部","town_kana":"マカベ","prefecture_code":33},"0334":{"zip_code":"7080334","prefecture":"岡山県","prefecture_kana":"オカヤマケン","city":"苫田郡鏡野町","city_kana":"トマタグンカガミノチョウ","town":"宗枝","town_kana":"ムネダ","prefecture_code":33},"0305":{"zip_code":"7080305","prefecture":"岡山県","prefecture_kana":"オカヤマケン","city":"苫田郡鏡野町","city_kana":"トマタグンカガミノチョウ","town":"百谷","town_kana":"モモダニ","prefecture_code":33},"0352":{"zip_code":"7080352","prefecture":"岡山県","prefecture_kana":"オカヤマケン","city":"苫田郡鏡野町","city_kana":"トマタグンカガミノチョウ","town":"山城","town_kana":"ヤマシロ","prefecture_code":33},"0422":{"zip_code":"7080422","prefecture":"岡山県","prefecture_kana":"オカヤマケン","city":"苫田郡鏡野町","city_kana":"トマタグンカガミノチョウ","town":"養野","town_kana":"ヨウノ","prefecture_code":33},"0332":{"zip_code":"7080332","prefecture":"岡山県","prefecture_kana":"オカヤマケン","city":"苫田郡鏡野町","city_kana":"トマタグンカガミノチョウ","town":"吉原","town_kana":"ヨシハラ","prefecture_code":33},"0316":{"zip_code":"7080316","prefecture":"岡山県","prefecture_kana":"オカヤマケン","city":"苫田郡鏡野町","city_kana":"トマタグンカガミノチョウ","town":"和田","town_kana":"ワダ","prefecture_code":33},"1300":{"zip_code":"7081300","prefecture":"岡山県","prefecture_kana":"オカヤマケン","city":"勝田郡奈義町","city_kana":"カツタグンナギチョウ","town":"","town_kana":"","prefecture_code":33},"1314":{"zip_code":"7081314","prefecture":"岡山県","prefecture_kana":"オカヤマケン","city":"勝田郡奈義町","city_kana":"カツタグンナギチョウ","town":"荒内西","town_kana":"アラウチニシ","prefecture_code":33},"1302":{"zip_code":"7081302","prefecture":"岡山県","prefecture_kana":"オカヤマケン","city":"勝田郡奈義町","city_kana":"カツタグンナギチョウ","town":"小坂","town_kana":"オサカ","prefecture_code":33},"1312":{"zip_code":"7081312","prefecture":"岡山県","prefecture_kana":"オカヤマケン","city":"勝田郡奈義町","city_kana":"カツタグンナギチョウ","town":"柿","town_kana":"カキ","prefecture_code":33},"1326":{"zip_code":"7081326","prefecture":"岡山県","prefecture_kana":"オカヤマケン","city":"勝田郡奈義町","city_kana":"カツタグンナギチョウ","town":"上町川","town_kana":"カミマチガワ","prefecture_code":33},"1305":{"zip_code":"7081305","prefecture":"岡山県","prefecture_kana":"オカヤマケン","city":"勝田郡奈義町","city_kana":"カツタグンナギチョウ","town":"行方","town_kana":"ギョウホウ","prefecture_code":33},"1307":{"zip_code":"7081307","prefecture":"岡山県","prefecture_kana":"オカヤマケン","city":"勝田郡奈義町","city_kana":"カツタグンナギチョウ","town":"高円","town_kana":"コウエン","prefecture_code":33},"1304":{"zip_code":"7081304","prefecture":"岡山県","prefecture_kana":"オカヤマケン","city":"勝田郡奈義町","city_kana":"カツタグンナギチョウ","town":"関本","town_kana":"セキモト","prefecture_code":33},"1325":{"zip_code":"7081325","prefecture":"岡山県","prefecture_kana":"オカヤマケン","city":"勝田郡奈義町","city_kana":"カツタグンナギチョウ","town":"滝本","town_kana":"タキモト","prefecture_code":33},"1323":{"zip_code":"7081323","prefecture":"岡山県","prefecture_kana":"オカヤマケン","city":"勝田郡奈義町","city_kana":"カツタグンナギチョウ","town":"豊沢","town_kana":"トヨサワ","prefecture_code":33},"1313":{"zip_code":"7081313","prefecture":"岡山県","prefecture_kana":"オカヤマケン","city":"勝田郡奈義町","city_kana":"カツタグンナギチョウ","town":"中島東","town_kana":"ナカシマヒガシ","prefecture_code":33},"1315":{"zip_code":"7081315","prefecture":"岡山県","prefecture_kana":"オカヤマケン","city":"勝田郡奈義町","city_kana":"カツタグンナギチョウ","town":"中島西","town_kana":"ナカシマニシ","prefecture_code":33},"1322":{"zip_code":"7081322","prefecture":"岡山県","prefecture_kana":"オカヤマケン","city":"勝田郡奈義町","city_kana":"カツタグンナギチョウ","town":"成松","town_kana":"ナリマツ","prefecture_code":33},"1306":{"zip_code":"7081306","prefecture":"岡山県","prefecture_kana":"オカヤマケン","city":"勝田郡奈義町","city_kana":"カツタグンナギチョウ","town":"西原","town_kana":"ニシバラ","prefecture_code":33},"1311":{"zip_code":"7081311","prefecture":"岡山県","prefecture_kana":"オカヤマケン","city":"勝田郡奈義町","city_kana":"カツタグンナギチョウ","town":"久常","town_kana":"ヒサツネ","prefecture_code":33},"1324":{"zip_code":"7081324","prefecture":"岡山県","prefecture_kana":"オカヤマケン","city":"勝田郡奈義町","city_kana":"カツタグンナギチョウ","town":"広岡","town_kana":"ヒロオカ","prefecture_code":33},"1301":{"zip_code":"7081301","prefecture":"岡山県","prefecture_kana":"オカヤマケン","city":"勝田郡奈義町","city_kana":"カツタグンナギチョウ","town":"馬桑","town_kana":"マグワ","prefecture_code":33},"1303":{"zip_code":"7081303","prefecture":"岡山県","prefecture_kana":"オカヤマケン","city":"勝田郡奈義町","city_kana":"カツタグンナギチョウ","town":"皆木","town_kana":"ミナギ","prefecture_code":33},"1321":{"zip_code":"7081321","prefecture":"岡山県","prefecture_kana":"オカヤマケン","city":"勝田郡奈義町","city_kana":"カツタグンナギチョウ","town":"宮内","town_kana":"ミヤウチ","prefecture_code":33},"1506":{"zip_code":"7081506","prefecture":"岡山県","prefecture_kana":"オカヤマケン","city":"久米郡美咲町","city_kana":"クメグンミサキチョウ","town":"上間","town_kana":"ウワマ","prefecture_code":33},"1525":{"zip_code":"7081525","prefecture":"岡山県","prefecture_kana":"オカヤマケン","city":"久米郡美咲町","city_kana":"クメグンミサキチョウ","town":"王子","town_kana":"オオジ","prefecture_code":33},"1543":{"zip_code":"7081543","prefecture":"岡山県","prefecture_kana":"オカヤマケン","city":"久米郡美咲町","city_kana":"クメグンミサキチョウ","town":"書副","town_kana":"カイゾエ","prefecture_code":33},"1523":{"zip_code":"7081523","prefecture":"岡山県","prefecture_kana":"オカヤマケン","city":"久米郡美咲町","city_kana":"クメグンミサキチョウ","town":"吉ケ原","town_kana":"キチガハラ","prefecture_code":33},"1531":{"zip_code":"7081531","prefecture":"岡山県","prefecture_kana":"オカヤマケン","city":"久米郡美咲町","city_kana":"クメグンミサキチョウ","town":"栗子","town_kana":"クリゴ","prefecture_code":33},"1526":{"zip_code":"7081526","prefecture":"岡山県","prefecture_kana":"オカヤマケン","city":"久米郡美咲町","city_kana":"クメグンミサキチョウ","town":"高下","town_kana":"コウゲ","prefecture_code":33},"1532":{"zip_code":"7081532","prefecture":"岡山県","prefecture_kana":"オカヤマケン","city":"久米郡美咲町","city_kana":"クメグンミサキチョウ","town":"小瀬","town_kana":"コセ","prefecture_code":33},"1536":{"zip_code":"7081536","prefecture":"岡山県","prefecture_kana":"オカヤマケン","city":"久米郡美咲町","city_kana":"クメグンミサキチョウ","town":"定宗","town_kana":"サダムネ","prefecture_code":33},"1503":{"zip_code":"7081503","prefecture":"岡山県","prefecture_kana":"オカヤマケン","city":"久米郡美咲町","city_kana":"クメグンミサキチョウ","town":"塩気","town_kana":"シオケ","prefecture_code":33},"1505":{"zip_code":"7081505","prefecture":"岡山県","prefecture_kana":"オカヤマケン","city":"久米郡美咲町","city_kana":"クメグンミサキチョウ","town":"重藤","town_kana":"シゲトウ","prefecture_code":33},"1515":{"zip_code":"7081515","prefecture":"岡山県","prefecture_kana":"オカヤマケン","city":"久米郡美咲町","city_kana":"クメグンミサキチョウ","town":"下谷","town_kana":"シモダニ","prefecture_code":33},"1544":{"zip_code":"7081544","prefecture":"岡山県","prefecture_kana":"オカヤマケン","city":"久米郡美咲町","city_kana":"クメグンミサキチョウ","town":"周佐","town_kana":"スサ","prefecture_code":33},"1522":{"zip_code":"7081522","prefecture":"岡山県","prefecture_kana":"オカヤマケン","city":"久米郡美咲町","city_kana":"クメグンミサキチョウ","town":"惣田","town_kana":"ソウダ","prefecture_code":33},"1545":{"zip_code":"7081545","prefecture":"岡山県","prefecture_kana":"オカヤマケン","city":"久米郡美咲町","city_kana":"クメグンミサキチョウ","town":"大戸上","town_kana":"ダイトカミ","prefecture_code":33},"1546":{"zip_code":"7081546","prefecture":"岡山県","prefecture_kana":"オカヤマケン","city":"久米郡美咲町","city_kana":"クメグンミサキチョウ","town":"大戸下","town_kana":"ダイトシモ","prefecture_code":33},"1535":{"zip_code":"7081535","prefecture":"岡山県","prefecture_kana":"オカヤマケン","city":"久米郡美咲町","city_kana":"クメグンミサキチョウ","town":"高城","town_kana":"タカシロ","prefecture_code":33},"1541":{"zip_code":"7081541","prefecture":"岡山県","prefecture_kana":"オカヤマケン","city":"久米郡美咲町","city_kana":"クメグンミサキチョウ","town":"塚角","town_kana":"ツカツノ","prefecture_code":33},"1507":{"zip_code":"7081507","prefecture":"岡山県","prefecture_kana":"オカヤマケン","city":"久米郡美咲町","city_kana":"クメグンミサキチョウ","town":"百々","town_kana":"ドウドウ","prefecture_code":33},"1547":{"zip_code":"7081547","prefecture":"岡山県","prefecture_kana":"オカヤマケン","city":"久米郡美咲町","city_kana":"クメグンミサキチョウ","town":"八神","town_kana":"ネリガミ","prefecture_code":33},"1542":{"zip_code":"7081542","prefecture":"岡山県","prefecture_kana":"オカヤマケン","city":"久米郡美咲町","city_kana":"クメグンミサキチョウ","town":"羽仁","town_kana":"ハニ","prefecture_code":33},"1533":{"zip_code":"7081533","prefecture":"岡山県","prefecture_kana":"オカヤマケン","city":"久米郡美咲町","city_kana":"クメグンミサキチョウ","town":"久木","town_kana":"ヒサギ","prefecture_code":33},"1514":{"zip_code":"7081514","prefecture":"岡山県","prefecture_kana":"オカヤマケン","city":"久米郡美咲町","city_kana":"クメグンミサキチョウ","town":"藤田上","town_kana":"フジタカミ","prefecture_code":33},"1513":{"zip_code":"7081513","prefecture":"岡山県","prefecture_kana":"オカヤマケン","city":"久米郡美咲町","city_kana":"クメグンミサキチョウ","town":"藤田下","town_kana":"フジタシモ","prefecture_code":33},"1534":{"zip_code":"7081534","prefecture":"岡山県","prefecture_kana":"オカヤマケン","city":"久米郡美咲町","city_kana":"クメグンミサキチョウ","town":"藤原","town_kana":"フジワラ","prefecture_code":33},"1512":{"zip_code":"7081512","prefecture":"岡山県","prefecture_kana":"オカヤマケン","city":"久米郡美咲町","city_kana":"クメグンミサキチョウ","town":"松尾","town_kana":"マツオ","prefecture_code":33},"1502":{"zip_code":"7081502","prefecture":"岡山県","prefecture_kana":"オカヤマケン","city":"久米郡美咲町","city_kana":"クメグンミサキチョウ","town":"宮山","town_kana":"ミヤヤマ","prefecture_code":33},"1501":{"zip_code":"7081501","prefecture":"岡山県","prefecture_kana":"オカヤマケン","city":"久米郡美咲町","city_kana":"クメグンミサキチョウ","town":"安井","town_kana":"ヤスイ","prefecture_code":33},"1521":{"zip_code":"7081521","prefecture":"岡山県","prefecture_kana":"オカヤマケン","city":"久米郡美咲町","city_kana":"クメグンミサキチョウ","town":"休石","town_kana":"ヤスミイシ","prefecture_code":33},"1527":{"zip_code":"7081527","prefecture":"岡山県","prefecture_kana":"オカヤマケン","city":"久米郡美咲町","city_kana":"クメグンミサキチョウ","town":"柵原","town_kana":"ヤナハラ","prefecture_code":33},"1524":{"zip_code":"7081524","prefecture":"岡山県","prefecture_kana":"オカヤマケン","city":"久米郡美咲町","city_kana":"クメグンミサキチョウ","town":"飯岡","town_kana":"ユウカ","prefecture_code":33},"1511":{"zip_code":"7081511","prefecture":"岡山県","prefecture_kana":"オカヤマケン","city":"久米郡美咲町","city_kana":"クメグンミサキチョウ","town":"行信","town_kana":"ユキノブ","prefecture_code":33},"1504":{"zip_code":"7081504","prefecture":"岡山県","prefecture_kana":"オカヤマケン","city":"久米郡美咲町","city_kana":"クメグンミサキチョウ","town":"吉留","town_kana":"ヨシドメ","prefecture_code":33},"1516":{"zip_code":"7081516","prefecture":"岡山県","prefecture_kana":"オカヤマケン","city":"久米郡美咲町","city_kana":"クメグンミサキチョウ","town":"連石","town_kana":"レンジャク","prefecture_code":33}}