{"3131":{"zip_code":"7093131","prefecture":"岡山県","prefecture_kana":"オカヤマケン","city":"岡山市北区","city_kana":"オカヤマシキタク","town":"建部町市場","town_kana":"タケベチョウイチバ","prefecture_code":33},"3121":{"zip_code":"7093121","prefecture":"岡山県","prefecture_kana":"オカヤマケン","city":"岡山市北区","city_kana":"オカヤマシキタク","town":"建部町大田","town_kana":"タケベチョウオオダ","prefecture_code":33},"3124":{"zip_code":"7093124","prefecture":"岡山県","prefecture_kana":"オカヤマケン","city":"岡山市北区","city_kana":"オカヤマシキタク","town":"建部町小倉","town_kana":"タケベチョウオグラ","prefecture_code":33},"3112":{"zip_code":"7093112","prefecture":"岡山県","prefecture_kana":"オカヤマケン","city":"岡山市北区","city_kana":"オカヤマシキタク","town":"建部町川口","town_kana":"タケベチョウカワグチ","prefecture_code":33},"3134":{"zip_code":"7093134","prefecture":"岡山県","prefecture_kana":"オカヤマケン","city":"岡山市北区","city_kana":"オカヤマシキタク","town":"建部町桜","town_kana":"タケベチョウサクラ","prefecture_code":33},"3105":{"zip_code":"7093105","prefecture":"岡山県","prefecture_kana":"オカヤマケン","city":"岡山市北区","city_kana":"オカヤマシキタク","town":"建部町三明寺","town_kana":"タケベチョウサンミョウジ","prefecture_code":33},"3141":{"zip_code":"7093141","prefecture":"岡山県","prefecture_kana":"オカヤマケン","city":"岡山市北区","city_kana":"オカヤマシキタク","town":"建部町品田","town_kana":"タケベチョウシナダ","prefecture_code":33},"3113":{"zip_code":"7093113","prefecture":"岡山県","prefecture_kana":"オカヤマケン","city":"岡山市北区","city_kana":"オカヤマシキタク","town":"建部町下神目","town_kana":"タケベチョウシモコウメ","prefecture_code":33},"3142":{"zip_code":"7093142","prefecture":"岡山県","prefecture_kana":"オカヤマケン","city":"岡山市北区","city_kana":"オカヤマシキタク","town":"建部町建部上","town_kana":"タケベチョウタケベカミ","prefecture_code":33},"3145":{"zip_code":"7093145","prefecture":"岡山県","prefecture_kana":"オカヤマケン","city":"岡山市北区","city_kana":"オカヤマシキタク","town":"建部町田地子","town_kana":"タケベチョウタジコ","prefecture_code":33},"3101":{"zip_code":"7093101","prefecture":"岡山県","prefecture_kana":"オカヤマケン","city":"岡山市北区","city_kana":"オカヤマシキタク","town":"建部町鶴田","town_kana":"タケベチョウタヅタ","prefecture_code":33},"3103":{"zip_code":"7093103","prefecture":"岡山県","prefecture_kana":"オカヤマケン","city":"岡山市北区","city_kana":"オカヤマシキタク","town":"建部町角石畝","town_kana":"タケベチョウツイシウネ","prefecture_code":33},"3104":{"zip_code":"7093104","prefecture":"岡山県","prefecture_kana":"オカヤマケン","city":"岡山市北区","city_kana":"オカヤマシキタク","town":"建部町角石谷","town_kana":"タケベチョウツイシダニ","prefecture_code":33},"3144":{"zip_code":"7093144","prefecture":"岡山県","prefecture_kana":"オカヤマケン","city":"岡山市北区","city_kana":"オカヤマシキタク","town":"建部町富沢","town_kana":"タケベチョウトミサワ","prefecture_code":33},"3132":{"zip_code":"7093132","prefecture":"岡山県","prefecture_kana":"オカヤマケン","city":"岡山市北区","city_kana":"オカヤマシキタク","town":"建部町中田","town_kana":"タケベチョウナカダ","prefecture_code":33},"3133":{"zip_code":"7093133","prefecture":"岡山県","prefecture_kana":"オカヤマケン","city":"岡山市北区","city_kana":"オカヤマシキタク","town":"建部町西原","town_kana":"タケベチョウニシバラ","prefecture_code":33},"3123":{"zip_code":"7093123","prefecture":"岡山県","prefecture_kana":"オカヤマケン","city":"岡山市北区","city_kana":"オカヤマシキタク","town":"建部町土師方","town_kana":"タケベチョウハジカタ","prefecture_code":33},"3111":{"zip_code":"7093111","prefecture":"岡山県","prefecture_kana":"オカヤマケン","city":"岡山市北区","city_kana":"オカヤマシキタク","town":"建部町福渡","town_kana":"タケベチョウフクワタリ","prefecture_code":33},"3114":{"zip_code":"7093114","prefecture":"岡山県","prefecture_kana":"オカヤマケン","city":"岡山市北区","city_kana":"オカヤマシキタク","town":"建部町豊楽寺","town_kana":"タケベチョウブラクジ","prefecture_code":33},"3143":{"zip_code":"7093143","prefecture":"岡山県","prefecture_kana":"オカヤマケン","city":"岡山市北区","city_kana":"オカヤマシキタク","town":"建部町宮地","town_kana":"タケベチョウミヤジ","prefecture_code":33},"3122":{"zip_code":"7093122","prefecture":"岡山県","prefecture_kana":"オカヤマケン","city":"岡山市北区","city_kana":"オカヤマシキタク","town":"建部町吉田","town_kana":"タケベチョウヨシダ","prefecture_code":33},"3102":{"zip_code":"7093102","prefecture":"岡山県","prefecture_kana":"オカヤマケン","city":"岡山市北区","city_kana":"オカヤマシキタク","town":"建部町和田南","town_kana":"タケベチョウワダミナミ","prefecture_code":33},"2101":{"zip_code":"7092101","prefecture":"岡山県","prefecture_kana":"オカヤマケン","city":"岡山市北区","city_kana":"オカヤマシキタク","town":"御津石上","town_kana":"ミツイシカミ","prefecture_code":33},"2105":{"zip_code":"7092105","prefecture":"岡山県","prefecture_kana":"オカヤマケン","city":"岡山市北区","city_kana":"オカヤマシキタク","town":"御津伊田","town_kana":"ミツイタ","prefecture_code":33},"2125":{"zip_code":"7092125","prefecture":"岡山県","prefecture_kana":"オカヤマケン","city":"岡山市北区","city_kana":"オカヤマシキタク","town":"御津宇甘","town_kana":"ミツウカイ","prefecture_code":33},"2121":{"zip_code":"7092121","prefecture":"岡山県","prefecture_kana":"オカヤマケン","city":"岡山市北区","city_kana":"オカヤマシキタク","town":"御津宇垣","town_kana":"ミツウガキ","prefecture_code":33},"2131":{"zip_code":"7092131","prefecture":"岡山県","prefecture_kana":"オカヤマケン","city":"岡山市北区","city_kana":"オカヤマシキタク","town":"御津鹿瀬","town_kana":"ミツカセ","prefecture_code":33},"2126":{"zip_code":"7092126","prefecture":"岡山県","prefecture_kana":"オカヤマケン","city":"岡山市北区","city_kana":"オカヤマシキタク","town":"御津勝尾","town_kana":"ミツカツオ","prefecture_code":33},"2133":{"zip_code":"7092133","prefecture":"岡山県","prefecture_kana":"オカヤマケン","city":"岡山市北区","city_kana":"オカヤマシキタク","town":"御津金川","town_kana":"ミツカナガワ","prefecture_code":33},"2111":{"zip_code":"7092111","prefecture":"岡山県","prefecture_kana":"オカヤマケン","city":"岡山市北区","city_kana":"オカヤマシキタク","town":"御津川高","town_kana":"ミツカワタカ","prefecture_code":33},"2115":{"zip_code":"7092115","prefecture":"岡山県","prefecture_kana":"オカヤマケン","city":"岡山市北区","city_kana":"オカヤマシキタク","town":"御津北野","town_kana":"ミツキタノ","prefecture_code":33},"2132":{"zip_code":"7092132","prefecture":"岡山県","prefecture_kana":"オカヤマケン","city":"岡山市北区","city_kana":"オカヤマシキタク","town":"御津草生","town_kana":"ミツクソウ","prefecture_code":33},"2112":{"zip_code":"7092112","prefecture":"岡山県","prefecture_kana":"オカヤマケン","city":"岡山市北区","city_kana":"オカヤマシキタク","town":"御津国ケ原","town_kana":"ミツクニガハラ","prefecture_code":33},"2123":{"zip_code":"7092123","prefecture":"岡山県","prefecture_kana":"オカヤマケン","city":"岡山市北区","city_kana":"オカヤマシキタク","town":"御津河内","town_kana":"ミツコウチ","prefecture_code":33},"2137":{"zip_code":"7092137","prefecture":"岡山県","prefecture_kana":"オカヤマケン","city":"岡山市北区","city_kana":"オカヤマシキタク","town":"御津虎倉","town_kana":"ミツコグラ","prefecture_code":33},"2136":{"zip_code":"7092136","prefecture":"岡山県","prefecture_kana":"オカヤマケン","city":"岡山市北区","city_kana":"オカヤマシキタク","town":"御津紙工","town_kana":"ミツシトリ","prefecture_code":33},"2134":{"zip_code":"7092134","prefecture":"岡山県","prefecture_kana":"オカヤマケン","city":"岡山市北区","city_kana":"オカヤマシキタク","town":"御津下田","town_kana":"ミツシモダ","prefecture_code":33},"2106":{"zip_code":"7092106","prefecture":"岡山県","prefecture_kana":"オカヤマケン","city":"岡山市北区","city_kana":"オカヤマシキタク","town":"御津新庄","town_kana":"ミツシンジョウ","prefecture_code":33},"2124":{"zip_code":"7092124","prefecture":"岡山県","prefecture_kana":"オカヤマケン","city":"岡山市北区","city_kana":"オカヤマシキタク","town":"御津高津","town_kana":"ミツタカヅ","prefecture_code":33},"2135":{"zip_code":"7092135","prefecture":"岡山県","prefecture_kana":"オカヤマケン","city":"岡山市北区","city_kana":"オカヤマシキタク","town":"御津中泉","town_kana":"ミツナカイズミ","prefecture_code":33},"2102":{"zip_code":"7092102","prefecture":"岡山県","prefecture_kana":"オカヤマケン","city":"岡山市北区","city_kana":"オカヤマシキタク","town":"御津中畑","town_kana":"ミツナカハタ","prefecture_code":33},"2114":{"zip_code":"7092114","prefecture":"岡山県","prefecture_kana":"オカヤマケン","city":"岡山市北区","city_kana":"オカヤマシキタク","town":"御津中牧","town_kana":"ミツナカマキ","prefecture_code":33},"2116":{"zip_code":"7092116","prefecture":"岡山県","prefecture_kana":"オカヤマケン","city":"岡山市北区","city_kana":"オカヤマシキタク","town":"御津中山","town_kana":"ミツナカヤマ","prefecture_code":33},"2117":{"zip_code":"7092117","prefecture":"岡山県","prefecture_kana":"オカヤマケン","city":"岡山市北区","city_kana":"オカヤマシキタク","town":"御津野々口","town_kana":"ミツノノクチ","prefecture_code":33},"2104":{"zip_code":"7092104","prefecture":"岡山県","prefecture_kana":"オカヤマケン","city":"岡山市北区","city_kana":"オカヤマシキタク","town":"御津平岡西","town_kana":"ミツヒラオカニシ","prefecture_code":33},"2103":{"zip_code":"7092103","prefecture":"岡山県","prefecture_kana":"オカヤマケン","city":"岡山市北区","city_kana":"オカヤマシキタク","town":"御津矢知","town_kana":"ミツヤチ","prefecture_code":33},"2107":{"zip_code":"7092107","prefecture":"岡山県","prefecture_kana":"オカヤマケン","city":"岡山市北区","city_kana":"オカヤマシキタク","town":"御津矢原","town_kana":"ミツヤバラ","prefecture_code":33},"2122":{"zip_code":"7092122","prefecture":"岡山県","prefecture_kana":"オカヤマケン","city":"岡山市北区","city_kana":"オカヤマシキタク","town":"御津吉尾","town_kana":"ミツヨシオ","prefecture_code":33},"2113":{"zip_code":"7092113","prefecture":"岡山県","prefecture_kana":"オカヤマケン","city":"岡山市北区","city_kana":"オカヤマシキタク","town":"御津芳谷","town_kana":"ミツヨシタニ","prefecture_code":33},"0605":{"zip_code":"7090605","prefecture":"岡山県","prefecture_kana":"オカヤマケン","city":"岡山市東区","city_kana":"オカヤマシヒガシク","town":"浅川","town_kana":"アサカワ","prefecture_code":33},"0612":{"zip_code":"7090612","prefecture":"岡山県","prefecture_kana":"オカヤマケン","city":"岡山市東区","city_kana":"オカヤマシヒガシク","town":"内ケ原","town_kana":"ウチガハラ","prefecture_code":33},"0607":{"zip_code":"7090607","prefecture":"岡山県","prefecture_kana":"オカヤマケン","city":"岡山市東区","city_kana":"オカヤマシヒガシク","town":"浦間","town_kana":"ウラマ","prefecture_code":33},"0635":{"zip_code":"7090635","prefecture":"岡山県","prefecture_kana":"オカヤマケン","city":"岡山市東区","city_kana":"オカヤマシヒガシク","town":"草ケ部","town_kana":"クサカベ","prefecture_code":33},"0615":{"zip_code":"7090615","prefecture":"岡山県","prefecture_kana":"オカヤマケン","city":"岡山市東区","city_kana":"オカヤマシヒガシク","town":"才崎","town_kana":"サイザキ","prefecture_code":33},"0625":{"zip_code":"7090625","prefecture":"岡山県","prefecture_kana":"オカヤマケン","city":"岡山市東区","city_kana":"オカヤマシヒガシク","town":"上道北方","town_kana":"ジョウトウキタガタ","prefecture_code":33},"0624":{"zip_code":"7090624","prefecture":"岡山県","prefecture_kana":"オカヤマケン","city":"岡山市東区","city_kana":"オカヤマシヒガシク","town":"城東台西","town_kana":"ジョウトウダイニシ","prefecture_code":33},"0622":{"zip_code":"7090622","prefecture":"岡山県","prefecture_kana":"オカヤマケン","city":"岡山市東区","city_kana":"オカヤマシヒガシク","town":"城東台東","town_kana":"ジョウトウダイヒガシ","prefecture_code":33},"0623":{"zip_code":"7090623","prefecture":"岡山県","prefecture_kana":"オカヤマケン","city":"岡山市東区","city_kana":"オカヤマシヒガシク","town":"城東台南","town_kana":"ジョウトウダイミナミ","prefecture_code":33},"0634":{"zip_code":"7090634","prefecture":"岡山県","prefecture_kana":"オカヤマケン","city":"岡山市東区","city_kana":"オカヤマシヒガシク","town":"砂場","town_kana":"スナバ","prefecture_code":33},"0603":{"zip_code":"7090603","prefecture":"岡山県","prefecture_kana":"オカヤマケン","city":"岡山市東区","city_kana":"オカヤマシヒガシク","town":"西祖","town_kana":"セイソ","prefecture_code":33},"0853":{"zip_code":"7090853","prefecture":"岡山県","prefecture_kana":"オカヤマケン","city":"岡山市東区","city_kana":"オカヤマシヒガシク","town":"瀬戸町旭ヶ丘","town_kana":"セトチョウアサヒガオカ","prefecture_code":33},"0854":{"zip_code":"7090854","prefecture":"岡山県","prefecture_kana":"オカヤマケン","city":"岡山市東区","city_kana":"オカヤマシヒガシク","town":"瀬戸町江尻","town_kana":"セトチョウエジリ","prefecture_code":33},"0851":{"zip_code":"7090851","prefecture":"岡山県","prefecture_kana":"オカヤマケン","city":"岡山市東区","city_kana":"オカヤマシヒガシク","town":"瀬戸町大内","town_kana":"セトチョウオオチ","prefecture_code":33},"0855":{"zip_code":"7090855","prefecture":"岡山県","prefecture_kana":"オカヤマケン","city":"岡山市東区","city_kana":"オカヤマシヒガシク","town":"瀬戸町沖","town_kana":"セトチョウオキ","prefecture_code":33},"0845":{"zip_code":"7090845","prefecture":"岡山県","prefecture_kana":"オカヤマケン","city":"岡山市東区","city_kana":"オカヤマシヒガシク","town":"瀬戸町鍛冶屋","town_kana":"セトチョウカジヤ","prefecture_code":33},"0852":{"zip_code":"7090852","prefecture":"岡山県","prefecture_kana":"オカヤマケン","city":"岡山市東区","city_kana":"オカヤマシヒガシク","town":"瀬戸町肩脊","town_kana":"セトチョウカタセ","prefecture_code":33},"0863":{"zip_code":"7090863","prefecture":"岡山県","prefecture_kana":"オカヤマケン","city":"岡山市東区","city_kana":"オカヤマシヒガシク","town":"瀬戸町観音寺","town_kana":"セトチョウカンオンジ","prefecture_code":33},"0865":{"zip_code":"7090865","prefecture":"岡山県","prefecture_kana":"オカヤマケン","city":"岡山市東区","city_kana":"オカヤマシヒガシク","town":"瀬戸町菊山","town_kana":"セトチョウキクヤマ","prefecture_code":33},"0876":{"zip_code":"7090876","prefecture":"岡山県","prefecture_kana":"オカヤマケン","city":"岡山市東区","city_kana":"オカヤマシヒガシク","town":"瀬戸町光明谷","town_kana":"セトチョウコウミョウタニ","prefecture_code":33},"0873":{"zip_code":"7090873","prefecture":"岡山県","prefecture_kana":"オカヤマケン","city":"岡山市東区","city_kana":"オカヤマシヒガシク","town":"瀬戸町坂根","town_kana":"セトチョウサカネ","prefecture_code":33},"0862":{"zip_code":"7090862","prefecture":"岡山県","prefecture_kana":"オカヤマケン","city":"岡山市東区","city_kana":"オカヤマシヒガシク","town":"瀬戸町笹岡","town_kana":"セトチョウササオカ","prefecture_code":33},"0871":{"zip_code":"7090871","prefecture":"岡山県","prefecture_kana":"オカヤマケン","city":"岡山市東区","city_kana":"オカヤマシヒガシク","town":"瀬戸町塩納","town_kana":"セトチョウシオノウ","prefecture_code":33},"0856":{"zip_code":"7090856","prefecture":"岡山県","prefecture_kana":"オカヤマケン","city":"岡山市東区","city_kana":"オカヤマシヒガシク","town":"瀬戸町下","town_kana":"セトチョウシモ","prefecture_code":33},"0864":{"zip_code":"7090864","prefecture":"岡山県","prefecture_kana":"オカヤマケン","city":"岡山市東区","city_kana":"オカヤマシヒガシク","town":"瀬戸町宿奥","town_kana":"セトチョウシュクオク","prefecture_code":33},"0861":{"zip_code":"7090861","prefecture":"岡山県","prefecture_kana":"オカヤマケン","city":"岡山市東区","city_kana":"オカヤマシヒガシク","town":"瀬戸町瀬戸","town_kana":"セトチョウセト","prefecture_code":33},"0872":{"zip_code":"7090872","prefecture":"岡山県","prefecture_kana":"オカヤマケン","city":"岡山市東区","city_kana":"オカヤマシヒガシク","town":"瀬戸町宗堂","town_kana":"セトチョウソウドウ","prefecture_code":33},"0846":{"zip_code":"7090846","prefecture":"岡山県","prefecture_kana":"オカヤマケン","city":"岡山市東区","city_kana":"オカヤマシヒガシク","town":"瀬戸町大井","town_kana":"セトチョウダイイ","prefecture_code":33},"0875":{"zip_code":"7090875","prefecture":"岡山県","prefecture_kana":"オカヤマケン","city":"岡山市東区","city_kana":"オカヤマシヒガシク","town":"瀬戸町寺地","town_kana":"セトチョウテラジ","prefecture_code":33},"0842":{"zip_code":"7090842","prefecture":"岡山県","prefecture_kana":"オカヤマケン","city":"岡山市東区","city_kana":"オカヤマシヒガシク","town":"瀬戸町二日市","town_kana":"セトチョウフツカイチ","prefecture_code":33},"0841":{"zip_code":"7090841","prefecture":"岡山県","prefecture_kana":"オカヤマケン","city":"岡山市東区","city_kana":"オカヤマシヒガシク","town":"瀬戸町万富","town_kana":"セトチョウマントミ","prefecture_code":33},"0844":{"zip_code":"7090844","prefecture":"岡山県","prefecture_kana":"オカヤマケン","city":"岡山市東区","city_kana":"オカヤマシヒガシク","town":"瀬戸町南方","town_kana":"セトチョウミナミガタ","prefecture_code":33},"0874":{"zip_code":"7090874","prefecture":"岡山県","prefecture_kana":"オカヤマケン","city":"岡山市東区","city_kana":"オカヤマシヒガシク","town":"瀬戸町森末","town_kana":"セトチョウモリスエ","prefecture_code":33},"0843":{"zip_code":"7090843","prefecture":"岡山県","prefecture_kana":"オカヤマケン","city":"岡山市東区","city_kana":"オカヤマシヒガシク","town":"瀬戸町弓削","town_kana":"セトチョウユゲ","prefecture_code":33},"0614":{"zip_code":"7090614","prefecture":"岡山県","prefecture_kana":"オカヤマケン","city":"岡山市東区","city_kana":"オカヤマシヒガシク","town":"竹原","town_kana":"タケワラ","prefecture_code":33},"0636":{"zip_code":"7090636","prefecture":"岡山県","prefecture_kana":"オカヤマケン","city":"岡山市東区","city_kana":"オカヤマシヒガシク","town":"谷尻","town_kana":"タニシリ","prefecture_code":33},"0604":{"zip_code":"7090604","prefecture":"岡山県","prefecture_kana":"オカヤマケン","city":"岡山市東区","city_kana":"オカヤマシヒガシク","town":"寺山","town_kana":"テラヤマ","prefecture_code":33},"0626":{"zip_code":"7090626","prefecture":"岡山県","prefecture_kana":"オカヤマケン","city":"岡山市東区","city_kana":"オカヤマシヒガシク","town":"中尾","town_kana":"ナカオ","prefecture_code":33},"0611":{"zip_code":"7090611","prefecture":"岡山県","prefecture_kana":"オカヤマケン","city":"岡山市東区","city_kana":"オカヤマシヒガシク","town":"楢原","town_kana":"ナラバラ","prefecture_code":33},"0633":{"zip_code":"7090633","prefecture":"岡山県","prefecture_kana":"オカヤマケン","city":"岡山市東区","city_kana":"オカヤマシヒガシク","town":"西平島","town_kana":"ニシヒラジマ","prefecture_code":33},"0621":{"zip_code":"7090621","prefecture":"岡山県","prefecture_kana":"オカヤマケン","city":"岡山市東区","city_kana":"オカヤマシヒガシク","town":"沼","town_kana":"ヌマ","prefecture_code":33},"0631":{"zip_code":"7090631","prefecture":"岡山県","prefecture_kana":"オカヤマケン","city":"岡山市東区","city_kana":"オカヤマシヒガシク","town":"東平島","town_kana":"ヒガシヒラジマ","prefecture_code":33},"0602":{"zip_code":"7090602","prefecture":"岡山県","prefecture_kana":"オカヤマケン","city":"岡山市東区","city_kana":"オカヤマシヒガシク","town":"一日市","town_kana":"ヒトイチ","prefecture_code":33},"0632":{"zip_code":"7090632","prefecture":"岡山県","prefecture_kana":"オカヤマケン","city":"岡山市東区","city_kana":"オカヤマシヒガシク","town":"南古都","town_kana":"ミナミコズ","prefecture_code":33},"0613":{"zip_code":"7090613","prefecture":"岡山県","prefecture_kana":"オカヤマケン","city":"岡山市東区","city_kana":"オカヤマシヒガシク","town":"百枝月","town_kana":"モモエヅキ","prefecture_code":33},"0606":{"zip_code":"7090606","prefecture":"岡山県","prefecture_kana":"オカヤマケン","city":"岡山市東区","city_kana":"オカヤマシヒガシク","town":"矢井","town_kana":"ヤイ","prefecture_code":33},"0601":{"zip_code":"7090601","prefecture":"岡山県","prefecture_kana":"オカヤマケン","city":"岡山市東区","city_kana":"オカヤマシヒガシク","town":"吉井","town_kana":"ヨシイ","prefecture_code":33},"1212":{"zip_code":"7091212","prefecture":"岡山県","prefecture_kana":"オカヤマケン","city":"岡山市南区","city_kana":"オカヤマシミナミク","town":"奥迫川","town_kana":"オクハザカワ","prefecture_code":33},"1215":{"zip_code":"7091215","prefecture":"岡山県","prefecture_kana":"オカヤマケン","city":"岡山市南区","city_kana":"オカヤマシミナミク","town":"片岡","town_kana":"カタオカ","prefecture_code":33},"1214":{"zip_code":"7091214","prefecture":"岡山県","prefecture_kana":"オカヤマケン","city":"岡山市南区","city_kana":"オカヤマシミナミク","town":"川張","town_kana":"カワハリ","prefecture_code":33},"1201":{"zip_code":"7091201","prefecture":"岡山県","prefecture_kana":"オカヤマケン","city":"岡山市南区","city_kana":"オカヤマシミナミク","town":"北七区","town_kana":"キタナナク","prefecture_code":33},"1216":{"zip_code":"7091216","prefecture":"岡山県","prefecture_kana":"オカヤマケン","city":"岡山市南区","city_kana":"オカヤマシミナミク","town":"宗津","town_kana":"ソウヅ","prefecture_code":33},"1203":{"zip_code":"7091203","prefecture":"岡山県","prefecture_kana":"オカヤマケン","city":"岡山市南区","city_kana":"オカヤマシミナミク","town":"西紅陽台","town_kana":"ニシコウヨウダイ","prefecture_code":33},"1204":{"zip_code":"7091204","prefecture":"岡山県","prefecture_kana":"オカヤマケン","city":"岡山市南区","city_kana":"オカヤマシミナミク","town":"西高崎","town_kana":"ニシタカサキ","prefecture_code":33},"1202":{"zip_code":"7091202","prefecture":"岡山県","prefecture_kana":"オカヤマケン","city":"岡山市南区","city_kana":"オカヤマシミナミク","town":"西七区","town_kana":"ニシナナク","prefecture_code":33},"1211":{"zip_code":"7091211","prefecture":"岡山県","prefecture_kana":"オカヤマケン","city":"岡山市南区","city_kana":"オカヤマシミナミク","town":"迫川","town_kana":"ハザカワ","prefecture_code":33},"1213":{"zip_code":"7091213","prefecture":"岡山県","prefecture_kana":"オカヤマケン","city":"岡山市南区","city_kana":"オカヤマシミナミク","town":"彦崎","town_kana":"ヒコサキ","prefecture_code":33},"3951":{"zip_code":"7093951","prefecture":"岡山県","prefecture_kana":"オカヤマケン","city":"津山市","city_kana":"ツヤマシ","town":"阿波","town_kana":"アバ","prefecture_code":33},"4615":{"zip_code":"7094615","prefecture":"岡山県","prefecture_kana":"オカヤマケン","city":"津山市","city_kana":"ツヤマシ","town":"一色","town_kana":"イシキ","prefecture_code":33},"3915":{"zip_code":"7093915","prefecture":"岡山県","prefecture_kana":"オカヤマケン","city":"津山市","city_kana":"ツヤマシ","town":"加茂町青柳","town_kana":"カモチョウアオヤギ","prefecture_code":33},"3907":{"zip_code":"7093907","prefecture":"岡山県","prefecture_kana":"オカヤマケン","city":"津山市","city_kana":"ツヤマシ","town":"加茂町宇野","town_kana":"カモチョウウノ","prefecture_code":33},"3924":{"zip_code":"7093924","prefecture":"岡山県","prefecture_kana":"オカヤマケン","city":"津山市","city_kana":"ツヤマシ","town":"加茂町小渕","town_kana":"カモチョウオブチ","prefecture_code":33},"3912":{"zip_code":"7093912","prefecture":"岡山県","prefecture_kana":"オカヤマケン","city":"津山市","city_kana":"ツヤマシ","town":"加茂町河井","town_kana":"カモチョウカワイ","prefecture_code":33},"3921":{"zip_code":"7093921","prefecture":"岡山県","prefecture_kana":"オカヤマケン","city":"津山市","city_kana":"ツヤマシ","town":"加茂町公郷","town_kana":"カモチョウクゴウ","prefecture_code":33},"3901":{"zip_code":"7093901","prefecture":"岡山県","prefecture_kana":"オカヤマケン","city":"津山市","city_kana":"ツヤマシ","town":"加茂町倉見","town_kana":"カモチョウクラミ","prefecture_code":33},"3902":{"zip_code":"7093902","prefecture":"岡山県","prefecture_kana":"オカヤマケン","city":"津山市","city_kana":"ツヤマシ","town":"加茂町黒木","town_kana":"カモチョウクロギ","prefecture_code":33},"3923":{"zip_code":"7093923","prefecture":"岡山県","prefecture_kana":"オカヤマケン","city":"津山市","city_kana":"ツヤマシ","town":"加茂町桑原","town_kana":"カモチョウクワバラ","prefecture_code":33},"3906":{"zip_code":"7093906","prefecture":"岡山県","prefecture_kana":"オカヤマケン","city":"津山市","city_kana":"ツヤマシ","town":"加茂町小中原","town_kana":"カモチョウコナカバラ","prefecture_code":33},"3904":{"zip_code":"7093904","prefecture":"岡山県","prefecture_kana":"オカヤマケン","city":"津山市","city_kana":"ツヤマシ","town":"加茂町斉野谷","town_kana":"カモチョウサイノタニ","prefecture_code":33},"3913":{"zip_code":"7093913","prefecture":"岡山県","prefecture_kana":"オカヤマケン","city":"津山市","city_kana":"ツヤマシ","town":"加茂町山下","town_kana":"カモチョウサンゲ","prefecture_code":33},"3922":{"zip_code":"7093922","prefecture":"岡山県","prefecture_kana":"オカヤマケン","city":"津山市","city_kana":"ツヤマシ","town":"加茂町下津川","town_kana":"カモチョウシモツガワ","prefecture_code":33},"3905":{"zip_code":"7093905","prefecture":"岡山県","prefecture_kana":"オカヤマケン","city":"津山市","city_kana":"ツヤマシ","town":"加茂町塔中","town_kana":"カモチョウタツチュウ","prefecture_code":33},"3914":{"zip_code":"7093914","prefecture":"岡山県","prefecture_kana":"オカヤマケン","city":"津山市","city_kana":"ツヤマシ","town":"加茂町知和","town_kana":"カモチョウチワ","prefecture_code":33},"3935":{"zip_code":"7093935","prefecture":"岡山県","prefecture_kana":"オカヤマケン","city":"津山市","city_kana":"ツヤマシ","town":"加茂町百々","town_kana":"カモチョウドウドウ","prefecture_code":33},"3903":{"zip_code":"7093903","prefecture":"岡山県","prefecture_kana":"オカヤマケン","city":"津山市","city_kana":"ツヤマシ","town":"加茂町戸賀","town_kana":"カモチョウトカ","prefecture_code":33},"3931":{"zip_code":"7093931","prefecture":"岡山県","prefecture_kana":"オカヤマケン","city":"津山市","city_kana":"ツヤマシ","town":"加茂町中原","town_kana":"カモチョウナカバラ","prefecture_code":33},"3934":{"zip_code":"7093934","prefecture":"岡山県","prefecture_kana":"オカヤマケン","city":"津山市","city_kana":"ツヤマシ","town":"加茂町楢井","town_kana":"カモチョウナライ","prefecture_code":33},"3932":{"zip_code":"7093932","prefecture":"岡山県","prefecture_kana":"オカヤマケン","city":"津山市","city_kana":"ツヤマシ","town":"加茂町成安","town_kana":"カモチョウナリヤス","prefecture_code":33},"3908":{"zip_code":"7093908","prefecture":"岡山県","prefecture_kana":"オカヤマケン","city":"津山市","city_kana":"ツヤマシ","town":"加茂町原口","town_kana":"カモチョウハラグチ","prefecture_code":33},"3911":{"zip_code":"7093911","prefecture":"岡山県","prefecture_kana":"オカヤマケン","city":"津山市","city_kana":"ツヤマシ","town":"加茂町物見","town_kana":"カモチョウモノミ","prefecture_code":33},"3933":{"zip_code":"7093933","prefecture":"岡山県","prefecture_kana":"オカヤマケン","city":"津山市","city_kana":"ツヤマシ","town":"加茂町行重","town_kana":"カモチョウユキシゲ","prefecture_code":33},"4612":{"zip_code":"7094612","prefecture":"岡山県","prefecture_kana":"オカヤマケン","city":"津山市","city_kana":"ツヤマシ","town":"くめ","town_kana":"クメ","prefecture_code":33},"4614":{"zip_code":"7094614","prefecture":"岡山県","prefecture_kana":"オカヤマケン","city":"津山市","city_kana":"ツヤマシ","town":"久米川南","town_kana":"クメカワミナミ","prefecture_code":33},"4624":{"zip_code":"7094624","prefecture":"岡山県","prefecture_kana":"オカヤマケン","city":"津山市","city_kana":"ツヤマシ","town":"桑上","town_kana":"クワカミ","prefecture_code":33},"4623":{"zip_code":"7094623","prefecture":"岡山県","prefecture_kana":"オカヤマケン","city":"津山市","city_kana":"ツヤマシ","town":"桑下","town_kana":"クワシモ","prefecture_code":33},"4621":{"zip_code":"7094621","prefecture":"岡山県","prefecture_kana":"オカヤマケン","city":"津山市","city_kana":"ツヤマシ","town":"神代","town_kana":"コウジロ","prefecture_code":33},"4625":{"zip_code":"7094625","prefecture":"岡山県","prefecture_kana":"オカヤマケン","city":"津山市","city_kana":"ツヤマシ","town":"里公文","town_kana":"サトクモン","prefecture_code":33},"4626":{"zip_code":"7094626","prefecture":"岡山県","prefecture_kana":"オカヤマケン","city":"津山市","city_kana":"ツヤマシ","town":"里公文上","town_kana":"サトクモンカミ","prefecture_code":33},"4605":{"zip_code":"7094605","prefecture":"岡山県","prefecture_kana":"オカヤマケン","city":"津山市","city_kana":"ツヤマシ","town":"坪井上","town_kana":"ツボイカミ","prefecture_code":33},"4604":{"zip_code":"7094604","prefecture":"岡山県","prefecture_kana":"オカヤマケン","city":"津山市","city_kana":"ツヤマシ","town":"坪井下","town_kana":"ツボイシモ","prefecture_code":33},"4622":{"zip_code":"7094622","prefecture":"岡山県","prefecture_kana":"オカヤマケン","city":"津山市","city_kana":"ツヤマシ","town":"戸脇","town_kana":"トワキ","prefecture_code":33},"4606":{"zip_code":"7094606","prefecture":"岡山県","prefecture_kana":"オカヤマケン","city":"津山市","city_kana":"ツヤマシ","town":"中北上","town_kana":"ナカギタカミ","prefecture_code":33},"4603":{"zip_code":"7094603","prefecture":"岡山県","prefecture_kana":"オカヤマケン","city":"津山市","city_kana":"ツヤマシ","town":"中北下","town_kana":"ナカギタシモ","prefecture_code":33},"4631":{"zip_code":"7094631","prefecture":"岡山県","prefecture_kana":"オカヤマケン","city":"津山市","city_kana":"ツヤマシ","town":"福田下","town_kana":"フクダシモ","prefecture_code":33},"4616":{"zip_code":"7094616","prefecture":"岡山県","prefecture_kana":"オカヤマケン","city":"津山市","city_kana":"ツヤマシ","town":"南方中","town_kana":"ミナミガタナカ","prefecture_code":33},"4613":{"zip_code":"7094613","prefecture":"岡山県","prefecture_kana":"オカヤマケン","city":"津山市","city_kana":"ツヤマシ","town":"宮尾","town_kana":"ミヤオ","prefecture_code":33},"4601":{"zip_code":"7094601","prefecture":"岡山県","prefecture_kana":"オカヤマケン","city":"津山市","city_kana":"ツヤマシ","town":"宮部上","town_kana":"ミヤベカミ","prefecture_code":33},"4602":{"zip_code":"7094602","prefecture":"岡山県","prefecture_kana":"オカヤマケン","city":"津山市","city_kana":"ツヤマシ","town":"宮部下","town_kana":"ミヤベシモ","prefecture_code":33},"4632":{"zip_code":"7094632","prefecture":"岡山県","prefecture_kana":"オカヤマケン","city":"津山市","city_kana":"ツヤマシ","town":"八社","town_kana":"ヤサ","prefecture_code":33},"4633":{"zip_code":"7094633","prefecture":"岡山県","prefecture_kana":"オカヤマケン","city":"津山市","city_kana":"ツヤマシ","town":"油木上","town_kana":"ユキカミ","prefecture_code":33},"4635":{"zip_code":"7094635","prefecture":"岡山県","prefecture_kana":"オカヤマケン","city":"津山市","city_kana":"ツヤマシ","town":"油木北","town_kana":"ユキキタ","prefecture_code":33},"4634":{"zip_code":"7094634","prefecture":"岡山県","prefecture_kana":"オカヤマケン","city":"津山市","city_kana":"ツヤマシ","town":"油木下","town_kana":"ユキシモ","prefecture_code":33},"4611":{"zip_code":"7094611","prefecture":"岡山県","prefecture_kana":"オカヤマケン","city":"津山市","city_kana":"ツヤマシ","town":"領家","town_kana":"リョウケ","prefecture_code":33},"0213":{"zip_code":"7090213","prefecture":"岡山県","prefecture_kana":"オカヤマケン","city":"備前市","city_kana":"ビゼンシ","town":"吉永町今崎","town_kana":"ヨシナガチョウイマサキ","prefecture_code":33},"0226":{"zip_code":"7090226","prefecture":"岡山県","prefecture_kana":"オカヤマケン","city":"備前市","city_kana":"ビゼンシ","town":"吉永町岩崎","town_kana":"ヨシナガチョウイワサキ","prefecture_code":33},"0301":{"zip_code":"7090301","prefecture":"岡山県","prefecture_kana":"オカヤマケン","city":"備前市","city_kana":"ビゼンシ","town":"吉永町加賀美","town_kana":"ヨシナガチョウカガミ","prefecture_code":33},"0221":{"zip_code":"7090221","prefecture":"岡山県","prefecture_kana":"オカヤマケン","city":"備前市","city_kana":"ビゼンシ","town":"吉永町金谷","town_kana":"ヨシナガチョウカナダニ","prefecture_code":33},"0212":{"zip_code":"7090212","prefecture":"岡山県","prefecture_kana":"オカヤマケン","city":"備前市","city_kana":"ビゼンシ","town":"吉永町神根本","town_kana":"ヨシナガチョウコウネホン","prefecture_code":33},"0304":{"zip_code":"7090304","prefecture":"岡山県","prefecture_kana":"オカヤマケン","city":"備前市","city_kana":"ビゼンシ","town":"吉永町笹目","town_kana":"ヨシナガチョウササメ","prefecture_code":33},"0211":{"zip_code":"7090211","prefecture":"岡山県","prefecture_kana":"オカヤマケン","city":"備前市","city_kana":"ビゼンシ","town":"吉永町高田","town_kana":"ヨシナガチョウタカタ","prefecture_code":33},"0302":{"zip_code":"7090302","prefecture":"岡山県","prefecture_kana":"オカヤマケン","city":"備前市","city_kana":"ビゼンシ","town":"吉永町多麻","town_kana":"ヨシナガチョウタマ","prefecture_code":33},"0303":{"zip_code":"7090303","prefecture":"岡山県","prefecture_kana":"オカヤマケン","city":"備前市","city_kana":"ビゼンシ","town":"吉永町都留岐","town_kana":"ヨシナガチョウツルギ","prefecture_code":33},"0222":{"zip_code":"7090222","prefecture":"岡山県","prefecture_kana":"オカヤマケン","city":"備前市","city_kana":"ビゼンシ","town":"吉永町福満","town_kana":"ヨシナガチョウフクミツ","prefecture_code":33},"0225":{"zip_code":"7090225","prefecture":"岡山県","prefecture_kana":"オカヤマケン","city":"備前市","city_kana":"ビゼンシ","town":"吉永町三股","town_kana":"ヨシナガチョウミツマタ","prefecture_code":33},"0223":{"zip_code":"7090223","prefecture":"岡山県","prefecture_kana":"オカヤマケン","city":"備前市","city_kana":"ビゼンシ","town":"吉永町南方","town_kana":"ヨシナガチョウミナミガタ","prefecture_code":33},"0224":{"zip_code":"7090224","prefecture":"岡山県","prefecture_kana":"オカヤマケン","city":"備前市","city_kana":"ビゼンシ","town":"吉永町吉永中","town_kana":"ヨシナガチョウヨシナガナカ","prefecture_code":33},"0214":{"zip_code":"7090214","prefecture":"岡山県","prefecture_kana":"オカヤマケン","city":"備前市","city_kana":"ビゼンシ","town":"吉永町和意谷","town_kana":"ヨシナガチョウワイダニ","prefecture_code":33},"0800":{"zip_code":"7090800","prefecture":"岡山県","prefecture_kana":"オカヤマケン","city":"赤磐市","city_kana":"アカイワシ","town":"","town_kana":"","prefecture_code":33},"0831":{"zip_code":"7090831","prefecture":"岡山県","prefecture_kana":"オカヤマケン","city":"赤磐市","city_kana":"アカイワシ","town":"五日市","town_kana":"イツカイチ","prefecture_code":33},"0822":{"zip_code":"7090822","prefecture":"岡山県","prefecture_kana":"オカヤマケン","city":"赤磐市","city_kana":"アカイワシ","town":"岩田","town_kana":"イワタ","prefecture_code":33},"0711":{"zip_code":"7090711","prefecture":"岡山県","prefecture_kana":"オカヤマケン","city":"赤磐市","city_kana":"アカイワシ","town":"円光寺","town_kana":"エンコウジ","prefecture_code":33},"0702":{"zip_code":"7090702","prefecture":"岡山県","prefecture_kana":"オカヤマケン","city":"赤磐市","city_kana":"アカイワシ","town":"岡","town_kana":"オカ","prefecture_code":33},"0713":{"zip_code":"7090713","prefecture":"岡山県","prefecture_kana":"オカヤマケン","city":"赤磐市","city_kana":"アカイワシ","town":"奥吉原","town_kana":"オクヨシハラ","prefecture_code":33},"0717":{"zip_code":"7090717","prefecture":"岡山県","prefecture_kana":"オカヤマケン","city":"赤磐市","city_kana":"アカイワシ","town":"小瀬木","town_kana":"オセギ","prefecture_code":33},"0806":{"zip_code":"7090806","prefecture":"岡山県","prefecture_kana":"オカヤマケン","city":"赤磐市","city_kana":"アカイワシ","town":"尾谷","town_kana":"オダニ","prefecture_code":33},"0733":{"zip_code":"7090733","prefecture":"岡山県","prefecture_kana":"オカヤマケン","city":"赤磐市","city_kana":"アカイワシ","town":"可真上","town_kana":"カマカミ","prefecture_code":33},"0732":{"zip_code":"7090732","prefecture":"岡山県","prefecture_kana":"オカヤマケン","city":"赤磐市","city_kana":"アカイワシ","town":"可真下","town_kana":"カマシモ","prefecture_code":33},"0817":{"zip_code":"7090817","prefecture":"岡山県","prefecture_kana":"オカヤマケン","city":"赤磐市","city_kana":"アカイワシ","town":"上市","town_kana":"カミイチ","prefecture_code":33},"0837":{"zip_code":"7090837","prefecture":"岡山県","prefecture_kana":"オカヤマケン","city":"赤磐市","city_kana":"アカイワシ","town":"上仁保","town_kana":"カミニボ","prefecture_code":33},"0834":{"zip_code":"7090834","prefecture":"岡山県","prefecture_kana":"オカヤマケン","city":"赤磐市","city_kana":"アカイワシ","town":"鴨前","town_kana":"カモサキ","prefecture_code":33},"0719":{"zip_code":"7090719","prefecture":"岡山県","prefecture_kana":"オカヤマケン","city":"赤磐市","city_kana":"アカイワシ","town":"河田原","town_kana":"カワタハラ","prefecture_code":33},"0833":{"zip_code":"7090833","prefecture":"岡山県","prefecture_kana":"オカヤマケン","city":"赤磐市","city_kana":"アカイワシ","town":"熊崎","town_kana":"クマザキ","prefecture_code":33},"0801":{"zip_code":"7090801","prefecture":"岡山県","prefecture_kana":"オカヤマケン","city":"赤磐市","city_kana":"アカイワシ","town":"神田","town_kana":"コウダ","prefecture_code":33},"0821":{"zip_code":"7090821","prefecture":"岡山県","prefecture_kana":"オカヤマケン","city":"赤磐市","city_kana":"アカイワシ","town":"河本","town_kana":"コウモト","prefecture_code":33},"0813":{"zip_code":"7090813","prefecture":"岡山県","prefecture_kana":"オカヤマケン","city":"赤磐市","city_kana":"アカイワシ","town":"斎富","town_kana":"サイドミ","prefecture_code":33},"0802":{"zip_code":"7090802","prefecture":"岡山県","prefecture_kana":"オカヤマケン","city":"赤磐市","city_kana":"アカイワシ","town":"桜が丘西","town_kana":"サクラガオカニシ","prefecture_code":33},"0721":{"zip_code":"7090721","prefecture":"岡山県","prefecture_kana":"オカヤマケン","city":"赤磐市","city_kana":"アカイワシ","town":"桜が丘東","town_kana":"サクラガオカヒガシ","prefecture_code":33},"0706":{"zip_code":"7090706","prefecture":"岡山県","prefecture_kana":"オカヤマケン","city":"赤磐市","city_kana":"アカイワシ","town":"佐古","town_kana":"サコ","prefecture_code":33},"0704":{"zip_code":"7090704","prefecture":"岡山県","prefecture_kana":"オカヤマケン","city":"赤磐市","city_kana":"アカイワシ","town":"沢原","town_kana":"サワハラ","prefecture_code":33},"0827":{"zip_code":"7090827","prefecture":"岡山県","prefecture_kana":"オカヤマケン","city":"赤磐市","city_kana":"アカイワシ","town":"山陽","town_kana":"サンヨウ","prefecture_code":33},"0816":{"zip_code":"7090816","prefecture":"岡山県","prefecture_kana":"オカヤマケン","city":"赤磐市","city_kana":"アカイワシ","town":"下市","town_kana":"シモイチ","prefecture_code":33},"0836":{"zip_code":"7090836","prefecture":"岡山県","prefecture_kana":"オカヤマケン","city":"赤磐市","city_kana":"アカイワシ","town":"下仁保","town_kana":"シモニボ","prefecture_code":33},"0701":{"zip_code":"7090701","prefecture":"岡山県","prefecture_kana":"オカヤマケン","city":"赤磐市","city_kana":"アカイワシ","town":"酌田","town_kana":"シャクダ","prefecture_code":33},"0731":{"zip_code":"7090731","prefecture":"岡山県","prefecture_kana":"オカヤマケン","city":"赤磐市","city_kana":"アカイワシ","town":"石蓮寺","town_kana":"シャクレンジ","prefecture_code":33},"0832":{"zip_code":"7090832","prefecture":"岡山県","prefecture_kana":"オカヤマケン","city":"赤磐市","city_kana":"アカイワシ","town":"正崎","town_kana":"ショウザキ","prefecture_code":33},"0715":{"zip_code":"7090715","prefecture":"岡山県","prefecture_kana":"オカヤマケン","city":"赤磐市","city_kana":"アカイワシ","town":"勢力","town_kana":"セイリキ","prefecture_code":33},"0714":{"zip_code":"7090714","prefecture":"岡山県","prefecture_kana":"オカヤマケン","city":"赤磐市","city_kana":"アカイワシ","town":"千躰","town_kana":"センダ","prefecture_code":33},"0811":{"zip_code":"7090811","prefecture":"岡山県","prefecture_kana":"オカヤマケン","city":"赤磐市","city_kana":"アカイワシ","town":"高屋","town_kana":"タカヤ","prefecture_code":33},"0815":{"zip_code":"7090815","prefecture":"岡山県","prefecture_kana":"オカヤマケン","city":"赤磐市","city_kana":"アカイワシ","town":"立川","town_kana":"タツカワ","prefecture_code":33},"0807":{"zip_code":"7090807","prefecture":"岡山県","prefecture_kana":"オカヤマケン","city":"赤磐市","city_kana":"アカイワシ","town":"津崎","town_kana":"ツザキ","prefecture_code":33},"0718":{"zip_code":"7090718","prefecture":"岡山県","prefecture_kana":"オカヤマケン","city":"赤磐市","city_kana":"アカイワシ","town":"釣井","town_kana":"ツルイ","prefecture_code":33},"0838":{"zip_code":"7090838","prefecture":"岡山県","prefecture_kana":"オカヤマケン","city":"赤磐市","city_kana":"アカイワシ","town":"斗有","town_kana":"トアリ","prefecture_code":33},"0716":{"zip_code":"7090716","prefecture":"岡山県","prefecture_kana":"オカヤマケン","city":"赤磐市","city_kana":"アカイワシ","town":"徳富","town_kana":"トクドミ","prefecture_code":33},"0703":{"zip_code":"7090703","prefecture":"岡山県","prefecture_kana":"オカヤマケン","city":"赤磐市","city_kana":"アカイワシ","town":"殿谷","town_kana":"トノダニ","prefecture_code":33},"0823":{"zip_code":"7090823","prefecture":"岡山県","prefecture_kana":"オカヤマケン","city":"赤磐市","city_kana":"アカイワシ","town":"長尾","town_kana":"ナガオ","prefecture_code":33},"0803":{"zip_code":"7090803","prefecture":"岡山県","prefecture_kana":"オカヤマケン","city":"赤磐市","city_kana":"アカイワシ","town":"中島","town_kana":"ナカシマ","prefecture_code":33},"0835":{"zip_code":"7090835","prefecture":"岡山県","prefecture_kana":"オカヤマケン","city":"赤磐市","city_kana":"アカイワシ","town":"西中","town_kana":"ニシナカ","prefecture_code":33},"0812":{"zip_code":"7090812","prefecture":"岡山県","prefecture_kana":"オカヤマケン","city":"赤磐市","city_kana":"アカイワシ","town":"沼田","town_kana":"ヌタ","prefecture_code":33},"0735":{"zip_code":"7090735","prefecture":"岡山県","prefecture_kana":"オカヤマケン","city":"赤磐市","city_kana":"アカイワシ","town":"野間","town_kana":"ノマ","prefecture_code":33},"0736":{"zip_code":"7090736","prefecture":"岡山県","prefecture_kana":"オカヤマケン","city":"赤磐市","city_kana":"アカイワシ","town":"稗田","town_kana":"ヒエダ","prefecture_code":33},"0804":{"zip_code":"7090804","prefecture":"岡山県","prefecture_kana":"オカヤマケン","city":"赤磐市","city_kana":"アカイワシ","town":"日古木","town_kana":"ヒコギ","prefecture_code":33},"0805":{"zip_code":"7090805","prefecture":"岡山県","prefecture_kana":"オカヤマケン","city":"赤磐市","city_kana":"アカイワシ","town":"二井","town_kana":"フタイ","prefecture_code":33},"0824":{"zip_code":"7090824","prefecture":"岡山県","prefecture_kana":"オカヤマケン","city":"赤磐市","city_kana":"アカイワシ","town":"穂崎","town_kana":"ホサキ","prefecture_code":33},"0705":{"zip_code":"7090705","prefecture":"岡山県","prefecture_kana":"オカヤマケン","city":"赤磐市","city_kana":"アカイワシ","town":"松木","town_kana":"マツキ","prefecture_code":33},"0825":{"zip_code":"7090825","prefecture":"岡山県","prefecture_kana":"オカヤマケン","city":"赤磐市","city_kana":"アカイワシ","town":"馬屋","town_kana":"マヤ","prefecture_code":33},"0814":{"zip_code":"7090814","prefecture":"岡山県","prefecture_kana":"オカヤマケン","city":"赤磐市","city_kana":"アカイワシ","town":"南方","town_kana":"ミナミガタ","prefecture_code":33},"0734":{"zip_code":"7090734","prefecture":"岡山県","prefecture_kana":"オカヤマケン","city":"赤磐市","city_kana":"アカイワシ","town":"弥上","town_kana":"ヤガミ","prefecture_code":33},"0712":{"zip_code":"7090712","prefecture":"岡山県","prefecture_kana":"オカヤマケン","city":"赤磐市","city_kana":"アカイワシ","town":"吉原","town_kana":"ヨシハラ","prefecture_code":33},"0826":{"zip_code":"7090826","prefecture":"岡山県","prefecture_kana":"オカヤマケン","city":"赤磐市","city_kana":"アカイワシ","town":"和田","town_kana":"ワダ","prefecture_code":33},"4232":{"zip_code":"7094232","prefecture":"岡山県","prefecture_kana":"オカヤマケン","city":"美作市","city_kana":"ミマサカシ","town":"芦河内","town_kana":"アシゴウチ","prefecture_code":33},"4205":{"zip_code":"7094205","prefecture":"岡山県","prefecture_kana":"オカヤマケン","city":"美作市","city_kana":"ミマサカシ","town":"粟井中","town_kana":"アワイナカ","prefecture_code":33},"4222":{"zip_code":"7094222","prefecture":"岡山県","prefecture_kana":"オカヤマケン","city":"美作市","city_kana":"ミマサカシ","town":"岩辺","town_kana":"イワナベ","prefecture_code":33},"4234":{"zip_code":"7094234","prefecture":"岡山県","prefecture_kana":"オカヤマケン","city":"美作市","city_kana":"ミマサカシ","town":"江見","town_kana":"エミ","prefecture_code":33},"4227":{"zip_code":"7094227","prefecture":"岡山県","prefecture_kana":"オカヤマケン","city":"美作市","city_kana":"ミマサカシ","town":"江見吉田","town_kana":"エミヨシダ","prefecture_code":33},"4223":{"zip_code":"7094223","prefecture":"岡山県","prefecture_kana":"オカヤマケン","city":"美作市","city_kana":"ミマサカシ","town":"大内谷","town_kana":"オオウチダニ","prefecture_code":33},"4203":{"zip_code":"7094203","prefecture":"岡山県","prefecture_kana":"オカヤマケン","city":"美作市","city_kana":"ミマサカシ","town":"小野","town_kana":"オノ","prefecture_code":33},"4215":{"zip_code":"7094215","prefecture":"岡山県","prefecture_kana":"オカヤマケン","city":"美作市","city_kana":"ミマサカシ","town":"小ノ谷","town_kana":"オノタニ","prefecture_code":33},"4201":{"zip_code":"7094201","prefecture":"岡山県","prefecture_kana":"オカヤマケン","city":"美作市","city_kana":"ミマサカシ","town":"小房","town_kana":"オブサ","prefecture_code":33},"4253":{"zip_code":"7094253","prefecture":"岡山県","prefecture_kana":"オカヤマケン","city":"美作市","city_kana":"ミマサカシ","town":"柿ケ原","town_kana":"カキガハラ","prefecture_code":33},"4202":{"zip_code":"7094202","prefecture":"岡山県","prefecture_kana":"オカヤマケン","city":"美作市","city_kana":"ミマサカシ","town":"梶原","town_kana":"カジワラ","prefecture_code":33},"4246":{"zip_code":"7094246","prefecture":"岡山県","prefecture_kana":"オカヤマケン","city":"美作市","city_kana":"ミマサカシ","town":"上福原","town_kana":"カミフクハラ","prefecture_code":33},"4236":{"zip_code":"7094236","prefecture":"岡山県","prefecture_kana":"オカヤマケン","city":"美作市","city_kana":"ミマサカシ","town":"川北","town_kana":"カワギタ","prefecture_code":33},"4255":{"zip_code":"7094255","prefecture":"岡山県","prefecture_kana":"オカヤマケン","city":"美作市","city_kana":"ミマサカシ","town":"国貞","town_kana":"クニサダ","prefecture_code":33},"4211":{"zip_code":"7094211","prefecture":"岡山県","prefecture_kana":"オカヤマケン","city":"美作市","city_kana":"ミマサカシ","town":"五名","town_kana":"ゴミョウ","prefecture_code":33},"4204":{"zip_code":"7094204","prefecture":"岡山県","prefecture_kana":"オカヤマケン","city":"美作市","city_kana":"ミマサカシ","town":"鷺巣","town_kana":"サギス","prefecture_code":33},"4251":{"zip_code":"7094251","prefecture":"岡山県","prefecture_kana":"オカヤマケン","city":"美作市","city_kana":"ミマサカシ","town":"白水","town_kana":"シラミズ","prefecture_code":33},"4256":{"zip_code":"7094256","prefecture":"岡山県","prefecture_kana":"オカヤマケン","city":"美作市","city_kana":"ミマサカシ","town":"鈴家","town_kana":"スズケ","prefecture_code":33},"4252":{"zip_code":"7094252","prefecture":"岡山県","prefecture_kana":"オカヤマケン","city":"美作市","city_kana":"ミマサカシ","town":"角南","town_kana":"スナミ","prefecture_code":33},"4221":{"zip_code":"7094221","prefecture":"岡山県","prefecture_kana":"オカヤマケン","city":"美作市","city_kana":"ミマサカシ","town":"瀬戸","town_kana":"セト","prefecture_code":33},"4213":{"zip_code":"7094213","prefecture":"岡山県","prefecture_kana":"オカヤマケン","city":"美作市","city_kana":"ミマサカシ","town":"大聖寺","town_kana":"ダイショウジ","prefecture_code":33},"4245":{"zip_code":"7094245","prefecture":"岡山県","prefecture_kana":"オカヤマケン","city":"美作市","city_kana":"ミマサカシ","town":"竹田","town_kana":"タケダ","prefecture_code":33},"4257":{"zip_code":"7094257","prefecture":"岡山県","prefecture_kana":"オカヤマケン","city":"美作市","city_kana":"ミマサカシ","town":"田渕","town_kana":"タブチ","prefecture_code":33},"4242":{"zip_code":"7094242","prefecture":"岡山県","prefecture_kana":"オカヤマケン","city":"美作市","city_kana":"ミマサカシ","town":"田原","town_kana":"タワラ","prefecture_code":33},"4244":{"zip_code":"7094244","prefecture":"岡山県","prefecture_kana":"オカヤマケン","city":"美作市","city_kana":"ミマサカシ","town":"土居","town_kana":"ドイ","prefecture_code":33},"4224":{"zip_code":"7094224","prefecture":"岡山県","prefecture_kana":"オカヤマケン","city":"美作市","city_kana":"ミマサカシ","town":"豊野","town_kana":"トヨノ","prefecture_code":33},"4226":{"zip_code":"7094226","prefecture":"岡山県","prefecture_kana":"オカヤマケン","city":"美作市","city_kana":"ミマサカシ","town":"鯰","town_kana":"ナマズ","prefecture_code":33},"4231":{"zip_code":"7094231","prefecture":"岡山県","prefecture_kana":"オカヤマケン","city":"美作市","city_kana":"ミマサカシ","town":"南海","town_kana":"ナンガイ","prefecture_code":33},"4235":{"zip_code":"7094235","prefecture":"岡山県","prefecture_kana":"オカヤマケン","city":"美作市","city_kana":"ミマサカシ","town":"原","town_kana":"ハラ","prefecture_code":33},"4241":{"zip_code":"7094241","prefecture":"岡山県","prefecture_kana":"オカヤマケン","city":"美作市","city_kana":"ミマサカシ","town":"日指","town_kana":"ヒサシ","prefecture_code":33},"4233":{"zip_code":"7094233","prefecture":"岡山県","prefecture_kana":"オカヤマケン","city":"美作市","city_kana":"ミマサカシ","town":"藤生","town_kana":"フジュウ","prefecture_code":33},"4225":{"zip_code":"7094225","prefecture":"岡山県","prefecture_kana":"オカヤマケン","city":"美作市","city_kana":"ミマサカシ","town":"松脇","town_kana":"マツワキ","prefecture_code":33},"4214":{"zip_code":"7094214","prefecture":"岡山県","prefecture_kana":"オカヤマケン","city":"美作市","city_kana":"ミマサカシ","town":"豆田","town_kana":"マメダ","prefecture_code":33},"4254":{"zip_code":"7094254","prefecture":"岡山県","prefecture_kana":"オカヤマケン","city":"美作市","city_kana":"ミマサカシ","town":"万善","town_kana":"マンゼン","prefecture_code":33},"4212":{"zip_code":"7094212","prefecture":"岡山県","prefecture_kana":"オカヤマケン","city":"美作市","city_kana":"ミマサカシ","town":"宮原","town_kana":"ミヤバラ","prefecture_code":33},"4247":{"zip_code":"7094247","prefecture":"岡山県","prefecture_kana":"オカヤマケン","city":"美作市","city_kana":"ミマサカシ","town":"山城","town_kana":"ヤマシロ","prefecture_code":33},"4216":{"zip_code":"7094216","prefecture":"岡山県","prefecture_kana":"オカヤマケン","city":"美作市","city_kana":"ミマサカシ","town":"山手","town_kana":"ヤマテ","prefecture_code":33},"4243":{"zip_code":"7094243","prefecture":"岡山県","prefecture_kana":"オカヤマケン","city":"美作市","city_kana":"ミマサカシ","town":"蓮花寺","town_kana":"レンゲジ","prefecture_code":33},"0400":{"zip_code":"7090400","prefecture":"岡山県","prefecture_kana":"オカヤマケン","city":"和気郡和気町","city_kana":"ワケグンワケチョウ","town":"","town_kana":"","prefecture_code":33},"0413":{"zip_code":"7090413","prefecture":"岡山県","prefecture_kana":"オカヤマケン","city":"和気郡和気町","city_kana":"ワケグンワケチョウ","town":"泉","town_kana":"イズミ","prefecture_code":33},"0513":{"zip_code":"7090513","prefecture":"岡山県","prefecture_kana":"オカヤマケン","city":"和気郡和気町","city_kana":"ワケグンワケチョウ","town":"岩戸","town_kana":"イワト","prefecture_code":33},"0525":{"zip_code":"7090525","prefecture":"岡山県","prefecture_kana":"オカヤマケン","city":"和気郡和気町","city_kana":"ワケグンワケチョウ","town":"宇生","town_kana":"ウブ","prefecture_code":33},"0414":{"zip_code":"7090414","prefecture":"岡山県","prefecture_kana":"オカヤマケン","city":"和気郡和気町","city_kana":"ワケグンワケチョウ","town":"大田原","town_kana":"オオタワラ","prefecture_code":33},"0432":{"zip_code":"7090432","prefecture":"岡山県","prefecture_kana":"オカヤマケン","city":"和気郡和気町","city_kana":"ワケグンワケチョウ","town":"大中山","town_kana":"オオナカヤマ","prefecture_code":33},"0501":{"zip_code":"7090501","prefecture":"岡山県","prefecture_kana":"オカヤマケン","city":"和気郡和気町","city_kana":"ワケグンワケチョウ","town":"奥塩田","town_kana":"オクシオタ","prefecture_code":33},"0522":{"zip_code":"7090522","prefecture":"岡山県","prefecture_kana":"オカヤマケン","city":"和気郡和気町","city_kana":"ワケグンワケチョウ","town":"加三方","town_kana":"カミガタ","prefecture_code":33},"0504":{"zip_code":"7090504","prefecture":"岡山県","prefecture_kana":"オカヤマケン","city":"和気郡和気町","city_kana":"ワケグンワケチョウ","town":"北山方","town_kana":"キタヤマガタ","prefecture_code":33},"0441":{"zip_code":"7090441","prefecture":"岡山県","prefecture_kana":"オカヤマケン","city":"和気郡和気町","city_kana":"ワケグンワケチョウ","town":"衣笠","town_kana":"キヌガサ","prefecture_code":33},"0404":{"zip_code":"7090404","prefecture":"岡山県","prefecture_kana":"オカヤマケン","city":"和気郡和気町","city_kana":"ワケグンワケチョウ","town":"木倉","town_kana":"キノクラ","prefecture_code":33},"0523":{"zip_code":"7090523","prefecture":"岡山県","prefecture_kana":"オカヤマケン","city":"和気郡和気町","city_kana":"ワケグンワケチョウ","town":"小坂","town_kana":"コザカ","prefecture_code":33},"0514":{"zip_code":"7090514","prefecture":"岡山県","prefecture_kana":"オカヤマケン","city":"和気郡和気町","city_kana":"ワケグンワケチョウ","town":"佐伯","town_kana":"サエキ","prefecture_code":33},"0506":{"zip_code":"7090506","prefecture":"岡山県","prefecture_kana":"オカヤマケン","city":"和気郡和気町","city_kana":"ワケグンワケチョウ","town":"塩田","town_kana":"シオタ","prefecture_code":33},"0431":{"zip_code":"7090431","prefecture":"岡山県","prefecture_kana":"オカヤマケン","city":"和気郡和気町","city_kana":"ワケグンワケチョウ","town":"清水","town_kana":"シミズ","prefecture_code":33},"0422":{"zip_code":"7090422","prefecture":"岡山県","prefecture_kana":"オカヤマケン","city":"和気郡和気町","city_kana":"ワケグンワケチョウ","town":"尺所","town_kana":"シャクソ","prefecture_code":33},"0524":{"zip_code":"7090524","prefecture":"岡山県","prefecture_kana":"オカヤマケン","city":"和気郡和気町","city_kana":"ワケグンワケチョウ","town":"田賀","town_kana":"タガ","prefecture_code":33},"0512":{"zip_code":"7090512","prefecture":"岡山県","prefecture_kana":"オカヤマケン","city":"和気郡和気町","city_kana":"ワケグンワケチョウ","town":"田土","town_kana":"タド","prefecture_code":33},"0463":{"zip_code":"7090463","prefecture":"岡山県","prefecture_kana":"オカヤマケン","city":"和気郡和気町","city_kana":"ワケグンワケチョウ","town":"田原上","town_kana":"タワラカミ","prefecture_code":33},"0464":{"zip_code":"7090464","prefecture":"岡山県","prefecture_kana":"オカヤマケン","city":"和気郡和気町","city_kana":"ワケグンワケチョウ","town":"田原下","town_kana":"タワラシモ","prefecture_code":33},"0521":{"zip_code":"7090521","prefecture":"岡山県","prefecture_kana":"オカヤマケン","city":"和気郡和気町","city_kana":"ワケグンワケチョウ","town":"父井原","town_kana":"チチイバラ","prefecture_code":33},"0516":{"zip_code":"7090516","prefecture":"岡山県","prefecture_kana":"オカヤマケン","city":"和気郡和気町","city_kana":"ワケグンワケチョウ","town":"津瀬","town_kana":"ツゼ","prefecture_code":33},"0505":{"zip_code":"7090505","prefecture":"岡山県","prefecture_kana":"オカヤマケン","city":"和気郡和気町","city_kana":"ワケグンワケチョウ","town":"苦木","town_kana":"ニガキ","prefecture_code":33},"0461":{"zip_code":"7090461","prefecture":"岡山県","prefecture_kana":"オカヤマケン","city":"和気郡和気町","city_kana":"ワケグンワケチョウ","town":"原","town_kana":"ハラ","prefecture_code":33},"0402":{"zip_code":"7090402","prefecture":"岡山県","prefecture_kana":"オカヤマケン","city":"和気郡和気町","city_kana":"ワケグンワケチョウ","town":"日笠上","town_kana":"ヒカサカミ","prefecture_code":33},"0403":{"zip_code":"7090403","prefecture":"岡山県","prefecture_kana":"オカヤマケン","city":"和気郡和気町","city_kana":"ワケグンワケチョウ","town":"日笠下","town_kana":"ヒカサシモ","prefecture_code":33},"0421":{"zip_code":"7090421","prefecture":"岡山県","prefecture_kana":"オカヤマケン","city":"和気郡和気町","city_kana":"ワケグンワケチョウ","town":"日室","town_kana":"ヒムロ","prefecture_code":33},"0442":{"zip_code":"7090442","prefecture":"岡山県","prefecture_kana":"オカヤマケン","city":"和気郡和気町","city_kana":"ワケグンワケチョウ","town":"福富","town_kana":"フクトミ","prefecture_code":33},"0412":{"zip_code":"7090412","prefecture":"岡山県","prefecture_kana":"オカヤマケン","city":"和気郡和気町","city_kana":"ワケグンワケチョウ","town":"藤野","town_kana":"フジノ","prefecture_code":33},"0401":{"zip_code":"7090401","prefecture":"岡山県","prefecture_kana":"オカヤマケン","city":"和気郡和気町","city_kana":"ワケグンワケチョウ","town":"保曽","town_kana":"ホソウ","prefecture_code":33},"0462":{"zip_code":"7090462","prefecture":"岡山県","prefecture_kana":"オカヤマケン","city":"和気郡和気町","city_kana":"ワケグンワケチョウ","town":"本","town_kana":"ホン","prefecture_code":33},"0452":{"zip_code":"7090452","prefecture":"岡山県","prefecture_kana":"オカヤマケン","city":"和気郡和気町","city_kana":"ワケグンワケチョウ","town":"益原","town_kana":"マスバラ","prefecture_code":33},"0502":{"zip_code":"7090502","prefecture":"岡山県","prefecture_kana":"オカヤマケン","city":"和気郡和気町","city_kana":"ワケグンワケチョウ","town":"丸山","town_kana":"マルヤマ","prefecture_code":33},"0503":{"zip_code":"7090503","prefecture":"岡山県","prefecture_kana":"オカヤマケン","city":"和気郡和気町","city_kana":"ワケグンワケチョウ","town":"南山方","town_kana":"ミナミヤマガタ","prefecture_code":33},"0511":{"zip_code":"7090511","prefecture":"岡山県","prefecture_kana":"オカヤマケン","city":"和気郡和気町","city_kana":"ワケグンワケチョウ","town":"矢田","town_kana":"ヤタ","prefecture_code":33},"0526":{"zip_code":"7090526","prefecture":"岡山県","prefecture_kana":"オカヤマケン","city":"和気郡和気町","city_kana":"ワケグンワケチョウ","town":"矢田部","town_kana":"ヤタベ","prefecture_code":33},"0411":{"zip_code":"7090411","prefecture":"岡山県","prefecture_kana":"オカヤマケン","city":"和気郡和気町","city_kana":"ワケグンワケチョウ","town":"吉田","town_kana":"ヨシダ","prefecture_code":33},"0515":{"zip_code":"7090515","prefecture":"岡山県","prefecture_kana":"オカヤマケン","city":"和気郡和気町","city_kana":"ワケグンワケチョウ","town":"米澤","town_kana":"ヨネザワ","prefecture_code":33},"0451":{"zip_code":"7090451","prefecture":"岡山県","prefecture_kana":"オカヤマケン","city":"和気郡和気町","city_kana":"ワケグンワケチョウ","town":"和気","town_kana":"ワケ","prefecture_code":33},"4300":{"zip_code":"7094300","prefecture":"岡山県","prefecture_kana":"オカヤマケン","city":"勝田郡勝央町","city_kana":"カツタグンショウオウチョウ","town":"","town_kana":"","prefecture_code":33},"4307":{"zip_code":"7094307","prefecture":"岡山県","prefecture_kana":"オカヤマケン","city":"勝田郡勝央町","city_kana":"カツタグンショウオウチョウ","town":"石生","town_kana":"イシュウ","prefecture_code":33},"4335":{"zip_code":"7094335","prefecture":"岡山県","prefecture_kana":"オカヤマケン","city":"勝田郡勝央町","city_kana":"カツタグンショウオウチョウ","town":"植月中","town_kana":"ウエツキナカ","prefecture_code":33},"4332":{"zip_code":"7094332","prefecture":"岡山県","prefecture_kana":"オカヤマケン","city":"勝田郡勝央町","city_kana":"カツタグンショウオウチョウ","town":"植月東","town_kana":"ウエツキヒガシ","prefecture_code":33},"4331":{"zip_code":"7094331","prefecture":"岡山県","prefecture_kana":"オカヤマケン","city":"勝田郡勝央町","city_kana":"カツタグンショウオウチョウ","town":"植月北","town_kana":"ウエツキキタ","prefecture_code":33},"4311":{"zip_code":"7094311","prefecture":"岡山県","prefecture_kana":"オカヤマケン","city":"勝田郡勝央町","city_kana":"カツタグンショウオウチョウ","town":"岡","town_kana":"オカ","prefecture_code":33},"4313":{"zip_code":"7094313","prefecture":"岡山県","prefecture_kana":"オカヤマケン","city":"勝田郡勝央町","city_kana":"カツタグンショウオウチョウ","town":"小矢田","town_kana":"オヤタ","prefecture_code":33},"4316":{"zip_code":"7094316","prefecture":"岡山県","prefecture_kana":"オカヤマケン","city":"勝田郡勝央町","city_kana":"カツタグンショウオウチョウ","town":"勝間田","town_kana":"カツマダ","prefecture_code":33},"4304":{"zip_code":"7094304","prefecture":"岡山県","prefecture_kana":"オカヤマケン","city":"勝田郡勝央町","city_kana":"カツタグンショウオウチョウ","town":"上香山","town_kana":"カミガヤマ","prefecture_code":33},"4302":{"zip_code":"7094302","prefecture":"岡山県","prefecture_kana":"オカヤマケン","city":"勝田郡勝央町","city_kana":"カツタグンショウオウチョウ","town":"河原","town_kana":"カワラ","prefecture_code":33},"4323":{"zip_code":"7094323","prefecture":"岡山県","prefecture_kana":"オカヤマケン","city":"勝田郡勝央町","city_kana":"カツタグンショウオウチョウ","town":"黒坂","town_kana":"クロサカ","prefecture_code":33},"4312":{"zip_code":"7094312","prefecture":"岡山県","prefecture_kana":"オカヤマケン","city":"勝田郡勝央町","city_kana":"カツタグンショウオウチョウ","town":"黒土","town_kana":"クロツチ","prefecture_code":33},"4301":{"zip_code":"7094301","prefecture":"岡山県","prefecture_kana":"オカヤマケン","city":"勝田郡勝央町","city_kana":"カツタグンショウオウチョウ","town":"下町川","town_kana":"シモマチガワ","prefecture_code":33},"4305":{"zip_code":"7094305","prefecture":"岡山県","prefecture_kana":"オカヤマケン","city":"勝田郡勝央町","city_kana":"カツタグンショウオウチョウ","town":"曽井","town_kana":"ソイ","prefecture_code":33},"4333":{"zip_code":"7094333","prefecture":"岡山県","prefecture_kana":"オカヤマケン","city":"勝田郡勝央町","city_kana":"カツタグンショウオウチョウ","town":"田井","town_kana":"タイ","prefecture_code":33},"4321":{"zip_code":"7094321","prefecture":"岡山県","prefecture_kana":"オカヤマケン","city":"勝田郡勝央町","city_kana":"カツタグンショウオウチョウ","town":"太平台","town_kana":"タイヘイダイ","prefecture_code":33},"4334":{"zip_code":"7094334","prefecture":"岡山県","prefecture_kana":"オカヤマケン","city":"勝田郡勝央町","city_kana":"カツタグンショウオウチョウ","town":"平","town_kana":"タイラ","prefecture_code":33},"4324":{"zip_code":"7094324","prefecture":"岡山県","prefecture_kana":"オカヤマケン","city":"勝田郡勝央町","city_kana":"カツタグンショウオウチョウ","town":"為本","town_kana":"タメモト","prefecture_code":33},"4303":{"zip_code":"7094303","prefecture":"岡山県","prefecture_kana":"オカヤマケン","city":"勝田郡勝央町","city_kana":"カツタグンショウオウチョウ","town":"豊久田","town_kana":"トヨクダ","prefecture_code":33},"4315":{"zip_code":"7094315","prefecture":"岡山県","prefecture_kana":"オカヤマケン","city":"勝田郡勝央町","city_kana":"カツタグンショウオウチョウ","town":"畑屋","town_kana":"ハタヤ","prefecture_code":33},"4314":{"zip_code":"7094314","prefecture":"岡山県","prefecture_kana":"オカヤマケン","city":"勝田郡勝央町","city_kana":"カツタグンショウオウチョウ","town":"東吉田","town_kana":"ヒガシヨシダ","prefecture_code":33},"4322":{"zip_code":"7094322","prefecture":"岡山県","prefecture_kana":"オカヤマケン","city":"勝田郡勝央町","city_kana":"カツタグンショウオウチョウ","town":"福吉","town_kana":"フクヨシ","prefecture_code":33},"4306":{"zip_code":"7094306","prefecture":"岡山県","prefecture_kana":"オカヤマケン","city":"勝田郡勝央町","city_kana":"カツタグンショウオウチョウ","town":"美野","town_kana":"ミノ","prefecture_code":33},"3600":{"zip_code":"7093600","prefecture":"岡山県","prefecture_kana":"オカヤマケン","city":"久米郡久米南町","city_kana":"クメグンクメナンチョウ","town":"","town_kana":"","prefecture_code":33},"3626":{"zip_code":"7093626","prefecture":"岡山県","prefecture_kana":"オカヤマケン","city":"久米郡久米南町","city_kana":"クメグンクメナンチョウ","town":"上神目","town_kana":"カミコウメ","prefecture_code":33},"3615":{"zip_code":"7093615","prefecture":"岡山県","prefecture_kana":"オカヤマケン","city":"久米郡久米南町","city_kana":"クメグンクメナンチョウ","town":"上二ケ","town_kana":"カミニカ","prefecture_code":33},"3621":{"zip_code":"7093621","prefecture":"岡山県","prefecture_kana":"オカヤマケン","city":"久米郡久米南町","city_kana":"クメグンクメナンチョウ","town":"上籾","town_kana":"カミモミ","prefecture_code":33},"3612":{"zip_code":"7093612","prefecture":"岡山県","prefecture_kana":"オカヤマケン","city":"久米郡久米南町","city_kana":"クメグンクメナンチョウ","town":"上弓削","town_kana":"カミユゲ","prefecture_code":33},"3601":{"zip_code":"7093601","prefecture":"岡山県","prefecture_kana":"オカヤマケン","city":"久米郡久米南町","city_kana":"クメグンクメナンチョウ","town":"北庄","town_kana":"キタショウ","prefecture_code":33},"3634":{"zip_code":"7093634","prefecture":"岡山県","prefecture_kana":"オカヤマケン","city":"久米郡久米南町","city_kana":"クメグンクメナンチョウ","town":"京尾","town_kana":"キョウノオ","prefecture_code":33},"3627":{"zip_code":"7093627","prefecture":"岡山県","prefecture_kana":"オカヤマケン","city":"久米郡久米南町","city_kana":"クメグンクメナンチョウ","town":"神目中","town_kana":"コウメナカ","prefecture_code":33},"3602":{"zip_code":"7093602","prefecture":"岡山県","prefecture_kana":"オカヤマケン","city":"久米郡久米南町","city_kana":"クメグンクメナンチョウ","town":"里方","town_kana":"サトガタ","prefecture_code":33},"3605":{"zip_code":"7093605","prefecture":"岡山県","prefecture_kana":"オカヤマケン","city":"久米郡久米南町","city_kana":"クメグンクメナンチョウ","town":"塩之内","town_kana":"シオノウチ","prefecture_code":33},"3617":{"zip_code":"7093617","prefecture":"岡山県","prefecture_kana":"オカヤマケン","city":"久米郡久米南町","city_kana":"クメグンクメナンチョウ","town":"下二ケ","town_kana":"シモニカ","prefecture_code":33},"3624":{"zip_code":"7093624","prefecture":"岡山県","prefecture_kana":"オカヤマケン","city":"久米郡久米南町","city_kana":"クメグンクメナンチョウ","town":"下籾","town_kana":"シモモミ","prefecture_code":33},"3614":{"zip_code":"7093614","prefecture":"岡山県","prefecture_kana":"オカヤマケン","city":"久米郡久米南町","city_kana":"クメグンクメナンチョウ","town":"下弓削","town_kana":"シモユゲ","prefecture_code":33},"3633":{"zip_code":"7093633","prefecture":"岡山県","prefecture_kana":"オカヤマケン","city":"久米郡久米南町","city_kana":"クメグンクメナンチョウ","town":"峠","town_kana":"トウゲ","prefecture_code":33},"3623":{"zip_code":"7093623","prefecture":"岡山県","prefecture_kana":"オカヤマケン","city":"久米郡久米南町","city_kana":"クメグンクメナンチョウ","town":"中籾","town_kana":"ナカモミ","prefecture_code":33},"3613":{"zip_code":"7093613","prefecture":"岡山県","prefecture_kana":"オカヤマケン","city":"久米郡久米南町","city_kana":"クメグンクメナンチョウ","town":"西山寺","town_kana":"ニシヤマジ","prefecture_code":33},"3606":{"zip_code":"7093606","prefecture":"岡山県","prefecture_kana":"オカヤマケン","city":"久米郡久米南町","city_kana":"クメグンクメナンチョウ","town":"羽出木","town_kana":"ハデギ","prefecture_code":33},"3622":{"zip_code":"7093622","prefecture":"岡山県","prefecture_kana":"オカヤマケン","city":"久米郡久米南町","city_kana":"クメグンクメナンチョウ","town":"仏教寺","town_kana":"ブツキョウジ","prefecture_code":33},"3625":{"zip_code":"7093625","prefecture":"岡山県","prefecture_kana":"オカヤマケン","city":"久米郡久米南町","city_kana":"クメグンクメナンチョウ","town":"別所","town_kana":"ベッシヨ","prefecture_code":33},"3616":{"zip_code":"7093616","prefecture":"岡山県","prefecture_kana":"オカヤマケン","city":"久米郡久米南町","city_kana":"クメグンクメナンチョウ","town":"全間","town_kana":"マタマ","prefecture_code":33},"3611":{"zip_code":"7093611","prefecture":"岡山県","prefecture_kana":"オカヤマケン","city":"久米郡久米南町","city_kana":"クメグンクメナンチョウ","town":"松","town_kana":"マツ","prefecture_code":33},"3604":{"zip_code":"7093604","prefecture":"岡山県","prefecture_kana":"オカヤマケン","city":"久米郡久米南町","city_kana":"クメグンクメナンチョウ","town":"南庄","town_kana":"ミナミショウ","prefecture_code":33},"3635":{"zip_code":"7093635","prefecture":"岡山県","prefecture_kana":"オカヤマケン","city":"久米郡久米南町","city_kana":"クメグンクメナンチョウ","town":"南畑","town_kana":"ミナミハタ","prefecture_code":33},"3631":{"zip_code":"7093631","prefecture":"岡山県","prefecture_kana":"オカヤマケン","city":"久米郡久米南町","city_kana":"クメグンクメナンチョウ","town":"宮地","town_kana":"ミヤジ","prefecture_code":33},"3636":{"zip_code":"7093636","prefecture":"岡山県","prefecture_kana":"オカヤマケン","city":"久米郡久米南町","city_kana":"クメグンクメナンチョウ","town":"安ケ乢","town_kana":"ヤスガタワ","prefecture_code":33},"3632":{"zip_code":"7093632","prefecture":"岡山県","prefecture_kana":"オカヤマケン","city":"久米郡久米南町","city_kana":"クメグンクメナンチョウ","town":"山手","town_kana":"ヤマテ","prefecture_code":33},"3603":{"zip_code":"7093603","prefecture":"岡山県","prefecture_kana":"オカヤマケン","city":"久米郡久米南町","city_kana":"クメグンクメナンチョウ","town":"山ノ城","town_kana":"ヤマノジョウ","prefecture_code":33},"3700":{"zip_code":"7093700","prefecture":"岡山県","prefecture_kana":"オカヤマケン","city":"久米郡美咲町","city_kana":"クメグンミサキチョウ","town":"","town_kana":"","prefecture_code":33},"3411":{"zip_code":"7093411","prefecture":"岡山県","prefecture_kana":"オカヤマケン","city":"久米郡美咲町","city_kana":"クメグンミサキチョウ","town":"上口","town_kana":"ウエクチ","prefecture_code":33},"3705":{"zip_code":"7093705","prefecture":"岡山県","prefecture_kana":"オカヤマケン","city":"久米郡美咲町","city_kana":"クメグンミサキチョウ","town":"打穴上","town_kana":"ウタノカミ","prefecture_code":33},"3706":{"zip_code":"7093706","prefecture":"岡山県","prefecture_kana":"オカヤマケン","city":"久米郡美咲町","city_kana":"クメグンミサキチョウ","town":"打穴北","town_kana":"ウタノキタ","prefecture_code":33},"3704":{"zip_code":"7093704","prefecture":"岡山県","prefecture_kana":"オカヤマケン","city":"久米郡美咲町","city_kana":"クメグンミサキチョウ","town":"打穴里","town_kana":"ウタノサト","prefecture_code":33},"3702":{"zip_code":"7093702","prefecture":"岡山県","prefecture_kana":"オカヤマケン","city":"久米郡美咲町","city_kana":"クメグンミサキチョウ","town":"打穴下","town_kana":"ウタノシモ","prefecture_code":33},"3703":{"zip_code":"7093703","prefecture":"岡山県","prefecture_kana":"オカヤマケン","city":"久米郡美咲町","city_kana":"クメグンミサキチョウ","town":"打穴中","town_kana":"ウタノナカ","prefecture_code":33},"3707":{"zip_code":"7093707","prefecture":"岡山県","prefecture_kana":"オカヤマケン","city":"久米郡美咲町","city_kana":"クメグンミサキチョウ","town":"打穴西","town_kana":"ウタノニシ","prefecture_code":33},"3415":{"zip_code":"7093415","prefecture":"岡山県","prefecture_kana":"オカヤマケン","city":"久米郡美咲町","city_kana":"クメグンミサキチョウ","town":"江与味","town_kana":"エヨミ","prefecture_code":33},"3726":{"zip_code":"7093726","prefecture":"岡山県","prefecture_kana":"オカヤマケン","city":"久米郡美咲町","city_kana":"クメグンミサキチョウ","town":"大垪和西","town_kana":"オオハガニシ","prefecture_code":33},"3722":{"zip_code":"7093722","prefecture":"岡山県","prefecture_kana":"オカヤマケン","city":"久米郡美咲町","city_kana":"クメグンミサキチョウ","town":"大垪和東","town_kana":"オオハガヒガシ","prefecture_code":33},"3714":{"zip_code":"7093714","prefecture":"岡山県","prefecture_kana":"オカヤマケン","city":"久米郡美咲町","city_kana":"クメグンミサキチョウ","town":"小原","town_kana":"オバラ","prefecture_code":33},"3712":{"zip_code":"7093712","prefecture":"岡山県","prefecture_kana":"オカヤマケン","city":"久米郡美咲町","city_kana":"クメグンミサキチョウ","town":"金堀","town_kana":"カナボリ","prefecture_code":33},"3401":{"zip_code":"7093401","prefecture":"岡山県","prefecture_kana":"オカヤマケン","city":"久米郡美咲町","city_kana":"クメグンミサキチョウ","town":"北","town_kana":"キタ","prefecture_code":33},"3412":{"zip_code":"7093412","prefecture":"岡山県","prefecture_kana":"オカヤマケン","city":"久米郡美咲町","city_kana":"クメグンミサキチョウ","town":"小山","town_kana":"コヤマ","prefecture_code":33},"3711":{"zip_code":"7093711","prefecture":"岡山県","prefecture_kana":"オカヤマケン","city":"久米郡美咲町","city_kana":"クメグンミサキチョウ","town":"越尾","town_kana":"コヨオ","prefecture_code":33},"3715":{"zip_code":"7093715","prefecture":"岡山県","prefecture_kana":"オカヤマケン","city":"久米郡美咲町","city_kana":"クメグンミサキチョウ","town":"西幸","town_kana":"サイコウ","prefecture_code":33},"3723":{"zip_code":"7093723","prefecture":"岡山県","prefecture_kana":"オカヤマケン","city":"久米郡美咲町","city_kana":"クメグンミサキチョウ","town":"境","town_kana":"サカイ","prefecture_code":33},"3403":{"zip_code":"7093403","prefecture":"岡山県","prefecture_kana":"オカヤマケン","city":"久米郡美咲町","city_kana":"クメグンミサキチョウ","town":"里","town_kana":"サト","prefecture_code":33},"3713":{"zip_code":"7093713","prefecture":"岡山県","prefecture_kana":"オカヤマケン","city":"久米郡美咲町","city_kana":"クメグンミサキチョウ","town":"新城","town_kana":"シンジョウ","prefecture_code":33},"3724":{"zip_code":"7093724","prefecture":"岡山県","prefecture_kana":"オカヤマケン","city":"久米郡美咲町","city_kana":"クメグンミサキチョウ","town":"角石祖母","town_kana":"ツイシソボ","prefecture_code":33},"3413":{"zip_code":"7093413","prefecture":"岡山県","prefecture_kana":"オカヤマケン","city":"久米郡美咲町","city_kana":"クメグンミサキチョウ","town":"栃原","town_kana":"トチバラ","prefecture_code":33},"3407":{"zip_code":"7093407","prefecture":"岡山県","prefecture_kana":"オカヤマケン","city":"久米郡美咲町","city_kana":"クメグンミサキチョウ","town":"中","town_kana":"ナカ","prefecture_code":33},"3417":{"zip_code":"7093417","prefecture":"岡山県","prefecture_kana":"オカヤマケン","city":"久米郡美咲町","city_kana":"クメグンミサキチョウ","town":"中垪和","town_kana":"ナカハガ","prefecture_code":33},"3405":{"zip_code":"7093405","prefecture":"岡山県","prefecture_kana":"オカヤマケン","city":"久米郡美咲町","city_kana":"クメグンミサキチョウ","town":"西","town_kana":"ニシ","prefecture_code":33},"3404":{"zip_code":"7093404","prefecture":"岡山県","prefecture_kana":"オカヤマケン","city":"久米郡美咲町","city_kana":"クメグンミサキチョウ","town":"西川","town_kana":"ニシガワ","prefecture_code":33},"3406":{"zip_code":"7093406","prefecture":"岡山県","prefecture_kana":"オカヤマケン","city":"久米郡美咲町","city_kana":"クメグンミサキチョウ","town":"西川上","town_kana":"ニシガワカミ","prefecture_code":33},"3701":{"zip_code":"7093701","prefecture":"岡山県","prefecture_kana":"オカヤマケン","city":"久米郡美咲町","city_kana":"クメグンミサキチョウ","town":"錦織","town_kana":"ニシコリ","prefecture_code":33},"3414":{"zip_code":"7093414","prefecture":"岡山県","prefecture_kana":"オカヤマケン","city":"久米郡美咲町","city_kana":"クメグンミサキチョウ","town":"西垪和","town_kana":"ニシハガ","prefecture_code":33},"3717":{"zip_code":"7093717","prefecture":"岡山県","prefecture_kana":"オカヤマケン","city":"久米郡美咲町","city_kana":"クメグンミサキチョウ","town":"原田","town_kana":"ハラダ","prefecture_code":33},"3416":{"zip_code":"7093416","prefecture":"岡山県","prefecture_kana":"オカヤマケン","city":"久米郡美咲町","city_kana":"クメグンミサキチョウ","town":"東垪和","town_kana":"ヒガシハガ","prefecture_code":33},"3402":{"zip_code":"7093402","prefecture":"岡山県","prefecture_kana":"オカヤマケン","city":"久米郡美咲町","city_kana":"クメグンミサキチョウ","town":"南","town_kana":"ミナミ","prefecture_code":33},"3716":{"zip_code":"7093716","prefecture":"岡山県","prefecture_kana":"オカヤマケン","city":"久米郡美咲町","city_kana":"クメグンミサキチョウ","town":"頼元","town_kana":"ヨリモト","prefecture_code":33},"3721":{"zip_code":"7093721","prefecture":"岡山県","prefecture_kana":"オカヤマケン","city":"久米郡美咲町","city_kana":"クメグンミサキチョウ","town":"両山寺","town_kana":"リョウサンジ","prefecture_code":33},"3725":{"zip_code":"7093725","prefecture":"岡山県","prefecture_kana":"オカヤマケン","city":"久米郡美咲町","city_kana":"クメグンミサキチョウ","town":"和田北","town_kana":"ワダキタ","prefecture_code":33},"2672":{"zip_code":"7092672","prefecture":"岡山県","prefecture_kana":"オカヤマケン","city":"加賀郡吉備中央町","city_kana":"カガグンキビチュウオウチョウ","town":"粟井谷","town_kana":"アワイタニ","prefecture_code":33},"2403":{"zip_code":"7092403","prefecture":"岡山県","prefecture_kana":"オカヤマケン","city":"加賀郡吉備中央町","city_kana":"カガグンキビチュウオウチョウ","town":"案田","town_kana":"アンダ","prefecture_code":33},"2552":{"zip_code":"7092552","prefecture":"岡山県","prefecture_kana":"オカヤマケン","city":"加賀郡吉備中央町","city_kana":"カガグンキビチュウオウチョウ","town":"井原","town_kana":"イハラ","prefecture_code":33},"2413":{"zip_code":"7092413","prefecture":"岡山県","prefecture_kana":"オカヤマケン","city":"加賀郡吉備中央町","city_kana":"カガグンキビチュウオウチョウ","town":"上田西","town_kana":"ウエダニシ","prefecture_code":33},"2411":{"zip_code":"7092411","prefecture":"岡山県","prefecture_kana":"オカヤマケン","city":"加賀郡吉備中央町","city_kana":"カガグンキビチュウオウチョウ","town":"上田東","town_kana":"ウエダヒガシ","prefecture_code":33},"2344":{"zip_code":"7092344","prefecture":"岡山県","prefecture_kana":"オカヤマケン","city":"加賀郡吉備中央町","city_kana":"カガグンキビチュウオウチョウ","town":"上野","town_kana":"ウエノ","prefecture_code":33},"2412":{"zip_code":"7092412","prefecture":"岡山県","prefecture_kana":"オカヤマケン","city":"加賀郡吉備中央町","city_kana":"カガグンキビチュウオウチョウ","town":"円城","town_kana":"エンジョウ","prefecture_code":33},"2663":{"zip_code":"7092663","prefecture":"岡山県","prefecture_kana":"オカヤマケン","city":"加賀郡吉備中央町","city_kana":"カガグンキビチュウオウチョウ","town":"大木","town_kana":"オオギ","prefecture_code":33},"2673":{"zip_code":"7092673","prefecture":"岡山県","prefecture_kana":"オカヤマケン","city":"加賀郡吉備中央町","city_kana":"カガグンキビチュウオウチョウ","town":"尾原","town_kana":"オバラ","prefecture_code":33},"2341":{"zip_code":"7092341","prefecture":"岡山県","prefecture_kana":"オカヤマケン","city":"加賀郡吉備中央町","city_kana":"カガグンキビチュウオウチョウ","town":"上加茂","town_kana":"カミガモ","prefecture_code":33},"2333":{"zip_code":"7092333","prefecture":"岡山県","prefecture_kana":"オカヤマケン","city":"加賀郡吉備中央町","city_kana":"カガグンキビチュウオウチョウ","town":"加茂市場","town_kana":"カモイチバ","prefecture_code":33},"2401":{"zip_code":"7092401","prefecture":"岡山県","prefecture_kana":"オカヤマケン","city":"加賀郡吉備中央町","city_kana":"カガグンキビチュウオウチョウ","town":"神瀬","town_kana":"カンセ","prefecture_code":33},"2404":{"zip_code":"7092404","prefecture":"岡山県","prefecture_kana":"オカヤマケン","city":"加賀郡吉備中央町","city_kana":"カガグンキビチュウオウチョウ","town":"小森","town_kana":"コモリ","prefecture_code":33},"2674":{"zip_code":"7092674","prefecture":"岡山県","prefecture_kana":"オカヤマケン","city":"加賀郡吉備中央町","city_kana":"カガグンキビチュウオウチョウ","town":"笹目","town_kana":"ササメ","prefecture_code":33},"2331":{"zip_code":"7092331","prefecture":"岡山県","prefecture_kana":"オカヤマケン","city":"加賀郡吉備中央町","city_kana":"カガグンキビチュウオウチョウ","town":"下加茂","town_kana":"シモガモ","prefecture_code":33},"2551":{"zip_code":"7092551","prefecture":"岡山県","prefecture_kana":"オカヤマケン","city":"加賀郡吉備中央町","city_kana":"カガグンキビチュウオウチョウ","town":"下土井","town_kana":"シモドイ","prefecture_code":33},"2671":{"zip_code":"7092671","prefecture":"岡山県","prefecture_kana":"オカヤマケン","city":"加賀郡吉備中央町","city_kana":"カガグンキビチュウオウチョウ","town":"杉谷","town_kana":"スギタニ","prefecture_code":33},"2402":{"zip_code":"7092402","prefecture":"岡山県","prefecture_kana":"オカヤマケン","city":"加賀郡吉備中央町","city_kana":"カガグンキビチュウオウチョウ","town":"高富","town_kana":"タカトミ","prefecture_code":33},"2332":{"zip_code":"7092332","prefecture":"岡山県","prefecture_kana":"オカヤマケン","city":"加賀郡吉備中央町","city_kana":"カガグンキビチュウオウチョウ","town":"高谷","town_kana":"タカヤ","prefecture_code":33},"2343":{"zip_code":"7092343","prefecture":"岡山県","prefecture_kana":"オカヤマケン","city":"加賀郡吉備中央町","city_kana":"カガグンキビチュウオウチョウ","town":"竹部","town_kana":"タケベ","prefecture_code":33},"2553":{"zip_code":"7092553","prefecture":"岡山県","prefecture_kana":"オカヤマケン","city":"加賀郡吉備中央町","city_kana":"カガグンキビチュウオウチョウ","town":"富永","town_kana":"トミナガ","prefecture_code":33},"2664":{"zip_code":"7092664","prefecture":"岡山県","prefecture_kana":"オカヤマケン","city":"加賀郡吉備中央町","city_kana":"カガグンキビチュウオウチョウ","town":"豊岡上","town_kana":"トヨオカカミ","prefecture_code":33},"2661":{"zip_code":"7092661","prefecture":"岡山県","prefecture_kana":"オカヤマケン","city":"加賀郡吉備中央町","city_kana":"カガグンキビチュウオウチョウ","town":"豊岡下","town_kana":"トヨオカシモ","prefecture_code":33},"2345":{"zip_code":"7092345","prefecture":"岡山県","prefecture_kana":"オカヤマケン","city":"加賀郡吉備中央町","city_kana":"カガグンキビチュウオウチョウ","town":"平岡","town_kana":"ヒラオカ","prefecture_code":33},"2342":{"zip_code":"7092342","prefecture":"岡山県","prefecture_kana":"オカヤマケン","city":"加賀郡吉備中央町","city_kana":"カガグンキビチュウオウチョウ","town":"広面","town_kana":"ヒロモ","prefecture_code":33},"2675":{"zip_code":"7092675","prefecture":"岡山県","prefecture_kana":"オカヤマケン","city":"加賀郡吉備中央町","city_kana":"カガグンキビチュウオウチョウ","town":"福沢","town_kana":"フクザワ","prefecture_code":33},"2421":{"zip_code":"7092421","prefecture":"岡山県","prefecture_kana":"オカヤマケン","city":"加賀郡吉備中央町","city_kana":"カガグンキビチュウオウチョウ","town":"細田","town_kana":"ホソダ","prefecture_code":33},"2676":{"zip_code":"7092676","prefecture":"岡山県","prefecture_kana":"オカヤマケン","city":"加賀郡吉備中央町","city_kana":"カガグンキビチュウオウチョウ","town":"溝部","town_kana":"ミゾベ","prefecture_code":33},"2662":{"zip_code":"7092662","prefecture":"岡山県","prefecture_kana":"オカヤマケン","city":"加賀郡吉備中央町","city_kana":"カガグンキビチュウオウチョウ","town":"三谷","town_kana":"ミタニ","prefecture_code":33},"2422":{"zip_code":"7092422","prefecture":"岡山県","prefecture_kana":"オカヤマケン","city":"加賀郡吉備中央町","city_kana":"カガグンキビチュウオウチョウ","town":"三納谷","town_kana":"ミノウタニ","prefecture_code":33},"2334":{"zip_code":"7092334","prefecture":"岡山県","prefecture_kana":"オカヤマケン","city":"加賀郡吉備中央町","city_kana":"カガグンキビチュウオウチョウ","town":"美原","town_kana":"ミハラ","prefecture_code":33},"2554":{"zip_code":"7092554","prefecture":"岡山県","prefecture_kana":"オカヤマケン","city":"加賀郡吉備中央町","city_kana":"カガグンキビチュウオウチョウ","town":"和田","town_kana":"ワダ","prefecture_code":33}}