{"0151":{"zip_code":"7100151","prefecture":"岡山県","prefecture_kana":"オカヤマケン","city":"岡山市南区","city_kana":"オカヤマシミナミク","town":"植松","town_kana":"ウエマツ","prefecture_code":33},"0000":{"zip_code":"7100000","prefecture":"岡山県","prefecture_kana":"オカヤマケン","city":"倉敷市","city_kana":"クラシキシ","town":"","town_kana":"","prefecture_code":33},"0064":{"zip_code":"7100064","prefecture":"岡山県","prefecture_kana":"オカヤマケン","city":"倉敷市","city_kana":"クラシキシ","town":"青江","town_kana":"アオエ","prefecture_code":33},"0007":{"zip_code":"7100007","prefecture":"岡山県","prefecture_kana":"オカヤマケン","city":"倉敷市","city_kana":"クラシキシ","town":"浅原","town_kana":"アサバラ","prefecture_code":33},"0055":{"zip_code":"7100055","prefecture":"岡山県","prefecture_kana":"オカヤマケン","city":"倉敷市","city_kana":"クラシキシ","town":"阿知","town_kana":"アチ","prefecture_code":33},"0131":{"zip_code":"7100131","prefecture":"岡山県","prefecture_kana":"オカヤマケン","city":"倉敷市","city_kana":"クラシキシ","town":"天城台","town_kana":"アマキダイ","prefecture_code":33},"0031":{"zip_code":"7100031","prefecture":"岡山県","prefecture_kana":"オカヤマケン","city":"倉敷市","city_kana":"クラシキシ","town":"有城","town_kana":"アルキ","prefecture_code":33},"0002":{"zip_code":"7100002","prefecture":"岡山県","prefecture_kana":"オカヤマケン","city":"倉敷市","city_kana":"クラシキシ","town":"生坂","town_kana":"イクサカ","prefecture_code":33},"0041":{"zip_code":"7100041","prefecture":"岡山県","prefecture_kana":"オカヤマケン","city":"倉敷市","city_kana":"クラシキシ","town":"五日市","town_kana":"イツカイチ","prefecture_code":33},"0822":{"zip_code":"7100822","prefecture":"岡山県","prefecture_kana":"オカヤマケン","city":"倉敷市","city_kana":"クラシキシ","town":"稲荷町","town_kana":"イナリマチ","prefecture_code":33},"0814":{"zip_code":"7100814","prefecture":"岡山県","prefecture_kana":"オカヤマケン","city":"倉敷市","city_kana":"クラシキシ","town":"石見町","town_kana":"イワミチョウ","prefecture_code":33},"0843":{"zip_code":"7100843","prefecture":"岡山県","prefecture_kana":"オカヤマケン","city":"倉敷市","city_kana":"クラシキシ","town":"浦田","town_kana":"ウラダ","prefecture_code":33},"0826":{"zip_code":"7100826","prefecture":"岡山県","prefecture_kana":"オカヤマケン","city":"倉敷市","city_kana":"クラシキシ","town":"老松町","town_kana":"オイマツチョウ","prefecture_code":33},"0817":{"zip_code":"7100817","prefecture":"岡山県","prefecture_kana":"オカヤマケン","city":"倉敷市","city_kana":"クラシキシ","town":"大内","town_kana":"オオウチ","prefecture_code":33},"0047":{"zip_code":"7100047","prefecture":"岡山県","prefecture_kana":"オカヤマケン","city":"倉敷市","city_kana":"クラシキシ","town":"大島","town_kana":"オオジマ","prefecture_code":33},"0836":{"zip_code":"7100836","prefecture":"岡山県","prefecture_kana":"オカヤマケン","city":"倉敷市","city_kana":"クラシキシ","town":"沖","town_kana":"オキ","prefecture_code":33},"0837":{"zip_code":"7100837","prefecture":"岡山県","prefecture_kana":"オカヤマケン","city":"倉敷市","city_kana":"クラシキシ","town":"沖新町","town_kana":"オキシンマチ","prefecture_code":33},"0144":{"zip_code":"7100144","prefecture":"岡山県","prefecture_kana":"オカヤマケン","city":"倉敷市","city_kana":"クラシキシ","town":"尾原","town_kana":"オバラ","prefecture_code":33},"0023":{"zip_code":"7100023","prefecture":"岡山県","prefecture_kana":"オカヤマケン","city":"倉敷市","city_kana":"クラシキシ","town":"帯高","town_kana":"オビタカ","prefecture_code":33},"0026":{"zip_code":"7100026","prefecture":"岡山県","prefecture_kana":"オカヤマケン","city":"倉敷市","city_kana":"クラシキシ","town":"加須山","town_kana":"カスヤマ","prefecture_code":33},"0805":{"zip_code":"7100805","prefecture":"岡山県","prefecture_kana":"オカヤマケン","city":"倉敷市","city_kana":"クラシキシ","town":"片島町","town_kana":"カタシマチョウ","prefecture_code":33},"0846":{"zip_code":"7100846","prefecture":"岡山県","prefecture_kana":"オカヤマケン","city":"倉敷市","city_kana":"クラシキシ","town":"上富井","town_kana":"カミトミイ","prefecture_code":33},"0024":{"zip_code":"7100024","prefecture":"岡山県","prefecture_kana":"オカヤマケン","city":"倉敷市","city_kana":"クラシキシ","town":"亀山","town_kana":"カメヤマ","prefecture_code":33},"0811":{"zip_code":"7100811","prefecture":"岡山県","prefecture_kana":"オカヤマケン","city":"倉敷市","city_kana":"クラシキシ","town":"川入","town_kana":"カワイリ","prefecture_code":33},"0821":{"zip_code":"7100821","prefecture":"岡山県","prefecture_kana":"オカヤマケン","city":"倉敷市","city_kana":"クラシキシ","town":"川西町","town_kana":"カワニシマチ","prefecture_code":33},"0812":{"zip_code":"7100812","prefecture":"岡山県","prefecture_kana":"オカヤマケン","city":"倉敷市","city_kana":"クラシキシ","town":"北浜町","town_kana":"キタハマチョウ","prefecture_code":33},"0143":{"zip_code":"7100143","prefecture":"岡山県","prefecture_kana":"オカヤマケン","city":"倉敷市","city_kana":"クラシキシ","town":"木見","town_kana":"キミ","prefecture_code":33},"0141":{"zip_code":"7100141","prefecture":"岡山県","prefecture_kana":"オカヤマケン","city":"倉敷市","city_kana":"クラシキシ","town":"串田","town_kana":"クシダ","prefecture_code":33},"0025":{"zip_code":"7100025","prefecture":"岡山県","prefecture_kana":"オカヤマケン","city":"倉敷市","city_kana":"クラシキシ","town":"倉敷ハイツ","town_kana":"クラシキハイツ","prefecture_code":33},"0035":{"zip_code":"7100035","prefecture":"岡山県","prefecture_kana":"オカヤマケン","city":"倉敷市","city_kana":"クラシキシ","town":"黒石","town_kana":"クロイシ","prefecture_code":33},"0014":{"zip_code":"7100014","prefecture":"岡山県","prefecture_kana":"オカヤマケン","city":"倉敷市","city_kana":"クラシキシ","town":"黒崎","town_kana":"クロサキ","prefecture_code":33},"0813":{"zip_code":"7100813","prefecture":"岡山県","prefecture_kana":"オカヤマケン","city":"倉敷市","city_kana":"クラシキシ","town":"寿町","town_kana":"コトブキチョウ","prefecture_code":33},"0051":{"zip_code":"7100051","prefecture":"岡山県","prefecture_kana":"オカヤマケン","city":"倉敷市","city_kana":"クラシキシ","town":"幸町","town_kana":"サイワイチョウ","prefecture_code":33},"0801":{"zip_code":"7100801","prefecture":"岡山県","prefecture_kana":"オカヤマケン","city":"倉敷市","city_kana":"クラシキシ","town":"酒津","town_kana":"サカヅ","prefecture_code":33},"0834":{"zip_code":"7100834","prefecture":"岡山県","prefecture_kana":"オカヤマケン","city":"倉敷市","city_kana":"クラシキシ","town":"笹沖","town_kana":"ササオキ","prefecture_code":33},"0835":{"zip_code":"7100835","prefecture":"岡山県","prefecture_kana":"オカヤマケン","city":"倉敷市","city_kana":"クラシキシ","town":"四十瀬","town_kana":"シジュウセ","prefecture_code":33},"0057":{"zip_code":"7100057","prefecture":"岡山県","prefecture_kana":"オカヤマケン","city":"倉敷市","city_kana":"クラシキシ","town":"昭和","town_kana":"ショウワ","prefecture_code":33},"0253":{"zip_code":"7100253","prefecture":"岡山県","prefecture_kana":"オカヤマケン","city":"倉敷市","city_kana":"クラシキシ","town":"新倉敷駅前","town_kana":"シンクラシキエキマエ","prefecture_code":33},"0038":{"zip_code":"7100038","prefecture":"岡山県","prefecture_kana":"オカヤマケン","city":"倉敷市","city_kana":"クラシキシ","town":"新田","town_kana":"シンデン","prefecture_code":33},"0006":{"zip_code":"7100006","prefecture":"岡山県","prefecture_kana":"オカヤマケン","city":"倉敷市","city_kana":"クラシキシ","town":"祐安","town_kana":"スケヤス","prefecture_code":33},"0146":{"zip_code":"7100146","prefecture":"岡山県","prefecture_kana":"オカヤマケン","city":"倉敷市","city_kana":"クラシキシ","town":"曽原","town_kana":"ソバラ","prefecture_code":33},"0021":{"zip_code":"7100021","prefecture":"岡山県","prefecture_kana":"オカヤマケン","city":"倉敷市","city_kana":"クラシキシ","town":"高須賀","town_kana":"タカスカ","prefecture_code":33},"0831":{"zip_code":"7100831","prefecture":"岡山県","prefecture_kana":"オカヤマケン","city":"倉敷市","city_kana":"クラシキシ","town":"田ノ上","town_kana":"タノウエ","prefecture_code":33},"0832":{"zip_code":"7100832","prefecture":"岡山県","prefecture_kana":"オカヤマケン","city":"倉敷市","city_kana":"クラシキシ","town":"田ノ上新町","town_kana":"タノウエシンマチ","prefecture_code":33},"0252":{"zip_code":"7100252","prefecture":"岡山県","prefecture_kana":"オカヤマケン","city":"倉敷市","city_kana":"クラシキシ","town":"玉島爪崎","town_kana":"タマシマツマサキ","prefecture_code":33},"0251":{"zip_code":"7100251","prefecture":"岡山県","prefecture_kana":"オカヤマケン","city":"倉敷市","city_kana":"クラシキシ","town":"玉島長尾","town_kana":"タマシマナガオ","prefecture_code":33},"1101":{"zip_code":"7101101","prefecture":"岡山県","prefecture_kana":"オカヤマケン","city":"倉敷市","city_kana":"クラシキシ","town":"茶屋町","town_kana":"チャヤマチ","prefecture_code":33},"1102":{"zip_code":"7101102","prefecture":"岡山県","prefecture_kana":"オカヤマケン","city":"倉敷市","city_kana":"クラシキシ","town":"茶屋町早沖","town_kana":"チャヤマチハヤオキ","prefecture_code":33},"0046":{"zip_code":"7100046","prefecture":"岡山県","prefecture_kana":"オカヤマケン","city":"倉敷市","city_kana":"クラシキシ","town":"中央","town_kana":"チュウオウ","prefecture_code":33},"0036":{"zip_code":"7100036","prefecture":"岡山県","prefecture_kana":"オカヤマケン","city":"倉敷市","city_kana":"クラシキシ","town":"粒浦","town_kana":"ツブウラ","prefecture_code":33},"0034":{"zip_code":"7100034","prefecture":"岡山県","prefecture_kana":"オカヤマケン","city":"倉敷市","city_kana":"クラシキシ","town":"粒江","town_kana":"ツブエ","prefecture_code":33},"0033":{"zip_code":"7100033","prefecture":"岡山県","prefecture_kana":"オカヤマケン","city":"倉敷市","city_kana":"クラシキシ","town":"粒江団地","town_kana":"ツブエダンチ","prefecture_code":33},"0056":{"zip_code":"7100056","prefecture":"岡山県","prefecture_kana":"オカヤマケン","city":"倉敷市","city_kana":"クラシキシ","town":"鶴形","town_kana":"ツルガタ","prefecture_code":33},"0011":{"zip_code":"7100011","prefecture":"岡山県","prefecture_kana":"オカヤマケン","city":"倉敷市","city_kana":"クラシキシ","town":"徳芳","town_kana":"トクボウ","prefecture_code":33},"0012":{"zip_code":"7100012","prefecture":"岡山県","prefecture_kana":"オカヤマケン","city":"倉敷市","city_kana":"クラシキシ","town":"鳥羽","town_kana":"トバ","prefecture_code":33},"0013":{"zip_code":"7100013","prefecture":"岡山県","prefecture_kana":"オカヤマケン","city":"倉敷市","city_kana":"クラシキシ","town":"中帯江","town_kana":"ナカオビエ","prefecture_code":33},"0803":{"zip_code":"7100803","prefecture":"岡山県","prefecture_kana":"オカヤマケン","city":"倉敷市","city_kana":"クラシキシ","town":"中島","town_kana":"ナカシマ","prefecture_code":33},"0016":{"zip_code":"7100016","prefecture":"岡山県","prefecture_kana":"オカヤマケン","city":"倉敷市","city_kana":"クラシキシ","town":"中庄","town_kana":"ナカショウ","prefecture_code":33},"0015":{"zip_code":"7100015","prefecture":"岡山県","prefecture_kana":"オカヤマケン","city":"倉敷市","city_kana":"クラシキシ","town":"中庄団地","town_kana":"ナカショウダンチ","prefecture_code":33},"0807":{"zip_code":"7100807","prefecture":"岡山県","prefecture_kana":"オカヤマケン","city":"倉敷市","city_kana":"クラシキシ","town":"西阿知町","town_kana":"ニシアチチョウ","prefecture_code":33},"0804":{"zip_code":"7100804","prefecture":"岡山県","prefecture_kana":"オカヤマケン","city":"倉敷市","city_kana":"クラシキシ","town":"西阿知町新田","town_kana":"ニシアチチョウシンデン","prefecture_code":33},"0806":{"zip_code":"7100806","prefecture":"岡山県","prefecture_kana":"オカヤマケン","city":"倉敷市","city_kana":"クラシキシ","town":"西阿知町西原","town_kana":"ニシアチチョウニシバラ","prefecture_code":33},"0005":{"zip_code":"7100005","prefecture":"岡山県","prefecture_kana":"オカヤマケン","city":"倉敷市","city_kana":"クラシキシ","town":"西岡","town_kana":"ニシオカ","prefecture_code":33},"0004":{"zip_code":"7100004","prefecture":"岡山県","prefecture_kana":"オカヤマケン","city":"倉敷市","city_kana":"クラシキシ","town":"西坂","town_kana":"ニシザカ","prefecture_code":33},"0027":{"zip_code":"7100027","prefecture":"岡山県","prefecture_kana":"オカヤマケン","city":"倉敷市","city_kana":"クラシキシ","town":"西田","town_kana":"ニシダ","prefecture_code":33},"0845":{"zip_code":"7100845","prefecture":"岡山県","prefecture_kana":"オカヤマケン","city":"倉敷市","city_kana":"クラシキシ","town":"西富井","town_kana":"ニシトミイ","prefecture_code":33},"0833":{"zip_code":"7100833","prefecture":"岡山県","prefecture_kana":"オカヤマケン","city":"倉敷市","city_kana":"クラシキシ","town":"西中新田","town_kana":"ニシナカシンデン","prefecture_code":33},"0824":{"zip_code":"7100824","prefecture":"岡山県","prefecture_kana":"オカヤマケン","city":"倉敷市","city_kana":"クラシキシ","town":"白楽町","town_kana":"バクロチョウ","prefecture_code":33},"0043":{"zip_code":"7100043","prefecture":"岡山県","prefecture_kana":"オカヤマケン","city":"倉敷市","city_kana":"クラシキシ","town":"羽島","town_kana":"ハシマ","prefecture_code":33},"0816":{"zip_code":"7100816","prefecture":"岡山県","prefecture_kana":"オカヤマケン","city":"倉敷市","city_kana":"クラシキシ","town":"八王寺町","town_kana":"ハチオウジチョウ","prefecture_code":33},"0037":{"zip_code":"7100037","prefecture":"岡山県","prefecture_kana":"オカヤマケン","city":"倉敷市","city_kana":"クラシキシ","town":"八軒屋","town_kana":"ハチケンヤ","prefecture_code":33},"0061":{"zip_code":"7100061","prefecture":"岡山県","prefecture_kana":"オカヤマケン","city":"倉敷市","city_kana":"クラシキシ","town":"浜ノ茶屋","town_kana":"ハマノチャヤ","prefecture_code":33},"0062":{"zip_code":"7100062","prefecture":"岡山県","prefecture_kana":"オカヤマケン","city":"倉敷市","city_kana":"クラシキシ","town":"浜町","town_kana":"ハママチ","prefecture_code":33},"0142":{"zip_code":"7100142","prefecture":"岡山県","prefecture_kana":"オカヤマケン","city":"倉敷市","city_kana":"クラシキシ","town":"林","town_kana":"ハヤシ","prefecture_code":33},"0022":{"zip_code":"7100022","prefecture":"岡山県","prefecture_kana":"オカヤマケン","city":"倉敷市","city_kana":"クラシキシ","town":"早高","town_kana":"ハヤタカ","prefecture_code":33},"0032":{"zip_code":"7100032","prefecture":"岡山県","prefecture_kana":"オカヤマケン","city":"倉敷市","city_kana":"クラシキシ","town":"東粒浦","town_kana":"ヒガシツブウラ","prefecture_code":33},"0847":{"zip_code":"7100847","prefecture":"岡山県","prefecture_kana":"オカヤマケン","city":"倉敷市","city_kana":"クラシキシ","town":"東富井","town_kana":"ヒガシトミイ","prefecture_code":33},"0053":{"zip_code":"7100053","prefecture":"岡山県","prefecture_kana":"オカヤマケン","city":"倉敷市","city_kana":"クラシキシ","town":"東町","town_kana":"ヒガシマチ","prefecture_code":33},"0063":{"zip_code":"7100063","prefecture":"岡山県","prefecture_kana":"オカヤマケン","city":"倉敷市","city_kana":"クラシキシ","town":"日ノ出町","town_kana":"ヒノデチョウ","prefecture_code":33},"0815":{"zip_code":"7100815","prefecture":"岡山県","prefecture_kana":"オカヤマケン","city":"倉敷市","city_kana":"クラシキシ","town":"日吉町","town_kana":"ヒヨセチョウ","prefecture_code":33},"0003":{"zip_code":"7100003","prefecture":"岡山県","prefecture_kana":"オカヤマケン","city":"倉敷市","city_kana":"クラシキシ","town":"平田","town_kana":"ヒラタ","prefecture_code":33},"0844":{"zip_code":"7100844","prefecture":"岡山県","prefecture_kana":"オカヤマケン","city":"倉敷市","city_kana":"クラシキシ","town":"福井","town_kana":"フクイ","prefecture_code":33},"0145":{"zip_code":"7100145","prefecture":"岡山県","prefecture_kana":"オカヤマケン","city":"倉敷市","city_kana":"クラシキシ","town":"福江","town_kana":"フクエ","prefecture_code":33},"0048":{"zip_code":"7100048","prefecture":"岡山県","prefecture_kana":"オカヤマケン","city":"倉敷市","city_kana":"クラシキシ","town":"福島","town_kana":"フクシマ","prefecture_code":33},"0132":{"zip_code":"7100132","prefecture":"岡山県","prefecture_kana":"オカヤマケン","city":"倉敷市","city_kana":"クラシキシ","town":"藤戸町天城","town_kana":"フジトチョウアマキ","prefecture_code":33},"0133":{"zip_code":"7100133","prefecture":"岡山県","prefecture_kana":"オカヤマケン","city":"倉敷市","city_kana":"クラシキシ","town":"藤戸町藤戸","town_kana":"フジトチョウフジト","prefecture_code":33},"0042":{"zip_code":"7100042","prefecture":"岡山県","prefecture_kana":"オカヤマケン","city":"倉敷市","city_kana":"クラシキシ","town":"二日市","town_kana":"フツカイチ","prefecture_code":33},"0261":{"zip_code":"7100261","prefecture":"岡山県","prefecture_kana":"オカヤマケン","city":"倉敷市","city_kana":"クラシキシ","town":"船穂町船穂","town_kana":"フナオチョウフナオ","prefecture_code":33},"0262":{"zip_code":"7100262","prefecture":"岡山県","prefecture_kana":"オカヤマケン","city":"倉敷市","city_kana":"クラシキシ","town":"船穂町水江","town_kana":"フナオチョウミズエ","prefecture_code":33},"0263":{"zip_code":"7100263","prefecture":"岡山県","prefecture_kana":"オカヤマケン","city":"倉敷市","city_kana":"クラシキシ","town":"船穂町柳井原","town_kana":"フナオチョウヤナイハラ","prefecture_code":33},"0045":{"zip_code":"7100045","prefecture":"岡山県","prefecture_kana":"オカヤマケン","city":"倉敷市","city_kana":"クラシキシ","town":"船倉町","town_kana":"フナグラチョウ","prefecture_code":33},"0841":{"zip_code":"7100841","prefecture":"岡山県","prefecture_kana":"オカヤマケン","city":"倉敷市","city_kana":"クラシキシ","town":"堀南","town_kana":"ホリナン","prefecture_code":33},"0054":{"zip_code":"7100054","prefecture":"岡山県","prefecture_kana":"オカヤマケン","city":"倉敷市","city_kana":"クラシキシ","town":"本町","town_kana":"ホンマチ","prefecture_code":33},"1306":{"zip_code":"7101306","prefecture":"岡山県","prefecture_kana":"オカヤマケン","city":"倉敷市","city_kana":"クラシキシ","town":"真備町有井","town_kana":"マビチョウアリイ","prefecture_code":33},"1305":{"zip_code":"7101305","prefecture":"岡山県","prefecture_kana":"オカヤマケン","city":"倉敷市","city_kana":"クラシキシ","town":"真備町市場","town_kana":"マビチョウイチバ","prefecture_code":33},"1311":{"zip_code":"7101311","prefecture":"岡山県","prefecture_kana":"オカヤマケン","city":"倉敷市","city_kana":"クラシキシ","town":"真備町岡田","town_kana":"マビチョウオカダ","prefecture_code":33},"1304":{"zip_code":"7101304","prefecture":"岡山県","prefecture_kana":"オカヤマケン","city":"倉敷市","city_kana":"クラシキシ","town":"真備町尾崎","town_kana":"マビチョウオサキ","prefecture_code":33},"1315":{"zip_code":"7101315","prefecture":"岡山県","prefecture_kana":"オカヤマケン","city":"倉敷市","city_kana":"クラシキシ","town":"真備町上二万","town_kana":"マビチョウカミニマ","prefecture_code":33},"1313":{"zip_code":"7101313","prefecture":"岡山県","prefecture_kana":"オカヤマケン","city":"倉敷市","city_kana":"クラシキシ","town":"真備町川辺","town_kana":"マビチョウカワベ","prefecture_code":33},"1314":{"zip_code":"7101314","prefecture":"岡山県","prefecture_kana":"オカヤマケン","city":"倉敷市","city_kana":"クラシキシ","town":"真備町下二万","town_kana":"マビチョウシモニマ","prefecture_code":33},"1303":{"zip_code":"7101303","prefecture":"岡山県","prefecture_kana":"オカヤマケン","city":"倉敷市","city_kana":"クラシキシ","town":"真備町妹","town_kana":"マビチョウセ","prefecture_code":33},"1312":{"zip_code":"7101312","prefecture":"岡山県","prefecture_kana":"オカヤマケン","city":"倉敷市","city_kana":"クラシキシ","town":"真備町辻田","town_kana":"マビチョウツジタ","prefecture_code":33},"1302":{"zip_code":"7101302","prefecture":"岡山県","prefecture_kana":"オカヤマケン","city":"倉敷市","city_kana":"クラシキシ","town":"真備町服部","town_kana":"マビチョウハットリ","prefecture_code":33},"1301":{"zip_code":"7101301","prefecture":"岡山県","prefecture_kana":"オカヤマケン","city":"倉敷市","city_kana":"クラシキシ","town":"真備町箭田","town_kana":"マビチョウヤタ","prefecture_code":33},"0802":{"zip_code":"7100802","prefecture":"岡山県","prefecture_kana":"オカヤマケン","city":"倉敷市","city_kana":"クラシキシ","town":"水江","town_kana":"ミズエ","prefecture_code":33},"0001":{"zip_code":"7100001","prefecture":"岡山県","prefecture_kana":"オカヤマケン","city":"倉敷市","city_kana":"クラシキシ","town":"三田","town_kana":"ミツダ","prefecture_code":33},"0823":{"zip_code":"7100823","prefecture":"岡山県","prefecture_kana":"オカヤマケン","city":"倉敷市","city_kana":"クラシキシ","town":"南町","town_kana":"ミナミマチ","prefecture_code":33},"0065":{"zip_code":"7100065","prefecture":"岡山県","prefecture_kana":"オカヤマケン","city":"倉敷市","city_kana":"クラシキシ","town":"宮前","town_kana":"ミヤマエ","prefecture_code":33},"0052":{"zip_code":"7100052","prefecture":"岡山県","prefecture_kana":"オカヤマケン","city":"倉敷市","city_kana":"クラシキシ","town":"美和","town_kana":"ミワ","prefecture_code":33},"0044":{"zip_code":"7100044","prefecture":"岡山県","prefecture_kana":"オカヤマケン","city":"倉敷市","city_kana":"クラシキシ","town":"向山","town_kana":"ムコウヤマ","prefecture_code":33},"0825":{"zip_code":"7100825","prefecture":"岡山県","prefecture_kana":"オカヤマケン","city":"倉敷市","city_kana":"クラシキシ","town":"安江","town_kana":"ヤスエ","prefecture_code":33},"0842":{"zip_code":"7100842","prefecture":"岡山県","prefecture_kana":"オカヤマケン","city":"倉敷市","city_kana":"クラシキシ","town":"吉岡","town_kana":"ヨシオカ","prefecture_code":33},"1201":{"zip_code":"7101201","prefecture":"岡山県","prefecture_kana":"オカヤマケン","city":"総社市","city_kana":"ソウジャシ","town":"久代","town_kana":"クシロ","prefecture_code":33},"1203":{"zip_code":"7101203","prefecture":"岡山県","prefecture_kana":"オカヤマケン","city":"総社市","city_kana":"ソウジャシ","town":"新本","town_kana":"シンポン","prefecture_code":33},"1202":{"zip_code":"7101202","prefecture":"岡山県","prefecture_kana":"オカヤマケン","city":"総社市","city_kana":"ソウジャシ","town":"山田","town_kana":"ヤマダ","prefecture_code":33}}