{"8054":{"zip_code":"7128054","prefecture":"岡山県","prefecture_kana":"オカヤマケン","city":"倉敷市","city_kana":"クラシキシ","town":"潮通","town_kana":"ウシオドオリ","prefecture_code":33},"8013":{"zip_code":"7128013","prefecture":"岡山県","prefecture_kana":"オカヤマケン","city":"倉敷市","city_kana":"クラシキシ","town":"亀島","town_kana":"カメジマ","prefecture_code":33},"8061":{"zip_code":"7128061","prefecture":"岡山県","prefecture_kana":"オカヤマケン","city":"倉敷市","city_kana":"クラシキシ","town":"神田","town_kana":"カンダ","prefecture_code":33},"8032":{"zip_code":"7128032","prefecture":"岡山県","prefecture_kana":"オカヤマケン","city":"倉敷市","city_kana":"クラシキシ","town":"北畝","town_kana":"キタセ","prefecture_code":33},"8012":{"zip_code":"7128012","prefecture":"岡山県","prefecture_kana":"オカヤマケン","city":"倉敷市","city_kana":"クラシキシ","town":"連島","town_kana":"ツラジマ","prefecture_code":33},"8014":{"zip_code":"7128014","prefecture":"岡山県","prefecture_kana":"オカヤマケン","city":"倉敷市","city_kana":"クラシキシ","town":"連島中央","town_kana":"ツラジマチュウオウ","prefecture_code":33},"8002":{"zip_code":"7128002","prefecture":"岡山県","prefecture_kana":"オカヤマケン","city":"倉敷市","city_kana":"クラシキシ","town":"連島町亀島新田","town_kana":"ツラジマチョウカメジマシンデン","prefecture_code":33},"8011":{"zip_code":"7128011","prefecture":"岡山県","prefecture_kana":"オカヤマケン","city":"倉敷市","city_kana":"クラシキシ","town":"連島町連島","town_kana":"ツラジマチョウツラジマ","prefecture_code":33},"8006":{"zip_code":"7128006","prefecture":"岡山県","prefecture_kana":"オカヤマケン","city":"倉敷市","city_kana":"クラシキシ","town":"連島町鶴新田","town_kana":"ツラジマチョウツルシンデン","prefecture_code":33},"8001":{"zip_code":"7128001","prefecture":"岡山県","prefecture_kana":"オカヤマケン","city":"倉敷市","city_kana":"クラシキシ","town":"連島町西之浦","town_kana":"ツラジマチョウニシノウラ","prefecture_code":33},"8015":{"zip_code":"7128015","prefecture":"岡山県","prefecture_kana":"オカヤマケン","city":"倉敷市","city_kana":"クラシキシ","town":"連島町矢柄","town_kana":"ツラジマチョウヤガラ","prefecture_code":33},"8007":{"zip_code":"7128007","prefecture":"岡山県","prefecture_kana":"オカヤマケン","city":"倉敷市","city_kana":"クラシキシ","town":"鶴の浦","town_kana":"ツルノウラ","prefecture_code":33},"8051":{"zip_code":"7128051","prefecture":"岡山県","prefecture_kana":"オカヤマケン","city":"倉敷市","city_kana":"クラシキシ","town":"中畝","town_kana":"ナカセ","prefecture_code":33},"8044":{"zip_code":"7128044","prefecture":"岡山県","prefecture_kana":"オカヤマケン","city":"倉敷市","city_kana":"クラシキシ","town":"東塚","town_kana":"ヒガシヅカ","prefecture_code":33},"8043":{"zip_code":"7128043","prefecture":"岡山県","prefecture_kana":"オカヤマケン","city":"倉敷市","city_kana":"クラシキシ","town":"広江","town_kana":"ヒロエ","prefecture_code":33},"8031":{"zip_code":"7128031","prefecture":"岡山県","prefecture_kana":"オカヤマケン","city":"倉敷市","city_kana":"クラシキシ","town":"福田町浦田","town_kana":"フクダチョウウラダ","prefecture_code":33},"8046":{"zip_code":"7128046","prefecture":"岡山県","prefecture_kana":"オカヤマケン","city":"倉敷市","city_kana":"クラシキシ","town":"福田町古新田","town_kana":"フクダチョウコシンデン","prefecture_code":33},"8045":{"zip_code":"7128045","prefecture":"岡山県","prefecture_kana":"オカヤマケン","city":"倉敷市","city_kana":"クラシキシ","town":"福田町東塚","town_kana":"フクダチョウヒガシヅカ","prefecture_code":33},"8042":{"zip_code":"7128042","prefecture":"岡山県","prefecture_kana":"オカヤマケン","city":"倉敷市","city_kana":"クラシキシ","town":"福田町広江","town_kana":"フクダチョウヒロエ","prefecture_code":33},"8041":{"zip_code":"7128041","prefecture":"岡山県","prefecture_kana":"オカヤマケン","city":"倉敷市","city_kana":"クラシキシ","town":"福田町福田","town_kana":"フクダチョウフクダ","prefecture_code":33},"8052":{"zip_code":"7128052","prefecture":"岡山県","prefecture_kana":"オカヤマケン","city":"倉敷市","city_kana":"クラシキシ","town":"松江","town_kana":"マツエ","prefecture_code":33},"8039":{"zip_code":"7128039","prefecture":"岡山県","prefecture_kana":"オカヤマケン","city":"倉敷市","city_kana":"クラシキシ","town":"水島相生町","town_kana":"ミズシマアイオイチョウ","prefecture_code":33},"8064":{"zip_code":"7128064","prefecture":"岡山県","prefecture_kana":"オカヤマケン","city":"倉敷市","city_kana":"クラシキシ","town":"水島青葉町","town_kana":"ミズシマアオバチョウ","prefecture_code":33},"8071":{"zip_code":"7128071","prefecture":"岡山県","prefecture_kana":"オカヤマケン","city":"倉敷市","city_kana":"クラシキシ","town":"水島海岸通","town_kana":"ミズシマカイガンドオリ","prefecture_code":33},"8074":{"zip_code":"7128074","prefecture":"岡山県","prefecture_kana":"オカヤマケン","city":"倉敷市","city_kana":"クラシキシ","town":"水島川崎通","town_kana":"ミズシマカワサキドオリ","prefecture_code":33},"8066":{"zip_code":"7128066","prefecture":"岡山県","prefecture_kana":"オカヤマケン","city":"倉敷市","city_kana":"クラシキシ","town":"水島高砂町","town_kana":"ミズシマタカサゴチョウ","prefecture_code":33},"8072":{"zip_code":"7128072","prefecture":"岡山県","prefecture_kana":"オカヤマケン","city":"倉敷市","city_kana":"クラシキシ","town":"水島中通","town_kana":"ミズシマナカドオリ","prefecture_code":33},"8073":{"zip_code":"7128073","prefecture":"岡山県","prefecture_kana":"オカヤマケン","city":"倉敷市","city_kana":"クラシキシ","town":"水島西通","town_kana":"ミズシマニシドオリ","prefecture_code":33},"8021":{"zip_code":"7128021","prefecture":"岡山県","prefecture_kana":"オカヤマケン","city":"倉敷市","city_kana":"クラシキシ","town":"水島東川町","town_kana":"ミズシマヒガシガワチョウ","prefecture_code":33},"8037":{"zip_code":"7128037","prefecture":"岡山県","prefecture_kana":"オカヤマケン","city":"倉敷市","city_kana":"クラシキシ","town":"水島東寿町","town_kana":"ミズシマヒガシコトブキチョウ","prefecture_code":33},"8038":{"zip_code":"7128038","prefecture":"岡山県","prefecture_kana":"オカヤマケン","city":"倉敷市","city_kana":"クラシキシ","town":"水島西寿町","town_kana":"ミズシマニシコトブキチョウ","prefecture_code":33},"8033":{"zip_code":"7128033","prefecture":"岡山県","prefecture_kana":"オカヤマケン","city":"倉敷市","city_kana":"クラシキシ","town":"水島東栄町","town_kana":"ミズシマヒガシサカエマチ","prefecture_code":33},"8034":{"zip_code":"7128034","prefecture":"岡山県","prefecture_kana":"オカヤマケン","city":"倉敷市","city_kana":"クラシキシ","town":"水島西栄町","town_kana":"ミズシマニシサカエマチ","prefecture_code":33},"8057":{"zip_code":"7128057","prefecture":"岡山県","prefecture_kana":"オカヤマケン","city":"倉敷市","city_kana":"クラシキシ","town":"水島東千鳥町","town_kana":"ミズシマヒガシチドリチョウ","prefecture_code":33},"8065":{"zip_code":"7128065","prefecture":"岡山県","prefecture_kana":"オカヤマケン","city":"倉敷市","city_kana":"クラシキシ","town":"水島西千鳥町","town_kana":"ミズシマニシチドリチョウ","prefecture_code":33},"8058":{"zip_code":"7128058","prefecture":"岡山県","prefecture_kana":"オカヤマケン","city":"倉敷市","city_kana":"クラシキシ","town":"水島東常盤町","town_kana":"ミズシマヒガシトキワチョウ","prefecture_code":33},"8059":{"zip_code":"7128059","prefecture":"岡山県","prefecture_kana":"オカヤマケン","city":"倉敷市","city_kana":"クラシキシ","town":"水島西常盤町","town_kana":"ミズシマニシトキワチョウ","prefecture_code":33},"8035":{"zip_code":"7128035","prefecture":"岡山県","prefecture_kana":"オカヤマケン","city":"倉敷市","city_kana":"クラシキシ","town":"水島東弥生町","town_kana":"ミズシマヒガシヤヨイチョウ","prefecture_code":33},"8036":{"zip_code":"7128036","prefecture":"岡山県","prefecture_kana":"オカヤマケン","city":"倉敷市","city_kana":"クラシキシ","town":"水島西弥生町","town_kana":"ミズシマニシヤヨイチョウ","prefecture_code":33},"8056":{"zip_code":"7128056","prefecture":"岡山県","prefecture_kana":"オカヤマケン","city":"倉敷市","city_kana":"クラシキシ","town":"水島福崎町","town_kana":"ミズシマフクサキチョウ","prefecture_code":33},"8025":{"zip_code":"7128025","prefecture":"岡山県","prefecture_kana":"オカヤマケン","city":"倉敷市","city_kana":"クラシキシ","town":"水島南春日町","town_kana":"ミズシマミナミカスガチョウ","prefecture_code":33},"8024":{"zip_code":"7128024","prefecture":"岡山県","prefecture_kana":"オカヤマケン","city":"倉敷市","city_kana":"クラシキシ","town":"水島北春日町","town_kana":"ミズシマキタカスガチョウ","prefecture_code":33},"8004":{"zip_code":"7128004","prefecture":"岡山県","prefecture_kana":"オカヤマケン","city":"倉敷市","city_kana":"クラシキシ","town":"水島南亀島町","town_kana":"ミズシマミナミカメジマチョウ","prefecture_code":33},"8005":{"zip_code":"7128005","prefecture":"岡山県","prefecture_kana":"オカヤマケン","city":"倉敷市","city_kana":"クラシキシ","town":"水島北亀島町","town_kana":"ミズシマキタカメジマチョウ","prefecture_code":33},"8063":{"zip_code":"7128063","prefecture":"岡山県","prefecture_kana":"オカヤマケン","city":"倉敷市","city_kana":"クラシキシ","town":"水島南幸町","town_kana":"ミズシマミナミサイワイチョウ","prefecture_code":33},"8062":{"zip_code":"7128062","prefecture":"岡山県","prefecture_kana":"オカヤマケン","city":"倉敷市","city_kana":"クラシキシ","town":"水島北幸町","town_kana":"ミズシマキタサイワイチョウ","prefecture_code":33},"8026":{"zip_code":"7128026","prefecture":"岡山県","prefecture_kana":"オカヤマケン","city":"倉敷市","city_kana":"クラシキシ","town":"水島南瑞穂町","town_kana":"ミズシマミナミミズホチョウ","prefecture_code":33},"8027":{"zip_code":"7128027","prefecture":"岡山県","prefecture_kana":"オカヤマケン","city":"倉敷市","city_kana":"クラシキシ","town":"水島北瑞穂町","town_kana":"ミズシマキタミズホチョウ","prefecture_code":33},"8023":{"zip_code":"7128023","prefecture":"岡山県","prefecture_kana":"オカヤマケン","city":"倉敷市","city_kana":"クラシキシ","town":"水島南緑町","town_kana":"ミズシマミナミミドリマチ","prefecture_code":33},"8022":{"zip_code":"7128022","prefecture":"岡山県","prefecture_kana":"オカヤマケン","city":"倉敷市","city_kana":"クラシキシ","town":"水島北緑町","town_kana":"ミズシマキタミドリマチ","prefecture_code":33},"8003":{"zip_code":"7128003","prefecture":"岡山県","prefecture_kana":"オカヤマケン","city":"倉敷市","city_kana":"クラシキシ","town":"水島明神町","town_kana":"ミズシマミョウジンチョウ","prefecture_code":33},"8055":{"zip_code":"7128055","prefecture":"岡山県","prefecture_kana":"オカヤマケン","city":"倉敷市","city_kana":"クラシキシ","town":"南畝","town_kana":"ミナミセ","prefecture_code":33},"8053":[{"zip_code":"7128053","prefecture":"岡山県","prefecture_kana":"オカヤマケン","city":"倉敷市","city_kana":"クラシキシ","town":"呼松","town_kana":"ヨビマツ","prefecture_code":33},{"zip_code":"7128053","prefecture":"岡山県","prefecture_kana":"オカヤマケン","city":"倉敷市","city_kana":"クラシキシ","town":"呼松町","town_kana":"ヨビマツチョウ","prefecture_code":33}]}