{"8102":{"zip_code":"7138102","prefecture":"岡山県","prefecture_kana":"オカヤマケン","city":"倉敷市","city_kana":"クラシキシ","town":"玉島","town_kana":"タマシマ","prefecture_code":33},"8121":{"zip_code":"7138121","prefecture":"岡山県","prefecture_kana":"オカヤマケン","city":"倉敷市","city_kana":"クラシキシ","town":"玉島阿賀崎","town_kana":"タマシマアガサキ","prefecture_code":33},"8101":{"zip_code":"7138101","prefecture":"岡山県","prefecture_kana":"オカヤマケン","city":"倉敷市","city_kana":"クラシキシ","town":"玉島上成","town_kana":"タマシマウワナリ","prefecture_code":33},"8103":{"zip_code":"7138103","prefecture":"岡山県","prefecture_kana":"オカヤマケン","city":"倉敷市","city_kana":"クラシキシ","town":"玉島乙島","town_kana":"タマシマオトシマ","prefecture_code":33},"8123":{"zip_code":"7138123","prefecture":"岡山県","prefecture_kana":"オカヤマケン","city":"倉敷市","city_kana":"クラシキシ","town":"玉島柏島","town_kana":"タマシマカシワジマ","prefecture_code":33},"8124":{"zip_code":"7138124","prefecture":"岡山県","prefecture_kana":"オカヤマケン","city":"倉敷市","city_kana":"クラシキシ","town":"玉島柏台","town_kana":"タマシマカシワダイ","prefecture_code":33},"8126":{"zip_code":"7138126","prefecture":"岡山県","prefecture_kana":"オカヤマケン","city":"倉敷市","city_kana":"クラシキシ","town":"玉島黒崎","town_kana":"タマシマクロサキ","prefecture_code":33},"8127":{"zip_code":"7138127","prefecture":"岡山県","prefecture_kana":"オカヤマケン","city":"倉敷市","city_kana":"クラシキシ","town":"玉島黒崎新町","town_kana":"タマシマクロサキシンマチ","prefecture_code":33},"8112":{"zip_code":"7138112","prefecture":"岡山県","prefecture_kana":"オカヤマケン","city":"倉敷市","city_kana":"クラシキシ","town":"玉島陶","town_kana":"タマシマスエ","prefecture_code":33},"8122":{"zip_code":"7138122","prefecture":"岡山県","prefecture_kana":"オカヤマケン","city":"倉敷市","city_kana":"クラシキシ","town":"玉島中央町","town_kana":"タマシマチュウオウチョウ","prefecture_code":33},"8116":{"zip_code":"7138116","prefecture":"岡山県","prefecture_kana":"オカヤマケン","city":"倉敷市","city_kana":"クラシキシ","town":"玉島富","town_kana":"タマシマトミ","prefecture_code":33},"8111":{"zip_code":"7138111","prefecture":"岡山県","prefecture_kana":"オカヤマケン","city":"倉敷市","city_kana":"クラシキシ","town":"玉島服部","town_kana":"タマシマハットリ","prefecture_code":33},"8115":{"zip_code":"7138115","prefecture":"岡山県","prefecture_kana":"オカヤマケン","city":"倉敷市","city_kana":"クラシキシ","town":"玉島道口","town_kana":"タマシマミチグチ","prefecture_code":33},"8114":{"zip_code":"7138114","prefecture":"岡山県","prefecture_kana":"オカヤマケン","city":"倉敷市","city_kana":"クラシキシ","town":"玉島道越","town_kana":"タマシマミチゴエ","prefecture_code":33},"8113":{"zip_code":"7138113","prefecture":"岡山県","prefecture_kana":"オカヤマケン","city":"倉敷市","city_kana":"クラシキシ","town":"玉島八島","town_kana":"タマシマヤシマ","prefecture_code":33},"8125":{"zip_code":"7138125","prefecture":"岡山県","prefecture_kana":"オカヤマケン","city":"倉敷市","city_kana":"クラシキシ","town":"玉島勇崎","town_kana":"タマシマユウザキ","prefecture_code":33}}