{"0000":{"zip_code":"7140000","prefecture":"岡山県","prefecture_kana":"オカヤマケン","city":"笠岡市","city_kana":"カサオカシ","town":"","town_kana":"","prefecture_code":33},"0014":{"zip_code":"7140014","prefecture":"岡山県","prefecture_kana":"オカヤマケン","city":"笠岡市","city_kana":"カサオカシ","town":"相生","town_kana":"アイオイ","prefecture_code":33},"0056":{"zip_code":"7140056","prefecture":"岡山県","prefecture_kana":"オカヤマケン","city":"笠岡市","city_kana":"カサオカシ","town":"旭が丘","town_kana":"アサヒガオカ","prefecture_code":33},"0075":{"zip_code":"7140075","prefecture":"岡山県","prefecture_kana":"オカヤマケン","city":"笠岡市","city_kana":"カサオカシ","town":"有田","town_kana":"アリダ","prefecture_code":33},"0082":{"zip_code":"7140082","prefecture":"岡山県","prefecture_kana":"オカヤマケン","city":"笠岡市","city_kana":"カサオカシ","town":"一番町","town_kana":"イチバンチョウ","prefecture_code":33},"0022":{"zip_code":"7140022","prefecture":"岡山県","prefecture_kana":"オカヤマケン","city":"笠岡市","city_kana":"カサオカシ","town":"今立","town_kana":"イマダテ","prefecture_code":33},"0041":{"zip_code":"7140041","prefecture":"岡山県","prefecture_kana":"オカヤマケン","city":"笠岡市","city_kana":"カサオカシ","town":"入江","town_kana":"イリエ","prefecture_code":33},"0091":{"zip_code":"7140091","prefecture":"岡山県","prefecture_kana":"オカヤマケン","city":"笠岡市","city_kana":"カサオカシ","town":"絵師","town_kana":"エシ","prefecture_code":33},"0055":{"zip_code":"7140055","prefecture":"岡山県","prefecture_kana":"オカヤマケン","city":"笠岡市","city_kana":"カサオカシ","town":"生江浜","town_kana":"オエハマ","prefecture_code":33},"0013":{"zip_code":"7140013","prefecture":"岡山県","prefecture_kana":"オカヤマケン","city":"笠岡市","city_kana":"カサオカシ","town":"大井南","town_kana":"オオイミナミ","prefecture_code":33},"0061":{"zip_code":"7140061","prefecture":"岡山県","prefecture_kana":"オカヤマケン","city":"笠岡市","city_kana":"カサオカシ","town":"大げ","town_kana":"オオゲ","prefecture_code":33},"0073":{"zip_code":"7140073","prefecture":"岡山県","prefecture_kana":"オカヤマケン","city":"笠岡市","city_kana":"カサオカシ","town":"大河","town_kana":"オオコウ","prefecture_code":33},"0033":{"zip_code":"7140033","prefecture":"岡山県","prefecture_kana":"オカヤマケン","city":"笠岡市","city_kana":"カサオカシ","town":"大島中","town_kana":"オオシマナカ","prefecture_code":33},"0003":{"zip_code":"7140003","prefecture":"岡山県","prefecture_kana":"オカヤマケン","city":"笠岡市","city_kana":"カサオカシ","town":"尾坂","town_kana":"オサカ","prefecture_code":33},"0076":{"zip_code":"7140076","prefecture":"岡山県","prefecture_kana":"オカヤマケン","city":"笠岡市","city_kana":"カサオカシ","town":"押撫","town_kana":"オシナデ","prefecture_code":33},"0012":{"zip_code":"7140012","prefecture":"岡山県","prefecture_kana":"オカヤマケン","city":"笠岡市","city_kana":"カサオカシ","town":"小平井","town_kana":"オビライ","prefecture_code":33},"0081":{"zip_code":"7140081","prefecture":"岡山県","prefecture_kana":"オカヤマケン","city":"笠岡市","city_kana":"カサオカシ","town":"笠岡","town_kana":"カサオカ","prefecture_code":33},"0025":{"zip_code":"7140025","prefecture":"岡山県","prefecture_kana":"オカヤマケン","city":"笠岡市","city_kana":"カサオカシ","town":"春日台","town_kana":"カスガダイ","prefecture_code":33},"0057":{"zip_code":"7140057","prefecture":"岡山県","prefecture_kana":"オカヤマケン","city":"笠岡市","city_kana":"カサオカシ","town":"金浦","town_kana":"カナウラ","prefecture_code":33},"0052":{"zip_code":"7140052","prefecture":"岡山県","prefecture_kana":"オカヤマケン","city":"笠岡市","city_kana":"カサオカシ","town":"カブト中央町","town_kana":"カブトチュウオウチョウ","prefecture_code":33},"0051":{"zip_code":"7140051","prefecture":"岡山県","prefecture_kana":"オカヤマケン","city":"笠岡市","city_kana":"カサオカシ","town":"カブト東町","town_kana":"カブトヒガシマチ","prefecture_code":33},"0053":{"zip_code":"7140053","prefecture":"岡山県","prefecture_kana":"オカヤマケン","city":"笠岡市","city_kana":"カサオカシ","town":"カブト西町","town_kana":"カブトニシマチ","prefecture_code":33},"0046":{"zip_code":"7140046","prefecture":"岡山県","prefecture_kana":"オカヤマケン","city":"笠岡市","city_kana":"カサオカシ","town":"カブト南町","town_kana":"カブトミナミマチ","prefecture_code":33},"0301":{"zip_code":"7140301","prefecture":"岡山県","prefecture_kana":"オカヤマケン","city":"笠岡市","city_kana":"カサオカシ","town":"北木島町","town_kana":"キタギシマチョウ","prefecture_code":33},"0096":{"zip_code":"7140096","prefecture":"岡山県","prefecture_kana":"オカヤマケン","city":"笠岡市","city_kana":"カサオカシ","town":"九番町","town_kana":"キュウバンチョウ","prefecture_code":33},"0063":{"zip_code":"7140063","prefecture":"岡山県","prefecture_kana":"オカヤマケン","city":"笠岡市","city_kana":"カサオカシ","town":"鋼管町","town_kana":"コウカンチョウ","prefecture_code":33},"0002":{"zip_code":"7140002","prefecture":"岡山県","prefecture_kana":"オカヤマケン","city":"笠岡市","city_kana":"カサオカシ","town":"甲弩","town_kana":"コウノ","prefecture_code":33},"0044":{"zip_code":"7140044","prefecture":"岡山県","prefecture_kana":"オカヤマケン","city":"笠岡市","city_kana":"カサオカシ","town":"神島","town_kana":"コウノシマ","prefecture_code":33},"0034":{"zip_code":"7140034","prefecture":"岡山県","prefecture_kana":"オカヤマケン","city":"笠岡市","city_kana":"カサオカシ","town":"神島外浦","town_kana":"コウノシマソトウラ","prefecture_code":33},"0086":{"zip_code":"7140086","prefecture":"岡山県","prefecture_kana":"オカヤマケン","city":"笠岡市","city_kana":"カサオカシ","town":"五番町","town_kana":"ゴバンチョウ","prefecture_code":33},"0084":{"zip_code":"7140084","prefecture":"岡山県","prefecture_kana":"オカヤマケン","city":"笠岡市","city_kana":"カサオカシ","town":"三番町","town_kana":"サンバンチョウ","prefecture_code":33},"0077":{"zip_code":"7140077","prefecture":"岡山県","prefecture_kana":"オカヤマケン","city":"笠岡市","city_kana":"カサオカシ","town":"篠坂","town_kana":"シノサカ","prefecture_code":33},"0036":{"zip_code":"7140036","prefecture":"岡山県","prefecture_kana":"オカヤマケン","city":"笠岡市","city_kana":"カサオカシ","town":"白石島","town_kana":"シライシジマ","prefecture_code":33},"0065":{"zip_code":"7140065","prefecture":"岡山県","prefecture_kana":"オカヤマケン","city":"笠岡市","city_kana":"カサオカシ","town":"城見台","town_kana":"シロミダイ","prefecture_code":33},"0005":{"zip_code":"7140005","prefecture":"岡山県","prefecture_kana":"オカヤマケン","city":"笠岡市","city_kana":"カサオカシ","town":"新賀","town_kana":"シンガ","prefecture_code":33},"0093":{"zip_code":"7140093","prefecture":"岡山県","prefecture_kana":"オカヤマケン","city":"笠岡市","city_kana":"カサオカシ","town":"新横島","town_kana":"シンヨコシマ","prefecture_code":33},"0097":{"zip_code":"7140097","prefecture":"岡山県","prefecture_kana":"オカヤマケン","city":"笠岡市","city_kana":"カサオカシ","town":"十番町","town_kana":"ジュウバンチョウ","prefecture_code":33},"0098":{"zip_code":"7140098","prefecture":"岡山県","prefecture_kana":"オカヤマケン","city":"笠岡市","city_kana":"カサオカシ","town":"十一番町","town_kana":"ジュウイチバンチョウ","prefecture_code":33},"0004":{"zip_code":"7140004","prefecture":"岡山県","prefecture_kana":"オカヤマケン","city":"笠岡市","city_kana":"カサオカシ","town":"関戸","town_kana":"セキド","prefecture_code":33},"0021":{"zip_code":"7140021","prefecture":"岡山県","prefecture_kana":"オカヤマケン","city":"笠岡市","city_kana":"カサオカシ","town":"園井","town_kana":"ソノイ","prefecture_code":33},"0035":{"zip_code":"7140035","prefecture":"岡山県","prefecture_kana":"オカヤマケン","city":"笠岡市","city_kana":"カサオカシ","town":"高島","town_kana":"タカシマ","prefecture_code":33},"0047":{"zip_code":"7140047","prefecture":"岡山県","prefecture_kana":"オカヤマケン","city":"笠岡市","city_kana":"カサオカシ","town":"拓海町","town_kana":"タクミチョウ","prefecture_code":33},"0088":{"zip_code":"7140088","prefecture":"岡山県","prefecture_kana":"オカヤマケン","city":"笠岡市","city_kana":"カサオカシ","town":"中央町","town_kana":"チュウオウチョウ","prefecture_code":33},"0092":{"zip_code":"7140092","prefecture":"岡山県","prefecture_kana":"オカヤマケン","city":"笠岡市","city_kana":"カサオカシ","town":"富岡","town_kana":"トミオカ","prefecture_code":33},"0094":{"zip_code":"7140094","prefecture":"岡山県","prefecture_kana":"オカヤマケン","city":"笠岡市","city_kana":"カサオカシ","town":"七番町","town_kana":"ナナバンチョウ","prefecture_code":33},"0032":{"zip_code":"7140032","prefecture":"岡山県","prefecture_kana":"オカヤマケン","city":"笠岡市","city_kana":"カサオカシ","town":"西大島","town_kana":"ニシオオシマ","prefecture_code":33},"0031":{"zip_code":"7140031","prefecture":"岡山県","prefecture_kana":"オカヤマケン","city":"笠岡市","city_kana":"カサオカシ","town":"西大島新田","town_kana":"ニシオオシマシンデン","prefecture_code":33},"0072":{"zip_code":"7140072","prefecture":"岡山県","prefecture_kana":"オカヤマケン","city":"笠岡市","city_kana":"カサオカシ","town":"西大戸","town_kana":"ニシオオド","prefecture_code":33},"0064":{"zip_code":"7140064","prefecture":"岡山県","prefecture_kana":"オカヤマケン","city":"笠岡市","city_kana":"カサオカシ","town":"西茂平","town_kana":"ニシモビラ","prefecture_code":33},"0083":{"zip_code":"7140083","prefecture":"岡山県","prefecture_kana":"オカヤマケン","city":"笠岡市","city_kana":"カサオカシ","town":"二番町","town_kana":"ニバンチョウ","prefecture_code":33},"0078":{"zip_code":"7140078","prefecture":"岡山県","prefecture_kana":"オカヤマケン","city":"笠岡市","city_kana":"カサオカシ","town":"入田","town_kana":"ニュウタ","prefecture_code":33},"0001":{"zip_code":"7140001","prefecture":"岡山県","prefecture_kana":"オカヤマケン","city":"笠岡市","city_kana":"カサオカシ","town":"走出","town_kana":"ハシリデ","prefecture_code":33},"0095":{"zip_code":"7140095","prefecture":"岡山県","prefecture_kana":"オカヤマケン","city":"笠岡市","city_kana":"カサオカシ","town":"八番町","town_kana":"ハチバンチョウ","prefecture_code":33},"0071":{"zip_code":"7140071","prefecture":"岡山県","prefecture_kana":"オカヤマケン","city":"笠岡市","city_kana":"カサオカシ","town":"東大戸","town_kana":"ヒガシオオド","prefecture_code":33},"0302":{"zip_code":"7140302","prefecture":"岡山県","prefecture_kana":"オカヤマケン","city":"笠岡市","city_kana":"カサオカシ","town":"飛島","town_kana":"ヒシマ","prefecture_code":33},"0023":{"zip_code":"7140023","prefecture":"岡山県","prefecture_kana":"オカヤマケン","city":"笠岡市","city_kana":"カサオカシ","town":"広浜","town_kana":"ヒロハマ","prefecture_code":33},"0054":{"zip_code":"7140054","prefecture":"岡山県","prefecture_kana":"オカヤマケン","city":"笠岡市","city_kana":"カサオカシ","town":"平成町","town_kana":"ヘイセイチョウ","prefecture_code":33},"0024":{"zip_code":"7140024","prefecture":"岡山県","prefecture_kana":"オカヤマケン","city":"笠岡市","city_kana":"カサオカシ","town":"馬飼","town_kana":"マカイ","prefecture_code":33},"0037":{"zip_code":"7140037","prefecture":"岡山県","prefecture_kana":"オカヤマケン","city":"笠岡市","city_kana":"カサオカシ","town":"真鍋島","town_kana":"マナベシマ","prefecture_code":33},"0048":{"zip_code":"7140048","prefecture":"岡山県","prefecture_kana":"オカヤマケン","city":"笠岡市","city_kana":"カサオカシ","town":"緑町","town_kana":"ミドリマチ","prefecture_code":33},"0045":{"zip_code":"7140045","prefecture":"岡山県","prefecture_kana":"オカヤマケン","city":"笠岡市","city_kana":"カサオカシ","town":"港町","town_kana":"ミナトチョウ","prefecture_code":33},"0006":{"zip_code":"7140006","prefecture":"岡山県","prefecture_kana":"オカヤマケン","city":"笠岡市","city_kana":"カサオカシ","town":"みの越","town_kana":"ミノコシ","prefecture_code":33},"0042":{"zip_code":"7140042","prefecture":"岡山県","prefecture_kana":"オカヤマケン","city":"笠岡市","city_kana":"カサオカシ","town":"美の浜","town_kana":"ミノハマ","prefecture_code":33},"0038":{"zip_code":"7140038","prefecture":"岡山県","prefecture_kana":"オカヤマケン","city":"笠岡市","city_kana":"カサオカシ","town":"六島","town_kana":"ムシマ","prefecture_code":33},"0066":{"zip_code":"7140066","prefecture":"岡山県","prefecture_kana":"オカヤマケン","city":"笠岡市","city_kana":"カサオカシ","town":"用之江","town_kana":"モチノエ","prefecture_code":33},"0062":{"zip_code":"7140062","prefecture":"岡山県","prefecture_kana":"オカヤマケン","city":"笠岡市","city_kana":"カサオカシ","town":"茂平","town_kana":"モビラ","prefecture_code":33},"0007":{"zip_code":"7140007","prefecture":"岡山県","prefecture_kana":"オカヤマケン","city":"笠岡市","city_kana":"カサオカシ","town":"山口","town_kana":"ヤマグチ","prefecture_code":33},"0043":{"zip_code":"7140043","prefecture":"岡山県","prefecture_kana":"オカヤマケン","city":"笠岡市","city_kana":"カサオカシ","town":"横島","town_kana":"ヨコシマ","prefecture_code":33},"0011":{"zip_code":"7140011","prefecture":"岡山県","prefecture_kana":"オカヤマケン","city":"笠岡市","city_kana":"カサオカシ","town":"吉田","town_kana":"ヨシダ","prefecture_code":33},"0074":{"zip_code":"7140074","prefecture":"岡山県","prefecture_kana":"オカヤマケン","city":"笠岡市","city_kana":"カサオカシ","town":"吉浜","town_kana":"ヨシハマ","prefecture_code":33},"0085":{"zip_code":"7140085","prefecture":"岡山県","prefecture_kana":"オカヤマケン","city":"笠岡市","city_kana":"カサオカシ","town":"四番町","town_kana":"ヨンバンチョウ","prefecture_code":33},"0087":{"zip_code":"7140087","prefecture":"岡山県","prefecture_kana":"オカヤマケン","city":"笠岡市","city_kana":"カサオカシ","town":"六番町","town_kana":"ロクバンチョウ","prefecture_code":33},"1405":{"zip_code":"7141405","prefecture":"岡山県","prefecture_kana":"オカヤマケン","city":"井原市","city_kana":"イバラシ","town":"美星町宇戸","town_kana":"ビセイチョウウト","prefecture_code":33},"1404":{"zip_code":"7141404","prefecture":"岡山県","prefecture_kana":"オカヤマケン","city":"井原市","city_kana":"イバラシ","town":"美星町烏頭","town_kana":"ビセイチョウウトウ","prefecture_code":33},"1402":{"zip_code":"7141402","prefecture":"岡山県","prefecture_kana":"オカヤマケン","city":"井原市","city_kana":"イバラシ","town":"美星町宇戸谷","town_kana":"ビセイチョウウトダニ","prefecture_code":33},"1411":{"zip_code":"7141411","prefecture":"岡山県","prefecture_kana":"オカヤマケン","city":"井原市","city_kana":"イバラシ","town":"美星町大倉","town_kana":"ビセイチョウオオクラ","prefecture_code":33},"1403":{"zip_code":"7141403","prefecture":"岡山県","prefecture_kana":"オカヤマケン","city":"井原市","city_kana":"イバラシ","town":"美星町上高末","town_kana":"ビセイチョウカミコウズエ","prefecture_code":33},"1414":{"zip_code":"7141414","prefecture":"岡山県","prefecture_kana":"オカヤマケン","city":"井原市","city_kana":"イバラシ","town":"美星町黒木","town_kana":"ビセイチョウクロギ","prefecture_code":33},"1407":{"zip_code":"7141407","prefecture":"岡山県","prefecture_kana":"オカヤマケン","city":"井原市","city_kana":"イバラシ","town":"美星町黒忠","town_kana":"ビセイチョウクロタダ","prefecture_code":33},"1413":{"zip_code":"7141413","prefecture":"岡山県","prefecture_kana":"オカヤマケン","city":"井原市","city_kana":"イバラシ","town":"美星町西水砂","town_kana":"ビセイチョウニシミズスナ","prefecture_code":33},"1412":{"zip_code":"7141412","prefecture":"岡山県","prefecture_kana":"オカヤマケン","city":"井原市","city_kana":"イバラシ","town":"美星町東水砂","town_kana":"ビセイチョウヒガシミズスナ","prefecture_code":33},"1415":{"zip_code":"7141415","prefecture":"岡山県","prefecture_kana":"オカヤマケン","city":"井原市","city_kana":"イバラシ","town":"美星町星田","town_kana":"ビセイチョウホシダ","prefecture_code":33},"1406":{"zip_code":"7141406","prefecture":"岡山県","prefecture_kana":"オカヤマケン","city":"井原市","city_kana":"イバラシ","town":"美星町三山","town_kana":"ビセイチョウミヤマ","prefecture_code":33},"1401":{"zip_code":"7141401","prefecture":"岡山県","prefecture_kana":"オカヤマケン","city":"井原市","city_kana":"イバラシ","town":"美星町明治","town_kana":"ビセイチョウメイジ","prefecture_code":33},"2125":{"zip_code":"7142125","prefecture":"岡山県","prefecture_kana":"オカヤマケン","city":"井原市","city_kana":"イバラシ","town":"芳井町池谷","town_kana":"ヨシイチョウイケダニ","prefecture_code":33},"2124":{"zip_code":"7142124","prefecture":"岡山県","prefecture_kana":"オカヤマケン","city":"井原市","city_kana":"イバラシ","town":"芳井町井山","town_kana":"ヨシイチョウイヤマ","prefecture_code":33},"2103":{"zip_code":"7142103","prefecture":"岡山県","prefecture_kana":"オカヤマケン","city":"井原市","city_kana":"イバラシ","town":"芳井町宇戸川","town_kana":"ヨシイチョウウトガワ","prefecture_code":33},"2101":{"zip_code":"7142101","prefecture":"岡山県","prefecture_kana":"オカヤマケン","city":"井原市","city_kana":"イバラシ","town":"芳井町梶江","town_kana":"ヨシイチョウカジエ","prefecture_code":33},"2123":{"zip_code":"7142123","prefecture":"岡山県","prefecture_kana":"オカヤマケン","city":"井原市","city_kana":"イバラシ","town":"芳井町片塚","town_kana":"ヨシイチョウカタヅカ","prefecture_code":33},"2232":{"zip_code":"7142232","prefecture":"岡山県","prefecture_kana":"オカヤマケン","city":"井原市","city_kana":"イバラシ","town":"芳井町上鴫","town_kana":"ヨシイチョウカミシギ","prefecture_code":33},"2114":{"zip_code":"7142114","prefecture":"岡山県","prefecture_kana":"オカヤマケン","city":"井原市","city_kana":"イバラシ","town":"芳井町川相","town_kana":"ヨシイチョウカワイ","prefecture_code":33},"2121":{"zip_code":"7142121","prefecture":"岡山県","prefecture_kana":"オカヤマケン","city":"井原市","city_kana":"イバラシ","town":"芳井町佐屋","town_kana":"ヨシイチョウサヤ","prefecture_code":33},"2231":{"zip_code":"7142231","prefecture":"岡山県","prefecture_kana":"オカヤマケン","city":"井原市","city_kana":"イバラシ","town":"芳井町下鴫","town_kana":"ヨシイチョウシモシギ","prefecture_code":33},"2122":{"zip_code":"7142122","prefecture":"岡山県","prefecture_kana":"オカヤマケン","city":"井原市","city_kana":"イバラシ","town":"芳井町種","town_kana":"ヨシイチョウタネ","prefecture_code":33},"2113":{"zip_code":"7142113","prefecture":"岡山県","prefecture_kana":"オカヤマケン","city":"井原市","city_kana":"イバラシ","town":"芳井町天神山","town_kana":"ヨシイチョウテンジンヤマ","prefecture_code":33},"2234":{"zip_code":"7142234","prefecture":"岡山県","prefecture_kana":"オカヤマケン","city":"井原市","city_kana":"イバラシ","town":"芳井町西三原","town_kana":"ヨシイチョウニシミハラ","prefecture_code":33},"2104":{"zip_code":"7142104","prefecture":"岡山県","prefecture_kana":"オカヤマケン","city":"井原市","city_kana":"イバラシ","town":"芳井町花滝","town_kana":"ヨシイチョウハナダキ","prefecture_code":33},"2341":{"zip_code":"7142341","prefecture":"岡山県","prefecture_kana":"オカヤマケン","city":"井原市","city_kana":"イバラシ","town":"芳井町東三原","town_kana":"ヨシイチョウヒガシミハラ","prefecture_code":33},"2112":{"zip_code":"7142112","prefecture":"岡山県","prefecture_kana":"オカヤマケン","city":"井原市","city_kana":"イバラシ","town":"芳井町簗瀬","town_kana":"ヨシイチョウヤナセ","prefecture_code":33},"2233":{"zip_code":"7142233","prefecture":"岡山県","prefecture_kana":"オカヤマケン","city":"井原市","city_kana":"イバラシ","town":"芳井町山村","town_kana":"ヨシイチョウヤマムラ","prefecture_code":33},"2102":{"zip_code":"7142102","prefecture":"岡山県","prefecture_kana":"オカヤマケン","city":"井原市","city_kana":"イバラシ","town":"芳井町与井","town_kana":"ヨシイチョウヨイ","prefecture_code":33},"2111":{"zip_code":"7142111","prefecture":"岡山県","prefecture_kana":"オカヤマケン","city":"井原市","city_kana":"イバラシ","town":"芳井町吉井","town_kana":"ヨシイチョウヨシイ","prefecture_code":33},"0101":{"zip_code":"7140101","prefecture":"岡山県","prefecture_kana":"オカヤマケン","city":"浅口市","city_kana":"アサクチシ","town":"寄島町","town_kana":"ヨリシマチョウ","prefecture_code":33},"1200":{"zip_code":"7141200","prefecture":"岡山県","prefecture_kana":"オカヤマケン","city":"小田郡矢掛町","city_kana":"オダグンヤカゲチョウ","town":"","town_kana":"","prefecture_code":33},"1225":{"zip_code":"7141225","prefecture":"岡山県","prefecture_kana":"オカヤマケン","city":"小田郡矢掛町","city_kana":"オダグンヤカゲチョウ","town":"浅海","town_kana":"アスミ","prefecture_code":33},"1205":{"zip_code":"7141205","prefecture":"岡山県","prefecture_kana":"オカヤマケン","city":"小田郡矢掛町","city_kana":"オダグンヤカゲチョウ","town":"宇角","town_kana":"ウズミ","prefecture_code":33},"1206":{"zip_code":"7141206","prefecture":"岡山県","prefecture_kana":"オカヤマケン","city":"小田郡矢掛町","city_kana":"オダグンヤカゲチョウ","town":"内田","town_kana":"ウチダ","prefecture_code":33},"1221":{"zip_code":"7141221","prefecture":"岡山県","prefecture_kana":"オカヤマケン","city":"小田郡矢掛町","city_kana":"オダグンヤカゲチョウ","town":"宇内","town_kana":"ウナイ","prefecture_code":33},"1226":{"zip_code":"7141226","prefecture":"岡山県","prefecture_kana":"オカヤマケン","city":"小田郡矢掛町","city_kana":"オダグンヤカゲチョウ","town":"江良","town_kana":"エラ","prefecture_code":33},"1227":{"zip_code":"7141227","prefecture":"岡山県","prefecture_kana":"オカヤマケン","city":"小田郡矢掛町","city_kana":"オダグンヤカゲチョウ","town":"小田","town_kana":"オダ","prefecture_code":33},"1202":{"zip_code":"7141202","prefecture":"岡山県","prefecture_kana":"オカヤマケン","city":"小田郡矢掛町","city_kana":"オダグンヤカゲチョウ","town":"小林","town_kana":"オバヤシ","prefecture_code":33},"1203":{"zip_code":"7141203","prefecture":"岡山県","prefecture_kana":"オカヤマケン","city":"小田郡矢掛町","city_kana":"オダグンヤカゲチョウ","town":"上高末","town_kana":"カミコウズエ","prefecture_code":33},"1213":{"zip_code":"7141213","prefecture":"岡山県","prefecture_kana":"オカヤマケン","city":"小田郡矢掛町","city_kana":"オダグンヤカゲチョウ","town":"里山田","town_kana":"サトヤマダ","prefecture_code":33},"1204":{"zip_code":"7141204","prefecture":"岡山県","prefecture_kana":"オカヤマケン","city":"小田郡矢掛町","city_kana":"オダグンヤカゲチョウ","town":"下高末","town_kana":"シモコウズエ","prefecture_code":33},"1215":{"zip_code":"7141215","prefecture":"岡山県","prefecture_kana":"オカヤマケン","city":"小田郡矢掛町","city_kana":"オダグンヤカゲチョウ","town":"中","town_kana":"ナカ","prefecture_code":33},"1222":{"zip_code":"7141222","prefecture":"岡山県","prefecture_kana":"オカヤマケン","city":"小田郡矢掛町","city_kana":"オダグンヤカゲチョウ","town":"西川面","town_kana":"ニシカワモ","prefecture_code":33},"1223":{"zip_code":"7141223","prefecture":"岡山県","prefecture_kana":"オカヤマケン","city":"小田郡矢掛町","city_kana":"オダグンヤカゲチョウ","town":"東川面","town_kana":"ヒガシカワモ","prefecture_code":33},"1211":{"zip_code":"7141211","prefecture":"岡山県","prefecture_kana":"オカヤマケン","city":"小田郡矢掛町","city_kana":"オダグンヤカゲチョウ","town":"東三成","town_kana":"ヒガシミナリ","prefecture_code":33},"1214":{"zip_code":"7141214","prefecture":"岡山県","prefecture_kana":"オカヤマケン","city":"小田郡矢掛町","city_kana":"オダグンヤカゲチョウ","town":"南山田","town_kana":"ミナミヤマダ","prefecture_code":33},"1224":{"zip_code":"7141224","prefecture":"岡山県","prefecture_kana":"オカヤマケン","city":"小田郡矢掛町","city_kana":"オダグンヤカゲチョウ","town":"本堀","town_kana":"モトホリ","prefecture_code":33},"1201":{"zip_code":"7141201","prefecture":"岡山県","prefecture_kana":"オカヤマケン","city":"小田郡矢掛町","city_kana":"オダグンヤカゲチョウ","town":"矢掛","town_kana":"ヤカゲ","prefecture_code":33},"1212":{"zip_code":"7141212","prefecture":"岡山県","prefecture_kana":"オカヤマケン","city":"小田郡矢掛町","city_kana":"オダグンヤカゲチョウ","town":"横谷","town_kana":"ヨコダニ","prefecture_code":33}}