{"0000":{"zip_code":"7150000","prefecture":"岡山県","prefecture_kana":"オカヤマケン","city":"井原市","city_kana":"イバラシ","town":"以下に掲載がない場合","town_kana":"イカニケイサイガナイバアイ","prefecture_code":33},"0012":{"zip_code":"7150012","prefecture":"岡山県","prefecture_kana":"オカヤマケン","city":"井原市","city_kana":"イバラシ","town":"青野町","town_kana":"アオノチョウ","prefecture_code":33},"0019":{"zip_code":"7150019","prefecture":"岡山県","prefecture_kana":"オカヤマケン","city":"井原市","city_kana":"イバラシ","town":"井原町","town_kana":"イバラチョウ","prefecture_code":33},"0016":{"zip_code":"7150016","prefecture":"岡山県","prefecture_kana":"オカヤマケン","city":"井原市","city_kana":"イバラシ","town":"岩倉町","town_kana":"イワクラチョウ","prefecture_code":33},"0023":{"zip_code":"7150023","prefecture":"岡山県","prefecture_kana":"オカヤマケン","city":"井原市","city_kana":"イバラシ","town":"大江町","town_kana":"オオエチョウ","prefecture_code":33},"0021":{"zip_code":"7150021","prefecture":"岡山県","prefecture_kana":"オカヤマケン","city":"井原市","city_kana":"イバラシ","town":"上出部町","town_kana":"カミイズエチョウ","prefecture_code":33},"0026":{"zip_code":"7150026","prefecture":"岡山県","prefecture_kana":"オカヤマケン","city":"井原市","city_kana":"イバラシ","town":"上出部町四季が丘","town_kana":"カミイズエチョウシキガオカ","prefecture_code":33},"0018":{"zip_code":"7150018","prefecture":"岡山県","prefecture_kana":"オカヤマケン","city":"井原市","city_kana":"イバラシ","town":"上稲木町","town_kana":"カミイナギチョウ","prefecture_code":33},"0013":{"zip_code":"7150013","prefecture":"岡山県","prefecture_kana":"オカヤマケン","city":"井原市","city_kana":"イバラシ","town":"北山町","town_kana":"キタヤマチョウ","prefecture_code":33},"0004":{"zip_code":"7150004","prefecture":"岡山県","prefecture_kana":"オカヤマケン","city":"井原市","city_kana":"イバラシ","town":"木之子町","town_kana":"キノコチョウ","prefecture_code":33},"0002":{"zip_code":"7150002","prefecture":"岡山県","prefecture_kana":"オカヤマケン","city":"井原市","city_kana":"イバラシ","town":"神代町","town_kana":"コウジロチョウ","prefecture_code":33},"0025":{"zip_code":"7150025","prefecture":"岡山県","prefecture_kana":"オカヤマケン","city":"井原市","city_kana":"イバラシ","town":"笹賀町","town_kana":"ササカチョウ","prefecture_code":33},"0022":{"zip_code":"7150022","prefecture":"岡山県","prefecture_kana":"オカヤマケン","city":"井原市","city_kana":"イバラシ","town":"下出部町","town_kana":"シモイズエチョウ","prefecture_code":33},"0017":{"zip_code":"7150017","prefecture":"岡山県","prefecture_kana":"オカヤマケン","city":"井原市","city_kana":"イバラシ","town":"下稲木町","town_kana":"シモイナギチョウ","prefecture_code":33},"0024":{"zip_code":"7150024","prefecture":"岡山県","prefecture_kana":"オカヤマケン","city":"井原市","city_kana":"イバラシ","town":"高屋町","town_kana":"タカヤチョウ","prefecture_code":33},"0014":{"zip_code":"7150014","prefecture":"岡山県","prefecture_kana":"オカヤマケン","city":"井原市","city_kana":"イバラシ","town":"七日市町","town_kana":"ナヌカイチチョウ","prefecture_code":33},"0006":{"zip_code":"7150006","prefecture":"岡山県","prefecture_kana":"オカヤマケン","city":"井原市","city_kana":"イバラシ","town":"西江原町","town_kana":"ニシエバラチョウ","prefecture_code":33},"0015":{"zip_code":"7150015","prefecture":"岡山県","prefecture_kana":"オカヤマケン","city":"井原市","city_kana":"イバラシ","town":"西方町","town_kana":"ニシガタチョウ","prefecture_code":33},"0001":{"zip_code":"7150001","prefecture":"岡山県","prefecture_kana":"オカヤマケン","city":"井原市","city_kana":"イバラシ","town":"野上町","town_kana":"ノガミチョウ","prefecture_code":33},"0011":{"zip_code":"7150011","prefecture":"岡山県","prefecture_kana":"オカヤマケン","city":"井原市","city_kana":"イバラシ","town":"稗原町","town_kana":"ヒエハラチョウ","prefecture_code":33},"0003":{"zip_code":"7150003","prefecture":"岡山県","prefecture_kana":"オカヤマケン","city":"井原市","city_kana":"イバラシ","town":"東江原町","town_kana":"ヒガシエバラチョウ","prefecture_code":33},"0005":{"zip_code":"7150005","prefecture":"岡山県","prefecture_kana":"オカヤマケン","city":"井原市","city_kana":"イバラシ","town":"門田町","town_kana":"モンデンチョウ","prefecture_code":33}}