{"0000":{"zip_code":"7160000","prefecture":"岡山県","prefecture_kana":"オカヤマケン","city":"高梁市","city_kana":"タカハシシ","town":"以下に掲載がない場合","town_kana":"イカニケイサイガナイバアイ","prefecture_code":33},"0009":{"zip_code":"7160009","prefecture":"岡山県","prefecture_kana":"オカヤマケン","city":"高梁市","city_kana":"タカハシシ","town":"間之町","town_kana":"アイノマチ","prefecture_code":33},"0039":{"zip_code":"7160039","prefecture":"岡山県","prefecture_kana":"オカヤマケン","city":"高梁市","city_kana":"タカハシシ","town":"旭町","town_kana":"アサヒマチ","prefecture_code":33},"0018":{"zip_code":"7160018","prefecture":"岡山県","prefecture_kana":"オカヤマケン","city":"高梁市","city_kana":"タカハシシ","town":"伊賀町","town_kana":"イガマチ","prefecture_code":33},"0015":{"zip_code":"7160015","prefecture":"岡山県","prefecture_kana":"オカヤマケン","city":"高梁市","city_kana":"タカハシシ","town":"石火矢町","town_kana":"イシビヤチョウ","prefecture_code":33},"1321":{"zip_code":"7161321","prefecture":"岡山県","prefecture_kana":"オカヤマケン","city":"高梁市","city_kana":"タカハシシ","town":"有漢町有漢","town_kana":"ウカンチョウウカン","prefecture_code":33},"1322":{"zip_code":"7161322","prefecture":"岡山県","prefecture_kana":"オカヤマケン","city":"高梁市","city_kana":"タカハシシ","town":"有漢町上有漢","town_kana":"ウカンチョウカミウカン","prefecture_code":33},"0004":{"zip_code":"7160004","prefecture":"岡山県","prefecture_kana":"オカヤマケン","city":"高梁市","city_kana":"タカハシシ","town":"内山下","town_kana":"ウチサンゲ","prefecture_code":33},"0007":{"zip_code":"7160007","prefecture":"岡山県","prefecture_kana":"オカヤマケン","city":"高梁市","city_kana":"タカハシシ","town":"奥万田町","town_kana":"オクマンダチョウ","prefecture_code":33},"0061":{"zip_code":"7160061","prefecture":"岡山県","prefecture_kana":"オカヤマケン","city":"高梁市","city_kana":"タカハシシ","town":"落合町阿部","town_kana":"オチアイチョウアベ","prefecture_code":33},"0064":{"zip_code":"7160064","prefecture":"岡山県","prefecture_kana":"オカヤマケン","city":"高梁市","city_kana":"タカハシシ","town":"落合町福地","town_kana":"オチアイチョウシロチ","prefecture_code":33},"0062":{"zip_code":"7160062","prefecture":"岡山県","prefecture_kana":"オカヤマケン","city":"高梁市","city_kana":"タカハシシ","town":"落合町近似","town_kana":"オチアイチョウチカノリ","prefecture_code":33},"0063":{"zip_code":"7160063","prefecture":"岡山県","prefecture_kana":"オカヤマケン","city":"高梁市","city_kana":"タカハシシ","town":"落合町原田","town_kana":"オチアイチョウハラダ","prefecture_code":33},"0017":{"zip_code":"7160017","prefecture":"岡山県","prefecture_kana":"オカヤマケン","city":"高梁市","city_kana":"タカハシシ","town":"御前町","town_kana":"オンザキチョウ","prefecture_code":33},"0028":{"zip_code":"7160028","prefecture":"岡山県","prefecture_kana":"オカヤマケン","city":"高梁市","city_kana":"タカハシシ","town":"柿木町","town_kana":"カキノキチョウ","prefecture_code":33},"0023":{"zip_code":"7160023","prefecture":"岡山県","prefecture_kana":"オカヤマケン","city":"高梁市","city_kana":"タカハシシ","town":"鍜冶町","town_kana":"カジマチ","prefecture_code":33},"0013":{"zip_code":"7160013","prefecture":"岡山県","prefecture_kana":"オカヤマケン","city":"高梁市","city_kana":"タカハシシ","town":"片原町","town_kana":"カタハラチョウ","prefecture_code":33},"0041":{"zip_code":"7160041","prefecture":"岡山県","prefecture_kana":"オカヤマケン","city":"高梁市","city_kana":"タカハシシ","town":"上谷町","town_kana":"カミダニチョウ","prefecture_code":33},"0222":{"zip_code":"7160222","prefecture":"岡山県","prefecture_kana":"オカヤマケン","city":"高梁市","city_kana":"タカハシシ","town":"川上町大原","town_kana":"カワカミチョウオオバラ","prefecture_code":33},"0211":{"zip_code":"7160211","prefecture":"岡山県","prefecture_kana":"オカヤマケン","city":"高梁市","city_kana":"タカハシシ","town":"川上町上大竹","town_kana":"カワカミチョウカミオオタケ","prefecture_code":33},"0223":{"zip_code":"7160223","prefecture":"岡山県","prefecture_kana":"オカヤマケン","city":"高梁市","city_kana":"タカハシシ","town":"川上町高山","town_kana":"カワカミチョウコウヤマ","prefecture_code":33},"0221":{"zip_code":"7160221","prefecture":"岡山県","prefecture_kana":"オカヤマケン","city":"高梁市","city_kana":"タカハシシ","town":"川上町高山市","town_kana":"カワカミチョウコウヤマイチ","prefecture_code":33},"0201":{"zip_code":"7160201","prefecture":"岡山県","prefecture_kana":"オカヤマケン","city":"高梁市","city_kana":"タカハシシ","town":"川上町地頭","town_kana":"カワカミチョウジトウ","prefecture_code":33},"0212":{"zip_code":"7160212","prefecture":"岡山県","prefecture_kana":"オカヤマケン","city":"高梁市","city_kana":"タカハシシ","town":"川上町下大竹","town_kana":"カワカミチョウシモオオタケ","prefecture_code":33},"0205":{"zip_code":"7160205","prefecture":"岡山県","prefecture_kana":"オカヤマケン","city":"高梁市","city_kana":"タカハシシ","town":"川上町臘数","town_kana":"カワカミチョウシワス","prefecture_code":33},"0202":{"zip_code":"7160202","prefecture":"岡山県","prefecture_kana":"オカヤマケン","city":"高梁市","city_kana":"タカハシシ","town":"川上町七地","town_kana":"カワカミチョウナナチ","prefecture_code":33},"0207":{"zip_code":"7160207","prefecture":"岡山県","prefecture_kana":"オカヤマケン","city":"高梁市","city_kana":"タカハシシ","town":"川上町仁賀","town_kana":"カワカミチョウニカ","prefecture_code":33},"0203":{"zip_code":"7160203","prefecture":"岡山県","prefecture_kana":"オカヤマケン","city":"高梁市","city_kana":"タカハシシ","town":"川上町三沢","town_kana":"カワカミチョウミサワ","prefecture_code":33},"0206":{"zip_code":"7160206","prefecture":"岡山県","prefecture_kana":"オカヤマケン","city":"高梁市","city_kana":"タカハシシ","town":"川上町吉木","town_kana":"カワカミチョウヨシギ","prefecture_code":33},"0204":{"zip_code":"7160204","prefecture":"岡山県","prefecture_kana":"オカヤマケン","city":"高梁市","city_kana":"タカハシシ","town":"川上町領家","town_kana":"カワカミチョウリョウケ","prefecture_code":33},"0005":{"zip_code":"7160005","prefecture":"岡山県","prefecture_kana":"オカヤマケン","city":"高梁市","city_kana":"タカハシシ","town":"川端町","town_kana":"カワバタチョウ","prefecture_code":33},"0026":{"zip_code":"7160026","prefecture":"岡山県","prefecture_kana":"オカヤマケン","city":"高梁市","city_kana":"タカハシシ","town":"甲賀町","town_kana":"コウガチョウ","prefecture_code":33},"0025":{"zip_code":"7160025","prefecture":"岡山県","prefecture_kana":"オカヤマケン","city":"高梁市","city_kana":"タカハシシ","town":"荒神町","town_kana":"コウジンチョウ","prefecture_code":33},"0006":{"zip_code":"7160006","prefecture":"岡山県","prefecture_kana":"オカヤマケン","city":"高梁市","city_kana":"タカハシシ","town":"小高下町","town_kana":"ココウゲチョウ","prefecture_code":33},"1311":{"zip_code":"7161311","prefecture":"岡山県","prefecture_kana":"オカヤマケン","city":"高梁市","city_kana":"タカハシシ","town":"巨瀬町","town_kana":"コセチョウ","prefecture_code":33},"0035":{"zip_code":"7160035","prefecture":"岡山県","prefecture_kana":"オカヤマケン","city":"高梁市","city_kana":"タカハシシ","town":"栄町","town_kana":"サカエマチ","prefecture_code":33},"0042":{"zip_code":"7160042","prefecture":"岡山県","prefecture_kana":"オカヤマケン","city":"高梁市","city_kana":"タカハシシ","town":"下谷町","town_kana":"シモダニチョウ","prefecture_code":33},"0022":{"zip_code":"7160022","prefecture":"岡山県","prefecture_kana":"オカヤマケン","city":"高梁市","city_kana":"タカハシシ","town":"下町","town_kana":"シモマチ","prefecture_code":33},"0012":{"zip_code":"7160012","prefecture":"岡山県","prefecture_kana":"オカヤマケン","city":"高梁市","city_kana":"タカハシシ","town":"新町","town_kana":"シンマチ","prefecture_code":33},"0003":{"zip_code":"7160003","prefecture":"岡山県","prefecture_kana":"オカヤマケン","city":"高梁市","city_kana":"タカハシシ","town":"高倉町大瀬八長","town_kana":"タカクラチョウオオセオナガ","prefecture_code":33},"0053":{"zip_code":"7160053","prefecture":"岡山県","prefecture_kana":"オカヤマケン","city":"高梁市","city_kana":"タカハシシ","town":"玉川町下切","town_kana":"タマガワチョウシタギリ","prefecture_code":33},"0052":{"zip_code":"7160052","prefecture":"岡山県","prefecture_kana":"オカヤマケン","city":"高梁市","city_kana":"タカハシシ","town":"玉川町玉","town_kana":"タマガワチョウタマ","prefecture_code":33},"0054":{"zip_code":"7160054","prefecture":"岡山県","prefecture_kana":"オカヤマケン","city":"高梁市","city_kana":"タカハシシ","town":"玉川町増原","town_kana":"タマガワチョウマシハラ","prefecture_code":33},"0024":{"zip_code":"7160024","prefecture":"岡山県","prefecture_kana":"オカヤマケン","city":"高梁市","city_kana":"タカハシシ","town":"大工町","town_kana":"ダイクチョウ","prefecture_code":33},"0047":{"zip_code":"7160047","prefecture":"岡山県","prefecture_kana":"オカヤマケン","city":"高梁市","city_kana":"タカハシシ","town":"段町","town_kana":"ダンチョウ","prefecture_code":33},"0021":{"zip_code":"7160021","prefecture":"岡山県","prefecture_kana":"オカヤマケン","city":"高梁市","city_kana":"タカハシシ","town":"中間町","town_kana":"チュウゲンマチ","prefecture_code":33},"0002":{"zip_code":"7160002","prefecture":"岡山県","prefecture_kana":"オカヤマケン","city":"高梁市","city_kana":"タカハシシ","town":"津川町今津","town_kana":"ツガワチョウイマヅ","prefecture_code":33},"0001":{"zip_code":"7160001","prefecture":"岡山県","prefecture_kana":"オカヤマケン","city":"高梁市","city_kana":"タカハシシ","town":"津川町八川","town_kana":"ツガワチョウヤガワ","prefecture_code":33},"0031":{"zip_code":"7160031","prefecture":"岡山県","prefecture_kana":"オカヤマケン","city":"高梁市","city_kana":"タカハシシ","town":"鉄砲町","town_kana":"テッポウチョウ","prefecture_code":33},"0019":{"zip_code":"7160019","prefecture":"岡山県","prefecture_kana":"オカヤマケン","city":"高梁市","city_kana":"タカハシシ","town":"寺町","town_kana":"テラマチ","prefecture_code":33},"0014":{"zip_code":"7160014","prefecture":"岡山県","prefecture_kana":"オカヤマケン","city":"高梁市","city_kana":"タカハシシ","town":"中之町","town_kana":"ナカノチョウ","prefecture_code":33},"0045":{"zip_code":"7160045","prefecture":"岡山県","prefecture_kana":"オカヤマケン","city":"高梁市","city_kana":"タカハシシ","town":"中原町","town_kana":"ナカバラチョウ","prefecture_code":33},"0333":{"zip_code":"7160333","prefecture":"岡山県","prefecture_kana":"オカヤマケン","city":"高梁市","city_kana":"タカハシシ","town":"成羽町相坂","town_kana":"ナリワチョウアイサカ","prefecture_code":33},"0334":{"zip_code":"7160334","prefecture":"岡山県","prefecture_kana":"オカヤマケン","city":"高梁市","city_kana":"タカハシシ","town":"成羽町長地","town_kana":"ナリワチョウオサジ","prefecture_code":33},"0102":{"zip_code":"7160102","prefecture":"岡山県","prefecture_kana":"オカヤマケン","city":"高梁市","city_kana":"タカハシシ","town":"成羽町上日名","town_kana":"ナリワチョウカミヒナ","prefecture_code":33},"0332":{"zip_code":"7160332","prefecture":"岡山県","prefecture_kana":"オカヤマケン","city":"高梁市","city_kana":"タカハシシ","town":"成羽町小泉","town_kana":"ナリワチョウコイズミ","prefecture_code":33},"0113":{"zip_code":"7160113","prefecture":"岡山県","prefecture_kana":"オカヤマケン","city":"高梁市","city_kana":"タカハシシ","town":"成羽町佐々木","town_kana":"ナリワチョウササキ","prefecture_code":33},"0111":{"zip_code":"7160111","prefecture":"岡山県","prefecture_kana":"オカヤマケン","city":"高梁市","city_kana":"タカハシシ","town":"成羽町下原","town_kana":"ナリワチョウシモハラ","prefecture_code":33},"0101":{"zip_code":"7160101","prefecture":"岡山県","prefecture_kana":"オカヤマケン","city":"高梁市","city_kana":"タカハシシ","town":"成羽町下日名","town_kana":"ナリワチョウシモヒナ","prefecture_code":33},"0121":{"zip_code":"7160121","prefecture":"岡山県","prefecture_kana":"オカヤマケン","city":"高梁市","city_kana":"タカハシシ","town":"成羽町成羽","town_kana":"ナリワチョウナリワ","prefecture_code":33},"0331":{"zip_code":"7160331","prefecture":"岡山県","prefecture_kana":"オカヤマケン","city":"高梁市","city_kana":"タカハシシ","town":"成羽町羽根","town_kana":"ナリワチョウハネ","prefecture_code":33},"0122":{"zip_code":"7160122","prefecture":"岡山県","prefecture_kana":"オカヤマケン","city":"高梁市","city_kana":"タカハシシ","town":"成羽町羽山","town_kana":"ナリワチョウハヤマ","prefecture_code":33},"0335":{"zip_code":"7160335","prefecture":"岡山県","prefecture_kana":"オカヤマケン","city":"高梁市","city_kana":"タカハシシ","town":"成羽町布寄","town_kana":"ナリワチョウフヨリ","prefecture_code":33},"0112":{"zip_code":"7160112","prefecture":"岡山県","prefecture_kana":"オカヤマケン","city":"高梁市","city_kana":"タカハシシ","town":"成羽町星原","town_kana":"ナリワチョウホシバラ","prefecture_code":33},"0038":{"zip_code":"7160038","prefecture":"岡山県","prefecture_kana":"オカヤマケン","city":"高梁市","city_kana":"タカハシシ","town":"浜町","town_kana":"ハマチョウ","prefecture_code":33},"0044":{"zip_code":"7160044","prefecture":"岡山県","prefecture_kana":"オカヤマケン","city":"高梁市","city_kana":"タカハシシ","town":"原田南町","town_kana":"ハラダミナミチョウ","prefecture_code":33},"0043":{"zip_code":"7160043","prefecture":"岡山県","prefecture_kana":"オカヤマケン","city":"高梁市","city_kana":"タカハシシ","town":"原田北町","town_kana":"ハラダキタチョウ","prefecture_code":33},"0034":{"zip_code":"7160034","prefecture":"岡山県","prefecture_kana":"オカヤマケン","city":"高梁市","city_kana":"タカハシシ","town":"東町","town_kana":"ヒガシマチ","prefecture_code":33},"0301":{"zip_code":"7160301","prefecture":"岡山県","prefecture_kana":"オカヤマケン","city":"高梁市","city_kana":"タカハシシ","town":"備中町志藤用瀬","town_kana":"ビッチュウチョウシトウヨウゼ","prefecture_code":33},"0303":{"zip_code":"7160303","prefecture":"岡山県","prefecture_kana":"オカヤマケン","city":"高梁市","city_kana":"タカハシシ","town":"備中町長屋","town_kana":"ビッチュウチョウナガヤ","prefecture_code":33},"0323":{"zip_code":"7160323","prefecture":"岡山県","prefecture_kana":"オカヤマケン","city":"高梁市","city_kana":"タカハシシ","town":"備中町西山","town_kana":"ビッチュウチョウニシヤマ","prefecture_code":33},"0322":{"zip_code":"7160322","prefecture":"岡山県","prefecture_kana":"オカヤマケン","city":"高梁市","city_kana":"タカハシシ","town":"備中町西油野","town_kana":"ビッチュウチョウニシユノ","prefecture_code":33},"0321":{"zip_code":"7160321","prefecture":"岡山県","prefecture_kana":"オカヤマケン","city":"高梁市","city_kana":"タカハシシ","town":"備中町東油野","town_kana":"ビッチュウチョウヒガシユノ","prefecture_code":33},"0311":{"zip_code":"7160311","prefecture":"岡山県","prefecture_kana":"オカヤマケン","city":"高梁市","city_kana":"タカハシシ","town":"備中町平川","town_kana":"ビッチュウチョウヒラカワ","prefecture_code":33},"0304":{"zip_code":"7160304","prefecture":"岡山県","prefecture_kana":"オカヤマケン","city":"高梁市","city_kana":"タカハシシ","town":"備中町布賀","town_kana":"ビッチュウチョウフカ","prefecture_code":33},"0302":{"zip_code":"7160302","prefecture":"岡山県","prefecture_kana":"オカヤマケン","city":"高梁市","city_kana":"タカハシシ","town":"備中町布瀬","town_kana":"ビッチュウチョウフセ","prefecture_code":33},"0011":{"zip_code":"7160011","prefecture":"岡山県","prefecture_kana":"オカヤマケン","city":"高梁市","city_kana":"タカハシシ","town":"本町","town_kana":"ホンマチ","prefecture_code":33},"0037":{"zip_code":"7160037","prefecture":"岡山県","prefecture_kana":"オカヤマケン","city":"高梁市","city_kana":"タカハシシ","town":"正宗町","town_kana":"マサムネチョウ","prefecture_code":33},"0065":{"zip_code":"7160065","prefecture":"岡山県","prefecture_kana":"オカヤマケン","city":"高梁市","city_kana":"タカハシシ","town":"松原町大津寄","town_kana":"マツバラチョウオオヅヨリ","prefecture_code":33},"0068":{"zip_code":"7160068","prefecture":"岡山県","prefecture_kana":"オカヤマケン","city":"高梁市","city_kana":"タカハシシ","town":"松原町神原","town_kana":"マツバラチョウコウバラ","prefecture_code":33},"0067":{"zip_code":"7160067","prefecture":"岡山県","prefecture_kana":"オカヤマケン","city":"高梁市","city_kana":"タカハシシ","town":"松原町春木","town_kana":"マツバラチョウハルキ","prefecture_code":33},"0066":{"zip_code":"7160066","prefecture":"岡山県","prefecture_kana":"オカヤマケン","city":"高梁市","city_kana":"タカハシシ","town":"松原町松岡","town_kana":"マツバラチョウマツオカ","prefecture_code":33},"0036":{"zip_code":"7160036","prefecture":"岡山県","prefecture_kana":"オカヤマケン","city":"高梁市","city_kana":"タカハシシ","town":"松原通","town_kana":"マツバラドオリ","prefecture_code":33},"0051":{"zip_code":"7160051","prefecture":"岡山県","prefecture_kana":"オカヤマケン","city":"高梁市","city_kana":"タカハシシ","town":"松山","town_kana":"マツヤマ","prefecture_code":33},"0033":{"zip_code":"7160033","prefecture":"岡山県","prefecture_kana":"オカヤマケン","city":"高梁市","city_kana":"タカハシシ","town":"南町","town_kana":"ミナミマチ","prefecture_code":33},"0029":{"zip_code":"7160029","prefecture":"岡山県","prefecture_kana":"オカヤマケン","city":"高梁市","city_kana":"タカハシシ","town":"向町","town_kana":"ムコウチョウ","prefecture_code":33},"0027":{"zip_code":"7160027","prefecture":"岡山県","prefecture_kana":"オカヤマケン","city":"高梁市","city_kana":"タカハシシ","town":"八幡町","town_kana":"ヤハタチョウ","prefecture_code":33},"0032":{"zip_code":"7160032","prefecture":"岡山県","prefecture_kana":"オカヤマケン","city":"高梁市","city_kana":"タカハシシ","town":"弓之町","town_kana":"ユミノチョウ","prefecture_code":33},"0046":{"zip_code":"7160046","prefecture":"岡山県","prefecture_kana":"オカヤマケン","city":"高梁市","city_kana":"タカハシシ","town":"横町","town_kana":"ヨコチョウ","prefecture_code":33},"0016":{"zip_code":"7160016","prefecture":"岡山県","prefecture_kana":"オカヤマケン","city":"高梁市","city_kana":"タカハシシ","town":"頼久寺町","town_kana":"ライキュウジチョウ","prefecture_code":33},"0008":{"zip_code":"7160008","prefecture":"岡山県","prefecture_kana":"オカヤマケン","city":"高梁市","city_kana":"タカハシシ","town":"和田町","town_kana":"ワダチョウ","prefecture_code":33},"1431":{"zip_code":"7161431","prefecture":"岡山県","prefecture_kana":"オカヤマケン","city":"真庭市","city_kana":"マニワシ","town":"阿口","town_kana":"アクチ","prefecture_code":33},"1432":{"zip_code":"7161432","prefecture":"岡山県","prefecture_kana":"オカヤマケン","city":"真庭市","city_kana":"マニワシ","town":"上呰部","town_kana":"カミアザエ","prefecture_code":33},"1422":{"zip_code":"7161422","prefecture":"岡山県","prefecture_kana":"オカヤマケン","city":"真庭市","city_kana":"マニワシ","town":"上中津井","town_kana":"カミナカツイ","prefecture_code":33},"1411":{"zip_code":"7161411","prefecture":"岡山県","prefecture_kana":"オカヤマケン","city":"真庭市","city_kana":"マニワシ","town":"上水田","town_kana":"カミミズタ","prefecture_code":33},"1401":{"zip_code":"7161401","prefecture":"岡山県","prefecture_kana":"オカヤマケン","city":"真庭市","city_kana":"マニワシ","town":"五名","town_kana":"ゴミョウ","prefecture_code":33},"1433":{"zip_code":"7161433","prefecture":"岡山県","prefecture_kana":"オカヤマケン","city":"真庭市","city_kana":"マニワシ","town":"下呰部","town_kana":"シモアザエ","prefecture_code":33},"1421":{"zip_code":"7161421","prefecture":"岡山県","prefecture_kana":"オカヤマケン","city":"真庭市","city_kana":"マニワシ","town":"下中津井","town_kana":"シモナカツイ","prefecture_code":33},"1403":{"zip_code":"7161403","prefecture":"岡山県","prefecture_kana":"オカヤマケン","city":"真庭市","city_kana":"マニワシ","town":"宮地","town_kana":"ミヤジ","prefecture_code":33},"1402":{"zip_code":"7161402","prefecture":"岡山県","prefecture_kana":"オカヤマケン","city":"真庭市","city_kana":"マニワシ","town":"山田","town_kana":"ヤマダ","prefecture_code":33},"1100":{"zip_code":"7161100","prefecture":"岡山県","prefecture_kana":"オカヤマケン","city":"加賀郡吉備中央町","city_kana":"カガグンキビチュウオウチョウ","town":"以下に掲載がない場合","town_kana":"イカニケイサイガナイバアイ","prefecture_code":33},"1131":{"zip_code":"7161131","prefecture":"岡山県","prefecture_kana":"オカヤマケン","city":"加賀郡吉備中央町","city_kana":"カガグンキビチュウオウチョウ","town":"上竹","town_kana":"カミタケ","prefecture_code":33},"1551":{"zip_code":"7161551","prefecture":"岡山県","prefecture_kana":"オカヤマケン","city":"加賀郡吉備中央町","city_kana":"カガグンキビチュウオウチョウ","town":"北","town_kana":"キタ","prefecture_code":33},"1102":{"zip_code":"7161102","prefecture":"岡山県","prefecture_kana":"オカヤマケン","city":"加賀郡吉備中央町","city_kana":"カガグンキビチュウオウチョウ","town":"黒土","town_kana":"クロツチ","prefecture_code":33},"1242":{"zip_code":"7161242","prefecture":"岡山県","prefecture_kana":"オカヤマケン","city":"加賀郡吉備中央町","city_kana":"カガグンキビチュウオウチョウ","town":"黒山","town_kana":"クロヤマ","prefecture_code":33},"1552":{"zip_code":"7161552","prefecture":"岡山県","prefecture_kana":"オカヤマケン","city":"加賀郡吉備中央町","city_kana":"カガグンキビチュウオウチョウ","town":"岨谷","town_kana":"スワタニ","prefecture_code":33},"1122":{"zip_code":"7161122","prefecture":"岡山県","prefecture_kana":"オカヤマケン","city":"加賀郡吉備中央町","city_kana":"カガグンキビチュウオウチョウ","town":"竹荘","town_kana":"タケショウ","prefecture_code":33},"1111":{"zip_code":"7161111","prefecture":"岡山県","prefecture_kana":"オカヤマケン","city":"加賀郡吉備中央町","city_kana":"カガグンキビチュウオウチョウ","town":"田土","town_kana":"タド","prefecture_code":33},"1101":{"zip_code":"7161101","prefecture":"岡山県","prefecture_kana":"オカヤマケン","city":"加賀郡吉備中央町","city_kana":"カガグンキビチュウオウチョウ","town":"豊野","town_kana":"トヨノ","prefecture_code":33},"1554":{"zip_code":"7161554","prefecture":"岡山県","prefecture_kana":"オカヤマケン","city":"加賀郡吉備中央町","city_kana":"カガグンキビチュウオウチョウ","town":"西","town_kana":"ニシ","prefecture_code":33},"1121":{"zip_code":"7161121","prefecture":"岡山県","prefecture_kana":"オカヤマケン","city":"加賀郡吉備中央町","city_kana":"カガグンキビチュウオウチョウ","town":"納地","town_kana":"ノウチ","prefecture_code":33},"1553":{"zip_code":"7161553","prefecture":"岡山県","prefecture_kana":"オカヤマケン","city":"加賀郡吉備中央町","city_kana":"カガグンキビチュウオウチョウ","town":"宮地","town_kana":"ミヤチ","prefecture_code":33},"1112":{"zip_code":"7161112","prefecture":"岡山県","prefecture_kana":"オカヤマケン","city":"加賀郡吉備中央町","city_kana":"カガグンキビチュウオウチョウ","town":"湯山","town_kana":"ユヤマ","prefecture_code":33},"1241":{"zip_code":"7161241","prefecture":"岡山県","prefecture_kana":"オカヤマケン","city":"加賀郡吉備中央町","city_kana":"カガグンキビチュウオウチョウ","town":"吉川","town_kana":"ヨシカワ","prefecture_code":33}}