{"0026":{"zip_code":"7170026","prefecture":"岡山県","prefecture_kana":"オカヤマケン","city":"真庭市","city_kana":"マニワシ","town":"荒田","town_kana":"アラタ","prefecture_code":33},"0421":{"zip_code":"7170421","prefecture":"岡山県","prefecture_kana":"オカヤマケン","city":"真庭市","city_kana":"マニワシ","town":"粟谷","town_kana":"アワダニ","prefecture_code":33},"0413":{"zip_code":"7170413","prefecture":"岡山県","prefecture_kana":"オカヤマケン","city":"真庭市","city_kana":"マニワシ","town":"禾津","town_kana":"イナツ","prefecture_code":33},"0745":{"zip_code":"7170745","prefecture":"岡山県","prefecture_kana":"オカヤマケン","city":"真庭市","city_kana":"マニワシ","town":"岩井畝","town_kana":"イワイウネ","prefecture_code":33},"0744":{"zip_code":"7170744","prefecture":"岡山県","prefecture_kana":"オカヤマケン","city":"真庭市","city_kana":"マニワシ","town":"岩井谷","town_kana":"イワイダニ","prefecture_code":33},"0742":{"zip_code":"7170742","prefecture":"岡山県","prefecture_kana":"オカヤマケン","city":"真庭市","city_kana":"マニワシ","town":"後谷","town_kana":"ウシロダニ","prefecture_code":33},"0025":{"zip_code":"7170025","prefecture":"岡山県","prefecture_kana":"オカヤマケン","city":"真庭市","city_kana":"マニワシ","town":"後谷畝","town_kana":"ウシロダニウネ","prefecture_code":33},"0023":{"zip_code":"7170023","prefecture":"岡山県","prefecture_kana":"オカヤマケン","city":"真庭市","city_kana":"マニワシ","town":"江川","town_kana":"エガワ","prefecture_code":33},"0015":{"zip_code":"7170015","prefecture":"岡山県","prefecture_kana":"オカヤマケン","city":"真庭市","city_kana":"マニワシ","town":"岡","town_kana":"オカ","prefecture_code":33},"0013":{"zip_code":"7170013","prefecture":"岡山県","prefecture_kana":"オカヤマケン","city":"真庭市","city_kana":"マニワシ","town":"勝山","town_kana":"カツヤマ","prefecture_code":33},"0101":{"zip_code":"7170101","prefecture":"岡山県","prefecture_kana":"オカヤマケン","city":"真庭市","city_kana":"マニワシ","town":"鉄山","town_kana":"カネヤマ","prefecture_code":33},"0746":{"zip_code":"7170746","prefecture":"岡山県","prefecture_kana":"オカヤマケン","city":"真庭市","city_kana":"マニワシ","town":"上","town_kana":"カミ","prefecture_code":33},"0004":{"zip_code":"7170004","prefecture":"岡山県","prefecture_kana":"オカヤマケン","city":"真庭市","city_kana":"マニワシ","town":"神庭","town_kana":"カンバ","prefecture_code":33},"0414":{"zip_code":"7170414","prefecture":"岡山県","prefecture_kana":"オカヤマケン","city":"真庭市","city_kana":"マニワシ","town":"釘貫小川","town_kana":"クギヌキコガワ","prefecture_code":33},"0006":{"zip_code":"7170006","prefecture":"岡山県","prefecture_kana":"オカヤマケン","city":"真庭市","city_kana":"マニワシ","town":"組","town_kana":"クミ","prefecture_code":33},"0423":{"zip_code":"7170423","prefecture":"岡山県","prefecture_kana":"オカヤマケン","city":"真庭市","city_kana":"マニワシ","town":"黒杭","town_kana":"クロクイ","prefecture_code":33},"0102":{"zip_code":"7170102","prefecture":"岡山県","prefecture_kana":"オカヤマケン","city":"真庭市","city_kana":"マニワシ","town":"黒田","town_kana":"クロダ","prefecture_code":33},"0027":{"zip_code":"7170027","prefecture":"岡山県","prefecture_kana":"オカヤマケン","city":"真庭市","city_kana":"マニワシ","town":"神代","town_kana":"コウジロ","prefecture_code":33},"0736":{"zip_code":"7170736","prefecture":"岡山県","prefecture_kana":"オカヤマケン","city":"真庭市","city_kana":"マニワシ","town":"古呂々尾中","town_kana":"コロロビナカ","prefecture_code":33},"0022":{"zip_code":"7170022","prefecture":"岡山県","prefecture_kana":"オカヤマケン","city":"真庭市","city_kana":"マニワシ","town":"三田","town_kana":"サンデン","prefecture_code":33},"0014":{"zip_code":"7170014","prefecture":"岡山県","prefecture_kana":"オカヤマケン","city":"真庭市","city_kana":"マニワシ","town":"柴原","town_kana":"シバラ","prefecture_code":33},"0735":{"zip_code":"7170735","prefecture":"岡山県","prefecture_kana":"オカヤマケン","city":"真庭市","city_kana":"マニワシ","town":"下岩","town_kana":"シモイワ","prefecture_code":33},"0403":{"zip_code":"7170403","prefecture":"岡山県","prefecture_kana":"オカヤマケン","city":"真庭市","city_kana":"マニワシ","town":"下湯原","town_kana":"シモユバラ","prefecture_code":33},"0002":{"zip_code":"7170002","prefecture":"岡山県","prefecture_kana":"オカヤマケン","city":"真庭市","city_kana":"マニワシ","town":"菅谷","town_kana":"スガタニ","prefecture_code":33},"0737":{"zip_code":"7170737","prefecture":"岡山県","prefecture_kana":"オカヤマケン","city":"真庭市","city_kana":"マニワシ","town":"清谷","town_kana":"セイタニ","prefecture_code":33},"0732":{"zip_code":"7170732","prefecture":"岡山県","prefecture_kana":"オカヤマケン","city":"真庭市","city_kana":"マニワシ","town":"高田山上","town_kana":"タカタヤマウエ","prefecture_code":33},"0103":{"zip_code":"7170103","prefecture":"岡山県","prefecture_kana":"オカヤマケン","city":"真庭市","city_kana":"マニワシ","town":"田口","town_kana":"タグチ","prefecture_code":33},"0003":{"zip_code":"7170003","prefecture":"岡山県","prefecture_kana":"オカヤマケン","city":"真庭市","city_kana":"マニワシ","town":"竹原","town_kana":"タケバラ","prefecture_code":33},"0424":{"zip_code":"7170424","prefecture":"岡山県","prefecture_kana":"オカヤマケン","city":"真庭市","city_kana":"マニワシ","town":"種","town_kana":"タネ","prefecture_code":33},"0401":{"zip_code":"7170401","prefecture":"岡山県","prefecture_kana":"オカヤマケン","city":"真庭市","city_kana":"マニワシ","town":"田羽根","town_kana":"タバネ","prefecture_code":33},"0024":{"zip_code":"7170024","prefecture":"岡山県","prefecture_kana":"オカヤマケン","city":"真庭市","city_kana":"マニワシ","town":"月田","town_kana":"ツキダ","prefecture_code":33},"0743":{"zip_code":"7170743","prefecture":"岡山県","prefecture_kana":"オカヤマケン","city":"真庭市","city_kana":"マニワシ","town":"月田本","town_kana":"ツキダホン","prefecture_code":33},"0415":{"zip_code":"7170415","prefecture":"岡山県","prefecture_kana":"オカヤマケン","city":"真庭市","city_kana":"マニワシ","town":"都喜足","town_kana":"ツギタル","prefecture_code":33},"0406":{"zip_code":"7170406","prefecture":"岡山県","prefecture_kana":"オカヤマケン","city":"真庭市","city_kana":"マニワシ","town":"豊栄","town_kana":"トヨサカ","prefecture_code":33},"0416":{"zip_code":"7170416","prefecture":"岡山県","prefecture_kana":"オカヤマケン","city":"真庭市","city_kana":"マニワシ","town":"仲間","town_kana":"ナカマ","prefecture_code":33},"0734":{"zip_code":"7170734","prefecture":"岡山県","prefecture_kana":"オカヤマケン","city":"真庭市","city_kana":"マニワシ","town":"野","town_kana":"ノ","prefecture_code":33},"0104":{"zip_code":"7170104","prefecture":"岡山県","prefecture_kana":"オカヤマケン","city":"真庭市","city_kana":"マニワシ","town":"延風","town_kana":"ノブカゼ","prefecture_code":33},"0405":{"zip_code":"7170405","prefecture":"岡山県","prefecture_kana":"オカヤマケン","city":"真庭市","city_kana":"マニワシ","town":"久見","town_kana":"ヒサミ","prefecture_code":33},"0425":{"zip_code":"7170425","prefecture":"岡山県","prefecture_kana":"オカヤマケン","city":"真庭市","city_kana":"マニワシ","town":"小童谷","town_kana":"ヒジヤ","prefecture_code":33},"0612":{"zip_code":"7170612","prefecture":"岡山県","prefecture_kana":"オカヤマケン","city":"真庭市","city_kana":"マニワシ","town":"蒜山上徳山","town_kana":"ヒルゼンカミトクヤマ","prefecture_code":33},"0505":{"zip_code":"7170505","prefecture":"岡山県","prefecture_kana":"オカヤマケン","city":"真庭市","city_kana":"マニワシ","town":"蒜山上長田","town_kana":"ヒルゼンカミナガタ","prefecture_code":33},"0602":{"zip_code":"7170602","prefecture":"岡山県","prefecture_kana":"オカヤマケン","city":"真庭市","city_kana":"マニワシ","town":"蒜山上福田","town_kana":"ヒルゼンカミフクダ","prefecture_code":33},"0513":{"zip_code":"7170513","prefecture":"岡山県","prefecture_kana":"オカヤマケン","city":"真庭市","city_kana":"マニワシ","town":"蒜山下和","town_kana":"ヒルゼンシタオ","prefecture_code":33},"0613":{"zip_code":"7170613","prefecture":"岡山県","prefecture_kana":"オカヤマケン","city":"真庭市","city_kana":"マニワシ","town":"蒜山下徳山","town_kana":"ヒルゼンシモトクヤマ","prefecture_code":33},"0506":{"zip_code":"7170506","prefecture":"岡山県","prefecture_kana":"オカヤマケン","city":"真庭市","city_kana":"マニワシ","town":"蒜山下長田","town_kana":"ヒルゼンシモナガタ","prefecture_code":33},"0504":{"zip_code":"7170504","prefecture":"岡山県","prefecture_kana":"オカヤマケン","city":"真庭市","city_kana":"マニワシ","town":"蒜山下福田","town_kana":"ヒルゼンシモフクダ","prefecture_code":33},"0507":{"zip_code":"7170507","prefecture":"岡山県","prefecture_kana":"オカヤマケン","city":"真庭市","city_kana":"マニワシ","town":"蒜山下見","town_kana":"ヒルゼンシモミ","prefecture_code":33},"0502":{"zip_code":"7170502","prefecture":"岡山県","prefecture_kana":"オカヤマケン","city":"真庭市","city_kana":"マニワシ","town":"蒜山富掛田","town_kana":"ヒルゼントミカケダ","prefecture_code":33},"0503":{"zip_code":"7170503","prefecture":"岡山県","prefecture_kana":"オカヤマケン","city":"真庭市","city_kana":"マニワシ","town":"蒜山富山根","town_kana":"ヒルゼントミヤマネ","prefecture_code":33},"0501":{"zip_code":"7170501","prefecture":"岡山県","prefecture_kana":"オカヤマケン","city":"真庭市","city_kana":"マニワシ","town":"蒜山中福田","town_kana":"ヒルゼンナカフクダ","prefecture_code":33},"0604":{"zip_code":"7170604","prefecture":"岡山県","prefecture_kana":"オカヤマケン","city":"真庭市","city_kana":"マニワシ","town":"蒜山西茅部","town_kana":"ヒルゼンニシカヤベ","prefecture_code":33},"0511":{"zip_code":"7170511","prefecture":"岡山県","prefecture_kana":"オカヤマケン","city":"真庭市","city_kana":"マニワシ","town":"蒜山初和","town_kana":"ヒルゼンハツワ","prefecture_code":33},"0603":{"zip_code":"7170603","prefecture":"岡山県","prefecture_kana":"オカヤマケン","city":"真庭市","city_kana":"マニワシ","town":"蒜山東茅部","town_kana":"ヒルゼンヒガシカヤベ","prefecture_code":33},"0515":{"zip_code":"7170515","prefecture":"岡山県","prefecture_kana":"オカヤマケン","city":"真庭市","city_kana":"マニワシ","town":"蒜山別所","town_kana":"ヒルゼンベッショ","prefecture_code":33},"0611":{"zip_code":"7170611","prefecture":"岡山県","prefecture_kana":"オカヤマケン","city":"真庭市","city_kana":"マニワシ","town":"蒜山本茅部","town_kana":"ヒルゼンホンカヤベ","prefecture_code":33},"0512":{"zip_code":"7170512","prefecture":"岡山県","prefecture_kana":"オカヤマケン","city":"真庭市","city_kana":"マニワシ","town":"蒜山真加子","town_kana":"ヒルゼンマカゴ","prefecture_code":33},"0601":{"zip_code":"7170601","prefecture":"岡山県","prefecture_kana":"オカヤマケン","city":"真庭市","city_kana":"マニワシ","town":"蒜山湯船","town_kana":"ヒルゼンユブネ","prefecture_code":33},"0514":{"zip_code":"7170514","prefecture":"岡山県","prefecture_kana":"オカヤマケン","city":"真庭市","city_kana":"マニワシ","town":"蒜山吉田","town_kana":"ヒルゼンヨシダ","prefecture_code":33},"0021":{"zip_code":"7170021","prefecture":"岡山県","prefecture_kana":"オカヤマケン","city":"真庭市","city_kana":"マニワシ","town":"福谷","town_kana":"フクタニ","prefecture_code":33},"0422":{"zip_code":"7170422","prefecture":"岡山県","prefecture_kana":"オカヤマケン","city":"真庭市","city_kana":"マニワシ","town":"藤森","town_kana":"フジモリ","prefecture_code":33},"0001":{"zip_code":"7170001","prefecture":"岡山県","prefecture_kana":"オカヤマケン","city":"真庭市","city_kana":"マニワシ","town":"星山","town_kana":"ホシヤマ","prefecture_code":33},"0007":{"zip_code":"7170007","prefecture":"岡山県","prefecture_kana":"オカヤマケン","city":"真庭市","city_kana":"マニワシ","town":"本郷","town_kana":"ホンゴウ","prefecture_code":33},"0412":{"zip_code":"7170412","prefecture":"岡山県","prefecture_kana":"オカヤマケン","city":"真庭市","city_kana":"マニワシ","town":"本庄","town_kana":"ホンジョウ","prefecture_code":33},"0017":{"zip_code":"7170017","prefecture":"岡山県","prefecture_kana":"オカヤマケン","city":"真庭市","city_kana":"マニワシ","town":"真賀","town_kana":"マガ","prefecture_code":33},"0731":{"zip_code":"7170731","prefecture":"岡山県","prefecture_kana":"オカヤマケン","city":"真庭市","city_kana":"マニワシ","town":"曲り","town_kana":"マガリ","prefecture_code":33},"0016":{"zip_code":"7170016","prefecture":"岡山県","prefecture_kana":"オカヤマケン","city":"真庭市","city_kana":"マニワシ","town":"正吉","town_kana":"マサヨシ","prefecture_code":33},"0411":{"zip_code":"7170411","prefecture":"岡山県","prefecture_kana":"オカヤマケン","city":"真庭市","city_kana":"マニワシ","town":"見明戸","town_kana":"ミアケド","prefecture_code":33},"0011":{"zip_code":"7170011","prefecture":"岡山県","prefecture_kana":"オカヤマケン","city":"真庭市","city_kana":"マニワシ","town":"見尾","town_kana":"ミオ","prefecture_code":33},"0105":{"zip_code":"7170105","prefecture":"岡山県","prefecture_kana":"オカヤマケン","city":"真庭市","city_kana":"マニワシ","town":"美甘","town_kana":"ミカモ","prefecture_code":33},"0426":{"zip_code":"7170426","prefecture":"岡山県","prefecture_kana":"オカヤマケン","city":"真庭市","city_kana":"マニワシ","town":"三世七原","town_kana":"ミセシチバラ","prefecture_code":33},"0404":{"zip_code":"7170404","prefecture":"岡山県","prefecture_kana":"オカヤマケン","city":"真庭市","city_kana":"マニワシ","town":"社","town_kana":"ヤシロ","prefecture_code":33},"0012":{"zip_code":"7170012","prefecture":"岡山県","prefecture_kana":"オカヤマケン","city":"真庭市","city_kana":"マニワシ","town":"山久世","town_kana":"ヤマクセ","prefecture_code":33},"0402":{"zip_code":"7170402","prefecture":"岡山県","prefecture_kana":"オカヤマケン","city":"真庭市","city_kana":"マニワシ","town":"湯原温泉","town_kana":"ユバラオンセン","prefecture_code":33},"0005":{"zip_code":"7170005","prefecture":"岡山県","prefecture_kana":"オカヤマケン","city":"真庭市","city_kana":"マニワシ","town":"横部","town_kana":"ヨコベ","prefecture_code":33},"0741":{"zip_code":"7170741","prefecture":"岡山県","prefecture_kana":"オカヤマケン","city":"真庭市","city_kana":"マニワシ","town":"若代","town_kana":"ワカシロ","prefecture_code":33},"0733":{"zip_code":"7170733","prefecture":"岡山県","prefecture_kana":"オカヤマケン","city":"真庭市","city_kana":"マニワシ","town":"若代畝","town_kana":"ワカシロウネ","prefecture_code":33},"0201":{"zip_code":"7170201","prefecture":"岡山県","prefecture_kana":"オカヤマケン","city":"真庭郡新庄村","city_kana":"マニワグンシンジョウソン","town":"新庄村一円","town_kana":"シンジョウソンイチエン","prefecture_code":33}}