{"0000":{"zip_code":"7180000","prefecture":"岡山県","prefecture_kana":"オカヤマケン","city":"新見市","city_kana":"ニイミシ","town":"","town_kana":"","prefecture_code":33},"0006":{"zip_code":"7180006","prefecture":"岡山県","prefecture_kana":"オカヤマケン","city":"新見市","city_kana":"ニイミシ","town":"足立","town_kana":"アシダチ","prefecture_code":33},"0015":{"zip_code":"7180015","prefecture":"岡山県","prefecture_kana":"オカヤマケン","city":"新見市","city_kana":"ニイミシ","town":"石蟹","town_kana":"イシガ","prefecture_code":33},"0016":{"zip_code":"7180016","prefecture":"岡山県","prefecture_kana":"オカヤマケン","city":"新見市","city_kana":"ニイミシ","town":"金谷","town_kana":"カナヤ","prefecture_code":33},"0005":{"zip_code":"7180005","prefecture":"岡山県","prefecture_kana":"オカヤマケン","city":"新見市","city_kana":"ニイミシ","town":"上市","town_kana":"カミイチ","prefecture_code":33},"0001":{"zip_code":"7180001","prefecture":"岡山県","prefecture_kana":"オカヤマケン","city":"新見市","city_kana":"ニイミシ","town":"上熊谷","town_kana":"カミクマタニ","prefecture_code":33},"0012":{"zip_code":"7180012","prefecture":"岡山県","prefecture_kana":"オカヤマケン","city":"新見市","city_kana":"ニイミシ","town":"唐松","town_kana":"カラマツ","prefecture_code":33},"0007":{"zip_code":"7180007","prefecture":"岡山県","prefecture_kana":"オカヤマケン","city":"新見市","city_kana":"ニイミシ","town":"坂本","town_kana":"サカモト","prefecture_code":33},"0002":{"zip_code":"7180002","prefecture":"岡山県","prefecture_kana":"オカヤマケン","city":"新見市","city_kana":"ニイミシ","town":"下熊谷","town_kana":"シモクマタニ","prefecture_code":33},"0013":{"zip_code":"7180013","prefecture":"岡山県","prefecture_kana":"オカヤマケン","city":"新見市","city_kana":"ニイミシ","town":"正田","town_kana":"ショウデン","prefecture_code":33},"0211":{"zip_code":"7180211","prefecture":"岡山県","prefecture_kana":"オカヤマケン","city":"新見市","city_kana":"ニイミシ","town":"菅生","town_kana":"スゴウ","prefecture_code":33},"0003":{"zip_code":"7180003","prefecture":"岡山県","prefecture_kana":"オカヤマケン","city":"新見市","city_kana":"ニイミシ","town":"高尾","town_kana":"タカオ","prefecture_code":33},"0101":{"zip_code":"7180101","prefecture":"岡山県","prefecture_kana":"オカヤマケン","city":"新見市","city_kana":"ニイミシ","town":"千屋","town_kana":"チヤ","prefecture_code":33},"0103":{"zip_code":"7180103","prefecture":"岡山県","prefecture_kana":"オカヤマケン","city":"新見市","city_kana":"ニイミシ","town":"千屋井原","town_kana":"チヤイハラ","prefecture_code":33},"0102":{"zip_code":"7180102","prefecture":"岡山県","prefecture_kana":"オカヤマケン","city":"新見市","city_kana":"ニイミシ","town":"千屋実","town_kana":"チヤサネ","prefecture_code":33},"0104":{"zip_code":"7180104","prefecture":"岡山県","prefecture_kana":"オカヤマケン","city":"新見市","city_kana":"ニイミシ","town":"千屋花見","town_kana":"チヤハナミ","prefecture_code":33},"0307":{"zip_code":"7180307","prefecture":"岡山県","prefecture_kana":"オカヤマケン","city":"新見市","city_kana":"ニイミシ","town":"哲多町老栄","town_kana":"テッタチョウオイザコ","prefecture_code":33},"0313":{"zip_code":"7180313","prefecture":"岡山県","prefecture_kana":"オカヤマケン","city":"新見市","city_kana":"ニイミシ","town":"哲多町大野","town_kana":"テッタチョウオオノ","prefecture_code":33},"0305":{"zip_code":"7180305","prefecture":"岡山県","prefecture_kana":"オカヤマケン","city":"新見市","city_kana":"ニイミシ","town":"哲多町荻尾","town_kana":"テッタチョウオギョオ","prefecture_code":33},"0311":{"zip_code":"7180311","prefecture":"岡山県","prefecture_kana":"オカヤマケン","city":"新見市","city_kana":"ニイミシ","town":"哲多町蚊家","town_kana":"テッタチョウコウノイエ","prefecture_code":33},"0312":{"zip_code":"7180312","prefecture":"岡山県","prefecture_kana":"オカヤマケン","city":"新見市","city_kana":"ニイミシ","town":"哲多町田淵","town_kana":"テッタチョウタブチ","prefecture_code":33},"0304":{"zip_code":"7180304","prefecture":"岡山県","prefecture_kana":"オカヤマケン","city":"新見市","city_kana":"ニイミシ","town":"哲多町成松","town_kana":"テッタチョウナリマツ","prefecture_code":33},"0302":{"zip_code":"7180302","prefecture":"岡山県","prefecture_kana":"オカヤマケン","city":"新見市","city_kana":"ニイミシ","town":"哲多町花木","town_kana":"テッタチョウハナギ","prefecture_code":33},"0303":{"zip_code":"7180303","prefecture":"岡山県","prefecture_kana":"オカヤマケン","city":"新見市","city_kana":"ニイミシ","town":"哲多町本郷","town_kana":"テッタチョウホンゴウ","prefecture_code":33},"0301":{"zip_code":"7180301","prefecture":"岡山県","prefecture_kana":"オカヤマケン","city":"新見市","city_kana":"ニイミシ","town":"哲多町宮河内","town_kana":"テッタチョウミヤゴウチ","prefecture_code":33},"0306":{"zip_code":"7180306","prefecture":"岡山県","prefecture_kana":"オカヤマケン","city":"新見市","city_kana":"ニイミシ","town":"哲多町矢戸","town_kana":"テッタチョウヤト","prefecture_code":33},"0014":{"zip_code":"7180014","prefecture":"岡山県","prefecture_kana":"オカヤマケン","city":"新見市","city_kana":"ニイミシ","town":"長屋","town_kana":"ナガヤ","prefecture_code":33},"0011":{"zip_code":"7180011","prefecture":"岡山県","prefecture_kana":"オカヤマケン","city":"新見市","city_kana":"ニイミシ","town":"新見","town_kana":"ニイミ","prefecture_code":33},"0017":{"zip_code":"7180017","prefecture":"岡山県","prefecture_kana":"オカヤマケン","city":"新見市","city_kana":"ニイミシ","town":"西方","town_kana":"ニシガタ","prefecture_code":33},"0004":{"zip_code":"7180004","prefecture":"岡山県","prefecture_kana":"オカヤマケン","city":"新見市","city_kana":"ニイミシ","town":"馬塚","town_kana":"マヅカ","prefecture_code":33}}