{"1100":{"zip_code":"7191100","prefecture":"岡山県","prefecture_kana":"オカヤマケン","city":"総社市","city_kana":"ソウジャシ","town":"以下に掲載がない場合","town_kana":"イカニケイサイガナイバアイ","prefecture_code":33},"1121":{"zip_code":"7191121","prefecture":"岡山県","prefecture_kana":"オカヤマケン","city":"総社市","city_kana":"ソウジャシ","town":"赤浜","town_kana":"アカハマ","prefecture_code":33},"1154":{"zip_code":"7191154","prefecture":"岡山県","prefecture_kana":"オカヤマケン","city":"総社市","city_kana":"ソウジャシ","town":"井尻野","town_kana":"イジリノ","prefecture_code":33},"1106":{"zip_code":"7191106","prefecture":"岡山県","prefecture_kana":"オカヤマケン","city":"総社市","city_kana":"ソウジャシ","town":"泉","town_kana":"イズミ","prefecture_code":33},"1125":{"zip_code":"7191125","prefecture":"岡山県","prefecture_kana":"オカヤマケン","city":"総社市","city_kana":"ソウジャシ","town":"井手","town_kana":"イデ","prefecture_code":33},"1315":{"zip_code":"7191315","prefecture":"岡山県","prefecture_kana":"オカヤマケン","city":"総社市","city_kana":"ソウジャシ","town":"宇山","town_kana":"ウヤマ","prefecture_code":33},"1136":{"zip_code":"7191136","prefecture":"岡山県","prefecture_kana":"オカヤマケン","city":"総社市","city_kana":"ソウジャシ","town":"駅前","town_kana":"エキマエ","prefecture_code":33},"1162":{"zip_code":"7191162","prefecture":"岡山県","prefecture_kana":"オカヤマケン","city":"総社市","city_kana":"ソウジャシ","town":"岡谷","town_kana":"オカダニ","prefecture_code":33},"1101":{"zip_code":"7191101","prefecture":"岡山県","prefecture_kana":"オカヤマケン","city":"総社市","city_kana":"ソウジャシ","town":"奥坂","town_kana":"オクサカ","prefecture_code":33},"1116":{"zip_code":"7191116","prefecture":"岡山県","prefecture_kana":"オカヤマケン","city":"総社市","city_kana":"ソウジャシ","town":"刑部","town_kana":"オシカベ","prefecture_code":33},"1322":{"zip_code":"7191322","prefecture":"岡山県","prefecture_kana":"オカヤマケン","city":"総社市","city_kana":"ソウジャシ","town":"影","town_kana":"カゲ","prefecture_code":33},"1114":{"zip_code":"7191114","prefecture":"岡山県","prefecture_kana":"オカヤマケン","city":"総社市","city_kana":"ソウジャシ","town":"金井戸","town_kana":"カナイド","prefecture_code":33},"1123":{"zip_code":"7191123","prefecture":"岡山県","prefecture_kana":"オカヤマケン","city":"総社市","city_kana":"ソウジャシ","town":"上林","town_kana":"カンバヤシ","prefecture_code":33},"1143":{"zip_code":"7191143","prefecture":"岡山県","prefecture_kana":"オカヤマケン","city":"総社市","city_kana":"ソウジャシ","town":"上原","town_kana":"カンバラ","prefecture_code":33},"1117":{"zip_code":"7191117","prefecture":"岡山県","prefecture_kana":"オカヤマケン","city":"総社市","city_kana":"ソウジャシ","town":"北溝手","town_kana":"キタミゾテ","prefecture_code":33},"1176":{"zip_code":"7191176","prefecture":"岡山県","prefecture_kana":"オカヤマケン","city":"総社市","city_kana":"ソウジャシ","town":"清音柿木","town_kana":"キヨネカキノキ","prefecture_code":33},"1175":{"zip_code":"7191175","prefecture":"岡山県","prefecture_kana":"オカヤマケン","city":"総社市","city_kana":"ソウジャシ","town":"清音上中島","town_kana":"キヨネカミナカシマ","prefecture_code":33},"1172":{"zip_code":"7191172","prefecture":"岡山県","prefecture_kana":"オカヤマケン","city":"総社市","city_kana":"ソウジャシ","town":"清音軽部","town_kana":"キヨネカルベ","prefecture_code":33},"1173":{"zip_code":"7191173","prefecture":"岡山県","prefecture_kana":"オカヤマケン","city":"総社市","city_kana":"ソウジャシ","town":"清音黒田","town_kana":"キヨネクロタ","prefecture_code":33},"1174":{"zip_code":"7191174","prefecture":"岡山県","prefecture_kana":"オカヤマケン","city":"総社市","city_kana":"ソウジャシ","town":"清音古地","town_kana":"キヨネコチ","prefecture_code":33},"1171":{"zip_code":"7191171","prefecture":"岡山県","prefecture_kana":"オカヤマケン","city":"総社市","city_kana":"ソウジャシ","town":"清音三因","town_kana":"キヨネミヨリ","prefecture_code":33},"1112":{"zip_code":"7191112","prefecture":"岡山県","prefecture_kana":"オカヤマケン","city":"総社市","city_kana":"ソウジャシ","town":"窪木","town_kana":"クボキ","prefecture_code":33},"1104":{"zip_code":"7191104","prefecture":"岡山県","prefecture_kana":"オカヤマケン","city":"総社市","city_kana":"ソウジャシ","town":"久米","town_kana":"クメ","prefecture_code":33},"1105":{"zip_code":"7191105","prefecture":"岡山県","prefecture_kana":"オカヤマケン","city":"総社市","city_kana":"ソウジャシ","town":"黒尾","town_kana":"クロオ","prefecture_code":33},"1313":{"zip_code":"7191313","prefecture":"岡山県","prefecture_kana":"オカヤマケン","city":"総社市","city_kana":"ソウジャシ","town":"槁","town_kana":"ケヤキ","prefecture_code":33},"1155":{"zip_code":"7191155","prefecture":"岡山県","prefecture_kana":"オカヤマケン","city":"総社市","city_kana":"ソウジャシ","town":"小寺","town_kana":"コデラ","prefecture_code":33},"1153":{"zip_code":"7191153","prefecture":"岡山県","prefecture_kana":"オカヤマケン","city":"総社市","city_kana":"ソウジャシ","town":"宍粟","town_kana":"シサワ","prefecture_code":33},"1321":{"zip_code":"7191321","prefecture":"岡山県","prefecture_kana":"オカヤマケン","city":"総社市","city_kana":"ソウジャシ","town":"下倉","town_kana":"シタグラ","prefecture_code":33},"1163":{"zip_code":"7191163","prefecture":"岡山県","prefecture_kana":"オカヤマケン","city":"総社市","city_kana":"ソウジャシ","town":"地頭片山","town_kana":"ジトウカタヤマ","prefecture_code":33},"1122":{"zip_code":"7191122","prefecture":"岡山県","prefecture_kana":"オカヤマケン","city":"総社市","city_kana":"ソウジャシ","town":"下林","town_kana":"シモバヤシ","prefecture_code":33},"1145":{"zip_code":"7191145","prefecture":"岡山県","prefecture_kana":"オカヤマケン","city":"総社市","city_kana":"ソウジャシ","town":"下原","town_kana":"シモバラ","prefecture_code":33},"1161":{"zip_code":"7191161","prefecture":"岡山県","prefecture_kana":"オカヤマケン","city":"総社市","city_kana":"ソウジャシ","town":"宿","town_kana":"シュク","prefecture_code":33},"1126":{"zip_code":"7191126","prefecture":"岡山県","prefecture_kana":"オカヤマケン","city":"総社市","city_kana":"ソウジャシ","town":"総社","town_kana":"ソウジャ","prefecture_code":33},"1312":{"zip_code":"7191312","prefecture":"岡山県","prefecture_kana":"オカヤマケン","city":"総社市","city_kana":"ソウジャシ","town":"種井","town_kana":"タネイ","prefecture_code":33},"1131":{"zip_code":"7191131","prefecture":"岡山県","prefecture_kana":"オカヤマケン","city":"総社市","city_kana":"ソウジャシ","town":"中央","town_kana":"チュウオウ","prefecture_code":33},"1144":{"zip_code":"7191144","prefecture":"岡山県","prefecture_kana":"オカヤマケン","city":"総社市","city_kana":"ソウジャシ","town":"富原","town_kana":"トンバラ","prefecture_code":33},"1323":{"zip_code":"7191323","prefecture":"岡山県","prefecture_kana":"オカヤマケン","city":"総社市","city_kana":"ソウジャシ","town":"中尾","town_kana":"ナカオ","prefecture_code":33},"1133":{"zip_code":"7191133","prefecture":"岡山県","prefecture_kana":"オカヤマケン","city":"総社市","city_kana":"ソウジャシ","town":"中原","town_kana":"ナカバラ","prefecture_code":33},"1111":{"zip_code":"7191111","prefecture":"岡山県","prefecture_kana":"オカヤマケン","city":"総社市","city_kana":"ソウジャシ","town":"長良","town_kana":"ナガラ","prefecture_code":33},"1103":{"zip_code":"7191103","prefecture":"岡山県","prefecture_kana":"オカヤマケン","city":"総社市","city_kana":"ソウジャシ","town":"西阿曽","town_kana":"ニシアゾ","prefecture_code":33},"1164":{"zip_code":"7191164","prefecture":"岡山県","prefecture_kana":"オカヤマケン","city":"総社市","city_kana":"ソウジャシ","town":"西郡","town_kana":"ニシゴオリ","prefecture_code":33},"1165":{"zip_code":"7191165","prefecture":"岡山県","prefecture_kana":"オカヤマケン","city":"総社市","city_kana":"ソウジャシ","town":"西坂台","town_kana":"ニシサカダイ","prefecture_code":33},"1314":{"zip_code":"7191314","prefecture":"岡山県","prefecture_kana":"オカヤマケン","city":"総社市","city_kana":"ソウジャシ","town":"延原","town_kana":"ノブハラ","prefecture_code":33},"1142":{"zip_code":"7191142","prefecture":"岡山県","prefecture_kana":"オカヤマケン","city":"総社市","city_kana":"ソウジャシ","town":"秦","town_kana":"ハダ","prefecture_code":33},"1324":{"zip_code":"7191324","prefecture":"岡山県","prefecture_kana":"オカヤマケン","city":"総社市","city_kana":"ソウジャシ","town":"原","town_kana":"ハラ","prefecture_code":33},"1102":{"zip_code":"7191102","prefecture":"岡山県","prefecture_kana":"オカヤマケン","city":"総社市","city_kana":"ソウジャシ","town":"東阿曽","town_kana":"ヒガシアゾ","prefecture_code":33},"1316":{"zip_code":"7191316","prefecture":"岡山県","prefecture_kana":"オカヤマケン","city":"総社市","city_kana":"ソウジャシ","town":"日羽","town_kana":"ヒワ","prefecture_code":33},"1115":{"zip_code":"7191115","prefecture":"岡山県","prefecture_kana":"オカヤマケン","city":"総社市","city_kana":"ソウジャシ","town":"福井","town_kana":"フクイ","prefecture_code":33},"1141":{"zip_code":"7191141","prefecture":"岡山県","prefecture_kana":"オカヤマケン","city":"総社市","city_kana":"ソウジャシ","town":"福谷","town_kana":"フクタニ","prefecture_code":33},"1134":{"zip_code":"7191134","prefecture":"岡山県","prefecture_kana":"オカヤマケン","city":"総社市","city_kana":"ソウジャシ","town":"真壁","town_kana":"マカベ","prefecture_code":33},"1151":{"zip_code":"7191151","prefecture":"岡山県","prefecture_kana":"オカヤマケン","city":"総社市","city_kana":"ソウジャシ","town":"槇谷","town_kana":"マキダニ","prefecture_code":33},"1124":{"zip_code":"7191124","prefecture":"岡山県","prefecture_kana":"オカヤマケン","city":"総社市","city_kana":"ソウジャシ","town":"三須","town_kana":"ミス","prefecture_code":33},"1135":{"zip_code":"7191135","prefecture":"岡山県","prefecture_kana":"オカヤマケン","city":"総社市","city_kana":"ソウジャシ","town":"溝口","town_kana":"ミゾクチ","prefecture_code":33},"1311":{"zip_code":"7191311","prefecture":"岡山県","prefecture_kana":"オカヤマケン","city":"総社市","city_kana":"ソウジャシ","town":"美袋","town_kana":"ミナギ","prefecture_code":33},"1113":{"zip_code":"7191113","prefecture":"岡山県","prefecture_kana":"オカヤマケン","city":"総社市","city_kana":"ソウジャシ","town":"南溝手","town_kana":"ミナミミゾテ","prefecture_code":33},"1152":{"zip_code":"7191152","prefecture":"岡山県","prefecture_kana":"オカヤマケン","city":"総社市","city_kana":"ソウジャシ","town":"見延","town_kana":"ミノベ","prefecture_code":33},"1132":{"zip_code":"7191132","prefecture":"岡山県","prefecture_kana":"オカヤマケン","city":"総社市","city_kana":"ソウジャシ","town":"三輪","town_kana":"ミワ","prefecture_code":33},"1156":{"zip_code":"7191156","prefecture":"岡山県","prefecture_kana":"オカヤマケン","city":"総社市","city_kana":"ソウジャシ","town":"門田","town_kana":"モンデ","prefecture_code":33},"1146":{"zip_code":"7191146","prefecture":"岡山県","prefecture_kana":"オカヤマケン","city":"総社市","city_kana":"ソウジャシ","town":"八代","town_kana":"ヤシロ","prefecture_code":33},"2233":{"zip_code":"7192233","prefecture":"岡山県","prefecture_kana":"オカヤマケン","city":"高梁市","city_kana":"タカハシシ","town":"宇治町穴田","town_kana":"ウジチョウアナダ","prefecture_code":33},"2232":{"zip_code":"7192232","prefecture":"岡山県","prefecture_kana":"オカヤマケン","city":"高梁市","city_kana":"タカハシシ","town":"宇治町宇治","town_kana":"ウジチョウウジ","prefecture_code":33},"2231":{"zip_code":"7192231","prefecture":"岡山県","prefecture_kana":"オカヤマケン","city":"高梁市","city_kana":"タカハシシ","town":"宇治町遠原","town_kana":"ウジチョウトオバラ","prefecture_code":33},"2234":{"zip_code":"7192234","prefecture":"岡山県","prefecture_kana":"オカヤマケン","city":"高梁市","city_kana":"タカハシシ","town":"宇治町本郷","town_kana":"ウジチョウホンゴウ","prefecture_code":33},"2121":{"zip_code":"7192121","prefecture":"岡山県","prefecture_kana":"オカヤマケン","city":"高梁市","city_kana":"タカハシシ","town":"川面町","town_kana":"カワモチョウ","prefecture_code":33},"2123":{"zip_code":"7192123","prefecture":"岡山県","prefecture_kana":"オカヤマケン","city":"高梁市","city_kana":"タカハシシ","town":"高倉町飯部","town_kana":"タカクラチョウイイベ","prefecture_code":33},"2122":{"zip_code":"7192122","prefecture":"岡山県","prefecture_kana":"オカヤマケン","city":"高梁市","city_kana":"タカハシシ","town":"高倉町田井","town_kana":"タカクラチョウタイ","prefecture_code":33},"2401":{"zip_code":"7192401","prefecture":"岡山県","prefecture_kana":"オカヤマケン","city":"高梁市","city_kana":"タカハシシ","town":"中井町津々","town_kana":"ナカイチョウツツ","prefecture_code":33},"2402":{"zip_code":"7192402","prefecture":"岡山県","prefecture_kana":"オカヤマケン","city":"高梁市","city_kana":"タカハシシ","town":"中井町西方","town_kana":"ナカイチョウニシガタ","prefecture_code":33},"2343":{"zip_code":"7192343","prefecture":"岡山県","prefecture_kana":"オカヤマケン","city":"高梁市","city_kana":"タカハシシ","town":"成羽町坂本","town_kana":"ナリワチョウサカモト","prefecture_code":33},"2342":{"zip_code":"7192342","prefecture":"岡山県","prefecture_kana":"オカヤマケン","city":"高梁市","city_kana":"タカハシシ","town":"成羽町中野","town_kana":"ナリワチョウナカノ","prefecture_code":33},"2341":{"zip_code":"7192341","prefecture":"岡山県","prefecture_kana":"オカヤマケン","city":"高梁市","city_kana":"タカハシシ","town":"成羽町吹屋","town_kana":"ナリワチョウフキヤ","prefecture_code":33},"2551":{"zip_code":"7192551","prefecture":"岡山県","prefecture_kana":"オカヤマケン","city":"新見市","city_kana":"ニイミシ","town":"井倉","town_kana":"イクラ","prefecture_code":33},"3501":{"zip_code":"7193501","prefecture":"岡山県","prefecture_kana":"オカヤマケン","city":"新見市","city_kana":"ニイミシ","town":"大佐大井野","town_kana":"オオサオオイノ","prefecture_code":33},"3503":{"zip_code":"7193503","prefecture":"岡山県","prefecture_kana":"オカヤマケン","city":"新見市","city_kana":"ニイミシ","town":"大佐小阪部","town_kana":"オオサオサカベ","prefecture_code":33},"3502":{"zip_code":"7193502","prefecture":"岡山県","prefecture_kana":"オカヤマケン","city":"新見市","city_kana":"ニイミシ","town":"大佐上刑部","town_kana":"オオサカミオサカベ","prefecture_code":33},"3507":{"zip_code":"7193507","prefecture":"岡山県","prefecture_kana":"オカヤマケン","city":"新見市","city_kana":"ニイミシ","town":"大佐小南","town_kana":"オオサコミナミ","prefecture_code":33},"3506":{"zip_code":"7193506","prefecture":"岡山県","prefecture_kana":"オカヤマケン","city":"新見市","city_kana":"ニイミシ","town":"大佐田治部","town_kana":"オオサタジベ","prefecture_code":33},"3504":{"zip_code":"7193504","prefecture":"岡山県","prefecture_kana":"オカヤマケン","city":"新見市","city_kana":"ニイミシ","town":"大佐永富","town_kana":"オオサナガドミ","prefecture_code":33},"3505":{"zip_code":"7193505","prefecture":"岡山県","prefecture_kana":"オカヤマケン","city":"新見市","city_kana":"ニイミシ","town":"大佐布瀬","town_kana":"オオサフセ","prefecture_code":33},"2732":{"zip_code":"7192732","prefecture":"岡山県","prefecture_kana":"オカヤマケン","city":"新見市","city_kana":"ニイミシ","town":"草間（下湯川、横畑）","town_kana":"クサマ(シモユカワ、ヨコハタ)","prefecture_code":33},"2641":{"zip_code":"7192641","prefecture":"岡山県","prefecture_kana":"オカヤマケン","city":"新見市","city_kana":"ニイミシ","town":"草間（その他）","town_kana":"クサマ(ソノタ)","prefecture_code":33},"2801":{"zip_code":"7192801","prefecture":"岡山県","prefecture_kana":"オカヤマケン","city":"新見市","city_kana":"ニイミシ","town":"神郷釜村","town_kana":"シンゴウカマムラ","prefecture_code":33},"3611":{"zip_code":"7193611","prefecture":"岡山県","prefecture_kana":"オカヤマケン","city":"新見市","city_kana":"ニイミシ","town":"神郷下神代","town_kana":"シンゴウシモコウジロ","prefecture_code":33},"2802":{"zip_code":"7192802","prefecture":"岡山県","prefecture_kana":"オカヤマケン","city":"新見市","city_kana":"ニイミシ","town":"神郷高瀬","town_kana":"シンゴウタカセ","prefecture_code":33},"3612":{"zip_code":"7193612","prefecture":"岡山県","prefecture_kana":"オカヤマケン","city":"新見市","city_kana":"ニイミシ","town":"神郷油野","town_kana":"シンゴウユノ","prefecture_code":33},"2642":{"zip_code":"7192642","prefecture":"岡山県","prefecture_kana":"オカヤマケン","city":"新見市","city_kana":"ニイミシ","town":"足見","town_kana":"タルミ","prefecture_code":33},"2731":{"zip_code":"7192731","prefecture":"岡山県","prefecture_kana":"オカヤマケン","city":"新見市","city_kana":"ニイミシ","town":"土橋（落方、寺内）","town_kana":"ツチハシ(オチカタ、テラウチ)","prefecture_code":33},"2643":{"zip_code":"7192643","prefecture":"岡山県","prefecture_kana":"オカヤマケン","city":"新見市","city_kana":"ニイミシ","town":"土橋（その他）","town_kana":"ツチハシ(ソノタ)","prefecture_code":33},"3811":{"zip_code":"7193811","prefecture":"岡山県","prefecture_kana":"オカヤマケン","city":"新見市","city_kana":"ニイミシ","town":"哲西町大竹","town_kana":"テッセイチョウオオタケ","prefecture_code":33},"3814":{"zip_code":"7193814","prefecture":"岡山県","prefecture_kana":"オカヤマケン","city":"新見市","city_kana":"ニイミシ","town":"哲西町大野部","town_kana":"テッセイチョウオオノベ","prefecture_code":33},"3702":{"zip_code":"7193702","prefecture":"岡山県","prefecture_kana":"オカヤマケン","city":"新見市","city_kana":"ニイミシ","town":"哲西町上神代","town_kana":"テッセイチョウカミコウジロ","prefecture_code":33},"3812":{"zip_code":"7193812","prefecture":"岡山県","prefecture_kana":"オカヤマケン","city":"新見市","city_kana":"ニイミシ","town":"哲西町畑木","town_kana":"テッセイチョウハタキ","prefecture_code":33},"3813":{"zip_code":"7193813","prefecture":"岡山県","prefecture_kana":"オカヤマケン","city":"新見市","city_kana":"ニイミシ","town":"哲西町八鳥","town_kana":"テッセイチョウハットリ","prefecture_code":33},"3701":{"zip_code":"7193701","prefecture":"岡山県","prefecture_kana":"オカヤマケン","city":"新見市","city_kana":"ニイミシ","town":"哲西町矢田","town_kana":"テッセイチョウヤダ","prefecture_code":33},"2721":{"zip_code":"7192721","prefecture":"岡山県","prefecture_kana":"オカヤマケン","city":"新見市","city_kana":"ニイミシ","town":"豊永赤馬","town_kana":"トヨナガアコウマ","prefecture_code":33},"2723":{"zip_code":"7192723","prefecture":"岡山県","prefecture_kana":"オカヤマケン","city":"新見市","city_kana":"ニイミシ","town":"豊永宇山","town_kana":"トヨナガウヤマ","prefecture_code":33},"2722":{"zip_code":"7192722","prefecture":"岡山県","prefecture_kana":"オカヤマケン","city":"新見市","city_kana":"ニイミシ","town":"豊永佐伏","town_kana":"トヨナガサブシ","prefecture_code":33},"2552":{"zip_code":"7192552","prefecture":"岡山県","prefecture_kana":"オカヤマケン","city":"新見市","city_kana":"ニイミシ","town":"法曽","town_kana":"ホウソ","prefecture_code":33},"3100":{"zip_code":"7193100","prefecture":"岡山県","prefecture_kana":"オカヤマケン","city":"真庭市","city_kana":"マニワシ","town":"以下に掲載がない場合","town_kana":"イカニケイサイガナイバアイ","prefecture_code":33},"3101":{"zip_code":"7193101","prefecture":"岡山県","prefecture_kana":"オカヤマケン","city":"真庭市","city_kana":"マニワシ","town":"赤野","town_kana":"アカノ","prefecture_code":33},"3151":{"zip_code":"7193151","prefecture":"岡山県","prefecture_kana":"オカヤマケン","city":"真庭市","city_kana":"マニワシ","town":"一色","town_kana":"イシキ","prefecture_code":33},"3131":{"zip_code":"7193131","prefecture":"岡山県","prefecture_kana":"オカヤマケン","city":"真庭市","city_kana":"マニワシ","town":"上山","town_kana":"ウエヤマ","prefecture_code":33},"3102":{"zip_code":"7193102","prefecture":"岡山県","prefecture_kana":"オカヤマケン","city":"真庭市","city_kana":"マニワシ","town":"大庭","town_kana":"オオバ","prefecture_code":33},"3144":{"zip_code":"7193144","prefecture":"岡山県","prefecture_kana":"オカヤマケン","city":"真庭市","city_kana":"マニワシ","town":"落合垂水","town_kana":"オチアイタルミ","prefecture_code":33},"3111":{"zip_code":"7193111","prefecture":"岡山県","prefecture_kana":"オカヤマケン","city":"真庭市","city_kana":"マニワシ","town":"開田","town_kana":"カイデ","prefecture_code":33},"3112":{"zip_code":"7193112","prefecture":"岡山県","prefecture_kana":"オカヤマケン","city":"真庭市","city_kana":"マニワシ","town":"影","town_kana":"カゲ","prefecture_code":33},"3211":{"zip_code":"7193211","prefecture":"岡山県","prefecture_kana":"オカヤマケン","city":"真庭市","city_kana":"マニワシ","town":"樫西","town_kana":"カシニシ","prefecture_code":33},"3223":{"zip_code":"7193223","prefecture":"岡山県","prefecture_kana":"オカヤマケン","city":"真庭市","city_kana":"マニワシ","town":"樫東","town_kana":"カシヒガシ","prefecture_code":33},"3152":{"zip_code":"7193152","prefecture":"岡山県","prefecture_kana":"オカヤマケン","city":"真庭市","city_kana":"マニワシ","town":"鹿田","town_kana":"カツタ","prefecture_code":33},"3141":{"zip_code":"7193141","prefecture":"岡山県","prefecture_kana":"オカヤマケン","city":"真庭市","city_kana":"マニワシ","town":"上市瀬","town_kana":"カミイチゼ","prefecture_code":33},"3121":{"zip_code":"7193121","prefecture":"岡山県","prefecture_kana":"オカヤマケン","city":"真庭市","city_kana":"マニワシ","town":"上河内","town_kana":"カミゴウチ","prefecture_code":33},"3142":{"zip_code":"7193142","prefecture":"岡山県","prefecture_kana":"オカヤマケン","city":"真庭市","city_kana":"マニワシ","town":"木山","town_kana":"キヤマ","prefecture_code":33},"3205":{"zip_code":"7193205","prefecture":"岡山県","prefecture_kana":"オカヤマケン","city":"真庭市","city_kana":"マニワシ","town":"草加部","town_kana":"クサカベ","prefecture_code":33},"3201":{"zip_code":"7193201","prefecture":"岡山県","prefecture_kana":"オカヤマケン","city":"真庭市","city_kana":"マニワシ","town":"久世","town_kana":"クセ","prefecture_code":33},"3153":{"zip_code":"7193153","prefecture":"岡山県","prefecture_kana":"オカヤマケン","city":"真庭市","city_kana":"マニワシ","town":"栗原","town_kana":"クリハラ","prefecture_code":33},"3206":{"zip_code":"7193206","prefecture":"岡山県","prefecture_kana":"オカヤマケン","city":"真庭市","city_kana":"マニワシ","town":"神","town_kana":"コウ","prefecture_code":33},"3228":{"zip_code":"7193228","prefecture":"岡山県","prefecture_kana":"オカヤマケン","city":"真庭市","city_kana":"マニワシ","town":"五反","town_kana":"ゴタン","prefecture_code":33},"3103":{"zip_code":"7193103","prefecture":"岡山県","prefecture_kana":"オカヤマケン","city":"真庭市","city_kana":"マニワシ","town":"古見","town_kana":"コミ","prefecture_code":33},"3154":{"zip_code":"7193154","prefecture":"岡山県","prefecture_kana":"オカヤマケン","city":"真庭市","city_kana":"マニワシ","town":"佐引","town_kana":"サビキ","prefecture_code":33},"3143":{"zip_code":"7193143","prefecture":"岡山県","prefecture_kana":"オカヤマケン","city":"真庭市","city_kana":"マニワシ","town":"下市瀬","town_kana":"シモイチゼ","prefecture_code":33},"3155":{"zip_code":"7193155","prefecture":"岡山県","prefecture_kana":"オカヤマケン","city":"真庭市","city_kana":"マニワシ","town":"下方","town_kana":"シモガタ","prefecture_code":33},"3122":{"zip_code":"7193122","prefecture":"岡山県","prefecture_kana":"オカヤマケン","city":"真庭市","city_kana":"マニワシ","town":"下河内","town_kana":"シモゴウチ","prefecture_code":33},"3123":{"zip_code":"7193123","prefecture":"岡山県","prefecture_kana":"オカヤマケン","city":"真庭市","city_kana":"マニワシ","town":"下見","town_kana":"シモミ","prefecture_code":33},"3113":{"zip_code":"7193113","prefecture":"岡山県","prefecture_kana":"オカヤマケン","city":"真庭市","city_kana":"マニワシ","town":"杉山","town_kana":"スギヤマ","prefecture_code":33},"3156":{"zip_code":"7193156","prefecture":"岡山県","prefecture_kana":"オカヤマケン","city":"真庭市","city_kana":"マニワシ","town":"関","town_kana":"セキ","prefecture_code":33},"3204":{"zip_code":"7193204","prefecture":"岡山県","prefecture_kana":"オカヤマケン","city":"真庭市","city_kana":"マニワシ","town":"惣","town_kana":"ソウ","prefecture_code":33},"3227":{"zip_code":"7193227","prefecture":"岡山県","prefecture_kana":"オカヤマケン","city":"真庭市","city_kana":"マニワシ","town":"台金屋","town_kana":"ダイカナヤ","prefecture_code":33},"3114":{"zip_code":"7193114","prefecture":"岡山県","prefecture_kana":"オカヤマケン","city":"真庭市","city_kana":"マニワシ","town":"高屋","town_kana":"タカヤ","prefecture_code":33},"3213":{"zip_code":"7193213","prefecture":"岡山県","prefecture_kana":"オカヤマケン","city":"真庭市","city_kana":"マニワシ","town":"多田","town_kana":"タダ","prefecture_code":33},"3104":{"zip_code":"7193104","prefecture":"岡山県","prefecture_kana":"オカヤマケン","city":"真庭市","city_kana":"マニワシ","town":"田原","town_kana":"タハラ","prefecture_code":33},"3132":{"zip_code":"7193132","prefecture":"岡山県","prefecture_kana":"オカヤマケン","city":"真庭市","city_kana":"マニワシ","town":"田原山上","town_kana":"タハラサンジョウ","prefecture_code":33},"3133":{"zip_code":"7193133","prefecture":"岡山県","prefecture_kana":"オカヤマケン","city":"真庭市","city_kana":"マニワシ","town":"旦土","town_kana":"ダンド","prefecture_code":33},"3203":{"zip_code":"7193203","prefecture":"岡山県","prefecture_kana":"オカヤマケン","city":"真庭市","city_kana":"マニワシ","town":"富尾","town_kana":"トミノオ","prefecture_code":33},"3115":{"zip_code":"7193115","prefecture":"岡山県","prefecture_kana":"オカヤマケン","city":"真庭市","city_kana":"マニワシ","town":"中","town_kana":"ナカ","prefecture_code":33},"3124":{"zip_code":"7193124","prefecture":"岡山県","prefecture_kana":"オカヤマケン","city":"真庭市","city_kana":"マニワシ","town":"中河内","town_kana":"ナカゴウチ","prefecture_code":33},"3202":{"zip_code":"7193202","prefecture":"岡山県","prefecture_kana":"オカヤマケン","city":"真庭市","city_kana":"マニワシ","town":"中島","town_kana":"ナカシマ","prefecture_code":33},"3225":{"zip_code":"7193225","prefecture":"岡山県","prefecture_kana":"オカヤマケン","city":"真庭市","city_kana":"マニワシ","town":"中原","town_kana":"ナカバラ","prefecture_code":33},"3214":{"zip_code":"7193214","prefecture":"岡山県","prefecture_kana":"オカヤマケン","city":"真庭市","city_kana":"マニワシ","town":"鍋屋","town_kana":"ナベヤ","prefecture_code":33},"3145":{"zip_code":"7193145","prefecture":"岡山県","prefecture_kana":"オカヤマケン","city":"真庭市","city_kana":"マニワシ","town":"西河内","town_kana":"ニシゴウチ","prefecture_code":33},"3105":{"zip_code":"7193105","prefecture":"岡山県","prefecture_kana":"オカヤマケン","city":"真庭市","city_kana":"マニワシ","town":"西原","town_kana":"ニシバラ","prefecture_code":33},"3106":{"zip_code":"7193106","prefecture":"岡山県","prefecture_kana":"オカヤマケン","city":"真庭市","city_kana":"マニワシ","town":"野川","town_kana":"ノガワ","prefecture_code":33},"3134":{"zip_code":"7193134","prefecture":"岡山県","prefecture_kana":"オカヤマケン","city":"真庭市","city_kana":"マニワシ","town":"野原","town_kana":"ノハラ","prefecture_code":33},"3116":{"zip_code":"7193116","prefecture":"岡山県","prefecture_kana":"オカヤマケン","city":"真庭市","city_kana":"マニワシ","town":"日名","town_kana":"ヒナ","prefecture_code":33},"3146":{"zip_code":"7193146","prefecture":"岡山県","prefecture_kana":"オカヤマケン","city":"真庭市","city_kana":"マニワシ","town":"日野上","town_kana":"ヒノウエ","prefecture_code":33},"3107":{"zip_code":"7193107","prefecture":"岡山県","prefecture_kana":"オカヤマケン","city":"真庭市","city_kana":"マニワシ","town":"平松","town_kana":"ヒラマツ","prefecture_code":33},"3117":{"zip_code":"7193117","prefecture":"岡山県","prefecture_kana":"オカヤマケン","city":"真庭市","city_kana":"マニワシ","town":"福田","town_kana":"フクダ","prefecture_code":33},"3157":{"zip_code":"7193157","prefecture":"岡山県","prefecture_kana":"オカヤマケン","city":"真庭市","city_kana":"マニワシ","town":"別所","town_kana":"ベッシヨ","prefecture_code":33},"3125":{"zip_code":"7193125","prefecture":"岡山県","prefecture_kana":"オカヤマケン","city":"真庭市","city_kana":"マニワシ","town":"法界寺","town_kana":"ホウカイジ","prefecture_code":33},"3135":{"zip_code":"7193135","prefecture":"岡山県","prefecture_kana":"オカヤマケン","city":"真庭市","city_kana":"マニワシ","town":"舞高","town_kana":"マイタカ","prefecture_code":33},"3212":{"zip_code":"7193212","prefecture":"岡山県","prefecture_kana":"オカヤマケン","city":"真庭市","city_kana":"マニワシ","town":"三阪","town_kana":"ミサカ","prefecture_code":33},"3226":{"zip_code":"7193226","prefecture":"岡山県","prefecture_kana":"オカヤマケン","city":"真庭市","city_kana":"マニワシ","town":"三崎","town_kana":"ミサキ","prefecture_code":33},"3126":{"zip_code":"7193126","prefecture":"岡山県","prefecture_kana":"オカヤマケン","city":"真庭市","city_kana":"マニワシ","town":"向津矢","town_kana":"ムカツヤ","prefecture_code":33},"3224":{"zip_code":"7193224","prefecture":"岡山県","prefecture_kana":"オカヤマケン","city":"真庭市","city_kana":"マニワシ","town":"目木","town_kana":"メキ","prefecture_code":33},"3136":{"zip_code":"7193136","prefecture":"岡山県","prefecture_kana":"オカヤマケン","city":"真庭市","city_kana":"マニワシ","town":"吉","town_kana":"ヨシ","prefecture_code":33},"3221":{"zip_code":"7193221","prefecture":"岡山県","prefecture_kana":"オカヤマケン","city":"真庭市","city_kana":"マニワシ","town":"余野上","town_kana":"ヨノカミ","prefecture_code":33},"3222":{"zip_code":"7193222","prefecture":"岡山県","prefecture_kana":"オカヤマケン","city":"真庭市","city_kana":"マニワシ","town":"余野下","town_kana":"ヨノシモ","prefecture_code":33},"0200":{"zip_code":"7190200","prefecture":"岡山県","prefecture_kana":"オカヤマケン","city":"浅口市","city_kana":"アサクチシ","town":"以下に掲載がない場合","town_kana":"イカニケイサイガナイバアイ","prefecture_code":33},"0243":{"zip_code":"7190243","prefecture":"岡山県","prefecture_kana":"オカヤマケン","city":"浅口市","city_kana":"アサクチシ","town":"鴨方町鴨方","town_kana":"カモガタチョウカモガタ","prefecture_code":33},"0231":{"zip_code":"7190231","prefecture":"岡山県","prefecture_kana":"オカヤマケン","city":"浅口市","city_kana":"アサクチシ","town":"鴨方町小坂西","town_kana":"カモガタチョウコサカニシ","prefecture_code":33},"0241":{"zip_code":"7190241","prefecture":"岡山県","prefecture_kana":"オカヤマケン","city":"浅口市","city_kana":"アサクチシ","town":"鴨方町小坂東","town_kana":"カモガタチョウコサカヒガシ","prefecture_code":33},"0233":{"zip_code":"7190233","prefecture":"岡山県","prefecture_kana":"オカヤマケン","city":"浅口市","city_kana":"アサクチシ","town":"鴨方町地頭上","town_kana":"カモガタチョウヂトウカミ","prefecture_code":33},"0253":{"zip_code":"7190253","prefecture":"岡山県","prefecture_kana":"オカヤマケン","city":"浅口市","city_kana":"アサクチシ","town":"鴨方町鳩ケ丘","town_kana":"カモガタチョウハトガオカ","prefecture_code":33},"0244":{"zip_code":"7190244","prefecture":"岡山県","prefecture_kana":"オカヤマケン","city":"浅口市","city_kana":"アサクチシ","town":"鴨方町深田","town_kana":"カモガタチョウフカダ","prefecture_code":33},"0232":{"zip_code":"7190232","prefecture":"岡山県","prefecture_kana":"オカヤマケン","city":"浅口市","city_kana":"アサクチシ","town":"鴨方町本庄","town_kana":"カモガタチョウホンジョ","prefecture_code":33},"0234":{"zip_code":"7190234","prefecture":"岡山県","prefecture_kana":"オカヤマケン","city":"浅口市","city_kana":"アサクチシ","town":"鴨方町益坂","town_kana":"カモガタチョウマスサカ","prefecture_code":33},"0242":{"zip_code":"7190242","prefecture":"岡山県","prefecture_kana":"オカヤマケン","city":"浅口市","city_kana":"アサクチシ","town":"鴨方町みどりケ丘","town_kana":"カモガタチョウミドリガオカ","prefecture_code":33},"0252":{"zip_code":"7190252","prefecture":"岡山県","prefecture_kana":"オカヤマケン","city":"浅口市","city_kana":"アサクチシ","town":"鴨方町六条院中","town_kana":"カモガタチョウロクジョウインナカ","prefecture_code":33},"0251":{"zip_code":"7190251","prefecture":"岡山県","prefecture_kana":"オカヤマケン","city":"浅口市","city_kana":"アサクチシ","town":"鴨方町六条院西","town_kana":"カモガタチョウロクジョウインニシ","prefecture_code":33},"0254":{"zip_code":"7190254","prefecture":"岡山県","prefecture_kana":"オカヤマケン","city":"浅口市","city_kana":"アサクチシ","town":"鴨方町六条院東","town_kana":"カモガタチョウロクジョウインヒガシ","prefecture_code":33},"0105":{"zip_code":"7190105","prefecture":"岡山県","prefecture_kana":"オカヤマケン","city":"浅口市","city_kana":"アサクチシ","town":"金光町占見","town_kana":"コンコウチョウウラミ","prefecture_code":33},"0104":{"zip_code":"7190104","prefecture":"岡山県","prefecture_kana":"オカヤマケン","city":"浅口市","city_kana":"アサクチシ","town":"金光町占見新田","town_kana":"コンコウチョウウラミシンデン","prefecture_code":33},"0111":{"zip_code":"7190111","prefecture":"岡山県","prefecture_kana":"オカヤマケン","city":"浅口市","city_kana":"アサクチシ","town":"金光町大谷","town_kana":"コンコウチョウオオタニ","prefecture_code":33},"0221":{"zip_code":"7190221","prefecture":"岡山県","prefecture_kana":"オカヤマケン","city":"浅口市","city_kana":"アサクチシ","town":"金光町上竹（遙照山）","town_kana":"コンコウチョウカミダケ(ヨウショウザン)","prefecture_code":33},"0101":{"zip_code":"7190101","prefecture":"岡山県","prefecture_kana":"オカヤマケン","city":"浅口市","city_kana":"アサクチシ","town":"金光町上竹（その他）","town_kana":"コンコウチョウカミダケ(ソノタ)","prefecture_code":33},"0113":{"zip_code":"7190113","prefecture":"岡山県","prefecture_kana":"オカヤマケン","city":"浅口市","city_kana":"アサクチシ","town":"金光町佐方","town_kana":"コンコウチョウサガタ","prefecture_code":33},"0106":{"zip_code":"7190106","prefecture":"岡山県","prefecture_kana":"オカヤマケン","city":"浅口市","city_kana":"アサクチシ","town":"金光町地頭下","town_kana":"コンコウチョウジトウシモ","prefecture_code":33},"0102":{"zip_code":"7190102","prefecture":"岡山県","prefecture_kana":"オカヤマケン","city":"浅口市","city_kana":"アサクチシ","town":"金光町下竹","town_kana":"コンコウチョウシモダケ","prefecture_code":33},"0112":{"zip_code":"7190112","prefecture":"岡山県","prefecture_kana":"オカヤマケン","city":"浅口市","city_kana":"アサクチシ","town":"金光町須恵","town_kana":"コンコウチョウスエ","prefecture_code":33},"0103":{"zip_code":"7190103","prefecture":"岡山県","prefecture_kana":"オカヤマケン","city":"浅口市","city_kana":"アサクチシ","town":"金光町八重","town_kana":"コンコウチョウヤエ","prefecture_code":33},"0300":{"zip_code":"7190300","prefecture":"岡山県","prefecture_kana":"オカヤマケン","city":"浅口郡里庄町","city_kana":"アサクチグンサトショウチョウ","town":"以下に掲載がない場合","town_kana":"イカニケイサイガナイバアイ","prefecture_code":33},"0301":{"zip_code":"7190301","prefecture":"岡山県","prefecture_kana":"オカヤマケン","city":"浅口郡里庄町","city_kana":"アサクチグンサトショウチョウ","town":"里見","town_kana":"サトミ","prefecture_code":33},"0302":{"zip_code":"7190302","prefecture":"岡山県","prefecture_kana":"オカヤマケン","city":"浅口郡里庄町","city_kana":"アサクチグンサトショウチョウ","town":"新庄","town_kana":"シンジョウ","prefecture_code":33},"0304":{"zip_code":"7190304","prefecture":"岡山県","prefecture_kana":"オカヤマケン","city":"浅口郡里庄町","city_kana":"アサクチグンサトショウチョウ","town":"新庄グリーンクレスト","town_kana":"シンジョウグリーンクレスト","prefecture_code":33},"0303":{"zip_code":"7190303","prefecture":"岡山県","prefecture_kana":"オカヤマケン","city":"浅口郡里庄町","city_kana":"アサクチグンサトショウチョウ","town":"浜中","town_kana":"ハマナカ","prefecture_code":33}}