{"0551":{"zip_code":"7200551","prefecture":"広島県","prefecture_kana":"ヒロシマケン","city":"尾道市","city_kana":"オノミチシ","town":"浦崎町","town_kana":"ウラサキチョウ","prefecture_code":34},"0843":{"zip_code":"7200843","prefecture":"広島県","prefecture_kana":"ヒロシマケン","city":"福山市","city_kana":"フクヤマシ","town":"赤坂町赤坂","town_kana":"アカサカチョウアカサカ","prefecture_code":34},"0844":{"zip_code":"7200844","prefecture":"広島県","prefecture_kana":"ヒロシマケン","city":"福山市","city_kana":"フクヤマシ","town":"赤坂町早戸","town_kana":"アカサカチョウハヤト","prefecture_code":34},"0033":{"zip_code":"7200033","prefecture":"広島県","prefecture_kana":"ヒロシマケン","city":"福山市","city_kana":"フクヤマシ","town":"旭町","town_kana":"アサヒマチ","prefecture_code":34},"1261":{"zip_code":"7201261","prefecture":"広島県","prefecture_kana":"ヒロシマケン","city":"福山市","city_kana":"フクヤマシ","town":"芦田町上有地","town_kana":"アシダチョウカミアルジ","prefecture_code":34},"1262":{"zip_code":"7201262","prefecture":"広島県","prefecture_kana":"ヒロシマケン","city":"福山市","city_kana":"フクヤマシ","town":"芦田町下有地","town_kana":"アシダチョウシモアルジ","prefecture_code":34},"1263":{"zip_code":"7201263","prefecture":"広島県","prefecture_kana":"ヒロシマケン","city":"福山市","city_kana":"フクヤマシ","town":"芦田町柞磨","town_kana":"アシダチョウタルマ","prefecture_code":34},"1265":{"zip_code":"7201265","prefecture":"広島県","prefecture_kana":"ヒロシマケン","city":"福山市","city_kana":"フクヤマシ","town":"芦田町向陽台","town_kana":"アシダチョウコウヨウダイ","prefecture_code":34},"0845":{"zip_code":"7200845","prefecture":"広島県","prefecture_kana":"ヒロシマケン","city":"福山市","city_kana":"フクヤマシ","town":"芦田町福田（３７６−１０「聖宝寺」）","town_kana":"アシダチョウフクダ(376-10<セイホウジ>)","prefecture_code":34},"1264":{"zip_code":"7201264","prefecture":"広島県","prefecture_kana":"ヒロシマケン","city":"福山市","city_kana":"フクヤマシ","town":"芦田町福田（３７６−１０を除く）","town_kana":"アシダチョウフクダ(376-10ヲノゾク)","prefecture_code":34},"0046":{"zip_code":"7200046","prefecture":"広島県","prefecture_kana":"ヒロシマケン","city":"福山市","city_kana":"フクヤマシ","town":"今町","town_kana":"イママチ","prefecture_code":34},"0801":{"zip_code":"7200801","prefecture":"広島県","prefecture_kana":"ヒロシマケン","city":"福山市","city_kana":"フクヤマシ","town":"入船町","town_kana":"イリフネチョウ","prefecture_code":34},"2525":{"zip_code":"7202525","prefecture":"広島県","prefecture_kana":"ヒロシマケン","city":"福山市","city_kana":"フクヤマシ","town":"駅家町雨木","town_kana":"エキヤチョウアメギ","prefecture_code":34},"1145":{"zip_code":"7201145","prefecture":"広島県","prefecture_kana":"ヒロシマケン","city":"福山市","city_kana":"フクヤマシ","town":"駅家町今岡","town_kana":"エキヤチョウイマオカ","prefecture_code":34},"1141":{"zip_code":"7201141","prefecture":"広島県","prefecture_kana":"ヒロシマケン","city":"福山市","city_kana":"フクヤマシ","town":"駅家町江良","town_kana":"エキヤチョウエラ","prefecture_code":34},"1146":{"zip_code":"7201146","prefecture":"広島県","prefecture_kana":"ヒロシマケン","city":"福山市","city_kana":"フクヤマシ","town":"駅家町大橋","town_kana":"エキヤチョウオオハシ","prefecture_code":34},"1142":{"zip_code":"7201142","prefecture":"広島県","prefecture_kana":"ヒロシマケン","city":"福山市","city_kana":"フクヤマシ","town":"駅家町上山守","town_kana":"エキヤチョウカミヤマモリ","prefecture_code":34},"1143":{"zip_code":"7201143","prefecture":"広島県","prefecture_kana":"ヒロシマケン","city":"福山市","city_kana":"フクヤマシ","town":"駅家町下山守","town_kana":"エキヤチョウシモヤマモリ","prefecture_code":34},"1132":{"zip_code":"7201132","prefecture":"広島県","prefecture_kana":"ヒロシマケン","city":"福山市","city_kana":"フクヤマシ","town":"駅家町倉光","town_kana":"エキヤチョウクラミツ","prefecture_code":34},"2524":{"zip_code":"7202524","prefecture":"広島県","prefecture_kana":"ヒロシマケン","city":"福山市","city_kana":"フクヤマシ","town":"駅家町助元","town_kana":"エキヤチョウスケモト","prefecture_code":34},"1133":{"zip_code":"7201133","prefecture":"広島県","prefecture_kana":"ヒロシマケン","city":"福山市","city_kana":"フクヤマシ","town":"駅家町近田","town_kana":"エキヤチョウチカタ","prefecture_code":34},"1134":{"zip_code":"7201134","prefecture":"広島県","prefecture_kana":"ヒロシマケン","city":"福山市","city_kana":"フクヤマシ","town":"駅家町中島","town_kana":"エキヤチョウナカシマ","prefecture_code":34},"2523":{"zip_code":"7202523","prefecture":"広島県","prefecture_kana":"ヒロシマケン","city":"福山市","city_kana":"フクヤマシ","town":"駅家町新山","town_kana":"エキヤチョウニイヤマ","prefecture_code":34},"2522":{"zip_code":"7202522","prefecture":"広島県","prefecture_kana":"ヒロシマケン","city":"福山市","city_kana":"フクヤマシ","town":"駅家町服部永谷","town_kana":"エキヤチョウハットリナガタニ","prefecture_code":34},"2521":{"zip_code":"7202521","prefecture":"広島県","prefecture_kana":"ヒロシマケン","city":"福山市","city_kana":"フクヤマシ","town":"駅家町服部本郷","town_kana":"エキヤチョウハットリホンゴウ","prefecture_code":34},"2413":{"zip_code":"7202413","prefecture":"広島県","prefecture_kana":"ヒロシマケン","city":"福山市","city_kana":"フクヤマシ","town":"駅家町法成寺","town_kana":"エキヤチョウホウジョウジ","prefecture_code":34},"1144":{"zip_code":"7201144","prefecture":"広島県","prefecture_kana":"ヒロシマケン","city":"福山市","city_kana":"フクヤマシ","town":"駅家町坊寺","town_kana":"エキヤチョウボウジ","prefecture_code":34},"1131":{"zip_code":"7201131","prefecture":"広島県","prefecture_kana":"ヒロシマケン","city":"福山市","city_kana":"フクヤマシ","town":"駅家町万能倉","town_kana":"エキヤチョウマナグラ","prefecture_code":34},"1147":{"zip_code":"7201147","prefecture":"広島県","prefecture_kana":"ヒロシマケン","city":"福山市","city_kana":"フクヤマシ","town":"駅家町向永谷","town_kana":"エキヤチョウムカイナガタニ","prefecture_code":34},"1135":{"zip_code":"7201135","prefecture":"広島県","prefecture_kana":"ヒロシマケン","city":"福山市","city_kana":"フクヤマシ","town":"駅家町弥生ケ丘","town_kana":"エキヤチョウヤヨイガオカ","prefecture_code":34},"0055":{"zip_code":"7200055","prefecture":"広島県","prefecture_kana":"ヒロシマケン","city":"福山市","city_kana":"フクヤマシ","town":"胡町","town_kana":"エビスマチ","prefecture_code":34},"0825":{"zip_code":"7200825","prefecture":"広島県","prefecture_kana":"ヒロシマケン","city":"福山市","city_kana":"フクヤマシ","town":"沖野上町","town_kana":"オキノガミチョウ","prefecture_code":34},"0044":{"zip_code":"7200044","prefecture":"広島県","prefecture_kana":"ヒロシマケン","city":"福山市","city_kana":"フクヤマシ","town":"笠岡町","town_kana":"カサオカマチ","prefecture_code":34},"0091":{"zip_code":"7200091","prefecture":"広島県","prefecture_kana":"ヒロシマケン","city":"福山市","city_kana":"フクヤマシ","town":"神島町","town_kana":"カシマチョウ","prefecture_code":34},"0812":{"zip_code":"7200812","prefecture":"広島県","prefecture_kana":"ヒロシマケン","city":"福山市","city_kana":"フクヤマシ","town":"霞町","town_kana":"カスミチョウ","prefecture_code":34},"0541":{"zip_code":"7200541","prefecture":"広島県","prefecture_kana":"ヒロシマケン","city":"福山市","city_kana":"フクヤマシ","town":"金江町金見","town_kana":"カナエチョウカナミ","prefecture_code":34},"0542":{"zip_code":"7200542","prefecture":"広島県","prefecture_kana":"ヒロシマケン","city":"福山市","city_kana":"フクヤマシ","town":"金江町藁江","town_kana":"カナエチョウワラエ","prefecture_code":34},"2417":{"zip_code":"7202417","prefecture":"広島県","prefecture_kana":"ヒロシマケン","city":"福山市","city_kana":"フクヤマシ","town":"加茂町芦原","town_kana":"カモチョウアシワラ","prefecture_code":34},"2416":{"zip_code":"7202416","prefecture":"広島県","prefecture_kana":"ヒロシマケン","city":"福山市","city_kana":"フクヤマシ","town":"加茂町粟根","town_kana":"カモチョウアワネ","prefecture_code":34},"2419":{"zip_code":"7202419","prefecture":"広島県","prefecture_kana":"ヒロシマケン","city":"福山市","city_kana":"フクヤマシ","town":"加茂町上加茂","town_kana":"カモチョウカミガモ","prefecture_code":34},"2415":{"zip_code":"7202415","prefecture":"広島県","prefecture_kana":"ヒロシマケン","city":"福山市","city_kana":"フクヤマシ","town":"加茂町北山","town_kana":"カモチョウキタヤマ","prefecture_code":34},"2412":{"zip_code":"7202412","prefecture":"広島県","prefecture_kana":"ヒロシマケン","city":"福山市","city_kana":"フクヤマシ","town":"加茂町下加茂","town_kana":"カモチョウシモガモ","prefecture_code":34},"2418":{"zip_code":"7202418","prefecture":"広島県","prefecture_kana":"ヒロシマケン","city":"福山市","city_kana":"フクヤマシ","town":"加茂町中野","town_kana":"カモチョウナカノ","prefecture_code":34},"2410":{"zip_code":"7202410","prefecture":"広島県","prefecture_kana":"ヒロシマケン","city":"福山市","city_kana":"フクヤマシ","town":"加茂町八軒屋","town_kana":"カモチョウハチケンヤ","prefecture_code":34},"2414":{"zip_code":"7202414","prefecture":"広島県","prefecture_kana":"ヒロシマケン","city":"福山市","city_kana":"フクヤマシ","town":"加茂町百谷","town_kana":"カモチョウモモダニ","prefecture_code":34},"0822":{"zip_code":"7200822","prefecture":"広島県","prefecture_kana":"ヒロシマケン","city":"福山市","city_kana":"フクヤマシ","town":"川口町","town_kana":"カワグチチョウ","prefecture_code":34},"2113":{"zip_code":"7202113","prefecture":"広島県","prefecture_kana":"ヒロシマケン","city":"福山市","city_kana":"フクヤマシ","town":"神辺町旭丘","town_kana":"カンナベチョウアサヒオカ","prefecture_code":34},"2111":{"zip_code":"7202111","prefecture":"広島県","prefecture_kana":"ヒロシマケン","city":"福山市","city_kana":"フクヤマシ","town":"神辺町上御領","town_kana":"カンナベチョウカミゴリョウ","prefecture_code":34},"2114":{"zip_code":"7202114","prefecture":"広島県","prefecture_kana":"ヒロシマケン","city":"福山市","city_kana":"フクヤマシ","town":"神辺町上竹田","town_kana":"カンナベチョウカミタケダ","prefecture_code":34},"2123":{"zip_code":"7202123","prefecture":"広島県","prefecture_kana":"ヒロシマケン","city":"福山市","city_kana":"フクヤマシ","town":"神辺町川北","town_kana":"カンナベチョウカワキタ","prefecture_code":34},"2124":{"zip_code":"7202124","prefecture":"広島県","prefecture_kana":"ヒロシマケン","city":"福山市","city_kana":"フクヤマシ","town":"神辺町川南","town_kana":"カンナベチョウカワミナミ","prefecture_code":34},"2117":{"zip_code":"7202117","prefecture":"広島県","prefecture_kana":"ヒロシマケン","city":"福山市","city_kana":"フクヤマシ","town":"神辺町下御領","town_kana":"カンナベチョウシモゴリョウ","prefecture_code":34},"2115":{"zip_code":"7202115","prefecture":"広島県","prefecture_kana":"ヒロシマケン","city":"福山市","city_kana":"フクヤマシ","town":"神辺町下竹田","town_kana":"カンナベチョウシモタケダ","prefecture_code":34},"2106":{"zip_code":"7202106","prefecture":"広島県","prefecture_kana":"ヒロシマケン","city":"福山市","city_kana":"フクヤマシ","town":"神辺町十九軒屋","town_kana":"カンナベチョウジュウクケンヤ","prefecture_code":34},"2105":{"zip_code":"7202105","prefecture":"広島県","prefecture_kana":"ヒロシマケン","city":"福山市","city_kana":"フクヤマシ","town":"神辺町十三軒屋","town_kana":"カンナベチョウジュウサンゲンヤ","prefecture_code":34},"2108":{"zip_code":"7202108","prefecture":"広島県","prefecture_kana":"ヒロシマケン","city":"福山市","city_kana":"フクヤマシ","town":"神辺町新十九","town_kana":"カンナベチョウシンジュウク","prefecture_code":34},"2125":{"zip_code":"7202125","prefecture":"広島県","prefecture_kana":"ヒロシマケン","city":"福山市","city_kana":"フクヤマシ","town":"神辺町新徳田","town_kana":"カンナベチョウシントクダ","prefecture_code":34},"2107":{"zip_code":"7202107","prefecture":"広島県","prefecture_kana":"ヒロシマケン","city":"福山市","city_kana":"フクヤマシ","town":"神辺町新道上","town_kana":"カンナベチョウシンミチノウエ","prefecture_code":34},"2122":{"zip_code":"7202122","prefecture":"広島県","prefecture_kana":"ヒロシマケン","city":"福山市","city_kana":"フクヤマシ","town":"神辺町新湯野","town_kana":"カンナベチョウシンユノ","prefecture_code":34},"2126":{"zip_code":"7202126","prefecture":"広島県","prefecture_kana":"ヒロシマケン","city":"福山市","city_kana":"フクヤマシ","town":"神辺町徳田","town_kana":"カンナベチョウトクダ","prefecture_code":34},"2103":{"zip_code":"7202103","prefecture":"広島県","prefecture_kana":"ヒロシマケン","city":"福山市","city_kana":"フクヤマシ","town":"神辺町西中条","town_kana":"カンナベチョウニシチュウジョウ","prefecture_code":34},"2127":{"zip_code":"7202127","prefecture":"広島県","prefecture_kana":"ヒロシマケン","city":"福山市","city_kana":"フクヤマシ","town":"神辺町箱田","town_kana":"カンナベチョウハコダ","prefecture_code":34},"2102":{"zip_code":"7202102","prefecture":"広島県","prefecture_kana":"ヒロシマケン","city":"福山市","city_kana":"フクヤマシ","town":"神辺町東中条","town_kana":"カンナベチョウヒガシチュウジョウ","prefecture_code":34},"2116":{"zip_code":"7202116","prefecture":"広島県","prefecture_kana":"ヒロシマケン","city":"福山市","city_kana":"フクヤマシ","town":"神辺町平野","town_kana":"カンナベチョウヒラノ","prefecture_code":34},"2101":{"zip_code":"7202101","prefecture":"広島県","prefecture_kana":"ヒロシマケン","city":"福山市","city_kana":"フクヤマシ","town":"神辺町三谷","town_kana":"カンナベチョウミタニ","prefecture_code":34},"2104":{"zip_code":"7202104","prefecture":"広島県","prefecture_kana":"ヒロシマケン","city":"福山市","city_kana":"フクヤマシ","town":"神辺町道上","town_kana":"カンナベチョウミチノウエ","prefecture_code":34},"2112":{"zip_code":"7202112","prefecture":"広島県","prefecture_kana":"ヒロシマケン","city":"福山市","city_kana":"フクヤマシ","town":"神辺町八尋","town_kana":"カンナベチョウヤヒロ","prefecture_code":34},"2121":{"zip_code":"7202121","prefecture":"広島県","prefecture_kana":"ヒロシマケン","city":"福山市","city_kana":"フクヤマシ","town":"神辺町湯野","town_kana":"カンナベチョウユノ","prefecture_code":34},"0074":{"zip_code":"7200074","prefecture":"広島県","prefecture_kana":"ヒロシマケン","city":"福山市","city_kana":"フクヤマシ","town":"北本庄","town_kana":"キタホンジョウ","prefecture_code":34},"0023":{"zip_code":"7200023","prefecture":"広島県","prefecture_kana":"ヒロシマケン","city":"福山市","city_kana":"フクヤマシ","town":"北美台","town_kana":"キタミダイ","prefecture_code":34},"0073":{"zip_code":"7200073","prefecture":"広島県","prefecture_kana":"ヒロシマケン","city":"福山市","city_kana":"フクヤマシ","town":"北吉津町","town_kana":"キタヨシヅチョウ","prefecture_code":34},"0082":{"zip_code":"7200082","prefecture":"広島県","prefecture_kana":"ヒロシマケン","city":"福山市","city_kana":"フクヤマシ","town":"木之庄町","town_kana":"キノショウチョウ","prefecture_code":34},"0831":{"zip_code":"7200831","prefecture":"広島県","prefecture_kana":"ヒロシマケン","city":"福山市","city_kana":"フクヤマシ","town":"草戸町","town_kana":"クサドチョウ","prefecture_code":34},"0411":{"zip_code":"7200411","prefecture":"広島県","prefecture_kana":"ヒロシマケン","city":"福山市","city_kana":"フクヤマシ","town":"熊野町","town_kana":"クマノチョウ","prefecture_code":34},"0814":{"zip_code":"7200814","prefecture":"広島県","prefecture_kana":"ヒロシマケン","city":"福山市","city_kana":"フクヤマシ","town":"光南町","town_kana":"コウナンチョウ","prefecture_code":34},"0093":{"zip_code":"7200093","prefecture":"広島県","prefecture_kana":"ヒロシマケン","city":"福山市","city_kana":"フクヤマシ","town":"郷分町","town_kana":"ゴウブンチョウ","prefecture_code":34},"0081":{"zip_code":"7200081","prefecture":"広島県","prefecture_kana":"ヒロシマケン","city":"福山市","city_kana":"フクヤマシ","town":"向陽町","town_kana":"コウヨウチョウ","prefecture_code":34},"0051":{"zip_code":"7200051","prefecture":"広島県","prefecture_kana":"ヒロシマケン","city":"福山市","city_kana":"フクヤマシ","town":"桜馬場町","town_kana":"サクラババチョウ","prefecture_code":34},"0835":{"zip_code":"7200835","prefecture":"広島県","prefecture_kana":"ヒロシマケン","city":"福山市","city_kana":"フクヤマシ","town":"佐波町","town_kana":"サバチョウ","prefecture_code":34},"0066":{"zip_code":"7200066","prefecture":"広島県","prefecture_kana":"ヒロシマケン","city":"福山市","city_kana":"フクヤマシ","town":"三之丸町","town_kana":"サンノマルチョウ","prefecture_code":34},"0816":{"zip_code":"7200816","prefecture":"広島県","prefecture_kana":"ヒロシマケン","city":"福山市","city_kana":"フクヤマシ","town":"地吹町","town_kana":"ジブキチョウ","prefecture_code":34},"0025":{"zip_code":"7200025","prefecture":"広島県","prefecture_kana":"ヒロシマケン","city":"福山市","city_kana":"フクヤマシ","town":"清水ケ丘","town_kana":"シミズガオカ","prefecture_code":34},"0808":{"zip_code":"7200808","prefecture":"広島県","prefecture_kana":"ヒロシマケン","city":"福山市","city_kana":"フクヤマシ","town":"昭和町","town_kana":"ショウワチョウ","prefecture_code":34},"0054":{"zip_code":"7200054","prefecture":"広島県","prefecture_kana":"ヒロシマケン","city":"福山市","city_kana":"フクヤマシ","town":"城見町","town_kana":"シロミチョウ","prefecture_code":34},"0809":{"zip_code":"7200809","prefecture":"広島県","prefecture_kana":"ヒロシマケン","city":"福山市","city_kana":"フクヤマシ","town":"住吉町","town_kana":"スミヨシチョウ","prefecture_code":34},"0838":{"zip_code":"7200838","prefecture":"広島県","prefecture_kana":"ヒロシマケン","city":"福山市","city_kana":"フクヤマシ","town":"瀬戸町山北","town_kana":"セトチョウサボク","prefecture_code":34},"0837":{"zip_code":"7200837","prefecture":"広島県","prefecture_kana":"ヒロシマケン","city":"福山市","city_kana":"フクヤマシ","town":"瀬戸町地頭分","town_kana":"セトチョウジトウブ","prefecture_code":34},"0836":{"zip_code":"7200836","prefecture":"広島県","prefecture_kana":"ヒロシマケン","city":"福山市","city_kana":"フクヤマシ","town":"瀬戸町長和","town_kana":"セトチョウナガワ","prefecture_code":34},"0017":{"zip_code":"7200017","prefecture":"広島県","prefecture_kana":"ヒロシマケン","city":"福山市","city_kana":"フクヤマシ","town":"千田町","town_kana":"センダチョウ","prefecture_code":34},"0015":{"zip_code":"7200015","prefecture":"広島県","prefecture_kana":"ヒロシマケン","city":"福山市","city_kana":"フクヤマシ","town":"千田町坂田","town_kana":"センダチョウサカタ","prefecture_code":34},"0013":{"zip_code":"7200013","prefecture":"広島県","prefecture_kana":"ヒロシマケン","city":"福山市","city_kana":"フクヤマシ","town":"千田町千田","town_kana":"センダチョウセンダ","prefecture_code":34},"0014":{"zip_code":"7200014","prefecture":"広島県","prefecture_kana":"ヒロシマケン","city":"福山市","city_kana":"フクヤマシ","town":"千田町薮路","town_kana":"センダチョウヤブロ","prefecture_code":34},"0016":{"zip_code":"7200016","prefecture":"広島県","prefecture_kana":"ヒロシマケン","city":"福山市","city_kana":"フクヤマシ","town":"千田町坂田北","town_kana":"センダチョウサカタキタ","prefecture_code":34},"0024":{"zip_code":"7200024","prefecture":"広島県","prefecture_kana":"ヒロシマケン","city":"福山市","city_kana":"フクヤマシ","town":"高美台","town_kana":"タカミダイ","prefecture_code":34},"0045":{"zip_code":"7200045","prefecture":"広島県","prefecture_kana":"ヒロシマケン","city":"福山市","city_kana":"フクヤマシ","town":"宝町","town_kana":"タカラマチ","prefecture_code":34},"0824":{"zip_code":"7200824","prefecture":"広島県","prefecture_kana":"ヒロシマケン","city":"福山市","city_kana":"フクヤマシ","town":"多治米町","town_kana":"タジメチョウ","prefecture_code":34},"0203":{"zip_code":"7200203","prefecture":"広島県","prefecture_kana":"ヒロシマケン","city":"福山市","city_kana":"フクヤマシ","town":"田尻町","town_kana":"タジリチョウ","prefecture_code":34},"0053":{"zip_code":"7200053","prefecture":"広島県","prefecture_kana":"ヒロシマケン","city":"福山市","city_kana":"フクヤマシ","town":"大黒町","town_kana":"ダイコクマチ","prefecture_code":34},"0075":{"zip_code":"7200075","prefecture":"広島県","prefecture_kana":"ヒロシマケン","city":"福山市","city_kana":"フクヤマシ","town":"長者町","town_kana":"チョウジャマチ","prefecture_code":34},"0823":{"zip_code":"7200823","prefecture":"広島県","prefecture_kana":"ヒロシマケン","city":"福山市","city_kana":"フクヤマシ","town":"千代田町","town_kana":"チヨダチョウ","prefecture_code":34},"0842":{"zip_code":"7200842","prefecture":"広島県","prefecture_kana":"ヒロシマケン","city":"福山市","city_kana":"フクヤマシ","town":"津之郷町加屋","town_kana":"ツノゴウチョウカヤ","prefecture_code":34},"0841":{"zip_code":"7200841","prefecture":"広島県","prefecture_kana":"ヒロシマケン","city":"福山市","city_kana":"フクヤマシ","town":"津之郷町津之郷","town_kana":"ツノゴウチョウツノゴウ","prefecture_code":34},"0041":{"zip_code":"7200041","prefecture":"広島県","prefecture_kana":"ヒロシマケン","city":"福山市","city_kana":"フクヤマシ","town":"寺町","town_kana":"テラマチ","prefecture_code":34},"0813":{"zip_code":"7200813","prefecture":"広島県","prefecture_kana":"ヒロシマケン","city":"福山市","city_kana":"フクヤマシ","town":"道三町","town_kana":"ドウサンチョウ","prefecture_code":34},"0202":{"zip_code":"7200202","prefecture":"広島県","prefecture_kana":"ヒロシマケン","city":"福山市","city_kana":"フクヤマシ","town":"鞆町後地","town_kana":"トモチョウウシロジ","prefecture_code":34},"0201":{"zip_code":"7200201","prefecture":"広島県","prefecture_kana":"ヒロシマケン","city":"福山市","city_kana":"フクヤマシ","town":"鞆町鞆","town_kana":"トモチョウトモ","prefecture_code":34},"0022":{"zip_code":"7200022","prefecture":"広島県","prefecture_kana":"ヒロシマケン","city":"福山市","city_kana":"フクヤマシ","town":"奈良津町","town_kana":"ナラヅチョウ","prefecture_code":34},"0818":{"zip_code":"7200818","prefecture":"広島県","prefecture_kana":"ヒロシマケン","city":"福山市","city_kana":"フクヤマシ","town":"西桜町","town_kana":"ニシサクラマチ","prefecture_code":34},"0067":{"zip_code":"7200067","prefecture":"広島県","prefecture_kana":"ヒロシマケン","city":"福山市","city_kana":"フクヤマシ","town":"西町","town_kana":"ニシマチ","prefecture_code":34},"0401":{"zip_code":"7200401","prefecture":"広島県","prefecture_kana":"ヒロシマケン","city":"福山市","city_kana":"フクヤマシ","town":"沼隈町上山南","town_kana":"ヌマクマチョウカミサンナ","prefecture_code":34},"0311":{"zip_code":"7200311","prefecture":"広島県","prefecture_kana":"ヒロシマケン","city":"福山市","city_kana":"フクヤマシ","town":"沼隈町草深","town_kana":"ヌマクマチョウクサブカ","prefecture_code":34},"0403":{"zip_code":"7200403","prefecture":"広島県","prefecture_kana":"ヒロシマケン","city":"福山市","city_kana":"フクヤマシ","town":"沼隈町下山南","town_kana":"ヌマクマチョウシモサンナ","prefecture_code":34},"0313":{"zip_code":"7200313","prefecture":"広島県","prefecture_kana":"ヒロシマケン","city":"福山市","city_kana":"フクヤマシ","town":"沼隈町常石","town_kana":"ヌマクマチョウツネイシ","prefecture_code":34},"0402":{"zip_code":"7200402","prefecture":"広島県","prefecture_kana":"ヒロシマケン","city":"福山市","city_kana":"フクヤマシ","town":"沼隈町中山南","town_kana":"ヌマクマチョウナカサンナ","prefecture_code":34},"0312":{"zip_code":"7200312","prefecture":"広島県","prefecture_kana":"ヒロシマケン","city":"福山市","city_kana":"フクヤマシ","town":"沼隈町能登原","town_kana":"ヌマクマチョウノトハラ","prefecture_code":34},"0815":{"zip_code":"7200815","prefecture":"広島県","prefecture_kana":"ヒロシマケン","city":"福山市","city_kana":"フクヤマシ","town":"野上町","town_kana":"ノガミチョウ","prefecture_code":34},"0064":{"zip_code":"7200064","prefecture":"広島県","prefecture_kana":"ヒロシマケン","city":"福山市","city_kana":"フクヤマシ","town":"延広町","town_kana":"ノブヒロチョウ","prefecture_code":34},"0204":{"zip_code":"7200204","prefecture":"広島県","prefecture_kana":"ヒロシマケン","city":"福山市","city_kana":"フクヤマシ","town":"走島町","town_kana":"ハシリジマチョウ","prefecture_code":34},"0803":{"zip_code":"7200803","prefecture":"広島県","prefecture_kana":"ヒロシマケン","city":"福山市","city_kana":"フクヤマシ","town":"花園町","town_kana":"ハナゾノチョウ","prefecture_code":34},"0821":{"zip_code":"7200821","prefecture":"広島県","prefecture_kana":"ヒロシマケン","city":"福山市","city_kana":"フクヤマシ","town":"東川口町","town_kana":"ヒガシカワグチチョウ","prefecture_code":34},"0065":{"zip_code":"7200065","prefecture":"広島県","prefecture_kana":"ヒロシマケン","city":"福山市","city_kana":"フクヤマシ","town":"東桜町","town_kana":"ヒガシサクラマチ","prefecture_code":34},"0052":{"zip_code":"7200052","prefecture":"広島県","prefecture_kana":"ヒロシマケン","city":"福山市","city_kana":"フクヤマシ","town":"東町","town_kana":"ヒガシマチ","prefecture_code":34},"0839":{"zip_code":"7200839","prefecture":"広島県","prefecture_kana":"ヒロシマケン","city":"福山市","city_kana":"フクヤマシ","town":"東明王台","town_kana":"ヒガシミョウオウダイ","prefecture_code":34},"0071":{"zip_code":"7200071","prefecture":"広島県","prefecture_kana":"ヒロシマケン","city":"福山市","city_kana":"フクヤマシ","town":"東吉津町","town_kana":"ヒガシヨシヅチョウ","prefecture_code":34},"0083":{"zip_code":"7200083","prefecture":"広島県","prefecture_kana":"ヒロシマケン","city":"福山市","city_kana":"フクヤマシ","town":"久松台","town_kana":"ヒサマツダイ","prefecture_code":34},"0062":{"zip_code":"7200062","prefecture":"広島県","prefecture_kana":"ヒロシマケン","city":"福山市","city_kana":"フクヤマシ","town":"伏見町","town_kana":"フシミチョウ","prefecture_code":34},"0543":{"zip_code":"7200543","prefecture":"広島県","prefecture_kana":"ヒロシマケン","city":"福山市","city_kana":"フクヤマシ","town":"藤江町","town_kana":"フジエチョウ","prefecture_code":34},"0043":{"zip_code":"7200043","prefecture":"広島県","prefecture_kana":"ヒロシマケン","city":"福山市","city_kana":"フクヤマシ","town":"船町","town_kana":"フナマチ","prefecture_code":34},"0817":{"zip_code":"7200817","prefecture":"広島県","prefecture_kana":"ヒロシマケン","city":"福山市","city_kana":"フクヤマシ","town":"古野上町","town_kana":"フルノガミチョウ","prefecture_code":34},"0076":{"zip_code":"7200076","prefecture":"広島県","prefecture_kana":"ヒロシマケン","city":"福山市","city_kana":"フクヤマシ","town":"本庄町中","town_kana":"ホンジョウチョウナカ","prefecture_code":34},"0056":{"zip_code":"7200056","prefecture":"広島県","prefecture_kana":"ヒロシマケン","city":"福山市","city_kana":"フクヤマシ","town":"本町","town_kana":"ホンマチ","prefecture_code":34},"0802":{"zip_code":"7200802","prefecture":"広島県","prefecture_kana":"ヒロシマケン","city":"福山市","city_kana":"フクヤマシ","town":"松浜町","town_kana":"マツハマチョウ","prefecture_code":34},"0061":{"zip_code":"7200061","prefecture":"広島県","prefecture_kana":"ヒロシマケン","city":"福山市","city_kana":"フクヤマシ","town":"丸之内","town_kana":"マルノウチ","prefecture_code":34},"0805":{"zip_code":"7200805","prefecture":"広島県","prefecture_kana":"ヒロシマケン","city":"福山市","city_kana":"フクヤマシ","town":"御門町","town_kana":"ミカドチョウ","prefecture_code":34},"0804":{"zip_code":"7200804","prefecture":"広島県","prefecture_kana":"ヒロシマケン","city":"福山市","city_kana":"フクヤマシ","town":"緑町","town_kana":"ミドリマチ","prefecture_code":34},"0077":{"zip_code":"7200077","prefecture":"広島県","prefecture_kana":"ヒロシマケン","city":"福山市","city_kana":"フクヤマシ","town":"南本庄","town_kana":"ミナミホンジョウ","prefecture_code":34},"0806":{"zip_code":"7200806","prefecture":"広島県","prefecture_kana":"ヒロシマケン","city":"福山市","city_kana":"フクヤマシ","town":"南町","town_kana":"ミナミマチ","prefecture_code":34},"0832":{"zip_code":"7200832","prefecture":"広島県","prefecture_kana":"ヒロシマケン","city":"福山市","city_kana":"フクヤマシ","town":"水呑町","town_kana":"ミノミチョウ","prefecture_code":34},"0833":{"zip_code":"7200833","prefecture":"広島県","prefecture_kana":"ヒロシマケン","city":"福山市","city_kana":"フクヤマシ","town":"水呑向丘","town_kana":"ミノミムカイガオカ","prefecture_code":34},"0042":{"zip_code":"7200042","prefecture":"広島県","prefecture_kana":"ヒロシマケン","city":"福山市","city_kana":"フクヤマシ","town":"御船町","town_kana":"ミフネチョウ","prefecture_code":34},"0001":{"zip_code":"7200001","prefecture":"広島県","prefecture_kana":"ヒロシマケン","city":"福山市","city_kana":"フクヤマシ","town":"御幸町上岩成","town_kana":"ミユキチョウカミイワナリ","prefecture_code":34},"0002":{"zip_code":"7200002","prefecture":"広島県","prefecture_kana":"ヒロシマケン","city":"福山市","city_kana":"フクヤマシ","town":"御幸町下岩成","town_kana":"ミユキチョウシモイワナリ","prefecture_code":34},"0004":{"zip_code":"7200004","prefecture":"広島県","prefecture_kana":"ヒロシマケン","city":"福山市","city_kana":"フクヤマシ","town":"御幸町中津原","town_kana":"ミユキチョウナカツハラ","prefecture_code":34},"0003":{"zip_code":"7200003","prefecture":"広島県","prefecture_kana":"ヒロシマケン","city":"福山市","city_kana":"フクヤマシ","town":"御幸町森脇","town_kana":"ミユキチョウモリワケ","prefecture_code":34},"0834":{"zip_code":"7200834","prefecture":"広島県","prefecture_kana":"ヒロシマケン","city":"福山市","city_kana":"フクヤマシ","town":"明王台","town_kana":"ミョウオウダイ","prefecture_code":34},"0031":{"zip_code":"7200031","prefecture":"広島県","prefecture_kana":"ヒロシマケン","city":"福山市","city_kana":"フクヤマシ","town":"三吉町","town_kana":"ミヨシチョウ","prefecture_code":34},"0032":{"zip_code":"7200032","prefecture":"広島県","prefecture_kana":"ヒロシマケン","city":"福山市","city_kana":"フクヤマシ","town":"三吉町南","town_kana":"ミヨシチョウミナミ","prefecture_code":34},"0807":{"zip_code":"7200807","prefecture":"広島県","prefecture_kana":"ヒロシマケン","city":"福山市","city_kana":"フクヤマシ","town":"明治町","town_kana":"メイジチョウ","prefecture_code":34},"0063":{"zip_code":"7200063","prefecture":"広島県","prefecture_kana":"ヒロシマケン","city":"福山市","city_kana":"フクヤマシ","town":"元町","town_kana":"モトマチ","prefecture_code":34},"0811":{"zip_code":"7200811","prefecture":"広島県","prefecture_kana":"ヒロシマケン","city":"福山市","city_kana":"フクヤマシ","town":"紅葉町","town_kana":"モミジチョウ","prefecture_code":34},"0092":{"zip_code":"7200092","prefecture":"広島県","prefecture_kana":"ヒロシマケン","city":"福山市","city_kana":"フクヤマシ","town":"山手町","town_kana":"ヤマテチョウ","prefecture_code":34},"2601":{"zip_code":"7202601","prefecture":"広島県","prefecture_kana":"ヒロシマケン","city":"福山市","city_kana":"フクヤマシ","town":"山野町矢川","town_kana":"ヤマノチョウヤカワ","prefecture_code":34},"2602":{"zip_code":"7202602","prefecture":"広島県","prefecture_kana":"ヒロシマケン","city":"福山市","city_kana":"フクヤマシ","town":"山野町山野","town_kana":"ヤマノチョウヤマノ","prefecture_code":34},"0011":{"zip_code":"7200011","prefecture":"広島県","prefecture_kana":"ヒロシマケン","city":"福山市","city_kana":"フクヤマシ","town":"横尾町","town_kana":"ヨコオチョウ","prefecture_code":34},"0072":{"zip_code":"7200072","prefecture":"広島県","prefecture_kana":"ヒロシマケン","city":"福山市","city_kana":"フクヤマシ","town":"吉津町","town_kana":"ヨシヅチョウ","prefecture_code":34},"0021":{"zip_code":"7200021","prefecture":"広島県","prefecture_kana":"ヒロシマケン","city":"福山市","city_kana":"フクヤマシ","town":"緑陽町","town_kana":"リョクヨウチョウ","prefecture_code":34},"0034":{"zip_code":"7200034","prefecture":"広島県","prefecture_kana":"ヒロシマケン","city":"福山市","city_kana":"フクヤマシ","town":"若松町","town_kana":"ワカマツチョウ","prefecture_code":34},"1800":{"zip_code":"7201800","prefecture":"広島県","prefecture_kana":"ヒロシマケン","city":"神石郡神石高原町","city_kana":"ジンセキグンジンセキコウゲンチョウ","town":"以下に掲載がない場合","town_kana":"イカニケイサイガナイバアイ","prefecture_code":34},"1521":{"zip_code":"7201521","prefecture":"広島県","prefecture_kana":"ヒロシマケン","city":"神石郡神石高原町","city_kana":"ジンセキグンジンセキコウゲンチョウ","town":"阿下","town_kana":"アゲ","prefecture_code":34},"1701":{"zip_code":"7201701","prefecture":"広島県","prefecture_kana":"ヒロシマケン","city":"神石郡神石高原町","city_kana":"ジンセキグンジンセキコウゲンチョウ","town":"有木","town_kana":"アルギ","prefecture_code":34},"1602":{"zip_code":"7201602","prefecture":"広島県","prefecture_kana":"ヒロシマケン","city":"神石郡神石高原町","city_kana":"ジンセキグンジンセキコウゲンチョウ","town":"井関","town_kana":"イセキ","prefecture_code":34},"1624":{"zip_code":"7201624","prefecture":"広島県","prefecture_kana":"ヒロシマケン","city":"神石郡神石高原町","city_kana":"ジンセキグンジンセキコウゲンチョウ","town":"上野","town_kana":"ウエノ","prefecture_code":34},"1601":{"zip_code":"7201601","prefecture":"広島県","prefecture_kana":"ヒロシマケン","city":"神石郡神石高原町","city_kana":"ジンセキグンジンセキコウゲンチョウ","town":"大矢","town_kana":"オオヤ","prefecture_code":34},"1901":{"zip_code":"7201901","prefecture":"広島県","prefecture_kana":"ヒロシマケン","city":"神石郡神石高原町","city_kana":"ジンセキグンジンセキコウゲンチョウ","town":"小野","town_kana":"オノ","prefecture_code":34},"1525":{"zip_code":"7201525","prefecture":"広島県","prefecture_kana":"ヒロシマケン","city":"神石郡神石高原町","city_kana":"ジンセキグンジンセキコウゲンチョウ","town":"上","town_kana":"カミ","prefecture_code":34},"1702":{"zip_code":"7201702","prefecture":"広島県","prefecture_kana":"ヒロシマケン","city":"神石郡神石高原町","city_kana":"ジンセキグンジンセキコウゲンチョウ","town":"上豊松","town_kana":"カミトヨマツ","prefecture_code":34},"1523":{"zip_code":"7201523","prefecture":"広島県","prefecture_kana":"ヒロシマケン","city":"神石郡神石高原町","city_kana":"ジンセキグンジンセキコウゲンチョウ","town":"亀石","town_kana":"カメイシ","prefecture_code":34},"1416":{"zip_code":"7201416","prefecture":"広島県","prefecture_kana":"ヒロシマケン","city":"神石郡神石高原町","city_kana":"ジンセキグンジンセキコウゲンチョウ","town":"木津和","town_kana":"キツワ","prefecture_code":34},"1414":{"zip_code":"7201414","prefecture":"広島県","prefecture_kana":"ヒロシマケン","city":"神石郡神石高原町","city_kana":"ジンセキグンジンセキコウゲンチョウ","town":"桑木","town_kana":"クワギ","prefecture_code":34},"1522":{"zip_code":"7201522","prefecture":"広島県","prefecture_kana":"ヒロシマケン","city":"神石郡神石高原町","city_kana":"ジンセキグンジンセキコウゲンチョウ","town":"小畠","town_kana":"コバタケ","prefecture_code":34},"1604":{"zip_code":"7201604","prefecture":"広島県","prefecture_kana":"ヒロシマケン","city":"神石郡神石高原町","city_kana":"ジンセキグンジンセキコウゲンチョウ","town":"坂瀬川","town_kana":"サカセガワ","prefecture_code":34},"1703":{"zip_code":"7201703","prefecture":"広島県","prefecture_kana":"ヒロシマケン","city":"神石郡神石高原町","city_kana":"ジンセキグンジンセキコウゲンチョウ","town":"笹尾","town_kana":"ササオ","prefecture_code":34},"1415":{"zip_code":"7201415","prefecture":"広島県","prefecture_kana":"ヒロシマケン","city":"神石郡神石高原町","city_kana":"ジンセキグンジンセキコウゲンチョウ","town":"階見","town_kana":"シナミ","prefecture_code":34},"1704":{"zip_code":"7201704","prefecture":"広島県","prefecture_kana":"ヒロシマケン","city":"神石郡神石高原町","city_kana":"ジンセキグンジンセキコウゲンチョウ","town":"下豊松","town_kana":"シモトヨマツ","prefecture_code":34},"1902":{"zip_code":"7201902","prefecture":"広島県","prefecture_kana":"ヒロシマケン","city":"神石郡神石高原町","city_kana":"ジンセキグンジンセキコウゲンチョウ","town":"新免","town_kana":"シンメン","prefecture_code":34},"1621":{"zip_code":"7201621","prefecture":"広島県","prefecture_kana":"ヒロシマケン","city":"神石郡神石高原町","city_kana":"ジンセキグンジンセキコウゲンチョウ","town":"李","town_kana":"スモモ","prefecture_code":34},"1410":{"zip_code":"7201410","prefecture":"広島県","prefecture_kana":"ヒロシマケン","city":"神石郡神石高原町","city_kana":"ジンセキグンジンセキコウゲンチョウ","town":"高蓋","town_kana":"タカフタ","prefecture_code":34},"1622":{"zip_code":"7201622","prefecture":"広島県","prefecture_kana":"ヒロシマケン","city":"神石郡神石高原町","city_kana":"ジンセキグンジンセキコウゲンチョウ","town":"近田","town_kana":"チカダ","prefecture_code":34},"1413":{"zip_code":"7201413","prefecture":"広島県","prefecture_kana":"ヒロシマケン","city":"神石郡神石高原町","city_kana":"ジンセキグンジンセキコウゲンチョウ","town":"父木野","town_kana":"チチキノ","prefecture_code":34},"1524":{"zip_code":"7201524","prefecture":"広島県","prefecture_kana":"ヒロシマケン","city":"神石郡神石高原町","city_kana":"ジンセキグンジンセキコウゲンチョウ","town":"常光","town_kana":"ツネミツ","prefecture_code":34},"1603":{"zip_code":"7201603","prefecture":"広島県","prefecture_kana":"ヒロシマケン","city":"神石郡神石高原町","city_kana":"ジンセキグンジンセキコウゲンチョウ","town":"時安","town_kana":"トキヤス","prefecture_code":34},"1705":{"zip_code":"7201705","prefecture":"広島県","prefecture_kana":"ヒロシマケン","city":"神石郡神石高原町","city_kana":"ジンセキグンジンセキコウゲンチョウ","town":"中平","town_kana":"ナカダイラ","prefecture_code":34},"1623":{"zip_code":"7201623","prefecture":"広島県","prefecture_kana":"ヒロシマケン","city":"神石郡神石高原町","city_kana":"ジンセキグンジンセキコウゲンチョウ","town":"花済","town_kana":"ハナズミ","prefecture_code":34},"1412":{"zip_code":"7201412","prefecture":"広島県","prefecture_kana":"ヒロシマケン","city":"神石郡神石高原町","city_kana":"ジンセキグンジンセキコウゲンチョウ","town":"光末","town_kana":"ミツスエ","prefecture_code":34},"1411":{"zip_code":"7201411","prefecture":"広島県","prefecture_kana":"ヒロシマケン","city":"神石郡神石高原町","city_kana":"ジンセキグンジンセキコウゲンチョウ","town":"光信","town_kana":"ミツノブ","prefecture_code":34},"1811":{"zip_code":"7201811","prefecture":"広島県","prefecture_kana":"ヒロシマケン","city":"神石郡神石高原町","city_kana":"ジンセキグンジンセキコウゲンチョウ","town":"安田","town_kana":"ヤスダ","prefecture_code":34},"1812":{"zip_code":"7201812","prefecture":"広島県","prefecture_kana":"ヒロシマケン","city":"神石郡神石高原町","city_kana":"ジンセキグンジンセキコウゲンチョウ","town":"油木","town_kana":"ユキ","prefecture_code":34}}