{"1301":{"zip_code":"7221301","prefecture":"広島県","prefecture_kana":"ヒロシマケン","city":"三原市","city_kana":"ミハラシ","town":"久井町莇原","town_kana":"クイチョウアゾウバラ","prefecture_code":34},"1411":{"zip_code":"7221411","prefecture":"広島県","prefecture_kana":"ヒロシマケン","city":"三原市","city_kana":"ミハラシ","town":"久井町泉","town_kana":"クイチョウイズミ","prefecture_code":34},"1304":{"zip_code":"7221304","prefecture":"広島県","prefecture_kana":"ヒロシマケン","city":"三原市","city_kana":"ミハラシ","town":"久井町江木","town_kana":"クイチョウエギ","prefecture_code":34},"1417":{"zip_code":"7221417","prefecture":"広島県","prefecture_kana":"ヒロシマケン","city":"三原市","city_kana":"ミハラシ","town":"久井町小林","town_kana":"クイチョウコバヤシ","prefecture_code":34},"1414":{"zip_code":"7221414","prefecture":"広島県","prefecture_kana":"ヒロシマケン","city":"三原市","city_kana":"ミハラシ","town":"久井町坂井原","town_kana":"クイチョウサカイバラ","prefecture_code":34},"1303":{"zip_code":"7221303","prefecture":"広島県","prefecture_kana":"ヒロシマケン","city":"三原市","city_kana":"ミハラシ","town":"久井町下津","town_kana":"クイチョウシモツ","prefecture_code":34},"1415":{"zip_code":"7221415","prefecture":"広島県","prefecture_kana":"ヒロシマケン","city":"三原市","city_kana":"ミハラシ","town":"久井町土取","town_kana":"クイチョウツチトリ","prefecture_code":34},"1413":{"zip_code":"7221413","prefecture":"広島県","prefecture_kana":"ヒロシマケン","city":"三原市","city_kana":"ミハラシ","town":"久井町羽倉","town_kana":"クイチョウハグラ","prefecture_code":34},"1416":{"zip_code":"7221416","prefecture":"広島県","prefecture_kana":"ヒロシマケン","city":"三原市","city_kana":"ミハラシ","town":"久井町山中野","town_kana":"クイチョウヤマナカノ","prefecture_code":34},"1302":{"zip_code":"7221302","prefecture":"広島県","prefecture_kana":"ヒロシマケン","city":"三原市","city_kana":"ミハラシ","town":"久井町吉田","town_kana":"クイチョウヨシダ","prefecture_code":34},"1412":{"zip_code":"7221412","prefecture":"広島県","prefecture_kana":"ヒロシマケン","city":"三原市","city_kana":"ミハラシ","town":"久井町和草","town_kana":"クイチョウワソウ","prefecture_code":34},"1401":{"zip_code":"7221401","prefecture":"広島県","prefecture_kana":"ヒロシマケン","city":"三原市","city_kana":"ミハラシ","town":"本郷町船木芋堀","town_kana":"ホンゴウチョウフナキイモホリ","prefecture_code":34},"1501":{"zip_code":"7221501","prefecture":"広島県","prefecture_kana":"ヒロシマケン","city":"三原市","city_kana":"ミハラシ","town":"八幡町垣内","town_kana":"ヤハタチョウカイチ","prefecture_code":34},"1511":{"zip_code":"7221511","prefecture":"広島県","prefecture_kana":"ヒロシマケン","city":"三原市","city_kana":"ミハラシ","town":"八幡町篝","town_kana":"ヤハタチョウカガリ","prefecture_code":34},"1512":{"zip_code":"7221512","prefecture":"広島県","prefecture_kana":"ヒロシマケン","city":"三原市","city_kana":"ミハラシ","town":"八幡町野串","town_kana":"ヤハタチョウノグシ","prefecture_code":34},"1516":{"zip_code":"7221516","prefecture":"広島県","prefecture_kana":"ヒロシマケン","city":"三原市","city_kana":"ミハラシ","town":"八幡町本庄","town_kana":"ヤハタチョウホンジョウ","prefecture_code":34},"1515":{"zip_code":"7221515","prefecture":"広島県","prefecture_kana":"ヒロシマケン","city":"三原市","city_kana":"ミハラシ","town":"八幡町美生","town_kana":"ヤハタチョウミノウ","prefecture_code":34},"1513":{"zip_code":"7221513","prefecture":"広島県","prefecture_kana":"ヒロシマケン","city":"三原市","city_kana":"ミハラシ","town":"八幡町宮内","town_kana":"ヤハタチョウミヤウチ","prefecture_code":34},"1514":{"zip_code":"7221514","prefecture":"広島県","prefecture_kana":"ヒロシマケン","city":"三原市","city_kana":"ミハラシ","town":"八幡町屋中","town_kana":"ヤハタチョウヤナカ","prefecture_code":34},"0000":{"zip_code":"7220000","prefecture":"広島県","prefecture_kana":"ヒロシマケン","city":"尾道市","city_kana":"オノミチシ","town":"","town_kana":"","prefecture_code":34},"2101":{"zip_code":"7222101","prefecture":"広島県","prefecture_kana":"ヒロシマケン","city":"尾道市","city_kana":"オノミチシ","town":"因島大浜町","town_kana":"インノシマオオハマチョウ","prefecture_code":34},"2212":{"zip_code":"7222212","prefecture":"広島県","prefecture_kana":"ヒロシマケン","city":"尾道市","city_kana":"オノミチシ","town":"因島鏡浦町","town_kana":"インノシマカガミウラチョウ","prefecture_code":34},"2102":{"zip_code":"7222102","prefecture":"広島県","prefecture_kana":"ヒロシマケン","city":"尾道市","city_kana":"オノミチシ","town":"因島重井町","town_kana":"インノシマシゲイチョウ","prefecture_code":34},"2431":{"zip_code":"7222431","prefecture":"広島県","prefecture_kana":"ヒロシマケン","city":"尾道市","city_kana":"オノミチシ","town":"因島洲江町","town_kana":"インノシマスノエチョウ","prefecture_code":34},"2324":{"zip_code":"7222324","prefecture":"広島県","prefecture_kana":"ヒロシマケン","city":"尾道市","city_kana":"オノミチシ","town":"因島田熊町","town_kana":"インノシマタクマチョウ","prefecture_code":34},"2213":{"zip_code":"7222213","prefecture":"広島県","prefecture_kana":"ヒロシマケン","city":"尾道市","city_kana":"オノミチシ","town":"因島外浦町","town_kana":"インノシマトノウラチョウ","prefecture_code":34},"2211":{"zip_code":"7222211","prefecture":"広島県","prefecture_kana":"ヒロシマケン","city":"尾道市","city_kana":"オノミチシ","town":"因島中庄町","town_kana":"インノシマナカノショウチョウ","prefecture_code":34},"2323":{"zip_code":"7222323","prefecture":"広島県","prefecture_kana":"ヒロシマケン","city":"尾道市","city_kana":"オノミチシ","town":"因島土生町","town_kana":"インノシマハブチョウ","prefecture_code":34},"2432":{"zip_code":"7222432","prefecture":"広島県","prefecture_kana":"ヒロシマケン","city":"尾道市","city_kana":"オノミチシ","town":"因島原町","town_kana":"インノシマハラチョウ","prefecture_code":34},"2322":{"zip_code":"7222322","prefecture":"広島県","prefecture_kana":"ヒロシマケン","city":"尾道市","city_kana":"オノミチシ","town":"因島三庄町","town_kana":"インノシマミツノショウチョウ","prefecture_code":34},"2321":{"zip_code":"7222321","prefecture":"広島県","prefecture_kana":"ヒロシマケン","city":"尾道市","city_kana":"オノミチシ","town":"因島椋浦町","town_kana":"インノシマムクノウラチョウ","prefecture_code":34},"0006":{"zip_code":"7220006","prefecture":"広島県","prefecture_kana":"ヒロシマケン","city":"尾道市","city_kana":"オノミチシ","town":"沖側町","town_kana":"オキガワチョウ","prefecture_code":34},"0053":{"zip_code":"7220053","prefecture":"広島県","prefecture_kana":"ヒロシマケン","city":"尾道市","city_kana":"オノミチシ","town":"尾崎町","town_kana":"オザキチョウ","prefecture_code":34},"0054":{"zip_code":"7220054","prefecture":"広島県","prefecture_kana":"ヒロシマケン","city":"尾道市","city_kana":"オノミチシ","town":"尾崎本町","town_kana":"オザキホンマチ","prefecture_code":34},"0016":{"zip_code":"7220016","prefecture":"広島県","prefecture_kana":"ヒロシマケン","city":"尾道市","city_kana":"オノミチシ","town":"神田町","town_kana":"カンダチョウ","prefecture_code":34},"0233":{"zip_code":"7220233","prefecture":"広島県","prefecture_kana":"ヒロシマケン","city":"尾道市","city_kana":"オノミチシ","town":"木ノ庄町市原","town_kana":"キノショウチョウイチバラ","prefecture_code":34},"0234":{"zip_code":"7220234","prefecture":"広島県","prefecture_kana":"ヒロシマケン","city":"尾道市","city_kana":"オノミチシ","town":"木ノ庄町木梨","town_kana":"キノショウチョウキナシ","prefecture_code":34},"0235":{"zip_code":"7220235","prefecture":"広島県","prefecture_kana":"ヒロシマケン","city":"尾道市","city_kana":"オノミチシ","town":"木ノ庄町木梨山方","town_kana":"キノショウチョウキナシヤマガタ","prefecture_code":34},"0232":{"zip_code":"7220232","prefecture":"広島県","prefecture_kana":"ヒロシマケン","city":"尾道市","city_kana":"オノミチシ","town":"木ノ庄町木門田","town_kana":"キノショウチョウキモンデン","prefecture_code":34},"0231":{"zip_code":"7220231","prefecture":"広島県","prefecture_kana":"ヒロシマケン","city":"尾道市","city_kana":"オノミチシ","town":"木ノ庄町畑","town_kana":"キノショウチョウハタ","prefecture_code":34},"0045":{"zip_code":"7220045","prefecture":"広島県","prefecture_kana":"ヒロシマケン","city":"尾道市","city_kana":"オノミチシ","town":"久保","town_kana":"クボ","prefecture_code":34},"0042":{"zip_code":"7220042","prefecture":"広島県","prefecture_kana":"ヒロシマケン","city":"尾道市","city_kana":"オノミチシ","town":"久保町","town_kana":"クボチョウ","prefecture_code":34},"0025":{"zip_code":"7220025","prefecture":"広島県","prefecture_kana":"ヒロシマケン","city":"尾道市","city_kana":"オノミチシ","town":"栗原東","town_kana":"クリハラヒガシ","prefecture_code":34},"0026":{"zip_code":"7220026","prefecture":"広島県","prefecture_kana":"ヒロシマケン","city":"尾道市","city_kana":"オノミチシ","town":"栗原西","town_kana":"クリハラニシ","prefecture_code":34},"0022":{"zip_code":"7220022","prefecture":"広島県","prefecture_kana":"ヒロシマケン","city":"尾道市","city_kana":"オノミチシ","town":"栗原町","town_kana":"クリハラチョウ","prefecture_code":34},"0002":{"zip_code":"7220002","prefecture":"広島県","prefecture_kana":"ヒロシマケン","city":"尾道市","city_kana":"オノミチシ","town":"古浜町","town_kana":"コハマチョウ","prefecture_code":34},"0011":{"zip_code":"7220011","prefecture":"広島県","prefecture_kana":"ヒロシマケン","city":"尾道市","city_kana":"オノミチシ","town":"桜町","town_kana":"サクラマチ","prefecture_code":34},"0031":{"zip_code":"7220031","prefecture":"広島県","prefecture_kana":"ヒロシマケン","city":"尾道市","city_kana":"オノミチシ","town":"三軒家町","town_kana":"サンゲンヤチョウ","prefecture_code":34},"0052":{"zip_code":"7220052","prefecture":"広島県","prefecture_kana":"ヒロシマケン","city":"尾道市","city_kana":"オノミチシ","town":"山波町","town_kana":"サンバチョウ","prefecture_code":34},"0012":{"zip_code":"7220012","prefecture":"広島県","prefecture_kana":"ヒロシマケン","city":"尾道市","city_kana":"オノミチシ","town":"潮見町","town_kana":"シオミチョウ","prefecture_code":34},"0004":{"zip_code":"7220004","prefecture":"広島県","prefecture_kana":"ヒロシマケン","city":"尾道市","city_kana":"オノミチシ","town":"正徳町","town_kana":"ショウトクチョウ","prefecture_code":34},"0055":{"zip_code":"7220055","prefecture":"広島県","prefecture_kana":"ヒロシマケン","city":"尾道市","city_kana":"オノミチシ","town":"新高山","town_kana":"シンタカヤマ","prefecture_code":34},"0014":{"zip_code":"7220014","prefecture":"広島県","prefecture_kana":"ヒロシマケン","city":"尾道市","city_kana":"オノミチシ","town":"新浜","town_kana":"シンハマ","prefecture_code":34},"2403":{"zip_code":"7222403","prefecture":"広島県","prefecture_kana":"ヒロシマケン","city":"尾道市","city_kana":"オノミチシ","town":"瀬戸田町荻","town_kana":"セトダチョウオギ","prefecture_code":34},"2412":{"zip_code":"7222412","prefecture":"広島県","prefecture_kana":"ヒロシマケン","city":"尾道市","city_kana":"オノミチシ","town":"瀬戸田町高根","town_kana":"セトダチョウコウネ","prefecture_code":34},"2413":{"zip_code":"7222413","prefecture":"広島県","prefecture_kana":"ヒロシマケン","city":"尾道市","city_kana":"オノミチシ","town":"瀬戸田町沢","town_kana":"セトダチョウサワ","prefecture_code":34},"2414":{"zip_code":"7222414","prefecture":"広島県","prefecture_kana":"ヒロシマケン","city":"尾道市","city_kana":"オノミチシ","town":"瀬戸田町鹿田原","town_kana":"セトダチョウシカタハラ","prefecture_code":34},"2411":{"zip_code":"7222411","prefecture":"広島県","prefecture_kana":"ヒロシマケン","city":"尾道市","city_kana":"オノミチシ","town":"瀬戸田町瀬戸田","town_kana":"セトダチョウセトダ","prefecture_code":34},"2404":{"zip_code":"7222404","prefecture":"広島県","prefecture_kana":"ヒロシマケン","city":"尾道市","city_kana":"オノミチシ","town":"瀬戸田町垂水","town_kana":"セトダチョウタルミ","prefecture_code":34},"2415":{"zip_code":"7222415","prefecture":"広島県","prefecture_kana":"ヒロシマケン","city":"尾道市","city_kana":"オノミチシ","town":"瀬戸田町中野","town_kana":"セトダチョウナカノ","prefecture_code":34},"2416":{"zip_code":"7222416","prefecture":"広島県","prefecture_kana":"ヒロシマケン","city":"尾道市","city_kana":"オノミチシ","town":"瀬戸田町林","town_kana":"セトダチョウハヤシ","prefecture_code":34},"2405":{"zip_code":"7222405","prefecture":"広島県","prefecture_kana":"ヒロシマケン","city":"尾道市","city_kana":"オノミチシ","town":"瀬戸田町福田","town_kana":"セトダチョウフクダ","prefecture_code":34},"2401":{"zip_code":"7222401","prefecture":"広島県","prefecture_kana":"ヒロシマケン","city":"尾道市","city_kana":"オノミチシ","town":"瀬戸田町御寺","town_kana":"セトダチョウミテラ","prefecture_code":34},"2402":{"zip_code":"7222402","prefecture":"広島県","prefecture_kana":"ヒロシマケン","city":"尾道市","city_kana":"オノミチシ","town":"瀬戸田町宮原","town_kana":"セトダチョウミヤバラ","prefecture_code":34},"2417":{"zip_code":"7222417","prefecture":"広島県","prefecture_kana":"ヒロシマケン","city":"尾道市","city_kana":"オノミチシ","town":"瀬戸田町名荷","town_kana":"セトダチョウミョウガ","prefecture_code":34},"0221":{"zip_code":"7220221","prefecture":"広島県","prefecture_kana":"ヒロシマケン","city":"尾道市","city_kana":"オノミチシ","town":"長者原","town_kana":"チョウジャバラ","prefecture_code":34},"0035":{"zip_code":"7220035","prefecture":"広島県","prefecture_kana":"ヒロシマケン","city":"尾道市","city_kana":"オノミチシ","town":"土堂","town_kana":"ツチドウ","prefecture_code":34},"0001":{"zip_code":"7220001","prefecture":"広島県","prefecture_kana":"ヒロシマケン","city":"尾道市","city_kana":"オノミチシ","town":"手崎町","town_kana":"テサキチョウ","prefecture_code":34},"0038":{"zip_code":"7220038","prefecture":"広島県","prefecture_kana":"ヒロシマケン","city":"尾道市","city_kana":"オノミチシ","town":"天満町","town_kana":"テンマチョウ","prefecture_code":34},"0047":{"zip_code":"7220047","prefecture":"広島県","prefecture_kana":"ヒロシマケン","city":"尾道市","city_kana":"オノミチシ","town":"十四日町","town_kana":"トヨヒチョウ","prefecture_code":34},"0034":{"zip_code":"7220034","prefecture":"広島県","prefecture_kana":"ヒロシマケン","city":"尾道市","city_kana":"オノミチシ","town":"十四日元町","town_kana":"トヨヒモトマチ","prefecture_code":34},"0046":{"zip_code":"7220046","prefecture":"広島県","prefecture_kana":"ヒロシマケン","city":"尾道市","city_kana":"オノミチシ","town":"長江","town_kana":"ナガエ","prefecture_code":34},"0044":{"zip_code":"7220044","prefecture":"広島県","prefecture_kana":"ヒロシマケン","city":"尾道市","city_kana":"オノミチシ","town":"西久保町","town_kana":"ニシクボチョウ","prefecture_code":34},"0037":{"zip_code":"7220037","prefecture":"広島県","prefecture_kana":"ヒロシマケン","city":"尾道市","city_kana":"オノミチシ","town":"西御所町","town_kana":"ニシゴショチョウ","prefecture_code":34},"0032":{"zip_code":"7220032","prefecture":"広島県","prefecture_kana":"ヒロシマケン","city":"尾道市","city_kana":"オノミチシ","town":"西土堂町","town_kana":"ニシツチドウチョウ","prefecture_code":34},"0024":{"zip_code":"7220024","prefecture":"広島県","prefecture_kana":"ヒロシマケン","city":"尾道市","city_kana":"オノミチシ","town":"西則末町","town_kana":"ニシノリスエチョウ","prefecture_code":34},"0201":{"zip_code":"7220201","prefecture":"広島県","prefecture_kana":"ヒロシマケン","city":"尾道市","city_kana":"オノミチシ","town":"原田町小原","town_kana":"ハラダチョウオバラ","prefecture_code":34},"0202":{"zip_code":"7220202","prefecture":"広島県","prefecture_kana":"ヒロシマケン","city":"尾道市","city_kana":"オノミチシ","town":"原田町梶山田","town_kana":"ハラダチョウカジヤマダ","prefecture_code":34},"0051":{"zip_code":"7220051","prefecture":"広島県","prefecture_kana":"ヒロシマケン","city":"尾道市","city_kana":"オノミチシ","town":"東尾道","town_kana":"ヒガシオノミチ","prefecture_code":34},"0043":{"zip_code":"7220043","prefecture":"広島県","prefecture_kana":"ヒロシマケン","city":"尾道市","city_kana":"オノミチシ","town":"東久保町","town_kana":"ヒガシクボチョウ","prefecture_code":34},"0036":{"zip_code":"7220036","prefecture":"広島県","prefecture_kana":"ヒロシマケン","city":"尾道市","city_kana":"オノミチシ","town":"東御所町","town_kana":"ヒガシゴショチョウ","prefecture_code":34},"0033":{"zip_code":"7220033","prefecture":"広島県","prefecture_kana":"ヒロシマケン","city":"尾道市","city_kana":"オノミチシ","town":"東土堂町","town_kana":"ヒガシツチドウチョウ","prefecture_code":34},"0023":{"zip_code":"7220023","prefecture":"広島県","prefecture_kana":"ヒロシマケン","city":"尾道市","city_kana":"オノミチシ","town":"東則末町","town_kana":"ヒガシノリスエチョウ","prefecture_code":34},"0003":{"zip_code":"7220003","prefecture":"広島県","prefecture_kana":"ヒロシマケン","city":"尾道市","city_kana":"オノミチシ","town":"東元町","town_kana":"ヒガシモトマチ","prefecture_code":34},"0021":{"zip_code":"7220021","prefecture":"広島県","prefecture_kana":"ヒロシマケン","city":"尾道市","city_kana":"オノミチシ","town":"久山田町","town_kana":"ヒサヤマダチョウ","prefecture_code":34},"0013":{"zip_code":"7220013","prefecture":"広島県","prefecture_kana":"ヒロシマケン","city":"尾道市","city_kana":"オノミチシ","town":"日比崎町","town_kana":"ヒビザキチョウ","prefecture_code":34},"0018":{"zip_code":"7220018","prefecture":"広島県","prefecture_kana":"ヒロシマケン","city":"尾道市","city_kana":"オノミチシ","town":"平原","town_kana":"ヒラハラ","prefecture_code":34},"0005":{"zip_code":"7220005","prefecture":"広島県","prefecture_kana":"ヒロシマケン","city":"尾道市","city_kana":"オノミチシ","town":"福地町","town_kana":"フクチチョウ","prefecture_code":34},"0041":{"zip_code":"7220041","prefecture":"広島県","prefecture_kana":"ヒロシマケン","city":"尾道市","city_kana":"オノミチシ","town":"防地町","town_kana":"ボウジチョウ","prefecture_code":34},"0354":{"zip_code":"7220354","prefecture":"広島県","prefecture_kana":"ヒロシマケン","city":"尾道市","city_kana":"オノミチシ","town":"御調町綾目","town_kana":"ミツギチョウアヤメ","prefecture_code":34},"0311":{"zip_code":"7220311","prefecture":"広島県","prefecture_kana":"ヒロシマケン","city":"尾道市","city_kana":"オノミチシ","town":"御調町市","town_kana":"ミツギチョウイチ","prefecture_code":34},"1564":{"zip_code":"7221564","prefecture":"広島県","prefecture_kana":"ヒロシマケン","city":"尾道市","city_kana":"オノミチシ","town":"御調町今田","town_kana":"ミツギチョウイマダ","prefecture_code":34},"0326":{"zip_code":"7220326","prefecture":"広島県","prefecture_kana":"ヒロシマケン","city":"尾道市","city_kana":"オノミチシ","town":"御調町岩根","town_kana":"ミツギチョウイワネ","prefecture_code":34},"1563":{"zip_code":"7221563","prefecture":"広島県","prefecture_kana":"ヒロシマケン","city":"尾道市","city_kana":"オノミチシ","town":"御調町植野","town_kana":"ミツギチョウウエノ","prefecture_code":34},"0336":{"zip_code":"7220336","prefecture":"広島県","prefecture_kana":"ヒロシマケン","city":"尾道市","city_kana":"オノミチシ","town":"御調町江田","town_kana":"ミツギチョウエタ","prefecture_code":34},"0342":{"zip_code":"7220342","prefecture":"広島県","prefecture_kana":"ヒロシマケン","city":"尾道市","city_kana":"オノミチシ","town":"御調町大田","town_kana":"ミツギチョウオオダ","prefecture_code":34},"0351":{"zip_code":"7220351","prefecture":"広島県","prefecture_kana":"ヒロシマケン","city":"尾道市","city_kana":"オノミチシ","town":"御調町大原","town_kana":"ミツギチョウオオバラ","prefecture_code":34},"0314":{"zip_code":"7220314","prefecture":"広島県","prefecture_kana":"ヒロシマケン","city":"尾道市","city_kana":"オノミチシ","town":"御調町大町","town_kana":"ミツギチョウオオマチ","prefecture_code":34},"0403":{"zip_code":"7220403","prefecture":"広島県","prefecture_kana":"ヒロシマケン","city":"尾道市","city_kana":"オノミチシ","town":"御調町大山田","town_kana":"ミツギチョウオオヤマダ","prefecture_code":34},"0312":{"zip_code":"7220312","prefecture":"広島県","prefecture_kana":"ヒロシマケン","city":"尾道市","city_kana":"オノミチシ","town":"御調町貝ケ原","town_kana":"ミツギチョウカイガハラ","prefecture_code":34},"0315":{"zip_code":"7220315","prefecture":"広島県","prefecture_kana":"ヒロシマケン","city":"尾道市","city_kana":"オノミチシ","town":"御調町釜窪","town_kana":"ミツギチョウカマクボ","prefecture_code":34},"0341":{"zip_code":"7220341","prefecture":"広島県","prefecture_kana":"ヒロシマケン","city":"尾道市","city_kana":"オノミチシ","town":"御調町神","town_kana":"ミツギチョウカミ","prefecture_code":34},"0335":{"zip_code":"7220335","prefecture":"広島県","prefecture_kana":"ヒロシマケン","city":"尾道市","city_kana":"オノミチシ","town":"御調町国守","town_kana":"ミツギチョウクニモリ","prefecture_code":34},"0352":{"zip_code":"7220352","prefecture":"広島県","prefecture_kana":"ヒロシマケン","city":"尾道市","city_kana":"オノミチシ","town":"御調町公文","town_kana":"ミツギチョウクモン","prefecture_code":34},"0322":{"zip_code":"7220322","prefecture":"広島県","prefecture_kana":"ヒロシマケン","city":"尾道市","city_kana":"オノミチシ","town":"御調町三郎丸","town_kana":"ミツギチョウサブロウマル","prefecture_code":34},"0402":{"zip_code":"7220402","prefecture":"広島県","prefecture_kana":"ヒロシマケン","city":"尾道市","city_kana":"オノミチシ","town":"御調町下山田","town_kana":"ミツギチョウシモヤマダ","prefecture_code":34},"0334":{"zip_code":"7220334","prefecture":"広島県","prefecture_kana":"ヒロシマケン","city":"尾道市","city_kana":"オノミチシ","town":"御調町菅","town_kana":"ミツギチョウスゲ","prefecture_code":34},"0401":{"zip_code":"7220401","prefecture":"広島県","prefecture_kana":"ヒロシマケン","city":"尾道市","city_kana":"オノミチシ","town":"御調町千堂","town_kana":"ミツギチョウセンドウ","prefecture_code":34},"0323":{"zip_code":"7220323","prefecture":"広島県","prefecture_kana":"ヒロシマケン","city":"尾道市","city_kana":"オノミチシ","town":"御調町大蔵","town_kana":"ミツギチョウダイゾウ","prefecture_code":34},"0333":{"zip_code":"7220333","prefecture":"広島県","prefecture_kana":"ヒロシマケン","city":"尾道市","city_kana":"オノミチシ","town":"御調町大塔","town_kana":"ミツギチョウダイトウ","prefecture_code":34},"0353":{"zip_code":"7220353","prefecture":"広島県","prefecture_kana":"ヒロシマケン","city":"尾道市","city_kana":"オノミチシ","town":"御調町高尾","town_kana":"ミツギチョウタカオ","prefecture_code":34},"1562":{"zip_code":"7221562","prefecture":"広島県","prefecture_kana":"ヒロシマケン","city":"尾道市","city_kana":"オノミチシ","town":"御調町津蟹","town_kana":"ミツギチョウツガニ","prefecture_code":34},"0345":{"zip_code":"7220345","prefecture":"広島県","prefecture_kana":"ヒロシマケン","city":"尾道市","city_kana":"オノミチシ","town":"御調町徳永","town_kana":"ミツギチョウトクナガ","prefecture_code":34},"0325":{"zip_code":"7220325","prefecture":"広島県","prefecture_kana":"ヒロシマケン","city":"尾道市","city_kana":"オノミチシ","town":"御調町中原","town_kana":"ミツギチョウナカバラ","prefecture_code":34},"0331":{"zip_code":"7220331","prefecture":"広島県","prefecture_kana":"ヒロシマケン","city":"尾道市","city_kana":"オノミチシ","town":"御調町仁野","town_kana":"ミツギチョウニノ","prefecture_code":34},"1565":{"zip_code":"7221565","prefecture":"広島県","prefecture_kana":"ヒロシマケン","city":"尾道市","city_kana":"オノミチシ","town":"御調町野間","town_kana":"ミツギチョウノマ","prefecture_code":34},"0324":{"zip_code":"7220324","prefecture":"広島県","prefecture_kana":"ヒロシマケン","city":"尾道市","city_kana":"オノミチシ","town":"御調町白太","town_kana":"ミツギチョウハカタ","prefecture_code":34},"0316":{"zip_code":"7220316","prefecture":"広島県","prefecture_kana":"ヒロシマケン","city":"尾道市","city_kana":"オノミチシ","town":"御調町花尻","town_kana":"ミツギチョウハナジリ","prefecture_code":34},"0313":{"zip_code":"7220313","prefecture":"広島県","prefecture_kana":"ヒロシマケン","city":"尾道市","city_kana":"オノミチシ","town":"御調町平","town_kana":"ミツギチョウヒラ","prefecture_code":34},"0332":{"zip_code":"7220332","prefecture":"広島県","prefecture_kana":"ヒロシマケン","city":"尾道市","city_kana":"オノミチシ","town":"御調町平木","town_kana":"ミツギチョウヒラギ","prefecture_code":34},"1561":{"zip_code":"7221561","prefecture":"広島県","prefecture_kana":"ヒロシマケン","city":"尾道市","city_kana":"オノミチシ","town":"御調町福井","town_kana":"ミツギチョウフクイ","prefecture_code":34},"0321":{"zip_code":"7220321","prefecture":"広島県","prefecture_kana":"ヒロシマケン","city":"尾道市","city_kana":"オノミチシ","town":"御調町本","town_kana":"ミツギチョウホン","prefecture_code":34},"0343":{"zip_code":"7220343","prefecture":"広島県","prefecture_kana":"ヒロシマケン","city":"尾道市","city_kana":"オノミチシ","town":"御調町丸河南","town_kana":"ミツギチョウマルカナン","prefecture_code":34},"0344":{"zip_code":"7220344","prefecture":"広島県","prefecture_kana":"ヒロシマケン","city":"尾道市","city_kana":"オノミチシ","town":"御調町丸門田","town_kana":"ミツギチョウマルモンデン","prefecture_code":34},"0355":{"zip_code":"7220355","prefecture":"広島県","prefecture_kana":"ヒロシマケン","city":"尾道市","city_kana":"オノミチシ","town":"御調町山岡","town_kana":"ミツギチョウヤマオカ","prefecture_code":34},"0214":{"zip_code":"7220214","prefecture":"広島県","prefecture_kana":"ヒロシマケン","city":"尾道市","city_kana":"オノミチシ","town":"美ノ郷町猪子迫","town_kana":"ミノゴウチョウイノコザコ","prefecture_code":34},"0213":{"zip_code":"7220213","prefecture":"広島県","prefecture_kana":"ヒロシマケン","city":"尾道市","city_kana":"オノミチシ","town":"美ノ郷町白江","town_kana":"ミノゴウチョウシロエ","prefecture_code":34},"0211":{"zip_code":"7220211","prefecture":"広島県","prefecture_kana":"ヒロシマケン","city":"尾道市","city_kana":"オノミチシ","town":"美ノ郷町中野","town_kana":"ミノゴウチョウナカノ","prefecture_code":34},"0212":{"zip_code":"7220212","prefecture":"広島県","prefecture_kana":"ヒロシマケン","city":"尾道市","city_kana":"オノミチシ","town":"美ノ郷町本郷","town_kana":"ミノゴウチョウホンゴウ","prefecture_code":34},"0215":{"zip_code":"7220215","prefecture":"広島県","prefecture_kana":"ヒロシマケン","city":"尾道市","city_kana":"オノミチシ","town":"美ノ郷町三成","town_kana":"ミノゴウチョウミナリ","prefecture_code":34},"0073":{"zip_code":"7220073","prefecture":"広島県","prefecture_kana":"ヒロシマケン","city":"尾道市","city_kana":"オノミチシ","town":"向島町","town_kana":"ムカイシマチョウ","prefecture_code":34},"0072":{"zip_code":"7220072","prefecture":"広島県","prefecture_kana":"ヒロシマケン","city":"尾道市","city_kana":"オノミチシ","town":"向島町岩子島","town_kana":"ムカイシマチョウイワシジマ","prefecture_code":34},"0071":{"zip_code":"7220071","prefecture":"広島県","prefecture_kana":"ヒロシマケン","city":"尾道市","city_kana":"オノミチシ","town":"向島町立花","town_kana":"ムカイシマチョウタチバナ","prefecture_code":34},"0062":{"zip_code":"7220062","prefecture":"広島県","prefecture_kana":"ヒロシマケン","city":"尾道市","city_kana":"オノミチシ","town":"向東町","town_kana":"ムカイヒガシチョウ","prefecture_code":34},"0061":{"zip_code":"7220061","prefecture":"広島県","prefecture_kana":"ヒロシマケン","city":"尾道市","city_kana":"オノミチシ","town":"百島町","town_kana":"モモシマチョウ","prefecture_code":34},"0017":{"zip_code":"7220017","prefecture":"広島県","prefecture_kana":"ヒロシマケン","city":"尾道市","city_kana":"オノミチシ","town":"門田町","town_kana":"モンデンチョウ","prefecture_code":34},"0015":{"zip_code":"7220015","prefecture":"広島県","prefecture_kana":"ヒロシマケン","city":"尾道市","city_kana":"オノミチシ","town":"吉浦町","town_kana":"ヨシウラチョウ","prefecture_code":34},"0008":{"zip_code":"7220008","prefecture":"広島県","prefecture_kana":"ヒロシマケン","city":"尾道市","city_kana":"オノミチシ","town":"吉和町","town_kana":"ヨシワチョウ","prefecture_code":34},"0007":{"zip_code":"7220007","prefecture":"広島県","prefecture_kana":"ヒロシマケン","city":"尾道市","city_kana":"オノミチシ","town":"吉和西元町","town_kana":"ヨシワニシモトマチ","prefecture_code":34},"2641":{"zip_code":"7222641","prefecture":"広島県","prefecture_kana":"ヒロシマケン","city":"福山市","city_kana":"フクヤマシ","town":"内海町","town_kana":"ウツミチョウ","prefecture_code":34},"2631":{"zip_code":"7222631","prefecture":"広島県","prefecture_kana":"ヒロシマケン","city":"福山市","city_kana":"フクヤマシ","town":"内海町イ","town_kana":"ウツミチョウイ","prefecture_code":34},"2632":{"zip_code":"7222632","prefecture":"広島県","prefecture_kana":"ヒロシマケン","city":"福山市","city_kana":"フクヤマシ","town":"内海町ロ","town_kana":"ウツミチョウロ","prefecture_code":34},"2633":{"zip_code":"7222633","prefecture":"広島県","prefecture_kana":"ヒロシマケン","city":"福山市","city_kana":"フクヤマシ","town":"内海町ハ","town_kana":"ウツミチョウハ","prefecture_code":34},"0432":{"zip_code":"7220432","prefecture":"広島県","prefecture_kana":"ヒロシマケン","city":"府中市","city_kana":"フチュウシ","town":"小国町","town_kana":"オグニチョウ","prefecture_code":34},"0431":{"zip_code":"7220431","prefecture":"広島県","prefecture_kana":"ヒロシマケン","city":"府中市","city_kana":"フチュウシ","town":"諸毛町","town_kana":"モロケチョウ","prefecture_code":34},"1100":{"zip_code":"7221100","prefecture":"広島県","prefecture_kana":"ヒロシマケン","city":"世羅郡世羅町","city_kana":"セラグンセラチョウ","town":"","town_kana":"","prefecture_code":34},"1627":{"zip_code":"7221627","prefecture":"広島県","prefecture_kana":"ヒロシマケン","city":"世羅郡世羅町","city_kana":"セラグンセラチョウ","town":"青水","town_kana":"アオミズ","prefecture_code":34},"1116":{"zip_code":"7221116","prefecture":"広島県","prefecture_kana":"ヒロシマケン","city":"世羅郡世羅町","city_kana":"セラグンセラチョウ","town":"青山","town_kana":"アオヤマ","prefecture_code":34},"1113":{"zip_code":"7221113","prefecture":"広島県","prefecture_kana":"ヒロシマケン","city":"世羅郡世羅町","city_kana":"セラグンセラチョウ","town":"井折","town_kana":"イオリ","prefecture_code":34},"0411":{"zip_code":"7220411","prefecture":"広島県","prefecture_kana":"ヒロシマケン","city":"世羅郡世羅町","city_kana":"セラグンセラチョウ","town":"宇津戸","town_kana":"ウヅト","prefecture_code":34},"1701":{"zip_code":"7221701","prefecture":"広島県","prefecture_kana":"ヒロシマケン","city":"世羅郡世羅町","city_kana":"セラグンセラチョウ","town":"小国","town_kana":"オグニ","prefecture_code":34},"1122":{"zip_code":"7221122","prefecture":"広島県","prefecture_kana":"ヒロシマケン","city":"世羅郡世羅町","city_kana":"セラグンセラチョウ","town":"小世良","town_kana":"オゼラ","prefecture_code":34},"1626":{"zip_code":"7221626","prefecture":"広島県","prefecture_kana":"ヒロシマケン","city":"世羅郡世羅町","city_kana":"セラグンセラチョウ","town":"賀茂","town_kana":"カモ","prefecture_code":34},"1204":[{"zip_code":"7221204","prefecture":"広島県","prefecture_kana":"ヒロシマケン","city":"世羅郡世羅町","city_kana":"セラグンセラチョウ","town":"京丸石川","town_kana":"キョウマルイシカワ","prefecture_code":34},{"zip_code":"7221204","prefecture":"広島県","prefecture_kana":"ヒロシマケン","city":"世羅郡世羅町","city_kana":"セラグンセラチョウ","town":"京丸水の別","town_kana":"キョウマルミズノワカレ","prefecture_code":34}],"1621":{"zip_code":"7221621","prefecture":"広島県","prefecture_kana":"ヒロシマケン","city":"世羅郡世羅町","city_kana":"セラグンセラチョウ","town":"京丸","town_kana":"キョウマル","prefecture_code":34},"1732":{"zip_code":"7221732","prefecture":"広島県","prefecture_kana":"ヒロシマケン","city":"世羅郡世羅町","city_kana":"セラグンセラチョウ","town":"黒渕","town_kana":"クロブチ","prefecture_code":34},"1123":{"zip_code":"7221123","prefecture":"広島県","prefecture_kana":"ヒロシマケン","city":"世羅郡世羅町","city_kana":"セラグンセラチョウ","town":"甲山","town_kana":"コウザン","prefecture_code":34},"1117":{"zip_code":"7221117","prefecture":"広島県","prefecture_kana":"ヒロシマケン","city":"世羅郡世羅町","city_kana":"セラグンセラチョウ","town":"三郎丸","town_kana":"サブロウマル","prefecture_code":34},"1625":{"zip_code":"7221625","prefecture":"広島県","prefecture_kana":"ヒロシマケン","city":"世羅郡世羅町","city_kana":"セラグンセラチョウ","town":"重永","town_kana":"シゲナガ","prefecture_code":34},"1731":{"zip_code":"7221731","prefecture":"広島県","prefecture_kana":"ヒロシマケン","city":"世羅郡世羅町","city_kana":"セラグンセラチョウ","town":"津口","town_kana":"ツクチ","prefecture_code":34},"1111":{"zip_code":"7221111","prefecture":"広島県","prefecture_kana":"ヒロシマケン","city":"世羅郡世羅町","city_kana":"セラグンセラチョウ","town":"寺町","town_kana":"テラマチ","prefecture_code":34},"1624":{"zip_code":"7221624","prefecture":"広島県","prefecture_kana":"ヒロシマケン","city":"世羅郡世羅町","city_kana":"セラグンセラチョウ","town":"田打","town_kana":"トウチ","prefecture_code":34},"1203":{"zip_code":"7221203","prefecture":"広島県","prefecture_kana":"ヒロシマケン","city":"世羅郡世羅町","city_kana":"セラグンセラチョウ","town":"徳市","town_kana":"トクイチ","prefecture_code":34},"1201":{"zip_code":"7221201","prefecture":"広島県","prefecture_kana":"ヒロシマケン","city":"世羅郡世羅町","city_kana":"セラグンセラチョウ","town":"戸張","town_kana":"トバリ","prefecture_code":34},"1623":{"zip_code":"7221623","prefecture":"広島県","prefecture_kana":"ヒロシマケン","city":"世羅郡世羅町","city_kana":"セラグンセラチョウ","town":"中原","town_kana":"ナカバラ","prefecture_code":34},"1121":{"zip_code":"7221121","prefecture":"広島県","prefecture_kana":"ヒロシマケン","city":"世羅郡世羅町","city_kana":"セラグンセラチョウ","town":"西上原","town_kana":"ニシウエハラ","prefecture_code":34},"1115":{"zip_code":"7221115","prefecture":"広島県","prefecture_kana":"ヒロシマケン","city":"世羅郡世羅町","city_kana":"セラグンセラチョウ","town":"西神崎","town_kana":"ニシカンザキ","prefecture_code":34},"1114":{"zip_code":"7221114","prefecture":"広島県","prefecture_kana":"ヒロシマケン","city":"世羅郡世羅町","city_kana":"セラグンセラチョウ","town":"東神崎","town_kana":"ヒガシカンザキ","prefecture_code":34},"1622":{"zip_code":"7221622","prefecture":"広島県","prefecture_kana":"ヒロシマケン","city":"世羅郡世羅町","city_kana":"セラグンセラチョウ","town":"堀越","town_kana":"ホリコシ","prefecture_code":34},"1112":{"zip_code":"7221112","prefecture":"広島県","prefecture_kana":"ヒロシマケン","city":"世羅郡世羅町","city_kana":"セラグンセラチョウ","town":"本郷","town_kana":"ホンゴウ","prefecture_code":34},"1202":{"zip_code":"7221202","prefecture":"広島県","prefecture_kana":"ヒロシマケン","city":"世羅郡世羅町","city_kana":"セラグンセラチョウ","town":"安田","town_kana":"ヤスダ","prefecture_code":34},"1702":{"zip_code":"7221702","prefecture":"広島県","prefecture_kana":"ヒロシマケン","city":"世羅郡世羅町","city_kana":"セラグンセラチョウ","town":"山中福田","town_kana":"ヤマナカフクダ","prefecture_code":34}}