{"0000":{"zip_code":"7230000","prefecture":"広島県","prefecture_kana":"ヒロシマケン","city":"三原市","city_kana":"ミハラシ","town":"","town_kana":"","prefecture_code":34},"0047":{"zip_code":"7230047","prefecture":"広島県","prefecture_kana":"ヒロシマケン","city":"三原市","city_kana":"ミハラシ","town":"青葉台","town_kana":"アオバダイ","prefecture_code":34},"0012":{"zip_code":"7230012","prefecture":"広島県","prefecture_kana":"ヒロシマケン","city":"三原市","city_kana":"ミハラシ","town":"旭町","town_kana":"アサヒマチ","prefecture_code":34},"0015":{"zip_code":"7230015","prefecture":"広島県","prefecture_kana":"ヒロシマケン","city":"三原市","city_kana":"ミハラシ","town":"円一町","town_kana":"エンイチチョウ","prefecture_code":34},"0066":{"zip_code":"7230066","prefecture":"広島県","prefecture_kana":"ヒロシマケン","city":"三原市","city_kana":"ミハラシ","town":"大畑町","town_kana":"オオハタチョウ","prefecture_code":34},"0033":{"zip_code":"7230033","prefecture":"広島県","prefecture_kana":"ヒロシマケン","city":"三原市","city_kana":"ミハラシ","town":"沖浦町","town_kana":"オキウラチョウ","prefecture_code":34},"0131":{"zip_code":"7230131","prefecture":"広島県","prefecture_kana":"ヒロシマケン","city":"三原市","city_kana":"ミハラシ","town":"小坂町","town_kana":"オサカチョウ","prefecture_code":34},"0043":{"zip_code":"7230043","prefecture":"広島県","prefecture_kana":"ヒロシマケン","city":"三原市","city_kana":"ミハラシ","town":"貝野町","town_kana":"カイノチョウ","prefecture_code":34},"0053":{"zip_code":"7230053","prefecture":"広島県","prefecture_kana":"ヒロシマケン","city":"三原市","city_kana":"ミハラシ","town":"学園町","town_kana":"ガクエンチョウ","prefecture_code":34},"0013":{"zip_code":"7230013","prefecture":"広島県","prefecture_kana":"ヒロシマケン","city":"三原市","city_kana":"ミハラシ","town":"古浜","town_kana":"コハマ","prefecture_code":34},"0006":{"zip_code":"7230006","prefecture":"広島県","prefecture_kana":"ヒロシマケン","city":"三原市","city_kana":"ミハラシ","town":"駒ケ原町","town_kana":"コマガハラチョウ","prefecture_code":34},"0021":{"zip_code":"7230021","prefecture":"広島県","prefecture_kana":"ヒロシマケン","city":"三原市","city_kana":"ミハラシ","town":"鷺浦町須波","town_kana":"サギウラチョウスナミ","prefecture_code":34},"0022":{"zip_code":"7230022","prefecture":"広島県","prefecture_kana":"ヒロシマケン","city":"三原市","city_kana":"ミハラシ","town":"鷺浦町向田野浦","town_kana":"サギウラチョウムコウタノウラ","prefecture_code":34},"0005":{"zip_code":"7230005","prefecture":"広島県","prefecture_kana":"ヒロシマケン","city":"三原市","city_kana":"ミハラシ","town":"桜山町","town_kana":"サクラヤマチョウ","prefecture_code":34},"0014":{"zip_code":"7230014","prefecture":"広島県","prefecture_kana":"ヒロシマケン","city":"三原市","city_kana":"ミハラシ","town":"城町","town_kana":"シロマチ","prefecture_code":34},"0134":{"zip_code":"7230134","prefecture":"広島県","prefecture_kana":"ヒロシマケン","city":"三原市","city_kana":"ミハラシ","town":"新倉町","town_kana":"シンクラチョウ","prefecture_code":34},"0031":{"zip_code":"7230031","prefecture":"広島県","prefecture_kana":"ヒロシマケン","city":"三原市","city_kana":"ミハラシ","town":"須波町","town_kana":"スナミチョウ","prefecture_code":34},"0032":{"zip_code":"7230032","prefecture":"広島県","prefecture_kana":"ヒロシマケン","city":"三原市","city_kana":"ミハラシ","town":"須波西町","town_kana":"スナミニシマチ","prefecture_code":34},"0035":{"zip_code":"7230035","prefecture":"広島県","prefecture_kana":"ヒロシマケン","city":"三原市","city_kana":"ミハラシ","town":"須波ハイツ","town_kana":"スナミハイツ","prefecture_code":34},"0044":{"zip_code":"7230044","prefecture":"広島県","prefecture_kana":"ヒロシマケン","city":"三原市","city_kana":"ミハラシ","town":"宗郷","town_kana":"ソウゴウ","prefecture_code":34},"0045":{"zip_code":"7230045","prefecture":"広島県","prefecture_kana":"ヒロシマケン","city":"三原市","city_kana":"ミハラシ","town":"田野浦","town_kana":"タノウラ","prefecture_code":34},"0003":{"zip_code":"7230003","prefecture":"広島県","prefecture_kana":"ヒロシマケン","city":"三原市","city_kana":"ミハラシ","town":"中之町","town_kana":"ナカノチョウ","prefecture_code":34},"0002":{"zip_code":"7230002","prefecture":"広島県","prefecture_kana":"ヒロシマケン","city":"三原市","city_kana":"ミハラシ","town":"中之町南","town_kana":"ナカノチョウミナミ","prefecture_code":34},"0007":{"zip_code":"7230007","prefecture":"広島県","prefecture_kana":"ヒロシマケン","city":"三原市","city_kana":"ミハラシ","town":"中之町北","town_kana":"ナカノチョウキタ","prefecture_code":34},"0132":{"zip_code":"7230132","prefecture":"広島県","prefecture_kana":"ヒロシマケン","city":"三原市","city_kana":"ミハラシ","town":"長谷町","town_kana":"ナガタニチョウ","prefecture_code":34},"0065":{"zip_code":"7230065","prefecture":"広島県","prefecture_kana":"ヒロシマケン","city":"三原市","city_kana":"ミハラシ","town":"西野","town_kana":"ニシノ","prefecture_code":34},"0063":{"zip_code":"7230063","prefecture":"広島県","prefecture_kana":"ヒロシマケン","city":"三原市","city_kana":"ミハラシ","town":"西町","town_kana":"ニシマチ","prefecture_code":34},"0064":{"zip_code":"7230064","prefecture":"広島県","prefecture_kana":"ヒロシマケン","city":"三原市","city_kana":"ミハラシ","town":"西宮","town_kana":"ニシミヤ","prefecture_code":34},"0133":{"zip_code":"7230133","prefecture":"広島県","prefecture_kana":"ヒロシマケン","city":"三原市","city_kana":"ミハラシ","town":"沼田町","town_kana":"ヌタチョウ","prefecture_code":34},"0145":{"zip_code":"7230145","prefecture":"広島県","prefecture_kana":"ヒロシマケン","city":"三原市","city_kana":"ミハラシ","town":"沼田東町片島","town_kana":"ヌタヒガシチョウカタシマ","prefecture_code":34},"0143":{"zip_code":"7230143","prefecture":"広島県","prefecture_kana":"ヒロシマケン","city":"三原市","city_kana":"ミハラシ","town":"沼田東町釜山","town_kana":"ヌタヒガシチョウカマヤマ","prefecture_code":34},"0148":{"zip_code":"7230148","prefecture":"広島県","prefecture_kana":"ヒロシマケン","city":"三原市","city_kana":"ミハラシ","town":"沼田東町七宝","town_kana":"ヌタヒガシチョウシッポウ","prefecture_code":34},"0144":{"zip_code":"7230144","prefecture":"広島県","prefecture_kana":"ヒロシマケン","city":"三原市","city_kana":"ミハラシ","town":"沼田東町末広","town_kana":"ヌタヒガシチョウスエヒロ","prefecture_code":34},"0142":{"zip_code":"7230142","prefecture":"広島県","prefecture_kana":"ヒロシマケン","city":"三原市","city_kana":"ミハラシ","town":"沼田東町末光","town_kana":"ヌタヒガシチョウスエミツ","prefecture_code":34},"0146":{"zip_code":"7230146","prefecture":"広島県","prefecture_kana":"ヒロシマケン","city":"三原市","city_kana":"ミハラシ","town":"沼田東町納所","town_kana":"ヌタヒガシチョウノウソ","prefecture_code":34},"0147":{"zip_code":"7230147","prefecture":"広島県","prefecture_kana":"ヒロシマケン","city":"三原市","city_kana":"ミハラシ","town":"沼田東町本市","town_kana":"ヌタヒガシチョウホンイチ","prefecture_code":34},"0141":{"zip_code":"7230141","prefecture":"広島県","prefecture_kana":"ヒロシマケン","city":"三原市","city_kana":"ミハラシ","town":"沼田東町両名","town_kana":"ヌタヒガシチョウリョウミョウ","prefecture_code":34},"0034":{"zip_code":"7230034","prefecture":"広島県","prefecture_kana":"ヒロシマケン","city":"三原市","city_kana":"ミハラシ","town":"登町","town_kana":"ノボリチョウ","prefecture_code":34},"0011":{"zip_code":"7230011","prefecture":"広島県","prefecture_kana":"ヒロシマケン","city":"三原市","city_kana":"ミハラシ","town":"東町","town_kana":"ヒガシマチ","prefecture_code":34},"0001":{"zip_code":"7230001","prefecture":"広島県","prefecture_kana":"ヒロシマケン","city":"三原市","city_kana":"ミハラシ","town":"深町","town_kana":"フカマチ","prefecture_code":34},"0062":{"zip_code":"7230062","prefecture":"広島県","prefecture_kana":"ヒロシマケン","city":"三原市","city_kana":"ミハラシ","town":"本町","town_kana":"ホンマチ","prefecture_code":34},"0017":{"zip_code":"7230017","prefecture":"広島県","prefecture_kana":"ヒロシマケン","city":"三原市","city_kana":"ミハラシ","town":"港町","town_kana":"ミナトマチ","prefecture_code":34},"0052":{"zip_code":"7230052","prefecture":"広島県","prefecture_kana":"ヒロシマケン","city":"三原市","city_kana":"ミハラシ","town":"皆実","town_kana":"ミナミ","prefecture_code":34},"0051":{"zip_code":"7230051","prefecture":"広島県","prefecture_kana":"ヒロシマケン","city":"三原市","city_kana":"ミハラシ","town":"宮浦","town_kana":"ミヤウラ","prefecture_code":34},"0016":{"zip_code":"7230016","prefecture":"広島県","prefecture_kana":"ヒロシマケン","city":"三原市","city_kana":"ミハラシ","town":"宮沖","town_kana":"ミヤオキ","prefecture_code":34},"0046":{"zip_code":"7230046","prefecture":"広島県","prefecture_kana":"ヒロシマケン","city":"三原市","city_kana":"ミハラシ","town":"明神","town_kana":"ミョウジン","prefecture_code":34},"0004":{"zip_code":"7230004","prefecture":"広島県","prefecture_kana":"ヒロシマケン","city":"三原市","city_kana":"ミハラシ","town":"館町","town_kana":"ヤカタマチ","prefecture_code":34},"0061":{"zip_code":"7230061","prefecture":"広島県","prefecture_kana":"ヒロシマケン","city":"三原市","city_kana":"ミハラシ","town":"八坂町","town_kana":"ヤサカチョウ","prefecture_code":34},"0054":{"zip_code":"7230054","prefecture":"広島県","prefecture_kana":"ヒロシマケン","city":"三原市","city_kana":"ミハラシ","town":"頼兼","town_kana":"ヨリカネ","prefecture_code":34},"0042":{"zip_code":"7230042","prefecture":"広島県","prefecture_kana":"ヒロシマケン","city":"三原市","city_kana":"ミハラシ","town":"和田沖町","town_kana":"ワダオキチョウ","prefecture_code":34},"0041":{"zip_code":"7230041","prefecture":"広島県","prefecture_kana":"ヒロシマケン","city":"三原市","city_kana":"ミハラシ","town":"和田","town_kana":"ワダ","prefecture_code":34}}