{"0000":{"zip_code":"7250000","prefecture":"広島県","prefecture_kana":"ヒロシマケン","city":"竹原市","city_kana":"タケハラシ","town":"","town_kana":"","prefecture_code":34},"0011":{"zip_code":"7250011","prefecture":"広島県","prefecture_kana":"ヒロシマケン","city":"竹原市","city_kana":"タケハラシ","town":"小梨町","town_kana":"オナシチョウ","prefecture_code":34},"0025":{"zip_code":"7250025","prefecture":"広島県","prefecture_kana":"ヒロシマケン","city":"竹原市","city_kana":"タケハラシ","town":"塩町","town_kana":"シオマチ","prefecture_code":34},"0012":{"zip_code":"7250012","prefecture":"広島県","prefecture_kana":"ヒロシマケン","city":"竹原市","city_kana":"タケハラシ","town":"下野町","town_kana":"シモノチョウ","prefecture_code":34},"0003":{"zip_code":"7250003","prefecture":"広島県","prefecture_kana":"ヒロシマケン","city":"竹原市","city_kana":"タケハラシ","town":"新庄町","town_kana":"シンジョウチョウ","prefecture_code":34},"0021":{"zip_code":"7250021","prefecture":"広島県","prefecture_kana":"ヒロシマケン","city":"竹原市","city_kana":"タケハラシ","town":"竹原町","town_kana":"タケハラチョウ","prefecture_code":34},"0023":{"zip_code":"7250023","prefecture":"広島県","prefecture_kana":"ヒロシマケン","city":"竹原市","city_kana":"タケハラシ","town":"田ノ浦","town_kana":"タノウラ","prefecture_code":34},"0001":{"zip_code":"7250001","prefecture":"広島県","prefecture_kana":"ヒロシマケン","city":"竹原市","city_kana":"タケハラシ","town":"田万里町","town_kana":"タマリチョウ","prefecture_code":34},"0026":{"zip_code":"7250026","prefecture":"広島県","prefecture_kana":"ヒロシマケン","city":"竹原市","city_kana":"タケハラシ","town":"中央","town_kana":"チュウオウ","prefecture_code":34},"0005":{"zip_code":"7250005","prefecture":"広島県","prefecture_kana":"ヒロシマケン","city":"竹原市","city_kana":"タケハラシ","town":"仁賀町","town_kana":"ニカチョウ","prefecture_code":34},"0002":{"zip_code":"7250002","prefecture":"広島県","prefecture_kana":"ヒロシマケン","city":"竹原市","city_kana":"タケハラシ","town":"西野町","town_kana":"ニシノチョウ","prefecture_code":34},"0004":{"zip_code":"7250004","prefecture":"広島県","prefecture_kana":"ヒロシマケン","city":"竹原市","city_kana":"タケハラシ","town":"東野町","town_kana":"ヒガシノチョウ","prefecture_code":34},"0022":{"zip_code":"7250022","prefecture":"広島県","prefecture_kana":"ヒロシマケン","city":"竹原市","city_kana":"タケハラシ","town":"本町","town_kana":"ホンマチ","prefecture_code":34},"0024":{"zip_code":"7250024","prefecture":"広島県","prefecture_kana":"ヒロシマケン","city":"竹原市","city_kana":"タケハラシ","town":"港町","town_kana":"ミナトマチ","prefecture_code":34},"0013":{"zip_code":"7250013","prefecture":"広島県","prefecture_kana":"ヒロシマケン","city":"竹原市","city_kana":"タケハラシ","town":"吉名町","town_kana":"ヨシナチョウ","prefecture_code":34},"0200":{"zip_code":"7250200","prefecture":"広島県","prefecture_kana":"ヒロシマケン","city":"豊田郡大崎上島町","city_kana":"トヨタグンオオサキカミジマチョウ","town":"","town_kana":"","prefecture_code":34},"0403":{"zip_code":"7250403","prefecture":"広島県","prefecture_kana":"ヒロシマケン","city":"豊田郡大崎上島町","city_kana":"トヨタグンオオサキカミジマチョウ","town":"明石","town_kana":"アカシ","prefecture_code":34},"0303":{"zip_code":"7250303","prefecture":"広島県","prefecture_kana":"ヒロシマケン","city":"豊田郡大崎上島町","city_kana":"トヨタグンオオサキカミジマチョウ","town":"大串","town_kana":"オオクシ","prefecture_code":34},"0402":{"zip_code":"7250402","prefecture":"広島県","prefecture_kana":"ヒロシマケン","city":"豊田郡大崎上島町","city_kana":"トヨタグンオオサキカミジマチョウ","town":"沖浦","town_kana":"オキウラ","prefecture_code":34},"0401":{"zip_code":"7250401","prefecture":"広島県","prefecture_kana":"ヒロシマケン","city":"豊田郡大崎上島町","city_kana":"トヨタグンオオサキカミジマチョウ","town":"木江","town_kana":"キノエ","prefecture_code":34},"0301":{"zip_code":"7250301","prefecture":"広島県","prefecture_kana":"ヒロシマケン","city":"豊田郡大崎上島町","city_kana":"トヨタグンオオサキカミジマチョウ","town":"中野","town_kana":"ナカノ","prefecture_code":34},"0302":{"zip_code":"7250302","prefecture":"広島県","prefecture_kana":"ヒロシマケン","city":"豊田郡大崎上島町","city_kana":"トヨタグンオオサキカミジマチョウ","town":"原田","town_kana":"ハラダ","prefecture_code":34},"0231":{"zip_code":"7250231","prefecture":"広島県","prefecture_kana":"ヒロシマケン","city":"豊田郡大崎上島町","city_kana":"トヨタグンオオサキカミジマチョウ","town":"東野","town_kana":"ヒガシノ","prefecture_code":34}}