{"0000":{"zip_code":"7270000","prefecture":"広島県","prefecture_kana":"ヒロシマケン","city":"庄原市","city_kana":"ショウバラシ","town":"以下に掲載がない場合","town_kana":"イカニケイサイガナイバアイ","prefecture_code":34},"0014":{"zip_code":"7270014","prefecture":"広島県","prefecture_kana":"ヒロシマケン","city":"庄原市","city_kana":"ショウバラシ","town":"板橋町","town_kana":"イタバシチョウ","prefecture_code":34},"0025":{"zip_code":"7270025","prefecture":"広島県","prefecture_kana":"ヒロシマケン","city":"庄原市","city_kana":"ショウバラシ","town":"市町","town_kana":"イチマチ","prefecture_code":34},"0624":{"zip_code":"7270624","prefecture":"広島県","prefecture_kana":"ヒロシマケン","city":"庄原市","city_kana":"ショウバラシ","town":"上谷町","town_kana":"ウエダニチョウ","prefecture_code":34},"0001":{"zip_code":"7270001","prefecture":"広島県","prefecture_kana":"ヒロシマケン","city":"庄原市","city_kana":"ショウバラシ","town":"大久保町","town_kana":"オオクボチョウ","prefecture_code":34},"0026":{"zip_code":"7270026","prefecture":"広島県","prefecture_kana":"ヒロシマケン","city":"庄原市","city_kana":"ショウバラシ","town":"掛田町","town_kana":"カケダチョウ","prefecture_code":34},"0022":{"zip_code":"7270022","prefecture":"広島県","prefecture_kana":"ヒロシマケン","city":"庄原市","city_kana":"ショウバラシ","town":"上原町","town_kana":"カミハラチョウ","prefecture_code":34},"0203":{"zip_code":"7270203","prefecture":"広島県","prefecture_kana":"ヒロシマケン","city":"庄原市","city_kana":"ショウバラシ","town":"川北町","town_kana":"カワキタチョウ","prefecture_code":34},"0005":{"zip_code":"7270005","prefecture":"広島県","prefecture_kana":"ヒロシマケン","city":"庄原市","city_kana":"ショウバラシ","town":"川手町","town_kana":"カワテマチ","prefecture_code":34},"0112":{"zip_code":"7270112","prefecture":"広島県","prefecture_kana":"ヒロシマケン","city":"庄原市","city_kana":"ショウバラシ","town":"口和町金田","town_kana":"クチワチョウキンデ","prefecture_code":34},"0113":{"zip_code":"7270113","prefecture":"広島県","prefecture_kana":"ヒロシマケン","city":"庄原市","city_kana":"ショウバラシ","town":"口和町常定","town_kana":"クチワチョウツネサダ","prefecture_code":34},"0114":{"zip_code":"7270114","prefecture":"広島県","prefecture_kana":"ヒロシマケン","city":"庄原市","city_kana":"ショウバラシ","town":"口和町永田","town_kana":"クチワチョウナガタ","prefecture_code":34},"0111":{"zip_code":"7270111","prefecture":"広島県","prefecture_kana":"ヒロシマケン","city":"庄原市","city_kana":"ショウバラシ","town":"口和町湯木","town_kana":"クチワチョウユキ","prefecture_code":34},"0003":{"zip_code":"7270003","prefecture":"広島県","prefecture_kana":"ヒロシマケン","city":"庄原市","city_kana":"ショウバラシ","town":"是松町","town_kana":"コレマツチョウ","prefecture_code":34},"0015":{"zip_code":"7270015","prefecture":"広島県","prefecture_kana":"ヒロシマケン","city":"庄原市","city_kana":"ショウバラシ","town":"実留町","town_kana":"サネドメチョウ","prefecture_code":34},"0621":{"zip_code":"7270621","prefecture":"広島県","prefecture_kana":"ヒロシマケン","city":"庄原市","city_kana":"ショウバラシ","town":"春田町","town_kana":"シュンダチョウ","prefecture_code":34},"0004":{"zip_code":"7270004","prefecture":"広島県","prefecture_kana":"ヒロシマケン","city":"庄原市","city_kana":"ショウバラシ","town":"新庄町","town_kana":"シンジョウチョウ","prefecture_code":34},"0002":{"zip_code":"7270002","prefecture":"広島県","prefecture_kana":"ヒロシマケン","city":"庄原市","city_kana":"ショウバラシ","town":"高門町","town_kana":"タカカドチョウ","prefecture_code":34},"0425":{"zip_code":"7270425","prefecture":"広島県","prefecture_kana":"ヒロシマケン","city":"庄原市","city_kana":"ショウバラシ","town":"高野町上里原","town_kana":"タカノチョウアガリハラ","prefecture_code":34},"0403":{"zip_code":"7270403","prefecture":"広島県","prefecture_kana":"ヒロシマケン","city":"庄原市","city_kana":"ショウバラシ","town":"高野町岡大内","town_kana":"タカノチョウオカオオウチ","prefecture_code":34},"0422":{"zip_code":"7270422","prefecture":"広島県","prefecture_kana":"ヒロシマケン","city":"庄原市","city_kana":"ショウバラシ","town":"高野町奥門田","town_kana":"タカノチョウオクモンデ","prefecture_code":34},"0411":{"zip_code":"7270411","prefecture":"広島県","prefecture_kana":"ヒロシマケン","city":"庄原市","city_kana":"ショウバラシ","town":"高野町上湯川","town_kana":"タカノチョウカミユカワ","prefecture_code":34},"0424":{"zip_code":"7270424","prefecture":"広島県","prefecture_kana":"ヒロシマケン","city":"庄原市","city_kana":"ショウバラシ","town":"高野町高暮","town_kana":"タカノチョウコウボ","prefecture_code":34},"0412":{"zip_code":"7270412","prefecture":"広島県","prefecture_kana":"ヒロシマケン","city":"庄原市","city_kana":"ショウバラシ","town":"高野町下湯川","town_kana":"タカノチョウシモユカワ","prefecture_code":34},"0423":{"zip_code":"7270423","prefecture":"広島県","prefecture_kana":"ヒロシマケン","city":"庄原市","city_kana":"ショウバラシ","town":"高野町下門田","town_kana":"タカノチョウシモンデ","prefecture_code":34},"0402":{"zip_code":"7270402","prefecture":"広島県","prefecture_kana":"ヒロシマケン","city":"庄原市","city_kana":"ショウバラシ","town":"高野町新市","town_kana":"タカノチョウシンイチ","prefecture_code":34},"0421":{"zip_code":"7270421","prefecture":"広島県","prefecture_kana":"ヒロシマケン","city":"庄原市","city_kana":"ショウバラシ","town":"高野町中門田","town_kana":"タカノチョウナカモンデ","prefecture_code":34},"0413":{"zip_code":"7270413","prefecture":"広島県","prefecture_kana":"ヒロシマケン","city":"庄原市","city_kana":"ショウバラシ","town":"高野町南","town_kana":"タカノチョウミナミ","prefecture_code":34},"0401":{"zip_code":"7270401","prefecture":"広島県","prefecture_kana":"ヒロシマケン","city":"庄原市","city_kana":"ショウバラシ","town":"高野町和南原","town_kana":"タカノチョウワナンバラ","prefecture_code":34},"0024":{"zip_code":"7270024","prefecture":"広島県","prefecture_kana":"ヒロシマケン","city":"庄原市","city_kana":"ショウバラシ","town":"田原町","town_kana":"タワラチョウ","prefecture_code":34},"0017":{"zip_code":"7270017","prefecture":"広島県","prefecture_kana":"ヒロシマケン","city":"庄原市","city_kana":"ショウバラシ","town":"戸郷町","town_kana":"トゴウチョウ","prefecture_code":34},"0008":{"zip_code":"7270008","prefecture":"広島県","prefecture_kana":"ヒロシマケン","city":"庄原市","city_kana":"ショウバラシ","town":"永末町","town_kana":"ナガスエチョウ","prefecture_code":34},"0012":{"zip_code":"7270012","prefecture":"広島県","prefecture_kana":"ヒロシマケン","city":"庄原市","city_kana":"ショウバラシ","town":"中本町","town_kana":"ナカホンマチ","prefecture_code":34},"0023":{"zip_code":"7270023","prefecture":"広島県","prefecture_kana":"ヒロシマケン","city":"庄原市","city_kana":"ショウバラシ","town":"七塚町","town_kana":"ナナツカチョウ","prefecture_code":34},"0202":{"zip_code":"7270202","prefecture":"広島県","prefecture_kana":"ヒロシマケン","city":"庄原市","city_kana":"ショウバラシ","town":"濁川町","town_kana":"ニゴリカワチョウ","prefecture_code":34},"0013":{"zip_code":"7270013","prefecture":"広島県","prefecture_kana":"ヒロシマケン","city":"庄原市","city_kana":"ショウバラシ","town":"西本町","town_kana":"ニシホンマチ","prefecture_code":34},"0011":{"zip_code":"7270011","prefecture":"広島県","prefecture_kana":"ヒロシマケン","city":"庄原市","city_kana":"ショウバラシ","town":"東本町","town_kana":"ヒガシホンマチ","prefecture_code":34},"0016":{"zip_code":"7270016","prefecture":"広島県","prefecture_kana":"ヒロシマケン","city":"庄原市","city_kana":"ショウバラシ","town":"一木町","town_kana":"ヒトツギチョウ","prefecture_code":34},"0302":{"zip_code":"7270302","prefecture":"広島県","prefecture_kana":"ヒロシマケン","city":"庄原市","city_kana":"ショウバラシ","town":"比和町古頃","town_kana":"ヒワチョウコゴロ","prefecture_code":34},"0312":{"zip_code":"7270312","prefecture":"広島県","prefecture_kana":"ヒロシマケン","city":"庄原市","city_kana":"ショウバラシ","town":"比和町木屋原","town_kana":"ヒワチョウコヤバラ","prefecture_code":34},"0301":{"zip_code":"7270301","prefecture":"広島県","prefecture_kana":"ヒロシマケン","city":"庄原市","city_kana":"ショウバラシ","town":"比和町比和","town_kana":"ヒワチョウヒワ","prefecture_code":34},"0311":{"zip_code":"7270311","prefecture":"広島県","prefecture_kana":"ヒロシマケン","city":"庄原市","city_kana":"ショウバラシ","town":"比和町三河内","town_kana":"ヒワチョウミツガイチ","prefecture_code":34},"0321":{"zip_code":"7270321","prefecture":"広島県","prefecture_kana":"ヒロシマケン","city":"庄原市","city_kana":"ショウバラシ","town":"比和町森脇","town_kana":"ヒワチョウモリワキ","prefecture_code":34},"0006":{"zip_code":"7270006","prefecture":"広島県","prefecture_kana":"ヒロシマケン","city":"庄原市","city_kana":"ショウバラシ","town":"本町","town_kana":"ホンマチ","prefecture_code":34},"0623":{"zip_code":"7270623","prefecture":"広島県","prefecture_kana":"ヒロシマケン","city":"庄原市","city_kana":"ショウバラシ","town":"本村町","town_kana":"ホンムラチョウ","prefecture_code":34},"0021":{"zip_code":"7270021","prefecture":"広島県","prefecture_kana":"ヒロシマケン","city":"庄原市","city_kana":"ショウバラシ","town":"三日市町","town_kana":"ミッカイチチョウ","prefecture_code":34},"0622":{"zip_code":"7270622","prefecture":"広島県","prefecture_kana":"ヒロシマケン","city":"庄原市","city_kana":"ショウバラシ","town":"峰田町","town_kana":"ミネタチョウ","prefecture_code":34},"0007":{"zip_code":"7270007","prefecture":"広島県","prefecture_kana":"ヒロシマケン","city":"庄原市","city_kana":"ショウバラシ","town":"宮内町","town_kana":"ミヤウチチョウ","prefecture_code":34},"0201":{"zip_code":"7270201","prefecture":"広島県","prefecture_kana":"ヒロシマケン","city":"庄原市","city_kana":"ショウバラシ","town":"門田町","town_kana":"モンデチョウ","prefecture_code":34}}