{"2313":{"zip_code":"7292313","prefecture":"広島県","prefecture_kana":"ヒロシマケン","city":"竹原市","city_kana":"タケハラシ","town":"高崎町","town_kana":"タカサキチョウ","prefecture_code":34},"2311":{"zip_code":"7292311","prefecture":"広島県","prefecture_kana":"ヒロシマケン","city":"竹原市","city_kana":"タケハラシ","town":"忠海町","town_kana":"タダノウミチョウ","prefecture_code":34},"2314":{"zip_code":"7292314","prefecture":"広島県","prefecture_kana":"ヒロシマケン","city":"竹原市","city_kana":"タケハラシ","town":"忠海床浦","town_kana":"タダノウミトコノウラ","prefecture_code":34},"2315":{"zip_code":"7292315","prefecture":"広島県","prefecture_kana":"ヒロシマケン","city":"竹原市","city_kana":"タケハラシ","town":"忠海長浜","town_kana":"タダノウミナガハマ","prefecture_code":34},"2316":{"zip_code":"7292316","prefecture":"広島県","prefecture_kana":"ヒロシマケン","city":"竹原市","city_kana":"タケハラシ","town":"忠海中町","town_kana":"タダノウミナカマチ","prefecture_code":34},"2317":{"zip_code":"7292317","prefecture":"広島県","prefecture_kana":"ヒロシマケン","city":"竹原市","city_kana":"タケハラシ","town":"忠海東町","town_kana":"タダノウミヒガシマチ","prefecture_code":34},"2312":{"zip_code":"7292312","prefecture":"広島県","prefecture_kana":"ヒロシマケン","city":"竹原市","city_kana":"タケハラシ","town":"福田町","town_kana":"フクダチョウ","prefecture_code":34},"0324":{"zip_code":"7290324","prefecture":"広島県","prefecture_kana":"ヒロシマケン","city":"三原市","city_kana":"ミハラシ","town":"糸崎","town_kana":"イトサキ","prefecture_code":34},"0329":{"zip_code":"7290329","prefecture":"広島県","prefecture_kana":"ヒロシマケン","city":"三原市","city_kana":"ミハラシ","town":"糸崎南","town_kana":"イトサキミナミ","prefecture_code":34},"0322":{"zip_code":"7290322","prefecture":"広島県","prefecture_kana":"ヒロシマケン","city":"三原市","city_kana":"ミハラシ","town":"奥野山町","town_kana":"オクノヤマチョウ","prefecture_code":34},"0321":[{"zip_code":"7290321","prefecture":"広島県","prefecture_kana":"ヒロシマケン","city":"三原市","city_kana":"ミハラシ","town":"木原","town_kana":"キハラ","prefecture_code":34},{"zip_code":"7290321","prefecture":"広島県","prefecture_kana":"ヒロシマケン","city":"三原市","city_kana":"ミハラシ","town":"木原町","town_kana":"キハラチョウ","prefecture_code":34}],"2361":{"zip_code":"7292361","prefecture":"広島県","prefecture_kana":"ヒロシマケン","city":"三原市","city_kana":"ミハラシ","town":"小泉町","town_kana":"コイズミチョウ","prefecture_code":34},"2251":[{"zip_code":"7292251","prefecture":"広島県","prefecture_kana":"ヒロシマケン","city":"三原市","city_kana":"ミハラシ","town":"幸崎久和喜","town_kana":"サイザキクワキ","prefecture_code":34},{"zip_code":"7292251","prefecture":"広島県","prefecture_kana":"ヒロシマケン","city":"三原市","city_kana":"ミハラシ","town":"幸崎町久和喜","town_kana":"サイザキチョウクワキ","prefecture_code":34}],"2252":[{"zip_code":"7292252","prefecture":"広島県","prefecture_kana":"ヒロシマケン","city":"三原市","city_kana":"ミハラシ","town":"幸崎能地","town_kana":"サイザキノウジ","prefecture_code":34},{"zip_code":"7292252","prefecture":"広島県","prefecture_kana":"ヒロシマケン","city":"三原市","city_kana":"ミハラシ","town":"幸崎町能地","town_kana":"サイザキチョウノウジ","prefecture_code":34}],"2253":[{"zip_code":"7292253","prefecture":"広島県","prefecture_kana":"ヒロシマケン","city":"三原市","city_kana":"ミハラシ","town":"幸崎渡瀬","town_kana":"サイザキワタセ","prefecture_code":34},{"zip_code":"7292253","prefecture":"広島県","prefecture_kana":"ヒロシマケン","city":"三原市","city_kana":"ミハラシ","town":"幸崎町渡瀬","town_kana":"サイザキチョウワタセ","prefecture_code":34}],"0414":[{"zip_code":"7290414","prefecture":"広島県","prefecture_kana":"ヒロシマケン","city":"三原市","city_kana":"ミハラシ","town":"下北方","town_kana":"シモキタガタ","prefecture_code":34},{"zip_code":"7290414","prefecture":"広島県","prefecture_kana":"ヒロシマケン","city":"三原市","city_kana":"ミハラシ","town":"本郷町下北方","town_kana":"ホンゴウチョウシモキタガタ","prefecture_code":34}],"1212":{"zip_code":"7291212","prefecture":"広島県","prefecture_kana":"ヒロシマケン","city":"三原市","city_kana":"ミハラシ","town":"大和町姥ケ原","town_kana":"ダイワチョウウバガハラ","prefecture_code":34},"1323":{"zip_code":"7291323","prefecture":"広島県","prefecture_kana":"ヒロシマケン","city":"三原市","city_kana":"ミハラシ","town":"大和町大具","town_kana":"ダイワチョウオオグ","prefecture_code":34},"1211":{"zip_code":"7291211","prefecture":"広島県","prefecture_kana":"ヒロシマケン","city":"三原市","city_kana":"ミハラシ","town":"大和町大草","town_kana":"ダイワチョウオオグサ","prefecture_code":34},"1332":{"zip_code":"7291332","prefecture":"広島県","prefecture_kana":"ヒロシマケン","city":"三原市","city_kana":"ミハラシ","town":"大和町上草井","town_kana":"ダイワチョウカミグサイ","prefecture_code":34},"1405":{"zip_code":"7291405","prefecture":"広島県","prefecture_kana":"ヒロシマケン","city":"三原市","city_kana":"ミハラシ","town":"大和町上徳良","town_kana":"ダイワチョウカミトクラ","prefecture_code":34},"1401":{"zip_code":"7291401","prefecture":"広島県","prefecture_kana":"ヒロシマケン","city":"三原市","city_kana":"ミハラシ","town":"大和町蔵宗","town_kana":"ダイワチョウクラムネ","prefecture_code":34},"1402":{"zip_code":"7291402","prefecture":"広島県","prefecture_kana":"ヒロシマケン","city":"三原市","city_kana":"ミハラシ","town":"大和町篠","town_kana":"ダイワチョウシノ","prefecture_code":34},"1333":{"zip_code":"7291333","prefecture":"広島県","prefecture_kana":"ヒロシマケン","city":"三原市","city_kana":"ミハラシ","town":"大和町下草井","town_kana":"ダイワチョウシモグサイ","prefecture_code":34},"1406":{"zip_code":"7291406","prefecture":"広島県","prefecture_kana":"ヒロシマケン","city":"三原市","city_kana":"ミハラシ","town":"大和町下徳良","town_kana":"ダイワチョウシモトクラ","prefecture_code":34},"1403":{"zip_code":"7291403","prefecture":"広島県","prefecture_kana":"ヒロシマケン","city":"三原市","city_kana":"ミハラシ","town":"大和町萩原","town_kana":"ダイワチョウハイバラ","prefecture_code":34},"1322":{"zip_code":"7291322","prefecture":"広島県","prefecture_kana":"ヒロシマケン","city":"三原市","city_kana":"ミハラシ","town":"大和町箱川","town_kana":"ダイワチョウハコガワ","prefecture_code":34},"1213":{"zip_code":"7291213","prefecture":"広島県","prefecture_kana":"ヒロシマケン","city":"三原市","city_kana":"ミハラシ","town":"大和町平坂","town_kana":"ダイワチョウヒラサカ","prefecture_code":34},"1404":{"zip_code":"7291404","prefecture":"広島県","prefecture_kana":"ヒロシマケン","city":"三原市","city_kana":"ミハラシ","town":"大和町福田","town_kana":"ダイワチョウフクダ","prefecture_code":34},"1331":{"zip_code":"7291331","prefecture":"広島県","prefecture_kana":"ヒロシマケン","city":"三原市","city_kana":"ミハラシ","town":"大和町椋梨","town_kana":"ダイワチョウムクナシ","prefecture_code":34},"1321":{"zip_code":"7291321","prefecture":"広島県","prefecture_kana":"ヒロシマケン","city":"三原市","city_kana":"ミハラシ","town":"大和町和木","town_kana":"ダイワチョウワキ","prefecture_code":34},"0472":{"zip_code":"7290472","prefecture":"広島県","prefecture_kana":"ヒロシマケン","city":"三原市","city_kana":"ミハラシ","town":"高坂町真良","town_kana":"タカサカチョウシンラ","prefecture_code":34},"0471":{"zip_code":"7290471","prefecture":"広島県","prefecture_kana":"ヒロシマケン","city":"三原市","city_kana":"ミハラシ","town":"高坂町許山","town_kana":"タカサカチョウモトヤマ","prefecture_code":34},"0473":{"zip_code":"7290473","prefecture":"広島県","prefecture_kana":"ヒロシマケン","city":"三原市","city_kana":"ミハラシ","town":"沼田西町小原","town_kana":"ヌタニシチョウオバラ","prefecture_code":34},"0474":{"zip_code":"7290474","prefecture":"広島県","prefecture_kana":"ヒロシマケン","city":"三原市","city_kana":"ミハラシ","town":"沼田西町惣定","town_kana":"ヌタニシチョウソウジョウ","prefecture_code":34},"0475":{"zip_code":"7290475","prefecture":"広島県","prefecture_kana":"ヒロシマケン","city":"三原市","city_kana":"ミハラシ","town":"沼田西町松江","town_kana":"ヌタニシチョウマツエ","prefecture_code":34},"0323":{"zip_code":"7290323","prefecture":"広島県","prefecture_kana":"ヒロシマケン","city":"三原市","city_kana":"ミハラシ","town":"鉢ケ峰町","town_kana":"ハチガミネチョウ","prefecture_code":34},"0418":{"zip_code":"7290418","prefecture":"広島県","prefecture_kana":"ヒロシマケン","city":"三原市","city_kana":"ミハラシ","town":"本郷北","town_kana":"ホンゴウキタ","prefecture_code":34},"0417":{"zip_code":"7290417","prefecture":"広島県","prefecture_kana":"ヒロシマケン","city":"三原市","city_kana":"ミハラシ","town":"本郷南","town_kana":"ホンゴウミナミ","prefecture_code":34},"0415":{"zip_code":"7290415","prefecture":"広島県","prefecture_kana":"ヒロシマケン","city":"三原市","city_kana":"ミハラシ","town":"本郷町上北方","town_kana":"ホンゴウチョウカミキタガタ","prefecture_code":34},"0416":{"zip_code":"7290416","prefecture":"広島県","prefecture_kana":"ヒロシマケン","city":"三原市","city_kana":"ミハラシ","town":"本郷町善入寺","town_kana":"ホンゴウチョウゼンニュウジ","prefecture_code":34},"0411":{"zip_code":"7290411","prefecture":"広島県","prefecture_kana":"ヒロシマケン","city":"三原市","city_kana":"ミハラシ","town":"本郷町船木（その他）","town_kana":"ホンゴウチョウフナキ(ソノタ)","prefecture_code":34},"0412":{"zip_code":"7290412","prefecture":"広島県","prefecture_kana":"ヒロシマケン","city":"三原市","city_kana":"ミハラシ","town":"本郷町本郷","town_kana":"ホンゴウチョウホンゴウ","prefecture_code":34},"0413":{"zip_code":"7290413","prefecture":"広島県","prefecture_kana":"ヒロシマケン","city":"三原市","city_kana":"ミハラシ","town":"本郷町南方","town_kana":"ホンゴウチョウミナミガタ","prefecture_code":34},"0419":{"zip_code":"7290419","prefecture":"広島県","prefecture_kana":"ヒロシマケン","city":"三原市","city_kana":"ミハラシ","town":"南方","town_kana":"ミナミガタ","prefecture_code":34},"0141":{"zip_code":"7290141","prefecture":"広島県","prefecture_kana":"ヒロシマケン","city":"尾道市","city_kana":"オノミチシ","town":"高須町","town_kana":"タカスチョウ","prefecture_code":34},"0142":{"zip_code":"7290142","prefecture":"広島県","prefecture_kana":"ヒロシマケン","city":"尾道市","city_kana":"オノミチシ","town":"西藤町","town_kana":"ニシフジチョウ","prefecture_code":34},"0111":{"zip_code":"7290111","prefecture":"広島県","prefecture_kana":"ヒロシマケン","city":"福山市","city_kana":"フクヤマシ","town":"今津町","town_kana":"イマヅチョウ","prefecture_code":34},"0112":{"zip_code":"7290112","prefecture":"広島県","prefecture_kana":"ヒロシマケン","city":"福山市","city_kana":"フクヤマシ","town":"神村町","town_kana":"カムラチョウ","prefecture_code":34},"3111":{"zip_code":"7293111","prefecture":"広島県","prefecture_kana":"ヒロシマケン","city":"福山市","city_kana":"フクヤマシ","town":"新市町金丸","town_kana":"シンイチチョウカネマル","prefecture_code":34},"3106":{"zip_code":"7293106","prefecture":"広島県","prefecture_kana":"ヒロシマケン","city":"福山市","city_kana":"フクヤマシ","town":"新市町上安井","town_kana":"シンイチチョウカミヤスイ","prefecture_code":34},"3102":{"zip_code":"7293102","prefecture":"広島県","prefecture_kana":"ヒロシマケン","city":"福山市","city_kana":"フクヤマシ","town":"新市町相方","town_kana":"シンイチチョウサガタ","prefecture_code":34},"3105":{"zip_code":"7293105","prefecture":"広島県","prefecture_kana":"ヒロシマケン","city":"福山市","city_kana":"フクヤマシ","town":"新市町下安井","town_kana":"シンイチチョウシモヤスイ","prefecture_code":34},"3103":{"zip_code":"7293103","prefecture":"広島県","prefecture_kana":"ヒロシマケン","city":"福山市","city_kana":"フクヤマシ","town":"新市町新市","town_kana":"シンイチチョウシンイチ","prefecture_code":34},"3107":{"zip_code":"7293107","prefecture":"広島県","prefecture_kana":"ヒロシマケン","city":"福山市","city_kana":"フクヤマシ","town":"新市町常","town_kana":"シンイチチョウツネ","prefecture_code":34},"3101":{"zip_code":"7293101","prefecture":"広島県","prefecture_kana":"ヒロシマケン","city":"福山市","city_kana":"フクヤマシ","town":"新市町戸手","town_kana":"シンイチチョウトデ","prefecture_code":34},"3112":{"zip_code":"7293112","prefecture":"広島県","prefecture_kana":"ヒロシマケン","city":"福山市","city_kana":"フクヤマシ","town":"新市町藤尾","town_kana":"シンイチチョウフジオ","prefecture_code":34},"3104":{"zip_code":"7293104","prefecture":"広島県","prefecture_kana":"ヒロシマケン","city":"福山市","city_kana":"フクヤマシ","town":"新市町宮内","town_kana":"シンイチチョウミヤウチ","prefecture_code":34},"0106":{"zip_code":"7290106","prefecture":"広島県","prefecture_kana":"ヒロシマケン","city":"福山市","city_kana":"フクヤマシ","town":"高西町","town_kana":"タカニシチョウ","prefecture_code":34},"0101":{"zip_code":"7290101","prefecture":"広島県","prefecture_kana":"ヒロシマケン","city":"福山市","city_kana":"フクヤマシ","town":"高西町川尻","town_kana":"タカニシチョウカワジリ","prefecture_code":34},"0102":{"zip_code":"7290102","prefecture":"広島県","prefecture_kana":"ヒロシマケン","city":"福山市","city_kana":"フクヤマシ","town":"高西町真田","town_kana":"タカニシチョウサナダ","prefecture_code":34},"0103":{"zip_code":"7290103","prefecture":"広島県","prefecture_kana":"ヒロシマケン","city":"福山市","city_kana":"フクヤマシ","town":"高西町南","town_kana":"タカニシチョウミナミ","prefecture_code":34},"0251":{"zip_code":"7290251","prefecture":"広島県","prefecture_kana":"ヒロシマケン","city":"福山市","city_kana":"フクヤマシ","town":"東村町","town_kana":"ヒガシムラチョウ","prefecture_code":34},"0252":{"zip_code":"7290252","prefecture":"広島県","prefecture_kana":"ヒロシマケン","city":"福山市","city_kana":"フクヤマシ","town":"本郷町","town_kana":"ホンゴウチョウ","prefecture_code":34},"0104":{"zip_code":"7290104","prefecture":"広島県","prefecture_kana":"ヒロシマケン","city":"福山市","city_kana":"フクヤマシ","town":"松永町","town_kana":"マツナガチョウ","prefecture_code":34},"0115":{"zip_code":"7290115","prefecture":"広島県","prefecture_kana":"ヒロシマケン","city":"福山市","city_kana":"フクヤマシ","town":"南今津町","town_kana":"ミナミイマヅチョウ","prefecture_code":34},"0105":{"zip_code":"7290105","prefecture":"広島県","prefecture_kana":"ヒロシマケン","city":"福山市","city_kana":"フクヤマシ","town":"南松永町","town_kana":"ミナミマツナガチョウ","prefecture_code":34},"0113":{"zip_code":"7290113","prefecture":"広島県","prefecture_kana":"ヒロシマケン","city":"福山市","city_kana":"フクヤマシ","town":"宮前町","town_kana":"ミヤマエチョウ","prefecture_code":34},"0114":{"zip_code":"7290114","prefecture":"広島県","prefecture_kana":"ヒロシマケン","city":"福山市","city_kana":"フクヤマシ","town":"柳津町","town_kana":"ヤナイヅチョウ","prefecture_code":34},"3212":{"zip_code":"7293212","prefecture":"広島県","prefecture_kana":"ヒロシマケン","city":"府中市","city_kana":"フチュウシ","town":"阿字町","town_kana":"アジチョウ","prefecture_code":34},"3221":{"zip_code":"7293221","prefecture":"広島県","prefecture_kana":"ヒロシマケン","city":"府中市","city_kana":"フチュウシ","town":"河佐町","town_kana":"カワサチョウ","prefecture_code":34},"3211":{"zip_code":"7293211","prefecture":"広島県","prefecture_kana":"ヒロシマケン","city":"府中市","city_kana":"フチュウシ","town":"木野山町","town_kana":"キノヤマチョウ","prefecture_code":34},"3222":{"zip_code":"7293222","prefecture":"広島県","prefecture_kana":"ヒロシマケン","city":"府中市","city_kana":"フチュウシ","town":"久佐町","town_kana":"クサチョウ","prefecture_code":34},"3405":{"zip_code":"7293405","prefecture":"広島県","prefecture_kana":"ヒロシマケン","city":"府中市","city_kana":"フチュウシ","town":"上下町有福","town_kana":"ジョウゲチョウアリフク","prefecture_code":34},"3411":{"zip_code":"7293411","prefecture":"広島県","prefecture_kana":"ヒロシマケン","city":"府中市","city_kana":"フチュウシ","town":"上下町井永","town_kana":"ジョウゲチョウイナガ","prefecture_code":34},"3412":{"zip_code":"7293412","prefecture":"広島県","prefecture_kana":"ヒロシマケン","city":"府中市","city_kana":"フチュウシ","town":"上下町岡屋","town_kana":"ジョウゲチョウオガヤ","prefecture_code":34},"3401":{"zip_code":"7293401","prefecture":"広島県","prefecture_kana":"ヒロシマケン","city":"府中市","city_kana":"フチュウシ","town":"上下町小塚","town_kana":"ジョウゲチョウオヅカ","prefecture_code":34},"3422":{"zip_code":"7293422","prefecture":"広島県","prefecture_kana":"ヒロシマケン","city":"府中市","city_kana":"フチュウシ","town":"上下町国留","town_kana":"ジョウゲチョウクニドメ","prefecture_code":34},"3402":{"zip_code":"7293402","prefecture":"広島県","prefecture_kana":"ヒロシマケン","city":"府中市","city_kana":"フチュウシ","town":"上下町小堀","town_kana":"ジョウゲチョウコホリ","prefecture_code":34},"3414":{"zip_code":"7293414","prefecture":"広島県","prefecture_kana":"ヒロシマケン","city":"府中市","city_kana":"フチュウシ","town":"上下町佐倉","town_kana":"ジョウゲチョウサクラ","prefecture_code":34},"3403":{"zip_code":"7293403","prefecture":"広島県","prefecture_kana":"ヒロシマケン","city":"府中市","city_kana":"フチュウシ","town":"上下町階見","town_kana":"ジョウゲチョウシナミ","prefecture_code":34},"3431":{"zip_code":"7293431","prefecture":"広島県","prefecture_kana":"ヒロシマケン","city":"府中市","city_kana":"フチュウシ","town":"上下町上下","town_kana":"ジョウゲチョウジョウゲ","prefecture_code":34},"3421":{"zip_code":"7293421","prefecture":"広島県","prefecture_kana":"ヒロシマケン","city":"府中市","city_kana":"フチュウシ","town":"上下町深江","town_kana":"ジョウゲチョウフカエ","prefecture_code":34},"3404":{"zip_code":"7293404","prefecture":"広島県","prefecture_kana":"ヒロシマケン","city":"府中市","city_kana":"フチュウシ","town":"上下町二森","town_kana":"ジョウゲチョウフタモリ","prefecture_code":34},"3424":{"zip_code":"7293424","prefecture":"広島県","prefecture_kana":"ヒロシマケン","city":"府中市","city_kana":"フチュウシ","town":"上下町松崎","town_kana":"ジョウゲチョウマツサキ","prefecture_code":34},"3413":{"zip_code":"7293413","prefecture":"広島県","prefecture_kana":"ヒロシマケン","city":"府中市","city_kana":"フチュウシ","town":"上下町水永","town_kana":"ジョウゲチョウミズナガ","prefecture_code":34},"3415":{"zip_code":"7293415","prefecture":"広島県","prefecture_kana":"ヒロシマケン","city":"府中市","city_kana":"フチュウシ","town":"上下町矢多田","town_kana":"ジョウゲチョウヤタダ","prefecture_code":34},"3423":{"zip_code":"7293423","prefecture":"広島県","prefecture_kana":"ヒロシマケン","city":"府中市","city_kana":"フチュウシ","town":"上下町矢野","town_kana":"ジョウゲチョウヤノ","prefecture_code":34},"3201":{"zip_code":"7293201","prefecture":"広島県","prefecture_kana":"ヒロシマケン","city":"府中市","city_kana":"フチュウシ","town":"斗升町","town_kana":"トマスチョウ","prefecture_code":34},"3202":{"zip_code":"7293202","prefecture":"広島県","prefecture_kana":"ヒロシマケン","city":"府中市","city_kana":"フチュウシ","town":"行縢町","town_kana":"ムカバキチョウ","prefecture_code":34},"6335":{"zip_code":"7296335","prefecture":"広島県","prefecture_kana":"ヒロシマケン","city":"三次市","city_kana":"ミヨシシ","town":"秋町","town_kana":"アキマチ","prefecture_code":34},"6212":{"zip_code":"7296212","prefecture":"広島県","prefecture_kana":"ヒロシマケン","city":"三次市","city_kana":"ミヨシシ","town":"糸井町","town_kana":"イトイマチ","prefecture_code":34},"6215":{"zip_code":"7296215","prefecture":"広島県","prefecture_kana":"ヒロシマケン","city":"三次市","city_kana":"ミヨシシ","town":"江田川之内町","town_kana":"エタカワノウチマチ","prefecture_code":34},"6211":{"zip_code":"7296211","prefecture":"広島県","prefecture_kana":"ヒロシマケン","city":"三次市","city_kana":"ミヨシシ","town":"大田幸町","town_kana":"オオダコウマチ","prefecture_code":34},"6334":{"zip_code":"7296334","prefecture":"広島県","prefecture_kana":"ヒロシマケン","city":"三次市","city_kana":"ミヨシシ","town":"上川立町","town_kana":"カミカワタチマチ","prefecture_code":34},"6332":{"zip_code":"7296332","prefecture":"広島県","prefecture_kana":"ヒロシマケン","city":"三次市","city_kana":"ミヨシシ","town":"上志和地町","town_kana":"カミシワチマチ","prefecture_code":34},"4223":{"zip_code":"7294223","prefecture":"広島県","prefecture_kana":"ヒロシマケン","city":"三次市","city_kana":"ミヨシシ","town":"吉舎町雲通","town_kana":"キサチョウウヅイ","prefecture_code":34},"4205":{"zip_code":"7294205","prefecture":"広島県","prefecture_kana":"ヒロシマケン","city":"三次市","city_kana":"ミヨシシ","town":"吉舎町海田原","town_kana":"キサチョウカイダハラ","prefecture_code":34},"4202":{"zip_code":"7294202","prefecture":"広島県","prefecture_kana":"ヒロシマケン","city":"三次市","city_kana":"ミヨシシ","town":"吉舎町上安田","town_kana":"キサチョウカミヤスダ","prefecture_code":34},"4211":{"zip_code":"7294211","prefecture":"広島県","prefecture_kana":"ヒロシマケン","city":"三次市","city_kana":"ミヨシシ","town":"吉舎町吉舎","town_kana":"キサチョウキサ","prefecture_code":34},"4226":{"zip_code":"7294226","prefecture":"広島県","prefecture_kana":"ヒロシマケン","city":"三次市","city_kana":"ミヨシシ","town":"吉舎町吉舎川之内","town_kana":"キサチョウキサカワノウチ","prefecture_code":34},"4221":{"zip_code":"7294221","prefecture":"広島県","prefecture_kana":"ヒロシマケン","city":"三次市","city_kana":"ミヨシシ","town":"吉舎町清綱","town_kana":"キサチョウキヨツナ","prefecture_code":34},"4207":{"zip_code":"7294207","prefecture":"広島県","prefecture_kana":"ヒロシマケン","city":"三次市","city_kana":"ミヨシシ","town":"吉舎町敷地","town_kana":"キサチョウシキジ","prefecture_code":34},"4201":{"zip_code":"7294201","prefecture":"広島県","prefecture_kana":"ヒロシマケン","city":"三次市","city_kana":"ミヨシシ","town":"吉舎町知和","town_kana":"キサチョウチワ","prefecture_code":34},"4224":{"zip_code":"7294224","prefecture":"広島県","prefecture_kana":"ヒロシマケン","city":"三次市","city_kana":"ミヨシシ","town":"吉舎町辻","town_kana":"キサチョウツジ","prefecture_code":34},"4225":{"zip_code":"7294225","prefecture":"広島県","prefecture_kana":"ヒロシマケン","city":"三次市","city_kana":"ミヨシシ","town":"吉舎町徳市","town_kana":"キサチョウトクイチ","prefecture_code":34},"4227":{"zip_code":"7294227","prefecture":"広島県","prefecture_kana":"ヒロシマケン","city":"三次市","city_kana":"ミヨシシ","town":"吉舎町檜","town_kana":"キサチョウヒノキ","prefecture_code":34},"4222":{"zip_code":"7294222","prefecture":"広島県","prefecture_kana":"ヒロシマケン","city":"三次市","city_kana":"ミヨシシ","town":"吉舎町丸田","town_kana":"キサチョウマルダ","prefecture_code":34},"4204":{"zip_code":"7294204","prefecture":"広島県","prefecture_kana":"ヒロシマケン","city":"三次市","city_kana":"ミヨシシ","town":"吉舎町三玉","town_kana":"キサチョウミタマ","prefecture_code":34},"4206":{"zip_code":"7294206","prefecture":"広島県","prefecture_kana":"ヒロシマケン","city":"三次市","city_kana":"ミヨシシ","town":"吉舎町矢井","town_kana":"キサチョウヤイ","prefecture_code":34},"4203":{"zip_code":"7294203","prefecture":"広島県","prefecture_kana":"ヒロシマケン","city":"三次市","city_kana":"ミヨシシ","town":"吉舎町安田","town_kana":"キサチョウヤスダ","prefecture_code":34},"4208":{"zip_code":"7294208","prefecture":"広島県","prefecture_kana":"ヒロシマケン","city":"三次市","city_kana":"ミヨシシ","town":"吉舎町矢野地","town_kana":"キサチョウヤノチ","prefecture_code":34},"6204":{"zip_code":"7296204","prefecture":"広島県","prefecture_kana":"ヒロシマケン","city":"三次市","city_kana":"ミヨシシ","town":"木乗町","town_kana":"キノリマチ","prefecture_code":34},"4106":{"zip_code":"7294106","prefecture":"広島県","prefecture_kana":"ヒロシマケン","city":"三次市","city_kana":"ミヨシシ","town":"甲奴町有田","town_kana":"コウヌチョウアリダ","prefecture_code":34},"4104":{"zip_code":"7294104","prefecture":"広島県","prefecture_kana":"ヒロシマケン","city":"三次市","city_kana":"ミヨシシ","town":"甲奴町宇賀","town_kana":"コウヌチョウウガ","prefecture_code":34},"4105":{"zip_code":"7294105","prefecture":"広島県","prefecture_kana":"ヒロシマケン","city":"三次市","city_kana":"ミヨシシ","town":"甲奴町梶田","town_kana":"コウヌチョウカジタ","prefecture_code":34},"4113":{"zip_code":"7294113","prefecture":"広島県","prefecture_kana":"ヒロシマケン","city":"三次市","city_kana":"ミヨシシ","town":"甲奴町太郎丸","town_kana":"コウヌチョウタロウマル","prefecture_code":34},"4102":{"zip_code":"7294102","prefecture":"広島県","prefecture_kana":"ヒロシマケン","city":"三次市","city_kana":"ミヨシシ","town":"甲奴町西野","town_kana":"コウヌチョウニシノ","prefecture_code":34},"4112":{"zip_code":"7294112","prefecture":"広島県","prefecture_kana":"ヒロシマケン","city":"三次市","city_kana":"ミヨシシ","town":"甲奴町抜湯","town_kana":"コウヌチョウヌクユ","prefecture_code":34},"4103":{"zip_code":"7294103","prefecture":"広島県","prefecture_kana":"ヒロシマケン","city":"三次市","city_kana":"ミヨシシ","town":"甲奴町小童","town_kana":"コウヌチョウヒチ","prefecture_code":34},"4111":{"zip_code":"7294111","prefecture":"広島県","prefecture_kana":"ヒロシマケン","city":"三次市","city_kana":"ミヨシシ","town":"甲奴町福田","town_kana":"コウヌチョウフクダ","prefecture_code":34},"4101":{"zip_code":"7294101","prefecture":"広島県","prefecture_kana":"ヒロシマケン","city":"三次市","city_kana":"ミヨシシ","town":"甲奴町本郷","town_kana":"コウヌチョウホンゴウ","prefecture_code":34},"6216":{"zip_code":"7296216","prefecture":"広島県","prefecture_kana":"ヒロシマケン","city":"三次市","city_kana":"ミヨシシ","town":"小田幸町","town_kana":"コダコウマチ","prefecture_code":34},"6205":{"zip_code":"7296205","prefecture":"広島県","prefecture_kana":"ヒロシマケン","city":"三次市","city_kana":"ミヨシシ","town":"塩町","town_kana":"シオマチ","prefecture_code":34},"6203":{"zip_code":"7296203","prefecture":"広島県","prefecture_kana":"ヒロシマケン","city":"三次市","city_kana":"ミヨシシ","town":"志幸町","town_kana":"シコウマチ","prefecture_code":34},"6333":{"zip_code":"7296333","prefecture":"広島県","prefecture_kana":"ヒロシマケン","city":"三次市","city_kana":"ミヨシシ","town":"下川立町","town_kana":"シモカワタチマチ","prefecture_code":34},"6331":{"zip_code":"7296331","prefecture":"広島県","prefecture_kana":"ヒロシマケン","city":"三次市","city_kana":"ミヨシシ","town":"下志和地町","town_kana":"シモシワチマチ","prefecture_code":34},"6214":{"zip_code":"7296214","prefecture":"広島県","prefecture_kana":"ヒロシマケン","city":"三次市","city_kana":"ミヨシシ","town":"高杉町","town_kana":"タカスギマチ","prefecture_code":34},"4306":{"zip_code":"7294306","prefecture":"広島県","prefecture_kana":"ヒロシマケン","city":"三次市","city_kana":"ミヨシシ","town":"三良坂町岡田","town_kana":"ミラサカチョウオカダ","prefecture_code":34},"4307":{"zip_code":"7294307","prefecture":"広島県","prefecture_kana":"ヒロシマケン","city":"三次市","city_kana":"ミヨシシ","town":"三良坂町皆瀬","town_kana":"ミラサカチョウカイゼ","prefecture_code":34},"4308":{"zip_code":"7294308","prefecture":"広島県","prefecture_kana":"ヒロシマケン","city":"三次市","city_kana":"ミヨシシ","town":"三良坂町田利","town_kana":"ミラサカチョウタリ","prefecture_code":34},"4305":{"zip_code":"7294305","prefecture":"広島県","prefecture_kana":"ヒロシマケン","city":"三次市","city_kana":"ミヨシシ","town":"三良坂町長田","town_kana":"ミラサカチョウナガタ","prefecture_code":34},"4302":{"zip_code":"7294302","prefecture":"広島県","prefecture_kana":"ヒロシマケン","city":"三次市","city_kana":"ミヨシシ","town":"三良坂町仁賀","town_kana":"ミラサカチョウニカ","prefecture_code":34},"4303":{"zip_code":"7294303","prefecture":"広島県","prefecture_kana":"ヒロシマケン","city":"三次市","city_kana":"ミヨシシ","town":"三良坂町灰塚","town_kana":"ミラサカチョウハイヅカ","prefecture_code":34},"4301":{"zip_code":"7294301","prefecture":"広島県","prefecture_kana":"ヒロシマケン","city":"三次市","city_kana":"ミヨシシ","town":"三良坂町光清","town_kana":"ミラサカチョウミツキヨ","prefecture_code":34},"4304":{"zip_code":"7294304","prefecture":"広島県","prefecture_kana":"ヒロシマケン","city":"三次市","city_kana":"ミヨシシ","town":"三良坂町三良坂","town_kana":"ミラサカチョウミラサカ","prefecture_code":34},"6613":{"zip_code":"7296613","prefecture":"広島県","prefecture_kana":"ヒロシマケン","city":"三次市","city_kana":"ミヨシシ","town":"三和町有原","town_kana":"ミワチョウアリハラ","prefecture_code":34},"6701":[{"zip_code":"7296701","prefecture":"広島県","prefecture_kana":"ヒロシマケン","city":"三次市","city_kana":"ミヨシシ","town":"三和町飯田","town_kana":"ミワチョウイイダ","prefecture_code":34},{"zip_code":"7296701","prefecture":"広島県","prefecture_kana":"ヒロシマケン","city":"三次市","city_kana":"ミヨシシ","town":"三和町上壱","town_kana":"ミワチョウカミイチ","prefecture_code":34}],"6615":{"zip_code":"7296615","prefecture":"広島県","prefecture_kana":"ヒロシマケン","city":"三次市","city_kana":"ミヨシシ","town":"三和町上板木","town_kana":"ミワチョウカミイタキ","prefecture_code":34},"6612":[{"zip_code":"7296612","prefecture":"広島県","prefecture_kana":"ヒロシマケン","city":"三次市","city_kana":"ミヨシシ","town":"三和町敷名（鉾畦）","town_kana":"ミワチョウシキナ(ホコノウネ)","prefecture_code":34},{"zip_code":"7296612","prefecture":"広島県","prefecture_kana":"ヒロシマケン","city":"三次市","city_kana":"ミヨシシ","town":"三和町下板木","town_kana":"ミワチョウシモイタキ","prefecture_code":34}],"6702":{"zip_code":"7296702","prefecture":"広島県","prefecture_kana":"ヒロシマケン","city":"三次市","city_kana":"ミヨシシ","town":"三和町敷名（その他）","town_kana":"ミワチョウシキナ(ソノタ)","prefecture_code":34},"6616":{"zip_code":"7296616","prefecture":"広島県","prefecture_kana":"ヒロシマケン","city":"三次市","city_kana":"ミヨシシ","town":"三和町大力谷","town_kana":"ミワチョウダイリキダニ","prefecture_code":34},"6614":{"zip_code":"7296614","prefecture":"広島県","prefecture_kana":"ヒロシマケン","city":"三次市","city_kana":"ミヨシシ","town":"三和町羽出庭","town_kana":"ミワチョウハデニワ","prefecture_code":34},"6611":{"zip_code":"7296611","prefecture":"広島県","prefecture_kana":"ヒロシマケン","city":"三次市","city_kana":"ミヨシシ","town":"三和町福田","town_kana":"ミワチョウフクダ","prefecture_code":34},"6202":{"zip_code":"7296202","prefecture":"広島県","prefecture_kana":"ヒロシマケン","city":"三次市","city_kana":"ミヨシシ","town":"向江田町","town_kana":"ムコウエタマチ","prefecture_code":34},"6213":{"zip_code":"7296213","prefecture":"広島県","prefecture_kana":"ヒロシマケン","city":"三次市","city_kana":"ミヨシシ","town":"廻神町","town_kana":"メグリカミマチ","prefecture_code":34},"6201":{"zip_code":"7296201","prefecture":"広島県","prefecture_kana":"ヒロシマケン","city":"三次市","city_kana":"ミヨシシ","town":"和知町","town_kana":"ワチマチ","prefecture_code":34},"6143":{"zip_code":"7296143","prefecture":"広島県","prefecture_kana":"ヒロシマケン","city":"庄原市","city_kana":"ショウバラシ","town":"尾引町","town_kana":"オビキチョウ","prefecture_code":34},"5812":{"zip_code":"7295812","prefecture":"広島県","prefecture_kana":"ヒロシマケン","city":"庄原市","city_kana":"ショウバラシ","town":"小用町","town_kana":"オヨウチョウ","prefecture_code":34},"5813":{"zip_code":"7295813","prefecture":"広島県","prefecture_kana":"ヒロシマケン","city":"庄原市","city_kana":"ショウバラシ","town":"川西町","town_kana":"カワニシチョウ","prefecture_code":34},"6134":{"zip_code":"7296134","prefecture":"広島県","prefecture_kana":"ヒロシマケン","city":"庄原市","city_kana":"ショウバラシ","town":"木戸町","town_kana":"キドチョウ","prefecture_code":34},"6142":{"zip_code":"7296142","prefecture":"広島県","prefecture_kana":"ヒロシマケン","city":"庄原市","city_kana":"ショウバラシ","town":"高茂町","town_kana":"コウモチョウ","prefecture_code":34},"5733":{"zip_code":"7295733","prefecture":"広島県","prefecture_kana":"ヒロシマケン","city":"庄原市","city_kana":"ショウバラシ","town":"西城町入江","town_kana":"サイジョウチョウイリエ","prefecture_code":34},"5722":{"zip_code":"7295722","prefecture":"広島県","prefecture_kana":"ヒロシマケン","city":"庄原市","city_kana":"ショウバラシ","town":"西城町大佐","town_kana":"サイジョウチョウオオサ","prefecture_code":34},"5744":{"zip_code":"7295744","prefecture":"広島県","prefecture_kana":"ヒロシマケン","city":"庄原市","city_kana":"ショウバラシ","town":"西城町大屋","town_kana":"サイジョウチョウオオヤ","prefecture_code":34},"5603":{"zip_code":"7295603","prefecture":"広島県","prefecture_kana":"ヒロシマケン","city":"庄原市","city_kana":"ショウバラシ","town":"西城町熊野（上梶谷、下梶谷、落合、明賀）","town_kana":"サイジョウチョウクマノ(カミカジダニ、シモカジダニ、オチアイ、ミョウガ)","prefecture_code":34},"5741":{"zip_code":"7295741","prefecture":"広島県","prefecture_kana":"ヒロシマケン","city":"庄原市","city_kana":"ショウバラシ","town":"西城町熊野（その他）","town_kana":"サイジョウチョウクマノ(ソノタ)","prefecture_code":34},"5732":{"zip_code":"7295732","prefecture":"広島県","prefecture_kana":"ヒロシマケン","city":"庄原市","city_kana":"ショウバラシ","town":"西城町栗","town_kana":"サイジョウチョウクリ","prefecture_code":34},"5612":{"zip_code":"7295612","prefecture":"広島県","prefecture_kana":"ヒロシマケン","city":"庄原市","city_kana":"ショウバラシ","town":"西城町高尾","town_kana":"サイジョウチョウコウオ","prefecture_code":34},"5731":{"zip_code":"7295731","prefecture":"広島県","prefecture_kana":"ヒロシマケン","city":"庄原市","city_kana":"ショウバラシ","town":"西城町西城","town_kana":"サイジョウチョウサイジョウ","prefecture_code":34},"5743":{"zip_code":"7295743","prefecture":"広島県","prefecture_kana":"ヒロシマケン","city":"庄原市","city_kana":"ショウバラシ","town":"西城町中迫","town_kana":"サイジョウチョウナカザコ","prefecture_code":34},"5742":{"zip_code":"7295742","prefecture":"広島県","prefecture_kana":"ヒロシマケン","city":"庄原市","city_kana":"ショウバラシ","town":"西城町中野","town_kana":"サイジョウチョウナカノ","prefecture_code":34},"5613":{"zip_code":"7295613","prefecture":"広島県","prefecture_kana":"ヒロシマケン","city":"庄原市","city_kana":"ショウバラシ","town":"西城町八鳥（明賀、杉ノ原、落合駅前、石塚、二重坂）","town_kana":"サイジョウチョウハットリ(ミョウガ、スギノハラ、オチアイエキマエ、イシヅカ、ニジュウザカ)","prefecture_code":34},"5721":{"zip_code":"7295721","prefecture":"広島県","prefecture_kana":"ヒロシマケン","city":"庄原市","city_kana":"ショウバラシ","town":"西城町八鳥（その他）","town_kana":"サイジョウチョウハットリ(ソノタ)","prefecture_code":34},"5601":{"zip_code":"7295601","prefecture":"広島県","prefecture_kana":"ヒロシマケン","city":"庄原市","city_kana":"ショウバラシ","town":"西城町小鳥原","town_kana":"サイジョウチョウヒトトバラ","prefecture_code":34},"5723":{"zip_code":"7295723","prefecture":"広島県","prefecture_kana":"ヒロシマケン","city":"庄原市","city_kana":"ショウバラシ","town":"西城町平子","town_kana":"サイジョウチョウヒラコ","prefecture_code":34},"5745":{"zip_code":"7295745","prefecture":"広島県","prefecture_kana":"ヒロシマケン","city":"庄原市","city_kana":"ショウバラシ","town":"西城町福山","town_kana":"サイジョウチョウフクヤマ","prefecture_code":34},"5611":{"zip_code":"7295611","prefecture":"広島県","prefecture_kana":"ヒロシマケン","city":"庄原市","city_kana":"ショウバラシ","town":"西城町三坂","town_kana":"サイジョウチョウミサカ","prefecture_code":34},"5602":{"zip_code":"7295602","prefecture":"広島県","prefecture_kana":"ヒロシマケン","city":"庄原市","city_kana":"ショウバラシ","town":"西城町油木","town_kana":"サイジョウチョウユキ","prefecture_code":34},"3721":{"zip_code":"7293721","prefecture":"広島県","prefecture_kana":"ヒロシマケン","city":"庄原市","city_kana":"ショウバラシ","town":"総領町稲草","town_kana":"ソウリョウチョウイナクサ","prefecture_code":34},"3712":{"zip_code":"7293712","prefecture":"広島県","prefecture_kana":"ヒロシマケン","city":"庄原市","city_kana":"ショウバラシ","town":"総領町上領家","town_kana":"ソウリョウチョウカミリョウケ","prefecture_code":34},"3702":{"zip_code":"7293702","prefecture":"広島県","prefecture_kana":"ヒロシマケン","city":"庄原市","city_kana":"ショウバラシ","town":"総領町亀谷","town_kana":"ソウリョウチョウカメダニ","prefecture_code":34},"3722":{"zip_code":"7293722","prefecture":"広島県","prefecture_kana":"ヒロシマケン","city":"庄原市","city_kana":"ショウバラシ","town":"総領町木屋","town_kana":"ソウリョウチョウキヤ","prefecture_code":34},"3701":{"zip_code":"7293701","prefecture":"広島県","prefecture_kana":"ヒロシマケン","city":"庄原市","city_kana":"ショウバラシ","town":"総領町黒目","town_kana":"ソウリョウチョウクロメ","prefecture_code":34},"3711":{"zip_code":"7293711","prefecture":"広島県","prefecture_kana":"ヒロシマケン","city":"庄原市","city_kana":"ショウバラシ","town":"総領町五箇","town_kana":"ソウリョウチョウゴカ","prefecture_code":34},"3703":{"zip_code":"7293703","prefecture":"広島県","prefecture_kana":"ヒロシマケン","city":"庄原市","city_kana":"ショウバラシ","town":"総領町下領家","town_kana":"ソウリョウチョウシモリョウケ","prefecture_code":34},"3713":{"zip_code":"7293713","prefecture":"広島県","prefecture_kana":"ヒロシマケン","city":"庄原市","city_kana":"ショウバラシ","town":"総領町中領家","town_kana":"ソウリョウチョウナカリョウケ","prefecture_code":34},"5811":{"zip_code":"7295811","prefecture":"広島県","prefecture_kana":"ヒロシマケン","city":"庄原市","city_kana":"ショウバラシ","town":"高町","town_kana":"タカマチ","prefecture_code":34},"5127":{"zip_code":"7295127","prefecture":"広島県","prefecture_kana":"ヒロシマケン","city":"庄原市","city_kana":"ショウバラシ","town":"東城町粟田","town_kana":"トウジョウチョウアワタ","prefecture_code":34},"5128":{"zip_code":"7295128","prefecture":"広島県","prefecture_kana":"ヒロシマケン","city":"庄原市","city_kana":"ショウバラシ","town":"東城町受原（隠地、中ノ谷）","town_kana":"トウジョウチョウウケバラ(オンジ、ナカノタニ)","prefecture_code":34},"5453":{"zip_code":"7295453","prefecture":"広島県","prefecture_kana":"ヒロシマケン","city":"庄原市","city_kana":"ショウバラシ","town":"東城町受原（その他）","town_kana":"トウジョウチョウウケバラ(ソノタ)","prefecture_code":34},"5502":{"zip_code":"7295502","prefecture":"広島県","prefecture_kana":"ヒロシマケン","city":"庄原市","city_kana":"ショウバラシ","town":"東城町内堀","town_kana":"トウジョウチョウウツボリ","prefecture_code":34},"5504":{"zip_code":"7295504","prefecture":"広島県","prefecture_kana":"ヒロシマケン","city":"庄原市","city_kana":"ショウバラシ","town":"東城町小串","town_kana":"トウジョウチョウオグシ","prefecture_code":34},"5501":{"zip_code":"7295501","prefecture":"広島県","prefecture_kana":"ヒロシマケン","city":"庄原市","city_kana":"ショウバラシ","town":"東城町小奴可","town_kana":"トウジョウチョウオヌカ","prefecture_code":34},"5506":{"zip_code":"7295506","prefecture":"広島県","prefecture_kana":"ヒロシマケン","city":"庄原市","city_kana":"ショウバラシ","town":"東城町加谷","town_kana":"トウジョウチョウカダニ","prefecture_code":34},"5454":{"zip_code":"7295454","prefecture":"広島県","prefecture_kana":"ヒロシマケン","city":"庄原市","city_kana":"ショウバラシ","town":"東城町川鳥","town_kana":"トウジョウチョウカワトリ","prefecture_code":34},"5125":{"zip_code":"7295125","prefecture":"広島県","prefecture_kana":"ヒロシマケン","city":"庄原市","city_kana":"ショウバラシ","town":"東城町川西","town_kana":"トウジョウチョウカワニシ","prefecture_code":34},"5121":{"zip_code":"7295121","prefecture":"広島県","prefecture_kana":"ヒロシマケン","city":"庄原市","city_kana":"ショウバラシ","town":"東城町川東","town_kana":"トウジョウチョウカワヒガシ","prefecture_code":34},"5122":{"zip_code":"7295122","prefecture":"広島県","prefecture_kana":"ヒロシマケン","city":"庄原市","city_kana":"ショウバラシ","town":"東城町久代","town_kana":"トウジョウチョウクシロ","prefecture_code":34},"5505":{"zip_code":"7295505","prefecture":"広島県","prefecture_kana":"ヒロシマケン","city":"庄原市","city_kana":"ショウバラシ","town":"東城町塩原","town_kana":"トウジョウチョウシオハラ","prefecture_code":34},"5112":{"zip_code":"7295112","prefecture":"広島県","prefecture_kana":"ヒロシマケン","city":"庄原市","city_kana":"ショウバラシ","town":"東城町新福代","town_kana":"トウジョウチョウシンフクシロ","prefecture_code":34},"5131":{"zip_code":"7295131","prefecture":"広島県","prefecture_kana":"ヒロシマケン","city":"庄原市","city_kana":"ショウバラシ","town":"東城町新免","town_kana":"トウジョウチョウシンメン","prefecture_code":34},"5452":{"zip_code":"7295452","prefecture":"広島県","prefecture_kana":"ヒロシマケン","city":"庄原市","city_kana":"ショウバラシ","town":"東城町菅","town_kana":"トウジョウチョウスゲ","prefecture_code":34},"5241":{"zip_code":"7295241","prefecture":"広島県","prefecture_kana":"ヒロシマケン","city":"庄原市","city_kana":"ショウバラシ","town":"東城町帝釈宇山","town_kana":"トウジョウチョウタイシャクウヤマ","prefecture_code":34},"5243":{"zip_code":"7295243","prefecture":"広島県","prefecture_kana":"ヒロシマケン","city":"庄原市","city_kana":"ショウバラシ","town":"東城町帝釈始終","town_kana":"トウジョウチョウタイシャクシシュウ","prefecture_code":34},"5244":{"zip_code":"7295244","prefecture":"広島県","prefecture_kana":"ヒロシマケン","city":"庄原市","city_kana":"ショウバラシ","town":"東城町帝釈未渡","town_kana":"トウジョウチョウタイシャクミド","prefecture_code":34},"5242":{"zip_code":"7295242","prefecture":"広島県","prefecture_kana":"ヒロシマケン","city":"庄原市","city_kana":"ショウバラシ","town":"東城町帝釈山中","town_kana":"トウジョウチョウタイシャクヤマナカ","prefecture_code":34},"5451":{"zip_code":"7295451","prefecture":"広島県","prefecture_kana":"ヒロシマケン","city":"庄原市","city_kana":"ショウバラシ","town":"東城町田黒","town_kana":"トウジョウチョウタグロ","prefecture_code":34},"5126":{"zip_code":"7295126","prefecture":"広島県","prefecture_kana":"ヒロシマケン","city":"庄原市","city_kana":"ショウバラシ","town":"東城町竹森","town_kana":"トウジョウチョウタケモリ","prefecture_code":34},"5503":{"zip_code":"7295503","prefecture":"広島県","prefecture_kana":"ヒロシマケン","city":"庄原市","city_kana":"ショウバラシ","town":"東城町千鳥","town_kana":"トウジョウチョウチドリ","prefecture_code":34},"5123":{"zip_code":"7295123","prefecture":"広島県","prefecture_kana":"ヒロシマケン","city":"庄原市","city_kana":"ショウバラシ","town":"東城町戸宇","town_kana":"トウジョウチョウトウ","prefecture_code":34},"5124":{"zip_code":"7295124","prefecture":"広島県","prefecture_kana":"ヒロシマケン","city":"庄原市","city_kana":"ショウバラシ","town":"東城町東城","town_kana":"トウジョウチョウトウジョウ","prefecture_code":34},"5111":{"zip_code":"7295111","prefecture":"広島県","prefecture_kana":"ヒロシマケン","city":"庄原市","city_kana":"ショウバラシ","town":"東城町福代","town_kana":"トウジョウチョウフクシロ","prefecture_code":34},"5132":{"zip_code":"7295132","prefecture":"広島県","prefecture_kana":"ヒロシマケン","city":"庄原市","city_kana":"ショウバラシ","town":"東城町三坂","town_kana":"トウジョウチョウミサカ","prefecture_code":34},"5456":{"zip_code":"7295456","prefecture":"広島県","prefecture_kana":"ヒロシマケン","city":"庄原市","city_kana":"ショウバラシ","town":"東城町森","town_kana":"トウジョウチョウモリ","prefecture_code":34},"5455":{"zip_code":"7295455","prefecture":"広島県","prefecture_kana":"ヒロシマケン","city":"庄原市","city_kana":"ショウバラシ","town":"東城町保田","town_kana":"トウジョウチョウヤスダ","prefecture_code":34},"6133":{"zip_code":"7296133","prefecture":"広島県","prefecture_kana":"ヒロシマケン","city":"庄原市","city_kana":"ショウバラシ","town":"殿垣内町","town_kana":"トノゴウチチョウ","prefecture_code":34},"6144":{"zip_code":"7296144","prefecture":"広島県","prefecture_kana":"ヒロシマケン","city":"庄原市","city_kana":"ショウバラシ","town":"平和町","town_kana":"ヘイワチョウ","prefecture_code":34},"6132":{"zip_code":"7296132","prefecture":"広島県","prefecture_kana":"ヒロシマケン","city":"庄原市","city_kana":"ショウバラシ","town":"本郷町","town_kana":"ホンゴウチョウ","prefecture_code":34},"6141":{"zip_code":"7296141","prefecture":"広島県","prefecture_kana":"ヒロシマケン","city":"庄原市","city_kana":"ショウバラシ","town":"水越町","town_kana":"ミズコシチョウ","prefecture_code":34},"6131":{"zip_code":"7296131","prefecture":"広島県","prefecture_kana":"ヒロシマケン","city":"庄原市","city_kana":"ショウバラシ","town":"山内町","town_kana":"ヤマノウチチョウ","prefecture_code":34},"3306":{"zip_code":"7293306","prefecture":"広島県","prefecture_kana":"ヒロシマケン","city":"世羅郡世羅町","city_kana":"セラグンセラチョウ","town":"青近","town_kana":"アオチカ","prefecture_code":34},"3304":{"zip_code":"7293304","prefecture":"広島県","prefecture_kana":"ヒロシマケン","city":"世羅郡世羅町","city_kana":"セラグンセラチョウ","town":"赤屋","town_kana":"アカヤ","prefecture_code":34},"3307":{"zip_code":"7293307","prefecture":"広島県","prefecture_kana":"ヒロシマケン","city":"世羅郡世羅町","city_kana":"セラグンセラチョウ","town":"伊尾","town_kana":"イオ","prefecture_code":34},"3301":{"zip_code":"7293301","prefecture":"広島県","prefecture_kana":"ヒロシマケン","city":"世羅郡世羅町","city_kana":"セラグンセラチョウ","town":"小谷","town_kana":"オタニ","prefecture_code":34},"6714":{"zip_code":"7296714","prefecture":"広島県","prefecture_kana":"ヒロシマケン","city":"世羅郡世羅町","city_kana":"セラグンセラチョウ","town":"上津田","town_kana":"カミヅタ","prefecture_code":34},"3302":{"zip_code":"7293302","prefecture":"広島県","prefecture_kana":"ヒロシマケン","city":"世羅郡世羅町","city_kana":"セラグンセラチョウ","town":"川尻","town_kana":"カワシリ","prefecture_code":34},"6711":{"zip_code":"7296711","prefecture":"広島県","prefecture_kana":"ヒロシマケン","city":"世羅郡世羅町","city_kana":"セラグンセラチョウ","town":"黒川","town_kana":"クロガワ","prefecture_code":34},"6715":{"zip_code":"7296715","prefecture":"広島県","prefecture_kana":"ヒロシマケン","city":"世羅郡世羅町","city_kana":"セラグンセラチョウ","town":"下津田","town_kana":"シモヅタ","prefecture_code":34},"6713":{"zip_code":"7296713","prefecture":"広島県","prefecture_kana":"ヒロシマケン","city":"世羅郡世羅町","city_kana":"セラグンセラチョウ","town":"中","town_kana":"ナカ","prefecture_code":34},"6716":{"zip_code":"7296716","prefecture":"広島県","prefecture_kana":"ヒロシマケン","city":"世羅郡世羅町","city_kana":"セラグンセラチョウ","town":"長田","town_kana":"ナガタ","prefecture_code":34},"3303":{"zip_code":"7293303","prefecture":"広島県","prefecture_kana":"ヒロシマケン","city":"世羅郡世羅町","city_kana":"セラグンセラチョウ","town":"東上原","town_kana":"ヒガシウエハラ","prefecture_code":34},"3305":{"zip_code":"7293305","prefecture":"広島県","prefecture_kana":"ヒロシマケン","city":"世羅郡世羅町","city_kana":"セラグンセラチョウ","town":"別迫","town_kana":"ベッサコ","prefecture_code":34},"6712":{"zip_code":"7296712","prefecture":"広島県","prefecture_kana":"ヒロシマケン","city":"世羅郡世羅町","city_kana":"セラグンセラチョウ","town":"吉原","town_kana":"ヨシワラ","prefecture_code":34},"3601":{"zip_code":"7293601","prefecture":"広島県","prefecture_kana":"ヒロシマケン","city":"神石郡神石高原町","city_kana":"ジンセキグンジンセキコウゲンチョウ","town":"相渡","town_kana":"アイド","prefecture_code":34},"3512":{"zip_code":"7293512","prefecture":"広島県","prefecture_kana":"ヒロシマケン","city":"神石郡神石高原町","city_kana":"ジンセキグンジンセキコウゲンチョウ","town":"草木","town_kana":"クサギ","prefecture_code":34},"3511":{"zip_code":"7293511","prefecture":"広島県","prefecture_kana":"ヒロシマケン","city":"神石郡神石高原町","city_kana":"ジンセキグンジンセキコウゲンチョウ","town":"高光","town_kana":"タカミツ","prefecture_code":34},"3514":{"zip_code":"7293514","prefecture":"広島県","prefecture_kana":"ヒロシマケン","city":"神石郡神石高原町","city_kana":"ジンセキグンジンセキコウゲンチョウ","town":"田頭","town_kana":"タンドウ","prefecture_code":34},"3602":{"zip_code":"7293602","prefecture":"広島県","prefecture_kana":"ヒロシマケン","city":"神石郡神石高原町","city_kana":"ジンセキグンジンセキコウゲンチョウ","town":"永野","town_kana":"ナガノ","prefecture_code":34},"3515":{"zip_code":"7293515","prefecture":"広島県","prefecture_kana":"ヒロシマケン","city":"神石郡神石高原町","city_kana":"ジンセキグンジンセキコウゲンチョウ","town":"福永","town_kana":"フクナガ","prefecture_code":34},"3516":{"zip_code":"7293516","prefecture":"広島県","prefecture_kana":"ヒロシマケン","city":"神石郡神石高原町","city_kana":"ジンセキグンジンセキコウゲンチョウ","town":"古川","town_kana":"フルカワ","prefecture_code":34},"3513":{"zip_code":"7293513","prefecture":"広島県","prefecture_kana":"ヒロシマケン","city":"神石郡神石高原町","city_kana":"ジンセキグンジンセキコウゲンチョウ","town":"牧","town_kana":"マキ","prefecture_code":34}}