{"0000":{"zip_code":"7300000","prefecture":"広島県","prefecture_kana":"ヒロシマケン","city":"広島市中区","city_kana":"ヒロシマシナカク","town":"","town_kana":"","prefecture_code":34},"0851":{"zip_code":"7300851","prefecture":"広島県","prefecture_kana":"ヒロシマケン","city":"広島市中区","city_kana":"ヒロシマシナカク","town":"榎町","town_kana":"エノマチ","prefecture_code":34},"0837":{"zip_code":"7300837","prefecture":"広島県","prefecture_kana":"ヒロシマケン","city":"広島市中区","city_kana":"ヒロシマシナカク","town":"江波沖町","town_kana":"エバオキマチ","prefecture_code":34},"0836":{"zip_code":"7300836","prefecture":"広島県","prefecture_kana":"ヒロシマケン","city":"広島市中区","city_kana":"ヒロシマシナカク","town":"江波栄町","town_kana":"エバサカエマチ","prefecture_code":34},"0834":{"zip_code":"7300834","prefecture":"広島県","prefecture_kana":"ヒロシマケン","city":"広島市中区","city_kana":"ヒロシマシナカク","town":"江波二本松","town_kana":"エバニホンマツ","prefecture_code":34},"0833":{"zip_code":"7300833","prefecture":"広島県","prefecture_kana":"ヒロシマケン","city":"広島市中区","city_kana":"ヒロシマシナカク","town":"江波本町","town_kana":"エバホンマチ","prefecture_code":34},"0832":{"zip_code":"7300832","prefecture":"広島県","prefecture_kana":"ヒロシマケン","city":"広島市中区","city_kana":"ヒロシマシナカク","town":"江波東","town_kana":"エバヒガシ","prefecture_code":34},"0831":{"zip_code":"7300831","prefecture":"広島県","prefecture_kana":"ヒロシマケン","city":"広島市中区","city_kana":"ヒロシマシナカク","town":"江波西","town_kana":"エバニシ","prefecture_code":34},"0835":{"zip_code":"7300835","prefecture":"広島県","prefecture_kana":"ヒロシマケン","city":"広島市中区","city_kana":"ヒロシマシナカク","town":"江波南","town_kana":"エバミナミ","prefecture_code":34},"0021":{"zip_code":"7300021","prefecture":"広島県","prefecture_kana":"ヒロシマケン","city":"広島市中区","city_kana":"ヒロシマシナカク","town":"胡町","town_kana":"エビスチョウ","prefecture_code":34},"0051":{"zip_code":"7300051","prefecture":"広島県","prefecture_kana":"ヒロシマケン","city":"広島市中区","city_kana":"ヒロシマシナカク","town":"大手町","town_kana":"オオテマチ","prefecture_code":34},"0812":{"zip_code":"7300812","prefecture":"広島県","prefecture_kana":"ヒロシマケン","city":"広島市中区","city_kana":"ヒロシマシナカク","town":"加古町","town_kana":"カコマチ","prefecture_code":34},"0022":{"zip_code":"7300022","prefecture":"広島県","prefecture_kana":"ヒロシマケン","city":"広島市中区","city_kana":"ヒロシマシナカク","town":"銀山町","town_kana":"カナヤマチョウ","prefecture_code":34},"0014":{"zip_code":"7300014","prefecture":"広島県","prefecture_kana":"ヒロシマケン","city":"広島市中区","city_kana":"ヒロシマシナカク","town":"上幟町","town_kana":"カミノボリチョウ","prefecture_code":34},"0012":{"zip_code":"7300012","prefecture":"広島県","prefecture_kana":"ヒロシマケン","city":"広島市中区","city_kana":"ヒロシマシナカク","town":"上八丁堀","town_kana":"カミハッチョウボリ","prefecture_code":34},"0031":{"zip_code":"7300031","prefecture":"広島県","prefecture_kana":"ヒロシマケン","city":"広島市中区","city_kana":"ヒロシマシナカク","town":"紙屋町","town_kana":"カミヤチョウ","prefecture_code":34},"0856":{"zip_code":"7300856","prefecture":"広島県","prefecture_kana":"ヒロシマケン","city":"広島市中区","city_kana":"ヒロシマシナカク","town":"河原町","town_kana":"カワラマチ","prefecture_code":34},"0855":{"zip_code":"7300855","prefecture":"広島県","prefecture_kana":"ヒロシマケン","city":"広島市中区","city_kana":"ヒロシマシナカク","town":"小網町","town_kana":"コアミチョウ","prefecture_code":34},"0825":{"zip_code":"7300825","prefecture":"広島県","prefecture_kana":"ヒロシマケン","city":"広島市中区","city_kana":"ヒロシマシナカク","town":"光南","town_kana":"コウナン","prefecture_code":34},"0042":{"zip_code":"7300042","prefecture":"広島県","prefecture_kana":"ヒロシマケン","city":"広島市中区","city_kana":"ヒロシマシナカク","town":"国泰寺町","town_kana":"コクタイジマチ","prefecture_code":34},"0041":{"zip_code":"7300041","prefecture":"広島県","prefecture_kana":"ヒロシマケン","city":"広島市中区","city_kana":"ヒロシマシナカク","town":"小町","town_kana":"コマチ","prefecture_code":34},"0853":{"zip_code":"7300853","prefecture":"広島県","prefecture_kana":"ヒロシマケン","city":"広島市中区","city_kana":"ヒロシマシナカク","town":"堺町","town_kana":"サカイマチ","prefecture_code":34},"0046":{"zip_code":"7300046","prefecture":"広島県","prefecture_kana":"ヒロシマケン","city":"広島市中区","city_kana":"ヒロシマシナカク","town":"昭和町","town_kana":"ショウワマチ","prefecture_code":34},"0034":{"zip_code":"7300034","prefecture":"広島県","prefecture_kana":"ヒロシマケン","city":"広島市中区","city_kana":"ヒロシマシナカク","town":"新天地","town_kana":"シンテンチ","prefecture_code":34},"0813":{"zip_code":"7300813","prefecture":"広島県","prefecture_kana":"ヒロシマケン","city":"広島市中区","city_kana":"ヒロシマシナカク","town":"住吉町","town_kana":"スミヨシチョウ","prefecture_code":34},"0052":{"zip_code":"7300052","prefecture":"広島県","prefecture_kana":"ヒロシマケン","city":"広島市中区","city_kana":"ヒロシマシナカク","town":"千田町","town_kana":"センダマチ","prefecture_code":34},"0044":{"zip_code":"7300044","prefecture":"広島県","prefecture_kana":"ヒロシマケン","city":"広島市中区","city_kana":"ヒロシマシナカク","town":"宝町","town_kana":"タカラマチ","prefecture_code":34},"0048":{"zip_code":"7300048","prefecture":"広島県","prefecture_kana":"ヒロシマケン","city":"広島市中区","city_kana":"ヒロシマシナカク","town":"竹屋町","town_kana":"タケヤチョウ","prefecture_code":34},"0032":{"zip_code":"7300032","prefecture":"広島県","prefecture_kana":"ヒロシマケン","city":"広島市中区","city_kana":"ヒロシマシナカク","town":"立町","town_kana":"タテマチ","prefecture_code":34},"0026":{"zip_code":"7300026","prefecture":"広島県","prefecture_kana":"ヒロシマケン","city":"広島市中区","city_kana":"ヒロシマシナカク","town":"田中町","town_kana":"タナカマチ","prefecture_code":34},"0045":{"zip_code":"7300045","prefecture":"広島県","prefecture_kana":"ヒロシマケン","city":"広島市中区","city_kana":"ヒロシマシナカク","town":"鶴見町","town_kana":"ツルミチョウ","prefecture_code":34},"0017":{"zip_code":"7300017","prefecture":"広島県","prefecture_kana":"ヒロシマケン","city":"広島市中区","city_kana":"ヒロシマシナカク","town":"鉄砲町","town_kana":"テッポウチョウ","prefecture_code":34},"0801":{"zip_code":"7300801","prefecture":"広島県","prefecture_kana":"ヒロシマケン","city":"広島市中区","city_kana":"ヒロシマシナカク","town":"寺町","town_kana":"テラマチ","prefecture_code":34},"0805":{"zip_code":"7300805","prefecture":"広島県","prefecture_kana":"ヒロシマケン","city":"広島市中区","city_kana":"ヒロシマシナカク","town":"十日市町","town_kana":"トウカイチマチ","prefecture_code":34},"0854":{"zip_code":"7300854","prefecture":"広島県","prefecture_kana":"ヒロシマケン","city":"広島市中区","city_kana":"ヒロシマシナカク","town":"土橋町","town_kana":"ドハシチョウ","prefecture_code":34},"0811":{"zip_code":"7300811","prefecture":"広島県","prefecture_kana":"ヒロシマケン","city":"広島市中区","city_kana":"ヒロシマシナカク","town":"中島町","town_kana":"ナカジマチョウ","prefecture_code":34},"0037":{"zip_code":"7300037","prefecture":"広島県","prefecture_kana":"ヒロシマケン","city":"広島市中区","city_kana":"ヒロシマシナカク","town":"中町","town_kana":"ナカマチ","prefecture_code":34},"0028":{"zip_code":"7300028","prefecture":"広島県","prefecture_kana":"ヒロシマケン","city":"広島市中区","city_kana":"ヒロシマシナカク","town":"流川町","town_kana":"ナガレカワチョウ","prefecture_code":34},"0846":{"zip_code":"7300846","prefecture":"広島県","prefecture_kana":"ヒロシマケン","city":"広島市中区","city_kana":"ヒロシマシナカク","town":"西川口町","town_kana":"ニシカワグチチョウ","prefecture_code":34},"0806":{"zip_code":"7300806","prefecture":"広島県","prefecture_kana":"ヒロシマケン","city":"広島市中区","city_kana":"ヒロシマシナカク","town":"西十日市町","town_kana":"ニシトウカイチマチ","prefecture_code":34},"0005":{"zip_code":"7300005","prefecture":"広島県","prefecture_kana":"ヒロシマケン","city":"広島市中区","city_kana":"ヒロシマシナカク","town":"西白島町","town_kana":"ニシハクシマチョウ","prefecture_code":34},"0024":{"zip_code":"7300024","prefecture":"広島県","prefecture_kana":"ヒロシマケン","city":"広島市中区","city_kana":"ヒロシマシナカク","town":"西平塚町","town_kana":"ニシヒラツカチョウ","prefecture_code":34},"0852":{"zip_code":"7300852","prefecture":"広島県","prefecture_kana":"ヒロシマケン","city":"広島市中区","city_kana":"ヒロシマシナカク","town":"猫屋町","town_kana":"ネコヤチョウ","prefecture_code":34},"0016":{"zip_code":"7300016","prefecture":"広島県","prefecture_kana":"ヒロシマケン","city":"広島市中区","city_kana":"ヒロシマシナカク","town":"幟町","town_kana":"ノボリチョウ","prefecture_code":34},"0001":{"zip_code":"7300001","prefecture":"広島県","prefecture_kana":"ヒロシマケン","city":"広島市中区","city_kana":"ヒロシマシナカク","town":"白島北町","town_kana":"ハクシマキタマチ","prefecture_code":34},"0003":{"zip_code":"7300003","prefecture":"広島県","prefecture_kana":"ヒロシマケン","city":"広島市中区","city_kana":"ヒロシマシナカク","town":"白島九軒町","town_kana":"ハクシマクケンチョウ","prefecture_code":34},"0002":{"zip_code":"7300002","prefecture":"広島県","prefecture_kana":"ヒロシマケン","city":"広島市中区","city_kana":"ヒロシマシナカク","town":"白島中町","town_kana":"ハクシマナカマチ","prefecture_code":34},"0814":{"zip_code":"7300814","prefecture":"広島県","prefecture_kana":"ヒロシマケン","city":"広島市中区","city_kana":"ヒロシマシナカク","town":"羽衣町","town_kana":"ハゴロモチョウ","prefecture_code":34},"0015":{"zip_code":"7300015","prefecture":"広島県","prefecture_kana":"ヒロシマケン","city":"広島市中区","city_kana":"ヒロシマシナカク","town":"橋本町","town_kana":"ハシモトチョウ","prefecture_code":34},"0013":{"zip_code":"7300013","prefecture":"広島県","prefecture_kana":"ヒロシマケン","city":"広島市中区","city_kana":"ヒロシマシナカク","town":"八丁堀","town_kana":"ハッチョウボリ","prefecture_code":34},"0053":{"zip_code":"7300053","prefecture":"広島県","prefecture_kana":"ヒロシマケン","city":"広島市中区","city_kana":"ヒロシマシナカク","town":"東千田町","town_kana":"ヒガシセンダマチ","prefecture_code":34},"0004":{"zip_code":"7300004","prefecture":"広島県","prefecture_kana":"ヒロシマケン","city":"広島市中区","city_kana":"ヒロシマシナカク","town":"東白島町","town_kana":"ヒガシハクシマチョウ","prefecture_code":34},"0025":{"zip_code":"7300025","prefecture":"広島県","prefecture_kana":"ヒロシマケン","city":"広島市中区","city_kana":"ヒロシマシナカク","town":"東平塚町","town_kana":"ヒガシヒラツカチョウ","prefecture_code":34},"0047":{"zip_code":"7300047","prefecture":"広島県","prefecture_kana":"ヒロシマケン","city":"広島市中区","city_kana":"ヒロシマシナカク","town":"平野町","town_kana":"ヒラノマチ","prefecture_code":34},"0803":{"zip_code":"7300803","prefecture":"広島県","prefecture_kana":"ヒロシマケン","city":"広島市中区","city_kana":"ヒロシマシナカク","town":"広瀬北町","town_kana":"ヒロセキタマチ","prefecture_code":34},"0804":{"zip_code":"7300804","prefecture":"広島県","prefecture_kana":"ヒロシマケン","city":"広島市中区","city_kana":"ヒロシマシナカク","town":"広瀬町","town_kana":"ヒロセマチ","prefecture_code":34},"0036":{"zip_code":"7300036","prefecture":"広島県","prefecture_kana":"ヒロシマケン","city":"広島市中区","city_kana":"ヒロシマシナカク","town":"袋町","town_kana":"フクロマチ","prefecture_code":34},"0043":{"zip_code":"7300043","prefecture":"広島県","prefecture_kana":"ヒロシマケン","city":"広島市中区","city_kana":"ヒロシマシナカク","town":"富士見町","town_kana":"フジミチョウ","prefecture_code":34},"0845":{"zip_code":"7300845","prefecture":"広島県","prefecture_kana":"ヒロシマケン","city":"広島市中区","city_kana":"ヒロシマシナカク","town":"舟入川口町","town_kana":"フナイリカワグチチョウ","prefecture_code":34},"0844":{"zip_code":"7300844","prefecture":"広島県","prefecture_kana":"ヒロシマケン","city":"広島市中区","city_kana":"ヒロシマシナカク","town":"舟入幸町","town_kana":"フナイリサイワイチョウ","prefecture_code":34},"0842":{"zip_code":"7300842","prefecture":"広島県","prefecture_kana":"ヒロシマケン","city":"広島市中区","city_kana":"ヒロシマシナカク","town":"舟入中町","town_kana":"フナイリナカマチ","prefecture_code":34},"0843":{"zip_code":"7300843","prefecture":"広島県","prefecture_kana":"ヒロシマケン","city":"広島市中区","city_kana":"ヒロシマシナカク","town":"舟入本町","town_kana":"フナイリホンマチ","prefecture_code":34},"0847":{"zip_code":"7300847","prefecture":"広島県","prefecture_kana":"ヒロシマケン","city":"広島市中区","city_kana":"ヒロシマシナカク","town":"舟入南","town_kana":"フナイリミナミ","prefecture_code":34},"0841":{"zip_code":"7300841","prefecture":"広島県","prefecture_kana":"ヒロシマケン","city":"広島市中区","city_kana":"ヒロシマシナカク","town":"舟入町","town_kana":"フナイリマチ","prefecture_code":34},"0033":{"zip_code":"7300033","prefecture":"広島県","prefecture_kana":"ヒロシマケン","city":"広島市中区","city_kana":"ヒロシマシナカク","town":"堀川町","town_kana":"ホリカワチョウ","prefecture_code":34},"0802":{"zip_code":"7300802","prefecture":"広島県","prefecture_kana":"ヒロシマケン","city":"広島市中区","city_kana":"ヒロシマシナカク","town":"本川町","town_kana":"ホンカワチョウ","prefecture_code":34},"0035":{"zip_code":"7300035","prefecture":"広島県","prefecture_kana":"ヒロシマケン","city":"広島市中区","city_kana":"ヒロシマシナカク","town":"本通","town_kana":"ホンドオリ","prefecture_code":34},"0029":{"zip_code":"7300029","prefecture":"広島県","prefecture_kana":"ヒロシマケン","city":"広島市中区","city_kana":"ヒロシマシナカク","town":"三川町","town_kana":"ミカワチョウ","prefecture_code":34},"0054":{"zip_code":"7300054","prefecture":"広島県","prefecture_kana":"ヒロシマケン","city":"広島市中区","city_kana":"ヒロシマシナカク","town":"南千田東町","town_kana":"ミナミセンダヒガシマチ","prefecture_code":34},"0055":{"zip_code":"7300055","prefecture":"広島県","prefecture_kana":"ヒロシマケン","city":"広島市中区","city_kana":"ヒロシマシナカク","town":"南千田西町","town_kana":"ミナミセンダニシマチ","prefecture_code":34},"0049":{"zip_code":"7300049","prefecture":"広島県","prefecture_kana":"ヒロシマケン","city":"広島市中区","city_kana":"ヒロシマシナカク","town":"南竹屋町","town_kana":"ミナミタケヤチョウ","prefecture_code":34},"0826":{"zip_code":"7300826","prefecture":"広島県","prefecture_kana":"ヒロシマケン","city":"広島市中区","city_kana":"ヒロシマシナカク","town":"南吉島","town_kana":"ミナミヨシジマ","prefecture_code":34},"0011":{"zip_code":"7300011","prefecture":"広島県","prefecture_kana":"ヒロシマケン","city":"広島市中区","city_kana":"ヒロシマシナカク","town":"基町","town_kana":"モトマチ","prefecture_code":34},"0027":{"zip_code":"7300027","prefecture":"広島県","prefecture_kana":"ヒロシマケン","city":"広島市中区","city_kana":"ヒロシマシナカク","town":"薬研堀","town_kana":"ヤゲンボリ","prefecture_code":34},"0023":{"zip_code":"7300023","prefecture":"広島県","prefecture_kana":"ヒロシマケン","city":"広島市中区","city_kana":"ヒロシマシナカク","town":"弥生町","town_kana":"ヤヨイチョウ","prefecture_code":34},"0824":{"zip_code":"7300824","prefecture":"広島県","prefecture_kana":"ヒロシマケン","city":"広島市中区","city_kana":"ヒロシマシナカク","town":"吉島新町","town_kana":"ヨシジマシンマチ","prefecture_code":34},"0822":{"zip_code":"7300822","prefecture":"広島県","prefecture_kana":"ヒロシマケン","city":"広島市中区","city_kana":"ヒロシマシナカク","town":"吉島東","town_kana":"ヨシジマヒガシ","prefecture_code":34},"0823":{"zip_code":"7300823","prefecture":"広島県","prefecture_kana":"ヒロシマケン","city":"広島市中区","city_kana":"ヒロシマシナカク","town":"吉島西","town_kana":"ヨシジマニシ","prefecture_code":34},"0821":{"zip_code":"7300821","prefecture":"広島県","prefecture_kana":"ヒロシマケン","city":"広島市中区","city_kana":"ヒロシマシナカク","town":"吉島町","town_kana":"ヨシジマチョウ","prefecture_code":34}}