{"0100":{"zip_code":"7310100","prefecture":"広島県","prefecture_kana":"ヒロシマケン","city":"広島市安佐南区","city_kana":"ヒロシマシアサミナミク","town":"","town_kana":"","prefecture_code":34},"0141":{"zip_code":"7310141","prefecture":"広島県","prefecture_kana":"ヒロシマケン","city":"広島市安佐南区","city_kana":"ヒロシマシアサミナミク","town":"相田","town_kana":"アイタ","prefecture_code":34},"3166":{"zip_code":"7313166","prefecture":"広島県","prefecture_kana":"ヒロシマケン","city":"広島市安佐南区","city_kana":"ヒロシマシアサミナミク","town":"大塚東","town_kana":"オオヅカヒガシ","prefecture_code":34},"3173":{"zip_code":"7313173","prefecture":"広島県","prefecture_kana":"ヒロシマケン","city":"広島市安佐南区","city_kana":"ヒロシマシアサミナミク","town":"大塚東町","town_kana":"オオヅカヒガシマチ","prefecture_code":34},"3167":{"zip_code":"7313167","prefecture":"広島県","prefecture_kana":"ヒロシマケン","city":"広島市安佐南区","city_kana":"ヒロシマシアサミナミク","town":"大塚西","town_kana":"オオヅカニシ","prefecture_code":34},"3174":{"zip_code":"7313174","prefecture":"広島県","prefecture_kana":"ヒロシマケン","city":"広島市安佐南区","city_kana":"ヒロシマシアサミナミク","town":"大塚西町","town_kana":"オオヅカニシマチ","prefecture_code":34},"0126":{"zip_code":"7310126","prefecture":"広島県","prefecture_kana":"ヒロシマケン","city":"広島市安佐南区","city_kana":"ヒロシマシアサミナミク","town":"大町","town_kana":"オオマチ","prefecture_code":34},"0124":{"zip_code":"7310124","prefecture":"広島県","prefecture_kana":"ヒロシマケン","city":"広島市安佐南区","city_kana":"ヒロシマシアサミナミク","town":"大町東","town_kana":"オオマチヒガシ","prefecture_code":34},"0125":{"zip_code":"7310125","prefecture":"広島県","prefecture_kana":"ヒロシマケン","city":"広島市安佐南区","city_kana":"ヒロシマシアサミナミク","town":"大町西","town_kana":"オオマチニシ","prefecture_code":34},"0154":[{"zip_code":"7310154","prefecture":"広島県","prefecture_kana":"ヒロシマケン","city":"広島市安佐南区","city_kana":"ヒロシマシアサミナミク","town":"上安","town_kana":"カミヤス","prefecture_code":34},{"zip_code":"7310154","prefecture":"広島県","prefecture_kana":"ヒロシマケン","city":"広島市安佐南区","city_kana":"ヒロシマシアサミナミク","town":"上安町","town_kana":"カミヤスチョウ","prefecture_code":34}],"0102":{"zip_code":"7310102","prefecture":"広島県","prefecture_kana":"ヒロシマケン","city":"広島市安佐南区","city_kana":"ヒロシマシアサミナミク","town":"川内","town_kana":"カワウチ","prefecture_code":34},"0138":{"zip_code":"7310138","prefecture":"広島県","prefecture_kana":"ヒロシマケン","city":"広島市安佐南区","city_kana":"ヒロシマシアサミナミク","town":"祇園","town_kana":"ギオン","prefecture_code":34},"0142":[{"zip_code":"7310142","prefecture":"広島県","prefecture_kana":"ヒロシマケン","city":"広島市安佐南区","city_kana":"ヒロシマシアサミナミク","town":"高取南","town_kana":"タカトリミナミ","prefecture_code":34},{"zip_code":"7310142","prefecture":"広島県","prefecture_kana":"ヒロシマケン","city":"広島市安佐南区","city_kana":"ヒロシマシアサミナミク","town":"高取南町","town_kana":"タカトリミナミマチ","prefecture_code":34}],"0144":{"zip_code":"7310144","prefecture":"広島県","prefecture_kana":"ヒロシマケン","city":"広島市安佐南区","city_kana":"ヒロシマシアサミナミク","town":"高取北","town_kana":"タカトリキタ","prefecture_code":34},"0143":[{"zip_code":"7310143","prefecture":"広島県","prefecture_kana":"ヒロシマケン","city":"広島市安佐南区","city_kana":"ヒロシマシアサミナミク","town":"長楽寺","town_kana":"チョウラクジ","prefecture_code":34},{"zip_code":"7310143","prefecture":"広島県","prefecture_kana":"ヒロシマケン","city":"広島市安佐南区","city_kana":"ヒロシマシアサミナミク","town":"長楽寺町","town_kana":"チョウラクジチョウ","prefecture_code":34}],"3163":{"zip_code":"7313163","prefecture":"広島県","prefecture_kana":"ヒロシマケン","city":"広島市安佐南区","city_kana":"ヒロシマシアサミナミク","town":"伴北","town_kana":"トモキタ","prefecture_code":34},"3171":{"zip_code":"7313171","prefecture":"広島県","prefecture_kana":"ヒロシマケン","city":"広島市安佐南区","city_kana":"ヒロシマシアサミナミク","town":"伴北町","town_kana":"トモキタマチ","prefecture_code":34},"3165":{"zip_code":"7313165","prefecture":"広島県","prefecture_kana":"ヒロシマケン","city":"広島市安佐南区","city_kana":"ヒロシマシアサミナミク","town":"伴中央","town_kana":"トモチュウオウ","prefecture_code":34},"3169":{"zip_code":"7313169","prefecture":"広島県","prefecture_kana":"ヒロシマケン","city":"広島市安佐南区","city_kana":"ヒロシマシアサミナミク","town":"伴西","town_kana":"トモニシ","prefecture_code":34},"3175":{"zip_code":"7313175","prefecture":"広島県","prefecture_kana":"ヒロシマケン","city":"広島市安佐南区","city_kana":"ヒロシマシアサミナミク","town":"伴西町","town_kana":"トモニシマチ","prefecture_code":34},"3164":{"zip_code":"7313164","prefecture":"広島県","prefecture_kana":"ヒロシマケン","city":"広島市安佐南区","city_kana":"ヒロシマシアサミナミク","town":"伴東","town_kana":"トモヒガシ","prefecture_code":34},"3172":{"zip_code":"7313172","prefecture":"広島県","prefecture_kana":"ヒロシマケン","city":"広島市安佐南区","city_kana":"ヒロシマシアサミナミク","town":"伴東町","town_kana":"トモヒガシマチ","prefecture_code":34},"3168":{"zip_code":"7313168","prefecture":"広島県","prefecture_kana":"ヒロシマケン","city":"広島市安佐南区","city_kana":"ヒロシマシアサミナミク","town":"伴南","town_kana":"トモミナミ","prefecture_code":34},"0121":{"zip_code":"7310121","prefecture":"広島県","prefecture_kana":"ヒロシマケン","city":"広島市安佐南区","city_kana":"ヒロシマシアサミナミク","town":"中須","town_kana":"ナカス","prefecture_code":34},"0122":{"zip_code":"7310122","prefecture":"広島県","prefecture_kana":"ヒロシマケン","city":"広島市安佐南区","city_kana":"ヒロシマシアサミナミク","town":"中筋","town_kana":"ナカスジ","prefecture_code":34},"0135":{"zip_code":"7310135","prefecture":"広島県","prefecture_kana":"ヒロシマケン","city":"広島市安佐南区","city_kana":"ヒロシマシアサミナミク","town":"長束","town_kana":"ナガツカ","prefecture_code":34},"0136":{"zip_code":"7310136","prefecture":"広島県","prefecture_kana":"ヒロシマケン","city":"広島市安佐南区","city_kana":"ヒロシマシアサミナミク","town":"長束西","town_kana":"ナガツカニシ","prefecture_code":34},"0113":{"zip_code":"7310113","prefecture":"広島県","prefecture_kana":"ヒロシマケン","city":"広島市安佐南区","city_kana":"ヒロシマシアサミナミク","town":"西原","town_kana":"ニシハラ","prefecture_code":34},"3271":{"zip_code":"7313271","prefecture":"広島県","prefecture_kana":"ヒロシマケン","city":"広島市安佐南区","city_kana":"ヒロシマシアサミナミク","town":"沼田町阿戸","town_kana":"ヌマタチョウアト","prefecture_code":34},"3161":{"zip_code":"7313161","prefecture":"広島県","prefecture_kana":"ヒロシマケン","city":"広島市安佐南区","city_kana":"ヒロシマシアサミナミク","town":"沼田町伴","town_kana":"ヌマタチョウトモ","prefecture_code":34},"3272":{"zip_code":"7313272","prefecture":"広島県","prefecture_kana":"ヒロシマケン","city":"広島市安佐南区","city_kana":"ヒロシマシアサミナミク","town":"沼田町吉山","town_kana":"ヌマタチョウヨシヤマ","prefecture_code":34},"0111":{"zip_code":"7310111","prefecture":"広島県","prefecture_kana":"ヒロシマケン","city":"広島市安佐南区","city_kana":"ヒロシマシアサミナミク","town":"東野","town_kana":"ヒガシノ","prefecture_code":34},"0112":{"zip_code":"7310112","prefecture":"広島県","prefecture_kana":"ヒロシマケン","city":"広島市安佐南区","city_kana":"ヒロシマシアサミナミク","town":"東原","town_kana":"ヒガシハラ","prefecture_code":34},"0152":{"zip_code":"7310152","prefecture":"広島県","prefecture_kana":"ヒロシマケン","city":"広島市安佐南区","city_kana":"ヒロシマシアサミナミク","town":"毘沙門台","town_kana":"ビシャモンダイ","prefecture_code":34},"0151":{"zip_code":"7310151","prefecture":"広島県","prefecture_kana":"ヒロシマケン","city":"広島市安佐南区","city_kana":"ヒロシマシアサミナミク","town":"毘沙門台東","town_kana":"ビシャモンダイヒガシ","prefecture_code":34},"0123":{"zip_code":"7310123","prefecture":"広島県","prefecture_kana":"ヒロシマケン","city":"広島市安佐南区","city_kana":"ヒロシマシアサミナミク","town":"古市","town_kana":"フルイチ","prefecture_code":34},"0103":{"zip_code":"7310103","prefecture":"広島県","prefecture_kana":"ヒロシマケン","city":"広島市安佐南区","city_kana":"ヒロシマシアサミナミク","town":"緑井","town_kana":"ミドリイ","prefecture_code":34},"0101":[{"zip_code":"7310101","prefecture":"広島県","prefecture_kana":"ヒロシマケン","city":"広島市安佐南区","city_kana":"ヒロシマシアサミナミク","town":"八木","town_kana":"ヤギ","prefecture_code":34},{"zip_code":"7310101","prefecture":"広島県","prefecture_kana":"ヒロシマケン","city":"広島市安佐南区","city_kana":"ヒロシマシアサミナミク","town":"八木町","town_kana":"ヤギチョウ","prefecture_code":34}],"0153":{"zip_code":"7310153","prefecture":"広島県","prefecture_kana":"ヒロシマケン","city":"広島市安佐南区","city_kana":"ヒロシマシアサミナミク","town":"安東","town_kana":"ヤスヒガシ","prefecture_code":34},"0137":[{"zip_code":"7310137","prefecture":"広島県","prefecture_kana":"ヒロシマケン","city":"広島市安佐南区","city_kana":"ヒロシマシアサミナミク","town":"山本","town_kana":"ヤマモト","prefecture_code":34},{"zip_code":"7310137","prefecture":"広島県","prefecture_kana":"ヒロシマケン","city":"広島市安佐南区","city_kana":"ヒロシマシアサミナミク","town":"山本町","town_kana":"ヤマモトチョウ","prefecture_code":34}],"0139":{"zip_code":"7310139","prefecture":"広島県","prefecture_kana":"ヒロシマケン","city":"広島市安佐南区","city_kana":"ヒロシマシアサミナミク","town":"山本新町","town_kana":"ヤマモトシンマチ","prefecture_code":34},"1142":{"zip_code":"7311142","prefecture":"広島県","prefecture_kana":"ヒロシマケン","city":"広島市安佐北区","city_kana":"ヒロシマシアサキタク","town":"安佐町飯室","town_kana":"アサチョウイムロ","prefecture_code":34},"3352":{"zip_code":"7313352","prefecture":"広島県","prefecture_kana":"ヒロシマケン","city":"広島市安佐北区","city_kana":"ヒロシマシアサキタク","town":"安佐町後山","town_kana":"アサチョウウシロヤマ","prefecture_code":34},"1171":{"zip_code":"7311171","prefecture":"広島県","prefecture_kana":"ヒロシマケン","city":"広島市安佐北区","city_kana":"ヒロシマシアサキタク","town":"安佐町小河内","town_kana":"アサチョウオガウチ","prefecture_code":34},"3363":{"zip_code":"7313363","prefecture":"広島県","prefecture_kana":"ヒロシマケン","city":"広島市安佐北区","city_kana":"ヒロシマシアサキタク","town":"安佐町くすの木台","town_kana":"アサチョウクスノキダイ","prefecture_code":34},"3362":{"zip_code":"7313362","prefecture":"広島県","prefecture_kana":"ヒロシマケン","city":"広島市安佐北区","city_kana":"ヒロシマシアサキタク","town":"安佐町久地","town_kana":"アサチョウクチ","prefecture_code":34},"3351":{"zip_code":"7313351","prefecture":"広島県","prefecture_kana":"ヒロシマケン","city":"広島市安佐北区","city_kana":"ヒロシマシアサキタク","town":"安佐町毛木","town_kana":"アサチョウケギ","prefecture_code":34},"1141":{"zip_code":"7311141","prefecture":"広島県","prefecture_kana":"ヒロシマケン","city":"広島市安佐北区","city_kana":"ヒロシマシアサキタク","town":"安佐町鈴張","town_kana":"アサチョウスズハリ","prefecture_code":34},"3354":{"zip_code":"7313354","prefecture":"広島県","prefecture_kana":"ヒロシマケン","city":"広島市安佐北区","city_kana":"ヒロシマシアサキタク","town":"安佐町筒瀬","town_kana":"アサチョウツツセ","prefecture_code":34},"3355":{"zip_code":"7313355","prefecture":"広島県","prefecture_kana":"ヒロシマケン","city":"広島市安佐北区","city_kana":"ヒロシマシアサキタク","town":"安佐町動物園","town_kana":"アサチョウドウブツエン","prefecture_code":34},"3353":{"zip_code":"7313353","prefecture":"広島県","prefecture_kana":"ヒロシマケン","city":"広島市安佐北区","city_kana":"ヒロシマシアサキタク","town":"安佐町宮野","town_kana":"アサチョウミヤノ","prefecture_code":34},"3361":{"zip_code":"7313361","prefecture":"広島県","prefecture_kana":"ヒロシマケン","city":"広島市安佐北区","city_kana":"ヒロシマシアサキタク","town":"あさひが丘","town_kana":"アサヒガオカ","prefecture_code":34},"0201":{"zip_code":"7310201","prefecture":"広島県","prefecture_kana":"ヒロシマケン","city":"広島市安佐北区","city_kana":"ヒロシマシアサキタク","town":"大林","town_kana":"オオバヤシ","prefecture_code":34},"0202":{"zip_code":"7310202","prefecture":"広島県","prefecture_kana":"ヒロシマケン","city":"広島市安佐北区","city_kana":"ヒロシマシアサキタク","town":"大林町","town_kana":"オオバヤシチョウ","prefecture_code":34},"0221":{"zip_code":"7310221","prefecture":"広島県","prefecture_kana":"ヒロシマケン","city":"広島市安佐北区","city_kana":"ヒロシマシアサキタク","town":"可部","town_kana":"カベ","prefecture_code":34},"0236":{"zip_code":"7310236","prefecture":"広島県","prefecture_kana":"ヒロシマケン","city":"広島市安佐北区","city_kana":"ヒロシマシアサキタク","town":"可部町綾ケ谷","town_kana":"カベチョウアヤガタニ","prefecture_code":34},"0234":{"zip_code":"7310234","prefecture":"広島県","prefecture_kana":"ヒロシマケン","city":"広島市安佐北区","city_kana":"ヒロシマシアサキタク","town":"可部町今井田","town_kana":"カベチョウイマイダ","prefecture_code":34},"0225":{"zip_code":"7310225","prefecture":"広島県","prefecture_kana":"ヒロシマケン","city":"広島市安佐北区","city_kana":"ヒロシマシアサキタク","town":"可部町上原","town_kana":"カベチョウウエバラ","prefecture_code":34},"0235":{"zip_code":"7310235","prefecture":"広島県","prefecture_kana":"ヒロシマケン","city":"広島市安佐北区","city_kana":"ヒロシマシアサキタク","town":"可部町勝木","town_kana":"カベチョウカツギ","prefecture_code":34},"0216":{"zip_code":"7310216","prefecture":"広島県","prefecture_kana":"ヒロシマケン","city":"広島市安佐北区","city_kana":"ヒロシマシアサキタク","town":"可部町上町屋","town_kana":"カベチョウカミマチヤ","prefecture_code":34},"0217":{"zip_code":"7310217","prefecture":"広島県","prefecture_kana":"ヒロシマケン","city":"広島市安佐北区","city_kana":"ヒロシマシアサキタク","town":"可部町下町屋","town_kana":"カベチョウシモマチヤ","prefecture_code":34},"0214":{"zip_code":"7310214","prefecture":"広島県","prefecture_kana":"ヒロシマケン","city":"広島市安佐北区","city_kana":"ヒロシマシアサキタク","town":"可部町桐原","town_kana":"カベチョウトゲ","prefecture_code":34},"0224":{"zip_code":"7310224","prefecture":"広島県","prefecture_kana":"ヒロシマケン","city":"広島市安佐北区","city_kana":"ヒロシマシアサキタク","town":"可部町中島","town_kana":"カベチョウナカシマ","prefecture_code":34},"0215":{"zip_code":"7310215","prefecture":"広島県","prefecture_kana":"ヒロシマケン","city":"広島市安佐北区","city_kana":"ヒロシマシアサキタク","town":"可部町南原","town_kana":"カベチョウナバラ","prefecture_code":34},"0222":{"zip_code":"7310222","prefecture":"広島県","prefecture_kana":"ヒロシマケン","city":"広島市安佐北区","city_kana":"ヒロシマシアサキタク","town":"可部東","town_kana":"カベヒガシ","prefecture_code":34},"0223":{"zip_code":"7310223","prefecture":"広島県","prefecture_kana":"ヒロシマケン","city":"広島市安佐北区","city_kana":"ヒロシマシアサキタク","town":"可部南","town_kana":"カベミナミ","prefecture_code":34},"0231":{"zip_code":"7310231","prefecture":"広島県","prefecture_kana":"ヒロシマケン","city":"広島市安佐北区","city_kana":"ヒロシマシアサキタク","town":"亀山","town_kana":"カメヤマ","prefecture_code":34},"0233":{"zip_code":"7310233","prefecture":"広島県","prefecture_kana":"ヒロシマケン","city":"広島市安佐北区","city_kana":"ヒロシマシアサキタク","town":"亀山西","town_kana":"カメヤマニシ","prefecture_code":34},"0232":{"zip_code":"7310232","prefecture":"広島県","prefecture_kana":"ヒロシマケン","city":"広島市安佐北区","city_kana":"ヒロシマシアサキタク","town":"亀山南","town_kana":"カメヤマミナミ","prefecture_code":34},"0211":{"zip_code":"7310211","prefecture":"広島県","prefecture_kana":"ヒロシマケン","city":"広島市安佐北区","city_kana":"ヒロシマシアサキタク","town":"三入","town_kana":"ミイリ","prefecture_code":34},"0212":{"zip_code":"7310212","prefecture":"広島県","prefecture_kana":"ヒロシマケン","city":"広島市安佐北区","city_kana":"ヒロシマシアサキタク","town":"三入東","town_kana":"ミイリヒガシ","prefecture_code":34},"0213":{"zip_code":"7310213","prefecture":"広島県","prefecture_kana":"ヒロシマケン","city":"広島市安佐北区","city_kana":"ヒロシマシアサキタク","town":"三入南","town_kana":"ミイリミナミ","prefecture_code":34},"4231":{"zip_code":"7314231","prefecture":"広島県","prefecture_kana":"ヒロシマケン","city":"広島市安芸区","city_kana":"ヒロシマシアキク","town":"阿戸町","town_kana":"アトチョウ","prefecture_code":34},"5100":{"zip_code":"7315100","prefecture":"広島県","prefecture_kana":"ヒロシマケン","city":"広島市佐伯区","city_kana":"ヒロシマシサエキク","town":"","town_kana":"","prefecture_code":34},"5133":{"zip_code":"7315133","prefecture":"広島県","prefecture_kana":"ヒロシマケン","city":"広島市佐伯区","city_kana":"ヒロシマシサエキク","town":"旭園","town_kana":"アサヒエン","prefecture_code":34},"5107":{"zip_code":"7315107","prefecture":"広島県","prefecture_kana":"ヒロシマケン","city":"広島市佐伯区","city_kana":"ヒロシマシサエキク","town":"石内上","town_kana":"イシウチカミ","prefecture_code":34},"5109":{"zip_code":"7315109","prefecture":"広島県","prefecture_kana":"ヒロシマケン","city":"広島市佐伯区","city_kana":"ヒロシマシサエキク","town":"石内北","town_kana":"イシウチキタ","prefecture_code":34},"5162":{"zip_code":"7315162","prefecture":"広島県","prefecture_kana":"ヒロシマケン","city":"広島市佐伯区","city_kana":"ヒロシマシサエキク","town":"石内東","town_kana":"イシウチヒガシ","prefecture_code":34},"5108":{"zip_code":"7315108","prefecture":"広島県","prefecture_kana":"ヒロシマケン","city":"広島市佐伯区","city_kana":"ヒロシマシサエキク","town":"石内南","town_kana":"イシウチミナミ","prefecture_code":34},"5127":{"zip_code":"7315127","prefecture":"広島県","prefecture_kana":"ヒロシマケン","city":"広島市佐伯区","city_kana":"ヒロシマシサエキク","town":"五日市","town_kana":"イツカイチ","prefecture_code":34},"5125":{"zip_code":"7315125","prefecture":"広島県","prefecture_kana":"ヒロシマケン","city":"広島市佐伯区","city_kana":"ヒロシマシサエキク","town":"五日市駅前","town_kana":"イツカイチエキマエ","prefecture_code":34},"5161":{"zip_code":"7315161","prefecture":"広島県","prefecture_kana":"ヒロシマケン","city":"広島市佐伯区","city_kana":"ヒロシマシサエキク","town":"五日市港","town_kana":"イツカイチコウ","prefecture_code":34},"5128":{"zip_code":"7315128","prefecture":"広島県","prefecture_kana":"ヒロシマケン","city":"広島市佐伯区","city_kana":"ヒロシマシサエキク","town":"五日市中央","town_kana":"イツカイチチュウオウ","prefecture_code":34},"5102":{"zip_code":"7315102","prefecture":"広島県","prefecture_kana":"ヒロシマケン","city":"広島市佐伯区","city_kana":"ヒロシマシサエキク","town":"五日市町石内","town_kana":"イツカイチチョウイシウチ","prefecture_code":34},"5104":{"zip_code":"7315104","prefecture":"広島県","prefecture_kana":"ヒロシマケン","city":"広島市佐伯区","city_kana":"ヒロシマシサエキク","town":"五日市町上小深川","town_kana":"イツカイチチョウカミコブカワ","prefecture_code":34},"5105":{"zip_code":"7315105","prefecture":"広島県","prefecture_kana":"ヒロシマケン","city":"広島市佐伯区","city_kana":"ヒロシマシサエキク","town":"五日市町下小深川","town_kana":"イツカイチチョウシモコブカワ","prefecture_code":34},"5151":{"zip_code":"7315151","prefecture":"広島県","prefecture_kana":"ヒロシマケン","city":"広島市佐伯区","city_kana":"ヒロシマシサエキク","town":"五日市町上河内","town_kana":"イツカイチチョウカミゴウチ","prefecture_code":34},"5152":{"zip_code":"7315152","prefecture":"広島県","prefecture_kana":"ヒロシマケン","city":"広島市佐伯区","city_kana":"ヒロシマシサエキク","town":"五日市町下河内","town_kana":"イツカイチチョウシモゴウチ","prefecture_code":34},"5123":{"zip_code":"7315123","prefecture":"広島県","prefecture_kana":"ヒロシマケン","city":"広島市佐伯区","city_kana":"ヒロシマシサエキク","town":"五日市町昭和台","town_kana":"イツカイチチョウショウワダイ","prefecture_code":34},"5116":[{"zip_code":"7315116","prefecture":"広島県","prefecture_kana":"ヒロシマケン","city":"広島市佐伯区","city_kana":"ヒロシマシサエキク","town":"五日市町寺田","town_kana":"イツカイチチョウテラダ","prefecture_code":34},{"zip_code":"7315116","prefecture":"広島県","prefecture_kana":"ヒロシマケン","city":"広島市佐伯区","city_kana":"ヒロシマシサエキク","town":"八幡","town_kana":"ヤハタ","prefecture_code":34}],"5115":[{"zip_code":"7315115","prefecture":"広島県","prefecture_kana":"ヒロシマケン","city":"広島市佐伯区","city_kana":"ヒロシマシサエキク","town":"五日市町中地","town_kana":"イツカイチチョウナカジ","prefecture_code":34},{"zip_code":"7315115","prefecture":"広島県","prefecture_kana":"ヒロシマケン","city":"広島市佐伯区","city_kana":"ヒロシマシサエキク","town":"八幡東","town_kana":"ヤハタヒガシ","prefecture_code":34}],"5121":{"zip_code":"7315121","prefecture":"広島県","prefecture_kana":"ヒロシマケン","city":"広島市佐伯区","city_kana":"ヒロシマシサエキク","town":"五日市町美鈴園","town_kana":"イツカイチチョウミスズエン","prefecture_code":34},"5122":{"zip_code":"7315122","prefecture":"広島県","prefecture_kana":"ヒロシマケン","city":"広島市佐伯区","city_kana":"ヒロシマシサエキク","town":"五日市町皆賀","town_kana":"イツカイチチョウミナガ","prefecture_code":34},"5135":{"zip_code":"7315135","prefecture":"広島県","prefecture_kana":"ヒロシマケン","city":"広島市佐伯区","city_kana":"ヒロシマシサエキク","town":"海老園","town_kana":"カイロウエン","prefecture_code":34},"5134":{"zip_code":"7315134","prefecture":"広島県","prefecture_kana":"ヒロシマケン","city":"広島市佐伯区","city_kana":"ヒロシマシサエキク","town":"海老山町","town_kana":"カイロウヤマチョウ","prefecture_code":34},"5138":{"zip_code":"7315138","prefecture":"広島県","prefecture_kana":"ヒロシマケン","city":"広島市佐伯区","city_kana":"ヒロシマシサエキク","town":"海老山南","town_kana":"カイロウヤマミナミ","prefecture_code":34},"5157":{"zip_code":"7315157","prefecture":"広島県","prefecture_kana":"ヒロシマケン","city":"広島市佐伯区","city_kana":"ヒロシマシサエキク","town":"観音台","town_kana":"カンノンダイ","prefecture_code":34},"5156":{"zip_code":"7315156","prefecture":"広島県","prefecture_kana":"ヒロシマケン","city":"広島市佐伯区","city_kana":"ヒロシマシサエキク","town":"倉重","town_kana":"クラシゲ","prefecture_code":34},"5153":{"zip_code":"7315153","prefecture":"広島県","prefecture_kana":"ヒロシマケン","city":"広島市佐伯区","city_kana":"ヒロシマシサエキク","town":"河内南","town_kana":"コウチミナミ","prefecture_code":34},"5101":{"zip_code":"7315101","prefecture":"広島県","prefecture_kana":"ヒロシマケン","city":"広島市佐伯区","city_kana":"ヒロシマシサエキク","town":"五月が丘","town_kana":"サツキガオカ","prefecture_code":34},"5155":{"zip_code":"7315155","prefecture":"広島県","prefecture_kana":"ヒロシマケン","city":"広島市佐伯区","city_kana":"ヒロシマシサエキク","town":"城山","town_kana":"ジョウヤマ","prefecture_code":34},"5126":{"zip_code":"7315126","prefecture":"広島県","prefecture_kana":"ヒロシマケン","city":"広島市佐伯区","city_kana":"ヒロシマシサエキク","town":"新宮苑","town_kana":"シングウエン","prefecture_code":34},"5145":{"zip_code":"7315145","prefecture":"広島県","prefecture_kana":"ヒロシマケン","city":"広島市佐伯区","city_kana":"ヒロシマシサエキク","town":"隅の浜","town_kana":"スミノハマ","prefecture_code":34},"5141":{"zip_code":"7315141","prefecture":"広島県","prefecture_kana":"ヒロシマケン","city":"広島市佐伯区","city_kana":"ヒロシマシサエキク","town":"千同","town_kana":"センドウ","prefecture_code":34},"5142":[{"zip_code":"7315142","prefecture":"広島県","prefecture_kana":"ヒロシマケン","city":"広島市佐伯区","city_kana":"ヒロシマシサエキク","town":"坪井","town_kana":"ツボイ","prefecture_code":34},{"zip_code":"7315142","prefecture":"広島県","prefecture_kana":"ヒロシマケン","city":"広島市佐伯区","city_kana":"ヒロシマシサエキク","town":"坪井町","town_kana":"ツボイチョウ","prefecture_code":34}],"5131":{"zip_code":"7315131","prefecture":"広島県","prefecture_kana":"ヒロシマケン","city":"広島市佐伯区","city_kana":"ヒロシマシサエキク","town":"藤垂園","town_kana":"トウスイエン","prefecture_code":34},"5106":{"zip_code":"7315106","prefecture":"広島県","prefecture_kana":"ヒロシマケン","city":"広島市佐伯区","city_kana":"ヒロシマシサエキク","town":"利松","town_kana":"トシマツ","prefecture_code":34},"5103":{"zip_code":"7315103","prefecture":"広島県","prefecture_kana":"ヒロシマケン","city":"広島市佐伯区","city_kana":"ヒロシマシサエキク","town":"藤の木","town_kana":"フジノキ","prefecture_code":34},"5144":{"zip_code":"7315144","prefecture":"広島県","prefecture_kana":"ヒロシマケン","city":"広島市佐伯区","city_kana":"ヒロシマシサエキク","town":"三筋","town_kana":"ミスジ","prefecture_code":34},"5113":{"zip_code":"7315113","prefecture":"広島県","prefecture_kana":"ヒロシマケン","city":"広島市佐伯区","city_kana":"ヒロシマシサエキク","town":"美鈴が丘緑","town_kana":"ミスズガオカミドリ","prefecture_code":34},"5111":{"zip_code":"7315111","prefecture":"広島県","prefecture_kana":"ヒロシマケン","city":"広島市佐伯区","city_kana":"ヒロシマシサエキク","town":"美鈴が丘東","town_kana":"ミスズガオカヒガシ","prefecture_code":34},"5114":{"zip_code":"7315114","prefecture":"広島県","prefecture_kana":"ヒロシマケン","city":"広島市佐伯区","city_kana":"ヒロシマシサエキク","town":"美鈴が丘西","town_kana":"ミスズガオカニシ","prefecture_code":34},"5112":{"zip_code":"7315112","prefecture":"広島県","prefecture_kana":"ヒロシマケン","city":"広島市佐伯区","city_kana":"ヒロシマシサエキク","town":"美鈴が丘南","town_kana":"ミスズガオカミナミ","prefecture_code":34},"5124":{"zip_code":"7315124","prefecture":"広島県","prefecture_kana":"ヒロシマケン","city":"広島市佐伯区","city_kana":"ヒロシマシサエキク","town":"皆賀","town_kana":"ミナガ","prefecture_code":34},"5137":{"zip_code":"7315137","prefecture":"広島県","prefecture_kana":"ヒロシマケン","city":"広島市佐伯区","city_kana":"ヒロシマシサエキク","town":"美の里","town_kana":"ミノリ","prefecture_code":34},"5143":[{"zip_code":"7315143","prefecture":"広島県","prefecture_kana":"ヒロシマケン","city":"広島市佐伯区","city_kana":"ヒロシマシサエキク","town":"三宅","town_kana":"ミヤケ","prefecture_code":34},{"zip_code":"7315143","prefecture":"広島県","prefecture_kana":"ヒロシマケン","city":"広島市佐伯区","city_kana":"ヒロシマシサエキク","town":"三宅町","town_kana":"ミヤケチョウ","prefecture_code":34}],"5154":{"zip_code":"7315154","prefecture":"広島県","prefecture_kana":"ヒロシマケン","city":"広島市佐伯区","city_kana":"ヒロシマシサエキク","town":"薬師が丘","town_kana":"ヤクシガオカ","prefecture_code":34},"5146":{"zip_code":"7315146","prefecture":"広島県","prefecture_kana":"ヒロシマケン","city":"広島市佐伯区","city_kana":"ヒロシマシサエキク","town":"屋代","town_kana":"ヤシロ","prefecture_code":34},"5147":{"zip_code":"7315147","prefecture":"広島県","prefecture_kana":"ヒロシマケン","city":"広島市佐伯区","city_kana":"ヒロシマシサエキク","town":"屋代町","town_kana":"ヤシロチョウ","prefecture_code":34},"5117":{"zip_code":"7315117","prefecture":"広島県","prefecture_kana":"ヒロシマケン","city":"広島市佐伯区","city_kana":"ヒロシマシサエキク","town":"八幡が丘","town_kana":"ヤハタガオカ","prefecture_code":34},"5132":{"zip_code":"7315132","prefecture":"広島県","prefecture_kana":"ヒロシマケン","city":"広島市佐伯区","city_kana":"ヒロシマシサエキク","town":"吉見園","town_kana":"ヨシミエン","prefecture_code":34},"5136":{"zip_code":"7315136","prefecture":"広島県","prefecture_kana":"ヒロシマケン","city":"広島市佐伯区","city_kana":"ヒロシマシサエキク","town":"楽々園","town_kana":"ラクラクエン","prefecture_code":34},"0500":{"zip_code":"7310500","prefecture":"広島県","prefecture_kana":"ヒロシマケン","city":"安芸高田市","city_kana":"アキタカタシ","town":"","town_kana":"","prefecture_code":34},"0703":{"zip_code":"7310703","prefecture":"広島県","prefecture_kana":"ヒロシマケン","city":"安芸高田市","city_kana":"アキタカタシ","town":"美土里町生田","town_kana":"ミドリチョウイケダ","prefecture_code":34},"0701":{"zip_code":"7310701","prefecture":"広島県","prefecture_kana":"ヒロシマケン","city":"安芸高田市","city_kana":"アキタカタシ","town":"美土里町北","town_kana":"ミドリチョウキタ","prefecture_code":34},"0702":{"zip_code":"7310702","prefecture":"広島県","prefecture_kana":"ヒロシマケン","city":"安芸高田市","city_kana":"アキタカタシ","town":"美土里町桑田","town_kana":"ミドリチョウクワタ","prefecture_code":34},"0612":{"zip_code":"7310612","prefecture":"広島県","prefecture_kana":"ヒロシマケン","city":"安芸高田市","city_kana":"アキタカタシ","town":"美土里町本郷","town_kana":"ミドリチョウホンゴウ","prefecture_code":34},"0611":{"zip_code":"7310611","prefecture":"広島県","prefecture_kana":"ヒロシマケン","city":"安芸高田市","city_kana":"アキタカタシ","town":"美土里町横田","town_kana":"ミドリチョウヨコタ","prefecture_code":34},"0302":{"zip_code":"7310302","prefecture":"広島県","prefecture_kana":"ヒロシマケン","city":"安芸高田市","city_kana":"アキタカタシ","town":"八千代町勝田","town_kana":"ヤチヨチョウカッタ","prefecture_code":34},"0305":{"zip_code":"7310305","prefecture":"広島県","prefecture_kana":"ヒロシマケン","city":"安芸高田市","city_kana":"アキタカタシ","town":"八千代町上根","town_kana":"ヤチヨチョウカミネ","prefecture_code":34},"0303":{"zip_code":"7310303","prefecture":"広島県","prefecture_kana":"ヒロシマケン","city":"安芸高田市","city_kana":"アキタカタシ","town":"八千代町佐々井","town_kana":"ヤチヨチョウササイ","prefecture_code":34},"0304":{"zip_code":"7310304","prefecture":"広島県","prefecture_kana":"ヒロシマケン","city":"安芸高田市","city_kana":"アキタカタシ","town":"八千代町下根","town_kana":"ヤチヨチョウシモネ","prefecture_code":34},"0301":{"zip_code":"7310301","prefecture":"広島県","prefecture_kana":"ヒロシマケン","city":"安芸高田市","city_kana":"アキタカタシ","town":"八千代町土師","town_kana":"ヤチヨチョウハジ","prefecture_code":34},"0306":{"zip_code":"7310306","prefecture":"広島県","prefecture_kana":"ヒロシマケン","city":"安芸高田市","city_kana":"アキタカタシ","town":"八千代町向山","town_kana":"ヤチヨチョウムカイヤマ","prefecture_code":34},"0542":{"zip_code":"7310542","prefecture":"広島県","prefecture_kana":"ヒロシマケン","city":"安芸高田市","city_kana":"アキタカタシ","town":"吉田町相合","town_kana":"ヨシダチョウアイオウ","prefecture_code":34},"0512":{"zip_code":"7310512","prefecture":"広島県","prefecture_kana":"ヒロシマケン","city":"安芸高田市","city_kana":"アキタカタシ","town":"吉田町小山","town_kana":"ヨシダチョウオヤマ","prefecture_code":34},"0534":{"zip_code":"7310534","prefecture":"広島県","prefecture_kana":"ヒロシマケン","city":"安芸高田市","city_kana":"アキタカタシ","town":"吉田町桂","town_kana":"ヨシダチョウカツラ","prefecture_code":34},"0532":{"zip_code":"7310532","prefecture":"広島県","prefecture_kana":"ヒロシマケン","city":"安芸高田市","city_kana":"アキタカタシ","town":"吉田町上入江","town_kana":"ヨシダチョウカミイリエ","prefecture_code":34},"0524":{"zip_code":"7310524","prefecture":"広島県","prefecture_kana":"ヒロシマケン","city":"安芸高田市","city_kana":"アキタカタシ","town":"吉田町川本","town_kana":"ヨシダチョウカワモト","prefecture_code":34},"0502":{"zip_code":"7310502","prefecture":"広島県","prefecture_kana":"ヒロシマケン","city":"安芸高田市","city_kana":"アキタカタシ","town":"吉田町国司","town_kana":"ヨシダチョウクニシ","prefecture_code":34},"0535":{"zip_code":"7310535","prefecture":"広島県","prefecture_kana":"ヒロシマケン","city":"安芸高田市","city_kana":"アキタカタシ","town":"吉田町高野","town_kana":"ヨシダチョウコウヤ","prefecture_code":34},"0531":{"zip_code":"7310531","prefecture":"広島県","prefecture_kana":"ヒロシマケン","city":"安芸高田市","city_kana":"アキタカタシ","town":"吉田町下入江","town_kana":"ヨシダチョウシモイリエ","prefecture_code":34},"0522":{"zip_code":"7310522","prefecture":"広島県","prefecture_kana":"ヒロシマケン","city":"安芸高田市","city_kana":"アキタカタシ","town":"吉田町常楽寺","town_kana":"ヨシダチョウジョウラクジ","prefecture_code":34},"0511":{"zip_code":"7310511","prefecture":"広島県","prefecture_kana":"ヒロシマケン","city":"安芸高田市","city_kana":"アキタカタシ","town":"吉田町竹原","town_kana":"ヨシダチョウタケハラ","prefecture_code":34},"0544":{"zip_code":"7310544","prefecture":"広島県","prefecture_kana":"ヒロシマケン","city":"安芸高田市","city_kana":"アキタカタシ","town":"吉田町多治比","town_kana":"ヨシダチョウタジヒ","prefecture_code":34},"0525":{"zip_code":"7310525","prefecture":"広島県","prefecture_kana":"ヒロシマケン","city":"安芸高田市","city_kana":"アキタカタシ","town":"吉田町中馬","town_kana":"ヨシダチョウチュウマ","prefecture_code":34},"0521":{"zip_code":"7310521","prefecture":"広島県","prefecture_kana":"ヒロシマケン","city":"安芸高田市","city_kana":"アキタカタシ","town":"吉田町常友","town_kana":"ヨシダチョウツネトモ","prefecture_code":34},"0533":{"zip_code":"7310533","prefecture":"広島県","prefecture_kana":"ヒロシマケン","city":"安芸高田市","city_kana":"アキタカタシ","town":"吉田町長屋","town_kana":"ヨシダチョウナガヤ","prefecture_code":34},"0543":{"zip_code":"7310543","prefecture":"広島県","prefecture_kana":"ヒロシマケン","city":"安芸高田市","city_kana":"アキタカタシ","town":"吉田町西浦","town_kana":"ヨシダチョウニシウラ","prefecture_code":34},"0513":{"zip_code":"7310513","prefecture":"広島県","prefecture_kana":"ヒロシマケン","city":"安芸高田市","city_kana":"アキタカタシ","town":"吉田町福原","town_kana":"ヨシダチョウフクバラ","prefecture_code":34},"0523":{"zip_code":"7310523","prefecture":"広島県","prefecture_kana":"ヒロシマケン","city":"安芸高田市","city_kana":"アキタカタシ","town":"吉田町山手","town_kana":"ヨシダチョウヤマテ","prefecture_code":34},"0541":{"zip_code":"7310541","prefecture":"広島県","prefecture_kana":"ヒロシマケン","city":"安芸高田市","city_kana":"アキタカタシ","town":"吉田町山部","town_kana":"ヨシダチョウヤンベ","prefecture_code":34},"0501":{"zip_code":"7310501","prefecture":"広島県","prefecture_kana":"ヒロシマケン","city":"安芸高田市","city_kana":"アキタカタシ","town":"吉田町吉田","town_kana":"ヨシダチョウヨシダ","prefecture_code":34},"4200":{"zip_code":"7314200","prefecture":"広島県","prefecture_kana":"ヒロシマケン","city":"安芸郡熊野町","city_kana":"アキグンクマノチョウ","town":"","town_kana":"","prefecture_code":34},"4225":{"zip_code":"7314225","prefecture":"広島県","prefecture_kana":"ヒロシマケン","city":"安芸郡熊野町","city_kana":"アキグンクマノチョウ","town":"石神","town_kana":"イシガミ","prefecture_code":34},"4228":{"zip_code":"7314228","prefecture":"広島県","prefecture_kana":"ヒロシマケン","city":"安芸郡熊野町","city_kana":"アキグンクマノチョウ","town":"柿迫","town_kana":"カキサコ","prefecture_code":34},"4223":{"zip_code":"7314223","prefecture":"広島県","prefecture_kana":"ヒロシマケン","city":"安芸郡熊野町","city_kana":"アキグンクマノチョウ","town":"川角","town_kana":"カワスミ","prefecture_code":34},"4224":{"zip_code":"7314224","prefecture":"広島県","prefecture_kana":"ヒロシマケン","city":"安芸郡熊野町","city_kana":"アキグンクマノチョウ","town":"神田","town_kana":"カンダ","prefecture_code":34},"4227":{"zip_code":"7314227","prefecture":"広島県","prefecture_kana":"ヒロシマケン","city":"安芸郡熊野町","city_kana":"アキグンクマノチョウ","town":"貴船","town_kana":"キフネ","prefecture_code":34},"4222":{"zip_code":"7314222","prefecture":"広島県","prefecture_kana":"ヒロシマケン","city":"安芸郡熊野町","city_kana":"アキグンクマノチョウ","town":"呉地","town_kana":"クレジ","prefecture_code":34},"4215":{"zip_code":"7314215","prefecture":"広島県","prefecture_kana":"ヒロシマケン","city":"安芸郡熊野町","city_kana":"アキグンクマノチョウ","town":"城之堀","town_kana":"ジョウノホリ","prefecture_code":34},"4211":{"zip_code":"7314211","prefecture":"広島県","prefecture_kana":"ヒロシマケン","city":"安芸郡熊野町","city_kana":"アキグンクマノチョウ","town":"新宮","town_kana":"シングウ","prefecture_code":34},"4221":{"zip_code":"7314221","prefecture":"広島県","prefecture_kana":"ヒロシマケン","city":"安芸郡熊野町","city_kana":"アキグンクマノチョウ","town":"出来庭","town_kana":"デキニワ","prefecture_code":34},"4214":{"zip_code":"7314214","prefecture":"広島県","prefecture_kana":"ヒロシマケン","city":"安芸郡熊野町","city_kana":"アキグンクマノチョウ","town":"中溝","town_kana":"ナカミゾ","prefecture_code":34},"4213":{"zip_code":"7314213","prefecture":"広島県","prefecture_kana":"ヒロシマケン","city":"安芸郡熊野町","city_kana":"アキグンクマノチョウ","town":"萩原","town_kana":"ハギワラ","prefecture_code":34},"4212":{"zip_code":"7314212","prefecture":"広島県","prefecture_kana":"ヒロシマケン","city":"安芸郡熊野町","city_kana":"アキグンクマノチョウ","town":"初神","town_kana":"ハツカミ","prefecture_code":34},"4226":{"zip_code":"7314226","prefecture":"広島県","prefecture_kana":"ヒロシマケン","city":"安芸郡熊野町","city_kana":"アキグンクマノチョウ","town":"東山","town_kana":"ヒガシヤマ","prefecture_code":34},"4229":{"zip_code":"7314229","prefecture":"広島県","prefecture_kana":"ヒロシマケン","city":"安芸郡熊野町","city_kana":"アキグンクマノチョウ","town":"平谷","town_kana":"ヒラダニ","prefecture_code":34},"4300":{"zip_code":"7314300","prefecture":"広島県","prefecture_kana":"ヒロシマケン","city":"安芸郡坂町","city_kana":"アキグンサカチョウ","town":"","town_kana":"","prefecture_code":34},"4301":{"zip_code":"7314301","prefecture":"広島県","prefecture_kana":"ヒロシマケン","city":"安芸郡坂町","city_kana":"アキグンサカチョウ","town":"","town_kana":"","prefecture_code":34},"4321":{"zip_code":"7314321","prefecture":"広島県","prefecture_kana":"ヒロシマケン","city":"安芸郡坂町","city_kana":"アキグンサカチョウ","town":"植田","town_kana":"ウエダ","prefecture_code":34},"4311":{"zip_code":"7314311","prefecture":"広島県","prefecture_kana":"ヒロシマケン","city":"安芸郡坂町","city_kana":"アキグンサカチョウ","town":"北新地","town_kana":"キタシンチ","prefecture_code":34},"4331":{"zip_code":"7314331","prefecture":"広島県","prefecture_kana":"ヒロシマケン","city":"安芸郡坂町","city_kana":"アキグンサカチョウ","town":"小屋浦","town_kana":"コヤウラ","prefecture_code":34},"4313":{"zip_code":"7314313","prefecture":"広島県","prefecture_kana":"ヒロシマケン","city":"安芸郡坂町","city_kana":"アキグンサカチョウ","town":"坂東","town_kana":"サカヒガシ","prefecture_code":34},"4314":{"zip_code":"7314314","prefecture":"広島県","prefecture_kana":"ヒロシマケン","city":"安芸郡坂町","city_kana":"アキグンサカチョウ","town":"坂西","town_kana":"サカニシ","prefecture_code":34},"4325":{"zip_code":"7314325","prefecture":"広島県","prefecture_kana":"ヒロシマケン","city":"安芸郡坂町","city_kana":"アキグンサカチョウ","town":"鯛尾","town_kana":"タイビ","prefecture_code":34},"4312":{"zip_code":"7314312","prefecture":"広島県","prefecture_kana":"ヒロシマケン","city":"安芸郡坂町","city_kana":"アキグンサカチョウ","town":"平成ケ浜","town_kana":"ヘイセイガハマ","prefecture_code":34},"4323":{"zip_code":"7314323","prefecture":"広島県","prefecture_kana":"ヒロシマケン","city":"安芸郡坂町","city_kana":"アキグンサカチョウ","town":"横浜中央","town_kana":"ヨコハマチュウオウ","prefecture_code":34},"4324":{"zip_code":"7314324","prefecture":"広島県","prefecture_kana":"ヒロシマケン","city":"安芸郡坂町","city_kana":"アキグンサカチョウ","town":"横浜西","town_kana":"ヨコハマニシ","prefecture_code":34},"4322":{"zip_code":"7314322","prefecture":"広島県","prefecture_kana":"ヒロシマケン","city":"安芸郡坂町","city_kana":"アキグンサカチョウ","town":"横浜東","town_kana":"ヨコハマヒガシ","prefecture_code":34},"3500":{"zip_code":"7313500","prefecture":"広島県","prefecture_kana":"ヒロシマケン","city":"山県郡安芸太田町","city_kana":"ヤマガタグンアキオオタチョウ","town":"","town_kana":"","prefecture_code":34},"3812":{"zip_code":"7313812","prefecture":"広島県","prefecture_kana":"ヒロシマケン","city":"山県郡安芸太田町","city_kana":"ヤマガタグンアキオオタチョウ","town":"遊谷","town_kana":"アゾウダニ","prefecture_code":34},"3411":{"zip_code":"7313411","prefecture":"広島県","prefecture_kana":"ヒロシマケン","city":"山県郡安芸太田町","city_kana":"ヤマガタグンアキオオタチョウ","town":"穴","town_kana":"アナ","prefecture_code":34},"3833":{"zip_code":"7313833","prefecture":"広島県","prefecture_kana":"ヒロシマケン","city":"山県郡安芸太田町","city_kana":"ヤマガタグンアキオオタチョウ","town":"板ケ谷","town_kana":"イタガタニ","prefecture_code":34},"3551":{"zip_code":"7313551","prefecture":"広島県","prefecture_kana":"ヒロシマケン","city":"山県郡安芸太田町","city_kana":"ヤマガタグンアキオオタチョウ","town":"猪山","town_kana":"イノシヤマ","prefecture_code":34},"3844":{"zip_code":"7313844","prefecture":"広島県","prefecture_kana":"ヒロシマケン","city":"山県郡安芸太田町","city_kana":"ヤマガタグンアキオオタチョウ","town":"打梨","town_kana":"ウツナシ","prefecture_code":34},"3501":{"zip_code":"7313501","prefecture":"広島県","prefecture_kana":"ヒロシマケン","city":"山県郡安芸太田町","city_kana":"ヤマガタグンアキオオタチョウ","town":"加計","town_kana":"カケ","prefecture_code":34},"3832":{"zip_code":"7313832","prefecture":"広島県","prefecture_kana":"ヒロシマケン","city":"山県郡安芸太田町","city_kana":"ヤマガタグンアキオオタチョウ","town":"梶ノ木","town_kana":"カジノキ","prefecture_code":34},"3701":{"zip_code":"7313701","prefecture":"広島県","prefecture_kana":"ヒロシマケン","city":"山県郡安芸太田町","city_kana":"ヤマガタグンアキオオタチョウ","town":"上筒賀","town_kana":"カミツツガ","prefecture_code":34},"3664":{"zip_code":"7313664","prefecture":"広島県","prefecture_kana":"ヒロシマケン","city":"山県郡安芸太田町","city_kana":"ヤマガタグンアキオオタチョウ","town":"上殿","town_kana":"カミトノ","prefecture_code":34},"3831":{"zip_code":"7313831","prefecture":"広島県","prefecture_kana":"ヒロシマケン","city":"山県郡安芸太田町","city_kana":"ヤマガタグンアキオオタチョウ","town":"川手","town_kana":"カワテ","prefecture_code":34},"3503":{"zip_code":"7313503","prefecture":"広島県","prefecture_kana":"ヒロシマケン","city":"山県郡安芸太田町","city_kana":"ヤマガタグンアキオオタチョウ","town":"観音","town_kana":"カンノン","prefecture_code":34},"3835":{"zip_code":"7313835","prefecture":"広島県","prefecture_kana":"ヒロシマケン","city":"山県郡安芸太田町","city_kana":"ヤマガタグンアキオオタチョウ","town":"小板","town_kana":"コイタ","prefecture_code":34},"3621":{"zip_code":"7313621","prefecture":"広島県","prefecture_kana":"ヒロシマケン","city":"山県郡安芸太田町","city_kana":"ヤマガタグンアキオオタチョウ","town":"下筒賀","town_kana":"シモツツガ","prefecture_code":34},"3622":{"zip_code":"7313622","prefecture":"広島県","prefecture_kana":"ヒロシマケン","city":"山県郡安芸太田町","city_kana":"ヤマガタグンアキオオタチョウ","town":"下殿河内","town_kana":"シモトノゴウチ","prefecture_code":34},"3824":{"zip_code":"7313824","prefecture":"広島県","prefecture_kana":"ヒロシマケン","city":"山県郡安芸太田町","city_kana":"ヤマガタグンアキオオタチョウ","town":"寺領","town_kana":"ジリョウ","prefecture_code":34},"3813":{"zip_code":"7313813","prefecture":"広島県","prefecture_kana":"ヒロシマケン","city":"山県郡安芸太田町","city_kana":"ヤマガタグンアキオオタチョウ","town":"柴木","town_kana":"シワギ","prefecture_code":34},"3842":{"zip_code":"7313842","prefecture":"広島県","prefecture_kana":"ヒロシマケン","city":"山県郡安芸太田町","city_kana":"ヤマガタグンアキオオタチョウ","town":"田吹","town_kana":"タブキ","prefecture_code":34},"3502":{"zip_code":"7313502","prefecture":"広島県","prefecture_kana":"ヒロシマケン","city":"山県郡安芸太田町","city_kana":"ヤマガタグンアキオオタチョウ","town":"津浪","town_kana":"ツナミ","prefecture_code":34},"3412":{"zip_code":"7313412","prefecture":"広島県","prefecture_kana":"ヒロシマケン","city":"山県郡安芸太田町","city_kana":"ヤマガタグンアキオオタチョウ","town":"坪野","town_kana":"ツボノ","prefecture_code":34},"3821":{"zip_code":"7313821","prefecture":"広島県","prefecture_kana":"ヒロシマケン","city":"山県郡安芸太田町","city_kana":"ヤマガタグンアキオオタチョウ","town":"土居","town_kana":"ドイ","prefecture_code":34},"3810":{"zip_code":"7313810","prefecture":"広島県","prefecture_kana":"ヒロシマケン","city":"山県郡安芸太田町","city_kana":"ヤマガタグンアキオオタチョウ","town":"戸河内","town_kana":"トゴウチ","prefecture_code":34},"3702":{"zip_code":"7313702","prefecture":"広島県","prefecture_kana":"ヒロシマケン","city":"山県郡安芸太田町","city_kana":"ヤマガタグンアキオオタチョウ","town":"中筒賀","town_kana":"ナカツツガ","prefecture_code":34},"3845":{"zip_code":"7313845","prefecture":"広島県","prefecture_kana":"ヒロシマケン","city":"山県郡安芸太田町","city_kana":"ヤマガタグンアキオオタチョウ","town":"那須","town_kana":"ナス","prefecture_code":34},"3552":{"zip_code":"7313552","prefecture":"広島県","prefecture_kana":"ヒロシマケン","city":"山県郡安芸太田町","city_kana":"ヤマガタグンアキオオタチョウ","town":"平見谷","town_kana":"ヒラミダニ","prefecture_code":34},"3834":{"zip_code":"7313834","prefecture":"広島県","prefecture_kana":"ヒロシマケン","city":"山県郡安芸太田町","city_kana":"ヤマガタグンアキオオタチョウ","town":"松原","town_kana":"マツバラ","prefecture_code":34},"3801":{"zip_code":"7313801","prefecture":"広島県","prefecture_kana":"ヒロシマケン","city":"山県郡安芸太田町","city_kana":"ヤマガタグンアキオオタチョウ","town":"横川","town_kana":"ヨコゴウ","prefecture_code":34},"3843":{"zip_code":"7313843","prefecture":"広島県","prefecture_kana":"ヒロシマケン","city":"山県郡安芸太田町","city_kana":"ヤマガタグンアキオオタチョウ","town":"吉和郷","town_kana":"ヨシワゴウ","prefecture_code":34},"1500":{"zip_code":"7311500","prefecture":"広島県","prefecture_kana":"ヒロシマケン","city":"山県郡北広島町","city_kana":"ヤマガタグンキタヒロシマチョウ","town":"","town_kana":"","prefecture_code":34},"1222":{"zip_code":"7311222","prefecture":"広島県","prefecture_kana":"ヒロシマケン","city":"山県郡北広島町","city_kana":"ヤマガタグンキタヒロシマチョウ","town":"阿坂","town_kana":"アザカ","prefecture_code":34},"1533":{"zip_code":"7311533","prefecture":"広島県","prefecture_kana":"ヒロシマケン","city":"山県郡北広島町","city_kana":"ヤマガタグンキタヒロシマチョウ","town":"有田","town_kana":"アリダ","prefecture_code":34},"1503":{"zip_code":"7311503","prefecture":"広島県","prefecture_kana":"ヒロシマケン","city":"山県郡北広島町","city_kana":"ヤマガタグンキタヒロシマチョウ","town":"有間","town_kana":"アリマ","prefecture_code":34},"2106":{"zip_code":"7312106","prefecture":"広島県","prefecture_kana":"ヒロシマケン","city":"山県郡北広島町","city_kana":"ヤマガタグンキタヒロシマチョウ","town":"筏津","town_kana":"イカダツ","prefecture_code":34},"1525":{"zip_code":"7311525","prefecture":"広島県","prefecture_kana":"ヒロシマケン","city":"山県郡北広島町","city_kana":"ヤマガタグンキタヒロシマチョウ","town":"石井谷","town_kana":"イシイダニ","prefecture_code":34},"2321":{"zip_code":"7312321","prefecture":"広島県","prefecture_kana":"ヒロシマケン","city":"山県郡北広島町","city_kana":"ヤマガタグンキタヒロシマチョウ","town":"板村","town_kana":"イタムラ","prefecture_code":34},"1535":{"zip_code":"7311535","prefecture":"広島県","prefecture_kana":"ヒロシマケン","city":"山県郡北広島町","city_kana":"ヤマガタグンキタヒロシマチョウ","town":"今田","town_kana":"イマダ","prefecture_code":34},"1221":{"zip_code":"7311221","prefecture":"広島県","prefecture_kana":"ヒロシマケン","city":"山県郡北広島町","city_kana":"ヤマガタグンキタヒロシマチョウ","town":"今吉田","town_kana":"イマヨシダ","prefecture_code":34},"2102":{"zip_code":"7312102","prefecture":"広島県","prefecture_kana":"ヒロシマケン","city":"山県郡北広島町","city_kana":"ヤマガタグンキタヒロシマチョウ","town":"岩戸","town_kana":"イワド","prefecture_code":34},"1534":{"zip_code":"7311534","prefecture":"広島県","prefecture_kana":"ヒロシマケン","city":"山県郡北広島町","city_kana":"ヤマガタグンキタヒロシマチョウ","town":"後有田","town_kana":"ウシロアリダ","prefecture_code":34},"2442":{"zip_code":"7312442","prefecture":"広島県","prefecture_kana":"ヒロシマケン","city":"山県郡北広島町","city_kana":"ヤマガタグンキタヒロシマチョウ","town":"雲耕","town_kana":"ウズノウ","prefecture_code":34},"2206":{"zip_code":"7312206","prefecture":"広島県","prefecture_kana":"ヒロシマケン","city":"山県郡北広島町","city_kana":"ヤマガタグンキタヒロシマチョウ","town":"移原","town_kana":"ウツノハラ","prefecture_code":34},"2104":{"zip_code":"7312104","prefecture":"広島県","prefecture_kana":"ヒロシマケン","city":"山県郡北広島町","city_kana":"ヤマガタグンキタヒロシマチョウ","town":"大朝","town_kana":"オオアサ","prefecture_code":34},"2204":{"zip_code":"7312204","prefecture":"広島県","prefecture_kana":"ヒロシマケン","city":"山県郡北広島町","city_kana":"ヤマガタグンキタヒロシマチョウ","town":"大暮","town_kana":"オオグレ","prefecture_code":34},"2107":{"zip_code":"7312107","prefecture":"広島県","prefecture_kana":"ヒロシマケン","city":"山県郡北広島町","city_kana":"ヤマガタグンキタヒロシマチョウ","town":"大塚","town_kana":"オオツカ","prefecture_code":34},"2315":{"zip_code":"7312315","prefecture":"広島県","prefecture_kana":"ヒロシマケン","city":"山県郡北広島町","city_kana":"ヤマガタグンキタヒロシマチョウ","town":"大利原","town_kana":"オオトシバラ","prefecture_code":34},"2437":{"zip_code":"7312437","prefecture":"広島県","prefecture_kana":"ヒロシマケン","city":"山県郡北広島町","city_kana":"ヤマガタグンキタヒロシマチョウ","town":"大元","town_kana":"オオモト","prefecture_code":34},"2324":{"zip_code":"7312324","prefecture":"広島県","prefecture_kana":"ヒロシマケン","city":"山県郡北広島町","city_kana":"ヤマガタグンキタヒロシマチョウ","town":"奥中原","town_kana":"オクナカバラ","prefecture_code":34},"2312":{"zip_code":"7312312","prefecture":"広島県","prefecture_kana":"ヒロシマケン","city":"山県郡北広島町","city_kana":"ヤマガタグンキタヒロシマチョウ","town":"奥原","town_kana":"オクハラ","prefecture_code":34},"1703":{"zip_code":"7311703","prefecture":"広島県","prefecture_kana":"ヒロシマケン","city":"山県郡北広島町","city_kana":"ヤマガタグンキタヒロシマチョウ","town":"海応寺","town_kana":"カイオウジ","prefecture_code":34},"1702":{"zip_code":"7311702","prefecture":"広島県","prefecture_kana":"ヒロシマケン","city":"山県郡北広島町","city_kana":"ヤマガタグンキタヒロシマチョウ","town":"上石","town_kana":"カミイシ","prefecture_code":34},"2317":{"zip_code":"7312317","prefecture":"広島県","prefecture_kana":"ヒロシマケン","city":"山県郡北広島町","city_kana":"ヤマガタグンキタヒロシマチョウ","town":"苅屋形","town_kana":"カリヤガタ","prefecture_code":34},"1513":{"zip_code":"7311513","prefecture":"広島県","prefecture_kana":"ヒロシマケン","city":"山県郡北広島町","city_kana":"ヤマガタグンキタヒロシマチョウ","town":"川井","town_kana":"カワイ","prefecture_code":34},"2323":{"zip_code":"7312323","prefecture":"広島県","prefecture_kana":"ヒロシマケン","city":"山県郡北広島町","city_kana":"ヤマガタグンキタヒロシマチョウ","town":"川小田","town_kana":"カワコダ","prefecture_code":34},"1501":{"zip_code":"7311501","prefecture":"広島県","prefecture_kana":"ヒロシマケン","city":"山県郡北広島町","city_kana":"ヤマガタグンキタヒロシマチョウ","town":"川戸","town_kana":"カワド","prefecture_code":34},"1516":{"zip_code":"7311516","prefecture":"広島県","prefecture_kana":"ヒロシマケン","city":"山県郡北広島町","city_kana":"ヤマガタグンキタヒロシマチョウ","town":"川西","town_kana":"カワニシ","prefecture_code":34},"1512":{"zip_code":"7311512","prefecture":"広島県","prefecture_kana":"ヒロシマケン","city":"山県郡北広島町","city_kana":"ヤマガタグンキタヒロシマチョウ","town":"川東","town_kana":"カワヒガシ","prefecture_code":34},"1524":{"zip_code":"7311524","prefecture":"広島県","prefecture_kana":"ヒロシマケン","city":"山県郡北広島町","city_kana":"ヤマガタグンキタヒロシマチョウ","town":"木次","town_kana":"キツギ","prefecture_code":34},"2313":{"zip_code":"7312313","prefecture":"広島県","prefecture_kana":"ヒロシマケン","city":"山県郡北広島町","city_kana":"ヤマガタグンキタヒロシマチョウ","town":"草安","town_kana":"クサヤス","prefecture_code":34},"1502":{"zip_code":"7311502","prefecture":"広島県","prefecture_kana":"ヒロシマケン","city":"山県郡北広島町","city_kana":"ヤマガタグンキタヒロシマチョウ","town":"蔵迫","town_kana":"クラザコ","prefecture_code":34},"2431":{"zip_code":"7312431","prefecture":"広島県","prefecture_kana":"ヒロシマケン","city":"山県郡北広島町","city_kana":"ヤマガタグンキタヒロシマチョウ","town":"荒神原","town_kana":"コウジンバラ","prefecture_code":34},"2203":{"zip_code":"7312203","prefecture":"広島県","prefecture_kana":"ヒロシマケン","city":"山県郡北広島町","city_kana":"ヤマガタグンキタヒロシマチョウ","town":"小原","town_kana":"コバラ","prefecture_code":34},"1532":{"zip_code":"7311532","prefecture":"広島県","prefecture_kana":"ヒロシマケン","city":"山県郡北広島町","city_kana":"ヤマガタグンキタヒロシマチョウ","town":"古保利","town_kana":"コホリ","prefecture_code":34},"2314":{"zip_code":"7312314","prefecture":"広島県","prefecture_kana":"ヒロシマケン","city":"山県郡北広島町","city_kana":"ヤマガタグンキタヒロシマチョウ","town":"才乙","town_kana":"サヨオト","prefecture_code":34},"1701":{"zip_code":"7311701","prefecture":"広島県","prefecture_kana":"ヒロシマケン","city":"山県郡北広島町","city_kana":"ヤマガタグンキタヒロシマチョウ","town":"志路原","town_kana":"シジハラ","prefecture_code":34},"1704":{"zip_code":"7311704","prefecture":"広島県","prefecture_kana":"ヒロシマケン","city":"山県郡北広島町","city_kana":"ヤマガタグンキタヒロシマチョウ","town":"下石","town_kana":"シモイシ","prefecture_code":34},"1514":{"zip_code":"7311514","prefecture":"広島県","prefecture_kana":"ヒロシマケン","city":"山県郡北広島町","city_kana":"ヤマガタグンキタヒロシマチョウ","town":"新氏神","town_kana":"シンウジガミ","prefecture_code":34},"1522":{"zip_code":"7311522","prefecture":"広島県","prefecture_kana":"ヒロシマケン","city":"山県郡北広島町","city_kana":"ヤマガタグンキタヒロシマチョウ","town":"新郷","town_kana":"シンゴウ","prefecture_code":34},"2103":{"zip_code":"7312103","prefecture":"広島県","prefecture_kana":"ヒロシマケン","city":"山県郡北広島町","city_kana":"ヤマガタグンキタヒロシマチョウ","town":"新庄","town_kana":"シンジョウ","prefecture_code":34},"1511":{"zip_code":"7311511","prefecture":"広島県","prefecture_kana":"ヒロシマケン","city":"山県郡北広島町","city_kana":"ヤマガタグンキタヒロシマチョウ","town":"惣森","town_kana":"ソウモリ","prefecture_code":34},"2435":{"zip_code":"7312435","prefecture":"広島県","prefecture_kana":"ヒロシマケン","city":"山県郡北広島町","city_kana":"ヤマガタグンキタヒロシマチョウ","town":"空城","town_kana":"ソラジョウ","prefecture_code":34},"2201":{"zip_code":"7312201","prefecture":"広島県","prefecture_kana":"ヒロシマケン","city":"山県郡北広島町","city_kana":"ヤマガタグンキタヒロシマチョウ","town":"高野","town_kana":"タカノ","prefecture_code":34},"2105":{"zip_code":"7312105","prefecture":"広島県","prefecture_kana":"ヒロシマケン","city":"山県郡北広島町","city_kana":"ヤマガタグンキタヒロシマチョウ","town":"田原","town_kana":"タワラ","prefecture_code":34},"1712":{"zip_code":"7311712","prefecture":"広島県","prefecture_kana":"ヒロシマケン","city":"山県郡北広島町","city_kana":"ヤマガタグンキタヒロシマチョウ","town":"都志見","town_kana":"ツシミ","prefecture_code":34},"2311":{"zip_code":"7312311","prefecture":"広島県","prefecture_kana":"ヒロシマケン","city":"山県郡北広島町","city_kana":"ヤマガタグンキタヒロシマチョウ","town":"土橋","town_kana":"ツチハシ","prefecture_code":34},"1504":{"zip_code":"7311504","prefecture":"広島県","prefecture_kana":"ヒロシマケン","city":"山県郡北広島町","city_kana":"ヤマガタグンキタヒロシマチョウ","town":"寺原","town_kana":"テラバラ","prefecture_code":34},"1711":{"zip_code":"7311711","prefecture":"広島県","prefecture_kana":"ヒロシマケン","city":"山県郡北広島町","city_kana":"ヤマガタグンキタヒロシマチョウ","town":"戸谷","town_kana":"トダニ","prefecture_code":34},"1713":{"zip_code":"7311713","prefecture":"広島県","prefecture_kana":"ヒロシマケン","city":"山県郡北広島町","city_kana":"ヤマガタグンキタヒロシマチョウ","town":"長笹","town_kana":"ナガササ","prefecture_code":34},"2432":{"zip_code":"7312432","prefecture":"広島県","prefecture_kana":"ヒロシマケン","city":"山県郡北広島町","city_kana":"ヤマガタグンキタヒロシマチョウ","town":"中祖","town_kana":"ナカソ","prefecture_code":34},"1706":{"zip_code":"7311706","prefecture":"広島県","prefecture_kana":"ヒロシマケン","city":"山県郡北広島町","city_kana":"ヤマガタグンキタヒロシマチョウ","town":"中原","town_kana":"ナカバラ","prefecture_code":34},"1506":{"zip_code":"7311506","prefecture":"広島県","prefecture_kana":"ヒロシマケン","city":"山県郡北広島町","city_kana":"ヤマガタグンキタヒロシマチョウ","town":"中山","town_kana":"ナカヤマ","prefecture_code":34},"2316":{"zip_code":"7312316","prefecture":"広島県","prefecture_kana":"ヒロシマケン","city":"山県郡北広島町","city_kana":"ヤマガタグンキタヒロシマチョウ","town":"南門原","town_kana":"ナモンバラ","prefecture_code":34},"1705":{"zip_code":"7311705","prefecture":"広島県","prefecture_kana":"ヒロシマケン","city":"山県郡北広島町","city_kana":"ヤマガタグンキタヒロシマチョウ","town":"西宗","town_kana":"ニシムネ","prefecture_code":34},"2552":{"zip_code":"7312552","prefecture":"広島県","prefecture_kana":"ヒロシマケン","city":"山県郡北広島町","city_kana":"ヤマガタグンキタヒロシマチョウ","town":"西八幡原","town_kana":"ニシヤワタハラ","prefecture_code":34},"2434":{"zip_code":"7312434","prefecture":"広島県","prefecture_kana":"ヒロシマケン","city":"山県郡北広島町","city_kana":"ヤマガタグンキタヒロシマチョウ","town":"橋山","town_kana":"ハシヤマ","prefecture_code":34},"1531":{"zip_code":"7311531","prefecture":"広島県","prefecture_kana":"ヒロシマケン","city":"山県郡北広島町","city_kana":"ヤマガタグンキタヒロシマチョウ","town":"春木","town_kana":"ハルキ","prefecture_code":34},"2551":{"zip_code":"7312551","prefecture":"広島県","prefecture_kana":"ヒロシマケン","city":"山県郡北広島町","city_kana":"ヤマガタグンキタヒロシマチョウ","town":"東八幡原","town_kana":"ヒガシヤワタハラ","prefecture_code":34},"3561":{"zip_code":"7313561","prefecture":"広島県","prefecture_kana":"ヒロシマケン","city":"山県郡北広島町","city_kana":"ヤマガタグンキタヒロシマチョウ","town":"細見下山","town_kana":"ホソミシモヤマ","prefecture_code":34},"2322":{"zip_code":"7312322","prefecture":"広島県","prefecture_kana":"ヒロシマケン","city":"山県郡北広島町","city_kana":"ヤマガタグンキタヒロシマチョウ","town":"細見","town_kana":"ホソミ","prefecture_code":34},"1526":{"zip_code":"7311526","prefecture":"広島県","prefecture_kana":"ヒロシマケン","city":"山県郡北広島町","city_kana":"ヤマガタグンキタヒロシマチョウ","town":"本地","town_kana":"ホンジ","prefecture_code":34},"2436":{"zip_code":"7312436","prefecture":"広島県","prefecture_kana":"ヒロシマケン","city":"山県郡北広島町","city_kana":"ヤマガタグンキタヒロシマチョウ","town":"政所","town_kana":"マンドコロ","prefecture_code":34},"2202":{"zip_code":"7312202","prefecture":"広島県","prefecture_kana":"ヒロシマケン","city":"山県郡北広島町","city_kana":"ヤマガタグンキタヒロシマチョウ","town":"溝口","town_kana":"ミゾグチ","prefecture_code":34},"1523":{"zip_code":"7311523","prefecture":"広島県","prefecture_kana":"ヒロシマケン","city":"山県郡北広島町","city_kana":"ヤマガタグンキタヒロシマチョウ","town":"南方","town_kana":"ミナミガタ","prefecture_code":34},"1515":{"zip_code":"7311515","prefecture":"広島県","prefecture_kana":"ヒロシマケン","city":"山県郡北広島町","city_kana":"ヤマガタグンキタヒロシマチョウ","town":"壬生","town_kana":"ミブ","prefecture_code":34},"2101":{"zip_code":"7312101","prefecture":"広島県","prefecture_kana":"ヒロシマケン","city":"山県郡北広島町","city_kana":"ヤマガタグンキタヒロシマチョウ","town":"宮迫","town_kana":"ミヤザコ","prefecture_code":34},"2441":{"zip_code":"7312441","prefecture":"広島県","prefecture_kana":"ヒロシマケン","city":"山県郡北広島町","city_kana":"ヤマガタグンキタヒロシマチョウ","town":"宮地","town_kana":"ミヤジ","prefecture_code":34},"1505":{"zip_code":"7311505","prefecture":"広島県","prefecture_kana":"ヒロシマケン","city":"山県郡北広島町","city_kana":"ヤマガタグンキタヒロシマチョウ","town":"舞綱","town_kana":"モウツナ","prefecture_code":34},"1521":{"zip_code":"7311521","prefecture":"広島県","prefecture_kana":"ヒロシマケン","city":"山県郡北広島町","city_kana":"ヤマガタグンキタヒロシマチョウ","town":"丁保余原","town_kana":"ヨオロホヨバラ","prefecture_code":34},"1714":{"zip_code":"7311714","prefecture":"広島県","prefecture_kana":"ヒロシマケン","city":"山県郡北広島町","city_kana":"ヤマガタグンキタヒロシマチョウ","town":"吉木水根","town_kana":"ヨシキミノネ","prefecture_code":34},"1223":{"zip_code":"7311223","prefecture":"広島県","prefecture_kana":"ヒロシマケン","city":"山県郡北広島町","city_kana":"ヤマガタグンキタヒロシマチョウ","town":"吉木","town_kana":"ヨシキ","prefecture_code":34},"2433":{"zip_code":"7312433","prefecture":"広島県","prefecture_kana":"ヒロシマケン","city":"山県郡北広島町","city_kana":"ヤマガタグンキタヒロシマチョウ","town":"吉見坂","town_kana":"ヨシミザカ","prefecture_code":34},"2205":{"zip_code":"7312205","prefecture":"広島県","prefecture_kana":"ヒロシマケン","city":"山県郡北広島町","city_kana":"ヤマガタグンキタヒロシマチョウ","town":"米沢","town_kana":"ヨネザワ","prefecture_code":34}}