{"0000":{"zip_code":"7320000","prefecture":"広島県","prefecture_kana":"ヒロシマケン","city":"広島市東区","city_kana":"ヒロシマシヒガシク","town":"","town_kana":"","prefecture_code":34},"0045":{"zip_code":"7320045","prefecture":"広島県","prefecture_kana":"ヒロシマケン","city":"広島市東区","city_kana":"ヒロシマシヒガシク","town":"曙","town_kana":"アケボノ","prefecture_code":34},"0054":{"zip_code":"7320054","prefecture":"広島県","prefecture_kana":"ヒロシマケン","city":"広島市東区","city_kana":"ヒロシマシヒガシク","town":"愛宕町","town_kana":"アタゴマチ","prefecture_code":34},"0067":{"zip_code":"7320067","prefecture":"広島県","prefecture_kana":"ヒロシマケン","city":"広島市東区","city_kana":"ヒロシマシヒガシク","town":"牛田旭","town_kana":"ウシタアサヒ","prefecture_code":34},"0068":{"zip_code":"7320068","prefecture":"広島県","prefecture_kana":"ヒロシマケン","city":"広島市東区","city_kana":"ヒロシマシヒガシク","town":"牛田新町","town_kana":"ウシタシンマチ","prefecture_code":34},"0065":{"zip_code":"7320065","prefecture":"広島県","prefecture_kana":"ヒロシマケン","city":"広島市東区","city_kana":"ヒロシマシヒガシク","town":"牛田中","town_kana":"ウシタナカ","prefecture_code":34},"0066":{"zip_code":"7320066","prefecture":"広島県","prefecture_kana":"ヒロシマケン","city":"広島市東区","city_kana":"ヒロシマシヒガシク","town":"牛田本町","town_kana":"ウシタホンマチ","prefecture_code":34},"0062":{"zip_code":"7320062","prefecture":"広島県","prefecture_kana":"ヒロシマケン","city":"広島市東区","city_kana":"ヒロシマシヒガシク","town":"牛田早稲田","town_kana":"ウシタワセダ","prefecture_code":34},"0063":{"zip_code":"7320063","prefecture":"広島県","prefecture_kana":"ヒロシマケン","city":"広島市東区","city_kana":"ヒロシマシヒガシク","town":"牛田東","town_kana":"ウシタヒガシ","prefecture_code":34},"0064":{"zip_code":"7320064","prefecture":"広島県","prefecture_kana":"ヒロシマケン","city":"広島市東区","city_kana":"ヒロシマシヒガシク","town":"牛田南","town_kana":"ウシタミナミ","prefecture_code":34},"0061":{"zip_code":"7320061","prefecture":"広島県","prefecture_kana":"ヒロシマケン","city":"広島市東区","city_kana":"ヒロシマシヒガシク","town":"牛田山","town_kana":"ウシタヤマ","prefecture_code":34},"0031":{"zip_code":"7320031","prefecture":"広島県","prefecture_kana":"ヒロシマケン","city":"広島市東区","city_kana":"ヒロシマシヒガシク","town":"馬木","town_kana":"ウマキ","prefecture_code":34},"0035":{"zip_code":"7320035","prefecture":"広島県","prefecture_kana":"ヒロシマケン","city":"広島市東区","city_kana":"ヒロシマシヒガシク","town":"馬木町","town_kana":"ウマキチョウ","prefecture_code":34},"0046":{"zip_code":"7320046","prefecture":"広島県","prefecture_kana":"ヒロシマケン","city":"広島市東区","city_kana":"ヒロシマシヒガシク","town":"尾長東","town_kana":"オナガヒガシ","prefecture_code":34},"0047":{"zip_code":"7320047","prefecture":"広島県","prefecture_kana":"ヒロシマケン","city":"広島市東区","city_kana":"ヒロシマシヒガシク","town":"尾長西","town_kana":"オナガニシ","prefecture_code":34},"0049":{"zip_code":"7320049","prefecture":"広島県","prefecture_kana":"ヒロシマケン","city":"広島市東区","city_kana":"ヒロシマシヒガシク","town":"尾長町","town_kana":"オナガマチ","prefecture_code":34},"0056":{"zip_code":"7320056","prefecture":"広島県","prefecture_kana":"ヒロシマケン","city":"広島市東区","city_kana":"ヒロシマシヒガシク","town":"上大須賀町","town_kana":"カミオオスガチョウ","prefecture_code":34},"0032":{"zip_code":"7320032","prefecture":"広島県","prefecture_kana":"ヒロシマケン","city":"広島市東区","city_kana":"ヒロシマシヒガシク","town":"上温品","town_kana":"カミヌクシナ","prefecture_code":34},"0022":{"zip_code":"7320022","prefecture":"広島県","prefecture_kana":"ヒロシマケン","city":"広島市東区","city_kana":"ヒロシマシヒガシク","town":"中山鏡が丘","town_kana":"ナカヤマカガミガオカ","prefecture_code":34},"0027":{"zip_code":"7320027","prefecture":"広島県","prefecture_kana":"ヒロシマケン","city":"広島市東区","city_kana":"ヒロシマシヒガシク","town":"中山上","town_kana":"ナカヤマカミ","prefecture_code":34},"0028":{"zip_code":"7320028","prefecture":"広島県","prefecture_kana":"ヒロシマケン","city":"広島市東区","city_kana":"ヒロシマシヒガシク","town":"中山北町","town_kana":"ナカヤマキタマチ","prefecture_code":34},"0021":{"zip_code":"7320021","prefecture":"広島県","prefecture_kana":"ヒロシマケン","city":"広島市東区","city_kana":"ヒロシマシヒガシク","town":"中山新町","town_kana":"ナカヤマシンマチ","prefecture_code":34},"0026":{"zip_code":"7320026","prefecture":"広島県","prefecture_kana":"ヒロシマケン","city":"広島市東区","city_kana":"ヒロシマシヒガシク","town":"中山中町","town_kana":"ナカヤマナカマチ","prefecture_code":34},"0023":{"zip_code":"7320023","prefecture":"広島県","prefecture_kana":"ヒロシマケン","city":"広島市東区","city_kana":"ヒロシマシヒガシク","town":"中山東","town_kana":"ナカヤマヒガシ","prefecture_code":34},"0025":{"zip_code":"7320025","prefecture":"広島県","prefecture_kana":"ヒロシマケン","city":"広島市東区","city_kana":"ヒロシマシヒガシク","town":"中山西","town_kana":"ナカヤマニシ","prefecture_code":34},"0024":{"zip_code":"7320024","prefecture":"広島県","prefecture_kana":"ヒロシマケン","city":"広島市東区","city_kana":"ヒロシマシヒガシク","town":"中山南","town_kana":"ナカヤマミナミ","prefecture_code":34},"0033":{"zip_code":"7320033","prefecture":"広島県","prefecture_kana":"ヒロシマケン","city":"広島市東区","city_kana":"ヒロシマシヒガシク","town":"温品","town_kana":"ヌクシナ","prefecture_code":34},"0034":{"zip_code":"7320034","prefecture":"広島県","prefecture_kana":"ヒロシマケン","city":"広島市東区","city_kana":"ヒロシマシヒガシク","town":"温品町","town_kana":"ヌクシナチョウ","prefecture_code":34},"0051":{"zip_code":"7320051","prefecture":"広島県","prefecture_kana":"ヒロシマケン","city":"広島市東区","city_kana":"ヒロシマシヒガシク","town":"光が丘","town_kana":"ヒカリガオカ","prefecture_code":34},"0052":{"zip_code":"7320052","prefecture":"広島県","prefecture_kana":"ヒロシマケン","city":"広島市東区","city_kana":"ヒロシマシヒガシク","town":"光町","town_kana":"ヒカリマチ","prefecture_code":34},"0055":{"zip_code":"7320055","prefecture":"広島県","prefecture_kana":"ヒロシマケン","city":"広島市東区","city_kana":"ヒロシマシヒガシク","town":"東蟹屋町","town_kana":"ヒガシカニヤチョウ","prefecture_code":34},"0043":{"zip_code":"7320043","prefecture":"広島県","prefecture_kana":"ヒロシマケン","city":"広島市東区","city_kana":"ヒロシマシヒガシク","town":"東山町","town_kana":"ヒガシヤマチョウ","prefecture_code":34},"0029":{"zip_code":"7320029","prefecture":"広島県","prefecture_kana":"ヒロシマケン","city":"広島市東区","city_kana":"ヒロシマシヒガシク","town":"福田","town_kana":"フクダ","prefecture_code":34},"0036":{"zip_code":"7320036","prefecture":"広島県","prefecture_kana":"ヒロシマケン","city":"広島市東区","city_kana":"ヒロシマシヒガシク","town":"福田町","town_kana":"フクダチョウ","prefecture_code":34},"0057":{"zip_code":"7320057","prefecture":"広島県","prefecture_kana":"ヒロシマケン","city":"広島市東区","city_kana":"ヒロシマシヒガシク","town":"二葉の里","town_kana":"フタバノサト","prefecture_code":34},"0016":{"zip_code":"7320016","prefecture":"広島県","prefecture_kana":"ヒロシマケン","city":"広島市東区","city_kana":"ヒロシマシヒガシク","town":"戸坂出江","town_kana":"ヘサカイヅエ","prefecture_code":34},"0014":{"zip_code":"7320014","prefecture":"広島県","prefecture_kana":"ヒロシマケン","city":"広島市東区","city_kana":"ヒロシマシヒガシク","town":"戸坂大上","town_kana":"ヘサカオオアゲ","prefecture_code":34},"0017":{"zip_code":"7320017","prefecture":"広島県","prefecture_kana":"ヒロシマケン","city":"広島市東区","city_kana":"ヒロシマシヒガシク","town":"戸坂数甲","town_kana":"ヘサカカズコウ","prefecture_code":34},"0008":{"zip_code":"7320008","prefecture":"広島県","prefecture_kana":"ヒロシマケン","city":"広島市東区","city_kana":"ヒロシマシヒガシク","town":"戸坂くるめ木","town_kana":"ヘサカクルメギ","prefecture_code":34},"0007":{"zip_code":"7320007","prefecture":"広島県","prefecture_kana":"ヒロシマケン","city":"広島市東区","city_kana":"ヒロシマシヒガシク","town":"戸坂桜上町","town_kana":"ヘサカサクラウエマチ","prefecture_code":34},"0005":{"zip_code":"7320005","prefecture":"広島県","prefecture_kana":"ヒロシマケン","city":"広島市東区","city_kana":"ヒロシマシヒガシク","town":"戸坂桜東町","town_kana":"ヘサカサクラヒガシマチ","prefecture_code":34},"0006":{"zip_code":"7320006","prefecture":"広島県","prefecture_kana":"ヒロシマケン","city":"広島市東区","city_kana":"ヒロシマシヒガシク","town":"戸坂桜西町","town_kana":"ヘサカサクラニシマチ","prefecture_code":34},"0015":{"zip_code":"7320015","prefecture":"広島県","prefecture_kana":"ヒロシマケン","city":"広島市東区","city_kana":"ヒロシマシヒガシク","town":"戸坂城山町","town_kana":"ヘサカシロヤマチョウ","prefecture_code":34},"0012":{"zip_code":"7320012","prefecture":"広島県","prefecture_kana":"ヒロシマケン","city":"広島市東区","city_kana":"ヒロシマシヒガシク","town":"戸坂新町","town_kana":"ヘサカシンマチ","prefecture_code":34},"0009":{"zip_code":"7320009","prefecture":"広島県","prefecture_kana":"ヒロシマケン","city":"広島市東区","city_kana":"ヒロシマシヒガシク","town":"戸坂千足","town_kana":"ヘサカセンゾク","prefecture_code":34},"0001":{"zip_code":"7320001","prefecture":"広島県","prefecture_kana":"ヒロシマケン","city":"広島市東区","city_kana":"ヒロシマシヒガシク","town":"戸坂惣田","town_kana":"ヘサカソウダ","prefecture_code":34},"0018":{"zip_code":"7320018","prefecture":"広島県","prefecture_kana":"ヒロシマケン","city":"広島市東区","city_kana":"ヒロシマシヒガシク","town":"戸坂長尾台","town_kana":"ヘサカナガオダイ","prefecture_code":34},"0003":{"zip_code":"7320003","prefecture":"広島県","prefecture_kana":"ヒロシマケン","city":"広島市東区","city_kana":"ヒロシマシヒガシク","town":"戸坂中町","town_kana":"ヘサカナカマチ","prefecture_code":34},"0004":{"zip_code":"7320004","prefecture":"広島県","prefecture_kana":"ヒロシマケン","city":"広島市東区","city_kana":"ヒロシマシヒガシク","town":"戸坂山崎町","town_kana":"ヘサカヤマサキチョウ","prefecture_code":34},"0002":{"zip_code":"7320002","prefecture":"広島県","prefecture_kana":"ヒロシマケン","city":"広島市東区","city_kana":"ヒロシマシヒガシク","town":"戸坂山根","town_kana":"ヘサカヤマネ","prefecture_code":34},"0013":{"zip_code":"7320013","prefecture":"広島県","prefecture_kana":"ヒロシマケン","city":"広島市東区","city_kana":"ヒロシマシヒガシク","town":"戸坂南","town_kana":"ヘサカミナミ","prefecture_code":34},"0011":{"zip_code":"7320011","prefecture":"広島県","prefecture_kana":"ヒロシマケン","city":"広島市東区","city_kana":"ヒロシマシヒガシク","town":"戸坂町","town_kana":"ヘサカチョウ","prefecture_code":34},"0042":{"zip_code":"7320042","prefecture":"広島県","prefecture_kana":"ヒロシマケン","city":"広島市東区","city_kana":"ヒロシマシヒガシク","town":"矢賀","town_kana":"ヤガ","prefecture_code":34},"0044":{"zip_code":"7320044","prefecture":"広島県","prefecture_kana":"ヒロシマケン","city":"広島市東区","city_kana":"ヒロシマシヒガシク","town":"矢賀新町","town_kana":"ヤガシンマチ","prefecture_code":34},"0041":{"zip_code":"7320041","prefecture":"広島県","prefecture_kana":"ヒロシマケン","city":"広島市東区","city_kana":"ヒロシマシヒガシク","town":"矢賀町","town_kana":"ヤガマチ","prefecture_code":34},"0048":{"zip_code":"7320048","prefecture":"広島県","prefecture_kana":"ヒロシマケン","city":"広島市東区","city_kana":"ヒロシマシヒガシク","town":"山根町","town_kana":"ヤマネチョウ","prefecture_code":34},"0053":{"zip_code":"7320053","prefecture":"広島県","prefecture_kana":"ヒロシマケン","city":"広島市東区","city_kana":"ヒロシマシヒガシク","town":"若草町","town_kana":"ワカクサチョウ","prefecture_code":34},"0827":{"zip_code":"7320827","prefecture":"広島県","prefecture_kana":"ヒロシマケン","city":"広島市南区","city_kana":"ヒロシマシミナミク","town":"稲荷町","town_kana":"イナリマチ","prefecture_code":34},"0823":{"zip_code":"7320823","prefecture":"広島県","prefecture_kana":"ヒロシマケン","city":"広島市南区","city_kana":"ヒロシマシミナミク","town":"猿猴橋町","town_kana":"エンコウバシチョウ","prefecture_code":34},"0821":{"zip_code":"7320821","prefecture":"広島県","prefecture_kana":"ヒロシマケン","city":"広島市南区","city_kana":"ヒロシマシミナミク","town":"大須賀町","town_kana":"オオスガチョウ","prefecture_code":34},"0802":{"zip_code":"7320802","prefecture":"広島県","prefecture_kana":"ヒロシマケン","city":"広島市南区","city_kana":"ヒロシマシミナミク","town":"大州","town_kana":"オオズ","prefecture_code":34},"0828":{"zip_code":"7320828","prefecture":"広島県","prefecture_kana":"ヒロシマケン","city":"広島市南区","city_kana":"ヒロシマシミナミク","town":"京橋町","town_kana":"キョウバシチョウ","prefecture_code":34},"0825":{"zip_code":"7320825","prefecture":"広島県","prefecture_kana":"ヒロシマケン","city":"広島市南区","city_kana":"ヒロシマシミナミク","town":"金屋町","town_kana":"キンヤチョウ","prefecture_code":34},"0807":{"zip_code":"7320807","prefecture":"広島県","prefecture_kana":"ヒロシマケン","city":"広島市南区","city_kana":"ヒロシマシミナミク","town":"荒神町","town_kana":"コウジンマチ","prefecture_code":34},"0811":{"zip_code":"7320811","prefecture":"広島県","prefecture_kana":"ヒロシマケン","city":"広島市南区","city_kana":"ヒロシマシミナミク","town":"段原","town_kana":"ダンバラ","prefecture_code":34},"0818":{"zip_code":"7320818","prefecture":"広島県","prefecture_kana":"ヒロシマケン","city":"広島市南区","city_kana":"ヒロシマシミナミク","town":"段原日出","town_kana":"ダンバラヒノデ","prefecture_code":34},"0814":{"zip_code":"7320814","prefecture":"広島県","prefecture_kana":"ヒロシマケン","city":"広島市南区","city_kana":"ヒロシマシミナミク","town":"段原南","town_kana":"ダンバラミナミ","prefecture_code":34},"0819":{"zip_code":"7320819","prefecture":"広島県","prefecture_kana":"ヒロシマケン","city":"広島市南区","city_kana":"ヒロシマシミナミク","town":"段原山崎","town_kana":"ダンバラヤマサキ","prefecture_code":34},"0804":{"zip_code":"7320804","prefecture":"広島県","prefecture_kana":"ヒロシマケン","city":"広島市南区","city_kana":"ヒロシマシミナミク","town":"西蟹屋","town_kana":"ニシカニヤ","prefecture_code":34},"0806":{"zip_code":"7320806","prefecture":"広島県","prefecture_kana":"ヒロシマケン","city":"広島市南区","city_kana":"ヒロシマシミナミク","town":"西荒神町","town_kana":"ニシコウジンマチ","prefecture_code":34},"0801":{"zip_code":"7320801","prefecture":"広島県","prefecture_kana":"ヒロシマケン","city":"広島市南区","city_kana":"ヒロシマシミナミク","town":"東駅町","town_kana":"ヒガシエキマチ","prefecture_code":34},"0805":{"zip_code":"7320805","prefecture":"広島県","prefecture_kana":"ヒロシマケン","city":"広島市南区","city_kana":"ヒロシマシミナミク","town":"東荒神町","town_kana":"ヒガシコウジンマチ","prefecture_code":34},"0815":{"zip_code":"7320815","prefecture":"広島県","prefecture_kana":"ヒロシマケン","city":"広島市南区","city_kana":"ヒロシマシミナミク","town":"比治山公園","town_kana":"ヒジヤマコウエン","prefecture_code":34},"0816":{"zip_code":"7320816","prefecture":"広島県","prefecture_kana":"ヒロシマケン","city":"広島市南区","city_kana":"ヒロシマシミナミク","town":"比治山本町","town_kana":"ヒジヤマホンマチ","prefecture_code":34},"0817":{"zip_code":"7320817","prefecture":"広島県","prefecture_kana":"ヒロシマケン","city":"広島市南区","city_kana":"ヒロシマシミナミク","town":"比治山町","town_kana":"ヒジヤマチョウ","prefecture_code":34},"0826":{"zip_code":"7320826","prefecture":"広島県","prefecture_kana":"ヒロシマケン","city":"広島市南区","city_kana":"ヒロシマシミナミク","town":"松川町","town_kana":"マツカワチョウ","prefecture_code":34},"0822":{"zip_code":"7320822","prefecture":"広島県","prefecture_kana":"ヒロシマケン","city":"広島市南区","city_kana":"ヒロシマシミナミク","town":"松原町","town_kana":"マツバラチョウ","prefecture_code":34},"0824":{"zip_code":"7320824","prefecture":"広島県","prefecture_kana":"ヒロシマケン","city":"広島市南区","city_kana":"ヒロシマシミナミク","town":"的場町","town_kana":"マトバチョウ","prefecture_code":34},"0803":{"zip_code":"7320803","prefecture":"広島県","prefecture_kana":"ヒロシマケン","city":"広島市南区","city_kana":"ヒロシマシミナミク","town":"南蟹屋","town_kana":"ミナミカニヤ","prefecture_code":34}}