{"0000":{"zip_code":"7330000","prefecture":"広島県","prefecture_kana":"ヒロシマケン","city":"広島市西区","city_kana":"ヒロシマシニシク","town":"","town_kana":"","prefecture_code":34},"0845":{"zip_code":"7330845","prefecture":"広島県","prefecture_kana":"ヒロシマケン","city":"広島市西区","city_kana":"ヒロシマシニシク","town":"井口町","town_kana":"イノクチチョウ","prefecture_code":34},"0842":{"zip_code":"7330842","prefecture":"広島県","prefecture_kana":"ヒロシマケン","city":"広島市西区","city_kana":"ヒロシマシニシク","town":"井口","town_kana":"イノクチ","prefecture_code":34},"0843":{"zip_code":"7330843","prefecture":"広島県","prefecture_kana":"ヒロシマケン","city":"広島市西区","city_kana":"ヒロシマシニシク","town":"井口鈴が台","town_kana":"イノクチスズガダイ","prefecture_code":34},"0841":{"zip_code":"7330841","prefecture":"広島県","prefecture_kana":"ヒロシマケン","city":"広島市西区","city_kana":"ヒロシマシニシク","town":"井口明神","town_kana":"イノクチミョウジン","prefecture_code":34},"0844":{"zip_code":"7330844","prefecture":"広島県","prefecture_kana":"ヒロシマケン","city":"広島市西区","city_kana":"ヒロシマシニシク","town":"井口台","town_kana":"イノクチダイ","prefecture_code":34},"0004":{"zip_code":"7330004","prefecture":"広島県","prefecture_kana":"ヒロシマケン","city":"広島市西区","city_kana":"ヒロシマシニシク","town":"打越町","town_kana":"ウチコシチョウ","prefecture_code":34},"0831":{"zip_code":"7330831","prefecture":"広島県","prefecture_kana":"ヒロシマケン","city":"広島市西区","city_kana":"ヒロシマシニシク","town":"扇","town_kana":"オオギ","prefecture_code":34},"0001":{"zip_code":"7330001","prefecture":"広島県","prefecture_kana":"ヒロシマケン","city":"広島市西区","city_kana":"ヒロシマシニシク","town":"大芝","town_kana":"オオシバ","prefecture_code":34},"0007":{"zip_code":"7330007","prefecture":"広島県","prefecture_kana":"ヒロシマケン","city":"広島市西区","city_kana":"ヒロシマシニシク","town":"大宮","town_kana":"オオミヤ","prefecture_code":34},"0025":{"zip_code":"7330025","prefecture":"広島県","prefecture_kana":"ヒロシマケン","city":"広島市西区","city_kana":"ヒロシマシニシク","town":"小河内町","town_kana":"オガワチマチ","prefecture_code":34},"0021":{"zip_code":"7330021","prefecture":"広島県","prefecture_kana":"ヒロシマケン","city":"広島市西区","city_kana":"ヒロシマシニシク","town":"上天満町","town_kana":"カミテンマチョウ","prefecture_code":34},"0036":{"zip_code":"7330036","prefecture":"広島県","prefecture_kana":"ヒロシマケン","city":"広島市西区","city_kana":"ヒロシマシニシク","town":"観音新町","town_kana":"カンオンシンマチ","prefecture_code":34},"0033":{"zip_code":"7330033","prefecture":"広島県","prefecture_kana":"ヒロシマケン","city":"広島市西区","city_kana":"ヒロシマシニシク","town":"観音本町","town_kana":"カンオンホンマチ","prefecture_code":34},"0031":{"zip_code":"7330031","prefecture":"広島県","prefecture_kana":"ヒロシマケン","city":"広島市西区","city_kana":"ヒロシマシニシク","town":"観音町","town_kana":"カンオンマチ","prefecture_code":34},"0864":{"zip_code":"7330864","prefecture":"広島県","prefecture_kana":"ヒロシマケン","city":"広島市西区","city_kana":"ヒロシマシニシク","town":"草津梅が台","town_kana":"クサツウメガダイ","prefecture_code":34},"0834":{"zip_code":"7330834","prefecture":"広島県","prefecture_kana":"ヒロシマケン","city":"広島市西区","city_kana":"ヒロシマシニシク","town":"草津新町","town_kana":"クサツシンマチ","prefecture_code":34},"0862":{"zip_code":"7330862","prefecture":"広島県","prefecture_kana":"ヒロシマケン","city":"広島市西区","city_kana":"ヒロシマシニシク","town":"草津浜町","town_kana":"クサツハママチ","prefecture_code":34},"0865":{"zip_code":"7330865","prefecture":"広島県","prefecture_kana":"ヒロシマケン","city":"広島市西区","city_kana":"ヒロシマシニシク","town":"草津本町","town_kana":"クサツホンマチ","prefecture_code":34},"0861":{"zip_code":"7330861","prefecture":"広島県","prefecture_kana":"ヒロシマケン","city":"広島市西区","city_kana":"ヒロシマシニシク","town":"草津東","town_kana":"クサツヒガシ","prefecture_code":34},"0863":{"zip_code":"7330863","prefecture":"広島県","prefecture_kana":"ヒロシマケン","city":"広島市西区","city_kana":"ヒロシマシニシク","town":"草津南","town_kana":"クサツミナミ","prefecture_code":34},"0832":{"zip_code":"7330832","prefecture":"広島県","prefecture_kana":"ヒロシマケン","city":"広島市西区","city_kana":"ヒロシマシニシク","town":"草津港","town_kana":"クサツコウ","prefecture_code":34},"0002":{"zip_code":"7330002","prefecture":"広島県","prefecture_kana":"ヒロシマケン","city":"広島市西区","city_kana":"ヒロシマシニシク","town":"楠木町","town_kana":"クスノキチョウ","prefecture_code":34},"0815":{"zip_code":"7330815","prefecture":"広島県","prefecture_kana":"ヒロシマケン","city":"広島市西区","city_kana":"ヒロシマシニシク","town":"己斐上","town_kana":"コイウエ","prefecture_code":34},"0816":{"zip_code":"7330816","prefecture":"広島県","prefecture_kana":"ヒロシマケン","city":"広島市西区","city_kana":"ヒロシマシニシク","town":"己斐大迫","town_kana":"コイオオサコ","prefecture_code":34},"0813":{"zip_code":"7330813","prefecture":"広島県","prefecture_kana":"ヒロシマケン","city":"広島市西区","city_kana":"ヒロシマシニシク","town":"己斐中","town_kana":"コイナカ","prefecture_code":34},"0814":{"zip_code":"7330814","prefecture":"広島県","prefecture_kana":"ヒロシマケン","city":"広島市西区","city_kana":"ヒロシマシニシク","town":"己斐西町","town_kana":"コイニシマチ","prefecture_code":34},"0812":{"zip_code":"7330812","prefecture":"広島県","prefecture_kana":"ヒロシマケン","city":"広島市西区","city_kana":"ヒロシマシニシク","town":"己斐本町","town_kana":"コイホンマチ","prefecture_code":34},"0811":{"zip_code":"7330811","prefecture":"広島県","prefecture_kana":"ヒロシマケン","city":"広島市西区","city_kana":"ヒロシマシニシク","town":"己斐東","town_kana":"コイヒガシ","prefecture_code":34},"0822":{"zip_code":"7330822","prefecture":"広島県","prefecture_kana":"ヒロシマケン","city":"広島市西区","city_kana":"ヒロシマシニシク","town":"庚午中","town_kana":"コウゴナカ","prefecture_code":34},"0823":{"zip_code":"7330823","prefecture":"広島県","prefecture_kana":"ヒロシマケン","city":"広島市西区","city_kana":"ヒロシマシニシク","town":"庚午南","town_kana":"コウゴミナミ","prefecture_code":34},"0821":{"zip_code":"7330821","prefecture":"広島県","prefecture_kana":"ヒロシマケン","city":"広島市西区","city_kana":"ヒロシマシニシク","town":"庚午北","town_kana":"コウゴキタ","prefecture_code":34},"0833":{"zip_code":"7330833","prefecture":"広島県","prefecture_kana":"ヒロシマケン","city":"広島市西区","city_kana":"ヒロシマシニシク","town":"商工センター","town_kana":"ショウコウセンター","prefecture_code":34},"0801":{"zip_code":"7330801","prefecture":"広島県","prefecture_kana":"ヒロシマケン","city":"広島市西区","city_kana":"ヒロシマシニシク","town":"新庄町","town_kana":"シンジョウチョウ","prefecture_code":34},"0852":{"zip_code":"7330852","prefecture":"広島県","prefecture_kana":"ヒロシマケン","city":"広島市西区","city_kana":"ヒロシマシニシク","town":"鈴が峰町","town_kana":"スズガミネチョウ","prefecture_code":34},"0871":{"zip_code":"7330871","prefecture":"広島県","prefecture_kana":"ヒロシマケン","city":"広島市西区","city_kana":"ヒロシマシニシク","town":"高須","town_kana":"タカス","prefecture_code":34},"0876":{"zip_code":"7330876","prefecture":"広島県","prefecture_kana":"ヒロシマケン","city":"広島市西区","city_kana":"ヒロシマシニシク","town":"高須台","town_kana":"タカスダイ","prefecture_code":34},"0851":{"zip_code":"7330851","prefecture":"広島県","prefecture_kana":"ヒロシマケン","city":"広島市西区","city_kana":"ヒロシマシニシク","town":"田方","town_kana":"タカタ","prefecture_code":34},"0022":{"zip_code":"7330022","prefecture":"広島県","prefecture_kana":"ヒロシマケン","city":"広島市西区","city_kana":"ヒロシマシニシク","town":"天満町","town_kana":"テンマチョウ","prefecture_code":34},"0012":{"zip_code":"7330012","prefecture":"広島県","prefecture_kana":"ヒロシマケン","city":"広島市西区","city_kana":"ヒロシマシニシク","town":"中広町","town_kana":"ナカヒロマチ","prefecture_code":34},"0037":{"zip_code":"7330037","prefecture":"広島県","prefecture_kana":"ヒロシマケン","city":"広島市西区","city_kana":"ヒロシマシニシク","town":"西観音町","town_kana":"ニシカンオンマチ","prefecture_code":34},"0032":{"zip_code":"7330032","prefecture":"広島県","prefecture_kana":"ヒロシマケン","city":"広島市西区","city_kana":"ヒロシマシニシク","town":"東観音町","town_kana":"ヒガシカンオンマチ","prefecture_code":34},"0024":{"zip_code":"7330024","prefecture":"広島県","prefecture_kana":"ヒロシマケン","city":"広島市西区","city_kana":"ヒロシマシニシク","town":"福島町","town_kana":"フクシマチョウ","prefecture_code":34},"0875":{"zip_code":"7330875","prefecture":"広島県","prefecture_kana":"ヒロシマケン","city":"広島市西区","city_kana":"ヒロシマシニシク","town":"古江上","town_kana":"フルエウエ","prefecture_code":34},"0873":{"zip_code":"7330873","prefecture":"広島県","prefecture_kana":"ヒロシマケン","city":"広島市西区","city_kana":"ヒロシマシニシク","town":"古江新町","town_kana":"フルエシンマチ","prefecture_code":34},"0872":{"zip_code":"7330872","prefecture":"広島県","prefecture_kana":"ヒロシマケン","city":"広島市西区","city_kana":"ヒロシマシニシク","town":"古江東町","town_kana":"フルエヒガシマチ","prefecture_code":34},"0874":{"zip_code":"7330874","prefecture":"広島県","prefecture_kana":"ヒロシマケン","city":"広島市西区","city_kana":"ヒロシマシニシク","town":"古江西町","town_kana":"フルエニシマチ","prefecture_code":34},"0877":{"zip_code":"7330877","prefecture":"広島県","prefecture_kana":"ヒロシマケン","city":"広島市西区","city_kana":"ヒロシマシニシク","town":"古田台","town_kana":"フルタダイ","prefecture_code":34},"0006":{"zip_code":"7330006","prefecture":"広島県","prefecture_kana":"ヒロシマケン","city":"広島市西区","city_kana":"ヒロシマシニシク","town":"三篠北町","town_kana":"ミササキタマチ","prefecture_code":34},"0003":{"zip_code":"7330003","prefecture":"広島県","prefecture_kana":"ヒロシマケン","city":"広島市西区","city_kana":"ヒロシマシニシク","town":"三篠町","town_kana":"ミササマチ","prefecture_code":34},"0802":{"zip_code":"7330802","prefecture":"広島県","prefecture_kana":"ヒロシマケン","city":"広島市西区","city_kana":"ヒロシマシニシク","town":"三滝本町","town_kana":"ミタキホンマチ","prefecture_code":34},"0005":{"zip_code":"7330005","prefecture":"広島県","prefecture_kana":"ヒロシマケン","city":"広島市西区","city_kana":"ヒロシマシニシク","town":"三滝町","town_kana":"ミタキマチ","prefecture_code":34},"0805":{"zip_code":"7330805","prefecture":"広島県","prefecture_kana":"ヒロシマケン","city":"広島市西区","city_kana":"ヒロシマシニシク","town":"三滝山","town_kana":"ミタキヤマ","prefecture_code":34},"0035":{"zip_code":"7330035","prefecture":"広島県","prefecture_kana":"ヒロシマケン","city":"広島市西区","city_kana":"ヒロシマシニシク","town":"南観音","town_kana":"ミナミカンオン","prefecture_code":34},"0034":{"zip_code":"7330034","prefecture":"広島県","prefecture_kana":"ヒロシマケン","city":"広島市西区","city_kana":"ヒロシマシニシク","town":"南観音町","town_kana":"ミナミカンオンマチ","prefecture_code":34},"0023":{"zip_code":"7330023","prefecture":"広島県","prefecture_kana":"ヒロシマケン","city":"広島市西区","city_kana":"ヒロシマシニシク","town":"都町","town_kana":"ミヤコマチ","prefecture_code":34},"0853":{"zip_code":"7330853","prefecture":"広島県","prefecture_kana":"ヒロシマケン","city":"広島市西区","city_kana":"ヒロシマシニシク","town":"山田新町","town_kana":"ヤマダシンマチ","prefecture_code":34},"0854":{"zip_code":"7330854","prefecture":"広島県","prefecture_kana":"ヒロシマケン","city":"広島市西区","city_kana":"ヒロシマシニシク","town":"山田町","town_kana":"ヤマダチョウ","prefecture_code":34},"0804":{"zip_code":"7330804","prefecture":"広島県","prefecture_kana":"ヒロシマケン","city":"広島市西区","city_kana":"ヒロシマシニシク","town":"山手町","town_kana":"ヤマテチョウ","prefecture_code":34},"0013":{"zip_code":"7330013","prefecture":"広島県","prefecture_kana":"ヒロシマケン","city":"広島市西区","city_kana":"ヒロシマシニシク","town":"横川新町","town_kana":"ヨコガワシンマチ","prefecture_code":34},"0011":{"zip_code":"7330011","prefecture":"広島県","prefecture_kana":"ヒロシマケン","city":"広島市西区","city_kana":"ヒロシマシニシク","town":"横川町","town_kana":"ヨコガワチョウ","prefecture_code":34},"0803":{"zip_code":"7330803","prefecture":"広島県","prefecture_kana":"ヒロシマケン","city":"広島市西区","city_kana":"ヒロシマシニシク","town":"竜王町","town_kana":"リュウオウチョウ","prefecture_code":34}}