{"0000":{"zip_code":"7370000","prefecture":"広島県","prefecture_kana":"ヒロシマケン","city":"呉市","city_kana":"クレシ","town":"","town_kana":"","prefecture_code":34},"0023":{"zip_code":"7370023","prefecture":"広島県","prefecture_kana":"ヒロシマケン","city":"呉市","city_kana":"クレシ","town":"青山町","town_kana":"アオヤマチョウ","prefecture_code":34},"0003":{"zip_code":"7370003","prefecture":"広島県","prefecture_kana":"ヒロシマケン","city":"呉市","city_kana":"クレシ","town":"阿賀中央","town_kana":"アガチュウオウ","prefecture_code":34},"0004":{"zip_code":"7370004","prefecture":"広島県","prefecture_kana":"ヒロシマケン","city":"呉市","city_kana":"クレシ","town":"阿賀南","town_kana":"アガミナミ","prefecture_code":34},"0001":{"zip_code":"7370001","prefecture":"広島県","prefecture_kana":"ヒロシマケン","city":"呉市","city_kana":"クレシ","town":"阿賀北","town_kana":"アガキタ","prefecture_code":34},"0005":{"zip_code":"7370005","prefecture":"広島県","prefecture_kana":"ヒロシマケン","city":"呉市","city_kana":"クレシ","town":"阿賀町","town_kana":"アガマチ","prefecture_code":34},"0056":{"zip_code":"7370056","prefecture":"広島県","prefecture_kana":"ヒロシマケン","city":"呉市","city_kana":"クレシ","town":"朝日町","town_kana":"アサヒマチ","prefecture_code":34},"0076":{"zip_code":"7370076","prefecture":"広島県","prefecture_kana":"ヒロシマケン","city":"呉市","city_kana":"クレシ","town":"吾妻","town_kana":"アヅマ","prefecture_code":34},"0804":{"zip_code":"7370804","prefecture":"広島県","prefecture_kana":"ヒロシマケン","city":"呉市","city_kana":"クレシ","town":"内神町","town_kana":"ウチガミチョウ","prefecture_code":34},"0061":{"zip_code":"7370061","prefecture":"広島県","prefecture_kana":"ヒロシマケン","city":"呉市","city_kana":"クレシ","town":"畝原町","town_kana":"ウネハラチョウ","prefecture_code":34},"0872":{"zip_code":"7370872","prefecture":"広島県","prefecture_kana":"ヒロシマケン","city":"呉市","city_kana":"クレシ","town":"梅木町","town_kana":"ウメキチョウ","prefecture_code":34},"0807":{"zip_code":"7370807","prefecture":"広島県","prefecture_kana":"ヒロシマケン","city":"呉市","city_kana":"クレシ","town":"江原町","town_kana":"エバラチョウ","prefecture_code":34},"0878":{"zip_code":"7370878","prefecture":"広島県","prefecture_kana":"ヒロシマケン","city":"呉市","city_kana":"クレシ","town":"大山町","town_kana":"オオヤマチョウ","prefecture_code":34},"0915":{"zip_code":"7370915","prefecture":"広島県","prefecture_kana":"ヒロシマケン","city":"呉市","city_kana":"クレシ","town":"押込","town_kana":"オシゴメ","prefecture_code":34},"0914":{"zip_code":"7370914","prefecture":"広島県","prefecture_kana":"ヒロシマケン","city":"呉市","city_kana":"クレシ","town":"押込西平町","town_kana":"オシゴメニシヒラチョウ","prefecture_code":34},"1212":{"zip_code":"7371212","prefecture":"広島県","prefecture_kana":"ヒロシマケン","city":"呉市","city_kana":"クレシ","town":"音戸町有清","town_kana":"オンドチョウアリキヨ","prefecture_code":34},"1203":{"zip_code":"7371203","prefecture":"広島県","prefecture_kana":"ヒロシマケン","city":"呉市","city_kana":"クレシ","town":"音戸町鰯浜","town_kana":"オンドチョウイワシハマ","prefecture_code":34},"1204":{"zip_code":"7371204","prefecture":"広島県","prefecture_kana":"ヒロシマケン","city":"呉市","city_kana":"クレシ","town":"音戸町北隠渡","town_kana":"オンドチョウキタオンド","prefecture_code":34},"1213":{"zip_code":"7371213","prefecture":"広島県","prefecture_kana":"ヒロシマケン","city":"呉市","city_kana":"クレシ","town":"音戸町先奥","town_kana":"オンドチョウサキオク","prefecture_code":34},"1206":{"zip_code":"7371206","prefecture":"広島県","prefecture_kana":"ヒロシマケン","city":"呉市","city_kana":"クレシ","town":"音戸町高須","town_kana":"オンドチョウタカス","prefecture_code":34},"1216":{"zip_code":"7371216","prefecture":"広島県","prefecture_kana":"ヒロシマケン","city":"呉市","city_kana":"クレシ","town":"音戸町田原","town_kana":"オンドチョウタハラ","prefecture_code":34},"1201":{"zip_code":"7371201","prefecture":"広島県","prefecture_kana":"ヒロシマケン","city":"呉市","city_kana":"クレシ","town":"音戸町坪井","town_kana":"オンドチョウツボイ","prefecture_code":34},"1217":{"zip_code":"7371217","prefecture":"広島県","prefecture_kana":"ヒロシマケン","city":"呉市","city_kana":"クレシ","town":"音戸町渡子","town_kana":"オンドチョウトノコ","prefecture_code":34},"1211":{"zip_code":"7371211","prefecture":"広島県","prefecture_kana":"ヒロシマケン","city":"呉市","city_kana":"クレシ","town":"音戸町畑","town_kana":"オンドチョウハタ","prefecture_code":34},"1207":{"zip_code":"7371207","prefecture":"広島県","prefecture_kana":"ヒロシマケン","city":"呉市","city_kana":"クレシ","town":"音戸町波多見","town_kana":"オンドチョウハタミ","prefecture_code":34},"1215":{"zip_code":"7371215","prefecture":"広島県","prefecture_kana":"ヒロシマケン","city":"呉市","city_kana":"クレシ","town":"音戸町早瀬","town_kana":"オンドチョウハヤセ","prefecture_code":34},"1202":{"zip_code":"7371202","prefecture":"広島県","prefecture_kana":"ヒロシマケン","city":"呉市","city_kana":"クレシ","town":"音戸町引地","town_kana":"オンドチョウヒキジ","prefecture_code":34},"1214":{"zip_code":"7371214","prefecture":"広島県","prefecture_kana":"ヒロシマケン","city":"呉市","city_kana":"クレシ","town":"音戸町藤脇","town_kana":"オンドチョウフジノワキ","prefecture_code":34},"1205":{"zip_code":"7371205","prefecture":"広島県","prefecture_kana":"ヒロシマケン","city":"呉市","city_kana":"クレシ","town":"音戸町南隠渡","town_kana":"オンドチョウミナミオンド","prefecture_code":34},"0823":{"zip_code":"7370823","prefecture":"広島県","prefecture_kana":"ヒロシマケン","city":"呉市","city_kana":"クレシ","town":"海岸","town_kana":"カイガン","prefecture_code":34},"0402":{"zip_code":"7370402","prefecture":"広島県","prefecture_kana":"ヒロシマケン","city":"呉市","city_kana":"クレシ","town":"蒲刈町大浦","town_kana":"カマガリチョウオオウラ","prefecture_code":34},"0403":{"zip_code":"7370403","prefecture":"広島県","prefecture_kana":"ヒロシマケン","city":"呉市","city_kana":"クレシ","town":"蒲刈町田戸","town_kana":"カマガリチョウタド","prefecture_code":34},"0401":{"zip_code":"7370401","prefecture":"広島県","prefecture_kana":"ヒロシマケン","city":"呉市","city_kana":"クレシ","town":"蒲刈町宮盛","town_kana":"カマガリチョウミヤザカリ","prefecture_code":34},"0311":{"zip_code":"7370311","prefecture":"広島県","prefecture_kana":"ヒロシマケン","city":"呉市","city_kana":"クレシ","town":"蒲刈町向","town_kana":"カマガリチョウムカイ","prefecture_code":34},"0808":{"zip_code":"7370808","prefecture":"広島県","prefecture_kana":"ヒロシマケン","city":"呉市","city_kana":"クレシ","town":"上内神町","town_kana":"カミウチガミチョウ","prefecture_code":34},"0031":{"zip_code":"7370031","prefecture":"広島県","prefecture_kana":"ヒロシマケン","city":"呉市","city_kana":"クレシ","town":"上長迫町","town_kana":"カミナガサコチョウ","prefecture_code":34},"0817":{"zip_code":"7370817","prefecture":"広島県","prefecture_kana":"ヒロシマケン","city":"呉市","city_kana":"クレシ","town":"上二河町","town_kana":"カミニコウチョウ","prefecture_code":34},"0071":{"zip_code":"7370071","prefecture":"広島県","prefecture_kana":"ヒロシマケン","city":"呉市","city_kana":"クレシ","town":"上畑町","town_kana":"カミハタチョウ","prefecture_code":34},"0079":{"zip_code":"7370079","prefecture":"広島県","prefecture_kana":"ヒロシマケン","city":"呉市","city_kana":"クレシ","town":"上平原町","town_kana":"カミヒラバラチョウ","prefecture_code":34},"0054":{"zip_code":"7370054","prefecture":"広島県","prefecture_kana":"ヒロシマケン","city":"呉市","city_kana":"クレシ","town":"上山田町","town_kana":"カミヤマダチョウ","prefecture_code":34},"0862":{"zip_code":"7370862","prefecture":"広島県","prefecture_kana":"ヒロシマケン","city":"呉市","city_kana":"クレシ","town":"狩留賀町","town_kana":"カルガチョウ","prefecture_code":34},"2631":{"zip_code":"7372631","prefecture":"広島県","prefecture_kana":"ヒロシマケン","city":"呉市","city_kana":"クレシ","town":"川尻町板休","town_kana":"カワジリチョウイタヤスミ","prefecture_code":34},"2634":{"zip_code":"7372634","prefecture":"広島県","prefecture_kana":"ヒロシマケン","city":"呉市","city_kana":"クレシ","town":"川尻町岩戸","town_kana":"カワジリチョウイワド","prefecture_code":34},"2637":{"zip_code":"7372637","prefecture":"広島県","prefecture_kana":"ヒロシマケン","city":"呉市","city_kana":"クレシ","town":"川尻町後懸","town_kana":"カワジリチョウウシロガケ","prefecture_code":34},"2614":{"zip_code":"7372614","prefecture":"広島県","prefecture_kana":"ヒロシマケン","city":"呉市","city_kana":"クレシ","town":"川尻町大原","town_kana":"カワジリチョウオオバラ","prefecture_code":34},"2633":{"zip_code":"7372633","prefecture":"広島県","prefecture_kana":"ヒロシマケン","city":"呉市","city_kana":"クレシ","town":"川尻町沖田","town_kana":"カワジリチョウオキダ","prefecture_code":34},"2632":{"zip_code":"7372632","prefecture":"広島県","prefecture_kana":"ヒロシマケン","city":"呉市","city_kana":"クレシ","town":"川尻町上畑","town_kana":"カワジリチョウカンバタ","prefecture_code":34},"2606":{"zip_code":"7372606","prefecture":"広島県","prefecture_kana":"ヒロシマケン","city":"呉市","city_kana":"クレシ","town":"川尻町久筋","town_kana":"カワジリチョウクスジ","prefecture_code":34},"2605":{"zip_code":"7372605","prefecture":"広島県","prefecture_kana":"ヒロシマケン","city":"呉市","city_kana":"クレシ","town":"川尻町久俊","town_kana":"カワジリチョウクドシ","prefecture_code":34},"2604":{"zip_code":"7372604","prefecture":"広島県","prefecture_kana":"ヒロシマケン","city":"呉市","city_kana":"クレシ","town":"川尻町小仁方","town_kana":"カワジリチョウコニガタ","prefecture_code":34},"2617":{"zip_code":"7372617","prefecture":"広島県","prefecture_kana":"ヒロシマケン","city":"呉市","city_kana":"クレシ","town":"川尻町小畑","town_kana":"カワジリチョウコバタ","prefecture_code":34},"2608":{"zip_code":"7372608","prefecture":"広島県","prefecture_kana":"ヒロシマケン","city":"呉市","city_kana":"クレシ","town":"川尻町小用","town_kana":"カワジリチョウコヨウ","prefecture_code":34},"2636":{"zip_code":"7372636","prefecture":"広島県","prefecture_kana":"ヒロシマケン","city":"呉市","city_kana":"クレシ","town":"川尻町才野谷","town_kana":"カワジリチョウサイノタニ","prefecture_code":34},"2615":{"zip_code":"7372615","prefecture":"広島県","prefecture_kana":"ヒロシマケン","city":"呉市","city_kana":"クレシ","town":"川尻町真光地","town_kana":"カワジリチョウシンコウチ","prefecture_code":34},"2603":{"zip_code":"7372603","prefecture":"広島県","prefecture_kana":"ヒロシマケン","city":"呉市","city_kana":"クレシ","town":"川尻町西","town_kana":"カワジリチョウニシ","prefecture_code":34},"2609":[{"zip_code":"7372609","prefecture":"広島県","prefecture_kana":"ヒロシマケン","city":"呉市","city_kana":"クレシ","town":"川尻町野呂山","town_kana":"カワジリチョウノロサン","prefecture_code":34},{"zip_code":"7372609","prefecture":"広島県","prefecture_kana":"ヒロシマケン","city":"呉市","city_kana":"クレシ","town":"仁方町","town_kana":"ニガタチョウ","prefecture_code":34},{"zip_code":"7372609","prefecture":"広島県","prefecture_kana":"ヒロシマケン","city":"呉市","city_kana":"クレシ","town":"仁方町蕨谷","town_kana":"ニガタチョウワラビタニ","prefecture_code":34},{"zip_code":"7372609","prefecture":"広島県","prefecture_kana":"ヒロシマケン","city":"呉市","city_kana":"クレシ","town":"野呂山","town_kana":"ノロサン","prefecture_code":34},{"zip_code":"7372609","prefecture":"広島県","prefecture_kana":"ヒロシマケン","city":"呉市","city_kana":"クレシ","town":"広町","town_kana":"ヒロマチ","prefecture_code":34},{"zip_code":"7372609","prefecture":"広島県","prefecture_kana":"ヒロシマケン","city":"呉市","city_kana":"クレシ","town":"広町一本杉","town_kana":"ヒロマチイッポンスギ","prefecture_code":34},{"zip_code":"7372609","prefecture":"広島県","prefecture_kana":"ヒロシマケン","city":"呉市","city_kana":"クレシ","town":"安浦町中切","town_kana":"ヤスウラチョウナカギリ","prefecture_code":34},{"zip_code":"7372609","prefecture":"広島県","prefecture_kana":"ヒロシマケン","city":"呉市","city_kana":"クレシ","town":"安浦町中切奥野原","town_kana":"ヤスウラチョウナカギリオクノハラ","prefecture_code":34},{"zip_code":"7372609","prefecture":"広島県","prefecture_kana":"ヒロシマケン","city":"呉市","city_kana":"クレシ","town":"安浦町中畑","town_kana":"ヤスウラチョウナカハタ","prefecture_code":34},{"zip_code":"7372609","prefecture":"広島県","prefecture_kana":"ヒロシマケン","city":"呉市","city_kana":"クレシ","town":"安浦町中畑鹿条原","town_kana":"ヤスウラチョウナカハタカジョウハラ","prefecture_code":34},{"zip_code":"7372609","prefecture":"広島県","prefecture_kana":"ヒロシマケン","city":"呉市","city_kana":"クレシ","town":"安浦町中畑侍屋敷","town_kana":"ヤスウラチョウナカハタサムライヤシキ","prefecture_code":34},{"zip_code":"7372609","prefecture":"広島県","prefecture_kana":"ヒロシマケン","city":"呉市","city_kana":"クレシ","town":"安浦町中畑膳棚山","town_kana":"ヤスウラチョウナカハタゼンタナヤマ","prefecture_code":34},{"zip_code":"7372609","prefecture":"広島県","prefecture_kana":"ヒロシマケン","city":"呉市","city_kana":"クレシ","town":"安浦町中畑立小路","town_kana":"ヤスウラチョウナカハタタテコウジ","prefecture_code":34},{"zip_code":"7372609","prefecture":"広島県","prefecture_kana":"ヒロシマケン","city":"呉市","city_kana":"クレシ","town":"安浦町中畑中央","town_kana":"ヤスウラチョウナカハタチュウオウ","prefecture_code":34},{"zip_code":"7372609","prefecture":"広島県","prefecture_kana":"ヒロシマケン","city":"呉市","city_kana":"クレシ","town":"安浦町中畑東","town_kana":"ヤスウラチョウナカハタヒガシ","prefecture_code":34},{"zip_code":"7372609","prefecture":"広島県","prefecture_kana":"ヒロシマケン","city":"呉市","city_kana":"クレシ","town":"安浦町野呂山","town_kana":"ヤスウラチョウノロサン","prefecture_code":34}],"2601":{"zip_code":"7372601","prefecture":"広島県","prefecture_kana":"ヒロシマケン","city":"呉市","city_kana":"クレシ","town":"川尻町原山","town_kana":"カワジリチョウハラヤマ","prefecture_code":34},"2607":{"zip_code":"7372607","prefecture":"広島県","prefecture_kana":"ヒロシマケン","city":"呉市","city_kana":"クレシ","town":"川尻町東","town_kana":"カワジリチョウヒガシ","prefecture_code":34},"2616":{"zip_code":"7372616","prefecture":"広島県","prefecture_kana":"ヒロシマケン","city":"呉市","city_kana":"クレシ","town":"川尻町水落","town_kana":"カワジリチョウミズオチ","prefecture_code":34},"2602":{"zip_code":"7372602","prefecture":"広島県","prefecture_kana":"ヒロシマケン","city":"呉市","city_kana":"クレシ","town":"川尻町森","town_kana":"カワジリチョウモリ","prefecture_code":34},"2635":{"zip_code":"7372635","prefecture":"広島県","prefecture_kana":"ヒロシマケン","city":"呉市","city_kana":"クレシ","town":"川尻町柳迫","town_kana":"カワジリチョウヤナギサコ","prefecture_code":34},"0026":{"zip_code":"7370026","prefecture":"広島県","prefecture_kana":"ヒロシマケン","city":"呉市","city_kana":"クレシ","town":"神原町","town_kana":"カンバラチョウ","prefecture_code":34},"0836":{"zip_code":"7370836","prefecture":"広島県","prefecture_kana":"ヒロシマケン","city":"呉市","city_kana":"クレシ","town":"北塩屋町","town_kana":"キタシオヤチョウ","prefecture_code":34},"1377":{"zip_code":"7371377","prefecture":"広島県","prefecture_kana":"ヒロシマケン","city":"呉市","city_kana":"クレシ","town":"倉橋町","town_kana":"クラハシチョウ","prefecture_code":34},"0012":{"zip_code":"7370012","prefecture":"広島県","prefecture_kana":"ヒロシマケン","city":"呉市","city_kana":"クレシ","town":"警固屋","town_kana":"ケゴヤ","prefecture_code":34},"0163":{"zip_code":"7370163","prefecture":"広島県","prefecture_kana":"ヒロシマケン","city":"呉市","city_kana":"クレシ","town":"郷原野路の里","town_kana":"ゴウハラノロノサト","prefecture_code":34},"0162":{"zip_code":"7370162","prefecture":"広島県","prefecture_kana":"ヒロシマケン","city":"呉市","city_kana":"クレシ","town":"郷原学びの丘","town_kana":"ゴウハラマナビノオカ","prefecture_code":34},"0161":{"zip_code":"7370161","prefecture":"広島県","prefecture_kana":"ヒロシマケン","city":"呉市","city_kana":"クレシ","town":"郷原町","town_kana":"ゴウハラチョウ","prefecture_code":34},"0803":{"zip_code":"7370803","prefecture":"広島県","prefecture_kana":"ヒロシマケン","city":"呉市","city_kana":"クレシ","town":"郷町","town_kana":"ゴウマチ","prefecture_code":34},"0028":{"zip_code":"7370028","prefecture":"広島県","prefecture_kana":"ヒロシマケン","city":"呉市","city_kana":"クレシ","town":"幸町","town_kana":"サイワイチョウ","prefecture_code":34},"0821":{"zip_code":"7370821","prefecture":"広島県","prefecture_kana":"ヒロシマケン","city":"呉市","city_kana":"クレシ","town":"三条","town_kana":"サンジョウ","prefecture_code":34},"0021":{"zip_code":"7370021","prefecture":"広島県","prefecture_kana":"ヒロシマケン","city":"呉市","city_kana":"クレシ","town":"三和町","town_kana":"サンワチョウ","prefecture_code":34},"0873":{"zip_code":"7370873","prefecture":"広島県","prefecture_kana":"ヒロシマケン","city":"呉市","city_kana":"クレシ","town":"汐見町","town_kana":"シオミチョウ","prefecture_code":34},"0022":{"zip_code":"7370022","prefecture":"広島県","prefecture_kana":"ヒロシマケン","city":"呉市","city_kana":"クレシ","town":"清水","town_kana":"シミズ","prefecture_code":34},"0302":{"zip_code":"7370302","prefecture":"広島県","prefecture_kana":"ヒロシマケン","city":"呉市","city_kana":"クレシ","town":"下蒲刈町大地蔵","town_kana":"シモカマガリチョウオオジゾウ","prefecture_code":34},"0301":{"zip_code":"7370301","prefecture":"広島県","prefecture_kana":"ヒロシマケン","city":"呉市","city_kana":"クレシ","town":"下蒲刈町三之瀬","town_kana":"シモカマガリチョウサンノセ","prefecture_code":34},"0303":{"zip_code":"7370303","prefecture":"広島県","prefecture_kana":"ヒロシマケン","city":"呉市","city_kana":"クレシ","town":"下蒲刈町下島","town_kana":"シモカマガリチョウシモジマ","prefecture_code":34},"0055":{"zip_code":"7370055","prefecture":"広島県","prefecture_kana":"ヒロシマケン","city":"呉市","city_kana":"クレシ","town":"下山田町","town_kana":"シモヤマダチョウ","prefecture_code":34},"0027":{"zip_code":"7370027","prefecture":"広島県","prefecture_kana":"ヒロシマケン","city":"呉市","city_kana":"クレシ","town":"昭和町","town_kana":"ショウワチョウ","prefecture_code":34},"0835":{"zip_code":"7370835","prefecture":"広島県","prefecture_kana":"ヒロシマケン","city":"呉市","city_kana":"クレシ","town":"新宮町","town_kana":"シングウチョウ","prefecture_code":34},"0923":{"zip_code":"7370923","prefecture":"広島県","prefecture_kana":"ヒロシマケン","city":"呉市","city_kana":"クレシ","town":"神山","town_kana":"ジンヤマ","prefecture_code":34},"0834":{"zip_code":"7370834","prefecture":"広島県","prefecture_kana":"ヒロシマケン","city":"呉市","city_kana":"クレシ","town":"瀬戸見町","town_kana":"セトミチョウ","prefecture_code":34},"0815":[{"zip_code":"7370815","prefecture":"広島県","prefecture_kana":"ヒロシマケン","city":"呉市","city_kana":"クレシ","town":"荘山田村","town_kana":"ソウヤマダムラ","prefecture_code":34},{"zip_code":"7370815","prefecture":"広島県","prefecture_kana":"ヒロシマケン","city":"呉市","city_kana":"クレシ","town":"荘山田村二河山","town_kana":"ソウヤマダムラフタカワヤマ","prefecture_code":34}],"0029":{"zip_code":"7370029","prefecture":"広島県","prefecture_kana":"ヒロシマケン","city":"呉市","city_kana":"クレシ","town":"宝町","town_kana":"タカラマチ","prefecture_code":34},"0051":{"zip_code":"7370051","prefecture":"広島県","prefecture_kana":"ヒロシマケン","city":"呉市","city_kana":"クレシ","town":"中央","town_kana":"チュウオウ","prefecture_code":34},"0822":{"zip_code":"7370822","prefecture":"広島県","prefecture_kana":"ヒロシマケン","city":"呉市","city_kana":"クレシ","town":"築地町","town_kana":"ツキジチョウ","prefecture_code":34},"0014":{"zip_code":"7370014","prefecture":"広島県","prefecture_kana":"ヒロシマケン","city":"呉市","city_kana":"クレシ","town":"坪ノ内町","town_kana":"ツボノウチチョウ","prefecture_code":34},"0033":{"zip_code":"7370033","prefecture":"広島県","prefecture_kana":"ヒロシマケン","city":"呉市","city_kana":"クレシ","town":"寺本町","town_kana":"テラモトチョウ","prefecture_code":34},"0875":{"zip_code":"7370875","prefecture":"広島県","prefecture_kana":"ヒロシマケン","city":"呉市","city_kana":"クレシ","town":"天応大浜","town_kana":"テンノウオオハマ","prefecture_code":34},"0881":{"zip_code":"7370881","prefecture":"広島県","prefecture_kana":"ヒロシマケン","city":"呉市","city_kana":"クレシ","town":"天応塩谷町","town_kana":"テンノウシオヤチョウ","prefecture_code":34},"0884":{"zip_code":"7370884","prefecture":"広島県","prefecture_kana":"ヒロシマケン","city":"呉市","city_kana":"クレシ","town":"天応伝十原町","town_kana":"テンノウデンジュウバラチョウ","prefecture_code":34},"0883":{"zip_code":"7370883","prefecture":"広島県","prefecture_kana":"ヒロシマケン","city":"呉市","city_kana":"クレシ","town":"天応西条","town_kana":"テンノウニシジョウ","prefecture_code":34},"0882":{"zip_code":"7370882","prefecture":"広島県","prefecture_kana":"ヒロシマケン","city":"呉市","city_kana":"クレシ","town":"天応東久保","town_kana":"テンノウヒガシクボ","prefecture_code":34},"0885":{"zip_code":"7370885","prefecture":"広島県","prefecture_kana":"ヒロシマケン","city":"呉市","city_kana":"クレシ","town":"天応福浦町","town_kana":"テンノウフクウラチョウ","prefecture_code":34},"0874":{"zip_code":"7370874","prefecture":"広島県","prefecture_kana":"ヒロシマケン","city":"呉市","city_kana":"クレシ","town":"天応南町","town_kana":"テンノウミナミマチ","prefecture_code":34},"0876":{"zip_code":"7370876","prefecture":"広島県","prefecture_kana":"ヒロシマケン","city":"呉市","city_kana":"クレシ","town":"天応宮町","town_kana":"テンノウミヤマチ","prefecture_code":34},"0922":{"zip_code":"7370922","prefecture":"広島県","prefecture_kana":"ヒロシマケン","city":"呉市","city_kana":"クレシ","town":"栃原町","town_kana":"トチバラチョウ","prefecture_code":34},"0921":{"zip_code":"7370921","prefecture":"広島県","prefecture_kana":"ヒロシマケン","city":"呉市","city_kana":"クレシ","town":"苗代町","town_kana":"ナエシロチョウ","prefecture_code":34},"0046":{"zip_code":"7370046","prefecture":"広島県","prefecture_kana":"ヒロシマケン","city":"呉市","city_kana":"クレシ","town":"中通","town_kana":"ナカドオリ","prefecture_code":34},"0035":{"zip_code":"7370035","prefecture":"広島県","prefecture_kana":"ヒロシマケン","city":"呉市","city_kana":"クレシ","town":"長迫町","town_kana":"ナガサコチョウ","prefecture_code":34},"0871":{"zip_code":"7370871","prefecture":"広島県","prefecture_kana":"ヒロシマケン","city":"呉市","city_kana":"クレシ","town":"長谷町","town_kana":"ナガタニチョウ","prefecture_code":34},"0053":{"zip_code":"7370053","prefecture":"広島県","prefecture_kana":"ヒロシマケン","city":"呉市","city_kana":"クレシ","town":"長ノ木町","town_kana":"ナガノキチョウ","prefecture_code":34},"0153":{"zip_code":"7370153","prefecture":"広島県","prefecture_kana":"ヒロシマケン","city":"呉市","city_kana":"クレシ","town":"仁方大歳町","town_kana":"ニガタオオトシチョウ","prefecture_code":34},"0154":{"zip_code":"7370154","prefecture":"広島県","prefecture_kana":"ヒロシマケン","city":"呉市","city_kana":"クレシ","town":"仁方桟橋通","town_kana":"ニガタサンバシドオリ","prefecture_code":34},"0151":{"zip_code":"7370151","prefecture":"広島県","prefecture_kana":"ヒロシマケン","city":"呉市","city_kana":"クレシ","town":"仁方中筋町","town_kana":"ニガタナカスジチョウ","prefecture_code":34},"0145":{"zip_code":"7370145","prefecture":"広島県","prefecture_kana":"ヒロシマケン","city":"呉市","city_kana":"クレシ","town":"仁方西神町","town_kana":"ニガタニシガミチョウ","prefecture_code":34},"0155":{"zip_code":"7370155","prefecture":"広島県","prefecture_kana":"ヒロシマケン","city":"呉市","city_kana":"クレシ","town":"仁方錦町","town_kana":"ニガタニシキマチ","prefecture_code":34},"0152":{"zip_code":"7370152","prefecture":"広島県","prefecture_kana":"ヒロシマケン","city":"呉市","city_kana":"クレシ","town":"仁方本町","town_kana":"ニガタホンマチ","prefecture_code":34},"0156":{"zip_code":"7370156","prefecture":"広島県","prefecture_kana":"ヒロシマケン","city":"呉市","city_kana":"クレシ","town":"仁方皆実町","town_kana":"ニガタミナミチョウ","prefecture_code":34},"0146":{"zip_code":"7370146","prefecture":"広島県","prefecture_kana":"ヒロシマケン","city":"呉市","city_kana":"クレシ","town":"仁方宮上町","town_kana":"ニガタミヤガミチョウ","prefecture_code":34},"0157":{"zip_code":"7370157","prefecture":"広島県","prefecture_kana":"ヒロシマケン","city":"呉市","city_kana":"クレシ","town":"仁方町","town_kana":"ニガタチョウ","prefecture_code":34},"0816":{"zip_code":"7370816","prefecture":"広島県","prefecture_kana":"ヒロシマケン","city":"呉市","city_kana":"クレシ","town":"二河峡町","town_kana":"ニコウキョウチョウ","prefecture_code":34},"0818":{"zip_code":"7370818","prefecture":"広島県","prefecture_kana":"ヒロシマケン","city":"呉市","city_kana":"クレシ","town":"二河町","town_kana":"ニコウチョウ","prefecture_code":34},"0827":{"zip_code":"7370827","prefecture":"広島県","prefecture_kana":"ヒロシマケン","city":"呉市","city_kana":"クレシ","town":"西愛宕町","town_kana":"ニシアタゴチョウ","prefecture_code":34},"0806":{"zip_code":"7370806","prefecture":"広島県","prefecture_kana":"ヒロシマケン","city":"呉市","city_kana":"クレシ","town":"西片山町","town_kana":"ニシカタヤマチョウ","prefecture_code":34},"0825":{"zip_code":"7370825","prefecture":"広島県","prefecture_kana":"ヒロシマケン","city":"呉市","city_kana":"クレシ","town":"西川原石町","town_kana":"ニシカワライシチョウ","prefecture_code":34},"0838":{"zip_code":"7370838","prefecture":"広島県","prefecture_kana":"ヒロシマケン","city":"呉市","city_kana":"クレシ","town":"西塩屋町","town_kana":"ニシシオヤチョウ","prefecture_code":34},"0074":{"zip_code":"7370074","prefecture":"広島県","prefecture_kana":"ヒロシマケン","city":"呉市","city_kana":"クレシ","town":"西鹿田","town_kana":"ニシシカタ","prefecture_code":34},"0062":{"zip_code":"7370062","prefecture":"広島県","prefecture_kana":"ヒロシマケン","city":"呉市","city_kana":"クレシ","town":"西惣付町","town_kana":"ニシソウヅケチョウ","prefecture_code":34},"0809":{"zip_code":"7370809","prefecture":"広島県","prefecture_kana":"ヒロシマケン","city":"呉市","city_kana":"クレシ","town":"西辰川","town_kana":"ニシタツカワ","prefecture_code":34},"0064":{"zip_code":"7370064","prefecture":"広島県","prefecture_kana":"ヒロシマケン","city":"呉市","city_kana":"クレシ","town":"西谷町","town_kana":"ニシタニチョウ","prefecture_code":34},"0811":{"zip_code":"7370811","prefecture":"広島県","prefecture_kana":"ヒロシマケン","city":"呉市","city_kana":"クレシ","town":"西中央","town_kana":"ニシチュウオウ","prefecture_code":34},"0075":{"zip_code":"7370075","prefecture":"広島県","prefecture_kana":"ヒロシマケン","city":"呉市","city_kana":"クレシ","town":"西畑町","town_kana":"ニシハタチョウ","prefecture_code":34},"0812":{"zip_code":"7370812","prefecture":"広島県","prefecture_kana":"ヒロシマケン","city":"呉市","city_kana":"クレシ","town":"西三津田町","town_kana":"ニシミツタチョウ","prefecture_code":34},"0833":{"zip_code":"7370833","prefecture":"広島県","prefecture_kana":"ヒロシマケン","city":"呉市","city_kana":"クレシ","town":"晴海町","town_kana":"ハルミチョウ","prefecture_code":34},"0831":{"zip_code":"7370831","prefecture":"広島県","prefecture_kana":"ヒロシマケン","city":"呉市","city_kana":"クレシ","town":"光町","town_kana":"ヒカリマチ","prefecture_code":34},"0828":{"zip_code":"7370828","prefecture":"広島県","prefecture_kana":"ヒロシマケン","city":"呉市","city_kana":"クレシ","town":"東愛宕町","town_kana":"ヒガシアタゴチョウ","prefecture_code":34},"0805":{"zip_code":"7370805","prefecture":"広島県","prefecture_kana":"ヒロシマケン","city":"呉市","city_kana":"クレシ","town":"東片山町","town_kana":"ヒガシカタヤマチョウ","prefecture_code":34},"0824":{"zip_code":"7370824","prefecture":"広島県","prefecture_kana":"ヒロシマケン","city":"呉市","city_kana":"クレシ","town":"東川原石町","town_kana":"ヒガシカワライシチョウ","prefecture_code":34},"0837":{"zip_code":"7370837","prefecture":"広島県","prefecture_kana":"ヒロシマケン","city":"呉市","city_kana":"クレシ","town":"東塩屋町","town_kana":"ヒガシシオヤチョウ","prefecture_code":34},"0073":{"zip_code":"7370073","prefecture":"広島県","prefecture_kana":"ヒロシマケン","city":"呉市","city_kana":"クレシ","town":"東鹿田町","town_kana":"ヒガシシカタチョウ","prefecture_code":34},"0063":{"zip_code":"7370063","prefecture":"広島県","prefecture_kana":"ヒロシマケン","city":"呉市","city_kana":"クレシ","town":"東惣付町","town_kana":"ヒガシソウヅケチョウ","prefecture_code":34},"0801":{"zip_code":"7370801","prefecture":"広島県","prefecture_kana":"ヒロシマケン","city":"呉市","city_kana":"クレシ","town":"東辰川町","town_kana":"ヒガシタツカワチョウ","prefecture_code":34},"0052":{"zip_code":"7370052","prefecture":"広島県","prefecture_kana":"ヒロシマケン","city":"呉市","city_kana":"クレシ","town":"東中央","town_kana":"ヒガシチュウオウ","prefecture_code":34},"0072":{"zip_code":"7370072","prefecture":"広島県","prefecture_kana":"ヒロシマケン","city":"呉市","city_kana":"クレシ","town":"東畑","town_kana":"ヒガシハタ","prefecture_code":34},"0813":{"zip_code":"7370813","prefecture":"広島県","prefecture_kana":"ヒロシマケン","city":"呉市","city_kana":"クレシ","town":"東三津田町","town_kana":"ヒガシミツタチョウ","prefecture_code":34},"0078":{"zip_code":"7370078","prefecture":"広島県","prefecture_kana":"ヒロシマケン","city":"呉市","city_kana":"クレシ","town":"平原町","town_kana":"ヒラバラチョウ","prefecture_code":34},"0101":{"zip_code":"7370101","prefecture":"広島県","prefecture_kana":"ヒロシマケン","city":"呉市","city_kana":"クレシ","town":"広石内","town_kana":"ヒロイシウチ","prefecture_code":34},"0142":{"zip_code":"7370142","prefecture":"広島県","prefecture_kana":"ヒロシマケン","city":"呉市","city_kana":"クレシ","town":"広駅前","town_kana":"ヒロエキマエ","prefecture_code":34},"0138":{"zip_code":"7370138","prefecture":"広島県","prefecture_kana":"ヒロシマケン","city":"呉市","city_kana":"クレシ","town":"広黄幡町","town_kana":"ヒロオウバンチョウ","prefecture_code":34},"0141":{"zip_code":"7370141","prefecture":"広島県","prefecture_kana":"ヒロシマケン","city":"呉市","city_kana":"クレシ","town":"広大新開","town_kana":"ヒロオオシンガイ","prefecture_code":34},"0111":{"zip_code":"7370111","prefecture":"広島県","prefecture_kana":"ヒロシマケン","city":"呉市","city_kana":"クレシ","town":"広大広","town_kana":"ヒロオオビロ","prefecture_code":34},"0122":{"zip_code":"7370122","prefecture":"広島県","prefecture_kana":"ヒロシマケン","city":"呉市","city_kana":"クレシ","town":"広杭本町","town_kana":"ヒロクイモトチョウ","prefecture_code":34},"0112":{"zip_code":"7370112","prefecture":"広島県","prefecture_kana":"ヒロシマケン","city":"呉市","city_kana":"クレシ","town":"広古新開","town_kana":"ヒロコシンガイ","prefecture_code":34},"0137":{"zip_code":"7370137","prefecture":"広島県","prefecture_kana":"ヒロシマケン","city":"呉市","city_kana":"クレシ","town":"広小坪","town_kana":"ヒロコツボ","prefecture_code":34},"0103":{"zip_code":"7370103","prefecture":"広島県","prefecture_kana":"ヒロシマケン","city":"呉市","city_kana":"クレシ","town":"広塩焼","town_kana":"ヒロシヤケ","prefecture_code":34},"0143":{"zip_code":"7370143","prefecture":"広島県","prefecture_kana":"ヒロシマケン","city":"呉市","city_kana":"クレシ","town":"広白石","town_kana":"ヒロシライシ","prefecture_code":34},"0144":{"zip_code":"7370144","prefecture":"広島県","prefecture_kana":"ヒロシマケン","city":"呉市","city_kana":"クレシ","town":"広白岳","town_kana":"ヒロシラタケ","prefecture_code":34},"0133":{"zip_code":"7370133","prefecture":"広島県","prefecture_kana":"ヒロシマケン","city":"呉市","city_kana":"クレシ","town":"広末広","town_kana":"ヒロスエヒロ","prefecture_code":34},"0134":{"zip_code":"7370134","prefecture":"広島県","prefecture_kana":"ヒロシマケン","city":"呉市","city_kana":"クレシ","town":"広多賀谷","town_kana":"ヒロタガヤ","prefecture_code":34},"0135":{"zip_code":"7370135","prefecture":"広島県","prefecture_kana":"ヒロシマケン","city":"呉市","city_kana":"クレシ","town":"広津久茂町","town_kana":"ヒロツクモチョウ","prefecture_code":34},"0102":{"zip_code":"7370102","prefecture":"広島県","prefecture_kana":"ヒロシマケン","city":"呉市","city_kana":"クレシ","town":"広徳丸町","town_kana":"ヒロトクマルチョウ","prefecture_code":34},"0105":{"zip_code":"7370105","prefecture":"広島県","prefecture_kana":"ヒロシマケン","city":"呉市","city_kana":"クレシ","town":"広中迫町","town_kana":"ヒロナカサコチョウ","prefecture_code":34},"0124":{"zip_code":"7370124","prefecture":"広島県","prefecture_kana":"ヒロシマケン","city":"呉市","city_kana":"クレシ","town":"広中新開","town_kana":"ヒロナカシンガイ","prefecture_code":34},"0131":{"zip_code":"7370131","prefecture":"広島県","prefecture_kana":"ヒロシマケン","city":"呉市","city_kana":"クレシ","town":"広中町","town_kana":"ヒロナカチョウ","prefecture_code":34},"0136":{"zip_code":"7370136","prefecture":"広島県","prefecture_kana":"ヒロシマケン","city":"呉市","city_kana":"クレシ","town":"広長浜","town_kana":"ヒロナガハマ","prefecture_code":34},"0132":{"zip_code":"7370132","prefecture":"広島県","prefecture_kana":"ヒロシマケン","city":"呉市","city_kana":"クレシ","town":"広名田","town_kana":"ヒロナダ","prefecture_code":34},"0114":{"zip_code":"7370114","prefecture":"広島県","prefecture_kana":"ヒロシマケン","city":"呉市","city_kana":"クレシ","town":"広文化町","town_kana":"ヒロブンカチョウ","prefecture_code":34},"0107":{"zip_code":"7370107","prefecture":"広島県","prefecture_kana":"ヒロシマケン","city":"呉市","city_kana":"クレシ","town":"広弁天橋町","town_kana":"ヒロベンテンバシチョウ","prefecture_code":34},"0125":{"zip_code":"7370125","prefecture":"広島県","prefecture_kana":"ヒロシマケン","city":"呉市","city_kana":"クレシ","town":"広本町","town_kana":"ヒロホンマチ","prefecture_code":34},"0002":[{"zip_code":"7370002","prefecture":"広島県","prefecture_kana":"ヒロシマケン","city":"呉市","city_kana":"クレシ","town":"広町","town_kana":"ヒロマチ","prefecture_code":34},{"zip_code":"7370002","prefecture":"広島県","prefecture_kana":"ヒロシマケン","city":"呉市","city_kana":"クレシ","town":"広町大空山","town_kana":"ヒロマチオオゾラヤマ","prefecture_code":34}],"0115":{"zip_code":"7370115","prefecture":"広島県","prefecture_kana":"ヒロシマケン","city":"呉市","city_kana":"クレシ","town":"広町","town_kana":"ヒロマチ","prefecture_code":34},"0104":{"zip_code":"7370104","prefecture":"広島県","prefecture_kana":"ヒロシマケン","city":"呉市","city_kana":"クレシ","town":"広町田","town_kana":"ヒロマチダ","prefecture_code":34},"0106":{"zip_code":"7370106","prefecture":"広島県","prefecture_kana":"ヒロシマケン","city":"呉市","city_kana":"クレシ","town":"広三芦","town_kana":"ヒロミアシ","prefecture_code":34},"0113":{"zip_code":"7370113","prefecture":"広島県","prefecture_kana":"ヒロシマケン","city":"呉市","city_kana":"クレシ","town":"広横路","town_kana":"ヒロヨコロ","prefecture_code":34},"0121":{"zip_code":"7370121","prefecture":"広島県","prefecture_kana":"ヒロシマケン","city":"呉市","city_kana":"クレシ","town":"広吉松","town_kana":"ヒロヨシマツ","prefecture_code":34},"0123":{"zip_code":"7370123","prefecture":"広島県","prefecture_kana":"ヒロシマケン","city":"呉市","city_kana":"クレシ","town":"広両谷","town_kana":"ヒロリョウタニ","prefecture_code":34},"0077":{"zip_code":"7370077","prefecture":"広島県","prefecture_kana":"ヒロシマケン","city":"呉市","city_kana":"クレシ","town":"伏原","town_kana":"フシハラ","prefecture_code":34},"0015":{"zip_code":"7370015","prefecture":"広島県","prefecture_kana":"ヒロシマケン","city":"呉市","city_kana":"クレシ","town":"船見町","town_kana":"フナミチョウ","prefecture_code":34},"0065":{"zip_code":"7370065","prefecture":"広島県","prefecture_kana":"ヒロシマケン","city":"呉市","city_kana":"クレシ","town":"望地町","town_kana":"ボウジチョウ","prefecture_code":34},"0045":{"zip_code":"7370045","prefecture":"広島県","prefecture_kana":"ヒロシマケン","city":"呉市","city_kana":"クレシ","town":"本通","town_kana":"ホンドオリ","prefecture_code":34},"0032":{"zip_code":"7370032","prefecture":"広島県","prefecture_kana":"ヒロシマケン","city":"呉市","city_kana":"クレシ","town":"本町","town_kana":"ホンマチ","prefecture_code":34},"0013":{"zip_code":"7370013","prefecture":"広島県","prefecture_kana":"ヒロシマケン","city":"呉市","city_kana":"クレシ","town":"的場","town_kana":"マトバ","prefecture_code":34},"0034":{"zip_code":"7370034","prefecture":"広島県","prefecture_kana":"ヒロシマケン","city":"呉市","city_kana":"クレシ","town":"溝路町","town_kana":"ミゾロチョウ","prefecture_code":34},"0802":{"zip_code":"7370802","prefecture":"広島県","prefecture_kana":"ヒロシマケン","city":"呉市","city_kana":"クレシ","town":"南辰川町","town_kana":"ミナミタツカワチョウ","prefecture_code":34},"0011":{"zip_code":"7370011","prefecture":"広島県","prefecture_kana":"ヒロシマケン","city":"呉市","city_kana":"クレシ","town":"見晴","town_kana":"ミハラシ","prefecture_code":34},"0024":{"zip_code":"7370024","prefecture":"広島県","prefecture_kana":"ヒロシマケン","city":"呉市","city_kana":"クレシ","town":"宮原","town_kana":"ミヤハラ","prefecture_code":34},"0025":{"zip_code":"7370025","prefecture":"広島県","prefecture_kana":"ヒロシマケン","city":"呉市","city_kana":"クレシ","town":"室瀬町","town_kana":"ムロセチョウ","prefecture_code":34},"0904":[{"zip_code":"7370904","prefecture":"広島県","prefecture_kana":"ヒロシマケン","city":"呉市","city_kana":"クレシ","town":"焼山","town_kana":"ヤケヤマ","prefecture_code":34},{"zip_code":"7370904","prefecture":"広島県","prefecture_kana":"ヒロシマケン","city":"呉市","city_kana":"クレシ","town":"焼山打田","town_kana":"ヤケヤマウチダ","prefecture_code":34}],"0913":{"zip_code":"7370913","prefecture":"広島県","prefecture_kana":"ヒロシマケン","city":"呉市","city_kana":"クレシ","town":"焼山泉ケ丘","town_kana":"ヤケヤマイズミガオカ","prefecture_code":34},"0902":{"zip_code":"7370902","prefecture":"広島県","prefecture_kana":"ヒロシマケン","city":"呉市","city_kana":"クレシ","town":"焼山此原町","town_kana":"ヤケヤマコノハラチョウ","prefecture_code":34},"0933":{"zip_code":"7370933","prefecture":"広島県","prefecture_kana":"ヒロシマケン","city":"呉市","city_kana":"クレシ","town":"焼山桜ケ丘","town_kana":"ヤケヤマサクラガオカ","prefecture_code":34},"0935":{"zip_code":"7370935","prefecture":"広島県","prefecture_kana":"ヒロシマケン","city":"呉市","city_kana":"クレシ","town":"焼山中央","town_kana":"ヤケヤマチュウオウ","prefecture_code":34},"0901":{"zip_code":"7370901","prefecture":"広島県","prefecture_kana":"ヒロシマケン","city":"呉市","city_kana":"クレシ","town":"焼山ひばりケ丘町","town_kana":"ヤケヤマヒバリガオカチョウ","prefecture_code":34},"0912":{"zip_code":"7370912","prefecture":"広島県","prefecture_kana":"ヒロシマケン","city":"呉市","city_kana":"クレシ","town":"焼山本庄","town_kana":"ヤケヤマホンジョウ","prefecture_code":34},"0934":{"zip_code":"7370934","prefecture":"広島県","prefecture_kana":"ヒロシマケン","city":"呉市","city_kana":"クレシ","town":"焼山政畝","town_kana":"ヤケヤママサウネ","prefecture_code":34},"0932":{"zip_code":"7370932","prefecture":"広島県","prefecture_kana":"ヒロシマケン","city":"呉市","city_kana":"クレシ","town":"焼山松ケ丘","town_kana":"ヤケヤママツガオカ","prefecture_code":34},"0931":{"zip_code":"7370931","prefecture":"広島県","prefecture_kana":"ヒロシマケン","city":"呉市","city_kana":"クレシ","town":"焼山三ツ石町","town_kana":"ヤケヤマミツイシチョウ","prefecture_code":34},"0908":{"zip_code":"7370908","prefecture":"広島県","prefecture_kana":"ヒロシマケン","city":"呉市","city_kana":"クレシ","town":"焼山宮ケ迫","town_kana":"ヤケヤマミヤガサコ","prefecture_code":34},"0936":{"zip_code":"7370936","prefecture":"広島県","prefecture_kana":"ヒロシマケン","city":"呉市","city_kana":"クレシ","town":"焼山東","town_kana":"ヤケヤマヒガシ","prefecture_code":34},"0903":{"zip_code":"7370903","prefecture":"広島県","prefecture_kana":"ヒロシマケン","city":"呉市","city_kana":"クレシ","town":"焼山西","town_kana":"ヤケヤマニシ","prefecture_code":34},"0924":{"zip_code":"7370924","prefecture":"広島県","prefecture_kana":"ヒロシマケン","city":"呉市","city_kana":"クレシ","town":"焼山南","town_kana":"ヤケヤマミナミ","prefecture_code":34},"0911":{"zip_code":"7370911","prefecture":"広島県","prefecture_kana":"ヒロシマケン","city":"呉市","city_kana":"クレシ","town":"焼山北","town_kana":"ヤケヤマキタ","prefecture_code":34},"0906":[{"zip_code":"7370906","prefecture":"広島県","prefecture_kana":"ヒロシマケン","city":"呉市","city_kana":"クレシ","town":"焼山町","town_kana":"ヤケヤマチョウ","prefecture_code":34},{"zip_code":"7370906","prefecture":"広島県","prefecture_kana":"ヒロシマケン","city":"呉市","city_kana":"クレシ","town":"焼山町野登呂","town_kana":"ヤケヤマチョウノトロ","prefecture_code":34}],"0905":[{"zip_code":"7370905","prefecture":"広島県","prefecture_kana":"ヒロシマケン","city":"呉市","city_kana":"クレシ","town":"焼山町","town_kana":"ヤケヤマチョウ","prefecture_code":34},{"zip_code":"7370905","prefecture":"広島県","prefecture_kana":"ヒロシマケン","city":"呉市","city_kana":"クレシ","town":"焼山町山の神","town_kana":"ヤケヤマチョウヤマノカミ","prefecture_code":34}],"0907":{"zip_code":"7370907","prefecture":"広島県","prefecture_kana":"ヒロシマケン","city":"呉市","city_kana":"クレシ","town":"焼山町","town_kana":"ヤケヤマチョウ","prefecture_code":34},"2511":{"zip_code":"7372511","prefecture":"広島県","prefecture_kana":"ヒロシマケン","city":"呉市","city_kana":"クレシ","town":"安浦町赤向坂","town_kana":"ヤスウラチョウアコウザカ","prefecture_code":34},"2503":{"zip_code":"7372503","prefecture":"広島県","prefecture_kana":"ヒロシマケン","city":"呉市","city_kana":"クレシ","town":"安浦町安登","town_kana":"ヤスウラチョウアト","prefecture_code":34},"2512":{"zip_code":"7372512","prefecture":"広島県","prefecture_kana":"ヒロシマケン","city":"呉市","city_kana":"クレシ","town":"安浦町安登西","town_kana":"ヤスウラチョウアトニシ","prefecture_code":34},"2513":{"zip_code":"7372513","prefecture":"広島県","prefecture_kana":"ヒロシマケン","city":"呉市","city_kana":"クレシ","town":"安浦町安登東","town_kana":"ヤスウラチョウアトヒガシ","prefecture_code":34},"2507":{"zip_code":"7372507","prefecture":"広島県","prefecture_kana":"ヒロシマケン","city":"呉市","city_kana":"クレシ","town":"安浦町内海","town_kana":"ヤスウラチョウウチノウミ","prefecture_code":34},"2518":{"zip_code":"7372518","prefecture":"広島県","prefecture_kana":"ヒロシマケン","city":"呉市","city_kana":"クレシ","town":"安浦町内海北","town_kana":"ヤスウラチョウウチノウミキタ","prefecture_code":34},"2519":{"zip_code":"7372519","prefecture":"広島県","prefecture_kana":"ヒロシマケン","city":"呉市","city_kana":"クレシ","town":"安浦町内海南","town_kana":"ヤスウラチョウウチノウミミナミ","prefecture_code":34},"2505":{"zip_code":"7372505","prefecture":"広島県","prefecture_kana":"ヒロシマケン","city":"呉市","city_kana":"クレシ","town":"安浦町内平","town_kana":"ヤスウラチョウウチヒラ","prefecture_code":34},"2501":{"zip_code":"7372501","prefecture":"広島県","prefecture_kana":"ヒロシマケン","city":"呉市","city_kana":"クレシ","town":"安浦町女子畑","town_kana":"ヤスウラチョウオナゴバタ","prefecture_code":34},"2509":{"zip_code":"7372509","prefecture":"広島県","prefecture_kana":"ヒロシマケン","city":"呉市","city_kana":"クレシ","town":"安浦町下垣内","town_kana":"ヤスウラチョウシモガウチ","prefecture_code":34},"2516":{"zip_code":"7372516","prefecture":"広島県","prefecture_kana":"ヒロシマケン","city":"呉市","city_kana":"クレシ","town":"安浦町中央","town_kana":"ヤスウラチョウチュウオウ","prefecture_code":34},"2515":{"zip_code":"7372515","prefecture":"広島県","prefecture_kana":"ヒロシマケン","city":"呉市","city_kana":"クレシ","town":"安浦町中央北","town_kana":"ヤスウラチョウチュウオウキタ","prefecture_code":34},"2514":{"zip_code":"7372514","prefecture":"広島県","prefecture_kana":"ヒロシマケン","city":"呉市","city_kana":"クレシ","town":"安浦町中央ハイツ","town_kana":"ヤスウラチョウチュウオウハイツ","prefecture_code":34},"2504":{"zip_code":"7372504","prefecture":"広島県","prefecture_kana":"ヒロシマケン","city":"呉市","city_kana":"クレシ","town":"安浦町中切","town_kana":"ヤスウラチョウナカギリ","prefecture_code":34},"2508":{"zip_code":"7372508","prefecture":"広島県","prefecture_kana":"ヒロシマケン","city":"呉市","city_kana":"クレシ","town":"安浦町中畑","town_kana":"ヤスウラチョウナカハタ","prefecture_code":34},"2506":{"zip_code":"7372506","prefecture":"広島県","prefecture_kana":"ヒロシマケン","city":"呉市","city_kana":"クレシ","town":"安浦町原畑","town_kana":"ヤスウラチョウハラハタ","prefecture_code":34},"2517":{"zip_code":"7372517","prefecture":"広島県","prefecture_kana":"ヒロシマケン","city":"呉市","city_kana":"クレシ","town":"安浦町水尻","town_kana":"ヤスウラチョウミズシリ","prefecture_code":34},"2502":{"zip_code":"7372502","prefecture":"広島県","prefecture_kana":"ヒロシマケン","city":"呉市","city_kana":"クレシ","town":"安浦町三津口","town_kana":"ヤスウラチョウミツグチ","prefecture_code":34},"0044":{"zip_code":"7370044","prefecture":"広島県","prefecture_kana":"ヒロシマケン","city":"呉市","city_kana":"クレシ","town":"八幡町","town_kana":"ヤハタチョウ","prefecture_code":34},"0814":{"zip_code":"7370814","prefecture":"広島県","prefecture_kana":"ヒロシマケン","city":"呉市","city_kana":"クレシ","town":"山手","town_kana":"ヤマテ","prefecture_code":34},"0877":{"zip_code":"7370877","prefecture":"広島県","prefecture_kana":"ヒロシマケン","city":"呉市","city_kana":"クレシ","town":"弥生町","town_kana":"ヤヨイチョウ","prefecture_code":34},"0844":{"zip_code":"7370844","prefecture":"広島県","prefecture_kana":"ヒロシマケン","city":"呉市","city_kana":"クレシ","town":"吉浦池ノ浦町","town_kana":"ヨシウライケノウラチョウ","prefecture_code":34},"0865":{"zip_code":"7370865","prefecture":"広島県","prefecture_kana":"ヒロシマケン","city":"呉市","city_kana":"クレシ","town":"吉浦岩神町","town_kana":"ヨシウライワガミチョウ","prefecture_code":34},"0867":{"zip_code":"7370867","prefecture":"広島県","prefecture_kana":"ヒロシマケン","city":"呉市","city_kana":"クレシ","town":"吉浦上城町","town_kana":"ヨシウラカミジョウチョウ","prefecture_code":34},"0851":{"zip_code":"7370851","prefecture":"広島県","prefecture_kana":"ヒロシマケン","city":"呉市","city_kana":"クレシ","town":"吉浦新出町","town_kana":"ヨシウラシンデチョウ","prefecture_code":34},"0845":{"zip_code":"7370845","prefecture":"広島県","prefecture_kana":"ヒロシマケン","city":"呉市","city_kana":"クレシ","town":"吉浦新町","town_kana":"ヨシウラシンマチ","prefecture_code":34},"0841":{"zip_code":"7370841","prefecture":"広島県","prefecture_kana":"ヒロシマケン","city":"呉市","city_kana":"クレシ","town":"吉浦神賀町","town_kana":"ヨシウラジンガチョウ","prefecture_code":34},"0843":{"zip_code":"7370843","prefecture":"広島県","prefecture_kana":"ヒロシマケン","city":"呉市","city_kana":"クレシ","town":"吉浦潭鼓町","town_kana":"ヨシウラタンコチョウ","prefecture_code":34},"0853":{"zip_code":"7370853","prefecture":"広島県","prefecture_kana":"ヒロシマケン","city":"呉市","city_kana":"クレシ","town":"吉浦中町","town_kana":"ヨシウラナカマチ","prefecture_code":34},"0864":{"zip_code":"7370864","prefecture":"広島県","prefecture_kana":"ヒロシマケン","city":"呉市","city_kana":"クレシ","town":"吉浦西城町","town_kana":"ヨシウラニシジョウチョウ","prefecture_code":34},"0852":{"zip_code":"7370852","prefecture":"広島県","prefecture_kana":"ヒロシマケン","city":"呉市","city_kana":"クレシ","town":"吉浦東本町","town_kana":"ヨシウラヒガシホンマチ","prefecture_code":34},"0842":{"zip_code":"7370842","prefecture":"広島県","prefecture_kana":"ヒロシマケン","city":"呉市","city_kana":"クレシ","town":"吉浦東町","town_kana":"ヨシウラヒガシマチ","prefecture_code":34},"0861":{"zip_code":"7370861","prefecture":"広島県","prefecture_kana":"ヒロシマケン","city":"呉市","city_kana":"クレシ","town":"吉浦本町","town_kana":"ヨシウラホンマチ","prefecture_code":34},"0866":{"zip_code":"7370866","prefecture":"広島県","prefecture_kana":"ヒロシマケン","city":"呉市","city_kana":"クレシ","town":"吉浦松葉町","town_kana":"ヨシウラマツバチョウ","prefecture_code":34},"0863":{"zip_code":"7370863","prefecture":"広島県","prefecture_kana":"ヒロシマケン","city":"呉市","city_kana":"クレシ","town":"吉浦宮花町","town_kana":"ヨシウラミヤハナチョウ","prefecture_code":34},"0846":[{"zip_code":"7370846","prefecture":"広島県","prefecture_kana":"ヒロシマケン","city":"呉市","city_kana":"クレシ","town":"吉浦町","town_kana":"ヨシウラチョウ","prefecture_code":34},{"zip_code":"7370846","prefecture":"広島県","prefecture_kana":"ヒロシマケン","city":"呉市","city_kana":"クレシ","town":"吉浦町乙廻り","town_kana":"ヨシウラチョウオトマワリ","prefecture_code":34}],"0854":{"zip_code":"7370854","prefecture":"広島県","prefecture_kana":"ヒロシマケン","city":"呉市","city_kana":"クレシ","town":"吉浦町","town_kana":"ヨシウラチョウ","prefecture_code":34},"0826":{"zip_code":"7370826","prefecture":"広島県","prefecture_kana":"ヒロシマケン","city":"呉市","city_kana":"クレシ","town":"両城","town_kana":"リョウジョウ","prefecture_code":34},"0832":{"zip_code":"7370832","prefecture":"広島県","prefecture_kana":"ヒロシマケン","city":"呉市","city_kana":"クレシ","town":"若葉町","town_kana":"ワカバチョウ","prefecture_code":34},"0041":{"zip_code":"7370041","prefecture":"広島県","prefecture_kana":"ヒロシマケン","city":"呉市","city_kana":"クレシ","town":"和庄","town_kana":"ワショウ","prefecture_code":34},"0043":{"zip_code":"7370043","prefecture":"広島県","prefecture_kana":"ヒロシマケン","city":"呉市","city_kana":"クレシ","town":"和庄登町","town_kana":"ワショウノボリマチ","prefecture_code":34},"0042":{"zip_code":"7370042","prefecture":"広島県","prefecture_kana":"ヒロシマケン","city":"呉市","city_kana":"クレシ","town":"和庄本町","town_kana":"ワショウホンマチ","prefecture_code":34},"2100":{"zip_code":"7372100","prefecture":"広島県","prefecture_kana":"ヒロシマケン","city":"江田島市","city_kana":"エタジマシ","town":"","town_kana":"","prefecture_code":34},"2131":{"zip_code":"7372131","prefecture":"広島県","prefecture_kana":"ヒロシマケン","city":"江田島市","city_kana":"エタジマシ","town":"江田島町秋月","town_kana":"エタジマチョウアキヅキ","prefecture_code":34},"2113":{"zip_code":"7372113","prefecture":"広島県","prefecture_kana":"ヒロシマケン","city":"江田島市","city_kana":"エタジマシ","town":"江田島町大須","town_kana":"エタジマチョウオオズ","prefecture_code":34},"2125":{"zip_code":"7372125","prefecture":"広島県","prefecture_kana":"ヒロシマケン","city":"江田島市","city_kana":"エタジマシ","town":"江田島町大原特借宿舎","town_kana":"エタジマチョウオオハラトッカリシュクシャ","prefecture_code":34},"2111":{"zip_code":"7372111","prefecture":"広島県","prefecture_kana":"ヒロシマケン","city":"江田島市","city_kana":"エタジマシ","town":"江田島町切串","town_kana":"エタジマチョウキリクシ","prefecture_code":34},"2132":{"zip_code":"7372132","prefecture":"広島県","prefecture_kana":"ヒロシマケン","city":"江田島市","city_kana":"エタジマシ","town":"江田島町江南","town_kana":"エタジマチョウコウナン","prefecture_code":34},"2112":{"zip_code":"7372112","prefecture":"広島県","prefecture_kana":"ヒロシマケン","city":"江田島市","city_kana":"エタジマシ","town":"江田島町幸ノ浦","town_kana":"エタジマチョウコウノウラ","prefecture_code":34},"2123":{"zip_code":"7372123","prefecture":"広島県","prefecture_kana":"ヒロシマケン","city":"江田島市","city_kana":"エタジマシ","town":"江田島町国有無番地","town_kana":"エタジマチョウコクユウムバンチ","prefecture_code":34},"2121":{"zip_code":"7372121","prefecture":"広島県","prefecture_kana":"ヒロシマケン","city":"江田島市","city_kana":"エタジマシ","town":"江田島町小用","town_kana":"エタジマチョウコヨウ","prefecture_code":34},"2122":{"zip_code":"7372122","prefecture":"広島県","prefecture_kana":"ヒロシマケン","city":"江田島市","city_kana":"エタジマシ","town":"江田島町中央","town_kana":"エタジマチョウチュウオウ","prefecture_code":34},"2126":{"zip_code":"7372126","prefecture":"広島県","prefecture_kana":"ヒロシマケン","city":"江田島市","city_kana":"エタジマシ","town":"江田島町津久茂","town_kana":"エタジマチョウツクモ","prefecture_code":34},"2124":{"zip_code":"7372124","prefecture":"広島県","prefecture_kana":"ヒロシマケン","city":"江田島市","city_kana":"エタジマシ","town":"江田島町宮ノ原","town_kana":"エタジマチョウミヤノハラ","prefecture_code":34},"2133":{"zip_code":"7372133","prefecture":"広島県","prefecture_kana":"ヒロシマケン","city":"江田島市","city_kana":"エタジマシ","town":"江田島町鷲部","town_kana":"エタジマチョウワシベ","prefecture_code":34},"2212":{"zip_code":"7372212","prefecture":"広島県","prefecture_kana":"ヒロシマケン","city":"江田島市","city_kana":"エタジマシ","town":"大柿町大君","town_kana":"オオガキチョウオオキミ","prefecture_code":34},"2213":{"zip_code":"7372213","prefecture":"広島県","prefecture_kana":"ヒロシマケン","city":"江田島市","city_kana":"エタジマシ","town":"大柿町大原","town_kana":"オオガキチョウオオバラ","prefecture_code":34},"2215":{"zip_code":"7372215","prefecture":"広島県","prefecture_kana":"ヒロシマケン","city":"江田島市","city_kana":"エタジマシ","town":"大柿町小古江","town_kana":"オオガキチョウオブレ","prefecture_code":34},"2211":{"zip_code":"7372211","prefecture":"広島県","prefecture_kana":"ヒロシマケン","city":"江田島市","city_kana":"エタジマシ","town":"大柿町柿浦","town_kana":"オオガキチョウカキウラ","prefecture_code":34},"2101":{"zip_code":"7372101","prefecture":"広島県","prefecture_kana":"ヒロシマケン","city":"江田島市","city_kana":"エタジマシ","town":"大柿町飛渡瀬","town_kana":"オオガキチョウヒトノセ","prefecture_code":34},"2214":{"zip_code":"7372214","prefecture":"広島県","prefecture_kana":"ヒロシマケン","city":"江田島市","city_kana":"エタジマシ","town":"大柿町深江","town_kana":"オオガキチョウフカエ","prefecture_code":34},"2311":{"zip_code":"7372311","prefecture":"広島県","prefecture_kana":"ヒロシマケン","city":"江田島市","city_kana":"エタジマシ","town":"沖美町岡大王","town_kana":"オキミチョウオカダイオウ","prefecture_code":34},"2315":{"zip_code":"7372315","prefecture":"広島県","prefecture_kana":"ヒロシマケン","city":"江田島市","city_kana":"エタジマシ","town":"沖美町高祖","town_kana":"オキミチョウコウソ","prefecture_code":34},"2313":{"zip_code":"7372313","prefecture":"広島県","prefecture_kana":"ヒロシマケン","city":"江田島市","city_kana":"エタジマシ","town":"沖美町是長","town_kana":"オキミチョウコレナガ","prefecture_code":34},"2312":{"zip_code":"7372312","prefecture":"広島県","prefecture_kana":"ヒロシマケン","city":"江田島市","city_kana":"エタジマシ","town":"沖美町畑","town_kana":"オキミチョウハタ","prefecture_code":34},"2314":{"zip_code":"7372314","prefecture":"広島県","prefecture_kana":"ヒロシマケン","city":"江田島市","city_kana":"エタジマシ","town":"沖美町美能","town_kana":"オキミチョウミノウ","prefecture_code":34},"2316":{"zip_code":"7372316","prefecture":"広島県","prefecture_kana":"ヒロシマケン","city":"江田島市","city_kana":"エタジマシ","town":"沖美町三吉","town_kana":"オキミチョウミヨシ","prefecture_code":34},"2302":{"zip_code":"7372302","prefecture":"広島県","prefecture_kana":"ヒロシマケン","city":"江田島市","city_kana":"エタジマシ","town":"能美町鹿川","town_kana":"ノウミチョウカノカワ","prefecture_code":34},"2303":{"zip_code":"7372303","prefecture":"広島県","prefecture_kana":"ヒロシマケン","city":"江田島市","city_kana":"エタジマシ","town":"能美町高田","town_kana":"ノウミチョウタカタ","prefecture_code":34},"2301":{"zip_code":"7372301","prefecture":"広島県","prefecture_kana":"ヒロシマケン","city":"江田島市","city_kana":"エタジマシ","town":"能美町中町","town_kana":"ノウミチョウナカマチ","prefecture_code":34}}