{"0514":{"zip_code":"7380514","prefecture":"広島県","prefecture_kana":"ヒロシマケン","city":"広島市佐伯区","city_kana":"ヒロシマシサエキク","town":"杉並台","town_kana":"スギナミダイ","prefecture_code":34},"0603":{"zip_code":"7380603","prefecture":"広島県","prefecture_kana":"ヒロシマケン","city":"広島市佐伯区","city_kana":"ヒロシマシサエキク","town":"湯来町下","town_kana":"ユキチョウシモ","prefecture_code":34},"0512":{"zip_code":"7380512","prefecture":"広島県","prefecture_kana":"ヒロシマケン","city":"広島市佐伯区","city_kana":"ヒロシマシサエキク","town":"湯来町白砂","town_kana":"ユキチョウシラサゴ","prefecture_code":34},"0513":[{"zip_code":"7380513","prefecture":"広島県","prefecture_kana":"ヒロシマケン","city":"広島市佐伯区","city_kana":"ヒロシマシサエキク","town":"湯来町菅沢黒谷","town_kana":"ユキチョウスガサワクロダニ","prefecture_code":34},{"zip_code":"7380513","prefecture":"広島県","prefecture_kana":"ヒロシマケン","city":"広島市佐伯区","city_kana":"ヒロシマシサエキク","town":"湯来町伏谷","town_kana":"ユキチョウフシダニ","prefecture_code":34}],"0722":{"zip_code":"7380722","prefecture":"広島県","prefecture_kana":"ヒロシマケン","city":"広島市佐伯区","city_kana":"ヒロシマシサエキク","town":"湯来町菅沢","town_kana":"ユキチョウスガサワ","prefecture_code":34},"0721":{"zip_code":"7380721","prefecture":"広島県","prefecture_kana":"ヒロシマケン","city":"広島市佐伯区","city_kana":"ヒロシマシサエキク","town":"湯来町多田","town_kana":"ユキチョウタダ","prefecture_code":34},"0511":{"zip_code":"7380511","prefecture":"広島県","prefecture_kana":"ヒロシマケン","city":"広島市佐伯区","city_kana":"ヒロシマシサエキク","town":"湯来町葛原","town_kana":"ユキチョウツヅラハラ","prefecture_code":34},"0602":{"zip_code":"7380602","prefecture":"広島県","prefecture_kana":"ヒロシマケン","city":"広島市佐伯区","city_kana":"ヒロシマシサエキク","town":"湯来町麦谷","town_kana":"ユキチョウムギタニ","prefecture_code":34},"0601":{"zip_code":"7380601","prefecture":"広島県","prefecture_kana":"ヒロシマケン","city":"広島市佐伯区","city_kana":"ヒロシマシサエキク","town":"湯来町和田","town_kana":"ユキチョウワダ","prefecture_code":34},"0000":{"zip_code":"7380000","prefecture":"広島県","prefecture_kana":"ヒロシマケン","city":"廿日市市","city_kana":"ハツカイチシ","town":"","town_kana":"","prefecture_code":34},"0223":{"zip_code":"7380223","prefecture":"広島県","prefecture_kana":"ヒロシマケン","city":"廿日市市","city_kana":"ハツカイチシ","town":"浅原","town_kana":"アサハラ","prefecture_code":34},"0054":{"zip_code":"7380054","prefecture":"広島県","prefecture_kana":"ヒロシマケン","city":"廿日市市","city_kana":"ハツカイチシ","town":"阿品","town_kana":"アジナ","prefecture_code":34},"0053":{"zip_code":"7380053","prefecture":"広島県","prefecture_kana":"ヒロシマケン","city":"廿日市市","city_kana":"ハツカイチシ","town":"阿品台","town_kana":"アジナダイ","prefecture_code":34},"0051":{"zip_code":"7380051","prefecture":"広島県","prefecture_kana":"ヒロシマケン","city":"廿日市市","city_kana":"ハツカイチシ","town":"阿品台北","town_kana":"アジナダイキタ","prefecture_code":34},"0055":{"zip_code":"7380055","prefecture":"広島県","prefecture_kana":"ヒロシマケン","city":"廿日市市","city_kana":"ハツカイチシ","town":"阿品台西","town_kana":"アジナダイニシ","prefecture_code":34},"0052":{"zip_code":"7380052","prefecture":"広島県","prefecture_kana":"ヒロシマケン","city":"廿日市市","city_kana":"ハツカイチシ","town":"阿品台東","town_kana":"アジナダイヒガシ","prefecture_code":34},"0056":{"zip_code":"7380056","prefecture":"広島県","prefecture_kana":"ヒロシマケン","city":"廿日市市","city_kana":"ハツカイチシ","town":"阿品台山の手","town_kana":"アジナダイヤマノテ","prefecture_code":34},"0226":{"zip_code":"7380226","prefecture":"広島県","prefecture_kana":"ヒロシマケン","city":"廿日市市","city_kana":"ハツカイチシ","town":"飯山","town_kana":"イイノヤマ","prefecture_code":34},"0011":{"zip_code":"7380011","prefecture":"広島県","prefecture_kana":"ヒロシマケン","city":"廿日市市","city_kana":"ハツカイチシ","town":"駅前","town_kana":"エキマエ","prefecture_code":34},"0281":{"zip_code":"7380281","prefecture":"広島県","prefecture_kana":"ヒロシマケン","city":"廿日市市","city_kana":"ハツカイチシ","town":"大野鴉ケ岡","town_kana":"オオノカラスガオカ","prefecture_code":34},"0282":{"zip_code":"7380282","prefecture":"広島県","prefecture_kana":"ヒロシマケン","city":"廿日市市","city_kana":"ハツカイチシ","town":"大野渡ノ瀬","town_kana":"オオノワタノセ","prefecture_code":34},"0006":{"zip_code":"7380006","prefecture":"広島県","prefecture_kana":"ヒロシマケン","city":"廿日市市","city_kana":"ハツカイチシ","town":"大東","town_kana":"オオヒガシ","prefecture_code":34},"0016":{"zip_code":"7380016","prefecture":"広島県","prefecture_kana":"ヒロシマケン","city":"廿日市市","city_kana":"ハツカイチシ","town":"可愛","town_kana":"カアイ","prefecture_code":34},"0026":{"zip_code":"7380026","prefecture":"広島県","prefecture_kana":"ヒロシマケン","city":"廿日市市","city_kana":"ハツカイチシ","town":"上平良","town_kana":"カミヘラ","prefecture_code":34},"0204":{"zip_code":"7380204","prefecture":"広島県","prefecture_kana":"ヒロシマケン","city":"廿日市市","city_kana":"ハツカイチシ","town":"河津原","town_kana":"カワヅハラ","prefecture_code":34},"0033":{"zip_code":"7380033","prefecture":"広島県","prefecture_kana":"ヒロシマケン","city":"廿日市市","city_kana":"ハツカイチシ","town":"串戸","town_kana":"クシド","prefecture_code":34},"0205":{"zip_code":"7380205","prefecture":"広島県","prefecture_kana":"ヒロシマケン","city":"廿日市市","city_kana":"ハツカイチシ","town":"玖島","town_kana":"クジマ","prefecture_code":34},"0224":{"zip_code":"7380224","prefecture":"広島県","prefecture_kana":"ヒロシマケン","city":"廿日市市","city_kana":"ハツカイチシ","town":"栗栖","town_kana":"クリス","prefecture_code":34},"0001":{"zip_code":"7380001","prefecture":"広島県","prefecture_kana":"ヒロシマケン","city":"廿日市市","city_kana":"ハツカイチシ","town":"佐方","town_kana":"サガタ","prefecture_code":34},"0003":{"zip_code":"7380003","prefecture":"広島県","prefecture_kana":"ヒロシマケン","city":"廿日市市","city_kana":"ハツカイチシ","town":"佐方本町","town_kana":"サガタホンマチ","prefecture_code":34},"0004":{"zip_code":"7380004","prefecture":"広島県","prefecture_kana":"ヒロシマケン","city":"廿日市市","city_kana":"ハツカイチシ","town":"桜尾","town_kana":"サクラオ","prefecture_code":34},"0005":{"zip_code":"7380005","prefecture":"広島県","prefecture_kana":"ヒロシマケン","city":"廿日市市","city_kana":"ハツカイチシ","town":"桜尾本町","town_kana":"サクラオホンマチ","prefecture_code":34},"0002":{"zip_code":"7380002","prefecture":"広島県","prefecture_kana":"ヒロシマケン","city":"廿日市市","city_kana":"ハツカイチシ","town":"山陽園","town_kana":"サンヨウエン","prefecture_code":34},"0036":{"zip_code":"7380036","prefecture":"広島県","prefecture_kana":"ヒロシマケン","city":"廿日市市","city_kana":"ハツカイチシ","town":"四季が丘","town_kana":"シキガオカ","prefecture_code":34},"0038":{"zip_code":"7380038","prefecture":"広島県","prefecture_kana":"ヒロシマケン","city":"廿日市市","city_kana":"ハツカイチシ","town":"四季が丘上","town_kana":"シキガオカカミ","prefecture_code":34},"0042":{"zip_code":"7380042","prefecture":"広島県","prefecture_kana":"ヒロシマケン","city":"廿日市市","city_kana":"ハツカイチシ","town":"地御前","town_kana":"ジゴゼン","prefecture_code":34},"0043":{"zip_code":"7380043","prefecture":"広島県","prefecture_kana":"ヒロシマケン","city":"廿日市市","city_kana":"ハツカイチシ","town":"地御前北","town_kana":"ジゴゼンキタ","prefecture_code":34},"0023":{"zip_code":"7380023","prefecture":"広島県","prefecture_kana":"ヒロシマケン","city":"廿日市市","city_kana":"ハツカイチシ","town":"下平良","town_kana":"シモヘラ","prefecture_code":34},"0007":{"zip_code":"7380007","prefecture":"広島県","prefecture_kana":"ヒロシマケン","city":"廿日市市","city_kana":"ハツカイチシ","town":"城内","town_kana":"ジョウナイ","prefecture_code":34},"0024":{"zip_code":"7380024","prefecture":"広島県","prefecture_kana":"ヒロシマケン","city":"廿日市市","city_kana":"ハツカイチシ","town":"新宮","town_kana":"シングウ","prefecture_code":34},"0017":{"zip_code":"7380017","prefecture":"広島県","prefecture_kana":"ヒロシマケン","city":"廿日市市","city_kana":"ハツカイチシ","town":"須賀","town_kana":"スカ","prefecture_code":34},"0014":{"zip_code":"7380014","prefecture":"広島県","prefecture_kana":"ヒロシマケン","city":"廿日市市","city_kana":"ハツカイチシ","town":"住吉","town_kana":"スミヨシ","prefecture_code":34},"0222":{"zip_code":"7380222","prefecture":"広島県","prefecture_kana":"ヒロシマケン","city":"廿日市市","city_kana":"ハツカイチシ","town":"津田","town_kana":"ツタ","prefecture_code":34},"0012":{"zip_code":"7380012","prefecture":"広島県","prefecture_kana":"ヒロシマケン","city":"廿日市市","city_kana":"ハツカイチシ","town":"天神","town_kana":"テンジン","prefecture_code":34},"0202":{"zip_code":"7380202","prefecture":"広島県","prefecture_kana":"ヒロシマケン","city":"廿日市市","city_kana":"ハツカイチシ","town":"峠","town_kana":"トウゲ","prefecture_code":34},"0203":{"zip_code":"7380203","prefecture":"広島県","prefecture_kana":"ヒロシマケン","city":"廿日市市","city_kana":"ハツカイチシ","town":"友田","town_kana":"トモタ","prefecture_code":34},"0201":{"zip_code":"7380201","prefecture":"広島県","prefecture_kana":"ヒロシマケン","city":"廿日市市","city_kana":"ハツカイチシ","town":"永原","town_kana":"ナガハラ","prefecture_code":34},"0225":{"zip_code":"7380225","prefecture":"広島県","prefecture_kana":"ヒロシマケン","city":"廿日市市","city_kana":"ハツカイチシ","town":"中道","town_kana":"ナカミチ","prefecture_code":34},"0013":{"zip_code":"7380013","prefecture":"広島県","prefecture_kana":"ヒロシマケン","city":"廿日市市","city_kana":"ハツカイチシ","town":"廿日市","town_kana":"ハツカイチ","prefecture_code":34},"0031":{"zip_code":"7380031","prefecture":"広島県","prefecture_kana":"ヒロシマケン","city":"廿日市市","city_kana":"ハツカイチシ","town":"原","town_kana":"ハラ","prefecture_code":34},"0025":{"zip_code":"7380025","prefecture":"広島県","prefecture_kana":"ヒロシマケン","city":"廿日市市","city_kana":"ハツカイチシ","town":"平良","town_kana":"ヘラ","prefecture_code":34},"0027":{"zip_code":"7380027","prefecture":"広島県","prefecture_kana":"ヒロシマケン","city":"廿日市市","city_kana":"ハツカイチシ","town":"平良山手","town_kana":"ヘラヤマテ","prefecture_code":34},"0015":{"zip_code":"7380015","prefecture":"広島県","prefecture_kana":"ヒロシマケン","city":"廿日市市","city_kana":"ハツカイチシ","town":"本町","town_kana":"ホンマチ","prefecture_code":34},"0032":{"zip_code":"7380032","prefecture":"広島県","prefecture_kana":"ヒロシマケン","city":"廿日市市","city_kana":"ハツカイチシ","town":"峰高","town_kana":"ミネタカ","prefecture_code":34},"0034":{"zip_code":"7380034","prefecture":"広島県","prefecture_kana":"ヒロシマケン","city":"廿日市市","city_kana":"ハツカイチシ","town":"宮内","town_kana":"ミヤウチ","prefecture_code":34},"0039":{"zip_code":"7380039","prefecture":"広島県","prefecture_kana":"ヒロシマケン","city":"廿日市市","city_kana":"ハツカイチシ","town":"宮内工業団地","town_kana":"ミヤウチコウギョウダンチ","prefecture_code":34},"0035":{"zip_code":"7380035","prefecture":"広島県","prefecture_kana":"ヒロシマケン","city":"廿日市市","city_kana":"ハツカイチシ","town":"宮園","town_kana":"ミヤゾノ","prefecture_code":34},"0037":{"zip_code":"7380037","prefecture":"広島県","prefecture_kana":"ヒロシマケン","city":"廿日市市","city_kana":"ハツカイチシ","town":"宮園上","town_kana":"ミヤゾノカミ","prefecture_code":34},"0221":{"zip_code":"7380221","prefecture":"広島県","prefecture_kana":"ヒロシマケン","city":"廿日市市","city_kana":"ハツカイチシ","town":"虫所山","town_kana":"ムシトコロヤマ","prefecture_code":34},"0021":{"zip_code":"7380021","prefecture":"広島県","prefecture_kana":"ヒロシマケン","city":"廿日市市","city_kana":"ハツカイチシ","town":"木材港北","town_kana":"モクザイコウキタ","prefecture_code":34},"0022":{"zip_code":"7380022","prefecture":"広島県","prefecture_kana":"ヒロシマケン","city":"廿日市市","city_kana":"ハツカイチシ","town":"木材港南","town_kana":"モクザイコウミナミ","prefecture_code":34},"0060":{"zip_code":"7380060","prefecture":"広島県","prefecture_kana":"ヒロシマケン","city":"廿日市市","city_kana":"ハツカイチシ","town":"陽光台","town_kana":"ヨウコウダイ","prefecture_code":34},"0301":{"zip_code":"7380301","prefecture":"広島県","prefecture_kana":"ヒロシマケン","city":"廿日市市","city_kana":"ハツカイチシ","town":"吉和","town_kana":"ヨシワ","prefecture_code":34},"0041":{"zip_code":"7380041","prefecture":"広島県","prefecture_kana":"ヒロシマケン","city":"廿日市市","city_kana":"ハツカイチシ","town":"六本松","town_kana":"ロッポンマツ","prefecture_code":34}}